201902010000 METAR LROD 010000Z AUTO 20008KT 3200 -SHRA FEW001/// OVC004///
                        01/01 Q1008=
201902010030 METAR LROD 010030Z AUTO 20007KT 3500 -RA BKN004/// OVC006///
                        01/01 Q1008=
201902010100 METAR LROD 010100Z AUTO 19008KT 3500 -DZ BKN003/// OVC005///
                        01/01 Q1008=
201902010130 METAR LROD 010130Z AUTO 19006KT 4200 SCT003/// BKN016///
                        01/01 Q1008 REDZ=
201902010200 METAR LROD 010200Z AUTO 19007KT 2600 BR OVC004/// 01/01 Q1008=
201902010230 METAR LROD 010230Z AUTO 19007KT 2900 BR BKN002/// BKN004///
                        01/01 Q1009=
201902010300 METAR LROD 010300Z AUTO 19008KT 4100 BR FEW003/// BKN005///
                        BKN010/// 02/02 Q1009=
201902010330 METAR LROD 010330Z AUTO 18006KT 5000 BR FEW005/// BKN016///
                        BKN020/// 02/02 Q1009=
201902010400 METAR LROD 010400Z AUTO 18007KT 5000 BR FEW008/// BKN016///
                        OVC021/// 02/02 Q1009=
201902010430 METAR LROD 010430Z AUTO 20011KT 5000 BR BKN006/// BKN021///
                        02/02 Q1009=
201902010500 METAR LROD 010500Z 19007KT 6000 BKN005 02/01 Q1009 R01/29//95=
201902010530 METAR LROD 010530Z 19006KT 7000 SCT008 BKN014 01/01 Q1009
                        R01/29//95=
201902010600 METAR LROD 010600Z 17005KT 8000 FEW017 01/01 Q1009 R01/29//95=
201902010630 METAR LROD 010630Z 13002KT CAVOK 01/01 Q1009 R01/29//95=
201902010700 METAR LROD 010700Z 14002KT CAVOK 01/01 Q1010 R01/29//95=
201902010730 METAR LROD 010730Z VRB01KT CAVOK 01/01 Q1010 R01/29//95=
201902010800 METAR LROD 010800Z 26003KT 9999 FEW042 02/01 Q1010 R01/29//95=
201902010830 METAR LROD 010830Z 09002KT 9999 BKN039 03/02 Q1010 R01/29//95=
201902010900 METAR LROD 010900Z 12004KT 9999 SCT040 03/02 Q1010 R01/29//95=
201902010930 METAR LROD 010930Z 12006KT 9999 SCT043 04/02 Q1010 R01/29//95=
201902011000 METAR LROD 011000Z 12006KT 9999 -RA SCT045 05/02 Q1010 R01/29//95=
201902011030 METAR LROD 011030Z 12006KT 9999 -RA BKN047 05/02 Q1009 R01/29//95=
201902011100 METAR LROD 011100Z 13008KT 9999 SCT043 FEW050CB 06/03 Q1009
                        R01/29//95=
201902011130 METAR LROD 011130Z AUTO 13012KT 9999 BKN065/// 08/03 Q1009
                        RERA=
201902011200 METAR LROD 011200Z 14010KT 110V170 CAVOK 08/02 Q1008 R01/29//95=
201902011230 METAR LROD 011230Z 13009KT 110V170 CAVOK 09/02 Q1008 R01/29//95=
201902011300 METAR LROD 011300Z 13008KT CAVOK 09/03 Q1008 R01/29//95=
201902011330 METAR LROD 011330Z 15007KT CAVOK 10/03 Q1008 R01/29//95=
201902011400 METAR LROD 011400Z 16005KT CAVOK 10/03 Q1008 R01/29//95=
201902011430 METAR LROD 011430Z 14002KT CAVOK 09/03 Q1008 R01/29//95=
201902011500 METAR LROD 011500Z 11004KT CAVOK 09/02 Q1008 R01/29//95=
201902011530 METAR LROD 011530Z 12005KT CAVOK 08/02 Q1008 R01/29//95=
201902011600 METAR LROD 011600Z 12005KT CAVOK 07/02 Q1008 R01/29//95=
201902011630 METAR LROD 011630Z 12006KT CAVOK 07/02 Q1007 R01/29//95=
201902011700 METAR LROD 011700Z 11006KT CAVOK 07/01 Q1007 R01/29//95=
201902011730 METAR LROD 011730Z 11006KT CAVOK 06/01 Q1007 R01/CLRD//=
201902011800 METAR LROD 011800Z 12006KT CAVOK 06/00 Q1007 R01/CLRD//=
201902011830 METAR LROD 011830Z 11006KT CAVOK 06/01 Q1007=
201902011900 METAR LROD 011900Z 11007KT CAVOK 06/01 Q1007=
201902011930 METAR LROD 011930Z AUTO 11007KT 9999 NCD 06/01 Q1007=
201902012000 METAR LROD 012000Z AUTO 10006KT 9999 FEW100/// BKN120///
                        06/01 Q1007=
201902012030 METAR LROD 012030Z AUTO 11007KT 9999 FEW100/// 07/01 Q1007=
201902012100 METAR LROD 012100Z AUTO 11007KT 9999 BKN100/// BKN130///
                        07/02 Q1007=
201902012130 METAR LROD 012130Z AUTO 11007KT 9999 BKN100/// BKN110///
                        OVC130/// 08/02 Q1007=
201902012200 METAR LROD 012200Z AUTO 12007KT 9999 BKN100/// 09/02 Q1006=
201902012230 METAR LROD 012230Z AUTO 13006KT 9999 SCT090/// OVC100///
                        09/02 Q1006=
201902012300 METAR LROD 012300Z AUTO 13005KT 9999 FEW095/// BKN120///
                        BKN140/// 09/02 Q1006=
201902012330 METAR LROD 012330Z AUTO 13005KT 9999 SCT090/// BKN100///
                        09/02 Q1006=
201902020000 METAR LROD 020000Z AUTO 12004KT 9999 SCT075/// BKN095///
                        09/03 Q1006=
201902020030 METAR LROD 020030Z AUTO 14005KT 110V180 9999 BKN075/// OVC095///
                        10/03 Q1006=
201902020100 METAR LROD 020100Z AUTO 16008KT 9999 BKN085/// BKN190///
                        11/03 Q1006=
201902020130 METAR LROD 020130Z AUTO 15008KT 9999 FEW080/// BKN095///
                        11/03 Q1006=
201902020200 METAR LROD 020200Z AUTO 17011KT 9999 SCT080/// BKN095///
                        11/04 Q1006=
201902020230 METAR LROD 020230Z AUTO 17012KT 9999 SCT090/// OVC100///
                        12/03 Q1006=
201902020300 METAR LROD 020300Z AUTO 17012KT 9999 BKN095/// BKN110///
                        12/04 Q1005=
201902020330 METAR LROD 020330Z AUTO 17012KT 9999 -DZ SCT075/// BKN095///
                        OVC110/// 12/04 Q1006=
201902020400 METAR LROD 020400Z AUTO 17013KT 9999 -SHRA SCT070/// BKN095///
                        12/04 Q1006=
201902020430 METAR LROD 020430Z AUTO 17012KT 9999 -SHRA OVC090/// 12/04
                        Q1006=
201902020500 METAR LROD 020500Z 16010KT 9999 -RA NSC 12/04 Q1006=
201902020530 METAR LROD 020530Z 13005KT 100V170 9999 -RA NSC 11/05 Q1006=
201902020600 METAR LROD 020600Z 13006KT 100V160 9999 -RA NSC 12/04 Q1006=
201902020630 METAR LROD 020630Z 12006KT 9999 -RA NSC 10/05 Q1006=
201902020700 METAR LROD 020700Z 12006KT 9999 -RA NSC 10/05 Q1006=
201902020730 METAR LROD 020730Z 13006KT CAVOK 11/04 Q1006=
201902020800 METAR LROD 020800Z 14006KT CAVOK 12/04 Q1006=
201902020830 METAR LROD 020830Z 15008KT CAVOK 13/05 Q1006=
201902020900 METAR LROD 020900Z 16009KT CAVOK 14/05 Q1006=
201902020930 METAR LROD 020930Z 16011KT CAVOK 14/05 Q1006=
201902021000 METAR LROD 021000Z 18015KT CAVOK 15/04 Q1006=
201902021030 METAR LROD 021030Z 17014KT CAVOK 15/04 Q1006=
201902021100 METAR LROD 021100Z 17015KT CAVOK 15/04 Q1006=
201902021130 METAR LROD 021130Z 17013KT CAVOK 15/04 Q1006=
201902021200 METAR COR LROD 021200Z 17013KT CAVOK 15/04 Q1005=
201902021230 METAR LROD 021230Z 17013KT 140V200 CAVOK 14/04 Q1005=
201902021300 METAR LROD 021300Z 17012KT CAVOK 14/04 Q1006=
201902021330 METAR LROD 021330Z 17012KT CAVOK 14/04 Q1005=
201902021400 METAR LROD 021400Z 17012KT CAVOK 14/04 Q1006=
201902021430 METAR LROD 021430Z 17013KT CAVOK 15/04 Q1006=
201902021500 METAR LROD 021500Z 17014KT CAVOK 14/04 Q1006=
201902021530 METAR LROD 021530Z 17013KT CAVOK 14/04 Q1006=
201902021600 METAR LROD 021600Z 17013KT CAVOK 14/04 Q1006=
201902021630 METAR LROD 021630Z 16012KT CAVOK 13/04 Q1006=
201902021700 METAR LROD 021700Z 16011KT CAVOK 13/04 Q1006=
201902021730 METAR LROD 021730Z 16010KT CAVOK 13/04 Q1006=
201902021800 METAR LROD 021800Z 17011KT CAVOK 13/04 Q1006=
201902021830 METAR LROD 021830Z 16009KT CAVOK 13/04 Q1006=
201902021900 METAR LROD 021900Z 16009KT CAVOK 13/05 Q1006=
201902021930 METAR LROD 021930Z AUTO 16009KT 9999 FEW085/// BKN100///
                        OVC120/// 13/04 Q1006=
201902022000 METAR LROD 022000Z AUTO 15008KT 9999 BKN120/// 13/04 Q1006=
201902022030 METAR LROD 022030Z AUTO 16008KT 9999 FEW100/// BKN120///
                        14/04 Q1007=
201902022100 METAR LROD 022100Z AUTO 12005KT 9999 SCT100/// OVC120///
                        12/04 Q1007=
201902022130 METAR LROD 022130Z AUTO 15006KT 9999 BKN100/// 13/04 Q1006=
201902022200 METAR LROD 022200Z AUTO 15006KT 9999 OVC100/// 13/04 Q1006=
201902022230 METAR LROD 022230Z AUTO 11006KT 9999 BKN100/// 12/04 Q1006=
201902022300 METAR LROD 022300Z AUTO 12007KT 9999 BKN100/// BKN110///
                        12/04 Q1006=
201902022330 METAR LROD 022330Z AUTO 12007KT 9999 FEW100/// SCT110///
                        BKN130/// 12/04 Q1006=
201902030000 METAR LROD 030000Z AUTO 12005KT 9999 NCD 11/03 Q1006=
201902030030 METAR LROD 030030Z AUTO 12005KT 9999 NCD 11/03 Q1006=
201902030100 METAR LROD 030100Z AUTO 12006KT 9999 NCD 11/03 Q1006=
201902030130 METAR LROD 030130Z AUTO 12008KT 9999 NCD 12/03 Q1006=
201902030200 METAR LROD 030200Z AUTO 10006KT 9999 NCD 10/03 Q1006=
201902030230 METAR LROD 030230Z AUTO 10007KT 9999 NCD 10/03 Q1005=
201902030300 METAR LROD 030300Z AUTO 11007KT 9999 NCD 11/03 Q1006=
201902030330 METAR LROD 030330Z AUTO 10007KT 9999 NCD 10/03 Q1005=
201902030400 METAR LROD 030400Z AUTO 10007KT 9999 NCD 10/03 Q1005=
201902030430 METAR LROD 030430Z AUTO 11007KT 9999 NCD 09/03 Q1005=
201902030500 METAR COR LROD 030500Z 10007KT CAVOK 10/03 Q1005=
201902030530 METAR LROD 030530Z 10007KT CAVOK 11/03 Q1005=
201902030600 METAR LROD 030600Z 10007KT CAVOK 11/03 Q1005=
201902030630 METAR LROD 030630Z 12007KT CAVOK 13/03 Q1005=
201902030700 METAR LROD 030700Z 13009KT CAVOK 14/02 Q1006=
201902030730 METAR LROD 030730Z AUTO 10005KT 9999 FEW150/// 12/03 Q1006=
201902030800 METAR COR LROD 030800Z 10005KT CAVOK 14/04 Q1006=
201902030830 METAR COR LROD 030830Z 11005KT 080V140 CAVOK 16/03 Q1006=
201902030900 METAR LROD 030900Z 11005KT CAVOK 16/03 Q1006=
201902030930 METAR LROD 030930Z 14006KT 110V170 CAVOK 17/03 Q1007=
201902031000 METAR LROD 031000Z 11006KT CAVOK 17/03 Q1006=
201902031030 METAR LROD 031030Z 12005KT 100V160 CAVOK 17/03 Q1006=
201902031100 METAR LROD 031100Z 11005KT 070V130 CAVOK 18/03 Q1006=
201902031130 METAR LROD 031130Z 13006KT CAVOK 19/02 Q1006=
201902031200 METAR LROD 031200Z 25002KT 190V310 CAVOK 17/05 Q1006=
201902031230 METAR LROD 031230Z 28005KT CAVOK 14/10 Q1006=
201902031300 METAR LROD 031300Z 29005KT CAVOK 13/10 Q1006=
201902031330 METAR LROD 031330Z 33003KT 300V360 CAVOK 13/10 Q1006=
201902031400 METAR LROD 031400Z 31002KT 270V340 CAVOK 13/09 Q1006=
201902031430 METAR LROD 031430Z 31003KT CAVOK 12/09 Q1006=
201902031500 METAR LROD 031500Z VRB01KT CAVOK 11/09 Q1006=
201902031530 METAR LROD 031530Z VRB01KT CAVOK 10/08 Q1006=
201902031600 METAR LROD 031600Z 23002KT 160V280 CAVOK 09/08 Q1006=
201902031630 METAR LROD 031630Z 24002KT 190V270 CAVOK 08/07 Q1007=
201902031700 METAR LROD 031700Z 27005KT 240V300 CAVOK 09/07 Q1008=
201902031730 METAR LROD 031730Z 26006KT CAVOK 08/06 Q1009=
201902031800 METAR LROD 031800Z 21006KT CAVOK 08/06 Q1010=
201902031830 METAR LROD 031830Z 18007KT CAVOK 08/06 Q1011=
201902031900 METAR LROD 031900Z 16007KT CAVOK 10/06 Q1011=
201902031930 METAR LROD 031930Z AUTO 16011KT 9999 OVC075/// 12/06 Q1011=
201902032000 METAR LROD 032000Z AUTO 16014KT 9999 BKN070/// 12/06 Q1011=
201902032030 METAR LROD 032030Z AUTO 16017KT 9999 FEW070/// SCT085///
                        BKN100/// 13/05 Q1010=
201902032100 METAR LROD 032100Z AUTO 17015KT 9999 FEW070/// 12/05 Q1011=
201902032130 METAR LROD 032130Z AUTO 20016KT 9999 FEW140/// 12/06 Q1012=
201902032200 METAR LROD 032200Z AUTO 22013KT 9999 NCD 10/06 Q1013=
201902032230 METAR LROD 032230Z AUTO 21011KT 9999 NCD 09/06 Q1014=
201902032300 METAR LROD 032300Z AUTO 21013KT 9999 NCD 09/06 Q1015=
201902032330 METAR LROD 032330Z AUTO 21014KT 9999 NCD 09/06 Q1015=
201902040000 METAR LROD 040000Z AUTO 22014KT 9999 NCD 08/06 Q1016=
201902040030 METAR LROD 040030Z AUTO 22010KT 9999 NCD 07/05 Q1016=
201902040100 METAR LROD 040100Z AUTO 22009KT 9999 FEW008/// BKN012///
                        BKN015/// 07/06 Q1017=
201902040130 METAR LROD 040130Z AUTO 22007KT 9999 SCT005/// BKN011///
                        OVC015/// 07/06 Q1018=
201902040200 METAR LROD 040200Z AUTO 23008KT 9000 SCT003/// OVC005///
                        07/06 Q1018=
201902040230 METAR LROD 040230Z AUTO 23007KT 5000 BR OVC003/// 06/06 Q1019=
201902040300 METAR LROD 040300Z AUTO 32007KT 9999 FEW003/// BKN007///
                        05/04 Q1019=
201902040330 METAR LROD 040330Z AUTO 00000KT 9999 BKN006/// BKN017///
                        06/04 Q1020=
201902040400 METAR LROD 040400Z AUTO 27004KT 240V300 9999 BKN007/// BKN009///
                        05/04 Q1020=
201902040430 METAR LROD 040430Z AUTO 28007KT 9999 BKN008/// OVC010///
                        04/03 Q1021=
201902040500 METAR LROD 040500Z VRB01KT 9999 FEW009 BKN011 04/02 Q1021=
201902040530 METAR LROD 040530Z 26003KT 9999 BKN010 OVC013 04/03 Q1022=
201902040600 METAR LROD 040600Z 26008KT 9999 BKN009 04/02 Q1022=
201902040630 METAR LROD 040630Z 26009KT 9999 BKN010 03/01 Q1023=
201902040700 METAR LROD 040700Z 26007KT 9999 BKN011 03/01 Q1023=
201902040730 METAR LROD 040730Z 25006KT 9999 OVC012 03/01 Q1024=
201902040800 METAR LROD 040800Z 23007KT 9999 BKN015 BKN018 03/01 Q1024=
201902040830 METAR LROD 040830Z 23008KT 9999 OVC016 04/01 Q1025=
201902040900 METAR LROD 040900Z 25007KT 9999 BKN017 04/01 Q1025=
201902040930 METAR LROD 040930Z 25007KT 9999 BKN016 04/01 Q1025=
201902041000 METAR LROD 041000Z 24008KT 9999 BKN016 04/01 Q1026=
201902041030 METAR LROD 041030Z 24009KT 9999 FEW013 OVC017 04/01 Q1026=
201902041100 METAR LROD 041100Z 26008KT 9999 BKN015 OVC018 04/01 Q1026=
201902041130 METAR LROD 041130Z 25008KT 9999 FEW012 BKN015 05/02 Q1026=
201902041200 METAR LROD 041200Z 26005KT 9999 BKN012 05/02 Q1026=
201902041230 METAR LROD 041230Z 27006KT 240V300 9999 BKN013 05/02 Q1026=
201902041300 METAR LROD 041300Z 27005KT 240V300 9999 SCT013 BKN016 05/02
                        Q1026=
201902041330 METAR LROD 041330Z 29004KT 260V320 9999 FEW014 SCT017 05/02
                        Q1027=
201902041400 METAR LROD 041400Z 29004KT 250V310 9999 SCT016 BKN019 05/02
                        Q1027=
201902041430 METAR LROD 041430Z 32002KT 260V030 9999 BKN015 BKN018 05/02
                        Q1027=
201902041500 METAR LROD 041500Z VRB01KT 9999 SCT017 BKN020 05/02 Q1027=
201902041530 METAR LROD 041530Z 27002KT 240V300 9999 BKN017 OVC020 05/02
                        Q1027=
201902041600 METAR LROD 041600Z 28003KT 9999 BKN018 04/01 Q1027=
201902041630 METAR LROD 041630Z 27003KT 9999 OVC017 05/02 Q1028=
201902041700 METAR LROD 041700Z 33003KT 9999 BKN016 03/01 Q1028=
201902041730 METAR LROD 041730Z 34002KT 9999 SCT018 03/01 Q1028=
201902041800 METAR LROD 041800Z 35002KT 9999 SCT023 02/01 Q1028=
201902041830 METAR LROD 041830Z VRB01KT 9999 BKN023 02/01 Q1028=
201902041900 METAR LROD 041900Z 01002KT 9999 BKN022 03/01 Q1028=
201902041930 METAR LROD 041930Z AUTO 35003KT 9000 BKN023/// 03/01 Q1028=
201902042000 METAR LROD 042000Z AUTO 04004KT 9999 OVC022/// 03/02 Q1028=
201902042030 METAR LROD 042030Z AUTO 04002KT 010V080 9999 BKN022/// 03/02
                        Q1028=
201902042100 METAR LROD 042100Z AUTO 04003KT 9999 BKN022/// OVC085///
                        04/02 Q1029=
201902042130 METAR LROD 042130Z AUTO 04004KT 010V080 9999 BKN021/// BKN085///
                        04/02 Q1028=
201902042200 METAR LROD 042200Z AUTO 03005KT 9999 FEW021/// OVC110///
                        04/01 Q1028=
201902042230 METAR LROD 042230Z AUTO 03006KT 9999 BKN100/// BKN110///
                        03/01 Q1028=
201902042300 METAR LROD 042300Z AUTO 03005KT 9999 BKN110/// 03/01 Q1028=
201902042330 METAR LROD 042330Z AUTO 02006KT 9999 BKN100/// 03/01 Q1028=
201902050000 METAR LROD 050000Z AUTO 03006KT 9999 BKN100/// 03/01 Q1028=
201902050030 METAR LROD 050030Z AUTO 02007KT 9999 BKN085/// BKN100///
                        03/01 Q1027=
201902050100 METAR LROD 050100Z AUTO 01007KT 9999 BKN080/// 03/01 Q1027=
201902050130 METAR LROD 050130Z AUTO 02007KT 9999 BKN080/// 03/01 Q1027=
201902050200 METAR LROD 050200Z AUTO 02009KT 9999 OVC085/// 03/01 Q1027=
201902050230 METAR LROD 050230Z AUTO 02007KT 9999 SCT095/// BKN110///
                        02/01 Q1027=
201902050300 METAR LROD 050300Z AUTO 02006KT 360V060 9999 BKN075/// OVC110///
                        02/01 Q1027=
201902050330 METAR LROD 050330Z AUTO 02008KT 9999 BKN070/// 02/01 Q1027=
201902050400 METAR LROD 050400Z AUTO 02007KT 9999 FEW013/// BKN075///
                        02/01 Q1027=
201902050430 METAR LROD 050430Z AUTO 02007KT 9999 SCT014/// OVC070///
                        02/01 Q1027=
201902050500 METAR COR LROD 050500Z 03006KT 9999 -RA SCT013 02/01 Q1026=
201902050530 METAR LROD 050530Z 03006KT 8000 -RA SCT013 02/01 Q1026=
201902050600 METAR LROD 050600Z 03005KT 7000 -RA FEW013 02/01 Q1027=
201902050630 METAR LROD 050630Z 03007KT 7000 -RA FEW013 02/01 Q1027 R01/19//95=
201902050700 METAR LROD 050700Z 03006KT 3800 -RA BR NSC 02/02 Q1027 R01/19//95=
201902050730 METAR LROD 050730Z 03006KT 5000 -RA BR NSC 03/02 Q1027 R01/29//95=
201902050800 METAR LROD 050800Z 03007KT 5000 BR FEW005 03/03 Q1026 R01/29//95=
201902050830 METAR LROD 050830Z 03008KT 6000 FEW005 04/03 Q1026 R01/29//95=
201902050900 METAR LROD 050900Z 04006KT 010V070 6000 SCT006 04/03 Q1026
                        R01/29//95=
201902050930 METAR LROD 050930Z 01006KT 7000 FEW007 05/04 Q1027 R01/29//95=
201902051000 METAR LROD 051000Z 02006KT 7000 SCT007 05/04 Q1027 R01/29//95=
201902051030 METAR LROD 051030Z 36009KT 8000 SCT008 05/04 Q1026 R01/29//95=
201902051100 METAR LROD 051100Z 01008KT 8000 SCT008 05/04 Q1027 R01/29//95=
201902051130 METAR LROD 051130Z 34008KT 5000 -RA BR BKN007 OVC042 05/04
                        Q1027 R01/29//95=
201902051200 METAR LROD 051200Z 35009KT 5000 -RA BR BKN006 05/04 Q1027
                        R01/29//95=
201902051230 METAR LROD 051230Z 36007KT 5000 -RA BR BKN007 05/04 Q1027
                        R01/29//95=
201902051300 METAR LROD 051300Z 36008KT 6000 -RA BKN007 05/04 Q1026 R01/29//95=
201902051330 METAR LROD 051330Z 01007KT 6000 -RA BKN007 BKN043 04/03 Q1026
                        R01/29//95=
201902051400 METAR LROD 051400Z 01008KT 7000 -RA SCT008 BKN045 05/04 Q1026
                        R01/29//95=
201902051430 METAR LROD 051430Z 02006KT 7000 -RA SCT009 BKN033 05/03 Q1026
                        R01/29//95=
201902051500 METAR LROD 051500Z 01008KT 8000 BKN009 05/03 Q1026 R01/29//95=
201902051530 METAR LROD 051530Z 35007KT 8000 -RA BKN008 04/03 Q1026 R01/29//95=
201902051600 METAR LROD 051600Z 01004KT 8000 -RA BKN009 04/03 Q1026 R01/29//95=
201902051630 METAR LROD 051630Z 04003KT 8000 SCT009 04/03 Q1026 R01/29//95=
201902051700 METAR LROD 051700Z 03003KT 7000 FEW009 SCT042 04/03 Q1026
                        R01/29//95=
201902051730 METAR LROD 051730Z 36004KT 6000 OVC043 04/03 Q1026 R01/29//95=
201902051800 METAR LROD 051800Z 34005KT 6000 FEW006 OVC037 04/03 Q1026
                        R01/29//95=
201902051830 METAR LROD 051830Z 34006KT 6000 OVC037 04/03 Q1026 R01/29//95=
201902051900 METAR LROD 051900Z 34006KT 6000 FEW006 BKN038 04/03 Q1026
                        R01/29//95=
201902051930 METAR LROD 051930Z AUTO 01004KT 340V040 7000 SCT006/// BKN045///
                        04/03 Q1026=
201902052000 METAR LROD 052000Z AUTO 34005KT 7000 FEW008/// OVC046///
                        04/03 Q1026=
201902052030 METAR LROD 052030Z AUTO 33005KT 5000 BR FEW005/// BKN008///
                        BKN047/// 03/03 Q1026=
201902052100 METAR LROD 052100Z AUTO 34004KT 5000 BR FEW009/// BKN050///
                        OVC070/// 03/03 Q1026=
201902052130 METAR LROD 052130Z AUTO 01005KT 6000 FEW004/// OVC050///
                        03/02 Q1026=
201902052200 METAR LROD 052200Z AUTO 36004KT 6000 OVC060/// 03/02 Q1026=
201902052230 METAR LROD 052230Z AUTO 36004KT 7000 FEW050/// OVC080///
                        03/02 Q1026=
201902052300 METAR LROD 052300Z AUTO 36006KT 7000 BKN049/// OVC085///
                        03/02 Q1026=
201902052330 METAR LROD 052330Z AUTO 02003KT 7000 FEW049/// OVC080///
                        03/02 Q1026=
201902060000 METAR LROD 060000Z AUTO VRB01KT 7000 FEW050/// OVC085///
                        03/02 Q1026=
201902060030 METAR LROD 060030Z AUTO 34005KT 6000 BKN050/// OVC090///
                        03/02 Q1026=
201902060100 METAR LROD 060100Z AUTO 35006KT 7000 OVC050/// 03/02 Q1026=
201902060130 METAR LROD 060130Z AUTO 02004KT 350V070 7000 OVC055/// 03/02
                        Q1025=
201902060200 METAR LROD 060200Z AUTO 03003KT 360V060 8000 OVC055/// 03/02
                        Q1025=
201902060230 METAR LROD 060230Z AUTO 03003KT 8000 BKN055/// 03/01 Q1025=
201902060300 METAR LROD 060300Z AUTO 03005KT 7000 OVC060/// 03/01 Q1025=
201902060330 METAR LROD 060330Z AUTO 03004KT 7000 BKN055/// 03/01 Q1025=
201902060400 METAR LROD 060400Z AUTO 01004KT 8000 SCT055/// 02/00 Q1025=
201902060430 METAR LROD 060430Z AUTO 02004KT 7000 NCD 02/00 Q1025=
201902060500 METAR LROD 060500Z 35005KT 7000 NSC 01/M00 Q1025 R01/29//95=
201902060530 METAR LROD 060530Z 36005KT 6000 FEW004 00/M00 Q1025 R01/29//95=
201902060600 METAR LROD 060600Z 01008KT 7000 NSC 01/M01 Q1025 R01/CLRD//=
201902060630 METAR LROD 060630Z 03005KT CAVOK 01/M01 Q1026=
201902060700 METAR LROD 060700Z 04007KT CAVOK 01/M01 Q1026=
201902060730 METAR LROD 060730Z 04008KT CAVOK 01/M02 Q1026=
201902060800 METAR LROD 060800Z 03010KT CAVOK 02/M02 Q1026=
201902060830 METAR LROD 060830Z 03012KT CAVOK 02/M02 Q1025=
201902060900 METAR LROD 060900Z 03011KT 360V060 CAVOK 03/M01 Q1026=
201902060930 METAR LROD 060930Z 03012KT CAVOK 03/M02 Q1026=
201902061000 METAR LROD 061000Z 02012KT CAVOK 05/M02 Q1026=
201902061030 METAR LROD 061030Z 03011KT 010V070 CAVOK 05/M02 Q1026=
201902061100 METAR LROD 061100Z 03013KT 360V060 CAVOK 05/M01 Q1025=
201902061130 METAR LROD 061130Z 03014KT CAVOK 06/M01 Q1025=
201902061200 METAR LROD 061200Z 04011KT CAVOK 06/M01 Q1025=
201902061230 METAR LROD 061230Z 02012KT CAVOK 06/M00 Q1025=
201902061300 METAR LROD 061300Z 03012KT CAVOK 06/M00 Q1025=
201902061330 METAR LROD 061330Z 02012KT CAVOK 06/M00 Q1024=
201902061400 METAR LROD 061400Z 03010KT CAVOK 06/M01 Q1024=
201902061430 METAR LROD 061430Z 03010KT CAVOK 06/M00 Q1024=
201902061500 METAR LROD 061500Z 02011KT CAVOK 05/M01 Q1024=
201902061530 METAR LROD 061530Z 01011KT CAVOK 04/M01 Q1024=
201902061600 METAR LROD 061600Z 02009KT CAVOK 04/M01 Q1025=
201902061630 METAR LROD 061630Z 02008KT CAVOK 04/M02 Q1025=
201902061700 METAR LROD 061700Z 02007KT CAVOK 03/M02 Q1025=
201902061730 METAR LROD 061730Z 02009KT CAVOK 02/M02 Q1025=
201902061800 METAR LROD 061800Z 02008KT CAVOK 02/M02 Q1025=
201902061830 METAR LROD 061830Z 01008KT CAVOK 01/M03 Q1025=
201902061900 METAR LROD 061900Z 02008KT 350V050 CAVOK 01/M03 Q1025=
201902061930 METAR LROD 061930Z AUTO 03004KT 9999 NCD 01/M03 Q1026=
201902062000 METAR LROD 062000Z AUTO 05003KT 9999 NCD 00/M03 Q1026=
201902062030 METAR LROD 062030Z AUTO 03005KT 9999 NCD M00/M03 Q1026=
201902062100 METAR LROD 062100Z AUTO 02006KT 9999 NCD M01/M03 Q1026=
201902062130 METAR LROD 062130Z AUTO 02006KT 9999 NCD M01/M03 Q1025=
201902062200 METAR LROD 062200Z AUTO 03004KT 9999 NCD M01/M03 Q1025=
201902062230 METAR LROD 062230Z AUTO 01006KT 9999 NCD M02/M04 Q1025=
201902062300 METAR LROD 062300Z AUTO 02005KT 9999 NCD M01/M04 Q1025=
201902062330 METAR LROD 062330Z AUTO 01004KT 9999 NCD M02/M04 Q1025=
201902070000 METAR LROD 070000Z AUTO 36005KT 9999 NCD M03/M05 Q1025=
201902070030 METAR LROD 070030Z AUTO 02005KT 9999 NCD M02/M04 Q1024=
201902070100 METAR LROD 070100Z AUTO 03004KT 9999 NCD M02/M04 Q1024=
201902070130 METAR LROD 070130Z AUTO 02004KT 9999 SCT023/// M02/M04 Q1024=
201902070200 METAR LROD 070200Z AUTO 02003KT 9999 FEW024/// M02/M04 Q1024=
201902070230 METAR LROD 070230Z AUTO 09002KT 9999 NCD M03/M04 Q1024=
201902070300 METAR LROD 070300Z AUTO 12003KT 7000 NCD M03/M04 Q1024=
201902070330 METAR LROD 070330Z AUTO 07003KT 9999 SCT025/// M02/M03 Q1024=
201902070400 METAR LROD 070400Z AUTO 09002KT 060V120 9999 BKN023/// M03/M04
                        Q1024=
201902070430 METAR LROD 070430Z AUTO 12003KT 8000 OVC021/// M02/M03 Q1024=
201902070500 METAR COR LROD 070500Z 11004KT 9999 BKN025 M01/M02 Q1024=
201902070530 METAR LROD 070530Z 10003KT 9999 BKN025 M02/M03 Q1024=
201902070600 METAR LROD 070600Z 11003KT 7000 BKN033 M02/M03 Q1024=
201902070630 METAR LROD 070630Z 10003KT 7000 BKN034 M02/M03 Q1024=
201902070700 METAR LROD 070700Z 12003KT 6000 SCT040 M00/M01 Q1024=
201902070730 METAR LROD 070730Z 12003KT 090V150 8000 FEW040 01/M00 Q1024=
201902070800 METAR LROD 070800Z 23002KT 190V280 8000 FEW035 01/M00 Q1024=
201902070830 METAR LROD 070830Z 22009KT CAVOK 01/M01 Q1024=
201902070900 METAR LROD 070900Z 21009KT CAVOK 02/M00 Q1024=
201902070930 METAR COR LROD 070930Z 21011KT CAVOK 03/01 Q1024=
201902071000 METAR LROD 071000Z 21012KT CAVOK 03/01 Q1024=
201902071030 METAR LROD 071030Z 21010KT CAVOK 04/01 Q1024=
201902071100 METAR LROD 071100Z 21009KT CAVOK 05/01 Q1024=
201902071130 METAR COR LROD 071130Z 23009KT 210V270 CAVOK 05/02 Q1023=
201902071200 METAR LROD 071200Z 22009KT 180V240 CAVOK 05/02 Q1023=
201902071230 METAR LROD 071230Z 22009KT 9999 BKN040 05/02 Q1023=
201902071300 METAR LROD 071300Z 21009KT 9999 BKN040 05/01 Q1023=
201902071330 METAR LROD 071330Z 21011KT 9999 FEW020 BKN040 05/01 Q1023=
201902071400 METAR COR LROD 071400Z 20011KT 9999 FEW020 OVC041 05/01 Q1023=
201902071430 METAR LROD 071430Z 20010KT 9999 BKN041 04/01 Q1023=
201902071500 METAR LROD 071500Z 20007KT 9999 BKN041 04/01 Q1023=
201902071530 METAR COR LROD 071530Z 20006KT 9999 SCT041 03/00 Q1023=
201902071600 METAR LROD 071600Z 19005KT 9999 SCT038 02/00 Q1022=
201902071630 METAR LROD 071630Z 17004KT 9999 SCT039 02/00 Q1022=
201902071700 METAR LROD 071700Z 18005KT 8000 FEW040 00/M01 Q1022=
201902071730 METAR LROD 071730Z 19005KT 7000 FEW040 M01/M01 Q1022=
201902071800 METAR LROD 071800Z 12005KT 110V170 7000 NSC 00/M00 Q1022=
201902071830 METAR LROD 071830Z 13005KT 7000 NSC 00/M01 Q1022=
201902071900 METAR LROD 071900Z 12003KT 6000 NSC M00/M01 Q1022=
201902071930 METAR LROD 071930Z AUTO 10005KT 5000 BR FEW036/// M00/M01
                        Q1022=
201902072000 METAR LROD 072000Z AUTO 13003KT 100V270 6000 BKN036/// M00/M01
                        Q1022=
201902072030 METAR LROD 072030Z AUTO 12002KT 5000 BR BKN037/// M01/M01
                        Q1022=
201902072100 METAR LROD 072100Z AUTO 11005KT 5000 BR BKN036/// M01/M01
                        Q1022=
201902072130 METAR LROD 072130Z AUTO 15003KT 060V220 5000 BR SCT036///
                        M02/M02 Q1022=
201902072200 METAR LROD 072200Z AUTO 00000KT 5000 BR BKN036/// M01/M02
                        Q1022=
201902072230 METAR LROD 072230Z AUTO 10004KT 5000 BR BKN037/// M01/M01
                        Q1022=
201902072300 METAR LROD 072300Z AUTO 07004KT 4800 BR BKN038/// M01/M01
                        Q1022=
201902072330 METAR LROD 072330Z AUTO 10003KT 5000 BR OVC038/// M01/M01
                        Q1021=
201902080000 METAR LROD 080000Z AUTO 01002KT 5000 BR BKN038/// M00/M00
                        Q1021=
201902080030 METAR LROD 080030Z AUTO 08002KT 050V110 4700 BR OVC038///
                        00/M00 Q1021=
201902080100 METAR LROD 080100Z AUTO 08001KT 4700 BR BKN037/// 00/M00
                        Q1021=
201902080130 METAR LROD 080130Z AUTO VRB01KT 4900 BR OVC037/// 00/M00
                        Q1021=
201902080200 METAR LROD 080200Z AUTO 12003KT 4700 BR BKN037/// 00/M00
                        Q1021=
201902080230 METAR LROD 080230Z AUTO 11003KT 5000 BR OVC037/// 00/M00
                        Q1021=
201902080300 METAR LROD 080300Z AUTO VRB01KT 5000 BR BKN038/// 00/M00
                        Q1021=
201902080330 METAR LROD 080330Z AUTO 10001KT 4400 BR OVC038/// 00/M00
                        Q1021=
201902080400 METAR LROD 080400Z AUTO 00000KT 5000 BR BKN038/// 00/M00
                        Q1021=
201902080430 METAR LROD 080430Z AUTO 29003KT 5000 BR BKN038/// 00/M00
                        Q1021=
201902080500 METAR LROD 080500Z VRB01KT 4800 BR BKN038 00/M00 Q1021=
201902080530 METAR LROD 080530Z 30001KT 5000 BR OVC037 00/M00 Q1021=
201902080600 METAR LROD 080600Z 31001KT 3700 BR BKN037 00/M00 Q1021=
201902080630 METAR LROD 080630Z 00000KT 3400 BR OVC037 00/M00 Q1022=
201902080700 METAR COR LROD 080700Z 00000KT 3200 BR BKN038 01/00 Q1022=
201902080730 METAR LROD 080730Z 04002KT 350V080 4500 BR OVC038 02/02 Q1022=
201902080800 METAR LROD 080800Z 06003KT 020V100 8000 BKN037 03/02 Q1022=
201902080830 METAR LROD 080830Z 08003KT 9000 BKN037 04/02 Q1022=
201902080900 METAR LROD 080900Z 02005KT 360V060 9999 BKN037 05/00 Q1022=
201902080930 METAR LROD 080930Z 03005KT 360V100 9999 BKN037 05/M01 Q1022=
201902081000 METAR LROD 081000Z 02006KT 360V070 9999 OVC036 05/M02 Q1023=
201902081030 METAR LROD 081030Z 01005KT 340V040 9999 OVC037 05/M02 Q1023=
201902081100 METAR LROD 081100Z 01007KT 340V040 9999 OVC037 05/M03 Q1022=
201902081130 METAR LROD 081130Z 04006KT 360V070 9999 BKN033 05/M03 Q1022=
201902081200 METAR LROD 081200Z 02005KT 9999 BKN034 05/M03 Q1022=
201902081230 METAR LROD 081230Z 35006KT 330V030 9999 BKN035 05/M02 Q1022=
201902081300 METAR LROD 081300Z 01004KT 320V060 9999 OVC035 05/M03 Q1022=
201902081330 METAR LROD 081330Z 35006KT 320V020 9999 OVC036 05/M02 Q1022=
201902081400 METAR LROD 081400Z 01007KT 9999 OVC036 05/M02 Q1022=
201902081430 METAR LROD 081430Z 34007KT 9999 BKN037 05/M02 Q1022=
201902081500 METAR LROD 081500Z 34007KT 9999 OVC038 04/M02 Q1022=
201902081530 METAR LROD 081530Z 34008KT 9999 BKN039 04/M02 Q1022=
201902081600 METAR LROD 081600Z 34006KT 9999 OVC039 04/M02 Q1022=
201902081630 METAR LROD 081630Z 34005KT 9999 BKN038 04/M02 Q1022=
201902081700 METAR LROD 081700Z 34005KT 9999 OVC038 04/M02 Q1022=
201902081730 METAR LROD 081730Z 35005KT 9999 BKN038 04/M02 Q1022=
201902081800 METAR LROD 081800Z 35005KT 9999 OVC038 03/M02 Q1022=
201902081830 METAR LROD 081830Z 01002KT 9999 BKN038 03/M03 Q1022=
201902081900 METAR LROD 081900Z 08002KT 9999 OVC038 03/M02 Q1022=
201902081930 METAR LROD 081930Z 04003KT 9999 BKN038 03/M03 Q1022=
201902082000 METAR LROD 082000Z 03004KT 9999 BKN038 03/M03 Q1022=
201902082030 METAR LROD 082030Z 19001KT 9999 BKN037 03/M02 Q1022=
201902082100 METAR LROD 082100Z 16002KT 9999 OVC037 02/M02 Q1023=
201902082130 METAR LROD 082130Z AUTO 00000KT 9999 BKN037/// 02/M02 Q1022=
201902082200 METAR LROD 082200Z AUTO VRB01KT 9999 OVC037/// 02/M02 Q1022=
201902082230 METAR LROD 082230Z AUTO 20002KT 9999 BKN037/// 02/M02 Q1022=
201902082300 METAR LROD 082300Z AUTO 23002KT 9999 OVC036/// 02/M02 Q1022=
201902082330 METAR LROD 082330Z AUTO 00000KT 9999 OVC037/// 02/M02 Q1022=
201902090000 METAR LROD 090000Z AUTO 23002KT 190V260 9999 OVC037/// 02/M02
                        Q1022=
201902090030 METAR LROD 090030Z AUTO 26002KT 180V280 9999 OVC036/// 02/M02
                        Q1023=
201902090100 METAR LROD 090100Z AUTO 29002KT 250V320 9999 OVC037/// 03/M02
                        Q1022=
201902090130 METAR LROD 090130Z AUTO 00000KT 9999 OVC037/// 02/M02 Q1022=
201902090200 METAR LROD 090200Z AUTO 00000KT 9999 OVC036/// 02/M02 Q1022=
201902090230 METAR LROD 090230Z AUTO 18002KT 9999 OVC036/// 02/M02 Q1022=
201902090300 METAR LROD 090300Z AUTO 17002KT 9999 OVC036/// 02/M02 Q1021=
201902090330 METAR LROD 090330Z AUTO 19003KT 9999 OVC036/// 02/M02 Q1022=
201902090400 METAR LROD 090400Z AUTO 15003KT 110V250 9999 OVC036/// 02/M03
                        Q1021=
201902090430 METAR LROD 090430Z AUTO 14002KT 110V200 9999 OVC036/// 02/M03
                        Q1021=
201902090500 METAR LROD 090500Z 14002KT 9999 OVC035 02/M03 Q1021=
201902090530 METAR LROD 090530Z 12003KT 9999 OVC035 02/M02 Q1021=
201902090600 METAR LROD 090600Z 12003KT 9999 BKN035 02/M02 Q1021=
201902090630 METAR LROD 090630Z 10003KT 9999 OVC036 02/M01 Q1021=
201902090700 METAR LROD 090700Z 11004KT 9999 BKN036 02/M02 Q1021=
201902090730 METAR LROD 090730Z 19002KT 9999 OVC036 03/M02 Q1022=
201902090800 METAR LROD 090800Z VRB01KT 9999 BKN036 03/M01 Q1022=
201902090830 METAR LROD 090830Z VRB01KT 9999 OVC036 03/M02 Q1022=
201902090900 METAR LROD 090900Z 23003KT 9999 BKN036 04/M02 Q1022=
201902090930 METAR LROD 090930Z 21003KT 9999 OVC036 04/M04 Q1022=
201902091000 METAR LROD 091000Z 18004KT 140V210 9999 BKN035 04/M04 Q1022=
201902091030 METAR LROD 091030Z 17006KT 9999 OVC038 04/M03 Q1022=
201902091100 METAR LROD 091100Z 16007KT 130V190 9999 BKN039 04/M04 Q1021=
201902091130 METAR LROD 091130Z 17006KT 140V200 9999 OVC038 05/M04 Q1021=
201902091200 METAR LROD 091200Z 16004KT 110V220 9999 BKN038 05/M03 Q1021=
201902091230 METAR LROD 091230Z 20005KT 110V220 9999 OVC038 05/M03 Q1021=
201902091300 METAR LROD 091300Z 21006KT 170V240 9999 OVC038 05/M03 Q1021=
201902091330 METAR LROD 091330Z 24004KT 180V270 9999 BKN038 05/M03 Q1021=
201902091400 METAR LROD 091400Z 25004KT 9999 BKN038 05/M03 Q1021=
201902091430 METAR LROD 091430Z 24006KT 9999 OVC037 04/M03 Q1021=
201902091500 METAR LROD 091500Z 22005KT 9999 BKN036 04/M02 Q1020=
201902091530 METAR LROD 091530Z 24004KT 9999 BKN036 03/M02 Q1021=
201902091600 METAR LROD 091600Z 22003KT 9999 FEW036 02/M02 Q1021=
201902091630 METAR LROD 091630Z 20002KT CAVOK 02/M01 Q1021=
201902091700 METAR LROD 091700Z 17003KT CAVOK 02/M02 Q1021=
201902091730 METAR LROD 091730Z 18003KT CAVOK 01/M02 Q1021=
201902091800 METAR LROD 091800Z 17003KT CAVOK 00/M02 Q1021=
201902091830 METAR LROD 091830Z 13002KT CAVOK M01/M03 Q1021=
201902091900 METAR LROD 091900Z 09002KT CAVOK M02/M03 Q1022=
201902091930 METAR LROD 091930Z AUTO 12006KT 6000 FEW120/// M01/M03 Q1022=
201902092000 METAR LROD 092000Z AUTO 10006KT 5000 BR NCD M02/M03 Q1021=
201902092030 METAR LROD 092030Z AUTO 09004KT 6000 NCD M01/M03 Q1021=
201902092100 METAR LROD 092100Z AUTO 09005KT 7000 NCD M01/M03 Q1021=
201902092130 METAR LROD 092130Z AUTO 10003KT 7000 NCD M02/M03 Q1022=
201902092200 METAR LROD 092200Z AUTO 12006KT 6000 NCD M02/M03 Q1022=
201902092230 METAR LROD 092230Z AUTO 10006KT 6000 NCD M02/M03 Q1022=
201902092300 METAR LROD 092300Z AUTO 10005KT 6000 NCD M02/M03 Q1022=
201902092330 METAR LROD 092330Z AUTO 11006KT 6000 BKN180/// M02/M03 Q1022=
201902100000 METAR LROD 100000Z AUTO 10005KT 6000 BKN180/// M02/M03 Q1022=
201902100030 METAR LROD 100030Z AUTO 11005KT 6000 BKN190/// M02/M03 Q1022=
201902100100 METAR LROD 100100Z AUTO 11005KT 6000 BKN210/// M02/M03 Q1022=
201902100130 METAR LROD 100130Z AUTO 10006KT 6000 BKN210/// M02/M03 Q1021=
201902100200 METAR LROD 100200Z AUTO 10005KT 7000 NCD M02/M03 Q1022=
201902100230 METAR LROD 100230Z AUTO 10007KT 8000 NCD M02/M03 Q1021=
201902100300 METAR LROD 100300Z AUTO 11006KT 7000 FEW240/// M02/M03 Q1021=
201902100330 METAR LROD 100330Z AUTO 10005KT 8000 BKN240/// M02/M03 Q1021=
201902100400 METAR LROD 100400Z AUTO 10005KT 8000 BKN240/// M02/M03 Q1022=
201902100430 METAR LROD 100430Z AUTO 11006KT 8000 FEW230/// M02/M03 Q1021=
201902100500 METAR LROD 100500Z 11005KT CAVOK M02/M03 Q1021=
201902100530 METAR COR LROD 100530Z 11006KT CAVOK M02/M03 Q1021=
201902100600 METAR LROD 100600Z 11005KT CAVOK M03/M04 Q1021=
201902100630 METAR LROD 100630Z 10005KT CAVOK M02/M03 Q1021=
201902100700 METAR LROD 100700Z 09005KT CAVOK M01/M03 Q1021=
201902100730 METAR LROD 100730Z 09006KT CAVOK 00/M02 Q1021=
201902100800 METAR LROD 100800Z 11005KT CAVOK 01/M02 Q1020=
201902100830 METAR LROD 100830Z 10005KT CAVOK 02/M01 Q1020=
201902100900 METAR LROD 100900Z 11004KT 080V150 CAVOK 04/M01 Q1020=
201902100930 METAR LROD 100930Z VRB02KT CAVOK 05/M02 Q1020=
201902101000 METAR LROD 101000Z 24004KT 210V290 CAVOK 05/M01 Q1020=
201902101030 METAR LROD 101030Z 26005KT CAVOK 05/M01 Q1020=
201902101100 METAR LROD 101100Z 27003KT CAVOK 05/M01 Q1019=
201902101130 METAR LROD 101130Z 22004KT 180V250 CAVOK 07/M01 Q1018=
201902101200 METAR LROD 101200Z 16007KT 130V190 CAVOK 07/M02 Q1017=
201902101230 METAR LROD 101230Z 14006KT 100V170 CAVOK 08/M02 Q1017=
201902101300 METAR LROD 101300Z 20007KT 160V220 CAVOK 09/M01 Q1017=
201902101330 METAR LROD 101330Z 21008KT CAVOK 08/M00 Q1016=
201902101400 METAR LROD 101400Z 22008KT CAVOK 08/00 Q1016=
201902101430 METAR LROD 101430Z 19007KT CAVOK 07/01 Q1016=
201902101500 METAR LROD 101500Z 19004KT CAVOK 07/02 Q1015=
201902101530 METAR LROD 101530Z 19004KT CAVOK 06/01 Q1015=
201902101600 METAR LROD 101600Z 16005KT CAVOK 05/01 Q1014=
201902101630 METAR LROD 101630Z 15004KT CAVOK 05/00 Q1014=
201902101700 METAR LROD 101700Z 17004KT CAVOK 05/M00 Q1014=
201902101730 METAR LROD 101730Z 16007KT CAVOK 05/00 Q1013=
201902101800 METAR LROD 101800Z 17010KT CAVOK 07/M00 Q1013=
201902101830 METAR LROD 101830Z 18011KT CAVOK 07/M01 Q1012=
201902101900 METAR LROD 101900Z 17012KT CAVOK 07/M01 Q1011=
201902101930 METAR LROD 101930Z AUTO 17010KT 9999 OVC070/// 07/M01 Q1011=
201902102000 METAR LROD 102000Z AUTO 17011KT 9999 OVC080/// 07/M01 Q1010=
201902102030 METAR LROD 102030Z AUTO 16011KT 9999 FEW055/// OVC080///
                        07/M01 Q1010=
201902102100 METAR LROD 102100Z AUTO 16010KT 9999 SCT055/// OVC080///
                        07/M01 Q1010=
201902102130 METAR LROD 102130Z AUTO 17011KT 9999 SCT060/// BKN085///
                        08/M01 Q1009=
201902102200 METAR LROD 102200Z AUTO 18014KT 9999 BKN055/// 08/M01 Q1009=
201902102230 METAR LROD 102230Z AUTO 18015KT 9999 FEW070/// OVC090///
                        09/M01 Q1008=
201902102300 METAR LROD 102300Z AUTO 17014KT 9999 SCT075/// BKN090///
                        09/M01 Q1008=
201902102330 METAR LROD 102330Z AUTO 18015KT 9999 BKN065/// OVC090///
                        09/M01 Q1007=
201902110000 METAR LROD 110000Z AUTO 17016KT 9999 OVC060/// 09/M00 Q1007=
201902110030 METAR LROD 110030Z AUTO 18016KT 9999 -SHRA SCT065/// BKN080///
                        09/00 Q1007=
201902110100 METAR LROD 110100Z AUTO 18015KT 9999 -SHRA OVC060/// 09/00
                        Q1006=
201902110130 METAR LROD 110130Z AUTO 18017KT 9999 -SHRA BKN060/// 09/01
                        Q1006=
201902110200 METAR LROD 110200Z AUTO 19017KT 9999 -RA BKN055/// 08/02
                        Q1006=
201902110230 METAR LROD 110230Z AUTO 18016KT 9999 -DZ BKN055/// OVC080///
                        08/02 Q1005=
201902110300 METAR LROD 110300Z AUTO 18016KT 9999 -RA BKN047/// 08/03
                        Q1005=
201902110330 METAR LROD 110330Z AUTO 17018KT 9999 -RA OVC050/// 07/03
                        Q1004=
201902110400 METAR LROD 110400Z AUTO 18016KT 9999 DZ OVC046/// 08/03 Q1005=
201902110430 METAR LROD 110430Z AUTO 21012KT 9999 -RA SCT040/// BKN046///
                        07/04 Q1005=
201902110500 METAR LROD 110500Z 24012KT 9999 -RA SCT039 BKN045 06/04 Q1005=
201902110530 METAR LROD 110530Z 20013KT 9999 -RA BKN036 06/04 Q1005 R01/29//95=
201902110600 METAR LROD 110600Z 20013KT 9999 -RA BKN037 06/04 Q1005 R01/29//95=
201902110630 METAR LROD 110630Z 19013KT 9999 -RA SCT037 05/04 Q1005 R01/29//95=
201902110700 METAR LROD 110700Z 20012KT 9999 FEW037 BKN048 06/04 Q1005
                        R01/29//95=
201902110730 METAR LROD 110730Z 19013KT 9999 -RA BKN048 06/05 Q1005 R01/29//95=
201902110800 METAR COR LROD 110800Z 20011KT 9999 -RA BKN041 OVC048 06/05
                        Q1005 R01/29//95=
201902110830 METAR LROD 110830Z 20012KT 8000 -RA BKN042 BKN048 06/05 Q1005
                        R01/29//95=
201902110900 METAR LROD 110900Z 20009KT 8000 -RA BKN043 06/05 Q1005 R01/29//95=
201902110930 METAR LROD 110930Z 20010KT 6000 -RA FEW031 BKN041 06/05 Q1005
                        R01/29//95=
201902111000 METAR LROD 111000Z 20007KT 6000 -RA SCT031 OVC041 06/06 Q1005
                        R01/29//95=
201902111030 METAR LROD 111030Z 20007KT 6000 -RA BKN029 BKN033 06/05 Q1005
                        R01/29//95=
201902111100 METAR LROD 111100Z 20007KT 7000 -RA SCT028 BKN033 06/05 Q1005
                        R01/29//95=
201902111130 METAR COR LROD 111130Z 21005KT 6000 -RA FEW014 BKN028 06/05
                        Q1005 R01/29//95=
201902111200 METAR LROD 111200Z 21008KT 7000 -RA FEW012 BKN031 06/05 Q1005
                        R01/29//95=
201902111230 METAR LROD 111230Z 21007KT 7000 -RA FEW031 BKN038 06/05 Q1004
                        R01/29//95=
201902111300 METAR LROD 111300Z 21005KT 7000 -RA SCT023 BKN032 06/05 Q1005
                        R01/29//95=
201902111330 METAR LROD 111330Z 20005KT 7000 -RA SCT029 BKN034 06/05 Q1005
                        R01/29//95=
201902111400 METAR LROD 111400Z 18005KT 7000 -RA SCT030 BKN036 OVC043
                        06/05 Q1005 R01/29//95=
201902111430 METAR LROD 111430Z 19002KT 140V220 9999 -RA SCT035 OVC041
                        06/05 Q1005 R01/29//95=
201902111500 METAR LROD 111500Z 17003KT 9999 -RA SCT032 BKN039 06/05 Q1005
                        R01/29//95=
201902111530 METAR LROD 111530Z 16004KT 9999 -RA FEW024 BKN033 05/05 Q1006
                        R01/29//95=
201902111600 METAR LROD 111600Z 16004KT 9999 SCT035 05/04 Q1006 R01/29//95=
201902111630 METAR LROD 111630Z 00000KT 9999 SCT038 04/04 Q1006 R01/29//95=
201902111700 METAR LROD 111700Z VRB01KT CAVOK 04/04 Q1006 R01/29//95=
201902111730 METAR LROD 111730Z 06003KT CAVOK 03/03 Q1006 R01/29//95=
201902111800 METAR LROD 111800Z 06003KT 8000 SCT021 04/04 Q1007 R01/29//95=
201902111830 METAR LROD 111830Z 00000KT 8000 FEW021 04/04 Q1007 R01/29//95=
201902111900 METAR LROD 111900Z 00000KT 7000 FEW043 04/04 Q1007 R01/29//95=
201902111930 METAR LROD 111930Z AUTO VRB01KT 4100 BR FEW025/// OVC046///
                        04/04 Q1008=
201902112000 METAR LROD 112000Z AUTO 03010KT 9999 BKN050/// 05/04 Q1008=
201902112030 METAR LROD 112030Z AUTO 02012KT 9999 OVC065/// 05/02 Q1009=
201902112100 METAR LROD 112100Z AUTO 01013KT 9999 BKN075/// 05/02 Q1009=
201902112130 METAR LROD 112130Z AUTO 01014KT 9999 BKN095/// OVC110///
                        05/01 Q1009=
201902112200 METAR LROD 112200Z AUTO 01011KT 9999 BKN085/// 05/01 Q1009=
201902112230 METAR LROD 112230Z AUTO 01013KT 9999 OVC080/// 05/00 Q1009=
201902112300 METAR LROD 112300Z AUTO 01014KT 9999 BKN080/// BKN095///
                        05/01 Q1010=
201902112330 METAR LROD 112330Z AUTO 36013KT 9999 BKN080/// OVC095///
                        05/00 Q1010=
201902120000 METAR LROD 120000Z AUTO 01014KT 9999 FEW050/// BKN080///
                        05/00 Q1011=
201902120030 METAR LROD 120030Z AUTO 01013KT 9999 FEW050/// BKN100///
                        05/M01 Q1011=
201902120100 METAR LROD 120100Z AUTO 01012KT 9999 BKN110/// 05/M00 Q1011=
201902120130 METAR LROD 120130Z AUTO 36012KT 9999 OVC120/// 04/M00 Q1011=
201902120200 METAR LROD 120200Z AUTO 36013KT 9999 BKN130/// 04/M00 Q1011=
201902120230 METAR LROD 120230Z AUTO 35012KT 9999 BKN140/// 04/M00 Q1011=
201902120300 METAR LROD 120300Z AUTO 35011KT 9999 BKN150/// 04/M01 Q1011=
201902120330 METAR LROD 120330Z AUTO 36011KT 9999 BKN150/// BKN210///
                        03/M01 Q1012=
201902120400 METAR LROD 120400Z AUTO 34010KT 9999 BKN160/// 03/M01 Q1012=
201902120430 METAR LROD 120430Z AUTO 33008KT 9999 OVC160/// 02/M01 Q1012=
201902120500 METAR LROD 120500Z 33008KT CAVOK 02/M01 Q1012 R01/29//95=
201902120530 METAR LROD 120530Z 33008KT CAVOK 02/M01 Q1013 R01/CLRD//=
201902120600 METAR LROD 120600Z 32008KT CAVOK 02/M01 Q1013=
201902120630 METAR LROD 120630Z 33008KT 9999 FEW044 02/M01 Q1014=
201902120700 METAR LROD 120700Z 33009KT 9999 SCT045 02/M00 Q1014=
201902120730 METAR LROD 120730Z 34009KT 9999 SCT043 02/M00 Q1014=
201902120800 METAR LROD 120800Z 31008KT 9999 SCT041 02/M00 Q1015=
201902120830 METAR LROD 120830Z 33007KT 9999 FEW042 03/M00 Q1015=
201902120900 METAR LROD 120900Z 32011KT 9999 SCT045 03/M01 Q1015=
201902120930 METAR LROD 120930Z 33010KT 9999 FEW045 04/M01 Q1015=
201902121000 METAR LROD 121000Z 34013KT 9999 FEW025 04/M01 Q1016=
201902121030 METAR LROD 121030Z 33012KT 310V010 9999 SCT032 SCT042 05/00
                        Q1016=
201902121100 METAR LROD 121100Z 33012KT 9999 SCT034 BKN045 05/M00 Q1016=
201902121130 METAR LROD 121130Z 35013KT 9999 FEW033 06/M03 Q1016=
201902121200 METAR LROD 121200Z 36018KT 9999 SCT033 07/M06 Q1016=
201902121230 METAR LROD 121230Z 36020KT 9999 SCT033 06/M07 Q1017=
201902121300 METAR LROD 121300Z 35017KT 9999 BKN030 06/M06 Q1017=
201902121330 METAR LROD 121330Z 33016KT 310V010 9999 BKN039 05/M04 Q1018=
201902121400 METAR LROD 121400Z 34011KT 9999 FEW039 05/M04 Q1018=
201902121430 METAR LROD 121430Z 36011KT 9999 FEW045 05/M05 Q1019=
201902121500 METAR LROD 121500Z 01012KT 9999 FEW040CB 05/M06 Q1019=
201902121530 METAR LROD 121530Z 01010KT 340V040 9999 FEW040CB 04/M05 Q1020=
201902121600 METAR LROD 121600Z 01010KT 9999 FEW040CB 04/M05 Q1020=
201902121630 METAR LROD 121630Z 35008KT CAVOK 03/M04 Q1021=
201902121700 METAR LROD 121700Z 35010KT 9999 FEW044 02/M04 Q1022=
201902121730 METAR LROD 121730Z 01007KT CAVOK 01/M03 Q1022=
201902121800 METAR LROD 121800Z 36007KT CAVOK 01/M04 Q1023=
201902121830 METAR LROD 121830Z 36008KT CAVOK 01/M04 Q1023=
201902121900 METAR LROD 121900Z 36007KT CAVOK 01/M04 Q1024=
201902121930 METAR LROD 121930Z AUTO 35007KT 9999 FEW050/// BKN100///
                        01/M04 Q1024=
201902122000 METAR LROD 122000Z AUTO 33005KT 9999 BKN090/// 01/M04 Q1024=
201902122030 METAR LROD 122030Z AUTO 32007KT 9999 BKN090/// 01/M04 Q1025=
201902122100 METAR LROD 122100Z AUTO 34007KT 9999 BKN075/// 01/M04 Q1025=
201902122130 METAR LROD 122130Z AUTO 33007KT 9999 SCT080/// 00/M04 Q1025=
201902122200 METAR LROD 122200Z AUTO 34007KT 9999 BKN075/// 01/M03 Q1026=
201902122230 METAR LROD 122230Z AUTO 35007KT 9999 OVC075/// 01/M03 Q1026=
201902122300 METAR LROD 122300Z AUTO 33008KT 9999 BKN075/// 01/M03 Q1026=
201902122330 METAR LROD 122330Z AUTO 33007KT 9999 BKN080/// BKN130///
                        01/M03 Q1027=
201902130000 METAR LROD 130000Z AUTO 33008KT 9999 OVC070/// 01/M03 Q1027=
201902130030 METAR LROD 130030Z AUTO 34008KT 9999 BKN090/// 01/M03 Q1027=
201902130100 METAR LROD 130100Z AUTO 32007KT 9999 OVC085/// 01/M02 Q1027=
201902130130 METAR LROD 130130Z AUTO 33005KT 9999 OVC080/// 00/M02 Q1028=
201902130200 METAR LROD 130200Z AUTO 33008KT 9999 BKN075/// 01/M02 Q1028=
201902130230 METAR LROD 130230Z AUTO 33007KT 9999 BKN070/// BKN120///
                        00/M01 Q1028=
201902130300 METAR LROD 130300Z AUTO 34007KT 9999 BKN065/// 00/M01 Q1029=
201902130330 METAR LROD 130330Z AUTO 34005KT 9999 OVC065/// 00/M01 Q1029=
201902130400 METAR LROD 130400Z AUTO 33005KT 9999 BKN065/// M00/M02 Q1030=
201902130430 METAR LROD 130430Z AUTO 33005KT 9999 FEW085/// M01/M03 Q1030=
201902130500 METAR LROD 130500Z 33003KT CAVOK M01/M03 Q1030=
201902130530 METAR LROD 130530Z 30005KT CAVOK M02/M04 Q1031=
201902130600 METAR LROD 130600Z 34003KT CAVOK M03/M04 Q1031=
201902130630 METAR LROD 130630Z VRB01KT CAVOK M02/M03 Q1032=
201902130700 METAR LROD 130700Z 01003KT CAVOK M00/M02 Q1032=
201902130730 METAR LROD 130730Z 01005KT CAVOK 01/M03 Q1032=
201902130800 METAR LROD 130800Z 03004KT 350V080 CAVOK 02/M03 Q1032=
201902130830 METAR LROD 130830Z 02005KT 340V080 CAVOK 03/M03 Q1033=
201902130900 METAR LROD 130900Z 03008KT 350V060 CAVOK 04/M05 Q1033=
201902130930 METAR LROD 130930Z 03008KT 350V060 CAVOK 04/M05 Q1033=
201902131000 METAR LROD 131000Z 03009KT 360V070 CAVOK 04/M05 Q1033=
201902131030 METAR LROD 131030Z 03008KT 360V060 CAVOK 05/M06 Q1033=
201902131100 METAR LROD 131100Z 02007KT 350V080 CAVOK 05/M05 Q1033=
201902131130 METAR LROD 131130Z 35008KT 320V020 CAVOK 05/M06 Q1033=
201902131200 METAR LROD 131200Z VRB06KT CAVOK 05/M06 Q1033=
201902131230 METAR LROD 131230Z 35007KT 310V020 CAVOK 05/M06 Q1033=
201902131300 METAR COR LROD 131300Z 34005KT 240V050 CAVOK 06/M06 Q1033=
201902131330 METAR LROD 131330Z VRB02KT CAVOK 06/M05 Q1033=
201902131400 METAR LROD 131400Z 27003KT CAVOK 06/M06 Q1033=
201902131430 METAR LROD 131430Z 26005KT CAVOK 06/M06 Q1033=
201902131500 METAR LROD 131500Z 28004KT 240V310 CAVOK 05/M06 Q1033=
201902131530 METAR LROD 131530Z 23003KT CAVOK 05/M04 Q1033=
201902131600 METAR LROD 131600Z 20005KT CAVOK 03/M04 Q1032=
201902131630 METAR LROD 131630Z 18004KT CAVOK 02/M03 Q1033=
201902131700 METAR LROD 131700Z 18005KT CAVOK 01/M03 Q1033=
201902131730 METAR LROD 131730Z 18007KT CAVOK 00/M04 Q1033=
201902131800 METAR LROD 131800Z 19007KT CAVOK M01/M04 Q1033=
201902131830 METAR LROD 131830Z 20009KT CAVOK 01/M03 Q1033=
201902131900 METAR LROD 131900Z 20008KT CAVOK 02/M03 Q1033=
201902131930 METAR LROD 131930Z 20009KT CAVOK 02/M03 Q1033=
201902132000 METAR LROD 132000Z AUTO 21007KT 9999 SCT055/// 01/M04 Q1033=
201902132030 METAR LROD 132030Z AUTO 21007KT 9999 NCD 01/M04 Q1033=
201902132100 METAR LROD 132100Z AUTO 22006KT 180V240 9999 NCD 01/M04 Q1033=
201902132130 METAR LROD 132130Z AUTO 19007KT 9999 NCD 00/M03 Q1033=
201902132200 METAR LROD 132200Z AUTO 18008KT 9999 NCD 00/M03 Q1033=
201902132230 METAR LROD 132230Z AUTO 19006KT 9999 BKN055/// 00/M03 Q1033=
201902132300 METAR LROD 132300Z AUTO 18007KT 9999 SCT032/// BKN055///
                        00/M02 Q1033=
201902132330 METAR LROD 132330Z AUTO 18007KT 9999 BKN025/// 01/M02 Q1033=
201902140000 METAR LROD 140000Z AUTO 17007KT 9999 BKN023/// 01/M02 Q1033=
201902140030 METAR LROD 140030Z AUTO 16006KT 9999 BKN021/// 01/M02 Q1033=
201902140100 METAR LROD 140100Z AUTO 14004KT 100V170 9999 BKN018/// 02/M02
                        Q1033=
201902140130 METAR LROD 140130Z AUTO 17006KT 9999 BKN018/// 02/M02 Q1032=
201902140200 METAR LROD 140200Z AUTO 18007KT 9999 OVC018/// 02/M02 Q1032=
201902140230 METAR LROD 140230Z AUTO 19006KT 9999 BKN017/// OVC020///
                        01/M02 Q1032=
201902140300 METAR LROD 140300Z AUTO 17003KT 9999 BKN016/// 01/M02 Q1032=
201902140330 METAR LROD 140330Z AUTO VRB01KT 9999 FEW011/// BKN014///
                        M00/M02 Q1032=
201902140400 METAR LROD 140400Z AUTO 00000KT 9999 NCD M01/M02 Q1032=
201902140430 METAR LROD 140430Z AUTO 15003KT 9000 FEW180/// M00/M01 Q1032=
201902140500 METAR LROD 140500Z 13003KT CAVOK M01/M02 Q1032=
201902140530 METAR LROD 140530Z 00000KT CAVOK M02/M03 Q1032=
201902140600 METAR LROD 140600Z 23004KT 9000 NSC M02/M03 Q1033=
201902140630 METAR LROD 140630Z 23003KT 6000 SCT009 M01/M01 Q1033=
201902140700 METAR LROD 140700Z 20004KT 7000 BKN009 01/M00 Q1033=
201902140730 METAR LROD 140730Z 21005KT 8000 BKN008 01/00 Q1033=
201902140800 METAR LROD 140800Z 21005KT 9000 SCT008 02/00 Q1033=
201902140830 METAR LROD 140830Z 22005KT 9999 FEW009 02/00 Q1033=
201902140900 METAR LROD 140900Z 22004KT CAVOK 02/00 Q1033=
201902140930 METAR LROD 140930Z 21004KT 180V240 CAVOK 03/01 Q1033=
201902141000 METAR LROD 141000Z 20004KT 170V230 CAVOK 03/01 Q1033=
201902141030 METAR LROD 141030Z 21003KT CAVOK 04/01 Q1033=
201902141100 METAR COR LROD 141100Z 24004KT 210V270 CAVOK 05/01 Q1032=
201902141130 METAR LROD 141130Z 26005KT CAVOK 05/01 Q1032=
201902141200 METAR LROD 141200Z 28005KT 250V320 CAVOK 05/02 Q1032=
201902141230 METAR LROD 141230Z 28004KT 250V310 CAVOK 05/02 Q1032=
201902141300 METAR LROD 141300Z 28003KT 250V320 CAVOK 06/02 Q1032=
201902141330 METAR LROD 141330Z 29002KT CAVOK 06/03 Q1031=
201902141400 METAR LROD 141400Z VRB01KT CAVOK 06/03 Q1031=
201902141430 METAR LROD 141430Z VRB01KT CAVOK 06/03 Q1031=
201902141500 METAR LROD 141500Z 28003KT CAVOK 06/03 Q1031=
201902141530 METAR LROD 141530Z 27002KT CAVOK 06/03 Q1031=
201902141600 METAR LROD 141600Z 26004KT 9999 SCT043 06/03 Q1031=
201902141630 METAR LROD 141630Z 27004KT 9999 FEW043 BKN049 06/03 Q1031=
201902141700 METAR LROD 141700Z 30005KT 9999 OVC049 05/03 Q1031=
201902141730 METAR LROD 141730Z 32005KT 290V010 CAVOK 06/03 Q1031=
201902141800 METAR LROD 141800Z 33004KT CAVOK 06/03 Q1031=
201902141830 METAR LROD 141830Z 02003KT CAVOK 05/02 Q1031=
201902141900 METAR LROD 141900Z 01005KT CAVOK 05/01 Q1031=
201902141930 METAR LROD 141930Z AUTO 04005KT 9999 FEW043/// OVC055///
                        06/01 Q1031=
201902142000 METAR LROD 142000Z AUTO 03004KT 9999 FEW039/// OVC055///
                        06/01 Q1031=
201902142030 METAR LROD 142030Z AUTO 02005KT 9999 OVC055/// 06/01 Q1031=
201902142100 METAR LROD 142100Z AUTO 02005KT 9999 OVC055/// 06/01 Q1031=
201902142130 METAR LROD 142130Z AUTO 01007KT 9999 OVC055/// 06/01 Q1031=
201902142200 METAR LROD 142200Z AUTO 02005KT 9999 OVC055/// 05/02 Q1031=
201902142230 METAR LROD 142230Z AUTO 02006KT 9999 OVC050/// 05/02 Q1031=
201902142300 METAR LROD 142300Z AUTO 02007KT 9999 BKN055/// 05/01 Q1031=
201902142330 METAR LROD 142330Z AUTO 02006KT 9999 BKN055/// 05/01 Q1030=
201902150000 METAR LROD 150000Z AUTO 03008KT 9999 BKN050/// 05/01 Q1030=
201902150030 METAR LROD 150030Z AUTO 02007KT 9999 BKN050/// 04/01 Q1030=
201902150100 METAR LROD 150100Z AUTO 02007KT 9999 OVC050/// 04/01 Q1030=
201902150130 METAR LROD 150130Z AUTO 02007KT 9999 BKN050/// 04/01 Q1030=
201902150200 METAR LROD 150200Z AUTO 03008KT 9999 OVC050/// 05/01 Q1030=
201902150230 METAR LROD 150230Z AUTO 02009KT 9999 BKN050/// 04/01 Q1030=
201902150300 METAR LROD 150300Z AUTO 03006KT 9999 BKN050/// 04/01 Q1030=
201902150330 METAR LROD 150330Z AUTO 08002KT 050V110 9999 BKN055/// 04/01
                        Q1030=
201902150400 METAR LROD 150400Z AUTO 06004KT 020V130 9999 OVC055/// 04/01
                        Q1030=
201902150430 METAR LROD 150430Z AUTO 01004KT 330V050 9999 BKN055/// 04/00
                        Q1030=
201902150500 METAR LROD 150500Z 02004KT 350V100 CAVOK 03/M00 Q1031=
201902150530 METAR LROD 150530Z 06006KT 030V090 CAVOK 03/M00 Q1031=
201902150600 METAR LROD 150600Z 07004KT CAVOK 02/M00 Q1031=
201902150630 METAR LROD 150630Z 07005KT CAVOK 03/M00 Q1032=
201902150700 METAR LROD 150700Z 06004KT CAVOK 04/00 Q1032=
201902150730 METAR LROD 150730Z 07005KT 040V100 CAVOK 05/00 Q1032=
201902150800 METAR LROD 150800Z 05008KT CAVOK 06/00 Q1032=
201902150830 METAR LROD 150830Z 05008KT CAVOK 07/M00 Q1032=
201902150900 METAR LROD 150900Z 06009KT 030V090 CAVOK 08/M00 Q1032=
201902150930 METAR LROD 150930Z 05007KT 010V110 CAVOK 08/M00 Q1033=
201902151000 METAR LROD 151000Z 03007KT 350V070 CAVOK 09/M00 Q1033=
201902151030 METAR LROD 151030Z 01008KT 330V060 9999 FEW033 09/00 Q1032=
201902151100 METAR LROD 151100Z 01008KT 330V030 9999 FEW035 09/00 Q1032=
201902151130 METAR LROD 151130Z 01007KT 9999 FEW037 09/00 Q1032=
201902151200 METAR LROD 151200Z 04007KT 360V090 9999 FEW045 10/M00 Q1032=
201902151230 METAR LROD 151230Z VRB03KT 9999 FEW048 10/M00 Q1032=
201902151300 METAR LROD 151300Z 02005KT 340V080 CAVOK 10/M01 Q1032=
201902151330 METAR LROD 151330Z 03007KT CAVOK 10/M01 Q1032=
201902151400 METAR LROD 151400Z 01008KT CAVOK 09/M02 Q1031=
201902151430 METAR LROD 151430Z 01008KT CAVOK 09/M00 Q1031=
201902151500 METAR LROD 151500Z 01007KT CAVOK 08/M00 Q1031=
201902151530 METAR LROD 151530Z 01005KT CAVOK 07/M01 Q1031=
201902151600 METAR LROD 151600Z 03004KT CAVOK 07/M01 Q1032=
201902151630 METAR LROD 151630Z 05003KT CAVOK 06/M01 Q1032=
201902151700 METAR LROD 151700Z 31003KT CAVOK 03/M01 Q1032=
201902151730 METAR LROD 151730Z 33003KT CAVOK 03/M01 Q1032=
201902151800 METAR LROD 151800Z 01001KT CAVOK 02/M01 Q1032=
201902151830 METAR LROD 151830Z 07002KT CAVOK 01/M02 Q1032=
201902151900 METAR LROD 151900Z 09003KT CAVOK 02/M01 Q1032=
201902151930 METAR LROD 151930Z 12004KT CAVOK M01/M03 Q1032=
201902152000 METAR LROD 152000Z 11004KT CAVOK M01/M02 Q1032=
201902152030 METAR LROD 152030Z AUTO 10005KT 6000 NCD 01/M01 Q1032=
201902152100 METAR LROD 152100Z AUTO 10006KT 6000 NCD M00/M02 Q1032=
201902152130 METAR LROD 152130Z AUTO 10005KT 7000 NCD 00/M02 Q1032=
201902152200 METAR LROD 152200Z AUTO 12006KT 6000 NCD M01/M02 Q1032=
201902152230 METAR LROD 152230Z AUTO 11006KT 6000 NCD M01/M02 Q1032=
201902152300 METAR LROD 152300Z AUTO 11006KT 9000 NCD M01/M02 Q1032=
201902152330 METAR LROD 152330Z AUTO 11006KT 8000 NCD M01/M03 Q1032=
201902160000 METAR LROD 160000Z AUTO 11006KT 8000 NCD M01/M03 Q1032=
201902160030 METAR LROD 160030Z AUTO 11006KT 9000 NCD M01/M03 Q1032=
201902160100 METAR LROD 160100Z AUTO 12006KT 8000 NCD M02/M03 Q1032=
201902160130 METAR LROD 160130Z AUTO 11006KT 9000 NCD M02/M03 Q1032=
201902160200 METAR LROD 160200Z AUTO 11006KT 8000 NCD M02/M03 Q1032=
201902160230 METAR LROD 160230Z AUTO 11006KT 9000 NCD M02/M03 Q1031=
201902160300 METAR LROD 160300Z AUTO 11006KT 9000 NCD M02/M03 Q1031=
201902160330 METAR LROD 160330Z AUTO 11006KT 9000 NCD M02/M03 Q1031=
201902160400 METAR LROD 160400Z AUTO 11006KT 9999 NCD M02/M03 Q1031=
201902160430 METAR LROD 160430Z AUTO 12007KT 9000 NCD M02/M03 Q1031=
201902160500 METAR LROD 160500Z 11006KT CAVOK M02/M03 Q1032=
201902160530 METAR LROD 160530Z 10006KT CAVOK M02/M03 Q1032=
201902160600 METAR LROD 160600Z 10006KT CAVOK M02/M03 Q1032=
201902160630 METAR LROD 160630Z 11005KT CAVOK M01/M02 Q1032=
201902160700 METAR LROD 160700Z 11005KT CAVOK 00/M02 Q1032=
201902160730 METAR LROD 160730Z 09005KT 060V120 CAVOK 02/M01 Q1032=
201902160800 METAR LROD 160800Z 11004KT 080V140 CAVOK 03/M01 Q1032=
201902160830 METAR LROD 160830Z 15003KT CAVOK 06/01 Q1032=
201902160900 METAR LROD 160900Z 21007KT CAVOK 06/00 Q1032=
201902160930 METAR LROD 160930Z 21008KT CAVOK 07/M01 Q1032=
201902161000 METAR LROD 161000Z 22007KT 190V250 CAVOK 07/00 Q1032=
201902161030 METAR LROD 161030Z 24007KT CAVOK 07/01 Q1032=
201902161100 METAR LROD 161100Z 24008KT CAVOK 08/01 Q1032=
201902161130 METAR LROD 161130Z 23005KT 200V260 CAVOK 09/02 Q1031=
201902161200 METAR LROD 161200Z 24005KT 170V270 CAVOK 09/02 Q1031=
201902161230 METAR LROD 161230Z 25004KT 210V290 CAVOK 10/02 Q1031=
201902161300 METAR LROD 161300Z 24005KT 210V290 CAVOK 10/02 Q1031=
201902161330 METAR LROD 161330Z 25004KT 200V310 CAVOK 10/02 Q1031=
201902161400 METAR LROD 161400Z 24004KT 170V300 CAVOK 10/02 Q1031=
201902161430 METAR LROD 161430Z 26004KT 220V290 CAVOK 10/03 Q1030=
201902161500 METAR LROD 161500Z 23002KT CAVOK 10/03 Q1030=
201902161530 METAR LROD 161530Z 22002KT CAVOK 09/03 Q1030=
201902161600 METAR LROD 161600Z 19002KT CAVOK 07/03 Q1030=
201902161630 METAR COR LROD 161630Z 17002KT CAVOK 05/02 Q1030=
201902161700 METAR LROD 161700Z 19002KT CAVOK 04/02 Q1030=
201902161730 METAR LROD 161730Z 16003KT CAVOK 02/01 Q1030=
201902161800 METAR LROD 161800Z 11004KT CAVOK 02/01 Q1030=
201902161830 METAR LROD 161830Z 11005KT CAVOK 02/01 Q1030=
201902161900 METAR LROD 161900Z 11004KT CAVOK 02/01 Q1030=
201902161930 METAR LROD 161930Z AUTO 10006KT 6000 NCD 02/01 Q1031=
201902162000 METAR LROD 162000Z AUTO 10006KT 6000 NCD 02/00 Q1031=
201902162030 METAR LROD 162030Z AUTO 11006KT 6000 NCD 01/00 Q1031=
201902162100 METAR LROD 162100Z AUTO 11006KT 5000 BR NCD 01/M00 Q1030=
201902162130 METAR LROD 162130Z AUTO 11006KT 5000 BR NCD 00/M01 Q1030=
201902162200 METAR LROD 162200Z AUTO 11007KT 5000 BR NCD 00/M00 Q1030=
201902162230 METAR LROD 162230Z AUTO 11007KT 6000 NCD 00/M01 Q1030=
201902162300 METAR LROD 162300Z AUTO 11006KT 6000 NCD 00/M01 Q1030=
201902162330 METAR LROD 162330Z AUTO 10006KT 6000 NCD M00/M01 Q1030=
201902170000 METAR LROD 170000Z AUTO 11007KT 6000 NCD M00/M01 Q1030=
201902170030 METAR LROD 170030Z AUTO 10006KT 5000 BR NCD M00/M01 Q1030=
201902170100 METAR LROD 170100Z AUTO 11006KT 5000 BR NCD M01/M01 Q1030=
201902170130 METAR LROD 170130Z AUTO 11006KT 5000 BR NCD M01/M01 Q1029=
201902170200 METAR LROD 170200Z AUTO 11006KT 5000 BR NCD M01/M01 Q1029=
201902170230 METAR LROD 170230Z AUTO 11006KT 5000 BR NCD M01/M01 Q1029=
201902170300 METAR LROD 170300Z AUTO 11006KT 6000 NCD M01/M02 Q1029=
201902170330 METAR LROD 170330Z AUTO 11006KT 5000 BR NCD M01/M02 Q1029=
201902170400 METAR LROD 170400Z AUTO 11006KT 6000 NCD M01/M02 Q1029=
201902170430 METAR LROD 170430Z AUTO 11006KT 6000 NCD M01/M02 Q1029=
201902170500 METAR LROD 170500Z 11006KT CAVOK M01/M02 Q1029=
201902170530 METAR LROD 170530Z 11005KT CAVOK M01/M02 Q1029=
201902170600 METAR LROD 170600Z 11006KT CAVOK M01/M02 Q1029=
201902170630 METAR LROD 170630Z 10006KT CAVOK M00/M01 Q1030=
201902170700 METAR LROD 170700Z 10006KT CAVOK 01/M00 Q1030=
201902170730 METAR LROD 170730Z 11004KT CAVOK 02/00 Q1030=
201902170800 METAR LROD 170800Z 10004KT 080V140 CAVOK 04/02 Q1030=
201902170830 METAR LROD 170830Z 14003KT CAVOK 07/02 Q1030=
201902170900 METAR LROD 170900Z 21007KT CAVOK 08/03 Q1030=
201902170930 METAR LROD 170930Z 21006KT CAVOK 08/03 Q1030=
201902171000 METAR LROD 171000Z 22007KT CAVOK 09/03 Q1029=
201902171030 METAR LROD 171030Z 22006KT CAVOK 10/03 Q1029=
201902171100 METAR LROD 171100Z 22006KT 170V250 CAVOK 11/03 Q1029=
201902171130 METAR LROD 171130Z 22005KT 190V260 CAVOK 11/03 Q1028=
201902171200 METAR LROD 171200Z 24006KT CAVOK 11/03 Q1028=
201902171230 METAR LROD 171230Z 25006KT CAVOK 11/03 Q1028=
201902171300 METAR LROD 171300Z 26006KT CAVOK 11/03 Q1028=
201902171330 METAR LROD 171330Z 24005KT 180V280 CAVOK 12/03 Q1027=
201902171400 METAR LROD 171400Z 26005KT 220V290 CAVOK 12/03 Q1027=
201902171430 METAR LROD 171430Z 26004KT 220V300 CAVOK 11/03 Q1027=
201902171500 METAR COR LROD 171500Z 28003KT CAVOK 11/03 Q1027=
201902171530 METAR LROD 171530Z 30001KT CAVOK 10/03 Q1027=
201902171600 METAR LROD 171600Z 00000KT CAVOK 09/03 Q1027=
201902171630 METAR LROD 171630Z 00000KT CAVOK 06/03 Q1027=
201902171700 METAR LROD 171700Z 14001KT CAVOK 05/02 Q1027=
201902171730 METAR LROD 171730Z 12004KT CAVOK 05/02 Q1027=
201902171800 METAR LROD 171800Z 12004KT CAVOK 04/02 Q1027=
201902171830 METAR LROD 171830Z 11005KT CAVOK 04/01 Q1027=
201902171900 METAR LROD 171900Z 11006KT CAVOK 03/01 Q1027=
201902171930 METAR LROD 171930Z AUTO 10006KT 5000 BR NCD 02/01 Q1027=
201902172000 METAR LROD 172000Z AUTO 10006KT 5000 BR NCD 02/01 Q1027=
201902172030 METAR LROD 172030Z AUTO 11006KT 5000 BR NCD 02/00 Q1027=
201902172100 METAR LROD 172100Z AUTO 11007KT 5000 BR NCD 01/00 Q1027=
201902172130 METAR LROD 172130Z AUTO 11007KT 5000 BR NCD 01/00 Q1027=
201902172200 METAR LROD 172200Z AUTO 11007KT 5000 BR NCD 01/M00 Q1027=
201902172230 METAR LROD 172230Z AUTO 11007KT 5000 BR NCD 01/M00 Q1027=
201902172300 METAR LROD 172300Z AUTO 11007KT 5000 BR NCD 00/M01 Q1027=
201902172330 METAR LROD 172330Z AUTO 11007KT 6000 NCD 01/M00 Q1027=
201902180000 METAR LROD 180000Z AUTO 10007KT 6000 NCD 00/M00 Q1026=
201902180030 METAR LROD 180030Z AUTO 10007KT 6000 NCD 00/M00 Q1026=
201902180100 METAR LROD 180100Z AUTO 11006KT 6000 NCD 00/M01 Q1026=
201902180130 METAR LROD 180130Z AUTO 10006KT 6000 NCD M00/M01 Q1026=
201902180200 METAR LROD 180200Z AUTO 10006KT 6000 NCD M00/M01 Q1026=
201902180230 METAR LROD 180230Z AUTO 11007KT 6000 NCD M00/M01 Q1026=
201902180300 METAR LROD 180300Z AUTO 10006KT 7000 NCD M00/M01 Q1026=
201902180330 METAR LROD 180330Z AUTO 11007KT 7000 NCD M01/M01 Q1025=
201902180400 METAR LROD 180400Z AUTO 11007KT 7000 NCD M01/M01 Q1025=
201902180430 METAR LROD 180430Z AUTO 11006KT 7000 NCD M01/M01 Q1025=
201902180500 METAR COR LROD 180500Z 10006KT CAVOK M00/M01 Q1025=
201902180530 METAR COR LROD 180530Z 11007KT CAVOK M01/M02 Q1025=
201902180600 METAR LROD 180600Z 11006KT CAVOK M01/M02 Q1026=
201902180630 METAR COR LROD 180630Z 11006KT CAVOK 01/M01 Q1026=
201902180700 METAR LROD 180700Z 10006KT CAVOK 02/M00 Q1026=
201902180730 METAR LROD 180730Z 10006KT CAVOK 03/01 Q1026=
201902180800 METAR LROD 180800Z 10005KT CAVOK 05/01 Q1026=
201902180830 METAR LROD 180830Z 11004KT 050V140 CAVOK 06/02 Q1026=
201902180900 METAR LROD 180900Z 14003KT 090V180 CAVOK 08/03 Q1026=
201902180930 METAR LROD 180930Z 23002KT 140V310 CAVOK 10/03 Q1026=
201902181000 METAR LROD 181000Z 25004KT 200V290 CAVOK 10/04 Q1026=
201902181030 METAR LROD 181030Z 27004KT 230V320 CAVOK 10/04 Q1026=
201902181100 METAR LROD 181100Z 28004KT 250V330 CAVOK 11/04 Q1025=
201902181130 METAR LROD 181130Z 27004KT 240V320 CAVOK 12/03 Q1025=
201902181200 METAR COR LROD 181200Z 27004KT 230V320 CAVOK 12/03 Q1024=
201902181230 METAR LROD 181230Z 26004KT 180V310 CAVOK 13/02 Q1024=
201902181300 METAR LROD 181300Z 28004KT 230V350 CAVOK 13/02 Q1024=
201902181330 METAR COR LROD 181330Z 27004KT 200V320 CAVOK 13/03 Q1024=
201902181400 METAR LROD 181400Z 34005KT 300V010 CAVOK 13/02 Q1024=
201902181430 METAR LROD 181430Z 32004KT 290V350 CAVOK 13/02 Q1023=
201902181500 METAR LROD 181500Z 32002KT 290V360 CAVOK 13/02 Q1023=
201902181530 METAR LROD 181530Z 31003KT CAVOK 11/03 Q1023=
201902181600 METAR LROD 181600Z 33003KT CAVOK 09/02 Q1023=
201902181630 METAR LROD 181630Z 03005KT CAVOK 08/02 Q1023=
201902181700 METAR LROD 181700Z 06002KT CAVOK 07/02 Q1023=
201902181730 METAR LROD 181730Z 07004KT CAVOK 07/02 Q1023=
201902181800 METAR COR LROD 181800Z 11004KT CAVOK 06/02 Q1023=
201902181830 METAR LROD 181830Z 10003KT CAVOK 04/02 Q1023=
201902181900 METAR LROD 181900Z 11005KT CAVOK 03/01 Q1023=
201902181930 METAR LROD 181930Z AUTO 09004KT 5000 BR NCD 03/01 Q1023=
201902182000 METAR LROD 182000Z AUTO 11005KT 4900 BR NCD 02/01 Q1023=
201902182030 METAR LROD 182030Z AUTO 11005KT 4800 BR NCD 01/00 Q1023=
201902182100 METAR LROD 182100Z AUTO 10006KT 5000 BR NCD 01/00 Q1023=
201902182130 METAR LROD 182130Z AUTO 11007KT 4900 BR NCD 01/00 Q1023=
201902182200 METAR LROD 182200Z AUTO 11007KT 5000 BR NCD 01/00 Q1022=
201902182230 METAR LROD 182230Z AUTO 11007KT 5000 BR NCD 01/M00 Q1023=
201902182300 METAR LROD 182300Z AUTO 11007KT 5000 BR NCD 01/M00 Q1023=
201902182330 METAR LROD 182330Z AUTO 11007KT 5000 BR NCD 00/M00 Q1023=
201902190000 METAR LROD 190000Z AUTO 11007KT 6000 NCD 00/M01 Q1022=
201902190030 METAR LROD 190030Z AUTO 11006KT 6000 NCD 00/M01 Q1022=
201902190100 METAR LROD 190100Z AUTO 11007KT 6000 NCD 00/M01 Q1022=
201902190130 METAR LROD 190130Z AUTO 11007KT 6000 NCD M00/M01 Q1022=
201902190200 METAR LROD 190200Z AUTO 11006KT 7000 NCD M00/M01 Q1022=
201902190230 METAR LROD 190230Z AUTO 11006KT 8000 NCD M00/M01 Q1021=
201902190300 METAR LROD 190300Z AUTO 11007KT 8000 NCD M00/M01 Q1021=
201902190330 METAR LROD 190330Z AUTO 11006KT 9000 NCD M00/M01 Q1021=
201902190400 METAR LROD 190400Z AUTO 11006KT 9000 NCD M00/M01 Q1021=
201902190430 METAR LROD 190430Z AUTO 10006KT 9999 NCD M00/M02 Q1021=
201902190500 METAR LROD 190500Z 10006KT CAVOK M00/M02 Q1021=
201902190530 METAR LROD 190530Z 11006KT CAVOK M01/M02 Q1021=
201902190600 METAR LROD 190600Z 10006KT CAVOK 00/M01 Q1021=
201902190630 METAR LROD 190630Z 11006KT CAVOK 01/M01 Q1021=
201902190700 METAR LROD 190700Z 10006KT CAVOK 03/M01 Q1021=
201902190730 METAR LROD 190730Z 10005KT CAVOK 04/00 Q1021=
201902190800 METAR LROD 190800Z 09005KT CAVOK 05/01 Q1021=
201902190830 METAR LROD 190830Z 10004KT 060V150 CAVOK 08/02 Q1021=
201902190900 METAR LROD 190900Z 10002KT CAVOK 09/02 Q1021=
201902190930 METAR LROD 190930Z VRB02KT CAVOK 11/03 Q1021=
201902191000 METAR LROD 191000Z 25003KT CAVOK 12/02 Q1021=
201902191030 METAR LROD 191030Z 26004KT CAVOK 12/03 Q1021=
201902191100 METAR LROD 191100Z AUTO 24005KT 180V260 9999 NCD 13/03 Q1020=
201902191130 METAR COR LROD 191130Z 24005KT 190V280 CAVOK 14/03 Q1020=
201902191200 METAR LROD 191200Z 24006KT 200V270 CAVOK 14/03 Q1020=
201902191230 METAR LROD 191230Z 23007KT CAVOK 14/03 Q1019=
201902191300 METAR LROD 191300Z 24009KT CAVOK 14/03 Q1019=
201902191330 METAR LROD 191330Z 24007KT CAVOK 14/03 Q1019=
201902191400 METAR LROD 191400Z 23007KT CAVOK 14/02 Q1019=
201902191430 METAR LROD 191430Z 24006KT CAVOK 14/02 Q1018=
201902191500 METAR LROD 191500Z 24006KT CAVOK 14/03 Q1018=
201902191530 METAR LROD 191530Z 25005KT CAVOK 12/03 Q1018=
201902191600 METAR LROD 191600Z 23004KT CAVOK 10/04 Q1018=
201902191630 METAR LROD 191630Z 22003KT CAVOK 09/04 Q1018=
201902191700 METAR LROD 191700Z 18003KT CAVOK 08/03 Q1018=
201902191730 METAR LROD 191730Z 17003KT CAVOK 05/02 Q1018=
201902191800 METAR LROD 191800Z 15004KT CAVOK 05/02 Q1018=
201902191830 METAR LROD 191830Z 08003KT CAVOK 04/02 Q1018=
201902191900 METAR LROD 191900Z 11006KT CAVOK 04/01 Q1018=
201902191930 METAR LROD 191930Z AUTO 11006KT 7000 NCD 04/01 Q1018=
201902192000 METAR LROD 192000Z AUTO 11006KT 6000 NCD 03/01 Q1018=
201902192030 METAR LROD 192030Z AUTO 11006KT 7000 NCD 03/01 Q1018=
201902192100 METAR LROD 192100Z AUTO 11007KT 6000 NCD 02/01 Q1018=
201902192130 METAR LROD 192130Z AUTO 11007KT 6000 NCD 02/00 Q1018=
201902192200 METAR LROD 192200Z AUTO 11007KT 6000 NCD 02/00 Q1018=
201902192230 METAR LROD 192230Z AUTO 11006KT 6000 NCD 02/00 Q1018=
201902192300 METAR LROD 192300Z AUTO 11007KT 6000 NCD 01/00 Q1018=
201902192330 METAR LROD 192330Z AUTO 12006KT 6000 NCD 01/M00 Q1018=
201902200000 METAR LROD 200000Z AUTO 11006KT 6000 NCD 01/M00 Q1018=
201902200030 METAR LROD 200030Z AUTO 12006KT 6000 NCD 01/M00 Q1018=
201902200100 METAR LROD 200100Z AUTO 12006KT 6000 NCD 01/M00 Q1018=
201902200130 METAR LROD 200130Z AUTO 11006KT 6000 NCD 00/M01 Q1018=
201902200200 METAR LROD 200200Z AUTO 12006KT 5000 BR NCD 00/M01 Q1018=
201902200230 METAR LROD 200230Z AUTO 12005KT 4500 BR NCD M00/M01 Q1018=
201902200300 METAR LROD 200300Z AUTO 17004KT 140V220 5000 BR NCD 00/M01
                        Q1018=
201902200330 METAR LROD 200330Z AUTO 18006KT 8000 NCD 02/00 Q1018=
201902200400 METAR LROD 200400Z AUTO 20006KT 7000 NCD 01/M00 Q1018=
201902200430 METAR LROD 200430Z AUTO 17007KT 6000 NCD 02/00 Q1018=
201902200500 METAR LROD 200500Z 16006KT CAVOK 02/00 Q1018=
201902200530 METAR LROD 200530Z 18007KT 7000 NSC 01/M00 Q1018=
201902200600 METAR LROD 200600Z 20007KT 180V240 4700 BR NSC 02/01 Q1019=
201902200630 METAR LROD 200630Z 20009KT 4900 BR NSC 02/01 Q1019=
201902200700 METAR LROD 200700Z 19009KT 4800 BR NSC 03/01 Q1019=
201902200730 METAR LROD 200730Z 20009KT 5000 BR NSC 04/02 Q1020=
201902200800 METAR LROD 200800Z 21009KT 6000 NSC 05/02 Q1020=
201902200830 METAR LROD 200830Z 22009KT 8000 NSC 05/01 Q1020=
201902200900 METAR LROD 200900Z 24007KT 8000 NSC 06/01 Q1020=
201902200930 METAR LROD 200930Z 23005KT CAVOK 06/02 Q1021=
201902201000 METAR LROD 201000Z 24005KT 210V280 CAVOK 07/02 Q1021=
201902201030 METAR LROD 201030Z 24004KT 200V280 CAVOK 07/03 Q1021=
201902201100 METAR LROD 201100Z 25003KT CAVOK 08/03 Q1021=
201902201130 METAR LROD 201130Z 29005KT 250V340 CAVOK 09/03 Q1021=
201902201200 METAR LROD 201200Z 34005KT 300V060 CAVOK 10/03 Q1021=
201902201230 METAR LROD 201230Z 32006KT 300V360 CAVOK 11/02 Q1021=
201902201300 METAR LROD 201300Z 02006KT 350V050 CAVOK 11/00 Q1021=
201902201330 METAR LROD 201330Z 33005KT 280V360 CAVOK 11/00 Q1021=
201902201400 METAR LROD 201400Z 29005KT 260V320 CAVOK 11/01 Q1021=
201902201430 METAR LROD 201430Z 21003KT CAVOK 11/01 Q1021=
201902201500 METAR LROD 201500Z 25003KT CAVOK 11/01 Q1021=
201902201530 METAR LROD 201530Z 19002KT CAVOK 10/01 Q1021=
201902201600 METAR LROD 201600Z 19004KT CAVOK 09/02 Q1021=
201902201630 METAR LROD 201630Z 18003KT CAVOK 08/03 Q1021=
201902201700 METAR LROD 201700Z 21003KT CAVOK 08/03 Q1021=
201902201730 METAR LROD 201730Z 21003KT CAVOK 07/02 Q1021=
201902201800 METAR LROD 201800Z 27006KT 240V310 CAVOK 08/01 Q1021=
201902201830 METAR LROD 201830Z 29007KT CAVOK 07/02 Q1022=
201902201900 METAR LROD 201900Z 34003KT CAVOK 06/01 Q1022=
201902201930 METAR LROD 201930Z AUTO 12004KT 9000 NCD 05/01 Q1022=
201902202000 METAR LROD 202000Z AUTO 07003KT 340V110 9000 NCD 04/M00 Q1023=
201902202030 METAR LROD 202030Z AUTO 07005KT 9999 FEW070/// 04/M00 Q1023=
201902202100 METAR LROD 202100Z AUTO VRB01KT 9999 FEW075/// 03/M01 Q1023=
201902202130 METAR LROD 202130Z AUTO 08003KT 9999 NCD 04/M00 Q1023=
201902202200 METAR LROD 202200Z AUTO 13003KT 110V170 9000 NCD 01/M00 Q1023=
201902202230 METAR LROD 202230Z AUTO 09003KT 6000 NCD 01/M00 Q1024=
201902202300 METAR LROD 202300Z AUTO 10004KT 6000 NCD 01/M01 Q1024=
201902202330 METAR LROD 202330Z AUTO 11005KT 6000 SCT070/// 01/M00 Q1024=
201902210000 METAR LROD 210000Z AUTO 10005KT 6000 FEW070/// 01/M01 Q1024=
201902210030 METAR LROD 210030Z AUTO 10005KT 7000 NCD 00/M01 Q1024=
201902210100 METAR LROD 210100Z AUTO 11005KT 7000 NCD 00/M01 Q1025=
201902210130 METAR LROD 210130Z AUTO 10005KT 6000 NCD M01/M02 Q1025=
201902210200 METAR LROD 210200Z AUTO 10005KT 8000 NCD M00/M02 Q1025=
201902210230 METAR LROD 210230Z AUTO 08007KT 9999 NCD 01/M01 Q1025=
201902210300 METAR LROD 210300Z AUTO 10005KT 9999 NCD 00/M01 Q1025=
201902210330 METAR LROD 210330Z AUTO 13005KT 8000 NCD M01/M02 Q1025=
201902210400 METAR LROD 210400Z AUTO 13005KT 8000 NCD M01/M02 Q1025=
201902210430 METAR LROD 210430Z AUTO 11006KT 9000 SCT065/// M01/M03 Q1026=
201902210500 METAR COR LROD 210500Z 12005KT CAVOK M01/M02 Q1026=
201902210530 METAR LROD 210530Z 14004KT 110V180 CAVOK M01/M02 Q1026=
201902210600 METAR LROD 210600Z 11005KT CAVOK M01/M02 Q1026=
201902210630 METAR COR LROD 210630Z 14003KT 110V200 CAVOK M00/M02 Q1026=
201902210700 METAR COR LROD 210700Z 12002KT 050V160 CAVOK 01/M01 Q1027=
201902210730 METAR LROD 210730Z VRB01KT CAVOK 02/M00 Q1027=
201902210800 METAR LROD 210800Z VRB01KT CAVOK 03/00 Q1027=
201902210830 METAR LROD 210830Z 23003KT 180V270 CAVOK 04/01 Q1027=
201902210900 METAR COR LROD 210900Z 22004KT 180V250 CAVOK 05/01 Q1027=
201902210930 METAR COR LROD 210930Z 24004KT 210V270 CAVOK 06/01 Q1027=
201902211000 METAR LROD 211000Z 23003KT 190V260 CAVOK 07/01 Q1027=
201902211030 METAR LROD 211030Z 25005KT 210V280 CAVOK 08/01 Q1027=
201902211100 METAR LROD 211100Z 24005KT 200V270 CAVOK 09/M01 Q1026=
201902211130 METAR LROD 211130Z 25006KT 210V280 CAVOK 09/M01 Q1026=
201902211200 METAR LROD 211200Z 24006KT 210V280 CAVOK 10/M02 Q1026=
201902211230 METAR LROD 211230Z 23007KT CAVOK 11/M02 Q1025=
201902211300 METAR LROD 211300Z 23009KT CAVOK 11/M05 Q1025=
201902211330 METAR LROD 211330Z 23009KT CAVOK 10/M03 Q1025=
201902211400 METAR LROD 211400Z 23008KT CAVOK 11/M03 Q1025=
201902211430 METAR LROD 211430Z 22007KT CAVOK 11/M02 Q1025=
201902211500 METAR LROD 211500Z 22008KT CAVOK 10/M02 Q1025=
201902211530 METAR LROD 211530Z 22006KT CAVOK 09/M01 Q1024=
201902211600 METAR LROD 211600Z 20006KT CAVOK 07/M02 Q1024=
201902211630 METAR COR LROD 211630Z 19006KT CAVOK 05/M01 Q1024=
201902211700 METAR LROD 211700Z 18007KT CAVOK 05/M02 Q1024=
201902211730 METAR LROD 211730Z 18006KT CAVOK 04/M02 Q1024=
201902211800 METAR COR LROD 211800Z 17007KT CAVOK 05/M02 Q1023=
201902211830 METAR LROD 211830Z 18006KT CAVOK 04/M02 Q1023=
201902211900 METAR LROD 211900Z 18006KT CAVOK 04/M02 Q1023=
201902211930 METAR LROD 211930Z AUTO 19007KT 9999 BKN220/// 04/M02 Q1023=
201902212000 METAR LROD 212000Z AUTO 19008KT 9999 FEW050/// BKN100///
                        06/M01 Q1023=
201902212030 METAR LROD 212030Z AUTO 19009KT 9999 FEW050/// OVC100///
                        06/M01 Q1023=
201902212100 METAR LROD 212100Z AUTO 19010KT 9999 OVC100/// 06/M01 Q1022=
201902212130 METAR LROD 212130Z AUTO 19009KT 9999 BKN100/// 06/M01 Q1022=
201902212200 METAR LROD 212200Z AUTO 19011KT 9999 SCT043/// BKN050///
                        BKN100/// 06/M01 Q1022=
201902212230 METAR LROD 212230Z AUTO 20012KT 9999 BKN045/// BKN060///
                        06/M01 Q1021=
201902212300 METAR LROD 212300Z AUTO 19011KT 9999 FEW042/// OVC050///
                        06/M01 Q1021=
201902212330 METAR LROD 212330Z AUTO 20012KT 9999 BKN040/// OVC046///
                        06/M00 Q1021=
201902220000 METAR LROD 220000Z AUTO 20010KT 9999 -RA BKN033/// OVC041///
                        04/01 Q1020=
201902220030 METAR LROD 220030Z AUTO 20008KT 6000 RA BKN026/// OVC034///
                        04/02 Q1020=
201902220100 METAR LROD 220100Z AUTO 21005KT 5000 RA FEW015/// BKN025///
                        OVC029/// 04/02 Q1020=
201902220130 METAR LROD 220130Z AUTO 22005KT 5000 RA FEW011/// SCT014///
                        BKN022/// 04/03 Q1020=
201902220200 METAR LROD 220200Z AUTO 24004KT 4700 -RA FEW008/// SCT012///
                        BKN021/// 04/04 Q1019=
201902220230 METAR LROD 220230Z AUTO 24004KT 3500 -RA FEW003/// BKN006///
                        BKN011/// 04/04 Q1019=
201902220300 METAR LROD 220300Z AUTO 27005KT 2900 -RA FEW003/// BKN008///
                        BKN020/// 04/04 Q1019=
201902220330 METAR LROD 220330Z AUTO 26004KT 2900 -RA FEW001/// SCT013///
                        OVC027/// 04/04 Q1019=
201902220400 METAR LROD 220400Z AUTO 25004KT 3100 SCT007/// BKN010///
                        BKN027/// 05/04 Q1018 RERA=
201902220430 METAR LROD 220430Z AUTO 25004KT 2600 FEW001/// SCT008///
                        BKN012/// 04/04 Q1018 REDZ=
201902220500 METAR LROD 220500Z 27003KT 0800 R19/1200D -RA FG SCT001 BKN007
                        04/04 Q1018=
201902220530 METAR LROD 220530Z 29003KT 0800 R19/1400D -RA FG FEW001 BKN010
                        04/04 Q1018=
201902220600 METAR LROD 220600Z 32002KT 1100 R19/1500U -RA BR SCT002 BKN009
                        04/04 Q1018=
201902220630 METAR LROD 220630Z 34004KT 2100 -RA BR BKN001 BKN008 OVC041
                        05/04 Q1018 R01/29//95=
201902220700 METAR LROD 220700Z 33003KT 3000 -RA BR BKN002 BKN004 05/05
                        Q1018 R01/29//95=
201902220730 METAR LROD 220730Z VRB01KT 3400 -RA BR BKN003 BKN033 05/05
                        Q1018 R01/29//95=
201902220800 METAR LROD 220800Z 00000KT 5000 BR BKN004 05/05 Q1018 R01/29//95=
201902220830 METAR LROD 220830Z 00000KT 7000 SCT004 BKN040 05/05 Q1018
                        R01/29//95=
201902220900 METAR LROD 220900Z 00000KT 8000 BKN032 OVC047 06/05 Q1018
                        R01/29//95=
201902220930 METAR LROD 220930Z 30002KT 8000 -RA SCT007 OVC030 06/06 Q1018
                        R01/29//95=
201902221000 METAR LROD 221000Z 30003KT 9000 -RA SCT007 OVC029 06/05 Q1018
                        R01/29//95=
201902221030 METAR LROD 221030Z 31005KT 7000 SCT005 BKN028 06/05 Q1018
                        R01/29//95=
201902221100 METAR LROD 221100Z 32006KT 3300 -RA BR SCT005 BKN013 06/06
                        Q1018 R01/29//95=
201902221130 METAR LROD 221130Z 35023KT 4500 -RA BR BKN004 BKN011 05/04
                        Q1019 R01/29//95=
201902221200 METAR LROD 221200Z 36019KT 9999 -RA BKN008 04/03 Q1019 R01/29//95=
201902221230 METAR LROD 221230Z 02021KT 9999 -RA SCT011 BKN018 04/02 Q1020
                        R01/29//95=
201902221300 METAR LROD 221300Z 01019KT 9999 SCT019 BKN023 03/00 Q1020
                        R01/29//95=
201902221330 METAR LROD 221330Z 02022G33KT 9999 SCT029 04/M02 Q1020 R01/29//95=
201902221400 METAR LROD 221400Z 03018G32KT 360V060 9999 FEW035 04/M03
                        Q1021 R01/29//95=
201902221430 METAR LROD 221430Z 01023KT 9999 FEW043 04/M04 Q1022 R01/29//95=
201902221500 METAR LROD 221500Z 02025KT CAVOK 02/M08 Q1022 R01/29//95=
201902221530 METAR LROD 221530Z 02018G28KT CAVOK 02/M09 Q1023 R01/29//95=
201902221600 METAR LROD 221600Z 02018G28KT CAVOK 01/M08 Q1024 R01/29//95=
201902221630 METAR LROD 221630Z 02020G31KT CAVOK M00/M10 Q1025 R01/29//95=
201902221700 METAR LROD 221700Z 03014G26KT 360V060 CAVOK M01/M10 Q1025
                        R01/29//95=
201902221730 METAR LROD 221730Z 02020G30KT CAVOK M01/M11 Q1026 R01/CLRD//=
201902221800 METAR LROD 221800Z 03016G26KT CAVOK M02/M12 Q1027=
201902221830 METAR LROD 221830Z 03021G34KT CAVOK M02/M12 Q1028=
201902221900 METAR LROD 221900Z 03020G32KT CAVOK M02/M13 Q1028=
201902221930 METAR LROD 221930Z 03020G31KT 360V060 CAVOK M03/M12 Q1029=
201902222000 METAR LROD 222000Z 03021G32KT CAVOK M03/M13 Q1030=
201902222030 METAR LROD 222030Z 02025G38KT CAVOK M03/M13 Q1030=
201902222100 METAR LROD 222100Z 03017G29KT CAVOK M03/M13 Q1031=
201902222130 METAR LROD 222130Z AUTO 03016G26KT 9999 NCD M03/M12 Q1032=
201902222200 METAR LROD 222200Z AUTO 03014KT 360V060 9999 NCD M04/M12
                        Q1032=
201902222230 METAR LROD 222230Z AUTO 03013KT 9999 NCD M03/M12 Q1033=
201902222300 METAR LROD 222300Z AUTO 03011KT 9999 NCD M04/M11 Q1033=
201902222330 METAR LROD 222330Z AUTO 02013KT 9999 NCD M04/M11 Q1034=
201902230000 METAR LROD 230000Z AUTO 02013KT 9999 NCD M04/M11 Q1034=
201902230030 METAR LROD 230030Z AUTO 02013KT 9999 NCD M04/M11 Q1034=
201902230100 METAR LROD 230100Z AUTO 03009KT 360V060 9999 NCD M04/M12
                        Q1035=
201902230130 METAR LROD 230130Z AUTO 03006KT 360V060 9999 NCD M04/M12
                        Q1035=
201902230200 METAR LROD 230200Z AUTO 02010KT 9999 NCD M04/M11 Q1035=
201902230230 METAR LROD 230230Z AUTO 02011KT 9999 NCD M04/M11 Q1036=
201902230300 METAR LROD 230300Z AUTO 02012KT 9999 NCD M04/M11 Q1036=
201902230330 METAR LROD 230330Z AUTO 03012KT 9999 NCD M05/M12 Q1036=
201902230400 METAR LROD 230400Z AUTO 02012KT 9999 NCD M05/M11 Q1036=
201902230430 METAR LROD 230430Z AUTO 02011KT 9999 NCD M05/M11 Q1037=
201902230500 METAR LROD 230500Z 02009KT CAVOK M05/M12 Q1037=
201902230530 METAR LROD 230530Z 02009KT CAVOK M06/M11 Q1037=
201902230600 METAR LROD 230600Z 01011KT CAVOK M05/M11 Q1038=
201902230630 METAR LROD 230630Z 01009KT CAVOK M05/M11 Q1038=
201902230700 METAR LROD 230700Z 02011KT CAVOK M04/M11 Q1038=
201902230730 METAR LROD 230730Z 03009KT 010V070 CAVOK M03/M11 Q1038=
201902230800 METAR LROD 230800Z 03010KT 360V060 CAVOK M03/M12 Q1039=
201902230830 METAR LROD 230830Z 02011KT CAVOK M02/M11 Q1039=
201902230900 METAR LROD 230900Z 03011KT 010V080 CAVOK M01/M12 Q1039=
201902230930 METAR LROD 230930Z 04011KT 360V070 CAVOK M01/M11 Q1039=
201902231000 METAR LROD 231000Z 02011KT 350V060 CAVOK M01/M12 Q1039=
201902231030 METAR LROD 231030Z 03012KT 360V070 CAVOK M00/M12 Q1039=
201902231100 METAR LROD 231100Z 02013KT CAVOK 00/M10 Q1039=
201902231130 METAR LROD 231130Z 01013KT CAVOK 00/M11 Q1039=
201902231200 METAR LROD 231200Z 02013KT CAVOK 01/M11 Q1039=
201902231230 METAR LROD 231230Z 03012KT 350V060 CAVOK 01/M12 Q1038=
201902231300 METAR LROD 231300Z 04011KT 360V090 CAVOK 01/M12 Q1038=
201902231330 METAR LROD 231330Z 04011KT 010V070 CAVOK 01/M11 Q1038=
201902231400 METAR LROD 231400Z 02012KT 010V070 CAVOK 01/M11 Q1038=
201902231430 METAR LROD 231430Z 03010KT 010V070 CAVOK 01/M11 Q1038=
201902231500 METAR LROD 231500Z 04011KT CAVOK 01/M11 Q1038=
201902231530 METAR LROD 231530Z 05010KT CAVOK 00/M12 Q1038=
201902231600 METAR LROD 231600Z 04006KT 020V080 CAVOK M00/M11 Q1038=
201902231630 METAR LROD 231630Z 04005KT CAVOK M01/M11 Q1038=
201902231700 METAR LROD 231700Z 05005KT CAVOK M01/M10 Q1038=
201902231730 METAR LROD 231730Z 06005KT 030V090 CAVOK M01/M10 Q1038=
201902231800 METAR LROD 231800Z 04004KT CAVOK M02/M11 Q1039=
201902231830 METAR LROD 231830Z 05005KT CAVOK M02/M11 Q1039=
201902231900 METAR LROD 231900Z 04005KT CAVOK M02/M11 Q1039=
201902231930 METAR LROD 231930Z AUTO 04002KT 010V080 9999 NCD M03/M10
                        Q1039=
201902232000 METAR LROD 232000Z AUTO 04004KT 9999 NCD M03/M10 Q1039=
201902232030 METAR LROD 232030Z AUTO 06004KT 010V090 9999 NCD M03/M10
                        Q1039=
201902232100 METAR LROD 232100Z AUTO 04004KT 360V100 9999 NCD M03/M10
                        Q1039=
201902232130 METAR LROD 232130Z AUTO 04004KT 9999 BKN240/// M04/M10 Q1039=
201902232200 METAR LROD 232200Z AUTO 05003KT 020V080 9999 BKN220/// M04/M09
                        Q1039=
201902232230 METAR LROD 232230Z AUTO 05005KT 9999 BKN220/// M04/M09 Q1039=
201902232300 METAR LROD 232300Z AUTO 03004KT 9999 SCT220/// M05/M09 Q1040=
201902232330 METAR LROD 232330Z AUTO 03003KT 9999 NCD M05/M09 Q1039=
201902240000 METAR LROD 240000Z AUTO 06003KT 040V100 9999 NCD M05/M09
                        Q1039=
201902240030 METAR LROD 240030Z AUTO 03002KT 9999 NCD M05/M09 Q1039=
201902240100 METAR LROD 240100Z AUTO 07004KT 9999 SCT130/// M06/M09 Q1039=
201902240130 METAR LROD 240130Z AUTO 19001KT 9999 OVC120/// M06/M08 Q1038=
201902240200 METAR LROD 240200Z AUTO 00000KT 9999 BKN120/// M06/M08 Q1039=
201902240230 METAR LROD 240230Z AUTO 06002KT 9999 FEW120/// M07/M09 Q1039=
201902240300 METAR LROD 240300Z AUTO 03001KT 9999 NCD M06/M08 Q1038=
201902240330 METAR LROD 240330Z AUTO 05002KT 9999 BKN180/// M07/M09 Q1038=
201902240400 METAR LROD 240400Z AUTO VRB01KT 9999 SCT180/// BKN240///
                        M07/M09 Q1038=
201902240430 METAR LROD 240430Z AUTO 13002KT 9999 BKN120/// M06/M08 Q1038=
201902240500 METAR COR LROD 240500Z 05002KT 030V100 CAVOK M06/M08 Q1038=
201902240530 METAR LROD 240530Z 12003KT CAVOK M06/M08 Q1038=
201902240600 METAR LROD 240600Z 09003KT CAVOK M06/M08 Q1038=
201902240630 METAR LROD 240630Z 07001KT CAVOK M05/M07 Q1038=
201902240700 METAR LROD 240700Z 03002KT 350V070 CAVOK M04/M07 Q1038=
201902240730 METAR LROD 240730Z 06003KT 360V090 CAVOK M04/M07 Q1039=
201902240800 METAR LROD 240800Z 00000KT CAVOK M03/M07 Q1039=
201902240830 METAR COR LROD 240830Z 21003KT 170V250 CAVOK M02/M07 Q1038=
201902240900 METAR LROD 240900Z 23003KT 200V270 CAVOK M02/M07 Q1038=
201902240930 METAR LROD 240930Z 25004KT 220V280 CAVOK M01/M07 Q1038=
201902241000 METAR LROD 241000Z 30004KT 260V360 9999 SCT050 OVC065 M01/M08
                        Q1039=
201902241030 METAR LROD 241030Z 27003KT 210V340 CAVOK M00/M07 Q1039=
201902241100 METAR LROD 241100Z 21003KT 170V290 CAVOK 00/M09 Q1039=
201902241130 METAR LROD 241130Z 25004KT 200V300 CAVOK 00/M10 Q1038=
201902241200 METAR LROD 241200Z 21003KT 140V270 CAVOK 01/M11 Q1038=
201902241230 METAR LROD 241230Z VRB02KT CAVOK 01/M10 Q1038=
201902241300 METAR LROD 241300Z 29004KT 230V350 CAVOK 01/M10 Q1037=
201902241330 METAR LROD 241330Z 32003KT 280V030 CAVOK 01/M11 Q1037=
201902241400 METAR LROD 241400Z 34005KT 300V360 CAVOK 01/M11 Q1037=
201902241430 METAR LROD 241430Z 32007KT 300V360 CAVOK 01/M09 Q1037=
201902241500 METAR LROD 241500Z 35006KT CAVOK 01/M08 Q1037=
201902241530 METAR LROD 241530Z 35007KT CAVOK 00/M08 Q1036=
201902241600 METAR LROD 241600Z 01007KT CAVOK 00/M09 Q1036=
201902241630 METAR COR LROD 241630Z 02006KT CAVOK M00/M09 Q1036=
201902241700 METAR LROD 241700Z 04004KT CAVOK M00/M09 Q1036=
201902241730 METAR LROD 241730Z 05004KT 9999 OVC047 M00/M08 Q1036=
201902241800 METAR LROD 241800Z 05004KT 020V080 9999 BKN046 M00/M08 Q1036=
201902241830 METAR LROD 241830Z 05003KT 9999 OVC045 M00/M09 Q1036=
201902241900 METAR LROD 241900Z AUTO 05003KT 9999 BKN047/// M00/M09 Q1036=
201902241930 METAR LROD 241930Z AUTO 10002KT 060V160 9999 OVC046/// M00/M08
                        Q1036=
201902242000 METAR LROD 242000Z AUTO 00000KT 9999 BKN045/// M00/M07 Q1036=
201902242030 METAR LROD 242030Z AUTO 00000KT 9999 OVC045/// M00/M08 Q1037=
201902242100 METAR LROD 242100Z AUTO 05003KT 9999 BKN045/// M00/M10 Q1036=
201902242130 METAR LROD 242130Z AUTO 05003KT 9999 OVC045/// 00/M11 Q1036=
201902242200 METAR LROD 242200Z AUTO 03004KT 9999 BKN046/// 00/M11 Q1036=
201902242230 METAR LROD 242230Z AUTO 05004KT 9999 OVC046/// 00/M11 Q1036=
201902242300 METAR LROD 242300Z AUTO 02004KT 9999 BKN045/// 00/M10 Q1036=
201902242330 METAR LROD 242330Z AUTO 05003KT 020V080 9999 OVC044/// 00/M11
                        Q1036=
201902250000 METAR LROD 250000Z AUTO 06003KT 020V100 9999 BKN043/// 00/M10
                        Q1036=
201902250030 METAR LROD 250030Z AUTO 04002KT 9999 OVC042/// 00/M10 Q1036=
201902250100 METAR LROD 250100Z AUTO 03004KT 9999 OVC042/// 00/M10 Q1036=
201902250130 METAR LROD 250130Z AUTO 02004KT 9999 OVC041/// 00/M09 Q1036=
201902250200 METAR LROD 250200Z AUTO 04005KT 9999 OVC040/// 00/M10 Q1035=
201902250230 METAR LROD 250230Z AUTO 08004KT 9999 OVC040/// 00/M11 Q1035=
201902250300 METAR LROD 250300Z AUTO 04003KT 010V070 9999 OVC039/// 00/M11
                        Q1035=
201902250330 METAR LROD 250330Z AUTO 06003KT 030V100 9999 OVC039/// 00/M10
                        Q1035=
201902250400 METAR LROD 250400Z AUTO 35003KT 9999 OVC037/// 00/M07 Q1035=
201902250430 METAR LROD 250430Z AUTO 35003KT 9999 OVC037/// M00/M05 Q1035=
201902250500 METAR LROD 250500Z 36004KT 9999 OVC037 M00/M05 Q1035=
201902250530 METAR LROD 250530Z 00000KT 9999 BKN037 M00/M06 Q1035=
201902250600 METAR LROD 250600Z 29004KT 9999 BKN042 M01/M04 Q1036=
201902250630 METAR LROD 250630Z VRB01KT 9999 FEW044 00/M04 Q1036=
201902250700 METAR LROD 250700Z 22002KT 9999 FEW043 01/M06 Q1036=
201902250730 METAR LROD 250730Z 20005KT 160V230 9999 FEW042 01/M07 Q1036=
201902250800 METAR LROD 250800Z 20006KT CAVOK 01/M07 Q1036=
201902250830 METAR LROD 250830Z 22006KT CAVOK 02/M06 Q1036=
201902250900 METAR LROD 250900Z 24006KT 200V260 CAVOK 02/M06 Q1036=
201902250930 METAR LROD 250930Z 23008KT CAVOK 03/M05 Q1037=
201902251000 METAR LROD 251000Z 23006KT 160V250 CAVOK 03/M06 Q1036=
201902251030 METAR LROD 251030Z 21007KT 170V230 CAVOK 03/M05 Q1036=
201902251100 METAR LROD 251100Z 23006KT CAVOK 03/M06 Q1036=
201902251130 METAR LROD 251130Z 22006KT CAVOK 04/M06 Q1036=
201902251200 METAR LROD 251200Z 24005KT CAVOK 05/M06 Q1035=
201902251230 METAR LROD 251230Z 26005KT 200V300 CAVOK 05/M06 Q1035=
201902251300 METAR LROD 251300Z 23007KT 200V260 CAVOK 06/M06 Q1034=
201902251330 METAR LROD 251330Z 25006KT 210V290 CAVOK 06/M06 Q1034=
201902251400 METAR LROD 251400Z 26006KT 230V290 CAVOK 06/M06 Q1034=
201902251430 METAR LROD 251430Z 26005KT 230V300 CAVOK 06/M07 Q1034=
201902251500 METAR LROD 251500Z 26005KT CAVOK 06/M06 Q1033=
201902251530 METAR LROD 251530Z 26004KT CAVOK 05/M05 Q1033=
201902251600 METAR LROD 251600Z 23004KT CAVOK 04/M04 Q1033=
201902251630 METAR LROD 251630Z 22006KT CAVOK 02/M04 Q1033=
201902251700 METAR LROD 251700Z 20006KT CAVOK 00/M04 Q1032=
201902251730 METAR LROD 251730Z 18006KT CAVOK M00/M04 Q1032=
201902251800 METAR LROD 251800Z 19007KT CAVOK 01/M03 Q1032=
201902251830 METAR LROD 251830Z 19007KT CAVOK 01/M03 Q1032=
201902251900 METAR LROD 251900Z 17006KT CAVOK 00/M04 Q1032=
201902251930 METAR LROD 251930Z 16006KT CAVOK 00/M04 Q1032=
201902252000 METAR LROD 252000Z AUTO 15005KT 9999 FEW130/// BKN150///
                        01/M03 Q1032=
201902252030 METAR LROD 252030Z AUTO 12005KT 9999 BKN140/// 01/M03 Q1031=
201902252100 METAR LROD 252100Z AUTO 12005KT 9999 BKN140/// M00/M04 Q1031=
201902252130 METAR LROD 252130Z AUTO 11005KT 8000 FEW130/// BKN150///
                        M01/M04 Q1031=
201902252200 METAR LROD 252200Z AUTO 12005KT 8000 BKN130/// M01/M04 Q1031=
201902252230 METAR LROD 252230Z AUTO 14005KT 9999 NCD M01/M04 Q1030=
201902252300 METAR LROD 252300Z AUTO 13004KT 9999 NCD M01/M04 Q1030=
201902252330 METAR LROD 252330Z AUTO 12005KT 9999 NCD M01/M04 Q1030=
201902260000 METAR LROD 260000Z AUTO 11005KT 9000 NCD M02/M04 Q1030=
201902260030 METAR LROD 260030Z AUTO 14005KT 9999 SCT120/// M02/M04 Q1029=
201902260100 METAR LROD 260100Z AUTO 15005KT 9999 FEW120/// M01/M04 Q1029=
201902260130 METAR LROD 260130Z AUTO 12004KT 9999 NCD M01/M05 Q1029=
201902260200 METAR LROD 260200Z AUTO 13005KT 9999 FEW240/// M01/M05 Q1028=
201902260230 METAR LROD 260230Z AUTO 13004KT 9999 FEW110/// M02/M05 Q1028=
201902260300 METAR LROD 260300Z AUTO 14006KT 9999 BKN110/// BKN220///
                        M01/M04 Q1027=
201902260330 METAR LROD 260330Z AUTO 13004KT 9999 FEW110/// BKN220///
                        M01/M05 Q1027=
201902260400 METAR LROD 260400Z AUTO 12004KT 9999 SCT230/// M01/M05 Q1027=
201902260430 METAR LROD 260430Z AUTO 13004KT 9999 NCD M01/M05 Q1027=
201902260500 METAR LROD 260500Z 13006KT CAVOK M02/M05 Q1026=
201902260530 METAR LROD 260530Z 13004KT CAVOK M02/M05 Q1026=
201902260600 METAR LROD 260600Z 13004KT CAVOK M01/M04 Q1026=
201902260630 METAR LROD 260630Z 16005KT CAVOK 00/M03 Q1025=
201902260700 METAR LROD 260700Z 16006KT CAVOK 02/M04 Q1025=
201902260730 METAR LROD 260730Z 17005KT 140V200 CAVOK 03/M04 Q1025=
201902260800 METAR LROD 260800Z 19009KT CAVOK 03/M05 Q1024=
201902260830 METAR LROD 260830Z 19009KT CAVOK 03/M05 Q1025=
201902260900 METAR LROD 260900Z 20012KT CAVOK 04/M05 Q1024=
201902260930 METAR LROD 260930Z 20011KT CAVOK 04/M04 Q1024=
201902261000 METAR LROD 261000Z 20011KT CAVOK 05/M03 Q1024=
201902261030 METAR LROD 261030Z 21010KT 180V240 CAVOK 06/M03 Q1023=
201902261100 METAR LROD 261100Z 23012KT CAVOK 06/M03 Q1023=
201902261130 METAR LROD 261130Z 22010KT 190V250 CAVOK 07/M02 Q1022=
201902261200 METAR LROD 261200Z 22009KT CAVOK 07/M02 Q1022=
201902261230 METAR LROD 261230Z 23008KT CAVOK 08/M02 Q1021=
201902261300 METAR LROD 261300Z 25004KT 210V280 CAVOK 08/M02 Q1021=
201902261330 METAR LROD 261330Z 25004KT 210V290 CAVOK 08/M01 Q1021=
201902261400 METAR LROD 261400Z 22003KT 170V270 CAVOK 08/M02 Q1021=
201902261430 METAR LROD 261430Z 18002KT CAVOK 08/M01 Q1020=
201902261500 METAR LROD 261500Z 22002KT CAVOK 08/M02 Q1020=
201902261530 METAR LROD 261530Z 00000KT CAVOK 08/M02 Q1020=
201902261600 METAR LROD 261600Z 14002KT CAVOK 07/M02 Q1020=
201902261630 METAR LROD 261630Z 17002KT CAVOK 04/M02 Q1021=
201902261700 METAR LROD 261700Z 24003KT CAVOK 03/M02 Q1021=
201902261730 METAR LROD 261730Z 26004KT CAVOK 02/M02 Q1021=
201902261800 METAR LROD 261800Z 27005KT CAVOK 03/M02 Q1021=
201902261830 METAR LROD 261830Z 21002KT CAVOK 02/M02 Q1021=
201902261900 METAR LROD 261900Z VRB01KT CAVOK 02/M02 Q1021=
201902261930 METAR LROD 261930Z AUTO 34006KT 8000 FEW055/// 02/M03 Q1021=
201902262000 METAR LROD 262000Z AUTO 35008KT 300V020 9999 FEW065/// 04/M02
                        Q1021=
201902262030 METAR LROD 262030Z AUTO 36008KT 9999 NCD 05/M01 Q1021=
201902262100 METAR LROD 262100Z AUTO 36009KT 9999 NCD 05/M01 Q1021=
201902262130 METAR LROD 262130Z AUTO 36011KT 9999 BKN070/// 07/M01 Q1021=
201902262200 METAR LROD 262200Z AUTO 36009KT 330V030 9999 BKN070/// 06/M01
                        Q1021=
201902262230 METAR LROD 262230Z AUTO 36009KT 9999 BKN070/// 06/M01 Q1021=
201902262300 METAR LROD 262300Z AUTO 35010KT 9999 FEW065/// 06/M00 Q1021=
201902262330 METAR LROD 262330Z AUTO 36010KT 9999 SCT070/// 05/M00 Q1021=
201902270000 METAR LROD 270000Z AUTO 36010KT 9999 SCT070/// 05/M00 Q1021=
201902270030 METAR LROD 270030Z AUTO 36010KT 9999 FEW070/// 05/M00 Q1021=
201902270100 METAR LROD 270100Z AUTO 36010KT 9999 BKN065/// 06/00 Q1021=
201902270130 METAR LROD 270130Z AUTO 35008KT 9999 BKN065/// 05/00 Q1021=
201902270200 METAR LROD 270200Z AUTO 36010KT 9999 BKN055/// BKN070///
                        05/00 Q1021=
201902270230 METAR LROD 270230Z AUTO 36010KT 9999 FEW065/// 05/M00 Q1021=
201902270300 METAR LROD 270300Z AUTO 36011KT 9999 SCT065/// 05/00 Q1022=
201902270330 METAR LROD 270330Z AUTO 36013KT 9999 OVC065/// 06/00 Q1022=
201902270400 METAR LROD 270400Z AUTO 01015KT 9999 BKN065/// 05/M00 Q1022=
201902270430 METAR LROD 270430Z AUTO 02011KT 9999 SCT065/// 05/00 Q1022=
201902270500 METAR LROD 270500Z 02006KT CAVOK 04/M00 Q1022=
201902270530 METAR LROD 270530Z 35009KT CAVOK 05/00 Q1023=
201902270600 METAR LROD 270600Z 35010KT CAVOK 05/00 Q1023=
201902270630 METAR LROD 270630Z 36010KT CAVOK 05/01 Q1023=
201902270700 METAR LROD 270700Z 36012KT CAVOK 06/00 Q1024=
201902270730 METAR LROD 270730Z 01011KT CAVOK 06/01 Q1024=
201902270800 METAR LROD 270800Z 01009KT CAVOK 07/01 Q1024=
201902270830 METAR LROD 270830Z 01011KT 340V050 CAVOK 08/00 Q1024=
201902270900 METAR LROD 270900Z 01010KT 340V040 CAVOK 09/00 Q1024=
201902270930 METAR LROD 270930Z 01012KT CAVOK 09/00 Q1024=
201902271000 METAR LROD 271000Z 01011KT 340V050 CAVOK 10/00 Q1024=
201902271030 METAR LROD 271030Z 03010KT 350V070 CAVOK 10/M00 Q1023=
201902271100 METAR LROD 271100Z 01011KT 340V040 CAVOK 10/M02 Q1023=
201902271130 METAR LROD 271130Z 36012KT CAVOK 09/M02 Q1023=
201902271200 METAR LROD 271200Z 36009KT 320V030 CAVOK 11/M02 Q1023=
201902271230 METAR LROD 271230Z 36008KT 330V040 CAVOK 10/M02 Q1023=
201902271300 METAR LROD 271300Z 35006KT 300V100 CAVOK 10/M02 Q1023=
201902271330 METAR COR LROD 271330Z 35011KT CAVOK 11/M02 Q1023=
201902271400 METAR LROD 271400Z 36014KT CAVOK 10/M01 Q1022=
201902271430 METAR LROD 271430Z AUTO 01013KT 340V040 9999 NCD 10/M01 Q1022=
201902271500 METAR COR LROD 271500Z 01011KT CAVOK 09/M01 Q1022=
201902271530 METAR LROD 271530Z 01011KT CAVOK 09/M01 Q1022=
201902271600 METAR COR LROD 271600Z 03007KT CAVOK 08/M01 Q1022=
201902271630 METAR LROD 271630Z 04006KT CAVOK 07/M01 Q1022=
201902271700 METAR COR LROD 271700Z 02004KT CAVOK 05/M02 Q1022=
201902271730 METAR LROD 271730Z 21003KT CAVOK 02/M02 Q1022=
201902271800 METAR LROD 271800Z 22003KT CAVOK 01/M02 Q1022=
201902271830 METAR LROD 271830Z 18003KT 140V200 CAVOK 01/M02 Q1021=
201902271900 METAR LROD 271900Z 16002KT CAVOK M00/M02 Q1021=
201902271930 METAR LROD 271930Z AUTO 18003KT 140V200 9999 NCD M00/M02
                        Q1021=
201902272000 METAR LROD 272000Z AUTO 14003KT 9999 NCD M00/M02 Q1021=
201902272030 METAR LROD 272030Z AUTO 09005KT 9000 NCD M00/M02 Q1021=
201902272100 METAR LROD 272100Z AUTO 10006KT 6000 NCD 00/M02 Q1020=
201902272130 METAR LROD 272130Z AUTO 13005KT 8000 FEW120/// M00/M02 Q1020=
201902272200 METAR LROD 272200Z AUTO 10005KT 8000 FEW120/// M01/M03 Q1020=
201902272230 METAR LROD 272230Z AUTO 10006KT 8000 FEW100/// M01/M03 Q1020=
201902272300 METAR LROD 272300Z AUTO 12006KT 7000 FEW120/// M01/M02 Q1019=
201902272330 METAR LROD 272330Z AUTO 12006KT 8000 SCT120/// M01/M02 Q1019=
201902280000 METAR LROD 280000Z AUTO 12006KT 9999 BKN130/// M01/M02 Q1019=
201902280030 METAR LROD 280030Z AUTO 11006KT 9999 BKN140/// M00/M02 Q1019=
201902280100 METAR LROD 280100Z AUTO 15005KT 9999 FEW120/// BKN140///
                        01/M01 Q1018=
201902280130 METAR LROD 280130Z AUTO 14005KT 9999 BKN140/// 02/M01 Q1018=
201902280200 METAR LROD 280200Z AUTO 18007KT 9999 FEW120/// BKN140///
                        03/M01 Q1018=
201902280230 METAR LROD 280230Z AUTO 18011KT 9999 FEW140/// 04/M01 Q1017=
201902280300 METAR LROD 280300Z AUTO 17012KT 9999 BKN120/// 03/M01 Q1016=
201902280330 METAR LROD 280330Z AUTO 19011KT 9999 NCD 03/M01 Q1016=
201902280400 METAR LROD 280400Z AUTO 19011KT 9999 NCD 02/M01 Q1016=
201902280430 METAR LROD 280430Z AUTO 19012KT 9999 NCD 03/M01 Q1016=
201902280500 METAR LROD 280500Z 19013KT CAVOK 03/M01 Q1016=
201902280530 METAR LROD 280530Z 19014KT CAVOK 02/M01 Q1015=
201902280600 METAR LROD 280600Z 19014KT CAVOK 03/M01 Q1015=
201902280630 METAR LROD 280630Z 19016KT CAVOK 04/M01 Q1015=
201902280700 METAR LROD 280700Z 19017KT CAVOK 05/M01 Q1015=
201902280730 METAR LROD 280730Z 19017KT CAVOK 06/M00 Q1014=
201902280800 METAR LROD 280800Z 19020KT CAVOK 07/M00 Q1014=
201902280830 METAR LROD 280830Z 19019KT CAVOK 08/M00 Q1013=
201902280900 METAR LROD 280900Z 19018KT CAVOK 08/00 Q1013=
201902280930 METAR LROD 280930Z 20018KT CAVOK 09/01 Q1013=
201902281000 METAR LROD 281000Z 20020KT CAVOK 10/01 Q1012=
201902281030 METAR LROD 281030Z 20022KT CAVOK 11/01 Q1011=
201902281100 METAR LROD 281100Z 20021KT CAVOK 12/01 Q1010=
201902281130 METAR LROD 281130Z 21021KT CAVOK 13/01 Q1009=
201902281200 METAR LROD 281200Z 21022KT CAVOK 14/01 Q1009=
201902281230 METAR LROD 281230Z 21021KT CAVOK 15/01 Q1008=
201902281300 METAR LROD 281300Z 21018KT CAVOK 17/01 Q1008=
201902281330 METAR LROD 281330Z 24020KT CAVOK 18/00 Q1007=
201902281400 METAR LROD 281400Z 24020KT CAVOK 18/M01 Q1007=
201902281430 METAR LROD 281430Z 25018KT CAVOK 18/M01 Q1006=
201902281500 METAR LROD 281500Z 24015KT CAVOK 17/00 Q1005=
201902281530 METAR LROD 281530Z 25015KT CAVOK 17/M01 Q1005=
201902281600 METAR LROD 281600Z 26012KT CAVOK 16/M01 Q1005=
201902281630 METAR LROD 281630Z 26010KT CAVOK 15/M02 Q1005=
201902281700 METAR LROD 281700Z 27007KT CAVOK 12/M00 Q1005=
201902281730 METAR LROD 281730Z 24007KT CAVOK 13/M01 Q1005=
201902281800 METAR LROD 281800Z AUTO 22005KT 9999 FEW200/// 10/M00 Q1006=
201902281830 METAR LROD 281830Z 22008KT CAVOK 10/M00 Q1006=
201902281900 METAR LROD 281900Z 25008KT CAVOK 11/M01 Q1006=
201902281930 METAR LROD 281930Z AUTO 26005KT 9999 NCD 10/M01 Q1006=
201902282000 METAR LROD 282000Z AUTO 26006KT 9999 SCT230/// 09/M01 Q1006=
201902282030 METAR LROD 282030Z AUTO 24007KT 9999 FEW230/// 09/M01 Q1006=
201902282100 METAR LROD 282100Z AUTO 24003KT 9999 FEW230/// 07/M01 Q1006=
201902282130 METAR LROD 282130Z AUTO 23002KT 170V260 9999 BKN210/// 07/M01
                        Q1006=
201902282200 METAR LROD 282200Z AUTO 27006KT 9999 BKN210/// 08/M01 Q1007=
201902282230 METAR LROD 282230Z AUTO 21005KT 9999 BKN210/// 06/M00 Q1007=
201902282300 METAR LROD 282300Z AUTO 24003KT 9999 BKN200/// 06/M00 Q1007=
201902282330 METAR LROD 282330Z AUTO 26003KT 9999 SCT180/// 05/M01 Q1007=
