201903010000 METAR LROD 010000Z AUTO 23003KT 9999 BKN180/// 04/M01 Q1007=
201903010030 METAR LROD 010030Z AUTO 18003KT 9999 BKN170/// 04/M01 Q1007=
201903010100 METAR LROD 010100Z AUTO 21003KT 9999 FEW190/// 03/M01 Q1007=
201903010130 METAR LROD 010130Z AUTO 19002KT 9999 BKN240/// 03/M01 Q1007=
201903010200 METAR LROD 010200Z AUTO 20003KT 150V210 9999 BKN240/// 03/M01
                        Q1007=
201903010230 METAR LROD 010230Z AUTO 12002KT 9999 BKN220/// 03/M01 Q1007=
201903010300 METAR LROD 010300Z AUTO 15003KT 100V190 9999 BKN190/// 03/M01
                        Q1007=
201903010330 METAR LROD 010330Z AUTO 15002KT 110V180 9999 OVC170/// 03/M00
                        Q1007=
201903010400 METAR LROD 010400Z AUTO 13002KT 080V170 9999 OVC170/// 03/M00
                        Q1007=
201903010430 METAR LROD 010430Z AUTO 10005KT 9999 OVC170/// 03/00 Q1007=
201903010500 METAR LROD 010500Z 14004KT CAVOK 03/M00 Q1008=
201903010530 METAR COR LROD 010530Z 11003KT CAVOK 02/M00 Q1008=
201903010600 METAR LROD 010600Z 12004KT CAVOK 03/00 Q1008=
201903010630 METAR LROD 010630Z 11003KT CAVOK 04/01 Q1008=
201903010700 METAR LROD 010700Z 10003KT CAVOK 05/01 Q1009=
201903010730 METAR LROD 010730Z 11002KT 080V150 CAVOK 06/01 Q1009=
201903010800 METAR LROD 010800Z VRB01KT CAVOK 08/02 Q1009=
201903010830 METAR LROD 010830Z 07002KT CAVOK 09/02 Q1009=
201903010900 METAR LROD 010900Z 07003KT CAVOK 10/02 Q1009=
201903010930 METAR LROD 010930Z 06004KT 020V120 CAVOK 10/02 Q1009=
201903011000 METAR LROD 011000Z 06004KT 020V110 CAVOK 11/01 Q1009=
201903011030 METAR LROD 011030Z VRB03KT CAVOK 12/01 Q1008=
201903011100 METAR LROD 011100Z VRB04KT CAVOK 12/01 Q1008=
201903011130 METAR LROD 011130Z VRB04KT CAVOK 12/01 Q1008=
201903011200 METAR LROD 011200Z 27007KT 240V310 CAVOK 13/01 Q1008=
201903011230 METAR LROD 011230Z 23006KT CAVOK 12/01 Q1007=
201903011300 METAR LROD 011300Z 23007KT CAVOK 12/02 Q1007=
201903011330 METAR LROD 011330Z 29009KT 260V320 CAVOK 12/02 Q1007=
201903011400 METAR LROD 011400Z 27007KT 250V310 CAVOK 12/03 Q1007=
201903011430 METAR LROD 011430Z 27005KT CAVOK 12/03 Q1007=
201903011500 METAR LROD 011500Z 29003KT CAVOK 12/03 Q1007=
201903011530 METAR LROD 011530Z 26003KT CAVOK 12/03 Q1007=
201903011600 METAR LROD 011600Z 27006KT CAVOK 11/04 Q1007=
201903011630 METAR LROD 011630Z 26007KT CAVOK 10/04 Q1007=
201903011700 METAR LROD 011700Z 25007KT CAVOK 10/04 Q1007=
201903011730 METAR LROD 011730Z 26008KT 8000 -RA FEW042 BKN048 10/04 Q1007=
201903011800 METAR LROD 011800Z 27006KT CAVOK 09/04 Q1007=
201903011830 METAR LROD 011830Z 25005KT CAVOK 09/04 Q1007=
201903011900 METAR LROD 011900Z 23006KT CAVOK 08/04 Q1007=
201903011930 METAR LROD 011930Z AUTO 24007KT 9999 BKN080/// BKN130///
                        08/04 Q1007=
201903012000 METAR LROD 012000Z AUTO 23006KT 9999 FEW110/// BKN130///
                        07/04 Q1007=
201903012030 METAR LROD 012030Z AUTO 24007KT 9999 FEW046/// BKN130///
                        07/04 Q1007=
201903012100 METAR LROD 012100Z AUTO 25006KT 9999 FEW044/// SCT060///
                        BKN150/// 07/04 Q1007=
201903012130 METAR LROD 012130Z AUTO 27007KT 9999 SCT040/// BKN050///
                        BKN110/// 07/04 Q1007=
201903012200 METAR LROD 012200Z AUTO 33004KT 9999 BKN042/// BKN095///
                        07/04 Q1008=
201903012230 METAR LROD 012230Z AUTO 29003KT 9999 BKN040/// BKN046///
                        07/04 Q1008=
201903012300 METAR LROD 012300Z AUTO 34006KT 9999 -RA FEW033/// BKN038///
                        07/04 Q1008=
201903012330 METAR LROD 012330Z AUTO 04006KT 9000 -SHRA BKN036/// 07/03
                        Q1009=
201903020000 METAR LROD 020000Z AUTO 03007KT 360V060 8000 -SHRA BKN031///
                        BKN036/// 06/03 Q1009=
201903020030 METAR LROD 020030Z AUTO 02012KT 9000 -RA BKN032/// 06/02
                        Q1010=
201903020100 METAR LROD 020100Z AUTO 04007KT 010V070 8000 -RA SCT034///
                        BKN039/// 05/02 Q1010=
201903020130 METAR LROD 020130Z AUTO 05004KT 9999 FEW038/// OVC048///
                        05/02 Q1010 RERA=
201903020200 METAR LROD 020200Z AUTO 04005KT 010V070 9999 BKN050/// 05/02
                        Q1010 REDZ=
201903020230 METAR LROD 020230Z AUTO 02007KT 9999 BKN055/// 04/01 Q1010=
201903020300 METAR LROD 020300Z AUTO 02010KT 9999 BKN055/// 05/M01 Q1011=
201903020330 METAR LROD 020330Z AUTO 03010KT 9999 FEW055/// OVC070///
                        04/M02 Q1011=
201903020400 METAR LROD 020400Z AUTO 02012KT 9999 BKN055/// 04/M03 Q1012=
201903020430 METAR LROD 020430Z AUTO 02010KT 9999 SCT075/// 02/M03 Q1012=
201903020500 METAR COR LROD 020500Z 02010KT CAVOK 02/M03 Q1012=
201903020530 METAR LROD 020530Z 02008KT CAVOK 01/M03 Q1012=
201903020600 METAR LROD 020600Z 02010KT CAVOK 01/M03 Q1013=
201903020630 METAR LROD 020630Z 03008KT CAVOK 02/M03 Q1013=
201903020700 METAR LROD 020700Z 03010KT CAVOK 02/M04 Q1014=
201903020730 METAR LROD 020730Z 02014KT CAVOK 03/M04 Q1014=
201903020800 METAR LROD 020800Z 02013KT CAVOK 03/M04 Q1014=
201903020830 METAR LROD 020830Z 02012KT CAVOK 04/M04 Q1014=
201903020900 METAR LROD 020900Z 02010KT CAVOK 05/M04 Q1014=
201903020930 METAR COR LROD 020930Z 01008KT 350V060 CAVOK 06/M04 Q1015=
201903021000 METAR LROD 021000Z 01008KT 340V050 CAVOK 06/M04 Q1015=
201903021030 METAR LROD 021030Z 35007KT 320V030 CAVOK 06/M05 Q1015=
201903021100 METAR LROD 021100Z 34006KT CAVOK 06/M07 Q1015=
201903021130 METAR LROD 021130Z 34007KT CAVOK 06/M07 Q1015=
201903021200 METAR LROD 021200Z 02006KT 340V060 CAVOK 07/M07 Q1015=
201903021230 METAR LROD 021230Z 35008KT 320V030 CAVOK 08/M08 Q1015=
201903021300 METAR LROD 021300Z 34010KT CAVOK 07/M08 Q1015=
201903021330 METAR LROD 021330Z 35009KT 320V020 CAVOK 07/M08 Q1015=
201903021400 METAR COR LROD 021400Z 32008KT CAVOK 07/M08 Q1015=
201903021430 METAR LROD 021430Z 31006KT 290V350 CAVOK 08/M07 Q1015=
201903021500 METAR LROD 021500Z 34006KT CAVOK 07/M06 Q1015=
201903021530 METAR LROD 021530Z 30006KT CAVOK 07/M05 Q1015=
201903021600 METAR LROD 021600Z 31005KT CAVOK 06/M05 Q1015=
201903021630 METAR LROD 021630Z 28005KT CAVOK 04/M04 Q1015=
201903021700 METAR COR LROD 021700Z 29003KT CAVOK 03/M04 Q1016=
201903021730 METAR LROD 021730Z 00000KT CAVOK 02/M04 Q1016=
201903021800 METAR LROD 021800Z 15002KT CAVOK 01/M04 Q1016=
201903021830 METAR LROD 021830Z AUTO 12002KT 9999 BKN070/// 01/M04 Q1016=
201903021900 METAR LROD 021900Z AUTO 13005KT 9999 BKN070/// 02/M04 Q1016=
201903021930 METAR LROD 021930Z AUTO 10005KT 7000 BKN070/// 02/M03 Q1016=
201903022000 METAR LROD 022000Z AUTO 09005KT 7000 SCT060/// BKN075///
                        03/M04 Q1016=
201903022030 METAR LROD 022030Z AUTO 12004KT 9999 BKN050/// 02/M04 Q1016=
201903022100 METAR LROD 022100Z AUTO 10005KT 9999 -SHSN BKN050/// 02/M03
                        Q1016=
201903022130 METAR LROD 022130Z AUTO 11004KT 9999 OVC050/// 02/M03 Q1016
                        RERA=
201903022200 METAR LROD 022200Z AUTO 10005KT 9999 OVC050/// 02/M04 Q1016=
201903022230 METAR LROD 022230Z AUTO 10005KT 9999 OVC050/// 02/M04 Q1016=
201903022300 METAR LROD 022300Z AUTO 11004KT 9999 BKN048/// BKN085///
                        02/M04 Q1017=
201903022330 METAR LROD 022330Z AUTO 10004KT 9999 BKN048/// OVC080///
                        02/M04 Q1017=
201903030000 METAR LROD 030000Z AUTO 12005KT 9999 FEW048/// OVC085///
                        02/M04 Q1017=
201903030030 METAR LROD 030030Z AUTO 11004KT 9999 BKN085/// 01/M04 Q1017=
201903030100 METAR LROD 030100Z AUTO 09004KT 9999 FEW085/// 01/M04 Q1017=
201903030130 METAR LROD 030130Z AUTO 11005KT 9999 NCD 00/M04 Q1017=
201903030200 METAR LROD 030200Z AUTO 11006KT 9999 NCD M00/M04 Q1017=
201903030230 METAR LROD 030230Z AUTO 14004KT 9999 NCD M00/M04 Q1017=
201903030300 METAR LROD 030300Z AUTO 12004KT 9999 NCD M01/M04 Q1017=
201903030330 METAR LROD 030330Z AUTO 12006KT 9999 NCD M01/M04 Q1017=
201903030400 METAR LROD 030400Z AUTO 11006KT 9999 NCD M02/M04 Q1017=
201903030430 METAR LROD 030430Z AUTO 12004KT 9999 NCD M02/M04 Q1017=
201903030500 METAR LROD 030500Z 18003KT CAVOK M03/M06 Q1017=
201903030530 METAR LROD 030530Z 15004KT CAVOK M01/M03 Q1017=
201903030600 METAR LROD 030600Z 13003KT CAVOK M01/M03 Q1018=
201903030630 METAR LROD 030630Z 11004KT CAVOK 00/M02 Q1018=
201903030700 METAR LROD 030700Z 20006KT CAVOK 02/M00 Q1018=
201903030730 METAR LROD 030730Z 20009KT CAVOK 02/M00 Q1018=
201903030800 METAR LROD 030800Z 20009KT CAVOK 04/00 Q1018=
201903030830 METAR LROD 030830Z 21007KT 170V240 CAVOK 05/00 Q1018=
201903030900 METAR LROD 030900Z 22007KT 190V250 CAVOK 06/M00 Q1019=
201903030930 METAR LROD 030930Z 24008KT CAVOK 07/M00 Q1019=
201903031000 METAR LROD 031000Z 25007KT 230V290 CAVOK 07/M02 Q1019=
201903031030 METAR LROD 031030Z 24008KT CAVOK 08/M01 Q1019=
201903031100 METAR LROD 031100Z 25010KT CAVOK 09/M03 Q1019=
201903031130 METAR LROD 031130Z 23008KT 200V260 CAVOK 09/M03 Q1018=
201903031200 METAR LROD 031200Z 22009KT CAVOK 09/M02 Q1018=
201903031230 METAR LROD 031230Z 23008KT 9999 SCT043 09/M02 Q1018=
201903031300 METAR LROD 031300Z 23008KT 210V270 9999 SCT042 09/M02 Q1018=
201903031330 METAR LROD 031330Z 21008KT 9999 BKN040 09/M01 Q1018=
201903031400 METAR LROD 031400Z 21009KT 9999 BKN044 09/M00 Q1017=
201903031430 METAR LROD 031430Z 21009KT 9999 BKN040 09/M00 Q1017=
201903031500 METAR LROD 031500Z 20012KT 9999 BKN038 09/M00 Q1017=
201903031530 METAR LROD 031530Z 21011KT 9999 BKN035 09/00 Q1017=
201903031600 METAR LROD 031600Z 21011KT 9999 BKN037 08/01 Q1017=
201903031630 METAR LROD 031630Z 20009KT 9999 BKN033 08/01 Q1017=
201903031700 METAR LROD 031700Z 19009KT 9999 BKN033 08/01 Q1017=
201903031730 METAR LROD 031730Z 19009KT 9999 BKN032 08/01 Q1017=
201903031800 METAR LROD 031800Z 19009KT 9999 BKN033 07/01 Q1016=
201903031830 METAR LROD 031830Z 19010KT 9999 BKN037 07/01 Q1016=
201903031900 METAR LROD 031900Z 19011KT 9999 SCT041 07/02 Q1016=
201903031930 METAR LROD 031930Z AUTO 19011KT 9999 OVC065/// 07/02 Q1016=
201903032000 METAR LROD 032000Z AUTO 19010KT 9999 OVC048/// 07/02 Q1016=
201903032030 METAR LROD 032030Z AUTO 18010KT 9999 SCT046/// BKN060///
                        07/01 Q1015=
201903032100 METAR LROD 032100Z AUTO 17011KT 9999 OVC060/// 07/01 Q1015=
201903032130 METAR LROD 032130Z AUTO 17009KT 9999 BKN055/// 07/01 Q1015=
201903032200 METAR LROD 032200Z AUTO 17008KT 9999 OVC060/// 07/01 Q1015=
201903032230 METAR LROD 032230Z AUTO 16007KT 9999 FEW070/// 06/01 Q1014=
201903032300 METAR LROD 032300Z AUTO 17007KT 9999 BKN055/// 07/01 Q1014=
201903032330 METAR LROD 032330Z AUTO 17009KT 9999 BKN065/// 07/02 Q1014=
201903040000 METAR LROD 040000Z AUTO 17011KT 9999 FEW065/// 07/02 Q1014=
201903040030 METAR LROD 040030Z AUTO 17010KT 9999 NCD 07/02 Q1013=
201903040100 METAR LROD 040100Z AUTO 18010KT 9999 NCD 07/02 Q1013=
201903040130 METAR LROD 040130Z AUTO 17011KT 9999 NCD 07/02 Q1013=
201903040200 METAR LROD 040200Z AUTO 18012KT 9999 FEW220/// 07/02 Q1012=
201903040230 METAR LROD 040230Z AUTO 17013KT 9999 SCT150/// 07/02 Q1012=
201903040300 METAR LROD 040300Z AUTO 17013KT 9999 BKN120/// 08/02 Q1012=
201903040330 METAR LROD 040330Z AUTO 17012KT 9999 SCT120/// 08/02 Q1011=
201903040400 METAR LROD 040400Z AUTO 17014KT 9999 FEW130/// BKN220///
                        08/02 Q1011=
201903040430 METAR LROD 040430Z AUTO 17014KT 9999 BKN160/// 08/01 Q1011=
201903040500 METAR LROD 040500Z 18015KT CAVOK 08/01 Q1010=
201903040530 METAR LROD 040530Z 18015KT CAVOK 09/01 Q1010=
201903040600 METAR LROD 040600Z 18013KT CAVOK 09/01 Q1011=
201903040630 METAR LROD 040630Z 19016KT CAVOK 09/01 Q1011=
201903040700 METAR LROD 040700Z 18017KT CAVOK 10/01 Q1011=
201903040730 METAR LROD 040730Z 19017KT CAVOK 10/01 Q1011=
201903040800 METAR LROD 040800Z 19018KT CAVOK 10/01 Q1011=
201903040830 METAR LROD 040830Z 20018KT CAVOK 12/01 Q1011=
201903040900 METAR LROD 040900Z 19020KT CAVOK 13/01 Q1010=
201903040930 METAR LROD 040930Z 20019KT CAVOK 13/02 Q1010=
201903041000 METAR LROD 041000Z 20018KT CAVOK 14/00 Q1010=
201903041030 METAR LROD 041030Z 20020KT CAVOK 15/00 Q1009=
201903041100 METAR LROD 041100Z 21020KT CAVOK 15/00 Q1009=
201903041130 METAR LROD 041130Z 21021KT CAVOK 15/00 Q1008=
201903041200 METAR COR LROD 041200Z 19021KT CAVOK 16/00 Q1008=
201903041230 METAR LROD 041230Z 20021KT CAVOK 17/00 Q1007=
201903041300 METAR LROD 041300Z 20019KT CAVOK 17/00 Q1006=
201903041330 METAR LROD 041330Z 19019KT CAVOK 17/01 Q1006=
201903041400 METAR LROD 041400Z 20018KT CAVOK 17/00 Q1006=
201903041430 METAR LROD 041430Z 19018KT CAVOK 17/00 Q1005=
201903041500 METAR LROD 041500Z 19018KT CAVOK 16/01 Q1005=
201903041530 METAR LROD 041530Z 19015KT CAVOK 16/00 Q1004=
201903041600 METAR LROD 041600Z 19015KT CAVOK 15/M00 Q1004=
201903041630 METAR LROD 041630Z 18014KT CAVOK 15/M00 Q1004=
201903041700 METAR LROD 041700Z 18014KT CAVOK 15/M00 Q1004=
201903041730 METAR LROD 041730Z 17013KT CAVOK 14/M00 Q1004=
201903041800 METAR COR LROD 041800Z 17014KT CAVOK 14/M00 Q1003=
201903041830 METAR LROD 041830Z 17013KT CAVOK 13/M00 Q1003=
201903041900 METAR LROD 041900Z 17014KT CAVOK 13/M01 Q1003=
201903041930 METAR LROD 041930Z AUTO 17014KT 9999 NCD 13/M01 Q1003=
201903042000 METAR LROD 042000Z AUTO 17015KT 9999 NCD 14/M01 Q1002=
201903042030 METAR LROD 042030Z AUTO 17015KT 9999 SCT240/// 14/M01 Q1002=
201903042100 METAR LROD 042100Z AUTO 19018KT 9999 NCD 14/M01 Q1002=
201903042130 METAR LROD 042130Z AUTO 21017KT 9999 FEW095/// 13/M01 Q1002=
201903042200 METAR LROD 042200Z AUTO 21016KT 9999 SCT085/// 12/M00 Q1002=
201903042230 METAR LROD 042230Z AUTO 22017KT 9999 FEW080/// 12/00 Q1003=
201903042300 METAR LROD 042300Z AUTO 22017KT 9999 BKN070/// OVC090///
                        12/01 Q1003=
201903042330 METAR LROD 042330Z AUTO 22014KT 9999 OVC080/// 11/01 Q1003=
201903050000 METAR LROD 050000Z AUTO 25016KT 9999 FEW070/// BKN095///
                        12/01 Q1003=
201903050030 METAR LROD 050030Z AUTO 25014KT 9999 OVC070/// 11/01 Q1004=
201903050100 METAR LROD 050100Z AUTO 26012KT 9999 -SHRA BKN065/// OVC080///
                        10/02 Q1004=
201903050130 METAR LROD 050130Z AUTO 27011KT 9999 -SHRA BKN055/// 09/04
                        Q1004=
201903050200 METAR LROD 050200Z AUTO 27016KT 9999 -RA FEW043/// BKN050///
                        09/04 Q1005=
201903050230 METAR LROD 050230Z AUTO 27012KT 9999 -RA SCT040/// BKN047///
                        08/04 Q1005=
201903050300 METAR LROD 050300Z AUTO 23009KT 9999 BKN055/// BKN075///
                        08/05 Q1005 RERA=
201903050330 METAR LROD 050330Z AUTO 25013KT 9999 -SHRA BKN050/// 08/04
                        Q1005=
201903050400 METAR LROD 050400Z AUTO 22011KT 9999 FEW050/// SCT075///
                        BKN095/// 08/04 Q1005 REDZ=
201903050430 METAR LROD 050430Z AUTO 21012KT 9999 SCT060/// BKN140///
                        07/04 Q1006 REDZ=
201903050500 METAR LROD 050500Z 22015KT CAVOK 07/04 Q1006=
201903050530 METAR LROD 050530Z 22014KT CAVOK 07/04 Q1007=
201903050600 METAR LROD 050600Z 21015KT CAVOK 07/04 Q1007=
201903050630 METAR LROD 050630Z 22015KT CAVOK 07/04 Q1008=
201903050700 METAR LROD 050700Z 23016KT CAVOK 08/05 Q1008=
201903050730 METAR LROD 050730Z 25016KT CAVOK 09/04 Q1009=
201903050800 METAR LROD 050800Z 25016KT CAVOK 10/03 Q1009=
201903050830 METAR LROD 050830Z 26017KT CAVOK 10/01 Q1009=
201903050900 METAR LROD 050900Z 27019KT CAVOK 11/M01 Q1009=
201903050930 METAR LROD 050930Z 27018KT CAVOK 12/M02 Q1009=
201903051000 METAR LROD 051000Z 27018KT CAVOK 12/M02 Q1010=
201903051030 METAR LROD 051030Z 26017KT CAVOK 13/M01 Q1010=
201903051100 METAR LROD 051100Z 28019KT CAVOK 13/M01 Q1010=
201903051130 METAR LROD 051130Z 24013KT 220V280 CAVOK 14/M01 Q1009=
201903051200 METAR LROD 051200Z 25016KT CAVOK 13/M01 Q1009=
201903051230 METAR LROD 051230Z 25015KT CAVOK 13/M01 Q1009=
201903051300 METAR LROD 051300Z 26016KT CAVOK 15/M01 Q1009=
201903051330 METAR LROD 051330Z 27017KT CAVOK 14/M03 Q1009=
201903051400 METAR LROD 051400Z 27016KT CAVOK 14/M03 Q1009=
201903051430 METAR LROD 051430Z 27019KT CAVOK 14/M04 Q1009=
201903051500 METAR LROD 051500Z 27018KT CAVOK 14/M04 Q1010=
201903051530 METAR LROD 051530Z 27016KT CAVOK 13/M04 Q1010=
201903051600 METAR LROD 051600Z 28011KT CAVOK 12/M04 Q1010=
201903051630 METAR LROD 051630Z 26007KT CAVOK 10/M03 Q1010=
201903051700 METAR LROD 051700Z 26007KT CAVOK 09/M03 Q1011=
201903051730 METAR LROD 051730Z 25008KT CAVOK 08/M03 Q1011=
201903051800 METAR LROD 051800Z 22006KT CAVOK 06/M03 Q1011=
201903051830 METAR LROD 051830Z 20005KT CAVOK 05/M02 Q1012=
201903051900 METAR LROD 051900Z 20008KT CAVOK 04/M02 Q1012=
201903051930 METAR LROD 051930Z AUTO 21007KT 9999 NCD 04/M02 Q1012=
201903052000 METAR LROD 052000Z AUTO 20007KT 9999 NCD 03/M02 Q1013=
201903052030 METAR LROD 052030Z AUTO 21008KT 9999 NCD 03/M03 Q1013=
201903052100 METAR LROD 052100Z AUTO 21006KT 9999 FEW080/// 03/M03 Q1013=
201903052130 METAR LROD 052130Z AUTO 22007KT 9999 FEW080/// BKN095///
                        04/M01 Q1013=
201903052200 METAR LROD 052200Z AUTO 20007KT 9999 FEW080/// BKN100///
                        05/M01 Q1013=
201903052230 METAR LROD 052230Z AUTO 19007KT 9999 BKN095/// 05/M02 Q1013=
201903052300 METAR LROD 052300Z AUTO 19007KT 9999 SCT085/// BKN110///
                        06/M02 Q1013=
201903052330 METAR LROD 052330Z AUTO 18009KT 9999 SCT080/// BKN110///
                        07/M02 Q1013=
201903060000 METAR LROD 060000Z AUTO 17008KT 9999 SCT075/// BKN100///
                        07/M02 Q1013=
201903060030 METAR LROD 060030Z AUTO 18009KT 9999 BKN065/// BKN110///
                        07/M02 Q1013=
201903060100 METAR LROD 060100Z AUTO 18010KT 9999 FEW070/// SCT085///
                        BKN100/// 08/M01 Q1012=
201903060130 METAR LROD 060130Z AUTO 26016KT 210V310 9999 BKN065/// OVC080///
                        08/M01 Q1014=
201903060200 METAR LROD 060200Z AUTO 31010KT 9999 RA FEW024/// SCT030///
                        BKN040/// 05/02 Q1015=
201903060230 METAR LROD 060230Z AUTO 31003KT 270V340 9999 RA FEW026///
                        BKN034/// 05/03 Q1015=
201903060300 METAR LROD 060300Z AUTO 15002KT 9999 -RA FEW026/// SCT046///
                        BKN095/// 04/03 Q1014=
201903060330 METAR LROD 060330Z AUTO 16004KT 9999 FEW041/// BKN100///
                        04/03 Q1014 RERA=
201903060400 METAR LROD 060400Z AUTO 18004KT 9999 FEW100/// 03/02 Q1015=
201903060430 METAR LROD 060430Z AUTO 16005KT 9999 NCD 03/02 Q1015=
201903060500 METAR LROD 060500Z 17003KT 9999 FEW037 FEW040CB 02/01 Q1015=
201903060530 METAR COR LROD 060530Z 18003KT 9999 FEW040 02/02 Q1016 R01/22//95=
201903060600 METAR LROD 060600Z VRB01KT 9999 FEW033 02/02 Q1017 R01/22//95=
201903060630 METAR LROD 060630Z 19003KT CAVOK 04/04 Q1017 R01/22//95=
201903060700 METAR LROD 060700Z 20006KT CAVOK 05/04 Q1017 R01/22//95=
201903060730 METAR LROD 060730Z 23006KT CAVOK 06/04 Q1018 R01/22//95=
201903060800 METAR COR LROD 060800Z VRB03KT CAVOK 07/04 Q1018 R01/22//95=
201903060830 METAR COR LROD 060830Z VRB01KT CAVOK 07/03 Q1019 R01/22//95=
201903060900 METAR COR LROD 060900Z 21004KT 140V260 CAVOK 08/04 Q1019
                        R01/22//95=
201903060930 METAR LROD 060930Z 20004KT 120V280 CAVOK 09/03 Q1019 R01/22//95=
201903061000 METAR LROD 061000Z VRB03KT CAVOK 09/03 Q1019 R01/22//95=
201903061030 METAR LROD 061030Z 26004KT 200V320 CAVOK 10/04 Q1020=
201903061100 METAR LROD 061100Z VRB03KT 9999 SCT040 11/03 Q1020=
201903061130 METAR LROD 061130Z VRB02KT 9999 SCT035 11/00 Q1019=
201903061200 METAR LROD 061200Z VRB03KT 9999 SCT037 11/00 Q1019=
201903061230 METAR LROD 061230Z VRB04KT 9999 SCT038 12/M00 Q1019=
201903061300 METAR LROD 061300Z VRB03KT 9999 SCT045 12/M00 Q1019=
201903061330 METAR COR LROD 061330Z 24004KT 180V290 CAVOK 12/M01 Q1019=
201903061400 METAR COR LROD 061400Z 23004KT 150V280 CAVOK 12/01 Q1019=
201903061430 METAR LROD 061430Z 23005KT 190V260 CAVOK 12/00 Q1019=
201903061500 METAR LROD 061500Z 25002KT 200V340 CAVOK 12/M01 Q1019=
201903061530 METAR LROD 061530Z 23006KT CAVOK 12/M01 Q1019=
201903061600 METAR LROD 061600Z 20006KT CAVOK 10/M01 Q1019=
201903061630 METAR LROD 061630Z 18006KT CAVOK 08/M02 Q1019=
201903061700 METAR LROD 061700Z 16005KT CAVOK 08/M02 Q1019=
201903061730 METAR COR LROD 061730Z 13005KT CAVOK 07/M02 Q1019=
201903061800 METAR LROD 061800Z 12005KT CAVOK 06/M02 Q1019=
201903061830 METAR LROD 061830Z 11005KT CAVOK 05/M01 Q1019=
201903061900 METAR LROD 061900Z 11006KT CAVOK 05/M01 Q1019=
201903061930 METAR LROD 061930Z AUTO 10005KT 9999 NCD 04/M01 Q1019=
201903062000 METAR LROD 062000Z AUTO 11006KT 9999 NCD 04/M01 Q1019=
201903062030 METAR LROD 062030Z AUTO 10006KT 9999 NCD 04/M01 Q1019=
201903062100 METAR LROD 062100Z AUTO 11007KT 9999 NCD 04/M00 Q1018=
201903062130 METAR LROD 062130Z AUTO 10007KT 9999 NCD 05/M01 Q1018=
201903062200 METAR LROD 062200Z AUTO 11007KT 9999 NCD 04/M01 Q1017=
201903062230 METAR LROD 062230Z AUTO 11007KT 9999 SCT240/// 04/M01 Q1017=
201903062300 METAR LROD 062300Z AUTO 12008KT 9999 BKN240/// 06/M01 Q1017=
201903062330 METAR LROD 062330Z AUTO 13007KT 9999 FEW240/// 07/M02 Q1017=
201903070000 METAR LROD 070000Z AUTO 13006KT 9999 FEW080/// BKN240///
                        07/M02 Q1017=
201903070030 METAR LROD 070030Z AUTO 12006KT 9999 FEW080/// SCT240///
                        06/M02 Q1016=
201903070100 METAR LROD 070100Z AUTO 12006KT 9999 FEW080/// SCT240///
                        07/M02 Q1016=
201903070130 METAR LROD 070130Z AUTO 11007KT 9999 FEW080/// BKN240///
                        07/M02 Q1016=
201903070200 METAR LROD 070200Z AUTO 12006KT 9999 FEW240/// 07/M02 Q1015=
201903070230 METAR LROD 070230Z AUTO 11006KT 9999 BKN230/// 07/M03 Q1015=
201903070300 METAR LROD 070300Z AUTO 11006KT 9999 FEW240/// 07/M03 Q1015=
201903070330 METAR LROD 070330Z AUTO 12004KT 9999 SCT100/// BKN240///
                        07/M02 Q1015=
201903070400 METAR LROD 070400Z AUTO 17010KT 9999 BKN110/// 10/M03 Q1014=
201903070430 METAR LROD 070430Z AUTO 19015KT 9999 BKN110/// 11/M03 Q1014=
201903070500 METAR LROD 070500Z 18016KT CAVOK 12/M03 Q1014=
201903070530 METAR LROD 070530Z 18016KT CAVOK 12/M03 Q1014=
201903070600 METAR LROD 070600Z 18015KT CAVOK 12/M02 Q1014=
201903070630 METAR LROD 070630Z 18016KT CAVOK 12/M02 Q1014=
201903070700 METAR LROD 070700Z 18016KT CAVOK 12/M02 Q1014=
201903070730 METAR LROD 070730Z 18016KT CAVOK 13/M02 Q1014=
201903070800 METAR LROD 070800Z 18017G27KT CAVOK 13/M02 Q1014=
201903070830 METAR LROD 070830Z 18017KT CAVOK 13/M02 Q1014=
201903070900 METAR LROD 070900Z 18019KT CAVOK 14/M02 Q1013=
201903070930 METAR LROD 070930Z 18021KT CAVOK 14/M02 Q1013=
201903071000 METAR LROD 071000Z 19020KT CAVOK 15/M01 Q1013=
201903071030 METAR LROD 071030Z 19020G30KT CAVOK 15/M01 Q1013=
201903071100 METAR LROD 071100Z 19021KT CAVOK 17/M00 Q1013=
201903071130 METAR LROD 071130Z 20024KT CAVOK 18/M00 Q1012=
201903071200 METAR LROD 071200Z 18021KT CAVOK 20/01 Q1011=
201903071230 METAR LROD 071230Z 19022G32KT CAVOK 20/02 Q1011=
201903071300 METAR LROD 071300Z 21023G33KT CAVOK 20/02 Q1011=
201903071330 METAR LROD 071330Z 20024KT CAVOK 20/02 Q1010=
201903071400 METAR LROD 071400Z 20021KT CAVOK 19/02 Q1010=
201903071430 METAR LROD 071430Z 20018KT CAVOK 19/02 Q1010=
201903071500 METAR LROD 071500Z 21019KT CAVOK 18/02 Q1010=
201903071530 METAR LROD 071530Z 21020KT CAVOK 18/02 Q1011=
201903071600 METAR LROD 071600Z 20020KT CAVOK 17/01 Q1011=
201903071630 METAR LROD 071630Z 19016KT CAVOK 16/02 Q1011=
201903071700 METAR LROD 071700Z 19013KT CAVOK 16/02 Q1011=
201903071730 METAR LROD 071730Z 19014KT CAVOK 16/03 Q1011=
201903071800 METAR LROD 071800Z 18016KT CAVOK 17/02 Q1011=
201903071830 METAR LROD 071830Z 18016KT CAVOK 17/01 Q1011=
201903071900 METAR LROD 071900Z 17016KT CAVOK 16/01 Q1011=
201903071930 METAR LROD 071930Z AUTO 17015KT 9999 FEW230/// 16/01 Q1011=
201903072000 METAR LROD 072000Z AUTO 18017KT 9999 FEW200/// 17/01 Q1011=
201903072030 METAR LROD 072030Z AUTO 19018KT 9999 NCD 17/01 Q1011=
201903072100 METAR LROD 072100Z AUTO 19016KT 9999 NCD 16/02 Q1011=
201903072130 METAR LROD 072130Z AUTO 19016KT 9999 FEW240/// 16/02 Q1011=
201903072200 METAR LROD 072200Z AUTO 19016KT 9999 FEW230/// 15/02 Q1011=
201903072230 METAR LROD 072230Z AUTO 20015KT 9999 SCT230/// 14/02 Q1011=
201903072300 METAR LROD 072300Z AUTO 20015KT 9999 FEW130/// 14/02 Q1012=
201903072330 METAR LROD 072330Z AUTO 20015KT 9999 SCT110/// BKN130///
                        14/03 Q1012=
201903080000 METAR LROD 080000Z AUTO 20016KT 9999 OVC110/// 14/02 Q1012=
201903080030 METAR LROD 080030Z AUTO 20014KT 9999 FEW120/// SCT230///
                        13/02 Q1012=
201903080100 METAR LROD 080100Z AUTO 20012KT 9999 BKN170/// 13/02 Q1013=
201903080130 METAR LROD 080130Z AUTO 22011KT 9999 SCT140/// BKN170///
                        13/02 Q1013=
201903080200 METAR LROD 080200Z AUTO 21012KT 9999 BKN120/// BKN140///
                        13/02 Q1013=
201903080230 METAR LROD 080230Z AUTO 20010KT 9999 BKN130/// 12/02 Q1013=
201903080300 METAR LROD 080300Z AUTO 21009KT 9999 BKN100/// 12/02 Q1013=
201903080330 METAR LROD 080330Z AUTO 22007KT 9999 BKN100/// BKN110///
                        11/03 Q1013=
201903080400 METAR LROD 080400Z AUTO 20008KT 9999 SCT100/// BKN120///
                        11/03 Q1013=
201903080430 METAR LROD 080430Z AUTO 20008KT 9999 BKN110/// OVC130///
                        11/03 Q1013=
201903080500 METAR LROD 080500Z 20008KT CAVOK 11/03 Q1013=
201903080530 METAR LROD 080530Z 21008KT CAVOK 11/03 Q1014=
201903080600 METAR LROD 080600Z 21008KT CAVOK 12/03 Q1014=
201903080630 METAR LROD 080630Z 22006KT CAVOK 12/03 Q1014=
201903080700 METAR LROD 080700Z 21012KT CAVOK 14/02 Q1014=
201903080730 METAR LROD 080730Z 21013KT CAVOK 15/02 Q1015=
201903080800 METAR LROD 080800Z 21014KT CAVOK 16/02 Q1015=
201903080830 METAR LROD 080830Z 22011KT CAVOK 16/03 Q1015=
201903080900 METAR LROD 080900Z 22012KT CAVOK 16/03 Q1015=
201903080930 METAR LROD 080930Z 22010KT CAVOK 16/03 Q1015=
201903081000 METAR LROD 081000Z 22010KT CAVOK 17/03 Q1015=
201903081030 METAR LROD 081030Z 23012KT CAVOK 17/03 Q1015=
201903081100 METAR LROD 081100Z 23012KT CAVOK 18/04 Q1016=
201903081130 METAR LROD 081130Z 25013KT CAVOK 18/05 Q1016=
201903081200 METAR LROD 081200Z 29016KT CAVOK 17/05 Q1016=
201903081230 METAR LROD 081230Z 28014KT CAVOK 16/05 Q1016=
201903081300 METAR LROD 081300Z 27012KT CAVOK 16/05 Q1016=
201903081330 METAR LROD 081330Z 26010KT CAVOK 16/05 Q1016=
201903081400 METAR LROD 081400Z 25011KT CAVOK 16/05 Q1016=
201903081430 METAR LROD 081430Z 27015KT CAVOK 15/05 Q1016=
201903081500 METAR LROD 081500Z 26011KT CAVOK 15/05 Q1017=
201903081530 METAR LROD 081530Z 25006KT CAVOK 15/05 Q1017=
201903081600 METAR LROD 081600Z 26006KT CAVOK 14/05 Q1017=
201903081630 METAR LROD 081630Z 27007KT CAVOK 13/05 Q1017=
201903081700 METAR LROD 081700Z 26004KT CAVOK 12/05 Q1017=
201903081730 METAR LROD 081730Z 22005KT CAVOK 11/05 Q1017=
201903081800 METAR LROD 081800Z 19006KT CAVOK 09/04 Q1018=
201903081830 METAR LROD 081830Z 18007KT CAVOK 10/05 Q1018=
201903081900 METAR LROD 081900Z 20004KT CAVOK 09/05 Q1018=
201903081930 METAR LROD 081930Z AUTO 19004KT 9999 BKN110/// 09/05 Q1018=
201903082000 METAR LROD 082000Z AUTO 21005KT 9999 FEW095/// BKN110///
                        OVC120/// 08/05 Q1019=
201903082030 METAR LROD 082030Z AUTO 19007KT 9999 FEW085/// BKN110///
                        09/05 Q1019=
201903082100 METAR LROD 082100Z AUTO 20009KT 9999 BKN085/// 09/05 Q1019=
201903082130 METAR LROD 082130Z AUTO 19007KT 9999 FEW090/// BKN220///
                        08/05 Q1019=
201903082200 METAR LROD 082200Z AUTO 19008KT 9999 BKN220/// 09/07 Q1019=
201903082230 METAR LROD 082230Z AUTO 19007KT 9999 FEW090/// BKN240///
                        08/06 Q1019=
201903082300 METAR LROD 082300Z AUTO 19008KT 9999 SCT240/// 09/07 Q1019=
201903082330 METAR LROD 082330Z AUTO 18008KT 9999 BKN090/// 09/08 Q1019=
201903090000 METAR LROD 090000Z AUTO 17007KT 9999 SCT090/// BKN120///
                        10/08 Q1019=
201903090030 METAR LROD 090030Z AUTO 19008KT 9999 BKN085/// 10/08 Q1020=
201903090100 METAR LROD 090100Z AUTO 19009KT 9999 BKN085/// 10/08 Q1020=
201903090130 METAR LROD 090130Z AUTO 20008KT 9999 SCT090/// BKN110///
                        10/08 Q1020=
201903090200 METAR LROD 090200Z AUTO 22007KT 9999 FEW012/// BKN085///
                        BKN110/// 09/08 Q1020=
201903090230 METAR LROD 090230Z AUTO 20007KT 9999 SCT100/// BKN110///
                        09/08 Q1020=
201903090300 METAR LROD 090300Z AUTO 20005KT 9999 BKN075/// BKN110///
                        09/07 Q1020=
201903090330 METAR LROD 090330Z AUTO 19008KT 9999 BKN080/// 08/07 Q1020=
201903090400 METAR LROD 090400Z AUTO 20008KT 9999 SCT075/// BKN090///
                        08/08 Q1020=
201903090430 METAR LROD 090430Z AUTO 20008KT 9999 BKN075/// 09/08 Q1020=
201903090500 METAR LROD 090500Z 21006KT CAVOK 08/07 Q1020=
201903090530 METAR LROD 090530Z 20005KT CAVOK 07/07 Q1020=
201903090600 METAR LROD 090600Z 16004KT CAVOK 07/07 Q1020=
201903090630 METAR LROD 090630Z 19005KT CAVOK 09/09 Q1020=
201903090700 METAR LROD 090700Z 20006KT CAVOK 11/08 Q1020=
201903090730 METAR LROD 090730Z 21006KT CAVOK 10/07 Q1020=
201903090800 METAR LROD 090800Z 21009KT CAVOK 11/08 Q1020=
201903090830 METAR LROD 090830Z 25010KT CAVOK 11/06 Q1021=
201903090900 METAR LROD 090900Z 25009KT CAVOK 13/04 Q1020=
201903090930 METAR COR LROD 090930Z 27008KT 240V300 CAVOK 13/02 Q1020=
201903091000 METAR LROD 091000Z 25009KT CAVOK 14/02 Q1020=
201903091030 METAR LROD 091030Z 23011KT 200V260 CAVOK 14/01 Q1020=
201903091100 METAR LROD 091100Z 24012KT 210V270 CAVOK 15/02 Q1019=
201903091130 METAR LROD 091130Z 23014KT CAVOK 15/M00 Q1019=
201903091200 METAR LROD 091200Z 24013KT CAVOK 15/M01 Q1018=
201903091230 METAR LROD 091230Z 22014KT CAVOK 15/M01 Q1017=
201903091300 METAR LROD 091300Z 23014KT CAVOK 15/M02 Q1017=
201903091330 METAR LROD 091330Z 23016KT CAVOK 15/M00 Q1017=
201903091400 METAR LROD 091400Z 22016KT CAVOK 16/M00 Q1016=
201903091430 METAR LROD 091430Z 23018KT CAVOK 15/M00 Q1016=
201903091500 METAR LROD 091500Z 23016KT CAVOK 15/00 Q1016=
201903091530 METAR LROD 091530Z 23013KT CAVOK 15/01 Q1016=
201903091600 METAR LROD 091600Z 23011KT CAVOK 14/02 Q1016=
201903091630 METAR LROD 091630Z 23009KT CAVOK 13/03 Q1016=
201903091700 METAR COR LROD 091700Z 21009KT CAVOK 13/04 Q1016=
201903091730 METAR LROD 091730Z 22010KT CAVOK 12/04 Q1016=
201903091800 METAR LROD 091800Z 21009KT CAVOK 11/04 Q1016=
201903091830 METAR LROD 091830Z 20009KT CAVOK 10/05 Q1016=
201903091900 METAR LROD 091900Z 21008KT CAVOK 10/05 Q1016=
201903091930 METAR LROD 091930Z AUTO 20009KT 9999 FEW050/// 10/06 Q1015=
201903092000 METAR LROD 092000Z AUTO 20010KT 9999 FEW050/// SCT210///
                        09/06 Q1015=
201903092030 METAR LROD 092030Z AUTO 21010KT 9999 BKN160/// 10/06 Q1015=
201903092100 METAR LROD 092100Z AUTO 21010KT 9999 FEW050/// BKN140///
                        11/06 Q1015=
201903092130 METAR LROD 092130Z AUTO 21010KT 9999 BKN130/// BKN140///
                        10/06 Q1015=
201903092200 METAR LROD 092200Z AUTO 19013KT 9999 SCT130/// BKN160///
                        10/06 Q1013=
201903092230 METAR LROD 092230Z AUTO 20011KT 9999 FEW130/// BKN160///
                        10/06 Q1013=
201903092300 METAR LROD 092300Z AUTO 20010KT 9999 BKN150/// 09/06 Q1013=
201903092330 METAR LROD 092330Z AUTO 18010KT 9999 BKN110/// BKN160///
                        09/06 Q1012=
201903100000 METAR LROD 100000Z AUTO 19010KT 9999 FEW060/// BKN100///
                        BKN120/// 10/06 Q1012=
201903100030 METAR LROD 100030Z AUTO 20016KT 9999 DZ SCT055/// BKN070///
                        10/07 Q1012=
201903100100 METAR LROD 100100Z AUTO 27017KT 230V310 9999 RA FEW024///
                        BKN047/// 09/07 Q1013=
201903100130 METAR LROD 100130Z AUTO 29006KT 9999 -RA FEW035/// SCT055///
                        BKN070/// 08/06 Q1013=
201903100200 METAR LROD 100200Z AUTO 19002KT 9999 FEW065/// 07/06 Q1013
                        RERA=
201903100230 METAR LROD 100230Z AUTO 21006KT 9999 NCD 05/04 Q1013=
201903100300 METAR LROD 100300Z AUTO 20009KT 9999 NCD 06/05 Q1013=
201903100330 METAR LROD 100330Z AUTO 21014KT 9999 NCD 07/05 Q1014=
201903100400 METAR LROD 100400Z AUTO 22012KT 9999 NCD 07/04 Q1014=
201903100430 METAR LROD 100430Z AUTO 24013KT 9999 NCD 07/04 Q1015=
201903100500 METAR COR LROD 100500Z 25012KT CAVOK 08/04 Q1016=
201903100530 METAR COR LROD 100530Z 25011KT CAVOK 08/04 Q1016 R01/19//95=
201903100600 METAR LROD 100600Z 26011KT CAVOK 08/03 Q1016 R01/19//95=
201903100630 METAR LROD 100630Z 25010KT CAVOK 08/03 Q1017 R01/19//95=
201903100700 METAR COR LROD 100700Z 26010KT CAVOK 08/02 Q1017 R01/19//95=
201903100730 METAR LROD 100730Z 25009KT CAVOK 09/02 Q1017 R01/19//95=
201903100800 METAR LROD 100800Z 22009KT CAVOK 10/03 Q1016 R01/19//95=
201903100830 METAR LROD 100830Z 23012KT CAVOK 10/02 Q1017 R01/CLRD//=
201903100900 METAR LROD 100900Z 23012KT CAVOK 10/01 Q1016=
201903100930 METAR LROD 100930Z 22013KT CAVOK 11/M00 Q1016=
201903101000 METAR LROD 101000Z 22011KT CAVOK 12/01 Q1016=
201903101030 METAR LROD 101030Z 23010KT CAVOK 13/00 Q1015=
201903101100 METAR LROD 101100Z 22011KT CAVOK 12/00 Q1015=
201903101130 METAR LROD 101130Z 21014KT CAVOK 12/02 Q1014=
201903101200 METAR LROD 101200Z 21018KT 9999 -RA SCT045 12/03 Q1014=
201903101230 METAR LROD 101230Z 20010KT 9999 -RA BKN045 12/03 Q1013=
201903101300 METAR LROD 101300Z 20011KT 9999 BKN045 12/02 Q1013=
201903101330 METAR LROD 101330Z 18009KT CAVOK 13/01 Q1012=
201903101400 METAR LROD 101400Z 18012KT CAVOK 13/02 Q1011=
201903101430 METAR LROD 101430Z 19012KT CAVOK 13/03 Q1010=
201903101500 METAR LROD 101500Z 19013KT CAVOK 13/04 Q1009=
201903101530 METAR LROD 101530Z 20012KT CAVOK 13/04 Q1009=
201903101600 METAR LROD 101600Z 21010KT CAVOK 13/06 Q1008=
201903101630 METAR LROD 101630Z 22012KT 9999 -RA BKN049 13/06 Q1008=
201903101700 METAR LROD 101700Z 22012KT 9999 -RA BKN048 12/07 Q1008=
201903101730 METAR COR LROD 101730Z 21018KT 9999 -RA SCT045 12/07 Q1008
                        R01/19//95=
201903101800 METAR LROD 101800Z 21015KT 9999 -RA NSC 12/07 Q1007 R01/19//95=
201903101830 METAR LROD 101830Z 21016KT 9999 -RA NSC 12/07 Q1007 R01/19//95=
201903101900 METAR LROD 101900Z AUTO 22015KT 9999 BKN070/// 13/06 Q1007
                        RERA=
201903101930 METAR LROD 101930Z AUTO 21017KT 9999 SCT065/// BKN095///
                        12/06 Q1006 REDZ=
201903102000 METAR LROD 102000Z AUTO 21016KT 9999 BKN090/// BKN100///
                        12/05 Q1006=
201903102030 METAR LROD 102030Z AUTO 21015KT 9999 SCT075/// BKN090///
                        12/05 Q1006=
201903102100 METAR LROD 102100Z AUTO 21015KT 9999 FEW075/// SCT100///
                        12/05 Q1006=
201903102130 METAR LROD 102130Z AUTO 21015KT 9999 SCT075/// BKN095///
                        OVC130/// 12/05 Q1007=
201903102200 METAR LROD 102200Z AUTO 22018KT 9999 SCT080/// 11/05 Q1007=
201903102230 METAR LROD 102230Z AUTO 24015KT 9999 NCD 11/05 Q1007=
201903102300 METAR LROD 102300Z AUTO 24012KT 9999 FEW080/// SCT180///
                        11/05 Q1007=
201903102330 METAR LROD 102330Z AUTO 23013KT 9999 NCD 10/06 Q1008=
201903110000 METAR LROD 110000Z AUTO 23013KT 9999 FEW070/// 10/06 Q1008=
201903110030 METAR LROD 110030Z AUTO 25014KT 220V280 9999 FEW095/// 11/05
                        Q1008=
201903110100 METAR LROD 110100Z AUTO 27021KT 9999 NCD 12/01 Q1008=
201903110130 METAR LROD 110130Z AUTO 29026KT 9999 NCD 12/M00 Q1008=
201903110200 METAR LROD 110200Z AUTO 29022KT 9999 FEW110/// 11/M00 Q1009=
201903110230 METAR LROD 110230Z AUTO 28016KT 9999 FEW110/// 10/M01 Q1009=
201903110300 METAR LROD 110300Z AUTO 26010KT 9999 NCD 09/M01 Q1009=
201903110330 METAR LROD 110330Z AUTO 28012KT 9999 NCD 09/M01 Q1010=
201903110400 METAR LROD 110400Z AUTO 25011KT 9999 NCD 09/M02 Q1010=
201903110430 METAR LROD 110430Z AUTO 25010KT 9999 SCT150/// 08/M01 Q1010=
201903110500 METAR LROD 110500Z 26013KT CAVOK 09/M01 Q1011 R01/19//95=
201903110530 METAR LROD 110530Z 25010KT CAVOK 08/M01 Q1011 R01/CLRD//=
201903110600 METAR LROD 110600Z 26013KT CAVOK 08/M01 Q1012=
201903110630 METAR LROD 110630Z 28014KT CAVOK 09/M00 Q1012=
201903110700 METAR LROD 110700Z 29018KT CAVOK 10/M00 Q1012=
201903110730 METAR LROD 110730Z 28017KT CAVOK 10/M00 Q1013=
201903110800 METAR LROD 110800Z 29018KT CAVOK 10/M00 Q1013=
201903110830 METAR LROD 110830Z 31018KT 9999 FEW030 10/M01 Q1013=
201903110900 METAR LROD 110900Z 31016KT CAVOK 10/M01 Q1012=
201903110930 METAR LROD 110930Z 31017KT CAVOK 10/M04 Q1013=
201903111000 METAR LROD 111000Z 30014KT CAVOK 10/M03 Q1012=
201903111030 METAR LROD 111030Z 28013KT CAVOK 11/M03 Q1013=
201903111100 METAR LROD 111100Z 29011KT CAVOK 10/M04 Q1013=
201903111130 METAR LROD 111130Z 28013KT CAVOK 10/M04 Q1013=
201903111200 METAR LROD 111200Z 28014KT CAVOK 10/M05 Q1013=
201903111230 METAR LROD 111230Z 28014KT 240V300 CAVOK 10/M04 Q1012=
201903111300 METAR LROD 111300Z 27012KT CAVOK 11/M05 Q1012=
201903111330 METAR LROD 111330Z 28013KT CAVOK 10/M06 Q1012=
201903111400 METAR LROD 111400Z 26014KT CAVOK 10/M05 Q1012=
201903111430 METAR LROD 111430Z 26012KT CAVOK 10/M04 Q1012=
201903111500 METAR LROD 111500Z 26012KT CAVOK 09/M04 Q1012=
201903111530 METAR LROD 111530Z 26008KT CAVOK 09/M04 Q1011=
201903111600 METAR LROD 111600Z 26008KT CAVOK 08/M03 Q1012=
201903111630 METAR LROD 111630Z 26007KT CAVOK 08/M03 Q1012=
201903111700 METAR LROD 111700Z 25006KT CAVOK 07/M03 Q1012=
201903111730 METAR LROD 111730Z 26006KT CAVOK 06/M03 Q1013=
201903111800 METAR LROD 111800Z 26007KT CAVOK 06/M03 Q1013=
201903111830 METAR LROD 111830Z 26008KT CAVOK 06/M03 Q1013=
201903111900 METAR LROD 111900Z 24006KT CAVOK 06/M03 Q1013=
201903111930 METAR LROD 111930Z AUTO 21005KT 9999 BKN150/// 03/M03 Q1013=
201903112000 METAR LROD 112000Z AUTO 27009KT 9999 BKN150/// 05/M03 Q1014=
201903112030 METAR LROD 112030Z AUTO 27009KT 9999 SCT150/// 05/M02 Q1014=
201903112100 METAR LROD 112100Z AUTO 29008KT 9999 NCD 04/M01 Q1014=
201903112130 METAR LROD 112130Z AUTO 29009KT 9999 SCT220/// 04/M01 Q1013=
201903112200 METAR LROD 112200Z AUTO 26004KT 200V300 9999 FEW075/// BKN210///
                        04/M02 Q1013=
201903112230 METAR LROD 112230Z AUTO 28005KT 9999 FEW075/// 02/M02 Q1013=
201903112300 METAR LROD 112300Z AUTO 26008KT 9999 FEW190/// 02/M01 Q1014=
201903112330 METAR LROD 112330Z AUTO 26004KT 9999 NCD 02/M02 Q1014=
201903120000 METAR LROD 120000Z AUTO 25004KT 230V290 9999 FEW240/// 01/M02
                        Q1014=
201903120030 METAR LROD 120030Z AUTO 29004KT 9999 FEW170/// 00/M03 Q1014=
201903120100 METAR LROD 120100Z AUTO 31003KT 9999 BKN220/// 00/M02 Q1014=
201903120130 METAR LROD 120130Z AUTO 31004KT 9999 OVC210/// M00/M02 Q1014=
201903120200 METAR LROD 120200Z AUTO 00000KT 9999 BKN200/// M01/M03 Q1015=
201903120230 METAR LROD 120230Z AUTO 00000KT 9999 BKN200/// M01/M03 Q1016=
201903120300 METAR LROD 120300Z AUTO 00000KT 9999 BKN210/// M01/M03 Q1016=
201903120330 METAR LROD 120330Z AUTO 00000KT 9999 BKN200/// M01/M02 Q1016=
201903120400 METAR LROD 120400Z AUTO 00000KT 9999 BKN210/// M02/M03 Q1017=
201903120430 METAR LROD 120430Z AUTO 00000KT 9999 BKN230/// M02/M03 Q1017=
201903120500 METAR LROD 120500Z 24002KT CAVOK M03/M04 Q1017=
201903120530 METAR LROD 120530Z 00000KT CAVOK M03/M04 Q1017=
201903120600 METAR LROD 120600Z VRB01KT CAVOK M02/M03 Q1017=
201903120630 METAR LROD 120630Z 00000KT CAVOK 01/M01 Q1018=
201903120700 METAR LROD 120700Z VRB01KT CAVOK 03/M01 Q1018=
201903120730 METAR LROD 120730Z VRB01KT CAVOK 04/M01 Q1018=
201903120800 METAR LROD 120800Z VRB01KT CAVOK 05/M01 Q1018=
201903120830 METAR LROD 120830Z VRB03KT CAVOK 06/M02 Q1019=
201903120900 METAR LROD 120900Z 35005KT 320V030 CAVOK 06/M02 Q1019=
201903120930 METAR LROD 120930Z 34004KT 290V020 CAVOK 07/M03 Q1019=
201903121000 METAR LROD 121000Z 35006KT 300V030 9999 FEW041 07/M03 Q1019=
201903121030 METAR LROD 121030Z 35008KT 320V020 9999 SCT045 07/M04 Q1019=
201903121100 METAR LROD 121100Z 35005KT 280V040 9999 BKN047 07/M04 Q1019=
201903121130 METAR LROD 121130Z 06006KT 010V080 9999 SCT040 08/M03 Q1019=
201903121200 METAR LROD 121200Z VRB04KT 9999 SCT049 08/M03 Q1019=
201903121230 METAR LROD 121230Z 36005KT 310V040 9999 SCT049 09/M04 Q1019=
201903121300 METAR LROD 121300Z 33008KT 290V010 9999 SCT046 08/M04 Q1019=
201903121330 METAR LROD 121330Z 35007KT 290V060 9999 SCT045 09/M05 Q1019=
201903121400 METAR LROD 121400Z 02008KT 350V050 9999 SCT045 09/M07 Q1019=
201903121430 METAR LROD 121430Z 35009KT 330V040 9999 FEW047 08/M06 Q1019=
201903121500 METAR LROD 121500Z 03005KT 350V080 CAVOK 09/M07 Q1019=
201903121530 METAR LROD 121530Z 02005KT 340V050 CAVOK 09/M07 Q1019=
201903121600 METAR LROD 121600Z VRB03KT CAVOK 08/M08 Q1019=
201903121630 METAR LROD 121630Z 05003KT CAVOK 07/M08 Q1019=
201903121700 METAR LROD 121700Z 08003KT CAVOK 06/M07 Q1019=
201903121730 METAR LROD 121730Z 18003KT CAVOK 02/M06 Q1019=
201903121800 METAR LROD 121800Z 17004KT CAVOK 01/M06 Q1020=
201903121830 METAR LROD 121830Z 15003KT CAVOK 01/M06 Q1020=
201903121900 METAR LROD 121900Z 11004KT 080V140 CAVOK 02/M06 Q1020=
201903121930 METAR LROD 121930Z AUTO 10006KT 7000 FEW070/// 01/M05 Q1020=
201903122000 METAR LROD 122000Z AUTO 10006KT 9999 FEW070/// 01/M05 Q1020=
201903122030 METAR LROD 122030Z AUTO 08005KT 9999 BKN070/// 01/M04 Q1020=
201903122100 METAR LROD 122100Z AUTO 09005KT 9999 FEW065/// 01/M05 Q1020=
201903122130 METAR LROD 122130Z AUTO 11006KT 9999 NCD M01/M05 Q1020=
201903122200 METAR LROD 122200Z AUTO 10005KT 9999 NCD M00/M05 Q1020=
201903122230 METAR LROD 122230Z AUTO 10005KT 9999 NCD M00/M05 Q1019=
201903122300 METAR LROD 122300Z AUTO 11006KT 9999 NCD M02/M05 Q1019=
201903122330 METAR LROD 122330Z AUTO 11006KT 9999 NCD M02/M05 Q1019=
201903130000 METAR LROD 130000Z AUTO 11006KT 9999 NCD M02/M05 Q1019=
201903130030 METAR LROD 130030Z AUTO 10007KT 9999 NCD M03/M05 Q1019=
201903130100 METAR LROD 130100Z AUTO 11007KT 9999 NCD M03/M05 Q1019=
201903130130 METAR LROD 130130Z AUTO 11007KT 9999 NCD M03/M05 Q1018=
201903130200 METAR LROD 130200Z AUTO 10007KT 9999 NCD M03/M06 Q1018=
201903130230 METAR LROD 130230Z AUTO 11006KT 9999 NCD M02/M06 Q1018=
201903130300 METAR LROD 130300Z AUTO 11007KT 9999 NCD M02/M06 Q1018=
201903130330 METAR LROD 130330Z AUTO 11005KT 9999 NCD M02/M06 Q1018=
201903130400 METAR LROD 130400Z AUTO 11005KT 9999 NCD M01/M06 Q1018=
201903130430 METAR LROD 130430Z AUTO 10004KT 9999 NCD M02/M06 Q1017=
201903130500 METAR LROD 130500Z 10005KT CAVOK M02/M06 Q1017=
201903130530 METAR LROD 130530Z 13006KT CAVOK M00/M06 Q1017=
201903130600 METAR LROD 130600Z 13004KT 100V160 CAVOK 02/M05 Q1017=
201903130630 METAR COR LROD 130630Z 17008KT CAVOK 05/M06 Q1018=
201903130700 METAR LROD 130700Z 18008KT CAVOK 07/M06 Q1018=
201903130730 METAR LROD 130730Z 20013KT CAVOK 07/M07 Q1018=
201903130800 METAR LROD 130800Z 20013KT CAVOK 08/M07 Q1018=
201903130830 METAR LROD 130830Z 20013KT CAVOK 09/M07 Q1018=
201903130900 METAR LROD 130900Z 20014KT CAVOK 09/M07 Q1018=
201903130930 METAR LROD 130930Z 20012KT CAVOK 09/M07 Q1018=
201903131000 METAR LROD 131000Z 21013KT CAVOK 10/M07 Q1017=
201903131030 METAR LROD 131030Z 22012KT CAVOK 09/M08 Q1017=
201903131100 METAR LROD 131100Z 21012KT 180V240 CAVOK 10/M08 Q1017=
201903131130 METAR COR LROD 131130Z 22010KT 190V250 CAVOK 10/M08 Q1016=
201903131200 METAR COR LROD 131200Z 20009KT 170V230 CAVOK 10/M08 Q1016=
201903131230 METAR LROD 131230Z 23009KT CAVOK 10/M08 Q1016=
201903131300 METAR LROD 131300Z 22010KT 190V250 CAVOK 11/M08 Q1015=
201903131330 METAR LROD 131330Z 22010KT CAVOK 10/M10 Q1015=
201903131400 METAR LROD 131400Z 20008KT CAVOK 10/M09 Q1015=
201903131430 METAR LROD 131430Z 22008KT CAVOK 10/M09 Q1014=
201903131500 METAR LROD 131500Z 21007KT CAVOK 10/M08 Q1014=
201903131530 METAR LROD 131530Z 20007KT CAVOK 10/M09 Q1014=
201903131600 METAR COR LROD 131600Z 23005KT CAVOK 09/M08 Q1014=
201903131630 METAR COR LROD 131630Z 22004KT CAVOK 08/M07 Q1014=
201903131700 METAR LROD 131700Z 21003KT CAVOK 07/M07 Q1014=
201903131730 METAR LROD 131730Z 21002KT CAVOK 06/M07 Q1014=
201903131800 METAR COR LROD 131800Z 12004KT CAVOK 06/M06 Q1013=
201903131830 METAR COR LROD 131830Z 11004KT CAVOK 06/M06 Q1013=
201903131900 METAR LROD 131900Z 10005KT CAVOK 06/M05 Q1013=
201903131930 METAR LROD 131930Z AUTO 10004KT 9999 BKN100/// BKN120///
                        06/M06 Q1013=
201903132000 METAR LROD 132000Z AUTO 09005KT 9999 BKN100/// 05/M05 Q1013=
201903132030 METAR LROD 132030Z AUTO 12003KT 9999 BKN100/// 05/M04 Q1013=
201903132100 METAR LROD 132100Z AUTO 10005KT 9999 OVC100/// 05/M04 Q1013=
201903132130 METAR LROD 132130Z AUTO 12005KT 9999 BKN100/// OVC120///
                        04/M03 Q1013=
201903132200 METAR LROD 132200Z AUTO 10005KT 9999 SCT065/// BKN100///
                        BKN110/// 04/M03 Q1013=
201903132230 METAR LROD 132230Z AUTO 12005KT 9999 BKN065/// BKN110///
                        04/M03 Q1013=
201903132300 METAR LROD 132300Z AUTO 13005KT 9999 SCT065/// BKN100///
                        04/M03 Q1013=
201903132330 METAR LROD 132330Z AUTO 11005KT 9999 OVC095/// 03/M03 Q1013=
201903140000 METAR LROD 140000Z AUTO 11005KT 9999 OVC100/// 04/M03 Q1013=
201903140030 METAR LROD 140030Z AUTO 10004KT 9999 FEW065/// BKN100///
                        03/M03 Q1013=
201903140100 METAR LROD 140100Z AUTO 11003KT 9999 SCT065/// BKN120///
                        03/M03 Q1012=
201903140130 METAR LROD 140130Z AUTO 12005KT 9999 FEW065/// SCT110///
                        BKN140/// 03/M03 Q1012=
201903140200 METAR LROD 140200Z AUTO 15002KT 070V220 9999 BKN070/// BKN120///
                        03/M03 Q1012=
201903140230 METAR LROD 140230Z AUTO 00000KT 9999 FEW075/// BKN110///
                        02/M02 Q1012=
201903140300 METAR LROD 140300Z AUTO 16003KT 9999 SCT070/// BKN085///
                        03/M03 Q1012=
201903140330 METAR LROD 140330Z AUTO 13004KT 9999 SCT055/// BKN075///
                        BKN095/// 03/M02 Q1012=
201903140400 METAR LROD 140400Z AUTO 00000KT 9999 BKN075/// BKN120///
                        03/M02 Q1012=
201903140430 METAR LROD 140430Z AUTO 00000KT 9999 FEW050/// BKN090///
                        BKN120/// 03/M02 Q1012=
201903140500 METAR LROD 140500Z 12005KT CAVOK 02/M02 Q1012=
201903140530 METAR LROD 140530Z 11006KT CAVOK 02/M02 Q1012=
201903140600 METAR LROD 140600Z 08003KT CAVOK 03/M02 Q1012=
201903140630 METAR LROD 140630Z 00000KT CAVOK 04/M02 Q1012=
201903140700 METAR LROD 140700Z 14002KT CAVOK 05/M02 Q1012=
201903140730 METAR LROD 140730Z 17003KT CAVOK 06/M02 Q1012=
201903140800 METAR LROD 140800Z 18006KT 140V210 CAVOK 07/M02 Q1012=
201903140830 METAR LROD 140830Z 20007KT 160V220 CAVOK 08/M02 Q1012=
201903140900 METAR LROD 140900Z 21009KT CAVOK 08/M02 Q1012=
201903140930 METAR LROD 140930Z 21010KT CAVOK 09/M02 Q1012=
201903141000 METAR LROD 141000Z 22009KT 9999 FEW040 10/M02 Q1012=
201903141030 METAR LROD 141030Z 24008KT 190V270 9999 FEW043 10/M02 Q1011=
201903141100 METAR LROD 141100Z 22011KT 9999 SCT045 11/M02 Q1011=
201903141130 METAR LROD 141130Z 23008KT 200V270 9999 FEW050CB 11/M02 Q1010=
201903141200 METAR LROD 141200Z 23008KT 9999 FEW050CB 10/M02 Q1010=
201903141230 METAR LROD 141230Z 24010KT 9999 FEW050CB 10/M02 Q1010=
201903141300 METAR LROD 141300Z 26012KT 9999 FEW050CB 09/M00 Q1010=
201903141330 METAR LROD 141330Z 24006KT 9999 FEW055CB 10/M01 Q1010=
201903141400 METAR LROD 141400Z 25008KT 9999 FEW049CB 10/M01 Q1009=
201903141430 METAR LROD 141430Z 25008KT 9999 FEW047CB 10/M00 Q1009=
201903141500 METAR LROD 141500Z 26011KT 9999 SCT050CB 10/M01 Q1009=
201903141530 METAR LROD 141530Z 24009KT 9999 FEW050CB 10/M01 Q1009=
201903141600 METAR LROD 141600Z 23008KT CAVOK 09/M01 Q1009=
201903141630 METAR LROD 141630Z 21007KT CAVOK 09/M00 Q1009=
201903141700 METAR LROD 141700Z 19007KT CAVOK 08/00 Q1009=
201903141730 METAR LROD 141730Z 19007KT CAVOK 07/00 Q1008=
201903141800 METAR LROD 141800Z 19008KT CAVOK 07/00 Q1008=
201903141830 METAR LROD 141830Z 19008KT CAVOK 06/M00 Q1008=
201903141900 METAR LROD 141900Z 19008KT CAVOK 04/M01 Q1008=
201903141930 METAR LROD 141930Z AUTO 20008KT 9999 NCD 04/M01 Q1008=
201903142000 METAR LROD 142000Z AUTO 19008KT 9999 NCD 03/M01 Q1008=
201903142030 METAR LROD 142030Z AUTO 19009KT 9999 FEW080/// 05/M01 Q1007=
201903142100 METAR LROD 142100Z AUTO 20008KT 9999 FEW075/// 03/M01 Q1007=
201903142130 METAR LROD 142130Z AUTO 19010KT 9999 NCD 05/M01 Q1007=
201903142200 METAR LROD 142200Z AUTO 19009KT 9999 SCT210/// 04/M01 Q1007=
201903142230 METAR LROD 142230Z AUTO 19008KT 9999 BKN160/// 04/M01 Q1007=
201903142300 METAR LROD 142300Z AUTO 19009KT 9999 FEW055/// 04/M01 Q1007=
201903142330 METAR LROD 142330Z AUTO 19010KT 9999 FEW240/// 04/M01 Q1007=
201903150000 METAR LROD 150000Z AUTO 19009KT 9999 SCT095/// BKN220///
                        05/M01 Q1007=
201903150030 METAR LROD 150030Z AUTO 19010KT 9999 BKN090/// 05/M01 Q1006=
201903150100 METAR LROD 150100Z AUTO 19011KT 9999 BKN090/// BKN100///
                        06/M01 Q1006=
201903150130 METAR LROD 150130Z AUTO 18010KT 9999 SCT085/// BKN100///
                        06/M01 Q1006=
201903150200 METAR LROD 150200Z AUTO 17011KT 9999 SCT100/// BKN120///
                        06/M01 Q1006=
201903150230 METAR LROD 150230Z AUTO 16010KT 9999 SCT100/// 05/M02 Q1005=
201903150300 METAR LROD 150300Z AUTO 16011KT 9999 BKN100/// BKN120///
                        05/M02 Q1005=
201903150330 METAR LROD 150330Z AUTO 17010KT 9999 FEW080/// BKN095///
                        06/M02 Q1005=
201903150400 METAR LROD 150400Z AUTO 17011KT 9999 OVC085/// 06/M02 Q1005=
201903150430 METAR LROD 150430Z AUTO 17012KT 9999 BKN070/// BKN085///
                        06/M01 Q1005=
201903150500 METAR LROD 150500Z 17013KT CAVOK 06/M01 Q1006=
201903150530 METAR LROD 150530Z 18012KT CAVOK 06/M01 Q1006=
201903150600 METAR LROD 150600Z 18011KT 9999 FEW043 07/M01 Q1005=
201903150630 METAR LROD 150630Z 18011KT 9999 FEW043 07/M01 Q1006=
201903150700 METAR LROD 150700Z 21016KT CAVOK 08/M01 Q1006=
201903150730 METAR LROD 150730Z 21019KT CAVOK 08/M01 Q1006=
201903150800 METAR LROD 150800Z 21017KT 9999 SCT042 07/M00 Q1006=
201903150830 METAR LROD 150830Z 21014KT 9999 -RA BKN028 06/02 Q1007=
201903150900 METAR LROD 150900Z 20012KT 9999 -RA BKN026 06/03 Q1007=
201903150930 METAR LROD 150930Z 20012KT 9999 BKN027 07/03 Q1007=
201903151000 METAR LROD 151000Z 19013KT 9999 BKN035 07/02 Q1007=
201903151030 METAR LROD 151030Z 21013KT 9999 BKN027 08/03 Q1007=
201903151100 METAR LROD 151100Z 21013KT 9999 BKN028 08/03 Q1007=
201903151130 METAR LROD 151130Z 21014KT 9999 BKN028 09/03 Q1007=
201903151200 METAR LROD 151200Z 21012KT 9999 BKN028 09/03 Q1007=
201903151230 METAR LROD 151230Z 20012KT 9999 -RA BKN033 09/03 Q1007=
201903151300 METAR LROD 151300Z 20010KT 9999 -RA BKN033 09/04 Q1007=
201903151330 METAR LROD 151330Z 19011KT 9999 BKN035 10/04 Q1007=
201903151400 METAR LROD 151400Z 21007KT 180V240 9999 BKN035 10/03 Q1007=
201903151430 METAR LROD 151430Z 20009KT 9999 BKN040 09/04 Q1007=
201903151500 METAR LROD 151500Z 19009KT 9999 BKN043 09/04 Q1007=
201903151530 METAR LROD 151530Z 18008KT 9999 BKN045 09/04 Q1007=
201903151600 METAR LROD 151600Z 20011KT 9999 BKN047 09/03 Q1007=
201903151630 METAR LROD 151630Z 20009KT CAVOK 08/04 Q1008=
201903151700 METAR LROD 151700Z 20009KT CAVOK 08/03 Q1008=
201903151730 METAR LROD 151730Z 19009KT CAVOK 06/03 Q1008=
201903151800 METAR LROD 151800Z 21008KT CAVOK 06/02 Q1008=
201903151830 METAR LROD 151830Z 19008KT CAVOK 05/02 Q1008=
201903151900 METAR LROD 151900Z 20009KT CAVOK 05/02 Q1008=
201903151930 METAR LROD 151930Z AUTO 19010KT 9999 FEW090/// 06/02 Q1009=
201903152000 METAR LROD 152000Z AUTO 20009KT 9999 BKN085/// 06/02 Q1009=
201903152030 METAR LROD 152030Z AUTO 21010KT 9999 OVC085/// 07/01 Q1009=
201903152100 METAR LROD 152100Z AUTO 23010KT 9999 OVC080/// 07/00 Q1009=
201903152130 METAR LROD 152130Z AUTO 22009KT 9999 SCT055/// BKN070///
                        07/01 Q1009=
201903152200 METAR LROD 152200Z AUTO 21006KT 9999 BKN060/// OVC095///
                        07/01 Q1008=
201903152230 METAR LROD 152230Z AUTO 19008KT 9999 SCT045/// OVC070///
                        07/02 Q1008=
201903152300 METAR LROD 152300Z AUTO 22010KT 9999 -RA FEW037/// BKN042///
                        07/03 Q1008=
201903152330 METAR LROD 152330Z AUTO 22012KT 9999 -RA BKN033/// OVC040///
                        07/04 Q1008=
201903160000 METAR LROD 160000Z AUTO 20012KT 9999 -RA BKN031/// OVC036///
                        06/05 Q1008=
201903160030 METAR LROD 160030Z AUTO 20013KT 9999 -RA FEW027/// BKN032///
                        06/05 Q1007=
201903160100 METAR LROD 160100Z AUTO 19013KT 9999 -SHRA BKN025/// 06/05
                        Q1007=
201903160130 METAR LROD 160130Z AUTO 19013KT 9999 -SHRA BKN024/// OVC032///
                        06/05 Q1007=
201903160200 METAR LROD 160200Z AUTO 19016KT 9000 SHRA SCT019/// BKN022///
                        BKN027/// 06/05 Q1006=
201903160230 METAR LROD 160230Z AUTO 19017KT 9999 RA FEW023/// BKN028///
                        BKN040/// 06/06 Q1006=
201903160300 METAR LROD 160300Z AUTO 19017KT 9999 -RA FEW017/// SCT021///
                        BKN045/// 06/06 Q1005=
201903160330 METAR LROD 160330Z AUTO 19015KT 9999 -SHRA SCT043/// BKN050///
                        07/06 Q1005=
201903160400 METAR LROD 160400Z AUTO 19018KT 9999 BKN049/// 07/06 Q1005
                        RERA=
201903160430 METAR LROD 160430Z AUTO 19019KT 9999 -SHRA OVC046/// 07/05
                        Q1005=
201903160500 METAR COR LROD 160500Z 21014KT 180V240 8000 -RA BKN045 07/05
                        Q1006=
201903160530 METAR LROD 160530Z 22017KT 5000 -RA OVC045 07/05 Q1007=
201903160600 METAR LROD 160600Z 22015KT 9000 -RA OVC045 07/06 Q1007=
201903160630 METAR LROD 160630Z 21013KT 9999 -RA BKN045 07/06 Q1007=
201903160700 METAR LROD 160700Z 21013KT 9999 -RA BKN045 07/06 Q1007=
201903160730 METAR LROD 160730Z 22012KT 9999 SCT045 08/07 Q1007 R01/29//95=
201903160800 METAR COR LROD 160800Z 26016KT CAVOK 09/05 Q1007 R01/29//95=
201903160830 METAR LROD 160830Z 27018KT CAVOK 08/04 Q1008 R01/29//95=
201903160900 METAR LROD 160900Z AUTO 27017KT 9999 BKN085/// 09/05 Q1008=
201903160930 METAR LROD 160930Z 27017KT CAVOK 08/04 Q1008 R01/29//95=
201903161000 METAR LROD 161000Z 27016KT CAVOK 09/04 Q1009 R01/CLRD//=
201903161030 METAR LROD 161030Z 28018KT CAVOK 09/03 Q1009=
201903161100 METAR COR LROD 161100Z 28016KT CAVOK 09/03 Q1009=
201903161130 METAR LROD 161130Z 28018KT CAVOK 10/03 Q1010=
201903161200 METAR LROD 161200Z 28016KT CAVOK 10/03 Q1010=
201903161230 METAR COR LROD 161230Z 27014KT CAVOK 10/03 Q1010=
201903161300 METAR COR LROD 161300Z 27012KT CAVOK 10/03 Q1010=
201903161330 METAR LROD 161330Z 27011KT CAVOK 10/03 Q1010=
201903161400 METAR LROD 161400Z 26012KT CAVOK 10/03 Q1011=
201903161430 METAR LROD 161430Z 26011KT CAVOK 10/03 Q1011=
201903161500 METAR LROD 161500Z 24010KT CAVOK 10/03 Q1011=
201903161530 METAR LROD 161530Z 25009KT CAVOK 09/03 Q1011=
201903161600 METAR LROD 161600Z 23007KT CAVOK 09/03 Q1011=
201903161630 METAR LROD 161630Z 23007KT CAVOK 08/03 Q1012=
201903161700 METAR LROD 161700Z 24009KT CAVOK 08/03 Q1012=
201903161730 METAR LROD 161730Z 22006KT CAVOK 08/03 Q1012=
201903161800 METAR LROD 161800Z 23007KT CAVOK 08/03 Q1012=
201903161830 METAR LROD 161830Z AUTO 25008KT 9999 SCT110/// BKN130///
                        07/03 Q1012=
201903161900 METAR LROD 161900Z AUTO 20005KT 9999 BKN100/// 06/03 Q1013=
201903161930 METAR LROD 161930Z AUTO 14005KT 9999 BKN100/// 07/03 Q1013=
201903162000 METAR LROD 162000Z AUTO 16007KT 9999 SCT090/// BKN180///
                        06/04 Q1013=
201903162030 METAR LROD 162030Z AUTO 19007KT 9999 FEW110/// BKN170///
                        07/04 Q1013=
201903162100 METAR LROD 162100Z AUTO 20008KT 9999 FEW110/// BKN130///
                        BKN170/// 07/04 Q1013=
201903162130 METAR LROD 162130Z AUTO 21006KT 9999 BKN080/// BKN095///
                        07/04 Q1013=
201903162200 METAR LROD 162200Z AUTO 19005KT 9999 SCT080/// BKN095///
                        OVC120/// 07/04 Q1014=
201903162230 METAR LROD 162230Z AUTO 18006KT 9999 FEW030/// BKN130///
                        06/04 Q1014=
201903162300 METAR LROD 162300Z AUTO 22007KT 9999 FEW033/// SCT040///
                        OVC080/// 07/04 Q1014=
201903162330 METAR LROD 162330Z AUTO 20006KT 9999 BKN034/// BKN041///
                        07/04 Q1014=
201903170000 METAR LROD 170000Z AUTO 18007KT 9999 FEW036/// SCT075///
                        OVC100/// 07/04 Q1014=
201903170030 METAR LROD 170030Z AUTO 18006KT 9999 FEW037/// BKN100///
                        07/04 Q1014=
201903170100 METAR LROD 170100Z AUTO 17005KT 9999 BKN070/// OVC110///
                        07/04 Q1013=
201903170130 METAR LROD 170130Z AUTO 15003KT 110V170 9999 OVC065/// 07/04
                        Q1013=
201903170200 METAR LROD 170200Z AUTO 17006KT 9999 BKN070/// OVC085///
                        07/04 Q1013=
201903170230 METAR LROD 170230Z AUTO 19008KT 9999 BKN095/// 08/04 Q1013=
201903170300 METAR LROD 170300Z AUTO 19011KT 9999 FEW070/// BKN095///
                        08/04 Q1013=
201903170330 METAR LROD 170330Z AUTO 18010KT 9999 BKN065/// 08/04 Q1013=
201903170400 METAR LROD 170400Z AUTO 18009KT 9999 FEW065/// 08/03 Q1013=
201903170430 METAR LROD 170430Z AUTO 18010KT 9999 FEW055/// 07/03 Q1013=
201903170500 METAR LROD 170500Z 18010KT CAVOK 08/03 Q1013=
201903170530 METAR LROD 170530Z 17010KT CAVOK 08/04 Q1013=
201903170600 METAR LROD 170600Z 17011KT CAVOK 10/04 Q1013=
201903170630 METAR LROD 170630Z 18010KT CAVOK 11/05 Q1013=
201903170700 METAR LROD 170700Z 19014KT CAVOK 12/05 Q1013=
201903170730 METAR LROD 170730Z 19016KT CAVOK 12/05 Q1013=
201903170800 METAR LROD 170800Z 19018KT CAVOK 13/06 Q1013=
201903170830 METAR LROD 170830Z 20018KT CAVOK 14/06 Q1013=
201903170900 METAR LROD 170900Z 20019KT CAVOK 15/07 Q1013=
201903170930 METAR LROD 170930Z 19017KT CAVOK 16/08 Q1013=
201903171000 METAR LROD 171000Z 21015KT CAVOK 17/08 Q1013=
201903171030 METAR LROD 171030Z 20017KT CAVOK 17/08 Q1013=
201903171100 METAR LROD 171100Z 20018KT CAVOK 17/07 Q1013=
201903171130 METAR LROD 171130Z 21017KT CAVOK 18/07 Q1012=
201903171200 METAR LROD 171200Z 20018KT CAVOK 19/07 Q1012=
201903171230 METAR LROD 171230Z 21018KT CAVOK 19/07 Q1012=
201903171300 METAR LROD 171300Z 20018KT CAVOK 20/07 Q1011=
201903171330 METAR LROD 171330Z 20017KT CAVOK 20/07 Q1011=
201903171400 METAR LROD 171400Z 20015KT CAVOK 20/07 Q1011=
201903171430 METAR LROD 171430Z 19016KT CAVOK 20/07 Q1010=
201903171500 METAR LROD 171500Z 19013KT CAVOK 19/07 Q1010=
201903171530 METAR LROD 171530Z 18013KT CAVOK 19/07 Q1010=
201903171600 METAR LROD 171600Z 18012KT CAVOK 19/06 Q1010=
201903171630 METAR LROD 171630Z 18011KT CAVOK 18/07 Q1010=
201903171700 METAR LROD 171700Z 18011KT CAVOK 17/06 Q1010=
201903171730 METAR LROD 171730Z 16009KT CAVOK 15/06 Q1010=
201903171800 METAR LROD 171800Z 16009KT CAVOK 15/07 Q1009=
201903171830 METAR LROD 171830Z 15008KT CAVOK 15/06 Q1009=
201903171900 METAR LROD 171900Z 15008KT CAVOK 15/06 Q1009=
201903171930 METAR LROD 171930Z AUTO 14006KT 9999 NCD 15/05 Q1009=
201903172000 METAR LROD 172000Z AUTO 12007KT 9999 NCD 13/05 Q1009=
201903172030 METAR LROD 172030Z AUTO 13007KT 9999 NCD 13/05 Q1009=
201903172100 METAR LROD 172100Z AUTO 12007KT 9999 NCD 13/05 Q1008=
201903172130 METAR LROD 172130Z AUTO 12007KT 9999 NCD 13/04 Q1008=
201903172200 METAR LROD 172200Z AUTO 10006KT 9999 NCD 11/04 Q1008=
201903172230 METAR LROD 172230Z AUTO 11007KT 9999 NCD 12/04 Q1008=
201903172300 METAR LROD 172300Z AUTO 10008KT 9999 NCD 12/04 Q1008=
201903172330 METAR LROD 172330Z AUTO 11009KT 9999 NCD 12/04 Q1008=
201903180000 METAR LROD 180000Z AUTO 12008KT 9999 NCD 13/04 Q1007=
201903180030 METAR LROD 180030Z AUTO 14005KT 110V180 9999 NCD 12/03 Q1008=
201903180100 METAR LROD 180100Z AUTO 25010KT 9999 NCD 11/04 Q1008=
201903180130 METAR LROD 180130Z AUTO 22010KT 9999 NCD 10/04 Q1009=
201903180200 METAR LROD 180200Z AUTO 19010KT 9999 NCD 09/04 Q1009=
201903180230 METAR LROD 180230Z AUTO 19010KT 9999 NCD 09/04 Q1009=
201903180300 METAR LROD 180300Z AUTO 18010KT 9999 NCD 09/04 Q1009=
201903180330 METAR LROD 180330Z AUTO 19011KT 9999 NCD 09/05 Q1009=
201903180400 METAR LROD 180400Z AUTO 19012KT 9999 NCD 10/05 Q1010=
201903180430 METAR LROD 180430Z AUTO 20013KT 9999 NCD 09/05 Q1010=
201903180500 METAR LROD 180500Z 21011KT CAVOK 09/05 Q1010=
201903180530 METAR LROD 180530Z 21013KT CAVOK 10/05 Q1011=
201903180600 METAR LROD 180600Z 21011KT CAVOK 10/06 Q1011=
201903180630 METAR LROD 180630Z 21012KT CAVOK 10/05 Q1012=
201903180700 METAR LROD 180700Z 20013KT CAVOK 11/05 Q1012=
201903180730 METAR LROD 180730Z 21013KT CAVOK 12/05 Q1012=
201903180800 METAR LROD 180800Z 21014KT CAVOK 13/05 Q1012=
201903180830 METAR LROD 180830Z 20013KT CAVOK 14/05 Q1012=
201903180900 METAR LROD 180900Z 20016KT CAVOK 14/05 Q1012=
201903180930 METAR LROD 180930Z 22014KT CAVOK 14/05 Q1013=
201903181000 METAR LROD 181000Z 22014KT CAVOK 14/05 Q1013=
201903181030 METAR LROD 181030Z 22012KT CAVOK 15/05 Q1013=
201903181100 METAR LROD 181100Z 21012KT CAVOK 15/05 Q1013=
201903181130 METAR LROD 181130Z 23009KT 200V260 CAVOK 15/05 Q1013=
201903181200 METAR LROD 181200Z 22009KT 190V270 CAVOK 16/05 Q1013=
201903181230 METAR LROD 181230Z 21009KT CAVOK 17/05 Q1013=
201903181300 METAR LROD 181300Z 25008KT 210V280 CAVOK 17/05 Q1013=
201903181330 METAR COR LROD 181330Z 25010KT 210V280 CAVOK 17/04 Q1012=
201903181400 METAR LROD 181400Z 23008KT CAVOK 17/04 Q1012=
201903181430 METAR LROD 181430Z 24007KT 210V280 CAVOK 17/04 Q1012=
201903181500 METAR LROD 181500Z 27008KT CAVOK 16/05 Q1012=
201903181530 METAR LROD 181530Z 27007KT CAVOK 16/05 Q1013=
201903181600 METAR LROD 181600Z 29010KT CAVOK 15/05 Q1013=
201903181630 METAR LROD 181630Z 30011KT CAVOK 14/04 Q1013=
201903181700 METAR LROD 181700Z 29009KT CAVOK 12/04 Q1014=
201903181730 METAR LROD 181730Z 30005KT CAVOK 10/04 Q1014=
201903181800 METAR LROD 181800Z 28004KT 240V320 CAVOK 09/04 Q1014=
201903181830 METAR LROD 181830Z 29003KT CAVOK 08/03 Q1015=
201903181900 METAR LROD 181900Z VRB01KT CAVOK 07/03 Q1015=
201903181930 METAR LROD 181930Z AUTO 35012KT 9999 FEW130/// 08/04 Q1016=
201903182000 METAR LROD 182000Z AUTO 36012KT 9999 SCT130/// 08/03 Q1016=
201903182030 METAR LROD 182030Z AUTO 34010KT 9999 SCT065/// BKN085///
                        BKN110/// 08/03 Q1017=
201903182200 METAR LROD 182200Z AUTO 01005KT 340V040 9999 -SHRA SCT055///
                        BKN070/// 07/04 Q1018=
201903182230 METAR LROD 182230Z AUTO 36006KT 9999 -SHRA BKN060/// BKN110///
                        06/04 Q1018=
201903182300 METAR LROD 182300Z AUTO 32004KT 9999 -DZ SCT060/// BKN075///
                        07/04 Q1019=
201903182330 METAR LROD 182330Z AUTO 01007KT 9999 -RA BKN055/// 06/04
                        Q1019=
201903190000 METAR LROD 190000Z AUTO 01006KT 9999 -DZ BKN050/// 07/04
                        Q1019=
201903190030 METAR LROD 190030Z AUTO 04005KT 9999 OVC055/// 07/04 Q1019
                        REDZ=
201903190100 METAR LROD 190100Z AUTO 03006KT 9999 BKN055/// 07/04 Q1019=
201903190130 METAR LROD 190130Z AUTO 03004KT 9999 OVC055/// 07/03 Q1019=
201903190200 METAR LROD 190200Z AUTO 03003KT 9999 BKN055/// 07/03 Q1019=
201903190230 METAR LROD 190230Z AUTO 33003KT 9999 OVC065/// 06/04 Q1019=
201903190300 METAR LROD 190300Z AUTO 35005KT 9999 FEW065/// BKN080///
                        06/04 Q1019=
201903190330 METAR LROD 190330Z AUTO 01005KT 9999 BKN085/// 06/04 Q1019=
201903190400 METAR LROD 190400Z AUTO 35005KT 9999 BKN080/// OVC140///
                        06/03 Q1019=
201903190430 METAR LROD 190430Z AUTO 01004KT 9999 OVC080/// 06/03 Q1020=
201903190500 METAR COR LROD 190500Z 34006KT CAVOK 06/03 Q1020=
201903190530 METAR COR LROD 190530Z 35005KT CAVOK 06/03 Q1020=
201903190600 METAR LROD 190600Z 36006KT 330V030 CAVOK 06/03 Q1020=
201903190630 METAR LROD 190630Z 34009KT CAVOK 07/03 Q1020=
201903190700 METAR LROD 190700Z 36007KT 320V040 CAVOK 07/03 Q1021=
201903190730 METAR LROD 190730Z 01009KT CAVOK 07/03 Q1021=
201903190800 METAR LROD 190800Z 02008KT CAVOK 08/03 Q1021=
201903190830 METAR LROD 190830Z 02010KT CAVOK 08/03 Q1021=
201903190900 METAR COR LROD 190900Z 01011KT CAVOK 08/03 Q1021=
201903190930 METAR LROD 190930Z 02011KT CAVOK 09/02 Q1021=
201903191000 METAR COR LROD 191000Z 05007KT 010V090 CAVOK 10/03 Q1021=
201903191030 METAR COR LROD 191030Z 03009KT 010V070 CAVOK 10/03 Q1021=
201903191100 METAR LROD 191100Z 05006KT 010V080 CAVOK 11/03 Q1021=
201903191130 METAR COR LROD 191130Z 01009KT CAVOK 11/02 Q1021=
201903191200 METAR LROD 191200Z 05007KT 010V090 CAVOK 12/02 Q1021=
201903191230 METAR LROD 191230Z 04007KT 020V090 CAVOK 13/02 Q1020=
201903191300 METAR LROD 191300Z 07012KT CAVOK 13/02 Q1020=
201903191330 METAR LROD 191330Z 04007KT 010V080 CAVOK 13/01 Q1021=
201903191400 METAR LROD 191400Z 02005KT 340V060 CAVOK 13/00 Q1021=
201903191430 METAR LROD 191430Z 03007KT 360V070 CAVOK 13/M02 Q1021=
201903191500 METAR LROD 191500Z 02008KT 350V050 CAVOK 13/M02 Q1021=
201903191530 METAR COR LROD 191530Z 34015KT CAVOK 11/M03 Q1021=
201903191600 METAR LROD 191600Z 34014KT CAVOK 11/M03 Q1022=
201903191630 METAR LROD 191630Z 35012KT CAVOK 10/M04 Q1022=
201903191700 METAR LROD 191700Z 36011KT CAVOK 10/M03 Q1023=
201903191730 METAR LROD 191730Z 01010KT CAVOK 09/M03 Q1023=
201903191800 METAR LROD 191800Z 01008KT CAVOK 09/M03 Q1024=
201903191830 METAR LROD 191830Z 36009KT CAVOK 09/M02 Q1024=
201903191900 METAR LROD 191900Z 36010KT CAVOK 09/M02 Q1024=
201903191930 METAR LROD 191930Z AUTO 36007KT 9999 OVC075/// 09/M02 Q1025=
201903192000 METAR LROD 192000Z AUTO 35006KT 9999 OVC075/// 08/M02 Q1025=
201903192030 METAR LROD 192030Z AUTO 36006KT 9999 OVC065/// 08/M02 Q1025=
201903192100 METAR LROD 192100Z AUTO 01006KT 9999 FEW065/// BKN120///
                        08/M02 Q1025=
201903192130 METAR LROD 192130Z AUTO 36006KT 9999 BKN065/// 08/M02 Q1025=
201903192200 METAR LROD 192200Z AUTO 01006KT 9999 BKN060/// OVC120///
                        08/M02 Q1025=
201903192230 METAR LROD 192230Z AUTO 36005KT 9999 BKN065/// BKN120///
                        07/M01 Q1025=
201903192300 METAR LROD 192300Z AUTO 36006KT 9999 BKN065/// 07/M01 Q1026=
201903192330 METAR LROD 192330Z AUTO 01008KT 9999 BKN070/// 07/M01 Q1026=
201903200000 METAR LROD 200000Z AUTO 02008KT 9999 BKN070/// BKN100///
                        07/M01 Q1026=
201903200030 METAR LROD 200030Z AUTO 01008KT 350V050 9999 FEW070/// BKN100///
                        07/M02 Q1026=
201903200100 METAR LROD 200100Z AUTO 01007KT 9999 FEW070/// BKN100///
                        07/M01 Q1026=
201903200130 METAR LROD 200130Z AUTO 02008KT 9999 FEW070/// OVC100///
                        07/M01 Q1026=
201903200200 METAR LROD 200200Z AUTO 03006KT 9999 FEW070/// BKN100///
                        06/M02 Q1027=
201903200230 METAR LROD 200230Z AUTO 02007KT 9999 FEW070/// BKN110///
                        06/M01 Q1027=
201903200300 METAR LROD 200300Z AUTO 02006KT 9999 BKN100/// BKN110///
                        06/M01 Q1027=
201903200330 METAR LROD 200330Z AUTO 02006KT 360V060 9999 BKN100/// 06/M01
                        Q1027=
201903200400 METAR LROD 200400Z AUTO 01008KT 9999 SCT100/// BKN120///
                        05/M02 Q1027=
201903200430 METAR LROD 200430Z AUTO 02008KT 9999 BKN110/// 05/M02 Q1027=
201903200500 METAR LROD 200500Z 03006KT CAVOK 05/M02 Q1028=
201903200530 METAR LROD 200530Z 04006KT CAVOK 05/M02 Q1028=
201903200600 METAR LROD 200600Z 04006KT 010V080 CAVOK 05/M02 Q1028=
201903200630 METAR LROD 200630Z 02006KT 350V060 CAVOK 06/M01 Q1029=
201903200700 METAR LROD 200700Z 02009KT CAVOK 07/M01 Q1029=
201903200730 METAR LROD 200730Z 03009KT CAVOK 07/M01 Q1029=
201903200800 METAR LROD 200800Z 02010KT CAVOK 07/M01 Q1029=
201903200830 METAR LROD 200830Z 01010KT CAVOK 08/M01 Q1030=
201903200900 METAR LROD 200900Z 01010KT CAVOK 08/M01 Q1030=
201903200930 METAR LROD 200930Z 01011KT 340V040 CAVOK 10/M01 Q1030=
201903201000 METAR LROD 201000Z 34011KT CAVOK 10/M01 Q1030=
201903201030 METAR LROD 201030Z 36009KT 320V030 CAVOK 11/M01 Q1030=
201903201100 METAR LROD 201100Z 01009KT CAVOK 11/M02 Q1030=
201903201130 METAR LROD 201130Z 35008KT 320V040 CAVOK 12/M02 Q1030=
201903201200 METAR LROD 201200Z 01007KT 330V090 CAVOK 12/M02 Q1030=
201903201230 METAR LROD 201230Z 31006KT 260V350 CAVOK 12/M03 Q1029=
201903201300 METAR LROD 201300Z 32006KT 270V010 CAVOK 13/M03 Q1029=
201903201330 METAR LROD 201330Z 36008KT 320V040 CAVOK 13/M02 Q1029=
201903201400 METAR LROD 201400Z 01006KT 330V080 CAVOK 13/M02 Q1029=
201903201430 METAR LROD 201430Z 02007KT 350V050 CAVOK 13/M02 Q1029=
201903201500 METAR LROD 201500Z 02006KT 340V060 CAVOK 13/M03 Q1029=
201903201530 METAR LROD 201530Z 03008KT 360V060 CAVOK 12/M03 Q1030=
201903201600 METAR LROD 201600Z 01009KT CAVOK 12/M02 Q1030=
201903201630 METAR LROD 201630Z 36006KT 330V050 CAVOK 10/M02 Q1030=
201903201700 METAR LROD 201700Z 36006KT CAVOK 09/M02 Q1030=
201903201730 METAR LROD 201730Z 34006KT CAVOK 08/M01 Q1031=
201903201800 METAR LROD 201800Z 36007KT CAVOK 08/M02 Q1031=
201903201830 METAR LROD 201830Z 35008KT CAVOK 08/M03 Q1031=
201903201900 METAR LROD 201900Z 36010KT CAVOK 08/M04 Q1032=
201903201930 METAR LROD 201930Z AUTO 36011KT 9999 NCD 07/M04 Q1032=
201903202000 METAR LROD 202000Z AUTO 01009KT 9999 NCD 06/M04 Q1032=
201903202030 METAR LROD 202030Z AUTO 01008KT 9999 NCD 07/M04 Q1032=
201903202100 METAR LROD 202100Z AUTO 02007KT 9999 NCD 06/M04 Q1033=
201903202130 METAR LROD 202130Z AUTO 06004KT 9999 NCD 06/M04 Q1033=
201903202200 METAR LROD 202200Z AUTO 05006KT 9999 NCD 06/M04 Q1033=
201903202230 METAR LROD 202230Z AUTO 09004KT 9999 NCD 05/M04 Q1033=
201903202300 METAR LROD 202300Z AUTO 36003KT 9999 NCD 04/M04 Q1033=
201903202330 METAR LROD 202330Z AUTO 02004KT 9999 NCD 03/M04 Q1034=
201903210000 METAR LROD 210000Z AUTO 02004KT 9999 NCD 04/M04 Q1034=
201903210030 METAR LROD 210030Z AUTO 03004KT 9999 NCD 04/M04 Q1033=
201903210100 METAR LROD 210100Z AUTO 01003KT 9999 NCD 02/M04 Q1033=
201903210130 METAR LROD 210130Z AUTO 36003KT 9999 NCD 01/M04 Q1033=
201903210200 METAR LROD 210200Z AUTO 00000KT 9999 NCD M00/M04 Q1033=
201903210230 METAR LROD 210230Z AUTO 10003KT 9999 NCD M00/M04 Q1033=
201903210300 METAR LROD 210300Z AUTO 08002KT 9999 NCD M02/M04 Q1033=
201903210330 METAR LROD 210330Z AUTO 10003KT 9999 NCD M02/M03 Q1034=
201903210400 METAR LROD 210400Z AUTO 11005KT 9999 NCD M02/M03 Q1034=
201903210430 METAR LROD 210430Z AUTO 10004KT 9999 NCD M02/M03 Q1034=
201903210500 METAR LROD 210500Z 11003KT CAVOK M02/M03 Q1034=
201903210530 METAR LROD 210530Z 10003KT CAVOK M00/M02 Q1034=
201903210600 METAR LROD 210600Z 12003KT CAVOK 01/M02 Q1035=
201903210630 METAR LROD 210630Z 10002KT CAVOK 04/M01 Q1035=
201903210700 METAR LROD 210700Z 07002KT CAVOK 05/M02 Q1035=
201903210730 METAR LROD 210730Z 33003KT CAVOK 06/M02 Q1035=
201903210800 METAR LROD 210800Z 35005KT 300V030 CAVOK 07/M04 Q1035=
201903210830 METAR LROD 210830Z 36007KT 330V060 CAVOK 09/M04 Q1035=
201903210900 METAR LROD 210900Z 34007KT 320V030 CAVOK 09/M04 Q1035=
201903210930 METAR LROD 210930Z 36010KT CAVOK 10/M04 Q1035=
201903211000 METAR LROD 211000Z 04010KT CAVOK 11/M04 Q1035=
201903211030 METAR LROD 211030Z 02010KT 350V060 CAVOK 11/M05 Q1034=
201903211100 METAR LROD 211100Z 34007KT 310V050 CAVOK 11/M03 Q1034=
201903211130 METAR LROD 211130Z 01010KT 320V070 CAVOK 12/M03 Q1034=
201903211200 METAR LROD 211200Z 36007KT 330V040 CAVOK 12/M04 Q1034=
201903211230 METAR LROD 211230Z 01005KT 310V060 CAVOK 12/M04 Q1033=
201903211300 METAR LROD 211300Z 02006KT 350V060 CAVOK 13/M03 Q1033=
201903211330 METAR LROD 211330Z 34007KT 300V020 CAVOK 13/M05 Q1032=
201903211400 METAR LROD 211400Z VRB03KT CAVOK 13/M04 Q1032=
201903211430 METAR LROD 211430Z 03005KT 330V100 CAVOK 13/M04 Q1032=
201903211500 METAR LROD 211500Z 01004KT 320V050 CAVOK 13/M05 Q1032=
201903211530 METAR LROD 211530Z 02005KT CAVOK 13/M04 Q1032=
201903211600 METAR LROD 211600Z 03004KT 360V080 CAVOK 12/M05 Q1032=
201903211630 METAR LROD 211630Z 03003KT CAVOK 11/M05 Q1032=
201903211700 METAR LROD 211700Z 06003KT CAVOK 11/M05 Q1032=
201903211730 METAR LROD 211730Z 23002KT CAVOK 09/M04 Q1032=
201903211800 METAR LROD 211800Z VRB01KT CAVOK 09/M04 Q1032=
201903211830 METAR LROD 211830Z 16002KT CAVOK 06/M03 Q1032=
201903211900 METAR LROD 211900Z 19003KT CAVOK 06/M03 Q1032=
201903211930 METAR LROD 211930Z AUTO 14002KT 9999 FEW220/// 04/M03 Q1032=
201903212000 METAR LROD 212000Z AUTO 11003KT 9999 FEW220/// 03/M03 Q1032=
201903212030 METAR LROD 212030Z AUTO 08003KT 7000 FEW190/// 03/M02 Q1032=
201903212100 METAR LROD 212100Z AUTO 10004KT 6000 NCD 03/M02 Q1032=
201903212130 METAR LROD 212130Z AUTO 11007KT 8000 NCD 03/M02 Q1032=
201903212200 METAR LROD 212200Z AUTO 10005KT 8000 NCD 03/M02 Q1032=
201903212230 METAR LROD 212230Z AUTO 10005KT 9999 NCD 03/M02 Q1032=
201903212300 METAR LROD 212300Z AUTO 10005KT 9999 NCD 03/M02 Q1032=
201903212330 METAR LROD 212330Z AUTO 11006KT 9999 NCD 02/M02 Q1032=
201903220000 METAR LROD 220000Z AUTO 10006KT 9999 NCD 02/M02 Q1032=
201903220030 METAR LROD 220030Z AUTO 10006KT 9999 NCD 03/M02 Q1032=
201903220100 METAR LROD 220100Z AUTO 11006KT 9999 NCD 01/M02 Q1032=
201903220130 METAR LROD 220130Z AUTO 12006KT 9999 NCD 01/M02 Q1032=
201903220200 METAR LROD 220200Z AUTO 10006KT 9999 FEW180/// 02/M02 Q1032=
201903220230 METAR LROD 220230Z AUTO 11005KT 9999 BKN180/// 02/M02 Q1032=
201903220300 METAR LROD 220300Z AUTO 12005KT 9999 BKN180/// 02/M02 Q1032=
201903220330 METAR LROD 220330Z AUTO 11005KT 9999 BKN180/// 01/M02 Q1032=
201903220400 METAR LROD 220400Z AUTO 11005KT 9999 FEW180/// 01/M02 Q1032=
201903220430 METAR LROD 220430Z AUTO 10005KT 9999 NCD 02/M02 Q1032=
201903220500 METAR COR LROD 220500Z 09005KT CAVOK 03/M02 Q1032=
201903220530 METAR LROD 220530Z 10005KT CAVOK 03/M02 Q1032=
201903220600 METAR LROD 220600Z 10006KT CAVOK 04/M02 Q1032=
201903220630 METAR LROD 220630Z 10006KT CAVOK 06/M02 Q1032=
201903220700 METAR COR LROD 220700Z 10005KT CAVOK 08/M01 Q1032=
201903220730 METAR LROD 220730Z 12003KT 100V160 CAVOK 09/M02 Q1032=
201903220800 METAR LROD 220800Z VRB02KT CAVOK 12/M01 Q1032=
201903220830 METAR COR LROD 220830Z VRB03KT CAVOK 13/00 Q1032=
201903220900 METAR LROD 220900Z AUTO 36007KT 310V040 9999 NCD 13/02 Q1032=
201903220930 METAR LROD 220930Z 01008KT 340V050 CAVOK 14/03 Q1032=
201903221000 METAR LROD 221000Z 02007KT 350V070 CAVOK 14/03 Q1032=
201903221030 METAR LROD 221030Z 03006KT 320V080 CAVOK 15/03 Q1031=
201903221100 METAR LROD 221100Z 02009KT CAVOK 14/03 Q1031=
201903221130 METAR LROD 221130Z 02008KT CAVOK 15/03 Q1031=
201903221200 METAR COR LROD 221200Z 35009KT CAVOK 16/03 Q1030=
201903221230 METAR LROD 221230Z 33005KT 280V050 CAVOK 16/04 Q1030=
201903221300 METAR LROD 221300Z 04008KT 350V080 CAVOK 16/03 Q1030=
201903221330 METAR LROD 221330Z 03010KT CAVOK 16/04 Q1029=
201903221400 METAR LROD 221400Z 02008KT CAVOK 16/04 Q1029=
201903221430 METAR LROD 221430Z 02011KT CAVOK 16/05 Q1029=
201903221500 METAR LROD 221500Z 01012KT CAVOK 16/06 Q1028=
201903221530 METAR LROD 221530Z 02012KT CAVOK 15/05 Q1028=
201903221600 METAR LROD 221600Z 01009KT CAVOK 14/05 Q1028=
201903221630 METAR LROD 221630Z 03006KT CAVOK 14/05 Q1028=
201903221700 METAR LROD 221700Z 03005KT CAVOK 13/05 Q1028=
201903221730 METAR LROD 221730Z 04004KT CAVOK 12/05 Q1028=
201903221800 METAR LROD 221800Z 04004KT CAVOK 11/05 Q1028=
201903221830 METAR LROD 221830Z 05004KT CAVOK 11/05 Q1029=
201903221900 METAR LROD 221900Z AUTO 04005KT 9999 NCD 11/05 Q1029=
201903221930 METAR LROD 221930Z AUTO 03005KT 9999 NCD 10/05 Q1029=
201903222000 METAR LROD 222000Z AUTO 03005KT 9999 NCD 10/05 Q1029=
201903222030 METAR LROD 222030Z AUTO 03006KT 9999 NCD 10/05 Q1029=
201903222100 METAR LROD 222100Z AUTO 02006KT 9999 NCD 09/05 Q1029=
201903222130 METAR LROD 222130Z AUTO 04004KT 020V080 9999 NCD 08/05 Q1029=
201903222200 METAR LROD 222200Z AUTO 09003KT 050V110 9999 NCD 08/05 Q1029=
201903222230 METAR LROD 222230Z AUTO 18002KT 9999 NCD 06/04 Q1029=
201903222300 METAR LROD 222300Z AUTO 01002KT 240V050 9999 NCD 07/04 Q1028=
201903222330 METAR LROD 222330Z AUTO 02005KT 9999 NCD 07/04 Q1028=
201903230000 METAR LROD 230000Z AUTO 02005KT 9999 NCD 06/04 Q1028=
201903230030 METAR LROD 230030Z AUTO 02006KT 9999 NCD 06/04 Q1028=
201903230100 METAR LROD 230100Z AUTO 02006KT 9999 NCD 06/04 Q1028=
201903230130 METAR LROD 230130Z AUTO 09003KT 050V130 9999 NCD 06/04 Q1027=
201903230200 METAR LROD 230200Z AUTO 06004KT 9999 NCD 06/03 Q1027=
201903230230 METAR LROD 230230Z AUTO 06004KT 9999 NCD 06/04 Q1027=
201903230300 METAR LROD 230300Z AUTO 07003KT 040V100 9999 NCD 06/03 Q1027=
201903230330 METAR LROD 230330Z AUTO 05005KT 9999 NCD 05/03 Q1027=
201903230400 METAR LROD 230400Z AUTO 07004KT 9999 NCD 05/03 Q1027=
201903230430 METAR LROD 230430Z AUTO 05005KT 9999 NCD 05/03 Q1027=
201903230500 METAR LROD 230500Z 06006KT CAVOK 06/03 Q1027=
201903230530 METAR LROD 230530Z 07005KT 040V100 CAVOK 06/03 Q1027=
201903230600 METAR LROD 230600Z 06005KT 030V120 CAVOK 07/04 Q1027=
201903230630 METAR LROD 230630Z 05008KT 010V070 CAVOK 08/04 Q1027=
201903230700 METAR LROD 230700Z 04009KT CAVOK 09/04 Q1027=
201903230730 METAR LROD 230730Z 04010KT CAVOK 11/04 Q1027=
201903230800 METAR LROD 230800Z 03008KT 360V070 CAVOK 12/04 Q1027=
201903230830 METAR LROD 230830Z 03011KT 360V060 CAVOK 13/02 Q1027=
201903230900 METAR LROD 230900Z 03010KT 360V060 CAVOK 13/02 Q1027=
201903230930 METAR LROD 230930Z 03009KT 360V070 CAVOK 14/03 Q1027=
201903231000 METAR LROD 231000Z 36012KT CAVOK 14/02 Q1027=
201903231030 METAR LROD 231030Z 01010KT CAVOK 15/01 Q1026=
201903231100 METAR LROD 231100Z 04008KT CAVOK 16/00 Q1026=
201903231130 METAR LROD 231130Z 04008KT 360V070 CAVOK 16/00 Q1026=
201903231200 METAR LROD 231200Z 02011KT 340V070 CAVOK 16/M02 Q1025=
201903231230 METAR LROD 231230Z 03010KT 360V070 CAVOK 17/M01 Q1025=
201903231300 METAR LROD 231300Z 36011KT 330V030 CAVOK 17/M04 Q1025=
201903231330 METAR LROD 231330Z 02009KT 350V060 CAVOK 18/M03 Q1024=
201903231400 METAR LROD 231400Z 02012KT CAVOK 18/M04 Q1024=
201903231430 METAR LROD 231430Z 02010KT 350V050 CAVOK 17/M03 Q1024=
201903231500 METAR LROD 231500Z 04007KT 360V070 CAVOK 18/M04 Q1024=
201903231530 METAR LROD 231530Z 03008KT 360V060 CAVOK 17/M03 Q1024=
201903231600 METAR LROD 231600Z 04007KT 360V080 CAVOK 17/M03 Q1024=
201903231630 METAR LROD 231630Z 04005KT CAVOK 16/M03 Q1024=
201903231700 METAR LROD 231700Z 06003KT CAVOK 14/M02 Q1024=
201903231730 METAR LROD 231730Z 07004KT CAVOK 12/M03 Q1024=
201903231800 METAR LROD 231800Z 07004KT CAVOK 11/M02 Q1024=
201903231830 METAR LROD 231830Z 11004KT CAVOK 10/M02 Q1024=
201903231900 METAR LROD 231900Z 11004KT CAVOK 08/M01 Q1024=
201903231930 METAR LROD 231930Z AUTO 11004KT 7000 NCD 09/M02 Q1024=
201903232000 METAR LROD 232000Z AUTO 10005KT 9000 NCD 08/M02 Q1024=
201903232030 METAR LROD 232030Z AUTO 10005KT 8000 NCD 07/M02 Q1024=
201903232100 METAR LROD 232100Z AUTO 12007KT 8000 NCD 05/M02 Q1024=
201903232130 METAR LROD 232130Z AUTO 10006KT 9999 NCD 05/M02 Q1024=
201903232200 METAR LROD 232200Z AUTO 11006KT 9999 NCD 04/M02 Q1024=
201903232230 METAR LROD 232230Z AUTO 10007KT 9999 NCD 05/M02 Q1024=
201903232300 METAR LROD 232300Z AUTO 12005KT 9999 NCD 03/M02 Q1024=
201903232330 METAR LROD 232330Z AUTO 11006KT 9999 NCD 03/M02 Q1024=
201903240000 METAR LROD 240000Z AUTO 11006KT 9999 NCD 03/M03 Q1024=
201903240030 METAR LROD 240030Z AUTO 11007KT 9999 NCD 03/M03 Q1023=
201903240100 METAR LROD 240100Z AUTO 11008KT 9999 NCD 03/M03 Q1023=
201903240130 METAR LROD 240130Z AUTO 11007KT 9999 NCD 02/M03 Q1023=
201903240200 METAR LROD 240200Z AUTO 10006KT 9999 NCD 03/M03 Q1023=
201903240230 METAR LROD 240230Z AUTO 11006KT 9999 NCD 03/M03 Q1023=
201903240300 METAR LROD 240300Z AUTO 11007KT 9999 NCD 02/M03 Q1023=
201903240330 METAR LROD 240330Z AUTO 11007KT 9999 NCD 02/M03 Q1023=
201903240400 METAR LROD 240400Z AUTO 11008KT 9999 NCD 02/M03 Q1023=
201903240430 METAR LROD 240430Z AUTO 11007KT 9999 NCD 02/M03 Q1023=
201903240500 METAR COR LROD 240500Z 11006KT CAVOK 03/M03 Q1023=
201903240530 METAR LROD 240530Z 11006KT CAVOK 04/M02 Q1023=
201903240600 METAR LROD 240600Z 12005KT CAVOK 05/M02 Q1023=
201903240630 METAR LROD 240630Z 10006KT CAVOK 07/M02 Q1023=
201903240700 METAR LROD 240700Z 13005KT 100V160 CAVOK 10/M01 Q1023=
201903240730 METAR LROD 240730Z 15003KT CAVOK 14/01 Q1023=
201903240800 METAR LROD 240800Z 20008KT 160V220 CAVOK 14/M04 Q1023=
201903240830 METAR LROD 240830Z 22008KT CAVOK 15/M01 Q1023=
201903240900 METAR LROD 240900Z 22007KT 190V250 CAVOK 16/01 Q1022=
201903240930 METAR LROD 240930Z 22007KT 190V250 CAVOK 17/03 Q1022=
201903241000 METAR LROD 241000Z 23007KT 190V250 CAVOK 17/03 Q1022=
201903241030 METAR LROD 241030Z 23008KT CAVOK 18/04 Q1022=
201903241100 METAR LROD 241100Z 23007KT 180V280 CAVOK 19/05 Q1021=
201903241130 METAR LROD 241130Z 23007KT 200V280 CAVOK 19/04 Q1021=
201903241200 METAR LROD 241200Z 21006KT 180V260 CAVOK 19/04 Q1020=
201903241230 METAR LROD 241230Z 21008KT CAVOK 20/04 Q1020=
201903241300 METAR LROD 241300Z 25006KT 180V280 CAVOK 20/04 Q1019=
201903241330 METAR LROD 241330Z 25006KT 200V290 CAVOK 20/03 Q1019=
201903241400 METAR LROD 241400Z 22007KT CAVOK 20/04 Q1018=
201903241430 METAR LROD 241430Z 23004KT 180V270 CAVOK 21/03 Q1018=
201903241500 METAR LROD 241500Z 25007KT 210V280 CAVOK 20/03 Q1017=
201903241530 METAR LROD 241530Z 22007KT 180V240 CAVOK 20/02 Q1017=
201903241600 METAR LROD 241600Z 22007KT CAVOK 19/02 Q1017=
201903241630 METAR LROD 241630Z 20007KT CAVOK 17/03 Q1017=
201903241700 METAR LROD 241700Z 20006KT CAVOK 15/03 Q1017=
201903241730 METAR LROD 241730Z 18005KT CAVOK 13/03 Q1017=
201903241800 METAR LROD 241800Z 16006KT CAVOK 14/02 Q1017=
201903241830 METAR LROD 241830Z 17007KT CAVOK 13/03 Q1016=
201903241900 METAR LROD 241900Z 17007KT CAVOK 13/04 Q1016=
201903241930 METAR LROD 241930Z AUTO 18008KT 9999 NCD 13/03 Q1016=
201903242000 METAR LROD 242000Z AUTO 17008KT 9999 NCD 13/03 Q1016=
201903242030 METAR LROD 242030Z AUTO 17009KT 9999 NCD 13/03 Q1016=
201903242100 METAR LROD 242100Z AUTO 18009KT 9999 NCD 13/03 Q1015=
201903242130 METAR LROD 242130Z AUTO 18008KT 9999 BKN065/// 14/02 Q1015=
201903242200 METAR LROD 242200Z AUTO 19010KT 9999 SCT065/// 14/02 Q1015=
201903242230 METAR LROD 242230Z AUTO 19011KT 9999 BKN070/// 14/01 Q1015=
201903242300 METAR LROD 242300Z AUTO 19012KT 9999 BKN080/// 14/00 Q1014=
201903242330 METAR LROD 242330Z AUTO 19011KT 9999 FEW075/// 13/00 Q1014=
201903250000 METAR LROD 250000Z AUTO 20013KT 9999 BKN080/// 12/00 Q1014=
201903250030 METAR LROD 250030Z AUTO 20011KT 9999 NCD 12/M00 Q1013=
201903250100 METAR LROD 250100Z AUTO 19011KT 9999 SCT095/// 12/M00 Q1013=
201903250130 METAR LROD 250130Z AUTO 20011KT 9999 FEW095/// 11/M00 Q1013=
201903250200 METAR LROD 250200Z AUTO 20012KT 9999 SCT090/// 11/M01 Q1012=
201903250230 METAR LROD 250230Z AUTO 20013KT 9999 FEW090/// BKN100///
                        11/M01 Q1012=
201903250300 METAR LROD 250300Z AUTO 21013KT 9999 FEW075/// OVC110///
                        11/M02 Q1012=
201903250330 METAR LROD 250330Z AUTO 21012KT 9999 BKN070/// BKN110///
                        11/M01 Q1012=
201903250400 METAR LROD 250400Z AUTO 21010KT 9999 BKN070/// 11/M01 Q1012=
201903250430 METAR LROD 250430Z AUTO 19008KT 9999 FEW075/// SCT090///
                        BKN110/// 09/M01 Q1012=
201903250500 METAR COR LROD 250500Z 19009KT 9999 -SHRA FEW055CB 10/M00
                        Q1012=
201903250530 METAR LROD 250530Z 21007KT 9999 FEW053CB 09/02 Q1011 R01/29//95=
201903250600 METAR LROD 250600Z 21005KT CAVOK 10/03 Q1011 R01/29//95=
201903250630 METAR LROD 250630Z 22009KT CAVOK 10/01 Q1012 R01/29//95=
201903250700 METAR LROD 250700Z 20010KT CAVOK 10/02 Q1012 R01/29//95=
201903250730 METAR LROD 250730Z 24008KT CAVOK 11/04 Q1012 R01/CLRD//=
201903250800 METAR LROD 250800Z 24006KT 210V290 CAVOK 12/04 Q1012=
201903250830 METAR LROD 250830Z 25009KT CAVOK 13/04 Q1012=
201903250900 METAR COR LROD 250900Z 29012KT CAVOK 14/05 Q1012=
201903250930 METAR LROD 250930Z 31011KT CAVOK 14/05 Q1012=
201903251000 METAR LROD 251000Z 32009KT CAVOK 14/05 Q1012=
201903251030 METAR LROD 251030Z 30011KT CAVOK 14/05 Q1012=
201903251100 METAR LROD 251100Z 28010KT CAVOK 14/04 Q1011=
201903251130 METAR LROD 251130Z 29011KT CAVOK 14/04 Q1011=
201903251200 METAR LROD 251200Z 28011KT CAVOK 14/04 Q1011=
201903251230 METAR LROD 251230Z 26009KT CAVOK 15/04 Q1010=
201903251300 METAR LROD 251300Z 26012KT CAVOK 15/01 Q1010=
201903251330 METAR LROD 251330Z 26012KT CAVOK 15/02 Q1010=
201903251400 METAR LROD 251400Z 26012KT CAVOK 15/03 Q1010=
201903251430 METAR LROD 251430Z 26012KT CAVOK 14/02 Q1009=
201903251500 METAR LROD 251500Z 26011KT CAVOK 13/03 Q1009=
201903251530 METAR LROD 251530Z 26012KT CAVOK 13/03 Q1009=
201903251600 METAR LROD 251600Z 25010KT CAVOK 13/03 Q1009=
201903251630 METAR LROD 251630Z 23010KT CAVOK 12/03 Q1009=
201903251700 METAR LROD 251700Z 23008KT CAVOK 11/03 Q1009=
201903251730 METAR LROD 251730Z 23009KT CAVOK 11/03 Q1009=
201903251800 METAR LROD 251800Z 23010KT CAVOK 11/04 Q1010=
201903251830 METAR LROD 251830Z 23010KT CAVOK 11/03 Q1010=
201903251900 METAR LROD 251900Z 23007KT CAVOK 10/04 Q1010=
201903251930 METAR LROD 251930Z AUTO 26009KT 9999 SCT100/// BKN120///
                        10/02 Q1011=
201903252000 METAR LROD 252000Z AUTO 28006KT 9999 SCT100/// BKN120///
                        09/00 Q1011=
201903252030 METAR LROD 252030Z AUTO 27007KT 9999 FEW075/// BKN110///
                        09/M01 Q1011=
201903252100 METAR LROD 252100Z AUTO /////KT //// R19////// ///// Q////=
201903252130 METAR LROD 252130Z AUTO /////KT //// R19////// ///// Q////=
201903252200 METAR LROD 252200Z AUTO /////KT //// R19////// ///// Q////=
201903252230 METAR LROD 252230Z AUTO /////KT //// R19////// ///// Q////=
201903252300 METAR LROD 252300Z AUTO /////KT //// R19////// ///// Q////=
201903252330 METAR LROD 252330Z NIL=
201903260000 METAR LROD 260000Z AUTO /////KT //// R19////// ///// Q////=
201903260030 METAR LROD 260030Z AUTO /////KT //// R19////// ///// Q////=
201903260100 METAR LROD 260100Z AUTO /////KT //// R19////// ///// Q////=
201903260130 METAR LROD 260130Z AUTO /////KT //// R19////// ///// Q////=
201903260200 METAR LROD 260200Z AUTO /////KT //// R19////// ///// Q////=
201903260230 METAR LROD 260230Z AUTO /////KT //// R19////// ///// Q////=
201903260300 METAR LROD 260300Z AUTO /////KT //// R19////// ///// Q////=
201903260330 METAR LROD 260330Z AUTO /////KT //// R19////// ///// Q////=
201903260400 METAR LROD 260400Z NIL=
201903260430 METAR LROD 260430Z NIL=
201903260500 METAR LROD 260500Z AUTO /////KT //// R19////// ///// Q////=
201903260530 METAR LROD 260530Z AUTO /////KT //// R19////// ///// Q////=
201903260600 METAR LROD 260600Z AUTO /////KT //// R19////// ///// Q////=
201903260630 METAR LROD 260630Z 02009 CAVOK 05/01 Q////=
201903260700 METAR LROD 260700Z AUTO /////KT //// R19////// ///// Q////=
201903260730 METAR LROD 260730Z 04010KT CAVOK 07/01 Q////=
201903260800 METAR LROD 260800Z 03010KT CAVOK 08/02 Q////=
201903260830 METAR LROD 260830Z 03011KT CAVOK 10/03 Q////=
201903260900 METAR LROD 260900Z 03008KT CAVOK 10/03 Q////=
201903260930 METAR LROD 260930Z 03009KT CAVOK 10/03 Q////=
201903261000 METAR LROD 261000Z 04008KT CAVOK 10/M01 Q1020=
201903261030 METAR COR LROD 261030Z 03007KT 360V070 CAVOK 11/M01 Q1020=
201903261100 METAR COR LROD 261100Z 03009KT 350V060 CAVOK 10/M02 Q1020=
201903261130 METAR LROD 261130Z 36010KT 320V030 CAVOK 11/M03 Q1020=
201903261200 METAR LROD 261200Z 35009KT 320V050 CAVOK 11/M03 Q1020=
201903261230 METAR LROD 261230Z 01010KT 330V040 CAVOK 10/M03 Q1020=
201903261300 METAR LROD 261300Z 35009KT 320V020 CAVOK 11/M04 Q1019=
201903261330 METAR LROD 261330Z 02011KT 350V050 CAVOK 11/M05 Q1019=
201903261400 METAR LROD 261400Z 35009KT 320V030 CAVOK 11/M04 Q1019=
201903261430 METAR LROD 261430Z 35009KT CAVOK 11/M04 Q1019=
201903261500 METAR LROD 261500Z 02007KT 340V060 CAVOK 10/M03 Q1020=
201903261530 METAR LROD 261530Z VRB04KT CAVOK 10/M04 Q1020=
201903261600 METAR LROD 261600Z VRB01KT CAVOK 10/M04 Q1020=
201903261630 METAR LROD 261630Z 30001KT CAVOK 10/M05 Q1020=
201903261700 METAR LROD 261700Z 19003KT CAVOK 08/M04 Q1020=
201903261730 METAR LROD 261730Z 17003KT CAVOK 07/M04 Q1020=
201903261800 METAR LROD 261800Z 17005KT CAVOK 04/M04 Q1020=
201903261830 METAR LROD 261830Z 16005KT CAVOK 04/M04 Q1020=
201903261900 METAR LROD 261900Z 17006KT CAVOK 01/M04 Q1020=
201903261930 METAR LROD 261930Z AUTO 19008KT 9999 NCD 01/M03 Q1020=
201903262000 METAR LROD 262000Z AUTO 21008KT 9999 NCD 04/M03 Q1020=
201903262030 METAR LROD 262030Z AUTO 22009KT 9999 NCD 04/M03 Q1020=
201903262100 METAR LROD 262100Z AUTO 24008KT 9999 NCD 04/M04 Q1020=
201903262130 METAR LROD 262130Z AUTO 24007KT 9999 NCD 04/M04 Q1021=
201903262200 METAR LROD 262200Z AUTO 23006KT 9999 NCD 03/M04 Q1021=
201903262230 METAR LROD 262230Z AUTO 24005KT 9999 NCD 03/M04 Q1021=
201903262300 METAR LROD 262300Z AUTO 20004KT 160V220 9999 NCD 01/M04 Q1021=
201903262330 METAR LROD 262330Z AUTO 23003KT 9999 NCD 00/M04 Q1021=
201903270000 METAR LROD 270000Z AUTO 20003KT 9999 NCD M01/M05 Q1021=
201903270030 METAR LROD 270030Z AUTO 22003KT 9999 NCD M00/M04 Q1021=
201903270100 METAR LROD 270100Z AUTO VRB01KT 9999 NCD M01/M05 Q1022=
201903270130 METAR LROD 270130Z AUTO 20004KT 9999 NCD M02/M05 Q1022=
201903270200 METAR LROD 270200Z AUTO 20004KT 9999 NCD M02/M05 Q1022=
201903270230 METAR LROD 270230Z AUTO 08003KT 050V110 9999 NCD M01/M04
                        Q1023=
201903270300 METAR LROD 270300Z AUTO 10005KT 9999 NCD M01/M04 Q1023=
201903270330 METAR LROD 270330Z AUTO 11004KT 9999 NCD M02/M04 Q1023=
201903270400 METAR LROD 270400Z AUTO 10002KT 9999 SCT065/// M02/M05 Q1024=
201903270430 METAR LROD 270430Z AUTO 10003KT 9999 BKN065/// M02/M04 Q1024=
201903270500 METAR LROD 270500Z 07004KT CAVOK 00/M03 Q1024=
201903270530 METAR LROD 270530Z 04007KT 010V070 CAVOK 03/M04 Q1025=
201903270600 METAR LROD 270600Z 04010KT 010V070 CAVOK 04/M05 Q1025=
201903270630 METAR LROD 270630Z 04010KT 010V080 CAVOK 05/M06 Q1026=
201903270700 METAR LROD 270700Z 05011KT 010V070 CAVOK 05/M05 Q1026=
201903270730 METAR LROD 270730Z 05011KT 020V080 CAVOK 05/M05 Q1026=
201903270800 METAR LROD 270800Z 04010KT 010V080 CAVOK 06/M04 Q1026=
201903270830 METAR LROD 270830Z 04010KT 010V070 CAVOK 07/M05 Q1026=
201903270900 METAR LROD 270900Z 04012KT 010V070 CAVOK 07/M07 Q1027=
201903270930 METAR LROD 270930Z 01014KT CAVOK 08/M07 Q1027=
201903271000 METAR LROD 271000Z 02014KT 360V080 CAVOK 09/M08 Q1027=
201903271030 METAR LROD 271030Z 04010KT 010V080 CAVOK 09/M09 Q1027=
201903271100 METAR COR LROD 271100Z 01012KT CAVOK 09/M10 Q1027=
201903271130 METAR LROD 271130Z 04010KT 360V080 CAVOK 10/M09 Q1027=
201903271200 METAR LROD 271200Z 02012KT 350V050 CAVOK 10/M10 Q1027=
201903271230 METAR LROD 271230Z 05010KT 010V090 CAVOK 10/M11 Q1027=
201903271300 METAR LROD 271300Z 04010KT 360V080 CAVOK 11/M11 Q1027=
201903271330 METAR LROD 271330Z 04011KT 350V090 CAVOK 10/M10 Q1027=
201903271400 METAR LROD 271400Z 03012KT 010V070 CAVOK 10/M10 Q1027=
201903271430 METAR LROD 271430Z 05011KT 020V080 CAVOK 10/M10 Q1027=
201903271500 METAR LROD 271500Z 05008KT 010V090 CAVOK 10/M10 Q1027=
201903271530 METAR LROD 271530Z 05011KT CAVOK 09/M10 Q1027=
201903271600 METAR LROD 271600Z 03008KT CAVOK 09/M11 Q1027=
201903271630 METAR LROD 271630Z 04007KT 010V080 CAVOK 09/M11 Q1027=
201903271700 METAR LROD 271700Z 05005KT CAVOK 08/M11 Q1027=
201903271730 METAR LROD 271730Z 06005KT CAVOK 07/M12 Q1028=
201903271800 METAR LROD 271800Z 05003KT CAVOK 06/M12 Q1028=
201903271830 METAR LROD 271830Z 05003KT CAVOK 05/M12 Q1028=
201903271900 METAR LROD 271900Z 14003KT CAVOK 03/M11 Q1028=
201903271930 METAR LROD 271930Z AUTO 16003KT 9999 NCD M01/M09 Q1029=
201903272000 METAR LROD 272000Z AUTO 12003KT 9999 NCD 00/M09 Q1029=
201903272030 METAR LROD 272030Z AUTO 09003KT 9999 NCD 02/M09 Q1029=
201903272100 METAR LROD 272100Z AUTO 10006KT 8000 NCD 01/M08 Q1029=
201903272130 METAR LROD 272130Z AUTO 11004KT 9999 NCD 01/M08 Q1029=
201903272200 METAR LROD 272200Z AUTO 12005KT 9999 NCD M00/M08 Q1030=
201903272230 METAR LROD 272230Z AUTO 11006KT 9999 NCD M01/M08 Q1030=
201903272300 METAR LROD 272300Z AUTO 09005KT 9999 NCD M00/M08 Q1030=
201903272330 METAR LROD 272330Z AUTO 10005KT 9999 NCD 00/M08 Q1030=
201903280000 METAR LROD 280000Z AUTO 11006KT 9999 NCD M02/M07 Q1030=
201903280030 METAR LROD 280030Z AUTO 10006KT 9999 NCD M01/M07 Q1030=
201903280100 METAR LROD 280100Z AUTO 10007KT 9999 NCD M02/M07 Q1030=
201903280130 METAR LROD 280130Z AUTO 10006KT 9999 NCD M01/M08 Q1030=
201903280200 METAR LROD 280200Z AUTO 09006KT 9999 NCD M01/M07 Q1030=
201903280230 METAR LROD 280230Z AUTO 10006KT 9999 NCD M01/M08 Q1030=
201903280300 METAR LROD 280300Z AUTO 09006KT 9999 NCD M01/M08 Q1029=
201903280330 METAR LROD 280330Z AUTO 10005KT 9999 NCD M01/M08 Q1030=
201903280400 METAR LROD 280400Z AUTO 10006KT 9999 NCD M02/M08 Q1030=
201903280430 METAR LROD 280430Z AUTO 10005KT 9999 NCD M02/M08 Q1030=
201903280500 METAR LROD 280500Z 12006KT CAVOK M02/M07 Q1030=
201903280530 METAR LROD 280530Z 10005KT CAVOK M00/M07 Q1030=
201903280600 METAR LROD 280600Z 09005KT CAVOK 02/M06 Q1030=
201903280630 METAR LROD 280630Z 10006KT 080V140 CAVOK 03/M07 Q1030=
201903280700 METAR LROD 280700Z 10005KT 070V130 CAVOK 05/M07 Q1031=
201903280730 METAR LROD 280730Z 10004KT 060V140 CAVOK 07/M06 Q1031=
201903280800 METAR LROD 280800Z 07004KT 030V120 CAVOK 09/M08 Q1031=
201903280830 METAR LROD 280830Z VRB03KT CAVOK 10/M07 Q1030=
201903280900 METAR LROD 280900Z VRB03KT CAVOK 10/M07 Q1030=
201903280930 METAR LROD 280930Z 02006KT 330V050 CAVOK 12/M07 Q1030=
201903281000 METAR LROD 281000Z 34004KT CAVOK 11/M07 Q1030=
201903281030 METAR COR LROD 281030Z 32005KT 270V030 CAVOK 12/M07 Q1030=
201903281100 METAR LROD 281100Z 01008KT 330V040 CAVOK 12/M07 Q1030=
201903281130 METAR LROD 281130Z 02008KT 330V080 CAVOK 12/M06 Q1030=
201903281200 METAR LROD 281200Z 32007KT 280V350 CAVOK 13/M06 Q1029=
201903281230 METAR LROD 281230Z 03008KT 350V090 CAVOK 13/M06 Q1029=
201903281300 METAR LROD 281300Z 02006KT 310V100 CAVOK 13/M05 Q1029=
201903281330 METAR LROD 281330Z VRB05KT CAVOK 13/M06 Q1028=
201903281400 METAR LROD 281400Z 36007KT CAVOK 13/M05 Q1028=
201903281430 METAR LROD 281430Z 36005KT 320V080 CAVOK 13/M06 Q1028=
201903281500 METAR LROD 281500Z 36004KT 290V050 CAVOK 13/M05 Q1028=
201903281530 METAR LROD 281530Z 02006KT CAVOK 13/M05 Q1028=
201903281600 METAR LROD 281600Z 04006KT 350V070 CAVOK 13/M05 Q1028=
201903281630 METAR LROD 281630Z 02006KT 360V060 CAVOK 12/M05 Q1028=
201903281700 METAR LROD 281700Z 02009KT CAVOK 12/M05 Q1028=
201903281730 METAR LROD 281730Z 03008KT CAVOK 11/M05 Q1028=
201903281800 METAR LROD 281800Z 05006KT CAVOK 10/M05 Q1029=
201903281830 METAR LROD 281830Z 05004KT CAVOK 09/M04 Q1029=
201903281900 METAR LROD 281900Z 04005KT CAVOK 08/M04 Q1029=
201903281930 METAR LROD 281930Z AUTO 04005KT 9999 NCD 08/M03 Q1029=
201903282000 METAR LROD 282000Z AUTO 04006KT 9999 NCD 08/M02 Q1029=
201903282030 METAR LROD 282030Z AUTO 04006KT 9999 NCD 08/M01 Q1030=
201903282100 METAR LROD 282100Z AUTO 05005KT 9999 NCD 07/M01 Q1030=
201903282130 METAR LROD 282130Z AUTO 06003KT 9999 NCD 07/M01 Q1030=
201903282200 METAR LROD 282200Z AUTO 05003KT 9999 NCD 07/M00 Q1030=
201903282230 METAR LROD 282230Z AUTO 03004KT 9999 NCD 06/M00 Q1030=
201903282300 METAR LROD 282300Z AUTO 06003KT 020V110 9999 NCD 04/M01 Q1030=
201903282330 METAR LROD 282330Z AUTO 02002KT 9999 NCD 03/M01 Q1030=
201903290000 METAR LROD 290000Z AUTO 08002KT 050V110 9999 NCD 01/M02 Q1030=
201903290030 METAR LROD 290030Z AUTO 05003KT 9999 FEW240/// 02/M01 Q1030=
201903290100 METAR LROD 290100Z AUTO 07002KT 9999 SCT240/// 02/M01 Q1030=
201903290130 METAR LROD 290130Z AUTO 09004KT 9999 NCD 01/M02 Q1030=
201903290200 METAR LROD 290200Z AUTO 06005KT 9999 NCD 01/M02 Q1030=
201903290230 METAR LROD 290230Z AUTO 06006KT 9999 NCD 02/M01 Q1030=
201903290300 METAR LROD 290300Z AUTO 08005KT 9999 NCD 01/M01 Q1030=
201903290330 METAR LROD 290330Z AUTO 08004KT 9999 NCD 01/M02 Q1030=
201903290400 METAR LROD 290400Z AUTO 10003KT 9999 NCD 00/M02 Q1031=
201903290430 METAR LROD 290430Z AUTO 07002KT 9999 NCD M01/M02 Q1031=
201903290500 METAR COR LROD 290500Z 06004KT CAVOK 01/M02 Q1031=
201903290530 METAR COR LROD 290530Z 06003KT CAVOK 03/M00 Q1031=
201903290600 METAR LROD 290600Z 07003KT 030V100 CAVOK 04/00 Q1031=
201903290630 METAR LROD 290630Z 06003KT 030V090 CAVOK 06/01 Q1031=
201903290700 METAR LROD 290700Z 07004KT 030V130 CAVOK 09/02 Q1031=
201903290730 METAR LROD 290730Z 06009KT 030V100 CAVOK 10/02 Q1031=
201903290800 METAR LROD 290800Z 02011KT CAVOK 11/01 Q1031=
201903290830 METAR COR LROD 290830Z 04013KT CAVOK 11/M00 Q1031=
201903290900 METAR COR LROD 290900Z 03012KT 360V060 CAVOK 11/00 Q1031=
201903290930 METAR COR LROD 290930Z 04010KT 360V070 CAVOK 12/00 Q1030=
201903291000 METAR LROD 291000Z 02013KT CAVOK 12/M01 Q1030=
201903291030 METAR LROD 291030Z 03010KT CAVOK 14/00 Q1030=
201903291100 METAR LROD 291100Z 06012KT 020V080 CAVOK 14/M00 Q1030=
201903291130 METAR COR LROD 291130Z 05010KT 020V090 CAVOK 15/M01 Q1029=
201903291200 METAR LROD 291200Z 04011KT 360V070 CAVOK 14/M01 Q1029=
201903291230 METAR LROD 291230Z 01012KT 330V050 CAVOK 15/M00 Q1028=
201903291300 METAR LROD 291300Z 04011KT 010V070 CAVOK 15/M01 Q1028=
201903291330 METAR LROD 291330Z 04010KT CAVOK 15/M01 Q1028=
201903291400 METAR LROD 291400Z 01010KT CAVOK 15/00 Q1028=
201903291430 METAR LROD 291430Z 03009KT 360V070 CAVOK 15/M00 Q1027=
201903291500 METAR LROD 291500Z 02010KT 340V040 CAVOK 15/M02 Q1027=
201903291530 METAR LROD 291530Z 03009KT CAVOK 15/M02 Q1027=
201903291600 METAR COR LROD 291600Z 04007KT CAVOK 14/M02 Q1027=
201903291630 METAR LROD 291630Z 05007KT CAVOK 14/M02 Q1027=
201903291700 METAR LROD 291700Z 06004KT CAVOK 13/M02 Q1027=
201903291730 METAR LROD 291730Z 05002KT CAVOK 11/M02 Q1027=
201903291800 METAR LROD 291800Z 33003KT 290V360 CAVOK 10/M02 Q1027=
201903291830 METAR LROD 291830Z 03002KT CAVOK 09/M01 Q1027=
201903291900 METAR LROD 291900Z 03003KT CAVOK 07/M02 Q1027=
201903291930 METAR LROD 291930Z AUTO 12002KT 9999 NCD 04/M02 Q1027=
201903292000 METAR LROD 292000Z AUTO 00000KT 9999 NCD 05/M01 Q1027=
201903292030 METAR LROD 292030Z AUTO 12004KT 6000 NCD 06/M01 Q1027=
201903292100 METAR LROD 292100Z AUTO 10001KT 6000 NCD 04/M01 Q1027=
201903292130 METAR LROD 292130Z AUTO 02003KT 310V050 7000 NCD 04/M01 Q1027=
201903292200 METAR LROD 292200Z AUTO 02002KT 360V060 7000 NCD 03/M01 Q1027=
201903292230 METAR LROD 292230Z AUTO 13003KT 7000 NCD 01/M02 Q1027=
201903292300 METAR LROD 292300Z AUTO 13005KT 9000 NCD 03/M01 Q1027=
201903292330 METAR LROD 292330Z AUTO 12003KT 9999 NCD 01/M02 Q1027=
201903300000 METAR LROD 300000Z AUTO 11005KT 9999 NCD 02/M01 Q1026=
201903300030 METAR LROD 300030Z AUTO 08005KT 9999 NCD 02/M01 Q1026=
201903300100 METAR LROD 300100Z AUTO 11003KT 070V150 9999 NCD 01/M02 Q1026=
201903300130 METAR LROD 300130Z AUTO 11004KT 9999 NCD 02/M01 Q1026=
201903300200 METAR LROD 300200Z AUTO 13004KT 9999 NCD 01/M01 Q1026=
201903300230 METAR LROD 300230Z AUTO 10005KT 9999 NCD 01/M01 Q1026=
201903300300 METAR LROD 300300Z AUTO 10004KT 9999 NCD 01/M02 Q1026=
201903300330 METAR LROD 300330Z AUTO 09005KT 9999 NCD 01/M01 Q1026=
201903300400 METAR LROD 300400Z AUTO 09005KT 9999 NCD 01/M01 Q1026=
201903300430 METAR LROD 300430Z AUTO 08005KT 9999 NCD 02/M01 Q1026=
201903300500 METAR COR LROD 300500Z 08005KT CAVOK 03/M00 Q1026=
201903300530 METAR LROD 300530Z 12003KT CAVOK 03/M00 Q1026=
201903300600 METAR LROD 300600Z 13004KT 100V160 CAVOK 05/01 Q1026=
201903300630 METAR LROD 300630Z 10004KT 060V130 CAVOK 06/01 Q1026=
201903300700 METAR LROD 300700Z 06002KT CAVOK 09/02 Q1026=
201903300730 METAR LROD 300730Z 36003KT CAVOK 10/02 Q1026=
201903300800 METAR LROD 300800Z 36005KT 310V040 CAVOK 12/03 Q1026=
201903300830 METAR LROD 300830Z 35004KT 300V060 CAVOK 13/04 Q1026=
201903300900 METAR LROD 300900Z 36006KT 330V030 CAVOK 14/03 Q1026=
201903300930 METAR LROD 300930Z 36006KT 310V050 CAVOK 14/03 Q1026=
201903301000 METAR LROD 301000Z 34009KT CAVOK 15/04 Q1026=
201903301030 METAR LROD 301030Z 01007KT 320V060 CAVOK 15/04 Q1025=
201903301100 METAR LROD 301100Z VRB06KT CAVOK 16/04 Q1025=
201903301130 METAR LROD 301130Z 01008KT CAVOK 16/04 Q1025=
201903301200 METAR LROD 301200Z 34006KT 310V020 CAVOK 16/04 Q1024=
201903301230 METAR LROD 301230Z 02008KT CAVOK 17/03 Q1024=
201903301300 METAR LROD 301300Z VRB03KT CAVOK 18/03 Q1023=
201903301330 METAR LROD 301330Z 36006KT 310V030 CAVOK 18/03 Q1023=
201903301400 METAR LROD 301400Z 35005KT 270V060 CAVOK 18/02 Q1023=
201903301430 METAR LROD 301430Z 01004KT 330V080 CAVOK 19/03 Q1022=
201903301500 METAR LROD 301500Z 36007KT CAVOK 18/01 Q1022=
201903301530 METAR LROD 301530Z 35004KT CAVOK 18/02 Q1022=
201903301600 METAR LROD 301600Z 36002KT 310V040 CAVOK 18/02 Q1022=
201903301630 METAR LROD 301630Z 03003KT CAVOK 17/02 Q1021=
201903301700 METAR LROD 301700Z 00000KT CAVOK 15/02 Q1021=
201903301730 METAR LROD 301730Z 10003KT CAVOK 14/02 Q1021=
201903301800 METAR LROD 301800Z 25003KT 130V260 CAVOK 12/02 Q1022=
201903301830 METAR LROD 301830Z VRB01KT CAVOK 12/02 Q1022=
201903301900 METAR LROD 301900Z 26002KT CAVOK 09/01 Q1022=
201903301930 METAR LROD 301930Z AUTO VRB01KT 9999 NCD 09/02 Q1022=
201903302000 METAR LROD 302000Z AUTO 08003KT 9999 NCD 07/02 Q1022=
201903302030 METAR LROD 302030Z AUTO 09002KT 8000 NCD 06/02 Q1022=
201903302100 METAR LROD 302100Z AUTO 11004KT 6000 NCD 07/02 Q1021=
201903302130 METAR LROD 302130Z AUTO 10006KT 7000 NCD 06/02 Q1021=
201903302200 METAR LROD 302200Z AUTO 11007KT 8000 NCD 06/01 Q1021=
201903302230 METAR LROD 302230Z AUTO 10006KT 9999 NCD 06/01 Q1021=
201903302300 METAR LROD 302300Z AUTO 10006KT 9999 NCD 06/01 Q1021=
201903302330 METAR LROD 302330Z AUTO 10005KT 9999 NCD 05/01 Q1021=
201903310000 METAR LROD 310000Z AUTO 11007KT 9999 NCD 04/01 Q1020=
201903310030 METAR LROD 310030Z AUTO 11003KT 080V140 9999 NCD 04/01 Q1020=
201903310100 METAR LROD 310100Z AUTO 10005KT 9999 NCD 05/01 Q1020=
201903310130 METAR LROD 310130Z AUTO 11007KT 9999 NCD 03/00 Q1020=
201903310200 METAR LROD 310200Z AUTO 11007KT 9999 NCD 03/00 Q1020=
201903310230 METAR LROD 310230Z AUTO 11007KT 9999 NCD 03/00 Q1020=
201903310300 METAR LROD 310300Z AUTO 11007KT 9999 NCD 03/00 Q1020=
201903310330 METAR LROD 310330Z AUTO 10007KT 9999 NCD 03/00 Q1020=
201903310400 METAR LROD 310400Z 07004KT 310V110 CAVOK 03/00 Q1020=
201903310430 METAR LROD 310430Z 11007KT CAVOK 02/00 Q1020=
201903310500 METAR LROD 310500Z 11006KT CAVOK 03/01 Q1020=
201903310530 METAR LROD 310530Z 11006KT CAVOK 05/01 Q1020=
201903310600 METAR LROD 310600Z 11006KT CAVOK 07/02 Q1020=
201903310630 METAR LROD 310630Z 11005KT 070V130 CAVOK 09/02 Q1020=
201903310700 METAR LROD 310700Z 10006KT CAVOK 11/03 Q1020=
201903310730 METAR LROD 310730Z 10005KT 070V130 CAVOK 13/04 Q1020=
201903310800 METAR LROD 310800Z 14003KT CAVOK 16/04 Q1020=
201903310830 METAR LROD 310830Z 27002KT CAVOK 16/04 Q1020=
201903310900 METAR LROD 310900Z 26004KT 160V320 CAVOK 17/04 Q1019=
201903310930 METAR LROD 310930Z 23004KT 160V290 CAVOK 18/02 Q1019=
201903311000 METAR LROD 311000Z VRB03KT CAVOK 18/00 Q1019=
201903311030 METAR LROD 311030Z VRB03KT CAVOK 18/02 Q1019=
201903311100 METAR LROD 311100Z 32007KT 280V350 CAVOK 19/00 Q1018=
201903311130 METAR LROD 311130Z 34006KT 310V020 CAVOK 19/00 Q1018=
201903311200 METAR LROD 311200Z 31004KT 220V020 CAVOK 19/M00 Q1018=
201903311230 METAR LROD 311230Z VRB03KT CAVOK 20/M00 Q1017=
201903311300 METAR LROD 311300Z VRB02KT CAVOK 21/M00 Q1017=
201903311330 METAR LROD 311330Z 33006KT 290V030 CAVOK 20/M01 Q1017=
201903311400 METAR LROD 311400Z 28005KT 240V330 CAVOK 20/M01 Q1016=
201903311430 METAR LROD 311430Z 35007KT 310V030 CAVOK 20/M02 Q1016=
201903311500 METAR LROD 311500Z 32005KT CAVOK 20/M01 Q1016=
201903311530 METAR LROD 311530Z 35005KT 280V020 CAVOK 20/M00 Q1015=
201903311600 METAR LROD 311600Z 32004KT CAVOK 20/M01 Q1015=
201903311630 METAR LROD 311630Z 31004KT CAVOK 19/M01 Q1016=
201903311700 METAR LROD 311700Z 33002KT CAVOK 17/M02 Q1016=
201903311730 METAR LROD 311730Z 00000KT CAVOK 13/M01 Q1016=
201903311800 METAR LROD 311800Z 00000KT CAVOK 12/M00 Q1016=
201903311830 METAR LROD 311830Z AUTO VRB01KT 9999 NCD 10/M01 Q1016=
201903311900 METAR LROD 311900Z AUTO 07001KT 9999 NCD 08/00 Q1016=
201903311930 METAR LROD 311930Z AUTO 09003KT 9999 NCD 07/M00 Q1016=
201903312000 METAR LROD 312000Z AUTO 10006KT 9000 NCD 09/00 Q1016=
201903312030 METAR LROD 312030Z AUTO 10006KT 9999 NCD 08/00 Q1016=
201903312100 METAR LROD 312100Z AUTO 11006KT 9999 NCD 08/00 Q1016=
201903312130 METAR LROD 312130Z AUTO 11006KT 9999 NCD 07/00 Q1016=
201903312200 METAR LROD 312200Z AUTO 10005KT 9999 NCD 07/00 Q1016=
201903312230 METAR LROD 312230Z AUTO 09006KT 9999 NCD 09/00 Q1016=
201903312300 METAR LROD 312300Z AUTO 10005KT 9999 NCD 07/01 Q1016=
201903312330 METAR LROD 312330Z AUTO 09006KT 9999 NCD 08/01 Q1016=
