201903010200 TAF LROD 010200Z 0103/0112 20006KT CAVOK=
201903010500 TAF LROD 010500Z 0106/0115 VRB04KT CAVOK=
201903010800 TAF LROD 010800Z 0109/0118 VRB04KT CAVOK
                      PROB40 TEMPO 0114/0117 5000 -SHRA SCT015
                       SCT030CB=
201903011100 TAF LROD 011100Z 0112/0121 VRB04KT CAVOK
                      PROB40 TEMPO 0114/0117 5000 -SHRA SCT015
                       SCT030CB=
201903011400 TAF LROD 011400Z 0115/0124 29008KT CAVOK
                      TEMPO 0118/0124 5000 -RA BR BKN015 BKN030=
201903011700 TAF LROD 011700Z 0118/0203 25008KT CAVOK
                      TEMPO 0121/0124 5000 -RA BR BKN015 BKN030
                       BECMG 0122/0124 03010KT=
201903011944 TAF AMD LROD 011944Z 0119/0203 CNL=
201903012000 TAF LROD 012000Z NIL=
201903012047 TAF AMD LROD 012047Z 0120/0203 CNL=
201903012300 TAF LROD 012300Z NIL=
201903020200 TAF LROD 020200Z 0203/0212 04008KT CAVOK=
201903020500 TAF LROD 020500Z 0206/0215 02014KT CAVOK
                      BECMG 0213/0215 VRB04KT=
201903020800 TAF LROD 020800Z 0209/0218 02014KT CAVOK
                      BECMG 0213/0215 VRB04KT=
201903021100 TAF LROD 021100Z 0212/0221 01007KT CAVOK=
201903021400 TAF LROD 021400Z 0215/0224 33007KT CAVOK=
201903021700 TAF LROD 021700Z 0218/0303 VRB04KT CAVOK=
201903021944 TAF AMD LROD 021944Z 0219/0303 CNL=
201903022000 TAF LROD 022000Z NIL=
201903022300 TAF LROD 022300Z NIL=
201903030200 TAF LROD 030200Z 0303/0312 12008KT CAVOK
                      TEMPO 0303/0306 3000 BR=
201903030500 TAF LROD 030500Z 0306/0315 VRB04KT CAVOK
                      BECMG 0308/0310 19012KT=
201903030800 TAF LROD 030800Z 0309/0318 21010KT CAVOK
                      PROB30 TEMPO 0315/0318 5000 -RA BR BKN015
                       OVC035=
201903031100 TAF LROD 031100Z 0312/0321 25008KT CAVOK
                      BECMG 0316/0318 19012KT
                      PROB40 TEMPO 0318/0321 5000 -RA BR BKN015
                       OVC035=
201903031400 TAF LROD 031400Z 0315/0324 19010KT 9999 SCT045=
201903031700 TAF LROD 031700Z 0318/0403 19010KT 9999 BKN035=
201903032000 TAF LROD 032000Z NIL=
201903032005 TAF AMD LROD 032005Z 0320/0403 CNL=
201903032300 TAF LROD 032300Z NIL=
201903040200 TAF LROD 040200Z 0403/0412 18014KT CAVOK
                      TEMPO 0406/0412 18017G27KT=
201903040500 TAF LROD 040500Z 0406/0415 19016KT CAVOK
                      TEMPO 0408/0413 19016G26KT=
201903040800 TAF LROD 040800Z 0409/0418 19016KT CAVOK
                      TEMPO 0410/0416 19016G26KT=
201903041100 TAF LROD 041100Z 0412/0421 20018KT CAVOK
                      TEMPO 0414/0421 20018G28KT=
201903041400 TAF LROD 041400Z 0415/0424 20018KT CAVOK
                      TEMPO 0416/0421 20018G28KT=
201903041700 TAF LROD 041700Z 0418/0503 18014KT CAVOK
                      TEMPO 0420/0423 19015G25KT
                      BECMG 0500/0502 24010KT
                      PROB40 TEMPO 0501/0503 5000 -RA BR=
201903042000 TAF LROD 042000Z NIL=
201903042021 TAF AMD LROD 042021Z 0420/0503 CNL=
201903042300 TAF LROD 042300Z NIL=
201903050200 TAF LROD 050200Z 0503/0512 27015KT 9999 SCT040
                      PROB30 TEMPO 0503/0506 5000 -RA
                      PROB30 TEMPO 0508/0512 27015G25KT=
201903050500 TAF LROD 050500Z 0506/0515 24012KT CAVOK
                      TEMPO 0507/0512 27020G30KT=
201903050800 TAF LROD 050800Z 0509/0518 24012KT CAVOK
                      TEMPO 0509/0512 27020G30KT=
201903051100 TAF LROD 051100Z 0512/0521 27015KT CAVOK
                      TEMPO 0512/0515 29015G25KT=
201903051400 TAF LROD 051400Z 0515/0524 27014KT CAVOK
                      TEMPO 0515/0517 28015G25KT=
201903051700 TAF LROD 051700Z 0518/0603 23006KT CAVOK
                      TEMPO 0601/0603 3000 SHRA BKN015 SCT025CB
                       BKN040=
201903051944 TAF AMD LROD 051944Z 0519/0603 CNL=
201903052000 TAF LROD 052000Z NIL=
201903052300 TAF LROD 052300Z NIL=
201903060200 TAF LROD 060200Z 0603/0612 30010KT CAVOK
                      TEMPO 0603/0606 3000 SHRA BKN015 SCT025CB
                       BKN040
                      BECMG 0606/0608 24005KT=
201903060500 TAF LROD 060500Z 0606/0615 16005KT 9999 SCT035=
201903060800 TAF LROD 060800Z 0609/0618 VRB03KT CAVOK
                      BECMG 0615/0617 16010KT=
201903061100 TAF LROD 061100Z 0612/0621 VRB03KT 9999 SCT040
                      BECMG 0617/0619 16010KT=
201903061400 TAF LROD 061400Z 0615/0624 VRB03KT 9999 FEW040
                      BECMG 0617/0619 16010KT=
201903061700 TAF LROD 061700Z 0618/0703 18010KT CAVOK=
201903062000 TAF LROD 062000Z NIL=
201903062300 TAF LROD 062300Z NIL=
201903070200 TAF LROD 070200Z 0703/0712 12006KT CAVOK
                      BECMG 0705/0707 18014KT
                      TEMPO 0708/0712 18018G28KT=
201903070500 TAF LROD 070500Z 0706/0715 19018KT CAVOK
                      TEMPO 0708/0715 19020G35KT=
201903070800 TAF LROD 070800Z 0709/0718 19018KT CAVOK
                      TEMPO 0709/0715 19020G35KT=
201903071100 TAF LROD 071100Z 0712/0721 19020KT CAVOK
                      TEMPO 0712/0715 19020G30KT=
201903071400 TAF LROD 071400Z 0715/0724 19020KT CAVOK
                      TEMPO 0715/0717 19020G30KT
                      PROB40 TEMPO 0721/0724 19010KT=
201903071700 TAF LROD 071700Z 0718/0803 19016KT CAVOK=
201903071958 TAF AMD LROD 071958Z 0719/0803 CNL=
201903072000 TAF LROD 072000Z NIL=
201903072300 TAF LROD 072300Z NIL=
201903080200 TAF LROD 080200Z 0803/0812 20012KT CAVOK=
201903080500 TAF LROD 080500Z 0806/0815 20012KT CAVOK
                      PROB40 TEMPO 0812/0815 27010KT SCT035CB=
201903080800 TAF LROD 080800Z 0809/0818 20012KT CAVOK
                      PROB40 TEMPO 0812/0815 27010KT SCT035CB=
201903081100 TAF LROD 081100Z 0812/0821 23010KT CAVOK
                      PROB40 TEMPO 0813/0816 5000 -SHRA SCT045CB=
201903081400 TAF LROD 081400Z 0815/0824 26010KT 9999 SCT045
                      PROB40 TEMPO 0815/0818 5000 -SHRA SCT040CB
                       BECMG 0818/0820 20008KT=
201903081700 TAF LROD 081700Z 0818/0903 24006KT CAVOK=
201903081953 TAF AMD LROD 081953Z 0819/0903 CNL=
201903082000 TAF LROD 082000Z NIL=
201903082300 TAF LROD 082300Z NIL=
201903090200 TAF LROD 090200Z 0903/0912 20008KT CAVOK
                      TEMPO 0903/0906 5000 -RA BKN015 BKN040=
201903090500 TAF LROD 090500Z 0906/0915 21010KT CAVOK
                      PROB40 TEMPO 0910/0915 SCT030 FEW040CB=
201903090800 TAF LROD 090800Z 0909/0918 21010KT CAVOK
                      PROB40 TEMPO 0910/0915 SCT030 FEW040CB=
201903091100 TAF LROD 091100Z 0912/0921 24014KT CAVOK
                      TEMPO 0912/0915 SCT030CB=
201903091400 TAF LROD 091400Z 0915/0924 22014KT CAVOK
                      PROB30 TEMPO 0915/0918 24015G25KT=
201903091700 TAF LROD 091700Z 0918/1003 22012KT CAVOK
                      PROB40 TEMPO 0922/1001 23015G25KT SCT040CB
                       TEMPO 1001/1003 25016G26KT=
201903091933 TAF AMD LROD 091933Z 0919/1003 CNL=
201903092000 TAF LROD 092000Z NIL=
201903092300 TAF LROD 092300Z NIL=
201903100200 TAF LROD 100200Z 1003/1012 27016KT 9999 SCT040
                      BECMG 1010/1012 21012KT=
201903100500 TAF LROD 100500Z 1006/1015 23012KT CAVOK
                      TEMPO 1010/1015 23015G25KT
                      PROB40 TEMPO 1011/1015 5000 -RA BKN015 BKN040=
201903100800 TAF LROD 100800Z 1009/1018 23010KT CAVOK
                      TEMPO 1010/1015 23015G25KT
                      PROB40 TEMPO 1011/1015 5000 -RA BKN015 BKN040
                       TEMPO 1015/1018 5000 -RA=
201903101100 TAF LROD 101100Z 1012/1021 22012KT CAVOK
                      PROB40 TEMPO 1012/1015 22016G26KT 5000 -RA
                       BKN015 BKN040
                      TEMPO 1016/1021 5000 -RA=
201903101400 TAF LROD 101400Z 1015/1024 19012KT 9999 SCT045
                      TEMPO 1015/1021 5000 -RA=
201903101700 TAF LROD 101700Z 1018/1103 21012KT 9999 SCT045
                      TEMPO 1018/1023 5000 -RA BKN015 OVC025
                      BECMG 1100/1102 27012KT=
201903102000 TAF LROD 102000Z NIL=
201903102010 TAF AMD LROD 102010Z 1020/1103 CNL=
201903102300 TAF LROD 102300Z NIL=
201903110200 TAF LROD 110200Z 1103/1112 29020KT 9999 SCT045
                      TEMPO 1103/1108 30025G35KT=
201903110500 TAF LROD 110500Z 1106/1115 29014KT CAVOK=
201903110800 TAF LROD 110800Z 1109/1118 29017KT CAVOK
                      BECMG 1114/1116 26007KT=
201903111100 TAF LROD 111100Z 1112/1121 29010KT CAVOK=
201903111400 TAF LROD 111400Z 1115/1124 28010KT CAVOK=
201903111700 TAF LROD 111700Z 1118/1203 26007KT CAVOK=
201903111934 TAF AMD LROD 111934Z 1119/1203 CNL=
201903112000 TAF LROD 112000Z NIL=
201903112300 TAF LROD 112300Z NIL=
201903120200 TAF LROD 120200Z 1203/1212 VRB04KT CAVOK
                      BECMG 1210/1212 36010KT=
201903120500 TAF LROD 120500Z 1206/1215 VRB04KT CAVOK
                      BECMG 1209/1211 36010KT=
201903120800 TAF LROD 120800Z 1209/1218 VRB04KT CAVOK
                      BECMG 1209/1211 36010KT
                      BECMG 1216/1218 VRB04KT=
201903121100 TAF LROD 121100Z 1212/1221 36008KT CAVOK=
201903121400 TAF LROD 121400Z 1215/1224 01008KT CAVOK=
201903121700 TAF LROD 121700Z 1218/1303 VRB04KT CAVOK=
201903121947 TAF AMD LROD 121947Z 1219/1303 CNL=
201903122000 TAF LROD 122000Z NIL=
201903122300 TAF LROD 122300Z NIL=
201903130200 TAF LROD 130200Z 1303/1312 11008KT CAVOK
                      BECMG 1305/1307 17010KT=
201903130500 TAF LROD 130500Z 1306/1315 11006KT CAVOK
                      BECMG 1307/1309 19014KT=
201903130800 TAF LROD 130800Z 1309/1318 19012KT CAVOK
                      BECMG 1316/1318 VRB04KT=
201903131100 TAF LROD 131100Z 1312/1321 21012KT CAVOK
                      BECMG 1316/1318 VRB04KT=
201903131400 TAF LROD 131400Z 1315/1324 20008KT CAVOK=
201903131700 TAF LROD 131700Z 1318/1403 VRB04KT CAVOK=
201903132000 TAF LROD 132000Z NIL=
201903132300 TAF LROD 132300Z NIL=
201903140159 TAF LROD 1312/1321 21012KT CAVOK
                      BECMG 1316/1318 VRB04KT=
201903140200 TAF LROD 1312/1321 21012KT CAVOK
                      BECMG 1316/1318 VRB04KT=
201903140306 TAF LROD 1315/1324 20008KT CAVOK=
201903140309 TAF LROD 1315/1324 20008KT CAVOK=
201903140500 TAF LROD 140500Z 1406/1415 12006KT CAVOK
                      BECMG 1408/1410 22010KT=
201903140800 TAF LROD 140800Z 1409/1418 22008KT CAVOK
                      PROB40 TEMPO 1414/1418 SCT040CB=
201903141100 TAF LROD 141100Z 1412/1421 22008KT 9999 SCT045
                      PROB40 TEMPO 1412/1418 SCT040CB=
201903141400 TAF LROD 141400Z 1415/1424 25008KT 9999 SCT045CB
                      BECMG 1417/1419 NSC=
201903141700 TAF LROD 141700Z 1418/1503 19010KT CAVOK=
201903142000 TAF LROD 142000Z NIL=
201903142024 TAF AMD LROD 142024Z 1420/1503 CNL=
201903142300 TAF LROD 142300Z NIL=
201903150200 TAF LROD 150200Z 1503/1512 19010KT 9999 BKN045
                      BECMG 1505/1507 5000 -RA BR BKN020 OVC035
                       TEMPO 1508/1512 3000 RA BKN010 OVC020=
201903150500 TAF LROD 150500Z 1506/1515 21015KT 9999 BKN045
                      TEMPO 1510/1515 5000 -SHRA SCT015 SCT030CB
                       BKN040
                      BECMG 1513/1515 27008KT=
201903150800 TAF LROD 150800Z 1509/1518 21016KT 9999 SCT040
                      TEMPO 1509/1515 5000 -SHRA SCT015 SCT030CB
                       BKN040
                      BECMG 1513/1515 27008KT=
201903151100 TAF LROD 151100Z 1512/1521 21014KT 9999 SCT040
                      PROB40 TEMPO 1512/1515 5000 -SHRA SCT015
                       SCT030CB BKN040
                      BECMG 1513/1515 27008KT=
201903151400 TAF LROD 151400Z 1515/1524 21010KT 9999 BKN040
                      PROB30 TEMPO 1515/1517 SCT015 SCT030CB BKN040
                       BECMG 1521/1523 5000 -RA BR BKN015 BKN030=
201903151700 TAF LROD 151700Z 1518/1603 21010KT CAVOK
                      BECMG 1522/1524 5000 -RA BR BKN015 BKN030
                       PROB30
                      TEMPO 1600/1603 3000 RA BKN010 BKN025=
201903151955 TAF AMD LROD 151955Z 1519/1603 CNL=
201903152000 TAF LROD 152000Z NIL=
201903152300 TAF LROD 152300Z NIL=
201903160200 TAF LROD 160200Z 1603/1612 19015KT 5000 -RA BR BKN015 BKN030
                      BECMG 1606/1608 7000 NSW BKN040
                      BECMG 1610/1612 27012KT
                      TEMPO 1610/1612 5000 -SHRA SCT015 SCT030CB
                       BKN040=
201903160500 TAF LROD 160500Z 1606/1615 21016KT 9999 BKN045
                      TEMPO 1606/1610 5000 -RA BR BKN015 BKN030
                       BECMG 1608/1610 27014KT=
201903160800 TAF LROD 160800Z 1609/1618 27016KT CAVOK
                      TEMPO 1610/1614 27016G26KT=
201903161100 TAF LROD 161100Z 1612/1621 27016KT CAVOK
                      TEMPO 1612/1614 27016G26KT=
201903161400 TAF LROD 161400Z 1615/1624 26012KT CAVOK
                      BECMG 1621/1623 20010KT
                      TEMPO 1621/1624 5000 -RA BKN010 BKN030=
201903161700 TAF LROD 161700Z 1618/1703 23008KT CAVOK
                      TEMPO 1620/1702 5000 -RA BKN010 BKN030=
201903162000 TAF LROD 162000Z NIL=
201903162009 TAF AMD LROD 162009Z 1620/1703 CNL=
201903162300 TAF LROD 162300Z NIL=
201903170200 TAF LROD 170200Z 1703/1712 VRB04KT CAVOK
                      BECMG 1703/1705 20012KT=
201903170500 TAF LROD 170500Z 1706/1715 19015KT CAVOK
                      PROB40 TEMPO 1708/1713 20015G25KT=
201903170800 TAF LROD 170800Z 1709/1718 21018KT CAVOK
                      BECMG 1716/1718 19008KT=
201903171100 TAF LROD 171100Z 1712/1721 21018KT CAVOK
                      BECMG 1716/1718 17008KT=
201903171400 TAF LROD 171400Z 1715/1724 20018KT CAVOK
                      BECMG 1716/1718 17008KT=
201903171700 TAF LROD 171700Z 1718/1803 18010KT CAVOK=
201903171934 TAF AMD LROD 171934Z 1719/1803 CNL=
201903172000 TAF LROD 172000Z NIL=
201903172300 TAF LROD 172300Z NIL=
201903180200 TAF LROD 180200Z 1803/1812 22010KT CAVOK=
201903180500 TAF LROD 180500Z 1806/1815 21012KT CAVOK
                      BECMG 1812/1814 27012KT=
201903180800 TAF LROD 180800Z 1809/1818 20014KT CAVOK
                      BECMG 1812/1814 27014KT
                      BECMG 1816/1818 34010KT=
201903181100 TAF LROD 181100Z 1812/1821 23014KT CAVOK
                      BECMG 1816/1818 34010KT
                      TEMPO 1819/1821 5000 -SHRA SCT040CB=
201903181400 TAF LROD 181400Z 1815/1824 25010KT CAVOK
                      BECMG 1816/1818 34010KT
                      TEMPO 1819/1824 5000 -SHRA SCT040CB=
201903181700 TAF LROD 181700Z 1818/1903 31010KT CAVOK
                      TEMPO 1819/1901 SCT040CB
                      PROB30 TEMPO 1820/1824 5000 -SHRA=
201903181933 TAF AMD LROD 181933Z 1819/1903 CNL=
201903182000 TAF LROD 182000Z NIL=
201903182300 TAF LROD 182300Z NIL=
201903190200 TAF LROD 190200Z 1903/1912 01008KT CAVOK
                      PROB30 TEMPO 1903/1906 FEW030CB BKN040=
201903190500 TAF LROD 190500Z 1906/1915 34005KT CAVOK
                      BECMG 1907/1909 01015KT=
201903190800 TAF LROD 190800Z 1909/1918 03012KT CAVOK=
201903191100 TAF LROD 191100Z 1912/1921 03010KT CAVOK=
201903191400 TAF LROD 191400Z 1915/1924 03007KT CAVOK=
201903191700 TAF LROD 191700Z 1918/2003 35012KT CAVOK=
201903191938 TAF AMD LROD 191938Z 1919/2003 CNL=
201903192000 TAF LROD 192000Z NIL=
201903192300 TAF LROD 192300Z NIL=
201903200200 TAF LROD 200200Z 2003/2012 01010KT CAVOK=
201903200500 TAF LROD 200500Z 2006/2015 01012KT CAVOK=
201903200800 TAF LROD 200800Z 2009/2018 01012KT CAVOK=
201903201100 TAF LROD 201100Z 2012/2021 36012KT CAVOK=
201903201400 TAF LROD 201400Z 2015/2024 01010KT CAVOK=
201903201700 TAF LROD 201700Z 2018/2103 35008KT CAVOK=
201903201947 TAF AMD LROD 201947Z 2019/2103 CNL=
201903202000 TAF LROD 202000Z NIL=
201903202300 TAF LROD 202300Z NIL=
201903210200 TAF LROD 210200Z 2103/2112 01008KT CAVOK=
201903210500 TAF LROD 210500Z 2106/2115 VRB04KT CAVOK=
201903210800 TAF LROD 210800Z 2109/2118 VRB04KT CAVOK=
201903211100 TAF LROD 211100Z 2112/2121 02010KT CAVOK
                      BECMG 2118/2120 VRB04KT=
201903211400 TAF LROD 211400Z 2115/2124 VRB04KT CAVOK=
201903211700 TAF LROD 211700Z 2118/2203 VRB04KT CAVOK=
201903211946 TAF AMD LROD 211946Z 2119/2203 CNL=
201903212000 TAF LROD 212000Z NIL=
201903212300 TAF LROD 212300Z NIL=
201903220200 TAF LROD 220200Z 2203/2212 10006KT CAVOK=
201903220500 TAF LROD 220500Z 2206/2215 09006KT CAVOK=
201903220800 TAF LROD 220800Z 2209/2218 VRB04KT CAVOK=
201903221100 TAF LROD 221100Z 2212/2221 02010KT CAVOK=
201903221400 TAF LROD 221400Z 2215/2224 02008KT CAVOK=
201903221700 TAF LROD 221700Z 2218/2303 02008KT CAVOK
                      TEMPO 2300/2303 3000 BR=
201903222000 TAF LROD 222000Z NIL=
201903222300 TAF LROD 222300Z NIL=
201903230200 TAF LROD 230200Z 2303/2312 02008KT CAVOK=
201903230500 TAF LROD 230500Z 2306/2315 06005KT CAVOK
                      BECMG 2309/2311 02015KT=
201903230800 TAF LROD 230800Z 2309/2318 03012KT CAVOK=
201903231100 TAF LROD 231100Z 2312/2321 03012KT CAVOK
                      BECMG 2316/2318 VRB04KT=
201903231400 TAF LROD 231400Z 2315/2324 03012KT CAVOK
                      BECMG 2316/2318 VRB04KT=
201903231700 TAF LROD 231700Z 2318/2403 VRB04KT CAVOK=
201903231934 TAF AMD LROD 231934Z 2319/2403 CNL=
201903232000 TAF LROD 232000Z NIL=
201903232300 TAF LROD 232300Z NIL=
201903240200 TAF LROD 240200Z 2403/2412 VRB04KT CAVOK=
201903240500 TAF LROD 240500Z 2406/2415 10007KT CAVOK=
201903240800 TAF LROD 240800Z 2409/2418 20008KT CAVOK=
201903241100 TAF LROD 241100Z 2412/2421 21008KT CAVOK=
201903241400 TAF LROD 241400Z 2415/2424 22008KT CAVOK=
201903241700 TAF LROD 241700Z 2418/2503 20008KT CAVOK=
201903241940 TAF AMD LROD 241940Z 2419/2503 CNL=
201903242000 TAF LROD 242000Z NIL=
201903242300 TAF LROD 242300Z NIL=
201903250200 TAF LROD 250200Z 2503/2512 20012KT CAVOK
                      BECMG 2508/2509 27012KT=
201903250500 TAF LROD 250500Z 2506/2515 19008KT 9999 SCT045
                      TEMPO 2506/2508 5000 -SHRA SCT040CB
                      BECMG 2508/2509 27014KT=
201903250800 TAF LROD 250800Z 2509/2518 25012KT CAVOK
                      TEMPO 2509/2512 5000 -SHRA SCT040CB=
201903251100 TAF LROD 251100Z 2512/2521 32014KT CAVOK
                      TEMPO 2512/2515 5000 -SHRA SCT040CB=
201903251400 TAF LROD 251400Z 2515/2524 28012KT CAVOK
                      PROB40 TEMPO 2515/2518 5000 -SHRA SCT040CB=
201903251700 TAF LROD 251700Z 2518/2603 25012KT CAVOK
                      BECMG 2520/2522 32010KT=
201903252000 TAF LROD 252000Z NIL=
201903252001 TAF AMD LROD 252001Z 2520/2603 CNL=
201903252300 TAF LROD 252300Z NIL=
201903260200 TAF LROD 260200Z 2603/2612 35010KT CAVOK=
201903260500 TAF LROD 260500Z 2606/2615 35010KT CAVOK=
201903260800 TAF LROD 260800Z 2609/2618 02010KT CAVOK=
201903261100 TAF LROD 261100Z 2612/2621 03010KT 9999 SCT045=
201903261400 TAF LROD 261400Z 2615/2624 02010KT CAVOK=
201903261700 TAF LROD 261700Z 2618/2703 VRB04KT CAVOK
                      BECMG 2621/2623 29010KT=
201903261950 TAF AMD LROD 261950Z 2619/2703 CNL=
201903262000 TAF LROD 262000Z NIL=
201903262300 TAF LROD 262300Z NIL=
201903270200 TAF LROD 270200Z 2703/2712 VRB04KT CAVOK
                      TEMPO 2703/2706 3000 BR
                      BECMG 2706/2708 35012KT=
201903270500 TAF LROD 270500Z 2706/2715 VRB04KT CAVOK
                      BECMG 2707/2709 03012KT=
201903270800 TAF LROD 270800Z 2709/2718 04012KT CAVOK
                      BECMG 2716/2718 VRB04KT=
201903271100 TAF LROD 271100Z 2712/2721 03012KT CAVOK
                      BECMG 2715/2717 VRB04KT=
201903271400 TAF LROD 271400Z 2715/2724 03012KT CAVOK
                      BECMG 2715/2717 VRB04KT=
201903271700 TAF LROD 271700Z 2718/2803 04006KT CAVOK=
201903271954 TAF AMD LROD 271954Z 2719/2803 CNL=
201903272000 TAF LROD 272000Z NIL=
201903272300 TAF LROD 272300Z NIL=
201903280200 TAF LROD 280200Z 2803/2812 09006KT CAVOK=
201903280500 TAF LROD 280500Z 2806/2815 VRB04KT CAVOK=
201903280800 TAF LROD 280800Z 2809/2818 VRB04KT CAVOK=
201903281100 TAF LROD 281100Z 2812/2821 02007KT CAVOK=
201903281400 TAF LROD 281400Z 2815/2824 VRB04KT CAVOK=
201903281700 TAF LROD 281700Z 2818/2903 03008KT CAVOK=
201903282000 TAF LROD 282000Z NIL=
201903282018 TAF AMD LROD 282018Z 2820/2903 CNL=
201903282300 TAF LROD 282300Z NIL=
201903290200 TAF LROD 290200Z 2903/2912 04008KT CAVOK=
201903290500 TAF LROD 290500Z 2906/2915 05010KT CAVOK=
201903290800 TAF LROD 290800Z 2909/2918 04012KT CAVOK
                      TEMPO 2910/2915 04015G25KT=
201903291100 TAF LROD 291100Z 2912/2921 04012KT CAVOK
                      TEMPO 2912/2915 04015G25KT=
201903291400 TAF LROD 291400Z 2915/2924 04008KT CAVOK=
201903291700 TAF LROD 291700Z 2918/3003 03005KT CAVOK=
201903291932 TAF AMD LROD 291932Z 2919/3003 CNL=
201903292000 TAF LROD 292000Z NIL=
201903292300 TAF LROD 292300Z NIL=
201903300200 TAF LROD 300200Z 3003/3012 10005KT CAVOK=
201903300500 TAF LROD 300500Z 3006/3015 10005KT CAVOK=
201903300800 TAF LROD 300800Z 3009/3018 36006KT CAVOK=
201903301100 TAF LROD 301100Z 3012/3021 01006KT CAVOK=
201903301400 TAF LROD 301400Z 3015/3024 01006KT CAVOK=
201903301700 TAF LROD 301700Z 3018/3103 36005KT CAVOK=
201903301948 TAF AMD LROD 301948Z 3019/3103 CNL=
201903302000 TAF LROD 302000Z NIL=
201903302300 TAF LROD 302300Z NIL=
201903310200 TAF LROD 310200Z 3103/3112 11007KT CAVOK=
201903310500 TAF LROD 310500Z 3106/3115 VRB04KT CAVOK=
201903310800 TAF LROD 310800Z 3109/3118 VRB04KT CAVOK=
201903311100 TAF LROD 311100Z 3112/3121 VRB04KT CAVOK=
201903311400 TAF LROD 311400Z 3115/3124 VRB04KT CAVOK=
201903311700 TAF LROD 311700Z 3118/0103 VRB04KT CAVOK=
201903312000 TAF LROD 312000Z NIL=
201903312011 TAF AMD LROD 312011Z 3120/0103 CNL=
201903312300 TAF LROD 312300Z NIL=
