201905010000 METAR LROD 010000Z AUTO 31005KT 9999 -SHRA SCT012/// OVC015///
                        11/10 Q1003=
201905010030 METAR LROD 010030Z AUTO 31005KT 9999 DZ FEW008/// BKN010///
                        11/10 Q1002=
201905010100 METAR LROD 010100Z AUTO 32007KT 9999 -RA BKN010/// OVC018///
                        11/10 Q1002=
201905010130 METAR LROD 010130Z AUTO 32008KT 9999 -RA FEW012/// BKN021///
                        11/10 Q1002=
201905010200 METAR LROD 010200Z AUTO 31008KT 9999 -RA FEW016/// SCT019///
                        BKN024/// 11/10 Q1002=
201905010230 METAR LROD 010230Z AUTO 32008KT 9999 -RA FEW010/// BKN013///
                        11/10 Q1002=
201905010300 METAR LROD 010300Z AUTO 32008KT 8000 RA FEW005/// SCT010///
                        BKN021/// 11/10 Q1002=
201905010330 METAR LROD 010330Z AUTO 33009KT 6000 RA FEW013/// BKN027///
                        BKN036/// 11/10 Q1003=
201905010400 METAR LROD 010400Z 32007KT 6000 -RA BR SCT021 OVC040 11/10
                        Q1003 R01/29//95=
201905010430 METAR LROD 010430Z 32007KT 7000 -RA SCT017 OVC036 11/10 Q1003
                        R01/29//95=
201905010500 METAR LROD 010500Z 33008KT 9999 -RA SCT014 OVC033 11/11 Q1003
                        R01/29//95=
201905010530 METAR LROD 010530Z 34011KT 9999 -RA SCT011 BKN040 11/10 Q1004
                        R01/29//95=
201905010600 METAR LROD 010600Z 34012KT 9999 -RA SCT011 BKN041 11/10 Q1004
                        R01/29//95=
201905010630 METAR LROD 010630Z 34011KT 9999 -RA BKN011 BKN030 11/10 Q1004
                        R01/29//95=
201905010700 METAR LROD 010700Z 33009KT 9999 SCT014 BKN031 12/11 Q1005
                        R01/29//95=
201905010730 METAR LROD 010730Z 35010KT 9999 SCT021 BKN035 13/10 Q1005
                        R01/29//95=
201905010800 METAR LROD 010800Z 34012KT 9999 -RA SCT016 BKN034 13/10 Q1005
                        R01/29//95=
201905010830 METAR LROD 010830Z 33011KT 310V010 9999 BKN019 13/11 Q1005
                        R01/29//95=
201905010900 METAR LROD 010900Z 34010KT 9999 BKN021 14/10 Q1006 R01/29//95=
201905010930 METAR LROD 010930Z 33012KT 300V360 9999 BKN027 14/09 Q1006
                        R01/29//95=
201905011000 METAR COR LROD 011000Z 32014KT 9999 BKN031 16/09 Q1006 R01/CLRD//=
201905011030 METAR LROD 011030Z 36015KT 9999 SCT037 16/08 Q1006=
201905011100 METAR LROD 011100Z 36015KT 9999 SCT039 17/08 Q1006=
201905011130 METAR LROD 011130Z 34016KT 9999 SCT046 18/08 Q1006=
201905011200 METAR LROD 011200Z 01012KT 9999 SCT045 17/07 Q1006=
201905011230 METAR LROD 011230Z 33008KT CAVOK 17/07 Q1006=
201905011300 METAR LROD 011300Z 33014KT CAVOK 18/06 Q1006=
201905011330 METAR LROD 011330Z 29009KT CAVOK 15/10 Q1006=
201905011400 METAR LROD 011400Z 29008KT CAVOK 16/10 Q1006=
201905011430 METAR LROD 011430Z 29007KT CAVOK 17/09 Q1006=
201905011500 METAR LROD 011500Z 31007KT 270V340 CAVOK 18/09 Q1006=
201905011530 METAR LROD 011530Z 26007KT CAVOK 18/10 Q1006=
201905011600 METAR LROD 011600Z 23006KT 9999 SCT047 17/09 Q1006=
201905011630 METAR LROD 011630Z 23007KT 9999 FEW045 17/10 Q1006=
201905011700 METAR LROD 011700Z 24010KT 9999 FEW050CB 16/10 Q1007=
201905011730 METAR LROD 011730Z 22007KT 9999 FEW053CB 13/09 Q1007=
201905011800 METAR LROD 011800Z 19007KT CAVOK 12/09 Q1007=
201905011830 METAR LROD 011830Z 19006KT 9999 -RA NSC 13/09 Q1007=
201905011900 METAR LROD 011900Z 20007KT CAVOK 12/09 Q1007=
201905011930 METAR LROD 011930Z AUTO 15004KT 120V190 9999 FEW075/// BKN090///
                        12/09 Q1007=
201905012000 METAR LROD 012000Z AUTO 13005KT 9999 SCT085/// BKN110///
                        13/09 Q1007=
201905012030 METAR LROD 012030Z AUTO 12005KT 080V140 9999 FEW070/// BKN090///
                        12/09 Q1008=
201905012100 METAR LROD 012100Z AUTO 09004KT 9999 -SHRA SCT075/// BKN090///
                        BKN100/// 12/09 Q1008=
201905012130 METAR LROD 012130Z AUTO 08004KT 9999 SCT070/// BKN110///
                        11/09 Q1008 RERA=
201905012200 METAR LROD 012200Z AUTO 07003KT 030V100 9999 SCT100/// BKN110///
                        11/09 Q1008=
201905012230 METAR LROD 012230Z AUTO 11005KT 9999 FEW095/// 10/09 Q1008=
201905012300 METAR LROD 012300Z AUTO 13004KT 9999 NCD 10/09 Q1008=
201905012330 METAR LROD 012330Z AUTO 11005KT 9999 NCD 10/08 Q1007=
201905020000 METAR LROD 020000Z AUTO 11005KT 9999 NCD 10/08 Q1007=
201905020030 METAR LROD 020030Z AUTO 10005KT 9000 NCD 09/08 Q1007=
201905020100 METAR LROD 020100Z AUTO 12004KT 8000 NCD 08/08 Q1007=
201905020130 METAR LROD 020130Z AUTO 13004KT 8000 NCD 08/08 Q1008=
201905020200 METAR LROD 020200Z AUTO 15003KT 9999 FEW070/// 08/08 Q1008=
201905020230 METAR LROD 020230Z AUTO 13004KT 9999 FEW070/// 08/07 Q1007=
201905020300 METAR LROD 020300Z AUTO 13004KT 9999 FEW070/// 08/07 Q1008=
201905020330 METAR LROD 020330Z AUTO 13004KT 9999 NCD 08/07 Q1008=
201905020400 METAR COR LROD 020400Z 16004KT CAVOK 08/07 Q1008=
201905020430 METAR LROD 020430Z 17005KT CAVOK 09/08 Q1008=
201905020500 METAR LROD 020500Z 17008KT CAVOK 10/08 Q1008=
201905020530 METAR LROD 020530Z 17005KT 140V200 CAVOK 11/09 Q1009=
201905020600 METAR LROD 020600Z 19011KT CAVOK 12/09 Q1009=
201905020630 METAR LROD 020630Z 19011KT CAVOK 12/10 Q1009=
201905020700 METAR LROD 020700Z 20011KT CAVOK 13/09 Q1009=
201905020730 METAR LROD 020730Z 20012KT CAVOK 14/09 Q1009=
201905020800 METAR LROD 020800Z 21012KT CAVOK 14/10 Q1009=
201905020830 METAR LROD 020830Z 21013KT CAVOK 15/10 Q1009=
201905020900 METAR LROD 020900Z 21013KT CAVOK 15/10 Q1009=
201905020930 METAR LROD 020930Z 21013KT CAVOK 16/11 Q1009=
201905021000 METAR LROD 021000Z 21014KT 9999 FEW022 17/12 Q1009=
201905021030 METAR LROD 021030Z 21011KT 9999 FEW025 17/12 Q1009=
201905021100 METAR LROD 021100Z 21011KT 9999 FEW028 18/11 Q1009=
201905021130 METAR LROD 021130Z 22011KT 170V240 9999 FEW036 18/11 Q1009=
201905021200 METAR LROD 021200Z 21011KT 180V240 9999 FEW035 19/11 Q1009=
201905021230 METAR LROD 021230Z 21010KT 9999 SCT033 19/12 Q1008=
201905021300 METAR LROD 021300Z 21012KT 9999 FEW040CB 20/11 Q1008=
201905021330 METAR LROD 021330Z 22011KT 190V250 9999 VCSH FEW045CB 20/11
                        Q1008=
201905021400 METAR LROD 021400Z 32011KT 9999 -TSRA FEW050CB 16/08 Q1008=
201905021430 METAR LROD 021430Z 13003KT 080V160 9999 VCTS FEW050CB 16/10
                        Q1007=
201905021500 METAR LROD 021500Z 13005KT 9999 VCTS FEW050CB 17/10 Q1007=
201905021530 METAR LROD 021530Z 13006KT 100V170 9999 FEW050CB 18/11 Q1007=
201905021600 METAR LROD 021600Z 12004KT 080V150 9999 FEW050CB 17/13 Q1007=
201905021630 METAR LROD 021630Z 12004KT CAVOK 18/13 Q1007=
201905021700 METAR LROD 021700Z 14005KT 110V180 9999 FEW050TCU 16/13 Q1007=
201905021730 METAR LROD 021730Z 16007KT 9999 FEW055TCU 16/13 Q1007=
201905021800 METAR LROD 021800Z 16007KT CAVOK 15/11 Q1007=
201905021830 METAR LROD 021830Z 15006KT CAVOK 15/11 Q1008=
201905021900 METAR LROD 021900Z 16008KT CAVOK 14/11 Q1008=
201905021930 METAR LROD 021930Z 17008KT CAVOK 13/10 Q1008=
201905022000 METAR LROD 022000Z AUTO 17010KT 9999 NCD 14/10 Q1008=
201905022030 METAR LROD 022030Z AUTO 18010KT 9999 NCD 14/09 Q1008=
201905022100 METAR LROD 022100Z AUTO 17009KT 9999 FEW100/// 14/09 Q1008=
201905022130 METAR LROD 022130Z AUTO 18010KT 9999 SCT080/// 14/09 Q1008=
201905022200 METAR LROD 022200Z AUTO 17012KT 9999 SCT080/// 14/09 Q1008=
201905022230 METAR LROD 022230Z AUTO 18011KT 9999 NCD 14/09 Q1008=
201905022300 METAR LROD 022300Z AUTO 18011KT 9999 NCD 14/09 Q1008=
201905022330 METAR LROD 022330Z AUTO 19010KT 9999 FEW100/// 13/09 Q1008=
201905030000 METAR LROD 030000Z AUTO 19010KT 9999 BKN100/// 14/09 Q1008=
201905030030 METAR LROD 030030Z AUTO 18011KT 9999 BKN100/// 14/09 Q1008=
201905030100 METAR LROD 030100Z AUTO 18012KT 9999 BKN100/// 14/09 Q1008=
201905030130 METAR LROD 030130Z AUTO 18010KT 9999 NCD 13/09 Q1007=
201905030200 METAR LROD 030200Z AUTO 18013KT 9999 SCT100/// BKN110///
                        BKN160/// 14/09 Q1007=
201905030230 METAR LROD 030230Z AUTO 19013KT 9999 FEW070/// BKN090///
                        14/09 Q1007=
201905030300 METAR LROD 030300Z AUTO 20012KT 9999 SCT075/// 14/09 Q1007=
201905030330 METAR LROD 030330Z AUTO 19013KT 9999 FEW095/// 13/09 Q1007=
201905030400 METAR COR LROD 030400Z 19014KT CAVOK 13/09 Q1008=
201905030430 METAR LROD 030430Z 19015KT CAVOK 14/09 Q1008=
201905030500 METAR LROD 030500Z 19014KT CAVOK 14/09 Q1008=
201905030530 METAR LROD 030530Z 19015KT CAVOK 15/08 Q1008=
201905030600 METAR LROD 030600Z 19015KT CAVOK 16/08 Q1008=
201905030630 METAR LROD 030630Z 19017KT CAVOK 17/07 Q1008=
201905030700 METAR LROD 030700Z 20015KT CAVOK 18/08 Q1008=
201905030730 METAR LROD 030730Z 20016KT CAVOK 18/09 Q1008=
201905030800 METAR LROD 030800Z 20018KT CAVOK 19/09 Q1008=
201905030830 METAR LROD 030830Z 21018KT CAVOK 19/09 Q1008=
201905030900 METAR COR LROD 030900Z 22020KT CAVOK 19/08 Q1008=
201905030930 METAR LROD 030930Z 21020KT CAVOK 20/09 Q1008=
201905031000 METAR LROD 031000Z 22020KT CAVOK 20/09 Q1008=
201905031030 METAR COR LROD 031030Z 22019KT CAVOK 20/09 Q1008=
201905031100 METAR LROD 031100Z 22020KT CAVOK 21/09 Q1008=
201905031130 METAR LROD 031130Z 22019KT CAVOK 20/08 Q1008 R01/29//95=
201905031200 METAR LROD 031200Z AUTO 23020KT 9999 FEW110/// 20/08 Q1008=
201905031230 METAR LROD 031230Z 23017KT CAVOK 20/09 Q1008 R01/29//95=
201905031300 METAR LROD 031300Z 23016KT CAVOK 21/08 Q1007 R01/29//95=
201905031330 METAR LROD 031330Z 23016KT CAVOK 21/08 Q1007 R01/29//95=
201905031400 METAR LROD 031400Z 22014KT 9999 FEW055CB 20/09 Q1007=
201905031430 METAR LROD 031430Z 21019G31KT 9999 -TSRA FEW050CB 17/07 Q1006=
201905031500 METAR LROD 031500Z 17010KT 9999 FEW050CB 17/10 Q1006 RERA=
201905031530 METAR LROD 031530Z 17007KT 9999 -SHRA FEW050 16/11 Q1006=
201905031600 METAR LROD 031600Z 29013KT 9999 TSRA SCT040CB 13/10 Q1007=
201905031630 METAR LROD 031630Z 21005KT 180V280 9999 TS SCT042CB 14/11
                        Q1006 RERA R01/29//95=
201905031700 METAR LROD 031700Z 22007KT 9999 FEW045CB 14/11 Q1007 RETS
                        R01/29//95=
201905031730 METAR LROD 031730Z 23006KT 9999 FEW045CB 14/11 Q1007 R01/29//95=
201905031800 METAR LROD 031800Z 23008KT 9999 SCT045CB 14/10 Q1007 R01/29//95=
201905031830 METAR LROD 031830Z AUTO 22007KT 9999 FEW075/// BKN100///
                        13/10 Q1008=
201905031900 METAR LROD 031900Z AUTO 22007KT 9999 FEW120/// 13/10 Q1008=
201905031930 METAR LROD 031930Z AUTO 21007KT 9999 FEW070/// BKN120///
                        13/10 Q1008=
201905032000 METAR LROD 032000Z AUTO 20007KT 9999 FEW090/// 11/09 Q1009=
201905032030 METAR LROD 032030Z AUTO 19009KT 9999 FEW037/// 11/09 Q1009=
201905032100 METAR LROD 032100Z AUTO 20009KT 9999 FEW030/// BKN038///
                        BKN065/// 12/10 Q1009=
201905032130 METAR LROD 032130Z AUTO 22011KT 9999 SCT030/// BKN044///
                        BKN050/// 13/10 Q1009=
201905032200 METAR LROD 032200Z AUTO 21008KT 9999 FEW037/// BKN055///
                        12/10 Q1009=
201905032230 METAR LROD 032230Z AUTO 20007KT 9999 FEW043/// 11/10 Q1009=
201905032300 METAR LROD 032300Z AUTO 21007KT 9999 FEW038/// BKN047///
                        12/10 Q1009=
201905032330 METAR LROD 032330Z AUTO 22007KT 9999 BKN039/// BKN075///
                        12/10 Q1009=
201905040000 METAR LROD 040000Z AUTO 21005KT 9999 FEW039/// OVC080///
                        12/10 Q1009=
201905040030 METAR LROD 040030Z AUTO 19004KT 9999 SCT048/// BKN080///
                        11/10 Q1009=
201905040100 METAR LROD 040100Z AUTO 20006KT 9999 FEW040/// SCT048///
                        10/09 Q1009=
201905040130 METAR LROD 040130Z AUTO 11003KT 060V140 7000 FEW044/// 10/10
                        Q1009=
201905040200 METAR LROD 040200Z AUTO 14005KT 9000 FEW085/// 10/09 Q1009=
201905040230 METAR LROD 040230Z AUTO 14004KT 9000 FEW130/// 10/09 Q1008=
201905040300 METAR LROD 040300Z AUTO 14003KT 8000 FEW095/// SCT130///
                        09/09 Q1008=
201905040330 METAR LROD 040330Z AUTO 13003KT 7000 NCD 09/09 Q1008=
201905040400 METAR LROD 040400Z 11004KT CAVOK 09/09 Q1008 R01/CLRD//=
201905040430 METAR LROD 040430Z 13004KT CAVOK 11/10 Q1008=
201905040500 METAR LROD 040500Z 12002KT 9999 SCT037 11/11 Q1008=
201905040530 METAR LROD 040530Z 17004KT 140V200 9999 FEW040 13/11 Q1008=
201905040600 METAR LROD 040600Z 16005KT 9999 FEW033 13/10 Q1008=
201905040630 METAR LROD 040630Z 18005KT 140V210 CAVOK 14/10 Q1008=
201905040700 METAR LROD 040700Z 19007KT CAVOK 15/11 Q1008=
201905040730 METAR LROD 040730Z 20011KT CAVOK 17/11 Q1008=
201905040800 METAR LROD 040800Z 20011KT 9999 FEW025 17/11 Q1008=
201905040830 METAR LROD 040830Z 21011KT 9999 FEW030 18/11 Q1007=
201905040900 METAR LROD 040900Z 23011KT 9999 FEW031 18/10 Q1007=
201905040930 METAR LROD 040930Z 24011KT 200V260 9999 SCT033 19/11 Q1007=
201905041000 METAR LROD 041000Z 21009KT 180V250 9999 SCT034 18/11 Q1007=
201905041030 METAR LROD 041030Z 21009KT 160V250 9999 SCT033 19/10 Q1006=
201905041100 METAR LROD 041100Z 21008KT 9999 BKN038 19/10 Q1006=
201905041130 METAR LROD 041130Z 21008KT 180V250 9999 SCT040 20/11 Q1006=
201905041200 METAR LROD 041200Z 22009KT 180V250 9999 SCT047 20/10 Q1005=
201905041230 METAR LROD 041230Z 22011KT 9999 FEW045CB SCT047 21/10 Q1005=
201905041300 METAR LROD 041300Z 21008KT 180V250 9999 FEW045CB SCT047 21/11
                        Q1004=
201905041330 METAR LROD 041330Z 22009KT 190V250 9999 FEW050CB 20/09 Q1004=
201905041400 METAR LROD 041400Z 34014KT 9999 FEW050CB 17/12 Q1004=
201905041430 METAR LROD 041430Z 36012KT 9999 FEW050TCU 17/12 Q1004=
201905041500 METAR LROD 041500Z 01010KT 9999 FEW050CB 17/12 Q1004=
201905041530 METAR LROD 041530Z 01008KT 9999 FEW050CB 17/11 Q1004=
201905041600 METAR LROD 041600Z 03007KT 360V060 CAVOK 17/12 Q1004=
201905041630 METAR LROD 041630Z 05008KT 030V090 CAVOK 16/12 Q1004=
201905041700 METAR LROD 041700Z 05007KT CAVOK 16/11 Q1004=
201905041730 METAR LROD 041730Z 05007KT CAVOK 15/11 Q1004=
201905041800 METAR LROD 041800Z 04005KT 010V070 CAVOK 15/11 Q1004=
201905041830 METAR LROD 041830Z AUTO 06005KT 9999 OVC180/// 15/10 Q1004=
201905041900 METAR LROD 041900Z AUTO 07006KT 040V100 9999 SCT075/// BKN170///
                        14/11 Q1004=
201905041930 METAR LROD 041930Z AUTO 07007KT 040V100 9999 FEW065/// OVC150///
                        14/11 Q1003=
201905042000 METAR LROD 042000Z AUTO 07006KT 040V100 9999 FEW075/// BKN150///
                        14/11 Q1003=
201905042030 METAR LROD 042030Z AUTO 08006KT 9999 SCT065/// BKN130///
                        14/11 Q1003=
201905042100 METAR LROD 042100Z AUTO 08006KT 040V100 9999 FEW065/// BKN085///
                        14/11 Q1002=
201905042130 METAR LROD 042130Z AUTO VRB02KT 9999 SCT060/// BKN085///
                        14/11 Q1002=
201905042200 METAR LROD 042200Z AUTO 19009KT 150V210 9999 RA FEW044///
                        BKN055/// 13/11 Q1003=
201905042230 METAR LROD 042230Z AUTO 18008KT 9999 RA BKN050/// BKN070///
                        13/12 Q1003=
201905042300 METAR LROD 042300Z AUTO 11004KT 090V150 9999 -RA BKN055///
                        13/12 Q1003=
201905042330 METAR LROD 042330Z AUTO 10004KT 070V130 9999 -RA BKN065///
                        13/12 Q1003=
201905050000 METAR LROD 050000Z AUTO 11004KT 9999 -RA OVC060/// 13/12
                        Q1003=
201905050030 METAR LROD 050030Z AUTO 12003KT 8000 -RA BKN050/// BKN065///
                        12/12 Q1003=
201905050100 METAR LROD 050100Z AUTO 12003KT 8000 -RA BKN050/// OVC065///
                        12/12 Q1003=
201905050130 METAR LROD 050130Z AUTO 10003KT 8000 DZ BKN050/// BKN065///
                        12/12 Q1002=
201905050200 METAR LROD 050200Z AUTO 08004KT 9000 -RA OVC055/// 12/12
                        Q1002=
201905050230 METAR LROD 050230Z AUTO 10004KT 070V140 7000 -RA FEW045///
                        BKN060/// 12/12 Q1002=
201905050300 METAR LROD 050300Z AUTO 11004KT 070V150 6000 RA BKN046///
                        OVC060/// 12/12 Q1002=
201905050330 METAR LROD 050330Z AUTO 08006KT 7000 RA OVC049/// 12/12 Q1002=
201905050400 METAR LROD 050400Z 08006KT 7000 -RA BKN049 12/12 Q1001=
201905050430 METAR LROD 050430Z 08006KT 7000 -SHRA FEW040CB BKN047 12/12
                        Q1002 R01/29//95=
201905050500 METAR LROD 050500Z 09006KT 7000 -SHRA FEW035CB BKN042 12/12
                        Q1002 R01/29//95=
201905050530 METAR LROD 050530Z 08006KT 9999 -RA SCT035 BKN048 12/12 Q1001
                        R01/29//95=
201905050600 METAR LROD 050600Z 09005KT 060V120 8000 -RA SCT032 OVC046
                        12/12 Q1002 R01/29//95=
201905050630 METAR LROD 050630Z 08005KT 8000 -RA SCT035 OVC049 13/12 Q1002
                        R01/29//95=
201905050700 METAR LROD 050700Z 09004KT 070V130 9000 -RA BKN033 13/12
                        Q1002 R01/29//95=
201905050730 METAR LROD 050730Z 08005KT 050V110 9999 -RA FEW012 BKN038
                        13/13 Q1002 R01/29//95=
201905050800 METAR LROD 050800Z 09005KT 060V120 9999 -RA FEW010 BKN033
                        13/13 Q1002 R01/29//95=
201905050830 METAR LROD 050830Z 10004KT 060V120 9999 FEW012 BKN024 13/13
                        Q1002 R01/29//95=
201905050900 METAR LROD 050900Z 10004KT 070V140 9000 -RA FEW015 BKN027
                        14/13 Q1002 R01/29//95=
201905050930 METAR LROD 050930Z 10003KT 070V150 9999 FEW015 BKN030 14/13
                        Q1003 R01/29//95=
201905051000 METAR LROD 051000Z 09004KT 050V120 9999 FEW017 BKN033 15/13
                        Q1003 R01/29//95=
201905051030 METAR LROD 051030Z 10004KT 050V140 9999 FEW013 BKN033 16/13
                        Q1002 R01/29//95=
201905051100 METAR LROD 051100Z 12003KT 080V160 9999 SCT025 FEW035CB 16/12
                        Q1003 R01/29//95=
201905051130 METAR LROD 051130Z 11003KT 060V150 9999 SCT029 FEW033CB BKN035
                        16/13 Q1003 R01/29//95=
201905051200 METAR LROD 051200Z 16004KT 130V200 9999 -RA FEW016 FEW035CB
                        BKN044 16/13 Q1003 R01/29//95=
201905051230 METAR LROD 051230Z 16004KT 120V190 9999 -SHRA FEW020 FEW035CB
                        BKN046 16/13 Q1003 R01/29//95=
201905051300 METAR LROD 051300Z 14003KT 100V190 9999 -SHRA FEW015 SCT032
                        FEW035CB 16/13 Q1003 R01/29//95=
201905051330 METAR LROD 051330Z 13003KT 090V170 9999 -SHRA SCT029 FEW035CB
                        16/13 Q1003 R01/29//95=
201905051400 METAR LROD 051400Z 11003KT 040V160 9999 SCT016 FEW040CB 16/13
                        Q1002 R01/29//95=
201905051430 METAR LROD 051430Z 11004KT 070V150 9999 SCT014 FEW035CB 16/13
                        Q1002 R01/29//95=
201905051500 METAR LROD 051500Z 09007KT 9999 -SHRA SCT015 FEW028CB 15/13
                        Q1003 R01/29//95=
201905051530 METAR LROD 051530Z 10004KT 060V120 9999 -SHRA FEW015 FEW027CB
                        15/13 Q1003 R01/29//95=
201905051600 METAR LROD 051600Z 11002KT 080V160 9999 -SHRA FEW015 FEW037CB
                        BKN046 15/13 Q1003 R01/29//95=
201905051630 METAR LROD 051630Z VRB01KT 7000 -SHRA SCT015 BKN022 SCT038CB
                        15/13 Q1003 R01/29//95=
201905051700 METAR LROD 051700Z 36008KT 330V030 9999 -SHRA FEW006 BKN017
                        FEW035CB 13/12 Q1003 R01/29//95=
201905051730 METAR LROD 051730Z 02010KT 9000 SCT005 BKN019 FEW030CB 12/11
                        Q1003 R01/29//95=
201905051800 METAR LROD 051800Z 03008KT 8000 -SHRA SCT006 BKN021 FEW033CB
                        11/11 Q1004 R01/29//95=
201905051830 METAR LROD 051830Z 03008KT 8000 -SHRA SCT006 BKN032 FEW041CB
                        11/10 Q1004 R01/29//95=
201905051900 METAR LROD 051900Z 03008KT 7000 -SHRA SCT005 BKN014 SCT042CB
                        10/10 Q1004 R01/29//95=
201905051930 METAR LROD 051930Z 04008KT 010V070 9000 -SHRA SCT005 BKN011
                        FEW040CB 10/09 Q1004 R01/29//95=
201905052000 METAR LROD 052000Z AUTO 02008KT 9999 -DZ FEW005/// BKN012///
                        BKN090/// 10/09 Q1004=
201905052030 METAR LROD 052030Z AUTO 03008KT 9999 SCT005/// OVC013///
                        09/09 Q1004 REDZ=
201905052100 METAR LROD 052100Z AUTO 03007KT 9999 BKN004/// BKN006///
                        OVC013/// 09/09 Q1004=
201905052130 METAR LROD 052130Z AUTO 03010KT 9999 FEW004/// BKN006///
                        09/09 Q1004=
201905052200 METAR LROD 052200Z AUTO 03008KT 9999 SCT005/// BKN007///
                        BKN016/// 09/08 Q1004=
201905052230 METAR LROD 052230Z AUTO 03010KT 9999 FEW005/// BKN007///
                        OVC014/// 09/08 Q1004=
201905052300 METAR LROD 052300Z AUTO 03011KT 9999 FEW006/// BKN014///
                        BKN041/// 09/08 Q1004=
201905052330 METAR LROD 052330Z AUTO 03009KT 010V070 9999 SCT006/// BKN015///
                        BKN035/// 09/08 Q1003=
201905060000 METAR LROD 060000Z AUTO 03008KT 9999 FEW006/// OVC015///
                        09/08 Q1003=
201905060030 METAR LROD 060030Z AUTO 03009KT 360V060 9999 FEW007/// BKN015///
                        09/08 Q1003=
201905060100 METAR LROD 060100Z AUTO 04009KT 360V070 9999 -SHRA FEW007///
                        OVC015/// 09/08 Q1003=
201905060130 METAR LROD 060130Z AUTO 03008KT 350V060 9000 -SHRA FEW008///
                        BKN015/// 09/08 Q1003=
201905060200 METAR LROD 060200Z AUTO 01007KT 5000 +RA FEW005/// BKN007///
                        BKN016/// 08/08 Q1003=
201905060230 METAR LROD 060230Z AUTO 02010KT 6000 +RA FEW006/// BKN017///
                        08/08 Q1003=
201905060300 METAR LROD 060300Z AUTO 02008KT 5000 +RA FEW007/// BKN019///
                        08/08 Q1003=
201905060330 METAR LROD 060330Z AUTO 02010KT 9000 +RA FEW006/// BKN018///
                        BKN027/// 08/08 Q1003=
201905060400 METAR COR LROD 060400Z 01009KT 9999 RA FEW007 OVC019 08/08
                        Q1003 R01/29//95=
201905060430 METAR COR LROD 060430Z 01010KT 9999 -RA FEW007 BKN018 08/07
                        Q1003 R01/29//95=
201905060500 METAR LROD 060500Z 36008KT 9999 -RA BKN005 OVC019 08/07 Q1004
                        R01/29//95=
201905060530 METAR LROD 060530Z 01008KT 9999 RA SCT005 BKN021 07/07 Q1004
                        R01/29//95=
201905060600 METAR LROD 060600Z 01009KT 9999 RA FEW007 BKN018 08/07 Q1004
                        R01/29//95=
201905060630 METAR LROD 060630Z 01007KT 9999 -RA SCT008 BKN017 08/07 Q1005
                        RERA R01/29//95=
201905060700 METAR COR LROD 060700Z 34007KT 9999 RA BKN006 OVC011 08/07
                        Q1005 R01/29//95=
201905060730 METAR LROD 060730Z 34007KT 9999 -RA BKN008 BKN010 08/07 Q1005
                        RERA R01/29//95=
201905060800 METAR COR LROD 060800Z 35008KT 9999 -RA FEW005 BKN008 OVC010
                        08/07 Q1005 R01/29//95=
201905060830 METAR LROD 060830Z 35009KT 9999 -RA SCT005 OVC009 08/07 Q1006
                        R01/29//95=
201905060900 METAR LROD 060900Z 36008KT 9999 -RA BKN009 OVC011 08/07 Q1006
                        R01/29//95=
201905060930 METAR LROD 060930Z 01007KT 9999 -RA SCT008 OVC010 08/07 Q1006
                        R01/29//95=
201905061000 METAR LROD 061000Z 35006KT 9999 -RA SCT006 BKN009 08/07 Q1006
                        R01/29//95=
201905061030 METAR LROD 061030Z 35006KT 9999 BKN007 OVC010 08/07 Q1006
                        R01/29//95=
201905061100 METAR LROD 061100Z 36005KT 8000 SCT007 OVC010 08/07 Q1007
                        R01/29//95=
201905061130 METAR COR LROD 061130Z 33007KT 8000 BKN008 OVC010 08/07 Q1007
                        R01/29//95=
201905061200 METAR LROD 061200Z 34008KT 5000 BR SCT007 BKN009 08/07 Q1007
                        R01/29//95=
201905061230 METAR LROD 061230Z 33009KT 9999 BKN008 BKN010 08/07 Q1007
                        R01/29//95=
201905061300 METAR COR LROD 061300Z 34006KT 9999 BKN007 OVC009 08/07 Q1007
                        R01/29//95=
201905061330 METAR COR LROD 061330Z 34008KT 9999 -RA BKN009 OVC011 08/07
                        Q1007 R01/29//95=
201905061400 METAR LROD 061400Z 35008KT 9999 SCT008 OVC014 08/06 Q1007
                        REDZ R01/29//95=
201905061430 METAR LROD 061430Z 35009KT 9999 BKN010 OVC013 07/06 Q1007
                        R01/29//95=
201905061500 METAR COR LROD 061500Z 34008KT 9999 BKN011 07/06 Q1008 R01/29//95=
201905061530 METAR LROD 061530Z 32008KT 9999 SCT010 BKN013 07/06 Q1008
                        R01/29//95=
201905061600 METAR LROD 061600Z 34009KT 9999 BKN011 BKN014 07/05 Q1008
                        R01/CLRD//=
201905061630 METAR LROD 061630Z 34012KT 9999 BKN010 06/05 Q1008=
201905061700 METAR LROD 061700Z 36011KT 9999 BKN010 BKN013 06/05 Q1008=
201905061730 METAR LROD 061730Z 36011KT 9999 SCT009 BKN011 06/05 Q1008=
201905061800 METAR LROD 061800Z 36009KT 9999 FEW008 BKN011 06/05 Q1009=
201905061830 METAR LROD 061830Z 34010KT 4800 SCT009 BKN011 06/05 Q1009=
201905061900 METAR LROD 061900Z 34009KT 6000 SCT006 BKN013 05/04 Q1010=
201905061930 METAR LROD 061930Z 33010KT 5000 BR SCT007 BKN009 05/05 Q1010=
201905062000 METAR LROD 062000Z AUTO 33011KT 5000 BR SCT009/// BKN013///
                        05/05 Q1010=
201905062030 METAR LROD 062030Z AUTO 34011KT 5000 DZ SCT013/// OVC016///
                        06/05 Q1010=
201905062100 METAR LROD 062100Z AUTO 33010KT 8000 -SHRA SCT012/// BKN015///
                        06/04 Q1010=
201905062130 METAR LROD 062130Z AUTO 34010KT 6000 -SHRA SCT014/// BKN018///
                        OVC022/// 05/04 Q1010=
201905062200 METAR LROD 062200Z AUTO 32008KT 9999 BKN018/// BKN021///
                        06/04 Q1010 REDZ=
201905062230 METAR LROD 062230Z AUTO 34011KT 9999 OVC021/// 06/04 Q1010=
201905062300 METAR LROD 062300Z AUTO 32009KT 9999 SCT023/// OVC029///
                        06/04 Q1010=
201905062330 METAR LROD 062330Z AUTO 30008KT 9999 OVC032/// 06/04 Q1010=
201905070000 METAR LROD 070000Z AUTO 32008KT 9999 SCT036/// OVC042///
                        06/04 Q1010=
201905070030 METAR LROD 070030Z AUTO 31007KT 9999 BKN036/// OVC042///
                        06/04 Q1010=
201905070100 METAR LROD 070100Z AUTO 31008KT 9999 BKN036/// OVC041///
                        06/04 Q1010=
201905070130 METAR LROD 070130Z AUTO 31007KT 9999 BKN041/// OVC048///
                        06/04 Q1010=
201905070200 METAR LROD 070200Z AUTO 32006KT 9999 -DZ SCT043/// BKN050///
                        OVC070/// 06/04 Q1010=
201905070230 METAR LROD 070230Z AUTO 32007KT 9999 FEW043/// SCT050///
                        BKN075/// 06/04 Q1010 REDZ=
201905070300 METAR LROD 070300Z AUTO 30006KT 9999 SCT047/// BKN090///
                        06/04 Q1010=
201905070330 METAR LROD 070330Z AUTO 31006KT 9999 BKN050/// OVC090///
                        06/04 Q1010=
201905070400 METAR LROD 070400Z 32007KT CAVOK 06/04 Q1011=
201905070430 METAR LROD 070430Z 32007KT CAVOK 07/04 Q1011=
201905070500 METAR LROD 070500Z 32008KT CAVOK 07/04 Q1011=
201905070530 METAR LROD 070530Z 33007KT CAVOK 07/04 Q1012=
201905070600 METAR LROD 070600Z 34006KT CAVOK 07/04 Q1012=
201905070630 METAR LROD 070630Z 34007KT CAVOK 08/05 Q1012=
201905070700 METAR LROD 070700Z 34007KT 310V010 9999 FEW042 08/04 Q1012=
201905070730 METAR LROD 070730Z 35005KT 310V020 CAVOK 09/05 Q1013=
201905070800 METAR COR LROD 070800Z 35008KT CAVOK 10/04 Q1013=
201905070830 METAR LROD 070830Z 01006KT 310V040 9999 FEW026 10/05 Q1013=
201905070900 METAR LROD 070900Z 34006KT 300V020 9999 SCT031 OVC046 10/05
                        Q1013=
201905070930 METAR LROD 070930Z 36007KT 320V030 9999 SCT034 BKN043 11/05
                        Q1013=
201905071000 METAR LROD 071000Z VRB05KT 9999 SCT037 BKN045 11/05 Q1013=
201905071030 METAR LROD 071030Z 01010KT 340V060 9999 SCT043 12/03 Q1013=
201905071100 METAR LROD 071100Z 01012KT 340V040 9999 BKN047 12/03 Q1013=
201905071130 METAR LROD 071130Z 05007KT 9999 BKN047 12/04 Q1013=
201905071200 METAR LROD 071200Z 05005KT 360V120 CAVOK 12/06 Q1014=
201905071230 METAR LROD 071230Z 07005KT 010V130 CAVOK 11/05 Q1014=
201905071300 METAR LROD 071300Z 09007KT 050V130 CAVOK 11/06 Q1014=
201905071330 METAR LROD 071330Z 09007KT CAVOK 11/06 Q1014=
201905071400 METAR LROD 071400Z 11005KT 080V140 CAVOK 10/05 Q1014=
201905071430 METAR LROD 071430Z 12003KT CAVOK 11/05 Q1015=
201905071500 METAR LROD 071500Z 14005KT 100V170 CAVOK 11/05 Q1015=
201905071530 METAR LROD 071530Z 11004KT 080V140 CAVOK 11/06 Q1015=
201905071600 METAR LROD 071600Z 12003KT CAVOK 10/06 Q1015=
201905071630 METAR LROD 071630Z 12002KT CAVOK 10/06 Q1015=
201905071700 METAR LROD 071700Z 14003KT CAVOK 10/06 Q1015=
201905071730 METAR LROD 071730Z 11003KT CAVOK 10/07 Q1015=
201905071800 METAR LROD 071800Z 17003KT CAVOK 09/07 Q1016=
201905071830 METAR LROD 071830Z AUTO 19002KT 160V230 9999 BKN080/// 09/07
                        Q1016=
201905071900 METAR LROD 071900Z AUTO 16003KT 120V200 9999 BKN080/// 08/07
                        Q1016=
201905071930 METAR LROD 071930Z AUTO VRB01KT 9999 OVC080/// 08/07 Q1016=
201905072000 METAR LROD 072000Z AUTO 14002KT 9999 OVC080/// 08/07 Q1016=
201905072030 METAR LROD 072030Z AUTO 14002KT 110V180 9999 OVC080/// 08/07
                        Q1016=
201905072100 METAR LROD 072100Z AUTO 09003KT 9999 FEW060/// BKN085///
                        08/07 Q1017=
201905072130 METAR LROD 072130Z AUTO 13002KT 9999 BKN085/// 08/06 Q1017=
201905072200 METAR LROD 072200Z AUTO 14002KT 9000 OVC085/// 07/06 Q1017=
201905072230 METAR LROD 072230Z AUTO 15002KT 6000 BKN085/// 07/06 Q1017=
201905072300 METAR LROD 072300Z AUTO 00000KT 4900 BR BKN085/// 06/05 Q1017=
201905072330 METAR LROD 072330Z AUTO 13002KT 4900 BR BKN085/// 06/05 Q1017=
201905080000 METAR LROD 080000Z AUTO 16002KT 3800 BR SCT085/// 05/04 Q1017=
201905080030 METAR LROD 080030Z AUTO 13002KT 4800 BKN085/// 05/05 Q1017=
201905080100 METAR LROD 080100Z AUTO 14002KT 3800 BKN085/// 04/04 Q1017=
201905080130 METAR LROD 080130Z AUTO 13002KT 3900 BR BKN085/// 04/04 Q1017=
201905080200 METAR LROD 080200Z AUTO 12002KT 3600 R19/1600VP2000U BCFG
                        BKN085/// 04/04 Q1017=
201905080230 METAR LROD 080230Z AUTO 11004KT 6000 BKN085/// 04/04 Q1017=
201905080300 METAR LROD 080300Z AUTO 12003KT 5000 BR BKN085/// 04/04 Q1017=
201905080330 METAR LROD 080330Z AUTO 10003KT 3900 BR OVC085/// 05/04 Q1017=
201905080400 METAR LROD 080400Z 14001KT 8000 NSC 05/05 Q1017=
201905080430 METAR LROD 080430Z 13001KT CAVOK 06/06 Q1017=
201905080500 METAR LROD 080500Z 00000KT CAVOK 07/06 Q1017=
201905080530 METAR LROD 080530Z VRB01KT CAVOK 08/08 Q1017=
201905080600 METAR LROD 080600Z VRB01KT CAVOK 09/07 Q1017=
201905080630 METAR LROD 080630Z VRB01KT CAVOK 09/07 Q1017=
201905080700 METAR LROD 080700Z 00000KT CAVOK 10/06 Q1017=
201905080730 METAR LROD 080730Z VRB02KT CAVOK 12/06 Q1017=
201905080800 METAR LROD 080800Z VRB03KT CAVOK 12/07 Q1018=
201905080830 METAR LROD 080830Z VRB03KT 9999 FEW025 14/08 Q1017=
201905080900 METAR LROD 080900Z 27003KT 9999 FEW027 14/08 Q1017=
201905080930 METAR LROD 080930Z VRB03KT 9999 FEW030 15/06 Q1017=
201905081000 METAR LROD 081000Z 27004KT 210V310 9999 SCT030 14/06 Q1017=
201905081030 METAR LROD 081030Z VRB03KT 9999 FEW035 15/05 Q1017=
201905081100 METAR LROD 081100Z VRB03KT 9999 FEW035 16/05 Q1016=
201905081130 METAR LROD 081130Z VRB02KT 9999 SCT048 16/03 Q1016=
201905081200 METAR LROD 081200Z VRB03KT CAVOK 17/03 Q1016=
201905081230 METAR LROD 081230Z 29005KT 250V350 CAVOK 15/02 Q1016=
201905081300 METAR LROD 081300Z 29004KT 250V340 CAVOK 16/00 Q1016=
201905081330 METAR LROD 081330Z VRB03KT CAVOK 17/04 Q1015=
201905081400 METAR LROD 081400Z 08005KT 010V130 CAVOK 17/01 Q1015=
201905081430 METAR LROD 081430Z 10004KT 050V170 CAVOK 16/02 Q1015=
201905081500 METAR LROD 081500Z 14004KT 110V170 CAVOK 15/02 Q1015=
201905081530 METAR LROD 081530Z 13003KT CAVOK 15/02 Q1014=
201905081600 METAR LROD 081600Z 11003KT CAVOK 15/02 Q1014=
201905081630 METAR LROD 081630Z 07004KT CAVOK 15/02 Q1014=
201905081700 METAR LROD 081700Z AUTO 09003KT 9999 OVC065/// 15/04 Q1014=
201905081730 METAR LROD 081730Z 12002KT CAVOK 14/04 Q1014=
201905081800 METAR LROD 081800Z 15002KT CAVOK 12/08 Q1014=
201905081830 METAR LROD 081830Z 13004KT CAVOK 11/05 Q1014=
201905081900 METAR LROD 081900Z 11004KT CAVOK 09/06 Q1014=
201905081930 METAR LROD 081930Z 12004KT CAVOK 08/05 Q1014=
201905082000 METAR LROD 082000Z AUTO 10006KT 9999 NCD 08/05 Q1014=
201905082030 METAR LROD 082030Z AUTO 10005KT 9999 NCD 07/05 Q1013=
201905082100 METAR LROD 082100Z AUTO 10005KT 9999 NCD 07/05 Q1013=
201905082130 METAR LROD 082130Z AUTO 11005KT 9999 NCD 06/05 Q1013=
201905082200 METAR LROD 082200Z AUTO 11004KT 9999 NCD 06/04 Q1013=
201905082230 METAR LROD 082230Z AUTO 10005KT 9999 NCD 06/04 Q1013=
201905082300 METAR LROD 082300Z AUTO 10005KT 9999 NCD 06/04 Q1012=
201905082330 METAR LROD 082330Z AUTO 11004KT 9999 NCD 06/04 Q1012=
201905090000 METAR LROD 090000Z AUTO 11005KT 9999 NCD 06/04 Q1012=
201905090030 METAR LROD 090030Z AUTO 10005KT 9999 NCD 06/04 Q1011=
201905090100 METAR LROD 090100Z AUTO 10006KT 9999 BKN240/// 06/04 Q1011=
201905090130 METAR LROD 090130Z AUTO 10006KT 9999 OVC240/// 06/04 Q1011=
201905090200 METAR LROD 090200Z AUTO 10006KT 9999 BKN210/// 06/04 Q1010=
201905090230 METAR LROD 090230Z AUTO 10006KT 9999 OVC210/// 06/04 Q1010=
201905090300 METAR LROD 090300Z AUTO 10005KT 9999 BKN180/// 06/04 Q1010=
201905090330 METAR LROD 090330Z AUTO 10005KT 9999 FEW180/// 07/04 Q1010=
201905090400 METAR COR LROD 090400Z 10005KT CAVOK 07/04 Q1009=
201905090430 METAR LROD 090430Z 10006KT CAVOK 07/04 Q1009=
201905090500 METAR LROD 090500Z 11006KT CAVOK 08/05 Q1009=
201905090530 METAR LROD 090530Z 10005KT CAVOK 09/06 Q1009=
201905090600 METAR LROD 090600Z 11003KT 070V150 CAVOK 10/06 Q1009=
201905090630 METAR LROD 090630Z 11004KT 080V150 CAVOK 11/06 Q1009=
201905090700 METAR COR LROD 090700Z 13003KT 100V180 CAVOK 12/06 Q1009=
201905090730 METAR COR LROD 090730Z 22003KT 160V280 CAVOK 13/07 Q1009=
201905090800 METAR LROD 090800Z 23009KT 9999 -RA FEW040 13/07 Q1009=
201905090830 METAR LROD 090830Z 21008KT 9999 -RA FEW040 13/07 Q1009=
201905090900 METAR LROD 090900Z 19008KT 9999 -RA FEW040 13/07 Q1009=
201905090930 METAR LROD 090930Z 15007KT 120V180 9999 -RA NSC 13/07 Q1008=
201905091000 METAR LROD 091000Z 12007KT 080V150 CAVOK 13/08 Q1008=
201905091030 METAR LROD 091030Z 15007KT 120V180 CAVOK 13/07 Q1008=
201905091100 METAR LROD 091100Z 15006KT 110V180 CAVOK 14/09 Q1008=
201905091130 METAR LROD 091130Z 18008KT 140V200 9999 -RA NSC 13/09 Q1008=
201905091200 METAR LROD 091200Z 17010KT 9999 -RA BKN038 BKN045 12/09 Q1008=
201905091230 METAR LROD 091230Z 18007KT 9999 -RA OVC037 12/09 Q1008 R01/29//95=
201905091300 METAR LROD 091300Z 18005KT 9999 -RA SCT031 OVC037 12/10 Q1007
                        R01/29//95=
201905091330 METAR LROD 091330Z 17006KT 9999 -RA BKN028 12/10 Q1007 R01/29//95=
201905091400 METAR LROD 091400Z 18008KT 9999 -RA FEW027 OVC047 12/10 Q1007
                        R01/29//95=
201905091430 METAR LROD 091430Z 18009KT 9999 -RA FEW025 OVC049 12/10 Q1007
                        R01/29//95=
201905091500 METAR LROD 091500Z 19009KT 9999 -RA FEW036 BKN041 11/09 Q1007
                        R01/29//95=
201905091530 METAR LROD 091530Z 18005KT 9999 -RA BKN045 11/10 Q1006 R01/29//95=
201905091600 METAR LROD 091600Z 17005KT 9999 -RA OVC047 11/10 Q1006 R01/29//95=
201905091630 METAR LROD 091630Z 14003KT 9999 -RA FEW017 BKN049 11/10 Q1006
                        R01/29//95=
201905091700 METAR LROD 091700Z 12004KT 7000 -RA SCT024 11/10 Q1006 R01/29//95=
201905091730 METAR LROD 091730Z 15006KT 9999 -RA FEW024 11/10 Q1006 R01/29//95=
201905091800 METAR LROD 091800Z 16008KT 9999 -RA NSC 11/10 Q1006 R01/29//95=
201905091830 METAR LROD 091830Z AUTO 16007KT 120V180 9999 DZ FEW038///
                        OVC047/// 10/09 Q1006=
201905091900 METAR LROD 091900Z AUTO 16007KT 120V180 9999 -RA FEW034///
                        SCT039/// OVC050/// 10/09 Q1006=
201905091930 METAR LROD 091930Z AUTO 15006KT 120V180 9999 -RA FEW028///
                        SCT032/// BKN041/// 10/09 Q1006=
201905092000 METAR LROD 092000Z AUTO 13004KT 110V170 9999 -RA SCT025///
                        BKN029/// OVC055/// 10/09 Q1006=
201905092030 METAR LROD 092030Z AUTO 12003KT 8000 -RA SCT023/// BKN031///
                        BKN046/// 10/09 Q1005=
201905092100 METAR LROD 092100Z AUTO 12002KT 8000 -RA BKN021/// OVC029///
                        10/09 Q1005=
201905092130 METAR LROD 092130Z AUTO 12002KT 8000 -RA BKN019/// 10/09
                        Q1005=
201905092200 METAR LROD 092200Z AUTO 12002KT 8000 -RA OVC017/// 10/10
                        Q1005=
201905092230 METAR LROD 092230Z AUTO 12002KT 7000 -RA BKN016/// 10/10
                        Q1005=
201905092300 METAR LROD 092300Z AUTO 12003KT 7000 -RA OVC015/// 10/10
                        Q1006=
201905092330 METAR LROD 092330Z AUTO 13002KT 7000 RA BKN014/// 10/10 Q1005=
201905100000 METAR LROD 100000Z AUTO 12002KT 6000 -RA OVC013/// 10/10
                        Q1005=
201905100030 METAR LROD 100030Z AUTO 13002KT 6000 -RA FEW008/// BKN013///
                        10/10 Q1005=
201905100100 METAR LROD 100100Z AUTO VRB01KT 6000 DZ FEW003/// BKN006///
                        OVC008/// 10/10 Q1006=
201905100130 METAR LROD 100130Z AUTO 13003KT 7000 -RA SCT006/// BKN008///
                        BKN010/// 10/10 Q1005=
201905100200 METAR LROD 100200Z AUTO 11003KT 5000 -RA SCT006/// OVC008///
                        10/10 Q1006=
201905100230 METAR LROD 100230Z AUTO 14003KT 6000 -RA BKN007/// BKN012///
                        10/10 Q1006=
201905100300 METAR LROD 100300Z AUTO 00000KT 6000 -RA BKN006/// 10/10
                        Q1006=
201905100330 METAR LROD 100330Z AUTO VRB01KT 6000 DZ BKN005/// BKN007///
                        10/10 Q1006=
201905100400 METAR COR LROD 100400Z VRB01KT 9999 -RA BKN004 OVC006 10/10
                        Q1006 R01/29//95=
201905100430 METAR LROD 100430Z 19002KT 120V220 4000 -RA BR OVC004 10/10
                        Q1007 R01/29//95=
201905100500 METAR LROD 100500Z 18002KT 150V210 2200 -RA BR OVC004 10/10
                        Q1007 R01/29//95=
201905100530 METAR LROD 100530Z 22004KT 2600 BR BKN002 OVC004 11/11 Q1007
                        R01/29//95=
201905100600 METAR LROD 100600Z 25004KT 220V280 6000 SCT002 OVC004 11/11
                        Q1007 R01/29//95=
201905100630 METAR LROD 100630Z 27003KT 240V310 9000 FEW004 OVC006 11/11
                        Q1007 R01/29//95=
201905100700 METAR COR LROD 100700Z 28006KT 8000 SCT009 BKN016 12/11 Q1008
                        R01/29//95=
201905100730 METAR LROD 100730Z 31004KT 280V350 9999 SCT011 BKN017 12/11
                        Q1008 R01/29//95=
201905100800 METAR COR LROD 100800Z 31004KT 270V030 9999 FEW009 BKN023
                        13/11 Q1008 R01/29//95=
201905100830 METAR LROD 100830Z 31004KT 240V360 9999 SCT017 BKN026 14/11
                        Q1008 R01/29//95=
201905100900 METAR LROD 100900Z 31003KT 260V010 9999 FEW013 BKN030 14/11
                        Q1008 R01/CLRD//=
201905100930 METAR LROD 100930Z 28007KT 9999 FEW014 BKN029 13/11 Q1009=
201905101000 METAR COR LROD 101000Z 31006KT 9999 FEW023 BKN038 14/11 Q1009=
201905101030 METAR COR LROD 101030Z 34005KT 320V030 9999 FEW024 BKN042
                        15/11 Q1009=
201905101100 METAR LROD 101100Z 32003KT 9999 BKN042 16/12 Q1009=
201905101130 METAR LROD 101130Z 28005KT 230V030 9999 BKN030 16/12 Q1009=
201905101200 METAR LROD 101200Z 29006KT 260V320 9999 BKN040 16/11 Q1009=
201905101230 METAR COR LROD 101230Z 29004KT 240V320 9999 -RA BKN040 16/11
                        Q1009=
201905101300 METAR LROD 101300Z 01005KT 9999 -RA FEW020 BKN043 15/12 Q1009=
201905101330 METAR LROD 101330Z 07004KT 010V120 9999 BKN037 16/12 Q1009=
201905101400 METAR LROD 101400Z 32004KT 230V020 9999 SCT045 18/12 Q1009=
201905101430 METAR LROD 101430Z 30005KT 260V330 9999 SCT045 17/10 Q1009=
201905101500 METAR LROD 101500Z 26008KT 230V290 9999 BKN035 18/11 Q1009=
201905101530 METAR LROD 101530Z 28008KT 9999 SCT039 17/11 Q1009=
201905101600 METAR LROD 101600Z 26006KT 9999 SCT037 16/11 Q1009=
201905101630 METAR LROD 101630Z 27013KT 9999 -TSRA SCT045CB 12/09 Q1010=
201905101700 METAR LROD 101700Z 23004KT 200V270 9999 -SHRA FEW047CB 13/11
                        Q1010 RETS=
201905101730 METAR COR LROD 101730Z 26005KT 230V290 9999 FEW047CB 14/10
                        Q1010 RERA=
201905101800 METAR LROD 101800Z 22004KT 9999 SCT047 13/11 Q1010=
201905101830 METAR LROD 101830Z AUTO 22005KT 9999 BKN110/// 13/11 Q1011=
201905101900 METAR LROD 101900Z AUTO 21005KT 9999 SCT046/// BKN110///
                        12/11 Q1011=
201905101930 METAR LROD 101930Z AUTO 19004KT 9999 SCT042/// BKN075///
                        12/11 Q1011=
201905102000 METAR LROD 102000Z AUTO 15004KT 9999 FEW075/// BKN140///
                        11/10 Q1011=
201905102030 METAR LROD 102030Z AUTO 15003KT 9999 -SHRA FEW070/// BKN085///
                        BKN140/// 11/11 Q1011=
201905102100 METAR LROD 102100Z AUTO VRB01KT 9999 -SHRA FEW055/// BKN085///
                        BKN100/// 11/11 Q1012=
201905102130 METAR LROD 102130Z AUTO 19004KT 9999 -SHRA SCT070/// BKN100///
                        11/11 Q1012=
201905102200 METAR LROD 102200Z AUTO 16003KT 130V190 9999 BKN065/// 12/11
                        Q1012 RERA=
201905102230 METAR LROD 102230Z AUTO 12003KT 9999 SCT065/// 11/11 Q1012
                        RERA=
201905102300 METAR LROD 102300Z AUTO 15003KT 9999 BKN065/// OVC080///
                        11/11 Q1012=
201905102330 METAR LROD 102330Z AUTO 16004KT 9999 FEW065/// BKN085///
                        11/11 Q1012=
201905110000 METAR LROD 110000Z AUTO 16003KT 9999 FEW070/// BKN085///
                        11/10 Q1012=
201905110030 METAR LROD 110030Z AUTO 18004KT 9999 BKN090/// 10/10 Q1012=
201905110100 METAR LROD 110100Z AUTO 18003KT 9999 FEW075/// SCT090///
                        10/09 Q1012=
201905110130 METAR LROD 110130Z AUTO 12004KT 9999 NCD 10/09 Q1012=
201905110200 METAR LROD 110200Z AUTO 16003KT 130V190 9000 NCD 09/08 Q1012=
201905110230 METAR LROD 110230Z AUTO 19004KT 160V220 9000 NCD 08/08 Q1012=
201905110300 METAR LROD 110300Z AUTO 15003KT 9000 NCD 09/08 Q1012=
201905110330 METAR LROD 110330Z AUTO 16004KT 7000 NCD 08/08 Q1013=
201905110400 METAR LROD 110400Z 16004KT CAVOK 09/09 Q1013 R01/29//95=
201905110430 METAR LROD 110430Z 16003KT CAVOK 10/10 Q1013=
201905110500 METAR LROD 110500Z 18003KT CAVOK 11/10 Q1013=
201905110530 METAR LROD 110530Z 19008KT CAVOK 11/10 Q1013=
201905110600 METAR LROD 110600Z 19006KT CAVOK 12/10 Q1014=
201905110630 METAR LROD 110630Z 20007KT 170V230 CAVOK 13/10 Q1014=
201905110700 METAR LROD 110700Z 18005KT 130V220 CAVOK 15/11 Q1014=
201905110730 METAR LROD 110730Z 22006KT 190V250 CAVOK 15/11 Q1014=
201905110800 METAR LROD 110800Z 22006KT 170V270 CAVOK 16/12 Q1014=
201905110830 METAR LROD 110830Z 24006KT 210V270 9999 FEW025 16/11 Q1014=
201905110900 METAR LROD 110900Z 23006KT 200V260 9999 FEW025 17/11 Q1014=
201905110930 METAR LROD 110930Z 20005KT 130V280 9999 FEW030 18/11 Q1014=
201905111000 METAR LROD 111000Z 23005KT 170V280 9999 SCT033 18/11 Q1014=
201905111030 METAR LROD 111030Z 24007KT 200V270 9999 SCT035 19/12 Q1014=
201905111100 METAR LROD 111100Z 25008KT 220V300 9999 SCT031 19/11 Q1014=
201905111130 METAR LROD 111130Z 24008KT 210V270 9999 SCT036 20/11 Q1014=
201905111200 METAR LROD 111200Z 27007KT 230V300 9999 SCT042 20/10 Q1014=
201905111230 METAR LROD 111230Z 27006KT 210V310 9999 BKN042 20/10 Q1014=
201905111300 METAR LROD 111300Z 26010KT 9999 SCT045 20/11 Q1014=
201905111330 METAR LROD 111330Z 25008KT CAVOK 19/08 Q1014=
201905111400 METAR LROD 111400Z 29006KT 250V350 CAVOK 20/08 Q1013=
201905111430 METAR LROD 111430Z 27008KT 240V310 CAVOK 21/08 Q1013=
201905111500 METAR LROD 111500Z 25007KT CAVOK 21/07 Q1014=
201905111530 METAR LROD 111530Z 29005KT 230V310 CAVOK 21/07 Q1014=
201905111600 METAR LROD 111600Z 27006KT CAVOK 20/07 Q1014=
201905111630 METAR LROD 111630Z 27003KT CAVOK 20/09 Q1014=
201905111700 METAR LROD 111700Z 27002KT CAVOK 20/10 Q1014=
201905111730 METAR LROD 111730Z 22002KT CAVOK 18/10 Q1014=
201905111800 METAR LROD 111800Z 00000KT CAVOK 15/13 Q1014=
201905111830 METAR LROD 111830Z AUTO 15005KT 9999 NCD 15/09 Q1014=
201905111900 METAR LROD 111900Z AUTO 13005KT 9999 BKN240/// 14/09 Q1014=
201905111930 METAR LROD 111930Z AUTO 11005KT 9999 FEW240/// 13/09 Q1014=
201905112000 METAR LROD 112000Z AUTO 10006KT 9999 NCD 12/10 Q1015=
201905112030 METAR LROD 112030Z AUTO 10006KT 9999 FEW240/// 12/09 Q1015=
201905112100 METAR LROD 112100Z AUTO 09006KT 9999 SCT240/// 12/09 Q1015=
201905112130 METAR LROD 112130Z AUTO 10006KT 9999 BKN230/// 11/09 Q1015=
201905112200 METAR LROD 112200Z AUTO 10006KT 9999 FEW230/// 11/09 Q1015=
201905112230 METAR LROD 112230Z AUTO 09005KT 9999 NCD 11/09 Q1015=
201905112300 METAR LROD 112300Z AUTO 10006KT 9999 NCD 11/09 Q1015=
201905112330 METAR LROD 112330Z AUTO 09007KT 9999 NCD 11/08 Q1015=
201905120000 METAR LROD 120000Z AUTO 09006KT 9999 NCD 10/08 Q1015=
201905120030 METAR LROD 120030Z AUTO 09008KT 9999 NCD 11/08 Q1015=
201905120100 METAR LROD 120100Z AUTO 09007KT 9999 NCD 11/08 Q1014=
201905120130 METAR LROD 120130Z AUTO 09006KT 9999 NCD 10/08 Q1015=
201905120200 METAR LROD 120200Z AUTO 09008KT 9999 NCD 11/08 Q1015=
201905120230 METAR LROD 120230Z AUTO 09007KT 060V120 9999 NCD 10/07 Q1015=
201905120300 METAR LROD 120300Z AUTO 09007KT 9999 NCD 09/07 Q1015=
201905120330 METAR LROD 120330Z AUTO 10006KT 9999 NCD 10/07 Q1015=
201905120400 METAR LROD 120400Z 11005KT 070V140 CAVOK 10/08 Q1015=
201905120430 METAR LROD 120430Z 10005KT 070V130 CAVOK 11/08 Q1015=
201905120500 METAR LROD 120500Z 09006KT CAVOK 12/08 Q1015=
201905120530 METAR LROD 120530Z 09005KT CAVOK 14/09 Q1016=
201905120600 METAR LROD 120600Z 09005KT CAVOK 15/09 Q1016=
201905120630 METAR LROD 120630Z 08006KT CAVOK 17/10 Q1016=
201905120700 METAR LROD 120700Z 08006KT 060V120 CAVOK 18/10 Q1016=
201905120730 METAR LROD 120730Z 09005KT 050V130 CAVOK 19/10 Q1016=
201905120800 METAR LROD 120800Z 07004KT 020V110 CAVOK 20/09 Q1016=
201905120830 METAR COR LROD 120830Z 32007KT 290V360 CAVOK 21/12 Q1016=
201905120900 METAR LROD 120900Z 01007KT 330V040 CAVOK 21/12 Q1016=
201905120930 METAR LROD 120930Z 01006KT 300V070 CAVOK 22/12 Q1016=
201905121000 METAR LROD 121000Z 02005KT 250V060 CAVOK 22/11 Q1016=
201905121030 METAR LROD 121030Z 06003KT 360V160 CAVOK 22/07 Q1016=
201905121100 METAR LROD 121100Z 09005KT 010V110 CAVOK 23/06 Q1015=
201905121130 METAR LROD 121130Z 13006KT 080V200 CAVOK 23/08 Q1015=
201905121200 METAR LROD 121200Z VRB05KT CAVOK 23/08 Q1015=
201905121230 METAR LROD 121230Z VRB02KT CAVOK 24/10 Q1015=
201905121300 METAR LROD 121300Z VRB02KT CAVOK 24/08 Q1015=
201905121330 METAR LROD 121330Z VRB01KT CAVOK 24/07 Q1015=
201905121400 METAR LROD 121400Z 26003KT 180V340 CAVOK 25/10 Q1015=
201905121430 METAR LROD 121430Z VRB02KT CAVOK 25/08 Q1015=
201905121500 METAR LROD 121500Z VRB02KT CAVOK 24/06 Q1015=
201905121530 METAR LROD 121530Z VRB02KT CAVOK 25/08 Q1015=
201905121600 METAR LROD 121600Z 32003KT CAVOK 24/09 Q1015=
201905121630 METAR LROD 121630Z 07004KT 040V110 CAVOK 23/10 Q1015=
201905121700 METAR LROD 121700Z 07008KT CAVOK 22/10 Q1015=
201905121730 METAR COR LROD 121730Z 07007KT CAVOK 21/10 Q1016=
201905121800 METAR LROD 121800Z 07006KT CAVOK 20/10 Q1016=
201905121830 METAR LROD 121830Z AUTO 07005KT 9999 NCD 19/09 Q1016=
201905121900 METAR LROD 121900Z AUTO 08005KT 9999 NCD 19/09 Q1016=
201905121930 METAR LROD 121930Z AUTO 08006KT 050V120 9999 NCD 17/10 Q1016=
201905122000 METAR LROD 122000Z AUTO 07006KT 9999 NCD 17/10 Q1016=
201905122030 METAR LROD 122030Z AUTO 07005KT 9999 NCD 16/10 Q1016=
201905122100 METAR LROD 122100Z AUTO 08003KT 9999 NCD 15/10 Q1016=
201905122130 METAR LROD 122130Z AUTO 10005KT 080V140 9999 NCD 14/11 Q1016=
201905122200 METAR LROD 122200Z AUTO 02004KT 9999 SCT120/// 14/10 Q1017=
201905122230 METAR LROD 122230Z AUTO 09002KT 9999 SCT100/// BKN120///
                        14/11 Q1017=
201905122300 METAR LROD 122300Z AUTO 15002KT 120V200 9999 BKN085/// BKN100///
                        14/11 Q1017=
201905122330 METAR LROD 122330Z AUTO 14004KT 9999 BKN080/// OVC120///
                        15/11 Q1017=
201905130000 METAR LROD 130000Z AUTO 33001KT 9999 FEW024/// SCT100///
                        BKN120/// 14/12 Q1017 RERA=
201905130030 METAR LROD 130030Z AUTO 00000KT 9999 FEW080/// BKN120///
                        14/12 Q1017 RERA=
201905130100 METAR LROD 130100Z AUTO 00000KT 9999 FEW095/// 14/12 Q1017=
201905130130 METAR LROD 130130Z AUTO 00000KT 9999 FEW090/// SCT120///
                        13/11 Q1017=
201905130200 METAR LROD 130200Z AUTO 03004KT 330V080 9999 FEW090/// SCT120///
                        12/11 Q1017=
201905130230 METAR LROD 130230Z AUTO VRB01KT 9999 NCD 12/11 Q1017=
201905130300 METAR LROD 130300Z AUTO 00000KT 9999 NCD 11/10 Q1018=
201905130330 METAR LROD 130330Z AUTO 02004KT 9999 NCD 11/10 Q1018=
201905130400 METAR COR LROD 130400Z 02005KT CAVOK 13/11 Q1018=
201905130430 METAR LROD 130430Z 02006KT CAVOK 14/11 Q1018=
201905130500 METAR COR LROD 130500Z 02009KT CAVOK 14/11 Q1018=
201905130530 METAR LROD 130530Z 02007KT CAVOK 15/11 Q1019=
201905130600 METAR LROD 130600Z 03007KT CAVOK 17/12 Q1019=
201905130630 METAR LROD 130630Z 03006KT 360V060 CAVOK 18/13 Q1019=
201905130700 METAR LROD 130700Z 04007KT 360V070 CAVOK 19/13 Q1019=
201905130730 METAR LROD 130730Z 07010KT 040V100 CAVOK 20/11 Q1018=
201905130800 METAR LROD 130800Z 07012G24KT 040V100 CAVOK 21/12 Q1018=
201905130830 METAR LROD 130830Z 07014KT 040V100 CAVOK 22/11 Q1018=
201905130900 METAR LROD 130900Z 07017KT CAVOK 22/09 Q1018=
201905130930 METAR LROD 130930Z 07013KT 050V110 CAVOK 23/11 Q1018 R01/29//95=
201905131000 METAR LROD 131000Z 07013KT 040V100 CAVOK 23/10 Q1018 R01/29//95=
201905131030 METAR LROD 131030Z 08015G25KT 050V110 CAVOK 24/08 Q1018=
201905131100 METAR LROD 131100Z 08014KT 050V110 CAVOK 24/09 Q1018=
201905131130 METAR LROD 131130Z 07012KT 040V110 CAVOK 24/08 Q1018=
201905131200 METAR LROD 131200Z 09013KT 040V120 CAVOK 24/08 Q1018=
201905131230 METAR LROD 131230Z 08012KT 050V110 CAVOK 25/07 Q1018=
201905131300 METAR LROD 131300Z 08012KT CAVOK 24/07 Q1017=
201905131330 METAR LROD 131330Z 08011KT 050V110 CAVOK 24/07 Q1017=
201905131400 METAR COR LROD 131400Z 07013KT 030V100 CAVOK 25/08 Q1017=
201905131430 METAR LROD 131430Z 08010KT CAVOK 24/07 Q1017=
201905131500 METAR LROD 131500Z 02017KT 9999 FEW045 21/12 Q1017=
201905131530 METAR LROD 131530Z 02012KT 330V040 9999 -RA SCT045 19/11
                        Q1018=
201905131600 METAR LROD 131600Z 01015KT 9999 -RA SCT045 18/10 Q1018=
201905131630 METAR LROD 131630Z 01018KT 9999 SCT045 17/10 Q1018=
201905131700 METAR LROD 131700Z 02017KT 9999 SCT045 16/09 Q1019=
201905131730 METAR LROD 131730Z 02017KT 9999 SCT045 16/09 Q1019=
201905131800 METAR LROD 131800Z 01010KT 330V060 9999 SCT045 14/08 Q1019=
201905131830 METAR LROD 131830Z AUTO 03013KT 9999 SCT100/// OVC140///
                        12/08 Q1019=
201905131900 METAR LROD 131900Z AUTO 03010KT 360V060 9999 FEW160/// 12/07
                        Q1020=
201905131930 METAR LROD 131930Z AUTO 03011KT 9999 FEW090/// BKN150///
                        11/07 Q1020=
201905132000 METAR LROD 132000Z AUTO 03010KT 9999 SCT150/// BKN240///
                        11/07 Q1020=
201905132030 METAR LROD 132030Z AUTO 03012KT 9999 FEW130/// BKN150///
                        11/07 Q1020=
201905132100 METAR LROD 132100Z AUTO 03009KT 360V060 9999 BKN120/// BKN160///
                        11/07 Q1020=
201905132130 METAR LROD 132130Z AUTO 04010KT 010V070 9999 BKN120/// 11/07
                        Q1020=
201905132200 METAR LROD 132200Z AUTO 03011KT 360V070 9999 BKN120/// 11/06
                        Q1019=
201905132230 METAR LROD 132230Z AUTO 02012KT 9999 FEW130/// BKN170///
                        11/07 Q1019=
201905132300 METAR LROD 132300Z AUTO 02012KT 350V050 9999 SCT080/// BKN180///
                        10/07 Q1019=
201905132330 METAR LROD 132330Z AUTO 02012KT 9999 FEW095/// BKN170///
                        10/07 Q1018=
201905140000 METAR LROD 140000Z AUTO 03011KT 9999 FEW120/// BKN190///
                        10/07 Q1018=
201905140030 METAR LROD 140030Z AUTO 02012KT 9999 BKN170/// 10/07 Q1018=
201905140100 METAR LROD 140100Z AUTO 02014KT 9999 FEW130/// BKN150///
                        10/07 Q1017=
201905140130 METAR LROD 140130Z AUTO 02013KT 9999 FEW110/// BKN150///
                        10/07 Q1017=
201905140200 METAR LROD 140200Z AUTO 02011KT 9999 BKN150/// 10/07 Q1017=
201905140230 METAR LROD 140230Z AUTO 01012KT 9999 SCT070/// 10/07 Q1017=
201905140300 METAR LROD 140300Z AUTO 01011KT 9999 SCT070/// 09/07 Q1017=
201905140330 METAR LROD 140330Z AUTO 01010KT 9999 FEW065/// 09/07 Q1017=
201905140400 METAR LROD 140400Z 01011KT CAVOK 10/08 Q1017=
201905140430 METAR LROD 140430Z 36010KT CAVOK 10/08 Q1017=
201905140500 METAR LROD 140500Z 01012KT CAVOK 10/08 Q1017=
201905140530 METAR LROD 140530Z 01012KT CAVOK 10/08 Q1016=
201905140600 METAR COR LROD 140600Z 02010KT 340V040 9999 FEW045CB 10/08
                        Q1016=
201905140630 METAR LROD 140630Z 04006KT 360V080 9999 -SHRA FEW013 FEW045CB
                        10/08 Q1017=
201905140700 METAR LROD 140700Z 36003KT 330V040 9999 FEW012 FEW042CB 10/09
                        Q1017=
201905140730 METAR LROD 140730Z 02007KT 9999 -SHRA FEW035 FEW045CB 11/09
                        Q1017=
201905140800 METAR LROD 140800Z 02007KT 350V060 9999 -SHRA FEW045CB 11/09
                        Q1017=
201905140830 METAR LROD 140830Z 05007KT 9999 -RA FEW015 11/09 Q1017=
201905140900 METAR LROD 140900Z 05007KT 020V080 9999 -RA FEW008 12/10
                        Q1016=
201905140930 METAR LROD 140930Z 02006KT 350V060 9999 -RA FEW010 12/11
                        Q1016=
201905141000 METAR LROD 141000Z 02007KT 9999 -RA FEW012 13/11 Q1016=
201905141030 METAR LROD 141030Z 01008KT 9999 SCT008 14/12 Q1015=
201905141100 METAR LROD 141100Z 03007KT 360V060 9999 SCT008 13/11 Q1015=
201905141130 METAR LROD 141130Z 03007KT 360V060 9999 -RA SCT009 SCT042
                        13/11 Q1015=
201905141200 METAR LROD 141200Z 04007KT 010V070 9999 -RA SCT009 BKN045
                        14/12 Q1015=
201905141230 METAR LROD 141230Z 04006KT 9999 -RA FEW008 14/12 Q1015=
201905141300 METAR LROD 141300Z 03007KT 360V060 9999 -RA SCT007 14/12
                        Q1015=
201905141330 METAR LROD 141330Z 03006KT 9999 SCT007 13/12 Q1015=
201905141400 METAR LROD 141400Z 02008KT 9999 SCT006 13/12 Q1015=
201905141430 METAR LROD 141430Z 03006KT 360V060 9999 SCT006 14/12 Q1015=
201905141500 METAR LROD 141500Z 02008KT 9999 -SHRA BKN007 FEW030CB 13/12
                        Q1014=
201905141530 METAR LROD 141530Z 02007KT 9999 -RA SCT006 BKN012 13/12 Q1014=
201905141600 METAR LROD 141600Z 02008KT 9000 -RA SCT006 SCT044 13/12 Q1014=
201905141630 METAR LROD 141630Z 03008KT 9000 -RA BKN005 12/12 Q1014=
201905141700 METAR LROD 141700Z 03008KT 9000 -RA BKN005 12/12 Q1014=
201905141730 METAR LROD 141730Z 03008KT 9000 -RA OVC006 12/11 Q1014=
201905141800 METAR LROD 141800Z 03006KT 9000 -RA OVC006 12/11 Q1014=
201905141830 METAR LROD 141830Z 02007KT 9999 OVC004 12/11 Q1014=
201905141900 METAR LROD 141900Z 02007KT 9999 OVC004 12/11 Q1014=
201905141930 METAR LROD 141930Z 02005KT 9999 OVC004 12/11 Q1014=
201905142000 METAR LROD 142000Z 02007KT 9999 OVC005 11/11 Q1014=
201905142030 METAR LROD 142030Z 02007KT 9999 OVC005 11/10 Q1014=
201905142100 METAR LROD 142100Z AUTO 02008KT 8000 OVC003/// 11/10 Q1014=
201905142130 METAR LROD 142130Z AUTO 02007KT 7000 BKN002/// OVC004///
                        11/10 Q1013=
201905142200 METAR LROD 142200Z AUTO 02007KT 6000 OVC002/// 11/11 Q1013=
201905142230 METAR LROD 142230Z AUTO 02007KT 4600 BR OVC002/// 11/11 Q1013=
201905142300 METAR LROD 142300Z AUTO 01008KT 350V050 3600 BR OVC001///
                        11/11 Q1013=
201905142330 METAR LROD 142330Z AUTO 02009KT 1900 BR BKN001/// OVC003///
                        11/11 Q1012=
201905150000 METAR LROD 150000Z AUTO 02008KT 1500 R19/1900N FG OVC001///
                        11/11 Q1012=
201905150030 METAR LROD 150030Z AUTO 02008KT 2400 OVC001/// 11/11 Q1012=
201905150100 METAR LROD 150100Z AUTO 03007KT 2700 BKN001/// OVC003///
                        11/11 Q1011=
201905150130 METAR LROD 150130Z AUTO 03006KT 3100 BR BKN001/// OVC003///
                        11/11 Q1011=
201905150200 METAR LROD 150200Z AUTO 04006KT 010V070 3900 BR BKN001///
                        OVC003/// 11/11 Q1011=
201905150230 METAR LROD 150230Z AUTO 03007KT 360V060 5000 BR OVC002///
                        11/11 Q1011=
201905150300 METAR LROD 150300Z AUTO 03005KT 360V060 4700 BR BKN002///
                        OVC004/// 11/11 Q1010=
201905150330 METAR LROD 150330Z AUTO 04006KT 4700 BR OVC002/// 11/11 Q1010=
201905150400 METAR LROD 150400Z 07006KT 7000 BKN002 11/11 Q1011=
201905150430 METAR LROD 150430Z 02004KT 7000 -RA BKN003 BKN006 11/11 Q1010=
201905150500 METAR LROD 150500Z 06003KT 7000 -RA SCT003 BKN008 OVC010
                        11/11 Q1011=
201905150530 METAR LROD 150530Z VRB01KT 6000 -RA FEW003 BKN007 BKN009
                        12/11 Q1011 R01/29//95=
201905150600 METAR LROD 150600Z 00000KT 5000 -RA BR BKN003 12/12 Q1011
                        R01/29//95=
201905150630 METAR LROD 150630Z 20007KT 7000 -RA SCT004 BKN006 BKN010
                        12/12 Q1011 R01/29//95=
201905150700 METAR LROD 150700Z 19007KT 9999 -RA FEW004 SCT006 BKN008
                        12/12 Q1011 R01/29//95=
201905150730 METAR LROD 150730Z 20009KT 9999 FEW007 SCT009 BKN016 12/12
                        Q1012 R01/29//95=
201905150800 METAR LROD 150800Z 20012KT 9999 -RA SCT004 BKN006 OVC011
                        11/11 Q1012 R01/29//95=
201905150830 METAR LROD 150830Z 20011KT 9999 SCT007 BKN015 11/11 Q1012
                        R01/29//95=
201905150900 METAR LROD 150900Z 20013KT 9999 BKN006 OVC009 11/10 Q1013
                        R01/29//95=
201905150930 METAR LROD 150930Z 20015KT 9999 SCT007 BKN009 BKN013 11/10
                        Q1013 R01/29//95=
201905151000 METAR LROD 151000Z 20014KT 9999 SCT008 BKN010 OVC019 11/10
                        Q1013 R01/29//95=
201905151030 METAR LROD 151030Z 20016KT 9999 FEW008 BKN010 OVC020 11/09
                        Q1013 R01/CLRD//=
201905151100 METAR LROD 151100Z 20012KT 9999 SCT011 BKN023 11/10 Q1013=
201905151130 METAR LROD 151130Z 20011KT 9999 FEW009 BKN011 BKN016 11/09
                        Q1013=
201905151200 METAR LROD 151200Z 21010KT 9999 BKN010 OVC013 11/10 Q1013=
201905151230 METAR LROD 151230Z 22010KT 9999 FEW008 BKN010 BKN014 12/10
                        Q1013=
201905151300 METAR LROD 151300Z 21009KT 180V240 9999 SCT010 OVC013 12/10
                        Q1013=
201905151330 METAR LROD 151330Z 21011KT 9999 FEW010 BKN013 OVC021 12/10
                        Q1013=
201905151400 METAR LROD 151400Z 21010KT 9999 FEW013 BKN022 13/10 Q1013=
201905151430 METAR LROD 151430Z 20010KT 9999 SCT017 BKN020 OVC024 12/10
                        Q1014=
201905151500 METAR LROD 151500Z 21007KT 9999 FEW015 BKN021 OVC027 12/10
                        Q1014=
201905151530 METAR LROD 151530Z 21007KT 9999 FEW015 BKN022 OVC026 13/10
                        Q1014=
201905151600 METAR LROD 151600Z 19006KT 9999 SCT023 OVC027 13/09 Q1014=
201905151630 METAR LROD 151630Z 21006KT 9999 FEW016 BKN027 13/10 Q1014=
201905151700 METAR LROD 151700Z 21009KT 9999 FEW015 BKN041 12/09 Q1014=
201905151730 METAR LROD 151730Z 21007KT 9999 BKN039 12/09 Q1014=
201905151800 METAR LROD 151800Z 21004KT 9999 SCT040 10/09 Q1014=
201905151830 METAR LROD 151830Z 15004KT 9999 FEW045 10/09 Q1014=
201905151900 METAR LROD 151900Z 18005KT 9999 SCT036 10/09 Q1015=
201905151930 METAR LROD 151930Z 17004KT 9999 FEW035 09/08 Q1015=
201905152000 METAR LROD 152000Z AUTO 16005KT 120V180 9999 BKN037/// 09/09
                        Q1015=
201905152030 METAR LROD 152030Z AUTO 14004KT 9999 BKN036/// 09/09 Q1015=
201905152100 METAR LROD 152100Z AUTO 17003KT 9999 BKN036/// 09/09 Q1015=
201905152130 METAR LROD 152130Z AUTO 18005KT 9999 OVC034/// 10/09 Q1016=
201905152200 METAR LROD 152200Z AUTO 19005KT 9999 FEW021/// BKN034///
                        10/10 Q1015=
201905152230 METAR LROD 152230Z AUTO 18004KT 9999 FEW021/// OVC033///
                        10/10 Q1015=
201905152300 METAR LROD 152300Z AUTO 21004KT 9999 BKN032/// 10/10 Q1015=
201905152330 METAR LROD 152330Z AUTO 15002KT 9999 OVC032/// 10/09 Q1015=
201905160000 METAR LROD 160000Z AUTO 12001KT 9999 BKN031/// 10/09 Q1015=
201905160030 METAR LROD 160030Z AUTO 00000KT 9999 OVC030/// 10/09 Q1015=
201905160100 METAR LROD 160100Z AUTO 00000KT 9999 BKN029/// 10/09 Q1015=
201905160130 METAR LROD 160130Z AUTO 00000KT 9999 OVC028/// 10/10 Q1015=
201905160200 METAR LROD 160200Z AUTO 00000KT 9999 BKN025/// 10/10 Q1015=
201905160230 METAR LROD 160230Z AUTO 00000KT 8000 OVC024/// 10/10 Q1014=
201905160300 METAR LROD 160300Z AUTO 00000KT 9000 OVC024/// 10/10 Q1014=
201905160330 METAR LROD 160330Z AUTO 00000KT 9999 OVC025/// 10/10 Q1015=
201905160400 METAR COR LROD 160400Z 00000KT 9999 OVC024 10/10 Q1015=
201905160430 METAR LROD 160430Z 33002KT 9999 OVC022 10/09 Q1015=
201905160500 METAR LROD 160500Z 33003KT 290V350 9999 OVC021 11/09 Q1015=
201905160530 METAR LROD 160530Z 33004KT 9999 OVC021 11/08 Q1015=
201905160600 METAR LROD 160600Z 02005KT 350V050 9999 OVC025 11/08 Q1015=
201905160630 METAR LROD 160630Z 02005KT 330V060 9999 OVC022 12/08 Q1015=
201905160700 METAR LROD 160700Z 36006KT 330V030 9999 BKN028 12/08 Q1015=
201905160730 METAR LROD 160730Z 01007KT 340V040 9999 BKN025 13/09 Q1014=
201905160800 METAR COR LROD 160800Z 36008KT 320V020 9999 BKN020 13/09
                        Q1014=
201905160830 METAR LROD 160830Z 01006KT 330V080 9999 BKN022 13/09 Q1014=
201905160900 METAR LROD 160900Z 01006KT 330V060 9999 BKN024 13/09 Q1014=
201905160930 METAR LROD 160930Z 01005KT 320V070 9999 BKN020 14/09 Q1014=
201905161000 METAR LROD 161000Z 36005KT 310V040 9999 OVC030 14/09 Q1014=
201905161030 METAR LROD 161030Z AUTO 35006KT 320V040 9999 SCT023/// BKN028///
                        15/10 Q1013=
201905161100 METAR COR LROD 161100Z 02005KT 330V040 9999 OVC029 15/10
                        Q1013=
201905161130 METAR COR LROD 161130Z 02006KT 350V060 9999 OVC029 16/10
                        Q1013=
201905161200 METAR LROD 161200Z 02006KT 340V050 9999 BKN030 16/10 Q1013=
201905161230 METAR LROD 161230Z 03005KT 360V080 9999 BKN030 16/10 Q1013=
201905161300 METAR LROD 161300Z 03006KT 350V070 9999 BKN034 17/10 Q1013=
201905161330 METAR LROD 161330Z 02006KT 360V060 9999 BKN030 17/10 Q1012=
201905161400 METAR LROD 161400Z 35008KT 9999 BKN033 17/10 Q1012=
201905161430 METAR LROD 161430Z 34006KT 300V020 9999 SCT033 18/10 Q1012=
201905161500 METAR LROD 161500Z 03005KT 360V060 9999 SCT030 17/10 Q1012=
201905161530 METAR LROD 161530Z 01003KT 340V040 9999 BKN033 17/10 Q1012=
201905161600 METAR COR LROD 161600Z 01003KT 340V040 9999 BKN033 17/10
                        Q1012=
201905161630 METAR LROD 161630Z 12005KT 080V150 9999 BKN031 15/11 Q1012=
201905161700 METAR LROD 161700Z 11003KT 070V130 9999 BKN030 15/11 Q1012=
201905161730 METAR COR LROD 161730Z 12002KT 090V150 9999 BKN039 15/11
                        Q1012=
201905161800 METAR LROD 161800Z 00000KT 9999 OVC040 15/11 Q1012=
201905161830 METAR LROD 161830Z AUTO 29002KT 9999 FEW027/// BKN038///
                        15/11 Q1012=
201905161900 METAR LROD 161900Z AUTO 31005KT 9999 FEW026/// OVC037///
                        15/11 Q1013=
201905161930 METAR LROD 161930Z AUTO 34003KT 9999 FEW027/// OVC033///
                        14/10 Q1013=
201905162000 METAR LROD 162000Z AUTO 29002KT 9999 OVC037/// 14/11 Q1012=
201905162030 METAR LROD 162030Z AUTO 00000KT 9999 OVC038/// 14/11 Q1012=
201905162100 METAR LROD 162100Z AUTO 27003KT 9999 OVC040/// 14/11 Q1012=
201905162130 METAR LROD 162130Z AUTO 29003KT 9999 FEW030/// OVC040///
                        14/11 Q1012=
201905162200 METAR LROD 162200Z AUTO 30003KT 9999 BKN040/// OVC080///
                        13/11 Q1013=
201905162230 METAR LROD 162230Z AUTO 32007KT 9999 SCT041/// BKN095///
                        13/10 Q1013=
201905162300 METAR LROD 162300Z AUTO 30004KT 9999 FEW038/// OVC075///
                        12/10 Q1013=
201905162330 METAR LROD 162330Z AUTO 28004KT 9999 FEW037/// BKN065///
                        OVC080/// 12/10 Q1012=
201905170000 METAR LROD 170000Z AUTO 30003KT 9999 FEW037/// OVC060///
                        11/10 Q1013=
201905170030 METAR LROD 170030Z AUTO 32004KT 9999 SCT036/// OVC070///
                        11/10 Q1012=
201905170100 METAR LROD 170100Z AUTO 34005KT 9999 FEW036/// BKN043///
                        OVC050/// 12/09 Q1012=
201905170130 METAR LROD 170130Z AUTO 31004KT 9999 FEW029/// SCT037///
                        OVC050/// 11/09 Q1012 RERA=
201905170200 METAR LROD 170200Z AUTO 31003KT 9999 SCT030/// BKN036///
                        OVC041/// 11/09 Q1012 RERA=
201905170230 METAR LROD 170230Z AUTO 32003KT 9999 FEW030/// OVC055///
                        11/09 Q1012=
201905170300 METAR LROD 170300Z AUTO 32003KT 9999 BKN031/// BKN050///
                        11/09 Q1012=
201905170330 METAR LROD 170330Z AUTO 32003KT 290V350 9999 FEW032/// OVC050///
                        11/09 Q1013=
201905170400 METAR LROD 170400Z 33003KT 9999 FEW031 11/09 Q1013=
201905170430 METAR LROD 170430Z 33004KT 9999 FEW029 12/09 Q1013=
201905170500 METAR LROD 170500Z 35004KT 9999 FEW029 12/09 Q1013=
201905170530 METAR LROD 170530Z 32003KT 9999 FEW028 13/10 Q1013=
201905170600 METAR LROD 170600Z 32003KT 9999 SCT028 13/10 Q1013=
201905170630 METAR LROD 170630Z 30003KT 9999 BKN028 14/10 Q1013=
201905170700 METAR LROD 170700Z 27005KT 230V310 9999 SCT030 14/10 Q1014=
201905170730 METAR LROD 170730Z 30005KT 250V340 9999 FEW031 16/11 Q1014=
201905170800 METAR LROD 170800Z VRB04KT 9999 FEW030 16/12 Q1014=
201905170830 METAR LROD 170830Z 33003KT 9999 FEW021 16/11 Q1013=
201905170900 METAR LROD 170900Z 01003KT 9999 BKN024 17/11 Q1013=
201905170930 METAR LROD 170930Z VRB03KT 9999 BKN024 18/12 Q1013=
201905171000 METAR LROD 171000Z VRB03KT 9999 BKN024 SCT033 18/12 Q1013=
201905171030 METAR LROD 171030Z 30006KT 220V340 9999 FEW029 BKN035 19/13
                        Q1013=
201905171100 METAR LROD 171100Z 26004KT 190V290 9999 SCT028 BKN036 18/12
                        Q1013=
201905171130 METAR LROD 171130Z 32004KT 250V020 9999 BKN032 19/13 Q1013=
201905171200 METAR LROD 171200Z 30005KT 250V340 9999 BKN030 19/12 Q1013=
201905171230 METAR LROD 171230Z 23005KT 200V270 9999 FEW030TCU BKN041
                        20/12 Q1013=
201905171300 METAR LROD 171300Z 27006KT 240V320 9999 FEW034 SCT039 20/13
                        Q1013=
201905171330 METAR LROD 171330Z 28006KT 200V010 9999 FEW032 SCT041 20/13
                        Q1012=
201905171400 METAR LROD 171400Z 26005KT 220V310 9999 SCT034 FEW040CB 20/13
                        Q1012=
201905171430 METAR LROD 171430Z 32006KT 260V360 9999 FEW035CB SCT045 20/13
                        Q1012=
201905171500 METAR LROD 171500Z 32004KT 280V360 9999 FEW041CB BKN049 19/12
                        Q1012=
201905171530 METAR LROD 171530Z 31004KT 270V340 9999 FEW034CB BKN049 20/13
                        Q1012=
201905171600 METAR LROD 171600Z 35005KT 320V040 9999 FEW037TCU SCT043
                        20/13 Q1012=
201905171630 METAR LROD 171630Z VRB03KT 9999 SCT034 20/12 Q1012=
201905171700 METAR LROD 171700Z 04004KT 020V080 9999 FEW035 19/13 Q1012=
201905171730 METAR LROD 171730Z 04003KT CAVOK 18/13 Q1012=
201905171800 METAR LROD 171800Z 05002KT CAVOK 18/13 Q1012=
201905171830 METAR LROD 171830Z 09002KT CAVOK 17/13 Q1012=
201905171900 METAR LROD 171900Z 13002KT CAVOK 15/13 Q1012=
201905171930 METAR LROD 171930Z 00000KT CAVOK 16/13 Q1012=
201905172000 METAR LROD 172000Z 27001KT CAVOK 15/13 Q1012=
201905172030 METAR LROD 172030Z AUTO 00000KT 9999 BKN150/// 15/13 Q1012=
201905172100 METAR LROD 172100Z AUTO 13003KT 100V160 9999 BKN140/// 14/13
                        Q1012=
201905172130 METAR LROD 172130Z AUTO 08005KT 9999 FEW120/// 15/14 Q1012=
201905172200 METAR LROD 172200Z AUTO 10004KT 9999 SCT095/// 15/13 Q1012=
201905172230 METAR LROD 172230Z AUTO 08004KT 9999 FEW095/// 14/13 Q1012=
201905172300 METAR LROD 172300Z AUTO 12003KT 6000 R19/0900VP2000U NCD
                        13/13 Q1012=
201905172330 METAR LROD 172330Z AUTO 10004KT 7000 NCD 13/12 Q1012=
201905180000 METAR LROD 180000Z AUTO 11003KT 7000 FEW100/// 13/12 Q1011=
201905180030 METAR LROD 180030Z AUTO 09003KT 070V130 5000 BR FEW100///
                        12/12 Q1012=
201905180100 METAR LROD 180100Z AUTO 08004KT 8000 FEW085/// BKN100///
                        12/12 Q1011=
201905180130 METAR LROD 180130Z AUTO 10003KT 6000 BKN230/// 12/12 Q1011=
201905180200 METAR LROD 180200Z AUTO 10005KT 6000 BKN220/// 12/11 Q1011=
201905180230 METAR LROD 180230Z AUTO 10005KT 8000 FEW230/// 11/11 Q1011=
201905180300 METAR LROD 180300Z AUTO 11004KT 9999 NCD 11/10 Q1011=
201905180330 METAR LROD 180330Z AUTO 11003KT 9999 NCD 11/10 Q1011=
201905180400 METAR COR LROD 180400Z 10005KT CAVOK 11/10 Q1011=
201905180430 METAR LROD 180430Z 10005KT CAVOK 12/11 Q1011=
201905180500 METAR LROD 180500Z 12002KT 080V150 CAVOK 13/12 Q1011=
201905180530 METAR LROD 180530Z 10004KT 050V120 CAVOK 15/12 Q1011=
201905180600 METAR LROD 180600Z 07004KT 040V130 CAVOK 16/13 Q1011=
201905180630 METAR LROD 180630Z 10004KT 040V140 CAVOK 17/13 Q1011=
201905180700 METAR LROD 180700Z 06003KT 340V110 CAVOK 18/13 Q1011=
201905180730 METAR LROD 180730Z VRB02KT CAVOK 19/13 Q1011=
201905180800 METAR LROD 180800Z VRB02KT CAVOK 20/14 Q1011=
201905180830 METAR COR LROD 180830Z 27003KT 220V360 CAVOK 21/13 Q1011=
201905180900 METAR LROD 180900Z 23003KT 150V290 CAVOK 21/13 Q1011=
201905180930 METAR LROD 180930Z 32003KT 280V030 CAVOK 22/14 Q1010=
201905181000 METAR LROD 181000Z VRB03KT CAVOK 22/14 Q1010=
201905181030 METAR LROD 181030Z 29004KT 190V360 CAVOK 23/13 Q1010=
201905181100 METAR LROD 181100Z 28005KT 240V350 CAVOK 23/13 Q1009=
201905181130 METAR LROD 181130Z VRB03KT CAVOK 24/12 Q1009=
201905181200 METAR LROD 181200Z 27005KT 230V310 CAVOK 24/13 Q1009=
201905181230 METAR LROD 181230Z 27004KT 220V300 CAVOK 25/13 Q1009=
201905181300 METAR LROD 181300Z 24007KT 210V270 CAVOK 25/14 Q1009=
201905181330 METAR LROD 181330Z 28005KT 220V320 CAVOK 24/13 Q1008=
201905181400 METAR COR LROD 181400Z 33003KT 260V040 CAVOK 24/13 Q1008=
201905181430 METAR LROD 181430Z 31005KT 240V020 CAVOK 25/13 Q1008=
201905181500 METAR LROD 181500Z 09008KT 050V120 CAVOK 23/13 Q1008=
201905181530 METAR LROD 181530Z 09008KT 060V120 CAVOK 22/11 Q1008=
201905181600 METAR LROD 181600Z 10008KT 070V130 CAVOK 22/11 Q1007=
201905181630 METAR LROD 181630Z 09007KT 060V130 CAVOK 22/12 Q1008=
201905181700 METAR LROD 181700Z 11005KT CAVOK 21/13 Q1008=
201905181730 METAR LROD 181730Z 07006KT 040V100 CAVOK 20/13 Q1008=
201905181800 METAR COR LROD 181800Z 07006KT 040V100 CAVOK 20/13 Q1008=
201905181830 METAR LROD 181830Z AUTO 09005KT 9999 NCD 18/14 Q1008=
201905181900 METAR LROD 181900Z AUTO 10005KT 9999 NCD 17/14 Q1008=
201905181930 METAR LROD 181930Z AUTO 11004KT 9999 NCD 16/14 Q1008=
201905182000 METAR LROD 182000Z AUTO 12005KT 9999 NCD 16/14 Q1008=
201905182030 METAR LROD 182030Z AUTO 09006KT 9999 NCD 15/14 Q1008=
201905182100 METAR LROD 182100Z AUTO 11006KT 9999 NCD 15/13 Q1007=
201905182130 METAR LROD 182130Z AUTO 11005KT 9999 NCD 14/12 Q1007=
201905182200 METAR LROD 182200Z AUTO 10006KT 9999 NCD 14/12 Q1007=
201905182230 METAR LROD 182230Z AUTO 10006KT 9999 NCD 14/12 Q1007=
201905182300 METAR LROD 182300Z AUTO 10006KT 9999 NCD 13/12 Q1007=
201905182330 METAR LROD 182330Z AUTO 11005KT 9999 NCD 13/12 Q1007=
201905190000 METAR LROD 190000Z AUTO 10006KT 9999 FEW080/// 13/12 Q1007=
201905190030 METAR LROD 190030Z AUTO 11005KT 9999 NCD 13/11 Q1007=
201905190100 METAR LROD 190100Z AUTO 10005KT 9999 NCD 13/11 Q1007=
201905190130 METAR LROD 190130Z AUTO 14007KT 110V170 9999 SCT065/// 12/11
                        Q1008=
201905190200 METAR LROD 190200Z AUTO 17005KT 110V210 9999 BKN060/// 14/13
                        Q1008=
201905190230 METAR LROD 190230Z AUTO 17005KT 140V200 9999 BKN060/// 14/13
                        Q1008=
201905190300 METAR LROD 190300Z AUTO 10005KT 9999 FEW065/// BKN120///
                        14/13 Q1007=
201905190330 METAR LROD 190330Z AUTO 10004KT 060V140 9999 SCT100/// BKN160///
                        14/13 Q1007=
201905190400 METAR LROD 190400Z 10005KT CAVOK 14/13 Q1008=
201905190430 METAR LROD 190430Z 15005KT 120V180 CAVOK 17/14 Q1008=
201905190500 METAR LROD 190500Z 16005KT CAVOK 17/14 Q1008=
201905190530 METAR LROD 190530Z 14003KT CAVOK 18/14 Q1008=
201905190600 METAR LROD 190600Z 18003KT CAVOK 19/14 Q1008=
201905190630 METAR LROD 190630Z 21004KT 160V250 CAVOK 20/14 Q1008=
201905190700 METAR LROD 190700Z 20006KT 150V230 CAVOK 20/14 Q1008=
201905190730 METAR LROD 190730Z 19007KT 160V220 CAVOK 21/14 Q1008=
201905190800 METAR LROD 190800Z 19007KT 140V230 CAVOK 22/14 Q1008=
201905190830 METAR LROD 190830Z 19007KT 160V230 CAVOK 23/13 Q1008=
201905190900 METAR LROD 190900Z 21010KT 170V230 CAVOK 23/13 Q1008=
201905190930 METAR LROD 190930Z 22007KT 170V250 CAVOK 23/15 Q1008=
201905191000 METAR LROD 191000Z 18010KT 150V210 CAVOK 24/14 Q1008=
201905191030 METAR LROD 191030Z 21006KT 160V310 CAVOK 24/14 Q1007=
201905191100 METAR LROD 191100Z 20005KT 160V260 CAVOK 25/14 Q1007=
201905191130 METAR LROD 191130Z 22006KT 170V260 CAVOK 26/14 Q1007=
201905191200 METAR LROD 191200Z VRB03KT CAVOK 26/13 Q1006=
201905191230 METAR LROD 191230Z VRB03KT CAVOK 27/12 Q1006=
201905191300 METAR LROD 191300Z 22006KT 180V260 CAVOK 27/10 Q1006=
201905191330 METAR LROD 191330Z 09006KT 030V140 CAVOK 27/11 Q1006=
201905191400 METAR LROD 191400Z 08003KT 340V140 CAVOK 26/13 Q1006=
201905191430 METAR LROD 191430Z 11004KT 070V150 CAVOK 27/12 Q1005=
201905191500 METAR LROD 191500Z 06006KT 030V090 9999 FEW049 25/14 Q1005=
201905191530 METAR LROD 191530Z 07008KT 9999 FEW025CB SCT040 24/14 Q1005=
201905191600 METAR LROD 191600Z 08005KT 9999 -SHRA FEW025CB SCT033 24/15
                        Q1005=
201905191630 METAR LROD 191630Z VRB04KT 9999 VCSH FEW022CB SCT030 21/15
                        Q1005=
201905191700 METAR LROD 191700Z 29006KT 9999 VCTS FEW025CB SCT028 20/16
                        Q1005=
201905191730 METAR LROD 191730Z 36008KT 320V030 9999 FEW030CB SCT033 19/16
                        Q1005=
201905191800 METAR LROD 191800Z 34006KT 9999 FEW045CB SCT049 19/16 Q1004=
201905191830 METAR LROD 191830Z AUTO 01008KT 9999 NCD 18/15 Q1004=
201905191900 METAR LROD 191900Z AUTO 01009KT 9999 NCD 18/15 Q1004=
201905191930 METAR LROD 191930Z AUTO 03008KT 9999 NCD 18/15 Q1004=
201905192000 METAR LROD 192000Z AUTO 03006KT 9999 FEW130/// BKN160///
                        18/15 Q1004=
201905192030 METAR LROD 192030Z AUTO 04008KT 9999 SCT170/// 18/14 Q1003=
201905192100 METAR LROD 192100Z AUTO 08007KT 9999 SCT120/// BKN160///
                        19/14 Q1003=
201905192130 METAR LROD 192130Z AUTO 10007KT 070V130 9999 BKN100/// BKN170///
                        19/14 Q1002=
201905192200 METAR LROD 192200Z AUTO 09008KT 9999 -RA FEW050/// BKN100///
                        18/15 Q1002=
201905192230 METAR LROD 192230Z AUTO 21021G31KT 9999 -SHRA FEW065/// SCT090///
                        BKN110/// 17/15 Q1005=
201905192300 METAR LROD 192300Z AUTO 24020KT 9999 FEW050/// SCT110///
                        15/12 Q1005 RERA=
201905192330 METAR LROD 192330Z AUTO 22016KT 9999 -SHRA SCT055/// BKN100///
                        BKN120/// 15/13 Q1007=
201905200000 METAR LROD 200000Z AUTO 21013KT 9999 -SHRA SCT065/// BKN085///
                        14/13 Q1007=
201905200030 METAR LROD 200030Z AUTO 12005KT 9999 RA FEW050/// BKN070///
                        OVC085/// 14/13 Q1007=
201905200100 METAR LROD 200100Z AUTO 10007KT 9999 RA FEW043/// BKN070///
                        OVC085/// 14/13 Q1005=
201905200130 METAR LROD 200130Z AUTO 11009KT 060V150 9999 -SHRA FEW055///
                        BKN100/// 14/13 Q1005=
201905200200 METAR LROD 200200Z AUTO 13007KT 100V170 9999 BKN120/// 14/13
                        Q1005 RERA=
201905200230 METAR LROD 200230Z AUTO 15009KT 9999 FEW120/// BKN180///
                        15/13 Q1005=
201905200300 METAR LROD 200300Z AUTO 16009KT 9999 FEW130/// 14/12 Q1005=
201905200330 METAR LROD 200330Z AUTO 15007KT 9999 NCD 14/12 Q1005=
201905200400 METAR LROD 200400Z 15005KT CAVOK 14/12 Q1006=
201905200430 METAR LROD 200430Z 18005KT CAVOK 14/13 Q1006=
201905200500 METAR LROD 200500Z 19007KT CAVOK 16/13 Q1006=
201905200530 METAR LROD 200530Z 19007KT CAVOK 16/13 Q1006=
201905200600 METAR LROD 200600Z 20008KT CAVOK 17/14 Q1006=
201905200630 METAR LROD 200630Z 20009KT CAVOK 17/13 Q1007=
201905200700 METAR LROD 200700Z 18008KT 150V210 9999 FEW017 18/14 Q1007=
201905200730 METAR LROD 200730Z 19008KT 9999 SCT017 18/14 Q1007=
201905200800 METAR LROD 200800Z 21006KT 9999 SCT018 18/14 Q1007=
201905200830 METAR LROD 200830Z 17005KT 130V200 9999 SCT021 19/14 Q1008=
201905200900 METAR LROD 200900Z 18007KT 150V220 9999 SCT020 20/14 Q1008=
201905200930 METAR LROD 200930Z 18007KT 9999 SCT026 19/14 Q1008=
201905201000 METAR LROD 201000Z 21008KT 9999 SCT026 19/14 Q1008=
201905201030 METAR LROD 201030Z 21007KT 9999 FEW027 19/13 Q1008=
201905201100 METAR LROD 201100Z 19007KT 9999 FEW030 20/13 Q1008=
201905201130 METAR LROD 201130Z 19005KT 130V240 9999 FEW030 20/13 Q1008=
201905201200 METAR LROD 201200Z 19004KT 130V240 9999 FEW035 21/12 Q1008=
201905201230 METAR LROD 201230Z 16003KT 9999 FEW030 21/12 Q1008=
201905201300 METAR LROD 201300Z 17004KT 060V210 9999 FEW033 22/13 Q1007=
201905201330 METAR LROD 201330Z 18004KT 100V230 9999 FEW044 22/12 Q1007=
201905201400 METAR LROD 201400Z 17003KT 9999 FEW042 22/11 Q1007=
201905201430 METAR LROD 201430Z 17004KT 130V250 9999 FEW040CB 21/13 Q1007=
201905201500 METAR LROD 201500Z 18005KT 150V210 9999 FEW040CB 22/12 Q1006=
201905201530 METAR LROD 201530Z 19004KT 150V240 9999 FEW043CB 22/11 Q1006=
201905201600 METAR LROD 201600Z 30010KT 9999 FEW040CB 20/12 Q1006=
201905201630 METAR LROD 201630Z 01004KT 340V040 9999 FEW045CB 20/12 Q1006=
201905201700 METAR LROD 201700Z 02002KT 9999 FEW040CB 20/13 Q1006=
201905201730 METAR LROD 201730Z 11001KT CAVOK 20/11 Q1006=
201905201800 METAR LROD 201800Z 00000KT CAVOK 18/14 Q1006=
201905201830 METAR LROD 201830Z 12004KT CAVOK 17/13 Q1006=
201905201900 METAR LROD 201900Z 16004KT 9999 FEW050CB 17/14 Q1006=
201905201930 METAR LROD 201930Z 19006KT 9999 FEW050CB 16/13 Q1007=
201905202000 METAR LROD 202000Z 22010KT 9999 FEW033CB 17/13 Q1007=
201905202030 METAR LROD 202030Z 20012KT 9999 FEW036CB 16/13 Q1007=
201905202100 METAR LROD 202100Z AUTO 20010KT 9999 FEW055/// BKN100///
                        15/10 Q1007=
201905202130 METAR LROD 202130Z AUTO 19012KT 9999 BKN060/// BKN100///
                        15/11 Q1007=
201905202200 METAR LROD 202200Z AUTO 21013KT 9999 FEW060/// SCT080///
                        BKN170/// 15/12 Q1007=
201905202230 METAR LROD 202230Z AUTO 25010KT 9999 FEW065/// BKN110///
                        BKN150/// 14/12 Q1008=
201905202300 METAR LROD 202300Z AUTO 22008KT 9999 FEW070/// BKN085///
                        14/12 Q1008=
201905202330 METAR LROD 202330Z AUTO 19006KT 9999 -RA BKN070/// OVC090///
                        13/12 Q1008=
201905210000 METAR LROD 210000Z AUTO 21005KT 9999 -RA SCT070/// BKN085///
                        13/12 Q1008=
201905210030 METAR LROD 210030Z AUTO 21008KT 9999 DZ FEW046/// OVC070///
                        13/12 Q1008=
201905210100 METAR LROD 210100Z AUTO 21009KT 9999 -RA FEW025/// BKN070///
                        13/12 Q1008=
201905210130 METAR LROD 210130Z AUTO 21012KT 9999 RA BKN060/// OVC075///
                        13/13 Q1008=
201905210200 METAR LROD 210200Z AUTO 21013KT 9999 -RA SCT060/// BKN075///
                        13/12 Q1008=
201905210230 METAR LROD 210230Z AUTO 21012KT 9999 RA OVC065/// 12/12 Q1007=
201905210300 METAR LROD 210300Z AUTO 20011KT 9999 DZ BKN065/// 12/12 Q1007=
201905210330 METAR LROD 210330Z AUTO 19010KT 9999 DZ OVC065/// 12/12 Q1008=
201905210400 METAR COR LROD 210400Z 18010KT 9999 -SHRA FEW040CB 12/12
                        Q1008=
201905210430 METAR LROD 210430Z 17010KT 9999 -SHRA FEW045CB 13/12 Q1008
                        R01/29//95=
201905210500 METAR LROD 210500Z 17012KT 9999 -RA FEW045 13/12 Q1008 R01/29//95=
201905210530 METAR LROD 210530Z 19012KT 9999 -RA FEW010 13/12 Q1008 R01/29//95=
201905210600 METAR LROD 210600Z 18013KT 9999 SCT012 14/13 Q1008 R01/29//95=
201905210630 METAR LROD 210630Z 20014KT 9999 SCT010 14/13 Q1008 R01/29//95=
201905210700 METAR LROD 210700Z 19014KT 9999 FEW010 BKN048 14/13 Q1008
                        R01/29//95=
201905210730 METAR LROD 210730Z 19015KT 9999 SCT011 BKN049 16/13 Q1009
                        R01/CLRD//=
201905210800 METAR LROD 210800Z 19014KT 9999 SCT013 16/13 Q1009=
201905210830 METAR LROD 210830Z 20014KT 9999 SCT016 17/13 Q1009=
201905210900 METAR LROD 210900Z 19013KT 9999 FEW017 18/12 Q1009=
201905210930 METAR LROD 210930Z 20013KT 170V230 9999 SCT027 19/12 Q1009=
201905211000 METAR LROD 211000Z 20014KT 9999 BKN034 19/11 Q1009=
201905211030 METAR LROD 211030Z 21015KT 9999 BKN042 20/12 Q1009=
201905211100 METAR LROD 211100Z 21016KT 9999 BKN036 FEW040CB 20/13 Q1009=
201905211130 METAR LROD 211130Z 21016KT 9999 -SHRA SCT023 FEW042CB 18/12
                        Q1009=
201905211200 METAR LROD 211200Z 22018KT 9999 VCTS SCT037 FEW040CB 20/11
                        Q1009=
201905211230 METAR LROD 211230Z 21017KT 9999 FEW040CB SCT048 20/12 Q1008=
201905211300 METAR LROD 211300Z 22016KT 9999 FEW040CB SCT042 20/11 Q1009=
201905211330 METAR LROD 211330Z 21015KT 9999 FEW040CB BKN042 20/11 Q1008=
201905211400 METAR LROD 211400Z 20017KT 9999 FEW045CB SCT047 20/11 Q1008=
201905211430 METAR LROD 211430Z 21016KT 9999 SCT046 20/11 Q1008=
201905211500 METAR LROD 211500Z 21013KT 9999 FEW047 21/12 Q1008=
201905211530 METAR LROD 211530Z 21015KT CAVOK 20/09 Q1008=
201905211600 METAR LROD 211600Z 20014KT 9999 FEW040CB 20/12 Q1008=
201905211630 METAR LROD 211630Z 20016KT 9999 FEW045CB 20/11 Q1008=
201905211700 METAR LROD 211700Z 19011KT 9999 VCSH FEW045CB 19/11 Q1008=
201905211730 METAR LROD 211730Z 19011KT 9999 VCSH FEW045CB 18/11 Q1008=
201905211800 METAR LROD 211800Z 19009KT 9999 VCSH FEW047CB 17/12 Q1008=
201905211830 METAR LROD 211830Z AUTO 22013KT 9999 -RA BKN050/// BKN065///
                        17/11 Q1009=
201905211900 METAR LROD 211900Z AUTO 18006KT 9999 -SHRA SCT060/// BKN075///
                        15/12 Q1009=
201905211930 METAR LROD 211930Z AUTO 19007KT 9999 FEW060/// BKN080///
                        15/12 Q1010 RERA=
201905212000 METAR LROD 212000Z AUTO 20008KT 9999 BKN080/// 15/12 Q1010=
201905212030 METAR LROD 212030Z AUTO 20009KT 9999 SCT085/// 14/11 Q1010=
201905212100 METAR LROD 212100Z AUTO 19010KT 9999 FEW090/// 14/11 Q1010=
201905212130 METAR LROD 212130Z AUTO 19009KT 9999 NCD 13/11 Q1010=
201905212200 METAR LROD 212200Z AUTO 19009KT 9999 NCD 13/11 Q1010=
201905212230 METAR LROD 212230Z AUTO 19010KT 9999 BKN070/// 13/11 Q1010=
201905212300 METAR LROD 212300Z AUTO 19011KT 9999 FEW075/// 13/11 Q1010=
201905212330 METAR LROD 212330Z AUTO 19011KT 9999 NCD 13/11 Q1010=
201905220000 METAR LROD 220000Z AUTO 20011KT 9999 NCD 12/10 Q1010=
201905220030 METAR LROD 220030Z AUTO 19012KT 9999 NCD 12/10 Q1010=
201905220100 METAR LROD 220100Z AUTO 19011KT 9999 FEW030/// SCT039///
                        12/11 Q1010=
201905220130 METAR LROD 220130Z AUTO 20010KT 9999 SCT031/// OVC039///
                        13/11 Q1010=
201905220200 METAR LROD 220200Z AUTO 20011KT 9999 SCT026/// OVC039///
                        13/11 Q1010=
201905220230 METAR LROD 220230Z AUTO 19011KT 9999 SCT041/// BKN050///
                        OVC085/// 13/11 Q1010=
201905220300 METAR LROD 220300Z AUTO 19012KT 9999 FEW023/// BKN048///
                        OVC085/// 13/11 Q1010=
201905220330 METAR LROD 220330Z AUTO 20012KT 9999 FEW023/// OVC050///
                        13/11 Q1010=
201905220400 METAR LROD 220400Z 19012KT 9999 SCT026 13/11 Q1010=
201905220430 METAR LROD 220430Z 19013KT 9999 -SHRA FEW026CB SCT030 13/12
                        Q1010=
201905220500 METAR LROD 220500Z 19015KT 9999 FEW030CB SCT039 14/12 Q1010=
201905220530 METAR LROD 220530Z 19014KT 9999 FEW026 SCT037 15/12 Q1010=
201905220600 METAR LROD 220600Z 20014KT 9999 SCT015 FEW026CB BKN043 15/12
                        Q1010=
201905220630 METAR LROD 220630Z 19015KT 9999 FEW020 SCT026 15/13 Q1010=
201905220700 METAR LROD 220700Z 20017KT 9999 SCT015 16/12 Q1010=
201905220730 METAR LROD 220730Z 20017KT 9999 BKN016 16/13 Q1010=
201905220800 METAR COR LROD 220800Z 20018KT 9999 SCT019 17/13 Q1010=
201905220830 METAR LROD 220830Z 20018KT 9999 FEW019 BKN023 17/13 Q1010=
201905220900 METAR LROD 220900Z 20017KT 9999 SCT021 18/13 Q1010=
201905220930 METAR LROD 220930Z 20017KT 9999 FEW020 19/13 Q1010=
201905221000 METAR LROD 221000Z 20015KT 9999 FEW026 19/13 Q1010=
201905221030 METAR LROD 221030Z 20018KT 9999 SCT027 19/13 Q1010=
201905221100 METAR LROD 221100Z 21017KT 9999 FEW030 21/14 Q1010=
201905221130 METAR LROD 221130Z 20019KT 9999 FEW028 21/14 Q1009=
201905221200 METAR LROD 221200Z 27019KT 8000 -TSRA FEW029 BKN035CB 15/13
                        Q1010 RETSRA R01/29//95=
201905221230 METAR LROD 221230Z 23010KT 9999 -TSRA FEW032 SCT037CB 15/14
                        Q1010 R01/29//95=
201905221300 METAR LROD 221300Z 22007KT 9999 FEW035CB SCT038 16/14 Q1010
                        R01/29//95=
201905221330 METAR LROD 221330Z 21011KT 9999 FEW040CB SCT045 18/15 Q1009
                        R01/29//95=
201905221400 METAR LROD 221400Z 21011KT 9999 FEW024 18/15 Q1009 R01/29//95=
201905221430 METAR LROD 221430Z 25012KT 9999 SCT038 19/13 Q1009 R01/29//95=
201905221500 METAR LROD 221500Z 25011KT 9999 BKN039 19/13 Q1009 R01/29//95=
201905221530 METAR LROD 221530Z 25013KT 220V280 9999 FEW028CB SCT041 19/13
                        Q1009 R01/29//95=
201905221600 METAR LROD 221600Z 26010KT 9999 FEW030CB BKN040 17/13 Q1009
                        R01/29//95=
201905221630 METAR LROD 221630Z 28011KT 9000 -SHRA FEW030CB BKN038 15/14
                        Q1009 R01/29//95=
201905221700 METAR LROD 221700Z 25013KT 8000 -SHRA FEW012 SCT026CB BKN045
                        14/14 Q1010 RESHRA R01/29//95=
201905221730 METAR LROD 221730Z 24010KT 9999 -SHRA FEW028CB BKN037 15/14
                        Q1010 R01/29//95=
201905221800 METAR LROD 221800Z 22009KT 9999 -SHRA FEW019 FEW030CB BKN039
                        15/14 Q1010 R01/29//95=
201905221830 METAR LROD 221830Z AUTO 24009KT 9999 FEW019/// BKN049///
                        15/14 Q1010 REDZ=
201905221900 METAR LROD 221900Z AUTO 21008KT 9999 FEW033/// BKN055///
                        BKN085/// 15/14 Q1010=
201905221930 METAR LROD 221930Z AUTO 21010KT 9999 -SHRA BKN046/// BKN095///
                        15/14 Q1010=
201905222000 METAR LROD 222000Z AUTO 22011KT 9999 FEW024/// SCT055///
                        BKN110/// 14/13 Q1010 REDZ=
201905222030 METAR LROD 222030Z AUTO 21011KT 9999 BKN031/// 14/13 Q1010=
201905222100 METAR LROD 222100Z AUTO 21011KT 9999 BKN037/// BKN085///
                        OVC100/// 14/13 Q1010=
201905222130 METAR LROD 222130Z AUTO 21010KT 9999 FEW013/// OVC042///
                        14/14 Q1010=
201905222200 METAR LROD 222200Z AUTO 21011KT 9999 FEW021/// SCT028///
                        OVC043/// 15/13 Q1010=
201905222230 METAR LROD 222230Z AUTO 21011KT 9999 -DZ SCT015/// BKN021///
                        BKN030/// 14/13 Q1010=
201905222300 METAR LROD 222300Z AUTO 22011KT 9999 FEW013/// SCT024///
                        BKN037/// 14/13 Q1010 REDZ=
201905222330 METAR LROD 222330Z AUTO 22011KT 9999 FEW017/// SCT027///
                        BKN042/// 14/13 Q1010 REDZ=
201905230000 METAR LROD 230000Z AUTO 22010KT 9999 FEW015/// BKN019///
                        BKN027/// 14/13 Q1010=
201905230030 METAR LROD 230030Z AUTO 23009KT 9999 FEW012/// SCT019///
                        BKN024/// 14/13 Q1010=
201905230100 METAR LROD 230100Z AUTO 23009KT 9000 FEW014/// SCT022///
                        BKN030/// 14/13 Q1010=
201905230130 METAR LROD 230130Z AUTO 22009KT 9999 SCT014/// BKN018///
                        14/13 Q1010=
201905230200 METAR LROD 230200Z AUTO 22008KT 9999 FEW012/// BKN017///
                        BKN025/// 14/13 Q1010=
201905230230 METAR LROD 230230Z AUTO 23009KT 9999 FEW008/// SCT018///
                        BKN024/// 14/13 Q1010=
201905230300 METAR LROD 230300Z AUTO 23007KT 9999 OVC016/// 14/13 Q1010=
201905230330 METAR LROD 230330Z AUTO 21009KT 9999 FEW012/// BKN015///
                        14/13 Q1010=
201905230400 METAR LROD 230400Z 22012KT 9999 BKN012 OVC016 13/12 Q1010
                        R01/CLRD//=
201905230430 METAR LROD 230430Z 24010KT 9999 BKN013 OVC016 13/12 Q1010=
201905230500 METAR LROD 230500Z 23009KT 9999 BKN013 OVC016 13/11 Q1011=
201905230530 METAR LROD 230530Z 25010KT 9999 BKN012 OVC016 13/11 Q1011=
201905230600 METAR LROD 230600Z 23009KT 9999 BKN011 OVC016 13/11 Q1011=
201905230630 METAR LROD 230630Z 22010KT 9999 BKN012 OVC016 13/12 Q1011=
201905230700 METAR LROD 230700Z 23008KT 9999 BKN013 OVC016 14/12 Q1011=
201905230730 METAR LROD 230730Z 24009KT 9999 BKN012 BKN016 14/11 Q1012=
201905230800 METAR LROD 230800Z 24008KT 9999 SCT012 OVC019 14/12 Q1012=
201905230830 METAR LROD 230830Z 22009KT 9999 SCT014 OVC022 14/12 Q1012=
201905230900 METAR LROD 230900Z 21009KT 9999 BKN017 OVC024 14/12 Q1012=
201905230930 METAR LROD 230930Z 20012KT 9999 BKN014 BKN018 15/12 Q1012=
201905231000 METAR LROD 231000Z 20010KT 9999 FEW014 BKN020 15/12 Q1012=
201905231030 METAR LROD 231030Z 20011KT 9999 SCT018 OVC025 15/12 Q1012=
201905231100 METAR LROD 231100Z 20011KT 9999 BKN021 BKN033 15/13 Q1012=
201905231130 METAR LROD 231130Z 19010KT 9999 BKN020 OVC030 15/13 Q1012=
201905231200 METAR LROD 231200Z 19009KT 9999 -RA BKN023 BKN034 15/13 Q1012=
201905231230 METAR LROD 231230Z 20009KT 9999 FEW014 BKN030 15/13 Q1012=
201905231300 METAR LROD 231300Z 20007KT 9999 -RA FEW018 BKN027 15/13 Q1012=
201905231330 METAR LROD 231330Z 22005KT 9999 FEW020 BKN033 16/13 Q1012=
201905231400 METAR LROD 231400Z 21009KT 6000 -RA FEW015 BKN032 15/13 Q1012=
201905231430 METAR LROD 231430Z 20008KT 8000 FEW025 BKN031 14/13 Q1012=
201905231500 METAR LROD 231500Z 21007KT 9999 BKN035 15/13 Q1012=
201905231530 METAR LROD 231530Z 19007KT 9999 BKN036 15/14 Q1012=
201905231600 METAR LROD 231600Z 18007KT 9999 BKN026 15/13 Q1012=
201905231630 METAR LROD 231630Z 18006KT 9999 BKN023 15/13 Q1012=
201905231700 METAR LROD 231700Z 18006KT 9999 FEW012 BKN024 14/13 Q1012=
201905231730 METAR LROD 231730Z 18007KT 9999 BKN028 BKN043 14/13 Q1012=
201905231800 METAR LROD 231800Z 18006KT 9999 -RA FEW029 BKN044 14/13 Q1012=
201905231830 METAR LROD 231830Z AUTO 18005KT 9999 -RA FEW024/// SCT033///
                        BKN080/// 14/13 Q1012=
201905231900 METAR LROD 231900Z AUTO 17006KT 9999 -DZ FEW018/// SCT036///
                        BKN070/// 14/13 Q1012=
201905231930 METAR LROD 231930Z AUTO 18006KT 9999 BKN016/// OVC085///
                        14/13 Q1012 REDZ=
201905232000 METAR LROD 232000Z AUTO 18004KT 8000 BKN014/// BKN090///
                        14/13 Q1012=
201905232030 METAR LROD 232030Z AUTO 18004KT 8000 BKN013/// OVC080///
                        14/13 Q1012=
201905232100 METAR LROD 232100Z AUTO 18003KT 7000 BKN011/// BKN036///
                        OVC070/// 14/13 Q1012=
201905232130 METAR LROD 232130Z AUTO 18003KT 8000 SCT006/// BKN009///
                        14/13 Q1012=
201905232200 METAR LROD 232200Z AUTO 18003KT 100V230 9000 BKN006/// OVC009///
                        14/13 Q1012=
201905232230 METAR LROD 232230Z AUTO 00000KT 8000 SCT007/// BKN009///
                        BKN041/// 14/13 Q1012=
201905232300 METAR LROD 232300Z AUTO 12001KT 5000 RA FEW006/// SCT009///
                        BKN014/// 14/13 Q1012=
201905232330 METAR LROD 232330Z AUTO VRB01KT 6000 FEW006/// SCT009///
                        BKN025/// 14/13 Q1012 RERA=
201905240000 METAR LROD 240000Z AUTO 13002KT 090V170 9000 FEW008/// BKN024///
                        BKN028/// 14/13 Q1012 RERA=
201905240030 METAR LROD 240030Z AUTO 18002KT 7000 FEW008/// BKN010///
                        14/13 Q1012=
201905240100 METAR LROD 240100Z AUTO 19001KT 6000 SCT011/// OVC014///
                        14/13 Q1012=
201905240130 METAR LROD 240130Z AUTO 00000KT 5000 BR SCT010/// BKN018///
                        OVC024/// 14/13 Q1012=
201905240200 METAR LROD 240200Z AUTO 00000KT 4400 DZ FEW012/// SCT020///
                        BKN060/// 14/13 Q1011=
201905240230 METAR LROD 240230Z AUTO 26002KT 190V280 3600 DZ FEW010///
                        BKN013/// 14/13 Q1011=
201905240300 METAR LROD 240300Z AUTO 23001KT 1600 BKN011/// OVC060///
                        13/13 Q1011 RERA=
201905240330 METAR LROD 240330Z AUTO 28004KT 2500 SCT012/// BKN016///
                        14/13 Q1011 REDZ=
201905240400 METAR COR LROD 240400Z 33004KT 9000 FEW012 OVC029 13/13 Q1012=
201905240430 METAR LROD 240430Z 32005KT 9999 SCT005 OVC029 13/13 Q1012=
201905240500 METAR LROD 240500Z 31004KT 9999 FEW005 OVC031 14/13 Q1012=
201905240530 METAR LROD 240530Z 30004KT 9000 FEW006 SCT012 OVC031 14/13
                        Q1012=
201905240600 METAR LROD 240600Z 29005KT 9999 FEW006 BKN010 14/13 Q1012=
201905240630 METAR LROD 240630Z 28006KT 9999 SCT006 BKN010 14/13 Q1012=
201905240700 METAR LROD 240700Z 27005KT 9000 SCT005 BKN009 14/13 Q1012=
201905240730 METAR LROD 240730Z 27005KT 230V310 9999 BKN008 14/13 Q1012=
201905240800 METAR LROD 240800Z 24004KT 9999 SCT006 OVC009 14/13 Q1012=
201905240830 METAR LROD 240830Z 29003KT 9999 BKN010 15/14 Q1012=
201905240900 METAR COR LROD 240900Z 32004KT 260V350 9999 SCT009 BKN014
                        16/14 Q1012=
201905240930 METAR LROD 240930Z 30004KT 260V360 9999 SCT010 BKN021 16/14
                        Q1012=
201905241000 METAR LROD 241000Z 28007KT 9999 SCT011 BKN024 16/14 Q1012=
201905241030 METAR LROD 241030Z 29004KT 260V340 9999 SCT019 BKN027 17/14
                        Q1012=
201905241100 METAR LROD 241100Z 31004KT 250V360 9999 SCT016 BKN038 17/14
                        Q1011=
201905241130 METAR LROD 241130Z 27005KT 240V300 9999 SCT013 FEW035CB BKN045
                        17/13 Q1011=
201905241200 METAR LROD 241200Z 28006KT 260V320 9999 SCT030 FEW035CB 17/14
                        Q1011=
201905241230 METAR LROD 241230Z 28006KT 9999 FEW035CB SCT040 19/14 Q1011=
201905241300 METAR LROD 241300Z 32007KT 280V350 9999 SCT018 FEW035CB 19/14
                        Q1011=
201905241330 METAR LROD 241330Z 32008KT 9999 SCT021 FEW035CB 19/14 Q1010=
201905241400 METAR LROD 241400Z 29007KT 9999 FEW022 SCT031 FEW035TCU 20/14
                        Q1010=
201905241430 METAR LROD 241430Z 32007KT 280V340 9999 SCT024 FEW035CB 19/14
                        Q1010=
201905241500 METAR LROD 241500Z 31008KT 280V350 9999 FEW025 FEW035CB 18/14
                        Q1010=
201905241530 METAR LROD 241530Z 31009KT 280V340 9999 FEW035 FEW040CB 19/13
                        Q1010=
201905241600 METAR LROD 241600Z 30008KT 9999 FEW040CB 19/14 Q1010=
201905241630 METAR LROD 241630Z 32009KT 9999 FEW018 FEW044CB 18/14 Q1010=
201905241700 METAR LROD 241700Z 28003KT 9999 TS FEW030 FEW040CB 18/13
                        Q1010=
201905241730 METAR LROD 241730Z 25002KT 9999 FEW022 SCT038 FEW040CB 17/15
                        Q1011 RETS=
201905241800 METAR LROD 241800Z 09005KT 8000 -SHRA FEW016 SCT032 FEW037CB
                        15/14 Q1011=
201905241830 METAR LROD 241830Z 20005KT 9999 -SHRA FEW016 FEW039CB 15/14
                        Q1011 R01/29//95=
201905241900 METAR LROD 241900Z 17003KT 9999 -SHRA FEW017 FEW040CB 15/14
                        Q1011 R01/29//95=
201905241930 METAR LROD 241930Z 10002KT 9999 -RA NSC 14/14 Q1011 R01/29//95=
201905242000 METAR LROD 242000Z AUTO 16004KT 9999 SCT032/// BKN085///
                        14/13 Q1011 RERA=
201905242030 METAR LROD 242030Z AUTO 17004KT 9999 FEW028/// SCT033///
                        BKN050/// 14/14 Q1011=
201905242100 METAR LROD 242100Z AUTO 16003KT 9999 FEW035/// SCT240///
                        14/13 Q1011=
201905242130 METAR LROD 242130Z AUTO 00000KT 2800 R19/1200VP2000U BCFG
                        FEW017/// SCT095/// 13/13 Q1011=
201905242200 METAR LROD 242200Z AUTO 17003KT 9999 FEW005/// BKN016///
                        14/14 Q1011=
201905242230 METAR LROD 242230Z AUTO VRB01KT 9999 FEW004/// BKN016///
                        OVC020/// 14/14 Q1011=
201905242300 METAR LROD 242300Z AUTO 17002KT 9000 BKN014/// 14/14 Q1011=
201905242330 METAR LROD 242330Z AUTO 21004KT 9999 FEW011/// BKN015///
                        OVC032/// 14/14 Q1011=
201905250000 METAR LROD 250000Z AUTO 24005KT 9999 SCT005/// BKN013///
                        14/14 Q1011=
201905250030 METAR LROD 250030Z AUTO VRB01KT 9999 OVC011/// 14/14 Q1011=
201905250100 METAR LROD 250100Z AUTO 36003KT 9999 BKN012/// 14/14 Q1011=
201905250130 METAR LROD 250130Z AUTO 35004KT 9999 OVC013/// 14/13 Q1011=
201905250200 METAR LROD 250200Z AUTO 01004KT 9999 BKN013/// BKN080///
                        14/13 Q1011=
201905250230 METAR LROD 250230Z AUTO 32002KT 290V360 9999 FEW014/// BKN080///
                        BKN100/// 14/13 Q1012=
201905250300 METAR LROD 250300Z AUTO 31001KT 9999 FEW065/// BKN085///
                        BKN100/// 13/13 Q1012=
201905250330 METAR LROD 250330Z AUTO 01003KT 9999 BKN100/// 13/12 Q1012=
201905250400 METAR LROD 250400Z 34002KT CAVOK 13/12 Q1012=
201905250430 METAR LROD 250430Z 00000KT CAVOK 14/12 Q1012=
201905250500 METAR LROD 250500Z 29002KT CAVOK 14/13 Q1012=
201905250530 METAR LROD 250530Z 32003KT CAVOK 14/13 Q1012=
201905250600 METAR LROD 250600Z 31004KT 280V340 CAVOK 15/12 Q1013=
201905250630 METAR LROD 250630Z AUTO 36007KT 9999 BKN100/// 15/12 Q1013=
201905250700 METAR LROD 250700Z 34005KT 310V010 9999 FEW017 16/12 Q1013=
201905250730 METAR LROD 250730Z VRB03KT CAVOK 17/13 Q1013=
201905250800 METAR COR LROD 250800Z 31004KT 250V360 CAVOK 18/13 Q1013=
201905250830 METAR LROD 250830Z VRB02KT CAVOK 18/14 Q1013=
201905250900 METAR LROD 250900Z 32005KT 280V040 CAVOK 18/13 Q1014=
201905250930 METAR LROD 250930Z 30006KT 260V340 9999 SCT024 BKN031 19/14
                        Q1014=
201905251000 METAR LROD 251000Z 27004KT 210V320 9999 FEW027 BKN038 19/14
                        Q1014=
201905251030 METAR LROD 251030Z VRB04KT 9999 FEW028 SCT035 20/14 Q1014=
201905251100 METAR LROD 251100Z 30008KT 9999 FEW031 SCT045 21/13 Q1013=
201905251130 METAR LROD 251130Z 27005KT 220V310 9999 FEW035 SCT046 21/13
                        Q1013=
201905251200 METAR LROD 251200Z 29007KT 260V320 9999 FEW040 21/13 Q1013=
201905251230 METAR LROD 251230Z 28006KT 240V310 9999 SCT036 22/13 Q1013=
201905251300 METAR LROD 251300Z 29008KT 250V320 9999 FEW045 22/13 Q1013=
201905251330 METAR LROD 251330Z 29008KT 250V320 9999 FEW045 22/13 Q1013=
201905251400 METAR LROD 251400Z 28008KT 250V320 9999 FEW044 23/12 Q1013=
201905251430 METAR LROD 251430Z 27009KT 9999 FEW044 23/13 Q1013=
201905251500 METAR LROD 251500Z 26009KT 9999 FEW044 FEW049CB 22/11 Q1013=
201905251530 METAR LROD 251530Z 29009KT 9999 FEW045 FEW049CB 22/12 Q1013=
201905251600 METAR LROD 251600Z 30005KT CAVOK 21/13 Q1012=
201905251630 METAR LROD 251630Z 27004KT 240V300 CAVOK 22/12 Q1013=
201905251700 METAR LROD 251700Z 29005KT CAVOK 21/14 Q1013=
201905251730 METAR LROD 251730Z 27003KT CAVOK 20/14 Q1013=
201905251800 METAR LROD 251800Z 25002KT CAVOK 19/15 Q1013=
201905251830 METAR LROD 251830Z AUTO 20004KT 9999 NCD 17/14 Q1013=
201905251900 METAR LROD 251900Z AUTO 19004KT 9999 FEW100/// 16/14 Q1014=
201905251930 METAR LROD 251930Z AUTO 15004KT 9999 NCD 16/14 Q1014=
201905252000 METAR LROD 252000Z AUTO 11005KT 9999 NCD 15/14 Q1014=
201905252030 METAR LROD 252030Z AUTO 14004KT 9999 NCD 15/14 Q1014=
201905252100 METAR LROD 252100Z AUTO 11005KT 9999 NCD 15/14 Q1015=
201905252130 METAR LROD 252130Z AUTO 11005KT 9999 SCT075/// BKN100///
                        15/14 Q1015=
201905252200 METAR LROD 252200Z AUTO 11005KT 9999 OVC100/// 15/14 Q1015=
201905252230 METAR LROD 252230Z AUTO 11005KT 9999 OVC100/// 15/14 Q1015=
201905252300 METAR LROD 252300Z AUTO 10005KT 9999 BKN100/// 15/14 Q1015=
201905252330 METAR LROD 252330Z AUTO 11005KT 9999 FEW095/// BKN110///
                        15/14 Q1015=
201905260000 METAR LROD 260000Z AUTO 10004KT 9999 BKN095/// 14/13 Q1015=
201905260030 METAR LROD 260030Z AUTO 10005KT 9999 FEW095/// 14/13 Q1015=
201905260100 METAR LROD 260100Z AUTO 11005KT 9999 NCD 14/13 Q1015=
201905260130 METAR LROD 260130Z AUTO 10006KT 9999 NCD 14/13 Q1015=
201905260200 METAR LROD 260200Z AUTO 10005KT 9999 NCD 13/12 Q1015=
201905260230 METAR LROD 260230Z AUTO 11005KT 9999 NCD 13/12 Q1015=
201905260300 METAR LROD 260300Z AUTO 11006KT 9999 NCD 13/12 Q1015=
201905260330 METAR LROD 260330Z AUTO 10005KT 9999 NCD 13/12 Q1015=
201905260400 METAR LROD 260400Z 10005KT CAVOK 14/12 Q1015=
201905260430 METAR LROD 260430Z 10006KT CAVOK 15/13 Q1015=
201905260500 METAR LROD 260500Z 11006KT 080V140 CAVOK 16/14 Q1015=
201905260530 METAR LROD 260530Z 11005KT CAVOK 18/14 Q1015=
201905260600 METAR LROD 260600Z 13005KT 090V160 CAVOK 19/15 Q1015=
201905260630 METAR LROD 260630Z 16005KT 090V220 CAVOK 20/15 Q1016=
201905260700 METAR LROD 260700Z 19006KT 150V220 CAVOK 21/15 Q1016=
201905260730 METAR LROD 260730Z 20007KT CAVOK 22/16 Q1016=
201905260800 METAR LROD 260800Z 20006KT 160V240 CAVOK 22/16 Q1016=
201905260830 METAR LROD 260830Z 18005KT 150V220 CAVOK 23/16 Q1016=
201905260900 METAR LROD 260900Z 21007KT 9999 FEW025 23/15 Q1016=
201905260930 METAR LROD 260930Z 22006KT 9999 SCT025 24/15 Q1016=
201905261000 METAR LROD 261000Z 22006KT 180V250 9999 BKN033 24/14 Q1016=
201905261030 METAR LROD 261030Z 23007KT 9999 BKN043 24/14 Q1016=
201905261100 METAR LROD 261100Z 20006KT 170V260 9999 BKN043 24/14 Q1015=
201905261130 METAR LROD 261130Z 27007KT 9999 BKN046 24/14 Q1015=
201905261200 METAR LROD 261200Z 23007KT 9999 SCT045 24/14 Q1015=
201905261230 METAR LROD 261230Z 23007KT 170V260 9999 SCT045 25/14 Q1015=
201905261300 METAR LROD 261300Z 22005KT 170V270 9999 SCT045 25/15 Q1015=
201905261330 METAR LROD 261330Z 23007KT 200V270 CAVOK 25/13 Q1014=
201905261400 METAR LROD 261400Z 26005KT 220V290 CAVOK 25/13 Q1014=
201905261430 METAR LROD 261430Z 25005KT 190V330 CAVOK 25/12 Q1014=
201905261500 METAR LROD 261500Z 25005KT 180V330 9999 FEW050TCU 25/13 Q1014=
201905261530 METAR LROD 261530Z 22005KT 190V250 9999 FEW050TCU 24/12 Q1014=
201905261600 METAR LROD 261600Z 25005KT 220V280 9999 FEW050TCU 24/12 Q1014=
201905261630 METAR LROD 261630Z 25005KT 210V280 CAVOK 24/14 Q1014=
201905261700 METAR LROD 261700Z 26004KT CAVOK 24/14 Q1014=
201905261730 METAR LROD 261730Z 26003KT CAVOK 24/13 Q1014=
201905261800 METAR LROD 261800Z 17003KT CAVOK 21/15 Q1014=
201905261830 METAR LROD 261830Z AUTO 16004KT 9999 NCD 19/15 Q1014=
201905261900 METAR LROD 261900Z AUTO 15005KT 9999 NCD 19/15 Q1015=
201905261930 METAR LROD 261930Z AUTO 14004KT 9999 NCD 18/15 Q1015=
201905262000 METAR LROD 262000Z AUTO 11004KT 9999 NCD 16/14 Q1015=
201905262030 METAR LROD 262030Z AUTO 10005KT 9999 NCD 17/14 Q1015=
201905262100 METAR LROD 262100Z AUTO 10005KT 9999 NCD 16/14 Q1015=
201905262130 METAR LROD 262130Z AUTO 10006KT 9999 NCD 16/14 Q1015=
201905262200 METAR LROD 262200Z AUTO 11006KT 9999 NCD 16/14 Q1015=
201905262230 METAR LROD 262230Z AUTO 10006KT 9999 NCD 16/14 Q1014=
201905262300 METAR LROD 262300Z AUTO 10006KT 9999 NCD 15/14 Q1014=
201905262330 METAR LROD 262330Z AUTO 10006KT 9999 NCD 16/14 Q1014=
201905270000 METAR LROD 270000Z AUTO 10006KT 9999 NCD 15/14 Q1014=
201905270030 METAR LROD 270030Z AUTO 10006KT 9999 NCD 15/14 Q1014=
201905270100 METAR LROD 270100Z AUTO 10006KT 9999 NCD 15/13 Q1014=
201905270130 METAR LROD 270130Z AUTO 10006KT 9999 BKN200/// 15/13 Q1014=
201905270200 METAR LROD 270200Z AUTO 10007KT 9999 BKN200/// 15/13 Q1014=
201905270230 METAR LROD 270230Z AUTO 10007KT 9999 BKN180/// 15/13 Q1014=
201905270300 METAR LROD 270300Z AUTO 10006KT 080V140 9999 BKN160/// 15/13
                        Q1014=
201905270330 METAR LROD 270330Z AUTO 10006KT 9999 BKN190/// 15/13 Q1013=
201905270400 METAR LROD 270400Z 10005KT CAVOK 15/13 Q1014=
201905270430 METAR LROD 270430Z 11006KT CAVOK 16/14 Q1014=
201905270500 METAR LROD 270500Z 10005KT CAVOK 16/14 Q1014=
201905270530 METAR COR LROD 270530Z 10005KT CAVOK 17/15 Q1014=
201905270600 METAR LROD 270600Z 10006KT 070V130 CAVOK 18/15 Q1014=
201905270630 METAR LROD 270630Z 10004KT CAVOK 18/15 Q1014=
201905270700 METAR LROD 270700Z 10004KT CAVOK 18/15 Q1014=
201905270730 METAR COR LROD 270730Z 11003KT 9999 FEW060 BKN075 19/16 Q1014=
201905270800 METAR LROD 270800Z 12003KT 100V160 CAVOK 20/15 Q1014=
201905270830 METAR LROD 270830Z 12003KT 080V160 CAVOK 20/16 Q1014=
201905270900 METAR LROD 270900Z 14002KT CAVOK 20/16 Q1014=
201905270930 METAR LROD 270930Z 18005KT 150V210 CAVOK 21/16 Q1014=
201905271000 METAR LROD 271000Z 16005KT CAVOK 22/16 Q1014=
201905271030 METAR LROD 271030Z 17006KT CAVOK 22/16 Q1014=
201905271100 METAR LROD 271100Z 14004KT CAVOK 23/16 Q1014=
201905271130 METAR COR LROD 271130Z 17005KT 140V200 CAVOK 22/16 Q1014=
201905271200 METAR LROD 271200Z 17005KT CAVOK 22/16 Q1014=
201905271230 METAR LROD 271230Z 18004KT CAVOK 22/16 Q1014=
201905271300 METAR LROD 271300Z 17004KT CAVOK 23/17 Q1013=
201905271330 METAR LROD 271330Z 17004KT CAVOK 23/16 Q1013=
201905271400 METAR LROD 271400Z 17004KT CAVOK 22/17 Q1013=
201905271430 METAR LROD 271430Z 15003KT 120V180 CAVOK 22/17 Q1013=
201905271500 METAR LROD 271500Z 15004KT 120V190 CAVOK 22/17 Q1013=
201905271530 METAR LROD 271530Z 16005KT CAVOK 22/16 Q1012=
201905271600 METAR LROD 271600Z 15004KT CAVOK 21/16 Q1012=
201905271630 METAR LROD 271630Z 13003KT CAVOK 21/16 Q1012=
201905271700 METAR LROD 271700Z 13003KT CAVOK 20/16 Q1012=
201905271730 METAR LROD 271730Z 12004KT CAVOK 20/16 Q1012=
201905271800 METAR LROD 271800Z 11003KT CAVOK 20/16 Q1012=
201905271830 METAR LROD 271830Z AUTO 12003KT 9999 FEW055/// BKN095///
                        BKN110/// 19/16 Q1012=
201905271900 METAR LROD 271900Z AUTO 12004KT 9999 -RA BKN100/// BKN120///
                        19/16 Q1012=
201905271930 METAR LROD 271930Z AUTO 13004KT 9999 -RA OVC100/// 19/16
                        Q1012=
201905272000 METAR LROD 272000Z AUTO 09004KT 9999 -RA BKN090/// OVC100///
                        18/16 Q1012=
201905272030 METAR LROD 272030Z AUTO 11004KT 9999 BKN100/// 18/16 Q1012
                        RERA=
201905272100 METAR LROD 272100Z AUTO 11005KT 9999 SCT100/// BKN120///
                        BKN230/// 18/16 Q1012 REDZ=
201905272130 METAR LROD 272130Z AUTO 09004KT 9999 FEW080/// SCT240///
                        17/16 Q1011=
201905272200 METAR LROD 272200Z AUTO 10005KT 9999 NCD 17/16 Q1011=
201905272230 METAR LROD 272230Z AUTO VRB01KT 9999 NCD 17/15 Q1011=
201905272300 METAR LROD 272300Z AUTO 11002KT 6000 NCD 15/15 Q1011=
201905272330 METAR LROD 272330Z AUTO 13002KT 6000 R19/1300VP2000D NCD
                        15/15 Q1010=
201905280000 METAR LROD 280000Z AUTO 11004KT 9000 NCD 15/14 Q1010=
201905280030 METAR LROD 280030Z AUTO 11005KT 9000 NCD 15/14 Q1010=
201905280100 METAR LROD 280100Z AUTO 11005KT 7000 FEW150/// 15/14 Q1009=
201905280130 METAR LROD 280130Z AUTO 10006KT 9999 OVC150/// 15/15 Q1009=
201905280200 METAR LROD 280200Z AUTO 10005KT 9999 BKN150/// 15/15 Q1009=
201905280230 METAR LROD 280230Z AUTO 10004KT 9999 BKN150/// 15/14 Q1009=
201905280300 METAR LROD 280300Z AUTO 10004KT 9999 SCT130/// BKN160///
                        15/14 Q1009=
201905280330 METAR LROD 280330Z AUTO 12006KT 090V170 9999 FEW065/// BKN160///
                        16/15 Q1009=
201905280400 METAR COR LROD 280400Z 13003KT 9999 FEW040CB FEW046 16/15
                        Q1009=
201905280430 METAR LROD 280430Z 22014KT 9999 -SHRA FEW040CB SCT042 17/15
                        Q1010=
201905280500 METAR LROD 280500Z 21011KT 9999 -SHRA FEW012 FEW043CB 16/15
                        Q1010 R01/29//95=
201905280530 METAR LROD 280530Z 22006KT 9999 -SHRA FEW037 FE042CB 16/15
                        Q1010 R01/29//95=
201905280600 METAR LROD 280600Z 15003KT 9999 FEW042CB SCT045 16/15 Q1010
                        R01/29//95=
201905280630 METAR LROD 280630Z 12004KT 080V140 9999 -SHRA FEW028 FEW044CB
                        16/15 Q1010 R01/29//95=
201905280700 METAR LROD 280700Z 10003KT 9999 -SHRA FEW025 FEW040CB 17/16
                        Q1010 R01/29//95=
201905280730 METAR LROD 280730Z 19004KT 140V260 9999 -SHRA FEW026 FEW042CB
                        17/15 Q1010 R01/29//95=
201905280800 METAR LROD 280800Z 17004KT 110V190 9999 -SHRA FEW042CB 17/16
                        Q1010 R01/29//95=
201905280830 METAR LROD 280830Z 10004KT 070V130 9999 -SHRA FEW042CB 17/16
                        Q1009 R01/29//95=
201905280900 METAR LROD 280900Z 10005KT 080V140 9999 -SHRA FEW027 FEW045CB
                        18/16 Q1009 R01/29//95=
201905280930 METAR LROD 280930Z 13005KT 100V160 9999 -SHRA FEW027 FEW043CB
                        18/16 Q1009 R01/29//95=
201905281000 METAR LROD 281000Z 12004KT 080V170 9999 -SHRA FEW028 FEW043CB
                        18/16 Q1009 R01/29//95=
201905281030 METAR LROD 281030Z 07004KT 020V130 9999 VCTS FEW043CB 19/17
                        Q1008 R01/29//95=
201905281100 METAR LROD 281100Z 07004KT 040V120 9999 FEW045CB 19/18 Q1008
                        R01/29//95=
201905281130 METAR LROD 281130Z 08005KT 040V120 9999 FEW040CB 22/18 Q1007
                        R01/29//95=
201905281200 METAR LROD 281200Z 10006KT 060V120 9999 FEW040CB 22/18 Q1007
                        R01/29//95=
201905281230 METAR LROD 281230Z 08006KT 040V110 9999 FEW040CB 22/17 Q1006
                        R01/29//95=
201905281300 METAR LROD 281300Z 07007KT 9999 FEW040CB 21/16 Q1006 R01/29//95=
201905281330 METAR LROD 281330Z 07007KT 9999 -SHRA VCTS FEW041CB 20/18
                        Q1005 R01/29//95=
201905281400 METAR LROD 281400Z 23016KT 9999 -TSRA FEW019 SCT042CB 17/15
                        Q1007 R01/29//95=
201905281430 METAR LROD 281430Z 03009KT 9999 FEW041CB 19/17 Q1006 RETS
                        R01/29//95=
201905281500 METAR LROD 281500Z 02003KT 9999 VCTS SCT045CB 19/16 Q1006
                        R01/29//95=
201905281530 METAR LROD 281530Z VRB04KT 9999 -TSRA FEW028 SCT039CB BKN044
                        17/15 Q1007 R01/29//95=
201905281600 METAR LROD 281600Z 12005KT 9999 -SHRA VCTS SCT045CB 17/16
                        Q1007 RETS R01/29//95=
201905281630 METAR LROD 281630Z 10006KT 060V130 9999 -SHRA FEW043CB 16/16
                        Q1006 R01/29//95=
201905281700 METAR LROD 281700Z 13006KT 100V160 9999 FEW043CB 17/16 Q1007
                        R01/29//95=
201905281730 METAR LROD 281730Z 12004KT 9999 FEW045CB 16/15 Q1007 R01/29//95=
201905281800 METAR LROD 281800Z 16005KT 110V180 8000 -TSRA SCT044CB 16/16
                        Q1007 R01/29//95=
201905281830 METAR LROD 281830Z AUTO 15008KT 9999 -SHRA BKN050/// BKN100///
                        16/15 Q1007=
201905281900 METAR LROD 281900Z AUTO 14008KT 9999 BKN090/// 16/15 Q1008
                        RERA=
201905281930 METAR LROD 281930Z AUTO 14007KT 110V170 9999 SCT085/// BKN110///
                        16/15 Q1008=
201905282000 METAR LROD 282000Z AUTO 14006KT 9999 SCT100/// 16/15 Q1008=
201905282030 METAR LROD 282030Z AUTO 15006KT 9999 SCT240/// 16/15 Q1008=
201905282100 METAR LROD 282100Z AUTO 15005KT 120V180 9999 FEW110/// 16/15
                        Q1007=
201905282130 METAR LROD 282130Z AUTO 10002KT 9999 SCT100/// BKN240///
                        15/14 Q1007=
201905282200 METAR LROD 282200Z AUTO 11004KT 9999 SCT095/// BKN240///
                        15/14 Q1007=
201905282230 METAR LROD 282230Z AUTO 15003KT 9999 SCT240/// 15/14 Q1007=
201905282300 METAR LROD 282300Z AUTO 12004KT 9999 FEW160/// 15/14 Q1008=
201905282330 METAR LROD 282330Z AUTO 11004KT 9999 FEW160/// 15/14 Q1008=
201905290000 METAR LROD 290000Z AUTO 14003KT 9999 NCD 15/14 Q1008=
201905290030 METAR LROD 290030Z AUTO 10003KT 9999 NCD 14/13 Q1008=
201905290100 METAR LROD 290100Z AUTO 11005KT 9999 NCD 14/13 Q1008=
201905290130 METAR LROD 290130Z AUTO 11005KT 9999 NCD 14/13 Q1008=
201905290200 METAR LROD 290200Z AUTO 11005KT 9999 FEW100/// 13/13 Q1008=
201905290230 METAR LROD 290230Z AUTO 10004KT 9999 SCT095/// 14/13 Q1008=
201905290300 METAR LROD 290300Z AUTO 10005KT 9999 FEW095/// 13/13 Q1009=
201905290330 METAR LROD 290330Z AUTO 11005KT 9999 SCT110/// 14/13 Q1009=
201905290400 METAR COR LROD 290400Z 09006KT CAVOK 15/14 Q1009 R01/29//95=
201905290430 METAR LROD 290430Z 10005KT CAVOK 15/14 Q1009=
201905290500 METAR LROD 290500Z 10005KT CAVOK 16/14 Q1009=
201905290530 METAR LROD 290530Z 10005KT CAVOK 16/14 Q1010=
201905290600 METAR LROD 290600Z 10004KT CAVOK 17/15 Q1010=
201905290630 METAR LROD 290630Z 11003KT 070V140 CAVOK 18/16 Q1010=
201905290700 METAR LROD 290700Z 12003KT 080V150 CAVOK 19/16 Q1010=
201905290730 METAR COR LROD 290730Z 16004KT 130V200 CAVOK 20/16 Q1011=
201905290800 METAR COR LROD 290800Z 17006KT 140V200 CAVOK 21/15 Q1011=
201905290830 METAR LROD 290830Z 19005KT 140V220 CAVOK 21/14 Q1011=
201905290900 METAR LROD 290900Z 18004KT 140V250 CAVOK 22/15 Q1011=
201905290930 METAR LROD 290930Z VRB04KT CAVOK 22/15 Q1011=
201905291000 METAR LROD 291000Z 23004KT 190V290 CAVOK 22/15 Q1011=
201905291030 METAR LROD 291030Z 21003KT 110V280 CAVOK 23/15 Q1011=
201905291100 METAR LROD 291100Z VRB03KT CAVOK 23/16 Q1011=
201905291130 METAR COR LROD 291130Z 25005KT 210V280 CAVOK 24/15 Q1011=
201905291200 METAR LROD 291200Z 26004KT 200V010 CAVOK 25/15 Q1011=
201905291230 METAR LROD 291230Z VRB03KT CAVOK 25/15 Q1010=
201905291300 METAR LROD 291300Z 17003KT 120V250 CAVOK 25/16 Q1010=
201905291330 METAR LROD 291330Z VRB03KT 9999 SCT045 26/15 Q1010=
201905291400 METAR LROD 291400Z 07010KT 9999 BKN035 23/17 Q1010=
201905291430 METAR LROD 291430Z 07009KT 040V100 9999 TS FEW035CB BKN045
                        22/16 Q1011=
201905291500 METAR LROD 291500Z 07010KT 9999 -TSRA FEW035CB BKN045 19/16
                        Q1011=
201905291530 METAR LROD 291530Z 07006KT 9999 TS FEW035CB BKN045 20/17
                        Q1010 RERA=
201905291600 METAR COR LROD 291600Z 10003KT 080V150 9999 TS FEW035CB BKN045
                        20/18 Q1011=
201905291630 METAR LROD 291630Z 11004KT 090V150 9999 TS FEW045CB 20/18
                        Q1011=
201905291700 METAR LROD 291700Z VRB03KT 9999 TS FEW035CB SCT045 19/17
                        Q1012=
201905291730 METAR LROD 291730Z 30007KT 9999 -TSRA FEW018 SCT040CB 17/16
                        Q1012=
201905291800 METAR LROD 291800Z 30007KT 9999 -TSRA FEW018 SCT040CB 17/16
                        Q1012=
201905291830 METAR LROD 291830Z AUTO 29005KT 9999 SHRA BKN024/// BKN070///
                        OVC090/// 16/15 Q1013=
201905291900 METAR LROD 291900Z AUTO 30004KT 9999 SHRA FEW021/// SCT040///
                        BKN055/// 16/15 Q1013=
201905291930 METAR LROD 291930Z AUTO 05003KT 360V080 9999 SHRA SCT018///
                        BKN027/// OVC055/// 16/15 Q1014=
201905292000 METAR LROD 292000Z AUTO 07004KT 8000 SHRA FEW015/// SCT044///
                        BKN075/// 16/16 Q1014=
201905292030 METAR LROD 292030Z AUTO 08004KT 8000 RA FEW046/// BKN080///
                        16/16 Q1014=
201905292100 METAR LROD 292100Z AUTO 07006KT 6000 RA FEW055/// BKN080///
                        OVC095/// 16/16 Q1014=
201905292130 METAR LROD 292130Z AUTO 07004KT 040V110 6000 RA BKN080///
                        OVC095/// 16/16 Q1014=
201905292200 METAR LROD 292200Z AUTO 14002KT 090V180 9000 SCT003/// BKN130///
                        BKN160/// 16/16 Q1014 RERA=
201905292230 METAR LROD 292230Z AUTO VRB01KT 9999 OVC004/// 16/16 Q1014
                        RERA=
201905292300 METAR LROD 292300Z AUTO 36006KT 9000 -RA OVC004/// 15/15
                        Q1014=
201905292330 METAR LROD 292330Z AUTO 01008KT 9999 -RA BKN004/// OVC006///
                        15/14 Q1014=
201905300000 METAR LROD 300000Z AUTO 02006KT 9999 -SHRA SCT006/// BKN009///
                        BKN013/// 15/14 Q1015=
201905300030 METAR LROD 300030Z AUTO 35004KT 9999 -SHRA FEW007/// SCT009///
                        BKN015/// 15/14 Q1015=
201905300100 METAR LROD 300100Z AUTO 02004KT 9999 SCT008/// BKN011///
                        BKN017/// 14/14 Q1015 RERA=
201905300130 METAR LROD 300130Z AUTO 02004KT 9999 -SHRA SCT008/// OVC010///
                        14/14 Q1015=
201905300200 METAR LROD 300200Z AUTO 05004KT 9999 -SHRA FEW005/// BKN010///
                        14/14 Q1015=
201905300230 METAR LROD 300230Z AUTO 04004KT 9999 -SHRA FEW008/// BKN017///
                        BKN023/// 14/14 Q1015=
201905300300 METAR LROD 300300Z AUTO 04002KT 360V070 9999 FEW006/// BKN014///
                        BKN130/// 14/14 Q1015 RERA=
201905300330 METAR LROD 300330Z AUTO 08003KT 040V100 9000 OVC015/// 15/14
                        Q1016=
201905300400 METAR LROD 300400Z 07003KT 9000 BKN014 15/14 Q1016=
201905300430 METAR LROD 300430Z 10002KT 6000 BKN008 OVC013 15/15 Q1016=
201905300500 METAR LROD 300500Z VRB01KT 2600 BR BKN004 OVC008 15/15 Q1016=
201905300530 METAR LROD 300530Z 02002KT 5000 BR SCT002 OVC004 16/15 Q1017
                        R01/15//95=
201905300600 METAR LROD 300600Z VRB01KT 7000 OVC003 16/16 Q1017 R01/15//95=
201905300630 METAR LROD 300630Z 30003KT 9000 FEW005 BKN007 16/16 Q1017
                        R01/15//95=
201905300700 METAR LROD 300700Z 26005KT 220V300 9999 FEW005 SCT013 17/16
                        Q1017 R01/15//95=
201905300730 METAR LROD 300730Z 26005KT 220V300 9999 FEW005 SCT013 17/16
                        Q1017 R01/15//95=
201905300800 METAR LROD 300800Z 23007KT 9999 FEW008 BKN013 18/16 Q1018
                        R01/15//95=
201905300830 METAR LROD 300830Z 23009KT 200V260 9999 FEW010 SCT013 BKN021
                        18/16 Q1018 R01/15//95=
201905300900 METAR LROD 300900Z 25008KT 220V280 9999 FEW013 SCT022 19/16
                        Q1018 R01/15//95=
201905300930 METAR LROD 300930Z 24009KT 9999 FEW017 SCT023 19/15 Q1018
                        R01/15//95=
201905301000 METAR LROD 301000Z 24009KT 9999 FEW020 SCT032 20/16 Q1019
                        R01/15//95=
201905301030 METAR LROD 301030Z 25009KT 220V280 9999 FEW017 SCT021 20/16
                        Q1019 R01/15//95=
201905301100 METAR LROD 301100Z 26008KT 220V290 9999 FEW017 SCT021 21/16
                        Q1019 R01/15//95=
201905301130 METAR LROD 301130Z 28008KT 9999 FEW019 SCT023 20/16 Q1019
                        R01/15//95=
201905301200 METAR LROD 301200Z 27008KT 230V310 9999 FEW020 SCT033 21/16
                        Q1019 R01/15//95=
201905301230 METAR LROD 301230Z 29007KT 240V320 9999 FEW021 21/16 Q1019
                        R01/15//95=
201905301300 METAR LROD 301300Z 29007KT 9999 FEW024 SCT033 20/15 Q1019
                        R01/15//95=
201905301330 METAR LROD 301330Z 29007KT 9999 FEW024 SCT033 20/15 Q1019
                        R01/15//95=
201905301400 METAR LROD 301400Z 31006KT 280V350 9999 FEW026 SCT036 21/15
                        Q1019 R01/15//95=
201905301430 METAR LROD 301430Z 32008KT 290V350 9999 FEW021 SCT026 21/15
                        Q1019 R01/15//95=
201905301500 METAR LROD 301500Z 30008KT 9999 FEW024 21/15 Q1019 R01/15//95=
201905301530 METAR LROD 301530Z 31009KT 9999 FEW024CB BKN028 20/15 Q1019
                        R01/CLRD//=
201905301600 METAR LROD 301600Z 33008KT 9999 VCTS FEW026CB SCT030 19/15
                        Q1019=
201905301630 METAR LROD 301630Z 01005KT 330V070 9999 -TSRA SCT026CB BKN047
                        18/15 Q1019=
201905301700 METAR LROD 301700Z 11006KT 070V150 7000 -SHRA VCTS SCT024CB
                        BKN029 14/13 Q1020 RETSRA R01/29//95=
201905301730 METAR LROD 301730Z 08004KT 050V110 9000 -SHRA VCTS SCT029CB
                        BKN037 15/14 Q1020 RESHRA R01/29//95=
201905301800 METAR LROD 301800Z 04003KT 9999 -SHRA FEW030CB SCT040 15/15
                        Q1020 R01/29//95=
201905301830 METAR LROD 301830Z AUTO 13004KT 9999 -RA FEW027/// BKN080///
                        15/15 Q1020=
201905301900 METAR LROD 301900Z AUTO 11003KT 9999 -RA FEW040/// BKN085///
                        15/15 Q1020=
201905301930 METAR LROD 301930Z AUTO VRB01KT 9999 FEW038/// BKN120///
                        BKN170/// 15/15 Q1021 RERA=
201905302000 METAR LROD 302000Z AUTO VRB01KT 9999 FEW110/// SCT130///
                        BKN180/// 15/15 Q1021 RERA=
201905302030 METAR LROD 302030Z AUTO 00000KT 6000 FEW110/// BKN160///
                        15/14 Q1021=
201905302100 METAR LROD 302100Z AUTO 34004KT 6000 FEW003/// SCT005///
                        BKN020/// 15/15 Q1021=
201905302130 METAR LROD 302130Z AUTO 03004KT 9999 SCT009/// BKN011///
                        BKN020/// 15/15 Q1021=
201905302200 METAR LROD 302200Z AUTO 05004KT 9999 FEW012/// OVC140///
                        15/14 Q1021=
201905302230 METAR LROD 302230Z AUTO 03005KT 9999 SCT015/// BKN120///
                        BKN160/// 15/14 Q1021=
201905302300 METAR LROD 302300Z AUTO 03004KT 9999 SCT016/// BKN019///
                        OVC130/// 15/14 Q1021=
201905302330 METAR LROD 302330Z AUTO 02004KT 9999 FEW095/// BKN130///
                        14/14 Q1021=
201905310000 METAR LROD 310000Z AUTO 05002KT 9999 UP BKN090/// BKN130///
                        14/13 Q1021=
201905310030 METAR LROD 310030Z AUTO VRB01KT 9999 -SHRA FEW036/// BKN090///
                        14/13 Q1021=
201905310100 METAR LROD 310100Z AUTO 03004KT 9999 FEW034/// OVC090///
                        14/13 Q1021 RERA=
201905310130 METAR LROD 310130Z AUTO 01004KT 9999 FEW036/// OVC095///
                        14/13 Q1021=
201905310200 METAR LROD 310200Z AUTO 03004KT 9999 FEW037/// OVC095///
                        13/13 Q1021=
201905310230 METAR LROD 310230Z AUTO 03004KT 9999 OVC090/// 13/12 Q1021=
201905310300 METAR LROD 310300Z AUTO 03004KT 9999 SCT075/// OVC090///
                        13/12 Q1021=
201905310330 METAR LROD 310330Z AUTO 03003KT 360V060 9999 SCT070/// BKN100///
                        13/12 Q1021=
201905310400 METAR LROD 310400Z VRB01KT 9999 -RA NSC 13/12 Q1021 R01/29//95=
201905310430 METAR LROD 310430Z 02005KT 9999 -RA FEW007 13/12 Q1021 R01/29//95=
201905310500 METAR LROD 310500Z 04003KT 9999 FEW007 14/13 Q1021 R01/29//95=
201905310530 METAR LROD 310530Z 36005KT 9999 FEW008 14/13 Q1021 R01/29//95=
201905310600 METAR LROD 310600Z 36004KT 320V050 9999 SCT010 16/13 Q1021
                        R01/29//95=
201905310630 METAR LROD 310630Z 34006KT 9999 FEW010 16/14 Q1021 R01/29//95=
201905310700 METAR LROD 310700Z 36006KT 9999 SCT012 16/13 Q1021 R01/CLRD//=
201905310730 METAR LROD 310730Z 01005KT 320V060 9999 BKN014 18/14 Q1021=
201905310800 METAR LROD 310800Z 35006KT 300V030 9999 BKN014 17/14 Q1021=
201905310830 METAR LROD 310830Z 35003KT 290V070 9999 SCT014 SCT026 18/14
                        Q1021=
201905310900 METAR LROD 310900Z 32006KT 280V030 9999 BKN019 18/15 Q1021=
201905310930 METAR LROD 310930Z 32005KT 290V360 9999 BKN019 18/15 Q1021=
201905311000 METAR LROD 311000Z 32005KT 270V010 9999 BKN020 19/15 Q1021=
201905311030 METAR LROD 311030Z 34007KT 300V030 9999 FEW018 BKN025 20/15
                        Q1021=
201905311100 METAR LROD 311100Z 35006KT 310V010 9999 FEW019 BKN027 20/15
                        Q1021=
201905311130 METAR LROD 311130Z 36006KT 9999 FEW020 BKN031 20/15 Q1021=
201905311200 METAR LROD 311200Z 36007KT 310V040 9999 BKN026 21/15 Q1020=
201905311230 METAR LROD 311230Z 34004KT 280V060 9999 BKN030 21/15 Q1020=
201905311300 METAR LROD 311300Z 01008KT 9999 BKN034 21/15 Q1020=
201905311330 METAR LROD 311330Z 32007KT 290V360 9999 BKN027 22/15 Q1020=
201905311400 METAR LROD 311400Z 32007KT 290V360 9999 FEW035TCU BKN036
                        21/15 Q1020=
201905311430 METAR LROD 311430Z 01006KT 340V050 9999 FEW031 21/15 Q1019=
201905311500 METAR LROD 311500Z 01007KT 330V030 9999 FEW031 FEW035TCU
                        21/15 Q1019=
201905311530 METAR LROD 311530Z 34006KT 310V010 9999 FEW031 FEW035TCU
                        21/15 Q1019=
201905311600 METAR LROD 311600Z 33006KT 9999 FEW034 21/15 Q1019=
201905311630 METAR LROD 311630Z 31005KT 9999 FEW037 FEW038TCU 21/15 Q1019=
201905311700 METAR LROD 311700Z 32005KT 290V010 9999 -SHRA FEW032 FEW041CB
                        20/15 Q1019=
201905311730 METAR LROD 311730Z 36007KT 9999 FEW032 FEW038CB 20/16 Q1019
                        R01/19//95=
201905311800 METAR LROD 311800Z 03005KT 9999 SCT034 FEW040CB 20/15 Q1019=
201905311830 METAR LROD 311830Z AUTO 35004KT 320V020 9999 FEW034/// BKN110///
                        19/16 Q1019=
201905311900 METAR LROD 311900Z AUTO 35005KT 9999 FEW035/// SCT050///
                        BKN110/// 19/15 Q1019=
201905311930 METAR LROD 311930Z AUTO 36008KT 9999 BKN140/// BKN240///
                        19/15 Q1019=
201905312000 METAR LROD 312000Z AUTO 36007KT 9999 SCT060/// BKN150///
                        18/14 Q1019=
201905312030 METAR LROD 312030Z AUTO 36005KT 9999 BKN060/// BKN180///
                        18/14 Q1019=
201905312100 METAR LROD 312100Z AUTO 36006KT 9999 FEW040/// BKN070///
                        17/14 Q1019=
201905312130 METAR LROD 312130Z AUTO 34005KT 9999 FEW075/// BKN110///
                        BKN180/// 17/14 Q1019=
201905312200 METAR LROD 312200Z AUTO 01007KT 9999 FEW120/// BKN140///
                        17/14 Q1018=
201905312230 METAR LROD 312230Z AUTO 03003KT 9999 SCT100/// BKN180///
                        17/14 Q1018=
201905312300 METAR LROD 312300Z AUTO 04003KT 360V070 9999 SCT110/// BKN120///
                        16/13 Q1018=
201905312330 METAR LROD 312330Z AUTO 02006KT 9999 FEW050/// BKN120///
                        16/14 Q1018=