201908010000 METAR LROD 010000Z AUTO 00000KT 5000 BR FEW027/// SCT240///
                        20/20 Q1013=
201908010030 METAR LROD 010030Z AUTO 34001KT 1500 R19/1200VP2000U FG NCD
                        20/19 Q1013=
201908010100 METAR LROD 010100Z AUTO 14005KT 5000 NCD 20/20 Q1013=
201908010130 METAR LROD 010130Z AUTO 20004KT 6000 BKN065/// 20/20 Q1013=
201908010200 METAR LROD 010200Z AUTO 00000KT 5000 BR FEW065/// SCT090///
                        BKN150/// 20/20 Q1013=
201908010230 METAR LROD 010230Z AUTO 19003KT 4600 BR BKN150/// 20/19 Q1013=
201908010300 METAR LROD 010300Z AUTO 21004KT 170V240 5000 BR FEW001///
                        BKN004/// BKN006/// 20/20 Q1013=
201908010330 METAR LROD 010330Z AUTO 23002KT 210V270 0550 R19/0550V1000U
                        FG VV002 20/20 Q1013=
201908010400 METAR COR LROD 010400Z 28001KT 2400 BR SCT002 BKN035 20/20
                        Q1013=
201908010430 METAR LROD 010430Z 14003KT 100V160 2800 SCT004 SCT035 21/21
                        Q1013=
201908010500 METAR LROD 010500Z 29004KT 260V330 7000 BKN004 21/21 Q1013=
201908010530 METAR LROD 010530Z 32004KT 290V360 8000 SCT004 BKN007 21/21
                        Q1013=
201908010600 METAR LROD 010600Z 34005KT 310V010 8000 SCT006 BKN008 21/20
                        Q1013=
201908010630 METAR LROD 010630Z 08004KT 020V120 9999 FEW013 SCT040 23/21
                        Q1013=
201908010700 METAR COR LROD 010700Z 10005KT 050V150 CAVOK 24/21 Q1013=
201908010730 METAR LROD 010730Z 11006KT 070V140 CAVOK 24/21 Q1013=
201908010800 METAR LROD 010800Z 12003KT 060V190 CAVOK 24/20 Q1014=
201908010830 METAR LROD 010830Z VRB01KT CAVOK 25/20 Q1014=
201908010900 METAR LROD 010900Z 23004KT 170V340 9999 FEW020 26/20 Q1014=
201908010930 METAR COR LROD 010930Z 30007KT 9999 FEW025 26/19 Q1014=
201908011000 METAR COR LROD 011000Z VRB05KT 9999 FEW027 27/20 Q1014=
201908011030 METAR LROD 011030Z 29006KT 9999 SCT031 27/19 Q1013=
201908011100 METAR LROD 011100Z 30008KT 9999 SCT029 27/19 Q1013=
201908011130 METAR COR LROD 011130Z 25009KT 9999 SCT038 28/19 Q1013=
201908011200 METAR LROD 011200Z 26009KT 240V300 9999 SCT033 29/19 Q1013=
201908011230 METAR LROD 011230Z 23009KT 9999 SCT032 29/19 Q1013=
201908011300 METAR COR LROD 011300Z 28009KT 250V350 9999 SCT035 28/18
                        Q1013=
201908011330 METAR LROD 011330Z 29009KT 9999 SCT045 29/18 Q1013=
201908011400 METAR LROD 011400Z 27010KT 9999 SCT042 29/17 Q1013=
201908011430 METAR LROD 011430Z 26009KT 9999 SCT046 28/18 Q1013=
201908011500 METAR LROD 011500Z 32013KT 9999 SCT045 27/19 Q1013=
201908011530 METAR LROD 011530Z 34004KT 310V010 9999 SCT033 26/18 Q1013=
201908011600 METAR LROD 011600Z 31006KT 9999 FEW045 27/19 Q1013=
201908011630 METAR LROD 011630Z 33004KT 290V010 9999 FEW045 27/20 Q1012=
201908011700 METAR LROD 011700Z 35004KT CAVOK 26/20 Q1013=
201908011730 METAR LROD 011730Z 00000KT CAVOK 27/20 Q1013=
201908011800 METAR LROD 011800Z 14005KT CAVOK 24/20 Q1013=
201908011830 METAR LROD 011830Z AUTO 14005KT 9999 NCD 22/20 Q1013=
201908011900 METAR LROD 011900Z AUTO 13004KT 9999 NCD 22/19 Q1013=
201908011930 METAR LROD 011930Z AUTO 10004KT 9999 NCD 21/19 Q1013=
201908012000 METAR LROD 012000Z AUTO 11005KT 9999 NCD 21/19 Q1013=
201908012030 METAR LROD 012030Z AUTO 11003KT 9999 NCD 21/19 Q1013=
201908012100 METAR LROD 012100Z AUTO 12004KT 9999 NCD 20/19 Q1013=
201908012130 METAR LROD 012130Z AUTO 10004KT 9999 NCD 20/19 Q1013=
201908012200 METAR LROD 012200Z AUTO 12002KT 090V150 9999 FEW080/// 20/18
                        Q1013=
201908012230 METAR LROD 012230Z AUTO 13004KT 9999 FEW085/// 19/19 Q1013=
201908012300 METAR LROD 012300Z AUTO 11003KT 9999 BKN085/// 19/19 Q1013=
201908012330 METAR LROD 012330Z AUTO 11004KT 9999 SCT085/// 19/19 Q1013=
201908020000 METAR LROD 020000Z AUTO 11005KT 9999 NCD 20/18 Q1013=
201908020030 METAR LROD 020030Z AUTO 10005KT 9999 FEW085/// 19/18 Q1013=
201908020100 METAR LROD 020100Z AUTO 10004KT 9999 NCD 19/18 Q1013=
201908020130 METAR LROD 020130Z AUTO 10005KT 9999 SCT040/// 19/18 Q1013=
201908020200 METAR LROD 020200Z AUTO 11004KT 9999 FEW039/// 19/18 Q1013=
201908020230 METAR LROD 020230Z AUTO 09004KT 9999 NCD 18/18 Q1013=
201908020300 METAR LROD 020300Z AUTO 11004KT 9999 NCD 18/17 Q1013=
201908020330 METAR LROD 020330Z AUTO 11003KT 9999 NCD 18/17 Q1013=
201908020400 METAR COR LROD 020400Z 11005KT CAVOK 18/17 Q1013=
201908020430 METAR LROD 020430Z 10004KT CAVOK 19/18 Q1013=
201908020500 METAR LROD 020500Z 08003KT CAVOK 21/19 Q1013=
201908020530 METAR LROD 020530Z 09003KT CAVOK 22/19 Q1013=
201908020600 METAR LROD 020600Z 09004KT 040V150 CAVOK 23/19 Q1013=
201908020630 METAR LROD 020630Z 10004KT 040V160 CAVOK 24/19 Q1013=
201908020700 METAR LROD 020700Z 10004KT 060V160 CAVOK 24/19 Q1013=
201908020730 METAR LROD 020730Z 09004KT 020V150 9999 FEW027 26/18 Q1013=
201908020800 METAR LROD 020800Z 06004KT 340V150 9999 FEW029 26/18 Q1013=
201908020830 METAR LROD 020830Z VRB03KT 9999 SCT030 27/18 Q1013=
201908020900 METAR LROD 020900Z 35003KT 9999 SCT033 27/17 Q1013=
201908020930 METAR LROD 020930Z VRB02KT 9999 SCT041 28/17 Q1013=
201908021000 METAR LROD 021000Z VRB03KT 9999 SCT046 29/16 Q1013=
201908021030 METAR LROD 021030Z VRB04KT 9999 SCT048 29/13 Q1012=
201908021100 METAR LROD 021100Z 01005KT 270V080 CAVOK 29/14 Q1012=
201908021130 METAR LROD 021130Z 05004KT 330V120 CAVOK 29/14 Q1012=
201908021200 METAR LROD 021200Z VRB05KT CAVOK 29/12 Q1012=
201908021230 METAR LROD 021230Z VRB05KT CAVOK 30/12 Q1012=
201908021300 METAR LROD 021300Z 33004KT 280V350 CAVOK 30/11 Q1011=
201908021330 METAR LROD 021330Z VRB03KT CAVOK 30/11 Q1011=
201908021400 METAR LROD 021400Z 33008KT 290V350 9999 FEW050CB 30/11 Q1011=
201908021430 METAR LROD 021430Z 32008KT 290V350 9999 FEW050CB 29/12 Q1011=
201908021500 METAR LROD 021500Z 33014G25KT 9999 FEW048CB 27/17 Q1011=
201908021530 METAR LROD 021530Z 01013KT 9999 FEW045CB 23/17 Q1011=
201908021600 METAR LROD 021600Z 01011KT 9999 FEW045CB 23/16 Q1011=
201908021630 METAR LROD 021630Z 03008KT 010V080 9999 FEW048CB 24/14 Q1010=
201908021700 METAR LROD 021700Z 09006KT 050V140 9999 FEW050CB 24/15 Q1010=
201908021730 METAR LROD 021730Z 07004KT 9999 FEW050CB 23/15 Q1010=
201908021800 METAR LROD 021800Z 05001KT 9999 FEW050CB 23/16 Q1010=
201908021830 METAR LROD 021830Z AUTO 03004KT 320V050 9999 SHRA BKN080///
                        OVC100/// 22/18 Q1010=
201908021900 METAR LROD 021900Z AUTO 35010KT 9999 -SHRA FEW070/// BKN100///
                        OVC110/// 20/17 Q1010=
201908021930 METAR LROD 021930Z AUTO 36011KT 9999 -SHRA BKN100/// 20/17
                        Q1011=
201908022000 METAR LROD 022000Z AUTO 03009KT 9999 -SHRA FEW080/// BKN100///
                        OVC130/// 20/17 Q1010=
201908022030 METAR LROD 022030Z AUTO 06004KT 020V080 9999 FEW100/// BKN120///
                        20/17 Q1010 RERA=
201908022100 METAR LROD 022100Z AUTO 08004KT 030V140 9999 SHRA BKN075///
                        OVC095/// 19/17 Q1011=
201908022130 METAR LROD 022130Z AUTO 07006KT 9999 -SHRA FEW043/// SCT080///
                        OVC095/// 19/17 Q1011=
201908022200 METAR LROD 022200Z AUTO 04004KT 9999 -RA BKN085/// OVC100///
                        19/17 Q1010=
201908022230 METAR LROD 022230Z AUTO 05007KT 9999 -RA BKN100/// BKN110///
                        19/17 Q1009=
201908022300 METAR LROD 022300Z AUTO 08005KT 040V110 9999 -SHRA FEW090///
                        OVC100/// 19/17 Q1009=
201908022330 METAR LROD 022330Z AUTO 11002KT 070V140 9999 -SHRA FEW060///
                        BKN095/// 18/17 Q1010=
201908030000 METAR LROD 030000Z AUTO 03004KT 9999 RA FEW050/// OVC090///
                        18/17 Q1010=
201908030030 METAR LROD 030030Z AUTO 07005KT 9999 RA SCT075/// BKN090///
                        OVC100/// 18/17 Q1009=
201908030100 METAR LROD 030100Z AUTO 06006KT 9999 BKN090/// 18/17 Q1009
                        RERA=
201908030130 METAR LROD 030130Z AUTO 05006KT 9999 BKN090/// 18/16 Q1008
                        REDZ=
201908030200 METAR LROD 030200Z AUTO 07007KT 9999 BKN095/// 18/17 Q1008
                        REDZ=
201908030230 METAR LROD 030230Z AUTO 05005KT 9999 FEW060/// BKN095///
                        18/17 Q1008 REDZ=
201908030300 METAR LROD 030300Z AUTO 04005KT 9999 -RA BKN100/// 18/17
                        Q1008=
201908030330 METAR LROD 030330Z AUTO 04005KT 9999 -RA FEW038/// BKN085///
                        BKN120/// 18/17 Q1008=
201908030400 METAR LROD 030400Z 01006KT 9999 FEW037 18/17 Q1007=
201908030430 METAR LROD 030430Z 02007KT 9999 FEW045 18/17 Q1007=
201908030500 METAR LROD 030500Z 03007KT 9999 SCT009 BKN041 18/17 Q1007=
201908030530 METAR LROD 030530Z 03006KT 9999 -RA SCT037 19/17 Q1007=
201908030600 METAR LROD 030600Z 04005KT 010V070 9999 FEW042 19/17 Q1007=
201908030630 METAR LROD 030630Z 03006KT 9999 FEW047 19/17 Q1007=
201908030700 METAR LROD 030700Z 01007KT 9999 FEW037 20/18 Q1007=
201908030730 METAR LROD 030730Z 35008KT 9999 FEW013 BKN034 19/17 Q1008=
201908030800 METAR LROD 030800Z 36009KT 9999 BKN040 20/17 Q1008=
201908030830 METAR LROD 030830Z 36010KT 9999 FEW015 SCT045 21/17 Q1008=
201908030900 METAR LROD 030900Z 36010KT 9999 FEW019 21/17 Q1008=
201908030930 METAR LROD 030930Z 36009KT 330V060 9999 FEW018 22/17 Q1008=
201908031000 METAR LROD 031000Z 01008KT 9999 FEW023 24/17 Q1008=
201908031030 METAR LROD 031030Z 36010KT 330V040 9999 FEW030 23/16 Q1008=
201908031100 METAR LROD 031100Z 35010KT 9999 FEW028 SCT032 23/16 Q1008=
201908031130 METAR LROD 031130Z 35010KT 9999 FEW034 SCT048 24/16 Q1008=
201908031200 METAR LROD 031200Z 34010KT 310V020 9999 SCT035 25/16 Q1007=
201908031230 METAR LROD 031230Z 34010KT 300V030 9999 FEW039 25/15 Q1007=
201908031300 METAR LROD 031300Z 35009KT 330V040 9999 FEW040 25/15 Q1007=
201908031330 METAR LROD 031330Z 34010KT 9999 VCTS FEW041CB SCT049 25/15
                        Q1007=
201908031400 METAR LROD 031400Z 33012KT 9999 FEW044CB 26/14 Q1008=
201908031430 METAR LROD 031430Z 33012KT 9999 FEW044CB 26/14 Q1008=
201908031500 METAR LROD 031500Z 32010KT 9999 FEW042CB SCT045 24/13 Q1008=
201908031530 METAR LROD 031530Z 34015KT 310V010 9999 FEW045CB SCT047 23/13
                        Q1008=
201908031600 METAR LROD 031600Z 36012KT 9999 FEW047CB 22/11 Q1008=
201908031630 METAR LROD 031630Z 32010KT 9999 FEW047 21/14 Q1009=
201908031700 METAR LROD 031700Z 33008KT CAVOK 21/13 Q1009=
201908031730 METAR LROD 031730Z 33007KT CAVOK 21/13 Q1009=
201908031800 METAR LROD 031800Z 32007KT CAVOK 20/13 Q1009=
201908031830 METAR LROD 031830Z AUTO 33005KT 9999 SCT095/// BKN110///
                        19/13 Q1009=
201908031900 METAR LROD 031900Z AUTO 32005KT 9999 BKN110/// 19/13 Q1010=
201908031930 METAR LROD 031930Z AUTO 30004KT 9999 SCT110/// 18/13 Q1010=
201908032000 METAR LROD 032000Z AUTO 26005KT 9999 NCD 17/13 Q1010=
201908032030 METAR LROD 032030Z AUTO 25003KT 9999 NCD 16/13 Q1010=
201908032100 METAR LROD 032100Z AUTO VRB01KT 9999 NCD 15/13 Q1010=
201908032130 METAR LROD 032130Z AUTO 25002KT 9999 NCD 15/13 Q1010=
201908032200 METAR LROD 032200Z AUTO 23002KT 9999 FEW095/// 14/13 Q1011=
201908032230 METAR LROD 032230Z AUTO 00000KT 9999 NCD 14/13 Q1011=
201908032300 METAR LROD 032300Z AUTO 25001KT 9999 NCD 13/12 Q1011=
201908032330 METAR LROD 032330Z AUTO 21003KT 9999 NCD 12/12 Q1011=
201908040000 METAR LROD 040000Z AUTO 20003KT 8000 NCD 12/12 Q1011=
201908040030 METAR LROD 040030Z AUTO 21003KT 9999 FEW120/// 12/12 Q1011=
201908040100 METAR LROD 040100Z AUTO 23003KT 7000 NCD 13/12 Q1011=
201908040130 METAR LROD 040130Z AUTO 23002KT 6000 BKN130/// 12/12 Q1011=
201908040200 METAR LROD 040200Z AUTO 17002KT 9000 OVC120/// 13/13 Q1011=
201908040230 METAR LROD 040230Z AUTO 00000KT 9999 OVC120/// 13/13 Q1012=
201908040300 METAR LROD 040300Z AUTO 26002KT 9999 OVC120/// 14/13 Q1012=
201908040330 METAR LROD 040330Z AUTO 17003KT 8000 SCT085/// BKN120///
                        14/14 Q1012=
201908040400 METAR LROD 040400Z 17003KT CAVOK 14/14 Q1012=
201908040430 METAR LROD 040430Z 00000KT CAVOK 14/14 Q1012=
201908040500 METAR LROD 040500Z 24003KT 9999 FEW004 15/15 Q1013=
201908040530 METAR LROD 040530Z 23003KT 9999 FEW005 15/15 Q1013=
201908040600 METAR LROD 040600Z 00000KT 9999 FEW006 16/15 Q1013=
201908040630 METAR LROD 040630Z VRB01KT 9999 FEW007 17/16 Q1013=
201908040700 METAR LROD 040700Z 22002KT 9999 FEW007 19/15 Q1013=
201908040730 METAR LROD 040730Z 36004KT 290V080 9999 FEW007 20/15 Q1013=
201908040800 METAR LROD 040800Z VRB03KT 9999 FEW007 22/13 Q1013=
201908040830 METAR LROD 040830Z 32006KT 270V010 9999 FEW012 21/14 Q1013=
201908040900 METAR LROD 040900Z 29006KT 250V330 9999 FEW025 22/14 Q1014=
201908040930 METAR LROD 040930Z 30006KT 260V340 9999 FEW030 23/13 Q1013=
201908041000 METAR LROD 041000Z 28005KT 220V020 9999 SCT033 24/12 Q1014=
201908041030 METAR LROD 041030Z 34009KT 300V010 9999 SCT046 24/11 Q1014=
201908041100 METAR LROD 041100Z 35005KT 290V030 9999 SCT048 24/12 Q1013=
201908041130 METAR LROD 041130Z 30008KT 250V350 CAVOK 25/11 Q1013=
201908041200 METAR LROD 041200Z 31010KT 270V340 CAVOK 25/10 Q1013=
201908041230 METAR LROD 041230Z 32010KT 270V350 CAVOK 25/10 Q1013=
201908041300 METAR LROD 041300Z 36010KT CAVOK 25/09 Q1013=
201908041330 METAR LROD 041330Z 34010KT 310V010 CAVOK 26/08 Q1013=
201908041400 METAR LROD 041400Z 36008KT 310V020 CAVOK 25/09 Q1013=
201908041430 METAR LROD 041430Z 35008KT 320V020 CAVOK 26/08 Q1013=
201908041500 METAR LROD 041500Z 33009KT 300V360 CAVOK 25/07 Q1013=
201908041530 METAR LROD 041530Z 32009KT CAVOK 26/07 Q1013=
201908041600 METAR LROD 041600Z 35009KT CAVOK 25/08 Q1013=
201908041630 METAR LROD 041630Z 33008KT CAVOK 25/08 Q1013=
201908041700 METAR LROD 041700Z 32007KT CAVOK 24/09 Q1013=
201908041730 METAR LROD 041730Z 33006KT CAVOK 23/10 Q1013=
201908041800 METAR LROD 041800Z 33004KT CAVOK 22/11 Q1014=
201908041830 METAR LROD 041830Z AUTO 33004KT 4500 BR SCT120/// 20/12 Q1014=
201908041900 METAR LROD 041900Z AUTO 00000KT 9999 FEW120/// BKN140///
                        19/12 Q1015=
201908041930 METAR LROD 041930Z AUTO 07002KT 9999 SCT100/// 17/13 Q1015=
201908042000 METAR LROD 042000Z AUTO 09003KT 9999 FEW100/// BKN140///
                        16/12 Q1015=
201908042030 METAR LROD 042030Z AUTO 10004KT 9999 SCT140/// 17/13 Q1015=
201908042100 METAR LROD 042100Z AUTO 10003KT 9999 FEW140/// 16/12 Q1015=
201908042130 METAR LROD 042130Z AUTO 14003KT 9999 BKN140/// 16/13 Q1015=
201908042200 METAR LROD 042200Z AUTO 10004KT 9999 SCT140/// 15/13 Q1015=
201908042230 METAR LROD 042230Z AUTO 11005KT 9999 NCD 15/13 Q1015=
201908042300 METAR LROD 042300Z AUTO 11006KT 9999 NCD 15/12 Q1015=
201908042330 METAR LROD 042330Z AUTO 10006KT 9999 NCD 15/12 Q1015=
201908050000 METAR LROD 050000Z AUTO 10005KT 9999 NCD 14/12 Q1015=
201908050030 METAR LROD 050030Z AUTO 11005KT 9999 NCD 14/12 Q1015=
201908050100 METAR LROD 050100Z AUTO 10006KT 9999 NCD 14/12 Q1016=
201908050130 METAR LROD 050130Z AUTO 10005KT 9999 FEW095/// 14/12 Q1016=
201908050200 METAR LROD 050200Z AUTO 10005KT 9999 NCD 14/12 Q1016=
201908050230 METAR LROD 050230Z AUTO 11005KT 9999 BKN090/// 14/12 Q1016=
201908050300 METAR LROD 050300Z AUTO 11005KT 9999 FEW090/// 13/11 Q1016=
201908050330 METAR LROD 050330Z AUTO 11005KT 9999 NCD 13/11 Q1016=
201908050400 METAR LROD 050400Z 11005KT CAVOK 13/11 Q1016=
201908050430 METAR LROD 050430Z 12005KT CAVOK 15/12 Q1016=
201908050500 METAR LROD 050500Z 12005KT CAVOK 16/12 Q1016=
201908050530 METAR LROD 050530Z 15006KT CAVOK 18/14 Q1016=
201908050600 METAR LROD 050600Z 17009KT 130V200 CAVOK 20/13 Q1016=
201908050630 METAR LROD 050630Z 18008KT CAVOK 21/14 Q1016=
201908050700 METAR LROD 050700Z 19009KT CAVOK 22/14 Q1016=
201908050730 METAR LROD 050730Z 20011KT CAVOK 23/13 Q1016=
201908050800 METAR LROD 050800Z 21011KT CAVOK 23/14 Q1016=
201908050830 METAR LROD 050830Z 21010KT 180V240 CAVOK 24/13 Q1016=
201908050900 METAR LROD 050900Z 22010KT CAVOK 25/13 Q1016=
201908050930 METAR LROD 050930Z 23010KT 190V250 CAVOK 25/13 Q1016=
201908051000 METAR COR LROD 051000Z 25010KT 210V270 CAVOK 27/10 Q1015=
201908051030 METAR COR LROD 051030Z 26008KT 220V310 CAVOK 27/09 Q1015=
201908051100 METAR LROD 051100Z 27010KT 240V310 CAVOK 27/10 Q1015=
201908051130 METAR COR LROD 051130Z 27010KT CAVOK 28/10 Q1015=
201908051200 METAR COR LROD 051200Z 26009KT CAVOK 27/10 Q1015=
201908051230 METAR LROD 051230Z 26011KT 230V290 CAVOK 28/11 Q1015=
201908051300 METAR LROD 051300Z 26010KT CAVOK 27/11 Q1015=
201908051330 METAR LROD 051330Z 25010KT 210V290 CAVOK 27/11 Q1014=
201908051400 METAR LROD 051400Z 26009KT CAVOK 28/10 Q1014=
201908051430 METAR LROD 051430Z 24012G22KT CAVOK 28/10 Q1014=
201908051500 METAR LROD 051500Z 26011KT CAVOK 27/10 Q1014=
201908051530 METAR LROD 051530Z 24010KT CAVOK 27/10 Q1014=
201908051600 METAR COR LROD 051600Z 24011KT CAVOK 27/11 Q1013=
201908051630 METAR COR LROD 051630Z 25010KT CAVOK 27/11 Q1013=
201908051700 METAR LROD 051700Z 24008KT CAVOK 26/11 Q1013=
201908051730 METAR LROD 051730Z 22006KT CAVOK 25/13 Q1014=
201908051800 METAR LROD 051800Z AUTO 21007KT 9999 NCD 23/13 Q1014=
201908051830 METAR LROD 051830Z AUTO 19007KT 9999 NCD 20/14 Q1014=
201908051900 METAR LROD 051900Z AUTO 19008KT 9999 NCD 19/14 Q1014=
201908051930 METAR LROD 051930Z AUTO 19008KT 9999 SCT070/// 19/14 Q1014=
201908052000 METAR LROD 052000Z AUTO 19008KT 9999 NCD 19/14 Q1014=
201908052030 METAR LROD 052030Z AUTO 19008KT 9999 NCD 18/14 Q1014=
201908052100 METAR LROD 052100Z AUTO 19008KT 9999 NCD 19/14 Q1014=
201908052130 METAR LROD 052130Z AUTO 19009KT 9999 NCD 18/14 Q1015=
201908052200 METAR LROD 052200Z AUTO 18006KT 9999 NCD 18/13 Q1015=
201908052230 METAR LROD 052230Z AUTO 18007KT 9999 NCD 18/13 Q1015=
201908052300 METAR LROD 052300Z AUTO 18006KT 9999 NCD 18/13 Q1015=
201908052330 METAR LROD 052330Z AUTO 19007KT 9999 FEW075/// 18/13 Q1015=
201908060000 METAR LROD 060000Z AUTO VRB01KT 9999 FEW075/// 19/13 Q1015=
201908060030 METAR LROD 060030Z AUTO 17005KT 9999 NCD 18/13 Q1015=
201908060100 METAR LROD 060100Z AUTO 12004KT 9999 NCD 17/13 Q1015=
201908060130 METAR LROD 060130Z AUTO 14005KT 9999 NCD 17/13 Q1015=
201908060200 METAR LROD 060200Z AUTO 12005KT 9999 NCD 17/13 Q1015=
201908060230 METAR LROD 060230Z AUTO 13004KT 9999 NCD 17/13 Q1015=
201908060300 METAR LROD 060300Z AUTO 11005KT 9999 NCD 16/13 Q1015=
201908060330 METAR LROD 060330Z AUTO 14005KT 9999 FEW140/// 17/13 Q1015=
201908060400 METAR LROD 060400Z 11005KT CAVOK 17/13 Q1015=
201908060430 METAR LROD 060430Z 13004KT CAVOK 18/14 Q1015=
201908060500 METAR LROD 060500Z 10004KT CAVOK 20/14 Q1015=
201908060530 METAR LROD 060530Z 14005KT CAVOK 22/14 Q1015=
201908060600 METAR LROD 060600Z 19010KT CAVOK 23/14 Q1016=
201908060630 METAR LROD 060630Z 19012KT CAVOK 24/14 Q1015=
201908060700 METAR LROD 060700Z 19013KT CAVOK 24/14 Q1015=
201908060730 METAR LROD 060730Z 19012KT CAVOK 25/14 Q1016=
201908060800 METAR LROD 060800Z 21012KT CAVOK 26/14 Q1016=
201908060830 METAR LROD 060830Z 21012KT CAVOK 26/14 Q1016=
201908060900 METAR LROD 060900Z 21011KT 180V240 CAVOK 26/14 Q1016=
201908060930 METAR LROD 060930Z 22012KT 180V250 CAVOK 27/14 Q1016=
201908061000 METAR LROD 061000Z 22013KT CAVOK 28/13 Q1016=
201908061030 METAR LROD 061030Z 22013KT 190V250 CAVOK 28/12 Q1016=
201908061100 METAR LROD 061100Z 20012KT CAVOK 29/12 Q1016=
201908061130 METAR LROD 061130Z 21012KT 180V260 CAVOK 29/12 Q1015=
201908061200 METAR LROD 061200Z 22012KT 180V250 CAVOK 29/10 Q1015=
201908061230 METAR LROD 061230Z 21013KT CAVOK 30/11 Q1015=
201908061300 METAR LROD 061300Z 21013KT CAVOK 28/11 Q1015=
201908061330 METAR LROD 061330Z 22011KT CAVOK 29/10 Q1014=
201908061400 METAR LROD 061400Z 22011KT CAVOK 28/11 Q1014=
201908061430 METAR LROD 061430Z 22012KT 9999 FEW045CB 29/10 Q1014=
201908061500 METAR LROD 061500Z 22010KT 9999 FEW045CB 28/11 Q1014=
201908061530 METAR LROD 061530Z 22010KT CAVOK 28/12 Q1014=
201908061600 METAR LROD 061600Z 22009KT CAVOK 28/12 Q1013=
201908061630 METAR LROD 061630Z 22007KT 9999 FEW045CB 28/13 Q1013=
201908061700 METAR LROD 061700Z 20005KT 9999 FEW045CB 26/14 Q1013=
201908061730 METAR LROD 061730Z 18004KT 9999 VCSH FEW045CB 25/15 Q1014=
201908061800 METAR LROD 061800Z 23008KT 200V260 9999 -SHRA FEW047CB 24/16
                        Q1014=
201908061830 METAR LROD 061830Z 24008KT 9999 -SHRA FEW050CB 23/17 Q1014=
201908061900 METAR LROD 061900Z AUTO 18006KT 9999 SCT095/// BKN110///
                        BKN140/// 21/17 Q1014 RERA=
201908061930 METAR LROD 061930Z AUTO 14005KT 9999 FEW095/// BKN150///
                        21/16 Q1014 RERA=
201908062000 METAR LROD 062000Z AUTO 15004KT 9999 FEW150/// 20/16 Q1014=
201908062030 METAR LROD 062030Z AUTO 15007KT 9999 NCD 21/15 Q1013=
201908062100 METAR LROD 062100Z AUTO 10005KT 9999 NCD 20/15 Q1014=
201908062130 METAR LROD 062130Z AUTO 10004KT 9999 NCD 20/15 Q1014=
201908062200 METAR LROD 062200Z AUTO 11006KT 9999 NCD 20/16 Q1014=
201908062230 METAR LROD 062230Z AUTO 12004KT 9999 NCD 20/16 Q1014=
201908062300 METAR LROD 062300Z AUTO 13006KT 9999 NCD 20/15 Q1013=
201908062330 METAR LROD 062330Z AUTO 11006KT 9999 NCD 20/15 Q1013=
201908070000 METAR LROD 070000Z AUTO 12005KT 9999 FEW110/// 20/15 Q1013=
201908070030 METAR LROD 070030Z AUTO 11005KT 9999 FEW110/// 20/15 Q1013=
201908070100 METAR LROD 070100Z AUTO 10006KT 9999 FEW110/// 20/15 Q1013=
201908070130 METAR LROD 070130Z AUTO 09005KT 9999 NCD 19/14 Q1013=
201908070200 METAR LROD 070200Z AUTO 11006KT 9999 NCD 19/14 Q1013=
201908070230 METAR LROD 070230Z AUTO 10005KT 9999 NCD 18/14 Q1013=
201908070300 METAR LROD 070300Z AUTO 10006KT 9999 NCD 19/14 Q1013=
201908070330 METAR LROD 070330Z AUTO 11007KT 9999 NCD 19/14 Q1013=
201908070400 METAR LROD 070400Z 09007KT CAVOK 19/14 Q1013=
201908070430 METAR LROD 070430Z 10006KT CAVOK 20/14 Q1013=
201908070500 METAR LROD 070500Z 10006KT CAVOK 21/15 Q1013=
201908070530 METAR LROD 070530Z 10006KT CAVOK 22/15 Q1013=
201908070600 METAR LROD 070600Z 13006KT CAVOK 24/15 Q1013=
201908070630 METAR LROD 070630Z 12006KT 090V150 CAVOK 26/14 Q1013=
201908070700 METAR LROD 070700Z 15007KT 120V190 CAVOK 28/13 Q1013=
201908070730 METAR LROD 070730Z 19012KT CAVOK 29/12 Q1013=
201908070800 METAR LROD 070800Z 19013KT CAVOK 29/13 Q1013=
201908070830 METAR LROD 070830Z 19014KT CAVOK 29/14 Q1013=
201908070900 METAR LROD 070900Z 20013KT CAVOK 30/14 Q1013=
201908070930 METAR LROD 070930Z 19013KT CAVOK 30/14 Q1013=
201908071000 METAR LROD 071000Z 20011KT CAVOK 30/15 Q1013=
201908071030 METAR LROD 071030Z 19010KT 160V220 CAVOK 30/15 Q1013=
201908071100 METAR LROD 071100Z 20012KT CAVOK 31/15 Q1012=
201908071130 METAR LROD 071130Z 20011KT 160V220 CAVOK 32/15 Q1012=
201908071200 METAR LROD 071200Z 18012KT 160V220 CAVOK 32/14 Q1012=
201908071230 METAR LROD 071230Z 19010KT CAVOK 31/14 Q1012=
201908071300 METAR LROD 071300Z 19010KT 150V230 CAVOK 31/15 Q1011=
201908071330 METAR LROD 071330Z 17009KT 140V200 CAVOK 31/15 Q1011=
201908071400 METAR LROD 071400Z 16011KT CAVOK 32/16 Q1011=
201908071430 METAR LROD 071430Z 18012KT 140V210 CAVOK 33/16 Q1010=
201908071500 METAR LROD 071500Z 18013KT CAVOK 31/16 Q1010=
201908071530 METAR LROD 071530Z 21016KT CAVOK 32/15 Q1010=
201908071600 METAR LROD 071600Z 21012KT CAVOK 32/16 Q1010=
201908071630 METAR LROD 071630Z 21011KT CAVOK 31/16 Q1010=
201908071700 METAR LROD 071700Z 20009KT CAVOK 30/17 Q1010=
201908071730 METAR LROD 071730Z 18007KT CAVOK 28/18 Q1010=
201908071800 METAR LROD 071800Z 18008KT CAVOK 27/17 Q1010=
201908071830 METAR LROD 071830Z AUTO 19010KT 9999 NCD 28/18 Q1010=
201908071900 METAR LROD 071900Z AUTO 18009KT 9999 NCD 27/18 Q1010=
201908071930 METAR LROD 071930Z AUTO 19010KT 9999 FEW100/// 27/18 Q1010=
201908072000 METAR LROD 072000Z AUTO 19011KT 9999 NCD 27/18 Q1010=
201908072030 METAR LROD 072030Z AUTO 19012KT 9999 NCD 26/19 Q1010=
201908072100 METAR LROD 072100Z AUTO 20010KT 9999 NCD 26/19 Q1010=
201908072130 METAR LROD 072130Z AUTO 20009KT 9999 FEW240/// 25/19 Q1010=
201908072200 METAR LROD 072200Z AUTO 20012KT 9999 FEW240/// 25/19 Q1010=
201908072230 METAR LROD 072230Z AUTO 20009KT 9999 FEW070/// 24/19 Q1010=
201908072300 METAR LROD 072300Z AUTO 20007KT 9999 FEW070/// 23/18 Q1010=
201908072330 METAR LROD 072330Z AUTO 20007KT 9999 SCT150/// 23/18 Q1010=
201908080000 METAR LROD 080000Z AUTO 20007KT 9999 NCD 23/18 Q1010=
201908080030 METAR LROD 080030Z AUTO 19007KT 9999 SCT070/// 23/18 Q1010=
201908080100 METAR LROD 080100Z AUTO 19008KT 9999 FEW160/// 24/18 Q1010=
201908080130 METAR LROD 080130Z AUTO 24006KT 200V290 9999 BKN070/// BKN230///
                        24/18 Q1010=
201908080200 METAR LROD 080200Z AUTO 25006KT 220V280 9999 FEW070/// SCT220///
                        22/18 Q1011=
201908080230 METAR LROD 080230Z AUTO 24006KT 210V270 9999 FEW075/// 21/18
                        Q1010=
201908080300 METAR LROD 080300Z AUTO 19005KT 9999 FEW160/// 20/18 Q1011=
201908080330 METAR LROD 080330Z AUTO 19008KT 9999 NCD 21/18 Q1010=
201908080400 METAR LROD 080400Z 20006KT CAVOK 21/18 Q1010=
201908080430 METAR LROD 080430Z 20006KT CAVOK 23/18 Q1010=
201908080500 METAR LROD 080500Z 21007KT CAVOK 23/18 Q1011=
201908080530 METAR LROD 080530Z 24008KT CAVOK 24/18 Q1011=
201908080600 METAR LROD 080600Z 26005KT 240V300 CAVOK 24/18 Q1011=
201908080630 METAR LROD 080630Z 18004KT 150V210 CAVOK 25/18 Q1012=
201908080700 METAR LROD 080700Z 20004KT 160V230 CAVOK 25/17 Q1012=
201908080730 METAR LROD 080730Z 24005KT 180V280 9999 -RA FEW038 25/17
                        Q1012=
201908080800 METAR LROD 080800Z 24005KT 9999 FEW040 25/18 Q1012=
201908080830 METAR LROD 080830Z 25006KT 220V280 9999 FEW043 25/18 Q1012=
201908080900 METAR LROD 080900Z 26006KT 230V290 9999 -RA FEW031 24/19
                        Q1013=
201908080930 METAR LROD 080930Z 27007KT 9999 -RA FEW017 23/19 Q1013=
201908081000 METAR LROD 081000Z 27006KT CAVOK 24/18 Q1013=
201908081030 METAR LROD 081030Z 27006KT 240V300 CAVOK 25/16 Q1013=
201908081100 METAR LROD 081100Z 27006KT 230V310 CAVOK 27/16 Q1013=
201908081130 METAR LROD 081130Z 28007KT 230V320 CAVOK 27/16 Q1013=
201908081200 METAR LROD 081200Z 26008KT 210V290 CAVOK 28/15 Q1013=
201908081230 METAR LROD 081230Z 28010KT CAVOK 28/16 Q1013=
201908081300 METAR LROD 081300Z 26007KT 230V290 CAVOK 28/16 Q1013=
201908081330 METAR COR LROD 081330Z 27008KT 240V300 CAVOK 28/16 Q1013=
201908081400 METAR LROD 081400Z 27006KT 180V310 CAVOK 28/16 Q1013=
201908081430 METAR LROD 081430Z 27005KT 220V330 CAVOK 28/16 Q1013=
201908081500 METAR LROD 081500Z 26004KT 210V300 CAVOK 28/16 Q1012=
201908081530 METAR LROD 081530Z 29006KT 250V320 CAVOK 28/16 Q1013=
201908081600 METAR LROD 081600Z 30006KT CAVOK 28/17 Q1013=
201908081630 METAR LROD 081630Z 30006KT 260V340 CAVOK 27/17 Q1013=
201908081700 METAR LROD 081700Z 32006KT CAVOK 26/17 Q1013=
201908081730 METAR LROD 081730Z 34004KT CAVOK 25/17 Q1013=
201908081800 METAR LROD 081800Z 32003KT CAVOK 25/17 Q1013=
201908081830 METAR LROD 081830Z AUTO 32004KT 2400 R19/1900VP2000U BR FEW100///
                        SCT140/// 24/18 Q1013=
201908081900 METAR LROD 081900Z AUTO 33001KT 9999 SCT150/// 23/18 Q1013=
201908081930 METAR LROD 081930Z AUTO 35001KT 9999 SCT100/// BKN150///
                        22/18 Q1013=
201908082000 METAR LROD 082000Z AUTO 00000KT 9999 FEW100/// SCT150///
                        21/18 Q1014=
201908082030 METAR LROD 082030Z AUTO 00000KT 9999 FEW110/// BKN150///
                        21/18 Q1014=
201908082100 METAR LROD 082100Z AUTO 35003KT 9999 SCT140/// 21/18 Q1014=
201908082130 METAR LROD 082130Z AUTO 00000KT 9999 FEW140/// 20/18 Q1014=
201908082200 METAR LROD 082200Z AUTO 00000KT 9999 BKN160/// 19/18 Q1014=
201908082230 METAR LROD 082230Z AUTO 00000KT 9999 BKN140/// 19/18 Q1014=
201908082300 METAR LROD 082300Z AUTO 22003KT 9999 -SHRA FEW110/// BKN140///
                        19/18 Q1014=
201908082330 METAR LROD 082330Z AUTO 21004KT 9999 FEW130/// BKN160///
                        19/18 Q1015 REDZ=
201908090000 METAR LROD 090000Z AUTO 19004KT 9999 FEW130/// BKN170///
                        19/18 Q1014=
201908090030 METAR LROD 090030Z AUTO 17005KT 9999 NCD 19/17 Q1014=
201908090100 METAR LROD 090100Z AUTO 08004KT 9999 NCD 19/17 Q1014=
201908090130 METAR LROD 090130Z AUTO 11004KT 9999 NCD 19/17 Q1014=
201908090200 METAR LROD 090200Z AUTO 12004KT 9999 BKN230/// 18/17 Q1015=
201908090230 METAR LROD 090230Z AUTO 13004KT 9999 BKN220/// 18/17 Q1015=
201908090300 METAR LROD 090300Z AUTO 18005KT 9999 FEW240/// 17/16 Q1015=
201908090330 METAR LROD 090330Z AUTO 20007KT 9999 NCD 18/17 Q1015=
201908090400 METAR COR LROD 090400Z 20005KT 9999 NCD 18/17 Q1015=
201908090430 METAR COR LROD 090430Z 19006KT CAVOK 18/17 Q1015=
201908090500 METAR LROD 090500Z 19007KT CAVOK 20/18 Q1015=
201908090530 METAR LROD 090530Z 19008KT CAVOK 21/17 Q1015=
201908090600 METAR LROD 090600Z 21008KT CAVOK 22/17 Q1015=
201908090630 METAR LROD 090630Z 21008KT CAVOK 23/17 Q1015=
201908090700 METAR LROD 090700Z 23007KT 200V260 CAVOK 24/17 Q1015=
201908090730 METAR LROD 090730Z 23006KT 190V270 CAVOK 25/17 Q1016=
201908090800 METAR LROD 090800Z 25006KT 190V300 CAVOK 25/16 Q1016=
201908090830 METAR LROD 090830Z 24006KT 200V280 CAVOK 26/13 Q1016=
201908090900 METAR LROD 090900Z 25006KT 210V320 CAVOK 27/14 Q1016=
201908090930 METAR LROD 090930Z 26007KT 240V330 CAVOK 28/14 Q1016=
201908091000 METAR COR LROD 091000Z 32009KT CAVOK 29/13 Q1015=
201908091030 METAR LROD 091030Z 32006KT 260V360 CAVOK 29/13 Q1015=
201908091100 METAR LROD 091100Z 29008KT 240V320 CAVOK 29/12 Q1015=
201908091130 METAR LROD 091130Z 27005KT CAVOK 30/10 Q1015=
201908091200 METAR COR LROD 091200Z 30011KT 270V330 CAVOK 30/09 Q1015=
201908091230 METAR LROD 091230Z 29010KT CAVOK 30/09 Q1015=
201908091300 METAR LROD 091300Z 30007KT 240V360 CAVOK 31/10 Q1014=
201908091330 METAR LROD 091330Z VRB02KT CAVOK 31/10 Q1014=
201908091400 METAR LROD 091400Z 27010KT CAVOK 30/10 Q1014=
201908091430 METAR COR LROD 091430Z 31007KT 270V340 CAVOK 30/10 Q1014=
201908091500 METAR LROD 091500Z 27007KT 220V330 CAVOK 30/10 Q1014=
201908091530 METAR LROD 091530Z 28006KT 230V310 CAVOK 30/11 Q1014=
201908091600 METAR LROD 091600Z 26005KT 180V310 CAVOK 30/11 Q1014=
201908091630 METAR LROD 091630Z 26005KT 240V310 CAVOK 30/11 Q1014=
201908091700 METAR LROD 091700Z 27003KT 240V300 CAVOK 30/11 Q1014=
201908091730 METAR LROD 091730Z VRB01KT CAVOK 28/12 Q1014=
201908091800 METAR LROD 091800Z 18003KT CAVOK 25/15 Q1014=
201908091830 METAR LROD 091830Z AUTO 15005KT 9999 NCD 24/15 Q1015=
201908091900 METAR LROD 091900Z AUTO 15005KT 9999 NCD 23/14 Q1015=
201908091930 METAR LROD 091930Z AUTO 13004KT 9999 NCD 22/14 Q1015=
201908092000 METAR LROD 092000Z AUTO 10005KT 9999 NCD 22/14 Q1015=
201908092030 METAR LROD 092030Z AUTO 11006KT 9999 NCD 21/15 Q1015=
201908092100 METAR LROD 092100Z AUTO 10006KT 9999 NCD 20/15 Q1015=
201908092130 METAR LROD 092130Z AUTO 10006KT 9999 NCD 19/15 Q1015=
201908092200 METAR LROD 092200Z AUTO 11005KT 9999 NCD 19/15 Q1015=
201908092230 METAR LROD 092230Z AUTO 11006KT 9999 NCD 19/15 Q1015=
201908092300 METAR LROD 092300Z AUTO 10006KT 9999 NCD 19/15 Q1015=
201908092330 METAR LROD 092330Z AUTO 10006KT 9999 NCD 19/14 Q1015=
201908100000 METAR LROD 100000Z AUTO 11007KT 9999 NCD 19/14 Q1015=
201908100030 METAR LROD 100030Z AUTO 10007KT 9999 NCD 18/14 Q1015=
201908100100 METAR LROD 100100Z AUTO 10007KT 9999 NCD 18/14 Q1015=
201908100130 METAR LROD 100130Z AUTO 10006KT 9999 NCD 18/14 Q1015=
201908100200 METAR LROD 100200Z AUTO 10006KT 9999 NCD 17/14 Q1015=
201908100230 METAR LROD 100230Z AUTO 10006KT 9999 NCD 17/14 Q1015=
201908100300 METAR LROD 100300Z AUTO 10007KT 9999 NCD 17/14 Q1015=
201908100330 METAR LROD 100330Z AUTO 10006KT 9999 NCD 17/14 Q1016=
201908100400 METAR LROD 100400Z 11007KT CAVOK 17/14 Q1016=
201908100430 METAR LROD 100430Z 10006KT CAVOK 18/14 Q1016=
201908100500 METAR LROD 100500Z 10007KT CAVOK 20/14 Q1016=
201908100530 METAR LROD 100530Z 10006KT CAVOK 21/14 Q1016=
201908100600 METAR LROD 100600Z 11006KT CAVOK 23/15 Q1016=
201908100630 METAR LROD 100630Z VRB05KT CAVOK 25/16 Q1016=
201908100700 METAR LROD 100700Z 18005KT 120V240 CAVOK 27/14 Q1017=
201908100730 METAR LROD 100730Z 21005KT 160V240 CAVOK 28/14 Q1017=
201908100800 METAR LROD 100800Z 20005KT 140V240 CAVOK 29/14 Q1017=
201908100830 METAR LROD 100830Z 22006KT 170V270 CAVOK 29/15 Q1017=
201908100900 METAR LROD 100900Z 21008KT CAVOK 30/15 Q1017=
201908100930 METAR LROD 100930Z 22007KT 170V250 CAVOK 31/15 Q1017=
201908101000 METAR LROD 101000Z 18008KT CAVOK 31/13 Q1016=
201908101030 METAR LROD 101030Z 23007KT 210V270 CAVOK 31/14 Q1016=
201908101100 METAR LROD 101100Z 22006KT 110V260 CAVOK 32/14 Q1016=
201908101130 METAR LROD 101130Z 22008KT 180V240 CAVOK 32/13 Q1016=
201908101200 METAR LROD 101200Z 24008KT 190V270 CAVOK 33/13 Q1016=
201908101230 METAR LROD 101230Z 22006KT 180V280 CAVOK 32/12 Q1016=
201908101300 METAR LROD 101300Z VRB04KT CAVOK 32/13 Q1016=
201908101330 METAR LROD 101330Z 14007KT CAVOK 33/12 Q1015=
201908101400 METAR LROD 101400Z 29007KT 250V330 CAVOK 33/13 Q1015=
201908101430 METAR LROD 101430Z 18006KT 120V230 CAVOK 33/13 Q1015=
201908101500 METAR LROD 101500Z VRB03KT CAVOK 33/12 Q1015=
201908101530 METAR LROD 101530Z 21004KT 150V260 CAVOK 33/13 Q1015=
201908101600 METAR LROD 101600Z 21005KT CAVOK 32/13 Q1015=
201908101630 METAR LROD 101630Z 31006KT 270V330 CAVOK 32/14 Q1015=
201908101700 METAR LROD 101700Z 33005KT CAVOK 31/14 Q1015=
201908101730 METAR LROD 101730Z 32003KT CAVOK 30/15 Q1015=
201908101800 METAR LROD 101800Z 32001KT CAVOK 27/16 Q1015=
201908101830 METAR LROD 101830Z AUTO 16004KT 9999 NCD 25/16 Q1016=
201908101900 METAR LROD 101900Z AUTO 13003KT 9999 NCD 23/16 Q1016=
201908101930 METAR LROD 101930Z AUTO 10006KT 9999 NCD 25/17 Q1016=
201908102000 METAR LROD 102000Z AUTO 11006KT 9999 NCD 24/17 Q1016=
201908102030 METAR LROD 102030Z AUTO 10005KT 9999 NCD 23/17 Q1016=
201908102100 METAR LROD 102100Z AUTO 11005KT 9999 NCD 22/17 Q1016=
201908102130 METAR LROD 102130Z AUTO 11005KT 9999 NCD 22/17 Q1016=
201908102200 METAR LROD 102200Z AUTO 11007KT 9999 NCD 21/17 Q1016=
201908102230 METAR LROD 102230Z AUTO 11006KT 9999 NCD 21/17 Q1016=
201908102300 METAR LROD 102300Z AUTO 11006KT 9999 NCD 20/17 Q1016=
201908102330 METAR LROD 102330Z AUTO 10005KT 9999 NCD 20/17 Q1016=
201908110000 METAR LROD 110000Z AUTO 11006KT 9999 NCD ///// Q1016=
201908110030 METAR LROD 110030Z AUTO 10006KT 9999 NCD 20/16 Q1016=
201908110100 METAR LROD 110100Z AUTO 12005KT 9999 NCD 19/16 Q1016=
201908110130 METAR LROD 110130Z AUTO 10007KT 9999 NCD 19/16 Q1016=
201908110200 METAR LROD 110200Z AUTO 11006KT 9999 NCD 19/16 Q1016=
201908110230 METAR LROD 110230Z AUTO 11006KT 9999 NCD 18/16 Q1016=
201908110300 METAR LROD 110300Z AUTO 11007KT 9999 NCD 18/16 Q1016=
201908110330 METAR LROD 110330Z AUTO 10006KT 9999 NCD 18/16 Q1016=
201908110400 METAR LROD 110400Z 11007KT CAVOK 19/16 Q1017=
201908110430 METAR LROD 110430Z 11006KT CAVOK 19/16 Q1017=
201908110500 METAR LROD 110500Z 10004KT CAVOK 21/17 Q1017=
201908110530 METAR LROD 110530Z 12005KT CAVOK 23/17 Q1017=
201908110600 METAR LROD 110600Z 11005KT CAVOK 24/17 Q1017=
201908110630 METAR LROD 110630Z 15004KT 110V200 CAVOK 28/17 Q1017=
201908110700 METAR LROD 110700Z 20007KT 160V230 CAVOK 29/16 Q1017=
201908110730 METAR LROD 110730Z 19006KT 160V220 CAVOK 30/15 Q1017=
201908110800 METAR LROD 110800Z 19006KT 160V230 CAVOK 31/14 Q1017=
201908110830 METAR LROD 110830Z 20006KT 160V230 CAVOK 32/14 Q1017=
201908110900 METAR LROD 110900Z 23005KT 160V300 CAVOK 32/15 Q1017=
201908110930 METAR LROD 110930Z 17004KT 100V240 CAVOK 33/15 Q1017=
201908111000 METAR LROD 111000Z 24005KT 180V320 CAVOK 33/14 Q1017=
201908111030 METAR LROD 111030Z 23007KT 180V280 CAVOK 34/15 Q1017=
201908111100 METAR LROD 111100Z 23006KT 180V270 CAVOK 34/15 Q1017=
201908111130 METAR LROD 111130Z 22007KT CAVOK 34/14 Q1017=
201908111200 METAR LROD 111200Z 24008KT CAVOK 35/14 Q1016=
201908111230 METAR LROD 111230Z VRB05KT CAVOK 34/14 Q1016=
201908111300 METAR LROD 111300Z 20007KT 180V240 CAVOK 35/14 Q1016=
201908111330 METAR LROD 111330Z 23008KT CAVOK 35/14 Q1016=
201908111400 METAR LROD 111400Z 27007KT 230V290 CAVOK 35/14 Q1016=
201908111430 METAR LROD 111430Z 32007KT CAVOK 34/15 Q1016=
201908111500 METAR LROD 111500Z 29004KT 200V010 CAVOK 34/14 Q1015=
201908111530 METAR LROD 111530Z 25005KT 180V330 CAVOK 34/14 Q1015=
201908111600 METAR LROD 111600Z 31007KT 270V340 CAVOK 34/14 Q1015=
201908111630 METAR LROD 111630Z 28006KT 250V330 CAVOK 33/14 Q1015=
201908111700 METAR LROD 111700Z 31005KT CAVOK 32/15 Q1015=
201908111730 METAR LROD 111730Z 33004KT CAVOK 31/16 Q1015=
201908111800 METAR LROD 111800Z 03005KT CAVOK 29/17 Q1016=
201908111830 METAR LROD 111830Z AUTO 06003KT 9999 NCD 28/18 Q1016=
201908111900 METAR LROD 111900Z AUTO 08005KT 050V120 9999 NCD 27/18 Q1016=
201908111930 METAR LROD 111930Z AUTO 10003KT 9999 NCD 26/18 Q1016=
201908112000 METAR LROD 112000Z AUTO 11003KT 9999 NCD 25/19 Q1016=
201908112030 METAR LROD 112030Z AUTO 09004KT 9999 NCD 25/19 Q1016=
201908112100 METAR LROD 112100Z AUTO 10005KT 9999 NCD 25/20 Q1016=
201908112130 METAR LROD 112130Z AUTO 11005KT 9999 NCD 24/19 Q1016=
201908112200 METAR LROD 112200Z AUTO 10005KT 9999 NCD 23/19 Q1016=
201908112230 METAR LROD 112230Z AUTO 11004KT 9999 NCD 23/19 Q1016=
201908112300 METAR LROD 112300Z AUTO 11005KT 9999 NCD 22/19 Q1015=
201908112330 METAR LROD 112330Z AUTO 11005KT 9999 NCD 22/19 Q1015=
201908120000 METAR LROD 120000Z AUTO 11005KT 9999 NCD 22/19 Q1015=
201908120030 METAR LROD 120030Z AUTO 11006KT 9999 NCD 21/19 Q1015=
201908120100 METAR LROD 120100Z AUTO 11006KT 9999 NCD 21/19 Q1015=
201908120130 METAR LROD 120130Z AUTO 10005KT 9999 NCD 21/19 Q1015=
201908120200 METAR LROD 120200Z AUTO 10005KT 9999 NCD 21/19 Q1015=
201908120230 METAR LROD 120230Z AUTO 10006KT 9999 NCD 21/19 Q1015=
201908120300 METAR LROD 120300Z AUTO 11006KT 9999 NCD 20/18 Q1015=
201908120330 METAR LROD 120330Z AUTO 11006KT 9999 NCD 20/18 Q1015=
201908120400 METAR COR LROD 120400Z 10006KT CAVOK 21/18 Q1015=
201908120430 METAR LROD 120430Z 10005KT 070V130 CAVOK 22/19 Q1015=
201908120500 METAR LROD 120500Z 11006KT CAVOK 23/18 Q1015=
201908120530 METAR LROD 120530Z 11007KT CAVOK 25/18 Q1015=
201908120600 METAR LROD 120600Z 12006KT 090V150 CAVOK 27/18 Q1015=
201908120630 METAR LROD 120630Z 11004KT 080V140 CAVOK 29/19 Q1015=
201908120700 METAR LROD 120700Z 15005KT 100V200 CAVOK 31/17 Q1015=
201908120730 METAR LROD 120730Z 20008KT CAVOK 32/17 Q1015=
201908120800 METAR LROD 120800Z 18008KT CAVOK 33/17 Q1015=
201908120830 METAR LROD 120830Z 21009KT CAVOK 33/17 Q1015=
201908120900 METAR LROD 120900Z 21008KT 170V250 CAVOK 34/15 Q1015=
201908120930 METAR LROD 120930Z 23010KT 200V260 CAVOK 34/16 Q1015=
201908121000 METAR LROD 121000Z 22011KT 160V280 CAVOK 34/16 Q1015=
201908121030 METAR LROD 121030Z 24012KT 200V270 CAVOK 35/16 Q1015=
201908121100 METAR LROD 121100Z 22011KT 190V250 CAVOK 35/16 Q1014=
201908121130 METAR LROD 121130Z 23012KT 190V260 CAVOK 35/16 Q1014=
201908121200 METAR LROD 121200Z 21010KT 180V240 CAVOK 36/15 Q1014=
201908121230 METAR LROD 121230Z 22010KT 160V270 CAVOK 36/15 Q1014=
201908121300 METAR COR LROD 121300Z 20009KT 170V230 CAVOK 36/16 Q1014=
201908121330 METAR LROD 121330Z 20010KT 170V230 CAVOK 36/16 Q1013=
201908121400 METAR LROD 121400Z 22009KT CAVOK 36/16 Q1013=
201908121430 METAR LROD 121430Z 21009KT 170V230 CAVOK 36/15 Q1013=
201908121500 METAR COR LROD 121500Z 21008KT CAVOK 36/15 Q1013=
201908121530 METAR COR LROD 121530Z 22009KT 180V240 CAVOK 36/15 Q1013=
201908121600 METAR LROD 121600Z 20007KT CAVOK 36/15 Q1012=
201908121630 METAR COR LROD 121630Z 19006KT CAVOK 35/15 Q1012=
201908121700 METAR LROD 121700Z 16004KT CAVOK 34/17 Q1012=
201908121730 METAR LROD 121730Z 16003KT CAVOK 32/18 Q1012=
201908121800 METAR LROD 121800Z 15004KT CAVOK 30/18 Q1012=
201908121830 METAR LROD 121830Z AUTO 14005KT 9999 NCD 28/19 Q1012=
201908121900 METAR LROD 121900Z AUTO 14005KT 9999 NCD 28/19 Q1013=
201908121930 METAR LROD 121930Z AUTO 10005KT 9999 NCD 27/19 Q1013=
201908122000 METAR LROD 122000Z AUTO 11005KT 9999 NCD 27/19 Q1013=
201908122030 METAR LROD 122030Z AUTO 09006KT 9999 NCD 26/19 Q1013=
201908122100 METAR LROD 122100Z AUTO 10005KT 9999 NCD 26/19 Q1013=
201908122130 METAR LROD 122130Z AUTO 11005KT 9999 NCD 25/20 Q1013=
201908122200 METAR LROD 122200Z AUTO 12006KT 100V160 9999 NCD 24/20 Q1013=
201908122230 METAR LROD 122230Z AUTO 10006KT 9999 NCD 24/20 Q1013=
201908122300 METAR LROD 122300Z AUTO 11006KT 9999 NCD 23/19 Q1013=
201908122330 METAR LROD 122330Z AUTO 11006KT 9999 NCD 23/19 Q1013=
201908130000 METAR LROD 130000Z AUTO 11006KT 9999 NCD 23/19 Q1012=
201908130030 METAR LROD 130030Z AUTO 10006KT 9999 NCD 23/19 Q1012=
201908130100 METAR LROD 130100Z AUTO 11007KT 9999 NCD 22/19 Q1012=
201908130130 METAR LROD 130130Z AUTO 11005KT 9999 NCD 22/19 Q1012=
201908130200 METAR LROD 130200Z AUTO 11006KT 9999 NCD 22/19 Q1012=
201908130230 METAR LROD 130230Z AUTO 11006KT 9999 NCD 21/19 Q1012=
201908130300 METAR LROD 130300Z AUTO 11006KT 9999 NCD 21/19 Q1012=
201908130330 METAR LROD 130330Z AUTO 11005KT 9999 NCD 21/19 Q1012=
201908130400 METAR LROD 130400Z 11004KT CAVOK 21/19 Q1012=
201908130430 METAR LROD 130430Z 11005KT CAVOK 23/19 Q1012=
201908130500 METAR LROD 130500Z 11005KT CAVOK 24/19 Q1012=
201908130530 METAR LROD 130530Z 11004KT CAVOK 26/19 Q1012=
201908130600 METAR LROD 130600Z 12006KT CAVOK 27/19 Q1012=
201908130630 METAR LROD 130630Z 10005KT 060V130 CAVOK 29/19 Q1013=
201908130700 METAR LROD 130700Z VRB02KT CAVOK 31/18 Q1013=
201908130730 METAR LROD 130730Z VRB04KT CAVOK 32/16 Q1013=
201908130800 METAR LROD 130800Z 30009KT CAVOK 31/19 Q1013=
201908130830 METAR LROD 130830Z 30007KT CAVOK 32/19 Q1013=
201908130900 METAR LROD 130900Z VRB03KT CAVOK 33/15 Q1013=
201908130930 METAR LROD 130930Z VRB04KT CAVOK 33/16 Q1013=
201908131000 METAR LROD 131000Z VRB03KT CAVOK 34/15 Q1012=
201908131030 METAR LROD 131030Z 35007KT 310V020 CAVOK 34/15 Q1012=
201908131100 METAR LROD 131100Z 30009KT 270V340 CAVOK 35/15 Q1012=
201908131130 METAR LROD 131130Z 32008KT 270V350 CAVOK 35/15 Q1012=
201908131200 METAR LROD 131200Z 32007KT 250V020 CAVOK 35/15 Q1012=
201908131230 METAR LROD 131230Z VRB03KT CAVOK 35/15 Q1011=
201908131300 METAR LROD 131300Z 32005KT 240V010 CAVOK 36/14 Q1011=
201908131330 METAR LROD 131330Z VRB03KT CAVOK 36/15 Q1011=
201908131400 METAR LROD 131400Z 31006KT 270V350 CAVOK 36/14 Q1011=
201908131430 METAR LROD 131430Z VRB04KT CAVOK 36/15 Q1010=
201908131500 METAR LROD 131500Z 31009KT 280V360 CAVOK 35/15 Q1010=
201908131530 METAR LROD 131530Z 31006KT 280V350 CAVOK 35/15 Q1010=
201908131600 METAR LROD 131600Z 31007KT CAVOK 35/15 Q1010=
201908131630 METAR COR LROD 131630Z 31006KT CAVOK 34/15 Q1010=
201908131700 METAR LROD 131700Z 34008KT CAVOK 33/15 Q1010=
201908131730 METAR LROD 131730Z 35006KT CAVOK 32/15 Q1010=
201908131800 METAR LROD 131800Z 01011KT CAVOK 29/20 Q1010=
201908131830 METAR LROD 131830Z 02014KT CAVOK 26/19 Q1011=
201908131900 METAR LROD 131900Z AUTO 05007KT 020V100 9999 NCD 25/19 Q1011=
201908131930 METAR LROD 131930Z AUTO 02009KT 9999 NCD 24/18 Q1011=
201908132000 METAR LROD 132000Z AUTO 03007KT 360V060 9999 NCD 23/18 Q1011=
201908132030 METAR LROD 132030Z AUTO 02007KT 9999 NCD 23/18 Q1011=
201908132100 METAR LROD 132100Z AUTO 04007KT 010V080 9999 NCD 23/18 Q1010=
201908132130 METAR LROD 132130Z AUTO 02007KT 9999 NCD 23/18 Q1010=
201908132200 METAR LROD 132200Z AUTO 03008KT 350V060 9999 NCD 23/18 Q1010=
201908132230 METAR LROD 132230Z AUTO 04007KT 010V070 9999 NCD 23/18 Q1010=
201908132300 METAR LROD 132300Z AUTO 05006KT 010V080 9999 NCD 22/18 Q1010=
201908132330 METAR LROD 132330Z AUTO 04003KT 9999 NCD 22/18 Q1009=
201908140000 METAR COR LROD 140000Z 04002KT CAVOK 21/18 Q1009=
201908140030 METAR LROD 140030Z 04003KT CAVOK 20/18 Q1009=
201908140100 METAR LROD 140100Z 34005KT 310V060 CAVOK 21/18 Q1010=
201908140130 METAR LROD 140130Z 34010KT CAVOK 20/18 Q1010=
201908140200 METAR LROD 140200Z 34011KT CAVOK 19/17 Q1010=
201908140230 METAR LROD 140230Z 01011KT CAVOK 19/17 Q1010=
201908140300 METAR LROD 140300Z 01009KT 350V050 CAVOK 20/17 Q1010=
201908140330 METAR LROD 140330Z 07007KT 040V100 CAVOK 19/17 Q1010=
201908140400 METAR LROD 140400Z 08007KT CAVOK 19/17 Q1010=
201908140430 METAR LROD 140430Z 02004KT 340V090 CAVOK 19/17 Q1010=
201908140500 METAR LROD 140500Z 36003KT 310V060 CAVOK 21/17 Q1010=
201908140530 METAR LROD 140530Z 02007KT CAVOK 21/17 Q1010=
201908140600 METAR LROD 140600Z 04007KT 010V070 CAVOK 22/17 Q1010=
201908140630 METAR LROD 140630Z 36007KT CAVOK 22/17 Q1010=
201908140700 METAR LROD 140700Z 34007KT 300V010 CAVOK 22/17 Q1010=
201908140730 METAR LROD 140730Z 31008KT CAVOK 22/17 Q1010=
201908140800 METAR LROD 140800Z 30004KT 250V350 CAVOK 24/17 Q1010=
201908140830 METAR LROD 140830Z 24003KT 9999 -SHRA FEW023 FEW050CB 23/18
                        Q1011=
201908140900 METAR LROD 140900Z 27011KT 9999 -SHRA BKN018 FEW030CB 22/18
                        Q1011=
201908140930 METAR LROD 140930Z 28009KT 9999 BKN024 FEW030CB 22/18 Q1011=
201908141000 METAR LROD 141000Z 26011KT 230V290 9999 FEW008 FEW023CB BKN024
                        21/19 Q1012=
201908141030 METAR LROD 141030Z 27012KT 8000 -SHRA SCT006 SCT023CB 20/18
                        Q1012=
201908141100 METAR LROD 141100Z 28004KT 240V020 6000 -RA BKN005 BKN024
                        19/18 Q1012=
201908141130 METAR LROD 141130Z VRB02KT 9999 SCT004 BKN036 20/19 Q1012=
201908141200 METAR LROD 141200Z 26010KT 9999 SCT007 BKN033 20/18 Q1012=
201908141230 METAR LROD 141230Z 23007KT 9999 SCT008 OVC021 20/19 Q1012=
201908141300 METAR LROD 141300Z 27009KT 9999 -RA BKN008 OVC011 20/19 Q1012=
201908141330 METAR LROD 141330Z 27012KT 3000 RA BR BKN008 OVC014 19/18
                        Q1013=
201908141400 METAR LROD 141400Z 28011KT 6000 -RA SCT005 BKN019 19/18 Q1013
                        RERA=
201908141430 METAR LROD 141430Z 32014KT 300V360 9999 BKN006 BKN016 18/17
                        Q1014=
201908141500 METAR LROD 141500Z 36014KT 9999 BKN008 BKN018 17/16 Q1014=
201908141530 METAR LROD 141530Z 35014KT 9999 BKN009 BKN030 17/15 Q1014=
201908141600 METAR LROD 141600Z 01014KT 9999 BKN016 BKN032 17/15 Q1014=
201908141630 METAR LROD 141630Z 36012KT 9999 -RA BKN017 BKN036 17/15 Q1015=
201908141700 METAR LROD 141700Z 03009KT 9999 FEW018 SCT036 BKN042 17/14
                        Q1014=
201908141730 METAR LROD 141730Z 35009KT 9999 FEW017 BKN042 17/13 Q1015=
201908141800 METAR LROD 141800Z 36010KT 9999 FEW020 BKN043 16/13 Q1015=
201908141830 METAR LROD 141830Z AUTO 36009KT 9999 BKN044/// BKN190///
                        16/13 Q1016=
201908141900 METAR LROD 141900Z AUTO 36009KT 9999 FEW046/// BKN180///
                        16/13 Q1015=
201908141930 METAR LROD 141930Z AUTO 34008KT 9999 SCT160/// 16/12 Q1015=
201908142000 METAR LROD 142000Z AUTO 35008KT 9999 BKN190/// 16/12 Q1015=
201908142030 METAR LROD 142030Z AUTO 34007KT 9999 BKN180/// 15/13 Q1016=
201908142100 METAR LROD 142100Z AUTO 34007KT 9999 SCT085/// BKN190///
                        15/12 Q1015=
201908142130 METAR LROD 142130Z AUTO 34008KT 9999 BKN026/// BKN170///
                        15/12 Q1015=
201908142200 METAR LROD 142200Z AUTO 33008KT 9999 BKN026/// OVC160///
                        15/12 Q1015=
201908142230 METAR LROD 142230Z AUTO 35005KT 9999 BKN031/// 15/12 Q1016=
201908142300 METAR LROD 142300Z AUTO 35005KT 9999 BKN035/// 15/12 Q1016=
201908142330 METAR LROD 142330Z AUTO 35007KT 320V020 9999 BKN036/// 15/12
                        Q1015=
201908150000 METAR LROD 150000Z AUTO 34007KT 9999 OVC038/// 15/12 Q1015=
201908150030 METAR LROD 150030Z AUTO 34007KT 9999 BKN040/// 15/12 Q1015=
201908150100 METAR LROD 150100Z AUTO 33006KT 9999 FEW040/// BKN095///
                        14/12 Q1015=
201908150130 METAR LROD 150130Z AUTO 32006KT 9999 BKN090/// 14/12 Q1015=
201908150200 METAR LROD 150200Z AUTO 32004KT 9999 BKN090/// 13/11 Q1015=
201908150230 METAR LROD 150230Z AUTO 33007KT 9999 FEW090/// 13/11 Q1015=
201908150300 METAR LROD 150300Z AUTO 33006KT 9999 NCD 12/11 Q1015=
201908150330 METAR LROD 150330Z AUTO 32004KT 9999 NCD 12/11 Q1015=
201908150400 METAR LROD 150400Z 31004KT CAVOK 12/11 Q1015=
201908150430 METAR LROD 150430Z 30003KT CAVOK 12/11 Q1015=
201908150500 METAR LROD 150500Z 31004KT CAVOK 13/12 Q1015=
201908150530 METAR LROD 150530Z 33005KT CAVOK 14/12 Q1015=
201908150600 METAR LROD 150600Z 35008KT CAVOK 15/12 Q1015=
201908150630 METAR LROD 150630Z 01008KT CAVOK 15/12 Q1015=
201908150700 METAR LROD 150700Z 01006KT 340V040 CAVOK 17/12 Q1015=
201908150730 METAR LROD 150730Z 01005KT 350V050 CAVOK 17/13 Q1015=
201908150800 METAR LROD 150800Z 02005KT 340V070 9999 SCT030 18/13 Q1015=
201908150830 METAR LROD 150830Z 05005KT 020V100 9999 FEW020 BKN029 18/13
                        Q1015=
201908150900 METAR LROD 150900Z 02005KT 340V080 9999 OVC030 18/13 Q1015=
201908150930 METAR LROD 150930Z 02007KT 360V060 9999 OVC030 19/13 Q1015=
201908151000 METAR COR LROD 151000Z 02007KT 350V070 9999 FEW025 OVC039
                        20/13 Q1015=
201908151030 METAR LROD 151030Z VRB06KT 9999 FEW025 OVC041 20/13 Q1015=
201908151100 METAR LROD 151100Z 36006KT 310V050 9999 BKN032 20/13 Q1015=
201908151130 METAR LROD 151130Z 36008KT 330V030 9999 OVC034 20/13 Q1015=
201908151200 METAR LROD 151200Z 01008KT 340V040 9999 BKN033 20/13 Q1015=
201908151230 METAR LROD 151230Z 03007KT 340V060 9999 OVC033 20/13 Q1015=
201908151300 METAR LROD 151300Z 35008KT 320V030 9999 BKN033 21/13 Q1014=
201908151330 METAR LROD 151330Z 36009KT 9999 BKN040 21/13 Q1014=
201908151400 METAR LROD 151400Z 36007KT 320V070 9999 BKN040 21/13 Q1015=
201908151430 METAR LROD 151430Z 04006KT 350V100 9999 OVC045 21/13 Q1014=
201908151500 METAR LROD 151500Z 03005KT 360V070 9999 BKN045 21/13 Q1014=
201908151530 METAR LROD 151530Z 04006KT 350V080 CAVOK 21/13 Q1014=
201908151600 METAR LROD 151600Z 04006KT 350V080 CAVOK 21/13 Q1014=
201908151630 METAR LROD 151630Z 05006KT 030V090 CAVOK 20/13 Q1014=
201908151700 METAR LROD 151700Z 04004KT CAVOK 20/13 Q1015=
201908151730 METAR LROD 151730Z 06003KT CAVOK 20/13 Q1015=
201908151800 METAR LROD 151800Z 06003KT CAVOK 19/13 Q1015=
201908151830 METAR LROD 151830Z 07003KT CAVOK 18/13 Q1015=
201908151900 METAR LROD 151900Z AUTO 08003KT 9999 BKN085/// 18/13 Q1015=
201908151930 METAR LROD 151930Z AUTO 07003KT 9999 SCT085/// 17/13 Q1015=
201908152000 METAR LROD 152000Z AUTO 00000KT 9999 FEW085/// 16/13 Q1015=
201908152030 METAR LROD 152030Z AUTO 06001KT 9999 NCD 14/13 Q1015=
201908152100 METAR LROD 152100Z AUTO 06002KT 9999 NCD 14/13 Q1015=
201908152130 METAR LROD 152130Z AUTO 06002KT 9999 NCD 13/12 Q1015=
201908152200 METAR LROD 152200Z AUTO 09002KT 060V140 9999 NCD 12/12 Q1015=
201908152230 METAR LROD 152230Z AUTO 14001KT 9999 NCD 11/11 Q1015=
201908152300 METAR LROD 152300Z AUTO 10004KT 9999 NCD 12/12 Q1015=
201908152330 METAR LROD 152330Z AUTO 12004KT 6000 NCD 12/12 Q1015=
201908160000 METAR LROD 160000Z AUTO 11005KT 7000 NCD 12/12 Q1016=
201908160030 METAR LROD 160030Z AUTO 10004KT 9999 NCD 12/12 Q1016=
201908160100 METAR LROD 160100Z AUTO 10003KT 9999 NCD 12/11 Q1016=
201908160130 METAR LROD 160130Z AUTO 11005KT 9999 NCD 12/11 Q1016=
201908160200 METAR LROD 160200Z AUTO 11004KT 9999 NCD 11/11 Q1016=
201908160230 METAR LROD 160230Z AUTO 12003KT 9999 NCD 11/11 Q1016=
201908160300 METAR LROD 160300Z AUTO 14003KT 6000 NCD 10/09 Q1016=
201908160330 METAR LROD 160330Z AUTO 11005KT 9999 NCD 11/11 Q1016=
201908160400 METAR COR LROD 160400Z 11005KT CAVOK 11/11 Q1016=
201908160430 METAR LROD 160430Z 11005KT CAVOK 12/11 Q1016=
201908160500 METAR LROD 160500Z 10004KT CAVOK 13/12 Q1016=
201908160530 METAR LROD 160530Z 10005KT CAVOK 14/13 Q1016=
201908160600 METAR LROD 160600Z 11003KT 090V160 CAVOK 16/13 Q1016=
201908160630 METAR LROD 160630Z 15002KT CAVOK 18/14 Q1016=
201908160700 METAR LROD 160700Z VRB01KT CAVOK 19/13 Q1016=
201908160730 METAR LROD 160730Z VRB03KT CAVOK 20/12 Q1016=
201908160800 METAR LROD 160800Z 33003KT CAVOK 22/12 Q1016=
201908160830 METAR LROD 160830Z 34006KT 300V060 CAVOK 23/10 Q1016=
201908160900 METAR LROD 160900Z 01007KT 340V060 CAVOK 23/09 Q1016=
201908160930 METAR LROD 160930Z 34006KT 280V030 CAVOK 23/09 Q1016=
201908161000 METAR LROD 161000Z 36009KT 9999 FEW042 24/08 Q1016=
201908161030 METAR LROD 161030Z 31007KT 270V020 9999 FEW042 25/08 Q1016=
201908161100 METAR LROD 161100Z VRB06KT 9999 SCT045 25/08 Q1016=
201908161130 METAR LROD 161130Z 34006KT 290V020 CAVOK 24/09 Q1015=
201908161200 METAR LROD 161200Z 28008KT 240V320 CAVOK 25/08 Q1015=
201908161230 METAR LROD 161230Z 35007KT 310V030 CAVOK 25/08 Q1015=
201908161300 METAR LROD 161300Z 34007KT 260V040 CAVOK 27/08 Q1015=
201908161330 METAR LROD 161330Z 32008KT 240V010 CAVOK 27/08 Q1015=
201908161400 METAR LROD 161400Z 32008KT 290V350 CAVOK 26/07 Q1014=
201908161430 METAR LROD 161430Z 01006KT CAVOK 26/08 Q1014=
201908161500 METAR LROD 161500Z 02008KT CAVOK 26/09 Q1014=
201908161530 METAR LROD 161530Z 01009KT CAVOK 25/08 Q1014=
201908161600 METAR LROD 161600Z 35006KT CAVOK 25/08 Q1015=
201908161630 METAR LROD 161630Z 35005KT 320V020 CAVOK 25/08 Q1015=
201908161700 METAR LROD 161700Z 04005KT CAVOK 23/09 Q1015=
201908161730 METAR LROD 161730Z 06004KT CAVOK 22/09 Q1015=
201908161800 METAR LROD 161800Z 05003KT CAVOK 21/10 Q1015=
201908161830 METAR LROD 161830Z AUTO 11004KT 9999 NCD 20/10 Q1015=
201908161900 METAR LROD 161900Z AUTO 12004KT 9999 NCD 19/11 Q1016=
201908161930 METAR LROD 161930Z AUTO 10004KT 9999 NCD 17/11 Q1016=
201908162000 METAR LROD 162000Z AUTO 15003KT 9999 BKN075/// 15/11 Q1016=
201908162030 METAR LROD 162030Z AUTO 11003KT 9999 BKN080/// 16/12 Q1016=
201908162100 METAR LROD 162100Z AUTO 10005KT 9999 SCT080/// 17/11 Q1016=
201908162130 METAR LROD 162130Z AUTO 10006KT 9999 FEW065/// 17/12 Q1016=
201908162200 METAR LROD 162200Z AUTO 10004KT 9999 SCT080/// 16/12 Q1016=
201908162230 METAR LROD 162230Z AUTO 11006KT 9999 BKN075/// 16/12 Q1016=
201908162300 METAR LROD 162300Z AUTO 12006KT 9999 FEW080/// 15/11 Q1016=
201908162330 METAR LROD 162330Z AUTO 16005KT 120V200 9999 FEW065/// 13/11
                        Q1016=
201908170000 METAR LROD 170000Z AUTO 11006KT 9999 NCD 14/11 Q1016=
201908170030 METAR LROD 170030Z AUTO 10006KT 9999 NCD 14/11 Q1016=
201908170100 METAR LROD 170100Z AUTO 11006KT 9999 NCD 13/11 Q1016=
201908170130 METAR LROD 170130Z AUTO 11006KT 9999 NCD 13/11 Q1016=
201908170200 METAR LROD 170200Z AUTO 11005KT 9999 FEW100/// 13/11 Q1016=
201908170230 METAR LROD 170230Z AUTO 11006KT 9999 NCD 13/11 Q1016=
201908170300 METAR LROD 170300Z AUTO 12006KT 9999 FEW095/// 12/10 Q1016=
201908170330 METAR LROD 170330Z AUTO 11006KT 9999 BKN095/// 12/10 Q1016=
201908170400 METAR LROD 170400Z 10006KT CAVOK 12/10 Q1016=
201908170430 METAR LROD 170430Z 10006KT CAVOK 14/11 Q1017=
201908170500 METAR LROD 170500Z 11004KT CAVOK 15/11 Q1017=
201908170530 METAR LROD 170530Z 10004KT CAVOK 16/11 Q1017=
201908170600 METAR LROD 170600Z 10002KT CAVOK 16/11 Q1017=
201908170630 METAR LROD 170630Z 14002KT CAVOK 19/11 Q1017=
201908170700 METAR LROD 170700Z 16003KT CAVOK 20/12 Q1017=
201908170730 METAR LROD 170730Z 20006KT 170V230 CAVOK 22/11 Q1017=
201908170800 METAR LROD 170800Z 18005KT 140V220 CAVOK 24/11 Q1017=
201908170830 METAR LROD 170830Z 22005KT 170V290 CAVOK 24/10 Q1017=
201908170900 METAR LROD 170900Z 21007KT CAVOK 25/10 Q1017=
201908170930 METAR LROD 170930Z VRB06KT CAVOK 26/09 Q1017=
201908171000 METAR LROD 171000Z 25007KT 230V290 CAVOK 27/10 Q1017=
201908171030 METAR LROD 171030Z 25006KT 200V330 CAVOK 27/10 Q1017=
201908171100 METAR LROD 171100Z 20005KT 120V250 CAVOK 25/11 Q1016=
201908171130 METAR LROD 171130Z VRB05KT CAVOK 27/10 Q1016=
201908171200 METAR LROD 171200Z 22007KT 180V240 CAVOK 26/12 Q1016=
201908171230 METAR LROD 171230Z 25007KT 220V280 CAVOK 26/12 Q1016=
201908171300 METAR LROD 171300Z 20006KT 170V230 CAVOK 26/12 Q1016=
201908171330 METAR LROD 171330Z 21005KT 170V270 CAVOK 26/11 Q1016=
201908171400 METAR LROD 171400Z VRB02KT CAVOK 27/11 Q1015=
201908171430 METAR LROD 171430Z 07004KT 040V100 CAVOK 26/12 Q1015=
201908171500 METAR LROD 171500Z VRB03KT CAVOK 27/12 Q1015=
201908171530 METAR LROD 171530Z 29007KT 260V320 CAVOK 27/11 Q1015=
201908171600 METAR LROD 171600Z 25007KT 210V290 CAVOK 27/11 Q1015=
201908171630 METAR LROD 171630Z VRB04KT CAVOK 26/11 Q1015=
201908171700 METAR LROD 171700Z 28004KT 240V300 CAVOK 25/11 Q1015=
201908171730 METAR LROD 171730Z 00000KT CAVOK 24/12 Q1015=
201908171800 METAR LROD 171800Z 20002KT CAVOK 22/13 Q1015=
201908171830 METAR LROD 171830Z AUTO 17002KT 9999 FEW065/// BKN230///
                        21/13 Q1016=
201908171900 METAR LROD 171900Z AUTO 13002KT 9999 SCT070/// BKN230///
                        20/13 Q1016=
201908171930 METAR LROD 171930Z AUTO 12004KT 100V160 9999 NCD 20/14 Q1016=
201908172000 METAR LROD 172000Z AUTO 17002KT 9999 NCD 18/14 Q1016=
201908172030 METAR LROD 172030Z AUTO 18003KT 9999 NCD 17/13 Q1016=
201908172100 METAR LROD 172100Z AUTO 10005KT 9999 NCD 18/14 Q1016=
201908172130 METAR LROD 172130Z AUTO 12005KT 9999 NCD 17/14 Q1016=
201908172200 METAR LROD 172200Z AUTO 11005KT 9999 NCD 17/14 Q1016=
201908172230 METAR LROD 172230Z AUTO 11006KT 9999 NCD 16/14 Q1016=
201908172300 METAR LROD 172300Z AUTO 11005KT 9999 NCD 16/13 Q1016=
201908172330 METAR LROD 172330Z AUTO 10005KT 9999 NCD 16/13 Q1016=
201908180000 METAR LROD 180000Z AUTO 11005KT 9999 NCD 15/13 Q1016=
201908180030 METAR LROD 180030Z AUTO 11006KT 9999 NCD 15/13 Q1016=
201908180100 METAR LROD 180100Z AUTO 11005KT 9999 NCD 15/13 Q1016=
201908180130 METAR LROD 180130Z AUTO 10006KT 9999 NCD 14/13 Q1016=
201908180200 METAR LROD 180200Z AUTO 10005KT 9999 BKN170/// 15/13 Q1016=
201908180230 METAR LROD 180230Z AUTO 10005KT 9999 BKN170/// 15/13 Q1016=
201908180300 METAR LROD 180300Z AUTO 11006KT 9999 FEW180/// 14/13 Q1016=
201908180330 METAR LROD 180330Z AUTO 10005KT 9999 BKN170/// 14/13 Q1016=
201908180400 METAR COR LROD 180400Z 11005KT CAVOK 15/13 Q1017=
201908180430 METAR LROD 180430Z 11005KT CAVOK 16/13 Q1017=
201908180500 METAR LROD 180500Z 10005KT CAVOK 17/14 Q1017=
201908180530 METAR LROD 180530Z 11004KT CAVOK 17/14 Q1017=
201908180600 METAR LROD 180600Z 13004KT CAVOK 19/15 Q1017=
201908180630 METAR LROD 180630Z 20005KT 140V230 CAVOK 21/14 Q1017=
201908180700 METAR LROD 180700Z 19006KT CAVOK 22/13 Q1017=
201908180730 METAR LROD 180730Z 18005KT 150V220 CAVOK 23/14 Q1017=
201908180800 METAR LROD 180800Z 17005KT 140V210 CAVOK 24/13 Q1017=
201908180830 METAR LROD 180830Z 19005KT 140V230 CAVOK 26/12 Q1017=
201908180900 METAR LROD 180900Z 20006KT 160V250 CAVOK 26/12 Q1017=
201908180930 METAR LROD 180930Z 22007KT 180V260 CAVOK 27/11 Q1017=
201908181000 METAR COR LROD 181000Z 22007KT 190V260 CAVOK 27/09 Q1017=
201908181030 METAR LROD 181030Z 21006KT 160V250 CAVOK 27/10 Q1017=
201908181100 METAR LROD 181100Z 15004KT 090V240 CAVOK 28/09 Q1017=
201908181130 METAR LROD 181130Z VRB03KT CAVOK 28/10 Q1017=
201908181200 METAR COR LROD 181200Z 21006KT 160V250 CAVOK 28/10 Q1016=
201908181230 METAR LROD 181230Z 20007KT 140V210 CAVOK 29/09 Q1016=
201908181300 METAR LROD 181300Z 18004KT 150V230 CAVOK 28/09 Q1016=
201908181330 METAR LROD 181330Z 18007KT 150V210 CAVOK 28/10 Q1016=
201908181400 METAR LROD 181400Z 16004KT 050V220 CAVOK 29/10 Q1016=
201908181430 METAR LROD 181430Z 21006KT 180V250 CAVOK 29/10 Q1016=
201908181500 METAR COR LROD 181500Z 20006KT 140V230 CAVOK 29/11 Q1016=
201908181530 METAR COR LROD 181530Z 19006KT 160V220 CAVOK 29/10 Q1016=
201908181600 METAR LROD 181600Z 17008KT 140V200 CAVOK 29/11 Q1016=
201908181630 METAR LROD 181630Z 16007KT CAVOK 28/11 Q1016=
201908181700 METAR LROD 181700Z 16006KT CAVOK 27/11 Q1016=
201908181730 METAR LROD 181730Z 15005KT CAVOK 25/12 Q1016=
201908181800 METAR LROD 181800Z AUTO 14005KT 9999 NCD 23/13 Q1016=
201908181830 METAR LROD 181830Z AUTO 14006KT 9999 NCD 23/12 Q1016=
201908181900 METAR LROD 181900Z AUTO 14006KT 9999 NCD 22/12 Q1016=
201908181930 METAR LROD 181930Z AUTO 12005KT 9999 NCD 21/12 Q1016=
201908182000 METAR LROD 182000Z AUTO 11006KT 9999 NCD 21/12 Q1016=
201908182030 METAR LROD 182030Z AUTO 12006KT 9999 NCD 21/12 Q1016=
201908182100 METAR LROD 182100Z AUTO 10005KT 9999 NCD 20/13 Q1016=
201908182130 METAR LROD 182130Z AUTO 11006KT 9999 NCD 19/13 Q1016=
201908182200 METAR LROD 182200Z AUTO 10006KT 9999 NCD 19/13 Q1016=
201908182230 METAR LROD 182230Z AUTO 10007KT 9999 NCD 19/13 Q1016=
201908182300 METAR LROD 182300Z AUTO 10007KT 9999 NCD 18/13 Q1016=
201908182330 METAR LROD 182330Z AUTO 11007KT 9999 NCD 18/13 Q1016=
201908190000 METAR LROD 190000Z AUTO 11007KT 9999 NCD 18/13 Q1016=
201908190030 METAR LROD 190030Z AUTO 11007KT 9999 NCD 17/13 Q1016=
201908190100 METAR LROD 190100Z AUTO 10007KT 9999 NCD 17/13 Q1016=
201908190130 METAR LROD 190130Z AUTO 10006KT 9999 NCD 17/13 Q1017=
201908190200 METAR LROD 190200Z AUTO 10007KT 9999 NCD 16/13 Q1017=
201908190230 METAR LROD 190230Z AUTO 10007KT 9999 NCD 16/13 Q1017=
201908190300 METAR LROD 190300Z AUTO 11006KT 9999 NCD 16/12 Q1017=
201908190330 METAR LROD 190330Z AUTO 10007KT 9999 NCD 16/12 Q1017=
201908190400 METAR LROD 190400Z 11006KT CAVOK 16/12 Q1017=
201908190430 METAR LROD 190430Z 11006KT CAVOK 17/13 Q1017=
201908190500 METAR LROD 190500Z 11006KT CAVOK 19/12 Q1018=
201908190530 METAR LROD 190530Z 10007KT CAVOK 20/13 Q1018=
201908190600 METAR LROD 190600Z 10007KT CAVOK 22/13 Q1018=
201908190630 METAR LROD 190630Z 09007KT CAVOK 24/13 Q1018=
201908190700 METAR LROD 190700Z 10006KT 070V130 CAVOK 26/14 Q1018=
201908190730 METAR LROD 190730Z 11006KT 050V150 CAVOK 28/13 Q1018=
201908190800 METAR LROD 190800Z 13004KT 070V200 CAVOK 30/11 Q1018=
201908190830 METAR LROD 190830Z 17005KT 120V230 CAVOK 31/10 Q1018=
201908190900 METAR LROD 190900Z VRB04KT CAVOK 31/10 Q1018=
201908190930 METAR LROD 190930Z VRB02KT CAVOK 32/10 Q1018=
201908191000 METAR LROD 191000Z VRB03KT CAVOK 32/10 Q1018=
201908191030 METAR LROD 191030Z VRB03KT CAVOK 32/10 Q1018=
201908191100 METAR LROD 191100Z VRB03KT CAVOK 32/10 Q1018=
201908191130 METAR LROD 191130Z VRB03KT CAVOK 33/10 Q1017=
201908191200 METAR LROD 191200Z 28006KT 210V340 CAVOK 33/10 Q1017=
201908191230 METAR LROD 191230Z VRB03KT CAVOK 33/10 Q1017=
201908191300 METAR LROD 191300Z VRB04KT CAVOK 34/11 Q1017=
201908191330 METAR LROD 191330Z 32005KT 250V010 CAVOK 33/10 Q1017=
201908191400 METAR LROD 191400Z 27005KT 190V310 CAVOK 34/10 Q1017=
201908191430 METAR LROD 191430Z 31008KT CAVOK 34/11 Q1017=
201908191500 METAR LROD 191500Z 31009KT 270V330 CAVOK 34/11 Q1017=
201908191530 METAR LROD 191530Z 30004KT 230V350 CAVOK 33/11 Q1017=
201908191600 METAR LROD 191600Z 33006KT 260V360 CAVOK 33/11 Q1017=
201908191630 METAR LROD 191630Z 33005KT CAVOK 32/11 Q1017=
201908191700 METAR LROD 191700Z 34004KT 300V010 CAVOK 31/12 Q1017=
201908191730 METAR LROD 191730Z 06004KT CAVOK 29/12 Q1017=
201908191800 METAR LROD 191800Z 07003KT CAVOK 27/13 Q1017=
201908191830 METAR LROD 191830Z AUTO 10004KT 9999 NCD 26/14 Q1017=
201908191900 METAR LROD 191900Z AUTO 10005KT 9999 NCD 25/15 Q1017=
201908191930 METAR LROD 191930Z AUTO 09004KT 9999 NCD 24/15 Q1017=
201908192000 METAR LROD 192000Z AUTO 10005KT 9999 NCD 23/15 Q1017=
201908192030 METAR LROD 192030Z AUTO 10005KT 9999 NCD 22/15 Q1018=
201908192100 METAR LROD 192100Z AUTO 10005KT 9999 NCD 22/16 Q1018=
201908192130 METAR LROD 192130Z AUTO 10005KT 9999 NCD 22/16 Q1018=
201908192200 METAR LROD 192200Z AUTO 11005KT 9999 NCD 20/16 Q1018=
201908192230 METAR LROD 192230Z AUTO 10006KT 9999 NCD 20/16 Q1018=
201908192300 METAR LROD 192300Z AUTO 11006KT 9999 NCD 20/15 Q1018=
201908192330 METAR LROD 192330Z AUTO 11007KT 9999 NCD 19/15 Q1018=
201908200000 METAR LROD 200000Z AUTO 10006KT 9999 NCD 19/15 Q1018=
201908200030 METAR LROD 200030Z AUTO 11006KT 9999 NCD 19/15 Q1018=
201908200100 METAR LROD 200100Z AUTO 11006KT 9999 NCD 18/15 Q1018=
201908200130 METAR LROD 200130Z AUTO 10006KT 9999 NCD 19/15 Q1018=
201908200200 METAR LROD 200200Z AUTO 11006KT 9999 NCD 18/15 Q1018=
201908200230 METAR LROD 200230Z AUTO 11006KT 9999 NCD 18/15 Q1018=
201908200300 METAR LROD 200300Z AUTO 11006KT 9999 NCD 18/15 Q1019=
201908200330 METAR LROD 200330Z AUTO 11006KT 9999 NCD 18/15 Q1019=
201908200400 METAR LROD 200400Z 11006KT CAVOK 18/15 Q1019=
201908200430 METAR LROD 200430Z 10007KT CAVOK 19/15 Q1019=
201908200500 METAR LROD 200500Z 10006KT CAVOK 20/15 Q1019=
201908200530 METAR LROD 200530Z 10006KT CAVOK 22/16 Q1020=
201908200600 METAR LROD 200600Z 09006KT CAVOK 24/16 Q1020=
201908200630 METAR LROD 200630Z 10006KT CAVOK 25/16 Q1020=
201908200700 METAR LROD 200700Z 11006KT 080V140 CAVOK 28/17 Q1020=
201908200730 METAR LROD 200730Z 09004KT 040V170 CAVOK 30/17 Q1020=
201908200800 METAR LROD 200800Z VRB03KT CAVOK 31/16 Q1020=
201908200830 METAR LROD 200830Z VRB04KT CAVOK 31/14 Q1020=
201908200900 METAR LROD 200900Z 06004KT 340V110 CAVOK 32/14 Q1019=
201908200930 METAR LROD 200930Z 09005KT 350V140 CAVOK 33/13 Q1019=
201908201000 METAR LROD 201000Z 14006KT 090V170 CAVOK 33/13 Q1019=
201908201030 METAR LROD 201030Z VRB04KT CAVOK 34/13 Q1019=
201908201100 METAR LROD 201100Z 03006KT 340V080 CAVOK 34/12 Q1019=
201908201130 METAR LROD 201130Z VRB04KT CAVOK 34/11 Q1019=
201908201200 METAR LROD 201200Z VRB04KT CAVOK 34/12 Q1019=
201908201230 METAR LROD 201230Z VRB04KT CAVOK 35/12 Q1019=
201908201300 METAR LROD 201300Z VRB04KT CAVOK 35/12 Q1019=
201908201330 METAR LROD 201330Z 27003KT 210V340 CAVOK 35/12 Q1019=
201908201400 METAR LROD 201400Z VRB03KT CAVOK 35/12 Q1018=
201908201430 METAR LROD 201430Z 02009KT CAVOK 35/12 Q1018=
201908201500 METAR LROD 201500Z 32007KT CAVOK 35/13 Q1018=
201908201530 METAR LROD 201530Z 32006KT CAVOK 34/13 Q1018=
201908201600 METAR LROD 201600Z 35008KT CAVOK 34/13 Q1018=
201908201630 METAR LROD 201630Z 36006KT 330V040 CAVOK 33/14 Q1018=
201908201700 METAR LROD 201700Z 01007KT CAVOK 32/14 Q1018=
201908201730 METAR LROD 201730Z 36006KT CAVOK 30/15 Q1018=
201908201800 METAR LROD 201800Z 36004KT CAVOK 29/15 Q1018=
201908201830 METAR LROD 201830Z AUTO 02006KT 9999 NCD 29/16 Q1019=
201908201900 METAR LROD 201900Z AUTO 08002KT 9999 NCD 27/17 Q1019=
201908201930 METAR LROD 201930Z AUTO 05003KT 9999 NCD 26/17 Q1019=
201908202000 METAR LROD 202000Z AUTO 07003KT 040V100 9999 NCD 26/17 Q1019=
201908202030 METAR LROD 202030Z AUTO 08002KT 9999 NCD 23/16 Q1019=
201908202100 METAR LROD 202100Z AUTO 08005KT 9999 NCD 24/17 Q1019=
201908202130 METAR LROD 202130Z AUTO 08007KT 9999 NCD 24/17 Q1018=
201908202200 METAR LROD 202200Z AUTO 09005KT 9999 NCD 23/17 Q1018=
201908202230 METAR LROD 202230Z AUTO 10006KT 9999 NCD 23/17 Q1018=
201908202300 METAR LROD 202300Z AUTO 11006KT 9999 NCD 22/17 Q1018=
201908202330 METAR LROD 202330Z AUTO 11007KT 9999 NCD 22/17 Q1018=
201908210000 METAR LROD 210000Z AUTO 10007KT 9999 NCD 21/16 Q1018=
201908210030 METAR LROD 210030Z AUTO 11006KT 9999 NCD 21/16 Q1018=
201908210100 METAR LROD 210100Z AUTO 11007KT 9999 NCD 20/16 Q1018=
201908210130 METAR LROD 210130Z AUTO 11007KT 9999 NCD 20/16 Q1018=
201908210200 METAR LROD 210200Z AUTO 10006KT 9999 NCD 20/16 Q1019=
201908210230 METAR LROD 210230Z AUTO 11006KT 9999 NCD 19/16 Q1019=
201908210300 METAR LROD 210300Z AUTO 11006KT 9999 NCD 19/16 Q1019=
201908210330 METAR LROD 210330Z AUTO 10006KT 9999 NCD 20/16 Q1019=
201908210400 METAR COR LROD 210400Z 11006KT CAVOK 19/16 Q1019=
201908210430 METAR LROD 210430Z 11005KT CAVOK 20/16 Q1019=
201908210500 METAR LROD 210500Z 11005KT CAVOK 22/17 Q1020=
201908210530 METAR LROD 210530Z 10004KT CAVOK 24/17 Q1020=
201908210600 METAR LROD 210600Z 10004KT 080V140 CAVOK 26/17 Q1020=
201908210630 METAR LROD 210630Z 13003KT 080V220 CAVOK 29/16 Q1020=
201908210700 METAR LROD 210700Z 22007KT CAVOK 30/13 Q1020=
201908210730 METAR COR LROD 210730Z 24007KT 210V270 CAVOK 31/12 Q1021=
201908210800 METAR LROD 210800Z 25008KT 210V270 CAVOK 31/12 Q1021=
201908210830 METAR LROD 210830Z 28006KT 240V320 CAVOK 31/12 Q1020=
201908210900 METAR LROD 210900Z 24009KT CAVOK 33/12 Q1020=
201908210930 METAR COR LROD 210930Z 28007KT 240V310 CAVOK 33/12 Q1020=
201908211000 METAR LROD 211000Z 24005KT CAVOK 33/12 Q1020=
201908211030 METAR LROD 211030Z 31008KT 280V350 CAVOK 34/12 Q1020=
201908211100 METAR COR LROD 211100Z 32007KT 280V010 CAVOK 34/13 Q1020=
201908211130 METAR LROD 211130Z 30006KT 260V330 CAVOK 34/13 Q1020=
201908211200 METAR COR LROD 211200Z 28005KT 220V310 CAVOK 34/13 Q1019=
201908211230 METAR COR LROD 211230Z 30004KT 240V030 CAVOK 35/13 Q1019=
201908211300 METAR LROD 211300Z 33005KT 280V040 CAVOK 35/13 Q1019=
201908211330 METAR LROD 211330Z VRB04KT CAVOK 35/13 Q1019=
201908211400 METAR LROD 211400Z 04008KT CAVOK 35/12 Q1019=
201908211430 METAR LROD 211430Z 01006KT 310V070 CAVOK 34/13 Q1019=
201908211500 METAR LROD 211500Z 33006KT 290V010 CAVOK 34/13 Q1019=
201908211530 METAR LROD 211530Z 02008KT 340V050 CAVOK 34/13 Q1019=
201908211600 METAR LROD 211600Z 01006KT 340V040 CAVOK 34/14 Q1019=
201908211630 METAR LROD 211630Z 02006KT 350V060 CAVOK 33/14 Q1019=
201908211700 METAR LROD 211700Z 04005KT 360V070 CAVOK 32/14 Q1019=
201908211730 METAR LROD 211730Z 04005KT CAVOK 31/15 Q1019=
201908211800 METAR LROD 211800Z 05005KT CAVOK 30/15 Q1019=
201908211830 METAR LROD 211830Z AUTO 01013KT 9999 NCD 27/20 Q1020=
201908211900 METAR LROD 211900Z AUTO 02016KT 9999 NCD 25/18 Q1020=
201908211930 METAR LROD 211930Z AUTO 06007KT 020V100 9999 NCD 24/17 Q1021=
201908212000 METAR LROD 212000Z AUTO 12004KT 030V200 9999 NCD 23/17 Q1021=
201908212030 METAR LROD 212030Z AUTO 04009KT 360V070 9999 NCD 22/17 Q1021=
201908212100 METAR LROD 212100Z AUTO 36012KT 9999 NCD 22/17 Q1021=
201908212130 METAR LROD 212130Z AUTO 01012KT 9999 NCD 21/16 Q1021=
201908212200 METAR LROD 212200Z AUTO 01011KT 9999 NCD 20/16 Q1022=
201908212230 METAR LROD 212230Z AUTO 03011KT 9999 NCD 20/15 Q1022=
201908212300 METAR LROD 212300Z AUTO 03010KT 9999 NCD 19/15 Q1022=
201908212330 METAR LROD 212330Z AUTO 03008KT 9999 NCD 19/15 Q1022=
201908220000 METAR LROD 220000Z AUTO 03009KT 9999 NCD 19/15 Q1022=
201908220030 METAR LROD 220030Z AUTO 03008KT 010V070 9999 NCD 19/15 Q1022=
201908220100 METAR LROD 220100Z AUTO 03010KT 9999 NCD 19/15 Q1022=
201908220130 METAR LROD 220130Z AUTO 03009KT 9999 NCD 19/15 Q1022=
201908220200 METAR LROD 220200Z AUTO 04009KT 010V070 9999 NCD 18/15 Q1022=
201908220230 METAR LROD 220230Z AUTO 04009KT 9999 NCD 18/15 Q1021=
201908220300 METAR LROD 220300Z AUTO 04009KT 9999 NCD 18/15 Q1021=
201908220330 METAR LROD 220330Z AUTO 03009KT 9999 NCD 18/15 Q1022=
201908220400 METAR LROD 220400Z 03008KT CAVOK 18/15 Q1022=
201908220430 METAR LROD 220430Z 03009KT CAVOK 19/15 Q1022=
201908220500 METAR LROD 220500Z 03010KT CAVOK 19/15 Q1022=
201908220530 METAR LROD 220530Z 03010KT CAVOK 20/15 Q1022=
201908220600 METAR LROD 220600Z 02012KT CAVOK 21/15 Q1022=
201908220630 METAR LROD 220630Z 02011KT CAVOK 21/15 Q1022=
201908220700 METAR LROD 220700Z 03011KT CAVOK 22/16 Q1022=
201908220730 METAR LROD 220730Z 03010KT CAVOK 23/16 Q1022=
201908220800 METAR LROD 220800Z 02009KT CAVOK 25/16 Q1022=
201908220830 METAR LROD 220830Z 03007KT 350V060 CAVOK 26/17 Q1022=
201908220900 METAR LROD 220900Z 03008KT 350V060 CAVOK 26/17 Q1022=
201908220930 METAR LROD 220930Z 01010KT 340V040 CAVOK 28/17 Q1022=
201908221000 METAR LROD 221000Z 04007KT 350V060 CAVOK 29/17 Q1022=
201908221030 METAR LROD 221030Z 01009KT 340V050 9999 FEW040CB 30/17 Q1022=
201908221100 METAR LROD 221100Z 01008KT 340V050 9999 FEW042CB 30/17 Q1022=
201908221130 METAR LROD 221130Z 36010KT 320V040 9999 FEW043CB 31/17 Q1021=
201908221200 METAR LROD 221200Z 02008KT 340V070 9999 FEW045CB 31/17 Q1021=
201908221230 METAR LROD 221230Z 02010G24KT 340V050 9999 FEW045CB 32/17
                        Q1021=
201908221300 METAR LROD 221300Z 03009KT 360V060 9999 FEW045CB 32/17 Q1021=
201908221330 METAR LROD 221330Z 01012KT CAVOK 32/16 Q1021=
201908221400 METAR LROD 221400Z 01010KT 340V050 CAVOK 33/16 Q1021=
201908221430 METAR LROD 221430Z 01013KT CAVOK 32/16 Q1021=
201908221500 METAR LROD 221500Z 02011KT 350V050 CAVOK 32/16 Q1021=
201908221530 METAR LROD 221530Z 01012KT CAVOK 31/16 Q1021=
201908221600 METAR LROD 221600Z 01013KT CAVOK 30/17 Q1021=
201908221630 METAR LROD 221630Z 36014KT CAVOK 29/17 Q1021=
201908221700 METAR LROD 221700Z 36014KT CAVOK 28/18 Q1021=
201908221730 METAR LROD 221730Z 01015KT CAVOK 27/17 Q1021=
201908221800 METAR LROD 221800Z 01013KT CAVOK 26/17 Q1022=
201908221830 METAR LROD 221830Z AUTO 02010KT 350V050 9999 NCD 25/16 Q1022=
201908221900 METAR LROD 221900Z AUTO 04009KT 020V080 9999 NCD 24/16 Q1023=
201908221930 METAR LROD 221930Z AUTO 05007KT 9999 NCD 23/16 Q1023=
201908222000 METAR LROD 222000Z AUTO 05007KT 9999 NCD 23/16 Q1023=
201908222030 METAR LROD 222030Z AUTO 03007KT 9999 NCD 22/16 Q1023=
201908222100 METAR LROD 222100Z AUTO 02007KT 9999 NCD 22/16 Q1023=
201908222130 METAR LROD 222130Z AUTO 03010KT 9999 NCD 22/16 Q1023=
201908222200 METAR LROD 222200Z AUTO 05006KT 9999 NCD 22/16 Q1022=
201908222230 METAR LROD 222230Z AUTO 07003KT 040V100 9999 NCD 22/16 Q1022=
201908222300 METAR LROD 222300Z AUTO 11003KT 9999 NCD 20/16 Q1022=
201908222330 METAR LROD 222330Z AUTO 04002KT 360V070 9999 NCD 20/16 Q1022=
201908230000 METAR LROD 230000Z AUTO 03005KT 9999 NCD 20/16 Q1022=
201908230030 METAR LROD 230030Z AUTO 04003KT 9999 NCD 19/16 Q1022=
201908230100 METAR LROD 230100Z AUTO 04003KT 9999 NCD 19/16 Q1022=
201908230130 METAR LROD 230130Z AUTO 02006KT 9999 NCD 19/16 Q1022=
201908230200 METAR LROD 230200Z AUTO 04005KT 9999 NCD 19/16 Q1022=
201908230230 METAR LROD 230230Z AUTO 04004KT 9999 NCD 19/15 Q1022=
201908230300 METAR LROD 230300Z AUTO 02005KT 9999 NCD 18/15 Q1022=
201908230330 METAR LROD 230330Z AUTO 04005KT 9999 NCD 18/15 Q1022=
201908230400 METAR LROD 230400Z 05004KT CAVOK 18/15 Q1022=
201908230430 METAR LROD 230430Z 03003KT CAVOK 19/16 Q1023=
201908230500 METAR LROD 230500Z 02006KT CAVOK 19/16 Q1023=
201908230530 METAR LROD 230530Z 01006KT 350V060 CAVOK 20/16 Q1023=
201908230600 METAR LROD 230600Z 03007KT CAVOK 20/16 Q1023=
201908230630 METAR LROD 230630Z 03006KT 360V060 CAVOK 21/16 Q1023=
201908230700 METAR LROD 230700Z 02006KT CAVOK 22/16 Q1023=
201908230730 METAR LROD 230730Z 36006KT 330V030 CAVOK 23/17 Q1024=
201908230800 METAR LROD 230800Z 01006KT 310V060 CAVOK 25/17 Q1024=
201908230830 METAR LROD 230830Z 02006KT 340V080 CAVOK 26/17 Q1024=
201908230900 METAR LROD 230900Z 36008KT CAVOK 27/17 Q1024=
201908230930 METAR LROD 230930Z 03008KT 340V080 CAVOK 28/17 Q1023=
201908231000 METAR LROD 231000Z 01008KT 350V060 CAVOK 29/17 Q1023=
201908231030 METAR LROD 231030Z 03007KT 360V070 CAVOK 30/17 Q1023=
201908231100 METAR LROD 231100Z 36008KT CAVOK 31/17 Q1023=
201908231130 METAR LROD 231130Z 03007KT 340V080 CAVOK 31/17 Q1022=
201908231200 METAR LROD 231200Z 02008KT 350V090 CAVOK 32/17 Q1022=
201908231230 METAR LROD 231230Z 36009KT CAVOK 32/17 Q1022=
201908231300 METAR LROD 231300Z 01010KT 330V040 CAVOK 33/15 Q1021=
201908231330 METAR LROD 231330Z 02009KT 350V050 9999 FEW050TCU 33/16 Q1021=
201908231400 METAR LROD 231400Z 36010KT 320V030 9999 FEW050TCU 32/16 Q1021=
201908231430 METAR LROD 231430Z 03010KT 360V060 9999 FEW053TCU 32/16 Q1021=
201908231500 METAR LROD 231500Z 02012KT 9999 FEW050CB 32/16 Q1021=
201908231530 METAR LROD 231530Z 02011KT 9999 FEW050CB 31/16 Q1021=
201908231600 METAR LROD 231600Z 02010KT 9999 FEW050CB 31/17 Q1021=
201908231630 METAR LROD 231630Z 02011KT 9999 FEW053CB 30/17 Q1021=
201908231700 METAR LROD 231700Z 02010KT CAVOK 29/18 Q1021=
201908231730 METAR LROD 231730Z 02009KT CAVOK 29/18 Q1021=
201908231800 METAR LROD 231800Z 03007KT CAVOK 28/18 Q1021=
201908231830 METAR LROD 231830Z AUTO 04006KT 9999 FEW090/// 27/18 Q1022=
201908231900 METAR LROD 231900Z AUTO 02008KT 9999 NCD 26/18 Q1022=
201908231930 METAR LROD 231930Z AUTO 05004KT 9999 NCD 25/18 Q1022=
201908232000 METAR LROD 232000Z AUTO 03007KT 9999 NCD 25/18 Q1022=
201908232030 METAR LROD 232030Z AUTO 04004KT 9999 NCD 24/18 Q1022=
201908232100 METAR LROD 232100Z AUTO 04005KT 010V070 9999 NCD 24/18 Q1021=
201908232130 METAR LROD 232130Z AUTO 04006KT 9999 NCD 24/18 Q1021=
201908232200 METAR LROD 232200Z AUTO 04006KT 010V070 9999 NCD 24/18 Q1021=
201908232230 METAR LROD 232230Z AUTO 05005KT 9999 NCD 24/18 Q1021=
201908232300 METAR LROD 232300Z AUTO 05004KT 030V120 9999 NCD 23/18 Q1021=
201908232330 METAR LROD 232330Z AUTO 08002KT 9999 NCD 21/18 Q1021=
201908240000 METAR LROD 240000Z AUTO 06003KT 9999 FEW140/// 21/18 Q1021=
201908240030 METAR LROD 240030Z AUTO 09003KT 9999 FEW140/// 21/18 Q1021=
201908240100 METAR LROD 240100Z AUTO 04002KT 9999 FEW140/// 21/18 Q1021=
201908240130 METAR LROD 240130Z AUTO 12002KT 9999 FEW085/// 20/17 Q1021=
201908240200 METAR LROD 240200Z AUTO VRB01KT 9999 SCT085/// 20/17 Q1021=
201908240230 METAR LROD 240230Z AUTO 08004KT 040V100 9999 SCT080/// 20/17
                        Q1021=
201908240300 METAR LROD 240300Z AUTO 09004KT 9999 FEW090/// 21/17 Q1021=
201908240330 METAR LROD 240330Z AUTO 08004KT 050V110 9999 NCD 21/17 Q1021=
201908240400 METAR COR LROD 240400Z 09006KT CAVOK 21/17 Q1021=
201908240430 METAR LROD 240430Z 09005KT CAVOK 21/17 Q1021=
201908240500 METAR LROD 240500Z 09005KT CAVOK 21/17 Q1021=
201908240530 METAR LROD 240530Z 08003KT 040V110 CAVOK 22/17 Q1021=
201908240600 METAR LROD 240600Z 09004KT 050V130 CAVOK 24/17 Q1021=
201908240630 METAR LROD 240630Z 11004KT 080V140 CAVOK 24/17 Q1022=
201908240700 METAR LROD 240700Z 08003KT 050V130 CAVOK 26/17 Q1022=
201908240730 METAR LROD 240730Z VRB03KT CAVOK 28/17 Q1022=
201908240800 METAR LROD 240800Z 22004KT 140V270 CAVOK 30/16 Q1022=
201908240830 METAR LROD 240830Z VRB03KT CAVOK 31/15 Q1022=
201908240900 METAR LROD 240900Z 29005KT 220V340 CAVOK 31/15 Q1021=
201908240930 METAR LROD 240930Z 04003KT 320V130 CAVOK 32/15 Q1021=
201908241000 METAR LROD 241000Z VRB03KT CAVOK 32/15 Q1021=
201908241030 METAR LROD 241030Z 04004KT 310V090 CAVOK 32/15 Q1021=
201908241100 METAR LROD 241100Z VRB04KT CAVOK 33/15 Q1021=
201908241130 METAR LROD 241130Z 34006KT 270V060 CAVOK 33/16 Q1020=
201908241200 METAR LROD 241200Z 36004KT 310V050 CAVOK 33/16 Q1020=
201908241230 METAR LROD 241230Z 03006KT 330V080 CAVOK 33/15 Q1020=
201908241300 METAR LROD 241300Z 02003KT 330V100 CAVOK 32/15 Q1020=
201908241330 METAR LROD 241330Z 05003KT 360V090 CAVOK 33/14 Q1020=
201908241400 METAR LROD 241400Z 01004KT 330V050 CAVOK 33/14 Q1020=
201908241430 METAR LROD 241430Z 11011KT 080V140 CAVOK 31/16 Q1020=
201908241500 METAR LROD 241500Z 13010KT 100V160 9999 TS SCT055CB 29/14
                        Q1020=
201908241530 METAR LROD 241530Z 20007KT 9999 TS FEW055CB 29/16 Q1020=
201908241600 METAR LROD 241600Z 05002KT 350V110 9999 FEW055CB 28/16 Q1019
                        RETS=
201908241630 METAR LROD 241630Z 09005KT 060V120 9999 FEW055CB 28/17 Q1019=
201908241700 METAR LROD 241700Z 09005KT 060V130 CAVOK 27/17 Q1019=
201908241730 METAR LROD 241730Z 09004KT 050V110 CAVOK 26/18 Q1019=
201908241800 METAR LROD 241800Z 09005KT CAVOK 25/19 Q1020=
201908241830 METAR LROD 241830Z AUTO 07005KT 030V100 9999 SCT150/// 25/19
                        Q1020=
201908241900 METAR LROD 241900Z AUTO 05005KT 9999 BKN140/// 24/19 Q1020=
201908241930 METAR LROD 241930Z AUTO 07005KT 9999 BKN140/// 24/19 Q1019=
201908242000 METAR LROD 242000Z AUTO 10005KT 9999 OVC140/// 24/20 Q1019=
201908242030 METAR LROD 242030Z AUTO 09005KT 9999 FEW140/// 23/20 Q1019=
201908242100 METAR LROD 242100Z AUTO 11004KT 080V140 9999 NCD 23/19 Q1020=
201908242130 METAR LROD 242130Z AUTO 11005KT 9999 NCD 22/19 Q1020=
201908242200 METAR LROD 242200Z AUTO 11005KT 9999 NCD 21/19 Q1020=
201908242230 METAR LROD 242230Z AUTO 10005KT 9999 NCD 21/19 Q1020=
201908242300 METAR LROD 242300Z AUTO 09006KT 9999 NCD 21/18 Q1019=
201908242330 METAR LROD 242330Z AUTO 10006KT 9999 NCD 21/18 Q1020=
201908250000 METAR LROD 250000Z AUTO 10004KT 9999 NCD 21/18 Q1020=
201908250030 METAR LROD 250030Z AUTO 10006KT 070V130 9999 NCD 20/17 Q1020=
201908250100 METAR LROD 250100Z AUTO 10006KT 9999 NCD 20/17 Q1019=
201908250130 METAR LROD 250130Z AUTO 10006KT 9999 SCT140/// 20/17 Q1019=
201908250200 METAR LROD 250200Z AUTO 10006KT 9999 SCT140/// 20/16 Q1019=
201908250230 METAR LROD 250230Z AUTO 10006KT 9999 FEW140/// 20/16 Q1019=
201908250300 METAR LROD 250300Z AUTO 11006KT 9999 NCD 20/16 Q1019=
201908250330 METAR LROD 250330Z AUTO 11006KT 9999 NCD 19/15 Q1019=
201908250400 METAR COR LROD 250400Z 11007KT CAVOK 19/15 Q1020=
201908250430 METAR LROD 250430Z 10006KT CAVOK 20/16 Q1020=
201908250500 METAR LROD 250500Z 10006KT CAVOK 21/16 Q1020=
201908250530 METAR LROD 250530Z 11006KT CAVOK 23/16 Q1020=
201908250600 METAR LROD 250600Z 10007KT CAVOK 24/16 Q1020=
201908250630 METAR LROD 250630Z 11006KT 080V140 CAVOK 26/16 Q1020=
201908250700 METAR LROD 250700Z 11007KT 080V140 CAVOK 28/16 Q1020=
201908250730 METAR LROD 250730Z 11006KT 080V150 CAVOK 31/15 Q1020=
201908250800 METAR LROD 250800Z 14005KT 100V180 CAVOK 32/13 Q1020=
201908250830 METAR LROD 250830Z 03004KT 310V110 CAVOK 32/13 Q1020=
201908250900 METAR LROD 250900Z 22003KT CAVOK 33/13 Q1020=
201908250930 METAR LROD 250930Z 32005KT 290V360 CAVOK 32/14 Q1020=
201908251000 METAR LROD 251000Z 30007KT 270V330 CAVOK 32/15 Q1020=
201908251030 METAR LROD 251030Z 35006KT CAVOK 31/15 Q1020=
201908251100 METAR LROD 251100Z 34005KT 300V020 CAVOK 31/14 Q1020=
201908251130 METAR LROD 251130Z 34006KT 320V020 9999 FEW050CB 33/14 Q1020=
201908251200 METAR LROD 251200Z 28005KT 250V310 9999 VCTS FEW050CB 32/13
                        Q1020=
201908251230 METAR LROD 251230Z 23011KT 9999 TS FEW050CB 29/16 Q1019=
201908251300 METAR LROD 251300Z 04011KT 010V070 9999 TS FEW050CB 30/15
                        Q1020=
201908251330 METAR LROD 251330Z 03012KT 9999 VCTS SCT055CB 27/17 Q1020
                        RETS=
201908251400 METAR LROD 251400Z 03010KT 360V060 9999 FEW055CB 30/15 Q1019=
201908251430 METAR LROD 251430Z 05007KT 020V080 9999 FEW055CB 31/13 Q1019=
201908251500 METAR LROD 251500Z 05007KT 010V070 CAVOK 31/13 Q1019=
201908251530 METAR LROD 251530Z 07006KT 030V110 CAVOK 31/16 Q1019=
201908251600 METAR LROD 251600Z 08006KT CAVOK 29/17 Q1019=
201908251630 METAR LROD 251630Z 09006KT 9999 FEW050CB 28/18 Q1019=
201908251700 METAR LROD 251700Z 08006KT 9999 FEW050CB 27/18 Q1019=
201908251730 METAR LROD 251730Z 09005KT 9999 FEW050CB 27/18 Q1019=
201908251800 METAR LROD 251800Z 10006KT 070V130 CAVOK 26/17 Q1020=
201908251830 METAR LROD 251830Z AUTO 12004KT 9999 NCD 25/17 Q1020=
201908251900 METAR LROD 251900Z AUTO 09005KT 9999 NCD 25/18 Q1020=
201908251930 METAR LROD 251930Z AUTO 10007KT 9999 NCD 24/18 Q1020=
201908252000 METAR LROD 252000Z AUTO 10006KT 9999 FEW160/// 24/18 Q1020=
201908252030 METAR LROD 252030Z AUTO 12005KT 9999 NCD 23/18 Q1020=
201908252100 METAR LROD 252100Z AUTO 11006KT 9999 NCD 22/17 Q1020=
201908252130 METAR LROD 252130Z AUTO 10006KT 080V150 9999 NCD 22/16 Q1020=
201908252200 METAR LROD 252200Z AUTO 09006KT 9999 NCD 22/16 Q1020=
201908252230 METAR LROD 252230Z AUTO 10006KT 9999 NCD 21/16 Q1020=
201908252300 METAR LROD 252300Z AUTO 10006KT 9999 NCD 21/16 Q1020=
201908252330 METAR LROD 252330Z AUTO 10006KT 9999 BKN160/// 21/16 Q1019=
201908260000 METAR LROD 260000Z AUTO 17006KT 130V200 9999 FEW085/// SCT100///
                        BKN160/// 21/16 Q1020=
201908260030 METAR LROD 260030Z AUTO 16006KT 130V200 9999 BKN085/// BKN160///
                        23/17 Q1020=
201908260100 METAR LROD 260100Z AUTO 19013KT 9999 BKN080/// BKN160///
                        23/17 Q1020=
201908260130 METAR LROD 260130Z AUTO 19010KT 9999 SCT085/// BKN130///
                        22/18 Q1021=
201908260200 METAR LROD 260200Z AUTO 18008KT 9999 BKN130/// BKN210///
                        22/17 Q1021=
201908260230 METAR LROD 260230Z AUTO 12004KT 9999 SCT090/// BKN210///
                        22/17 Q1021=
201908260300 METAR LROD 260300Z AUTO 17007KT 9999 BKN090/// BKN110///
                        22/16 Q1021=
201908260330 METAR LROD 260330Z AUTO 17006KT 9999 FEW110/// SCT120///
                        BKN150/// 22/16 Q1021=
201908260400 METAR LROD 260400Z 08004KT 9999 FEW040CB 21/17 Q1021=
201908260430 METAR LROD 260430Z 11003KT 9999 FEW050CB 21/17 Q1021=
201908260500 METAR LROD 260500Z 12004KT 9999 FEW050CB 22/18 Q1021=
201908260530 METAR LROD 260530Z 10007KT 9999 FEW050CB 23/18 Q1021=
201908260600 METAR LROD 260600Z 09007KT 9999 FEW050CB 24/17 Q1021=
201908260630 METAR LROD 260630Z 11006KT 070V150 CAVOK 25/18 Q1021=
201908260700 METAR COR LROD 260700Z 12002KT CAVOK 26/17 Q1022=
201908260730 METAR LROD 260730Z VRB01KT CAVOK 27/17 Q1022=
201908260800 METAR LROD 260800Z 00000KT CAVOK 28/16 Q1022=
201908260830 METAR LROD 260830Z 32003KT CAVOK 28/16 Q1022=
201908260900 METAR LROD 260900Z 31004KT 270V010 CAVOK 28/15 Q1022=
201908260930 METAR LROD 260930Z 32005KT 280V360 CAVOK 28/18 Q1022=
201908261000 METAR LROD 261000Z 34005KT 310V020 CAVOK 28/18 Q1022=
201908261030 METAR LROD 261030Z 35006KT 330V040 CAVOK 28/17 Q1021=
201908261100 METAR LROD 261100Z 35007KT CAVOK 29/18 Q1021=
201908261130 METAR LROD 261130Z 34008KT 320V020 CAVOK 29/18 Q1021=
201908261200 METAR LROD 261200Z 35008KT 320V020 CAVOK 29/17 Q1021=
201908261230 METAR LROD 261230Z 33007KT 300V360 CAVOK 30/17 Q1021=
201908261300 METAR LROD 261300Z 31007KT 9999 FEW053CB 30/17 Q1020=
201908261330 METAR LROD 261330Z 36006KT 310V040 9999 VCTS FEW050CB 31/16
                        Q1020=
201908261400 METAR LROD 261400Z 11009KT 080V140 9999 TS FEW045CB 30/17
                        Q1020=
201908261430 METAR LROD 261430Z 09011KT 9999 TS VCSH FEW045CB 28/16 Q1020=
201908261500 METAR LROD 261500Z 08006KT 050V110 9999 TS FEW043CB 28/18
                        Q1020=
201908261530 METAR LROD 261530Z 04008KT CAVOK 28/19 Q1019 RETS=
201908261600 METAR LROD 261600Z 07006KT 030V110 CAVOK 28/20 Q1019=
201908261630 METAR LROD 261630Z 08005KT 050V120 CAVOK 27/20 Q1019=
201908261700 METAR LROD 261700Z 08005KT CAVOK 26/19 Q1019=
201908261730 METAR LROD 261730Z 08004KT CAVOK 25/19 Q1019=
201908261800 METAR LROD 261800Z 10003KT 070V130 CAVOK 25/19 Q1020=
201908261830 METAR LROD 261830Z AUTO 08005KT 9999 FEW100/// BKN130///
                        25/18 Q1020=
201908261900 METAR LROD 261900Z AUTO 08005KT 9999 SCT140/// 24/17 Q1020=
201908261930 METAR LROD 261930Z AUTO 09005KT 9999 FEW140/// 24/17 Q1020=
201908262000 METAR LROD 262000Z AUTO 09006KT 9999 FEW130/// 23/17 Q1020=
201908262030 METAR LROD 262030Z AUTO 10005KT 9999 NCD 22/17 Q1020=
201908262100 METAR LROD 262100Z AUTO 11007KT 9999 NCD 22/18 Q1020=
201908262130 METAR LROD 262130Z AUTO 10006KT 9999 NCD 21/18 Q1019=
201908262200 METAR LROD 262200Z AUTO 10006KT 9999 NCD 21/18 Q1019=
201908262230 METAR LROD 262230Z AUTO 09005KT 9999 NCD 21/18 Q1019=
201908262300 METAR LROD 262300Z AUTO 10005KT 9999 NCD 20/17 Q1019=
201908262330 METAR LROD 262330Z AUTO 09006KT 9999 NCD 20/17 Q1019=
201908270000 METAR LROD 270000Z AUTO 10006KT 9999 FEW100/// 21/17 Q1019=
201908270030 METAR LROD 270030Z AUTO 10006KT 9999 BKN100/// 21/17 Q1019=
201908270100 METAR LROD 270100Z AUTO 09006KT 9999 SCT170/// 20/17 Q1019=
201908270130 METAR LROD 270130Z AUTO 10007KT 9999 NCD 20/17 Q1019=
201908270200 METAR LROD 270200Z AUTO 20021KT 9999 VCTS BKN080/// 21/18
                        Q1020=
201908270230 METAR LROD 270230Z AUTO 22007KT 9999 -TSRA FEW080/// BKN120///
                        BKN130/// 21/17 Q1020=
201908270300 METAR LROD 270300Z AUTO 19007KT 9999 BKN080/// 21/18 Q1020
                        RERA=
201908270330 METAR LROD 270330Z AUTO 07002KT 010V140 9999 RA FEW085///
                        BKN120/// 21/18 Q1020=
201908270400 METAR LROD 270400Z 08004KT 9999 -RA FEW036CB 20/19 Q1020=
201908270430 METAR LROD 270430Z 08006KT 9999 FEW036 21/18 Q1020=
201908270500 METAR LROD 270500Z 11007KT 070V140 9999 FEW035CB 21/18 Q1020=
201908270530 METAR LROD 270530Z 10006KT 070V130 9999 FEW035CB 21/18 Q1020=
201908270600 METAR LROD 270600Z 09005KT 060V120 9999 -SHRA FEW035CB 21/18
                        Q1021=
201908270630 METAR LROD 270630Z 09007KT 9999 -SHRA FEW040CB 20/19 Q1021
                        R01/29//95=
201908270700 METAR LROD 270700Z 15004KT 080V200 9999 -RA FEW040CB SCT040
                        21/19 Q1021 R01/29//95=
201908270730 METAR LROD 270730Z 07005KT 9999 SCT040 22/20 Q1021 R01/29//95=
201908270800 METAR LROD 270800Z 06004KT 9999 SCT040 23/20 Q1021 R01/29//95=
201908270830 METAR LROD 270830Z 11003KT 9999 SCT040 23/21 Q1022 R01/29//95=
201908270900 METAR LROD 270900Z 09003KT 040V140 9999 SCT040 24/20 Q1022
                        R01/29//95=
201908270930 METAR LROD 270930Z 14004KT 9999 -RA FSCT040 24/21 Q1022 R01/29//95=
201908271000 METAR LROD 271000Z 08005KT 050V130 9999 SCT045 24/21 Q1022
                        R01/29//95=
201908271030 METAR LROD 271030Z 08002KT 040V110 9999 SCT045 26/20 Q1021
                        R01/29//95=
201908271100 METAR LROD 271100Z 07003KT 040V100 CAVOK 26/20 Q1021 R01/29//95=
201908271130 METAR LROD 271130Z 06003KT 030V100 CAVOK 26/19 Q1021=
201908271200 METAR LROD 271200Z 07002KT CAVOK 27/19 Q1021=
201908271230 METAR LROD 271230Z 11003KT CAVOK 27/19 Q1021=
201908271300 METAR LROD 271300Z 11003KT 090V160 CAVOK 27/19 Q1021=
201908271330 METAR LROD 271330Z 07003KT 020V170 CAVOK 29/19 Q1021=
201908271400 METAR LROD 271400Z 08004KT 010V140 CAVOK 29/18 Q1020=
201908271430 METAR COR LROD 271430Z 09005KT 050V130 CAVOK 29/17 Q1020=
201908271500 METAR LROD 271500Z 11004KT 070V140 CAVOK 29/18 Q1020=
201908271530 METAR LROD 271530Z 14005KT CAVOK 28/17 Q1020=
201908271600 METAR LROD 271600Z 14003KT 100V170 CAVOK 28/16 Q1020=
201908271630 METAR LROD 271630Z 12003KT 090V150 CAVOK 27/17 Q1020=
201908271700 METAR LROD 271700Z 11002KT CAVOK 26/18 Q1020=
201908271730 METAR LROD 271730Z 13004KT CAVOK 25/19 Q1020=
201908271800 METAR LROD 271800Z 14004KT CAVOK 23/18 Q1020=
201908271830 METAR LROD 271830Z AUTO 08005KT 9999 NCD 23/19 Q1020=
201908271900 METAR LROD 271900Z AUTO 09005KT 9999 BKN160/// 23/19 Q1020=
201908271930 METAR LROD 271930Z AUTO 10005KT 9999 SCT160/// 22/19 Q1020=
201908272000 METAR LROD 272000Z AUTO 09006KT 9999 NCD 22/19 Q1020=
201908272030 METAR LROD 272030Z AUTO 10006KT 9999 NCD 22/18 Q1020=
201908272100 METAR LROD 272100Z AUTO 08006KT 9999 NCD 21/18 Q1020=
201908272130 METAR LROD 272130Z AUTO 08006KT 9999 NCD 21/18 Q1020=
201908272200 METAR LROD 272200Z AUTO 10004KT 9999 FEW160/// 21/18 Q1021=
201908272230 METAR LROD 272230Z AUTO 08005KT 9999 FEW160/// 20/18 Q1021=
201908272300 METAR LROD 272300Z AUTO 09007KT 9999 NCD 20/17 Q1021=
201908272330 METAR LROD 272330Z AUTO 09007KT 9999 NCD 20/17 Q1020=
201908280000 METAR LROD 280000Z AUTO 09007KT 9999 NCD 20/17 Q1020=
201908280030 METAR LROD 280030Z AUTO 10007KT 9999 NCD 20/16 Q1020=
201908280100 METAR LROD 280100Z AUTO 09007KT 9999 NCD 19/16 Q1020=
201908280130 METAR LROD 280130Z AUTO 10006KT 9999 NCD 19/16 Q1020=
201908280200 METAR LROD 280200Z AUTO 10007KT 9999 NCD 19/16 Q1020=
201908280230 METAR LROD 280230Z AUTO 10007KT 9999 NCD 19/16 Q1020=
201908280300 METAR LROD 280300Z AUTO 10007KT 9999 NCD 18/15 Q1020=
201908280330 METAR LROD 280330Z AUTO 10007KT 9999 NCD 18/15 Q1020=
201908280400 METAR LROD 280400Z 10007KT CAVOK 18/15 Q1020=
201908280430 METAR LROD 280430Z 09007KT CAVOK 19/15 Q1020=
201908280500 METAR LROD 280500Z 10006KT CAVOK 20/15 Q1020=
201908280530 METAR LROD 280530Z 10007KT CAVOK 21/16 Q1021=
201908280600 METAR LROD 280600Z 10007KT CAVOK 22/16 Q1021=
201908280630 METAR LROD 280630Z 10006KT CAVOK 24/16 Q1021=
201908280700 METAR LROD 280700Z 10005KT CAVOK 26/17 Q1021=
201908280730 METAR LROD 280730Z 11005KT 070V150 CAVOK 28/17 Q1021=
201908280800 METAR LROD 280800Z 08004KT 040V130 CAVOK 30/16 Q1020=
201908280830 METAR LROD 280830Z VRB04KT CAVOK 31/14 Q1020=
201908280900 METAR LROD 280900Z 21005KT 160V240 CAVOK 31/14 Q1020=
201908280930 METAR LROD 280930Z 20005KT 150V250 CAVOK 32/14 Q1020=
201908281000 METAR LROD 281000Z 25007KT 210V290 9999 FEW040 32/13 Q1020=
201908281030 METAR LROD 281030Z VRB05KT 9999 FEW042 32/12 Q1020=
201908281100 METAR LROD 281100Z 28007KT 250V320 9999 FEW045 33/12 Q1020=
201908281130 METAR LROD 281130Z 25006KT 190V300 CAVOK 33/11 Q1020=
201908281200 METAR LROD 281200Z 24007KT CAVOK 33/12 Q1019=
201908281230 METAR LROD 281230Z 26007KT 200V320 9999 FEW050CB 33/12 Q1019=
201908281300 METAR LROD 281300Z 22006KT 170V260 9999 FEW050CB 34/12 Q1019=
201908281330 METAR LROD 281330Z VRB03KT 9999 FEW050TCU 34/12 Q1019=
201908281400 METAR LROD 281400Z VRB03KT 9999 FEW050CB 34/11 Q1018=
201908281430 METAR LROD 281430Z 22007KT 170V250 9999 FEW050CB 33/12 Q1018=
201908281500 METAR LROD 281500Z 21004KT 170V250 9999 FEW050CB 33/12 Q1018=
201908281530 METAR LROD 281530Z VRB03KT 9999 FEW050CB 33/11 Q1018=
201908281600 METAR LROD 281600Z VRB04KT CAVOK 33/12 Q1018=
201908281630 METAR LROD 281630Z 08003KT CAVOK 32/12 Q1018=
201908281700 METAR LROD 281700Z 08004KT CAVOK 30/15 Q1018=
201908281730 METAR COR LROD 281730Z 09002KT CAVOK 28/16 Q1018=
201908281800 METAR LROD 281800Z 11005KT CAVOK 27/17 Q1018=
201908281830 METAR LROD 281830Z AUTO 11004KT 9999 NCD 25/17 Q1019=
201908281900 METAR LROD 281900Z AUTO 11005KT 9999 NCD 24/17 Q1018=
201908281930 METAR LROD 281930Z AUTO 10005KT 9999 NCD 24/18 Q1018=
201908282000 METAR LROD 282000Z AUTO 14004KT 9999 NCD 24/17 Q1019=
201908282030 METAR LROD 282030Z AUTO 12005KT 9999 NCD 22/18 Q1019=
201908282100 METAR LROD 282100Z AUTO 10006KT 9999 NCD 22/17 Q1019=
201908282130 METAR LROD 282130Z AUTO 11007KT 9999 NCD 21/17 Q1019=
201908282200 METAR LROD 282200Z AUTO 10006KT 9999 NCD 21/17 Q1019=
201908282230 METAR LROD 282230Z AUTO 10006KT 9999 NCD 20/17 Q1019=
201908282300 METAR LROD 282300Z AUTO 10007KT 9999 NCD 21/16 Q1019=
201908282330 METAR LROD 282330Z AUTO 10007KT 9999 NCD 21/16 Q1019=
201908290000 METAR LROD 290000Z AUTO 10007KT 9999 NCD 21/16 Q1018=
201908290030 METAR LROD 290030Z AUTO 10006KT 9999 NCD 20/16 Q1019=
201908290100 METAR LROD 290100Z AUTO 10007KT 9999 NCD 20/16 Q1019=
201908290130 METAR LROD 290130Z AUTO 10006KT 9999 NCD 20/15 Q1019=
201908290200 METAR LROD 290200Z AUTO 11008KT 9999 NCD 18/15 Q1019=
201908290230 METAR LROD 290230Z AUTO 11007KT 9999 NCD 18/15 Q1019=
201908290300 METAR LROD 290300Z AUTO 11007KT 9999 NCD 18/15 Q1019=
201908290330 METAR LROD 290330Z AUTO 11007KT 9999 NCD 18/15 Q1019=
201908290400 METAR LROD 290400Z 11007KT CAVOK 18/15 Q1019=
201908290430 METAR LROD 290430Z 11007KT CAVOK 18/15 Q1019=
201908290500 METAR LROD 290500Z 10007KT CAVOK 20/16 Q1019=
201908290530 METAR LROD 290530Z 10007KT CAVOK 21/15 Q1019=
201908290600 METAR LROD 290600Z 10007KT CAVOK 22/16 Q1019=
201908290630 METAR LROD 290630Z 10006KT 070V130 CAVOK 24/16 Q1019=
201908290700 METAR LROD 290700Z 10006KT 070V150 CAVOK 26/16 Q1019=
201908290730 METAR LROD 290730Z 10004KT 060V160 CAVOK 28/17 Q1019=
201908290800 METAR LROD 290800Z 17003KT CAVOK 30/14 Q1019=
201908290830 METAR LROD 290830Z 17003KT CAVOK 31/13 Q1019=
201908290900 METAR LROD 290900Z 36004KT CAVOK 32/12 Q1019=
201908290930 METAR LROD 290930Z 32005KT 250V030 CAVOK 32/10 Q1019=
201908291000 METAR LROD 291000Z 32007KT 260V010 CAVOK 33/09 Q1019=
201908291030 METAR LROD 291030Z VRB04KT CAVOK 33/10 Q1019=
201908291100 METAR LROD 291100Z 33006KT 250V010 CAVOK 33/10 Q1019=
201908291130 METAR LROD 291130Z VRB04KT CAVOK 34/10 Q1019=
201908291200 METAR LROD 291200Z 31005KT 9999 FEW043 34/10 Q1018=
201908291230 METAR LROD 291230Z 32006KT 9999 FEW045TCU 33/11 Q1018=
201908291300 METAR LROD 291300Z 04006KT 340V080 9999 FEW045TCU 33/11 Q1018=
201908291330 METAR LROD 291330Z VRB02KT 9999 FEW045TCU 34/11 Q1018=
201908291400 METAR LROD 291400Z 36004KT 270V070 9999 FEW045CB 34/10 Q1018=
201908291430 METAR COR LROD 291430Z 04006KT 010V080 9999 FEW045CB 33/10
                        Q1018=
201908291500 METAR LROD 291500Z 02004KT 340V080 9999 FEW045CB 33/11 Q1018=
201908291530 METAR LROD 291530Z 07004KT 030V100 9999 FEW045CB 33/11 Q1018=
201908291600 METAR LROD 291600Z 13011KT 090V160 9999 FEW047CB 30/15 Q1018=
201908291630 METAR LROD 291630Z 11007KT 080V140 9999 FEW047CB 29/14 Q1018=
201908291700 METAR LROD 291700Z 12003KT 9999 FEW050TCU 28/15 Q1018=
201908291730 METAR LROD 291730Z 09004KT CAVOK 27/14 Q1018=
201908291800 METAR LROD 291800Z 11004KT CAVOK 26/16 Q1018=
201908291830 METAR LROD 291830Z AUTO 00000KT 9999 NCD 24/16 Q1018=
201908291900 METAR LROD 291900Z AUTO 09004KT 9999 NCD 24/16 Q1018=
201908291930 METAR LROD 291930Z AUTO 11004KT 9999 NCD 23/17 Q1018=
201908292000 METAR LROD 292000Z AUTO 10005KT 9999 NCD 23/17 Q1018=
201908292030 METAR LROD 292030Z AUTO 09007KT 9999 NCD 23/16 Q1018=
201908292100 METAR LROD 292100Z AUTO 08007KT 9999 NCD 23/16 Q1018=
201908292130 METAR LROD 292130Z AUTO 09006KT 9999 NCD 22/16 Q1019=
201908292200 METAR LROD 292200Z AUTO 09007KT 9999 NCD 21/16 Q1019=
201908292230 METAR LROD 292230Z AUTO 09006KT 9999 NCD 21/16 Q1019=
201908292300 METAR LROD 292300Z AUTO 10007KT 9999 NCD 21/16 Q1019=
201908292330 METAR LROD 292330Z AUTO 10007KT 9999 NCD 20/16 Q1019=
201908300000 METAR LROD 300000Z AUTO 10005KT 9999 NCD 20/16 Q1019=
201908300030 METAR LROD 300030Z AUTO 10005KT 9999 NCD 20/16 Q1019=
201908300100 METAR LROD 300100Z AUTO 10006KT 9999 NCD 19/15 Q1019=
201908300130 METAR LROD 300130Z AUTO 09002KT 030V140 9999 NCD 19/15 Q1019=
201908300200 METAR LROD 300200Z AUTO 10005KT 9999 NCD 18/15 Q1018=
201908300230 METAR LROD 300230Z AUTO 10007KT 9999 NCD 19/15 Q1018=
201908300300 METAR LROD 300300Z AUTO 11006KT 9999 NCD 18/15 Q1018=
201908300330 METAR LROD 300330Z AUTO 11002KT 080V140 9999 NCD 17/15 Q1019=
201908300400 METAR LROD 300400Z 11003KT CAVOK 17/15 Q1019=
201908300430 METAR LROD 300430Z 10004KT CAVOK 19/15 Q1019=
201908300500 METAR LROD 300500Z 11002KT CAVOK 20/16 Q1019=
201908300530 METAR LROD 300530Z 08006KT CAVOK 21/15 Q1019=
201908300600 METAR LROD 300600Z 09007KT CAVOK 22/15 Q1020=
201908300630 METAR LROD 300630Z 10005KT 070V140 CAVOK 24/16 Q1020=
201908300700 METAR LROD 300700Z 08004KT 030V140 CAVOK 26/16 Q1020=
201908300730 METAR LROD 300730Z VRB02KT CAVOK 28/16 Q1020=
201908300800 METAR LROD 300800Z VRB03KT CAVOK 29/16 Q1020=
201908300830 METAR LROD 300830Z VRB06KT CAVOK 30/15 Q1020=
201908300900 METAR LROD 300900Z 01007KT 330V050 CAVOK 31/15 Q1020=
201908300930 METAR LROD 300930Z 02008KT 340V050 CAVOK 32/14 Q1020=
201908301000 METAR LROD 301000Z 02008KT 340V040 CAVOK 32/13 Q1020=
201908301030 METAR LROD 301030Z 03008KT 350V080 CAVOK 32/12 Q1019=
201908301100 METAR LROD 301100Z 02009KT 350V050 CAVOK 33/12 Q1019=
201908301130 METAR LROD 301130Z 35008KT 320V050 CAVOK 33/13 Q1019=
201908301200 METAR LROD 301200Z 04009KT CAVOK 34/12 Q1019=
201908301230 METAR LROD 301230Z 36010KT 320V030 CAVOK 33/12 Q1018=
201908301300 METAR LROD 301300Z 03010KT CAVOK 34/10 Q1018=
201908301330 METAR LROD 301330Z 04008KT CAVOK 34/10 Q1018=
201908301400 METAR LROD 301400Z 36009KT 330V050 CAVOK 34/10 Q1018=
201908301430 METAR LROD 301430Z 01010KT 340V040 CAVOK 34/11 Q1017=
201908301500 METAR LROD 301500Z 36011KT 330V040 9999 FEW050CB 33/10 Q1017=
201908301530 METAR LROD 301530Z 02009KT 350V060 9999 FEW050CB 33/09 Q1017=
201908301600 METAR LROD 301600Z 01011KT 9999 FEW050CB 32/09 Q1018=
201908301630 METAR LROD 301630Z 02009KT 340V040 9999 FEW050CB 31/09 Q1018=
201908301700 METAR LROD 301700Z 03006KT 9999 FEW050CB 30/10 Q1018=
201908301730 METAR LROD 301730Z 02005KT CAVOK 28/10 Q1018=
201908301800 METAR COR LROD 301800Z 03006KT CAVOK 27/11 Q1018=
201908301830 METAR LROD 301830Z AUTO 03006KT 9999 NCD 27/12 Q1019=
201908301900 METAR LROD 301900Z AUTO 04004KT 9999 NCD 26/11 Q1019=
201908301930 METAR LROD 301930Z AUTO 08005KT 060V120 9999 NCD 26/12 Q1019=
201908302000 METAR LROD 302000Z AUTO 07004KT 9999 NCD 24/13 Q1019=
201908302030 METAR LROD 302030Z AUTO 08004KT 030V110 9999 NCD 23/14 Q1019=
201908302100 METAR LROD 302100Z AUTO 09003KT 9999 NCD 22/14 Q1019=
201908302130 METAR LROD 302130Z AUTO 10005KT 9999 NCD 22/14 Q1019=
201908302200 METAR LROD 302200Z AUTO 09005KT 9999 NCD 21/14 Q1019=
201908302230 METAR LROD 302230Z AUTO 06005KT 020V090 9999 NCD 20/15 Q1019=
201908302300 METAR LROD 302300Z AUTO 08005KT 9999 NCD 20/15 Q1019=
201908302330 METAR LROD 302330Z AUTO 11004KT 9999 NCD 19/15 Q1018=
201908310000 METAR LROD 310000Z AUTO 09004KT 9999 NCD 19/15 Q1018=
201908310030 METAR LROD 310030Z AUTO 10006KT 9999 NCD 19/15 Q1018=
201908310100 METAR LROD 310100Z AUTO 08005KT 9999 NCD 19/14 Q1018=
201908310130 METAR LROD 310130Z AUTO 09006KT 9999 NCD 19/14 Q1018=
201908310200 METAR LROD 310200Z AUTO 10007KT 9999 NCD 19/14 Q1018=
201908310230 METAR LROD 310230Z AUTO 10006KT 9999 NCD 18/14 Q1018=
201908310300 METAR LROD 310300Z AUTO 10007KT 9999 NCD 18/14 Q1018=
201908310330 METAR LROD 310330Z AUTO 10006KT 9999 NCD 18/14 Q1018=
201908310400 METAR LROD 310400Z 10006KT CAVOK 18/14 Q1018=
201908310430 METAR LROD 310430Z 10005KT CAVOK 18/14 Q1018=
201908310500 METAR LROD 310500Z 10002KT CAVOK 20/14 Q1018=
201908310530 METAR COR LROD 310530Z 09004KT CAVOK 22/14 Q1018=
201908310600 METAR LROD 310600Z 08005KT 050V110 CAVOK 23/14 Q1019=
201908310630 METAR LROD 310630Z 10005KT CAVOK 24/14 Q1018=
201908310700 METAR LROD 310700Z 10005KT 060V130 CAVOK 26/15 Q1019=
201908310730 METAR LROD 310730Z 09004KT 060V130 CAVOK 28/15 Q1019=
201908310800 METAR LROD 310800Z 09003KT CAVOK 29/14 Q1019=
201908310830 METAR LROD 310830Z 30003KT CAVOK 31/14 Q1018=
201908310900 METAR LROD 310900Z 24004KT 130V290 CAVOK 31/14 Q1018=
201908310930 METAR LROD 310930Z 25005KT 200V290 CAVOK 31/13 Q1018=
201908311000 METAR LROD 311000Z 32006KT 260V020 CAVOK 32/13 Q1018=
201908311030 METAR LROD 311030Z VRB03KT CAVOK 32/13 Q1018=
201908311100 METAR LROD 311100Z 08003KT 020V170 CAVOK 32/12 Q1017=
201908311130 METAR LROD 311130Z VRB03KT CAVOK 33/12 Q1017=
201908311200 METAR LROD 311200Z 10004KT 040V160 CAVOK 33/11 Q1017=
201908311230 METAR LROD 311230Z VRB04KT CAVOK 34/10 Q1016=
201908311300 METAR LROD 311300Z 34007KT 260V030 CAVOK 34/11 Q1016=
201908311330 METAR LROD 311330Z 36005KT 330V040 CAVOK 34/09 Q1016=
201908311400 METAR LROD 311400Z 03004KT 330V140 CAVOK 34/09 Q1015=
201908311430 METAR LROD 311430Z VRB05KT CAVOK 34/07 Q1015=
201908311500 METAR LROD 311500Z 09006KT 040V150 CAVOK 34/05 Q1015=
201908311530 METAR LROD 311530Z 09006KT 060V120 CAVOK 33/07 Q1015=
201908311600 METAR LROD 311600Z 09007KT 070V130 CAVOK 33/05 Q1015=
201908311630 METAR LROD 311630Z 06005KT CAVOK 32/07 Q1015=
201908311700 METAR LROD 311700Z 06006KT CAVOK 30/08 Q1015=
201908311730 METAR LROD 311730Z 08006KT CAVOK 29/09 Q1015=
201908311800 METAR LROD 311800Z 09006KT CAVOK 28/10 Q1015=
201908311830 METAR LROD 311830Z AUTO 10005KT 9999 NCD 26/11 Q1015=
201908311900 METAR LROD 311900Z AUTO 10004KT 9999 NCD 25/11 Q1015=
201908311930 METAR LROD 311930Z AUTO 11005KT 9999 NCD 23/12 Q1015=
201908312000 METAR LROD 312000Z AUTO 11005KT 9999 NCD 22/12 Q1015=
201908312030 METAR LROD 312030Z AUTO 10005KT 9999 NCD 21/12 Q1015=
201908312100 METAR LROD 312100Z AUTO 09005KT 9999 NCD 21/12 Q1015=
201908312130 METAR LROD 312130Z AUTO 09006KT 9999 NCD 21/13 Q1015=
201908312200 METAR LROD 312200Z AUTO 11005KT 9999 NCD 21/13 Q1015=
201908312230 METAR LROD 312230Z AUTO 10006KT 9999 NCD 20/13 Q1015=
201908312300 METAR LROD 312300Z AUTO 11005KT 9999 NCD 19/13 Q1015=
201908312330 METAR LROD 312330Z AUTO 10006KT 9999 NCD 20/13 Q1015=
