201911010000 METAR LROD 010000Z AUTO 10004KT 5000 BR FEW044/// SCT050///
                        04/04 Q1025=
201911010030 METAR LROD 010030Z AUTO 13003KT 4100 BR FEW037/// SCT042///
                        BKN050/// 03/03 Q1025=
201911010100 METAR LROD 010100Z AUTO 12004KT 4500 BR NCD 03/02 Q1025=
201911010130 METAR LROD 010130Z AUTO 09004KT 4000 BR NCD 02/02 Q1024=
201911010200 METAR LROD 010200Z AUTO 10003KT 4300 BR FEW041/// BKN055///
                        03/02 Q1024=
201911010230 METAR LROD 010230Z AUTO 10004KT 6000 FEW038/// BKN055///
                        03/03 Q1025=
201911010300 METAR LROD 010300Z AUTO 10005KT 9999 SCT031/// BKN055///
                        04/03 Q1025=
201911010330 METAR LROD 010330Z AUTO 11004KT 9999 FEW024/// SCT033///
                        OVC050/// 04/03 Q1025=
201911010400 METAR LROD 010400Z AUTO 10005KT 070V140 9999 FEW023/// BKN050///
                        03/03 Q1024=
201911010430 METAR LROD 010430Z AUTO 09004KT 9999 FEW030/// BKN055///
                        03/03 Q1024=
201911010500 METAR LROD 010500Z 11005KT CAVOK 03/02 Q1024=
201911010530 METAR LROD 010530Z 11005KT CAVOK 02/02 Q1024=
201911010600 METAR COR LROD 010600Z 10005KT CAVOK 03/03 Q1025=
201911010630 METAR LROD 010630Z 10005KT CAVOK 03/03 Q1025=
201911010700 METAR LROD 010700Z 12004KT CAVOK 04/03 Q1025=
201911010730 METAR LROD 010730Z 10005KT CAVOK 05/04 Q1025=
201911010800 METAR LROD 010800Z 09004KT CAVOK 07/05 Q1025=
201911010830 METAR COR LROD 010830Z 13003KT 090V200 CAVOK 09/06 Q1025=
201911010900 METAR LROD 010900Z 12002KT CAVOK 10/05 Q1025=
201911010930 METAR LROD 010930Z 21004KT 150V260 CAVOK 10/05 Q1025=
201911011000 METAR COR LROD 011000Z 28004KT 240V330 9999 SCT040 10/05
                        Q1024=
201911011030 METAR LROD 011030Z VRB02KT 9999 BKN035 11/03 Q1024=
201911011100 METAR COR LROD 011100Z VRB04KT 9999 BKN035 11/03 Q1024=
201911011130 METAR LROD 011130Z 27004KT 210V330 9999 BKN035 11/03 Q1023=
201911011200 METAR LROD 011200Z VRB04KT 9999 BKN035 12/01 Q1023=
201911011230 METAR LROD 011230Z 26006KT 210V320 9999 BKN045 12/02 Q1023=
201911011300 METAR LROD 011300Z 11005KT 050V170 9999 BKN043 11/02 Q1022=
201911011330 METAR LROD 011330Z 00000KT 9999 BKN043 11/02 Q1022=
201911011400 METAR LROD 011400Z 30003KT 260V330 9999 BKN045 11/02 Q1022=
201911011430 METAR LROD 011430Z 11003KT CAVOK 10/02 Q1022=
201911011500 METAR LROD 011500Z 11002KT CAVOK 10/02 Q1022=
201911011530 METAR LROD 011530Z 13002KT CAVOK 09/03 Q1021=
201911011600 METAR LROD 011600Z 11003KT CAVOK 08/02 Q1021=
201911011630 METAR LROD 011630Z 11004KT CAVOK 07/02 Q1021=
201911011700 METAR LROD 011700Z 10003KT CAVOK 06/03 Q1021=
201911011730 METAR LROD 011730Z 13003KT CAVOK 04/02 Q1021=
201911011800 METAR LROD 011800Z 17002KT CAVOK 03/01 Q1021=
201911011830 METAR LROD 011830Z 15003KT CAVOK 02/00 Q1021=
201911011900 METAR LROD 011900Z 14003KT CAVOK 01/M00 Q1021=
201911011930 METAR LROD 011930Z AUTO 14004KT 9999 NCD 03/01 Q1020=
201911012000 METAR LROD 012000Z AUTO 10006KT 9999 NCD 03/01 Q1020=
201911012030 METAR LROD 012030Z AUTO 10006KT 9000 NCD 03/01 Q1020=
201911012100 METAR LROD 012100Z AUTO 12005KT 7000 BKN042/// 03/02 Q1020=
201911012130 METAR LROD 012130Z AUTO 09004KT 5000 BR FEW032/// OVC042///
                        03/02 Q1020=
201911012200 METAR LROD 012200Z AUTO 11005KT 8000 BKN042/// 03/01 Q1019=
201911012230 METAR LROD 012230Z AUTO 10005KT 8000 NCD 02/01 Q1019=
201911012300 METAR LROD 012300Z AUTO 10005KT 7000 NCD 01/01 Q1019=
201911012330 METAR LROD 012330Z AUTO 10005KT 8000 NCD 02/01 Q1018=
201911020000 METAR LROD 020000Z AUTO 10004KT 9999 FEW240/// 02/01 Q1018=
201911020030 METAR LROD 020030Z AUTO 10005KT 9999 SCT230/// 01/01 Q1017=
201911020100 METAR LROD 020100Z AUTO 09006KT 9999 SCT042/// 02/01 Q1017=
201911020130 METAR LROD 020130Z AUTO 09006KT 9999 OVC039/// 03/01 Q1016=
201911020200 METAR LROD 020200Z AUTO 09006KT 9999 OVC041/// 03/01 Q1015=
201911020230 METAR LROD 020230Z AUTO 09006KT 9999 OVC041/// 04/01 Q1015=
201911020300 METAR LROD 020300Z AUTO 10006KT 9999 OVC040/// 04/01 Q1015=
201911020330 METAR LROD 020330Z AUTO 09006KT 9999 SCT042/// BKN210///
                        04/01 Q1014=
201911020400 METAR LROD 020400Z AUTO 10006KT 9999 FEW100/// BKN200///
                        04/01 Q1014=
201911020430 METAR LROD 020430Z AUTO 10005KT 9999 OVC075/// 04/01 Q1013=
201911020500 METAR COR LROD 020500Z 09005KT 9999 -RA NSC 05/01 Q1013=
201911020530 METAR LROD 020530Z 10005KT 9999 -RA NSC 05/01 Q1013=
201911020600 METAR LROD 020600Z 11006KT CAVOK 05/01 Q1013=
201911020630 METAR COR LROD 020630Z 10004KT 9999 -RA NSC 05/02 Q1013=
201911020700 METAR LROD 020700Z 09005KT 9999 -RA NSC 05/03 Q1013=
201911020730 METAR LROD 020730Z 10004KT 9999 -RA NSC 06/04 Q1013=
201911020800 METAR LROD 020800Z 11005KT 9999 -RA SCT035 BKN047 06/04 Q1012=
201911020830 METAR LROD 020830Z 06003KT 9999 -RA FEW037 BKN044 06/05 Q1012=
201911020900 METAR LROD 020900Z 14003KT 9999 -RA FEW036 BKN045 07/06 Q1012=
201911020930 METAR LROD 020930Z 15003KT 9999 -RA SCT031 BKN047 09/07 Q1012=
201911021000 METAR LROD 021000Z 16004KT 130V190 9999 -RA SCT036 BKN044
                        09/07 Q1011=
201911021030 METAR LROD 021030Z 15003KT 9999 -RA SCT034 BKN039 09/07 Q1011=
201911021100 METAR LROD 021100Z 15004KT 090V180 9999 -RA FEW037 BKN044
                        10/07 Q1011=
201911021130 METAR LROD 021130Z 13003KT 9999 BKN047 10/08 Q1010=
201911021200 METAR LROD 021200Z 18006KT 9999 -RA NSC 11/08 Q1010=
201911021230 METAR LROD 021230Z 18007KT 9999 -RA NSC 11/08 Q1010=
201911021300 METAR LROD 021300Z 18007KT 9999 -RA NSC 11/08 Q1010=
201911021330 METAR LROD 021330Z 18007KT 9999 -RA NSC 11/08 Q1010=
201911021400 METAR LROD 021400Z 18007KT 9999 -RA NSC 11/08 Q1010=
201911021430 METAR LROD 021430Z 16011KT CAVOK 12/07 Q1009=
201911021500 METAR LROD 021500Z 17012KT CAVOK 11/08 Q1009=
201911021530 METAR COR LROD 021530Z 16012KT 9999 OVC043 11/08 Q1009=
201911021600 METAR LROD 021600Z 17009KT 9999 -RA BKN044 11/08 Q1009=
201911021630 METAR LROD 021630Z 16005KT 9999 -RA OVC046 11/09 Q1009=
201911021700 METAR COR LROD 021700Z 14007KT 9999 -RA BKN047 11/09 Q1009=
201911021730 METAR LROD 021730Z 14006KT 9999 -RA BKN045 11/09 Q1009=
201911021800 METAR LROD 021800Z 15006KT 9999 -RA BKN045 11/09 Q1009=
201911021830 METAR LROD 021830Z 15006KT 9999 -RA BKN043 11/09 Q1009=
201911021900 METAR LROD 021900Z 18007KT 9999 -RA BKN040 12/09 Q1009=
201911021930 METAR LROD 021930Z AUTO VRB01KT 9000 SHRA BKN027/// BKN032///
                        11/09 Q1009=
201911022000 METAR LROD 022000Z AUTO 15004KT 9999 -RA FEW029/// SCT037///
                        BKN046/// 11/10 Q1009=
201911022030 METAR LROD 022030Z AUTO 16007KT 9999 -RA FEW029/// SCT036///
                        BKN080/// 11/10 Q1008=
201911022100 METAR LROD 022100Z AUTO 16009KT 9999 -RA BKN085/// 11/10
                        Q1008=
201911022130 METAR LROD 022130Z AUTO 17012KT 9999 -DZ BKN085/// BKN100///
                        12/10 Q1008=
201911022200 METAR LROD 022200Z AUTO 17012KT 9999 DZ OVC080/// 12/10 Q1008=
201911022230 METAR LROD 022230Z AUTO 18012KT 9999 -RA FEW030/// BKN075///
                        12/11 Q1007=
201911022300 METAR LROD 022300Z AUTO 18010KT 9999 -RA FEW035/// SCT055///
                        BKN080/// 12/11 Q1007=
201911022330 METAR LROD 022330Z AUTO 18010KT 9999 -SHRA BKN070/// 12/11
                        Q1007=
201911030000 METAR LROD 030000Z AUTO 17012KT 9999 -SHRA FEW070/// BKN085///
                        BKN120/// 12/11 Q1007=
201911030030 METAR LROD 030030Z AUTO 17014KT 9999 FEW035/// BKN070///
                        BKN120/// 13/11 Q1007 REDZ=
201911030100 METAR LROD 030100Z AUTO 17013KT 9999 FEW036/// BKN070///
                        12/11 Q1006 RERA=
201911030130 METAR LROD 030130Z AUTO 18013KT 9999 FEW043/// SCT075///
                        BKN140/// 13/10 Q1006 RERA=
201911030200 METAR LROD 030200Z AUTO 16012KT 9999 FEW047/// BKN070///
                        OVC150/// 13/11 Q1006 REDZ=
201911030230 METAR LROD 030230Z AUTO 16010KT 9999 FEW043/// BKN050///
                        BKN075/// 13/11 Q1006 REDZ=
201911030300 METAR LROD 030300Z AUTO 16010KT 9999 -SHRA FEW045/// BKN055///
                        13/11 Q1006=
201911030330 METAR LROD 030330Z AUTO 16010KT 9999 BKN050/// 14/11 Q1005
                        REDZ=
201911030400 METAR LROD 030400Z AUTO 18013KT 9999 -SHRA BKN049/// 14/11
                        Q1005=
201911030430 METAR LROD 030430Z AUTO 18012KT 9999 -SHRA BKN050/// 13/11
                        Q1005=
201911030500 METAR LROD 030500Z 18011KT 9999 -RA NSC 13/11 Q1005=
201911030530 METAR LROD 030530Z 17009KT 9999 -RA NSC 13/11 Q1005=
201911030600 METAR LROD 030600Z 17011KT 9999 -RA NSC 14/11 Q1005=
201911030630 METAR LROD 030630Z 17012KT CAVOK 14/11 Q1005=
201911030700 METAR LROD 030700Z 16011KT 9999 FEW043 14/11 Q1005=
201911030730 METAR LROD 030730Z 15007KT 9999 SCT043 15/12 Q1005=
201911030800 METAR LROD 030800Z 19010KT 9999 -RA SCT045 15/12 Q1005=
201911030830 METAR LROD 030830Z 15004KT 9999 -RA NSC 15/12 Q1005=
201911030900 METAR LROD 030900Z 13004KT 100V160 9999 -RA NSC 16/13 Q1004=
201911030930 METAR LROD 030930Z 18008KT CAVOK 16/12 Q1004=
201911031000 METAR LROD 031000Z 19009KT CAVOK 17/12 Q1004=
201911031030 METAR LROD 031030Z 18011KT CAVOK 18/12 Q1004=
201911031100 METAR LROD 031100Z 18013KT CAVOK 18/11 Q1003=
201911031130 METAR LROD 031130Z 18012KT CAVOK 19/11 Q1003=
201911031200 METAR LROD 031200Z 19011KT CAVOK 18/11 Q1003=
201911031230 METAR LROD 031230Z 19009KT CAVOK 18/11 Q1003=
201911031300 METAR LROD 031300Z 19008KT CAVOK 18/12 Q1002=
201911031330 METAR LROD 031330Z 19009KT CAVOK 19/12 Q1002=
201911031400 METAR LROD 031400Z 18010KT CAVOK 18/12 Q1002=
201911031430 METAR LROD 031430Z 18012KT CAVOK 18/11 Q1002=
201911031500 METAR LROD 031500Z 18014KT CAVOK 18/11 Q1002=
201911031530 METAR LROD 031530Z 18016KT 9999 -RA NSC 18/11 Q1002=
201911031600 METAR LROD 031600Z 18014KT CAVOK 17/11 Q1002 RERA=
201911031630 METAR LROD 031630Z 18017KT CAVOK 17/11 Q1002=
201911031700 METAR LROD 031700Z 17018KT CAVOK 17/12 Q1001=
201911031730 METAR LROD 031730Z 17016KT CAVOK 17/12 Q1002=
201911031800 METAR LROD 031800Z 16012KT CAVOK 17/12 Q1001=
201911031830 METAR COR LROD 031830Z 16009KT CAVOK 17/12 Q1001=
201911031900 METAR LROD 031900Z 16010KT CAVOK 17/12 Q1001=
201911031930 METAR LROD 031930Z AUTO 17013KT 9999 FEW095/// 17/11 Q1001=
201911032000 METAR LROD 032000Z AUTO 17014KT 9999 NCD 17/11 Q1000=
201911032030 METAR LROD 032030Z AUTO 17014KT 9999 SCT075/// 17/11 Q1000=
201911032100 METAR LROD 032100Z AUTO 18017KT 9999 BKN085/// 18/11 Q1000=
201911032130 METAR LROD 032130Z AUTO 18017KT 9999 FEW075/// OVC095///
                        18/11 Q1000=
201911032200 METAR LROD 032200Z AUTO 18018KT 9999 FEW090/// BKN100///
                        18/10 Q0999=
201911032230 METAR LROD 032230Z AUTO 18017KT 9999 BKN100/// 18/10 Q0999=
201911032300 METAR LROD 032300Z AUTO 18017KT 9999 SCT140/// 18/10 Q0999=
201911032330 METAR LROD 032330Z AUTO 18017KT 9999 FEW110/// 18/10 Q0999=
201911040000 METAR LROD 040000Z AUTO 18016KT 9999 SCT100/// OVC130///
                        18/10 Q0999=
201911040030 METAR LROD 040030Z AUTO 18016KT 9999 BKN095/// BKN110///
                        19/10 Q0999=
201911040100 METAR LROD 040100Z AUTO 18017KT 9999 BKN095/// 19/10 Q0998=
201911040130 METAR LROD 040130Z AUTO 18018KT 9999 BKN095/// OVC110///
                        19/10 Q0998=
201911040200 METAR LROD 040200Z AUTO 18016KT 9999 SCT100/// BKN120///
                        19/10 Q0998=
201911040230 METAR LROD 040230Z AUTO 18016KT 9999 SCT100/// BKN130///
                        19/10 Q0998=
201911040300 METAR LROD 040300Z AUTO 18018KT 9999 -SHRA BKN100/// BKN110///
                        19/10 Q0998=
201911040330 METAR LROD 040330Z AUTO 18018KT 9999 SCT100/// BKN110///
                        19/09 Q0998=
201911040400 METAR LROD 040400Z AUTO 18015KT 9999 FEW110/// BKN130///
                        19/10 Q0997=
201911040430 METAR LROD 040430Z AUTO 18017KT 9999 SCT110/// BKN150///
                        19/10 Q0997=
201911040500 METAR LROD 040500Z 18019KT CAVOK 20/09 Q0997=
201911040530 METAR LROD 040530Z 18019KT 9999 -RA NSC 19/10 Q0997=
201911040600 METAR LROD 040600Z 18019G29KT CAVOK 19/11 Q0998=
201911040630 METAR LROD 040630Z 17018KT CAVOK 18/11 Q0998=
201911040700 METAR LROD 040700Z 17016KT 9999 -RA NSC 18/12 Q0998=
201911040730 METAR LROD 040730Z 16018KT CAVOK 18/12 Q0998=
201911040800 METAR LROD 040800Z 17016KT 130V190 CAVOK 19/12 Q0997=
201911040830 METAR LROD 040830Z 17016KT CAVOK 20/12 Q0997=
201911040900 METAR LROD 040900Z 18020KT CAVOK 20/12 Q0997=
201911040930 METAR LROD 040930Z 18019KT CAVOK 20/12 Q0997=
201911041000 METAR LROD 041000Z 18020G31KT CAVOK 21/11 Q0997=
201911041030 METAR LROD 041030Z 18022KT CAVOK 20/11 Q0996=
201911041100 METAR LROD 041100Z 18024KT CAVOK 20/11 Q0996=
201911041130 METAR LROD 041130Z 18024KT CAVOK 21/11 Q0996=
201911041200 METAR COR LROD 041200Z 19020KT CAVOK 20/12 Q0996=
201911041230 METAR LROD 041230Z 19022KT CAVOK 20/11 Q0996=
201911041300 METAR LROD 041300Z 18021G33KT 9999 -RA NSC 17/13 Q0996=
201911041330 METAR LROD 041330Z 18018KT 9999 -RA FEW012 SCT046 17/13 Q0997=
201911041400 METAR LROD 041400Z 18019KT 9999 -RA FEW033 BKN040 16/13 Q0997=
201911041430 METAR LROD 041430Z 18019KT 9999 -RA FEW027 FEW033CB 15/14
                        Q0997 R01/29//95=
201911041500 METAR LROD 041500Z 18019KT 9999 -RA FEW015 FEW045CB 15/13
                        Q0997 R01/29//95=
201911041530 METAR LROD 041530Z 19018KT 9999 -RA SCT024 15/14 Q0998 R01/29//95=
201911041600 METAR LROD 041600Z 20017KT 9999 FEW010 BKN017 15/14 Q0999
                        R01/29//95=
201911041630 METAR LROD 041630Z 20016KT 9999 SCT010 15/13 Q0999 R01/29//95=
201911041700 METAR LROD 041700Z 21014KT 9999 FEW008 BKN013 15/14 Q0999
                        R01/29//95=
201911041730 METAR LROD 041730Z 20018G28KT 9000 -SHRA FEW009 BKN028 FEW029CB
                        14/14 Q0999 R01/29//95=
201911041800 METAR LROD 041800Z 24012KT 9999 -RA BKN006 FEW029CB BKN045
                        13/12 Q1000 R01/29//95=
201911041830 METAR LROD 041830Z 23014KT 9999 SCT008 FEW030CB 12/12 Q1001
                        R01/29//95=
201911041900 METAR LROD 041900Z 23012KT 9999 FEW009 12/12 Q1001 R01/29//95=
201911041930 METAR LROD 041930Z AUTO 23011KT 9999 SCT008/// BKN011///
                        OVC075/// 12/11 Q1002=
201911042000 METAR LROD 042000Z AUTO 22010KT 9999 FEW008/// BKN011///
                        BKN075/// 12/11 Q1003=
201911042030 METAR LROD 042030Z AUTO 22011KT 9999 BKN011/// OVC110///
                        12/11 Q1003=
201911042100 METAR LROD 042100Z AUTO 21009KT 9999 BKN010/// BKN110///
                        12/11 Q1003=
201911042130 METAR LROD 042130Z AUTO 21010KT 9999 FEW011/// 11/10 Q1003=
201911042200 METAR LROD 042200Z AUTO 21012KT 9999 BKN095/// 11/10 Q1004=
201911042230 METAR LROD 042230Z AUTO 19010KT 9999 FEW100/// BKN200///
                        11/10 Q1004=
201911042300 METAR LROD 042300Z AUTO 19010KT 9999 FEW008/// BKN200///
                        11/10 Q1004=
201911042330 METAR LROD 042330Z AUTO 20011KT 9999 FEW007/// BKN075///
                        OVC090/// 11/11 Q1004=
201911050000 METAR LROD 050000Z AUTO 19011KT 9999 FEW006/// BKN080///
                        11/11 Q1004=
201911050030 METAR LROD 050030Z AUTO 19014KT 9999 BKN080/// 11/10 Q1004=
201911050100 METAR LROD 050100Z AUTO 19013KT 9999 SCT190/// 11/10 Q1004=
201911050130 METAR LROD 050130Z AUTO 19012KT 9999 NCD 12/11 Q1004=
201911050200 METAR LROD 050200Z AUTO 17011KT 9999 NCD 12/10 Q1004=
201911050230 METAR LROD 050230Z AUTO 17012KT 9999 SCT075/// 12/10 Q1004=
201911050300 METAR LROD 050300Z AUTO 18012KT 9999 FEW055/// SCT075///
                        12/10 Q1004=
201911050330 METAR LROD 050330Z AUTO 17013KT 9999 FEW055/// SCT070///
                        12/10 Q1004=
201911050400 METAR LROD 050400Z AUTO 18014KT 9999 SCT050/// BKN075///
                        14/10 Q1004=
201911050430 METAR LROD 050430Z AUTO 19015KT 9999 SCT050/// BKN065///
                        14/10 Q1005=
201911050500 METAR LROD 050500Z 19015KT 9999 BKN049 14/10 Q1005 R01/CLRD//=
201911050530 METAR LROD 050530Z 19013KT 9999 SCT049 14/09 Q1005=
201911050600 METAR LROD 050600Z 19014KT 9999 BKN047 14/09 Q1005=
201911050630 METAR LROD 050630Z 19013KT 9999 SCT049 14/09 Q1005=
201911050700 METAR LROD 050700Z 19013KT 9999 SCT049 15/09 Q1005=
201911050730 METAR LROD 050730Z 19014KT CAVOK 16/09 Q1005=
201911050800 METAR LROD 050800Z 19016KT CAVOK 16/08 Q1005=
201911050830 METAR LROD 050830Z 18015KT CAVOK 16/08 Q1005=
201911050900 METAR COR LROD 050900Z 18015KT CAVOK 17/08 Q1005=
201911050930 METAR LROD 050930Z 18016KT CAVOK 17/08 Q1005=
201911051000 METAR LROD 051000Z 17014KT CAVOK 18/08 Q1004=
201911051030 METAR LROD 051030Z 18014KT CAVOK 19/08 Q1004=
201911051100 METAR LROD 051100Z 19015KT CAVOK 20/08 Q1004=
201911051130 METAR LROD 051130Z 18016KT CAVOK 21/08 Q1003=
201911051200 METAR LROD 051200Z 18018KT CAVOK 20/08 Q1003=
201911051230 METAR LROD 051230Z 18017KT CAVOK 21/08 Q1002=
201911051300 METAR LROD 051300Z 19016KT CAVOK 21/08 Q1002=
201911051330 METAR LROD 051330Z 18018KT CAVOK 21/08 Q1002=
201911051400 METAR LROD 051400Z 18015KT CAVOK 20/08 Q1002=
201911051430 METAR LROD 051430Z 18015KT CAVOK 20/08 Q1002=
201911051500 METAR LROD 051500Z 18012KT CAVOK 19/08 Q1002=
201911051530 METAR LROD 051530Z 18013KT CAVOK 19/08 Q1001=
201911051600 METAR LROD 051600Z 17014KT CAVOK 19/08 Q1001=
201911051630 METAR LROD 051630Z 17013KT CAVOK 19/08 Q1001=
201911051700 METAR LROD 051700Z 16013KT CAVOK 18/08 Q1000=
201911051730 METAR LROD 051730Z 16014KT CAVOK 18/08 Q1000=
201911051800 METAR LROD 051800Z 17015KT CAVOK 18/08 Q1000=
201911051830 METAR LROD 051830Z 17017KT CAVOK 19/08 Q0999=
201911051900 METAR LROD 051900Z 17021G33KT CAVOK 19/08 Q0999=
201911051930 METAR LROD 051930Z AUTO 18022KT 9999 FEW110/// 20/08 Q0999=
201911052000 METAR LROD 052000Z AUTO 18021KT 9999 OVC110/// 20/09 Q0999=
201911052030 METAR LROD 052030Z AUTO 18022G34KT 9999 SCT085/// OVC170///
                        20/09 Q0999=
201911052100 METAR LROD 052100Z AUTO 18021KT 9999 SCT080/// BKN100///
                        20/09 Q0998=
201911052130 METAR LROD 052130Z AUTO 19019KT 160V220 9999 BKN070/// BKN100///
                        20/09 Q0999=
201911052200 METAR LROD 052200Z AUTO 23012KT 9999 BKN070/// 18/09 Q0999=
201911052230 METAR LROD 052230Z AUTO 22011KT 9999 SCT070/// BKN100///
                        BKN150/// 18/09 Q0999=
201911052300 METAR LROD 052300Z AUTO 19008KT 9999 SCT100/// BKN120///
                        17/10 Q0998=
201911052330 METAR LROD 052330Z AUTO 21013KT 9999 -SHRA BKN065/// BKN090///
                        19/09 Q0998=
201911060000 METAR LROD 060000Z AUTO 27005KT 9999 BKN060/// 15/11 Q0998=
201911060030 METAR LROD 060030Z AUTO 31010KT 260V330 8000 +SHRA FEW041///
                        BKN060/// 14/13 Q1000=
201911060100 METAR LROD 060100Z AUTO 29008KT 9999 -SHRA SCT050/// BKN070///
                        14/13 Q1000=
201911060130 METAR LROD 060130Z AUTO VRB01KT 9999 FEW032/// SCT065///
                        BKN090/// 13/13 Q1000 RERA=
201911060200 METAR LROD 060200Z AUTO 15003KT 9999 BKN055/// BKN080///
                        13/12 Q1000 RERA=
201911060230 METAR LROD 060230Z AUTO 16002KT 8000 RA SCT044/// BKN050///
                        13/13 Q1000=
201911060300 METAR LROD 060300Z AUTO 25004KT 6000 SHRA FEW031/// BKN038///
                        13/13 Q1001=
201911060330 METAR LROD 060330Z AUTO 22004KT 9999 -SHRA FEW026/// SCT032///
                        BKN037/// 13/13 Q1001=
201911060400 METAR LROD 060400Z AUTO 17006KT 9999 RA FEW036/// BKN049///
                        13/13 Q1001=
201911060430 METAR LROD 060430Z AUTO 18008KT 9999 -RA BKN075/// OVC095///
                        13/13 Q1001=
201911060500 METAR LROD 060500Z 20012KT 9999 RA NSC 13/13 Q1002=
201911060530 METAR LROD 060530Z 19014KT 9999 RA FEW020 13/13 Q1002=
201911060600 METAR LROD 060600Z 18017KT 9000 RA BKN045 13/13 Q1002 R01/29//95=
201911060630 METAR LROD 060630Z 19014KT 9999 -RA BKN045 13/12 Q1002 RERA
                        R01/29//95=
201911060700 METAR LROD 060700Z 19012KT 9999 -RA BKN035 13/12 Q1003 R01/29//95=
201911060730 METAR LROD 060730Z 19013KT 9999 BKN035 13/12 Q1003 R01/29//95=
201911060800 METAR LROD 060800Z 20014KT 9999 BKN032 13/13 Q1004 R01/29//95=
201911060830 METAR LROD 060830Z 21014KT 9999 BKN034 14/13 Q1005 R01/29//95=
201911060900 METAR LROD 060900Z 21014KT 9999 BKN034 14/12 Q1005 R01/29//95=
201911060930 METAR LROD 060930Z 21016KT 9999 FEW011 BKN040 14/12 Q1005
                        R01/29//95=
201911061000 METAR LROD 061000Z 21016KT 9999 FEW010 BKN024 14/12 Q1006
                        R01/29//95=
201911061030 METAR LROD 061030Z 21016KT 9999 FEW010 BKN024 14/12 Q1006
                        R01/29//95=
201911061100 METAR LROD 061100Z 25010KT 9999 -RA SCT014 BKN026 12/11 Q1006
                        R01/CLRD//=
201911061130 METAR LROD 061130Z 24010KT 9999 SCT014 BKN019 13/11 Q1006
                        R01/CLRD//=
201911061200 METAR LROD 061200Z 24012KT 9999 FEW013 BKN022 13/11 Q1006
                        R01/19//95=
201911061230 METAR LROD 061230Z 24010KT 9999 BKN017 14/11 Q1007 R01/19//95=
201911061300 METAR LROD 061300Z 23011KT 9999 BKN016 14/11 Q1007 R01/19//95=
201911061330 METAR LROD 061330Z 25008KT 9999 BKN015 BKN021 14/11 Q1007
                        R01/19//95=
201911061400 METAR LROD 061400Z 24008KT 9999 BKN015 BKN024 13/11 Q1007
                        R01/19//95=
201911061430 METAR COR LROD 061430Z 24005KT 9999 BKN015 SCT027 13/11 Q1007
                        R01/CLRD//=
201911061500 METAR LROD 061500Z 22004KT 9999 BKN015 BKN025 13/11 Q1008=
201911061530 METAR LROD 061530Z 19003KT 9999 BKN015 BKN033 12/11 Q1008=
201911061600 METAR LROD 061600Z 21004KT 9999 BKN015 BKN024 13/11 Q1008=
201911061630 METAR LROD 061630Z 20005KT 9999 SCT013 BKN028 12/11 Q1008=
201911061700 METAR LROD 061700Z 20005KT 9999 FEW013 SCT022 BKN029 12/11
                        Q1008=
201911061730 METAR LROD 061730Z 19005KT 9999 FEW022 BKN032 12/11 Q1008=
201911061800 METAR LROD 061800Z 19003KT 9999 BKN031 11/10 Q1008=
201911061830 METAR LROD 061830Z 13003KT 9999 BKN032 11/11 Q1008=
201911061900 METAR LROD 061900Z 08003KT 9999 FEW023 BKN031 11/11 Q1008=
201911061930 METAR LROD 061930Z AUTO 11003KT 9999 FEW033/// BKN170///
                        11/10 Q1008=
201911062000 METAR LROD 062000Z AUTO 10003KT 9000 BKN150/// 11/10 Q1008=
201911062030 METAR LROD 062030Z AUTO 07002KT 6000 BKN150/// BKN210///
                        10/10 Q1008=
201911062100 METAR LROD 062100Z AUTO 09003KT 8000 BKN160/// BKN220///
                        10/10 Q1007=
201911062130 METAR LROD 062130Z AUTO 11005KT 8000 BKN160/// 10/09 Q1008=
201911062200 METAR LROD 062200Z AUTO 09005KT 9000 BKN170/// 10/10 Q1007=
201911062230 METAR LROD 062230Z AUTO 08004KT 9999 BKN160/// 10/10 Q1007=
201911062300 METAR LROD 062300Z AUTO 10004KT 9999 SCT080/// BKN100///
                        OVC170/// 10/10 Q1007=
201911062330 METAR LROD 062330Z AUTO 08004KT 9999 BKN080/// BKN110///
                        10/09 Q1007=
201911070000 METAR LROD 070000Z AUTO 10004KT 9999 OVC075/// 10/09 Q1007=
201911070030 METAR LROD 070030Z AUTO 07005KT 9999 DZ SCT065/// BKN080///
                        OVC100/// 11/09 Q1007=
201911070100 METAR LROD 070100Z AUTO 13005KT 9999 SHRA FEW044/// SCT055///
                        BKN070/// 10/09 Q1007=
201911070130 METAR LROD 070130Z AUTO 09004KT 6000 SHRA FEW036/// SCT044///
                        BKN050/// 10/09 Q1007=
201911070200 METAR LROD 070200Z AUTO 07005KT 9999 -SHRA BKN029/// BKN036///
                        10/10 Q1007=
201911070230 METAR LROD 070230Z AUTO 09005KT 9999 FEW024/// BKN033///
                        10/10 Q1007 RERA=
201911070300 METAR LROD 070300Z AUTO 10005KT 9999 BKN034/// OVC039///
                        10/10 Q1007=
201911070330 METAR LROD 070330Z AUTO 09006KT 9999 -SHRA BKN035/// 10/10
                        Q1006=
201911070400 METAR LROD 070400Z AUTO 10006KT 9999 -SHRA FEW034/// BKN080///
                        10/10 Q1006=
201911070430 METAR LROD 070430Z AUTO 09005KT 070V130 9999 -SHRA BKN075///
                        11/10 Q1006=
201911070500 METAR COR LROD 070500Z 09006KT CAVOK 11/10 Q1006=
201911070530 METAR LROD 070530Z 09004KT CAVOK 10/10 Q1006=
201911070600 METAR LROD 070600Z 10005KT CAVOK 10/10 Q1006 R01/19//95=
201911070630 METAR LROD 070630Z 10004KT 9999 SCT024 11/10 Q1006 R01/19//95=
201911070700 METAR LROD 070700Z 11005KT 080V140 9999 BKN023 12/11 Q1006
                        R01/19//95=
201911070730 METAR LROD 070730Z 20008KT 9999 BKN023 14/12 Q1006 R01/19//95=
201911070800 METAR COR LROD 070800Z 20012KT 9999 BKN022 14/12 Q1007 R01/19//95=
201911070830 METAR LROD 070830Z 20012KT 9999 OVC020 14/12 Q1007 R01/19//95=
201911070900 METAR LROD 070900Z 21013KT 9999 BKN015 14/12 Q1007 R01/19//95=
201911070930 METAR COR LROD 070930Z 22013KT 9999 BKN013 13/12 Q1008 R01/19//95=
201911071000 METAR LROD 071000Z 22014KT 9999 BKN010 13/12 Q1008 R01/CLRD//=
201911071030 METAR LROD 071030Z 23012KT 7000 BKN009 13/12 Q1008=
201911071100 METAR LROD 071100Z 22012KT 7000 BKN008 13/11 Q1008=
201911071130 METAR LROD 071130Z 20010KT 9999 SCT009 13/11 Q1008=
201911071200 METAR LROD 071200Z 21010KT 9999 SCT009 14/11 Q1008=
201911071230 METAR LROD 071230Z 20010KT 8000 -RA SCT008 SCT038 13/11 Q1008=
201911071300 METAR LROD 071300Z 22009KT 7000 FEW040 13/12 Q1008=
201911071330 METAR LROD 071330Z 23009KT 8000 SCT010 SCT034 13/11 Q1009=
201911071400 METAR LROD 071400Z 25009KT 9000 FEW010 SCT024 13/11 Q1009=
201911071430 METAR LROD 071430Z 23006KT 9999 FEW012 13/11 Q1009=
201911071500 METAR LROD 071500Z 25006KT 9999 FEW023 12/10 Q1010=
201911071530 METAR LROD 071530Z 22005KT 9999 SCT019 12/11 Q1010=
201911071600 METAR LROD 071600Z 20004KT 9999 SCT019 11/10 Q1010=
201911071630 METAR LROD 071630Z 20004KT 9999 BKN019 10/10 Q1010=
201911071700 METAR LROD 071700Z 23003KT 9999 BKN018 10/10 Q1011=
201911071730 METAR LROD 071730Z VRB02KT 9999 BKN017 10/10 Q1011=
201911071800 METAR LROD 071800Z 21001KT 8000 FEW013 BKN018 10/10 Q1011=
201911071830 METAR LROD 071830Z 07002KT 7000 BKN018 10/10 Q1011=
201911071900 METAR LROD 071900Z 10002KT 7000 BKN019 11/10 Q1011=
201911071930 METAR LROD 071930Z AUTO 10001KT 3200 R19/1000VP2000D BR SCT020///
                        10/10 Q1012=
201911072000 METAR LROD 072000Z AUTO 10003KT 0900 R19/1100N FG FEW018///
                        10/09 Q1012=
201911072030 METAR LROD 072030Z AUTO 10004KT 2400 BKN018/// 09/09 Q1012=
201911072100 METAR LROD 072100Z AUTO 07004KT 3300 BKN019/// 10/10 Q1012=
201911072130 METAR LROD 072130Z AUTO 10004KT 2200 R19/2000 BR FEW019///
                        09/09 Q1012=
201911072200 METAR LROD 072200Z AUTO 10004KT 1600 R19/1300VP2000D BCFG
                        NCD 09/08 Q1012=
201911072230 METAR LROD 072230Z AUTO 10005KT 3100 NCD 08/08 Q1012=
201911072300 METAR LROD 072300Z AUTO 07006KT 4700 BKN240/// 08/08 Q1012=
201911072330 METAR LROD 072330Z AUTO 09006KT 5000 BR BKN230/// 09/08 Q1012=
201911080000 METAR LROD 080000Z AUTO 08007KT 5000 BR BKN230/// 09/08 Q1012=
201911080030 METAR LROD 080030Z AUTO 08007KT 5000 BR BKN230/// 08/08 Q1012=
201911080100 METAR LROD 080100Z AUTO 08007KT 5000 BR SCT240/// 08/08 Q1011=
201911080130 METAR LROD 080130Z AUTO 08007KT 9000 BKN240/// 08/08 Q1011=
201911080200 METAR LROD 080200Z AUTO 09006KT 9999 BKN210/// 08/07 Q1011=
201911080230 METAR LROD 080230Z AUTO 09006KT 9999 BKN220/// 08/07 Q1011=
201911080300 METAR LROD 080300Z AUTO 09006KT 9999 BKN220/// 08/07 Q1011=
201911080330 METAR LROD 080330Z AUTO 08005KT 9999 BKN210/// 08/07 Q1011=
201911080400 METAR LROD 080400Z AUTO 09005KT 9999 OVC190/// 08/07 Q1011=
201911080430 METAR LROD 080430Z AUTO 08006KT 9999 BKN190/// 08/07 Q1010=
201911080500 METAR COR LROD 080500Z 10005KT CAVOK 08/07 Q1010=
201911080530 METAR LROD 080530Z 08004KT CAVOK 07/06 Q1010=
201911080600 METAR LROD 080600Z 04003KT CAVOK 08/07 Q1010=
201911080630 METAR LROD 080630Z 05003KT CAVOK 08/07 Q1010=
201911080700 METAR LROD 080700Z 08004KT 050V120 CAVOK 10/08 Q1010=
201911080730 METAR LROD 080730Z 08003KT CAVOK 10/08 Q1010=
201911080800 METAR LROD 080800Z 00000KT CAVOK 11/08 Q1010=
201911080830 METAR LROD 080830Z VRB01KT CAVOK 10/08 Q1010=
201911080900 METAR LROD 080900Z VRB02KT 9999 -RA FEW013 10/09 Q1010 R01/29//95=
201911080930 METAR LROD 080930Z 09002KT 9999 -RA FEW015 10/09 Q1010 R01/29//95=
201911081000 METAR LROD 081000Z VRB02KT 9999 -RA NSC 10/09 Q1009 R01/29//95=
201911081030 METAR LROD 081030Z 08002KT 7000 -RA SCT036 OVC048 11/10 Q1009
                        R01/29//95=
201911081100 METAR LROD 081100Z 07001KT 6000 -RA SCT034 OVC044 11/10 Q1009
                        R01/29//95=
201911081130 METAR LROD 081130Z 03003KT 8000 -RA SCT033 BKN044 11/10 Q1009
                        R01/29//95=
201911081200 METAR LROD 081200Z 05003KT 9999 -RA FEW005 BKN049 11/11 Q1009
                        R01/29//95=
201911081230 METAR LROD 081230Z 03004KT 9999 FEW005 SCT047 11/11 Q1008
                        R01/29//95=
201911081300 METAR LROD 081300Z 03004KT 9999 FEW005 SCT047 11/11 Q1008
                        R01/29//95=
201911081330 METAR LROD 081330Z 08004KT CAVOK 12/11 Q1008 R01/29//95=
201911081400 METAR LROD 081400Z 08003KT 040V120 CAVOK 12/11 Q1008 R01/29//95=
201911081430 METAR LROD 081430Z 07004KT CAVOK 12/11 Q1008 R01/29//95=
201911081500 METAR LROD 081500Z 09004KT CAVOK 12/11 Q1008 R01/29//95=
201911081530 METAR LROD 081530Z 10004KT 070V150 CAVOK 12/11 Q1008 R01/29//95=
201911081600 METAR LROD 081600Z 09006KT CAVOK 12/11 Q1008 R01/29//95=
201911081630 METAR LROD 081630Z 10006KT CAVOK 12/11 Q1008 R01/29//95=
201911081700 METAR LROD 081700Z 10005KT CAVOK 11/11 Q1008 R01/29//95=
201911081730 METAR LROD 081730Z 10003KT 080V140 CAVOK 11/11 Q1008 R01/29//95=
201911081800 METAR LROD 081800Z 09005KT CAVOK 12/11 Q1008 R01/29//95=
201911081830 METAR LROD 081830Z AUTO 11005KT 9999 FEW041/// OVC075///
                        12/11 Q1008=
201911081900 METAR LROD 081900Z AUTO 11006KT 9999 SCT040/// 12/11 Q1008=
201911081930 METAR LROD 081930Z AUTO 13005KT 9999 FEW037/// 12/11 Q1009=
201911082000 METAR LROD 082000Z AUTO 15007KT 9999 FEW039/// 14/11 Q1009=
201911082030 METAR LROD 082030Z AUTO 14005KT 9999 FEW240/// 13/11 Q1009=
201911082100 METAR LROD 082100Z AUTO 16006KT 9999 NCD 13/10 Q1009=
201911082130 METAR LROD 082130Z AUTO 16005KT 9999 NCD 12/10 Q1009=
201911082200 METAR LROD 082200Z AUTO 14003KT 9999 NCD 11/10 Q1009=
201911082230 METAR LROD 082230Z AUTO 33002KT 9999 FEW075/// 09/08 Q1010=
201911082300 METAR LROD 082300Z AUTO 31004KT 7000 FEW080/// 09/08 Q1010=
201911082330 METAR LROD 082330Z AUTO 01002KT 4700 BR FEW065/// 09/09 Q1010=
201911090000 METAR LROD 090000Z AUTO 08003KT 1700 R19/0800VP2000D FG NCD
                        09/08 Q1010=
201911090030 METAR LROD 090030Z AUTO 11005KT 7000 FEW055/// 09/09 Q1010=
201911090100 METAR LROD 090100Z AUTO 11007KT 9999 NCD 09/09 Q1010=
201911090130 METAR LROD 090130Z AUTO 12005KT 9999 NCD 10/09 Q1010=
201911090200 METAR LROD 090200Z AUTO 15005KT 9999 NCD 11/09 Q1010=
201911090230 METAR LROD 090230Z AUTO 17008KT 9999 NCD 12/10 Q1010=
201911090300 METAR LROD 090300Z AUTO 17009KT 9999 NCD 12/10 Q1010=
201911090330 METAR LROD 090330Z AUTO 16008KT 9999 NCD 12/09 Q1010=
201911090400 METAR LROD 090400Z AUTO 16007KT 9999 NCD 12/09 Q1011=
201911090430 METAR LROD 090430Z AUTO 16006KT 9999 NCD 12/09 Q1011=
201911090500 METAR LROD 090500Z 11006KT CAVOK 10/08 Q1011=
201911090530 METAR LROD 090530Z 10005KT CAVOK 10/08 Q1011 R01/29//95=
201911090600 METAR LROD 090600Z 10007KT CAVOK 10/08 Q1011 R01/29//95=
201911090630 METAR LROD 090630Z 11005KT CAVOK 11/09 Q1011 R01/29//95=
201911090700 METAR LROD 090700Z 11005KT CAVOK 13/09 Q1011 R01/29//95=
201911090730 METAR LROD 090730Z 12006KT CAVOK 15/10 Q1011 R01/29//95=
201911090800 METAR LROD 090800Z 11005KT CAVOK 16/11 Q1011 R01/29//95=
201911090830 METAR LROD 090830Z 12006KT 090V150 CAVOK 17/10 Q1011 R01/29//95=
201911090900 METAR LROD 090900Z 12006KT CAVOK 17/09 Q1011 R01/29//95=
201911090930 METAR LROD 090930Z 13006KT CAVOK 18/10 Q1011 R01/29//95=
201911091000 METAR LROD 091000Z 17009KT 140V200 CAVOK 20/09 Q1011 R01/29//95=
201911091030 METAR LROD 091030Z 19012KT CAVOK 20/08 Q1011 R01/29//95=
201911091100 METAR LROD 091100Z 19012KT 150V210 CAVOK 20/08 Q1010 R01/29//95=
201911091130 METAR LROD 091130Z 19012KT CAVOK 20/08 Q1010 R01/CLRD//=
201911091200 METAR LROD 091200Z 20013KT CAVOK 20/07 Q1010=
201911091230 METAR LROD 091230Z 19010KT CAVOK 20/07 Q1010=
201911091300 METAR LROD 091300Z 19011KT CAVOK 20/09 Q1010=
201911091330 METAR LROD 091330Z 18009KT CAVOK 19/09 Q1010=
201911091400 METAR LROD 091400Z 18007KT CAVOK 18/09 Q1010=
201911091430 METAR LROD 091430Z 17005KT CAVOK 18/10 Q1010=
201911091500 METAR LROD 091500Z 20005KT CAVOK 15/10 Q1010=
201911091530 METAR LROD 091530Z 20005KT CAVOK 14/09 Q1010=
201911091600 METAR LROD 091600Z 14004KT CAVOK 14/09 Q1010=
201911091630 METAR LROD 091630Z 14003KT CAVOK 13/09 Q1010=
201911091700 METAR LROD 091700Z 16004KT CAVOK 12/09 Q1010=
201911091730 METAR LROD 091730Z 12005KT CAVOK 13/09 Q1011=
201911091800 METAR LROD 091800Z 12005KT CAVOK 12/09 Q1010=
201911091830 METAR LROD 091830Z 10005KT CAVOK 11/08 Q1011=
201911091900 METAR LROD 091900Z 11006KT CAVOK 12/09 Q1011=
201911091930 METAR LROD 091930Z AUTO 10006KT 9999 BKN070/// 12/09 Q1011=
201911092000 METAR LROD 092000Z AUTO 10003KT 070V140 9999 BKN060/// BKN100///
                        13/09 Q1011=
201911092030 METAR LROD 092030Z AUTO 07002KT 9999 SCT060/// BKN075///
                        13/09 Q1011=
201911092100 METAR LROD 092100Z AUTO 07001KT 9999 SCT075/// BKN100///
                        12/09 Q1010=
201911092130 METAR LROD 092130Z AUTO 12004KT 9999 FEW065/// OVC100///
                        12/09 Q1010=
201911092200 METAR LROD 092200Z AUTO 11004KT 090V150 9999 SCT055/// BKN100///
                        12/09 Q1010=
201911092230 METAR LROD 092230Z AUTO 09003KT 9999 BKN055/// 12/09 Q1010=
201911092300 METAR LROD 092300Z AUTO 12004KT 9999 FEW070/// 11/09 Q1010=
201911092330 METAR LROD 092330Z AUTO 11005KT 9999 FEW070/// SCT160///
                        11/09 Q1010=
201911100000 METAR LROD 100000Z AUTO 10005KT 9999 SCT160/// 10/08 Q1010=
201911100030 METAR LROD 100030Z AUTO 09005KT 9999 BKN065/// 11/09 Q1010=
201911100100 METAR LROD 100100Z AUTO 11005KT 9999 FEW060/// 11/08 Q1009=
201911100130 METAR LROD 100130Z AUTO 11006KT 9999 NCD 10/08 Q1009=
201911100200 METAR LROD 100200Z AUTO 10004KT 9999 FEW100/// 10/08 Q1008=
201911100230 METAR LROD 100230Z AUTO 08005KT 9999 FEW130/// 11/08 Q1008=
201911100300 METAR LROD 100300Z AUTO 09006KT 9999 FEW065/// SCT090///
                        BKN130/// 12/09 Q1008=
201911100330 METAR LROD 100330Z AUTO 09006KT 9999 BKN060/// 12/09 Q1007=
201911100400 METAR LROD 100400Z AUTO 09005KT 9999 BKN060/// 12/09 Q1007=
201911100430 METAR LROD 100430Z AUTO 09005KT 9999 FEW060/// BKN075///
                        OVC090/// 12/08 Q1007=
201911100500 METAR LROD 100500Z 10006KT 9999 -RA NSC 12/09 Q1007=
201911100530 METAR LROD 100530Z 10006KT 9999 -RA NSC 11/09 Q1007=
201911100600 METAR LROD 100600Z 11005KT 9999 -RA NSC 11/09 Q1008=
201911100630 METAR LROD 100630Z 10004KT 9999 -RA NSC 11/10 Q1008=
201911100700 METAR LROD 100700Z 11003KT 9999 -RA NSC 11/10 Q1007=
201911100730 METAR LROD 100730Z 10004KT 9999 -RA NSC 11/10 Q1007=
201911100800 METAR LROD 100800Z 10004KT 9999 -RA NSC 12/11 Q1008=
201911100830 METAR LROD 100830Z 08003KT 9999 -RA NSC 12/11 Q1007=
201911100900 METAR LROD 100900Z 09003KT 9999 -RA BKN049 13/12 Q1007=
201911100930 METAR LROD 100930Z 10004KT 9999 -RA SCT049 13/12 Q1007=
201911101000 METAR LROD 101000Z 11004KT 9999 -RA NSC 14/13 Q1007=
201911101030 METAR LROD 101030Z 11006KT 080V150 CAVOK 15/13 Q1007=
201911101100 METAR LROD 101100Z 13005KT 100V170 CAVOK 16/12 Q1007=
201911101130 METAR LROD 101130Z 14006KT 100V170 CAVOK 17/13 Q1007=
201911101200 METAR LROD 101200Z 17010KT CAVOK 18/12 Q1007=
201911101230 METAR LROD 101230Z 19015KT 9999 BKN033 19/11 Q1007=
201911101300 METAR LROD 101300Z 19015KT 9999 FEW013 SCT033 18/11 Q1007=
201911101330 METAR LROD 101330Z 19015KT 9999 SCT040 FEW050CB 17/11 Q1007=
201911101400 METAR LROD 101400Z 22015KT 9999 FEW034 FEW049CB 17/11 Q1007=
201911101430 METAR LROD 101430Z 22010KT 9999 FEW043 FEW055CB 16/12 Q1008=
201911101500 METAR LROD 101500Z 23010KT 9999 FEW050CB 15/12 Q1008=
201911101530 METAR LROD 101530Z 22010KT 9999 FEW050CB 13/11 Q1009=
201911101600 METAR LROD 101600Z 19008KT 9999 FEW019 12/10 Q1010=
201911101630 METAR LROD 101630Z 20009KT 9999 FEW023 12/10 Q1010=
201911101700 METAR LROD 101700Z 21009KT 9999 SCT015 13/10 Q1011=
201911101730 METAR LROD 101730Z 23012KT 9999 FEW012 SCT017 11/09 Q1011=
201911101800 METAR LROD 101800Z 22011KT 9999 BKN014 11/09 Q1012=
201911101830 METAR LROD 101830Z 22010KT 9999 BKN011 11/09 Q1012=
201911101900 METAR LROD 101900Z 22010KT 9999 BKN012 09/08 Q1012=
201911101930 METAR LROD 101930Z AUTO 21008KT 9999 BKN015/// 09/08 Q1013=
201911102000 METAR LROD 102000Z AUTO 21011KT 9999 FEW010/// BKN015///
                        09/08 Q1013=
201911102030 METAR LROD 102030Z AUTO 22012KT 9999 FEW008/// SCT011///
                        BKN014/// 09/08 Q1014=
201911102100 METAR LROD 102100Z AUTO 22011KT 9999 FEW007/// BKN009///
                        BKN014/// 09/08 Q1014=
201911102130 METAR LROD 102130Z AUTO 21011KT 9999 FEW007/// OVC013///
                        09/08 Q1014=
201911102200 METAR LROD 102200Z AUTO 21014KT 9999 FEW007/// BKN009///
                        OVC012/// 09/07 Q1015=
201911102230 METAR LROD 102230Z AUTO 21013KT 9999 BKN007/// OVC012///
                        09/07 Q1015=
201911102300 METAR LROD 102300Z AUTO 22013KT 9999 BKN006/// 08/07 Q1015=
201911102330 METAR LROD 102330Z AUTO 22013KT 9999 FEW008/// BKN012///
                        OVC015/// 08/07 Q1016=
201911110000 METAR LROD 110000Z AUTO 21013KT 9999 FEW007/// BKN012///
                        BKN036/// 08/07 Q1016=
201911110030 METAR LROD 110030Z AUTO 20010KT 9999 BKN036/// 08/07 Q1016=
201911110100 METAR LROD 110100Z AUTO 23008KT 9999 FEW007/// BKN009///
                        OVC038/// 08/07 Q1017=
201911110130 METAR LROD 110130Z AUTO 21010KT 9999 FEW009/// OVC020///
                        07/06 Q1017=
201911110200 METAR LROD 110200Z AUTO 20008KT 9999 OVC021/// 07/06 Q1017=
201911110230 METAR LROD 110230Z AUTO 21009KT 9999 SCT020/// 06/05 Q1017=
201911110300 METAR LROD 110300Z AUTO 19009KT 9000 FEW011/// 06/05 Q1018=
201911110330 METAR LROD 110330Z AUTO 19007KT 8000 NCD 05/04 Q1018=
201911110400 METAR LROD 110400Z AUTO 20009KT 9000 NCD 05/05 Q1018=
201911110430 METAR LROD 110430Z AUTO 20009KT 7000 NCD 05/04 Q1018=
201911110500 METAR LROD 110500Z 20009KT 8000 NSC 05/04 Q1018=
201911110530 METAR LROD 110530Z 20009KT 5000 BR FEW010 05/04 Q1019=
201911110600 METAR LROD 110600Z 20009KT 6000 NSC 05/04 Q1019=
201911110630 METAR LROD 110630Z 20009KT 6000 FEW010 05/05 Q1020=
201911110700 METAR LROD 110700Z 20011KT 5000 BR BKN003 06/05 Q1020=
201911110730 METAR LROD 110730Z 20010KT 7000 FEW003 BKN014 07/06 Q1020=
201911110800 METAR LROD 110800Z 21010KT 9999 FEW006 SCT014 08/06 Q1020=
201911110830 METAR LROD 110830Z 22012KT 9999 SCT014 08/06 Q1020=
201911110900 METAR LROD 110900Z 21011KT 9999 FEW012 09/06 Q1020=
201911110930 METAR LROD 110930Z 21012KT 9999 FEW015 10/05 Q1020=
201911111000 METAR LROD 111000Z 22012KT 9999 FEW016 10/06 Q1019=
201911111030 METAR LROD 111030Z 20011KT 9999 FEW018 11/06 Q1019=
201911111100 METAR LROD 111100Z 21009KT 180V240 9999 FEW020 11/06 Q1019=
201911111130 METAR LROD 111130Z 21008KT 170V230 CAVOK 12/05 Q1019=
201911111200 METAR LROD 111200Z 21007KT CAVOK 11/06 Q1019=
201911111230 METAR LROD 111230Z 24006KT CAVOK 11/06 Q1018=
201911111300 METAR LROD 111300Z 27006KT CAVOK 11/07 Q1018=
201911111330 METAR LROD 111330Z 29003KT CAVOK 11/07 Q1018=
201911111400 METAR LROD 111400Z 28002KT CAVOK 10/07 Q1018=
201911111430 METAR LROD 111430Z 31004KT CAVOK 10/07 Q1018=
201911111500 METAR LROD 111500Z 33003KT CAVOK 09/06 Q1018=
201911111530 METAR LROD 111530Z 34003KT CAVOK 08/06 Q1018=
201911111600 METAR LROD 111600Z 06005KT CAVOK 08/06 Q1017=
201911111630 METAR LROD 111630Z 07004KT CAVOK 08/06 Q1017=
201911111700 METAR LROD 111700Z 07002KT CAVOK 08/06 Q1017=
201911111730 METAR LROD 111730Z 11003KT CAVOK 07/06 Q1017=
201911111800 METAR LROD 111800Z 07002KT CAVOK 06/05 Q1017=
201911111830 METAR LROD 111830Z 08004KT CAVOK 06/05 Q1017=
201911111900 METAR LROD 111900Z 09005KT CAVOK 06/05 Q1016=
201911111930 METAR LROD 111930Z AUTO 10005KT 9000 NCD 06/05 Q1016=
201911112000 METAR LROD 112000Z AUTO 10005KT 9999 NCD 06/04 Q1017=
201911112030 METAR LROD 112030Z AUTO 09006KT 9999 NCD 06/04 Q1016=
201911112100 METAR LROD 112100Z AUTO 09006KT 9999 NCD 06/04 Q1016=
201911112130 METAR LROD 112130Z AUTO 09007KT 9999 NCD 06/04 Q1016=
201911112200 METAR LROD 112200Z AUTO 10007KT 9999 NCD 06/04 Q1016=
201911112230 METAR LROD 112230Z AUTO 10007KT 9999 NCD 06/04 Q1016=
201911112300 METAR LROD 112300Z AUTO 10007KT 9999 NCD 06/04 Q1016=
201911112330 METAR LROD 112330Z AUTO 10006KT 9999 NCD 06/05 Q1016=
201911120000 METAR LROD 120000Z AUTO 10007KT 9999 NCD 06/04 Q1016=
201911120030 METAR LROD 120030Z AUTO 09008KT 9999 NCD 06/04 Q1016=
201911120100 METAR LROD 120100Z AUTO 09007KT 9999 NCD 06/04 Q1015=
201911120130 METAR LROD 120130Z AUTO 09007KT 9999 NCD 07/04 Q1015=
201911120200 METAR LROD 120200Z AUTO 09008KT 9999 NCD 07/04 Q1014=
201911120230 METAR LROD 120230Z AUTO 09007KT 9999 NCD 07/04 Q1014=
201911120300 METAR LROD 120300Z AUTO 09007KT 9999 FEW070/// 07/04 Q1014=
201911120330 METAR LROD 120330Z AUTO 10006KT 9999 SCT070/// 07/04 Q1014=
201911120400 METAR LROD 120400Z AUTO 09008KT 9999 FEW070/// 07/04 Q1014=
201911120430 METAR LROD 120430Z AUTO 10007KT 9999 NCD 07/04 Q1014=
201911120500 METAR LROD 120500Z 10007KT CAVOK 07/04 Q1013=
201911120530 METAR LROD 120530Z 10007KT CAVOK 07/04 Q1013=
201911120600 METAR LROD 120600Z 09009KT CAVOK 08/04 Q1013=
201911120630 METAR LROD 120630Z 10008KT CAVOK 08/04 Q1013=
201911120700 METAR LROD 120700Z 10008KT CAVOK 10/05 Q1013=
201911120730 METAR LROD 120730Z 10007KT CAVOK 10/05 Q1013=
201911120800 METAR LROD 120800Z 10008KT CAVOK 12/06 Q1013=
201911120830 METAR LROD 120830Z 10008KT CAVOK 14/06 Q1012=
201911120900 METAR LROD 120900Z 10008KT 070V130 CAVOK 17/06 Q1012=
201911120930 METAR LROD 120930Z 09007KT CAVOK 16/07 Q1012=
201911121000 METAR LROD 121000Z 09007KT CAVOK 18/08 Q1011=
201911121030 METAR LROD 121030Z 12009KT 090V150 CAVOK 19/07 Q1011=
201911121100 METAR COR LROD 121100Z 12006KT 090V150 CAVOK 20/08 Q1010=
201911121130 METAR COR LROD 121130Z 12006KT 090V150 CAVOK 20/08 Q1010=
201911121200 METAR LROD 121200Z 12005KT CAVOK 20/08 Q1010=
201911121230 METAR LROD 121230Z 11003KT CAVOK 20/09 Q1010=
201911121300 METAR COR LROD 121300Z 08005KT CAVOK 19/09 Q1009=
201911121330 METAR LROD 121330Z 09005KT 060V120 CAVOK 19/09 Q1009=
201911121400 METAR LROD 121400Z 08006KT CAVOK 18/09 Q1008=
201911121430 METAR LROD 121430Z 09007KT CAVOK 18/09 Q1008=
201911121500 METAR LROD 121500Z 09006KT CAVOK 17/09 Q1008=
201911121530 METAR LROD 121530Z 09006KT CAVOK 16/09 Q1008=
201911121600 METAR LROD 121600Z 09008KT CAVOK 17/09 Q1008=
201911121630 METAR LROD 121630Z 09009KT CAVOK 17/09 Q1007=
201911121700 METAR LROD 121700Z 13014KT 100V160 CAVOK 20/08 Q1007=
201911121730 METAR LROD 121730Z 13015G25KT CAVOK 20/08 Q1007=
201911121800 METAR LROD 121800Z 13013KT CAVOK 20/08 Q1007=
201911121830 METAR LROD 121830Z 13010KT CAVOK 20/08 Q1007=
201911121900 METAR LROD 121900Z 13011KT CAVOK 20/08 Q1007=
201911121930 METAR LROD 121930Z AUTO 14011KT 9999 BKN150/// 20/08 Q1007=
201911122000 METAR LROD 122000Z AUTO 14012KT 9999 BKN150/// 20/08 Q1007=
201911122030 METAR LROD 122030Z AUTO 14010KT 9999 SCT190/// 20/08 Q1007=
201911122100 METAR LROD 122100Z AUTO 13009KT 9999 OVC170/// 21/08 Q1007=
201911122130 METAR LROD 122130Z AUTO 13008KT 9999 BKN150/// 21/08 Q1007=
201911122200 METAR LROD 122200Z AUTO 14010KT 9999 SCT180/// 21/08 Q1006=
201911122230 METAR LROD 122230Z AUTO 13011KT 9999 BKN200/// 21/08 Q1006=
201911122300 METAR LROD 122300Z AUTO 13010KT 100V160 9999 BKN190/// 21/08
                        Q1006=
201911122330 METAR LROD 122330Z AUTO 11008KT 9999 BKN130/// BKN200///
                        19/08 Q1006=
201911130000 METAR LROD 130000Z AUTO 09008KT 9999 SCT130/// BKN150///
                        17/09 Q1005=
201911130030 METAR LROD 130030Z AUTO 09007KT 9999 FEW130/// BKN150///
                        17/09 Q1005=
201911130100 METAR LROD 130100Z AUTO 10007KT 9999 FEW130/// BKN160///
                        16/09 Q1005=
201911130130 METAR LROD 130130Z AUTO 09006KT 9999 BKN120/// OVC150///
                        17/09 Q1005=
201911130200 METAR LROD 130200Z AUTO 09007KT 9999 FEW120/// SCT140///
                        16/09 Q1004=
201911130230 METAR LROD 130230Z AUTO 09006KT 9999 FEW100/// BKN150///
                        16/09 Q1004=
201911130300 METAR LROD 130300Z AUTO 09006KT 9999 FEW100/// BKN160///
                        16/09 Q1004=
201911130330 METAR LROD 130330Z AUTO 09006KT 9999 SCT100/// BKN140///
                        17/09 Q1003=
201911130400 METAR LROD 130400Z AUTO 09005KT 9999 BKN100/// 17/09 Q1003=
201911130430 METAR LROD 130430Z AUTO 10005KT 080V140 9999 BKN095/// 16/09
                        Q1003=
201911130500 METAR COR LROD 130500Z 09006KT CAVOK 15/09 Q1003=
201911130530 METAR LROD 130530Z 10003KT 070V220 CAVOK 15/09 Q1004=
201911130600 METAR LROD 130600Z 25006KT CAVOK 16/09 Q1005=
201911130630 METAR COR LROD 130630Z 22005KT 9999 -RA NSC 15/11 Q1005=
201911130700 METAR COR LROD 130700Z 22007KT CAVOK 15/11 Q1006=
201911130730 METAR LROD 130730Z 22006KT CAVOK 15/11 Q1006=
201911130800 METAR LROD 130800Z 21004KT CAVOK 15/11 Q1006=
201911130830 METAR LROD 130830Z 13004KT 100V170 CAVOK 15/11 Q1006=
201911130900 METAR LROD 130900Z 12006KT 080V160 CAVOK 15/11 Q1005=
201911130930 METAR LROD 130930Z 09005KT CAVOK 16/11 Q1005=
201911131000 METAR LROD 131000Z 09007KT CAVOK 16/11 Q1004=
201911131030 METAR LROD 131030Z 09009KT CAVOK 16/11 Q1003=
201911131100 METAR LROD 131100Z 08006KT 050V110 CAVOK 16/12 Q1003=
201911131130 METAR LROD 131130Z 08007KT CAVOK 17/11 Q1002=
201911131200 METAR LROD 131200Z 08008KT CAVOK 19/11 Q1002=
201911131230 METAR LROD 131230Z 12005KT 070V170 CAVOK 19/11 Q1002=
201911131300 METAR LROD 131300Z 23007KT 170V250 CAVOK 21/12 Q1002=
201911131330 METAR LROD 131330Z 23002KT CAVOK 19/12 Q1002=
201911131400 METAR LROD 131400Z 14006KT CAVOK 21/09 Q1002=
201911131430 METAR COR LROD 131430Z 17007KT CAVOK 19/10 Q1002=
201911131500 METAR COR LROD 131500Z 18006KT CAVOK 17/09 Q1003=
201911131530 METAR LROD 131530Z 19005KT 160V220 CAVOK 16/09 Q1003=
201911131600 METAR LROD 131600Z 19007KT CAVOK 13/09 Q1003=
201911131630 METAR COR LROD 131630Z 16008KT CAVOK 17/10 Q1003=
201911131700 METAR LROD 131700Z 18005KT CAVOK 15/09 Q1004=
201911131730 METAR LROD 131730Z 16005KT CAVOK 16/09 Q1004=
201911131800 METAR LROD 131800Z 15005KT CAVOK 17/09 Q1004=
201911131830 METAR LROD 131830Z 15003KT 110V170 CAVOK 14/09 Q1004=
201911131900 METAR LROD 131900Z 00000KT CAVOK 14/09 Q1005=
201911131930 METAR LROD 131930Z AUTO 11002KT 9999 NCD 12/08 Q1005=
201911132000 METAR LROD 132000Z AUTO 15003KT 9999 SCT095/// BKN130///
                        12/09 Q1006=
201911132030 METAR LROD 132030Z AUTO 12006KT 9999 SCT090/// BKN120///
                        13/09 Q1006=
201911132100 METAR LROD 132100Z AUTO 11007KT 9999 SCT090/// BKN140///
                        14/09 Q1006=
201911132130 METAR LROD 132130Z AUTO 10005KT 9999 OVC080/// 13/09 Q1006=
201911132200 METAR LROD 132200Z AUTO 11007KT 9999 BKN080/// 14/09 Q1006=
201911132230 METAR LROD 132230Z AUTO 11006KT 9999 BKN080/// OVC095///
                        15/09 Q1007=
201911132300 METAR LROD 132300Z AUTO 12006KT 090V160 9999 BKN080/// 15/09
                        Q1007=
201911132330 METAR LROD 132330Z AUTO 13006KT 9999 -RA OVC075/// 16/09
                        Q1007=
201911140000 METAR LROD 140000Z AUTO 16006KT 9999 BKN075/// 16/09 Q1008
                        RERA=
201911140030 METAR LROD 140030Z AUTO 15004KT 120V180 9999 -SHRA SCT050///
                        OVC075/// 16/09 Q1008=
201911140100 METAR LROD 140100Z AUTO 20006KT 170V230 9999 BKN050/// 16/10
                        Q1008 REDZ=
201911140130 METAR LROD 140130Z AUTO 26007KT 9999 OVC045/// 15/10 Q1009
                        REDZ=
201911140200 METAR LROD 140200Z AUTO 22006KT 9999 FEW050/// SCT095///
                        14/10 Q1009=
201911140230 METAR LROD 140230Z AUTO 20008KT 9999 FEW055/// SCT070///
                        BKN090/// 14/11 Q1009=
201911140300 METAR LROD 140300Z AUTO 18007KT 9999 SCT045/// BKN060///
                        BKN090/// 13/11 Q1009=
201911140330 METAR LROD 140330Z AUTO 21007KT 9999 BKN047/// 14/11 Q1009=
201911140400 METAR LROD 140400Z AUTO 20006KT 9999 SCT042/// BKN050///
                        OVC085/// 14/11 Q1010=
201911140430 METAR LROD 140430Z AUTO 23006KT 9999 OVC043/// 14/11 Q1010=
201911140500 METAR LROD 140500Z 23005KT CAVOK 13/11 Q1010=
201911140530 METAR LROD 140530Z 24004KT 9999 FEW046 13/11 Q1010=
201911140600 METAR LROD 140600Z 16003KT 9999 FEW047 13/11 Q1011=
201911140630 METAR LROD 140630Z 22004KT 9999 FEW047 12/11 Q1011=
201911140700 METAR LROD 140700Z 20006KT 9999 FEW047 13/11 Q1011=
201911140730 METAR LROD 140730Z 10005KT 080V140 9999 FEW043 13/11 Q1011=
201911140800 METAR LROD 140800Z VRB01KT 9999 FEW037 14/12 Q1011=
201911140830 METAR LROD 140830Z VRB01KT 9999 FEW038 14/12 Q1012=
201911140900 METAR LROD 140900Z 10002KT 9999 -RA FEW039 15/12 Q1012=
201911140930 METAR LROD 140930Z VRB02KT 9999 FEW039 15/11 Q1011=
201911141000 METAR LROD 141000Z 14002KT CAVOK 16/12 Q1011=
201911141030 METAR LROD 141030Z 00000KT CAVOK 16/12 Q1011=
201911141100 METAR LROD 141100Z 00000KT CAVOK 16/12 Q1011=
201911141130 METAR LROD 141130Z 30003KT CAVOK 16/12 Q1011=
201911141200 METAR LROD 141200Z 32004KT 290V360 CAVOK 16/13 Q1011=
201911141230 METAR LROD 141230Z 31006KT CAVOK 15/13 Q1011=
201911141300 METAR COR LROD 141300Z 33007KT CAVOK 14/13 Q1011=
201911141330 METAR LROD 141330Z 35006KT CAVOK 14/13 Q1011=
201911141400 METAR LROD 141400Z 36006KT CAVOK 14/12 Q1011=
201911141430 METAR LROD 141430Z 35004KT CAVOK 14/12 Q1011=
201911141500 METAR LROD 141500Z 36005KT CAVOK 14/12 Q1011=
201911141530 METAR LROD 141530Z 36005KT 7000 -RA NSC 14/12 Q1011=
201911141600 METAR LROD 141600Z 34004KT 9000 -RA NSC 13/12 Q1011=
201911141630 METAR LROD 141630Z 36004KT 9000 -RA NSC 13/12 Q1011=
201911141700 METAR LROD 141700Z 02001KT 8000 NSC 13/12 Q1011 R01/19//95=
201911141730 METAR COR LROD 141730Z 04002KT 8000 -RA NSC 13/12 Q1011 R01/19//95=
201911141800 METAR LROD 141800Z 05003KT 8000 -RA NSC 13/12 Q1011 R01/19//95=
201911141830 METAR LROD 141830Z 05002KT 8000 -RA NSC 13/12 Q1012 R01/19//95=
201911141900 METAR LROD 141900Z 00000KT 5000 -RA NSC 13/12 Q1012 R01/19//95=
201911141930 METAR LROD 141930Z AUTO 10003KT 5000 OVC075/// 13/12 Q1012
                        RERA=
201911142000 METAR LROD 142000Z AUTO 09003KT 5000 -SHRA BKN075/// BKN110///
                        13/12 Q1012=
201911142030 METAR LROD 142030Z AUTO 09003KT 6000 BKN070/// OVC100///
                        13/12 Q1012 RERA=
201911142100 METAR LROD 142100Z AUTO 12004KT 6000 OVC070/// 13/12 Q1012=
201911142130 METAR LROD 142130Z AUTO 11004KT 6000 -DZ OVC070/// 13/12
                        Q1012=
201911142200 METAR LROD 142200Z AUTO 11004KT 7000 -RA BKN065/// 12/12
                        Q1012=
201911142230 METAR LROD 142230Z AUTO 10002KT 6000 -RA BKN050/// OVC075///
                        12/12 Q1012=
201911142300 METAR LROD 142300Z AUTO 00000KT 4700 -RA BKN070/// BKN085///
                        12/11 Q1012=
201911142330 METAR LROD 142330Z AUTO 00000KT 2300 R19/0750VP2000D FG FEW080///
                        BKN110/// 11/11 Q1012=
201911150000 METAR LROD 150000Z AUTO 12004KT 4400 FEW048/// BKN090///
                        11/11 Q1012=
201911150030 METAR LROD 150030Z AUTO 13003KT 5000 FEW055/// BKN080///
                        11/11 Q1012=
201911150100 METAR LROD 150100Z AUTO 10003KT 5000 BR BKN045/// OVC100///
                        11/11 Q1012=
201911150130 METAR LROD 150130Z AUTO 10002KT 4300 BR BKN065/// 11/11 Q1012=
201911150200 METAR LROD 150200Z AUTO 12002KT 4800 BKN070/// OVC095///
                        11/11 Q1012=
201911150230 METAR LROD 150230Z AUTO 12002KT 5000 FEW031/// SCT040///
                        BKN055/// 11/11 Q1012=
201911150300 METAR LROD 150300Z AUTO 11003KT 5000 BR FEW033 BKN038 11/11
                        Q1013=
201911150330 METAR LROD 150330Z AUTO 11004KT 6000 DZ FEW038/// SCT045///
                        BKN085/// 11/11 Q1013=
201911150400 METAR LROD 150400Z AUTO 10003KT 080V140 6000 SCT045/// BKN065///
                        12/11 Q1013 REDZ=
201911150430 METAR LROD 150430Z AUTO 09003KT 6000 -SHRA SCT055/// BKN070///
                        12/11 Q1013=
201911150500 METAR COR LROD 150500Z 10003KT 9999 -RA NSC 11/11 Q1013 R01/19//95=
201911150530 METAR LROD 150530Z 11003KT 9999 FEW015 12/11 Q1013 R01/19//95=
201911150600 METAR LROD 150600Z 08003KT 9999 FE015 SCT043 12/11 Q1013
                        R01/19//95=
201911150630 METAR LROD 150630Z 10003KT 9999 FEW020 12/11 Q1014 R01/19//95=
201911150700 METAR LROD 150700Z VRB01KT 9999 SCT045 12/12 Q1014 R01/19//95=
201911150730 METAR LROD 150730Z 17002KT 9999 SCT041 12/12 Q1014 R01/19//95=
201911150800 METAR LROD 150800Z 00000KT 9000 SCT041 13/12 Q1014 R01/19//95=
201911150830 METAR LROD 150830Z 19004KT 160V220 9999 FEW015 14/13 Q1014
                        R01/19//95=
201911150900 METAR LROD 150900Z 20006KT 170V230 9999 FEW013 15/13 Q1014
                        R01/19//95=
201911150930 METAR LROD 150930Z 21006KT 9999 SCT011 15/12 Q1014 R01/19//95=
201911151000 METAR LROD 151000Z 24010KT 9999 SCT008 SCT016 14/13 Q1014
                        R01/19//95=
201911151030 METAR LROD 151030Z 23007KT 8000 BKN003 14/13 Q1014 R01/19//95=
201911151100 METAR LROD 151100Z 23005KT 170V260 9999 SCT004 14/13 Q1014
                        R01/19//95=
201911151130 METAR LROD 151130Z 25006KT 210V290 9999 SCT005 15/13 Q1014
                        R01/19//95=
201911151200 METAR LROD 151200Z 27007KT 240V300 9999 FEW006 15/13 Q1014
                        R01/19//95=
201911151230 METAR COR LROD 151230Z 28004KT 250V320 9999 NCD 14/12 Q1014
                        R01/19//95=
201911151300 METAR LROD 151300Z 30004KT 270V340 CAVOK 14/12 Q1014 R01/19//95=
201911151330 METAR LROD 151330Z 30003KT CAVOK 14/12 Q1014 R01/19//95=
201911151400 METAR LROD 151400Z 33004KT CAVOK 14/12 Q1014 R01/19//95=
201911151430 METAR LROD 151430Z 33005KT CAVOK 13/12 Q1014 R01/19//95=
201911151500 METAR LROD 151500Z 04004KT CAVOK 13/11 Q1014 R01/19//95=
201911151530 METAR LROD 151530Z 06003KT CAVOK 12/11 Q1014 R01/19//95=
201911151600 METAR LROD 151600Z 07003KT CAVOK 12/11 Q1015 R01/19//95=
201911151630 METAR LROD 151630Z 15001KT CAVOK 11/10 Q1015 R01/19//95=
201911151700 METAR LROD 151700Z 12001KT CAVOK 10/10 Q1015 R01/19//95=
201911151730 METAR LROD 151730Z 09003KT CAVOK 11/10 Q1015 R01/CLRD//=
201911151800 METAR LROD 151800Z 11006KT CAVOK 11/11 Q1015=
201911151830 METAR COR LROD 151830Z 10006KT CAVOK 12/11 Q1015=
201911151900 METAR LROD 151900Z 10005KT CAVOK 11/10 Q1015=
201911151930 METAR LROD 151930Z AUTO 10006KT 5000 BR NCD 10/10 Q1015=
201911152000 METAR LROD 152000Z AUTO 10006KT 8000 NCD 10/09 Q1015=
201911152030 METAR LROD 152030Z AUTO 10006KT 9999 NCD 10/09 Q1015=
201911152100 METAR LROD 152100Z AUTO 10006KT 9999 NCD 10/09 Q1015=
201911152130 METAR LROD 152130Z AUTO 10006KT 9999 NCD 10/09 Q1015=
201911152200 METAR LROD 152200Z AUTO 10006KT 9999 NCD 10/08 Q1015=
201911152230 METAR LROD 152230Z AUTO 10006KT 9999 NCD 11/08 Q1015=
201911152300 METAR LROD 152300Z AUTO 10006KT 9999 NCD 11/08 Q1015=
201911152330 METAR LROD 152330Z AUTO 10006KT 9999 NCD 11/08 Q1015=
201911160000 METAR LROD 160000Z AUTO 10006KT 9999 NCD 11/08 Q1015=
201911160030 METAR LROD 160030Z AUTO 11006KT 9999 NCD 11/07 Q1015=
201911160100 METAR LROD 160100Z AUTO 10006KT 9999 NCD 11/07 Q1015=
201911160130 METAR LROD 160130Z AUTO 10006KT 9999 NCD 11/07 Q1015=
201911160200 METAR LROD 160200Z AUTO 10007KT 9999 NCD 10/07 Q1015=
201911160230 METAR LROD 160230Z AUTO 10007KT 9999 NCD 10/07 Q1015=
201911160300 METAR LROD 160300Z AUTO 11006KT 9999 NCD 11/07 Q1015=
201911160330 METAR LROD 160330Z AUTO 11006KT 9999 NCD 11/07 Q1015=
201911160400 METAR LROD 160400Z AUTO 11006KT 9999 NCD 11/07 Q1015=
201911160430 METAR LROD 160430Z AUTO 12006KT 9999 NCD 12/07 Q1016=
201911160500 METAR LROD 160500Z 13007KT CAVOK 13/08 Q1015=
201911160530 METAR LROD 160530Z 13006KT CAVOK 14/07 Q1016=
201911160600 METAR LROD 160600Z 13006KT CAVOK 14/08 Q1016=
201911160630 METAR LROD 160630Z 13006KT CAVOK 14/08 Q1016=
201911160700 METAR COR LROD 160700Z 13006KT CAVOK 16/08 Q1016=
201911160730 METAR LROD 160730Z 15005KT CAVOK 17/09 Q1017=
201911160800 METAR LROD 160800Z 16010KT CAVOK 18/08 Q1017=
201911160830 METAR LROD 160830Z 17012KT CAVOK 20/08 Q1017=
201911160900 METAR LROD 160900Z 18015KT CAVOK 20/07 Q1017=
201911160930 METAR LROD 160930Z 18014KT CAVOK 20/07 Q1017=
201911161000 METAR LROD 161000Z 18015KT CAVOK 20/07 Q1017=
201911161030 METAR LROD 161030Z 19016KT CAVOK 21/07 Q1017=
201911161100 METAR LROD 161100Z 19015KT CAVOK 21/07 Q1017=
201911161130 METAR COR LROD 161130Z 19014KT CAVOK 20/08 Q1017=
201911161200 METAR LROD 161200Z 19013KT CAVOK 21/08 Q1017=
201911161230 METAR LROD 161230Z 19013KT CAVOK 20/08 Q1017=
201911161300 METAR LROD 161300Z 19013KT CAVOK 20/07 Q1017=
201911161330 METAR LROD 161330Z 19010KT CAVOK 19/08 Q1017=
201911161400 METAR LROD 161400Z 18007KT CAVOK 19/08 Q1017=
201911161430 METAR LROD 161430Z 06003KT CAVOK 18/07 Q1018=
201911161500 METAR LROD 161500Z 10003KT CAVOK 18/07 Q1018=
201911161530 METAR LROD 161530Z VRB02KT CAVOK 15/07 Q1018=
201911161600 METAR LROD 161600Z 36004KT CAVOK 15/08 Q1018=
201911161630 METAR LROD 161630Z VRB02KT CAVOK 13/08 Q1018=
201911161700 METAR LROD 161700Z 12005KT CAVOK 13/08 Q1018=
201911161730 METAR LROD 161730Z 10005KT CAVOK 14/07 Q1018=
201911161800 METAR LROD 161800Z 10006KT CAVOK 13/07 Q1018=
201911161830 METAR LROD 161830Z 11007KT CAVOK 12/07 Q1018=
201911161900 METAR LROD 161900Z 10005KT CAVOK 12/07 Q1018=
201911161930 METAR LROD 161930Z AUTO 10006KT 9999 OVC240/// 11/07 Q1018=
201911162000 METAR LROD 162000Z AUTO 10006KT 9999 SCT240/// 11/07 Q1018=
201911162030 METAR LROD 162030Z AUTO 11005KT 9999 FEW240/// 11/07 Q1018=
201911162100 METAR LROD 162100Z AUTO 10006KT 9999 NCD 11/07 Q1018=
201911162130 METAR LROD 162130Z AUTO 11005KT 9999 NCD 11/07 Q1018=
201911162200 METAR LROD 162200Z AUTO 11006KT 9999 NCD 10/07 Q1018=
201911162230 METAR LROD 162230Z AUTO 10006KT 9999 NCD 10/07 Q1018=
201911162300 METAR LROD 162300Z AUTO 11006KT 9999 NCD 10/07 Q1018=
201911162330 METAR LROD 162330Z AUTO 11006KT 9999 FEW230/// 09/06 Q1018=
201911170000 METAR LROD 170000Z AUTO 11005KT 9999 BKN220/// 09/06 Q1018=
201911170030 METAR LROD 170030Z AUTO 11006KT 9999 FEW210/// 09/06 Q1018=
201911170100 METAR LROD 170100Z AUTO 10006KT 9999 FEW240/// 10/06 Q1018=
201911170130 METAR LROD 170130Z AUTO 12006KT 9999 NCD 09/06 Q1018=
201911170200 METAR LROD 170200Z AUTO 11006KT 9999 BKN210/// 09/06 Q1018=
201911170230 METAR LROD 170230Z AUTO 10005KT 9999 BKN210/// 10/06 Q1017=
201911170300 METAR LROD 170300Z AUTO 11005KT 9999 FEW230/// 09/06 Q1017=
201911170330 METAR LROD 170330Z AUTO 11006KT 9999 NCD 09/05 Q1017=
201911170400 METAR LROD 170400Z AUTO 10006KT 9999 NCD 10/05 Q1017=
201911170430 METAR LROD 170430Z AUTO 10006KT 9999 NCD 09/05 Q1017=
201911170500 METAR LROD 170500Z 10006KT CAVOK 10/05 Q1018=
201911170530 METAR LROD 170530Z 10006KT CAVOK 10/05 Q1018=
201911170600 METAR LROD 170600Z 10006KT CAVOK 09/05 Q1018=
201911170630 METAR LROD 170630Z 09006KT CAVOK 10/05 Q1018=
201911170700 METAR LROD 170700Z 09006KT CAVOK 11/05 Q1018=
201911170730 METAR LROD 170730Z 11006KT CAVOK 13/06 Q1018=
201911170800 METAR LROD 170800Z 11006KT CAVOK 14/06 Q1018=
201911170830 METAR LROD 170830Z 10006KT CAVOK 15/07 Q1018=
201911170900 METAR LROD 170900Z 09004KT CAVOK 17/07 Q1017=
201911170930 METAR LROD 170930Z 08004KT CAVOK 17/07 Q1017=
201911171000 METAR LROD 171000Z 09004KT CAVOK 18/07 Q1017=
201911171030 METAR LROD 171030Z 10003KT CAVOK 19/07 Q1017=
201911171100 METAR LROD 171100Z 29004KT CAVOK 18/11 Q1016=
201911171130 METAR LROD 171130Z 33006KT CAVOK 18/10 Q1016=
201911171200 METAR LROD 171200Z 31002KT CAVOK 18/11 Q1016=
201911171230 METAR LROD 171230Z 29003KT CAVOK 17/11 Q1016=
201911171300 METAR LROD 171300Z 28003KT CAVOK 16/11 Q1016=
201911171330 METAR LROD 171330Z 25005KT CAVOK 16/12 Q1016=
201911171400 METAR LROD 171400Z 28005KT CAVOK 15/12 Q1016=
201911171430 METAR LROD 171430Z 36004KT CAVOK 14/10 Q1015=
201911171500 METAR LROD 171500Z 05001KT CAVOK 14/10 Q1015=
201911171530 METAR LROD 171530Z 16003KT CAVOK 12/10 Q1015=
201911171600 METAR LROD 171600Z 11002KT CAVOK 10/09 Q1015=
201911171630 METAR LROD 171630Z 08004KT CAVOK 11/10 Q1015=
201911171700 METAR LROD 171700Z 10006KT CAVOK 11/09 Q1015=
201911171730 METAR LROD 171730Z 11007KT CAVOK 10/08 Q1015=
201911171800 METAR LROD 171800Z 09007KT CAVOK 11/07 Q1014=
201911171830 METAR LROD 171830Z 09005KT 050V110 CAVOK 11/07 Q1015=
201911171900 METAR LROD 171900Z 09004KT CAVOK 11/07 Q1014=
201911171930 METAR LROD 171930Z AUTO 11003KT 9999 BKN240/// 10/06 Q1014=
201911172000 METAR LROD 172000Z AUTO 12004KT 9999 BKN230/// 08/06 Q1014=
201911172030 METAR LROD 172030Z AUTO 13006KT 9999 BKN240/// 09/06 Q1014=
201911172100 METAR LROD 172100Z AUTO 11007KT 9999 FEW240/// 09/06 Q1014=
201911172130 METAR LROD 172130Z AUTO 10006KT 9999 NCD 09/06 Q1014=
201911172200 METAR LROD 172200Z AUTO 13005KT 9999 NCD 08/05 Q1015=
201911172230 METAR LROD 172230Z AUTO 09006KT 9999 NCD 08/06 Q1015=
201911172300 METAR LROD 172300Z AUTO 12005KT 9999 NCD 08/06 Q1014=
201911172330 METAR LROD 172330Z AUTO 10006KT 9999 NCD 08/06 Q1014=
201911180000 METAR LROD 180000Z AUTO 11007KT 9999 NCD 08/06 Q1014=
201911180030 METAR LROD 180030Z AUTO 10006KT 9999 NCD 09/06 Q1014=
201911180100 METAR LROD 180100Z AUTO 10007KT 9999 NCD 08/05 Q1014=
201911180130 METAR LROD 180130Z AUTO 11006KT 9999 NCD 08/05 Q1014=
201911180200 METAR LROD 180200Z AUTO 12005KT 9999 NCD 07/05 Q1013=
201911180230 METAR LROD 180230Z AUTO 12005KT 9999 NCD 08/05 Q1013=
201911180300 METAR LROD 180300Z AUTO 12007KT 9999 NCD 07/05 Q1013=
201911180330 METAR LROD 180330Z AUTO 11004KT 9999 NCD 07/05 Q1013=
201911180400 METAR LROD 180400Z AUTO 10007KT 9999 NCD 07/05 Q1013=
201911180430 METAR LROD 180430Z AUTO 10005KT 9999 NCD 08/06 Q1012=
201911180500 METAR LROD 180500Z 10005KT CAVOK 09/06 Q1013=
201911180530 METAR LROD 180530Z 11006KT CAVOK 08/06 Q1013=
201911180600 METAR LROD 180600Z 10006KT CAVOK 09/06 Q1013=
201911180630 METAR LROD 180630Z 10006KT CAVOK 10/07 Q1013=
201911180700 METAR LROD 180700Z 10006KT CAVOK 12/07 Q1013=
201911180730 METAR LROD 180730Z 10006KT CAVOK 13/08 Q1013=
201911180800 METAR LROD 180800Z 11005KT CAVOK 14/08 Q1014=
201911180830 METAR LROD 180830Z 10005KT CAVOK 13/08 Q1014=
201911180900 METAR LROD 180900Z 10004KT CAVOK 14/08 Q1014=
201911180930 METAR LROD 180930Z 10004KT CAVOK 14/09 Q1014=
201911181000 METAR LROD 181000Z 12004KT CAVOK 14/09 Q1014=
201911181030 METAR LROD 181030Z 16005KT 130V190 CAVOK 15/10 Q1015=
201911181100 METAR LROD 181100Z 17009KT 9999 -RA NSC 16/10 Q1015=
201911181130 METAR LROD 181130Z 18012KT CAVOK 17/09 Q1015=
201911181200 METAR LROD 181200Z 19015KT CAVOK 17/10 Q1015=
201911181230 METAR LROD 181230Z 18015KT CAVOK 17/10 Q1015=
201911181300 METAR LROD 181300Z 19016KT CAVOK 17/10 Q1015=
201911181330 METAR COR LROD 181330Z 19012KT CAVOK 16/10 Q1016=
201911181400 METAR LROD 181400Z 19013KT CAVOK 16/10 Q1016=
201911181430 METAR LROD 181430Z 19013KT 9999 FEW039 16/10 Q1016=
201911181500 METAR LROD 181500Z 21010KT CAVOK 16/10 Q1017=
201911181530 METAR LROD 181530Z 20008KT CAVOK 15/10 Q1018=
201911181600 METAR LROD 181600Z 18008KT CAVOK 14/10 Q1018=
201911181630 METAR LROD 181630Z 20009KT CAVOK 14/10 Q1018=
201911181700 METAR LROD 181700Z 21008KT CAVOK 13/10 Q1019=
201911181730 METAR LROD 181730Z 22009KT CAVOK 12/09 Q1019=
201911181800 METAR LROD 181800Z 21008KT CAVOK 11/08 Q1020=
201911181830 METAR LROD 181830Z 21007KT CAVOK 09/07 Q1020=
201911181900 METAR LROD 181900Z 21006KT CAVOK 08/06 Q1020=
201911181930 METAR LROD 181930Z AUTO 11005KT 9999 NCD 09/07 Q1021=
201911182000 METAR LROD 182000Z AUTO 15004KT 9999 NCD 09/06 Q1021=
201911182030 METAR LROD 182030Z AUTO 12005KT 9999 NCD 07/06 Q1021=
201911182100 METAR LROD 182100Z AUTO 16005KT 9999 NCD 08/05 Q1022=
201911182130 METAR LROD 182130Z AUTO 15005KT 9999 NCD 07/05 Q1022=
201911182200 METAR LROD 182200Z AUTO 11006KT 9999 NCD 07/05 Q1022=
201911182230 METAR LROD 182230Z AUTO 10006KT 9999 NCD 07/05 Q1022=
201911182300 METAR LROD 182300Z AUTO 10006KT 9999 NCD 06/05 Q1022=
201911182330 METAR LROD 182330Z AUTO 11006KT 9999 NCD 05/04 Q1023=
201911190000 METAR LROD 190000Z AUTO 10007KT 9999 NCD 05/04 Q1023=
201911190030 METAR LROD 190030Z AUTO 10006KT 9999 NCD 05/04 Q1023=
201911190100 METAR LROD 190100Z AUTO 10007KT 9999 NCD 05/04 Q1023=
201911190130 METAR LROD 190130Z AUTO 11006KT 9999 NCD 05/04 Q1023=
201911190200 METAR LROD 190200Z AUTO 09006KT 9999 NCD 05/04 Q1023=
201911190230 METAR LROD 190230Z AUTO 08007KT 9999 NCD 07/05 Q1023=
201911190300 METAR LROD 190300Z AUTO 09006KT 9999 NCD 07/05 Q1023=
201911190330 METAR LROD 190330Z AUTO 08007KT 9999 NCD 07/05 Q1023=
201911190400 METAR LROD 190400Z AUTO 09007KT 9999 NCD 06/05 Q1023=
201911190430 METAR LROD 190430Z AUTO 09008KT 9999 NCD 06/05 Q1023=
201911190500 METAR LROD 190500Z 09007KT CAVOK 06/05 Q1023=
201911190530 METAR LROD 190530Z 09007KT CAVOK 06/04 Q1023=
201911190600 METAR LROD 190600Z 09006KT CAVOK 05/04 Q1023=
201911190630 METAR LROD 190630Z 09007KT CAVOK 06/05 Q1023=
201911190700 METAR COR LROD 190700Z 08008KT CAVOK 08/05 Q1023=
201911190730 METAR COR LROD 190730Z 10008KT CAVOK 09/05 Q1023=
201911190800 METAR LROD 190800Z 09008KT CAVOK 09/06 Q1023=
201911190830 METAR LROD 190830Z 10007KT CAVOK 11/07 Q1023=
201911190900 METAR COR LROD 190900Z 10007KT CAVOK 11/07 Q1023=
201911190930 METAR LROD 190930Z 09006KT CAVOK 14/07 Q1023=
201911191000 METAR COR LROD 191000Z 09006KT CAVOK 15/06 Q1022=
201911191030 METAR LROD 191030Z 09005KT CAVOK 17/07 Q1022=
201911191100 METAR LROD 191100Z 08005KT 040V120 CAVOK 18/05 Q1022=
201911191130 METAR LROD 191130Z 08006KT 050V110 CAVOK 19/03 Q1022=
201911191200 METAR COR LROD 191200Z 09004KT 040V130 CAVOK 19/03 Q1021=
201911191230 METAR LROD 191230Z VRB02KT CAVOK 19/03 Q1021=
201911191300 METAR LROD 191300Z VRB02KT CAVOK 19/03 Q1021=
201911191330 METAR LROD 191330Z 29003KT CAVOK 17/08 Q1021=
201911191400 METAR LROD 191400Z 28002KT CAVOK 16/10 Q1021=
201911191430 METAR LROD 191430Z 04004KT CAVOK 14/08 Q1021=
201911191500 METAR LROD 191500Z 07005KT CAVOK 14/07 Q1021=
201911191530 METAR LROD 191530Z 12001KT CAVOK 10/07 Q1021=
201911191600 METAR LROD 191600Z 10002KT CAVOK 09/08 Q1021=
201911191630 METAR LROD 191630Z 08003KT CAVOK 10/09 Q1021=
201911191700 METAR LROD 191700Z 10003KT CAVOK 09/06 Q1021=
201911191730 METAR LROD 191730Z 10005KT CAVOK 10/06 Q1021=
201911191800 METAR LROD 191800Z 11006KT CAVOK 09/06 Q1021=
201911191830 METAR LROD 191830Z 10006KT CAVOK 10/06 Q1020=
201911191900 METAR LROD 191900Z 10006KT CAVOK 09/06 Q1021=
201911191930 METAR LROD 191930Z AUTO 09005KT 9999 NCD 09/06 Q1021=
201911192000 METAR LROD 192000Z AUTO 10006KT 9999 BKN230/// 10/06 Q1021=
201911192030 METAR LROD 192030Z AUTO 10005KT 9999 BKN240/// 09/06 Q1021=
201911192100 METAR LROD 192100Z AUTO 11006KT 9999 BKN220/// 08/06 Q1021=
201911192130 METAR LROD 192130Z AUTO 11006KT 9999 BKN210/// 08/06 Q1021=
201911192200 METAR LROD 192200Z AUTO 11006KT 9999 BKN230/// 08/05 Q1021=
201911192230 METAR LROD 192230Z AUTO 11006KT 9999 BKN230/// 08/05 Q1020=
201911192300 METAR LROD 192300Z AUTO 11007KT 9999 BKN230/// 07/05 Q1020=
201911192330 METAR LROD 192330Z AUTO 10006KT 9999 BKN220/// 08/05 Q1020=
201911200000 METAR LROD 200000Z AUTO 10005KT 9999 BKN210/// 08/05 Q1019=
201911200030 METAR LROD 200030Z AUTO 10005KT 9999 SCT220/// 08/05 Q1019=
201911200100 METAR LROD 200100Z AUTO 10006KT 9999 BKN210/// 08/05 Q1019=
201911200130 METAR LROD 200130Z AUTO 09006KT 9999 BKN220/// 08/05 Q1019=
201911200200 METAR LROD 200200Z AUTO 10005KT 9999 BKN220/// 09/05 Q1019=
201911200230 METAR LROD 200230Z AUTO 10006KT 9999 BKN200/// 08/04 Q1019=
201911200300 METAR LROD 200300Z AUTO 08007KT 9999 BKN210/// 08/04 Q1018=
201911200330 METAR LROD 200330Z AUTO 09006KT 9999 BKN210/// 08/04 Q1018=
201911200400 METAR LROD 200400Z AUTO 08006KT 9999 BKN200/// 08/04 Q1018=
201911200430 METAR LROD 200430Z AUTO 09007KT 9999 BKN200/// 08/04 Q1018=
201911200500 METAR LROD 200500Z 08007KT CAVOK 08/04 Q1017=
201911200530 METAR LROD 200530Z 09007KT CAVOK 08/03 Q1017=
201911200600 METAR LROD 200600Z 08008KT CAVOK 08/03 Q1017=
201911200630 METAR LROD 200630Z 08008KT CAVOK 09/03 Q1017=
201911200700 METAR LROD 200700Z 09007KT CAVOK 09/03 Q1017=
201911200730 METAR LROD 200730Z 08006KT CAVOK 09/04 Q1016=
201911200800 METAR LROD 200800Z 10007KT CAVOK 11/04 Q1016=
201911200830 METAR LROD 200830Z 09007KT CAVOK 11/04 Q1016=
201911200900 METAR LROD 200900Z 10006KT CAVOK 13/04 Q1016=
201911200930 METAR LROD 200930Z 09006KT CAVOK 14/04 Q1016=
201911201000 METAR LROD 201000Z 09007KT CAVOK 15/05 Q1015=
201911201030 METAR LROD 201030Z 09005KT CAVOK 16/05 Q1015=
201911201100 METAR LROD 201100Z 08007KT CAVOK 16/04 Q1014=
201911201130 METAR LROD 201130Z 07006KT CAVOK 16/05 Q1014=
201911201200 METAR LROD 201200Z VRB02KT CAVOK 16/05 Q1015=
201911201230 METAR COR LROD 201230Z 25004KT CAVOK 15/07 Q1015=
201911201300 METAR LROD 201300Z 31004KT CAVOK 14/09 Q1015=
201911201330 METAR LROD 201330Z 34004KT CAVOK 14/08 Q1015=
201911201400 METAR LROD 201400Z 26003KT 230V310 9999 -RA NSC 13/09 Q1015=
201911201430 METAR LROD 201430Z 27004KT CAVOK 12/10 Q1015=
201911201500 METAR LROD 201500Z 32001KT 9999 -RA NSC 12/10 Q1015=
201911201530 METAR LROD 201530Z 32004KT 9999 -RA NSC 13/09 Q1015=
201911201600 METAR LROD 201600Z 34003KT 7000 RA NSC 12/10 Q1015 R01/29//95=
201911201630 METAR LROD 201630Z 06003KT 010V100 6000 RA FEW038 12/10 Q1016
                        R01/29//95=
201911201700 METAR LROD 201700Z 13005KT 5000 RA FEW015 11/10 Q1016 R01/29//95=
201911201730 METAR LROD 201730Z 13004KT 100V160 5000 RA FEW015 SCT045
                        11/10 Q1016 R01/29//95=
201911201800 METAR LROD 201800Z 10005KT 4400 RA FEW021 OVC045 11/11 Q1016
                        R01/29//95=
201911201830 METAR LROD 201830Z 09009KT 5000 RA FEW020 OVC045 11/10 Q1016
                        R01/29//95=
201911201900 METAR LROD 201900Z 09009KT 5000 RA FEW020 OVC050 11/11 Q1016
                        R01/29//95=
201911201930 METAR LROD 201930Z AUTO 08009KT 6000 -RA BKN055/// OVC070///
                        11/10 Q1015=
201911202000 METAR LROD 202000Z AUTO 08010KT 6000 -RA BKN055/// 11/10
                        Q1015=
201911202030 METAR LROD 202030Z AUTO 09008KT 6000 SCT060/// BKN170///
                        11/10 Q1015 RERA=
201911202100 METAR LROD 202100Z AUTO 08010KT 8000 FEW055/// BKN075///
                        OVC180/// 11/10 Q1015=
201911202130 METAR LROD 202130Z AUTO 09009KT 7000 SCT065/// BKN090///
                        11/10 Q1015=
201911202200 METAR LROD 202200Z AUTO 09007KT 9000 SCT070/// BKN090///
                        11/10 Q1015=
201911202230 METAR LROD 202230Z AUTO 10007KT 9999 SCT090/// BKN220///
                        11/10 Q1015=
201911202300 METAR LROD 202300Z AUTO 09007KT 9999 BKN075/// BKN110///
                        11/09 Q1015=
201911202330 METAR LROD 202330Z AUTO 10007KT 9999 FEW075/// BKN110///
                        11/09 Q1015=
201911210000 METAR LROD 210000Z AUTO 10007KT 9999 SCT070/// BKN085///
                        OVC110/// 11/09 Q1015=
201911210030 METAR LROD 210030Z AUTO 10006KT 9999 BKN070/// 11/09 Q1015=
201911210100 METAR LROD 210100Z AUTO 10006KT 9999 SCT075/// BKN090///
                        OVC110/// 11/09 Q1015=
201911210130 METAR LROD 210130Z AUTO 10006KT 9999 BKN075/// BKN090///
                        12/09 Q1015=
201911210200 METAR LROD 210200Z AUTO 10006KT 9999 BKN075/// BKN090///
                        12/08 Q1015=
201911210230 METAR LROD 210230Z AUTO 11006KT 9999 SCT075/// BKN120///
                        BKN160/// 12/08 Q1015=
201911210300 METAR LROD 210300Z AUTO 13007KT 9999 SCT075/// OVC120///
                        12/08 Q1015=
201911210330 METAR LROD 210330Z AUTO 13007KT 9999 FEW080/// BKN240///
                        12/08 Q1015=
201911210400 METAR LROD 210400Z AUTO 12006KT 9999 NCD 11/07 Q1015=
201911210430 METAR LROD 210430Z AUTO 11006KT 9999 FEW120/// 10/07 Q1015=
201911210500 METAR LROD 210500Z 10005KT CAVOK 09/07 Q1015 R01/29//95=
201911210530 METAR LROD 210530Z 11006KT CAVOK 09/07 Q1016 R01/15//95=
201911210600 METAR LROD 210600Z 12005KT CAVOK 09/06 Q1016 R01/15//95=
201911210630 METAR LROD 210630Z 10007KT CAVOK 10/07 Q1016 R01/15//95=
201911210700 METAR LROD 210700Z 10006KT CAVOK 11/08 Q1016 R01/15//95=
201911210730 METAR LROD 210730Z 10007KT CAVOK 12/08 Q1016 R01/15//95=
201911210800 METAR LROD 210800Z 10006KT 080V140 CAVOK 13/08 Q1016 R01/15//95=
201911210830 METAR LROD 210830Z 09006KT CAVOK 14/09 Q1016 R01/15//95=
201911210900 METAR LROD 210900Z 13006KT 100V170 CAVOK 16/08 Q1017 R01/15//95=
201911210930 METAR LROD 210930Z 14005KT 110V170 CAVOK 17/08 Q1016 R01/15//95=
201911211000 METAR LROD 211000Z 17008KT CAVOK 17/08 Q1016 R01/CLRD//=
201911211030 METAR COR LROD 211030Z 18010KT 9999 FEW027 18/07 Q1016=
201911211100 METAR LROD 211100Z 19011KT CAVOK 18/08 Q1016=
201911211130 METAR LROD 211130Z 19010KT CAVOK 18/07 Q1016=
201911211200 METAR LROD 211200Z 20012KT CAVOK 18/07 Q1016=
201911211230 METAR LROD 211230Z 22009KT CAVOK 18/07 Q1016=
201911211300 METAR LROD 211300Z 23006KT CAVOK 17/09 Q1016=
201911211330 METAR LROD 211330Z 24005KT CAVOK 16/10 Q1016=
201911211400 METAR LROD 211400Z 24006KT CAVOK 15/10 Q1016=
201911211430 METAR LROD 211430Z 25003KT CAVOK 15/09 Q1016=
201911211500 METAR LROD 211500Z 10002KT CAVOK 13/09 Q1016=
201911211530 METAR LROD 211530Z 09004KT CAVOK 12/09 Q1016=
201911211600 METAR LROD 211600Z 08002KT CAVOK 12/08 Q1016=
201911211630 METAR LROD 211630Z 11005KT CAVOK 12/08 Q1016=
201911211700 METAR LROD 211700Z 10004KT CAVOK 12/08 Q1016=
201911211730 METAR LROD 211730Z 10005KT CAVOK 12/08 Q1016=
201911211800 METAR LROD 211800Z 09004KT CAVOK 12/08 Q1017=
201911211830 METAR COR LROD 211830Z 09004KT 070V140 CAVOK 11/08 Q1017=
201911211900 METAR LROD 211900Z 09005KT CAVOK 11/08 Q1017=
201911211930 METAR LROD 211930Z AUTO 10004KT 9999 BKN075/// 11/08 Q1017=
201911212000 METAR LROD 212000Z AUTO 11005KT 9999 NCD 10/08 Q1017=
201911212030 METAR LROD 212030Z AUTO 09005KT 9999 NCD 09/08 Q1017=
201911212100 METAR LROD 212100Z AUTO 10005KT 9999 NCD 09/07 Q1017=
201911212130 METAR LROD 212130Z AUTO 08005KT 9999 FEW085/// 09/07 Q1017=
201911212200 METAR LROD 212200Z AUTO 09005KT 9999 NCD 08/06 Q1017=
201911212230 METAR LROD 212230Z AUTO 13003KT 080V200 9999 NCD 08/05 Q1017=
201911212300 METAR LROD 212300Z AUTO 10005KT 9999 BKN120/// 08/06 Q1017=
201911212330 METAR LROD 212330Z AUTO 10005KT 9999 FEW070/// BKN120///
                        08/06 Q1017=
201911220000 METAR LROD 220000Z AUTO 10005KT 9999 FEW070/// BKN130///
                        08/06 Q1017=
201911220030 METAR LROD 220030Z AUTO 09006KT 9999 BKN070/// 09/07 Q1017=
201911220100 METAR LROD 220100Z AUTO 12004KT 9999 FEW060/// BKN075///
                        BKN130/// 08/06 Q1017=
201911220130 METAR LROD 220130Z AUTO 12004KT 9999 FEW080/// BKN130///
                        08/06 Q1017=
201911220200 METAR LROD 220200Z AUTO 11005KT 9999 FEW130/// 07/06 Q1017=
201911220230 METAR LROD 220230Z AUTO 09004KT 9999 BKN070/// 08/06 Q1017=
201911220300 METAR LROD 220300Z AUTO VRB02KT 9999 OVC070/// 08/06 Q1017=
201911220330 METAR LROD 220330Z AUTO 16004KT 9999 BKN070/// OVC100///
                        08/06 Q1017=
201911220400 METAR LROD 220400Z AUTO 11004KT 9999 BKN060/// BKN100///
                        08/06 Q1018 REDZ=
201911220430 METAR LROD 220430Z AUTO 09004KT 9999 -SHRA OVC055/// 09/07
                        Q1018=
201911220500 METAR LROD 220500Z 08005KT 9999 -RA NSC 09/07 Q1018=
201911220530 METAR COR LROD 220530Z VRB02KT 9999 -RA NSC 08/07 Q1018 R01/29//95=
201911220600 METAR LROD 220600Z 09005KT CAVOK 09/07 Q1018 R01/29//95=
201911220630 METAR LROD 220630Z 10005KT CAVOK 09/07 Q1018 R01/29//95=
201911220700 METAR LROD 220700Z 09004KT CAVOK 09/07 Q1018 R01/29//95=
201911220730 METAR LROD 220730Z 08003KT CAVOK 10/07 Q1018 R01/29//95=
201911220800 METAR LROD 220800Z 08002KT CAVOK 10/07 Q1019 R01/29//95=
201911220830 METAR LROD 220830Z VRB02KT CAVOK 10/07 Q1019 R01/29//95=
201911220900 METAR LROD 220900Z 10001KT CAVOK 11/08 Q1019 R01/29//95=
201911220930 METAR LROD 220930Z VRB01KT CAVOK 12/08 Q1019 R01/29//95=
201911221000 METAR LROD 221000Z VRB01KT CAVOK 12/09 Q1019 R01/29//95=
201911221030 METAR COR LROD 221030Z 31002KT CAVOK 12/09 Q1018 R01/29//95=
201911221100 METAR LROD 221100Z 32003KT CAVOK 12/08 Q1018 R01/29//95=
201911221130 METAR LROD 221130Z 34003KT CAVOK 12/09 Q1018 R01/29//95=
201911221200 METAR LROD 221200Z 30004KT CAVOK 12/09 Q1018 R01/29//95=
201911221230 METAR COR LROD 221230Z 33003KT CAVOK 12/09 Q1018 R01/CLRD//=
201911221300 METAR LROD 221300Z 36002KT CAVOK 12/09 Q1018=
201911221330 METAR LROD 221330Z 35003KT CAVOK 12/08 Q1018=
201911221400 METAR LROD 221400Z 35002KT CAVOK 12/08 Q1018=
201911221430 METAR LROD 221430Z 35002KT CAVOK 11/08 Q1018=
201911221500 METAR LROD 221500Z 35001KT CAVOK 11/08 Q1018=
201911221530 METAR LROD 221530Z 35001KT CAVOK 10/09 Q1018=
201911221600 METAR LROD 221600Z 18002KT CAVOK 10/08 Q1018=
201911221630 METAR LROD 221630Z 13002KT CAVOK 09/08 Q1019=
201911221700 METAR LROD 221700Z 13002KT CAVOK 09/07 Q1019=
201911221730 METAR LROD 221730Z 17002KT CAVOK 08/07 Q1019=
201911221800 METAR LROD 221800Z 17003KT CAVOK 09/07 Q1019=
201911221830 METAR LROD 221830Z 18003KT CAVOK 08/07 Q1019=
201911221900 METAR LROD 221900Z 19003KT CAVOK 08/06 Q1019=
201911221930 METAR LROD 221930Z 19003KT CAVOK 08/06 Q1019=
201911222000 METAR LROD 222000Z 24003KT CAVOK 08/06 Q1019=
201911222030 METAR LROD 222030Z 23002KT CAVOK 08/06 Q1020=
201911222100 METAR LROD 222100Z AUTO 24004KT 9999 BKN065/// 09/05 Q1020=
201911222130 METAR LROD 222130Z AUTO 25005KT 9999 OVC060/// 09/05 Q1020=
201911222200 METAR LROD 222200Z AUTO 24003KT 9999 BKN060/// 08/05 Q1020=
201911222230 METAR LROD 222230Z AUTO 24001KT 9999 OVC060/// 08/05 Q1019=
201911222300 METAR LROD 222300Z AUTO 00000KT 9999 BKN055/// 08/05 Q1019=
201911222330 METAR LROD 222330Z AUTO VRB01KT 9999 OVC055/// 08/06 Q1019=
201911230000 METAR LROD 230000Z AUTO 00000KT 9999 BKN055/// 08/06 Q1019=
201911230030 METAR LROD 230030Z AUTO 00000KT 9999 BKN060/// BKN075///
                        07/05 Q1019=
201911230100 METAR LROD 230100Z AUTO 08001KT 9999 BKN070/// 08/05 Q1019=
201911230130 METAR LROD 230130Z AUTO 08001KT 9999 OVC065/// 07/05 Q1019=
201911230200 METAR LROD 230200Z AUTO 00000KT 9999 BKN065/// 07/05 Q1019=
201911230230 METAR LROD 230230Z AUTO 00000KT 9999 FEW055/// OVC075///
                        07/06 Q1019=
201911230300 METAR LROD 230300Z AUTO 00000KT 9999 FEW055/// BKN075///
                        07/06 Q1019=
201911230330 METAR LROD 230330Z AUTO 20001KT 9999 BKN060/// OVC080///
                        07/06 Q1019=
201911230400 METAR LROD 230400Z AUTO 11002KT 9999 OVC055/// 07/06 Q1019=
201911230430 METAR LROD 230430Z AUTO 00000KT 9999 OVC060/// 07/06 Q1019=
201911230500 METAR LROD 230500Z 00000KT CAVOK 07/06 Q1019=
201911230530 METAR LROD 230530Z 08001KT CAVOK 07/06 Q1019=
201911230600 METAR LROD 230600Z 07003KT CAVOK 07/06 Q1019=
201911230630 METAR LROD 230630Z 07002KT CAVOK 07/06 Q1019=
201911230700 METAR LROD 230700Z VRB01KT CAVOK 08/07 Q1019=
201911230730 METAR LROD 230730Z 10003KT CAVOK 08/07 Q1019=
201911230800 METAR LROD 230800Z 10003KT 070V140 CAVOK 09/07 Q1019=
201911230830 METAR LROD 230830Z 10003KT CAVOK 10/06 Q1019=
201911230900 METAR LROD 230900Z 11004KT 070V140 CAVOK 10/06 Q1019=
201911230930 METAR LROD 230930Z 11003KT 060V180 CAVOK 11/06 Q1019=
201911231000 METAR LROD 231000Z 15003KT 080V240 CAVOK 12/05 Q1019=
201911231030 METAR LROD 231030Z 09003KT 030V150 CAVOK 12/06 Q1018=
201911231100 METAR LROD 231100Z 07003KT CAVOK 12/05 Q1018=
201911231130 METAR LROD 231130Z VRB01KT CAVOK 13/05 Q1018=
201911231200 METAR LROD 231200Z 25003KT CAVOK 13/05 Q1018=
201911231230 METAR LROD 231230Z 32003KT CAVOK 13/05 Q1017=
201911231300 METAR LROD 231300Z 30003KT CAVOK 13/05 Q1017=
201911231330 METAR LROD 231330Z 31002KT CAVOK 13/05 Q1017=
201911231400 METAR LROD 231400Z 30003KT CAVOK 12/06 Q1017=
201911231430 METAR LROD 231430Z 35003KT CAVOK 11/06 Q1017=
201911231500 METAR LROD 231500Z 03003KT CAVOK 10/05 Q1017=
201911231530 METAR LROD 231530Z VRB02KT CAVOK 08/06 Q1017=
201911231600 METAR LROD 231600Z 11004KT CAVOK 08/05 Q1017=
201911231630 METAR LROD 231630Z 10004KT CAVOK 08/04 Q1017=
201911231700 METAR COR LROD 231700Z 10005KT CAVOK 07/04 Q1017=
201911231730 METAR LROD 231730Z 10005KT CAVOK 07/04 Q1017=
201911231800 METAR LROD 231800Z 11004KT CAVOK 06/04 Q1018=
201911231830 METAR LROD 231830Z 11006KT CAVOK 05/04 Q1018=
201911231900 METAR LROD 231900Z 10005KT CAVOK 05/04 Q1018=
201911231930 METAR LROD 231930Z AUTO 10005KT 9000 NCD 05/04 Q1018=
201911232000 METAR LROD 232000Z AUTO 10005KT 8000 NCD 05/04 Q1018=
201911232030 METAR LROD 232030Z AUTO 10006KT 8000 NCD 04/03 Q1018=
201911232100 METAR LROD 232100Z AUTO 10005KT 7000 NCD 04/03 Q1018=
201911232130 METAR LROD 232130Z AUTO 11005KT 9000 NCD 04/03 Q1018=
201911232200 METAR LROD 232200Z AUTO 11005KT 8000 NCD 04/03 Q1018=
201911232230 METAR LROD 232230Z AUTO 11005KT 9000 NCD 04/03 Q1018=
201911232300 METAR LROD 232300Z AUTO 10005KT 9000 NCD 04/03 Q1018=
201911232330 METAR LROD 232330Z AUTO 10005KT 9999 NCD 04/03 Q1018=
201911240000 METAR LROD 240000Z AUTO 09006KT 9999 NCD 04/03 Q1018=
201911240030 METAR LROD 240030Z AUTO 10005KT 9999 NCD 04/03 Q1018=
201911240100 METAR LROD 240100Z AUTO 09007KT 9999 NCD 04/03 Q1017=
201911240130 METAR LROD 240130Z AUTO 09006KT 9999 SCT043/// 04/03 Q1017=
201911240200 METAR LROD 240200Z AUTO 09006KT 9999 BKN043/// 04/03 Q1017=
201911240230 METAR LROD 240230Z AUTO 09006KT 9999 SCT045/// 04/03 Q1017=
201911240300 METAR LROD 240300Z AUTO 10006KT 9999 FEW045/// 04/02 Q1017=
201911240330 METAR LROD 240330Z AUTO 10006KT 9999 NCD 04/02 Q1017=
201911240400 METAR LROD 240400Z AUTO 10006KT 9999 NCD 04/02 Q1017=
201911240430 METAR LROD 240430Z AUTO 09007KT 9999 NCD 04/02 Q1017=
201911240500 METAR COR LROD 240500Z 09006KT CAVOK 04/02 Q1017=
201911240530 METAR LROD 240530Z 10006KT CAVOK 04/02 Q1017=
201911240600 METAR LROD 240600Z 09007KT CAVOK 04/02 Q1017=
201911240630 METAR LROD 240630Z 09007KT CAVOK 05/02 Q1017=
201911240700 METAR LROD 240700Z 10007KT CAVOK 05/03 Q1017=
201911240730 METAR LROD 240730Z 09007KT CAVOK 06/03 Q1017=
201911240800 METAR LROD 240800Z 10006KT CAVOK 07/04 Q1017=
201911240830 METAR LROD 240830Z 11006KT CAVOK 09/04 Q1017=
201911240900 METAR LROD 240900Z 09005KT CAVOK 10/05 Q1017=
201911240930 METAR LROD 240930Z 10004KT CAVOK 11/05 Q1017=
201911241000 METAR LROD 241000Z 10004KT CAVOK 13/05 Q1017=
201911241030 METAR LROD 241030Z VRB01KT CAVOK 14/05 Q1017=
201911241100 METAR LROD 241100Z VRB02KT CAVOK 15/04 Q1016=
201911241130 METAR LROD 241130Z 33005KT CAVOK 14/07 Q1016=
201911241200 METAR LROD 241200Z 34005KT 310V010 CAVOK 14/07 Q1016=
201911241230 METAR LROD 241230Z 34005KT CAVOK 14/07 Q1016=
201911241300 METAR LROD 241300Z 36005KT CAVOK 14/07 Q1016=
201911241330 METAR LROD 241330Z 02005KT CAVOK 14/06 Q1016=
201911241400 METAR LROD 241400Z 02005KT CAVOK 13/06 Q1016=
201911241430 METAR LROD 241430Z 04002KT CAVOK 12/06 Q1016=
201911241500 METAR LROD 241500Z 04003KT CAVOK 12/05 Q1015=
201911241530 METAR LROD 241530Z 07005KT CAVOK 11/05 Q1015=
201911241600 METAR LROD 241600Z 09003KT CAVOK 09/04 Q1015=
201911241630 METAR LROD 241630Z 11005KT CAVOK 09/05 Q1015=
201911241700 METAR LROD 241700Z 10004KT CAVOK 08/04 Q1015=
201911241730 METAR LROD 241730Z 10005KT CAVOK 08/04 Q1015=
201911241800 METAR LROD 241800Z 10005KT CAVOK 07/04 Q1015=
201911241830 METAR LROD 241830Z 09005KT CAVOK 06/04 Q1015=
201911241900 METAR LROD 241900Z 10006KT CAVOK 05/03 Q1015=
201911241930 METAR LROD 241930Z AUTO 10006KT 9000 NCD 05/03 Q1015=
201911242000 METAR LROD 242000Z AUTO 10006KT 9999 NCD 05/03 Q1015=
201911242030 METAR LROD 242030Z AUTO 11006KT 9999 NCD 05/03 Q1015=
201911242100 METAR LROD 242100Z AUTO 12006KT 9999 NCD 04/03 Q1015=
201911242130 METAR LROD 242130Z AUTO 11007KT 9999 NCD 04/02 Q1015=
201911242200 METAR LROD 242200Z AUTO 10006KT 9999 NCD 04/02 Q1015=
201911242230 METAR LROD 242230Z AUTO 11005KT 9999 NCD 04/03 Q1015=
201911242300 METAR LROD 242300Z AUTO 12005KT 9999 NCD 04/02 Q1015=
201911242330 METAR LROD 242330Z AUTO 10006KT 9999 NCD 05/03 Q1015=
201911250000 METAR LROD 250000Z AUTO 13005KT 9999 NCD 04/02 Q1015=
201911250030 METAR LROD 250030Z AUTO 11006KT 9999 NCD 03/02 Q1015=
201911250100 METAR LROD 250100Z AUTO 10006KT 9999 NCD 03/02 Q1014=
201911250130 METAR LROD 250130Z AUTO 10006KT 9999 NCD 04/02 Q1015=
201911250200 METAR LROD 250200Z AUTO 10006KT 9999 NCD 04/02 Q1014=
201911250230 METAR LROD 250230Z AUTO 09006KT 9999 NCD 04/02 Q1014=
201911250300 METAR LROD 250300Z AUTO 10006KT 9999 NCD 03/01 Q1014=
201911250330 METAR LROD 250330Z AUTO 10006KT 9999 NCD 03/01 Q1014=
201911250400 METAR LROD 250400Z AUTO 09006KT 9999 NCD 03/01 Q1014=
201911250430 METAR LROD 250430Z AUTO 09005KT 9999 NCD 03/01 Q1014=
201911250500 METAR LROD 250500Z 08005KT CAVOK 04/02 Q1014=
201911250530 METAR LROD 250530Z 08005KT CAVOK 04/02 Q1014=
201911250600 METAR LROD 250600Z 09005KT CAVOK 04/02 Q1014=
201911250630 METAR LROD 250630Z 10006KT CAVOK 04/02 Q1014=
201911250700 METAR LROD 250700Z 08006KT 060V120 CAVOK 05/03 Q1014=
201911250730 METAR LROD 250730Z 09006KT CAVOK 07/03 Q1014=
201911250800 METAR LROD 250800Z 10006KT CAVOK 07/03 Q1014=
201911250830 METAR LROD 250830Z 11005KT CAVOK 09/04 Q1014=
201911250900 METAR LROD 250900Z 09005KT CAVOK 10/04 Q1014=
201911250930 METAR LROD 250930Z 06006KT CAVOK 12/05 Q1014=
201911251000 METAR LROD 251000Z 04005KT 360V060 CAVOK 13/05 Q1013=
201911251030 METAR LROD 251030Z 01004KT 350V060 CAVOK 14/05 Q1013=
201911251100 METAR LROD 251100Z 35004KT 320V040 CAVOK 15/05 Q1013=
201911251130 METAR LROD 251130Z 35005KT 330V030 CAVOK 15/05 Q1012=
201911251200 METAR LROD 251200Z 36005KT 330V050 CAVOK 15/06 Q1012=
201911251230 METAR LROD 251230Z 34009KT CAVOK 14/06 Q1012=
201911251300 METAR LROD 251300Z 36007KT CAVOK 14/06 Q1012=
201911251330 METAR LROD 251330Z 35008KT CAVOK 13/07 Q1012=
201911251400 METAR LROD 251400Z 01006KT CAVOK 12/07 Q1012=
201911251430 METAR LROD 251430Z 36004KT CAVOK 11/07 Q1012=
201911251500 METAR LROD 251500Z 34005KT CAVOK 09/07 Q1012=
201911251530 METAR LROD 251530Z 02003KT CAVOK 09/06 Q1012=
201911251600 METAR LROD 251600Z 02003KT CAVOK 09/06 Q1012=
201911251630 METAR LROD 251630Z 31003KT CAVOK 08/05 Q1012=
201911251700 METAR LROD 251700Z 34002KT CAVOK 06/05 Q1012=
201911251730 METAR LROD 251730Z 36003KT CAVOK 06/05 Q1012=
201911251800 METAR LROD 251800Z VRB01KT CAVOK 05/05 Q1012=
201911251830 METAR LROD 251830Z 11004KT CAVOK 05/04 Q1012=
201911251900 METAR LROD 251900Z 08004KT CAVOK 04/04 Q1012=
201911251930 METAR LROD 251930Z AUTO 09005KT 6000 NCD 05/04 Q1012=
201911252000 METAR LROD 252000Z AUTO 09003KT 4200 BR NCD 03/02 Q1012=
201911252030 METAR LROD 252030Z AUTO 10003KT 5000 BR NCD 03/03 Q1012=
201911252100 METAR LROD 252100Z AUTO 12004KT 7000 NCD 03/03 Q1012=
201911252130 METAR LROD 252130Z AUTO 11006KT 7000 NCD 03/02 Q1013=
201911252200 METAR LROD 252200Z AUTO 11007KT 8000 NCD 03/02 Q1013=
201911252230 METAR LROD 252230Z AUTO 10003KT 8000 NCD 03/02 Q1013=
201911252300 METAR LROD 252300Z AUTO 11005KT 8000 NCD 03/02 Q1013=
201911252330 METAR LROD 252330Z AUTO 09005KT 7000 NCD 03/02 Q1012=
201911260000 METAR LROD 260000Z AUTO 36002KT 8000 NCD 03/02 Q1013=
201911260030 METAR LROD 260030Z AUTO 00000KT 7000 NCD 02/01 Q1013=
201911260100 METAR LROD 260100Z AUTO 12005KT 9000 NCD 02/01 Q1013=
201911260130 METAR LROD 260130Z AUTO 10005KT 9999 NCD 03/02 Q1012=
201911260200 METAR LROD 260200Z AUTO 08003KT 9000 FEW065/// 02/02 Q1012=
201911260230 METAR LROD 260230Z AUTO 10004KT 6000 SCT060/// 02/02 Q1012=
201911260300 METAR LROD 260300Z AUTO 12005KT 9999 BKN065/// 03/02 Q1012=
201911260330 METAR LROD 260330Z AUTO 11004KT 9999 BKN065/// 03/02 Q1012=
201911260400 METAR LROD 260400Z AUTO 11005KT 9999 OVC070/// 03/02 Q1012=
201911260430 METAR LROD 260430Z AUTO 11004KT 9999 BKN070/// 03/02 Q1013=
201911260500 METAR COR LROD 260500Z 10003KT CAVOK 04/03 Q1013=
201911260530 METAR LROD 260530Z 12003KT CAVOK 04/03 Q1013=
201911260600 METAR LROD 260600Z 11004KT CAVOK 04/03 Q1013=
201911260630 METAR LROD 260630Z VRB01KT CAVOK 05/03 Q1013=
201911260700 METAR LROD 260700Z VRB01KT CAVOK 05/03 Q1013=
201911260730 METAR LROD 260730Z 00000KT CAVOK 05/04 Q1013=
201911260800 METAR LROD 260800Z 00000KT CAVOK 06/04 Q1013=
201911260830 METAR LROD 260830Z 00000KT CAVOK 06/04 Q1013=
201911260900 METAR LROD 260900Z 00000KT CAVOK 07/05 Q1013=
201911260930 METAR LROD 260930Z 00000KT CAVOK 07/05 Q1013=
201911261000 METAR LROD 261000Z 00000KT CAVOK 08/05 Q1013=
201911261030 METAR LROD 261030Z VRB02KT CAVOK 09/06 Q1013=
201911261100 METAR LROD 261100Z 31004KT 280V340 CAVOK 09/06 Q1013=
201911261130 METAR LROD 261130Z 35003KT CAVOK 10/06 Q1012=
201911261200 METAR COR LROD 261200Z VRB01KT CAVOK 10/06 Q1012=
201911261230 METAR LROD 261230Z 35002KT CAVOK 10/06 Q1012=
201911261300 METAR LROD 261300Z 30004KT CAVOK 11/07 Q1012=
201911261330 METAR LROD 261330Z 30003KT CAVOK 10/07 Q1012=
201911261400 METAR LROD 261400Z 29005KT CAVOK 09/07 Q1012=
201911261430 METAR LROD 261430Z 32003KT CAVOK 08/06 Q1012=
201911261500 METAR LROD 261500Z 32002KT CAVOK 07/05 Q1012=
201911261530 METAR LROD 261530Z 32002KT CAVOK 07/06 Q1012=
201911261600 METAR LROD 261600Z 30004KT CAVOK 07/06 Q1013=
201911261630 METAR LROD 261630Z 33003KT CAVOK 07/06 Q1013=
201911261700 METAR LROD 261700Z 01001KT CAVOK 08/06 Q1013=
201911261730 METAR LROD 261730Z 13003KT CAVOK 07/06 Q1013=
201911261800 METAR LROD 261800Z VRB02KT 6000 NSC 05/04 Q1013=
201911261830 METAR LROD 261830Z 13002KT 6000 NSC 03/02 Q1013=
201911261900 METAR LROD 261900Z 11004KT 7000 NSC 05/04 Q1012=
201911261930 METAR LROD 261930Z AUTO 11005KT 3400 NCD 05/04 Q1013=
201911262000 METAR LROD 262000Z AUTO VRB02KT 2400 R19/0900VP2000U BCFG
                        NCD 03/03 Q1013=
201911262030 METAR LROD 262030Z AUTO VRB01KT 3900 NCD 04/03 Q1013=
201911262100 METAR LROD 262100Z AUTO 16002KT 0900 R19/0800V1400D FG NCD
                        03/03 Q1013=
201911262130 METAR LROD 262130Z AUTO 13004KT 0600 R19/0700D FG NCD 01/01
                        Q1013=
201911262200 METAR LROD 262200Z AUTO 15003KT 0600 R19/0600V1000U FG NCD
                        02/02 Q1013=
201911262230 METAR LROD 262230Z AUTO 12005KT 1600 R19/1300VP2000U BCFG
                        NCD 03/02 Q1012=
201911262300 METAR LROD 262300Z AUTO 10005KT 2800 NCD 03/02 Q1012=
201911262330 METAR LROD 262330Z AUTO 11005KT 2500 NCD 02/02 Q1012=
201911270000 METAR LROD 270000Z AUTO 12004KT 0900 R19/0800V1600U FG NCD
                        01/01 Q1012=
201911270030 METAR LROD 270030Z AUTO 12006KT 2600 NCD 02/01 Q1012=
201911270100 METAR LROD 270100Z AUTO 10006KT 4100 NCD 02/02 Q1012=
201911270130 METAR LROD 270130Z AUTO 10005KT 3800 BR NCD 02/01 Q1012=
201911270200 METAR LROD 270200Z AUTO 10006KT 4400 BR NCD 02/02 Q1011=
201911270230 METAR LROD 270230Z AUTO 11006KT 4100 BR NCD 02/02 Q1011=
201911270300 METAR LROD 270300Z AUTO 11006KT 3800 BR NCD 01/01 Q1011=
201911270330 METAR LROD 270330Z AUTO 10005KT 4600 BR NCD 02/02 Q1011=
201911270400 METAR LROD 270400Z AUTO 12003KT 3700 BR NCD 01/01 Q1011=
201911270430 METAR LROD 270430Z AUTO 11005KT 3800 BR NCD 01/01 Q1011=
201911270500 METAR LROD 270500Z AUTO 11004KT 4100 BR NCD 01/01 Q1011=
201911270530 METAR COR LROD 270530Z 10007KT CAVOK 11/07 Q1023=
201911270600 METAR LROD 270600Z 10005KT CAVOK 01/01 Q1011=
201911270630 METAR LROD 270630Z 11004KT CAVOK 02/01 Q1011=
201911270700 METAR LROD 270700Z 11005KT CAVOK 02/02 Q1011=
201911270730 METAR LROD 270730Z 10004KT CAVOK 04/03 Q1011=
201911270800 METAR LROD 270800Z 11004KT CAVOK 05/04 Q1011=
201911270830 METAR LROD 270830Z 11003KT CAVOK 07/05 Q1011=
201911270900 METAR LROD 270900Z 00000KT CAVOK 09/06 Q1011=
201911270930 METAR LROD 270930Z 19003KT CAVOK 10/07 Q1010=
201911271000 METAR LROD 271000Z VRB02KT CAVOK 10/07 Q1010=
201911271030 METAR LROD 271030Z 23003KT CAVOK 11/07 Q1010=
201911271100 METAR LROD 271100Z 22004KT 170V250 CAVOK 12/07 Q1009=
201911271130 METAR LROD 271130Z 23005KT 180V280 CAVOK 12/07 Q1009=
201911271200 METAR LROD 271200Z 27004KT CAVOK 12/07 Q1009=
201911271230 METAR LROD 271230Z 29004KT CAVOK 11/07 Q1008=
201911271300 METAR LROD 271300Z 26004KT CAVOK 12/08 Q1008=
201911271330 METAR LROD 271330Z 28004KT CAVOK 11/08 Q1008=
201911271400 METAR LROD 271400Z 26005KT CAVOK 10/07 Q1008=
201911271430 METAR LROD 271430Z 24002KT CAVOK 10/07 Q1008=
201911271500 METAR LROD 271500Z 10002KT CAVOK 09/07 Q1008=
201911271530 METAR LROD 271530Z 20002KT CAVOK 09/07 Q1008=
201911271600 METAR LROD 271600Z 13003KT CAVOK 09/07 Q1008=
201911271630 METAR LROD 271630Z 14002KT CAVOK 09/07 Q1008=
201911271700 METAR LROD 271700Z 14004KT CAVOK 09/06 Q1008=
201911271730 METAR LROD 271730Z 14004KT CAVOK 09/06 Q1007=
201911271800 METAR LROD 271800Z 16003KT CAVOK 09/06 Q1007=
201911271830 METAR LROD 271830Z 18006KT CAVOK 10/06 Q1007=
201911271900 METAR LROD 271900Z 17009KT CAVOK 11/06 Q1007=
201911271930 METAR LROD 271930Z AUTO 16007KT 9999 FEW060/// BKN095///
                        BKN220/// 10/06 Q1007=
201911272000 METAR LROD 272000Z AUTO 15004KT 9999 BKN090/// BKN220///
                        10/05 Q1007=
201911272030 METAR LROD 272030Z AUTO 15005KT 9999 BKN090/// OVC210///
                        10/06 Q1007=
201911272100 METAR LROD 272100Z AUTO 17007KT 140V200 9999 -RA BKN050///
                        BKN075/// OVC090/// 11/06 Q1007=
201911272130 METAR LROD 272130Z AUTO 17010KT 9999 BKN050/// 12/06 Q1007=
201911272200 METAR LROD 272200Z AUTO 17011KT 9999 -SHRA BKN046/// OVC060///
                        11/06 Q1007=
201911272230 METAR LROD 272230Z AUTO 22006KT 180V240 9999 -SHRA BKN046///
                        OVC060/// 10/07 Q1007=
201911272300 METAR LROD 272300Z AUTO 25007KT 9999 DZ BKN050/// BKN065///
                        09/07 Q1007=
201911272330 METAR LROD 272330Z AUTO 22006KT 9999 DZ BKN055/// 08/07 Q1007=
201911280000 METAR LROD 280000Z AUTO 18006KT 9999 DZ FEW036/// SCT043///
                        BKN049/// 08/07 Q1007=
201911280030 METAR LROD 280030Z AUTO 17005KT 9999 -DZ SCT042/// BKN060///
                        08/07 Q1007=
201911280100 METAR LROD 280100Z AUTO 16005KT 9999 -SHRA FEW042/// BKN050///
                        BKN065/// 09/07 Q1007=
201911280130 METAR LROD 280130Z AUTO 15004KT 110V170 9999 FEW036/// BKN042///
                        OVC050/// 09/07 Q1007 REDZ=
201911280200 METAR LROD 280200Z AUTO 16004KT 9999 -SHRA FEW035/// BKN044///
                        09/07 Q1006=
201911280230 METAR LROD 280230Z AUTO 16003KT 130V190 9999 -SHRA FEW041///
                        BKN048/// 10/07 Q1006=
201911280300 METAR LROD 280300Z AUTO 17007KT 9999 -SHRA FEW032/// BKN042///
                        BKN049/// 10/08 Q1006=
201911280330 METAR LROD 280330Z AUTO 18009KT 9999 -SHRA FEW039/// BKN049///
                        09/08 Q1006=
201911280400 METAR LROD 280400Z AUTO 18009KT 8000 -SHRA BKN016/// BKN032///
                        09/08 Q1006=
201911280430 METAR LROD 280430Z AUTO 17011KT 9999 FEW019/// SCT042///
                        BKN050/// 10/08 Q1006 REDZ=
201911280500 METAR LROD 280500Z 17010KT 9999 FEW029 SCT039 10/08 Q1006
                        R01/19//95=
201911280530 METAR LROD 280530Z 18008KT 9999 -RA SCT026 BKN030 10/08 Q1006
                        R01/19//95=
201911280600 METAR LROD 280600Z 17008KT 9999 BKN027 10/08 Q1006 R01/19//95=
201911280630 METAR LROD 280630Z 18008KT 9999 FEW016 BKN028 10/08 Q1006
                        R01/19//95=
201911280700 METAR LROD 280700Z 17009KT 9999 FEW030 BKN038 10/09 Q1006
                        R01/19//95=
201911280730 METAR LROD 280730Z 17010KT 9999 SCT036 BKN041 11/09 Q1006
                        R01/19//95=
201911280800 METAR LROD 280800Z 16010KT 9999 FEW034 BKN039 11/09 Q1006
                        R01/19//95=
201911280830 METAR LROD 280830Z 17011KT 9999 FEW029 SCT037 12/09 Q1006
                        R01/19//95=
201911280900 METAR LROD 280900Z 17011KT 9999 FEW032 12/09 Q1006 R01/19//95=
201911280930 METAR LROD 280930Z 18011KT 9999 FEW044 13/09 Q1005 R01/19//95=
201911281000 METAR LROD 281000Z 18011KT 9999 BKN043 13/10 Q1005 R01/19//95=
201911281030 METAR LROD 281030Z 17011KT CAVOK 13/10 Q1004 R01/19//95=
201911281100 METAR LROD 281100Z 17010KT 9999 BKN048 13/10 Q1004 R01/19//95=
201911281130 METAR LROD 281130Z 19009KT 9999 -RA BKN045 13/10 Q1004 R01/19//95=
201911281200 METAR LROD 281200Z 19011KT 9999 -RA BKN042 12/10 Q1004 R01/19//95=
201911281230 METAR LROD 281230Z 17011KT 9999 -RA BKN042 12/10 Q1004 R01/19//95=
201911281300 METAR LROD 281300Z 17011KT 9999 -RA BKN043 12/10 Q1003 R01/19//95=
201911281330 METAR LROD 281330Z 17013KT 9999 BKN047 12/10 Q1003 R01/19//95=
201911281400 METAR LROD 281400Z 17014KT 9999 BKN048 12/10 Q1003 R01/19//95=
201911281430 METAR LROD 281430Z 17011KT 9999 BKN048 12/10 Q1003 R01/19//95=
201911281500 METAR LROD 281500Z 17011KT 9999 SCT049 12/10 Q1003 R01/19//95=
201911281530 METAR LROD 281530Z 16011KT CAVOK 12/10 Q1003 R01/19//95=
201911281600 METAR LROD 281600Z 17011KT 9999 -RA SCT046 12/10 Q1003 R01/19//95=
201911281630 METAR LROD 281630Z 18013KT 9999 -RA SCT044 12/10 Q1003 R01/19//95=
201911281700 METAR LROD 281700Z 18015KT CAVOK 12/10 Q1003 R01/19//95=
201911281730 METAR LROD 281730Z 19016KT CAVOK 12/10 Q1003 R01/19//95=
201911281800 METAR LROD 281800Z 19015KT 9999 -RA NSC 12/10 Q1003 R01/19//95=
201911281830 METAR LROD 281830Z 20014KT 9999 -RA SCT037 11/10 Q1003 R01/19//95=
201911281900 METAR LROD 281900Z 19016KT 9999 -RA SCT012 BKN045 11/10 Q1003
                        R01/19//95=
201911281930 METAR LROD 281930Z AUTO 20015KT 9999 -RA FEW009/// SCT043///
                        BKN055/// 11/10 Q1003=
201911282000 METAR LROD 282000Z AUTO 19016KT 9999 FEW008/// SCT011///
                        BKN055/// 11/10 Q1003 RERA=
201911282030 METAR LROD 282030Z AUTO 19015KT 9999 FEW010/// SCT050///
                        BKN065/// 11/10 Q1003 REDZ=
201911282100 METAR LROD 282100Z AUTO 20014KT 9999 SCT008/// BKN028///
                        BKN039/// 11/10 Q1003=
201911282130 METAR LROD 282130Z AUTO 20015KT 9999 -SHRA SCT008/// BKN010///
                        BKN027/// 11/10 Q1003=
201911282200 METAR LROD 282200Z AUTO 20015KT 9999 FEW007/// BKN010///
                        OVC015/// 11/10 Q1003=
201911282230 METAR LROD 282230Z AUTO 21015KT 9999 -SHRA BKN006/// 11/10
                        Q1003=
201911282300 METAR LROD 282300Z AUTO 21012KT 9999 -SHRA SCT006/// BKN008///
                        11/10 Q1003=
201911282330 METAR LROD 282330Z AUTO 22011KT 8000 BKN006/// BKN008///
                        11/10 Q1003 REDZ=
201911290000 METAR LROD 290000Z AUTO 23010KT 6000 -SHRA FEW003/// SCT005///
                        BKN009/// 10/10 Q1003=
201911290030 METAR LROD 290030Z AUTO 25007KT 6000 FEW006/// SCT010///
                        OVC028/// 10/10 Q1004 REDZ=
201911290100 METAR LROD 290100Z AUTO 27007KT 4400 BR FEW003/// SCT007///
                        BKN027/// 10/09 Q1004=
201911290130 METAR LROD 290130Z AUTO 25004KT 2900 R19/1300VP2000D BR SCT001///
                        BKN005/// 09/08 Q1004=
201911290200 METAR LROD 290200Z AUTO 24004KT 0250 R19/0275N FG VV001 08/07
                        Q1004=
201911290230 METAR LROD 290230Z AUTO 20003KT 0350 R19/0325V0500D FG VV001
                        07/06 Q1004=
201911290300 METAR LROD 290300Z AUTO 20004KT 0300 R19/0350N FG VV001 07/06
                        Q1005=
201911290330 METAR LROD 290330Z AUTO 21004KT 0300 R19/0375N FG VV001 07/07
                        Q1005=
201911290400 METAR LROD 290400Z AUTO 20004KT 0300 R19/0375N FG VV001 06/06
                        Q1005=
201911290430 METAR LROD 290430Z AUTO 17004KT 0500 R19/0600N FG VV001 05/05
                        Q1005=
201911290500 METAR LROD 290500Z 18004KT 0600 R19/0600 FG SCT001 05/05
                        Q1005 R01/19//95=
201911290530 METAR LROD 290530Z 19004KT 0700 R19/0800N FG SCT001 05/05
                        Q1005 R01/19//95=
201911290600 METAR LROD 290600Z 20005KT 1100 R19/1100 BR FEW002 06/06
                        Q1006 R01/19//95=
201911290630 METAR LROD 290630Z 18007KT 7000 NSC 07/07 Q1006 R01/19//95=
201911290700 METAR LROD 290700Z 19006KT 8000 FEW005 08/08 Q1006 R01/19//95=
201911290730 METAR LROD 290730Z 19006KT 7000 FEW002 08/08 Q1006 R01/19//95=
201911290800 METAR LROD 290800Z 18009KT 9000 NSC 08/08 Q1006 R01/19//95=
201911290830 METAR LROD 290830Z 18008KT 9999 FEW004 09/09 Q1006 R01/19//95=
201911290900 METAR LROD 290900Z 19009KT CAVOK 09/09 Q1006 R01/19//95=
201911290930 METAR LROD 290930Z 20010KT CAVOK 10/09 Q1007 R01/19//95=
201911291000 METAR COR LROD 291000Z 20009KT CAVOK 10/09 Q1007 R01/19//95=
201911291030 METAR LROD 291030Z 20010KT CAVOK 10/09 Q1007 R01/19//95=
201911291100 METAR LROD 291100Z 20011KT 9999 FEW032 10/09 Q1007 R01/19//95=
201911291130 METAR LROD 291130Z 19010KT 9999 SCT029 10/09 Q1007 R01/19//95=
201911291200 METAR LROD 291200Z 19008KT 9999 FEW015 SCT037 10/09 Q1007
                        R01/19//95=
201911291230 METAR LROD 291230Z 19010KT 9999 FEW007 10/09 Q1007 R01/19//95=
201911291300 METAR LROD 291300Z 19010KT 9999 FEW008 SCT044 10/09 Q1007
                        R01/19//95=
201911291330 METAR LROD 291330Z 19009KT 9999 SCT008 10/08 Q1007 R01/19//95=
201911291400 METAR LROD 291400Z 19009KT 9999 FEW008 10/09 Q1007 R01/19//95=
201911291430 METAR LROD 291430Z 19007KT 9999 FEW010 09/08 Q1007 R01/19//95=
201911291500 METAR LROD 291500Z 21008KT 8000 -RA FEW010 BKN043 09/08 Q1008
                        R01/19//95=
201911291530 METAR COR LROD 291530Z 20009KT 9999 -SHRA FEW040CB 09/08
                        Q1008 R01/19//95=
201911291600 METAR LROD 291600Z 19008KT 9999 -SHRA FEW040CB 09/08 Q1008
                        R01/19//95=
201911291630 METAR LROD 291630Z 22005KT 190V300 9999 FEW006 FEW040CB 09/08
                        Q1009 R01/19//95=
201911291700 METAR LROD 291700Z 20005KT 140V220 9000 FEW005 FEW042CB 09/08
                        Q1009 R01/19//95=
201911291730 METAR LROD 291730Z 18008KT 9999 SCT016 09/08 Q1008 R01/19//95=
201911291800 METAR LROD 291800Z 19008KT 9999 BKN012 09/08 Q1008 R01/19//95=
201911291830 METAR LROD 291830Z 19011KT 9999 BKN011 09/08 Q1008 R01/19//95=
201911291900 METAR LROD 291900Z 20010KT 9999 BKN013 09/08 Q1008 R01/19//95=
201911291930 METAR LROD 291930Z 20012KT 8000 BKN006 09/08 Q1008 R01/19//95=
201911292000 METAR LROD 292000Z AUTO 20011KT 7000 SCT007/// BKN009///
                        09/09 Q1008=
201911292030 METAR LROD 292030Z AUTO 20012KT 7000 SCT007/// BKN010///
                        BKN014/// 10/09 Q1009=
201911292100 METAR LROD 292100Z AUTO 21011KT 6000 BKN005/// OVC011///
                        09/09 Q1009=
201911292130 METAR LROD 292130Z AUTO 22011KT 5000 BR SCT004/// BKN007///
                        OVC010/// 09/09 Q1009=
201911292200 METAR LROD 292200Z AUTO 22010KT 6000 FEW006/// BKN009///
                        BKN012/// 09/09 Q1009=
201911292230 METAR LROD 292230Z AUTO 21009KT 5000 BR SCT007/// OVC011///
                        09/09 Q1009=
201911292300 METAR LROD 292300Z AUTO 21010KT 5000 BR FEW004/// BKN006///
                        BKN050/// 09/08 Q1009=
201911292330 METAR LROD 292330Z AUTO 22009KT 4800 BR SCT004/// BKN006///
                        BKN050/// 08/08 Q1009=
201911300000 METAR LROD 300000Z AUTO 21008KT 4700 BR FEW004/// SCT055///
                        BKN110/// 08/07 Q1009=
201911300030 METAR LROD 300030Z AUTO 21008KT 4400 BR SCT004/// BKN006///
                        08/07 Q1010=
201911300100 METAR LROD 300100Z AUTO 20006KT 4900 BR BKN005/// BKN011///
                        07/07 Q1010=
201911300130 METAR LROD 300130Z AUTO 21007KT 4900 BR FEW004/// SCT009///
                        BKN055/// 07/07 Q1010=
201911300200 METAR LROD 300200Z AUTO 22007KT 4600 BR BKN050/// 07/07 Q1010=
201911300230 METAR LROD 300230Z AUTO 22007KT 4800 BR BKN050/// 07/07 Q1010=
201911300300 METAR LROD 300300Z AUTO 23006KT 5000 BR FEW012/// OVC050///
                        07/07 Q1010=
201911300330 METAR LROD 300330Z AUTO 28008KT 9000 FEW008/// BKN010///
                        07/06 Q1011=
201911300400 METAR LROD 300400Z AUTO 29008KT 9999 BKN009/// BKN011///
                        06/05 Q1011=
201911300430 METAR LROD 300430Z AUTO 29007KT 9999 BKN009/// 06/05 Q1011=
201911300500 METAR LROD 300500Z 27007KT 9999 OVC008 06/04 Q1012 R01/19//95=
201911300530 METAR LROD 300530Z 28007KT 9999 OVC007 05/04 Q1012 R01/19//95=
201911300600 METAR LROD 300600Z 29006KT 9999 BKN006 BKN030 05/04 Q1012
                        R01/19//95=
201911300630 METAR LROD 300630Z 29006KT 9999 FEW006 OVC041 05/03 Q1013
                        R01/19//95=
201911300700 METAR LROD 300700Z 28005KT 9999 FEW003 BKN043 05/04 Q1014
                        R01/19//95=
201911300730 METAR LROD 300730Z 30005KT 9999 FEW004 OVC045 04/03 Q1014
                        R01/19//95=
201911300800 METAR LROD 300800Z 32007KT 9999 FEW005 05/03 Q1014 R01/19//95=
201911300830 METAR LROD 300830Z 34008KT 9999 FEW006 05/03 Q1015 R01/19//95=
201911300900 METAR LROD 300900Z 36010KT 9999 FEW007 06/02 Q1016 R01/19//95=
201911300930 METAR LROD 300930Z 36012KT 9999 FEW015 06/01 Q1016 R01/19//95=
201911301000 METAR LROD 301000Z 01011KT 9999 FEW017 07/00 Q1016 R01/19//95=
201911301030 METAR LROD 301030Z 02012KT 340V040 9999 FEW020 06/M02 Q1016
                        R01/19//95=
201911301100 METAR LROD 301100Z 01012KT 9999 FEW025 06/M02 Q1017 R01/19//95=
201911301130 METAR LROD 301130Z 36011KT 9999 FEW030 06/M02 Q1017 R01/19//95=
201911301200 METAR LROD 301200Z 36010KT 9999 BKN046 05/M03 Q1017 R01/19//95=
201911301230 METAR LROD 301230Z 36010KT 9999 OVC045 05/M03 Q1018 R01/19//95=
201911301300 METAR LROD 301300Z 36009KT 9999 BKN045 05/M02 Q1018 R01/19//95=
201911301330 METAR LROD 301330Z 01009KT 9999 OVC045 04/M03 Q1019 R01/19//95=
201911301400 METAR LROD 301400Z 35009KT 9999 BKN044 04/M02 Q1019 R01/19//95=
201911301430 METAR LROD 301430Z 34005KT 9999 -RA BKN042 04/M01 Q1020 R01/19//95=
201911301500 METAR LROD 301500Z 03002KT 9999 BKN045 04/M01 Q1020 R01/19//95=
201911301530 METAR LROD 301530Z 05001KT 9999 SCT048 04/M01 Q1020 R01/19//95=
201911301600 METAR LROD 301600Z 36005KT CAVOK 04/M01 Q1021 R01/19//95=
201911301630 METAR LROD 301630Z 01007KT CAVOK 04/M03 Q1021 R01/19//95=
201911301700 METAR LROD 301700Z 01009KT CAVOK 03/M03 Q1022 R01/19//95=
201911301730 METAR LROD 301730Z 02007KT CAVOK 02/M04 Q1022 R01/19//95=
201911301800 METAR LROD 301800Z 03005KT CAVOK 02/M05 Q1022 R01/19//95=
201911301830 METAR LROD 301830Z 04004KT CAVOK 01/M05 Q1022 R01/19//95=
201911301900 METAR LROD 301900Z 02004KT CAVOK 01/M05 Q1023 R01/19//95=
201911301930 METAR LROD 301930Z AUTO VRB01KT 9999 NCD 00/M04 Q1023=
201911302000 METAR LROD 302000Z AUTO 32002KT 9999 NCD M01/M04 Q1023=
201911302030 METAR LROD 302030Z AUTO 06004KT 340V100 9999 FEW050/// M02/M04
                        Q1023=
201911302100 METAR LROD 302100Z AUTO VRB02KT 9999 BKN050/// M01/M04 Q1023=
201911302130 METAR LROD 302130Z AUTO VRB01KT 9999 FEW047/// M01/M04 Q1024=
201911302200 METAR LROD 302200Z AUTO 28003KT 9999 FEW043/// M01/M04 Q1024=
201911302230 METAR LROD 302230Z AUTO 27001KT 9999 SCT043/// M02/M04 Q1024=
201911302300 METAR LROD 302300Z AUTO 31002KT 9999 BKN044/// M01/M04 Q1024=
201911302330 METAR LROD 302330Z AUTO 30003KT 9999 BKN041/// M02/M04 Q1024=