201911010200 TAF LROD 010200Z 0103/0112 VRB04KT CAVOK
                      TEMPO 0103/0106 3000 BR BKN010 OVC030=
201911010500 TAF LROD 010500Z 0106/0115 VRB04KT 9999 BKN030
                      TEMPO 0106/0109 3000 BR BKN010=
201911010800 TAF LROD 010800Z 0109/0118 VRB04KT CAVOK=
201911011100 TAF LROD 011100Z 0112/0121 VRB04KT 9999 SCT035=
201911011400 TAF LROD 011400Z 0115/0124 VRB04KT 9999 SCT040=
201911011700 TAF LROD 011700Z 0118/0203 VRB03KT CAVOK
                      PROB30 TEMPO 0120/0201 5000 BR
                      BECMG 0201/0203 19010KT=
201911012000 TAF LROD 012000Z NIL=
201911012011 TAF AMD LROD 012011Z 0120/0203 CNL=
201911012300 TAF LROD 012300Z NIL=
201911020200 TAF LROD 020200Z 0203/0212 09006KT CAVOK
                      BECMG 0204/0206 19012KT=
201911020500 TAF LROD 020500Z 0206/0215 09006KT CAVOK
                      BECMG 0206/0208 19012KT
                      TEMPO 0206/0211 5000 -RA BR BKN015 OVC045=
201911020800 TAF LROD 020800Z 0209/0218 11006KT 9999 SCT035
                      BECMG 0209/0211 18012KT
                      TEMPO 0209/0212 5000 -RA BR
                      BECMG 0216/0218 5000 -RA BR BKN010 OVC035=
201911021100 TAF LROD 021100Z 0212/0221 15008KT 9999 SCT035
                      PROB40 TEMPO 0212/0216 17015G25KT 5000 -RA
                       BECMG 0216/0218 5000 -RA BR BKN010 OVC035=
201911021400 TAF LROD 021400Z 0215/0224 18008KT 9999 -RA SCT045
                      BECMG 0216/0218 5000 -RA BR BKN010 OVC035=
201911021700 TAF LROD 021700Z 0218/0303 15010KT 9999 -RA BKN045
                      BECMG 0218/0220 5000 -RA BR BKN010 OVC035=
201911022000 TAF LROD 022000Z NIL=
201911022011 TAF AMD LROD 022011Z 0220/0303 CNL=
201911022300 TAF LROD 022300Z NIL=
201911030200 TAF LROD 030200Z 0303/0312 18012KT 3000 -RA BR BKN015 OVC040
                      BECMG 0306/0308 5000 -RA SCT015 BKN040
                      BECMG 0308/0310 CAVOK=
201911030500 TAF LROD 030500Z 0306/0315 18012KT 9999 BKN040
                      PROB40 TEMPO 0306/0309 5000 -RA BKN010 BKN035=
201911030800 TAF LROD 030800Z 0309/0318 18012KT 9999 SCT045=
201911031100 TAF LROD 031100Z 0312/0321 18014KT CAVOK=
201911031400 TAF LROD 031400Z 0315/0324 18012KT CAVOK=
201911031700 TAF LROD 031700Z 0318/0403 17017KT CAVOK
                      PROB40 TEMPO 0318/0321 17017G27KT=
201911032000 TAF LROD 032000Z NIL=
201911032300 TAF LROD 032300Z NIL=
201911040200 TAF LROD 040200Z 0403/0412 18017KT CAVOK
                      PROB30 TEMPO 0403/0406 FEW040CB
                      TEMPO 0406/0412 19017G30KT=
201911040500 TAF LROD 040500Z 0406/0415 16013KT 9999 SCT015 SCT040
                      TEMPO 0406/0410 16020G30KT 5000 -RA BKN010
                       OVC030
                      TEMPO 0412/0415 5000 SHRA SCT010 SCT030CB
                       BKN040=
201911040800 TAF LROD 040800Z 0409/0418 16015KT 9999 BKN035
                      TEMPO 0409/0413 17020G30KT
                      BECMG 0413/0415 22012KT
                      TEMPO 0415/0418 3000 SHRA BKN010 SCT025CB
                       OVC030=
201911041100 TAF LROD 041100Z 0412/0421 15015KT 9999 BKN035
                      TEMPO 0412/0414 18020G30KT
                      BECMG 0414/0416 20012KT
                      TEMPO 0416/0419 3000 SHRA BKN010 SCT025CB
                       OVC030=
201911041330 TAF AMD LROD 041330Z 0413/0421 19016KT 9999 BKN035
                      TEMPO 0413/0417 18020G30KT 5000 SHRA BKN010
                       SCT025CB OVC030=
201911041400 TAF LROD 041400Z 0415/0424 19016KT 9999 BKN035
                      TEMPO 0415/0418 18020G30KT 5000 SHRA BKN010
                       SCT025CB OVC030=
201911041700 TAF LROD 041700Z 0418/0503 20016KT 9999 BKN035
                      PROB40 TEMPO 0418/0420 20020G30KT 5000 SHRA
                       SCT030CB BKN035=
201911041956 TAF AMD LROD 041956Z 0419/0503 CNL=
201911042000 TAF LROD 042000Z NIL=
201911042300 TAF LROD 042300Z NIL=
201911050200 TAF LROD 050200Z 0503/0512 18012KT CAVOK=
201911050500 TAF LROD 050500Z 0506/0515 19016KT CAVOK=
201911050800 TAF LROD 050800Z 0509/0518 19016KT CAVOK=
201911051100 TAF LROD 051100Z 0512/0521 19018KT CAVOK
                      TEMPO 0516/0521 19020G30KT=
201911051400 TAF LROD 051400Z 0515/0524 18016KT CAVOK
                      TEMPO 0519/0524 19020G30KT
                      BECMG 0520/0522 5000 -SHRA SCT015 SCT040CB
                       TEMPO 0522/0524 3000 SHRA=
201911051700 TAF LROD 051700Z 0518/0603 16012KT CAVOK
                      BECMG 0600/0602 3000 RA BKN015 OVC030=
201911052000 TAF LROD 052000Z NIL=
201911052034 TAF AMD LROD 052034Z 0520/0603 CNL=
201911052300 TAF LROD 052300Z NIL=
201911060200 TAF LROD 060200Z 0603/0612 15004KT 9999 -RA BKN020 OVC040
                      TEMPO 0603/0606 3000 SHRA BKN010 SCT025CB
                       OVC030
                      BECMG 0607/0609 23010KT=
201911060500 TAF LROD 060500Z 0606/0615 20012KT 9999 BKN045
                      TEMPO 0606/0609 5000 SHRA SCT035CB BKN045=
201911060800 TAF LROD 060800Z 0609/0618 20014KT 9999 BKN035
                      TEMPO 0609/0612 5000 SHRA SCT030CB BKN035=
201911061100 TAF LROD 061100Z 0612/0621 22012KT 9999 BKN030
                      TEMPO 0612/0615 BKN015 BKN030=
201911061400 TAF LROD 061400Z 0615/0624 23008KT 9999 BKN030
                      TEMPO 0615/0618 BKN015 BKN030=
201911061700 TAF LROD 061700Z 0618/0703 20005KT 9999 SCT015 BKN030=
201911062000 TAF LROD 062000Z NIL=
201911062010 TAF AMD LROD 062010Z 0620/0703 CNL=
201911062300 TAF LROD 062300Z NIL=
201911070200 TAF LROD 070200Z 0703/0712 VRB04KT 9999 BKN045
                      TEMPO 0705/0709 5000 -RA BR BKN015 BKN035=
201911070500 TAF LROD 070500Z 0706/0715 09006KT CAVOK
                      BECMG 0708/0710 21010KT
                      TEMPO 0710/0715 5000 -RA BKN015 BKN040=
201911070800 TAF LROD 070800Z 0709/0718 20010KT 9999 BKN025
                      TEMPO 0709/0714 3000 -RA BKN010 BKN040=
201911071100 TAF LROD 071100Z 0712/0721 22012KT CAVOK
                      TEMPO 0712/0715 3000 -RA BKN010 BKN040=
201911071400 TAF LROD 071400Z 0715/0724 23010KT CAVOK
                      TEMPO 0720/0724 3000 BR BKN010=
201911071700 TAF LROD 071700Z 0718/0803 VRB04KT 9999 BKN020
                      BECMG 0719/0721 3000 BR BKN010
                      TEMPO 0722/0803 0800 FG OVC002=
201911072000 TAF LROD 072000Z NIL=
201911072300 TAF LROD 072300Z NIL=
201911080200 TAF LROD 080200Z 0803/0812 06005KT CAVOK
                      TEMPO 0803/0806 3000 BR
                      BECMG 0808/0810 5000 -RA BR BKN015 BKN040=
201911080500 TAF LROD 080500Z 0806/0815 10006KT CAVOK
                      BECMG 0808/0810 5000 -RA BR BKN015 BKN040
                       TEMPO 0812/0815 3000 SHRA BKN010 SCT025CB
                       BKN035=
201911080800 TAF LROD 080800Z 0809/0818 10006KT 9999 -RA BKN040
                      TEMPO 0809/0814 5000 RA BR BKN015 BKN035
                       TEMPO 0810/0814 3000 SHRA BKN010 SCT025CB
                       OVC030=
201911081100 TAF LROD 081100Z 0812/0821 VRB04KT 9999 BKN040
                      TEMPO 0812/0815 5000 RA BR BKN015 BKN035
                       BECMG 0817/0819 18010KT=
201911081400 TAF LROD 081400Z 0815/0824 VRB04KT CAVOK
                      BECMG 0817/0819 18010KT=
201911081700 TAF LROD 081700Z 0818/0903 09006KT CAVOK
                      BECMG 0818/0820 18010KT=
201911081911 TAF AMD LROD 081911Z 0819/0903 CNL=
201911082000 TAF LROD 082000Z NIL=
201911082300 TAF LROD 082300Z NIL=
201911090200 TAF LROD 090200Z 0903/0912 16008KT CAVOK
                      TEMPO 0903/0906 3000 BR BKN015=
201911090500 TAF LROD 090500Z 0906/0915 11006KT CAVOK
                      BECMG 0908/0910 18010KT=
201911090800 TAF LROD 090800Z 0909/0918 11006KT CAVOK
                      BECMG 0909/0911 18010KT=
201911091100 TAF LROD 091100Z 0912/0921 19012KT CAVOK
                      TEMPO 0918/0921 SCT030CB BKN040=
201911091400 TAF LROD 091400Z 0915/0924 18010KT CAVOK
                      TEMPO 0918/0921 SCT030CB BKN040=
201911091700 TAF LROD 091700Z 0918/1003 VRB04KT CAVOK
                      PROB30 TEMPO 0920/0924 5000 -SHRA SCT030CB
                       BKN040=
201911092000 TAF LROD 092000Z NIL=
201911092004 TAF AMD LROD 092004Z 0920/1003 CNL=
201911092300 TAF LROD 092300Z NIL=
201911100200 TAF LROD 100200Z 1003/1012 VRB04KT 9999 BKN040
                      BECMG 1005/1007 16010KT 5000 -RA BKN015 BKN040
                       TEMPO 1009/1012 3000 SHRA BKN010 SCT025CB
                       OVC030=
201911100500 TAF LROD 100500Z 1006/1015 09006KT 9999 BKN040
                      TEMPO 1006/1009 5000 -RA BR
                      BECMG 1009/1011 19012KT=
201911100536 TAF COR LROD 100536Z 1006/1015 09006KT 9999 -RA BKN040
                      TEMPO 1006/1009 5000 -RA BR
                      BECMG 1009/1011 19012KT
                      TEMPO 1012/1015 5000 SHRA SCT015 SCT025CB
                       BKN030=
201911100800 TAF LROD 100800Z 1009/1018 10006KT 9999 BKN040
                      TEMPO 1009/1010 5000 -RA BR
                      BECMG 1010/1012 19012KT
                      PROB40 TEMPO 1012/1015 5000 SHRA SCT015 SCT030CB
                       BKN035
                      BECMG 1015/1017 BKN015 SCT040=
201911101100 TAF LROD 101100Z 1012/1021 14006KT 9999 SCT035
                      BECMG 1013/1015 20012KT
                      PROB30 TEMPO 1013/1016 5000 SHRA SCT015 SCT035CB
                       BECMG 1016/1018 5000 BR BKN010 BKN020
                      TEMPO 1019/1021 3000 BR BKN005 BKN020=
201911101400 TAF LROD 101400Z 1015/1024 22015KT 9999 SCT035 FEW045CB
                      PROB30 TEMPO 1015/1016 5000 TSRA
                      BECMG 1018/1020 5000 BR BKN010 BKN020
                      TEMPO 1020/1023 3000 BR BKN002 OVC010=
201911101700 TAF LROD 101700Z 1018/1103 20009KT 9999 SCT020
                      BECMG 1018/1020 BKN010
                      BECMG 1021/1023 5000 BR BKN005
                      TEMPO 1100/1103 1500 BR BKN002=
201911101920 TAF AMD LROD 101920Z 1019/1103 CNL=
201911102000 TAF LROD 102000Z NIL=
201911102300 TAF LROD 102300Z NIL=
201911110200 TAF LROD 110200Z 1103/1112 20010KT 9999 OVC020
                      TEMPO 1103/1106 5000 BR OVC010=
201911110500 TAF LROD 110500Z 1106/1115 20008KT CAVOK
                      TEMPO 1106/1108 5000 BR=
201911110655 TAF AMD LROD 110655Z 1106/1115 20010KT 5000 BR BKN003
                      BECMG 1107/1109 CAVOK=
201911110800 TAF LROD 110800Z 1109/1118 21010KT CAVOK=
201911111100 TAF LROD 111100Z 1112/1121 21010KT CAVOK=
201911111400 TAF LROD 111400Z 1115/1124 VRB04KT CAVOK=
201911111700 TAF LROD 111700Z 1118/1203 08005KT CAVOK
                      TEMPO 1119/1123 5000 BR=
201911111956 TAF AMD LROD 111956Z 1119/1203 CNL=
201911112000 TAF LROD 112000Z NIL=
201911112300 TAF LROD 112300Z NIL=
201911120200 TAF LROD 120200Z 1203/1212 09008KT CAVOK=
201911120500 TAF LROD 120500Z 1206/1215 12008KT CAVOK=
201911120800 TAF LROD 120800Z 1209/1218 12008KT CAVOK=
201911121100 TAF LROD 121100Z 1212/1221 13010KT CAVOK=
201911121400 TAF LROD 121400Z 1215/1224 08008KT CAVOK=
201911121700 TAF LROD 121700Z 1218/1303 14012KT CAVOK=
201911121933 TAF AMD LROD 121933Z 1219/1303 CNL=
201911122000 TAF LROD 122000Z NIL=
201911122300 TAF LROD 122300Z NIL=
201911130200 TAF LROD 130200Z 1303/1312 11008KT CAVOK=
201911130500 TAF LROD 130500Z 1306/1315 10008KT CAVOK
                      BECMG 1307/1309 18010KT=
201911130800 TAF LROD 130800Z 1309/1318 20008KT CAVOK=
201911131100 TAF LROD 131100Z 1312/1321 10008KT CAVOK
                      BECMG 1313/1315 17012KT
                      PROB30 TEMPO 1316/1320 17015G25KT=
201911131400 TAF LROD 131400Z 1315/1324 16010KT CAVOK
                      PROB30 TEMPO 1316/1320 16015G25KT=
201911131700 TAF LROD 131700Z 1318/1403 19008KT CAVOK
                      BECMG 1400/1402 5000 -RA BKN010 BKN040=
201911132000 TAF LROD 132000Z NIL=
201911132300 TAF LROD 132300Z NIL=
201911140200 TAF LROD 140200Z 1403/1412 20008KT 5000 -RA BKN015 OVC030
                      TEMPO 1403/1407 1500 RA BKN005 OVC025
                      BECMG 1408/1410 9999 NSW BKN035=
201911140500 TAF LROD 140500Z 1406/1415 VRB04KT 9999 BKN040
                      PROB40 TEMPO 1406/1409 5000 -RA BKN010 BKN030=
201911140800 TAF LROD 140800Z 1409/1418 VRB04KT 9999 BKN040
                      PROB30 TEMPO 1409/1411 5000 -RA BKN010 BKN030=
201911141100 TAF LROD 141100Z 1412/1421 VRB04KT 9999 BKN040=
201911141400 TAF LROD 141400Z 1415/1424 VRB04KT 9999 BKN040
                      TEMPO 1416/1421 5000 -RA BR BKN015 BKN030
                       BECMG 1421/1423 3000 BR BKN010 BKN040=
201911141700 TAF LROD 141700Z 1418/1503 VRB04KT 9999 -RA BKN045
                      TEMPO 1418/1421 5000 -RA BR BKN015 BKN030
                       BECMG 1421/1423 3000 BR BKN010 BKN040=
201911142000 TAF LROD 142000Z NIL=
201911142003 TAF AMD LROD 142003Z 1420/1503 CNL=
201911142300 TAF LROD 142300Z NIL=
201911150200 TAF LROD 150200Z 1503/1512 VRB04KT 5000 BR SCT010
                      TEMPO 1503/1506 1500 BR BKN005
                      PROB40 TEMPO 1503/1506 0600 FG OVC002
                      BECMG 1507/1509 9999 NSW=
201911150500 TAF LROD 150500Z 1506/1515 10004KT 9999 SCT040
                      TEMPO 1506/1508 5000 BR=
201911150800 TAF LROD 150800Z 1509/1518 17006KT 9999 SCT040
                      PROB40 TEMPO 1509/1511 BKN005=
201911151100 TAF LROD 151100Z 1512/1521 17006KT CAVOK=
201911151400 TAF LROD 151400Z 1515/1524 VRB04KT CAVOK=
201911151700 TAF LROD 151700Z 1518/1603 10006KT CAVOK
                      PROB30 TEMPO 1518/1521 3000 BR
                      BECMG 1521/1523 16010KT=
201911151949 TAF AMD LROD 151949Z 1519/1603 CNL=
201911152000 TAF LROD 152000Z NIL=
201911152300 TAF LROD 152300Z NIL=
201911160200 TAF LROD 160200Z 1603/1612 10010KT CAVOK
                      BECMG 1608/1610 19015KT=
201911160500 TAF LROD 160500Z 1606/1615 10010KT CAVOK
                      BECMG 1608/1610 19015KT=
201911160800 TAF LROD 160800Z 1609/1618 16014KT CAVOK
                      BECMG 1616/1618 VRB04KT=
201911161100 TAF LROD 161100Z 1612/1621 19012KT CAVOK
                      TEMPO 1612/1615 19015G25KT
                      BECMG 1616/1618 VRB04KT=
201911161400 TAF LROD 161400Z 1615/1624 17006KT CAVOK=
201911161700 TAF LROD 161700Z 1618/1703 VRB04KT CAVOK=
201911162000 TAF LROD 162000Z NIL=
201911162009 TAF AMD LROD 162009Z 1620/1703 CNL=
201911162300 TAF LROD 162300Z NIL=
201911170200 TAF LROD 170200Z 1703/1712 11006KT CAVOK=
201911170500 TAF LROD 170500Z 1706/1715 12007KT CAVOK=
201911170800 TAF LROD 170800Z 1709/1718 14008KT CAVOK=
201911171100 TAF LROD 171100Z 1712/1721 VRB04KT CAVOK=
201911171400 TAF LROD 171400Z 1715/1724 VRB04KT CAVOK=
201911171700 TAF LROD 171700Z 1718/1803 11006KT CAVOK=
201911171950 TAF AMD LROD 171950Z 1719/1803 CNL=
201911172000 TAF LROD 172000Z NIL=
201911172300 TAF LROD 172300Z NIL=
201911180200 TAF LROD 180200Z 1803/1812 11006KT CAVOK
                      BECMG 1809/1811 20010KT=
201911180500 TAF LROD 180500Z 1806/1815 11006KT CAVOK
                      BECMG 1809/1811 20010KT
                      PROB40 TEMPO 1812/1815 5000 -SHRA SCT015
                       FEW025CB BKN040=
201911180800 TAF LROD 180800Z 1809/1818 11006KT CAVOK
                      BECMG 1809/1811 20010KT
                      PROB40 TEMPO 1812/1818 5000 -SHRA SCT015
                       FEW025CB BKN040=
201911181100 TAF LROD 181100Z 1812/1821 20008KT CAVOK
                      TEMPO 1812/1815 SCT015 FEW025CB BKN040=
201911181400 TAF LROD 181400Z 1815/1824 19012KT CAVOK
                      TEMPO 1815/1816 SCT015 FEW025CB BKN035
                      BECMG 1816/1818 VRB04KT=
201911181700 TAF LROD 181700Z 1818/1903 21008KT CAVOK=
201911182000 TAF LROD 182000Z NIL=
201911182005 TAF AMD LROD 182005Z 1820/1903 CNL=
201911182300 TAF LROD 182300Z NIL=
201911190200 TAF LROD 190200Z 1903/1912 09006KT CAVOK
                      TEMPO 1903/1906 5000 BR=
201911190500 TAF LROD 190500Z 1906/1915 09008KT CAVOK=
201911190800 TAF LROD 190800Z 1909/1918 09008KT CAVOK=
201911191100 TAF LROD 191100Z 1912/1921 09008KT CAVOK=
201911191400 TAF LROD 191400Z 1915/1924 VRB04KT CAVOK=
201911191700 TAF LROD 191700Z 1918/2003 VRB04KT CAVOK
                      TEMPO 2000/2003 3000 BR=
201911191943 TAF AMD LROD 191943Z 1919/2003 CNL=
201911192000 TAF LROD 192000Z NIL=
201911192300 TAF LROD 192300Z NIL=
201911200200 TAF LROD 200200Z 2003/2012 09007KT CAVOK=
201911200500 TAF LROD 200500Z 2006/2015 12008KT CAVOK
                      BECMG 2012/2014 5000 -RA BR BKN015 OVC040=
201911200800 TAF LROD 200800Z 2009/2018 10008KT CAVOK
                      BECMG 2012/2014 5000 -RA BR BKN015 OVC040
                       TEMPO 2014/2016 3000 -RA BR BKN010 OVC030=
201911201100 TAF LROD 201100Z 2012/2021 08008KT 9999 BKN045
                      PROB40 TEMPO 2012/2014 5000 -SHRA BKN015
                       SCT020CB OVC030
                      BECMG 2014/2016 3000 -RA BR BKN010 OVC030=
201911201400 TAF LROD 201400Z 2015/2024 08008KT 9999 BKN045
                      PROB40 TEMPO 2015/2017 5000 -SHRA BKN015
                       SCT020CB OVC030
                      TEMPO 2017/2021 3000 -RA BR BKN010 OVC030=
201911201700 TAF LROD 201700Z 2018/2103 VRB04KT 7000 BKN035
                      TEMPO 2018/2021 3000 -RA BR BKN010 OVC035=
201911201933 TAF AMD LROD 201933Z 2019/2103 CNL=
201911202000 TAF LROD 202000Z NIL=
201911202300 TAF LROD 202300Z NIL=
201911210200 TAF LROD 210200Z 2103/2112 11005KT CAVOK=
201911210500 TAF LROD 210500Z 2106/2115 12006KT CAVOK=
201911210800 TAF LROD 210800Z 2109/2118 11006KT CAVOK=
201911211100 TAF LROD 211100Z 2112/2121 19010KT CAVOK
                      BECMG 2115/2117 VRB04KT=
201911211400 TAF LROD 211400Z 2115/2124 VRB04KT CAVOK=
201911211700 TAF LROD 211700Z 2118/2203 VRB04KT CAVOK=
201911212000 TAF LROD 212000Z NIL=
201911212008 TAF AMD LROD 212008Z 2120/2203 CNL=
201911212300 TAF LROD 212300Z NIL=
201911220200 TAF LROD 220200Z 2203/2212 VRB04KT CAVOK=
201911220500 TAF LROD 220500Z 2206/2215 VRB04KT 9999 SCT040
                      TEMPO 2206/2209 5000 -RA=
201911220800 TAF LROD 220800Z 2209/2218 VRB04KT CAVOK=
201911221100 TAF LROD 221100Z 2212/2221 VRB04KT CAVOK=
201911221400 TAF LROD 221400Z 2215/2224 VRB04KT CAVOK=
201911221700 TAF LROD 221700Z 2218/2303 VRB04KT CAVOK=
201911222000 TAF LROD 222000Z 2221/2306 VRB04KT CAVOK=
201911222300 TAF LROD 222300Z NIL=
201911222310 TAF AMD LROD 222310Z 2223/2306 CNL=
201911230200 TAF LROD 230200Z NIL=
201911230500 TAF LROD 230500Z 2306/2315 VRB04KT CAVOK=
201911230800 TAF LROD 230800Z 2309/2318 VRB04KT CAVOK=
201911231100 TAF LROD 231100Z 2312/2321 VRB04KT CAVOK=
201911231400 TAF LROD 231400Z 2315/2324 VRB04KT CAVOK=
201911231700 TAF LROD 231700Z 2318/2403 VRB04KT CAVOK
                      TEMPO 2400/2403 5000 BR=
201911231954 TAF AMD LROD 231954Z 2319/2403 CNL=
201911232000 TAF LROD 232000Z NIL=
201911232300 TAF LROD 232300Z NIL=
201911240200 TAF LROD 240200Z 2403/2412 09007KT CAVOK
                      TEMPO 2403/2406 5000 BR=
201911240500 TAF LROD 240500Z 2406/2415 09006KT CAVOK=
201911240800 TAF LROD 240800Z 2409/2418 10006KT CAVOK=
201911241100 TAF LROD 241100Z 2412/2421 VRB04KT CAVOK=
201911241400 TAF LROD 241400Z 2415/2424 02006KT CAVOK
                      BECMG 2421/2423 5000 BR=
201911241700 TAF LROD 241700Z 2418/2503 VRB04KT CAVOK
                      BECMG 2423/2501 5000 BR=
201911242000 TAF LROD 242000Z NIL=
201911242016 TAF AMD LROD 242016Z 2420/2503 CNL=
201911242300 TAF LROD 242300Z NIL=
201911250200 TAF LROD 250200Z 2503/2512 10006KT CAVOK
                      TEMPO 2503/2506 3000 BR=
201911250500 TAF LROD 250500Z 2506/2515 08006KT CAVOK=
201911250800 TAF LROD 250800Z 2509/2518 09006KT CAVOK=
201911251100 TAF LROD 251100Z 2512/2521 VRB04KT CAVOK=
201911251400 TAF LROD 251400Z 2515/2524 01006KT CAVOK=
201911251700 TAF LROD 251700Z 2518/2603 VRB04KT CAVOK
                      BECMG 2521/2523 3000 BR=
201911251947 TAF AMD LROD 251947Z 2519/2603 CNL=
201911252000 TAF LROD 252000Z NIL=
201911252300 TAF LROD 252300Z NIL=
201911260200 TAF LROD 260200Z 2603/2612 VRB04KT CAVOK
                      TEMPO 2603/2606 3000 BR=
201911260500 TAF LROD 260500Z 2606/2615 VRB04KT CAVOK
                      TEMPO 2606/2608 3000 BR=
201911260800 TAF LROD 260800Z 2609/2618 VRB04KT CAVOK=
201911261100 TAF LROD 261100Z 2612/2621 VRB04KT CAVOK=
201911261400 TAF LROD 261400Z 2615/2624 VRB04KT CAVOK
                      BECMG 2619/2621 3000 BR=
201911261700 TAF LROD 261700Z 2618/2703 VRB04KT CAVOK
                      BECMG 2619/2621 3000 BR
                      TEMPO 2623/2703 0800 FG BKN002=
201911261929 TAF AMD LROD 261929Z 2619/2703 CNL=
201911262000 TAF LROD 262000Z NIL=
201911262300 TAF LROD 262300Z NIL=
201911270200 TAF LROD 270200Z 2703/2712 VRB04KT 5000 BR NSC
                      TEMPO 2703/2706 1500 BR
                      BECMG 2706/2708 CAVOK=
201911270500 TAF LROD 270500Z 2706/2715 VRB04KT 3000 BR NSC
                      BECMG 2706/2708 CAVOK
                      BECMG 2710/2712 19010KT=
201911270800 TAF LROD 270800Z 2709/2718 11004KT CAVOK
                      BECMG 2710/2712 19010KT=
201911271100 TAF LROD 271100Z 2712/2721 20008KT CAVOK=
201911271400 TAF LROD 271400Z 2715/2724 27004KT CAVOK=
201911271700 TAF LROD 271700Z 2718/2803 VRB04KT CAVOK
                      TEMPO 2801/2803 20010KT 5000 -RA BKN010 BKN030=
201911272000 TAF LROD 272000Z NIL=
201911272009 TAF AMD LROD 272009Z 2720/2803 CNL=
201911272300 TAF LROD 272300Z NIL=
201911280200 TAF LROD 280200Z 2803/2812 19010KT 9999 SCT045
                      PROB40 TEMPO 2803/2809 5000 -RA BKN010 BKN040=
201911280500 TAF LROD 280500Z 2806/2815 17010KT 9999 BKN015 BKN035
                      TEMPO 2806/2808 5000 -RA BKN010 OVC025
                      BECMG 2813/2815 3000 RA BKN005 OVC020=
201911280800 TAF LROD 280800Z 2809/2818 17010KT 9999 BKN015 BKN035
                      BECMG 2811/2813 5000 -RA BKN015 OVC025
                      TEMPO 2813/2817 1500 RA BR BKN005 OVC020=
201911281100 TAF LROD 281100Z 2812/2821 17010KT 9999 BKN035
                      BECMG 2812/2814 5000 -RA BKN015 OVC025
                      TEMPO 2814/2817 3000 RA BR BKN005 OVC020=
201911281400 TAF LROD 281400Z 2815/2824 17014KT 9999 BKN035
                      TEMPO 2815/2818 3000 RA BKN010 OVC020=
201911281700 TAF LROD 281700Z 2818/2903 19015KT CAVOK
                      PROB30 TEMPO 2820/2824 5000 -RA -SHRA SCT015
                       SCT030CB BKN035
                      BECMG 2900/2902 VRB04KT
                      PROB30 TEMPO 2901/2903 1500 DZ BR BKN005
                       OVC020=
201911282000 TAF LROD 282000Z NIL=
201911282050 TAF AMD LROD 282050Z 2820/2903 CNL=
201911282300 TAF LROD 282300Z NIL=
201911290200 TAF LROD 290200Z 2903/2912 23005KT 0600 FG OVC002
                      TEMPO 2903/2906 0150 FG VV001
                      BECMG 2906/2908 1500 BR BKN005
                      BECMG 2908/2910 9999 NSW BKN020=
201911290500 TAF LROD 290500Z 2906/2915 18004KT 0600 FG VV001
                      PROB40 TEMPO 2906/2908 0150 FG BKN001
                      BECMG 2908/2910 1500 BR BKN005
                      BECMG 2910/2912 22010KT 5000 -RA BR BKN015
                       OVC035
                      PROB40 TEMPO 2912/2915 3000 SHRA BKN010 SCT025CB
                       OVC030=
201911290705 TAF AMD LROD 290705Z 2907/2915 20008KT 9999 BKN020
                      TEMPO 2907/2909 5000 BR BKN005
                      BECMG 2909/2911 5000 -RA BR BKN015 OVC035
                       PROB40
                      TEMPO 2912/2915 3000 SHRA BKN010 SCT025CB
                       OVC030=
201911290800 TAF LROD 290800Z 2909/2918 20008KT 9999 BKN020
                      BECMG 2909/2911 5000 -RA BR BKN015 OVC035
                       PROB40
                      TEMPO 2911/2916 3000 -TSRA BKN010 SCT025CB
                       OVC030=
201911291100 TAF LROD 291100Z 2912/2921 20010KT 9999 BKN040
                      BECMG 2912/2914 5000 -RA BR BKN015 OVC035
                       PROB40
                      TEMPO 2914/2917 3000 -TSRA BKN010 SCT025CB
                       OVC030
                      BECMG 2917/2919 3000 -DZ BR BKN002 OVC010=
201911291400 TAF LROD 291400Z 2915/2924 20008KT 9999 BKN020 OVC045
                      TEMPO 2915/2917 3000 -SHRA BKN010 SCT025CB
                       OVC030
                      BECMG 2917/2919 3000 BR BKN005 OVC015
                      TEMPO 2920/2924 1500 -DZ BR BKN002 OVC010=
201911291700 TAF LROD 291700Z 2918/3003 21008KT 9999 BKN015 OVC020
                      BECMG 2920/2922 3000 BR BKN005 OVC015
                      TEMPO 2922/3003 1500 -DZ BR BKN002=
201911292000 TAF LROD 292000Z NIL=
201911292023 TAF AMD LROD 292023Z 2920/3003 CNL=
201911292300 TAF LROD 292300Z NIL=
201911300200 TAF LROD 300200Z 3003/3012 21008KT 5000 BR BKN045
                      TEMPO 3003/3006 1500 BR BKN005 BKN040
                      BECMG 3006/3008 35012KT 9999 NSW=
201911300500 TAF LROD 300500Z 3006/3015 27008KT 9999 OVC010
                      TEMPO 3006/3008 OVC005
                      BECMG 3008/3010 02012KT BKN020
                      PROB30 TEMPO 3010/3015 5000 -RA BR BKN010
                       OVC030=
201911300800 TAF LROD 300800Z 3009/3018 30008KT 9999 SCT030
                      BECMG 3009/3011 02012KT
                      PROB30 TEMPO 3010/3016 5000 -RA BR BKN010
                       BKN025=
201911301100 TAF LROD 301100Z 3012/3021 02012KT 9999 SCT030
                      PROB30 TEMPO 3012/3016 5000 -RA BR BKN010
                       BKN025
                      BECMG 3016/3018 VRB04KT=
201911301400 TAF LROD 301400Z 3015/3024 01010KT 9999 BKN040
                      BECMG 3016/3018 VRB04KT=
201911301700 TAF LROD 301700Z 3018/0103 VRB04KT 9999 BKN040
                      TEMPO 3022/0103 3000 BR=
201911302000 TAF LROD 302000Z NIL=
201911302300 TAF LROD 302300Z NIL=