201901010200 TAF LRSV 010200Z 0103/0112 VRB04KT 9999 BKN040
                      TEMPO 0103/0106 5000 BR BKN015 BKN035=
201901010500 TAF LRSV 010500Z 0106/0115 VRB04KT CAVOK
                      PROB30 TEMPO 0106/0108 BKN005 BKN025=
201901010800 TAF LRSV 010800Z 0109/0118 21006KT CAVOK=
201901011100 TAF LRSV 011100Z 0112/0121 20006KT CAVOK=
201901011400 TAF LRSV 011400Z 0115/0124 23010KT CAVOK=
201901011700 TAF LRSV 011700Z 0118/0203 23008KT 9999 BKN035
                      TEMPO 0200/0203 5000 -SN BKN015 OVC025=
201901012000 TAF LRSV 012000Z 0121/0206 23010KT 9999 BKN035
                      TEMPO 0200/0204 5000 -SN BKN010 OVC025=
201901012300 TAF LRSV 012300Z 0200/0209 24008KT 9999 BKN035
                      TEMPO 0200/0205 5000 -SN BKN010 OVC025=
201901020200 TAF LRSV 020200Z 0203/0212 24008KT 9999 BKN035
                      TEMPO 0203/0206 5000 -SN BKN010 OVC025=
201901020500 TAF LRSV 020500Z 0206/0215 20008KT 9999 BKN035
                      TEMPO 0206/0210 3000 -SN BR BKN010 OVC025=
201901020800 TAF LRSV 020800Z 0209/0218 VRB04KT 9999 BKN040
                      TEMPO 0209/0211 5000 -SN BR
                      BECMG 0214/0216 31010KT=
201901021100 TAF LRSV 021100Z 0212/0221 VRB04KT 6000 SCT005 BKN060
                      PROB40 TEMPO 0212/0218 3000 -SN BR BKN002
                       BKN040
                      BECMG 0214/0216 31010KT=
201901021400 TAF LRSV 021400Z 0215/0224 VRB04KT 1500 BR BKN002 BKN060
                      TEMPO 0215/0217 0500 FZFG BKN001 BKN040
                      BECMG 0217/0219 31010KT 3000 SCT005 BKN040
                       PROB30
                      TEMPO 0218/0221 5000 -SN BR
                      BECMG 0221/0223 7000 NSW=
201901021545 TAF AMD LRSV 021545Z 0215/0224 VRB04KT 5000 BR BKN040
                      TEMPO 0216/0218 3000 BR
                      BECMG 0217/0219 31010KT
                      PROB40 TEMPO 0218/0221 3000 -SN BR BKN010
                       BKN030
                      BECMG 0221/0223 7000 NSW=
201901021700 TAF LRSV 021700Z 0218/0303 31010KT 9999 BKN040
                      TEMPO 0218/0222 5000 -SN BR=
201901022000 TAF LRSV 022000Z 0221/0306 31013KT 9999 BKN040
                      TEMPO 0221/0224 5000 -SN BR BKN015 BKN030=
201901022300 TAF LRSV 022300Z 0300/0309 31014KT 9999 SCT045
                      TEMPO 0302/0305 5000 BR=
201901030200 TAF LRSV 030200Z 0303/0312 31014KT CAVOK
                      PROB30 TEMPO 0303/0305 5000 BR=
201901030500 TAF LRSV 030500Z 0306/0315 31014KT CAVOK
                      PROB40 TEMPO 0306/0310 32018G28KT=
201901030800 TAF LRSV 030800Z 0309/0318 31015G30KT CAVOK
                      BECMG 0311/0313 32012KT=
201901031100 TAF LRSV 031100Z 0312/0321 31012KT 9999 SCT025=
201901031400 TAF LRSV 031400Z 0315/0324 33010KT 9999 SCT025=
201901031700 TAF LRSV 031700Z 0318/0403 33010KT 9999 SCT020
                      BECMG 0401/0403 BKN015=
201901032000 TAF LRSV 032000Z 0321/0406 32010KT 9999 BKN030
                      BECMG 0401/0403 BKN015
                      PROB30 TEMPO 0403/0406 BKN010=
201901032300 TAF LRSV 032300Z 0400/0409 32010KT 9999 BKN030
                      BECMG 0401/0403 BKN015
                      PROB30 TEMPO 0403/0408 BKN010=
201901040200 TAF LRSV 040200Z 0403/0412 32012KT CAVOK
                      BECMG 0403/0405 BKN015 OVC030
                      TEMPO 0405/0409 BKN010 OVC025=
201901040500 TAF LRSV 040500Z 0406/0415 32012KT 9999 BKN015 BKN030
                      TEMPO 0406/0409 5000 -SN BKN010 OVC025=
201901040800 TAF LRSV 040800Z 0409/0418 32014KT 9999 BKN015 BKN030
                      TEMPO 0409/0411 5000 -SN BKN010 OVC025=
201901041100 TAF LRSV 041100Z 0412/0421 32014KT 9999 BKN035
                      TEMPO 0412/0415 5000 -SN BKN015 OVC030
                      BECMG 0419/0421 VRB04KT=
201901041400 TAF LRSV 041400Z 0415/0424 32010KT 9999 BKN015 BKN035
                      TEMPO 0415/0418 5000 -SN BKN010 OVC025
                      BECMG 0418/0420 VRB04KT=
201901041700 TAF LRSV 041700Z 0418/0503 32010KT 9999 SCT035
                      BECMG 0419/0421 VRB04KT=
201901042000 TAF LRSV 042000Z 0421/0506 VRB04KT 9999 SCT020
                      PROB30 TEMPO 0421/0424 BKN005
                      BECMG 0504/0506 23010KT=
201901042300 TAF LRSV 042300Z 0500/0509 VRB04KT CAVOK
                      BECMG 0505/0507 23010KT=
201901050200 TAF LRSV 050200Z 0503/0512 22008KT CAVOK=
201901050500 TAF LRSV 050500Z 0506/0515 23010KT CAVOK=
201901050800 TAF LRSV 050800Z 0509/0518 22009KT CAVOK=
201901051100 TAF LRSV 051100Z 0512/0521 24012KT CAVOK
                      BECMG 0514/0516 VRB04KT
                      BECMG 0518/0520 3000 -SN BR BKN010 OVC025=
201901051400 TAF LRSV 051400Z 0515/0524 26012KT CAVOK
                      BECMG 0515/0517 VRB04KT
                      BECMG 0518/0520 3000 -SN BR BKN010 OVC025
                       TEMPO 0521/0524 1500 SN BR OVC005
                      BECMG 0522/0524 31010KT=
201901051700 TAF LRSV 051700Z 0518/0603 24006KT CAVOK
                      BECMG 0518/0520 5000 -SN BR BKN015 BKN025
                       TEMPO 0521/0524 3000 SN BR BKN010 OVC020
                       BECMG 0523/0601 31012KT=
201901052000 TAF LRSV 052000Z 0521/0606 24006KT 5000 -SN BR SCT015 BKN025
                      TEMPO 0521/0524 3000 SN BR BKN010 OVC020
                       BECMG 0600/0602 31014KT=
201901052300 TAF LRSV 052300Z 0600/0609 29012KT 5000 -SN BR SCT015 BKN025
                      TEMPO 0600/0606 3000 SN BKN010 OVC020=
201901060200 TAF LRSV 060200Z 0603/0612 34012KT 5000 -SN BKN010 OVC025
                      TEMPO 0603/0605 3000 SN BR BKN005 OVC020
                       BECMG 0605/0607 9999 NSW BKN030=
201901060500 TAF LRSV 060500Z 0606/0615 34016KT 9999 -SN BKN015
                      TEMPO 0606/0609 5000 -SN BKN010 OVC015=
201901060800 TAF LRSV 060800Z 0609/0618 33014KT 9999 -SN SCT015 BKN035
                      PROB40 TEMPO 0616/0618 5000 -SN BKN010 OVC025=
201901061100 TAF LRSV 061100Z 0612/0621 33016KT 9999 -SN DRSN SCT015 BKN030
                       BECMG 0617/0619 5000 -SN BKN010 OVC025
                      TEMPO 0619/0621 3000 SN BKN005 OVC015=
201901061400 TAF LRSV 061400Z 0615/0624 32014KT 7000 -SN DRSN SCT015 BKN030
                       BECMG 0617/0619 5000 -SN BKN010 OVC025
                      TEMPO 0621/0624 3000 SN BKN005 OVC015=
201901061700 TAF LRSV 061700Z 0618/0703 33015KT 5000 -SN BLSN SCT015 BKN035
                       TEMPO 0621/0703 3000 -SN BLSN BKN010 OVC030=
201901062000 TAF LRSV 062000Z 0621/0706 33015KT 5000 -SN SCT010 BKN030
                      TEMPO 0623/0706 3000 SN BKN010 OVC025=
201901062300 TAF LRSV 062300Z 0700/0709 33015KT 5000 -SN SCT015 BKN035
                      TEMPO 0700/0706 3000 SN BKN010 OVC030=
201901070200 TAF LRSV 070200Z 0703/0712 33012KT 5000 -SN SCT015 BKN030
                      TEMPO 0703/0706 3000 SN BKN010 BKN025=
201901070500 TAF LRSV 070500Z 0706/0715 36014KT 3000 SN BKN010 OVC030
                      BECMG 0706/0708 5000 -SN BKN015 BKN030
                      BECMG 0710/0712 BKN020=
201901070800 TAF LRSV 070800Z 0709/0718 34014KT 9999 BKN020
                      TEMPO 0709/0715 3000 SN BKN015 OVC030=
201901071100 TAF LRSV 071100Z 0712/0721 34012KT 9999 BKN020
                      TEMPO 0712/0715 3000 SN BKN010 OVC025=
201901071400 TAF LRSV 071400Z 0715/0724 34010KT 9999 BKN020
                      TEMPO 0715/0718 5000 -SN BKN010 OVC020=
201901071700 TAF LRSV 071700Z 0718/0803 33010KT 9999 SCT030
                      PROB30 TEMPO 0718/0720 5000 -SN BKN015 BKN030
                       BECMG 0723/0801 VRB03KT 5000 BR
                      TEMPO 0801/0803 3000 BR=
201901072000 TAF LRSV 072000Z 0721/0806 33010KT 9999 SCT035
                      BECMG 0723/0801 VRB03KT 5000 BR
                      BECMG 0801/0803 3000 BR
                      TEMPO 0803/0806 1500 BR=
201901072300 TAF LRSV 072300Z 0800/0809 VRB04KT 5000 BR BKN035
                      TEMPO 0800/0802 3000 -SN BR
                      TEMPO 0803/0806 1500 BR
                      BECMG 0807/0809 8000 NSW=
201901080200 TAF LRSV 080200Z 0803/0812 VRB04KT CAVOK
                      PROB40 TEMPO 0803/0806 3000 BR=
201901080500 TAF LRSV 080500Z 0806/0815 VRB04KT 5000 BR NSC
                      TEMPO 0806/0808 3000 BR
                      BECMG 0808/0810 9999 NSW=
201901080800 TAF LRSV 080800Z 0809/0818 22006KT CAVOK=
201901081100 TAF LRSV 081100Z 0812/0821 22006KT CAVOK
                      BECMG 0815/0817 5000 BR BKN010
                      TEMPO 0817/0821 3000 BR BKN005=
201901081400 TAF LRSV 081400Z 0815/0824 14006KT CAVOK
                      BECMG 0815/0817 5000 BR BKN010
                      BECMG 0818/0820 3000 BR BKN005 OVC020=
201901081700 TAF LRSV 081700Z 0818/0903 20008KT CAVOK
                      BECMG 0822/0824 5000
                      TEMPO 0900/0903 3000 -SN BKN005 OVC020=
201901082000 TAF LRSV 082000Z 0821/0906 20006KT 5000 BR NSC
                      TEMPO 0821/0824 1500 BR
                      TEMPO 0900/0906 3000 -SN BR BKN005 OVC020=
201901082300 TAF LRSV 082300Z 0900/0909 20006KT 7000 NSC
                      TEMPO 0900/0908 3000 -SN BR BKN005 OVC020=
201901090200 TAF LRSV 090200Z 0903/0912 23005KT 7000 NSC
                      PROB30 TEMPO 0903/0907 3000 -SN BR BKN010
                       BKN035=
201901090500 TAF LRSV 090500Z 0906/0915 08005KT 7000 BKN025
                      TEMPO 0906/0908 3000 -SN BR BKN010 BKN035
                       TEMPO 0908/0912 BKN010 BKN020=
201901090800 TAF LRSV 090800Z 0909/0918 08005KT 5000 BR BKN045
                      TEMPO 0909/0912 1500 BR BKN010 BKN030=
201901091100 TAF LRSV 091100Z 0912/0921 06006KT 3000 BR BKN005 BKN045
                      TEMPO 0912/0915 0800 FZFG OVC002=
201901091400 TAF LRSV 091400Z 0915/0924 06006KT 3000 BR BKN010 BKN045
                      TEMPO 0915/0918 1500 BR OVC005=
201901091700 TAF LRSV 091700Z 0918/1003 06006KT 2000 BR BKN010
                      TEMPO 0921/1003 OVC005=
201901092000 TAF LRSV 092000Z 0921/1006 VRB04KT 3000 BR NSC
                      TEMPO 1000/1005 1500 BR BKN005=
201901092300 TAF LRSV 092300Z 1000/1009 35004KT 0300 FZFG VV001
                      BECMG 1006/1008 0800 BKN002=
201901100200 TAF LRSV 100200Z 1003/1012 35004KT 0200 FZFG VV001
                      BECMG 1006/1008 0800 FZFG BKN002
                      BECMG 1008/1010 1500 -SN BR BKN005 OVC020=
201901100442 TAF AMD LRSV 100442Z 1004/1012 35004KT 3000 BR BKN010 OVC025
                      BECMG 1006/1008 1500 -SN BR BKN005 OVC020
                       PROB40
                      TEMPO 1008/1012 0800 -SN FZFG BKN002 OVC015=
201901100500 TAF LRSV 100500Z 1006/1015 35004KT 3000 BR BKN005 OVC030
                      TEMPO 1007/1012 1500 -SN BR BKN002 OVC020=
201901100800 TAF LRSV 100800Z 1009/1018 35008KT 1500 -SN BR BKN010 OVC020
                      TEMPO 1009/1013 0800 SN FG BKN002 OVC010
                       BECMG 1013/1015 3000 BKN015 BKN025=
201901101100 TAF LRSV 101100Z 1012/1021 35008KT 1500 -SN BR BKN010 BKN025
                      TEMPO 1012/1014 0800 SN FG BKN002 OVC010
                       BECMG 1014/1016 3000 BKN015 BKN025=
201901101400 TAF LRSV 101400Z 1015/1024 34010KT 5000 -SN BR SCT010 BKN025
                      TEMPO 1015/1017 3000 SN FG BKN010 OVC020=
201901101700 TAF LRSV 101700Z 1018/1103 34013KT 3000 -SN BR SCT010 BKN020
                      TEMPO 1018/1024 1500 SN BKN010 OVC015=
201901102000 TAF LRSV 102000Z 1021/1106 34013KT 3000 -SN BR SCT010 BKN020
                      TEMPO 1021/1106 1500 SN BKN010 OVC015=
201901102300 TAF LRSV 102300Z 1100/1109 34013KT 3000 -SN BR BKN010 BKN020
                      TEMPO 1103/1109 34015G25KT 1500 SN DRSN BKN005
                       OVC015=
201901110200 TAF LRSV 110200Z 1103/1112 34018KT 1500 SN DRSN BKN010 BKN020
                      TEMPO 1103/1109 0800 +SN BLSN OVC005=
201901110500 TAF LRSV 110500Z 1106/1115 34018KT 3000 -SN BLSN SCT015 BKN020
                       TEMPO 1106/1109 0800 +SN BLSN OVC005
                      BECMG 1111/1113 5000=
201901110800 TAF LRSV 110800Z 1109/1118 33016KT 3000 -SN BLSN BKN015 BKN020
                       TEMPO 1109/1112 0800 SN BLSN BKN005 OVC020
                       BECMG 1112/1114 5000
                      BECMG 1116/1118 33006KT 9999 NSW BKN020=
201901111100 TAF LRSV 111100Z 1112/1121 33014KT 5000 -SN BLSN SCT015 BKN035
                       TEMPO 1112/1114 1500 SN BLSN BKN010 OVC030
                       BECMG 1115/1117 VRB04KT 9999 NSW=
201901111400 TAF LRSV 111400Z 1115/1124 33006KT 9999 BKN020
                      BECMG 1120/1122 5000 BR BKN015=
201901111700 TAF LRSV 111700Z 1118/1203 33006KT CAVOK
                      BECMG 1120/1122 5000 BR
                      TEMPO 1122/1203 3000 BR OVC005=
201901112000 TAF LRSV 112000Z 1121/1206 VRB04KT 5000 BR NSC
                      TEMPO 1200/1206 3000 BR OVC005=
201901112300 TAF LRSV 112300Z 1200/1209 VRB04KT 5000 BR NSC
                      TEMPO 1200/1206 1500 BR OVC005
                      BECMG 1205/1207 9999 NSW=
201901120200 TAF LRSV 120200Z 1203/1212 25008KT 3000 BR NSC
                      PROB40 TEMPO 1203/1206 1500 BR OVC005
                      BECMG 1205/1207 9999 NSW=
201901120500 TAF LRSV 120500Z 1206/1215 26008KT CAVOK
                      TEMPO 1207/1212 5000 -SN=
201901120800 TAF LRSV 120800Z 1209/1218 26008KT 9999 BKN040
                      TEMPO 1209/1213 5000 -SN=
201901121100 TAF LRSV 121100Z 1212/1221 28012KT 9999 BKN035
                      BECMG 1216/1218 VRB04KT=
201901121400 TAF LRSV 121400Z 1215/1224 30010KT 9999 BKN040
                      BECMG 1215/1217 VRB04KT=
201901121700 TAF LRSV 121700Z 1218/1303 25008KT 9999 BKN040=
201901122000 TAF LRSV 122000Z 1221/1306 25008KT 9999 BKN035
                      TEMPO 1301/1306 5000 BR=
201901122300 TAF LRSV 122300Z 1300/1309 24009KT 9999 BKN035
                      TEMPO 1303/1306 5000 BR=
201901130200 TAF LRSV 130200Z 1303/1312 23010KT CAVOK
                      TEMPO 1303/1306 5000 BR=
201901130500 TAF LRSV 130500Z 1306/1315 25010KT 9999 BKN040=
201901130800 TAF LRSV 130800Z 1309/1318 23010KT 9999 BKN040=
201901131100 TAF LRSV 131100Z 1312/1321 23010KT CAVOK=
201901131400 TAF LRSV 131400Z 1315/1324 23010KT CAVOK=
201901131700 TAF LRSV 131700Z 1318/1403 23010KT CAVOK=
201901132000 TAF LRSV 132000Z 1321/1406 23008KT CAVOK
                      TEMPO 1401/1406 3000 BR=
201901132300 TAF LRSV 132300Z 1400/1409 23008KT CAVOK
                      TEMPO 1401/1406 3000 BR=
201901140200 TAF LRSV 140200Z 1403/1412 23008KT CAVOK
                      TEMPO 1403/1406 3000 BR
                      TEMPO 1409/1412 5000 -SN
                      BECMG 1410/1412 30010KT=
201901140500 TAF LRSV 140500Z 1406/1415 23008KT CAVOK
                      TEMPO 1409/1412 5000 -SN
                      BECMG 1410/1412 30010KT=
201901140549 TAF COR LRSV 140549Z 1406/1415 23008KT CAVOK
                      TEMPO 1408/1412 5000 -FZRA
                      BECMG 1410/1412 30010KT=
201901140800 TAF LRSV 140800Z 1409/1418 24008KT 9999 BKN040
                      TEMPO 1409/1412 5000 -RA
                      BECMG 1414/1416 31014KT=
201901141100 TAF LRSV 141100Z 1412/1421 24006KT 9999 SCT040
                      BECMG 1414/1416 31014KT
                      BECMG 1419/1421 5000 -RASN=
201901141400 TAF LRSV 141400Z 1415/1424 27008KT 9999 SCT040
                      BECMG 1416/1418 33012KT 5000 -RASN
                      BECMG 1418/1420 3000 -SN BKN015 BKN040=
201901141700 TAF LRSV 141700Z 1418/1503 33015KT 9999 SCT040
                      TEMPO 1418/1420 33020G30KT 5000 -SN DRSN
                       BKN015 BKN040
                      BECMG 1420/1422 5000 -SN BKN015 BKN035
                      TEMPO 1422/1503 3000 -SN BKN010 BKN030=
201901142000 TAF LRSV 142000Z 1421/1506 33015KT 5000 -SN BR BKN015 BKN040
                      TEMPO 1421/1503 33018G28KT 3000 -SN DRSN
                       BKN010 BKN030
                      BECMG 1504/1506 9999 NSW SCT025=
201901142300 TAF LRSV 142300Z 1500/1509 33012KT CAVOK
                      PROB30 TEMPO 1500/1502 5000 -SN BR BKN015
                       BKN035=
201901150200 TAF LRSV 150200Z 1503/1512 30015KT CAVOK=
201901150500 TAF LRSV 150500Z 1506/1515 32015KT CAVOK=
201901150800 TAF LRSV 150800Z 1509/1518 28014KT CAVOK=
201901151100 TAF LRSV 151100Z 1512/1521 28014KT CAVOK=
201901151400 TAF LRSV 151400Z 1515/1524 27010KT CAVOK=
201901151700 TAF LRSV 151700Z 1518/1603 27010KT CAVOK
                      PROB30 TEMPO 1600/1603 5000 -SN=
201901152000 TAF LRSV 152000Z 1521/1606 27012KT CAVOK
                      TEMPO 1600/1606 5000 -SN=
201901152300 TAF LRSV 152300Z 1600/1609 27012KT CAVOK
                      TEMPO 1600/1606 5000 -SN
                      TEMPO 1606/1609 3000 SHSN SCT015 SCT030CB
                       BKN040=
201901160200 TAF LRSV 160200Z 1603/1612 25012KT CAVOK
                      TEMPO 1603/1607 5000 -SN
                      TEMPO 1607/1612 33014KT 3000 SHSN SCT015
                       SCT030CB BKN040=
201901160500 TAF LRSV 160500Z 1606/1615 25012KT 9999 SCT015 BKN040
                      TEMPO 1606/1608 5000 -SN
                      BECMG 1607/1609 32015KT
                      TEMPO 1608/1612 3000 SHSN SCT015 SCT030CB
                       BKN040=
201901160800 TAF LRSV 160800Z 1609/1618 30018KT 9999 BKN040
                      TEMPO 1609/1612 5000 -SHRA SCT015 SCT030CB
                       BKN040
                      PROB30 1609/1611 3000 SHRASN
                      BECMG 1616/1618 VRB04KT=
201901161100 TAF LRSV 161100Z 1612/1621 30020KT 9999 BKN040
                      TEMPO 1612/1616 30020G30KT 5000 -SHRA SCT015
                       SCT030CB BKN040
                      PROB30 1612/1616 3000 SHRASN
                      BECMG 1616/1618 VRB04KT=
201901161400 TAF LRSV 161400Z 1615/1624 30020KT 9999 BKN040
                      BECMG 1616/1618 VRB04KT=
201901161700 TAF LRSV 161700Z 1618/1703 VRB04KT 9999 BKN030
                      PROB30 TEMPO 1618/1620 5000 -SN
                      BECMG 1621/1623 5000 BR
                      TEMPO 1700/1703 0600=
201901162000 TAF LRSV 162000Z 1621/1706 VRB04KT 9999 BKN030
                      PROB30 TEMPO 1621/1623 5000 -SN
                      BECMG 1623/1701 5000 BR
                      PROB30 TEMPO 1701/1705 0800 FZFG OVC002=
201901162300 TAF LRSV 162300Z 1700/1709 VRB04KT 9999 BKN030
                      TEMPO 1701/1705 3000 BR=
201901170200 TAF LRSV 170200Z 1703/1712 21008KT CAVOK=
201901170500 TAF LRSV 170500Z 1706/1715 20007KT CAVOK=
201901170800 TAF LRSV 170800Z 1709/1718 21008KT CAVOK=
201901171100 TAF LRSV 171100Z 1712/1721 22008KT CAVOK=
201901171400 TAF LRSV 171400Z 1715/1724 24012KT CAVOK
                      BECMG 1721/1723 VRB04KT=
201901171700 TAF LRSV 171700Z 1718/1803 23010KT CAVOK=
201901172000 TAF LRSV 172000Z 1721/1806 23006KT CAVOK=
201901172300 TAF LRSV 172300Z 1800/1809 23006KT CAVOK=
201901180200 TAF LRSV 180200Z 1803/1812 25010KT CAVOK=
201901180500 TAF LRSV 180500Z 1806/1815 25010KT CAVOK
                      BECMG 1813/1815 33010KT=
201901180800 TAF LRSV 180800Z 1809/1818 24010KT CAVOK
                      BECMG 1813/1815 33010KT
                      BECMG 1815/1817 5000 -SN BR BKN010 OVC040=
201901181100 TAF LRSV 181100Z 1812/1821 24010KT CAVOK
                      BECMG 1813/1815 33010KT
                      BECMG 1815/1817 5000 -RASN BR BKN015 OVC040
                       BECMG 1819/1821 3000 -SN BR BKN010 OVC025=
201901181400 TAF LRSV 181400Z 1815/1824 27010KT CAVOK
                      BECMG 1816/1818 33010KT 5000 -RASN BR BKN015
                       OVC040
                      BECMG 1819/1821 3000 -SN BR BKN010 OVC025=
201901181700 TAF LRSV 181700Z 1818/1903 35012KT 8000 -RASN SCT015 BKN045
                      BECMG 1818/1820 5000 -SN BR BKN010 OVC035
                       PROB30
                      TEMPO 1820/1823 3000 -SN BR BKN005=
201901182000 TAF LRSV 182000Z 1821/1906 33014KT 5000 -SN BR BKN015 BKN045
                      TEMPO 1821/1901 3000 SN BKN010 OVC025
                      BECMG 1904/1906 7000 NSW BKN020 BKN050=
201901182300 TAF LRSV 182300Z 1900/1909 33012KT 9999 SCT015 BKN045
                      TEMPO 1900/1902 5000 -SN BR BKN010 OVC025=
201901190200 TAF LRSV 190200Z 1903/1912 33012KT 9999 SCT045
                      TEMPO 1903/1905 5000 -SN BR BKN015 BKN035=
201901190500 TAF LRSV 190500Z 1906/1915 34008KT CAVOK=
201901190800 TAF LRSV 190800Z 1909/1918 VRB04KT 9999 SCT030=
201901191100 TAF LRSV 191100Z 1912/1921 VRB04KT 9999 BKN030
                      BECMG 1919/1921 15010KT=
201901191400 TAF LRSV 191400Z 1915/1924 VRB04KT 9999 SCT030
                      BECMG 1919/1921 15010KT
                      PROB30 TEMPO 1921/1924 5000 -SN BKN015 BKN025=
201901191700 TAF LRSV 191700Z 1918/2003 14008KT 9999 BKN030
                      PROB30 TEMPO 1922/2003 5000 -SN BR BKN015
                       OVC025=
201901192000 TAF LRSV 192000Z 1921/2006 14008KT 9999 BKN030
                      PROB30 TEMPO 1921/2003 5000 -SN BR BKN015
                       OVC025
                      TEMPO 2003/2006 5000 -SN BR BKN010 OVC025=
201901192300 TAF LRSV 192300Z 2000/2009 14008KT 9999 BKN030
                      TEMPO 2000/2003 5000 -SN BR BKN015 OVC025
                       PROB40
                      TEMPO 2003/2009 5000 -SN BR BKN010 OVC025=
201901200200 TAF LRSV 200200Z 2003/2012 14010KT 7000 -SN BKN030
                      TEMPO 2003/2006 4000 -SN BR BKN015 BKN030=
201901200500 TAF LRSV 200500Z 2006/2015 14010KT 9999 BKN035
                      TEMPO 2006/2009 5000 -SN BR BKN015 OVC030
                       BECMG 2010/2012 5000 -SN BR BKN010 OVC020=
201901200800 TAF LRSV 200800Z 2009/2018 13006KT 9999 BKN035
                      TEMPO 2009/2011 5000 -SN
                      BECMG 2013/2015 5000 -SN BR BKN010 OVC020=
201901201100 TAF LRSV 201100Z 2012/2021 13006KT 5000 -SN BR BKN010 BKN035
                      TEMPO 2012/2015 3000 SN BR BKN002 OVC030
                       TEMPO 2017/2021 34010KT 1500 SN BR=
201901201400 TAF LRSV 201400Z 2015/2024 VRB04KT 0150 FZFG VV001
                      BECMG 2018/2020 34010KT 0600 SN FZFG BKN002
                       OVC005=
201901201624 TAF AMD LRSV 201624Z 2016/2024 VRB04KT 1500 -SN BR BKN010
                      TEMPO 2016/2018 0600 -SN FZFG OVC002
                      BECMG 2018/2020 34010KT=
201901201700 TAF LRSV 201700Z 2018/2103 34010KT 3000 -SN BR BKN010 OVC025
                      TEMPO 2018/2023 1500 SN BKN005 OVC020
                      BECMG 2101/2103 5000 BR=
201901202000 TAF LRSV 202000Z 2021/2106 33012KT 3000 -SN BR BKN020 OVC030
                      PROB30 TEMPO 2021/2024 1500 SN BKN005 OVC020
                       BECMG 2102/2104 5000 BR
                      BECMG 2104/2106 9999 NSW=
201901202300 TAF LRSV 202300Z 2100/2109 33012KT 1500 -SN BR BKN020 OVC035
                      BECMG 2102/2104 5000 BR
                      BECMG 2104/2106 9999 NSW=
201901210200 TAF LRSV 210200Z 2103/2112 33014KT 5000 -SN BR BKN015 OVC035
                      TEMPO 2103/2105 3000 -SN BR BKN010 OVC030
                       BECMG 2105/2107 9999 NSW BKN020=
201901210500 TAF LRSV 210500Z 2106/2115 33014KT 3000 -SN BR BKN010 OVC025
                      BECMG 2106/2108 7000 NSW SCT015 BKN025=
201901210800 TAF LRSV 210800Z 2109/2118 33014KT 7000 -SN SCT015 BKN030=
201901211100 TAF LRSV 211100Z 2112/2121 33012KT 9999 SCT015 OVC020
                      BECMG 2116/2118 VRB04KT=
201901211400 TAF LRSV 211400Z 2115/2124 33012KT 9999 BKN020
                      BECMG 2118/2120 VRB04KT 5000 BR BKN010
                      BECMG 2122/2124 1500 BR OVC005=
201901211700 TAF LRSV 211700Z 2118/2203 VRB04KT 9999 OVC020
                      BECMG 2120/2122 5000 BR OVC010
                      TEMPO 2123/2203 1500 BR OVC005=
201901212000 TAF LRSV 212000Z 2121/2206 VRB04KT 9999 OVC015
                      BECMG 2121/2123 5000 BR OVC010
                      TEMPO 2200/2205 1500 BR OVC005=
201901212300 TAF LRSV 212300Z 2200/2209 VRB04KT 9999 BKN020
                      TEMPO 2200/2205 5000 BR OVC010
                      BECMG 2205/2207 13010KT=
201901220200 TAF LRSV 220200Z 2203/2212 VRB04KT 9999 BKN015 BKN030
                      TEMPO 2203/2205 5000 BR OVC010
                      BECMG 2205/2207 13010KT
                      BECMG 2210/2212 5000 -SN BR BKN005 OVC020=
201901220500 TAF LRSV 220500Z 2206/2215 13012KT 9999 BKN015 OVC030
                      BECMG 2210/2212 5000 -SN BKN005 OVC020
                      BECMG 2212/2214 1500 SN BKN002 OVC015=
201901220800 TAF LRSV 220800Z 2209/2218 14010KT 9999 OVC010
                      BECMG 2210/2212 5000 -SN BKN005 OVC010
                      TEMPO 2214/2218 1500 SN BKN002 OVC010=
201901221100 TAF LRSV 221100Z 2212/2221 13012KT 7000 -SN OVC010
                      BECMG 2213/2215 3000 -SN BR BKN005 OVC010
                       BECMG 2216/2218 VRB04KT 1500 SN BR BKN002
                       OVC010=
201901221400 TAF LRSV 221400Z 2215/2224 13012KT 3000 -SN BR BKN005 OVC020
                      TEMPO 2215/2221 1500 -SN BR
                      PROB30 2216/2220 0600 +SN FZFG BKN002 OVC010
                       BECMG 2218/2220 VRB04KT=
201901221700 TAF LRSV 221700Z 2218/2303 10008KT 3000 -SN BR BKN005 OVC020
                      TEMPO 2218/2303 1500 -SN BR BKN002 OVC015
                       PROB30
                      TEMPO 2223/2303 0600 -SG FZFG OVC001=
201901222000 TAF LRSV 222000Z 2221/2306 10008KT 3000 -SN BR BKN005 OVC020
                      TEMPO 2221/2306 1500 -SN BR BKN002 OVC015
                       PROB30
                      TEMPO 2223/2306 0600 -SG FZFG OVC001=
201901222300 TAF LRSV 222300Z 2300/2309 10008KT 3000 -SN BR BKN005 OVC020
                      TEMPO 2300/2306 0600 -SG FZFG OVC002
                      BECMG 2307/2309 5000 BR BKN015=
201901230200 TAF LRSV 230200Z 2303/2312 VRB04KT 3000 -SN BR BKN005 OVC020
                      TEMPO 2303/2306 1500 -SN BR OVC002
                      BECMG 2307/2309 5000 BR BKN015=
201901230500 TAF LRSV 230500Z 2306/2315 VRB04KT 1500 -SN BR BKN010 OVC030
                      TEMPO 2306/2308 0600 SN OVC002
                      BECMG 2309/2311 5000 BR BKN015=
201901230800 TAF LRSV 230800Z 2309/2318 33010KT 3000 -SN BR BKN015 OVC030
                      BECMG 2309/2311 9999 NSW BKN020=
201901231100 TAF LRSV 231100Z 2312/2321 33008KT CAVOK=
201901231400 TAF LRSV 231400Z 2315/2324 33008KT 9999 BKN040=
201901231700 TAF LRSV 231700Z 2318/2403 33008KT CAVOK=
201901232000 TAF LRSV 232000Z 2321/2406 33008KT CAVOK
                      BECMG 2402/2404 3000 -SN BR BKN010 OVC035
                       TEMPO 2404/2406 1500 SN BR BKN005 OVC020=
201901232300 TAF LRSV 232300Z 2400/2409 33008KT 5000 BR NSC
                      BECMG 2402/2404 3000 -SN BR BKN010 OVC035
                       BECMG 2404/2406 1500 SN BR BKN005 OVC020=
201901240200 TAF LRSV 240200Z 2403/2412 33010KT 7000 NSC
                      BECMG 2403/2405 3000 -SN BR BKN010 OVC035
                       BECMG 2405/2407 1500 SN BR BKN005 OVC020=
201901240500 TAF LRSV 240500Z 2406/2415 34010KT 3000 -SN BR BKN010 BKN030
                      TEMPO 2406/2412 1500 SN BKN005 OVC020=
201901240800 TAF LRSV 240800Z 2409/2418 35010KT 3000 -SN BR BKN015 OVC030
                      TEMPO 2409/2414 1500 SN BR BKN005 OVC020
                       PROB40 2409/2412 0800 +SN=
201901241100 TAF LRSV 241100Z 2412/2421 02008KT 3000 -SN BR BKN015 OVC030
                      TEMPO 2412/2418 1500 SN BR BKN005 OVC020=
201901241400 TAF LRSV 241400Z 2415/2424 02008KT 3000 -SN BR BKN010 OVC030
                      TEMPO 2415/2418 1500 SN BR BKN005 OVC020=
201901241700 TAF LRSV 241700Z 2418/2503 35008KT 3000 -SN BR BKN010 OVC030
                      TEMPO 2418/2424 1500 SN BKN005 OVC020=
201901242000 TAF LRSV 242000Z 2421/2506 02008KT 3000 SN SCT010 OVC025
                      TEMPO 2421/2503 1500 SN BKN005 OVC020
                      BECMG 2503/2505 5000 -SN=
201901242300 TAF LRSV 242300Z 2500/2509 02006KT 5000 -SN SCT010 OVC025
                      TEMPO 2500/2503 1500 SN BKN005 OVC020=
201901250200 TAF LRSV 250200Z 2503/2512 05006KT 5000 BR SCT005 OVC030
                      TEMPO 2503/2509 3000 -SN BKN005 OVC025=
201901250500 TAF LRSV 250500Z 2506/2515 07006KT 5000 BR SCT005 OVC025
                      TEMPO 2506/2512 3000 -SN BKN005 OVC020=
201901250800 TAF LRSV 250800Z 2509/2518 09006KT 3000 -SN SCT005 OVC025
                      TEMPO 2509/2512 0800 -SN FZFG BKN002 OVC020=
201901251100 TAF LRSV 251100Z 2512/2521 09006KT 1500 BR BKN003 OVC020
                      TEMPO 2512/2515 0800 -SN FZFG BKN001 OVC015=
201901251400 TAF LRSV 251400Z 2515/2524 09006KT 1500 BR BKN003 OVC020
                      TEMPO 2515/2516 3000 SCT005 BKN025
                      BECMG 2517/2519 0600 FZFG VV002
                      TEMPO 2522/2524 0150 FZFG VV001=
201901251556 TAF AMD LRSV 251556Z 2515/2524 09006KT 0600 FZFG VV001
                      BECMG 2516/2518 0350 FZFG
                      TEMPO 2522/2524 0150 -SN FZFG=
201901251700 TAF LRSV 251700Z 2518/2603 09006KT 0350 FZFG VV001
                      PROB30 TEMPO 2522/2603 0600 -SN FZFG BKN002
                       OVC005=
201901252000 TAF LRSV 252000Z 2521/2606 09006KT 0350 FZFG VV001
                      TEMPO 2521/2524 0600 BKN005
                      PROB30 TEMPO 2601/2603 0600 -SN FZFG BKN002
                       OVC005=
201901252300 TAF AMD LRSV 260032Z 2600/2609 VRB04KT 1500 BR BKN010 OVC020
                      PROB30 TEMPO 2600/2606 0600 -SN FZFG BKN002
                       OVC005=
201901260032 TAF AMD LRSV 260032Z 2600/2609 VRB04KT 1500 BR BKN010 OVC020
                      PROB30 TEMPO 2600/2606 0600 -SN FZFG BKN002
                       OVC005=
201901260200 TAF LRSV 260200Z 2603/2612 33008KT 3000 BR OVC015
                      PROB40 TEMPO 2603/2605 0800 -SN FZFG BKN002
                       OVC005
                      BECMG 2605/2607 1500 -SN BKN005 OVC010=
201901260500 TAF LRSV 260500Z 2606/2615 35008KT 3000 -SN BR BKN010 OVC030
                      TEMPO 2606/2610 1500 SN BR BKN005 OVC010
                       BECMG 2610/2612 5000 BR=
201901260800 TAF LRSV 260800Z 2609/2618 35008KT 7000 -SN BKN010 OVC030
                      TEMPO 2609/2611 3000 SN BR BKN005 OVC010
                       TEMPO 2611/2615 5000 BR=
201901261100 TAF LRSV 261100Z 2612/2621 VRB04KT 8000 BKN010
                      BECMG 2614/2616 5000 -SN BR BKN010 OVC020
                       TEMPO 2617/2621 3000 SN BR BKN005 OVC010=
201901261400 TAF LRSV 261400Z 2615/2624 VRB04KT 5000 -SN BR BKN010 OVC020
                      TEMPO 2617/2619 3000 SN BR BKN005 OVC010
                       BECMG 2622/2624 1500 BR OVC005=
201901261700 TAF LRSV 261700Z 2618/2703 VRB04KT 5000 -SN BR SCT010 OVC020
                      TEMPO 2618/2621 3000 SN BR BKN005 OVC010
                       BECMG 2622/2624 3000 BR OVC005
                      TEMPO 2700/2703 1500 BR OVC002=
201901262000 TAF LRSV 262000Z 2621/2706 30005KT 5000 BR SCT010 OVC020
                      TEMPO 2621/2623 3000 -SN BR BKN005 OVC010
                       TEMPO 2700/2706 1500 BR=
201901262300 TAF LRSV 262300Z 2700/2709 34006KT 3000 BR BKN010 BKN040
                      BECMG 2707/2709 5000 SCT015 BKN045=
201901270200 TAF LRSV 270200Z 2703/2712 VRB04KT 5000 BR SCT015 BKN040
                      PROB30 TEMPO 2703/2707 1500 BR BKN005 BKN040
                       BECMG 2708/2710 5000=
201901270500 TAF LRSV 270500Z 2706/2715 VRB04KT CAVOK
                      TEMPO 2706/2708 3000 BR=
201901270800 TAF LRSV 270800Z 2709/2718 VRB04KT 5000 BR NSC
                      BECMG 2709/2711 9999 NSW=
201901271100 TAF LRSV 271100Z 2712/2721 VRB04KT 5000 BR NSC
                      BECMG 2712/2714 9999 NSW
                      BECMG 2716/2718 3000 BR BKN010=
201901271400 TAF LRSV 271400Z 2715/2724 VRB04KT 5000 BR NSC
                      BECMG 2717/2719 3000 BR BKN010=
201901271700 TAF LRSV 271700Z 2718/2803 16010KT 3000 BR NSC
                      BECMG 2719/2721 1500 BR BKN005
                      TEMPO 2722/2803 0600 FZFG BKN002=
201901272000 TAF LRSV 272000Z 2721/2806 16006KT 3000 BR NSC
                      BECMG 2721/2723 1500 BR BKN005
                      TEMPO 2723/2806 0600 FZFG BKN002
                      PROB40 2801/2805 0150=
201901272300 TAF LRSV 272300Z 2800/2809 16006KT 3000 BR NSC
                      BECMG 2800/2802 1500 BR BKN005
                      TEMPO 2802/2806 0600 FZFG BKN002
                      PROB40 2803/2806 0150=
201901280200 TAF LRSV 280200Z 2803/2812 18008KT 3000 BR NSC
                      TEMPO 2803/2806 1500 BR BKN005
                      PROB30 2803/2806 0600 FZFG BKN002
                      BECMG 2806/2808 CAVOK=
201901280500 TAF LRSV 280500Z 2806/2815 18008KT 3000 BR NSC
                      TEMPO 2806/2808 1500 BR BKN005
                      BECMG 2808/2810 CAVOK=
201901280800 TAF LRSV 280800Z 2809/2818 18008KT 1500 BR NSC
                      TEMPO 2809/2812 0600=
201901281100 TAF LRSV 281100Z 2812/2821 16010KT 0350 FZFG VV002
                      TEMPO 2812/2815 1500 BR BKN005=
201901281400 TAF LRSV 281400Z 2815/2824 16010KT 0350 FZFG VV002
                      TEMPO 2815/2818 1500 BR BKN005=
201901281700 TAF LRSV 281700Z 2818/2903 17010KT 1500 BR OVC003
                      BECMG 2818/2820 0600 FZFG OVC002
                      TEMPO 2820/2903 0150 FZFG VV001=
201901282000 TAF LRSV 282000Z 2821/2906 20006KT 0200 FZFG VV001
                      PROB40 TEMPO 2821/2824 0800 OVC003=
201901282300 TAF LRSV 282300Z 2900/2909 VRB04KT 0200 FZFG VV001
                      PROB40 TEMPO 2902/2903 0800 OVC003
                      BECMG 2906/2908 0800 OVC003=
201901290200 TAF LRSV 290200Z 2903/2912 24008KT 3000 BR SCT001
                      PROB40 TEMPO 2903/2906 0800 FZFG VV001
                      BECMG 2906/2908 7000 NSW=
201901290500 TAF LRSV 290500Z 2906/2915 24008KT CAVOK=
201901290800 TAF LRSV 290800Z 2909/2918 VRB04KT CAVOK=
201901291100 TAF LRSV 291100Z 2912/2921 25008KT CAVOK
                      BECMG 2915/2917 3000 BR BKN010 OVC025
                      BECMG 2917/2919 0800 -FZDZ FZFG BKN002 OVC005=
201901291400 TAF LRSV 291400Z 2915/2924 25008KT 5000 BR NSC
                      BECMG 2916/2918 3000 BR BKN010 OVC030
                      BECMG 2918/2920 1500 BR OVC005
                      TEMPO 2920/2924 0800 -FZDZ FZFG OVC002=
201901291700 TAF LRSV 291700Z 2918/3003 34008KT 3000 BR NSC
                      BECMG 2918/2920 1500 BR OVC005
                      TEMPO 2922/3003 0800 FZFG OVC002=
201901292000 TAF LRSV 292000Z 2921/3006 34008KT 3000 BR NSC
                      TEMPO 2921/2924 1500 BR BKN010
                      BECMG 3000/3002 1500 RA RASN BKN015 OVC040
                       PROB30
                      TEMPO 3003/3005 FZRA=
201901292300 TAF AMD LRSV 300005Z 3000/3009 34008KT 1500 BR BKN005
                      TEMPO 3000/3002 0350 FZFG OVC002
                      TEMPO 3002/3006 RA RASN BKN015 OVC040
                      PROB30 TEMPO 3003/3005 FZRA=
201901300005 TAF AMD LRSV 300005Z 3000/3009 34008KT 1500 BR BKN005
                      TEMPO 3000/3002 0350 FZFG OVC002
                      TEMPO 3002/3006 RA RASN BKN015 OVC040
                      PROB30 TEMPO 3003/3005 FZRA=
201901300200 TAF LRSV 300200Z 3003/3012 34008KT 0350 FZFG VV001
                      PROB30 TEMPO 3003/3005 0600 -FZDZ VV002
                      BECMG 3005/3007 0800 BKN002 OVC005
                      BECMG 3008/3010 16010KT 3000 BR BKN010 BKN020=
201901300500 TAF LRSV 300500Z 3006/3015 34008KT 0350 FZFG VV001
                      PROB30 TEMPO 3006/3007 -FZDZ FZFG
                      BECMG 3007/3009 0800 BKN002 OVC005
                      BECMG 3009/3011 16010KT 1500 BR BKN005 BKN020
                       TEMPO 3011/3015 3000 BKN010 BKN030=
201901300800 TAF LRSV 300800Z 3009/3018 VRB04KT 0100 FG VV001
                      BECMG 3009/3011 0600 OVC002
                      PROB30 TEMPO 3011/3015 1500 BR BKN005
                      BECMG 3015/3017 16010KT=
201901301100 TAF LRSV 301100Z 3012/3021 VRB04KT 0100 FG VV001
                      BECMG 3014/3016 0600 OVC002
                      BECMG 3015/3017 16010KT
                      PROB40 TEMPO 3016/3021 1500 BR BKN005=
201901301400 TAF LRSV 301400Z 3015/3024 VRB04KT 0100 FG OVC001
                      BECMG 3015/3017 16010KT 0600 BKN002
                      PROB30 TEMPO 3018/3021 1500 BR BKN005
                      BECMG 3021/3023 0350 FG OVC001=
201901301700 TAF LRSV 301700Z 3018/3103 10007KT 0100 FG VV001
                      BECMG 3018/3020 16012KT
                      PROB30 TEMPO 3019/3023 0800 OVC002=
201901302000 TAF LRSV 302000Z 3021/3106 16010KT 0600 FG BKN002
                      TEMPO 3022/3104 1500 -DZ BR BKN005 OVC020=
201901302300 TAF LRSV 302300Z 3100/3109 15007KT 0350 FG BKN002
                      TEMPO 3100/3106 0800 -DZ FG BKN005 OVC015
                       BECMG 3106/3108 1500 -RADZ BR BKN005 OVC020=
201901310200 TAF LRSV 310200Z 3103/3112 VRB04KT 0150 FG VV001
                      TEMPO 3103/3106 0600 OVC002
                      BECMG 3106/3108 15010KT 0800 -DZRA FG BKN005
                       OVC020
                      BECMG 3108/3110 1500 -RA BR BKN010 OVC030=
201901310500 TAF LRSV 310500Z 3106/3115 VRB04KT 0150 FG VV001
                      BECMG 3106/3108 14010KT 0800 -DZRA FG BKN002
                       OVC020
                      BECMG 3109/3111 1500 -RA BR BKN005 OVC030=
201901310800 TAF LRSV 310800Z 3109/3118 VRB04KT 0150 FG VV001
                      PROB30 TEMPO 3110/3113 13010KT 0800 -RADZ
                       FG BKN002 OVC030=
201901311100 TAF LRSV 311100Z 3112/3121 VRB04KT 0150 FG VV001
                      PROB40 TEMPO 3113/3115 13010KT 0800 -RADZ
                       FG BKN002 OVC020=
201901311400 TAF LRSV 311400Z 3115/3124 VRB04KT 0150 FG VV001
                      BECMG 3120/3122 0800 BKN002=
201901311700 TAF LRSV 311700Z 3118/0103 VRB04KT 0150 FG OVC001
                      PROB30 TEMPO 3118/3122 0600 -RA FG BKN002
                       OVC020
                      BECMG 3122/3124 FZFG=
201901312000 TAF LRSV 312000Z 3121/0106 VRB04KT 0200 FG OVC001
                      PROB40 TEMPO 3121/3123 0800 -RA FG BKN002
                       OVC020
                      BECMG 3123/0101 FZFG=
201901312300 TAF LRSV 312300Z 0100/0109 VRB04KT 0600 FG BKN005 BKN025
                      BECMG 0100/0102 0350 FZFG OVC001
                      BECMG 0106/0108 0800 FG BKN003=