201902010000 METAR LRSV 010000Z 24003KT 0100 R34/0375N FG VV001 00/00
                        Q1005 R16/29//95=
201902010030 METAR LRSV 010030Z 26006KT 0200 R34/0550N FG VV001 00/00
                        Q1005 R16/29//95=
201902010100 METAR LRSV 010100Z 27005KT 1500 BR OVC029 00/00 Q1005 R16/29//95=
201902010130 METAR LRSV 010130Z 33006KT 5000 BR BKN032 00/00 Q1005 R16/29//95=
201902010200 METAR LRSV 010200Z 30005KT 9999 BKN037 00/00 Q1006 R16/29//95=
201902010230 METAR LRSV 010230Z 32005KT 9999 BKN035 01/01 Q1006 R16/29//95=
201902010300 METAR LRSV 010300Z 08002KT 010V120 8000 BKN035 01/01 Q1006
                        R16/29//95=
201902010330 METAR LRSV 010330Z 15003KT 120V180 0400 R34/0800D FG FEW002
                        BKN041 00/00 Q1006 R16/29//95=
201902010400 METAR LRSV 010400Z 17003KT 0200 R34/0500N FG VV001 00/00
                        Q1007 R16/29//95=
201902010430 METAR LRSV 010430Z 25006KT 0400 R34/0800U FG OVC042 00/00
                        Q1007 R16/29//95=
201902010500 METAR LRSV 010500Z 24004KT 4000 BR BKN042 00/00 Q1007 R16/29//95=
201902010530 METAR LRSV 010530Z 20003KT 160V230 2000 BR FEW043 M00/M00
                        Q1007 R16/29//95=
201902010600 METAR LRSV 010600Z 23004KT 1500 BR FEW044 M00/M00 Q1008 R16/29//95=
201902010630 METAR LRSV 010630Z 25003KT 170V270 3000 BR NSC 00/00 Q1008
                        R16/29//95=
201902010700 METAR LRSV 010700Z 24002KT 210V270 3000 BR NSC 01/01 Q1008
                        R16/29//95=
201902010730 METAR LRSV 010730Z 25003KT 5000 BR NSC 01/01 Q1008 R16/29//95=
201902010800 METAR LRSV 010800Z 25006KT 5000 BR NSC 01/01 Q1009 R16/29//95=
201902010830 METAR LRSV 010830Z 24003KT 5000 BR NSC 01/01 Q1009 R16/29//95=
201902010900 METAR LRSV 010900Z 24005KT 7000 NSC 01/01 Q1009 R16/29//95=
201902010930 METAR LRSV 010930Z 24005KT CAVOK 02/02 Q1010 R16/29//95=
201902011000 METAR LRSV 011000Z 17002KT CAVOK 03/03 Q1010 R16/29//95=
201902011030 METAR LRSV 011030Z 12004KT 8000 NSC 03/03 Q1010 R16/29//95=
201902011100 METAR LRSV 011100Z 13003KT 090V170 CAVOK 03/03 Q1010 R16/29//95=
201902011130 METAR LRSV 011130Z 14003KT 110V180 CAVOK 03/03 Q1010 R16/29//95=
201902011200 METAR LRSV 011200Z 12003KT CAVOK 04/04 Q1010 R16/29//95=
201902011230 METAR LRSV 011230Z 13003KT CAVOK 04/04 Q1009 R16/29//95=
201902011300 METAR LRSV 011300Z 14003KT 8000 NSC 04/03 Q1009 R16/19//95=
201902011330 METAR LRSV 011330Z VRB01KT 6000 BR NSC 03/02 Q1009 R16/19//95=
201902011400 METAR COR LRSV 011400Z 17003KT 6000 NSC 02/02 Q1010 R16/19//95=
201902011430 METAR LRSV 011430Z 12007KT 6000 NSC 02/01 Q1010 R16/19//95=
201902011500 METAR LRSV 011500Z VRB01KT 3000 BR NSC 02/02 Q1010 R16/19//95=
201902011530 METAR LRSV 011530Z 13003KT 3000 BR NSC 01/01 Q1010 R16/19//95=
201902011600 METAR COR LRSV 011600Z 13003KT 080V200 3000 BR NSC 01/01
                        Q1010 R16/19//95=
201902011630 METAR LRSV 011630Z 16002KT 130V190 5000 BR NSC 01/01 Q1010
                        R16/19//95=
201902011700 METAR LRSV 011700Z 17003KT 150V210 5000 BR NSC 01/01 Q1011
                        R16/19//95=
201902011730 METAR LRSV 011730Z 19004KT 8000 NSC 01/01 Q1011 R16/19//95=
201902011800 METAR LRSV 011800Z 20004KT 8000 NSC 01/01 Q1010 R16/19//95=
201902011830 METAR LRSV 011830Z 19006KT 8000 NSC 01/00 Q1010 R16/19//95=
201902011900 METAR LRSV 011900Z 14005KT 6000 NSC M01/M01 Q1010 R16/19//95=
201902011930 METAR LRSV 011930Z 17005KT 6000 NSC M00/M00 Q1010 R16/19//95=
201902012000 METAR LRSV 012000Z 18004KT 5000 BR NSC 00/M00 Q1011 R16/19//95=
201902012030 METAR LRSV 012030Z 16004KT 5000 BR NSC 00/M00 Q1011 R16/19//95=
201902012100 METAR LRSV 012100Z 20006KT 5000 BR NSC M00/M01 Q1011 R16/19//95=
201902012130 METAR LRSV 012130Z 22006KT 5000 BR NSC M01/M01 Q1010 R16/19//95=
201902012200 METAR LRSV 012200Z 21007KT 7000 NSC 00/M01 Q1010 R16/19//95=
201902012230 METAR LRSV 012230Z 22005KT 7000 NSC 01/M01 Q1010 R16/19//95=
201902012300 METAR LRSV 012300Z 21005KT CAVOK 01/M00 Q1010 R16/19//95=
201902012330 METAR LRSV 012330Z 00000KT CAVOK 01/M01 Q1010 R16/19//95=
201902020000 METAR LRSV 020000Z 21002KT CAVOK 00/M01 Q1010 R16/19//95=
201902020030 METAR LRSV 020030Z 16005KT CAVOK M02/M03 Q1010 R16/19//95=
201902020100 METAR LRSV 020100Z 18004KT 5000 BR NSC M02/M03 Q1010 R16/19//95=
201902020130 METAR LRSV 020130Z 16007KT 5000 BR NSC M02/M03 Q1010 R16/19//95=
201902020200 METAR LRSV 020200Z 16004KT 130V200 6000 NSC M02/M03 Q1009
                        R16/19//95=
201902020230 METAR LRSV 020230Z 19004KT 6000 NSC M03/M03 Q1009 R16/19//95=
201902020300 METAR LRSV 020300Z 21004KT 6000 NSC M02/M03 Q1009 R16/19//95=
201902020330 METAR LRSV 020330Z 00000KT 5000 BR NSC M02/M03 Q1010 R16/09//95=
201902020400 METAR LRSV 020400Z 13004KT 110V180 2000 BR NSC M03/M03 Q1010
                        R16/09//95=
201902020430 METAR LRSV 020430Z 15004KT 130V230 0300 R34/0800U FZFG VV002
                        M02/M02 Q1009 R16/09//95=
201902020500 METAR LRSV 020500Z 17003KT 0300 R34/0600N FZFG NSC M02/M02
                        Q1010 R16/09//95=
201902020530 METAR LRSV 020530Z 15003KT 0300 R34/0900U FZFG NSC M02/M02
                        Q1010 R16/09//95=
201902020600 METAR LRSV 020600Z 16003KT 130V200 2000 BR NSC M01/M01 Q1010
                        R16/09//95=
201902020630 METAR LRSV 020630Z 14005KT 0450 R34/0650N FZFG NSC M01/M01
                        Q1010 R16/09//95=
201902020700 METAR LRSV 020700Z 17006KT 0400 R34/0800 FZFG NSC M00/M00
                        Q1010 R16/09//95=
201902020730 METAR LRSV 020730Z 17005KT 0350 R34/0400N FG NSC 00/M00 Q1010
                        R16/09//95=
201902020800 METAR LRSV 020800Z 18006KT 0800 R34/1600U FG NSC 00/00 Q1011
                        R16/09//95=
201902020830 METAR LRSV 020830Z 19006KT 2000 BR NSC 00/00 Q1011 R16/09//95=
201902020900 METAR LRSV 020900Z 17007KT 6000 NSC 01/00 Q1011 R16/09//95=
201902020930 METAR LRSV 020930Z 18007KT 5000 BR NSC 01/01 Q1011 R16/09//95=
201902021000 METAR LRSV 021000Z 14006KT 4000 1200S BR NSC 01/01 Q1010
                        R16/09//95=
201902021030 METAR LRSV 021030Z 13005KT 0500 R34/1500 FG NSC 01/01 Q1010
                        R16/09//95=
201902021100 METAR LRSV 021100Z 13007KT 0300 R34/0450 FG NSC 01/01 Q1010
                        R16/09//95=
201902021130 METAR LRSV 021130Z 16006KT 1500 BR NSC 02/01 Q1010 R16/09//95=
201902021200 METAR LRSV 021200Z 14005KT 1500 BR NSC 02/01 Q1010 R16/09//95=
201902021230 METAR COR LRSV 021230Z 13004KT 2000 BR NSC 02/02 Q1010 R16/09//95=
201902021300 METAR LRSV 021300Z 14004KT 3000 BR NSC 02/01 Q1010 R16/09//95=
201902021330 METAR LRSV 021330Z 14006KT 3000 BR NSC 02/01 Q1010 R16/09//95=
201902021400 METAR LRSV 021400Z 15005KT 3000 BR NSC 02/02 Q1010 R16/09//95=
201902021430 METAR LRSV 021430Z 14006KT 3000 BR NSC 02/01 Q1010 R16/09//95=
201902021500 METAR LRSV 021500Z 17006KT 3000 BR NSC 02/01 Q1010 R16/09//95=
201902021530 METAR LRSV 021530Z 15007KT 3000 BR NSC 02/01 Q1010 R16/09//95=
201902021600 METAR LRSV 021600Z 19006KT 4000 BR NSC 02/01 Q1010 R16/09//95=
201902021630 METAR LRSV 021630Z 15006KT 4000 BR NSC 01/01 Q1010 R16/09//95=
201902021700 METAR LRSV 021700Z 16002KT 4000 BR NSC 01/01 Q1010 R16/09//95=
201902021730 METAR LRSV 021730Z 15006KT 1500 BR NSC 01/01 Q1010 R16/09//95=
201902021800 METAR LRSV 021800Z 16004KT 0300 R34/0550N FG VV001 00/00
                        Q1010 R16/09//95=
201902021830 METAR LRSV 021830Z 17004KT 0300 R34/0550N FG SCT001 00/00
                        Q1011 R16/09//95=
201902021900 METAR LRSV 021900Z 13005KT 0300 R34/0550N FG SCT001 00/00
                        Q1010 R16/09//95=
201902021930 METAR LRSV 021930Z 14006KT 0100 R34/0300 FG VV001 01/01 Q1010
                        R16/09//95=
201902022000 METAR LRSV 022000Z 18007KT 0100 R34/0325N FG VV001 01/01
                        Q1010 R16/09//95=
201902022030 METAR LRSV 022030Z 20005KT 0450 R34/0550N FG NSC 01/01 Q1010
                        R16/09//95=
201902022100 METAR LRSV 022100Z 23008KT 0450 R34/0550N FG NSC 02/02 Q1010
                        R16/09//95=
201902022130 METAR LRSV 022130Z 21010KT 0350 R34/0400N FG NSC 02/02 Q1010
                        R16/09//95=
201902022200 METAR COR LRSV 022200Z 21007KT 0500 R34/0600N FG NSC 02/02
                        Q1010 R16/09//95=
201902022230 METAR LRSV 022230Z 21007KT 1500 BR NSC 03/03 Q1011 R16/09//95=
201902022300 METAR LRSV 022300Z 21007KT 0650 R34/0800N FG NSC 03/03 Q1011
                        R16/09//95=
201902022330 METAR LRSV 022330Z 21002KT 0500 R34/0550N FG NSC 02/02 Q1011
                        R16/09//95=
201902030000 METAR LRSV 030000Z 14003KT 0450 R34/0550N FG NSC 03/03 Q1010
                        R16/09//95=
201902030030 METAR LRSV 030030Z 15004KT 0400 R34/0450N FG VV001 03/03
                        Q1010 R16/09//95=
201902030100 METAR LRSV 030100Z 18004KT 150V210 0300 R34/0350N FG SCT003
                        02/02 Q1011 R16/09//95=
201902030130 METAR COR LRSV 030130Z 22005KT 0450 R34/0600 FG NSC 03/03
                        Q1010 R16/09//95=
201902030200 METAR LRSV 030200Z 17003KT 150V210 0450 R34/0600 FG NSC 03/03
                        Q1010 R16/09//95=
201902030230 METAR LRSV 030230Z 13006KT 0450 R34/0650D FG NSC 02/02 Q1010
                        R16/09//95=
201902030300 METAR LRSV 030300Z 18003KT 150V240 0100 R34/0325N FG VV001
                        02/02 Q1010 R16/09//95=
201902030330 METAR LRSV 030330Z 00000KT 0100 R34/0250N FG VV001 02/02
                        Q1010 R16/19//95=
201902030400 METAR LRSV 030400Z VRB01KT 0100 R34/0200N FG VV001 01/01
                        Q1010 R16/19//95=
201902030430 METAR LRSV 030430Z 00000KT 0100 R34/0300U FG VV001 01/01
                        Q1010 R16/19//95=
201902030500 METAR LRSV 030500Z 19004KT 0450 R34/0550N FG NSC 01/01 Q1010
                        R16/19//95=
201902030530 METAR LRSV 030530Z 18005KT 0200 R34/0400N FG VV001 01/01
                        Q1011 R16/19//95=
201902030600 METAR LRSV 030600Z 19002KT 0100 R34/0200N FG VV001 00/00
                        Q1011 R16/19//95=
201902030630 METAR LRSV 030630Z 00000KT 0200 R34/0300N FG VV001 01/01
                        Q1011 R16/19//95=
201902030700 METAR LRSV 030700Z 11003KT 080V140 0200 R34/0400N FG VV001
                        00/00 Q1011 R16/19//95=
201902030730 METAR LRSV 030730Z VRB01KT 0100 R34/0225N FG VV001 01/01
                        Q1011 R16/19//95=
201902030800 METAR LRSV 030800Z 19005KT 0600 R34/1000U FG NSC 01/01 Q1011
                        R16/19//95=
201902030830 METAR LRSV 030830Z VRB01KT 0300 R34/0400N FG NSC 01/01 Q1011
                        R16/19//95=
201902030900 METAR LRSV 030900Z 13005KT 0100 R34/0375N FG VV001 01/01
                        Q1011 R16/19//95=
201902030930 METAR COR LRSV 030930Z 11006KT 0100 R34/275N FG VV001 01/01
                        Q1011 R16/19//95=
201902031000 METAR LRSV 031000Z 15005KT 110V180 0100 R34/0200N FG VV001
                        01/01 Q1011 R16/19//95=
201902031030 METAR LRSV 031030Z 15004KT 0100 R34/0150N FG VV001 01/01
                        Q1011 R16/19//95=
201902031100 METAR LRSV 031100Z 13004KT 0100 R34/0225N FG VV001 01/01
                        Q1011 R16/19//95=
201902031130 METAR LRSV 031130Z 13006KT 0100 R34/0250N FG VV001 02/02
                        Q1011 R16/19//95=
201902031200 METAR LRSV 031200Z 11004KT 0100 R34/0175N FG VV001 02/02
                        Q1011 R16/19//95=
201902031230 METAR LRSV 031230Z 09004KT 0100 R34/0200N FG NSC 02/02 Q1011
                        R16/19//95=
201902031300 METAR LRSV 031300Z 04002KT 360V100 0100 R34/0200N FG NSC
                        02/02 Q1011 R16/19//95=
201902031330 METAR LRSV 031330Z 15008KT 1500 BR NSC 02/02 Q1011 R16/19//95=
201902031400 METAR LRSV 031400Z 14009KT 0100 R34/0375N FG VV001 02/02
                        Q1012 R16/19//95=
201902031430 METAR LRSV 031430Z 13008KT 0400 R34/0800U FG VV001 03/03
                        Q1011 R16/19//95=
201902031500 METAR LRSV 031500Z 16007KT 0200 R34/0500N FG VV001 02/02
                        Q1011 R16/19//95=
201902031530 METAR LRSV 031530Z 14006KT 0200 R34/0500U FG VV001 02/02
                        Q1011 R16/19//95=
201902031600 METAR LRSV 031600Z 15006KT 0200 R34/0650N FG VV001 02/02
                        Q1011 R16/19//95=
201902031630 METAR LRSV 031630Z 15004KT 0500 R34/1300U FG NSC 02/02 Q1012
                        R16/09//95=
201902031700 METAR LRSV 031700Z 16005KT 4000 BR NSC 02/02 Q1011 R16/09//95=
201902031730 METAR LRSV 031730Z 16004KT 7000 NSC 02/02 Q1011 R16/09//95=
201902031800 METAR LRSV 031800Z 16005KT 5000 BR NSC 03/03 Q1011 R16/09//95=
201902031830 METAR LRSV 031830Z 15003KT 5000 BR NSC 03/03 Q1011 R16/09//95=
201902031900 METAR LRSV 031900Z 16004KT 140V210 5000 BR NSC 03/03 Q1011
                        R16/09//95=
201902031930 METAR LRSV 031930Z 19004KT 5000 BR NSC 03/03 Q1011 R16/09//95=
201902032000 METAR LRSV 032000Z 15004KT 120V180 4000 BR NSC 03/03 Q1011
                        R16/09//95=
201902032030 METAR LRSV 032030Z 20006KT 5000 BR FEW001 02/02 Q1012 R16/09//95=
201902032100 METAR LRSV 032100Z 24009KT 7000 NSC 03/03 Q1012 R16/09//95=
201902032130 METAR LRSV 032130Z 23007KT 7000 NSC 03/03 Q1012 R16/09//95=
201902032200 METAR LRSV 032200Z 22007KT 8000 NSC 03/03 Q1012 R16/09//95=
201902032230 METAR LRSV 032230Z 24008KT 8000 NSC 03/03 Q1012 R16/09//95=
201902032300 METAR LRSV 032300Z 24009KT 8000 NSC 03/03 Q1013 R16/09//95=
201902032330 METAR COR LRSV 032330Z 23006KT 7000 NSC 03/03 Q1013 R16/09//95=
201902040000 METAR LRSV 040000Z 21006KT 8000 NSC 03/03 Q1013 R16/09//95=
201902040030 METAR LRSV 040030Z 22006KT CAVOK 04/04 Q1014 R16/09//95=
201902040100 METAR LRSV 040100Z 22005KT 150V250 CAVOK 04/04 Q1014 R16/09//95=
201902040130 METAR LRSV 040130Z 23007KT 160V250 CAVOK 04/04 Q1014 R16/09//95=
201902040200 METAR LRSV 040200Z 25011KT CAVOK 04/04 Q1015 R16/09//95=
201902040230 METAR LRSV 040230Z 25011KT CAVOK 05/04 Q1015 R16/09//95=
201902040300 METAR LRSV 040300Z 25010KT CAVOK 06/04 Q1015 R16/09//95=
201902040330 METAR COR LRSV 040330Z 26011KT CAVOK 06/03 Q1016 R16/09//95=
201902040400 METAR LRSV 040400Z 25010KT CAVOK 06/03 Q1016 R16/09//95=
201902040430 METAR LRSV 040430Z 26010KT CAVOK 07/03 Q1016 R16/09//95=
201902040500 METAR LRSV 040500Z 20005KT CAVOK 05/03 Q1017 R16/09//95=
201902040530 METAR LRSV 040530Z 23005KT CAVOK 06/03 Q1017 R16/09//95=
201902040600 METAR LRSV 040600Z 26008KT CAVOK 08/03 Q1017 R16/09//95=
201902040630 METAR LRSV 040630Z 22005KT CAVOK 06/03 Q1018 R16/09//95=
201902040700 METAR LRSV 040700Z 22004KT CAVOK 06/03 Q1018 R16/09//95=
201902040730 METAR LRSV 040730Z 17004KT CAVOK 06/03 Q1019 R16/09//95=
201902040800 METAR LRSV 040800Z 24005KT 200V270 CAVOK 08/03 Q1020 R16/09//95=
201902040830 METAR LRSV 040830Z 27007KT CAVOK 08/03 Q1020 R16/09//95=
201902040900 METAR LRSV 040900Z 27010KT CAVOK 10/02 Q1020 R16/09//95=
201902040930 METAR COR LRSV 040930Z 27009KT CAVOK 11/02 Q1021 R16/09//95=
201902041000 METAR LRSV 041000Z 29009KT CAVOK 09/02 Q1021 R16/09//95=
201902041030 METAR LRSV 041030Z 32009KT CAVOK 12/02 Q1021 R16/09//95=
201902041100 METAR LRSV 041100Z 34013KT CAVOK 10/02 Q1022 R16/09//95=
201902041130 METAR LRSV 041130Z 33019KT CAVOK 07/02 Q1023 R16/09//95=
201902041200 METAR LRSV 041200Z 34020KT CAVOK 05/02 Q1023 R16/09//95=
201902041230 METAR LRSV 041230Z 34019KT CAVOK 04/02 Q1023 R16/09//95=
201902041300 METAR LRSV 041300Z 34021KT CAVOK 04/01 Q1024 R16/09//95=
201902041330 METAR LRSV 041330Z 34015KT CAVOK 04/01 Q1024 R16/09//95=
201902041400 METAR LRSV 041400Z 33008KT CAVOK 04/01 Q1025 R16/09//95=
201902041430 METAR LRSV 041430Z 33012KT CAVOK 04/00 Q1025 R16/09//95=
201902041500 METAR LRSV 041500Z 33011KT CAVOK 04/00 Q1025 R16/09//95=
201902041530 METAR LRSV 041530Z 32010KT CAVOK 03/00 Q1026 R16/09//95=
201902041600 METAR LRSV 041600Z 33010KT CAVOK 03/00 Q1026 R16/09//95=
201902041630 METAR LRSV 041630Z 33011KT CAVOK 03/00 Q1027 R16/09//95=
201902041700 METAR LRSV 041700Z 33010KT CAVOK 03/00 Q1027 R16/09//95=
201902041730 METAR LRSV 041730Z 33010KT CAVOK 03/00 Q1027 R16/09//95=
201902041800 METAR LRSV 041800Z 33013KT CAVOK 03/00 Q1028=
201902041830 METAR LRSV 041830Z 32011KT CAVOK 03/00 Q1028=
201902041900 METAR LRSV 041900Z 32010KT CAVOK 02/00 Q1028=
201902041930 METAR LRSV 041930Z 33012KT CAVOK 02/M00 Q1028 R16/09//95=
201902042000 METAR LRSV 042000Z 33010KT CAVOK 02/M00 Q1028 R16/09//95=
201902042030 METAR COR LRSV 042030Z 33009KT CAVOK 02/M00 Q1029 R16/09//95=
201902042100 METAR COR LRSV 042100Z 33008KT CAVOK 01/M00 Q1029 R16/09//95=
201902042130 METAR LRSV 042130Z 32006KT CAVOK 01/M01 Q1029 R16/09//95=
201902042200 METAR LRSV 042200Z 33007KT 9999 FEW010 01/M00 Q1029 R16/09//95=
201902042230 METAR LRSV 042230Z 34010KT 9999 SCT011 02/M00 Q1029 R16/09//95=
201902042300 METAR LRSV 042300Z 34009KT 9999 SCT010 02/M00 Q1029 R16/09//95=
201902042330 METAR LRSV 042330Z 33009KT 9999 SCT010 02/M00 Q1029 R16/09//95=
201902050000 METAR LRSV 050000Z 33005KT 9999 SCT012 01/M00 Q1029 R16/09//95=
201902050030 METAR LRSV 050030Z 34003KT 9999 BKN012 01/M00 Q1030 R16/09//95=
201902050100 METAR LRSV 050100Z 35006KT 9999 BKN011 02/M00 Q1030 R16/09//95=
201902050130 METAR LRSV 050130Z 35005KT 9999 BKN011 02/M00 Q1029 R16/09//95=
201902050200 METAR LRSV 050200Z 36006KT 9999 BKN011 01/M00 Q1029 R16/09//95=
201902050230 METAR LRSV 050230Z 36006KT 9999 BKN010 01/M00 Q1029 R16/09//95=
201902050300 METAR LRSV 050300Z 36004KT 9999 BKN009 01/M00 Q1029 R16/09//95=
201902050330 METAR LRSV 050330Z 01004KT 9999 BKN009 01/M00 Q1029 R16/09//95=
201902050400 METAR COR LRSV 050400Z 01003KT 9999 BKN009 01/M00 Q1029 R16/09//95=
201902050430 METAR LRSV 050430Z 04001KT 9999 BKN009 01/M00 Q1029 R16/09//95=
201902050500 METAR LRSV 050500Z 00000KT 9999 BKN009 01/M00 Q1029 R16/09//95=
201902050530 METAR LRSV 050530Z 06003KT 9999 OVC009 01/M00 Q1029 R16/09//95=
201902050600 METAR LRSV 050600Z 06003KT 010V080 9999 BKN009 01/M00 Q1029
                        R16/09//95=
201902050630 METAR COR LRSV 050630Z 08003KT 8000 BKN008 01/M00 Q1029 R16/09//95=
201902050700 METAR COR LRSV 050700Z 06003KT 8000 BKN007 01/M00 Q1029 R16/09//95=
201902050730 METAR LRSV 050730Z 07004KT 8000 BKN008 01/M00 Q1029 R16/09//95=
201902050800 METAR LRSV 050800Z 10003KT 8000 BKN007 01/M01 Q1029 R16/09//95=
201902050830 METAR LRSV 050830Z 09003KT 9999 BKN007 01/M01 Q1029 R16/09//95=
201902050900 METAR LRSV 050900Z 09003KT 9999 BKN007 01/M01 Q1028 R16/09//95=
201902050930 METAR LRSV 050930Z 09004KT 9999 OVC007 01/M01 Q1028 R16/09//95=
201902051000 METAR LRSV 051000Z 08003KT 9999 OVC007 01/M01 Q1028 R16/09//95=
201902051030 METAR LRSV 051030Z 15003KT 8000 OVC007 01/M00 Q1028 R16/09//95=
201902051100 METAR LRSV 051100Z 14004KT 8000 BKN007 01/M01 Q1027 R16/09//95=
201902051130 METAR LRSV 051130Z 12004KT 090V160 8000 BKN007 01/M00 Q1027
                        R16/09//95=
201902051200 METAR LRSV 051200Z 12003KT 8000 BKN007 01/M00 Q1027 R16/09//95=
201902051230 METAR LRSV 051230Z 10002KT 8000 SCT008 01/M00 Q1027 R16/09//95=
201902051300 METAR LRSV 051300Z 10004KT 8000 FEW008 01/M00 Q1026 R16/09//95=
201902051330 METAR LRSV 051330Z 12004KT 8000 FEW008 02/M00 Q1026 R16/09//95=
201902051400 METAR LRSV 051400Z 12004KT 8000 NSC 02/00 Q1026 R16/09//95=
201902051430 METAR LRSV 051430Z 11005KT 8000 NSC 02/00 Q1026 R16/09//95=
201902051500 METAR LRSV 051500Z 12002KT 8000 NSC 02/00 Q1026 R16/09//95=
201902051530 METAR LRSV 051530Z 08002KT 7000 NSC 02/00 Q1025 R16/09//95=
201902051600 METAR LRSV 051600Z 06003KT 7000 NSC 01/00 Q1025 R16/09//95=
201902051630 METAR LRSV 051630Z 07003KT 8000 NSC 01/00 Q1025 R16/09//95=
201902051700 METAR LRSV 051700Z 08004KT 8000 NSC 01/00 Q1025 R16/09//95=
201902051730 METAR LRSV 051730Z 10004KT CAVOK 01/00 Q1025 R16/09//95=
201902051800 METAR LRSV 051800Z 09003KT CAVOK 01/00 Q1025 R16/09//95=
201902051830 METAR LRSV 051830Z 08001KT CAVOK 01/00 Q1025 R16/09//95=
201902051900 METAR LRSV 051900Z 05002KT CAVOK 01/M00 Q1025 R16/09//95=
201902051930 METAR LRSV 051930Z 12003KT 080V140 CAVOK 01/00 Q1025 R16/09//95=
201902052000 METAR LRSV 052000Z 13005KT CAVOK 01/00 Q1025 R16/09//95=
201902052030 METAR LRSV 052030Z 17002KT CAVOK 01/00 Q1024 R16/09//95=
201902052100 METAR LRSV 052100Z 18002KT CAVOK 01/00 Q1024 R16/09//95=
201902052130 METAR LRSV 052130Z 00000KT 6000 SCT007 01/00 Q1024 R16/09//95=
201902052200 METAR LRSV 052200Z 10003KT 060V120 5000 BR BKN005 01/00 Q1024
                        R16/09//95=
201902052230 METAR LRSV 052230Z 00000KT 4000 BR BKN004 01/00 Q1024 R16/09//95=
201902052300 METAR LRSV 052300Z 13001KT 4000 BR BKN004 01/00 Q1024 R16/09//95=
201902052330 METAR LRSV 052330Z 00000KT 4000 BR BKN003 01/00 Q1024 R16/09//95=
201902060000 METAR LRSV 060000Z 00000KT 3000 BR OVC003 01/00 Q1023 R16/09//95=
201902060030 METAR LRSV 060030Z 27002KT 250V330 3000 BR BKN002 01/00 Q1023
                        R16/09//95=
201902060100 METAR LRSV 060100Z 31004KT 3000 BR BKN002 01/00 Q1023 R16/09//95=
201902060130 METAR LRSV 060130Z 31004KT 280V340 4000 BR BKN003 01/00 Q1023
                        R16/09//95=
201902060200 METAR LRSV 060200Z 33004KT 5000 BR BKN005 01/00 Q1023 R16/09//95=
201902060230 METAR LRSV 060230Z 33006KT 6000 OVC005 01/00 Q1024 R16/09//95=
201902060300 METAR LRSV 060300Z 33005KT 6000 BKN004 01/00 Q1024 R16/09//95=
201902060330 METAR LRSV 060330Z 33008KT 5000 BR BKN009 01/00 Q1023 R16/09//95=
201902060400 METAR LRSV 060400Z 33012KT 4000 BR BKN006 01/00 Q1023 R16/09//95=
201902060430 METAR LRSV 060430Z 34015KT 3000 BR BKN004 01/01 Q1023 R16/09//95=
201902060500 METAR LRSV 060500Z 33015KT 3000 BR BKN003 01/01 Q1023 R16/09//95=
201902060530 METAR LRSV 060530Z 33015KT 3000 BR OVC003 01/01 Q1023 R16/09//95=
201902060600 METAR LRSV 060600Z 34014KT 6000 BKN010 OVC024 01/00 Q1024
                        R16/09//95=
201902060630 METAR LRSV 060630Z 34013KT 7000 SCT011 OVC025 01/M00 Q1025
                        R16/09//95=
201902060700 METAR LRSV 060700Z 34015KT 7000 SCT011 BKN029 01/M00 Q1025
                        R16/09//95=
201902060730 METAR LRSV 060730Z 34017KT 7000 SCT013 OVC029 01/M01 Q1025
                        R16/09//95=
201902060800 METAR LRSV 060800Z 34019KT 8000 SCT014 OVC029 01/M01 Q1025
                        R16/09//95=
201902060830 METAR LRSV 060830Z 34015KT 8000 BKN013 OVC030 01/M01 Q1025
                        R16/09//95=
201902060900 METAR LRSV 060900Z 33017KT 8000 BKN013 OVC031 01/M01 Q1025
                        R16/09//95=
201902060930 METAR LRSV 060930Z 33016KT 8000 SCT013 OVC036 02/M01 Q1025
                        R16/09//95=
201902061000 METAR COR LRSV 061000Z 33016KT 9999 SCT014 OVC039 02/M02
                        Q1025 R16/09//95=
201902061030 METAR LRSV 061030Z 34018KT 9999 OVC041 02/M02 Q1025 R16/09//95=
201902061100 METAR LRSV 061100Z 33013KT 9999 BKN041 02/M02 Q1026 R16/09//95=
201902061130 METAR LRSV 061130Z 34012KT 9999 BKN026 02/M02 Q1025 R16/09//95=
201902061200 METAR LRSV 061200Z 33013KT 9999 BKN025 02/M01 Q1025 R16/09//95=
201902061230 METAR LRSV 061230Z 33014KT 9999 BKN026 02/M01 Q1025 R16/09//95=
201902061300 METAR LRSV 061300Z 33016KT 9999 BKN026 02/M02 Q1025 R16/09//95=
201902061330 METAR LRSV 061330Z 34016KT 9999 BKN026 02/M02 Q1025 R16/09//95=
201902061400 METAR LRSV 061400Z 33014KT 9999 BKN025 02/M02 Q1025 R16/09//95=
201902061430 METAR LRSV 061430Z 33015KT 9999 BKN023 02/M02 Q1025 R16/09//95=
201902061500 METAR LRSV 061500Z 33014KT 9999 BKN021 01/M02 Q1025 R16/09//95=
201902061530 METAR LRSV 061530Z 33012KT 9999 BKN025 01/M03 Q1025 R16/09//95=
201902061600 METAR LRSV 061600Z 32011KT 9999 BKN025 01/M03 Q1025 R16/09//95=
201902061630 METAR LRSV 061630Z 33010KT 9999 BKN026 01/M03 Q1025 R16/09//95=
201902061700 METAR LRSV 061700Z 32010KT 9999 BKN030 01/M03 Q1026 R16/09//95=
201902061730 METAR LRSV 061730Z 33008KT 9999 BKN030 01/M03 Q1025 R16/09//95=
201902061800 METAR LRSV 061800Z 32006KT 9999 BKN030 01/M04 Q1026 R16/09//95=
201902061830 METAR LRSV 061830Z 30007KT 9999 BKN030 M00/M04 Q1026 R16/09//95=
201902061900 METAR LRSV 061900Z 30008KT 9999 SCT030 M00/M04 Q1026 R16/09//95=
201902061930 METAR LRSV 061930Z 31009KT CAVOK M00/M04 Q1026 R16/09//95=
201902062000 METAR LRSV 062000Z 30008KT CAVOK M01/M04 Q1026 R16/09//95=
201902062030 METAR LRSV 062030Z 31009KT CAVOK M00/M05 Q1026 R16/09//95=
201902062100 METAR LRSV 062100Z 30008KT CAVOK M01/M05 Q1026 R16/09//95=
201902062130 METAR LRSV 062130Z 30008KT CAVOK M01/M05 Q1026 R16/09//95=
201902062200 METAR LRSV 062200Z 29008KT CAVOK M01/M05 Q1026 R16/09//95=
201902062230 METAR LRSV 062230Z 29009KT CAVOK M01/M04 Q1026 R16/09//95=
201902062300 METAR LRSV 062300Z 28009KT CAVOK M00/M05 Q1026 R16/09//95=
201902062330 METAR LRSV 062330Z 30008KT CAVOK M01/M05 Q1026 R16/09//95=
201902070000 METAR LRSV 070000Z 30007KT 9999 SCT039 M00/M05 Q1026 R16/09//95=
201902070030 METAR LRSV 070030Z 31007KT 9999 SCT039 M00/M05 Q1025 R16/09//95=
201902070100 METAR LRSV 070100Z 31007KT 9999 FEW038 M01/M05 Q1025 R16/09//95=
201902070130 METAR LRSV 070130Z 31007KT 9999 FEW038 M01/M05 Q1025 R16/09//95=
201902070200 METAR LRSV 070200Z 31007KT CAVOK M01/M05 Q1025 R16/09//95=
201902070230 METAR LRSV 070230Z 30007KT CAVOK M01/M06 Q1025 R16/09//95=
201902070300 METAR LRSV 070300Z 31007KT CAVOK M00/M05 Q1025 R16/09//95=
201902070330 METAR LRSV 070330Z 32007KT CAVOK M00/M06 Q1025 R16/09//95=
201902070400 METAR LRSV 070400Z 32005KT CAVOK M01/M06 Q1025 R16/09//95=
201902070430 METAR LRSV 070430Z 12003KT 070V160 CAVOK M04/M06 Q1025 R16/09//95=
201902070500 METAR LRSV 070500Z VRB01KT 9999 SCT014 M03/M05 Q1025 R16/09//95=
201902070530 METAR LRSV 070530Z VRB01KT 9999 FEW016 M02/M05 Q1025 R16/09//95=
201902070600 METAR LRSV 070600Z 00000KT CAVOK M02/M06 Q1025 R16/09//95=
201902070630 METAR LRSV 070630Z 00000KT CAVOK M01/M05 Q1025 R16/09//95=
201902070700 METAR LRSV 070700Z 13003KT 9999 SCT036 M00/M05 Q1025 R16/09//95=
201902070730 METAR LRSV 070730Z 14003KT 9999 BKN034 M00/M05 Q1025 R16/09//95=
201902070800 METAR LRSV 070800Z 16004KT 9999 BKN034 M00/M04 Q1025 R16/09//95=
201902070830 METAR LRSV 070830Z 16004KT 9999 FEW034 01/M03 Q1025 R16/09//95=
201902070900 METAR LRSV 070900Z 17005KT CAVOK 01/M04 Q1025 R16/09//95=
201902070930 METAR LRSV 070930Z 19004KT CAVOK 01/M03 Q1025 R16/09//95=
201902071000 METAR LRSV 071000Z 19004KT CAVOK 01/M03 Q1024 R16/09//95=
201902071030 METAR LRSV 071030Z 14005KT 090V190 CAVOK 01/M02 Q1024 R16/09//95=
201902071100 METAR LRSV 071100Z 11005KT CAVOK 02/M02 Q1023 R16/09//95=
201902071130 METAR LRSV 071130Z 13007KT CAVOK 02/M03 Q1023 R16/09//95=
201902071200 METAR LRSV 071200Z 13008KT CAVOK 02/M03 Q1023 R16/09//95=
201902071230 METAR LRSV 071230Z 13008KT CAVOK 02/M03 Q1022 R16/09//95=
201902071300 METAR LRSV 071300Z 13008KT CAVOK 02/M03 Q1022 R16/09//95=
201902071330 METAR LRSV 071330Z 13008KT CAVOK 03/M03 Q1022 R16/09//95=
201902071400 METAR LRSV 071400Z 13007KT CAVOK 02/M02 Q1022 R16/09//95=
201902071430 METAR LRSV 071430Z 14007KT CAVOK 02/M03 Q1022 R16/09//95=
201902071500 METAR LRSV 071500Z 14006KT CAVOK 01/M03 Q1022 R16/09//95=
201902071530 METAR LRSV 071530Z 14007KT CAVOK 01/M03 Q1021 R16/09//95=
201902071600 METAR LRSV 071600Z 14009KT CAVOK 00/M03 Q1021 R16/09//95=
201902071630 METAR LRSV 071630Z 14009KT CAVOK M00/M03 Q1021 R16/09//95=
201902071700 METAR LRSV 071700Z 14009KT CAVOK M00/M03 Q1021 R16/09//95=
201902071730 METAR LRSV 071730Z 15008KT CAVOK M01/M03 Q1021 R16/09//95=
201902071800 METAR LRSV 071800Z 15009KT CAVOK M01/M03 Q1021 R16/09//95=
201902071830 METAR LRSV 071830Z 15009KT CAVOK M01/M04 Q1021 R16/09//95=
201902071900 METAR LRSV 071900Z 15009KT CAVOK M01/M03 Q1021 R16/09//95=
201902071930 METAR COR LRSV 071930Z 15009KT CAVOK M01/M03 Q1020 R16/09//95=
201902072000 METAR LRSV 072000Z 15008KT CAVOK M01/M03 Q1020 R16/09//95=
201902072030 METAR LRSV 072030Z 14008KT CAVOK M02/M03 Q1020 R16/09//95=
201902072100 METAR LRSV 072100Z 15008KT CAVOK M02/M04 Q1020 R16/09//95=
201902072130 METAR COR LRSV 072130Z 16010KT CAVOK M01/M04 Q1019 R16/09//95=
201902072200 METAR LRSV 072200Z 16009KT CAVOK M02/M04 Q1019 R16/09//95=
201902072230 METAR LRSV 072230Z 17006KT CAVOK M02/M04 Q1019 R16/09//95=
201902072300 METAR LRSV 072300Z 17007KT CAVOK M02/M04 Q1019 R16/09//95=
201902072330 METAR LRSV 072330Z 16008KT CAVOK M02/M05 Q1019 R16/09//95=
201902080000 METAR LRSV 080000Z 15008KT CAVOK M02/M04 Q1019 R16/09//95=
201902080030 METAR LRSV 080030Z 15009KT CAVOK M02/M04 Q1019 R16/09//95=
201902080100 METAR LRSV 080100Z 15008KT CAVOK M03/M05 Q1019 R16/09//95=
201902080130 METAR LRSV 080130Z 15007KT CAVOK M03/M05 Q1019 R16/09//95=
201902080200 METAR LRSV 080200Z 16008KT CAVOK M03/M05 Q1018 R16/09//95=
201902080230 METAR LRSV 080230Z 15007KT CAVOK M03/M05 Q1018 R16/09//95=
201902080300 METAR LRSV 080300Z 15006KT CAVOK M04/M05 Q1018 R16/09//95=
201902080330 METAR COR LRSV 080330Z 15006KT CAVOK M04/M05 Q1018 R16/09//95=
201902080400 METAR LRSV 080400Z 14007KT CAVOK M04/M05 Q1018 R16/09//95=
201902080430 METAR LRSV 080430Z 13007KT CAVOK M04/M05 Q1018 R16/09//95=
201902080500 METAR COR LRSV 080500Z 13007KT 8000 NSC M04/M05 Q1019 R16/09//95=
201902080530 METAR LRSV 080530Z 13007KT 7000 NSC M04/M05 Q1019 R16/09//95=
201902080600 METAR LRSV 080600Z 14004KT 6000 NSC M05/M05 Q1019 R16/09//95=
201902080630 METAR LRSV 080630Z 15004KT 5000 BR NSC M04/M07 Q1019 R16/09//95=
201902080700 METAR LRSV 080700Z 14005KT 4000 BR NSC M04/M05 Q1019 R16/09//95=
201902080730 METAR LRSV 080730Z 15006KT 5000 BR NSC M03/M04 Q1019 R16/09//95=
201902080800 METAR LRSV 080800Z 14006KT 5000 BR FEW020 M03/M04 Q1020 R16/09//95=
201902080830 METAR LRSV 080830Z 17008KT 7000 FEW007 M02/M04 Q1020 R16/09//95=
201902080900 METAR LRSV 080900Z 17007KT 7000 SCT007 M02/M04 Q1020 R16/09//95=
201902080930 METAR LRSV 080930Z 16007KT 8000 SCT008 M01/M04 Q1020 R16/09//95=
201902081000 METAR LRSV 081000Z 16005KT 8000 SCT008 M01/M03 Q1020 R16/09//95=
201902081030 METAR LRSV 081030Z 13005KT 8000 SCT009 M01/M03 Q1020 R16/09//95=
201902081100 METAR LRSV 081100Z 13004KT 090V200 8000 SCT010 M00/M02 Q1020
                        R16/09//95=
201902081130 METAR LRSV 081130Z 12006KT 8000 SCT010 M01/M03 Q1020 R16/09//95=
201902081200 METAR LRSV 081200Z 12007KT 8000 SCT010 M01/M03 Q1020 R16/09//95=
201902081230 METAR LRSV 081230Z 13006KT 8000 SCT009 M00/M02 Q1020 R16/09//95=
201902081300 METAR LRSV 081300Z 12006KT 8000 FEW009 M00/M02 Q1020 R16/09//95=
201902081330 METAR LRSV 081330Z 13007KT 8000 NSC M01/M02 Q1020 R16/09//95=
201902081400 METAR LRSV 081400Z 14008KT 8000 NSC M01/M03 Q1020 R16/09//95=
201902081430 METAR LRSV 081430Z 14007KT 8000 NSC M01/M03 Q1020 R16/09//95=
201902081500 METAR LRSV 081500Z 13006KT 8000 SCT013 M02/M03 Q1020 R16/09//95=
201902081530 METAR LRSV 081530Z 14007KT 8000 BKN013 M02/M03 Q1020 R16/09//95=
201902081600 METAR LRSV 081600Z 15008KT 8000 BKN013 M02/M03 Q1020 R16/09//95=
201902081630 METAR LRSV 081630Z 15007KT 9999 BKN013 M02/M03 Q1020 R16/09//95=
201902081700 METAR LRSV 081700Z 16006KT 9999 BKN013 M02/M03 Q1020 R16/09//95=
201902081730 METAR LRSV 081730Z 15005KT 9999 BKN013 M02/M03 Q1020 R16/09//95=
201902081800 METAR LRSV 081800Z 15005KT 9999 OVC013 M02/M03 Q1020 R16/09//95=
201902081830 METAR LRSV 081830Z 16004KT 9999 OVC013 M02/M03 Q1021 R16/09//95=
201902081900 METAR LRSV 081900Z 16004KT 9999 OVC013 M02/M03 Q1021 R16/09//95=
201902081930 METAR COR LRSV 081930Z 16003KT 9999 OVC013 M02/M04 Q1021
                        R16/09//95=
201902082000 METAR LRSV 082000Z 16003KT 9999 OVC013 M03/M04 Q1021 R16/09//95=
201902082030 METAR LRSV 082030Z 16004KT 9999 OVC013 M03/M04 Q1021 R16/09//95=
201902082100 METAR LRSV 082100Z 15003KT 9999 OVC013 M03/M04 Q1020 R16/09//95=
201902082130 METAR LRSV 082130Z 16003KT 9999 BKN012 M03/M04 Q1020 R16/09//95=
201902082200 METAR LRSV 082200Z 18002KT 9999 FEW013 M04/M05 Q1020 R16/09//95=
201902082230 METAR LRSV 082230Z 17002KT 9999 BKN012 M04/M05 Q1020 R16/09//95=
201902082300 METAR LRSV 082300Z 17002KT 9999 BKN012 M04/M05 Q1020 R16/09//95=
201902082330 METAR COR LRSV 082330Z 20002KT 9999 SCT023 M04/M05 Q1020
                        R16/09//95=
201902090000 METAR LRSV 090000Z 19002KT 9999 BKN021 M04/M05 Q1020 R16/09//95=
201902090030 METAR LRSV 090030Z 18002KT 9999 BKN021 M04/M05 Q1020 R16/09//95=
201902090100 METAR COR LRSV 090100Z 15003KT 9999 SCT022 M04/M05 Q1019
                        R16/09//95=
201902090130 METAR LRSV 090130Z AUTO 14003KT 5000 BR FEW011/// M05/M05
                        Q1019=
201902090200 METAR LRSV 090200Z 16004KT CAVOK M04/M05 Q1019 R16/09//95=
201902090230 METAR LRSV 090230Z 15004KT CAVOK M04/M05 Q1019 R16/09//95=
201902090300 METAR COR LRSV 090300Z 16004KT 9999 SCT011 M05/M05 Q1019
                        R16/09//95=
201902090330 METAR LRSV 090330Z 16003KT 9999 BKN011 M05/M05 Q1019 R16/09//95=
201902090400 METAR LRSV 090400Z 14004KT 9999 BKN011 M04/M04 Q1019 R16/09//95=
201902090430 METAR LRSV 090430Z 14006KT 9999 BKN011 M04/M04 Q1019 R16/09//95=
201902090500 METAR LRSV 090500Z 16005KT 9999 BKN011 M04/M04 Q1019 R16/09//95=
201902090530 METAR LRSV 090530Z 16005KT 6000 BKN010 M04/M05 Q1019 R16/09//95=
201902090600 METAR LRSV 090600Z 16004KT 5000 BR OVC008 M04/M05 Q1019 R16/09//95=
201902090630 METAR LRSV 090630Z 14005KT 5000 BR BKN008 M04/M05 Q1019 R16/09//95=
201902090700 METAR LRSV 090700Z 13007KT 5000 BR SCT009 M04/M05 Q1019 R16/09//95=
201902090730 METAR LRSV 090730Z 14008KT 3000 BR NSC M03/M04 Q1019 R16/09//95=
201902090800 METAR LRSV 090800Z 16007KT 3000 BR NSC M03/M04 Q1018 R16/09//95=
201902090830 METAR LRSV 090830Z 16007KT 4000 BR NSC M03/M04 Q1018 R16/09//95=
201902090900 METAR LRSV 090900Z 15005KT 5000 BR NSC M03/M04 Q1018 R16/09//95=
201902090930 METAR COR LRSV 090930Z 13006KT 5000 BR BKN008 M02/M04 Q1018
                        R16/09//95=
201902091000 METAR LRSV 091000Z 13006KT 100V180 6000 BKN008 M02/M04 Q1018
                        R16/09//95=
201902091030 METAR COR LRSV 091030Z 13006KT 090V180 7000 SCT009 M01/M03
                        Q1018 R16/09//95=
201902091100 METAR LRSV 091100Z 13007KT 7000 SCT011 M01/M03 Q1017 R16/09//95=
201902091130 METAR LRSV 091130Z 13009KT 7000 SCT010 M01/M03 Q1017 R16/09//95=
201902091200 METAR COR LRSV 091200Z 13009KT 7000 SCT010 M01/M03 Q1017
                        R16/09//95=
201902091230 METAR LRSV 091230Z 13007KT 7000 FEW010 M00/M03 Q1017 R16/09//95=
201902091300 METAR LRSV 091300Z 13008KT 8000 NSC M00/M02 Q1017 R16/09//95=
201902091330 METAR COR LRSV 091330Z 13008KT 8000 NSC M00/M02 Q1017 R16/09//95=
201902091400 METAR COR LRSV 091400Z 13007KT 7000 NSC M00/M02 Q1017 R16/09//95=
201902091430 METAR LRSV 091430Z 14007KT 7000 NSC M01/M02 Q1017 R16/09//95=
201902091500 METAR LRSV 091500Z 14008KT 7000 NSC M01/M03 Q1017 R16/09//95=
201902091530 METAR LRSV 091530Z 14008KT 7000 NSC M02/M03 Q1017 R16/09//95=
201902091600 METAR LRSV 091600Z 14008KT 7000 NSC M02/M04 Q1017 R16/09//95=
201902091630 METAR COR LRSV 091630Z 15006KT 7000 NSC M03/M04 Q1017 R16/09//95=
201902091700 METAR LRSV 091700Z 15007KT 7000 NSC M03/M04 Q1017 R16/09//95=
201902091730 METAR LRSV 091730Z 15009KT 7000 NSC M03/M04 Q1016 R16/09//95=
201902091800 METAR LRSV 091800Z 15006KT 7000 NSC M03/M04 Q1017 R16/09//95=
201902091830 METAR LRSV 091830Z 14007KT 7000 NSC M03/M04 Q1017 R16/09//95=
201902091900 METAR LRSV 091900Z 15006KT 6000 NSC M03/M04 Q1016 R16/09//95=
201902091930 METAR LRSV 091930Z 12006KT 5000 BR NSC M04/M04 Q1016 R16/09//95=
201902092000 METAR LRSV 092000Z 11006KT 3000 BR NSC M04/M05 Q1016 R16/09//95=
201902092030 METAR LRSV 092030Z 10005KT 2500 BR NSC M04/M05 Q1017 R16/09//95=
201902092100 METAR LRSV 092100Z 13004KT 3000 BR NSC M05/M05 Q1017 R16/09//95=
201902092130 METAR LRSV 092130Z 00000KT 4000 BR NSC M04/M04 Q1017 R16/09//95=
201902092200 METAR LRSV 092200Z 00000KT 3000 BR NSC M04/M04 Q1018 R16/09//95=
201902092230 METAR LRSV 092230Z 00000KT 3000 BR NSC M04/M05 Q1018 R16/09//95=
201902092300 METAR LRSV 092300Z VRB01KT 3000 BR NSC M04/M05 Q1017 R16/09//95=
201902092330 METAR LRSV 092330Z 00000KT 3000 BR NSC M04/M05 Q1017 R16/09//95=
201902100000 METAR LRSV 100000Z 24004KT 3000 BR NSC M04/M04 Q1018 R16/09//95=
201902100030 METAR COR LRSV 100030Z 24003KT 200V260 3000 BR NSC M04/M05
                        Q1017 R16/09//95=
201902100100 METAR LRSV 100100Z 23003KT 200V270 3000 BR NSC M04/M05 Q1018
                        R16/09//95=
201902100130 METAR LRSV 100130Z 23004KT 3000 BR NSC M05/M05 Q1017 R16/09//95=
201902100200 METAR LRSV 100200Z 23005KT 2000 BR NSC M05/M05 Q1017 R16/09//95=
201902100230 METAR COR LRSV 100230Z 25007KT 3000 BR NSC M04/M05 Q1018
                        R16/09//95=
201902100300 METAR LRSV 100300Z 27007KT 5000 BR NSC M04/M05 Q1017 R16/09//95=
201902100330 METAR LRSV 100330Z 27003KT 190V310 CAVOK M02/M05 Q1017 R16/09//95=
201902100400 METAR LRSV 100400Z 31003KT 280V340 CAVOK M02/M06 Q1018 R16/09//95=
201902100430 METAR LRSV 100430Z 03002KT 360V110 CAVOK M02/M05 Q1018 R16/09//95=
201902100500 METAR LRSV 100500Z 25003KT 220V290 CAVOK M03/M06 Q1018 R16/09//95=
201902100530 METAR LRSV 100530Z 21003KT CAVOK M03/M06 Q1018 R16/09//95=
201902100600 METAR LRSV 100600Z 22004KT CAVOK M03/M06 Q1018 R16/09//95=
201902100630 METAR LRSV 100630Z 23005KT CAVOK M03/M05 Q1018 R16/09//95=
201902100700 METAR LRSV 100700Z 23005KT CAVOK M03/M04 Q1018 R16/09//95=
201902100730 METAR COR LRSV 100730Z 23005KT CAVOK M02/M04 Q1018 R16/09//95=
201902100800 METAR LRSV 100800Z 22005KT CAVOK M01/M04 Q1018 R16/09//95=
201902100830 METAR LRSV 100830Z 22005KT CAVOK M00/M04 Q1017 R16/09//95=
201902100900 METAR LRSV 100900Z 22007KT CAVOK 01/M03 Q1017 R16/09//95=
201902100930 METAR LRSV 100930Z 22005KT CAVOK 01/M03 Q1018 R16/09//95=
201902101000 METAR LRSV 101000Z 20005KT CAVOK 02/M03 Q1017 R16/09//95=
201902101030 METAR LRSV 101030Z 17003KT 130V200 CAVOK 03/M02 Q1017 R16/09//95=
201902101100 METAR LRSV 101100Z 11004KT CAVOK 02/M03 Q1017 R16/09//95=
201902101130 METAR LRSV 101130Z 12004KT CAVOK 03/M02 Q1017 R16/09//95=
201902101200 METAR LRSV 101200Z 12007KT CAVOK 03/M02 Q1016 R16/09//95=
201902101230 METAR LRSV 101230Z 14008KT CAVOK 03/M02 Q1016 R16/09//95=
201902101300 METAR LRSV 101300Z 13007KT 100V160 CAVOK 03/M02 Q1016 R16/09//95=
201902101330 METAR LRSV 101330Z 12009KT CAVOK 03/M02 Q1016 R16/09//95=
201902101400 METAR LRSV 101400Z 14008KT CAVOK 02/M02 Q1015 R16/09//95=
201902101430 METAR LRSV 101430Z 14007KT CAVOK 02/M02 Q1015 R16/09//95=
201902101500 METAR LRSV 101500Z 13008KT CAVOK 01/M03 Q1015 R16/09//95=
201902101530 METAR LRSV 101530Z 15007KT CAVOK 00/M03 Q1015 R16/09//95=
201902101600 METAR LRSV 101600Z 15007KT CAVOK 00/M03 Q1014 R16/09//95=
201902101630 METAR LRSV 101630Z 17006KT CAVOK M00/M03 Q1014 R16/09//95=
201902101700 METAR LRSV 101700Z 17006KT CAVOK M00/M04 Q1014 R16/09//95=
201902101730 METAR LRSV 101730Z 17005KT CAVOK M00/M03 Q1013 R16/09//95=
201902101800 METAR LRSV 101800Z 16008KT CAVOK M00/M03 Q1013 R16/09//95=
201902101830 METAR LRSV 101830Z 17005KT CAVOK M00/M03 Q1012 R16/09//95=
201902101900 METAR LRSV 101900Z 17009KT CAVOK 01/M03 Q1012 R16/09//95=
201902101930 METAR LRSV 101930Z 18008KT CAVOK M00/M03 Q1011 R16/09//95=
201902102000 METAR LRSV 102000Z 19004KT CAVOK M01/M03 Q1011 R16/09//95=
201902102030 METAR LRSV 102030Z 19007KT CAVOK 00/M03 Q1011 R16/09//95=
201902102100 METAR LRSV 102100Z 18007KT CAVOK M01/M03 Q1010 R16/09//95=
201902102130 METAR LRSV 102130Z 18006KT CAVOK M01/M03 Q1010 R16/09//95=
201902102200 METAR LRSV 102200Z 18005KT CAVOK M01/M03 Q1009 R16/09//95=
201902102230 METAR LRSV 102230Z 18004KT 8000 NSC M02/M03 Q1009 R16/09//95=
201902102300 METAR COR LRSV 102300Z 19005KT CAVOK M01/M03 Q1009=
201902102330 METAR LRSV 102330Z 20006KT CAVOK M01/M03 Q1008=
201902110000 METAR LRSV 110000Z 19006KT CAVOK M01/M03 Q1008 R16/09//95=
201902110030 METAR LRSV 110030Z 23007KT CAVOK M01/M03 Q1008 R16/09//95=
201902110100 METAR LRSV 110100Z 22007KT CAVOK M00/M02 Q1008 R16/09//95=
201902110130 METAR LRSV 110130Z 21005KT CAVOK M01/M02 Q1007 R16/09//95=
201902110200 METAR LRSV 110200Z 22008KT CAVOK M01/M02 Q1007 R16/09//95=
201902110230 METAR LRSV 110230Z 22009KT CAVOK M01/M02 Q1006 R16/09//95=
201902110300 METAR LRSV 110300Z 23007KT CAVOK M01/M02 Q1006 R16/09//95=
201902110330 METAR LRSV 110330Z 22008KT CAVOK M00/M02 Q1006 R16/09//95=
201902110400 METAR LRSV 110400Z 21007KT CAVOK M00/M02 Q1005 R16/09//95=
201902110430 METAR LRSV 110430Z 21011KT CAVOK 00/M02 Q1005 R16/09//95=
201902110500 METAR LRSV 110500Z 23008KT CAVOK M00/M02 Q1005 R16/09//95=
201902110530 METAR COR LRSV 110530Z 23007KT 8000 NSC M00/M02 Q1005 R16/09//95=
201902110600 METAR LRSV 110600Z 21004KT 8000 NSC M00/M03 Q1005 R16/09//95=
201902110630 METAR LRSV 110630Z 20005KT 170V230 7000 NSC M00/M02 Q1005
                        R16/09//95=
201902110700 METAR LRSV 110700Z 20005KT 8000 NSC 01/M02 Q1005 R16/09//95=
201902110730 METAR LRSV 110730Z 20006KT 8000 NSC 01/M02 Q1005 R16/09//95=
201902110800 METAR LRSV 110800Z 20006KT CAVOK 02/M02 Q1004 R16/09//95=
201902110830 METAR LRSV 110830Z 22005KT CAVOK 02/M02 Q1004 R16/09//95=
201902110900 METAR LRSV 110900Z 20006KT CAVOK 02/M02 Q1004 R16/09//95=
201902110930 METAR LRSV 110930Z 19004KT 140V220 CAVOK 03/M02 Q1004 R16/09//95=
201902111000 METAR LRSV 111000Z 20005KT CAVOK 03/M01 Q1004 R16/09//95=
201902111030 METAR LRSV 111030Z 19004KT CAVOK 03/M01 Q1003 R16/09//95=
201902111100 METAR LRSV 111100Z 20004KT 8000 NSC 03/M00 Q1003 R16/09//95=
201902111130 METAR LRSV 111130Z 22003KT 8000 NSC 03/M01 Q1003 R16/09//95=
201902111200 METAR LRSV 111200Z 20003KT 8000 NSC 03/M00 Q1003 R16/09//95=
201902111230 METAR LRSV 111230Z 16003KT 8000 NSC 04/M00 Q1003 R16/09//95=
201902111300 METAR LRSV 111300Z 14004KT 8000 NSC 03/M01 Q1003 R16/09//95=
201902111330 METAR LRSV 111330Z VRB01KT 8000 NSC 02/M00 Q1003 R16/09//95=
201902111400 METAR LRSV 111400Z 15003KT 130V200 8000 NSC 02/M01 Q1003
                        R16/09//95=
201902111430 METAR LRSV 111430Z 17003KT 8000 NSC 02/M01 Q1003 R16/09//95=
201902111500 METAR LRSV 111500Z 18004KT 8000 NSC 02/M01 Q1003 R16/09//95=
201902111530 METAR LRSV 111530Z 19005KT 8000 -RA SCT047 03/M01 Q1003 R16/09//95=
201902111600 METAR LRSV 111600Z 20003KT 8000 BKN047 02/M01 Q1003 R16/19//95=
201902111630 METAR LRSV 111630Z 14002KT 8000 -RA BKN040 03/M01 Q1004 R16/19//95=
201902111700 METAR LRSV 111700Z 16006KT 8000 -RA BKN042 02/M00 Q1004 R16/19//95=
201902111730 METAR LRSV 111730Z 20005KT 8000 -RA BKN035 02/M00 Q1004 R16/19//95=
201902111800 METAR LRSV 111800Z 23007KT 9999 -RA BKN041 02/M00 Q1004 R16/19//95=
201902111830 METAR LRSV 111830Z 25006KT 9999 -RA BKN042 03/M00 Q1004 R16/19//95=
201902111900 METAR LRSV 111900Z 27010KT 9999 -RA BKN042 03/M00 Q1004 R16/19//95=
201902111930 METAR LRSV 111930Z 32008KT 7000 -RA SCT036 BKN043 02/01 Q1005
                        R16/19//95=
201902112000 METAR LRSV 112000Z 32010KT 7000 -RA SCT036 OVC047 02/01 Q1005
                        R16/29//95=
201902112030 METAR LRSV 112030Z 33014KT 7000 -RA BKN031 OVC042 02/01 Q1005
                        R16/29//95=
201902112100 METAR LRSV 112100Z 33016KT 7000 -RA FEW030 OVC042 02/01 Q1006
                        R16/29//95=
201902112130 METAR LRSV 112130Z 34016KT 7000 -RA BKN030 OVC049 02/01 Q1006
                        R16/29//95=
201902112200 METAR LRSV 112200Z 33016KT 7000 -RA OVC030 02/01 Q1006 R16/29//95=
201902112230 METAR LRSV 112230Z 34015KT 7000 -RA FEW018 BKN033 02/01 Q1006
                        R16/29//95=
201902112300 METAR LRSV 112300Z 33015KT 9999 -RA BKN026 OVC030 02/01 Q1006
                        R16/29//95=
201902112330 METAR LRSV 112330Z 33015KT 9999 -RA FEW007 SCT009 02/01 Q1006
                        R16/29//95=
201902120000 METAR LRSV 120000Z 33016KT 9999 -RA FEW008 BKN041 02/01 Q1007
                        R16/29//95=
201902120030 METAR LRSV 120030Z 33018KT 9999 -RA BKN027 02/00 Q1007 R16/29//95=
201902120100 METAR LRSV 120100Z 33017KT 9999 -RA BKN031 02/00 Q1007 R16/29//95=
201902120130 METAR LRSV 120130Z 33016KT 9999 -RA FEW010 BKN043 01/00 Q1007
                        R16/29//95=
201902120200 METAR LRSV 120200Z 33016KT 9999 -SN FEW009 BKN024 01/00 Q1007
                        R16/29//95=
201902120230 METAR COR LRSV 120230Z 33015KT 6000 -SN SCT009 01/00 Q1007
                        R16/29//95=
201902120300 METAR LRSV 120300Z 33014KT 3000 -SN BR SCT004 BKN006 01/00
                        Q1007 R16/29//95=
201902120330 METAR LRSV 120330Z 33015KT 3000 -SN BR SCT004 BKN006 01/00
                        Q1007 R16/29//95=
201902120400 METAR LRSV 120400Z 33015KT 4000 -SN BR SCT004 BKN007 01/00
                        Q1007 R16/29//95=
201902120430 METAR LRSV 120430Z 33013KT 6000 -SN BKN008 01/00 Q1007 R16/29//95=
201902120500 METAR LRSV 120500Z 33015KT 4000 -SN BR SCT005 BKN007 01/00
                        Q1008 R16/29//95=
201902120530 METAR LRSV 120530Z 33015KT 2000 SN BR BKN006 00/00 Q1008
                        R16/29//95=
201902120600 METAR LRSV 120600Z 34015KT 2000 SN BR BKN005 00/00 Q1008
                        R16/29//95=
201902120630 METAR LRSV 120630Z 33012KT 1500 SN BR BKN004 00/00 Q1008
                        R16/590294=
201902120700 METAR COR LRSV 120700Z 34012KT 1500 SN BR BKN004 00/00 Q1008
                        R16/590294=
201902120730 METAR LRSV 120730Z 33011KT 1000 R34/1200D SN BR BKN003 00/00
                        Q1008 R16/590294=
201902120800 METAR LRSV 120800Z 33014KT 1000 R34/1300N SN BR BKN003 00/00
                        Q1008 R16/590294=
201902120830 METAR LRSV 120830Z 33017KT 1200 R34/1400U SN BR OVC006 00/00
                        Q1008 R16/590294=
201902120900 METAR LRSV 120900Z 32013KT 3000 -SN BR BKN006 OVC022 00/00
                        Q1009 RESN R16/590294=
201902120930 METAR LRSV 120930Z 32014KT 3000 -SN BR BKN008 OVC029 00/00
                        Q1009 R16/590294=
201902121000 METAR LRSV 121000Z 33015KT 2000 -SN BR BKN006 00/00 Q1008
                        R16/590294=
201902121030 METAR LRSV 121030Z 33016KT 1500 -SN BR BKN004 00/00 Q1008
                        R16/590294=
201902121100 METAR LRSV 121100Z 33014KT 1500 -SN BR BKN005 00/00 Q1008
                        R16/590294=
201902121130 METAR COR LRSV 121130Z 33015KT 1500 -SN BR BKN007 00/00 Q1008
                        R16/590294=
201902121200 METAR LRSV 121200Z 33015KT 1500 -SN BR BKN006 00/00 Q1009
                        R16/590294=
201902121230 METAR LRSV 121230Z 33016KT 2000 -SN BR BKN005 OVC011 00/00
                        Q1009 R16/590294=
201902121300 METAR LRSV 121300Z 33016KT 1500 -SN BR BKN007 OVC020 00/00
                        Q1009 R16/590294=
201902121330 METAR LRSV 121330Z 32018KT 1000 R34/1100N -SN DRSN BKN005
                        00/M00 Q1010 R16/590294=
201902121400 METAR LRSV 121400Z 32023KT 1000 R34/1300 -SN DRSN BR BKN009
                        M00/M01 Q1011 R16/590294=
201902121430 METAR LRSV 121430Z 32023KT 1000 R34/1200D -SN DRSN BR BKN006
                        M01/M01 Q1011 R16/590294=
201902121500 METAR LRSV 121500Z 32020KT 1000 R34/1700 -SN DRSN BR BKN006
                        OVC022 M01/M01 Q1012 R16/590294=
201902121530 METAR LRSV 121530Z 32020G30KT 2000 -SN DRSN BR BKN008 OVC022
                        M01/M02 Q1012 R16/590294=
201902121600 METAR LRSV 121600Z 32019KT 9999 -SN DRSN SCT011 BKN033 M01/M02
                        Q1013 R16/490293=
201902121630 METAR COR LRSV 121630Z 32019KT 9999 DRSN BKN041 M01/M03 Q1014
                        R16/490293=
201902121700 METAR LRSV 121700Z 32021KT 9999 DRSN NSC M01/M03 Q1014 R16/490293=
201902121730 METAR LRSV 121730Z 33018KT 9999 DRSN NSC M01/M04 Q1014 R16/490293=
201902121800 METAR LRSV 121800Z 32015KT 9999 DRSN NSC M01/M04 Q1015 R16/490293=
201902121830 METAR LRSV 121830Z 31015KT 9999 DRSN FEW040 M01/M04 Q1015
                        R16/490293=
201902121900 METAR LRSV 121900Z 32017KT 9999 DRSN FEW040 M01/M04 Q1016
                        R16/490293=
201902121930 METAR LRSV 121930Z 31017KT 280V340 9999 DRSN NSC M01/M04
                        Q1016 R16/490293=
201902122000 METAR LRSV 122000Z 32016KT 9999 DRSN NSC M02/M04 Q1017 R16/490293=
201902122030 METAR LRSV 122030Z 31013KT 9999 DRSN NSC M02/M04 Q1017 R16/990493=
201902122100 METAR LRSV 122100Z 32012KT 9999 DRSN NSC M02/M04 Q1018 R16/990493=
201902122130 METAR LRSV 122130Z 30013KT 9999 DRSN NSC M02/M04 Q1018 R16/990493=
201902122200 METAR LRSV 122200Z 31013KT 9999 DRSN NSC M02/M04 Q1019 R16/990493=
201902122230 METAR LRSV 122230Z 31012KT 9999 DRSN FEW030 M01/M04 Q1019=
201902122300 METAR LRSV 122300Z 31013KT 9999 DRSN FEW021 M01/M04 Q1019
                        R16/990493=
201902122330 METAR LRSV 122330Z 31013KT 9999 -SN DRSN FEW020 M01/M04 Q1020
                        R16/990493=
201902130000 METAR LRSV 130000Z 30013KT 9999 -SN DRSN FEW020 M01/M03 Q1020
                        R16/990493=
201902130030 METAR COR LRSV 130030Z 30012KT 9999 DRSN NSC M02/M04 Q1020
                        R16/990493=
201902130100 METAR LRSV 130100Z 30013KT CAVOK M01/M04 Q1021 R16/990493=
201902130130 METAR LRSV 130130Z 30013KT 9999 FEW020 M02/M04 Q1021 R16/990493=
201902130200 METAR LRSV 130200Z 30013KT 9999 FEW035 M01/M04 Q1021 R16/990493=
201902130230 METAR LRSV 130230Z 31013KT 9999 FEW020 BKN047 M01/M03 Q1022
                        R16/990493=
201902130300 METAR LRSV 130300Z 31011KT 9999 -SN FEW014 BKN021 M01/M03
                        Q1022 R16/990493=
201902130330 METAR LRSV 130330Z 32015KT 9999 -SN SCT014 BKN024 M01/M03
                        Q1023 R16/990493=
201902130400 METAR LRSV 130400Z 32015KT 9999 SCT016 BKN049 M01/M03 Q1023
                        R16/990493=
201902130430 METAR LRSV 130430Z 32015KT 9999 BKN046 M01/M04 Q1024 R16/990493=
201902130500 METAR LRSV 130500Z 32015KT 9999 SCT038 M01/M04 Q1024 R16/990493=
201902130530 METAR LRSV 130530Z 31010KT 9999 SCT037 M01/M04 Q1025 R16/990493=
201902130600 METAR LRSV 130600Z 31014KT 9999 BKN033 M02/M05 Q1025 R16/990493=
201902130630 METAR LRSV 130630Z 32013KT 9999 SCT030 M02/M06 Q1026 R16/990493=
201902130700 METAR LRSV 130700Z 31012KT 9999 BKN030 M02/M06 Q1026 R16/990493=
201902130730 METAR LRSV 130730Z 32016KT 9999 SCT030 M02/M06 Q1026 R16/990493=
201902130800 METAR LRSV 130800Z 32015KT 9999 FEW030 M02/M06 Q1026 R16/990493=
201902130830 METAR LRSV 130830Z 32017KT 9999 FEW030 M01/M06 Q1026 R16/990493=
201902130900 METAR LRSV 130900Z 31014KT 9999 FEW030 M01/M06 Q1027 R16/990493=
201902130930 METAR LRSV 130930Z 31012KT CAVOK M01/M06 Q1027 R16/990493=
201902131000 METAR COR LRSV 131000Z 31011KT CAVOK M01/M06 Q1027 R16/990493=
201902131030 METAR LRSV 131030Z 31012KT CAVOK 00/M07 Q1027 R16/910494=
201902131100 METAR LRSV 131100Z 31013KT CAVOK 01/M07 Q1027 R16/910494=
201902131130 METAR LRSV 131130Z 32010KT CAVOK 01/M09 Q1027 R16/910494=
201902131200 METAR LRSV 131200Z 32014KT CAVOK 01/M10 Q1027 R16/910494=
201902131230 METAR LRSV 131230Z 32012KT CAVOK 02/M10 Q1027 R16/910494=
201902131300 METAR LRSV 131300Z 33009KT CAVOK 02/M09 Q1026 R16/910494=
201902131330 METAR LRSV 131330Z 31007KT CAVOK 02/M10 Q1026 R16/29//95=
201902131400 METAR LRSV 131400Z 30005KT CAVOK 01/M08 Q1026 R16/29//95=
201902131430 METAR LRSV 131430Z 30004KT CAVOK 01/M08 Q1026 R16/29//95=
201902131500 METAR LRSV 131500Z 24005KT 200V260 CAVOK M00/M08 Q1026 R16/29//95=
201902131530 METAR LRSV 131530Z 23005KT CAVOK 00/M07 Q1026 R16/29//95=
201902131600 METAR LRSV 131600Z 23006KT CAVOK M01/M07 Q1025 R16/29//95=
201902131630 METAR LRSV 131630Z 24004KT CAVOK M02/M07 Q1025 R16/29//95=
201902131700 METAR LRSV 131700Z 25008KT CAVOK M01/M08 Q1025 R16/19//95=
201902131730 METAR COR LRSV 131730Z 26009KT CAVOK M01/M08 Q1025 R16/19//95=
201902131800 METAR LRSV 131800Z 26010KT CAVOK M01/M08 Q1025 R16/19//95=
201902131830 METAR LRSV 131830Z 24009KT CAVOK M00/M07 Q1024 R16/19//95=
201902131900 METAR LRSV 131900Z 25011KT CAVOK 00/M05 Q1024 R16/19//95=
201902131930 METAR LRSV 131930Z 26009KT 9999 BKN032 01/M05 Q1025 R16/19//95=
201902132000 METAR LRSV 132000Z 26012KT 9999 SCT032 02/M04 Q1025 R16/19//95=
201902132030 METAR LRSV 132030Z 27010KT 9999 SCT043 02/M04 Q1025 R16/19//95=
201902132100 METAR LRSV 132100Z 27011KT 9999 OVC044 02/M03 Q1025 R16/19//95=
201902132130 METAR LRSV 132130Z 27010KT 9999 BKN036 02/M03 Q1025 R16/19//95=
201902132200 METAR LRSV 132200Z 25008KT 9999 BKN036 01/M03 Q1026 R16/19//95=
201902132230 METAR LRSV 132230Z 26008KT 9999 BKN037 01/M03 Q1026 R16/19//95=
201902132300 METAR LRSV 132300Z 25007KT 9999 OVC035 01/M03 Q1026 R16/19//95=
201902132330 METAR LRSV 132330Z 25007KT 9999 OVC035 02/M03 Q1026 R16/19//95=
201902140000 METAR LRSV 140000Z 26008KT 9999 BKN034 02/M03 Q1025 R16/19//95=
201902140030 METAR LRSV 140030Z 26011KT 9999 SCT033 02/M03 Q1025 R16/19//95=
201902140100 METAR LRSV 140100Z 26009KT 9999 BKN032 02/M03 Q1025 R16/19//95=
201902140130 METAR LRSV 140130Z 26009KT 9999 BKN031 02/M03 Q1025 R16/19//95=
201902140200 METAR LRSV 140200Z 26010KT 9999 SCT031 02/M03 Q1025 R16/19//95=
201902140230 METAR LRSV 140230Z 27011KT 9999 FEW017 SCT030 02/M02 Q1025
                        R16/19//95=
201902140300 METAR LRSV 140300Z 28013KT 9999 FEW022 BKN028 02/M01 Q1025
                        R16/19//95=
201902140330 METAR LRSV 140330Z 27009KT 9999 -SN BKN025 02/M01 Q1025 R16/29//95=
201902140400 METAR LRSV 140400Z 28012KT 8000 -SN BKN022 01/M00 Q1025 R16/590195=
201902140430 METAR LRSV 140430Z 28014KT 9999 -RA BKN020 02/00 Q1024 R16/590195=
201902140500 METAR LRSV 140500Z 28013KT 9999 -RA FEW012 BKN020 01/00 Q1024
                        R16/590195=
201902140530 METAR LRSV 140530Z 28011KT 8000 -RA FEW009 BKN021 02/00 Q1025
                        R16/29//95=
201902140600 METAR LRSV 140600Z 30011KT 9999 -RA SCT020 BKN029 02/01 Q1025
                        R16/29//95=
201902140630 METAR LRSV 140630Z 32015G25KT 9999 -RA SCT018 BKN035 03/01
                        Q1025 R16/29//95=
201902140700 METAR LRSV 140700Z 32016G26KT 9999 -RA SCT018 BKN035 03/00
                        Q1025 R16/29//95=
201902140730 METAR LRSV 140730Z 33014KT 8000 -RA SCT015 BKN021 02/01 Q1025
                        R16/29//95=
201902140800 METAR LRSV 140800Z 33015KT 9999 -RA SCT017 BKN040 02/01 Q1025
                        R16/29//95=
201902140830 METAR LRSV 140830Z 33018G28KT 9999 -RA SCT013 BKN030 02/00
                        Q1025 R16/29//95=
201902140900 METAR LRSV 140900Z 34019KT 9999 -RA SCT014 BKN035 02/M00
                        Q1026 R16/29//95=
201902140930 METAR LRSV 140930Z 33017G27KT 8000 -RASN SCT014 BKN022 02/00
                        Q1026 R16/29//95=
201902141000 METAR LRSV 141000Z 33016G26KT 9999 -RASN FEW014 BKN025 02/00
                        Q1026 R16/29//95=
201902141030 METAR LRSV 141030Z 33016KT 9999 -RASN FEW020 BKN035 02/M00
                        Q1026 R16/29//95=
201902141100 METAR LRSV 141100Z 33016KT 9999 -RASN FEW020 BKN035 02/M00
                        Q1026 R16/29//95=
201902141130 METAR LRSV 141130Z 33015KT 9999 -RASN BKN035 02/M00 Q1025
                        R16/29//95=
201902141200 METAR LRSV 141200Z 33017KT 9999 -RASN FEW017 BKN030 02/M00
                        Q1025 R16/29//95=
201902141230 METAR LRSV 141230Z 34015KT 9999 -RASN BKN031 02/M00 Q1025
                        R16/29//95=
201902141300 METAR LRSV 141300Z 34016KT 9999 BKN030 02/M00 Q1026 R16/29//95=
201902141330 METAR LRSV 141330Z 35015KT 9999 -SN FEW020 BKN033 02/M00
                        Q1026 R16/29//95=
201902141400 METAR LRSV 141400Z 34014KT 9999 -SN FEW020 OVC035 02/M00
                        Q1026 R16/29//95=
201902141430 METAR LRSV 141430Z 34014KT 9999 -SN FEW020 BKN035 02/M00
                        Q1026 R16/29//95=
201902141500 METAR LRSV 141500Z 34014KT 9999 FEW020 BKN038 02/M00 Q1026
                        R16/29//95=
201902141530 METAR LRSV 141530Z 34015KT 9999 FEW020 BKN040 02/M00 Q1026
                        R16/29//95=
201902141600 METAR LRSV 141600Z 34014KT 9999 FEW020 BKN040 02/M00 Q1026
                        R16/29//95=
201902141630 METAR LRSV 141630Z 33016KT 9999 FEW020 BKN040 02/M00 Q1027
                        R16/29//95=
201902141700 METAR LRSV 141700Z 33014KT 9999 BKN035 02/00 Q1027 R16/29//95=
201902141730 METAR LRSV 141730Z 33015KT 9999 BKN037 02/00 Q1027 R16/29//95=
201902141800 METAR LRSV 141800Z 33015KT 9999 BKN037 02/00 Q1027 R16/29//95=
201902141830 METAR LRSV 141830Z 34012KT 9999 BKN012 BKN030 02/00 Q1027
                        R16/29//95=
201902141900 METAR LRSV 141900Z 33011KT 9999 BKN010 BKN030 01/00 Q1028
                        R16/29//95=
201902141930 METAR LRSV 141930Z 33011KT 9000 BKN010 BKN030 01/00 Q1028
                        R16/29//95=
201902142000 METAR LRSV 142000Z 03007KT 350V050 4000 DZ BR OVC006 01/00
                        Q1028 R16/29//95=
201902142030 METAR LRSV 142030Z 36014KT 2000 SN BR OVC006 00/M00 Q1028
                        R16/590494=
201902142100 METAR LRSV 142100Z 36010KT 5000 -SN BR OVC006 00/00 Q1028
                        R16/590494=
201902142130 METAR LRSV 142130Z 34010KT 5000 BR BKN006 BKN028 01/01 Q1028
                        R16/590494=
201902142200 METAR LRSV 142200Z 35010KT 7000 BKN006 BKN029 01/00 Q1028
                        R16/590494=
201902142230 METAR LRSV 142230Z 35011KT 7000 BKN006 BKN029 01/00 Q1029
                        R16/590494=
201902142300 METAR LRSV 142300Z 34010KT 9999 BKN006 BKN030 01/01 Q1029
                        R16/590494=
201902142330 METAR LRSV 142330Z 35010KT 9999 BKN010 BKN030 01/01 Q1029
                        R16/590494=
201902150000 METAR LRSV 150000Z 35010KT 9999 BKN013 BKN030 01/01 Q1029
                        R16/590494=
201902150030 METAR LRSV 150030Z 35009KT 9999 BKN011 BKN030 01/00 Q1029
                        R16/590494=
201902150100 METAR LRSV 150100Z 36008KT 7000 BKN011 BKN034 01/00 Q1029
                        R16/590494=
201902150130 METAR LRSV 150130Z 35008KT 7000 SCT011 BKN037 00/00 Q1029
                        R16/590494=
201902150200 METAR LRSV 150200Z 35009KT 9999 BKN046 00/00 Q1029 R16/590494=
201902150230 METAR LRSV 150230Z 34009KT 9999 SCT004 BKN041 00/00 Q1029
                        R16/590494=
201902150300 METAR LRSV 150300Z 02007KT 9999 BKN005 BKN041 00/00 Q1029
                        R16/29//95=
201902150330 METAR LRSV 150330Z 01007KT 7000 -RASN BKN008 BKN041 00/00
                        Q1029 R16/29//95=
201902150400 METAR LRSV 150400Z 01006KT 9999 BKN003 BKN045 00/00 Q1030
                        R16/29//95=
201902150430 METAR LRSV 150430Z 34007KT 9999 SCT003 BKN043 00/00 Q1029
                        R16/29//95=
201902150500 METAR LRSV 150500Z 33006KT 7000 BKN041 00/00 Q1030 R16/29//95=
201902150530 METAR LRSV 150530Z 35006KT 7000 BKN040 00/00 Q1030 R16/29//95=
201902150600 METAR LRSV 150600Z 34006KT 7000 SCT003 OVC040 00/00 Q1031
                        R16/29//95=
201902150630 METAR LRSV 150630Z 34002KT 7000 SCT004 OVC040 00/00 Q1031
                        R16/29//95=
201902150700 METAR LRSV 150700Z 35006KT 8000 SCT009 OVC040 00/00 Q1031
                        R16/29//95=
201902150730 METAR LRSV 150730Z 34006KT 9000 SCT009 OVC039 01/00 Q1031
                        R16/29//95=
201902150800 METAR LRSV 150800Z 35007KT 9999 FEW009 OVC041 01/01 Q1032
                        R16/29//95=
201902150830 METAR LRSV 150830Z 35006KT 9999 FEW010 OVC038 01/01 Q1032
                        R16/29//95=
201902150900 METAR LRSV 150900Z 34005KT 9999 FEW010 OVC038 01/00 Q1032
                        R16/29//95=
201902150930 METAR LRSV 150930Z 34005KT 9999 FEW010 OVC038 01/01 Q1032
                        R16/29//95=
201902151000 METAR LRSV 151000Z 33005KT 9999 FEW010 BKN038 02/00 Q1032
                        R16/29//95=
201902151030 METAR LRSV 151030Z 33005KT 9999 FEW010 OVC037 02/M00 Q1031
                        R16/29//95=
201902151100 METAR LRSV 151100Z 33004KT 300V360 9999 SCT010 BKN037 02/M01
                        Q1031 R16/29//95=
201902151130 METAR LRSV 151130Z 32005KT 280V340 9999 SCT010 BKN033 02/M01
                        Q1031 R16/29//95=
201902151200 METAR LRSV 151200Z 29006KT 9999 SCT010 BKN033 02/M01 Q1031
                        R16/19//95=
201902151230 METAR LRSV 151230Z 28006KT 9999 FEW010 BKN033 03/M01 Q1030
                        R16/19//95=
201902151300 METAR COR LRSV 151300Z 30006KT 280V340 9999 BKN032 03/M02
                        Q1030 R16/19//95=
201902151330 METAR LRSV 151330Z 35007KT 9999 BKN027 03/M01 Q1030 R16/19//95=
201902151400 METAR LRSV 151400Z 31007KT 9999 BKN028 03/M02 Q1030 R16/19//95=
201902151430 METAR LRSV 151430Z 33007KT 9999 BKN027 03/M02 Q1030 R16/19//95=
201902151500 METAR LRSV 151500Z 33007KT 9999 BKN027 03/M02 Q1030 R16/19//95=
201902151530 METAR LRSV 151530Z 33007KT 9999 BKN027 02/M02 Q1030 R16/19//95=
201902151600 METAR LRSV 151600Z 33005KT 9999 SCT028 02/M02 Q1030 R16/19//95=
201902151630 METAR LRSV 151630Z 35005KT 9999 FEW028 01/M02 Q1030 R16/19//95=
201902151700 METAR LRSV 151700Z 34004KT CAVOK 01/M02 Q1030 R16/19//95=
201902151730 METAR LRSV 151730Z 34004KT CAVOK 01/M02 Q1030 R16/19//95=
201902151800 METAR LRSV 151800Z 32004KT CAVOK 01/M02 Q1030 R16/19//95=
201902151830 METAR LRSV 151830Z 28004KT CAVOK 00/M03 Q1030 R16/19//95=
201902151900 METAR LRSV 151900Z 29004KT CAVOK M00/M03 Q1030 R16/19//95=
201902151930 METAR LRSV 151930Z 30004KT CAVOK 01/M02 Q1030 R16/19//95=
201902152000 METAR LRSV 152000Z 33004KT CAVOK 00/M02 Q1030 R16/19//95=
201902152030 METAR LRSV 152030Z 33004KT CAVOK M00/M03 Q1030 R16/19//95=
201902152100 METAR LRSV 152100Z 31003KT CAVOK M00/M02 Q1030 R16/19//95=
201902152130 METAR LRSV 152130Z 32004KT CAVOK M00/M02 Q1030 R16/19//95=
201902152200 METAR LRSV 152200Z 30006KT CAVOK M01/M02 Q1029 R16/19//95=
201902152230 METAR LRSV 152230Z 31004KT CAVOK M00/M02 Q1029 R16/19//95=
201902152300 METAR LRSV 152300Z 32004KT 8000 SCT020 M01/M02 Q1029 R16/19//95=
201902152330 METAR LRSV 152330Z 30004KT 270V330 9999 SCT020 00/M01 Q1029
                        R16/19//95=
201902160000 METAR LRSV 160000Z 28007KT 9999 BKN020 00/M01 Q1029 R16/19//95=
201902160030 METAR LRSV 160030Z 29007KT 9999 BKN020 01/M01 Q1029 R16/19//95=
201902160100 METAR LRSV 160100Z 28005KT 9999 OVC023 01/M01 Q1029 R16/19//95=
201902160130 METAR LRSV 160130Z 28006KT 9999 BKN023 01/M01 Q1028 R16/19//95=
201902160200 METAR LRSV 160200Z 29007KT 9999 OVC023 01/M01 Q1028 R16/19//95=
201902160230 METAR LRSV 160230Z 28007KT 9999 BKN023 02/M01 Q1028 R16/19//95=
201902160300 METAR LRSV 160300Z 29008KT 9999 BKN022 02/M01 Q1028 R16/19//95=
201902160330 METAR LRSV 160330Z 29005KT 9999 BKN022 02/M01 Q1028 R16/19//95=
201902160400 METAR LRSV 160400Z 29008KT 9999 BKN020 02/M01 Q1028 R16/19//95=
201902160430 METAR LRSV 160430Z 30009KT 9999 BKN022 02/M01 Q1027 R16/19//95=
201902160500 METAR LRSV 160500Z 30010KT 9999 OVC022 02/M01 Q1027 R16/19//95=
201902160530 METAR COR LRSV 160530Z 31009KT 280V340 9999 BKN019 02/M01
                        Q1028 R16/19//95=
201902160600 METAR LRSV 160600Z 32011KT 9999 BKN018 03/M01 Q1028 R16/19//95=
201902160630 METAR LRSV 160630Z 32008KT 9999 BKN018 03/M00 Q1028 R16/19//95=
201902160700 METAR LRSV 160700Z 32009KT 9999 OVC019 03/M00 Q1028 R16/19//95=
201902160730 METAR LRSV 160730Z 30007KT 9999 OVC020 03/M00 Q1028 R16/19//95=
201902160800 METAR COR LRSV 160800Z 29008KT 9999 OVC021 03/M00 Q1028 R16/19//95=
201902160830 METAR LRSV 160830Z 30008KT 9999 OVC021 03/M00 Q1028 R16/19//95=
201902160900 METAR COR LRSV 160900Z 30007KT 9999 BKN022 04/00 Q1028 R16/19//95=
201902160930 METAR LRSV 160930Z 31011KT 9999 SCT022 05/01 Q1028 R16/09//95=
201902161000 METAR LRSV 161000Z 32013KT 9999 FEW022 05/01 Q1028 R16/09//95=
201902161030 METAR LRSV 161030Z 31010KT 9999 FEW022 06/01 Q1027 R16/09//95=
201902161100 METAR LRSV 161100Z 31009KT CAVOK 06/01 Q1027 R16/09//95=
201902161130 METAR LRSV 161130Z 34011KT CAVOK 07/02 Q1027 R16/09//95=
201902161200 METAR COR LRSV 161200Z 34011KT CAVOK 07/01 Q1027 R16/09//95=
201902161230 METAR LRSV 161230Z 34010KT CAVOK 07/02 Q1027 R16/09//95=
201902161300 METAR LRSV 161300Z 33010KT CAVOK 07/02 Q1027 R16/09//95=
201902161330 METAR LRSV 161330Z 34009KT CAVOK 07/02 Q1027 R16/09//95=
201902161400 METAR LRSV 161400Z 33005KT CAVOK 07/02 Q1027 R16/09//95=
201902161430 METAR LRSV 161430Z 33008KT CAVOK 07/01 Q1026 R16/09//95=
201902161500 METAR LRSV 161500Z 33007KT CAVOK 07/01 Q1026 R16/09//95=
201902161530 METAR LRSV 161530Z 32007KT CAVOK 06/01 Q1026 R16/09//95=
201902161600 METAR LRSV 161600Z 31004KT 8000 NSC 04/00 Q1026 R16/09//95=
201902161630 METAR LRSV 161630Z 24004KT CAVOK 04/00 Q1026 R16/09//95=
201902161700 METAR LRSV 161700Z 26004KT CAVOK 03/00 Q1027 R16/09//95=
201902161730 METAR LRSV 161730Z 30005KT CAVOK 04/01 Q1026 R16/09//95=
201902161800 METAR LRSV 161800Z 28005KT CAVOK 03/00 Q1026 R16/09//95=
201902161830 METAR LRSV 161830Z 27006KT CAVOK 03/00 Q1026 R16/09//95=
201902161900 METAR LRSV 161900Z 28007KT CAVOK 04/00 Q1026 R16/09//95=
201902161930 METAR LRSV 161930Z 30006KT CAVOK 04/00 Q1026 R16/09//95=
201902162000 METAR LRSV 162000Z 28006KT CAVOK 03/00 Q1026 R16/09//95=
201902162030 METAR LRSV 162030Z 27005KT CAVOK 03/00 Q1026 R16/09//95=
201902162100 METAR COR LRSV 162100Z 29007KT CAVOK 03/01 Q1026 R16/09//95=
201902162130 METAR COR LRSV 162130Z 28005KT CAVOK 03/00 Q1026 R16/09//95=
201902162200 METAR LRSV 162200Z 27008KT CAVOK 04/00 Q1026 R16/09//95=
201902162230 METAR LRSV 162230Z 26010KT CAVOK 04/00 Q1026 R16/09//95=
201902162300 METAR LRSV 162300Z 26009KT CAVOK 03/00 Q1026 R16/09//95=
201902162330 METAR LRSV 162330Z 26008KT CAVOK 04/00 Q1025 R16/09//95=
201902170000 METAR LRSV 170000Z 27008KT CAVOK 03/M01 Q1025 R16/09//95=
201902170030 METAR LRSV 170030Z 28007KT CAVOK 04/M00 Q1025 R16/09//95=
201902170100 METAR LRSV 170100Z 27009KT CAVOK 04/M01 Q1025 R16/09//95=
201902170130 METAR LRSV 170130Z 27007KT CAVOK 04/M01 Q1024 R16/09//95=
201902170200 METAR LRSV 170200Z 26008KT CAVOK 04/M01 Q1024 R16/09//95=
201902170230 METAR LRSV 170230Z 26006KT CAVOK 03/M01 Q1024 R16/09//95=
201902170300 METAR LRSV 170300Z 28006KT CAVOK 03/M01 Q1024 R16/09//95=
201902170330 METAR LRSV 170330Z 27007KT CAVOK 03/M01 Q1024 R16/09//95=
201902170400 METAR LRSV 170400Z 27008KT CAVOK 04/M01 Q1024 R16/09//95=
201902170430 METAR LRSV 170430Z 27010KT CAVOK 04/M01 Q1023 R16/09//95=
201902170500 METAR LRSV 170500Z 26008KT CAVOK 03/M02 Q1023 R16/09//95=
201902170530 METAR LRSV 170530Z 25009KT CAVOK 02/M02 Q1024 R16/09//95=
201902170600 METAR LRSV 170600Z 26009KT CAVOK 04/M01 Q1024 R16/09//95=
201902170630 METAR LRSV 170630Z 26009KT CAVOK 05/M01 Q1024 R16/09//95=
201902170700 METAR LRSV 170700Z 27009KT CAVOK 05/M01 Q1024 R16/09//95=
201902170730 METAR LRSV 170730Z 26010KT CAVOK 06/M01 Q1024 R16/09//95=
201902170800 METAR LRSV 170800Z 26009KT CAVOK 06/M00 Q1024 R16/09//95=
201902170830 METAR LRSV 170830Z 25008KT CAVOK 06/01 Q1024 R16/09//95=
201902170900 METAR LRSV 170900Z 26008KT CAVOK 08/02 Q1024 R16/09//95=
201902170930 METAR LRSV 170930Z 25007KT CAVOK 08/02 Q1024 R16/09//95=
201902171000 METAR LRSV 171000Z 25007KT CAVOK 09/02 Q1024 R16/09//95=
201902171030 METAR LRSV 171030Z 26006KT CAVOK 11/02 Q1023 R16/09//95=
201902171100 METAR LRSV 171100Z 32011KT CAVOK 12/M03 Q1023 R16/09//95=
201902171130 METAR LRSV 171130Z 32009KT CAVOK 13/M01 Q1023 R16/09//95=
201902171200 METAR LRSV 171200Z 31010KT CAVOK 13/M03 Q1022 R16/CLRD//=
201902171230 METAR LRSV 171230Z 31007KT 290V350 CAVOK 13/M03 Q1022=
201902171300 METAR LRSV 171300Z 33007KT 300V360 CAVOK 14/M02 Q1022=
201902171330 METAR LRSV 171330Z 34006KT CAVOK 14/M02 Q1022=
201902171400 METAR LRSV 171400Z 30004KT CAVOK 13/01 Q1021=
201902171430 METAR LRSV 171430Z 31003KT CAVOK 12/02 Q1021=
201902171500 METAR LRSV 171500Z 34006KT CAVOK 12/M01 Q1021=
201902171530 METAR LRSV 171530Z 32005KT CAVOK 11/M03 Q1021=
201902171600 METAR LRSV 171600Z 30005KT CAVOK 09/M01 Q1021=
201902171630 METAR LRSV 171630Z 30006KT CAVOK 09/M01 Q1021=
201902171700 METAR LRSV 171700Z 31007KT CAVOK 10/M02 Q1022=
201902171730 METAR LRSV 171730Z 31007KT CAVOK 08/M02 Q1022=
201902171800 METAR LRSV 171800Z 30007KT CAVOK 07/M01 Q1022=
201902171830 METAR LRSV 171830Z 31008KT CAVOK 07/M02 Q1022=
201902171900 METAR LRSV 171900Z 30009KT CAVOK 07/M02 Q1022=
201902171930 METAR LRSV 171930Z 31007KT CAVOK 07/M02 Q1022=
201902172000 METAR LRSV 172000Z 30008KT CAVOK 07/M02 Q1022=
201902172030 METAR LRSV 172030Z 31008KT CAVOK 08/M03 Q1022=
201902172100 METAR COR LRSV 172100Z 32012KT CAVOK 09/M04 Q1022=
201902172130 METAR LRSV 172130Z 31010KT CAVOK 08/M04 Q1022=
201902172200 METAR LRSV 172200Z 33008KT CAVOK 07/M04 Q1022=
201902172230 METAR LRSV 172230Z 34008KT CAVOK 07/M03 Q1023=
201902172300 METAR LRSV 172300Z 32011KT CAVOK 08/M04 Q1023=
201902172330 METAR LRSV 172330Z 33009KT CAVOK 07/M03 Q1023=
201902180000 METAR LRSV 180000Z 33007KT CAVOK 06/M03 Q1023=
201902180030 METAR LRSV 180030Z 35009KT CAVOK 05/M03 Q1023=
201902180100 METAR LRSV 180100Z 35008KT CAVOK 04/M03 Q1023=
201902180130 METAR LRSV 180130Z 35008KT CAVOK 03/M02 Q1023=
201902180200 METAR LRSV 180200Z 34010KT CAVOK 03/M02 Q1023=
201902180230 METAR LRSV 180230Z 35010KT CAVOK 02/M01 Q1023=
201902180300 METAR LRSV 180300Z 34008KT CAVOK 02/M01 Q1023=
201902180330 METAR LRSV 180330Z 33005KT CAVOK 02/M01 Q1023=
201902180400 METAR LRSV 180400Z 34004KT CAVOK 02/M01 Q1023=
201902180430 METAR COR LRSV 180430Z 31003KT CAVOK 02/00 Q1023=
201902180500 METAR LRSV 180500Z 29004KT CAVOK 02/00 Q1023=
201902180530 METAR LRSV 180530Z 30006KT CAVOK 02/M01 Q1024=
201902180600 METAR LRSV 180600Z 29006KT CAVOK 02/M01 Q1024=
201902180630 METAR LRSV 180630Z 29005KT CAVOK 02/M01 Q1024=
201902180700 METAR LRSV 180700Z 31005KT CAVOK 04/M00 Q1024=
201902180730 METAR COR LRSV 180730Z 30003KT 260V340 CAVOK 05/01 Q1024=
201902180800 METAR LRSV 180800Z 29004KT 240V340 CAVOK 05/01 Q1024=
201902180830 METAR LRSV 180830Z 34004KT 250V010 CAVOK 06/02 Q1024=
201902180900 METAR LRSV 180900Z 34005KT 320V020 CAVOK 06/02 Q1024=
201902180930 METAR LRSV 180930Z 35005KT CAVOK 07/02 Q1024=
201902181000 METAR LRSV 181000Z 36006KT 300V050 CAVOK 07/01 Q1024=
201902181030 METAR LRSV 181030Z 35007KT 320V030 CAVOK 07/02 Q1024=
201902181100 METAR LRSV 181100Z VRB05KT CAVOK 08/02 Q1023=
201902181130 METAR LRSV 181130Z VRB05KT CAVOK 08/01 Q1023=
201902181200 METAR LRSV 181200Z 03005KT 340V120 CAVOK 08/02 Q1023=
201902181230 METAR LRSV 181230Z 36004KT 320V050 CAVOK 09/01 Q1023=
201902181300 METAR LRSV 181300Z 01005KT 340V040 CAVOK 09/01 Q1022=
201902181330 METAR COR LRSV 181330Z 04005KT 010V070 CAVOK 08/02 Q1022=
201902181400 METAR LRSV 181400Z 08004KT CAVOK 08/02 Q1022=
201902181430 METAR LRSV 181430Z 07004KT CAVOK 08/02 Q1022=
201902181500 METAR LRSV 181500Z 07004KT CAVOK 07/02 Q1022=
201902181530 METAR LRSV 181530Z 06004KT CAVOK 06/02 Q1022=
201902181600 METAR LRSV 181600Z 07002KT CAVOK 05/02 Q1022=
201902181630 METAR LRSV 181630Z 06003KT CAVOK 05/02 Q1023=
201902181700 METAR LRSV 181700Z 04005KT CAVOK 05/01 Q1023=
201902181730 METAR LRSV 181730Z 04004KT CAVOK 04/01 Q1023=
201902181800 METAR LRSV 181800Z 04005KT CAVOK 03/01 Q1023=
201902181830 METAR LRSV 181830Z 05004KT CAVOK 03/01 Q1023=
201902181900 METAR LRSV 181900Z 05005KT CAVOK 03/01 Q1023=
201902181930 METAR LRSV 181930Z 07005KT CAVOK 03/01 Q1023=
201902182000 METAR LRSV 182000Z 08004KT CAVOK 03/01 Q1023=
201902182030 METAR LRSV 182030Z 09004KT CAVOK 03/01 Q1023=
201902182100 METAR LRSV 182100Z 11004KT CAVOK 03/01 Q1022=
201902182130 METAR LRSV 182130Z 13005KT 8000 NSC 03/01 Q1022=
201902182200 METAR LRSV 182200Z 14005KT 8000 NSC 02/00 Q1022=
201902182230 METAR LRSV 182230Z 13006KT CAVOK 03/01 Q1022=
201902182300 METAR LRSV 182300Z 14006KT CAVOK 02/00 Q1022=
201902182330 METAR LRSV 182330Z 15005KT 8000 NSC 02/00 Q1022=
201902190000 METAR LRSV 190000Z 15006KT 7000 NSC 01/00 Q1022=
201902190030 METAR LRSV 190030Z 16006KT 7000 NSC 01/00 Q1022=
201902190100 METAR LRSV 190100Z 16005KT 7000 NSC 01/M00 Q1022=
201902190130 METAR COR LRSV 190130Z 16005KT 8000 NSC 01/M00 Q1021=
201902190200 METAR LRSV 190200Z 16004KT 8000 NSC 01/01 Q1021=
201902190230 METAR LRSV 190230Z 15006KT 8000 NSC 01/M00 Q1021=
201902190300 METAR LRSV 190300Z 13007KT 7000 NSC 01/00 Q1021=
201902190330 METAR LRSV 190330Z 15007KT 6000 NSC 01/00 Q1020=
201902190400 METAR LRSV 190400Z 15006KT 5000 BR NSC 00/M00 Q1020=
201902190430 METAR LRSV 190430Z 16008KT 3000 BR NSC 00/M00 Q1020=
201902190500 METAR LRSV 190500Z 17005KT 1000 R34/1500N BR NSC M01/M01
                        Q1020=
201902190530 METAR LRSV 190530Z 19005KT 1500 BR NSC M00/M01 Q1020=
201902190600 METAR LRSV 190600Z 21006KT 2000 BR NSC 00/M00 Q1020=
201902190630 METAR LRSV 190630Z 21005KT 2000 BR NSC M00/M00 Q1020=
201902190700 METAR LRSV 190700Z 19007KT 4000 BR NSC 01/01 Q1020=
201902190730 METAR LRSV 190730Z 19009KT 5000 BR NSC 02/01 Q1020=
201902190800 METAR LRSV 190800Z 19010KT 6000 NSC 03/01 Q1020=
201902190830 METAR LRSV 190830Z 18008KT 6000 NSC 04/02 Q1020=
201902190900 METAR LRSV 190900Z 18008KT 6000 NSC 05/02 Q1020=
201902190930 METAR LRSV 190930Z 15007KT 7000 NSC 06/02 Q1020=
201902191000 METAR LRSV 191000Z 15007KT 8000 NSC 06/02 Q1019=
201902191030 METAR LRSV 191030Z 16005KT 130V190 CAVOK 07/02 Q1019=
201902191100 METAR LRSV 191100Z 14006KT 110V170 CAVOK 08/03 Q1019=
201902191130 METAR LRSV 191130Z 15005KT 120V180 CAVOK 09/04 Q1018=
201902191200 METAR LRSV 191200Z AUTO 13007KT 8000 NCD 08/05 Q1018=
201902191230 METAR LRSV 191230Z 14008KT CAVOK 08/04 Q1018=
201902191300 METAR LRSV 191300Z 13009KT CAVOK 08/05 Q1018=
201902191330 METAR LRSV 191330Z 14009KT 110V170 CAVOK 09/05 Q1018=
201902191400 METAR LRSV 191400Z 14008KT CAVOK 08/05 Q1017=
201902191430 METAR LRSV 191430Z 15007KT CAVOK 08/04 Q1017=
201902191500 METAR LRSV 191500Z 15007KT CAVOK 08/04 Q1017=
201902191530 METAR LRSV 191530Z 18006KT 7000 NSC 06/03 Q1017=
201902191600 METAR LRSV 191600Z 19009KT 7000 NSC 05/02 Q1017=
201902191630 METAR LRSV 191630Z 18007KT 7000 NSC 04/02 Q1017=
201902191700 METAR LRSV 191700Z 18006KT 8000 NSC 05/02 Q1016=
201902191730 METAR COR LRSV 191730Z 18006KT 8000 NSC 04/02 Q1016=
201902191800 METAR COR LRSV 191800Z 19006KT 8000 NSC 04/02 Q1016=
201902191830 METAR COR LRSV 191830Z 22008KT 8000 NSC 04/02 Q1016=
201902191900 METAR LRSV 191900Z 24010KT 6000 NSC 03/02 Q1015=
201902191930 METAR LRSV 191930Z 24010KT 6000 NSC 03/02 Q1015=
201902192000 METAR LRSV 192000Z 24011KT 6000 NSC 03/02 Q1015=
201902192030 METAR LRSV 192030Z 24011KT 6000 NSC 03/01 Q1015=
201902192100 METAR LRSV 192100Z 25011KT 6000 NSC 03/00 Q1015=
201902192130 METAR LRSV 192130Z 26011KT CAVOK 04/M02 Q1015=
201902192200 METAR LRSV 192200Z 25011KT CAVOK 04/M02 Q1015=
201902192230 METAR LRSV 192230Z 26012KT CAVOK 05/M03 Q1015=
201902192300 METAR LRSV 192300Z 26012KT CAVOK 05/M03 Q1014=
201902192330 METAR LRSV 192330Z 26012KT CAVOK 05/M04 Q1014=
201902200000 METAR LRSV 200000Z 26011KT CAVOK 05/M04 Q1015=
201902200030 METAR LRSV 200030Z 27011KT CAVOK 05/M04 Q1014=
201902200100 METAR LRSV 200100Z 26010KT CAVOK 05/M04 Q1014=
201902200130 METAR LRSV 200130Z 27013KT CAVOK 06/M05 Q1014=
201902200200 METAR LRSV 200200Z 28013KT CAVOK 05/M05 Q1014=
201902200230 METAR LRSV 200230Z 28012KT CAVOK 05/M04 Q1014=
201902200300 METAR LRSV 200300Z 28011KT CAVOK 05/M04 Q1014=
201902200330 METAR LRSV 200330Z 29009KT CAVOK 04/M03 Q1014=
201902200400 METAR LRSV 200400Z 29005KT CAVOK 03/M03 Q1014=
201902200430 METAR LRSV 200430Z 27008KT CAVOK 04/M03 Q1014=
201902200500 METAR LRSV 200500Z 26009KT CAVOK 05/M03 Q1014=
201902200530 METAR LRSV 200530Z 26009KT CAVOK 04/M03 Q1014=
201902200600 METAR LRSV 200600Z 25008KT CAVOK 04/M03 Q1015=
201902200630 METAR LRSV 200630Z 26008KT CAVOK 04/M02 Q1015=
201902200700 METAR LRSV 200700Z 27008KT CAVOK 05/M01 Q1015=
201902200730 METAR LRSV 200730Z 02010KT CAVOK 04/M01 Q1016=
201902200800 METAR LRSV 200800Z 34013KT CAVOK 06/M01 Q1016=
201902200830 METAR LRSV 200830Z 33017KT CAVOK 07/01 Q1016=
201902200900 METAR LRSV 200900Z 33016KT CAVOK 05/01 Q1016=
201902200930 METAR LRSV 200930Z 34018KT CAVOK 06/01 Q1016=
201902201000 METAR LRSV 201000Z 33020KT CAVOK 06/02 Q1016=
201902201030 METAR LRSV 201030Z 34015KT 9999 FEW020 06/02 Q1016=
201902201100 METAR LRSV 201100Z 33014KT 9999 FEW020 06/01 Q1016=
201902201130 METAR LRSV 201130Z 33016KT 9999 FEW020 07/00 Q1016=
201902201200 METAR LRSV 201200Z 33015KT 9999 FEW040 05/00 Q1016=
201902201230 METAR LRSV 201230Z 30011KT 9999 -RA FEW020 BKN030 05/00 Q1016=
201902201300 METAR LRSV 201300Z 31009KT 9999 -RA SCT022 BKN035 05/M00
                        Q1017=
201902201330 METAR LRSV 201330Z 29007KT 9999 SCT040 05/00 Q1017=
201902201400 METAR LRSV 201400Z 26007KT 9999 BKN045 05/01 Q1017=
201902201430 METAR LRSV 201430Z 26007KT 9999 FEW045 05/01 Q1017=
201902201500 METAR LRSV 201500Z 25006KT 9999 FEW045 05/01 Q1017=
201902201530 METAR LRSV 201530Z 29004KT 9999 BKN030 05/01 Q1017=
201902201600 METAR LRSV 201600Z 32008KT 9999 SCT040 05/M01 Q1017=
201902201630 METAR LRSV 201630Z 32009KT CAVOK 05/M01 Q1018=
201902201700 METAR LRSV 201700Z 33008KT CAVOK 05/M01 Q1018=
201902201730 METAR LRSV 201730Z 29006KT CAVOK 04/M01 Q1018=
201902201800 METAR LRSV 201800Z 29005KT CAVOK 03/M01 Q1018=
201902201830 METAR LRSV 201830Z 28007KT CAVOK 03/M01 Q1018=
201902201900 METAR LRSV 201900Z 26007KT CAVOK 03/M00 Q1019=
201902201930 METAR LRSV 201930Z 27009KT CAVOK 03/M01 Q1019=
201902202000 METAR LRSV 202000Z 27008KT CAVOK 03/M01 Q1019=
201902202030 METAR LRSV 202030Z 29008KT CAVOK 03/M01 Q1019=
201902202100 METAR LRSV 202100Z 28009KT CAVOK 03/M01 Q1019=
201902202130 METAR LRSV 202130Z 29008KT CAVOK 02/M02 Q1019=
201902202200 METAR LRSV 202200Z 28008KT CAVOK 03/M01 Q1019=
201902202230 METAR LRSV 202230Z 28008KT CAVOK 03/M01 Q1019=
201902202300 METAR LRSV 202300Z 28010KT CAVOK 03/M01 Q1019=
201902202330 METAR LRSV 202330Z 26008KT CAVOK 03/M01 Q1019=
201902210000 METAR LRSV 210000Z 26008KT CAVOK 02/M02 Q1019=
201902210030 METAR LRSV 210030Z 27009KT CAVOK 03/M02 Q1019=
201902210100 METAR LRSV 210100Z 28008KT CAVOK 03/M02 Q1019=
201902210130 METAR LRSV 210130Z 30011KT CAVOK 04/M02 Q1019=
201902210200 METAR LRSV 210200Z 30011KT CAVOK 04/M02 Q1019=
201902210230 METAR LRSV 210230Z 30011KT CAVOK 04/M02 Q1020=
201902210300 METAR LRSV 210300Z 31013KT CAVOK 04/M02 Q1020=
201902210330 METAR LRSV 210330Z 30012KT CAVOK 04/M02 Q1020=
201902210400 METAR LRSV 210400Z 31012KT CAVOK 04/M01 Q1020=
201902210430 METAR LRSV 210430Z 31011KT CAVOK 04/M02 Q1020=
201902210500 METAR LRSV 210500Z 30011KT CAVOK 04/M01 Q1020=
201902210530 METAR LRSV 210530Z 29010KT CAVOK 04/M01 Q1020=
201902210600 METAR LRSV 210600Z 30010KT CAVOK 04/M01 Q1021=
201902210630 METAR LRSV 210630Z 28011KT CAVOK 04/M02 Q1021=
201902210700 METAR LRSV 210700Z AUTO /////KT //// R34////// ///// Q1021=
201902210730 METAR LRSV 210730Z /////KT CAVOK 04/M01 Q1021=
201902210800 METAR COR LRSV 210800Z /////KT CAVOK 05/M01 Q1021=
201902210830 METAR COR LRSV 210830Z /////KT 9999 ////// 05/M01 Q1021=
201902210900 METAR COR LRSV 210900Z 31014KT CAVOK 06/M03 Q1021=
201902210930 METAR LRSV 210930Z 30015KT 280V340 CAVOK 06/M03 Q1021=
201902211000 METAR COR LRSV 211000Z 30013KT 270V330 CAVOK 07/M03 Q1021=
201902211030 METAR LRSV 211030Z 29018KT CAVOK 07/M04 Q1021=
201902211100 METAR LRSV 211100Z 28017KT CAVOK 07/M03 Q1020=
201902211130 METAR COR LRSV 211130Z 28014KT CAVOK 07/M03 Q1020=
201902211200 METAR LRSV 211200Z 29014KT CAVOK 07/M03 Q1020=
201902211230 METAR LRSV 211230Z 28013KT CAVOK 08/M03 Q1020=
201902211300 METAR LRSV 211300Z 28012KT CAVOK 08/M03 Q1020=
201902211330 METAR LRSV 211330Z 29012KT CAVOK 08/M03 Q1020=
201902211400 METAR LRSV 211400Z 28010KT CAVOK 08/M03 Q1020=
201902211430 METAR LRSV 211430Z 27009KT CAVOK 07/M03 Q1019=
201902211500 METAR COR LRSV 211500Z 27007KT CAVOK 07/M02 Q1019=
201902211530 METAR LRSV 211530Z 26005KT CAVOK 06/M01 Q1019=
201902211600 METAR LRSV 211600Z 26006KT CAVOK 06/M01 Q1019=
201902211630 METAR LRSV 211630Z 30011KT CAVOK 07/M02 Q1019=
201902211700 METAR LRSV 211700Z 30009KT CAVOK 07/M02 Q1019=
201902211730 METAR COR LRSV 211730Z 30009KT 9999 SCT044 06/M02 Q1019=
201902211800 METAR LRSV 211800Z 28008KT 9999 SCT044 05/M01 Q1019=
201902211830 METAR LRSV 211830Z 27008KT 9999 SCT043 05/M01 Q1019=
201902211900 METAR LRSV 211900Z 27008KT 9999 SCT044 05/M02 Q1019=
201902211930 METAR LRSV 211930Z 27009KT 9999 FEW044 05/M02 Q1019=
201902212000 METAR LRSV 212000Z 26009KT 9999 FEW042 05/M02 Q1019=
201902212030 METAR LRSV 212030Z 25007KT 9999 BKN042 04/M01 Q1018=
201902212100 METAR LRSV 212100Z 26006KT 9999 BKN040 04/M01 Q1018=
201902212130 METAR LRSV 212130Z 26006KT 9999 SCT043 04/M01 Q1018=
201902212200 METAR LRSV 212200Z 25006KT 9999 SCT048 05/M01 Q1018=
201902212230 METAR LRSV 212230Z 26007KT CAVOK 04/M01 Q1017=
201902212300 METAR LRSV 212300Z 26007KT 9999 BKN030 04/M01 Q1017=
201902212330 METAR LRSV 212330Z 25010KT 9999 -RA SCT034 05/M01 Q1017=
201902220000 METAR LRSV 220000Z AUTO 25012KT 9999 -SHRA SCT038/// BKN045///
                        04/M00 Q1017=
201902220030 METAR LRSV 220030Z 25009KT 9999 -RA BKN044 04/M00 Q1016=
201902220100 METAR LRSV 220100Z 25009KT 9999 -RA BKN025 04/00 Q1016=
201902220130 METAR LRSV 220130Z 26011KT 9999 -RA FEW020 BKN032 04/M00
                        Q1016=
201902220200 METAR LRSV 220200Z 26008KT 9999 -RA FEW020 BKN030 04/00 Q1015=
201902220230 METAR LRSV 220230Z 26006KT 9999 -RA FEW020 BKN030 04/00 Q1015=
201902220300 METAR LRSV 220300Z 27009KT 9999 -RA FEW021 BKN032 04/00 Q1015=
201902220330 METAR LRSV 220330Z 28011KT 9999 -RA SCT020 BKN030 03/00 Q1014
                        R16/29//95=
201902220400 METAR LRSV 220400Z 28009KT 9999 -RA SCT020 BKN030 03/01 Q1014
                        R16/29//95=
201902220430 METAR LRSV 220430Z 28011KT 9999 -RA SCT020 BKN035 03/01 Q1014
                        R16/29//95=
201902220500 METAR LRSV 220500Z 27009KT 9999 -RA SCT018 BKN030 03/01 Q1014
                        R16/29//95=
201902220530 METAR LRSV 220530Z 28009KT 8000 -RA SCT019 BKN028 02/01 Q1014
                        R16/29//95=
201902220600 METAR LRSV 220600Z 29008KT 8000 -RA SCT021 BKN025 02/01 Q1014
                        R16/29//95=
201902220630 METAR LRSV 220630Z 31007KT 7000 -RASN FEW013 BKN021 02/01
                        Q1014 R16/29//95=
201902220700 METAR LRSV 220700Z 32008KT 9999 -RASN FEW010 BKN017 02/01
                        Q1014 R16/29//95=
201902220730 METAR LRSV 220730Z 03017KT 0600 R34/0800 -RASN FG BKN001
                        M01/M02 Q1015 R16/29//95=
201902220800 METAR LRSV 220800Z 02018KT 0800 R34/0800D -SN FZFG SCT002
                        BKN005 M02/M03 Q1016 R16/29//95=
201902220830 METAR LRSV 220830Z 03023KT 1500 -SN BR SCT003 BKN006 M03/M03
                        Q1016 R16/650294=
201902220900 METAR LRSV 220900Z 02020KT 0800 R34/0900V1100N SN BR BKN003
                        M03/M04 Q1017 R16/650294=
201902220930 METAR LRSV 220930Z 36016KT 1000 R34/1200 SN BR SCT003 BKN007
                        M04/M04 Q1019 R16/590493=
201902221000 METAR LRSV 221000Z 01016KT 1500 -SN BR SCT004 BKN007 M04/M04
                        Q1019 R16/590493=
201902221030 METAR LRSV 221030Z 36017KT 1500 -SN BR FEW006 SCT009 M04/M05
                        Q1020 R16/590493=
201902221100 METAR LRSV 221100Z 36014KT 5000 -SN BR FEW008 SCT038 M04/M06
                        Q1020 R16/590493=
201902221130 METAR LRSV 221130Z 35012KT 3000 SN BR FEW012 SCT015 BKN036
                        M04/M05 Q1020 R16/590493=
201902221200 METAR LRSV 221200Z 34021KT 5000 -SN DRSN BR SCT013 BKN018
                        M04/M06 Q1020 R16/920294=
201902221230 METAR LRSV 221230Z 35019KT 9999 -SN DRSN FEW011 SCT014 M05/M07
                        Q1021 R16/920294=
201902221300 METAR LRSV 221300Z 35016KT 9999 DRSN FEW019 BKN024 M04/M07
                        Q1021 R16/920294=
201902221330 METAR LRSV 221330Z 34021KT 9999 -SN DRSN FEW025 BKN031 M04/M08
                        Q1021 R16/920294=
201902221400 METAR LRSV 221400Z 34021KT 9999 -SN DRSN BKN030 M04/M10 Q1022
                        R16/920294=
201902221430 METAR LRSV 221430Z 33021KT 9999 DRSN BKN032 M05/M10 Q1022
                        R16/920294=
201902221500 METAR LRSV 221500Z 34020KT 9999 DRSN BKN034 M05/M11 Q1023
                        R16/920294=
201902221530 METAR LRSV 221530Z 36019KT 9999 DRSN BKN038 M06/M12 Q1023
                        R16/910295=
201902221600 METAR LRSV 221600Z 36017KT 9999 SCT039 BKN044 M06/M11 Q1024
                        R16/910295=
201902221630 METAR LRSV 221630Z 35020KT 9999 DRSN FEW038 BKN046 M06/M12
                        Q1025 R16/910295=
201902221700 METAR LRSV 221700Z 35018KT 9999 -SN DRSN FEW032 SCT044 M06/M11
                        Q1026 R16/910295=
201902221730 METAR LRSV 221730Z 35018KT 9999 DRSN FEW040 M06/M13 Q1026
                        R16/910295=
201902221800 METAR LRSV 221800Z 34015KT 9999 FEW040 M07/M13 Q1026 R16/910295=
201902221830 METAR LRSV 221830Z 34015KT CAVOK M07/M13 Q1027 R16/910295=
201902221900 METAR LRSV 221900Z 34015KT CAVOK M07/M13 Q1027 R16/910295=
201902221930 METAR LRSV 221930Z 34014KT CAVOK M06/M13 Q1028 R16/910295=
201902222000 METAR LRSV 222000Z 34014KT CAVOK M07/M13 Q1028 R16/910295=
201902222030 METAR LRSV 222030Z 35013KT CAVOK M07/M13 Q1028 R16/910295=
201902222100 METAR LRSV 222100Z 35015KT CAVOK M06/M13 Q1029 R16/910295=
201902222130 METAR LRSV 222130Z 35015KT 9999 BKN043 M07/M13 Q1029 R16/910295=
201902222200 METAR LRSV 222200Z 34012KT 9999 FEW047 M07/M13 Q1029 R16/910295=
201902222230 METAR LRSV 222230Z 33009KT CAVOK M08/M13 Q1030 R16/910295=
201902222300 METAR LRSV 222300Z 34011KT CAVOK M08/M13 Q1030 R16/910295=
201902222330 METAR LRSV 222330Z 34012KT CAVOK M08/M13 Q1030 R16/910295=
201902230000 METAR LRSV 230000Z 35014KT 9999 FEW040 M07/M12 Q1030 R16/910295=
201902230030 METAR LRSV 230030Z 35015KT 9999 BKN030 M07/M12 Q1031 R16/910295=
201902230100 METAR COR LRSV 230100Z 36013KT 9999 BKN036 M08/M12 Q1031
                        R16/910295=
201902230130 METAR LRSV 230130Z 35015KT 9999 BKN040 M08/M12 Q1031 R16/910295=
201902230200 METAR LRSV 230200Z 35015KT 9999 SCT040 M08/M12 Q1032 R16/910295=
201902230230 METAR LRSV 230230Z 36013KT 9999 SCT035 M07/M12 Q1032 R16/910295=
201902230300 METAR LRSV 230300Z 35011KT 9999 -SN BKN035 M07/M11 Q1032
                        R16/910295=
201902230330 METAR LRSV 230330Z 34013KT 3000 SN DRSN SCT012 BKN035 M07/M09
                        Q1033 R16/910295=
201902230400 METAR LRSV 230400Z 34014KT 9999 -SN DRSN SCT015 BKN035 M07/M09
                        Q1033 R16/910295=
201902230430 METAR LRSV 230430Z 33014KT 9999 -SN DRSN FEW020 BKN045 M07/M10
                        Q1033 R16/910295=
201902230500 METAR LRSV 230500Z 34015KT 8000 -SN DRSN FEW020 BKN045 M07/M11
                        Q1033 R16/910295=
201902230530 METAR LRSV 230530Z 34016KT 8000 -SN SCT020 OVC045 M07/M11
                        Q1034 R16/910295=
201902230600 METAR LRSV 230600Z 34016KT 9999 -SN DRSN FEW020 BKN047 M07/M11
                        Q1034 R16/910295=
201902230630 METAR LRSV 230630Z 35016KT 9999 -SN DRSN BKN040 M07/M11 Q1035
                        R16/910295=
201902230700 METAR LRSV 230700Z 34018KT 9999 -SN DRSN SCT035 M07/M11 Q1035
                        R16/910295=
201902230730 METAR LRSV 230730Z 34018KT 9999 -SN DRSN FEW020 BKN030 M07/M11
                        Q1035 R16/910295=
201902230800 METAR LRSV 230800Z 34019KT 8000 -SN DRSN FEW020 BKN030 M07/M11
                        Q1035 R16/910295=
201902230830 METAR LRSV 230830Z 35017KT 5000 -SN DRSN BKN015 BKN030 M07/M10
                        Q1036 R16/910295=
201902230900 METAR LRSV 230900Z 33018KT 6000 -SN DRSN SCT015 BKN025 M07/M10
                        Q1036 R16/910295=
201902230930 METAR LRSV 230930Z 33020KT 9999 -SN DRSN SCT018 BKN030 M07/M11
                        Q1036 R16/910295=
201902231000 METAR LRSV 231000Z 33019KT 9999 -SN DRSN SCT020 BKN030 M07/M11
                        Q1036 R16/910295=
201902231030 METAR LRSV 231030Z 33019KT 9999 DRSN FEW020 BKN030 M06/M11
                        Q1036 R16/910295=
201902231100 METAR LRSV 231100Z 33018KT 9999 DRSN FEW020 BKN030 M06/M11
                        Q1036 R16/910295=
201902231130 METAR LRSV 231130Z 34017KT 9999 -SN DRSN BKN034 M06/M11 Q1036
                        R16/910295=
201902231200 METAR LRSV 231200Z 33017KT 9999 -SN FEW020 BKN035 M06/M11
                        Q1037 R16/910295=
201902231230 METAR LRSV 231230Z 33018KT 9999 -SN FEW020 BKN030 M06/M11
                        Q1036 R16/910295=
201902231300 METAR LRSV 231300Z 33016KT 8000 -SN FEW020 BKN031 M06/M10
                        Q1037 R16/910295=
201902231330 METAR LRSV 231330Z 34016KT 9999 -SN FEW022 BKN031 M06/M10
                        Q1037 R16/910295=
201902231400 METAR LRSV 231400Z 33014KT 8000 -SN FEW020 BKN031 M06/M10
                        Q1037 R16/910295=
201902231430 METAR LRSV 231430Z 32013KT 8000 -SN FEW020 BKN032 M06/M08
                        Q1037 R16/910295=
201902231500 METAR LRSV 231500Z 34015KT 9999 -SN SCT020 BKN030 M06/M09
                        Q1037 R16/910295=
201902231530 METAR LRSV 231530Z 34013KT 9999 -SN FEW020 BKN035 M06/M09
                        Q1037 R16/910295=
201902231600 METAR LRSV 231600Z 34013KT 9999 -SN SCT020 BKN035 M06/M09
                        Q1037 R16/910295=
201902231630 METAR LRSV 231630Z 33012KT 9999 -SN FEW020 BKN038 M06/M09
                        Q1037 R16/910295=
201902231700 METAR LRSV 231700Z 33012KT 9999 -SN FEW020 BKN038 M06/M10
                        Q1037 R16/910295=
201902231730 METAR LRSV 231730Z 33012KT 9999 SCT036 M06/M10 Q1038 R16/910295=
201902231800 METAR LRSV 231800Z 32011KT CAVOK M06/M10 Q1037 R16/910295=
201902231830 METAR LRSV 231830Z 31009KT CAVOK M07/M11 Q1037 R16/910295=
201902231900 METAR LRSV 231900Z 30010KT CAVOK M07/M10 Q1037 R16/910295=
201902231930 METAR LRSV 231930Z 31011KT CAVOK M07/M10 Q1037 R16/910295=
201902232000 METAR LRSV 232000Z 31012KT CAVOK M07/M10 Q1038 R16/910295=
201902232030 METAR LRSV 232030Z 31012KT CAVOK M07/M11 Q1038 R16/910295=
201902232100 METAR LRSV 232100Z 31012KT CAVOK M07/M11 Q1038 R16/910295=
201902232130 METAR LRSV 232130Z 31011KT CAVOK M07/M11 Q1038 R16/910295=
201902232200 METAR LRSV 232200Z 31010KT CAVOK M07/M11 Q1038 R16/910295=
201902232230 METAR LRSV 232230Z 31010KT CAVOK M07/M12 Q1038 R16/910295=
201902232300 METAR LRSV 232300Z 31011KT CAVOK M07/M12 Q1038 R16/910295=
201902232330 METAR LRSV 232330Z 31010KT CAVOK M07/M12 Q1037 R16/910295=
201902240000 METAR LRSV 240000Z 31011KT CAVOK M07/M12 Q1037 R16/910295=
201902240030 METAR LRSV 240030Z 31011KT CAVOK M07/M12 Q1036 R16/910295=
201902240100 METAR LRSV 240100Z 31010KT CAVOK M06/M12 Q1036 R16/910295=
201902240130 METAR LRSV 240130Z 31011KT CAVOK M06/M12 Q1036 R16/910295=
201902240200 METAR LRSV 240200Z 31009KT CAVOK M06/M12 Q1036 R16/910295=
201902240230 METAR LRSV 240230Z 32010KT CAVOK M06/M11 Q1036 R16/910295=
201902240300 METAR LRSV 240300Z 31009KT CAVOK M06/M11 Q1035 R16/910295=
201902240330 METAR LRSV 240330Z 31009KT CAVOK M06/M11 Q1035 R16/910295=
201902240400 METAR LRSV 240400Z 31009KT CAVOK M06/M11 Q1035 R16/910295=
201902240430 METAR LRSV 240430Z 31008KT CAVOK M06/M11 Q1035 R16/910295=
201902240500 METAR LRSV 240500Z 31008KT CAVOK M06/M11 Q1035 R16/910295=
201902240530 METAR LRSV 240530Z 31007KT CAVOK M06/M11 Q1035 R16/910295=
201902240600 METAR LRSV 240600Z 31008KT CAVOK M05/M11 Q1035 R16/910295=
201902240630 METAR LRSV 240630Z 31008KT CAVOK M05/M11 Q1035 R16/910295=
201902240700 METAR LRSV 240700Z 31006KT CAVOK M05/M11 Q1035 R16/910295=
201902240730 METAR LRSV 240730Z 32008KT 9999 SCT040 M04/M11 Q1035 R16/910295=
201902240800 METAR LRSV 240800Z 31007KT 9999 BKN040 M04/M12 Q1035 R16/910295=
201902240830 METAR LRSV 240830Z 33006KT CAVOK M03/M11 Q1035 R16/910295=
201902240900 METAR LRSV 240900Z 31006KT 280V360 9999 OVC048 M03/M11 Q1035
                        R16/910295=
201902240930 METAR LRSV 240930Z 31005KT 9999 SCT036 M03/M11 Q1035 R16/910295=
201902241000 METAR LRSV 241000Z AUTO 31005KT 280V340 9999 FEW040/// OVC046///
                        M03/M10 Q1035=
201902241030 METAR LRSV 241030Z 27006KT 8000 -SHSN FEW031CB BKN037 M03/M08
                        Q1035 R16/910295=
201902241100 METAR LRSV 241100Z 27005KT 3000 SHSN SCT031CB BKN037 M04/M07
                        Q1035 R16/29//95=
201902241130 METAR LRSV 241130Z 28006KT 9999 -SN OVC045 M04/M08 Q1034
                        R16/29//95=
201902241200 METAR LRSV 241200Z 27006KT 240V300 9999 -SN BKN045 M03/M08
                        Q1034 R16/29//95=
201902241230 METAR LRSV 241230Z 26005KT 230V310 9999 BKN045 M03/M08 Q1034
                        R16/29//95=
201902241300 METAR LRSV 241300Z 27007KT 9999 BKN047 M02/M07 Q1033 R16/29//95=
201902241330 METAR LRSV 241330Z 26006KT 9999 BKN047 M02/M07 Q1033 R16/29//95=
201902241400 METAR LRSV 241400Z 25005KT 9999 SCT047 M02/M06 Q1033 R16/29//95=
201902241430 METAR LRSV 241430Z 24006KT 9999 SCT047 M02/M06 Q1033 R16/29//95=
201902241500 METAR COR LRSV 241500Z 23006KT 9999 SCT047 M02/M06 Q1033
                        R16/CLRD//=
201902241530 METAR LRSV 241530Z 23004KT 9999 SCT047 M02/M06 Q1033=
201902241600 METAR LRSV 241600Z 24004KT 9999 BKN041 M02/M05 Q1033=
201902241630 METAR LRSV 241630Z 24004KT 9999 OVC040 M02/M06 Q1033=
201902241700 METAR COR LRSV 241700Z 25004KT 9999 BKN039 M02/M06 Q1033=
201902241730 METAR COR LRSV 241730Z 26005KT 9999 OVC040 M02/M06 Q1032=
201902241800 METAR LRSV 241800Z 25006KT 9999 BKN040 M02/M06 Q1032=
201902241830 METAR LRSV 241830Z 26005KT 9999 BKN040 M02/M05 Q1033=
201902241900 METAR LRSV 241900Z 26005KT 9999 BKN044 M02/M05 Q1033=
201902241930 METAR LRSV 241930Z 25005KT 9999 BKN044 M02/M06 Q1033=
201902242000 METAR LRSV 242000Z 26005KT 9999 BKN040 M02/M06 Q1033=
201902242030 METAR LRSV 242030Z 28005KT 9999 BKN040 M02/M06 Q1033=
201902242100 METAR LRSV 242100Z 29005KT 9999 BKN040 M01/M07 Q1033=
201902242130 METAR LRSV 242130Z 32006KT 9999 OVC036 M01/M10 Q1033=
201902242200 METAR LRSV 242200Z 31005KT 9999 BKN036 M01/M11 Q1033=
201902242230 METAR LRSV 242230Z 30005KT 9999 BKN035 M01/M11 Q1032=
201902242300 METAR LRSV 242300Z 31005KT 9999 OVC035 M01/M10 Q1032=
201902242330 METAR LRSV 242330Z 30005KT 9999 OVC036 M01/M09 Q1032=
201902250000 METAR LRSV 250000Z 29005KT 9999 OVC034 M01/M09 Q1032=
201902250030 METAR LRSV 250030Z 29005KT 9999 OVC033 M01/M09 Q1032=
201902250100 METAR LRSV 250100Z 31006KT 9999 OVC031 M01/M10 Q1032=
201902250130 METAR LRSV 250130Z 28005KT 9999 OVC028 M01/M09 Q1032=
201902250200 METAR LRSV 250200Z 29005KT 9999 OVC028 M01/M09 Q1031=
201902250230 METAR LRSV 250230Z 26004KT 9999 BKN029 M01/M07 Q1031=
201902250300 METAR LRSV 250300Z 24005KT 9999 OVC029 M02/M06 Q1031=
201902250330 METAR LRSV 250330Z 26004KT 9999 BKN029 M02/M07 Q1031=
201902250400 METAR LRSV 250400Z 27008KT 9999 SCT030 M02/M09 Q1030=
201902250430 METAR LRSV 250430Z 27009KT 9999 SCT023 M01/M09 Q1030=
201902250500 METAR LRSV 250500Z 25008KT 9999 SCT021 M02/M08 Q1030=
201902250530 METAR LRSV 250530Z 25007KT CAVOK M02/M09 Q1030=
201902250600 METAR LRSV 250600Z 25008KT CAVOK M02/M07 Q1029=
201902250630 METAR LRSV 250630Z 25009KT CAVOK M01/M05 Q1029=
201902250700 METAR LRSV 250700Z 24006KT CAVOK M01/M05 Q1029=
201902250730 METAR LRSV 250730Z 22009KT CAVOK M00/M04 Q1028=
201902250800 METAR LRSV 250800Z 22009KT CAVOK 01/M03 Q1028=
201902250830 METAR LRSV 250830Z 23008KT CAVOK 02/M03 Q1028=
201902250900 METAR LRSV 250900Z 25006KT 230V290 CAVOK 03/M02 Q1028=
201902250930 METAR LRSV 250930Z 31010KT CAVOK 05/M02 Q1028=
201902251000 METAR LRSV 251000Z 30009KT CAVOK 06/M01 Q1028=
201902251030 METAR LRSV 251030Z 31012KT CAVOK 06/M02 Q1027=
201902251100 METAR LRSV 251100Z 28009KT 260V320 CAVOK 06/M01 Q1027=
201902251130 METAR LRSV 251130Z 31008KT CAVOK 08/M02 Q1027=
201902251200 METAR LRSV 251200Z 31011KT CAVOK 09/M03 Q1026=
201902251230 METAR LRSV 251230Z 32016G27KT CAVOK 09/M06 Q1025=
201902251300 METAR LRSV 251300Z 32018KT CAVOK 08/M05 Q1025=
201902251330 METAR LRSV 251330Z 32012KT 290V350 CAVOK 09/M06 Q1025=
201902251400 METAR LRSV 251400Z 33015KT CAVOK 09/M03 Q1024=
201902251430 METAR LRSV 251430Z 34016KT CAVOK 08/M02 Q1024=
201902251500 METAR LRSV 251500Z 33014KT CAVOK 07/M02 Q1024=
201902251530 METAR LRSV 251530Z 33017KT CAVOK 07/M02 Q1024=
201902251600 METAR LRSV 251600Z 32018KT CAVOK 07/M01 Q1024=
201902251630 METAR LRSV 251630Z 32020KT CAVOK 06/M01 Q1024=
201902251700 METAR LRSV 251700Z 31016KT CAVOK 06/M01 Q1024=
201902251730 METAR LRSV 251730Z 30013KT CAVOK 05/M01 Q1024=
201902251800 METAR LRSV 251800Z 31014KT CAVOK 05/M01 Q1024=
201902251830 METAR LRSV 251830Z 30012KT CAVOK 04/M02 Q1024=
201902251900 METAR LRSV 251900Z 29015KT CAVOK 04/M02 Q1024=
201902251930 METAR LRSV 251930Z 30013KT CAVOK 04/M02 Q1024=
201902252000 METAR LRSV 252000Z 29009KT CAVOK 03/M03 Q1024=
201902252030 METAR LRSV 252030Z 28008KT CAVOK 03/M03 Q1024=
201902252100 METAR LRSV 252100Z 30013KT CAVOK 04/M03 Q1023=
201902252130 METAR LRSV 252130Z 30012KT CAVOK 04/M03 Q1023=
201902252200 METAR LRSV 252200Z 31013KT CAVOK 04/M03 Q1023=
201902252230 METAR LRSV 252230Z 30013KT CAVOK 04/M03 Q1023=
201902252300 METAR LRSV 252300Z 30012KT CAVOK 04/M02 Q1022=
201902252330 METAR LRSV 252330Z 30015KT CAVOK 04/M02 Q1022=
201902260000 METAR LRSV 260000Z 29013KT CAVOK 03/M03 Q1022=
201902260030 METAR LRSV 260030Z 30013KT CAVOK 03/M03 Q1021=
201902260100 METAR LRSV 260100Z 28010KT CAVOK 02/M03 Q1020=
201902260130 METAR LRSV 260130Z 30013KT CAVOK 04/M03 Q1020=
201902260200 METAR LRSV 260200Z 30011KT CAVOK 03/M03 Q1020=
201902260230 METAR LRSV 260230Z 30011KT CAVOK 03/M03 Q1020=
201902260300 METAR LRSV 260300Z 30011KT CAVOK 03/M03 Q1019=
201902260330 METAR LRSV 260330Z 25008KT CAVOK 01/M04 Q1018=
201902260400 METAR LRSV 260400Z 28009KT CAVOK 01/M04 Q1018=
201902260430 METAR LRSV 260430Z 25007KT CAVOK 00/M04 Q1017=
201902260500 METAR LRSV 260500Z 26009KT CAVOK 01/M04 Q1017=
201902260530 METAR COR LRSV 260530Z 28009KT CAVOK 02/M05 Q1017=
201902260600 METAR LRSV 260600Z 31011KT CAVOK 04/M07 Q1017=
201902260630 METAR LRSV 260630Z 32012KT CAVOK 04/M06 Q1017=
201902260700 METAR LRSV 260700Z 31012KT CAVOK 04/M06 Q1016=
201902260730 METAR LRSV 260730Z 31017KT 9999 FEW035 04/M05 Q1016=
201902260800 METAR COR LRSV 260800Z 31018KT 9999 FEW035 04/M05 Q1016=
201902260830 METAR LRSV 260830Z 31015G25KT 9999 FEW035 04/M05 Q1015=
201902260900 METAR LRSV 260900Z 31015KT 9999 FEW035 05/M04 Q1015=
201902260930 METAR LRSV 260930Z 30013KT CAVOK 05/M05 Q1015=
201902261000 METAR LRSV 261000Z 32015KT CAVOK 06/M04 Q1014=
201902261030 METAR LRSV 261030Z 31020KT 290V350 CAVOK 06/M04 Q1014=
201902261100 METAR LRSV 261100Z 32019KT CAVOK 06/M03 Q1014=
201902261130 METAR LRSV 261130Z 32022G32KT CAVOK 06/M03 Q1013=
201902261200 METAR LRSV 261200Z 31021KT CAVOK 06/M03 Q1013=
201902261230 METAR LRSV 261230Z 32022G34KT CAVOK 07/M02 Q1013=
201902261300 METAR LRSV 261300Z 32019G29KT CAVOK 06/M02 Q1013=
201902261330 METAR COR LRSV 261330Z 32015KT CAVOK 06/M02 Q1012=
201902261400 METAR LRSV 261400Z 32017KT 9999 FEW042 07/M02 Q1012=
201902261430 METAR LRSV 261430Z 33020KT 9999 FEW043 06/M02 Q1012=
201902261500 METAR LRSV 261500Z 34018G28KT 9999 FEW040 06/M01 Q1012=
201902261530 METAR LRSV 261530Z 33021G31KT 9999 FEW040CB SCT045 05/M02
                        Q1013=
201902261600 METAR LRSV 261600Z 33020G30KT 9999 -SHRA FEW018 SCT030CB
                        BKN042 04/M00 Q1013 R16/29//95=
201902261630 METAR LRSV 261630Z 34020KT 9999 -SHRA FEW019 SCT030CB BKN043
                        04/M01 Q1014 R16/29//95=
201902261700 METAR LRSV 261700Z 35023G33KT 9999 -RA FEW012 BKN035 03/M01
                        Q1014 R16/29//95=
201902261730 METAR LRSV 261730Z 34019G29KT 5000 -RASN SCT017 BKN035 01/00
                        Q1014 R16/29//95=
201902261800 METAR LRSV 261800Z 34016KT 9999 -RA SCT013 BKN020 02/01 Q1015
                        R16/29//95=
201902261830 METAR LRSV 261830Z 34015KT 9999 -RA FEW008 BKN013 02/01 Q1015
                        R16/29//95=
201902261900 METAR LRSV 261900Z 34018KT 9999 -RA FEW009 BKN013 02/01 Q1015
                        R16/29//95=
201902261930 METAR LRSV 261930Z 34017KT 9999 -RA FEW010 BKN021 02/01 Q1015
                        R16/29//95=
201902262000 METAR COR LRSV 262000Z 35016KT 9999 -RA SCT013 BKN019 02/01
                        Q1016 R16/29//95=
201902262030 METAR LRSV 262030Z 36016KT 9999 FEW009 SCT017 02/00 Q1016
                        R16/29//95=
201902262100 METAR LRSV 262100Z 36017KT 9999 FEW017 SCT027 02/00 Q1016
                        R16/29//95=
201902262130 METAR LRSV 262130Z 35012KT 9999 FEW017 BKN029 02/00 Q1016
                        R16/29//95=
201902262200 METAR LRSV 262200Z 35014KT 9999 FEW012 BKN027 02/00 Q1016
                        R16/29//95=
201902262230 METAR LRSV 262230Z 34015KT 9999 BKN025 01/M00 Q1017 R16/29//95=
201902262300 METAR LRSV 262300Z 35014KT 9999 SCT016 BKN019 01/M01 Q1017
                        R16/29//95=
201902262330 METAR LRSV 262330Z 34013KT 9999 FEW015 SCT021 01/M00 Q1017
                        R16/29//95=
201902270000 METAR LRSV 270000Z 34012KT 9999 FEW019 01/M01 Q1017 R16/29//95=
201902270030 METAR LRSV 270030Z 34013KT 9999 FEW018 OVC048 01/M01 Q1018
                        R16/29//95=
201902270100 METAR LRSV 270100Z 34015KT 9999 BKN022 OVC049 01/M01 Q1018
                        R16/29//95=
201902270130 METAR LRSV 270130Z 33012KT 9999 SCT017 OVC048 01/M01 Q1018
                        R16/29//95=
201902270200 METAR LRSV 270200Z 33012KT 9999 FEW019 BKN042 01/M01 Q1018
                        R16/29//95=
201902270230 METAR LRSV 270230Z 33011KT 9999 BKN041 01/M01 Q1018 R16/29//95=
201902270300 METAR LRSV 270300Z 33012KT 9999 SCT034 OVC041 01/M02 Q1018
                        R16/29//95=
201902270330 METAR LRSV 270330Z 33012KT 9999 BKN029 01/M02 Q1018 R16/29//95=
201902270400 METAR LRSV 270400Z 33014KT 9999 OVC028 01/M02 Q1018 R16/29//95=
201902270430 METAR LRSV 270430Z 33015KT 9999 BKN026 01/M02 Q1018 R16/29//95=
201902270500 METAR LRSV 270500Z 34015KT 9999 BKN024 OVC030 01/M02 Q1019
                        R16/29//95=
201902270530 METAR LRSV 270530Z 33015KT 9999 BKN023 01/M02 Q1019 R16/29//95=
201902270600 METAR LRSV 270600Z 33014KT 9999 OVC026 01/M02 Q1019 R16/29//95=
201902270630 METAR LRSV 270630Z 34015KT 9999 OVC022 01/M02 Q1019 R16/29//95=
201902270700 METAR LRSV 270700Z 34015KT 9999 OVC022 01/M02 Q1019 R16/29//95=
201902270730 METAR LRSV 270730Z 34013KT 9999 BKN017 OVC028 01/M02 Q1020
                        R16/29//95=
201902270800 METAR LRSV 270800Z 34014KT 9999 BKN015 OVC028 01/M01 Q1019
                        R16/29//95=
201902270830 METAR COR LRSV 270830Z 34014KT 9999 BKN015 OVC028 01/M01
                        Q1019 R16/29//95=
201902270900 METAR LRSV 270900Z 34017KT 9999 BKN017 OVC028 01/M02 Q1020
                        R16/29//95=
201902270930 METAR LRSV 270930Z 34014KT 9999 BKN015 BKN028 01/M02 Q1020
                        R16/29//95=
201902271000 METAR LRSV 271000Z 33017KT 9999 BKN015 OVC028 01/M02 Q1020
                        R16/29//95=
201902271030 METAR LRSV 271030Z 34014KT 9999 BKN015 OVC021 01/M02 Q1020
                        R16/29//95=
201902271100 METAR LRSV 271100Z 33012KT 9999 BKN016 OVC028 01/M02 Q1020
                        R16/29//95=
201902271130 METAR COR LRSV 271130Z 34013KT 9999 BKN017 OVC026 01/M02
                        Q1019 R16/29//95=
201902271200 METAR LRSV 271200Z 34009KT 9999 BKN016 OVC026 01/M01 Q1019
                        R16/29//95=
201902271230 METAR LRSV 271230Z 34012KT 9999 BKN016 OVC026 02/M02 Q1019
                        R16/29//95=
201902271300 METAR LRSV 271300Z 34014KT 9999 BKN018 OVC027 02/M02 Q1019
                        R16/29//95=
201902271330 METAR LRSV 271330Z 33014KT 9999 BKN022 OVC027 02/M02 Q1019
                        R16/29//95=
201902271400 METAR LRSV 271400Z 34012KT 9999 SCT022 OVC027 02/M02 Q1019
                        R16/29//95=
201902271430 METAR LRSV 271430Z 34011KT 9999 BKN018 OVC030 02/M02 Q1018
                        R16/29//95=
201902271500 METAR LRSV 271500Z 33008KT 9999 SCT019 OVC030 02/M02 Q1018
                        R16/19//95=
201902271530 METAR LRSV 271530Z 33009KT 9999 BKN019 OVC040 01/M01 Q1018
                        R16/19//95=
201902271600 METAR LRSV 271600Z 32008KT 9999 BKN019 OVC038 01/M01 Q1018
                        R16/19//95=
201902271630 METAR LRSV 271630Z 32006KT 9999 BKN017 OVC038 02/M01 Q1018
                        R16/19//95=
201902271700 METAR LRSV 271700Z 32006KT 9999 BKN017 OVC038 02/M01 Q1018
                        R16/19//95=
201902271730 METAR LRSV 271730Z 31008KT 9999 BKN016 OVC040 02/M00 Q1018
                        R16/19//95=
201902271800 METAR LRSV 271800Z 31008KT 9999 SCT014 OVC045 02/M00 Q1017
                        R16/19//95=
201902271830 METAR LRSV 271830Z 31008KT 9999 FEW016 OVC040 02/M01 Q1017
                        R16/19//95=
201902271900 METAR LRSV 271900Z 30007KT 9999 BKN037 02/M01 Q1017 R16/19//95=
201902271930 METAR LRSV 271930Z 30005KT 9999 BKN036 02/M01 Q1016 R16/19//95=
201902272000 METAR LRSV 272000Z 25007KT 9999 BKN034 01/M01 Q1016 R16/19//95=
201902272030 METAR LRSV 272030Z 25008KT 9999 BKN030 02/M01 Q1016 R16/19//95=
201902272100 METAR LRSV 272100Z 25009KT 9999 BKN030 02/M01 Q1015 R16/19//95=
201902272130 METAR LRSV 272130Z 26007KT 9999 SCT030 02/M02 Q1015 R16/19//95=
201902272200 METAR LRSV 272200Z 26007KT CAVOK 02/M02 Q1014 R16/19//95=
201902272230 METAR LRSV 272230Z 25006KT CAVOK 02/M02 Q1014 R16/19//95=
201902272300 METAR LRSV 272300Z 26008KT CAVOK 02/M02 Q1013 R16/19//95=
201902272330 METAR LRSV 272330Z 26009KT CAVOK 02/M02 Q1013 R16/19//95=
201902280000 METAR LRSV 280000Z 26007KT CAVOK 02/M03 Q1012 R16/19//95=
201902280030 METAR LRSV 280030Z 26008KT CAVOK 02/M03 Q1012 R16/19//95=
201902280100 METAR LRSV 280100Z 26008KT CAVOK 02/M03 Q1011 R16/19//95=
201902280130 METAR LRSV 280130Z 27011KT CAVOK 03/M04 Q1010 R16/19//95=
201902280200 METAR LRSV 280200Z 25009KT CAVOK 02/M04 Q1010 R16/19//95=
201902280230 METAR LRSV 280230Z 25012KT CAVOK 02/M04 Q1010 R16/19//95=
201902280300 METAR LRSV 280300Z 25011KT CAVOK 02/M04 Q1009 R16/12//95=
201902280330 METAR LRSV 280330Z 24011KT CAVOK 01/M04 Q1009 R16/12//95=
201902280400 METAR LRSV 280400Z 25011KT CAVOK 01/M05 Q1009 R16/12//95=
201902280430 METAR LRSV 280430Z 24011KT CAVOK 01/M04 Q1008 R16/12//95=
201902280500 METAR LRSV 280500Z 25011KT CAVOK 02/M05 Q1008 R16/12//95=
201902280530 METAR LRSV 280530Z 25010KT CAVOK 02/M05 Q1007 R16/12//95=
201902280600 METAR LRSV 280600Z 26014KT CAVOK 04/M04 Q1007 R16/12//95=
201902280630 METAR LRSV 280630Z 26014KT CAVOK 05/M03 Q1007 R16/12//95=
201902280700 METAR LRSV 280700Z 26011KT CAVOK 05/M02 Q1006 R16/12//95=
201902280730 METAR LRSV 280730Z 26012KT CAVOK 06/M02 Q1006 R16/12//95=
201902280800 METAR LRSV 280800Z 25011KT CAVOK 07/M01 Q1006 R16/12//95=
201902280830 METAR LRSV 280830Z 26012KT CAVOK 09/M00 Q1005 R16/12//95=
201902280900 METAR LRSV 280900Z 26012KT CAVOK 11/M01 Q1005 R16/12//95=
201902280930 METAR LRSV 280930Z 25014KT CAVOK 11/M00 Q1004 R16/09//95=
201902281000 METAR LRSV 281000Z 25014KT CAVOK 11/M00 Q1003 R16/09//95=
201902281030 METAR LRSV 281030Z 25013KT CAVOK 12/M00 Q1002 R16/09//95=
201902281100 METAR LRSV 281100Z 25016KT CAVOK 11/M01 Q1002 R16/09//95=
201902281130 METAR LRSV 281130Z 25018KT CAVOK 11/M02 Q1001 R16/09//95=
201902281200 METAR LRSV 281200Z 25016KT CAVOK 12/M02 Q1001 R16/09//95=
201902281230 METAR LRSV 281230Z 25017KT CAVOK 13/M02 Q1000 R16/09//95=
201902281300 METAR LRSV 281300Z 24018KT CAVOK 12/M03 Q0999 R16/09//95=
201902281330 METAR LRSV 281330Z 25016KT CAVOK 13/M02 Q0999 R16/09//95=
201902281400 METAR LRSV 281400Z 25017KT CAVOK 12/M02 Q0999 R16/09//95=
201902281430 METAR LRSV 281430Z 25020KT CAVOK 11/M02 Q0998 R16/09//95=
201902281500 METAR LRSV 281500Z 26015KT CAVOK 10/M01 Q0999 R16/09//95=
201902281530 METAR LRSV 281530Z 26012KT CAVOK 10/M01 Q0999 R16/09//95=
201902281600 METAR COR LRSV 281600Z 27014KT CAVOK 09/M02 Q0999 R16/09//95=
201902281630 METAR LRSV 281630Z 27015KT CAVOK 09/M02 Q1000 R16/09//95=
201902281700 METAR LRSV 281700Z 27015KT CAVOK 08/M02 Q1000 R16/09//95=
201902281730 METAR LRSV 281730Z 28016KT CAVOK 08/M02 Q1000 R16/09//95=
201902281800 METAR LRSV 281800Z 28016KT CAVOK 08/M01 Q1000 R16/09//95=
201902281830 METAR COR LRSV 281830Z 29015KT CAVOK 09/M01 Q1000 R16/09//95=
201902281900 METAR LRSV 281900Z 29014KT CAVOK 09/M01 Q1000 R16/09//95=
201902281930 METAR LRSV 281930Z 28014KT CAVOK 09/M01 Q1000 R16/09//95=
201902282000 METAR LRSV 282000Z 28015KT CAVOK 09/M01 Q0999 R16/09//95=
201902282030 METAR LRSV 282030Z 29018KT CAVOK 10/M01 Q0999 R16/09//95=
201902282100 METAR COR LRSV 282100Z 30018KT CAVOK 10/M01 Q0999 R16/09//95=
201902282130 METAR LRSV 282130Z 30017KT CAVOK 09/M01 Q0999 R16/09//95=
201902282200 METAR LRSV 282200Z 31016KT CAVOK 10/M01 Q0999 R16/09//95=
201902282230 METAR LRSV 282230Z 33019KT CAVOK 09/00 Q1000 R16/09//95=
201902282300 METAR LRSV 282300Z 33021KT CAVOK 08/01 Q1000 R16/09//95=
201902282330 METAR LRSV 282330Z 34019KT CAVOK 08/01 Q1000 R16/09//95=
