201903010000 METAR LRSV 010000Z 33021KT CAVOK 07/00 Q1001 R16/09//95=
201903010030 METAR LRSV 010030Z 33020KT CAVOK 07/M00 Q1001 R16/09//95=
201903010100 METAR LRSV 010100Z 33018KT CAVOK 06/M01 Q1001 R16/09//95=
201903010130 METAR LRSV 010130Z 33017KT CAVOK 05/M01 Q1001 R16/09//95=
201903010200 METAR LRSV 010200Z 33017KT 9999 BKN045 05/M01 Q1001 R16/09//95=
201903010230 METAR LRSV 010230Z 33017KT 9999 BKN044 05/M02 Q1001 R16/09//95=
201903010300 METAR LRSV 010300Z 33017KT 9999 FEW044 04/M02 Q1002 R16/09//95=
201903010330 METAR LRSV 010330Z 33015KT CAVOK 04/M02 Q1002 R16/09//95=
201903010400 METAR LRSV 010400Z 32017KT 9999 FEW047 04/M02 Q1002 R16/09//95=
201903010430 METAR LRSV 010430Z 31014KT CAVOK 04/M01 Q1003 R16/09//95=
201903010500 METAR LRSV 010500Z 31014KT CAVOK 03/M02 Q1003 R16/09//95=
201903010530 METAR LRSV 010530Z 31017G28KT CAVOK 03/M02 Q1003 R16/09//95=
201903010600 METAR LRSV 010600Z 32016G26KT CAVOK 03/M03 Q1004 R16/09//95=
201903010630 METAR LRSV 010630Z 32014KT CAVOK 03/M04 Q1004 R16/CLRD//=
201903010700 METAR LRSV 010700Z 32016KT CAVOK 04/M05 Q1004=
201903010730 METAR LRSV 010730Z 31016G26KT 280V340 CAVOK 04/M06 Q1004=
201903010800 METAR LRSV 010800Z 32019G29KT CAVOK 05/M07 Q1004=
201903010830 METAR LRSV 010830Z 31022G32KT CAVOK 05/M08 Q1004=
201903010900 METAR LRSV 010900Z 32015G25KT CAVOK 06/M07 Q1004=
201903010930 METAR LRSV 010930Z 33020G30KT CAVOK 06/M08 Q1004=
201903011000 METAR LRSV 011000Z 32016G26KT 280V340 CAVOK 06/M07 Q1004=
201903011030 METAR LRSV 011030Z 32018G28KT CAVOK 07/M07 Q1004=
201903011100 METAR LRSV 011100Z 33017G28KT CAVOK 07/M08 Q1004=
201903011130 METAR LRSV 011130Z 34016G26KT 310V010 CAVOK 08/M07 Q1003=
201903011200 METAR LRSV 011200Z 34022KT CAVOK 08/M08 Q1003=
201903011230 METAR LRSV 011230Z 35018KT CAVOK 08/M08 Q1002=
201903011300 METAR LRSV 011300Z 34020KT CAVOK 08/M07 Q1002=
201903011330 METAR LRSV 011330Z 34017KT CAVOK 07/M07 Q1003=
201903011400 METAR LRSV 011400Z 35016KT CAVOK 08/M06 Q1003=
201903011430 METAR LRSV 011430Z 35014KT CAVOK 06/M05 Q1003=
201903011500 METAR LRSV 011500Z 35012KT CAVOK 06/M05 Q1003=
201903011530 METAR LRSV 011530Z 34010KT CAVOK 05/M04 Q1004=
201903011600 METAR LRSV 011600Z 34011KT CAVOK 04/M04 Q1004=
201903011630 METAR LRSV 011630Z 35008KT CAVOK 03/M04 Q1004=
201903011700 METAR LRSV 011700Z 34006KT CAVOK 03/M04 Q1004=
201903011730 METAR LRSV 011730Z 33006KT CAVOK 03/M04 Q1004=
201903011800 METAR LRSV 011800Z 32006KT CAVOK 03/M05 Q1005=
201903011830 METAR LRSV 011830Z 33010KT CAVOK 03/M05 Q1005=
201903011900 METAR LRSV 011900Z 32010KT CAVOK 03/M05 Q1005=
201903011930 METAR COR LRSV 011930Z 32009KT CAVOK 03/M06 Q1005=
201903012000 METAR LRSV 012000Z 33009KT CAVOK 03/M05 Q1005=
201903012030 METAR LRSV 012030Z 33007KT CAVOK 02/M05 Q1005=
201903012100 METAR COR LRSV 012100Z 33007KT CAVOK 02/M04 Q1005=
201903012130 METAR LRSV 012130Z 35010KT CAVOK 02/M04 Q1005=
201903012200 METAR LRSV 012200Z 35011KT CAVOK 02/M04 Q1005=
201903012230 METAR LRSV 012230Z 34014KT CAVOK 01/M03 Q1006=
201903012300 METAR LRSV 012300Z 33009KT CAVOK 01/M02 Q1006=
201903012330 METAR LRSV 012330Z AUTO 32008KT 9999 FEW032/// SCT060///
                        BKN085/// 01/M02 Q1007 RESN=
201903020000 METAR LRSV 020000Z 34008KT CAVOK 01/M02 Q1007=
201903020030 METAR LRSV 020030Z 01009KT CAVOK 01/M02 Q1007=
201903020100 METAR LRSV 020100Z 02006KT 9999 FEW021 BKN045 00/M04 Q1007=
201903020130 METAR COR LRSV 020130Z 34007KT 9999 FEW023 SCT032 M00/M04
                        Q1007=
201903020200 METAR LRSV 020200Z 01005KT 9999 FEW030 SCT042 M00/M04 Q1007=
201903020230 METAR LRSV 020230Z 36011KT 9999 FEW024 SCT033 M00/M05 Q1008=
201903020300 METAR LRSV 020300Z 34014KT 9999 SCT034 BKN045 M00/M06 Q1008=
201903020330 METAR LRSV 020330Z 34012KT 9999 -SN SCT029 BKN040 M01/M05
                        Q1008=
201903020400 METAR LRSV 020400Z 34011KT 9999 FEW029 BKN037 M01/M06 Q1008=
201903020430 METAR LRSV 020430Z 34012KT 9999 SCT027 BKN034 M01/M05 Q1009=
201903020500 METAR LRSV 020500Z 34015KT 9999 FEW030 BKN037 M01/M07 Q1009=
201903020530 METAR LRSV 020530Z 34013KT 9999 SCT041 BKN047 M01/M06 Q1010=
201903020600 METAR LRSV 020600Z 34014KT 9999 BKN041 M02/M07 Q1010=
201903020630 METAR LRSV 020630Z 34014KT 9999 BKN036 M02/M08 Q1011=
201903020700 METAR LRSV 020700Z 34011KT 9999 OVC037 M02/M08 Q1011=
201903020730 METAR LRSV 020730Z 35016KT 9999 BKN037 M02/M08 Q1011=
201903020800 METAR LRSV 020800Z 34015KT 9999 BKN041 M01/M09 Q1011=
201903020830 METAR LRSV 020830Z 35013KT 9999 BKN039 M02/M09 Q1012=
201903020900 METAR LRSV 020900Z 33012KT 300V360 9999 BKN039 M00/M08 Q1012=
201903020930 METAR LRSV 020930Z 34015KT 9999 BKN036 M01/M08 Q1012=
201903021000 METAR LRSV 021000Z 31013KT 9999 BKN037 00/M08 Q1012=
201903021030 METAR LRSV 021030Z 33015KT 9999 BKN038 01/M09 Q1012=
201903021100 METAR LRSV 021100Z 33014KT 9999 FEW039 01/M09 Q1012=
201903021130 METAR LRSV 021130Z 34015KT 9999 FEW039 02/M08 Q1012=
201903021200 METAR LRSV 021200Z 35015KT 9999 FEW039 02/M08 Q1012=
201903021230 METAR LRSV 021230Z 35016KT CAVOK 02/M08 Q1012=
201903021300 METAR LRSV 021300Z 35016KT CAVOK 02/M08 Q1012=
201903021330 METAR LRSV 021330Z 36014KT CAVOK 02/M09 Q1012=
201903021400 METAR LRSV 021400Z 36011KT 330V030 CAVOK 02/M08 Q1012=
201903021430 METAR LRSV 021430Z 01011KT CAVOK 02/M09 Q1012=
201903021500 METAR LRSV 021500Z 35012KT CAVOK 01/M09 Q1012=
201903021530 METAR LRSV 021530Z 02007KT CAVOK 00/M08 Q1013=
201903021600 METAR COR LRSV 021600Z 02005KT CAVOK M01/M08 Q1013=
201903021630 METAR LRSV 021630Z 01007KT CAVOK M01/M08 Q1013=
201903021700 METAR LRSV 021700Z 04005KT CAVOK M02/M08 Q1014=
201903021730 METAR LRSV 021730Z 05005KT CAVOK M03/M08 Q1014=
201903021800 METAR LRSV 021800Z 06004KT CAVOK M03/M08 Q1014=
201903021830 METAR COR LRSV 021830Z 06007KT CAVOK M03/M08 Q1015=
201903021900 METAR LRSV 021900Z 05006KT CAVOK M04/M08 Q1015=
201903021930 METAR LRSV 021930Z 08003KT 060V120 CAVOK M04/M08 Q1015=
201903022000 METAR LRSV 022000Z 00000KT CAVOK M04/M08 Q1015=
201903022030 METAR LRSV 022030Z 00000KT CAVOK M04/M09 Q1015=
201903022100 METAR LRSV 022100Z 00000KT CAVOK M04/M08 Q1016=
201903022130 METAR LRSV 022130Z 00000KT CAVOK M04/M06 Q1016=
201903022200 METAR LRSV 022200Z 00000KT CAVOK M04/M08 Q1016=
201903022230 METAR LRSV 022230Z 00000KT CAVOK M04/M09 Q1016=
201903022300 METAR LRSV 022300Z 00000KT CAVOK M04/M08 Q1016=
201903022330 METAR LRSV 022330Z AUTO 22003KT 9999 NCD M04/M08 Q1016=
201903030000 METAR LRSV 030000Z 22003KT CAVOK M04/M08 Q1016=
201903030030 METAR LRSV 030030Z 27002KT CAVOK M04/M08 Q1016=
201903030100 METAR LRSV 030100Z 00000KT CAVOK M05/M08 Q1016=
201903030130 METAR LRSV 030130Z 24003KT CAVOK M04/M08 Q1016=
201903030200 METAR LRSV 030200Z 22004KT CAVOK M05/M08 Q1016=
201903030230 METAR LRSV 030230Z 23004KT CAVOK M05/M08 Q1016=
201903030300 METAR LRSV 030300Z 23005KT CAVOK M05/M08 Q1016=
201903030330 METAR LRSV 030330Z 24006KT CAVOK M05/M08 Q1016=
201903030400 METAR COR LRSV 030400Z 26003KT CAVOK M05/M08 Q1016=
201903030430 METAR LRSV 030430Z 23004KT CAVOK M05/M08 Q1016=
201903030500 METAR LRSV 030500Z 25005KT CAVOK M05/M08 Q1016=
201903030530 METAR LRSV 030530Z 27006KT CAVOK M04/M08 Q1016=
201903030600 METAR LRSV 030600Z 26006KT CAVOK M04/M08 Q1016=
201903030630 METAR LRSV 030630Z 25006KT CAVOK M04/M07 Q1016=
201903030700 METAR LRSV 030700Z 24007KT CAVOK M03/M06 Q1016=
201903030730 METAR LRSV 030730Z 24008KT CAVOK M03/M06 Q1016=
201903030800 METAR LRSV 030800Z 23006KT CAVOK M02/M06 Q1016=
201903030830 METAR LRSV 030830Z 21006KT 180V240 CAVOK M01/M06 Q1016=
201903030900 METAR LRSV 030900Z 19005KT 150V220 CAVOK 01/M06 Q1016=
201903030930 METAR LRSV 030930Z 21005KT CAVOK 02/M07 Q1016=
201903031000 METAR LRSV 031000Z 20005KT 160V250 CAVOK 03/M07 Q1016=
201903031030 METAR LRSV 031030Z 22004KT 150V310 CAVOK 04/M07 Q1015=
201903031100 METAR LRSV 031100Z 27007KT 230V300 CAVOK 05/M08 Q1015=
201903031130 METAR LRSV 031130Z 32004KT 230V020 CAVOK 06/M08 Q1015=
201903031200 METAR LRSV 031200Z 25003KT 210V020 CAVOK 06/M07 Q1014=
201903031230 METAR LRSV 031230Z VRB01KT CAVOK 07/M07 Q1014=
201903031300 METAR LRSV 031300Z 19004KT 090V230 CAVOK 07/M07 Q1014=
201903031330 METAR LRSV 031330Z 16006KT 120V200 CAVOK 07/M07 Q1013=
201903031400 METAR LRSV 031400Z 13008KT CAVOK 06/M05 Q1013=
201903031430 METAR LRSV 031430Z 13009KT CAVOK 06/M05 Q1013=
201903031500 METAR LRSV 031500Z 15008KT CAVOK 06/M05 Q1013=
201903031530 METAR LRSV 031530Z 15009KT CAVOK 04/M04 Q1012=
201903031600 METAR LRSV 031600Z 16003KT 110V230 CAVOK 03/M04 Q1013=
201903031630 METAR LRSV 031630Z 18005KT CAVOK 02/M05 Q1012=
201903031700 METAR LRSV 031700Z 21006KT CAVOK 02/M04 Q1012=
201903031730 METAR LRSV 031730Z 21006KT CAVOK 03/M04 Q1012=
201903031800 METAR LRSV 031800Z 25006KT CAVOK 02/M05 Q1012=
201903031830 METAR LRSV 031830Z 27008KT CAVOK 03/M05 Q1012=
201903031900 METAR LRSV 031900Z 26008KT CAVOK 03/M05 Q1012=
201903031930 METAR LRSV 031930Z 25009KT CAVOK 02/M05 Q1012=
201903032000 METAR LRSV 032000Z 26010KT CAVOK 02/M05 Q1011=
201903032030 METAR LRSV 032030Z 25009KT CAVOK 02/M05 Q1011=
201903032100 METAR LRSV 032100Z 26010KT CAVOK 02/M05 Q1011=
201903032130 METAR LRSV 032130Z 26011KT CAVOK 03/M04 Q1011=
201903032200 METAR LRSV 032200Z 26012KT CAVOK 03/M04 Q1011=
201903032230 METAR LRSV 032230Z 26013KT CAVOK 03/M04 Q1011=
201903032300 METAR LRSV 032300Z 25009KT CAVOK 02/M04 Q1010=
201903032330 METAR LRSV 032330Z 24010KT CAVOK 02/M04 Q1010=
201903040000 METAR LRSV 040000Z 24009KT CAVOK 02/M04 Q1010=
201903040030 METAR LRSV 040030Z 26012KT CAVOK 02/M03 Q1010=
201903040100 METAR LRSV 040100Z 26012KT CAVOK 03/M03 Q1010=
201903040130 METAR LRSV 040130Z 26011KT CAVOK 03/M03 Q1009=
201903040200 METAR LRSV 040200Z 24011KT CAVOK 03/M03 Q1009=
201903040230 METAR LRSV 040230Z 24010KT CAVOK 03/M02 Q1009=
201903040300 METAR LRSV 040300Z 25010KT CAVOK 03/M02 Q1009=
201903040330 METAR LRSV 040330Z 25010KT CAVOK 03/M02 Q1009=
201903040400 METAR LRSV 040400Z 25011KT CAVOK 03/M02 Q1008=
201903040430 METAR LRSV 040430Z 24010KT CAVOK 03/M02 Q1008=
201903040500 METAR LRSV 040500Z 23011KT CAVOK 03/M01 Q1008=
201903040530 METAR LRSV 040530Z 24011KT CAVOK 03/M01 Q1008=
201903040600 METAR LRSV 040600Z 24010KT CAVOK 04/M00 Q1008=
201903040630 METAR LRSV 040630Z 23009KT CAVOK 05/00 Q1008=
201903040700 METAR COR LRSV 040700Z 21010KT CAVOK 06/01 Q1008=
201903040730 METAR LRSV 040730Z 22009KT CAVOK 08/01 Q1007=
201903040800 METAR LRSV 040800Z 22010KT CAVOK 09/02 Q1007=
201903040830 METAR LRSV 040830Z 23011KT CAVOK 11/02 Q1007=
201903040900 METAR LRSV 040900Z 24012KT 210V270 CAVOK 13/02 Q1007=
201903040930 METAR LRSV 040930Z 25017KT CAVOK 13/01 Q1007=
201903041000 METAR LRSV 041000Z 25020KT CAVOK 13/01 Q1006=
201903041030 METAR LRSV 041030Z 24016KT CAVOK 13/01 Q1006=
201903041100 METAR LRSV 041100Z 24013KT CAVOK 13/01 Q1006=
201903041130 METAR COR LRSV 041130Z 24016KT CAVOK 14/01 Q1005=
201903041200 METAR LRSV 041200Z 23015KT CAVOK 14/00 Q1005=
201903041230 METAR LRSV 041230Z 23014KT CAVOK 14/01 Q1004=
201903041300 METAR LRSV 041300Z 23015KT CAVOK 14/00 Q1004=
201903041330 METAR LRSV 041330Z 23016KT CAVOK 15/M00 Q1004=
201903041400 METAR LRSV 041400Z 24018KT CAVOK 14/M01 Q1004=
201903041430 METAR LRSV 041430Z 24015KT CAVOK 13/M00 Q1003=
201903041500 METAR LRSV 041500Z 24014KT CAVOK 13/M00 Q1003=
201903041530 METAR LRSV 041530Z 23011KT CAVOK 12/M00 Q1004=
201903041600 METAR LRSV 041600Z 23010KT CAVOK 11/M00 Q1003=
201903041630 METAR COR LRSV 041630Z 23012KT CAVOK 11/M00 Q1003=
201903041700 METAR LRSV 041700Z 23011KT CAVOK 10/M00 Q1003=
201903041730 METAR LRSV 041730Z 23011KT CAVOK 09/M00 Q1003=
201903041800 METAR LRSV 041800Z 24011KT CAVOK 09/M00 Q1003=
201903041830 METAR LRSV 041830Z 23010KT CAVOK 08/M00 Q1003=
201903041900 METAR LRSV 041900Z 22011KT CAVOK 08/M01 Q1002=
201903041930 METAR LRSV 041930Z 22010KT CAVOK 07/M01 Q1002=
201903042000 METAR LRSV 042000Z 22010KT CAVOK 07/M01 Q1002=
201903042030 METAR LRSV 042030Z 21013KT CAVOK 07/M01 Q1002=
201903042100 METAR LRSV 042100Z 23010KT CAVOK 07/M01 Q1002=
201903042130 METAR LRSV 042130Z 23011KT CAVOK 07/M01 Q1001=
201903042200 METAR LRSV 042200Z 22012KT CAVOK 08/M01 Q1001=
201903042230 METAR LRSV 042230Z 22011KT CAVOK 08/M01 Q1001=
201903042300 METAR LRSV 042300Z 23009KT CAVOK 08/M01 Q1001=
201903042330 METAR LRSV 042330Z 22008KT CAVOK 07/M01 Q1001=
201903050000 METAR LRSV 050000Z 22006KT CAVOK 08/M01 Q1000=
201903050030 METAR LRSV 050030Z 19005KT CAVOK 08/M01 Q1000=
201903050100 METAR LRSV 050100Z 21008KT CAVOK 07/M01 Q0999=
201903050130 METAR LRSV 050130Z 21007KT CAVOK 08/M01 Q0999=
201903050200 METAR LRSV 050200Z 23007KT CAVOK 07/M01 Q0999=
201903050230 METAR LRSV 050230Z 24009KT CAVOK 07/M01 Q0999=
201903050300 METAR LRSV 050300Z 23005KT 210V270 CAVOK 08/M02 Q0999=
201903050330 METAR LRSV 050330Z 21006KT CAVOK 06/M02 Q0998=
201903050400 METAR LRSV 050400Z 22006KT CAVOK 07/M02 Q0998=
201903050430 METAR LRSV 050430Z 22008KT CAVOK 08/M01 Q0998=
201903050500 METAR LRSV 050500Z 24006KT CAVOK 08/M01 Q0999=
201903050530 METAR COR LRSV 050530Z 25013KT CAVOK 09/00 Q0999=
201903050600 METAR LRSV 050600Z 23018KT CAVOK 11/01 Q0999=
201903050630 METAR LRSV 050630Z 23015KT CAVOK 10/01 Q1000=
201903050700 METAR LRSV 050700Z 26011KT CAVOK 10/02 Q1001=
201903050730 METAR LRSV 050730Z 27016KT CAVOK 10/00 Q1001=
201903050800 METAR LRSV 050800Z 27020KT CAVOK 11/00 Q1001=
201903050830 METAR LRSV 050830Z 34014KT CAVOK 08/03 Q1003=
201903050900 METAR LRSV 050900Z 35011KT 9999 FEW040 08/03 Q1003=
201903050930 METAR LRSV 050930Z 33011KT 9999 FEW040 09/03 Q1003=
201903051000 METAR LRSV 051000Z 31006KT 270V340 9999 FEW045 10/03 Q1003=
201903051030 METAR LRSV 051030Z 30008KT 9999 FEW045 10/02 Q1003=
201903051100 METAR LRSV 051100Z 25010KT 9999 FEW045 10/02 Q1003=
201903051130 METAR LRSV 051130Z 27019KT 9999 FEW045 11/M00 Q1003=
201903051200 METAR LRSV 051200Z 29016KT 9999 FEW045 11/M00 Q1004=
201903051230 METAR LRSV 051230Z 32012KT 9999 -RA SCT045 11/02 Q1004=
201903051300 METAR LRSV 051300Z 34011KT 9999 FEW045 11/02 Q1005=
201903051330 METAR LRSV 051330Z 29009G19KT 260V350 9999 FEW045 11/02 Q1005=
201903051400 METAR LRSV 051400Z 26019KT 9999 FEW045 11/M01 Q1005=
201903051430 METAR LRSV 051430Z AUTO 27018KT 9999 NCD 11/M01 Q1005=
201903051500 METAR LRSV 051500Z 27016KT 9999 FEW045 10/M02 Q1005=
201903051530 METAR LRSV 051530Z 29015KT 9999 FEW045 10/M03 Q1006=
201903051600 METAR LRSV 051600Z 28010KT CAVOK 08/M02 Q1006=
201903051630 METAR LRSV 051630Z 25008KT CAVOK 07/M02 Q1006=
201903051700 METAR LRSV 051700Z 25007KT CAVOK 07/M02 Q1007=
201903051730 METAR LRSV 051730Z 25008KT CAVOK 06/M02 Q1007=
201903051800 METAR LRSV 051800Z 24009KT CAVOK 05/M02 Q1007=
201903051830 METAR LRSV 051830Z 27011KT CAVOK 05/M02 Q1008=
201903051900 METAR LRSV 051900Z 26008KT CAVOK 05/M02 Q1008=
201903051930 METAR LRSV 051930Z 25006KT CAVOK 06/M02 Q1008=
201903052000 METAR LRSV 052000Z 26008KT CAVOK 05/M02 Q1009=
201903052030 METAR LRSV 052030Z 27006KT CAVOK 03/M02 Q1009=
201903052100 METAR LRSV 052100Z 32006KT CAVOK 05/M03 Q1009=
201903052130 METAR LRSV 052130Z 31004KT CAVOK 03/M03 Q1009=
201903052200 METAR LRSV 052200Z 25002KT CAVOK 03/M02 Q1009=
201903052230 METAR LRSV 052230Z 19004KT CAVOK 02/M03 Q1010=
201903052300 METAR LRSV 052300Z 21005KT CAVOK 02/M02 Q1010=
201903052330 METAR LRSV 052330Z 20004KT CAVOK 02/M02 Q1010=
201903060000 METAR LRSV 060000Z 19004KT CAVOK 03/M02 Q1010=
201903060030 METAR LRSV 060030Z 20004KT CAVOK 02/M03 Q1010=
201903060100 METAR LRSV 060100Z 21003KT CAVOK 02/M03 Q1010=
201903060130 METAR LRSV 060130Z 25003KT CAVOK 03/M03 Q1010=
201903060200 METAR LRSV 060200Z 24005KT CAVOK 03/M03 Q1010=
201903060230 METAR LRSV 060230Z 25006KT CAVOK 03/M04 Q1009=
201903060300 METAR LRSV 060300Z 25006KT CAVOK 03/M04 Q1009=
201903060330 METAR LRSV 060330Z 26008KT CAVOK 02/M03 Q1010=
201903060400 METAR LRSV 060400Z 25008KT CAVOK 03/M03 Q1009=
201903060430 METAR LRSV 060430Z 26009KT CAVOK 04/M03 Q1010=
201903060500 METAR LRSV 060500Z 31007KT 9999 -RA FEW038 05/M02 Q1011=
201903060530 METAR LRSV 060530Z 33008KT 9999 -RA BKN037 04/M00 Q1011=
201903060600 METAR LRSV 060600Z 34008KT 9999 -RA FEW019 BKN025 03/01 Q1012=
201903060630 METAR LRSV 060630Z 35007KT 9999 -RA SCT015 BKN025 03/01 Q1012
                        R16/29//95=
201903060700 METAR LRSV 060700Z 34011KT 9999 -RASN SCT008 BKN025 02/01
                        Q1013 R16/29//95=
201903060730 METAR LRSV 060730Z 33013KT 9999 -RASN SCT010 BKN023 02/01
                        Q1013 R16/29//95=
201903060800 METAR LRSV 060800Z 33013KT 9999 -RA FEW010 BKN030 02/01 Q1014
                        R16/29//95=
201903060830 METAR LRSV 060830Z 32011KT 9999 BKN035 03/01 Q1014 R16/29//95=
201903060900 METAR LRSV 060900Z 32014KT 9999 BKN040 04/01 Q1014 R16/29//95=
201903060930 METAR LRSV 060930Z 32015KT 9999 SCT045 05/01 Q1015 R16/29//95=
201903061000 METAR LRSV 061000Z 32017KT 9999 SCT023 06/01 Q1015 R16/29//95=
201903061030 METAR LRSV 061030Z 33019KT 9999 SCT030 07/M01 Q1015 R16/29//95=
201903061100 METAR LRSV 061100Z 33017KT 9999 SCT039 08/M01 Q1015 R16/CLRD//=
201903061130 METAR LRSV 061130Z 33012KT 9999 SCT040 08/M01 Q1015=
201903061200 METAR LRSV 061200Z 35014KT 9999 SCT045 08/M00 Q1016=
201903061230 METAR LRSV 061230Z 35013KT 9999 FEW045 08/M01 Q1016=
201903061300 METAR LRSV 061300Z 34011KT 9999 FEW045 08/M00 Q1016=
201903061330 METAR LRSV 061330Z 34014KT 9999 FEW042 08/M02 Q1016=
201903061400 METAR LRSV 061400Z 36015KT 9999 FEW045 08/M01 Q1017=
201903061430 METAR LRSV 061430Z 35013KT 9999 FEW045 08/M01 Q1017=
201903061500 METAR LRSV 061500Z 36011KT CAVOK 07/M01 Q1017=
201903061530 METAR LRSV 061530Z 36009KT CAVOK 07/M01 Q1017=
201903061600 METAR LRSV 061600Z 01007KT CAVOK 05/M01 Q1018=
201903061630 METAR LRSV 061630Z 02006KT CAVOK 04/M01 Q1018=
201903061700 METAR LRSV 061700Z 02004KT CAVOK 04/M01 Q1019=
201903061730 METAR LRSV 061730Z 31003KT CAVOK 04/M01 Q1019=
201903061800 METAR LRSV 061800Z 24004KT CAVOK 03/M01 Q1019=
201903061830 METAR LRSV 061830Z 24004KT 220V280 CAVOK 02/M01 Q1020=
201903061900 METAR LRSV 061900Z 24004KT CAVOK 03/M01 Q1020=
201903061930 METAR LRSV 061930Z 20002KT 9999 BKN047 04/M01 Q1020=
201903062000 METAR LRSV 062000Z 17004KT 9999 FEW048 02/M02 Q1020=
201903062030 METAR LRSV 062030Z 20004KT CAVOK 02/M02 Q1020=
201903062100 METAR LRSV 062100Z 20003KT CAVOK 02/M02 Q1020=
201903062130 METAR LRSV 062130Z 22004KT CAVOK 01/M02 Q1020=
201903062200 METAR LRSV 062200Z 23006KT CAVOK 02/M02 Q1020=
201903062230 METAR LRSV 062230Z 24006KT CAVOK 01/M03 Q1020=
201903062300 METAR LRSV 062300Z 20003KT CAVOK 01/M03 Q1020=
201903062330 METAR LRSV 062330Z 20004KT CAVOK 01/M03 Q1020=
201903070000 METAR LRSV 070000Z 20005KT CAVOK 01/M02 Q1020=
201903070030 METAR LRSV 070030Z AUTO 18006KT 9999 NCD 00/M03 Q1020=
201903070100 METAR COR LRSV 070100Z 16005KT CAVOK M00/M03 Q1019=
201903070130 METAR COR LRSV 070130Z 17006KT 9999 NCD M01/M03 Q1019=
201903070200 METAR COR LRSV 070200Z 18006KT CAVOK M01/M03 Q1019=
201903070230 METAR LRSV 070230Z AUTO 18007KT 9999 NCD M01/M03 Q1018=
201903070300 METAR LRSV 070300Z 19008KT CAVOK M00/M03 Q1018=
201903070330 METAR LRSV 070330Z 19006KT CAVOK M01/M03 Q1018=
201903070400 METAR LRSV 070400Z AUTO 16009KT 9999 NCD M01/M03 Q1018=
201903070430 METAR LRSV 070430Z 16009KT CAVOK M01/M03 Q1018=
201903070500 METAR LRSV 070500Z 17007KT CAVOK M01/M03 Q1017=
201903070530 METAR LRSV 070530Z 17009KT CAVOK 00/M03 Q1017=
201903070600 METAR LRSV 070600Z 17008KT CAVOK 01/M02 Q1017=
201903070630 METAR LRSV 070630Z 17011KT CAVOK 02/M02 Q1017=
201903070700 METAR LRSV 070700Z 18011KT CAVOK 03/M02 Q1017=
201903070730 METAR LRSV 070730Z 17012KT CAVOK 05/M01 Q1017=
201903070800 METAR LRSV 070800Z 18011KT CAVOK 06/M01 Q1017=
201903070830 METAR LRSV 070830Z 18013KT CAVOK 07/M02 Q1017=
201903070900 METAR LRSV 070900Z 17011KT CAVOK 08/M02 Q1017=
201903070930 METAR LRSV 070930Z 17013KT CAVOK 09/M02 Q1016=
201903071000 METAR LRSV 071000Z 17012KT CAVOK 11/M02 Q1016=
201903071030 METAR LRSV 071030Z 17014KT CAVOK 12/M03 Q1015=
201903071100 METAR LRSV 071100Z 16014KT CAVOK 12/M02 Q1015=
201903071130 METAR LRSV 071130Z 16016KT CAVOK 13/M01 Q1015=
201903071200 METAR LRSV 071200Z 15014KT CAVOK 11/M00 Q1014=
201903071230 METAR LRSV 071230Z 16013KT CAVOK 11/00 Q1014=
201903071300 METAR LRSV 071300Z 16013KT CAVOK 11/M00 Q1014=
201903071330 METAR LRSV 071330Z 16014KT CAVOK 11/01 Q1013=
201903071400 METAR LRSV 071400Z 17016KT CAVOK 12/01 Q1013=
201903071430 METAR LRSV 071430Z 15014KT CAVOK 11/01 Q1013=
201903071500 METAR LRSV 071500Z 16013KT CAVOK 11/01 Q1012=
201903071530 METAR LRSV 071530Z 17012KT CAVOK 10/01 Q1012=
201903071600 METAR LRSV 071600Z 17012KT CAVOK 09/00 Q1012=
201903071630 METAR LRSV 071630Z 17011KT CAVOK 09/00 Q1012=
201903071700 METAR LRSV 071700Z 16010KT CAVOK 09/M00 Q1012=
201903071730 METAR COR LRSV 071730Z 16009KT CAVOK 08/M00 Q1012=
201903071800 METAR LRSV 071800Z 16010KT CAVOK 08/M00 Q1012=
201903071830 METAR LRSV 071830Z 17006KT CAVOK 08/M00 Q1012=
201903071900 METAR LRSV 071900Z 18008KT CAVOK 08/M00 Q1012=
201903071930 METAR LRSV 071930Z 16008KT CAVOK 08/M00 Q1012=
201903072000 METAR LRSV 072000Z 17010KT CAVOK 08/M01 Q1012=
201903072030 METAR LRSV 072030Z 17006KT CAVOK 08/M01 Q1012=
201903072100 METAR LRSV 072100Z 17008KT CAVOK 07/M01 Q1012=
201903072130 METAR LRSV 072130Z 19007KT CAVOK 06/M00 Q1012=
201903072200 METAR LRSV 072200Z 17006KT CAVOK 07/M01 Q1012=
201903072230 METAR LRSV 072230Z 19005KT CAVOK 07/M00 Q1012=
201903072300 METAR LRSV 072300Z 21007KT CAVOK 06/M00 Q1012=
201903072330 METAR LRSV 072330Z 21008KT CAVOK 07/M00 Q1013=
201903080000 METAR LRSV 080000Z 21010KT CAVOK 07/M00 Q1013=
201903080030 METAR LRSV 080030Z 20010KT CAVOK 07/M00 Q1012=
201903080100 METAR LRSV 080100Z 20008KT CAVOK 07/M00 Q1013=
201903080130 METAR LRSV 080130Z 21010KT CAVOK 08/M00 Q1012=
201903080200 METAR LRSV 080200Z 20009KT CAVOK 08/M00 Q1013=
201903080230 METAR LRSV 080230Z 20009KT CAVOK 08/00 Q1012=
201903080300 METAR LRSV 080300Z 20009KT CAVOK 08/00 Q1013=
201903080330 METAR LRSV 080330Z 20009KT CAVOK 08/00 Q1013=
201903080400 METAR LRSV 080400Z 20009KT CAVOK 08/00 Q1013=
201903080430 METAR LRSV 080430Z 21010KT CAVOK 09/01 Q1013=
201903080500 METAR LRSV 080500Z 22009KT CAVOK 09/00 Q1013=
201903080530 METAR LRSV 080530Z 23010KT CAVOK 10/01 Q1013=
201903080600 METAR LRSV 080600Z 24007KT CAVOK 09/01 Q1013=
201903080630 METAR LRSV 080630Z 24008KT CAVOK 10/01 Q1014=
201903080700 METAR LRSV 080700Z 23008KT CAVOK 11/01 Q1014=
201903080730 METAR LRSV 080730Z 22007KT CAVOK 12/02 Q1013=
201903080800 METAR LRSV 080800Z 23006KT CAVOK 13/03 Q1014=
201903080830 METAR LRSV 080830Z 21006KT CAVOK 13/02 Q1014=
201903080900 METAR LRSV 080900Z 22005KT CAVOK 14/02 Q1013=
201903080930 METAR LRSV 080930Z 18008KT CAVOK 16/02 Q1013=
201903081000 METAR LRSV 081000Z 20008KT CAVOK 17/02 Q1013=
201903081030 METAR LRSV 081030Z 18008KT CAVOK 17/01 Q1013=
201903081100 METAR LRSV 081100Z 15007KT CAVOK 18/02 Q1013=
201903081130 METAR LRSV 081130Z 20008KT CAVOK 19/02 Q1012=
201903081200 METAR LRSV 081200Z 18009KT 140V220 CAVOK 19/02 Q1012=
201903081230 METAR LRSV 081230Z 21006KT 080V250 CAVOK 20/03 Q1012=
201903081300 METAR LRSV 081300Z 25016KT CAVOK 20/03 Q1012=
201903081330 METAR LRSV 081330Z 25017G27KT CAVOK 20/03 Q1011=
201903081400 METAR LRSV 081400Z 25017KT CAVOK 20/03 Q1012=
201903081430 METAR LRSV 081430Z 26016KT CAVOK 19/03 Q1012=
201903081500 METAR LRSV 081500Z 28017KT CAVOK 19/02 Q1012=
201903081530 METAR LRSV 081530Z 29015KT CAVOK 17/02 Q1012=
201903081600 METAR LRSV 081600Z 30016KT CAVOK 17/02 Q1013=
201903081630 METAR LRSV 081630Z 33012KT CAVOK 14/04 Q1013=
201903081700 METAR LRSV 081700Z 33011KT CAVOK 13/04 Q1014=
201903081730 METAR LRSV 081730Z 32011KT CAVOK 13/04 Q1014=
201903081800 METAR LRSV 081800Z 31011KT CAVOK 13/04 Q1014=
201903081830 METAR COR LRSV 081830Z 29011KT CAVOK 13/04 Q1015=
201903081900 METAR LRSV 081900Z 25010KT CAVOK 13/04 Q1015=
201903081930 METAR LRSV 081930Z 24013KT CAVOK 13/04 Q1015=
201903082000 METAR LRSV 082000Z 23010KT CAVOK 11/03 Q1015=
201903082030 METAR LRSV 082030Z 24009KT CAVOK 11/03 Q1015=
201903082100 METAR LRSV 082100Z 27007KT CAVOK 10/03 Q1015=
201903082130 METAR LRSV 082130Z 22005KT CAVOK 09/03 Q1016=
201903082200 METAR LRSV 082200Z 24004KT CAVOK 10/03 Q1016=
201903082230 METAR LRSV 082230Z 25006KT 210V290 CAVOK 09/03 Q1016=
201903082300 METAR LRSV 082300Z 26007KT CAVOK 10/03 Q1016=
201903082330 METAR LRSV 082330Z AUTO 26007KT 9999 BKN120/// OVC160///
                        09/03 Q1016=
201903090000 METAR LRSV 090000Z 29009KT CAVOK 10/03 Q1016=
201903090030 METAR LRSV 090030Z 34005KT CAVOK 09/03 Q1017=
201903090100 METAR LRSV 090100Z 32005KT CAVOK 10/02 Q1017=
201903090130 METAR LRSV 090130Z AUTO 32004KT 9999 SCT110/// BKN120///
                        10/02 Q1017=
201903090200 METAR LRSV 090200Z 33006KT CAVOK 09/02 Q1017=
201903090230 METAR LRSV 090230Z 33005KT CAVOK 09/02 Q1018=
201903090300 METAR LRSV 090300Z 33005KT CAVOK 09/02 Q1018=
201903090330 METAR LRSV 090330Z 34005KT CAVOK 09/02 Q1018=
201903090400 METAR LRSV 090400Z 33005KT CAVOK 09/02 Q1018=
201903090430 METAR LRSV 090430Z 32005KT CAVOK 09/01 Q1018=
201903090500 METAR LRSV 090500Z 30005KT CAVOK 07/01 Q1018=
201903090530 METAR LRSV 090530Z 27006KT CAVOK 07/02 Q1018=
201903090600 METAR LRSV 090600Z 27007KT CAVOK 09/02 Q1018=
201903090630 METAR LRSV 090630Z 27006KT CAVOK 10/02 Q1018=
201903090700 METAR LRSV 090700Z 26006KT CAVOK 10/02 Q1018=
201903090730 METAR LRSV 090730Z 22008KT CAVOK 10/03 Q1018=
201903090800 METAR LRSV 090800Z 22010KT CAVOK 11/02 Q1018=
201903090830 METAR LRSV 090830Z 24010KT CAVOK 11/01 Q1017=
201903090900 METAR LRSV 090900Z 24008KT CAVOK 12/01 Q1017=
201903090930 METAR LRSV 090930Z 24009KT CAVOK 13/01 Q1017=
201903091000 METAR LRSV 091000Z 24009KT 200V270 CAVOK 14/01 Q1017=
201903091030 METAR LRSV 091030Z 21005KT 170V260 CAVOK 14/00 Q1016=
201903091100 METAR LRSV 091100Z 23010KT 200V270 CAVOK 15/00 Q1015=
201903091130 METAR LRSV 091130Z 24009KT CAVOK 15/M01 Q1015=
201903091200 METAR LRSV 091200Z 28011KT 240V320 CAVOK 15/00 Q1014=
201903091230 METAR LRSV 091230Z 27015KT 240V300 CAVOK 15/M00 Q1014=
201903091300 METAR LRSV 091300Z 25014KT CAVOK 15/M00 Q1013=
201903091330 METAR LRSV 091330Z 26009KT CAVOK 15/M00 Q1013=
201903091400 METAR LRSV 091400Z 26013KT CAVOK 14/M01 Q1013=
201903091430 METAR LRSV 091430Z 27016KT CAVOK 12/02 Q1013=
201903091500 METAR LRSV 091500Z 23019KT CAVOK 11/03 Q1013=
201903091530 METAR LRSV 091530Z 23015KT CAVOK 10/04 Q1013=
201903091600 METAR LRSV 091600Z 23014KT CAVOK 10/03 Q1013=
201903091630 METAR LRSV 091630Z 22011KT CAVOK 09/03 Q1013=
201903091700 METAR LRSV 091700Z 23009KT CAVOK 09/03 Q1013=
201903091730 METAR LRSV 091730Z 24006KT CAVOK 08/02 Q1013=
201903091800 METAR LRSV 091800Z 23007KT CAVOK 08/02 Q1012=
201903091830 METAR LRSV 091830Z 23005KT CAVOK 07/02 Q1013=
201903091900 METAR COR LRSV 091900Z 25004KT CAVOK 07/01 Q1012=
201903091930 METAR LRSV 091930Z 24006KT CAVOK 06/01 Q1012=
201903092000 METAR LRSV 092000Z 27009KT CAVOK 07/01 Q1012=
201903092030 METAR LRSV 092030Z 25008KT CAVOK 07/01 Q1011=
201903092100 METAR LRSV 092100Z 23007KT CAVOK 05/01 Q1011=
201903092130 METAR LRSV 092130Z 25006KT CAVOK 05/00 Q1011=
201903092200 METAR LRSV 092200Z 25006KT CAVOK 05/00 Q1011=
201903092230 METAR LRSV 092230Z 27008KT CAVOK 07/01 Q1010=
201903092300 METAR LRSV 092300Z 25009KT CAVOK 07/01 Q1010=
201903092330 METAR LRSV 092330Z 23006KT CAVOK 08/02 Q1010=
201903100000 METAR LRSV 100000Z 22005KT CAVOK 07/01 Q1010=
201903100030 METAR LRSV 100030Z 21005KT CAVOK 07/02 Q1009=
201903100100 METAR LRSV 100100Z 20004KT CAVOK 07/01 Q1009=
201903100130 METAR LRSV 100130Z 20002KT 150V290 CAVOK 07/01 Q1008=
201903100200 METAR LRSV 100200Z 20004KT CAVOK 06/00 Q1008=
201903100230 METAR LRSV 100230Z 19003KT 160V240 CAVOK 06/01 Q1007=
201903100300 METAR LRSV 100300Z 18003KT CAVOK 06/00 Q1007=
201903100330 METAR LRSV 100330Z 20007KT CAVOK 07/01 Q1007=
201903100400 METAR LRSV 100400Z 24009KT 9999 FEW039 06/01 Q1007=
201903100430 METAR LRSV 100430Z 25016G29KT 9999 -RA BKN038 08/02 Q1006=
201903100500 METAR LRSV 100500Z 24014KT 9999 SCT039 06/03 Q1006=
201903100530 METAR LRSV 100530Z 22014KT 9999 FEW042 05/03 Q1005=
201903100600 METAR LRSV 100600Z 26010KT 9999 SCT043 06/03 Q1007=
201903100630 METAR COR LRSV 100630Z 33021G31KT 9999 FEW040CB SCT045 06/02
                        Q1009=
201903100700 METAR COR LRSV 100700Z 33019G29KT 9999 -SHRA FEW035CB BKN037
                        03/02 Q1009=
201903100730 METAR LRSV 100730Z 27015KT 9999 FEW040CB SCT038 05/02 Q1009=
201903100800 METAR COR LRSV 100800Z 27015KT 9999 SCT043 07/02 Q1009=
201903100830 METAR LRSV 100830Z 27017KT 9999 FEW043 09/02 Q1009=
201903100900 METAR LRSV 100900Z 28024G36KT 9999 FEW043 10/M04 Q1009=
201903100930 METAR LRSV 100930Z 28022KT 9999 SCT047 10/M04 Q1009=
201903101000 METAR LRSV 101000Z 28024G34KT 9999 BKN048 10/M05 Q1009=
201903101030 METAR LRSV 101030Z 28024KT 250V310 CAVOK 11/M05 Q1009=
201903101100 METAR COR LRSV 101100Z 27025G37KT CAVOK 10/M04 Q1009=
201903101130 METAR LRSV 101130Z 28023G34KT CAVOK 11/M05 Q1009=
201903101200 METAR LRSV 101200Z 26021G31KT CAVOK 11/M05 Q1008=
201903101230 METAR COR LRSV 101230Z 27020KT CAVOK 11/M05 Q1008=
201903101300 METAR LRSV 101300Z 27019KT CAVOK 11/M05 Q1008=
201903101330 METAR LRSV 101330Z 26023KT CAVOK 10/M05 Q1008=
201903101400 METAR LRSV 101400Z 27019KT CAVOK 10/M05 Q1008=
201903101430 METAR LRSV 101430Z 26017KT CAVOK 10/M05 Q1007=
201903101500 METAR LRSV 101500Z 26013KT CAVOK 10/M04 Q1007=
201903101530 METAR LRSV 101530Z 27018KT CAVOK 10/M03 Q1007=
201903101600 METAR LRSV 101600Z 25008KT CAVOK 09/M02 Q1007=
201903101630 METAR LRSV 101630Z 27004KT 240V300 CAVOK 08/M02 Q1007=
201903101700 METAR LRSV 101700Z 27003KT CAVOK 07/M02 Q1006=
201903101730 METAR LRSV 101730Z 26004KT CAVOK 07/M01 Q1006=
201903101800 METAR COR LRSV 101800Z 22002KT CAVOK 07/M01 Q1006=
201903101830 METAR LRSV 101830Z 20005KT CAVOK 07/M00 Q1005=
201903101900 METAR LRSV 101900Z 19006KT CAVOK 06/M00 Q1005=
201903101930 METAR LRSV 101930Z 17006KT CAVOK 06/M00 Q1004=
201903102000 METAR LRSV 102000Z 19006KT 150V220 CAVOK 07/00 Q1004=
201903102030 METAR LRSV 102030Z 16008KT 130V190 CAVOK 07/M00 Q1004=
201903102100 METAR LRSV 102100Z 16006KT CAVOK 06/M01 Q1003=
201903102130 METAR LRSV 102130Z 20007KT CAVOK 07/00 Q1002=
201903102200 METAR LRSV 102200Z 17007KT 130V210 CAVOK 07/00 Q1002=
201903102230 METAR LRSV 102230Z 22009KT CAVOK 08/02 Q1001=
201903102300 METAR LRSV 102300Z 22014KT CAVOK 08/02 Q1000=
201903102330 METAR LRSV 102330Z 24009KT CAVOK 09/02 Q1001=
201903110000 METAR LRSV 110000Z 24009KT CAVOK 08/02 Q1001=
201903110030 METAR LRSV 110030Z 25009KT CAVOK 07/02 Q1000=
201903110100 METAR LRSV 110100Z 25009KT CAVOK 08/02 Q1000=
201903110130 METAR LRSV 110130Z 25013KT CAVOK 09/03 Q1000=
201903110200 METAR LRSV 110200Z 26009KT CAVOK 09/02 Q1001=
201903110230 METAR LRSV 110230Z 27012KT CAVOK 09/02 Q1000=
201903110300 METAR LRSV 110300Z 29008KT CAVOK 08/02 Q1000=
201903110330 METAR LRSV 110330Z 28005KT CAVOK 08/02 Q1001=
201903110400 METAR LRSV 110400Z 27006KT CAVOK 07/02 Q1001=
201903110430 METAR LRSV 110430Z 26008KT CAVOK 08/02 Q1001=
201903110500 METAR LRSV 110500Z 26013KT CAVOK 09/01 Q1000=
201903110530 METAR LRSV 110530Z 26013KT CAVOK 10/01 Q1001=
201903110600 METAR LRSV 110600Z 26014KT 9999 FEW040 10/01 Q1001=
201903110630 METAR LRSV 110630Z 26023G33KT 9999 FEW040 11/00 Q1002=
201903110700 METAR LRSV 110700Z 26022KT 9999 FEW045 11/M02 Q1003=
201903110730 METAR LRSV 110730Z 27026KT 9999 FEW045 11/M03 Q1003=
201903110800 METAR COR LRSV 110800Z 29024G37KT 9999 FEW045 11/M04 Q1004=
201903110830 METAR LRSV 110830Z 31024G36KT 9999 FEW045 10/M02 Q1005=
201903110900 METAR LRSV 110900Z 32019G30KT 9999 FEW045 10/M01 Q1005=
201903110930 METAR LRSV 110930Z 32024KT 9999 FEW045 09/M01 Q1006=
201903111000 METAR LRSV 111000Z 32023G33KT 9999 FEW045 09/M03 Q1006=
201903111030 METAR LRSV 111030Z 33020KT 9999 FEW045 09/M01 Q1006=
201903111100 METAR LRSV 111100Z 34024KT 9999 FEW045 08/M02 Q1006=
201903111130 METAR LRSV 111130Z 33023KT 9999 FEW045 08/M02 Q1006=
201903111200 METAR LRSV 111200Z 33020KT 9999 FEW045 08/M02 Q1006=
201903111230 METAR LRSV 111230Z 33019G29KT 9999 FEW048 09/M03 Q1007=
201903111300 METAR LRSV 111300Z 33018KT 9999 FEW048 09/M04 Q1007=
201903111330 METAR LRSV 111330Z 33015KT 9999 FEW048 08/M03 Q1007=
201903111400 METAR LRSV 111400Z 33014KT CAVOK 08/M04 Q1007=
201903111430 METAR LRSV 111430Z 33012KT CAVOK 08/M05 Q1007=
201903111500 METAR LRSV 111500Z 32013KT 290V350 CAVOK 07/M05 Q1008=
201903111530 METAR LRSV 111530Z 34009KT CAVOK 07/M05 Q1008=
201903111600 METAR LRSV 111600Z 34009KT CAVOK 06/M05 Q1008=
201903111630 METAR LRSV 111630Z 34007KT CAVOK 05/M05 Q1009=
201903111700 METAR LRSV 111700Z 33007KT CAVOK 05/M06 Q1009=
201903111730 METAR LRSV 111730Z 33006KT CAVOK 04/M06 Q1009=
201903111800 METAR COR LRSV 111800Z 33007KT CAVOK 04/M06 Q1010=
201903111830 METAR LRSV 111830Z 34007KT CAVOK 03/M06 Q1010=
201903111900 METAR LRSV 111900Z 35008KT CAVOK 02/M06 Q1010=
201903111930 METAR LRSV 111930Z 35009KT CAVOK 03/M05 Q1011=
201903112000 METAR LRSV 112000Z 35008KT CAVOK 02/M05 Q1011=
201903112030 METAR LRSV 112030Z 34010KT CAVOK 02/M04 Q1011=
201903112100 METAR COR LRSV 112100Z 33008KT CAVOK 02/M04 Q1011=
201903112130 METAR LRSV 112130Z 33007KT CAVOK 02/M04 Q1011=
201903112200 METAR LRSV 112200Z 34005KT 180V350 CAVOK 01/M04 Q1011=
201903112230 METAR LRSV 112230Z 21003KT CAVOK 01/M04 Q1011=
201903112300 METAR LRSV 112300Z 22002KT CAVOK 01/M04 Q1011=
201903112330 METAR LRSV 112330Z 22002KT CAVOK 01/M04 Q1011=
201903120000 METAR LRSV 120000Z 21003KT CAVOK 01/M04 Q1011=
201903120030 METAR LRSV 120030Z 23003KT CAVOK 00/M04 Q1011=
201903120100 METAR COR LRSV 120100Z 22003KT CAVOK 01/M04 Q1011=
201903120130 METAR LRSV 120130Z 18003KT CAVOK 01/M04 Q1011=
201903120200 METAR LRSV 120200Z 19004KT CAVOK 01/M04 Q1011=
201903120230 METAR LRSV 120230Z 19005KT CAVOK 02/M04 Q1011=
201903120300 METAR LRSV 120300Z 18006KT CAVOK 01/M04 Q1011=
201903120330 METAR LRSV 120330Z 19003KT CAVOK 01/M04 Q1011=
201903120400 METAR LRSV 120400Z 20006KT CAVOK 01/M03 Q1011=
201903120430 METAR LRSV 120430Z 22007KT CAVOK 01/M04 Q1011=
201903120500 METAR LRSV 120500Z 22007KT CAVOK 01/M04 Q1012=
201903120530 METAR LRSV 120530Z 26010KT 230V290 CAVOK 01/M03 Q1012=
201903120600 METAR LRSV 120600Z 33009KT CAVOK 02/M03 Q1013=
201903120630 METAR LRSV 120630Z 33017KT CAVOK 02/M02 Q1013=
201903120700 METAR LRSV 120700Z 33018KT CAVOK 02/M01 Q1013=
201903120730 METAR LRSV 120730Z 33017KT CAVOK 02/M01 Q1014=
201903120800 METAR LRSV 120800Z 33017KT 9999 FEW015 SCT045 02/M02 Q1014=
201903120830 METAR LRSV 120830Z 33013KT 9999 SCT015 BKN043 02/M02 Q1014=
201903120900 METAR LRSV 120900Z 33014KT 9999 SCT017 BKN045 02/M02 Q1014=
201903120930 METAR LRSV 120930Z 33016KT 9999 -SN SCT019 BKN047 02/M00
                        Q1015=
201903121000 METAR LRSV 121000Z 33012KT 9999 FEW017 SCT043 02/M02 Q1015=
201903121030 METAR LRSV 121030Z 33010KT 9999 FEW020 SCT036 04/M02 Q1015=
201903121100 METAR LRSV 121100Z 34014KT 9999 FEW020 SCT045 05/M03 Q1015=
201903121130 METAR LRSV 121130Z 33012KT 9999 BKN040 05/M03 Q1015=
201903121200 METAR LRSV 121200Z 33011KT 9999 BKN040 05/M05 Q1015=
201903121230 METAR LRSV 121230Z 34010KT 310V010 9999 BKN045 06/M05 Q1015=
201903121300 METAR LRSV 121300Z 34014KT 9999 BKN045 06/M04 Q1015=
201903121330 METAR LRSV 121330Z 35011KT 9999 SCT047 04/M04 Q1015=
201903121400 METAR LRSV 121400Z 35012KT 310V020 9999 FEW048 06/M04 Q1015=
201903121430 METAR LRSV 121430Z 34016KT 9999 FEW047 04/M04 Q1015=
201903121500 METAR LRSV 121500Z 33015KT 9999 FEW030 04/M03 Q1015=
201903121530 METAR LRSV 121530Z 33013KT 9999 FEW030 04/M04 Q1016=
201903121600 METAR LRSV 121600Z 33009KT 9999 FEW030 03/M05 Q1016=
201903121630 METAR LRSV 121630Z 33008KT CAVOK 02/M05 Q1016=
201903121700 METAR LRSV 121700Z 32006KT CAVOK 02/M04 Q1017=
201903121730 METAR LRSV 121730Z 33007KT CAVOK 02/M04 Q1017=
201903121800 METAR LRSV 121800Z 32009KT CAVOK 02/M04 Q1017=
201903121830 METAR LRSV 121830Z 32006KT CAVOK 02/M04 Q1018=
201903121900 METAR LRSV 121900Z 32009KT CAVOK 02/M05 Q1018=
201903121930 METAR LRSV 121930Z 33009KT CAVOK 01/M05 Q1018=
201903122000 METAR LRSV 122000Z 33006KT CAVOK 00/M05 Q1018=
201903122030 METAR LRSV 122030Z 33007KT CAVOK M00/M06 Q1018=
201903122100 METAR LRSV 122100Z 32006KT CAVOK M00/M06 Q1019=
201903122130 METAR LRSV 122130Z 33005KT CAVOK 00/M06 Q1019=
201903122200 METAR LRSV 122200Z 31004KT CAVOK M00/M06 Q1019=
201903122230 METAR LRSV 122230Z 31005KT CAVOK M00/M06 Q1018=
201903122300 METAR LRSV 122300Z 29004KT CAVOK M00/M06 Q1018=
201903122330 METAR LRSV 122330Z 28006KT CAVOK M01/M05 Q1018=
201903130000 METAR LRSV 130000Z 28006KT CAVOK M01/M06 Q1018=
201903130030 METAR LRSV 130030Z 29006KT CAVOK M01/M06 Q1018=
201903130100 METAR LRSV 130100Z 30005KT CAVOK M01/M07 Q1018=
201903130130 METAR LRSV 130130Z 30005KT CAVOK M01/M07 Q1018=
201903130200 METAR LRSV 130200Z 28005KT CAVOK M02/M07 Q1017=
201903130230 METAR LRSV 130230Z 25005KT CAVOK M02/M06 Q1017=
201903130300 METAR LRSV 130300Z 25005KT CAVOK M02/M06 Q1017=
201903130330 METAR LRSV 130330Z 25006KT CAVOK M02/M06 Q1017=
201903130400 METAR LRSV 130400Z 24006KT CAVOK M02/M05 Q1017=
201903130430 METAR LRSV 130430Z 24003KT CAVOK M03/M05 Q1017=
201903130500 METAR LRSV 130500Z 23003KT CAVOK M03/M05 Q1016=
201903130530 METAR LRSV 130530Z 21003KT CAVOK M02/M04 Q1016=
201903130600 METAR LRSV 130600Z 21004KT CAVOK M01/M05 Q1017=
201903130630 METAR LRSV 130630Z 18006KT CAVOK 00/M05 Q1017=
201903130700 METAR LRSV 130700Z 19007KT CAVOK 01/M04 Q1016=
201903130730 METAR COR LRSV 130730Z 19008KT CAVOK 02/M04 Q1016=
201903130800 METAR LRSV 130800Z 21008KT CAVOK 03/M06 Q1016=
201903130830 METAR COR LRSV 130830Z 19006KT 140V240 CAVOK 04/M06 Q1016=
201903130900 METAR LRSV 130900Z 22007KT 190V250 CAVOK 05/M05 Q1016=
201903130930 METAR COR LRSV 130930Z 23005KT 190V260 CAVOK 05/M06 Q1015=
201903131000 METAR COR LRSV 131000Z 23005KT 190V260 CAVOK 05/M06 Q1015=
201903131030 METAR LRSV 131030Z VRB06KT CAVOK 07/M07 Q1015=
201903131100 METAR COR LRSV 131100Z VRB04KT CAVOK 08/M08 Q1015=
201903131130 METAR COR LRSV 131130Z VRB05KT CAVOK 09/M08 Q1014=
201903131200 METAR LRSV 131200Z VRB03KT CAVOK 09/M08 Q1014=
201903131230 METAR LRSV 131230Z 17007KT 130V200 CAVOK 08/M09 Q1014=
201903131300 METAR COR LRSV 131300Z 18006KT 150V230 CAVOK 09/M09 Q1013=
201903131330 METAR LRSV 131330Z 17005KT 140V220 CAVOK 09/M09 Q1013=
201903131400 METAR LRSV 131400Z 20008KT 170V240 CAVOK 09/M08 Q1013=
201903131430 METAR LRSV 131430Z 16008KT 130V190 CAVOK 09/M08 Q1013=
201903131500 METAR LRSV 131500Z 15009KT CAVOK 09/M07 Q1013=
201903131530 METAR COR LRSV 131530Z 14011KT CAVOK 07/M06 Q1013=
201903131600 METAR LRSV 131600Z 14010KT CAVOK 06/M06 Q1013=
201903131630 METAR LRSV 131630Z 15009KT CAVOK 06/M06 Q1013=
201903131700 METAR LRSV 131700Z 16010KT CAVOK 05/M06 Q1013=
201903131730 METAR LRSV 131730Z 16008KT CAVOK 04/M06 Q1013=
201903131800 METAR LRSV 131800Z 16009KT CAVOK 04/M06 Q1013=
201903131830 METAR LRSV 131830Z 17009KT CAVOK 04/M06 Q1013=
201903131900 METAR LRSV 131900Z 16010KT CAVOK 04/M05 Q1012=
201903131930 METAR COR LRSV 131930Z 17008KT CAVOK 03/M04 Q1012=
201903132000 METAR LRSV 132000Z 18006KT CAVOK 03/M03 Q1012=
201903132030 METAR LRSV 132030Z 21007KT CAVOK 03/M03 Q1012=
201903132100 METAR LRSV 132100Z 20006KT CAVOK 03/M03 Q1012=
201903132130 METAR LRSV 132130Z 20007KT CAVOK 03/M02 Q1012=
201903132200 METAR LRSV 132200Z 20007KT CAVOK 03/M02 Q1012=
201903132230 METAR LRSV 132230Z 22006KT CAVOK 02/M02 Q1012=
201903132300 METAR LRSV 132300Z 22007KT CAVOK 02/M02 Q1012=
201903132330 METAR LRSV 132330Z 23004KT CAVOK 02/M02 Q1012=
201903140000 METAR LRSV 140000Z 24005KT CAVOK 02/M02 Q1012=
201903140030 METAR LRSV 140030Z 25006KT CAVOK 02/M02 Q1012=
201903140100 METAR LRSV 140100Z 25004KT CAVOK 02/M02 Q1011=
201903140130 METAR LRSV 140130Z 31005KT CAVOK 03/M04 Q1011=
201903140200 METAR LRSV 140200Z 34004KT CAVOK 03/M04 Q1011=
201903140230 METAR LRSV 140230Z 35005KT CAVOK 03/M05 Q1011=
201903140300 METAR LRSV 140300Z 01003KT CAVOK 02/M04 Q1011=
201903140330 METAR LRSV 140330Z VRB02KT CAVOK 02/M04 Q1011=
201903140400 METAR LRSV 140400Z 00000KT CAVOK 01/M04 Q1010=
201903140430 METAR LRSV 140430Z 00000KT CAVOK 01/M03 Q1010=
201903140500 METAR LRSV 140500Z 00000KT CAVOK 02/M03 Q1010=
201903140530 METAR LRSV 140530Z 00000KT CAVOK 02/M02 Q1011=
201903140600 METAR LRSV 140600Z 26002KT CAVOK 03/M02 Q1011=
201903140630 METAR LRSV 140630Z 24003KT CAVOK 03/M02 Q1010=
201903140700 METAR LRSV 140700Z VRB02KT CAVOK 04/M02 Q1010=
201903140730 METAR LRSV 140730Z 15004KT CAVOK 05/M03 Q1010=
201903140800 METAR LRSV 140800Z 16005KT 130V200 CAVOK 05/M02 Q1010=
201903140830 METAR LRSV 140830Z 14005KT 110V170 CAVOK 05/M02 Q1010=
201903140900 METAR LRSV 140900Z 16005KT 060V210 CAVOK 06/M02 Q1010=
201903140930 METAR LRSV 140930Z 13006KT 100V190 CAVOK 07/M03 Q1009=
201903141000 METAR LRSV 141000Z 13007KT 070V160 CAVOK 08/M03 Q1009=
201903141030 METAR LRSV 141030Z 13006KT 080V160 CAVOK 08/M04 Q1009=
201903141100 METAR LRSV 141100Z 11005KT 050V180 9999 FEW040 08/M05 Q1009=
201903141130 METAR LRSV 141130Z 08006KT 010V120 9999 FEW040 09/M05 Q1008=
201903141200 METAR LRSV 141200Z 11007KT 080V140 9999 FEW040 09/M06 Q1008=
201903141230 METAR COR LRSV 141230Z 12006KT 090V160 9999 FEW040 09/M06
                        Q1008=
201903141300 METAR LRSV 141300Z 16008KT 120V180 9999 FEW045 09/M06 Q1007=
201903141330 METAR LRSV 141330Z VRB01KT 9999 FEW045 09/M06 Q1007=
201903141400 METAR COR LRSV 141400Z 00000KT 9999 FEW045 08/M06 Q1007=
201903141430 METAR LRSV 141430Z VRB01KT 9999 FEW045 08/M06 Q1007=
201903141500 METAR LRSV 141500Z 27004KT 230V010 9999 FEW007 SCT045 08/M04
                        Q1007=
201903141530 METAR LRSV 141530Z 20005KT 9999 FEW007 SCT045 07/M04 Q1007=
201903141600 METAR LRSV 141600Z 30004KT 270V330 9999 FEW045 07/M05 Q1007=
201903141630 METAR LRSV 141630Z 29004KT CAVOK 07/M03 Q1007=
201903141700 METAR LRSV 141700Z 33003KT CAVOK 06/M04 Q1007=
201903141730 METAR LRSV 141730Z 34005KT CAVOK 06/M04 Q1007=
201903141800 METAR LRSV 141800Z 31005KT CAVOK 05/M04 Q1007=
201903141830 METAR LRSV 141830Z 30005KT CAVOK 05/M03 Q1007=
201903141900 METAR LRSV 141900Z 29006KT CAVOK 05/M03 Q1006=
201903141930 METAR LRSV 141930Z 27005KT CAVOK 04/M03 Q1006=
201903142000 METAR LRSV 142000Z 26005KT CAVOK 04/M03 Q1006=
201903142030 METAR LRSV 142030Z 26005KT CAVOK 04/M04 Q1006=
201903142100 METAR LRSV 142100Z 26007KT CAVOK 03/M04 Q1006=
201903142130 METAR LRSV 142130Z 27007KT CAVOK 02/M04 Q1006=
201903142200 METAR LRSV 142200Z 25006KT CAVOK 03/M04 Q1005=
201903142230 METAR LRSV 142230Z 23006KT CAVOK 02/M04 Q1005=
201903142300 METAR LRSV 142300Z 23006KT CAVOK 01/M04 Q1006=
201903142330 METAR LRSV 142330Z 22006KT CAVOK 01/M04 Q1005=
201903150000 METAR LRSV 150000Z 23007KT CAVOK 00/M04 Q1005=
201903150030 METAR LRSV 150030Z 23008KT CAVOK 01/M04 Q1005=
201903150100 METAR LRSV 150100Z 23007KT CAVOK 01/M03 Q1005=
201903150130 METAR LRSV 150130Z 24008KT CAVOK 02/M03 Q1005=
201903150200 METAR LRSV 150200Z 24008KT CAVOK 02/M03 Q1005=
201903150230 METAR LRSV 150230Z 24006KT CAVOK 01/M03 Q1005=
201903150300 METAR LRSV 150300Z 25005KT CAVOK 01/M03 Q1005=
201903150330 METAR LRSV 150330Z 25006KT CAVOK 02/M03 Q1005=
201903150400 METAR LRSV 150400Z 25006KT CAVOK 02/M03 Q1005=
201903150430 METAR LRSV 150430Z 25006KT CAVOK 02/M03 Q1005=
201903150500 METAR LRSV 150500Z 24005KT CAVOK 02/M03 Q1005=
201903150530 METAR LRSV 150530Z 25006KT CAVOK 02/M03 Q1005=
201903150600 METAR LRSV 150600Z 24005KT CAVOK 03/M02 Q1005=
201903150630 METAR LRSV 150630Z 25005KT CAVOK 03/M02 Q1005=
201903150700 METAR LRSV 150700Z 21006KT CAVOK 04/M02 Q1005=
201903150730 METAR COR LRSV 150730Z 21006KT CAVOK 06/M01 Q1005=
201903150800 METAR LRSV 150800Z 23010KT CAVOK 07/M02 Q1005=
201903150830 METAR LRSV 150830Z 22009KT CAVOK 08/M03 Q1005=
201903150900 METAR LRSV 150900Z 22007KT 180V260 CAVOK 08/M02 Q1005=
201903150930 METAR LRSV 150930Z 20003KT 130V260 9999 FEW040 09/M03 Q1005=
201903151000 METAR LRSV 151000Z 23010KT 9999 FEW040 10/M04 Q1004=
201903151030 METAR LRSV 151030Z 23014KT 9999 FEW040 11/M04 Q1004=
201903151100 METAR LRSV 151100Z 24014KT 9999 FEW040 10/M05 Q1004=
201903151130 METAR LRSV 151130Z 24012KT 220V290 CAVOK 10/M05 Q1004=
201903151200 METAR LRSV 151200Z 26012KT CAVOK 10/M05 Q1004=
201903151230 METAR LRSV 151230Z 24009KT CAVOK 10/M04 Q1004=
201903151300 METAR LRSV 151300Z 25012KT CAVOK 11/M04 Q1004=
201903151330 METAR LRSV 151330Z 24011KT 210V270 CAVOK 10/M04 Q1004=
201903151400 METAR LRSV 151400Z 25008KT CAVOK 10/M05 Q1004=
201903151430 METAR LRSV 151430Z 25015KT CAVOK 10/M04 Q1004=
201903151500 METAR LRSV 151500Z 26013KT CAVOK 09/M03 Q1004=
201903151530 METAR LRSV 151530Z 26011KT CAVOK 09/M03 Q1004=
201903151600 METAR LRSV 151600Z 27009KT CAVOK 08/M03 Q1004=
201903151630 METAR LRSV 151630Z 27008KT CAVOK 08/M02 Q1005=
201903151700 METAR LRSV 151700Z 27008KT CAVOK 08/M02 Q1005=
201903151730 METAR LRSV 151730Z 27010KT CAVOK 08/M02 Q1005=
201903151800 METAR LRSV 151800Z 27007KT CAVOK 07/M02 Q1005=
201903151830 METAR LRSV 151830Z 26006KT CAVOK 07/M02 Q1005=
201903151900 METAR LRSV 151900Z 26007KT CAVOK 06/M02 Q1006=
201903151930 METAR LRSV 151930Z 26009KT CAVOK 06/M02 Q1006=
201903152000 METAR LRSV 152000Z 26006KT CAVOK 06/M01 Q1006=
201903152030 METAR LRSV 152030Z 26006KT CAVOK 05/M01 Q1006=
201903152100 METAR LRSV 152100Z 25004KT CAVOK 05/M01 Q1006=
201903152130 METAR LRSV 152130Z 23005KT CAVOK 04/M02 Q1005=
201903152200 METAR LRSV 152200Z 24004KT CAVOK 03/M02 Q1005=
201903152230 METAR LRSV 152230Z 23007KT CAVOK 03/M02 Q1005=
201903152300 METAR LRSV 152300Z 24008KT CAVOK 03/M02 Q1005=
201903152330 METAR LRSV 152330Z 22005KT CAVOK 04/M02 Q1005=
201903160000 METAR LRSV 160000Z 25006KT CAVOK 03/M02 Q1005=
201903160030 METAR LRSV 160030Z 24007KT CAVOK 02/M02 Q1004=
201903160100 METAR LRSV 160100Z 24007KT CAVOK 03/M02 Q1003=
201903160130 METAR LRSV 160130Z 21006KT CAVOK 02/M02 Q1003=
201903160200 METAR LRSV 160200Z 19007KT CAVOK 02/M03 Q1002=
201903160230 METAR LRSV 160230Z 21007KT CAVOK 02/M02 Q1002=
201903160300 METAR LRSV 160300Z 20010KT CAVOK 02/M02 Q1002=
201903160330 METAR LRSV 160330Z 21010KT CAVOK 03/M02 Q1001=
201903160400 METAR LRSV 160400Z 21011KT CAVOK 03/M02 Q1001=
201903160430 METAR LRSV 160430Z 20012KT CAVOK 03/M02 Q1000=
201903160500 METAR COR LRSV 160500Z 22010KT CAVOK 04/M01 Q1000=
201903160530 METAR COR LRSV 160530Z 23009KT 9999 -RA SCT041 04/M00 Q1000=
201903160600 METAR LRSV 160600Z 22004KT 9999 BKN038 04/00 Q1000=
201903160630 METAR COR LRSV 160630Z 21007KT 9999 -RA BKN040 05/00 Q1000
                        R16/29//95=
201903160700 METAR LRSV 160700Z 22011KT 9999 SCT042 06/00 Q0999 R16/29//95=
201903160730 METAR LRSV 160730Z 21006KT 170V260 9999 SCT043 06/01 Q0999
                        R16/29//95=
201903160800 METAR LRSV 160800Z 21008KT 9999 SCT045 06/01 Q0999 R16/29//95=
201903160830 METAR COR LRSV 160830Z 21008KT 9999 SCT045 06/01 Q0999 R16/29//95=
201903160900 METAR LRSV 160900Z 33015KT 8000 -RA BKN028 05/03 Q1001 R16/29//95=
201903160930 METAR LRSV 160930Z 29008KT 9999 -RA BKN026 05/02 Q1001 R16/29//95=
201903161000 METAR LRSV 161000Z 27008KT 9999 -RA BKN025 05/03 Q1001 R16/29//95=
201903161030 METAR LRSV 161030Z 29009KT 9999 SCT033 06/04 Q1001 R16/29//95=
201903161100 METAR COR LRSV 161100Z 33020G31KT 9999 FEW030CB SCT035 04/02
                        Q1002 R16/29//95=
201903161130 METAR LRSV 161130Z 32016G26KT 9999 FEW030CB SCT035 05/02
                        Q1001 R16/29//95=
201903161200 METAR LRSV 161200Z 29013KT 9999 FEW035CB 07/02 Q1001 R16/29//95=
201903161230 METAR COR LRSV 161230Z 33028KT 9999 -SHRA SCT013 BKN030CB
                        04/01 Q1003 R16/29//95=
201903161300 METAR LRSV 161300Z 33006KT 9999 FEW012 SCT030CB 06/02 Q1002
                        R16/29//95=
201903161330 METAR COR LRSV 161330Z 35014KT 9999 SCT033CB 07/02 Q1003
                        R16/29//95=
201903161400 METAR LRSV 161400Z 30013KT 9999 SCT033CB 06/02 Q1003 R16/29//95=
201903161430 METAR LRSV 161430Z 31014KT 9999 BKN030CB 06/01 Q1004 R16/29//95=
201903161500 METAR LRSV 161500Z 29012KT 9999 SCT030CB 05/01 Q1004 R16/29//95=
201903161530 METAR LRSV 161530Z 32013KT 9999 FEW035CB 06/01 Q1004 R16/29//95=
201903161600 METAR LRSV 161600Z 32016G26KT 9999 FEW040CB 06/M00 Q1005
                        R16/29//95=
201903161630 METAR LRSV 161630Z 31012KT 9999 FEW043CB 06/M00 Q1006 R16/29//95=
201903161700 METAR LRSV 161700Z 31011KT 9999 FEW046 06/M00 Q1006 R16/29//95=
201903161730 METAR LRSV 161730Z 31013G23KT 9999 -SHRA FEW020 FEW040CB
                        SCT046 05/M00 Q1007 R16/29//95=
201903161800 METAR LRSV 161800Z 30012KT 9999 FEW048 05/M01 Q1007 R16/29//95=
201903161830 METAR LRSV 161830Z 29010KT 9999 FEW048 05/M00 Q1007 R16/29//95=
201903161900 METAR LRSV 161900Z 29009KT 9999 FEW048 05/M01 Q1008 R16/29//95=
201903161930 METAR LRSV 161930Z 29008KT CAVOK 05/M01 Q1008 R16/29//95=
201903162000 METAR LRSV 162000Z 33005KT 290V350 CAVOK 05/M01 Q1008 R16/29//95=
201903162030 METAR LRSV 162030Z 29006KT CAVOK 04/M01 Q1009 R16/CLRD//=
201903162100 METAR LRSV 162100Z 26008KT CAVOK 04/M01 Q1009=
201903162130 METAR LRSV 162130Z 26007KT CAVOK 04/M01 Q1009=
201903162200 METAR LRSV 162200Z 27010KT CAVOK 04/M02 Q1010=
201903162230 METAR LRSV 162230Z 28010KT CAVOK 04/M03 Q1010=
201903162300 METAR LRSV 162300Z 28011KT CAVOK 04/M03 Q1010=
201903162330 METAR LRSV 162330Z 28011KT CAVOK 04/M03 Q1010=
201903170000 METAR LRSV 170000Z 27010KT CAVOK 04/M03 Q1010=
201903170030 METAR LRSV 170030Z 26007KT CAVOK 03/M03 Q1010=
201903170100 METAR LRSV 170100Z 27009KT CAVOK 04/M03 Q1010=
201903170130 METAR LRSV 170130Z 26008KT CAVOK 03/M03 Q1010=
201903170200 METAR LRSV 170200Z 26008KT CAVOK 03/M03 Q1010=
201903170230 METAR LRSV 170230Z 26007KT CAVOK 04/M03 Q1010=
201903170300 METAR LRSV 170300Z 25007KT CAVOK 03/M03 Q1010=
201903170330 METAR LRSV 170330Z 25006KT CAVOK 03/M03 Q1011=
201903170400 METAR LRSV 170400Z 26007KT CAVOK 03/M02 Q1011=
201903170430 METAR LRSV 170430Z 26007KT CAVOK 03/M02 Q1011=
201903170500 METAR LRSV 170500Z 25007KT CAVOK 03/M01 Q1011=
201903170530 METAR LRSV 170530Z 24006KT CAVOK 03/M01 Q1011=
201903170600 METAR LRSV 170600Z 24006KT CAVOK 04/M00 Q1011=
201903170630 METAR LRSV 170630Z 24006KT CAVOK 04/M00 Q1011=
201903170700 METAR LRSV 170700Z 23006KT CAVOK 05/00 Q1012=
201903170730 METAR LRSV 170730Z 22006KT CAVOK 07/01 Q1012=
201903170800 METAR LRSV 170800Z 21007KT 9999 SCT047 07/01 Q1012=
201903170830 METAR LRSV 170830Z 19006KT CAVOK 08/02 Q1012=
201903170900 METAR LRSV 170900Z 19007KT CAVOK 09/03 Q1012=
201903170930 METAR LRSV 170930Z 21007KT 180V240 CAVOK 10/03 Q1012=
201903171000 METAR LRSV 171000Z 21006KT 180V240 CAVOK 11/03 Q1012=
201903171030 METAR LRSV 171030Z 21004KT 120V250 CAVOK 13/04 Q1011=
201903171100 METAR LRSV 171100Z 23005KT 180V270 CAVOK 14/03 Q1011=
201903171130 METAR LRSV 171130Z 24007KT 200V280 CAVOK 15/04 Q1011=
201903171200 METAR LRSV 171200Z 23010KT 200V260 CAVOK 15/04 Q1010=
201903171230 METAR LRSV 171230Z 23007KT CAVOK 15/04 Q1010=
201903171300 METAR LRSV 171300Z 24006KT 190V290 CAVOK 15/03 Q1010=
201903171330 METAR LRSV 171330Z 23012KT 210V270 CAVOK 15/04 Q1010=
201903171400 METAR LRSV 171400Z 23012KT CAVOK 16/04 Q1010=
201903171430 METAR LRSV 171430Z 22011KT 190V250 CAVOK 15/03 Q1009=
201903171500 METAR LRSV 171500Z 24012KT CAVOK 14/03 Q1010=
201903171530 METAR LRSV 171530Z 23010KT CAVOK 15/03 Q1010=
201903171600 METAR LRSV 171600Z 24008KT CAVOK 14/03 Q1010=
201903171630 METAR LRSV 171630Z 23007KT CAVOK 12/03 Q1010=
201903171700 METAR LRSV 171700Z 23008KT CAVOK 11/03 Q1010=
201903171730 METAR LRSV 171730Z 24008KT CAVOK 10/03 Q1010=
201903171800 METAR LRSV 171800Z 24010KT CAVOK 10/03 Q1010=
201903171830 METAR COR LRSV 171830Z 25008KT CAVOK 09/03 Q1011=
201903171900 METAR LRSV 171900Z 26008KT CAVOK 10/03 Q1010=
201903171930 METAR LRSV 171930Z 25007KT CAVOK 08/02 Q1010=
201903172000 METAR LRSV 172000Z 25008KT CAVOK 09/02 Q1010=
201903172030 METAR LRSV 172030Z 21003KT CAVOK 08/02 Q1010=
201903172100 METAR LRSV 172100Z 24008KT CAVOK 08/02 Q1010=
201903172130 METAR COR LRSV 172130Z 23008KT CAVOK 07/02 Q1010=
201903172200 METAR LRSV 172200Z 24010KT CAVOK 08/02 Q1010=
201903172230 METAR LRSV 172230Z 24009KT CAVOK 07/02 Q1010=
201903172300 METAR LRSV 172300Z 24008KT CAVOK 08/02 Q1011=
201903172330 METAR LRSV 172330Z 24010KT CAVOK 07/02 Q1011=
201903180000 METAR LRSV 180000Z 26009KT CAVOK 08/01 Q1011=
201903180030 METAR COR LRSV 180030Z 24008KT CAVOK 06/01 Q1010=
201903180100 METAR COR LRSV 180100Z 24010KT CAVOK 06/01 Q1010=
201903180130 METAR LRSV 180130Z 23008KT CAVOK 06/01 Q1010=
201903180200 METAR LRSV 180200Z 24009KT CAVOK 04/00 Q1010=
201903180230 METAR LRSV 180230Z 24010KT CAVOK 04/M00 Q1010=
201903180300 METAR COR LRSV 180300Z 23008KT 180V240 CAVOK 06/M01 Q1010=
201903180330 METAR COR LRSV 180330Z 23007KT CAVOK 06/M01 Q1010=
201903180400 METAR COR LRSV 180400Z 23008KT CAVOK 05/M01 Q1010=
201903180430 METAR LRSV 180430Z 23006KT CAVOK 05/M01 Q1010=
201903180500 METAR LRSV 180500Z 20006KT CAVOK 05/M01 Q1010=
201903180530 METAR LRSV 180530Z 22008KT CAVOK 06/00 Q1010=
201903180600 METAR LRSV 180600Z 23007KT CAVOK 08/01 Q1010=
201903180630 METAR LRSV 180630Z 22006KT CAVOK 09/01 Q1010=
201903180700 METAR LRSV 180700Z 21006KT CAVOK 10/01 Q1010=
201903180730 METAR LRSV 180730Z 21006KT CAVOK 12/02 Q1010=
201903180800 METAR LRSV 180800Z 18006KT 150V210 CAVOK 14/03 Q1010=
201903180830 METAR LRSV 180830Z 16008KT CAVOK 15/02 Q1010=
201903180900 METAR LRSV 180900Z 18008KT CAVOK 17/03 Q1010=
201903180930 METAR LRSV 180930Z 16007KT 130V200 CAVOK 19/02 Q1010=
201903181000 METAR LRSV 181000Z 18011KT CAVOK 20/01 Q1010=
201903181030 METAR LRSV 181030Z 17010KT CAVOK 21/01 Q1010=
201903181100 METAR LRSV 181100Z 20010KT 160V230 CAVOK 22/03 Q1010=
201903181130 METAR LRSV 181130Z 20008KT 160V220 CAVOK 22/01 Q1010=
201903181200 METAR LRSV 181200Z 23008KT 180V250 CAVOK 22/01 Q1010=
201903181230 METAR LRSV 181230Z VRB04KT CAVOK 22/01 Q1010=
201903181300 METAR LRSV 181300Z 23013KT CAVOK 22/02 Q1009=
201903181330 METAR LRSV 181330Z 22011KT 190V250 CAVOK 21/02 Q1010=
201903181400 METAR LRSV 181400Z 24009KT 210V270 CAVOK 21/01 Q1010=
201903181430 METAR LRSV 181430Z 30004KT CAVOK 20/02 Q1010=
201903181500 METAR LRSV 181500Z 33006KT CAVOK 19/01 Q1010=
201903181530 METAR LRSV 181530Z 33012KT CAVOK 17/04 Q1010=
201903181600 METAR LRSV 181600Z 35014KT CAVOK 15/05 Q1011=
201903181630 METAR LRSV 181630Z 35014KT CAVOK 14/04 Q1012=
201903181700 METAR LRSV 181700Z 34016KT CAVOK 13/05 Q1012=
201903181730 METAR LRSV 181730Z 34014KT CAVOK 13/05 Q1013=
201903181800 METAR LRSV 181800Z 35014KT CAVOK 12/05 Q1013=
201903181830 METAR LRSV 181830Z 34014KT CAVOK 11/05 Q1013=
201903181900 METAR LRSV 181900Z 34015KT CAVOK 10/05 Q1014=
201903181930 METAR LRSV 181930Z 34016KT CAVOK 10/05 Q1014=
201903182000 METAR LRSV 182000Z 34013KT CAVOK 09/04 Q1015=
201903182030 METAR LRSV 182030Z 33011KT CAVOK 09/04 Q1015=
201903182200 METAR LRSV 182200Z 32009KT CAVOK 07/04 Q1015=
201903182230 METAR LRSV 182230Z 33010KT CAVOK 06/03 Q1015=
201903182300 METAR LRSV 182300Z 32008KT CAVOK 06/03 Q1016=
201903182330 METAR LRSV 182330Z 32007KT CAVOK 06/03 Q1016=
201903190000 METAR LRSV 190000Z 31008KT CAVOK 05/03 Q1016=
201903190030 METAR LRSV 190030Z 32014KT CAVOK 05/03 Q1017=
201903190100 METAR LRSV 190100Z 33011KT CAVOK 05/03 Q1016=
201903190130 METAR LRSV 190130Z 34010KT CAVOK 05/03 Q1016=
201903190200 METAR COR LRSV 190200Z 34010KT CAVOK 05/03 Q1016=
201903190230 METAR LRSV 190230Z 33017KT CAVOK 04/03 Q1017=
201903190300 METAR LRSV 190300Z 34015KT CAVOK 05/03 Q1017=
201903190330 METAR LRSV 190330Z 33015KT CAVOK 04/03 Q1018=
201903190400 METAR LRSV 190400Z 33013KT CAVOK 04/03 Q1018=
201903190430 METAR LRSV 190430Z 33015KT CAVOK 04/03 Q1018=
201903190500 METAR LRSV 190500Z 33015KT 9999 FEW028 05/03 Q1018=
201903190530 METAR LRSV 190530Z 34014KT 9999 FEW029 05/03 Q1019=
201903190600 METAR LRSV 190600Z 33011KT 9999 SCT030 05/03 Q1020=
201903190630 METAR COR LRSV 190630Z 34012KT 9999 -RA FEW011 BKN030 05/03
                        Q1020=
201903190700 METAR LRSV 190700Z 34007KT 7000 -RA SCT011 BKN029 05/03 Q1020=
201903190730 METAR LRSV 190730Z 33008KT 9000 SCT011 BKN023 05/03 Q1021=
201903190800 METAR LRSV 190800Z 35007KT 8000 SCT010 BKN026 05/03 Q1021
                        R16/29//95=
201903190830 METAR LRSV 190830Z 35010KT 8000 SCT010 BKN026 06/04 Q1020
                        R16/29//95=
201903190900 METAR LRSV 190900Z 34011KT 9999 SCT013 BKN025 07/03 Q1021
                        R16/29//95=
201903190930 METAR LRSV 190930Z 35009KT 9999 SCT014 BKN024 07/03 Q1021
                        R16/29//95=
201903191000 METAR LRSV 191000Z 36009KT 9999 SCT019 BKN022 07/03 Q1021
                        R16/CLRD//=
201903191030 METAR LRSV 191030Z 33009KT 9999 BKN019 07/03 Q1021=
201903191100 METAR LRSV 191100Z 35011KT 9999 BKN022 08/03 Q1021=
201903191130 METAR LRSV 191130Z 36009KT 320V030 9999 BKN023 07/02 Q1021=
201903191200 METAR LRSV 191200Z 35009KT 9999 BKN024 08/02 Q1021=
201903191230 METAR LRSV 191230Z 33010KT 9999 BKN026 07/02 Q1021=
201903191300 METAR LRSV 191300Z 32008KT 9999 BKN027 07/03 Q1021=
201903191330 METAR COR LRSV 191330Z 32008KT 9999 BKN027 07/03 Q1021=
201903191400 METAR COR LRSV 191400Z 32008KT 9999 BKN031 07/02 Q1022=
201903191430 METAR LRSV 191430Z 33009KT 9999 BKN036 07/02 Q1022=
201903191500 METAR LRSV 191500Z 32009KT 9999 BKN032 07/02 Q1022=
201903191530 METAR LRSV 191530Z 33009KT 9999 BKN031 06/03 Q1022=
201903191600 METAR COR LRSV 191600Z 32010KT 9999 BKN029 05/02 Q1022=
201903191630 METAR LRSV 191630Z 32009KT 9999 -RA OVC029 05/02 Q1023=
201903191700 METAR LRSV 191700Z 32011KT 6000 -SHRA SCT026CB BKN030 04/03
                        Q1023 R16/29//95=
201903191730 METAR LRSV 191730Z 33010KT 7000 -SHRA SCT026CB BKN033 04/03
                        Q1023 R16/29//95=
201903191800 METAR LRSV 191800Z 33010KT 5000 -SHRA SCT026CB BKN032 03/02
                        Q1023 R16/29//95=
201903191830 METAR LRSV 191830Z 33011KT 5000 -SHRA SCT026CB BKN035 03/02
                        Q1024 R16/29//95=
201903191900 METAR COR LRSV 191900Z 32011KT 5000 -SHRA SCT025CB BKN030
                        03/02 Q1024 R16/29//95=
201903191930 METAR LRSV 191930Z 31008KT 6000 -SHRA SCT023CB BKN031 03/02
                        Q1024 R16/29//95=
201903192000 METAR LRSV 192000Z 31008KT 8000 -RA BKN025 03/02 Q1024 R16/29//95=
201903192030 METAR LRSV 192030Z 33009KT 7000 -RA BKN025 03/02 Q1024 R16/29//95=
201903192100 METAR LRSV 192100Z 32008KT 7000 -RA BKN028 02/02 Q1025 R16/29//95=
201903192130 METAR LRSV 192130Z 33010KT 8000 OVC032 02/02 Q1025 R16/29//95=
201903192200 METAR LRSV 192200Z 32010KT 7000 FEW014 BKN031 02/02 Q1025
                        R16/29//95=
201903192230 METAR LRSV 192230Z 33010KT 7000 -RA BKN026 OVC034 03/02 Q1025
                        R16/29//95=
201903192300 METAR LRSV 192300Z 33010KT 6000 -RA SCT013 BKN032 03/02 Q1025
                        R16/29//95=
201903192330 METAR LRSV 192330Z 31006KT 5000 -RA BKN015 02/02 Q1025 R16/29//95=
201903200000 METAR LRSV 200000Z 31007KT 8000 -RA SCT015 BKN022 03/02 Q1025
                        R16/29//95=
201903200030 METAR COR LRSV 200030Z 32007KT 7000 FEW015 BKN024 03/02 Q1025
                        R16/29//95=
201903200100 METAR LRSV 200100Z 32008KT 7000 -RA SCT014 BKN023 03/02 Q1025
                        R16/29//95=
201903200130 METAR LRSV 200130Z 32008KT 7000 -RA SCT018 BKN023 03/02 Q1025
                        R16/29//95=
201903200200 METAR LRSV 200200Z 32009KT 8000 SCT019 OVC022 03/02 Q1026
                        R16/29//95=
201903200230 METAR LRSV 200230Z 32009KT 9999 BKN022 03/02 Q1026 R16/29//95=
201903200300 METAR LRSV 200300Z 32010KT 9999 -DZ SCT018 OVC023 03/02 Q1026
                        R16/29//95=
201903200330 METAR LRSV 200330Z 33010KT 8000 -RA SCT017 BKN028 03/02 Q1026
                        R16/29//95=
201903200400 METAR LRSV 200400Z 32010KT 9999 FEW017 BKN027 03/02 Q1026
                        R16/29//95=
201903200430 METAR LRSV 200430Z 32011KT 9999 FEW017 BKN025 03/02 Q1026
                        R16/29//95=
201903200500 METAR LRSV 200500Z 33009KT 9999 BKN028 03/02 Q1027 R16/29//95=
201903200530 METAR LRSV 200530Z 32009KT 9999 BKN030 03/02 Q1027 R16/29//95=
201903200600 METAR LRSV 200600Z 33010KT 9999 BKN038 03/02 Q1027 R16/29//95=
201903200630 METAR LRSV 200630Z 32011KT 9999 BKN036 04/02 Q1028 R16/29//95=
201903200700 METAR LRSV 200700Z 34011KT 9999 BKN037 04/02 Q1028 R16/29//95=
201903200730 METAR LRSV 200730Z 34010KT 9999 BKN038 04/02 Q1028 R16/29//95=
201903200800 METAR LRSV 200800Z 33010KT 9999 BKN038 04/01 Q1029 R16/29//95=
201903200830 METAR LRSV 200830Z 34010KT 9999 BKN039 04/01 Q1029 R16/29//95=
201903200900 METAR COR LRSV 200900Z 32011KT 9999 BKN035 04/01 Q1029 R16/29//95=
201903200930 METAR LRSV 200930Z 33011KT 9999 BKN040 04/01 Q1029 R16/29//95=
201903201000 METAR LRSV 201000Z 33013KT 9999 BKN047 04/01 Q1030 R16/29//95=
201903201030 METAR COR LRSV 201030Z 33014KT 9999 BKN049 04/01 Q1030 R16/29//95=
201903201100 METAR LRSV 201100Z 33013KT CAVOK 04/01 Q1030 R16/29//95=
201903201130 METAR COR LRSV 201130Z 33011KT CAVOK 05/01 Q1030 R16/19//95=
201903201200 METAR LRSV 201200Z 33011KT CAVOK 05/01 Q1030 R16/19//95=
201903201230 METAR LRSV 201230Z 32012KT CAVOK 05/01 Q1030 R16/19//95=
201903201300 METAR LRSV 201300Z 33012KT CAVOK 05/02 Q1030 R16/19//95=
201903201330 METAR COR LRSV 201330Z 32011KT 9999 BKN047 05/01 Q1030 R16/19//95=
201903201400 METAR LRSV 201400Z 33009KT 9999 BKN047 05/01 Q1030 R16/19//95=
201903201430 METAR LRSV 201430Z 33011KT 9999 BKN047 05/01 Q1030 R16/19//95=
201903201500 METAR LRSV 201500Z 32009KT CAVOK 05/01 Q1030 R16/19//95=
201903201530 METAR LRSV 201530Z 32010KT CAVOK 05/01 Q1030 R16/19//95=
201903201600 METAR LRSV 201600Z 33009KT CAVOK 05/01 Q1030 R16/19//95=
201903201630 METAR LRSV 201630Z 31007KT 9999 SCT047 05/01 Q1031 R16/CLRD//=
201903201700 METAR LRSV 201700Z 30008KT 9999 BKN048 04/01 Q1031=
201903201730 METAR LRSV 201730Z 29009KT CAVOK 04/01 Q1031=
201903201800 METAR LRSV 201800Z 29008KT CAVOK 04/01 Q1031=
201903201830 METAR LRSV 201830Z 29008KT CAVOK 04/01 Q1031=
201903201900 METAR LRSV 201900Z 30008KT CAVOK 04/00 Q1031=
201903201930 METAR LRSV 201930Z 30007KT CAVOK 03/M00 Q1032=
201903202000 METAR LRSV 202000Z 30007KT CAVOK 03/M00 Q1032=
201903202030 METAR LRSV 202030Z 30008KT CAVOK 03/M00 Q1032=
201903202100 METAR COR LRSV 202100Z 32009KT CAVOK 04/M00 Q1032=
201903202130 METAR COR LRSV 202130Z 32010KT CAVOK 04/M01 Q1032=
201903202200 METAR LRSV 202200Z 31008KT CAVOK 03/M01 Q1032=
201903202230 METAR LRSV 202230Z 31007KT CAVOK 03/M01 Q1032=
201903202300 METAR LRSV 202300Z 31008KT CAVOK 03/M01 Q1032=
201903202330 METAR LRSV 202330Z 31008KT CAVOK 03/M01 Q1032=
201903210000 METAR LRSV 210000Z 32007KT CAVOK 03/M01 Q1032=
201903210030 METAR LRSV 210030Z 31007KT CAVOK 03/M01 Q1032=
201903210100 METAR LRSV 210100Z 32008KT CAVOK 03/M02 Q1032=
201903210130 METAR LRSV 210130Z 31009KT CAVOK 03/M02 Q1031=
201903210200 METAR LRSV 210200Z 31008KT CAVOK 03/M02 Q1031=
201903210230 METAR LRSV 210230Z 32009KT CAVOK 03/M02 Q1032=
201903210300 METAR LRSV 210300Z 32007KT CAVOK 02/M02 Q1031=
201903210330 METAR COR LRSV 210330Z 32007KT CAVOK 02/M02 Q1031=
201903210400 METAR LRSV 210400Z 31008KT CAVOK 02/M02 Q1032=
201903210430 METAR LRSV 210430Z 31008KT CAVOK 02/M02 Q1032=
201903210500 METAR LRSV 210500Z 31008KT CAVOK 02/M02 Q1032=
201903210530 METAR LRSV 210530Z 30009KT CAVOK 02/M02 Q1032=
201903210600 METAR LRSV 210600Z 28007KT CAVOK 03/M01 Q1032=
201903210630 METAR LRSV 210630Z 28008KT CAVOK 03/M01 Q1032=
201903210700 METAR LRSV 210700Z 28009KT CAVOK 04/M02 Q1032=
201903210730 METAR LRSV 210730Z 29007KT 270V330 CAVOK 05/M03 Q1032=
201903210800 METAR LRSV 210800Z 27006KT 240V300 CAVOK 06/M02 Q1032=
201903210830 METAR LRSV 210830Z 28009KT CAVOK 07/M03 Q1032=
201903210900 METAR LRSV 210900Z 28010KT 260V320 CAVOK 07/M04 Q1032=
201903210930 METAR LRSV 210930Z 33007KT 300V360 CAVOK 07/M04 Q1032=
201903211000 METAR LRSV 211000Z 30008KT CAVOK 07/M05 Q1031=
201903211030 METAR LRSV 211030Z 29009KT 240V320 CAVOK 09/M03 Q1031=
201903211100 METAR LRSV 211100Z 27009KT 240V310 CAVOK 09/M04 Q1031=
201903211130 METAR LRSV 211130Z 28009KT CAVOK 09/M03 Q1030=
201903211200 METAR LRSV 211200Z 27010KT CAVOK 09/M03 Q1030=
201903211230 METAR LRSV 211230Z 31009KT 280V350 CAVOK 10/M04 Q1030=
201903211300 METAR LRSV 211300Z 31008KT 280V340 CAVOK 11/M02 Q1030=
201903211330 METAR LRSV 211330Z 30010KT CAVOK 10/M02 Q1030=
201903211400 METAR LRSV 211400Z 29008KT CAVOK 10/M03 Q1029=
201903211430 METAR LRSV 211430Z 31009KT CAVOK 10/M04 Q1029=
201903211500 METAR LRSV 211500Z 32011KT CAVOK 10/M04 Q1029=
201903211530 METAR LRSV 211530Z 31008KT CAVOK 10/M04 Q1029=
201903211600 METAR LRSV 211600Z 31007KT CAVOK 09/M03 Q1029=
201903211630 METAR LRSV 211630Z 33005KT CAVOK 08/M03 Q1029=
201903211700 METAR LRSV 211700Z 32007KT CAVOK 09/M03 Q1029=
201903211730 METAR LRSV 211730Z 33006KT 9999 FEW040 08/M01 Q1029=
201903211800 METAR LRSV 211800Z 33005KT CAVOK 08/M01 Q1029=
201903211830 METAR COR LRSV 211830Z 33006KT CAVOK 08/M01 Q1029=
201903211900 METAR LRSV 211900Z 34006KT CAVOK 07/M00 Q1030=
201903211930 METAR LRSV 211930Z 33011KT CAVOK 07/01 Q1030=
201903212000 METAR LRSV 212000Z 32011KT CAVOK 08/02 Q1030=
201903212030 METAR COR LRSV 212030Z 32010KT CAVOK 07/02 Q1030=
201903212100 METAR LRSV 212100Z 32008KT CAVOK 07/02 Q1030=
201903212130 METAR LRSV 212130Z 32007KT CAVOK 07/02 Q1030=
201903212200 METAR LRSV 212200Z 32007KT CAVOK 07/02 Q1030=
201903212230 METAR LRSV 212230Z 32007KT 9999 BKN048 07/02 Q1030=
201903212300 METAR LRSV 212300Z 31007KT 9999 BKN047 07/02 Q1030=
201903212330 METAR LRSV 212330Z 31007KT 9999 BKN044 07/01 Q1030=
201903220000 METAR LRSV 220000Z 31008KT 9999 OVC045 06/02 Q1030=
201903220030 METAR LRSV 220030Z 31009KT 9999 BKN044 06/02 Q1030=
201903220100 METAR LRSV 220100Z 31009KT 9999 BKN043 06/02 Q1029=
201903220130 METAR LRSV 220130Z 30008KT 9999 BKN043 06/02 Q1029=
201903220200 METAR LRSV 220200Z 30008KT 9999 BKN042 06/02 Q1029=
201903220230 METAR LRSV 220230Z 31010KT 9999 BKN044 06/02 Q1029=
201903220300 METAR LRSV 220300Z 31007KT 9999 BKN042 06/02 Q1029=
201903220330 METAR LRSV 220330Z 30008KT 9999 BKN041 05/02 Q1029=
201903220400 METAR LRSV 220400Z 31007KT 9999 BKN040 05/02 Q1029=
201903220430 METAR COR LRSV 220430Z 31006KT 9999 BKN038 05/02 Q1029=
201903220500 METAR LRSV 220500Z 30006KT 9999 FEW038 05/01 Q1029=
201903220530 METAR LRSV 220530Z 30009KT 9999 SCT036 06/02 Q1029=
201903220600 METAR LRSV 220600Z 30008KT 9999 SCT035 06/02 Q1029=
201903220630 METAR LRSV 220630Z 31010KT CAVOK 08/01 Q1029=
201903220700 METAR LRSV 220700Z 31014KT CAVOK 08/01 Q1029=
201903220730 METAR LRSV 220730Z 31014KT CAVOK 09/02 Q1029=
201903220800 METAR LRSV 220800Z 30014KT CAVOK 09/03 Q1029=
201903220830 METAR LRSV 220830Z 32012KT 280V350 CAVOK 11/03 Q1029=
201903220900 METAR LRSV 220900Z 33013KT CAVOK 11/03 Q1028=
201903220930 METAR LRSV 220930Z 33013KT 290V360 CAVOK 12/03 Q1028=
201903221000 METAR COR LRSV 221000Z 32010KT 290V350 CAVOK 12/03 Q1028=
201903221030 METAR LRSV 221030Z 33012KT 290V350 CAVOK 13/04 Q1028=
201903221100 METAR LRSV 221100Z 33015KT CAVOK 12/03 Q1027=
201903221130 METAR LRSV 221130Z 32013KT CAVOK 12/04 Q1027=
201903221200 METAR LRSV 221200Z 32014KT 9999 SCT042 12/04 Q1027=
201903221230 METAR LRSV 221230Z 32015KT 9999 FEW037 13/04 Q1027=
201903221300 METAR LRSV 221300Z 31017KT 9999 FEW035 12/04 Q1026=
201903221330 METAR LRSV 221330Z 32016KT 9999 SCT032 12/05 Q1026=
201903221400 METAR COR LRSV 221400Z 31016G26KT 9999 SCT033 12/05 Q1025=
201903221430 METAR LRSV 221430Z 32016KT 9999 BKN033 13/05 Q1025=
201903221500 METAR LRSV 221500Z 32013KT 9999 SCT033 11/05 Q1025=
201903221530 METAR LRSV 221530Z 33012KT 9999 FEW034 12/05 Q1025=
201903221600 METAR LRSV 221600Z 33015KT 9999 BKN037 11/05 Q1026=
201903221630 METAR LRSV 221630Z 33012KT 9999 BKN037 11/05 Q1026=
201903221700 METAR LRSV 221700Z 32015KT 9999 BKN036 11/05 Q1026=
201903221730 METAR LRSV 221730Z 33018KT 9999 BKN040 10/05 Q1026=
201903221800 METAR LRSV 221800Z 33015G25KT 9999 BKN043 10/05 Q1026=
201903221830 METAR LRSV 221830Z 33016KT 9999 BKN042 10/05 Q1026=
201903221900 METAR LRSV 221900Z 33015KT 9999 BKN040 10/05 Q1026=
201903221930 METAR LRSV 221930Z 32015KT 9999 BKN045 10/04 Q1026=
201903222000 METAR LRSV 222000Z 32014KT 9999 BKN045 10/03 Q1027=
201903222030 METAR LRSV 222030Z 32013KT 9999 BKN040 09/03 Q1027=
201903222100 METAR LRSV 222100Z 32013KT 9999 FEW040 09/03 Q1026=
201903222130 METAR LRSV 222130Z 32012KT 9999 BKN045 09/03 Q1026=
201903222200 METAR LRSV 222200Z 32015KT 9999 BKN045 09/03 Q1026=
201903222230 METAR LRSV 222230Z 32014KT 9999 SCT045 09/04 Q1026=
201903222300 METAR LRSV 222300Z 33015KT 9999 FEW040 08/04 Q1026=
201903222330 METAR LRSV 222330Z 34014KT 9999 SCT030 08/04 Q1026=
201903230000 METAR LRSV 230000Z 34013KT 9999 SCT033 08/04 Q1026=
201903230030 METAR LRSV 230030Z 34014KT 9999 SCT030 07/03 Q1026=
201903230100 METAR LRSV 230100Z 35013KT 9999 FEW030 06/02 Q1026=
201903230130 METAR LRSV 230130Z 35015KT 9999 FEW030 06/01 Q1026=
201903230200 METAR LRSV 230200Z 35015KT CAVOK 05/M00 Q1026=
201903230230 METAR LRSV 230230Z 36013KT CAVOK 05/M03 Q1026=
201903230300 METAR LRSV 230300Z 34011KT CAVOK 04/M02 Q1026=
201903230330 METAR LRSV 230330Z 34011KT CAVOK 03/M03 Q1026=
201903230400 METAR LRSV 230400Z 34011KT CAVOK 02/M05 Q1026=
201903230430 METAR LRSV 230430Z 34009KT CAVOK 02/M06 Q1026=
201903230500 METAR COR LRSV 230500Z 33010KT CAVOK 03/M05 Q1026=
201903230530 METAR LRSV 230530Z 33011KT CAVOK 03/M05 Q1026=
201903230600 METAR LRSV 230600Z 34012KT CAVOK 04/M05 Q1026=
201903230630 METAR LRSV 230630Z 34015KT CAVOK 05/M05 Q1026=
201903230700 METAR LRSV 230700Z 34016KT CAVOK 05/M06 Q1027=
201903230730 METAR LRSV 230730Z 34016KT CAVOK 06/M05 Q1026=
201903230800 METAR LRSV 230800Z 33017KT CAVOK 06/M05 Q1026=
201903230830 METAR LRSV 230830Z 35018KT CAVOK 07/M07 Q1026=
201903230900 METAR LRSV 230900Z 33018KT CAVOK 07/M07 Q1026=
201903230930 METAR LRSV 230930Z 34017KT 310V010 CAVOK 08/M08 Q1026=
201903231000 METAR LRSV 231000Z 35019KT CAVOK 08/M11 Q1026=
201903231030 METAR LRSV 231030Z 34018KT CAVOK 09/M11 Q1026=
201903231100 METAR LRSV 231100Z 34016G27KT CAVOK 10/M11 Q1025=
201903231130 METAR LRSV 231130Z 34017KT 310V010 CAVOK 10/M11 Q1025=
201903231200 METAR LRSV 231200Z 33015KT 300V010 CAVOK 10/M10 Q1025=
201903231230 METAR LRSV 231230Z 34016KT CAVOK 10/M11 Q1025=
201903231300 METAR LRSV 231300Z 34017KT CAVOK 11/M10 Q1024=
201903231330 METAR LRSV 231330Z 34017KT CAVOK 11/M12 Q1024=
201903231400 METAR LRSV 231400Z 33017KT CAVOK 11/M12 Q1024=
201903231430 METAR LRSV 231430Z 33016KT CAVOK 10/M13 Q1024=
201903231500 METAR LRSV 231500Z 32015KT CAVOK 10/M12 Q1024=
201903231530 METAR LRSV 231530Z 33014KT CAVOK 10/M13 Q1023=
201903231600 METAR LRSV 231600Z 33013KT CAVOK 09/M13 Q1023=
201903231630 METAR LRSV 231630Z 33008KT CAVOK 08/M11 Q1024=
201903231700 METAR LRSV 231700Z 33005KT CAVOK 07/M12 Q1024=
201903231730 METAR LRSV 231730Z 33007KT CAVOK 07/M12 Q1024=
201903231800 METAR LRSV 231800Z 33006KT CAVOK 06/M11 Q1024=
201903231830 METAR COR LRSV 231830Z 32007KT CAVOK 05/M11 Q1024=
201903231900 METAR LRSV 231900Z 32007KT CAVOK 05/M11 Q1024=
201903231930 METAR LRSV 231930Z 33006KT CAVOK 04/M11 Q1025=
201903232000 METAR LRSV 232000Z 33006KT CAVOK 05/M11 Q1025=
201903232030 METAR LRSV 232030Z 34007KT CAVOK 05/M12 Q1024=
201903232100 METAR LRSV 232100Z 34006KT CAVOK 05/M12 Q1024=
201903232130 METAR LRSV 232130Z 32006KT CAVOK 04/M11 Q1024=
201903232200 METAR COR LRSV 232200Z 32006KT CAVOK 03/M09 Q1024=
201903232230 METAR LRSV 232230Z 31005KT CAVOK 04/M11 Q1024=
201903232300 METAR LRSV 232300Z 31005KT CAVOK 04/M11 Q1024=
201903232330 METAR LRSV 232330Z 28006KT CAVOK 02/M09 Q1023=
201903240000 METAR LRSV 240000Z 28007KT CAVOK 01/M08 Q1023=
201903240030 METAR LRSV 240030Z 28007KT CAVOK 02/M09 Q1023=
201903240100 METAR LRSV 240100Z 28006KT CAVOK 03/M09 Q1022=
201903240130 METAR LRSV 240130Z 28005KT CAVOK 01/M08 Q1022=
201903240200 METAR LRSV 240200Z AUTO 27007KT 9999 NCD 01/M08 Q1022=
201903240230 METAR LRSV 240230Z 26007KT CAVOK 02/M09 Q1021=
201903240300 METAR LRSV 240300Z 26005KT CAVOK 01/M09 Q1021=
201903240330 METAR LRSV 240330Z 26005KT CAVOK 01/M09 Q1021=
201903240400 METAR LRSV 240400Z 26007KT CAVOK 00/M08 Q1021=
201903240430 METAR LRSV 240430Z 25006KT CAVOK 02/M09 Q1020=
201903240500 METAR LRSV 240500Z 26007KT CAVOK 03/M08 Q1021=
201903240530 METAR LRSV 240530Z 26008KT CAVOK 05/M09 Q1021=
201903240600 METAR LRSV 240600Z 26006KT CAVOK 07/M08 Q1021=
201903240630 METAR LRSV 240630Z 25005KT 210V270 CAVOK 06/M05 Q1021=
201903240700 METAR LRSV 240700Z 26006KT CAVOK 08/M08 Q1020=
201903240730 METAR LRSV 240730Z 24007KT CAVOK 09/M08 Q1020=
201903240800 METAR LRSV 240800Z 28009KT 250V310 CAVOK 12/M08 Q1020=
201903240830 METAR LRSV 240830Z 29010KT CAVOK 12/M06 Q1020=
201903240900 METAR LRSV 240900Z 33011KT 280V350 CAVOK 13/M05 Q1019=
201903240930 METAR LRSV 240930Z 32007KT 290V360 CAVOK 14/M04 Q1019=
201903241000 METAR COR LRSV 241000Z 35011KT CAVOK 15/M03 Q1019=
201903241030 METAR LRSV 241030Z 35013KT 320V020 CAVOK 16/M01 Q1019=
201903241100 METAR LRSV 241100Z 33010KT CAVOK 15/M01 Q1018=
201903241130 METAR LRSV 241130Z 34012KT CAVOK 15/M02 Q1018=
201903241200 METAR LRSV 241200Z 36014KT CAVOK 14/00 Q1018=
201903241230 METAR LRSV 241230Z 35017KT 9999 -RA BKN048 12/02 Q1018=
201903241300 METAR LRSV 241300Z 34017KT 9999 -RA BKN049 10/05 Q1018=
201903241330 METAR COR LRSV 241330Z 33017KT 7000 NSC 10/06 Q1018=
201903241400 METAR LRSV 241400Z 34017KT 7000 NSC 11/05 Q1017=
201903241430 METAR LRSV 241430Z 33017KT CAVOK 11/04 Q1017=
201903241500 METAR LRSV 241500Z 34014KT CAVOK 11/04 Q1017=
201903241530 METAR LRSV 241530Z 32013KT CAVOK 11/04 Q1017=
201903241600 METAR LRSV 241600Z 32011KT CAVOK 11/04 Q1017=
201903241630 METAR LRSV 241630Z 32007KT CAVOK 10/04 Q1017=
201903241700 METAR LRSV 241700Z 36007KT CAVOK 08/03 Q1017=
201903241730 METAR LRSV 241730Z 35008KT CAVOK 07/02 Q1017=
201903241800 METAR COR LRSV 241800Z 32007KT CAVOK 09/02 Q1017=
201903241830 METAR LRSV 241830Z 29005KT CAVOK 08/02 Q1017=
201903241900 METAR LRSV 241900Z 28005KT CAVOK 07/01 Q1017=
201903241930 METAR COR LRSV 241930Z 30006KT CAVOK 07/01 Q1017=
201903242000 METAR LRSV 242000Z 30006KT CAVOK 07/01 Q1017=
201903242030 METAR LRSV 242030Z 29005KT CAVOK 07/01 Q1017=
201903242100 METAR LRSV 242100Z 30006KT CAVOK 07/01 Q1016=
201903242130 METAR LRSV 242130Z 30006KT CAVOK 07/01 Q1016=
201903242200 METAR LRSV 242200Z 30006KT CAVOK 06/01 Q1016=
201903242230 METAR LRSV 242230Z 31004KT CAVOK 07/01 Q1016=
201903242300 METAR LRSV 242300Z 32005KT CAVOK 06/01 Q1016=
201903242330 METAR LRSV 242330Z 26003KT CAVOK 06/01 Q1015=
201903250000 METAR LRSV 250000Z 28001KT CAVOK 06/02 Q1015=
201903250030 METAR LRSV 250030Z 05002KT 030V090 CAVOK 06/02 Q1014=
201903250100 METAR LRSV 250100Z 19001KT CAVOK 06/02 Q1013=
201903250130 METAR LRSV 250130Z 33004KT CAVOK 06/02 Q1014=
201903250200 METAR LRSV 250200Z 36005KT CAVOK 06/02 Q1013=
201903250230 METAR LRSV 250230Z 07004KT CAVOK 06/02 Q1012=
201903250300 METAR LRSV 250300Z 02005KT CAVOK 05/03 Q1012 R16/29//95=
201903250330 METAR LRSV 250330Z 02005KT 9999 -SHRA FEW045CB 05/03 Q1012
                        R16/29//95=
201903250400 METAR LRSV 250400Z 03004KT 350V050 8000 -SHRA FEW045CB 05/03
                        Q1011 R16/29//95=
201903250430 METAR LRSV 250430Z 19002KT 7000 -SHRA FEW045CB 04/02 Q1011
                        R16/29//95=
201903250500 METAR LRSV 250500Z VRB01KT 6000 NSC 04/03 Q1011 R16/29//95=
201903250530 METAR LRSV 250530Z 23003KT 190V250 6000 NSC 05/03 Q1010 R16/29//95=
201903250600 METAR LRSV 250600Z 12003KT 070V140 6000 NSC 06/03 Q1010 R16/29//95=
201903250630 METAR LRSV 250630Z 15005KT 7000 NSC 06/03 Q1009 R16/29//95=
201903250700 METAR LRSV 250700Z 09005KT 5000 BR NSC 05/04 Q1009 R16/29//95=
201903250730 METAR LRSV 250730Z 14004KT 7000 NSC 06/03 Q1009 R16/29//95=
201903250800 METAR LRSV 250800Z 17004KT 7000 FEW040CB 06/03 Q1009 R16/29//95=
201903250830 METAR LRSV 250830Z 16001KT 6000 -SHRA FEW035CB SCT045 06/03
                        Q1008 R16/29//95=
201903250900 METAR LRSV 250900Z 16005KT 6000 FEW035CB 06/04 Q1007 R16/29//95=
201903250930 METAR LRSV 250930Z 19004KT 6000 FEW040CB 07/05 Q1007 R16/29//95=
201903251000 METAR LRSV 251000Z 20006KT 7000 NSC 09/06 Q1007 R16/29//95=
201903251030 METAR LRSV 251030Z 01010KT 8000 SCT046 10/06 Q1008 R16/29//95=
201903251100 METAR LRSV 251100Z 35015KT 8000 NSC 08/06 Q1008 R16/CLRD//=
201903251130 METAR COR LRSV 251130Z 35016KT 8000 NSC 08/06 Q1008=
201903251200 METAR LRSV 251200Z 34018KT 8000 NSC 09/05 Q1008=
201903251230 METAR LRSV 251230Z 34021KT 8000 FEW060 09/05 Q1007=
201903251300 METAR LRSV 251300Z 33015KT 8000 NSC 07/04 Q1008=
201903251330 METAR LRSV 251330Z 33016KT 9999 SCT014 07/03 Q1008=
201903251400 METAR LRSV 251400Z 35014KT 9999 BKN013 06/03 Q1008=
201903251430 METAR COR LRSV 251430Z 33013KT 9999 SCT015 BKN020 07/03 Q1008=
201903251500 METAR LRSV 251500Z 34013KT 9999 BKN013 06/03 Q1008=
201903251530 METAR LRSV 251530Z 33012KT 9999 BKN011 06/03 Q1009=
201903251600 METAR COR LRSV 251600Z 33011KT 9999 BKN011 05/03 Q1009=
201903251630 METAR LRSV 251630Z 33011KT 9999 BKN010 05/02 Q1010=
201903251700 METAR LRSV 251700Z 33009KT 9999 -RA SCT012 BKN035 04/03 Q1010=
201903251730 METAR COR LRSV 251730Z 33008KT 9999 -RA BKN039 04/02 Q1010=
201903251800 METAR LRSV 251800Z 31004KT 9999 -RA NSC 04/02 Q1010=
201903251830 METAR LRSV 251830Z 29007KT CAVOK 03/02 Q1010=
201903251900 METAR LRSV 251900Z 30006KT CAVOK 02/01 Q1010=
201903251930 METAR LRSV 251930Z 27007KT CAVOK 03/01 Q1010=
201903252000 METAR LRSV 252000Z 28008KT CAVOK 02/01 Q1010=
201903252030 METAR LRSV 252030Z 27006KT 9999 SCT045 02/01 Q1010=
201903252100 METAR LRSV 252100Z 28006KT CAVOK 03/02 Q1010=
201903252130 METAR LRSV 252130Z 27005KT CAVOK 02/01 Q1010=
201903252200 METAR LRSV 252200Z 29008KT CAVOK 04/01 Q1010=
201903252230 METAR LRSV 252230Z 30005KT CAVOK 04/01 Q1010=
201903252300 METAR LRSV 252300Z 28007KT CAVOK 04/01 Q1010=
201903252330 METAR LRSV 252330Z 32004KT CAVOK 04/01 Q1011=
201903260000 METAR LRSV 260000Z 33005KT CAVOK 04/01 Q1011=
201903260030 METAR LRSV 260030Z 32007KT CAVOK 04/02 Q1011=
201903260100 METAR LRSV 260100Z 30010KT CAVOK 04/01 Q1011=
201903260130 METAR LRSV 260130Z 32013KT CAVOK 04/02 Q1012=
201903260200 METAR LRSV 260200Z 31015KT CAVOK 03/02 Q1012=
201903260230 METAR LRSV 260230Z 32015KT CAVOK 03/01 Q1012=
201903260300 METAR LRSV 260300Z 32016KT CAVOK 03/01 Q1012=
201903260330 METAR LRSV 260330Z 32016KT CAVOK 03/01 Q1013=
201903260400 METAR LRSV 260400Z 32015KT 9999 BKN049 03/01 Q1013=
201903260430 METAR LRSV 260430Z 32015KT 9999 BKN049 03/01 Q1013=
201903260500 METAR LRSV 260500Z 32013KT 9999 FEW010 03/01 Q1014=
201903260530 METAR LRSV 260530Z 33011KT 9999 FEW012 SCT041 03/01 Q1014=
201903260600 METAR LRSV 260600Z 32011KT 9999 BKN012 BKN043 03/01 Q1015=
201903260630 METAR LRSV 260630Z 32012KT 8000 -RA BKN012 BKN040 03/01 Q1015=
201903260700 METAR LRSV 260700Z 32011KT 290V350 9999 -DZ BKN012 BKN040
                        03/01 Q1015=
201903260730 METAR LRSV 260730Z 32014KT 9999 BKN014 BKN040 03/01 Q1015=
201903260800 METAR LRSV 260800Z 33015KT 9999 BKN016 BKN040 03/01 Q1016=
201903260830 METAR LRSV 260830Z 32012KT 7000 BKN016 BKN040 04/01 Q1016=
201903260900 METAR LRSV 260900Z 32013KT 8000 BKN017 BKN040 04/01 Q1016=
201903260930 METAR LRSV 260930Z 32014KT 9999 BKN019 BKN028 04/M00 Q1016=
201903261000 METAR LRSV 261000Z 33014KT 9999 BKN019 BKN030 04/M00 Q1017=
201903261030 METAR LRSV 261030Z 33012KT 9999 FEW019 BKN030 04/M01 Q1017=
201903261100 METAR LRSV 261100Z 34014KT 9999 FEW024 BKN030 04/M01 Q1017=
201903261130 METAR LRSV 261130Z 33011KT 9999 FEW019 BKN035 05/M01 Q1016=
201903261200 METAR LRSV 261200Z 35013KT 9999 BKN033 05/M02 Q1016=
201903261230 METAR LRSV 261230Z 33013KT 9999 BKN035 06/M03 Q1016=
201903261300 METAR LRSV 261300Z 34015KT 9999 BKN039 06/M02 Q1016=
201903261330 METAR LRSV 261330Z 34014KT 9999 BKN037 05/M02 Q1016=
201903261400 METAR LRSV 261400Z 34015KT 9999 BKN037 06/M03 Q1016=
201903261430 METAR LRSV 261430Z 34014KT 9999 SCT040 05/M04 Q1016=
201903261500 METAR LRSV 261500Z 34013KT 9999 FEW044 06/M04 Q1016=
201903261530 METAR LRSV 261530Z 35013KT 9999 FEW044 05/M04 Q1016=
201903261600 METAR LRSV 261600Z 34009KT CAVOK 05/M04 Q1016=
201903261630 METAR LRSV 261630Z 34006KT CAVOK 03/M04 Q1016=
201903261700 METAR LRSV 261700Z 33004KT CAVOK 04/M04 Q1016=
201903261730 METAR LRSV 261730Z 35003KT CAVOK 03/M04 Q1017=
201903261800 METAR COR LRSV 261800Z 33003KT CAVOK 03/M04 Q1017=
201903261830 METAR LRSV 261830Z 35003KT CAVOK 03/M04 Q1017=
201903261900 METAR LRSV 261900Z VRB01KT 9999 SCT044 01/M03 Q1016=
201903261930 METAR LRSV 261930Z 22005KT 9999 SCT044 01/M04 Q1017=
201903262000 METAR LRSV 262000Z 24005KT 9999 SCT047 02/M03 Q1017=
201903262030 METAR LRSV 262030Z 26006KT 9999 SCT048 02/M03 Q1017=
201903262100 METAR LRSV 262100Z 23007KT CAVOK M00/M03 Q1016=
201903262130 METAR COR LRSV 262130Z 22008KT CAVOK 00/M02 Q1016=
201903262200 METAR LRSV 262200Z 24009KT CAVOK 00/M02 Q1016=
201903262230 METAR LRSV 262230Z 25010KT CAVOK 02/M03 Q1015=
201903262300 METAR LRSV 262300Z 27009KT CAVOK 03/M04 Q1016=
201903262330 METAR LRSV 262330Z 33014KT CAVOK 03/M03 Q1016=
201903270000 METAR LRSV 270000Z 34012KT 9999 -SN NSC 02/M02 Q1016=
201903270030 METAR LRSV 270030Z 31007KT CAVOK 02/M01 Q1016=
201903270100 METAR LRSV 270100Z 28007KT 9999 -SN NSC 01/M01 Q1016=
201903270130 METAR COR LRSV 270130Z 33021KT 8000 -SN BKN035 M01/M01 Q1017=
201903270200 METAR LRSV 270200Z 32017KT 7000 -SN SCT012 BKN038 M01/M02
                        Q1017 R16/29//95=
201903270230 METAR LRSV 270230Z 31012KT 9999 -SN FEW016 BKN043 M01/M03
                        Q1017 R16/29//95=
201903270300 METAR LRSV 270300Z 32013KT 9999 FEW016 M00/M03 Q1017 R16/510194=
201903270330 METAR LRSV 270330Z 32014KT CAVOK M00/M04 Q1017 R16/510194=
201903270400 METAR COR LRSV 270400Z 31015KT CAVOK M00/M06 Q1017 R16/510194=
201903270430 METAR LRSV 270430Z 31016G26KT CAVOK M00/M07 Q1017 R16/510194=
201903270500 METAR COR LRSV 270500Z 30017KT CAVOK M00/M06 Q1018 R16/510194=
201903270530 METAR LRSV 270530Z 30014KT CAVOK 00/M06 Q1018 R16/510194=
201903270600 METAR LRSV 270600Z 29020KT 270V330 9999 SCT040 01/M07 Q1018
                        R16/510194=
201903270630 METAR LRSV 270630Z 29020KT 9999 BKN040 01/M06 Q1019 R16/510194=
201903270700 METAR LRSV 270700Z 30018G30KT 9999 BKN043 01/M06 Q1020 R16/510194=
201903270730 METAR LRSV 270730Z 30022G34KT 9999 -SN BKN039 01/M05 Q1020
                        R16/510194=
201903270800 METAR LRSV 270800Z 29018G28KT 9999 -SN FEW025 SCT045 00/M04
                        Q1020 R16/510194=
201903270830 METAR LRSV 270830Z 29020KT 9999 -SN BKN036 01/M04 Q1021 R16/CLRD//=
201903270900 METAR LRSV 270900Z 30018KT 9999 -SN FEW030 BKN035 01/M04
                        Q1022=
201903270930 METAR LRSV 270930Z 30022KT 9999 -SN BKN029 01/M04 Q1022=
201903271000 METAR LRSV 271000Z 30021G34KT 9999 FEW027 03/M04 Q1022=
201903271030 METAR LRSV 271030Z 30021G34KT 9999 BKN045 03/M04 Q1022=
201903271100 METAR LRSV 271100Z 30025KT 9999 FEW027 BKN044 02/M05 Q1023=
201903271130 METAR LRSV 271130Z 31022KT 9999 FEW031 BKN046 02/M05 Q1023=
201903271200 METAR LRSV 271200Z 31018G29KT 9999 FEW033 BKN047 03/M05 Q1023=
201903271230 METAR LRSV 271230Z 32023G34KT 9999 FEW039 BKN045 03/M07 Q1023=
201903271300 METAR LRSV 271300Z 32018KT 9999 SCT045 04/M06 Q1023=
201903271330 METAR LRSV 271330Z 34019KT 9999 SCT043 05/M06 Q1023=
201903271400 METAR LRSV 271400Z 32019KT 280V340 9999 FEW040 05/M08 Q1023=
201903271430 METAR LRSV 271430Z 32015KT CAVOK 05/M09 Q1023=
201903271500 METAR LRSV 271500Z 34018KT CAVOK 05/M08 Q1024=
201903271530 METAR LRSV 271530Z 32016KT CAVOK 05/M08 Q1024=
201903271600 METAR LRSV 271600Z 32017KT CAVOK 04/M08 Q1024=
201903271630 METAR LRSV 271630Z 32012KT CAVOK 04/M08 Q1024=
201903271700 METAR LRSV 271700Z 32010KT CAVOK 03/M08 Q1025=
201903271730 METAR LRSV 271730Z 32012KT CAVOK 03/M09 Q1025=
201903271800 METAR LRSV 271800Z 32011KT CAVOK 03/M08 Q1025=
201903271830 METAR LRSV 271830Z 32011KT CAVOK 03/M08 Q1026=
201903271900 METAR LRSV 271900Z 32008KT CAVOK 02/M08 Q1026=
201903271930 METAR LRSV 271930Z 32012KT CAVOK 03/M09 Q1026=
201903272000 METAR LRSV 272000Z 31010KT CAVOK 02/M08 Q1027=
201903272030 METAR LRSV 272030Z 31008KT CAVOK 02/M08 Q1027=
201903272100 METAR LRSV 272100Z 30008KT CAVOK 01/M08 Q1027=
201903272130 METAR LRSV 272130Z 30008KT CAVOK 01/M08 Q1027=
201903272200 METAR LRSV 272200Z 31006KT 280V340 CAVOK 01/M08 Q1027=
201903272230 METAR LRSV 272230Z 30008KT CAVOK 01/M08 Q1027=
201903272300 METAR LRSV 272300Z 30007KT CAVOK 00/M08 Q1027=
201903272330 METAR LRSV 272330Z 30008KT CAVOK 01/M07 Q1027=
201903280000 METAR LRSV 280000Z 30007KT CAVOK 01/M07 Q1027=
201903280030 METAR LRSV 280030Z 30006KT CAVOK M00/M07 Q1027=
201903280100 METAR LRSV 280100Z 29007KT CAVOK M00/M07 Q1027=
201903280130 METAR LRSV 280130Z 29006KT CAVOK 00/M07 Q1027=
201903280200 METAR LRSV 280200Z 29007KT CAVOK 00/M07 Q1027=
201903280230 METAR LRSV 280230Z 28007KT CAVOK 00/M07 Q1027=
201903280300 METAR LRSV 280300Z 27008KT CAVOK 00/M07 Q1027=
201903280330 METAR LRSV 280330Z 27008KT CAVOK 00/M07 Q1027=
201903280400 METAR LRSV 280400Z 28009KT CAVOK 00/M06 Q1027=
201903280430 METAR LRSV 280430Z 28009KT CAVOK 01/M06 Q1027=
201903280500 METAR LRSV 280500Z 27009KT CAVOK 01/M06 Q1027=
201903280530 METAR LRSV 280530Z 27009KT CAVOK 02/M06 Q1027=
201903280600 METAR LRSV 280600Z 28008KT CAVOK 03/M06 Q1027=
201903280630 METAR LRSV 280630Z 28009KT CAVOK 04/M06 Q1027=
201903280700 METAR LRSV 280700Z 29011KT CAVOK 05/M06 Q1027=
201903280730 METAR COR LRSV 280730Z 29011KT CAVOK 05/M06 Q1027=
201903280800 METAR LRSV 280800Z 32009KT 280V340 CAVOK 06/M06 Q1027=
201903280830 METAR LRSV 280830Z 30011G21KT 280V350 CAVOK 07/M04 Q1027=
201903280900 METAR LRSV 280900Z 30012KT CAVOK 07/M04 Q1026=
201903280930 METAR COR LRSV 280930Z 33009KT 300V360 CAVOK 08/M04 Q1026=
201903281000 METAR LRSV 281000Z 27009KT 240V300 CAVOK 08/M03 Q1026=
201903281030 METAR LRSV 281030Z 29007KT 250V320 CAVOK 08/M03 Q1026=
201903281100 METAR LRSV 281100Z 29010KT 260V320 9999 FEW045 09/M03 Q1026=
201903281130 METAR COR LRSV 281130Z 31007KT 9999 FEW045 08/M03 Q1026=
201903281200 METAR LRSV 281200Z 31010KT 9999 -RA SCT012 BKN028 07/M01
                        Q1026=
201903281230 METAR LRSV 281230Z 02011KT 9999 -RA SCT012 BKN030 07/00 Q1026=
201903281300 METAR LRSV 281300Z 33015KT 9999 FEW013 BKN043 08/01 Q1026=
201903281330 METAR LRSV 281330Z 34015KT 9999 FEW013 SCT045 07/02 Q1026=
201903281400 METAR LRSV 281400Z 33015KT 9999 -RA BKN042 07/03 Q1026=
201903281430 METAR LRSV 281430Z 34016KT 9999 -RA BKN043 06/03 Q1026=
201903281500 METAR LRSV 281500Z 33015KT 9999 SCT045 06/03 Q1026=
201903281530 METAR LRSV 281530Z 32013KT 9999 FEW022 06/03 Q1026=
201903281600 METAR LRSV 281600Z 33012KT 9999 BKN030 05/03 Q1026=
201903281630 METAR LRSV 281630Z 33011KT 9999 BKN030 05/03 Q1027=
201903281700 METAR LRSV 281700Z 33007KT 9999 FEW011 SCT030 04/03 Q1027=
201903281730 METAR COR LRSV 281730Z 34007KT 9999 SCT013 BKN027 05/03 Q1027=
201903281800 METAR LRSV 281800Z 35010KT 9999 FEW009 SCT018 05/03 Q1028=
201903281830 METAR COR LRSV 281830Z 36005KT 9999 FEW008 BKN011 05/03 Q1028=
201903281900 METAR LRSV 281900Z 03002KT 9999 SCT009 BKN012 04/03 Q1028
                        RERA R16/29//95=
201903281930 METAR LRSV 281930Z 03005KT 340V050 9999 -RA FEW005 BKN009
                        04/03 Q1028 R16/29//95=
201903282000 METAR LRSV 282000Z 02006KT 6000 RA BKN006 04/03 Q1029 R16/29//95=
201903282030 METAR LRSV 282030Z 02005KT 8000 -RA BKN006 04/03 Q1029 R16/29//95=
201903282100 METAR LRSV 282100Z 04005KT 9999 FEW003 BKN006 03/03 Q1029
                        R16/29//95=
201903282130 METAR LRSV 282130Z 05003KT 9999 FEW004 BKN006 03/03 Q1029
                        R16/29//95=
201903282200 METAR LRSV 282200Z 03007KT 9999 -RA FEW006 BKN008 03/02 Q1029
                        R16/29//95=
201903282230 METAR LRSV 282230Z AUTO 03007KT 5000 -SHRA FEW008/// SCT014///
                        BKN021/// 03/02 Q1029=
201903282300 METAR LRSV 282300Z AUTO 02006KT 5000 DZ FEW008/// SCT024///
                        BKN033/// 03/02 Q1029=
201903282330 METAR LRSV 282330Z 01006KT 9999 FEW034 BKN044 03/02 Q1029
                        R16/29//95=
201903290000 METAR LRSV 290000Z 01005KT 9999 BKN045 02/02 Q1029 R16/29//95=
201903290030 METAR LRSV 290030Z 31003KT 280V350 9999 BKN045 02/02 Q1029
                        R16/29//95=
201903290100 METAR LRSV 290100Z VRB01KT 9999 BKN047 02/02 Q1029 R16/29//95=
201903290130 METAR LRSV 290130Z 32004KT 9999 FEW005 OVC049 02/02 Q1029
                        R16/29//95=
201903290200 METAR LRSV 290200Z 35004KT 7000 BKN049 02/02 Q1029 R16/29//95=
201903290230 METAR LRSV 290230Z 35006KT 6000 FEW011 BKN048 02/02 Q1029
                        R16/29//95=
201903290300 METAR LRSV 290300Z 02005KT 6000 FEW003 02/02 Q1029 R16/29//95=
201903290330 METAR LRSV 290330Z 03005KT 6000 OVC049 02/01 Q1029 R16/29//95=
201903290400 METAR LRSV 290400Z 02004KT 5000 BR NSC 02/01 Q1029 R16/29//95=
201903290430 METAR LRSV 290430Z 02004KT 4000 BR NSC 02/01 Q1029 R16/29//95=
201903290500 METAR LRSV 290500Z 00000KT 3000 BR NSC 02/01 Q1029 R16/29//95=
201903290530 METAR COR LRSV 290530Z 24003KT 3000 BR NSC 02/01 Q1029 R16/29//95=
201903290600 METAR COR LRSV 290600Z 28005KT 250V310 5000 BR NSC 03/02
                        Q1029 R16/29//95=
201903290630 METAR LRSV 290630Z 27005KT 9999 FEW010 04/M02 Q1029 R16/29//95=
201903290700 METAR LRSV 290700Z 28005KT 240V320 9999 FEW010 04/M02 Q1029
                        R16/29//95=
201903290730 METAR LRSV 290730Z 28005KT 250V340 9999 FEW032 05/M01 Q1030
                        R16/29//95=
201903290800 METAR LRSV 290800Z 33006KT 290V360 9999 SCT032 05/M00 Q1030
                        R16/29//95=
201903290830 METAR LRSV 290830Z 34006KT 300V010 9999 BKN032 05/M00 Q1029
                        R16/29//95=
201903290900 METAR LRSV 290900Z 36005KT 330V050 9999 SCT032 06/00 Q1029
                        R16/29//95=
201903290930 METAR COR LRSV 290930Z 34010KT 310V010 9999 BKN033 06/01
                        Q1029 R16/CLRD//=
201903291000 METAR LRSV 291000Z 32011KT 290V350 9999 BKN033 07/00 Q1029=
201903291030 METAR LRSV 291030Z 33013KT 9999 BKN033 08/01 Q1028=
201903291100 METAR LRSV 291100Z 34010KT 310V010 9999 SCT035 08/00 Q1028=
201903291130 METAR LRSV 291130Z 34012KT 9999 SCT035 08/00 Q1028=
201903291200 METAR LRSV 291200Z 35014KT 310V010 9999 SCT036 10/01 Q1027=
201903291230 METAR LRSV 291230Z 33013KT 300V010 9999 FEW036 10/01 Q1027=
201903291300 METAR LRSV 291300Z 34014KT 9999 FEW041 11/01 Q1027=
201903291330 METAR LRSV 291330Z 33015KT 300V010 9999 FEW042 10/01 Q1026=
201903291400 METAR LRSV 291400Z 35014KT 9999 FEW042 10/01 Q1026=
201903291430 METAR LRSV 291430Z 34013KT 9999 FEW042 10/01 Q1026=
201903291500 METAR LRSV 291500Z 33013KT 9999 FEW042 10/01 Q1026=
201903291530 METAR LRSV 291530Z 34012KT 9999 FEW042 10/01 Q1025=
201903291600 METAR LRSV 291600Z 34011KT CAVOK 09/01 Q1025=
201903291630 METAR LRSV 291630Z 34008KT CAVOK 09/02 Q1025=
201903291700 METAR LRSV 291700Z 33005KT CAVOK 08/02 Q1025=
201903291730 METAR LRSV 291730Z 33007KT CAVOK 08/02 Q1025=
201903291800 METAR LRSV 291800Z 32007KT CAVOK 08/02 Q1025=
201903291830 METAR LRSV 291830Z 31007KT CAVOK 07/01 Q1025=
201903291900 METAR LRSV 291900Z 32008KT CAVOK 07/01 Q1025=
201903291930 METAR LRSV 291930Z 33008KT CAVOK 07/01 Q1025=
201903292000 METAR COR LRSV 292000Z 33008KT CAVOK 07/01 Q1025=
201903292030 METAR LRSV 292030Z 32010KT CAVOK 07/01 Q1026=
201903292100 METAR LRSV 292100Z 32011KT CAVOK 07/01 Q1025=
201903292130 METAR LRSV 292130Z 30010KT CAVOK 06/01 Q1026=
201903292200 METAR LRSV 292200Z 30008KT CAVOK 05/01 Q1025=
201903292230 METAR LRSV 292230Z 31009KT 9999 SCT033 06/01 Q1025=
201903292300 METAR LRSV 292300Z 31008KT 9999 SCT033 06/01 Q1025=
201903292330 METAR LRSV 292330Z 31008KT 9999 BKN033 07/02 Q1025=
201903300000 METAR LRSV 300000Z 31008KT 9999 BKN031 07/02 Q1025=
201903300030 METAR LRSV 300030Z 31008KT 9999 BKN031 07/02 Q1025=
201903300100 METAR LRSV 300100Z 32007KT 9999 BKN032 07/02 Q1025=
201903300130 METAR LRSV 300130Z 32007KT 9999 OVC032 07/02 Q1025=
201903300200 METAR LRSV 300200Z 32008KT 290V350 9999 BKN031 07/02 Q1025=
201903300230 METAR LRSV 300230Z AUTO 33009KT 9999 OVC031/// 07/02 Q1025=
201903300300 METAR LRSV 300300Z 32010KT 9999 BKN030 07/02 Q1025=
201903300330 METAR LRSV 300330Z 31009KT 9999 BKN030 07/02 Q1025=
201903300400 METAR LRSV 300400Z 30009KT 9999 BKN030 07/03 Q1025=
201903300430 METAR LRSV 300430Z 30009KT 9999 OVC030 07/02 Q1025=
201903300500 METAR LRSV 300500Z 31009KT 9999 OVC032 07/03 Q1025=
201903300530 METAR LRSV 300530Z 31009KT 9999 OVC033 07/03 Q1025=
201903300600 METAR LRSV 300600Z 31010KT 9999 BKN034 08/03 Q1025=
201903300630 METAR LRSV 300630Z 31009KT 9999 BKN033 08/03 Q1025=
201903300700 METAR COR LRSV 300700Z 32010KT 9999 BKN035 08/03 Q1026=
201903300730 METAR LRSV 300730Z 33012KT 9999 OVC036 09/04 Q1026=
201903300800 METAR LRSV 300800Z 34012KT 9999 BKN035 09/04 Q1026=
201903300830 METAR LRSV 300830Z 33011KT 300V360 9999 BKN030 09/04 Q1025=
201903300900 METAR LRSV 300900Z 33011KT 9999 SCT025 BKN029 09/03 Q1025=
201903300930 METAR LRSV 300930Z 34010KT 9999 BKN029 10/03 Q1025=
201903301000 METAR LRSV 301000Z 30010KT 270V350 9999 BKN030 10/03 Q1025=
201903301030 METAR LRSV 301030Z 33008KT 260V010 9999 SCT030 11/03 Q1024=
201903301100 METAR LRSV 301100Z 34009KT 300V360 9999 FEW030 11/03 Q1024=
201903301130 METAR LRSV 301130Z 35009KT 310V020 CAVOK 12/04 Q1024=
201903301200 METAR LRSV 301200Z 35008KT 310V030 CAVOK 12/04 Q1023=
201903301230 METAR LRSV 301230Z 36008KT 310V040 CAVOK 12/04 Q1023=
201903301300 METAR LRSV 301300Z 36008KT CAVOK 13/03 Q1023=
201903301330 METAR LRSV 301330Z 36007KT 310V040 CAVOK 13/04 Q1023=
201903301400 METAR LRSV 301400Z 01009KT CAVOK 13/03 Q1022=
201903301430 METAR LRSV 301430Z 01009KT 350V050 CAVOK 13/03 Q1022=
201903301500 METAR LRSV 301500Z 36008KT CAVOK 13/03 Q1022=
201903301530 METAR LRSV 301530Z 01005KT CAVOK 13/03 Q1022=
201903301600 METAR COR LRSV 301600Z 01005KT CAVOK 12/03 Q1022=
201903301630 METAR COR LRSV 301630Z 03006KT CAVOK 10/03 Q1022=
201903301700 METAR LRSV 301700Z 02004KT CAVOK 10/03 Q1022=
201903301730 METAR LRSV 301730Z 02003KT CAVOK 09/03 Q1022=
201903301800 METAR LRSV 301800Z 01005KT CAVOK 10/03 Q1022=
201903301830 METAR LRSV 301830Z 02004KT CAVOK 09/02 Q1022=
201903301900 METAR COR LRSV 301900Z 34003KT CAVOK 09/03 Q1022=
201903301930 METAR LRSV 301930Z 35003KT CAVOK 10/03 Q1022=
201903302000 METAR LRSV 302000Z 32002KT CAVOK 08/02 Q1022=
201903302030 METAR COR LRSV 302030Z 00000KT CAVOK 08/03 Q1022=
201903302100 METAR LRSV 302100Z 25002KT 230V290 CAVOK 06/02 Q1022=
201903302130 METAR LRSV 302130Z 25004KT CAVOK 06/02 Q1022=
201903302200 METAR LRSV 302200Z 25006KT CAVOK 06/02 Q1022=
201903302230 METAR LRSV 302230Z 26007KT CAVOK 07/02 Q1021=
201903302300 METAR LRSV 302300Z 26005KT CAVOK 05/02 Q1021=
201903302330 METAR LRSV 302330Z 24004KT CAVOK 06/02 Q1021=
201903310000 METAR LRSV 310000Z 24005KT CAVOK 05/01 Q1021=
201903310030 METAR LRSV 310030Z 26006KT CAVOK 04/01 Q1020=
201903310100 METAR LRSV 310100Z 26006KT CAVOK 06/02 Q1020=
201903310130 METAR LRSV 310130Z 26007KT CAVOK 06/02 Q1020=
201903310200 METAR LRSV 310200Z 27007KT CAVOK 06/02 Q1020=
201903310230 METAR LRSV 310230Z 28008KT CAVOK 06/02 Q1020=
201903310300 METAR LRSV 310300Z 25005KT CAVOK 05/02 Q1019=
201903310330 METAR LRSV 310330Z 22004KT CAVOK 02/01 Q1019=
201903310400 METAR LRSV 310400Z 24005KT CAVOK 02/00 Q1019=
201903310430 METAR LRSV 310430Z 25007KT CAVOK 03/01 Q1019=
201903310500 METAR LRSV 310500Z 25007KT CAVOK 04/02 Q1019=
201903310530 METAR LRSV 310530Z 26007KT CAVOK 06/03 Q1019=
201903310600 METAR LRSV 310600Z 26005KT CAVOK 08/04 Q1019=
201903310630 METAR LRSV 310630Z 25005KT CAVOK 10/04 Q1019=
201903310700 METAR LRSV 310700Z 21003KT CAVOK 10/04 Q1019=
201903310730 METAR LRSV 310730Z 22002KT 170V260 CAVOK 11/04 Q1019=
201903310800 METAR LRSV 310800Z 16003KT 120V200 CAVOK 13/04 Q1019=
201903310830 METAR LRSV 310830Z 17004KT 110V220 CAVOK 13/04 Q1018=
201903310900 METAR LRSV 310900Z VRB02KT CAVOK 14/03 Q1018=
201903310930 METAR LRSV 310930Z 19003KT 120V250 CAVOK 15/01 Q1018=
201903311000 METAR LRSV 311000Z 13004KT 080V170 CAVOK 16/01 Q1018=
201903311030 METAR LRSV 311030Z 07004KT 350V110 CAVOK 16/M00 Q1018=
201903311100 METAR LRSV 311100Z 10003KT 030V190 CAVOK 17/M01 Q1017=
201903311130 METAR LRSV 311130Z 07005KT 020V170 CAVOK 17/M02 Q1017=
201903311200 METAR LRSV 311200Z 08007KT CAVOK 18/M04 Q1017=
201903311230 METAR LRSV 311230Z 05007KT CAVOK 18/M06 Q1016=
201903311300 METAR LRSV 311300Z 08006KT 040V120 CAVOK 19/M04 Q1016=
201903311330 METAR LRSV 311330Z 05005KT 010V100 CAVOK 19/M02 Q1016=
201903311400 METAR LRSV 311400Z VRB05KT CAVOK 18/M03 Q1015=
201903311430 METAR LRSV 311430Z 07004KT 030V120 CAVOK 18/M03 Q1015=
201903311500 METAR LRSV 311500Z 08005KT CAVOK 18/M03 Q1015=
201903311530 METAR LRSV 311530Z 07005KT CAVOK 18/M03 Q1015=
201903311600 METAR COR LRSV 311600Z 07004KT CAVOK 17/M03 Q1015=
201903311630 METAR LRSV 311630Z 05004KT CAVOK 16/M03 Q1015=
201903311700 METAR LRSV 311700Z 05004KT CAVOK 15/M04 Q1015=
201903311730 METAR LRSV 311730Z 04004KT CAVOK 15/M05 Q1015=
201903311800 METAR LRSV 311800Z 04003KT CAVOK 15/M05 Q1016=
201903311830 METAR LRSV 311830Z 00000KT CAVOK 14/M05 Q1016=
201903311900 METAR LRSV 311900Z 00000KT CAVOK 14/M03 Q1016=
201903311930 METAR LRSV 311930Z 00000KT CAVOK 13/M01 Q1016=
201903312000 METAR LRSV 312000Z 00000KT CAVOK 13/01 Q1016=
201903312030 METAR LRSV 312030Z 24002KT CAVOK 12/01 Q1016=
201903312100 METAR LRSV 312100Z 26004KT CAVOK 10/01 Q1016=
201903312130 METAR LRSV 312130Z 28006KT CAVOK 10/M01 Q1016=
201903312200 METAR LRSV 312200Z 31008KT CAVOK 10/M01 Q1016=
201903312230 METAR COR LRSV 312230Z 31008KT CAVOK 11/M00 Q1016=
201903312300 METAR LRSV 312300Z 33010KT CAVOK 11/00 Q1016=
201903312330 METAR LRSV 312330Z 33011KT CAVOK 10/01 Q1017=
