201905010000 METAR LRSV 010000Z VRB01KT 9999 BKN032 09/09 Q1001 R16/29//95=
201905010030 METAR LRSV 010030Z 03002KT 9999 FEW035 BKN043 09/09 Q1000
                        R16/29//95=
201905010100 METAR LRSV 010100Z 00000KT 5000 BR FEW028 SCT042 09/09 Q1000
                        R16/29//95=
201905010130 METAR LRSV 010130Z 26003KT 230V290 9999 SCT001 BKN003 09/08
                        Q1000 R16/29//95=
201905010200 METAR LRSV 010200Z 25004KT 9999 FEW004 BKN006 08/08 Q0999
                        R16/29//95=
201905010230 METAR LRSV 010230Z 26005KT 9999 SCT007 BKN010 09/08 Q0999
                        R16/29//95=
201905010300 METAR LRSV 010300Z VRB01KT 9999 FEW007 BKN031 09/08 Q0999
                        R16/29//95=
201905010330 METAR LRSV 010330Z 21004KT 8000 SCT028 09/08 Q0999 R16/29//95=
201905010400 METAR LRSV 010400Z 22005KT 0250 R34/0325N FG VV001 09/09
                        Q0999 R16/29//95=
201905010430 METAR LRSV 010430Z 24004KT 210V270 5000 BR BKN002 09/09 Q0998
                        R16/29//95=
201905010500 METAR LRSV 010500Z 27005KT 9999 BKN004 10/09 Q0999 R16/29//95=
201905010530 METAR LRSV 010530Z 21006KT 9999 FEW006 SCT010 SCT020CB 10/09
                        Q0998 R16/29//95=
201905010600 METAR LRSV 010600Z 24005KT 200V280 9999 FEW010 BKN015 FEW020CB
                        11/09 Q0999 R16/29//95=
201905010630 METAR LRSV 010630Z 26006KT 9999 FEW009 FEW020CB 11/09 Q0999
                        R16/29//95=
201905010700 METAR LRSV 010700Z 26008KT 9999 FEW013 FEW020CB BKN046 11/08
                        Q0999 R16/29//95=
201905010730 METAR LRSV 010730Z 27007KT 240V310 9999 FEW014 FEW020CB BKN045
                        11/08 Q0999 R16/29//95=
201905010800 METAR LRSV 010800Z 29012KT 9999 -SHRA SCT015 SCT024CB SCT047
                        10/08 Q0999 R16/29//95=
201905010830 METAR LRSV 010830Z 29012KT 9999 -SHRA SCT011 SCT024CB BKN033
                        10/09 Q0999 R16/29//95=
201905010900 METAR LRSV 010900Z 29013KT 9999 -SHRA FEW008 FEW037CB BKN044
                        10/09 Q0999 R16/29//95=
201905010930 METAR LRSV 010930Z 29016KT 9999 -SHRA FEW012 SCT025CB BKN045
                        10/08 Q0999 R16/29//95=
201905011000 METAR LRSV 011000Z 30013KT 9999 -RA FEW011 FEW025CB BKN033
                        10/08 Q1000 R16/29//95=
201905011030 METAR LRSV 011030Z 30013KT 9999 -RA FEW011 FEW025CB BKN033
                        10/08 Q1000 R16/29//95=
201905011100 METAR LRSV 011100Z 29014KT 9999 -SHRA FEW015 FEW025CB BKN035
                        10/08 Q1000 R16/29//95=
201905011130 METAR LRSV 011130Z 29017KT 9999 -SHRA FEW016 FEW025CB BKN035
                        10/07 Q1000 R16/29//95=
201905011200 METAR LRSV 011200Z 29017KT 9999 -SHRA FEW016 SCT022CB BKN035
                        10/07 Q1000 R16/29//95=
201905011230 METAR LRSV 011230Z 30016KT 9999 -SHRA FEW014 SCT023CB BKN033
                        09/08 Q1001 R16/29//95=
201905011300 METAR LRSV 011300Z 30015KT 260V320 9999 -SHRA FEW009 SCT023CB
                        BKN035 09/08 Q1001 R16/29//95=
201905011330 METAR LRSV 011330Z 31014KT 9999 -SHRA FEW010 FEW021CB BKN035
                        09/07 Q1001 R16/29//95=
201905011400 METAR LRSV 011400Z 31014KT 9999 SCT016 FEW021CB BKN045 10/08
                        Q1001 R16/29//95=
201905011430 METAR LRSV 011430Z 32017KT 9999 -SHRA SCT014 FEW025CB BKN035
                        10/08 Q1002 R16/29//95=
201905011500 METAR LRSV 011500Z 32018G28KT 9999 -SHRA SCT012 SCT025CB
                        BKN033 09/07 Q1002 R16/29//95=
201905011530 METAR LRSV 011530Z 31014KT 9999 -SHRA SCT011 SCT025CB BKN033
                        09/07 Q1003 R16/29//95=
201905011600 METAR LRSV 011600Z 32018KT 9999 SCT013 FEW020CB BKN033 09/07
                        Q1003 R16/29//95=
201905011630 METAR LRSV 011630Z 31015KT 9999 -SHRA SCT012 FEW021CB BKN033
                        09/07 Q1003 R16/29//95=
201905011700 METAR LRSV 011700Z 31015KT 9999 SCT012 BKN030 09/07 Q1003
                        R16/29//95=
201905011730 METAR LRSV 011730Z 31013KT 9999 SCT013 BKN022 09/07 Q1004
                        R16/29//95=
201905011800 METAR LRSV 011800Z 31014G24KT 280V340 9999 BKN016 09/07 Q1004
                        R16/29//95=
201905011830 METAR LRSV 011830Z 31011KT 9999 SCT017 09/07 Q1004 R16/29//95=
201905011900 METAR LRSV 011900Z 29012KT CAVOK 08/07 Q1005 R16/29//95=
201905011930 METAR LRSV 011930Z 29014KT CAVOK 09/06 Q1004 R16/29//95=
201905012000 METAR LRSV 012000Z 28012KT CAVOK 09/06 Q1004 R16/29//95=
201905012030 METAR LRSV 012030Z 27010KT CAVOK 08/06 Q1004 R16/29//95=
201905012100 METAR LRSV 012100Z 27010KT CAVOK 08/06 Q1004 R16/29//95=
201905012130 METAR LRSV 012130Z 26009KT CAVOK 07/05 Q1004 R16/29//95=
201905012200 METAR LRSV 012200Z 26009KT CAVOK 08/05 Q1005 R16/29//95=
201905012230 METAR LRSV 012230Z 26008KT CAVOK 07/05 Q1005 R16/29//95=
201905012300 METAR LRSV 012300Z 26008KT CAVOK 07/05 Q1005 R16/29//95=
201905012330 METAR LRSV 012330Z 28010KT CAVOK 08/05 Q1004 R16/29//95=
201905020000 METAR LRSV 020000Z 27009KT CAVOK 08/05 Q1004 R16/29//95=
201905020030 METAR LRSV 020030Z AUTO 28011KT 9999 FEW070/// SCT085///
                        08/05 Q1004=
201905020100 METAR LRSV 020100Z 27009KT CAVOK 09/05 Q1004 R16/29//95=
201905020130 METAR LRSV 020130Z 27010KT CAVOK 08/04 Q1004 R16/29//95=
201905020200 METAR LRSV 020200Z 26009KT CAVOK 08/04 Q1004 R16/29//95=
201905020230 METAR LRSV 020230Z 28009KT CAVOK 07/04 Q1004 R16/19//95=
201905020300 METAR LRSV 020300Z 27010KT CAVOK 08/03 Q1004 R16/19//95=
201905020330 METAR LRSV 020330Z 26010KT CAVOK 07/04 Q1004 R16/19//95=
201905020400 METAR LRSV 020400Z 27010KT CAVOK 08/04 Q1005 R16/19//95=
201905020430 METAR LRSV 020430Z 26008KT CAVOK 09/04 Q1005 R16/19//95=
201905020500 METAR COR LRSV 020500Z 26009KT CAVOK 10/05 Q1005=
201905020530 METAR LRSV 020530Z 26009KT CAVOK 11/05 Q1005=
201905020600 METAR LRSV 020600Z 25008KT CAVOK 11/05 Q1005 R16/CLRD//=
201905020630 METAR LRSV 020630Z 27010KT CAVOK 12/05 Q1006=
201905020700 METAR LRSV 020700Z 29012KT CAVOK 14/04 Q1006=
201905020730 METAR LRSV 020730Z 29011KT CAVOK 14/03 Q1006=
201905020800 METAR LRSV 020800Z 29010G22KT 9999 FEW040 14/04 Q1006=
201905020830 METAR LRSV 020830Z 29014KT 260V320 CAVOK 14/03 Q1006=
201905020900 METAR LRSV 020900Z 29011KT 250V320 CAVOK 15/05 Q1006=
201905020930 METAR LRSV 020930Z 27014KT CAVOK 15/05 Q1006=
201905021000 METAR LRSV 021000Z 26013KT 230V290 CAVOK 15/05 Q1006=
201905021030 METAR LRSV 021030Z 28011KT CAVOK 14/05 Q1006=
201905021100 METAR LRSV 021100Z 27014KT 240V300 9999 FEW035 16/06 Q1005=
201905021130 METAR LRSV 021130Z 28012KT 250V310 CAVOK 17/06 Q1005=
201905021200 METAR LRSV 021200Z 28011KT 250V310 CAVOK 16/06 Q1005=
201905021230 METAR LRSV 021230Z 28009KT CAVOK 16/06 Q1005=
201905021300 METAR LRSV 021300Z 28008KT 240V300 CAVOK 16/05 Q1005=
201905021330 METAR LRSV 021330Z 26008KT CAVOK 16/06 Q1005=
201905021400 METAR LRSV 021400Z 24007KT 9999 FEW035CB 16/06 Q1005=
201905021430 METAR LRSV 021430Z 27011KT 230V290 9999 FEW029CB 17/07 Q1005=
201905021500 METAR LRSV 021500Z 28012KT 9999 FEW030CB 16/07 Q1005=
201905021530 METAR LRSV 021530Z 29009KT 9999 FEW030CB 16/06 Q1005=
201905021600 METAR COR LRSV 021600Z 28011KT CAVOK 15/06 Q1005=
201905021630 METAR LRSV 021630Z 27007KT CAVOK 15/07 Q1005=
201905021700 METAR LRSV 021700Z 27008KT CAVOK 14/05 Q1005=
201905021730 METAR LRSV 021730Z 27009KT CAVOK 13/05 Q1005=
201905021800 METAR LRSV 021800Z 27010KT CAVOK 13/05 Q1006=
201905021830 METAR LRSV 021830Z 26008KT CAVOK 12/05 Q1006=
201905021900 METAR LRSV 021900Z 25008KT CAVOK 12/05 Q1006=
201905021930 METAR LRSV 021930Z 24009KT CAVOK 11/05 Q1006=
201905022000 METAR LRSV 022000Z 25009KT CAVOK 11/05 Q1006=
201905022030 METAR LRSV 022030Z 25010KT CAVOK 11/05 Q1006=
201905022100 METAR LRSV 022100Z 24010KT CAVOK 10/06 Q1006=
201905022130 METAR LRSV 022130Z 25009KT CAVOK 10/05 Q1006=
201905022200 METAR LRSV 022200Z 23008KT CAVOK 09/05 Q1006=
201905022230 METAR LRSV 022230Z 25010KT CAVOK 11/06 Q1006=
201905022300 METAR LRSV 022300Z 25010KT CAVOK 10/05 Q1007=
201905022330 METAR LRSV 022330Z 26010KT CAVOK 11/06 Q1007=
201905030000 METAR LRSV 030000Z 26011KT CAVOK 11/06 Q1007=
201905030030 METAR LRSV 030030Z 25010KT CAVOK 11/06 Q1007=
201905030100 METAR LRSV 030100Z 25010KT CAVOK 11/06 Q1007=
201905030130 METAR LRSV 030130Z 26009KT CAVOK 12/06 Q1007=
201905030200 METAR LRSV 030200Z 25009KT CAVOK 12/06 Q1006=
201905030230 METAR LRSV 030230Z 24009KT CAVOK 10/06 Q1006=
201905030300 METAR LRSV 030300Z 23009KT CAVOK 10/06 Q1007=
201905030330 METAR LRSV 030330Z 24011KT CAVOK 11/06 Q1007=
201905030400 METAR LRSV 030400Z 25010KT CAVOK 11/07 Q1007=
201905030430 METAR LRSV 030430Z 24009KT CAVOK 12/07 Q1007=
201905030500 METAR LRSV 030500Z 23009KT CAVOK 13/08 Q1007=
201905030530 METAR LRSV 030530Z 22010KT CAVOK 14/08 Q1008=
201905030600 METAR LRSV 030600Z 24010KT CAVOK 15/08 Q1008=
201905030630 METAR LRSV 030630Z 23007KT CAVOK 15/09 Q1008=
201905030700 METAR LRSV 030700Z 20007KT CAVOK 16/09 Q1008=
201905030730 METAR LRSV 030730Z 19007KT 160V230 CAVOK 17/10 Q1008=
201905030800 METAR LRSV 030800Z 21007KT 9999 FEW040 18/09 Q1007=
201905030830 METAR LRSV 030830Z 22009KT 190V260 9999 FEW040 19/09 Q1007=
201905030900 METAR LRSV 030900Z 21010KT 180V250 9999 FEW040CB 19/09 Q1007=
201905030930 METAR LRSV 030930Z 21010KT 170V230 9999 FEW040CB 20/09 Q1007=
201905031000 METAR LRSV 031000Z 19007KT 140V220 9999 FEW040CB 21/08 Q1006=
201905031030 METAR LRSV 031030Z 24011KT 210V270 9999 FEW040CB 21/05 Q1006=
201905031100 METAR COR LRSV 031100Z 25011KT 210V290 9999 FEW040CB 21/04
                        Q1006=
201905031130 METAR LRSV 031130Z 28012KT 9999 FEW040CB 22/07 Q1006=
201905031200 METAR LRSV 031200Z 24015KT 9999 FEW040CB 22/06 Q1006=
201905031230 METAR LRSV 031230Z 24013KT 9999 FEW040CB 21/05 Q1005=
201905031300 METAR LRSV 031300Z 23011KT 9999 FEW040CB 22/05 Q1005=
201905031330 METAR LRSV 031330Z 25015G27KT 210V280 9999 FEW040 22/02 Q1005=
201905031400 METAR LRSV 031400Z 25014KT 9999 FEW040 21/02 Q1005=
201905031430 METAR LRSV 031430Z 25011KT CAVOK 21/03 Q1005=
201905031500 METAR LRSV 031500Z 26011KT 9999 FEW045CB 20/05 Q1005=
201905031530 METAR LRSV 031530Z 27025G35KT 9999 SCT045CB 17/05 Q1005=
201905031600 METAR LRSV 031600Z 26022G33KT 9999 SCT045CB 16/06 Q1006=
201905031630 METAR LRSV 031630Z 27017KT 9999 -RA FEW038CB SCT045 15/06
                        Q1006=
201905031700 METAR LRSV 031700Z 24008KT 9999 SCT050CB 14/08 Q1006=
201905031730 METAR LRSV 031730Z 25008KT 9999 FEW050CB 14/07 Q1006=
201905031800 METAR LRSV 031800Z 25009KT CAVOK 14/07 Q1006=
201905031830 METAR LRSV 031830Z 26009KT CAVOK 13/07 Q1006=
201905031900 METAR LRSV 031900Z 25007KT CAVOK 14/07 Q1007=
201905031930 METAR LRSV 031930Z 24007KT CAVOK 13/07 Q1007=
201905032000 METAR LRSV 032000Z 22008KT CAVOK 12/07 Q1007=
201905032030 METAR LRSV 032030Z 25006KT CAVOK 12/07 Q1007=
201905032100 METAR LRSV 032100Z 34015KT CAVOK 12/08 Q1008=
201905032130 METAR LRSV 032130Z 34011KT CAVOK 11/08 Q1008=
201905032200 METAR LRSV 032200Z 34008KT CAVOK 11/08 Q1008=
201905032230 METAR LRSV 032230Z 01005KT 340V060 CAVOK 10/08 Q1008=
201905032300 METAR LRSV 032300Z 30005KT CAVOK 10/08 Q1008=
201905032330 METAR LRSV 032330Z 25004KT CAVOK 09/08 Q1008=
201905040000 METAR LRSV 040000Z VRB05KT CAVOK 10/08 Q1008=
201905040030 METAR LRSV 040030Z 15002KT CAVOK 10/08 Q1008=
201905040100 METAR LRSV 040100Z VRB01KT CAVOK 10/08 Q1008=
201905040130 METAR LRSV 040130Z VRB01KT CAVOK 10/08 Q1008=
201905040200 METAR LRSV 040200Z 18003KT CAVOK 09/07 Q1008=
201905040230 METAR LRSV 040230Z 20003KT CAVOK 09/08 Q1008=
201905040300 METAR LRSV 040300Z 20003KT CAVOK 08/07 Q1008=
201905040330 METAR LRSV 040330Z 19004KT CAVOK 09/07 Q1008=
201905040400 METAR LRSV 040400Z 21003KT 180V240 CAVOK 10/08 Q1008=
201905040430 METAR LRSV 040430Z VRB01KT CAVOK 11/08 Q1008=
201905040500 METAR LRSV 040500Z 08002KT 020V110 CAVOK 12/09 Q1009=
201905040530 METAR LRSV 040530Z 03005KT 010V100 CAVOK 12/09 Q1009=
201905040600 METAR COR LRSV 040600Z 07004KT 030V090 CAVOK 13/09 Q1009=
201905040630 METAR LRSV 040630Z 08005KT 040V110 CAVOK 13/08 Q1009=
201905040700 METAR LRSV 040700Z VRB04KT CAVOK 14/09 Q1009=
201905040730 METAR LRSV 040730Z 15004KT 080V210 CAVOK 15/10 Q1009=
201905040800 METAR LRSV 040800Z 20006KT 130V230 CAVOK 16/08 Q1009=
201905040830 METAR LRSV 040830Z 16003KT 100V210 CAVOK 16/07 Q1009=
201905040900 METAR LRSV 040900Z 12005KT 060V210 CAVOK 17/08 Q1009=
201905040930 METAR LRSV 040930Z 07005KT 020V140 9999 SCT041 17/08 Q1008=
201905041000 METAR LRSV 041000Z 15006KT 110V190 9999 SCT045 17/09 Q1008=
201905041030 METAR LRSV 041030Z 11009KT 080V140 9999 FEW030CB SCT045 18/09
                        Q1008=
201905041100 METAR LRSV 041100Z 15009KT 9999 SCT045 18/09 Q1008=
201905041130 METAR LRSV 041130Z 13009KT 9999 SCT045 18/09 Q1007=
201905041200 METAR LRSV 041200Z 13010KT 090V150 9999 FEW040CB 19/09 Q1007=
201905041230 METAR LRSV 041230Z 15012KT 9999 FEW040CB 18/08 Q1007=
201905041300 METAR LRSV 041300Z 16011KT 9999 FEW040CB 18/08 Q1007=
201905041330 METAR LRSV 041330Z 15012KT 120V190 9999 VCTS FEW040CB 17/09
                        Q1006=
201905041400 METAR LRSV 041400Z 12012KT 9999 TS FEW040CB 16/08 Q1006=
201905041430 METAR LRSV 041430Z 14011KT 9999 FEW040CB 17/08 Q1006=
201905041500 METAR LRSV 041500Z 14011KT 9999 FEW048 17/08 Q1006=
201905041530 METAR LRSV 041530Z 12009KT 9999 FEW040CB 16/10 Q1006=
201905041600 METAR LRSV 041600Z 11008KT 9999 -SHRA SCT040CB 14/11 Q1006
                        R16/29//95=
201905041630 METAR LRSV 041630Z 08006KT 050V110 9999 -SHRA FEW040CB 13/12
                        Q1006 R16/29//95=
201905041700 METAR LRSV 041700Z 09008KT 9999 FEW040CB 13/11 Q1006 R16/29//95=
201905041730 METAR LRSV 041730Z 10006KT 9999 FEW040CB 13/12 Q1006 R16/29//95=
201905041800 METAR LRSV 041800Z 11008KT 9999 -SHRA SCT040CB 13/11 Q1006
                        R16/29//95=
201905041830 METAR LRSV 041830Z 14010KT 9999 -SHRA SCT040CB 14/10 Q1006
                        R16/29//95=
201905041900 METAR LRSV 041900Z 12005KT 9999 FEW045CB 13/11 Q1006 R16/29//95=
201905041930 METAR LRSV 041930Z 17006KT CAVOK 13/11 Q1006 R16/29//95=
201905042000 METAR LRSV 042000Z 19007KT CAVOK 12/11 Q1006 R16/29//95=
201905042030 METAR LRSV 042030Z 19005KT CAVOK 12/10 Q1006 R16/29//95=
201905042100 METAR LRSV 042100Z 16003KT CAVOK 12/10 Q1006 R16/29//95=
201905042130 METAR LRSV 042130Z 00000KT CAVOK 12/10 Q1006 R16/29//95=
201905042200 METAR LRSV 042200Z AUTO 20003KT 9999 BKN120/// 12/10 Q1005=
201905042230 METAR LRSV 042230Z AUTO 22003KT 180V240 9999 BKN110/// BKN190///
                        12/10 Q1005=
201905042300 METAR LRSV 042300Z 18004KT CAVOK 12/10 Q1005 R16/29//95=
201905042330 METAR LRSV 042330Z VRB01KT CAVOK 12/10 Q1005 R16/29//95=
201905050000 METAR LRSV 050000Z 18002KT CAVOK 11/09 Q1004 R16/29//95=
201905050030 METAR LRSV 050030Z 00000KT CAVOK 11/09 Q1004 R16/29//95=
201905050100 METAR LRSV 050100Z 14003KT 100V180 CAVOK 12/10 Q1004 R16/29//95=
201905050130 METAR LRSV 050130Z 12004KT CAVOK 11/10 Q1004 R16/29//95=
201905050200 METAR LRSV 050200Z 16002KT CAVOK 11/10 Q1004 R16/29//95=
201905050230 METAR LRSV 050230Z 14005KT CAVOK 11/10 Q1004 R16/19//95=
201905050300 METAR LRSV 050300Z 14008KT CAVOK 11/10 Q1004 R16/19//95=
201905050330 METAR LRSV 050330Z 13007KT CAVOK 11/10 Q1004 R16/19//95=
201905050400 METAR LRSV 050400Z 15009KT CAVOK 11/10 Q1004 R16/19//95=
201905050430 METAR LRSV 050430Z 15008KT CAVOK 11/10 Q1004 R16/19//95=
201905050500 METAR LRSV 050500Z 17007KT CAVOK 13/11 Q1004 R16/19//95=
201905050530 METAR LRSV 050530Z 18013KT CAVOK 13/11 Q1004 R16/19//95=
201905050600 METAR LRSV 050600Z 15012KT CAVOK 14/11 Q1005 R16/19//95=
201905050630 METAR LRSV 050630Z 15014KT CAVOK 14/12 Q1005 R16/19//95=
201905050700 METAR LRSV 050700Z 15015KT CAVOK 15/11 Q1005 R16/19//95=
201905050730 METAR LRSV 050730Z 14015KT CAVOK 15/11 Q1005 R16/19//95=
201905050800 METAR LRSV 050800Z 14016KT CAVOK 16/11 Q1005 R16/19//95=
201905050830 METAR LRSV 050830Z 14018KT CAVOK 17/11 Q1005 R16/19//95=
201905050900 METAR COR LRSV 050900Z 14019KT 9999 SCT036 17/11 Q1005 R16/CLRD//=
201905050930 METAR LRSV 050930Z 14020KT 9999 SCT036 17/10 Q1005=
201905051000 METAR LRSV 051000Z 14022KT 9999 SCT036 17/10 Q1005=
201905051030 METAR LRSV 051030Z 15022KT 9999 SCT036 17/10 Q1004=
201905051100 METAR LRSV 051100Z 14022KT 9999 SCT036 17/10 Q1004=
201905051130 METAR LRSV 051130Z 15019KT 9999 SCT036 18/10 Q1004=
201905051200 METAR COR LRSV 051200Z 14022KT 9999 SCT034 18/10 Q1004=
201905051230 METAR COR LRSV 051230Z 15018KT 9999 FEW035 18/10 Q1004=
201905051300 METAR LRSV 051300Z 15019KT 9999 FEW033 17/11 Q1004=
201905051330 METAR COR LRSV 051330Z 14019KT 9999 FEW030 18/11 Q1004=
201905051400 METAR LRSV 051400Z 14017KT 9999 FEW030 17/11 Q1004=
201905051430 METAR COR LRSV 051430Z 14018KT 9999 FEW033 17/11 Q1004=
201905051500 METAR LRSV 051500Z 13015KT 9999 FEW033 17/11 Q1004=
201905051530 METAR LRSV 051530Z 13013KT 9999 FEW035CB 16/11 Q1004=
201905051600 METAR LRSV 051600Z 14011KT 9999 FEW040CB 16/11 Q1004=
201905051630 METAR LRSV 051630Z 14009KT 9999 FEW040CB 16/12 Q1004=
201905051700 METAR LRSV 051700Z 17006KT 9999 FEW040CB 15/11 Q1004=
201905051730 METAR LRSV 051730Z 16008KT 9999 FEW040CB 15/11 Q1004=
201905051800 METAR LRSV 051800Z 15009KT 9999 SCT046 15/11 Q1004=
201905051830 METAR LRSV 051830Z 16007KT CAVOK 15/11 Q1004=
201905051900 METAR LRSV 051900Z 17008KT CAVOK 15/10 Q1004=
201905051930 METAR LRSV 051930Z 17012KT 9999 SCT046 15/11 Q1004=
201905052000 METAR LRSV 052000Z 18007KT 9999 -SHRA FEW040CB 13/12 Q1004=
201905052030 METAR LRSV 052030Z 19006KT 9999 -SHRA SCT040CB 13/12 Q1004=
201905052100 METAR LRSV 052100Z AUTO 16004KT 9999 FEW065/// BKN080///
                        13/12 Q1004 RERA=
201905052130 METAR LRSV 052130Z 17003KT CAVOK 13/12 Q1004=
201905052200 METAR LRSV 052200Z AUTO 00000KT 9999 UP FEW015/// BKN085///
                        BKN100/// 13/12 Q1004=
201905052230 METAR LRSV 052230Z 18002KT CAVOK 13/12 Q1004=
201905052300 METAR LRSV 052300Z AUTO 02003KT 360V070 8000 -SHRA SCT012///
                        BKN015/// 13/12 Q1004=
201905052330 METAR LRSV 052330Z AUTO 35004KT 8000 -SHRA BKN011/// 13/12
                        Q1004=
201905060000 METAR LRSV 060000Z AUTO 33007KT 7000 FEW009/// BKN011///
                        12/11 Q1003 REDZ=
201905060030 METAR LRSV 060030Z AUTO 34009KT 5000 -SHRA FEW003/// BKN010///
                        12/11 Q1003=
201905060100 METAR COR LRSV 060100Z 34010KT 5000 BR BKN006 11/11 Q1003=
201905060130 METAR COR LRSV 060130Z 35011KT 5000 BR BKN004 11/10 Q1004=
201905060200 METAR COR LRSV 060200Z 35011KT 3000 BR BKN003 10/10 Q1003=
201905060230 METAR COR LRSV 060230Z 35011KT 3000 BR BKN003 10/10 Q1003
                        R16/29//95=
201905060300 METAR LRSV 060300Z 34011KT 3000 -DZ BR BKN003 10/10 Q1003
                        R16/29//95=
201905060330 METAR COR LRSV 060330Z 34011KT 3000 -DZ BR BKN003 10/09 Q1003
                        R16/29//95=
201905060400 METAR LRSV 060400Z 33012KT 3000 RA BKN003 09/09 Q1004 R16/29//95=
201905060430 METAR LRSV 060430Z 34012KT 6000 -RA BKN003 09/09 Q1004 R16/29//95=
201905060500 METAR LRSV 060500Z 33010KT 8000 -RA BKN008 09/09 Q1004 R16/29//95=
201905060530 METAR LRSV 060530Z 33011KT 8000 -RA BKN006 09/08 Q1004 R16/29//95=
201905060600 METAR LRSV 060600Z 33009KT 8000 -RA BKN006 09/08 Q1004 R16/29//95=
201905060630 METAR LRSV 060630Z 32011KT 3000 BR BKN005 09/08 Q1004 R16/29//95=
201905060700 METAR LRSV 060700Z 32011KT 3000 -RA BR SCT005 BKN012 09/08
                        Q1004 R16/29//95=
201905060730 METAR LRSV 060730Z 32011KT 9999 -RA FEW005 BKN012 09/08 Q1004
                        R16/29//95=
201905060800 METAR LRSV 060800Z 32011KT 9999 -RA FEW005 BKN012 09/08 Q1004
                        R16/29//95=
201905060830 METAR LRSV 060830Z 32012KT 9999 -RA FEW005 BKN012 08/07 Q1004
                        R16/29//95=
201905060900 METAR LRSV 060900Z 33011KT 9999 FEW007 BKN012 09/08 Q1004
                        R16/29//95=
201905060930 METAR LRSV 060930Z 34009KT 9999 SCT006 BKN012 09/08 Q1005
                        R16/29//95=
201905061000 METAR LRSV 061000Z 33009KT 9999 SCT006 BKN012 09/08 Q1005
                        R16/29//95=
201905061030 METAR LRSV 061030Z 33010KT 9999 FEW006 BKN011 09/08 Q1005
                        R16/29//95=
201905061100 METAR LRSV 061100Z 33009KT 9999 BKN008 10/09 Q1004 R16/29//95=
201905061130 METAR LRSV 061130Z 36008KT 9999 SCT008 BKN012 10/08 Q1005
                        R16/29//95=
201905061200 METAR LRSV 061200Z 35007KT 9999 SCT008 BKN013 10/08 Q1005
                        R16/29//95=
201905061230 METAR LRSV 061230Z 35008KT 9999 BKN012 10/08 Q1004 R16/29//95=
201905061300 METAR LRSV 061300Z 34010KT 310V010 9999 SCT010 FEW024CB BKN030
                        10/08 Q1004 R16/CLRD//=
201905061330 METAR LRSV 061330Z 34011KT 9999 BKN015 FEW024CB 10/08 Q1004=
201905061400 METAR LRSV 061400Z 35012KT 9999 BKN015 FEW024CB 10/08 Q1004=
201905061430 METAR LRSV 061430Z 35013KT 9999 FEW009 BKN018 09/07 Q1004=
201905061500 METAR LRSV 061500Z 33014KT 9999 SCT010 BKN019 09/07 Q1004=
201905061530 METAR LRSV 061530Z 33015KT 9999 SCT009 BKN019 08/06 Q1004=
201905061600 METAR LRSV 061600Z 33017KT 9999 -SHRA BKN010 SCT022CB 08/06
                        Q1004 R16/29//95=
201905061630 METAR LRSV 061630Z 33015KT 9999 -SHRA FEW010 FEW022CB BKN024
                        07/06 Q1004 R16/29//95=
201905061700 METAR LRSV 061700Z 33011KT 9999 -SHRA SCT010 SCT022CB 07/06
                        Q1005 R16/29//95=
201905061730 METAR LRSV 061730Z 34015KT 9999 -SHRA SCT008 SCT025CB 06/05
                        Q1004 R16/29//95=
201905061800 METAR LRSV 061800Z 34018KT 9999 SCT010 FEW025CB 06/05 Q1005
                        R16/29//95=
201905061830 METAR LRSV 061830Z 34018KT 9999 -SHRA SCT007 SCT025CB 06/05
                        Q1005 R16/29//95=
201905061900 METAR COR LRSV 061900Z 33019KT 9999 -SHRA SCT008 SCT025CB
                        05/05 Q1005 R16/29//95=
201905061930 METAR LRSV 061930Z 33021KT 9999 -SHRA SCT008 BKN027CB 05/04
                        Q1005 R16/29//95=
201905062000 METAR LRSV 062000Z 32021KT 9999 -SHRA SCT010 BKN030CB 05/04
                        Q1005 R16/29//95=
201905062030 METAR LRSV 062030Z 33017KT 9999 -SHRA FEW010 BKN030CB 05/04
                        Q1005 R16/29//95=
201905062100 METAR LRSV 062100Z 33021KT 9999 -SHRA FEW012 BKN030CB 05/04
                        Q1004 R16/29//95=
201905062130 METAR LRSV 062130Z 32016KT 9999 -SHRA SCT013 BKN027CB 05/04
                        Q1005 R16/29//95=
201905062200 METAR LRSV 062200Z 32015KT 8000 -SHRA SCT013 BKN025CB 05/04
                        Q1005 R16/29//95=
201905062230 METAR LRSV 062230Z 32018KT 8000 -SHRA SCT012 BKN028CB 05/04
                        Q1004 R16/29//95=
201905062300 METAR LRSV 062300Z 33022KT 8000 -SHRA SCT033CB 05/03 Q1004
                        R16/29//95=
201905062330 METAR LRSV 062330Z 33022KT 8000 -SHRA SCT033CB 05/03 Q1004
                        R16/29//95=
201905070000 METAR LRSV 070000Z 32019KT 9999 -SHRA FEW010 SCT036CB 04/03
                        Q1004 R16/29//95=
201905070030 METAR LRSV 070030Z 31016KT 9999 -SHRA SCT012 BKN030CB 04/03
                        Q1004 R16/29//95=
201905070100 METAR LRSV 070100Z 31016KT 9999 -SHRA FEW009 BKN030CB 03/02
                        Q1004 R16/29//95=
201905070130 METAR LRSV 070130Z 31019KT 280V340 9999 -SHRA SCT012 BKN030CB
                        03/02 Q1004 R16/29//95=
201905070200 METAR LRSV 070200Z 31018KT 9999 SCT030CB SCT034 03/02 Q1004
                        R16/29//95=
201905070230 METAR COR LRSV 070230Z 31017KT 7000 -SHRA SCT030CB BKN034
                        03/02 Q1004 R16/29//95=
201905070300 METAR LRSV 070300Z 31018KT 6000 -SHRA SCT030CB BKN034 03/02
                        Q1004 R16/29//95=
201905070330 METAR LRSV 070330Z 31018KT 8000 -SHRA SCT030CB BKN037 03/02
                        Q1004 R16/29//95=
201905070400 METAR LRSV 070400Z 31017KT 9999 FEW033CB BKN035 03/02 Q1004
                        R16/29//95=
201905070430 METAR LRSV 070430Z 31016KT 9999 -SHRA FEW030CB BKN034 03/02
                        Q1004 R16/29//95=
201905070500 METAR LRSV 070500Z 31018KT 9999 -SHRA FEW008 FEW030CB BKN034
                        03/02 Q1004 R16/29//95=
201905070530 METAR LRSV 070530Z 31017KT 9999 FEW008 BKN027 03/02 Q1004
                        R16/29//95=
201905070600 METAR LRSV 070600Z 31019KT 9999 -RA FEW010 OVC027 04/02 Q1004
                        R16/29//95=
201905070630 METAR LRSV 070630Z 31017KT 9999 FEW009 BKN027 04/02 Q1004
                        R16/29//95=
201905070700 METAR LRSV 070700Z 31018KT 9999 FEW012 BKN027 04/02 Q1005
                        R16/29//95=
201905070730 METAR LRSV 070730Z 31019KT 9999 FEW012 BKN025 04/02 Q1005
                        R16/29//95=
201905070800 METAR LRSV 070800Z 31018KT 9999 -RA FEW013 BKN025 04/02 Q1005
                        R16/29//95=
201905070830 METAR LRSV 070830Z 31017KT 9000 -RA FEW010 BKN013 04/03 Q1005
                        R16/29//95=
201905070900 METAR LRSV 070900Z 31019KT 9999 -RA SCT011 BKN016 04/03 Q1006
                        R16/29//95=
201905070930 METAR LRSV 070930Z 31017KT 9999 -RA SCT010 BKN015 04/03 Q1006
                        R16/29//95=
201905071000 METAR COR LRSV 071000Z 31017KT 9999 -RA FEW009 SCT012 04/03
                        Q1006 R16/29//95=
201905071030 METAR LRSV 071030Z 31016G26KT 9999 -RA SCT011 BKN018 04/03
                        Q1007 R16/29//95=
201905071100 METAR LRSV 071100Z 31018KT 9999 -RA SCT014 OVC031 04/03 Q1007
                        R16/29//95=
201905071130 METAR LRSV 071130Z 31018KT 280V340 9999 SCT012 BKN018 04/03
                        Q1007 R16/29//95=
201905071200 METAR LRSV 071200Z 31018KT 9999 FEW011 BKN016 04/03 Q1008
                        R16/29//95=
201905071230 METAR LRSV 071230Z 31018KT 9999 FEW011 BKN031 05/03 Q1008
                        R16/29//95=
201905071300 METAR LRSV 071300Z 31019G30KT 8000 -RA FEW015 BKN026 05/03
                        Q1008 R16/29//95=
201905071330 METAR LRSV 071330Z 31020KT 8000 -RA SCT011 OVC030 04/03 Q1008
                        R16/29//95=
201905071400 METAR LRSV 071400Z 31018G29KT 8000 -DZ SCT010 BKN019 04/03
                        Q1008 R16/29//95=
201905071430 METAR LRSV 071430Z 31019G30KT 9999 FEW011 BKN016 04/03 Q1008
                        R16/29//95=
201905071500 METAR LRSV 071500Z 31018KT 8000 -RA FEW010 BKN018 04/03 Q1008
                        R16/29//95=
201905071530 METAR LRSV 071530Z 32019KT 8000 -RA SCT011 BKN016 04/03 Q1009
                        R16/29//95=
201905071600 METAR LRSV 071600Z 32019KT 6000 -RA BKN012 04/03 Q1009 R16/29//95=
201905071630 METAR LRSV 071630Z 32019G30KT 6000 -RA SCT013 BKN020 04/02
                        Q1009 R16/29//95=
201905071700 METAR LRSV 071700Z 32019G30KT 9999 -RA SCT014 BKN020 04/02
                        Q1009 R16/29//95=
201905071730 METAR LRSV 071730Z 32020G30KT 7000 -RA SCT013 BKN021 04/02
                        Q1010 R16/29//95=
201905071800 METAR LRSV 071800Z 32019G29KT 7000 -RA SCT012 BKN025 04/02
                        Q1010 R16/29//95=
201905071830 METAR LRSV 071830Z 32022G32KT 7000 -RA SCT011 BKN030 04/02
                        Q1010 R16/29//95=
201905071900 METAR LRSV 071900Z 32021G31KT 7000 -RA SCT012 BKN030 04/02
                        Q1010 R16/29//95=
201905071930 METAR LRSV 071930Z 32023G33KT 7000 -RA SCT012 BKN028 04/03
                        Q1010 R16/29//95=
201905072000 METAR LRSV 072000Z 32022G32KT 7000 -RA SCT013 BKN028 04/03
                        Q1010 R16/29//95=
201905072030 METAR LRSV 072030Z 32019KT 7000 -RA SCT017 BKN025 04/03 Q1011
                        R16/29//95=
201905072100 METAR LRSV 072100Z 32020KT 6000 -RA SCT012 BKN023 04/03 Q1011
                        R16/29//95=
201905072130 METAR LRSV 072130Z 33020G30KT 7000 -RA SCT010 BKN020 04/03
                        Q1011 R16/29//95=
201905072200 METAR LRSV 072200Z 32018KT 6000 -RA SCT013 BKN024 04/03 Q1011
                        R16/29//95=
201905072230 METAR LRSV 072230Z 33019KT 8000 -RA SCT020 BKN032 04/03 Q1011
                        R16/29//95=
201905072300 METAR LRSV 072300Z 33017KT 9999 -RA FEW011 BKN020 04/03 Q1012
                        R16/29//95=
201905072330 METAR LRSV 072330Z 33018G30KT 9999 -RA FEW017 BKN020 05/03
                        Q1012 R16/29//95=
201905080000 METAR LRSV 080000Z 32013KT 9999 -RA FEW021 BKN032 05/03 Q1012
                        R16/29//95=
201905080030 METAR LRSV 080030Z 32011KT 9999 -RA SCT022 BKN029 05/04 Q1013
                        R16/29//95=
201905080100 METAR LRSV 080100Z 32008KT 9999 -RA FEW017 BKN023 05/04 Q1013
                        R16/29//95=
201905080130 METAR LRSV 080130Z 32011KT 9999 -RA FEW020 BKN028 05/04 Q1013
                        R16/29//95=
201905080200 METAR LRSV 080200Z 32013KT 9999 -RA FEW020 BKN027 05/03 Q1013
                        R16/29//95=
201905080230 METAR LRSV 080230Z 33013KT 9999 FEW020 SCT028 05/03 Q1013
                        R16/29//95=
201905080300 METAR LRSV 080300Z 33014KT 9999 FEW020 BKN047 05/03 Q1013
                        R16/29//95=
201905080330 METAR LRSV 080330Z 32014KT 9999 BKN049 05/03 Q1013 R16/29//95=
201905080400 METAR LRSV 080400Z 33016KT CAVOK 06/03 Q1013 R16/29//95=
201905080430 METAR LRSV 080430Z 33014KT CAVOK 06/04 Q1014 R16/29//95=
201905080500 METAR LRSV 080500Z 32014KT 9999 FEW038 06/04 Q1014 R16/29//95=
201905080530 METAR LRSV 080530Z 32013KT CAVOK 06/04 Q1014 R16/29//95=
201905080600 METAR LRSV 080600Z 33015KT CAVOK 07/04 Q1014 R16/29//95=
201905080630 METAR LRSV 080630Z 33014KT 9999 FEW040 07/04 Q1014 R16/29//95=
201905080700 METAR LRSV 080700Z 34014KT 310V010 9999 FEW018 SCT028 08/05
                        Q1014 R16/29//95=
201905080730 METAR LRSV 080730Z 34012KT 320V020 9999 FEW019 SCT028 09/04
                        Q1014 R16/19//95=
201905080800 METAR LRSV 080800Z 35014KT 9999 SCT028 09/04 Q1014 R16/19//95=
201905080830 METAR LRSV 080830Z 33013KT 9999 SCT033 09/03 Q1015 R16/19//95=
201905080900 METAR LRSV 080900Z 34013KT 9999 BKN033 09/03 Q1015 R16/19//95=
201905080930 METAR LRSV 080930Z 35013KT 9999 BKN033 09/03 Q1015 R16/19//95=
201905081000 METAR LRSV 081000Z 35014KT 9999 BKN040 10/03 Q1015 R16/19//95=
201905081030 METAR LRSV 081030Z 35013KT 9999 BKN043 09/03 Q1015 R16/19//95=
201905081100 METAR LRSV 081100Z 35014KT 9999 BKN043 09/02 Q1015 R16/19//95=
201905081130 METAR LRSV 081130Z 34014KT 9999 BKN043 09/03 Q1015 R16/19//95=
201905081200 METAR LRSV 081200Z 33014KT 9999 BKN045 10/03 Q1015 R16/19//95=
201905081230 METAR LRSV 081230Z 35013KT 320V020 9999 BKN043 10/01 Q1015
                        R16/19//95=
201905081300 METAR LRSV 081300Z 36013KT CAVOK 10/02 Q1015 R16/19//95=
201905081330 METAR LRSV 081330Z 36013KT 330V030 9999 FEW045 11/02 Q1015
                        R16/19//95=
201905081400 METAR LRSV 081400Z 36010KT CAVOK 10/02 Q1015 R16/19//95=
201905081430 METAR LRSV 081430Z 35009KT 320V020 CAVOK 11/02 Q1015 R16/19//95=
201905081500 METAR LRSV 081500Z 01009KT 340V040 CAVOK 10/02 Q1015 R16/19//95=
201905081530 METAR LRSV 081530Z 01008KT CAVOK 10/01 Q1015 R16/19//95=
201905081600 METAR LRSV 081600Z 35009KT CAVOK 11/01 Q1015 R16/CLRD//=
201905081630 METAR LRSV 081630Z 35006KT CAVOK 10/02 Q1015=
201905081700 METAR LRSV 081700Z 04004KT CAVOK 08/03 Q1015=
201905081730 METAR LRSV 081730Z 03003KT CAVOK 08/02 Q1015=
201905081800 METAR LRSV 081800Z 00000KT CAVOK 07/02 Q1015=
201905081830 METAR LRSV 081830Z 00000KT CAVOK 07/01 Q1015=
201905081900 METAR LRSV 081900Z 00000KT CAVOK 07/01 Q1015=
201905081930 METAR LRSV 081930Z 00000KT CAVOK 07/02 Q1015=
201905082000 METAR LRSV 082000Z 00000KT CAVOK 06/01 Q1015=
201905082030 METAR LRSV 082030Z 00000KT CAVOK 07/01 Q1015=
201905082100 METAR LRSV 082100Z 00000KT CAVOK 07/01 Q1015=
201905082130 METAR LRSV 082130Z 25003KT CAVOK 06/02 Q1015=
201905082200 METAR LRSV 082200Z 25004KT CAVOK 05/01 Q1014=
201905082230 METAR LRSV 082230Z 26004KT CAVOK 05/01 Q1014=
201905082300 METAR LRSV 082300Z 26004KT CAVOK 05/01 Q1014=
201905082330 METAR LRSV 082330Z 27003KT CAVOK 06/01 Q1014=
201905090000 METAR LRSV 090000Z 26004KT CAVOK 05/01 Q1013=
201905090030 METAR LRSV 090030Z 27004KT CAVOK 04/01 Q1013=
201905090100 METAR LRSV 090100Z 28004KT CAVOK 04/01 Q1013=
201905090130 METAR LRSV 090130Z 29003KT 280V360 CAVOK 04/00 Q1013=
201905090200 METAR LRSV 090200Z 00000KT CAVOK 04/00 Q1013=
201905090230 METAR LRSV 090230Z 23001KT CAVOK 03/M00 Q1013=
201905090300 METAR LRSV 090300Z 27004KT CAVOK 03/00 Q1013=
201905090330 METAR LRSV 090330Z 25006KT CAVOK 04/01 Q1013=
201905090400 METAR LRSV 090400Z 26007KT CAVOK 04/02 Q1013=
201905090430 METAR LRSV 090430Z 25007KT CAVOK 05/02 Q1012=
201905090500 METAR COR LRSV 090500Z 24005KT CAVOK 06/02 Q1012=
201905090530 METAR LRSV 090530Z 21004KT 160V250 CAVOK 07/03 Q1012=
201905090600 METAR COR LRSV 090600Z 21004KT 180V240 CAVOK 08/03 Q1012=
201905090630 METAR LRSV 090630Z 23005KT 200V260 CAVOK 08/04 Q1012=
201905090700 METAR LRSV 090700Z 20003KT 110V250 9999 FEW027 09/03 Q1011=
201905090730 METAR LRSV 090730Z 16003KT 120V230 9999 FEW028 10/03 Q1011=
201905090800 METAR LRSV 090800Z 11006KT 080V150 9999 FEW035 11/02 Q1011=
201905090830 METAR LRSV 090830Z 13007KT 080V170 9999 FEW035 11/03 Q1011=
201905090900 METAR LRSV 090900Z 16006KT 120V210 9999 FEW040 12/01 Q1010=
201905090930 METAR LRSV 090930Z VRB04KT 9999 FEW040 12/02 Q1010=
201905091000 METAR LRSV 091000Z VRB05KT 9999 FEW040 13/03 Q1010=
201905091030 METAR LRSV 091030Z 14007KT 100V200 9999 FEW043 13/04 Q1009=
201905091100 METAR LRSV 091100Z 14006KT 070V190 CAVOK 13/04 Q1009=
201905091130 METAR LRSV 091130Z 13008KT 100V170 CAVOK 13/04 Q1009=
201905091200 METAR LRSV 091200Z 14006KT 090V180 CAVOK 14/04 Q1008=
201905091230 METAR LRSV 091230Z 13009KT CAVOK 14/04 Q1008=
201905091300 METAR LRSV 091300Z 12009KT CAVOK 14/05 Q1008=
201905091330 METAR LRSV 091330Z 12007KT 090V160 CAVOK 15/05 Q1007=
201905091400 METAR LRSV 091400Z 15008KT CAVOK 14/05 Q1007=
201905091430 METAR LRSV 091430Z 12008KT 090V150 CAVOK 14/04 Q1007=
201905091500 METAR LRSV 091500Z 13009KT CAVOK 14/05 Q1006=
201905091530 METAR LRSV 091530Z 13009KT CAVOK 14/05 Q1006=
201905091600 METAR LRSV 091600Z 14010KT CAVOK 14/05 Q1006=
201905091630 METAR LRSV 091630Z 13010KT CAVOK 13/06 Q1006=
201905091700 METAR LRSV 091700Z 12010KT CAVOK 12/06 Q1006=
201905091730 METAR LRSV 091730Z 11008KT CAVOK 11/06 Q1006=
201905091800 METAR LRSV 091800Z 11008KT CAVOK 10/06 Q1006=
201905091830 METAR COR LRSV 091830Z 11007KT CAVOK 09/06 Q1006=
201905091900 METAR LRSV 091900Z 10007KT CAVOK 09/06 Q1006=
201905091930 METAR LRSV 091930Z 10008KT CAVOK 09/06 Q1006=
201905092000 METAR LRSV 092000Z 08006KT CAVOK 08/06 Q1006=
201905092030 METAR LRSV 092030Z 09006KT CAVOK 08/06 Q1005=
201905092100 METAR LRSV 092100Z 09005KT CAVOK 08/06 Q1005=
201905092130 METAR LRSV 092130Z 10004KT CAVOK 08/06 Q1005=
201905092200 METAR LRSV 092200Z 09004KT CAVOK 08/06 Q1005=
201905092230 METAR COR LRSV 092230Z 08004KT CAVOK 08/06 Q1005=
201905092300 METAR LRSV 092300Z 07004KT CAVOK 07/05 Q1005=
201905092330 METAR LRSV 092330Z 07003KT CAVOK 07/06 Q1005=
201905100000 METAR LRSV 100000Z 07005KT CAVOK 07/06 Q1005=
201905100030 METAR LRSV 100030Z 01002KT 340V060 CAVOK 07/06 Q1005=
201905100100 METAR LRSV 100100Z 05005KT CAVOK 06/05 Q1005=
201905100130 METAR LRSV 100130Z 07005KT CAVOK 06/06 Q1005=
201905100200 METAR LRSV 100200Z 05004KT CAVOK 06/05 Q1005=
201905100230 METAR LRSV 100230Z 36004KT CAVOK 05/05 Q1005=
201905100300 METAR LRSV 100300Z 34005KT 6000 0500N PRFG NSC 06/05 Q1005=
201905100330 METAR LRSV 100330Z 34005KT 0500 R34/0800 FG NSC 06/05 Q1005=
201905100400 METAR LRSV 100400Z 34006KT 4000 BR FEW008 06/06 Q1006=
201905100430 METAR LRSV 100430Z 35003KT 6000 SCT007 07/06 Q1006=
201905100500 METAR LRSV 100500Z 09003KT 010V130 6000 BKN005 07/07 Q1006=
201905100530 METAR LRSV 100530Z VRB01KT 5000 BR BKN004 08/07 Q1006=
201905100600 METAR LRSV 100600Z 31003KT 270V360 6000 BKN004 08/07 Q1006=
201905100630 METAR LRSV 100630Z VRB01KT 7000 BKN004 08/07 Q1007=
201905100700 METAR LRSV 100700Z 08004KT 050V130 7000 BKN006 08/07 Q1007=
201905100730 METAR LRSV 100730Z 11003KT 080V160 6000 BKN006 08/07 Q1007=
201905100800 METAR LRSV 100800Z 12004KT 040V180 6000 BKN006 09/07 Q1007=
201905100830 METAR LRSV 100830Z VRB03KT 8000 BKN008 10/08 Q1008=
201905100900 METAR LRSV 100900Z 12004KT 070V170 9999 BKN010 10/08 Q1008=
201905100930 METAR LRSV 100930Z 19004KT 130V230 9999 BKN012 11/08 Q1008=
201905101000 METAR LRSV 101000Z 20004KT 160V240 9999 BKN014 11/08 Q1008=
201905101030 METAR LRSV 101030Z 18003KT 130V220 9999 SCT014 BKN028 12/08
                        Q1008=
201905101100 METAR LRSV 101100Z VRB02KT 9999 FEW016 BKN026 12/08 Q1008=
201905101130 METAR LRSV 101130Z VRB03KT 9999 FEW017 BKN026 12/08 Q1008=
201905101200 METAR LRSV 101200Z 09003KT 330V130 9999 -RA FEW017 SCT025
                        12/09 Q1008=
201905101230 METAR LRSV 101230Z 07003KT 360V130 9999 FEW025 SCT048 13/08
                        Q1008=
201905101300 METAR LRSV 101300Z 10006KT 070V130 9999 SCT025 13/08 Q1008=
201905101330 METAR LRSV 101330Z 08004KT 030V120 9999 SCT025 13/09 Q1008=
201905101400 METAR LRSV 101400Z 06005KT 030V090 9999 SCT030 13/08 Q1009=
201905101430 METAR LRSV 101430Z 05006KT 9999 SCT039 13/09 Q1009=
201905101500 METAR LRSV 101500Z 07006KT 9999 FEW035CB SCT048 13/09 Q1009=
201905101530 METAR LRSV 101530Z 08004KT 040V100 9999 FEW040CB 13/09 Q1009=
201905101600 METAR LRSV 101600Z 09003KT 9999 -SHRA FEW045CB 13/09 Q1009=
201905101630 METAR LRSV 101630Z 00000KT 9999 FEW045CB 12/09 Q1009=
201905101700 METAR LRSV 101700Z 28003KT 9999 FEW045CB 12/10 Q1009=
201905101730 METAR LRSV 101730Z 28004KT 9999 FEW045CB 11/10 Q1009=
201905101800 METAR LRSV 101800Z 29005KT 9999 SCT040CB 11/10 Q1009=
201905101830 METAR COR LRSV 101830Z 31004KT 9999 -SHRA SCT033CB 11/09
                        Q1010 R16/29//95=
201905101900 METAR LRSV 101900Z 16004KT 080V220 9999 -SHRA FEW015 SCT035CB
                        11/10 Q1010 R16/29//95=
201905101930 METAR LRSV 101930Z 26005KT 8000 FEW035CB SCT040 11/10 Q1010
                        R16/29//95=
201905102000 METAR LRSV 102000Z 24004KT 8000 -SHRA FEW040CB 10/10 Q1010
                        R16/29//95=
201905102030 METAR COR LRSV 102030Z 28005KT 8000 -SHRA FEW045CB 10/10
                        Q1010 R16/29//95=
201905102100 METAR LRSV 102100Z 25006KT 9999 FEW045CB 10/09 Q1010 R16/29//95=
201905102130 METAR LRSV 102130Z 25005KT 9999 FEW045CB 10/09 Q1010 R16/29//95=
201905102200 METAR LRSV 102200Z 27006KT CAVOK 10/09 Q1010 R16/29//95=
201905102230 METAR COR LRSV 102230Z 29005KT 9999 CAVOK 10/09 Q1010 R16/29//95=
201905102300 METAR LRSV 102300Z 30005KT CAVOK 10/09 Q1010 R16/29//95=
201905102330 METAR COR LRSV 102330Z 30006KT CAVOK 10/08 Q1010 R16/29//95=
201905110000 METAR LRSV 110000Z 31005KT CAVOK 10/08 Q1010 R16/29//95=
201905110030 METAR LRSV 110030Z AUTO 32006KT 9999 BKN100/// BKN140///
                        10/08 Q1010=
201905110100 METAR LRSV 110100Z 31004KT CAVOK 10/08 Q1010 R16/29//95=
201905110130 METAR LRSV 110130Z 31006KT CAVOK 10/08 Q1011 R16/29//95=
201905110200 METAR LRSV 110200Z 32006KT CAVOK 10/08 Q1010 R16/29//95=
201905110230 METAR LRSV 110230Z 31004KT CAVOK 10/08 Q1011 R16/29//95=
201905110300 METAR LRSV 110300Z 26003KT CAVOK 09/08 Q1011 R16/29//95=
201905110330 METAR LRSV 110330Z 32006KT CAVOK 10/08 Q1011 R16/29//95=
201905110400 METAR LRSV 110400Z 30004KT CAVOK 11/09 Q1011 R16/29//95=
201905110430 METAR LRSV 110430Z 32007KT 9999 FEW045CB 11/09 Q1011 R16/29//95=
201905110500 METAR LRSV 110500Z 33008KT 9999 FEW040CB 11/09 Q1012 R16/29//95=
201905110530 METAR LRSV 110530Z 34004KT 9999 FEW023 BKN036 11/09 Q1012
                        R16/19//95=
201905110600 METAR COR LRSV 110600Z 32003KT 270V350 9999 FEW033 11/09
                        Q1012 R16/19//95=
201905110630 METAR LRSV 110630Z 32004KT 9999 BKN030 11/09 Q1013 R16/19//95=
201905110700 METAR COR LRSV 110700Z 32003KT 9999 -RA SCT028 OVC034 11/09
                        Q1013 R16/19//95=
201905110730 METAR LRSV 110730Z 34002KT 310V020 9999 -RA SCT033 BKN038
                        12/10 Q1013 R16/19//95=
201905110800 METAR LRSV 110800Z 00000KT 9000 -RA BKN043 12/10 Q1013 R16/19//95=
201905110830 METAR LRSV 110830Z 00000KT 9000 -RA FEW007 SCT009 12/10 Q1013
                        R16/29//95=
201905110900 METAR LRSV 110900Z 04002KT 9999 -RA FEW010 SCT030 12/11 Q1013
                        R16/29//95=
201905110930 METAR LRSV 110930Z VRB01KT 9999 FEW007 SCT020 14/10 Q1013
                        R16/29//95=
201905111000 METAR LRSV 111000Z VRB02KT 9999 FEW030TCU 14/10 Q1013 R16/29//95=
201905111030 METAR LRSV 111030Z VRB02KT 9999 FEW023 15/10 Q1013 R16/29//95=
201905111100 METAR LRSV 111100Z VRB03KT 9999 FEW026CB 16/10 Q1013 R16/19//95=
201905111130 METAR LRSV 111130Z VRB01KT 9999 FEW028 SCT039 15/09 Q1013
                        R16/19//95=
201905111200 METAR LRSV 111200Z 07004KT 020V120 9999 -SHRA FEW027CB BKN040
                        13/10 Q1013 R16/19//95=
201905111230 METAR LRSV 111230Z 13004KT 070V190 9999 FEW025TCU 15/11 Q1013
                        R16/19//95=
201905111300 METAR LRSV 111300Z VRB03KT 9999 FEW029TCU 16/11 Q1013 R16/19//95=
201905111330 METAR LRSV 111330Z VRB03KT 9999 FEW029TCU 17/08 Q1013 R16/19//95=
201905111400 METAR LRSV 111400Z 31002KT 250V020 9999 FEW034TCU 18/08 Q1013
                        R16/19//95=
201905111430 METAR LRSV 111430Z VRB02KT 9999 FEW036 SCT042 17/08 Q1013
                        R16/19//95=
201905111500 METAR LRSV 111500Z VRB02KT 9999 SCT035CB 17/09 Q1014 R16/19//95=
201905111530 METAR LRSV 111530Z 12004KT 9999 TS SCT040CB 16/09 Q1014 R16/19//95=
201905111600 METAR LRSV 111600Z 26013KT 230V300 9999 -TSRA SCT033CB 13/08
                        Q1014 R16/19//95=
201905111630 METAR LRSV 111630Z 34012KT 9999 -TSRA SCT033CB 12/10 Q1015
                        R16/29//95=
201905111700 METAR LRSV 111700Z 27005KT 9999 -SHRA SCT035CB BKN045 12/09
                        Q1015 R16/29//95=
201905111730 METAR LRSV 111730Z 22009KT 9999 -SHRA SCT035CB BKN045 11/09
                        Q1015 R16/29//95=
201905111800 METAR LRSV 111800Z 27003KT 200V320 9999 -SHRA FEW035CB SCT045
                        12/08 Q1015 R16/29//95=
201905111830 METAR LRSV 111830Z 31003KT 9999 FEW035CB 12/08 Q1015 R16/29//95=
201905111900 METAR LRSV 111900Z 32004KT 9999 FEW035CB 12/07 Q1016 R16/29//95=
201905111930 METAR LRSV 111930Z 29008KT CAVOK 11/08 Q1016 R16/29//95=
201905112000 METAR LRSV 112000Z 28010KT CAVOK 11/08 Q1016 R16/29//95=
201905112030 METAR LRSV 112030Z 29007KT CAVOK 11/08 Q1016 R16/29//95=
201905112100 METAR LRSV 112100Z 27007KT CAVOK 11/07 Q1016 R16/29//95=
201905112130 METAR LRSV 112130Z 27006KT CAVOK 11/07 Q1016 R16/29//95=
201905112200 METAR LRSV 112200Z 28003KT CAVOK 11/07 Q1016 R16/29//95=
201905112230 METAR LRSV 112230Z 35004KT 270V070 CAVOK 10/07 Q1017 R16/29//95=
201905112300 METAR LRSV 112300Z 00000KT CAVOK 10/07 Q1017 R16/29//95=
201905112330 METAR LRSV 112330Z 28004KT CAVOK 09/07 Q1017 R16/29//95=
201905120000 METAR LRSV 120000Z 32003KT CAVOK 10/07 Q1017 R16/29//95=
201905120030 METAR LRSV 120030Z 00000KT CAVOK 09/07 Q1017 R16/29//95=
201905120100 METAR LRSV 120100Z 00000KT CAVOK 10/07 Q1017 R16/29//95=
201905120130 METAR LRSV 120130Z 00000KT CAVOK 09/07 Q1017 R16/29//95=
201905120200 METAR LRSV 120200Z 00000KT CAVOK 09/07 Q1017 R16/29//95=
201905120230 METAR LRSV 120230Z 00000KT CAVOK 10/07 Q1017 R16/19//95=
201905120300 METAR LRSV 120300Z 34003KT CAVOK 09/06 Q1017 R16/19//95=
201905120330 METAR LRSV 120330Z 24004KT CAVOK 09/07 Q1018 R16/19//95=
201905120400 METAR LRSV 120400Z 26003KT CAVOK 10/09 Q1018 R16/19//95=
201905120430 METAR LRSV 120430Z 28004KT CAVOK 11/09 Q1018 R16/19//95=
201905120500 METAR LRSV 120500Z 27002KT CAVOK 13/09 Q1018 R16/19//95=
201905120530 METAR LRSV 120530Z 24005KT CAVOK 12/10 Q1019 R16/19//95=
201905120600 METAR LRSV 120600Z 23002KT CAVOK 14/09 Q1019 R16/19//95=
201905120630 METAR LRSV 120630Z 23003KT 190V270 CAVOK 14/08 Q1019 R16/19//95=
201905120700 METAR LRSV 120700Z VRB01KT 9999 FEW030 16/10 Q1019 R16/19//95=
201905120730 METAR LRSV 120730Z 09005KT 050V140 9999 FEW030 15/11 Q1019
                        R16/CLRD//=
201905120800 METAR LRSV 120800Z 08005KT 020V120 9999 FEW030 16/11 Q1019=
201905120830 METAR LRSV 120830Z 10005KT 040V130 9999 FEW030 16/10 Q1019=
201905120900 METAR COR LRSV 120900Z 11006KT 9999 FEW035 17/10 Q1020=
201905120930 METAR LRSV 120930Z 13006KT 080V160 9999 SCT035 17/09 Q1020=
201905121000 METAR LRSV 121000Z 12006KT 070V160 9999 SCT035 18/12 Q1020=
201905121030 METAR LRSV 121030Z 06005KT 030V110 9999 SCT035 18/11 Q1020=
201905121100 METAR LRSV 121100Z 06008KT 9999 SCT035 18/11 Q1020=
201905121130 METAR LRSV 121130Z VRB06KT 9999 SCT035 18/11 Q1020=
201905121200 METAR LRSV 121200Z 12007KT 080V140 9999 SCT039 19/10 Q1020=
201905121230 METAR LRSV 121230Z 14006KT 110V190 9999 SCT039 19/10 Q1020=
201905121300 METAR LRSV 121300Z 11008KT 9999 SCT047 18/09 Q1020=
201905121330 METAR LRSV 121330Z 13007KT 9999 SCT047 20/10 Q1020=
201905121400 METAR LRSV 121400Z 13004KT 090V170 9999 FEW047 19/09 Q1020=
201905121430 METAR LRSV 121430Z 12004KT 060V160 9999 FEW047 20/09 Q1019=
201905121500 METAR LRSV 121500Z 14006KT 100V170 CAVOK 19/09 Q1020=
201905121530 METAR LRSV 121530Z 10006KT CAVOK 19/09 Q1020=
201905121600 METAR LRSV 121600Z 09007KT CAVOK 19/10 Q1020=
201905121630 METAR LRSV 121630Z 10006KT CAVOK 18/10 Q1020=
201905121700 METAR LRSV 121700Z 11005KT CAVOK 17/10 Q1020=
201905121730 METAR LRSV 121730Z 11005KT CAVOK 16/10 Q1020=
201905121800 METAR LRSV 121800Z 12006KT CAVOK 15/09 Q1020=
201905121830 METAR LRSV 121830Z 12007KT CAVOK 15/09 Q1021=
201905121900 METAR LRSV 121900Z 13008KT CAVOK 15/09 Q1021=
201905121930 METAR LRSV 121930Z 15006KT CAVOK 14/09 Q1021=
201905122000 METAR LRSV 122000Z 16004KT CAVOK 14/09 Q1021=
201905122030 METAR LRSV 122030Z 16004KT CAVOK 14/09 Q1021=
201905122100 METAR LRSV 122100Z AUTO 15003KT 9999 NCD 13/09 Q1021=
201905122130 METAR LRSV 122130Z 18003KT CAVOK 13/09 Q1021=
201905122200 METAR LRSV 122200Z 15002KT CAVOK 13/09 Q1021=
201905122230 METAR LRSV 122230Z 00000KT CAVOK 13/09 Q1021=
201905122300 METAR LRSV 122300Z 00000KT CAVOK 13/09 Q1021=
201905122330 METAR LRSV 122330Z 00000KT CAVOK 13/09 Q1021=
201905130000 METAR LRSV 130000Z 00000KT CAVOK 13/09 Q1021=
201905130030 METAR LRSV 130030Z 00000KT CAVOK 12/09 Q1021=
201905130100 METAR LRSV 130100Z 05002KT CAVOK 11/08 Q1021=
201905130130 METAR LRSV 130130Z 36004KT CAVOK 11/09 Q1021=
201905130200 METAR LRSV 130200Z 36004KT CAVOK 11/09 Q1021=
201905130230 METAR LRSV 130230Z 35003KT CAVOK 11/08 Q1021=
201905130300 METAR LRSV 130300Z 01003KT CAVOK 11/09 Q1022=
201905130330 METAR LRSV 130330Z 02004KT CAVOK 11/09 Q1022=
201905130400 METAR LRSV 130400Z 36005KT CAVOK 12/10 Q1022=
201905130430 METAR LRSV 130430Z 34004KT CAVOK 13/10 Q1022=
201905130500 METAR LRSV 130500Z 34003KT CAVOK 14/11 Q1022=
201905130530 METAR LRSV 130530Z VRB03KT CAVOK 15/11 Q1023=
201905130600 METAR LRSV 130600Z 07003KT 360V120 CAVOK 16/12 Q1023=
201905130630 METAR LRSV 130630Z 03005KT CAVOK 16/11 Q1023=
201905130700 METAR LRSV 130700Z 02004KT 340V060 CAVOK 17/11 Q1023=
201905130730 METAR LRSV 130730Z VRB02KT 9999 FEW030 18/10 Q1023=
201905130800 METAR LRSV 130800Z 06005KT 030V110 9999 FEW030 18/11 Q1023=
201905130830 METAR LRSV 130830Z 07006KT 330V140 9999 SCT030 18/11 Q1023=
201905130900 METAR LRSV 130900Z 06003KT 340V120 9999 SCT033 18/11 Q1023=
201905130930 METAR LRSV 130930Z 08007KT 9999 SCT035 18/10 Q1023=
201905131000 METAR LRSV 131000Z 09009KT 9999 SCT038 19/10 Q1023=
201905131030 METAR COR LRSV 131030Z 05005KT 360V100 9999 SCT045 19/10
                        Q1023=
201905131100 METAR LRSV 131100Z 07005KT 010V110 9999 SCT045 20/09 Q1022=
201905131130 METAR LRSV 131130Z 12004KT 070V160 9999 SCT046 20/09 Q1022=
201905131200 METAR COR LRSV 131200Z 10004KT 030V150 9999 BKN046 20/09
                        Q1022=
201905131230 METAR LRSV 131230Z 08005KT 040V130 9999 FEW045TCU 20/09 Q1022=
201905131300 METAR LRSV 131300Z 06008KT 040V120 9999 FEW045TCU 19/10 Q1022=
201905131330 METAR LRSV 131330Z 07007KT 040V100 CAVOK 20/08 Q1021=
201905131400 METAR LRSV 131400Z 07007KT 020V100 CAVOK 20/09 Q1021=
201905131430 METAR LRSV 131430Z 09005KT CAVOK 19/09 Q1021=
201905131500 METAR LRSV 131500Z 09002KT 030V130 CAVOK 19/09 Q1021=
201905131530 METAR COR LRSV 131530Z 02004KT 350V060 CAVOK 20/09 Q1021=
201905131600 METAR COR LRSV 131600Z 05004KT 010V080 CAVOK 19/10 Q1021=
201905131630 METAR COR LRSV 131630Z 04003KT CAVOK 19/11 Q1021=
201905131700 METAR LRSV 131700Z 03005KT CAVOK 18/11 Q1021=
201905131730 METAR LRSV 131730Z 01008KT CAVOK 17/10 Q1021=
201905131800 METAR LRSV 131800Z 02009KT CAVOK 15/09 Q1021=
201905131830 METAR LRSV 131830Z 36010KT CAVOK 15/09 Q1022=
201905131900 METAR LRSV 131900Z 34014KT CAVOK 15/11 Q1022=
201905131930 METAR LRSV 131930Z 33017KT CAVOK 14/11 Q1022=
201905132000 METAR LRSV 132000Z 33015KT CAVOK 13/11 Q1022=
201905132030 METAR LRSV 132030Z 33017KT CAVOK 12/10 Q1022=
201905132100 METAR LRSV 132100Z 33017KT CAVOK 12/10 Q1022=
201905132130 METAR LRSV 132130Z 33016KT CAVOK 11/10 Q1022=
201905132200 METAR LRSV 132200Z 33018KT CAVOK 11/09 Q1022=
201905132230 METAR LRSV 132230Z 33018KT CAVOK 10/09 Q1022=
201905132300 METAR LRSV 132300Z 32016KT CAVOK 10/09 Q1022=
201905132330 METAR LRSV 132330Z 33016KT CAVOK 10/09 Q1022=
201905140000 METAR LRSV 140000Z 32015KT 9999 FEW007 10/09 Q1022=
201905140030 METAR LRSV 140030Z 32014KT 9999 FEW007 10/08 Q1022=
201905140100 METAR LRSV 140100Z 33014KT 9999 BKN010 09/08 Q1022=
201905140130 METAR LRSV 140130Z 33013KT 9999 SCT008 09/08 Q1021=
201905140200 METAR LRSV 140200Z 33012KT 9999 BKN006 09/08 Q1021=
201905140230 METAR LRSV 140230Z 33011KT 8000 BKN008 09/08 Q1021=
201905140300 METAR LRSV 140300Z 32011KT 8000 BKN007 09/08 Q1021=
201905140330 METAR LRSV 140330Z 33012KT 7000 BKN005 09/08 Q1021=
201905140400 METAR LRSV 140400Z 33010KT 7000 OVC005 09/08 Q1021=
201905140430 METAR LRSV 140430Z 33012KT 5000 BR OVC005 09/08 Q1021=
201905140500 METAR LRSV 140500Z 32010KT 4000 BR BKN005 09/08 Q1021=
201905140530 METAR LRSV 140530Z 33010KT 4000 BR BKN005 09/08 Q1021=
201905140600 METAR LRSV 140600Z 31008KT 3000 BR BKN005 09/08 Q1021=
201905140630 METAR LRSV 140630Z 32010KT 3000 BR BKN005 09/08 Q1021=
201905140700 METAR LRSV 140700Z 34012KT 3000 BR BKN005 09/09 Q1021=
201905140730 METAR LRSV 140730Z 35012KT 5000 -RA BR SCT010 BKN020 09/09
                        Q1021=
201905140800 METAR LRSV 140800Z 34010KT 5000 -RA BR SCT007 BKN020 09/09
                        Q1021 R16/29//95=
201905140830 METAR LRSV 140830Z 34010KT 5000 -RA BR SCT008 BKN020 10/09
                        Q1021 R16/29//95=
201905140900 METAR LRSV 140900Z 33010KT 6000 SCT005 BKN020 10/09 Q1020
                        R16/29//95=
201905140930 METAR LRSV 140930Z 34010KT 7000 SCT006 BKN020 11/09 Q1020
                        R16/29//95=
201905141000 METAR LRSV 141000Z 33010KT 8000 SCT006 BKN020 11/10 Q1020
                        R16/29//95=
201905141030 METAR LRSV 141030Z 33008KT 300V360 9999 BKN007 11/10 Q1020
                        R16/29//95=
201905141100 METAR LRSV 141100Z 35006KT 310V010 9999 SCT006 BKN013 12/10
                        Q1020 R16/29//95=
201905141130 METAR LRSV 141130Z 35007KT 320V020 9999 SCT007 BKN017 12/10
                        Q1019 R16/29//95=
201905141200 METAR LRSV 141200Z 34007KT 9999 BKN008 12/10 Q1019 R16/29//95=
201905141230 METAR LRSV 141230Z 35007KT 9999 BKN010 12/10 Q1019 R16/CLRD//=
201905141300 METAR LRSV 141300Z 32006KT 9999 BKN010 12/10 Q1019=
201905141330 METAR LRSV 141330Z 33006KT 300V360 9999 BKN010 12/10 Q1018=
201905141400 METAR LRSV 141400Z 34005KT 310V010 9999 BKN012 13/11 Q1018=
201905141430 METAR LRSV 141430Z 32005KT 290V350 9999 BKN012 13/10 Q1018=
201905141500 METAR LRSV 141500Z 27008KT 7000 BKN013 12/11 Q1018=
201905141530 METAR LRSV 141530Z 29008KT 7000 BKN013 BKN040 12/11 Q1017=
201905141600 METAR LRSV 141600Z 32007KT 7000 BKN013 12/10 Q1017=
201905141630 METAR LRSV 141630Z 33007KT 7000 -RA SCT013 BKN034 11/10 Q1017=
201905141700 METAR LRSV 141700Z 32007KT 7000 -RA BKN011 11/10 Q1017=
201905141730 METAR COR LRSV 141730Z 32007KT 7000 SCT011 BKN040 11/10 Q1017=
201905141800 METAR LRSV 141800Z 33006KT 7000 FEW012 BKN032 11/10 Q1017=
201905141830 METAR LRSV 141830Z 32005KT 7000 FEW030CB SCT035 11/10 Q1017=
201905141900 METAR COR LRSV 141900Z 32004KT 280V350 6000 SCT011 FEW030CB
                        11/10 Q1017=
201905141930 METAR LRSV 141930Z 31004KT 7000 SCT011 FEW030CB 11/10 Q1017=
201905142000 METAR LRSV 142000Z 33005KT 7000 FEW030CB 11/10 Q1017=
201905142030 METAR LRSV 142030Z 32005KT 7000 FEW035CB 10/10 Q1017=
201905142100 METAR LRSV 142100Z 31005KT 7000 NSC 10/10 Q1017=
201905142130 METAR LRSV 142130Z 30004KT 7000 SCT012 10/10 Q1017=
201905142200 METAR LRSV 142200Z 33004KT 300V010 7000 BKN008 10/10 Q1016=
201905142230 METAR LRSV 142230Z VRB01KT 7000 -DZ BKN007 10/10 Q1016=
201905142300 METAR LRSV 142300Z 00000KT 5000 -RA BR BKN007 10/10 Q1016=
201905142330 METAR LRSV 142330Z 00000KT 5000 -RA BR BKN002 10/10 Q1016=
201905150000 METAR LRSV 150000Z 05002KT 020V080 5000 -RA BR BKN002 10/10
                        Q1015=
201905150030 METAR LRSV 150030Z 00000KT 3000 -RA BR BKN002 10/10 Q1015=
201905150100 METAR LRSV 150100Z 01003KT 3000 BR BKN002 10/10 Q1015=
201905150130 METAR LRSV 150130Z 02003KT 0400 R34/1100 FG BKN005 10/10
                        Q1015=
201905150200 METAR LRSV 150200Z 35003KT 0500 R34/1200 FG BKN004 10/10
                        Q1015 R16/29//95=
201905150230 METAR LRSV 150230Z 04004KT 0800 R34/1800 FG BKN005 10/10
                        Q1015 R16/29//95=
201905150300 METAR LRSV 150300Z 02003KT 0600 R34/1100 FG BKN004 11/10
                        Q1014 R16/29//95=
201905150330 METAR LRSV 150330Z 06004KT 040V100 0300 R34/0650D FG VV001
                        11/10 Q1015 R16/29//95=
201905150400 METAR LRSV 150400Z 08003KT 0200 R34/0450N FG VV001 11/10
                        Q1015 R16/29//95=
201905150430 METAR LRSV 150430Z 07003KT 040V120 0200 R34/0500N FG VV001
                        11/10 Q1014 R16/29//95=
201905150500 METAR LRSV 150500Z 10004KT 0200 R34/0225N FG VV001 11/10
                        Q1014 R16/29//95=
201905150530 METAR LRSV 150530Z 11007KT 0250 R34/0350N FG VV001 11/11
                        Q1014 R16/29//95=
201905150600 METAR LRSV 150600Z 13008KT 0800 R34/0800 FG BKN001 12/12
                        Q1015 R16/29//95=
201905150630 METAR LRSV 150630Z 14008KT 5000 BR FEW001 BKN004 12/12 Q1015
                        R16/29//95=
201905150700 METAR LRSV 150700Z 14006KT 6000 FEW004 BKN006 12/12 Q1015
                        R16/29//95=
201905150730 METAR LRSV 150730Z 12006KT 8000 FEW004 BKN006 13/12 Q1014
                        R16/29//95=
201905150800 METAR LRSV 150800Z 13011KT 9999 FEW007 BKN011 15/12 Q1014
                        R16/29//95=
201905150830 METAR LRSV 150830Z 12010KT 9999 SCT012 BKN017 15/13 Q1014
                        R16/29//95=
201905150900 METAR LRSV 150900Z 15011KT 120V180 9999 FEW014 SCT017 16/13
                        Q1014 R16/CLRD//=
201905150930 METAR LRSV 150930Z 13012KT 9999 FEW017 SCT030 16/12 Q1014=
201905151000 METAR LRSV 151000Z 12011KT 9999 FEW016 SCT021 17/13 Q1014=
201905151030 METAR LRSV 151030Z 13012KT 9999 SCT020 BKN030 17/13 Q1014=
201905151100 METAR LRSV 151100Z 14013KT 9999 FEW020 BKN027 18/13 Q1014=
201905151130 METAR LRSV 151130Z 13014KT 9999 FEW026 BKN038 18/13 Q1014=
201905151200 METAR LRSV 151200Z 14014KT 110V170 9999 SCT025 19/13 Q1013=
201905151230 METAR LRSV 151230Z 14016KT 9999 FEW026 SCT043 20/13 Q1013=
201905151300 METAR LRSV 151300Z 14016KT 9999 FEW040 19/13 Q1013=
201905151330 METAR LRSV 151330Z 14016KT 9999 FEW032 18/13 Q1013=
201905151400 METAR LRSV 151400Z 14018KT 9999 FEW026 18/13 Q1013=
201905151430 METAR LRSV 151430Z 13018KT 9999 FEW024 17/13 Q1012=
201905151500 METAR LRSV 151500Z 13017KT 9999 SCT027 17/13 Q1012=
201905151530 METAR LRSV 151530Z 14023KT 9999 SCT026 16/12 Q1012=
201905151600 METAR LRSV 151600Z 14023KT 9999 SCT024 BKN028 16/12 Q1012=
201905151630 METAR LRSV 151630Z 13019KT 9999 FEW019 BKN027 15/12 Q1012=
201905151700 METAR LRSV 151700Z 13019KT 9999 SCT015 BKN022 15/12 Q1012=
201905151730 METAR LRSV 151730Z 14015KT 9999 BKN015 FEW020CB 15/12 Q1013=
201905151800 METAR LRSV 151800Z 15010KT 9999 -SHRA SCT016 FEW022CB BKN029
                        14/12 Q1013=
201905151830 METAR LRSV 151830Z 15012KT 9999 SCT016 FEW022CB BKN028 14/12
                        Q1014=
201905151900 METAR LRSV 151900Z 15014KT 9999 SCT028 14/12 Q1014=
201905151930 METAR LRSV 151930Z 15011KT 9999 FEW015 SCT030 13/12 Q1014=
201905152000 METAR LRSV 152000Z 15011KT 9999 FEW030 14/12 Q1014=
201905152030 METAR LRSV 152030Z 15011KT 9999 FEW035 14/12 Q1014=
201905152100 METAR LRSV 152100Z 13010KT 9999 FEW040 14/12 Q1014=
201905152130 METAR LRSV 152130Z 13011KT CAVOK 13/12 Q1014=
201905152200 METAR LRSV 152200Z 13012KT CAVOK 13/12 Q1014=
201905152230 METAR LRSV 152230Z 14011KT CAVOK 13/12 Q1014=
201905152300 METAR LRSV 152300Z 14010KT CAVOK 13/12 Q1014=
201905152330 METAR COR LRSV 152330Z 14008KT CAVOK 13/12 Q1014=
201905160000 METAR LRSV 160000Z 15006KT CAVOK 13/11 Q1014=
201905160030 METAR LRSV 160030Z 16006KT CAVOK 13/11 Q1014=
201905160100 METAR LRSV 160100Z 16004KT CAVOK 12/11 Q1014=
201905160130 METAR LRSV 160130Z 16003KT 130V200 CAVOK 13/11 Q1014=
201905160200 METAR LRSV 160200Z 13005KT 9999 FEW045 12/11 Q1014=
201905160230 METAR LRSV 160230Z 12007KT 9999 SCT045 13/10 Q1014=
201905160300 METAR LRSV 160300Z 10006KT 9999 SCT040 12/11 Q1014=
201905160330 METAR LRSV 160330Z 09003KT 9999 SCT045 12/11 Q1014=
201905160400 METAR LRSV 160400Z 00000KT 9999 SCT043 12/11 Q1014=
201905160430 METAR LRSV 160430Z 00000KT 9999 FEW040 13/11 Q1014=
201905160500 METAR LRSV 160500Z 20002KT 9999 -RA BKN034 13/11 Q1014=
201905160530 METAR LRSV 160530Z 09003KT 8000 -RA BKN034 13/11 Q1014=
201905160600 METAR LRSV 160600Z 04004KT 010V080 9999 -RA BKN040 12/11
                        Q1014=
201905160630 METAR LRSV 160630Z 04006KT 010V070 9999 -RA BKN046 12/11
                        Q1014=
201905160700 METAR LRSV 160700Z 06003KT 9999 -RA FEW020 SCT040 13/11 Q1014=
201905160730 METAR LRSV 160730Z 04004KT 9999 -RA BKN040 13/12 Q1014=
201905160800 METAR LRSV 160800Z 08004KT 9999 -RA SCT037 13/12 Q1014=
201905160830 METAR LRSV 160830Z 36002KT 8000 -RA FEW019 BKN040 13/12 Q1014=
201905160900 METAR LRSV 160900Z 30004KT 8000 -RA BKN040 13/12 Q1014 R16/29//95=
201905160930 METAR LRSV 160930Z 21003KT 8000 -RA BKN040 13/11 Q1014 R16/29//95=
201905161000 METAR LRSV 161000Z VRB01KT 9999 -RA FEW023 SCT040 13/12 Q1014
                        R16/29//95=
201905161030 METAR LRSV 161030Z 00000KT 9999 FEW024 SCT040 14/12 Q1014
                        R16/29//95=
201905161100 METAR LRSV 161100Z 03003KT 320V060 9999 FEW024 SCT040 14/12
                        Q1014 R16/29//95=
201905161130 METAR LRSV 161130Z 06004KT 9999 FEW010 SCT040 14/13 Q1014
                        R16/29//95=
201905161200 METAR LRSV 161200Z 09004KT 050V120 9999 FEW008 SCT041 15/13
                        Q1014 R16/29//95=
201905161230 METAR LRSV 161230Z 08004KT 8000 -RA FEW009 BKN041 14/12 Q1014
                        R16/29//95=
201905161300 METAR LRSV 161300Z 04005KT 8000 -RA FEW009 BKN041 14/13 Q1013
                        R16/29//95=
201905161330 METAR LRSV 161330Z 06005KT 6000 -RA BKN040 14/13 Q1013 R16/29//95=
201905161400 METAR LRSV 161400Z 05004KT 010V070 7000 FEW003 SCT040 14/14
                        Q1013 R16/29//95=
201905161430 METAR LRSV 161430Z 05005KT 7000 -RA BKN004 BKN040 14/13 Q1013
                        R16/29//95=
201905161500 METAR LRSV 161500Z 08005KT 7000 -RA BKN004 BKN040 14/14 Q1013
                        R16/29//95=
201905161530 METAR LRSV 161530Z 09004KT 7000 SCT005 SCT040 15/14 Q1013
                        R16/29//95=
201905161600 METAR LRSV 161600Z 12003KT 090V160 8000 FEW006 15/13 Q1012
                        R16/29//95=
201905161630 METAR LRSV 161630Z VRB01KT 9000 FEW006 15/13 Q1012 R16/29//95=
201905161700 METAR LRSV 161700Z 00000KT 9000 FEW020 15/13 Q1012 R16/29//95=
201905161730 METAR LRSV 161730Z 21003KT CAVOK 14/13 Q1012 R16/29//95=
201905161800 METAR LRSV 161800Z 19002KT CAVOK 13/13 Q1012 R16/29//95=
201905161830 METAR LRSV 161830Z 00000KT CAVOK 13/12 Q1012 R16/29//95=
201905161900 METAR LRSV 161900Z 19002KT CAVOK 12/12 Q1012 R16/29//95=
201905161930 METAR LRSV 161930Z 00000KT 7000 MIFG NSC 12/12 Q1012 R16/29//95=
201905162000 METAR LRSV 162000Z 10002KT 0150 R34/0325N FG NSC 12/12 Q1012
                        R16/29//95=
201905162030 METAR LRSV 162030Z 08004KT 0150 R34/0225N FG NSC 12/12 Q1012
                        R16/29//95=
201905162100 METAR LRSV 162100Z 10002KT 0350 R34/0550 FG NSC 12/12 Q1012
                        R16/29//95=
201905162130 METAR LRSV 162130Z 11003KT 0300 R34/0550N FG NSC 12/11 Q1012
                        R16/29//95=
201905162200 METAR LRSV 162200Z 00000KT 0100 R34/0225N FG NSC 11/11 Q1012
                        R16/29//95=
201905162230 METAR LRSV 162230Z AUTO 17003KT 140V220 0200 R34/0250N FG
                        VV001 11/11 Q1012=
201905162300 METAR LRSV 162300Z AUTO 18002KT 0150 R34/0200N FG VV001 11/11
                        Q1012=
201905162330 METAR LRSV 162330Z 20002KT 0150 R34/0400N FG NSC 11/11 Q1012
                        R16/29//95=
201905170000 METAR LRSV 170000Z 23004KT 0300 R34/0550N FG NSC 11/10 Q1012
                        R16/29//95=
201905170030 METAR LRSV 170030Z 24005KT 0800 R34/0800 FG NSC 11/10 Q1012
                        R16/29//95=
201905170100 METAR LRSV 170100Z 25005KT 1500 BR NSC 11/11 Q1012 R16/29//95=
201905170130 METAR LRSV 170130Z 26005KT 3000 BR 11/11 Q1011 R16/29//95=
201905170200 METAR LRSV 170200Z 26004KT 5000 BR NSC 11/10 Q1011 R16/29//95=
201905170230 METAR LRSV 170230Z 25003KT 3000 BR NSC 11/11 Q1011 R16/29//95=
201905170300 METAR LRSV 170300Z 21003KT 3000 BR NSC 10/10 Q1011 R16/29//95=
201905170330 METAR LRSV 170330Z 24003KT 3000 MIFG NSC 10/10 Q1012 R16/29//95=
201905170400 METAR LRSV 170400Z 26006KT 1500 BR NSC 10/10 Q1012 R16/29//95=
201905170430 METAR LRSV 170430Z 26005KT 1500 BR NSC 11/11 Q1012 R16/29//95=
201905170500 METAR LRSV 170500Z 26003KT 9999 4000 BR NSC 13/13 Q1012 R16/29//95=
201905170530 METAR LRSV 170530Z 23004KT 200V260 CAVOK 14/13 Q1012 R16/29//95=
201905170600 METAR COR LRSV 170600Z VRB01KT 9999 0800E R34/P2000 PRFG
                        NSC 15/13 Q1013 R16/29//95=
201905170630 METAR LRSV 170630Z 07003KT 020V130 8000 1000E R34/P2000 BCFG
                        NSC 15/14 Q1013 R16/29//95=
201905170700 METAR LRSV 170700Z 06003KT 350V130 9999 1000N R34/P2000 PRFG
                        NSC 16/14 Q1013 R16/29//95=
201905170730 METAR LRSV 170730Z 08005KT 6000 FEW004 15/14 Q1013 R16/29//95=
201905170800 METAR LRSV 170800Z 07006KT 8000 SCT004 16/14 Q1013 R16/CLRD//=
201905170830 METAR LRSV 170830Z 06004KT 030V090 8000 SCT005 17/15 Q1013=
201905170900 METAR LRSV 170900Z 08004KT 030V120 9999 FEW018 18/14 Q1013=
201905170930 METAR LRSV 170930Z 08004KT 040V110 9999 FEW020 19/13 Q1013=
201905171000 METAR LRSV 171000Z 09004KT 030V140 9999 FEW020 19/14 Q1013=
201905171030 METAR LRSV 171030Z 09007KT 060V120 9999 FEW022 20/15 Q1013=
201905171100 METAR LRSV 171100Z 09007KT 060V120 9999 FEW025 20/15 Q1013=
201905171130 METAR LRSV 171130Z 09008KT 040V110 9999 FEW025 21/15 Q1013=
201905171200 METAR LRSV 171200Z 08009KT 9999 FEW030 21/14 Q1013=
201905171230 METAR LRSV 171230Z 08009KT 050V110 9999 FEW030 21/14 Q1013=
201905171300 METAR LRSV 171300Z 08009KT CAVOK 21/14 Q1012=
201905171330 METAR COR LRSV 171330Z 08008KT 040V110 CAVOK 22/14 Q1012=
201905171400 METAR LRSV 171400Z 10010KT CAVOK 22/13 Q1012=
201905171430 METAR LRSV 171430Z 09010KT CAVOK 22/13 Q1012=
201905171500 METAR LRSV 171500Z 08010KT CAVOK 22/13 Q1012=
201905171530 METAR LRSV 171530Z 09010KT CAVOK 21/14 Q1012=
201905171600 METAR COR LRSV 171600Z 10007KT CAVOK 21/14 Q1012=
201905171630 METAR LRSV 171630Z 10006KT CAVOK 20/13 Q1012=
201905171700 METAR COR LRSV 171700Z 10005KT CAVOK 19/13 Q1012=
201905171730 METAR LRSV 171730Z 11004KT CAVOK 19/12 Q1012=
201905171800 METAR LRSV 171800Z 10003KT CAVOK 19/12 Q1012=
201905171830 METAR LRSV 171830Z 18003KT CAVOK 17/12 Q1012=
201905171900 METAR LRSV 171900Z 00000KT CAVOK 18/12 Q1012=
201905171930 METAR LRSV 171930Z 27003KT CAVOK 17/12 Q1012=
201905172000 METAR LRSV 172000Z 28004KT CAVOK 16/12 Q1012=
201905172030 METAR LRSV 172030Z 27004KT CAVOK 16/12 Q1012=
201905172100 METAR LRSV 172100Z 27006KT CAVOK 16/12 Q1012=
201905172130 METAR LRSV 172130Z 27006KT CAVOK 16/12 Q1012=
201905172200 METAR LRSV 172200Z 27007KT CAVOK 16/12 Q1012=
201905172230 METAR LRSV 172230Z 33007KT CAVOK 15/12 Q1012=
201905172300 METAR LRSV 172300Z 32006KT CAVOK 17/12 Q1012=
201905172330 METAR LRSV 172330Z 33007KT CAVOK 16/12 Q1012=
201905180000 METAR LRSV 180000Z 35008KT CAVOK 14/12 Q1012=
201905180030 METAR LRSV 180030Z 34006KT CAVOK 14/12 Q1012=
201905180100 METAR LRSV 180100Z 30005KT 240V330 CAVOK 14/12 Q1011=
201905180130 METAR LRSV 180130Z 29005KT CAVOK 13/12 Q1011=
201905180200 METAR LRSV 180200Z 30009KT CAVOK 14/12 Q1011=
201905180230 METAR LRSV 180230Z 30009KT CAVOK 14/12 Q1011=
201905180300 METAR LRSV 180300Z 30009KT CAVOK 14/12 Q1011=
201905180330 METAR LRSV 180330Z AUTO 30009KT 9999 BKN110/// 16/12 Q1011=
201905180400 METAR COR LRSV 180400Z 31008KT CAVOK 16/12 Q1011=
201905180430 METAR COR LRSV 180430Z 31006KT CAVOK 17/13 Q1011=
201905180500 METAR LRSV 180500Z 30008KT CAVOK 18/13 Q1011=
201905180530 METAR LRSV 180530Z 32008KT CAVOK 18/13 Q1011=
201905180600 METAR LRSV 180600Z 35007KT CAVOK 19/14 Q1011=
201905180630 METAR LRSV 180630Z 03007KT 360V060 CAVOK 18/14 Q1012=
201905180700 METAR LRSV 180700Z 01007KT 9999 FEW035CB SCT040 18/15 Q1012=
201905180730 METAR LRSV 180730Z 33007KT 9999 FEW035CB 20/16 Q1011=
201905180800 METAR LRSV 180800Z 35008KT 320V020 CAVOK 21/16 Q1011=
201905180830 METAR LRSV 180830Z 01009KT CAVOK 21/16 Q1011=
201905180900 METAR LRSV 180900Z 35009KT 8000 SHRA SCT035CB BKN049 19/16
                        Q1010 R16/29//95=
201905180930 METAR COR LRSV 180930Z 36007KT 9999 FEW035CB SCT046 20/17
                        Q1010 R16/29//95=
201905181000 METAR LRSV 181000Z 35005KT 9999 SCT040CB BKN047 20/17 Q1010
                        R16/29//95=
201905181030 METAR LRSV 181030Z 30007KT 9999 TS FEW018 SCT040CB BKN047
                        19/17 Q1010 R16/29//95=
201905181100 METAR LRSV 181100Z 27008KT 9999 -SHRA VCTS FEW020 SCT040CB
                        BKN047 18/16 Q1010 R16/29//95=
201905181130 METAR LRSV 181130Z 29014KT 260V320 5000 TSRA FEW012 BKN030CB
                        15/14 Q1011 R16/29//95=
201905181200 METAR LRSV 181200Z 25015KT 9999 -TSRA FEW015 SCT030CB 15/14
                        Q1011 R16/29//95=
201905181230 METAR LRSV 181230Z 29015KT 9999 -SHRA FEW015 FEW030CB SCT045
                        15/13 Q1010 R16/29//95=
201905181300 METAR LRSV 181300Z 30008KT 9999 FEW030CB 16/14 Q1010 R16/29//95=
201905181330 METAR LRSV 181330Z 26009KT 9999 FEW035CB 17/14 Q1009 R16/29//95=
201905181400 METAR LRSV 181400Z 36009KT CAVOK 16/14 Q1010 R16/29//95=
201905181430 METAR LRSV 181430Z 02014KT 9999 FEW048 15/14 Q1010 R16/29//95=
201905181500 METAR LRSV 181500Z 01012KT 9999 FEW035CB 15/14 Q1010 R16/19//95=
201905181530 METAR LRSV 181530Z 36011KT 9999 FEW035CB 16/15 Q1010 R16/19//95=
201905181600 METAR LRSV 181600Z 35010KT 9999 FEW040CB SCT043 15/14 Q1010
                        R16/19//95=
201905181630 METAR LRSV 181630Z 33009KT 9999 FEW040CB SCT045 15/14 Q1009
                        R16/19//95=
201905181700 METAR LRSV 181700Z 32007KT 9999 FEW045CB 15/14 Q1009 R16/19//95=
201905181730 METAR LRSV 181730Z 33005KT 9999 FEW015 FEW045CB 15/14 Q1010
                        R16/19//95=
201905181800 METAR LRSV 181800Z 34005KT 9999 SCT012 15/14 Q1010 R16/19//95=
201905181830 METAR LRSV 181830Z 32008KT 9999 SCT012 15/14 Q1010 R16/29//95=
201905181900 METAR LRSV 181900Z 31006KT CAVOK 14/14 Q1010 R16/29//95=
201905181930 METAR COR LRSV 181930Z 31006KT CAVOK 14/13 Q1010 R16/29//95=
201905182000 METAR LRSV 182000Z 32005KT CAVOK 14/13 Q1010 R16/29//95=
201905182030 METAR LRSV 182030Z 33005KT 9999 SCT013 14/13 Q1010 R16/29//95=
201905182100 METAR LRSV 182100Z 34006KT 9999 SCT014 14/13 Q1010 R16/29//95=
201905182130 METAR LRSV 182130Z 33008KT CAVOK 14/13 Q1010 R16/29//95=
201905182200 METAR LRSV 182200Z 36006KT 9999 FEW018 14/13 Q1011 R16/29//95=
201905182230 METAR LRSV 182230Z 33006KT 9999 FEW018 14/14 Q1010 R16/29//95=
201905182300 METAR LRSV 182300Z 34006KT CAVOK 14/13 Q1010 R16/29//95=
201905182330 METAR LRSV 182330Z 33005KT CAVOK 14/13 Q1010 R16/29//95=
201905190000 METAR LRSV 190000Z 33007KT CAVOK 14/13 Q1009 R16/29//95=
201905190030 METAR LRSV 190030Z 34004KT 8000 NSC 13/12 Q1010 R16/29//95=
201905190100 METAR LRSV 190100Z 28003KT 8000 NSC 13/13 Q1010 R16/29//95=
201905190130 METAR LRSV 190130Z 01003KT 340V050 8000 NSC 13/13 Q1010 R16/29//95=
201905190200 METAR LRSV 190200Z 02004KT 2000 BR BKN002 14/13 Q1010 R16/19//95=
201905190230 METAR LRSV 190230Z 04005KT 0250 R34/0800 FG VV001 14/13 Q1009
                        R16/19//95=
201905190300 METAR LRSV 190300Z AUTO 08002KT 0300 R34/0350N FG VV001 14/13
                        Q1010=
201905190330 METAR LRSV 190330Z 00000KT 0300 R34/0550 FG VV001 14/13 Q1010
                        R16/19//95=
201905190400 METAR LRSV 190400Z 00000KT 0600 R34/0800 FG VV001 14/14 Q1010
                        R16/19//95=
201905190430 METAR LRSV 190430Z 22003KT 190V250 7000 BKN004 BKN038 14/14
                        Q1010 R16/19//95=
201905190500 METAR LRSV 190500Z 00000KT 9000 FEW004 SCT036 15/14 Q1010
                        R16/19//95=
201905190530 METAR LRSV 190530Z 23004KT CAVOK 16/14 Q1010 R16/19//95=
201905190600 METAR LRSV 190600Z 24003KT 220V280 CAVOK 16/14 Q1010 R16/19//95=
201905190630 METAR LRSV 190630Z 00000KT 9999 SCT036 17/15 Q1010 R16/CLRD//=
201905190700 METAR LRSV 190700Z 14005KT 100V180 9999 SCT031 19/15 Q1011=
201905190730 METAR COR LRSV 190730Z 13005KT 080V180 9999 SCT030 19/16
                        Q1011=
201905190800 METAR LRSV 190800Z 12007KT 100V160 9999 SCT021 19/15 Q1011=
201905190830 METAR LRSV 190830Z 13007KT 090V160 9999 SCT021 19/16 Q1011=
201905190900 METAR LRSV 190900Z 11007KT 070V140 9999 FEW015 20/17 Q1011=
201905190930 METAR LRSV 190930Z 10008KT 070V130 9999 SCT020 20/17 Q1011=
201905191000 METAR LRSV 191000Z 09008KT 9999 SCT020 21/18 Q1011=
201905191030 METAR LRSV 191030Z 09009KT 9999 SCT020 21/18 Q1011=
201905191100 METAR LRSV 191100Z 11006KT 9999 SCT030 21/17 Q1011=
201905191130 METAR LRSV 191130Z 09008KT 050V120 9999 SCT021 22/17 Q1010=
201905191200 METAR LRSV 191200Z 10008KT 070V130 9999 FEW021TCU SCT030
                        22/17 Q1010=
201905191230 METAR LRSV 191230Z 10009KT 9999 FEW021TCU SCT030 22/17 Q1010=
201905191300 METAR LRSV 191300Z 10010KT 9999 FEW020TCU SCT023 22/18 Q1010=
201905191330 METAR LRSV 191330Z 10011KT 9999 FEW023TCU SCT035 22/17 Q1010=
201905191400 METAR LRSV 191400Z 13010KT 9999 FEW025TCU 23/17 Q1010=
201905191430 METAR LRSV 191430Z 11009KT 070V140 9999 FEW030TCU 22/17 Q1010=
201905191500 METAR LRSV 191500Z 12010KT 9999 FEW028 22/17 Q1010=
201905191530 METAR LRSV 191530Z 13010KT 9999 FEW040CB 22/17 Q1009=
201905191600 METAR LRSV 191600Z 13010KT 9999 FEW031 22/17 Q1009=
201905191630 METAR LRSV 191630Z 14008KT 9999 FEW031 21/17 Q1009=
201905191700 METAR LRSV 191700Z 13008KT 9999 FEW031 21/17 Q1009=
201905191730 METAR LRSV 191730Z 12008KT 9999 FEW031 20/17 Q1009=
201905191800 METAR LRSV 191800Z 12008KT 9999 FEW031 20/17 Q1010=
201905191830 METAR LRSV 191830Z 11008KT 9999 FEW033 19/17 Q1010=
201905191900 METAR LRSV 191900Z 12008KT 9999 FEW033 19/17 Q1010=
201905191930 METAR LRSV 191930Z 12006KT 9999 FEW033 19/17 Q1010=
201905192000 METAR LRSV 192000Z 14006KT CAVOK 19/17 Q1009=
201905192030 METAR LRSV 192030Z 10007KT CAVOK 18/16 Q1009=
201905192100 METAR LRSV 192100Z 09007KT CAVOK 17/16 Q1009=
201905192130 METAR LRSV 192130Z 12006KT CAVOK 17/16 Q1009=
201905192200 METAR LRSV 192200Z 12006KT CAVOK 17/16 Q1009=
201905192230 METAR COR LRSV 192230Z 11005KT CAVOK 15/14 Q1009=
201905192300 METAR LRSV 192300Z 13008KT CAVOK 16/16 Q1009=
201905192330 METAR LRSV 192330Z 14008KT CAVOK 16/15 Q1009=
201905200000 METAR LRSV 200000Z 14008KT CAVOK 16/15 Q1009=
201905200030 METAR LRSV 200030Z 13008KT CAVOK 16/15 Q1009=
201905200100 METAR LRSV 200100Z 13008KT CAVOK 16/15 Q1009=
201905200130 METAR LRSV 200130Z 14007KT CAVOK 16/15 Q1009=
201905200200 METAR LRSV 200200Z 13007KT 8000 NSC 16/15 Q1009=
201905200230 METAR LRSV 200230Z 10006KT 7000 NSC 15/15 Q1009=
201905200300 METAR LRSV 200300Z 09006KT 6000 NSC 15/15 Q1009=
201905200330 METAR LRSV 200330Z 10006KT 7000 SCT007 16/15 Q1009=
201905200400 METAR LRSV 200400Z 13007KT 7000 BKN006 16/16 Q1009=
201905200430 METAR LRSV 200430Z 14009KT 8000 BKN006 17/16 Q1009=
201905200500 METAR LRSV 200500Z 15008KT 7000 FEW006 17/17 Q1009=
201905200530 METAR LRSV 200530Z 13011KT 8000 FEW008 17/16 Q1009=
201905200600 METAR LRSV 200600Z 13012KT 8000 FEW008 18/17 Q1009=
201905200630 METAR LRSV 200630Z 12011KT 9999 SCT008 19/17 Q1009=
201905200700 METAR LRSV 200700Z 13014KT 9999 FEW005 SCT030 20/17 Q1009=
201905200730 METAR LRSV 200730Z 13015KT 9999 FEW009 SCT030 20/17 Q1009=
201905200800 METAR LRSV 200800Z 14017KT 9999 FEW013 SCT030 20/17 Q1010=
201905200830 METAR LRSV 200830Z 14015KT 9999 FEW013 SCT030 21/17 Q1010=
201905200900 METAR LRSV 200900Z 13014KT 9999 SCT013 BKN030 20/17 Q1010=
201905200930 METAR LRSV 200930Z 13012KT 9999 SCT013 BKN030 21/17 Q1010=
201905201000 METAR LRSV 201000Z 13015KT 9999 FEW018 BKN030 21/17 Q1010=
201905201030 METAR LRSV 201030Z 13015KT 9999 SCT017 BKN030 20/17 Q1010=
201905201100 METAR LRSV 201100Z 13015KT 9999 FEW015 BKN030 20/17 Q1010=
201905201130 METAR LRSV 201130Z 12014KT 9999 FEW020 BKN030 21/18 Q1010=
201905201200 METAR LRSV 201200Z 13013KT 9999 FEW019 BKN032 21/17 Q1010=
201905201230 METAR LRSV 201230Z 13016KT 9999 FEW019 BKN032 21/17 Q1010=
201905201300 METAR LRSV 201300Z 15017KT 9999 FEW019 BKN035 21/16 Q1009=
201905201330 METAR COR LRSV 201330Z 15014KT 9999 FEW018 SCT035 21/16 Q1009=
201905201400 METAR COR LRSV 201400Z 15015KT 9999 FEW018 SCT034 21/16 Q1009=
201905201430 METAR LRSV 201430Z 12014KT 9999 FEW018 BKN034 22/18 Q1008=
201905201500 METAR LRSV 201500Z 12013KT 9999 FEW018 FEW033CB 20/17 Q1008=
201905201530 METAR LRSV 201530Z 11011KT 9999 FEW018 FEW033CB 20/17 Q1008=
201905201600 METAR LRSV 201600Z 12011KT 9999 FEW020 FEW033CB 20/17 Q1007=
201905201630 METAR LRSV 201630Z 11013KT 9999 FEW018 FEW033CB 20/17 Q1007=
201905201700 METAR LRSV 201700Z 12012KT 9999 FEW023CB 19/17 Q1007=
201905201730 METAR LRSV 201730Z 12013KT 9999 FEW030CB 19/17 Q1007=
201905201800 METAR LRSV 201800Z 12014KT 9999 FEW030CB 19/17 Q1007=
201905201830 METAR LRSV 201830Z 12013KT 9999 FEW017 FEW030CB 18/17 Q1007=
201905201900 METAR LRSV 201900Z 13011KT 9999 BKN014 18/16 Q1007=
201905201930 METAR LRSV 201930Z 13011KT 9999 SCT016 17/16 Q1007=
201905202000 METAR LRSV 202000Z 13012KT CAVOK 17/16 Q1007=
201905202030 METAR LRSV 202030Z 14010KT 9999 FEW012 17/15 Q1008=
201905202100 METAR LRSV 202100Z 14009KT 9999 -RA FEW013 17/15 Q1007=
201905202130 METAR LRSV 202130Z 13010KT 9999 BKN021 17/15 Q1007=
201905202200 METAR LRSV 202200Z 12010KT 9999 BKN021 16/15 Q1007=
201905202230 METAR LRSV 202230Z 14006KT 080V190 9999 BKN021 16/15 Q1006=
201905202300 METAR LRSV 202300Z 30010KT 9999 -RA BKN021 13/12 Q1006=
201905202330 METAR LRSV 202330Z 31007KT 9999 FEW025 13/12 Q1005=
201905210000 METAR LRSV 210000Z 29010KT 9999 -SHRA FEW025CB 13/12 Q1005=
201905210030 METAR LRSV 210030Z 29006KT 9999 FEW037CB 13/12 Q1005=
201905210100 METAR LRSV 210100Z 23007KT 9999 FEW030CB 12/11 Q1006=
201905210130 METAR LRSV 210130Z 23007KT 9999 FEW002 BKN004 12/12 Q1005=
201905210200 METAR LRSV 210200Z 20005KT CAVOK 12/12 Q1005=
201905210230 METAR LRSV 210230Z 19004KT 7000 MIFG NSC 11/10 Q1005 R16/29//95=
201905210300 METAR LRSV 210300Z 17003KT 7000 MIFG NSC 11/11 Q1006 R16/29//95=
201905210330 METAR LRSV 210330Z 15003KT 3000 BR NSC 12/11 Q1006 R16/29//95=
201905210400 METAR COR LRSV 210400Z 16007KT CAVOK 13/12 Q1006 R16/29//95=
201905210430 METAR LRSV 210430Z 18008KT CAVOK 14/12 Q1006 R16/29//95=
201905210500 METAR LRSV 210500Z 16006KT CAVOK 14/12 Q1006 R16/29//95=
201905210530 METAR LRSV 210530Z 19009KT CAVOK 15/13 Q1006 R16/29//95=
201905210600 METAR LRSV 210600Z 19011KT 9999 FEW010 16/12 Q1006 R16/29//95=
201905210630 METAR LRSV 210630Z 19009KT 9999 FEW025 17/12 Q1006 R16/29//95=
201905210700 METAR LRSV 210700Z 20008KT 160V230 9999 SCT030 17/12 Q1007
                        R16/29//95=
201905210730 METAR LRSV 210730Z 19007KT 150V220 9999 BKN030 18/12 Q1007
                        R16/29//95=
201905210800 METAR LRSV 210800Z 21009KT 9999 BKN030 17/11 Q1007 R16/CLRD//=
201905210830 METAR LRSV 210830Z 21013KT 9999 BKN035 18/10 Q1007=
201905210900 METAR LRSV 210900Z 23012KT 9999 FEW035CB SCT045 17/10 Q1007=
201905210930 METAR LRSV 210930Z 22009KT 9999 FEW035CB SCT045 18/10 Q1007=
201905211000 METAR LRSV 211000Z 24012KT 9999 FEW035CB SCT045 19/11 Q1008=
201905211030 METAR LRSV 211030Z 25012KT 9999 FEW035CB SCT045 19/10 Q1008=
201905211100 METAR LRSV 211100Z 23015KT 9999 SCT045 19/10 Q1008=
201905211130 METAR COR LRSV 211130Z 25015KT 9999 SCT045 18/09 Q1008=
201905211200 METAR LRSV 211200Z 25013KT 9999 SCT045 18/09 Q1008=
201905211230 METAR LRSV 211230Z 22013KT 9999 SCT045 18/09 Q1008=
201905211300 METAR LRSV 211300Z 24013KT 220V280 9999 SCT045 19/10 Q1008=
201905211330 METAR LRSV 211330Z 25012KT 230V300 9999 FEW045 19/10 Q1009=
201905211400 METAR LRSV 211400Z 26010KT 9999 FEW045 19/07 Q1009=
201905211430 METAR LRSV 211430Z 27011KT 240V310 9999 FEW049 18/08 Q1009=
201905211500 METAR LRSV 211500Z 26012KT 9999 VCTS FEW035CB 17/09 Q1009=
201905211530 METAR LRSV 211530Z 26008KT 9999 FEW040TCU 16/08 Q1009=
201905211600 METAR LRSV 211600Z 25008KT 9999 FEW040CB 16/08 Q1009=
201905211630 METAR LRSV 211630Z 24007KT 9999 FEW040CB 15/09 Q1010=
201905211700 METAR LRSV 211700Z 26006KT 9999 FEW040CB 15/08 Q1010=
201905211730 METAR COR LRSV 211730Z 27006KT CAVOK 15/08 Q1010=
201905211800 METAR LRSV 211800Z 27005KT CAVOK 14/08 Q1010=
201905211830 METAR LRSV 211830Z 27007KT CAVOK 14/08 Q1010=
201905211900 METAR COR LRSV 211900Z 25007KT CAVOK 14/08 Q1010=
201905211930 METAR LRSV 211930Z 25005KT CAVOK 13/08 Q1010=
201905212000 METAR LRSV 212000Z 26007KT CAVOK 13/08 Q1010=
201905212030 METAR LRSV 212030Z 25006KT CAVOK 13/08 Q1010=
201905212100 METAR LRSV 212100Z 24007KT CAVOK 12/08 Q1010=
201905212130 METAR LRSV 212130Z 23007KT CAVOK 11/08 Q1010=
201905212200 METAR LRSV 212200Z 22006KT CAVOK 11/09 Q1010=
201905212230 METAR LRSV 212230Z 22007KT CAVOK 11/08 Q1010=
201905212300 METAR LRSV 212300Z 24006KT CAVOK 11/08 Q1010=
201905212330 METAR LRSV 212330Z 24008KT CAVOK 11/09 Q1010=
201905220000 METAR LRSV 220000Z 24007KT CAVOK 11/08 Q1010=
201905220030 METAR LRSV 220030Z 24007KT CAVOK 10/08 Q1010=
201905220100 METAR LRSV 220100Z 24008KT CAVOK 10/08 Q1010=
201905220130 METAR LRSV 220130Z 25008KT CAVOK 11/08 Q1009=
201905220200 METAR LRSV 220200Z 26009KT CAVOK 12/07 Q1009=
201905220230 METAR LRSV 220230Z 24008KT CAVOK 11/08 Q1009=
201905220300 METAR LRSV 220300Z 24005KT CAVOK 11/07 Q1010=
201905220330 METAR LRSV 220330Z 23005KT CAVOK 12/08 Q1010=
201905220400 METAR LRSV 220400Z 25004KT CAVOK 12/09 Q1010=
201905220430 METAR LRSV 220430Z 24003KT CAVOK 12/09 Q1010=
201905220500 METAR LRSV 220500Z 16004KT CAVOK 13/09 Q1010=
201905220530 METAR LRSV 220530Z 18005KT CAVOK 15/09 Q1010=
201905220600 METAR LRSV 220600Z 18006KT 140V200 CAVOK 15/10 Q1010=
201905220630 METAR LRSV 220630Z 19007KT CAVOK 16/10 Q1009=
201905220700 METAR LRSV 220700Z 18007KT CAVOK 17/10 Q1009=
201905220730 METAR COR LRSV 220730Z 17006KT 130V200 CAVOK 18/10 Q1009=
201905220800 METAR LRSV 220800Z 21007KT 170V230 CAVOK 19/10 Q1009=
201905220830 METAR LRSV 220830Z 16005KT CAVOK 19/09 Q1009=
201905220900 METAR LRSV 220900Z 24008KT 190V260 9999 SCT049 19/09 Q1009=
201905220930 METAR LRSV 220930Z 21005KT 170V260 9999 SCT048 19/07 Q1009=
201905221000 METAR LRSV 221000Z 25008KT 210V290 9999 SCT048 19/09 Q1009=
201905221030 METAR LRSV 221030Z 21009KT 180V240 9999 FEW048 20/09 Q1009=
201905221100 METAR LRSV 221100Z 25009KT 9999 FEW048 20/07 Q1009=
201905221130 METAR LRSV 221130Z 25010KT 210V270 CAVOK 20/08 Q1009=
201905221200 METAR LRSV 221200Z 24012KT CAVOK 20/07 Q1009=
201905221230 METAR LRSV 221230Z 27009KT CAVOK 20/08 Q1009=
201905221300 METAR LRSV 221300Z 25010KT CAVOK 21/09 Q1009=
201905221330 METAR LRSV 221330Z 26009KT CAVOK 21/09 Q1009=
201905221400 METAR LRSV 221400Z 26007KT 220V280 CAVOK 21/08 Q1009=
201905221430 METAR LRSV 221430Z 26010KT CAVOK 21/09 Q1009=
201905221500 METAR LRSV 221500Z 25011KT CAVOK 20/08 Q1009=
201905221530 METAR LRSV 221530Z 27010KT CAVOK 19/09 Q1009=
201905221600 METAR LRSV 221600Z 27007KT CAVOK 19/09 Q1009=
201905221630 METAR LRSV 221630Z 28007KT CAVOK 19/09 Q1009=
201905221700 METAR LRSV 221700Z 27007KT CAVOK 18/10 Q1009=
201905221730 METAR LRSV 221730Z 25008KT CAVOK 18/09 Q1009=
201905221800 METAR LRSV 221800Z 26008KT CAVOK 17/09 Q1009=
201905221830 METAR LRSV 221830Z 27008KT CAVOK 16/09 Q1009=
201905221900 METAR LRSV 221900Z 27006KT CAVOK 15/09 Q1009=
201905221930 METAR LRSV 221930Z 26008KT CAVOK 15/09 Q1009=
201905222000 METAR LRSV 222000Z 26006KT CAVOK 15/09 Q1009=
201905222030 METAR LRSV 222030Z 26007KT CAVOK 15/09 Q1009=
201905222100 METAR LRSV 222100Z 24006KT CAVOK 14/09 Q1009=
201905222130 METAR LRSV 222130Z 23007KT CAVOK 13/09 Q1009=
201905222200 METAR LRSV 222200Z 25007KT CAVOK 14/09 Q1009=
201905222230 METAR LRSV 222230Z 25006KT CAVOK 13/10 Q1009=
201905222300 METAR LRSV 222300Z 27006KT CAVOK 14/10 Q1009=
201905222330 METAR LRSV 222330Z 26004KT CAVOK 13/10 Q1009=
201905230000 METAR LRSV 230000Z 24006KT CAVOK 13/10 Q1009=
201905230030 METAR LRSV 230030Z 27003KT CAVOK 13/10 Q1009=
201905230100 METAR LRSV 230100Z 24005KT CAVOK 14/10 Q1009=
201905230130 METAR LRSV 230130Z 26006KT CAVOK 14/10 Q1008=
201905230200 METAR LRSV 230200Z 26006KT CAVOK 14/09 Q1008=
201905230230 METAR LRSV 230230Z 26006KT CAVOK 14/09 Q1008=
201905230300 METAR LRSV 230300Z 25007KT CAVOK 13/09 Q1008=
201905230330 METAR LRSV 230330Z 26007KT CAVOK 14/10 Q1008=
201905230400 METAR LRSV 230400Z 25007KT CAVOK 15/10 Q1009=
201905230430 METAR LRSV 230430Z 24007KT CAVOK 15/11 Q1009=
201905230500 METAR LRSV 230500Z 24007KT CAVOK 16/11 Q1009=
201905230530 METAR LRSV 230530Z 25008KT CAVOK 16/11 Q1009=
201905230600 METAR LRSV 230600Z 25010KT CAVOK 17/10 Q1009=
201905230630 METAR LRSV 230630Z 25009KT CAVOK 17/11 Q1009=
201905230700 METAR LRSV 230700Z 25009KT CAVOK 17/10 Q1009=
201905230730 METAR LRSV 230730Z 28009KT CAVOK 18/10 Q1009=
201905230800 METAR LRSV 230800Z 28008KT 250V320 CAVOK 19/11 Q1009=
201905230830 METAR LRSV 230830Z 33006KT 270V030 9999 FEW040 20/11 Q1010=
201905230900 METAR LRSV 230900Z VRB02KT 9999 SCT042 19/09 Q1010=
201905230930 METAR LRSV 230930Z 01007KT 340V050 9999 SCT043 19/11 Q1009=
201905231000 METAR LRSV 231000Z 04007KT 360V070 9999 BKN041 19/11 Q1010=
201905231030 METAR LRSV 231030Z 07004KT 010V170 9999 BKN045 21/11 Q1010=
201905231100 METAR LRSV 231100Z VRB01KT 9999 FEW030CB BKN045 20/09 Q1010=
201905231130 METAR LRSV 231130Z 03002KT 360V080 9999 FEW030CB BKN045 19/10
                        Q1010=
201905231200 METAR COR LRSV 231200Z 27003KT 240V360 9999 FEW035CB BKN048
                        20/10 Q1010=
201905231230 METAR LRSV 231230Z 32008KT 290V350 9999 FEW045CB 19/11 Q1009=
201905231300 METAR LRSV 231300Z 29008KT 9999 FEW045CB 18/12 Q1009=
201905231330 METAR LRSV 231330Z 22010KT 9999 -SHRA FEW045CB 16/12 Q1009=
201905231400 METAR LRSV 231400Z 23007KT 9999 -SHRA FEW045CB 16/13 Q1009=
201905231430 METAR LRSV 231430Z 26005KT 9999 FEW040TCU 17/13 Q1009=
201905231500 METAR LRSV 231500Z 26006KT 9999 FEW050CB 17/12 Q1009=
201905231530 METAR LRSV 231530Z 25006KT 9999 FEW050CB 18/13 Q1009=
201905231600 METAR LRSV 231600Z 24005KT CAVOK 17/13 Q1009=
201905231630 METAR LRSV 231630Z 24003KT CAVOK 17/14 Q1009=
201905231700 METAR LRSV 231700Z 28003KT CAVOK 17/12 Q1009=
201905231730 METAR LRSV 231730Z 25003KT CAVOK 16/12 Q1009=
201905231800 METAR LRSV 231800Z 30004KT CAVOK 16/12 Q1010=
201905231830 METAR LRSV 231830Z 32006KT CAVOK 16/12 Q1010=
201905231900 METAR LRSV 231900Z 34008KT CAVOK 15/12 Q1010=
201905231930 METAR LRSV 231930Z 33008KT CAVOK 15/12 Q1010=
201905232000 METAR LRSV 232000Z 32009KT CAVOK 15/11 Q1010=
201905232030 METAR LRSV 232030Z 32009KT CAVOK 15/11 Q1011=
201905232100 METAR LRSV 232100Z 32009KT CAVOK 15/11 Q1011=
201905232130 METAR LRSV 232130Z 31009KT CAVOK 15/11 Q1011=
201905232200 METAR LRSV 232200Z 32010KT CAVOK 15/11 Q1011=
201905232230 METAR LRSV 232230Z 31008KT 9999 FEW047 14/12 Q1011=
201905232300 METAR LRSV 232300Z 31008KT 9999 SCT047 14/12 Q1011=
201905232330 METAR LRSV 232330Z 31009KT 9999 FEW047 14/12 Q1011=
201905240000 METAR LRSV 240000Z 31010KT CAVOK 14/12 Q1010=
201905240030 METAR LRSV 240030Z 31009KT 9999 FEW047 14/11 Q1010=
201905240100 METAR LRSV 240100Z 31009KT 9999 FEW047 14/11 Q1010=
201905240130 METAR LRSV 240130Z 31009KT 9999 FEW047 13/11 Q1010=
201905240200 METAR LRSV 240200Z 31011KT 9999 FEW047 13/11 Q1010=
201905240230 METAR LRSV 240230Z 32011KT 9999 FEW047 13/11 Q1010=
201905240300 METAR LRSV 240300Z 33010KT CAVOK 13/12 Q1010=
201905240330 METAR LRSV 240330Z 32009KT CAVOK 14/12 Q1010=
201905240400 METAR LRSV 240400Z 31010KT CAVOK 14/12 Q1010=
201905240430 METAR LRSV 240430Z 32011KT CAVOK 15/12 Q1010=
201905240500 METAR LRSV 240500Z 31009KT CAVOK 15/13 Q1010=
201905240530 METAR LRSV 240530Z 31007KT CAVOK 16/13 Q1010=
201905240600 METAR LRSV 240600Z 33008KT CAVOK 16/13 Q1010=
201905240630 METAR LRSV 240630Z 33007KT 300V360 9999 FEW030 17/13 Q1010=
201905240700 METAR LRSV 240700Z 35010KT 9999 FEW030 17/13 Q1010=
201905240730 METAR LRSV 240730Z 33009KT 9999 FEW030 17/14 Q1011=
201905240800 METAR LRSV 240800Z 33009KT 300V360 9999 FEW030 17/14 Q1010=
201905240830 METAR LRSV 240830Z 34010KT 9999 SCT030 18/14 Q1010=
201905240900 METAR LRSV 240900Z 35009KT 320V020 9999 SCT030 18/13 Q1010=
201905240930 METAR COR LRSV 240930Z 36009KT 9999 SCT030 18/13 Q1010=
201905241000 METAR LRSV 241000Z 35010KT 9999 SCT030 19/14 Q1010=
201905241030 METAR LRSV 241030Z 33009KT 300V360 9999 SCT030 19/13 Q1010=
201905241100 METAR LRSV 241100Z 36009KT 330V030 9999 SCT030 19/13 Q1009=
201905241130 METAR LRSV 241130Z 33009KT 9999 FEW030CB SCT037 20/14 Q1009=
201905241200 METAR LRSV 241200Z 01008KT 9999 FEW030CB SCT037 20/13 Q1009=
201905241230 METAR LRSV 241230Z 33007KT 300V360 9999 SCT030CB 19/13 Q1009=
201905241300 METAR LRSV 241300Z 34008KT 9999 VCTS SCT030CB 19/12 Q1009=
201905241330 METAR LRSV 241330Z 22004KT 180V260 9999 TS SCT030CB 17/12
                        Q1009=
201905241400 METAR LRSV 241400Z 23006KT 9999 SCT030CB 17/14 Q1009=
201905241430 METAR LRSV 241430Z 34006KT 9999 FEW030CB 19/14 Q1009=
201905241500 METAR LRSV 241500Z 34007KT 310V010 9999 SCT030CB 18/13 Q1009=
201905241530 METAR LRSV 241530Z 03006KT 340V070 9999 VCTS SCT030CB 17/11
                        Q1010=
201905241600 METAR LRSV 241600Z 05012KT 030V090 2000 TSRA BKN030CB 13/12
                        Q1010 R16/29//95=
201905241630 METAR LRSV 241630Z 26006KT 240V300 6000 TSRA SCT030CB 13/12
                        Q1010 R16/29//95=
201905241700 METAR LRSV 241700Z 25008KT 9999 -SHRA SCT030CB 13/12 Q1009
                        R16/29//95=
201905241730 METAR LRSV 241730Z 26011KT 9999 -SHRA SCT030CB 13/12 Q1008
                        R16/290395=
201905241800 METAR LRSV 241800Z 24009KT CAVOK 13/12 Q1008 R16/290395=
201905241830 METAR LRSV 241830Z 27007KT CAVOK 13/12 Q1009 R16/290395=
201905241900 METAR LRSV 241900Z 31006KT CAVOK 13/11 Q1009 R16/290395=
201905241930 METAR LRSV 241930Z 03006KT 350V060 CAVOK 13/12 Q1009 R16/290395=
201905242000 METAR LRSV 242000Z 36007KT CAVOK 13/12 Q1009 R16/290395=
201905242030 METAR LRSV 242030Z 36005KT 1500 BR NSC 12/12 Q1009 R16/290395=
201905242100 METAR LRSV 242100Z 33005KT CAVOK 12/12 Q1009 R16/290395=
201905242130 METAR LRSV 242130Z 32007KT CAVOK 13/11 Q1009 R16/290395=
201905242200 METAR LRSV 242200Z 32006KT CAVOK 13/11 Q1009 R16/290395=
201905242230 METAR LRSV 242230Z 32007KT CAVOK 14/11 Q1009 R16/290395=
201905242300 METAR LRSV 242300Z 30006KT CAVOK 13/11 Q1009 R16/290395=
201905242330 METAR LRSV 242330Z 30007KT CAVOK 13/11 Q1009 R16/290395=
201905250000 METAR LRSV 250000Z 31009KT CAVOK 13/12 Q1009 R16/290395=
201905250030 METAR LRSV 250030Z 31009KT CAVOK 13/11 Q1009 R16/290395=
201905250100 METAR LRSV 250100Z 33009KT CAVOK 13/12 Q1009 R16/290395=
201905250130 METAR LRSV 250130Z 32010KT CAVOK 13/12 Q1009 R16/290395=
201905250200 METAR LRSV 250200Z 32011KT CAVOK 13/12 Q1009 R16/290395=
201905250230 METAR LRSV 250230Z 32014KT 9999 -RA BKN048 13/12 Q1009 R16/290395=
201905250300 METAR COR LRSV 250300Z 32014KT 7000 NSC 13/12 Q1009 R16/290395=
201905250330 METAR COR LRSV 250330Z 32013KT 8000 NSC 13/12 Q1009 R16/19//95=
201905250400 METAR LRSV 250400Z 32011KT CAVOK 14/12 Q1009 R16/19//95=
201905250430 METAR LRSV 250430Z 32012KT 9999 FEW009 14/13 Q1009 R16/19//95=
201905250500 METAR LRSV 250500Z 32013KT 9999 SCT009 15/13 Q1009 R16/19//95=
201905250530 METAR COR LRSV 250530Z 33014KT 9999 BKN010 15/13 Q1010 R16/19//95=
201905250600 METAR LRSV 250600Z 32012KT 9999 BKN014 16/13 Q1010 R16/19//95=
201905250630 METAR LRSV 250630Z 34012KT 9999 SCT014 16/14 Q1010 R16/19//95=
201905250700 METAR LRSV 250700Z 33012KT 9999 SCT015 17/14 Q1010 R16/19//95=
201905250730 METAR LRSV 250730Z 33012KT 9999 SCT013 BKN018 17/13 Q1010
                        R16/19//95=
201905250800 METAR LRSV 250800Z 31011KT 280V340 9999 SCT013 BKN019 17/13
                        Q1010 R16/19//95=
201905250830 METAR LRSV 250830Z 32011KT 290V350 9999 SCT015 BKN020 17/13
                        Q1011 R16/CLRD//=
201905250900 METAR LRSV 250900Z 33013KT 9999 FEW015 SCT020 17/13 Q1011=
201905250930 METAR LRSV 250930Z 33012KT 310V010 9999 FEW015 SCT020 17/13
                        Q1011=
201905251000 METAR LRSV 251000Z 35013KT 9999 SCT020 18/13 Q1011=
201905251030 METAR LRSV 251030Z 35013KT 310V010 9999 SCT020 18/14 Q1011=
201905251100 METAR LRSV 251100Z 34012KT 9999 SCT022 19/13 Q1010=
201905251130 METAR LRSV 251130Z 36013KT 9999 SCT023 19/13 Q1010=
201905251200 METAR LRSV 251200Z 35014KT 9999 SCT026 19/14 Q1010=
201905251230 METAR LRSV 251230Z 35014KT 9999 SCT026 19/14 Q1010=
201905251300 METAR LRSV 251300Z 34011KT 310V010 9999 SCT026 20/14 Q1010=
201905251330 METAR LRSV 251330Z 35013KT 9999 FEW026 20/14 Q1010=
201905251400 METAR LRSV 251400Z 34012KT CAVOK 20/13 Q1010=
201905251430 METAR LRSV 251430Z 33011KT 9999 FEW030TCU 20/13 Q1010=
201905251500 METAR LRSV 251500Z 32008KT 9999 TS FEW035CB 19/13 Q1010=
201905251530 METAR LRSV 251530Z 31008KT 260V350 9999 TS FEW035CB SCT040
                        19/13 Q1011=
201905251600 METAR LRSV 251600Z 29008KT 9999 TS FEW035CB 18/13 Q1011=
201905251630 METAR LRSV 251630Z 29010KT 9999 -SHRA VCTS SCT030CB 16/13
                        Q1011=
201905251700 METAR LRSV 251700Z 30008KT 9999 SCT030CB 17/14 Q1011 R16/29//95=
201905251730 METAR LRSV 251730Z 34012KT 9999 SCT030CB 16/13 Q1012 R16/29//95=
201905251800 METAR LRSV 251800Z 31008KT 9999 -SHRA SCT030CB 15/13 Q1012
                        R16/29//95=
201905251830 METAR LRSV 251830Z 32009KT 9999 FEW030CB 15/13 Q1012 R16/29//95=
201905251900 METAR LRSV 251900Z 29009KT 9999 FEW030CB 15/13 Q1013 R16/29//95=
201905251930 METAR LRSV 251930Z 29009KT 9999 FEW030CB 15/13 Q1013 R16/29//95=
201905252000 METAR LRSV 252000Z 28009KT CAVOK 15/13 Q1013 R16/29//95=
201905252030 METAR LRSV 252030Z 29009KT CAVOK 14/13 Q1013 R16/29//95=
201905252100 METAR LRSV 252100Z 30009KT CAVOK 14/13 Q1013 R16/29//95=
201905252130 METAR LRSV 252130Z 31011KT CAVOK 15/12 Q1013 R16/29//95=
201905252200 METAR LRSV 252200Z 30010KT CAVOK 14/12 Q1013 R16/29//95=
201905252230 METAR LRSV 252230Z 30009KT CAVOK 14/12 Q1013 R16/29//95=
201905252300 METAR LRSV 252300Z 30008KT CAVOK 14/12 Q1013 R16/29//95=
201905252330 METAR LRSV 252330Z 30009KT CAVOK 14/12 Q1013 R16/29//95=
201905260000 METAR LRSV 260000Z 29008KT CAVOK 14/12 Q1013 R16/29//95=
201905260030 METAR LRSV 260030Z 29009KT CAVOK 14/12 Q1013 R16/29//95=
201905260100 METAR LRSV 260100Z 29010KT CAVOK 14/11 Q1013 R16/29//95=
201905260130 METAR LRSV 260130Z 29010KT CAVOK 14/11 Q1014 R16/29//95=
201905260200 METAR LRSV 260200Z 29009KT CAVOK 14/11 Q1014 R16/29//95=
201905260230 METAR LRSV 260230Z 28009KT CAVOK 14/11 Q1014 R16/19//95=
201905260300 METAR LRSV 260300Z 30010KT CAVOK 14/11 Q1014 R16/19//95=
201905260330 METAR LRSV 260330Z AUTO 30009KT 9999 BKN080/// 15/11 Q1014=
201905260400 METAR LRSV 260400Z 30007KT CAVOK 15/11 Q1015 R16/19//95=
201905260430 METAR LRSV 260430Z 28007KT CAVOK 16/11 Q1015 R16/19//95=
201905260500 METAR LRSV 260500Z 29008KT CAVOK 16/11 Q1015 R16/19//95=
201905260530 METAR COR LRSV 260530Z 30010KT CAVOK 17/11 Q1015 R16/19//95=
201905260600 METAR LRSV 260600Z 29009KT CAVOK 18/11 Q1015 R16/19//95=
201905260630 METAR LRSV 260630Z 29009KT CAVOK 18/11 Q1015 R16/19//95=
201905260700 METAR LRSV 260700Z 28008KT CAVOK 19/11 Q1015 R16/19//95=
201905260730 METAR LRSV 260730Z 33010KT CAVOK 20/10 Q1015 R16/19//95=
201905260800 METAR LRSV 260800Z 30007KT CAVOK 20/11 Q1015 R16/CLRD//=
201905260830 METAR LRSV 260830Z 33007KT 280V360 9999 FEW046 20/11 Q1016=
201905260900 METAR LRSV 260900Z 30006KT 270V340 9999 FEW046 21/11 Q1016=
201905260930 METAR LRSV 260930Z VRB03KT 9999 SCT046 21/11 Q1016=
201905261000 METAR LRSV 261000Z 34004KT 280V070 9999 FEW040TCU SCT046
                        22/11 Q1016=
201905261030 METAR LRSV 261030Z 34005KT 290V010 9999 FEW040TCU SCT048
                        21/12 Q1016=
201905261100 METAR LRSV 261100Z 35003KT 280V070 9999 SCT047 22/11 Q1015=
201905261130 METAR LRSV 261130Z VRB02KT 9999 FEW047 22/12 Q1015=
201905261200 METAR LRSV 261200Z 25002KT 150V310 9999 FEW047 22/11 Q1015=
201905261230 METAR LRSV 261230Z 01003KT 320V070 9999 FEW049 22/12 Q1015=
201905261300 METAR LRSV 261300Z VRB01KT CAVOK 23/09 Q1015=
201905261330 METAR LRSV 261330Z 05005KT 010V090 CAVOK 22/10 Q1015=
201905261400 METAR LRSV 261400Z 03002KT 350V080 CAVOK 22/11 Q1015=
201905261430 METAR LRSV 261430Z 05003KT 010V080 CAVOK 22/10 Q1015=
201905261500 METAR LRSV 261500Z 09002KT 060V120 CAVOK 22/11 Q1015=
201905261530 METAR LRSV 261530Z 14003KT CAVOK 21/10 Q1015=
201905261600 METAR LRSV 261600Z 12002KT 080V160 CAVOK 21/12 Q1015=
201905261630 METAR LRSV 261630Z 09003KT CAVOK 21/13 Q1015=
201905261700 METAR COR LRSV 261700Z 10003KT CAVOK 20/13 Q1015=
201905261730 METAR LRSV 261730Z 12004KT CAVOK 19/11 Q1015=
201905261800 METAR LRSV 261800Z 13006KT CAVOK 18/11 Q1015=
201905261830 METAR LRSV 261830Z 13006KT CAVOK 17/12 Q1015=
201905261900 METAR LRSV 261900Z 14006KT CAVOK 17/12 Q1015=
201905261930 METAR LRSV 261930Z 16005KT CAVOK 16/12 Q1016=
201905262000 METAR LRSV 262000Z 17004KT CAVOK 16/12 Q1016=
201905262030 METAR LRSV 262030Z 17004KT CAVOK 16/11 Q1016=
201905262100 METAR LRSV 262100Z 17004KT CAVOK 15/11 Q1016=
201905262130 METAR LRSV 262130Z 22004KT CAVOK 15/11 Q1016=
201905262200 METAR LRSV 262200Z 22007KT CAVOK 15/11 Q1016=
201905262230 METAR LRSV 262230Z 24009KT CAVOK 14/12 Q1016=
201905262300 METAR COR LRSV 262300Z 24008KT CAVOK 14/12 Q1016=
201905262330 METAR LRSV 262330Z 25009KT CAVOK 14/12 Q1016=
201905270000 METAR LRSV 270000Z 25009KT CAVOK 14/11 Q1016=
201905270030 METAR LRSV 270030Z 26008KT CAVOK 14/11 Q1015=
201905270100 METAR COR LRSV 270100Z 26008KT CAVOK 14/11 Q1015=
201905270130 METAR COR LRSV 270130Z 25008KT CAVOK 12/11 Q1015=
201905270200 METAR LRSV 270200Z 26008KT CAVOK 14/11 Q1015=
201905270230 METAR LRSV 270230Z 26009KT CAVOK 15/10 Q1015=
201905270300 METAR LRSV 270300Z 27009KT CAVOK 15/10 Q1016=
201905270330 METAR LRSV 270330Z 26009KT CAVOK 16/11 Q1016=
201905270400 METAR COR LRSV 270400Z 26007KT CAVOK 17/11 Q1016=
201905270430 METAR LRSV 270430Z 27007KT CAVOK 18/12 Q1016=
201905270500 METAR LRSV 270500Z 29003KT 250V330 CAVOK 19/13 Q1016=
201905270530 METAR LRSV 270530Z VRB01KT CAVOK 20/14 Q1016=
201905270600 METAR LRSV 270600Z 18003KT 150V210 CAVOK 19/14 Q1016=
201905270630 METAR LRSV 270630Z 18003KT 150V230 CAVOK 20/14 Q1016=
201905270700 METAR LRSV 270700Z 17004KT 130V200 CAVOK 21/14 Q1016=
201905270730 METAR LRSV 270730Z 14005KT 090V190 CAVOK 21/14 Q1016=
201905270800 METAR LRSV 270800Z 14006KT 110V170 CAVOK 22/13 Q1016=
201905270830 METAR LRSV 270830Z 14006KT 110V190 CAVOK 22/14 Q1016=
201905270900 METAR COR LRSV 270900Z 14008KT 110V180 CAVOK 23/14 Q1016=
201905270930 METAR LRSV 270930Z 14009KT 110V170 CAVOK 23/14 Q1015=
201905271000 METAR LRSV 271000Z 17008KT CAVOK 24/14 Q1015=
201905271030 METAR LRSV 271030Z 15011KT 120V180 CAVOK 24/13 Q1015=
201905271100 METAR LRSV 271100Z 15011KT CAVOK 24/14 Q1015=
201905271130 METAR LRSV 271130Z 14012KT 120V180 CAVOK 25/13 Q1015=
201905271200 METAR COR LRSV 271200Z 14014KT CAVOK 25/13 Q1014=
201905271230 METAR LRSV 271230Z 15014KT CAVOK 25/13 Q1014=
201905271300 METAR LRSV 271300Z 16014KT CAVOK 25/14 Q1014=
201905271330 METAR LRSV 271330Z 15014KT CAVOK 25/14 Q1014=
201905271400 METAR LRSV 271400Z 15015KT CAVOK 25/14 Q1014=
201905271430 METAR LRSV 271430Z 15015KT CAVOK 25/14 Q1014=
201905271500 METAR LRSV 271500Z 16014KT CAVOK 24/14 Q1014=
201905271530 METAR LRSV 271530Z 16012KT CAVOK 24/14 Q1014=
201905271600 METAR LRSV 271600Z 16011KT CAVOK 23/14 Q1013=
201905271630 METAR LRSV 271630Z 15010KT CAVOK 23/14 Q1013=
201905271700 METAR LRSV 271700Z 16008KT CAVOK 22/15 Q1013=
201905271730 METAR LRSV 271730Z 16007KT CAVOK 21/15 Q1013=
201905271800 METAR LRSV 271800Z 16007KT CAVOK 20/15 Q1013=
201905271830 METAR LRSV 271830Z 16007KT CAVOK 20/15 Q1013=
201905271900 METAR LRSV 271900Z 17006KT CAVOK 20/15 Q1013=
201905271930 METAR LRSV 271930Z 19004KT CAVOK 18/15 Q1013=
201905272000 METAR LRSV 272000Z 20004KT CAVOK 19/15 Q1014=
201905272030 METAR LRSV 272030Z 19004KT CAVOK 18/15 Q1013=
201905272100 METAR LRSV 272100Z 19004KT CAVOK 18/15 Q1013=
201905272130 METAR LRSV 272130Z 20005KT CAVOK 18/14 Q1013=
201905272200 METAR LRSV 272200Z 20005KT CAVOK 18/15 Q1013=
201905272230 METAR LRSV 272230Z 21006KT CAVOK 17/14 Q1013=
201905272300 METAR LRSV 272300Z 20005KT CAVOK 17/14 Q1013=
201905272330 METAR LRSV 272330Z 18006KT CAVOK 17/14 Q1013=
201905280000 METAR LRSV 280000Z 17006KT CAVOK 16/14 Q1013=
201905280030 METAR LRSV 280030Z 18005KT CAVOK 16/14 Q1013=
201905280100 METAR LRSV 280100Z 18005KT CAVOK 16/14 Q1013=
201905280130 METAR LRSV 280130Z 19006KT CAVOK 16/14 Q1012=
201905280200 METAR LRSV 280200Z 15004KT CAVOK 16/14 Q1012=
201905280230 METAR LRSV 280230Z 16005KT CAVOK 16/14 Q1012=
201905280300 METAR LRSV 280300Z 17004KT CAVOK 15/14 Q1012=
201905280330 METAR LRSV 280330Z 12003KT 090V160 CAVOK 15/14 Q1012=
201905280400 METAR LRSV 280400Z 16005KT 130V190 CAVOK 17/14 Q1012=
201905280430 METAR LRSV 280430Z 16009KT CAVOK 17/14 Q1012=
201905280500 METAR LRSV 280500Z 16009KT CAVOK 17/14 Q1012=
201905280530 METAR LRSV 280530Z 16010KT CAVOK 18/15 Q1012=
201905280600 METAR LRSV 280600Z 17014KT CAVOK 19/15 Q1012=
201905280630 METAR LRSV 280630Z 17013KT CAVOK 18/14 Q1012=
201905280700 METAR LRSV 280700Z 17015KT CAVOK 19/13 Q1012=
201905280730 METAR COR LRSV 280730Z 15015KT CAVOK 20/14 Q1012=
201905280800 METAR LRSV 280800Z 15017KT CAVOK 21/13 Q1012=
201905280830 METAR LRSV 280830Z 16017KT CAVOK 21/12 Q1011=
201905280900 METAR COR LRSV 280900Z 16018KT CAVOK 22/13 Q1011=
201905280930 METAR LRSV 280930Z 16017KT CAVOK 22/13 Q1011=
201905281000 METAR LRSV 281000Z 16018KT CAVOK 22/13 Q1011=
201905281030 METAR LRSV 281030Z 15018KT CAVOK 23/13 Q1011=
201905281100 METAR LRSV 281100Z 15020KT CAVOK 23/12 Q1010=
201905281130 METAR LRSV 281130Z 15021KT CAVOK 23/12 Q1010=
201905281200 METAR COR LRSV 281200Z 16022KT CAVOK 24/12 Q1010=
201905281230 METAR LRSV 281230Z 15021KT CAVOK 24/12 Q1010=
201905281300 METAR COR LRSV 281300Z 15021KT CAVOK 24/14 Q1009=
201905281330 METAR LRSV 281330Z 15021KT CAVOK 24/13 Q1009=
201905281400 METAR LRSV 281400Z 15022KT CAVOK 23/13 Q1009=
201905281430 METAR LRSV 281430Z 16022KT CAVOK 23/14 Q1008=
201905281500 METAR LRSV 281500Z 16018G29KT CAVOK 23/15 Q1008=
201905281530 METAR LRSV 281530Z 16018KT CAVOK 23/14 Q1009=
201905281600 METAR LRSV 281600Z 16018KT CAVOK 23/14 Q1008=
201905281630 METAR LRSV 281630Z 16020KT CAVOK 22/13 Q1008=
201905281700 METAR COR LRSV 281700Z 15018KT CAVOK 22/12 Q1008=
201905281730 METAR LRSV 281730Z 14016KT CAVOK 21/12 Q1008=
201905281800 METAR LRSV 281800Z 14015KT CAVOK 20/12 Q1008=
201905281830 METAR LRSV 281830Z 15013KT CAVOK 20/12 Q1008=
201905281900 METAR LRSV 281900Z 15012KT CAVOK 19/13 Q1009=
201905281930 METAR LRSV 281930Z 15013KT CAVOK 19/13 Q1009=
201905282000 METAR LRSV 282000Z 15013KT CAVOK 19/14 Q1009=
201905282030 METAR LRSV 282030Z 17009KT CAVOK 18/14 Q1009=
201905282100 METAR LRSV 282100Z 17011KT CAVOK 17/14 Q1009=
201905282130 METAR LRSV 282130Z 16010KT CAVOK 17/14 Q1009=
201905282200 METAR LRSV 282200Z 15010KT CAVOK 17/14 Q1009=
201905282230 METAR LRSV 282230Z 18011KT CAVOK 17/14 Q1008=
201905282300 METAR LRSV 282300Z 19012KT CAVOK 16/14 Q1008=
201905282330 METAR LRSV 282330Z 22009KT CAVOK 16/14 Q1008=
201905290000 METAR LRSV 290000Z 24005KT 170V300 9999 FEW012 16/14 Q1009=
201905290030 METAR LRSV 290030Z 19006KT CAVOK 15/14 Q1009=
201905290100 METAR LRSV 290100Z 20006KT CAVOK 15/14 Q1009=
201905290130 METAR LRSV 290130Z 21005KT CAVOK 15/14 Q1009=
201905290200 METAR LRSV 290200Z 25010KT 220V290 9999 -TSRA FEW007 SCT045CB
                        15/14 Q1009=
201905290230 METAR LRSV 290230Z 26008KT 210V300 9999 -TSRA SCT045CB 16/15
                        Q1010 R1629//95=
201905290300 METAR LRSV 290300Z 07006KT 010V100 7000 -TSRA FEW033CB 15/14
                        Q1009 R1629//95=
201905290330 METAR COR LRSV 290330Z 30004KT 9999 -TSRA FEW027CB 15/15
                        Q1009 R1629//95=
201905290400 METAR LRSV 290400Z VRB01KT 9999 FEW020 16/15 Q1009 R1629//95=
201905290430 METAR LRSV 290430Z 35003KT CAVOK 16/15 Q1009 R1629//95=
201905290500 METAR COR LRSV 290500Z 22002KT CAVOK 16/15 Q1010 R1629//95=
201905290530 METAR LRSV 290530Z VRB01KT CAVOK 17/15 Q1010 R16/29//95=
201905290600 METAR LRSV 290600Z 21003KT 180V240 9999 FEW004 17/15 Q1010
                        R16/29//95=
201905290630 METAR LRSV 290630Z 20003KT 160V230 9999 FEW008 17/15 Q1011
                        R16/29//95=
201905290700 METAR LRSV 290700Z 21003KT 120V280 9999 FEW018 19/15 Q1011
                        R16/29//95=
201905290730 METAR LRSV 290730Z VRB01KT 9999 FEW020 20/15 Q1011 R16/29//95=
201905290800 METAR LRSV 290800Z VRB03KT 9999 FEW020 20/15 Q1011 R16/29//95=
201905290830 METAR COR LRSV 290830Z 06004KT 360V110 9999 SCT023 21/15
                        Q1011 R16/CLRD//=
201905290900 METAR LRSV 290900Z 02004KT 330V080 9999 SCT022 21/15 Q1011=
201905290930 METAR LRSV 290930Z 02005KT 320V050 9999 SCT025 21/15 Q1011=
201905291000 METAR LRSV 291000Z 04006KT 320V070 9999 FEW029 21/15 Q1012=
201905291030 METAR LRSV 291030Z 02007KT 320V060 9999 FEW029 22/14 Q1012=
201905291100 METAR COR LRSV 291100Z 05008KT 010V090 9999 FEW033 22/15
                        Q1012=
201905291130 METAR LRSV 291130Z 02009KT 9999 FEW035 22/16 Q1011=
201905291200 METAR LRSV 291200Z 03008KT 9999 SCT035 23/16 Q1012=
201905291230 METAR LRSV 291230Z 04009KT 010V080 9999 SCT035 23/15 Q1012=
201905291300 METAR COR LRSV 291300Z 05009KT 9999 FEW040CB SCT043 21/15
                        Q1012=
201905291330 METAR LRSV 291330Z 06011KT 9999 FEW035CB SCT038 21/15 Q1012=
201905291400 METAR LRSV 291400Z 05008KT 9999 FEW035CB SCT040 21/15 Q1012=
201905291430 METAR LRSV 291430Z 04005KT 9999 VCTS SCT035CB 20/16 Q1012=
201905291500 METAR LRSV 291500Z 02006KT 9999 TS SCT035CB 20/16 Q1012=
201905291530 METAR COR LRSV 291530Z 28011KT 9999 -TSRA SCT035CB 18/16
                        Q1013 R16/29//95=
201905291600 METAR LRSV 291600Z 36006KT 9999 -TSRA SCT040CB 18/17 Q1013
                        R16/29//95=
201905291630 METAR LRSV 291630Z VRB04KT 9999 FEW012 SCT040CB 17/16 Q1013
                        R16/29//95=
201905291700 METAR LRSV 291700Z 29007KT 9999 SCT040CB 18/16 Q1013 R16/29//95=
201905291730 METAR LRSV 291730Z 24008KT 9999 -SHRA SCT040CB 17/16 Q1013
                        R16/29//95=
201905291800 METAR LRSV 291800Z 24009KT 9999 -SHRA FEW010 SCT040CB 16/15
                        Q1013 R16/29//95=
201905291830 METAR LRSV 291830Z 25008KT 9999 -SHRA FEW010 SCT040CB 16/15
                        Q1013 R16/29//95=
201905291900 METAR LRSV 291900Z 28006KT 9999 -SHRA FEW040CB 17/14 Q1013
                        R16/29//95=
201905291930 METAR LRSV 291930Z 28008KT 9999 FEW040CB 17/14 Q1014 R16/29//95=
201905292000 METAR LRSV 292000Z 29008KT CAVOK 16/14 Q1014 R16/29//95=
201905292030 METAR LRSV 292030Z 30008KT CAVOK 16/14 Q1014 R16/29//95=
201905292100 METAR LRSV 292100Z 29009KT CAVOK 17/13 Q1015 R16/29//95=
201905292130 METAR LRSV 292130Z 32007KT CAVOK 16/14 Q1015 R16/29//95=
201905292200 METAR LRSV 292200Z 32011KT CAVOK 16/15 Q1015 R16/29//95=
201905292230 METAR LRSV 292230Z 33011KT CAVOK 16/15 Q1015 R16/29//95=
201905292300 METAR LRSV 292300Z 33012KT CAVOK 15/14 Q1015 R16/29//95=
201905292330 METAR LRSV 292330Z 32011KT CAVOK 16/14 Q1015 R16/29//95=
201905300000 METAR LRSV 300000Z 33011KT CAVOK 15/14 Q1015 R16/29//95=
201905300030 METAR LRSV 300030Z 33011KT CAVOK 15/14 Q1016 R16/29//95=
201905300100 METAR LRSV 300100Z 33010KT CAVOK 15/14 Q1015 R16/29//95=
201905300130 METAR LRSV 300130Z 34012KT 9999 FEW036 15/14 Q1015 R16/29//95=
201905300200 METAR LRSV 300200Z 33010KT 9999 SCT032 15/14 Q1016 R16/19//95=
201905300230 METAR LRSV 300230Z 33009KT 9999 SCT034 15/14 Q1016 R16/19//95=
201905300300 METAR LRSV 300300Z 34013KT 9999 FEW034 15/15 Q1016 R16/19//95=
201905300330 METAR LRSV 300330Z 34011KT 9999 FEW010 SCT045 16/15 Q1016
                        R16/19//95=
201905300400 METAR LRSV 300400Z 34012KT 9999 FEW010 16/15 Q1016 R16/19//95=
201905300430 METAR LRSV 300430Z 33010KT 9999 FEW010 16/15 Q1017 R16/19//95=
201905300500 METAR LRSV 300500Z 34011KT 9999 FEW011 16/15 Q1017 R16/19//95=
201905300530 METAR LRSV 300530Z 34011KT 9999 FEW010 SCT033 16/15 Q1017
                        R16/19//95=
201905300600 METAR LRSV 300600Z 34010KT 9999 BKN031 16/15 Q1017 R16/CLRD//=
201905300630 METAR LRSV 300630Z 35010KT 9999 FEW005 SCT022 SCT030CB 16/15
                        Q1017=
201905300700 METAR LRSV 300700Z 34010KT 9999 FEW006 SCT030CB SCT035 16/15
                        Q1017 R16/19//95=
201905300730 METAR LRSV 300730Z 34008KT 9999 SCT008 FEW035CB SCT040 17/16
                        Q1018 R16/19//95=
201905300800 METAR LRSV 300800Z 32006KT 290V350 9999 BKN008 FEW035CB 17/15
                        Q1018 R16/19//95=
201905300830 METAR LRSV 300830Z 33007KT 9999 BKN008 FEW040CB 18/16 Q1018
                        R16/CLRD//=
201905300900 METAR LRSV 300900Z 34007KT 9999 BKN008 FEW040CB 18/16 Q1018=
201905300930 METAR LRSV 300930Z 34006KT 9999 BKN009 FEW040CB 18/16 Q1018=
201905301000 METAR LRSV 301000Z 32009KT 9999 BKN007 FEW040CB 17/15 Q1018=
201905301030 METAR LRSV 301030Z 32008KT 9999 BKN008 FEW040CB 17/15 Q1018=
201905301100 METAR LRSV 301100Z 32009KT 9999 BKN008 FEW040CB 17/15 Q1018=
201905301130 METAR LRSV 301130Z 33012KT 9999 BKN008 FEW035CB 17/15 Q1018=
201905301200 METAR LRSV 301200Z 33012KT 9999 SCT009 FEW035CB 17/15 Q1018=
201905301230 METAR LRSV 301230Z 33011KT 9999 SCT010 BKN044 17/15 Q1018=
201905301300 METAR LRSV 301300Z 33009KT 300V360 9999 FEW015 BKN045 19/16
                        Q1018=
201905301330 METAR LRSV 301330Z 33008KT 9999 FEW015 SCT045 18/15 Q1018=
201905301400 METAR COR LRSV 301400Z 30009KT 270V340 9999 FEW015 SCT025
                        18/15 Q1018=
201905301430 METAR LRSV 301430Z 34010KT 9999 FEW015 SCT025 17/15 Q1018=
201905301500 METAR LRSV 301500Z 33010KT 9999 FEW012 SCT025 17/15 Q1018=
201905301530 METAR LRSV 301530Z 33011KT 9999 SCT025 17/15 Q1018=
201905301600 METAR LRSV 301600Z 33011KT 9999 SCT025 18/15 Q1019=
201905301630 METAR LRSV 301630Z 33011KT 9999 FEW025 17/14 Q1019=
201905301700 METAR LRSV 301700Z 33012KT CAVOK 17/14 Q1019=
201905301730 METAR LRSV 301730Z 32006KT 9999 SCT034 16/14 Q1019=
201905301800 METAR LRSV 301800Z 31009KT 9999 FEW019 BKN037 16/14 Q1019=
201905301830 METAR LRSV 301830Z 32012KT 9999 -RA FEW020 SCT048 15/14 Q1019=
201905301900 METAR LRSV 301900Z 31010KT 9999 BKN048 15/14 Q1020=
201905301930 METAR LRSV 301930Z 31011KT 9999 -SHRA FEW019 FEW030CB 15/14
                        Q1020=
201905302000 METAR LRSV 302000Z 33010KT 9999 -SHRA FEW043CB 15/14 Q1020=
201905302030 METAR LRSV 302030Z 32011KT 9999 -RA SCT016 15/14 Q1020=
201905302100 METAR LRSV 302100Z 31010KT 9999 -SHRA FEW014 SCT037CB 14/14
                        Q1020=
201905302130 METAR LRSV 302130Z 32011KT 9999 -RA OVC048 14/14 Q1020=
201905302200 METAR LRSV 302200Z 32011KT CAVOK 14/14 Q1020=
201905302230 METAR LRSV 302230Z AUTO 33009KT 8000 -SHRA FEW018/// BKN085///
                        15/14 Q1020=
201905302300 METAR LRSV 302300Z AUTO 30009KT 6000 -RA SCT004/// BKN006///
                        BKN015/// 14/14 Q1020=
201905302330 METAR COR LRSV 302330Z 32013KT 8000 -SHRA SCT030CB 14/14
                        Q1020=
201905310000 METAR LRSV 310000Z 33012KT 8000 -SHRA SCT030CB 14/14 Q1019=
201905310030 METAR LRSV 310030Z 34012KT 9999 -SHRA FEW043CB 14/14 Q1020=
201905310100 METAR LRSV 310100Z 34010KT 9999 -RA FEW015 14/14 Q1020=
201905310130 METAR LRSV 310130Z 33011KT 9999 -RA FEW003 SCT006 14/14 Q1019=
201905310200 METAR LRSV 310200Z 32010KT 3000 -RA BR BKN003 14/14 Q1020=
201905310230 METAR LRSV 310230Z 33008KT 3000 -DZ BR BKN003 14/14 Q1020
                        R16/29//95=
201905310300 METAR LRSV 310300Z 32007KT 3000 DZ BR BKN003 14/14 Q1020
                        R16/29//95=
201905310330 METAR LRSV 310330Z 32008KT 5000 -RA BR SCT003 BKN006 14/14
                        Q1020 R16/29//95=
201905310400 METAR LRSV 310400Z 33008KT 5000 -RA BR FEW005 BKN008 14/14
                        Q1020 R16/29//95=
201905310430 METAR COR LRSV 310430Z 34010KT 3000 -RA BR FEW006 BKN008
                        14/14 Q1020 R16/29//95=
201905310500 METAR LRSV 310500Z 34009KT 4000 -RA BR BKN008 OVC019 14/14
                        Q1021 R16/29//95=
201905310530 METAR COR LRSV 310530Z 34009KT 6000 -RA SCT003 OVC018 14/14
                        Q1021 R16/29//95=
201905310600 METAR LRSV 310600Z 35009KT 7000 BKN006 15/14 Q1021 R16/29//95=
201905310630 METAR LRSV 310630Z 36009KT 9999 -RA BKN008 OVC023 15/14 Q1021
                        R16/29//95=
201905310700 METAR LRSV 310700Z 35008KT 320V020 9999 -RA BKN008 OVC020
                        15/14 Q1021 R16/29//95=
201905310730 METAR COR LRSV 310730Z 34008KT 9999 SCT008 BKN018 15/14 Q1021
                        R16/29//95=
201905310800 METAR COR LRSV 310800Z 32010KT 9999 BKN009 OVC024 15/14 Q1021
                        R16/29//95=
201905310830 METAR LRSV 310830Z 33010KT 9999 BKN008 OVC023 15/14 Q1021
                        R16/29//95=
201905310900 METAR LRSV 310900Z 33009KT 9999 SCT008 OVC018 15/14 Q1021
                        R16/29//95=
201905310930 METAR LRSV 310930Z 33011KT 9999 BKN007 OVC021 16/14 Q1018
                        R16/29//95=
201905311000 METAR LRSV 311000Z 32011KT 9999 SCT009 BKN018 16/14 Q1021
                        R16/29//95=
201905311030 METAR LRSV 311030Z 33013KT 9999 SCT013 BKN020 17/14 Q1021
                        R16/29//95=
201905311100 METAR LRSV 311100Z 33013KT 9999 FEW015 BKN020 17/14 Q1021
                        R16/29//95=
201905311130 METAR LRSV 311130Z 32011KT 290V350 9999 SCT020 17/13 Q1021
                        R16/29//95=
201905311200 METAR COR LRSV 311200Z 32011KT 290V350 9999 SCT020 17/13
                        Q1021 R16/29//95=
201905311230 METAR LRSV 311230Z 34013KT 9999 BKN023 18/14 Q1020 R16/29//95=
201905311300 METAR LRSV 311300Z 34014KT 9999 BKN020 17/14 Q1020 R16/29//95=
201905311330 METAR LRSV 311330Z 36012KT 9999 BKN025 18/14 Q1020 R16/29//95=
201905311400 METAR LRSV 311400Z 34013KT 9999 BKN028 18/14 Q1020 R16/CLRD//=
201905311430 METAR COR LRSV 311430Z 34009KT 300V010 9999 SCT016 BKN024
                        17/14 Q1020=
201905311500 METAR LRSV 311500Z 34010KT 9999 FEW016 BKN027 17/15 Q1020=
201905311530 METAR LRSV 311530Z 34012KT 9999 FEW015 BKN025 17/14 Q1020=
201905311600 METAR LRSV 311600Z 34012KT 9999 BKN035 17/14 Q1020=
201905311630 METAR LRSV 311630Z 34010KT 9999 BKN038 17/14 Q1020=
201905311700 METAR LRSV 311700Z 34009KT 9999 BKN040 17/14 Q1020=
201905311730 METAR LRSV 311730Z 33009KT 9999 BKN040 16/14 Q1020=
201905311800 METAR LRSV 311800Z 33009KT 9999 BKN040 16/14 Q1020=
201905311830 METAR LRSV 311830Z 33010KT 9999 BKN043 16/14 Q1020=
201905311900 METAR LRSV 311900Z 33009KT 9999 BKN041 16/14 Q1020=
201905311930 METAR LRSV 311930Z 32009KT 9999 BKN040 16/14 Q1020=
201905312000 METAR LRSV 312000Z 33008KT 9999 BKN043 15/14 Q1020=
201905312030 METAR LRSV 312030Z 33007KT 9999 BKN048 15/14 Q1020=
201905312100 METAR LRSV 312100Z 32008KT 9999 BKN048 15/14 Q1020=
201905312130 METAR LRSV 312130Z 31007KT 9999 BKN048 15/13 Q1020=
201905312200 METAR LRSV 312200Z 33007KT 9999 SCT048 15/13 Q1020=
201905312230 METAR LRSV 312230Z 34010KT 9999 SCT030 15/13 Q1020=
201905312300 METAR LRSV 312300Z 34009KT 9999 BKN040 15/13 Q1020=
201905312330 METAR LRSV 312330Z 33009KT 9999 BKN042 15/13 Q1020=
