201906010000 METAR LRSV 010000Z 34010KT 9999 BKN040 15/13 Q1020=
201906010030 METAR LRSV 010030Z 34013KT 9999 BKN040 15/13 Q1019=
201906010100 METAR LRSV 010100Z 34013KT 9999 BKN040 15/13 Q1019=
201906010130 METAR LRSV 010130Z 34012KT 9999 BKN040 15/13 Q1019=
201906010200 METAR LRSV 010200Z 34012KT 9999 BKN040 15/13 Q1019=
201906010230 METAR LRSV 010230Z 33010KT 9999 BKN040 15/13 Q1019=
201906010300 METAR LRSV 010300Z 33009KT 9999 BKN040 15/13 Q1019=
201906010330 METAR LRSV 010330Z 33011KT 9999 BKN040 15/13 Q1019=
201906010400 METAR LRSV 010400Z 34011KT 9999 BKN037 15/12 Q1019=
201906010430 METAR LRSV 010430Z 34010KT 9999 BKN036 15/13 Q1019=
201906010500 METAR LRSV 010500Z 34009KT 9999 BKN036 15/13 Q1019=
201906010530 METAR LRSV 010530Z 34011KT 9999 OVC038 16/13 Q1018=
201906010600 METAR LRSV 010600Z 33010KT 9999 BKN037 16/13 Q1018=
201906010630 METAR LRSV 010630Z 34011KT 9999 BKN037 16/13 Q1019=
201906010700 METAR LRSV 010700Z 34012KT 9999 BKN037 17/14 Q1019=
201906010730 METAR LRSV 010730Z 34012KT 9999 OVC034 17/14 Q1019=
201906010800 METAR LRSV 010800Z 35013KT 9999 FEW034CB SCT037 18/14 Q1018=
201906010830 METAR LRSV 010830Z 35012KT 9999 VCTS SCT034CB 17/14 Q1019=
201906010900 METAR LRSV 010900Z 15007KT 130V190 3000 TSRA OVC028CB 13/12
                        Q1020 R16/29//95=
201906010930 METAR LRSV 010930Z 36008KT 330V030 6000 TSRA BKN028CB 13/12
                        Q1019 R16/29//95=
201906011000 METAR LRSV 011000Z 35010KT 8000 TSRA BKN028CB 13/13 Q1019
                        R16/29//95=
201906011030 METAR LRSV 011030Z 34010KT 8000 SHRA BKN030CB 13/13 Q1019
                        R16/29//95=
201906011100 METAR LRSV 011100Z 32009KT 9999 -SHRA SCT030CB 14/13 Q1019
                        R16/29//95=
201906011130 METAR LRSV 011130Z 34014KT 9999 SCT030CB 15/14 Q1019 R16/29//95=
201906011200 METAR LRSV 011200Z 33007KT 9999 -SHRA SCT030CB 15/14 Q1019
                        R16/29//95=
201906011230 METAR LRSV 011230Z 33011KT 290V350 9999 -SHRA FEW010 SCT030CB
                        14/14 Q1018 R16/29//95=
201906011300 METAR LRSV 011300Z 29008KT 9999 FEW010 SCT030CB 15/14 Q1018
                        R16/29//95=
201906011330 METAR LRSV 011330Z 27008KT 9999 SCT030CB 15/14 Q1018 R16/29//95=
201906011400 METAR LRSV 011400Z 28013KT 9999 VCTS SCT030CB 15/14 Q1017
                        R16/29//95=
201906011430 METAR LRSV 011430Z 28010KT 9999 SCT030CB 16/14 Q1017 R16/29//95=
201906011500 METAR LRSV 011500Z 29011KT 9999 SCT030CB 16/14 Q1017 R16/29//95=
201906011530 METAR LRSV 011530Z 29011KT 9999 FEW030CB 16/14 Q1017 R16/19//95=
201906011600 METAR LRSV 011600Z 29013KT 9999 FEW030CB 16/14 Q1017 R16/19//95=
201906011630 METAR LRSV 011630Z 29011KT 9999 FEW030CB 15/13 Q1017 R16/19//95=
201906011700 METAR LRSV 011700Z 30009KT 9999 FEW030CB 15/13 Q1017 R16/19//95=
201906011730 METAR LRSV 011730Z 29010KT CAVOK 15/13 Q1017 R16/19//95=
201906011800 METAR LRSV 011800Z 30008KT CAVOK 15/13 Q1017 R16/19//95=
201906011830 METAR LRSV 011830Z 31009KT CAVOK 15/13 Q1018 R16/19//95=
201906011900 METAR LRSV 011900Z 29010KT CAVOK 15/13 Q1018 R16/19//95=
201906011930 METAR LRSV 011930Z 28009KT CAVOK 15/12 Q1018 R16/19//95=
201906012000 METAR LRSV 012000Z AUTO 28009KT 9999 NCD 15/12 Q1018=
201906012030 METAR LRSV 012030Z 28009KT CAVOK 14/12 Q1018 R16/19//95=
201906012100 METAR LRSV 012100Z 26007KT CAVOK 13/12 Q1018 R16/19//95=
201906012130 METAR LRSV 012130Z 27009KT CAVOK 14/12 Q1018 R16/19//95=
201906012200 METAR LRSV 012200Z 28010KT CAVOK 15/12 Q1017 R16/19//95=
201906012230 METAR LRSV 012230Z 29010KT CAVOK 15/12 Q1017 R16/19//95=
201906012300 METAR LRSV 012300Z AUTO 28007KT 9999 NCD 14/12 Q1017=
201906012330 METAR LRSV 012330Z AUTO 30007KT 9999 NCD 14/12 Q1017=
201906020000 METAR LRSV 020000Z 28009KT CAVOK 14/12 Q1017 R16/19//95=
201906020030 METAR LRSV 020030Z 30007KT CAVOK 14/11 Q1017 R16/19//95=
201906020100 METAR LRSV 020100Z 29009KT CAVOK 14/11 Q1017 R16/19//95=
201906020130 METAR LRSV 020130Z 30006KT CAVOK 14/11 Q1017 R16/19//95=
201906020200 METAR LRSV 020200Z 32007KT CAVOK 14/11 Q1017 R16/19//95=
201906020230 METAR LRSV 020230Z 30006KT CAVOK 14/11 Q1017 R16/19//95=
201906020300 METAR LRSV 020300Z 31005KT CAVOK 14/11 Q1017 R16/19//95=
201906020330 METAR LRSV 020330Z 27005KT CAVOK 14/11 Q1018 R16/19//95=
201906020400 METAR LRSV 020400Z 27005KT CAVOK 15/12 Q1018 R16/19//95=
201906020430 METAR LRSV 020430Z 29005KT 270V330 CAVOK 16/12 Q1018 R16/19//95=
201906020500 METAR LRSV 020500Z 30007KT CAVOK 16/12 Q1018 R16/19//95=
201906020530 METAR LRSV 020530Z 30007KT 280V340 CAVOK 17/13 Q1018 R16/CLRD//=
201906020600 METAR LRSV 020600Z 30007KT CAVOK 18/13 Q1018=
201906020630 METAR LRSV 020630Z 34008KT CAVOK 18/13 Q1018=
201906020700 METAR LRSV 020700Z 33009KT 300V360 CAVOK 19/13 Q1018=
201906020730 METAR LRSV 020730Z 34009KT 310V010 9999 FEW020 19/14 Q1018=
201906020800 METAR LRSV 020800Z 34008KT 310V020 9999 FEW025 20/14 Q1018=
201906020830 METAR LRSV 020830Z 36009KT 320V030 9999 FEW025 20/14 Q1018=
201906020900 METAR LRSV 020900Z 36008KT 320V040 9999 SCT030 21/13 Q1018=
201906020930 METAR LRSV 020930Z 36007KT 300V030 9999 SCT035 21/14 Q1019=
201906021000 METAR LRSV 021000Z 35009KT 330V030 9999 SCT035 21/14 Q1018=
201906021030 METAR LRSV 021030Z 34009KT 320V020 9999 SCT035 21/15 Q1018=
201906021100 METAR LRSV 021100Z 35009KT 320V020 9999 SCT035 22/15 Q1018=
201906021130 METAR COR LRSV 021130Z 02009KT 9999 FEW035 22/16 Q1018=
201906021200 METAR COR LRSV 021200Z 01007KT 320V060 9999 FEW036 23/15
                        Q1018=
201906021230 METAR COR LRSV 021230Z 35011KT 9999 FEW038 23/15 Q1018=
201906021300 METAR LRSV 021300Z 01008KT 9999 SCT038 22/15 Q1017=
201906021330 METAR LRSV 021330Z 02006KT 330V060 9999 SCT038 23/15 Q1018=
201906021400 METAR LRSV 021400Z 35010KT 9999 FEW040 23/14 Q1017=
201906021430 METAR LRSV 021430Z 36007KT 320V030 9999 FEW043 22/14 Q1017=
201906021500 METAR LRSV 021500Z 01006KT 9999 FEW040TCU 21/14 Q1017=
201906021530 METAR LRSV 021530Z 01005KT 330V050 9999 FEW040TCU 23/14 Q1017=
201906021600 METAR LRSV 021600Z 34005KT 9999 FEW040TCU 22/14 Q1017=
201906021630 METAR LRSV 021630Z 33006KT 9999 FEW040CB 22/14 Q1017=
201906021700 METAR LRSV 021700Z 33005KT 9999 FEW040TCU 21/15 Q1017=
201906021730 METAR LRSV 021730Z 33004KT 9999 FEW040TCU 20/15 Q1017=
201906021800 METAR LRSV 021800Z 32006KT 9999 FEW040TCU 19/14 Q1017=
201906021830 METAR LRSV 021830Z 32006KT CAVOK 19/14 Q1018=
201906021900 METAR LRSV 021900Z 33006KT CAVOK 19/14 Q1018=
201906021930 METAR LRSV 021930Z 33006KT CAVOK 18/13 Q1018=
201906022000 METAR LRSV 022000Z 33006KT CAVOK 17/13 Q1018=
201906022030 METAR LRSV 022030Z 33007KT CAVOK 17/13 Q1018=
201906022100 METAR LRSV 022100Z 33007KT CAVOK 17/13 Q1018=
201906022130 METAR LRSV 022130Z 33008KT CAVOK 17/13 Q1018=
201906022200 METAR LRSV 022200Z 33007KT CAVOK 16/13 Q1018=
201906022230 METAR LRSV 022230Z 33007KT CAVOK 16/13 Q1018=
201906022300 METAR LRSV 022300Z 33008KT CAVOK 16/13 Q1018=
201906022330 METAR LRSV 022330Z 33008KT CAVOK 16/13 Q1018=
201906030000 METAR LRSV 030000Z AUTO 33008KT 9999 NCD 16/13 Q1017=
201906030030 METAR LRSV 030030Z 32008KT CAVOK 16/13 Q1017=
201906030100 METAR LRSV 030100Z 32008KT CAVOK 16/13 Q1017=
201906030130 METAR LRSV 030130Z 32009KT CAVOK 16/13 Q1017=
201906030200 METAR LRSV 030200Z 31009KT CAVOK 16/13 Q1017=
201906030230 METAR LRSV 030230Z 31010KT CAVOK 15/13 Q1016=
201906030300 METAR LRSV 030300Z 32009KT 9999 SCT040 15/13 Q1017=
201906030330 METAR LRSV 030330Z 33009KT 9999 BKN040 15/13 Q1017=
201906030400 METAR LRSV 030400Z 32010KT 9999 BKN040 16/13 Q1017=
201906030430 METAR LRSV 030430Z 32009KT 9999 SCT040 16/13 Q1017=
201906030500 METAR LRSV 030500Z AUTO 33009KT 9999 NCD 16/14 Q1017=
201906030530 METAR LRSV 030530Z AUTO 33010KT 9999 FEW014/// BKN032///
                        17/14 Q1017=
201906030600 METAR LRSV 030600Z AUTO 34010KT 9999 FEW028/// 17/14 Q1017=
201906030630 METAR LRSV 030630Z AUTO 35011KT 9999 FEW090/// ///// Q1017=
201906030700 METAR LRSV 030700Z 36011KT 9999 BKN033 18/15 Q1017=
201906030730 METAR LRSV 030730Z 02009KT 360V060 9999 FEW015 BKN030 18/15
                        Q1017=
201906030800 METAR COR LRSV 030800Z 03007KT 9999 FEW015 SCT030 18/15 Q1017=
201906030830 METAR LRSV 030830Z 04006KT 9999 -RA SCT008 BKN027 18/16 Q1018=
201906030900 METAR LRSV 030900Z 05007KT 9999 -RA BKN011 18/16 Q1018=
201906030930 METAR COR LRSV 030930Z 06007KT 9999 -DZ SCT005 BKN013 18/17
                        Q1018=
201906031000 METAR COR LRSV 031000Z 05004KT 360V080 9999 -RA FEW007 BKN014
                        18/16 Q1018=
201906031030 METAR LRSV 031030Z 05005KT 9999 -RA BKN010 18/16 Q1018=
201906031100 METAR LRSV 031100Z 04004KT 010V070 8000 -RA FEW004 BKN010
                        18/16 Q1018 R16/29//95=
201906031130 METAR LRSV 031130Z 36005KT 9999 -RA BKN010 18/16 Q1018 R16/29//95=
201906031200 METAR LRSV 031200Z 02006KT 9999 -RA BKN010 18/16 Q1018 R16/29//95=
201906031230 METAR LRSV 031230Z 01006KT 9999 -RA BKN010 18/16 Q1018 R16/29//95=
201906031300 METAR COR LRSV 031300Z 05005KT 9999 -RA FEW006 BKN013 18/15
                        Q1017 R16/29//95=
201906031330 METAR LRSV 031330Z 00000KT 9999 -RA BKN012 19/15 Q1017 R16/29//95=
201906031400 METAR LRSV 031400Z 00000KT 9999 SCT012 18/15 Q1017 R16/29//95=
201906031430 METAR LRSV 031430Z 00000KT 9999 FEW012 18/16 Q1017 R16/29//95=
201906031500 METAR LRSV 031500Z 28005KT 9999 FEW012 18/15 Q1016 R16/29//95=
201906031530 METAR LRSV 031530Z 26006KT 9999 FEW012 18/16 Q1016 R16/19//95=
201906031600 METAR LRSV 031600Z 26006KT 9999 FEW012 FEW040CB 18/15 Q1017
                        R16/19//95=
201906031630 METAR LRSV 031630Z 26006KT 9999 -SHRA SCT010 FEW035CB 17/15
                        Q1017 R16/19//95=
201906031700 METAR LRSV 031700Z 29007KT 9999 -SHRA BKN015 FEW030CB 17/14
                        Q1017 R16/29//95=
201906031730 METAR LRSV 031730Z 33007KT 9999 -SHRA BKN010 FEW030CB 17/15
                        Q1017 R16/29//95=
201906031800 METAR LRSV 031800Z 06014KT 9999 SHRA VCTS BKN010 BKN030CB
                        16/15 Q1018 R16/29//95=
201906031830 METAR LRSV 031830Z 06009KT 7000 SHRA BKN015 SCT030CB 15/15
                        Q1018 R16/29//95=
201906031900 METAR LRSV 031900Z 04006KT 9999 -SHRA SCT010 FEW030CB 15/15
                        Q1018 R16/29//95=
201906031930 METAR LRSV 031930Z 34006KT 9999 FEW015 SCT048 15/15 Q1017
                        R16/29//95=
201906032000 METAR LRSV 032000Z 29005KT 9999 FEW048 15/14 Q1017 R16/29//95=
201906032030 METAR LRSV 032030Z 28006KT CAVOK 15/14 Q1017 R16/29//95=
201906032100 METAR LRSV 032100Z 28007KT CAVOK 15/14 Q1017 R16/29//95=
201906032130 METAR LRSV 032130Z 34005KT 9999 BKN040 15/14 Q1017 R16/29//95=
201906032200 METAR LRSV 032200Z 32007KT 9999 BKN040 15/14 Q1017 R16/29//95=
201906032230 METAR LRSV 032230Z 32007KT 9999 -SHRA SCT007 FEW030CB 15/14
                        Q1016 R16/29//95=
201906032300 METAR LRSV 032300Z 31004KT 9999 -SHRA SCT010 FEW030CB 15/14
                        Q1016 R16/29//95=
201906032330 METAR LRSV 032330Z 33005KT 9999 BKN016 15/14 Q1016 R16/29//95=
201906040000 METAR LRSV 040000Z 34004KT 9999 BKN016 15/14 Q1016 R16/29//95=
201906040030 METAR LRSV 040030Z 33004KT 9999 OVC016 15/14 Q1016 R16/29//95=
201906040100 METAR LRSV 040100Z 35005KT 9999 BKN014 15/14 Q1016 R16/29//95=
201906040130 METAR LRSV 040130Z 33005KT 9999 BKN014 15/14 Q1016 R16/29//95=
201906040200 METAR LRSV 040200Z 34005KT 9999 FEW020 SCT039 15/14 Q1016
                        R16/19//95=
201906040230 METAR LRSV 040230Z 35004KT 9999 FEW019 BKN037 15/14 Q1016
                        R16/19//95=
201906040300 METAR LRSV 040300Z 34005KT 9999 FEW019 BKN037 15/14 Q1016
                        R16/19//95=
201906040330 METAR LRSV 040330Z AUTO 34007KT 9999 FEW005/// SCT032///
                        BKN039/// 15/14 Q1016=
201906040400 METAR LRSV 040400Z AUTO 35006KT 9999 FEW004/// BKN018///
                        BKN023/// 15/15 Q1016=
201906040430 METAR LRSV 040430Z AUTO 36005KT 9999 FEW004/// BKN017///
                        16/15 Q1016=
201906040500 METAR LRSV 040500Z AUTO 01005KT 9999 FEW004/// BKN018///
                        16/15 Q1017=
201906040530 METAR LRSV 040530Z AUTO 34005KT 9999 SCT004/// BKN018///
                        16/15 Q1016=
201906040600 METAR LRSV 040600Z AUTO 31005KT 280V340 9999 OVC016/// 17/16
                        Q1016=
201906040630 METAR LRSV 040630Z AUTO 32005KT 290V350 9999 BKN012/// OVC015///
                        17/16 Q1016=
201906040700 METAR COR LRSV 040700Z 34006KT 9999 BKN008 FEW030CB 17/16
                        Q1016 R16/19//95=
201906040730 METAR LRSV 040730Z 35006KT 9999 BKN006 SCT030CB 17/16 Q1016
                        R16/19//95=
201906040800 METAR LRSV 040800Z 35006KT 9000 -SHRA VCTS BKN005 SCT025CB
                        17/16 Q1016 R16/19//95=
201906040830 METAR LRSV 040830Z 02007KT 7000 -TSRA BKN004 SCT025CB 17/16
                        Q1016 R16/29//95=
201906040900 METAR LRSV 040900Z 18011KT 150V230 7000 -SHRA VCTS BKN004
                        SCT030CB 15/14 Q1017 R16/29//95=
201906040930 METAR LRSV 040930Z 25007KT 9999 FEW006 FEW030CB 16/15 Q1017
                        R16/29//95=
201906041000 METAR LRSV 041000Z 27008KT 9999 FEW006 FEW030CB BKN040 18/16
                        Q1017 R16/29//95=
201906041030 METAR LRSV 041030Z 24008KT 9999 -RA SCT007 BKN041 17/15 Q1017
                        R16/29//95=
201906041100 METAR LRSV 041100Z 25011KT 9999 FEW004 18/16 Q1016 R16/29//95=
201906041130 METAR LRSV 041130Z 28009KT CAVOK 19/16 Q1016 RERA R16/29//95=
201906041200 METAR LRSV 041200Z 27007KT 240V300 9999 FEW030CB 20/16 Q1015
                        R16/29//95=
201906041230 METAR LRSV 041230Z 34006KT 300V020 9999 VCTS FEW030CB 21/16
                        Q1015 R16/29//95=
201906041300 METAR LRSV 041300Z 33005KT 280V360 9999 FEW030CB 21/15 Q1014
                        R16/29//95=
201906041330 METAR LRSV 041330Z 02003KT 320V070 9999 FEW030CB 21/15 Q1014
                        R16/29//95=
201906041400 METAR LRSV 041400Z 03002KT 320V060 9999 FEW030CB 21/15 Q1014
                        R16/29//95=
201906041430 METAR LRSV 041430Z 23004KT 9999 TS SCT030CB 19/17 Q1014 R16/29//95=
201906041500 METAR LRSV 041500Z 17005KT 6000 RA TS FEW015 SCT024CB 18/17
                        Q1015 R16/29//95=
201906041530 METAR LRSV 041530Z 02008KT 350V050 7000 -TSRA FEW015 SCT025CB
                        SCT048 17/16 Q1014 R16/29//95=
201906041600 METAR LRSV 041600Z 01009KT 6000 -TSRA SCT030CB SCT043 16/15
                        Q1015 R16/29//95=
201906041630 METAR LRSV 041630Z 36009KT 9999 -TSRA SCT033CB SCT043 16/15
                        Q1014 R16/29//95=
201906041700 METAR LRSV 041700Z 34012KT 9999 -SHRA SCT033CB SCT044 15/14
                        Q1013 R16/29//95=
201906041730 METAR LRSV 041730Z 02007KT 9999 SCT035CB SCT047 15/13 Q1013
                        R16/29//95=
201906041800 METAR LRSV 041800Z 36009KT 9999 SCT035CB 15/14 Q1013 R16/29//95=
201906041830 METAR LRSV 041830Z 01006KT 9999 FEW035CB 14/13 Q1014 R16/29//95=
201906041900 METAR LRSV 041900Z 25004KT 9999 FEW040 14/14 Q1014 R16/29//95=
201906041930 METAR COR LRSV 041930Z VRB01KT 9999 FEW040 15/14 Q1015 R16/29//95=
201906042000 METAR LRSV 042000Z 25006KT CAVOK 15/13 Q1015 R16/29//95=
201906042030 METAR LRSV 042030Z 21004KT CAVOK 14/13 Q1015 R16/29//95=
201906042100 METAR LRSV 042100Z 19004KT 9999 SCT018 14/13 Q1015 R16/29//95=
201906042130 METAR LRSV 042130Z 24003KT 210V280 9999 BKN018 14/14 Q1015
                        R16/29//95=
201906042200 METAR LRSV 042200Z 25005KT 9999 BKN018 14/13 Q1015 R16/29//95=
201906042230 METAR LRSV 042230Z 28002KT 270V340 9999 FEW020 13/13 Q1014
                        R16/29//95=
201906042300 METAR LRSV 042300Z 00000KT CAVOK 13/12 Q1014 R16/29//95=
201906042330 METAR LRSV 042330Z 24003KT CAVOK 12/12 Q1014 R16/29//95=
201906050000 METAR LRSV 050000Z 24002KT CAVOK 12/12 Q1014 R16/29//95=
201906050030 METAR LRSV 050030Z 25001KT 5000 BR NSC 12/12 Q1014 R16/29//95=
201906050100 METAR LRSV 050100Z 22002KT 7000 MIFG BR NSC 12/11 Q1014 R16/29//95=
201906050130 METAR COR LRSV 050130Z 18002KT 5000 0300S R34/0500 PRFG NSC
                        12/12 Q1014 R16/29//95=
201906050200 METAR LRSV 050200Z 34005KT 0400 R34/0550N FG NSC 12/11 Q1014
                        R16/29//95=
201906050230 METAR LRSV 050230Z 25003KT 5000 1000N R34/P2000 PRFG NSC
                        12/11 Q1014 R16/29//95=
201906050300 METAR LRSV 050300Z 25002KT 8000 NSC 12/12 Q1014 R16/29//95=
201906050330 METAR LRSV 050330Z AUTO 04003KT 0100 R34/0150N BCFG SCT001///
                        12/12 Q1015=
201906050400 METAR LRSV 050400Z AUTO 00000KT 0500 R34/0550V0700N FG VV001
                        ///// Q1015=
201906050430 METAR LRSV 050430Z AUTO 00000KT 0300 R34/0375N FG VV001 14/13
                        Q1015=
201906050500 METAR LRSV 050500Z 21003KT 0800 R34/1000 FG NSC 14/14 Q1015
                        R16/29//95=
201906050530 METAR LRSV 050530Z 16003KT 110V200 7000 FEW002 15/15 Q1015
                        R16/29//95=
201906050600 METAR LRSV 050600Z 18004KT 120V210 9999 FEW003 16/15 Q1015
                        R16/29//95=
201906050630 METAR COR LRSV 050630Z VRB02KT 8000 1500E PRFG SCT003 17/15
                        Q1016 R16/19//95=
201906050700 METAR LRSV 050700Z 09004KT 050V130 5000 BR FEW001 BKN007
                        16/15 Q1016 R16/19//95=
201906050730 METAR LRSV 050730Z 11004KT 060V140 9999 BKN006 17/15 Q1016
                        R16/19//95=
201906050800 METAR LRSV 050800Z 09006KT 070V130 9999 SCT010 18/16 Q1016
                        R16/CLRD//=
201906050830 METAR LRSV 050830Z 09007KT 9999 BKN010 19/16 Q1016=
201906050900 METAR LRSV 050900Z 08006KT 040V100 9999 BKN010 18/16 Q1016=
201906050930 METAR LRSV 050930Z 08005KT 040V130 9999 FEW010 SCT024 19/16
                        Q1016=
201906051000 METAR LRSV 051000Z 11007KT 080V150 9999 FEW014 SCT024TCU
                        21/17 Q1016=
201906051030 METAR LRSV 051030Z 12006KT 080V160 9999 FEW017 FEW025TCU
                        20/16 Q1016=
201906051100 METAR LRSV 051100Z 14010KT 9999 FEW024CB SCT041 22/16 Q1016=
201906051130 METAR LRSV 051130Z 15012KT 9999 FEW024CB 22/14 Q1016=
201906051200 METAR LRSV 051200Z 15010KT 120V180 9999 FEW035CB 22/15 Q1015=
201906051230 METAR LRSV 051230Z 14010KT 9999 FEW034 22/15 Q1015=
201906051300 METAR LRSV 051300Z 12010KT 100V160 9999 FEW031 22/15 Q1015=
201906051330 METAR LRSV 051330Z AUTO 13009KT 090V150 9999 FEW026/// 21/15
                        Q1015=
201906051400 METAR LRSV 051400Z AUTO 13010KT 100V160 9999 NCD 22/15 Q1015=
201906051430 METAR LRSV 051430Z AUTO 13010KT 9999 NCD 22/15 Q1015=
201906051500 METAR COR LRSV 051500Z 13009KT 9999 FEW045 22/16 Q1014=
201906051530 METAR LRSV 051530Z 13009KT 9999 FEW045 21/16 Q1014=
201906051600 METAR LRSV 051600Z 12008KT 9999 FEW045TCU 21/15 Q1015=
201906051630 METAR LRSV 051630Z 15007KT 9999 FEW045TCU 21/16 Q1014=
201906051700 METAR LRSV 051700Z 15007KT 9999 FEW045TCU 20/15 Q1014=
201906051730 METAR LRSV 051730Z 15006KT 110V170 CAVOK 20/15 Q1015=
201906051800 METAR LRSV 051800Z 12005KT CAVOK 19/15 Q1015=
201906051830 METAR LRSV 051830Z 11006KT 9999 FEW040CB 18/15 Q1015=
201906051900 METAR LRSV 051900Z 11005KT 9999 FEW040CB 18/14 Q1016=
201906051930 METAR LRSV 051930Z 11005KT 060V130 9999 FEW040CB 18/15 Q1016=
201906052000 METAR COR LRSV 052000Z 14005KT 9999 FEW040CB 18/14 Q1015=
201906052030 METAR LRSV 052030Z 14004KT 9999 FEW040CB 18/14 Q1015=
201906052100 METAR LRSV 052100Z 08007KT 9999 FEW049CB 17/15 Q1015=
201906052130 METAR LRSV 052130Z 09009KT 9999 FEW040CB 16/15 Q1016=
201906052200 METAR LRSV 052200Z 14007KT CAVOK 17/16 Q1015=
201906052230 METAR LRSV 052230Z 16006KT 9999 -SHRA FEW040CB 16/15 Q1015=
201906052300 METAR LRSV 052300Z 17006KT 9999 -SHRA FEW040CB 16/15 Q1015=
201906052330 METAR LRSV 052330Z 19005KT 9999 -SHRA FEW040CB 16/15 Q1015=
201906060000 METAR LRSV 060000Z 22003KT 9999 FEW040CB 16/15 Q1015=
201906060030 METAR LRSV 060030Z 23005KT 9999 FEW040CB 15/14 Q1015=
201906060100 METAR LRSV 060100Z 21004KT 160V230 CAVOK 14/13 Q1015=
201906060130 METAR LRSV 060130Z 00000KT CAVOK 14/14 Q1015=
201906060200 METAR LRSV 060200Z 01002KT 5000 BR NSC 13/13 Q1015=
201906060230 METAR LRSV 060230Z 33002KT 5000 BR NSC 13/13 Q1015=
201906060300 METAR LRSV 060300Z 00000KT 8000 2000N BR NSC 14/14 Q1015=
201906060330 METAR LRSV 060330Z AUTO 00000KT 6000 BKN017/// 15/15 Q1016=
201906060400 METAR LRSV 060400Z AUTO 15003KT 9999 SCT010/// BKN013///
                        BKN017/// 16/16 Q1016=
201906060430 METAR LRSV 060430Z AUTO 16003KT 120V200 9999 BKN010/// BKN013///
                        17/16 Q1016=
201906060500 METAR LRSV 060500Z AUTO 17004KT 9999 OVC011/// 17/15 Q1016=
201906060530 METAR LRSV 060530Z AUTO 16005KT 9999 BKN009/// OVC011///
                        17/16 Q1016=
201906060600 METAR LRSV 060600Z AUTO 17006KT 9999 SCT007/// BKN009///
                        18/16 Q1016=
201906060630 METAR LRSV 060630Z AUTO 16005KT 9999 BKN007/// 18/16 Q1016=
201906060700 METAR LRSV 060700Z 13006KT 080V160 9999 BKN008 19/16 Q1016=
201906060730 METAR LRSV 060730Z 13005KT 090V150 9999 SCT009 19/17 Q1016=
201906060800 METAR LRSV 060800Z 14007KT 100V170 9999 SCT010 21/17 Q1016=
201906060830 METAR LRSV 060830Z 14008KT 9999 FEW017TCU 21/17 Q1016=
201906060900 METAR LRSV 060900Z 14008KT 100V170 9999 FEW018TCU 22/17 Q1016=
201906060930 METAR LRSV 060930Z 12011KT 9999 FEW020CB 23/17 Q1016=
201906061000 METAR LRSV 061000Z 12012KT 9999 VCTS FEW029CB 22/16 Q1016=
201906061030 METAR LRSV 061030Z 11010KT 080V140 9999 SCT031CB 23/17 Q1015=
201906061100 METAR COR LRSV 061100Z 10010KT 060V140 9999 SCT034CB 23/18
                        Q1016=
201906061130 METAR LRSV 061130Z 14012KT 9999 SCT034CB 24/15 Q1015=
201906061200 METAR LRSV 061200Z 14014KT 9999 SCT034CB 24/15 Q1015=
201906061230 METAR LRSV 061230Z 14012KT 9999 SCT036CB 23/16 Q1015=
201906061300 METAR LRSV 061300Z 13010KT 9999 SCT040CB 22/16 Q1015=
201906061330 METAR LRSV 061330Z 15012KT 9999 SCT038CB 23/16 Q1015=
201906061400 METAR LRSV 061400Z 14011KT 9999 -SHRA VCTS SCT034CB 22/17
                        Q1015=
201906061430 METAR LRSV 061430Z 11014KT 080V140 9999 -TSRA FEW015 SCT036CB
                        20/16 Q1015=
201906061500 METAR LRSV 061500Z 09005KT 060V160 9999 -SHRA VCTS SCT026CB
                        19/17 Q1015=
201906061530 METAR LRSV 061530Z 09008KT 9999 FEW026CB 20/17 Q1015=
201906061600 METAR LRSV 061600Z 09009KT 9999 FEW026CB 20/17 Q1015=
201906061630 METAR LRSV 061630Z 09006KT 9999 -SHRA FEW030CB 19/18 Q1015
                        R16/29//95=
201906061700 METAR LRSV 061700Z 14005KT 090V170 9999 FEW030CB 19/17 Q1015
                        R16/29//95=
201906061730 METAR LRSV 061730Z 13007KT 9999 FEW030CB 19/16 Q1016 R16/29//95=
201906061800 METAR LRSV 061800Z 14008KT 9999 FEW030CB 18/16 Q1015 R16/29//95=
201906061830 METAR LRSV 061830Z 17006KT CAVOK 17/16 Q1016 R16/29//95=
201906061900 METAR LRSV 061900Z 18007KT 9999 FEW048 18/16 Q1016 R16/29//95=
201906061930 METAR LRSV 061930Z 21007KT 9999 FEW048 18/16 Q1016 R16/29//95=
201906062000 METAR LRSV 062000Z 19004KT 9999 FEW048 18/16 Q1016 R16/29//95=
201906062030 METAR LRSV 062030Z 19004KT 9999 FEW048 17/16 Q1016 R16/29//95=
201906062100 METAR LRSV 062100Z 19005KT 9999 -SHRA FEW030CB 17/16 Q1016
                        R16/29//95=
201906062130 METAR LRSV 062130Z 21005KT 9999 FEW030CB 17/16 Q1016 R16/29//95=
201906062200 METAR LRSV 062200Z 19003KT 170V230 CAVOK 17/16 Q1016 R16/29//95=
201906062230 METAR LRSV 062230Z 17006KT CAVOK 16/15 Q1016 R16/29//95=
201906062300 METAR LRSV 062300Z 21003KT CAVOK 16/15 Q1016 R16/29//95=
201906062330 METAR LRSV 062330Z 22005KT CAVOK 15/14 Q1016 R16/29//95=
201906070000 METAR LRSV 070000Z 23006KT CAVOK 15/14 Q1016 R16/29//95=
201906070030 METAR LRSV 070030Z 22005KT CAVOK 15/13 Q1016 R16/29//95=
201906070100 METAR LRSV 070100Z VRB03KT CAVOK 15/13 Q1016 R16/29//95=
201906070130 METAR LRSV 070130Z 22002KT CAVOK 14/13 Q1016 R16/29//95=
201906070200 METAR LRSV 070200Z 19002KT CAVOK 14/13 Q1016 R16/29//95=
201906070230 METAR LRSV 070230Z 24004KT CAVOK 15/13 Q1016 R16/19//95=
201906070300 METAR LRSV 070300Z 25007KT CAVOK 14/13 Q1016 R16/19//95=
201906070330 METAR LRSV 070330Z AUTO 26007KT 9999 FEW160/// 16/13 Q1016=
201906070400 METAR LRSV 070400Z AUTO 25004KT 9999 NCD 17/13 Q1016=
201906070430 METAR LRSV 070430Z AUTO 25007KT 9999 NCD 17/15 Q1017=
201906070500 METAR LRSV 070500Z AUTO 25003KT 220V280 9999 NCD 19/14 Q1017=
201906070530 METAR LRSV 070530Z AUTO 25004KT 9999 NCD 20/15 Q1017=
201906070600 METAR LRSV 070600Z AUTO 25004KT 220V280 9999 NCD 21/14 Q1018=
201906070630 METAR LRSV 070630Z AUTO 23006KT 200V260 9999 NCD 21/15 Q1018=
201906070700 METAR LRSV 070700Z 23003KT 180V290 CAVOK 22/15 Q1018 R16/19//95=
201906070730 METAR LRSV 070730Z VRB03KT 9999 FEW030TCU 23/14 Q1018 R16/19//95=
201906070800 METAR LRSV 070800Z 08004KT 360V140 9999 FEW030TCU 23/17 Q1018
                        R16/19//95=
201906070830 METAR LRSV 070830Z VRB04KT 9999 FEW030TCU 23/16 Q1018 R16/19//95=
201906070900 METAR LRSV 070900Z 10003KT 010V160 9999 FEW030TCU 23/16 Q1018
                        R16/19//95=
201906070930 METAR LRSV 070930Z 16004KT 090V210 9999 FEW030TCU 23/15 Q1018
                        R16/19//95=
201906071000 METAR LRSV 071000Z 13006KT 090V160 9999 FEW034TCU 23/16 Q1018
                        R16/19//95=
201906071030 METAR COR LRSV 071030Z 18007KT 9999 FEW034TCU 24/16 Q1018
                        R16/19//95=
201906071100 METAR COR LRSV 071100Z 17006KT 120V200 9999 FEW030CB 24/15
                        Q1017 R16/19//95=
201906071130 METAR LRSV 071130Z 13006KT 080V180 9999 FEW030CB 24/16 Q1017
                        R16/CLRD//=
201906071200 METAR COR LRSV 071200Z 17006KT 130V200 9999 FEW030CB 24/16
                        Q1018=
201906071230 METAR LRSV 071230Z 23007KT 200V260 9999 TS SCT030CB 21/15
                        Q1018=
201906071300 METAR LRSV 071300Z 28005KT 9999 -TSRA SCT030CB 21/15 Q1018=
201906071330 METAR LRSV 071330Z 24003KT 9999 FEW030CB 22/15 Q1018=
201906071400 METAR LRSV 071400Z VRB02KT 9999 FEW030CB 24/15 Q1017=
201906071430 METAR LRSV 071430Z 16004KT 130V200 9999 FEW030CB 24/15 Q1018=
201906071500 METAR LRSV 071500Z 11006KT 9999 FEW030CB 24/17 Q1017=
201906071530 METAR COR LRSV 071530Z 12004KT 090V150 CAVOK 24/15 Q1018=
201906071600 METAR LRSV 071600Z 12002KT 080V170 9999 FEW030CB 23/17 Q1018=
201906071630 METAR LRSV 071630Z 17005KT 160V220 9999 VCTS SCT035CB 22/18
                        Q1018=
201906071700 METAR LRSV 071700Z 19007KT 160V220 9999 -SHRA SCT035CB 20/16
                        Q1018=
201906071730 METAR LRSV 071730Z 20003KT 9999 FEW040CB 20/16 Q1018=
201906071800 METAR LRSV 071800Z 23006KT CAVOK 19/16 Q1018=
201906071830 METAR LRSV 071830Z 24007KT CAVOK 18/15 Q1018=
201906071900 METAR LRSV 071900Z 25006KT CAVOK 18/14 Q1019=
201906071930 METAR COR LRSV 071930Z 26006KT CAVOK 17/14 Q1019=
201906072000 METAR COR LRSV 072000Z 25007KT CAVOK 17/14 Q1018=
201906072030 METAR COR LRSV 072030Z 23006KT CAVOK 16/14 Q1019=
201906072100 METAR LRSV 072100Z 24007KT CAVOK 16/15 Q1019=
201906072130 METAR LRSV 072130Z 25008KT CAVOK 16/14 Q1018=
201906072200 METAR LRSV 072200Z 24009KT CAVOK 16/14 Q1018=
201906072230 METAR LRSV 072230Z 24008KT CAVOK 16/14 Q1018=
201906072300 METAR LRSV 072300Z 21006KT CAVOK 15/14 Q1018=
201906072330 METAR LRSV 072330Z 25004KT CAVOK 15/14 Q1018=
201906080000 METAR LRSV 080000Z 26005KT CAVOK 15/14 Q1018=
201906080030 METAR LRSV 080030Z 27007KT CAVOK 16/15 Q1018=
201906080100 METAR LRSV 080100Z 29002KT 250V340 CAVOK 16/14 Q1018=
201906080130 METAR LRSV 080130Z 34004KT CAVOK 15/14 Q1018=
201906080200 METAR LRSV 080200Z 32003KT CAVOK 15/14 Q1018=
201906080230 METAR LRSV 080230Z 27006KT CAVOK 15/14 Q1018=
201906080300 METAR LRSV 080300Z 29006KT CAVOK 16/15 Q1018=
201906080330 METAR LRSV 080330Z AUTO 36003KT 320V060 9999 FEW150/// 16/14
                        Q1018=
201906080400 METAR LRSV 080400Z AUTO 00000KT 9999 NCD 17/15 Q1018=
201906080430 METAR LRSV 080430Z AUTO 22003KT 180V240 9999 NCD 17/15 Q1019=
201906080500 METAR LRSV 080500Z 24003KT CAVOK 17/16 Q1019=
201906080530 METAR LRSV 080530Z 00000KT CAVOK 19/16 Q1019=
201906080600 METAR LRSV 080600Z 00000KT CAVOK 20/17 Q1019=
201906080630 METAR LRSV 080630Z 27007KT 240V300 CAVOK 20/16 Q1019=
201906080700 METAR LRSV 080700Z 28006KT 240V310 9999 FEW040CB 22/15 Q1019=
201906080730 METAR LRSV 080730Z 02005KT 320V080 9999 FEW040CB 22/17 Q1019=
201906080800 METAR LRSV 080800Z 08004KT 360V110 9999 FEW040CB 22/17 Q1019=
201906080830 METAR LRSV 080830Z 12004KT 090V150 9999 FEW040TCU 23/17 Q1019=
201906080900 METAR LRSV 080900Z 06006KT 030V100 9999 FEW040CB 23/17 Q1020=
201906080930 METAR LRSV 080930Z 07005KT 360V110 9999 FEW040CB 24/17 Q1019=
201906081000 METAR LRSV 081000Z 07005KT 020V100 9999 FEW040CB 24/16 Q1019=
201906081030 METAR LRSV 081030Z 07004KT 360V120 9999 VCTS FEW040CB 25/14
                        Q1019=
201906081100 METAR LRSV 081100Z 08007KT 9999 TS FEW040CB 25/15 Q1019=
201906081130 METAR LRSV 081130Z 06005KT 010V100 9999 TS FEW040CB 25/16
                        Q1019=
201906081200 METAR LRSV 081200Z 05005KT 360V090 9999 FEW040CB 25/16 Q1019=
201906081230 METAR LRSV 081230Z 06006KT 030V100 9999 FEW040CB 25/16 Q1019=
201906081300 METAR LRSV 081300Z 07006KT 040V110 9999 FEW040CB 25/17 Q1019=
201906081330 METAR LRSV 081330Z 04008KT 010V070 9999 FEW040CB 25/15 Q1019=
201906081400 METAR LRSV 081400Z 06010KT 9999 FEW040CB 24/18 Q1019=
201906081430 METAR LRSV 081430Z 07008KT 9999 FEW040TCU 24/18 Q1019=
201906081500 METAR LRSV 081500Z 09008KT 9999 FEW045TCU 24/17 Q1019=
201906081530 METAR LRSV 081530Z 08007KT 9999 FEW045TCU 24/18 Q1019=
201906081600 METAR LRSV 081600Z 09008KT CAVOK 23/18 Q1019=
201906081630 METAR LRSV 081630Z 07004KT CAVOK 23/17 Q1020=
201906081700 METAR LRSV 081700Z 09002KT 020V120 CAVOK 23/17 Q1020=
201906081730 METAR LRSV 081730Z 04003KT 360V070 CAVOK 22/18 Q1020=
201906081800 METAR LRSV 081800Z 01005KT CAVOK 20/17 Q1020=
201906081830 METAR LRSV 081830Z 04005KT CAVOK 19/17 Q1021=
201906081900 METAR LRSV 081900Z 03004KT CAVOK 19/16 Q1021=
201906081930 METAR LRSV 081930Z 04005KT CAVOK 19/16 Q1021=
201906082000 METAR LRSV 082000Z 01003KT 340V050 CAVOK 19/15 Q1021=
201906082030 METAR LRSV 082030Z 07005KT CAVOK 18/15 Q1021=
201906082100 METAR LRSV 082100Z 03003KT 340V060 CAVOK 18/15 Q1021=
201906082130 METAR LRSV 082130Z 29002KT CAVOK 17/15 Q1021=
201906082200 METAR LRSV 082200Z 28006KT CAVOK 17/15 Q1021=
201906082230 METAR LRSV 082230Z 29007KT CAVOK 18/15 Q1021=
201906082300 METAR LRSV 082300Z 27005KT CAVOK 17/15 Q1021=
201906082330 METAR LRSV 082330Z 28009KT CAVOK 18/16 Q1021=
201906090000 METAR LRSV 090000Z 31006KT CAVOK 18/15 Q1021=
201906090030 METAR LRSV 090030Z 32007KT CAVOK 18/15 Q1021=
201906090100 METAR LRSV 090100Z 32006KT CAVOK 18/15 Q1021=
201906090130 METAR LRSV 090130Z 32007KT CAVOK 18/15 Q1022=
201906090200 METAR LRSV 090200Z 35006KT CAVOK 16/15 Q1022=
201906090230 METAR LRSV 090230Z 34007KT CAVOK 16/15 Q1022=
201906090300 METAR LRSV 090300Z 33008KT CAVOK 17/15 Q1022=
201906090330 METAR LRSV 090330Z 34007KT CAVOK 17/15 Q1023=
201906090400 METAR LRSV 090400Z 34007KT CAVOK 19/16 Q1023=
201906090430 METAR LRSV 090430Z 35007KT CAVOK 19/16 Q1023=
201906090500 METAR LRSV 090500Z 34009KT CAVOK 20/17 Q1023=
201906090530 METAR LRSV 090530Z 34008KT CAVOK 21/17 Q1023=
201906090600 METAR LRSV 090600Z 35009KT CAVOK 21/17 Q1024=
201906090630 METAR LRSV 090630Z 34009KT CAVOK 22/17 Q1024=
201906090700 METAR LRSV 090700Z 35008KT 320V020 CAVOK 22/17 Q1024=
201906090730 METAR COR LRSV 090730Z 01005KT 320V040 9999 FEW020 23/17
                        Q1024=
201906090800 METAR LRSV 090800Z 36007KT 340V040 9999 FEW020 23/18 Q1024=
201906090830 METAR LRSV 090830Z 34008KT 310V010 9999 SCT022 24/17 Q1024=
201906090900 METAR LRSV 090900Z 36007KT 320V040 9999 SCT025 24/17 Q1024=
201906090930 METAR COR LRSV 090930Z 36007KT 320V040 9999 SCT027 24/17
                        Q1024=
201906091000 METAR LRSV 091000Z 34008KT 300V020 9999 SCT033 25/17 Q1024=
201906091030 METAR LRSV 091030Z 03007KT 350V060 9999 SCT033 25/18 Q1024=
201906091100 METAR LRSV 091100Z 35010KT 320V020 9999 SCT035 25/17 Q1024=
201906091130 METAR LRSV 091130Z 35010KT 9999 SCT035 25/17 Q1024=
201906091200 METAR LRSV 091200Z 01008KT 330V050 9999 SCT035 25/17 Q1023=
201906091230 METAR LRSV 091230Z 35009KT 320V030 9999 SCT035 26/17 Q1023=
201906091300 METAR LRSV 091300Z 36008KT 330V030 9999 SCT037 25/17 Q1023=
201906091330 METAR LRSV 091330Z 36009KT 330V030 9999 SCT040 26/17 Q1022=
201906091400 METAR COR LRSV 091400Z 34009KT 320V020 9999 FEW040 26/17
                        Q1022=
201906091430 METAR COR LRSV 091430Z 35010KT 9999 FEW045 24/16 Q1022=
201906091500 METAR LRSV 091500Z 36009KT CAVOK 25/18 Q1022=
201906091530 METAR LRSV 091530Z 36011KT 9999 FEW045TCU 25/17 Q1022=
201906091600 METAR LRSV 091600Z 35010KT 9999 VCTS FEW045CB 24/17 Q1021=
201906091630 METAR COR LRSV 091630Z 35010KT 9999 VCTS FEW045CB 24/17 Q1021=
201906091700 METAR LRSV 091700Z 34007KT 9999 FEW045CB 22/18 Q1022=
201906091730 METAR LRSV 091730Z 34008KT 9999 FEW045CB 22/17 Q1022=
201906091800 METAR LRSV 091800Z 33007KT 9999 FEW045CB 22/18 Q1022=
201906091830 METAR LRSV 091830Z 33008KT 9999 FEW045CB 21/18 Q1023=
201906091900 METAR LRSV 091900Z 32009KT 9999 FEW045CB 21/18 Q1023=
201906091930 METAR LRSV 091930Z 32009KT CAVOK 20/18 Q1023=
201906092000 METAR LRSV 092000Z 32009KT CAVOK 20/18 Q1022=
201906092030 METAR LRSV 092030Z 32011KT 9999 FEW045CB 20/18 Q1022=
201906092100 METAR LRSV 092100Z 34009KT 9999 FEW045CB 20/18 Q1022=
201906092130 METAR LRSV 092130Z 34008KT 9999 FEW045CB 19/17 Q1022=
201906092200 METAR LRSV 092200Z 34010KT 9999 FEW045CB 19/17 Q1022=
201906092230 METAR LRSV 092230Z 33010KT 9999 FEW045CB 20/18 Q1022=
201906092300 METAR LRSV 092300Z 34009KT 9999 FEW045CB 20/17 Q1022=
201906092330 METAR LRSV 092330Z 33008KT 9999 FEW045CB 19/17 Q1022=
201906100000 METAR LRSV 100000Z 33009KT CAVOK 19/17 Q1022=
201906100030 METAR LRSV 100030Z 33009KT CAVOK 18/17 Q1022=
201906100100 METAR LRSV 100100Z 34008KT CAVOK 18/17 Q1022=
201906100130 METAR LRSV 100130Z 33009KT CAVOK 18/17 Q1022=
201906100200 METAR LRSV 100200Z 34007KT CAVOK 18/16 Q1022=
201906100230 METAR LRSV 100230Z 33005KT CAVOK 18/16 Q1022=
201906100300 METAR LRSV 100300Z 33007KT 9999 FEW040 18/16 Q1022=
201906100330 METAR COR LRSV 100330Z 33007KT 9999 FEW048 18/17 Q1022=
201906100400 METAR LRSV 100400Z 33009KT CAVOK 19/17 Q1021=
201906100430 METAR LRSV 100430Z 33011KT CAVOK 20/18 Q1021=
201906100500 METAR LRSV 100500Z AUTO 34010KT 9999 NCD 20/18 Q1021=
201906100530 METAR LRSV 100530Z AUTO 35009KT 9999 NCD 21/18 Q1022=
201906100600 METAR LRSV 100600Z AUTO 36008KT 9999 FEW008/// 21/19 Q1022=
201906100630 METAR LRSV 100630Z AUTO 35007KT 9999 SCT009/// 22/19 Q1022=
201906100700 METAR COR LRSV 100700Z 35007KT 9999 SCT010 22/19 Q1022=
201906100730 METAR LRSV 100730Z 35008KT 9999 SCT010 22/19 Q1022=
201906100800 METAR LRSV 100800Z 34006KT 300V060 9999 SCT010 23/19 Q1022=
201906100830 METAR LRSV 100830Z 03006KT 010V070 9999 SCT020 24/18 Q1022=
201906100900 METAR LRSV 100900Z 04007KT 010V090 9999 SCT023TCU 25/18 Q1022=
201906100930 METAR LRSV 100930Z 07006KT 030V110 9999 SCT023TCU 25/18 Q1021=
201906101000 METAR LRSV 101000Z 04006KT 360V100 9999 SCT025TCU 25/18 Q1021=
201906101030 METAR COR LRSV 101030Z 07006KT 030V120 9999 SCT031TCU 25/17
                        Q1021=
201906101100 METAR LRSV 101100Z 05005KT 360V120 9999 SCT035TCU 26/17 Q1021=
201906101130 METAR LRSV 101130Z 02006KT 340V050 9999 FEW034TCU 26/17 Q1020=
201906101200 METAR LRSV 101200Z 04007KT 360V060 9999 FEW037TCU 26/17 Q1020=
201906101230 METAR LRSV 101230Z 07007KT 040V110 9999 FEW043TCU 26/16 Q1020=
201906101300 METAR LRSV 101300Z 08006KT 030V140 9999 FEW045TCU 27/16 Q1019=
201906101330 METAR LRSV 101330Z 04011KT 010V070 9999 FEW045TCU 26/17 Q1019=
201906101400 METAR LRSV 101400Z 03007KT 360V060 9999 FEW043TCU 27/16 Q1019=
201906101430 METAR LRSV 101430Z 06009KT 9999 FEW047CB 26/16 Q1019=
201906101500 METAR LRSV 101500Z 07007KT 9999 FEW047CB 27/16 Q1019=
201906101530 METAR LRSV 101530Z 06008KT 9999 FEW047CB 27/16 Q1019=
201906101600 METAR LRSV 101600Z 06007KT 040V100 9999 SCT047CB 26/16 Q1019=
201906101630 METAR LRSV 101630Z 08006KT 050V110 9999 TS SCT047CB 26/16
                        Q1019=
201906101700 METAR LRSV 101700Z 10007KT 9999 -SHRA VCTS FEW047CB 23/18
                        Q1019=
201906101730 METAR LRSV 101730Z 00000KT 9999 FEW047CB 24/18 Q1019=
201906101800 METAR LRSV 101800Z 26003KT 9999 FEW047CB 22/18 Q1019=
201906101830 METAR LRSV 101830Z 27004KT 9999 FEW046CB 22/17 Q1019=
201906101900 METAR LRSV 101900Z 29005KT 9999 FEW046CB 21/16 Q1019=
201906101930 METAR LRSV 101930Z 28004KT 9999 FEW046CB 20/16 Q1019=
201906102000 METAR LRSV 102000Z 33005KT 9999 FEW046CB 21/16 Q1019=
201906102030 METAR LRSV 102030Z 34006KT CAVOK 20/16 Q1019=
201906102100 METAR LRSV 102100Z 27004KT 220V310 CAVOK 19/17 Q1019=
201906102130 METAR LRSV 102130Z 35006KT CAVOK 20/16 Q1018=
201906102200 METAR LRSV 102200Z 34005KT CAVOK 21/16 Q1018=
201906102230 METAR LRSV 102230Z 34006KT CAVOK 20/16 Q1018=
201906102300 METAR LRSV 102300Z 35006KT CAVOK 20/16 Q1018=
201906102330 METAR LRSV 102330Z 34006KT CAVOK 20/16 Q1018=
201906110000 METAR LRSV 110000Z 34006KT CAVOK 20/16 Q1018=
201906110030 METAR LRSV 110030Z 33007KT CAVOK 19/16 Q1017=
201906110100 METAR LRSV 110100Z 33006KT CAVOK 19/16 Q1017=
201906110130 METAR LRSV 110130Z 33006KT CAVOK 19/16 Q1017=
201906110200 METAR LRSV 110200Z 33006KT CAVOK 19/16 Q1017=
201906110230 METAR LRSV 110230Z 33006KT CAVOK 19/15 Q1017=
201906110300 METAR LRSV 110300Z 33007KT CAVOK 19/16 Q1017=
201906110330 METAR LRSV 110330Z AUTO 33007KT 9999 NCD 19/16 Q1018=
201906110400 METAR LRSV 110400Z AUTO 33008KT 9999 NCD 20/16 Q1017=
201906110430 METAR LRSV 110430Z AUTO 33008KT 9999 NCD 20/16 Q1018=
201906110500 METAR LRSV 110500Z AUTO 35007KT 9999 NCD 21/17 Q1018=
201906110530 METAR LRSV 110530Z AUTO 34007KT 9999 NCD 22/17 Q1018=
201906110600 METAR LRSV 110600Z AUTO 36007KT 9999 NCD 22/17 Q1018=
201906110630 METAR LRSV 110630Z AUTO 35008KT 9999 NCD 23/17 Q1018=
201906110700 METAR COR LRSV 110700Z 01006KT 300V040 CAVOK 24/15 Q1018=
201906110730 METAR LRSV 110730Z 36006KT 320V020 CAVOK 24/17 Q1018=
201906110800 METAR LRSV 110800Z 01006KT 330V050 CAVOK 24/18 Q1018=
201906110830 METAR LRSV 110830Z 01006KT 330V040 CAVOK 25/17 Q1018=
201906110900 METAR LRSV 110900Z 02006KT 350V050 CAVOK 26/17 Q1018=
201906110930 METAR LRSV 110930Z 06006KT 020V080 CAVOK 27/16 Q1018=
201906111000 METAR LRSV 111000Z 02008KT 340V060 CAVOK 27/17 Q1018=
201906111030 METAR LRSV 111030Z 04007KT CAVOK 27/17 Q1018=
201906111100 METAR LRSV 111100Z 05007KT 010V080 CAVOK 27/17 Q1018=
201906111130 METAR LRSV 111130Z 07006KT 040V100 9999 FEW045TCU 28/17 Q1017=
201906111200 METAR LRSV 111200Z 09007KT 050V120 9999 FEW045TCU 29/16 Q1017=
201906111230 METAR LRSV 111230Z 10008KT 9999 FEW040CB 29/16 Q1017=
201906111300 METAR LRSV 111300Z 08007KT 050V110 9999 FEW045CB 28/15 Q1017=
201906111330 METAR LRSV 111330Z 09006KT 060V120 9999 FEW045CB 29/17 Q1017=
201906111400 METAR LRSV 111400Z 10007KT 9999 FEW045CB 28/15 Q1017=
201906111430 METAR LRSV 111430Z 09006KT 9999 SCT045CB 28/16 Q1017=
201906111500 METAR LRSV 111500Z 10015KT 9999 TS SCT045CB 27/17 Q1017=
201906111530 METAR LRSV 111530Z 07007KT 320V120 9999 -TSRA SCT040CB 21/15
                        Q1017 R16/29//95=
201906111600 METAR LRSV 111600Z 35005KT 330V030 9999 -TSRA SCT040CB 22/15
                        Q1017 R16/29//95=
201906111630 METAR LRSV 111630Z 33005KT 9999 -TSRA SCT040CB 22/16 Q1017
                        R16/29//95=
201906111700 METAR LRSV 111700Z 22005KT 9999 TS SCT045CB 21/17 Q1017 R16/29//95=
201906111730 METAR LRSV 111730Z 26005KT 9999 FEW045CB 22/16 Q1017 R16/29//95=
201906111800 METAR LRSV 111800Z 27006KT 9999 FEW045CB 22/16 Q1017 R16/29//95=
201906111830 METAR LRSV 111830Z 25007KT 9999 FEW045CB 21/16 Q1018 R16/29//95=
201906111900 METAR LRSV 111900Z 35004KT 280V090 9999 FEW045CB 20/16 Q1018
                        R16/19//95=
201906111930 METAR LRSV 111930Z 32004KT 9999 TS FEW045CB 20/15 Q1018 R16/19//95=
201906112000 METAR LRSV 112000Z 33005KT 9999 TS FEW045CB 21/15 Q1018 R16/19//95=
201906112030 METAR LRSV 112030Z 34006KT 9999 FEW045CB 21/15 Q1017 R16/19//95=
201906112100 METAR LRSV 112100Z 36004KT 9999 FEW045CB 22/14 Q1018 R16/19//95=
201906112130 METAR LRSV 112130Z 34005KT CAVOK 21/14 Q1017 R16/19//95=
201906112200 METAR LRSV 112200Z 33006KT CAVOK 21/14 Q1017 R16/19//95=
201906112230 METAR LRSV 112230Z 33007KT CAVOK 21/14 Q1017 R16/19//95=
201906112300 METAR LRSV 112300Z 33007KT CAVOK 21/14 Q1017 R16/19//95=
201906112330 METAR LRSV 112330Z 33008KT CAVOK 21/14 Q1017 R16/19//95=
201906120000 METAR LRSV 120000Z 34007KT CAVOK 21/14 Q1017 R16/19//95=
201906120030 METAR LRSV 120030Z 34007KT CAVOK 20/14 Q1017 R16/19//95=
201906120100 METAR LRSV 120100Z 33007KT CAVOK 20/14 Q1017 R16/19//95=
201906120130 METAR LRSV 120130Z 32007KT CAVOK 20/14 Q1017 R16/19//95=
201906120200 METAR LRSV 120200Z 32007KT CAVOK 20/14 Q1017 R16/19//95=
201906120230 METAR LRSV 120230Z 33007KT CAVOK 20/15 Q1017 R16/CLRD//=
201906120300 METAR LRSV 120300Z 33008KT CAVOK 19/15 Q1017=
201906120330 METAR LRSV 120330Z AUTO 33008KT 9999 FEW060/// 20/15 Q1017=
201906120400 METAR LRSV 120400Z AUTO 33008KT 9999 NCD 20/16 Q1017=
201906120430 METAR LRSV 120430Z AUTO 33008KT 9999 FEW065/// 21/16 Q1017=
201906120500 METAR COR LRSV 120500Z 34007KT CAVOK 22/17 Q1017=
201906120530 METAR LRSV 120530Z 35007KT CAVOK 22/17 Q1017=
201906120600 METAR LRSV 120600Z 01006KT 330V030 CAVOK 23/18 Q1017=
201906120630 METAR COR LRSV 120630Z 36006KT 320V030 CAVOK 24/17 Q1017=
201906120700 METAR LRSV 120700Z 03006KT 360V060 CAVOK 24/17 Q1017=
201906120730 METAR LRSV 120730Z 02006KT 340V050 CAVOK 25/17 Q1018=
201906120800 METAR LRSV 120800Z 02006KT CAVOK 25/18 Q1018=
201906120830 METAR LRSV 120830Z 02006KT 340V070 CAVOK 26/15 Q1018=
201906120900 METAR LRSV 120900Z 01005KT 300V060 CAVOK 26/15 Q1018=
201906120930 METAR LRSV 120930Z 05005KT 350V120 9999 FEW045TCU 27/14 Q1017=
201906121000 METAR LRSV 121000Z 06005KT 360V110 9999 FEW045TCU 27/14 Q1017=
201906121030 METAR LRSV 121030Z 05005KT 350V080 9999 FEW045 28/13 Q1017=
201906121100 METAR LRSV 121100Z 04006KT 360V090 9999 FEW045 27/11 Q1017=
201906121130 METAR LRSV 121130Z 11003KT 050V190 9999 FEW045 28/11 Q1017=
201906121200 METAR LRSV 121200Z 07005KT 030V140 CAVOK 28/12 Q1016=
201906121230 METAR LRSV 121230Z VRB02KT CAVOK 28/13 Q1016=
201906121300 METAR LRSV 121300Z 09004KT 020V150 9999 FEW045TCU 28/14 Q1016=
201906121330 METAR LRSV 121330Z AUTO 03003KT 320V100 9999 FEW060/// 27/14
                        Q1016=
201906121400 METAR LRSV 121400Z AUTO 12004KT 090V160 9999 FEW060/// 28/13
                        Q1016=
201906121430 METAR LRSV 121430Z AUTO 06004KT 030V090 9999 FEW060/// 28/13
                        Q1016=
201906121500 METAR LRSV 121500Z 11006KT 9999 FEW045 28/14 Q1016=
201906121530 METAR LRSV 121530Z 11005KT 9999 FEW045 28/16 Q1016=
201906121600 METAR LRSV 121600Z 12003KT 090V150 9999 FEW048 28/14 Q1016=
201906121630 METAR LRSV 121630Z 00000KT 9999 FEW048CB 27/15 Q1016=
201906121700 METAR LRSV 121700Z VRB02KT 9999 FEW048CB 27/17 Q1016=
201906121730 METAR LRSV 121730Z 00000KT 9999 FEW048CB 26/13 Q1016=
201906121800 METAR LRSV 121800Z 00000KT CAVOK 25/14 Q1016=
201906121830 METAR LRSV 121830Z 00000KT CAVOK 24/14 Q1016=
201906121900 METAR LRSV 121900Z 00000KT CAVOK 24/13 Q1017=
201906121930 METAR LRSV 121930Z 00000KT CAVOK 24/13 Q1017=
201906122000 METAR LRSV 122000Z 32003KT CAVOK 24/13 Q1017=
201906122030 METAR COR LRSV 122030Z 34004KT CAVOK 21/14 Q1017=
201906122100 METAR LRSV 122100Z 32003KT CAVOK 21/15 Q1017=
201906122130 METAR LRSV 122130Z 34003KT CAVOK 22/14 Q1017=
201906122200 METAR LRSV 122200Z 33003KT CAVOK 22/15 Q1017=
201906122230 METAR LRSV 122230Z 35003KT CAVOK 21/15 Q1017=
201906122300 METAR LRSV 122300Z 28002KT CAVOK 20/15 Q1017=
201906122330 METAR LRSV 122330Z 34004KT CAVOK 22/14 Q1017=
201906130000 METAR LRSV 130000Z 32005KT CAVOK 21/14 Q1017=
201906130030 METAR LRSV 130030Z 32003KT CAVOK 20/15 Q1017=
201906130100 METAR LRSV 130100Z 33004KT CAVOK 22/15 Q1017=
201906130130 METAR LRSV 130130Z 33004KT CAVOK 20/15 Q1017=
201906130200 METAR LRSV 130200Z VRB03KT CAVOK 19/15 Q1017=
201906130230 METAR LRSV 130230Z 32004KT CAVOK 20/14 Q1017=
201906130300 METAR LRSV 130300Z 32004KT CAVOK 19/15 Q1017=
201906130330 METAR LRSV 130330Z AUTO VRB02KT 9999 NCD 19/15 Q1017=
201906130400 METAR LRSV 130400Z AUTO 00000KT 9999 NCD 21/16 Q1017=
201906130430 METAR LRSV 130430Z AUTO 00000KT 9999 NCD 22/18 Q1017=
201906130500 METAR LRSV 130500Z AUTO 04004KT 310V110 9999 NCD 23/18 Q1017=
201906130530 METAR LRSV 130530Z AUTO 00000KT 9999 NCD 24/18 Q1018=
201906130600 METAR LRSV 130600Z AUTO VRB02KT 9999 NCD 25/18 Q1018=
201906130630 METAR LRSV 130630Z AUTO VRB01KT 9999 NCD 26/17 Q1018=
201906130700 METAR COR LRSV 130700Z VRB02KT CAVOK 26/17 Q1018=
201906130730 METAR LRSV 130730Z VRB03KT CAVOK 26/16 Q1018=
201906130800 METAR LRSV 130800Z VRB03KT CAVOK 27/15 Q1018=
201906130830 METAR LRSV 130830Z VRB04KT CAVOK 28/12 Q1018=
201906130900 METAR COR LRSV 130900Z 08005KT 040V150 CAVOK 28/13 Q1019=
201906130930 METAR COR LRSV 130930Z 09005KT 020V150 CAVOK 28/13 Q1018=
201906131000 METAR LRSV 131000Z VRB04KT CAVOK 28/13 Q1018=
201906131030 METAR LRSV 131030Z 05007KT 020V100 CAVOK 27/14 Q1018=
201906131100 METAR LRSV 131100Z VRB04KT CAVOK 29/13 Q1018=
201906131130 METAR LRSV 131130Z 05007KT 020V080 CAVOK 28/12 Q1018=
201906131200 METAR COR LRSV 131200Z 04006KT 350V080 CAVOK 29/12 Q1018=
201906131230 METAR LRSV 131230Z 05007KT CAVOK 29/13 Q1018=
201906131300 METAR LRSV 131300Z VRB04KT CAVOK 29/12 Q1018=
201906131330 METAR LRSV 131330Z VRB03KT 9999 FEW045CB 29/11 Q1017=
201906131400 METAR LRSV 131400Z 07006KT 040V110 9999 FEW045CB 29/12 Q1017=
201906131430 METAR LRSV 131430Z 14003KT 070V220 9999 FEW045CB 29/13 Q1017=
201906131500 METAR COR LRSV 131500Z VRB02KT 9999 FEW045 29/11 Q1017=
201906131530 METAR LRSV 131530Z 08004KT 040V120 9999 FEW045CB 28/12 Q1017=
201906131600 METAR LRSV 131600Z VRB01KT 9999 FEW045CB 29/12 Q1017=
201906131630 METAR LRSV 131630Z 05004KT 9999 VCTS FEW045CB 28/14 Q1017=
201906131700 METAR LRSV 131700Z 08004KT 050V110 9999 FEW045CB 27/14 Q1018=
201906131730 METAR LRSV 131730Z 09008KT 9999 FEW045CB 25/16 Q1018=
201906131800 METAR LRSV 131800Z 10009KT 9999 FEW045CB 23/16 Q1018=
201906131830 METAR LRSV 131830Z 11008KT 9999 FEW045CB 22/17 Q1018=
201906131900 METAR LRSV 131900Z 13004KT 9999 FEW045CB 21/16 Q1018=
201906131930 METAR LRSV 131930Z 13005KT CAVOK 21/15 Q1018=
201906132000 METAR LRSV 132000Z 19005KT CAVOK 20/15 Q1019=
201906132030 METAR LRSV 132030Z 20004KT CAVOK 20/15 Q1019=
201906132100 METAR LRSV 132100Z 19004KT CAVOK 20/14 Q1019=
201906132130 METAR LRSV 132130Z 23004KT CAVOK 19/14 Q1019=
201906132200 METAR LRSV 132200Z 21002KT 160V240 CAVOK 20/14 Q1019=
201906132230 METAR LRSV 132230Z 00000KT CAVOK 20/14 Q1019=
201906132300 METAR LRSV 132300Z 11003KT CAVOK 19/14 Q1019=
201906132330 METAR LRSV 132330Z 12004KT CAVOK 18/14 Q1019=
201906140000 METAR LRSV 140000Z 14003KT CAVOK 19/15 Q1019=
201906140030 METAR LRSV 140030Z 15005KT CAVOK 18/15 Q1019=
201906140100 METAR LRSV 140100Z 16003KT CAVOK 18/14 Q1019=
201906140130 METAR LRSV 140130Z 19003KT 150V230 CAVOK 17/14 Q1019=
201906140200 METAR LRSV 140200Z 25007KT CAVOK 17/15 Q1019=
201906140230 METAR LRSV 140230Z 25006KT CAVOK 18/15 Q1019=
201906140300 METAR LRSV 140300Z VRB05KT CAVOK 18/15 Q1019=
201906140330 METAR COR LRSV 140330Z 24003KT 150V290 CAVOK 18/16 Q1019=
201906140400 METAR LRSV 140400Z 25004KT 200V290 CAVOK 20/16 Q1019=
201906140430 METAR LRSV 140430Z VRB04KT CAVOK 21/16 Q1019=
201906140500 METAR LRSV 140500Z 00000KT CAVOK 22/16 Q1019=
201906140530 METAR LRSV 140530Z VRB03KT CAVOK 22/16 Q1019=
201906140600 METAR LRSV 140600Z VRB02KT CAVOK 23/16 Q1020=
201906140630 METAR LRSV 140630Z VRB05KT CAVOK 24/15 Q1020=
201906140700 METAR LRSV 140700Z VRB03KT CAVOK 25/15 Q1020=
201906140730 METAR LRSV 140730Z VRB03KT CAVOK 26/15 Q1020=
201906140800 METAR LRSV 140800Z VRB02KT CAVOK 26/14 Q1020=
201906140830 METAR LRSV 140830Z VRB04KT CAVOK 27/14 Q1020=
201906140900 METAR LRSV 140900Z VRB03KT CAVOK 27/15 Q1020=
201906140930 METAR LRSV 140930Z VRB08KT CAVOK 27/14 Q1021=
201906141000 METAR LRSV 141000Z VRB07KT CAVOK 28/15 Q1021=
201906141030 METAR LRSV 141030Z VRB08KT CAVOK 28/16 Q1021=
201906141100 METAR LRSV 141100Z VRB08KT CAVOK 28/14 Q1021=
201906141130 METAR LRSV 141130Z VRB06KT CAVOK 28/16 Q1020=
201906141200 METAR LRSV 141200Z /////KT CAVOK 28/15 Q1020=
201906141230 METAR LRSV 141230Z 11005KT 070V150 CAVOK 28/16 Q1020=
201906141300 METAR COR LRSV 141300Z 11005KT 070V200 CAVOK 28/16 Q1020=
201906141330 METAR LRSV 141330Z 10005KT 060V170 CAVOK 28/15 Q1019=
201906141400 METAR LRSV 141400Z 08006KT CAVOK 28/15 Q1019=
201906141430 METAR LRSV 141430Z 08006KT 040V110 CAVOK 28/15 Q1019=
201906141500 METAR LRSV 141500Z 09006KT CAVOK 28/16 Q1019=
201906141530 METAR LRSV 141530Z 08006KT CAVOK 27/16 Q1019=
201906141600 METAR LRSV 141600Z 09007KT CAVOK 27/17 Q1019=
201906141630 METAR LRSV 141630Z 09005KT CAVOK 26/18 Q1019=
201906141700 METAR COR LRSV 141700Z 09004KT CAVOK 25/18 Q1019=
201906141730 METAR LRSV 141730Z 10004KT CAVOK 25/17 Q1019=
201906141800 METAR LRSV 141800Z 11004KT CAVOK 25/17 Q1019=
201906141830 METAR LRSV 141830Z VRB01KT CAVOK 24/16 Q1020=
201906141900 METAR LRSV 141900Z 00000KT CAVOK 23/16 Q1020=
201906141930 METAR LRSV 141930Z 00000KT CAVOK 23/16 Q1020=
201906142000 METAR LRSV 142000Z 00000KT CAVOK 23/16 Q1020=
201906142030 METAR COR LRSV 142030Z 00000KT CAVOK 22/17 Q1020=
201906142100 METAR LRSV 142100Z 00000KT CAVOK 22/16 Q1020=
201906142130 METAR LRSV 142130Z 00000KT CAVOK 21/16 Q1020=
201906142200 METAR LRSV 142200Z 00000KT CAVOK 22/16 Q1020=
201906142230 METAR LRSV 142230Z 00000KT CAVOK 21/16 Q1019=
201906142300 METAR LRSV 142300Z 23003KT CAVOK 20/16 Q1019=
201906142330 METAR LRSV 142330Z VRB02KT CAVOK 20/16 Q1019=
201906150000 METAR LRSV 150000Z 00000KT CAVOK 20/16 Q1019=
201906150030 METAR LRSV 150030Z 26003KT CAVOK 19/16 Q1019=
201906150100 METAR LRSV 150100Z 28004KT CAVOK 19/16 Q1019=
201906150130 METAR LRSV 150130Z 32003KT CAVOK 20/16 Q1019=
201906150200 METAR LRSV 150200Z 34003KT 310V020 CAVOK 19/16 Q1019=
201906150230 METAR LRSV 150230Z 00000KT CAVOK 18/16 Q1019=
201906150300 METAR LRSV 150300Z 25004KT CAVOK 18/16 Q1019=
201906150330 METAR LRSV 150330Z 25003KT CAVOK 20/17 Q1019=
201906150400 METAR LRSV 150400Z 26005KT CAVOK 21/17 Q1019=
201906150430 METAR COR LRSV 150430Z 28005KT CAVOK 22/17 Q1019=
201906150500 METAR LRSV 150500Z 26004KT CAVOK 23/17 Q1019=
201906150530 METAR LRSV 150530Z 27004KT CAVOK 24/17 Q1019=
201906150600 METAR LRSV 150600Z 24003KT 210V270 CAVOK 24/17 Q1019=
201906150630 METAR LRSV 150630Z VRB01KT CAVOK 26/17 Q1019=
201906150700 METAR LRSV 150700Z VRB02KT CAVOK 26/18 Q1019=
201906150730 METAR LRSV 150730Z VRB02KT CAVOK 27/19 Q1019=
201906150800 METAR LRSV 150800Z 08005KT 040V150 9999 FEW030 27/19 Q1019=
201906150830 METAR LRSV 150830Z VRB04KT 9999 FEW030 27/19 Q1019=
201906150900 METAR LRSV 150900Z 07005KT 020V140 9999 FEW038 27/17 Q1018=
201906150930 METAR LRSV 150930Z 11005KT 050V140 9999 SCT040 28/17 Q1018=
201906151000 METAR LRSV 151000Z 10006KT 050V140 9999 SCT045 27/18 Q1018=
201906151030 METAR LRSV 151030Z 10005KT 050V130 9999 SCT045 28/17 Q1018=
201906151100 METAR LRSV 151100Z 08006KT 050V130 9999 SCT045 29/18 Q1017=
201906151130 METAR LRSV 151130Z 09005KT 040V120 9999 SCT043 29/17 Q1017=
201906151200 METAR LRSV 151200Z 03007KT 360V060 9999 SCT045 28/17 Q1017=
201906151230 METAR LRSV 151230Z 05006KT 360V100 9999 SCT045 29/16 Q1016=
201906151300 METAR LRSV 151300Z 05006KT 010V080 9999 FEW045 29/17 Q1016=
201906151330 METAR LRSV 151330Z 04008KT 340V080 9999 SCT045 29/15 Q1016=
201906151400 METAR LRSV 151400Z 05006KT 360V070 9999 FEW045 30/17 Q1016=
201906151430 METAR LRSV 151430Z 05009KT 9999 FEW045 29/17 Q1016=
201906151500 METAR LRSV 151500Z 07007KT 030V110 9999 FEW045 29/17 Q1016=
201906151530 METAR LRSV 151530Z 09006KT 9999 FEW045 28/17 Q1016=
201906151600 METAR LRSV 151600Z 09005KT 9999 FEW045 28/17 Q1016=
201906151630 METAR LRSV 151630Z 11004KT CAVOK 28/18 Q1016=
201906151700 METAR LRSV 151700Z 11003KT CAVOK 27/17 Q1016=
201906151730 METAR LRSV 151730Z 13002KT CAVOK 27/16 Q1016=
201906151800 METAR LRSV 151800Z 14003KT CAVOK 25/17 Q1016=
201906151830 METAR LRSV 151830Z 00000KT CAVOK 24/16 Q1016=
201906151900 METAR LRSV 151900Z 00000KT CAVOK 24/16 Q1016=
201906151930 METAR LRSV 151930Z 26003KT CAVOK 23/18 Q1016=
201906152000 METAR LRSV 152000Z 26002KT CAVOK 24/17 Q1016=
201906152030 METAR LRSV 152030Z 00000KT CAVOK 24/15 Q1016=
201906152100 METAR LRSV 152100Z 00000KT CAVOK 24/15 Q1016=
201906152130 METAR LRSV 152130Z 00000KT CAVOK 23/16 Q1016=
201906152200 METAR LRSV 152200Z 00000KT CAVOK 23/15 Q1016=
201906152230 METAR LRSV 152230Z 24004KT CAVOK 20/16 Q1016=
201906152300 METAR LRSV 152300Z 24004KT CAVOK 21/16 Q1015=
201906152330 METAR LRSV 152330Z 25005KT CAVOK 20/17 Q1015=
201906160000 METAR LRSV 160000Z 25005KT CAVOK 20/17 Q1015=
201906160030 METAR LRSV 160030Z 26005KT CAVOK 20/17 Q1015=
201906160100 METAR LRSV 160100Z 26005KT CAVOK 20/17 Q1015=
201906160130 METAR LRSV 160130Z 27005KT CAVOK 20/17 Q1015=
201906160200 METAR LRSV 160200Z 27005KT CAVOK 21/17 Q1015=
201906160230 METAR LRSV 160230Z VRB02KT CAVOK 21/17 Q1015=
201906160300 METAR LRSV 160300Z 32004KT CAVOK 21/17 Q1015=
201906160330 METAR COR LRSV 160330Z 31004KT CAVOK 23/17 Q1015=
201906160400 METAR LRSV 160400Z 00000KT CAVOK 21/18 Q1015=
201906160430 METAR LRSV 160430Z 00000KT CAVOK 23/20 Q1015=
201906160500 METAR COR LRSV 160500Z 00000KT CAVOK 25/20 Q1015=
201906160530 METAR LRSV 160530Z 00000KT CAVOK 26/20 Q1015=
201906160600 METAR COR LRSV 160600Z 18002KT 150V220 9999 NCD 26/20 Q1015=
201906160630 METAR LRSV 160630Z 15004KT 110V210 CAVOK 27/18 Q1016=
201906160700 METAR LRSV 160700Z 15004KT 120V220 CAVOK 27/18 Q1015=
201906160730 METAR LRSV 160730Z 13004KT 090V190 CAVOK 27/17 Q1016=
201906160800 METAR LRSV 160800Z 15004KT 080V210 CAVOK 28/16 Q1016=
201906160830 METAR LRSV 160830Z 17006KT 140V200 CAVOK 28/16 Q1016=
201906160900 METAR LRSV 160900Z 14005KT 090V180 CAVOK 28/16 Q1016=
201906160930 METAR LRSV 160930Z 14006KT 110V170 CAVOK 28/15 Q1016=
201906161000 METAR COR LRSV 161000Z 14005KT 090V200 CAVOK 28/16 Q1015=
201906161030 METAR LRSV 161030Z 15005KT 110V190 9999 SCT047 28/16 Q1015=
201906161100 METAR COR LRSV 161100Z 14007KT 110V170 CAVOK 29/16 Q1015=
201906161130 METAR LRSV 161130Z 14007KT CAVOK 29/16 Q1015=
201906161200 METAR COR LRSV 161200Z 12007KT CAVOK 29/15 Q1015=
201906161230 METAR LRSV 161230Z 13006KT 100V160 CAVOK 29/17 Q1015=
201906161300 METAR LRSV 161300Z 10006KT 070V150 CAVOK 29/16 Q1015=
201906161330 METAR LRSV 161330Z 12007KT 080V150 CAVOK 30/16 Q1014=
201906161400 METAR COR LRSV 161400Z 12007KT 090V160 CAVOK 29/15 Q1014=
201906161430 METAR COR LRSV 161430Z 14006KT 100V190 CAVOK 29/15 Q1014=
201906161500 METAR LRSV 161500Z 14006KT 110V170 CAVOK 29/16 Q1014=
201906161530 METAR COR LRSV 161530Z 15006KT CAVOK 29/17 Q1014=
201906161600 METAR LRSV 161600Z 14006KT CAVOK 28/17 Q1014=
201906161630 METAR COR LRSV 161630Z 11004KT CAVOK 28/18 Q1014=
201906161700 METAR LRSV 161700Z 12005KT CAVOK 27/17 Q1014=
201906161730 METAR LRSV 161730Z 12006KT CAVOK 26/17 Q1014=
201906161800 METAR LRSV 161800Z 12005KT CAVOK 25/17 Q1015=
201906161830 METAR LRSV 161830Z 14005KT CAVOK 24/17 Q1015=
201906161900 METAR LRSV 161900Z 17003KT CAVOK 23/17 Q1015=
201906161930 METAR LRSV 161930Z 00000KT CAVOK 24/17 Q1015=
201906162000 METAR LRSV 162000Z 14004KT CAVOK 24/17 Q1015=
201906162030 METAR LRSV 162030Z 15003KT CAVOK 23/16 Q1015=
201906162100 METAR LRSV 162100Z 00000KT CAVOK 24/17 Q1015=
201906162130 METAR LRSV 162130Z 00000KT CAVOK 22/17 Q1015=
201906162200 METAR LRSV 162200Z 00000KT CAVOK 22/16 Q1015=
201906162230 METAR LRSV 162230Z 00000KT CAVOK 22/16 Q1015=
201906162300 METAR LRSV 162300Z 24005KT CAVOK 21/16 Q1016=
201906162330 METAR LRSV 162330Z 26005KT CAVOK 21/17 Q1016=
201906170000 METAR LRSV 170000Z 27005KT CAVOK 21/17 Q1016=
201906170030 METAR LRSV 170030Z 27004KT CAVOK 22/17 Q1016=
201906170100 METAR LRSV 170100Z 31005KT CAVOK 21/17 Q1016=
201906170130 METAR LRSV 170130Z 32006KT CAVOK 21/16 Q1016=
201906170200 METAR LRSV 170200Z 31009KT CAVOK 20/16 Q1016=
201906170230 METAR LRSV 170230Z 32013KT CAVOK 20/17 Q1016=
201906170300 METAR LRSV 170300Z 32012KT CAVOK 20/17 Q1016=
201906170330 METAR LRSV 170330Z 32012KT CAVOK 20/17 Q1017=
201906170400 METAR LRSV 170400Z 32011KT CAVOK 20/17 Q1016=
201906170430 METAR LRSV 170430Z 32011KT CAVOK 21/17 Q1017=
201906170500 METAR LRSV 170500Z 32010KT CAVOK 21/17 Q1017=
201906170530 METAR LRSV 170530Z VRB03KT CAVOK 23/18 Q1017=
201906170600 METAR LRSV 170600Z 33006KT 310V010 CAVOK 23/18 Q1017=
201906170630 METAR LRSV 170630Z 34006KT 290V010 CAVOK 23/18 Q1017=
201906170700 METAR LRSV 170700Z 34009KT 310V020 CAVOK 24/18 Q1017=
201906170730 METAR LRSV 170730Z 33008KT 300V360 CAVOK 24/19 Q1018=
201906170800 METAR LRSV 170800Z 34007KT 310V020 CAVOK 25/19 Q1018=
201906170830 METAR LRSV 170830Z 02007KT 350V050 CAVOK 25/19 Q1018=
201906170900 METAR LRSV 170900Z 01006KT 320V080 CAVOK 26/19 Q1018=
201906170930 METAR LRSV 170930Z 36008KT 320V020 CAVOK 26/19 Q1018=
201906171000 METAR LRSV 171000Z 34006KT 300V010 9999 FEW047 26/19 Q1017=
201906171030 METAR LRSV 171030Z 02008KT 340V050 9999 FEW047 27/19 Q1017=
201906171100 METAR LRSV 171100Z VRB05KT 9999 FEW047 27/19 Q1017=
201906171130 METAR LRSV 171130Z VRB04KT 9999 FEW047 28/20 Q1017=
201906171200 METAR LRSV 171200Z 04008KT 9999 FEW047 28/20 Q1017=
201906171230 METAR LRSV 171230Z 36008KT 330V040 9999 FEW036 28/19 Q1017=
201906171300 METAR LRSV 171300Z 36011KT 9999 FEW040TCU 27/20 Q1017=
201906171330 METAR LRSV 171330Z 35011KT 9999 TS FEW035CB 26/19 Q1017=
201906171400 METAR LRSV 171400Z 32018KT 8000 -TSRA FEW020 SCT030CB BKN045
                        23/19 Q1017 R16/29//95=
201906171430 METAR LRSV 171430Z 28016KT 7000 2000S +TSRA FEW020 BKN030CB
                        20/19 Q1019 R16/29//95=
201906171500 METAR LRSV 171500Z 33010KT 5000 TSRA SCT020 BKN030CB 20/19
                        Q1018 R16/29//95=
201906171530 METAR LRSV 171530Z 32012KT 5000 -TSRA FEW020 SCT030CB 20/19
                        Q1017 R16/29//95=
201906171600 METAR LRSV 171600Z 31013KT 5000 -SHRA BR SCT035CB BKN045
                        21/19 Q1017 R16/29//95=
201906171630 METAR LRSV 171630Z 35015KT 6000 FEW030CB SCT045 21/19 Q1017
                        R16/29//95=
201906171700 METAR LRSV 171700Z 35013KT 6000 FEW030CB SCT045 20/19 Q1018
                        R16/29//95=
201906171730 METAR LRSV 171730Z 25004KT 5000 BR FEW010 FEW035CB 20/19
                        Q1018 R16/29//95=
201906171800 METAR LRSV 171800Z 29008KT 5000 BR FEW013 BKN018 20/19 Q1018
                        R16/29//95=
201906171830 METAR COR LRSV 171830Z 28011KT 5000 BR BKN018 20/18 Q1019
                        R16/29//95=
201906171900 METAR LRSV 171900Z 29009KT 6000 BKN020 20/18 Q1019 R16/29//95=
201906171930 METAR LRSV 171930Z 29009KT 8000 BKN020 20/18 Q1019 R16/19//95=
201906172000 METAR LRSV 172000Z 30009KT 9999 SCT024 20/18 Q1019 R16/19//95=
201906172030 METAR LRSV 172030Z 31008KT 9999 FEW025 20/17 Q1019 R16/19//95=
201906172100 METAR LRSV 172100Z 31007KT CAVOK 20/17 Q1019 R16/19//95=
201906172130 METAR LRSV 172130Z 33006KT 9999 FEW021 19/18 Q1019 R16/19//95=
201906172200 METAR LRSV 172200Z 32007KT 9999 FEW022 20/17 Q1019 R16/19//95=
201906172230 METAR LRSV 172230Z 27006KT 240V300 CAVOK 19/17 Q1019 R16/19//95=
201906172300 METAR LRSV 172300Z 29007KT CAVOK 19/17 Q1019 R16/19//95=
201906172330 METAR LRSV 172330Z 32009KT 9999 FEW025 19/17 Q1019 R16/19//95=
201906180000 METAR LRSV 180000Z 33009KT 9999 FEW025 19/17 Q1018 R16/19//95=
201906180030 METAR LRSV 180030Z 33009KT CAVOK 18/17 Q1018 R16/19//95=
201906180100 METAR COR LRSV 180100Z 34010KT CAVOK 19/17 Q1018 R16/19//95=
201906180130 METAR LRSV 180130Z 34009KT CAVOK 19/17 Q1018 R16/19//95=
201906180200 METAR LRSV 180200Z 34010KT CAVOK 18/17 Q1018 R16/19//95=
201906180230 METAR LRSV 180230Z 33009KT CAVOK 18/17 Q1018 R16/19//95=
201906180300 METAR LRSV 180300Z 33009KT 9999 SCT010 19/17 Q1019 R16/CLRD//=
201906180330 METAR LRSV 180330Z 34010KT 9999 BKN009 19/17 Q1019=
201906180400 METAR LRSV 180400Z 33008KT 9999 BKN009 19/18 Q1019=
201906180430 METAR LRSV 180430Z 33008KT 9999 BKN011 19/17 Q1019=
201906180500 METAR LRSV 180500Z 32009KT 9999 FEW011 SCT015 20/18 Q1019=
201906180530 METAR LRSV 180530Z 34009KT 9999 FEW013 SCT019 BKN022 20/18
                        Q1019=
201906180600 METAR LRSV 180600Z 33009KT 9999 SCT018 BKN025 21/18 Q1019=
201906180630 METAR LRSV 180630Z 33007KT 300V360 9999 SCT013 BKN025 21/18
                        Q1020=
201906180700 METAR LRSV 180700Z 32006KT 280V350 9999 FEW012 SCT025 22/19
                        Q1020=
201906180730 METAR LRSV 180730Z 29005KT 250V310 9999 BKN011 22/19 Q1020=
201906180800 METAR LRSV 180800Z 30005KT 260V330 9999 SCT013 BKN016 22/19
                        Q1020=
201906180830 METAR LRSV 180830Z 34005KT 290V010 9999 SCT015 BKN030 22/19
                        Q1020=
201906180900 METAR LRSV 180900Z 35006KT 320V040 9999 FEW019 SCT029 24/19
                        Q1019=
201906180930 METAR LRSV 180930Z 34006KT 290V010 9999 FEW021 BKN025 24/18
                        Q1019=
201906181000 METAR LRSV 181000Z 03006KT 340V080 9999 SCT025 25/18 Q1019=
201906181030 METAR LRSV 181030Z 03006KT 360V070 9999 SCT025 24/18 Q1019=
201906181100 METAR LRSV 181100Z 04006KT 360V070 9999 SCT028 25/19 Q1019=
201906181130 METAR COR LRSV 181130Z 04006KT 360V070 9999 SCT027 26/19
                        Q1018=
201906181200 METAR LRSV 181200Z 07007KT 030V100 9999 SCT026 26/18 Q1018=
201906181230 METAR LRSV 181230Z 07006KT 9999 SCT030 25/18 Q1018=
201906181300 METAR LRSV 181300Z 06005KT 020V100 9999 SCT030 26/18 Q1018=
201906181330 METAR LRSV 181330Z 03006KT 360V060 9999 SCT033 26/18 Q1018=
201906181400 METAR LRSV 181400Z 04006KT 010V070 9999 SCT033 26/17 Q1018=
201906181430 METAR LRSV 181430Z 04006KT 9999 FEW033CB 26/18 Q1017=
201906181500 METAR LRSV 181500Z 03004KT 9999 -SHRA SCT033CB 25/17 Q1017
                        R16/29//95=
201906181530 METAR LRSV 181530Z 26011KT 9999 -TSRA SCT039CB 21/18 Q1017
                        R16/29//95=
201906181600 METAR LRSV 181600Z 28013KT 5000 TSRA BKN023CB 19/17 Q1018
                        R16/29//95=
201906181630 METAR LRSV 181630Z 24009KT 200V260 5000 TSRA FEW016 BKN030CB
                        19/17 Q1018 R16/29//95=
201906181700 METAR LRSV 181700Z 28006KT 8000 TSRA SCT018 BKN030CB 19/17
                        Q1018 R16/29//95=
201906181730 METAR LRSV 181730Z 15005KT 110V180 8000 -TSRA FEW003 SCT018
                        SCT030CB 19/17 Q1018 R16/29//95=
201906181800 METAR LRSV 181800Z 16005KT 130V200 9999 -SHRA SCT018 SCT030CB
                        18/17 Q1019 R16/29//95=
201906181830 METAR LRSV 181830Z 20003KT 150V220 7000 TSRA FEW020 SCT030CB
                        BKN045 18/17 Q1019 R16/29//95=
201906181900 METAR LRSV 181900Z 36006KT 260V040 6000 SHRA SCT035CB BKN046
                        18/17 Q1019 R16/290295=
201906181930 METAR LRSV 181930Z 25004KT 7000 SHRA SCT035CB BKN045 18/17
                        Q1019 R16/290295=
201906182000 METAR LRSV 182000Z 26008KT 9999 SHRA FEW040CB BKN045 18/17
                        Q1018 R16/290295=
201906182030 METAR LRSV 182030Z 26007KT 9999 -SHRA FEW038CB BKN044 18/17
                        Q1018 R16/290295=
201906182100 METAR LRSV 182100Z 25005KT 9999 -SHRA FEW031CB BKN044 18/17
                        Q1018 R16/29//95=
201906182130 METAR LRSV 182130Z VRB01KT 9999 -RA SCT044 18/17 Q1018 R16/29//95=
201906182200 METAR LRSV 182200Z 35005KT 9999 -RA FEW044 18/17 Q1018 R16/29//95=
201906182230 METAR LRSV 182230Z 34005KT CAVOK 18/17 Q1018 R16/29//95=
201906182300 METAR LRSV 182300Z 34003KT CAVOK 18/17 Q1018 R16/29//95=
201906182330 METAR LRSV 182330Z 29003KT 190V360 CAVOK 18/17 Q1018 R16/29//95=
201906190000 METAR LRSV 190000Z 25005KT CAVOK 18/17 Q1018 R16/29//95=
201906190030 METAR LRSV 190030Z 26005KT CAVOK 18/17 Q1018 R16/29//95=
201906190100 METAR LRSV 190100Z 27005KT 9999 -RA FEW047 18/17 Q1018 R16/29//95=
201906190130 METAR LRSV 190130Z 30003KT 9999 -RA FEW040 18/17 Q1018 R16/29//95=
201906190200 METAR LRSV 190200Z 30002KT 9999 FEW040 18/17 Q1018 R16/29//95=
201906190230 METAR LRSV 190230Z 34002KT 9999 FEW040 18/17 Q1018 R16/29//95=
201906190300 METAR LRSV 190300Z 17002KT 100V190 9999 FEW040 18/17 Q1018
                        R16/29//95=
201906190330 METAR LRSV 190330Z 18001KT 7000 SCT040 18/17 Q1018 R16/29//95=
201906190400 METAR LRSV 190400Z 20006KT 3000 BR SCT040 18/17 Q1018 R16/29//95=
201906190430 METAR LRSV 190430Z 23004KT 7000 SCT002 18/18 Q1017 R16/29//95=
201906190500 METAR LRSV 190500Z 24004KT 9999 FEW010 18/18 Q1017 R16/29//95=
201906190530 METAR LRSV 190530Z 26006KT CAVOK 19/18 Q1017 R16/29//95=
201906190600 METAR LRSV 190600Z 26004KT 230V290 CAVOK 20/18 Q1017 R16/19//95=
201906190630 METAR COR LRSV 190630Z 22004KT 190V250 CAVOK 20/18 Q1018
                        R16/19//95=
201906190700 METAR LRSV 190700Z VRB01KT CAVOK 21/17 Q1017 R16/19//95=
201906190730 METAR COR LRSV 190730Z 22003KT 160V310 CAVOK 22/17 Q1017
                        R16/CLRD//=
201906190800 METAR LRSV 190800Z 00000KT CAVOK 25/18 Q1017=
201906190830 METAR LRSV 190830Z 18004KT 130V220 9999 FEW030 23/17 Q1017=
201906190900 METAR LRSV 190900Z VRB02KT 9999 FEW030 24/17 Q1017=
201906190930 METAR LRSV 190930Z 16003KT 130V190 9999 FEW030 24/17 Q1017=
201906191000 METAR LRSV 191000Z 14005KT 110V190 9999 FEW030 24/17 Q1017=
201906191030 METAR LRSV 191030Z 12005KT 080V170 9999 FEW035 24/18 Q1017=
201906191100 METAR LRSV 191100Z 09006KT 050V120 9999 FEW035 25/19 Q1017=
201906191130 METAR COR LRSV 191130Z 10007KT 9999 SCT035 25/19 Q1016=
201906191200 METAR LRSV 191200Z 12006KT 100V160 9999 SCT035 26/19 Q1016=
201906191230 METAR LRSV 191230Z 09006KT 040V130 9999 SCT035 25/18 Q1016=
201906191300 METAR LRSV 191300Z 10005KT 060V130 9999 SCT040 26/19 Q1016=
201906191330 METAR LRSV 191330Z 08008KT 9999 SCT040 25/19 Q1015=
201906191400 METAR LRSV 191400Z 09009KT 9999 SCT040 26/19 Q1015=
201906191430 METAR LRSV 191430Z 09009KT 9999 FEW035CB 26/18 Q1015=
201906191500 METAR COR LRSV 191500Z 08007KT 050V110 9999 FEW035CB 25/18
                        Q1015=
201906191530 METAR LRSV 191530Z 12005KT 9999 FEW035CB 24/19 Q1015=
201906191600 METAR COR LRSV 191600Z 11003KT 080V140 9999 FEW035CB 25/19
                        Q1015=
201906191630 METAR LRSV 191630Z 11004KT 9999 FEW035CB 25/19 Q1014=
201906191700 METAR LRSV 191700Z 13003KT 9999 FEW035CB 25/19 Q1015=
201906191730 METAR LRSV 191730Z 15002KT CAVOK 24/19 Q1015=
201906191800 METAR LRSV 191800Z 15002KT CAVOK 23/18 Q1014=
201906191830 METAR LRSV 191830Z 12004KT CAVOK 23/19 Q1015=
201906191900 METAR LRSV 191900Z 13006KT CAVOK 22/19 Q1015=
201906191930 METAR LRSV 191930Z 12006KT CAVOK 22/19 Q1015=
201906192000 METAR LRSV 192000Z 18004KT 150V220 CAVOK 21/19 Q1015=
201906192030 METAR COR LRSV 192030Z 24003KT CAVOK 21/19 Q1015=
201906192100 METAR LRSV 192100Z 25005KT CAVOK 20/18 Q1015=
201906192130 METAR LRSV 192130Z 21003KT CAVOK 20/19 Q1015=
201906192200 METAR LRSV 192200Z 22007KT CAVOK 20/18 Q1016=
201906192230 METAR LRSV 192230Z 23010KT CAVOK 20/17 Q1015=
201906192300 METAR LRSV 192300Z AUTO 25007KT 9999 SCT130/// 19/16 Q1015=
201906192330 METAR LRSV 192330Z 27005KT CAVOK 19/16 Q1014=
201906200000 METAR LRSV 200000Z 13002KT 100V170 CAVOK 18/16 Q1014=
201906200030 METAR LRSV 200030Z 23007KT CAVOK 17/16 Q1014=
201906200100 METAR LRSV 200100Z 24005KT CAVOK 17/16 Q1014=
201906200130 METAR LRSV 200130Z 25006KT CAVOK 17/15 Q1014=
201906200200 METAR LRSV 200200Z 24003KT CAVOK 17/16 Q1014=
201906200230 METAR LRSV 200230Z 23006KT CAVOK 17/15 Q1014=
201906200300 METAR LRSV 200300Z 23005KT CAVOK 17/15 Q1014=
201906200330 METAR LRSV 200330Z 23005KT CAVOK 18/16 Q1014=
201906200400 METAR LRSV 200400Z 24006KT CAVOK 18/16 Q1014=
201906200430 METAR COR LRSV 200430Z 22004KT CAVOK 19/16 Q1014=
201906200500 METAR LRSV 200500Z 22003KT CAVOK 20/16 Q1014=
201906200530 METAR LRSV 200530Z 22004KT CAVOK 21/16 Q1014=
201906200600 METAR LRSV 200600Z 20004KT 170V230 CAVOK 22/15 Q1015=
201906200630 METAR LRSV 200630Z 19004KT 150V230 CAVOK 23/16 Q1015=
201906200700 METAR LRSV 200700Z 17004KT 120V210 CAVOK 24/16 Q1015=
201906200730 METAR LRSV 200730Z 18005KT 140V210 CAVOK 25/17 Q1015=
201906200800 METAR LRSV 200800Z 15006KT 110V180 CAVOK 25/18 Q1015=
201906200830 METAR LRSV 200830Z 16007KT 130V190 CAVOK 26/18 Q1015=
201906200900 METAR LRSV 200900Z 14008KT 110V170 CAVOK 26/18 Q1015=
201906200930 METAR LRSV 200930Z 15010KT CAVOK 27/18 Q1014=
201906201000 METAR LRSV 201000Z 16010KT CAVOK 27/18 Q1014=
201906201030 METAR COR LRSV 201030Z 16008KT 120V200 9999 FEW038 28/18
                        Q1014=
201906201100 METAR LRSV 201100Z 13009KT 9999 FEW039 27/18 Q1014=
201906201130 METAR LRSV 201130Z 13007KT 100V160 9999 FEW038 27/19 Q1014=
201906201200 METAR LRSV 201200Z 12009KT 9999 FEW040 27/19 Q1014=
201906201230 METAR LRSV 201230Z 12009KT 9999 FEW040 27/18 Q1013=
201906201300 METAR LRSV 201300Z 12010KT 9999 FEW040 27/18 Q1013=
201906201330 METAR LRSV 201330Z 13010KT 9999 FEW040 28/18 Q1013=
201906201400 METAR LRSV 201400Z 14009KT 9999 FEW040 28/18 Q1013=
201906201430 METAR LRSV 201430Z 14009KT 9999 FEW035CB 28/18 Q1013=
201906201500 METAR LRSV 201500Z 13007KT 9999 FEW035CB 28/17 Q1013=
201906201530 METAR LRSV 201530Z 15005KT 9999 FEW035CB 28/19 Q1014=
201906201600 METAR LRSV 201600Z 30010KT 9999 FEW040CB SCT045 24/17 Q1014=
201906201630 METAR LRSV 201630Z 28010KT 9999 TS FEW040CB SCT045 23/15
                        Q1014=
201906201700 METAR LRSV 201700Z 31008KT 270V330 9999 FEW040CB SCT045 23/15
                        Q1014=
201906201730 METAR LRSV 201730Z 24010KT 9999 SCT040CB 22/15 Q1015=
201906201800 METAR LRSV 201800Z 24007KT 9999 -TSRA SCT040CB 20/16 Q1015=
201906201830 METAR LRSV 201830Z 28004KT 240V320 9999 SCT040CB 20/15 Q1015=
201906201900 METAR LRSV 201900Z 25008KT 9999 SCT040CB 20/16 Q1015=
201906201930 METAR LRSV 201930Z 23007KT 9999 SCT040CB 19/16 Q1015=
201906202000 METAR LRSV 202000Z 25008KT 9999 FEW040CB 20/16 Q1015=
201906202030 METAR LRSV 202030Z 27007KT 9999 FEW040CB 20/16 Q1014=
201906202100 METAR LRSV 202100Z 27006KT CAVOK 21/15 Q1014=
201906202130 METAR LRSV 202130Z VRB04KT CAVOK 19/16 Q1014=
201906202200 METAR LRSV 202200Z 22005KT CAVOK 18/17 Q1015=
201906202230 METAR LRSV 202230Z 24006KT 160V270 CAVOK 19/17 Q1015=
201906202300 METAR LRSV 202300Z 28004KT CAVOK 19/17 Q1015=
201906202330 METAR LRSV 202330Z 28004KT CAVOK 19/17 Q1015=
201906210000 METAR LRSV 210000Z 26005KT CAVOK 20/14 Q1015=
201906210030 METAR LRSV 210030Z 27005KT CAVOK 19/14 Q1014=
201906210100 METAR LRSV 210100Z VRB01KT CAVOK 19/14 Q1014=
201906210130 METAR LRSV 210130Z VRB01KT CAVOK 19/14 Q1014=
201906210200 METAR LRSV 210200Z 31002KT CAVOK 18/14 Q1015=
201906210230 METAR LRSV 210230Z 26002KT CAVOK 17/14 Q1015=
201906210300 METAR LRSV 210300Z 31003KT CAVOK 19/14 Q1015=
201906210330 METAR LRSV 210330Z 34003KT CAVOK 21/16 Q1015=
201906210400 METAR LRSV 210400Z VRB02KT CAVOK 21/17 Q1015=
201906210430 METAR LRSV 210430Z VRB01KT CAVOK 20/17 Q1015=
201906210500 METAR LRSV 210500Z 00000KT CAVOK 22/15 Q1015=
201906210530 METAR LRSV 210530Z VRB02KT CAVOK 23/16 Q1015=
201906210600 METAR COR LRSV 210600Z VRB02KT CAVOK 24/15 Q1016=
201906210630 METAR LRSV 210630Z VRB01KT CAVOK 25/15 Q1016=
201906210700 METAR LRSV 210700Z 25004KT CAVOK 24/19 Q1016=
201906210730 METAR LRSV 210730Z 24004KT 180V280 CAVOK 25/19 Q1016=
201906210800 METAR LRSV 210800Z NIL=
201906210830 METAR LRSV 210830Z VRB03KT CAVOK 27/18 Q1016=
201906210900 METAR LRSV 210900Z VRB01KT 9999 FEW040CB 27/19 Q1016=
201906210930 METAR LRSV 210930Z VRB01KT 9999 FEW040CB 27/19 Q1016=
201906211000 METAR LRSV 211000Z 20005KT 9999 FEW040CB 26/19 Q1016=
201906211030 METAR LRSV 211030Z 24012KT 9999 VCTS FEW040CB 23/16 Q1016=
201906211100 METAR LRSV 211100Z 26015KT 9999 FEW040CB 23/16 Q1016=
201906211130 METAR LRSV 211130Z 26013KT 9999 FEW040CB 24/16 Q1016=
201906211200 METAR LRSV 211200Z 26010KT 9999 FEW040CB 24/15 Q1015=
201906211230 METAR LRSV 211230Z 26010KT 9999 FEW040CB 25/16 Q1015=
201906211300 METAR LRSV 211300Z 27008KT 9999 FEW040TCU 26/17 Q1015=
201906211330 METAR LRSV 211330Z 24006KT 9999 FEW040TCU 26/17 Q1015=
201906211400 METAR LRSV 211400Z 23004KT CAVOK 25/17 Q1015=
201906211430 METAR LRSV 211430Z 27002KT CAVOK 25/18 Q1015=
201906211500 METAR LRSV 211500Z 26003KT 230V290 CAVOK 25/18 Q1015=
201906211530 METAR LRSV 211530Z VRB01KT 9999 FEW040CB 27/18 Q1015=
201906211600 METAR LRSV 211600Z 12009KT 060V150 9999 FEW040CB 26/16 Q1015=
201906211630 METAR LRSV 211630Z 05004KT 9999 FEW040CB 26/19 Q1015=
201906211700 METAR LRSV 211700Z 03005KT 9999 FEW040CB 24/20 Q1015=
201906211730 METAR LRSV 211730Z 01006KT 9999 FEW040CB 23/19 Q1015=
201906211800 METAR LRSV 211800Z 03004KT 9999 FEW040CB 22/19 Q1015=
201906211830 METAR LRSV 211830Z 06005KT 9999 FEW040CB 22/18 Q1016=
201906211900 METAR COR LRSV 211900Z 02004KT 9999 FEW040CB 21/18 Q1016=
201906211930 METAR LRSV 211930Z 35004KT 9999 FEW040CB 21/18 Q1016=
201906212000 METAR LRSV 212000Z 33003KT 300V010 9999 FEW040CB 21/18 Q1016=
201906212030 METAR LRSV 212030Z 27005KT CAVOK 20/18 Q1016=
201906212100 METAR LRSV 212100Z 29004KT CAVOK 21/18 Q1016=
201906212130 METAR LRSV 212130Z 31007KT CAVOK 20/17 Q1016=
201906212200 METAR LRSV 212200Z 31006KT 9999 FEW029 20/17 Q1016=
201906212230 METAR LRSV 212230Z 32006KT CAVOK 20/17 Q1016=
201906212300 METAR LRSV 212300Z 31006KT CAVOK 20/16 Q1016=
201906212330 METAR LRSV 212330Z 32006KT CAVOK 20/16 Q1016=
201906220000 METAR LRSV 220000Z 32008KT CAVOK 20/16 Q1016=
201906220030 METAR LRSV 220030Z 33006KT CAVOK 19/16 Q1016=
201906220100 METAR LRSV 220100Z 32005KT CAVOK 19/16 Q1017=
201906220130 METAR LRSV 220130Z VRB02KT CAVOK 18/16 Q1017=
201906220200 METAR LRSV 220200Z 28004KT CAVOK 18/17 Q1017=
201906220230 METAR LRSV 220230Z 33006KT CAVOK 19/17 Q1017=
201906220300 METAR LRSV 220300Z 32008KT CAVOK 19/17 Q1017=
201906220330 METAR LRSV 220330Z 31008KT CAVOK 19/17 Q1017=
201906220400 METAR LRSV 220400Z 31008KT CAVOK 19/17 Q1017=
201906220430 METAR LRSV 220430Z 32010KT CAVOK 20/17 Q1017=
201906220500 METAR LRSV 220500Z 33007KT CAVOK 21/17 Q1018=
201906220530 METAR LRSV 220530Z 33006KT CAVOK 21/18 Q1018=
201906220600 METAR LRSV 220600Z 33007KT CAVOK 22/18 Q1018=
201906220630 METAR LRSV 220630Z 33009KT CAVOK 22/17 Q1018=
201906220700 METAR LRSV 220700Z 33009KT CAVOK 22/17 Q1018=
201906220730 METAR LRSV 220730Z 34009KT CAVOK 23/17 Q1018=
201906220800 METAR LRSV 220800Z 36009KT CAVOK 23/18 Q1018=
201906220830 METAR LRSV 220830Z 35009KT 320V020 CAVOK 23/18 Q1019=
201906220900 METAR LRSV 220900Z 35009KT 320V020 9999 FEW021 24/18 Q1019=
201906220930 METAR LRSV 220930Z 02009KT 340V040 9999 FEW023 24/18 Q1019=
201906221000 METAR LRSV 221000Z 01008KT 330V040 9999 FEW026 25/18 Q1018=
201906221030 METAR LRSV 221030Z 02008KT 340V060 9999 FEW040CB 25/18 Q1018=
201906221100 METAR LRSV 221100Z 02007KT 9999 FEW035CB 24/18 Q1018=
201906221130 METAR LRSV 221130Z 03006KT 9999 FEW035CB 24/19 Q1018=
201906221200 METAR LRSV 221200Z 04004KT 010V080 9999 FEW035CB 25/19 Q1018=
201906221230 METAR LRSV 221230Z 07004KT 030V140 9999 SCT035CB 25/19 Q1018=
201906221300 METAR LRSV 221300Z 09003KT 050V150 9999 SCT035CB 25/18 Q1018=
201906221330 METAR LRSV 221330Z 22005KT 9999 TS SCT035CB 24/19 Q1018=
201906221400 METAR LRSV 221400Z 30016KT 9999 TS SCT026CB 21/15 Q1018=
201906221430 METAR LRSV 221430Z 29011KT 9999 -TSRA FEW028 SCT048CB 20/16
                        Q1018=
201906221500 METAR LRSV 221500Z 30010KT 9999 -TSRA SCT045CB 19/16 Q1018
                        R16/29//95=
201906221530 METAR LRSV 221530Z 32009KT 9999 -SHRA FEW050CB 20/17 Q1018
                        R16/29//95=
201906221600 METAR LRSV 221600Z 31007KT 9999 FEW043CB 20/18 Q1018 R16/29//95=
201906221630 METAR LRSV 221630Z 32010KT 9999 FEW037 20/19 Q1018 R16/29//95=
201906221700 METAR LRSV 221700Z 34010KT 320V020 8000 FEW040 20/19 Q1017
                        R16/29//95=
201906221730 METAR LRSV 221730Z 33008KT 8000 FEW043 20/18 Q1018 R16/29//95=
201906221800 METAR LRSV 221800Z 29006KT 8000 FEW045 19/18 Q1018 R16/29//95=
201906221830 METAR LRSV 221830Z 31006KT 8000 NSC 19/17 Q1018 R16/29//95=
201906221900 METAR LRSV 221900Z 32007KT 8000 NSC 19/17 Q1018 R16/19//95=
201906221930 METAR COR LRSV 221930Z 33007KT CAVOK 18/17 Q1018 R16/19//95=
201906222000 METAR LRSV 222000Z 32008KT CAVOK 19/17 Q1018 R16/19//95=
201906222030 METAR LRSV 222030Z 33008KT 8000 NSC 18/17 Q1018 R16/19//95=
201906222100 METAR LRSV 222100Z 32008KT 8000 NSC 18/17 Q1018 R16/19//95=
201906222130 METAR LRSV 222130Z 33008KT 8000 NSC 18/17 Q1018 R16/19//95=
201906222200 METAR LRSV 222200Z 32008KT 8000 NSC 18/17 Q1018 R16/19//95=
201906222230 METAR LRSV 222230Z 32008KT 8000 NSC 19/17 Q1018 R16/19//95=
201906222300 METAR LRSV 222300Z 30006KT 8000 NSC 18/17 Q1018 R16/19//95=
201906222330 METAR LRSV 222330Z 31006KT 8000 NSC 18/17 Q1018 R16/19//95=
201906230000 METAR LRSV 230000Z 32006KT 7000 FEW041 18/17 Q1018 R16/19//95=
201906230030 METAR LRSV 230030Z 32007KT 7000 SCT041 18/17 Q1018 R16/19//95=
201906230100 METAR LRSV 230100Z 31007KT 7000 SCT040 18/17 Q1018 R16/19//95=
201906230130 METAR LRSV 230130Z 31006KT 7000 FEW040 18/17 Q1018 R16/19//95=
201906230200 METAR LRSV 230200Z 30007KT 8000 NSC 18/17 Q1018 R16/CLRD//=
201906230230 METAR LRSV 230230Z 30007KT CAVOK 18/17 Q1018=
201906230300 METAR COR LRSV 230300Z 30006KT CAVOK 18/17 Q1018=
201906230330 METAR LRSV 230330Z 31006KT 8000 NSC 18/17 Q1017=
201906230400 METAR LRSV 230400Z 01005KT 300V070 8000 3000E BR NSC 19/17
                        Q1017=
201906230430 METAR COR LRSV 230430Z 34006KT 7000 NSC 19/17 Q1018=
201906230500 METAR COR LRSV 230500Z 34007KT 7000 NSC 20/18 Q1018=
201906230530 METAR LRSV 230530Z 33005KT 7000 FEW011 21/18 Q1018=
201906230600 METAR COR LRSV 230600Z 35004KT 320V050 8000 SCT012 21/18
                        Q1018=
201906230630 METAR LRSV 230630Z 34004KT 300V010 8000 FEW015 22/18 Q1018=
201906230700 METAR LRSV 230700Z 02004KT 340V050 9999 FEW017 22/18 Q1018=
201906230730 METAR LRSV 230730Z VRB03KT 9999 BKN017 22/18 Q1018=
201906230800 METAR LRSV 230800Z 03006KT 350V070 9999 FEW015 SCT020 23/18
                        Q1018=
201906230830 METAR LRSV 230830Z 03006KT 360V090 9999 FEW015 SCT019 23/19
                        Q1018=
201906230900 METAR LRSV 230900Z 07004KT 010V140 9999 SCT022 24/18 Q1018=
201906230930 METAR COR LRSV 230930Z VRB03KT 9999 SCT022 24/19 Q1017=
201906231000 METAR LRSV 231000Z 04007KT 010V070 9999 SCT026 24/19 Q1017=
201906231030 METAR LRSV 231030Z VRB03KT 9999 BKN026 25/19 Q1017=
201906231100 METAR LRSV 231100Z 03008KT 360V060 9999 SCT025 24/19 Q1017=
201906231130 METAR COR LRSV 231130Z 05007KT 350V080 9999 SCT027 25/19
                        Q1017=
201906231200 METAR LRSV 231200Z 03007KT 350V060 9999 SCT027 25/19 Q1017=
201906231230 METAR LRSV 231230Z 03008KT 9999 SCT028 25/18 Q1017=
201906231300 METAR COR LRSV 231300Z 01007KT 9999 FEW030CB SCT033 25/19
                        Q1017=
201906231330 METAR LRSV 231330Z 01008KT 9999 FEW030CB SCT035 24/19 Q1017=
201906231400 METAR LRSV 231400Z 02007KT 9999 FEW030CB 24/19 Q1017=
201906231430 METAR LRSV 231430Z 36007KT 9999 FEW030CB 24/19 Q1017=
201906231500 METAR LRSV 231500Z 35008KT 9999 FEW035CB 23/19 Q1017=
201906231530 METAR LRSV 231530Z 34007KT 9999 FEW035CB 23/19 Q1017=
201906231600 METAR LRSV 231600Z 33008KT 9999 FEW035CB SCT040 24/19 Q1017=
201906231630 METAR LRSV 231630Z 36007KT 9999 FEW035CB 23/19 Q1017=
201906231700 METAR LRSV 231700Z 34006KT 9999 FEW040CB 23/19 Q1017=
201906231730 METAR LRSV 231730Z 33008KT CAVOK 23/19 Q1017=
201906231800 METAR LRSV 231800Z 32007KT 9999 BKN037 23/18 Q1017=
201906231830 METAR LRSV 231830Z 33007KT 9999 BKN042 22/19 Q1017=
201906231900 METAR LRSV 231900Z 32008KT 9999 TS FEW040CB 22/18 Q1017=
201906231930 METAR LRSV 231930Z 33008KT 9999 TS SCT045CB 21/18 Q1016=
201906232000 METAR LRSV 232000Z 31007KT 9999 TS SCT038CB 21/18 Q1017=
201906232030 METAR LRSV 232030Z 29006KT 9999 TS SCT048CB 21/19 Q1017=
201906232100 METAR LRSV 232100Z 12017KT 5000 TSRA BKN038CB 17/16 Q1018=
201906232130 METAR LRSV 232130Z 14004KT 5000 TSRA BKN045CB 17/16 Q1019=
201906232200 METAR LRSV 232200Z 22013KT 9999 -TSRA BKN045CB 17/17 Q1018=
201906232230 METAR COR LRSV 232230Z 27011KT 9999 -TSRA SCT050CB 17/17
                        Q1018=
201906232300 METAR COR LRSV 232300Z 26011KT 9999 -SHRA SCT050CB 17/17
                        Q1018=
201906232330 METAR LRSV 232330Z 25010KT 9999 -RA BKN043 17/16 Q1018=
201906240000 METAR LRSV 240000Z 32008KT 9999 -RA BKN043 18/16 Q1018=
201906240030 METAR LRSV 240030Z 31008KT CAVOK 17/16 Q1017=
201906240100 METAR LRSV 240100Z 31008KT CAVOK 18/16 Q1018=
201906240130 METAR LRSV 240130Z 33008KT CAVOK 17/16 Q1017=
201906240200 METAR LRSV 240200Z 35008KT CAVOK 17/16 Q1018 R16/29//95=
201906240230 METAR LRSV 240230Z 33006KT CAVOK 17/16 Q1019 R16/29//95=
201906240300 METAR LRSV 240300Z 34009KT CAVOK 17/16 Q1018 R16/29//95=
201906240330 METAR LRSV 240330Z 33009KT CAVOK 17/16 Q1019 R16/29//95=
201906240400 METAR LRSV 240400Z 32009KT CAVOK 18/16 Q1019 R16/29//95=
201906240430 METAR LRSV 240430Z 31008KT CAVOK 18/17 Q1019 R16/29//95=
201906240500 METAR LRSV 240500Z AUTO 32010KT 9999 FEW055/// BKN085///
                        18/17 Q1019=
201906240530 METAR LRSV 240530Z AUTO 31008KT 280V340 9999 SCT085/// BKN100///
                        18/17 Q1019=
201906240600 METAR LRSV 240600Z AUTO 30008KT 9999 SCT095/// BKN120///
                        19/17 Q1020=
201906240630 METAR LRSV 240630Z AUTO 32009KT 9999 BKN085/// BKN100///
                        19/17 Q1020=
201906240700 METAR LRSV 240700Z 33010KT 9999 FEW045CB 20/18 Q1020 R16/29//95=
201906240730 METAR LRSV 240730Z 33010KT 9999 FEW008 20/18 Q1020 R16/29//95=
201906240800 METAR COR LRSV 240800Z 33011KT 9999 SCT010 21/18 Q1020 R16/29//95=
201906240830 METAR LRSV 240830Z 33011KT 9999 BKN011 21/18 Q1020 R16/CLRD//=
201906240900 METAR LRSV 240900Z 33012KT 9999 BKN013 22/19 Q1021=
201906240930 METAR LRSV 240930Z 33010KT 300V360 9999 BKN016 22/19 Q1021=
201906241000 METAR LRSV 241000Z 32010KT 300V010 9999 BKN017 23/19 Q1021=
201906241030 METAR COR LRSV 241030Z 35010KT 320V020 9999 BKN017 24/19
                        Q1021=
201906241100 METAR COR LRSV 241100Z 35009KT 9999 BKN025 24/20 Q1021=
201906241130 METAR LRSV 241130Z 35010KT 320V020 9999 BKN020 25/20 Q1021=
201906241200 METAR LRSV 241200Z 35009KT 320V020 9999 FEW024CB SCT033 25/20
                        Q1021=
201906241230 METAR LRSV 241230Z 34011KT 9999 VCTS FEW023CB SCT050 24/19
                        Q1021=
201906241300 METAR LRSV 241300Z 36010KT 330V030 9999 VCTS FEW025CB 26/20
                        Q1020=
201906241330 METAR LRSV 241330Z 35009KT 9999 FEW028CB 25/19 Q1020=
201906241400 METAR LRSV 241400Z 36012KT 9999 VCTS FEW029CB 26/19 Q1021=
201906241430 METAR LRSV 241430Z 35011KT 9999 FEW031CB 25/19 Q1021=
201906241500 METAR COR LRSV 241500Z 06013KT 8000 -TSRA SCT037CB 24/20
                        Q1021 R16/29//95=
201906241530 METAR LRSV 241530Z 02011KT 340V050 9999 -TSRA SCT028CB 21/18
                        Q1021 R16/29//95=
201906241600 METAR LRSV 241600Z 03007KT 9999 -SHRA VCTS SCT030CB BKN045
                        21/18 Q1021 R16/29//95=
201906241630 METAR LRSV 241630Z 36007KT 9999 -SHRA SCT030CB 21/18 Q1021
                        R16/29//95=
201906241700 METAR COR LRSV 241700Z 34005KT 9999 -SHRA FEW030CB SCT048
                        20/18 Q1022 R16/29//95=
201906241730 METAR LRSV 241730Z 33008KT 9999 FEW030CB SCT048 20/18 Q1022
                        R16/29//95=
201906241800 METAR LRSV 241800Z 34009KT 9999 FEW030CB SCT048 20/18 Q1022
                        R16/29//95=
201906241830 METAR LRSV 241830Z 33011KT 9999 FEW030CB SCT048 20/17 Q1023
                        R16/29//95=
201906241900 METAR LRSV 241900Z 32009KT 9999 FEW030CB 19/18 Q1023 R16/29//95=
201906241930 METAR LRSV 241930Z 31010KT 9999 -TSRA FEW030CB SCT048 19/17
                        Q1023 R16/29//95=
201906242000 METAR LRSV 242000Z 31007KT 9999 -TSRA FEW033CB BKN047 19/17
                        Q1023 R16/29//95=
201906242030 METAR LRSV 242030Z 28005KT 240V320 9999 TS SCT030CB BKN047
                        19/17 Q1024 R16/29//95=
201906242100 METAR LRSV 242100Z 31011KT 9999 VCTS FEW020 SCT030CB 19/17
                        Q1024 R16/29//95=
201906242130 METAR LRSV 242130Z 31009KT 9999 FEW020 SCT031CB 19/17 Q1024
                        R16/29//95=
201906242200 METAR LRSV 242200Z 31011KT 9999 FEW029CB 19/17 Q1024 R16/29//95=
201906242230 METAR LRSV 242230Z 32011KT 9999 FEW029CB 19/17 Q1024 R16/29//95=
201906242300 METAR LRSV 242300Z 32011KT 9999 FEW041 19/17 Q1024 R16/29//95=
201906242330 METAR LRSV 242330Z 33010KT 9999 FEW044 19/17 Q1024 R16/29//95=
201906250000 METAR LRSV 250000Z 32010KT 9999 SCT046 19/18 Q1024 R16/29//95=
201906250030 METAR LRSV 250030Z 33010KT 9999 FEW043 19/18 Q1024 R16/29//95=
201906250100 METAR LRSV 250100Z 33010KT 9999 FEW045 19/18 Q1024 R16/29//95=
201906250130 METAR LRSV 250130Z 34012KT 9999 FEW045 19/18 Q1024 R16/29//95=
201906250200 METAR LRSV 250200Z 34011KT 9999 SCT042 19/18 Q1024 R16/29//95=
201906250230 METAR LRSV 250230Z 34011KT 9999 FEW030TCU SCT045 19/18 Q1024
                        R16/CLRD//=
201906250300 METAR LRSV 250300Z 33012KT 9999 -TSRA FEW030CB SCT045 19/18
                        Q1024 R16/19//95=
201906250330 METAR LRSV 250330Z AUTO 33010KT 9999 FEW043/// 20/18 Q1024
                        RERA=
201906250400 METAR LRSV 250400Z AUTO 34009KT 9999 SCT042/// BKN049///
                        ///// Q1024=
201906250430 METAR LRSV 250430Z AUTO 33011KT 9999 FEW040/// 21/19 Q1025=
201906250500 METAR LRSV 250500Z AUTO 34011KT 9999 SCT042/// 21/19 Q1025=
201906250530 METAR LRSV 250530Z AUTO 34012KT 9999 SCT045/// BKN065///
                        21/19 Q1025=
201906250600 METAR LRSV 250600Z AUTO 34012KT 9999 SCT041/// 22/19 Q1025=
201906250630 METAR LRSV 250630Z AUTO 34010KT 9999 BKN039/// BKN055///
                        22/19 Q1025=
201906250700 METAR LRSV 250700Z 34008KT 320V020 9999 FEW014 BKN038 23/19
                        Q1026 R16/19//95=
201906250730 METAR LRSV 250730Z 35009KT 9999 FEW017 BKN044 24/20 Q1026
                        R16/19//95=
201906250800 METAR LRSV 250800Z 35009KT 320V020 9999 SCT018 24/19 Q1026
                        R16/CLRD//=
201906250830 METAR COR LRSV 250830Z 35008KT 300V020 9999 SCT047 24/20
                        Q1026=
201906250900 METAR LRSV 250900Z 01009KT 9999 SCT027 25/19 Q1026=
201906250930 METAR LRSV 250930Z 35009KT 310V040 9999 SCT026 25/19 Q1026=
201906251000 METAR LRSV 251000Z 01009KT 320V030 9999 FEW022TCU 26/20 Q1026=
201906251030 METAR LRSV 251030Z 03010KT 350V050 9999 SCT024TCU 26/19 Q1026=
201906251100 METAR LRSV 251100Z 02010KT 340V070 9999 FEW027TCU 26/19 Q1026=
201906251130 METAR LRSV 251130Z 34010KT 310V010 9999 FEW035TCU 26/18 Q1026=
201906251200 METAR LRSV 251200Z 35011KT 320V020 9999 FEW032TCU 27/19 Q1026=
201906251230 METAR COR LRSV 251230Z 36012KT 330V040 9999 FEW033TCU 27/19
                        Q1026=
201906251300 METAR LRSV 251300Z 01011KT 340V040 9999 FEW034TCU 27/19 Q1026=
201906251330 METAR COR LRSV 251330Z 01012KT 330V030 9999 FEW032TCU 27/19
                        Q1026=
201906251400 METAR LRSV 251400Z 36012KT 9999 FEW032TCU 27/18 Q1026=
201906251430 METAR LRSV 251430Z 01011KT 340V040 9999 FEW035TCU 27/19 Q1025=
201906251500 METAR LRSV 251500Z 02012KT 9999 FEW038TCU 26/18 Q1025=
201906251530 METAR LRSV 251530Z 01011KT 9999 FEW040TCU 26/18 Q1025=
201906251600 METAR LRSV 251600Z 01010KT 9999 FEW040TCU 26/18 Q1025=
201906251630 METAR LRSV 251630Z 03009KT 9999 FEW043 26/18 Q1026=
201906251700 METAR LRSV 251700Z 02006KT 9999 FEW045 25/18 Q1026=
201906251730 METAR LRSV 251730Z 02006KT 9999 FEW047 24/18 Q1026=
201906251800 METAR LRSV 251800Z 01006KT CAVOK 23/18 Q1027=
201906251830 METAR COR LRSV 251830Z 36007KT CAVOK 22/17 Q1027=
201906251900 METAR LRSV 251900Z 02007KT CAVOK 22/17 Q1027=
201906251930 METAR LRSV 251930Z 02006KT CAVOK 21/17 Q1027=
201906252000 METAR LRSV 252000Z 02006KT CAVOK 21/16 Q1027=
201906252030 METAR COR LRSV 252030Z 35005KT CAVOK 21/16 Q1028=
201906252100 METAR LRSV 252100Z 34005KT CAVOK 21/16 Q1027=
201906252130 METAR LRSV 252130Z 35005KT CAVOK 21/16 Q1028=
201906252200 METAR LRSV 252200Z 33005KT CAVOK 20/15 Q1027=
201906252230 METAR LRSV 252230Z 34006KT CAVOK 20/15 Q1027=
201906252300 METAR LRSV 252300Z 34005KT CAVOK 20/15 Q1027=
201906252330 METAR LRSV 252330Z 34005KT CAVOK 20/15 Q1027=
201906260000 METAR LRSV 260000Z 33006KT CAVOK 19/15 Q1027=
201906260030 METAR LRSV 260030Z 33005KT CAVOK 20/15 Q1027=
201906260100 METAR LRSV 260100Z 33006KT CAVOK 19/15 Q1027=
201906260130 METAR LRSV 260130Z 33006KT 9999 FEW046 19/15 Q1027=
201906260200 METAR LRSV 260200Z 34004KT 9999 SCT047 19/14 Q1027=
201906260230 METAR LRSV 260230Z 34004KT 9999 BKN048 20/15 Q1027=
201906260300 METAR LRSV 260300Z 32002KT CAVOK 19/15 Q1027=
201906260330 METAR LRSV 260330Z AUTO 31002KT 9999 SCT049/// 20/16 Q1027=
201906260400 METAR LRSV 260400Z AUTO 33003KT 9999 SCT049/// 21/16 Q1027=
201906260430 METAR LRSV 260430Z AUTO 35004KT 9999 NCD 22/16 Q1027=
201906260500 METAR COR LRSV 260500Z VRB01KT CAVOK 23/15 Q1027=
201906260530 METAR LRSV 260530Z VRB01KT CAVOK 23/15 Q1027=
201906260600 METAR COR LRSV 260600Z VRB01KT CAVOK 24/15 Q1027=
201906260630 METAR LRSV 260630Z 20004KT 150V250 CAVOK 24/16 Q1027=
201906260700 METAR LRSV 260700Z 20004KT 150V260 CAVOK 24/15 Q1027=
201906260730 METAR LRSV 260730Z 16004KT 120V210 CAVOK 24/15 Q1027=
201906260800 METAR LRSV 260800Z 13005KT 070V170 CAVOK 25/14 Q1027=
201906260830 METAR LRSV 260830Z VRB01KT CAVOK 25/14 Q1027=
201906260900 METAR LRSV 260900Z 14005KT 080V180 CAVOK 25/13 Q1027=
201906260930 METAR LRSV 260930Z 18006KT 160V220 CAVOK 25/13 Q1027=
201906261000 METAR LRSV 261000Z 13006KT 080V190 CAVOK 25/12 Q1027=
201906261030 METAR LRSV 261030Z 15004KT 080V220 CAVOK 26/12 Q1026=
201906261100 METAR LRSV 261100Z 14004KT 090V220 CAVOK 26/13 Q1026=
201906261130 METAR LRSV 261130Z 15005KT 050V210 CAVOK 27/14 Q1026=
201906261200 METAR LRSV 261200Z VRB02KT CAVOK 27/15 Q1025=
201906261230 METAR LRSV 261230Z 10003KT 020V190 CAVOK 27/14 Q1025=
201906261300 METAR LRSV 261300Z VRB04KT CAVOK 27/13 Q1025=
201906261330 METAR LRSV 261330Z AUTO 13004KT 080V190 9999 NCD 27/13 Q1024=
201906261400 METAR LRSV 261400Z AUTO 10006KT 060V120 9999 NCD 27/13 Q1024=
201906261430 METAR LRSV 261430Z AUTO 11005KT 060V150 9999 NCD 27/13 Q1024=
201906261500 METAR LRSV 261500Z 09005KT 070V130 CAVOK 27/14 Q1023=
201906261530 METAR LRSV 261530Z 10005KT 080V150 CAVOK 26/14 Q1023=
201906261600 METAR LRSV 261600Z 12005KT CAVOK 26/14 Q1023=
201906261630 METAR LRSV 261630Z 13005KT CAVOK 25/15 Q1023=
201906261700 METAR LRSV 261700Z 11003KT CAVOK 25/16 Q1023=
201906261730 METAR LRSV 261730Z 09003KT CAVOK 24/17 Q1022=
201906261800 METAR LRSV 261800Z 10004KT CAVOK 23/16 Q1022=
201906261830 METAR COR LRSV 261830Z 12004KT 070V130 CAVOK 23/15 Q1022=
201906261900 METAR LRSV 261900Z 14006KT CAVOK 21/15 Q1022=
201906261930 METAR LRSV 261930Z 15005KT CAVOK 21/15 Q1022=
201906262000 METAR LRSV 262000Z 17004KT CAVOK 21/15 Q1022=
201906262030 METAR LRSV 262030Z 17003KT CAVOK 20/16 Q1022=
201906262100 METAR LRSV 262100Z 19004KT CAVOK 19/16 Q1022=
201906262130 METAR LRSV 262130Z 19004KT CAVOK 19/16 Q1022=
201906262200 METAR LRSV 262200Z 19004KT CAVOK 18/15 Q1021=
201906262230 METAR LRSV 262230Z 21006KT CAVOK 18/15 Q1021=
201906262300 METAR LRSV 262300Z 24006KT CAVOK 17/15 Q1020=
201906262330 METAR LRSV 262330Z 24008KT CAVOK 17/15 Q1020=
201906270000 METAR LRSV 270000Z 23006KT CAVOK 17/15 Q1020=
201906270030 METAR LRSV 270030Z 25010KT CAVOK 18/15 Q1020=
201906270100 METAR LRSV 270100Z 26008KT CAVOK 19/15 Q1019=
201906270130 METAR LRSV 270130Z 24004KT 210V270 CAVOK 17/15 Q1019=
201906270200 METAR LRSV 270200Z 25009KT CAVOK 18/15 Q1019=
201906270230 METAR LRSV 270230Z 24008KT CAVOK 17/15 Q1019=
201906270300 METAR LRSV 270300Z 24008KT CAVOK 18/15 Q1019=
201906270330 METAR LRSV 270330Z AUTO 25009KT 9999 NCD 19/15 Q1018=
201906270400 METAR LRSV 270400Z AUTO 25008KT 9999 NCD ///// Q1018=
201906270430 METAR LRSV 270430Z AUTO 25008KT 9999 NCD 21/16 Q1018=
201906270500 METAR LRSV 270500Z AUTO 24008KT 9999 NCD 22/17 Q1017=
201906270530 METAR LRSV 270530Z AUTO 24008KT 9999 NCD 23/17 Q1017=
201906270600 METAR LRSV 270600Z AUTO 24009KT 9999 NCD 24/18 Q1017=
201906270630 METAR LRSV 270630Z AUTO 23008KT 9999 NCD 25/19 Q1017=
201906270700 METAR COR LRSV 270700Z 24008KT CAVOK 26/18 Q1016=
201906270730 METAR LRSV 270730Z 25008KT 220V280 CAVOK 27/18 Q1016=
201906270800 METAR LRSV 270800Z 27009KT CAVOK 28/18 Q1015=
201906270830 METAR LRSV 270830Z 27007KT CAVOK 29/19 Q1015=
201906270900 METAR LRSV 270900Z 28008KT 250V310 CAVOK 30/20 Q1015=
201906270930 METAR LRSV 270930Z 26008KT CAVOK 30/19 Q1015=
201906271000 METAR COR LRSV 271000Z 29010KT 270V330 9999 FEW040CB 31/18
                        Q1014=
201906271030 METAR LRSV 271030Z 30010KT 270V330 9999 FEW035CB 31/18 Q1013=
201906271100 METAR LRSV 271100Z 32019KT 9999 FEW035CB 29/17 Q1014=
201906271130 METAR LRSV 271130Z 32013KT 9999 FEW035CB 28/16 Q1013=
201906271200 METAR LRSV 271200Z 34013KT 9999 FEW035CB 29/18 Q1013=
201906271230 METAR LRSV 271230Z 33010KT 9999 SCT035CB 29/19 Q1013=
201906271300 METAR LRSV 271300Z 30016KT 9999 -SHRA VCTS SCT035CB 23/16
                        Q1014=
201906271330 METAR LRSV 271330Z 30014KT 9999 SCT035CB 21/17 Q1013=
201906271400 METAR LRSV 271400Z 30020KT 9999 -TSRA SCT035CB 21/16 Q1013=
201906271430 METAR LRSV 271430Z 27013KT 9999 -TSRA SCT035CB 20/16 Q1013
                        R16/29//95=
201906271500 METAR LRSV 271500Z 27014KT 9999 -SHRA SCT035CB 19/17 Q1014
                        R16/29//95=
201906271530 METAR LRSV 271530Z 24012KT 9999 -SHRA VCTS FEW035CB 19/17
                        Q1011 R16/29//95=
201906271600 METAR LRSV 271600Z 26015KT 9999 FEW035CB 19/16 Q1012 R16/29//95=
201906271630 METAR LRSV 271630Z 26011KT 9999 FEW035CB 19/17 Q1012 R16/29//95=
201906271700 METAR LRSV 271700Z 26009KT 9999 FEW048 19/17 Q1012 R16/29//95=
201906271730 METAR LRSV 271730Z 27010KT CAVOK 20/17 Q1013 R16/29//95=
201906271800 METAR LRSV 271800Z 27009KT CAVOK 20/17 Q1013 R16/29//95=
201906271830 METAR LRSV 271830Z 32009KT CAVOK 21/17 Q1013 R16/29//95=
201906271900 METAR LRSV 271900Z 32009KT CAVOK 20/17 Q1013 R16/29//95=
201906271930 METAR LRSV 271930Z 33007KT CAVOK 20/17 Q1014 R16/19//95=
201906272000 METAR LRSV 272000Z 32010KT CAVOK 20/16 Q1014 R16/19//95=
201906272030 METAR LRSV 272030Z 33007KT CAVOK 19/16 Q1014 R16/19//95=
201906272100 METAR LRSV 272100Z 33010KT CAVOK 19/15 Q1014 R16/19//95=
201906272130 METAR LRSV 272130Z 33010KT CAVOK 19/13 Q1014 R16/19//95=
201906272200 METAR LRSV 272200Z 32007KT CAVOK 18/13 Q1014 R16/19//95=
201906272230 METAR LRSV 272230Z 31006KT CAVOK 18/12 Q1014 R16/19//95=
201906272300 METAR LRSV 272300Z 32010KT CAVOK 19/12 Q1014 R16/19//95=
201906272330 METAR LRSV 272330Z 33014KT CAVOK 18/12 Q1014 R16/19//95=
201906280000 METAR LRSV 280000Z 33013KT CAVOK 18/12 Q1014 R16/19//95=
201906280030 METAR LRSV 280030Z 32011KT CAVOK 18/12 Q1014 R16/19//95=
201906280100 METAR LRSV 280100Z 31010KT CAVOK 17/12 Q1014 R16/19//95=
201906280130 METAR LRSV 280130Z 31011KT CAVOK 16/12 Q1014 R16/19//95=
201906280200 METAR LRSV 280200Z 31012KT CAVOK 16/12 Q1014 R16/CLRD//=
201906280230 METAR LRSV 280230Z 32013KT CAVOK 17/12 Q1014=
201906280300 METAR LRSV 280300Z 32013KT CAVOK 17/12 Q1014=
201906280330 METAR LRSV 280330Z AUTO 32014KT 9999 OVC070/// 16/12 Q1015=
201906280400 METAR LRSV 280400Z AUTO 32010KT 9999 FEW021/// BKN070///
                        16/12 Q1015=
201906280430 METAR LRSV 280430Z AUTO 33012KT 9999 FEW022/// BKN070///
                        ///// Q1015=
201906280500 METAR LRSV 280500Z AUTO 33016KT 9999 FEW019/// BKN065///
                        16/11 Q1015=
201906280530 METAR LRSV 280530Z AUTO 32015KT 9999 FEW026/// SCT070///
                        17/11 Q1015=
201906280600 METAR LRSV 280600Z AUTO 33016KT 9999 FEW033/// SCT050///
                        17/11 Q1015=
201906280630 METAR LRSV 280630Z AUTO 31013KT 280V340 9999 FEW029/// SCT040///
                        BKN046/// 17/11 Q1015=
201906280700 METAR LRSV 280700Z 31014KT 280V340 9999 SCT036 18/11 Q1015=
201906280730 METAR LRSV 280730Z 31014KT 9999 SCT041 18/10 Q1015=
201906280800 METAR COR LRSV 280800Z 32015KT 9999 SCT036 18/11 Q1015=
201906280830 METAR LRSV 280830Z 33018KT 9999 SCT036 19/11 Q1015=
201906280900 METAR LRSV 280900Z 33017KT 9999 SCT039 19/11 Q1015=
201906280930 METAR LRSV 280930Z 33018KT 300V360 9999 SCT042 19/11 Q1015=
201906281000 METAR LRSV 281000Z 32017G27KT 9999 SCT041 20/09 Q1015=
201906281030 METAR COR LRSV 281030Z 34019KT 300V010 9999 SCT047 20/11
                        Q1015=
201906281100 METAR LRSV 281100Z 33021KT 300V360 9999 FEW046 20/08 Q1015=
201906281130 METAR LRSV 281130Z 33017KT CAVOK 20/08 Q1015=
201906281200 METAR LRSV 281200Z 33018KT CAVOK 20/07 Q1015=
201906281230 METAR LRSV 281230Z 32016G26KT 290V350 CAVOK 20/08 Q1015=
201906281300 METAR LRSV 281300Z 33019KT CAVOK 20/08 Q1015=
201906281330 METAR LRSV 281330Z 33018G29KT 300V360 CAVOK 20/08 Q1015=
201906281400 METAR LRSV 281400Z 33018KT CAVOK 20/08 Q1015=
201906281430 METAR LRSV 281430Z 32017G27KT CAVOK 20/08 Q1015=
201906281500 METAR LRSV 281500Z 33017KT CAVOK 20/08 Q1016=
201906281530 METAR COR LRSV 281530Z 33015KT CAVOK 20/08 Q1016=
201906281600 METAR LRSV 281600Z 33016KT CAVOK 19/07 Q1016=
201906281630 METAR LRSV 281630Z 33016KT CAVOK 19/07 Q1016=
201906281700 METAR LRSV 281700Z 34016KT CAVOK 18/07 Q1017=
201906281730 METAR LRSV 281730Z 34012KT CAVOK 18/07 Q1017=
201906281800 METAR LRSV 281800Z 34012KT CAVOK 16/07 Q1017=
201906281830 METAR LRSV 281830Z 33007KT CAVOK 15/07 Q1017=
201906281900 METAR COR LRSV 281900Z 32007KT CAVOK 15/07 Q1017=
201906281930 METAR LRSV 281930Z 31005KT 290V350 CAVOK 15/07 Q1017=
201906282000 METAR LRSV 282000Z 32010KT CAVOK 16/06 Q1018=
201906282030 METAR LRSV 282030Z 31010KT CAVOK 15/07 Q1018=
201906282100 METAR LRSV 282100Z 30009KT CAVOK 15/07 Q1018=
201906282130 METAR LRSV 282130Z 31008KT CAVOK 15/07 Q1018=
201906282200 METAR LRSV 282200Z 30008KT CAVOK 14/07 Q1018=
201906282230 METAR LRSV 282230Z 29008KT CAVOK 14/07 Q1018=
201906282300 METAR LRSV 282300Z 30008KT CAVOK 15/07 Q1017=
201906282330 METAR LRSV 282330Z 32009KT CAVOK 15/07 Q1018=
201906290000 METAR LRSV 290000Z 31009KT CAVOK 15/07 Q1017=
201906290030 METAR LRSV 290030Z 30010KT CAVOK 14/07 Q1017=
201906290100 METAR LRSV 290100Z 31008KT CAVOK 14/07 Q1017=
201906290130 METAR LRSV 290130Z 31008KT CAVOK 14/07 Q1017=
201906290200 METAR LRSV 290200Z 31008KT CAVOK 14/07 Q1017=
201906290230 METAR LRSV 290230Z 31008KT CAVOK 14/07 Q1017=
201906290300 METAR LRSV 290300Z 32009KT CAVOK 15/07 Q1017=
201906290330 METAR LRSV 290330Z 31011KT CAVOK 15/07 Q1018=
201906290400 METAR LRSV 290400Z 31012KT 280V340 CAVOK 15/07 Q1018=
201906290430 METAR LRSV 290430Z 31012KT CAVOK 15/08 Q1018=
201906290500 METAR LRSV 290500Z 31011KT 9999 FEW048 16/08 Q1018=
201906290530 METAR LRSV 290530Z 31012KT 9999 FEW048 16/09 Q1018=
201906290600 METAR LRSV 290600Z 32010KT 9999 FEW048 17/09 Q1018=
201906290630 METAR LRSV 290630Z 31013KT 290V350 9999 FEW048 17/09 Q1018=
201906290700 METAR LRSV 290700Z 32012KT 9999 FEW048 18/10 Q1018=
201906290730 METAR LRSV 290730Z 31013KT 280V340 9999 FEW048 18/09 Q1018=
201906290800 METAR LRSV 290800Z 33014KT 9999 FEW045 19/08 Q1018=
201906290830 METAR LRSV 290830Z 34014KT 9999 FEW047 18/09 Q1018=
201906290900 METAR LRSV 290900Z 33014KT 9999 SCT045 18/08 Q1018=
201906290930 METAR LRSV 290930Z 33016KT 9999 FEW045 19/09 Q1018=
201906291000 METAR LRSV 291000Z 33018KT 9999 FEW045 18/08 Q1018=
201906291030 METAR COR LRSV 291030Z 34021KT 9999 FEW045 19/08 Q1018=
201906291100 METAR LRSV 291100Z 34021KT 9999 FEW045 19/08 Q1018=
201906291130 METAR LRSV 291130Z 33019KT 9999 FEW045 19/06 Q1018=
201906291200 METAR LRSV 291200Z 32016KT 290V350 CAVOK 20/07 Q1018=
201906291230 METAR LRSV 291230Z 33018KT CAVOK 20/07 Q1018=
201906291300 METAR LRSV 291300Z 33018KT CAVOK 20/07 Q1018=
201906291330 METAR LRSV 291330Z 32018KT 290V350 CAVOK 20/06 Q1018=
201906291400 METAR LRSV 291400Z 33020KT CAVOK 20/07 Q1018=
201906291430 METAR LRSV 291430Z 33017G29KT CAVOK 20/08 Q1017=
201906291500 METAR LRSV 291500Z 33016KT CAVOK 20/09 Q1017=
201906291530 METAR LRSV 291530Z 32016KT CAVOK 20/08 Q1018=
201906291600 METAR LRSV 291600Z 32016KT CAVOK 20/08 Q1018=
201906291630 METAR LRSV 291630Z 33011KT CAVOK 20/09 Q1018=
201906291700 METAR LRSV 291700Z 33009KT CAVOK 19/09 Q1018=
201906291730 METAR LRSV 291730Z 31010KT 9999 FEW040CB 19/09 Q1018=
201906291800 METAR LRSV 291800Z 31010KT 9999 FEW040CB 19/09 Q1018=
201906291830 METAR LRSV 291830Z 31011KT 9999 FEW045CB 19/10 Q1018=
201906291900 METAR COR LRSV 291900Z 31011KT 9999 FEW045CB 18/10 Q1018=
201906291930 METAR LRSV 291930Z 32020G30KT 9999 -SHRA SCT045CB 17/11 Q1019
                        R16/29//95=
201906292000 METAR LRSV 292000Z 31011KT 9999 FEW045CB 17/11 Q1019 R16/29//95=
201906292030 METAR LRSV 292030Z 30012KT CAVOK 17/10 Q1019 R16/29//95=
201906292100 METAR LRSV 292100Z 30012KT CAVOK 18/10 Q1019 R16/29//95=
201906292130 METAR LRSV 292130Z 31008KT CAVOK 17/10 Q1019 R16/29//95=
201906292200 METAR LRSV 292200Z 29008KT CAVOK 17/10 Q1018 R16/29//95=
201906292230 METAR LRSV 292230Z 29008KT CAVOK 17/11 Q1018 R16/29//95=
201906292300 METAR LRSV 292300Z AUTO 29007KT 9999 BKN090/// OVC110///
                        17/11 Q1018=
201906292330 METAR LRSV 292330Z AUTO 31010KT 9999 BKN085/// 18/10 Q1018=
201906300000 METAR LRSV 300000Z 32010KT CAVOK 18/10 Q1019 R16/29//95=
201906300030 METAR LRSV 300030Z 33008KT CAVOK 17/10 Q1019 R16/29//95=
201906300100 METAR LRSV 300100Z 33006KT CAVOK 17/10 Q1018 R16/29//95=
201906300130 METAR LRSV 300130Z 33006KT CAVOK 17/10 Q1019 R16/29//95=
201906300200 METAR LRSV 300200Z 34004KT CAVOK 17/11 Q1019 R16/29//95=
201906300230 METAR LRSV 300230Z 33004KT CAVOK 17/11 Q1019=
201906300300 METAR LRSV 300300Z 31004KT CAVOK 16/11 Q1019=
201906300330 METAR LRSV 300330Z 31004KT CAVOK 17/11 Q1019=
201906300400 METAR LRSV 300400Z 31003KT CAVOK 17/11 Q1019=
201906300430 METAR LRSV 300430Z 29002KT 260V320 CAVOK 18/11 Q1019=
201906300500 METAR LRSV 300500Z 33004KT 300V360 CAVOK 19/11 Q1019=
201906300530 METAR LRSV 300530Z 32004KT 270V350 CAVOK 20/11 Q1019=
201906300600 METAR LRSV 300600Z 33004KT 300V010 CAVOK 20/11 Q1020=
201906300630 METAR LRSV 300630Z 33007KT 290V360 CAVOK 21/11 Q1020=
201906300700 METAR LRSV 300700Z 30009KT 270V330 CAVOK 21/11 Q1020=
201906300730 METAR LRSV 300730Z 32008KT 270V350 CAVOK 22/12 Q1019=
201906300800 METAR LRSV 300800Z 31009KT 280V340 CAVOK 23/12 Q1020=
201906300830 METAR LRSV 300830Z 30009KT 270V330 CAVOK 23/13 Q1019=
201906300900 METAR LRSV 300900Z 34011KT CAVOK 24/12 Q1020=
201906300930 METAR LRSV 300930Z 31009KT 280V350 CAVOK 24/12 Q1019=
201906301000 METAR LRSV 301000Z 30011KT 270V330 CAVOK 24/12 Q1019=
201906301030 METAR LRSV 301030Z 31009KT 280V340 CAVOK 25/13 Q1019=
201906301100 METAR LRSV 301100Z 30009KT CAVOK 26/12 Q1019=
201906301130 METAR LRSV 301130Z 31011KT 280V350 CAVOK 26/13 Q1019=
201906301200 METAR LRSV 301200Z 31010KT 280V350 CAVOK 26/12 Q1019=
201906301230 METAR LRSV 301230Z 32011KT CAVOK 26/12 Q1019=
201906301300 METAR LRSV 301300Z 33008KT 300V360 CAVOK 27/11 Q1019=
201906301330 METAR LRSV 301330Z 34011KT CAVOK 27/12 Q1018=
201906301400 METAR LRSV 301400Z 32010KT CAVOK 27/12 Q1018=
201906301430 METAR LRSV 301430Z 33009KT CAVOK 27/12 Q1018=
201906301500 METAR LRSV 301500Z 34009KT CAVOK 27/12 Q1018=
201906301530 METAR LRSV 301530Z 32009KT CAVOK 27/14 Q1018=
201906301600 METAR LRSV 301600Z 33007KT CAVOK 27/14 Q1018=
201906301630 METAR LRSV 301630Z 33006KT 270V360 CAVOK 26/15 Q1018=
201906301700 METAR LRSV 301700Z 32006KT CAVOK 26/15 Q1017=
201906301730 METAR LRSV 301730Z 29003KT 260V330 CAVOK 24/16 Q1017=
201906301800 METAR LRSV 301800Z 27003KT CAVOK 23/16 Q1018=
201906301830 METAR LRSV 301830Z 26005KT CAVOK 21/15 Q1018=
201906301900 METAR LRSV 301900Z 27005KT CAVOK 21/15 Q1018=
201906301930 METAR LRSV 301930Z 26006KT CAVOK 21/14 Q1018=
201906302000 METAR LRSV 302000Z 25006KT CAVOK 21/15 Q1018=
201906302030 METAR LRSV 302030Z 25007KT CAVOK 21/15 Q1018=
201906302100 METAR LRSV 302100Z 25007KT CAVOK 20/16 Q1018=
201906302130 METAR LRSV 302130Z 26009KT CAVOK 20/15 Q1018=
201906302200 METAR LRSV 302200Z 26009KT CAVOK 20/14 Q1018=
201906302230 METAR LRSV 302230Z 26009KT CAVOK 20/13 Q1018=
201906302300 METAR LRSV 302300Z 27009KT CAVOK 20/12 Q1018=
201906302330 METAR LRSV 302330Z 27010KT CAVOK 21/11 Q1018=
