201907010000 METAR LRSV 010000Z 27010KT CAVOK 21/11 Q1018=
201907010030 METAR LRSV 010030Z 27010KT CAVOK 21/11 Q1018=
201907010100 METAR LRSV 010100Z 26008KT CAVOK 19/11 Q1018=
201907010130 METAR LRSV 010130Z 25010KT CAVOK 18/11 Q1018=
201907010200 METAR LRSV 010200Z 25009KT CAVOK 18/11 Q1018=
201907010230 METAR LRSV 010230Z 24009KT CAVOK 18/11 Q1018=
201907010300 METAR LRSV 010300Z 25010KT CAVOK 18/12 Q1018=
201907010330 METAR LRSV 010330Z 24009KT CAVOK 18/12 Q1018=
201907010400 METAR LRSV 010400Z 25009KT CAVOK 20/13 Q1018=
201907010430 METAR LRSV 010430Z 25009KT CAVOK 20/14 Q1018=
201907010500 METAR LRSV 010500Z 25008KT CAVOK 21/14 Q1018=
201907010530 METAR LRSV 010530Z 25007KT CAVOK 22/15 Q1018=
201907010600 METAR LRSV 010600Z 25007KT CAVOK 23/16 Q1018=
201907010630 METAR LRSV 010630Z 25006KT CAVOK 25/17 Q1017=
201907010700 METAR LRSV 010700Z 23005KT 200V260 CAVOK 25/17 Q1017=
201907010730 METAR LRSV 010730Z 22006KT 180V250 CAVOK 26/17 Q1017=
201907010800 METAR COR LRSV 010800Z 21005KT 170V250 CAVOK 27/17 Q1017=
201907010830 METAR LRSV 010830Z 21006KT 180V240 CAVOK 28/15 Q1017=
201907010900 METAR COR LRSV 010900Z 20005KT CAVOK 29/13 Q1017=
201907010930 METAR LRSV 010930Z 22005KT 180V260 CAVOK 30/15 Q1017=
201907011000 METAR LRSV 011000Z 17005KT 140V240 CAVOK 30/15 Q1017=
201907011030 METAR LRSV 011030Z 15004KT 110V180 CAVOK 30/14 Q1017=
201907011100 METAR LRSV 011100Z 18005KT 140V220 CAVOK 31/16 Q1016=
201907011130 METAR LRSV 011130Z 19006KT 150V220 CAVOK 31/15 Q1016=
201907011200 METAR LRSV 011200Z 13004KT 060V200 CAVOK 32/16 Q1016=
201907011230 METAR LRSV 011230Z 18004KT 120V210 CAVOK 32/16 Q1016=
201907011300 METAR LRSV 011300Z 18006KT 150V210 CAVOK 32/17 Q1015=
201907011330 METAR LRSV 011330Z 17007KT CAVOK 32/19 Q1015=
201907011400 METAR LRSV 011400Z 18007KT CAVOK 32/19 Q1015=
201907011430 METAR COR LRSV 011430Z 18008KT CAVOK 31/21 Q1015=
201907011500 METAR LRSV 011500Z 19008KT CAVOK 31/21 Q1015=
201907011530 METAR LRSV 011530Z 19008KT CAVOK 31/21 Q1014=
201907011600 METAR LRSV 011600Z 19006KT CAVOK 30/22 Q1014=
201907011630 METAR LRSV 011630Z 21004KT CAVOK 30/21 Q1014=
201907011700 METAR LRSV 011700Z 23004KT CAVOK 29/22 Q1014=
201907011730 METAR LRSV 011730Z 23004KT CAVOK 28/22 Q1014=
201907011800 METAR LRSV 011800Z 25005KT CAVOK 27/21 Q1014=
201907011830 METAR LRSV 011830Z 26008KT CAVOK 27/20 Q1015=
201907011900 METAR LRSV 011900Z 27008KT CAVOK 26/19 Q1015=
201907011930 METAR LRSV 011930Z 27009KT CAVOK 26/16 Q1015=
201907012000 METAR LRSV 012000Z 26007KT CAVOK 24/15 Q1015=
201907012030 METAR LRSV 012030Z 26010KT CAVOK 24/15 Q1015=
201907012100 METAR LRSV 012100Z 26010KT CAVOK 23/15 Q1015=
201907012130 METAR LRSV 012130Z 25012KT CAVOK 24/15 Q1014=
201907012200 METAR LRSV 012200Z 26009KT CAVOK 23/15 Q1015=
201907012230 METAR LRSV 012230Z 26010KT CAVOK 22/15 Q1015=
201907012300 METAR LRSV 012300Z 26010KT CAVOK 22/15 Q1015=
201907012330 METAR LRSV 012330Z 25010KT CAVOK 21/15 Q1014=
201907020000 METAR LRSV 020000Z 26009KT CAVOK 22/14 Q1014=
201907020030 METAR LRSV 020030Z 26009KT CAVOK 22/14 Q1014=
201907020100 METAR LRSV 020100Z 26008KT CAVOK 22/14 Q1014=
201907020130 METAR LRSV 020130Z 28009KT CAVOK 22/14 Q1014=
201907020200 METAR LRSV 020200Z 27010KT CAVOK 23/13 Q1014=
201907020230 METAR LRSV 020230Z 27010KT CAVOK 23/13 Q1014=
201907020300 METAR COR LRSV 020300Z 27010KT CAVOK 23/13 Q1014=
201907020330 METAR LRSV 020330Z 27009KT CAVOK 24/13 Q1014=
201907020400 METAR LRSV 020400Z 27008KT CAVOK 24/14 Q1014=
201907020430 METAR LRSV 020430Z 32008KT 250V010 CAVOK 24/13 Q1015=
201907020500 METAR LRSV 020500Z 05003KT 030V090 CAVOK 25/15 Q1015=
201907020530 METAR LRSV 020530Z VRB01KT CAVOK 26/15 Q1014=
201907020600 METAR COR LRSV 020600Z 26004KT 230V290 CAVOK 27/16 Q1014=
201907020630 METAR LRSV 020630Z 20002KT 140V240 CAVOK 26/18 Q1014=
201907020700 METAR LRSV 020700Z 07003KT 020V130 CAVOK 27/18 Q1014=
201907020730 METAR LRSV 020730Z 05005KT 010V130 CAVOK 27/18 Q1014=
201907020800 METAR LRSV 020800Z VRB01KT CAVOK 28/17 Q1014=
201907020830 METAR LRSV 020830Z 13002KT CAVOK 28/17 Q1014=
201907020900 METAR LRSV 020900Z 06005KT 010V130 CAVOK 28/18 Q1014=
201907020930 METAR LRSV 020930Z 08005KT 030V150 CAVOK 29/18 Q1014=
201907021000 METAR COR LRSV 021000Z 09005KT 070V130 9999 FEW050CB 29/18
                        Q1013=
201907021030 METAR LRSV 021030Z VRB04KT 9999 FEW050CB 30/17 Q1014=
201907021100 METAR LRSV 021100Z 36017KT 9999 SCT045CB 26/17 Q1014=
201907021130 METAR LRSV 021130Z 36022KT 9999 SCT045CB 23/18 Q1015=
201907021200 METAR LRSV 021200Z 36015KT 9999 SCT045CB 23/18 Q1015=
201907021230 METAR LRSV 021230Z 02013KT 9999 FEW045CB 25/18 Q1015=
201907021300 METAR LRSV 021300Z 02010KT 9999 FEW045CB 25/18 Q1014=
201907021330 METAR LRSV 021330Z 02008KT 9999 FEW045CB 24/18 Q1014=
201907021400 METAR LRSV 021400Z 36006KT 9999 FEW045CB 24/19 Q1014=
201907021430 METAR LRSV 021430Z 01010KT 9999 FEW045CB 24/19 Q1014=
201907021500 METAR LRSV 021500Z 01007KT 9999 FEW045CB 25/19 Q1015=
201907021530 METAR LRSV 021530Z 34009KT 9999 SCT045CB 25/19 Q1014=
201907021600 METAR LRSV 021600Z 36009KT 9999 TS SCT045CB 25/19 Q1015=
201907021630 METAR LRSV 021630Z 35004KT 9999 TS SCT045CB 23/18 Q1015=
201907021700 METAR LRSV 021700Z 33005KT 280V010 9999 TS SCT045CB 23/18
                        Q1015=
201907021730 METAR LRSV 021730Z 28003KT 9999 -TSRA SCT035CB SCT040 22/18
                        Q1015=
201907021800 METAR LRSV 021800Z 31006KT 280V340 9999 -TSRA SCT035CB SCT040
                        21/18 Q1015=
201907021830 METAR COR LRSV 021830Z 27009KT 9999 TS SCT035CB 20/18 Q1015=
201907021900 METAR COR LRSV 021900Z 27007KT 9999 TS FEW040CB 20/17 Q1015=
201907021930 METAR LRSV 021930Z 26006KT 9999 TS FEW040CB 19/18 Q1015=
201907022000 METAR LRSV 022000Z 26007KT 9999 FEW040CB 19/18 Q1015=
201907022030 METAR LRSV 022030Z 26007KT CAVOK 19/18 Q1015=
201907022100 METAR LRSV 022100Z 29007KT CAVOK 20/17 Q1015=
201907022130 METAR LRSV 022130Z 31007KT CAVOK 21/17 Q1015=
201907022200 METAR LRSV 022200Z 31006KT CAVOK 21/17 Q1015=
201907022230 METAR LRSV 022230Z 32007KT CAVOK 21/17 Q1015=
201907022300 METAR LRSV 022300Z 32006KT CAVOK 21/17 Q1015=
201907022330 METAR LRSV 022330Z 32007KT 9999 BKN048 21/17 Q1015=
201907030000 METAR LRSV 030000Z 32009KT 9999 BKN048 21/18 Q1015=
201907030030 METAR LRSV 030030Z 32009KT CAVOK 21/17 Q1016=
201907030100 METAR COR LRSV 030100Z 32008KT CAVOK 20/18 Q1016=
201907030130 METAR LRSV 030130Z 33008KT CAVOK 20/17 Q1016=
201907030200 METAR LRSV 030200Z 34010KT CAVOK 20/17 Q1016=
201907030230 METAR LRSV 030230Z 34010KT 9999 FEW045CB SCT048 19/17 Q1016=
201907030300 METAR LRSV 030300Z 33010KT 9999 FEW010 FEW045CB BKN047 19/17
                        Q1017=
201907030330 METAR LRSV 030330Z 33013KT 9999 -TSRA SCT012 SCT040CB SCT045
                        18/15 Q1017 R16/29//95=
201907030400 METAR COR LRSV 030400Z 35010KT 9999 -TSRA FEW040CB SCT045
                        16/14 Q1016 R16/29//95=
201907030430 METAR LRSV 030430Z 33008KT 9999 FEW045CB 16/14 Q1017 R16/29//95=
201907030500 METAR LRSV 030500Z 33010KT 9999 FEW045CB 17/14 Q1017 R16/29//95=
201907030530 METAR LRSV 030530Z 33006KT 9999 -SHRA SCT045CB 18/15 Q1017
                        R16/29//95=
201907030600 METAR LRSV 030600Z VRB02KT 9999 -SHRA SCT045CB 17/15 Q1017
                        R16/29//95=
201907030630 METAR LRSV 030630Z 25007KT 9999 SCT045CB 17/16 Q1018 R16/29//95=
201907030700 METAR LRSV 030700Z 30006KT 270V340 9999 SCT045CB 19/17 Q1017
                        R16/29//95=
201907030730 METAR LRSV 030730Z 34005KT 9999 FEW045CB 19/16 Q1017 R16/29//95=
201907030800 METAR LRSV 030800Z VRB02KT 9999 FEW009 FEW045CB 21/14 Q1017
                        R16/29//95=
201907030830 METAR LRSV 030830Z VRB02KT 9999 FEW045CB 21/13 Q1017 R16/29//95=
201907030900 METAR LRSV 030900Z 21010KT 9999 FEW040CB 20/17 Q1018 R16/29//95=
201907030930 METAR LRSV 030930Z 25004KT 9999 -SHRA SCT040CB 19/16 Q1017
                        R16/29//95=
201907031000 METAR LRSV 031000Z 23006KT 9999 SCT040CB 19/16 Q1017 R16/29//95=
201907031030 METAR LRSV 031030Z 23007KT 9999 -SHRA SCT040CB 18/16 Q1017
                        R16/19//95=
201907031100 METAR COR LRSV 031100Z 14003KT 080V180 9999 FEW022 SCT040CB
                        18/15 Q1016 R16/19//95=
201907031130 METAR LRSV 031130Z 23008KT 9999 FEW040CB 19/15 Q1017 R16/19//95=
201907031200 METAR LRSV 031200Z 26008KT 9999 SCT045 19/15 Q1017 R16/19//95=
201907031230 METAR LRSV 031230Z 26007KT 9999 BKN048 19/15 Q1017 R16/19//95=
201907031300 METAR LRSV 031300Z 28005KT 9999 BKN048 20/16 Q1017 R16/19//95=
201907031330 METAR LRSV 031330Z AUTO 33006KT 300V360 9999 FEW050/// 21/16
                        Q1017=
201907031400 METAR COR LRSV 031400Z 02007KT 9999 FEW045 22/11 Q1017 R16/19//95=
201907031430 METAR COR LRSV 031430Z 02007KT 9999 FEW045 22/11 Q1017 R16/19//95=
201907031500 METAR LRSV 031500Z 30005KT 270V350 CAVOK 23/09 Q1017 R16/CLRD//=
201907031530 METAR LRSV 031530Z 31003KT 270V010 CAVOK 23/10 Q1017=
201907031600 METAR LRSV 031600Z 29003KT 240V340 CAVOK 23/11 Q1017=
201907031630 METAR LRSV 031630Z 32003KT 290V350 CAVOK 23/11 Q1017=
201907031700 METAR LRSV 031700Z 35002KT 310V020 CAVOK 22/11 Q1017=
201907031730 METAR LRSV 031730Z 26003KT CAVOK 20/13 Q1017=
201907031800 METAR LRSV 031800Z 27004KT 9999 SCT048 19/15 Q1017=
201907031830 METAR LRSV 031830Z 29005KT 9999 BKN048 20/13 Q1018=
201907031900 METAR LRSV 031900Z 29005KT 9999 BKN049 19/12 Q1018=
201907031930 METAR LRSV 031930Z 32005KT CAVOK 19/13 Q1018=
201907032000 METAR COR LRSV 032000Z 33005KT CAVOK 18/13 Q1018=
201907032030 METAR LRSV 032030Z 33004KT CAVOK 18/13 Q1018=
201907032100 METAR LRSV 032100Z 33007KT CAVOK 18/13 Q1019=
201907032130 METAR LRSV 032130Z 33006KT CAVOK 18/13 Q1019=
201907032200 METAR LRSV 032200Z 33007KT CAVOK 18/12 Q1019=
201907032230 METAR LRSV 032230Z 33007KT CAVOK 18/12 Q1019=
201907032300 METAR LRSV 032300Z 33008KT CAVOK 18/12 Q1020=
201907032330 METAR LRSV 032330Z AUTO 34008KT 9999 SCT050/// BKN080///
                        18/12 Q1020=
201907040000 METAR LRSV 040000Z 34007KT CAVOK 16/12 Q1019=
201907040030 METAR LRSV 040030Z 33006KT CAVOK 17/12 Q1019=
201907040100 METAR LRSV 040100Z 33006KT CAVOK 17/12 Q1019=
201907040130 METAR LRSV 040130Z 33006KT CAVOK 16/11 Q1020=
201907040200 METAR COR LRSV 040200Z 33006KT CAVOK 16/11 Q1020=
201907040230 METAR LRSV 040230Z 33006KT CAVOK 16/11 Q1020=
201907040300 METAR LRSV 040300Z 33005KT CAVOK 16/11 Q1020=
201907040330 METAR LRSV 040330Z 33007KT CAVOK 16/11 Q1020=
201907040400 METAR LRSV 040400Z 33006KT CAVOK 17/11 Q1020=
201907040430 METAR LRSV 040430Z 34006KT CAVOK 17/12 Q1020=
201907040500 METAR LRSV 040500Z 33008KT CAVOK 18/11 Q1020=
201907040530 METAR LRSV 040530Z 34008KT CAVOK 18/12 Q1020=
201907040600 METAR LRSV 040600Z 35007KT CAVOK 18/11 Q1020=
201907040630 METAR LRSV 040630Z 01004KT 320V060 CAVOK 19/12 Q1020=
201907040700 METAR LRSV 040700Z 35003KT CAVOK 19/13 Q1020=
201907040730 METAR LRSV 040730Z 36005KT 300V040 9999 FEW030 20/13 Q1020=
201907040800 METAR LRSV 040800Z 33003KT 260V050 9999 FEW030 20/12 Q1020=
201907040830 METAR LRSV 040830Z 30003KT 250V350 9999 SCT033 20/12 Q1020=
201907040900 METAR LRSV 040900Z VRB03KT 9999 SCT036 20/12 Q1020=
201907040930 METAR LRSV 040930Z VRB04KT 9999 SCT037 21/12 Q1020=
201907041000 METAR LRSV 041000Z VRB04KT 9999 SCT037 21/13 Q1020=
201907041030 METAR LRSV 041030Z VRB04KT 9999 SCT037 22/13 Q1020=
201907041100 METAR LRSV 041100Z 06006KT 010V100 9999 SCT039 21/13 Q1020=
201907041130 METAR LRSV 041130Z 10008KT 9999 SCT040 21/13 Q1019=
201907041200 METAR LRSV 041200Z VRB05KT 9999 SCT040 23/14 Q1019=
201907041230 METAR LRSV 041230Z 11005KT 070V150 9999 SCT042 22/14 Q1019=
201907041300 METAR LRSV 041300Z VRB03KT 9999 SCT046 24/14 Q1018=
201907041330 METAR LRSV 041330Z 12004KT 040V180 9999 SCT042 22/13 Q1018=
201907041400 METAR LRSV 041400Z VRB04KT 9999 SCT042 23/14 Q1018=
201907041430 METAR LRSV 041430Z 07004KT 030V090 9999 SCT044 22/14 Q1018=
201907041500 METAR LRSV 041500Z 04006KT 9999 SCT044 22/15 Q1018=
201907041530 METAR LRSV 041530Z 02008KT 9999 SCT045 21/14 Q1018=
201907041600 METAR LRSV 041600Z 02007KT 9999 FEW040TCU SCT048 21/14 Q1018=
201907041630 METAR LRSV 041630Z 03008KT 9999 FEW040TCU 21/14 Q1018=
201907041700 METAR LRSV 041700Z 36009KT 9999 -SHRA FEW040CB 20/14 Q1018=
201907041730 METAR LRSV 041730Z 01009KT 9999 FEW040CB 20/13 Q1018=
201907041800 METAR LRSV 041800Z 01010KT 9999 FEW040CB 19/12 Q1018=
201907041830 METAR LRSV 041830Z 01008KT 9999 FEW040CB 19/12 Q1019=
201907041900 METAR LRSV 041900Z 01008KT 9999 FEW040CB 19/12 Q1019=
201907041930 METAR LRSV 041930Z 01007KT 9999 FEW040CB SCT045 19/11 Q1019=
201907042000 METAR LRSV 042000Z 36006KT 9999 BKN041 19/12 Q1019=
201907042030 METAR LRSV 042030Z 31005KT 9999 BKN045 19/12 Q1019=
201907042100 METAR LRSV 042100Z 34004KT 9999 BKN042 18/12 Q1019=
201907042130 METAR LRSV 042130Z 33004KT 9999 BKN045 18/12 Q1019=
201907042200 METAR LRSV 042200Z 33003KT 9999 BKN045 18/12 Q1019=
201907042230 METAR LRSV 042230Z 32002KT 9999 BKN045 17/12 Q1019=
201907042300 METAR LRSV 042300Z 33002KT 9999 BKN045 16/12 Q1019=
201907042330 METAR LRSV 042330Z 33001KT 9999 BKN046 16/12 Q1019=
201907050000 METAR LRSV 050000Z 34005KT 9999 BKN045 16/11 Q1019=
201907050030 METAR LRSV 050030Z 34005KT 9999 BKN047 16/11 Q1019=
201907050100 METAR LRSV 050100Z 35005KT CAVOK 16/11 Q1019=
201907050130 METAR LRSV 050130Z 01003KT 9999 SCT048 16/11 Q1018=
201907050200 METAR LRSV 050200Z 04002KT 9999 BKN048 16/10 Q1018=
201907050230 METAR LRSV 050230Z 00000KT 9999 FEW048 16/11 Q1018=
201907050300 METAR LRSV 050300Z 00000KT 9999 FEW047 16/11 Q1018=
201907050330 METAR LRSV 050330Z 18002KT CAVOK 16/11 Q1018=
201907050400 METAR LRSV 050400Z 21003KT 9999 SCT042 17/13 Q1018=
201907050430 METAR LRSV 050430Z 22003KT 190V250 9999 FEW044 17/13 Q1018=
201907050500 METAR LRSV 050500Z 21004KT 190V250 CAVOK 18/13 Q1017=
201907050530 METAR LRSV 050530Z 21004KT CAVOK 19/13 Q1017=
201907050600 METAR LRSV 050600Z 19006KT 150V210 CAVOK 20/12 Q1017=
201907050630 METAR LRSV 050630Z 19007KT CAVOK 20/12 Q1017=
201907050700 METAR LRSV 050700Z 18007KT 150V210 CAVOK 21/12 Q1016=
201907050730 METAR LRSV 050730Z 19006KT 160V230 CAVOK 21/13 Q1016=
201907050800 METAR COR LRSV 050800Z 16006KT 110V210 CAVOK 22/12 Q1016=
201907050830 METAR LRSV 050830Z 18007KT 110V210 9999 FEW038 22/12 Q1016=
201907050900 METAR LRSV 050900Z VRB05KT 9999 FEW040 22/12 Q1016=
201907050930 METAR LRSV 050930Z 20005KT 130V260 CAVOK 23/11 Q1015=
201907051000 METAR LRSV 051000Z 15005KT 100V210 CAVOK 23/12 Q1015=
201907051030 METAR LRSV 051030Z 17005KT 130V200 CAVOK 24/11 Q1014=
201907051100 METAR LRSV 051100Z VRB03KT CAVOK 25/10 Q1014=
201907051130 METAR LRSV 051130Z VRB02KT CAVOK 25/09 Q1013=
201907051200 METAR COR LRSV 051200Z 17007KT 130V200 CAVOK 26/10 Q1013=
201907051230 METAR LRSV 051230Z 17005KT 130V240 CAVOK 25/09 Q1013=
201907051300 METAR LRSV 051300Z 19004KT 150V240 CAVOK 25/11 Q1013=
201907051330 METAR LRSV 051330Z 15006KT 100V200 CAVOK 25/13 Q1012=
201907051400 METAR LRSV 051400Z 15004KT 050V210 CAVOK 25/14 Q1012=
201907051430 METAR LRSV 051430Z 15004KT 090V190 CAVOK 25/14 Q1012=
201907051500 METAR LRSV 051500Z 15006KT 9999 FEW050TCU 25/14 Q1012=
201907051530 METAR LRSV 051530Z 13006KT 100V160 9999 TS FEW045CB 25/15
                        Q1011=
201907051600 METAR LRSV 051600Z 11005KT 060V140 9999 FEW045CB 25/14 Q1011=
201907051630 METAR LRSV 051630Z 10006KT 9999 FEW045CB 24/15 Q1011=
201907051700 METAR LRSV 051700Z VRB03KT 9999 FEW045CB 23/16 Q1011=
201907051730 METAR LRSV 051730Z 36009KT 9999 FEW045CB 21/13 Q1011=
201907051800 METAR LRSV 051800Z 01005KT CAVOK 20/13 Q1011=
201907051830 METAR LRSV 051830Z 02004KT 320V050 CAVOK 21/12 Q1011=
201907051900 METAR LRSV 051900Z 30003KT 250V330 9999 FEW048 19/13 Q1012=
201907051930 METAR LRSV 051930Z 28004KT 9999 FEW048 19/12 Q1012=
201907052000 METAR LRSV 052000Z 28007KT 9999 FEW048 19/12 Q1012=
201907052030 METAR LRSV 052030Z 34015KT 9999 FEW040CB 18/12 Q1013=
201907052100 METAR LRSV 052100Z 33018KT 9999 FEW040CB 17/12 Q1013=
201907052130 METAR LRSV 052130Z 31015KT 9999 -SHRA FEW040CB 17/13 Q1013=
201907052200 METAR LRSV 052200Z 33008KT 9999 -SHRA FEW040CB 16/13 Q1013=
201907052230 METAR LRSV 052230Z 28011KT 9999 -SHRA FEW040CB 15/12 Q1013=
201907052300 METAR LRSV 052300Z 28007KT 9999 -SHRA FEW040CB 16/13 Q1013=
201907052330 METAR LRSV 052330Z 27005KT 9999 -SHRA FEW040CB 15/13 Q1013=
201907060000 METAR LRSV 060000Z 27006KT 230V290 9999 -SHRA FEW040CB 16/14
                        Q1013=
201907060030 METAR LRSV 060030Z 26007KT 9999 -SHRA FEW040CB 15/13 Q1013
                        R16/29//95=
201907060100 METAR COR LRSV 060100Z 24008KT 9999 FEW048 15/14 Q1012 R16/CLRD//=
201907060130 METAR LRSV 060130Z 26007KT CAVOK 15/13 Q1013=
201907060200 METAR LRSV 060200Z 28006KT CAVOK 15/13 Q1013=
201907060230 METAR LRSV 060230Z 30006KT CAVOK 15/12 Q1013=
201907060300 METAR LRSV 060300Z 26002KT 200V290 CAVOK 14/12 Q1013=
201907060330 METAR LRSV 060330Z 28006KT CAVOK 15/12 Q1013=
201907060400 METAR LRSV 060400Z 26005KT CAVOK 15/13 Q1013=
201907060430 METAR COR LRSV 060430Z 29005KT 250V320 CAVOK 17/12 Q1013=
201907060500 METAR LRSV 060500Z 31009KT CAVOK 18/12 Q1013=
201907060530 METAR LRSV 060530Z 32009KT CAVOK 18/11 Q1013=
201907060600 METAR LRSV 060600Z 33010KT CAVOK 19/11 Q1013=
201907060630 METAR LRSV 060630Z 35009KT CAVOK 19/11 Q1013=
201907060700 METAR LRSV 060700Z 33009KT CAVOK 20/11 Q1013=
201907060730 METAR LRSV 060730Z 31007KT 280V350 CAVOK 20/10 Q1013=
201907060800 METAR LRSV 060800Z 32010KT 290V350 CAVOK 21/10 Q1013=
201907060830 METAR LRSV 060830Z 31009KT 280V350 9999 FEW030 22/10 Q1013=
201907060900 METAR LRSV 060900Z 29008KT 260V330 9999 FEW030 22/11 Q1013=
201907060930 METAR LRSV 060930Z 33007KT 290V010 9999 FEW035 22/11 Q1013=
201907061000 METAR LRSV 061000Z 35008KT 9999 SCT035 22/12 Q1013=
201907061030 METAR LRSV 061030Z 33005KT 250V010 9999 SCT035 23/11 Q1013=
201907061100 METAR LRSV 061100Z 02007KT 350V090 9999 SCT040 23/11 Q1013=
201907061130 METAR LRSV 061130Z 31005KT 270V010 9999 SCT045 22/11 Q1013=
201907061200 METAR LRSV 061200Z 36008KT 320V030 9999 SCT045 23/12 Q1013=
201907061230 METAR LRSV 061230Z 35008KT 310V020 9999 FEW045 23/11 Q1013=
201907061300 METAR LRSV 061300Z 27004KT CAVOK 23/12 Q1013=
201907061330 METAR LRSV 061330Z 30004KT CAVOK 23/11 Q1013=
201907061400 METAR COR LRSV 061400Z 28004KT CAVOK 24/11 Q1012=
201907061430 METAR LRSV 061430Z VRB03KT CAVOK 24/12 Q1012=
201907061500 METAR LRSV 061500Z 24004KT CAVOK 24/11 Q1012=
201907061530 METAR COR LRSV 061530Z 23004KT CAVOK 23/11 Q1012=
201907061600 METAR LRSV 061600Z 17004KT CAVOK 23/13 Q1012=
201907061630 METAR LRSV 061630Z 16005KT CAVOK 22/14 Q1012=
201907061700 METAR LRSV 061700Z 17004KT CAVOK 21/15 Q1012=
201907061730 METAR LRSV 061730Z 17003KT CAVOK 21/15 Q1012=
201907061800 METAR LRSV 061800Z 17004KT CAVOK 20/14 Q1012=
201907061830 METAR COR LRSV 061830Z 19004KT CAVOK 19/14 Q1012=
201907061900 METAR LRSV 061900Z 18005KT CAVOK 19/14 Q1012=
201907061930 METAR LRSV 061930Z AUTO 19005KT 9999 NCD 18/13 Q1012=
201907062000 METAR LRSV 062000Z 20005KT CAVOK 18/13 Q1012=
201907062030 METAR LRSV 062030Z 20005KT CAVOK 17/14 Q1012=
201907062100 METAR LRSV 062100Z 22005KT CAVOK 16/13 Q1012=
201907062130 METAR LRSV 062130Z 24005KT CAVOK 16/13 Q1012=
201907062200 METAR LRSV 062200Z 23008KT CAVOK 16/13 Q1012=
201907062230 METAR LRSV 062230Z 23008KT CAVOK 16/13 Q1012=
201907062300 METAR LRSV 062300Z AUTO 23008KT 9999 NCD 15/13 Q1011=
201907062330 METAR LRSV 062330Z 23008KT CAVOK 15/13 Q1011=
201907070000 METAR LRSV 070000Z 23008KT CAVOK 15/13 Q1011=
201907070030 METAR LRSV 070030Z 24009KT CAVOK 15/13 Q1011=
201907070100 METAR LRSV 070100Z 24009KT CAVOK 15/12 Q1011=
201907070130 METAR LRSV 070130Z 24009KT CAVOK 15/12 Q1011=
201907070200 METAR LRSV 070200Z 23010KT CAVOK 15/12 Q1010=
201907070230 METAR LRSV 070230Z 23009KT CAVOK 15/12 Q1010=
201907070300 METAR LRSV 070300Z 23008KT CAVOK 15/12 Q1010=
201907070330 METAR LRSV 070330Z 22008KT CAVOK 16/12 Q1009=
201907070400 METAR LRSV 070400Z 23008KT CAVOK 17/12 Q1009=
201907070430 METAR LRSV 070430Z 22007KT CAVOK 18/13 Q1009=
201907070500 METAR LRSV 070500Z 23007KT CAVOK 19/13 Q1009=
201907070530 METAR LRSV 070530Z 23008KT CAVOK 20/13 Q1009=
201907070600 METAR LRSV 070600Z 23009KT CAVOK 21/13 Q1009=
201907070630 METAR LRSV 070630Z 22008KT 9999 FEW040CB 22/14 Q1009=
201907070700 METAR LRSV 070700Z 27005KT 9999 FEW040CB 22/14 Q1009=
201907070730 METAR LRSV 070730Z 36008KT 9999 FEW040CB 22/15 Q1009=
201907070800 METAR LRSV 070800Z 28003KT 190V350 9999 FEW040CB 22/14 Q1009=
201907070830 METAR LRSV 070830Z 30003KT 9999 -SHRA FEW040CB 22/14 Q1009=
201907070900 METAR LRSV 070900Z 33008KT 9999 FEW040CB 21/15 Q1010=
201907070930 METAR LRSV 070930Z 27007KT 240V310 9999 FEW040CB 22/14 Q1009=
201907071000 METAR LRSV 071000Z 31008KT 9999 -SHRA FEW040CB 21/14 Q1009=
201907071030 METAR LRSV 071030Z 24005KT 220V280 9999 FEW040CB 20/15 Q1009=
201907071100 METAR LRSV 071100Z 26006KT 9999 FEW040CB 20/15 Q1009=
201907071130 METAR LRSV 071130Z 28007KT 9999 FEW040CB 21/15 Q1008=
201907071200 METAR LRSV 071200Z 21004KT 170V250 9999 FEW040CB 21/16 Q1007=
201907071230 METAR LRSV 071230Z 21007KT 9999 FEW040CB 22/16 Q1007=
201907071300 METAR LRSV 071300Z 21006KT 180V240 CAVOK 23/17 Q1007=
201907071330 METAR LRSV 071330Z 21006KT CAVOK 23/17 Q1007=
201907071400 METAR LRSV 071400Z 20006KT 9999 FEW040CB 24/16 Q1006=
201907071430 METAR LRSV 071430Z 23007KT 9999 FEW040CB 23/16 Q1006=
201907071500 METAR LRSV 071500Z 26010KT 9999 FEW040CB 23/16 Q1006=
201907071530 METAR LRSV 071530Z 19008KT 150V220 9999 VCTS SCT040CB 22/18
                        Q1006=
201907071600 METAR LRSV 071600Z 15004KT 110V180 9999 FEW040CB 23/17 Q1006=
201907071630 METAR LRSV 071630Z 19005KT 9999 FEW040CB 22/17 Q1006=
201907071700 METAR LRSV 071700Z 19004KT 9999 FEW040CB 21/18 Q1006=
201907071730 METAR LRSV 071730Z 23003KT 190V290 9999 FEW040CB 21/17 Q1006=
201907071800 METAR LRSV 071800Z 27005KT CAVOK 21/15 Q1006=
201907071830 METAR LRSV 071830Z 32005KT CAVOK 20/15 Q1006=
201907071900 METAR LRSV 071900Z 33005KT CAVOK 21/15 Q1006=
201907071930 METAR LRSV 071930Z 32007KT CAVOK 21/15 Q1006=
201907072000 METAR LRSV 072000Z 32021KT 9999 VCTS FEW032CB 21/15 Q1007=
201907072030 METAR LRSV 072030Z 33016KT 9999 -RA BKN045 17/15 Q1007=
201907072100 METAR LRSV 072100Z 33012KT CAVOK 17/15 Q1007=
201907072130 METAR LRSV 072130Z 34010KT CAVOK 17/14 Q1007=
201907072200 METAR LRSV 072200Z 32009KT CAVOK 17/13 Q1007=
201907072230 METAR LRSV 072230Z 32008KT CAVOK 17/13 Q1007=
201907072300 METAR LRSV 072300Z 30007KT CAVOK 18/12 Q1007=
201907072330 METAR LRSV 072330Z 32008KT CAVOK 17/12 Q1007=
201907080000 METAR LRSV 080000Z 33008KT CAVOK 17/12 Q1007=
201907080030 METAR LRSV 080030Z 34010KT CAVOK 17/12 Q1007=
201907080100 METAR LRSV 080100Z 33011KT CAVOK 17/12 Q1007=
201907080130 METAR LRSV 080130Z 33010KT CAVOK 16/12 Q1007=
201907080200 METAR LRSV 080200Z 32009KT CAVOK 16/13 Q1007=
201907080230 METAR LRSV 080230Z 31009KT CAVOK 16/13 Q1007=
201907080300 METAR LRSV 080300Z 31012KT CAVOK 16/14 Q1008=
201907080330 METAR LRSV 080330Z 32014KT 9999 FEW010 16/14 Q1008=
201907080400 METAR LRSV 080400Z 33016KT 9999 FEW012 BKN049 16/13 Q1008=
201907080430 METAR LRSV 080430Z 33017KT 9999 FEW012 BKN049 15/12 Q1009=
201907080500 METAR LRSV 080500Z 33013KT 9999 BKN045 15/12 Q1009=
201907080530 METAR LRSV 080530Z 32014KT 9999 BKN045 16/12 Q1009=
201907080600 METAR LRSV 080600Z 33012KT 9999 -SHRA FEW040CB BKN048 16/12
                        Q1010=
201907080630 METAR LRSV 080630Z 32011KT 9999 BKN048 15/12 Q1010=
201907080700 METAR LRSV 080700Z 33010KT 9999 BKN048 16/12 Q1010=
201907080730 METAR LRSV 080730Z 32007KT 290V350 9999 SCT048 16/12 Q1011=
201907080800 METAR LRSV 080800Z 32009KT 9999 FEW020 BKN048 17/11 Q1011=
201907080830 METAR LRSV 080830Z 32007KT 270V350 9999 SCT026 BKN048 18/12
                        Q1011=
201907080900 METAR LRSV 080900Z 34008KT 310V010 9999 SCT026 BKN048 18/10
                        Q1011=
201907080930 METAR LRSV 080930Z 31009KT 9999 FEW030 BKN040 18/11 Q1011=
201907081000 METAR COR LRSV 081000Z 33011KT 300V010 9999 FEW029 SCT043
                        18/12 Q1011=
201907081030 METAR LRSV 081030Z 33013KT 9999 FEW029 SCT045 19/10 Q1011=
201907081100 METAR LRSV 081100Z 35013KT 9999 SCT040 18/10 Q1011=
201907081130 METAR LRSV 081130Z 36013KT 9999 SCT040 18/10 Q1011=
201907081200 METAR LRSV 081200Z 34012KT 310V010 9999 SCT042 18/09 Q1011=
201907081230 METAR LRSV 081230Z 34010KT 310V010 9999 SCT041 19/10 Q1011=
201907081300 METAR LRSV 081300Z 36011KT 9999 SCT041 19/09 Q1011=
201907081330 METAR LRSV 081330Z 34011KT 9999 SCT045 19/09 Q1011=
201907081400 METAR LRSV 081400Z 34008KT 310V010 9999 SCT045 19/10 Q1012=
201907081430 METAR LRSV 081430Z 34009KT 9999 FEW045 18/10 Q1012=
201907081500 METAR LRSV 081500Z 33011KT 9999 FEW045 19/10 Q1012=
201907081530 METAR LRSV 081530Z 34012KT 9999 FEW047 19/09 Q1012=
201907081600 METAR LRSV 081600Z 32009KT 9999 FEW047 18/09 Q1012=
201907081630 METAR LRSV 081630Z 34010KT 9999 FEW048 18/08 Q1012=
201907081700 METAR LRSV 081700Z 33006KT CAVOK 18/08 Q1012=
201907081730 METAR LRSV 081730Z 32007KT CAVOK 17/07 Q1012=
201907081800 METAR LRSV 081800Z 32006KT CAVOK 16/07 Q1013=
201907081830 METAR LRSV 081830Z 29005KT CAVOK 15/08 Q1013=
201907081900 METAR LRSV 081900Z 29006KT CAVOK 14/08 Q1013=
201907081930 METAR LRSV 081930Z 30006KT CAVOK 14/07 Q1014=
201907082000 METAR LRSV 082000Z 30006KT CAVOK 14/07 Q1014=
201907082030 METAR LRSV 082030Z 28005KT CAVOK 13/07 Q1014=
201907082100 METAR LRSV 082100Z 26006KT CAVOK 13/08 Q1014=
201907082130 METAR LRSV 082130Z 24006KT CAVOK 12/08 Q1014=
201907082200 METAR LRSV 082200Z 25005KT CAVOK 12/08 Q1014=
201907082230 METAR LRSV 082230Z 27005KT CAVOK 12/08 Q1014=
201907082300 METAR LRSV 082300Z 27004KT CAVOK 13/08 Q1014=
201907082330 METAR LRSV 082330Z 27005KT CAVOK 13/09 Q1014=
201907090000 METAR LRSV 090000Z 25004KT CAVOK 13/09 Q1014=
201907090030 METAR LRSV 090030Z 32006KT CAVOK 14/07 Q1014=
201907090100 METAR LRSV 090100Z 33006KT CAVOK 13/08 Q1014=
201907090130 METAR LRSV 090130Z 33006KT CAVOK 13/07 Q1014=
201907090200 METAR LRSV 090200Z 32007KT CAVOK 13/06 Q1014=
201907090230 METAR LRSV 090230Z 32007KT CAVOK 14/06 Q1014=
201907090300 METAR LRSV 090300Z 32006KT CAVOK 13/06 Q1014=
201907090330 METAR LRSV 090330Z 32005KT CAVOK 13/06 Q1014=
201907090400 METAR LRSV 090400Z 32005KT CAVOK 14/06 Q1014=
201907090430 METAR LRSV 090430Z 29004KT CAVOK 14/07 Q1014=
201907090500 METAR LRSV 090500Z 21003KT 130V290 CAVOK 14/07 Q1014=
201907090530 METAR LRSV 090530Z 26004KT CAVOK 14/08 Q1014=
201907090600 METAR LRSV 090600Z 29003KT 250V330 CAVOK 16/06 Q1014=
201907090630 METAR LRSV 090630Z VRB02KT CAVOK 17/05 Q1014=
201907090700 METAR LRSV 090700Z VRB02KT CAVOK 17/04 Q1014=
201907090730 METAR LRSV 090730Z VRB02KT CAVOK 18/04 Q1014=
201907090800 METAR LRSV 090800Z 08004KT 010V140 CAVOK 18/05 Q1013=
201907090830 METAR COR LRSV 090830Z 03006KT 340V050 CAVOK 18/07 Q1013=
201907090900 METAR LRSV 090900Z 05006KT 350V100 CAVOK 18/07 Q1013=
201907090930 METAR LRSV 090930Z 02006KT 340V040 CAVOK 18/07 Q1013=
201907091000 METAR LRSV 091000Z 06006KT 020V090 CAVOK 18/07 Q1013=
201907091030 METAR LRSV 091030Z 35005KT 290V040 CAVOK 19/07 Q1013=
201907091100 METAR LRSV 091100Z 01005KT 300V050 CAVOK 19/07 Q1013=
201907091130 METAR LRSV 091130Z 06006KT 030V100 CAVOK 19/07 Q1013=
201907091200 METAR LRSV 091200Z VRB02KT CAVOK 19/07 Q1012=
201907091230 METAR LRSV 091230Z VRB04KT CAVOK 20/09 Q1012=
201907091300 METAR LRSV 091300Z 35005KT 310V100 CAVOK 20/08 Q1012=
201907091330 METAR LRSV 091330Z 34006KT 300V020 CAVOK 19/08 Q1012=
201907091400 METAR LRSV 091400Z 01005KT 340V050 CAVOK 20/10 Q1012=
201907091430 METAR LRSV 091430Z 03004KT 340V080 CAVOK 20/09 Q1012=
201907091500 METAR LRSV 091500Z VRB01KT CAVOK 20/09 Q1012=
201907091530 METAR LRSV 091530Z 30004KT 230V360 CAVOK 20/09 Q1012=
201907091600 METAR LRSV 091600Z 01005KT CAVOK 19/09 Q1012=
201907091630 METAR LRSV 091630Z 36008KT CAVOK 18/09 Q1012=
201907091700 METAR LRSV 091700Z 36007KT CAVOK 18/09 Q1012=
201907091730 METAR LRSV 091730Z 34006KT CAVOK 17/08 Q1012=
201907091800 METAR LRSV 091800Z 33006KT CAVOK 16/08 Q1012=
201907091830 METAR LRSV 091830Z 33005KT CAVOK 15/09 Q1012=
201907091900 METAR LRSV 091900Z 34005KT CAVOK 15/08 Q1013=
201907091930 METAR LRSV 091930Z 33008KT CAVOK 14/07 Q1013=
201907092000 METAR LRSV 092000Z 32008KT CAVOK 15/07 Q1013=
201907092030 METAR LRSV 092030Z 31009KT CAVOK 15/06 Q1013=
201907092100 METAR LRSV 092100Z 30008KT CAVOK 14/07 Q1013=
201907092130 METAR LRSV 092130Z 26006KT CAVOK 13/08 Q1012=
201907092200 METAR LRSV 092200Z 26009KT CAVOK 13/08 Q1012=
201907092230 METAR LRSV 092230Z 25009KT CAVOK 13/08 Q1012=
201907092300 METAR LRSV 092300Z 27009KT CAVOK 13/08 Q1012=
201907092330 METAR LRSV 092330Z 26008KT CAVOK 14/07 Q1012=
201907100000 METAR LRSV 100000Z 30007KT CAVOK 14/07 Q1012=
201907100030 METAR LRSV 100030Z 30005KT CAVOK 14/07 Q1011=
201907100100 METAR LRSV 100100Z 31005KT CAVOK 15/06 Q1011=
201907100130 METAR LRSV 100130Z 25007KT CAVOK 11/09 Q1012=
201907100200 METAR LRSV 100200Z 29006KT CAVOK 13/08 Q1011=
201907100230 METAR LRSV 100230Z 29006KT CAVOK 14/07 Q1011=
201907100300 METAR LRSV 100300Z 32007KT CAVOK 14/07 Q1011=
201907100330 METAR LRSV 100330Z 32007KT CAVOK 14/07 Q1011=
201907100400 METAR LRSV 100400Z 30006KT CAVOK 14/07 Q1011=
201907100430 METAR COR LRSV 100430Z 23004KT CAVOK 13/10 Q1011=
201907100500 METAR LRSV 100500Z 24005KT CAVOK 14/09 Q1011=
201907100530 METAR LRSV 100530Z 24004KT CAVOK 14/10 Q1011=
201907100600 METAR COR LRSV 100600Z 24004KT 210V270 CAVOK 15/10 Q1011=
201907100630 METAR COR LRSV 100630Z 29006KT 250V330 CAVOK 16/08 Q1011=
201907100700 METAR LRSV 100700Z 28008KT CAVOK 16/08 Q1011=
201907100730 METAR LRSV 100730Z 32010KT CAVOK 17/07 Q1011=
201907100800 METAR LRSV 100800Z 29010KT 9999 FEW042 18/08 Q1011=
201907100830 METAR LRSV 100830Z 34007KT 300V040 9999 SCT042 18/09 Q1011=
201907100900 METAR LRSV 100900Z 33007KT 300V360 9999 SCT042 19/08 Q1011=
201907100930 METAR LRSV 100930Z 32008KT 290V360 9999 FEW048CB 19/08 Q1011=
201907101000 METAR LRSV 101000Z 36009KT 320V020 9999 FEW035CB SCT045 19/08
                        Q1011=
201907101030 METAR LRSV 101030Z 35014KT 9999 -SHRA SCT035CB 18/10 Q1011=
201907101100 METAR LRSV 101100Z 34018KT 9999 TS SCT035CB 16/09 Q1011=
201907101130 METAR LRSV 101130Z 29014KT 9999 TS SCT042CB 15/09 Q1011=
201907101200 METAR LRSV 101200Z 27011KT 9999 TS FEW035CB 16/10 Q1011=
201907101230 METAR LRSV 101230Z 27010KT 9999 SCT035 17/10 Q1010=
201907101300 METAR LRSV 101300Z 31015KT 9999 FEW035 18/08 Q1010=
201907101330 METAR COR LRSV 101330Z 32011KT 9999 FEW045 18/09 Q1010=
201907101400 METAR COR LRSV 101400Z 30009KT 9999 FEW043 18/08 Q1010=
201907101430 METAR COR LRSV 101430Z 31012KT 280V340 9999 SCT049 19/08
                        Q1010=
201907101500 METAR LRSV 101500Z 29011KT 9999 FEW035CB SCT043 19/08 Q1010=
201907101530 METAR LRSV 101530Z 31007KT 9999 FEW035CB 18/08 Q1011=
201907101600 METAR LRSV 101600Z 26008KT 9999 FEW048CB 17/10 Q1011=
201907101630 METAR LRSV 101630Z 33012KT 9999 SCT031CB 16/09 Q1011=
201907101700 METAR LRSV 101700Z 32006KT 9999 SCT035CB 16/09 Q1011=
201907101730 METAR LRSV 101730Z 30006KT 9999 FEW035CB 16/09 Q1011=
201907101800 METAR LRSV 101800Z 33007KT 9999 FEW040CB 15/09 Q1011=
201907101830 METAR LRSV 101830Z 29005KT CAVOK 14/09 Q1011=
201907101900 METAR LRSV 101900Z 29006KT CAVOK 13/09 Q1011=
201907101930 METAR LRSV 101930Z 27008KT CAVOK 13/09 Q1011=
201907102000 METAR LRSV 102000Z 28009KT CAVOK 13/10 Q1011=
201907102030 METAR LRSV 102030Z 27010KT CAVOK 13/10 Q1011=
201907102100 METAR LRSV 102100Z 28008KT CAVOK 13/10 Q1011=
201907102130 METAR LRSV 102130Z 31009KT CAVOK 14/09 Q1011=
201907102200 METAR LRSV 102200Z 29005KT CAVOK 12/09 Q1011=
201907102230 METAR LRSV 102230Z 27008KT CAVOK 12/09 Q1011=
201907102300 METAR LRSV 102300Z 27008KT CAVOK 11/09 Q1011=
201907102330 METAR LRSV 102330Z 28008KT CAVOK 12/09 Q1011=
201907110000 METAR LRSV 110000Z 29007KT CAVOK 12/09 Q1011=
201907110030 METAR LRSV 110030Z 28006KT CAVOK 11/09 Q1011=
201907110100 METAR LRSV 110100Z 27008KT 9999 FEW048 11/09 Q1011=
201907110130 METAR LRSV 110130Z 28006KT 9999 FEW048 11/09 Q1011=
201907110200 METAR LRSV 110200Z 28006KT CAVOK 11/08 Q1011=
201907110230 METAR LRSV 110230Z 32004KT 290V060 CAVOK 11/08 Q1011=
201907110300 METAR LRSV 110300Z 29005KT CAVOK 11/08 Q1011=
201907110330 METAR LRSV 110330Z 30004KT CAVOK 12/08 Q1011=
201907110400 METAR LRSV 110400Z 32007KT CAVOK 12/09 Q1011=
201907110430 METAR LRSV 110430Z 31008KT CAVOK 13/09 Q1011=
201907110500 METAR COR LRSV 110500Z 30007KT CAVOK 13/09 Q1011=
201907110530 METAR LRSV 110530Z 32012KT CAVOK 14/09 Q1011=
201907110600 METAR LRSV 110600Z 31011KT CAVOK 14/09 Q1011=
201907110630 METAR LRSV 110630Z 32012KT 9999 FEW040 15/08 Q1011=
201907110700 METAR LRSV 110700Z 31011KT 9999 FEW040 16/08 Q1011=
201907110730 METAR LRSV 110730Z 32012KT 290V360 9999 SCT040 17/08 Q1011=
201907110800 METAR LRSV 110800Z 31011KT 9999 SCT040 17/08 Q1011=
201907110830 METAR LRSV 110830Z 34010KT 320V020 9999 BKN040 18/08 Q1011=
201907110900 METAR COR LRSV 110900Z 34011KT 9999 BKN040 17/07 Q1011=
201907110930 METAR LRSV 110930Z 31010KT 270V340 9999 FEW040TCU 18/08 Q1010=
201907111000 METAR LRSV 111000Z 31009KT 280V350 9999 FEW044TCU 18/07 Q1010=
201907111030 METAR LRSV 111030Z 33008KT 290V010 9999 FEW044CB 19/08 Q1010=
201907111100 METAR LRSV 111100Z 34010KT 310V010 9999 FEW044CB 19/09 Q1010=
201907111130 METAR LRSV 111130Z 32013KT 290V350 9999 -SHRA SCT044CB 16/09
                        Q1010 R16/29//95=
201907111200 METAR LRSV 111200Z 28011KT 9999 -SHRA SCT044CB 15/10 Q1010
                        R16/29//95=
201907111230 METAR LRSV 111230Z 31007KT 290V350 9999 FEW044CB 16/10 Q1010
                        R16/29//95=
201907111300 METAR LRSV 111300Z 32006KT 270V010 9999 FEW045CB 18/10 Q1010
                        R16/29//95=
201907111330 METAR LRSV 111330Z 29007KT 9999 FEW045CB 17/09 Q1010 R16/29//95=
201907111400 METAR LRSV 111400Z 28007KT 9999 FEW045CB 17/10 Q1010 R16/CLRD//=
201907111430 METAR LRSV 111430Z 27012KT 9999 SCT040CB 15/08 Q1011=
201907111500 METAR LRSV 111500Z 25009KT 9999 -SHRA SCT040CB 14/10 Q1010=
201907111530 METAR LRSV 111530Z 28008KT 9999 -SHRA SCT040CB 14/09 Q1010
                        R16/29//95=
201907111600 METAR LRSV 111600Z 26006KT 9999 -SHRA SCT040CB 14/10 Q1010
                        R16/29//95=
201907111630 METAR LRSV 111630Z 26008KT 9999 FEW040CB 14/10 Q1010 R16/29//95=
201907111700 METAR LRSV 111700Z 28005KT CAVOK 14/10 Q1010 R16/29//95=
201907111730 METAR LRSV 111730Z 29006KT CAVOK 14/10 Q1011 R16/29//95=
201907111800 METAR LRSV 111800Z 27005KT CAVOK 13/11 Q1011 R16/29//95=
201907111830 METAR LRSV 111830Z 28005KT CAVOK 13/11 Q1011 R16/29//95=
201907111900 METAR LRSV 111900Z 25005KT 9999 -RA SCT042 13/11 Q1011 R16/29//95=
201907111930 METAR LRSV 111930Z 26002KT CAVOK 12/10 Q1011 R16/19//95=
201907112000 METAR LRSV 112000Z 28007KT CAVOK 12/09 Q1011 R16/19//95=
201907112030 METAR LRSV 112030Z 29005KT CAVOK 11/09 Q1011 R16/19//95=
201907112100 METAR LRSV 112100Z 27007KT CAVOK 11/10 Q1011 R16/19//95=
201907112130 METAR LRSV 112130Z 27007KT CAVOK 12/10 Q1011 R16/19//95=
201907112200 METAR LRSV 112200Z 29007KT CAVOK 12/11 Q1012 R16/19//95=
201907112230 METAR LRSV 112230Z 30009KT CAVOK 12/10 Q1012 R16/19//95=
201907112300 METAR LRSV 112300Z 30008KT CAVOK 12/10 Q1011 R16/19//95=
201907112330 METAR LRSV 112330Z 30009KT CAVOK 12/09 Q1011 R16/19//95=
201907120000 METAR LRSV 120000Z 30007KT CAVOK 11/09 Q1011 R16/19//95=
201907120030 METAR LRSV 120030Z 29006KT CAVOK 11/09 Q1011 R16/19//95=
201907120100 METAR LRSV 120100Z 30007KT CAVOK 11/09 Q1011 R16/19//95=
201907120130 METAR LRSV 120130Z 31008KT CAVOK 11/09 Q1011 R16/19//95=
201907120200 METAR LRSV 120200Z 30008KT 9999 FEW035 12/09 Q1011 R16/19//95=
201907120230 METAR LRSV 120230Z 31007KT 9999 FEW035 12/08 Q1011 R16/CLRD//=
201907120300 METAR LRSV 120300Z 31009KT CAVOK 11/08 Q1012=
201907120330 METAR LRSV 120330Z 30006KT CAVOK 12/08 Q1012=
201907120400 METAR LRSV 120400Z 31008KT CAVOK 13/09 Q1012=
201907120430 METAR LRSV 120430Z 31009KT CAVOK 13/09 Q1012=
201907120500 METAR LRSV 120500Z 32009KT 9999 FEW020 14/09 Q1012=
201907120530 METAR LRSV 120530Z 31009KT 280V340 CAVOK 14/09 Q1012=
201907120600 METAR LRSV 120600Z 31010KT 280V350 CAVOK 16/10 Q1012=
201907120630 METAR LRSV 120630Z 32011KT 9999 FEW022 16/10 Q1012=
201907120700 METAR LRSV 120700Z 32009KT 290V350 9999 SCT025 17/10 Q1012=
201907120730 METAR LRSV 120730Z 32009KT 280V350 9999 BKN027 17/10 Q1012=
201907120800 METAR LRSV 120800Z 34011KT 310V010 9999 BKN033 17/10 Q1012=
201907120830 METAR COR LRSV 120830Z 35010KT 310V020 9999 BKN034 18/10
                        Q1012=
201907120900 METAR LRSV 120900Z 36009KT 9999 SCT035 18/10 Q1012=
201907120930 METAR LRSV 120930Z 35010KT 9999 BKN037 18/10 Q1012=
201907121000 METAR LRSV 121000Z 34009KT 320V020 9999 SCT037 18/10 Q1012=
201907121030 METAR LRSV 121030Z 31007KT 290V360 9999 SCT040 19/10 Q1012=
201907121100 METAR LRSV 121100Z 33009KT 9999 SCT040 19/10 Q1012=
201907121130 METAR LRSV 121130Z 31006KT 280V350 9999 SCT040 20/10 Q1012=
201907121200 METAR LRSV 121200Z 33007KT 9999 SCT045 20/09 Q1012=
201907121230 METAR COR LRSV 121230Z 29006KT 250V330 9999 SCT047 21/09
                        Q1011=
201907121300 METAR LRSV 121300Z 36008KT 330V040 9999 SCT048 19/09 Q1011=
201907121330 METAR LRSV 121330Z 32008KT 280V020 CAVOK 21/10 Q1011=
201907121400 METAR LRSV 121400Z 32006KT 280V010 CAVOK 20/09 Q1011=
201907121430 METAR LRSV 121430Z 28010KT CAVOK 19/10 Q1011=
201907121500 METAR LRSV 121500Z 28009KT CAVOK 18/10 Q1011=
201907121530 METAR LRSV 121530Z 27007KT CAVOK 18/10 Q1011=
201907121600 METAR COR LRSV 121600Z 27007KT CAVOK 17/11 Q1011=
201907121630 METAR LRSV 121630Z 27006KT CAVOK 18/10 Q1011=
201907121700 METAR LRSV 121700Z 28008KT 9999 FEW045CB 17/10 Q1011=
201907121730 METAR LRSV 121730Z 26007KT 9999 FEW045CB 17/11 Q1012=
201907121800 METAR LRSV 121800Z 27006KT CAVOK 17/11 Q1012=
201907121830 METAR LRSV 121830Z 27008KT CAVOK 17/11 Q1012=
201907121900 METAR LRSV 121900Z 27008KT CAVOK 16/11 Q1012=
201907121930 METAR LRSV 121930Z 27010KT CAVOK 16/11 Q1012=
201907122000 METAR LRSV 122000Z 26007KT CAVOK 16/10 Q1012=
201907122030 METAR LRSV 122030Z 27009KT CAVOK 16/10 Q1012=
201907122100 METAR LRSV 122100Z 26008KT CAVOK 16/10 Q1012=
201907122130 METAR LRSV 122130Z 27010KT CAVOK 15/09 Q1012=
201907122200 METAR LRSV 122200Z 28010KT CAVOK 15/10 Q1012=
201907122230 METAR LRSV 122230Z 28009KT CAVOK 15/10 Q1012=
201907122300 METAR LRSV 122300Z 28008KT CAVOK 15/10 Q1012=
201907122330 METAR LRSV 122330Z 26005KT CAVOK 15/10 Q1011=
201907130000 METAR LRSV 130000Z 28009KT CAVOK 15/10 Q1011=
201907130030 METAR LRSV 130030Z 28009KT CAVOK 14/09 Q1011=
201907130100 METAR LRSV 130100Z 25007KT CAVOK 12/09 Q1011=
201907130130 METAR LRSV 130130Z 27009KT CAVOK 14/10 Q1011=
201907130200 METAR LRSV 130200Z 30006KT 270V330 CAVOK 13/09 Q1011=
201907130230 METAR LRSV 130230Z 29006KT CAVOK 13/09 Q1011=
201907130300 METAR LRSV 130300Z 26008KT CAVOK 12/09 Q1011=
201907130330 METAR LRSV 130330Z 26007KT CAVOK 12/09 Q1011=
201907130400 METAR LRSV 130400Z 26006KT CAVOK 13/10 Q1011=
201907130430 METAR LRSV 130430Z 27005KT CAVOK 15/10 Q1011=
201907130500 METAR LRSV 130500Z 25007KT CAVOK 15/10 Q1011=
201907130530 METAR LRSV 130530Z 25007KT CAVOK 16/10 Q1011=
201907130600 METAR LRSV 130600Z 26004KT 220V290 CAVOK 17/10 Q1011=
201907130630 METAR LRSV 130630Z 27004KT CAVOK 18/11 Q1011=
201907130700 METAR LRSV 130700Z 24005KT 210V270 CAVOK 19/10 Q1011=
201907130730 METAR LRSV 130730Z VRB02KT CAVOK 20/09 Q1011=
201907130800 METAR COR LRSV 130800Z 20003KT 130V260 9999 FEW030TCU 21/10
                        Q1011=
201907130830 METAR LRSV 130830Z VRB04KT 9999 SCT030TCU 21/09 Q1011=
201907130900 METAR LRSV 130900Z VRB01KT 9999 FEW036TCU SCT043 21/10 Q1011=
201907130930 METAR LRSV 130930Z 08003KT 020V150 9999 SCT043 21/10 Q1011=
201907131000 METAR LRSV 131000Z VRB04KT 9999 SCT040 22/10 Q1011=
201907131030 METAR LRSV 131030Z VRB02KT 9999 SCT040 22/09 Q1011=
201907131100 METAR LRSV 131100Z VRB03KT 9999 SCT040 21/08 Q1010=
201907131130 METAR LRSV 131130Z 09005KT 050V120 9999 FEW040 21/09 Q1010=
201907131200 METAR LRSV 131200Z 09006KT 060V140 9999 FEW040 21/09 Q1010=
201907131230 METAR LRSV 131230Z 11006KT 9999 FEW040 22/09 Q1010=
201907131300 METAR LRSV 131300Z 10006KT 050V160 9999 FEW040 22/09 Q1010=
201907131330 METAR LRSV 131330Z 15007KT 9999 FEW045 22/08 Q1009=
201907131400 METAR LRSV 131400Z 15004KT 090V250 9999 FEW045 23/09 Q1009=
201907131430 METAR LRSV 131430Z 15006KT 9999 FEW045 22/08 Q1009=
201907131500 METAR LRSV 131500Z 18007KT 9999 FEW045 23/09 Q1009=
201907131530 METAR LRSV 131530Z 16005KT 130V210 9999 FEW045 22/09 Q1009=
201907131600 METAR LRSV 131600Z 16003KT 130V220 9999 FEW045 22/09 Q1009=
201907131630 METAR LRSV 131630Z 16007KT 9999 FEW045 22/10 Q1009=
201907131700 METAR LRSV 131700Z 15004KT 9999 FEW045 20/10 Q1009=
201907131730 METAR LRSV 131730Z 14004KT CAVOK 20/10 Q1009=
201907131800 METAR LRSV 131800Z 13005KT CAVOK 19/09 Q1009=
201907131830 METAR LRSV 131830Z 11006KT CAVOK 18/10 Q1009=
201907131900 METAR LRSV 131900Z 13004KT 100V260 CAVOK 17/10 Q1009=
201907131930 METAR LRSV 131930Z 16002KT CAVOK 17/10 Q1009=
201907132000 METAR LRSV 132000Z 13003KT CAVOK 17/10 Q1009=
201907132030 METAR LRSV 132030Z 00000KT CAVOK 16/10 Q1009=
201907132100 METAR LRSV 132100Z 18002KT CAVOK 15/10 Q1009=
201907132130 METAR LRSV 132130Z 00000KT CAVOK 15/10 Q1009=
201907132200 METAR LRSV 132200Z 24003KT CAVOK 13/10 Q1009=
201907132230 METAR LRSV 132230Z 35003KT CAVOK 14/10 Q1009=
201907132300 METAR LRSV 132300Z 36005KT CAVOK 13/10 Q1009=
201907132330 METAR LRSV 132330Z 34006KT CAVOK 14/10 Q1009=
201907140000 METAR LRSV 140000Z 33006KT CAVOK 13/10 Q1009=
201907140030 METAR LRSV 140030Z 33007KT CAVOK 15/10 Q1009=
201907140100 METAR LRSV 140100Z 33009KT CAVOK 14/11 Q1009=
201907140130 METAR LRSV 140130Z 33009KT CAVOK 13/11 Q1009=
201907140200 METAR LRSV 140200Z 32007KT CAVOK 13/11 Q1009=
201907140230 METAR COR LRSV 140230Z 34008KT CAVOK 12/10 Q1009=
201907140300 METAR LRSV 140300Z 33008KT CAVOK 13/11 Q1009=
201907140330 METAR LRSV 140330Z 34008KT CAVOK 14/12 Q1009=
201907140400 METAR LRSV 140400Z 33009KT CAVOK 15/12 Q1009=
201907140430 METAR LRSV 140430Z 33008KT CAVOK 16/12 Q1009=
201907140500 METAR LRSV 140500Z 33007KT 9999 FEW040CB 17/12 Q1009=
201907140530 METAR LRSV 140530Z 34009KT 9999 FEW040CB 16/12 Q1009=
201907140600 METAR LRSV 140600Z 35009KT CAVOK 16/12 Q1009=
201907140630 METAR LRSV 140630Z 36006KT 310V030 CAVOK 17/12 Q1009=
201907140700 METAR LRSV 140700Z 34005KT 290V010 CAVOK 18/13 Q1009=
201907140730 METAR LRSV 140730Z 32007KT CAVOK 18/13 Q1009=
201907140800 METAR LRSV 140800Z 33008KT 300V010 9999 FEW040 19/13 Q1009=
201907140830 METAR LRSV 140830Z 36007KT 330V030 9999 FEW040 19/12 Q1009=
201907140900 METAR LRSV 140900Z 36008KT 330V040 9999 FEW040 20/13 Q1009=
201907140930 METAR LRSV 140930Z 02007KT 340V050 9999 SCT040 20/13 Q1009=
201907141000 METAR LRSV 141000Z 01007KT 330V040 9999 SCT040 20/13 Q1009=
201907141030 METAR LRSV 141030Z 01007KT 330V050 9999 SCT040TCU 21/13 Q1009=
201907141100 METAR LRSV 141100Z 33008KT 9999 SCT040TCU 22/12 Q1008=
201907141130 METAR LRSV 141130Z 04006KT 350V090 9999 FEW040CB 22/12 Q1008=
201907141200 METAR LRSV 141200Z 02005KT 320V080 9999 FEW040CB 22/12 Q1008=
201907141230 METAR LRSV 141230Z VRB01KT 9999 SCT040CB 22/10 Q1008=
201907141300 METAR LRSV 141300Z 04005KT 010V090 9999 SCT040CB 22/11 Q1008=
201907141330 METAR LRSV 141330Z 36009KT 330V030 9999 SCT040CB 20/13 Q1008=
201907141400 METAR LRSV 141400Z 05011KT 9999 -TSRA SCT040CB 17/13 Q1008=
201907141430 METAR LRSV 141430Z 11005KT 070V160 4000 TSRA BKN040CB 14/12
                        Q1009 R16/29//95=
201907141500 METAR LRSV 141500Z 06005KT 9999 -TSRA BKN040CB 14/12 Q1009
                        R16/29//95=
201907141530 METAR LRSV 141530Z 29005KT 9999 -TSRA BKN040CB 14/12 Q1009
                        R16/29//95=
201907141600 METAR LRSV 141600Z 27008KT 9999 -SHRA SCT040CB 14/12 Q1009
                        R16/29//95=
201907141630 METAR LRSV 141630Z 26010KT 9999 -SHRA SCT040CB 14/12 Q1009
                        R16/29//95=
201907141700 METAR LRSV 141700Z 28010KT 9999 -SHRA SCT033CB 14/13 Q1010
                        R16/29//95=
201907141730 METAR LRSV 141730Z 30009KT 9999 -SHRA SCT035CB 14/12 Q1010
                        R16/29//95=
201907141800 METAR LRSV 141800Z 31008KT 9999 -RA BKN040 14/13 Q1010 R16/29//95=
201907141830 METAR COR LRSV 141830Z 31007KT 9999 -RA SCT040 14/13 Q1010
                        R16/29//95=
201907141900 METAR LRSV 141900Z 04006KT 340V100 9999 -RA FEW024 BKN032
                        14/13 Q1010 R16/29//95=
201907141930 METAR LRSV 141930Z 00000KT 9999 -RA SCT004 BKN024 14/13 Q1010
                        R16/29//95=
201907142000 METAR LRSV 142000Z 32004KT 9999 FEW006 SCT024 14/13 Q1010
                        R16/29//95=
201907142030 METAR LRSV 142030Z 30005KT CAVOK 14/13 Q1010 R16/29//95=
201907142100 METAR LRSV 142100Z 31009KT CAVOK 14/12 Q1010 R16/29//95=
201907142130 METAR LRSV 142130Z 31009KT CAVOK 14/12 Q1009 R16/29//95=
201907142200 METAR LRSV 142200Z 31007KT CAVOK 14/12 Q1009 R16/29//95=
201907142230 METAR LRSV 142230Z 31009KT CAVOK 14/12 Q1009 R16/29//95=
201907142300 METAR LRSV 142300Z 31011KT CAVOK 14/12 Q1009 R16/29//95=
201907142330 METAR LRSV 142330Z 32011KT CAVOK 14/12 Q1009 R16/29//95=
201907150000 METAR LRSV 150000Z 33008KT CAVOK 14/12 Q1009 R16/29//95=
201907150030 METAR LRSV 150030Z 34004KT 9999 -RA BKN044 13/12 Q1010 R16/29//95=
201907150100 METAR LRSV 150100Z VRB01KT 9999 -RA BKN010 13/12 Q1010 R16/29//95=
201907150130 METAR LRSV 150130Z 35004KT 9999 BKN010 13/12 Q1010 R16/19//95=
201907150200 METAR LRSV 150200Z 32006KT 9999 SCT010 14/12 Q1010 R16/19//95=
201907150230 METAR COR LRSV 150230Z 33007KT 9999 -RA FEW016 13/13 Q1010
                        R16/19//95=
201907150300 METAR LRSV 150300Z 34009KT 6000 -RA SCT006 13/13 Q1010 R16/29//95=
201907150330 METAR LRSV 150330Z 34009KT 6000 -RA FEW006 SCT017 BKN021
                        13/13 Q1010 R16/29//95=
201907150400 METAR LRSV 150400Z 33008KT 8000 -RA SCT004 BKN006 13/13 Q1010
                        R16/29//95=
201907150430 METAR LRSV 150430Z 33010KT 9999 -RA SCT005 BKN009 13/12 Q1010
                        R16/29//95=
201907150500 METAR LRSV 150500Z AUTO 33010KT 9999 FEW007/// SCT021///
                        BKN031/// 13/12 Q1010 REDZ=
201907150530 METAR LRSV 150530Z AUTO 33011KT 9999 FEW034/// BKN045///
                        OVC060/// 13/12 Q1011=
201907150600 METAR LRSV 150600Z AUTO 34010KT 9999 SCT033/// BKN044///
                        BKN050/// 14/12 Q1011=
201907150630 METAR LRSV 150630Z AUTO 34010KT 9999 FEW035/// BKN046///
                        OVC065/// 14/12 Q1011=
201907150700 METAR COR LRSV 150700Z 33011KT 9999 BKN047 14/13 Q1011 R16/29//95=
201907150730 METAR COR LRSV 150730Z 33009KT 9999 BKN030 15/13 Q1011 R16/29//95=
201907150800 METAR LRSV 150800Z 33011KT 9999 FEW016 BKN033 16/13 Q1011
                        R16/29//95=
201907150830 METAR LRSV 150830Z 33012KT 9999 FEW016 BKN038 16/13 Q1011
                        R16/29//95=
201907150900 METAR LRSV 150900Z 33011KT 300V360 9999 FEW016 BKN040 16/12
                        Q1011 R16/29//95=
201907150930 METAR LRSV 150930Z 33011KT 9999 FEW016 BKN027 17/13 Q1011
                        R16/29//95=
201907151000 METAR LRSV 151000Z 33013KT 300V360 9999 FEW019 BKN029 17/12
                        Q1011 R16/CLRD//=
201907151030 METAR COR LRSV 151030Z 35012KT 9999 BKN044 18/11 Q1011=
201907151100 METAR LRSV 151100Z 35010KT 310V020 9999 SCT045 19/11 Q1011=
201907151130 METAR COR LRSV 151130Z 01009KT 9999 FEW033CB SCT036 19/11
                        Q1011=
201907151200 METAR LRSV 151200Z 36009KT 9999 FEW033CB SCT036 19/10 Q1011=
201907151230 METAR LRSV 151230Z 33006KT 9999 FEW033CB SCT038 18/11 Q1011=
201907151300 METAR LRSV 151300Z 36008KT 330V030 9999 FEW033CB 19/10 Q1011=
201907151330 METAR LRSV 151330Z 33012KT 9999 SCT045CB 19/12 Q1011=
201907151400 METAR LRSV 151400Z 34009KT 9999 FEW045CB 19/12 Q1011=
201907151430 METAR COR LRSV 151430Z 34008KT 9999 FEW045CB 19/12 Q1011=
201907151500 METAR LRSV 151500Z 32007KT 9999 FEW045CB 19/12 Q1011=
201907151530 METAR LRSV 151530Z 32005KT 9999 FEW045CB 19/11 Q1011=
201907151600 METAR LRSV 151600Z 30005KT CAVOK 20/12 Q1011=
201907151630 METAR LRSV 151630Z 33008KT CAVOK 20/12 Q1011=
201907151700 METAR LRSV 151700Z 32006KT CAVOK 19/11 Q1011=
201907151730 METAR LRSV 151730Z 30005KT CAVOK 17/12 Q1011=
201907151800 METAR LRSV 151800Z 29005KT CAVOK 16/11 Q1011=
201907151830 METAR LRSV 151830Z 30006KT CAVOK 16/10 Q1011=
201907151900 METAR LRSV 151900Z 31006KT CAVOK 16/10 Q1012=
201907151930 METAR COR LRSV 151930Z 30007KT CAVOK 15/10 Q1012=
201907152000 METAR LRSV 152000Z 30007KT CAVOK 15/10 Q1012=
201907152030 METAR LRSV 152030Z 30008KT CAVOK 15/10 Q1012=
201907152100 METAR LRSV 152100Z 31008KT CAVOK 15/10 Q1012=
201907152130 METAR LRSV 152130Z 32008KT CAVOK 15/10 Q1012=
201907152200 METAR LRSV 152200Z 31009KT CAVOK 15/10 Q1012=
201907152230 METAR LRSV 152230Z 32008KT CAVOK 14/10 Q1012=
201907152300 METAR LRSV 152300Z 32008KT CAVOK 14/10 Q1012=
201907152330 METAR LRSV 152330Z 31007KT CAVOK 14/10 Q1012=
201907160000 METAR LRSV 160000Z 31009KT CAVOK 14/09 Q1012=
201907160030 METAR LRSV 160030Z 33006KT CAVOK 13/09 Q1012=
201907160100 METAR LRSV 160100Z 31009KT CAVOK 14/10 Q1012=
201907160130 METAR LRSV 160130Z 31010KT CAVOK 14/10 Q1012=
201907160200 METAR LRSV 160200Z 31009KT CAVOK 13/09 Q1012=
201907160230 METAR LRSV 160230Z 31010KT CAVOK 14/09 Q1012=
201907160300 METAR LRSV 160300Z 31010KT CAVOK 14/09 Q1012=
201907160330 METAR LRSV 160330Z AUTO 32008KT 9999 NCD 14/10 Q1012=
201907160400 METAR LRSV 160400Z AUTO 32008KT 9999 NCD 14/10 Q1012=
201907160430 METAR LRSV 160430Z AUTO 31009KT 9999 NCD 15/10 Q1012=
201907160500 METAR LRSV 160500Z AUTO 31008KT 9999 NCD 16/10 Q1012=
201907160530 METAR LRSV 160530Z AUTO 32008KT 9999 NCD 17/10 Q1012=
201907160600 METAR LRSV 160600Z AUTO 33009KT 290V350 9999 NCD 17/10 Q1012=
201907160630 METAR LRSV 160630Z AUTO 34009KT 9999 NCD 18/11 Q1012=
201907160700 METAR COR LRSV 160700Z 33010KT 300V360 CAVOK 18/11 Q1012=
201907160730 METAR COR LRSV 160730Z 33011KT CAVOK 18/11 Q1012=
201907160800 METAR LRSV 160800Z 01009KT 340V040 CAVOK 19/10 Q1012=
201907160830 METAR LRSV 160830Z 36008KT 340V040 9999 FEW033 19/11 Q1012=
201907160900 METAR LRSV 160900Z 35006KT 310V040 9999 SCT039 20/11 Q1012=
201907160930 METAR LRSV 160930Z 35008KT 320V020 9999 SCT043 20/10 Q1012=
201907161000 METAR COR LRSV 161000Z 02009KT 350V050 CAVOK 21/10 Q1012=
201907161030 METAR LRSV 161030Z 32008KT 290V350 CAVOK 21/09 Q1012=
201907161100 METAR LRSV 161100Z 29005KT 210V340 CAVOK 21/09 Q1012=
201907161130 METAR LRSV 161130Z 35007KT 310V060 CAVOK 21/08 Q1012=
201907161200 METAR LRSV 161200Z 30008KT CAVOK 22/09 Q1011=
201907161230 METAR LRSV 161230Z 31008KT CAVOK 22/09 Q1011=
201907161300 METAR LRSV 161300Z 32006KT 290V020 CAVOK 23/09 Q1011=
201907161330 METAR COR LRSV 161330Z 34005KT 290V020 CAVOK 22/08 Q1011=
201907161400 METAR COR LRSV 161400Z 33004KT 300V020 CAVOK 22/08 Q1011=
201907161430 METAR COR LRSV 161430Z 27005KT 250V310 CAVOK 22/08 Q1011=
201907161500 METAR COR LRSV 161500Z 30003KT 240V050 CAVOK 23/08 Q1011=
201907161530 METAR LRSV 161530Z 33005KT 300V360 CAVOK 23/07 Q1011=
201907161600 METAR LRSV 161600Z 33005KT CAVOK 23/08 Q1011=
201907161630 METAR LRSV 161630Z 32004KT CAVOK 23/08 Q1010=
201907161700 METAR LRSV 161700Z 29002KT CAVOK 22/10 Q1010=
201907161730 METAR LRSV 161730Z 29002KT CAVOK 20/11 Q1011=
201907161800 METAR LRSV 161800Z 33002KT CAVOK 19/10 Q1011=
201907161830 METAR LRSV 161830Z 03002KT CAVOK 18/11 Q1011=
201907161900 METAR LRSV 161900Z VRB01KT CAVOK 18/10 Q1011=
201907161930 METAR LRSV 161930Z VRB02KT CAVOK 18/10 Q1011=
201907162000 METAR LRSV 162000Z 23004KT CAVOK 17/12 Q1011=
201907162030 METAR LRSV 162030Z 25005KT CAVOK 17/11 Q1011=
201907162100 METAR LRSV 162100Z 24005KT CAVOK 17/11 Q1011=
201907162130 METAR LRSV 162130Z 24005KT CAVOK 16/11 Q1011=
201907162200 METAR LRSV 162200Z 25006KT CAVOK 16/10 Q1011=
201907162230 METAR LRSV 162230Z 26006KT CAVOK 15/11 Q1011=
201907162300 METAR LRSV 162300Z 25008KT CAVOK 15/11 Q1011=
201907162330 METAR LRSV 162330Z 25008KT CAVOK 14/11 Q1011=
201907170000 METAR LRSV 170000Z 26008KT CAVOK 15/11 Q1011=
201907170030 METAR LRSV 170030Z 25008KT CAVOK 14/11 Q1010=
201907170100 METAR LRSV 170100Z 26010KT CAVOK 14/11 Q1010=
201907170130 METAR LRSV 170130Z 31011KT CAVOK 15/10 Q1010=
201907170200 METAR LRSV 170200Z 32014KT CAVOK 15/10 Q1011=
201907170230 METAR LRSV 170230Z 33014KT CAVOK 14/10 Q1011=
201907170300 METAR LRSV 170300Z 34011KT CAVOK 14/10 Q1011=
201907170330 METAR LRSV 170330Z AUTO 33008KT 9999 FEW130/// 14/10 Q1011=
201907170400 METAR LRSV 170400Z AUTO 33009KT 9999 BKN130/// 14/11 Q1011=
201907170430 METAR LRSV 170430Z AUTO 34010KT 9999 BKN120/// 15/11 Q1011=
201907170500 METAR COR LRSV 170500Z 34008KT CAVOK 14/11 Q1011=
201907170530 METAR LRSV 170530Z 34007KT 9999 -SHRA FEW045CB 14/11 Q1011=
201907170600 METAR LRSV 170600Z 33005KT 290V350 9999 FEW045CB 15/11 Q1011=
201907170630 METAR LRSV 170630Z 33005KT 300V360 9999 FEW045CB 15/11 Q1011=
201907170700 METAR LRSV 170700Z 35006KT 320V030 9999 FEW045CB 16/11 Q1011=
201907170730 METAR LRSV 170730Z 34006KT 310V010 CAVOK 17/11 Q1011=
201907170800 METAR LRSV 170800Z 01006KT 340V060 CAVOK 18/11 Q1011=
201907170830 METAR LRSV 170830Z 04006KT 340V080 9999 FEW029 18/11 Q1011=
201907170900 METAR LRSV 170900Z VRB04KT 9999 SCT038 19/12 Q1011=
201907170930 METAR LRSV 170930Z 01006KT 300V060 9999 SCT030 19/11 Q1011=
201907171000 METAR LRSV 171000Z 02009KT 9999 SCT031 20/12 Q1010=
201907171030 METAR LRSV 171030Z 02003KT 320V080 9999 BKN031 19/12 Q1010=
201907171100 METAR LRSV 171100Z 06003KT 010V130 9999 BKN032 19/11 Q1010=
201907171130 METAR LRSV 171130Z 06005KT 030V100 9999 SCT032 20/13 Q1010=
201907171200 METAR LRSV 171200Z VRB02KT 9999 SCT034 20/11 Q1010=
201907171230 METAR LRSV 171230Z VRB04KT 9999 SCT037 21/12 Q1010=
201907171300 METAR LRSV 171300Z 34004KT 280V040 9999 BKN035 21/12 Q1010=
201907171330 METAR LRSV 171330Z AUTO 03005KT 340V080 9999 FEW036/// SCT042///
                        BKN080/// 20/12 Q1010=
201907171400 METAR LRSV 171400Z AUTO 02005KT 350V080 9999 FEW080/// BKN095///
                        21/13 Q1010=
201907171430 METAR LRSV 171430Z AUTO 01006KT 320V070 9999 FEW035/// SCT100///
                        20/12 Q1010=
201907171500 METAR LRSV 171500Z 35005KT 300V020 9999 SCT035 21/12 Q1010=
201907171530 METAR LRSV 171530Z 01005KT 340V040 9999 SCT035 20/13 Q1010=
201907171600 METAR LRSV 171600Z 01006KT 9999 FEW034CB 20/12 Q1010=
201907171630 METAR LRSV 171630Z 33003KT 280V010 9999 SCT039CB 19/13 Q1010=
201907171700 METAR LRSV 171700Z 32004KT 9999 FEW040CB 19/13 Q1010=
201907171730 METAR LRSV 171730Z 33004KT 9999 SCT040 19/12 Q1010=
201907171800 METAR LRSV 171800Z 32005KT 9999 SCT040CB 18/11 Q1011=
201907171830 METAR LRSV 171830Z 32017KT 9999 -SHRA SCT040CB 17/13 Q1012
                        R16/29//95=
201907171900 METAR LRSV 171900Z 34009KT 9999 FEW048CB 15/12 Q1012 R16/29//95=
201907171930 METAR LRSV 171930Z 34005KT CAVOK 15/12 Q1012 R16/CLRD//=
201907172000 METAR LRSV 172000Z 33006KT CAVOK 15/12 Q1012=
201907172030 METAR LRSV 172030Z 33004KT CAVOK 15/12 Q1012=
201907172100 METAR LRSV 172100Z 25004KT CAVOK 14/12 Q1013=
201907172130 METAR LRSV 172130Z 26004KT CAVOK 14/13 Q1013=
201907172200 METAR LRSV 172200Z 30004KT CAVOK 14/12 Q1013=
201907172230 METAR LRSV 172230Z 29005KT CAVOK 13/11 Q1012=
201907172300 METAR LRSV 172300Z 29006KT CAVOK 13/11 Q1012=
201907172330 METAR LRSV 172330Z 29005KT CAVOK 13/11 Q1012=
201907180000 METAR LRSV 180000Z 27007KT CAVOK 13/11 Q1012=
201907180030 METAR LRSV 180030Z 25007KT CAVOK 12/11 Q1012=
201907180100 METAR LRSV 180100Z 25007KT CAVOK 12/11 Q1012=
201907180130 METAR LRSV 180130Z 26008KT CAVOK 13/11 Q1012=
201907180200 METAR LRSV 180200Z 27008KT CAVOK 13/10 Q1012=
201907180230 METAR LRSV 180230Z 28009KT CAVOK 13/10 Q1013=
201907180300 METAR LRSV 180300Z 28008KT CAVOK 13/09 Q1013=
201907180330 METAR LRSV 180330Z AUTO 29005KT 9999 NCD 13/09 Q1013=
201907180400 METAR LRSV 180400Z AUTO 30005KT 9999 NCD 14/10 Q1013=
201907180430 METAR LRSV 180430Z AUTO 30006KT 9999 NCD 15/10 Q1013=
201907180500 METAR LRSV 180500Z AUTO 29006KT 9999 FEW046/// 16/10 Q1013=
201907180530 METAR LRSV 180530Z AUTO 33008KT 9999 FEW046/// 16/11 Q1013=
201907180600 METAR LRSV 180600Z AUTO 33007KT 9999 FEW046/// 17/11 Q1013=
201907180630 METAR LRSV 180630Z AUTO 33004KT 280V080 9999 FEW045/// /////
                        Q1014=
201907180700 METAR COR LRSV 180700Z 01005KT 340V050 CAVOK 17/11 Q1014=
201907180730 METAR COR LRSV 180730Z VRB06KT CAVOK 19/11 Q1014=
201907180800 METAR LRSV 180800Z 32009KT CAVOK 19/10 Q1014=
201907180830 METAR LRSV 180830Z 33006KT 9999 SCT038 19/11 Q1014=
201907180900 METAR LRSV 180900Z 35007KT 310V010 9999 SCT039 20/11 Q1014=
201907180930 METAR LRSV 180930Z 34005KT 290V020 9999 SCT041 20/10 Q1013=
201907181000 METAR LRSV 181000Z 33005KT 220V020 9999 SCT046 20/10 Q1013=
201907181030 METAR LRSV 181030Z 29004KT 230V030 9999 BKN047 20/09 Q1014=
201907181100 METAR LRSV 181100Z VRB04KT CAVOK 21/10 Q1014=
201907181130 METAR LRSV 181130Z 33008KT CAVOK 21/11 Q1014=
201907181200 METAR LRSV 181200Z 03005KT 340V090 CAVOK 22/09 Q1014=
201907181230 METAR COR LRSV 181230Z 36009KT CAVOK 21/09 Q1014=
201907181300 METAR LRSV 181300Z 31007KT CAVOK 22/10 Q1014=
201907181330 METAR LRSV 181330Z 31007KT 270V350 CAVOK 22/10 Q1014=
201907181400 METAR LRSV 181400Z 35008KT CAVOK 22/10 Q1014=
201907181430 METAR LRSV 181430Z 34006KT CAVOK 21/09 Q1014=
201907181500 METAR LRSV 181500Z VRB02KT CAVOK 22/10 Q1014=
201907181530 METAR LRSV 181530Z 33007KT CAVOK 22/09 Q1014=
201907181600 METAR LRSV 181600Z 35006KT 320V030 CAVOK 21/10 Q1014=
201907181630 METAR LRSV 181630Z 34005KT CAVOK 21/10 Q1014=
201907181700 METAR LRSV 181700Z 03003KT CAVOK 20/10 Q1014=
201907181730 METAR LRSV 181730Z 03002KT 360V060 CAVOK 20/10 Q1014=
201907181800 METAR LRSV 181800Z 01004KT CAVOK 20/10 Q1015=
201907181830 METAR LRSV 181830Z 03003KT CAVOK 19/10 Q1015=
201907181900 METAR LRSV 181900Z 00000KT CAVOK 19/11 Q1015=
201907181930 METAR LRSV 181930Z 03001KT CAVOK 19/10 Q1015=
201907182000 METAR LRSV 182000Z VRB01KT CAVOK 18/11 Q1016=
201907182030 METAR LRSV 182030Z 35002KT CAVOK 18/10 Q1016=
201907182100 METAR LRSV 182100Z 36002KT CAVOK 18/10 Q1016=
201907182130 METAR LRSV 182130Z 36001KT CAVOK 17/10 Q1016=
201907182200 METAR LRSV 182200Z 25001KT CAVOK 16/10 Q1016=
201907182230 METAR LRSV 182230Z 22001KT CAVOK 17/10 Q1016=
201907182300 METAR LRSV 182300Z 25005KT CAVOK 16/11 Q1016=
201907182330 METAR LRSV 182330Z 25004KT CAVOK 15/12 Q1016=
201907190000 METAR LRSV 190000Z 24004KT CAVOK 16/13 Q1016=
201907190030 METAR LRSV 190030Z 25003KT 9999 FEW045CB 16/13 Q1016=
201907190100 METAR LRSV 190100Z 23002KT 9999 FEW045CB 16/13 Q1016=
201907190130 METAR LRSV 190130Z 22004KT 9999 FEW045CB 16/13 Q1016=
201907190200 METAR LRSV 190200Z 24005KT 9999 FEW040CB SCT045 15/13 Q1016=
201907190230 METAR LRSV 190230Z 24004KT 9999 FEW040CB SCT045 15/13 Q1016=
201907190300 METAR LRSV 190300Z 25006KT 9999 FEW045CB 15/13 Q1016=
201907190330 METAR LRSV 190330Z AUTO 23003KT 9999 SCT095/// 15/13 Q1017=
201907190400 METAR LRSV 190400Z AUTO 24003KT 9999 FEW080/// BKN150///
                        15/14 Q1016=
201907190430 METAR LRSV 190430Z AUTO 20004KT 9999 FEW090/// SCT150///
                        16/14 Q1017=
201907190500 METAR LRSV 190500Z AUTO 25002KT 200V290 9999 NCD 17/14 Q1017=
201907190530 METAR LRSV 190530Z AUTO VRB01KT 9999 NCD 19/14 Q1017=
201907190600 METAR LRSV 190600Z AUTO 06004KT 020V090 9999 NCD 19/15 Q1017=
201907190630 METAR LRSV 190630Z AUTO 06004KT 010V100 9999 FEW021/// 19/15
                        Q1017=
201907190700 METAR COR LRSV 190700Z VRB03KT CAVOK 20/14 Q1017=
201907190730 METAR LRSV 190730Z 05005KT 350V080 CAVOK 20/14 Q1017=
201907190800 METAR LRSV 190800Z 06004KT 360V110 CAVOK 21/14 Q1017=
201907190830 METAR LRSV 190830Z VRB04KT 9999 FEW028 22/14 Q1017=
201907190900 METAR COR LRSV 190900Z VRB03KT 9999 SCT034 23/14 Q1017=
201907190930 METAR LRSV 190930Z VRB02KT 9999 SCT034TCU 22/14 Q1017=
201907191000 METAR LRSV 191000Z 36006KT 310V040 9999 SCT036TCU 23/14 Q1017=
201907191030 METAR LRSV 191030Z VRB04KT 9999 SCT040 23/13 Q1017=
201907191100 METAR LRSV 191100Z 12004KT 050V210 9999 SCT043 24/13 Q1017=
201907191130 METAR LRSV 191130Z 06008KT 9999 FEW047 24/12 Q1017=
201907191200 METAR LRSV 191200Z 07006KT 030V100 CAVOK 24/11 Q1017=
201907191230 METAR LRSV 191230Z 01005KT 330V080 CAVOK 24/11 Q1017=
201907191300 METAR LRSV 191300Z 06007KT 040V100 CAVOK 24/12 Q1017=
201907191330 METAR LRSV 191330Z 05006KT 020V090 CAVOK 23/10 Q1017=
201907191400 METAR LRSV 191400Z 07007KT CAVOK 25/12 Q1017=
201907191430 METAR LRSV 191430Z 08005KT 010V110 CAVOK 24/11 Q1017=
201907191500 METAR LRSV 191500Z 10004KT 080V140 CAVOK 24/12 Q1017=
201907191530 METAR LRSV 191530Z 11007KT 080V170 CAVOK 24/11 Q1017=
201907191600 METAR LRSV 191600Z 10005KT 050V120 CAVOK 24/11 Q1017=
201907191630 METAR LRSV 191630Z 10005KT CAVOK 24/12 Q1017=
201907191700 METAR LRSV 191700Z 11005KT CAVOK 23/12 Q1017=
201907191730 METAR LRSV 191730Z 12004KT CAVOK 22/13 Q1017=
201907191800 METAR LRSV 191800Z 12004KT CAVOK 22/13 Q1017=
201907191830 METAR LRSV 191830Z 13006KT CAVOK 20/13 Q1017=
201907191900 METAR LRSV 191900Z 18004KT CAVOK 18/13 Q1018=
201907191930 METAR LRSV 191930Z 20004KT CAVOK 18/13 Q1018=
201907192000 METAR LRSV 192000Z 23006KT CAVOK 18/13 Q1018=
201907192030 METAR LRSV 192030Z 22007KT CAVOK 17/13 Q1018=
201907192100 METAR LRSV 192100Z 23005KT CAVOK 17/13 Q1018=
201907192130 METAR LRSV 192130Z 24005KT CAVOK 16/13 Q1018=
201907192200 METAR LRSV 192200Z 23005KT CAVOK 17/13 Q1018=
201907192230 METAR LRSV 192230Z 23005KT CAVOK 15/13 Q1018=
201907192300 METAR LRSV 192300Z 24006KT CAVOK 15/13 Q1018=
201907192330 METAR LRSV 192330Z 24007KT CAVOK 16/13 Q1018=
201907200000 METAR LRSV 200000Z 25007KT CAVOK 16/13 Q1018=
201907200030 METAR LRSV 200030Z 26008KT CAVOK 16/13 Q1018=
201907200100 METAR LRSV 200100Z 26009KT CAVOK 16/13 Q1018=
201907200130 METAR LRSV 200130Z 26008KT CAVOK 16/12 Q1018=
201907200200 METAR LRSV 200200Z 27004KT 250V310 CAVOK 16/12 Q1018=
201907200230 METAR LRSV 200230Z 27007KT CAVOK 16/12 Q1018=
201907200300 METAR LRSV 200300Z 27008KT CAVOK 16/12 Q1019=
201907200330 METAR LRSV 200330Z AUTO 27007KT 9999 NCD 17/12 Q1019=
201907200400 METAR LRSV 200400Z AUTO 26006KT 9999 NCD 16/13 Q1019=
201907200430 METAR LRSV 200430Z 28005KT CAVOK 18/14 Q1019=
201907200500 METAR LRSV 200500Z 27005KT CAVOK 19/14 Q1019=
201907200530 METAR LRSV 200530Z 26004KT CAVOK 20/14 Q1019=
201907200600 METAR LRSV 200600Z 26004KT 240V300 CAVOK 21/14 Q1019=
201907200630 METAR LRSV 200630Z 25005KT CAVOK 21/14 Q1019=
201907200700 METAR LRSV 200700Z VRB02KT CAVOK 23/13 Q1019=
201907200730 METAR LRSV 200730Z VRB03KT CAVOK 23/15 Q1019=
201907200800 METAR LRSV 200800Z VRB02KT CAVOK 24/14 Q1020=
201907200830 METAR LRSV 200830Z 06005KT 340V130 CAVOK 25/15 Q1020=
201907200900 METAR LRSV 200900Z 06004KT 010V140 9999 FEW036 25/15 Q1020=
201907200930 METAR LRSV 200930Z VRB02KT 9999 FEW041 24/14 Q1020=
201907201000 METAR LRSV 201000Z VRB04KT 9999 FEW042 24/14 Q1020=
201907201030 METAR COR LRSV 201030Z 06004KT 9999 FEW044 24/13 Q1019=
201907201100 METAR LRSV 201100Z 12004KT 080V150 9999 FEW046CB 24/14 Q1019=
201907201130 METAR LRSV 201130Z VRB03KT 9999 FEW045CB 26/14 Q1019=
201907201200 METAR LRSV 201200Z 10003KT 9999 FEW045CB 25/13 Q1019=
201907201230 METAR LRSV 201230Z VRB01KT 9999 FEW045CB 25/13 Q1019=
201907201300 METAR LRSV 201300Z 30010KT 9999 SCT045CB 22/13 Q1019=
201907201330 METAR LRSV 201330Z 30011KT 9999 FEW045TCU 22/12 Q1019=
201907201400 METAR LRSV 201400Z 27010KT 9999 FEW050CB 23/13 Q1019=
201907201430 METAR LRSV 201430Z 28010KT 9999 FEW050CB 23/13 Q1019=
201907201500 METAR LRSV 201500Z 27010KT CAVOK 23/14 Q1019=
201907201530 METAR LRSV 201530Z 24009KT CAVOK 23/14 Q1019=
201907201600 METAR LRSV 201600Z 24007KT CAVOK 22/14 Q1019=
201907201630 METAR LRSV 201630Z 24007KT 9999 FEW050CB 22/14 Q1019=
201907201700 METAR LRSV 201700Z 24005KT 9999 FEW050CB 20/14 Q1019=
201907201730 METAR LRSV 201730Z 23004KT 9999 FEW050CB 20/15 Q1019=
201907201800 METAR LRSV 201800Z 26005KT 9999 FEW050CB 20/14 Q1020=
201907201830 METAR LRSV 201830Z 27006KT CAVOK 19/14 Q1020=
201907201900 METAR LRSV 201900Z 31005KT 280V040 CAVOK 19/13 Q1020=
201907201930 METAR LRSV 201930Z 32004KT CAVOK 18/13 Q1020=
201907202000 METAR LRSV 202000Z 32003KT CAVOK 18/14 Q1020=
201907202030 METAR LRSV 202030Z 25005KT CAVOK 17/14 Q1020=
201907202100 METAR LRSV 202100Z 25001KT CAVOK 17/13 Q1020=
201907202130 METAR COR LRSV 202130Z 26006KT CAVOK 17/14 Q1020=
201907202200 METAR LRSV 202200Z 26006KT CAVOK 17/14 Q1020=
201907202230 METAR COR LRSV 202230Z 26006KT CAVOK 17/14 Q1020=
201907202300 METAR LRSV 202300Z 27007KT CAVOK 18/15 Q1020=
201907202330 METAR LRSV 202330Z VRB02KT CAVOK 18/15 Q1020=
201907210000 METAR LRSV 210000Z 27002KT 240V310 CAVOK 17/14 Q1020=
201907210030 METAR LRSV 210030Z 25004KT 240V310 CAVOK 16/14 Q1020=
201907210100 METAR LRSV 210100Z 25006KT CAVOK 16/14 Q1020=
201907210130 METAR LRSV 210130Z 26003KT 240V300 CAVOK 16/14 Q1020=
201907210200 METAR LRSV 210200Z 25007KT CAVOK 15/14 Q1020=
201907210230 METAR LRSV 210230Z 26007KT CAVOK 16/14 Q1020=
201907210300 METAR LRSV 210300Z 28005KT CAVOK 16/14 Q1020=
201907210330 METAR COR LRSV 210330Z 27004KT 230V310 CAVOK 17/14 Q1020=
201907210400 METAR COR LRSV 210400Z 25006KT CAVOK 17/15 Q1020=
201907210430 METAR LRSV 210430Z 27006KT CAVOK 19/14 Q1020=
201907210500 METAR LRSV 210500Z 26004KT CAVOK 20/15 Q1020=
201907210530 METAR LRSV 210530Z 25005KT CAVOK 21/16 Q1020=
201907210600 METAR LRSV 210600Z VRB02KT CAVOK 22/16 Q1020=
201907210630 METAR LRSV 210630Z 23004KT 170V250 CAVOK 22/15 Q1020=
201907210700 METAR LRSV 210700Z 23005KT 200V280 CAVOK 22/15 Q1020=
201907210730 METAR LRSV 210730Z 23004KT 180V260 CAVOK 24/15 Q1020=
201907210800 METAR LRSV 210800Z VRB04KT CAVOK 25/16 Q1020=
201907210830 METAR LRSV 210830Z 26005KT 230V300 CAVOK 25/15 Q1020=
201907210900 METAR LRSV 210900Z 30005KT 240V350 CAVOK 25/14 Q1020=
201907210930 METAR LRSV 210930Z 31004KT 240V360 CAVOK 26/14 Q1020=
201907211000 METAR LRSV 211000Z VRB04KT CAVOK 26/13 Q1020=
201907211030 METAR LRSV 211030Z 29005KT 240V340 CAVOK 26/14 Q1020=
201907211100 METAR LRSV 211100Z 26003KT 150V320 9999 FEW045 27/14 Q1020=
201907211130 METAR LRSV 211130Z 27005KT 210V010 9999 FEW045 27/13 Q1020=
201907211200 METAR LRSV 211200Z 27008KT 9999 FEW045 28/14 Q1019=
201907211230 METAR LRSV 211230Z 26006KT 210V320 9999 FEW045 27/15 Q1019=
201907211300 METAR LRSV 211300Z 30004KT 230V340 9999 FEW045 28/13 Q1019=
201907211330 METAR LRSV 211330Z VRB03KT CAVOK 28/14 Q1019=
201907211400 METAR COR LRSV 211400Z 27006KT 250V320 CAVOK 28/13 Q1019=
201907211430 METAR LRSV 211430Z 26004KT 220V330 CAVOK 29/13 Q1018=
201907211500 METAR LRSV 211500Z 27004KT 230V320 CAVOK 28/14 Q1018=
201907211530 METAR COR LRSV 211530Z 31003KT 280V360 CAVOK 28/13 Q1018=
201907211600 METAR LRSV 211600Z VRB02KT CAVOK 29/14 Q1018=
201907211630 METAR LRSV 211630Z 00000KT CAVOK 28/14 Q1019=
201907211700 METAR LRSV 211700Z 11004KT CAVOK 26/16 Q1019=
201907211730 METAR LRSV 211730Z 12002KT CAVOK 26/15 Q1019=
201907211800 METAR COR LRSV 211800Z 00000KT CAVOK 24/15 Q1019=
201907211830 METAR LRSV 211830Z 00000KT CAVOK 24/16 Q1019=
201907211900 METAR LRSV 211900Z 00000KT CAVOK 23/15 Q1019=
201907211930 METAR LRSV 211930Z 19002KT 160V250 CAVOK 22/15 Q1019=
201907212000 METAR LRSV 212000Z 26007KT 9999 TS FEW040CB 22/16 Q1019=
201907212030 METAR COR LRSV 212030Z 32006KT 9999 TS FEW045CB 23/16 Q1019=
201907212100 METAR LRSV 212100Z 31007KT 9999 TS FEW045CB 22/15 Q1020=
201907212130 METAR LRSV 212130Z 30008KT 9999 TS FEW045CB 22/15 Q1020=
201907212200 METAR LRSV 212200Z 32011KT 9999 TS FEW045CB 22/15 Q1021=
201907212230 METAR LRSV 212230Z 33015KT CAVOK 20/16 Q1021=
201907212300 METAR LRSV 212300Z 33014KT CAVOK 20/15 Q1021=
201907212330 METAR LRSV 212330Z 34009KT CAVOK 19/15 Q1020=
201907220000 METAR LRSV 220000Z 34007KT CAVOK 18/15 Q1020=
201907220030 METAR LRSV 220030Z 23004KT CAVOK 17/15 Q1020=
201907220100 METAR LRSV 220100Z VRB01KT CAVOK 18/15 Q1019=
201907220130 METAR LRSV 220130Z VRB02KT CAVOK 17/15 Q1019=
201907220200 METAR LRSV 220200Z 35002KT 310V010 CAVOK 18/15 Q1020=
201907220230 METAR COR LRSV 220230Z 33006KT CAVOK 18/15 Q1020 RMK=
201907220300 METAR COR LRSV 220300Z 33006KT CAVOK 18/15 Q1020 RMK=
201907220330 METAR LRSV 220330Z 33005KT CAVOK 18/15 Q1020 RMK=
201907220400 METAR LRSV 220400Z 33006KT CAVOK 19/15 Q1020=
201907220430 METAR LRSV 220430Z 33007KT CAVOK 19/15 Q1020=
201907220500 METAR LRSV 220500Z AUTO 34005KT 9999 BKN065/// 20/16 Q1020=
201907220530 METAR LRSV 220530Z AUTO 34010KT 9999 BKN055/// 19/15 Q1021=
201907220600 METAR LRSV 220600Z AUTO 30007KT 9999 BKN055/// 20/16 Q1021=
201907220630 METAR LRSV 220630Z AUTO 33012KT 9999 FEW100/// 21/16 Q1021=
201907220700 METAR LRSV 220700Z 33012KT 290V350 CAVOK 21/16 Q1021=
201907220730 METAR LRSV 220730Z 33013KT CAVOK 21/15 Q1021=
201907220800 METAR LRSV 220800Z 33013KT CAVOK 22/15 Q1021=
201907220830 METAR LRSV 220830Z 35010KT 320V020 CAVOK 23/16 Q1021=
201907220900 METAR LRSV 220900Z 35008KT 300V030 9999 FEW030 23/16 Q1021=
201907220930 METAR LRSV 220930Z 33004KT 250V040 9999 SCT030 25/15 Q1020=
201907221000 METAR LRSV 221000Z 35010KT 310V020 9999 SCT035 24/15 Q1020=
201907221030 METAR LRSV 221030Z 34008KT 300V030 9999 SCT035 25/15 Q1021=
201907221100 METAR LRSV 221100Z 34008KT 300V030 9999 FEW035CB 25/16 Q1020=
201907221130 METAR LRSV 221130Z 34009KT 310V030 9999 FEW040CB 25/15 Q1020=
201907221200 METAR LRSV 221200Z 36008KT 9999 FEW042CB 25/15 Q1020=
201907221230 METAR LRSV 221230Z 34008KT 310V020 9999 FEW045CB 25/15 Q1020=
201907221300 METAR LRSV 221300Z 34008KT 310V020 9999 FEW045CB 25/15 Q1020=
201907221330 METAR LRSV 221330Z 34007KT 310V010 9999 FEW045CB 24/15 Q1020=
201907221400 METAR LRSV 221400Z 30006KT 9999 FEW045CB 25/15 Q1019=
201907221430 METAR LRSV 221430Z 33009KT 9999 FEW045CB 25/15 Q1019=
201907221500 METAR LRSV 221500Z 33008KT 9999 FEW045CB 25/15 Q1019=
201907221530 METAR LRSV 221530Z 27007KT 9999 FEW046CB 23/17 Q1019=
201907221600 METAR LRSV 221600Z 30008KT 260V340 9999 FEW046CB 25/16 Q1019=
201907221630 METAR LRSV 221630Z 31008KT 280V340 9999 FEW046CB 24/16 Q1019=
201907221700 METAR LRSV 221700Z 32007KT 9999 FEW046CB 24/15 Q1020=
201907221730 METAR LRSV 221730Z 31006KT 9999 FEW046CB 22/15 Q1020=
201907221800 METAR LRSV 221800Z 31006KT 9999 FEW046CB 21/15 Q1020=
201907221830 METAR LRSV 221830Z 32009KT CAVOK 22/14 Q1020=
201907221900 METAR LRSV 221900Z 33008KT CAVOK 21/14 Q1020=
201907221930 METAR LRSV 221930Z 34006KT CAVOK 21/14 Q1020=
201907222000 METAR LRSV 222000Z 32008KT CAVOK 21/14 Q1020=
201907222030 METAR LRSV 222030Z 31006KT 290V350 CAVOK 21/14 Q1020=
201907222100 METAR LRSV 222100Z 32005KT CAVOK 20/15 Q1020=
201907222130 METAR LRSV 222130Z 32007KT CAVOK 20/14 Q1020=
201907222200 METAR LRSV 222200Z 30006KT CAVOK 20/14 Q1020=
201907222230 METAR LRSV 222230Z 31006KT 9999 -SHRA FEW045CB 20/14 Q1020=
201907222300 METAR LRSV 222300Z 31007KT 9999 -SHRA FEW045CB 19/14 Q1020=
201907222330 METAR LRSV 222330Z 31005KT 9999 -SHRA FEW045CB 19/14 Q1019=
201907230000 METAR LRSV 230000Z 30005KT CAVOK 18/14 Q1019 RERA=
201907230030 METAR LRSV 230030Z 32006KT CAVOK 18/14 Q1019=
201907230100 METAR LRSV 230100Z 30006KT CAVOK 18/14 Q1019=
201907230130 METAR LRSV 230130Z 31006KT CAVOK 19/14 Q1019=
201907230200 METAR LRSV 230200Z 31006KT CAVOK 19/14 Q1018=
201907230230 METAR LRSV 230230Z 31005KT CAVOK 18/14 Q1018=
201907230300 METAR LRSV 230300Z 30005KT CAVOK 18/14 Q1018=
201907230330 METAR LRSV 230330Z AUTO 27004KT 9999 FEW090/// BKN160///
                        17/14 Q1018=
201907230400 METAR LRSV 230400Z AUTO 27004KT 9999 BKN160/// 18/14 Q1018=
201907230430 METAR LRSV 230430Z AUTO 28004KT 9999 BKN160/// 18/15 Q1018=
201907230500 METAR LRSV 230500Z AUTO 32006KT 9999 FEW044/// BKN150///
                        20/15 Q1018=
201907230530 METAR LRSV 230530Z AUTO 34017KT 9999 SCT044/// BKN070///
                        18/14 Q1019=
201907230600 METAR LRSV 230600Z AUTO 34016KT 9999 FEW047/// BKN090///
                        19/13 Q1019=
201907230630 METAR LRSV 230630Z AUTO 36017KT 9999 SCT045/// BKN090///
                        BKN110/// 18/13 Q1019=
201907230700 METAR COR LRSV 230700Z 36012KT 9999 BKN044 17/13 Q1019=
201907230730 METAR LRSV 230730Z 36007KT 9999 BKN045 17/14 Q1019=
201907230800 METAR LRSV 230800Z 33012KT 9999 FEW017 BKN045 18/13 Q1019=
201907230830 METAR LRSV 230830Z 34011KT 9999 FEW018 18/13 Q1019=
201907230900 METAR LRSV 230900Z 34010KT 320V020 9999 -SHRA FEW018 FEW043CB
                        18/13 Q1019=
201907230930 METAR LRSV 230930Z 32009KT 9999 FEW018 FEW043CB 19/13 Q1018=
201907231000 METAR LRSV 231000Z 32008KT 260V350 CAVOK 21/12 Q1018=
201907231030 METAR COR LRSV 231030Z 33006KT 290V020 CAVOK 22/13 Q1018=
201907231100 METAR LRSV 231100Z 35004KT 260V040 CAVOK 22/13 Q1018=
201907231130 METAR LRSV 231130Z 36010KT 9999 SCT037 22/12 Q1017=
201907231200 METAR LRSV 231200Z 06011KT 9999 FEW037CB 21/14 Q1017=
201907231230 METAR LRSV 231230Z VRB06KT 9999 FEW031CB 22/15 Q1017=
201907231300 METAR LRSV 231300Z 36010KT 9999 FEW034CB 22/13 Q1016=
201907231330 METAR LRSV 231330Z 35010KT 9999 FEW034CB 22/12 Q1016=
201907231400 METAR LRSV 231400Z 34008KT 300V010 9999 FEW034CB 22/12 Q1016=
201907231430 METAR LRSV 231430Z 33009KT 9999 FEW034CB 22/12 Q1016=
201907231500 METAR LRSV 231500Z 01010KT 9999 FEW043CB 22/13 Q1016=
201907231530 METAR COR LRSV 231530Z 33009KT 9999 FEW040CB 23/11 Q1016=
201907231600 METAR LRSV 231600Z 01011KT 9999 FEW040CB 21/13 Q1016=
201907231630 METAR LRSV 231630Z 34008KT CAVOK 21/12 Q1016=
201907231700 METAR LRSV 231700Z 34008KT CAVOK 20/12 Q1016=
201907231730 METAR LRSV 231730Z 33007KT CAVOK 19/13 Q1016=
201907231800 METAR LRSV 231800Z 33009KT CAVOK 18/12 Q1017=
201907231830 METAR LRSV 231830Z 32009KT CAVOK 18/12 Q1017=
201907231900 METAR LRSV 231900Z 32010KT CAVOK 18/12 Q1017=
201907231930 METAR COR LRSV 231930Z 32011KT CAVOK 17/12 Q1017=
201907232000 METAR LRSV 232000Z 32010KT CAVOK 17/12 Q1017=
201907232030 METAR LRSV 232030Z 31010KT CAVOK 17/13 Q1017=
201907232100 METAR LRSV 232100Z 32011KT CAVOK 17/13 Q1017=
201907232130 METAR LRSV 232130Z 32012KT CAVOK 17/13 Q1017=
201907232200 METAR LRSV 232200Z 32010KT CAVOK 17/13 Q1017=
201907232230 METAR LRSV 232230Z 31010KT CAVOK 17/13 Q1017=
201907232300 METAR LRSV 232300Z 31010KT CAVOK 16/13 Q1017=
201907232330 METAR LRSV 232330Z 32010KT CAVOK 16/13 Q1017=
201907240000 METAR LRSV 240000Z 32010KT CAVOK 16/13 Q1017=
201907240030 METAR LRSV 240030Z 32011KT CAVOK 16/13 Q1017=
201907240100 METAR LRSV 240100Z 32011KT CAVOK 16/13 Q1017=
201907240130 METAR LRSV 240130Z 32011KT CAVOK 16/13 Q1016=
201907240200 METAR LRSV 240200Z 32010KT CAVOK 16/13 Q1016=
201907240230 METAR LRSV 240230Z 32009KT CAVOK 16/13 Q1017=
201907240300 METAR LRSV 240300Z 31008KT CAVOK 16/13 Q1017=
201907240330 METAR LRSV 240330Z AUTO 31009KT 9999 FEW065/// SCT080///
                        16/13 Q1017=
201907240400 METAR LRSV 240400Z AUTO 33010KT 9999 BKN075/// 17/13 Q1017=
201907240430 METAR LRSV 240430Z AUTO 32011KT 9999 BKN075/// 17/13 Q1017=
201907240500 METAR COR LRSV 240500Z 33012KT CAVOK 17/13 Q1017=
201907240530 METAR LRSV 240530Z 32011KT CAVOK 18/13 Q1017=
201907240600 METAR COR LRSV 240600Z 32010KT CAVOK 19/14 Q1017=
201907240630 METAR LRSV 240630Z 32010KT 290V350 CAVOK 20/13 Q1017=
201907240700 METAR LRSV 240700Z 33011KT 280V360 CAVOK 20/13 Q1017=
201907240730 METAR LRSV 240730Z 33011KT 9999 FEW033 21/12 Q1017=
201907240800 METAR LRSV 240800Z 32011KT 290V350 9999 FEW043 21/13 Q1017=
201907240830 METAR LRSV 240830Z 34012KT 310V010 9999 SCT042 21/11 Q1017=
201907240900 METAR LRSV 240900Z 34015KT 9999 SCT043 22/11 Q1017=
201907240930 METAR LRSV 240930Z 32013KT 9999 SCT045 22/11 Q1017=
201907241000 METAR LRSV 241000Z 34012KT 9999 SCT045TCU 23/11 Q1017=
201907241030 METAR LRSV 241030Z 35013KT 310V020 9999 SCT049TCU 23/11 Q1017=
201907241100 METAR LRSV 241100Z 35012KT 320V020 9999 FEW045TCU 23/11 Q1017=
201907241130 METAR LRSV 241130Z 34014KT 300V020 9999 FEW045CB 23/10 Q1017=
201907241200 METAR LRSV 241200Z 33011KT 300V360 9999 FEW045CB 23/12 Q1017=
201907241230 METAR LRSV 241230Z 33012KT 9999 FEW045CB 23/11 Q1017=
201907241300 METAR LRSV 241300Z 33013KT 9999 FEW045CB 23/12 Q1017=
201907241330 METAR LRSV 241330Z AUTO 33011KT 300V360 9999 BKN100/// 23/11
                        Q1017=
201907241400 METAR LRSV 241400Z AUTO 33013KT 9999 FEW100/// 22/11 Q1017=
201907241430 METAR LRSV 241430Z AUTO 34010KT 9999 SCT100/// 22/10 Q1017=
201907241500 METAR COR LRSV 241500Z 34008KT CAVOK 22/10 Q1017=
201907241530 METAR LRSV 241530Z 34006KT CAVOK 22/11 Q1017=
201907241600 METAR LRSV 241600Z 36010KT CAVOK 22/12 Q1016=
201907241630 METAR LRSV 241630Z 35008KT CAVOK 22/12 Q1016=
201907241700 METAR COR LRSV 241700Z 35006KT CAVOK 21/12 Q1017=
201907241730 METAR LRSV 241730Z 34005KT CAVOK 21/12 Q1017=
201907241800 METAR LRSV 241800Z 34003KT CAVOK 19/13 Q1017=
201907241830 METAR LRSV 241830Z 31004KT CAVOK 18/12 Q1017=
201907241900 METAR LRSV 241900Z 31005KT CAVOK 18/12 Q1018=
201907241930 METAR LRSV 241930Z 30007KT CAVOK 18/12 Q1017=
201907242000 METAR LRSV 242000Z 30007KT CAVOK 18/12 Q1018=
201907242030 METAR LRSV 242030Z 30007KT CAVOK 18/12 Q1018=
201907242100 METAR LRSV 242100Z 30007KT CAVOK 18/12 Q1018=
201907242130 METAR LRSV 242130Z 30008KT CAVOK 18/12 Q1018=
201907242200 METAR LRSV 242200Z 30009KT CAVOK 18/13 Q1018=
201907242230 METAR LRSV 242230Z 31010KT CAVOK 18/13 Q1018=
201907242300 METAR LRSV 242300Z 30009KT CAVOK 17/13 Q1018=
201907242330 METAR LRSV 242330Z 31010KT CAVOK 17/13 Q1018=
201907250000 METAR LRSV 250000Z 31010KT CAVOK 17/13 Q1018=
201907250030 METAR LRSV 250030Z 31011KT CAVOK 17/13 Q1018=
201907250100 METAR LRSV 250100Z 31010KT CAVOK 18/13 Q1018=
201907250130 METAR LRSV 250130Z 32011KT CAVOK 18/13 Q1018=
201907250200 METAR LRSV 250200Z 32011KT CAVOK 18/13 Q1018=
201907250230 METAR LRSV 250230Z 32011KT CAVOK 17/13 Q1018=
201907250300 METAR LRSV 250300Z 32010KT CAVOK 17/13 Q1018=
201907250330 METAR LRSV 250330Z AUTO 32011KT 9999 NCD 17/13 Q1018=
201907250400 METAR LRSV 250400Z AUTO 31012KT 9999 NCD 17/13 Q1018=
201907250430 METAR LRSV 250430Z AUTO 32009KT 9999 NCD 18/14 Q1019=
201907250500 METAR LRSV 250500Z AUTO 33011KT 9999 NCD 19/14 Q1019=
201907250530 METAR LRSV 250530Z AUTO 33013KT 9999 NCD 19/14 Q1019=
201907250600 METAR LRSV 250600Z AUTO 34013KT 9999 NCD 20/14 Q1019=
201907250630 METAR LRSV 250630Z AUTO 33011KT 9999 NCD 21/14 Q1019=
201907250700 METAR LRSV 250700Z 33010KT CAVOK 21/14 Q1019=
201907250730 METAR LRSV 250730Z 34010KT 310V010 CAVOK 22/15 Q1019=
201907250800 METAR LRSV 250800Z 34010KT 310V010 9999 FEW029TCU 22/14 Q1019=
201907250830 METAR LRSV 250830Z 33009KT 300V360 9999 FEW036CB 23/14 Q1019=
201907250900 METAR LRSV 250900Z 35008KT 9999 SCT034CB 23/14 Q1019=
201907250930 METAR LRSV 250930Z 33010KT 300V010 9999 SCT042CB 24/13 Q1019=
201907251000 METAR LRSV 251000Z 35010KT 310V020 9999 SCT042CB 25/13 Q1018=
201907251030 METAR LRSV 251030Z 34009KT 320V020 9999 FEW047CB 23/13 Q1019=
201907251100 METAR LRSV 251100Z 35008KT 290V060 9999 FEW045CB 24/12 Q1018=
201907251130 METAR LRSV 251130Z 35009KT 9999 FEW045CB 25/12 Q1018=
201907251200 METAR LRSV 251200Z 34010KT 300V360 CAVOK 25/12 Q1018=
201907251230 METAR LRSV 251230Z 32006KT 290V010 CAVOK 26/12 Q1018=
201907251300 METAR LRSV 251300Z 32009KT 280V350 CAVOK 26/10 Q1018=
201907251330 METAR LRSV 251330Z 31008KT 270V350 CAVOK 26/12 Q1018=
201907251400 METAR LRSV 251400Z 01009KT CAVOK 26/10 Q1017=
201907251430 METAR LRSV 251430Z 33010KT 290V360 9999 FEW045CB 26/10 Q1017=
201907251500 METAR LRSV 251500Z 33009KT 290V360 CAVOK 26/09 Q1017=
201907251530 METAR LRSV 251530Z 36011KT CAVOK 25/12 Q1017=
201907251600 METAR LRSV 251600Z 01011KT CAVOK 24/12 Q1017=
201907251630 METAR LRSV 251630Z 01007KT CAVOK 23/13 Q1017=
201907251700 METAR LRSV 251700Z 36005KT CAVOK 23/13 Q1017=
201907251730 METAR COR LRSV 251730Z 35004KT CAVOK 22/13 Q1017=
201907251800 METAR LRSV 251800Z 32003KT CAVOK 22/14 Q1017=
201907251830 METAR LRSV 251830Z 31004KT CAVOK 22/13 Q1017=
201907251900 METAR LRSV 251900Z 31005KT CAVOK 21/11 Q1017=
201907251930 METAR LRSV 251930Z 29005KT CAVOK 20/12 Q1017=
201907252000 METAR LRSV 252000Z 28006KT CAVOK 21/12 Q1017=
201907252030 METAR LRSV 252030Z 28006KT CAVOK 21/13 Q1017=
201907252100 METAR LRSV 252100Z 25007KT CAVOK 19/13 Q1017=
201907252130 METAR LRSV 252130Z 27007KT CAVOK 19/13 Q1017=
201907252200 METAR LRSV 252200Z 27009KT CAVOK 20/13 Q1016=
201907252230 METAR LRSV 252230Z 27009KT CAVOK 19/13 Q1016=
201907252300 METAR LRSV 252300Z 26008KT CAVOK 18/13 Q1016=
201907252330 METAR LRSV 252330Z 27008KT CAVOK 18/13 Q1016=
201907260000 METAR LRSV 260000Z 26007KT CAVOK 18/12 Q1016=
201907260030 METAR LRSV 260030Z 26008KT CAVOK 18/12 Q1015=
201907260100 METAR LRSV 260100Z 27008KT CAVOK 18/12 Q1015=
201907260130 METAR LRSV 260130Z 26008KT CAVOK 17/12 Q1015=
201907260200 METAR LRSV 260200Z 26008KT CAVOK 17/12 Q1014=
201907260230 METAR LRSV 260230Z 25008KT CAVOK 16/12 Q1014=
201907260300 METAR LRSV 260300Z 26007KT CAVOK 16/12 Q1014=
201907260330 METAR LRSV 260330Z AUTO 25009KT 9999 NCD 16/12 Q1014=
201907260400 METAR LRSV 260400Z AUTO 26009KT 9999 NCD 18/13 Q1014=
201907260430 METAR LRSV 260430Z AUTO 25008KT 9999 NCD 18/13 Q1014=
201907260500 METAR LRSV 260500Z AUTO 25008KT 9999 SCT110/// 19/13 Q1014=
201907260530 METAR LRSV 260530Z AUTO 25007KT 9999 NCD 20/13 Q1014=
201907260600 METAR LRSV 260600Z AUTO 35003KT 290V050 9999 NCD 22/15 Q1014=
201907260630 METAR LRSV 260630Z AUTO 08004KT 040V120 9999 NCD 21/15 Q1014=
201907260700 METAR COR LRSV 260700Z VRB02KT CAVOK 23/15 Q1014=
201907260730 METAR LRSV 260730Z VRB01KT CAVOK 24/14 Q1014=
201907260800 METAR COR LRSV 260800Z VRB02KT CAVOK 25/16 Q1014=
201907260830 METAR LRSV 260830Z 07003KT 350V150 CAVOK 25/15 Q1013=
201907260900 METAR LRSV 260900Z 11006KT 070V140 CAVOK 25/15 Q1013=
201907260930 METAR LRSV 260930Z VRB02KT CAVOK 26/14 Q1013=
201907261000 METAR LRSV 261000Z VRB02KT CAVOK 26/14 Q1013=
201907261030 METAR LRSV 261030Z 31005KT 260V070 CAVOK 27/11 Q1012=
201907261100 METAR LRSV 261100Z 05007KT 020V080 CAVOK 27/13 Q1012=
201907261130 METAR LRSV 261130Z VRB04KT CAVOK 27/12 Q1012=
201907261200 METAR LRSV 261200Z VRB01KT 9999 FEW045CB 28/12 Q1012=
201907261230 METAR LRSV 261230Z 07005KT 040V110 9999 FEW045CB 27/12 Q1011=
201907261300 METAR LRSV 261300Z 12003KT 060V230 9999 FEW045CB 27/12 Q1011=
201907261330 METAR LRSV 261330Z 02005KT 340V090 9999 FEW045CB 27/13 Q1011=
201907261400 METAR LRSV 261400Z 04004KT 010V090 9999 FEW045CB 27/12 Q1011=
201907261430 METAR LRSV 261430Z 05008KT 020V080 9999 FEW045CB 27/13 Q1011=
201907261500 METAR LRSV 261500Z 06008KT 9999 FEW045CB 27/13 Q1011=
201907261530 METAR LRSV 261530Z 05007KT 9999 FEW045CB 26/13 Q1011=
201907261600 METAR LRSV 261600Z 03012KT 9999 FEW045CB 22/15 Q1011=
201907261630 METAR LRSV 261630Z 04009KT 9999 TS SCT045CB 22/15 Q1011=
201907261700 METAR LRSV 261700Z 02009KT 9999 TS SCT045CB 21/15 Q1011=
201907261730 METAR LRSV 261730Z 35010KT 9999 -TSRA SCT045CB 20/16 Q1011=
201907261800 METAR LRSV 261800Z 36009KT 9999 -TSRA SCT045CB 19/16 Q1012
                        R16/29//95=
201907261830 METAR LRSV 261830Z 34011KT 9999 -TSRA SCT045CB 18/16 Q1012
                        R16/29//95=
201907261900 METAR LRSV 261900Z 34009KT 9999 -TSRA SCT045CB 18/16 Q1012
                        R16/29//95=
201907261930 METAR LRSV 261930Z 27009KT 9999 -TSRA SCT045CB 18/16 Q1013
                        R16/29//95=
201907262000 METAR LRSV 262000Z 35007KT 9999 -TSRA SCT045CB 18/17 Q1012
                        R16/29//95=
201907262030 METAR LRSV 262030Z 33004KT 9999 -TSRA FEW038CB 18/16 Q1012
                        R16/29//95=
201907262100 METAR LRSV 262100Z 19003KT 9999 TS FEW040CB 17/17 Q1011 R16/29//95=
201907262130 METAR LRSV 262130Z AUTO 23004KT 170V260 5000 BR SCT100///
                        17/16 Q1011=
201907262200 METAR LRSV 262200Z 25006KT CAVOK 17/16 Q1011 R16/29//95=
201907262230 METAR LRSV 262230Z 26004KT CAVOK 17/16 Q1011 R16/29//95=
201907262300 METAR LRSV 262300Z 29005KT CAVOK 16/16 Q1011 R16/29//95=
201907262330 METAR LRSV 262330Z 27005KT CAVOK 16/15 Q1011 R16/29//95=
201907270000 METAR LRSV 270000Z 27006KT CAVOK 17/15 Q1011 R16/29//95=
201907270030 METAR LRSV 270030Z 26004KT CAVOK 16/15 Q1010 R16/29//95=
201907270100 METAR LRSV 270100Z 34004KT CAVOK 16/15 Q1010 R16/29//95=
201907270130 METAR LRSV 270130Z 03002KT CAVOK 17/15 Q1010 R16/29//95=
201907270200 METAR LRSV 270200Z 06002KT 010V080 CAVOK 17/15 Q1010 R16/29//95=
201907270230 METAR COR LRSV 270230Z 04003KT CAVOK 16/15 Q1010 R16/29//95=
201907270300 METAR LRSV 270300Z 03006KT CAVOK 16/15 Q1010 R16/CLRD//=
201907270330 METAR LRSV 270330Z AUTO 01005KT 8000 NCD 16/15 Q1010=
201907270400 METAR LRSV 270400Z AUTO 01003KT 9999 BKN130/// 17/16 Q1010=
201907270430 METAR LRSV 270430Z 01002KT CAVOK 18/16 Q1010=
201907270500 METAR COR LRSV 270500Z VRB01KT CAVOK 19/16 Q1010=
201907270530 METAR LRSV 270530Z 21002KT 140V260 CAVOK 19/17 Q1010=
201907270600 METAR LRSV 270600Z VRB02KT CAVOK 20/17 Q1011=
201907270630 METAR LRSV 270630Z 19003KT 150V230 CAVOK 21/16 Q1011=
201907270700 METAR LRSV 270700Z VRB03KT 9999 FEW018 22/16 Q1010=
201907270730 METAR LRSV 270730Z 17003KT 120V240 CAVOK 22/16 Q1010=
201907270800 METAR LRSV 270800Z 18004KT 130V240 CAVOK 23/16 Q1010=
201907270830 METAR LRSV 270830Z 16004KT 070V230 CAVOK 23/16 Q1010=
201907270900 METAR LRSV 270900Z 17005KT 130V230 CAVOK 24/16 Q1010=
201907270930 METAR COR LRSV 270930Z 15004KT CAVOK 25/17 Q1010=
201907271000 METAR COR LRSV 271000Z 11008KT CAVOK 25/17 Q1010=
201907271030 METAR LRSV 271030Z 10007KT 070V150 CAVOK 26/17 Q1010=
201907271100 METAR COR LRSV 271100Z 11007KT 060V150 CAVOK 26/17 Q1010=
201907271130 METAR LRSV 271130Z 12008KT 9999 FEW045CB 27/17 Q1010=
201907271200 METAR COR LRSV 271200Z 12006KT 090V160 9999 FEW035CB SCT038
                        27/17 Q1010=
201907271230 METAR LRSV 271230Z 17009KT 9999 FEW035CB SCT038 28/17 Q1009=
201907271300 METAR LRSV 271300Z 18008KT 130V210 9999 FEW040CB FEW045 28/16
                        Q1009=
201907271330 METAR LRSV 271330Z 18009KT 9999 FEW040CB 27/17 Q1009=
201907271400 METAR LRSV 271400Z 18007KT 9999 FEW040CB 26/17 Q1009=
201907271430 METAR LRSV 271430Z 19006KT 9999 FEW040CB 26/17 Q1009=
201907271500 METAR LRSV 271500Z 19006KT 160V220 9999 FEW040CB 26/17 Q1009=
201907271530 METAR LRSV 271530Z 17005KT 150V220 9999 FEW040CB 27/17 Q1009=
201907271600 METAR LRSV 271600Z 16006KT 9999 FEW040CB 26/17 Q1009=
201907271630 METAR COR LRSV 271630Z 17004KT 140V200 CAVOK 26/17 Q1009=
201907271700 METAR LRSV 271700Z 13003KT CAVOK 25/18 Q1009=
201907271730 METAR LRSV 271730Z 12004KT CAVOK 25/17 Q1009=
201907271800 METAR LRSV 271800Z 10003KT CAVOK 24/18 Q1009=
201907271830 METAR LRSV 271830Z 10003KT CAVOK 24/18 Q1009=
201907271900 METAR LRSV 271900Z 11004KT CAVOK 23/18 Q1009=
201907271930 METAR LRSV 271930Z 12005KT CAVOK 23/18 Q1009=
201907272000 METAR LRSV 272000Z 14007KT CAVOK 22/17 Q1009=
201907272030 METAR LRSV 272030Z 16004KT CAVOK 21/17 Q1009=
201907272100 METAR LRSV 272100Z 16003KT CAVOK 21/17 Q1009=
201907272130 METAR LRSV 272130Z 16004KT CAVOK 21/18 Q1009=
201907272200 METAR LRSV 272200Z 16004KT CAVOK 22/17 Q1009=
201907272230 METAR LRSV 272230Z AUTO 15005KT 9999 FEW080/// 22/17 Q1009=
201907272300 METAR LRSV 272300Z 18004KT CAVOK 20/17 Q1009=
201907272330 METAR LRSV 272330Z 14006KT CAVOK 20/16 Q1009=
201907280000 METAR LRSV 280000Z 15004KT CAVOK 19/17 Q1009=
201907280030 METAR LRSV 280030Z 20005KT CAVOK 18/17 Q1009=
201907280100 METAR LRSV 280100Z 19003KT CAVOK 18/17 Q1008=
201907280130 METAR LRSV 280130Z 21005KT CAVOK 18/17 Q1009=
201907280200 METAR LRSV 280200Z 23006KT CAVOK 18/17 Q1009=
201907280230 METAR LRSV 280230Z 19005KT CAVOK 18/17 Q1009=
201907280300 METAR LRSV 280300Z 22007KT CAVOK 17/16 Q1009=
201907280330 METAR LRSV 280330Z 22005KT CAVOK 18/17 Q1009=
201907280400 METAR LRSV 280400Z 21005KT CAVOK 19/17 Q1009=
201907280430 METAR LRSV 280430Z 19007KT CAVOK 19/18 Q1009=
201907280500 METAR LRSV 280500Z 20006KT CAVOK 20/18 Q1009=
201907280530 METAR LRSV 280530Z 19008KT CAVOK 21/18 Q1009=
201907280600 METAR LRSV 280600Z 19008KT CAVOK 21/18 Q1009=
201907280630 METAR LRSV 280630Z 18007KT CAVOK 23/18 Q1009=
201907280700 METAR LRSV 280700Z 18006KT 150V210 CAVOK 24/18 Q1009=
201907280730 METAR LRSV 280730Z 15004KT 100V180 CAVOK 25/18 Q1009=
201907280800 METAR LRSV 280800Z 15005KT 120V190 CAVOK 25/17 Q1009=
201907280830 METAR COR LRSV 280830Z 17006KT CAVOK 26/18 Q1009=
201907280900 METAR LRSV 280900Z 15007KT CAVOK 27/18 Q1008=
201907280930 METAR LRSV 280930Z 14007KT 100V170 CAVOK 28/18 Q1009=
201907281000 METAR LRSV 281000Z 14009KT CAVOK 29/19 Q1009=
201907281030 METAR COR LRSV 281030Z 13010KT 100V160 CAVOK 29/18 Q1009=
201907281100 METAR LRSV 281100Z 13009KT 100V180 CAVOK 29/19 Q1009=
201907281130 METAR LRSV 281130Z 16010KT 130V190 CAVOK 30/18 Q1009=
201907281200 METAR LRSV 281200Z 15009KT 120V180 CAVOK 30/16 Q1008=
201907281230 METAR LRSV 281230Z 16010KT 130V190 CAVOK 30/16 Q1008=
201907281300 METAR LRSV 281300Z 15012KT CAVOK 30/15 Q1008=
201907281330 METAR LRSV 281330Z 14012KT 110V170 CAVOK 31/14 Q1008=
201907281400 METAR LRSV 281400Z 13014KT CAVOK 30/13 Q1008=
201907281430 METAR LRSV 281430Z 14013KT CAVOK 30/14 Q1007=
201907281500 METAR LRSV 281500Z 14013KT 9999 FEW045CB 29/14 Q1007=
201907281530 METAR LRSV 281530Z 14009KT 9999 FEW045CB 28/14 Q1007=
201907281600 METAR LRSV 281600Z 15006KT 9999 FEW045CB 27/15 Q1007=
201907281630 METAR LRSV 281630Z 16004KT 9999 FEW045CB 26/15 Q1007=
201907281700 METAR LRSV 281700Z 15007KT CAVOK 26/13 Q1007=
201907281730 METAR LRSV 281730Z 15007KT CAVOK 25/13 Q1007=
201907281800 METAR LRSV 281800Z 16006KT CAVOK 23/13 Q1007=
201907281830 METAR LRSV 281830Z 16006KT CAVOK 23/13 Q1007=
201907281900 METAR LRSV 281900Z 15008KT CAVOK 23/12 Q1007=
201907281930 METAR LRSV 281930Z 14008KT CAVOK 23/13 Q1007=
201907282000 METAR LRSV 282000Z 14009KT CAVOK 23/12 Q1007=
201907282030 METAR LRSV 282030Z 15006KT CAVOK 21/13 Q1006=
201907282100 METAR COR LRSV 282100Z 18003KT 150V210 CAVOK 21/13 Q1006=
201907282130 METAR LRSV 282130Z 17005KT CAVOK 20/13 Q1006=
201907282200 METAR LRSV 282200Z 18003KT CAVOK 20/13 Q1006=
201907282230 METAR LRSV 282230Z 19006KT CAVOK 19/13 Q1006=
201907282300 METAR LRSV 282300Z 21004KT 180V240 CAVOK 19/13 Q1006=
201907282330 METAR LRSV 282330Z 23005KT CAVOK 18/13 Q1006=
201907290000 METAR LRSV 290000Z 22007KT 9999 NCD 18/13 Q1006=
201907290030 METAR LRSV 290030Z 24005KT CAVOK 17/14 Q1006=
201907290100 METAR LRSV 290100Z 24005KT CAVOK 17/13 Q1006=
201907290130 METAR LRSV 290130Z 23006KT CAVOK 17/14 Q1006=
201907290200 METAR LRSV 290200Z 24005KT CAVOK 17/14 Q1006=
201907290230 METAR LRSV 290230Z 24005KT CAVOK 17/14 Q1006=
201907290300 METAR LRSV 290300Z 23004KT CAVOK 16/14 Q1006=
201907290330 METAR COR LRSV 290330Z 21005KT CAVOK 17/14 Q1006=
201907290400 METAR LRSV 290400Z 19005KT CAVOK 18/14 Q1006=
201907290430 METAR LRSV 290430Z 19005KT CAVOK 19/15 Q1006=
201907290500 METAR LRSV 290500Z AUTO 19005KT 9999 NCD 20/15 Q1006=
201907290530 METAR LRSV 290530Z AUTO 18005KT 9999 NCD 21/15 Q1006=
201907290600 METAR LRSV 290600Z AUTO 18005KT 150V210 9999 NCD 22/15 Q1006=
201907290630 METAR LRSV 290630Z AUTO 18004KT 120V240 //// R34////// NCD
                        ///// Q1006=
201907290700 METAR LRSV 290700Z AUTO 17006KT 110V210 //// R34////// NCD
                        ///// Q1006=
201907290730 METAR LRSV 290730Z 16005KT 060V240 CAVOK ///// Q1006=
201907290800 METAR LRSV 290800Z AUTO 18007KT 100V250 //// R34////// NCD
                        ///// Q1006=
201907290830 METAR LRSV 290830Z 18008KT 100V210 CAVOK ///// Q1006=
201907290900 METAR LRSV 290900Z 15009KT 120V180 CAVOK 28/14 Q1006=
201907290930 METAR LRSV 290930Z 14007KT CAVOK 28/15 Q1006=
201907291000 METAR LRSV 291000Z 16012KT CAVOK 28/15 Q1006=
201907291030 METAR LRSV 291030Z 17010KT CAVOK 26/14 Q1006=
201907291100 METAR LRSV 291100Z 16007KT CAVOK 24/16 Q1006=
201907291130 METAR LRSV 291130Z 16006KT CAVOK 25/16 Q1006=
201907291200 METAR LRSV 291200Z 15007KT CAVOK 26/15 Q1006=
201907291230 METAR LRSV 291230Z 15009KT 100V180 CAVOK 27/16 Q1006=
201907291300 METAR LRSV 291300Z 18011KT 110V210 CAVOK 29/14 Q1006=
201907291330 METAR LRSV 291330Z 16012KT CAVOK 28/14 Q1006=
201907291400 METAR LRSV 291400Z 14013KT 100V160 CAVOK 28/14 Q1006=
201907291430 METAR LRSV 291430Z 16014KT CAVOK 28/14 Q1006=
201907291500 METAR LRSV 291500Z 14013KT CAVOK 27/14 Q1006=
201907291530 METAR LRSV 291530Z 14010KT CAVOK 27/13 Q1005=
201907291600 METAR COR LRSV 291600Z 14010KT CAVOK 26/14 Q1005=
201907291630 METAR LRSV 291630Z 14009KT CAVOK 26/14 Q1005=
201907291700 METAR LRSV 291700Z 14008KT CAVOK 25/14 Q1005=
201907291730 METAR LRSV 291730Z 14005KT CAVOK 23/15 Q1006=
201907291800 METAR LRSV 291800Z 14007KT CAVOK 22/14 Q1006=
201907291830 METAR LRSV 291830Z 16004KT CAVOK 21/14 Q1006=
201907291900 METAR LRSV 291900Z 15004KT CAVOK 21/14 Q1006=
201907291930 METAR LRSV 291930Z 16005KT CAVOK 21/14 Q1007=
201907292000 METAR LRSV 292000Z 16004KT CAVOK 20/14 Q1007=
201907292030 METAR LRSV 292030Z 20004KT CAVOK 20/14 Q1007=
201907292100 METAR LRSV 292100Z 19003KT CAVOK 20/14 Q1007=
201907292130 METAR LRSV 292130Z 18005KT CAVOK 19/14 Q1007=
201907292200 METAR LRSV 292200Z 22004KT CAVOK 18/14 Q1006=
201907292230 METAR LRSV 292230Z 22004KT CAVOK 18/14 Q1006=
201907292300 METAR LRSV 292300Z 23006KT CAVOK 17/14 Q1006=
201907292330 METAR LRSV 292330Z 24008KT CAVOK 18/15 Q1006=
201907300000 METAR LRSV 300000Z 24006KT CAVOK 17/14 Q1006=
201907300030 METAR LRSV 300030Z 25008KT CAVOK 19/14 Q1006=
201907300100 METAR LRSV 300100Z 26009KT CAVOK 18/14 Q1006=
201907300130 METAR LRSV 300130Z 26009KT CAVOK 19/14 Q1006=
201907300200 METAR LRSV 300200Z 26009KT CAVOK 19/14 Q1006=
201907300230 METAR LRSV 300230Z 26006KT 220V280 CAVOK 19/14 Q1006=
201907300300 METAR LRSV 300300Z 29004KT 240V330 CAVOK 18/14 Q1007=
201907300330 METAR LRSV 300330Z AUTO 27010KT 9999 FEW110/// 19/14 Q1007=
201907300400 METAR LRSV 300400Z AUTO 32008KT 9999 BKN110/// 21/14 Q1007=
201907300430 METAR LRSV 300430Z AUTO 31007KT 9999 BKN110/// 22/15 Q1007=
201907300500 METAR LRSV 300500Z AUTO 32007KT 300V360 9999 BKN110/// 23/15
                        Q1007=
201907300530 METAR LRSV 300530Z AUTO 32009KT 9999 BKN110/// 22/15 Q1007=
201907300600 METAR LRSV 300600Z AUTO 32010KT 9999 BKN110/// 22/16 Q1008=
201907300630 METAR LRSV 300630Z AUTO 32009KT 9999 FEW110/// 24/17 Q1008=
201907300700 METAR COR LRSV 300700Z 33005KT 290V050 CAVOK 25/17 Q1008=
201907300730 METAR LRSV 300730Z VRB02KT CAVOK 26/17 Q1008=
201907300800 METAR LRSV 300800Z VRB04KT CAVOK 26/16 Q1008=
201907300830 METAR LRSV 300830Z 31004KT 230V030 CAVOK 27/16 Q1008=
201907300900 METAR LRSV 300900Z 28004KT 200V350 CAVOK 28/14 Q1008=
201907300930 METAR COR LRSV 300930Z VRB05KT CAVOK 29/14 Q1008=
201907301000 METAR LRSV 301000Z VRB03KT CAVOK 29/15 Q1008=
201907301030 METAR LRSV 301030Z VRB05KT CAVOK 29/15 Q1008=
201907301100 METAR COR LRSV 301100Z 22006KT 190V250 CAVOK 30/15 Q1007=
201907301130 METAR COR LRSV 301130Z VRB02KT CAVOK 31/15 Q1007=
201907301200 METAR LRSV 301200Z 24005KT 210V280 CAVOK 30/14 Q1007=
201907301230 METAR LRSV 301230Z 33004KT 290V020 CAVOK 31/13 Q1007=
201907301300 METAR LRSV 301300Z 34006KT 310V010 CAVOK 31/13 Q1006=
201907301330 METAR LRSV 301330Z 30008KT 9999 FEW045CB 30/13 Q1006=
201907301400 METAR LRSV 301400Z 29007KT 9999 VCSH SCT045CB 29/14 Q1006=
201907301430 METAR COR LRSV 301430Z 33026KT 9999 -TSRA SCT045CB 22/15
                        Q1007=
201907301500 METAR LRSV 301500Z 33010KT 9999 TS FEW032CB 22/17 Q1007 R16/29//95=
201907301530 METAR LRSV 301530Z 29010KT 9999 TS SCT035CB 24/15 Q1007 R16/29//95=
201907301600 METAR LRSV 301600Z 31007KT 280V340 9999 FEW035CB 24/17 Q1007
                        R16/29//95=
201907301630 METAR LRSV 301630Z 28010KT 9999 FEW035CB 25/16 Q1007 R16/29//95=
201907301700 METAR LRSV 301700Z 26008KT 9999 FEW040CB 24/17 Q1007 R16/29//95=
201907301730 METAR LRSV 301730Z 25007KT CAVOK 23/17 Q1007 R16/29//95=
201907301800 METAR LRSV 301800Z 24005KT CAVOK 22/17 Q1007 R16/29//95=
201907301830 METAR LRSV 301830Z 24006KT CAVOK 22/18 Q1007 R16/29//95=
201907301900 METAR LRSV 301900Z 24008KT CAVOK 22/17 Q1008 R16/29//95=
201907301930 METAR LRSV 301930Z 25007KT CAVOK 21/18 Q1008 R16/29//95=
201907302000 METAR LRSV 302000Z 26008KT CAVOK 21/17 Q1008 R16/29//95=
201907302030 METAR LRSV 302030Z 26009KT CAVOK 21/17 Q1007 R16/29//95=
201907302100 METAR LRSV 302100Z 27008KT CAVOK 22/17 Q1008 R16/29//95=
201907302130 METAR LRSV 302130Z 27010KT CAVOK 22/16 Q1008 R16/29//95=
201907302200 METAR LRSV 302200Z 29010KT CAVOK 23/16 Q1008 R16/29//95=
201907302230 METAR LRSV 302230Z 30010KT CAVOK 23/16 Q1008 R16/29//95=
201907302300 METAR LRSV 302300Z 29008KT 9999 FEW040CB 21/17 Q1008 R16/29//95=
201907302330 METAR LRSV 302330Z 31010KT 9999 FEW040CB 21/17 Q1008 R16/29//95=
201907310000 METAR LRSV 310000Z 31012KT CAVOK 21/17 Q1008 R16/29//95=
201907310030 METAR LRSV 310030Z 30012KT CAVOK 21/16 Q1007 R16/29//95=
201907310100 METAR LRSV 310100Z 31011KT CAVOK 21/16 Q1008 R16/29//95=
201907310130 METAR LRSV 310130Z 30009KT CAVOK 21/16 Q1008 R16/29//95=
201907310200 METAR LRSV 310200Z 31009KT CAVOK 22/16 Q1008 R16/29//95=
201907310230 METAR LRSV 310230Z 32008KT CAVOK 21/16 Q1008 R16/29//95=
201907310300 METAR LRSV 310300Z 33008KT CAVOK 20/16 Q1009 R16/29//95=
201907310330 METAR LRSV 310330Z AUTO 33013KT 9999 NCD 21/17 Q1009=
201907310400 METAR LRSV 310400Z AUTO 33013KT 9999 NCD 20/17 Q1009=
201907310430 METAR LRSV 310430Z AUTO 34013KT 9999 NCD 21/17 Q1009=
201907310500 METAR COR LRSV 310500Z 33013KT 9999 BKN014 21/17 Q1010 R16/29//95=
201907310530 METAR LRSV 310530Z 33013KT 9999 BKN013 21/17 Q1010 R16/29//95=
201907310600 METAR LRSV 310600Z 34013KT 9999 SCT014 21/17 Q1011 R16/29//95=
201907310630 METAR LRSV 310630Z 34011KT 9999 SCT016 22/18 Q1011 R16/29//95=
201907310700 METAR LRSV 310700Z 33011KT 9999 SCT018 23/18 Q1011 R16/29//95=
201907310730 METAR LRSV 310730Z 32012KT 290V350 9999 BKN018 22/17 Q1011
                        R16/29//95=
201907310800 METAR COR LRSV 310800Z 35013KT 9999 SCT027 24/17 Q1011 R16/29//95=
201907310830 METAR COR LRSV 310830Z 32014KT 290V350 9999 SCT028 24/16
                        Q1012 R16/29//95=
201907310900 METAR LRSV 310900Z 35014KT 9999 SCT027 24/17 Q1012 R16/29//95=
201907310930 METAR LRSV 310930Z 35015KT 9999 FEW032 25/17 Q1012 R16/29//95=
201907311000 METAR LRSV 311000Z 35014KT 310V020 9999 FEW032 25/17 Q1012
                        R16/29//95=
201907311030 METAR LRSV 311030Z 35014KT 9999 FEW031 26/16 Q1012 R16/29//95=
201907311100 METAR COR LRSV 311100Z 36012KT 320V030 9999 FEW036 26/17
                        Q1012 R16/29//95=
201907311130 METAR LRSV 311130Z 35014KT 310V010 9999 FEW037 25/16 Q1012
                        R16/29//95=
201907311200 METAR LRSV 311200Z 35012KT 310V010 9999 FEW039 26/16 Q1011
                        R16/CLRD//=
201907311230 METAR LRSV 311230Z 01012KT 9999 SCT039 25/16 Q1012=
201907311300 METAR LRSV 311300Z 36010KT 320V030 9999 FEW039 26/16 Q1012=
201907311330 METAR LRSV 311330Z AUTO 01009KT 330V040 9999 FEW040/// 26/16
                        Q1011=
201907311400 METAR LRSV 311400Z AUTO 33009KT 300V360 9999 NCD 26/15 Q1011=
201907311430 METAR LRSV 311430Z AUTO 34009KT 9999 FEW210/// 26/15 Q1011=
201907311500 METAR LRSV 311500Z 33009KT 9999 FEW040 26/14 Q1011=
201907311530 METAR LRSV 311530Z 34007KT 310V020 9999 FEW040 26/15 Q1012=
201907311600 METAR LRSV 311600Z 01009KT 9999 FEW045 26/16 Q1012=
201907311630 METAR LRSV 311630Z 01007KT 9999 FEW048 25/16 Q1012=
201907311700 METAR LRSV 311700Z 36005KT CAVOK 24/17 Q1012=
201907311730 METAR LRSV 311730Z 34004KT CAVOK 23/17 Q1012=
201907311800 METAR LRSV 311800Z 33005KT CAVOK 22/17 Q1012=
201907311830 METAR LRSV 311830Z 33005KT CAVOK 21/16 Q1013=
201907311900 METAR LRSV 311900Z 34005KT CAVOK 20/16 Q1013=
201907311930 METAR LRSV 311930Z 33006KT CAVOK 20/15 Q1013=
201907312000 METAR LRSV 312000Z 32006KT CAVOK 21/15 Q1013=
201907312030 METAR LRSV 312030Z 33006KT CAVOK 21/16 Q1013=
201907312100 METAR LRSV 312100Z 33005KT CAVOK 20/16 Q1013=
201907312130 METAR LRSV 312130Z 33006KT CAVOK 21/16 Q1013=
201907312200 METAR LRSV 312200Z 34008KT CAVOK 21/16 Q1014=
201907312230 METAR LRSV 312230Z 35009KT CAVOK 21/16 Q1014=
201907312300 METAR LRSV 312300Z 01009KT 9999 FEW047 20/16 Q1014=
201907312330 METAR LRSV 312330Z 01009KT 9999 SCT045 20/15 Q1014=
