201909010000 METAR LRSV 010000Z AUTO 30006KT 9999 NCD 20/14 Q1018=
201909010030 METAR LRSV 010030Z 31006KT CAVOK 20/14 Q1018=
201909010100 METAR LRSV 010100Z 30006KT CAVOK 20/14 Q1018=
201909010130 METAR COR LRSV 010130Z 30006KT CAVOK 20/14 Q1018=
201909010200 METAR LRSV 010200Z 33004KT CAVOK 19/14 Q1017=
201909010230 METAR COR LRSV 010230Z 31005KT CAVOK 19/14 Q1017=
201909010300 METAR COR LRSV 010300Z 33003KT 270V360 CAVOK 19/14 Q1017=
201909010330 METAR LRSV 010330Z 32004KT CAVOK 18/13 Q1017=
201909010400 METAR LRSV 010400Z 33006KT CAVOK 18/14 Q1017=
201909010430 METAR LRSV 010430Z 33006KT CAVOK 20/14 Q1017=
201909010500 METAR LRSV 010500Z 30002KT 260V340 CAVOK 21/14 Q1017=
201909010530 METAR LRSV 010530Z 26002KT CAVOK 21/15 Q1017=
201909010600 METAR LRSV 010600Z 35003KT 320V020 CAVOK 22/15 Q1017=
201909010630 METAR LRSV 010630Z VRB01KT CAVOK 24/15 Q1017=
201909010700 METAR LRSV 010700Z 24003KT 180V290 CAVOK 24/15 Q1017=
201909010730 METAR LRSV 010730Z 24003KT 190V330 CAVOK 25/15 Q1017=
201909010800 METAR LRSV 010800Z VRB02KT CAVOK 26/14 Q1017=
201909010830 METAR COR LRSV 010830Z 21004KT 130V250 CAVOK 27/14 Q1017=
201909010900 METAR LRSV 010900Z 14004KT 080V210 CAVOK 28/13 Q1017=
201909010930 METAR LRSV 010930Z 15005KT 070V190 CAVOK 28/13 Q1016=
201909011000 METAR LRSV 011000Z 21005KT 120V280 9999 FEW048 28/12 Q1016=
201909011030 METAR LRSV 011030Z VRB04KT 9999 FEW048 28/13 Q1016=
201909011100 METAR LRSV 011100Z 13005KT 070V220 9999 FEW048 29/13 Q1016=
201909011130 METAR LRSV 011130Z 13005KT 100V230 9999 FEW048 29/12 Q1015=
201909011200 METAR LRSV 011200Z 21006KT 130V270 9999 FEW048 29/12 Q1015=
201909011230 METAR LRSV 011230Z VRB05KT 9999 FEW048 30/12 Q1015=
201909011300 METAR LRSV 011300Z 20007KT 170V240 9999 FEW048 30/11 Q1015=
201909011330 METAR LRSV 011330Z 19005KT 120V220 9999 FEW048 30/11 Q1015=
201909011400 METAR LRSV 011400Z 17007KT 130V220 9999 FEW030CB 29/11 Q1015=
201909011430 METAR LRSV 011430Z 18004KT 110V230 9999 FEW030CB 29/11 Q1014=
201909011500 METAR LRSV 011500Z 18004KT 150V210 9999 FEW030CB 28/12 Q1014=
201909011530 METAR LRSV 011530Z 17005KT 9999 FEW030CB 27/13 Q1014=
201909011600 METAR LRSV 011600Z 19003KT 9999 FEW030CB 27/14 Q1014=
201909011630 METAR LRSV 011630Z 21003KT 180V240 9999 FEW048 26/13 Q1015=
201909011700 METAR LRSV 011700Z 27001KT 9999 FEW048 25/14 Q1015=
201909011730 METAR LRSV 011730Z 26008KT CAVOK 23/14 Q1015=
201909011800 METAR LRSV 011800Z 28007KT CAVOK 23/14 Q1015=
201909011830 METAR LRSV 011830Z 29007KT CAVOK 23/15 Q1015=
201909011900 METAR LRSV 011900Z 29005KT CAVOK 22/14 Q1015=
201909011930 METAR LRSV 011930Z 29003KT CAVOK 22/14 Q1015=
201909012000 METAR LRSV 012000Z 32004KT CAVOK 22/14 Q1015=
201909012030 METAR LRSV 012030Z 25005KT CAVOK 20/14 Q1015=
201909012100 METAR LRSV 012100Z 27006KT CAVOK 20/15 Q1015=
201909012130 METAR LRSV 012130Z 27006KT CAVOK 21/15 Q1015=
201909012200 METAR LRSV 012200Z 27007KT CAVOK 22/15 Q1015=
201909012230 METAR LRSV 012230Z 27006KT CAVOK 21/14 Q1015=
201909012300 METAR LRSV 012300Z 27006KT CAVOK 20/14 Q1015=
201909012330 METAR LRSV 012330Z 27006KT CAVOK 20/14 Q1015=
201909020000 METAR LRSV 020000Z 28005KT CAVOK 19/14 Q1015=
201909020030 METAR LRSV 020030Z 29005KT CAVOK 20/14 Q1015=
201909020100 METAR LRSV 020100Z 28004KT CAVOK 20/14 Q1015=
201909020130 METAR LRSV 020130Z 00000KT CAVOK 19/14 Q1015=
201909020200 METAR LRSV 020200Z 29005KT CAVOK 19/14 Q1015=
201909020230 METAR LRSV 020230Z 27004KT CAVOK 19/13 Q1015=
201909020300 METAR LRSV 020300Z 26006KT CAVOK 19/13 Q1015=
201909020330 METAR LRSV 020330Z AUTO 26007KT 9999 NCD 19/14 Q1015=
201909020400 METAR COR LRSV 020400Z 26005KT CAVOK 19/14 Q1015=
201909020430 METAR LRSV 020430Z 28007KT CAVOK 20/14 Q1015=
201909020500 METAR LRSV 020500Z AUTO 30003KT 280V350 9999 NCD 22/14 Q1015=
201909020530 METAR LRSV 020530Z AUTO 31002KT 270V360 9999 NCD 23/14 Q1015=
201909020600 METAR LRSV 020600Z AUTO 24005KT 9999 NCD 23/14 Q1015=
201909020630 METAR LRSV 020630Z AUTO 31003KT 260V360 9999 NCD 25/14 Q1015=
201909020700 METAR COR LRSV 020700Z 26002KT 210V340 CAVOK 26/14 Q1016=
201909020730 METAR LRSV 020730Z VRB02KT CAVOK 27/15 Q1016=
201909020800 METAR COR LRSV 020800Z 10004KT 030V190 CAVOK 27/15 Q1016=
201909020830 METAR LRSV 020830Z 14004KT 070V220 CAVOK 28/14 Q1016=
201909020900 METAR COR LRSV 020900Z VRB02KT CAVOK 29/14 Q1016=
201909020930 METAR COR LRSV 020930Z 26007KT 230V290 CAVOK 29/14 Q1016=
201909021000 METAR LRSV 021000Z 29005KT 240V320 CAVOK 29/14 Q1015=
201909021030 METAR LRSV 021030Z VRB03KT CAVOK 30/13 Q1015=
201909021100 METAR LRSV 021100Z 05003KT 290V100 9999 FEW050TCU 30/12 Q1015=
201909021130 METAR LRSV 021130Z VRB04KT 9999 FEW050CB 31/11 Q1015=
201909021200 METAR COR LRSV 021200Z 08004KT 010V160 9999 FEW050CB 30/12
                        Q1015=
201909021230 METAR LRSV 021230Z 01007KT 330V050 9999 FEW050CB 30/13 Q1015=
201909021300 METAR LRSV 021300Z 33005KT 270V060 9999 FEW050CB 30/12 Q1015=
201909021330 METAR COR LRSV 021330Z 27002KT 210V320 9999 FEW050CB 29/10
                        Q1015=
201909021400 METAR LRSV 021400Z VRB01KT 9999 FEW050CB 30/11 Q1015=
201909021430 METAR LRSV 021430Z 26006KT 210V280 9999 FEW050CB 30/11 Q1015=
201909021500 METAR LRSV 021500Z 27008KT 9999 FEW050CB 29/12 Q1015=
201909021530 METAR LRSV 021530Z 26006KT 9999 FEW045CB 28/13 Q1015=
201909021600 METAR LRSV 021600Z 23008KT 9999 FEW045CB 26/13 Q1015=
201909021630 METAR LRSV 021630Z 25007KT 9999 TS FEW045CB 25/13 Q1015=
201909021700 METAR LRSV 021700Z 29006KT 9999 TS FEW045CB 24/14 Q1015=
201909021730 METAR LRSV 021730Z 31008KT 9999 TS FEW045CB 25/13 Q1015=
201909021800 METAR LRSV 021800Z 35006KT 9999 TS FEW045CB 23/13 Q1016=
201909021830 METAR LRSV 021830Z 33005KT CAVOK 23/13 Q1016=
201909021900 METAR LRSV 021900Z 33008KT CAVOK 24/13 Q1016=
201909021930 METAR LRSV 021930Z 33007KT CAVOK 22/13 Q1016=
201909022000 METAR LRSV 022000Z 33006KT CAVOK 22/13 Q1016=
201909022030 METAR LRSV 022030Z 31007KT CAVOK 22/13 Q1016=
201909022100 METAR LRSV 022100Z 31008KT CAVOK 22/13 Q1016=
201909022130 METAR LRSV 022130Z 32008KT CAVOK 22/13 Q1016=
201909022200 METAR LRSV 022200Z 31009KT CAVOK 22/13 Q1016=
201909022230 METAR LRSV 022230Z 32010KT CAVOK 22/14 Q1016=
201909022300 METAR LRSV 022300Z 32009KT CAVOK 21/14 Q1016=
201909022330 METAR LRSV 022330Z 32008KT CAVOK 21/14 Q1016=
201909030000 METAR LRSV 030000Z 32010KT CAVOK 21/14 Q1016=
201909030030 METAR LRSV 030030Z 32009KT CAVOK 21/14 Q1016=
201909030100 METAR LRSV 030100Z 31009KT CAVOK 21/14 Q1016=
201909030130 METAR LRSV 030130Z 32008KT CAVOK 21/13 Q1016=
201909030200 METAR LRSV 030200Z 32010KT CAVOK 20/13 Q1016=
201909030230 METAR LRSV 030230Z 32009KT CAVOK 20/13 Q1016=
201909030300 METAR LRSV 030300Z 32008KT CAVOK 20/13 Q1016=
201909030330 METAR LRSV 030330Z AUTO 32009KT 9999 NCD 20/13 Q1016=
201909030400 METAR LRSV 030400Z AUTO 32008KT 9999 NCD 20/14 Q1016=
201909030430 METAR LRSV 030430Z AUTO 32008KT 9999 NCD 19/14 Q1017=
201909030500 METAR LRSV 030500Z AUTO 32012KT 9999 NCD 20/14 Q1017=
201909030530 METAR LRSV 030530Z AUTO 32013KT 9999 NCD 20/15 Q1017=
201909030600 METAR LRSV 030600Z AUTO 33012KT 9999 FEW130/// 21/15 Q1018=
201909030630 METAR LRSV 030630Z AUTO 33012KT 9999 BKN130/// 21/16 Q1018=
201909030700 METAR LRSV 030700Z 34012KT CAVOK 21/16 Q1018=
201909030730 METAR LRSV 030730Z 33014KT CAVOK 21/17 Q1018=
201909030800 METAR LRSV 030800Z 33015KT CAVOK 22/17 Q1018=
201909030830 METAR LRSV 030830Z 33014KT 8000 NSC 22/17 Q1018=
201909030900 METAR LRSV 030900Z 33012KT 300V010 8000 NSC 23/17 Q1018=
201909030930 METAR LRSV 030930Z 34011KT 310V010 CAVOK 24/17 Q1018=
201909031000 METAR LRSV 031000Z 35011KT 320V020 CAVOK 25/17 Q1018=
201909031030 METAR LRSV 031030Z 35011KT 320V020 9999 FEW029 25/17 Q1018=
201909031100 METAR LRSV 031100Z 35012KT 9999 SCT031 25/17 Q1018=
201909031130 METAR COR LRSV 031130Z 35011KT 310V010 9999 SCT030 25/17
                        Q1018=
201909031200 METAR LRSV 031200Z 33010KT 9999 FEW030CB SCT034 24/16 Q1018=
201909031230 METAR LRSV 031230Z 33011KT 9999 SCT028CB SCT035 23/16 Q1018=
201909031300 METAR LRSV 031300Z 34012KT 9999 SCT028CB SCT039 22/16 Q1018=
201909031330 METAR LRSV 031330Z 34013KT 9999 FEW034CB 21/16 Q1017=
201909031400 METAR COR LRSV 031400Z 33014KT 9999 FEW034CB 21/15 Q1018=
201909031430 METAR LRSV 031430Z 33013KT 9999 FEW034CB 21/16 Q1018=
201909031500 METAR LRSV 031500Z 33013KT 9999 FEW034CB 22/15 Q1018=
201909031530 METAR LRSV 031530Z 32020KT CAVOK 19/13 Q1018=
201909031600 METAR LRSV 031600Z 33020KT 9999 SCT045 17/13 Q1018=
201909031630 METAR LRSV 031630Z 33019KT 9999 SCT027 BKN031 17/13 Q1019=
201909031700 METAR LRSV 031700Z 33019KT 9999 BKN029 16/13 Q1019=
201909031730 METAR LRSV 031730Z 32020KT 9999 SCT013 BKN035 16/12 Q1019=
201909031800 METAR LRSV 031800Z 32019KT 9999 SCT011 BKN041 15/12 Q1020=
201909031830 METAR LRSV 031830Z 33018KT 9000 -SHRA FEW010 SCT050CB 14/13
                        Q1020 R16/29//95=
201909031900 METAR LRSV 031900Z 33017KT 9999 -SHRA SCT033CB 14/13 Q1020
                        R16/29//95=
201909031930 METAR LRSV 031930Z 33015KT 9999 FEW012 SCT036 14/13 Q1020
                        R16/29//95=
201909032000 METAR LRSV 032000Z 32006KT 280V010 9999 BKN011 14/13 Q1020
                        R16/29//95=
201909032030 METAR LRSV 032030Z 33011KT 9999 BKN011 14/13 Q1020 R16/29//95=
201909032100 METAR LRSV 032100Z 34011KT 9999 -RA BKN011 14/12 Q1020 R16/29//95=
201909032130 METAR LRSV 032130Z 32008KT 9999 BKN011 14/13 Q1020 R16/29//95=
201909032200 METAR LRSV 032200Z 33012KT 9999 BKN010 14/12 Q1020 R16/29//95=
201909032230 METAR LRSV 032230Z 33011KT 9999 BKN010 14/12 Q1020 R16/29//95=
201909032300 METAR LRSV 032300Z 33011KT 9999 BKN010 14/12 Q1020 R16/29//95=
201909032330 METAR LRSV 032330Z 33011KT 9999 BKN014 14/12 Q1020 R16/29//95=
201909040000 METAR LRSV 040000Z 33011KT 9999 -RA FEW008 BKN011 13/12 Q1020
                        R16/29//95=
201909040030 METAR LRSV 040030Z 33010KT 9000 RA FEW008 BKN018 13/12 Q1020
                        R16/29//95=
201909040100 METAR LRSV 040100Z 33008KT 9000 RA SCT018 BKN035 13/12 Q1020
                        R16/29//95=
201909040130 METAR LRSV 040130Z 33009KT 9000 RA SCT008 BKN019 13/12 Q1020
                        R16/29//95=
201909040200 METAR LRSV 040200Z 35012KT 9000 RA FEW008 BKN011 13/12 Q1020
                        R16/29//95=
201909040230 METAR LRSV 040230Z 36010KT 9000 RA FEW005 BKN012 13/12 Q1020
                        R16/29//95=
201909040300 METAR LRSV 040300Z 36013KT 7000 RA FEW006 BKN012 12/11 Q1021
                        R16/29//95=
201909040330 METAR LRSV 040330Z AUTO 36008KT 8000 RA FEW016/// BKN037///
                        OVC044/// 12/11 Q1021=
201909040400 METAR LRSV 040400Z AUTO 35007KT 9999 FEW012/// BKN038///
                        BKN046/// 12/11 Q1021 RERA=
201909040430 METAR LRSV 040430Z AUTO 32006KT 9999 FEW011/// BKN034///
                        12/12 Q1021 RERA=
201909040500 METAR LRSV 040500Z 33007KT 300V360 9999 SCT039 13/12 Q1021
                        R16/29//95=
201909040530 METAR LRSV 040530Z 33007KT 9999 FEW007 BKN042 13/12 Q1021
                        R16/29//95=
201909040600 METAR LRSV 040600Z 34008KT 9999 FEW006 BKN050 13/12 Q1021
                        R16/29//95=
201909040630 METAR COR LRSV 040630Z 33009KT 9999 FEW007 BKN050 14/12 Q1022
                        R16/29//95=
201909040700 METAR COR LRSV 040700Z 35007KT 310V010 9999 FEW011 BKN049
                        14/11 Q1022 R16/29//95=
201909040730 METAR LRSV 040730Z 36008KT 320V030 9999 FEW011 15/12 Q1022
                        R16/29//95=
201909040800 METAR COR LRSV 040800Z 36007KT 320V030 9999 FEW017 15/11
                        Q1021 R16/29//95=
201909040830 METAR COR LRSV 040830Z 34008KT 300V010 9999 SCT018 16/10
                        Q1021 R16/CLRD//=
201909040900 METAR LRSV 040900Z 34009KT 9999 SCT023 16/11 Q1021=
201909040930 METAR LRSV 040930Z 35008KT 310V040 9999 BKN020 16/10 Q1021=
201909041000 METAR LRSV 041000Z 34008KT 9999 BKN030 17/11 Q1021=
201909041030 METAR LRSV 041030Z 34009KT 300V010 9999 BKN027 17/11 Q1021=
201909041100 METAR COR LRSV 041100Z 34007KT 310V010 9999 BKN032 16/11
                        Q1021=
201909041130 METAR LRSV 041130Z 33008KT 9999 BKN032 16/10 Q1021=
201909041200 METAR LRSV 041200Z 34007KT 9999 BKN036 16/11 Q1020=
201909041230 METAR LRSV 041230Z 32007KT 9999 BKN037 17/11 Q1020=
201909041300 METAR COR LRSV 041300Z 33008KT 300V360 9999 BKN042 17/10
                        Q1020=
201909041330 METAR LRSV 041330Z AUTO 34009KT 9999 BKN049/// BKN080///
                        17/11 Q1020=
201909041400 METAR LRSV 041400Z AUTO 31006KT 290V350 9999 FEW050/// BKN080///
                        18/11 Q1020=
201909041430 METAR LRSV 041430Z AUTO 32007KT 290V360 9999 FEW055/// 17/10
                        Q1019=
201909041500 METAR COR LRSV 041500Z 32006KT CAVOK 17/10 Q1019=
201909041530 METAR COR LRSV 041530Z 30005KT 260V320 CAVOK 17/10 Q1019=
201909041600 METAR LRSV 041600Z 30005KT CAVOK 17/11 Q1019=
201909041630 METAR LRSV 041630Z 29004KT CAVOK 16/11 Q1019=
201909041700 METAR COR LRSV 041700Z 29004KT CAVOK 15/11 Q1019=
201909041730 METAR LRSV 041730Z 31005KT CAVOK 16/10 Q1019=
201909041800 METAR LRSV 041800Z 31005KT CAVOK 16/09 Q1019=
201909041830 METAR LRSV 041830Z 31005KT CAVOK 14/09 Q1019=
201909041900 METAR LRSV 041900Z 31006KT CAVOK 14/10 Q1019=
201909041930 METAR LRSV 041930Z 33007KT CAVOK 14/09 Q1019=
201909042000 METAR LRSV 042000Z 32006KT CAVOK 13/09 Q1019=
201909042030 METAR LRSV 042030Z 31005KT CAVOK 12/09 Q1019=
201909042100 METAR LRSV 042100Z 29006KT CAVOK 12/09 Q1019=
201909042130 METAR LRSV 042130Z 28008KT CAVOK 13/10 Q1019=
201909042200 METAR LRSV 042200Z AUTO 30007KT 9999 NCD 12/09 Q1019=
201909042230 METAR LRSV 042230Z 30007KT CAVOK 12/09 Q1019=
201909042300 METAR LRSV 042300Z 30008KT CAVOK 12/09 Q1019=
201909042330 METAR LRSV 042330Z 31006KT CAVOK 13/09 Q1019=
201909050000 METAR LRSV 050000Z 32006KT CAVOK 13/08 Q1019=
201909050030 METAR LRSV 050030Z 32005KT CAVOK 12/08 Q1018=
201909050100 METAR LRSV 050100Z 32005KT CAVOK 12/08 Q1018=
201909050130 METAR LRSV 050130Z 32004KT CAVOK 12/08 Q1018=
201909050200 METAR LRSV 050200Z 32005KT CAVOK 12/08 Q1018=
201909050230 METAR COR LRSV 050230Z 33005KT CAVOK 12/08 Q1018=
201909050300 METAR LRSV 050300Z 33005KT CAVOK 12/08 Q1018=
201909050330 METAR LRSV 050330Z AUTO 33005KT 9999 NCD 12/08 Q1018=
201909050400 METAR LRSV 050400Z AUTO 29003KT 220V340 9999 NCD 10/08 Q1018=
201909050430 METAR LRSV 050430Z AUTO 32005KT 9999 NCD 13/08 Q1018=
201909050500 METAR LRSV 050500Z AUTO 33005KT 9999 NCD 14/09 Q1018=
201909050530 METAR LRSV 050530Z AUTO 33005KT 9999 NCD 15/09 Q1018=
201909050600 METAR LRSV 050600Z AUTO 34003KT 310V010 9999 NCD 15/10 Q1018=
201909050630 METAR LRSV 050630Z AUTO VRB01KT 9999 NCD 17/10 Q1018=
201909050700 METAR COR LRSV 050700Z VRB02KT CAVOK 17/11 Q1018=
201909050730 METAR COR LRSV 050730Z VRB02KT CAVOK 18/10 Q1018=
201909050800 METAR LRSV 050800Z VRB03KT CAVOK 18/09 Q1018=
201909050830 METAR COR LRSV 050830Z 13005KT 080V160 CAVOK 19/08 Q1018=
201909050900 METAR LRSV 050900Z VRB03KT CAVOK 20/08 Q1018=
201909050930 METAR LRSV 050930Z VRB04KT CAVOK 20/07 Q1017=
201909051000 METAR LRSV 051000Z 10005KT 050V210 CAVOK 20/08 Q1017=
201909051030 METAR LRSV 051030Z VRB04KT CAVOK 20/07 Q1017=
201909051100 METAR LRSV 051100Z 18005KT 150V240 CAVOK 21/06 Q1017=
201909051130 METAR COR LRSV 051130Z VRB04KT CAVOK 21/07 Q1016=
201909051200 METAR LRSV 051200Z VRB03KT CAVOK 22/07 Q1016=
201909051230 METAR LRSV 051230Z 15005KT 100V260 CAVOK 22/07 Q1016=
201909051300 METAR LRSV 051300Z VRB02KT CAVOK 22/07 Q1016=
201909051330 METAR LRSV 051330Z VRB04KT CAVOK 22/08 Q1016=
201909051400 METAR LRSV 051400Z 11006KT 070V150 CAVOK 22/08 Q1016=
201909051430 METAR LRSV 051430Z 12003KT 070V220 CAVOK 22/07 Q1015=
201909051500 METAR LRSV 051500Z 11005KT 070V140 CAVOK 21/07 Q1016=
201909051530 METAR LRSV 051530Z 09004KT 050V120 CAVOK 21/08 Q1016=
201909051600 METAR LRSV 051600Z 10006KT CAVOK 20/09 Q1016=
201909051630 METAR LRSV 051630Z 10006KT CAVOK 19/10 Q1016=
201909051700 METAR LRSV 051700Z 09004KT CAVOK 18/09 Q1016=
201909051730 METAR LRSV 051730Z 09003KT CAVOK 18/09 Q1016=
201909051800 METAR LRSV 051800Z 10003KT CAVOK 18/08 Q1016=
201909051830 METAR LRSV 051830Z 12005KT CAVOK 18/08 Q1016=
201909051900 METAR LRSV 051900Z 15002KT 130V190 CAVOK 16/08 Q1017=
201909051930 METAR LRSV 051930Z 16004KT CAVOK 16/09 Q1017=
201909052000 METAR LRSV 052000Z 19003KT CAVOK 16/09 Q1017=
201909052030 METAR LRSV 052030Z 23004KT CAVOK 15/09 Q1017=
201909052100 METAR LRSV 052100Z 22004KT CAVOK 15/09 Q1017=
201909052130 METAR LRSV 052130Z 25005KT CAVOK 13/09 Q1017=
201909052200 METAR LRSV 052200Z 25005KT CAVOK 13/09 Q1017=
201909052230 METAR LRSV 052230Z 26006KT CAVOK 14/09 Q1017=
201909052300 METAR LRSV 052300Z 26006KT CAVOK 14/09 Q1017=
201909052330 METAR LRSV 052330Z 26006KT CAVOK 14/09 Q1017=
201909060000 METAR LRSV 060000Z 27005KT CAVOK 13/08 Q1017=
201909060030 METAR LRSV 060030Z 27005KT CAVOK 13/08 Q1017=
201909060100 METAR LRSV 060100Z 26005KT CAVOK 13/08 Q1017=
201909060130 METAR LRSV 060130Z 26005KT CAVOK 13/08 Q1017=
201909060200 METAR LRSV 060200Z 28006KT CAVOK 13/08 Q1018=
201909060230 METAR LRSV 060230Z 28004KT CAVOK 13/08 Q1018=
201909060300 METAR LRSV 060300Z 28005KT CAVOK 13/08 Q1018=
201909060330 METAR LRSV 060330Z AUTO 02003KT 320V060 9999 NCD 14/08 Q1018=
201909060400 METAR LRSV 060400Z AUTO 07004KT 9999 NCD 12/08 Q1019=
201909060430 METAR LRSV 060430Z AUTO 01002KT 9999 NCD 13/09 Q1019=
201909060500 METAR LRSV 060500Z AUTO 35003KT 9999 NCD 15/09 Q1019=
201909060530 METAR LRSV 060530Z AUTO 34003KT 9999 NCD 16/10 Q1019=
201909060600 METAR LRSV 060600Z AUTO 35003KT 310V020 9999 NCD 17/10 Q1019=
201909060630 METAR LRSV 060630Z AUTO 34002KT 270V040 9999 NCD 18/10 Q1020=
201909060700 METAR LRSV 060700Z VRB02KT CAVOK 20/12 Q1020=
201909060730 METAR COR LRSV 060730Z VRB02KT CAVOK 21/09 Q1020=
201909060800 METAR LRSV 060800Z 31003KT 230V020 CAVOK 21/08 Q1020=
201909060830 METAR LRSV 060830Z 34005KT 290V030 9999 FEW046 21/09 Q1020=
201909060900 METAR LRSV 060900Z 03007KT 330V080 9999 FEW046 22/07 Q1020=
201909060930 METAR LRSV 060930Z 01008KT 340V040 9999 FEW046 22/08 Q1020=
201909061000 METAR LRSV 061000Z VRB05KT CAVOK 23/08 Q1020=
201909061030 METAR LRSV 061030Z 06007KT 030V100 CAVOK 23/08 Q1020=
201909061100 METAR LRSV 061100Z 30006KT 250V330 CAVOK 23/08 Q1020=
201909061130 METAR LRSV 061130Z 02005KT 330V070 CAVOK 23/07 Q1020=
201909061200 METAR LRSV 061200Z VRB04KT CAVOK 23/07 Q1020=
201909061230 METAR LRSV 061230Z 03004KT 350V060 CAVOK 23/07 Q1020=
201909061300 METAR LRSV 061300Z VRB03KT CAVOK 23/07 Q1020=
201909061330 METAR LRSV 061330Z 31006KT 280V350 CAVOK 24/07 Q1020=
201909061400 METAR LRSV 061400Z 01007KT CAVOK 22/08 Q1020=
201909061430 METAR LRSV 061430Z 36006KT 320V050 CAVOK 23/08 Q1020=
201909061500 METAR LRSV 061500Z 03008KT CAVOK 23/08 Q1020=
201909061530 METAR LRSV 061530Z 01006KT CAVOK 23/08 Q1020=
201909061600 METAR LRSV 061600Z 36005KT CAVOK 22/08 Q1020=
201909061630 METAR LRSV 061630Z 32004KT CAVOK 20/09 Q1020=
201909061700 METAR COR LRSV 061700Z 32005KT CAVOK 19/09 Q1020=
201909061730 METAR LRSV 061730Z 32005KT CAVOK 19/08 Q1020=
201909061800 METAR LRSV 061800Z 33006KT CAVOK 19/08 Q1021=
201909061830 METAR LRSV 061830Z 32006KT CAVOK 18/08 Q1021=
201909061900 METAR LRSV 061900Z 33006KT CAVOK 18/08 Q1021=
201909061930 METAR LRSV 061930Z 32005KT CAVOK 18/08 Q1021=
201909062000 METAR LRSV 062000Z 32006KT CAVOK 17/08 Q1021=
201909062030 METAR COR LRSV 062030Z 32006KT CAVOK 16/09 Q1021=
201909062100 METAR LRSV 062100Z 32006KT CAVOK 18/09 Q1021=
201909062130 METAR LRSV 062130Z 32010KT CAVOK 17/10 Q1021=
201909062200 METAR COR LRSV 062200Z 32010KT CAVOK 16/11 Q1021=
201909062230 METAR LRSV 062230Z 32010KT CAVOK 16/11 Q1021=
201909062300 METAR LRSV 062300Z 32009KT CAVOK 16/12 Q1021=
201909062330 METAR LRSV 062330Z 32010KT CAVOK 16/12 Q1021=
201909070000 METAR LRSV 070000Z 32009KT CAVOK 16/12 Q1021=
201909070030 METAR LRSV 070030Z 32009KT CAVOK 15/12 Q1021=
201909070100 METAR LRSV 070100Z 34006KT 320V110 CAVOK 15/11 Q1021=
201909070130 METAR LRSV 070130Z VRB01KT CAVOK 12/10 Q1021=
201909070200 METAR LRSV 070200Z 27003KT 230V320 CAVOK 13/11 Q1021=
201909070230 METAR COR LRSV 070230Z 32006KT CAVOK 14/11 Q1021=
201909070300 METAR COR LRSV 070300Z 32007KT CAVOK 14/11 Q1021=
201909070330 METAR LRSV 070330Z AUTO 32007KT 9999 NCD 15/11 Q1021=
201909070400 METAR LRSV 070400Z AUTO 33007KT 9999 NCD 15/11 Q1021=
201909070430 METAR LRSV 070430Z AUTO 32006KT 9999 NCD 15/11 Q1021=
201909070500 METAR LRSV 070500Z 32005KT CAVOK 16/12 Q1021=
201909070530 METAR LRSV 070530Z 29004KT 260V320 CAVOK 17/12 Q1021=
201909070600 METAR LRSV 070600Z 33004KT CAVOK 18/12 Q1021=
201909070630 METAR LRSV 070630Z VRB01KT CAVOK 19/13 Q1021=
201909070700 METAR LRSV 070700Z 08004KT 040V130 CAVOK 20/13 Q1021=
201909070730 METAR LRSV 070730Z 07003KT 040V130 CAVOK 20/13 Q1021=
201909070800 METAR LRSV 070800Z 10003KT 050V150 CAVOK 21/13 Q1021=
201909070830 METAR LRSV 070830Z VRB01KT CAVOK 22/12 Q1021=
201909070900 METAR LRSV 070900Z VRB04KT CAVOK 23/11 Q1021=
201909070930 METAR LRSV 070930Z 11006KT 070V150 CAVOK 23/10 Q1021=
201909071000 METAR LRSV 071000Z 15007KT 110V200 CAVOK 24/10 Q1021=
201909071030 METAR LRSV 071030Z 17008KT 140V200 CAVOK 24/09 Q1021=
201909071100 METAR LRSV 071100Z 12009KT CAVOK 24/10 Q1021=
201909071130 METAR LRSV 071130Z 15010KT 100V190 CAVOK 24/10 Q1020=
201909071200 METAR LRSV 071200Z 16010KT 120V190 CAVOK 25/11 Q1020=
201909071230 METAR LRSV 071230Z 15009KT CAVOK 25/10 Q1020=
201909071300 METAR LRSV 071300Z 15007KT CAVOK 25/11 Q1020=
201909071330 METAR LRSV 071330Z 15007KT 110V180 CAVOK 25/11 Q1020=
201909071400 METAR LRSV 071400Z 12009KT 100V160 CAVOK 24/11 Q1020=
201909071430 METAR LRSV 071430Z 12010KT CAVOK 24/11 Q1020=
201909071500 METAR LRSV 071500Z 13010KT CAVOK 24/11 Q1020=
201909071530 METAR LRSV 071530Z 13010KT CAVOK 23/11 Q1020=
201909071600 METAR LRSV 071600Z 13007KT CAVOK 22/12 Q1020=
201909071630 METAR LRSV 071630Z 13006KT CAVOK 21/11 Q1020=
201909071700 METAR LRSV 071700Z 13007KT CAVOK 21/11 Q1020=
201909071730 METAR LRSV 071730Z 13007KT CAVOK 20/11 Q1020=
201909071800 METAR COR LRSV 071800Z 13007KT CAVOK 20/12 Q1020=
201909071830 METAR LRSV 071830Z 13007KT CAVOK 20/12 Q1020=
201909071900 METAR LRSV 071900Z 14006KT CAVOK 19/11 Q1020=
201909071930 METAR LRSV 071930Z 14005KT CAVOK 20/11 Q1020=
201909072000 METAR LRSV 072000Z 18004KT CAVOK 18/11 Q1020=
201909072030 METAR LRSV 072030Z 20003KT CAVOK 18/11 Q1020=
201909072100 METAR LRSV 072100Z 21003KT CAVOK 17/12 Q1020=
201909072130 METAR LRSV 072130Z 23005KT CAVOK 17/11 Q1020=
201909072200 METAR LRSV 072200Z 24005KT CAVOK 17/12 Q1020=
201909072230 METAR LRSV 072230Z 25005KT CAVOK 17/12 Q1020=
201909072300 METAR LRSV 072300Z 24004KT CAVOK 17/12 Q1020=
201909072330 METAR LRSV 072330Z 23004KT CAVOK 17/12 Q1020=
201909080000 METAR LRSV 080000Z 24005KT CAVOK 16/12 Q1020=
201909080030 METAR LRSV 080030Z 23004KT CAVOK 15/11 Q1020=
201909080100 METAR LRSV 080100Z 20003KT CAVOK 16/11 Q1019=
201909080130 METAR LRSV 080130Z 19003KT CAVOK 16/12 Q1019=
201909080200 METAR LRSV 080200Z 16004KT CAVOK 16/12 Q1019=
201909080230 METAR LRSV 080230Z 19004KT CAVOK 15/12 Q1020=
201909080300 METAR LRSV 080300Z 22004KT CAVOK 15/12 Q1020=
201909080330 METAR LRSV 080330Z 22004KT CAVOK 15/12 Q1020=
201909080400 METAR LRSV 080400Z 20005KT CAVOK 15/12 Q1020=
201909080430 METAR LRSV 080430Z 19006KT CAVOK 15/12 Q1020=
201909080500 METAR COR LRSV 080500Z 19005KT CAVOK 16/12 Q1021=
201909080530 METAR COR LRSV 080530Z 17006KT CAVOK 18/13 Q1021=
201909080600 METAR COR LRSV 080600Z 16009KT CAVOK 19/12 Q1021=
201909080630 METAR LRSV 080630Z 15009KT CAVOK 19/12 Q1021=
201909080700 METAR LRSV 080700Z 16009KT CAVOK 21/12 Q1021=
201909080730 METAR LRSV 080730Z 16011KT CAVOK 22/12 Q1021=
201909080800 METAR LRSV 080800Z 15013KT CAVOK 24/13 Q1021=
201909080830 METAR LRSV 080830Z 17015KT CAVOK 24/11 Q1021=
201909080900 METAR LRSV 080900Z 17016KT CAVOK 25/11 Q1021=
201909080930 METAR LRSV 080930Z 17017KT CAVOK 25/10 Q1021=
201909081000 METAR LRSV 081000Z 15018KT CAVOK 25/10 Q1021=
201909081030 METAR LRSV 081030Z 16019G30KT 130V190 CAVOK 25/10 Q1021=
201909081100 METAR LRSV 081100Z 16017KT CAVOK 24/10 Q1021=
201909081130 METAR LRSV 081130Z 16017KT 130V190 CAVOK 25/10 Q1021=
201909081200 METAR LRSV 081200Z 16017KT CAVOK 25/09 Q1021=
201909081230 METAR LRSV 081230Z 16014KT CAVOK 25/09 Q1021=
201909081300 METAR LRSV 081300Z 16014KT CAVOK 25/10 Q1021=
201909081330 METAR LRSV 081330Z 15013KT CAVOK 25/10 Q1021=
201909081400 METAR LRSV 081400Z 15011KT CAVOK 25/10 Q1021=
201909081430 METAR LRSV 081430Z 14012KT CAVOK 25/10 Q1021=
201909081500 METAR LRSV 081500Z 16008KT CAVOK 24/11 Q1021=
201909081530 METAR LRSV 081530Z 15008KT CAVOK 23/11 Q1021=
201909081600 METAR LRSV 081600Z 15007KT CAVOK 22/11 Q1021=
201909081630 METAR COR LRSV 081630Z 14007KT CAVOK 21/11 Q1021=
201909081700 METAR LRSV 081700Z 13008KT CAVOK 21/11 Q1021=
201909081730 METAR LRSV 081730Z 14008KT CAVOK 20/11 Q1021=
201909081800 METAR LRSV 081800Z 14009KT CAVOK 20/10 Q1022=
201909081830 METAR LRSV 081830Z 14007KT CAVOK 20/10 Q1022=
201909081900 METAR LRSV 081900Z 14007KT CAVOK 19/10 Q1022=
201909081930 METAR LRSV 081930Z 15006KT CAVOK 18/10 Q1022=
201909082000 METAR LRSV 082000Z 14009KT CAVOK 19/10 Q1022=
201909082030 METAR LRSV 082030Z 15008KT CAVOK 19/10 Q1022=
201909082100 METAR LRSV 082100Z 15011KT CAVOK 19/10 Q1022=
201909082130 METAR LRSV 082130Z 16010KT CAVOK 18/10 Q1022=
201909082200 METAR LRSV 082200Z 17013KT CAVOK 18/10 Q1022=
201909082230 METAR LRSV 082230Z 18009KT CAVOK 17/10 Q1022=
201909082300 METAR LRSV 082300Z 17008KT CAVOK 17/10 Q1022=
201909082330 METAR LRSV 082330Z 18007KT CAVOK 16/10 Q1022=
201909090000 METAR LRSV 090000Z 16007KT CAVOK 15/10 Q1021=
201909090030 METAR LRSV 090030Z 16008KT CAVOK 15/10 Q1021=
201909090100 METAR LRSV 090100Z 16008KT CAVOK 14/10 Q1021=
201909090130 METAR LRSV 090130Z 15007KT CAVOK 15/10 Q1021=
201909090200 METAR LRSV 090200Z 15007KT CAVOK 14/10 Q1021=
201909090230 METAR LRSV 090230Z 15007KT CAVOK 14/10 Q1021=
201909090300 METAR LRSV 090300Z 15006KT CAVOK 13/09 Q1021=
201909090330 METAR LRSV 090330Z 15007KT CAVOK 13/10 Q1021=
201909090400 METAR LRSV 090400Z 16007KT CAVOK 13/10 Q1021=
201909090430 METAR LRSV 090430Z 16006KT CAVOK 13/10 Q1021=
201909090500 METAR LRSV 090500Z AUTO 16006KT 9999 NCD 15/11 Q1021=
201909090530 METAR LRSV 090530Z AUTO 17005KT 9999 NCD 16/11 Q1021=
201909090600 METAR LRSV 090600Z AUTO 16005KT 130V190 9999 NCD 18/11 Q1021=
201909090630 METAR LRSV 090630Z AUTO 16007KT 9999 NCD 19/10 Q1021=
201909090700 METAR LRSV 090700Z 15009KT CAVOK 20/10 Q1021=
201909090730 METAR LRSV 090730Z 15015KT CAVOK 21/09 Q1021=
201909090800 METAR LRSV 090800Z 15016KT CAVOK 22/09 Q1021=
201909090830 METAR LRSV 090830Z 14015KT CAVOK 23/08 Q1021=
201909090900 METAR LRSV 090900Z 16017KT CAVOK 23/07 Q1020=
201909090930 METAR LRSV 090930Z 15019KT CAVOK 23/07 Q1020=
201909091000 METAR LRSV 091000Z 16019KT CAVOK 24/06 Q1020=
201909091030 METAR LRSV 091030Z 16018KT CAVOK 24/06 Q1020=
201909091100 METAR LRSV 091100Z 14018KT CAVOK 24/05 Q1019=
201909091130 METAR LRSV 091130Z 16017KT CAVOK 24/06 Q1019=
201909091200 METAR LRSV 091200Z 15015KT 120V180 CAVOK 24/06 Q1019=
201909091230 METAR LRSV 091230Z 15018KT 120V180 CAVOK 24/05 Q1018=
201909091300 METAR LRSV 091300Z 14018KT CAVOK 24/05 Q1018=
201909091330 METAR LRSV 091330Z 14017KT CAVOK 24/05 Q1018=
201909091400 METAR LRSV 091400Z 15016KT CAVOK 24/05 Q1018=
201909091430 METAR LRSV 091430Z 14014KT CAVOK 23/05 Q1017=
201909091500 METAR LRSV 091500Z 15011KT CAVOK 23/06 Q1017=
201909091530 METAR LRSV 091530Z 14010KT CAVOK 23/06 Q1017=
201909091600 METAR LRSV 091600Z 15009KT CAVOK 22/07 Q1017=
201909091630 METAR LRSV 091630Z 15009KT CAVOK 21/07 Q1017=
201909091700 METAR COR LRSV 091700Z 14009KT CAVOK 21/07 Q1018=
201909091730 METAR LRSV 091730Z 13011KT CAVOK 21/06 Q1017=
201909091800 METAR LRSV 091800Z 13013KT CAVOK 20/06 Q1018=
201909091830 METAR LRSV 091830Z 13011KT CAVOK 19/05 Q1018=
201909091900 METAR LRSV 091900Z 14013KT CAVOK 19/05 Q1018=
201909091930 METAR COR LRSV 091930Z 15013KT CAVOK 18/05 Q1018=
201909092000 METAR LRSV 092000Z 15009KT CAVOK 17/05 Q1018=
201909092030 METAR LRSV 092030Z 15010KT CAVOK 17/05 Q1018=
201909092100 METAR LRSV 092100Z 17007KT CAVOK 16/05 Q1019=
201909092130 METAR LRSV 092130Z 17010KT CAVOK 17/05 Q1018=
201909092200 METAR LRSV 092200Z 17008KT CAVOK 16/06 Q1018=
201909092230 METAR LRSV 092230Z 17007KT CAVOK 15/06 Q1019=
201909092300 METAR LRSV 092300Z 13007KT CAVOK 14/06 Q1019=
201909092330 METAR LRSV 092330Z 16006KT CAVOK 15/06 Q1019=
201909100000 METAR LRSV 100000Z 15007KT CAVOK 14/06 Q1019=
201909100030 METAR LRSV 100030Z 15008KT CAVOK 13/07 Q1018=
201909100100 METAR LRSV 100100Z 16007KT CAVOK 13/07 Q1019=
201909100130 METAR LRSV 100130Z 14008KT CAVOK 13/07 Q1019=
201909100200 METAR LRSV 100200Z 14005KT CAVOK 13/07 Q1019=
201909100230 METAR LRSV 100230Z 14005KT CAVOK 13/07 Q1019=
201909100300 METAR COR LRSV 100300Z 16006KT CAVOK 12/06 Q1019=
201909100330 METAR LRSV 100330Z AUTO 16004KT 9999 NCD 12/07 Q1019=
201909100400 METAR LRSV 100400Z AUTO 15004KT 9999 NCD 13/07 Q1019=
201909100430 METAR LRSV 100430Z AUTO 12003KT 9999 NCD 12/07 Q1019=
201909100500 METAR LRSV 100500Z AUTO 14008KT 9999 NCD 14/07 Q1020=
201909100530 METAR LRSV 100530Z AUTO 15008KT 9999 NCD 16/08 Q1020=
201909100600 METAR LRSV 100600Z AUTO 15010KT 9999 NCD 17/09 Q1020=
201909100630 METAR LRSV 100630Z AUTO 15009KT 9999 NCD 18/09 Q1020=
201909100700 METAR COR LRSV 100700Z 15010KT CAVOK 19/10 Q1021=
201909100730 METAR LRSV 100730Z 17007KT 130V200 CAVOK 20/11 Q1021=
201909100800 METAR LRSV 100800Z 15011KT CAVOK 20/11 Q1020=
201909100830 METAR LRSV 100830Z 14012KT CAVOK 21/11 Q1021=
201909100900 METAR COR LRSV 100900Z 15011KT 120V180 CAVOK 23/11 Q1021=
201909100930 METAR LRSV 100930Z 14014KT CAVOK 22/11 Q1021=
201909101000 METAR LRSV 101000Z 15012KT CAVOK 23/10 Q1021=
201909101030 METAR LRSV 101030Z 15011KT 120V180 CAVOK 23/09 Q1021=
201909101100 METAR COR LRSV 101100Z 15011KT 120V180 CAVOK 23/10 Q1020=
201909101130 METAR LRSV 101130Z 14010KT 120V200 CAVOK 24/10 Q1020=
201909101200 METAR LRSV 101200Z 14011KT 110V170 CAVOK 24/10 Q1020=
201909101230 METAR LRSV 101230Z 16010KT 130V200 CAVOK 24/09 Q1020=
201909101300 METAR LRSV 101300Z 15010KT 110V180 CAVOK 24/08 Q1020=
201909101330 METAR LRSV 101330Z 15012KT CAVOK 24/06 Q1020=
201909101400 METAR LRSV 101400Z 15009KT 120V180 CAVOK 24/07 Q1020=
201909101430 METAR LRSV 101430Z 15010KT 120V180 CAVOK 24/07 Q1020=
201909101500 METAR LRSV 101500Z 14011KT CAVOK 23/07 Q1020=
201909101530 METAR LRSV 101530Z 14011KT CAVOK 23/07 Q1020=
201909101600 METAR LRSV 101600Z 14007KT CAVOK 22/08 Q1021=
201909101630 METAR LRSV 101630Z 13007KT CAVOK 20/08 Q1021=
201909101700 METAR COR LRSV 101700Z 14007KT CAVOK 19/09 Q1021=
201909101730 METAR LRSV 101730Z 13008KT CAVOK 19/09 Q1021=
201909101800 METAR LRSV 101800Z 13007KT CAVOK 19/09 Q1021=
201909101830 METAR LRSV 101830Z 13006KT CAVOK 18/08 Q1022=
201909101900 METAR COR LRSV 101900Z 15006KT CAVOK 18/09 Q1022=
201909101930 METAR LRSV 101930Z 15006KT CAVOK 18/09 Q1022=
201909102000 METAR COR LRSV 102000Z 16003KT CAVOK 17/09 Q1022=
201909102030 METAR LRSV 102030Z 17003KT CAVOK 17/09 Q1022=
201909102100 METAR LRSV 102100Z 19003KT CAVOK 17/08 Q1023=
201909102130 METAR LRSV 102130Z 18004KT CAVOK 17/08 Q1023=
201909102200 METAR LRSV 102200Z 19004KT CAVOK 16/07 Q1023=
201909102230 METAR LRSV 102230Z 20003KT CAVOK 16/07 Q1023=
201909102300 METAR LRSV 102300Z 23004KT CAVOK 16/08 Q1023=
201909102330 METAR LRSV 102330Z 25003KT CAVOK 15/08 Q1023=
201909110000 METAR LRSV 110000Z 24004KT CAVOK 14/09 Q1023=
201909110030 METAR COR LRSV 110030Z 16004KT 090V210 CAVOK 14/08 Q1023=
201909110100 METAR COR LRSV 110100Z 21003KT CAVOK 14/08 Q1023=
201909110130 METAR LRSV 110130Z 22003KT CAVOK 13/08 Q1023=
201909110200 METAR LRSV 110200Z 21003KT CAVOK 14/08 Q1023=
201909110230 METAR LRSV 110230Z 22001KT CAVOK 14/08 Q1023=
201909110300 METAR LRSV 110300Z 11002KT 060V210 CAVOK 14/08 Q1024=
201909110330 METAR LRSV 110330Z AUTO 00000KT 9999 NCD 14/08 Q1024=
201909110400 METAR LRSV 110400Z AUTO VRB01KT 9999 NCD 14/08 Q1024=
201909110430 METAR LRSV 110430Z AUTO 23002KT 9999 NCD 13/08 Q1024=
201909110500 METAR COR LRSV 110500Z 20002KT CAVOK 15/07 Q1024=
201909110530 METAR COR LRSV 110530Z 07003KT CAVOK 15/09 Q1024=
201909110600 METAR LRSV 110600Z 07003KT CAVOK 18/08 Q1025=
201909110630 METAR LRSV 110630Z 10005KT CAVOK 18/07 Q1025=
201909110700 METAR LRSV 110700Z 17005KT 130V200 CAVOK 19/09 Q1025=
201909110730 METAR LRSV 110730Z 13007KT 100V170 CAVOK 20/09 Q1026=
201909110800 METAR LRSV 110800Z 15008KT 120V180 CAVOK 20/08 Q1026=
201909110830 METAR COR LRSV 110830Z 15009KT 110V180 CAVOK 21/09 Q1026=
201909110900 METAR LRSV 110900Z 14009KT 110V170 CAVOK 22/09 Q1026=
201909110930 METAR LRSV 110930Z 15011KT 120V180 CAVOK 22/10 Q1026=
201909111000 METAR LRSV 111000Z 15011KT 120V180 CAVOK 23/09 Q1026=
201909111030 METAR LRSV 111030Z 17012KT 130V190 CAVOK 23/09 Q1026=
201909111100 METAR LRSV 111100Z 14011KT CAVOK 23/08 Q1026=
201909111130 METAR COR LRSV 111130Z 16009KT 130V200 CAVOK 24/08 Q1025=
201909111200 METAR LRSV 111200Z 14010KT 100V190 CAVOK 24/07 Q1025=
201909111230 METAR LRSV 111230Z 14009KT 110V170 CAVOK 24/07 Q1025=
201909111300 METAR LRSV 111300Z 14008KT 110V180 CAVOK 24/06 Q1025=
201909111330 METAR LRSV 111330Z AUTO 14007KT 9999 NCD 24/06 Q1025=
201909111400 METAR LRSV 111400Z AUTO 14009KT 110V170 9999 NCD 24/07 Q1025=
201909111430 METAR LRSV 111430Z AUTO 16009KT 9999 NCD 24/07 Q1025=
201909111500 METAR LRSV 111500Z 15009KT CAVOK 24/07 Q1025=
201909111530 METAR LRSV 111530Z 14009KT CAVOK 23/07 Q1025=
201909111600 METAR LRSV 111600Z 13007KT CAVOK 22/08 Q1025=
201909111630 METAR LRSV 111630Z 12007KT CAVOK 21/08 Q1025=
201909111700 METAR LRSV 111700Z 12007KT CAVOK 20/08 Q1025=
201909111730 METAR COR LRSV 111730Z 12007KT CAVOK 20/06 Q1025=
201909111800 METAR LRSV 111800Z 12008KT CAVOK 20/06 Q1025=
201909111830 METAR LRSV 111830Z 14006KT CAVOK 19/06 Q1025=
201909111900 METAR LRSV 111900Z 15006KT CAVOK 19/07 Q1025=
201909111930 METAR LRSV 111930Z 16005KT CAVOK 18/07 Q1026=
201909112000 METAR LRSV 112000Z 24005KT CAVOK 16/08 Q1026=
201909112030 METAR LRSV 112030Z 21003KT CAVOK 17/07 Q1026=
201909112100 METAR LRSV 112100Z 21003KT CAVOK 17/07 Q1026=
201909112130 METAR LRSV 112130Z 24005KT CAVOK 15/07 Q1026=
201909112200 METAR LRSV 112200Z 24006KT CAVOK 16/08 Q1026=
201909112230 METAR LRSV 112230Z 25005KT CAVOK 16/08 Q1026=
201909112300 METAR LRSV 112300Z 25005KT CAVOK 16/08 Q1026=
201909112330 METAR LRSV 112330Z 24005KT CAVOK 15/08 Q1025=
201909120000 METAR LRSV 120000Z 26005KT CAVOK 14/08 Q1025=
201909120030 METAR LRSV 120030Z 24005KT CAVOK 15/08 Q1025=
201909120100 METAR LRSV 120100Z 24005KT CAVOK 14/08 Q1025=
201909120130 METAR LRSV 120130Z 26005KT CAVOK 14/07 Q1026=
201909120200 METAR LRSV 120200Z 24004KT CAVOK 15/07 Q1025=
201909120230 METAR LRSV 120230Z 25004KT CAVOK 14/07 Q1026=
201909120300 METAR LRSV 120300Z 25005KT CAVOK 13/07 Q1026=
201909120330 METAR LRSV 120330Z AUTO 24003KT 9999 FEW220/// 14/07 Q1026=
201909120400 METAR LRSV 120400Z AUTO 23004KT 9999 FEW240/// 14/07 Q1026=
201909120430 METAR LRSV 120430Z AUTO 23004KT 9999 NCD 14/08 Q1026=
201909120500 METAR LRSV 120500Z AUTO 23003KT 9999 NCD 15/09 Q1026=
201909120530 METAR LRSV 120530Z AUTO 21004KT 9999 SCT230/// 16/09 Q1026=
201909120600 METAR LRSV 120600Z AUTO 19005KT 9999 NCD 18/09 Q1026=
201909120630 METAR LRSV 120630Z AUTO 19006KT 9999 NCD 18/08 Q1027=
201909120700 METAR LRSV 120700Z 20006KT CAVOK 18/08 Q1027=
201909120730 METAR LRSV 120730Z 19006KT CAVOK 20/09 Q1027=
201909120800 METAR LRSV 120800Z 18008KT CAVOK 22/09 Q1027=
201909120830 METAR LRSV 120830Z 19007KT 160V220 CAVOK 23/09 Q1027=
201909120900 METAR LRSV 120900Z 16008KT CAVOK 23/06 Q1027=
201909120930 METAR LRSV 120930Z 15009KT 100V200 CAVOK 25/04 Q1027=
201909121000 METAR LRSV 121000Z 13009KT CAVOK 25/04 Q1027=
201909121030 METAR LRSV 121030Z 18006KT 140V230 CAVOK 25/04 Q1027=
201909121100 METAR LRSV 121100Z 14008KT 080V200 CAVOK 25/04 Q1027=
201909121130 METAR LRSV 121130Z 15006KT 110V220 CAVOK 25/04 Q1027=
201909121200 METAR LRSV 121200Z VRB05KT CAVOK 25/03 Q1027=
201909121230 METAR LRSV 121230Z 16004KT 100V250 CAVOK 26/03 Q1027=
201909121300 METAR LRSV 121300Z VRB04KT CAVOK 25/03 Q1027=
201909121330 METAR LRSV 121330Z 15005KT 120V200 CAVOK 26/03 Q1026=
201909121400 METAR LRSV 121400Z 14004KT 080V190 CAVOK 25/03 Q1026=
201909121430 METAR LRSV 121430Z 19004KT 150V230 CAVOK 25/03 Q1026=
201909121500 METAR LRSV 121500Z 19004KT CAVOK 24/04 Q1026=
201909121530 METAR LRSV 121530Z 17004KT CAVOK 23/06 Q1026=
201909121600 METAR LRSV 121600Z 15005KT CAVOK 22/05 Q1026=
201909121630 METAR LRSV 121630Z 16004KT CAVOK 21/04 Q1027=
201909121700 METAR LRSV 121700Z 17003KT CAVOK 20/04 Q1027=
201909121730 METAR LRSV 121730Z 21001KT CAVOK 19/04 Q1027=
201909121800 METAR LRSV 121800Z 20002KT CAVOK 19/03 Q1027=
201909121830 METAR LRSV 121830Z 21002KT CAVOK 19/03 Q1027=
201909121900 METAR COR LRSV 121900Z 23003KT CAVOK 19/04 Q1027=
201909121930 METAR LRSV 121930Z 26006KT CAVOK 18/04 Q1027=
201909122000 METAR LRSV 122000Z 27006KT CAVOK 18/05 Q1027=
201909122030 METAR LRSV 122030Z 26005KT CAVOK 18/05 Q1027=
201909122100 METAR LRSV 122100Z 25005KT CAVOK 16/05 Q1027=
201909122130 METAR COR LRSV 122130Z 26006KT CAVOK 18/05 Q1027=
201909122200 METAR LRSV 122200Z 29009KT CAVOK 18/05 Q1027=
201909122230 METAR LRSV 122230Z 32009KT CAVOK 18/10 Q1027=
201909122300 METAR LRSV 122300Z 32011KT CAVOK 18/12 Q1027=
201909122330 METAR LRSV 122330Z 31011KT CAVOK 18/12 Q1027=
201909130000 METAR LRSV 130000Z 32012KT CAVOK 17/12 Q1027=
201909130030 METAR LRSV 130030Z 31012KT CAVOK 17/12 Q1027=
201909130100 METAR LRSV 130100Z 32012KT CAVOK 17/11 Q1027=
201909130130 METAR LRSV 130130Z 32012KT CAVOK 17/11 Q1027=
201909130200 METAR LRSV 130200Z 32012KT CAVOK 17/11 Q1027=
201909130230 METAR LRSV 130230Z 32011KT CAVOK 17/11 Q1027=
201909130300 METAR LRSV 130300Z 31010KT CAVOK 17/11 Q1027=
201909130330 METAR LRSV 130330Z AUTO 32010KT 9999 NCD 16/10 Q1027=
201909130400 METAR LRSV 130400Z AUTO 32008KT 9999 NCD 16/10 Q1028=
201909130430 METAR LRSV 130430Z AUTO 31008KT 9999 NCD 16/11 Q1028=
201909130500 METAR LRSV 130500Z AUTO 32009KT 9999 NCD 17/11 Q1028=
201909130530 METAR LRSV 130530Z AUTO 32010KT 9999 FEW090/// 18/11 Q1028=
201909130600 METAR LRSV 130600Z AUTO 32008KT 9999 SCT090/// 19/11 Q1028=
201909130630 METAR LRSV 130630Z AUTO 31009KT 9999 FEW090/// 20/11 Q1028=
201909130700 METAR LRSV 130700Z 31007KT 280V350 CAVOK 21/11 Q1028=
201909130730 METAR LRSV 130730Z 33006KT 290V360 CAVOK 21/11 Q1028=
201909130800 METAR LRSV 130800Z 31005KT 270V010 CAVOK 22/11 Q1028=
201909130830 METAR LRSV 130830Z 30006KT 270V360 CAVOK 23/11 Q1028=
201909130900 METAR LRSV 130900Z 32006KT 270V020 CAVOK 23/11 Q1028=
201909130930 METAR LRSV 130930Z 28006KT 250V320 CAVOK 24/11 Q1028=
201909131000 METAR COR LRSV 131000Z VRB04KT CAVOK 24/10 Q1027=
201909131030 METAR LRSV 131030Z 05004KT 340V140 CAVOK 25/10 Q1027=
201909131100 METAR LRSV 131100Z VRB05KT CAVOK 25/11 Q1027=
201909131130 METAR LRSV 131130Z VRB03KT CAVOK 26/11 Q1026=
201909131200 METAR COR LRSV 131200Z VRB03KT CAVOK 26/09 Q1026=
201909131230 METAR LRSV 131230Z VRB05KT CAVOK 26/10 Q1026=
201909131300 METAR COR LRSV 131300Z VRB05KT CAVOK 26/08 Q1025=
201909131330 METAR LRSV 131330Z 04005KT 360V090 CAVOK 26/10 Q1025=
201909131400 METAR LRSV 131400Z 09006KT 060V130 CAVOK 26/09 Q1025=
201909131430 METAR LRSV 131430Z 01005KT 330V040 CAVOK 26/09 Q1025=
201909131500 METAR LRSV 131500Z 02005KT CAVOK 26/08 Q1025=
201909131530 METAR LRSV 131530Z 02004KT 330V030 CAVOK 25/09 Q1025=
201909131600 METAR LRSV 131600Z 36002KT 290V020 CAVOK 24/10 Q1025=
201909131630 METAR LRSV 131630Z 02004KT CAVOK 23/09 Q1025=
201909131700 METAR COR LRSV 131700Z 02005KT CAVOK 22/10 Q1025=
201909131730 METAR COR LRSV 131730Z 34004KT CAVOK 21/10 Q1025=
201909131800 METAR LRSV 131800Z 33006KT CAVOK 22/10 Q1026=
201909131830 METAR LRSV 131830Z 33006KT CAVOK 21/11 Q1026=
201909131900 METAR LRSV 131900Z 33006KT CAVOK 21/11 Q1026=
201909131930 METAR LRSV 131930Z 35009KT CAVOK 21/11 Q1026=
201909132000 METAR LRSV 132000Z 34010KT CAVOK 19/11 Q1026=
201909132030 METAR LRSV 132030Z 34009KT CAVOK 19/12 Q1026=
201909132100 METAR LRSV 132100Z 33010KT CAVOK 20/11 Q1026=
201909132130 METAR LRSV 132130Z 33010KT CAVOK 19/11 Q1026=
201909132200 METAR LRSV 132200Z 34007KT CAVOK 18/10 Q1026=
201909132230 METAR LRSV 132230Z 33006KT CAVOK 18/10 Q1026=
201909132300 METAR LRSV 132300Z 32006KT CAVOK 18/10 Q1026=
201909132330 METAR LRSV 132330Z 30004KT CAVOK 17/10 Q1026=
201909140000 METAR LRSV 140000Z 30005KT CAVOK 17/11 Q1026=
201909140030 METAR LRSV 140030Z 25002KT 210V290 CAVOK 17/10 Q1026=
201909140100 METAR LRSV 140100Z 31005KT CAVOK 17/11 Q1026=
201909140130 METAR LRSV 140130Z 30005KT CAVOK 16/11 Q1026=
201909140200 METAR LRSV 140200Z 30006KT CAVOK 17/11 Q1026=
201909140230 METAR LRSV 140230Z 32007KT CAVOK 17/11 Q1026=
201909140300 METAR LRSV 140300Z 32006KT CAVOK 17/10 Q1025=
201909140330 METAR LRSV 140330Z AUTO 29007KT 9999 BKN070/// 17/10 Q1025=
201909140400 METAR LRSV 140400Z AUTO 30008KT 9999 BKN075/// 17/10 Q1026=
201909140430 METAR LRSV 140430Z 30009KT CAVOK 16/11 Q1026=
201909140500 METAR LRSV 140500Z 32010KT CAVOK 17/11 Q1026=
201909140530 METAR LRSV 140530Z 32012KT CAVOK 17/12 Q1026=
201909140600 METAR LRSV 140600Z 31013KT CAVOK 17/12 Q1027=
201909140630 METAR COR LRSV 140630Z 32012KT CAVOK 17/12 Q1027=
201909140700 METAR LRSV 140700Z 31011KT CAVOK 17/12 Q1027=
201909140730 METAR LRSV 140730Z 32014KT 9999 FEW022 18/13 Q1027=
201909140800 METAR LRSV 140800Z 33017KT 9999 FEW023 18/13 Q1027=
201909140830 METAR LRSV 140830Z 34015KT 9999 FEW023 SCT033 18/13 Q1027=
201909140900 METAR LRSV 140900Z 34015KT 9999 FEW021 SCT033 18/13 Q1028=
201909140930 METAR LRSV 140930Z 33020KT 9999 FEW020 SCT030 16/12 Q1028=
201909141000 METAR LRSV 141000Z 33018KT 9999 FEW022 SCT033 16/10 Q1028=
201909141030 METAR LRSV 141030Z 33020G31KT 9999 FEW033 16/08 Q1028=
201909141100 METAR LRSV 141100Z 33018G28KT 9999 FEW033 17/09 Q1028=
201909141130 METAR LRSV 141130Z 34013G24KT 310V010 9999 SCT037 17/08 Q1028=
201909141200 METAR LRSV 141200Z 32011KT 280V350 9999 SCT037 17/08 Q1028=
201909141230 METAR LRSV 141230Z 34013KT 9999 FEW040 18/08 Q1028=
201909141300 METAR LRSV 141300Z 31011KT 9999 FEW041 18/08 Q1028=
201909141330 METAR LRSV 141330Z 33013KT 290V350 9999 FEW040 18/07 Q1028=
201909141400 METAR LRSV 141400Z 32011KT 9999 FEW042 18/08 Q1027=
201909141430 METAR LRSV 141430Z 31010KT CAVOK 18/06 Q1027=
201909141500 METAR LRSV 141500Z 31010KT CAVOK 18/06 Q1027=
201909141530 METAR LRSV 141530Z 32010KT CAVOK 17/05 Q1027=
201909141600 METAR LRSV 141600Z 32007KT CAVOK 16/05 Q1027=
201909141630 METAR LRSV 141630Z 31006KT CAVOK 15/05 Q1027=
201909141700 METAR LRSV 141700Z 29005KT CAVOK 14/05 Q1028=
201909141730 METAR LRSV 141730Z 30006KT CAVOK 13/05 Q1028=
201909141800 METAR LRSV 141800Z 30007KT CAVOK 14/06 Q1028=
201909141830 METAR LRSV 141830Z 31006KT CAVOK 13/06 Q1029=
201909141900 METAR LRSV 141900Z 31005KT CAVOK 13/05 Q1029=
201909141930 METAR LRSV 141930Z 31006KT CAVOK 13/05 Q1029=
201909142000 METAR LRSV 142000Z 32007KT CAVOK 12/05 Q1029=
201909142030 METAR LRSV 142030Z 33007KT CAVOK 11/04 Q1029=
201909142100 METAR LRSV 142100Z 32007KT CAVOK 12/04 Q1029=
201909142130 METAR LRSV 142130Z 32007KT CAVOK 12/04 Q1029=
201909142200 METAR LRSV 142200Z 31008KT CAVOK 12/04 Q1029=
201909142230 METAR LRSV 142230Z 32007KT CAVOK 11/04 Q1029=
201909142300 METAR LRSV 142300Z 32007KT CAVOK 11/04 Q1029=
201909142330 METAR LRSV 142330Z 32006KT CAVOK 11/04 Q1029=
201909150000 METAR LRSV 150000Z 32007KT CAVOK 11/04 Q1029=
201909150030 METAR LRSV 150030Z 32007KT CAVOK 11/04 Q1029=
201909150100 METAR LRSV 150100Z 32007KT CAVOK 11/04 Q1029=
201909150130 METAR LRSV 150130Z 32007KT CAVOK 11/04 Q1028=
201909150200 METAR LRSV 150200Z 32007KT CAVOK 10/04 Q1028=
201909150230 METAR LRSV 150230Z 33008KT CAVOK 10/04 Q1028=
201909150300 METAR LRSV 150300Z 31005KT 230V330 CAVOK 10/04 Q1028=
201909150330 METAR LRSV 150330Z 26004KT CAVOK 08/04 Q1028=
201909150400 METAR LRSV 150400Z 27007KT CAVOK 08/04 Q1028=
201909150430 METAR LRSV 150430Z 29005KT CAVOK 09/05 Q1028=
201909150500 METAR LRSV 150500Z 30005KT CAVOK 11/05 Q1028=
201909150530 METAR LRSV 150530Z 32003KT CAVOK 13/05 Q1028=
201909150600 METAR COR LRSV 150600Z 33003KT 290V010 CAVOK 14/04 Q1028=
201909150630 METAR LRSV 150630Z VRB01KT CAVOK 15/04 Q1028=
201909150700 METAR LRSV 150700Z 13004KT 090V180 CAVOK 16/06 Q1027=
201909150730 METAR LRSV 150730Z 18004KT 120V220 CAVOK 16/06 Q1027=
201909150800 METAR LRSV 150800Z 15004KT 090V200 CAVOK 17/05 Q1027=
201909150830 METAR LRSV 150830Z 16006KT 120V250 CAVOK 17/04 Q1027=
201909150900 METAR LRSV 150900Z 17007KT 140V200 CAVOK 17/04 Q1027=
201909150930 METAR LRSV 150930Z 21006KT 160V250 CAVOK 17/05 Q1026=
201909151000 METAR LRSV 151000Z 22006KT 180V240 CAVOK 18/05 Q1026=
201909151030 METAR COR LRSV 151030Z 18008KT CAVOK 19/05 Q1025=
201909151100 METAR LRSV 151100Z 15006KT 100V190 CAVOK 20/05 Q1025=
201909151130 METAR LRSV 151130Z 11005KT 070V150 CAVOK 20/05 Q1024=
201909151200 METAR LRSV 151200Z 14005KT 090V210 CAVOK 21/06 Q1024=
201909151230 METAR LRSV 151230Z AUTO VRB05KT 9999 NCD 21/05 Q1023=
201909151300 METAR LRSV 151300Z 16006KT 130V210 CAVOK 21/06 Q1023=
201909151330 METAR LRSV 151330Z 16005KT CAVOK 21/06 Q1023=
201909151400 METAR LRSV 151400Z 17007KT CAVOK 21/06 Q1022=
201909151430 METAR LRSV 151430Z 15008KT 120V180 CAVOK 21/07 Q1022=
201909151500 METAR LRSV 151500Z 15008KT CAVOK 20/06 Q1022=
201909151530 METAR LRSV 151530Z 14008KT CAVOK 20/06 Q1022=
201909151600 METAR LRSV 151600Z 14006KT CAVOK 19/06 Q1021=
201909151630 METAR LRSV 151630Z 12006KT CAVOK 18/06 Q1021=
201909151700 METAR LRSV 151700Z 14006KT CAVOK 17/06 Q1021=
201909151730 METAR LRSV 151730Z 16005KT CAVOK 16/07 Q1021=
201909151800 METAR LRSV 151800Z 19004KT CAVOK 15/06 Q1021=
201909151830 METAR LRSV 151830Z 21005KT CAVOK 14/06 Q1020=
201909151900 METAR LRSV 151900Z 23006KT CAVOK 14/07 Q1020=
201909151930 METAR LRSV 151930Z 24007KT CAVOK 14/07 Q1020=
201909152000 METAR LRSV 152000Z 22004KT CAVOK 13/07 Q1019=
201909152030 METAR LRSV 152030Z 25005KT CAVOK 13/06 Q1019=
201909152100 METAR LRSV 152100Z 25009KT CAVOK 13/05 Q1019=
201909152130 METAR LRSV 152130Z 26010KT CAVOK 14/05 Q1019=
201909152200 METAR LRSV 152200Z AUTO 27010KT 9999 NCD 14/04 Q1019=
201909152230 METAR LRSV 152230Z 28010KT CAVOK 15/02 Q1019=
201909152300 METAR LRSV 152300Z 29011KT CAVOK 16/01 Q1019=
201909152330 METAR LRSV 152330Z 28010KT CAVOK 15/M00 Q1019=
201909160000 METAR LRSV 160000Z 28010KT CAVOK 15/00 Q1019=
201909160030 METAR LRSV 160030Z 27010KT CAVOK 15/00 Q1018=
201909160100 METAR LRSV 160100Z 27012KT CAVOK 16/01 Q1018=
201909160130 METAR LRSV 160130Z 27011KT CAVOK 16/01 Q1018=
201909160200 METAR LRSV 160200Z 26009KT CAVOK 15/01 Q1018=
201909160230 METAR LRSV 160230Z 27009KT CAVOK 15/01 Q1018=
201909160300 METAR LRSV 160300Z 28010KT CAVOK 16/02 Q1018=
201909160330 METAR COR LRSV 160330Z 28010KT CAVOK 16/01 Q1018=
201909160400 METAR LRSV 160400Z 28009KT CAVOK 15/02 Q1018=
201909160430 METAR LRSV 160430Z 28010KT CAVOK 16/02 Q1018=
201909160500 METAR LRSV 160500Z AUTO 25008KT 9999 NCD 16/03 Q1018=
201909160530 METAR LRSV 160530Z AUTO 24008KT 9999 NCD 15/03 Q1018=
201909160600 METAR LRSV 160600Z AUTO 25008KT 9999 NCD 17/04 Q1018=
201909160630 METAR LRSV 160630Z AUTO 24008KT 9999 NCD 18/04 Q1018=
201909160700 METAR LRSV 160700Z 26009KT CAVOK 20/05 Q1018=
201909160730 METAR LRSV 160730Z 28009KT CAVOK 21/04 Q1018=
201909160800 METAR LRSV 160800Z 31007KT 270V350 CAVOK 22/04 Q1018=
201909160830 METAR COR LRSV 160830Z 32007KT 280V360 CAVOK 22/04 Q1018=
201909160900 METAR LRSV 160900Z 29007KT 250V340 CAVOK 23/03 Q1017=
201909160930 METAR LRSV 160930Z 34005KT 260V030 CAVOK 23/03 Q1017=
201909161000 METAR LRSV 161000Z VRB04KT CAVOK 24/02 Q1017=
201909161030 METAR LRSV 161030Z 29008KT CAVOK 24/03 Q1016=
201909161100 METAR LRSV 161100Z 27007KT 230V310 CAVOK 25/03 Q1016=
201909161130 METAR LRSV 161130Z 31008KT CAVOK 25/03 Q1015=
201909161200 METAR LRSV 161200Z VRB05KT CAVOK 25/04 Q1015=
201909161230 METAR LRSV 161230Z 23006KT CAVOK 25/03 Q1014=
201909161300 METAR LRSV 161300Z 29006KT CAVOK 26/04 Q1014=
201909161330 METAR LRSV 161330Z 24007KT 200V280 CAVOK 26/04 Q1014=
201909161400 METAR LRSV 161400Z 27006KT 230V330 CAVOK 26/04 Q1014=
201909161430 METAR LRSV 161430Z 32005KT 290V360 CAVOK 26/04 Q1013=
201909161500 METAR LRSV 161500Z 31005KT 280V340 CAVOK 26/05 Q1013=
201909161530 METAR LRSV 161530Z 29003KT CAVOK 25/05 Q1013=
201909161600 METAR LRSV 161600Z 34002KT 300V010 CAVOK 23/06 Q1013=
201909161630 METAR LRSV 161630Z 21003KT CAVOK 20/05 Q1013=
201909161700 METAR LRSV 161700Z 22001KT CAVOK 21/05 Q1013=
201909161730 METAR LRSV 161730Z 32003KT CAVOK 20/06 Q1013=
201909161800 METAR LRSV 161800Z 29007KT CAVOK 19/07 Q1014=
201909161830 METAR LRSV 161830Z 27008KT CAVOK 20/09 Q1014=
201909161900 METAR LRSV 161900Z 28007KT CAVOK 19/09 Q1014=
201909161930 METAR LRSV 161930Z 27008KT CAVOK 19/09 Q1014=
201909162000 METAR LRSV 162000Z 26007KT CAVOK 18/09 Q1014=
201909162030 METAR COR LRSV 162030Z 25007KT CAVOK 17/09 Q1013=
201909162100 METAR COR LRSV 162100Z 02006KT CAVOK 17/09 Q1013=
201909162130 METAR LRSV 162130Z 01004KT CAVOK 17/09 Q1013=
201909162200 METAR LRSV 162200Z 36003KT 270V040 CAVOK 17/09 Q1013=
201909162230 METAR LRSV 162230Z 02007KT CAVOK 16/09 Q1013=
201909162300 METAR LRSV 162300Z 02007KT CAVOK 16/09 Q1013=
201909162330 METAR LRSV 162330Z 01012KT CAVOK 16/09 Q1013=
201909170000 METAR LRSV 170000Z 36012KT CAVOK 15/08 Q1014=
201909170030 METAR LRSV 170030Z 36012KT CAVOK 15/09 Q1014=
201909170100 METAR LRSV 170100Z AUTO 36010KT 9999 FEW140/// OVC180///
                        14/09 Q1013=
201909170130 METAR LRSV 170130Z 36012KT CAVOK 14/10 Q1014=
201909170200 METAR LRSV 170200Z 35012KT 9999 FEW038 13/10 Q1014=
201909170230 METAR COR LRSV 170230Z 34011KT 9999 -RA BKN036 13/10 Q1014=
201909170300 METAR LRSV 170300Z 35010KT 9999 -RA BKN034 12/10 Q1014=
201909170330 METAR LRSV 170330Z AUTO 34007KT 7000 -SHRA FEW028/// BKN050///
                        BKN065/// 12/11 Q1014=
201909170400 METAR LRSV 170400Z AUTO 29003KT 240V350 6000 -SHRA SCT026///
                        BKN055/// 12/11 Q1014=
201909170430 METAR LRSV 170430Z AUTO 28004KT 9999 -RA FEW027/// BKN055///
                        BKN085/// 12/11 Q1014=
201909170500 METAR LRSV 170500Z AUTO 28003KT 260V320 9999 DZ FEW026///
                        SCT065/// BKN080/// 12/11 Q1014=
201909170530 METAR LRSV 170530Z AUTO 26002KT 200V010 9999 DZ FEW005///
                        BKN025/// BKN065/// 12/11 Q1014=
201909170600 METAR LRSV 170600Z AUTO 29003KT 9999 BKN024/// 12/11 Q1014
                        RERA=
201909170630 METAR LRSV 170630Z AUTO 29003KT 270V330 9999 BKN024/// 12/11
                        Q1014 RERA=
201909170700 METAR LRSV 170700Z 30004KT 250V330 9999 BKN024 13/10 Q1014=
201909170730 METAR LRSV 170730Z 34007KT 9999 FEW010 BKN024 13/11 Q1014=
201909170800 METAR LRSV 170800Z 35006KT 9999 FEW012 BKN025 13/11 Q1014=
201909170830 METAR LRSV 170830Z 35005KT 9999 SCT011 BKN024 13/11 Q1014=
201909170900 METAR LRSV 170900Z 34006KT 9999 SCT010 BKN020 13/11 Q1014=
201909170930 METAR LRSV 170930Z 34007KT 9999 SCT014 BKN019 13/10 Q1014=
201909171000 METAR LRSV 171000Z 35004KT 310V070 9999 SCT014 BKN017 13/10
                        Q1014=
201909171030 METAR LRSV 171030Z 36005KT 330V030 9999 SCT012 BKN016 13/10
                        Q1013=
201909171100 METAR LRSV 171100Z 35004KT 320V020 9999 -SHRA BKN013 FEW025CB
                        13/10 Q1013=
201909171130 METAR LRSV 171130Z 35004KT 320V020 9999 -RA BKN013 FEW025CB
                        13/10 Q1013=
201909171200 METAR LRSV 171200Z 33005KT 9999 -RA BKN014 FEW025CB 13/10
                        Q1013=
201909171230 METAR LRSV 171230Z 36005KT 9999 BKN019 FEW025CB 13/10 Q1013=
201909171300 METAR LRSV 171300Z VRB01KT 9999 BKN017 14/10 Q1012=
201909171330 METAR LRSV 171330Z 21002KT 170V240 9999 -DZ FEW006 BKN017
                        13/10 Q1012=
201909171400 METAR LRSV 171400Z 14002KT 110V220 9999 -DZ SCT003 BKN017
                        13/11 Q1012=
201909171430 METAR LRSV 171430Z VRB01KT 9999 FEW003 BKN016 14/11 Q1011=
201909171500 METAR LRSV 171500Z 10003KT 070V130 8000 BKN015 14/11 Q1011=
201909171530 METAR LRSV 171530Z 07003KT 040V100 7000 BKN012 13/11 Q1011=
201909171600 METAR LRSV 171600Z 08004KT 7000 BKN013 13/11 Q1010=
201909171630 METAR LRSV 171630Z 12003KT 7000 BKN013 12/11 Q1010=
201909171700 METAR COR LRSV 171700Z 10003KT 050V120 7000 SCT013 SCT046
                        12/11 Q1011=
201909171730 METAR LRSV 171730Z 13003KT 060V170 7000 FEW013 SCT046 12/11
                        Q1011=
201909171800 METAR LRSV 171800Z 08003KT 5000 BR NSC 12/11 Q1011=
201909171830 METAR LRSV 171830Z 11004KT 5000 BR NSC 12/11 Q1010=
201909171900 METAR LRSV 171900Z 13003KT 110V170 3000 BR NSC 11/11 Q1010=
201909171930 METAR LRSV 171930Z 13004KT 080V140 7000 NSC 11/10 Q1010=
201909172000 METAR LRSV 172000Z 18003KT 7000 NSC 11/10 Q1010=
201909172030 METAR LRSV 172030Z 18003KT 5000 BR NSC 11/10 Q1009=
201909172100 METAR LRSV 172100Z 20004KT 5000 BR NSC 10/10 Q1009=
201909172130 METAR LRSV 172130Z 22005KT 5000 BR NSC 10/10 Q1008=
201909172200 METAR LRSV 172200Z 22005KT 5000 BR NSC 10/10 Q1008=
201909172230 METAR LRSV 172230Z 33009KT 5000 BR NSC 10/09 Q1009=
201909172300 METAR COR LRSV 172300Z 35007KT 5000 BR BKN004 10/10 Q1009=
201909172330 METAR LRSV 172330Z 34006KT 320V020 4500 BR FEW005 09/09 Q1008=
201909180000 METAR LRSV 180000Z 35008KT 5000 BR FEW009 09/09 Q1008=
201909180030 METAR LRSV 180030Z VRB02KT 6000 FEW009 09/08 Q1008=
201909180100 METAR LRSV 180100Z 33005KT 8000 FEW011 09/09 Q1009=
201909180130 METAR LRSV 180130Z 34007KT 4000 BR BKN013 10/10 Q1009=
201909180200 METAR LRSV 180200Z VRB02KT 0600 R34/1200U FG BKN015 11/10
                        Q1009=
201909180230 METAR LRSV 180230Z 32004KT 290V350 1500 BR BKN012 10/10 Q1009=
201909180300 METAR LRSV 180300Z 33005KT 0500 R34/1000U FG VV002 10/10
                        Q1009=
201909180330 METAR LRSV 180330Z AUTO 33008KT 3100 R34/2000 FEW002/// BKN033///
                        BKN065/// 11/10 Q1010=
201909180400 METAR LRSV 180400Z AUTO 33012KT 9999 FEW009/// SCT025///
                        BKN029/// 09/06 Q1010=
201909180430 METAR LRSV 180430Z AUTO 33011KT 9999 SCT031/// BKN090///
                        09/06 Q1010=
201909180500 METAR COR LRSV 180500Z 33013KT 9999 BKN045 09/05 Q1011=
201909180530 METAR LRSV 180530Z 33012KT 9999 BKN039 09/05 Q1011=
201909180600 METAR LRSV 180600Z 33016KT 9999 FEW040CB SCT042 10/04 Q1012=
201909180630 METAR LRSV 180630Z 34014KT 9999 SCT045 10/04 Q1012=
201909180700 METAR LRSV 180700Z 33018G28KT 300V360 9999 FEW036CB SCT045
                        11/04 Q1012=
201909180730 METAR LRSV 180730Z 34015KT 9999 -SHRA SCT026CB SCT046 09/05
                        Q1013 R16/29//95=
201909180800 METAR LRSV 180800Z 33014KT 9999 FEW043CB 11/05 Q1013 R16/29//95=
201909180830 METAR LRSV 180830Z 32013KT CAVOK 13/04 Q1013 R16/19//95=
201909180900 METAR LRSV 180900Z 32012KT 270V340 CAVOK 14/03 Q1013 R16/19//95=
201909180930 METAR LRSV 180930Z 32013KT CAVOK 15/02 Q1014 R16/CRLD//=
201909181000 METAR LRSV 181000Z 31014KT CAVOK 15/02 Q1014 R16/CRLD//=
201909181030 METAR LRSV 181030Z 30010KT 270V350 CAVOK 15/02 Q1014=
201909181100 METAR LRSV 181100Z 32012KT CAVOK 15/01 Q1014=
201909181130 METAR LRSV 181130Z 33013KT 300V010 CAVOK 16/01 Q1014=
201909181200 METAR LRSV 181200Z 33014KT 290V010 CAVOK 17/00 Q1014=
201909181230 METAR LRSV 181230Z 32014KT 290V360 CAVOK 17/01 Q1015=
201909181300 METAR LRSV 181300Z 33016KT CAVOK 17/00 Q1015=
201909181330 METAR LRSV 181330Z AUTO 34015KT 9999 NCD 16/01 Q1015=
201909181400 METAR LRSV 181400Z AUTO 34015KT 9999 NCD 15/02 Q1016=
201909181430 METAR LRSV 181430Z AUTO 33013KT 9999 NCD 15/02 Q1016=
201909181500 METAR LRSV 181500Z 34015KT CAVOK 14/02 Q1017=
201909181530 METAR LRSV 181530Z 34015KT CAVOK 14/02 Q1017=
201909181600 METAR LRSV 181600Z 34012KT CAVOK 12/02 Q1017=
201909181630 METAR COR LRSV 181630Z 33009KT CAVOK 11/02 Q1018=
201909181700 METAR LRSV 181700Z 33009KT CAVOK 11/02 Q1018=
201909181730 METAR LRSV 181730Z 32007KT CAVOK 10/02 Q1019=
201909181800 METAR LRSV 181800Z 31007KT CAVOK 10/01 Q1019=
201909181830 METAR LRSV 181830Z 31007KT CAVOK 09/01 Q1020=
201909181900 METAR COR LRSV 181900Z 31008KT CAVOK 09/01 Q1020=
201909181930 METAR COR LRSV 181930Z 32008KT CAVOK 09/01 Q1021=
201909182000 METAR LRSV 182000Z 32011KT CAVOK 10/01 Q1021=
201909182030 METAR COR LRSV 182030Z 32010KT CAVOK 09/01 Q1021=
201909182100 METAR COR LRSV 182100Z 31007KT CAVOK 09/01 Q1021=
201909182130 METAR LRSV 182130Z 31007KT CAVOK 09/01 Q1021=
201909182200 METAR LRSV 182200Z 31008KT CAVOK 09/01 Q1021=
201909182230 METAR LRSV 182230Z 25007KT CAVOK 06/01 Q1021=
201909182300 METAR LRSV 182300Z 26009KT CAVOK 06/01 Q1021=
201909182330 METAR LRSV 182330Z 25007KT CAVOK 06/01 Q1021=
201909190000 METAR LRSV 190000Z 25007KT CAVOK 07/01 Q1021=
201909190030 METAR LRSV 190030Z 26006KT CAVOK 06/00 Q1021=
201909190100 METAR LRSV 190100Z 29008KT CAVOK 07/M00 Q1021=
201909190130 METAR LRSV 190130Z 30008KT CAVOK 07/M00 Q1021=
201909190200 METAR LRSV 190200Z 31006KT CAVOK 07/M01 Q1020=
201909190230 METAR LRSV 190230Z 31005KT CAVOK 07/M01 Q1020=
201909190300 METAR LRSV 190300Z 29006KT CAVOK 06/M01 Q1021=
201909190330 METAR LRSV 190330Z AUTO 25008KT 9999 NCD 05/M00 Q1021=
201909190400 METAR LRSV 190400Z AUTO 25009KT 9999 NCD 04/00 Q1021=
201909190430 METAR LRSV 190430Z AUTO 25008KT 9999 NCD 05/00 Q1021=
201909190500 METAR LRSV 190500Z AUTO 25007KT 9999 NCD 06/01 Q1021=
201909190530 METAR LRSV 190530Z AUTO 24008KT 9999 NCD 07/01 Q1021=
201909190600 METAR LRSV 190600Z AUTO 24007KT 9999 FEW085/// 08/02 Q1022=
201909190630 METAR LRSV 190630Z AUTO 21003KT 180V240 9999 BKN075/// 09/02
                        Q1022=
201909190700 METAR COR LRSV 190700Z 22003KT 170V270 CAVOK 11/01 Q1022=
201909190730 METAR LRSV 190730Z 21005KT 160V240 CAVOK 13/M00 Q1022=
201909190800 METAR COR LRSV 190800Z 22005KT 9999 -SHRA FEW040CB 12/01
                        Q1022=
201909190830 METAR LRSV 190830Z 25003KT 170V340 9999 FEW023CB 13/M01 Q1022=
201909190900 METAR LRSV 190900Z 32005KT 260V050 9999 FEW023CB 13/01 Q1022=
201909190930 METAR LRSV 190930Z 29007KT 260V330 9999 -SHRA FEW025CB 12/00
                        Q1022=
201909191000 METAR LRSV 191000Z 29011KT 9999 FEW036CB 12/02 Q1022=
201909191030 METAR LRSV 191030Z 28008KT 9999 SCT036CB 12/01 Q1022=
201909191100 METAR LRSV 191100Z 28006KT 250V310 9999 FEW036CB 12/01 Q1021=
201909191130 METAR LRSV 191130Z VRB03KT 9999 FEW036CB 14/M01 Q1021=
201909191200 METAR LRSV 191200Z 31005KT 270V010 9999 SCT036CB 13/M00 Q1021=
201909191230 METAR LRSV 191230Z 28005KT 230V330 9999 SCT036CB 13/00 Q1021=
201909191300 METAR LRSV 191300Z 35009KT 9999 FEW036CB 12/03 Q1021=
201909191330 METAR LRSV 191330Z 33010KT 9999 FEW036CB 14/03 Q1021=
201909191400 METAR LRSV 191400Z 33010KT 9999 FEW036CB 14/03 Q1021=
201909191430 METAR LRSV 191430Z 34009KT 9999 FEW036CB 13/03 Q1021=
201909191500 METAR LRSV 191500Z 33009KT CAVOK 12/02 Q1021=
201909191530 METAR LRSV 191530Z 34008KT CAVOK 12/03 Q1021=
201909191600 METAR LRSV 191600Z 33005KT CAVOK 11/03 Q1021=
201909191630 METAR LRSV 191630Z 30005KT CAVOK 09/03 Q1021=
201909191700 METAR LRSV 191700Z 32005KT CAVOK 10/03 Q1021=
201909191730 METAR LRSV 191730Z 31005KT CAVOK 09/03 Q1022=
201909191800 METAR LRSV 191800Z 31007KT CAVOK 10/03 Q1022=
201909191830 METAR LRSV 191830Z 30006KT CAVOK 09/03 Q1022=
201909191900 METAR LRSV 191900Z 30007KT CAVOK 10/03 Q1022=
201909191930 METAR LRSV 191930Z 30007KT CAVOK 09/03 Q1022=
201909192000 METAR LRSV 192000Z 29007KT CAVOK 09/03 Q1022=
201909192030 METAR LRSV 192030Z 28008KT CAVOK 09/03 Q1022=
201909192100 METAR LRSV 192100Z 27008KT CAVOK 08/03 Q1022=
201909192130 METAR LRSV 192130Z 29007KT CAVOK 08/03 Q1022=
201909192200 METAR LRSV 192200Z 31005KT CAVOK 08/02 Q1022=
201909192230 METAR LRSV 192230Z 31007KT CAVOK 08/02 Q1022=
201909192300 METAR LRSV 192300Z 31005KT CAVOK 08/02 Q1022=
201909192330 METAR LRSV 192330Z 31006KT CAVOK 08/02 Q1022=
201909200000 METAR LRSV 200000Z 32008KT CAVOK 08/02 Q1022=
201909200030 METAR LRSV 200030Z 32009KT CAVOK 08/02 Q1022=
201909200100 METAR LRSV 200100Z 32012KT CAVOK 08/02 Q1022=
201909200130 METAR LRSV 200130Z 31010KT CAVOK 08/02 Q1022=
201909200200 METAR LRSV 200200Z 32012KT 9999 -RA BKN049 07/03 Q1022=
201909200230 METAR LRSV 200230Z 32011KT CAVOK 07/03 Q1022=
201909200300 METAR LRSV 200300Z 32009KT CAVOK 07/03 Q1022=
201909200330 METAR LRSV 200330Z AUTO 32014KT 9999 FEW055/// SCT075///
                        BKN100/// 07/03 Q1022=
201909200400 METAR LRSV 200400Z AUTO 32013KT 9999 FEW055/// SCT070///
                        BKN085/// 07/03 Q1022=
201909200430 METAR LRSV 200430Z AUTO 32013KT 9999 FEW065/// BKN090///
                        06/03 Q1022=
201909200500 METAR LRSV 200500Z AUTO 32013KT 9999 BKN090/// 06/04 Q1022=
201909200530 METAR LRSV 200530Z AUTO 33012KT 9999 FEW095/// 07/04 Q1022=
201909200600 METAR LRSV 200600Z AUTO 32013KT 9999 FEW016/// BKN095///
                        08/04 Q1023=
201909200630 METAR LRSV 200630Z AUTO 32013KT 9999 FEW017/// BKN090///
                        08/04 Q1023=
201909200700 METAR LRSV 200700Z 32015KT 9999 SCT016 08/04 Q1023=
201909200730 METAR LRSV 200730Z 33013KT 300V360 9999 FEW016 BKN026 10/04
                        Q1023=
201909200800 METAR LRSV 200800Z 32011KT 9999 FEW019 BKN030 11/04 Q1023=
201909200830 METAR LRSV 200830Z 32013KT 9999 SCT026 10/03 Q1023=
201909200900 METAR COR LRSV 200900Z 31012KT 9999 FEW023CB SCT026 10/03
                        Q1022=
201909200930 METAR LRSV 200930Z 32013KT 9999 FEW030CB SCT037 11/03 Q1022=
201909201000 METAR COR LRSV 201000Z 32013KT 290V350 9999 FEW034CB SCT041
                        11/02 Q1022=
201909201030 METAR LRSV 201030Z 33022KT 9999 -SHRA SCT034CB BKN045 10/04
                        Q1022=
201909201100 METAR LRSV 201100Z 32009KT 290V350 9999 SCT036CB 11/04 Q1022=
201909201130 METAR LRSV 201130Z 32010KT 290V350 9999 SCT039CB 11/03 Q1022=
201909201200 METAR LRSV 201200Z 33013KT 9999 SCT037CB SCT043 11/02 Q1022=
201909201230 METAR LRSV 201230Z 32011KT 9999 SCT037CB 12/01 Q1022=
201909201300 METAR LRSV 201300Z 33018KT 9999 FEW037CB 12/02 Q1022=
201909201330 METAR LRSV 201330Z 33014KT 9999 FEW037CB 12/00 Q1022=
201909201400 METAR LRSV 201400Z 33015KT 300V360 9999 FEW037CB 12/M00 Q1022=
201909201430 METAR LRSV 201430Z 33016KT CAVOK 12/M01 Q1022=
201909201500 METAR LRSV 201500Z 33016KT CAVOK 12/M02 Q1022=
201909201530 METAR LRSV 201530Z 34012KT CAVOK 11/M01 Q1022=
201909201600 METAR LRSV 201600Z 33009KT CAVOK 10/M01 Q1022=
201909201630 METAR LRSV 201630Z 32008KT CAVOK 09/M01 Q1023=
201909201700 METAR LRSV 201700Z 31005KT CAVOK 08/M01 Q1023=
201909201730 METAR LRSV 201730Z 32008KT CAVOK 08/M01 Q1023=
201909201800 METAR LRSV 201800Z 33010KT CAVOK 08/01 Q1024=
201909201830 METAR LRSV 201830Z 32007KT CAVOK 08/01 Q1024=
201909201900 METAR LRSV 201900Z 31007KT CAVOK 08/01 Q1024=
201909201930 METAR LRSV 201930Z 30007KT CAVOK 06/01 Q1024=
201909202000 METAR LRSV 202000Z 30008KT CAVOK 07/01 Q1024=
201909202030 METAR LRSV 202030Z 32011KT CAVOK 08/02 Q1024=
201909202100 METAR LRSV 202100Z 32011KT CAVOK 08/02 Q1024=
201909202130 METAR LRSV 202130Z 31009KT CAVOK 07/02 Q1024=
201909202200 METAR LRSV 202200Z 31010KT CAVOK 07/01 Q1024=
201909202230 METAR LRSV 202230Z 31010KT CAVOK 07/02 Q1024=
201909202300 METAR LRSV 202300Z 31008KT CAVOK 07/02 Q1025=
201909202330 METAR LRSV 202330Z 31009KT CAVOK 07/01 Q1025=
201909210000 METAR LRSV 210000Z 31008KT CAVOK 07/01 Q1025=
201909210030 METAR LRSV 210030Z 30006KT CAVOK 06/01 Q1025=
201909210100 METAR LRSV 210100Z 31008KT CAVOK 06/01 Q1025=
201909210130 METAR LRSV 210130Z 30007KT CAVOK 06/01 Q1025=
201909210200 METAR LRSV 210200Z 30007KT 9999 FEW043 06/01 Q1025=
201909210230 METAR LRSV 210230Z 31008KT 9999 SCT046 06/01 Q1025=
201909210300 METAR LRSV 210300Z 31008KT CAVOK 06/01 Q1025=
201909210330 METAR LRSV 210330Z AUTO 31006KT 9999 NCD 06/01 Q1025=
201909210400 METAR LRSV 210400Z AUTO 30008KT 9999 NCD 06/01 Q1025=
201909210430 METAR LRSV 210430Z 30007KT CAVOK 06/01 Q1025=
201909210500 METAR LRSV 210500Z 30008KT CAVOK 06/02 Q1025=
201909210530 METAR LRSV 210530Z 30008KT CAVOK 07/02 Q1025=
201909210600 METAR LRSV 210600Z 30009KT CAVOK 08/02 Q1026=
201909210630 METAR LRSV 210630Z 31008KT CAVOK 09/03 Q1026=
201909210700 METAR LRSV 210700Z 30006KT 260V340 CAVOK 10/03 Q1026=
201909210730 METAR LRSV 210730Z 31008KT 280V340 CAVOK 11/03 Q1026=
201909210800 METAR LRSV 210800Z 33010KT 290V350 9999 FEW037 12/02 Q1026=
201909210830 METAR LRSV 210830Z 30009KT 270V340 9999 SCT037 12/02 Q1026=
201909210900 METAR LRSV 210900Z 33008KT 280V040 9999 SCT042 12/01 Q1026=
201909210930 METAR LRSV 210930Z 32009KT 290V350 9999 SCT047 14/01 Q1026=
201909211000 METAR LRSV 211000Z 36006KT 310V030 CAVOK 13/01 Q1026=
201909211030 METAR LRSV 211030Z 30007KT 250V010 CAVOK 14/M00 Q1025=
201909211100 METAR LRSV 211100Z 35012KT CAVOK 15/M00 Q1025=
201909211130 METAR COR LRSV 211130Z 32007KT 250V010 CAVOK 15/00 Q1025=
201909211200 METAR LRSV 211200Z 31010KT 280V340 CAVOK 15/01 Q1025=
201909211230 METAR LRSV 211230Z 31009KT 260V350 CAVOK 15/01 Q1024=
201909211300 METAR LRSV 211300Z 31009KT 270V340 CAVOK 16/02 Q1024=
201909211330 METAR LRSV 211330Z 30008KT CAVOK 16/02 Q1024=
201909211400 METAR LRSV 211400Z 31008KT CAVOK 15/02 Q1024=
201909211430 METAR LRSV 211430Z 32006KT CAVOK 15/02 Q1024=
201909211500 METAR LRSV 211500Z 31006KT CAVOK 16/02 Q1023=
201909211530 METAR LRSV 211530Z 32005KT CAVOK 16/02 Q1023=
201909211600 METAR LRSV 211600Z 33003KT CAVOK 15/03 Q1023=
201909211630 METAR LRSV 211630Z 36002KT CAVOK 12/03 Q1023=
201909211700 METAR LRSV 211700Z 00000KT CAVOK 10/03 Q1023=
201909211730 METAR LRSV 211730Z VRB01KT CAVOK 12/03 Q1024=
201909211800 METAR LRSV 211800Z 23001KT CAVOK 11/02 Q1024=
201909211830 METAR LRSV 211830Z 23002KT CAVOK 11/02 Q1024=
201909211900 METAR LRSV 211900Z 24005KT CAVOK 10/02 Q1024=
201909211930 METAR LRSV 211930Z 26006KT CAVOK 11/03 Q1024=
201909212000 METAR LRSV 212000Z 26007KT CAVOK 10/03 Q1024=
201909212030 METAR LRSV 212030Z 26007KT CAVOK 10/03 Q1023=
201909212100 METAR LRSV 212100Z 26008KT CAVOK 10/03 Q1023=
201909212130 METAR LRSV 212130Z 26009KT CAVOK 09/03 Q1023=
201909212200 METAR LRSV 212200Z 27009KT CAVOK 10/03 Q1023=
201909212230 METAR LRSV 212230Z 27008KT CAVOK 10/03 Q1023=
201909212300 METAR LRSV 212300Z 27008KT CAVOK 10/02 Q1023=
201909212330 METAR COR LRSV 212330Z 28008KT CAVOK 11/02 Q1022=
201909220000 METAR LRSV 220000Z 28008KT CAVOK 11/02 Q1022=
201909220030 METAR LRSV 220030Z 26007KT CAVOK 09/02 Q1022=
201909220100 METAR LRSV 220100Z 24008KT CAVOK 07/02 Q1022=
201909220130 METAR LRSV 220130Z 26009KT CAVOK 09/02 Q1022=
201909220200 METAR LRSV 220200Z 27008KT CAVOK 10/02 Q1022=
201909220230 METAR LRSV 220230Z 26008KT CAVOK 10/02 Q1022=
201909220300 METAR LRSV 220300Z 25008KT CAVOK 08/02 Q1022=
201909220330 METAR LRSV 220330Z 26009KT CAVOK 08/02 Q1021=
201909220400 METAR LRSV 220400Z 26009KT CAVOK 08/02 Q1021=
201909220430 METAR COR LRSV 220430Z 26010KT CAVOK 09/02 Q1022=
201909220500 METAR LRSV 220500Z 25009KT CAVOK 09/02 Q1022=
201909220530 METAR LRSV 220530Z 26008KT CAVOK 11/03 Q1022=
201909220600 METAR LRSV 220600Z 26007KT CAVOK 13/03 Q1022=
201909220630 METAR LRSV 220630Z 26009KT CAVOK 14/03 Q1022=
201909220700 METAR COR LRSV 220700Z 26008KT CAVOK 16/03 Q1022=
201909220730 METAR LRSV 220730Z 26006KT CAVOK 16/03 Q1022=
201909220800 METAR LRSV 220800Z 27007KT 230V300 CAVOK 17/03 Q1022=
201909220830 METAR LRSV 220830Z 29007KT 220V320 CAVOK 18/03 Q1021=
201909220900 METAR LRSV 220900Z 28006KT 230V330 CAVOK 18/04 Q1021=
201909220930 METAR LRSV 220930Z VRB04KT CAVOK 19/04 Q1021=
201909221000 METAR LRSV 221000Z 32005KT 240V050 CAVOK 19/04 Q1020=
201909221030 METAR LRSV 221030Z VRB02KT CAVOK 20/04 Q1020=
201909221100 METAR LRSV 221100Z VRB02KT CAVOK 20/04 Q1019=
201909221130 METAR LRSV 221130Z VRB02KT CAVOK 21/04 Q1019=
201909221200 METAR LRSV 221200Z VRB04KT CAVOK 21/04 Q1019=
201909221230 METAR LRSV 221230Z VRB05KT CAVOK 21/04 Q1018=
201909221300 METAR COR LRSV 221300Z 26005KT 220V280 CAVOK 22/04 Q1018=
201909221330 METAR LRSV 221330Z VRB03KT CAVOK 22/05 Q1018=
201909221400 METAR LRSV 221400Z VRB02KT CAVOK 22/05 Q1017=
201909221430 METAR LRSV 221430Z 10003KT 050V200 CAVOK 22/05 Q1017=
201909221500 METAR LRSV 221500Z 05004KT 010V080 CAVOK 21/05 Q1017=
201909221530 METAR LRSV 221530Z 07004KT CAVOK 20/05 Q1017=
201909221600 METAR LRSV 221600Z 10003KT CAVOK 19/05 Q1017=
201909221630 METAR LRSV 221630Z 13004KT CAVOK 18/05 Q1017=
201909221700 METAR COR LRSV 221700Z 16003KT CAVOK 16/05 Q1017=
201909221730 METAR LRSV 221730Z 17003KT CAVOK 16/05 Q1017=
201909221800 METAR LRSV 221800Z 15003KT CAVOK 16/05 Q1017=
201909221830 METAR LRSV 221830Z 18003KT 130V200 CAVOK 15/05 Q1017=
201909221900 METAR LRSV 221900Z 18003KT CAVOK 15/04 Q1017=
201909221930 METAR LRSV 221930Z 21003KT CAVOK 14/05 Q1017=
201909222000 METAR LRSV 222000Z 23003KT CAVOK 14/05 Q1017=
201909222030 METAR LRSV 222030Z 23004KT CAVOK 13/05 Q1017=
201909222100 METAR LRSV 222100Z 22002KT CAVOK 13/05 Q1016=
201909222130 METAR LRSV 222130Z 23005KT CAVOK 12/05 Q1016=
201909222200 METAR LRSV 222200Z 24006KT CAVOK 12/05 Q1016=
201909222230 METAR LRSV 222230Z 27003KT CAVOK 14/06 Q1016=
201909222300 METAR LRSV 222300Z 28005KT CAVOK 13/06 Q1016=
201909222330 METAR LRSV 222330Z AUTO 27005KT 9999 NCD 14/06 Q1016=
201909230000 METAR LRSV 230000Z 32003KT CAVOK 11/06 Q1015=
201909230030 METAR LRSV 230030Z 32003KT 260V360 CAVOK 11/06 Q1016=
201909230100 METAR LRSV 230100Z 33006KT CAVOK 11/06 Q1016=
201909230130 METAR LRSV 230130Z 33008KT CAVOK 12/06 Q1016=
201909230200 METAR LRSV 230200Z 33007KT CAVOK 12/06 Q1016=
201909230230 METAR LRSV 230230Z 33007KT CAVOK 12/06 Q1016=
201909230300 METAR COR LRSV 230300Z 33008KT CAVOK 11/06 Q1016=
201909230330 METAR LRSV 230330Z 33008KT CAVOK 11/06 Q1016=
201909230400 METAR LRSV 230400Z 33007KT CAVOK 11/06 Q1016=
201909230430 METAR LRSV 230430Z 32007KT CAVOK 12/07 Q1016=
201909230500 METAR LRSV 230500Z AUTO 32008KT 9999 NCD 12/07 Q1016=
201909230530 METAR LRSV 230530Z AUTO 33007KT 9999 NCD 14/07 Q1016=
201909230600 METAR LRSV 230600Z AUTO 33009KT 9999 NCD 14/07 Q1017=
201909230630 METAR LRSV 230630Z AUTO 34007KT 9999 NCD 16/07 Q1017=
201909230700 METAR LRSV 230700Z 34005KT 310V010 CAVOK 16/07 Q1017=
201909230730 METAR LRSV 230730Z 34004KT 290V030 CAVOK 17/07 Q1017=
201909230800 METAR LRSV 230800Z VRB04KT CAVOK 18/07 Q1017=
201909230830 METAR LRSV 230830Z VRB04KT CAVOK 19/07 Q1017=
201909230900 METAR LRSV 230900Z VRB02KT CAVOK 19/07 Q1017=
201909230930 METAR LRSV 230930Z 06005KT 020V120 CAVOK 19/07 Q1016=
201909231000 METAR LRSV 231000Z VRB05KT CAVOK 20/07 Q1016=
201909231030 METAR LRSV 231030Z 10006KT 060V150 CAVOK 20/07 Q1016=
201909231100 METAR LRSV 231100Z 07007KT CAVOK 20/07 Q1015=
201909231130 METAR LRSV 231130Z 11006KT 050V160 CAVOK 21/07 Q1015=
201909231200 METAR COR LRSV 231200Z 06005KT 020V130 CAVOK 21/07 Q1015=
201909231230 METAR LRSV 231230Z 10006KT 060V180 CAVOK 21/07 Q1015=
201909231300 METAR LRSV 231300Z 11005KT 060V200 CAVOK 21/06 Q1015=
201909231330 METAR LRSV 231330Z 12007KT 080V140 CAVOK 21/06 Q1015=
201909231400 METAR LRSV 231400Z 11006KT CAVOK 21/06 Q1014=
201909231430 METAR LRSV 231430Z 10005KT 070V130 CAVOK 20/07 Q1015=
201909231500 METAR LRSV 231500Z 10005KT CAVOK 20/07 Q1015=
201909231530 METAR LRSV 231530Z 10004KT CAVOK 20/07 Q1015=
201909231600 METAR LRSV 231600Z 11003KT CAVOK 19/07 Q1015=
201909231630 METAR LRSV 231630Z 10002KT CAVOK 19/07 Q1015=
201909231700 METAR LRSV 231700Z VRB01KT CAVOK 18/07 Q1015=
201909231730 METAR LRSV 231730Z 00000KT CAVOK 17/07 Q1015=
201909231800 METAR LRSV 231800Z 03001KT CAVOK 17/07 Q1015=
201909231830 METAR LRSV 231830Z 04001KT CAVOK 17/07 Q1015=
201909231900 METAR LRSV 231900Z 02006KT CAVOK 16/07 Q1015=
201909231930 METAR LRSV 231930Z 03008KT CAVOK 15/08 Q1016=
201909232000 METAR LRSV 232000Z 05009KT CAVOK 15/08 Q1016=
201909232030 METAR LRSV 232030Z 03009KT CAVOK 14/08 Q1016=
201909232100 METAR LRSV 232100Z 03011KT CAVOK 13/08 Q1016=
201909232130 METAR LRSV 232130Z 03011KT CAVOK 12/08 Q1016=
201909232200 METAR LRSV 232200Z 02010KT CAVOK 12/08 Q1016=
201909232230 METAR LRSV 232230Z 01009KT CAVOK 11/07 Q1016=
201909232300 METAR LRSV 232300Z 01009KT CAVOK 10/07 Q1016=
201909232330 METAR LRSV 232330Z 01009KT CAVOK 10/07 Q1016=
201909240000 METAR LRSV 240000Z 01009KT CAVOK 09/06 Q1016=
201909240030 METAR LRSV 240030Z 36008KT CAVOK 09/06 Q1016=
201909240100 METAR LRSV 240100Z 36009KT CAVOK 08/06 Q1016=
201909240130 METAR LRSV 240130Z 35008KT CAVOK 07/05 Q1016=
201909240200 METAR LRSV 240200Z 35008KT CAVOK 07/05 Q1016=
201909240230 METAR LRSV 240230Z 34007KT CAVOK 07/06 Q1016=
201909240300 METAR LRSV 240300Z 34007KT CAVOK 06/05 Q1016=
201909240330 METAR LRSV 240330Z AUTO 36007KT 9999 BKN220/// 06/05 Q1016=
201909240400 METAR LRSV 240400Z AUTO 35006KT 9999 NCD 06/05 Q1016=
201909240430 METAR LRSV 240430Z AUTO 35007KT 9999 NCD 06/05 Q1016=
201909240500 METAR LRSV 240500Z AUTO 34006KT 9999 NCD 07/05 Q1016=
201909240530 METAR LRSV 240530Z AUTO 36006KT 9999 NCD 08/06 Q1016=
201909240600 METAR LRSV 240600Z AUTO 01006KT 340V040 9999 NCD 09/06 Q1016=
201909240630 METAR LRSV 240630Z AUTO 03004KT 350V070 9999 NCD 10/06 Q1016=
201909240700 METAR COR LRSV 240700Z VRB01KT CAVOK 11/06 Q1016=
201909240730 METAR LRSV 240730Z VRB02KT CAVOK 12/06 Q1016=
201909240800 METAR LRSV 240800Z VRB02KT CAVOK 14/07 Q1016=
201909240830 METAR LRSV 240830Z 05004KT 350V120 CAVOK 14/07 Q1016=
201909240900 METAR LRSV 240900Z 06004KT 340V130 CAVOK 15/07 Q1016=
201909240930 METAR LRSV 240930Z VRB04KT CAVOK 15/07 Q1016=
201909241000 METAR LRSV 241000Z 11005KT 020V190 CAVOK 16/07 Q1016=
201909241030 METAR LRSV 241030Z 09006KT 050V130 CAVOK 17/07 Q1015=
201909241100 METAR LRSV 241100Z 13005KT 100V190 CAVOK 17/07 Q1015=
201909241130 METAR LRSV 241130Z 10005KT 040V140 CAVOK 18/08 Q1015=
201909241200 METAR LRSV 241200Z 17007KT CAVOK 19/09 Q1015=
201909241230 METAR LRSV 241230Z 14008KT 100V170 CAVOK 19/08 Q1015=
201909241300 METAR LRSV 241300Z 12010KT CAVOK 19/08 Q1014=
201909241330 METAR LRSV 241330Z 13009KT CAVOK 19/09 Q1014=
201909241400 METAR LRSV 241400Z 14011KT CAVOK 19/09 Q1014=
201909241430 METAR LRSV 241430Z 15010KT CAVOK 19/09 Q1014=
201909241500 METAR LRSV 241500Z 13008KT CAVOK 18/09 Q1014=
201909241530 METAR LRSV 241530Z 13007KT CAVOK 18/09 Q1014=
201909241600 METAR LRSV 241600Z 13006KT CAVOK 17/09 Q1014=
201909241630 METAR LRSV 241630Z 11006KT CAVOK 16/09 Q1014=
201909241700 METAR LRSV 241700Z 11007KT CAVOK 15/09 Q1014=
201909241730 METAR LRSV 241730Z 12008KT CAVOK 16/09 Q1014=
201909241800 METAR LRSV 241800Z 12007KT CAVOK 15/09 Q1014=
201909241830 METAR LRSV 241830Z 11005KT CAVOK 14/09 Q1014=
201909241900 METAR LRSV 241900Z VRB02KT CAVOK 14/09 Q1014=
201909241930 METAR LRSV 241930Z 15004KT CAVOK 14/09 Q1014=
201909242000 METAR LRSV 242000Z 12004KT CAVOK 14/09 Q1014=
201909242030 METAR LRSV 242030Z 16002KT CAVOK 13/09 Q1014=
201909242100 METAR LRSV 242100Z 16001KT CAVOK 13/09 Q1014=
201909242130 METAR LRSV 242130Z 00000KT CAVOK 13/09 Q1014=
201909242200 METAR LRSV 242200Z 13003KT CAVOK 12/09 Q1014=
201909242230 METAR LRSV 242230Z 13003KT CAVOK 11/09 Q1014=
201909242300 METAR LRSV 242300Z 15006KT CAVOK 11/09 Q1014=
201909242330 METAR LRSV 242330Z 18003KT CAVOK 10/08 Q1014=
201909250000 METAR LRSV 250000Z 22005KT CAVOK 10/09 Q1014=
201909250030 METAR LRSV 250030Z 21005KT CAVOK 10/09 Q1013=
201909250100 METAR LRSV 250100Z 21007KT CAVOK 10/09 Q1013=
201909250130 METAR LRSV 250130Z 22006KT CAVOK 10/08 Q1013=
201909250200 METAR LRSV 250200Z 23007KT CAVOK 09/08 Q1013=
201909250230 METAR LRSV 250230Z 21005KT CAVOK 09/08 Q1013=
201909250300 METAR LRSV 250300Z 21005KT CAVOK 09/08 Q1013=
201909250330 METAR LRSV 250330Z AUTO 21006KT 9999 BKN220/// 10/09 Q1013=
201909250400 METAR LRSV 250400Z AUTO 22006KT 9999 BKN220/// 09/08 Q1013=
201909250430 METAR LRSV 250430Z AUTO 21006KT 9999 BKN220/// 09/08 Q1013=
201909250500 METAR LRSV 250500Z 19007KT CAVOK 11/10 Q1013=
201909250530 METAR LRSV 250530Z 18006KT CAVOK 12/10 Q1013=
201909250600 METAR LRSV 250600Z 18008KT CAVOK 13/11 Q1013=
201909250630 METAR LRSV 250630Z 17009KT CAVOK 14/11 Q1013=
201909250700 METAR LRSV 250700Z 16012KT CAVOK 16/11 Q1013=
201909250730 METAR LRSV 250730Z 15011KT 120V180 CAVOK 16/12 Q1013=
201909250800 METAR COR LRSV 250800Z 14013KT CAVOK 17/12 Q1013=
201909250830 METAR COR LRSV 250830Z 15015KT CAVOK 19/11 Q1013=
201909250900 METAR LRSV 250900Z 17016KT CAVOK 19/11 Q1013=
201909250930 METAR LRSV 250930Z 17016KT CAVOK 19/10 Q1013=
201909251000 METAR LRSV 251000Z 16016KT CAVOK 19/10 Q1013=
201909251030 METAR LRSV 251030Z 16017KT CAVOK 20/10 Q1012=
201909251100 METAR LRSV 251100Z 16016KT CAVOK 21/10 Q1012=
201909251130 METAR LRSV 251130Z 16015KT CAVOK 20/10 Q1012=
201909251200 METAR LRSV 251200Z 15016KT CAVOK 20/10 Q1012=
201909251230 METAR LRSV 251230Z 16016KT CAVOK 20/11 Q1012=
201909251300 METAR LRSV 251300Z 15016KT CAVOK 21/10 Q1011=
201909251330 METAR LRSV 251330Z AUTO 15015KT 9999 SCT130/// BKN160///
                        20/10 Q1011=
201909251400 METAR LRSV 251400Z AUTO 15013KT 9999 SCT120/// BKN140///
                        20/10 Q1011=
201909251430 METAR LRSV 251430Z AUTO 16015KT 9999 BKN110/// BKN120///
                        ///// Q1011=
201909251500 METAR LRSV 251500Z 16013KT 9999 FEW045 19/10 Q1011=
201909251530 METAR LRSV 251530Z 16012KT 9999 FEW045 18/10 Q1011=
201909251600 METAR COR LRSV 251600Z 21010KT 9999 -RA FEW037 BKN048 17/11
                        Q1012=
201909251630 METAR LRSV 251630Z 20008KT 9999 SCT038 16/11 Q1012=
201909251700 METAR LRSV 251700Z 20007KT 9999 SCT040 16/11 Q1012=
201909251730 METAR LRSV 251730Z 19011KT 9999 -RA SCT040 16/11 Q1011=
201909251800 METAR LRSV 251800Z 19012KT 9999 -RA SCT040 15/11 Q1011=
201909251830 METAR LRSV 251830Z 19011KT 9999 -RA NSC 15/11 Q1011=
201909251900 METAR LRSV 251900Z 19010KT 9999 -RA NSC 14/12 Q1011=
201909251930 METAR LRSV 251930Z 19008KT 9999 -RA SCT045 14/12 Q1011 R16/29//95=
201909252000 METAR LRSV 252000Z 20007KT 9999 -RA NSC 14/12 Q1011 R16/29//95=
201909252030 METAR LRSV 252030Z 19007KT 9999 -RA NSC 13/12 Q1011 R16/29//95=
201909252100 METAR LRSV 252100Z 19007KT 9999 -RA NSC 13/12 Q1011 R16/29//95=
201909252130 METAR LRSV 252130Z 18006KT 9999 -RA NSC 13/12 Q1011 R16/29//95=
201909252200 METAR LRSV 252200Z 20005KT 9999 -RA NSC 13/12 Q1011 R16/29//95=
201909252230 METAR LRSV 252230Z AUTO 19004KT 9999 BKN065/// 13/12 Q1011
                        RERA=
201909252300 METAR LRSV 252300Z 20006KT 9999 -RA NSC 13/12 Q1011 R16/29//95=
201909252330 METAR LRSV 252330Z 21005KT 9999 -RA NSC 13/12 Q1011 R16/29//95=
201909260000 METAR LRSV 260000Z 21006KT 9999 -RA NSC 13/12 Q1011 R16/29//95=
201909260030 METAR LRSV 260030Z 23006KT 9999 -RA NSC 13/12 Q1011 R16/29//95=
201909260100 METAR LRSV 260100Z 23006KT 9999 -RA NSC 13/12 Q1011 R16/29//95=
201909260130 METAR LRSV 260130Z 23006KT 9999 -RA NSC 12/12 Q1011 R16/29//95=
201909260200 METAR LRSV 260200Z 23006KT 9999 -RA BKN048 13/12 Q1011 R16/29//95=
201909260230 METAR LRSV 260230Z 21006KT 9999 -RA BKN046 12/12 Q1011 R16/29//95=
201909260300 METAR LRSV 260300Z 22006KT 9999 -RA BKN046 12/12 Q1011 R16/29//95=
201909260330 METAR LRSV 260330Z AUTO 21005KT 5000 FEW050/// BKN075///
                        12/12 Q1010 RERA=
201909260400 METAR LRSV 260400Z AUTO 22005KT 7000 SCT050/// BKN080///
                        12/12 Q1011 RERA=
201909260430 METAR LRSV 260430Z AUTO 23006KT 8000 BKN055/// 12/12 Q1011=
201909260500 METAR LRSV 260500Z AUTO 22004KT 8000 SCT065/// OVC080///
                        13/12 Q1011=
201909260530 METAR LRSV 260530Z AUTO 23005KT 9999 OVC075/// 13/12 Q1011=
201909260600 METAR LRSV 260600Z AUTO 22006KT 9999 OVC075/// 13/12 Q1011=
201909260630 METAR LRSV 260630Z AUTO 21004KT 9999 OVC080/// 14/13 Q1011=
201909260700 METAR LRSV 260700Z 22005KT CAVOK 15/13 Q1011 R16/29//95=
201909260730 METAR LRSV 260730Z 22005KT CAVOK 16/13 Q1011 R16/29//95=
201909260800 METAR LRSV 260800Z 23005KT 180V260 CAVOK 17/13 Q1012 R16/19//95=
201909260830 METAR LRSV 260830Z 23005KT 150V260 CAVOK 18/13 Q1012 R16/19//95=
201909260900 METAR COR LRSV 260900Z VRB03KT 9999 FEW045CB 19/12 Q1012
                        R16/19//95=
201909260930 METAR LRSV 260930Z 33003KT 280V020 9999 FEW031CB 19/11 Q1012
                        R16/19//95=
201909261000 METAR COR LRSV 261000Z 06004KT 020V100 9999 FEW032CB BKN040
                        20/11 Q1011 R16/19//95=
201909261030 METAR LRSV 261030Z 04006KT 9999 FEW031CB BKN039 19/11 Q1011
                        R16/19//95=
201909261100 METAR LRSV 261100Z 04004KT 010V070 9999 FEW036CB BKN041 19/11
                        Q1011 R16/CLRD//=
201909261130 METAR LRSV 261130Z VRB02KT 9999 FEW036CB BKN044 19/10 Q1011=
201909261200 METAR LRSV 261200Z VRB02KT 9999 FEW036CB 19/10 Q1011=
201909261230 METAR LRSV 261230Z VRB01KT 9999 FEW036CB 19/10 Q1011=
201909261300 METAR LRSV 261300Z 03003KT 010V080 9999 FEW036CB 19/11 Q1011=
201909261330 METAR LRSV 261330Z VRB02KT 9999 FEW036CB 19/11 Q1011=
201909261400 METAR LRSV 261400Z 33005KT 9999 FEW036CB 18/12 Q1011=
201909261430 METAR LRSV 261430Z 34005KT 9999 FEW036CB 18/13 Q1011=
201909261500 METAR LRSV 261500Z 36003KT CAVOK 18/12 Q1011=
201909261530 METAR LRSV 261530Z 34004KT CAVOK 18/13 Q1011=
201909261600 METAR LRSV 261600Z 33004KT 9999 FEW040CB 17/13 Q1011=
201909261630 METAR LRSV 261630Z 33005KT 9999 FEW040CB SCT043 17/13 Q1011=
201909261700 METAR LRSV 261700Z VRB03KT 9999 FEW040CB SCT045 16/12 Q1012=
201909261730 METAR LRSV 261730Z 18004KT 9999 FEW040CB 16/12 Q1012=
201909261800 METAR LRSV 261800Z 20004KT 9999 FEW040CB 15/13 Q1012=
201909261830 METAR LRSV 261830Z 24007KT 9999 FEW035CB SCT036 15/13 Q1012=
201909261900 METAR LRSV 261900Z VRB02KT 7000 -SHRA SCT030CB BKN035 14/13
                        Q1012 R16/29//95=
201909261930 METAR LRSV 261930Z VRB01KT 7000 -SHRA SCT033CB BKN037 14/13
                        Q1013 R16/29//95=
201909262000 METAR LRSV 262000Z 34004KT 7000 -SHRA FEW015 SCT033CB 14/13
                        Q1013 R16/29//95=
201909262030 METAR LRSV 262030Z 36005KT 9999 SCT014 SCT033CB 14/13 Q1013
                        R16/29//95=
201909262100 METAR LRSV 262100Z 33007KT 8000 -SHRA BKN025CB 14/13 Q1013
                        R16/29//95=
201909262130 METAR LRSV 262130Z 33008KT 9999 -SHRA SCT015 BKN026 14/13
                        Q1013 R16/29//95=
201909262200 METAR LRSV 262200Z 33008KT 9999 SCT032CB 14/12 Q1013 R16/29//95=
201909262230 METAR LRSV 262230Z 33010KT 8000 -SHRA SCT035CB 13/12 Q1013
                        R16/29//95=
201909262300 METAR LRSV 262300Z 33009KT 8000 -SHRA SCT035CB 13/12 Q1014
                        R16/29//95=
201909262330 METAR LRSV 262330Z 33011KT 8000 -SHRA SCT040CB 13/12 Q1013
                        R16/29//95=
201909270000 METAR LRSV 270000Z 33012KT 8000 -SHRA SCT040CB 13/12 Q1014
                        R16/29//95=
201909270030 METAR LRSV 270030Z 32010KT 8000 -SHRA SCT043CB 13/12 Q1013
                        R16/29//95=
201909270100 METAR LRSV 270100Z 33007KT 9999 -SHRA SCT046CB 13/12 Q1013
                        R16/29//95=
201909270130 METAR LRSV 270130Z 32008KT 9999 -SHRA SCT043CB 13/12 Q1014
                        R16/29//95=
201909270200 METAR LRSV 270200Z 32007KT 9999 -SHRA SCT045CB 13/12 Q1014
                        R16/29//95=
201909270230 METAR LRSV 270230Z 32006KT 9999 SCT045CB 13/12 Q1014 R16/29//95=
201909270300 METAR LRSV 270300Z 31007KT 9999 SCT045CB 13/12 Q1014 R16/29//95=
201909270330 METAR LRSV 270330Z AUTO 32009KT 9999 -SHRA OVC070/// 13/12
                        Q1014=
201909270400 METAR LRSV 270400Z AUTO 32008KT 9999 BKN075/// 13/12 Q1015
                        RERA=
201909270430 METAR LRSV 270430Z AUTO 32007KT 9999 OVC080/// 13/12 Q1015=
201909270500 METAR LRSV 270500Z AUTO 32007KT 9000 BKN085/// 13/12 Q1015=
201909270530 METAR LRSV 270530Z AUTO 33008KT 9999 OVC085/// 13/12 Q1015=
201909270600 METAR LRSV 270600Z AUTO 32008KT 9999 BKN085/// 14/12 Q1015=
201909270630 METAR LRSV 270630Z AUTO 34009KT 310V010 9999 SCT085/// 14/12
                        Q1015=
201909270700 METAR COR LRSV 270700Z 34012KT 9999 FEW035 15/12 Q1016 R16/29//95=
201909270730 METAR COR LRSV 270730Z 35012KT 9999 FEW013 SCT025 15/12 Q1016
                        R16/29//95=
201909270800 METAR LRSV 270800Z 33011KT 9999 FEW019 SCT028 15/11 Q1016
                        R16/29//95=
201909270830 METAR COR LRSV 270830Z 33010KT 300V360 9999 FEW021 SCT029
                        17/12 Q1016 R16/29//95=
201909270900 METAR LRSV 270900Z 33011KT 290V350 9999 SCT022 17/11 Q1016
                        R16/29//95=
201909270930 METAR LRSV 270930Z 31008KT 280V340 9999 FEW021 SCT028 17/11
                        Q1016 R16/CLRD//=
201909271000 METAR LRSV 271000Z 32010KT 9999 BKN022 17/11 Q1016=
201909271030 METAR LRSV 271030Z 33010KT 9999 BKN030 17/10 Q1016=
201909271100 METAR LRSV 271100Z 34010KT 9999 BKN029 17/10 Q1016=
201909271130 METAR LRSV 271130Z 32009KT 9999 BKN029 17/10 Q1016=
201909271200 METAR LRSV 271200Z 30008KT 280V340 CAVOK 18/10 Q1016=
201909271230 METAR LRSV 271230Z 34009KT CAVOK 18/10 Q1016=
201909271300 METAR LRSV 271300Z 34008KT CAVOK 18/10 Q1016=
201909271330 METAR LRSV 271330Z 34007KT CAVOK 18/09 Q1016=
201909271400 METAR LRSV 271400Z 35007KT CAVOK 18/09 Q1016=
201909271430 METAR LRSV 271430Z 35008KT 310V010 CAVOK 19/10 Q1016=
201909271500 METAR COR LRSV 271500Z 02007KT CAVOK 18/10 Q1016=
201909271530 METAR LRSV 271530Z 02004KT CAVOK 16/10 Q1016=
201909271600 METAR LRSV 271600Z 02005KT CAVOK 15/10 Q1016=
201909271630 METAR LRSV 271630Z 01004KT 9999 FEW041 15/10 Q1016=
201909271700 METAR LRSV 271700Z 36006KT CAVOK 14/10 Q1017=
201909271730 METAR COR LRSV 271730Z 03003KT CAVOK 14/10 Q1017=
201909271800 METAR LRSV 271800Z 10004KT CAVOK 14/10 Q1017=
201909271830 METAR LRSV 271830Z 08003KT CAVOK 14/10 Q1018=
201909271900 METAR LRSV 271900Z 08002KT CAVOK 14/11 Q1018=
201909271930 METAR LRSV 271930Z VRB01KT CAVOK 14/11 Q1018=
201909272000 METAR LRSV 272000Z 14002KT CAVOK 14/11 Q1018=
201909272030 METAR LRSV 272030Z 20003KT CAVOK 13/11 Q1018=
201909272100 METAR LRSV 272100Z 22003KT CAVOK 13/10 Q1018=
201909272130 METAR LRSV 272130Z 24005KT CAVOK 12/10 Q1018=
201909272200 METAR LRSV 272200Z 24005KT CAVOK 11/10 Q1018=
201909272230 METAR LRSV 272230Z 23004KT CAVOK 12/10 Q1018=
201909272300 METAR LRSV 272300Z 17002KT CAVOK 13/10 Q1018=
201909272330 METAR LRSV 272330Z 15001KT 6000 NSC 11/09 Q1018=
201909280000 METAR LRSV 280000Z 20001KT 5000 BR NSC 10/10 Q1018=
201909280030 METAR LRSV 280030Z 00000KT 4000 BR NSC 10/10 Q1018=
201909280100 METAR LRSV 280100Z 21002KT 5000 BR NSC 10/09 Q1018=
201909280130 METAR LRSV 280130Z 20004KT 6000 NSC 10/09 Q1018=
201909280200 METAR LRSV 280200Z 20005KT 6000 NSC 09/09 Q1018=
201909280230 METAR LRSV 280230Z 21006KT 3000 BR NSC 08/08 Q1018=
201909280300 METAR LRSV 280300Z 24008KT 6000 NSC 10/09 Q1017=
201909280330 METAR LRSV 280330Z AUTO 24007KT 9999 NCD 10/09 Q1017=
201909280400 METAR LRSV 280400Z AUTO 24008KT 9999 NCD 10/09 Q1017=
201909280430 METAR LRSV 280430Z 24007KT CAVOK 10/09 Q1017=
201909280500 METAR LRSV 280500Z 25006KT CAVOK 11/09 Q1017=
201909280530 METAR LRSV 280530Z 25007KT CAVOK 12/10 Q1017=
201909280600 METAR LRSV 280600Z 21005KT CAVOK 13/10 Q1017=
201909280630 METAR LRSV 280630Z 22006KT CAVOK 13/10 Q1017=
201909280700 METAR LRSV 280700Z 18004KT 150V210 CAVOK 14/11 Q1018=
201909280730 METAR LRSV 280730Z 18005KT CAVOK 14/11 Q1018=
201909280800 METAR LRSV 280800Z 18005KT CAVOK 15/11 Q1017=
201909280830 METAR LRSV 280830Z 19006KT CAVOK 16/11 Q1018=
201909280900 METAR LRSV 280900Z 20005KT 160V240 CAVOK 17/11 Q1018=
201909280930 METAR LRSV 280930Z 19005KT 120V240 CAVOK 19/10 Q1017=
201909281000 METAR LRSV 281000Z 21005KT 150V260 CAVOK 20/11 Q1017=
201909281030 METAR LRSV 281030Z 20006KT 130V230 CAVOK 20/10 Q1017=
201909281100 METAR LRSV 281100Z 19006KT 160V230 CAVOK 21/10 Q1017=
201909281130 METAR LRSV 281130Z 18005KT 140V240 CAVOK 22/11 Q1017=
201909281200 METAR LRSV 281200Z 21005KT 160V270 CAVOK 22/10 Q1016=
201909281230 METAR LRSV 281230Z 20006KT 160V230 CAVOK 22/10 Q1016=
201909281300 METAR COR LRSV 281300Z 17004KT 140V230 CAVOK 21/10 Q1016=
201909281330 METAR LRSV 281330Z 18004KT CAVOK 21/11 Q1016=
201909281400 METAR LRSV 281400Z 17005KT CAVOK 21/11 Q1016=
201909281430 METAR LRSV 281430Z 15007KT CAVOK 20/12 Q1016=
201909281500 METAR LRSV 281500Z 15008KT CAVOK 20/12 Q1016=
201909281530 METAR LRSV 281530Z 15008KT CAVOK 19/12 Q1016=
201909281600 METAR LRSV 281600Z 14007KT CAVOK 18/12 Q1016=
201909281630 METAR LRSV 281630Z 16007KT CAVOK 17/11 Q1015=
201909281700 METAR COR LRSV 281700Z 16007KT CAVOK 16/11 Q1015=
201909281730 METAR LRSV 281730Z 16007KT CAVOK 16/11 Q1015=
201909281800 METAR LRSV 281800Z 18006KT CAVOK 16/11 Q1015=
201909281830 METAR LRSV 281830Z 20005KT CAVOK 16/12 Q1015=
201909281900 METAR COR LRSV 281900Z 21006KT CAVOK 16/12 Q1014=
201909281930 METAR LRSV 281930Z 24006KT CAVOK 16/12 Q1014=
201909282000 METAR LRSV 282000Z 24007KT CAVOK 16/12 Q1014=
201909282030 METAR COR LRSV 282030Z 26007KT CAVOK 16/12 Q1014=
201909282100 METAR LRSV 282100Z 28009KT CAVOK 17/11 Q1014=
201909282130 METAR LRSV 282130Z 28009KT CAVOK 18/10 Q1014=
201909282200 METAR LRSV 282200Z 34007KT CAVOK 15/12 Q1014=
201909282230 METAR LRSV 282230Z 35008KT 9999 -RA BKN045 14/13 Q1014=
201909282300 METAR LRSV 282300Z 34007KT 9999 -RA BKN045 14/13 Q1014=
201909282330 METAR LRSV 282330Z 01006KT 9999 -RA BKN049 14/13 Q1014=
201909290000 METAR LRSV 290000Z 35007KT 9999 -RA BKN049 14/13 Q1014 R16/29//95=
201909290030 METAR LRSV 290030Z 35008KT 9999 FEW003 14/13 Q1015 R16/29//95=
201909290100 METAR LRSV 290100Z 34011KT 9999 -RA FEW006 SCT035 13/13 Q1014
                        R16/29//95=
201909290130 METAR LRSV 290130Z 32009KT 9999 -RA BKN048 13/12 Q1014 R16/29//95=
201909290200 METAR LRSV 290200Z 31008KT 9999 -RA BKN048 13/11 Q1015 R16/29//95=
201909290230 METAR LRSV 290230Z 32009KT CAVOK 13/12 Q1015 R16/29//95=
201909290300 METAR LRSV 290300Z 30007KT CAVOK 13/12 Q1015 R16/29//95=
201909290330 METAR LRSV 290330Z 31009KT CAVOK 13/11 Q1015 R16/29//95=
201909290400 METAR LRSV 290400Z 30007KT CAVOK 12/11 Q1015 R16/29//95=
201909290430 METAR LRSV 290430Z 32006KT CAVOK 12/10 Q1015 R16/29//95=
201909290500 METAR LRSV 290500Z 31006KT CAVOK 13/11 Q1015 R16/29//95=
201909290530 METAR LRSV 290530Z 29007KT CAVOK 14/11 Q1015 R16/29//95=
201909290600 METAR LRSV 290600Z 29007KT CAVOK 14/10 Q1015 R16/29//95=
201909290630 METAR LRSV 290630Z 30006KT CAVOK 15/10 Q1015 R16/29//95=
201909290700 METAR LRSV 290700Z 31006KT 280V350 CAVOK 16/10 Q1015 R16/29//95=
201909290730 METAR LRSV 290730Z 32007KT CAVOK 16/10 Q1016 R16/29//95=
201909290800 METAR LRSV 290800Z 31008KT CAVOK 17/09 Q1016 R16/29//95=
201909290830 METAR LRSV 290830Z 28010KT 240V320 9999 FEW030 18/09 Q1016
                        R16/29//95=
201909290900 METAR LRSV 290900Z 29010KT 9999 SCT035 18/09 Q1016 R16/CLRD//=
201909290930 METAR LRSV 290930Z 28010KT 9999 SCT035 19/09 Q1015=
201909291000 METAR LRSV 291000Z 30007KT 260V340 9999 FEW040 19/08 Q1015=
201909291030 METAR LRSV 291030Z 28007KT 230V320 9999 FEW040 19/09 Q1015=
201909291100 METAR LRSV 291100Z 27006KT 230V320 9999 FEW045 20/08 Q1015=
201909291130 METAR LRSV 291130Z 28005KT 240V340 9999 SCT045 19/08 Q1014=
201909291200 METAR LRSV 291200Z 28004KT 230V350 9999 SCT045 19/08 Q1014=
201909291230 METAR LRSV 291230Z 23004KT 200V270 9999 SCT048 20/08 Q1014=
201909291300 METAR LRSV 291300Z 28004KT 240V360 9999 SCT048 20/08 Q1014=
201909291330 METAR LRSV 291330Z 26004KT 9999 SCT048 20/07 Q1014=
201909291400 METAR LRSV 291400Z 30004KT 250V330 9999 SCT048 20/07 Q1014=
201909291430 METAR LRSV 291430Z 30004KT 280V340 CAVOK 19/07 Q1013=
201909291500 METAR LRSV 291500Z 30003KT CAVOK 19/08 Q1014=
201909291530 METAR LRSV 291530Z 25004KT CAVOK 18/09 Q1013=
201909291600 METAR LRSV 291600Z 27005KT CAVOK 17/09 Q1013=
201909291630 METAR LRSV 291630Z 27005KT CAVOK 16/09 Q1013=
201909291700 METAR LRSV 291700Z 27006KT CAVOK 16/09 Q1013=
201909291730 METAR LRSV 291730Z 25006KT CAVOK 15/08 Q1013=
201909291800 METAR LRSV 291800Z 24005KT CAVOK 14/08 Q1013=
201909291830 METAR LRSV 291830Z 25005KT CAVOK 14/08 Q1013=
201909291900 METAR COR LRSV 291900Z 24006KT CAVOK 14/08 Q1013=
201909291930 METAR LRSV 291930Z 25005KT CAVOK 14/08 Q1013=
201909292000 METAR LRSV 292000Z 24004KT CAVOK 14/08 Q1013=
201909292030 METAR LRSV 292030Z 24005KT CAVOK 13/08 Q1012=
201909292100 METAR LRSV 292100Z 22006KT CAVOK 12/08 Q1012=
201909292130 METAR LRSV 292130Z VRB02KT CAVOK 12/08 Q1011=
201909292200 METAR LRSV 292200Z 21004KT CAVOK 11/07 Q1011=
201909292230 METAR LRSV 292230Z 23005KT CAVOK 11/07 Q1011=
201909292300 METAR LRSV 292300Z 23007KT CAVOK 10/07 Q1011=
201909292330 METAR LRSV 292330Z 21006KT CAVOK 10/07 Q1010=
201909300000 METAR LRSV 300000Z 22006KT CAVOK 10/07 Q1010=
201909300030 METAR LRSV 300030Z 21008KT CAVOK 10/07 Q1009=
201909300100 METAR LRSV 300100Z 22008KT CAVOK 11/08 Q1009=
201909300130 METAR LRSV 300130Z 23009KT CAVOK 11/08 Q1009=
201909300200 METAR LRSV 300200Z 23011KT CAVOK 11/08 Q1008=
201909300230 METAR LRSV 300230Z 25008KT CAVOK 11/08 Q1008=
201909300300 METAR LRSV 300300Z 23008KT CAVOK 11/08 Q1008=
201909300330 METAR LRSV 300330Z 23008KT CAVOK 10/08 Q1008=
201909300400 METAR LRSV 300400Z 22009KT CAVOK 11/08 Q1007=
201909300430 METAR LRSV 300430Z 24007KT CAVOK 12/09 Q1008=
201909300500 METAR LRSV 300500Z AUTO 23005KT 210V270 9999 FEW120/// 12/09
                        Q1008=
201909300530 METAR LRSV 300530Z AUTO 21005KT 9999 NCD 13/10 Q1007=
201909300600 METAR LRSV 300600Z AUTO 18005KT 9999 NCD 15/10 Q1007=
201909300630 METAR LRSV 300630Z AUTO 18006KT 9999 NCD 16/11 Q1007=
201909300700 METAR LRSV 300700Z 18006KT CAVOK 18/11 Q1007=
201909300730 METAR LRSV 300730Z 17007KT CAVOK 19/11 Q1007=
201909300800 METAR LRSV 300800Z 17006KT CAVOK 20/11 Q1007=
201909300830 METAR LRSV 300830Z 21007KT 170V230 9999 FEW040CB 21/11 Q1007=
201909300900 METAR LRSV 300900Z 23008KT 9999 FEW040CB 21/11 Q1007=
201909300930 METAR LRSV 300930Z 22009KT 9999 FEW040CB 21/11 Q1007=
201909301000 METAR LRSV 301000Z 23012KT 9999 FEW040CB 21/11 Q1007=
201909301030 METAR LRSV 301030Z 23013KT 200V290 CAVOK 21/11 Q1007=
201909301100 METAR LRSV 301100Z 25011KT CAVOK 22/11 Q1006=
201909301130 METAR LRSV 301130Z 24015G25KT CAVOK 23/10 Q1006=
201909301200 METAR LRSV 301200Z 25015G26KT CAVOK 23/09 Q1005=
201909301230 METAR LRSV 301230Z 25019KT 220V280 CAVOK 24/10 Q1005=
201909301300 METAR LRSV 301300Z 24017KT CAVOK 22/10 Q1005=
201909301330 METAR LRSV 301330Z 23012KT CAVOK 23/10 Q1005=
201909301400 METAR LRSV 301400Z 22012KT CAVOK 23/10 Q1005=
201909301430 METAR LRSV 301430Z 23015KT CAVOK 22/09 Q1004=
201909301500 METAR LRSV 301500Z 23015KT CAVOK 21/09 Q1004=
201909301530 METAR LRSV 301530Z 23012KT CAVOK 21/10 Q1004=
201909301600 METAR LRSV 301600Z 24008KT CAVOK 20/10 Q1004=
201909301630 METAR LRSV 301630Z 24009KT CAVOK 20/10 Q1004=
201909301700 METAR LRSV 301700Z 23009KT CAVOK 19/10 Q1004=
201909301730 METAR LRSV 301730Z 22005KT CAVOK 18/10 Q1004=
201909301800 METAR LRSV 301800Z 19005KT 160V220 CAVOK 18/10 Q1004=
201909301830 METAR LRSV 301830Z 20006KT CAVOK 16/10 Q1005=
201909301900 METAR COR LRSV 301900Z 24011KT CAVOK 19/09 Q1005=
201909301930 METAR LRSV 301930Z 26011KT 220V290 CAVOK 18/09 Q1005=
201909302000 METAR LRSV 302000Z 24010KT CAVOK 18/09 Q1005=
201909302030 METAR LRSV 302030Z 36021KT CAVOK 16/09 Q1007=
201909302100 METAR LRSV 302100Z 35017KT 9999 FEW045 14/09 Q1008=
201909302130 METAR LRSV 302130Z 34015KT 9999 FEW045 13/08 Q1008=
201909302200 METAR LRSV 302200Z AUTO 34010KT 9999 FEW075/// BKN180///
                        13/08 Q1008=
201909302230 METAR LRSV 302230Z 32010KT CAVOK 13/08 Q1008=
201909302300 METAR LRSV 302300Z 30007KT CAVOK 13/08 Q1008=
201909302330 METAR LRSV 302330Z 32008KT CAVOK 13/09 Q1009=