201910010200 TAF LRSV 010200Z 0103/0112 30010KT CAVOK=
201910010500 TAF LRSV 010500Z 0106/0115 26008KT CAVOK=
201910010800 TAF LRSV 010800Z 0109/0118 32012KT CAVOK
                      BECMG 0114/0116 23008KT=
201910011100 TAF LRSV 011100Z 0112/0121 VRB04KT CAVOK
                      BECMG 0113/0115 24010KT=
201910011400 TAF LRSV 011400Z 0115/0124 23008KT CAVOK
                      PROB30 TEMPO 0115/0118 17010KT=
201910011700 TAF LRSV 011700Z 0118/0203 22006KT CAVOK=
201910012000 TAF LRSV 012000Z 0121/0206 25006KT CAVOK=
201910012300 TAF LRSV 012300Z 0200/0209 25006KT CAVOK=
201910020200 TAF LRSV 020200Z 0203/0212 22006KT CAVOK=
201910020500 TAF LRSV 020500Z 0206/0215 24008KT CAVOK=
201910020800 TAF LRSV 020800Z 0209/0218 20008KT CAVOK=
201910021100 TAF LRSV 021100Z 0212/0221 16008KT CAVOK=
201910021400 TAF LRSV 021400Z 0215/0224 14012KT CAVOK
                      BECMG 0216/0218 VRB04KT=
201910021700 TAF LRSV 021700Z 0218/0303 16010KT CAVOK
                      BECMG 0218/0220 VRB04KT
                      PROB30 TEMPO 0300/0303 5000 BR BKN010=
201910022000 TAF LRSV 022000Z 0221/0306 19006KT CAVOK
                      PROB30 TEMPO 0300/0305 5000 BR BKN010=
201910022300 TAF LRSV 022300Z 0300/0309 22006KT CAVOK
                      PROB30 TEMPO 0301/0305 5000 BR BKN010
                      BECMG 0307/0309 33010KT=
201910030200 TAF LRSV 030200Z 0303/0312 24010KT CAVOK
                      PROB30 TEMPO 0303/0305 5000 BR BKN010
                      BECMG 0308/0310 33010KT=
201910030500 TAF LRSV 030500Z 0306/0315 24010KT CAVOK
                      TEMPO 0306/0308 3000 BR BKN010
                      BECMG 0309/0311 33012KT
                      TEMPO 0312/0315 VRB20G30KT 3000 TSRA BKN005
                       BKN030CB
                      PROB30 0312/0314 1500 +TSRA=
201910030800 TAF LRSV 030800Z 0309/0318 20010KT CAVOK
                      BECMG 0310/0312 33012KT
                      TEMPO 0312/0315 VRB20G30KT 3000 TSRA BKN005
                       BKN030CB
                      PROB30 0312/0314 1500 +TSRA=
201910031100 TAF LRSV 031100Z 0312/0321 34015KT 9999 BKN035
                      BECMG 0312/0314 5000 RA BKN010 OVC030
                      TEMPO 0314/0319 VRB20G30KT 1500 +TSRA=
201910031400 TAF LRSV 031400Z 0315/0324 32010KT 9999 BKN035
                      TEMPO 0315/0317 VRB20G30KT 3000 TSRA BKN005
                       BKN030CB
                      BECMG 0317/0319 5000 RA BKN010 OVC025=
201910031700 TAF LRSV 031700Z 0318/0403 32015KT 9999 BKN025
                      TEMPO 0318/0321 5000 -RA BKN010 BKN025=
201910032000 TAF LRSV 032000Z 0321/0406 33014KT 9999 BKN010
                      BECMG 0321/0323 BKN020=
201910032300 TAF LRSV 032300Z 0400/0409 33010KT 9999 BKN025=
201910040200 TAF LRSV 040200Z 0403/0412 33010KT 9999 BKN045
                      TEMPO 0404/0409 5000 -RA BR BKN015 BKN040=
201910040500 TAF LRSV 040500Z 0406/0415 33010KT 9999 SCT020 BKN045
                      TEMPO 0406/0409 5000 -RA BR BKN015 BKN040
                       BECMG 0410/0412 VRB03KT=
201910040800 TAF LRSV 040800Z 0409/0418 33010KT 9999 SCT020 BKN045
                      TEMPO 0409/0413 5000 -RA -SHRA BKN015 SCT025CB
                       BKN040
                      BECMG 0410/0412 VRB03KT=
201910041100 TAF LRSV 041100Z 0412/0421 28006KT 9999 SCT020 BKN045
                      TEMPO 0412/0416 5000 -RA -SHRA BKN010 SCT025CB
                       BKN040=
201910041400 TAF LRSV 041400Z 0415/0424 28006KT 9999 SCT025 BKN045
                      TEMPO 0415/0417 5000 -RA BR BKN015 BKN040=
201910041700 TAF LRSV 041700Z 0418/0503 VRB04KT 9999 BKN030=
201910042000 TAF LRSV 042000Z 0421/0506 VRB04KT 9999 BKN035=
201910042300 TAF LRSV 042300Z 0500/0509 VRB04KT 9999 BKN030=
201910050200 TAF LRSV 050200Z 0503/0512 VRB04KT CAVOK=
201910050500 TAF LRSV 050500Z 0506/0515 VRB04KT 9999 SCT035=
201910050800 TAF LRSV 050800Z 0509/0518 VRB04KT 9999 SCT035=
201910051100 TAF LRSV 051100Z 0512/0521 VRB04KT 9999 SCT040=
201910051400 TAF LRSV 051400Z 0515/0524 VRB04KT 9999 SCT040=
201910051700 TAF LRSV 051700Z 0518/0603 VRB04KT CAVOK
                      BECMG 0523/0601 3000 BR BKN010
                      TEMPO 0601/0603 1500 -RADZ BR BKN002 OVC020=
201910052000 TAF LRSV 052000Z 0521/0606 VRB04KT CAVOK
                      BECMG 0523/0601 3000 BR BKN010
                      TEMPO 0601/0605 1500 -RADZ BR BKN002 OVC020=
201910052300 TAF LRSV 052300Z 0600/0609 VRB04KT CAVOK
                      BECMG 0600/0602 5000 -RA BR BKN015
                      TEMPO 0602/0607 3000 -RA BR BKN005 OVC020=
201910060200 TAF LRSV 060200Z 0603/0612 33008KT 9999 BKN040
                      BECMG 0603/0605 5000 -RA BR BKN015 BKN040
                       TEMPO 0606/0612 1500 -RA BR BKN005 OVC015=
201910060500 TAF LRSV 060500Z 0606/0615 01008KT 5000 -RA BR BKN030
                      PROB40 TEMPO 0606/0611 1500 RA BR BKN005
                       OVC015=
201910060800 TAF LRSV 060800Z 0609/0618 02010KT 5000 -RA BR BKN030
                      PROB40 TEMPO 0609/0611 1500 RA BR BKN002
                       OVC015
                      BECMG 0616/0618 CAVOK=
201910061100 TAF LRSV 061100Z 0612/0621 36010KT 9999 BKN030
                      PROB40 TEMPO 0612/0616 3000 RA BR BKN010
                       OVC025
                      BECMG 0617/0619 CAVOK=
201910061400 TAF LRSV 061400Z 0615/0624 34010KT 9999 BKN040
                      PROB40 TEMPO 0615/0618 3000 RA BR BKN010
                       OVC025=
201910061700 TAF LRSV 061700Z 0618/0703 31008KT 9999 SCT015 BKN035
                      TEMPO 0618/0620 5000 -RA BR BKN015 OVC030=
201910062000 TAF LRSV 062000Z 0621/0706 33008KT 9999 SCT020 BKN035
                      TEMPO 0621/0701 5000 -RADZ BR BKN010 OVC030=
201910062300 TAF LRSV 062300Z 0700/0709 33007KT 9999 BKN040=
201910070200 TAF LRSV 070200Z 0703/0712 33007KT 9999 SCT015 BKN035
                      TEMPO 0703/0707 5000 -RA BR BKN010 OVC035=
201910070500 TAF LRSV 070500Z 0706/0715 35010KT 9999 -RA BKN015 BKN035
                      TEMPO 0706/0709 5000 -RADZ BR BKN010 OVC020=
201910070549 TAF COR LRSV 070549Z 0706/0715 35010KT 9999 -RA BKN015 BKN035
                      TEMPO 0706/0709 5000 -RADZ BR BKN005 OVC020=
201910070800 TAF LRSV 070800Z 0709/0718 01010KT 9999 BKN015 BKN035
                      TEMPO 0709/0713 5000 -RADZ BR BKN005 OVC020=
201910071100 TAF LRSV 071100Z 0712/0721 01010KT 9999 BKN040
                      PROB30 TEMPO 0712/0714 5000 -RADZ BR BKN010
                       OVC020=
201910071400 TAF LRSV 071400Z 0715/0724 01008KT 9999 BKN035=
201910071700 TAF LRSV 071700Z 0718/0803 VRB04KT 9999 BKN035=
201910072000 TAF LRSV 072000Z 0721/0806 VRB04KT 9999 SCT045=
201910072300 TAF LRSV 072300Z 0800/0809 VRB04KT 9999 BKN040=
201910080200 TAF LRSV 080200Z 0803/0812 VRB04KT CAVOK
                      BECMG 0809/0811 18010KT=
201910080500 TAF LRSV 080500Z 0806/0815 VRB04KT CAVOK
                      BECMG 0807/0809 18010KT=
201910080800 TAF LRSV 080800Z 0809/0818 17010KT 9999 BKN010
                      BECMG 0809/0810 NSC=
201910081100 TAF LRSV 081100Z 0812/0821 20008KT 9999 SCT040=
201910081400 TAF LRSV 081400Z 0815/0824 20008KT 9999 SCT040=
201910081700 TAF LRSV 081700Z 0818/0903 VRB04KT 9999 SCT040=
201910082000 TAF LRSV 082000Z 0821/0906 20008KT CAVOK=
201910082300 TAF LRSV 082300Z 0900/0909 20008KT CAVOK=
201910090200 TAF LRSV 090200Z 0903/0912 20008KT CAVOK=
201910090500 TAF LRSV 090500Z 0906/0915 21007KT CAVOK=
201910090800 TAF LRSV 090800Z 0909/0918 20012KT CAVOK
                      BECMG 0914/0916 VRB04KT=
201910091100 TAF LRSV 091100Z 0912/0921 VRB04KT CAVOK=
201910091400 TAF LRSV 091400Z 0915/0924 18010KT CAVOK=
201910091700 TAF LRSV 091700Z 0918/1003 18010KT CAVOK
                      BECMG 0921/0923 VRB04KT
                      TEMPO 1000/1003 3000 BR=
201910092000 TAF LRSV 092000Z 0921/1006 19006KT CAVOK
                      TEMPO 1000/1006 3000 BR
                      PROB30 TEMPO 1002/1005 0600 FG BKN002=
201910092300 TAF LRSV 092300Z 1000/1009 25005KT 7000 NSC
                      TEMPO 1000/1006 3000 BR
                      PROB30 TEMPO 1002/1005 0600 FG BKN002=
201910100200 TAF LRSV 100200Z 1003/1012 VRB04KT CAVOK
                      TEMPO 1003/1005 3000 BR BKN010
                      BECMG 1010/1012 31010KT SCT030CB BKN040=
201910100500 TAF LRSV 100500Z 1006/1015 26006KT CAVOK=
201910100800 TAF LRSV 100800Z 1009/1018 VRB04KT CAVOK
                      BECMG 1010/1012 31010KT=
201910101100 TAF LRSV 101100Z 1012/1021 VRB04KT CAVOK
                      BECMG 1012/1014 31010KT=
201910101400 TAF LRSV 101400Z 1015/1024 VRB04KT CAVOK
                      TEMPO 1015/1018 02010KT=
201910101700 TAF LRSV 101700Z 1018/1103 24010KT 9999 FEW045CB
                      BECMG 1020/1022 VRB04KT NSC=
201910102000 TAF LRSV 102000Z 1021/1106 VRB04KT CAVOK=
201910102300 TAF LRSV 102300Z 1100/1109 29010KT CAVOK=
201910110200 TAF LRSV 110200Z 1103/1112 29010KT CAVOK=
201910110500 TAF LRSV 110500Z 1106/1115 33010KT CAVOK=
201910110800 TAF LRSV 110800Z 1109/1118 33010KT 9999 BKN040=
201910111100 TAF LRSV 111100Z 1112/1121 34008KT 9999 BKN040=
201910111400 TAF LRSV 111400Z 1115/1124 VRB04KT CAVOK=
201910111700 TAF LRSV 111700Z 1118/1203 26006KT CAVOK=
201910112000 TAF LRSV 112000Z 1121/1206 25006KT CAVOK=
201910112300 TAF LRSV 112300Z 1200/1209 23008KT CAVOK=
201910120200 TAF LRSV 120200Z 1203/1212 23008KT CAVOK=
201910120500 TAF LRSV 120500Z 1206/1215 24008KT CAVOK=
201910120800 TAF LRSV 120800Z 1209/1218 24008KT CAVOK=
201910121100 TAF LRSV 121100Z 1212/1221 23008KT CAVOK=
201910121400 TAF LRSV 121400Z 1215/1224 16008KT CAVOK=
201910121700 TAF LRSV 121700Z 1218/1303 22010KT CAVOK
                      BECMG 1220/1222 VRB04KT
                      TEMPO 1301/1303 3000 BR=
201910122000 TAF LRSV 122000Z 1221/1306 25010KT CAVOK
                      PROB30 TEMPO 1301/1306 3000 BR=
201910122300 TAF LRSV 122300Z 1300/1309 26008KT CAVOK=
201910130200 TAF LRSV 130200Z 1303/1312 26008KT CAVOK=
201910130500 TAF LRSV 130500Z 1306/1315 26008KT CAVOK=
201910130800 TAF LRSV 130800Z 1309/1318 VRB04KT CAVOK
                      PROB30 TEMPO 1310/1314 14010KT=
201910131100 TAF LRSV 131100Z 1312/1321 VRB04KT CAVOK
                      PROB30 TEMPO 1312/1314 14010KT=
201910131400 TAF LRSV 131400Z 1315/1324 VRB04KT CAVOK
                      BECMG 1318/1320 25010KT=
201910131700 TAF LRSV 131700Z 1318/1403 VRB04KT CAVOK
                      PROB30 TEMPO 1400/1403 5000 BR=
201910132000 TAF LRSV 132000Z 1321/1406 25006KT CAVOK
                      PROB30 TEMPO 1400/1405 5000 BR=
201910132300 TAF LRSV 132300Z 1400/1409 26007KT CAVOK
                      PROB30 TEMPO 1400/1405 5000 BR=
201910140200 TAF LRSV 140200Z 1403/1412 25006KT CAVOK
                      PROB30 TEMPO 1403/1405 5000 BR=
201910140500 TAF LRSV 140500Z 1406/1415 25005KT CAVOK=
201910140800 TAF LRSV 140800Z 1409/1418 VRB04KT CAVOK=
201910141100 TAF LRSV 141100Z 1412/1421 VRB04KT CAVOK=
201910141400 TAF LRSV 141400Z 1415/1424 10006KT CAVOK=
201910141700 TAF LRSV 141700Z 1418/1503 VRB04KT CAVOK
                      PROB30 TEMPO 1501/1503 5000 BR=
201910142000 TAF LRSV 142000Z 1421/1506 VRB04KT CAVOK
                      PROB30 TEMPO 1501/1506 5000 BR=
201910142300 TAF LRSV 142300Z 1500/1509 24005KT CAVOK
                      PROB30 TEMPO 1501/1506 5000 BR=
201910150200 TAF LRSV 150200Z 1503/1512 VRB04KT CAVOK
                      PROB30 TEMPO 1503/1506 5000 BR=
201910150500 TAF LRSV 150500Z 1506/1515 VRB03KT CAVOK=
201910150800 TAF LRSV 150800Z 1509/1518 VRB04KT CAVOK
                      BECMG 1509/1511 14010KT=
201910151100 TAF LRSV 151100Z 1512/1521 13010KT CAVOK=
201910151400 TAF LRSV 151400Z 1515/1524 12008KT CAVOK=
201910151700 TAF LRSV 151700Z 1518/1603 14008KT CAVOK
                      BECMG 1520/1522 3000 BR
                      BECMG 1522/1524 0800 FG
                      TEMPO 1600/1603 0350 FG VV001=
201910151936 TAF AMD LRSV 151936Z 1519/1603 14008KT 0500 FG NSC
                      BECMG 1519/1521 0150 FG VV001=
201910152000 TAF LRSV 152000Z 1521/1606 15008KT 0350 FG NSC
                      BECMG 1521/1523 0150 FG VV001=
201910152300 TAF LRSV 152300Z 1600/1609 15008KT 0600 FG SCT002
                      PROB40 TEMPO 1600/1604 0150 FG VV001
                      BECMG 1605/1607 0800 BKN002
                      BECMG 1607/1609 3000 BR BKN005=
201910160200 TAF LRSV 160200Z 1603/1612 15008KT 0600 FG BKN002
                      PROB40 TEMPO 1603/1605 0150 FG VV001
                      BECMG 1607/1609 3000 BR BKN005
                      BECMG 1609/1610 CAVOK=
201910160500 TAF LRSV 160500Z 1606/1615 17008KT 0350 FG VV001
                      BECMG 1606/1608 1500 BR BKN005
                      BECMG 1608/1609 5000 BR BKN015
                      BECMG 1609/1610 9999 NSW SCT020=
201910160734 TAF AMD LRSV 160734Z 1607/1615 17008KT 9999 BKN005
                      BECMG 1608/1610 SCT010=
201910160800 TAF LRSV 160800Z 1609/1618 17008KT 9999 SCT015=
201910161100 TAF LRSV 161100Z 1612/1621 14007KT CAVOK=
201910161400 TAF LRSV 161400Z 1615/1624 14007KT CAVOK
                      BECMG 1620/1622 3000 BR BKN010
                      BECMG 1622/1624 0800 FG OVC002=
201910161700 TAF LRSV 161700Z 1618/1703 16008KT CAVOK
                      BECMG 1619/1621 3000 BR BKN010
                      BECMG 1622/1624 0800 FG OVC002
                      TEMPO 1700/1703 0300 FG VV001=
201910162000 TAF LRSV 162000Z 1621/1706 13006KT CAVOK
                      BECMG 1622/1624 3000 BR BKN010
                      BECMG 1700/1702 0800 FG OVC002
                      PROB30 TEMPO 1702/1705 0300 FG VV001=
201910162300 TAF LRSV 162300Z 1700/1709 20006KT 5000 BR SCT015
                      BECMG 1700/1702 1500 BR BKN005
                      PROB30 TEMPO 1702/1706 0350 FG VV001
                      BECMG 1706/1708 3000 BR BKN010=
201910170200 TAF LRSV 170200Z 1703/1712 20006KT CAVOK
                      TEMPO 1703/1706 3000 BR BKN010=
201910170500 TAF LRSV 170500Z 1706/1715 32010KT CAVOK
                      BECMG 1706/1708 08008KT=
201910170800 TAF LRSV 170800Z 1709/1718 VRB04KT CAVOK=
201910171100 TAF LRSV 171100Z 1712/1721 VRB04KT CAVOK=
201910171400 TAF LRSV 171400Z 1715/1724 VRB04KT CAVOK=
201910171700 TAF LRSV 171700Z 1718/1803 VRB04KT CAVOK
                      BECMG 1720/1723 5000 BR
                      PROB40 TEMPO 1723/1803 1500 BR BKN005=
201910172000 TAF LRSV 172000Z 1721/1806 VRB04KT CAVOK
                      BECMG 1721/1724 5000 BR
                      PROB40 TEMPO 1800/1805 1500 BR BKN005=
201910172300 TAF LRSV 172300Z 1800/1809 VRB04KT CAVOK
                      TEMPO 1800/1805 3000 BR=
201910180200 TAF LRSV 180200Z 1803/1812 VRB04KT CAVOK
                      TEMPO 1803/1806 3000 BR=
201910180500 TAF LRSV 180500Z 1806/1815 VRB04KT CAVOK=
201910180800 TAF LRSV 180800Z 1809/1818 VRB04KT CAVOK=
201910181100 TAF LRSV 181100Z 1812/1821 VRB04KT CAVOK=
201910181400 TAF LRSV 181400Z 1815/1824 14008KT CAVOK=
201910181700 TAF LRSV 181700Z 1818/1903 17005KT CAVOK
                      BECMG 1822/1824 5000 BR
                      PROB30 TEMPO 1900/1903 1500 BR=
201910182000 TAF LRSV 182000Z 1821/1906 17005KT CAVOK
                      BECMG 1822/1824 5000 BR
                      BECMG 1900/1902 1500 BR
                      PROB30 TEMPO 1902/1906 0600 FG VV002=
201910182300 TAF LRSV 182300Z 1900/1909 VRB04KT CAVOK
                      TEMPO 1902/1906 3000 BR=
201910190200 TAF LRSV 190200Z 1903/1912 VRB04KT CAVOK=
201910190500 TAF LRSV 190500Z 1906/1915 24006KT CAVOK=
201910190800 TAF LRSV 190800Z 1909/1918 VRB04KT CAVOK=
201910191100 TAF LRSV 191100Z 1912/1921 VRB04KT CAVOK=
201910191400 TAF LRSV 191400Z 1915/1924 VRB04KT CAVOK=
201910191700 TAF LRSV 191700Z 1918/2003 17006KT CAVOK
                      TEMPO 1922/2003 3000 BR BKN010=
201910192000 TAF LRSV 192000Z 1921/2006 19006KT CAVOK
                      TEMPO 2001/2006 3000 BR BKN010=
201910192300 TAF LRSV 192300Z 2000/2009 22006KT CAVOK
                      TEMPO 2003/2006 3000 BR BKN005=
201910200200 TAF LRSV 200200Z 2003/2012 25010KT CAVOK=
201910200500 TAF LRSV 200500Z 2006/2015 25010KT CAVOK
                      TEMPO 2006/2008 3000 BR BKN010=
201910200800 TAF LRSV 200800Z 2009/2018 22006KT CAVOK=
201910201100 TAF LRSV 201100Z 2012/2021 22006KT CAVOK
                      BECMG 2017/2019 3000 BR BKN010=
201910201400 TAF LRSV 201400Z 2015/2024 13006KT CAVOK
                      BECMG 2015/2017 3000 BR BKN010
                      BECMG 2017/2019 1500 BR BKN005
                      BECMG 2020/2022 0600 FG VV001=
201910201700 TAF LRSV 201700Z 2018/2103 16006KT CAVOK
                      BECMG 2018/2020 3000 BR BKN010
                      BECMG 2021/2023 1500 BR BKN005
                      BECMG 2023/2101 0600 FG VV001=
201910202000 TAF LRSV 202000Z 2021/2106 23006KT CAVOK
                      BECMG 2022/2024 5000 BR BKN010
                      TEMPO 2101/2105 1500 BR BKN005=
201910202300 TAF LRSV 202300Z 2100/2109 25006KT CAVOK
                      TEMPO 2101/2105 3000 BR BKN010=
201910210200 TAF LRSV 210200Z 2103/2112 25006KT CAVOK
                      TEMPO 2103/2106 3000 BR BKN010=
201910210500 TAF LRSV 210500Z 2106/2115 25008KT CAVOK=
201910210800 TAF LRSV 210800Z 2109/2118 21008KT CAVOK=
201910211100 TAF LRSV 211100Z 2112/2121 10007KT CAVOK=
201910211400 TAF LRSV 211400Z 2115/2124 12007KT CAVOK=
201910211700 TAF LRSV 211700Z 2118/2203 14006KT CAVOK
                      BECMG 2121/2123 5000 BR BKN010
                      TEMPO 2123/2203 1500 BR BKN005=
201910212000 TAF LRSV 212000Z 2121/2206 VRB04KT 5000 BR NSC
                      BECMG 2122/2124 1500 BR BKN010
                      TEMPO 2200/2204 0600 FG BKN002=
201910212300 TAF LRSV 212300Z 2200/2209 VRB03KT 3000 BR NSC
                      TEMPO 2200/2205 1500 BR BKN005
                      PROB40 TEMPO 2201/2204 0600 FG BKN002
                      BECMG 2205/2207 CAVOK=
201910220200 TAF LRSV 220200Z 2203/2212 VRB03KT 5000 BR NSC
                      PROB40 TEMPO 2203/2205 1500 BR BKN010
                      BECMG 2205/2207 CAVOK=
201910220500 TAF LRSV 220500Z 2206/2215 VRB03KT CAVOK
                      TEMPO 2206/2207 5000 BR=
201910220800 TAF LRSV 220800Z 2209/2218 VRB04KT CAVOK=
201910221100 TAF LRSV 221100Z 2212/2221 10005KT CAVOK
                      BECMG 2218/2220 3000 BR
                      BECMG 2220/2221 1500 BR BKN002=
201910221400 TAF LRSV 221400Z 2215/2224 10005KT 3000 BR SCT002
                      BECMG 2218/2219 0600 FG BKN002
                      BECMG 2219/2221 0150 FG VV001=
201910221510 TAF AMD LRSV 221510Z 2215/2224 05005KT 0150 FG VV001
                      PROB30 TEMPO 2215/2220 0600=
201910221700 TAF LRSV 221700Z 2218/2303 VRB04KT 0150 FG VV001
                      PROB30 TEMPO 2218/2220 0600
                      PROB40 TEMPO 2300/2303 0600 BKN002=
201910222000 TAF LRSV 222000Z 2221/2306 VRB04KT 0300 FG VV001
                      PROB40 TEMPO 2301/2306 0800 BKN002=
201910222300 TAF LRSV 222300Z 2300/2309 VRB04KT 0150 FG VV001
                      PROB30 TEMPO 2301/2303 0600
                      BECMG 2304/2306 0800 OVC002
                      BECMG 2306/2308 1500 BR SCT005
                      BECMG 2308/2309 5000=
201910230200 TAF LRSV 230200Z 2303/2312 VRB04KT 0150 FG VV001
                      PROB30 TEMPO 2303/2305 0600
                      BECMG 2305/2307 0800 OVC002
                      BECMG 2307/2309 1500 BR BKN005
                      BECMG 2309/2311 8000 NSW SCT010=
201910230500 TAF LRSV 230500Z 2306/2315 VRB04KT 0100 FG VV001
                      BECMG 2306/2308 0800 OVC002
                      BECMG 2308/2310 3000 BR BKN005
                      BECMG 2310/2312 CAVOK=
201910230800 TAF LRSV 230800Z 2309/2318 VRB04KT 3000 BR BKN002
                      BECMG 2309/2311 8000 NSW BKN015
                      BECMG 2315/2317 1500 BR BKN005=
201910231100 TAF LRSV 231100Z 2312/2321 VRB04KT CAVOK
                      BECMG 2315/2317 3000 BR BKN010
                      BECMG 2317/2319 0600 FG VV001=
201910231400 TAF LRSV 231400Z 2315/2324 VRB04KT CAVOK
                      BECMG 2315/2317 3000 BR BKN010
                      BECMG 2317/2319 0600 FG VV001
                      BECMG 2319/2321 0100 FG=
201910231540 TAF AMD LRSV 231540Z 2315/2324 VRB04KT 0100 FG VV001=
201910231700 TAF LRSV 231700Z 2318/2403 VRB04KT 0100 FG VV001
                      PROB40 TEMPO 2318/2323 0600 BKN002=
201910232000 TAF LRSV 232000Z 2321/2406 VRB04KT 0600 FG NSC
                      TEMPO 2322/2405 0100 FG VV001=
201910232300 TAF LRSV 232300Z 2400/2409 VRB04KT 0600 FG VV001
                      TEMPO 2400/2405 0100 FG
                      BECMG 2405/2407 1500 BR BKN002
                      BECMG 2407/2409 5000 BKN005=
201910240200 TAF LRSV 240200Z 2403/2412 VRB04KT 1500 BR NSC
                      TEMPO 2403/2406 0300 FG BKN001
                      BECMG 2406/2408 5000
                      BECMG 2408/2410 9999 NSW=
201910240500 TAF LRSV 240500Z 2406/2415 VRB04KT 0150 FG VV001
                      BECMG 2406/2408 0800 BKN002
                      BECMG 2408/2410 3000 BR BKN005
                      BECMG 2410/2412 9999 NSW SCT015=
201910240800 TAF LRSV 240800Z 2409/2418 VRB04KT 0150 FG VV001
                      BECMG 2409/2411 0800 BKN002
                      BECMG 2411/2413 3000 BR BKN005
                      TEMPO 2413/2416 9999 NSW SCT015=
201910241100 TAF LRSV 241100Z 2412/2421 VRB04KT 1500 BR BKN001
                      BECMG 2412/2414 5000 SCT005=
201910241400 TAF LRSV 241400Z 2415/2424 07006KT 0800 FG BKN002
                      BECMG 2415/2417 0350 FG OVC001=
201910241700 TAF LRSV 241700Z 2418/2503 VRB04KT 0100 FG VV001=
201910242000 TAF LRSV 242000Z 2421/2506 VRB04KT 0100 FG VV001=
201910242300 TAF LRSV 242300Z 2500/2509 VRB04KT 0100 FG VV001
                      BECMG 2507/2509 0800 FG OVC005=
201910250200 TAF LRSV 250200Z 2503/2512 VRB04KT 0100 FG VV001
                      BECMG 2507/2509 0800 FG OVC005
                      BECMG 2509/2511 3000 BR BKN010=
201910250500 TAF LRSV 250500Z 2506/2515 VRB04KT 0100 FG VV001
                      BECMG 2507/2509 0800 FG OVC003
                      BECMG 2509/2511 1500 BR BKN005=
201910250800 TAF LRSV 250800Z 2509/2518 VRB04KT 0100 FG VV001
                      BECMG 2509/2511 0800 OVC003
                      PROB40 TEMPO 2511/2515 3000 BR BKN005=
201910251100 TAF LRSV 251100Z 2512/2521 VRB04KT 3000 BR OVC002
                      PROB40 TEMPO 2512/2514 5000 BKN005
                      BECMG 2515/2517 0800 FG VV001
                      BECMG 2517/2518 0200 FG=
201910251400 TAF LRSV 251400Z 2515/2524 VRB04KT 5000 BR OVC003
                      BECMG 2515/2517 1500 BR OVC002
                      BECMG 2517/2518 0300 FG VV001=
201910251700 TAF LRSV 251700Z 2518/2603 VRB04KT 0800 FG OVC001
                      BECMG 2519/2521 0150 FG=
201910252000 TAF LRSV 252000Z 2521/2606 VRB04KT 0150 FG OVC001=
201910252300 TAF LRSV 252300Z 2600/2609 VRB04KT 3000 BR NSC
                      TEMPO 2600/2606 1500 BR BKN002
                      PROB40 TEMPO 2602/2606 0600 FG OVC001=
201910260200 TAF LRSV 260200Z 2603/2612 VRB04KT 5000 BR SCT005
                      TEMPO 2603/2607 1500 BR BKN002
                      PROB40 TEMPO 2603/2606 0600 FG OVC001
                      BECMG 2609/2611 CAVOK=
201910260500 TAF LRSV 260500Z 2606/2615 VRB04KT CAVOK
                      TEMPO 2606/2608 32010KT=
201910260800 TAF LRSV 260800Z 2609/2618 VRB04KT CAVOK
                      BECMG 2616/2618 3000 BR=
201910261100 TAF LRSV 261100Z 2612/2621 VRB04KT CAVOK
                      BECMG 2616/2618 3000 BR
                      BECMG 2619/2621 0800 FG BKN002=
201910261400 TAF LRSV 261400Z 2615/2624 VRB04KT CAVOK
                      BECMG 2616/2618 3000 BR
                      BECMG 2619/2621 0800 FG BKN002
                      BECMG 2622/2624 0350 FG OVC001=
201910261700 TAF LRSV 261700Z 2618/2703 VRB04KT 2000 BR NSC
                      BECMG 2618/2620 0600 FG OVC002
                      TEMPO 2621/2703 0350 FG OVC001=
201910261825 TAF AMD LRSV 261825Z 2618/2703 VRB04KT 0200 FG VV001
                      PROB30 TEMPO 2621/2703 0600=
201910262000 TAF LRSV 262000Z 2621/2706 VRB04KT 1200 BR NSC
                      TEMPO 2621/2623 0500 FG VV001
                      BECMG 2623/2701 0350 FG VV001=
201910262300 TAF LRSV 262300Z 2700/2709 23004KT 0150 FG VV001
                      TEMPO 2703/2706 0600
                      BECMG 2706/2707 0800 OVC002
                      BECMG 2708/2709 1500 BR SCT002 BKN005=
201910270200 TAF LRSV 270200Z 2703/2712 23004KT 0150 FG VV001
                      TEMPO 2703/2706 0800 BKN002
                      BECMG 2706/2707 0800 OVC002
                      BECMG 2708/2710 3000 BR SCT002 BKN005
                      BECMG 2710/2712 CAVOK=
201910270500 TAF LRSV 270500Z 2706/2715 23004KT 5000 BR NSC
                      TEMPO 2706/2708 1500 BR BKN005
                      BECMG 2708/2710 CAVOK=
201910270800 TAF LRSV 270800Z 2709/2718 VRB04KT CAVOK=
201910271100 TAF LRSV 271100Z 2712/2721 17006KT CAVOK
                      BECMG 2716/2718 5000 BR BKN015
                      BECMG 2718/2720 1500 BR BKN005=
201910271400 TAF LRSV 271400Z 2715/2724 17006KT CAVOK
                      BECMG 2717/2719 5000 BR BKN015
                      BECMG 2720/2722 1500 BR BKN005=
201910271700 TAF LRSV 271700Z 2718/2803 17006KT CAVOK
                      BECMG 2718/2720 1500 BR
                      BECMG 2720/2722 0350 FG OVC001=
201910272000 TAF LRSV 272000Z 2721/2806 25006KT CAVOK
                      BECMG 2722/2724 3000 BR
                      TEMPO 2800/2806 0600 FG BKN001=
201910272300 TAF LRSV 272300Z 2800/2809 25006KT CAVOK
                      TEMPO 2800/2805 3000 BR=
201910280200 TAF LRSV 280200Z 2803/2812 25006KT CAVOK
                      TEMPO 2803/2806 3000 BR=
201910280500 TAF LRSV 280500Z 2806/2815 34007KT CAVOK=
201910280800 TAF LRSV 280800Z 2809/2818 34007KT CAVOK
                      BECMG 2816/2818 BKN015 BKN035=
201910281100 TAF LRSV 281100Z 2812/2821 03008KT CAVOK
                      BECMG 2816/2818 5000 BR BKN015 BKN035
                      TEMPO 2819/2821 3000 -RADZ BKN010 BKN030=
201910281400 TAF LRSV 281400Z 2815/2824 02008KT 5000 BR SCT035
                      BECMG 2815/2817 3000 BR BKN015 BKN035
                      TEMPO 2817/2824 1500 -RADZ BKN010 BKN030=
201910281700 TAF LRSV 281700Z 2818/2903 32008KT 5000 BR BKN010 BKN035
                      TEMPO 2819/2901 1500 -RADZ BKN005 OVC030=
201910282000 TAF LRSV 282000Z 2821/2906 34008KT 5000 -RA BKN010 OVC030
                      TEMPO 2821/2902 1500 RA BKN005 OVC025=
201910282300 TAF LRSV 282300Z 2900/2909 32008KT 9999 SCT015 BKN030
                      TEMPO 2900/2904 3000 RA BKN005 OVC025=
201910290200 TAF LRSV 290200Z 2903/2912 02008KT 9999 BKN030
                      TEMPO 2903/2906 3000 RA BKN005 OVC025=
201910290500 TAF LRSV 290500Z 2906/2915 35008KT 9999 BKN030
                      PROB30 TEMPO 2906/2910 5000 -RA SCT010 OVC020=
201910290800 TAF LRSV 290800Z 2909/2918 35008KT 9999 BKN030
                      PROB30 TEMPO 2909/2911 5000 -RA SCT010 OVC020=
201910291100 TAF LRSV 291100Z 2912/2921 VRB04KT 9999 SCT015 BKN025
                      BECMG 2919/2921 33010KT=
201910291400 TAF LRSV 291400Z 2915/2924 VRB04KT 9999 BKN035
                      BECMG 2919/2921 33012KT=
201910291700 TAF LRSV 291700Z 2918/3003 34008KT 9999 SCT015 BKN035
                      PROB30 TEMPO 2918/2922 5000 -RA BR BKN015
                       BKN030=
201910292000 TAF LRSV 292000Z 2921/3006 34008KT 9999 SCT015 BKN045
                      PROB30 TEMPO 2921/2922 5000 -RA BR BKN015
                       BKN040
                      TEMPO 3003/3006 BKN010 BKN035=
201910292300 TAF LRSV 292300Z 3000/3009 34008KT 9999 SCT015 BKN035
                      TEMPO 3003/3006 BKN010 BKN025=
201910300200 TAF LRSV 300200Z 3003/3012 34008KT 9999 SCT015 BKN035
                      TEMPO 3003/3006 BKN015 BKN025=
201910300500 TAF LRSV 300500Z 3006/3015 34008KT 9999 SCT035
                      PROB30 TEMPO 3006/3009 BKN015 BKN025=
201910300800 TAF LRSV 300800Z 3009/3018 34008KT 9999 BKN040=
201910301100 TAF LRSV 301100Z 3012/3021 01006KT 9999 BKN045=
201910301400 TAF LRSV 301400Z 3015/3024 01006KT CAVOK=
201910301700 TAF LRSV 301700Z 3018/3103 36005KT 9999 BKN045=
201910302000 TAF LRSV 302000Z 3021/3106 02008KT 9999 SCT045=
201910302300 TAF LRSV 302300Z 3100/3109 02008KT CAVOK=
201910310200 TAF LRSV 310200Z 3103/3112 34007KT CAVOK=
201910310500 TAF LRSV 310500Z 3106/3115 VRB04KT CAVOK=
201910310800 TAF LRSV 310800Z 3109/3118 VRB04KT CAVOK=
201910311100 TAF LRSV 311100Z 3112/3121 VRB04KT 9999 BKN045=
201910311400 TAF LRSV 311400Z 3115/3124 VRB04KT CAVOK=
201910311700 TAF LRSV 311700Z 3118/0103 VRB04KT CAVOK=
201910312000 TAF LRSV 312000Z 3121/0106 VRB04KT 9999 BKN045=
201910312300 TAF LRSV 312300Z 0100/0109 VRB04KT CAVOK=
