201912010000 METAR LRSV 010000Z 32010KT CAVOK M01/M05 Q1020 R16/09//95=
201912010030 METAR LRSV 010030Z 31011KT CAVOK M01/M05 Q1021 R16/09//95=
201912010100 METAR LRSV 010100Z 31008KT CAVOK M01/M05 Q1021 R16/09//95=
201912010130 METAR LRSV 010130Z 30010KT CAVOK M01/M05 Q1021 R16/09//95=
201912010200 METAR LRSV 010200Z 30009KT CAVOK M02/M05 Q1021 R16/09//95=
201912010230 METAR LRSV 010230Z 30009KT CAVOK M02/M05 Q1021 R16/09//95=
201912010300 METAR LRSV 010300Z 31010KT CAVOK M01/M05 Q1021 R16/09//95=
201912010330 METAR COR LRSV 010330Z 29010KT 9999 FEW032 M02/M05 Q1022
                        R16/09//95=
201912010400 METAR LRSV 010400Z 27008KT 9999 FEW034 M02/M05 Q1022 R16/09//95=
201912010430 METAR LRSV 010430Z 27009KT CAVOK M02/M06 Q1022 R16/09//95=
201912010500 METAR LRSV 010500Z 29008KT CAVOK M02/M06 Q1022 R16/09//95=
201912010530 METAR LRSV 010530Z 29010KT CAVOK M02/M06 Q1022 R16/09//95=
201912010600 METAR LRSV 010600Z 29009KT CAVOK M02/M06 Q1023 R16/09//95=
201912010630 METAR LRSV 010630Z 28008KT CAVOK M01/M06 Q1023 R16/09//95=
201912010700 METAR LRSV 010700Z 29008KT CAVOK M01/M06 Q1023 R16/09//95=
201912010730 METAR LRSV 010730Z 27007KT CAVOK M00/M06 Q1024 R16/09//95=
201912010800 METAR LRSV 010800Z 29007KT 260V320 9999 FEW019 00/M05 Q1024
                        R16/09//95=
201912010830 METAR LRSV 010830Z 31008KT 270V330 9999 FEW019 01/M05 Q1024
                        R16/09//95=
201912010900 METAR LRSV 010900Z 29010KT 9999 FEW019 01/M06 Q1024 R16/09//95=
201912010930 METAR LRSV 010930Z 32008KT 280V340 9999 FEW019 02/M05 Q1024
                        R16/09//95=
201912011000 METAR LRSV 011000Z 32009KT 280V350 9999 FEW019 02/M05 Q1024
                        R16/09//95=
201912011030 METAR LRSV 011030Z 33008KT 9999 FEW030 01/M05 Q1024 R16/09//95=
201912011100 METAR LRSV 011100Z 33007KT 300V360 9999 FEW030 02/M04 Q1024
                        R16/09//95=
201912011130 METAR LRSV 011130Z 35007KT 9999 FEW030 02/M05 Q1024 R16/09//95=
201912011200 METAR LRSV 011200Z 36004KT 310V040 9999 FEW030 02/M05 Q1024
                        R16/09//95=
201912011230 METAR LRSV 011230Z 35004KT 290V080 9999 FEW030 02/M05 Q1024
                        R16/09//95=
201912011300 METAR LRSV 011300Z 03005KT 9999 FEW030 02/M05 Q1024 R16/09//95=
201912011330 METAR LRSV 011330Z 05004KT CAVOK 02/M05 Q1024 R16/09//95=
201912011400 METAR LRSV 011400Z 05004KT CAVOK 01/M05 Q1024 R16/09//95=
201912011430 METAR LRSV 011430Z 06003KT CAVOK 00/M05 Q1025 R16/09//95=
201912011500 METAR LRSV 011500Z 09003KT CAVOK M00/M05 Q1025 R16/09//95=
201912011530 METAR LRSV 011530Z 10004KT CAVOK M01/M05 Q1025 R16/09//95=
201912011600 METAR LRSV 011600Z 08004KT CAVOK M01/M04 Q1025 R16/09//95=
201912011630 METAR LRSV 011630Z 13004KT CAVOK M01/M04 Q1025 R16/09//95=
201912011700 METAR LRSV 011700Z 17004KT CAVOK M02/M05 Q1025 R16/09//95=
201912011730 METAR LRSV 011730Z 16003KT CAVOK M02/M05 Q1025 R16/09//95=
201912011800 METAR LRSV 011800Z 18004KT CAVOK M02/M05 Q1025 R16/09//95=
201912011830 METAR LRSV 011830Z 20004KT CAVOK M02/M05 Q1025 R16/09//95=
201912011900 METAR LRSV 011900Z 20006KT CAVOK M02/M05 Q1025 R16/09//95=
201912011930 METAR LRSV 011930Z 20006KT CAVOK M03/M05 Q1025 R16/09//95=
201912012000 METAR LRSV 012000Z 20005KT CAVOK M03/M05 Q1025 R16/09//95=
201912012030 METAR COR LRSV 012030Z 21004KT CAVOK M03/M05 Q1024 R16/09//95=
201912012100 METAR LRSV 012100Z 20005KT CAVOK M03/M05 Q1024 R16/09//95=
201912012130 METAR LRSV 012130Z 21005KT CAVOK M03/M06 Q1024 R16/09//95=
201912012200 METAR LRSV 012200Z 24005KT CAVOK M03/M06 Q1024 R16/09//95=
201912012230 METAR LRSV 012230Z 24006KT CAVOK M04/M06 Q1024 R16/09//95=
201912012300 METAR LRSV 012300Z 23005KT CAVOK M04/M06 Q1023 R16/09//95=
201912012330 METAR LRSV 012330Z 22005KT CAVOK M04/M06 Q1023 R16/09//95=
201912020000 METAR LRSV 020000Z 20007KT CAVOK M04/M06 Q1023 R16/09//95=
201912020030 METAR LRSV 020030Z 20006KT CAVOK M04/M06 Q1023 R16/09//95=
201912020100 METAR LRSV 020100Z 19007KT CAVOK M04/M06 Q1022 R16/09//95=
201912020130 METAR LRSV 020130Z 20007KT CAVOK M04/M06 Q1022 R16/09//95=
201912020200 METAR LRSV 020200Z 20008KT CAVOK M04/M06 Q1021 R16/09//95=
201912020230 METAR LRSV 020230Z 19007KT CAVOK M04/M06 Q1021 R16/09//95=
201912020300 METAR LRSV 020300Z 21007KT CAVOK M04/M06 Q1020 R16/09//95=
201912020330 METAR LRSV 020330Z 21008KT CAVOK M04/M06 Q1020 R16/09//95=
201912020400 METAR LRSV 020400Z 20008KT CAVOK M04/M06 Q1020 R16/09//95=
201912020430 METAR LRSV 020430Z 19006KT CAVOK M04/M06 Q1019 R16/09//95=
201912020500 METAR LRSV 020500Z 21007KT CAVOK M04/M06 Q1019 R16/09//95=
201912020530 METAR LRSV 020530Z 20005KT CAVOK M04/M06 Q1018 R16/09//95=
201912020600 METAR LRSV 020600Z AUTO 21007KT 9999 FEW120/// M04/M06 Q1018=
201912020630 METAR LRSV 020630Z AUTO 20005KT 9999 FEW120/// SCT170///
                        BKN240/// M04/M06 Q1018=
201912020700 METAR LRSV 020700Z AUTO 20005KT 9999 FEW100/// BKN110///
                        M04/M06 Q1018=
201912020730 METAR LRSV 020730Z AUTO 22005KT 9999 SCT075/// BKN100///
                        M03/M06 Q1018=
201912020800 METAR LRSV 020800Z 20008KT CAVOK M03/M06 Q1018 R16/09//95=
201912020830 METAR LRSV 020830Z 19005KT CAVOK M02/M05 Q1017 R16/09//95=
201912020900 METAR LRSV 020900Z 20007KT CAVOK M02/M05 Q1017 R16/09//95=
201912020930 METAR LRSV 020930Z 21007KT CAVOK M01/M05 Q1016 R16/09//95=
201912021000 METAR LRSV 021000Z 21005KT CAVOK M01/M04 Q1016 R16/09//95=
201912021030 METAR LRSV 021030Z 20002KT 150V230 9999 BKN046 M01/M05 Q1016
                        R16/09//95=
201912021100 METAR LRSV 021100Z 15004KT 9999 BKN049 M01/M04 Q1015 R16/09//95=
201912021130 METAR COR LRSV 021130Z 14004KT CAVOK M01/M04 Q1015 R16/09//95=
201912021200 METAR LRSV 021200Z 13004KT CAVOK M01/M03 Q1015 R16/09//95=
201912021230 METAR LRSV 021230Z 13005KT CAVOK M01/M03 Q1014 R16/09//95=
201912021300 METAR LRSV 021300Z 10005KT 9999 BKN044 M01/M03 Q1014 R16/09//95=
201912021330 METAR LRSV 021330Z 09007KT 9999 BKN035 M01/M03 Q1014 R16/09//95=
201912021400 METAR LRSV 021400Z 12005KT 090V150 9999 -SN BKN032 M01/M03
                        Q1014 R16/09//95=
201912021430 METAR LRSV 021430Z 12003KT 9000 -SN BKN037 M01/M03 Q1014
                        R16/09//95=
201912021500 METAR LRSV 021500Z 09003KT 8000 -SN OVC027 M01/M03 Q1014
                        R16/09//95=
201912021530 METAR LRSV 021530Z 07003KT 3000 -SN SCT012 BKN025 M01/M03
                        Q1014 R16/09//95=
201912021600 METAR LRSV 021600Z VRB01KT 1500 SN BR OVC011 M02/M03 Q1014
                        R16/590294=
201912021630 METAR LRSV 021630Z 21002KT 2000 -SN BR BKN012 BKN025 M02/M02
                        Q1014 R16/590294=
201912021700 METAR LRSV 021700Z 25004KT 1500 SN BR BKN012 BKN025 M02/M02
                        Q1014 R16/590393=
201912021730 METAR LRSV 021730Z 27005KT 1500 SN BR BKN011 BKN025 M02/M02
                        Q1014 R16/590393=
201912021800 METAR LRSV 021800Z 27005KT 1500 SN BR BKN012 BKN025 M02/M02
                        Q1014 R16/590393=
201912021830 METAR LRSV 021830Z 29007KT 250V340 1500 SN BR BKN012 BKN025
                        M02/M02 Q1014 R16/590393=
201912021900 METAR LRSV 021900Z 30006KT 3000 -SN BR BKN025 M02/M02 Q1014
                        R16/590393=
201912021930 METAR LRSV 021930Z 33005KT 3000 -SN BR BKN030 M02/M02 Q1014
                        R16/590393=
201912022000 METAR LRSV 022000Z 31004KT 280V340 5000 -SN BR SCT040 M02/M02
                        Q1014 R16/590393=
201912022030 METAR LRSV 022030Z 32008KT CAVOK M01/M02 Q1015 R16/590393=
201912022100 METAR LRSV 022100Z 32009KT 9999 FEW043 M01/M03 Q1015 R16/590393=
201912022130 METAR LRSV 022130Z 32011KT CAVOK M01/M03 Q1015 R16/590393=
201912022200 METAR LRSV 022200Z AUTO 32014KT 9999 BKN049/// M01/M03 Q1015=
201912022230 METAR LRSV 022230Z AUTO 32013KT 9999 OVC050/// M01/M03 Q1015=
201912022300 METAR LRSV 022300Z AUTO 33016KT 9999 BKN050/// M00/M03 Q1015=
201912022330 METAR LRSV 022330Z AUTO 32016KT 9999 OVC049/// 00/M03 Q1015=
201912030000 METAR COR LRSV 030000Z 33016KT CAVOK 00/M04 Q1016 R16/590393=
201912030030 METAR LRSV 030030Z AUTO 32015KT 9999 BKN050/// 00/M04 Q1016=
201912030100 METAR COR LRSV 030100Z 32015KT CAVOK 01/M05 Q1016 R16/590393=
201912030130 METAR LRSV 030130Z 31011KT CAVOK 00/M05 Q1016 R16/590393=
201912030200 METAR LRSV 030200Z 28012KT CAVOK M01/M06 Q1016 R16/590393=
201912030230 METAR LRSV 030230Z AUTO 28010KT 9999 BKN050/// OVC065///
                        00/M05 Q1016=
201912030300 METAR COR LRSV 030300Z 28009KT 9999 BKN035 00/M04 Q1016 R16/990294=
201912030330 METAR LRSV 030330Z 29010KT 9999 SCT038 00/M05 Q1017 R16/990294=
201912030400 METAR LRSV 030400Z 29008KT 9999 FEW041 M01/M06 Q1017 R16/990294=
201912030430 METAR LRSV 030430Z AUTO 26009KT 9999 NCD M01/M06 Q1017=
201912030500 METAR LRSV 030500Z AUTO 27010KT 9999 BKN055/// M00/M06 Q1017=
201912030530 METAR LRSV 030530Z AUTO 28008KT 9999 OVC055/// M00/M06 Q1018=
201912030600 METAR LRSV 030600Z AUTO 27008KT 9999 FEW043/// BKN060///
                        M00/M06 Q1018=
201912030630 METAR LRSV 030630Z AUTO 27008KT 9999 SG SCT041/// BKN055///
                        M00/M06 Q1018=
201912030700 METAR LRSV 030700Z AUTO 26007KT 9999 BKN055/// M00/M05 Q1019
                        RESG=
201912030730 METAR LRSV 030730Z AUTO 29011KT 9999 FEW041/// BKN055///
                        01/M05 Q1019 REDZ=
201912030800 METAR COR LRSV 030800Z 31011KT 3000 -SHSN FEW021CB BKN034
                        01/M04 Q1020=
201912030830 METAR LRSV 030830Z 32009KT 8000 -SHSN FEW021CB BKN036 00/M03
                        Q1020 R16/990294=
201912030900 METAR LRSV 030900Z 30010KT 9999 -SN BKN035 00/M03 Q1020 R16/990294=
201912030930 METAR LRSV 030930Z 29014KT 9999 BKN040 01/M04 Q1020 RESN
                        R16/990294=
201912031000 METAR LRSV 031000Z 30011KT 9999 SCT035 02/M04 Q1020 R16/990294=
201912031030 METAR LRSV 031030Z 28009KT 260V320 9999 FEW037 02/M04 Q1020
                        R16/990294=
201912031100 METAR LRSV 031100Z 29009KT CAVOK 02/M04 Q1020 R16/990294=
201912031130 METAR LRSV 031130Z 29009KT CAVOK 03/M05 Q1020 R16/990294=
201912031200 METAR LRSV 031200Z 32011KT 9999 SCT042 03/M04 Q1020 R16/29//95=
201912031230 METAR LRSV 031230Z 33008KT 9999 SCT045 02/M04 Q1020 R16/29//95=
201912031300 METAR LRSV 031300Z 34007KT 9999 SCT047 01/M04 Q1021 R16/29//95=
201912031330 METAR LRSV 031330Z 32011KT 9999 BKN047 02/M04 Q1021 R16/29//95=
201912031400 METAR LRSV 031400Z 33008KT 9999 BKN047 01/M04 Q1021 R16/29//95=
201912031430 METAR LRSV 031430Z 34008KT 9999 BKN047 01/M04 Q1021 R16/29//95=
201912031500 METAR LRSV 031500Z 34005KT 9999 SCT047 M00/M04 Q1022 R16/29//95=
201912031530 METAR LRSV 031530Z 33007KT 9999 SCT047 M00/M04 Q1022 R16/29//95=
201912031600 METAR LRSV 031600Z 32009KT 9999 FEW018 M00/M03 Q1022 R16/09//95=
201912031630 METAR LRSV 031630Z 35009KT 9999 FEW015 M01/M02 Q1023 R16/09//95=
201912031700 METAR LRSV 031700Z 33010KT 9999 -SN FEW012 SCT017 BKN030
                        M00/M02 Q1023 R16/09//95=
201912031730 METAR LRSV 031730Z 33009KT 9999 -SN FEW021 SCT029 BKN033
                        M00/M03 Q1024 R16/09//95=
201912031800 METAR LRSV 031800Z 33009KT 9999 FEW029 SCT040 M01/M03 Q1024
                        R16/09//95=
201912031830 METAR LRSV 031830Z 34007KT 9999 FEW038 M02/M04 Q1025 R16/09//95=
201912031900 METAR LRSV 031900Z 33007KT 9999 SCT035 M01/M04 Q1025 R16/09//95=
201912031930 METAR LRSV 031930Z 33008KT 9999 FEW033 M02/M04 Q1025 R16/09//95=
201912032000 METAR LRSV 032000Z 32007KT 9999 FEW017 M02/M04 Q1026 R16/09//95=
201912032030 METAR LRSV 032030Z 33006KT CAVOK M02/M04 Q1026 R16/09//95=
201912032100 METAR LRSV 032100Z 32007KT CAVOK M02/M04 Q1026 R16/09//95=
201912032130 METAR LRSV 032130Z 34008KT 9999 BKN022 M02/M04 Q1026 R16/09//95=
201912032200 METAR LRSV 032200Z 34005KT CAVOK M03/M05 Q1026 R16/09//95=
201912032230 METAR LRSV 032230Z 33006KT CAVOK M03/M05 Q1026 R16/09//95=
201912032300 METAR LRSV 032300Z 34007KT CAVOK M04/M06 Q1026 R16/09//95=
201912032330 METAR LRSV 032330Z 35008KT CAVOK M04/M06 Q1026 R16/09//95=
201912040000 METAR LRSV 040000Z 35007KT CAVOK M04/M06 Q1027 R16/09//95=
201912040030 METAR LRSV 040030Z 33007KT CAVOK M04/M06 Q1027 R16/09//95=
201912040100 METAR LRSV 040100Z 33006KT CAVOK M04/M06 Q1027 R16/09//95=
201912040130 METAR LRSV 040130Z 34005KT CAVOK M04/M06 Q1027 R16/09//95=
201912040200 METAR LRSV 040200Z 33005KT CAVOK M04/M06 Q1027 R16/09//95=
201912040230 METAR LRSV 040230Z 26006KT CAVOK M05/M07 Q1027 R16/09//95=
201912040300 METAR LRSV 040300Z 26006KT CAVOK M05/M06 Q1027 R16/09//95=
201912040330 METAR LRSV 040330Z 27006KT CAVOK M05/M06 Q1027 R16/09//95=
201912040400 METAR LRSV 040400Z 29005KT CAVOK M05/M07 Q1027 R16/09//95=
201912040430 METAR LRSV 040430Z AUTO 26003KT 9999 NCD M05/M07 Q1027=
201912040500 METAR LRSV 040500Z AUTO 25003KT 9999 NCD M05/M07 Q1028=
201912040530 METAR LRSV 040530Z AUTO 24005KT 9999 NCD M05/M06 Q1028=
201912040600 METAR LRSV 040600Z AUTO 25005KT 9999 NCD M05/M06 Q1028=
201912040630 METAR LRSV 040630Z AUTO 25005KT 220V290 9999 NCD M05/M06
                        Q1028=
201912040700 METAR LRSV 040700Z AUTO 24005KT 9000 NCD M04/M05 Q1028=
201912040730 METAR LRSV 040730Z AUTO 24004KT 9999 NCD M03/M05 Q1028=
201912040800 METAR COR LRSV 040800Z 22006KT CAVOK M03/M05 Q1028 R16/09//95=
201912040830 METAR LRSV 040830Z 22006KT CAVOK M03/M05 Q1028 R16/09//95=
201912040900 METAR COR LRSV 040900Z 21007KT CAVOK M02/M04 Q1028 R16/09//95=
201912040930 METAR LRSV 040930Z 21007KT CAVOK M01/M04 Q1028 R16/09//95=
201912041000 METAR LRSV 041000Z 19007KT CAVOK M01/M04 Q1027 R16/09//95=
201912041030 METAR LRSV 041030Z 19007KT CAVOK M00/M04 Q1027 R16/09//95=
201912041100 METAR LRSV 041100Z 21005KT CAVOK 00/M04 Q1027 R16/09//95=
201912041130 METAR LRSV 041130Z 22006KT CAVOK 00/M05 Q1027 R16/09//95=
201912041200 METAR LRSV 041200Z 20005KT CAVOK 01/M04 Q1026 R16/09//95=
201912041230 METAR LRSV 041230Z 21004KT CAVOK 01/M05 Q1026 R16/09//95=
201912041300 METAR LRSV 041300Z 20003KT CAVOK 01/M05 Q1026 R16/09//95=
201912041330 METAR LRSV 041330Z 18003KT CAVOK 01/M05 Q1026 R16/09//95=
201912041400 METAR LRSV 041400Z 14002KT 120V190 CAVOK 00/M04 Q1026 R16/09//95=
201912041430 METAR LRSV 041430Z 14003KT CAVOK M01/M04 Q1027 R16/09//95=
201912041500 METAR LRSV 041500Z 17002KT CAVOK M02/M04 Q1027 R16/09//95=
201912041530 METAR LRSV 041530Z 19002KT CAVOK M02/M04 Q1027 R16/09//95=
201912041600 METAR LRSV 041600Z 20004KT CAVOK M02/M05 Q1027 R16/09//95=
201912041630 METAR LRSV 041630Z 20005KT CAVOK M02/M05 Q1027 R16/09//95=
201912041700 METAR LRSV 041700Z 20005KT CAVOK M03/M05 Q1027 R16/09//95=
201912041730 METAR COR LRSV 041730Z 22004KT CAVOK M04/M06 Q1027 R16/09//95=
201912041800 METAR LRSV 041800Z 24007KT CAVOK M03/M06 Q1027 R16/09//95=
201912041830 METAR LRSV 041830Z 24007KT CAVOK M03/M06 Q1027 R16/09//95=
201912041900 METAR LRSV 041900Z 24006KT CAVOK M04/M06 Q1028 R16/09//95=
201912041930 METAR LRSV 041930Z 25007KT CAVOK M03/M06 Q1028 R16/09//95=
201912042000 METAR LRSV 042000Z 25008KT CAVOK M03/M06 Q1028 R16/910495=
201912042030 METAR COR LRSV 042030Z 25008KT CAVOK M03/M08 Q1028 R16/910495=
201912042100 METAR LRSV 042100Z 25009KT CAVOK M03/M08 Q1028 R16/910495=
201912042130 METAR LRSV 042130Z 25008KT CAVOK M03/M08 Q1028 R16/910495=
201912042200 METAR LRSV 042200Z 26008KT CAVOK M03/M09 Q1028 R16/910495=
201912042230 METAR LRSV 042230Z 25007KT CAVOK M03/M09 Q1028 R16/910495=
201912042300 METAR LRSV 042300Z 25007KT CAVOK M03/M09 Q1028 R16/910495=
201912042330 METAR LRSV 042330Z 26007KT CAVOK M03/M09 Q1027 R16/910495=
201912050000 METAR LRSV 050000Z 25007KT CAVOK M03/M09 Q1027 R16/910495=
201912050030 METAR LRSV 050030Z 27006KT CAVOK M03/M09 Q1027 R16/910495=
201912050100 METAR LRSV 050100Z 22004KT 170V260 CAVOK M04/M09 Q1027 R16/910495=
201912050130 METAR LRSV 050130Z 25008KT CAVOK M04/M09 Q1027 R16/910495=
201912050200 METAR COR LRSV 050200Z 25008KT CAVOK M04/M09 Q1027 R16/910495=
201912050230 METAR LRSV 050230Z 25008KT CAVOK M03/M09 Q1027 R16/910495=
201912050300 METAR COR LRSV 050300Z 26008KT CAVOK M03/M10 Q1027 R16/914095=
201912050330 METAR LRSV 050330Z 27006KT CAVOK M04/M10 Q1027 R16/914095=
201912050400 METAR LRSV 050400Z 26007KT CAVOK M02/M10 Q1027 R16/914095=
201912050430 METAR LRSV 050430Z AUTO 26007KT 9999 NCD M03/M10 Q1027=
201912050500 METAR LRSV 050500Z AUTO 26007KT 9999 NCD M03/M10 Q1027=
201912050530 METAR LRSV 050530Z AUTO 25007KT 9999 NCD M03/M10 Q1027=
201912050600 METAR LRSV 050600Z AUTO 25008KT 9999 NCD M03/M10 Q1027=
201912050630 METAR LRSV 050630Z AUTO 24007KT 9999 NCD M03/M09 Q1027=
201912050700 METAR LRSV 050700Z AUTO 23005KT 9999 NCD M03/M08 Q1027=
201912050730 METAR LRSV 050730Z AUTO 23003KT 9999 NCD M02/M08 Q1027=
201912050800 METAR LRSV 050800Z 22005KT CAVOK M01/M09 Q1027 R16/914095=
201912050830 METAR LRSV 050830Z 21005KT CAVOK M00/M08 Q1027 R16/914095=
201912050900 METAR COR LRSV 050900Z 21007KT CAVOK M00/M08 Q1026 R16/914095=
201912050930 METAR LRSV 050930Z 21007KT CAVOK 01/M09 Q1026 R16/914095=
201912051000 METAR LRSV 051000Z 21006KT CAVOK 01/M09 Q1026 R16/914095=
201912051030 METAR COR LRSV 051030Z 20006KT CAVOK 02/M08 Q1026 R16/914095=
201912051100 METAR LRSV 051100Z 20006KT CAVOK 02/M08 Q1025 R16/914095=
201912051130 METAR LRSV 051130Z 18005KT CAVOK 03/M07 Q1025 R16/914095=
201912051200 METAR LRSV 051200Z 17004KT 140V200 CAVOK 04/M06 Q1025 R16/914095=
201912051230 METAR LRSV 051230Z 14004KT 110V190 CAVOK 03/M04 Q1024 R16/914095=
201912051300 METAR LRSV 051300Z 13004KT CAVOK 03/M05 Q1024 R16/914095=
201912051330 METAR LRSV 051330Z 13003KT CAVOK 02/M05 Q1024 R16/914095=
201912051400 METAR LRSV 051400Z 00000KT CAVOK 02/M05 Q1024 R16/914095=
201912051430 METAR LRSV 051430Z 13005KT CAVOK 00/M04 Q1024 R16/914095=
201912051500 METAR LRSV 051500Z 15005KT CAVOK M01/M04 Q1024 R16/914095=
201912051530 METAR LRSV 051530Z 18004KT CAVOK M00/M04 Q1024 R16/914095=
201912051600 METAR LRSV 051600Z 18004KT CAVOK M01/M04 Q1023 R16/914095=
201912051630 METAR LRSV 051630Z 20006KT CAVOK M00/M04 Q1023 R16/914095=
201912051700 METAR LRSV 051700Z 21009KT CAVOK M00/M04 Q1023 R16/914095=
201912051730 METAR LRSV 051730Z 22009KT CAVOK M00/M05 Q1023 R16/914095=
201912051800 METAR LRSV 051800Z 23008KT CAVOK M00/M05 Q1023 R16/914095=
201912051830 METAR LRSV 051830Z 23008KT CAVOK M00/M05 Q1023 R16/914095=
201912051900 METAR LRSV 051900Z 23007KT CAVOK M01/M05 Q1023 R16/914095=
201912051930 METAR LRSV 051930Z 22006KT CAVOK M01/M05 Q1023 R16/914095=
201912052000 METAR LRSV 052000Z 24008KT CAVOK M00/M05 Q1023 R16/914095=
201912052030 METAR LRSV 052030Z 25010KT CAVOK 00/M06 Q1022 R16/914095=
201912052100 METAR LRSV 052100Z 25010KT CAVOK 00/M06 Q1022 R16/914095=
201912052130 METAR LRSV 052130Z 25010KT CAVOK 01/M07 Q1022 R16/914095=
201912052200 METAR LRSV 052200Z 25010KT CAVOK 00/M07 Q1022 R16/914095=
201912052230 METAR LRSV 052230Z 25008KT CAVOK 00/M08 Q1022 R16/914095=
201912052300 METAR LRSV 052300Z 25009KT CAVOK 02/M09 Q1021 R16/914095=
201912052330 METAR LRSV 052330Z 26010KT CAVOK 03/M10 Q1021 R16/914095=
201912060000 METAR LRSV 060000Z 26011KT CAVOK 03/M11 Q1021 R16/914095=
201912060030 METAR LRSV 060030Z 25010KT CAVOK 03/M11 Q1021 R16/914095=
201912060100 METAR LRSV 060100Z 25009KT CAVOK 02/M10 Q1021 R16/914095=
201912060130 METAR LRSV 060130Z 25008KT CAVOK 01/M09 Q1021 R16/914095=
201912060200 METAR LRSV 060200Z 24007KT CAVOK 01/M10 Q1020 R16/914095=
201912060230 METAR LRSV 060230Z 24009KT CAVOK 00/M09 Q1020 R16/09//95=
201912060300 METAR LRSV 060300Z 24009KT CAVOK 00/M09 Q1020 R16/09//95=
201912060330 METAR LRSV 060330Z 25009KT CAVOK 00/M10 Q1020 R16/09//95=
201912060400 METAR LRSV 060400Z 25005KT CAVOK M00/M10 Q1020 R16/09//95=
201912060430 METAR LRSV 060430Z AUTO 25010KT 9999 NCD 03/M12 Q1020=
201912060500 METAR LRSV 060500Z AUTO 25010KT 9999 NCD 02/M12 Q1020=
201912060530 METAR LRSV 060530Z AUTO 25009KT 9999 NCD 02/M12 Q1020=
201912060600 METAR LRSV 060600Z AUTO 25010KT 9999 NCD 01/M11 Q1020=
201912060630 METAR LRSV 060630Z AUTO 25010KT 9999 FEW230/// 04/M12 Q1019=
201912060700 METAR LRSV 060700Z AUTO 24009KT 9999 NCD 04/M11 Q1020=
201912060730 METAR LRSV 060730Z AUTO 24010KT 9999 NCD 05/M11 Q1019=
201912060800 METAR LRSV 060800Z 24010KT CAVOK 06/M10 Q1019 R16/09//95=
201912060830 METAR LRSV 060830Z 24011KT CAVOK 06/M10 Q1019 R16/09//95=
201912060900 METAR LRSV 060900Z 24009KT CAVOK 07/M09 Q1019 R16/09//95=
201912060930 METAR LRSV 060930Z 24006KT CAVOK 07/M07 Q1018 R16/09//95=
201912061000 METAR LRSV 061000Z 21006KT CAVOK 07/M07 Q1018 R16/09//95=
201912061030 METAR COR LRSV 061030Z 21005KT CAVOK 08/M07 Q1018 R16/09//95=
201912061100 METAR LRSV 061100Z 21004KT CAVOK 09/M06 Q1017 R16/09//95=
201912061130 METAR LRSV 061130Z 21007KT CAVOK 09/M04 Q1017 R16/09//95=
201912061200 METAR LRSV 061200Z 21006KT CAVOK 10/M04 Q1017 R16/09//95=
201912061230 METAR LRSV 061230Z 19005KT CAVOK 10/M04 Q1017 R16/09//95=
201912061300 METAR LRSV 061300Z 19004KT CAVOK 10/M03 Q1016 R16/09//95=
201912061330 METAR LRSV 061330Z 00000KT CAVOK 09/M02 Q1017 R16/09//95=
201912061400 METAR LRSV 061400Z 09004KT CAVOK 05/M03 Q1017 R16/09//95=
201912061430 METAR LRSV 061430Z 08005KT CAVOK 03/M02 Q1017 R16/09//95=
201912061500 METAR LRSV 061500Z 10005KT CAVOK 02/M02 Q1016 R16/09//95=
201912061530 METAR LRSV 061530Z 12002KT 100V160 CAVOK 01/M02 Q1016 R16/09//95=
201912061600 METAR LRSV 061600Z 17002KT 140V230 CAVOK 02/M02 Q1016 R16/09//95=
201912061630 METAR LRSV 061630Z 23006KT CAVOK 03/M03 Q1016 R16/09//95=
201912061700 METAR LRSV 061700Z 26008KT CAVOK 03/M03 Q1016 R16/09//95=
201912061730 METAR LRSV 061730Z 26012KT CAVOK 03/M03 Q1016 R16/09//95=
201912061800 METAR COR LRSV 061800Z 25009KT CAVOK 04/M06 Q1016 R16/09//95=
201912061830 METAR COR LRSV 061830Z 24010KT CAVOK 02/M05 Q1016 R16/09//95=
201912061900 METAR LRSV 061900Z 25013KT CAVOK 06/M10 Q1015 R16/09//95=
201912061930 METAR COR LRSV 061930Z 24012KT CAVOK 04/M09 Q1015 R16/09//95=
201912062000 METAR LRSV 062000Z 24011KT CAVOK 05/M11 Q1015 R16/09//95=
201912062030 METAR LRSV 062030Z 23011KT CAVOK 04/M10 Q1015 R16/09//95=
201912062100 METAR LRSV 062100Z 22009KT CAVOK 02/M09 Q1015 R16/09//95=
201912062130 METAR LRSV 062130Z 23010KT CAVOK 04/M10 Q1014 R16/09//95=
201912062200 METAR LRSV 062200Z 24013KT CAVOK 04/M11 Q1014 R16/09//95=
201912062230 METAR LRSV 062230Z 25012KT CAVOK 04/M12 Q1014 R16/09//95=
201912062300 METAR LRSV 062300Z 25013KT CAVOK 05/M11 Q1014 R16/09//95=
201912062330 METAR LRSV 062330Z 25011KT CAVOK 03/M11 Q1014 R16/09//95=
201912070000 METAR LRSV 070000Z 24013KT CAVOK 04/M10 Q1014 R16/09//95=
201912070030 METAR LRSV 070030Z 24013KT CAVOK 03/M09 Q1014 R16/09//95=
201912070100 METAR LRSV 070100Z 24006KT CAVOK 02/M08 Q1013 R16/09//95=
201912070130 METAR LRSV 070130Z 24006KT CAVOK 03/M07 Q1013 R16/09//95=
201912070200 METAR LRSV 070200Z 24009KT CAVOK 01/M06 Q1013 R16/09//95=
201912070230 METAR LRSV 070230Z 26011KT CAVOK 02/M06 Q1013 R16/09//95=
201912070300 METAR LRSV 070300Z 25007KT CAVOK 01/M06 Q1013 R16/09//95=
201912070330 METAR LRSV 070330Z 23006KT CAVOK 01/M05 Q1013 R16/09//95=
201912070400 METAR LRSV 070400Z 26010KT CAVOK 02/M05 Q1012 R16/09//95=
201912070430 METAR LRSV 070430Z AUTO 25012KT 9999 NCD 02/M05 Q1012=
201912070500 METAR LRSV 070500Z AUTO 26008KT 9999 NCD 02/M05 Q1013=
201912070530 METAR COR LRSV 070530Z 25007KT CAVOK 01/M05 Q1013 R16/09//95=
201912070600 METAR LRSV 070600Z 25008KT CAVOK 02/M05 Q1013 R16/09//95=
201912070630 METAR LRSV 070630Z 26009KT CAVOK 03/M04 Q1013 R16/09//95=
201912070700 METAR LRSV 070700Z 24008KT CAVOK 03/M03 Q1013 R16/09//95=
201912070730 METAR LRSV 070730Z 24009KT CAVOK 04/M03 Q1013 R16/09//95=
201912070800 METAR LRSV 070800Z 24010KT CAVOK 05/M03 Q1013 R16/09//95=
201912070830 METAR LRSV 070830Z 23007KT CAVOK 06/M03 Q1013 R16/09//95=
201912070900 METAR LRSV 070900Z 23008KT CAVOK 07/M02 Q1012 R16/09//95=
201912070930 METAR LRSV 070930Z 25009KT CAVOK 08/M02 Q1012 R16/09//95=
201912071000 METAR LRSV 071000Z 23008KT CAVOK 09/M02 Q1012 R16/09//95=
201912071030 METAR LRSV 071030Z 24008KT CAVOK 10/M02 Q1011 R16/09//95=
201912071100 METAR LRSV 071100Z 24009KT CAVOK 10/M02 Q1011 R16/09//95=
201912071130 METAR LRSV 071130Z 23008KT CAVOK 10/M02 Q1011 R16/09//95=
201912071200 METAR LRSV 071200Z 26013KT CAVOK 10/M02 Q1011 R16/09//95=
201912071230 METAR COR LRSV 071230Z 26012KT CAVOK 09/M01 Q1011 R16/09//95=
201912071300 METAR COR LRSV 071300Z 26010KT CAVOK 09/M01 Q1011 R16/09//95=
201912071330 METAR LRSV 071330Z 24006KT CAVOK 07/M00 Q1011 R16/09//95=
201912071400 METAR LRSV 071400Z 24006KT CAVOK 06/M01 Q1011 R16/09//95=
201912071430 METAR COR LRSV 071430Z 24009KT CAVOK 05/M01 Q1011 R16/09//95=
201912071500 METAR LRSV 071500Z 23008KT CAVOK 04/M01 Q1011 R16/09//95=
201912071530 METAR LRSV 071530Z 26008KT CAVOK 05/M01 Q1012 R16/09//95=
201912071600 METAR LRSV 071600Z 27008KT CAVOK 05/M01 Q1012 R16/09//95=
201912071630 METAR LRSV 071630Z 27006KT CAVOK 04/M02 Q1012 R16/09//95=
201912071700 METAR LRSV 071700Z 24006KT CAVOK 03/M02 Q1012 R16/09//95=
201912071730 METAR LRSV 071730Z 24005KT CAVOK 04/M02 Q1012 R16/09//95=
201912071800 METAR LRSV 071800Z 25008KT CAVOK 04/M01 Q1012 R16/09//95=
201912071830 METAR LRSV 071830Z 25010KT CAVOK 04/M01 Q1013 R16/09//95=
201912071900 METAR LRSV 071900Z 25010KT CAVOK 04/M00 Q1013 R16/09//95=
201912071930 METAR LRSV 071930Z 26011KT CAVOK 05/M00 Q1013 R16/09//95=
201912072000 METAR LRSV 072000Z 26012KT CAVOK 05/00 Q1013 R16/09//95=
201912072030 METAR LRSV 072030Z 26010KT CAVOK 05/00 Q1013 R16/09//95=
201912072100 METAR LRSV 072100Z 26010KT CAVOK 05/00 Q1013 R16/09//95=
201912072130 METAR LRSV 072130Z 26010KT CAVOK 05/00 Q1013 R16/09//95=
201912072200 METAR LRSV 072200Z 26012KT CAVOK 06/01 Q1013 R16/09//95=
201912072230 METAR LRSV 072230Z 27012KT CAVOK 05/00 Q1013 R16/09//95=
201912072300 METAR LRSV 072300Z 27010KT CAVOK 05/00 Q1013 R16/09//95=
201912072330 METAR LRSV 072330Z 28010KT CAVOK 05/M00 Q1013 R16/09//95=
201912080000 METAR LRSV 080000Z 27010KT CAVOK 05/M00 Q1014 R16/09//95=
201912080030 METAR LRSV 080030Z 27009KT CAVOK 05/M00 Q1014 R16/09//95=
201912080100 METAR LRSV 080100Z 28010KT CAVOK 05/M00 Q1014 R16/09//95=
201912080130 METAR LRSV 080130Z 28010KT CAVOK 05/M00 Q1014 R16/09//95=
201912080200 METAR LRSV 080200Z 28008KT CAVOK 05/M00 Q1014 R16/09//95=
201912080230 METAR LRSV 080230Z 28008KT CAVOK 05/M00 Q1014 R16/09//95=
201912080300 METAR LRSV 080300Z 27009KT CAVOK 05/M00 Q1014 R16/09//95=
201912080330 METAR LRSV 080330Z 28008KT 9999 FEW046 05/M01 Q1014 R16/09//95=
201912080400 METAR LRSV 080400Z 27007KT 9999 FEW044 05/M01 Q1014 R16/09//95=
201912080430 METAR LRSV 080430Z 26006KT 9999 FEW044 04/M00 Q1015 R16/09//95=
201912080500 METAR LRSV 080500Z 26007KT 9999 FEW041 04/M01 Q1015 R16/09//95=
201912080530 METAR LRSV 080530Z 26008KT 9999 FEW041 05/M00 Q1015 R16/09//95=
201912080600 METAR LRSV 080600Z 25008KT 9999 FEW045 05/M00 Q1015 R16/09//95=
201912080630 METAR LRSV 080630Z 26008KT CAVOK 05/M00 Q1015 R16/09//95=
201912080700 METAR LRSV 080700Z 26006KT CAVOK 05/M00 Q1016 R16/09//95=
201912080730 METAR LRSV 080730Z 26008KT CAVOK 05/M00 Q1016 R16/09//95=
201912080800 METAR LRSV 080800Z 25008KT CAVOK 05/00 Q1016 R16/09//95=
201912080830 METAR COR LRSV 080830Z 25008KT CAVOK 06/00 Q1016 R16/09//95=
201912080900 METAR LRSV 080900Z 26007KT CAVOK 06/01 Q1016 R16/09//95=
201912080930 METAR LRSV 080930Z 26007KT CAVOK 07/01 Q1016 R16/09//95=
201912081000 METAR LRSV 081000Z 26006KT CAVOK 07/01 Q1015 R16/09//95=
201912081030 METAR LRSV 081030Z 25006KT CAVOK 08/01 Q1015 R16/09//95=
201912081100 METAR LRSV 081100Z 26007KT 220V280 CAVOK 09/01 Q1015 R16/09//95=
201912081130 METAR LRSV 081130Z 24006KT 210V270 CAVOK 09/01 Q1015 R16/09//95=
201912081200 METAR LRSV 081200Z 24006KT 210V270 CAVOK 09/01 Q1015 R16/09//95=
201912081230 METAR LRSV 081230Z 20006KT CAVOK 09/01 Q1015 R16/09//95=
201912081300 METAR LRSV 081300Z 22008KT CAVOK 09/01 Q1014 R16/09//95=
201912081330 METAR LRSV 081330Z 22009KT CAVOK 08/00 Q1014 R16/09//95=
201912081400 METAR LRSV 081400Z 22009KT CAVOK 06/00 Q1014 R16/09//95=
201912081430 METAR LRSV 081430Z 23010KT CAVOK 06/M01 Q1014 R16/09//95=
201912081500 METAR LRSV 081500Z 23007KT CAVOK 04/M01 Q1014 R16/09//95=
201912081530 METAR COR LRSV 081530Z 23006KT CAVOK 03/M02 Q1014 R16/09//95=
201912081600 METAR LRSV 081600Z 23007KT CAVOK 03/M02 Q1014 R16/09//95=
201912081630 METAR LRSV 081630Z 22007KT CAVOK 02/M02 Q1014 R16/09//95=
201912081700 METAR LRSV 081700Z 22008KT CAVOK 02/M02 Q1014 R16/09//95=
201912081730 METAR LRSV 081730Z 22008KT CAVOK 02/M02 Q1014 R16/09//95=
201912081800 METAR LRSV 081800Z 22008KT CAVOK 02/M02 Q1014 R16/09//95=
201912081830 METAR LRSV 081830Z 20006KT CAVOK 02/M02 Q1014 R16/09//95=
201912081900 METAR LRSV 081900Z 23010KT CAVOK 02/M02 Q1013 R16/09//95=
201912081930 METAR LRSV 081930Z 23010KT CAVOK 02/M02 Q1013 R16/09//95=
201912082000 METAR LRSV 082000Z 22010KT CAVOK 02/M01 Q1013 R16/09//95=
201912082030 METAR LRSV 082030Z 21009KT CAVOK 02/M01 Q1013 R16/09//95=
201912082100 METAR LRSV 082100Z 22009KT CAVOK 02/M01 Q1012 R16/09//95=
201912082130 METAR LRSV 082130Z 21011KT CAVOK 02/M02 Q1012 R16/09//95=
201912082200 METAR LRSV 082200Z 20011KT CAVOK 02/M02 Q1012 R16/09//95=
201912082230 METAR LRSV 082230Z 20011KT CAVOK 02/M02 Q1011 R16/09//95=
201912082300 METAR LRSV 082300Z 20011KT CAVOK 02/M01 Q1011 R16/09//95=
201912082330 METAR LRSV 082330Z 20010KT CAVOK 02/M02 Q1010 R16/09//95=
201912090000 METAR LRSV 090000Z 20010KT CAVOK 02/M01 Q1010 R16/09//95=
201912090030 METAR LRSV 090030Z 21010KT CAVOK 02/M01 Q1010 R16/09//95=
201912090100 METAR LRSV 090100Z 21009KT CAVOK 02/M02 Q1010 R16/09//95=
201912090130 METAR LRSV 090130Z 22009KT CAVOK 02/M02 Q1010 R16/09//95=
201912090200 METAR LRSV 090200Z 22008KT CAVOK 01/M02 Q1009 R16/09//95=
201912090230 METAR LRSV 090230Z 24010KT CAVOK 02/M01 Q1009 R16/09//95=
201912090300 METAR LRSV 090300Z 23009KT CAVOK 02/M01 Q1009 R16/09//95=
201912090330 METAR LRSV 090330Z 24009KT CAVOK 01/M01 Q1009 R16/09//95=
201912090400 METAR LRSV 090400Z 24010KT CAVOK 02/M01 Q1009 R16/09//95=
201912090430 METAR LRSV 090430Z 24009KT CAVOK 02/M01 Q1009 R16/09//95=
201912090500 METAR LRSV 090500Z 23010KT CAVOK 02/M01 Q1009 R16/09//95=
201912090530 METAR LRSV 090530Z 24009KT CAVOK 02/M01 Q1009 R16/09//95=
201912090600 METAR LRSV 090600Z AUTO 23010KT 9999 NCD 02/M01 Q1009=
201912090630 METAR LRSV 090630Z AUTO 24010KT 9999 NCD 02/M01 Q1009=
201912090700 METAR LRSV 090700Z AUTO 23009KT 9999 NCD 03/M01 Q1009=
201912090730 METAR LRSV 090730Z AUTO 24008KT 9999 NCD 04/M00 Q1009=
201912090800 METAR COR LRSV 090800Z 24007KT CAVOK 05/00 Q1009 R16/09//95=
201912090830 METAR LRSV 090830Z 24005KT CAVOK 05/01 Q1009 R16/09//95=
201912090900 METAR LRSV 090900Z 22005KT CAVOK 06/01 Q1009 R16/09//95=
201912090930 METAR LRSV 090930Z 23005KT CAVOK 07/01 Q1009 R16/09//95=
201912091000 METAR LRSV 091000Z 21005KT CAVOK 09/02 Q1008 R16/09//95=
201912091030 METAR LRSV 091030Z 21004KT CAVOK 10/02 Q1008 R16/09//95=
201912091100 METAR LRSV 091100Z 21004KT CAVOK 10/02 Q1008 R16/09//95=
201912091130 METAR LRSV 091130Z 19004KT 170V230 CAVOK 12/02 Q1008 R16/09//95=
201912091200 METAR LRSV 091200Z 15003KT 080V220 CAVOK 12/02 Q1007 R16/09//95=
201912091230 METAR LRSV 091230Z 10004KT CAVOK 10/03 Q1008 R16/09//95=
201912091300 METAR LRSV 091300Z 11003KT 070V150 CAVOK 10/03 Q1008 R16/09//95=
201912091330 METAR LRSV 091330Z 12002KT 080V140 CAVOK 09/03 Q1008 R16/09//95=
201912091400 METAR LRSV 091400Z 09003KT 060V130 CAVOK 07/02 Q1008 R16/09//95=
201912091430 METAR LRSV 091430Z 18004KT CAVOK 06/02 Q1008 R16/09//95=
201912091500 METAR COR LRSV 091500Z 18004KT CAVOK 06/02 Q1008 R16/09//95=
201912091530 METAR LRSV 091530Z 20004KT CAVOK 05/01 Q1008 R16/09//95=
201912091600 METAR LRSV 091600Z 24006KT CAVOK 05/01 Q1008 R16/09//95=
201912091630 METAR COR LRSV 091630Z 09002KT CAVOK 05/01 Q1008 R16/09//95=
201912091700 METAR LRSV 091700Z VRB01KT CAVOK 04/M00 Q1008 R16/09//95=
201912091730 METAR LRSV 091730Z 24005KT CAVOK 04/00 Q1009 R16/09//95=
201912091800 METAR LRSV 091800Z 24007KT CAVOK 04/01 Q1009 R16/09//95=
201912091830 METAR LRSV 091830Z 25008KT CAVOK 04/00 Q1009 R16/09//95=
201912091900 METAR LRSV 091900Z 25008KT CAVOK 04/00 Q1009 R16/09//95=
201912091930 METAR COR LRSV 091930Z 25008KT CAVOK 04/00 Q1009 R16/09//95=
201912092000 METAR COR LRSV 092000Z 25008KT CAVOK 04/00 Q1009 R16/09//95=
201912092030 METAR LRSV 092030Z 26008KT CAVOK 04/M00 Q1009 R16/09//95=
201912092100 METAR LRSV 092100Z 27009KT CAVOK 05/00 Q1009 R16/09//95=
201912092130 METAR LRSV 092130Z 26008KT CAVOK 05/00 Q1009 R16/09//95=
201912092200 METAR LRSV 092200Z 25009KT CAVOK 04/00 Q1009 R16/09//95=
201912092230 METAR LRSV 092230Z 25009KT CAVOK 04/00 Q1009 R16/09//95=
201912092300 METAR LRSV 092300Z 25008KT CAVOK 04/M00 Q1009 R16/09//95=
201912092330 METAR LRSV 092330Z 25008KT CAVOK 04/M00 Q1009 R16/09//95=
201912100000 METAR LRSV 100000Z 24007KT CAVOK 03/M00 Q1009 R16/09//95=
201912100030 METAR LRSV 100030Z 25008KT CAVOK 04/00 Q1009 R16/09//95=
201912100100 METAR LRSV 100100Z 25008KT CAVOK 04/M00 Q1009 R16/09//95=
201912100130 METAR LRSV 100130Z 24007KT CAVOK 04/M00 Q1009 R16/09//95=
201912100200 METAR LRSV 100200Z 25004KT CAVOK 03/M01 Q1009 R16/09//95=
201912100230 METAR LRSV 100230Z 23004KT CAVOK 02/M00 Q1009 R16/09//95=
201912100300 METAR COR LRSV 100300Z VRB01KT CAVOK 03/M00 Q1009 R16/09//95=
201912100330 METAR LRSV 100330Z 29003KT 260V320 CAVOK 03/M00 Q1009 R16/09//95=
201912100400 METAR LRSV 100400Z 04003KT 350V160 CAVOK 02/M00 Q1010 R16/09//95=
201912100430 METAR LRSV 100430Z AUTO 00000KT 9999 NCD 02/M00 Q1010=
201912100500 METAR LRSV 100500Z AUTO 22002KT 190V250 9999 NCD 02/M00 Q1010=
201912100530 METAR LRSV 100530Z AUTO 25003KT 9999 NCD 02/M00 Q1010=
201912100600 METAR LRSV 100600Z AUTO 27005KT 9999 NCD 02/M00 Q1010=
201912100630 METAR LRSV 100630Z AUTO 27005KT 9999 NCD 03/M00 Q1011=
201912100700 METAR LRSV 100700Z AUTO 27002KT 9999 SCT220/// 05/01 Q1011=
201912100730 METAR LRSV 100730Z AUTO 23003KT 110V260 9999 NCD 06/01 Q1011=
201912100800 METAR COR LRSV 100800Z 29004KT CAVOK 06/01 Q1011=
201912100830 METAR COR LRSV 100830Z 06002KT 360V090 CAVOK 06/02 Q1012=
201912100900 METAR LRSV 100900Z VRB01KT CAVOK 07/02 Q1012=
201912100930 METAR LRSV 100930Z 00000KT CAVOK 08/02 Q1012=
201912101000 METAR LRSV 101000Z 07005KT CAVOK 05/02 Q1012=
201912101030 METAR LRSV 101030Z 02006KT CAVOK 06/02 Q1012=
201912101100 METAR LRSV 101100Z 01007KT CAVOK 06/02 Q1012=
201912101130 METAR LRSV 101130Z 02006KT CAVOK 05/02 Q1013 R16/09//95=
201912101200 METAR LRSV 101200Z 02007KT CAVOK 05/02 Q1013 R16/09//95=
201912101230 METAR LRSV 101230Z 02007KT CAVOK 05/01 Q1013 R16/09//95=
201912101300 METAR LRSV 101300Z 35008KT 8000 NSC 04/01 Q1014 R16/09//95=
201912101330 METAR LRSV 101330Z 36008KT 8000 NSC 04/01 Q1014 R16/09//95=
201912101400 METAR COR LRSV 101400Z 36008KT 8000 NSC 03/01 Q1014 R16/09//95=
201912101430 METAR LRSV 101430Z 36007KT 8000 NSC 03/01 Q1015 R16/09//95=
201912101500 METAR LRSV 101500Z 34008KT 6000 NSC 03/01 Q1015 R16/09//95=
201912101530 METAR LRSV 101530Z 33007KT 6000 NSC 03/01 Q1015 R16/09//95=
201912101600 METAR LRSV 101600Z 33007KT 6000 NSC 03/01 Q1016 R16/09//95=
201912101630 METAR LRSV 101630Z 34011KT CAVOK 04/02 Q1016 R16/09//95=
201912101700 METAR LRSV 101700Z 34013KT CAVOK 04/02 Q1017 R16/09//95=
201912101730 METAR LRSV 101730Z 33014KT CAVOK 04/02 Q1017 R16/09//95=
201912101800 METAR LRSV 101800Z 33014KT 9999 FEW036 BKN049 04/03 Q1017
                        R16/09//95=
201912101830 METAR LRSV 101830Z 33014KT 9999 FEW014 BKN026 04/03 Q1018
                        R16/09//95=
201912101900 METAR LRSV 101900Z 33016KT 9999 BKN017 BKN025 04/03 Q1018
                        R16/09//95=
201912101930 METAR LRSV 101930Z 33014KT 9999 BKN007 04/03 Q1019 R16/09//95=
201912102000 METAR LRSV 102000Z 33016KT 9999 BKN007 04/03 Q1019 R16/09//95=
201912102030 METAR LRSV 102030Z 33014KT 9999 SCT007 BKN013 04/03 Q1019
                        R16/09//95=
201912102100 METAR LRSV 102100Z 33016KT 9999 BKN007 03/02 Q1020 R16/09//95=
201912102130 METAR LRSV 102130Z 34018KT 9999 SCT016 BKN020 03/02 Q1020
                        R16/09//95=
201912102200 METAR LRSV 102200Z 33014KT 9999 -RA BKN007 02/02 Q1020 R16/09//95=
201912102230 METAR LRSV 102230Z 33015KT 9999 -RA BKN007 02/01 Q1020 R16/09//95=
201912102300 METAR LRSV 102300Z 33015KT 9999 -RA BKN007 02/01 Q1020 R16/09//95=
201912102330 METAR LRSV 102330Z 34011KT 9999 -RA BKN007 02/01 Q1020 R16/09//95=
201912110000 METAR LRSV 110000Z 33010KT 9999 -RA FEW009 BKN024 02/01 Q1021
                        R16/09//95=
201912110030 METAR LRSV 110030Z 33011KT 9999 -RA OVC023 02/01 Q1021 R16/09//95=
201912110100 METAR LRSV 110100Z 33009KT 9999 BKN024 02/01 Q1021 R16/09//95=
201912110130 METAR LRSV 110130Z 33008KT 9999 OVC025 02/01 Q1021 R16/09//95=
201912110200 METAR LRSV 110200Z 34007KT 9000 FEW013 BKN026 02/01 Q1021
                        R16/09//95=
201912110230 METAR LRSV 110230Z 33007KT 9999 FEW011 OVC029 02/01 Q1021
                        R16/09//95=
201912110300 METAR LRSV 110300Z 32006KT 9999 BKN028 02/01 Q1021 R16/19//95=
201912110330 METAR LRSV 110330Z 32006KT 9999 OVC028 02/00 Q1021 R16/19//95=
201912110400 METAR LRSV 110400Z 33008KT 9999 OVC028 02/00 Q1021 R16/19//95=
201912110430 METAR LRSV 110430Z AUTO 33007KT 9999 OVC028/// 02/00 Q1021=
201912110500 METAR LRSV 110500Z AUTO 33007KT 9999 OVC027/// 01/00 Q1021=
201912110530 METAR LRSV 110530Z AUTO 33006KT 9999 OVC027/// ///// Q1021=
201912110600 METAR LRSV 110600Z AUTO 33005KT 9999 OVC026/// 01/M00 Q1021=
201912110630 METAR LRSV 110630Z AUTO 33005KT 9999 OVC026/// 01/M00 Q1021=
201912110700 METAR LRSV 110700Z AUTO 33005KT 9999 OVC026/// 02/M00 Q1021=
201912110730 METAR LRSV 110730Z AUTO 34005KT 9999 OVC027/// 02/M00 Q1021=
201912110800 METAR COR LRSV 110800Z 34006KT 9999 OVC026 02/M00 Q1021 R16/19//95=
201912110830 METAR LRSV 110830Z 35005KT 9999 OVC026 02/M00 Q1021 R16/19//95=
201912110900 METAR LRSV 110900Z 02005KT 350V050 9999 BKN024 02/M01 Q1021
                        R16/19//95=
201912110930 METAR LRSV 110930Z 02004KT 9999 OVC025 02/M01 Q1020 R16/19//95=
201912111000 METAR LRSV 111000Z 03004KT 010V070 9999 BKN025 02/M01 Q1020
                        R16/19//95=
201912111030 METAR LRSV 111030Z 07004KT 040V100 9999 FEW009 OVC029 02/M00
                        Q1020 R16/19//95=
201912111100 METAR COR LRSV 111100Z 06002KT 030V110 9999 SCT010 BKN032
                        02/M01 Q1020 R16/19//95=
201912111130 METAR LRSV 111130Z 06003KT 9999 SCT010 BKN021 02/M01 Q1019
                        R16/19//95=
201912111200 METAR LRSV 111200Z 09003KT 050V130 9999 SCT010 BKN020 02/M01
                        Q1019 R16/19//95=
201912111230 METAR LRSV 111230Z 11002KT 9999 SCT013 BKN020 02/M01 Q1019
                        R16/19//95=
201912111300 METAR LRSV 111300Z 10003KT 9999 BKN016 02/M01 Q1019 R16/19//95=
201912111330 METAR LRSV 111330Z 09005KT 9999 SCT012 BKN036 02/M00 Q1019
                        R16/19//95=
201912111400 METAR LRSV 111400Z 10005KT 9999 FEW012 SCT036 01/M01 Q1018
                        R16/19//95=
201912111430 METAR LRSV 111430Z 12004KT 8000 NSC 00/M01 Q1018 R16/19//95=
201912111500 METAR LRSV 111500Z 14006KT 5000 BR FEW011 SCT020 00/M01 Q1018
                        R16/19//95=
201912111530 METAR LRSV 111530Z 14004KT 5000 BR SCT011 BKN017 00/M01 Q1018
                        R16/19//95=
201912111600 METAR LRSV 111600Z 12006KT 5000 BR FEW011 SCT020 M00/M01
                        Q1017 R16/19//95=
201912111630 METAR LRSV 111630Z 12006KT 5000 BR NSC M00/M01 Q1017 R16/19//95=
201912111700 METAR LRSV 111700Z 13006KT 5000 BR BKN013 00/M00 Q1017 R16/19//95=
201912111730 METAR LRSV 111730Z 12008KT 5000 BR BKN013 00/M00 Q1017 R16/19//95=
201912111800 METAR LRSV 111800Z 12009KT 4000 BR BKN010 00/M00 Q1017 R16/19//95=
201912111830 METAR LRSV 111830Z 12007KT 0600 R34/1600D FG OVC008 01/00
                        Q1017 R16/19//95=
201912111900 METAR LRSV 111900Z 13009KT 0100 R34/0450N FG VV001 01/00
                        Q1017 R16/19//95=
201912111930 METAR LRSV 111930Z 13009KT 0100 R34/0400N FG VV001 01/00
                        Q1017 R16/19//95=
201912112000 METAR LRSV 112000Z 13011KT 0100 R34/0450N FG VV001 01/00
                        Q1016 R16/19//95=
201912112030 METAR LRSV 112030Z 13009KT 0100 R34/0450N FG VV001 01/00
                        Q1016 R16/19//95=
201912112100 METAR LRSV 112100Z 12008KT 0100 R34/0600D FG VV001 01/01
                        Q1016 R16/19//95=
201912112130 METAR LRSV 112130Z 15009KT 2000 BR BKN010 01/01 Q1016 R16/19//95=
201912112200 METAR LRSV 112200Z 15007KT 2000 BR NSC 01/01 Q1016 R16/19//95=
201912112230 METAR LRSV 112230Z 13008KT 1500 BR NSC 01/01 Q1016 R16/19//95=
201912112300 METAR LRSV 112300Z 14007KT 1500 BR NSC 01/01 Q1015 R16/19//95=
201912112330 METAR LRSV 112330Z 13007KT 2000 BR NSC 01/01 Q1015 R16/19//95=
201912120000 METAR LRSV 120000Z 11005KT 0600 R34/1500D FG NSC 01/01 Q1015
                        R16/19//95=
201912120030 METAR LRSV 120030Z VRB02KT 3000 BR SCT008 01/01 Q1015 R16/19//95=
201912120100 METAR LRSV 120100Z 16010KT 5000 BR BKN006 02/02 Q1015 R16/19//95=
201912120130 METAR LRSV 120130Z 16009KT 3000 BR BKN002 02/02 Q1014 R16/19//95=
201912120200 METAR LRSV 120200Z 14011KT 3000 BR OVC002 02/02 Q1014 R16/19//95=
201912120230 METAR LRSV 120230Z 14009KT 3000 BR OVC002 02/02 Q1014 R16/19//95=
201912120300 METAR LRSV 120300Z 14008KT 0800 R34/1800 FG OVC002 03/02
                        Q1014 R16/19//95=
201912120330 METAR LRSV 120330Z 14008KT 0200 R34/0650U FG VV001 02/02
                        Q1014 R16/19//95=
201912120400 METAR LRSV 120400Z 14010KT 0200 R34/0650N FG VV001 02/02
                        Q1014 R16/19//95=
201912120430 METAR LRSV 120430Z AUTO 15011KT 1600 R34/1300VP2000U FG VV002
                        02/02 Q1014=
201912120500 METAR LRSV 120500Z AUTO 16012KT 3400 R34/2000 BKN001/// 02/02
                        Q1014=
201912120530 METAR LRSV 120530Z AUTO 16009KT 4800 BKN002/// BKN004///
                        02/02 Q1014=
201912120600 METAR LRSV 120600Z AUTO 15011KT 4800 BR FEW003/// SCT005///
                        BKN009/// 02/01 Q1014=
201912120630 METAR LRSV 120630Z AUTO 16011KT 6000 SCT008/// BKN010///
                        OVC013/// 02/01 Q1014=
201912120700 METAR LRSV 120700Z AUTO 16011KT 7000 FEW009/// BKN016///
                        02/01 Q1014=
201912120730 METAR LRSV 120730Z AUTO 14012KT 8000 SCT017/// OVC020///
                        02/01 Q1014=
201912120800 METAR LRSV 120800Z 14013KT 8000 FEW010 BKN021 02/01 Q1014
                        R16/19//95=
201912120830 METAR LRSV 120830Z 13014KT 8000 SCT007 BKN022 02/01 Q1014
                        R16/19//95=
201912120900 METAR LRSV 120900Z 14013KT 9999 BKN008 03/01 Q1014 R16/19//95=
201912120930 METAR LRSV 120930Z 13011KT 9999 BKN010 03/01 Q1013 R16/19//95=
201912121000 METAR LRSV 121000Z 12010KT 8000 BKN009 02/01 Q1013 R16/19//95=
201912121030 METAR LRSV 121030Z 12010KT 8000 BKN007 03/01 Q1012 R16/19//95=
201912121100 METAR LRSV 121100Z 12010KT 9999 BKN007 02/01 Q1012 R16/19//95=
201912121130 METAR LRSV 121130Z 13010KT 9999 BKN008 02/01 Q1012 R16/19//95=
201912121200 METAR LRSV 121200Z 13010KT 9999 BKN008 02/01 Q1012 R16/19//95=
201912121230 METAR LRSV 121230Z 13010KT 9999 BKN007 03/01 Q1012 R16/19//95=
201912121300 METAR LRSV 121300Z 13009KT 8000 BKN007 03/01 Q1011 R16/19//95=
201912121330 METAR LRSV 121330Z 14009KT 8000 BKN006 02/01 Q1011 R16/19//95=
201912121400 METAR LRSV 121400Z 14011KT 5000 BR BKN003 02/01 Q1011 R16/19//95=
201912121430 METAR LRSV 121430Z 13010KT 1500 BR BKN001 02/02 Q1011 R16/19//95=
201912121500 METAR LRSV 121500Z 13011KT 0800 R34/1900 FG VV002 02/02 Q1011
                        R16/19//95=
201912121530 METAR LRSV 121530Z 13009KT 0400 R34/1300N FG VV002 02/02
                        Q1011 R16/19//95=
201912121600 METAR LRSV 121600Z 13010KT 0100 R34/0550D FG VV001 02/02
                        Q1010 R16/19//95=
201912121630 METAR LRSV 121630Z 12011KT 0400 R34/0450N FG VV001 02/02
                        Q1010 R16/19//95=
201912121700 METAR LRSV 121700Z 13012KT 0200 R34/0450N VV001 02/01 Q1010
                        R16/19//95=
201912121730 METAR LRSV 121730Z 13011KT 0200 R34/0400N FG VV001 01/01
                        Q1010 R16/19//95=
201912121800 METAR LRSV 121800Z 14012KT 0400 R34/0450N FG VV001 01/01
                        Q1010 R16/19//95=
201912121830 METAR COR LRSV 121830Z 14011KT 0200 R34/0600N FG VV001 01/01
                        Q1010 R16/19//95=
201912121900 METAR LRSV 121900Z 13012KT 0300 R34/0650N FG VV001 01/01
                        Q1009 R16/19//95=
201912121930 METAR LRSV 121930Z 12010KT 0300 R34/0400N FG VV001 01/00
                        Q1009 R16/19//95=
201912122000 METAR COR LRSV 122000Z 12010KT 0300 R34/0400N FG VV001 00/00
                        Q1009 R16/19//95=
201912122030 METAR COR LRSV 122030Z 13009KT 0200 R34/0500N FG VV001 00/00
                        Q1009 R16/19//95=
201912122100 METAR LRSV 122100Z 13010KT 0200 R34/0600N FG VV001 00/00
                        Q1009 R16/19//95=
201912122130 METAR LRSV 122130Z 13009KT 0200 R34/0500N FG VV001 00/00
                        Q1008 R16/19//95=
201912122200 METAR LRSV 122200Z 12009KT 0200 R34/0450N FZFG VV001 M00/M00
                        Q1008 R16/19//95=
201912122230 METAR LRSV 122230Z 13009KT 0200 R34/0500N FZFG VV001 M00/M00
                        Q1008 R16/19//95=
201912122300 METAR LRSV 122300Z 12009KT 0200 R34/0550N FZFG VV001 M00/M00
                        Q1007 R16/19//95=
201912122330 METAR LRSV 122330Z 12010KT 0200 R34/0600N FZFG VV001 M00/M00
                        Q1007 R16/19//95=
201912130000 METAR LRSV 130000Z 12010KT 0300 R34/0700N FZFG VV001 M00/M00
                        Q1007 R16/19//95=
201912130030 METAR LRSV 130030Z 12010KT 0300 R34/0650N FZFG VV001 M00/M00
                        Q1007 R16/19//95=
201912130100 METAR LRSV 130100Z 12010KT 0200 R34/0600N FG VV001 00/M00
                        Q1006 R16/19//95=
201912130130 METAR LRSV 130130Z 13013KT 0200 R34/0500N FG VV001 00/M00
                        Q1006 R16/19//95=
201912130200 METAR LRSV 130200Z 14014KT 0200 R34/0450N FG VV001 00/00
                        Q1005 R16/19//95=
201912130230 METAR LRSV 130230Z 14014KT 0200 R34/0500N FG VV001 00/00
                        Q1005 R16/19//95=
201912130300 METAR LRSV 130300Z 14012KT 0200 R34/0550U FG VV001 00/00
                        Q1005 R16/19//95=
201912130330 METAR LRSV 130330Z 14014KT 0400 R34/0650N FG VV001 00/00
                        Q1004 R16/19//95=
201912130400 METAR LRSV 130400Z 14014KT 0600 R34/1500U FG VV002 00/00
                        Q1004 R16/19//95=
201912130430 METAR LRSV 130430Z AUTO 14012KT 0900 R34/1100D FG VV002 00/00
                        Q1004=
201912130500 METAR LRSV 130500Z AUTO 14016KT 0700 R34/0800N FG VV001 00/00
                        Q1004=
201912130530 METAR LRSV 130530Z AUTO 14015KT 0450 R34/0500N VV001 00/00
                        Q1004=
201912130600 METAR LRSV 130600Z AUTO 14014KT 0400 R34/0500N -SN VV001
                        00/00 Q1004=
201912130630 METAR LRSV 130630Z AUTO 14015KT 0350 R34/0400N SG VV001 01/00
                        Q1003=
201912130700 METAR LRSV 130700Z AUTO 14016KT 0300 R34/0350N SG VV001 01/00
                        Q1003=
201912130730 METAR LRSV 130730Z AUTO 14015KT 0300 R34/0375N SG VV001 01/00
                        Q1003=
201912130800 METAR LRSV 130800Z 14013KT 0100 R34/0375N FG VV001 01/01
                        Q1003 R16/19//95=
201912130830 METAR LRSV 130830Z 14012KT 0200 R34/0450N FG VV001 01/01
                        Q1003 R16/19//95=
201912130900 METAR LRSV 130900Z 14014KT 0300 R34/0800N FG VV001 01/01
                        Q1002 R16/19//95=
201912130930 METAR LRSV 130930Z 13012KT 0400 R34/1000N FG VV002 01/01
                        Q1002 R16/19//95=
201912131000 METAR COR LRSV 131000Z 12012KT 0800 R34/1100 OVC001 01/01
                        Q1002 R16/19//95=
201912131030 METAR LRSV 131030Z 13012KT 1000 R34/P2000 BR BKN001 01/01
                        Q1001 R16/19//95=
201912131100 METAR LRSV 131100Z 13014KT 3000 BR BKN002 01/01 Q1001 R16/19//95=
201912131130 METAR LRSV 131130Z 14013KT 5000 BR BKN004 01/01 Q1001 R16/19//95=
201912131200 METAR LRSV 131200Z 13013KT 100V160 5000 BR BKN002 02/01 Q1000
                        R16/19//95=
201912131230 METAR LRSV 131230Z 15016KT 0200 R34/0500N FG VV001 02/01
                        Q1000 R16/09//95=
201912131300 METAR LRSV 131300Z 15019KT 0200 R34/0500N FG VV001 02/01
                        Q1000 R16/09//95=
201912131330 METAR LRSV 131330Z 15019KT 0200 R34/0450 FG VV001 02/01 Q1000
                        R16/09//95=
201912131400 METAR LRSV 131400Z 14018KT 0200 R34/0400N FG VV001 02/01
                        Q1000 R16/09//95=
201912131430 METAR LRSV 131430Z 14017KT 0200 R34/0650N FG VV001 02/02
                        Q0999 R16/09//95=
201912131500 METAR COR LRSV 131500Z 14016KT 0100 R34/0500N FG VV001 02/01
                        Q0999 R16/09//95=
201912131530 METAR LRSV 131530Z 14016KT 0100 R34/0600N FG VV001 02/02
                        Q0999 R16/09//95=
201912131600 METAR LRSV 131600Z 13014KT 0200 R34/0550N FG VV001 02/02
                        Q1000 R16/09//95=
201912131630 METAR COR LRSV 131630Z 14017KT 0100 R34/0450N FG VV001 02/02
                        Q0999 R16/09//95=
201912131700 METAR LRSV 131700Z 14017KT 0100 R34/0500N FG VV001 02/02
                        Q0999 R16/09//95=
201912131730 METAR COR LRSV 131730Z 14012KT 0100 R34/0450N FG VV001 02/02
                        Q1000 R16/09//95=
201912131800 METAR LRSV 131800Z 13009KT 0100 R34/0450N FG VV001 02/02
                        Q1000 R16/09//95=
201912131830 METAR LRSV 131830Z 12009KT 0100 R34/0400N FG VV001 02/02
                        Q1000 R16/09//95=
201912131900 METAR LRSV 131900Z 12008KT 0100 R34/0400N FG VV001 02/02
                        Q1000 R16/19//95=
201912131930 METAR LRSV 131930Z 13010KT 0100 R34/0450N FG VV001 02/02
                        Q1000 R16/19//95=
201912132000 METAR LRSV 132000Z 13013KT 0100 R34/0450N FG VV001 02/02
                        Q1000 R16/19//95=
201912132030 METAR LRSV 132030Z 13014KT 0100 R34/0450N FG VV001 02/02
                        Q1000 R16/19//95=
201912132100 METAR LRSV 132100Z 13014KT 0100 R34/0450N FG VV001 02/02
                        Q1000 R16/19//95=
201912132130 METAR LRSV 132130Z 13013KT 0100 R34/0400N FG VV001 02/02
                        Q1000 R16/19//95=
201912132200 METAR LRSV 132200Z 13013KT 0100 R34/0600N FG VV001 02/02
                        Q1000 R16/19//95=
201912132230 METAR LRSV 132230Z 13014KT 0100 R34/0550N FG VV001 02/02
                        Q0999 R16/19//95=
201912132300 METAR LRSV 132300Z 13012KT 0100 R34/0550N FG VV001 02/02
                        Q1000 R16/19//95=
201912132330 METAR LRSV 132330Z 14011KT 0100 R34/0500N FG VV001 02/02
                        Q0999 R16/19//95=
201912140000 METAR LRSV 140000Z 13013KT 0100 R34/0450N FG VV001 02/02
                        Q1000 R16/19//95=
201912140030 METAR LRSV 140030Z 13013KT 0100 R34/0500N FG VV001 02/02
                        Q1000 R16/19//95=
201912140100 METAR LRSV 140100Z 14015KT 0100 R34/0550N FG VV001 03/02
                        Q1000 R16/19//95=
201912140130 METAR LRSV 140130Z 14014KT 0100 R34/0500N FG VV001 03/02
                        Q0999 R16/19//95=
201912140200 METAR LRSV 140200Z 15015KT 0100 R34/0550N FG VV001 03/02
                        Q0999 R16/19//95=
201912140230 METAR LRSV 140230Z 15014KT 0100 R34/0500N FG VV001 03/02
                        Q0999 R16/19//95=
201912140300 METAR LRSV 140300Z 14013KT 0100 R34/0450N FG VV001 02/02
                        Q0999 R16/19//95=
201912140330 METAR LRSV 140330Z 14012KT 0100 R34/0500N FG VV001 03/02
                        Q0999 R16/19//95=
201912140400 METAR LRSV 140400Z 14010KT 0100 R34/0450N FG VV001 03/02
                        Q1000 R16/19//95=
201912140430 METAR LRSV 140430Z AUTO 14010KT 0350 R34/0400N SG VV001 03/02
                        Q1000=
201912140500 METAR LRSV 140500Z AUTO 13011KT 0450 R34/0500N SG VV001 03/02
                        Q1000=
201912140530 METAR LRSV 140530Z 14010KT 0100 R34/0450N FG VV001 02/02
                        Q1000 R16/19//95=
201912140600 METAR LRSV 140600Z 14010KT 0100 R34/0450N FG VV001 03/03
                        Q1000 R16/19//95=
201912140630 METAR LRSV 140630Z 14008KT 0100 R34/0300N FG VV001 03/03
                        Q1000 R16/19//95=
201912140700 METAR LRSV 140700Z 13009KT 0100 R34/0300N FG VV001 03/03
                        Q1000 R16/19//95=
201912140730 METAR LRSV 140730Z 13010KT 0100 R34/0325N FG VV001 03/03
                        Q1000 R16/19//95=
201912140800 METAR LRSV 140800Z AUTO 14012KT 0500 R34/0550V0800N SG VV001
                        03/03 Q1000=
201912140830 METAR LRSV 140830Z 14010KT 2000 BR OVC003 03/03 Q1001 R16/19//95=
201912140900 METAR LRSV 140900Z 14011KT 0800 R34/P2000D BR OVC003 03/03
                        Q1000 R16/19//95=
201912140930 METAR LRSV 140930Z 13012KT 0800 R34/1800 FG OVC003 03/03
                        Q1000 R16/19//95=
201912141000 METAR LRSV 141000Z 14011KT 0100 R34/0400N FG VV001 03/03
                        Q1000 R16/19//95=
201912141030 METAR LRSV 141030Z 14011KT 0100 R34/0325N FG VV001 03/03
                        Q1000 R16/19//95=
201912141100 METAR LRSV 141100Z 15010KT 0100 R34/0350N FG VV001 03/03
                        Q1000 R16/19//95=
201912141130 METAR LRSV 141130Z 14010KT 0100 R34/0350N FG VV001 04/04
                        Q1000 R16/19//95=
201912141200 METAR LRSV 141200Z 14011KT 0150 R34/0600N FG VV001 04/04
                        Q1000 R16/19//95=
201912141230 METAR LRSV 141230Z 14008KT 0100 R34/0500U FG VV001 04/04
                        Q1000 R16/19//95=
201912141300 METAR LRSV 141300Z 15011KT 0600 R34/1200D FG VV002 04/04
                        Q1000 R16/19//95=
201912141330 METAR LRSV 141330Z 15010KT 1500 BR OVC003 04/04 Q1000 R16/19//95=
201912141400 METAR LRSV 141400Z 16010KT 3000 BR OVC003 04/04 Q1000 R16/19//95=
201912141430 METAR LRSV 141430Z 17010KT 5000 BR OVC004 04/04 Q1001 R16/19//95=
201912141500 METAR LRSV 141500Z 18009KT 5000 BR OVC004 04/04 Q1001 R16/19//95=
201912141530 METAR LRSV 141530Z 18008KT 5000 BR OVC003 04/04 Q1000 R16/19//95=
201912141600 METAR LRSV 141600Z 18008KT 6000 OVC002 04/04 Q1000 R16/19//95=
201912141630 METAR LRSV 141630Z 19009KT 3000 BR OVC003 04/04 Q1001 R16/19//95=
201912141700 METAR LRSV 141700Z 18010KT 3000 BR OVC003 04/04 Q1001 R16/19//95=
201912141730 METAR LRSV 141730Z 19009KT 4000 BR OVC003 04/04 Q1001 R16/19//95=
201912141800 METAR LRSV 141800Z 20007KT 4000 -RA BR BKN003 OVC037 05/04
                        Q1002 R16/19//95=
201912141830 METAR LRSV 141830Z 19005KT 8000 -RA FEW002 SCT045 05/04 Q1001
                        R16/19//95=
201912141900 METAR LRSV 141900Z 19005KT 8000 NSC 04/04 Q1001 R16/19//95=
201912141930 METAR LRSV 141930Z 21006KT 5000 BR NSC 04/04 Q1002 R16/19//95=
201912142000 METAR LRSV 142000Z 22005KT 4000 BR NSC 04/04 Q1002 R16/19//95=
201912142030 METAR LRSV 142030Z 23007KT 5000 BR NSC 04/04 Q1002 R16/19//95=
201912142100 METAR LRSV 142100Z 25008KT 5000 BR NSC 04/04 Q1003 R16/19//95=
201912142130 METAR LRSV 142130Z 26007KT 5000 BR NSC 04/04 Q1003 R16/19//95=
201912142200 METAR LRSV 142200Z 23005KT 5000 BR NSC 04/03 Q1003 R16/19//95=
201912142230 METAR LRSV 142230Z 26005KT 8000 SCT048 04/04 Q1004 R16/19//95=
201912142300 METAR LRSV 142300Z 27009KT 9999 BKN045 05/05 Q1004 R16/19//95=
201912142330 METAR LRSV 142330Z 26007KT 9999 SCT046 04/02 Q1005 R16/19//95=
201912150000 METAR LRSV 150000Z 27008KT CAVOK 04/02 Q1005 R16/19//95=
201912150030 METAR LRSV 150030Z 26009KT CAVOK 04/01 Q1005 R16/19//95=
201912150100 METAR LRSV 150100Z 27010KT CAVOK 04/00 Q1006 R16/19//95=
201912150130 METAR LRSV 150130Z 28008KT CAVOK 04/00 Q1006 R16/19//95=
201912150200 METAR LRSV 150200Z 29009KT CAVOK 04/M00 Q1007 R16/19//95=
201912150230 METAR LRSV 150230Z 30006KT CAVOK 04/M00 Q1008 R16/19//95=
201912150300 METAR LRSV 150300Z 30008KT CAVOK 04/M01 Q1008 R16/19//95=
201912150330 METAR LRSV 150330Z 28009KT CAVOK 04/M01 Q1008 R16/19//95=
201912150400 METAR LRSV 150400Z 26008KT CAVOK 03/M01 Q1009 R16/19//95=
201912150430 METAR LRSV 150430Z 25009KT CAVOK 03/M01 Q1009 R16/19//95=
201912150500 METAR COR LRSV 150500Z 26006KT CAVOK 04/M01 Q1009 R16/19//95=
201912150530 METAR LRSV 150530Z 25005KT CAVOK 03/M01 Q1010 R16/19//95=
201912150600 METAR LRSV 150600Z 23004KT CAVOK 02/M01 Q1010 R16/19//95=
201912150630 METAR LRSV 150630Z 25008KT CAVOK 03/M01 Q1011 R16/19//95=
201912150700 METAR LRSV 150700Z 27008KT CAVOK 04/M01 Q1011 R16/19//95=
201912150730 METAR LRSV 150730Z 24007KT CAVOK 04/M00 Q1012 R16/19//95=
201912150800 METAR LRSV 150800Z 25011KT CAVOK 05/M00 Q1012 R16/19//95=
201912150830 METAR LRSV 150830Z 24010KT CAVOK 06/01 Q1012 R16/19//95=
201912150900 METAR LRSV 150900Z 23010KT CAVOK 07/01 Q1012 R16/19//95=
201912150930 METAR LRSV 150930Z 22008KT CAVOK 08/02 Q1012 R16/19//95=
201912151000 METAR LRSV 151000Z 21008KT CAVOK 09/02 Q1012 R16/19//95=
201912151030 METAR LRSV 151030Z 21010KT CAVOK 09/01 Q1013 R16/19//95=
201912151100 METAR LRSV 151100Z 23011KT CAVOK 10/01 Q1013 R16/19//95=
201912151130 METAR LRSV 151130Z 24009KT CAVOK 10/M00 Q1013 R16/19//95=
201912151200 METAR LRSV 151200Z 27009KT 220V310 CAVOK 11/M01 Q1013 R16/19//95=
201912151230 METAR LRSV 151230Z 27009KT CAVOK 11/M01 Q1013 R16/19//95=
201912151300 METAR LRSV 151300Z 26008KT CAVOK 11/M01 Q1014 R16/19//95=
201912151330 METAR LRSV 151330Z 22007KT CAVOK 09/00 Q1014 R16/19//95=
201912151400 METAR LRSV 151400Z 23008KT CAVOK 09/00 Q1014 R16/19//95=
201912151430 METAR LRSV 151430Z 24007KT CAVOK 08/00 Q1014 R16/19//95=
201912151500 METAR LRSV 151500Z 24011KT CAVOK 08/M00 Q1014 R16/19//95=
201912151530 METAR LRSV 151530Z 24008KT CAVOK 08/M00 Q1015 R16/19//95=
201912151600 METAR LRSV 151600Z 24012KT CAVOK 08/M01 Q1015 R16/19//95=
201912151630 METAR LRSV 151630Z 24007KT CAVOK 07/M01 Q1015 R16/19//95=
201912151700 METAR LRSV 151700Z 23007KT CAVOK 07/M02 Q1015 R16/19//95=
201912151730 METAR LRSV 151730Z 22007KT CAVOK 05/M02 Q1015 R16/19//95=
201912151800 METAR LRSV 151800Z 20006KT CAVOK 04/M01 Q1015 R16/19//95=
201912151830 METAR LRSV 151830Z VRB02KT CAVOK 04/M01 Q1015 R16/19//95=
201912151900 METAR LRSV 151900Z 22007KT CAVOK 04/M01 Q1015 R16/19//95=
201912151930 METAR LRSV 151930Z 22008KT CAVOK 04/M01 Q1015 R16/19//95=
201912152000 METAR LRSV 152000Z 22007KT CAVOK 04/M01 Q1015 R16/19//95=
201912152030 METAR LRSV 152030Z 20008KT CAVOK 05/M01 Q1015 R16/19//95=
201912152100 METAR LRSV 152100Z 22006KT CAVOK 04/M02 Q1015 R16/19//95=
201912152130 METAR LRSV 152130Z 22008KT CAVOK 04/M02 Q1015 R16/19//95=
201912152200 METAR LRSV 152200Z 20009KT CAVOK 04/M02 Q1015 R16/19//95=
201912152230 METAR LRSV 152230Z 22010KT CAVOK 04/M02 Q1016 R16/19//95=
201912152300 METAR LRSV 152300Z 23009KT CAVOK 04/M02 Q1016 R16/19//95=
201912152330 METAR LRSV 152330Z 23009KT CAVOK 04/M02 Q1016 R16/19//95=
201912160000 METAR LRSV 160000Z 24010KT CAVOK 06/M03 Q1016 R16/19//95=
201912160030 METAR LRSV 160030Z 25008KT CAVOK 06/M02 Q1016 R16/19//95=
201912160100 METAR LRSV 160100Z 24012KT CAVOK 07/M02 Q1016 R16/19//95=
201912160130 METAR LRSV 160130Z 23010KT CAVOK 07/M02 Q1016 R16/19//95=
201912160200 METAR LRSV 160200Z 23010KT CAVOK 06/M02 Q1016 R16/19//95=
201912160230 METAR LRSV 160230Z 22007KT CAVOK 05/M02 Q1016 R16/19//95=
201912160300 METAR LRSV 160300Z 21007KT CAVOK 05/M01 Q1017 R16/19//95=
201912160330 METAR LRSV 160330Z 25004KT CAVOK 07/M01 Q1017 R16/19//95=
201912160400 METAR LRSV 160400Z 26006KT CAVOK 07/M00 Q1017 R16/19//95=
201912160430 METAR LRSV 160430Z 00000KT CAVOK 06/M01 Q1017 R16/19//95=
201912160500 METAR LRSV 160500Z 23005KT CAVOK 07/M01 Q1018 R16/19//95=
201912160530 METAR LRSV 160530Z 27004KT CAVOK 06/M00 Q1018 R16/19//95=
201912160600 METAR LRSV 160600Z AUTO 22004KT 9999 NCD 04/M00 Q1018=
201912160630 METAR LRSV 160630Z AUTO 23004KT 9999 NCD 05/M00 Q1019=
201912160700 METAR LRSV 160700Z AUTO 24004KT 9999 NCD 09/01 Q1019=
201912160730 METAR LRSV 160730Z AUTO 23003KT 9999 NCD 10/02 Q1020=
201912160800 METAR COR LRSV 160800Z 19004KT CAVOK 10/03 Q1020 R16/19//95=
201912160830 METAR LRSV 160830Z 22006KT CAVOK 10/03 Q1020 R16/19//95=
201912160900 METAR LRSV 160900Z 22004KT CAVOK 10/03 Q1020 R16/19//95=
201912160930 METAR LRSV 160930Z 21007KT CAVOK 11/04 Q1019 R16/19//95=
201912161000 METAR LRSV 161000Z 21008KT CAVOK 11/04 Q1019 R16/19//95=
201912161030 METAR LRSV 161030Z 20006KT CAVOK 11/04 Q1019 R16/CLRD//=
201912161100 METAR LRSV 161100Z 19005KT CAVOK 11/04 Q1019=
201912161130 METAR LRSV 161130Z 20004KT CAVOK 11/05 Q1019=
201912161200 METAR LRSV 161200Z 00000KT CAVOK 12/04 Q1019=
201912161230 METAR LRSV 161230Z 13003KT 090V160 CAVOK 12/04 Q1019=
201912161300 METAR LRSV 161300Z VRB02KT CAVOK 12/05 Q1019=
201912161330 METAR LRSV 161330Z 20004KT CAVOK 13/05 Q1019=
201912161400 METAR LRSV 161400Z 20002KT CAVOK 10/05 Q1019=
201912161430 METAR LRSV 161430Z 17004KT 150V240 CAVOK 10/04 Q1019=
201912161500 METAR LRSV 161500Z 21003KT CAVOK 09/04 Q1019=
201912161530 METAR LRSV 161530Z 23004KT CAVOK 09/04 Q1019=
201912161600 METAR LRSV 161600Z 24007KT CAVOK 09/04 Q1019=
201912161630 METAR LRSV 161630Z 24006KT CAVOK 08/03 Q1019=
201912161700 METAR LRSV 161700Z 23002KT CAVOK 09/03 Q1020=
201912161730 METAR LRSV 161730Z 24003KT CAVOK 09/03 Q1020=
201912161800 METAR LRSV 161800Z 24004KT CAVOK 08/03 Q1020=
201912161830 METAR LRSV 161830Z 24005KT CAVOK 08/03 Q1020=
201912161900 METAR LRSV 161900Z 24006KT CAVOK 08/03 Q1020=
201912161930 METAR LRSV 161930Z 24006KT CAVOK 08/03 Q1020=
201912162000 METAR LRSV 162000Z 25008KT CAVOK 07/03 Q1020=
201912162030 METAR LRSV 162030Z 24008KT CAVOK 07/03 Q1019=
201912162100 METAR LRSV 162100Z 23007KT CAVOK 07/03 Q1019=
201912162130 METAR LRSV 162130Z 24008KT CAVOK 07/03 Q1019=
201912162200 METAR LRSV 162200Z 23008KT CAVOK 07/03 Q1019=
201912162230 METAR LRSV 162230Z 24009KT CAVOK 06/03 Q1019=
201912162300 METAR LRSV 162300Z 24008KT CAVOK 06/02 Q1019=
201912162330 METAR LRSV 162330Z 24008KT CAVOK 07/03 Q1019=
201912170000 METAR LRSV 170000Z 24007KT CAVOK 07/03 Q1019=
201912170030 METAR LRSV 170030Z 25006KT CAVOK 06/02 Q1019=
201912170100 METAR LRSV 170100Z 24007KT CAVOK 06/02 Q1019=
201912170130 METAR LRSV 170130Z 24008KT CAVOK 07/03 Q1019=
201912170200 METAR LRSV 170200Z 24009KT CAVOK 07/03 Q1019=
201912170230 METAR LRSV 170230Z 23008KT CAVOK 05/02 Q1018=
201912170300 METAR LRSV 170300Z 25007KT CAVOK 06/02 Q1018=
201912170330 METAR COR LRSV 170330Z 24007KT CAVOK 05/08 Q1018=
201912170400 METAR LRSV 170400Z 24005KT CAVOK 04/01 Q1018=
201912170430 METAR LRSV 170430Z AUTO 24006KT 9999 NCD 05/02 Q1018=
201912170500 METAR LRSV 170500Z AUTO 24008KT 9999 FEW220/// 05/02 Q1018=
201912170530 METAR LRSV 170530Z AUTO 23009KT 9999 NCD 06/01 Q1018=
201912170600 METAR LRSV 170600Z AUTO 24008KT 9999 NCD 05/01 Q1018=
201912170630 METAR LRSV 170630Z AUTO 23007KT 9999 NCD 06/01 Q1019=
201912170700 METAR LRSV 170700Z AUTO 25007KT 9999 NCD 06/02 Q1019=
201912170730 METAR LRSV 170730Z AUTO 24006KT 9999 NCD 08/03 Q1019=
201912170800 METAR LRSV 170800Z 25005KT CAVOK 08/03 Q1019=
201912170830 METAR COR LRSV 170830Z 25005KT CAVOK 09/04 Q1019=
201912170900 METAR LRSV 170900Z 23005KT CAVOK 10/04 Q1019=
201912170930 METAR LRSV 170930Z 22005KT CAVOK 11/04 Q1018=
201912171000 METAR LRSV 171000Z 22007KT CAVOK 12/05 Q1018=
201912171030 METAR LRSV 171030Z 21007KT CAVOK 13/06 Q1018=
201912171100 METAR LRSV 171100Z 21007KT CAVOK 14/06 Q1018=
201912171130 METAR LRSV 171130Z 21008KT CAVOK 14/06 Q1018=
201912171200 METAR COR LRSV 171200Z 20008KT CAVOK 15/06 Q1017=
201912171230 METAR LRSV 171230Z 19008KT CAVOK 15/06 Q1017=
201912171300 METAR LRSV 171300Z 20009KT CAVOK 14/06 Q1017=
201912171330 METAR LRSV 171330Z 21009KT CAVOK 14/05 Q1018=
201912171400 METAR LRSV 171400Z 20006KT CAVOK 12/05 Q1018=
201912171430 METAR LRSV 171430Z 19007KT CAVOK 11/05 Q1018=
201912171500 METAR LRSV 171500Z 20006KT CAVOK 10/05 Q1018=
201912171530 METAR LRSV 171530Z 22007KT CAVOK 09/04 Q1018=
201912171600 METAR LRSV 171600Z 15002KT 080V220 CAVOK 10/04 Q1018=
201912171630 METAR LRSV 171630Z 21005KT CAVOK 09/04 Q1018=
201912171700 METAR LRSV 171700Z 23011KT CAVOK 08/04 Q1018=
201912171730 METAR LRSV 171730Z 24008KT CAVOK 09/04 Q1018=
201912171800 METAR LRSV 171800Z 25006KT CAVOK 09/04 Q1018=
201912171830 METAR LRSV 171830Z 27005KT CAVOK 09/03 Q1018=
201912171900 METAR LRSV 171900Z 23005KT CAVOK 10/04 Q1018=
201912171930 METAR LRSV 171930Z 25005KT CAVOK 09/03 Q1018=
201912172000 METAR COR LRSV 172000Z 23006KT CAVOK 08/03 Q1018=
201912172030 METAR LRSV 172030Z 23006KT CAVOK 08/03 Q1018=
201912172100 METAR LRSV 172100Z 23006KT CAVOK 06/02 Q1018=
201912172130 METAR LRSV 172130Z 24005KT CAVOK 06/02 Q1018=
201912172200 METAR LRSV 172200Z 24005KT CAVOK 07/02 Q1018=
201912172230 METAR LRSV 172230Z 23007KT CAVOK 08/02 Q1018=
201912172300 METAR LRSV 172300Z 23008KT CAVOK 08/02 Q1018=
201912172330 METAR LRSV 172330Z 24010KT CAVOK 09/02 Q1018=
201912180000 METAR LRSV 180000Z 24009KT CAVOK 08/02 Q1018=
201912180030 METAR LRSV 180030Z 24010KT CAVOK 09/02 Q1018=
201912180100 METAR LRSV 180100Z 25009KT CAVOK 09/02 Q1018=
201912180130 METAR LRSV 180130Z 25009KT CAVOK 09/01 Q1018=
201912180200 METAR LRSV 180200Z 25009KT CAVOK 10/01 Q1018=
201912180230 METAR LRSV 180230Z 25008KT CAVOK 09/01 Q1018=
201912180300 METAR LRSV 180300Z 25008KT CAVOK 10/01 Q1018=
201912180330 METAR LRSV 180330Z 24009KT CAVOK 10/01 Q1018=
201912180400 METAR LRSV 180400Z 25009KT CAVOK 10/01 Q1019=
201912180430 METAR LRSV 180430Z AUTO 26008KT 9999 NCD 10/02 Q1019=
201912180500 METAR LRSV 180500Z AUTO 25010KT 9999 NCD 10/02 Q1019=
201912180530 METAR LRSV 180530Z AUTO 24011KT 9999 NCD 10/02 Q1019=
201912180600 METAR LRSV 180600Z AUTO 24012KT 9999 NCD 10/02 Q1019=
201912180630 METAR LRSV 180630Z AUTO 24012KT 9999 NCD 11/03 Q1019=
201912180700 METAR LRSV 180700Z AUTO 25011KT 9999 NCD 12/03 Q1019=
201912180730 METAR LRSV 180730Z AUTO 25011KT 9999 NCD 13/04 Q1019=
201912180800 METAR COR LRSV 180800Z 23011KT CAVOK 14/04 Q1019=
201912180830 METAR COR LRSV 180830Z 27005KT 240V300 CAVOK 14/04 Q1019=
201912180900 METAR LRSV 180900Z 23009KT CAVOK 15/04 Q1019=
201912180930 METAR LRSV 180930Z 24005KT CAVOK 16/05 Q1019=
201912181000 METAR LRSV 181000Z 24007KT CAVOK 17/04 Q1019=
201912181030 METAR LRSV 181030Z 23006KT CAVOK 17/04 Q1019=
201912181100 METAR LRSV 181100Z 20006KT 160V230 CAVOK 18/05 Q1019=
201912181130 METAR LRSV 181130Z 17005KT CAVOK 18/04 Q1019=
201912181200 METAR LRSV 181200Z 18006KT CAVOK 17/05 Q1019=
201912181230 METAR LRSV 181230Z 20004KT CAVOK 14/06 Q1019=
201912181300 METAR LRSV 181300Z 21006KT 180V250 CAVOK 14/05 Q1020=
201912181330 METAR LRSV 181330Z 22005KT CAVOK 15/03 Q1020=
201912181400 METAR LRSV 181400Z 25007KT CAVOK 15/03 Q1020=
201912181430 METAR LRSV 181430Z 26006KT CAVOK 13/04 Q1021=
201912181500 METAR LRSV 181500Z 27005KT CAVOK 13/04 Q1021=
201912181530 METAR LRSV 181530Z 28005KT 230V300 CAVOK 12/04 Q1021=
201912181600 METAR LRSV 181600Z 27005KT CAVOK 11/04 Q1021=
201912181630 METAR LRSV 181630Z 26009KT CAVOK 14/03 Q1021=
201912181700 METAR LRSV 181700Z 24008KT CAVOK 12/03 Q1021=
201912181730 METAR COR LRSV 181730Z 24008KT CAVOK 12/03 Q1021=
201912181800 METAR LRSV 181800Z 26009KT CAVOK 12/03 Q1022=
201912181830 METAR LRSV 181830Z 26009KT CAVOK 11/03 Q1022=
201912181900 METAR LRSV 181900Z 27007KT CAVOK 11/03 Q1022=
201912181930 METAR LRSV 181930Z 26009KT CAVOK 10/03 Q1022=
201912182000 METAR LRSV 182000Z 25011KT CAVOK 11/03 Q1022=
201912182030 METAR LRSV 182030Z 26010KT CAVOK 11/03 Q1023=
201912182100 METAR LRSV 182100Z 27007KT CAVOK 11/02 Q1023=
201912182130 METAR LRSV 182130Z 27008KT CAVOK 09/02 Q1024=
201912182200 METAR LRSV 182200Z 29008KT CAVOK 09/02 Q1024=
201912182230 METAR LRSV 182230Z 31006KT CAVOK 12/02 Q1024=
201912182300 METAR LRSV 182300Z 28005KT CAVOK 09/02 Q1024=
201912182330 METAR LRSV 182330Z 30008KT CAVOK 10/02 Q1024=
201912190000 METAR LRSV 190000Z 30007KT CAVOK 10/02 Q1024=
201912190030 METAR LRSV 190030Z 27007KT CAVOK 08/02 Q1025=
201912190100 METAR LRSV 190100Z 27008KT CAVOK 10/02 Q1025=
201912190130 METAR LRSV 190130Z 28008KT CAVOK 10/02 Q1025=
201912190200 METAR LRSV 190200Z AUTO 26005KT 9999 NCD 07/02 Q1025=
201912190230 METAR LRSV 190230Z VRB01KT CAVOK 09/02 Q1025=
201912190300 METAR LRSV 190300Z 25005KT CAVOK 06/01 Q1025=
201912190330 METAR LRSV 190330Z 24005KT CAVOK 07/02 Q1025=
201912190400 METAR LRSV 190400Z 25006KT CAVOK 07/01 Q1025=
201912190430 METAR LRSV 190430Z AUTO 25006KT 9999 FEW200/// 06/01 Q1025=
201912190500 METAR LRSV 190500Z AUTO 01003KT 320V060 9999 FEW190/// 08/02
                        Q1026=
201912190530 METAR LRSV 190530Z AUTO 00000KT 9999 NCD 07/01 Q1026=
201912190600 METAR LRSV 190600Z AUTO 20004KT 9999 NCD 05/01 Q1026=
201912190630 METAR LRSV 190630Z AUTO 22003KT 9999 FEW200/// 06/02 Q1027=
201912190700 METAR LRSV 190700Z AUTO 19003KT 9999 BKN190/// 08/03 Q1027=
201912190730 METAR LRSV 190730Z AUTO 17003KT 130V200 9999 FEW210/// 10/03
                        Q1027=
201912190800 METAR COR LRSV 190800Z 11002KT 070V150 CAVOK 08/03 Q1027=
201912190830 METAR LRSV 190830Z VRB01KT CAVOK 11/03 Q1028=
201912190900 METAR LRSV 190900Z 14005KT CAVOK 12/04 Q1028=
201912190930 METAR LRSV 190930Z 13008KT CAVOK 12/03 Q1027=
201912191000 METAR LRSV 191000Z 15006KT CAVOK 12/04 Q1028=
201912191030 METAR LRSV 191030Z 14006KT CAVOK 12/04 Q1027=
201912191100 METAR LRSV 191100Z 14007KT CAVOK 13/05 Q1027=
201912191130 METAR LRSV 191130Z 13009KT CAVOK 12/05 Q1026=
201912191200 METAR LRSV 191200Z 12008KT CAVOK 13/06 Q1026=
201912191230 METAR LRSV 191230Z 13009KT CAVOK 13/06 Q1026=
201912191300 METAR LRSV 191300Z 13009KT CAVOK 13/06 Q1026=
201912191330 METAR LRSV 191330Z 14008KT CAVOK 12/06 Q1026=
201912191400 METAR LRSV 191400Z 14006KT CAVOK 10/06 Q1026=
201912191430 METAR COR LRSV 191430Z 14007KT CAVOK 09/05 Q1026=
201912191500 METAR LRSV 191500Z 13008KT CAVOK 08/05 Q1026=
201912191530 METAR LRSV 191530Z 09004KT 060V120 CAVOK 08/05 Q1026=
201912191600 METAR LRSV 191600Z 13007KT CAVOK 08/05 Q1026=
201912191630 METAR LRSV 191630Z 14007KT CAVOK 07/04 Q1026=
201912191700 METAR LRSV 191700Z 15008KT CAVOK 07/04 Q1026=
201912191730 METAR LRSV 191730Z 13010KT CAVOK 07/04 Q1026=
201912191800 METAR LRSV 191800Z 12007KT CAVOK 08/05 Q1025=
201912191830 METAR LRSV 191830Z 13008KT CAVOK 06/04 Q1025=
201912191900 METAR LRSV 191900Z 14007KT CAVOK 06/04 Q1025=
201912191930 METAR LRSV 191930Z 13008KT CAVOK 06/04 Q1025=
201912192000 METAR LRSV 192000Z 14009KT CAVOK 06/04 Q1025=
201912192030 METAR LRSV 192030Z 15006KT CAVOK 05/03 Q1024=
201912192100 METAR LRSV 192100Z 14007KT 8000 NSC 05/04 Q1024=
201912192130 METAR LRSV 192130Z 14008KT CAVOK 05/03 Q1024=
201912192200 METAR LRSV 192200Z 15007KT 8000 NSC 04/03 Q1024=
201912192230 METAR LRSV 192230Z 15007KT 8000 NSC 04/03 Q1023=
201912192300 METAR LRSV 192300Z 14008KT 7000 NSC 04/03 Q1023=
201912192330 METAR LRSV 192330Z 14009KT 7000 NSC 04/03 Q1022=
201912200000 METAR LRSV 200000Z 14009KT 8000 NSC 04/03 Q1022=
201912200030 METAR LRSV 200030Z 14009KT 8000 NSC 05/04 Q1022=
201912200100 METAR LRSV 200100Z 15009KT 8000 NSC 04/04 Q1022=
201912200130 METAR LRSV 200130Z 16007KT 8000 NSC 04/04 Q1021=
201912200200 METAR LRSV 200200Z 16007KT 7000 NSC 04/03 Q1021=
201912200230 METAR LRSV 200230Z 15007KT 6000 NSC 04/03 Q1021=
201912200300 METAR LRSV 200300Z 15008KT 2000 BR NSC 03/03 Q1020=
201912200330 METAR LRSV 200330Z 15007KT 0900 R34/P2000U FG NSC 03/03 Q1020=
201912200400 METAR LRSV 200400Z 16006KT 0900 R34/P2000U FG NSC 03/03 Q1019=
201912200430 METAR LRSV 200430Z AUTO 14008KT 0350 R34/0400N FG FEW001///
                        SCT008/// 03/03 Q1019=
201912200500 METAR LRSV 200500Z AUTO 14008KT 0300 R34/0325N UP VV001 04/03
                        Q1019=
201912200530 METAR LRSV 200530Z AUTO 15008KT 0650 R34/0750N VV001 04/03
                        Q1019=
201912200600 METAR LRSV 200600Z AUTO 14007KT 0300 R34/0325N FG VV001 04/03
                        Q1018=
201912200630 METAR LRSV 200630Z AUTO 15007KT 0350 R34/0300V0550U FG VV001
                        03/03 Q1018=
201912200700 METAR LRSV 200700Z AUTO 15007KT 0400 R34/0450N FG VV001 04/03
                        Q1018=
201912200730 METAR LRSV 200730Z AUTO 15006KT 0150 R34/0175N FG VV001 03/03
                        Q1018=
201912200800 METAR COR LRSV 200800Z 13010KT 0100 R34/0200N FG VV001 04/03
                        Q1017=
201912200830 METAR LRSV 200830Z 13011KT 0100 R34/0175N FG VV001 04/03
                        Q1017=
201912200900 METAR LRSV 200900Z 13014KT 0100 R34/0200N FG VV001 03/03
                        Q1017=
201912200930 METAR LRSV 200930Z 14013KT 0100 R34/0225N FG VV001 03/03
                        Q1016=
201912201000 METAR LRSV 201000Z 14015KT 0100 R34/0275N FG VV001 04/03
                        Q1016=
201912201030 METAR COR LRSV 201030Z 14013KT 0100 R34/0350N FG VV001 04/03
                        Q1015=
201912201100 METAR LRSV 201100Z 14013KT 0500 R34/0800 FG VV002 03/03 Q1014=
201912201130 METAR LRSV 201130Z 14010KT 1500 BR BKN001 04/03 Q1014=
201912201200 METAR LRSV 201200Z 15010KT 3000 BR BKN002 04/04 Q1014=
201912201230 METAR LRSV 201230Z 15012KT 5000 BR BKN003 04/03 Q1013=
201912201300 METAR LRSV 201300Z 14010KT 5000 BR BKN005 04/03 Q1013=
201912201330 METAR LRSV 201330Z 16009KT 5000 BR BKN005 04/03 Q1013=
201912201400 METAR LRSV 201400Z 16007KT 5000 BR BKN005 04/04 Q1012=
201912201430 METAR LRSV 201430Z 16009KT 5000 BR BKN005 04/04 Q1012=
201912201500 METAR LRSV 201500Z 17012KT 5000 BR BKN004 04/04 Q1012=
201912201530 METAR LRSV 201530Z 17010KT 5000 BR BKN004 04/07 Q1011=
201912201600 METAR LRSV 201600Z 17007KT 4000 BR BKN003 04/04 Q1011=
201912201630 METAR LRSV 201630Z 18009KT 4000 BR BKN003 04/04 Q1011=
201912201700 METAR LRSV 201700Z 18012KT 8000 SCT002 BKN004 04/04 Q1011=
201912201730 METAR LRSV 201730Z 16011KT 8000 BKN003 04/03 Q1010=
201912201800 METAR LRSV 201800Z 18011KT 8000 BKN002 04/03 Q1010=
201912201830 METAR LRSV 201830Z 20011KT 1500 BR BKN001 03/03 Q1010=
201912201900 METAR LRSV 201900Z 20012KT 0800 R34/0800 FG BKN001 03/03
                        Q1009=
201912201930 METAR LRSV 201930Z 20011KT 0200 R34/0550N FG VV001 03/03
                        Q1009=
201912202000 METAR LRSV 202000Z 20011KT 0200 R34/0550N FG VV001 03/02
                        Q1009=
201912202030 METAR LRSV 202030Z 21009KT 0350 R34/0450N FG VV001 02/02
                        Q1009=
201912202100 METAR LRSV 202100Z 21011KT 0250 R34/0450N FG VV001 02/02
                        Q1009=
201912202130 METAR LRSV 202130Z 21011KT 0250 R34/0450N FG VV001 02/02
                        Q1008=
201912202200 METAR LRSV 202200Z 22011KT 0250 R34/0300N FG VV001 02/02
                        Q1008=
201912202230 METAR LRSV 202230Z 22010KT 0250 R34/0300N FG VV001 02/01
                        Q1008=
201912202300 METAR LRSV 202300Z 23010KT 0100 R34/0325N FG VV001 01/01
                        Q1007=
201912202330 METAR LRSV 202330Z 23009KT 0100 R34/0350N FG VV001 01/01
                        Q1007=
201912210000 METAR LRSV 210000Z 23010KT 0100 R34/0300N FG VV001 01/01
                        Q1007=
201912210030 METAR LRSV 210030Z 24008KT 0100 R34/0325 FG VV001 00/00 Q1007=
201912210100 METAR LRSV 210100Z 23007KT 0350 R34/0375N FG VV001 M00/M00
                        Q1007=
201912210130 METAR LRSV 210130Z 23008KT 1500 BR NSC 00/M00 Q1006=
201912210200 METAR LRSV 210200Z 24008KT 3000 BR NSC 01/00 Q1006=
201912210230 METAR LRSV 210230Z 23008KT 5000 BR NSC 00/00 Q1006=
201912210300 METAR LRSV 210300Z 23008KT 7000 NSC 00/00 Q1006=
201912210330 METAR LRSV 210330Z 24008KT CAVOK 01/00 Q1005=
201912210400 METAR LRSV 210400Z 24008KT CAVOK 01/01 Q1006=
201912210430 METAR LRSV 210430Z AUTO 24007KT 9999 NCD 01/00 Q1005=
201912210500 METAR LRSV 210500Z AUTO 23006KT 9999 NCD 02/01 Q1005=
201912210530 METAR LRSV 210530Z AUTO 25006KT 9999 FEW150/// 02/00 Q1005=
201912210600 METAR LRSV 210600Z 24007KT CAVOK 03/00 Q1005=
201912210630 METAR LRSV 210630Z 23005KT CAVOK 03/00 Q1005=
201912210700 METAR LRSV 210700Z 23005KT CAVOK 04/01 Q1005=
201912210730 METAR COR LRSV 210730Z 22006KT CAVOK 04/01 Q1005=
201912210800 METAR LRSV 210800Z 25007KT CAVOK 04/01 Q1005=
201912210830 METAR LRSV 210830Z 24005KT 210V270 CAVOK 04/01 Q1005=
201912210900 METAR COR LRSV 210900Z 23006KT CAVOK 06/02 Q1005=
201912210930 METAR LRSV 210930Z 21005KT CAVOK 06/02 Q1005=
201912211000 METAR COR LRSV 211000Z 22003KT 160V300 9999 -RA SCT045 05/02
                        Q1005=
201912211030 METAR LRSV 211030Z 21005KT 9999 FEW040 08/03 Q1004=
201912211100 METAR LRSV 211100Z 21003KT CAVOK 09/04 Q1003=
201912211130 METAR COR LRSV 211130Z 22005KT CAVOK 09/04 Q1003=
201912211200 METAR LRSV 211200Z 22005KT CAVOK 08/04 Q1003=
201912211230 METAR LRSV 211230Z 20003KT CAVOK 10/04 Q1003=
201912211300 METAR LRSV 211300Z 19005KT CAVOK 09/04 Q1003=
201912211330 METAR LRSV 211330Z 19005KT CAVOK 08/04 Q1003=
201912211400 METAR LRSV 211400Z 20004KT CAVOK 07/04 Q1002=
201912211430 METAR LRSV 211430Z 19006KT CAVOK 06/04 Q1002=
201912211500 METAR COR LRSV 211500Z 21004KT 170V230 CAVOK 07/04 Q1002=
201912211530 METAR LRSV 211530Z 20004KT CAVOK 07/04 Q1002=
201912211600 METAR LRSV 211600Z 18005KT CAVOK 06/03 Q1001=
201912211630 METAR LRSV 211630Z VRB01KT CAVOK 05/03 Q1001=
201912211700 METAR COR LRSV 211700Z 15003KT CAVOK 05/03 Q1001=
201912211730 METAR LRSV 211730Z 18004KT CAVOK 04/03 Q1000=
201912211800 METAR LRSV 211800Z 19005KT CAVOK 04/02 Q1000=
201912211830 METAR LRSV 211830Z 19005KT CAVOK 05/03 Q1000=
201912211900 METAR LRSV 211900Z 19005KT CAVOK 05/03 Q1000=
201912211930 METAR LRSV 211930Z 22003KT CAVOK 05/03 Q0999=
201912212000 METAR LRSV 212000Z 22004KT CAVOK 04/02 Q0999=
201912212030 METAR LRSV 212030Z 19003KT CAVOK 04/02 Q0998=
201912212100 METAR LRSV 212100Z 20004KT CAVOK 04/02 Q0998=
201912212130 METAR LRSV 212130Z 22004KT CAVOK 04/03 Q0998=
201912212200 METAR LRSV 212200Z 22004KT CAVOK 04/02 Q0997=
201912212230 METAR LRSV 212230Z 22003KT 160V260 CAVOK 05/03 Q0997=
201912212300 METAR LRSV 212300Z 23004KT CAVOK 05/03 Q0997=
201912212330 METAR LRSV 212330Z 26004KT 230V290 CAVOK 05/03 Q0997=
201912220000 METAR LRSV 220000Z 25006KT CAVOK 05/03 Q0996=
201912220030 METAR LRSV 220030Z 23004KT 9999 -RA NSC 05/03 Q0996=
201912220100 METAR LRSV 220100Z 20004KT 9999 -RA NSC 05/04 Q0996=
201912220130 METAR LRSV 220130Z 21005KT 9999 -RA NSC 05/04 Q0996=
201912220200 METAR LRSV 220200Z 21005KT CAVOK 05/04 Q0996=
201912220230 METAR LRSV 220230Z 20004KT CAVOK 05/04 Q0995 R16/29//95=
201912220300 METAR LRSV 220300Z 23004KT 9999 -RA NSC 05/04 Q0995 R16/29//95=
201912220330 METAR LRSV 220330Z 23007KT 8000 RA SCT040 06/04 Q0995 R16/29//95=
201912220400 METAR LRSV 220400Z 20005KT 9999 -RA SCT040 06/05 Q0995 R16/29//95=
201912220430 METAR LRSV 220430Z 24007KT 9999 FEW040 06/04 Q0995 R16/29//95=
201912220500 METAR LRSV 220500Z 25008KT CAVOK 07/04 Q0995 R16/29//95=
201912220530 METAR LRSV 220530Z 23007KT CAVOK 06/04 Q0995 R16/29//95=
201912220600 METAR LRSV 220600Z 21007KT CAVOK 06/04 Q0995 R16/29//95=
201912220630 METAR COR LRSV 220630Z 21007KT CAVOK 06/04 Q0994 R16/29//95=
201912220700 METAR LRSV 220700Z 22009KT CAVOK 06/04 Q0994 R16/29//95=
201912220730 METAR LRSV 220730Z 22007KT CAVOK 07/05 Q0994 R16/29//95=
201912220800 METAR COR LRSV 220800Z 18003KT CAVOK 08/05 Q0994 R16/29//95=
201912220830 METAR LRSV 220830Z 19008KT CAVOK 10/05 Q0994 R16/29//95=
201912220900 METAR LRSV 220900Z 17008KT CAVOK 11/06 Q0994 R16/29//95=
201912220930 METAR LRSV 220930Z 18012KT CAVOK 13/06 Q0993 R16/29//95=
201912221000 METAR LRSV 221000Z 18010KT CAVOK 13/06 Q0993 R16/29//95=
201912221030 METAR LRSV 221030Z 18009KT CAVOK 14/06 Q0993 R16/29//95=
201912221100 METAR LRSV 221100Z 21013KT CAVOK 15/05 Q0993 R16/29//95=
201912221130 METAR LRSV 221130Z 22013KT CAVOK 15/03 Q0993 R16/29//95=
201912221200 METAR LRSV 221200Z 21008KT CAVOK 15/05 Q0993 R16/29//95=
201912221230 METAR LRSV 221230Z 20011KT CAVOK 15/04 Q0994 R16/29//95=
201912221300 METAR LRSV 221300Z 20008KT CAVOK 13/05 Q0994 R16/29//95=
201912221330 METAR LRSV 221330Z 20006KT CAVOK 12/05 Q0994 R16/29//95=
201912221400 METAR LRSV 221400Z 19006KT CAVOK 11/03 Q0994 R16/29//95=
201912221430 METAR LRSV 221430Z 19003KT 150V210 CAVOK 11/02 Q0994 R16/CLRD//=
201912221500 METAR LRSV 221500Z 22005KT CAVOK 09/02 Q0993 R16/CLRD//=
201912221530 METAR LRSV 221530Z 22003KT 150V310 CAVOK 10/02 Q0993=
201912221600 METAR COR LRSV 221600Z 16002KT CAVOK 09/02 Q0994=
201912221630 METAR LRSV 221630Z VRB01KT CAVOK 11/02 Q0993=
201912221700 METAR LRSV 221700Z VRB01KT CAVOK 10/02 Q0993=
201912221730 METAR LRSV 221730Z 15007KT CAVOK 09/04 Q0993=
201912221800 METAR LRSV 221800Z 14008KT CAVOK 08/04 Q0993=
201912221830 METAR LRSV 221830Z 15008KT CAVOK 09/05 Q0993=
201912221900 METAR LRSV 221900Z 12005KT 090V150 CAVOK 08/05 Q0993=
201912221930 METAR LRSV 221930Z 15007KT CAVOK 08/05 Q0992=
201912222000 METAR COR LRSV 222000Z 13009KT CAVOK 08/06 Q0992=
201912222030 METAR COR LRSV 222030Z 13004KT 100V160 CAVOK 07/06 Q0992=
201912222100 METAR LRSV 222100Z 14007KT CAVOK 08/06 Q0992=
201912222130 METAR LRSV 222130Z 14007KT CAVOK 08/06 Q0992=
201912222200 METAR LRSV 222200Z 14007KT CAVOK 07/06 Q0991=
201912222230 METAR LRSV 222230Z 12011KT 9999 FEW120 07/06 Q0991=
201912222300 METAR LRSV 222300Z 13007KT CAVOK 07/05 Q0991=
201912222330 METAR LRSV 222330Z 15003KT CAVOK 06/05 Q0990=
201912230000 METAR LRSV 230000Z 15002KT 110V200 CAVOK 07/05 Q0990=
201912230030 METAR LRSV 230030Z 11004KT CAVOK 07/05 Q0990=
201912230100 METAR LRSV 230100Z 09006KT CAVOK 06/05 Q0990=
201912230130 METAR LRSV 230130Z 15003KT 120V210 CAVOK 06/05 Q0990=
201912230200 METAR LRSV 230200Z 13006KT CAVOK 07/06 Q0990=
201912230230 METAR LRSV 230230Z 12007KT CAVOK 08/06 Q0989=
201912230300 METAR LRSV 230300Z 14007KT CAVOK 08/07 Q0989=
201912230330 METAR LRSV 230330Z 14008KT 9999 -RA BKN007 08/07 Q0989 R16/19//95=
201912230400 METAR LRSV 230400Z 13005KT 9999 -RA BKN006 07/07 Q0989 R16/19//95=
201912230430 METAR LRSV 230430Z 10005KT 9999 -RA BKN004 07/06 Q0989 R16/19//95=
201912230500 METAR LRSV 230500Z 10006KT 5000 BR BKN003 07/06 Q0989 R16/19//95=
201912230530 METAR LRSV 230530Z 08004KT 0400 R34/0600D -RA FG BKN003 07/06
                        Q0989 R16/19//95=
201912230600 METAR LRSV 230600Z AUTO 09002KT 0750 R34/0900N -SHRA BKN001///
                        OVC003/// 07/07 Q0989=
201912230630 METAR LRSV 230630Z AUTO 07004KT 0800 R34/1000N RA VV002 07/07
                        Q0989=
201912230700 METAR LRSV 230700Z AUTO 07004KT 0750 R34/0900N RA VV002 07/07
                        Q0989=
201912230730 METAR LRSV 230730Z AUTO 08004KT 0500 R34/0550V0750N -RA VV002
                        07/07 Q0989=
201912230800 METAR COR LRSV 230800Z 08003KT 0100 R34/0400N FG VV001 08/07
                        Q0989 R16/29//95=
201912230830 METAR LRSV 230830Z 10004KT 0100 R34/0550N FG VV001 08/08
                        Q0989 R16/29//95=
201912230900 METAR LRSV 230900Z 14008KT 0100 R34/0450N FG VV001 09/08
                        Q0989 R16/29//95=
201912230930 METAR LRSV 230930Z 14007KT 0100 R34/0500N FG VV001 09/09
                        Q0989 R16/29//95=
201912231000 METAR LRSV 231000Z 15006KT 0100 R34/0400 FG VV001 09/09 Q0989
                        R16/29//95=
201912231030 METAR LRSV 231030Z 13008KT 0100 R34/0400 FG VV001 09/09 Q0989
                        R16/29//95=
201912231100 METAR LRSV 231100Z 14010KT 0100 R34/0500N FG VV001 09/09
                        Q0989 R16/29//95=
201912231130 METAR LRSV 231130Z 12005KT 0100 R34/0350N FGVV001 09/09 Q0988
                        R16/29//95=
201912231200 METAR LRSV 231200Z 08006KT 0100 R34/0325N FG VV001 09/09
                        Q0988 R16/29//95=
201912231230 METAR LRSV 231230Z 11007KT 0100 R34/0375N FG VV001 09/09
                        Q0988 R16/29//95=
201912231300 METAR LRSV 231300Z 09006KT 0100 R34/0350N FG VV001 09/09
                        Q0989 R16/29//95=
201912231330 METAR LRSV 231330Z 09006KT 0100 R34/0325N FG VV002 09/09
                        Q0989 R16/29//95=
201912231400 METAR LRSV 231400Z 09007KT 0100 R34/0400N -RA FG VV001 09/09
                        Q0989 R16/29//95=
201912231430 METAR COR LRSV 231430Z 07007KT 0100 R34/0500N -RA FG VV001
                        09/09 Q0989 R16/29//95=
201912231500 METAR LRSV 231500Z 07008KT 0100 R34/0550N -RA FG VV001 09/09
                        Q0989 R16/29//95=
201912231530 METAR COR LRSV 231530Z 08010KT 0100 R34/0500N FG VV001 09/09
                        Q0989 R16/29//95=
201912231600 METAR LRSV 231600Z 10008KT 0200 R34/0550N -DZ FG VV001 09/09
                        Q0989 R16/29//95=
201912231630 METAR LRSV 231630Z 12011KT 5000 BR SCT002 BKN004 09/09 Q0989
                        R16/29//95=
201912231700 METAR LRSV 231700Z 13011KT 3000 -RA BR SCT001 BKN003 09/09
                        Q0990 R16/29//95=
201912231730 METAR LRSV 231730Z 23007KT 0600 R34/0800 -RA FG BKN001 08/08
                        Q0990 R16/29//95=
201912231800 METAR LRSV 231800Z 31007KT 9999 -RA BKN002 07/06 Q0990 R16/29//95=
201912231830 METAR LRSV 231830Z 32010KT 9999 BKN003 06/06 Q0991 R16/29//95=
201912231900 METAR LRSV 231900Z 33012KT 9999 BKN004 06/05 Q0991 R16/29//95=
201912231930 METAR LRSV 231930Z 31009KT 9999 BKN005 05/05 Q0992 R16/29//95=
201912232000 METAR LRSV 232000Z 31012KT 9999 BKN005 05/05 Q0992 R16/29//95=
201912232030 METAR LRSV 232030Z 32013KT 9999 FEW006 BKN010 05/05 Q0992
                        R16/29//95=
201912232100 METAR LRSV 232100Z 30009KT 9999 SCT006 BKN011 05/04 Q0993
                        R16/29//95=
201912232130 METAR LRSV 232130Z 30010KT 9999 FEW005 OVC011 04/04 Q0993
                        R16/29//95=
201912232200 METAR LRSV 232200Z 31010KT 9999 BKN011 04/04 Q0994 R16/29//95=
201912232230 METAR LRSV 232230Z 32011KT 9999 OVC010 04/04 Q0994 R16/29//95=
201912232300 METAR LRSV 232300Z 32010KT 9999 BKN012 04/04 Q0994 R16/29//95=
201912232330 METAR LRSV 232330Z 32013KT 9999 FEW015 OVC022 04/04 Q0995
                        R16/29//95=
201912240000 METAR COR LRSV 240000Z 32012KT 9999 OVC021 04/04 Q0995 R16/29//95=
201912240030 METAR LRSV 240030Z 32011KT 9999 SCT021 04/04 Q0995 R16/29//95=
201912240100 METAR LRSV 240100Z 32009KT 9999 FEW024 BKN047 04/04 Q0996
                        R16/29//95=
201912240130 METAR LRSV 240130Z 31008KT 9999 SCT024 BKN031 04/03 Q0996
                        R16/29//95=
201912240200 METAR LRSV 240200Z 32010KT 9999 OVC030 04/03 Q0996 R16/29//95=
201912240230 METAR LRSV 240230Z 31010KT 9999 BKN030 04/03 Q0997 R16/29//95=
201912240300 METAR LRSV 240300Z 32009KT 9999 BKN030 04/03 Q0997 R16/29//95=
201912240330 METAR LRSV 240330Z 32010KT 9999 BKN032 04/03 Q0997 R16/29//95=
201912240400 METAR LRSV 240400Z 32009KT 9999 BKN033 04/03 Q0998 R16/29//95=
201912240430 METAR LRSV 240430Z AUTO 32009KT 9999 BKN033/// 04/03 Q0999=
201912240500 METAR LRSV 240500Z AUTO 32010KT 9999 FEW036/// OVC065///
                        04/03 Q0999=
201912240530 METAR LRSV 240530Z AUTO 31013KT 9999 OVC048/// 04/03 Q0999=
201912240600 METAR LRSV 240600Z AUTO 31011KT 9999 OVC045/// 04/03 Q1000=
201912240630 METAR LRSV 240630Z AUTO 31009KT 9999 OVC044/// 05/03 Q1000=
201912240700 METAR LRSV 240700Z AUTO 31011KT 9999 BKN044/// 05/03 Q1001=
201912240730 METAR LRSV 240730Z AUTO 30010KT 9999 SCT042/// 05/03 Q1001=
201912240800 METAR COR LRSV 240800Z 32012KT CAVOK 06/03 Q1001=
201912240830 METAR LRSV 240830Z 32013KT 280V340 9999 FEW014 SCT047 06/03
                        Q1001=
201912240900 METAR LRSV 240900Z 31010KT 9999 FEW014 SCT047 06/04 Q1002=
201912240930 METAR LRSV 240930Z 30012KT 9999 SCT014 06/04 Q1002=
201912241000 METAR LRSV 241000Z 31012KT 9999 SCT012 BKN025 06/03 Q1002=
201912241030 METAR LRSV 241030Z 32012KT 9999 SCT012 BKN026 06/03 Q1002=
201912241100 METAR LRSV 241100Z 31012KT 9999 SCT012 BKN025 06/03 Q1002=
201912241130 METAR LRSV 241130Z 31012KT 9999 SCT009 BKN011 05/03 Q1003=
201912241200 METAR COR LRSV 241200Z 31012KT 9999 BKN009 05/03 Q1003=
201912241230 METAR LRSV 241230Z 31014KT 9999 BKN010 05/03 Q1003=
201912241300 METAR LRSV 241300Z 31016G28KT 9999 BKN012 05/02 Q1003=
201912241330 METAR LRSV 241330Z 32014KT 9999 BKN012 05/02 Q1003=
201912241400 METAR LRSV 241400Z 31014KT 9999 OVC012 04/02 Q1004=
201912241430 METAR LRSV 241430Z 32014KT 280V340 9999 BKN011 04/02 Q1004=
201912241500 METAR LRSV 241500Z 31014KT 9999 BKN011 04/02 Q1004=
201912241530 METAR LRSV 241530Z 31014KT 9999 SCT011 BKN022 04/02 Q1004=
201912241600 METAR LRSV 241600Z 31014KT 9999 SCT009 BKN028 04/02 Q1004=
201912241630 METAR LRSV 241630Z 31015KT 9999 SCT010 BKN027 04/02 Q1004=
201912241700 METAR LRSV 241700Z 31013KT 9999 SCT010 BKN028 04/02 Q1004=
201912241730 METAR LRSV 241730Z 31015G25KT 9999 FEW010 BKN038 04/02 Q1004=
201912241800 METAR LRSV 241800Z 31015KT 9999 BKN042 04/02 Q1004=
201912241830 METAR LRSV 241830Z 32017KT 9999 BKN042 04/02 Q1004=
201912241900 METAR LRSV 241900Z 31016KT 9999 BKN045 04/02 Q1005=
201912241930 METAR LRSV 241930Z 32017KT 9999 SCT045 04/02 Q1004=
201912242000 METAR LRSV 242000Z 31015KT 9999 FEW046 04/02 Q1004=
201912242030 METAR LRSV 242030Z 32015KT CAVOK 04/02 Q1004=
201912242100 METAR LRSV 242100Z 31014KT CAVOK 04/02 Q1005=
201912242130 METAR LRSV 242130Z 31013KT 9999 FEW013 04/02 Q1004=
201912242200 METAR LRSV 242200Z 32017KT 280V340 9999 SCT013 04/02 Q1004=
201912242230 METAR LRSV 242230Z 32014G24KT 9999 SCT013 BKN046 04/02 Q1004=
201912242300 METAR LRSV 242300Z 31013KT 9999 SCT015 BKN040 04/02 Q1004=
201912242330 METAR LRSV 242330Z 32011KT 9999 BKN015 04/02 Q1005=
201912250000 METAR LRSV 250000Z 31012KT 9999 BKN013 04/02 Q1005=
201912250030 METAR LRSV 250030Z 31013KT 9999 BKN012 04/02 Q1005=
201912250100 METAR LRSV 250100Z 32014KT 9999 BKN013 04/02 Q1005=
201912250130 METAR LRSV 250130Z 31013KT 9999 BKN012 OVC025 04/01 Q1005=
201912250200 METAR LRSV 250200Z 32012KT 9999 BKN012 OVC026 04/01 Q1005=
201912250230 METAR LRSV 250230Z 31011KT 9999 BKN012 OVC028 03/01 Q1005=
201912250300 METAR LRSV 250300Z 31010KT 9999 BKN012 OVC033 03/01 Q1005=
201912250330 METAR LRSV 250330Z 31013KT 9999 BKN012 OVC033 03/01 Q1005=
201912250400 METAR LRSV 250400Z 31012KT 9999 SCT012 BKN035 03/01 Q1005=
201912250430 METAR LRSV 250430Z AUTO 31012G22KT 9999 FEW012/// SCT015///
                        BKN065/// 03/01 Q1005=
201912250500 METAR LRSV 250500Z AUTO 31012KT 9999 FEW014/// SCT018///
                        BKN047/// 03/01 Q1005=
201912250530 METAR LRSV 250530Z 31014KT 9999 SCT012 BKN035 03/01 Q1005=
201912250600 METAR LRSV 250600Z 31012KT 9999 SCT012 BKN031 03/01 Q1005=
201912250630 METAR LRSV 250630Z 31014G24KT 9999 SCT013 BKN033 03/01 Q1005=
201912250700 METAR LRSV 250700Z 31013KT 9999 SCT030 03/00 Q1006=
201912250730 METAR LRSV 250730Z 31012KT 9999 SCT040 03/00 Q1006=
201912250800 METAR LRSV 250800Z 31012KT 9999 BKN049 03/00 Q1006=
201912250830 METAR LRSV 250830Z 31013KT 9999 BKN048 03/00 Q1006=
201912250900 METAR LRSV 250900Z 31014KT 9999 FEW016 BKN047 04/00 Q1006=
201912250930 METAR LRSV 250930Z 31014KT 9999 FEW016 BKN048 04/00 Q1006=
201912251000 METAR LRSV 251000Z 31016KT 9999 FEW015 BKN047 04/00 Q1006=
201912251030 METAR LRSV 251030Z 31014KT 9999 FEW015 BKN048 04/00 Q1006=
201912251100 METAR LRSV 251100Z 31013KT 9999 FEW015 BKN048 04/M00 Q1006=
201912251130 METAR LRSV 251130Z 32015KT 9999 FEW015 BKN048 04/M00 Q1006=
201912251200 METAR LRSV 251200Z 32014KT 9999 FEW015 BKN048 04/M00 Q1006=
201912251230 METAR LRSV 251230Z 32013KT 9999 FEW015 BKN040 04/M00 Q1006=
201912251300 METAR LRSV 251300Z 32016KT 9999 FEW017 BKN049 04/M00 Q1007=
201912251330 METAR LRSV 251330Z 32015KT 9999 FEW019 BKN049 04/00 Q1007=
201912251400 METAR LRSV 251400Z 32017KT 9999 SCT015 03/00 Q1007=
201912251430 METAR LRSV 251430Z 33017KT 9999 FEW015 03/M00 Q1007=
201912251500 METAR LRSV 251500Z 32014KT CAVOK 03/M01 Q1007=
201912251530 METAR LRSV 251530Z 32017KT CAVOK 03/M01 Q1007=
201912251600 METAR LRSV 251600Z 32016KT CAVOK 03/M01 Q1008=
201912251630 METAR LRSV 251630Z 32016KT CAVOK 03/M01 Q1008=
201912251700 METAR LRSV 251700Z 33014KT CAVOK 03/M01 Q1008=
201912251730 METAR LRSV 251730Z 33015KT CAVOK 03/M01 Q1008=
201912251800 METAR LRSV 251800Z 33014KT CAVOK 03/M01 Q1008=
201912251830 METAR LRSV 251830Z 33015KT 9999 FEW047 03/M01 Q1008=
201912251900 METAR LRSV 251900Z 32013KT 9999 BKN046 03/M01 Q1009=
201912251930 METAR LRSV 251930Z 32015KT 9999 BKN048 03/M02 Q1009=
201912252000 METAR COR LRSV 252000Z 32013KT CAVOK 03/M02 Q1009=
201912252030 METAR LRSV 252030Z 32015G25KT CAVOK 03/M03 Q1009=
201912252100 METAR LRSV 252100Z 32014KT CAVOK 03/M03 Q1009=
201912252130 METAR LRSV 252130Z 31012KT CAVOK 03/M03 Q1009=
201912252200 METAR LRSV 252200Z 31012KT CAVOK 03/M03 Q1009=
201912252230 METAR LRSV 252230Z 30011KT 9999 OVC035 03/M02 Q1009=
201912252300 METAR LRSV 252300Z 31010KT 9999 OVC039 03/M03 Q1009=
201912252330 METAR LRSV 252330Z 31011KT 9999 BKN041 03/M03 Q1009=
201912260000 METAR LRSV 260000Z 31011KT CAVOK 03/M03 Q1010=
201912260030 METAR LRSV 260030Z 31011KT CAVOK 03/M03 Q1010=
201912260100 METAR LRSV 260100Z 31012KT CAVOK 02/M03 Q1010=
201912260130 METAR LRSV 260130Z 31010KT CAVOK 02/M03 Q1010=
201912260200 METAR LRSV 260200Z AUTO 32011KT 9999 OVC044/// 02/M03 Q1010=
201912260230 METAR LRSV 260230Z 31010KT CAVOK 02/M03 Q1010=
201912260300 METAR LRSV 260300Z 31010KT CAVOK 02/M03 Q1010=
201912260330 METAR LRSV 260330Z 31014KT CAVOK 02/M02 Q1010=
201912260400 METAR LRSV 260400Z 31012KT CAVOK 02/M02 Q1010=
201912260430 METAR COR LRSV 260430Z 31011KT CAVOK 02/M02 Q1010=
201912260500 METAR LRSV 260500Z 31011KT CAVOK 03/M02 Q1011=
201912260530 METAR LRSV 260530Z 30011KT CAVOK 03/M02 Q1011=
201912260600 METAR LRSV 260600Z 31012KT 280V340 9999 BKN043 03/M03 Q1011=
201912260630 METAR LRSV 260630Z 31011KT 9999 BKN038 02/M03 Q1011=
201912260700 METAR LRSV 260700Z 31013KT 9999 BKN035 03/M03 Q1011=
201912260730 METAR LRSV 260730Z 31013KT 9999 BKN036 03/M03 Q1011=
201912260800 METAR LRSV 260800Z 31012KT 270V330 9999 BKN038 03/M03 Q1011=
201912260830 METAR LRSV 260830Z 31016KT 9999 BKN043 03/M02 Q1011=
201912260900 METAR LRSV 260900Z 31015KT 9999 BKN046 03/M02 Q1011=
201912260930 METAR LRSV 260930Z 31016KT 9999 BKN048 03/M01 Q1011=
201912261000 METAR LRSV 261000Z 31017KT 9999 FEW015 BKN048 03/M01 Q1011=
201912261030 METAR LRSV 261030Z 31017KT 9999 FEW015 BKN048 03/M01 Q1011=
201912261100 METAR LRSV 261100Z 31017KT 9999 FEW015 BKN048 03/M00 Q1011=
201912261130 METAR LRSV 261130Z 31017KT 9999 SCT017 03/M00 Q1011=
201912261200 METAR LRSV 261200Z 31016KT 9999 FEW015 SCT020 03/M00 Q1011=
201912261230 METAR LRSV 261230Z 32019KT 9999 BKN020 03/M00 Q1012=
201912261300 METAR LRSV 261300Z 31016KT 9999 FEW015 BKN020 03/M00 Q1012=
201912261330 METAR COR LRSV 261330Z 31016G26KT 9999 SCT015 02/M01 Q1012=
201912261400 METAR LRSV 261400Z 30015KT 9999 SCT015 02/M00 Q1012=
201912261430 METAR LRSV 261430Z 31014KT 9999 SCT013 02/M00 Q1013=
201912261500 METAR LRSV 261500Z 31016KT 9999 SCT014 02/M01 Q1013=
201912261530 METAR LRSV 261530Z 31014G24KT 9999 SCT018 02/M00 Q1013=
201912261600 METAR COR LRSV 261600Z 30015KT CAVOK 02/M00 Q1013=
201912261630 METAR LRSV 261630Z 30015KT 9999 FEW014 SCT033 02/M00 Q1013=
201912261700 METAR LRSV 261700Z 31018G29KT 9999 -SN FEW014 SCT043 02/M00
                        Q1013=
201912261730 METAR LRSV 261730Z 30017KT 9999 -RASN FEW015 BKN043 02/M00
                        Q1013=
201912261800 METAR LRSV 261800Z 31016G26KT 9999 FEW015 SCT048 02/M01 Q1013=
201912261830 METAR LRSV 261830Z 30015G26KT 9999 FEW048 02/M01 Q1014=
201912261900 METAR LRSV 261900Z 30015G26KT 9999 SCT047 03/M01 Q1013=
201912261930 METAR LRSV 261930Z 30015G25KT 9999 SCT047 03/M01 Q1013=
201912262000 METAR LRSV 262000Z 31016G26KT 9999 BKN048 03/M01 Q1013=
201912262030 METAR LRSV 262030Z 31014KT 9999 BKN048 03/M01 Q1014=
201912262100 METAR LRSV 262100Z 31014G26KT 9999 BKN040 03/M01 Q1014=
201912262130 METAR LRSV 262130Z 31014KT 9999 SCT040 03/M01 Q1014=
201912262200 METAR LRSV 262200Z 31011KT CAVOK 02/M01 Q1014=
201912262230 METAR LRSV 262230Z 31014G24KT CAVOK 02/M01 Q1014=
201912262300 METAR LRSV 262300Z 31013KT CAVOK 02/M01 Q1014=
201912262330 METAR LRSV 262330Z 30014KT CAVOK 02/M01 Q1014=
201912270000 METAR LRSV 270000Z 30015KT CAVOK 02/M01 Q1014=
201912270030 METAR LRSV 270030Z 30015KT 9999 FEW013 SCT031 02/M00 Q1014=
201912270100 METAR LRSV 270100Z 31014KT 9999 FEW015 BKN025 02/M00 Q1014=
201912270130 METAR LRSV 270130Z 31012KT 9999 FEW012 BKN025 02/M00 Q1014=
201912270200 METAR LRSV 270200Z 31014KT 9999 FEW012 SCT025 02/M01 Q1014=
201912270230 METAR LRSV 270230Z 31015KT 9999 FEW012 SCT025 02/M01 Q1014=
201912270300 METAR LRSV 270300Z 30011KT 9999 FEW012 BKN030 02/M01 Q1014=
201912270330 METAR LRSV 270330Z 30013KT 9999 FEW012 SCT030 02/M01 Q1014=
201912270400 METAR LRSV 270400Z 29015KT 9999 FEW014 SCT030 02/M01 Q1014=
201912270430 METAR LRSV 270430Z 30013KT 9999 FEW016 SCT030 02/M01 Q1014=
201912270500 METAR LRSV 270500Z 30013KT 9999 SCT015 02/M01 Q1014=
201912270530 METAR COR LRSV 270530Z 31015KT 280V340 9999 SCT014 02/M01
                        Q1014=
201912270600 METAR LRSV 270600Z AUTO 31014KT 9999 UP BKN075/// 02/M01
                        Q1014=
201912270630 METAR LRSV 270630Z AUTO 30013KT 9999 FEW060/// BKN080///
                        01/M01 Q1014 RESN=
201912270700 METAR LRSV 270700Z AUTO 31013KT 9999 BKN070/// 02/M01 Q1014=
201912270730 METAR LRSV 270730Z AUTO 31013KT 9999 OVC075/// 02/M01 Q1014
                        REDZ=
201912270800 METAR LRSV 270800Z 32013KT 9999 SCT030 02/M01 Q1014=
201912270830 METAR LRSV 270830Z 31014KT 9999 SCT030 02/M01 Q1014=
201912270900 METAR LRSV 270900Z 31013KT 9999 SCT030 02/M01 Q1014=
201912270930 METAR LRSV 270930Z 31013KT 280V340 9999 FEW030 03/M01 Q1014=
201912271000 METAR LRSV 271000Z 31013KT 9999 FEW030 03/M01 Q1014=
201912271030 METAR LRSV 271030Z 31014KT 9999 -SN SCT021 03/M01 Q1014=
201912271100 METAR LRSV 271100Z 31015KT 9999 BKN030 03/M02 Q1014=
201912271130 METAR LRSV 271130Z 31015KT 9999 BKN024 03/M01 Q1014=
201912271200 METAR LRSV 271200Z 31013KT 280V340 9999 BKN021 03/M02 Q1014=
201912271230 METAR LRSV 271230Z 32013KT 9999 BKN023 03/M02 Q1014=
201912271300 METAR LRSV 271300Z 31013KT 9999 SCT042 03/M02 Q1014=
201912271330 METAR LRSV 271330Z 31015KT 9999 SCT042 03/M02 Q1014=
201912271400 METAR LRSV 271400Z 31012KT 9999 SCT045 03/M02 Q1014=
201912271430 METAR LRSV 271430Z 30013KT 9999 SCT045 02/M02 Q1014=
201912271500 METAR LRSV 271500Z 31015KT 9999 -SN BKN023 02/M02 Q1014=
201912271530 METAR LRSV 271530Z 31013KT 9999 -SN FEW018 BKN030 01/M01
                        Q1014=
201912271600 METAR LRSV 271600Z 31014KT 280V340 9999 -SN BKN038 01/M01
                        Q1015=
201912271630 METAR LRSV 271630Z 31012KT 9999 -SN FEW010 SCT038 01/M01
                        Q1014=
201912271700 METAR LRSV 271700Z 31013KT 9999 -SN SCT035 01/M01 Q1014=
201912271730 METAR COR LRSV 271730Z 31014KT 9999 -SN SCT010 BKN024 01/M00
                        Q1015=
201912271800 METAR COR LRSV 271800Z 31013KT 9999 FEW010 BKN028 01/M01
                        Q1014=
201912271830 METAR LRSV 271830Z 31014KT 9999 SCT013 BKN027 01/M01 Q1015=
201912271900 METAR LRSV 271900Z 31016KT 9999 -SN SCT010 BKN031 01/M01
                        Q1015=
201912271930 METAR LRSV 271930Z 31015KT 290V350 9999 -SN SCT013 BKN019
                        01/M01 Q1015=
201912272000 METAR LRSV 272000Z 32015KT 9999 -SN SCT011 BKN019 01/M00
                        Q1015=
201912272030 METAR LRSV 272030Z 32016KT 9999 SCT015 BKN020 01/M01 Q1015=
201912272100 METAR LRSV 272100Z 32015KT 9999 SCT013 BKN020 01/M01 Q1015=
201912272130 METAR LRSV 272130Z 32016KT 290V350 9999 -SN SCT015 BKN019
                        01/M01 Q1015=
201912272200 METAR COR LRSV 272200Z 34016KT 7000 -SN BKN008 BKN021 M00/M01
                        Q1016=
201912272230 METAR LRSV 272230Z 34018KT 9999 -SN BKN009 OVC019 M00/M02
                        Q1016=
201912272300 METAR LRSV 272300Z 33017KT 9999 BKN010 OVC020 M00/M02 Q1016=
201912272330 METAR COR LRSV 272330Z 32019G31KT 9999 SCT015 OVC021 M00/M03
                        Q1016=
201912280000 METAR LRSV 280000Z 33018G28KT 9999 -SN SCT014 OVC020 M00/M03
                        Q1016=
201912280030 METAR COR LRSV 280030Z 32018G31KT 290V350 9999 BKN020 M00/M04
                        Q1017=
201912280100 METAR LRSV 280100Z 33017KT 9999 BKN034 M00/M04 Q1017=
201912280130 METAR LRSV 280130Z 32013KT 9999 BKN030 M00/M04 Q1017=
201912280200 METAR LRSV 280200Z 31014KT 9999 BKN025 M00/M04 Q1016=
201912280230 METAR LRSV 280230Z 31013KT 9999 SCT014 BKN036 M00/M04 Q1016=
201912280300 METAR COR LRSV 280300Z 31014KT 270V330 9999 BKN030 M00/M04
                        Q1016=
201912280330 METAR COR LRSV 280330Z 31014KT 9999 BKN030 M00/M05 Q1016=
201912280400 METAR LRSV 280400Z 31014KT 9999 BKN028 M01/M05 Q1016=
201912280430 METAR LRSV 280430Z AUTO 31015KT 9999 FEW020/// SCT038///
                        BKN050/// M01/M04 Q1016=
201912280500 METAR LRSV 280500Z AUTO 31014KT 4800 -SN FEW024/// SCT050///
                        BKN160/// M01/M03 Q1016=
201912280530 METAR LRSV 280530Z AUTO 30013KT 6000 -SN FEW019/// BKN033///
                        BKN040/// M01/M03 Q1016=
201912280600 METAR COR LRSV 280600Z 31014KT 5000 -SN BR FEW014 BKN042
                        M01/M03 Q1016=
201912280630 METAR LRSV 280630Z 31014KT 280V340 5000 -SN BR SCT018 BKN027
                        M01/M03 Q1017 R16/590194=
201912280700 METAR COR LRSV 280700Z 31014KT 5000 -SN BR FEW010 BKN019
                        M01/M02 Q1017 R16/590194=
201912280730 METAR LRSV 280730Z 31013KT 3000 -SN DRSN BR FEW012 BKN015
                        BKN024 M01/M02 Q1017 R16/590194=
201912280800 METAR LRSV 280800Z 31013KT 3000 -SN DRSN BR FEW012 BKN018
                        M01/M02 Q1017 R16/590194=
201912280830 METAR COR LRSV 280830Z 31013KT 2000 SN DRSN BR FEW009 BKN013
                        M01/M02 Q1017 R16/590194=
201912280900 METAR LRSV 280900Z 32016KT 2000 SN DRSN BR BKN008 M01/M02
                        Q1017 R16/590194=
201912280930 METAR LRSV 280930Z 31016KT 3000 -SN DRSN BR BKN009 M01/M02
                        Q1017 R16/590194=
201912281000 METAR LRSV 281000Z 32017KT 3000 -SN DRSN BR SCT011 BKN015
                        M01/M02 Q1017 R16/590194=
201912281030 METAR LRSV 281030Z 32017KT 3000 -SN DRSN BR SCT011 BKN015
                        M01/M02 Q1017 R16/590194=
201912281100 METAR LRSV 281100Z 32017KT 3000 -SN DRSN BR FEW012 BKN015
                        M01/M02 Q1017 R16/590194=
201912281130 METAR LRSV 281130Z 32019KT 3000 -SN DRSN BR FEW012 BKN016
                        M01/M02 Q1017 R16/590194=
201912281200 METAR LRSV 281200Z 32017KT 3000 -SN DRSN BR BKN011 M01/M02
                        Q1018 R16/590194=
201912281230 METAR COR LRSV 281230Z 32018KT 3000 -SN DRSN BR SCT010 BKN013
                        M01/M02 Q1018 R16/590194=
201912281300 METAR LRSV 281300Z 32021G34KT 3000 -SN DRSN BR FEW009 BKN012
                        M01/M02 Q1018 R16/590194=
201912281330 METAR LRSV 281330Z 33020KT 3000 -SN DRSN BR SCT008 BKN013
                        M01/M02 Q1018 R16/590194=
201912281400 METAR LRSV 281400Z 33019KT 2000 -SN DRSN BR FEW008 BKN010
                        M01/M02 Q1019 R16/590194=
201912281430 METAR LRSV 281430Z 33020G30KT 3000 -SN DRSN BR FEW008 SCT013
                        BKN027 M01/M02 Q1019 R16/590194=
201912281500 METAR LRSV 281500Z 33022KT 4000 -SN DRSN BR FEW009 SCT019
                        OVC025 M01/M02 Q1019 R16/590194=
201912281530 METAR LRSV 281530Z 33021KT 4000 -SN DRSN BR SCT011 BKN018
                        M01/M02 Q1020 R16/590194=
201912281600 METAR COR LRSV 281600Z 33020KT 4000 -SN DRSN BR FEW010 SCT013
                        BKN019 M01/M02 Q1020 R16/590194=
201912281630 METAR COR LRSV 281630Z 33020KT 1500 SN BLSN VV011 M02/M02
                        Q1020 R16/590393=
201912281700 METAR LRSV 281700Z 33020KT 1500 SN BLSN VV011 M02/M02 Q1020
                        R16/590393=
201912281730 METAR LRSV 281730Z 33022KT 2000 SN BLSN SCT008 BKN024 M02/M03
                        Q1021 R16/590393=
201912281800 METAR LRSV 281800Z 33022KT 1500 SN BLSN SCT008 BKN025 M02/M02
                        Q1021 R16/590393=
201912281830 METAR LRSV 281830Z 33023KT 1500 SN BLSN SCT010 BKN025 M02/M03
                        Q1022 R16/590393=
201912281900 METAR LRSV 281900Z 33021KT 2000 SN BLSN SCT010 BKN024 M02/M03
                        Q1022 R16/590393=
201912281930 METAR LRSV 281930Z 33020KT 1500 SN BLSN SCT008 BKN024 M02/M03
                        Q1022 R16/590393=
201912282000 METAR LRSV 282000Z 33020G30KT 1500 SN BLSN SCT008 BKN024
                        M02/M03 Q1022 R16/590393=
201912282030 METAR LRSV 282030Z 33020G30KT 1500 SN BLSN SCT010 BKN024
                        M02/M03 Q1022 R16/590393=
201912282100 METAR LRSV 282100Z 33021KT 2000 -SN DRSN SCT009 BKN026 M02/M03
                        Q1023 R16/590393=
201912282130 METAR LRSV 282130Z 33021KT 2000 SN DRSN BKN008 M02/M03 Q1023
                        R16/590393=
201912282200 METAR LRSV 282200Z 33021KT 2000 SN DRSN BKN008 M02/M03 Q1023
                        R16/590393=
201912282230 METAR LRSV 282230Z 33020KT 2000 SN DRSN BKN008 M02/M03 Q1023
                        R16/590393=
201912282300 METAR LRSV 282300Z 33020KT 3000 -SN DRSN SCT010 BKN024 M02/M03
                        Q1023 R16/590393=
201912282330 METAR LRSV 282330Z 32018KT 3000 -SN DRSN FEW009 BKN020 M02/M03
                        Q1023 R16/590393=
201912290000 METAR LRSV 290000Z 33020KT 3000 -SN DRSN SCT008 BKN020 M02/M03
                        Q1023 R16/590393=
201912290030 METAR LRSV 290030Z 33018KT 5000 -SN DRSN SCT012 BKN021 M02/M03
                        Q1024 R16/590393=
201912290100 METAR LRSV 290100Z 32019KT 4000 -SN DRSN SCT009 BKN022 M02/M03
                        Q1024 R16/590393=
201912290130 METAR LRSV 290130Z 32018KT 2000 SN DRSN SCT010 BKN027 M02/M03
                        Q1024 R16/590393=
201912290200 METAR LRSV 290200Z 32018KT 2000 SN DRSN SCT010 BKN025 M02/M03
                        Q1024 R16/590393=
201912290230 METAR LRSV 290230Z 32019KT 1500 SN DRSN SCT008 BKN025 M02/M03
                        Q1024 R16/895092=
201912290300 METAR LRSV 290300Z 33020KT 1500 SN DRSN SCT007 BKN027 M02/M03
                        Q1024 R16/895092=
201912290330 METAR LRSV 290330Z 33019KT 1500 SN DRSN SCT008 BKN025 M02/M03
                        Q1024 R16/895092=
201912290400 METAR LRSV 290400Z 33019KT 1500 SN DRSN SCT007 BKN025 M03/M03
                        Q1024 R16/950293=
201912290430 METAR LRSV 290430Z 33019KT 1500 SN DRSN BKN008 M03/M03 Q1025
                        R16/950293=
201912290500 METAR LRSV 290500Z 33018KT 1500 SN DRSN BKN008 M03/M03 Q1025
                        R16/950293=
201912290530 METAR LRSV 290530Z 33017KT 1500 SN DRSN BKN007 M03/M04 Q1025
                        R16/950293=
201912290600 METAR LRSV 290600Z 33014KT 1500 -SN DRSN BR BKN006 M03/M04
                        Q1025 R16/950293=
201912290630 METAR LRSV 290630Z 33012KT 1300 R34/1600U -SN DRSN BR BKN008
                        M03/M04 Q1026 R16/950293=
201912290700 METAR LRSV 290700Z 33012KT 1200 R34/1300N -SN DRSN BR BKN009
                        M03/M04 Q1026 R16/950293=
201912290730 METAR LRSV 290730Z 33012KT 1500 -SN DRSN BR BKN013 M03/M04
                        Q1027 R16/950293=
201912290800 METAR LRSV 290800Z 33010KT 1500 -SN DRSN BR BKN010 M03/M04
                        Q1027 R16/950293=
201912290830 METAR LRSV 290830Z 33010KT 1200 R34/1300U -SN DRSN BR BKN008
                        M03/M04 Q1027 R16/950293=
201912290900 METAR LRSV 290900Z 33009KT 1200 R34/1300D -SN DRSN BR BKN009
                        M03/M04 Q1027 R16/950293=
201912290930 METAR LRSV 290930Z 33008KT 1100 R34/1100D -SN DRSN BR BKN008
                        M03/M04 Q1028 R16/950293=
201912291000 METAR LRSV 291000Z 33008KT 1200 R34/1400N -SN DRSN BR BKN007
                        M03/M04 Q1028 R16/950293=
201912291030 METAR LRSV 291030Z 33007KT 1100 R34/1200 -SN DRSN BR BKN008
                        M03/M05 Q1028 R16/950293=
201912291100 METAR COR LRSV 291100Z 33007KT 1500 -SN DRSN BR BKN008 M03/M05
                        Q1028 R16/950293=
201912291130 METAR LRSV 291130Z 33012KT 1500 -SN DRSN BR BKN011 M03/M04
                        Q1028 R16/950293=
201912291200 METAR LRSV 291200Z 33016KT 1500 -SN DRSN BR BKN009 M03/M04
                        Q1028=
201912291230 METAR LRSV 291230Z 33020KT 1500 -SN DRSN BR BKN010 M03/M04
                        Q1029=
201912291300 METAR LRSV 291300Z 33019KT 1200 R34/1300N -SN DRSN BR BKN007
                        M03/M04 Q1029 R16/950293=
201912291330 METAR LRSV 291330Z 33008KT 1300 R34/1500 -SN DRSN BR BKN006
                        M03/M04 Q1029 R16/950293=
201912291400 METAR LRSV 291400Z 35019KT 1000 R34/1600N -SN DRSN BR SCT010
                        OVC032 M04/M04 Q1030 R16/950293=
201912291430 METAR LRSV 291430Z 36022KT 1000 R34/1800D -SN DRSN BR BKN030
                        M04/M04 Q1030 R16/950293=
201912291500 METAR LRSV 291500Z 35020KT 1500 SN DRSN BR BKN010 OVC024
                        M04/M04 Q1030 R16/950293=
201912291530 METAR LRSV 291530Z 35021KT 1500 SN DRSN BR BKN012 M04/M04
                        Q1030 R16/950293=
201912291600 METAR LRSV 291600Z 35020KT 1500 SN DRSN BR BKN012 OVC025
                        M04/M04 Q1031 R16/950293=
201912291630 METAR COR LRSV 291630Z 35021KT 2000 SN DRSN BR BKN013 OVC022
                        M04/M05 Q1031 R16/950293=
201912291700 METAR LRSV 291700Z 34021KT 2000 SN DRSN BR SCT013 BKN023
                        M04/M05 Q1031 R16/950293=
201912291730 METAR LRSV 291730Z 35020KT 2000 SN DRSN BR SCT013 BKN024
                        M04/M05 Q1032 R16/950293=
201912291800 METAR LRSV 291800Z 35019KT 5000 SN DRSN BR FEW011 BKN021
                        M04/M05 Q1032 R16/950293=
201912291830 METAR LRSV 291830Z 36020KT 5000 SN DRSN BR BKN021 M04/M05
                        Q1032 R16/950293=
201912291900 METAR LRSV 291900Z 35017KT 3000 SN DRSN BR OVC023 M04/M05
                        Q1033 R16/950293=
201912291930 METAR COR LRSV 291930Z 35015KT 3000 SN DRSN BR BKN023 M04/M05
                        Q1033 R16/950293=
201912292000 METAR LRSV 292000Z 35016KT 3000 SN DRSN BR FEW023 BKN028
                        M04/M05 Q1033 R16/950293=
201912292030 METAR LRSV 292030Z 35014KT 5000 SN DRSN BR SCT019 BKN028
                        M04/M05 Q1033 R16/950293=
201912292100 METAR LRSV 292100Z 35015KT 9999 -SN DRSN SCT019 BKN034 M04/M05
                        Q1033 R16/950293=
201912292130 METAR COR LRSV 292130Z 35016KT 9999 -SN DRSN SCT025 M04/M05
                        Q1034 R16/950293=
201912292200 METAR COR LRSV 292200Z 36015KT 9999 -SN DRSN OVC025 M04/M05
                        Q1034 R16/950293=
201912292230 METAR LRSV 292230Z 35016KT 9999 -SN DRSN OVC025 M04/M05 Q1034
                        R16/950293=
201912292300 METAR LRSV 292300Z 35014KT 9999 -SN FEW007 OVC023 M04/M05
                        Q1034 R16/950293=
201912292330 METAR LRSV 292330Z 36015KT 9999 -SN FEW008 OVC023 M04/M05
                        Q1034 R16/950293=
201912300000 METAR LRSV 300000Z 35015KT 9999 -SN FEW022 OVC047 M04/M05
                        Q1034 R16/950293=
201912300030 METAR LRSV 300030Z 36014KT 9999 -SN SCT007 OVC013 M04/M05
                        Q1034 R16/950293=
201912300100 METAR LRSV 300100Z 35012KT 9999 -SN BKN006 OVC010 M04/M05
                        Q1034 R16/950293=
201912300130 METAR LRSV 300130Z 35014KT 9999 -SN BKN006 OVC010 M04/M05
                        Q1034 R16/950293=
201912300200 METAR LRSV 300200Z 35013KT 9999 -SN BKN006 OVC008 M04/M05
                        Q1034 R16/950293=
201912300230 METAR LRSV 300230Z 35012KT 9000 -SN BKN006 OVC009 M04/M05
                        Q1035 R16/950293=
201912300300 METAR LRSV 300300Z 35013KT 9999 -SN SCT006 BKN008 M04/M05
                        Q1035 R16/820294=
201912300330 METAR LRSV 300330Z 35013KT 9999 -SN SCT006 OVC009 M04/M05
                        Q1035 R16/820294=
201912300400 METAR LRSV 300400Z 35010KT 9999 -SN FEW006 BKN008 M04/M05
                        Q1035 R16/820294=
201912300430 METAR COR LRSV 300430Z 35009KT 9999 FEW007 BKN009 M04/M05
                        Q1035 R16/820294=
201912300500 METAR LRSV 300500Z 35009KT 9999 SCT008 BKN018 M04/M05 Q1035
                        R16/820294=
201912300530 METAR LRSV 300530Z 34007KT 310V010 9999 FEW007 BKN009 M04/M05
                        Q1035 R16/820294=
201912300600 METAR LRSV 300600Z AUTO 35006KT 9999 FEW008/// SCT014///
                        BKN018/// M04/M05 Q1035=
201912300630 METAR LRSV 300630Z AUTO 36005KT 9999 OVC021/// M05/M06 Q1034=
201912300700 METAR LRSV 300700Z AUTO 35005KT 9999 BKN021/// M05/M06 Q1034=
201912300730 METAR LRSV 300730Z AUTO 01007KT 9999 NCD M06/M07 Q1034=
201912300800 METAR LRSV 300800Z 36005KT CAVOK M05/M07 Q1034 R16/820294=
201912300830 METAR LRSV 300830Z 35004KT CAVOK M05/M06 Q1034 R16/820294=
201912300900 METAR LRSV 300900Z 36004KT CAVOK M04/M06 Q1034 R16/820294=
201912300930 METAR LRSV 300930Z 34002KT CAVOK M04/M06 Q1033 R16/820294=
201912301000 METAR LRSV 301000Z 00000KT CAVOK M04/M06 Q1033 R16/820294=
201912301030 METAR LRSV 301030Z 00000KT CAVOK M02/M06 Q1032 R16/550295=
201912301100 METAR COR LRSV 301100Z 00000KT CAVOK M01/M05 Q1032 R16/550295=
201912301130 METAR LRSV 301130Z VRB01KT CAVOK 01/M05 Q1032 R16/550295=
201912301200 METAR LRSV 301200Z 18002KT CAVOK M01/M06 Q1031 R16/550295=
201912301230 METAR LRSV 301230Z 00000KT CAVOK M04/M07 Q1031 R16/550295=
201912301300 METAR LRSV 301300Z 21004KT CAVOK M05/M08 Q1031 R16/550295=
201912301330 METAR LRSV 301330Z 21004KT CAVOK M06/M08 Q1031 R16/550295=
201912301400 METAR LRSV 301400Z 21007KT CAVOK M06/M07 Q1030 R16/550295=
201912301430 METAR LRSV 301430Z 23006KT 8000 NSC M07/M09 Q1030 R16/550295=
201912301500 METAR LRSV 301500Z 23009KT CAVOK M07/M08 Q1030 R16/550295=
201912301530 METAR LRSV 301530Z 24007KT CAVOK M06/M08 Q1030 R16/550295=
201912301600 METAR LRSV 301600Z 24009KT CAVOK M07/M08 Q1029 R16/550295=
201912301630 METAR LRSV 301630Z 24009KT CAVOK M05/M07 Q1029 R16/550295=
201912301700 METAR LRSV 301700Z 25010KT CAVOK M05/M07 Q1029 R16/820295=
201912301730 METAR LRSV 301730Z 26008KT CAVOK M05/M07 Q1029 R16/820295=
201912301800 METAR LRSV 301800Z 25008KT CAVOK M05/M06 Q1028 R16/820295=
201912301830 METAR LRSV 301830Z 26009KT CAVOK M03/M06 Q1028 R16/820295=
201912301900 METAR LRSV 301900Z 26010KT CAVOK M02/M06 Q1028 R16/820295=
201912301930 METAR LRSV 301930Z 23006KT CAVOK M04/M06 Q1028 R16/820295=
201912302000 METAR LRSV 302000Z 25009KT CAVOK M03/M06 Q1027 R16/820295=
201912302030 METAR LRSV 302030Z 25011KT CAVOK M03/M06 Q1027 R16/820295=
201912302100 METAR LRSV 302100Z 25011KT CAVOK M01/M05 Q1027 R16/820295=
201912302130 METAR LRSV 302130Z 25011KT CAVOK M00/M05 Q1026 R16/820295=
201912302200 METAR LRSV 302200Z 25010KT CAVOK M00/M05 Q1026 R16/820295=
201912302230 METAR LRSV 302230Z 25010KT CAVOK 00/M05 Q1025 R16/820295=
201912302300 METAR LRSV 302300Z 24009KT CAVOK M00/M05 Q1025 R16/820295=
201912302330 METAR LRSV 302330Z 25011KT CAVOK 01/M05 Q1025 R16/820295=
201912310000 METAR LRSV 310000Z 25011KT CAVOK 01/M05 Q1025 R16/820295=
201912310030 METAR LRSV 310030Z 24011KT CAVOK 01/M04 Q1024 R16/820295=
201912310100 METAR LRSV 310100Z 25012KT CAVOK 01/M04 Q1024 R16/820295=
201912310130 METAR LRSV 310130Z 24013KT CAVOK 01/M03 Q1023 R16/820295=
201912310200 METAR LRSV 310200Z 24011KT CAVOK 01/M03 Q1022 R16/820295=
201912310230 METAR LRSV 310230Z 25013KT CAVOK 02/M03 Q1022 R16/820295=
201912310300 METAR LRSV 310300Z 24012KT CAVOK 02/M03 Q1021 R16/820295=
201912310330 METAR LRSV 310330Z 24013KT CAVOK 02/M03 Q1021 R16/820295=
201912310400 METAR LRSV 310400Z 24014KT 9999 FEW038 03/M03 Q1020 R16/820295=
201912310430 METAR LRSV 310430Z AUTO 24015KT 9999 FEW033/// BKN060///
                        03/M02 Q1020=
201912310500 METAR LRSV 310500Z AUTO 24013KT 9999 BKN060/// 03/M02 Q1020=
201912310530 METAR LRSV 310530Z AUTO 25013KT 9999 FEW042/// SCT060///
                        BKN110/// 03/M02 Q1020=
201912310600 METAR LRSV 310600Z AUTO 24012KT 9999 BKN065/// BKN110///
                        03/M02 Q1019=
201912310630 METAR LRSV 310630Z AUTO 23012KT 9999 DZ BKN055/// BKN085///
                        03/M01 Q1019=
201912310700 METAR LRSV 310700Z AUTO 23014KT 9999 UP BKN050/// 03/M01
                        Q1019=
201912310730 METAR LRSV 310730Z AUTO 24014KT 9999 FEW060/// SCT075///
                        BKN090/// 04/M01 Q1018=
201912310800 METAR COR LRSV 310800Z 25014KT CAVOK 03/M01 Q1018 R16/820295=
201912310830 METAR LRSV 310830Z 24014KT CAVOK 03/M01 Q1018 R16/820295=
201912310900 METAR LRSV 310900Z 24012KT 9999 -RA BKN047 03/M00 Q1017 R16/820295=
201912310930 METAR LRSV 310930Z 24014KT 9999 BKN047 04/M01 Q1017 R16/820295=
201912311000 METAR COR LRSV 311000Z 24015KT 9999 -RA BKN047 04/M01 Q1016
                        R16/820295=
201912311030 METAR LRSV 311030Z 24014KT CAVOK 04/M02 Q1016 R16/820295=
201912311100 METAR LRSV 311100Z 24017KT CAVOK 04/M02 Q1015 R16/820295=
201912311130 METAR LRSV 311130Z 23014KT CAVOK 04/M02 Q1015 R16/820295=
201912311200 METAR LRSV 311200Z 24016KT CAVOK 05/M02 Q1014 R16/820295=
201912311230 METAR LRSV 311230Z 25016KT CAVOK 06/M03 Q1014 R16/820295=
201912311300 METAR LRSV 311300Z 25012KT CAVOK 05/M04 Q1014 R16/820295=
201912311330 METAR LRSV 311330Z 25013KT CAVOK 05/M04 Q1014 R16/820295=
201912311400 METAR LRSV 311400Z 26008KT CAVOK 05/M04 Q1015 R16/820295=
201912311430 METAR LRSV 311430Z 27010KT CAVOK 05/M05 Q1016 R16/29//95=
201912311500 METAR LRSV 311500Z 27008KT CAVOK 05/M04 Q1016 R16/29//95=
201912311530 METAR LRSV 311530Z 28010KT CAVOK 05/M04 Q1017 R16/29//95=
201912311600 METAR LRSV 311600Z 31011KT CAVOK 05/M05 Q1017 R16/29//95=
201912311630 METAR LRSV 311630Z 30013KT 9999 BKN046 05/M05 Q1017 R16/29//95=
201912311700 METAR LRSV 311700Z 30017KT 9999 BKN045 04/M04 Q1018 R16/29//95=
201912311730 METAR LRSV 311730Z 30017KT 9999 BKN044 04/M04 Q1018 R16/29//95=
201912311800 METAR COR LRSV 311800Z 29018KT 9999 BKN048 03/M05 Q1018 R16/29//95=
201912311830 METAR LRSV 311830Z 29018KT 9999 BKN048 03/M04 Q1018 R16/29//95=
201912311900 METAR LRSV 311900Z 29018KT 9999 BKN047 03/M04 Q1018 R16/29//95=
201912311930 METAR LRSV 311930Z 29019KT CAVOK 03/M04 Q1018 R16/29//95=
201912312000 METAR LRSV 312000Z 29019KT CAVOK 03/M04 Q1018 R16/29//95=
201912312030 METAR LRSV 312030Z 28019KT CAVOK 03/M04 Q1018 R16/29//95=
201912312100 METAR LRSV 312100Z 29015KT 9999 FEW037 03/M03 Q1018 R16/29//95=
201912312130 METAR LRSV 312130Z 30016KT 9999 -SN BKN033 02/M02 Q1019 R16/29//95=
201912312200 METAR LRSV 312200Z 30015KT 9999 SCT036 03/M02 Q1019 R16/29//95=
201912312230 METAR LRSV 312230Z 31014KT 9999 SCT036 03/M02 Q1018 R16/29//95=
201912312300 METAR COR LRSV 312300Z 31015KT 9999 SCT042 04/M02 Q1018 R16/29//95=
201912312330 METAR COR LRSV 312330Z 30016KT CAVOK 03/M02 Q1019 R16/29//95=
