201901010000 METAR LRAR 010000Z AUTO 36006KT 9999 NCD 01/00 Q1028=
201901010030 METAR LRAR 010030Z AUTO 01006KT 9999 NCD 01/M00 Q1029=
201901010100 METAR LRAR 010100Z AUTO 36008KT 9999 NCD 01/M00 Q1029=
201901010130 METAR LRAR 010130Z AUTO 01006KT 9999 NCD 00/M00 Q1029=
201901010200 METAR LRAR 010200Z AUTO 04003KT 350V090 9000 NCD M00/M01
                        Q1029=
201901010230 METAR LRAR 010230Z AUTO 01004KT 9000 NCD M00/M00 Q1028=
201901010300 METAR LRAR 010300Z AUTO 00000KT 5000 BR NCD M01/M01 Q1028=
201901010330 METAR LRAR 010330Z AUTO 35003KT 8000 NCD ///// Q1028=
201901010400 METAR LRAR 010400Z AUTO 35003KT 8000 NCD M01/M01 Q1028=
201901010430 METAR LRAR 010430Z AUTO 36003KT 8000 NCD M01/M01 Q1028=
201901010500 METAR LRAR 010500Z 33002KT 280V360 6000 NSC M02/M02 Q1028=
201901010530 METAR LRAR 010530Z 01001KT 6000 NSC M02/M02 Q1028 R09/19//95=
201901010600 METAR LRAR 010600Z VRB01KT 3000 BR NSC M02/M02 Q1028 R09/19//95=
201901010630 METAR LRAR 010630Z VRB01KT 3700 BR NSC M03/M03 Q1028 R09/19//95=
201901010700 METAR LRAR 010700Z 26003KT 4300 BR NSC M03/M03 Q1028 R09/CLRD//=
201901010730 METAR LRAR 010730Z 16002KT 4800 BR NSC M01/M01 Q1028=
201901010800 METAR LRAR 010800Z 29003KT 5000 BR NSC M00/M00 Q1028=
201901010830 METAR LRAR 010830Z 29006KT 7000 NSC M00/M00 Q1028=
201901010900 METAR LRAR 010900Z 23002KT 190V280 CAVOK 00/00 Q1028=
201901010930 METAR LRAR 010930Z 27002KT 210V280 9999 FEW004 01/01 Q1027=
201901011000 METAR LRAR 011000Z 18005KT 8000 SCT004 01/00 Q1027=
201901011030 METAR LRAR 011030Z 19005KT 160V220 5000 BR SCT002 BKN005
                        00/00 Q1027=
201901011100 METAR LRAR 011100Z 19005KT 140V220 2500 BR BKN001 00/00 Q1027=
201901011130 METAR LRAR 011130Z 17005KT 2600 BR BKN001 00/00 Q1026=
201901011200 METAR LRAR 011200Z 17006KT 140V200 1600 BR OVC002 00/00 Q1026=
201901011230 METAR LRAR 011230Z 18006KT 0800 R27/1000U R09/0800 FG OVC002
                        00/00 Q1025=
201901011300 METAR LRAR 011300Z 17006KT 0600 R27/0800D R09/0700 FG OVC002
                        00/00 Q1025=
201901011330 METAR LRAR 011330Z 16007KT 1000 R27/1200N R09/1200 BR BKN001
                        OVC003 00/00 Q1025=
201901011400 METAR LRAR 011400Z 20006KT 160V220 2600 BR BKN001 OVC003
                        01/01 Q1024=
201901011430 METAR LRAR 011430Z 18009KT 2600 BR BKN001 OVC003 01/01 Q1024=
201901011500 METAR LRAR 011500Z 18007KT 1000 R27/1200D R09/1100 BR OVC002
                        00/00 Q1024=
201901011530 METAR LRAR 011530Z 18009KT 0800 R27/1000D R09/0900 FG OVC001
                        00/00 Q1023=
201901011600 METAR LRAR 011600Z 18010KT 0900 R27/1100N R09/1000 FG OVC001
                        00/00 Q1022=
201901011630 METAR LRAR 011630Z 19007KT 1400 R27/1500U R09/1500 BR OVC002
                        00/00 Q1023=
201901011700 METAR LRAR 011700Z 19008KT 1600 BR OVC002 00/00 Q1022=
201901011730 METAR LRAR 011730Z AUTO 19008KT 2800 OVC001/// ///// Q1022=
201901011800 METAR LRAR 011800Z AUTO 19010KT 3300 R27/2000 BKN001/// BKN003///
                        ///// Q1021=
201901011830 METAR LRAR 011830Z AUTO 19010KT 3300 R27/2000U BR BKN001///
                        OVC003/// ///// Q1021=
201901011900 METAR LRAR 011900Z AUTO 19009KT 4100 BR BKN002/// OVC004///
                        ///// Q1021=
201901011930 METAR LRAR 011930Z AUTO 19008KT 4300 BKN002/// ///// Q1020
                        RESN=
201901012000 METAR LRAR 012000Z AUTO 20008KT 5000 SCT002/// BKN004///
                        BKN039/// ///// Q1020 RESN=
201901012030 METAR LRAR 012030Z AUTO 20009KT 6000 FEW004/// BKN039///
                        ///// Q1019=
201901012100 METAR LRAR 012100Z AUTO 20010KT 5000 FEW003/// BKN040///
                        ///// Q1019=
201901012130 METAR LRAR 012130Z AUTO 20009KT 5000 UP BKN003/// BKN005///
                        ///// Q1018=
201901012200 METAR LRAR 012200Z AUTO 20009KT 4400 -SHSN SCT002/// OVC004///
                        ///// Q1018=
201901012230 METAR LRAR 012230Z AUTO 20010KT 4500 BKN003/// ///// Q1017
                        RESN=
201901012300 METAR LRAR 012300Z AUTO 21011KT 4000 -SN FEW003/// BKN005///
                        ///// Q1017=
201901012330 METAR LRAR 012330Z AUTO 21010KT 2400 R27/2000 -SN BKN003///
                        BKN006/// ///// Q1016=
201901020000 METAR LRAR 020000Z AUTO 20012KT 2900 -SN BKN002/// OVC004///
                        ///// Q1016=
201901020030 METAR LRAR 020030Z AUTO 20012KT 2600 R27/1900VP2000U -SN
                        VV006 ///// Q1015=
201901020100 METAR LRAR 020100Z AUTO 20015KT 5000 -SN SCT002/// BKN004///
                        ///// Q1014=
201901020130 METAR LRAR 020130Z AUTO 20014KT 5000 -SHSN FEW003/// SCT011///
                        BKN015/// ///// Q1014=
201901020200 METAR LRAR 020200Z AUTO 21011KT 6000 FEW004/// SCT006///
                        BKN040/// ///// Q1014 RESN=
201901020230 METAR LRAR 020230Z AUTO 21011KT 5000 BR FEW020/// BKN039///
                        BKN044/// ///// Q1013=
201901020300 METAR LRAR 020300Z AUTO 21010KT 5000 FEW011/// BKN034///
                        ///// Q1013=
201901020330 METAR LRAR 020330Z AUTO 22009KT 6000 FEW033/// ///// Q1012
                        REUP=
201901020400 METAR LRAR 020400Z AUTO 22012KT 5000 FEW071/// ///// Q1012=
201901020430 METAR LRAR 020430Z AUTO 21011KT 6000 NCD 01/01 Q1012=
201901020500 METAR LRAR 020500Z 22010KT 6000 NSC 01/01 Q1012=
201901020530 METAR LRAR 020530Z 23009KT 7000 NSC 01/01 Q1012=
201901020600 METAR LRAR 020600Z 23009KT 8000 NSC 01/01 Q1012=
201901020630 METAR LRAR 020630Z 23007KT CAVOK 01/01 Q1012=
201901020700 METAR LRAR 020700Z 25007KT CAVOK 01/01 Q1012 R09/29//95=
201901020730 METAR LRAR 020730Z 28009KT CAVOK 01/01 Q1012 R09/29//95=
201901020800 METAR LRAR 020800Z 28009KT CAVOK 01/00 Q1012 R09/29//95=
201901020830 METAR LRAR 020830Z 27010KT CAVOK 02/00 Q1012 R09/29//95=
201901020900 METAR LRAR 020900Z 28012KT CAVOK 02/00 Q1012 R09/29//95=
201901020930 METAR LRAR 020930Z 29012KT 9999 FEW025 03/00 Q1012 R09/29//95=
201901021000 METAR LRAR 021000Z 30015KT 9999 BKN027 04/01 Q1012 R09/19//95=
201901021030 METAR LRAR 021030Z 30015KT 9999 FEW024 BKN028 04/01 Q1012
                        R09/19//95=
201901021100 METAR LRAR 021100Z 32013KT 9999 SCT025 BKN030 04/01 Q1012
                        R09/19//95=
201901021130 METAR LRAR 021130Z 32011KT 9999 SCT025 BKN035 05/01 Q1012
                        R09/19//95=
201901021200 METAR LRAR 021200Z 32013KT 9999 BKN027 BKN040 05/00 Q1012
                        R09/19//95=
201901021230 METAR LRAR 021230Z 34007KT 9999 BKN030 BKN042 04/01 Q1012
                        R09/19//95=
201901021300 METAR LRAR 021300Z 33007KT 9999 BKN030 BKN040 05/01 Q1012
                        R09/19//95=
201901021330 METAR LRAR 021330Z 33010KT 9999 FEW028 SCT040CB BKN045 04/00
                        Q1012 R09/19//95=
201901021400 METAR LRAR 021400Z 32012KT 9999 SCT040 SCT045CB 04/01 Q1012
                        R09/19//95=
201901021430 METAR LRAR 021430Z 32011KT 9999 SCT035 FEW050CB 04/01 Q1013
                        R09/19//95=
201901021500 METAR LRAR 021500Z 32008KT 9999 SCT045 FEW050CB 03/01 Q1013
                        R09/19//95=
201901021530 METAR LRAR 021530Z 31006KT 9999 BKN045 03/01 Q1013 R09/19//95=
201901021600 METAR LRAR 021600Z 29005KT 9999 BKN049 03/00 Q1013 R09/19//95=
201901021630 METAR LRAR 021630Z 31007KT CAVOK 03/00 Q1013 R09/19//95=
201901021700 METAR LRAR 021700Z 31006KT CAVOK 02/M00 Q1014 R09/19//95=
201901021730 METAR LRAR 021730Z AUTO 29005KT 9999 SCT050/// 01/M01 Q1014=
201901021800 METAR LRAR 021800Z AUTO 28005KT 9999 FEW056/// 00/M01 Q1014=
201901021830 METAR LRAR 021830Z AUTO 28007KT 9999 NCD M00/M01 Q1014=
201901021900 METAR LRAR 021900Z AUTO 29006KT 9999 NCD M00/M01 Q1014=
201901021930 METAR LRAR 021930Z AUTO 27006KT 9999 NCD M01/M02 Q1015=
201901022000 METAR LRAR 022000Z AUTO 30005KT 9999 NCD M01/M02 Q1015=
201901022030 METAR LRAR 022030Z AUTO 32006KT 9999 NCD M01/M01 Q1015=
201901022100 METAR LRAR 022100Z AUTO 31006KT 9999 NCD M01/M01 Q1015=
201901022130 METAR LRAR 022130Z AUTO 32004KT 9999 FEW046/// M01/M01 Q1015=
201901022200 METAR LRAR 022200Z AUTO 33004KT 9999 SCT049/// M00/M01 Q1015=
201901022230 METAR LRAR 022230Z AUTO 34003KT 9999 SCT061/// M00/M01 Q1016=
201901022300 METAR LRAR 022300Z AUTO 32004KT 9999 NCD M00/M00 Q1016=
201901022330 METAR LRAR 022330Z AUTO 32007KT 9999 FEW091/// M00/M00 Q1016=
201901030000 METAR LRAR 030000Z AUTO 33006KT 9999 NCD M00/M00 Q1016=
201901030030 METAR LRAR 030030Z AUTO 32008KT 9999 NCD M00/M00 Q1017=
201901030100 METAR LRAR 030100Z AUTO 32010KT 9999 FEW100/// M00/M01 Q1017=
201901030130 METAR LRAR 030130Z AUTO 33011KT 9999 NCD 00/M01 Q1017=
201901030200 METAR LRAR 030200Z AUTO 34011KT 9999 FEW042/// 01/M01 Q1017=
201901030230 METAR LRAR 030230Z AUTO 33011KT 9999 FEW042/// M00/M01 Q1017=
201901030300 METAR LRAR 030300Z AUTO 33008KT 9999 NCD M00/M01 Q1017=
201901030330 METAR LRAR 030330Z AUTO 34008KT 9999 NCD M00/M01 Q1018=
201901030400 METAR LRAR 030400Z AUTO 34006KT 9999 NCD M00/M01 Q1018=
201901030430 METAR LRAR 030430Z AUTO 35007KT 9999 NCD M00/M01 Q1018=
201901030500 METAR LRAR 030500Z 33006KT CAVOK M01/M01 Q1019 R09/19//95=
201901030530 METAR LRAR 030530Z 34004KT CAVOK M01/M01 Q1019 R09/19//95=
201901030600 METAR LRAR 030600Z 32006KT CAVOK M01/M01 Q1019 R09/19//95=
201901030630 METAR LRAR 030630Z 33005KT CAVOK M01/M02 Q1019 R09/19//95=
201901030700 METAR LRAR 030700Z 32008KT CAVOK M01/M02 Q1020 R09/19//95=
201901030730 METAR LRAR 030730Z 33009KT 9999 FEW028 M01/M03 Q1020 R09/19//95=
201901030800 METAR LRAR 030800Z 33009KT CAVOK M00/M03 Q1020 R09/19//95=
201901030830 METAR LRAR 030830Z 34008KT CAVOK M00/M02 Q1021 R09/19//95=
201901030900 METAR LRAR 030900Z 35006KT 9999 -SN FEW012 M00/M03 Q1021
                        R09/19//95=
201901030930 METAR LRAR 030930Z 33008KT CAVOK 00/M03 Q1021 R09/19//95=
201901031000 METAR LRAR 031000Z 32010KT CAVOK M00/M02 Q1021 R09/19//95=
201901031030 METAR LRAR 031030Z 33012KT 9999 FEW010 M00/M03 Q1021 R09/19//95=
201901031100 METAR LRAR 031100Z 33012KT CAVOK 00/M02 Q1020 R09/19//95=
201901031130 METAR LRAR 031130Z 33012KT 9999 FEW014 00/M02 Q1020 R09/CLRD//=
201901031200 METAR LRAR 031200Z 33014KT 9999 FEW015 M00/M02 Q1020=
201901031230 METAR LRAR 031230Z 34014KT 9999 FEW014 00/M02 Q1021=
201901031300 METAR LRAR 031300Z 33014KT 9999 SCT014 FEW025CB 00/M03 Q1021=
201901031330 METAR LRAR 031330Z 02013G24KT 330V050 5000 SHSN FEW002 SCT011
                        BKN025CB M01/M04 Q1021=
201901031400 METAR LRAR 031400Z 36004KT 9999 SCT006 FEW025CB M01/M04 Q1021
                        RESHSN=
201901031430 METAR LRAR 031430Z 32007KT 9999 SCT006 FEW027CB M00/M03 Q1021
                        RESHSN=
201901031500 METAR LRAR 031500Z 07006KT 9999 FEW010 SCT030 M01/M04 Q1021=
201901031530 METAR LRAR 031530Z 09004KT 9999 FEW010 SCT035 M02/M04 Q1021=
201901031600 METAR LRAR 031600Z 08001KT 9999 FEW014 SCT031 M02/M04 Q1021=
201901031630 METAR LRAR 031630Z 06009KT 9999 -SN FEW006 SCT018 OVC030
                        M02/M02 Q1022=
201901031700 METAR LRAR 031700Z 07005KT 9999 SCT015 OVC043 M02/M03 Q1022
                        R09/590395=
201901031730 METAR LRAR 031730Z AUTO 02007KT 340V050 4900 -SHSN VV009
                        M03/M03 Q1022=
201901031800 METAR LRAR 031800Z AUTO 32004KT 9999 FEW008/// M04/M04 Q1022
                        RESN=
201901031830 METAR LRAR 031830Z AUTO 27002KT 9999 NCD M05/M05 Q1022 RESN=
201901031900 METAR LRAR 031900Z AUTO 27003KT 4500 R27/1500VP2000D BR NCD
                        ///// Q1022=
201901031930 METAR LRAR 031930Z AUTO 27003KT 0500 R27/0600N FG NCD /////
                        Q1022=
201901032000 METAR LRAR 032000Z AUTO 29003KT 0750 R27/0550V1200D FZFG
                        NCD M06/M06 Q1022=
201901032030 METAR LRAR 032030Z AUTO 28003KT 0500 R27/0500V0700D FZFG
                        NCD M06/M06 Q1022=
201901032100 METAR LRAR 032100Z AUTO 29004KT 0700 R27/0800N FZFG NCD M07/M07
                        Q1023=
201901032130 METAR LRAR 032130Z AUTO 29003KT 3500 BKN050/// M07/M07 Q1023=
201901032200 METAR LRAR 032200Z AUTO VRB01KT 8000 SCT047/// M07/M07 Q1023=
201901032230 METAR LRAR 032230Z AUTO 34002KT 6000 NCD M07/M07 Q1023=
201901032300 METAR LRAR 032300Z AUTO 35003KT 9999 NCD M07/M07 Q1023=
201901032330 METAR LRAR 032330Z AUTO 36006KT 9999 NCD M06/M06 Q1023=
201901040000 METAR LRAR 040000Z AUTO 36007KT 9999 NCD M06/M06 Q1023=
201901040030 METAR LRAR 040030Z AUTO 35004KT 9999 NCD M06/M07 Q1023=
201901040100 METAR LRAR 040100Z AUTO 34004KT 9999 NCD M06/M07 Q1024=
201901040130 METAR LRAR 040130Z AUTO 34004KT 9999 NCD M07/M07 Q1024=
201901040200 METAR LRAR 040200Z AUTO 33004KT 9999 NCD M07/M08 Q1024=
201901040230 METAR LRAR 040230Z AUTO 33005KT 9999 NCD M08/M08 Q1023=
201901040300 METAR LRAR 040300Z AUTO 35004KT 9999 SCT022/// M06/M06 Q1024=
201901040330 METAR LRAR 040330Z AUTO 36006KT 9999 FEW021/// SCT049///
                        M05/M06 Q1024=
201901040400 METAR LRAR 040400Z AUTO 36007KT 9999 -SN FEW008/// SCT014///
                        BKN028/// M05/M05 Q1024=
201901040430 METAR LRAR 040430Z AUTO 36005KT 9999 -FZDZ FEW009/// SCT016///
                        BKN022/// M04/M05 Q1024=
201901040500 METAR LRAR 040500Z 36007KT 9999 -SN FEW010 BKN018 M04/M04
                        Q1024 R09/590395=
201901040530 METAR LRAR 040530Z 02009KT 9999 -SN SCT010 BKN017 M04/M04
                        Q1024 R09/590395=
201901040600 METAR LRAR 040600Z 02007KT 9999 -SN FEW009 SCT020 BKN028
                        M04/M04 Q1025 R09/590395=
201901040630 METAR LRAR 040630Z 01007KT 7000 -SN FEW007 BKN010 BKN024
                        M03/M04 Q1025 R09/590395=
201901040700 METAR LRAR 040700Z 01008KT 9999 -SN FEW007 BKN015 BKN025
                        M03/M04 Q1026 R09/590395=
201901040730 METAR LRAR 040730Z 01008KT 9999 -SN FEW006 SCT011 BKN025
                        M03/M04 Q1026 R09/590395=
201901040800 METAR LRAR 040800Z 35008KT 9999 SCT013 BKN040 M03/M04 Q1026
                        R09/590395=
201901040830 METAR COR LRAR 040830Z 01010KT 9999 SCT010 SCT035 M03/M04
                        Q1027 R09/590391=
201901040900 METAR LRAR 040900Z 01009KT 9999 -SN SCT008 SCT015 M03/M04
                        Q1027 R09/590391=
201901040930 METAR LRAR 040930Z 01009KT 9999 SCT009 BKN024 M02/M04 Q1027
                        R09/490193=
201901041000 METAR LRAR 041000Z 01009KT 9999 SCT012 BKN032 M02/M04 Q1027
                        R09/490193=
201901041030 METAR LRAR 041030Z 01008KT 9999 -SN FEW008 BKN015 BKN025
                        M02/M04 Q1027 R09/490193=
201901041100 METAR LRAR 041100Z 01009KT 9999 FEW012 BKN025 M02/M04 Q1027
                        R09/490193=
201901041130 METAR LRAR 041130Z 36009KT 9999 SCT015 BKN025 M02/M05 Q1027
                        R09/490193=
201901041200 METAR LRAR 041200Z 01009KT 9999 BKN028 M02/M05 Q1027 R09/490193=
201901041230 METAR LRAR 041230Z 02007KT 350V050 9999 BKN030 M01/M06 Q1027
                        R09/490193=
201901041300 METAR LRAR 041300Z 01008KT 9999 SCT020 BKN030 M02/M05 Q1027
                        R09/490193=
201901041330 METAR LRAR 041330Z 34005KT 9999 BKN034 BKN041 M02/M05 Q1027
                        R09/490193=
201901041400 METAR LRAR 041400Z 34004KT 9999 SCT032 BKN040 M02/M05 Q1027
                        R09/690194=
201901041430 METAR LRAR 041430Z 35004KT 9999 BKN031 BKN038 M02/M05 Q1027
                        R09/690194=
201901041500 METAR LRAR 041500Z 33004KT 9999 BKN040 M03/M05 Q1027 R09/690194=
201901041530 METAR LRAR 041530Z 32004KT 9999 BKN040 M03/M04 Q1027 R09/690194=
201901041600 METAR LRAR 041600Z 31004KT 9999 SCT038 BKN043 M03/M04 Q1027
                        R09/690194=
201901041630 METAR LRAR 041630Z 31003KT 9999 SCT045 M03/M04 Q1027 R09/690194=
201901041700 METAR LRAR 041700Z 31003KT 9999 SCT043 M03/M04 Q1027 R09/690194=
201901041730 METAR LRAR 041730Z AUTO 33003KT 9999 FEW042/// SCT081///
                        M03/M04 Q1027=
201901041800 METAR LRAR 041800Z AUTO VRB01KT 9999 SCT081/// M04/M05 Q1027=
201901041830 METAR LRAR 041830Z AUTO 25001KT 9999 SCT081/// M04/M04 Q1027=
201901041900 METAR LRAR 041900Z AUTO 29004KT 7000 SCT081/// M05/M05 Q1027=
201901041930 METAR LRAR 041930Z AUTO 23002KT 6000 FEW076/// M05/M05 Q1027=
201901042000 METAR LRAR 042000Z AUTO 25002KT 3400 BR FEW076/// M06/M06
                        Q1027=
201901042030 METAR LRAR 042030Z AUTO 25003KT 4600 BR NCD ///// Q1026=
201901042100 METAR LRAR 042100Z AUTO 20001KT 3900 BR NCD M07/M07 Q1026=
201901042130 METAR LRAR 042130Z AUTO 16002KT 6000 NCD M07/M07 Q1026=
201901042200 METAR LRAR 042200Z AUTO 17002KT 140V220 5000 NCD M07/M07
                        Q1026=
201901042230 METAR LRAR 042230Z AUTO 16002KT 4500 BR NCD M07/M07 Q1026=
201901042300 METAR LRAR 042300Z AUTO 18003KT 6000 NCD M08/M08 Q1026=
201901042330 METAR LRAR 042330Z AUTO 19002KT 6000 NCD M07/M07 Q1025=
201901050000 METAR LRAR 050000Z AUTO 20002KT 160V220 6000 NCD M07/M07
                        Q1025=
201901050030 METAR LRAR 050030Z AUTO 20003KT 6000 NCD M07/M07 Q1025=
201901050100 METAR LRAR 050100Z AUTO 21003KT 6000 NCD M07/M07 Q1025=
201901050130 METAR LRAR 050130Z AUTO 19003KT 6000 NCD M07/M07 Q1025=
201901050200 METAR LRAR 050200Z AUTO VRB01KT 6000 NCD M08/M08 Q1024=
201901050230 METAR LRAR 050230Z AUTO 15003KT 6000 NCD M08/M09 Q1024=
201901050300 METAR LRAR 050300Z AUTO 16004KT 7000 SCT031/// M08/M08 Q1024=
201901050330 METAR LRAR 050330Z AUTO 16005KT 7000 NCD M08/M09 Q1023=
201901050400 METAR LRAR 050400Z AUTO 15006KT 7000 NCD M09/M09 Q1023=
201901050430 METAR LRAR 050430Z AUTO 15007KT 3900 BR VV002 M09/M09 Q1023=
201901050500 METAR LRAR 050500Z 16004KT 2600 BR BKN002 M08/M09 Q1023 R09/690194=
201901050530 METAR LRAR 050530Z 16004KT 2200 BR BKN002 M08/M08 Q1022 R09/690194=
201901050600 METAR LRAR 050600Z 16006KT 2500 BR BKN001 M07/M07 Q1022 R09/690194=
201901050630 METAR LRAR 050630Z 17006KT 2500 -SN BR BKN001 M06/M06 Q1022
                        R09/690194=
201901050700 METAR LRAR 050700Z 16008KT 3700 -SN BR BKN002 M06/M06 Q1022
                        R09/950395=
201901050730 METAR LRAR 050730Z 16009KT 4000 BR BKN003 M05/M05 Q1021 R09/950395=
201901050800 METAR LRAR 050800Z 18009KT 5000 BR BKN005 M05/M05 Q1021 R09/950395=
201901050830 METAR LRAR 050830Z 18009KT 6000 SCT004 BKN006 OVC045 M06/M06
                        Q1021 R09/950395=
201901050900 METAR LRAR 050900Z 19008KT 6000 SCT005 BKN021 OVC025 M06/M06
                        Q1020 R09/950395=
201901050930 METAR LRAR 050930Z 18010KT 5000 BR BKN005 M05/M05 Q1020 R09/950395=
201901051000 METAR LRAR 051000Z 18010KT 150V210 3700 -SN BR SCT005 SCT007
                        OVC030 M05/M05 Q1019 R09/950395=
201901051030 METAR LRAR 051030Z 18012KT 4300 -SN BR SCT006 BKN008 M04/M04
                        Q1018 R09/950395=
201901051100 METAR LRAR 051100Z 18011KT 4800 -SN BR FEW007 BKN009 M04/M04
                        Q1018 R09/950395=
201901051130 METAR LRAR 051130Z 20011KT 2900 -SN BR BKN008 M03/M04 Q1017
                        R09/950395=
201901051200 METAR LRAR 051200Z 19011KT 3400 -SN BR SCT006 BKN008 M03/M04
                        Q1016 RESN R09/950395=
201901051230 METAR LRAR 051230Z 19011KT 3000 SN BR FEW006 BKN010 M03/M03
                        Q1016 R09/590394=
201901051300 METAR LRAR 051300Z 19011KT 2500 SN BR SCT007 BKN010 M03/M03
                        Q1016 R09/590394=
201901051330 METAR LRAR 051330Z 19012KT 5000 -SN BR SCT006 BKN010 M03/M03
                        Q1015 RESN R09/590394=
201901051400 METAR LRAR 051400Z 19012KT 3900 -SN BR FEW008 BKN010 M03/M03
                        Q1015 RESN R09/590394=
201901051430 METAR LRAR 051430Z 19013KT 2400 -SN BR BKN008 M03/M03 Q1015
                        R09/491593=
201901051500 METAR LRAR 051500Z 20012KT 2000 -SN BR SCT004 BKN008 M03/M03
                        Q1014 R09/491593=
201901051530 METAR LRAR 051530Z 19012KT 3200 -SN BR BKN007 M03/M03 Q1014
                        R09/491593=
201901051600 METAR LRAR 051600Z 19012KT 3000 -SN BR BKN007 M03/M03 Q1014
                        R09/491593=
201901051630 METAR LRAR 051630Z 19010KT 2800 -SN BR BKN006 M03/M03 Q1014
                        R09/491593=
201901051700 METAR LRAR 051700Z 19011KT 2600 -SN BR BKN007 M03/M03 Q1014
                        R09/491593=
201901051730 METAR LRAR 051730Z AUTO 18012KT 2900 -SN VV007 M03/M03 Q1013=
201901051800 METAR LRAR 051800Z AUTO 17009KT 3900 -SN FEW005/// BKN013///
                        M03/M03 Q1013=
201901051830 METAR LRAR 051830Z AUTO 18009KT 5000 -SN BKN010/// OVC013///
                        M03/M03 Q1013=
201901051900 METAR LRAR 051900Z AUTO 17008KT 4600 -SN FEW007/// BKN011///
                        M03/M03 Q1013=
201901051930 METAR LRAR 051930Z AUTO 17008KT 6000 -FZRA BKN009/// OVC011///
                        M03/M03 Q1013=
201901052000 METAR LRAR 052000Z AUTO 17007KT 5000 -SN FEW009/// BKN011///
                        M03/M03 Q1013=
201901052030 METAR LRAR 052030Z AUTO 16005KT 5000 -FZDZ SCT008/// OVC010///
                        M03/M03 Q1013=
201901052100 METAR LRAR 052100Z AUTO 16006KT 5000 -FZRA BKN008/// M03/M03
                        Q1012=
201901052130 METAR LRAR 052130Z AUTO 16005KT 6000 -FZDZ OVC008/// M03/M03
                        Q1012=
201901052200 METAR LRAR 052200Z AUTO 15004KT 6000 -FZRA BKN006/// BKN008///
                        M03/M03 Q1013=
201901052230 METAR LRAR 052230Z AUTO 12004KT 080V150 8000 BKN006/// OVC008///
                        M03/M03 Q1013 REFZRA=
201901052300 METAR LRAR 052300Z AUTO 12003KT 8000 BKN006/// M03/M03 Q1013
                        REFZRA=
201901052330 METAR LRAR 052330Z AUTO 20002KT 7000 -FZDZ BKN005/// OVC007///
                        M03/M03 Q1013=
201901060000 METAR LRAR 060000Z AUTO 15001KT 7000 -FZRA SCT003/// BKN005///
                        M03/M03 Q1013=
201901060030 METAR LRAR 060030Z AUTO 15002KT 6000 -FZRA OVC003/// M03/M03
                        Q1013=
201901060100 METAR LRAR 060100Z AUTO 33003KT 300V360 5000 BKN002/// BKN004///
                        ///// Q1013 REFZRA=
201901060130 METAR LRAR 060130Z AUTO VRB01KT 3600 BR BKN001/// OVC003///
                        ///// Q1013=
201901060200 METAR LRAR 060200Z AUTO 02002KT 320V070 1600 R27/1400VP2000D
                        -FZRA VV002 ///// Q1013=
201901060230 METAR LRAR 060230Z AUTO 31005KT 1100 R27/1200N FG BKN001///
                        OVC004/// ///// Q1014=
201901060300 METAR LRAR 060300Z AUTO 32007KT 2300 -SHSN BKN002/// BKN004///
                        ///// Q1013=
201901060330 METAR LRAR 060330Z AUTO 33009KT 3700 BKN002/// BKN004///
                        ///// Q1014 REDZ=
201901060400 METAR LRAR 060400Z AUTO 34006KT 2900 BR BKN002/// ///// Q1014=
201901060430 METAR LRAR 060430Z AUTO 34006KT 3000 R27/2000 -SHSN BKN001///
                        BKN003/// ///// Q1014=
201901060500 METAR LRAR 060500Z 33006KT 2500 BR BKN002 M02/M02 Q1014 R09/491593=
201901060530 METAR LRAR 060530Z 32005KT 3000 BR BKN002 BKN004 M02/M02
                        Q1014 R09/491593=
201901060600 METAR LRAR 060600Z 32005KT 3000 -SN BR BKN002 BKN004 M02/M02
                        Q1014 R/SNOCLO=
201901060630 METAR LRAR 060630Z 32003KT 2500 -SN BR BKN002 M02/M02 Q1015
                        R/SNOCLO=
201901060700 METAR LRAR 060700Z 31002KT 2000 -SN BR FEW001 SCT008 BKN035
                        M02/M02 Q1015 R/SNOCLO=
201901060730 METAR LRAR 060730Z 29002KT 1800 -SN BR SCT007 BKN012 BKN030
                        M02/M02 Q1015 R/SNOCLO=
201901060800 METAR LRAR 060800Z 31003KT 290V070 1900 -SN BR SCT007 BKN010
                        OVC030 M02/M02 Q1015 R/SNOCLO=
201901060830 METAR LRAR 060830Z VRB02KT 2000 -SN BR FEW007 BKN010 OVC030
                        M02/M02 Q1016 R/SNOCLO=
201901060900 METAR LRAR 060900Z 35003KT 330V030 2800 -SN BR FEW007 SCT012
                        BKN028 M02/M02 Q1016 R/SNOCLO=
201901060930 METAR LRAR 060930Z 35004KT 320V020 3000 -SN BR FEW007 SCT014
                        BKN040 M01/M01 Q1016 R/SNOCLO=
201901061000 METAR LRAR 061000Z 01005KT 5000 -SN BR FEW015 SCT035 M01/M01
                        Q1016 R/SNOCLO=
201901061030 METAR LRAR 061030Z 36007KT 8000 FEW012 SCT045 M00/M00 Q1016
                        R/SNOCLO=
201901061100 METAR LRAR 061100Z 36006KT 9999 SCT027 M00/M00 Q1016=
201901061130 METAR LRAR 061130Z 35005KT 9999 BKN032 M00/M00 Q1016 R09/650194=
201901061200 METAR LRAR 061200Z 36006KT 9999 BKN035 00/M02 Q1016 R09/650194=
201901061230 METAR LRAR 061230Z 35006KT 9999 FEW040 00/M02 Q1016 R09/650194=
201901061300 METAR LRAR 061300Z 32010KT 9000 FEW042 M00/M01 Q1017 R09/650194=
201901061330 METAR LRAR 061330Z 34008KT 9000 FEW045 M00/M02 Q1017 R09/650194=
201901061400 METAR LRAR 061400Z 34007KT CAVOK M00/M03 Q1017 R09/650194=
201901061430 METAR LRAR 061430Z 34006KT CAVOK M01/M04 Q1017 R09/650194=
201901061500 METAR LRAR 061500Z 33008KT CAVOK M01/M04 Q1018 R09/650194=
201901061530 METAR LRAR 061530Z 34008KT 9999 SCT030 M01/M04 Q1018 R09/650194=
201901061600 METAR LRAR 061600Z 01011KT 340V040 9999 FEW035 M01/M05 Q1018
                        R09/650194=
201901061630 METAR LRAR 061630Z 36010KT 9999 FEW040 M02/M06 Q1019 R09/650194=
201901061700 METAR LRAR 061700Z 36010KT 9999 SCT048 M02/M06 Q1019 R09/650194=
201901061730 METAR LRAR 061730Z AUTO 01008KT 9999 NCD M02/M06 Q1019=
201901061800 METAR LRAR 061800Z AUTO 36014KT 9999 FEW050/// M03/M07 Q1019=
201901061830 METAR LRAR 061830Z AUTO 02013KT 9999 FEW050/// M03/M08 Q1019=
201901061900 METAR LRAR 061900Z AUTO 02013KT 9999 NCD M04/M08 Q1020=
201901061930 METAR LRAR 061930Z AUTO 02011KT 9999 FEW066/// M04/M08 Q1020=
201901062000 METAR LRAR 062000Z AUTO 01012KT 9999 FEW081/// M04/M08 Q1020=
201901062030 METAR LRAR 062030Z AUTO 01012KT 9999 FEW086/// M04/M09 Q1020=
201901062100 METAR LRAR 062100Z AUTO 02011KT 9999 FEW013/// M04/M08 Q1021=
201901062130 METAR LRAR 062130Z AUTO 02012KT 9999 -FZDZ FEW012/// M04/M08
                        Q1021=
201901062200 METAR LRAR 062200Z AUTO 01011KT 9999 NCD M04/M08 Q1021 REFZRA=
201901062230 METAR LRAR 062230Z AUTO 01012KT 9999 NCD M05/M08 Q1021=
201901062300 METAR LRAR 062300Z AUTO 02010KT 9999 NCD M05/M08 Q1022=
201901062330 METAR LRAR 062330Z AUTO 01010KT 9999 NCD M06/M09 Q1022=
201901070000 METAR LRAR 070000Z AUTO 02011KT 9999 NCD M06/M10 Q1022=
201901070030 METAR LRAR 070030Z AUTO 02011KT 9999 NCD M06/M10 Q1023=
201901070100 METAR LRAR 070100Z AUTO 02008KT 9999 NCD M07/M10 Q1023=
201901070130 METAR LRAR 070130Z AUTO 01009KT 9999 NCD M08/M10 Q1023=
201901070200 METAR LRAR 070200Z AUTO 05003KT 360V090 9999 NCD M08/M10
                        Q1023=
201901070230 METAR LRAR 070230Z AUTO 02007KT 9999 NCD M08/M10 Q1023=
201901070300 METAR LRAR 070300Z AUTO 02007KT 9999 NCD M08/M10 Q1024=
201901070330 METAR LRAR 070330Z AUTO 36006KT 9999 NCD M09/M11 Q1024=
201901070400 METAR LRAR 070400Z AUTO 01005KT 9999 NCD M09/M11 Q1024=
201901070430 METAR LRAR 070430Z AUTO 28003KT 240V310 9999 SCT086/// M09/M11
                        Q1024=
201901070500 METAR LRAR 070500Z 32005KT CAVOK M08/M10 Q1025 R09/650194=
201901070530 METAR LRAR 070530Z 34006KT CAVOK M07/M09 Q1025 R09/650194=
201901070600 METAR LRAR 070600Z 36007KT CAVOK M07/M09 Q1025 R09/CLRD//=
201901070630 METAR LRAR 070630Z 36005KT CAVOK M07/M09 Q1026=
201901070700 METAR LRAR 070700Z 33005KT CAVOK M07/M09 Q1026=
201901070730 METAR LRAR 070730Z 33006KT CAVOK M07/M08 Q1026=
201901070800 METAR LRAR 070800Z 34004KT CAVOK M06/M08 Q1027=
201901070830 METAR LRAR 070830Z 35005KT CAVOK M05/M07 Q1027=
201901070900 METAR LRAR 070900Z 35006KT CAVOK M05/M07 Q1028=
201901070930 METAR LRAR 070930Z 35006KT CAVOK M04/M07 Q1028=
201901071000 METAR LRAR 071000Z 35006KT CAVOK M04/M07 Q1027=
201901071030 METAR LRAR 071030Z 01011KT CAVOK M03/M07 Q1027=
201901071100 METAR LRAR 071100Z 01008KT 350V050 CAVOK M03/M06 Q1027=
201901071130 METAR LRAR 071130Z 36008KT CAVOK M03/M06 Q1027=
201901071200 METAR LRAR 071200Z 36009KT CAVOK M03/M07 Q1027=
201901071230 METAR LRAR 071230Z 36006KT CAVOK M03/M06 Q1027=
201901071300 METAR LRAR 071300Z 01005KT 340V060 CAVOK M03/M07 Q1027=
201901071330 METAR LRAR 071330Z 33008KT CAVOK M04/M07 Q1027=
201901071400 METAR LRAR 071400Z 36005KT CAVOK M04/M07 Q1028=
201901071430 METAR LRAR 071430Z 34005KT CAVOK M05/M08 Q1028=
201901071500 METAR LRAR 071500Z 31003KT CAVOK M06/M08 Q1028=
201901071530 METAR LRAR 071530Z 29005KT CAVOK M07/M09 Q1028=
201901071600 METAR LRAR 071600Z 27004KT CAVOK M08/M09 Q1028=
201901071630 METAR LRAR 071630Z 28004KT 6000 NSC M09/M09 Q1028=
201901071700 METAR LRAR 071700Z 27005KT 6000 NSC M10/M10 Q1028=
201901071730 METAR LRAR 071730Z AUTO 28005KT 6000 NCD M10/M11 Q1028=
201901071800 METAR LRAR 071800Z AUTO 28003KT 5000 BR NCD M11/M11 Q1028=
201901071830 METAR LRAR 071830Z AUTO 26002KT 6000 NCD M10/M10 Q1028=
201901071900 METAR LRAR 071900Z AUTO 27002KT 1900 R27/1000VP2000D FZFG
                        NCD M10/M11 Q1028=
201901071930 METAR LRAR 071930Z AUTO 24002KT 4200 R27/1700VP2000D NCD
                        M10/M11 Q1028=
201901072000 METAR LRAR 072000Z AUTO 25002KT 6000 NCD M12/M12 Q1028=
201901072030 METAR LRAR 072030Z AUTO 25002KT 5000 NCD M12/M12 Q1028=
201901072100 METAR LRAR 072100Z AUTO 25002KT 5000 BR NCD M12/M13 Q1028=
201901072130 METAR LRAR 072130Z AUTO 22001KT 6000 NCD M11/M12 Q1028=
201901072200 METAR LRAR 072200Z AUTO 21002KT 170V240 7000 NCD M13/M14
                        Q1028=
201901072230 METAR LRAR 072230Z AUTO 15003KT 5000 BR NCD M13/M14 Q1028=
201901072300 METAR LRAR 072300Z AUTO 15002KT 6000 NCD M13/M14 Q1027=
201901072330 METAR LRAR 072330Z AUTO 19003KT 7000 NCD M13/M14 Q1027=
201901080000 METAR LRAR 080000Z AUTO 18003KT 7000 NCD M12/M13 Q1027=
201901080030 METAR LRAR 080030Z AUTO 17003KT 6000 NCD M13/M14 Q1027=
201901080100 METAR LRAR 080100Z AUTO 16004KT 6000 NCD M13/M14 Q1027=
201901080130 METAR LRAR 080130Z AUTO 15004KT 5000 NCD M12/M13 Q1026=
201901080200 METAR LRAR 080200Z AUTO 18002KT 140V210 6000 NCD M12/M13
                        Q1026=
201901080230 METAR LRAR 080230Z AUTO 18003KT 150V210 6000 NCD M12/M13
                        Q1025=
201901080300 METAR LRAR 080300Z AUTO VRB01KT 6000 NCD M12/M13 Q1025=
201901080330 METAR LRAR 080330Z AUTO 20003KT 5000 NCD M12/M13 Q1025=
201901080400 METAR LRAR 080400Z AUTO 19002KT 160V230 6000 NCD M11/M12
                        Q1024=
201901080430 METAR LRAR 080430Z AUTO 17003KT 6000 NCD M11/M11 Q1024=
201901080500 METAR LRAR 080500Z 17003KT 6000 NSC M10/M11 Q1024=
201901080530 METAR LRAR 080530Z 16006KT 7000 NSC M10/M11 Q1023=
201901080600 METAR LRAR 080600Z 16005KT 7000 NSC M10/M11 Q1023=
201901080630 METAR LRAR 080630Z 16007KT 7000 NSC M09/M10 Q1023=
201901080700 METAR LRAR 080700Z 17007KT 7000 NSC M09/M09 Q1022=
201901080730 METAR LRAR 080730Z 18007KT 8000 NSC M08/M09 Q1022=
201901080800 METAR LRAR 080800Z 17007KT 8000 SCT035 M07/M08 Q1022=
201901080830 METAR LRAR 080830Z 17007KT 9999 FEW034 M06/M08 Q1021=
201901080900 METAR LRAR 080900Z 18010KT 9999 FEW040 M06/M08 Q1021=
201901080930 METAR LRAR 080930Z 18012KT CAVOK M06/M08 Q1020=
201901081000 METAR LRAR 081000Z 16013KT CAVOK M06/M08 Q1019=
201901081030 METAR LRAR 081030Z 16012KT 9999 FEW037 SCT042 M05/M08 Q1018=
201901081100 METAR LRAR 081100Z 17013KT 9999 SCT038 BKN045 M05/M07 Q1017=
201901081130 METAR LRAR 081130Z 17010KT 9999 -SN BKN035 M05/M07 Q1017=
201901081200 METAR LRAR 081200Z 18009KT 9999 -SN BKN033 M04/M07 Q1016=
201901081230 METAR LRAR 081230Z 18010KT 9999 BKN030 M04/M07 Q1016=
201901081300 METAR LRAR 081300Z 18009KT 9999 BKN026 M04/M07 Q1015=
201901081330 METAR LRAR 081330Z 17008KT 8000 -SN SCT014 BKN028 M04/M07
                        Q1015=
201901081400 METAR LRAR 081400Z 16010KT 9999 FEW007 SCT011 OVC016 M04/M06
                        Q1014=
201901081430 METAR LRAR 081430Z 16008KT 9999 -SN SCT011 BKN016 BKN026
                        M04/M06 Q1014=
201901081500 METAR LRAR 081500Z 16011KT 7000 -SN FEW009 BKN014 OVC025
                        M04/M06 Q1013=
201901081530 METAR LRAR 081530Z 17010KT 6000 -SN BKN012 OVC016 M04/M05
                        Q1013=
201901081600 METAR LRAR 081600Z 17013KT 3000 SN BR BKN008 OVC010 M04/M05
                        Q1012=
201901081630 METAR LRAR 081630Z 17012KT 5000 -SN BR FEW007 SCT009 BKN014
                        M04/M05 Q1012 RESN=
201901081700 METAR LRAR 081700Z 17013KT 4000 -SN BR FEW007 SCT009 OVC013
                        M04/M05 Q1011 RESN=
201901081730 METAR LRAR 081730Z AUTO 18013KT 4400 -SN VV010 M04/M05 Q1011=
201901081800 METAR LRAR 081800Z AUTO 17013KT 3600 -SN VV008 M04/M05 Q1011=
201901081830 METAR LRAR 081830Z AUTO 18014KT 2600 -SN VV006 M04/M04 Q1011=
201901081900 METAR LRAR 081900Z AUTO 17012KT 2200 -SN VV006 M04/M04 Q1010=
201901081930 METAR LRAR 081930Z AUTO 17013KT 3500 -SN VV007 M04/M04 Q1010=
201901082000 METAR LRAR 082000Z AUTO 17011KT 9000 -SN FEW006/// BKN014///
                        M04/M04 Q1010=
201901082030 METAR LRAR 082030Z AUTO 17011KT 6000 -SHSN FEW009/// BKN011///
                        M04/M04 Q1009=
201901082100 METAR LRAR 082100Z AUTO 17010KT 9999 -SHSN FEW007/// SCT010///
                        BKN015/// M04/M04 Q1009=
201901082130 METAR LRAR 082130Z AUTO 17010KT 9999 FEW007/// BKN021///
                        M03/M04 Q1009 RESN=
201901082200 METAR LRAR 082200Z AUTO 17011KT 9999 FEW022/// BKN036///
                        M03/M04 Q1008=
201901082230 METAR LRAR 082230Z AUTO 17011KT 9999 FEW015/// SCT040///
                        BKN050/// M03/M04 Q1008=
201901082300 METAR LRAR 082300Z AUTO 17009KT 4400 -SN VV011 M03/M04 Q1007=
201901082330 METAR LRAR 082330Z AUTO 17009KT 2400 -SN VV006 M03/M03 Q1007=
201901090000 METAR LRAR 090000Z AUTO 16008KT 140V200 3000 R27/1900VP2000U
                        -SN VV006 M03/M03 Q1007=
201901090030 METAR LRAR 090030Z AUTO 18010KT 3000 -SN SCT006/// OVC008///
                        ///// Q1007=
201901090100 METAR LRAR 090100Z AUTO 18009KT 5000 -SN FEW005/// BKN008///
                        BKN010/// ///// Q1007=
201901090130 METAR LRAR 090130Z AUTO 17011KT 3600 -SN FEW005/// BKN008///
                        OVC010/// ///// Q1006=
201901090200 METAR LRAR 090200Z AUTO 19011KT 3100 -SN FEW004/// BKN007///
                        OVC010/// ///// Q1006=
201901090230 METAR LRAR 090230Z AUTO 19011KT 3200 -SN FEW003/// BKN007///
                        OVC009/// ///// Q1006=
201901090300 METAR LRAR 090300Z AUTO 19007KT 2600 -SN FEW003/// SCT005///
                        OVC008/// ///// Q1006=
201901090330 METAR LRAR 090330Z AUTO 18008KT 150V210 5000 -SN FEW003///
                        BKN005/// BKN007/// ///// Q1005=
201901090400 METAR LRAR 090400Z AUTO 19011KT 6000 -SHSN BKN004/// OVC006///
                        ///// Q1005=
201901090430 METAR LRAR 090430Z AUTO 20009KT 3600 -SHSN BKN003/// BKN005///
                        ///// Q1005=
201901090500 METAR LRAR 090500Z 20009KT 5000 -SN BR BKN003 BKN005 M01/M01
                        Q1005=
201901090530 METAR LRAR 090530Z 20011KT 4500 -SN BR SCT003 OVC005 M01/M01
                        Q1005 R09/599092=
201901090600 METAR LRAR 090600Z 20010KT 4500 -SN BR FEW003 BKN005 OVC035
                        M01/M01 Q1005 R09/599092=
201901090630 METAR LRAR 090630Z 19011KT 5000 -SN BR SCT006 OVC040 M01/M01
                        Q1005 R09/599092=
201901090700 METAR LRAR 090700Z 18010KT 7000 FEW007 BKN035 M00/M00 Q1005
                        R09/599092=
201901090730 METAR LRAR 090730Z 17008KT 6000 FEW007 OVC040 00/00 Q1005
                        R09/599092=
201901090800 METAR LRAR 090800Z 18008KT 5000 -SN BR FEW003 OVC033 M00/M00
                        Q1005 R09/790591=
201901090830 METAR LRAR 090830Z 20009KT 6000 -SN SCT003 M00/M00 Q1005
                        R09/790591=
201901090900 METAR LRAR 090900Z 19007KT 6000 -SN FEW004 SCT022 00/00 Q1005
                        R09/790591=
201901090930 METAR LRAR 090930Z 21007KT 6000 -SN FEW005 SCT023 00/00 Q1005
                        R09/790591=
201901091000 METAR LRAR 091000Z 19008KT 9000 FEW005 SCT019 BKN024 00/00
                        Q1005 R09/790591=
201901091030 METAR LRAR 091030Z 19009KT 9999 FEW009 SCT027 01/M00 Q1005
                        R09/790591=
201901091100 METAR COR LRAR 091100Z 18011KT CAVOK 01/M01 Q1005 R09/29//95=
201901091130 METAR LRAR 091130Z 19011KT 9999 FEW040 01/M01 Q1005 R09/29//95=
201901091200 METAR LRAR 091200Z 17009KT 9999 SCT036 01/M01 Q1004 R09/29//95=
201901091230 METAR LRAR 091230Z 14006KT 9999 FEW042 01/M01 Q1004 R09/29//95=
201901091300 METAR LRAR 091300Z 16007KT 9999 FEW029 01/M01 Q1005 R09/29//95=
201901091330 METAR LRAR 091330Z 15006KT 9999 FEW039 01/M01 Q1005 R09/29//95=
201901091400 METAR LRAR 091400Z 17005KT 130V240 9999 SCT033 01/M01 Q1005
                        R09/29//95=
201901091430 METAR LRAR 091430Z 16004KT 9999 FEW026 BKN032 01/M01 Q1005
                        R09/29//95=
201901091500 METAR LRAR 091500Z 19003KT 160V230 9999 -SN FEW008 OVC047
                        01/M01 Q1005 R09/25//95=
201901091530 METAR LRAR 091530Z 17003KT 9999 -SN FEW020 SCT029 01/M01
                        Q1005 R09/25//95=
201901091600 METAR LRAR 091600Z 17005KT 7000 -SN FEW004 OVC027 00/M01
                        Q1005 R09/25//95=
201901091630 METAR LRAR 091630Z 15005KT 9999 FEW026 BKN030 00/M01 Q1005
                        R09/25//95=
201901091700 METAR LRAR 091700Z 16005KT 9999 SCT030 00/M01 Q1005 R09/790192=
201901091730 METAR LRAR 091730Z AUTO 22002KT 9000 SCT028/// BKN050///
                        00/M01 Q1005=
201901091800 METAR LRAR 091800Z AUTO VRB01KT 9999 FEW029/// BKN050///
                        M00/M01 Q1006=
201901091830 METAR LRAR 091830Z AUTO 05002KT 010V080 6000 BKN050/// M00/M01
                        Q1006=
201901091900 METAR LRAR 091900Z AUTO 13001KT 5000 BR FEW028/// BKN056///
                        M01/M01 Q1006=
201901091930 METAR LRAR 091930Z AUTO 35002KT 320V130 4100 BR BKN050///
                        M02/M02 Q1006=
201901092000 METAR LRAR 092000Z AUTO 35003KT 4500 BR FEW028/// BKN056///
                        M01/M01 Q1006=
201901092030 METAR LRAR 092030Z AUTO VRB01KT 5000 BR FEW017/// BKN056///
                        M01/M01 Q1006=
201901092100 METAR LRAR 092100Z AUTO 07003KT 5000 BR BKN015/// OVC018///
                        M01/M01 Q1006=
201901092130 METAR LRAR 092130Z AUTO 03003KT 5000 BR SCT013/// OVC016///
                        M00/M01 Q1006=
201901092200 METAR LRAR 092200Z AUTO 02004KT 5000 BR OVC015/// M00/M01
                        Q1006=
201901092230 METAR LRAR 092230Z AUTO 02004KT 6000 BKN013/// M01/M02 Q1006=
201901092300 METAR LRAR 092300Z AUTO 03004KT 6000 BKN016/// M01/M01 Q1006=
201901092330 METAR LRAR 092330Z AUTO 04004KT 6000 BKN014/// M01/M02 Q1006=
201901100000 METAR LRAR 100000Z AUTO 03004KT 5000 BR NCD M01/M02 Q1006=
201901100030 METAR LRAR 100030Z AUTO 36005KT 4700 BR FEW012/// M02/M02
                        Q1007=
201901100100 METAR LRAR 100100Z AUTO 03007KT 0550 R27/0650D FG VV001 /////
                        Q1007=
201901100130 METAR LRAR 100130Z AUTO 01005KT 330V040 0750 R27/0900N FG
                        VV001 ///// Q1007=
201901100200 METAR LRAR 100200Z AUTO 02008KT 0600 R27/0700N IC VV001 /////
                        Q1007=
201901100230 METAR LRAR 100230Z AUTO 02006KT 0800 R27/0900V1100N FG VV001
                        ///// Q1007=
201901100300 METAR LRAR 100300Z AUTO 36006KT 0650 R27/0800N -SHSN VV001
                        ///// Q1007=
201901100330 METAR LRAR 100330Z AUTO 36008KT 1100 R27/1200N FG VV001 /////
                        Q1007=
201901100400 METAR LRAR 100400Z AUTO 36009KT 0700 R27/0800N -SHSN VV001
                        ///// Q1007=
201901100430 METAR LRAR 100430Z AUTO 36008KT 0800 R27/0900U FG VV001 /////
                        Q1007=
201901100500 METAR COR LRAR 100500Z 01008KT 0800 R09/1000 R27/1200 FG
                        VV002 M01/M01 Q1008 R09/790192=
201901100530 METAR LRAR 100530Z 02005KT 340V050 1500 R27/1500VP2000U BR
                        OVC001 M01/M01 Q1008 R09/790192=
201901100600 METAR LRAR 100600Z 02008KT 2500 BR BKN001 M02/M02 Q1008 R09/790192=
201901100630 METAR LRAR 100630Z 01007KT 2000 BR BKN001 OVC003 M02/M02
                        Q1009 R09/790192=
201901100700 METAR LRAR 100700Z 02009KT 1500 BR BKN001 OVC003 M02/M02
                        Q1009 R09/790192=
201901100730 METAR LRAR 100730Z 01009KT 2000 BR BKN001 OVC003 M03/M03
                        Q1009 R09/790192=
201901100800 METAR LRAR 100800Z 36009KT 2000 BR BKN002 OVC004 M03/M03
                        Q1009 R09/790192=
201901100830 METAR LRAR 100830Z 36010KT 2000 BR OVC002 M02/M02 Q1010 R09/790192=
201901100900 METAR LRAR 100900Z 01010KT 3000 BR SCT003 BKN005 M02/M02
                        Q1010 R09/790393=
201901100930 METAR LRAR 100930Z 02010KT 3000 BR SCT003 OVC004 M02/M02
                        Q1010 R09/790393=
201901101000 METAR LRAR 101000Z 01010KT 3000 BR SCT003 OVC004 M02/M02
                        Q1010 R09/790393=
201901101030 METAR LRAR 101030Z 02012KT 3000 BR SCT002 OVC004 M02/M02
                        Q1010 R09/790393=
201901101100 METAR LRAR 101100Z 02011KT 2500 BR BKN002 M02/M02 Q1009 R09/790393=
201901101130 METAR LRAR 101130Z 01012KT 2500 BR BKN002 OVC004 M02/M02
                        Q1009 R09/29//95=
201901101200 METAR LRAR 101200Z 02010KT 3000 BR BKN003 OVC005 M02/M02
                        Q1009 R09/29//95=
201901101230 METAR LRAR 101230Z 01011KT 3000 BR BKN004 OVC006 M01/M01
                        Q1009 R09/29//95=
201901101300 METAR LRAR 101300Z 01011KT 4000 BR SCT004 OVC006 M01/M01
                        Q1009 R09/29//95=
201901101330 METAR LRAR 101330Z 02009KT 4500 BR SCT004 OVC006 M01/M01
                        Q1009 R09/29//95=
201901101400 METAR LRAR 101400Z 01009KT 4500 BR OVC005 M01/M01 Q1009=
201901101430 METAR LRAR 101430Z 02010KT 7000 BKN006 OVC008 M01/M01 Q1009
                        R09/29//95=
201901101500 METAR LRAR 101500Z 36009KT 7000 BKN008 BKN010 M01/M02 Q1009
                        R09/29//95=
201901101530 METAR LRAR 101530Z 34004KT 5000 BR FEW009 BKN011 M02/M03
                        Q1009 R09/19//95=
201901101600 METAR LRAR 101600Z 35004KT 5000 BR SCT011 M03/M04 Q1009 R09/19//95=
201901101630 METAR LRAR 101630Z 34004KT 6000 FEW015 M04/M04 Q1010 R09/19//95=
201901101700 METAR LRAR 101700Z 33004KT 5000 BR FEW025 M04/M05 Q1010 R09/19//95=
201901101730 METAR LRAR 101730Z AUTO 33005KT 5000 BR NCD M04/M05 Q1010=
201901101800 METAR LRAR 101800Z AUTO 32004KT 5000 BR NCD M04/M05 Q1010=
201901101830 METAR LRAR 101830Z AUTO 35003KT 5000 BR NCD M04/M05 Q1010=
201901101900 METAR LRAR 101900Z AUTO 34005KT 5000 BR NCD M04/M05 Q1010=
201901101930 METAR LRAR 101930Z AUTO 35005KT 5000 BR NCD M04/M05 Q1011=
201901102000 METAR LRAR 102000Z AUTO 34006KT 5000 BR NCD M05/M05 Q1011=
201901102030 METAR LRAR 102030Z AUTO 36007KT 5000 BR NCD M04/M05 Q1011=
201901102100 METAR LRAR 102100Z AUTO 36009KT 6000 NCD M04/M04 Q1011=
201901102130 METAR LRAR 102130Z AUTO 36012KT 6000 NCD M04/M05 Q1011=
201901102200 METAR LRAR 102200Z AUTO 36012KT 6000 NCD M03/M05 Q1011=
201901102230 METAR LRAR 102230Z AUTO 36012KT 6000 NCD M03/M05 Q1011=
201901102300 METAR LRAR 102300Z AUTO 35007KT 6000 NCD M04/M05 Q1011=
201901102330 METAR LRAR 102330Z AUTO 35007KT 5000 BR NCD M04/M05 Q1012=
201901110000 METAR LRAR 110000Z AUTO 36011KT 6000 NCD M04/M05 Q1012=
201901110030 METAR LRAR 110030Z AUTO 36010KT 6000 NCD M04/M05 Q1012=
201901110100 METAR LRAR 110100Z AUTO 35009KT 6000 NCD M04/M05 Q1012=
201901110130 METAR LRAR 110130Z AUTO 34007KT 6000 NCD M04/M05 Q1012=
201901110200 METAR LRAR 110200Z AUTO 34007KT 6000 NCD M04/M06 Q1013=
201901110230 METAR LRAR 110230Z AUTO 34009KT 6000 NCD M04/M05 Q1013=
201901110300 METAR LRAR 110300Z AUTO 33009KT 6000 FEW014/// M04/M06 Q1013=
201901110330 METAR LRAR 110330Z AUTO 33011KT 5000 -FZDZ SCT010/// BKN013///
                        M04/M06 Q1013=
201901110400 METAR LRAR 110400Z AUTO 31010KT 6000 UP FEW010/// BKN013///
                        M05/M06 Q1013=
201901110430 METAR LRAR 110430Z AUTO 33011KT 6000 -FZDZ FEW010/// SCT013///
                        M05/M06 Q1014=
201901110500 METAR LRAR 110500Z 33011KT 6000 NSC M05/M06 Q1014 R09/19//95=
201901110530 METAR LRAR 110530Z 33010KT 6000 NSC M05/M06 Q1014 R09/CLRD//=
201901110600 METAR LRAR 110600Z 33010KT 6000 NSC M04/M06 Q1015=
201901110630 METAR LRAR 110630Z 33010KT 6000 NSC M05/M06 Q1015=
201901110700 METAR LRAR 110700Z 32010KT 6000 NSC M05/M07 Q1015=
201901110730 METAR LRAR 110730Z 33011KT 6000 NSC M05/M07 Q1016=
201901110800 METAR LRAR 110800Z 32010KT 6000 FEW017 M05/M07 Q1016=
201901110830 METAR LRAR 110830Z 32008KT 6000 NSC M04/M06 Q1016=
201901110900 METAR LRAR 110900Z 32009KT 6000 NSC M04/M06 Q1017=
201901110930 METAR LRAR 110930Z 33009KT 8000 NSC M04/M06 Q1017=
201901111000 METAR LRAR 111000Z 33009KT 8000 NSC M03/M06 Q1017=
201901111030 METAR LRAR 111030Z 34007KT 8000 NSC M03/M06 Q1017=
201901111100 METAR LRAR 111100Z 35007KT CAVOK M03/M06 Q1017=
201901111130 METAR LRAR 111130Z 34007KT CAVOK M03/M06 Q1017=
201901111200 METAR LRAR 111200Z 33007KT CAVOK M03/M06 Q1017=
201901111230 METAR LRAR 111230Z 29005KT CAVOK M03/M06 Q1017=
201901111300 METAR LRAR 111300Z 31006KT CAVOK M02/M05 Q1017=
201901111330 METAR LRAR 111330Z 30007KT CAVOK M02/M06 Q1018=
201901111400 METAR LRAR 111400Z 28006KT CAVOK M03/M05 Q1018=
201901111430 METAR LRAR 111430Z 27006KT 8000 NSC M04/M06 Q1018=
201901111500 METAR LRAR 111500Z 26005KT 7000 NSC M05/M07 Q1018=
201901111530 METAR LRAR 111530Z 26005KT 5000 BR NSC M06/M07 Q1019=
201901111600 METAR LRAR 111600Z 25003KT 4800 BR NSC M06/M07 Q1019=
201901111630 METAR LRAR 111630Z 16002KT 140V200 4900 BR NSC M07/M08 Q1019=
201901111700 METAR LRAR 111700Z 15002KT 4500 BR NSC M08/M09 Q1019=
201901111730 METAR LRAR 111730Z AUTO 17004KT 4100 BR NCD M08/M08 Q1019=
201901111800 METAR LRAR 111800Z AUTO 17003KT 4200 BR NCD M08/M09 Q1019=
201901111830 METAR LRAR 111830Z AUTO 14005KT 4500 BR FEW028/// M08/M08
                        Q1019=
201901111900 METAR LRAR 111900Z AUTO 15005KT 4800 BR OVC028/// M06/M07
                        Q1019=
201901111930 METAR LRAR 111930Z AUTO 16005KT 4900 BR BKN028/// M05/M06
                        Q1019=
201901112000 METAR LRAR 112000Z AUTO 17007KT 5000 BR BKN028/// M04/M05
                        Q1019=
201901112030 METAR LRAR 112030Z AUTO 18006KT 5000 BR BKN029/// M04/M04
                        Q1019=
201901112100 METAR LRAR 112100Z AUTO 19007KT 5000 BR FEW023/// BKN032///
                        M03/M04 Q1019=
201901112130 METAR LRAR 112130Z AUTO 18006KT 5000 BR FEW023/// BKN032///
                        M03/M04 Q1019=
201901112200 METAR LRAR 112200Z AUTO 19004KT 5000 BR BKN031/// M03/M04
                        Q1019=
201901112230 METAR LRAR 112230Z AUTO 19005KT 5000 BR BKN031/// M03/M04
                        Q1019=
201901112300 METAR LRAR 112300Z AUTO 18003KT 140V220 4600 BR BKN029///
                        M04/M04 Q1019=
201901112330 METAR LRAR 112330Z AUTO 17003KT 3800 BR FEW029/// M04/M04
                        Q1018=
201901120000 METAR LRAR 120000Z AUTO 22004KT 3500 BR FEW061/// ///// Q1018=
201901120030 METAR LRAR 120030Z AUTO 20003KT 3000 R27/2000 BR FEW061///
                        ///// Q1018=
201901120100 METAR LRAR 120100Z AUTO 19005KT 3900 BR NCD M07/M07 Q1018=
201901120130 METAR LRAR 120130Z AUTO 19003KT 4500 BR NCD M07/M07 Q1018=
201901120200 METAR LRAR 120200Z AUTO 20004KT 4700 BR NCD M07/M07 Q1018=
201901120230 METAR LRAR 120230Z AUTO 21005KT 4900 BR NCD M07/M07 Q1018=
201901120300 METAR LRAR 120300Z AUTO 21005KT 6000 BKN040/// BKN046///
                        M06/M06 Q1018=
201901120330 METAR LRAR 120330Z AUTO 21006KT 8000 OVC042/// M06/M06 Q1017=
201901120400 METAR LRAR 120400Z AUTO 21004KT 9999 BKN045/// M06/M06 Q1017=
201901120430 METAR LRAR 120430Z AUTO 20005KT 9999 OVC044/// M05/M06 Q1017=
201901120500 METAR LRAR 120500Z 20005KT 9999 OVC045 M05/M06 Q1017=
201901120530 METAR LRAR 120530Z 20005KT 9999 OVC044 M05/M06 Q1017=
201901120600 METAR LRAR 120600Z 19007KT 9999 FEW035 BKN044 M04/M06 Q1017=
201901120630 METAR LRAR 120630Z 20008KT 9999 -SN OVC030 M04/M06 Q1017=
201901120700 METAR LRAR 120700Z 20009KT 170V230 9999 -SN FEW008 SCT013
                        BKN031 M04/M06 Q1017=
201901120730 METAR LRAR 120730Z 20010KT 9999 -SN SCT022 BKN026 M03/M06
                        Q1017=
201901120800 METAR LRAR 120800Z 21011KT 8000 -SN FEW010 BKN016 M04/M05
                        Q1017=
201901120830 METAR LRAR 120830Z 21011KT 4000 -SN BR BKN013 M03/M04 Q1017=
201901120900 METAR LRAR 120900Z 21010KT 2000 -SN BR FEW006 SCT009 OVC011
                        M03/M03 Q1017=
201901120930 METAR LRAR 120930Z 21010KT 2000 BR SCT004 BKN007 OVC008 M03/M03
                        Q1016=
201901121000 METAR LRAR 121000Z 22010KT 2000 BR BKN003 OVC005 M02/M02
                        Q1016=
201901121030 METAR LRAR 121030Z 23009KT 2000 -SG BR SCT003 OVC005 M02/M02
                        Q1016=
201901121100 METAR LRAR 121100Z 23008KT 2000 -SG BR SCT004 OVC006 M01/M01
                        Q1015=
201901121130 METAR LRAR 121130Z 23007KT 3000 BR SCT003 OVC005 M01/M01
                        Q1015=
201901121200 METAR LRAR 121200Z 24006KT 3000 -FZDZ BR BKN003 OVC006 M01/M01
                        Q1015 R09/390191=
201901121230 METAR LRAR 121230Z 23003KT 200V280 6000 -SN FEW006 BKN008
                        OVC010 M01/M01 Q1015 R09/390191=
201901121300 METAR LRAR 121300Z 25004KT 5000 -SG BR FEW006 SCT008 OVC016
                        M01/M01 Q1015 R09/390191=
201901121330 METAR LRAR 121330Z VRB02KT 5000 -SG BR FEW005 SCT009 OVC015
                        M01/M01 Q1015 R09/390191=
201901121400 METAR LRAR 121400Z 19003KT 3000 -SN BR SCT006 OVC015 M01/M01
                        Q1015 R09/390191=
201901121430 METAR LRAR 121430Z 14004KT 2500 -SN BR FEW005 BKN009 OVC015
                        M01/M01 Q1015 R09/390191=
201901121500 METAR LRAR 121500Z 13004KT 2500 -SN BR SCT005 BKN008 OVC016
                        M01/M01 Q1015 R09/690193=
201901121530 METAR LRAR 121530Z 16004KT 3000 BR SCT008 OVC015 M01/M01
                        Q1015 R09/690193=
201901121600 METAR LRAR 121600Z 15004KT 4000 -SN BR OVC015 M01/M01 Q1015
                        R09/690193=
201901121630 METAR LRAR 121630Z 15005KT 4000 -SN BR OVC016 M01/M01 Q1015
                        R09/690193=
201901121700 METAR LRAR 121700Z 14005KT 4000 -SN BR OVC015 M01/M01 Q1015
                        R09/690193=
201901121730 METAR LRAR 121730Z AUTO 14007KT 4000 FEW003/// BKN014///
                        M01/M01 Q1015 RESN=
201901121800 METAR LRAR 121800Z AUTO 15008KT 4300 BR FEW003/// BKN006///
                        M02/M02 Q1015=
201901121830 METAR LRAR 121830Z AUTO 15009KT 4000 BR BKN005/// M02/M02
                        Q1015=
201901121900 METAR LRAR 121900Z AUTO 14008KT 3600 BR BKN003/// M02/M02
                        Q1014=
201901121930 METAR LRAR 121930Z AUTO 16008KT 3400 BR BKN002/// BKN005///
                        M02/M02 Q1014=
201901122000 METAR LRAR 122000Z AUTO 16009KT 3100 R27/2000 BR OVC002///
                        M02/M02 Q1014=
201901122030 METAR LRAR 122030Z AUTO 15011KT 2900 BR BKN002/// M02/M02
                        Q1014=
201901122100 METAR LRAR 122100Z AUTO 16008KT 3300 R27/2000 BR OVC002///
                        M02/M02 Q1014=
201901122130 METAR LRAR 122130Z AUTO 18007KT 4000 BR BKN002/// BKN004///
                        M01/M01 Q1014=
201901122200 METAR LRAR 122200Z AUTO 16008KT 4300 BR BKN003/// OVC009///
                        M01/M01 Q1013=
201901122230 METAR LRAR 122230Z AUTO 18008KT 5000 BR FEW004/// BKN010///
                        M01/M01 Q1013=
201901122300 METAR LRAR 122300Z AUTO 18008KT 5000 BR BKN010/// M01/M01
                        Q1013=
201901122330 METAR LRAR 122330Z AUTO 17009KT 5000 BR BKN010/// M01/M01
                        Q1012=
201901130000 METAR LRAR 130000Z AUTO 18008KT 4700 SG OVC010/// M01/M01
                        Q1012=
201901130030 METAR LRAR 130030Z AUTO 18008KT 4200 -FZRA FEW004/// BKN010///
                        M01/M01 Q1012=
201901130100 METAR LRAR 130100Z AUTO 18006KT 3800 -FZRA SCT004/// BKN009///
                        M01/M01 Q1012=
201901130130 METAR LRAR 130130Z AUTO 18009KT 4100 FEW004/// BKN008///
                        M01/M01 Q1012 REFZRA=
201901130200 METAR LRAR 130200Z AUTO 17008KT 4400 BR FEW004/// BKN007///
                        M01/M01 Q1011=
201901130230 METAR LRAR 130230Z AUTO 18007KT 4600 BR FEW003/// SCT008///
                        BKN028/// M01/M01 Q1011=
201901130300 METAR LRAR 130300Z AUTO 17007KT 4600 BR BKN004/// BKN033///
                        M01/M01 Q1011=
201901130330 METAR LRAR 130330Z AUTO 18006KT 4400 -FZDZ SCT004/// BKN006///
                        BKN016/// M01/M01 Q1011=
201901130400 METAR LRAR 130400Z AUTO 16008KT 4000 -SN FEW003/// SCT006///
                        BKN009/// M01/M01 Q1011=
201901130430 METAR LRAR 130430Z AUTO 16005KT 4100 -FZRA FEW003/// SCT021///
                        BKN042/// M01/M01 Q1011=
201901130500 METAR LRAR 130500Z 19007KT 4200 -SN BR FEW003 SCT007 OVC034
                        M01/M01 Q1011 R09/690193=
201901130530 METAR LRAR 130530Z 18008KT 3100 -SN BR FEW003 SCT005 OVC035
                        M01/M01 Q1010 R09/690193=
201901130600 METAR LRAR 130600Z 18009KT 2900 -SN BR FEW003 BKN009 OVC035
                        M01/M01 Q1010 R09/590391=
201901130630 METAR LRAR 130630Z 19008KT 2100 -SN BR FEW003 SCT009 OVC035
                        M01/M01 Q1010 R09/590391=
201901130700 METAR LRAR 130700Z 19008KT 1800 SN BR FEW003 BKN009 M01/M01
                        Q1010 R09/590391=
201901130730 METAR LRAR 130730Z 19008KT 1800 SN BR SCT003 BKN007 M01/M01
                        Q1010 R09/590391=
201901130800 METAR LRAR 130800Z 18007KT 2000 SN BR FEW003 BKN006 M00/M00
                        Q1010 R09/591091=
201901130830 METAR LRAR 130830Z 18008KT 2500 -SN BR FEW003 SCT008 BKN024
                        M00/M00 Q1010 RESN R09/591091=
201901130900 METAR LRAR 130900Z 19008KT 2800 -SN BR FEW003 BKN008 00/00
                        Q1010 RESN R09/591091=
201901130930 METAR LRAR 130930Z 20008KT 1600 SN BR SCT002 BKN005 00/00
                        Q1009 R09/591091=
201901131000 METAR LRAR 131000Z 20008KT 2200 -SN BR SCT003 BKN007 00/00
                        Q1009 RESN R09/591091=
201901131030 METAR LRAR 131030Z 21010KT 1600 -SN BR BKN002 BKN008 00/00
                        Q1009 RESN R09/591091=
201901131100 METAR LRAR 131100Z 20010KT 1900 -SN BR BKN002 BKN008 00/00
                        Q1008 R09/591091=
201901131130 METAR LRAR 131130Z 20011KT 2700 BR BKN002 01/01 Q1008 R09/591091=
201901131200 METAR LRAR 131200Z 19012KT 3400 BR BKN002 01/01 Q1007 R09/591091=
201901131230 METAR LRAR 131230Z 19010KT 5000 BR SCT003 BKN024 01/01 Q1007
                        R09/620395=
201901131300 METAR LRAR 131300Z 20010KT 5000 BR FEW003 SCT024 BKN031 01/01
                        Q1007 R09/29//95=
201901131330 METAR LRAR 131330Z 20010KT 6000 FEW004 BKN040 01/01 Q1007
                        R09/29//95=
201901131400 METAR LRAR 131400Z 21012KT 6000 BKN035 BKN040 01/01 Q1006
                        R09/29//95=
201901131430 METAR LRAR 131430Z 21010KT 6000 FEW024 SCT028 OVC033 01/01
                        Q1006 R09/29//95=
201901131500 METAR LRAR 131500Z 21011KT 5000 BR SCT024 OVC028 01/01 Q1006
                        R09/29//95=
201901131530 METAR LRAR 131530Z 20011KT 6000 BKN024 01/01 Q1006 R09/29//95=
201901131600 METAR LRAR 131600Z 20011KT 6000 BKN026 01/01 Q1006 R09/29//95=
201901131630 METAR LRAR 131630Z 19011KT 6000 BKN025 01/01 Q1005 R09/29//95=
201901131700 METAR LRAR 131700Z 19011KT 6000 NSC 00/00 Q1005 R09/19//95=
201901131730 METAR LRAR 131730Z AUTO 19012KT 6000 FEW071/// 00/00 Q1004=
201901131800 METAR LRAR 131800Z AUTO 19011KT 5000 BR BKN034/// 00/00 Q1004=
201901131830 METAR LRAR 131830Z AUTO 20012KT 5000 BR FEW066/// 00/00 Q1004=
201901131900 METAR LRAR 131900Z AUTO 20011KT 5000 BR NCD M01/M01 Q1003=
201901131930 METAR LRAR 131930Z AUTO 19010KT 5000 BR NCD M01/M01 Q1003=
201901132000 METAR LRAR 132000Z AUTO 18009KT 5000 BR NCD M01/M01 Q1002=
201901132030 METAR LRAR 132030Z AUTO 19012KT 6000 NCD M00/M01 Q1002=
201901132100 METAR LRAR 132100Z AUTO 18012KT 6000 FEW076/// M01/M01 Q1002=
201901132130 METAR LRAR 132130Z AUTO 19011KT 6000 FEW076/// M01/M01 Q1001=
201901132200 METAR LRAR 132200Z AUTO 19012KT 6000 NCD M01/M01 Q1001=
201901132230 METAR LRAR 132230Z AUTO 18011KT 7000 FEW076/// M00/M01 Q1000=
201901132300 METAR LRAR 132300Z AUTO 18010KT 7000 NCD 00/M01 Q0999=
201901132330 METAR LRAR 132330Z AUTO 17011KT 9000 FEW066/// 00/M01 Q0998=
201901140000 METAR LRAR 140000Z AUTO 18011KT 9999 FEW061/// 00/M01 Q0998=
201901140030 METAR LRAR 140030Z AUTO 19009KT 9999 -FZDZ FEW006/// 01/M01
                        Q0998=
201901140100 METAR LRAR 140100Z AUTO 18010KT 9999 -FZDZ FEW009/// 01/M01
                        Q0997=
201901140130 METAR LRAR 140130Z AUTO 18012KT 9999 UP FEW011/// SCT046///
                        01/M01 Q0996=
201901140200 METAR LRAR 140200Z AUTO 18013KT 9999 -FZRA FEW008/// SCT016///
                        BKN040/// 01/M01 Q0996=
201901140230 METAR LRAR 140230Z AUTO 18014KT 8000 -FZDZ VV013 01/M01 Q0995=
201901140300 METAR LRAR 140300Z AUTO 20011KT 9000 -SN FEW010/// SCT013///
                        BKN018/// 01/M01 Q0995=
201901140330 METAR LRAR 140330Z AUTO 20012KT 6000 -SN FEW004/// SCT011///
                        BKN016/// 01/M00 Q0994=
201901140400 METAR LRAR 140400Z AUTO 20012KT 9999 -SN FEW009/// SCT011///
                        BKN018/// 01/00 Q0994=
201901140430 METAR LRAR 140430Z AUTO 21013KT 8000 -SN FEW005/// SCT010///
                        BKN019/// 02/01 Q0994=
201901140500 METAR COR LRAR 140500Z 23012KT 9999 FEW011 SCT028 BKN035
                        03/00 Q0994 R09/19//95=
201901140530 METAR LRAR 140530Z 22015KT 9999 FEW012 BKN035 BKN040 02/00
                        Q0994 R09/19//95=
201901140600 METAR LRAR 140600Z 22011KT 9999 SCT045 02/00 Q0994 R09/29//95=
201901140630 METAR LRAR 140630Z 23011KT 9999 BKN035 02/00 Q0994 R09/29//95=
201901140700 METAR LRAR 140700Z 22009KT 9999 FEW036 02/01 Q0995 R09/29//95=
201901140730 METAR LRAR 140730Z 20006KT 9999 FEW036 02/00 Q0995 R09/29//95=
201901140800 METAR COR LRAR 140800Z 26013KT CAVOK 04/01 Q0995 R09/29//95=
201901140830 METAR LRAR 140830Z 26016KT CAVOK 04/01 Q0996 R09/29//95=
201901140900 METAR LRAR 140900Z 27014KT CAVOK 04/02 Q0996 R09/29//95=
201901140930 METAR LRAR 140930Z 26014KT CAVOK 05/02 Q0996 R09/29//95=
201901141000 METAR LRAR 141000Z 26013KT CAVOK 04/02 Q0996 R09/29//95=
201901141030 METAR LRAR 141030Z 26012KT CAVOK 05/01 Q0996 R09/29//95=
201901141100 METAR LRAR 141100Z 26011KT CAVOK 05/01 Q0996 R09/29//95=
201901141130 METAR LRAR 141130Z 21008KT CAVOK 04/01 Q0996 R09/29//95=
201901141200 METAR LRAR 141200Z 26010KT CAVOK 04/01 Q0996 R09/29//95=
201901141230 METAR LRAR 141230Z 27009KT 9999 SCT045 04/01 Q0996 R09/29//95=
201901141300 METAR LRAR 141300Z 27010KT 9999 SCT046 04/00 Q0997 R09/CLRD//=
201901141330 METAR LRAR 141330Z 28009KT 9999 SCT043 04/01 Q0997=
201901141400 METAR LRAR 141400Z 28010KT 9999 SCT041 03/00 Q0997=
201901141430 METAR LRAR 141430Z 27008KT 9999 SCT042 03/00 Q0998=
201901141500 METAR LRAR 141500Z 28008KT 9999 FEW046 02/M00 Q0998=
201901141530 METAR LRAR 141530Z 28010KT CAVOK 02/M01 Q0999=
201901141600 METAR LRAR 141600Z 28011KT CAVOK 02/M01 Q0999=
201901141630 METAR LRAR 141630Z 27013KT CAVOK 02/M02 Q1000=
201901141700 METAR LRAR 141700Z 28010KT CAVOK 01/M02 Q1000=
201901141730 METAR LRAR 141730Z AUTO 30016KT 9999 NCD 02/M03 Q1000=
201901141800 METAR LRAR 141800Z AUTO 30013KT 9999 NCD 01/M03 Q1001=
201901141830 METAR LRAR 141830Z AUTO 30011KT 9999 NCD 01/M03 Q1001=
201901141900 METAR LRAR 141900Z AUTO 30011KT 9999 NCD 01/M03 Q1002=
201901141930 METAR LRAR 141930Z AUTO 29010KT 9999 NCD 00/M03 Q1002=
201901142000 METAR LRAR 142000Z AUTO 27008KT 9999 NCD M00/M04 Q1003=
201901142030 METAR LRAR 142030Z AUTO 29011KT 9999 NCD M01/M03 Q1003=
201901142100 METAR LRAR 142100Z AUTO 29012KT 9999 NCD M01/M03 Q1004=
201901142130 METAR LRAR 142130Z AUTO 28009KT 9999 NCD M01/M04 Q1004=
201901142200 METAR LRAR 142200Z AUTO 30011KT 9999 NCD M00/M05 Q1004=
201901142230 METAR LRAR 142230Z AUTO 29016KT 9999 NCD 00/M04 Q1005=
201901142300 METAR LRAR 142300Z AUTO 29018KT 9999 NCD 00/M04 Q1005=
201901142330 METAR LRAR 142330Z AUTO 28012KT 9999 FEW050/// M00/M03 Q1006=
201901150000 METAR LRAR 150000Z AUTO 29011KT 9999 NCD M01/M04 Q1006=
201901150030 METAR LRAR 150030Z AUTO 31012KT 9999 NCD M01/M05 Q1007=
201901150100 METAR LRAR 150100Z AUTO 31011KT 9999 NCD M02/M05 Q1007=
201901150130 METAR LRAR 150130Z AUTO 32013KT 9999 NCD M02/M04 Q1008=
201901150200 METAR LRAR 150200Z AUTO 33008KT 9999 NCD M03/M05 Q1008=
201901150230 METAR LRAR 150230Z AUTO 34007KT 9999 NCD M03/M05 Q1009=
201901150300 METAR LRAR 150300Z AUTO 35005KT 9999 NCD M03/M05 Q1009=
201901150330 METAR LRAR 150330Z AUTO 34008KT 9999 NCD M03/M06 Q1010=
201901150400 METAR LRAR 150400Z AUTO 34008KT 9999 NCD M04/M06 Q1011=
201901150430 METAR LRAR 150430Z AUTO 35005KT 9999 NCD M04/M07 Q1011=
201901150500 METAR LRAR 150500Z 32004KT CAVOK M05/M07 Q1011=
201901150530 METAR LRAR 150530Z 30006KT CAVOK M06/M08 Q1012=
201901150600 METAR LRAR 150600Z 27006KT CAVOK M06/M08 Q1012=
201901150630 METAR LRAR 150630Z 27006KT CAVOK M06/M08 Q1012=
201901150700 METAR LRAR 150700Z 27004KT CAVOK M07/M08 Q1012=
201901150730 METAR LRAR 150730Z 27008KT CAVOK M05/M07 Q1013=
201901150800 METAR LRAR 150800Z 27007KT CAVOK M04/M06 Q1013=
201901150830 METAR LRAR 150830Z 27009KT CAVOK M02/M05 Q1013=
201901150900 METAR LRAR 150900Z 27009KT CAVOK M02/M05 Q1013=
201901150930 METAR LRAR 150930Z 28010KT CAVOK M01/M04 Q1013=
201901151000 METAR LRAR 151000Z 29009KT 9999 FEW035 00/M04 Q1013=
201901151030 METAR LRAR 151030Z 28010KT 9999 FEW030 00/M03 Q1013=
201901151100 METAR LRAR 151100Z 28008KT 9999 FEW030 01/M03 Q1013=
201901151130 METAR LRAR 151130Z 28010KT 9999 FEW030 01/M03 Q1013=
201901151200 METAR LRAR 151200Z 29008KT 9999 FEW030 02/M03 Q1013=
201901151230 METAR LRAR 151230Z 28009KT 9999 FEW030 02/M02 Q1013=
201901151300 METAR LRAR 151300Z 27008KT 9999 SCT040 02/M02 Q1013=
201901151330 METAR LRAR 151330Z 27011KT 9999 SCT033 02/M02 Q1013=
201901151400 METAR LRAR 151400Z 28009KT 9999 FEW035 SCT049 02/M02 Q1014=
201901151430 METAR LRAR 151430Z 27007KT 9999 FEW039 SCT044 01/M02 Q1014=
201901151500 METAR LRAR 151500Z 27010KT 9999 FEW042 01/M02 Q1014=
201901151530 METAR LRAR 151530Z 26008KT 9999 SCT041 00/M02 Q1013=
201901151600 METAR LRAR 151600Z 25007KT CAVOK 01/M02 Q1013=
201901151630 METAR LRAR 151630Z 27007KT 9999 BKN037 01/M02 Q1013=
201901151700 METAR LRAR 151700Z 26007KT 9999 BKN038 01/M02 Q1014=
201901151730 METAR LRAR 151730Z AUTO 25010KT 9999 BKN043/// 02/M02 Q1014=
201901151800 METAR LRAR 151800Z AUTO 24009KT 9999 FEW028/// BKN042///
                        02/M02 Q1014=
201901151830 METAR LRAR 151830Z AUTO 24011KT 9999 FZRA FEW011/// BKN015///
                        01/M01 Q1014=
201901151900 METAR LRAR 151900Z AUTO 24011KT 9999 FEW011/// BKN042///
                        01/M01 Q1014=
201901151930 METAR LRAR 151930Z AUTO 24011KT 9999 BKN040/// 02/M01 Q1013
                        REFZRA=
201901152000 METAR LRAR 152000Z AUTO 25011KT 9999 FEW042/// 02/M02 Q1014=
201901152030 METAR LRAR 152030Z AUTO 25010KT 9999 FEW041/// 02/M02 Q1014=
201901152100 METAR LRAR 152100Z AUTO 25010KT 9999 FEW044/// 02/M02 Q1013=
201901152130 METAR LRAR 152130Z AUTO 26017KT 9999 NCD 03/M02 Q1013=
201901152200 METAR LRAR 152200Z AUTO 27015KT 9999 NCD 03/M02 Q1013=
201901152230 METAR LRAR 152230Z AUTO 27016KT 9999 NCD 03/M02 Q1013=
201901152300 METAR LRAR 152300Z AUTO 28016KT 9999 NCD 02/M02 Q1013=
201901152330 METAR LRAR 152330Z AUTO 27011KT 9999 NCD 02/M01 Q1013=
201901160000 METAR LRAR 160000Z AUTO 26013KT 9999 NCD 03/M02 Q1013=
201901160030 METAR LRAR 160030Z AUTO 26014KT 9999 -FZRA FEW012/// SCT017///
                        03/M02 Q1013=
201901160100 METAR LRAR 160100Z AUTO 23010KT 200V260 9999 FEW017/// 03/M02
                        Q1013 REFZRA=
201901160130 METAR LRAR 160130Z AUTO 23011KT 9999 FEW018/// 02/M02 Q1013=
201901160200 METAR LRAR 160200Z AUTO 23011KT 9999 FEW016/// 02/M02 Q1012
                        REUP=
201901160230 METAR LRAR 160230Z AUTO 23010KT 9999 -FZRA FEW016/// 02/M02
                        Q1012=
201901160300 METAR LRAR 160300Z AUTO 22010KT 9999 FEW023/// SCT041///
                        02/M02 Q1012 REFZRA=
201901160330 METAR LRAR 160330Z AUTO 23010KT 9999 FEW030/// SCT042///
                        02/M02 Q1012 REUP=
201901160400 METAR LRAR 160400Z AUTO 22009KT 9999 -FZDZ FEW016/// 02/M02
                        Q1012=
201901160430 METAR LRAR 160430Z AUTO 24009KT 200V260 9999 FEW028/// 03/M02
                        Q1012 REFZRA=
201901160500 METAR LRAR 160500Z 23009KT CAVOK 03/M02 Q1012=
201901160530 METAR LRAR 160530Z 21006KT 180V240 9999 SCT030 02/M02 Q1012=
201901160600 METAR LRAR 160600Z 24005KT 200V270 9999 FEW035 03/M02 Q1013=
201901160630 METAR LRAR 160630Z VRB05KT 9999 SCT048 03/M02 Q1013=
201901160700 METAR LRAR 160700Z 20008KT 9999 FEW048 01/M01 Q1013=
201901160730 METAR LRAR 160730Z 21006KT 9999 -RA FEW018 BKN030 02/M01
                        Q1014=
201901160800 METAR LRAR 160800Z 20009KT 9999 -RASN FEW016 BKN020 OVC030
                        01/M01 Q1014=
201901160830 METAR LRAR 160830Z 20010KT 9999 -RASN FEW016 SCT023 OVC035
                        01/M01 Q1014=
201901160900 METAR LRAR 160900Z 20011KT 9999 -RASN SCT016 BKN019 OVC025
                        02/M01 Q1015 R09/19//95=
201901160930 METAR LRAR 160930Z 21010KT 9999 -RASN SCT015 OVC020 02/M01
                        Q1015 R09/19//95=
201901161000 METAR LRAR 161000Z 21008KT 9999 -RASN FEW015 BKN018 02/M00
                        Q1015 R09/19//95=
201901161030 METAR LRAR 161030Z 22006KT 9999 -RA FEW015 SCT018 BKN030
                        03/M00 Q1015 R09/19//95=
201901161100 METAR LRAR 161100Z 22012KT 9999 FEW035 SCT042 FEW045CB 03/M00
                        Q1014 R09/19//95=
201901161130 METAR LRAR 161130Z 21011KT 9999 SCT045 FEW050CB 03/M00 Q1014
                        R09/19//95=
201901161200 METAR LRAR 161200Z 21011KT 9999 FEW045 03/M00 Q1014 R09/19//95=
201901161230 METAR LRAR 161230Z 20009KT CAVOK 03/00 Q1014 R09/19//95=
201901161300 METAR LRAR 161300Z 22010KT CAVOK 03/00 Q1014 R09/19//95=
201901161330 METAR LRAR 161330Z 21008KT CAVOK 03/01 Q1015 R09/19//95=
201901161400 METAR LRAR 161400Z 20008KT CAVOK 03/01 Q1015 R09/19//95=
201901161430 METAR LRAR 161430Z 20009KT 9999 FEW030 03/01 Q1015 R09/19//95=
201901161500 METAR LRAR 161500Z 20007KT CAVOK 03/01 Q1015 R09/19//95=
201901161530 METAR LRAR 161530Z 16003KT 120V200 CAVOK 02/00 Q1015 R09/19//95=
201901161600 METAR LRAR 161600Z 17005KT CAVOK 02/01 Q1015 R09/19//95=
201901161630 METAR LRAR 161630Z 13007KT CAVOK 01/M00 Q1016 R09/19//95=
201901161700 METAR LRAR 161700Z 15008KT CAVOK 00/M00 Q1016 R09/19//95=
201901161730 METAR LRAR 161730Z AUTO 14006KT 9999 FEW056/// 00/M01 Q1016=
201901161800 METAR LRAR 161800Z AUTO 14006KT 9999 FEW056/// 00/M01 Q1016=
201901161830 METAR LRAR 161830Z AUTO 14007KT 6000 NCD 00/M01 Q1016=
201901161900 METAR LRAR 161900Z AUTO 15009KT 9999 NCD 00/M01 Q1016=
201901161930 METAR LRAR 161930Z AUTO 16011KT 9999 NCD M00/M01 Q1016=
201901162000 METAR LRAR 162000Z AUTO 15009KT 9999 NCD M00/M01 Q1016=
201901162030 METAR LRAR 162030Z AUTO 14009KT 9999 NCD M00/M01 Q1016=
201901162100 METAR LRAR 162100Z AUTO 14009KT 9999 NCD M00/M01 Q1016=
201901162130 METAR LRAR 162130Z AUTO 14010KT 9999 NCD M00/M01 Q1016=
201901162200 METAR LRAR 162200Z AUTO 16010KT 9999 NCD M00/M01 Q1016=
201901162230 METAR LRAR 162230Z AUTO 14010KT 9999 NCD M00/M01 Q1015=
201901162300 METAR LRAR 162300Z AUTO 15012KT 9999 NCD M01/M02 Q1015=
201901162330 METAR LRAR 162330Z AUTO 15011KT 9999 NCD M00/M01 Q1015=
201901170000 METAR LRAR 170000Z AUTO 15009KT 9999 NCD M01/M02 Q1015=
201901170030 METAR LRAR 170030Z AUTO 15009KT 9999 NCD 00/M02 Q1015=
201901170100 METAR LRAR 170100Z AUTO 16010KT 9999 FEW050/// 01/M02 Q1015=
201901170130 METAR LRAR 170130Z AUTO 17012KT 9999 FEW049/// 02/M02 Q1015=
201901170200 METAR LRAR 170200Z AUTO 17011KT 9999 NCD 02/M02 Q1015=
201901170230 METAR LRAR 170230Z AUTO 17012KT 9999 FEW050/// 02/M02 Q1015=
201901170300 METAR LRAR 170300Z AUTO 17012KT 9999 NCD 02/M02 Q1015=
201901170330 METAR LRAR 170330Z AUTO 18012KT 9999 NCD 02/M02 Q1015=
201901170400 METAR LRAR 170400Z AUTO 18012KT 9999 NCD 02/M02 Q1014=
201901170430 METAR LRAR 170430Z AUTO 17010KT 9999 NCD 02/M02 Q1014=
201901170500 METAR COR LRAR 170500Z 17010KT CAVOK 02/M02 Q1015 R09/19//95=
201901170530 METAR LRAR 170530Z 17010KT CAVOK 02/M02 Q1014 R09/19//95=
201901170600 METAR LRAR 170600Z 17010KT CAVOK 02/M02 Q1014 R09/CLRD//=
201901170630 METAR LRAR 170630Z 18011KT CAVOK 03/M02 Q1014=
201901170700 METAR LRAR 170700Z 18012KT CAVOK 03/M02 Q1014=
201901170730 METAR LRAR 170730Z 19014KT CAVOK 03/M02 Q1015=
201901170800 METAR LRAR 170800Z 19015KT CAVOK 03/M02 Q1015=
201901170830 METAR LRAR 170830Z 19014KT CAVOK 04/M01 Q1015=
201901170900 METAR LRAR 170900Z 19013KT CAVOK 04/M01 Q1015=
201901170930 METAR LRAR 170930Z 19013KT CAVOK 04/M01 Q1015=
201901171000 METAR LRAR 171000Z 19013KT CAVOK 04/M01 Q1015=
201901171030 METAR LRAR 171030Z 19013KT CAVOK 05/M00 Q1015=
201901171100 METAR LRAR 171100Z 19014KT CAVOK 05/M00 Q1014=
201901171130 METAR LRAR 171130Z 19014KT CAVOK 05/M00 Q1014=
201901171200 METAR LRAR 171200Z 19013KT CAVOK 05/M00 Q1014=
201901171230 METAR LRAR 171230Z 19012KT CAVOK 05/00 Q1013=
201901171300 METAR LRAR 171300Z 19012KT CAVOK 06/00 Q1013=
201901171330 METAR LRAR 171330Z 18011KT CAVOK 05/01 Q1013=
201901171400 METAR LRAR 171400Z 19012KT CAVOK 05/01 Q1013=
201901171430 METAR LRAR 171430Z 19010KT CAVOK 05/01 Q1013=
201901171500 METAR LRAR 171500Z 19012KT CAVOK 06/01 Q1013=
201901171530 METAR LRAR 171530Z 19013KT CAVOK 05/00 Q1013=
201901171600 METAR LRAR 171600Z 19012KT CAVOK 05/00 Q1013=
201901171630 METAR LRAR 171630Z 19012KT CAVOK 05/00 Q1013=
201901171700 METAR LRAR 171700Z 19012KT CAVOK 05/M00 Q1013=
201901171730 METAR LRAR 171730Z AUTO 19013KT 9999 SCT061/// BKN076///
                        05/M00 Q1013=
201901171800 METAR LRAR 171800Z AUTO 19013KT 9999 BKN071/// 05/M01 Q1013=
201901171830 METAR LRAR 171830Z AUTO 19011KT 9999 BKN071/// 05/M01 Q1013=
201901171900 METAR LRAR 171900Z AUTO 19012KT 9999 BKN071/// 04/M00 Q1013=
201901171930 METAR LRAR 171930Z AUTO 19012KT 9999 BKN066/// 04/M00 Q1013=
201901172000 METAR LRAR 172000Z AUTO 19013KT 9999 BKN066/// 04/M00 Q1013=
201901172030 METAR LRAR 172030Z AUTO 19013KT 9999 SCT066/// 05/M01 Q1013=
201901172100 METAR LRAR 172100Z AUTO 19012KT 9999 FEW066/// 05/M01 Q1013=
201901172130 METAR LRAR 172130Z AUTO 19012KT 9999 NCD 04/M01 Q1013=
201901172200 METAR LRAR 172200Z AUTO 18012KT 9999 BKN066/// 04/M01 Q1013=
201901172230 METAR LRAR 172230Z AUTO 18012KT 9999 FEW066/// SCT081///
                        04/M01 Q1013=
201901172300 METAR LRAR 172300Z AUTO 18012KT 9999 FEW076/// 04/M01 Q1013=
201901172330 METAR LRAR 172330Z AUTO 18012KT 9999 FEW081/// 04/M01 Q1012=
201901180000 METAR LRAR 180000Z AUTO 18011KT 9999 NCD 04/M01 Q1012=
201901180030 METAR LRAR 180030Z AUTO 19012KT 9999 SCT056/// 04/M01 Q1012=
201901180100 METAR LRAR 180100Z AUTO 18013KT 9999 BKN050/// 04/M01 Q1012=
201901180130 METAR LRAR 180130Z AUTO 18012KT 9999 BKN056/// 04/M01 Q1012=
201901180200 METAR LRAR 180200Z AUTO 19011KT 9999 BKN061/// 04/M01 Q1012=
201901180230 METAR LRAR 180230Z AUTO 18012KT 9999 -FZDZ BKN061/// 04/M01
                        Q1012=
201901180300 METAR LRAR 180300Z AUTO 18010KT 9999 UP SCT061/// 04/M01
                        Q1012=
201901180330 METAR LRAR 180330Z AUTO 18010KT 9999 -FZRA FEW011/// BKN056///
                        04/M00 Q1012=
201901180400 METAR LRAR 180400Z AUTO 18009KT 9999 BKN050/// 03/M01 Q1012
                        REFZRA=
201901180430 METAR LRAR 180430Z AUTO 16004KT 140V200 9999 -FZDZ FEW010///
                        03/M00 Q1012=
201901180500 METAR LRAR 180500Z 15005KT 9999 -RA FEW010 SCT015 03/00 Q1012=
201901180530 METAR LRAR 180530Z 15004KT 9999 -RA FEW010 03/00 Q1012=
201901180600 METAR LRAR 180600Z 13009KT 9999 -RA FEW011 SCT017 03/00 Q1011
                        R09/19//95=
201901180630 METAR LRAR 180630Z 15008KT 9999 FEW020 03/M00 Q1012 R09/19//95=
201901180700 METAR LRAR 180700Z 16005KT 9999 FEW012 03/M00 Q1012 R09/19//95=
201901180730 METAR LRAR 180730Z 17003KT 140V210 9999 SCT035 03/00 Q1013
                        R09/19//95=
201901180800 METAR LRAR 180800Z 14005KT 9999 SCT039 04/01 Q1013 R09/19//95=
201901180830 METAR LRAR 180830Z 16005KT 9999 BKN040 04/01 Q1013 R09/19//95=
201901180900 METAR LRAR 180900Z VRB02KT 9999 SCT040 05/01 Q1013 R09/19//95=
201901180930 METAR LRAR 180930Z 31004KT 9999 -RA FEW016 BKN042 04/01 Q1013
                        R09/19//95=
201901181000 METAR LRAR 181000Z 34004KT 9999 SCT044 04/02 Q1013 R09/19//95=
201901181030 METAR LRAR 181030Z 34004KT 9999 FEW045 04/01 Q1013 R09/19//95=
201901181100 METAR LRAR 181100Z 34005KT 9999 SCT011 BKN019 04/01 Q1013
                        R09/19//95=
201901181130 METAR LRAR 181130Z 36007KT 330V030 9999 -RA SCT016 BKN019
                        03/02 Q1013 R09/19//95=
201901181200 METAR LRAR 181200Z 36005KT 9999 -RA FEW008 BKN018 03/02 Q1014
                        R09/19//95=
201901181230 METAR LRAR 181230Z 01007KT 9999 -RA FEW005 BKN010 BKN018
                        03/03 Q1014 R09/19//95=
201901181300 METAR LRAR 181300Z 36006KT 9999 -RA FEW007 BKN011 BKN019
                        03/03 Q1014 R09/19//95=
201901181330 METAR LRAR 181330Z 36007KT 8000 -RA SCT008 BKN012 BKN028
                        03/03 Q1015 R09/19//95=
201901181400 METAR LRAR 181400Z 01008KT 8000 -RA FEW008 SCT012 BKN025
                        03/03 Q1015 R09/19//95=
201901181430 METAR LRAR 181430Z 01005KT 340V040 8000 -RA SCT008 BKN015
                        03/03 Q1015 R09/19//95=
201901181500 METAR LRAR 181500Z 36006KT 8000 -RA FEW007 SCT015 BKN040
                        03/03 Q1015 R09/29//95=
201901181530 METAR LRAR 181530Z AUTO 02004KT 8000 NCD 03/03 Q1016=
201901181600 METAR LRAR 181600Z 02003KT 8000 -RA OVC045 03/03 Q1016 R09/29//95=
201901181630 METAR LRAR 181630Z 00000KT 8000 -RA FEW015 SCT045 02/02 Q1016
                        R09/29//95=
201901181700 METAR LRAR 181700Z VRB01KT 8000 -RA SCT030 02/02 Q1017 R09/29//95=
201901181730 METAR LRAR 181730Z AUTO 03002KT 6000 FEW056/// 02/02 Q1017
                        REUP=
201901181800 METAR LRAR 181800Z AUTO 26004KT 3800 BR FEW061/// 01/01 Q1017=
201901181830 METAR LRAR 181830Z AUTO VRB03KT 5000 BR FEW076/// 02/02 Q1017=
201901181900 METAR LRAR 181900Z AUTO 27006KT 7000 FEW076/// 01/01 Q1018=
201901181930 METAR LRAR 181930Z AUTO 27006KT 7000 FEW081/// 01/01 Q1018=
201901182000 METAR LRAR 182000Z AUTO 30006KT 9999 NCD 01/01 Q1018=
201901182030 METAR LRAR 182030Z AUTO 26005KT 9999 NCD 01/01 Q1019=
201901182100 METAR LRAR 182100Z AUTO 29004KT 9999 NCD M00/M00 Q1019=
201901182130 METAR LRAR 182130Z AUTO 29006KT 9999 NCD M01/M01 Q1019=
201901182200 METAR LRAR 182200Z AUTO 31006KT 9999 NCD 00/00 Q1019=
201901182230 METAR LRAR 182230Z AUTO 30005KT 9999 NCD M01/M01 Q1019=
201901182300 METAR LRAR 182300Z AUTO 31004KT 9999 NCD M01/M01 Q1019=
201901182330 METAR LRAR 182330Z AUTO VRB01KT 6000 NCD M01/M01 Q1019=
201901190000 METAR LRAR 190000Z AUTO 05002KT 5000 BR NCD M01/M01 Q1019=
201901190030 METAR LRAR 190030Z AUTO 34004KT 5000 NCD M01/M01 Q1020=
201901190100 METAR LRAR 190100Z AUTO 36005KT 7000 NCD M01/M01 Q1020=
201901190130 METAR LRAR 190130Z AUTO 02004KT 8000 NCD M01/M01 Q1020=
201901190200 METAR LRAR 190200Z AUTO 04004KT 7000 NCD M01/M01 Q1020=
201901190230 METAR LRAR 190230Z AUTO 04005KT 9000 FEW020/// M01/M01 Q1020=
201901190300 METAR LRAR 190300Z AUTO 05006KT 9999 SCT020/// M01/M01 Q1020=
201901190330 METAR LRAR 190330Z AUTO 05005KT 9999 NCD M01/M01 Q1020=
201901190400 METAR LRAR 190400Z AUTO VRB01KT 7000 NCD M02/M02 Q1020=
201901190430 METAR LRAR 190430Z AUTO 10002KT 050V160 6000 NCD M02/M02
                        Q1020=
201901190500 METAR COR LRAR 190500Z 09002KT 060V120 5000 BR NSC M02/M02
                        Q1020 R09/29//95=
201901190530 METAR LRAR 190530Z 06005KT 5000 BR FEW003 M02/M02 Q1020 R09/29//95=
201901190600 METAR LRAR 190600Z 10004KT 070V130 3000 BR BKN002 M02/M02
                        Q1020 R09/19//95=
201901190630 METAR LRAR 190630Z 09004KT 0600 R09/0800 R27/1200N FZFG BKN001
                        OVC002 M02/M02 Q1020 R09/19//95=
201901190700 METAR LRAR 190700Z 10005KT 0600 R09/0700 R27/0650V1000D FZFG
                        VV001 M02/M02 Q1020 R09/19//95=
201901190730 METAR LRAR 190730Z 09004KT 0450 R09/0600 R27/0600N FZFG VV001
                        M01/M01 Q1020 R09/19//95=
201901190800 METAR LRAR 190800Z VRB02KT 0550 R09/0700 R27/0750N FZFG VV001
                        M01/M01 Q1021 R09/19//95=
201901190830 METAR LRAR 190830Z 11002KT 0750 R09/0900 R27/0800V1100U FZFG
                        VV002 M01/M01 Q1021 R09/19//95=
201901190900 METAR LRAR 190900Z 12003KT 1000 R09/1200 R27/1100N BR OVC001
                        M01/M01 Q1021 R09/19//95=
201901190930 METAR LRAR 190930Z 12003KT 2000 BR BKN001 OVC003 M00/M00
                        Q1021 R09/19//95=
201901191000 METAR LRAR 191000Z 12005KT 1800 BR OVC002 M00/M00 Q1021 R09/19//95=
201901191030 METAR LRAR 191030Z 15003KT 2700 BR SCT002 OVC004 00/00 Q1021
                        R09/19//95=
201901191100 METAR LRAR 191100Z 16004KT 5000 BR SCT003 BKN005 01/01 Q1020
                        R09/19//95=
201901191130 METAR LRAR 191130Z 13003KT 090V170 5000 BR SCT003 BKN005
                        01/01 Q1020 R09/CLRD//=
201901191200 METAR LRAR 191200Z 12003KT 8000 BKN005 01/01 Q1020=
201901191230 METAR LRAR 191230Z VRB01KT 9000 FEW005 SCT007 02/02 Q1019=
201901191300 METAR LRAR 191300Z 36002KT 320V040 8000 FEW005 SCT008 02/02
                        Q1019=
201901191330 METAR LRAR 191330Z 03004KT 4500 BR SCT006 02/02 Q1019=
201901191400 METAR LRAR 191400Z 02005KT 330V040 4000 BR BKN006 01/01 Q1019=
201901191430 METAR LRAR 191430Z 01004KT 280V070 2500 BR BKN002 OVC003
                        00/00 Q1019=
201901191500 METAR LRAR 191500Z 36005KT 2000 BR OVC002 00/00 Q1019=
201901191530 METAR LRAR 191530Z 03005KT 2300 -SN BR OVC002 00/00 Q1019=
201901191600 METAR LRAR 191600Z 03005KT 2700 -SN BR BKN002 00/00 Q1019=
201901191630 METAR LRAR 191630Z 02005KT 3400 -SN BR BKN001 OVC002 00/00
                        Q1019 R09/19//95=
201901191700 METAR LRAR 191700Z 01005KT 3300 -SN BR BKN001 OVC002 00/00
                        Q1019 R09/19//95=
201901191730 METAR LRAR 191730Z AUTO 04004KT 4000 BR SCT002/// BKN027///
                        00/00 Q1019=
201901191800 METAR LRAR 191800Z AUTO 02003KT 4000 BR FEW003/// 00/00 Q1019=
201901191830 METAR LRAR 191830Z AUTO 03004KT 3400 R27/2000 -FZRA FEW008///
                        BKN013/// 00/00 Q1019=
201901191900 METAR LRAR 191900Z AUTO 03003KT 3300 R27/2000 UP FEW006///
                        BKN011/// 00/00 Q1019=
201901191930 METAR LRAR 191930Z AUTO 04005KT 3800 SG FEW003/// SCT010///
                        BKN043/// 00/00 Q1019=
201901192000 METAR LRAR 192000Z AUTO 04006KT 3900 -SN FEW003/// SCT041///
                        00/00 Q1019=
201901192030 METAR LRAR 192030Z AUTO 05005KT 3800 -SN FEW003/// BKN006///
                        00/00 Q1019=
201901192100 METAR LRAR 192100Z AUTO 06004KT 3200 R27/2000 -SN BKN004///
                        OVC006/// 00/00 Q1018=
201901192130 METAR LRAR 192130Z AUTO 04005KT 4100 SG FEW005/// OVC007///
                        00/00 Q1018=
201901192200 METAR LRAR 192200Z AUTO 06006KT 5000 -SN OVC006/// 01/01
                        Q1018=
201901192230 METAR LRAR 192230Z AUTO 07006KT 4400 -SN BKN005/// BKN007///
                        01/01 Q1018=
201901192300 METAR LRAR 192300Z AUTO 07007KT 4500 -SN SCT005/// BKN023///
                        01/01 Q1018=
201901192330 METAR LRAR 192330Z AUTO 07008KT 4300 -SN FEW003/// SCT010///
                        BKN013/// 01/01 Q1017=
201901200000 METAR LRAR 200000Z AUTO 07008KT 4700 -SN BKN003/// BKN013///
                        01/01 Q1017=
201901200030 METAR LRAR 200030Z AUTO 06008KT 5000 -SN FEW003/// BKN010///
                        BKN015/// 01/01 Q1017=
201901200100 METAR LRAR 200100Z AUTO 06006KT 4800 -SN FEW002/// BKN011///
                        01/01 Q1017=
201901200130 METAR LRAR 200130Z AUTO 06005KT 4300 SG FEW011/// BKN015///
                        01/01 Q1016=
201901200200 METAR LRAR 200200Z AUTO 07006KT 3500 R27/2000 -SN FEW011///
                        BKN015/// 01/01 Q1016=
201901200230 METAR LRAR 200230Z AUTO 06005KT 4600 -SN FEW011/// BKN014///
                        BKN031/// 01/01 Q1016=
201901200300 METAR LRAR 200300Z AUTO 06006KT 5000 -SN FEW011/// BKN036///
                        01/01 Q1016=
201901200330 METAR LRAR 200330Z AUTO 06006KT 4900 BKN036/// 01/01 Q1015
                        RESN=
201901200400 METAR LRAR 200400Z AUTO 06004KT 4700 -SHSN BKN031/// BKN036///
                        01/01 Q1015=
201901200430 METAR LRAR 200430Z AUTO 08003KT 4600 -SN FEW015/// BKN030///
                        01/01 Q1015=
201901200500 METAR LRAR 200500Z 08002KT 4000 -RASN BR FEW011 BKN027 01/01
                        Q1015=
201901200530 METAR COR LRAR 200530Z VRB01KT 3500 -RASN BR SCT010 OVC013
                        01/01 Q1015 R09/19//95=
201901200600 METAR LRAR 200600Z VRB02KT 2000 RASN BR SCT007 OVC010 01/01
                        Q1015 R09/29//95=
201901200630 METAR LRAR 200630Z 11002KT 1800 RASN BR SCT008 OVC010 00/00
                        Q1015 R09/29//95=
201901200700 METAR LRAR 200700Z 13002KT 2000 -SN BR SCT002 OVC010 00/00
                        Q1015 RERASN R09/29//95=
201901200730 METAR LRAR 200730Z 13002KT 2000 -SN BR SCT002 OVC010 00/00
                        Q1015 RERASN R09/29//95=
201901200800 METAR LRAR 200800Z 14002KT 2500 -SN BR SCT002 BKN012 OVC027
                        00/00 Q1015 R09/29//95=
201901200830 METAR LRAR 200830Z 11002KT 2000 -SN BR FEW002 BKN011 OVC025
                        00/00 Q1015 R09/29//95=
201901200900 METAR LRAR 200900Z VRB01KT 2500 -SN BR FEW002 BKN012 OVC025
                        01/01 Q1016 R09/29//95=
201901200930 METAR LRAR 200930Z VRB01KT 2500 -SN BR SCT003 OVC013 01/01
                        Q1016 R09/29//95=
201901201000 METAR LRAR 201000Z 15002KT 2000 -SN BR FEW002 OVC011 01/01
                        Q1015 R09/29//95=
201901201030 METAR LRAR 201030Z 13002KT 2000 -SN BR SCT006 BKN009 OVC011
                        01/01 Q1015 R09/29//95=
201901201100 METAR LRAR 201100Z VRB01KT 2000 -SN BR FEW005 SCT009 OVC011
                        01/01 Q1015 R09/29//95=
201901201130 METAR LRAR 201130Z VRB01KT 1200 R09/1400 R27/1200D SN BR
                        SCT006 BKN008 OVC011 00/00 Q1015
                        R09/29//95=
201901201200 METAR LRAR 201200Z 00000KT 1000 R09/1200 R27/1000D SN BR
                        SCT003 OVC006 00/00 Q1015 R09/29//95=
201901201230 METAR LRAR 201230Z 13001KT 1000 R09/1200 R27/1100U SN BR
                        SCT003 OVC007 00/00 Q1015 R09/29//95=
201901201300 METAR LRAR 201300Z 00000KT 1200 R09/1400 R27/1200N -SN BR
                        BKN004 OVC006 01/01 Q1015 RESN R09/29//95=
201901201330 METAR LRAR 201330Z 00000KT 1200 R09/1400 R27/1200N -SN BR
                        SCT001 OVC004 00/00 Q1015 RESN R09/29//95=
201901201400 METAR LRAR 201400Z VRB01KT 1500 -SN BR FEW001 SCT009 OVC011
                        00/00 Q1015 R09/29//95=
201901201430 METAR LRAR 201430Z 18002KT 1200 R09/1400 R27/1100D SN BR
                        FEW001 BKN007 OVC010 00/00 Q1015
                        R09/29//95=
201901201500 METAR LRAR 201500Z VRB02KT 2000 -SN BR FEW001 BKN006 OVC008
                        00/00 Q1015 RESN R09/29//95=
201901201530 METAR LRAR 201530Z VRB02KT 2500 -SG BR SCT003 OVC006 00/00
                        Q1015 RESN R09/29//95=
201901201600 METAR LRAR 201600Z 19003KT 2500 -SG BR SCT002 OVC004 00/00
                        Q1015 R09/29//95=
201901201630 METAR LRAR 201630Z 21003KT 3500 -SN BR SCT002 OVC004 00/00
                        Q1015 R09/29//95=
201901201700 METAR LRAR 201700Z VRB02KT 3500 -SN BR SCT002 OVC004 00/00
                        Q1016 R09/29//95=
201901201730 METAR LRAR 201730Z AUTO 26003KT 1500 R27/1600N FG VV002 00/00
                        Q1016=
201901201800 METAR LRAR 201800Z AUTO 27004KT 2400 R27/2000 SCT001/// BKN003///
                        00/00 Q1016 REFZRA=
201901201830 METAR LRAR 201830Z AUTO 28004KT 0900 R27/0900V1500D FG VV002
                        00/00 Q1016=
201901201900 METAR LRAR 201900Z AUTO 28005KT 0600 R27/0750N FG VV001 00/00
                        Q1017=
201901201930 METAR LRAR 201930Z AUTO 28004KT 0500 R27/0550N FG VV001 00/00
                        Q1017=
201901202000 METAR LRAR 202000Z AUTO 28006KT 0800 R27/1000D FG VV001 00/00
                        Q1017=
201901202030 METAR LRAR 202030Z AUTO 30006KT 1100 R27/1200N FG VV001 00/00
                        Q1017=
201901202100 METAR LRAR 202100Z AUTO 31008KT 1500 R27/1300VP2000U FZFG
                        VV002 M00/M00 Q1018=
201901202130 METAR LRAR 202130Z AUTO 00000KT 0600 R27/0700D FZFG VV001
                        M00/M00 Q1018=
201901202200 METAR LRAR 202200Z AUTO 00000KT 2300 R27/1600VP2000U FZFG
                        VV001 M00/M00 Q1018=
201901202230 METAR LRAR 202230Z AUTO 00000KT 3500 SCT002/// OVC004///
                        M00/M00 Q1019=
201901202300 METAR LRAR 202300Z AUTO 00000KT 3200 BKN003/// BKN006///
                        M00/M00 Q1018=
201901202330 METAR LRAR 202330Z AUTO 00000KT 2400 BR BKN002/// OVC004///
                        M00/M00 Q1019=
201901210000 METAR LRAR 210000Z AUTO 00000KT 3600 BR FEW001/// SCT003///
                        BKN005/// M00/M00 Q1019=
201901210030 METAR LRAR 210030Z AUTO 00000KT 3400 BR SCT003/// BKN005///
                        M00/M00 Q1019=
201901210100 METAR LRAR 210100Z AUTO 00000KT 3200 R27/2000 BR BKN004///
                        BKN007/// M00/M00 Q1019=
201901210130 METAR LRAR 210130Z AUTO 00000KT 3600 BR FEW003/// BKN005///
                        BKN007/// M00/M00 Q1019=
201901210200 METAR LRAR 210200Z AUTO 00000KT 3700 BR FEW003/// SCT005///
                        BKN010/// M00/M00 Q1019=
201901210230 METAR LRAR 210230Z AUTO 00000KT 3500 BR SCT003/// BKN006///
                        BKN011/// M00/M00 Q1019=
201901210300 METAR LRAR 210300Z AUTO 00000KT 3500 BR SCT003/// BKN006///
                        BKN012/// M00/M00 Q1019=
201901210330 METAR LRAR 210330Z AUTO 00000KT 3500 BR SCT003/// BKN005///
                        M00/M00 Q1019=
201901210400 METAR LRAR 210400Z AUTO 00000KT 3300 BR FEW003/// BKN012///
                        M00/M00 Q1019=
201901210430 METAR LRAR 210430Z AUTO 00000KT 3100 R27/2000 BR SCT003///
                        BKN005/// BKN014/// M00/M00 Q1020=
201901210500 METAR LRAR 210500Z 00000KT 3000 BR SCT003 BKN012 M00/M00
                        Q1020 R09/29//95=
201901210530 METAR COR LRAR 210530Z 00000KT 3000 BR FEW003 BKN015 OVC048
                        M00/M00 Q1020 R09/19//95=
201901210600 METAR LRAR 210600Z 00000KT 2500 BR BKN003 OVC014 M00/M00
                        Q1020 R09/19//95=
201901210630 METAR LRAR 210630Z 00000KT 2000 BR BKN003 M00/M00 Q1020 R09/19//95=
201901210700 METAR LRAR 210700Z 00000KT 3000 BR SCT003 BKN005 OVC016 M01/M01
                        Q1021 R09/19//95=
201901210730 METAR LRAR 210730Z 00000KT 3000 BR FEW003 BKN018 M00/M00
                        Q1021 R09/19//95=
201901210800 METAR LRAR 210800Z 00000KT 3200 BR SCT004 BKN019 M00/M00
                        Q1021 R09/19//95=
201901210830 METAR LRAR 210830Z 00000KT 3000 BR SCT004 BKN006 M01/M01
                        Q1021 R09/19//95=
201901210900 METAR LRAR 210900Z 31002KT 3000 BR SCT004 BKN006 M00/M00
                        Q1022 R09/19//95=
201901210930 METAR LRAR 210930Z 32002KT 3000 BR SCT003 BKN005 BKN024 M00/M00
                        Q1022 R09/19//95=
201901211000 METAR LRAR 211000Z 29003KT 3200 BR SCT004 BKN006 00/00 Q1021
                        R09/19//95=
201901211030 METAR LRAR 211030Z 01003KT 300V090 3500 BR OVC005 00/00 Q1021
                        R09/19//95=
201901211100 METAR LRAR 211100Z VRB02KT 3500 BR BKN005 00/00 Q1021 R09/19//95=
201901211130 METAR LRAR 211130Z VRB02KT 3500 BR FEW004 BKN006 M00/M00
                        Q1021 R09/19//95=
201901211200 METAR LRAR 211200Z VRB02KT 4000 BR BKN006 M00/M00 Q1021 R09/19//95=
201901211230 METAR LRAR 211230Z 28003KT 250V320 5000 BR BKN006 OVC008
                        M00/M00 Q1021 R09/19//95=
201901211300 METAR LRAR 211300Z VRB02KT 5000 BR BKN006 OVC008 M00/M01
                        Q1021 R09/19//95=
201901211330 METAR LRAR 211330Z VRB02KT 5000 BR BKN006 OVC009 M00/M01
                        Q1021 R09/19//95=
201901211400 METAR LRAR 211400Z 00000KT 6000 SCT007 OVC009 M00/M01 Q1021
                        R09/19//95=
201901211430 METAR LRAR 211430Z VRB01KT 6000 FEW008 BKN011 M00/M01 Q1021
                        R09/19//95=
201901211500 METAR LRAR 211500Z 00000KT 6000 BKN010 M00/M01 Q1021 R09/19//95=
201901211530 METAR LRAR 211530Z 32003KT 3000 BR BKN013 M01/M01 Q1021 R09/19//95=
201901211600 METAR LRAR 211600Z 36003KT 3300 BR BKN013 M01/M01 Q1020 R09/19//95=
201901211630 METAR LRAR 211630Z 02002KT 2500 BR BKN005 M01/M01 Q1021 R09/19//95=
201901211700 METAR LRAR 211700Z 06003KT 2500 BR BKN004 M01/M01 Q1021 R09/19//95=
201901211730 METAR LRAR 211730Z AUTO 00000KT 1200 R27/1000V1600D FG BKN002///
                        BKN004/// ///// Q1021=
201901211800 METAR LRAR 211800Z AUTO 00000KT 0350 R27/0400N FG BKN001///
                        ///// Q1020=
201901211830 METAR LRAR 211830Z AUTO 00000KT 0350 R27/0375V0500N FG VV001
                        ///// Q1020=
201901211900 METAR LRAR 211900Z AUTO 00000KT 0250 R27/0275N FG VV001 /////
                        Q1020=
201901211930 METAR LRAR 211930Z AUTO 00000KT 0300 R27/0375N FG VV001 /////
                        Q1020=
201901212000 METAR LRAR 212000Z AUTO 00000KT 1800 R27/1100VP2000U FG BKN001///
                        ///// Q1020=
201901212030 METAR LRAR 212030Z AUTO 00000KT 1700 R27/1300VP2000U FG VV002
                        ///// Q1020=
201901212100 METAR LRAR 212100Z AUTO 00000KT 2100 R27/1700VP2000U FG SCT001///
                        BKN004/// ///// Q1020=
201901212130 METAR LRAR 212130Z AUTO 00000KT 3400 NCD ///// Q1020=
201901212200 METAR LRAR 212200Z AUTO 00000KT 3500 FEW002/// ///// Q1020=
201901212230 METAR LRAR 212230Z AUTO 00000KT 3400 UP NCD ///// Q1020=
201901212300 METAR LRAR 212300Z AUTO 00000KT 2900 -SN FEW008/// BKN011///
                        BKN016/// ///// Q1020=
201901212330 METAR LRAR 212330Z AUTO 00000KT 2400 -SN BKN002/// BKN012///
                        ///// Q1019=
201901220000 METAR LRAR 220000Z AUTO 00000KT 2000 -SN VV005 ///// Q1019=
201901220030 METAR LRAR 220030Z AUTO 00000KT 2400 -SN VV007 ///// Q1019=
201901220100 METAR LRAR 220100Z AUTO 00000KT 2200 R27/1800VP2000D -SN
                        VV009 ///// Q1019=
201901220130 METAR LRAR 220130Z AUTO 00000KT 2000 -SN VV007 ///// Q1018=
201901220200 METAR LRAR 220200Z AUTO 00000KT 2200 -SN VV007 ///// Q1018=
201901220230 METAR LRAR 220230Z AUTO 00000KT 1900 R27/2000D -SN VV007
                        ///// Q1018=
201901220300 METAR LRAR 220300Z AUTO 00000KT 2200 -SN VV008 ///// Q1018=
201901220330 METAR LRAR 220330Z AUTO 00000KT 1800 R27/1900U -SN VV006
                        ///// Q1017=
201901220400 METAR LRAR 220400Z AUTO 00000KT 2000 -SN VV008 ///// Q1017=
201901220430 METAR LRAR 220430Z AUTO 00000KT 2000 -SN VV008 ///// Q1017=
201901220500 METAR LRAR 220500Z 00000KT 2000 SN BR FEW003 BKN007 BKN011
                        M01/M01 Q1016 R09/19//95=
201901220530 METAR LRAR 220530Z 06004KT 2000 SN BR FEW006 BKN010 BKN025
                        M01/M01 Q1016 R09/19//95=
201901220600 METAR LRAR 220600Z 07005KT 2000 -SN BR FEW003 SCT008 BKN025
                        M01/M01 Q1016 R09/594093=
201901220630 METAR LRAR 220630Z 07005KT 2000 -SN BR BKN003 BKN010 M01/M01
                        Q1016 R09/594093=
201901220700 METAR LRAR 220700Z 07006KT 2000 -SN BR FEW009 BKN012 BKN025
                        M01/M01 Q1015 R09/594093=
201901220730 METAR LRAR 220730Z 06005KT 2000 -SN BR FEW007 SCT015 BKN040
                        M01/M01 Q1015 R09/594093=
201901220800 METAR LRAR 220800Z 07006KT 2000 -SN BR FEW007 BKN012 BKN030
                        M01/M01 Q1015 R09/594093=
201901220830 METAR LRAR 220830Z 07006KT 1800 -SN BR BKN007 BKN015 M00/M00
                        Q1015 R09/690294=
201901220900 METAR LRAR 220900Z 07006KT 1800 -SN BR FEW005 BKN008 BKN025
                        M00/M00 Q1015 R09/690294=
201901220930 METAR LRAR 220930Z 06007KT 1800 -SN BR SCT004 BKN010 OVC030
                        00/00 Q1015 R09/690294=
201901221000 METAR LRAR 221000Z 05006KT 2000 -SN BR BKN004 BKN012 01/01
                        Q1014 R09/690294=
201901221030 METAR COR LRAR 221030Z 07006KT 2000 -SN BR SCT003 BKN010
                        01/01 Q1014 R09/690294=
201901221100 METAR LRAR 221100Z 06007KT 2500 -SN BR SCT004 BKN010 00/00
                        Q1013 R09/690294=
201901221130 METAR LRAR 221130Z 06008KT 2500 -SN BR SCT004 OVC009 00/00
                        Q1013 R09/690294=
201901221200 METAR LRAR 221200Z 05007KT 2000 -SN BR SCT003 OVC009 01/01
                        Q1012 R09/690294=
201901221230 METAR LRAR 221230Z 07007KT 2000 -SN BR BKN004 OVC008 01/01
                        Q1012 R09/690294=
201901221300 METAR LRAR 221300Z 05005KT 1200 R09/1400 R27/1300N SN BR
                        SCT002 OVC004 01/01 Q1012 R09/690294=
201901221330 METAR LRAR 221330Z 05005KT 1800 -SN BR SCT002 OVC004 01/01
                        Q1011 RESN R09/690294=
201901221400 METAR LRAR 221400Z 06006KT 2000 -SN BR SCT002 OVC004 01/01
                        Q1011 R09/690294=
201901221430 METAR LRAR 221430Z 06004KT 1700 -SN BR SCT002 OVC004 00/00
                        Q1010 R09/690294=
201901221500 METAR LRAR 221500Z 05005KT 2000 -SN BR SCT002 OVC004 00/00
                        Q1010 R09/690294=
201901221530 METAR LRAR 221530Z 06005KT 2000 -SN BR BKN002 OVC004 00/00
                        Q1010 R09/690294=
201901221600 METAR LRAR 221600Z 05004KT 3000 -SN BR BKN002 OVC005 00/00
                        Q1009 R09/690294=
201901221630 METAR LRAR 221630Z 04005KT 3000 -SN BR BKN002 OVC005 00/00
                        Q1009 R09/690294=
201901221700 METAR LRAR 221700Z 05005KT 3000 -SN BR BKN002 OVC005 M00/M00
                        Q1009 R09/690294=
201901221730 METAR LRAR 221730Z AUTO 03005KT 1800 R27/2000U -SN BKN002///
                        OVC004/// M00/M00 Q1008=
201901221800 METAR LRAR 221800Z AUTO 04005KT 1800 R27/1900N -SN BKN002///
                        OVC004/// M00/M00 Q1008=
201901221830 METAR LRAR 221830Z AUTO 05003KT 2000 -SN OVC002/// M00/M00
                        Q1008=
201901221900 METAR LRAR 221900Z AUTO 05004KT 1800 R27/1900N -SN BKN002///
                        OVC004/// M00/M00 Q1007=
201901221930 METAR LRAR 221930Z AUTO 06004KT 2100 -SN BKN002/// M00/M00
                        Q1007=
201901222000 METAR LRAR 222000Z AUTO 04004KT 2200 -SN BKN002/// M00/M00
                        Q1007=
201901222030 METAR LRAR 222030Z AUTO 05003KT 2200 -SN BKN001/// M00/M00
                        Q1006=
201901222100 METAR LRAR 222100Z AUTO 05005KT 2200 -SN BKN001/// M00/M00
                        Q1006=
201901222130 METAR LRAR 222130Z AUTO 05004KT 2000 -SN BKN001/// M00/M00
                        Q1006=
201901222200 METAR LRAR 222200Z AUTO 07003KT 1900 R27/2000U -SN BKN001///
                        M00/M00 Q1005=
201901222230 METAR LRAR 222230Z AUTO 05003KT 1700 R27/1800U -SN BKN001///
                        BKN006/// M00/M00 Q1005=
201901222300 METAR LRAR 222300Z AUTO 05003KT 1600 R27/1700D -SN BKN001///
                        OVC007/// M00/M00 Q1004=
201901222330 METAR LRAR 222330Z AUTO 04002KT 1600 R27/1700U -SN BKN002///
                        BKN005/// M00/M00 Q1004=
201901230000 METAR LRAR 230000Z AUTO 04002KT 1700 R27/1800N -SN OVC002///
                        M00/M00 Q1004=
201901230030 METAR LRAR 230030Z AUTO 03003KT 1700 R27/1800U -SN BKN002///
                        BKN005/// M00/M00 Q1003=
201901230100 METAR LRAR 230100Z AUTO 04002KT 1400 R27/1500N -SN SCT002///
                        OVC005/// M01/M01 Q1003=
201901230130 METAR LRAR 230130Z AUTO 06002KT 1500 R27/1500D -SN SCT002///
                        BKN004/// M00/M00 Q1003=
201901230200 METAR LRAR 230200Z AUTO 06003KT 1500 R27/1600U -SN FEW002///
                        OVC004/// M01/M01 Q1003=
201901230230 METAR LRAR 230230Z AUTO 05002KT 1400 R27/1500D -SN BKN002///
                        M01/M01 Q1002=
201901230300 METAR LRAR 230300Z AUTO 06002KT 1700 R27/1400V1900U -SN BKN001///
                        BKN003/// M01/M01 Q1002=
201901230330 METAR LRAR 230330Z AUTO 05002KT 1400 R27/1500U -SN FEW001///
                        BKN003/// M01/M01 Q1002=
201901230400 METAR LRAR 230400Z AUTO 07003KT 1700 R27/1800U -SN BKN002///
                        BKN004/// M01/M01 Q1001=
201901230430 METAR LRAR 230430Z AUTO 08002KT 050V110 1700 R27/1800N -SN
                        BKN002/// M00/M00 Q1001=
201901230500 METAR LRAR 230500Z 00000KT 1500 -SN BR OVC002 M00/M00 Q1001
                        R09/690294=
201901230530 METAR LRAR 230530Z VRB01KT 1500 BR OVC002 M00/M00 Q1001 R09/690294=
201901230600 METAR LRAR 230600Z 00000KT 0800 R09/0900 FZFG SCT002 BKN004
                        OVC026 M00/M00 Q1002 R09/494093=
201901230630 METAR LRAR 230630Z 00000KT 0700 R09/0900 R27/1300U FZFG BKN004
                        OVC022 M00/M00 Q1002 R09/494093=
201901230700 METAR LRAR 230700Z VRB02KT 2400 BR FEW005 BKN020 00/00 Q1002
                        R09/494093=
201901230730 METAR LRAR 230730Z 15002KT 5000 BR BKN017 01/01 Q1002 R09/690294=
201901230800 METAR LRAR 230800Z 15003KT 6000 BKN016 01/01 Q1002 R09/690294=
201901230830 METAR LRAR 230830Z 17003KT 7000 BKN015 01/01 Q1002 R09/690294=
201901230900 METAR LRAR 230900Z 16006KT 9000 BKN014 01/01 Q1002 R09/690294=
201901230930 METAR LRAR 230930Z 16004KT 9999 SCT013 BKN020 02/02 Q1002
                        R09/690294=
201901231000 METAR LRAR 231000Z 15004KT 9999 FEW012 BKN021 02/02 Q1001
                        R09/690294=
201901231030 METAR LRAR 231030Z 20005KT 9999 FEW009 BKN022 02/01 Q1001
                        R09/690294=
201901231100 METAR LRAR 231100Z 21005KT 9999 FEW009 BKN011 02/01 Q1001
                        R09/690294=
201901231130 METAR LRAR 231130Z 21005KT 9999 FEW009 BKN020 02/01 Q1001
                        R09/690294=
201901231200 METAR LRAR 231200Z 22003KT 9999 SCT009 BKN022 02/01 Q1001
                        R09/29//95=
201901231230 METAR LRAR 231230Z VRB02KT 9999 BKN023 03/01 Q1000 R09/29//95=
201901231300 METAR LRAR 231300Z VRB02KT 9999 BKN023 02/01 Q1000 R09/29//95=
201901231330 METAR LRAR 231330Z 32003KT 9999 SCT023 02/01 Q1000 R09/29//95=
201901231400 METAR LRAR 231400Z 34003KT 9999 SCT026 02/01 Q1000 R09/29//95=
201901231430 METAR LRAR 231430Z 33004KT 6000 SCT024 02/01 Q1000 R09/29//95=
201901231500 METAR LRAR 231500Z 01004KT 4000 BR SCT015 01/01 Q1000 R09/29//95=
201901231530 METAR LRAR 231530Z 02004KT 3000 BR SCT011 01/01 Q1000 R09/29//95=
201901231600 METAR LRAR 231600Z 05004KT 3000 BR SCT010 00/00 Q1000 R09/29//95=
201901231630 METAR LRAR 231630Z 06005KT 2000 BR SCT009 M00/M00 Q1000 R09/29//95=
201901231700 METAR LRAR 231700Z 02004KT 2300 BR SCT004 M00/M00 Q1000 R09/29//95=
201901231730 METAR LRAR 231730Z 04005KT 2400 BR SCT003 M00/M00 Q1000 R09/29//95=
201901231800 METAR LRAR 231800Z AUTO 03006KT 1900 R27/2000D FG FEW002///
                        ///// Q1000=
201901231830 METAR LRAR 231830Z AUTO 03006KT 2700 FEW002/// ///// Q1000=
201901231900 METAR LRAR 231900Z AUTO 01008KT 0350 R27/0400N -SN FEW001///
                        ///// Q1000=
201901231930 METAR LRAR 231930Z AUTO 01006KT 0400 R27/0450N -SN VV001
                        ///// Q1000=
201901232000 METAR LRAR 232000Z AUTO 01006KT 0600 R27/0700N IC VV001 /////
                        Q1000=
201901232030 METAR LRAR 232030Z AUTO 01007KT 1500 R27/1100V1900U FG VV001
                        ///// Q1000=
201901232100 METAR LRAR 232100Z AUTO 01007KT 3500 FEW001/// BKN003///
                        ///// Q1000 RESN=
201901232130 METAR LRAR 232130Z AUTO 03007KT 3700 SCT002/// BKN004///
                        ///// Q0999=
201901232200 METAR LRAR 232200Z AUTO 03007KT 2500 R27/1700VP2000D BR BKN001///
                        OVC003/// ///// Q0999=
201901232230 METAR LRAR 232230Z AUTO 03010KT 0550 R27/0650N FG VV001 /////
                        Q0999=
201901232300 METAR LRAR 232300Z AUTO 03010KT 0550 R27/0650U -SN VV001
                        ///// Q0999=
201901232330 METAR LRAR 232330Z AUTO 02009KT 0600 R27/0700N -SN VV001
                        ///// Q0999=
201901240000 METAR LRAR 240000Z AUTO 03010KT 0750 R27/0900U -SN VV001
                        ///// Q0999=
201901240030 METAR LRAR 240030Z AUTO 02010KT 0750 R27/0900N -SN VV001
                        ///// Q0999=
201901240100 METAR LRAR 240100Z AUTO 02010KT 0750 R27/0900U FG VV001 /////
                        Q0998=
201901240130 METAR LRAR 240130Z AUTO 02008KT 0700 R27/0800N FG VV001 /////
                        Q0998=
201901240200 METAR LRAR 240200Z AUTO 03009KT 0700 R27/0800N FG VV001 /////
                        Q0998=
201901240230 METAR LRAR 240230Z AUTO 03007KT 0650 R27/0750N FG VV001 /////
                        Q0998=
201901240300 METAR LRAR 240300Z AUTO 03008KT 0800 R27/0900N -SN VV001
                        ///// Q0998=
201901240330 METAR LRAR 240330Z AUTO 02007KT 0800 R27/0900D -SN VV001
                        ///// Q0997=
201901240400 METAR LRAR 240400Z AUTO 03007KT 1100 R27/1200N -SN VV002
                        ///// Q0997=
201901240430 METAR LRAR 240430Z AUTO 02009KT 2000 SG VV002 ///// Q0997=
201901240500 METAR LRAR 240500Z 01010KT 2500 -FZRA BR BKN001 OVC003 M00/M00
                        Q0997 R09/29//95=
201901240530 METAR LRAR 240530Z 02012KT 3000 -RASN BR BKN002 OVC004 M00/M00
                        Q0997 R09/29//95=
201901240600 METAR LRAR 240600Z 02008KT 340V040 2500 -RASN BR BKN003 OVC035
                        M00/M00 Q0997 R09/29//95=
201901240630 METAR LRAR 240630Z 01007KT 2500 -RASN BR BKN003 OVC005 M01/M01
                        Q0997 R09/29//95=
201901240700 METAR COR LRAR 240700Z 36007KT 2000 -FZRA BR SCT003 OVC005
                        M00/M00 Q0998 R09/29//95=
201901240730 METAR LRAR 240730Z 35005KT 2000 -FZRA BR BKN004 OVC006 M00/M00
                        Q0998 R09/29//95=
201901240800 METAR LRAR 240800Z 34006KT 2000 -FZRA BR BKN004 OVC030 M00/M00
                        Q0998 R09/29//95=
201901240830 METAR LRAR 240830Z 04007KT 360V060 2500 -FZRA BR BKN003 OVC007
                        M00/M00 Q0999 R09/29//95=
201901240900 METAR LRAR 240900Z 03006KT 2500 -FZRA BR BKN005 BKN010 M00/M00
                        Q0999 R09/29//95=
201901240930 METAR LRAR 240930Z 36006KT 340V040 3000 -FZRA BR BKN004 BKN010
                        M00/M00 Q0999 R09/29//95=
201901241000 METAR LRAR 241000Z 02007KT 340V050 3000 -FZRA BR BKN004 OVC007
                        M00/M00 Q0999 R09/29//95=
201901241030 METAR LRAR 241030Z 02005KT 350V050 1500 R27/1400D SN BR BKN004
                        OVC006 M00/M00 Q0999 R09/29//95=
201901241100 METAR LRAR 241100Z 01006KT 350V050 1500 R27/1300N SN BR FEW003
                        BKN005 OVC007 M00/M00 Q0999 R09/29//95=
201901241130 METAR LRAR 241130Z 01003KT 1000 R09/1200 R27/1100U SHSN BR
                        BKN004 BKN008 SCT030CB M00/M00 Q0999
                        RESHSN R09/29//95=
201901241200 METAR LRAR 241200Z 35002KT 1600 -SN BR FEW003 BKN005 OVC010
                        00/00 Q0999 RESHSN R09/29//95=
201901241230 METAR LRAR 241230Z 35003KT 1700 -SN BR FEW003 BKN005 OVC010
                        00/00 Q1000 RESHSN R09/29//95=
201901241300 METAR LRAR 241300Z 35003KT 1700 -SN BR SCT003 OVC005 00/00
                        Q1000 R09/29//95=
201901241330 METAR LRAR 241330Z VRB02KT 1800 -SN BR SCT002 OVC005 00/00
                        Q1000 R09/29//95=
201901241400 METAR LRAR 241400Z 30002KT 2000 -SN BR FEW001 SCT003 OVC008
                        M00/M00 Q1000 R09/29//95=
201901241430 METAR LRAR 241430Z 25002KT 2000 -SN BR FEW001 SCT003 OVC007
                        M00/M00 Q1001 R09/29//95=
201901241500 METAR LRAR 241500Z VRB01KT 1700 -SN BR SCT002 OVC006 M00/M00
                        Q1001 R09/29//95=
201901241530 METAR LRAR 241530Z VRB01KT 1200 R09/1400 R27/1400N SN BR
                        FEW001 SCT003 OVC005 00/00 Q1001
                        R09/29//95=
201901241600 METAR LRAR 241600Z 14003KT 1800 -SN BR SCT002 OVC004 M00/M00
                        Q1001 RESN R09/29//95=
201901241630 METAR LRAR 241630Z 15003KT 1800 -SN BR SCT002 OVC005 00/00
                        Q1001 RESN R09/29//95=
201901241700 METAR LRAR 241700Z 17006KT 3500 -SN BR SCT002 BKN004 00/00
                        Q1002 R09/29//95=
201901241730 METAR LRAR 241730Z 19007KT 5000 -SN BR FEW003 SCT005 BKN008
                        00/00 Q1002 R09/29//95=
201901241800 METAR LRAR 241800Z 20006KT 4500 -SN BR BKN004 OVC006 00/00
                        Q1003 R09/690195=
201901241830 METAR LRAR 241830Z AUTO 19005KT 2100 BR OVC002/// 00/00 Q1003=
201901241900 METAR LRAR 241900Z AUTO 20006KT 2800 BKN001/// OVC003///
                        M00/M00 Q1003=
201901241930 METAR LRAR 241930Z AUTO 19005KT 3500 -FZRA FEW002/// BKN004///
                        M00/M00 Q1004=
201901242000 METAR LRAR 242000Z AUTO 20004KT 3300 R27/2000 -SN SCT003///
                        BKN005/// BKN010/// M00/M00 Q1004=
201901242030 METAR LRAR 242030Z AUTO 20005KT 4000 UP FEW002/// SCT004///
                        BKN050/// M00/M00 Q1004=
201901242100 METAR LRAR 242100Z AUTO 21006KT 5000 FEW003/// BKN005///
                        M00/M00 Q1004 RESN=
201901242130 METAR LRAR 242130Z AUTO 20004KT 170V230 4700 BR SCT004///
                        BKN008/// BKN010/// M00/M00 Q1005=
201901242200 METAR LRAR 242200Z AUTO 19005KT 4400 -FZRA SCT005/// BKN007///
                        BKN011/// M00/M00 Q1005=
201901242230 METAR LRAR 242230Z AUTO 19004KT 4600 OVC009/// M00/M00 Q1005
                        REFZRA=
201901242300 METAR LRAR 242300Z AUTO 19004KT 4100 -FZRA FEW006/// BKN013///
                        M00/M00 Q1005=
201901242330 METAR LRAR 242330Z AUTO 18004KT 150V210 4400 -FZRA BKN011///
                        BKN014/// M00/M00 Q1005=
201901250000 METAR LRAR 250000Z AUTO 18004KT 3900 SG OVC010/// M00/M00
                        Q1006=
201901250030 METAR LRAR 250030Z AUTO 18004KT 3700 -SN SCT007/// OVC009///
                        M00/M00 Q1006=
201901250100 METAR LRAR 250100Z AUTO 18003KT 3000 -SN BKN005/// OVC007///
                        M00/M00 Q1006=
201901250130 METAR LRAR 250130Z AUTO 16004KT 3400 -SN SCT007/// BKN009///
                        OVC011/// M00/M00 Q1006=
201901250200 METAR LRAR 250200Z AUTO 18003KT 3100 R27/2000 -SN BKN003///
                        OVC006/// M00/M00 Q1006=
201901250230 METAR LRAR 250230Z AUTO 19004KT 160V220 1700 R27/1300VP2000D
                        -SN BKN002/// OVC004/// M00/M00 Q1006=
201901250300 METAR LRAR 250300Z AUTO 18004KT 150V210 2500 -FZDZ BKN001///
                        OVC003/// M00/M00 Q1006=
201901250330 METAR LRAR 250330Z AUTO 20004KT 3500 -FZRA FEW003/// OVC006///
                        M00/M00 Q1007=
201901250400 METAR LRAR 250400Z AUTO 20004KT 3700 -SN FEW004/// BKN006///
                        BKN008/// M01/M01 Q1007=
201901250430 METAR LRAR 250430Z AUTO VRB01KT 3700 -SN OVC005/// M01/M01
                        Q1007=
201901250500 METAR COR LRAR 250500Z 17003KT 3800 -SN BR OVC006 M01/M01
                        Q1007 R09/690195=
201901250530 METAR LRAR 250530Z 19002KT 3500 -SN BR OVC005 M01/M01 Q1007
                        R09/690195=
201901250600 METAR LRAR 250600Z 19002KT 3000 -SN BR SCT005 BKN008 M01/M01
                        Q1007 R09/590294=
201901250630 METAR LRAR 250630Z VRB02KT 2400 BR FEW003 BKN007 OVC009 M01/M01
                        Q1007 R09/590294=
201901250700 METAR LRAR 250700Z 23002KT 2000 BR SCT003 OVC007 M01/M01
                        Q1008 R09/590294=
201901250730 METAR LRAR 250730Z 26003KT 1500 BR SCT002 BKN004 OVC007 M00/M00
                        Q1008 R09/590294=
201901250800 METAR LRAR 250800Z VRB01KT 2000 BR SCT001 BKN003 M00/M00
                        Q1008 R09/590294=
201901250830 METAR LRAR 250830Z VRB02KT 2600 BR FEW002 BKN004 OVC006 M00/M00
                        Q1008 R09/590294=
201901250900 METAR LRAR 250900Z 33003KT 2600 BR SCT003 BKN007 M00/M00
                        Q1008 R09/590294=
201901250930 METAR LRAR 250930Z 32003KT 280V350 2000 BR SCT005 OVC007
                        00/00 Q1008 R09/29//95=
201901251000 METAR LRAR 251000Z 31003KT 2000 BR OVC006 00/00 Q1008 R09/29//95=
201901251030 METAR COR LRAR 251030Z 35004KT 2000 BR BKN003 OVC005 00/00
                        Q1008 R09/29//95=
201901251100 METAR LRAR 251100Z 33003KT 2500 BR SCT003 OVC006 00/00 Q1008
                        R09/29//95=
201901251130 METAR COR LRAR 251130Z 31005KT 2700 BR OVC006 M00/M00 Q1008
                        R09/29//95=
201901251200 METAR LRAR 251200Z 32007KT 1500 BR BKN002 M00/M00 Q1008 R09/29//95=
201901251230 METAR LRAR 251230Z 33007KT 1500 BR OVC002 M01/M01 Q1008 R09/29//95=
201901251300 METAR LRAR 251300Z 35006KT 1800 BR OVC002 M00/M00 Q1008 R09/29//95=
201901251330 METAR LRAR 251330Z 35006KT 2100 BR SCT003 OVC004 M00/M00
                        Q1008 R09/29//95=
201901251400 METAR LRAR 251400Z 36007KT 2600 BR BKN003 OVC004 M00/M00
                        Q1008 R09/29//95=
201901251430 METAR LRAR 251430Z 35006KT 1500 BR SCT002 BKN003 M00/M00
                        Q1008 R09/29//95=
201901251500 METAR LRAR 251500Z 35005KT 1800 BR SCT002 OVC003 M00/M00
                        Q1008 R09/29//95=
201901251530 METAR LRAR 251530Z 35006KT 2000 -SN BR BKN002 OVC005 M00/M00
                        Q1007 R09/29//95=
201901251600 METAR LRAR 251600Z 35007KT 2300 -SN BR SCT003 BKN005 M00/M00
                        Q1007 R09/29//95=
201901251630 METAR LRAR 251630Z 34008KT 1800 -SN BR BKN002 OVC004 M01/M01
                        Q1007 R09/29//95=
201901251700 METAR LRAR 251700Z 34007KT 1800 -SN BR BKN002 OVC003 M01/M01
                        Q1008 R09/29//95=
201901251730 METAR LRAR 251730Z AUTO 34008KT 1800 R27/2000U -SN OVC002///
                        M01/M01 Q1007=
201901251800 METAR LRAR 251800Z AUTO 34008KT 2200 -SN SCT002/// BKN004///
                        M01/M01 Q1007=
201901251830 METAR LRAR 251830Z AUTO 35007KT 2200 -SN BKN002/// OVC004///
                        M00/M00 Q1007=
201901251900 METAR LRAR 251900Z AUTO 35007KT 2200 -SN BKN002/// M01/M01
                        Q1007=
201901251930 METAR LRAR 251930Z AUTO 35009KT 2700 -SN FEW002/// OVC004///
                        M01/M01 Q1007=
201901252000 METAR LRAR 252000Z AUTO 35009KT 2700 -SN FEW003/// BKN005///
                        BKN008/// M01/M01 Q1007=
201901252030 METAR LRAR 252030Z AUTO 34008KT 2400 -SN SCT004/// BKN006///
                        OVC008/// M02/M02 Q1007=
201901252100 METAR LRAR 252100Z AUTO 35008KT 2900 -SN BKN004/// BKN006///
                        M02/M02 Q1007=
201901252130 METAR LRAR 252130Z AUTO 35008KT 3100 -SN SCT004/// BKN006///
                        OVC008/// M02/M02 Q1007=
201901252200 METAR LRAR 252200Z AUTO 35007KT 3200 -SN FEW004/// BKN006///
                        BKN008/// M02/M02 Q1007=
201901252230 METAR LRAR 252230Z AUTO 35008KT 3300 R27/2000 -SN FEW006///
                        OVC008/// M02/M02 Q1007=
201901252300 METAR LRAR 252300Z AUTO 34008KT 3300 R27/2000 -SN FEW006///
                        BKN008/// M03/M03 Q1007=
201901252330 METAR LRAR 252330Z AUTO 34008KT 3100 R27/2000 -SN FEW005///
                        OVC008/// M03/M03 Q1007=
201901260000 METAR LRAR 260000Z AUTO 34009KT 2800 -SN FEW005/// BKN009///
                        M03/M03 Q1007=
201901260030 METAR LRAR 260030Z AUTO 34009KT 2700 -SN FEW004/// OVC010///
                        M03/M03 Q1007=
201901260100 METAR LRAR 260100Z AUTO 34008KT 3400 -SN FEW004/// SCT006///
                        BKN012/// M03/M03 Q1007=
201901260130 METAR LRAR 260130Z AUTO 34009KT 2800 -SN FEW005/// SCT007///
                        BKN012/// M03/M03 Q1007=
201901260200 METAR LRAR 260200Z AUTO 34008KT 3300 -SN SCT005/// BKN008///
                        BKN011/// M03/M03 Q1007=
201901260230 METAR LRAR 260230Z AUTO 34009KT 3200 R27/2000 -SN FEW004///
                        BKN006/// BKN008/// M03/M03 Q1007=
201901260300 METAR LRAR 260300Z AUTO 34010KT 3100 R27/2000 -SN FEW005///
                        BKN008/// BKN014/// M03/M03 Q1007=
201901260330 METAR LRAR 260330Z AUTO 34009KT 3600 -SN FEW005/// BKN008///
                        BKN013/// M03/M03 Q1007=
201901260400 METAR LRAR 260400Z AUTO 34009KT 3700 -SN FEW005/// BKN008///
                        BKN010/// M03/M03 Q1007=
201901260430 METAR LRAR 260430Z AUTO 35009KT 3900 -SN FEW006/// BKN009///
                        OVC011/// M04/M04 Q1007=
201901260500 METAR LRAR 260500Z 35010KT 3000 -SN BR OVC007 M04/M04 Q1008
                        R09/29//95=
201901260530 METAR LRAR 260530Z 35009KT 3000 -SN BR SCT006 BKN008 OVC010
                        M04/M04 Q1008 R09/29//95=
201901260600 METAR LRAR 260600Z 35008KT 3000 -SN BR FEW005 SCT007 OVC010
                        M04/M04 Q1008 R09/29//95=
201901260630 METAR LRAR 260630Z 34008KT 3500 -SN BR SCT005 BKN008 BKN019
                        M04/M04 Q1008 R09/495592=
201901260700 METAR LRAR 260700Z 35008KT 2000 -SN BR BKN006 OVC008 M04/M04
                        Q1008 R09/495592=
201901260730 METAR LRAR 260730Z 34007KT 2200 -SN BR BKN006 OVC008 M04/M04
                        Q1008 R09/495592=
201901260800 METAR LRAR 260800Z 34006KT 2500 -SN BR BKN006 OVC020 M04/M04
                        Q1008 R09/495592=
201901260830 METAR LRAR 260830Z 35007KT 2300 -SN BR SCT005 BKN007 OVC010
                        M04/M04 Q1009 R09/495592=
201901260900 METAR LRAR 260900Z 33010KT 2000 -SN BR BKN007 BKN011 M04/M04
                        Q1009 R09/790592=
201901260930 METAR LRAR 260930Z 32008KT 4000 -SN BR SCT006 BKN009 BKN012
                        M03/M03 Q1009 R09/790592=
201901261000 METAR LRAR 261000Z 32008KT 4000 -SG BR FEW007 BKN010 M03/M03
                        Q1009 R09/790592=
201901261030 METAR LRAR 261030Z 33007KT 5000 BR FEW008 BKN011 M03/M03
                        Q1009 R09/790592=
201901261100 METAR LRAR 261100Z 30008KT 5000 -SN BR FEW013 SCT020 BKN025
                        M03/M03 Q1009 R09/790592=
201901261130 METAR LRAR 261130Z 30009KT 6000 FEW009 SCT012 OVC019 M03/M03
                        Q1009 R09/790592=
201901261200 METAR LRAR 261200Z 28005KT 7000 BKN018 BKN026 M03/M03 Q1009
                        R09/790592=
201901261230 METAR LRAR 261230Z 26004KT 7000 SCT018 BKN026 M03/M03 Q1009
                        R09/790592=
201901261300 METAR LRAR 261300Z 27004KT 8000 NSC M03/M03 Q1009 R09/390192=
201901261330 METAR LRAR 261330Z 29006KT 8000 FEW012 M03/M03 Q1009 R09/390192=
201901261400 METAR LRAR 261400Z 27003KT 240V300 8000 FEW013 M03/M03 Q1009
                        R09/390192=
201901261430 METAR LRAR 261430Z 22005KT 7000 SCT013 M03/M03 Q1009 R09/390192=
201901261500 METAR LRAR 261500Z 23005KT 7000 NSC M03/M03 Q1009 R09/390192=
201901261530 METAR LRAR 261530Z 21005KT 6000 NSC M04/M04 Q1009 R09/390192=
201901261600 METAR LRAR 261600Z 20004KT 6000 NSC M05/M05 Q1010 R09/790192=
201901261630 METAR LRAR 261630Z 20007KT 6000 NSC M04/M04 Q1009 R09/790192=
201901261700 METAR LRAR 261700Z 19008KT 7000 NSC M04/M04 Q1009 R09/790192=
201901261730 METAR LRAR 261730Z AUTO 20006KT 5000 NCD M04/M04 Q1010=
201901261800 METAR LRAR 261800Z AUTO 19005KT 5000 BR NCD M04/M04 Q1010=
201901261830 METAR LRAR 261830Z AUTO 19006KT 5000 BR NCD M04/M04 Q1010=
201901261900 METAR LRAR 261900Z AUTO 19006KT 5000 BR SCT033/// M04/M04
                        Q1010=
201901261930 METAR LRAR 261930Z AUTO 19006KT 6000 BKN027/// BKN033///
                        M04/M04 Q1010=
201901262000 METAR LRAR 262000Z AUTO 19008KT 5000 -FZRA FEW013/// BKN028///
                        M04/M04 Q1010=
201901262030 METAR LRAR 262030Z AUTO 21006KT 3900 -FZDZ FEW009/// BKN013///
                        BKN016/// M04/M04 Q1010=
201901262100 METAR LRAR 262100Z AUTO 21006KT 4100 -SN SCT009/// BKN011///
                        M04/M04 Q1010=
201901262130 METAR LRAR 262130Z AUTO 20005KT 4300 -SN FEW008/// BKN010///
                        BKN020/// M04/M04 Q1010=
201901262200 METAR LRAR 262200Z AUTO 17006KT 4500 -SN FEW007/// SCT014///
                        BKN026/// M04/M04 Q1010=
201901262230 METAR LRAR 262230Z AUTO 17008KT 5000 FEW026/// BKN034///
                        M04/M04 Q1010 REFZRA=
201901262300 METAR LRAR 262300Z AUTO 17007KT 5000 BKN036/// BKN041///
                        M04/M04 Q1010 REFZRA=
201901262330 METAR LRAR 262330Z AUTO 16008KT 4900 BR BKN040/// M04/M04
                        Q1010=
201901270000 METAR LRAR 270000Z AUTO 16009KT 4800 BR BKN040/// M04/M04
                        Q1010=
201901270030 METAR LRAR 270030Z AUTO 16009KT 4800 BR FEW023/// SCT032///
                        BKN039/// M03/M03 Q1010=
201901270100 METAR LRAR 270100Z AUTO 15009KT 4700 BR BKN027/// M03/M03
                        Q1010=
201901270130 METAR LRAR 270130Z AUTO 16006KT 5000 BR BKN027/// M03/M03
                        Q1010=
201901270200 METAR LRAR 270200Z AUTO 17007KT 5000 -FZRA FEW011/// BKN026///
                        M03/M03 Q1010=
201901270230 METAR LRAR 270230Z AUTO 16009KT 3600 -FZRA SCT010/// BKN013///
                        BKN025/// M03/M03 Q1009=
201901270300 METAR LRAR 270300Z AUTO 17008KT 3900 -FZRA FEW008/// BKN010///
                        BKN015/// M03/M03 Q1009=
201901270330 METAR LRAR 270330Z AUTO 17009KT 2700 -SN VV008 M03/M03 Q1009=
201901270400 METAR LRAR 270400Z AUTO 16011KT 3300 -SN FEW008/// BKN010///
                        BKN023/// M03/M03 Q1008=
201901270430 METAR LRAR 270430Z AUTO 17008KT 5000 -SN FEW008/// BKN025///
                        M03/M03 Q1008=
201901270500 METAR LRAR 270500Z 18007KT 6000 BKN014 BKN026 M03/M03 Q1008
                        R09/790192=
201901270530 METAR LRAR 270530Z 17010KT 6000 FEW014 SCT017 BKN021 M03/M03
                        Q1008 R09/790192=
201901270600 METAR LRAR 270600Z 16010KT 6000 SCT024 BKN028 M03/M03 Q1008
                        R09/790192=
201901270630 METAR LRAR 270630Z 16009KT 7000 SCT028 BKN035 M03/M03 Q1008
                        R09/790192=
201901270700 METAR LRAR 270700Z 17008KT 6000 BKN035 M02/M02 Q1008 R09/790192=
201901270730 METAR LRAR 270730Z 17008KT 6000 BKN037 M02/M02 Q1008 R09/790192=
201901270800 METAR LRAR 270800Z 16008KT 6000 SCT040 M02/M02 Q1008 R09/790192=
201901270830 METAR LRAR 270830Z 16010KT 6000 FEW046 M02/M02 Q1008 R09/790192=
201901270900 METAR LRAR 270900Z 16011KT 6000 NSC M02/M02 Q1007 R09/790192=
201901270930 METAR COR LRAR 270930Z 16012KT 6000 NSC M01/M01 Q1007 R09/790192=
201901271000 METAR LRAR 271000Z 16012KT 7000 NSC M01/M01 Q1007 R09/790192=
201901271030 METAR LRAR 271030Z 16012KT 8000 NSC M01/M01 Q1006 R09/790192=
201901271100 METAR LRAR 271100Z 16012KT 8000 NSC M00/M00 Q1006 R09/99//95=
201901271130 METAR LRAR 271130Z 16012KT 7000 NSC 00/00 Q1006 R09/99//95=
201901271200 METAR LRAR 271200Z 16011KT CAVOK 01/01 Q1005 R09/99//95=
201901271230 METAR LRAR 271230Z 15011KT CAVOK 01/01 Q1005 R09/99//95=
201901271300 METAR LRAR 271300Z 15011KT CAVOK 01/01 Q1004 R09/99//95=
201901271330 METAR LRAR 271330Z 15011KT CAVOK 02/M02 Q1004 R09/99//95=
201901271400 METAR LRAR 271400Z 15008KT CAVOK 02/M01 Q1004 R09/99//95=
201901271430 METAR LRAR 271430Z 14008KT CAVOK 01/M01 Q1004 R09/99//95=
201901271500 METAR LRAR 271500Z 14009KT CAVOK 01/M01 Q1003 R09/92//95=
201901271530 METAR LRAR 271530Z 14010KT CAVOK 01/M01 Q1003 R09/92//95=
201901271600 METAR COR LRAR 271600Z 14010KT CAVOK 01/M01 Q1003 R09/92//95=
201901271630 METAR LRAR 271630Z 13011KT CAVOK 01/M01 Q1003 R09/92//95=
201901271700 METAR LRAR 271700Z 14012KT CAVOK 01/M01 Q1003 R09/92//95=
201901271730 METAR LRAR 271730Z AUTO 14012KT 9999 NCD 01/M01 Q1002=
201901271800 METAR LRAR 271800Z AUTO 14013KT 9999 NCD 02/M01 Q1002=
201901271830 METAR LRAR 271830Z AUTO 14014KT 9999 NCD 02/M01 Q1002=
201901271900 METAR LRAR 271900Z AUTO 15014KT 9999 NCD 02/M01 Q1001=
201901271930 METAR LRAR 271930Z AUTO 15013KT 9999 NCD 02/M01 Q1001=
201901272000 METAR LRAR 272000Z AUTO 15012KT 9999 NCD 01/M01 Q1001=
201901272030 METAR LRAR 272030Z AUTO 15013KT 9999 NCD 01/M01 Q1001=
201901272100 METAR LRAR 272100Z AUTO 14011KT 9999 NCD 01/M01 Q1001=
201901272130 METAR LRAR 272130Z AUTO 14011KT 9999 NCD 01/M01 Q1001=
201901272200 METAR LRAR 272200Z AUTO 15012KT 9999 NCD 01/M01 Q1001=
201901272230 METAR LRAR 272230Z AUTO 14011KT 9999 NCD 01/M01 Q1001=
201901272300 METAR LRAR 272300Z AUTO 15014KT 9999 NCD 01/M01 Q1001=
201901272330 METAR LRAR 272330Z AUTO 15013KT 9999 NCD 01/M01 Q1000=
201901280000 METAR LRAR 280000Z AUTO 15012KT 9999 NCD 01/M02 Q1000=
201901280030 METAR LRAR 280030Z AUTO 15013KT 9999 NCD 01/M02 Q1000=
201901280100 METAR LRAR 280100Z AUTO 15013KT 9999 NCD 01/M02 Q1000=
201901280130 METAR LRAR 280130Z AUTO 15013KT 9999 NCD 01/M01 Q1000=
201901280200 METAR LRAR 280200Z AUTO 15012KT 9999 NCD 01/M02 Q1000=
201901280230 METAR LRAR 280230Z AUTO 14010KT 9999 NCD 01/M02 Q0999=
201901280300 METAR LRAR 280300Z AUTO 14010KT 9999 NCD 01/M01 Q0999=
201901280330 METAR LRAR 280330Z AUTO 14010KT 9999 NCD 01/M01 Q0999=
201901280400 METAR LRAR 280400Z AUTO 14011KT 9999 NCD 02/M01 Q0999=
201901280430 METAR LRAR 280430Z AUTO 14011KT 9999 NCD 02/M01 Q0998=
201901280500 METAR LRAR 280500Z 14012KT CAVOK 02/M01 Q0998 R09/92//95=
201901280530 METAR LRAR 280530Z 13010KT CAVOK 02/M01 Q0998 R09/92//95=
201901280600 METAR LRAR 280600Z 14013KT CAVOK 03/M01 Q0998 R09/92//95=
201901280630 METAR LRAR 280630Z 14011KT CAVOK 03/M01 Q0998 R09/92//95=
201901280700 METAR LRAR 280700Z 14010KT CAVOK 03/M01 Q0998 R09/92//95=
201901280730 METAR LRAR 280730Z 14011KT CAVOK 03/M01 Q0998 R09/92//95=
201901280800 METAR LRAR 280800Z 14011KT CAVOK 03/M01 Q0998 R09/92//95=
201901280830 METAR LRAR 280830Z 14010KT CAVOK 04/M01 Q0997 R09/92//95=
201901280900 METAR LRAR 280900Z 14010KT CAVOK 04/M00 Q0997 R09/92//95=
201901280930 METAR LRAR 280930Z 15010KT CAVOK 04/M00 Q0997 R09/92//95=
201901281000 METAR LRAR 281000Z 15010KT CAVOK 04/M00 Q0997 R09/92//95=
201901281030 METAR LRAR 281030Z 14011KT CAVOK 04/M00 Q0997 R09/92//95=
201901281100 METAR LRAR 281100Z 15009KT CAVOK 04/M00 Q0997 R09/92//95=
201901281130 METAR LRAR 281130Z 14009KT CAVOK 04/00 Q0996 R09/92//95=
201901281200 METAR LRAR 281200Z 14009KT CAVOK 05/00 Q0996 R09/62//95=
201901281230 METAR LRAR 281230Z 15010KT CAVOK 05/00 Q0996 R09/62//95=
201901281300 METAR LRAR 281300Z 14009KT CAVOK 05/00 Q0996 R09/62//95=
201901281330 METAR LRAR 281330Z 14009KT 9999 -RA SCT045 05/00 Q0995 R09/62//95=
201901281400 METAR LRAR 281400Z 14012KT 9999 -RA FEW011 SCT016 BKN045
                        05/01 Q0995 R09/62//95=
201901281430 METAR LRAR 281430Z 14010KT 9999 -RA FEW011 SCT014 BKN017
                        05/01 Q0995 R09/62//95=
201901281500 METAR LRAR 281500Z 14007KT 9999 FEW014 SCT045 05/01 Q0996
                        R09/29//95=
201901281530 METAR LRAR 281530Z VRB02KT 9999 -RA FEW020 BKN048 04/01 Q0996
                        R09/29//95=
201901281600 METAR LRAR 281600Z 35002KT 9999 SCT048 03/01 Q0996 R09/29//95=
201901281630 METAR LRAR 281630Z 01005KT 9999 -RA FEW012 SCT049 03/01 Q0997
                        R09/29//95=
201901281700 METAR LRAR 281700Z VRB04KT 9000 -RA SCT015 BKN025 02/01 Q0997
                        R09/29//95=
201901281730 METAR LRAR 281730Z AUTO VRB01KT 9000 -SN FEW011/// BKN047///
                        02/02 Q0997=
201901281800 METAR LRAR 281800Z AUTO 31004KT 6000 BKN048/// 01/01 Q0997
                        RESN=
201901281830 METAR LRAR 281830Z AUTO 30004KT 5000 BR BKN047/// ///// Q0998=
201901281900 METAR LRAR 281900Z AUTO 30003KT 5000 BR BKN047/// ///// Q0998=
201901281930 METAR LRAR 281930Z AUTO 28003KT 250V330 4700 BR BKN056///
                        ///// Q0998=
201901282000 METAR LRAR 282000Z AUTO 26002KT 4900 BR BKN048/// ///// Q0999=
201901282030 METAR LRAR 282030Z AUTO 16003KT 140V210 5000 BR BKN048///
                        ///// Q0999=
201901282100 METAR LRAR 282100Z AUTO 19008KT 9999 SCT040/// BKN050///
                        03/01 Q0999=
201901282130 METAR LRAR 282130Z AUTO 19009KT 9999 FEW037/// BKN050///
                        03/01 Q0999=
201901282200 METAR LRAR 282200Z AUTO 20010KT 9999 FEW047/// SCT066///
                        02/01 Q1000=
201901282230 METAR LRAR 282230Z AUTO 20011KT 7000 SCT040/// BKN046///
                        02/01 Q1000=
201901282300 METAR LRAR 282300Z AUTO 20010KT 5000 FEW010/// SCT040///
                        01/01 Q1000=
201901282330 METAR LRAR 282330Z AUTO 21009KT 5000 BR BKN038/// 01/01 Q1000=
201901290000 METAR LRAR 290000Z AUTO 23011KT 3500 BR FEW002/// SCT034///
                        BKN040/// 01/01 Q1001=
201901290030 METAR LRAR 290030Z AUTO 21008KT 1200 R27/1200D FG VV002 /////
                        Q1001=
201901290100 METAR LRAR 290100Z AUTO 22006KT 1900 R27/2000N FG VV002 /////
                        Q1002=
201901290130 METAR LRAR 290130Z AUTO 25005KT 1600 R27/1200VP2000D FG VV002
                        ///// Q1002=
201901290200 METAR LRAR 290200Z AUTO 25005KT 0700 R27/0800N FG VV001 /////
                        Q1002=
201901290230 METAR LRAR 290230Z AUTO 23004KT 0600 R27/0750N FG VV001 /////
                        Q1002=
201901290300 METAR LRAR 290300Z AUTO 21003KT 0800 R27/0750V1100D FG VV001
                        ///// Q1003=
201901290330 METAR LRAR 290330Z AUTO 26003KT 0550 R27/0650N FG VV001 /////
                        Q1003=
201901290400 METAR LRAR 290400Z AUTO 21003KT 0900 R27/1100N FG VV002 /////
                        Q1004=
201901290430 METAR LRAR 290430Z AUTO 28005KT 1000 R27/0900V1400D FG VV001
                        ///// Q1004=
201901290500 METAR LRAR 290500Z 28002KT 0400 R09/0600 R27/0650N FG VV001
                        00/00 Q1004 R09/29//95=
201901290530 METAR LRAR 290530Z 24003KT 0400 R09/0600 R27/0650N FG VV001
                        00/00 Q1005 R09/29//95=
201901290600 METAR LRAR 290600Z 27003KT 0300 R09/0500 R27/0400N FG VV001
                        00/00 Q1005 R09/29//95=
201901290630 METAR LRAR 290630Z 27004KT 0400 R09/0600 R27/0500N FG VV001
                        00/00 Q1005 R09/29//95=
201901290700 METAR LRAR 290700Z VRB02KT 0500 R09/0700 R27/0800N FG OVC001
                        00/00 Q1005 R09/29//95=
201901290730 METAR LRAR 290730Z 17003KT 0500 R09/0700 R27/0650N FG BKN001
                        00/00 Q1006 R09/29//95=
201901290800 METAR LRAR 290800Z VRB02KT 0400 R09/0600 R27/0450N FG BKN001
                        00/00 Q1006 R09/29//95=
201901290830 METAR LRAR 290830Z 15004KT 0400 R09/0600 R27/0550N FZFG OVC001
                        M00/M00 Q1007 R09/29//95=
201901290900 METAR COR LRAR 290900Z 21003KT 1500 BR BKN001 OVC002 M00/M00
                        Q1007 R09/29//95=
201901290930 METAR LRAR 290930Z 20005KT 3000 BR SCT001 SCT004 00/00 Q1008
                        R09/29//95=
201901291000 METAR LRAR 291000Z VRB02KT 4000 BR NSC 01/01 Q1007 R09/29//95=
201901291030 METAR LRAR 291030Z 00000KT 5000 BR NSC 03/03 Q1007 R09/19//95=
201901291100 METAR LRAR 291100Z 15004KT 5000 BR NSC 03/03 Q1007 R09/19//95=
201901291130 METAR LRAR 291130Z 20005KT 4000 BR NSC 02/02 Q1007 R09/19//95=
201901291200 METAR LRAR 291200Z 20005KT 4000 BR NSC 01/01 Q1007 R09/19//95=
201901291230 METAR LRAR 291230Z 00000KT 5000 BR NSC 02/02 Q1007 R09/19//95=
201901291300 METAR LRAR 291300Z VRB01KT 5000 BR NSC 03/02 Q1007 R09/CLRD//=
201901291330 METAR LRAR 291330Z 17001KT 7000 NSC 03/01 Q1007=
201901291400 METAR LRAR 291400Z 27003KT 7000 NSC 03/01 Q1007=
201901291430 METAR LRAR 291430Z 27002KT 8000 NSC 03/01 Q1007=
201901291500 METAR LRAR 291500Z VRB02KT 7000 NSC 02/01 Q1007=
201901291530 METAR LRAR 291530Z 19003KT 4000 BR NSC 01/01 Q1007=
201901291600 METAR LRAR 291600Z 19005KT 3500 BR NSC 00/00 Q1007=
201901291630 METAR LRAR 291630Z 25004KT 3500 BR NSC M00/M00 Q1007=
201901291700 METAR LRAR 291700Z 25002KT 4000 BR NSC M00/M00 Q1007=
201901291730 METAR LRAR 291730Z AUTO 00000KT 3100 R27/2000 BR SCT076///
                        ///// Q1007=
201901291800 METAR LRAR 291800Z AUTO 29002KT 270V330 2800 BR FEW061///
                        SCT086/// ///// Q1007=
201901291830 METAR LRAR 291830Z AUTO 00000KT 3000 R27/2000 BR FEW061///
                        ///// Q1007=
201901291900 METAR LRAR 291900Z AUTO 10002KT 070V140 3400 BR SCT071///
                        ///// Q1006=
201901291930 METAR LRAR 291930Z AUTO 12003KT 3300 R27/2000 BR FEW076///
                        ///// Q1006=
201901292000 METAR LRAR 292000Z AUTO VRB01KT 3100 R27/2000 BR FEW066///
                        ///// Q1006=
201901292030 METAR LRAR 292030Z AUTO 25002KT 2900 R27/2000 BR FEW081///
                        ///// Q1006=
201901292100 METAR LRAR 292100Z AUTO 32002KT 2800 BR FEW042/// SCT061///
                        ///// Q1006=
201901292130 METAR LRAR 292130Z AUTO 32002KT 280V350 2800 BR SCT037///
                        BKN050/// ///// Q1006=
201901292200 METAR LRAR 292200Z AUTO 31003KT 2500 BR BKN036/// ///// Q1006=
201901292230 METAR LRAR 292230Z AUTO 00000KT 2900 BR BKN035/// BKN041///
                        ///// Q1006=
201901292300 METAR LRAR 292300Z AUTO VRB01KT 3100 R27/2000 BR BKN039///
                        ///// Q1005=
201901292330 METAR LRAR 292330Z AUTO 31002KT 2500 BR BKN038/// ///// Q1005=
201901300000 METAR LRAR 300000Z AUTO 00000KT 3000 R27/2000 BR BKN032///
                        BKN037/// ///// Q1005=
201901300030 METAR LRAR 300030Z AUTO 31004KT 2300 BR BKN028/// ///// Q1004=
201901300100 METAR LRAR 300100Z AUTO 01004KT 2900 BR SCT040/// BKN047///
                        ///// Q1004=
201901300130 METAR LRAR 300130Z AUTO 00000KT 3100 R27/2000 BR FEW029///
                        BKN045/// ///// Q1004=
201901300200 METAR LRAR 300200Z AUTO 31002KT 3000 R27/2000 BR OVC028///
                        ///// Q1004=
201901300230 METAR LRAR 300230Z AUTO 31002KT 2700 BR BKN028/// ///// Q1004=
201901300300 METAR LRAR 300300Z AUTO 29003KT 2400 BR BKN027/// ///// Q1003=
201901300330 METAR LRAR 300330Z AUTO 30003KT 3000 -FZRA BKN026/// /////
                        Q1003=
201901300400 METAR LRAR 300400Z AUTO VRB01KT 2500 -FZRA FEW007/// SCT013///
                        BKN029/// ///// Q1003=
201901300430 METAR LRAR 300430Z AUTO 04002KT 2700 -FZRA FEW023/// SCT028///
                        ///// Q1003=
201901300500 METAR LRAR 300500Z VRB02KT 3000 -RASN BR SCT020 BKN030 00/00
                        Q1003=
201901300530 METAR LRAR 300530Z 31004KT 2000 -RASN BR FEW003 SCT005 BKN018
                        00/00 Q1003=
201901300600 METAR LRAR 300600Z VRB02KT 2000 -RASN BR FEW004 BKN017 00/00
                        Q1003 R09/29//95=
201901300630 METAR LRAR 300630Z 06002KT 1600 -RA BR BKN005 BKN016 00/00
                        Q1003 R09/29//95=
201901300700 METAR LRAR 300700Z VRB01KT 1500 -DZ BR FEW005 BKN010 OVC018
                        00/00 Q1002 R09/29//95=
201901300730 METAR LRAR 300730Z VRB01KT 1000 R09/1200 R27/1200N -DZ BR
                        FEW006 BKN015 BKN025 01/01 Q1002
                        R09/29//95=
201901300800 METAR LRAR 300800Z 09003KT 1500 BR FEW008 BKN029 01/01 Q1002
                        R09/29//95=
201901300830 METAR LRAR 300830Z 09002KT 2000 BR SCT024 BKN030 01/01 Q1002
                        R09/29//95=
201901300900 METAR LRAR 300900Z 11004KT 1800 -RA BR SCT008 BKN019 01/01
                        Q1003 R09/29//95=
201901300930 METAR LRAR 300930Z 12001KT 1500 R27/1800D -RA BR SCT002 BKN010
                        BKN013 02/02 Q1003 R09/29//95=
201901301000 METAR LRAR 301000Z 29005KT 0900 R09/1000 R27/1100D -RASN
                        FG FEW002 BKN004 BKN014 01/01 Q1003
                        R09/29//95=
201901301030 METAR LRAR 301030Z 32005KT 0800 R09/1000 R27/0900D -RASN
                        FG SCT001 BKN003 01/01 Q1002 R09/29//95=
201901301100 METAR LRAR 301100Z 33003KT 0800 R09/0900 R27/1100N -RA FG
                        SCT001 BKN003 01/01 Q1002 R09/29//95=
201901301130 METAR LRAR 301130Z 31002KT 0800 R09/1000 R27/1000U -DZ FG
                        SCT002 OVC004 01/01 Q1002 R09/29//95=
201901301200 METAR LRAR 301200Z VRB01KT 1000 R09/1100 R27/1100N BR FEW001
                        SCT005 BKN009 01/01 Q1002 R09/29//95=
201901301230 METAR LRAR 301230Z 00000KT 1200 R09/1300 R27/1300N BR FEW005
                        BKN010 BKN015 02/02 Q1002 R09/29//95=
201901301300 METAR LRAR 301300Z 26002KT 1100 R09/1200 R27/1200D BR SCT007
                        BKN010 01/01 Q1002 R09/29//95=
201901301330 METAR LRAR 301330Z VRB01KT 1000 R09/1100 R27/1100N BR BKN009
                        OVC014 01/01 Q1002 R09/29//95=
201901301400 METAR LRAR 301400Z 26002KT 0900 R09/1000 R27/1200N FG BKN002
                        BKN010 01/01 Q1002 R09/29//95=
201901301430 METAR LRAR 301430Z 29002KT 0900 R09/1000 R27/1200U FG FEW003
                        SCT006 BKN010 01/01 Q1002 R09/29//95=
201901301500 METAR LRAR 301500Z 24002KT 0800 R09/1000 R27/1200N FG BKN001
                        BKN003 01/01 Q1002 R09/29//95=
201901301530 METAR LRAR 301530Z 21002KT 0800 R09/1000 R27/1200N FG BKN001
                        OVC006 01/01 Q1002 R09/29//95=
201901301600 METAR LRAR 301600Z 17001KT 0800 R09/1000 R27/1400N FG BKN002
                        BKN005 01/01 Q1002 R09/29//95=
201901301630 METAR LRAR 301630Z 00000KT 0900 R09/1000 R27/1800N FG FEW001
                        OVC002 01/01 Q1003 R09/29//95=
201901301700 METAR LRAR 301700Z 13001KT 1200 R09/1300 R27/1600D BR SCT001
                        BKN002 01/01 Q1003 R09/29//95=
201901301730 METAR LRAR 301730Z AUTO 24002KT 1000 R27/1200U FG VV001 01/01
                        Q1003=
201901301800 METAR LRAR 301800Z AUTO 00000KT 0900 R27/1100D FG VV002 01/01
                        Q1003=
201901301830 METAR LRAR 301830Z AUTO 20001KT 0400 R27/0450N FG VV001 01/01
                        Q1003=
201901301900 METAR LRAR 301900Z AUTO 19001KT 0350 R27/0400N FG VV001 01/01
                        Q1003=
201901301930 METAR LRAR 301930Z AUTO 18001KT 0300 R27/0375N FG VV001 01/01
                        Q1003=
201901302000 METAR LRAR 302000Z AUTO 14002KT 0250 R27/0300N FG VV001 01/01
                        Q1003=
201901302030 METAR LRAR 302030Z AUTO 14002KT 0250 R27/0300N FG VV001 01/01
                        Q1003=
201901302100 METAR LRAR 302100Z AUTO 17002KT 0300 R27/0350N FG VV001 01/01
                        Q1003=
201901302130 METAR LRAR 302130Z AUTO 00000KT 0250 R27/0275N FG VV001 01/01
                        Q1003=
201901302200 METAR LRAR 302200Z AUTO 00000KT 0250 R27/0275N FG VV001 01/01
                        Q1003=
201901302230 METAR LRAR 302230Z AUTO VRB01KT 0250 R27/0325N FG VV001 01/01
                        Q1003=
201901302300 METAR LRAR 302300Z AUTO 00000KT 0300 R27/0375N FG VV001 01/01
                        Q1003=
201901302330 METAR LRAR 302330Z AUTO 20001KT 0300 R27/0350N FG VV001 01/01
                        Q1003=
201901310000 METAR LRAR 310000Z AUTO 11001KT 0350 R27/0400N FG VV001 01/01
                        Q1003=
201901310030 METAR LRAR 310030Z AUTO 04002KT 0350 R27/0400N FG OVC005///
                        01/01 Q1003=
201901310100 METAR LRAR 310100Z AUTO 36002KT 330V030 0400 R27/0500N FG
                        SCT002/// BKN004/// 01/01 Q1003=
201901310130 METAR LRAR 310130Z AUTO 31002KT 0300 R27/0350N FG VV001 01/01
                        Q1003=
201901310200 METAR LRAR 310200Z AUTO VRB01KT 0250 R27/0300N FG VV001 01/01
                        Q1003=
201901310230 METAR LRAR 310230Z AUTO VRB01KT 0350 R27/0325V0500U FG VV001
                        01/01 Q1003=
201901310300 METAR LRAR 310300Z AUTO 02003KT 340V080 3200 R27/1200VP2000U
                        FG BKN006/// BKN008/// 01/01 Q1003=
201901310330 METAR LRAR 310330Z AUTO 35003KT 0400 R27/0500N FG BKN007///
                        OVC009/// 01/01 Q1003=
201901310400 METAR LRAR 310400Z AUTO 04003KT 0500 R27/0550N FG SCT007///
                        BKN009/// 01/01 Q1002=
201901310430 METAR LRAR 310430Z AUTO 08002KT 040V110 1300 R27/1400D FG
                        FEW001/// BKN008/// OVC010/// 01/01
                        Q1002=
201901310500 METAR LRAR 310500Z 22002KT 0800 R09/0900 R27/1000D FG SCT003
                        OVC008 01/01 Q1002 R09/29//95=
201901310530 METAR LRAR 310530Z 29003KT 0600 R09/0800 R27/0550V0750N FG
                        BKN001 OVC009 00/00 Q1003 R09/29//95=
201901310600 METAR LRAR 310600Z 32005KT 0300 R09/0400 R27/0550D FG BKN001
                        OVC003 00/00 Q1003 R09/19//95=
201901310630 METAR LRAR 310630Z 33006KT 0300 R09/0400 R27/0375N FG BKN001
                        OVC003 00/00 Q1003 R09/19//95=
201901310700 METAR LRAR 310700Z 34004KT 0350 R09/0400 R27/0450N FZFG BKN001
                        OVC003 M00/M00 Q1003 R09/19//95=
201901310730 METAR COR LRAR 310730Z 35004KT 0400 R09/0600M R27/0500N FZFG
                        BKN001 OVC003 M00/M00 Q1003 R09/19//95=
201901310800 METAR LRAR 310800Z 01004KT 0550 0800 R27/0750N FG BKN001
                        OVC003 00/00 Q1003 R09/19//95=
201901310830 METAR COR LRAR 310830Z 03004KT 0800 R09/0900 R27/1100U FG
                        BKN002 OVC003 00/00 Q1003 R09/19//95=
201901310900 METAR LRAR 310900Z 01004KT 1500 BR SCT002 BKN004 01/01 Q1003
                        R09/19//95=
201901310930 METAR LRAR 310930Z 02004KT 1800 BR BKN003 OVC005 01/01 Q1003
                        R09/19//95=
201901311000 METAR LRAR 311000Z 02005KT 2200 BR FEW004 SCT008 BKN010 01/01
                        Q1003 R09/19//95=
201901311030 METAR LRAR 311030Z 31005KT 280V340 2000 BR SCT004 BKN009
                        OVC011 01/01 Q1003 R09/19//95=
201901311100 METAR LRAR 311100Z 33004KT 290V010 2000 BR BKN004 OVC011
                        01/01 Q1003 R09/19//95=
201901311130 METAR LRAR 311130Z 30003KT 2000 BR BKN004 OVC006 01/01 Q1003
                        R09/19//95=
201901311200 METAR LRAR 311200Z 31004KT 2000 BR BKN006 01/01 Q1004 R09/19//95=
201901311230 METAR LRAR 311230Z 33004KT 2100 BR BKN003 OVC005 01/01 Q1004
                        R09/19//95=
201901311300 METAR LRAR 311300Z 31002KT 2200 BR SCT003 OVC005 01/01 Q1004
                        R09/19//95=
201901311330 METAR LRAR 311330Z 31003KT 2100 BR SCT004 OVC009 01/01 Q1004
                        R09/19//95=
201901311400 METAR LRAR 311400Z VRB02KT 2100 BR SCT004 OVC009 01/01 Q1004
                        R09/CLRD//=
201901311430 METAR LRAR 311430Z VRB02KT 2200 BR BKN007 OVC009 01/01 Q1004=
201901311500 METAR LRAR 311500Z VRB02KT 2100 BR SCT008 OVC010 01/01 Q1004=
201901311530 METAR LRAR 311530Z 24003KT 2100 BR BKN007 OVC009 01/01 Q1004=
201901311600 METAR LRAR 311600Z 26003KT 2300 BR SCT004 OVC007 01/01 Q1004=
201901311630 METAR COR LRAR 311630Z VRB02KT 3300 BR BKN003 OVC006 01/01
                        Q1004=
201901311700 METAR LRAR 311700Z VRB01KT 1700 BR FEW003 BKN005 OVC007 01/01
                        Q1005=
201901311730 METAR LRAR 311730Z AUTO 00000KT 1600 R27/1700N FG FEW005///
                        SCT007/// OVC009/// ///// Q1005=
201901311800 METAR LRAR 311800Z AUTO 29002KT 1400 R27/1400D FG SCT009///
                        OVC011/// ///// Q1005=
201901311830 METAR LRAR 311830Z AUTO 28002KT 2200 R27/1800VP2000U OVC009///
                        ///// Q1006=
201901311900 METAR LRAR 311900Z AUTO 22001KT 2900 SCT008/// OVC010///
                        ///// Q1006=
201901311930 METAR LRAR 311930Z AUTO VRB01KT 3600 BR SCT007/// OVC009///
                        ///// Q1006=
201901312000 METAR LRAR 312000Z AUTO 20002KT 3100 R27/2000 BR OVC007///
                        ///// Q1007=
201901312030 METAR LRAR 312030Z AUTO 20003KT 2700 UP BKN005/// OVC007///
                        ///// Q1007=
201901312100 METAR LRAR 312100Z AUTO 21003KT 2300 -FZDZ OVC004/// /////
                        Q1008=
201901312130 METAR LRAR 312130Z AUTO 20003KT 2500 SG SCT004/// OVC006///
                        ///// Q1008=
201901312200 METAR LRAR 312200Z AUTO 22003KT 2100 FEW002/// OVC005///
                        ///// Q1008 REDZ=
201901312230 METAR LRAR 312230Z AUTO 18003KT 1300 R27/1400D FG VV002 /////
                        Q1008=
201901312300 METAR LRAR 312300Z AUTO 18002KT 0550 R27/0650N FG VV001 /////
                        Q1008=
201901312330 METAR LRAR 312330Z AUTO 16004KT 0450 R27/0550N FG VV001 /////
                        Q1008=