201901010200 TAF LRAR 010200Z 0103/0112 03006KT CAVOK
                      TEMPO 0103/0107 3000 BR BKN010=
201901010500 TAF LRAR 010500Z 0106/0115 VRB04KT CAVOK
                      PROB40 TEMPO 0106/0112 3000 BR BKN005
                      BECMG 0113/0115 20010KT=
201901010800 TAF LRAR 010800Z 0109/0118 VRB04KT 7000 NSC
                      BECMG 0112/0114 20010KT=
201901011100 TAF LRAR 011100Z 0112/0121 VRB04KT 3000 BR BKN005
                      TEMPO 0112/0114 0800 FG OVC001
                      BECMG 0114/0116 19010KT 7000 NSW BKN025=
201901011400 TAF LRAR 011400Z 0115/0124 20008KT 3000 BR BKN002
                      BECMG 0117/0119 5000 BKN010 BKN025=
201901011550 TAF AMD LRAR 011550Z 0115/0124 19010KT 0800 FG OVC001
                      BECMG 0117/0119 3000 BR BKN005
                      BECMG 0119/0121 5000 BR BKN010 BKN025=
201901011700 TAF LRAR 011700Z NIL=
201901012000 TAF LRAR 012000Z NIL=
201901012300 TAF LRAR 012300Z NIL=
201901020200 TAF LRAR 020200Z 0203/0212 20014KT 9999 BKN020
                      TEMPO 0203/0206 5000 -SN BKN010 OVC030
                      BECMG 0204/0206 29012KT=
201901020500 TAF LRAR 020500Z 0206/0215 23012KT 5000 BR NSC
                      BECMG 0206/0208 29016KT 9999 NSW=
201901020800 TAF LRAR 020800Z 0209/0218 28012KT CAVOK
                      TEMPO 0210/0215 FEW035CB=
201901021100 TAF LRAR 021100Z 0212/0221 32015KT 9999 BKN030
                      TEMPO 0212/0216 5000 -RA SCT015 FEW030CB
                       OVC035
                      BECMG 0216/0218 BKN010 OVC030=
201901021400 TAF LRAR 021400Z 0215/0224 32012KT 9999 FEW040CB SCT045
                      BECMG 0216/0218 BKN010 OVC030=
201901021700 TAF LRAR 021700Z NIL=
201901022000 TAF LRAR 022000Z NIL=
201901022300 TAF LRAR 022300Z NIL=
201901030200 TAF LRAR 030200Z 0303/0312 34010KT 9999 SCT045
                      PROB30 TEMPO 0304/0308 5000 -SN BR BKN010
                       BKN030=
201901030500 TAF LRAR 030500Z 0306/0315 34010KT CAVOK
                      PROB40 TEMPO 0310/0315 5000 -SN BKN015 BKN030=
201901030800 TAF LRAR 030800Z 0309/0318 33010KT CAVOK
                      PROB40 TEMPO 0309/0315 5000 -SN BKN015 BKN030=
201901031100 TAF LRAR 031100Z 0312/0321 33012KT CAVOK
                      PROB40 TEMPO 0312/0316 5000 -SN BKN010 BKN030=
201901031400 TAF LRAR 031400Z 0315/0324 36008KT CAVOK
                      TEMPO 0315/0317 5000 -SHSN BKN005 SCT025CB=
201901031700 TAF LRAR 031700Z NIL=
201901032000 TAF LRAR 032000Z NIL=
201901032300 TAF LRAR 032300Z NIL=
201901040200 TAF LRAR 040200Z 0403/0412 33008KT CAVOK
                      TEMPO 0403/0407 BKN010=
201901040500 TAF LRAR 040500Z 0406/0415 35008KT 9999 BKN020 BKN040
                      TEMPO 0406/0409 5000 -SN BKN010 OVC030=
201901040800 TAF LRAR 040800Z 0409/0418 35008KT 9999 SCT020 BKN040
                      PROB30 TEMPO 0411/0415 5000 -SN BKN010 BKN040=
201901041100 TAF LRAR 041100Z 0412/0421 35008KT 9999 BKN030
                      PROB30 TEMPO 0412/0415 5000 -SN BKN010 BKN025=
201901041400 TAF LRAR 041400Z 0415/0424 VRB04KT 9999 BKN035=
201901041700 TAF LRAR 041700Z NIL=
201901042000 TAF LRAR 042000Z NIL=
201901042300 TAF LRAR 042300Z NIL=
201901050200 TAF LRAR 050200Z 0503/0512 20004KT CAVOK
                      TEMPO 0503/0506 3000 BR
                      BECMG 0508/0510 20014KT 5000 -SN BKN010 OVC030
                       TEMPO 0510/0512 3000 SN BKN005 OVC020=
201901050500 TAF LRAR 050500Z 0506/0515 14006KT 1500 BR BKN002 BKN020
                      BECMG 0506/0508 20015KT 3000 BKN005 OVC035
                       BECMG 0509/0511 5000 -SN BKN010 OVC030
                      TEMPO 0510/0515 1500 SN BKN005 OVC020=
201901050800 TAF LRAR 050800Z 0509/0518 20012KT 5000 BR BKN005 BKN030
                      BECMG 0509/0511 3000 -SN BR BKN003 OVC025
                       TEMPO 0512/0518 20015G25KT 1500 SN BKN002
                       OVC020
                      PROB40 0514/0518 0800 +SN BKN001 OVC015=
201901051100 TAF LRAR 051100Z 0512/0521 20012KT 5000 -SN BKN010 BKN030
                      TEMPO 0513/0520 1500 SN BKN005 OVC020
                      PROB40 0514/0518 0800 +SN BKN002 OVC015=
201901051400 TAF LRAR 051400Z 0515/0524 20012KT 5000 -SN BKN010 BKN030
                      TEMPO 0515/0520 1500 SN BKN005 OVC020
                      PROB40 0515/0518 0800 +SN BKN002 OVC015=
201901051700 TAF LRAR 051700Z NIL=
201901052000 TAF LRAR 052000Z NIL=
201901052300 TAF LRAR 052300Z NIL=
201901060200 TAF LRAR 060200Z 0603/0612 34006KT 5000 BR BKN005
                      TEMPO 0603/0606 1500 SN BKN002 OVC020
                      BECMG 0606/0608 5000 BR BKN015=
201901060500 TAF LRAR 060500Z 0606/0615 34006KT 3000 BR BKN005 OVC020
                      TEMPO 0606/0607 1500 BR OVC002
                      TEMPO 0607/0612 1500 -SN BR BKN002 OVC020
                       BECMG 0612/0614 35014KT 9999 NSW BKN025
                       TEMPO 0612/0615 35015G25KT=
201901060800 TAF LRAR 060800Z 0609/0618 31004KT 3000 BR BKN010 OVC030
                      TEMPO 0609/0612 1500 -SN BR BKN005 OVC020
                       BECMG 0612/0614 36014KT 9999 NSW BKN025
                       TEMPO 0612/0616 35015G25KT=
201901061100 TAF LRAR 061100Z 0612/0621 31006KT 9999 SCT030
                      BECMG 0614/0616 36016KT=
201901061400 TAF LRAR 061400Z 0615/0624 35014KT CAVOK=
201901061700 TAF LRAR 061700Z 0618/0703 36012KT CAVOK=
201901062000 TAF LRAR 062000Z NIL=
201901062300 TAF LRAR 062300Z NIL=
201901070200 TAF LRAR 070200Z 0703/0712 01010KT CAVOK=
201901070500 TAF LRAR 070500Z 0706/0715 34008KT CAVOK=
201901070800 TAF LRAR 070800Z 0709/0718 34008KT CAVOK=
201901071100 TAF LRAR 071100Z 0712/0721 01008KT CAVOK=
201901071400 TAF LRAR 071400Z 0715/0724 36006KT CAVOK
                      BECMG 0718/0720 BKN015=
201901071700 TAF LRAR 071700Z NIL=
201901072000 TAF LRAR 072000Z NIL=
201901072300 TAF LRAR 072300Z NIL=
201901080200 TAF LRAR 080200Z 0803/0812 17008KT CAVOK
                      TEMPO 0803/0806 3000 BR=
201901080500 TAF LRAR 080500Z 0806/0815 VRB04KT 5000 BR NSC
                      TEMPO 0806/0807 1500 BR BKN005
                      BECMG 0807/0809 18012KT 9999 NSW
                      TEMPO 0813/0815 5000 -SN BR BKN010 OVC030=
201901080800 TAF LRAR 080800Z 0809/0818 18012KT 9999 BKN035
                      BECMG 0813/0815 5000 -SN BKN015 OVC025
                      TEMPO 0816/0818 1500 SN BKN005 OVC020=
201901081100 TAF LRAR 081100Z 0812/0821 18014KT 5000 BR BKN035
                      BECMG 0814/0816 3000 -SN BKN010 OVC025
                      TEMPO 0818/0821 1500 SN BKN005 OVC020=
201901081400 TAF LRAR 081400Z 0815/0824 18012KT 5000 -SN BKN015 OVC025
                      TEMPO 0816/0820 1500 SN BKN005 OVC020=
201901081700 TAF LRAR 081700Z NIL=
201901082000 TAF LRAR 082000Z NIL=
201901082300 TAF LRAR 082300Z NIL=
201901090200 TAF LRAR 090200Z 0903/0912 19010KT 5000 -SN BKN010 OVC025
                      TEMPO 0903/0907 1500 SN BKN005 OVC020
                      BECMG 0910/0912 9999 NSW BKN015 OVC030=
201901090500 TAF LRAR 090500Z 0906/0915 19010KT 3000 -SN BR BKN002 OVC015
                      BECMG 0906/0908 5000 -RASN BR BKN005 OVC020
                       TEMPO 0908/0910 -FZRA BR BKN015 OVC030
                      BECMG 0912/0914 VRB04KT 9999 NSW BKN015 BKN030=
201901090800 TAF LRAR 090800Z 0909/0918 18008KT 3000 -SN BR BKN005 OVC025
                      BECMG 0909/0911 5000 -RASN BR BKN015 BKN030
                       BECMG 0911/0913 8000 NSW SCT015 SCT030
                      BECMG 0915/0917 5000 BR BKN015=
201901091100 TAF LRAR 091100Z 0912/0921 18010KT 9999 SCT020 BKN040
                      TEMPO 0912/0916 5000 -SN BKN015 BKN030
                      BECMG 0916/0918 VRB04KT 5000 BR BKN015=
201901091400 TAF LRAR 091400Z 0915/0924 VRB04KT 9999 SCT035
                      TEMPO 0916/0919 5000 -RASN BR BKN015 BKN035
                       PROB30
                      TEMPO 0917/0919 3000 -FZRA BR BKN010 BKN030
                       BECMG 0919/0921 5000 BR=
201901091700 TAF LRAR 091700Z NIL=
201901092000 TAF LRAR 092000Z NIL=
201901092300 TAF LRAR 092300Z NIL=
201901100200 TAF LRAR 100200Z 1003/1012 VRB04KT 0200 FZFG VV001
                      BECMG 1005/1007 0800 FZFG BKN002
                      BECMG 1007/1009 1500 BR BKN005
                      BECMG 1010/1012 3000 -SN BR BKN010 OVC025=
201901100500 TAF LRAR 100500Z 1006/1015 01012KT 0800 FZFG OVC001
                      PROB30 TEMPO 1006/1007 0350 FZFG
                      BECMG 1007/1009 3000 BR BKN005
                      BECMG 1008/1010 5000 BKN015
                      BECMG 1010/1012 7000 NSW SCT015=
201901100800 TAF LRAR 100800Z 1009/1018 01012KT 2000 BR OVC002
                      BECMG 1009/1011 4000 BKN007
                      TEMPO 1011/1015 7000 NSW BKN015
                      BECMG 1016/1018 5000 BR=
201901101100 TAF LRAR 101100Z 1012/1021 01012KT 3000 BR BKN002
                      TEMPO 1012/1016 5000 BKN010
                      TEMPO 1017/1021 1500 BR=
201901101400 TAF LRAR 101400Z 1015/1024 01012KT 5000 BR BKN005
                      BECMG 1015/1017 SCT010
                      PROB40 TEMPO 1016/1021 1500 BR
                      BECMG 1022/1024 3000 -SN BKN010 BKN030=
201901101700 TAF LRAR 101700Z NIL=
201901102000 TAF LRAR 102000Z NIL=
201901102300 TAF LRAR 102300Z NIL=
201901110200 TAF LRAR 110200Z 1103/1112 34010KT 7000 NSC
                      TEMPO 1103/1106 3000 BR BKN005
                      BECMG 1108/1110 9999 NSW=
201901110500 TAF LRAR 110500Z 1106/1115 33010KT 5000 BR SCT025 BKN035
                      TEMPO 1106/1109 3000 -SN BR BKN010 BKN025
                       BECMG 1109/1111 9999 NSW=
201901110800 TAF LRAR 110800Z 1109/1118 32010KT 7000 SCT015 BKN035
                      BECMG 1114/1116 VRB04KT=
201901111100 TAF LRAR 111100Z 1112/1121 34008KT 9999 SCT035
                      BECMG 1119/1121 5000 BR=
201901111400 TAF LRAR 111400Z 1115/1124 29006KT CAVOK
                      BECMG 1118/1120 5000 BR=
201901111700 TAF LRAR 111700Z NIL=
201901112000 TAF LRAR 112000Z NIL=
201901112300 TAF LRAR 112300Z NIL=
201901120200 TAF LRAR 120200Z 1203/1212 26008KT 5000 BR SCT035
                      TEMPO 1207/1212 3000 -SN BR BKN015 OVC030=
201901120500 TAF LRAR 120500Z 1206/1215 23008KT 9999 BKN045
                      BECMG 1206/1208 5000 -SN BKN015 OVC030
                      TEMPO 1208/1212 1500 SN BR BKN010 OVC030=
201901120800 TAF LRAR 120800Z 1209/1218 23012KT 3000 -SN BR BKN015 BKN035
                      TEMPO 1209/1213 1500 SN BR BKN010 OVC030=
201901121100 TAF LRAR 121100Z 1212/1221 23012KT 3000 -SN BR BKN010 BKN035
                      TEMPO 1212/1216 1500 -SN BR BKN005 OVC030=
201901121400 TAF LRAR 121400Z 1215/1224 VRB04KT 3000 -SN BR BKN010 BKN035
                      TEMPO 1215/1220 1500 -SN BR BKN005 OVC030
                       PROB40
                      TEMPO 1215/1217 -FZDZ=
201901121700 TAF LRAR 121700Z NIL=
201901122000 TAF LRAR 122000Z NIL=
201901122300 TAF LRAR 122300Z NIL=
201901130200 TAF LRAR 130200Z 1303/1312 18008KT 4000 -SN BR BKN010 OVC035
                      TEMPO 1303/1309 1500 -SN BR BKN005 OVC030=
201901130519 TAF COR LRAR 130519Z 1306/1315 19010KT 5000 -SN BR BKN010 OVC030
                       TEMPO 1306/1312 1500 SN BKN005 OVC025
                      BECMG 1313/1315 7000 NSW BKN030=
201901130800 TAF LRAR 130800Z 1309/1318 19010KT 1500 SN BKN005 OVC025
                      BECMG 1311/1313 5000 -SN BR BKN010 OVC030
                       BECMG 1313/1315 7000 NSW SCT015 BKN030=
201901131100 TAF LRAR 131100Z 1312/1321 20010KT 3000 -SN BR BKN002 BKN010
                      BECMG 1312/1314 5000 BR BKN010 BKN025
                      BECMG 1314/1316 7000 NSW SCT015 BKN030=
201901131400 TAF LRAR 131400Z 1315/1324 20010KT 7000 BKN035=
201901131700 TAF LRAR 131700Z NIL=
201901132000 TAF LRAR 132000Z NIL=
201901132300 TAF LRAR 132300Z NIL=
201901140200 TAF LRAR 140200Z 1403/1412 20014KT 5000 -RA BR BKN035
                      TEMPO 1403/1406 3000 -RASN BKN010 OVC030
                       PROB40 1403/1406 -FZRA
                      TEMPO 1406/1409 1500 RA BR BKN005 OVC020
                       BECMG 1409/1411 29014KT 9999 NSW=
201901140500 TAF LRAR 140500Z 1406/1415 20016KT 9999 BKN040
                      TEMPO 1406/1408 5000 -RA BKN010 OVC035
                      BECMG 1408/1410 28018KT
                      TEMPO 1410/1415 29020G30KT=
201901140800 TAF LRAR 140800Z 1409/1418 27016KT CAVOK
                      TEMPO 1411/1418 29020G30KT=
201901141100 TAF LRAR 141100Z 1412/1421 29016KT CAVOK
                      TEMPO 1412/1418 29020G30KT=
201901141400 TAF LRAR 141400Z 1415/1424 29016KT 9999 SCT040=
201901141700 TAF LRAR 141700Z NIL=
201901142000 TAF LRAR 142000Z NIL=
201901142300 TAF LRAR 142300Z NIL=
201901150200 TAF LRAR 150200Z 1503/1512 31010KT CAVOK=
201901150500 TAF LRAR 150500Z 1506/1515 30008KT CAVOK=
201901150800 TAF LRAR 150800Z 1509/1518 27010KT CAVOK
                      BECMG 1515/1517 5000 -SN BKN015 BKN030=
201901151100 TAF LRAR 151100Z 1512/1521 28010KT CAVOK
                      PROB30 TEMPO 1515/1518 5000 -SN BKN015 BKN030
                       BECMG 1518/1520 3000 SN BKN010 OVC025=
201901151400 TAF LRAR 151400Z 1515/1524 28010KT 9999 SCT040
                      PROB30 TEMPO 1515/1518 5000 -SN BKN015 BKN030
                       BECMG 1518/1520 3000 SN BKN010 OVC025
                      TEMPO 1520/1524 1500 SN BKN005 OVC020=
201901151700 TAF LRAR 151700Z NIL=
201901152000 TAF LRAR 152000Z NIL=
201901152300 TAF LRAR 152300Z NIL=
201901160200 TAF LRAR 160200Z 1603/1612 24010KT 9999 SCT040
                      TEMPO 1603/1607 5000 -RA=
201901160500 TAF LRAR 160500Z 1606/1615 25010KT 9999 SCT040
                      TEMPO 1606/1611 5000 -RA BKN015 OVC035=
201901160800 TAF LRAR 160800Z 1609/1618 20008KT 9999 BKN040
                      TEMPO 1609/1612 3000 SN BKN010 OVC025=
201901161100 TAF LRAR 161100Z 1612/1621 22012KT 9999 BKN040=
201901161400 TAF LRAR 161400Z 1615/1624 20012KT CAVOK=
201901161700 TAF LRAR 161700Z NIL=
201901162000 TAF LRAR 162000Z NIL=
201901162300 TAF LRAR 162300Z NIL=
201901170200 TAF LRAR 170200Z 1703/1712 18012KT CAVOK=
201901170500 TAF LRAR 170500Z 1706/1715 18012KT CAVOK=
201901170800 TAF LRAR 170800Z 1709/1718 18014KT CAVOK=
201901171100 TAF LRAR 171100Z 1712/1721 19014KT 9999 SCT045=
201901171400 TAF LRAR 171400Z 1715/1724 19012KT 9999 SCT045=
201901171700 TAF LRAR 171700Z NIL=
201901172000 TAF LRAR 172000Z NIL=
201901172300 TAF LRAR 172300Z NIL=
201901180200 TAF LRAR 180200Z 1803/1812 20012KT 9999 BKN040
                      TEMPO 1804/1809 5000 -RA BKN015 OVC030
                      TEMPO 1809/1812 3000 RA BKN010 OVC030=
201901180500 TAF LRAR 180500Z 1806/1815 VRB04KT 9999 BKN040
                      TEMPO 1806/1809 5000 -RA BR BKN015 OVC030
                       BECMG 1810/1812 34010KT 5000 -RA BR BKN015
                       OVC035
                      TEMPO 1812/1815 3000 RA BKN010 OVC030=
201901180800 TAF LRAR 180800Z 1809/1818 VRB04KT 9999 BKN040
                      BECMG 1810/1812 34010KT 5000 -RA BR BKN015
                       OVC035
                      TEMPO 1812/1816 3000 RA BKN010 OVC030=
201901181100 TAF LRAR 181100Z 1812/1821 33008KT 9999 SCT010 BKN025
                      BECMG 1812/1814 5000 -RA BR BKN010 OVC020
                       TEMPO 1812/1816 3000 RA BKN010 OVC030
                      BECMG 1819/1821 3000 BR BKN005=
201901181400 TAF LRAR 181400Z 1815/1824 34008KT 8000 -RA BKN010 BKN030
                      TEMPO 1815/1818 3000 RA BKN005 OVC020
                      BECMG 1819/1821 3000 BR BKN005
                      TEMPO 1821/1824 0800 FZFG BKN001=
201901181700 TAF LRAR 181700Z NIL=
201901182000 TAF LRAR 182000Z NIL=
201901182300 TAF LRAR 182300Z NIL=
201901190200 TAF LRAR 190200Z 1903/1912 VRB04KT 5000 BR SCT015
                      TEMPO 1904/1908 1500 BR BKN005
                      PROB30 TEMPO 1905/1908 0800 FZFG VV002
                      BECMG 1909/1911 9999 NSW=
201901190500 TAF LRAR 190500Z 1906/1915 VRB04KT 5000 BR NSC
                      BECMG 1907/1909 9999 NSW=
201901190642 TAF AMD LRAR 190642Z 1906/1915 VRB04KT 0600 FZFG BKN001 OVC002
                       TEMPO 1906/1908 0350 FZFG
                      BECMG 1908/1910 3000 BR BKN005
                      TEMPO 1911/1915 7000 NSW BKN015=
201901190800 TAF LRAR 190800Z 1909/1918 VRB04KT 0500 FZFG VV001
                      BECMG 1909/1911 1500 BR OVC003
                      BECMG 1911/1913 5000 BKN010 BKN020=
201901191100 TAF LRAR 191100Z 1912/1921 VRB04KT 5000 BR BKN005
                      BECMG 1913/1915 9999 NSW BKN020
                      BECMG 1918/1920 5000 -SN BR BKN010 OVC020=
201901191400 TAF LRAR 191400Z 1915/1924 VRB04KT 1500 BR BKN002
                      TEMPO 1915/1917 5000 BKN005
                      BECMG 1918/1920 3000 -SN BR BKN005 OVC020=
201901191700 TAF LRAR 191700Z NIL=
201901192000 TAF LRAR 192000Z NIL=
201901192300 TAF LRAR 192300Z NIL=
201901200200 TAF LRAR 200200Z 2003/2012 10006KT 3000 -RASN BKN010 OVC030
                      TEMPO 2003/2008 1500 SN BKN005 OVC025
                      BECMG 2008/2010 1500 RA BR BKN005 OVC020=
201901200500 TAF LRAR 200500Z 2006/2015 VRB04KT 3000 -SN BR OVC030
                      TEMPO 2009/2012 1500 RASN BKN005 OVC025=
201901200744 TAF AMD LRAR 200744Z 2007/2015 VRB04KT 3000 -SN BR BKN010 OVC030
                       TEMPO 2009/2012 1500 RASN BKN005 OVC025=
201901200800 TAF LRAR 200800Z 2009/2018 VRB04KT 3000 -SN BR BKN015 OVC025
                      TEMPO 2009/2015 1500 SN BR BKN002 OVC020=
201901201100 TAF LRAR 201100Z 2012/2021 VRB04KT 3000 -SN BR BKN010 OVC025
                      TEMPO 2012/2017 1500 SN BR BKN002 OVC020=
201901201400 TAF LRAR 201400Z 2015/2024 VRB04KT 1500 -SN BR BKN010 OVC025
                      BECMG 2019/2021 0800 FZFG OVC005
                      TEMPO 2021/2024 0600 FZFG BKN002=
201901201700 TAF LRAR 201700Z NIL=
201901202000 TAF LRAR 202000Z NIL=
201901202300 TAF LRAR 202300Z NIL=
201901210200 TAF LRAR 210200Z 2103/2112 VRB04KT 5000 BR BKN010 OVC025
                      TEMPO 2103/2106 1500 BR BKN005 OVC020
                      BECMG 2107/2109 9999 NSW SCT020=
201901210500 TAF LRAR 210500Z 2106/2115 VRB04KT 3000 BR BKN010
                      TEMPO 2106/2107 1500 BR BKN005
                      BECMG 2107/2109 5000 BKN015
                      BECMG 2109/2111 9999 NSW BKN030=
201901210800 TAF LRAR 210800Z 2109/2118 VRB04KT 5000 BR BKN015
                      TEMPO 2109/2110 3000 BR BKN010
                      BECMG 2110/2112 9999 NSW SCT020 BKN035=
201901211100 TAF LRAR 211100Z 2112/2121 VRB04KT 3000 BR BKN005 BKN020
                      TEMPO 2112/2115 7000 NSW SCT010 BKN025=
201901211400 TAF LRAR 211400Z 2115/2124 VRB04KT 5000 BR BKN010 BKN015
                      BECMG 2116/2118 3000 BR BKN005 OVC010
                      BECMG 2122/2124 1500 -SN BR=
201901211700 TAF LRAR 211700Z NIL=
201901212000 TAF LRAR 212000Z NIL=
201901212300 TAF LRAR 212300Z NIL=
201901220200 TAF LRAR 220200Z 2203/2212 VRB04KT 3000 -SN BR BKN005 OVC025
                      TEMPO 2204/2210 1500 SN BKN002 OVC010=
201901220500 TAF LRAR 220500Z 2206/2215 VRB04KT 1500 SN BKN005 OVC020
                      TEMPO 2206/2208 3000 -SN BKN010 OVC025=
201901220800 TAF LRAR 220800Z 2209/2218 VRB04KT 1500 -SN BKN010 OVC025
                      TEMPO 2209/2214 0600 SN BKN005 OVC020
                      TEMPO 2215/2218 5000 -SN SCT015 BKN030=
201901221100 TAF LRAR 221100Z 2212/2221 04006KT 3000 -SN BKN010 OVC025
                      TEMPO 2212/2215 0800 SN BKN005 OVC020
                      BECMG 2218/2220 1500 -SN BR BKN005 OVC020=
201901221400 TAF LRAR 221400Z 2215/2224 06006KT 1500 -SN BR BKN005 OVC020
                      TEMPO 2215/2218 3000 -SN BKN010 OVC025
                      PROB30 TEMPO 2218/2221 0800 -SN BR
                      BECMG 2222/2224 0600 SN BKN002 OVC015=
201901221700 TAF LRAR 221700Z NIL=
201901222000 TAF LRAR 222000Z NIL=
201901230200 TAF LRAR 230200Z 2303/2312 14005KT 1500 -SN BR BKN005 OVC015
                      TEMPO 2303/2306 0600 SN BKN002 OVC010
                      BECMG 2307/2309 3000 BR BKN010 OVC020
                      BECMG 2309/2311 5000 BKN015 BKN030=
201901230500 TAF LRAR 230500Z 2306/2315 14005KT 3000 -SN BKN005 OVC015
                      TEMPO 2306/2308 1500 SN BKN002 OVC010
                      BECMG 2308/2310 5000 BR BKN010 OVC020
                      TEMPO 2310/2315 7000 BKN015 BKN030=
201901230800 TAF LRAR 230800Z 2309/2318 VRB04KT 7000 BKN015
                      TEMPO 2310/2315 BKN025
                      BECMG 2316/2318 3000 BR BKN010=
201901231100 TAF LRAR 231100Z 2312/2321 VRB04KT 9999 BKN010
                      BECMG 2312/2314 BKN025
                      BECMG 2316/2318 3000 BR BKN010
                      BECMG 2319/2321 1500 BR BKN005=
201901231400 TAF LRAR 231400Z 2315/2324 VRB04KT CAVOK
                      BECMG 2315/2317 3000 BR BKN010
                      BECMG 2317/2319 0800 FG BKN003
                      BECMG 2319/2321 0350 FZFG VV001=
201901231700 TAF LRAR 231700Z NIL=
201901231803 TAF LRAR 231803Z 2318/2403 04006KT 3000 BR BKN005
                      BECMG 2319/2321 1500 BR OVC002=
201901231951 TAF AMD LRAR 231951Z 2319/2403 CNL=
201901232000 TAF LRAR 232000Z NIL=
201901232300 TAF LRAR 232300Z NIL=
201901240200 TAF LRAR 240200Z 2403/2412 03008KT 0600 FZFG OVC001
                      BECMG 2403/2405 1500 -FZRADZ BKN003 OVC020
                       BECMG 2407/2409 3000 RA BKN010=
201901240500 TAF LRAR 240500Z 2406/2415 03010KT 3000 -RA BR BKN002 OVC025
                      TEMPO 2406/2408 1500 -FZRA
                      TEMPO 2408/2412 1500 RA BR=
201901240800 TAF LRAR 240800Z 2409/2418 03010KT 3000 -FZRA BR BKN003 OVC025
                       TEMPO 2410/2413 1500 RA BR
                      BECMG 2416/2418 RASN SN BKN002 OVC020=
201901241100 TAF LRAR 241100Z 2412/2421 02008KT 1500 SN BR BKN005 OVC025
                      TEMPO 2412/2418 0600 +SN BR BKN002 OVC020
                       PROB40
                      TEMPO 2412/2414 FZRA=
201901241400 TAF LRAR 241400Z 2415/2424 02008KT 3000 -SN BR BKN005 OVC025
                      TEMPO 2415/2418 1500 SN BR BKN002 OVC020=
201901241700 TAF LRAR 241700Z NIL=
201901241739 TAF LRAR 241739Z 2418/2503 19008KT 5000 -SN BR BKN005 BKN020
                      BECMG 2421/2423 1500 BR
                      PROB40 TEMPO 2500/2503 0600 FZFG OVC002=
201901241834 TAF AMD LRAR 241834Z 2418/2503 CNL=
201901242000 TAF LRAR 242000Z NIL=
201901242300 TAF LRAR 242300Z NIL=
201901250200 TAF LRAR 250200Z 2503/2512 17005KT 3000 BR BKN010 OVC020
                      PROB40 TEMPO 2503/2506 1500 -SN BR BKN002
                       OVC020
                      BECMG 2507/2509 9999 NSW BKN020=
201901250500 TAF LRAR 250500Z 2506/2515 VRB04KT 3000 -SN BR BKN005 OVC015
                      TEMPO 2506/2507 1500 -SN BR BKN002 OVC005
                       BECMG 2508/2510 5000 BR BKN010
                      TEMPO 2510/2514 8000 NSW SCT020 BKN040
                      BECMG 2512/2514 36010KT=
201901250800 TAF LRAR 250800Z 2509/2518 VRB04KT 1500 BR BKN002 OVC010
                      BECMG 2509/2511 3000 BKN005 BKN020
                      BECMG 2512/2514 36010KT
                      BECMG 2515/2517 1500 -SN BR OVC005=
201901251100 TAF LRAR 251100Z 2512/2521 VRB04KT 3000 BR OVC005
                      BECMG 2512/2514 36010KT
                      TEMPO 2514/2516 1500 -SN BR=
201901251400 TAF LRAR 251400Z 2515/2524 36010KT 3000 BR OVC005
                      BECMG 2515/2517 1500 -SN BR
                      PROB40 TEMPO 2521/2524 0800 SN FZFG VV002=
201901251700 TAF LRAR 251700Z NIL=
201901252000 TAF LRAR 252000Z NIL=
201901252300 TAF LRAR 252300Z NIL=
201901260200 TAF LRAR 260200Z NIL=
201901260416 TAF LRAR 260416Z 2604/2612 34009KT 3000 SN BKN005 OVC010
                      TEMPO 2604/2608 1500 SN BKN002 OVC005=
201901260500 TAF LRAR 260500Z 2606/2615 36010KT 5000 BR BKN008 OVC035
                      TEMPO 2606/2609 3000 -SN BR BKN005 OVC025
                       BECMG 2612/2614 22010KT 7000 NSW BKN015
                       BKN040=
201901260800 TAF LRAR 260800Z 2609/2618 33008KT 5000 BR BKN008 OVC035
                      TEMPO 2609/2612 3000 -SN BR BKN005 OVC020
                       BECMG 2613/2615 22010KT 7000 NSW BKN015
                       BKN040=
201901261100 TAF LRAR 261100Z 2612/2621 33008KT 5000 BR SCT015 OVC035
                      TEMPO 2612/2616 22010KT 7000 NSW
                      BECMG 2616/2618 22010KT=
201901261400 TAF LRAR 261400Z 2615/2624 25006KT 7000 SCT015 BKN035
                      BECMG 2616/2618 5000 BR
                      TEMPO 2619/2624 3000 -SN BR BKN005 OVC025=
201901261700 TAF LRAR 261700Z NIL=
201901262000 TAF LRAR 262000Z NIL=
201901262300 TAF LRAR 262300Z NIL=
201901270200 TAF LRAR 270200Z 2703/2712 17010KT 5000 BR SCT010 BKN030
                      TEMPO 2703/2707 3000 -SN BR BKN010 OVC025
                       BECMG 2707/2709 9999 NSW=
201901270500 TAF LRAR 270500Z 2706/2715 17012KT 5000 BR BKN015 BKN030
                      BECMG 2708/2710 9999 NSW SCT025=
201901270800 TAF LRAR 270800Z 2709/2718 16012KT 9999 SCT040=
201901271100 TAF LRAR 271100Z 2712/2721 16012KT CAVOK=
201901271400 TAF LRAR 271400Z 2715/2724 16012KT CAVOK=
201901271700 TAF LRAR 271700Z NIL=
201901272000 TAF LRAR 272000Z NIL=
201901272300 TAF LRAR 272300Z NIL=
201901280200 TAF LRAR 280200Z 2803/2812 15012KT CAVOK=
201901280500 TAF LRAR 280500Z 2806/2815 15014KT CAVOK
                      PROB40 TEMPO 2813/2815 5000 -RA=
201901280800 TAF LRAR 280800Z 2809/2818 14012KT CAVOK
                      BECMG 2812/2814 BKN015 OVC020
                      PROB40 TEMPO 2814/2817 5000 -RA BKN010 OVC015=
201901281100 TAF LRAR 281100Z 2812/2821 16008KT 9999 BKN020
                      TEMPO 2813/2817 5000 -RA BKN010 OVC015=
201901281400 TAF LRAR 281400Z 2815/2824 14010KT 9999 BKN045
                      TEMPO 2815/2819 5000 -RA BKN010 OVC015
                      BECMG 2819/2821 21008KT 3000 -RASN BKN005
                       OVC010=
201901281700 TAF LRAR 281700Z NIL=
201901282000 TAF LRAR 282000Z NIL=
201901282300 TAF LRAR 282300Z NIL=
201901290200 TAF LRAR 290200Z 2903/2912 25005KT 0600 FG VV001
                      TEMPO 2903/2906 0150 FG
                      BECMG 2906/2908 1500 BR BKN005
                      BECMG 2908/2910 7000 NSW SCT010=
201901290500 TAF LRAR 290500Z 2906/2915 VRB04KT 0350 FG VV001
                      BECMG 2907/2909 1500 BR BKN005
                      BECMG 2909/2911 9999 NSW SCT025=
201901290800 TAF LRAR 290800Z 2909/2918 VRB04KT 0800 FG VV001
                      BECMG 2909/2911 3000 BR BKN005
                      TEMPO 2911/2915 7000 NSW SCT025=
201901291100 TAF LRAR 291100Z 2912/2921 VRB04KT 5000 BR NSC
                      TEMPO 2912/2915 7000 NSW
                      BECMG 2915/2917 1500 BR BKN005
                      BECMG 2919/2921 0600 FG VV002=
201901291400 TAF LRAR 291400Z 2915/2924 VRB04KT 5000 BR NSC
                      BECMG 2916/2918 1500 BR BKN005
                      BECMG 2919/2921 0600 FG VV002
                      PROB40 TEMPO 2922/2924 0150 FG VV001=
201901291700 TAF LRAR 291700Z NIL=
201901292000 TAF LRAR 292000Z NIL=
201901292300 TAF LRAR 292300Z NIL=
201901300200 TAF LRAR 300200Z 3003/3012 VRB04KT 3000 BR BKN020
                      TEMPO 3003/3008 1500 -FZRA BR BKN005 OVC020
                       BECMG 3008/3010 -RA BR BKN005 OVC020=
201901300500 TAF LRAR 300500Z 3006/3015 VRB04KT 3000 -RA BR SCT015 BKN030
                      TEMPO 3006/3008 1500 -RASN BR BKN010 BKN020
                       BECMG 3013/3015 5000 BR=
201901300800 TAF LRAR 300800Z 3009/3018 VRB04KT 1500 BR SCT010 BKN030
                      BECMG 3009/3011 3000 -RADZ BR BKN015 BKN025
                       BECMG 3015/3017 1500 BR BKN010 BKN020=
201901301049 TAF AMD LRAR 301049Z 3010/3018 VRB04KT 0800 -RASN FG BKN002 BKN015
                       TEMPO 3011/3015 1500 -RADZ BR BKN005 BKN020
                       BECMG 3015/3017 0600 FG=
201901301100 TAF LRAR 301100Z 3012/3021 VRB04KT 0800 -RASN FG BKN002 BKN015
                       TEMPO 3012/3015 1500 -RADZ BR BKN005 BKN020
                       BECMG 3015/3017 0600 FG
                      PROB40 TEMPO 3018/3021 0300 FZFG OVC001=
201901301400 TAF LRAR 301400Z 3015/3024 VRB04KT 0800 FG BKN002 BKN010
                      BECMG 3015/3017 0600 FG
                      BECMG 3019/3021 0300 FZFG OVC001=
201901301700 TAF LRAR 301700Z NIL=
201901302000 TAF LRAR 302000Z NIL=
201901302300 TAF LRAR 302300Z NIL=
201901310200 TAF LRAR 310200Z 3103/3112 VRB04KT 0150 FG VV001
                      BECMG 3105/3107 0600 BKN002
                      BECMG 3109/3111 1500 BR BKN005 BKN010=
201901310500 TAF LRAR 310500Z 3106/3115 VRB04KT 0300 FG OVC002
                      BECMG 3106/3108 0800
                      BECMG 3108/3110 3000 BR BKN015=
201901310800 TAF LRAR 310800Z 3109/3118 VRB04KT 0800 FG OVC002
                      BECMG 3109/3111 3000 BR BKN015=
201901311100 TAF LRAR 311100Z 3112/3121 VRB04KT 2000 BR BKN005
                      TEMPO 3112/3115 5000 BKN015
                      TEMPO 3117/3121 1500 -RA BR=
201901311400 TAF LRAR 311400Z 3115/3124 VRB04KT 2000 BR OVC010
                      TEMPO 3117/3122 1500 -RA BR BKN005 OVC020
                       BECMG 3122/3124 0600 FG OVC002=
201901311700 TAF LRAR 311700Z NIL=
201901312000 TAF LRAR 312000Z NIL=
201901312300 TAF LRAR 312300Z NIL=