201903010200 TAF LRAR 010200Z 0103/0112 30008KT CAVOK=
201903010500 TAF LRAR 010500Z 0106/0115 31008KT CAVOK=
201903010800 TAF LRAR 010800Z 0109/0118 31016KT CAVOK
                      PROB40 TEMPO 0113/0117 5000 -SHRA SCT015
                       SCT030CB=
201903011100 TAF LRAR 011100Z 0112/0121 31012KT CAVOK
                      PROB40 TEMPO 0113/0117 5000 -SHRA SCT015
                       SCT030CB=
201903011400 TAF LRAR 011400Z 0115/0124 31012KT CAVOK
                      TEMPO 0115/0118 5000 -SHRA SCT040CB=
201903011700 TAF LRAR 011700Z 0118/0203 30005KT CAVOK
                      BECMG 0201/0203 02010KT=
201903012000 TAF LRAR 012000Z NIL=
201903012048 TAF AMD LRAR 012048Z 0120/0203 CNL=
201903012300 TAF LRAR 012300Z NIL=
201903020200 TAF LRAR 020200Z 0203/0212 31006KT CAVOK
                      BECMG 0203/0205 02010KT=
201903020500 TAF LRAR 020500Z 0206/0215 02012KT CAVOK=
201903020800 TAF LRAR 020800Z 0209/0218 02014KT CAVOK
                      BECMG 0214/0216 VRB04KT=
201903021100 TAF LRAR 021100Z 0212/0221 01008KT CAVOK=
201903021400 TAF LRAR 021400Z 0215/0224 01007KT CAVOK=
201903021700 TAF LRAR 021700Z 0218/0303 VRB04KT CAVOK=
201903022000 TAF LRAR 022000Z NIL=
201903022300 TAF LRAR 022300Z NIL=
201903030200 TAF LRAR 030200Z 0303/0312 VRB04KT CAVOK
                      TEMPO 0303/0306 3000 BR=
201903030500 TAF LRAR 030500Z 0306/0315 22006KT CAVOK
                      PROB40 TEMPO 0312/0315 5000 -RA BKN015 OVC035=
201903030800 TAF LRAR 030800Z 0309/0318 21008KT CAVOK
                      TEMPO 0313/0316 5000 -RA BR BKN015 OVC035=
201903031100 TAF LRAR 031100Z 0312/0321 VRB04KT 9999 SCT045
                      BECMG 0318/0320 18012KT=
201903031400 TAF LRAR 031400Z 0315/0324 19010KT 9999 SCT045=
201903031700 TAF LRAR 031700Z 0318/0403 19008KT 9999 BKN045=
201903032000 TAF LRAR 032000Z NIL=
201903032300 TAF LRAR 032300Z NIL=
201903040200 TAF LRAR 040200Z NIL=
201903040457 TAF LRAR 040457Z 0404/0412 18010KT CAVOK=
201903040500 TAF LRAR 040500Z 0406/0415 19014KT CAVOK
                      TEMPO 0412/0415 19015G25KT=
201903040800 TAF LRAR 040800Z 0409/0418 19014KT CAVOK
                      TEMPO 0413/0418 19015G25KT=
201903041100 TAF LRAR 041100Z 0412/0421 20014KT CAVOK
                      TEMPO 0415/0420 19015G25KT=
201903041400 TAF LRAR 041400Z 0415/0424 20014KT CAVOK
                      TEMPO 0416/0420 20015G25KT=
201903041700 TAF LRAR 041700Z 0418/0503 18011KT CAVOK
                      BECMG 0422/0424 27010KT
                      TEMPO 0501/0503 5000 RA BKN015 BKN035=
201903042000 TAF LRAR 042000Z NIL=
201903042300 TAF LRAR 042300Z NIL=
201903050200 TAF LRAR 050200Z 0503/0512 30012KT CAVOK
                      PROB30 TEMPO 0503/0506 5000 -RA=
201903050500 TAF LRAR 050500Z 0506/0515 26012KT CAVOK
                      TEMPO 0507/0512 28015G25KT=
201903050800 TAF LRAR 050800Z 0509/0518 26012KT CAVOK
                      TEMPO 0509/0512 28015G25KT=
201903051100 TAF LRAR 051100Z 0512/0521 30015KT 9999 SCT035
                      TEMPO 0512/0515 29015G25KT=
201903051400 TAF LRAR 051400Z 0515/0524 25014KT CAVOK
                      TEMPO 0515/0517 28015G25KT=
201903051700 TAF LRAR 051700Z 0518/0603 23006KT CAVOK
                      TEMPO 0601/0603 5000 -SHRA SCT025CB BKN040=
201903052000 TAF LRAR 052000Z NIL=
201903052300 TAF LRAR 052300Z NIL=
201903060200 TAF LRAR 060200Z 0603/0612 20008KT CAVOK
                      TEMPO 0603/0606 30010KT 5000 -SHRA SCT025CB
                       BKN040=
201903060500 TAF LRAR 060500Z 0606/0615 30005KT CAVOK=
201903060800 TAF LRAR 060800Z 0609/0618 32006KT CAVOK
                      BECMG 0616/0618 16010KT=
201903061100 TAF LRAR 061100Z 0612/0621 VRB03KT 9999 SCT035
                      BECMG 0617/0619 16010KT=
201903061400 TAF LRAR 061400Z 0615/0624 23007KT 9999 FEW045
                      BECMG 0617/0619 16010KT=
201903061700 TAF LRAR 061700Z 0618/0703 23005KT CAVOK
                      BECMG 0618/0620 16010KT=
201903062000 TAF LRAR 062000Z NIL=
201903062300 TAF LRAR 062300Z NIL=
201903070200 TAF LRAR 070200Z 0703/0712 15012KT CAVOK
                      TEMPO 0707/0712 16020G30KT=
201903070500 TAF LRAR 070500Z 0706/0715 18018KT CAVOK
                      TEMPO 0708/0715 18025G37KT=
201903070800 TAF LRAR 070800Z 0709/0718 18018KT CAVOK
                      TEMPO 0709/0715 18025G37KT=
201903071100 TAF LRAR 071100Z 0712/0721 19020KT CAVOK
                      TEMPO 0712/0715 19025G35KT
                      BECMG 0719/0721 19010KT=
201903071400 TAF LRAR 071400Z 0715/0724 19015KT CAVOK
                      TEMPO 0715/0717 19015G25KT=
201903071700 TAF LRAR 071700Z 0718/0803 18012KT CAVOK=
201903072000 TAF LRAR 072000Z NIL=
201903072300 TAF LRAR 072300Z NIL=
201903080200 TAF LRAR 080200Z 0803/0812 20012KT CAVOK=
201903080500 TAF LRAR 080500Z 0806/0815 20010KT CAVOK
                      BECMG 0810/0812 26012KT
                      PROB40 TEMPO 0812/0815 32010KT SCT035CB=
201903080800 TAF LRAR 080800Z 0809/0818 20010KT CAVOK
                      BECMG 0810/0812 26012KT
                      BECMG 0813/0815 32010KT SCT035CB
                      PROB40 TEMPO 0815/0818 VRB16KT 5000 -SHRA
                       BKN010 BKN030CB BKN035=
201903081100 TAF LRAR 081100Z 0812/0821 26010KT CAVOK
                      BECMG 0813/0815 32010KT SCT035CB
                      PROB40 TEMPO 0815/0817 VRB16KT 5000 -SHRA
                       BKN010 BKN030CB BKN035
                      BECMG 0817/0819 20008KT 5000 -RA BKN005 OVC025=
201903081400 TAF LRAR 081400Z 0815/0824 33010KT 9999 SCT025
                      PROB40 TEMPO 0815/0818 VRB16KT 5000 -SHRA
                       BKN015 SCT030CB BKN035
                      BECMG 0818/0820 20008KT 5000 -RA BKN010 OVC025=
201903081700 TAF LRAR 081700Z 0818/0903 32008KT 9999 SCT015 SCT030CB
                      PROB40 TEMPO 0818/0821 5000 -SHRA
                      BECMG 0821/0823 23010KT 5000 -RA BR BKN015
                       BKN030=
201903082000 TAF LRAR 082000Z NIL=
201903082300 TAF LRAR 082300Z NIL=
201903090200 TAF LRAR 090200Z 0903/0912 16007KT 9999 BKN010
                      TEMPO 0903/0906 5000 -SHRA BKN005 FEW035CB
                       BECMG 0906/0908 BKN035
                      BECMG 0909/0911 23010KT=
201903090500 TAF LRAR 090500Z 0906/0915 VRB04KT 5000 BR BKN010
                      TEMPO 0906/0908 3000 BR BKN005
                      BECMG 0908/0910 23010KT 9999 NSW SCT015 SCT030
                       PROB40
                      TEMPO 0910/0915 SCT030 FEW040CB=
201903090800 TAF LRAR 090800Z 0909/0918 VRB04KT 9999 BKN005
                      BECMG 0909/0911 23010KT SCT015 SCT030
                      PROB40 TEMPO 0910/0915 SCT030 FEW040CB=
201903091100 TAF LRAR 091100Z 0912/0921 26008KT 9999 BKN035
                      TEMPO 0912/0915 SCT030CB=
201903091400 TAF LRAR 091400Z 0915/0924 22014KT 9999 BKN035=
201903091700 TAF LRAR 091700Z 0918/1003 22010KT CAVOK
                      PROB40 TEMPO 0923/1002 25015G25KT SCT045CB
                       BECMG 1002/1003 28014KT=
201903092000 TAF LRAR 092000Z NIL=
201903092300 TAF LRAR 092300Z NIL=
201903100200 TAF LRAR 100200Z 1003/1012 27014KT CAVOK
                      BECMG 1009/1011 21012KT=
201903100500 TAF LRAR 100500Z 1006/1015 28010KT CAVOK
                      BECMG 1009/1011 21012KT=
201903100800 TAF LRAR 100800Z 1009/1018 19010KT CAVOK
                      TEMPO 1016/1018 20015G25KT 5000 -RA=
201903101100 TAF LRAR 101100Z 1012/1021 19012KT CAVOK
                      TEMPO 1016/1021 20015G25KT 5000 -RA=
201903101400 TAF LRAR 101400Z 1015/1024 21010KT 9999 SCT045
                      TEMPO 1016/1021 21015G25KT 5000 -RA
                      BECMG 1020/1022 27010KT=
201903101700 TAF LRAR 101700Z 1018/1103 24010KT 9999 SCT045
                      TEMPO 1018/1023 24015G25KT 5000 -RA BKN015
                       OVC025
                      BECMG 1023/1101 31012KT
                      PROB40 TEMPO 1101/1103 31017G27KT 5000 -SHRA
                       SCT030CB BKN040=
201903102000 TAF LRAR 102000Z NIL=
201903102300 TAF LRAR 102300Z NIL=
201903110200 TAF LRAR 110200Z 1103/1112 24008KT 9999 SCT045
                      TEMPO 1103/1108 30015G25KT 5000 -RA BKN015
                       OVC025=
201903110500 TAF LRAR 110500Z 1106/1115 24008KT CAVOK=
201903110800 TAF LRAR 110800Z 1109/1118 33008KT CAVOK
                      PROB40 TEMPO 1109/1111 34015G25KT=
201903111100 TAF LRAR 111100Z 1112/1121 33014KT CAVOK=
201903111400 TAF LRAR 111400Z 1115/1124 29008KT CAVOK=
201903111700 TAF LRAR 111700Z 1118/1203 27008KT CAVOK
                      BECMG 1119/1121 33012KT=
201903112000 TAF LRAR 112000Z NIL=
201903112300 TAF LRAR 112300Z NIL=
201903120200 TAF LRAR 120200Z 1203/1212 34010KT CAVOK=
201903120500 TAF LRAR 120500Z 1206/1215 VRB04KT CAVOK
                      BECMG 1207/1209 01010KT=
201903120800 TAF LRAR 120800Z 1209/1218 02010KT CAVOK=
201903121100 TAF LRAR 121100Z 1212/1221 01008KT CAVOK=
201903121400 TAF LRAR 121400Z 1215/1224 02014KT CAVOK
                      BECMG 1220/1222 VRB04KT=
201903121700 TAF LRAR 121700Z 1218/1303 04007KT CAVOK=
201903122000 TAF LRAR 122000Z NIL=
201903122300 TAF LRAR 122300Z NIL=
201903130200 TAF LRAR 130200Z 1303/1312 16007KT CAVOK
                      TEMPO 1303/1306 3000 BR=
201903130500 TAF LRAR 130500Z 1306/1315 16010KT CAVOK=
201903130800 TAF LRAR 130800Z 1309/1318 17010KT CAVOK
                      BECMG 1315/1317 VRB04KT=
201903131100 TAF LRAR 131100Z 1312/1321 19008KT CAVOK=
201903131400 TAF LRAR 131400Z 1315/1324 19006KT CAVOK=
201903131700 TAF LRAR 131700Z 1318/1403 VRB04KT CAVOK=
201903132000 TAF LRAR 132000Z NIL=
201903132300 TAF LRAR 132300Z NIL=
201903140159 TAF LRAR 1312/1321 19008KT CAVOK=
201903140200 TAF LRAR 1312/1321 19008KT CAVOK=
201903140306 TAF LRAR 1315/1324 19006KT CAVOK=
201903140309 TAF LRAR 1315/1324 19006KT CAVOK=
201903140500 TAF LRAR 140500Z 1406/1415 VRB04KT CAVOK=
201903140800 TAF LRAR 140800Z 1409/1418 VRB04KT CAVOK
                      PROB40 TEMPO 1414/1418 SCT040CB=
201903141100 TAF LRAR 141100Z 1412/1421 18006KT CAVOK
                      PROB30 TEMPO 1414/1418 SCT040CB=
201903141400 TAF LRAR 141400Z 1415/1424 29008KT 9999 BKN040=
201903141700 TAF LRAR 141700Z 1418/1503 VRB04KT CAVOK
                      BECMG 1420/1422 18010KT=
201903142000 TAF LRAR 142000Z NIL=
201903142300 TAF LRAR 142300Z NIL=
201903150200 TAF LRAR 150200Z 1503/1512 16008KT 9999 SCT040
                      PROB30 TEMPO 1508/1512 5000 -RA BKN015 OVC020=
201903150500 TAF LRAR 150500Z 1506/1515 16010KT 9999 SCT040
                      BECMG 1507/1509 23010KT
                      BECMG 1510/1512 30014KT
                      PROB40 TEMPO 1510/1515 5000 -SHRA SCT015
                       SCT030CB=
201903150800 TAF LRAR 150800Z 1509/1518 24010KT 9999 SCT040
                      BECMG 1510/1512 30014KT
                      PROB40 TEMPO 1510/1515 5000 -SHRA SCT015
                       SCT030CB=
201903151100 TAF LRAR 151100Z 1512/1521 31012KT 9999 SCT040
                      PROB40 TEMPO 1512/1515 5000 -SHRA SCT015
                       SCT030CB
                      BECMG 1516/1518 25007KT=
201903151400 TAF LRAR 151400Z 1515/1524 24007KT 9999 FEW030CB SCT040
                      BECMG 1516/1518 NSC
                      BECMG 1522/1524 5000 -RA BR BKN015 BKN030=
201903151700 TAF LRAR 151700Z 1518/1603 28008KT 9999 SCT040
                      TEMPO 1600/1603 5000 -RA BR BKN015 BKN030=
201903152000 TAF LRAR 152000Z NIL=
201903152300 TAF LRAR 152300Z NIL=
201903160200 TAF LRAR 160200Z 1603/1612 23010KT 9999 BKN040
                      TEMPO 1603/1608 5000 -RA BR BKN015 BKN030
                       BECMG 1610/1612 33012KT
                      TEMPO 1610/1612 5000 -SHRA SCT015 SCT030CB
                       BKN040=
201903160500 TAF LRAR 160500Z 1606/1615 20014KT 9999 BKN040
                      BECMG 1606/1608 32012KT
                      TEMPO 1606/1612 5000 -RA -SHRA BKN010 SCT030CB
                       BKN040=
201903160800 TAF LRAR 160800Z 1609/1618 29012KT 9999 BKN040
                      PROB40 TEMPO 1609/1611 5000 -RA -SHRA BKN010
                       SCT030CB BKN040
                      BECMG 1615/1617 VRB04KT=
201903161100 TAF LRAR 161100Z 1612/1621 29012KT CAVOK
                      BECMG 1615/1617 VRB04KT=
201903161400 TAF LRAR 161400Z 1615/1624 25008KT 9999 BKN045=
201903161700 TAF LRAR 161700Z 1618/1703 26006KT 9999 SCT030
                      BECMG 1701/1703 18010KT=
201903162000 TAF LRAR 162000Z NIL=
201903162300 TAF LRAR 162300Z NIL=
201903170200 TAF LRAR 170200Z 1703/1712 18010KT CAVOK=
201903170500 TAF LRAR 170500Z 1706/1715 17012KT CAVOK=
201903170800 TAF LRAR 170800Z 1709/1718 19012KT CAVOK=
201903171100 TAF LRAR 171100Z 1712/1721 20012KT CAVOK
                      BECMG 1718/1720 14008KT=
201903171400 TAF LRAR 171400Z 1715/1724 20012KT CAVOK
                      BECMG 1718/1720 14008KT=
201903171700 TAF LRAR 171700Z 1718/1803 17008KT CAVOK=
201903172000 TAF LRAR 172000Z NIL=
201903172300 TAF LRAR 172300Z NIL=
201903180200 TAF LRAR 180200Z 1803/1812 VRB04KT CAVOK=
201903180500 TAF LRAR 180500Z 1806/1815 23008KT CAVOK
                      BECMG 1809/1811 33010KT=
201903180800 TAF LRAR 180800Z 1809/1818 32010KT CAVOK=
201903181100 TAF LRAR 181100Z 1812/1821 22006KT CAVOK
                      BECMG 1812/1814 33010KT
                      TEMPO 1819/1821 5000 -SHRA SCT040CB=
201903181400 TAF LRAR 181400Z 1815/1824 33012KT CAVOK
                      TEMPO 1819/1824 5000 -SHRA SCT040CB=
201903181700 TAF LRAR 181700Z 1818/1903 33012KT CAVOK
                      TEMPO 1820/1903 5000 -SHRA SCT010 SCT040CB=
201903182000 TAF LRAR 182000Z NIL=
201903182300 TAF LRAR 182300Z NIL=
201903190200 TAF LRAR 190200Z 1903/1912 36010KT CAVOK=
201903190500 TAF LRAR 190500Z 1906/1915 34005KT CAVOK
                      BECMG 1907/1909 02015KT=
201903190800 TAF LRAR 190800Z 1909/1918 02016KT CAVOK=
201903191100 TAF LRAR 191100Z 1912/1921 03015KT CAVOK
                      TEMPO 1913/1917 FEW040CB=
201903191400 TAF LRAR 191400Z 1915/1924 04008KT CAVOK
                      TEMPO 1915/1919 FEW040CB=
201903191700 TAF LRAR 191700Z 1918/2003 01010KT CAVOK=
201903192000 TAF LRAR 192000Z NIL=
201903192300 TAF LRAR 192300Z NIL=
201903200200 TAF LRAR 200200Z 2003/2012 01010KT CAVOK=
201903200500 TAF LRAR 200500Z 2006/2015 01012KT CAVOK=
201903200800 TAF LRAR 200800Z 2009/2018 01012KT CAVOK=
201903201100 TAF LRAR 201100Z 2012/2021 02012KT CAVOK=
201903201400 TAF LRAR 201400Z 2015/2024 01010KT CAVOK=
201903201700 TAF LRAR 201700Z 2018/2103 35010KT CAVOK=
201903202000 TAF LRAR 202000Z NIL=
201903202300 TAF LRAR 202300Z NIL=
201903210200 TAF LRAR 210200Z 2103/2112 35006KT CAVOK=
201903210500 TAF LRAR 210500Z 2106/2115 VRB04KT CAVOK
                      BECMG 2107/2109 01012KT=
201903210800 TAF LRAR 210800Z 2109/2118 05008KT CAVOK=
201903211100 TAF LRAR 211100Z 2112/2121 36010KT CAVOK
                      BECMG 2118/2120 VRB04KT=
201903211400 TAF LRAR 211400Z 2115/2124 02006KT CAVOK=
201903211700 TAF LRAR 211700Z 2118/2203 02006KT CAVOK=
201903212000 TAF LRAR 212000Z NIL=
201903212300 TAF LRAR 212300Z NIL=
201903220200 TAF LRAR 220200Z 2203/2212 VRB04KT CAVOK
                      BECMG 2209/2211 01010KT=
201903220500 TAF LRAR 220500Z 2206/2215 VRB03KT CAVOK
                      BECMG 2210/2212 01010KT=
201903220800 TAF LRAR 220800Z 2209/2218 VRB04KT CAVOK
                      BECMG 2211/2213 01010KT=
201903221100 TAF LRAR 221100Z 2212/2221 01008KT CAVOK=
201903221400 TAF LRAR 221400Z 2215/2224 01008KT CAVOK=
201903221700 TAF LRAR 221700Z 2218/2303 01008KT CAVOK
                      TEMPO 2300/2303 3000 BR=
201903222000 TAF LRAR 222000Z 2221/2306 03008KT CAVOK
                      TEMPO 2300/2303 3000 BR=
201903222300 TAF LRAR 222300Z 2300/2309 01008KT CAVOK
                      BECMG 2300/2302 3000 BR
                      TEMPO 2302/2306 0800 FG BKN002
                      BECMG 2307/2309 9999 NSW=
201903230200 TAF LRAR 230200Z 2303/2312 01008KT CAVOK=
201903230500 TAF LRAR 230500Z 2306/2315 VRB04KT CAVOK
                      BECMG 2307/2309 01014KT=
201903230800 TAF LRAR 230800Z 2309/2318 02010KT CAVOK=
201903231100 TAF LRAR 231100Z 2312/2321 02012KT CAVOK=
201903231400 TAF LRAR 231400Z 2315/2324 02012KT CAVOK
                      BECMG 2321/2323 VRB04KT=
201903231700 TAF LRAR 231700Z 2318/2403 36007KT CAVOK=
201903232000 TAF LRAR 232000Z NIL=
201903232300 TAF LRAR 232300Z NIL=
201903240200 TAF LRAR 240200Z 2403/2412 VRB04KT CAVOK=
201903240500 TAF LRAR 240500Z 2406/2415 VRB04KT CAVOK=
201903240800 TAF LRAR 240800Z 2409/2418 20006KT CAVOK=
201903241100 TAF LRAR 241100Z 2412/2421 22006KT CAVOK=
201903241400 TAF LRAR 241400Z 2415/2424 24008KT CAVOK=
201903241700 TAF LRAR 241700Z 2418/2503 19006KT CAVOK=
201903242000 TAF LRAR 242000Z NIL=
201903242300 TAF LRAR 242300Z NIL=
201903250200 TAF LRAR 250200Z 2503/2512 16005KT CAVOK
                      BECMG 2508/2510 30012KT=
201903250500 TAF LRAR 250500Z 2506/2515 18005KT CAVOK
                      BECMG 2508/2510 30014KT=
201903250800 TAF LRAR 250800Z 2509/2518 31012KT CAVOK
                      PROB40 TEMPO 2509/2512 5000 -SHRA SCT040CB=
201903251100 TAF LRAR 251100Z 2512/2521 32016KT CAVOK
                      TEMPO 2512/2515 SCT040CB=
201903251400 TAF LRAR 251400Z 2515/2524 32016KT CAVOK
                      PROB40 TEMPO 2515/2518 5000 -SHRA SCT040CB=
201903251700 TAF LRAR 251700Z 2518/2603 31010KT CAVOK
                      TEMPO 2518/2521 5000 -SHRA SCT040CB=
201903252000 TAF LRAR 252000Z NIL=
201903252300 TAF LRAR 252300Z NIL=
201903260200 TAF LRAR 260200Z 2603/2612 36008KT CAVOK=
201903260500 TAF LRAR 260500Z 2606/2615 35010KT CAVOK=
201903260800 TAF LRAR 260800Z 2609/2618 02014KT CAVOK
                      PROB40 TEMPO 2609/2614 02015G25KT=
201903261100 TAF LRAR 261100Z 2612/2621 03010KT 9999 SCT045=
201903261400 TAF LRAR 261400Z 2615/2624 02010KT CAVOK=
201903261700 TAF LRAR 261700Z 2618/2703 36008KT CAVOK=
201903262000 TAF LRAR 262000Z NIL=
201903262300 TAF LRAR 262300Z NIL=
201903270200 TAF LRAR 270200Z 2703/2712 28008KT CAVOK
                      TEMPO 2703/2706 3000 BR=
201903270500 TAF LRAR 270500Z 2706/2715 27006KT CAVOK
                      BECMG 2706/2708 02012KT=
201903270800 TAF LRAR 270800Z 2709/2718 04012KT CAVOK=
201903271100 TAF LRAR 271100Z 2712/2721 04010KT CAVOK=
201903271400 TAF LRAR 271400Z 2715/2724 03010KT CAVOK=
201903271700 TAF LRAR 271700Z 2718/2803 03010KT CAVOK=
201903272000 TAF LRAR 272000Z NIL=
201903272300 TAF LRAR 272300Z NIL=
201903280200 TAF LRAR 280200Z 2803/2812 04006KT CAVOK=
201903280500 TAF LRAR 280500Z 2806/2815 VRB04KT CAVOK
                      BECMG 2810/2812 03010KT=
201903280800 TAF LRAR 280800Z 2809/2818 VRB04KT CAVOK
                      BECMG 2810/2812 03010KT=
201903281100 TAF LRAR 281100Z 2812/2821 VRB04KT CAVOK
                      BECMG 2812/2814 03010KT=
201903281400 TAF LRAR 281400Z 2815/2824 02008KT CAVOK=
201903281700 TAF LRAR 281700Z 2818/2903 04008KT CAVOK=
201903282000 TAF LRAR 282000Z NIL=
201903282300 TAF LRAR 282300Z NIL=
201903290200 TAF LRAR 290200Z 2903/2912 02008KT CAVOK=
201903290500 TAF LRAR 290500Z 2906/2915 02012KT CAVOK=
201903290800 TAF LRAR 290800Z 2909/2918 02012KT CAVOK
                      TEMPO 2910/2915 02015G25KT=
201903291100 TAF LRAR 291100Z 2912/2921 02012KT CAVOK
                      TEMPO 2912/2915 02015G25KT=
201903291400 TAF LRAR 291400Z 2915/2924 02010KT CAVOK=
201903291700 TAF LRAR 291700Z 2918/3003 03006KT CAVOK=
201903292000 TAF LRAR 292000Z NIL=
201903292300 TAF LRAR 292300Z NIL=
201903300200 TAF LRAR 300200Z 3003/3012 03006KT CAVOK=
201903300500 TAF LRAR 300500Z 3006/3015 VRB04KT CAVOK
                      BECMG 3008/3010 02010KT=
201903300800 TAF LRAR 300800Z 3009/3018 VRB04KT CAVOK
                      BECMG 3009/3011 02010KT=
201903301100 TAF LRAR 301100Z 3012/3021 01008KT CAVOK=
201903301400 TAF LRAR 301400Z 3015/3024 03006KT CAVOK=
201903301700 TAF LRAR 301700Z 3018/3103 03006KT CAVOK=
201903302000 TAF LRAR 302000Z NIL=
201903302300 TAF LRAR 302300Z NIL=
201903310200 TAF LRAR 310200Z 3103/3112 VRB04KT CAVOK=
201903310500 TAF LRAR 310500Z 3106/3115 VRB04KT CAVOK=
201903310800 TAF LRAR 310800Z 3109/3118 VRB04KT CAVOK=
201903311100 TAF LRAR 311100Z 3112/3121 VRB04KT CAVOK=
201903311400 TAF LRAR 311400Z 3115/3124 04006KT CAVOK=
201903311700 TAF LRAR 311700Z 3118/0103 01006KT CAVOK=
201903312000 TAF LRAR 312000Z NIL=
201903312300 TAF LRAR 312300Z NIL=