201903010000 METAR LRAR 010000Z AUTO 29008KT 9999 NCD 08/00 Q1008=
201903010030 METAR LRAR 010030Z AUTO 29006KT 9999 NCD 08/00 Q1008=
201903010100 METAR LRAR 010100Z AUTO 27007KT 9999 NCD 08/00 Q1008=
201903010130 METAR LRAR 010130Z AUTO 28009KT 9999 NCD 08/01 Q1008=
201903010200 METAR LRAR 010200Z AUTO 28009KT 9999 NCD 08/01 Q1008=
201903010230 METAR LRAR 010230Z AUTO 28008KT 9999 NCD 07/01 Q1008=
201903010300 METAR LRAR 010300Z AUTO 27008KT 9999 NCD 06/01 Q1008=
201903010330 METAR LRAR 010330Z AUTO 28007KT 9999 NCD 06/01 Q1008=
201903010400 METAR LRAR 010400Z AUTO 29004KT 9999 NCD 05/00 Q1008=
201903010430 METAR LRAR 010430Z AUTO VRB01KT 9999 NCD 06/00 Q1008=
201903010500 METAR LRAR 010500Z 33003KT 300V360 CAVOK 06/00 Q1008=
201903010530 METAR LRAR 010530Z 28003KT CAVOK 05/00 Q1009=
201903010600 METAR LRAR 010600Z 30005KT CAVOK 05/00 Q1009=
201903010630 METAR LRAR 010630Z 31008KT CAVOK 08/02 Q1009=
201903010700 METAR LRAR 010700Z 32011KT CAVOK 10/02 Q1009=
201903010730 METAR LRAR 010730Z 33015KT CAVOK 11/02 Q1009=
201903010800 METAR LRAR 010800Z 33014KT CAVOK 12/03 Q1009=
201903010830 METAR LRAR 010830Z 33012KT CAVOK 12/03 Q1010=
201903010900 METAR LRAR 010900Z 31013KT CAVOK 13/03 Q1010=
201903010930 METAR COR LRAR 010930Z 33011KT CAVOK 13/03 Q1009=
201903011000 METAR LRAR 011000Z 33012KT CAVOK 14/02 Q1009=
201903011030 METAR LRAR 011030Z 32014KT 290V360 CAVOK 15/02 Q1009=
201903011100 METAR LRAR 011100Z 34011KT CAVOK 15/02 Q1009=
201903011130 METAR LRAR 011130Z 33015KT CAVOK 15/02 Q1008=
201903011200 METAR LRAR 011200Z 31017KT 9999 FEW045 15/01 Q1008=
201903011230 METAR LRAR 011230Z 32016KT 9999 SCT045 15/03 Q1008=
201903011300 METAR LRAR 011300Z 32015KT 9999 FEW045 FEW048CB 14/04 Q1008=
201903011330 METAR LRAR 011330Z 31014KT 9999 FEW050CB 14/04 Q1008=
201903011400 METAR LRAR 011400Z 33014KT 9999 SCT050CB 14/04 Q1008=
201903011430 METAR LRAR 011430Z 33015KT 9999 SCT050CB 14/04 Q1008=
201903011500 METAR LRAR 011500Z 32013KT 9999 FEW050CB 13/04 Q1008=
201903011530 METAR LRAR 011530Z 32012KT 9999 FEW055CB 13/04 Q1008=
201903011600 METAR LRAR 011600Z 32008KT 9999 FEW055CB 12/04 Q1008=
201903011630 METAR LRAR 011630Z 33005KT CAVOK 11/04 Q1008=
201903011700 METAR LRAR 011700Z 31004KT CAVOK 10/03 Q1008=
201903011730 METAR LRAR 011730Z 30003KT CAVOK 09/03 Q1008=
201903011800 METAR LRAR 011800Z 28004KT CAVOK 09/03 Q1008=
201903011830 METAR LRAR 011830Z 26004KT CAVOK 08/03 Q1008=
201903011900 METAR LRAR 011900Z 27005KT CAVOK 08/03 Q1008=
201903011930 METAR LRAR 011930Z 27006KT CAVOK 09/03 Q1008=
201903012000 METAR LRAR 012000Z 29008KT CAVOK 07/02 Q1008=
201903012030 METAR LRAR 012030Z AUTO 28007KT 9999 NCD 07/02 Q1008=
201903012100 METAR LRAR 012100Z AUTO 28007KT 9999 FEW096/// 05/02 Q1008=
201903012130 METAR LRAR 012130Z AUTO 28007KT 9999 NCD 05/02 Q1008=
201903012200 METAR LRAR 012200Z AUTO 27007KT 9999 NCD 05/02 Q1009=
201903012230 METAR LRAR 012230Z AUTO 28008KT 9999 NCD 04/01 Q1009=
201903012300 METAR LRAR 012300Z AUTO 27008KT 9999 NCD 04/02 Q1009=
201903012330 METAR LRAR 012330Z AUTO 28008KT 9999 FEW076/// 04/02 Q1009=
201903020000 METAR LRAR 020000Z AUTO 28008KT 9999 FEW076/// 05/02 Q1009=
201903020030 METAR LRAR 020030Z AUTO 28009KT 9999 NCD 05/03 Q1009=
201903020100 METAR LRAR 020100Z AUTO 28009KT 9999 FEW026/// 05/03 Q1009=
201903020130 METAR LRAR 020130Z AUTO 30007KT 9999 SCT022/// 04/02 Q1009=
201903020200 METAR LRAR 020200Z AUTO 32007KT 290V350 9999 SCT020/// 05/03
                        Q1010=
201903020230 METAR LRAR 020230Z AUTO 02011KT 8000 SCT025/// BKN029///
                        07/04 Q1010=
201903020300 METAR LRAR 020300Z AUTO 03010KT 8000 BKN029/// 06/03 Q1010=
201903020330 METAR LRAR 020330Z AUTO 02009KT 8000 BKN030/// 06/03 Q1011=
201903020400 METAR LRAR 020400Z AUTO 02009KT 350V050 9000 FEW033/// BKN040///
                        06/02 Q1011=
201903020430 METAR LRAR 020430Z AUTO 02010KT 9000 SCT042/// BKN049///
                        05/02 Q1011=
201903020500 METAR LRAR 020500Z 01009KT 9000 SCT046 05/01 Q1012=
201903020530 METAR LRAR 020530Z 02009KT CAVOK 04/M01 Q1012=
201903020600 METAR LRAR 020600Z 02011KT CAVOK 04/M02 Q1013=
201903020630 METAR LRAR 020630Z 02012KT CAVOK 04/M02 Q1013=
201903020700 METAR LRAR 020700Z 01013KT 340V050 CAVOK 04/M02 Q1014=
201903020730 METAR LRAR 020730Z 02012KT CAVOK 05/M02 Q1014=
201903020800 METAR LRAR 020800Z 02013KT 350V050 CAVOK 05/M03 Q1014=
201903020830 METAR LRAR 020830Z 01012KT CAVOK 05/M03 Q1015=
201903020900 METAR LRAR 020900Z 02009KT 340V050 CAVOK 07/M04 Q1015=
201903020930 METAR LRAR 020930Z 01008KT 320V060 CAVOK 07/M04 Q1015=
201903021000 METAR LRAR 021000Z 02009KT CAVOK 07/M04 Q1015=
201903021030 METAR LRAR 021030Z 34006KT 320V030 CAVOK 08/M07 Q1015=
201903021100 METAR LRAR 021100Z 01007KT 330V060 CAVOK 09/M08 Q1015=
201903021130 METAR LRAR 021130Z 01009KT 330V040 CAVOK 08/M07 Q1015=
201903021200 METAR LRAR 021200Z 03010KT 350V060 CAVOK 09/M07 Q1015=
201903021230 METAR LRAR 021230Z 35006KT CAVOK 09/M07 Q1015=
201903021300 METAR LRAR 021300Z 35005KT 320V040 CAVOK 09/M07 Q1015=
201903021330 METAR LRAR 021330Z 36007KT 330V040 CAVOK 09/M05 Q1015=
201903021400 METAR LRAR 021400Z 36006KT 310V030 CAVOK 08/M06 Q1015=
201903021430 METAR LRAR 021430Z 32005KT 300V360 CAVOK 08/M06 Q1015=
201903021500 METAR LRAR 021500Z 31006KT CAVOK 09/M05 Q1015=
201903021530 METAR LRAR 021530Z 34004KT CAVOK 08/M06 Q1015=
201903021600 METAR LRAR 021600Z 32003KT CAVOK 07/M05 Q1015=
201903021630 METAR LRAR 021630Z 30004KT CAVOK 06/M05 Q1016=
201903021700 METAR LRAR 021700Z 34001KT CAVOK 04/M05 Q1016=
201903021730 METAR LRAR 021730Z 20001KT CAVOK 05/M05 Q1016=
201903021800 METAR LRAR 021800Z 22001KT CAVOK 04/M05 Q1016=
201903021830 METAR LRAR 021830Z 10003KT CAVOK 05/M03 Q1016=
201903021900 METAR LRAR 021900Z 13003KT CAVOK 04/M04 Q1016=
201903021930 METAR LRAR 021930Z 15003KT CAVOK 03/M04 Q1016=
201903022000 METAR LRAR 022000Z 20002KT CAVOK 01/M05 Q1016=
201903022030 METAR LRAR 022030Z AUTO 20003KT 9999 NCD 01/M04 Q1017=
201903022100 METAR LRAR 022100Z AUTO VRB01KT 9999 NCD 00/M04 Q1017=
201903022130 METAR LRAR 022130Z AUTO 25003KT 9999 SCT050/// M00/M05 Q1017=
201903022200 METAR LRAR 022200Z AUTO 24005KT 210V350 9999 NCD 01/M05 Q1017=
201903022230 METAR LRAR 022230Z AUTO 25002KT 200V280 9999 NCD M01/M05
                        Q1017=
201903022300 METAR LRAR 022300Z AUTO 20002KT 170V250 9999 FEW039/// SCT048///
                        M01/M05 Q1017=
201903022330 METAR LRAR 022330Z AUTO 24002KT 9999 SCT043/// BKN049///
                        M01/M05 Q1017=
201903030000 METAR LRAR 030000Z AUTO 25002KT 9999 BKN041/// M00/M04 Q1017=
201903030030 METAR LRAR 030030Z AUTO 25004KT 9999 FEW044/// M00/M04 Q1017=
201903030100 METAR LRAR 030100Z AUTO 24004KT 9999 SCT071/// M00/M03 Q1018=
201903030130 METAR LRAR 030130Z AUTO 24005KT 8000 SCT071/// 01/M01 Q1017=
201903030200 METAR LRAR 030200Z AUTO 25003KT 8000 SCT071/// 01/M01 Q1018=
201903030230 METAR LRAR 030230Z AUTO 24004KT 200V270 8000 BKN066/// 02/M00
                        Q1018=
201903030300 METAR LRAR 030300Z AUTO 23004KT 7000 BKN066/// 02/M00 Q1018=
201903030330 METAR LRAR 030330Z AUTO 21003KT 7000 BKN066/// 02/00 Q1018=
201903030400 METAR LRAR 030400Z AUTO 18004KT 7000 BKN061/// 02/00 Q1018=
201903030430 METAR LRAR 030430Z AUTO 22004KT 8000 BKN061/// 03/01 Q1018=
201903030500 METAR LRAR 030500Z 15001KT 7000 NSC 03/01 Q1018=
201903030530 METAR LRAR 030530Z 18002KT 8000 NSC 02/00 Q1018=
201903030600 METAR LRAR 030600Z VRB02KT CAVOK 02/01 Q1018=
201903030630 METAR LRAR 030630Z 21004KT CAVOK 04/01 Q1019=
201903030700 METAR LRAR 030700Z 23004KT CAVOK 04/01 Q1019=
201903030730 METAR LRAR 030730Z 23004KT 180V270 CAVOK 05/02 Q1019=
201903030800 METAR LRAR 030800Z 24004KT 170V290 CAVOK 05/02 Q1019=
201903030830 METAR LRAR 030830Z 27003KT 240V330 CAVOK 06/02 Q1019=
201903030900 METAR LRAR 030900Z VRB02KT CAVOK 07/02 Q1020=
201903030930 METAR LRAR 030930Z 21004KT 120V250 CAVOK 07/02 Q1020=
201903031000 METAR LRAR 031000Z 19004KT 130V290 CAVOK 08/02 Q1020=
201903031030 METAR LRAR 031030Z VRB03KT 9999 SCT047 08/02 Q1020=
201903031100 METAR LRAR 031100Z 26004KT 190V300 9999 SCT041 BKN047 08/01
                        Q1020=
201903031130 METAR LRAR 031130Z 27004KT 210V300 9999 BKN039 08/01 Q1019=
201903031200 METAR LRAR 031200Z 21006KT 160V250 9999 BKN035 08/01 Q1019=
201903031230 METAR LRAR 031230Z 20007KT 9999 BKN031 08/01 Q1018=
201903031300 METAR LRAR 031300Z 19006KT 150V220 9999 BKN034 08/01 Q1019=
201903031330 METAR LRAR 031330Z 20007KT 9999 BKN037 09/00 Q1019=
201903031400 METAR LRAR 031400Z 22007KT 9999 SCT045 09/01 Q1018=
201903031430 METAR LRAR 031430Z 22008KT CAVOK 09/01 Q1018=
201903031500 METAR LRAR 031500Z 22007KT 190V250 CAVOK 09/01 Q1018=
201903031530 METAR LRAR 031530Z 20008KT 170V230 CAVOK 09/01 Q1018=
201903031600 METAR LRAR 031600Z 21008KT CAVOK 09/02 Q1018=
201903031630 METAR LRAR 031630Z 20007KT 9999 BKN045 08/02 Q1018=
201903031700 METAR LRAR 031700Z 19006KT 9999 BKN049 08/02 Q1018=
201903031730 METAR LRAR 031730Z 18008KT CAVOK 08/02 Q1017=
201903031800 METAR LRAR 031800Z 18008KT CAVOK 07/02 Q1017=
201903031830 METAR LRAR 031830Z 17010KT CAVOK 07/02 Q1017=
201903031900 METAR LRAR 031900Z 17009KT CAVOK 07/02 Q1017=
201903031930 METAR LRAR 031930Z 17010KT CAVOK 07/02 Q1016=
201903032000 METAR LRAR 032000Z 17009KT CAVOK 07/01 Q1016=
201903032030 METAR LRAR 032030Z AUTO 18009KT 9999 BKN071/// 07/02 Q1016=
201903032100 METAR LRAR 032100Z AUTO 18010KT 9999 BKN071/// 07/02 Q1016=
201903032130 METAR LRAR 032130Z AUTO 18011KT 9999 BKN071/// 07/02 Q1015=
201903032200 METAR LRAR 032200Z AUTO 17012KT 9999 BKN071/// 07/01 Q1015=
201903032230 METAR LRAR 032230Z AUTO 17011KT 9999 BKN071/// 07/01 Q1015=
201903032300 METAR LRAR 032300Z AUTO 17009KT 9999 BKN071/// 07/01 Q1015=
201903032330 METAR LRAR 032330Z AUTO 16011KT 9999 BKN071/// 07/02 Q1015=
201903040000 METAR LRAR 040000Z AUTO 16011KT 9999 FEW076/// 07/02 Q1015=
201903040030 METAR LRAR 040030Z AUTO 16011KT 9999 NCD 06/02 Q1014=
201903040100 METAR LRAR 040100Z AUTO 16011KT 9999 NCD 06/02 Q1014=
201903040130 METAR LRAR 040130Z AUTO 15010KT 9999 NCD 05/01 Q1014=
201903040200 METAR LRAR 040200Z AUTO 15009KT 9999 NCD 05/01 Q1013=
201903040230 METAR LRAR 040230Z AUTO 15011KT 9999 NCD 05/01 Q1013=
201903040300 METAR LRAR 040300Z AUTO 15010KT 9999 NCD 04/01 Q1013=
201903040330 METAR LRAR 040330Z AUTO 16009KT 9999 NCD 04/01 Q1013=
201903040400 METAR LRAR 040400Z AUTO 16009KT 9999 NCD 04/01 Q1013=
201903040430 METAR LRAR 040430Z AUTO 17010KT 9999 NCD 05/01 Q1012=
201903040500 METAR LRAR 040500Z 17012KT CAVOK 05/01 Q1012=
201903040530 METAR LRAR 040530Z 17011KT CAVOK 05/01 Q1012=
201903040600 METAR LRAR 040600Z 17011KT CAVOK 05/01 Q1012=
201903040630 METAR LRAR 040630Z 18011KT CAVOK 07/01 Q1012=
201903040700 METAR LRAR 040700Z 19013KT CAVOK 08/01 Q1012=
201903040730 METAR LRAR 040730Z 19012KT CAVOK 08/01 Q1012=
201903040800 METAR LRAR 040800Z 19013KT CAVOK 09/01 Q1012=
201903040830 METAR COR LRAR 040830Z 20011KT CAVOK 10/01 Q1012=
201903040900 METAR LRAR 040900Z 20011KT CAVOK 12/01 Q1012=
201903040930 METAR LRAR 040930Z 20012KT CAVOK 13/01 Q1011=
201903041000 METAR LRAR 041000Z 21012KT CAVOK 14/01 Q1011=
201903041030 METAR LRAR 041030Z 21011KT 170V230 CAVOK 15/01 Q1011=
201903041100 METAR LRAR 041100Z 21012KT 180V240 CAVOK 16/01 Q1010=
201903041130 METAR LRAR 041130Z 21013KT 170V240 CAVOK 17/01 Q1009=
201903041200 METAR LRAR 041200Z 21012KT 170V240 CAVOK 17/M00 Q1009=
201903041230 METAR LRAR 041230Z 22012KT CAVOK 18/M01 Q1008=
201903041300 METAR LRAR 041300Z 21013KT 170V230 CAVOK 18/M01 Q1007=
201903041330 METAR COR LRAR 041330Z 20014KT CAVOK 18/M01 Q1007=
201903041400 METAR LRAR 041400Z 20014KT CAVOK 18/M01 Q1006=
201903041430 METAR LRAR 041430Z 20015KT CAVOK 18/M02 Q1006=
201903041500 METAR LRAR 041500Z 19013KT CAVOK 18/M01 Q1006=
201903041530 METAR LRAR 041530Z 19011KT CAVOK 17/M01 Q1005=
201903041600 METAR LRAR 041600Z 19012KT CAVOK 17/M01 Q1005=
201903041630 METAR LRAR 041630Z 19012KT CAVOK 17/M01 Q1005=
201903041700 METAR LRAR 041700Z 17011KT CAVOK 15/M01 Q1005=
201903041730 METAR LRAR 041730Z AUTO 17013KT 9999 NCD 14/M01 Q1004=
201903041800 METAR LRAR 041800Z 17013KT CAVOK 14/M01 Q1004=
201903041830 METAR LRAR 041830Z 17012KT CAVOK 13/M01 Q1004=
201903041900 METAR LRAR 041900Z 17013KT CAVOK 13/M01 Q1004=
201903041930 METAR LRAR 041930Z 17013KT CAVOK 13/M01 Q1004=
201903042000 METAR LRAR 042000Z 18012KT CAVOK 13/M01 Q1004=
201903042030 METAR LRAR 042030Z AUTO 19013KT 9999 NCD 13/M01 Q1004=
201903042100 METAR LRAR 042100Z AUTO 20012KT 9999 NCD 11/M00 Q1004=
201903042130 METAR LRAR 042130Z AUTO 22012KT 9999 NCD 12/M00 Q1004=
201903042200 METAR LRAR 042200Z AUTO 22012KT 9999 FEW086/// 12/M00 Q1004=
201903042230 METAR LRAR 042230Z AUTO 23008KT 9999 FEW081/// 11/M00 Q1005=
201903042300 METAR LRAR 042300Z AUTO 22008KT 9999 FEW086/// 11/00 Q1005=
201903042330 METAR LRAR 042330Z AUTO 24006KT 9999 FEW086/// 11/01 Q1005=
201903050000 METAR LRAR 050000Z AUTO 28009KT 9999 FEW096/// 10/01 Q1005=
201903050030 METAR LRAR 050030Z AUTO 30006KT 9999 NCD 10/01 Q1005=
201903050100 METAR LRAR 050100Z AUTO 28008KT 9999 FEW096/// 09/01 Q1006=
201903050130 METAR LRAR 050130Z AUTO 29011KT 9999 FEW100/// 10/01 Q1006=
201903050200 METAR LRAR 050200Z AUTO 29012KT 9999 FEW096/// 10/02 Q1006=
201903050230 METAR LRAR 050230Z AUTO 31012KT 9999 -RA FEW015/// 09/03
                        Q1007=
201903050300 METAR LRAR 050300Z AUTO 30011KT 9999 RA FEW008/// SCT012///
                        BKN017/// 08/05 Q1008=
201903050330 METAR LRAR 050330Z AUTO 28008KT 9999 -RA FEW012/// SCT018///
                        BKN021/// 07/06 Q1008=
201903050400 METAR LRAR 050400Z AUTO 26006KT 9999 DZ FEW008/// SCT013///
                        BKN020/// 07/06 Q1008=
201903050430 METAR LRAR 050430Z AUTO 19006KT 9999 SCT056/// 07/06 Q1008
                        RERA=
201903050500 METAR LRAR 050500Z 25008KT CAVOK 06/05 Q1009=
201903050530 METAR LRAR 050530Z 25009KT CAVOK 07/06 Q1009 R09/29//95=
201903050600 METAR LRAR 050600Z 24009KT CAVOK 06/05 Q1010 R09/29//95=
201903050630 METAR LRAR 050630Z 24009KT CAVOK 06/06 Q1010 R09/29//95=
201903050700 METAR LRAR 050700Z 25009KT CAVOK 07/05 Q1011 R09/29//95=
201903050730 METAR LRAR 050730Z 24009KT CAVOK 08/05 Q1011 R09/29//95=
201903050800 METAR LRAR 050800Z 27011KT CAVOK 09/04 Q1012 R09/29//95=
201903050830 METAR LRAR 050830Z 27013KT 9999 FEW035 10/05 Q1012 R09/29//95=
201903050900 METAR LRAR 050900Z 28012KT 9999 FEW035 11/04 Q1012 R09/29//95=
201903050930 METAR LRAR 050930Z 29013KT 9999 FEW035 11/03 Q1012 R09/29//95=
201903051000 METAR LRAR 051000Z 29015KT 9999 FEW037 12/03 Q1012 R09/CLRD//=
201903051030 METAR LRAR 051030Z 29017KT 9999 SCT040 13/02 Q1012=
201903051100 METAR LRAR 051100Z 30019KT 9999 SCT048 13/M01 Q1012=
201903051130 METAR LRAR 051130Z 29015KT 9999 FEW035 14/M01 Q1011=
201903051200 METAR LRAR 051200Z 29017KT 260V320 9999 FEW038 14/M01 Q1011=
201903051230 METAR LRAR 051230Z 27014KT 9999 FEW045 14/M02 Q1011=
201903051300 METAR LRAR 051300Z 28013KT 260V330 CAVOK 15/M02 Q1011=
201903051330 METAR LRAR 051330Z 28012KT CAVOK 14/M02 Q1011=
201903051400 METAR LRAR 051400Z 28013KT CAVOK 14/M02 Q1011=
201903051430 METAR LRAR 051430Z 27010KT 240V300 CAVOK 14/M02 Q1011=
201903051500 METAR LRAR 051500Z 27012KT CAVOK 14/M03 Q1011=
201903051530 METAR LRAR 051530Z 28009KT CAVOK 14/M02 Q1011=
201903051600 METAR LRAR 051600Z 28008KT CAVOK 12/M03 Q1011=
201903051630 METAR LRAR 051630Z 29006KT CAVOK 11/M03 Q1012=
201903051700 METAR LRAR 051700Z 26006KT CAVOK 10/M03 Q1012=
201903051730 METAR LRAR 051730Z 23004KT CAVOK 09/M04 Q1012=
201903051800 METAR LRAR 051800Z 22005KT CAVOK 09/M03 Q1013=
201903051830 METAR LRAR 051830Z 21005KT CAVOK 09/M02 Q1013=
201903051900 METAR LRAR 051900Z 22006KT CAVOK 07/M01 Q1013=
201903051930 METAR LRAR 051930Z 22005KT CAVOK 06/M01 Q1013=
201903052000 METAR LRAR 052000Z 19004KT CAVOK 05/M01 Q1013=
201903052030 METAR LRAR 052030Z AUTO 19003KT 9999 NCD 05/M01 Q1013=
201903052100 METAR LRAR 052100Z AUTO 20004KT 9999 NCD 06/M01 Q1014=
201903052130 METAR LRAR 052130Z AUTO 20003KT 9999 NCD 05/M01 Q1014=
201903052200 METAR LRAR 052200Z AUTO 14002KT 110V170 9999 NCD 05/M01 Q1014=
201903052230 METAR LRAR 052230Z AUTO 20006KT 9999 NCD 04/M01 Q1014=
201903052300 METAR LRAR 052300Z AUTO 19007KT 9999 NCD 04/M01 Q1014=
201903052330 METAR LRAR 052330Z AUTO 17007KT 9999 NCD 05/M00 Q1014=
201903060000 METAR LRAR 060000Z AUTO 18008KT 9999 NCD 04/00 Q1014=
201903060030 METAR LRAR 060030Z AUTO 18010KT 9999 NCD 05/01 Q1014=
201903060100 METAR LRAR 060100Z AUTO 19010KT 9999 NCD 05/02 Q1014=
201903060130 METAR LRAR 060130Z AUTO 19011KT 9999 NCD 04/02 Q1014=
201903060200 METAR LRAR 060200Z AUTO 20010KT 9999 FEW071/// 05/03 Q1014=
201903060230 METAR LRAR 060230Z AUTO 24007KT 190V280 9999 BKN066/// 05/03
                        Q1015=
201903060300 METAR LRAR 060300Z AUTO 23005KT 7000 -RA FEW009/// SCT016///
                        BKN043/// 05/03 Q1015=
201903060330 METAR LRAR 060330Z AUTO 24003KT 9999 FEW015/// 04/03 Q1015
                        RERA=
201903060400 METAR LRAR 060400Z AUTO 20004KT 170V230 9000 BKN046/// 04/03
                        Q1015=
201903060430 METAR LRAR 060430Z AUTO 24004KT 9999 FEW045/// BKN056///
                        03/03 Q1016=
201903060500 METAR LRAR 060500Z 29005KT 7000 NSC 03/02 Q1016=
201903060530 METAR LRAR 060530Z 28005KT 7000 MIFG NSC 02/02 Q1016=
201903060600 METAR LRAR 060600Z 27004KT 7000 MIFG NSC 02/02 Q1017 R09/19//95=
201903060630 METAR LRAR 060630Z VRB01KT CAVOK 04/02 Q1017 R09/19//95=
201903060700 METAR LRAR 060700Z 29005KT CAVOK 06/03 Q1018 R09/19//95=
201903060730 METAR LRAR 060730Z 32009KT CAVOK 08/04 Q1018 R09/CLRD//=
201903060800 METAR LRAR 060800Z 34008KT 310V010 9999 FEW030 08/04 Q1019=
201903060830 METAR LRAR 060830Z 34007KT 310V020 9999 SCT030 09/04 Q1019=
201903060900 METAR LRAR 060900Z 32007KT 290V350 9999 SCT033 10/04 Q1019=
201903060930 METAR LRAR 060930Z VRB03KT 9999 BKN033 10/02 Q1019=
201903061000 METAR LRAR 061000Z 32004KT 240V030 9999 BKN035 11/02 Q1020=
201903061030 METAR LRAR 061030Z 32005KT 260V030 9999 BKN035 11/01 Q1020=
201903061100 METAR LRAR 061100Z VRB02KT 9999 BKN036 12/00 Q1020=
201903061130 METAR LRAR 061130Z VRB03KT 9999 BKN037 13/M01 Q1020=
201903061200 METAR LRAR 061200Z VRB03KT 9999 SCT040 13/M00 Q1019=
201903061230 METAR LRAR 061230Z VRB03KT 9999 FEW046 13/M02 Q1019=
201903061300 METAR LRAR 061300Z 24005KT 190V300 9999 FEW047 14/M02 Q1019=
201903061330 METAR LRAR 061330Z VRB03KT 9999 FEW048 14/M02 Q1019=
201903061400 METAR LRAR 061400Z 23007KT 9999 FEW049 13/M02 Q1019=
201903061430 METAR LRAR 061430Z 23008KT 9999 FEW049 14/M01 Q1019=
201903061500 METAR LRAR 061500Z 23006KT 190V260 CAVOK 13/M02 Q1019=
201903061530 METAR LRAR 061530Z 23004KT 200V260 CAVOK 13/M03 Q1019=
201903061600 METAR LRAR 061600Z 21003KT CAVOK 12/M02 Q1019=
201903061630 METAR LRAR 061630Z 16004KT CAVOK 11/M02 Q1019=
201903061700 METAR LRAR 061700Z 17003KT CAVOK 09/M01 Q1019=
201903061730 METAR LRAR 061730Z 15005KT CAVOK 09/M01 Q1019=
201903061800 METAR LRAR 061800Z 15006KT CAVOK 08/M01 Q1019=
201903061830 METAR LRAR 061830Z 14006KT CAVOK 07/M01 Q1019=
201903061900 METAR LRAR 061900Z 14006KT CAVOK 07/M02 Q1019=
201903061930 METAR LRAR 061930Z 14007KT CAVOK 07/M02 Q1018=
201903062000 METAR LRAR 062000Z 14008KT CAVOK 06/M01 Q1018=
201903062030 METAR LRAR 062030Z AUTO 14007KT 9999 NCD 06/M01 Q1018=
201903062100 METAR LRAR 062100Z AUTO 14007KT 9999 NCD 06/M01 Q1018=
201903062130 METAR LRAR 062130Z AUTO 14009KT 9999 NCD 07/M01 Q1018=
201903062200 METAR LRAR 062200Z AUTO 14008KT 9999 NCD 06/M01 Q1017=
201903062230 METAR LRAR 062230Z AUTO 14010KT 9999 NCD 06/M02 Q1017=
201903062300 METAR LRAR 062300Z AUTO 15010KT 9999 NCD 06/M01 Q1017=
201903062330 METAR LRAR 062330Z AUTO 14011KT 9999 NCD 06/M02 Q1017=
201903070000 METAR LRAR 070000Z AUTO 14010KT 9999 NCD 06/M02 Q1017=
201903070030 METAR LRAR 070030Z AUTO 14010KT 9999 NCD 07/M02 Q1017=
201903070100 METAR LRAR 070100Z AUTO 14010KT 9999 NCD 07/M03 Q1016=
201903070130 METAR LRAR 070130Z AUTO 14012KT 9999 NCD 07/M03 Q1016=
201903070200 METAR LRAR 070200Z AUTO 14012KT 9999 NCD 06/M03 Q1015=
201903070230 METAR LRAR 070230Z AUTO 15010KT 9999 NCD 06/M03 Q1015=
201903070300 METAR LRAR 070300Z AUTO 15009KT 9999 NCD 06/M03 Q1015=
201903070330 METAR LRAR 070330Z AUTO 15009KT 9999 NCD 08/M02 Q1015=
201903070400 METAR LRAR 070400Z AUTO 17010KT 9999 NCD 09/M02 Q1015=
201903070430 METAR LRAR 070430Z AUTO 16013KT 9999 FEW100/// 09/M03 Q1015=
201903070500 METAR LRAR 070500Z 16012KT CAVOK 09/M02 Q1015=
201903070530 METAR LRAR 070530Z 16013KT CAVOK 09/M02 Q1015=
201903070600 METAR LRAR 070600Z 16012KT CAVOK 10/M02 Q1015=
201903070630 METAR LRAR 070630Z 16013KT CAVOK 10/M02 Q1015=
201903070700 METAR LRAR 070700Z 16013KT CAVOK 11/M02 Q1015=
201903070730 METAR LRAR 070730Z 16012KT CAVOK 12/M02 Q1015=
201903070800 METAR LRAR 070800Z 17015KT CAVOK 13/M02 Q1015=
201903070830 METAR LRAR 070830Z 18016KT CAVOK 14/M01 Q1015=
201903070900 METAR LRAR 070900Z 18019KT CAVOK 16/M01 Q1014=
201903070930 METAR LRAR 070930Z 19020KT CAVOK 16/M01 Q1014=
201903071000 METAR LRAR 071000Z 19019KT CAVOK 17/M01 Q1014=
201903071030 METAR LRAR 071030Z 19017G27KT CAVOK 17/M00 Q1014=
201903071100 METAR LRAR 071100Z 19019G29KT CAVOK 18/00 Q1013=
201903071130 METAR LRAR 071130Z 19020KT CAVOK 19/00 Q1013=
201903071200 METAR LRAR 071200Z 19021KT CAVOK 20/01 Q1012=
201903071230 METAR LRAR 071230Z 20021KT CAVOK 19/01 Q1012=
201903071300 METAR LRAR 071300Z 20018KT CAVOK 20/01 Q1012=
201903071330 METAR LRAR 071330Z 19018KT CAVOK 19/01 Q1012=
201903071400 METAR LRAR 071400Z 19015KT 160V220 CAVOK 19/01 Q1011=
201903071430 METAR LRAR 071430Z 19016KT CAVOK 19/01 Q1011=
201903071500 METAR LRAR 071500Z 18014KT CAVOK 18/01 Q1011=
201903071530 METAR COR LRAR 071530Z 18014KT 160V220 CAVOK 18/01 Q1011=
201903071600 METAR LRAR 071600Z 18012KT CAVOK 17/01 Q1012=
201903071630 METAR LRAR 071630Z 17012KT CAVOK 17/01 Q1012=
201903071700 METAR LRAR 071700Z 17012KT CAVOK 16/01 Q1012=
201903071730 METAR LRAR 071730Z 17013KT CAVOK 16/01 Q1012=
201903071800 METAR LRAR 071800Z 17015KT CAVOK 16/01 Q1012=
201903071830 METAR LRAR 071830Z 16010KT CAVOK 15/02 Q1012=
201903071900 METAR LRAR 071900Z 16011KT CAVOK 15/02 Q1012=
201903071930 METAR LRAR 071930Z 16009KT CAVOK 14/02 Q1012=
201903072000 METAR LRAR 072000Z 16011KT CAVOK 14/02 Q1012=
201903072030 METAR LRAR 072030Z AUTO 17012KT 9999 NCD 14/01 Q1012=
201903072100 METAR LRAR 072100Z AUTO 18014KT 9999 NCD 15/01 Q1012=
201903072130 METAR LRAR 072130Z AUTO 18015KT 9999 NCD 15/01 Q1012=
201903072200 METAR LRAR 072200Z AUTO 18013KT 9999 NCD 14/01 Q1013=
201903072230 METAR LRAR 072230Z AUTO 19010KT 9999 NCD 14/01 Q1013=
201903072300 METAR LRAR 072300Z AUTO 20011KT 9999 NCD 13/01 Q1013=
201903072330 METAR LRAR 072330Z AUTO 20010KT 9999 NCD 13/01 Q1013=
201903080000 METAR LRAR 080000Z AUTO 19009KT 9999 NCD 13/01 Q1013=
201903080030 METAR LRAR 080030Z AUTO 20010KT 9999 NCD 12/01 Q1013=
201903080100 METAR LRAR 080100Z AUTO 20010KT 9999 NCD 12/01 Q1013=
201903080130 METAR LRAR 080130Z AUTO 19011KT 9999 NCD 13/00 Q1013=
201903080200 METAR LRAR 080200Z AUTO 19011KT 9999 NCD 13/00 Q1013=
201903080230 METAR LRAR 080230Z AUTO 19010KT 9999 NCD 13/00 Q1013=
201903080300 METAR LRAR 080300Z AUTO 18009KT 9999 NCD 13/00 Q1013=
201903080330 METAR LRAR 080330Z AUTO 18011KT 9999 NCD 13/00 Q1014=
201903080400 METAR LRAR 080400Z AUTO 19010KT 9999 NCD 13/00 Q1014=
201903080430 METAR LRAR 080430Z AUTO 19010KT 9999 NCD 12/M00 Q1014=
201903080500 METAR COR LRAR 080500Z 19011KT CAVOK 12/M00 Q1014=
201903080530 METAR LRAR 080530Z 20011KT CAVOK 12/00 Q1014=
201903080600 METAR LRAR 080600Z 20011KT CAVOK 12/M00 Q1014=
201903080630 METAR LRAR 080630Z 20013KT CAVOK 13/00 Q1015=
201903080700 METAR LRAR 080700Z 20011KT CAVOK 14/01 Q1015=
201903080730 METAR LRAR 080730Z 21010KT CAVOK 15/01 Q1015=
201903080800 METAR LRAR 080800Z 21011KT CAVOK 16/01 Q1015=
201903080830 METAR LRAR 080830Z 21011KT CAVOK 16/01 Q1015=
201903080900 METAR LRAR 080900Z 22010KT CAVOK 17/01 Q1016=
201903080930 METAR LRAR 080930Z 23010KT CAVOK 18/02 Q1016=
201903081000 METAR LRAR 081000Z 23008KT 200V270 CAVOK 19/02 Q1016=
201903081030 METAR LRAR 081030Z 23007KT CAVOK 19/03 Q1016=
201903081100 METAR LRAR 081100Z 26007KT 230V290 CAVOK 19/03 Q1016=
201903081130 METAR LRAR 081130Z 24006KT CAVOK 20/04 Q1016=
201903081200 METAR LRAR 081200Z 27011KT CAVOK 20/04 Q1016=
201903081230 METAR LRAR 081230Z 28012KT CAVOK 19/04 Q1016=
201903081300 METAR LRAR 081300Z 31012KT 9999 FEW020 19/05 Q1016=
201903081330 METAR LRAR 081330Z 33011KT 9999 SCT020 18/05 Q1016=
201903081400 METAR LRAR 081400Z 33010KT 9999 SCT024 18/05 Q1016=
201903081430 METAR LRAR 081430Z 35009KT 9999 SCT026 17/05 Q1017=
201903081500 METAR LRAR 081500Z 35007KT 9999 SCT028 17/05 Q1017=
201903081530 METAR LRAR 081530Z 36009KT 9999 FEW030CB SCT033 16/06 Q1017=
201903081600 METAR LRAR 081600Z 35006KT 9999 VCSH FEW030CB SCT035 15/06
                        Q1017=
201903081630 METAR LRAR 081630Z 35005KT 9999 -SHRA SCT035CB 14/07 Q1017=
201903081700 METAR LRAR 081700Z 31004KT 270V340 9999 -SHRA FEW018 SCT030CB
                        13/08 Q1018=
201903081730 METAR LRAR 081730Z 12002KT 9999 -SHRA FEW009 SCT030CB 12/10
                        Q1018=
201903081800 METAR LRAR 081800Z 17005KT 140V230 7000 SHRA FEW007 SCT014
                        SCT030CB 12/10 Q1018 R09/29//95=
201903081830 METAR LRAR 081830Z VRB01KT 9000 -SHRA FEW010 SCT020 SCT030CB
                        11/10 Q1019 RESHRA R09/29//95=
201903081900 METAR LRAR 081900Z 21005KT 9999 -SHRA SCT019 SCT035CB 11/11
                        Q1019 RESHRA R09/29//95=
201903081930 METAR COR LRAR 081930Z 21006KT 9999 -SHRA SCT018 SCT035CB
                        11/11 Q1019 R09/29//95=
201903082000 METAR LRAR 082000Z 21005KT 9999 FEW009 FEW045CB 11/11 Q1019
                        R09/29//95=
201903082030 METAR LRAR 082030Z AUTO 22006KT 9999 -SHRA FEW009/// SCT019///
                        11/11 Q1019=
201903082100 METAR LRAR 082100Z AUTO 19005KT 9999 FEW012/// 10/10 Q1019
                        RESN=
201903082130 METAR LRAR 082130Z AUTO 20007KT 9999 FEW066/// ///// Q1019
                        REUP=
201903082200 METAR LRAR 082200Z AUTO 21006KT 9999 FEW066/// 11/11 Q1019=
201903082230 METAR LRAR 082230Z AUTO 16004KT 130V210 9999 FEW009/// BKN056///
                        10/10 Q1019=
201903082300 METAR LRAR 082300Z AUTO 20007KT 9999 BKN056/// 10/10 Q1019=
201903082330 METAR LRAR 082330Z AUTO 20010KT 9999 FEW056/// 10/10 Q1019=
201903090000 METAR LRAR 090000Z AUTO 24005KT 190V280 9999 FEW004/// 10/10
                        Q1021=
201903090030 METAR LRAR 090030Z AUTO 14004KT 9999 FEW005/// BKN021///
                        BKN045/// 10/10 Q1020=
201903090100 METAR LRAR 090100Z AUTO 12007KT 9000 FEW005/// SCT007///
                        BKN022/// ///// Q1020=
201903090130 METAR LRAR 090130Z AUTO 13008KT 9999 FEW006/// SCT009///
                        BKN012/// 10/10 Q1020 REUP=
201903090200 METAR LRAR 090200Z AUTO 14007KT 110V170 9999 SCT006/// BKN008///
                        OVC010/// 10/10 Q1020 REUP=
201903090230 METAR LRAR 090230Z AUTO 15004KT 9999 BKN006/// OVC010///
                        10/10 Q1020=
201903090300 METAR LRAR 090300Z AUTO 15002KT 110V170 9999 SCT005/// BKN007///
                        OVC009/// 10/10 Q1020=
201903090330 METAR LRAR 090330Z AUTO 15003KT 100V180 9000 SCT005/// BKN007///
                        BKN009/// 10/10 Q1020=
201903090400 METAR LRAR 090400Z AUTO 06002KT 030V100 4100 -RA SCT004///
                        BKN006/// 10/10 Q1020=
201903090430 METAR LRAR 090430Z AUTO 10004KT 4700 BKN004/// OVC007///
                        ///// Q1020 RERA=
201903090500 METAR LRAR 090500Z 14002KT 7000 SCT003 BKN005 OVC007 10/10
                        Q1020 R09/29//95=
201903090530 METAR LRAR 090530Z VRB01KT 7000 -DZ BKN005 BKN008 10/10 Q1020
                        R09/29//95=
201903090600 METAR LRAR 090600Z 15005KT 6000 FEW004 SCT008 BKN020 10/10
                        Q1020 R09/29//95=
201903090630 METAR LRAR 090630Z VRB02KT 8000 FEW004 BKN007 10/10 Q1020
                        R09/29//95=
201903090700 METAR LRAR 090700Z VRB02KT 7000 SCT002 OVC006 10/10 Q1021
                        R09/29//95=
201903090730 METAR LRAR 090730Z 26004KT 8000 SCT002 BKN006 10/10 Q1021
                        R09/29//95=
201903090800 METAR LRAR 090800Z VRB02KT 9999 FEW004 BKN007 BKN009 11/11
                        Q1021 R09/29//95=
201903090830 METAR LRAR 090830Z VRB01KT 9999 FEW005 SCT008 11/10 Q1021
                        R09/29//95=
201903090900 METAR LRAR 090900Z VRB02KT 9999 FEW010 SCT025 13/09 Q1021
                        R09/29//95=
201903090930 METAR LRAR 090930Z 25004KT 200V010 9999 FEW020 13/08 Q1021
                        R09/29//95=
201903091000 METAR LRAR 091000Z 30006KT 9999 FEW030 14/05 Q1021 R09/29//95=
201903091030 METAR LRAR 091030Z 26007KT 240V300 9999 FEW035 15/04 Q1021
                        R09/29//95=
201903091100 METAR LRAR 091100Z 27008KT 240V310 9999 FEW035 15/04 Q1020
                        R09/29//95=
201903091130 METAR LRAR 091130Z 24009KT 210V270 9999 FEW045 15/04 Q1020
                        R09/29//95=
201903091200 METAR LRAR 091200Z 23008KT 200V260 9999 FEW045 15/05 Q1019
                        R09/29//95=
201903091230 METAR LRAR 091230Z 24008KT 190V280 9999 FEW047 15/05 Q1019
                        R09/CLRD//=
201903091300 METAR LRAR 091300Z 23011KT 200V260 CAVOK 15/05 Q1019=
201903091330 METAR LRAR 091330Z 22009KT CAVOK 15/06 Q1018=
201903091400 METAR LRAR 091400Z 22012KT 190V250 CAVOK 15/06 Q1018=
201903091430 METAR LRAR 091430Z 23009KT CAVOK 15/07 Q1018=
201903091500 METAR LRAR 091500Z 23010KT CAVOK 15/07 Q1017=
201903091530 METAR LRAR 091530Z 24010KT CAVOK 15/06 Q1017=
201903091600 METAR LRAR 091600Z 23008KT CAVOK 14/07 Q1017=
201903091630 METAR LRAR 091630Z 22006KT CAVOK 13/07 Q1017=
201903091700 METAR LRAR 091700Z 22005KT CAVOK 12/07 Q1017=
201903091730 METAR LRAR 091730Z 20005KT CAVOK 12/07 Q1017=
201903091800 METAR LRAR 091800Z 20006KT CAVOK 11/07 Q1017=
201903091830 METAR LRAR 091830Z 20006KT CAVOK 11/07 Q1016=
201903091900 METAR LRAR 091900Z 20007KT CAVOK 11/07 Q1016=
201903091930 METAR LRAR 091930Z 20006KT CAVOK 10/07 Q1016=
201903092000 METAR LRAR 092000Z 19007KT CAVOK 10/07 Q1016=
201903092030 METAR LRAR 092030Z AUTO 19008KT 9999 NCD 10/07 Q1015=
201903092100 METAR LRAR 092100Z AUTO 20008KT 9999 NCD 10/07 Q1015=
201903092130 METAR LRAR 092130Z AUTO 20007KT 9999 NCD 10/07 Q1015=
201903092200 METAR LRAR 092200Z AUTO 21005KT 9999 NCD 09/07 Q1016=
201903092230 METAR LRAR 092230Z AUTO 20009KT 9999 NCD 09/07 Q1015=
201903092300 METAR LRAR 092300Z AUTO 20009KT 9999 NCD 09/07 Q1014=
201903092330 METAR LRAR 092330Z AUTO 21009KT 9999 NCD 09/07 Q1014=
201903100000 METAR LRAR 100000Z AUTO 21010KT 9999 NCD 09/07 Q1014=
201903100030 METAR LRAR 100030Z AUTO 23011KT 9999 NCD 10/06 Q1015=
201903100100 METAR LRAR 100100Z AUTO 24012KT 9999 FEW056/// 10/05 Q1014=
201903100130 METAR LRAR 100130Z AUTO 24014KT 9999 FEW076/// 10/05 Q1014=
201903100200 METAR LRAR 100200Z AUTO 27014KT 9999 NCD 10/04 Q1015=
201903100230 METAR LRAR 100230Z AUTO 27013KT 9999 NCD 09/04 Q1015=
201903100300 METAR LRAR 100300Z AUTO 27016KT 9999 NCD 10/04 Q1015=
201903100330 METAR LRAR 100330Z AUTO 27017KT 9999 NCD 10/04 Q1016=
201903100400 METAR LRAR 100400Z AUTO 27015KT 9999 NCD 09/04 Q1016=
201903100430 METAR LRAR 100430Z AUTO 28010KT 9999 NCD 07/03 Q1017=
201903100500 METAR LRAR 100500Z 28009KT CAVOK 07/03 Q1017=
201903100530 METAR LRAR 100530Z 27009KT CAVOK 07/03 Q1017=
201903100600 METAR LRAR 100600Z 27008KT CAVOK 09/04 Q1018=
201903100630 METAR LRAR 100630Z VRB03KT CAVOK 08/04 Q1019=
201903100700 METAR LRAR 100700Z 22005KT CAVOK 09/05 Q1019=
201903100730 METAR LRAR 100730Z 25003KT CAVOK 10/04 Q1018=
201903100800 METAR LRAR 100800Z 19007KT CAVOK 10/05 Q1018=
201903100830 METAR LRAR 100830Z 20010KT CAVOK 09/06 Q1018=
201903100900 METAR LRAR 100900Z 20009KT CAVOK 10/06 Q1018=
201903100930 METAR LRAR 100930Z 18009KT CAVOK 11/06 Q1018=
201903101000 METAR LRAR 101000Z 19012KT CAVOK 11/06 Q1018=
201903101030 METAR LRAR 101030Z 19012KT CAVOK 12/06 Q1017=
201903101100 METAR LRAR 101100Z 18013KT CAVOK 12/05 Q1016=
201903101130 METAR LRAR 101130Z 18011KT CAVOK 13/05 Q1015=
201903101200 METAR LRAR 101200Z 18010KT CAVOK 14/04 Q1014=
201903101230 METAR LRAR 101230Z 20011KT 160V220 CAVOK 14/05 Q1014=
201903101300 METAR LRAR 101300Z 20011KT CAVOK 15/05 Q1013=
201903101330 METAR LRAR 101330Z 22009KT 180V250 CAVOK 15/06 Q1012=
201903101400 METAR LRAR 101400Z 22010KT CAVOK 15/06 Q1012=
201903101430 METAR LRAR 101430Z 21009KT CAVOK 16/06 Q1011=
201903101500 METAR LRAR 101500Z 21006KT CAVOK 15/06 Q1010=
201903101530 METAR LRAR 101530Z 21006KT CAVOK 15/07 Q1010=
201903101600 METAR LRAR 101600Z 20008KT CAVOK 15/06 Q1009=
201903101630 METAR LRAR 101630Z 22008KT CAVOK 15/07 Q1009=
201903101700 METAR LRAR 101700Z 24011KT 9999 FEW014 16/05 Q1009=
201903101730 METAR LRAR 101730Z 26010KT 9999 FEW017 15/05 Q1009=
201903101800 METAR LRAR 101800Z 24011KT 9999 FEW011 15/06 Q1009=
201903101830 METAR LRAR 101830Z 24009KT 9999 SCT013 14/05 Q1009=
201903101900 METAR LRAR 101900Z 23008KT CAVOK 14/06 Q1008=
201903101930 METAR LRAR 101930Z 23008KT CAVOK 14/06 Q1008=
201903102000 METAR LRAR 102000Z 24010KT CAVOK 13/05 Q1008=
201903102030 METAR LRAR 102030Z AUTO 24007KT 9999 NCD 12/05 Q1009=
201903102100 METAR LRAR 102100Z AUTO 24010KT 9999 NCD 13/04 Q1009=
201903102130 METAR LRAR 102130Z AUTO 25013KT 9999 NCD 13/04 Q1009=
201903102200 METAR LRAR 102200Z AUTO 24013KT 9999 NCD 12/04 Q1008=
201903102230 METAR LRAR 102230Z AUTO 26009KT 9999 NCD 12/04 Q1010=
201903102300 METAR LRAR 102300Z AUTO 26009KT 9999 NCD 12/04 Q1010=
201903102330 METAR LRAR 102330Z AUTO 26011KT 9999 NCD 12/04 Q1009=
201903110000 METAR LRAR 110000Z AUTO 24007KT 9999 FEW091/// 11/05 Q1010=
201903110030 METAR LRAR 110030Z AUTO 20005KT 9999 FEW091/// 09/05 Q1010=
201903110100 METAR LRAR 110100Z AUTO 22006KT 9999 FEW071/// 08/05 Q1010=
201903110130 METAR LRAR 110130Z AUTO 23007KT 9999 FEW071/// 09/04 Q1011=
201903110200 METAR LRAR 110200Z AUTO 24005KT 9999 FEW071/// 08/04 Q1011=
201903110230 METAR LRAR 110230Z AUTO 21007KT 9999 BKN071/// 08/04 Q1011=
201903110300 METAR LRAR 110300Z AUTO 23008KT 9999 NCD 08/05 Q1011=
201903110330 METAR LRAR 110330Z AUTO 22006KT 9999 NCD 07/05 Q1012=
201903110400 METAR LRAR 110400Z AUTO 22007KT 9999 FEW091/// 07/05 Q1012=
201903110430 METAR LRAR 110430Z AUTO 24003KT 9999 NCD 07/05 Q1013=
201903110500 METAR LRAR 110500Z 27006KT CAVOK 08/04 Q1013=
201903110530 METAR LRAR 110530Z 28006KT CAVOK 08/04 Q1013=
201903110600 METAR LRAR 110600Z 32008KT CAVOK 09/02 Q1013=
201903110630 METAR LRAR 110630Z 34010KT 310V020 CAVOK 09/00 Q1014=
201903110700 METAR LRAR 110700Z 34010KT CAVOK 09/00 Q1014=
201903110730 METAR LRAR 110730Z 34014KT CAVOK 10/M01 Q1014=
201903110800 METAR LRAR 110800Z 35013G25KT CAVOK 10/M02 Q1014=
201903110830 METAR LRAR 110830Z 35015G25KT CAVOK 10/M02 Q1014=
201903110900 METAR LRAR 110900Z 33012KT 9999 FEW017 10/M01 Q1015=
201903110930 METAR LRAR 110930Z 31009KT 9999 FEW025 10/M01 Q1015=
201903111000 METAR LRAR 111000Z 33009KT 9999 FEW035 10/M02 Q1015=
201903111030 METAR LRAR 111030Z 32013KT 9999 FEW040 10/M03 Q1015=
201903111100 METAR LRAR 111100Z 32014KT CAVOK 10/M03 Q1015=
201903111130 METAR LRAR 111130Z 33009KT CAVOK 09/M02 Q1015=
201903111200 METAR LRAR 111200Z 33009KT CAVOK 09/M03 Q1014=
201903111230 METAR LRAR 111230Z 31008KT CAVOK 09/M02 Q1014=
201903111300 METAR LRAR 111300Z 32007KT CAVOK 10/M04 Q1014=
201903111330 METAR LRAR 111330Z 29009KT CAVOK 10/M03 Q1014=
201903111400 METAR LRAR 111400Z 27009KT CAVOK 10/M03 Q1013=
201903111430 METAR LRAR 111430Z 28009KT CAVOK 10/M03 Q1013=
201903111500 METAR LRAR 111500Z 27008KT CAVOK 09/M03 Q1013=
201903111530 METAR LRAR 111530Z 25007KT CAVOK 09/M04 Q1012=
201903111600 METAR LRAR 111600Z 26008KT CAVOK 09/M03 Q1013=
201903111630 METAR LRAR 111630Z 25006KT CAVOK 08/M03 Q1013=
201903111700 METAR LRAR 111700Z 27007KT CAVOK 06/M02 Q1013=
201903111730 METAR LRAR 111730Z 28006KT CAVOK 06/M02 Q1014=
201903111800 METAR LRAR 111800Z 27006KT CAVOK 06/M02 Q1014=
201903111830 METAR LRAR 111830Z 26005KT CAVOK 06/M02 Q1014=
201903111900 METAR LRAR 111900Z 27008KT CAVOK 06/M02 Q1014=
201903111930 METAR LRAR 111930Z 31010KT CAVOK 06/M01 Q1014=
201903112000 METAR LRAR 112000Z 30010KT CAVOK 06/M00 Q1015=
201903112030 METAR LRAR 112030Z AUTO 31011KT 9999 NCD 06/00 Q1014=
201903112100 METAR LRAR 112100Z AUTO 32013KT 9999 NCD 05/00 Q1014=
201903112130 METAR LRAR 112130Z AUTO 32013KT 9999 NCD 05/00 Q1014=
201903112200 METAR LRAR 112200Z AUTO 31013KT 9999 NCD 04/01 Q1015=
201903112230 METAR LRAR 112230Z AUTO 31012KT 9999 NCD 04/00 Q1015=
201903112300 METAR LRAR 112300Z AUTO 31011KT 9999 NCD 03/M00 Q1015=
201903112330 METAR LRAR 112330Z AUTO 31010KT 9999 NCD 03/M00 Q1015=
201903120000 METAR LRAR 120000Z AUTO 30008KT 9999 NCD 02/M01 Q1015=
201903120030 METAR LRAR 120030Z AUTO 32011KT 9999 NCD 03/M00 Q1015=
201903120100 METAR LRAR 120100Z AUTO 32010KT 9999 NCD 03/M00 Q1015=
201903120130 METAR LRAR 120130Z AUTO 32011KT 9999 NCD 02/M01 Q1015=
201903120200 METAR LRAR 120200Z AUTO 32009KT 9999 NCD 02/M01 Q1015=
201903120230 METAR LRAR 120230Z AUTO 31007KT 9999 NCD 02/M01 Q1016=
201903120300 METAR LRAR 120300Z AUTO 32006KT 9999 NCD 01/M01 Q1017=
201903120330 METAR LRAR 120330Z AUTO 32006KT 9999 NCD 01/M01 Q1017=
201903120400 METAR LRAR 120400Z AUTO 33007KT 9999 FEW037/// 01/M01 Q1017=
201903120430 METAR LRAR 120430Z AUTO 34004KT 9999 SCT034/// BKN040///
                        01/M01 Q1017=
201903120500 METAR LRAR 120500Z 03005KT 9999 FEW040 01/M01 Q1017=
201903120530 METAR LRAR 120530Z 03004KT CAVOK 01/M02 Q1017=
201903120600 METAR LRAR 120600Z 36005KT CAVOK 01/M01 Q1018=
201903120630 METAR LRAR 120630Z 35005KT CAVOK 02/M01 Q1018=
201903120700 METAR LRAR 120700Z 35007KT CAVOK 03/M01 Q1018=
201903120730 METAR LRAR 120730Z 01009KT CAVOK 04/M01 Q1019=
201903120800 METAR LRAR 120800Z 02008KT 360V060 CAVOK 05/M01 Q1019=
201903120830 METAR LRAR 120830Z 01007KT CAVOK 06/M01 Q1019=
201903120900 METAR LRAR 120900Z 02006KT 330V040 9999 FEW030 07/M01 Q1019=
201903120930 METAR LRAR 120930Z 01005KT 330V050 9999 SCT030 07/M01 Q1019=
201903121000 METAR LRAR 121000Z 36006KT 300V060 9999 BKN040 07/M02 Q1019=
201903121030 METAR LRAR 121030Z 36006KT 330V040 9999 BKN045 09/M02 Q1019=
201903121100 METAR LRAR 121100Z 02007KT 320V060 9999 BKN048 09/M03 Q1020=
201903121130 METAR LRAR 121130Z 05007KT 030V090 9999 FEW048 09/M04 Q1019=
201903121200 METAR LRAR 121200Z 04007KT 350V070 9999 FEW040 08/M05 Q1019=
201903121230 METAR LRAR 121230Z 05007KT 350V090 9999 FEW045 09/M05 Q1019=
201903121300 METAR LRAR 121300Z 02011KT 9999 FEW048 10/M05 Q1019=
201903121330 METAR LRAR 121330Z 03013KT 360V060 CAVOK 09/M05 Q1019=
201903121400 METAR LRAR 121400Z 01016KT CAVOK 10/M06 Q1019=
201903121430 METAR LRAR 121430Z 01009KT 320V050 CAVOK 10/M07 Q1019=
201903121500 METAR LRAR 121500Z 02009KT 350V060 CAVOK 10/M06 Q1019=
201903121530 METAR LRAR 121530Z 02012KT 350V050 CAVOK 09/M07 Q1019=
201903121600 METAR LRAR 121600Z 03008KT 360V070 CAVOK 09/M06 Q1019=
201903121630 METAR LRAR 121630Z 04007KT CAVOK 08/M06 Q1019=
201903121700 METAR LRAR 121700Z 03006KT CAVOK 06/M06 Q1020=
201903121730 METAR LRAR 121730Z 06005KT CAVOK 06/M07 Q1020=
201903121800 METAR LRAR 121800Z 03003KT CAVOK 04/M07 Q1020=
201903121830 METAR LRAR 121830Z VRB01KT CAVOK 03/M07 Q1020=
201903121900 METAR LRAR 121900Z 00000KT CAVOK 02/M07 Q1020=
201903121930 METAR LRAR 121930Z VRB01KT CAVOK 02/M06 Q1020=
201903122000 METAR LRAR 122000Z VRB01KT CAVOK 00/M06 Q1020=
201903122030 METAR LRAR 122030Z AUTO 17002KT 9999 NCD 00/M07 Q1020=
201903122100 METAR LRAR 122100Z AUTO 17002KT 9999 FEW071/// M00/M07 Q1020=
201903122130 METAR LRAR 122130Z AUTO VRB01KT 9999 NCD M00/M06 Q1020=
201903122200 METAR LRAR 122200Z AUTO 27004KT 9999 NCD M01/M06 Q1020=
201903122230 METAR LRAR 122230Z AUTO 24003KT 9999 NCD M01/M06 Q1020=
201903122300 METAR LRAR 122300Z AUTO 15002KT 7000 NCD M01/M05 Q1020=
201903122330 METAR LRAR 122330Z AUTO 16002KT 6000 NCD M02/M04 Q1020=
201903130000 METAR LRAR 130000Z AUTO 18003KT 140V210 7000 NCD M02/M05
                        Q1019=
201903130030 METAR LRAR 130030Z AUTO 15002KT 5000 BR NCD M02/M04 Q1019=
201903130100 METAR LRAR 130100Z AUTO 14006KT 7000 NCD M01/M05 Q1019=
201903130130 METAR LRAR 130130Z AUTO 15004KT 5000 BR NCD M02/M05 Q1019=
201903130200 METAR LRAR 130200Z AUTO 16004KT 5000 BR NCD M02/M06 Q1019=
201903130230 METAR LRAR 130230Z AUTO 16007KT 5000 BR NCD M01/M05 Q1018=
201903130300 METAR LRAR 130300Z AUTO 16007KT 5000 BR NCD M01/M05 Q1018=
201903130330 METAR LRAR 130330Z AUTO 15008KT 5000 BR NCD M01/M06 Q1018=
201903130400 METAR LRAR 130400Z AUTO 15007KT 5000 BR NCD M01/M05 Q1018=
201903130430 METAR LRAR 130430Z AUTO 14007KT 5000 BR NCD M02/M05 Q1018=
201903130500 METAR LRAR 130500Z 14008KT CAVOK M02/M05 Q1018=
201903130530 METAR LRAR 130530Z 14008KT CAVOK M01/M05 Q1018=
201903130600 METAR LRAR 130600Z 14008KT CAVOK 01/M04 Q1018=
201903130630 METAR LRAR 130630Z 14008KT CAVOK 02/M04 Q1018=
201903130700 METAR LRAR 130700Z 14010KT CAVOK 04/M04 Q1018=
201903130730 METAR LRAR 130730Z 14008KT CAVOK 05/M03 Q1018=
201903130800 METAR LRAR 130800Z 15009KT CAVOK 06/M05 Q1018=
201903130830 METAR LRAR 130830Z 15007KT CAVOK 07/M05 Q1018=
201903130900 METAR LRAR 130900Z 17007KT 140V210 CAVOK 08/M06 Q1018=
201903130930 METAR LRAR 130930Z 19009KT CAVOK 08/M08 Q1018=
201903131000 METAR LRAR 131000Z 17007KT CAVOK 09/M08 Q1017=
201903131030 METAR LRAR 131030Z 20009KT 150V220 CAVOK 09/M07 Q1017=
201903131100 METAR LRAR 131100Z 20009KT 160V230 CAVOK 09/M06 Q1017=
201903131130 METAR LRAR 131130Z 18010KT 150V220 CAVOK 10/M04 Q1017=
201903131200 METAR COR LRAR 131200Z 21009KT CAVOK 10/M04 Q1016=
201903131230 METAR LRAR 131230Z 21007KT 160V250 CAVOK 10/M06 Q1016=
201903131300 METAR LRAR 131300Z 20005KT 130V250 CAVOK 11/M05 Q1015=
201903131330 METAR LRAR 131330Z 20007KT 170V240 CAVOK 11/M05 Q1015=
201903131400 METAR LRAR 131400Z 18006KT 150V210 CAVOK 11/M06 Q1014=
201903131430 METAR LRAR 131430Z 20006KT 170V240 CAVOK 11/M05 Q1014=
201903131500 METAR LRAR 131500Z 20008KT 170V230 CAVOK 11/M06 Q1014=
201903131530 METAR LRAR 131530Z 19007KT CAVOK 11/M05 Q1014=
201903131600 METAR LRAR 131600Z 19007KT CAVOK 10/M05 Q1014=
201903131630 METAR LRAR 131630Z 20005KT CAVOK 10/M05 Q1013=
201903131700 METAR COR LRAR 131700Z 20004KT CAVOK 09/M05 Q1013=
201903131730 METAR LRAR 131730Z 18003KT CAVOK 09/M05 Q1013=
201903131800 METAR LRAR 131800Z 15003KT CAVOK 08/M03 Q1013=
201903131830 METAR LRAR 131830Z 15004KT CAVOK 08/M03 Q1013=
201903131900 METAR LRAR 131900Z 16004KT CAVOK 07/M03 Q1013=
201903131930 METAR LRAR 131930Z 19005KT CAVOK 08/M04 Q1013=
201903132000 METAR LRAR 132000Z 18006KT CAVOK 08/M04 Q1013=
201903132030 METAR LRAR 132030Z AUTO 19009KT 9999 NCD 07/M04 Q1013=
201903132100 METAR LRAR 132100Z AUTO 18008KT 9999 FEW180/// 07/M04 Q1013=
201903132130 METAR LRAR 132130Z AUTO 18007KT 9999 NCD 07/M04 Q1013=
201903132200 METAR LRAR 132200Z AUTO 17006KT 9999 NCD 06/M03 Q1013=
201903132230 METAR LRAR 132230Z AUTO 17006KT 9999 NCD 06/M03 Q1013=
201903132300 METAR LRAR 132300Z AUTO 14005KT 9999 NCD 06/M02 Q1013=
201903132330 METAR LRAR 132330Z AUTO 14006KT 9999 NCD 05/M02 Q1012=
201903140000 METAR LRAR 140000Z AUTO 14006KT 9999 NCD 05/M02 Q1012=
201903140030 METAR LRAR 140030Z AUTO 14006KT 9999 NCD 05/M02 Q1012=
201903140100 METAR LRAR 140100Z AUTO 15005KT 9999 NCD 05/M02 Q1012=
201903140130 METAR LRAR 140130Z AUTO 15007KT 9999 NCD 05/M02 Q1012=
201903140200 METAR LRAR 140200Z AUTO 15007KT 9999 NCD 05/M02 Q1012=
201903140230 METAR LRAR 140230Z AUTO 15007KT 9999 NCD 05/M01 Q1012=
201903140300 METAR LRAR 140300Z AUTO 15007KT 9999 NCD 05/M01 Q1012=
201903140330 METAR LRAR 140330Z AUTO 18004KT 9999 NCD 04/M02 Q1012=
201903140400 METAR LRAR 140400Z AUTO 00000KT 9999 FEW081/// 04/M02 Q1012=
201903140430 METAR LRAR 140430Z AUTO 32006KT 9999 SCT076/// 04/M02 Q1012=
201903140500 METAR LRAR 140500Z 35003KT 320V030 CAVOK 03/M02 Q1012=
201903140530 METAR LRAR 140530Z 01005KT CAVOK 03/M02 Q1012=
201903140600 METAR LRAR 140600Z 08003KT CAVOK 04/M01 Q1012=
201903140630 METAR LRAR 140630Z VRB02KT CAVOK 05/M02 Q1012=
201903140700 METAR LRAR 140700Z 00000KT CAVOK 06/M01 Q1012=
201903140730 METAR LRAR 140730Z VRB01KT CAVOK 07/M02 Q1012=
201903140800 METAR LRAR 140800Z VRB02KT CAVOK 08/M02 Q1012=
201903140830 METAR LRAR 140830Z VRB01KT CAVOK 08/M02 Q1012=
201903140900 METAR LRAR 140900Z 22004KT 170V270 CAVOK 08/M02 Q1012=
201903140930 METAR LRAR 140930Z 22005KT 170V290 CAVOK 09/M01 Q1012=
201903141000 METAR LRAR 141000Z 20005KT 140V280 CAVOK 09/M01 Q1012=
201903141030 METAR LRAR 141030Z 18005KT 110V250 CAVOK 10/M00 Q1012=
201903141100 METAR LRAR 141100Z 19004KT 110V230 9999 SCT026 10/M01 Q1011=
201903141130 METAR LRAR 141130Z 27004KT 180V350 9999 BKN033 10/M02 Q1011=
201903141200 METAR LRAR 141200Z 26004KT 200V350 9999 BKN033 11/M01 Q1011=
201903141230 METAR LRAR 141230Z VRB05KT 9999 BKN036 12/M03 Q1010=
201903141300 METAR LRAR 141300Z 29008KT 9999 BKN036 11/M04 Q1010=
201903141330 METAR LRAR 141330Z VRB02KT 9999 FEW012 BKN038 12/M04 Q1010=
201903141400 METAR LRAR 141400Z 30008KT 9999 SCT013 BKN042 11/M04 Q1010=
201903141430 METAR LRAR 141430Z 29007KT 9999 SCT013 BKN045 11/M03 Q1010=
201903141500 METAR LRAR 141500Z 30007KT 9999 SCT018 BKN045 10/M02 Q1010=
201903141530 METAR LRAR 141530Z 32008KT 9999 SCT025 BKN047 10/M01 Q1010=
201903141600 METAR LRAR 141600Z 31008KT 9999 FEW035 10/M02 Q1009=
201903141630 METAR LRAR 141630Z 29005KT CAVOK 09/M01 Q1009=
201903141700 METAR LRAR 141700Z 22003KT CAVOK 09/M02 Q1009=
201903141730 METAR LRAR 141730Z 22003KT CAVOK 08/M02 Q1009=
201903141800 METAR LRAR 141800Z 22004KT CAVOK 08/M01 Q1009=
201903141830 METAR LRAR 141830Z 21004KT CAVOK 07/M01 Q1009=
201903141900 METAR LRAR 141900Z 20005KT CAVOK 06/M02 Q1009=
201903141930 METAR COR LRAR 141930Z 20005KT CAVOK 06/M01 Q1008=
201903142000 METAR LRAR 142000Z 21005KT CAVOK 05/M01 Q1008=
201903142030 METAR LRAR 142030Z AUTO 19005KT 9999 NCD 04/M02 Q1008=
201903142100 METAR LRAR 142100Z AUTO 20007KT 9999 FEW100/// 04/M01 Q1008=
201903142130 METAR LRAR 142130Z AUTO 19006KT 9999 FEW100/// 04/M01 Q1008=
201903142200 METAR LRAR 142200Z AUTO 19007KT 9999 NCD 04/M02 Q1007=
201903142230 METAR LRAR 142230Z AUTO 19007KT 9999 NCD 04/M01 Q1007=
201903142300 METAR LRAR 142300Z AUTO 19009KT 9999 NCD 04/M01 Q1007=
201903142330 METAR LRAR 142330Z AUTO 18008KT 9999 NCD 04/M01 Q1007=
201903150000 METAR LRAR 150000Z AUTO 18007KT 9999 NCD 03/M01 Q1007=
201903150030 METAR LRAR 150030Z AUTO 17007KT 9999 NCD 03/M01 Q1007=
201903150100 METAR LRAR 150100Z AUTO 16008KT 9999 NCD 02/M01 Q1007=
201903150130 METAR LRAR 150130Z AUTO 16008KT 9999 NCD 02/M01 Q1006=
201903150200 METAR LRAR 150200Z AUTO 15008KT 9999 NCD 02/M01 Q1006=
201903150230 METAR LRAR 150230Z AUTO 15008KT 9999 NCD 02/M00 Q1006=
201903150300 METAR LRAR 150300Z AUTO 15010KT 9999 NCD 03/M00 Q1006=
201903150330 METAR LRAR 150330Z AUTO 15009KT 9999 NCD 04/00 Q1006=
201903150400 METAR LRAR 150400Z AUTO 16009KT 9999 NCD 04/M00 Q1006=
201903150430 METAR LRAR 150430Z AUTO 16010KT 9999 NCD 04/M00 Q1006=
201903150500 METAR LRAR 150500Z 16010KT CAVOK 04/M00 Q1006=
201903150530 METAR LRAR 150530Z 16010KT CAVOK 04/M00 Q1006=
201903150600 METAR LRAR 150600Z 16010KT CAVOK 05/M00 Q1007=
201903150630 METAR LRAR 150630Z 19008KT CAVOK 05/M00 Q1007=
201903150700 METAR LRAR 150700Z 19010KT CAVOK 06/00 Q1007=
201903150730 METAR LRAR 150730Z 22011KT CAVOK 06/M00 Q1007=
201903150800 METAR LRAR 150800Z 23008KT 200V260 CAVOK 08/00 Q1008=
201903150830 METAR LRAR 150830Z 23007KT 9999 FEW043 08/00 Q1008=
201903150900 METAR LRAR 150900Z 22006KT 9999 FEW043 08/01 Q1008=
201903150930 METAR LRAR 150930Z 23006KT 9999 SCT040 BKN047 09/00 Q1008=
201903151000 METAR LRAR 151000Z 24005KT 210V280 9999 SCT038 09/01 Q1008=
201903151030 METAR LRAR 151030Z 29011KT 9999 FEW037 BKN046 10/01 Q1008=
201903151100 METAR LRAR 151100Z 31011KT 9999 SCT035 BKN044 10/02 Q1008=
201903151130 METAR LRAR 151130Z 30012KT 9999 -SHRA FEW008 SCT020CB BKN033
                        09/05 Q1008=
201903151200 METAR LRAR 151200Z 31008KT 280V340 9999 FEW025CB 11/04 Q1008=
201903151230 METAR LRAR 151230Z 31008KT 9999 SCT010 FEW027CB 11/03 Q1008=
201903151300 METAR LRAR 151300Z 27006KT 200V330 9999 FEW030CB 12/03 Q1008=
201903151330 METAR LRAR 151330Z 24007KT 9999 FEW030CB 11/02 Q1008=
201903151400 METAR LRAR 151400Z 23006KT 9999 FEW030CB 11/03 Q1008=
201903151430 METAR LRAR 151430Z 24005KT 190V270 9999 FEW033CB 11/01 Q1008=
201903151500 METAR LRAR 151500Z 25006KT 9999 FEW035CB 11/01 Q1008=
201903151530 METAR LRAR 151530Z 25007KT 9999 -SHRA SCT035CB 11/02 Q1008=
201903151600 METAR LRAR 151600Z 29013KT 9999 FEW040CB 12/M01 Q1008=
201903151630 METAR LRAR 151630Z 29009KT 9999 FEW040CB 10/M02 Q1009=
201903151700 METAR LRAR 151700Z 28006KT 9999 FEW040CB 08/M01 Q1009=
201903151730 METAR LRAR 151730Z 27007KT CAVOK 06/M01 Q1009=
201903151800 METAR LRAR 151800Z 26006KT CAVOK 08/M02 Q1010=
201903151830 METAR LRAR 151830Z 24005KT CAVOK 07/M02 Q1010=
201903151900 METAR LRAR 151900Z 22006KT CAVOK 08/M01 Q1010=
201903151930 METAR LRAR 151930Z 24006KT CAVOK 08/M01 Q1010=
201903152000 METAR LRAR 152000Z 28009KT CAVOK 09/M01 Q1010=
201903152030 METAR LRAR 152030Z AUTO 27007KT 9999 FEW071/// 08/M00 Q1010=
201903152100 METAR LRAR 152100Z AUTO 23004KT 9999 NCD 08/M00 Q1010=
201903152130 METAR LRAR 152130Z AUTO 18006KT 9999 -SHRA FEW012/// 08/00
                        Q1009=
201903152200 METAR LRAR 152200Z AUTO 21006KT 9999 FEW015/// 08/00 Q1009
                        REDZ=
201903152230 METAR LRAR 152230Z AUTO 21007KT 9999 FEW056/// 08/00 Q1009=
201903152300 METAR LRAR 152300Z AUTO 24006KT 9999 -SHRA FEW012/// 09/01
                        Q1009=
201903152330 METAR LRAR 152330Z AUTO 25006KT 230V290 9999 -SHRA FEW011///
                        09/00 Q1010=
201903160000 METAR LRAR 160000Z AUTO 26008KT 9999 -SHRA FEW007/// SCT018///
                        BKN023/// 08/04 Q1010=
201903160030 METAR LRAR 160030Z AUTO 23006KT 9999 -RA FEW015/// SCT019///
                        BKN023/// 08/05 Q1009=
201903160100 METAR LRAR 160100Z AUTO 21009KT 9999 -RA FEW013/// SCT023///
                        BKN039/// 07/05 Q1009=
201903160130 METAR LRAR 160130Z AUTO 20008KT 9999 -SHRA BKN042/// 07/05
                        Q1008=
201903160200 METAR LRAR 160200Z AUTO 20007KT 9999 -SHRA FEW016/// BKN042///
                        08/05 Q1008=
201903160230 METAR LRAR 160230Z AUTO 19010KT 9999 -RA FEW008/// SCT026///
                        BKN039/// 07/05 Q1008=
201903160300 METAR LRAR 160300Z AUTO 19012KT 9999 -SHRA FEW039/// BKN050///
                        07/04 Q1007=
201903160330 METAR LRAR 160330Z AUTO 19013KT 9999 SCT050/// BKN066///
                        07/04 Q1007 RERA=
201903160400 METAR LRAR 160400Z AUTO 19016KT 9999 -SHRA FEW013/// BKN061///
                        07/04 Q1007=
201903160430 METAR LRAR 160430Z AUTO 20013KT 9999 -SHRA FEW010/// SCT061///
                        07/04 Q1007=
201903160500 METAR LRAR 160500Z 20014KT 9999 -SHRA FEW011 SCT030CB 07/03
                        Q1007=
201903160530 METAR LRAR 160530Z 21014KT 9999 -SHRA SCT009 SCT030CB 07/03
                        Q1007 R09/29//95=
201903160600 METAR LRAR 160600Z 23009KT 9999 -SHRA FEW010 SCT033CB 07/04
                        Q1008 R09/29//95=
201903160630 METAR LRAR 160630Z 25009KT 9999 -SHRA FEW015 SCT035CB 08/03
                        Q1009 R09/29//95=
201903160700 METAR LRAR 160700Z 26009KT 9999 -SHRA SCT020 SCT030CB 08/05
                        Q1009 R09/29//95=
201903160730 METAR LRAR 160730Z 28007KT 9999 -SHRA FEW010 SCT024 BKN030CB
                        08/06 Q1010 R09/29//95=
201903160800 METAR LRAR 160800Z 27008KT 9999 FEW015 FEW035CB 08/07 Q1011
                        R09/29//95=
201903160830 METAR LRAR 160830Z 29006KT 9999 FEW035CB SCT045 10/08 Q1010
                        R09/29//95=
201903160900 METAR LRAR 160900Z 32012KT 9999 FEW048 11/06 Q1011 R09/29//95=
201903160930 METAR LRAR 160930Z 30012KT 9999 FEW010 11/06 Q1011 R09/29//95=
201903161000 METAR LRAR 161000Z 31014KT 9999 FEW040 11/05 Q1011 R09/29//95=
201903161030 METAR LRAR 161030Z 30014KT 9999 VCSH FEW035CB 10/04 Q1012
                        R09/29//95=
201903161100 METAR LRAR 161100Z 29010KT 9999 FEW045 10/03 Q1012 R09/29//95=
201903161130 METAR LRAR 161130Z 28012KT 9999 FEW048 10/05 Q1012 R09/CLRD//=
201903161200 METAR LRAR 161200Z 28011KT 9999 FEW015 SCT030 10/04 Q1012=
201903161230 METAR LRAR 161230Z 27012KT 9999 -RA FEW015 SCT025 09/05 Q1012=
201903161300 METAR LRAR 161300Z 25011KT 9999 SCT015 SCT040 09/05 Q1013=
201903161330 METAR LRAR 161330Z 25011KT 9999 -RA SCT015 10/05 Q1013=
201903161400 METAR LRAR 161400Z 25008KT 9999 -RA SCT048 10/05 Q1013=
201903161430 METAR LRAR 161430Z 25010KT 9999 FEW048 10/05 Q1013=
201903161500 METAR LRAR 161500Z 25009KT 9999 FEW020 10/05 Q1013=
201903161530 METAR LRAR 161530Z 25007KT 9999 FEW025 10/04 Q1013=
201903161600 METAR LRAR 161600Z 24007KT 9999 SCT028 10/04 Q1013=
201903161630 METAR LRAR 161630Z 25007KT 9999 -RA FEW010 SCT028 10/04 Q1013=
201903161700 METAR LRAR 161700Z 27007KT 9999 FEW013 SCT030 BKN046 09/04
                        Q1014=
201903161730 METAR LRAR 161730Z 25007KT 9999 SCT014 SCT033 BKN046 09/04
                        Q1014=
201903161800 METAR LRAR 161800Z 26008KT 9999 SCT016 BKN042 09/04 Q1014=
201903161830 METAR LRAR 161830Z 26005KT 9999 SCT025 BKN045 09/04 Q1014=
201903161900 METAR LRAR 161900Z 25006KT 9999 FEW035 BKN045 09/04 Q1014=
201903161930 METAR LRAR 161930Z 26005KT 9999 BKN047 09/04 Q1014=
201903162000 METAR LRAR 162000Z 21005KT CAVOK 08/04 Q1014=
201903162030 METAR LRAR 162030Z AUTO 22005KT 9999 NCD 08/04 Q1014=
201903162100 METAR LRAR 162100Z AUTO 17004KT 9999 NCD 08/04 Q1014=
201903162130 METAR LRAR 162130Z AUTO 18004KT 9999 NCD 07/04 Q1014=
201903162200 METAR LRAR 162200Z AUTO 20005KT 9999 NCD 07/04 Q1014=
201903162230 METAR LRAR 162230Z AUTO 13005KT 9999 NCD 07/04 Q1014=
201903162300 METAR LRAR 162300Z AUTO 15005KT 9999 FEW096/// 07/05 Q1014=
201903162330 METAR LRAR 162330Z AUTO 16005KT 9999 FEW096/// 07/05 Q1014=
201903170000 METAR LRAR 170000Z AUTO 15006KT 9999 FEW091/// 07/05 Q1014=
201903170030 METAR LRAR 170030Z AUTO 14005KT 120V180 9999 SCT091/// 07/05
                        Q1014=
201903170100 METAR LRAR 170100Z AUTO 18005KT 140V200 9999 FEW086/// 07/04
                        Q1014=
201903170130 METAR LRAR 170130Z AUTO 15006KT 9999 BKN086/// 06/05 Q1014=
201903170200 METAR LRAR 170200Z AUTO 17007KT 9999 NCD 06/05 Q1014=
201903170230 METAR LRAR 170230Z AUTO 17007KT 9999 BKN081/// 07/05 Q1014=
201903170300 METAR LRAR 170300Z AUTO 18007KT 9999 FEW081/// 07/04 Q1014=
201903170330 METAR LRAR 170330Z AUTO 17006KT 140V200 9999 NCD 06/04 Q1014=
201903170400 METAR LRAR 170400Z AUTO 15007KT 9999 NCD 05/04 Q1014=
201903170430 METAR LRAR 170430Z AUTO 16008KT 9999 NCD 05/03 Q1014=
201903170500 METAR LRAR 170500Z 16009KT CAVOK 06/04 Q1014=
201903170530 METAR LRAR 170530Z 16010KT CAVOK 07/04 Q1014=
201903170600 METAR LRAR 170600Z 17011KT CAVOK 08/05 Q1014=
201903170630 METAR LRAR 170630Z 17011KT CAVOK 09/05 Q1014=
201903170700 METAR LRAR 170700Z 19011KT CAVOK 10/06 Q1014=
201903170730 METAR LRAR 170730Z 18012KT CAVOK 11/06 Q1014=
201903170800 METAR LRAR 170800Z 18011KT 160V220 CAVOK 12/07 Q1014=
201903170830 METAR LRAR 170830Z 20012KT CAVOK 13/08 Q1014=
201903170900 METAR COR LRAR 170900Z 20011KT CAVOK 15/08 Q1014=
201903170930 METAR LRAR 170930Z 20011KT CAVOK 16/08 Q1014=
201903171000 METAR LRAR 171000Z 20011KT CAVOK 16/08 Q1014=
201903171030 METAR LRAR 171030Z 19011KT CAVOK 17/07 Q1014=
201903171100 METAR LRAR 171100Z 20011KT CAVOK 18/07 Q1013=
201903171130 METAR LRAR 171130Z 19011KT 170V230 CAVOK 19/06 Q1013=
201903171200 METAR LRAR 171200Z 21012KT 180V240 CAVOK 20/06 Q1012=
201903171230 METAR LRAR 171230Z 21010KT 170V240 CAVOK 21/06 Q1012=
201903171300 METAR LRAR 171300Z 20011KT 170V230 CAVOK 21/05 Q1011=
201903171330 METAR LRAR 171330Z 21011KT CAVOK 21/05 Q1011=
201903171400 METAR LRAR 171400Z 20012KT 170V230 CAVOK 21/05 Q1011=
201903171430 METAR LRAR 171430Z 19010KT 160V220 CAVOK 21/05 Q1011=
201903171500 METAR LRAR 171500Z 20010KT CAVOK 21/05 Q1010=
201903171530 METAR LRAR 171530Z 19010KT CAVOK 21/04 Q1010=
201903171600 METAR LRAR 171600Z 18009KT CAVOK 20/04 Q1010=
201903171630 METAR LRAR 171630Z 18008KT CAVOK 20/04 Q1010=
201903171700 METAR LRAR 171700Z 17006KT CAVOK 18/05 Q1010=
201903171730 METAR LRAR 171730Z 16007KT CAVOK 16/06 Q1010=
201903171800 METAR LRAR 171800Z 15009KT CAVOK 15/06 Q1009=
201903171830 METAR LRAR 171830Z 15009KT CAVOK 14/06 Q1009=
201903171900 METAR LRAR 171900Z 14009KT CAVOK 13/05 Q1009=
201903171930 METAR LRAR 171930Z 14008KT CAVOK 12/05 Q1009=
201903172000 METAR LRAR 172000Z 14008KT CAVOK 12/05 Q1009=
201903172030 METAR LRAR 172030Z AUTO 14009KT 9999 NCD 12/05 Q1008=
201903172100 METAR LRAR 172100Z AUTO 13009KT 9999 NCD 12/05 Q1008=
201903172130 METAR LRAR 172130Z AUTO 14010KT 9999 NCD 12/05 Q1008=
201903172200 METAR LRAR 172200Z AUTO 13010KT 9999 NCD 13/04 Q1008=
201903172230 METAR LRAR 172230Z AUTO 14010KT 9999 NCD 12/05 Q1008=
201903172300 METAR LRAR 172300Z AUTO 14010KT 9999 NCD 11/05 Q1008=
201903172330 METAR LRAR 172330Z AUTO 17008KT 9999 NCD 11/04 Q1008=
201903180000 METAR LRAR 180000Z AUTO 22011KT 9999 NCD 13/03 Q1009=
201903180030 METAR LRAR 180030Z AUTO 22009KT 9999 NCD 11/03 Q1009=
201903180100 METAR LRAR 180100Z AUTO 21005KT 9999 NCD 09/03 Q1010=
201903180130 METAR LRAR 180130Z AUTO 19005KT 9999 NCD 08/03 Q1010=
201903180200 METAR LRAR 180200Z AUTO 17003KT 9999 NCD 08/03 Q1010=
201903180230 METAR LRAR 180230Z AUTO 18007KT 9999 NCD 08/03 Q1010=
201903180300 METAR LRAR 180300Z AUTO 16007KT 9999 NCD 08/04 Q1011=
201903180330 METAR LRAR 180330Z AUTO 19004KT 9999 NCD 08/04 Q1011=
201903180400 METAR LRAR 180400Z AUTO 20006KT 9999 NCD 08/05 Q1011=
201903180430 METAR LRAR 180430Z AUTO 22008KT 9999 NCD 08/05 Q1012=
201903180500 METAR LRAR 180500Z 23007KT CAVOK 09/05 Q1012=
201903180530 METAR LRAR 180530Z 25006KT CAVOK 09/05 Q1012=
201903180600 METAR LRAR 180600Z 20003KT 180V240 CAVOK 09/05 Q1013=
201903180630 METAR LRAR 180630Z 27003KT 200V330 CAVOK 11/05 Q1013=
201903180700 METAR LRAR 180700Z 30005KT 260V320 CAVOK 12/04 Q1013=
201903180730 METAR LRAR 180730Z 29006KT CAVOK 12/04 Q1013=
201903180800 METAR LRAR 180800Z 28005KT 250V320 CAVOK 12/03 Q1013=
201903180830 METAR LRAR 180830Z 28004KT 230V330 CAVOK 14/05 Q1013=
201903180900 METAR LRAR 180900Z 23004KT 160V270 CAVOK 14/05 Q1013=
201903180930 METAR LRAR 180930Z 20005KT 150V260 CAVOK 14/05 Q1013=
201903181000 METAR LRAR 181000Z 19007KT 160V230 CAVOK 14/05 Q1013=
201903181030 METAR LRAR 181030Z 21005KT 160V250 CAVOK 15/05 Q1013=
201903181100 METAR LRAR 181100Z 23004KT CAVOK 16/05 Q1013=
201903181130 METAR LRAR 181130Z 25005KT 180V310 CAVOK 16/05 Q1013=
201903181200 METAR LRAR 181200Z VRB04KT CAVOK 17/05 Q1013=
201903181230 METAR LRAR 181230Z 29006KT 240V330 CAVOK 17/05 Q1012=
201903181300 METAR LRAR 181300Z 30006KT 260V040 CAVOK 17/05 Q1012=
201903181330 METAR LRAR 181330Z 31007KT 270V340 CAVOK 18/05 Q1012=
201903181400 METAR LRAR 181400Z 29008KT 260V320 CAVOK 17/04 Q1012=
201903181430 METAR LRAR 181430Z 32008KT 280V360 CAVOK 17/04 Q1012=
201903181500 METAR LRAR 181500Z 32010KT CAVOK 17/04 Q1013=
201903181530 METAR LRAR 181530Z 31010KT CAVOK 16/04 Q1013=
201903181600 METAR LRAR 181600Z 33010KT CAVOK 15/03 Q1013=
201903181630 METAR LRAR 181630Z 34008KT CAVOK 14/03 Q1013=
201903181700 METAR LRAR 181700Z 33008KT CAVOK 12/03 Q1014=
201903181730 METAR LRAR 181730Z 34009KT CAVOK 11/02 Q1014=
201903181800 METAR LRAR 181800Z 33010KT CAVOK 10/02 Q1015=
201903181830 METAR LRAR 181830Z 34010KT CAVOK 10/02 Q1015=
201903181900 METAR LRAR 181900Z 33013KT CAVOK 09/03 Q1016=
201903181930 METAR LRAR 181930Z 33012KT CAVOK 09/03 Q1016=
201903182000 METAR LRAR 182000Z 33013KT CAVOK 09/03 Q1017=
201903182030 METAR LRAR 182030Z AUTO 33012KT 9999 NCD 08/04 Q1017=
201903182100 METAR LRAR NIL=
201903182130 METAR LRAR NIL=
201903182200 METAR LRAR 182200Z AUTO 33007KT 9999 FEW076/// 07/03 Q1019=
201903182230 METAR LRAR 182230Z AUTO 35007KT 9999 FEW056/// 07/04 Q1019=
201903182300 METAR LRAR 182300Z AUTO 35007KT 9999 FEW056/// 07/04 Q1019=
201903182330 METAR LRAR 182330Z AUTO 35006KT 9999 BKN056/// 07/04 Q1019=
201903190000 METAR LRAR 190000Z AUTO 34008KT 9999 BKN056/// 07/04 Q1019=
201903190030 METAR LRAR 190030Z AUTO 34007KT 9999 BKN056/// 07/04 Q1019=
201903190100 METAR LRAR 190100Z AUTO 35006KT 9999 BKN056/// 07/04 Q1019=
201903190130 METAR LRAR 190130Z AUTO 36009KT 9999 BKN056/// 07/04 Q1019=
201903190200 METAR LRAR 190200Z AUTO 36009KT 9999 BKN056/// 07/04 Q1019=
201903190230 METAR LRAR 190230Z AUTO 36007KT 9999 BKN056/// 07/04 Q1019=
201903190300 METAR LRAR 190300Z AUTO 35006KT 9999 SCT061/// 07/04 Q1019=
201903190330 METAR LRAR 190330Z AUTO 34005KT 9999 BKN061/// 07/04 Q1019=
201903190400 METAR LRAR 190400Z AUTO 33007KT 9999 OVC061/// 07/04 Q1020=
201903190430 METAR LRAR 190430Z AUTO 34006KT 9999 BKN061/// 07/04 Q1020=
201903190500 METAR LRAR 190500Z 34005KT CAVOK 07/04 Q1020=
201903190530 METAR LRAR 190530Z 36006KT CAVOK 06/04 Q1020=
201903190600 METAR LRAR 190600Z 35004KT CAVOK 07/04 Q1020=
201903190630 METAR LRAR 190630Z 36007KT CAVOK 07/04 Q1020=
201903190700 METAR LRAR 190700Z 36008KT CAVOK 07/03 Q1021=
201903190730 METAR LRAR 190730Z 02009KT CAVOK 08/03 Q1021=
201903190800 METAR LRAR 190800Z 02011KT CAVOK 08/02 Q1021=
201903190830 METAR LRAR 190830Z 01012KT 340V040 CAVOK 09/02 Q1021=
201903190900 METAR LRAR 190900Z 01012KT 340V040 CAVOK 09/03 Q1021=
201903190930 METAR COR LRAR 190930Z 03011KT 360V060 CAVOK 10/02 Q1021=
201903191000 METAR LRAR 191000Z 01009KT CAVOK 10/02 Q1021=
201903191030 METAR LRAR 191030Z 36010KT CAVOK 11/02 Q1021=
201903191100 METAR LRAR 191100Z 35008KT 320V040 CAVOK 11/03 Q1021=
201903191130 METAR LRAR 191130Z 36009KT 330V040 CAVOK 13/03 Q1021=
201903191200 METAR LRAR 191200Z 36009KT 330V030 CAVOK 12/03 Q1021=
201903191230 METAR LRAR 191230Z 02010KT 350V050 CAVOK 12/02 Q1021=
201903191300 METAR LRAR 191300Z 03008KT 360V060 CAVOK 12/01 Q1021=
201903191330 METAR LRAR 191330Z 03008KT 360V060 CAVOK 13/01 Q1021=
201903191400 METAR LRAR 191400Z 02006KT 340V070 CAVOK 12/01 Q1021=
201903191430 METAR LRAR 191430Z 36004KT 330V040 CAVOK 12/01 Q1021=
201903191500 METAR LRAR 191500Z 05009KT 9999 FEW040CB 12/01 Q1021=
201903191530 METAR LRAR 191530Z 36011KT 9999 FEW045CB 12/M02 Q1021=
201903191600 METAR LRAR 191600Z 01011KT 9999 FEW045CB 12/M03 Q1022=
201903191630 METAR LRAR 191630Z 01010KT CAVOK 11/M03 Q1022=
201903191700 METAR LRAR 191700Z 01010KT CAVOK 11/M02 Q1022=
201903191730 METAR LRAR 191730Z 36009KT CAVOK 10/M03 Q1023=
201903191800 METAR LRAR 191800Z 36009KT CAVOK 10/M03 Q1023=
201903191830 METAR LRAR 191830Z 36009KT CAVOK 10/M04 Q1023=
201903191900 METAR LRAR 191900Z 35007KT CAVOK 10/M03 Q1024=
201903191930 METAR LRAR 191930Z 35006KT CAVOK 09/M03 Q1024=
201903192000 METAR LRAR 192000Z 36008KT CAVOK 09/M03 Q1024=
201903192030 METAR LRAR 192030Z AUTO 36008KT 9999 NCD 09/M03 Q1025=
201903192100 METAR LRAR 192100Z AUTO 01007KT 9999 FEW066/// 09/M03 Q1025=
201903192130 METAR LRAR 192130Z AUTO 36007KT 9999 NCD 09/M02 Q1025=
201903192200 METAR LRAR 192200Z AUTO 34004KT 9999 FEW032/// 08/M02 Q1025=
201903192230 METAR LRAR 192230Z AUTO 30004KT 9999 -RA FEW012/// 08/M01
                        Q1026=
201903192300 METAR LRAR 192300Z AUTO 30003KT 260V350 9999 FEW030/// 07/M01
                        Q1026 REUP=
201903192330 METAR LRAR 192330Z AUTO 30003KT 9999 FEW056/// BKN076///
                        07/M01 Q1026=
201903200000 METAR LRAR 200000Z AUTO 30003KT 9999 FEW056/// 06/M01 Q1026=
201903200030 METAR LRAR 200030Z AUTO VRB01KT 9999 NCD 06/M00 Q1026=
201903200100 METAR LRAR 200100Z AUTO 33004KT 9999 NCD 06/M01 Q1026=
201903200130 METAR LRAR 200130Z AUTO 36007KT 330V030 9999 BKN076/// 07/M01
                        Q1026=
201903200200 METAR LRAR 200200Z AUTO 01008KT 9999 SCT076/// 07/M01 Q1026=
201903200230 METAR LRAR 200230Z AUTO 01008KT 9999 SCT076/// 07/M01 Q1026=
201903200300 METAR LRAR 200300Z AUTO 01010KT 9999 FEW076/// 07/M01 Q1026=
201903200330 METAR LRAR 200330Z AUTO 36007KT 9999 SCT071/// 06/M01 Q1027=
201903200400 METAR LRAR 200400Z AUTO 01008KT 9999 BKN076/// 06/M01 Q1027=
201903200430 METAR LRAR 200430Z AUTO 01008KT 9999 SCT076/// 06/M01 Q1027=
201903200500 METAR LRAR 200500Z 02008KT CAVOK 06/M01 Q1027=
201903200530 METAR LRAR 200530Z 01008KT CAVOK 06/M01 Q1028=
201903200600 METAR LRAR 200600Z 02010KT CAVOK 06/M01 Q1028=
201903200630 METAR LRAR 200630Z 02009KT 350V050 CAVOK 07/M01 Q1028=
201903200700 METAR LRAR 200700Z 02010KT CAVOK 07/M01 Q1029=
201903200730 METAR LRAR 200730Z 02011KT CAVOK 08/M01 Q1029=
201903200800 METAR LRAR 200800Z 02011KT CAVOK 08/M01 Q1029=
201903200830 METAR LRAR 200830Z 02011KT 350V060 CAVOK 09/M01 Q1029=
201903200900 METAR LRAR 200900Z 01011KT 340V040 CAVOK 10/M00 Q1030=
201903200930 METAR LRAR 200930Z 02011KT CAVOK 10/M00 Q1030=
201903201000 METAR LRAR 201000Z 03011KT 360V060 CAVOK 11/M02 Q1030=
201903201030 METAR LRAR 201030Z 03014KT CAVOK 12/M03 Q1030=
201903201100 METAR LRAR 201100Z 02013KT 340V050 CAVOK 12/M04 Q1030=
201903201130 METAR LRAR 201130Z 36014KT CAVOK 12/M05 Q1030=
201903201200 METAR LRAR 201200Z 01011KT 340V040 CAVOK 12/M04 Q1030=
201903201230 METAR LRAR 201230Z 36012KT CAVOK 12/M04 Q1030=
201903201300 METAR LRAR 201300Z 04010KT 360V080 CAVOK 12/M03 Q1030=
201903201330 METAR LRAR 201330Z 01011KT CAVOK 12/M04 Q1030=
201903201400 METAR LRAR 201400Z 36009KT 340V040 CAVOK 12/M04 Q1030=
201903201430 METAR LRAR 201430Z 35009KT 320V030 CAVOK 12/M05 Q1030=
201903201500 METAR LRAR 201500Z 35008KT 330V030 CAVOK 12/M06 Q1030=
201903201530 METAR LRAR 201530Z 35008KT 320V020 CAVOK 12/M06 Q1030=
201903201600 METAR LRAR 201600Z 34007KT CAVOK 12/M06 Q1030=
201903201630 METAR LRAR 201630Z 34006KT CAVOK 11/M05 Q1030=
201903201700 METAR LRAR 201700Z 34006KT CAVOK 11/M05 Q1031=
201903201730 METAR LRAR 201730Z 34006KT CAVOK 09/M06 Q1031=
201903201800 METAR LRAR 201800Z 34006KT CAVOK 08/M06 Q1031=
201903201830 METAR LRAR 201830Z 34006KT CAVOK 07/M06 Q1031=
201903201900 METAR LRAR 201900Z 34005KT CAVOK 07/M06 Q1032=
201903201930 METAR LRAR 201930Z 34005KT CAVOK 06/M06 Q1032=
201903202000 METAR LRAR 202000Z 35005KT CAVOK 06/M06 Q1032=
201903202030 METAR LRAR 202030Z AUTO 36007KT 9999 NCD 05/M06 Q1032=
201903202100 METAR LRAR 202100Z AUTO 36007KT 9999 NCD 05/M06 Q1032=
201903202130 METAR LRAR 202130Z AUTO 36007KT 9999 NCD 04/M05 Q1033=
201903202200 METAR LRAR 202200Z AUTO 02007KT 9999 NCD 05/M05 Q1033=
201903202230 METAR LRAR 202230Z AUTO 03008KT 9999 NCD 05/M05 Q1033=
201903202300 METAR LRAR 202300Z AUTO 04006KT 9999 NCD 04/M04 Q1033=
201903202330 METAR LRAR 202330Z AUTO 36005KT 9999 NCD 02/M04 Q1033=
201903210000 METAR LRAR 210000Z AUTO 31002KT 280V350 9999 NCD 00/M05 Q1033=
201903210030 METAR LRAR 210030Z AUTO 34002KT 9999 NCD 01/M05 Q1033=
201903210100 METAR LRAR 210100Z AUTO 36003KT 9999 NCD M00/M05 Q1033=
201903210130 METAR LRAR 210130Z AUTO 33003KT 9999 NCD 00/M05 Q1033=
201903210200 METAR LRAR 210200Z AUTO 35002KT 9999 NCD 00/M05 Q1033=
201903210230 METAR LRAR 210230Z AUTO 32003KT //// R27////// NCD M01/M05
                        Q1033=
201903210300 METAR LRAR 210300Z AUTO 31003KT //// R27////// NCD M01/M06
                        Q1033=
201903210330 METAR LRAR 210330Z AUTO 32004KT //// R27////// NCD M02/M05
                        Q1033=
201903210400 METAR LRAR 210400Z AUTO 35002KT //// R27////// NCD M02/M05
                        Q1034=
201903210430 METAR LRAR 210430Z AUTO 34002KT //// R27////// NCD M02/M05
                        Q1034=
201903210500 METAR LRAR 210500Z 34001KT CAVOK M02/M05 Q1034=
201903210530 METAR LRAR 210530Z VRB02KT CAVOK M01/M05 Q1034=
201903210600 METAR LRAR 210600Z 00000KT CAVOK 01/M03 Q1034=
201903210630 METAR LRAR 210630Z 04004KT 010V070 CAVOK 04/M03 Q1035=
201903210700 METAR LRAR 210700Z 03006KT CAVOK 07/M03 Q1035=
201903210730 METAR LRAR 210730Z 04009KT 010V070 CAVOK 08/M04 Q1035=
201903210800 METAR LRAR 210800Z 05007KT CAVOK 09/M04 Q1035=
201903210830 METAR LRAR 210830Z 04009KT 010V070 CAVOK 11/M04 Q1035=
201903210900 METAR LRAR 210900Z 04009KT 360V080 CAVOK 11/M04 Q1035=
201903210930 METAR LRAR 210930Z 01011KT 350V050 CAVOK 11/M05 Q1035=
201903211000 METAR LRAR 211000Z 01010KT 330V060 CAVOK 12/M04 Q1035=
201903211030 METAR COR LRAR 211030Z 34008KT CAVOK 12/M04 Q1035=
201903211100 METAR LRAR 211100Z 36010KT 320V040 CAVOK 12/M05 Q1034=
201903211130 METAR COR LRAR 211130Z 36010KT 320V040 CAVOK 12/M05 Q1034=
201903211200 METAR LRAR 211200Z 01010KT CAVOK 13/M05 Q1034=
201903211230 METAR LRAR 211230Z 02009KT 330V070 CAVOK 13/M04 Q1033=
201903211300 METAR LRAR 211300Z 01008KT CAVOK 13/M05 Q1033=
201903211330 METAR LRAR 211330Z 03011KT CAVOK 13/M05 Q1032=
201903211400 METAR LRAR 211400Z 01007KT 320V080 CAVOK 14/M04 Q1032=
201903211430 METAR LRAR 211430Z 02007KT 340V060 CAVOK 14/M04 Q1032=
201903211500 METAR LRAR 211500Z 02009KT 340V050 CAVOK 13/M04 Q1032=
201903211530 METAR LRAR 211530Z 36008KT 330V030 CAVOK 13/M05 Q1032=
201903211600 METAR LRAR 211600Z 01008KT 340V040 CAVOK 13/M05 Q1032=
201903211630 METAR LRAR 211630Z 01007KT CAVOK 11/M04 Q1032=
201903211700 METAR LRAR 211700Z 36005KT CAVOK 10/M05 Q1032=
201903211730 METAR LRAR 211730Z 36005KT CAVOK 09/M05 Q1032=
201903211800 METAR LRAR 211800Z 02004KT CAVOK 08/M05 Q1032=
201903211830 METAR LRAR 211830Z 02005KT CAVOK 08/M05 Q1032=
201903211900 METAR LRAR 211900Z 01006KT CAVOK 07/M04 Q1032=
201903211930 METAR LRAR 211930Z VRB01KT CAVOK 06/M04 Q1032=
201903212000 METAR LRAR 212000Z 03002KT 320V090 CAVOK 07/M05 Q1032=
201903212030 METAR LRAR 212030Z AUTO 01002KT 320V100 9999 NCD 07/M05 Q1032=
201903212100 METAR LRAR 212100Z AUTO 35002KT 9999 NCD 07/M05 Q1032=
201903212130 METAR LRAR 212130Z AUTO 26003KT 9999 NCD 05/M05 Q1032=
201903212200 METAR LRAR 212200Z AUTO 27002KT 9999 NCD 03/M05 Q1032=
201903212230 METAR LRAR 212230Z AUTO 28002KT 9999 NCD 04/M05 Q1032=
201903212300 METAR LRAR 212300Z AUTO 33003KT 9999 NCD 02/M05 Q1032=
201903212330 METAR LRAR 212330Z AUTO 25001KT 9999 NCD 02/M05 Q1032=
201903220000 METAR LRAR 220000Z AUTO 27003KT 9999 NCD 02/M05 Q1032=
201903220030 METAR LRAR 220030Z AUTO 25002KT 9999 NCD 01/M05 Q1032=
201903220100 METAR LRAR 220100Z AUTO 30002KT 9999 NCD 00/M05 Q1032=
201903220130 METAR LRAR 220130Z AUTO 29003KT 9999 NCD 01/M05 Q1032=
201903220200 METAR LRAR 220200Z AUTO 28004KT 9999 NCD 01/M05 Q1032=
201903220230 METAR LRAR 220230Z AUTO 26002KT 9999 NCD M00/M05 Q1032=
201903220300 METAR LRAR 220300Z AUTO 26002KT 9999 NCD 00/M05 Q1032=
201903220330 METAR LRAR 220330Z AUTO 28002KT 9999 NCD M00/M05 Q1032=
201903220400 METAR LRAR 220400Z AUTO 00000KT 9999 NCD 00/M05 Q1032=
201903220430 METAR LRAR 220430Z AUTO 17001KT 9999 NCD M01/M05 Q1032=
201903220500 METAR LRAR 220500Z 14002KT 9999 MIFG NSC M01/M04 Q1032=
201903220530 METAR LRAR 220530Z 10002KT 9999 MIFG NSC 01/M04 Q1032=
201903220600 METAR LRAR 220600Z VRB01KT 9000 NSC 03/M01 Q1032=
201903220630 METAR LRAR 220630Z VRB01KT 9000 NSC 06/M02 Q1032=
201903220700 METAR LRAR 220700Z 01003KT 320V040 CAVOK 09/M02 Q1032=
201903220730 METAR LRAR 220730Z 04004KT 350V080 CAVOK 11/M04 Q1032=
201903220800 METAR LRAR 220800Z 03004KT 010V080 CAVOK 12/M03 Q1032=
201903220830 METAR LRAR 220830Z 04005KT 010V080 CAVOK 13/M04 Q1032=
201903220900 METAR LRAR 220900Z 03005KT 320V060 CAVOK 14/M04 Q1032=
201903220930 METAR LRAR 220930Z 36005KT 270V040 CAVOK 15/M03 Q1031=
201903221000 METAR LRAR 221000Z 04006KT 340V100 CAVOK 15/M03 Q1031=
201903221030 METAR LRAR 221030Z 03006KT 350V070 CAVOK 15/M03 Q1031=
201903221100 METAR LRAR 221100Z 01007KT 320V070 CAVOK 16/M02 Q1031=
201903221130 METAR LRAR 221130Z 36006KT 310V060 CAVOK 16/M01 Q1031=
201903221200 METAR LRAR 221200Z 02010KT 340V050 CAVOK 17/M01 Q1030=
201903221230 METAR LRAR 221230Z 01010KT 330V040 CAVOK 17/M01 Q1030=
201903221300 METAR LRAR 221300Z 01008KT 330V050 CAVOK 17/M01 Q1029=
201903221330 METAR LRAR 221330Z AUTO 06010KT 9999 NCD 17/00 Q1029=
201903221400 METAR LRAR 221400Z AUTO 36006KT 9999 NCD 17/01 Q1028=
201903221430 METAR LRAR 221430Z 02009KT 350V060 CAVOK 17/01 Q1028=
201903221500 METAR LRAR 221500Z 36009KT CAVOK 17/01 Q1028=
201903221530 METAR LRAR 221530Z 36010KT CAVOK 17/01 Q1028=
201903221600 METAR LRAR 221600Z 02009KT CAVOK 16/02 Q1028=
201903221630 METAR LRAR 221630Z 01007KT CAVOK 15/02 Q1028=
201903221700 METAR LRAR 221700Z 01007KT CAVOK 14/03 Q1028=
201903221730 METAR LRAR 221730Z 02006KT CAVOK 13/03 Q1028=
201903221800 METAR LRAR 221800Z 01006KT CAVOK 12/03 Q1028=
201903221830 METAR COR LRAR 221830Z 02008KT CAVOK 12/04 Q1028=
201903221900 METAR LRAR 221900Z 03007KT CAVOK 12/04 Q1028=
201903221930 METAR LRAR 221930Z 03009KT CAVOK 11/04 Q1028=
201903222000 METAR LRAR 222000Z 03007KT CAVOK 11/04 Q1028=
201903222030 METAR LRAR 222030Z AUTO 02007KT 9999 NCD 10/04 Q1028=
201903222100 METAR LRAR 222100Z AUTO 02008KT 9999 NCD 10/04 Q1028=
201903222130 METAR LRAR 222130Z AUTO 01009KT 9999 NCD 08/04 Q1028=
201903222200 METAR LRAR 222200Z AUTO 01010KT 9999 NCD 08/04 Q1028=
201903222230 METAR LRAR 222230Z 36012KT CAVOK 08/04 Q1027=
201903222300 METAR LRAR 222300Z 02008KT CAVOK 08/04 Q1027=
201903222330 METAR LRAR 222330Z 02007KT CAVOK 08/04 Q1027=
201903230000 METAR LRAR 230000Z 02009KT CAVOK 08/04 Q1027=
201903230030 METAR LRAR 230030Z 02009KT CAVOK 08/04 Q1027=
201903230100 METAR LRAR 230100Z AUTO 01005KT 9999 NCD 07/04 Q1027=
201903230130 METAR LRAR 230130Z AUTO 01008KT 9999 NCD 07/04 Q1026=
201903230200 METAR LRAR 230200Z AUTO 01008KT 9999 NCD 06/04 Q1026=
201903230230 METAR LRAR 230230Z AUTO 01005KT 9000 NCD 05/03 Q1026=
201903230300 METAR LRAR 230300Z AUTO VRB01KT 7000 NCD 04/03 Q1026=
201903230330 METAR LRAR 230330Z AUTO 30002KT 7000 NCD 03/02 Q1026=
201903230400 METAR LRAR 230400Z AUTO 35002KT 310V020 4900 BR NCD 02/02
                        Q1026=
201903230430 METAR LRAR 230430Z AUTO 03006KT 7000 NCD 04/03 Q1026=
201903230500 METAR LRAR 230500Z 03006KT 8000 NSC 04/03 Q1027=
201903230530 METAR COR LRAR 230530Z 36008KT CAVOK 05/04 Q1027=
201903230600 METAR LRAR 230600Z 01008KT CAVOK 06/04 Q1027=
201903230630 METAR LRAR 230630Z 01008KT CAVOK 07/04 Q1027=
201903230700 METAR LRAR 230700Z 01009KT CAVOK 09/04 Q1027=
201903230730 METAR LRAR 230730Z 02008KT 350V050 CAVOK 10/04 Q1027=
201903230800 METAR LRAR 230800Z 03011KT 360V060 CAVOK 12/05 Q1027=
201903230830 METAR LRAR 230830Z 01010KT 340V050 CAVOK 13/05 Q1027=
201903230900 METAR LRAR 230900Z 03011KT 360V060 CAVOK 14/05 Q1027=
201903230930 METAR LRAR 230930Z 01012KT 350V050 CAVOK 15/03 Q1026=
201903231000 METAR LRAR 231000Z 01012KT 340V040 CAVOK 16/02 Q1026=
201903231030 METAR LRAR 231030Z 02012KT 340V050 CAVOK 17/01 Q1026=
201903231100 METAR LRAR 231100Z 01013KT CAVOK 17/M01 Q1026=
201903231130 METAR LRAR 231130Z 01011KT 340V050 CAVOK 18/M00 Q1025=
201903231200 METAR LRAR 231200Z 36012KT 330V030 CAVOK 18/M02 Q1025=
201903231230 METAR LRAR 231230Z 02012KT 350V050 CAVOK 18/M02 Q1025=
201903231300 METAR LRAR 231300Z 02012KT 350V050 CAVOK 19/M02 Q1025=
201903231330 METAR LRAR 231330Z 02011KT 340V050 CAVOK 18/M02 Q1024=
201903231400 METAR LRAR 231400Z 01011KT 350V050 CAVOK 19/M01 Q1024=
201903231430 METAR LRAR 231430Z 01011KT 340V040 CAVOK 19/M03 Q1023=
201903231500 METAR LRAR 231500Z 01010KT 350V050 CAVOK 19/M02 Q1023=
201903231530 METAR LRAR 231530Z 02012KT CAVOK 18/M03 Q1023=
201903231600 METAR LRAR 231600Z 01009KT CAVOK 18/M02 Q1023=
201903231630 METAR LRAR 231630Z 01008KT CAVOK 16/M02 Q1023=
201903231700 METAR LRAR 231700Z 36007KT CAVOK 14/M01 Q1023=
201903231730 METAR LRAR 231730Z 36007KT CAVOK 13/M01 Q1023=
201903231800 METAR LRAR 231800Z 34004KT CAVOK 11/M02 Q1024=
201903231830 METAR LRAR 231830Z 03004KT 350V090 CAVOK 10/M02 Q1024=
201903231900 METAR LRAR 231900Z 01007KT CAVOK 10/M02 Q1024=
201903231930 METAR LRAR 231930Z 36007KT CAVOK 10/M02 Q1024=
201903232000 METAR LRAR 232000Z 36005KT CAVOK 08/M02 Q1024=
201903232030 METAR LRAR 232030Z AUTO 31001KT 9999 NCD 08/M03 Q1024=
201903232100 METAR LRAR 232100Z AUTO 36005KT 9999 NCD 06/M03 Q1024=
201903232130 METAR LRAR 232130Z AUTO VRB01KT 9999 NCD 07/M03 Q1024=
201903232200 METAR LRAR 232200Z AUTO 00000KT 9999 NCD 07/M03 Q1024=
201903232230 METAR LRAR 232230Z AUTO 21002KT 9999 NCD 04/M03 Q1024=
201903232300 METAR LRAR 232300Z AUTO 20001KT 9999 NCD 03/M03 Q1024=
201903232330 METAR LRAR 232330Z AUTO 24001KT 9999 NCD 03/M03 Q1023=
201903240000 METAR LRAR 240000Z AUTO 29004KT 9999 NCD 02/M04 Q1023=
201903240030 METAR LRAR 240030Z AUTO 32003KT 9999 NCD 01/M04 Q1023=
201903240100 METAR LRAR 240100Z AUTO 30002KT 9999 NCD 02/M04 Q1023=
201903240130 METAR LRAR 240130Z AUTO 00000KT 9999 NCD 02/M04 Q1023=
201903240200 METAR LRAR 240200Z AUTO 04001KT 9999 NCD 02/M04 Q1023=
201903240230 METAR LRAR 240230Z AUTO 00000KT 9999 NCD 02/M04 Q1023=
201903240300 METAR LRAR 240300Z AUTO 16005KT 9999 NCD 01/M03 Q1023=
201903240330 METAR LRAR 240330Z AUTO VRB01KT 9999 NCD 01/M03 Q1023=
201903240400 METAR LRAR 240400Z AUTO 28003KT 9999 NCD M00/M04 Q1023=
201903240430 METAR LRAR 240430Z AUTO 29002KT 9999 NCD M01/M04 Q1023=
201903240500 METAR LRAR 240500Z 16005KT CAVOK 01/M02 Q1023=
201903240530 METAR LRAR 240530Z 18003KT CAVOK 02/M02 Q1023=
201903240600 METAR LRAR 240600Z 20003KT 160V220 CAVOK 05/M02 Q1023=
201903240630 METAR LRAR 240630Z 18004KT 150V210 CAVOK 08/M02 Q1023=
201903240700 METAR LRAR 240700Z 18004KT CAVOK 10/00 Q1023=
201903240730 METAR LRAR 240730Z 20004KT 160V230 CAVOK 12/00 Q1023=
201903240800 METAR LRAR 240800Z 20006KT CAVOK 13/M01 Q1023=
201903240830 METAR LRAR 240830Z 21005KT 160V250 CAVOK 15/M01 Q1023=
201903240900 METAR LRAR 240900Z 21006KT 160V230 CAVOK 16/M01 Q1023=
201903240930 METAR LRAR 240930Z 22006KT 180V270 CAVOK 17/01 Q1023=
201903241000 METAR LRAR 241000Z 20005KT 150V240 CAVOK 18/02 Q1022=
201903241030 METAR LRAR 241030Z 22007KT 130V240 CAVOK 18/03 Q1022=
201903241100 METAR LRAR 241100Z 26005KT 190V330 CAVOK 19/03 Q1022=
201903241130 METAR LRAR 241130Z 25010KT CAVOK 19/02 Q1021=
201903241200 METAR LRAR 241200Z 21006KT 160V250 CAVOK 19/02 Q1021=
201903241230 METAR LRAR 241230Z 18004KT 140V230 CAVOK 20/02 Q1020=
201903241300 METAR LRAR 241300Z 20007KT CAVOK 20/01 Q1020=
201903241330 METAR LRAR 241330Z 23007KT 190V280 CAVOK 20/02 Q1019=
201903241400 METAR LRAR 241400Z 27008KT 200V300 CAVOK 20/03 Q1018=
201903241430 METAR LRAR 241430Z 21006KT 170V260 CAVOK 20/03 Q1018=
201903241500 METAR LRAR 241500Z 24007KT 200V260 CAVOK 20/04 Q1018=
201903241530 METAR LRAR 241530Z 24007KT 200V280 CAVOK 20/04 Q1018=
201903241600 METAR LRAR 241600Z 22007KT CAVOK 19/04 Q1017=
201903241630 METAR LRAR 241630Z 23005KT CAVOK 18/04 Q1017=
201903241700 METAR LRAR 241700Z 21003KT CAVOK 18/04 Q1017=
201903241730 METAR LRAR 241730Z 19005KT CAVOK 17/03 Q1017=
201903241800 METAR LRAR 241800Z 18004KT CAVOK 14/04 Q1017=
201903241830 METAR LRAR 241830Z 18005KT CAVOK 13/03 Q1017=
201903241900 METAR LRAR 241900Z 19007KT CAVOK 13/01 Q1017=
201903241930 METAR LRAR 241930Z 19008KT CAVOK 13/00 Q1017=
201903242000 METAR LRAR 242000Z 18007KT CAVOK 13/M01 Q1016=
201903242030 METAR LRAR 242030Z AUTO 19008KT 9999 NCD 12/M01 Q1016=
201903242100 METAR LRAR 242100Z AUTO 19007KT 9999 NCD 11/M01 Q1016=
201903242130 METAR LRAR 242130Z AUTO 19008KT 9999 NCD 11/M02 Q1016=
201903242200 METAR LRAR 242200Z AUTO 20008KT 9999 NCD 10/M02 Q1015=
201903242230 METAR LRAR 242230Z AUTO 19007KT 9999 NCD 10/M03 Q1015=
201903242300 METAR LRAR 242300Z AUTO 19005KT 9999 NCD 09/M03 Q1015=
201903242330 METAR LRAR 242330Z AUTO VRB01KT 9999 NCD 09/M03 Q1015=
201903250000 METAR LRAR 250000Z AUTO 14004KT 9999 NCD 08/M02 Q1015=
201903250030 METAR LRAR 250030Z AUTO 15004KT 9999 NCD 07/M02 Q1014=
201903250100 METAR LRAR 250100Z AUTO 15004KT 9999 NCD 06/M02 Q1014=
201903250130 METAR LRAR 250130Z AUTO 14004KT 9999 NCD 06/M01 Q1014=
201903250200 METAR LRAR 250200Z AUTO 14005KT 9999 NCD 06/M01 Q1013=
201903250230 METAR LRAR 250230Z AUTO 14003KT 9999 NCD 06/M01 Q1013=
201903250300 METAR LRAR 250300Z AUTO 15003KT 9999 NCD 05/M01 Q1013=
201903250330 METAR LRAR 250330Z AUTO 16004KT 9999 NCD 05/M01 Q1013=
201903250400 METAR LRAR 250400Z AUTO 18003KT 9999 NCD 05/M02 Q1013=
201903250430 METAR LRAR 250430Z AUTO 23003KT 200V280 9999 NCD 05/M03 Q1013=
201903250500 METAR LRAR 250500Z VRB01KT CAVOK 05/M03 Q1013=
201903250530 METAR LRAR 250530Z 17004KT 130V190 CAVOK 07/M02 Q1012=
201903250600 METAR LRAR 250600Z 19005KT 160V220 CAVOK 09/M02 Q1012=
201903250630 METAR LRAR 250630Z 21006KT CAVOK 10/M01 Q1012=
201903250700 METAR LRAR 250700Z 28007KT CAVOK 12/00 Q1013=
201903250730 METAR COR LRAR 250730Z 28008KT CAVOK 12/01 Q1013=
201903250800 METAR LRAR 250800Z 31009KT CAVOK 12/04 Q1013=
201903250830 METAR LRAR 250830Z 31005KT CAVOK 13/05 Q1013=
201903250900 METAR LRAR 250900Z 32009KT 290V360 CAVOK 15/05 Q1013=
201903250930 METAR LRAR 250930Z 32009G20KT 280V350 CAVOK 16/04 Q1013=
201903251000 METAR LRAR 251000Z 32016KT CAVOK 17/01 Q1012=
201903251030 METAR LRAR 251030Z 31017G29KT CAVOK 17/00 Q1012=
201903251100 METAR LRAR 251100Z 31018KT CAVOK 17/01 Q1012=
201903251130 METAR LRAR 251130Z 32019G29KT CAVOK 16/02 Q1012=
201903251200 METAR LRAR 251200Z 32016G27KT 290V350 CAVOK 15/01 Q1012=
201903251230 METAR LRAR 251230Z 34008KT CAVOK 13/03 Q1011=
201903251300 METAR LRAR 251300Z 31006KT CAVOK 13/04 Q1011=
201903251330 METAR LRAR 251330Z 32010KT CAVOK 14/04 Q1011=
201903251400 METAR LRAR 251400Z 31017KT CAVOK 13/03 Q1011=
201903251430 METAR LRAR 251430Z 31010KT CAVOK 14/01 Q1011=
201903251500 METAR LRAR 251500Z 31010KT CAVOK 13/01 Q1011=
201903251530 METAR LRAR 251530Z 31009KT CAVOK 13/02 Q1011=
201903251600 METAR LRAR 251600Z 30006KT 9999 FEW040CB 12/02 Q1011=
201903251630 METAR LRAR 251630Z 28006KT 9999 FEW040CB 11/02 Q1011=
201903251700 METAR LRAR 251700Z 28003KT 250V310 9999 FEW040CB 12/02 Q1010=
201903251730 METAR LRAR 251730Z 28007KT 9999 FEW040CB 11/02 Q1011=
201903251800 METAR LRAR 251800Z 32006KT 280V010 CAVOK 12/M00 Q1011=
201903251830 METAR LRAR 251830Z 32007KT 280V360 CAVOK 13/M02 Q1011=
201903251900 METAR LRAR 251900Z 31014G25KT 290V360 CAVOK 12/M00 Q1011=
201903251930 METAR LRAR 251930Z 30009KT CAVOK 12/02 Q1011=
201903252000 METAR LRAR 252000Z 30013KT CAVOK 12/01 Q1012=
201903252030 METAR LRAR 252030Z AUTO 33008KT //// R27////// NCD 10/02
                        Q1012=
201903252100 METAR LRAR 252100Z AUTO 34008KT //// R27////// NCD 10/M00
                        Q1012=
201903252130 METAR LRAR 252130Z AUTO 33006KT //// R27////// NCD 10/M01
                        Q1013=
201903252200 METAR LRAR 252200Z AUTO 32008KT //// R27////// NCD 09/M01
                        Q1013=
201903252230 METAR LRAR 252230Z AUTO 32009KT //// R27////// NCD 09/M02
                        Q1013=
201903252300 METAR LRAR 252300Z AUTO 33012KT //// R27////// NCD 09/M02
                        Q1014=
201903252330 METAR LRAR 252330Z AUTO 34011KT //// R27////// NCD 09/M02
                        Q1014=
201903260000 METAR LRAR 260000Z AUTO 01012KT //// R27////// NCD 08/M01
                        Q1015=
201903260030 METAR LRAR 260030Z AUTO 01010KT //// R27////// NCD 08/M01
                        Q1015=
201903260100 METAR LRAR 260100Z AUTO 36008KT //// R27////// NCD 07/M01
                        Q1015=
201903260130 METAR LRAR 260130Z AUTO 01009KT //// R27////// NCD 07/M01
                        Q1015=
201903260200 METAR LRAR 260200Z AUTO 35004KT //// R27////// NCD 06/M01
                        Q1015=
201903260230 METAR LRAR 260230Z AUTO 35005KT //// R27////// NCD 06/M01
                        Q1016=
201903260300 METAR LRAR 260300Z AUTO 34005KT //// R27////// NCD 05/M01
                        Q1016=
201903260330 METAR LRAR 260330Z AUTO 33008KT //// R27////// NCD 05/M01
                        Q1016=
201903260400 METAR LRAR 260400Z AUTO 35005KT //// R27////// NCD 04/M01
                        Q1016=
201903260430 METAR LRAR 260430Z AUTO 35006KT //// R27////// NCD 04/M01
                        Q1017=
201903260500 METAR LRAR 260500Z 34006KT CAVOK 04/M01 Q1017=
201903260530 METAR LRAR 260530Z 36008KT CAVOK 05/M00 Q1018=
201903260600 METAR LRAR 260600Z 36009KT CAVOK 05/M00 Q1018=
201903260630 METAR LRAR 260630Z 35009KT CAVOK 06/00 Q1019=
201903260700 METAR LRAR 260700Z 36010KT CAVOK 07/00 Q1019=
201903260730 METAR LRAR 260730Z 01014KT CAVOK 07/M00 Q1020=
201903260800 METAR COR LRAR 260800Z 02014KT CAVOK 08/M00 Q1020=
201903260830 METAR LRAR 260830Z 01015KT 9999 FEW033 09/M01 Q1020=
201903260900 METAR LRAR 260900Z 02013KT 9999 FEW035 10/M00 Q1020=
201903260930 METAR LRAR 260930Z 01012KT 340V060 9999 FEW040 10/M01 Q1020=
201903261000 METAR LRAR 261000Z 02010KT 350V060 9999 FEW040 10/M01 Q1020=
201903261030 METAR LRAR 261030Z 03011KT 340V060 9999 SCT045 10/M01 Q1020=
201903261100 METAR LRAR 261100Z 03009KT 340V080 9999 SCT048 10/M02 Q1020=
201903261130 METAR LRAR 261130Z 34009KT CAVOK 11/M02 Q1020=
201903261200 METAR LRAR 261200Z 03011KT CAVOK 11/M02 Q1020=
201903261230 METAR LRAR 261230Z 01009KT 340V040 CAVOK 12/M03 Q1020=
201903261300 METAR LRAR 261300Z 01012KT 340V050 CAVOK 11/M04 Q1019=
201903261330 METAR LRAR 261330Z 02013KT CAVOK 12/M04 Q1019=
201903261400 METAR LRAR 261400Z 35007KT 320V040 CAVOK 11/M03 Q1019=
201903261430 METAR LRAR 261430Z 01011KT 330V070 CAVOK 11/M04 Q1020=
201903261500 METAR LRAR 261500Z 01010KT 340V050 CAVOK 12/M04 Q1020=
201903261530 METAR LRAR 261530Z 35005KT 320V020 CAVOK 10/M05 Q1020=
201903261600 METAR LRAR 261600Z 36007KT CAVOK 10/M04 Q1020=
201903261630 METAR LRAR 261630Z 34006KT CAVOK 09/M04 Q1020=
201903261700 METAR LRAR 261700Z 35004KT CAVOK 09/M04 Q1020=
201903261730 METAR LRAR 261730Z 36004KT CAVOK 08/M04 Q1020=
201903261800 METAR LRAR 261800Z 00000KT CAVOK 07/M04 Q1020=
201903261830 METAR COR LRAR 261830Z 21001KT CAVOK 05/M04 Q1021=
201903261900 METAR LRAR 261900Z 23002KT CAVOK 04/M04 Q1021=
201903261930 METAR LRAR 261930Z 20002KT CAVOK 03/M04 Q1021=
201903262000 METAR LRAR 262000Z 21002KT CAVOK 02/M03 Q1021=
201903262030 METAR LRAR 262030Z AUTO 27006KT 9999 NCD 03/M04 Q1022=
201903262100 METAR LRAR 262100Z AUTO 28006KT 9999 NCD 02/M05 Q1022=
201903262130 METAR LRAR 262130Z AUTO 30005KT 9999 NCD 02/M05 Q1022=
201903262200 METAR LRAR 262200Z AUTO 27006KT 9999 NCD 01/M06 Q1022=
201903262230 METAR LRAR 262230Z AUTO 27006KT 9999 NCD 00/M05 Q1022=
201903262300 METAR LRAR 262300Z AUTO 27005KT 9999 NCD 00/M05 Q1022=
201903262330 METAR LRAR 262330Z AUTO 27006KT 9999 NCD M01/M05 Q1022=
201903270000 METAR LRAR 270000Z AUTO 27008KT 9999 NCD M02/M06 Q1022=
201903270030 METAR LRAR 270030Z AUTO 27007KT 9999 NCD M02/M05 Q1022=
201903270100 METAR LRAR 270100Z AUTO 28007KT 9999 NCD M02/M06 Q1022=
201903270130 METAR LRAR 270130Z AUTO 27007KT 9999 NCD M02/M06 Q1022=
201903270200 METAR LRAR 270200Z AUTO 28007KT 9999 NCD M01/M05 Q1022=
201903270230 METAR LRAR 270230Z AUTO 29007KT 9999 NCD M01/M05 Q1023=
201903270300 METAR LRAR 270300Z AUTO 27005KT 9999 NCD M01/M05 Q1023=
201903270330 METAR LRAR 270330Z AUTO 27008KT 9999 NCD M02/M06 Q1023=
201903270400 METAR LRAR 270400Z AUTO 29005KT 9999 NCD M02/M05 Q1023=
201903270430 METAR LRAR 270430Z AUTO 29004KT 9999 NCD M02/M05 Q1024=
201903270500 METAR LRAR 270500Z 13003KT CAVOK M02/M05 Q1024=
201903270530 METAR LRAR 270530Z 36001KT CAVOK 00/M04 Q1025=
201903270600 METAR LRAR 270600Z 03004KT 350V070 CAVOK 02/M03 Q1025=
201903270630 METAR COR LRAR 270630Z 03007KT CAVOK 04/M03 Q1025=
201903270700 METAR LRAR 270700Z 04007KT 010V070 CAVOK 05/M03 Q1025=
201903270730 METAR LRAR 270730Z 05011KT CAVOK 07/M05 Q1026=
201903270800 METAR LRAR 270800Z 06012KT CAVOK 08/M09 Q1026=
201903270830 METAR LRAR 270830Z 06012KT 030V100 CAVOK 08/M09 Q1026=
201903270900 METAR LRAR 270900Z 03011KT 360V070 CAVOK 08/M06 Q1026=
201903270930 METAR LRAR 270930Z 04010KT CAVOK 10/M06 Q1026=
201903271000 METAR LRAR 271000Z 04011KT 360V070 CAVOK 10/M05 Q1026=
201903271030 METAR LRAR 271030Z 01011KT 340V040 CAVOK 11/M05 Q1027=
201903271100 METAR LRAR 271100Z 05011KT CAVOK 11/M05 Q1026=
201903271130 METAR LRAR 271130Z 02011KT 340V050 CAVOK 11/M05 Q1026=
201903271200 METAR LRAR 271200Z 02013G23KT 340V050 CAVOK 12/M06 Q1026=
201903271230 METAR LRAR 271230Z 01013KT 340V050 CAVOK 12/M08 Q1026=
201903271300 METAR LRAR 271300Z 02015KT 350V050 CAVOK 12/M11 Q1026=
201903271330 METAR LRAR 271330Z 04016KT CAVOK 12/M13 Q1026=
201903271400 METAR LRAR 271400Z 01012KT 340V040 CAVOK 12/M12 Q1026=
201903271430 METAR LRAR 271430Z 03015KT 360V060 CAVOK 11/M15 Q1026=
201903271500 METAR LRAR 271500Z 02013KT 340V050 CAVOK 11/M14 Q1026=
201903271530 METAR LRAR 271530Z 03014KT 350V050 CAVOK 11/M14 Q1026=
201903271600 METAR LRAR 271600Z 03012KT CAVOK 10/M14 Q1026=
201903271630 METAR LRAR 271630Z 02012KT CAVOK 09/M13 Q1026=
201903271700 METAR LRAR 271700Z 03011KT CAVOK 08/M13 Q1027=
201903271730 METAR LRAR 271730Z 03011KT CAVOK 08/M12 Q1027=
201903271800 METAR LRAR 271800Z 02010KT CAVOK 07/M12 Q1028=
201903271830 METAR LRAR 271830Z 02010KT CAVOK 06/M12 Q1028=
201903271900 METAR LRAR 271900Z 03009KT CAVOK 06/M12 Q1028=
201903271930 METAR LRAR 271930Z 03009KT CAVOK 05/M12 Q1028=
201903272000 METAR LRAR 272000Z 03008KT CAVOK 05/M11 Q1028=
201903272030 METAR LRAR 272030Z AUTO 03007KT 9999 NCD 04/M11 Q1029=
201903272100 METAR LRAR 272100Z AUTO 02007KT 9999 NCD 03/M11 Q1029=
201903272130 METAR LRAR 272130Z AUTO 02009KT 9999 NCD 04/M11 Q1029=
201903272200 METAR LRAR 272200Z AUTO 01006KT 9999 NCD 02/M11 Q1029=
201903272230 METAR LRAR 272230Z AUTO 02008KT 9999 NCD 03/M11 Q1029=
201903272300 METAR LRAR 272300Z AUTO 03008KT 9999 NCD 03/M11 Q1029=
201903272330 METAR LRAR 272330Z AUTO 04006KT 9999 NCD 02/M10 Q1029=
201903280000 METAR LRAR 280000Z AUTO 05005KT 9999 NCD 01/M10 Q1029=
201903280030 METAR LRAR 280030Z AUTO 00000KT 9999 NCD M01/M10 Q1029=
201903280100 METAR LRAR 280100Z AUTO 05003KT 9999 NCD 01/M10 Q1029=
201903280130 METAR LRAR 280130Z AUTO 04004KT 9999 NCD 00/M10 Q1029=
201903280200 METAR LRAR 280200Z AUTO 16002KT 110V200 9999 NCD M00/M10
                        Q1029=
201903280230 METAR LRAR 280230Z AUTO 08003KT 9999 NCD 00/M10 Q1029=
201903280300 METAR LRAR 280300Z AUTO 33006KT 300V360 9999 NCD M03/M09
                        Q1029=
201903280330 METAR LRAR 280330Z AUTO VRB04KT 9999 NCD M02/M09 Q1029=
201903280400 METAR LRAR 280400Z AUTO 22003KT 9999 NCD M02/M09 Q1029=
201903280430 METAR LRAR 280430Z AUTO 10004KT 9999 NCD M01/M09 Q1029=
201903280500 METAR LRAR 280500Z 00000KT CAVOK M03/M09 Q1030=
201903280530 METAR LRAR 280530Z VRB01KT CAVOK M01/M07 Q1030=
201903280600 METAR LRAR 280600Z VRB01KT CAVOK 03/M06 Q1030=
201903280630 METAR LRAR 280630Z 14005KT CAVOK 06/M09 Q1030=
201903280700 METAR LRAR 280700Z 15005KT CAVOK 08/M09 Q1030=
201903280730 METAR LRAR 280730Z 13005KT CAVOK 10/M10 Q1030=
201903280800 METAR LRAR 280800Z 12004KT 050V160 CAVOK 11/M11 Q1030=
201903280830 METAR LRAR 280830Z VRB03KT CAVOK 11/M11 Q1030=
201903280900 METAR LRAR 280900Z 32003KT 260V060 CAVOK 12/M09 Q1030=
201903280930 METAR LRAR 280930Z 34004KT 270V050 CAVOK 12/M11 Q1030=
201903281000 METAR LRAR 281000Z VRB04KT CAVOK 13/M08 Q1030=
201903281030 METAR LRAR 281030Z 34005KT 310V010 CAVOK 13/M09 Q1030=
201903281100 METAR LRAR 281100Z VRB05KT CAVOK 13/M09 Q1029=
201903281130 METAR LRAR 281130Z 02006KT 310V060 CAVOK 13/M08 Q1029=
201903281200 METAR LRAR 281200Z 04005KT CAVOK 14/M09 Q1029=
201903281230 METAR LRAR 281230Z 04011KT CAVOK 14/M09 Q1029=
201903281300 METAR COR LRAR 281300Z 36007KT 240V050 CAVOK 14/M09 Q1028=
201903281330 METAR LRAR 281330Z 35006KT 320V060 CAVOK 14/M09 Q1028=
201903281400 METAR LRAR 281400Z 02008KT 350V070 CAVOK 14/M08 Q1028=
201903281430 METAR LRAR 281430Z 03009KT CAVOK 14/M08 Q1028=
201903281500 METAR LRAR 281500Z 04009KT CAVOK 14/M08 Q1027=
201903281530 METAR LRAR 281530Z 36008KT 340V050 CAVOK 14/M08 Q1027=
201903281600 METAR LRAR 281600Z 02008KT 330V050 CAVOK 13/M08 Q1027=
201903281630 METAR LRAR 281630Z 03008KT CAVOK 13/M08 Q1028=
201903281700 METAR LRAR 281700Z 05006KT CAVOK 11/M07 Q1028=
201903281730 METAR LRAR 281730Z 05006KT CAVOK 10/M07 Q1028=
201903281800 METAR LRAR 281800Z 04007KT CAVOK 09/M07 Q1028=
201903281830 METAR LRAR 281830Z 04007KT CAVOK 09/M07 Q1028=
201903281900 METAR LRAR 281900Z 03007KT CAVOK 09/M07 Q1028=
201903281930 METAR LRAR 281930Z 03008KT CAVOK 09/M07 Q1028=
201903282000 METAR LRAR 282000Z 02007KT CAVOK 08/M07 Q1029=
201903282030 METAR LRAR 282030Z AUTO 03008KT 9999 NCD 08/M07 Q1029=
201903282100 METAR LRAR 282100Z AUTO 04007KT 9999 NCD 07/M06 Q1029=
201903282130 METAR LRAR 282130Z AUTO 04008KT 9999 NCD 07/M05 Q1029=
201903282200 METAR LRAR 282200Z AUTO 03007KT 9999 NCD 05/M05 Q1029=
201903282230 METAR LRAR 282230Z AUTO 03006KT 9999 NCD 05/M05 Q1029=
201903282300 METAR LRAR 282300Z AUTO 03002KT 9999 NCD 04/M05 Q1029=
201903282330 METAR LRAR 282330Z AUTO 01004KT 9999 NCD 02/M05 Q1029=
201903290000 METAR LRAR 290000Z AUTO 03006KT 9999 NCD 04/M04 Q1030=
201903290030 METAR LRAR 290030Z AUTO 03007KT 9999 NCD 04/M03 Q1030=
201903290100 METAR LRAR 290100Z AUTO 04007KT 9999 NCD 03/M02 Q1030=
201903290130 METAR LRAR 290130Z AUTO 02006KT 9999 NCD 03/M02 Q1029=
201903290200 METAR LRAR 290200Z AUTO 02006KT 9999 NCD 02/M02 Q1029=
201903290230 METAR LRAR 290230Z AUTO 01006KT 9999 NCD 02/M02 Q1029=
201903290300 METAR LRAR 290300Z AUTO VRB01KT 9999 NCD 01/M02 Q1029=
201903290330 METAR LRAR 290330Z AUTO 04003KT 010V070 9999 NCD 01/M02 Q1029=
201903290400 METAR LRAR 290400Z AUTO 03005KT 9999 NCD 01/M01 Q1030=
201903290430 METAR LRAR 290430Z AUTO 03008KT 9999 NCD 01/M01 Q1030=
201903290500 METAR LRAR 290500Z 03008KT CAVOK 02/M01 Q1030=
201903290530 METAR LRAR 290530Z 01009KT CAVOK 03/M01 Q1030=
201903290600 METAR LRAR 290600Z 01009KT CAVOK 04/00 Q1030=
201903290630 METAR LRAR 290630Z 02009KT CAVOK 06/01 Q1030=
201903290700 METAR LRAR 290700Z 03011KT CAVOK 08/01 Q1030=
201903290730 METAR COR LRAR 290730Z 04011KT CAVOK 09/02 Q1030=
201903290800 METAR LRAR 290800Z 03012KT 360V060 CAVOK 11/02 Q1030=
201903290830 METAR LRAR 290830Z 04011KT 010V070 CAVOK 12/01 Q1030=
201903290900 METAR LRAR 290900Z 04013KT 010V070 CAVOK 12/M01 Q1030=
201903290930 METAR LRAR 290930Z 04014KT 360V070 CAVOK 13/M00 Q1030=
201903291000 METAR LRAR 291000Z 05013KT CAVOK 13/M02 Q1029=
201903291030 METAR LRAR 291030Z 03012KT 350V070 CAVOK 14/M01 Q1029=
201903291100 METAR LRAR 291100Z 03015KT 320V070 CAVOK 14/M01 Q1029=
201903291130 METAR LRAR 291130Z 03013G23KT 350V070 CAVOK 14/M01 Q1029=
201903291200 METAR LRAR 291200Z 02013KT 350V050 CAVOK 15/M01 Q1028=
201903291230 METAR LRAR 291230Z 02013KT 350V050 CAVOK 15/M01 Q1028=
201903291300 METAR LRAR 291300Z 04013KT CAVOK 15/M01 Q1027=
201903291330 METAR LRAR 291330Z 04013KT CAVOK 16/M01 Q1027=
201903291400 METAR LRAR 291400Z 04012KT 350V070 CAVOK 16/M01 Q1027=
201903291430 METAR LRAR 291430Z 04013KT 010V070 CAVOK 16/M02 Q1027=
201903291500 METAR LRAR 291500Z 03014KT 350V050 CAVOK 16/M01 Q1027=
201903291530 METAR LRAR 291530Z 02013KT CAVOK 15/M02 Q1026=
201903291600 METAR LRAR 291600Z 02010KT CAVOK 15/M02 Q1026=
201903291630 METAR LRAR 291630Z 04007KT 010V070 CAVOK 14/M01 Q1026=
201903291700 METAR LRAR 291700Z 03006KT 360V060 CAVOK 13/M01 Q1026=
201903291730 METAR LRAR 291730Z 01006KT CAVOK 12/M01 Q1026=
201903291800 METAR LRAR 291800Z 01006KT CAVOK 10/M01 Q1026=
201903291830 METAR LRAR 291830Z 01006KT CAVOK 10/M01 Q1027=
201903291900 METAR LRAR 291900Z 33005KT 310V020 CAVOK 07/M02 Q1027=
201903291930 METAR LRAR 291930Z 35004KT CAVOK 07/M03 Q1027=
201903292000 METAR LRAR 292000Z 36008KT CAVOK 08/M02 Q1027=
201903292030 METAR LRAR 292030Z AUTO 35002KT 9999 NCD 06/M03 Q1027=
201903292100 METAR LRAR 292100Z AUTO 01005KT 9999 NCD 06/M03 Q1026=
201903292130 METAR LRAR 292130Z AUTO 35004KT 9999 NCD 06/M02 Q1026=
201903292200 METAR LRAR 292200Z AUTO 29004KT 9999 NCD 04/M03 Q1026=
201903292230 METAR LRAR 292230Z AUTO 32003KT 9999 NCD 03/M03 Q1026=
201903292300 METAR LRAR 292300Z AUTO 31004KT 9999 NCD 02/M03 Q1026=
201903292330 METAR LRAR 292330Z AUTO 32004KT 9999 NCD 03/M03 Q1026=
201903300000 METAR LRAR 300000Z AUTO 34003KT 9999 NCD 02/M03 Q1026=
201903300030 METAR LRAR 300030Z AUTO 02005KT 9999 NCD 04/M02 Q1026=
201903300100 METAR LRAR 300100Z AUTO 03006KT 9999 NCD 05/M02 Q1026=
201903300130 METAR LRAR 300130Z AUTO 03006KT 9999 NCD 04/M02 Q1026=
201903300200 METAR LRAR 300200Z AUTO 03004KT 9999 NCD 04/M02 Q1026=
201903300230 METAR LRAR 300230Z AUTO VRB01KT 9999 NCD 03/M02 Q1026=
201903300300 METAR LRAR 300300Z AUTO 27004KT 9999 NCD 01/M04 Q1025=
201903300330 METAR LRAR 300330Z AUTO VRB01KT 9999 NCD 01/M03 Q1026=
201903300400 METAR LRAR 300400Z AUTO 30003KT 270V330 9999 NCD M00/M03
                        Q1025=
201903300430 METAR LRAR 300430Z AUTO 26004KT 9999 NCD M00/M04 Q1026=
201903300500 METAR LRAR 300500Z 30004KT CAVOK 00/M03 Q1026=
201903300530 METAR LRAR 300530Z 30004KT CAVOK 01/M02 Q1026=
201903300600 METAR LRAR 300600Z 28003KT 260V320 CAVOK 04/M01 Q1026=
201903300630 METAR LRAR 300630Z 36003KT 310V030 CAVOK 07/M00 Q1026=
201903300700 METAR LRAR 300700Z 34003KT 300V030 CAVOK 08/01 Q1026=
201903300730 METAR LRAR 300730Z 34004KT 310V010 CAVOK 10/02 Q1026=
201903300800 METAR LRAR 300800Z VRB04KT CAVOK 13/03 Q1026=
201903300830 METAR LRAR 300830Z 03007KT 350V070 CAVOK 14/02 Q1026=
201903300900 METAR LRAR 300900Z 01007KT 330V060 CAVOK 15/02 Q1026=
201903300930 METAR LRAR 300930Z 02007KT 330V070 CAVOK 15/01 Q1026=
201903301000 METAR LRAR 301000Z 01008KT 340V040 CAVOK 16/01 Q1025=
201903301030 METAR LRAR 301030Z 02009KT 350V070 CAVOK 16/01 Q1025=
201903301100 METAR LRAR 301100Z 35006KT 330V040 CAVOK 17/02 Q1025=
201903301130 METAR LRAR 301130Z 01010KT CAVOK 17/02 Q1025=
201903301200 METAR LRAR 301200Z 01008KT 310V060 CAVOK 18/02 Q1024=
201903301230 METAR LRAR 301230Z 02009KT 350V050 CAVOK 18/02 Q1024=
201903301300 METAR LRAR 301300Z 04008KT 360V070 CAVOK 18/01 Q1023=
201903301330 METAR LRAR 301330Z 35005KT 300V030 CAVOK 19/02 Q1023=
201903301400 METAR LRAR 301400Z 04005KT 360V080 CAVOK 19/01 Q1022=
201903301430 METAR LRAR 301430Z 02008KT 350V050 CAVOK 19/01 Q1022=
201903301500 METAR LRAR 301500Z 01008KT 340V040 CAVOK 19/01 Q1022=
201903301530 METAR LRAR 301530Z 01006KT 340V050 CAVOK 18/01 Q1022=
201903301600 METAR LRAR 301600Z 01007KT CAVOK 18/01 Q1022=
201903301630 METAR LRAR 301630Z 01004KT CAVOK 17/01 Q1021=
201903301700 METAR LRAR 301700Z 35002KT CAVOK 15/02 Q1021=
201903301730 METAR LRAR 301730Z 35004KT CAVOK 14/01 Q1021=
201903301800 METAR LRAR 301800Z 35004KT CAVOK 12/01 Q1022=
201903301830 METAR LRAR 301830Z 02005KT CAVOK 11/01 Q1022=
201903301900 METAR LRAR 301900Z 36005KT CAVOK 11/01 Q1022=
201903301930 METAR LRAR 301930Z 36005KT CAVOK 08/00 Q1022=
201903302000 METAR LRAR 302000Z 00000KT CAVOK 09/00 Q1021=
201903302030 METAR LRAR 302030Z AUTO 36002KT 330V030 9999 NCD 09/00 Q1021=
201903302100 METAR LRAR 302100Z AUTO 04002KT 320V050 9999 NCD 08/00 Q1021=
201903302130 METAR LRAR 302130Z AUTO VRB01KT 9999 NCD 07/M00 Q1021=
201903302200 METAR LRAR 302200Z AUTO VRB01KT 9999 NCD 06/M01 Q1021=
201903302230 METAR LRAR 302230Z AUTO 25003KT 9000 NCD 04/M00 Q1021=
201903302300 METAR LRAR 302300Z AUTO 24002KT 9999 NCD 04/M01 Q1021=
201903302330 METAR LRAR 302330Z AUTO 19002KT 9999 NCD 03/M00 Q1020=
201903310000 METAR LRAR 310000Z AUTO 25002KT 9999 NCD 03/M01 Q1020=
201903310030 METAR LRAR 310030Z AUTO 28003KT 9999 NCD 03/M01 Q1020=
201903310100 METAR LRAR 310100Z AUTO 25001KT 9999 NCD 02/M01 Q1020=
201903310130 METAR LRAR 310130Z AUTO 28001KT 9999 NCD 03/M00 Q1020=
201903310200 METAR LRAR 310200Z AUTO 24002KT 8000 NCD 02/M01 Q1020=
201903310230 METAR LRAR 310230Z AUTO 00000KT 8000 NCD 02/M01 Q1020=
201903310300 METAR LRAR 310300Z AUTO 00000KT 9000 NCD 03/M00 Q1020=
201903310330 METAR LRAR 310330Z AUTO VRB01KT 9000 NCD 02/M01 Q1020=
201903310400 METAR LRAR 310400Z 00000KT CAVOK 02/M00 Q1020=
201903310430 METAR LRAR 310430Z 00000KT 8000 MIFG NSC 01/M01 Q1020=
201903310500 METAR LRAR 310500Z 00000KT 8000 MIFG NSC 03/M00 Q1020=
201903310530 METAR COR LRAR 310530Z 00000KT 7000 NSC 03/01 Q1020=
201903310600 METAR LRAR 310600Z 16002KT CAVOK 07/02 Q1020=
201903310630 METAR LRAR 310630Z 14003KT CAVOK 10/02 Q1020=
201903310700 METAR LRAR 310700Z 16003KT 120V200 CAVOK 12/02 Q1020=
201903310730 METAR LRAR 310730Z 18002KT 120V220 CAVOK 13/03 Q1020=
201903310800 METAR LRAR 310800Z VRB02KT CAVOK 15/04 Q1020=
201903310830 METAR LRAR 310830Z VRB02KT CAVOK 16/03 Q1019=
201903310900 METAR LRAR 310900Z 36003KT 280V080 CAVOK 17/03 Q1019=
201903310930 METAR LRAR 310930Z 03004KT 290V080 CAVOK 18/03 Q1019=
201903311000 METAR LRAR 311000Z VRB04KT CAVOK 19/02 Q1019=
201903311030 METAR LRAR 311030Z 10004KT 020V180 CAVOK 19/02 Q1018=
201903311100 METAR LRAR 311100Z 34005KT 290V040 CAVOK 19/02 Q1018=
201903311130 METAR LRAR 311130Z 06006KT 020V090 CAVOK 19/02 Q1018=
201903311200 METAR LRAR 311200Z 04006KT 330V070 CAVOK 20/01 Q1017=
201903311230 METAR LRAR 311230Z 06004KT 350V120 CAVOK 20/00 Q1017=
201903311300 METAR LRAR 311300Z VRB04KT CAVOK 21/01 Q1017=
201903311330 METAR LRAR 311330Z 06008KT CAVOK 20/M00 Q1016=
201903311400 METAR LRAR 311400Z 02007KT 330V080 CAVOK 21/01 Q1016=
201903311430 METAR LRAR 311430Z 05007KT 010V070 CAVOK 21/M00 Q1016=
201903311500 METAR LRAR 311500Z 02006KT 350V070 CAVOK 21/00 Q1015=
201903311530 METAR LRAR 311530Z 36005KT 310V050 CAVOK 20/M01 Q1015=
201903311600 METAR LRAR 311600Z 04004KT 350V090 CAVOK 20/01 Q1015=
201903311630 METAR LRAR 311630Z 05004KT CAVOK 19/M01 Q1015=
201903311700 METAR LRAR 311700Z 36003KT CAVOK 18/M01 Q1015=
201903311730 METAR LRAR 311730Z 36003KT CAVOK 16/M01 Q1015=
201903311800 METAR LRAR 311800Z 01002KT CAVOK 13/00 Q1015=
201903311830 METAR LRAR 311830Z 06003KT CAVOK 13/M00 Q1015=
201903311900 METAR LRAR 311900Z 05001KT CAVOK 12/M00 Q1015=
201903311930 METAR LRAR 311930Z AUTO VRB01KT 9999 NCD 11/M00 Q1016=
201903312000 METAR LRAR 312000Z AUTO 00000KT 9999 NCD 10/M01 Q1016=
201903312030 METAR LRAR 312030Z AUTO 28004KT 9999 NCD 06/M02 Q1016=
201903312100 METAR LRAR 312100Z AUTO 31003KT 9999 NCD 08/M02 Q1015=
201903312130 METAR LRAR 312130Z AUTO VRB01KT 9999 NCD 07/M01 Q1016=
201903312200 METAR LRAR 312200Z AUTO 28002KT 9999 NCD 06/M01 Q1016=
201903312230 METAR LRAR 312230Z AUTO 31002KT 9999 NCD 05/M02 Q1015=
201903312300 METAR LRAR 312300Z AUTO 29002KT 9999 NCD 05/M02 Q1015=
201903312330 METAR LRAR 312330Z AUTO 31002KT 9999 NCD 05/M02 Q1015=
