201904010000 METAR LRAR 010000Z AUTO 31003KT 9999 NCD 04/M02 Q1015=
201904010030 METAR LRAR 010030Z AUTO 30003KT 9999 NCD 04/M02 Q1015=
201904010100 METAR LRAR 010100Z AUTO 28006KT 9999 NCD 02/M02 Q1015=
201904010130 METAR LRAR 010130Z AUTO 28004KT 9999 NCD 02/M03 Q1015=
201904010200 METAR LRAR 010200Z AUTO 27003KT 9999 NCD 03/M03 Q1015=
201904010230 METAR LRAR 010230Z AUTO VRB01KT 9999 NCD 04/M03 Q1015=
201904010300 METAR LRAR 010300Z AUTO VRB01KT 9999 NCD 04/M02 Q1015=
201904010330 METAR LRAR 010330Z AUTO 35002KT 9999 NCD 02/M03 Q1016=
201904010400 METAR LRAR 010400Z 04004KT CAVOK 03/M02 Q1016=
201904010430 METAR LRAR 010430Z 35003KT 330V030 CAVOK 02/M02 Q1016=
201904010500 METAR LRAR 010500Z 36004KT CAVOK 04/M01 Q1016=
201904010530 METAR LRAR 010530Z 01004KT 340V040 CAVOK 06/00 Q1017=
201904010600 METAR LRAR 010600Z 02008KT 340V050 CAVOK 08/01 Q1016=
201904010630 METAR LRAR 010630Z 03008KT CAVOK 10/02 Q1017=
201904010700 METAR LRAR 010700Z 04010KT 350V060 CAVOK 12/03 Q1017=
201904010730 METAR LRAR 010730Z 04011KT CAVOK 13/03 Q1017=
201904010800 METAR LRAR 010800Z 04010KT CAVOK 14/04 Q1017=
201904010830 METAR LRAR 010830Z AUTO 05009KT 020V080 9999 NCD 16/03 Q1017=
201904010900 METAR LRAR 010900Z 02009KT CAVOK 17/04 Q1017=
201904010930 METAR LRAR 010930Z 04009KT 010V070 CAVOK 18/04 Q1016=
201904011000 METAR LRAR 011000Z 04009KT 360V070 CAVOK 20/06 Q1016=
201904011030 METAR LRAR 011030Z 36010KT CAVOK 19/04 Q1016=
201904011100 METAR LRAR 011100Z 35007KT 320V040 CAVOK 20/04 Q1016=
201904011130 METAR LRAR 011130Z 01009KT 330V050 CAVOK 20/03 Q1016=
201904011200 METAR LRAR 011200Z 01010KT 340V060 CAVOK 21/03 Q1015=
201904011230 METAR LRAR 011230Z 01010KT 340V040 CAVOK 21/02 Q1015=
201904011300 METAR LRAR 011300Z 01008KT 350V050 CAVOK 22/M00 Q1015=
201904011330 METAR LRAR 011330Z 01008KT 350V050 CAVOK 21/M01 Q1015=
201904011400 METAR LRAR 011400Z 06009KT 020V080 CAVOK 22/M02 Q1014=
201904011430 METAR LRAR 011430Z 01015KT CAVOK 21/03 Q1014=
201904011500 METAR LRAR 011500Z 01018KT CAVOK 21/03 Q1014=
201904011530 METAR LRAR 011530Z 02018KT CAVOK 20/03 Q1014=
201904011600 METAR LRAR 011600Z 01017KT CAVOK 20/03 Q1014=
201904011630 METAR LRAR 011630Z 03015KT CAVOK 19/03 Q1014=
201904011700 METAR LRAR 011700Z 03014KT CAVOK 17/03 Q1014=
201904011730 METAR LRAR 011730Z 03014KT CAVOK 17/02 Q1015=
201904011800 METAR LRAR 011800Z 02014KT CAVOK 16/02 Q1015=
201904011830 METAR LRAR 011830Z 03015KT CAVOK 15/01 Q1016=
201904011900 METAR LRAR 011900Z 02015KT CAVOK 14/01 Q1016=
201904011930 METAR LRAR 011930Z AUTO 02014KT 9999 NCD 13/00 Q1016=
201904012000 METAR LRAR 012000Z AUTO 02015KT 9999 NCD 13/M00 Q1016=
201904012030 METAR LRAR 012030Z AUTO 03017KT 9999 NCD 12/M00 Q1016=
201904012100 METAR LRAR 012100Z AUTO 02014KT 9999 NCD 11/M00 Q1016=
201904012130 METAR LRAR 012130Z AUTO 02014KT 340V040 9999 NCD 11/M00 Q1016=
201904012200 METAR LRAR 012200Z AUTO 02013KT 9999 NCD 10/M01 Q1017=
201904012230 METAR LRAR 012230Z AUTO 02012KT 9999 NCD 10/M01 Q1017=
201904012300 METAR LRAR 012300Z AUTO 02010KT 9999 NCD 09/M01 Q1017=
201904012330 METAR LRAR 012330Z AUTO 02009KT 9999 NCD 09/M01 Q1017=
201904020000 METAR LRAR 020000Z AUTO 01008KT 340V040 9999 NCD 08/M01 Q1017=
201904020030 METAR LRAR 020030Z AUTO 01008KT 9999 NCD 08/M01 Q1017=
201904020100 METAR LRAR 020100Z AUTO 02007KT 9999 NCD 07/M01 Q1017=
201904020130 METAR LRAR 020130Z AUTO 02007KT 9999 NCD 07/M01 Q1017=
201904020200 METAR LRAR 020200Z AUTO 02007KT 9999 NCD 07/M01 Q1017=
201904020230 METAR LRAR 020230Z AUTO 05004KT 010V110 9999 NCD 06/M02 Q1018=
201904020300 METAR LRAR 020300Z AUTO 04004KT 360V060 9999 NCD 05/M02 Q1018=
201904020330 METAR LRAR 020330Z AUTO VRB02KT 9999 NCD 04/M02 Q1018=
201904020400 METAR LRAR 020400Z 35002KT CAVOK 04/M02 Q1018=
201904020430 METAR LRAR 020430Z 32003KT CAVOK 03/M02 Q1018=
201904020500 METAR LRAR 020500Z 30001KT CAVOK 03/M02 Q1018=
201904020530 METAR LRAR 020530Z 31002KT CAVOK 03/M01 Q1018=
201904020600 METAR LRAR 020600Z 33002KT 290V020 CAVOK 06/M01 Q1018=
201904020630 METAR LRAR 020630Z 36002KT 300V080 CAVOK 08/M00 Q1018=
201904020700 METAR COR LRAR 020700Z 33002KT CAVOK 09/M00 Q1019=
201904020730 METAR LRAR 020730Z VRB03KT CAVOK 10/00 Q1019=
201904020800 METAR LRAR 020800Z VRB02KT CAVOK 12/01 Q1019=
201904020830 METAR LRAR 020830Z 18006KT 140V220 CAVOK 13/02 Q1019=
201904020900 METAR LRAR 020900Z VRB04KT CAVOK 15/03 Q1019=
201904020930 METAR LRAR 020930Z 22009KT CAVOK 16/02 Q1019=
201904021000 METAR LRAR 021000Z 22007KT 190V250 CAVOK 17/02 Q1018=
201904021030 METAR LRAR 021030Z 21006KT 180V290 CAVOK 18/03 Q1018=
201904021100 METAR LRAR 021100Z VRB06KT CAVOK 18/02 Q1018=
201904021130 METAR LRAR 021130Z 20008KT CAVOK 19/01 Q1018=
201904021200 METAR LRAR 021200Z 22006KT 110V280 CAVOK 19/02 Q1017=
201904021230 METAR LRAR 021230Z 17009KT 150V210 CAVOK 19/01 Q1017=
201904021300 METAR LRAR 021300Z 13005KT 070V200 CAVOK 20/01 Q1016=
201904021330 METAR LRAR 021330Z 17005KT 090V220 CAVOK 20/M00 Q1016=
201904021400 METAR LRAR 021400Z 12005KT 080V160 CAVOK 20/M00 Q1016=
201904021430 METAR LRAR 021430Z 19005KT 130V250 CAVOK 20/M00 Q1015=
201904021500 METAR LRAR 021500Z 21005KT 150V250 CAVOK 20/00 Q1015=
201904021530 METAR LRAR 021530Z 24007KT CAVOK 20/00 Q1015=
201904021600 METAR LRAR 021600Z 23008KT CAVOK 19/00 Q1015=
201904021630 METAR LRAR 021630Z 22006KT CAVOK 18/01 Q1015=
201904021700 METAR COR LRAR 021700Z 23006KT CAVOK 17/M00 Q1015=
201904021730 METAR LRAR 021730Z 22005KT CAVOK 16/M00 Q1016=
201904021800 METAR LRAR 021800Z 21004KT CAVOK 15/M01 Q1016=
201904021830 METAR LRAR 021830Z 16005KT CAVOK 13/01 Q1016=
201904021900 METAR LRAR 021900Z 18006KT CAVOK 13/00 Q1016=
201904021930 METAR LRAR 021930Z AUTO 15006KT 9999 NCD 12/01 Q1016=
201904022000 METAR LRAR 022000Z AUTO 15006KT 9999 NCD 11/00 Q1016=
201904022030 METAR LRAR 022030Z AUTO 15008KT 9999 NCD 11/M00 Q1016=
201904022100 METAR LRAR 022100Z AUTO 15009KT 9999 NCD 10/M01 Q1016=
201904022130 METAR LRAR 022130Z AUTO 15008KT 9999 NCD 10/M01 Q1016=
201904022200 METAR LRAR 022200Z AUTO 15009KT 9999 NCD 10/M02 Q1016=
201904022230 METAR LRAR 022230Z AUTO 15010KT 9999 NCD 09/M02 Q1016=
201904022300 METAR LRAR 022300Z AUTO 15010KT 9999 NCD 09/M02 Q1016=
201904022330 METAR LRAR 022330Z AUTO 14010KT 9999 NCD 09/M02 Q1016=
201904030000 METAR LRAR 030000Z AUTO 15010KT 9999 NCD 09/M02 Q1016=
201904030030 METAR LRAR 030030Z AUTO 13009KT 9999 NCD 09/M02 Q1016=
201904030100 METAR LRAR 030100Z AUTO 14008KT 9999 NCD 08/M02 Q1016=
201904030130 METAR LRAR 030130Z AUTO 13008KT 9999 NCD 08/M01 Q1015=
201904030200 METAR LRAR 030200Z AUTO 14009KT 9999 NCD 08/M02 Q1015=
201904030230 METAR LRAR 030230Z AUTO 13012KT 9999 NCD 08/M02 Q1015=
201904030300 METAR LRAR 030300Z AUTO 14011KT 9999 NCD 08/M02 Q1015=
201904030330 METAR LRAR 030330Z AUTO 14011KT 9999 NCD 08/M02 Q1015=
201904030400 METAR LRAR 030400Z 14011KT CAVOK 08/M03 Q1015=
201904030430 METAR LRAR 030430Z 14011KT CAVOK 08/M03 Q1014=
201904030500 METAR LRAR 030500Z 14012KT CAVOK 08/M03 Q1015=
201904030530 METAR LRAR 030530Z 14013KT CAVOK 09/M03 Q1015=
201904030600 METAR LRAR 030600Z 14014KT CAVOK 10/M02 Q1015=
201904030630 METAR LRAR 030630Z 14013KT CAVOK 10/M03 Q1015=
201904030700 METAR LRAR 030700Z 14017KT CAVOK 12/M03 Q1015=
201904030730 METAR LRAR 030730Z 15015KT CAVOK 13/M04 Q1015=
201904030800 METAR LRAR 030800Z 15016KT CAVOK 14/M03 Q1015=
201904030830 METAR LRAR 030830Z 16014KT CAVOK 15/M04 Q1015=
201904030900 METAR LRAR 030900Z 15014KT 120V180 CAVOK 16/M03 Q1015=
201904030930 METAR LRAR 030930Z 16014KT CAVOK 16/M03 Q1014=
201904031000 METAR LRAR 031000Z 17013KT 140V200 CAVOK 17/M03 Q1014=
201904031030 METAR LRAR 031030Z 17015KT 140V200 CAVOK 17/M02 Q1014=
201904031100 METAR LRAR 031100Z 16012KT CAVOK 18/M02 Q1014=
201904031130 METAR LRAR 031130Z 19014KT 150V220 9999 FEW050CB 18/M02 Q1013=
201904031200 METAR LRAR 031200Z 20012KT 170V230 9999 FEW050CB 18/M02 Q1013=
201904031230 METAR LRAR 031230Z 17012KT 140V210 CAVOK 18/M01 Q1013=
201904031300 METAR LRAR 031300Z 20013KT 150V230 CAVOK 19/M01 Q1012=
201904031330 METAR LRAR 031330Z 17012KT CAVOK 18/M01 Q1012=
201904031400 METAR LRAR 031400Z 16010KT 140V210 CAVOK 19/M01 Q1012=
201904031430 METAR COR LRAR 031430Z 16011KT 140V200 CAVOK 19/M01 Q1012=
201904031500 METAR LRAR 031500Z 17011KT CAVOK 18/M02 Q1011=
201904031530 METAR LRAR 031530Z 17009KT CAVOK 18/M02 Q1011=
201904031600 METAR LRAR 031600Z 18009KT 140V200 CAVOK 18/M02 Q1011=
201904031630 METAR LRAR 031630Z 18007KT CAVOK 16/M02 Q1011=
201904031700 METAR LRAR 031700Z 18008KT CAVOK 15/M02 Q1011=
201904031730 METAR LRAR 031730Z 17009KT CAVOK 15/M03 Q1011=
201904031800 METAR LRAR 031800Z 17009KT CAVOK 14/M03 Q1012=
201904031830 METAR LRAR 031830Z 18006KT CAVOK 12/M03 Q1012=
201904031900 METAR LRAR 031900Z 17006KT CAVOK 12/M03 Q1012=
201904031930 METAR LRAR 031930Z AUTO 17009KT 9999 NCD 12/M04 Q1012=
201904032000 METAR LRAR 032000Z AUTO 17009KT 9999 NCD 11/M04 Q1012=
201904032030 METAR LRAR 032030Z AUTO 16009KT 9999 NCD 10/M02 Q1012=
201904032100 METAR LRAR 032100Z AUTO 15009KT 9999 NCD 09/M02 Q1012=
201904032130 METAR LRAR 032130Z AUTO 15008KT 9999 NCD 08/M02 Q1012=
201904032200 METAR LRAR 032200Z AUTO 15009KT 9999 NCD 09/M03 Q1012=
201904032230 METAR LRAR 032230Z AUTO 15008KT 9999 NCD 08/M03 Q1012=
201904032300 METAR LRAR 032300Z AUTO 14009KT 9999 NCD 08/M03 Q1012=
201904032330 METAR LRAR 032330Z AUTO 14009KT 9999 NCD 08/M03 Q1012=
201904040000 METAR LRAR 040000Z AUTO 14009KT 9999 NCD 08/M03 Q1012=
201904040030 METAR LRAR 040030Z AUTO 15008KT 9999 NCD 08/M02 Q1012=
201904040100 METAR LRAR 040100Z AUTO 14008KT 9999 NCD 08/M02 Q1011=
201904040130 METAR LRAR 040130Z AUTO 14009KT 9999 NCD 08/M03 Q1011=
201904040200 METAR LRAR 040200Z AUTO 15010KT 9999 NCD 08/M03 Q1011=
201904040230 METAR LRAR 040230Z AUTO 15011KT 9999 NCD 08/M03 Q1011=
201904040300 METAR LRAR 040300Z AUTO 15011KT 9999 NCD 08/M03 Q1011=
201904040330 METAR LRAR 040330Z AUTO 15012KT 9999 NCD 08/M03 Q1011=
201904040400 METAR LRAR 040400Z 15011KT CAVOK 08/M03 Q1011=
201904040430 METAR LRAR 040430Z 16011KT CAVOK 08/M03 Q1011=
201904040500 METAR LRAR 040500Z 15012KT CAVOK 08/M03 Q1011=
201904040530 METAR LRAR 040530Z 15012KT CAVOK 09/M02 Q1011=
201904040600 METAR LRAR 040600Z 14013KT CAVOK 10/M02 Q1011=
201904040630 METAR LRAR 040630Z 15013KT CAVOK 11/M02 Q1011=
201904040700 METAR LRAR 040700Z 16013KT 9999 FEW045CB 12/M02 Q1011=
201904040730 METAR LRAR 040730Z 16014KT 9999 FEW045CB 13/M02 Q1011=
201904040800 METAR LRAR 040800Z 15012KT 9999 FEW045CB 13/M01 Q1011=
201904040830 METAR LRAR 040830Z 16012KT 140V200 9999 FEW050CB 14/M01 Q1011=
201904040900 METAR LRAR 040900Z 17012KT 9999 -SHRA FEW045CB 13/M00 Q1011=
201904040930 METAR LRAR 040930Z 16013KT 9999 FEW009 FEW050CB 14/01 Q1011=
201904041000 METAR LRAR 041000Z 18015KT 150V210 9999 FEW050CB 15/00 Q1011=
201904041030 METAR LRAR 041030Z 17015KT 140V200 CAVOK 17/00 Q1010=
201904041100 METAR LRAR 041100Z 16014KT 130V190 CAVOK 18/01 Q1010=
201904041130 METAR LRAR 041130Z 15015KT CAVOK 19/01 Q1009=
201904041200 METAR LRAR 041200Z 16014KT 130V200 CAVOK 19/01 Q1009=
201904041230 METAR LRAR 041230Z 15014KT CAVOK 20/01 Q1009=
201904041300 METAR LRAR 041300Z 15016KT CAVOK 20/01 Q1008=
201904041330 METAR LRAR 041330Z 16012KT 140V220 CAVOK 20/00 Q1008=
201904041400 METAR LRAR 041400Z 16011KT CAVOK 20/01 Q1007=
201904041430 METAR LRAR 041430Z 17013KT 150V210 CAVOK 20/01 Q1007=
201904041500 METAR LRAR 041500Z 16016KT CAVOK 20/00 Q1007=
201904041530 METAR LRAR 041530Z 17012KT 140V210 CAVOK 19/01 Q1007=
201904041600 METAR LRAR 041600Z 19012KT CAVOK 19/00 Q1007=
201904041630 METAR LRAR 041630Z 19010KT CAVOK 18/01 Q1007=
201904041700 METAR LRAR 041700Z 19008KT CAVOK 16/01 Q1007=
201904041730 METAR LRAR 041730Z 16007KT CAVOK 15/00 Q1007=
201904041800 METAR LRAR 041800Z 15008KT CAVOK 14/M00 Q1008=
201904041830 METAR LRAR 041830Z 15008KT CAVOK 13/00 Q1008=
201904041900 METAR LRAR 041900Z 14008KT CAVOK 12/01 Q1008=
201904041930 METAR LRAR 041930Z 14009KT CAVOK 12/00 Q1008=
201904042000 METAR LRAR 042000Z AUTO 14009KT 9999 FEW091/// 12/M00 Q1008=
201904042030 METAR LRAR 042030Z AUTO 14010KT 9999 NCD 12/M01 Q1008=
201904042100 METAR LRAR 042100Z AUTO 14010KT 9999 NCD 12/M01 Q1008=
201904042130 METAR LRAR 042130Z AUTO 14010KT 9999 NCD 13/M01 Q1008=
201904042200 METAR LRAR 042200Z AUTO 14010KT 9999 NCD 13/M01 Q1008=
201904042230 METAR LRAR 042230Z AUTO 15009KT 9999 NCD 12/M01 Q1008=
201904042300 METAR LRAR 042300Z AUTO 15009KT 9999 FEW100/// 12/M01 Q1008=
201904042330 METAR LRAR 042330Z AUTO 15010KT 9999 NCD 12/M01 Q1008=
201904050000 METAR LRAR 050000Z AUTO 15010KT 9999 NCD 11/M00 Q1008=
201904050030 METAR LRAR 050030Z AUTO 15009KT 9999 NCD 11/M00 Q1008=
201904050100 METAR LRAR 050100Z AUTO 14009KT 9999 NCD 11/M00 Q1008=
201904050130 METAR LRAR 050130Z AUTO 14009KT 9999 NCD 11/M00 Q1008=
201904050200 METAR LRAR 050200Z AUTO 15010KT 9999 NCD 11/00 Q1008=
201904050230 METAR LRAR 050230Z AUTO 15010KT 9999 NCD 10/00 Q1008=
201904050300 METAR LRAR 050300Z AUTO 14010KT 9999 NCD 10/M00 Q1008=
201904050330 METAR LRAR 050330Z AUTO 14009KT 9999 NCD 10/M00 Q1008=
201904050400 METAR LRAR 050400Z 14010KT CAVOK 10/M00 Q1008=
201904050430 METAR LRAR 050430Z 14011KT CAVOK 10/00 Q1008=
201904050500 METAR LRAR 050500Z 14011KT CAVOK 11/M00 Q1008=
201904050530 METAR LRAR 050530Z 14010KT CAVOK 12/00 Q1008=
201904050600 METAR LRAR 050600Z 13013KT CAVOK 13/00 Q1008=
201904050630 METAR LRAR 050630Z 13014KT CAVOK 14/01 Q1007=
201904050700 METAR LRAR 050700Z 14014KT CAVOK 15/00 Q1007=
201904050730 METAR LRAR 050730Z 14014KT CAVOK 16/01 Q1007=
201904050800 METAR LRAR 050800Z 14016KT CAVOK 17/01 Q1008=
201904050830 METAR LRAR 050830Z 14015KT CAVOK 18/01 Q1008=
201904050900 METAR LRAR 050900Z 14016KT CAVOK 19/02 Q1007=
201904050930 METAR LRAR 050930Z 14015KT CAVOK 20/01 Q1007=
201904051000 METAR LRAR 051000Z 15013KT CAVOK 20/02 Q1007=
201904051030 METAR LRAR 051030Z 15013KT 9999 FEW026 21/02 Q1007=
201904051100 METAR LRAR 051100Z 15012KT 120V200 9999 SCT028 20/01 Q1007=
201904051130 METAR LRAR 051130Z 18013KT 150V210 9999 SCT033 21/01 Q1006=
201904051200 METAR LRAR 051200Z 17012KT 9999 BKN035 20/01 Q1006=
201904051230 METAR LRAR 051230Z 17011KT 140V220 9999 BKN036 20/01 Q1006=
201904051300 METAR LRAR 051300Z 18013KT 9999 SCT036 20/01 Q1006=
201904051330 METAR LRAR 051330Z 19012KT 9999 SCT040 FEW050CB 20/02 Q1006=
201904051400 METAR LRAR 051400Z 18011KT 9999 FEW050CB 20/01 Q1005=
201904051430 METAR LRAR 051430Z 18012KT 150V210 CAVOK 19/01 Q1005=
201904051500 METAR LRAR 051500Z 18013KT CAVOK 19/01 Q1005=
201904051530 METAR LRAR 051530Z 18013KT 150V220 CAVOK 19/01 Q1005=
201904051600 METAR LRAR 051600Z 18011KT CAVOK 18/02 Q1005=
201904051630 METAR LRAR 051630Z 17010KT 140V200 CAVOK 18/02 Q1005=
201904051700 METAR LRAR 051700Z 17010KT CAVOK 18/02 Q1005=
201904051730 METAR LRAR 051730Z 18009KT 150V210 CAVOK 17/02 Q1005=
201904051800 METAR LRAR 051800Z 15008KT 120V180 CAVOK 17/03 Q1006=
201904051830 METAR LRAR 051830Z 13007KT CAVOK 16/03 Q1006=
201904051900 METAR LRAR 051900Z 14008KT CAVOK 16/04 Q1006=
201904051930 METAR LRAR 051930Z AUTO 14007KT 9999 -SHRA FEW071/// SCT091///
                        15/05 Q1007=
201904052000 METAR LRAR 052000Z AUTO 14005KT 9999 -SHRA FEW009/// SCT071///
                        15/05 Q1007=
201904052030 METAR LRAR 052030Z AUTO 15005KT 9999 FEW031/// BKN071///
                        14/05 Q1007 RERA=
201904052100 METAR LRAR 052100Z AUTO 17004KT 9999 -SHRA BKN066/// 14/05
                        Q1007=
201904052130 METAR LRAR 052130Z AUTO 25007KT 9999 -SHRA FEW007/// SCT066///
                        13/07 Q1008=
201904052200 METAR LRAR 052200Z AUTO 28010KT 9999 FEW012/// 11/08 Q1008=
201904052230 METAR LRAR 052230Z AUTO 27005KT 230V310 9999 SCT066/// 10/08
                        Q1008 RERA=
201904052300 METAR LRAR 052300Z AUTO 31002KT 270V330 9999 SCT066/// 10/08
                        Q1009=
201904052330 METAR LRAR 052330Z AUTO 30005KT 9999 SCT066/// 10/08 Q1009=
201904060000 METAR LRAR 060000Z AUTO 31003KT 9999 SCT066/// 10/08 Q1008=
201904060030 METAR LRAR 060030Z AUTO 35004KT 320V030 9999 SCT066/// 10/07
                        Q1008=
201904060100 METAR LRAR 060100Z AUTO 04005KT 9999 BKN066/// 10/07 Q1008=
201904060130 METAR LRAR 060130Z AUTO 04005KT 9999 SCT071/// 10/06 Q1008=
201904060200 METAR LRAR 060200Z AUTO 05006KT 9999 SCT066/// 10/06 Q1008=
201904060230 METAR LRAR 060230Z AUTO 05005KT 9999 SCT071/// 10/06 Q1008=
201904060300 METAR LRAR 060300Z AUTO 05005KT 9999 BKN071/// 10/06 Q1008=
201904060330 METAR LRAR 060330Z AUTO 06005KT 9999 BKN071/// 10/06 Q1008=
201904060400 METAR LRAR 060400Z 05007KT 020V080 CAVOK 10/06 Q1008=
201904060430 METAR LRAR 060430Z 07008KT CAVOK 10/06 Q1008=
201904060500 METAR LRAR 060500Z 07008KT 9999 -SHRA SCT011 SCT040CB 10/06
                        Q1008=
201904060530 METAR LRAR 060530Z 08006KT 9999 FEW011 SCT040CB 10/06 Q1008=
201904060600 METAR LRAR 060600Z 06005KT 9999 FEW009 SCT040CB 10/07 Q1008=
201904060630 METAR LRAR 060630Z 06006KT 030V090 9999 FEW045CB 10/07 Q1008=
201904060700 METAR LRAR 060700Z 01005KT 340V040 CAVOK 10/07 Q1009=
201904060730 METAR LRAR 060730Z 34004KT 310V010 9999 -RA FEW009 10/08
                        Q1009=
201904060800 METAR LRAR 060800Z 03008KT 9999 -SHRA FEW006 SCT045CB 11/08
                        Q1009=
201904060830 METAR LRAR 060830Z 07009KT 9999 FEW045CB 12/08 Q1009=
201904060900 METAR LRAR 060900Z 07006KT 040V100 CAVOK 12/08 Q1009=
201904060930 METAR LRAR 060930Z VRB02KT CAVOK 13/08 Q1009=
201904061000 METAR LRAR 061000Z 14004KT 110V180 CAVOK 13/07 Q1009=
201904061030 METAR LRAR 061030Z 22005KT 160V250 CAVOK 13/07 Q1009=
201904061100 METAR LRAR 061100Z 22004KT 160V240 CAVOK 13/07 Q1009=
201904061130 METAR LRAR 061130Z 21003KT 140V260 CAVOK 14/08 Q1009=
201904061200 METAR LRAR 061200Z VRB02KT CAVOK 14/08 Q1009=
201904061230 METAR LRAR 061230Z 26005KT CAVOK 14/07 Q1008=
201904061300 METAR LRAR 061300Z 25003KT 170V310 CAVOK 16/07 Q1008=
201904061330 METAR LRAR 061330Z 18005KT 120V250 CAVOK 16/07 Q1007=
201904061400 METAR LRAR 061400Z 24005KT 170V330 CAVOK 18/07 Q1007=
201904061430 METAR LRAR 061430Z 27008KT 230V290 CAVOK 17/07 Q1007=
201904061500 METAR LRAR 061500Z 28006KT CAVOK 16/06 Q1007=
201904061530 METAR LRAR 061530Z 24003KT CAVOK 17/06 Q1007=
201904061600 METAR LRAR 061600Z 06002KT 030V090 CAVOK 16/07 Q1007=
201904061630 METAR LRAR 061630Z VRB02KT CAVOK 16/06 Q1007=
201904061700 METAR LRAR 061700Z 09006KT CAVOK 16/07 Q1007=
201904061730 METAR LRAR 061730Z 09004KT CAVOK 15/07 Q1007=
201904061800 METAR LRAR 061800Z 10006KT CAVOK 15/07 Q1008=
201904061830 METAR LRAR 061830Z 09007KT CAVOK 14/08 Q1008=
201904061900 METAR LRAR 061900Z 11005KT CAVOK 14/08 Q1008=
201904061930 METAR LRAR 061930Z AUTO 17003KT 140V220 9999 SCT066/// 13/08
                        Q1009=
201904062000 METAR LRAR 062000Z AUTO 19004KT 9999 SCT066/// 13/07 Q1008=
201904062030 METAR LRAR 062030Z AUTO 23007KT 9999 SCT066/// 14/04 Q1009=
201904062100 METAR LRAR 062100Z AUTO 22005KT 9999 SCT071/// 13/04 Q1009=
201904062130 METAR LRAR 062130Z AUTO 23004KT 9999 FEW071/// 12/04 Q1009=
201904062200 METAR LRAR 062200Z AUTO 16002KT 120V200 9999 FEW071/// SCT086///
                        11/05 Q1008=
201904062230 METAR LRAR 062230Z AUTO 00000KT 9999 FEW071/// 11/04 Q1008=
201904062300 METAR LRAR 062300Z AUTO 00000KT 9999 FEW071/// 11/04 Q1008=
201904062330 METAR LRAR 062330Z AUTO 12003KT 9999 FEW071/// 10/05 Q1008=
201904070000 METAR LRAR 070000Z AUTO 02004KT 9999 FEW076/// 09/05 Q1008=
201904070030 METAR LRAR 070030Z AUTO 05004KT 9999 FEW076/// 09/05 Q1008=
201904070100 METAR LRAR 070100Z AUTO 10003KT 9999 FEW100/// 09/05 Q1008=
201904070130 METAR LRAR 070130Z AUTO 08003KT 9999 FEW081/// 08/04 Q1008=
201904070200 METAR LRAR 070200Z AUTO 09004KT 9999 FEW081/// 10/05 Q1008=
201904070230 METAR LRAR 070230Z AUTO 09005KT 9999 FEW086/// 10/05 Q1007=
201904070300 METAR LRAR 070300Z AUTO 09004KT 9999 FEW086/// 10/05 Q1007=
201904070330 METAR LRAR 070330Z AUTO 09004KT 9999 FEW100/// 10/04 Q1007=
201904070400 METAR LRAR 070400Z 10005KT CAVOK 09/04 Q1007=
201904070430 METAR LRAR 070430Z 11005KT CAVOK 09/04 Q1007=
201904070500 METAR LRAR 070500Z 13004KT CAVOK 09/05 Q1007=
201904070530 METAR LRAR 070530Z 12005KT CAVOK 11/05 Q1007=
201904070600 METAR LRAR 070600Z 13006KT CAVOK 11/04 Q1007=
201904070630 METAR LRAR 070630Z 12005KT CAVOK 13/05 Q1007=
201904070700 METAR LRAR 070700Z 13007KT CAVOK 15/04 Q1007=
201904070730 METAR LRAR 070730Z 13007KT 100V170 CAVOK 16/05 Q1007=
201904070800 METAR LRAR 070800Z 12005KT 090V160 CAVOK 17/05 Q1007=
201904070830 METAR LRAR 070830Z 14004KT 060V190 CAVOK 18/05 Q1007=
201904070900 METAR LRAR 070900Z 18005KT 110V240 CAVOK 19/05 Q1007=
201904070930 METAR LRAR 070930Z 17011KT 140V210 CAVOK 20/04 Q1007=
201904071000 METAR LRAR 071000Z 19010KT 140V230 CAVOK 20/05 Q1007=
201904071030 METAR LRAR 071030Z 20007KT 170V230 CAVOK 20/06 Q1007=
201904071100 METAR LRAR 071100Z 25004KT 160V320 CAVOK 21/06 Q1007=
201904071130 METAR LRAR 071130Z 15007KT 110V200 CAVOK 21/05 Q1006=
201904071200 METAR LRAR 071200Z 20009KT 120V230 CAVOK 22/04 Q1006=
201904071230 METAR LRAR 071230Z 22008KT CAVOK 22/04 Q1006=
201904071300 METAR LRAR 071300Z 20009KT 150V240 9999 FEW040 23/04 Q1005=
201904071330 METAR LRAR 071330Z 17004KT 090V210 9999 FEW045 22/04 Q1005=
201904071400 METAR LRAR 071400Z 16006KT 130V200 CAVOK 23/03 Q1005=
201904071430 METAR LRAR 071430Z 19008KT 150V320 CAVOK 23/03 Q1005=
201904071500 METAR LRAR 071500Z 17005KT 130V230 CAVOK 23/03 Q1005=
201904071530 METAR LRAR 071530Z 21006KT 170V240 CAVOK 22/04 Q1004=
201904071600 METAR LRAR 071600Z 22005KT 190V250 CAVOK 22/04 Q1005=
201904071630 METAR LRAR 071630Z 24005KT CAVOK 21/03 Q1005=
201904071700 METAR LRAR 071700Z 23003KT CAVOK 20/03 Q1005=
201904071730 METAR LRAR 071730Z 24003KT CAVOK 17/04 Q1005=
201904071800 METAR LRAR 071800Z VRB01KT CAVOK 18/03 Q1005=
201904071830 METAR LRAR 071830Z 21008KT CAVOK 17/04 Q1006=
201904071900 METAR LRAR 071900Z 20008KT CAVOK 16/05 Q1006=
201904071930 METAR LRAR 071930Z AUTO 19005KT 9999 FEW100/// 14/05 Q1006=
201904072000 METAR LRAR 072000Z AUTO 19004KT 9999 NCD 13/05 Q1006=
201904072030 METAR LRAR 072030Z AUTO 19004KT 9999 FEW081/// 13/05 Q1006=
201904072100 METAR LRAR 072100Z AUTO 19005KT 9999 NCD 12/05 Q1006=
201904072130 METAR LRAR 072130Z AUTO 30004KT 9999 NCD 10/05 Q1006=
201904072200 METAR LRAR 072200Z AUTO VRB01KT 9999 NCD 10/05 Q1006=
201904072230 METAR LRAR 072230Z AUTO VRB01KT 9999 NCD 08/04 Q1006=
201904072300 METAR LRAR 072300Z AUTO 19002KT 9999 NCD 09/05 Q1006=
201904072330 METAR LRAR 072330Z AUTO VRB01KT 9999 NCD 09/05 Q1006=
201904080000 METAR LRAR 080000Z AUTO VRB01KT 9999 NCD 08/04 Q1006=
201904080030 METAR LRAR 080030Z AUTO VRB01KT 9999 NCD 08/04 Q1006=
201904080100 METAR LRAR 080100Z AUTO 13003KT 9999 NCD 08/05 Q1006=
201904080130 METAR LRAR 080130Z AUTO 12003KT 9999 NCD 09/05 Q1006=
201904080200 METAR LRAR 080200Z AUTO 20001KT 9999 NCD 08/05 Q1005=
201904080230 METAR LRAR 080230Z AUTO 22001KT 9999 NCD 08/05 Q1005=
201904080300 METAR LRAR 080300Z AUTO 09002KT 9999 NCD 08/05 Q1005=
201904080330 METAR LRAR 080330Z AUTO 11004KT 9999 FEW100/// 10/06 Q1005=
201904080400 METAR LRAR 080400Z 10004KT CAVOK 10/06 Q1005=
201904080430 METAR LRAR 080430Z 09004KT CAVOK 10/06 Q1005=
201904080500 METAR LRAR 080500Z 06003KT CAVOK 11/06 Q1005=
201904080530 METAR LRAR 080530Z 07005KT CAVOK 11/06 Q1005=
201904080600 METAR LRAR 080600Z 07006KT CAVOK 12/06 Q1005=
201904080630 METAR LRAR 080630Z 06006KT CAVOK 13/07 Q1005=
201904080700 METAR LRAR 080700Z 06007KT CAVOK 13/07 Q1005=
201904080730 METAR LRAR 080730Z 06008KT CAVOK 13/06 Q1005=
201904080800 METAR LRAR 080800Z 07007KT CAVOK 14/07 Q1005=
201904080830 METAR LRAR 080830Z 04007KT 010V070 CAVOK 14/07 Q1005=
201904080900 METAR LRAR 080900Z 04006KT 010V070 CAVOK 14/07 Q1005=
201904080930 METAR LRAR 080930Z 05007KT 360V080 CAVOK 15/07 Q1005=
201904081000 METAR LRAR 081000Z 03007KT 350V080 CAVOK 16/08 Q1005=
201904081030 METAR LRAR 081030Z 03006KT 340V070 CAVOK 16/07 Q1004=
201904081100 METAR LRAR 081100Z 01007KT 340V040 CAVOK 17/07 Q1004=
201904081130 METAR LRAR 081130Z 01008KT 330V050 CAVOK 17/08 Q1004=
201904081200 METAR LRAR 081200Z 36009KT 330V040 CAVOK 17/07 Q1004=
201904081230 METAR LRAR 081230Z 35008KT 320V020 CAVOK 17/07 Q1004=
201904081300 METAR LRAR 081300Z 36007KT 330V050 CAVOK 19/07 Q1003=
201904081330 METAR LRAR 081330Z 35008KT 310V040 CAVOK 18/07 Q1003=
201904081400 METAR LRAR 081400Z 34006KT 290V010 CAVOK 19/06 Q1003=
201904081430 METAR LRAR 081430Z 02006KT 320V060 CAVOK 19/07 Q1003=
201904081500 METAR LRAR 081500Z VRB03KT CAVOK 18/06 Q1002=
201904081530 METAR LRAR 081530Z 35005KT 320V030 CAVOK 19/06 Q1002=
201904081600 METAR COR LRAR 081600Z 34005KT 310V030 CAVOK 19/07 Q1002=
201904081630 METAR LRAR 081630Z 33003KT 300V010 CAVOK 19/07 Q1002=
201904081700 METAR LRAR 081700Z 32003KT CAVOK 18/07 Q1002=
201904081730 METAR LRAR 081730Z 29005KT CAVOK 15/06 Q1003=
201904081800 METAR LRAR 081800Z 29005KT CAVOK 14/06 Q1003=
201904081830 METAR LRAR 081830Z 29004KT CAVOK 13/05 Q1003=
201904081900 METAR LRAR 081900Z 28005KT CAVOK 11/05 Q1003=
201904081930 METAR LRAR 081930Z AUTO 30005KT 9999 NCD 10/04 Q1003=
201904082000 METAR LRAR 082000Z AUTO 30003KT 9999 NCD 11/04 Q1003=
201904082030 METAR LRAR 082030Z AUTO 27003KT 9999 NCD 10/04 Q1003=
201904082100 METAR LRAR 082100Z AUTO 29003KT 9000 NCD 10/05 Q1003=
201904082130 METAR LRAR 082130Z AUTO 32003KT 280V340 9999 NCD 10/05 Q1003=
201904082200 METAR LRAR 082200Z AUTO 29003KT 250V320 9999 NCD 09/05 Q1003=
201904082230 METAR LRAR 082230Z AUTO 28003KT 9999 NCD 10/05 Q1003=
201904082300 METAR LRAR 082300Z AUTO 27002KT 230V300 9999 NCD 10/05 Q1003=
201904082330 METAR LRAR 082330Z AUTO 26003KT 9999 NCD 09/05 Q1003=
201904090000 METAR LRAR 090000Z AUTO VRB01KT 9999 NCD 08/05 Q1003=
201904090030 METAR LRAR 090030Z AUTO 25002KT 9999 NCD 09/05 Q1003=
201904090100 METAR LRAR 090100Z AUTO 27003KT 9999 NCD 07/04 Q1003=
201904090130 METAR LRAR 090130Z AUTO 27003KT 9999 NCD 08/04 Q1003=
201904090200 METAR LRAR 090200Z AUTO 16002KT 140V210 9999 NCD 08/05 Q1003=
201904090230 METAR LRAR 090230Z AUTO 19002KT 9000 NCD 07/04 Q1003=
201904090300 METAR LRAR 090300Z AUTO 26002KT 7000 NCD 06/04 Q1003=
201904090330 METAR LRAR 090330Z AUTO VRB01KT 6000 NCD 06/04 Q1003=
201904090400 METAR LRAR 090400Z 00000KT 8000 MIFG NSC 06/04 Q1003=
201904090430 METAR COR LRAR 090430Z 15001KT 8000 MIFG NSC 05/04 Q1003=
201904090500 METAR LRAR 090500Z 14003KT 8000 MIFG NSC 06/05 Q1004=
201904090530 METAR LRAR 090530Z 16001KT 6000 NSC 08/06 Q1004=
201904090600 METAR LRAR 090600Z VRB02KT 8000 NSC 11/08 Q1004=
201904090630 METAR LRAR 090630Z VRB01KT CAVOK 12/09 Q1004=
201904090700 METAR LRAR 090700Z 07003KT 010V110 8000 NSC 14/09 Q1004=
201904090730 METAR LRAR 090730Z VRB02KT CAVOK 15/10 Q1004=
201904090800 METAR LRAR 090800Z 35003KT 300V050 CAVOK 17/10 Q1004=
201904090830 METAR LRAR 090830Z 32003KT 260V010 CAVOK 17/10 Q1004=
201904090900 METAR LRAR 090900Z 03003KT 310V090 CAVOK 19/10 Q1003=
201904090930 METAR LRAR 090930Z VRB03KT CAVOK 20/09 Q1003=
201904091000 METAR LRAR 091000Z 35005KT 310V050 CAVOK 20/07 Q1003=
201904091030 METAR LRAR 091030Z 01004KT 330V080 9999 FEW040 21/08 Q1003=
201904091100 METAR LRAR 091100Z 35005KT 300V020 9999 FEW040 21/08 Q1003=
201904091130 METAR LRAR 091130Z 32005KT 260V010 9999 FEW040 22/07 Q1003=
201904091200 METAR LRAR 091200Z 36005KT 320V050 9999 SCT040 22/08 Q1003=
201904091230 METAR LRAR 091230Z 31006KT 270V010 CAVOK 22/08 Q1002=
201904091300 METAR LRAR 091300Z 02008KT 340V050 CAVOK 21/08 Q1002=
201904091330 METAR LRAR 091330Z 31005KT 270V350 CAVOK 22/07 Q1002=
201904091400 METAR LRAR 091400Z 03008KT 340V060 CAVOK 22/08 Q1002=
201904091430 METAR LRAR 091430Z 34005KT 290V040 CAVOK 22/08 Q1002=
201904091500 METAR LRAR 091500Z 02004KT 290V100 CAVOK 22/06 Q1002=
201904091530 METAR LRAR 091530Z 01007KT CAVOK 22/06 Q1002=
201904091600 METAR LRAR 091600Z 04005KT CAVOK 21/07 Q1002=
201904091630 METAR LRAR 091630Z 03005KT CAVOK 21/07 Q1002=
201904091700 METAR LRAR 091700Z 03005KT CAVOK 20/06 Q1002=
201904091730 METAR LRAR 091730Z 02003KT CAVOK 19/05 Q1003=
201904091800 METAR LRAR 091800Z 04004KT CAVOK 19/05 Q1003=
201904091830 METAR LRAR 091830Z 04005KT CAVOK 17/05 Q1003=
201904091900 METAR LRAR 091900Z 03004KT CAVOK 16/06 Q1003=
201904091930 METAR LRAR 091930Z AUTO 32003KT 9999 NCD 14/06 Q1003=
201904092000 METAR LRAR 092000Z AUTO 09004KT 010V130 9999 NCD 13/06 Q1004=
201904092030 METAR LRAR 092030Z AUTO 16007KT 9999 FEW076/// 15/08 Q1004=
201904092100 METAR LRAR 092100Z AUTO 18009KT 9999 NCD 14/09 Q1004=
201904092130 METAR LRAR 092130Z AUTO 18009KT 9999 NCD 14/09 Q1004=
201904092200 METAR LRAR 092200Z AUTO 18008KT 9999 NCD 14/09 Q1004=
201904092230 METAR LRAR 092230Z AUTO 18010KT 9999 NCD 13/09 Q1004=
201904092300 METAR LRAR 092300Z AUTO 18010KT 9999 NCD 13/10 Q1004=
201904092330 METAR LRAR 092330Z AUTO 18008KT 9999 NCD 13/10 Q1005=
201904100000 METAR LRAR 100000Z AUTO 16009KT 9999 NCD 12/09 Q1005=
201904100030 METAR LRAR 100030Z AUTO 14008KT 9999 NCD 11/09 Q1005=
201904100100 METAR LRAR 100100Z AUTO 14007KT 9999 NCD 11/10 Q1005=
201904100130 METAR LRAR 100130Z AUTO 15007KT 9999 NCD 11/10 Q1005=
201904100200 METAR LRAR 100200Z AUTO 15008KT 9999 NCD 11/10 Q1004=
201904100230 METAR LRAR 100230Z AUTO 15007KT 9999 NCD 11/10 Q1004=
201904100300 METAR LRAR 100300Z AUTO 14009KT 9999 NCD 11/10 Q1004=
201904100330 METAR LRAR 100330Z AUTO 15009KT 9999 NCD 12/10 Q1004=
201904100400 METAR LRAR 100400Z 15009KT CAVOK 12/10 Q1005=
201904100430 METAR LRAR 100430Z 14007KT CAVOK 12/10 Q1005=
201904100500 METAR LRAR 100500Z 14007KT CAVOK 12/10 Q1005=
201904100530 METAR LRAR 100530Z 13007KT CAVOK 13/10 Q1005=
201904100600 METAR LRAR 100600Z 14007KT CAVOK 14/10 Q1006=
201904100630 METAR LRAR 100630Z 14007KT 9999 FEW045 13/10 Q1006=
201904100700 METAR LRAR 100700Z 15009KT 130V190 CAVOK 15/10 Q1006=
201904100730 METAR LRAR 100730Z 17009KT 140V200 CAVOK 16/11 Q1006=
201904100800 METAR LRAR 100800Z 15008KT CAVOK 16/11 Q1006=
201904100830 METAR LRAR 100830Z 19008KT 160V220 CAVOK 17/10 Q1006=
201904100900 METAR LRAR 100900Z 18008KT 140V210 CAVOK 18/10 Q1006=
201904100930 METAR LRAR 100930Z 16008KT 130V190 CAVOK 19/10 Q1006=
201904101000 METAR LRAR 101000Z 14007KT 100V190 CAVOK 20/10 Q1005=
201904101030 METAR LRAR 101030Z 14008KT 120V180 CAVOK 20/10 Q1005=
201904101100 METAR LRAR 101100Z 14007KT 090V180 9999 FEW033 20/10 Q1005=
201904101130 METAR LRAR 101130Z 18006KT 140V220 9999 SCT033 21/08 Q1005=
201904101200 METAR LRAR 101200Z 14006KT 080V180 9999 FEW026 BKN036 22/08
                        Q1005=
201904101230 METAR LRAR 101230Z 10003KT 030V160 9999 FEW028 BKN038 22/10
                        Q1004=
201904101300 METAR LRAR 101300Z 14007KT 120V180 9999 SCT030 BKN040 22/09
                        Q1004=
201904101330 METAR LRAR 101330Z VRB03KT 9999 SCT030 BKN040 FEW045CB 22/08
                        Q1004=
201904101400 METAR LRAR 101400Z 13007G18KT 9999 TS FEW034 BKN40CB 21/08
                        Q1004=
201904101430 METAR LRAR 101430Z 14011KT 110V170 9999 -TSRA FEW010 SCT036
                        BKN040CB 19/10 Q1004=
201904101500 METAR LRAR 101500Z 12009KT 9999 -TSRA SCT010 SCT045CB 18/10
                        Q1004=
201904101530 METAR LRAR 101530Z 12006KT 9999 -SHRA FEW007 SCT019 FEW048CB
                        18/10 Q1004 RETS=
201904101600 METAR LRAR 101600Z 13008KT 9999 SCT021 FEW050CB 18/10 Q1004
                        RETS=
201904101630 METAR LRAR 101630Z 10006KT 9999 SCT028 FEW055CB 18/10 Q1005=
201904101700 METAR LRAR 101700Z 33006KT 9999 SCT035 FEW055CB 16/11 Q1005=
201904101730 METAR LRAR 101730Z 33006KT 290V010 9999 VCTS SCT036 FEW055CB
                        15/10 Q1005=
201904101800 METAR COR LRAR 101800Z 34003KT 9999 VCTS SCT038 SCT055CB
                        15/10 Q1005=
201904101830 METAR LRAR 101830Z 02004KT 9999 BKN045 15/09 Q1005=
201904101900 METAR LRAR 101900Z 05006KT 9999 BKN047 16/09 Q1006=
201904101930 METAR LRAR 101930Z AUTO 07008KT 9999 -SHRA FEW011/// SCT076///
                        16/10 Q1006=
201904102000 METAR LRAR 102000Z AUTO 08006KT 9999 SCT071/// 16/10 Q1006
                        RERA=
201904102030 METAR LRAR 102030Z AUTO 12005KT 9999 BKN071/// 15/10 Q1006=
201904102100 METAR LRAR 102100Z AUTO 02007KT 340V050 9000 RA FEW009///
                        SCT011/// BKN020/// 13/11 Q1006=
201904102130 METAR LRAR 102130Z AUTO 12002KT 350V160 9999 -RA FEW007///
                        SCT014/// BKN071/// 13/11 Q1007=
201904102200 METAR LRAR 102200Z AUTO VRB02KT 9000 RA FEW008/// SCT019///
                        BKN023/// 13/12 Q1007=
201904102230 METAR LRAR 102230Z AUTO 02007KT 350V050 9999 FEW014/// BKN071///
                        13/12 Q1007 RERA=
201904102300 METAR LRAR 102300Z AUTO 03005KT 9999 FEW071/// SCT100///
                        13/11 Q1006 REDZ=
201904102330 METAR LRAR 102330Z AUTO 00000KT 9999 FEW066/// SCT086///
                        13/12 Q1006=
201904110000 METAR LRAR 110000Z AUTO 33003KT 9999 SCT071/// 12/11 Q1006=
201904110030 METAR LRAR 110030Z AUTO 35004KT 9999 -SHRA FEW071/// 13/11
                        Q1006=
201904110100 METAR LRAR 110100Z AUTO 34004KT 9999 BKN071/// 12/11 Q1007
                        REDZ=
201904110130 METAR LRAR 110130Z AUTO 36005KT 9999 FEW033/// BKN071///
                        12/09 Q1007=
201904110200 METAR LRAR 110200Z AUTO 01009KT 9000 -RA VV009 11/09 Q1007=
201904110230 METAR LRAR 110230Z AUTO 03006KT 020V080 9999 FEW004/// SCT076///
                        10/08 Q1007 RERA=
201904110300 METAR LRAR 110300Z AUTO 04008KT 9999 FEW076/// 10/07 Q1006
                        RERA=
201904110330 METAR LRAR 110330Z AUTO 06006KT 030V090 9999 FEW076/// 10/06
                        Q1007=
201904110400 METAR LRAR 110400Z 05004KT 9999 SCT048 10/07 Q1007=
201904110430 METAR LRAR 110430Z 06006KT 9999 SCT048 10/06 Q1007 R09/19//95=
201904110500 METAR LRAR 110500Z 04003KT 360V060 CAVOK 10/07 Q1007 R09/19//95=
201904110530 METAR LRAR 110530Z 03006KT CAVOK 10/07 Q1007 R09/19//95=
201904110600 METAR LRAR 110600Z 05005KT CAVOK 10/07 Q1007 R09/19//95=
201904110630 METAR LRAR 110630Z 36005KT 330V030 CAVOK 10/08 Q1007 R09/19//95=
201904110700 METAR LRAR 110700Z 02006KT CAVOK 11/08 Q1007 R09/CLRD//=
201904110730 METAR LRAR 110730Z 01006KT 340V050 9999 FEW045 12/09 Q1008=
201904110800 METAR LRAR 110800Z 35004KT 310V040 9999 FEW045 13/10 Q1008=
201904110830 METAR LRAR 110830Z 34004KT 300V040 CAVOK 14/10 Q1008=
201904110900 METAR LRAR 110900Z 35005KT 310V020 CAVOK 15/10 Q1008=
201904110930 METAR LRAR 110930Z 33005KT 300V020 CAVOK 15/10 Q1008=
201904111000 METAR LRAR 111000Z 34005KT 300V010 CAVOK 15/11 Q1008=
201904111030 METAR LRAR 111030Z 31007KT CAVOK 15/11 Q1008=
201904111100 METAR LRAR 111100Z 31007KT 270V340 CAVOK 16/12 Q1008=
201904111130 METAR LRAR 111130Z 31009KT 280V340 CAVOK 17/11 Q1007=
201904111200 METAR LRAR 111200Z 32009KT 280V350 9999 FEW030 17/13 Q1007=
201904111230 METAR LRAR 111230Z 32009KT 290V350 9999 FEW030 18/12 Q1007=
201904111300 METAR LRAR 111300Z 31010KT 9999 FEW033 FEW035CB 17/12 Q1007=
201904111330 METAR LRAR 111330Z 31010KT 9999 SCT035 FEW038CB 17/11 Q1007=
201904111400 METAR LRAR 111400Z 34007KT 9999 SCT040CB 17/11 Q1007=
201904111430 METAR LRAR 111430Z 33009KT 9999 SCT040CB 17/10 Q1007=
201904111500 METAR LRAR 111500Z 32008KT 9999 FEW040CB 17/10 Q1007=
201904111530 METAR LRAR 111530Z 08009KT 9999 -SHRA SCT042CB BKN048 16/09
                        Q1007 R09/19//95=
201904111600 METAR LRAR 111600Z 18004KT 9999 SCT045CB 14/11 Q1007 R09/19//95=
201904111630 METAR LRAR 111630Z 30005KT 270V330 9999 FEW045CB 14/10 Q1007
                        R09/19//95=
201904111700 METAR LRAR 111700Z 02009KT 9999 -SHRA SCT040CB 15/08 Q1008
                        R09/19//95=
201904111730 METAR LRAR 111730Z 02008KT 340V050 9999 -SHRA FEW020 SCT030CB
                        13/09 Q1008 R09/19//95=
201904111800 METAR LRAR 111800Z 35005KT 9999 -SHRA FEW019 SCT030CB 12/10
                        Q1008 R09/19//95=
201904111830 METAR LRAR 111830Z 36007KT 9999 SCT012 BKN033 12/10 Q1009
                        R09/19//95=
201904111900 METAR LRAR 111900Z 36009KT 9999 -RA SCT010 OVC033 12/08 Q1009
                        R09/29//95=
201904111930 METAR LRAR 111930Z AUTO 01013KT 9999 FEW012/// SCT032///
                        11/06 Q1009 RERA=
201904112000 METAR LRAR 112000Z AUTO 01007KT 9999 SCT020/// BKN025///
                        11/06 Q1009 RERA=
201904112030 METAR LRAR 112030Z AUTO 02007KT 9999 FEW022/// 11/06 Q1009=
201904112100 METAR LRAR 112100Z AUTO 01010KT 9999 -DZ FEW012/// 10/05
                        Q1009=
201904112130 METAR LRAR 112130Z AUTO 01009KT 9999 -SHRA FEW012/// 09/05
                        Q1009=
201904112200 METAR LRAR 112200Z AUTO 02007KT 9999 -SHRA FEW050/// 09/05
                        Q1009=
201904112230 METAR LRAR 112230Z AUTO 01005KT 340V040 9999 SCT050/// 09/05
                        Q1009 RERA=
201904112300 METAR LRAR 112300Z AUTO 03007KT 9999 FEW061/// SCT076///
                        09/04 Q1009=
201904112330 METAR LRAR 112330Z AUTO 03008KT 9999 BKN066/// 09/04 Q1009=
201904120000 METAR LRAR 120000Z AUTO 03009KT 9999 FEW020/// SCT061///
                        09/04 Q1009=
201904120030 METAR LRAR 120030Z AUTO 03009KT 9999 BKN015/// BKN018///
                        09/04 Q1009=
201904120100 METAR LRAR 120100Z AUTO 03008KT 9999 BKN013/// BKN016///
                        08/04 Q1009=
201904120130 METAR LRAR 120130Z AUTO 02007KT 350V050 9999 OVC012/// 08/04
                        Q1010=
201904120200 METAR LRAR 120200Z AUTO 03008KT 360V070 9999 BKN014/// 08/04
                        Q1010=
201904120230 METAR LRAR 120230Z AUTO 03008KT 9999 OVC013/// 08/04 Q1010=
201904120300 METAR LRAR 120300Z AUTO 02008KT 350V050 9999 BKN012/// 08/04
                        Q1010=
201904120330 METAR LRAR 120330Z AUTO 02006KT 350V060 9999 OVC012/// 08/04
                        Q1010=
201904120400 METAR LRAR 120400Z 03007KT 9999 BKN010 08/04 Q1010 R09/29//95=
201904120430 METAR LRAR 120430Z 03007KT 350V050 9999 OVC010 08/04 Q1010
                        R09/CLRD//=
201904120500 METAR LRAR 120500Z 03007KT 9999 OVC010 08/04 Q1010=
201904120530 METAR LRAR 120530Z 03010KT 9999 SCT009 BKN011 08/04 Q1010=
201904120600 METAR LRAR 120600Z 03008KT 9999 OVC009 08/05 Q1010=
201904120630 METAR LRAR 120630Z 03009KT 350V050 9999 OVC009 08/05 Q1011=
201904120700 METAR LRAR 120700Z 02008KT 9999 SCT010 BKN015 09/06 Q1011=
201904120730 METAR LRAR 120730Z 02006KT 350V060 9999 FEW009 BKN011 BKN022
                        10/06 Q1011=
201904120800 METAR LRAR 120800Z 03007KT 350V060 9999 SCT011 BKN022 10/06
                        Q1011=
201904120830 METAR LRAR 120830Z 03006KT 360V070 9999 SCT011 BKN016 OVC023
                        10/07 Q1011=
201904120900 METAR LRAR 120900Z 01006KT 290V040 9999 FEW011 SCT016 BKN023
                        11/08 Q1011=
201904120930 METAR LRAR 120930Z 01005KT 320V050 9999 SCT011 BKN024 11/08
                        Q1011=
201904121000 METAR LRAR 121000Z 36004KT 320V040 9999 SCT013 BKN023 12/09
                        Q1011=
201904121030 METAR COR LRAR 121030Z VRB01KT 9999 BKN015 OVC025 12/09 Q1012=
201904121100 METAR LRAR 121100Z 22003KT 190V250 6000 -RA FEW007 BKN015
                        OVC026 11/09 Q1012 R09/19//95=
201904121130 METAR LRAR 121130Z 21009KT 5000 -RA BR FEW008 BKN016 BKN028
                        11/09 Q1012 R09/19//95=
201904121200 METAR LRAR 121200Z 21008KT 9000 -RA SCT017 BKN030 11/09 Q1012
                        R09/19//95=
201904121230 METAR LRAR 121230Z 20008KT 170V230 9999 BKN013 OVC030 11/09
                        Q1012 R09/19//95=
201904121300 METAR LRAR 121300Z 22008KT 9999 BKN014 OVC030 11/09 Q1012
                        R09/19//95=
201904121330 METAR LRAR 121330Z 21008KT 9999 BKN015 OVC030 11/08 Q1012
                        R09/19//95=
201904121400 METAR LRAR 121400Z 22008KT 9999 BKN015 OVC030 11/08 Q1012
                        R09/19//95=
201904121430 METAR LRAR 121430Z 22008KT 9999 BKN016 OVC035 11/08 Q1012
                        R09/CLRD//=
201904121500 METAR LRAR 121500Z 22007KT 9999 BKN017 10/07 Q1012=
201904121530 METAR LRAR 121530Z 22007KT 9999 FEW009 SCT017 10/07 Q1012=
201904121600 METAR LRAR 121600Z 22007KT 9999 SCT018 10/07 Q1012=
201904121630 METAR LRAR 121630Z 20008KT 9999 BKN048 10/07 Q1012=
201904121700 METAR LRAR 121700Z 21006KT 9999 BKN045 10/07 Q1012=
201904121730 METAR LRAR 121730Z 21005KT 9999 BKN049 10/07 Q1012=
201904121800 METAR LRAR 121800Z 23005KT 9999 BKN046 10/07 Q1013=
201904121830 METAR LRAR 121830Z 23006KT 9999 BKN047 09/07 Q1013=
201904121900 METAR LRAR 121900Z 23007KT 9999 BKN047 09/07 Q1013=
201904121930 METAR LRAR 121930Z AUTO 22006KT 9999 FEW025/// BKN047///
                        09/06 Q1013=
201904122000 METAR LRAR 122000Z AUTO 23005KT 9999 BKN025/// 08/06 Q1014=
201904122030 METAR LRAR 122030Z AUTO 23005KT 9999 BKN026/// BKN047///
                        08/07 Q1014=
201904122100 METAR LRAR 122100Z AUTO 23006KT 9999 SCT027/// BKN046///
                        08/06 Q1014=
201904122130 METAR LRAR 122130Z AUTO 23005KT 9999 FEW007/// SCT028///
                        BKN049/// 08/06 Q1014=
201904122200 METAR LRAR 122200Z AUTO 25005KT 9999 FEW007/// BKN047///
                        07/06 Q1014=
201904122230 METAR LRAR 122230Z AUTO 25006KT 9999 BKN048/// 07/06 Q1014=
201904122300 METAR LRAR 122300Z AUTO 23005KT 9999 SCT046/// 07/06 Q1014=
201904122330 METAR LRAR 122330Z AUTO 23004KT 9999 FEW007/// SCT061///
                        07/06 Q1014=
201904130000 METAR LRAR 130000Z AUTO 23004KT 9999 FEW006/// BKN008///
                        BKN061/// 07/06 Q1014=
201904130030 METAR LRAR 130030Z AUTO 24003KT 9000 BKN007/// BKN009///
                        07/06 Q1014=
201904130100 METAR LRAR 130100Z AUTO 21003KT 8000 FEW005/// BKN007///
                        BKN009/// 07/06 Q1014=
201904130130 METAR LRAR 130130Z AUTO 20003KT 170V230 9999 FEW007/// BKN009///
                        BKN037/// 07/06 Q1014=
201904130200 METAR LRAR 130200Z AUTO 17003KT 130V210 9000 SCT006/// BKN008///
                        07/06 Q1014=
201904130230 METAR LRAR 130230Z AUTO 20002KT 180V240 9000 FEW005/// SCT008///
                        BKN011/// 07/06 Q1014=
201904130300 METAR LRAR 130300Z AUTO 20003KT 8000 BKN006/// BKN009///
                        07/06 Q1014=
201904130330 METAR LRAR 130330Z AUTO 19004KT 6000 BKN005/// OVC007///
                        07/06 Q1014=
201904130400 METAR LRAR 130400Z 19004KT 7000 SCT005 BKN007 BKN032 07/06
                        Q1014=
201904130430 METAR LRAR 130430Z 19004KT 160V220 5000 BR SCT005 BKN008
                        BKN033 07/06 Q1014=
201904130500 METAR LRAR 130500Z 22003KT 5000 BR SCT004 BKN006 OVC008 07/06
                        Q1014=
201904130530 METAR LRAR 130530Z 20003KT 6000 SCT005 OVC007 07/06 Q1014=
201904130600 METAR LRAR 130600Z 22004KT 6000 SCT004 BKN006 OVC008 07/06
                        Q1014=
201904130630 METAR LRAR 130630Z 20004KT 8000 SCT005 OVC008 07/06 Q1014=
201904130700 METAR LRAR 130700Z 22003KT 190V250 9000 FEW006 BKN007 BKN009
                        07/06 Q1015=
201904130730 METAR LRAR 130730Z 21004KT 9999 FEW007 BKN009 BKN012 08/06
                        Q1015=
201904130800 METAR LRAR 130800Z 19004KT 160V220 9999 FEW009 BKN011 OVC014
                        08/06 Q1015=
201904130830 METAR LRAR 130830Z 21005KT 9999 BKN011 OVC013 08/06 Q1015=
201904130900 METAR LRAR 130900Z 19004KT 140V230 9999 SCT013 BKN016 09/06
                        Q1015=
201904130930 METAR LRAR 130930Z 25004KT 200V270 9999 SCT012 BKN016 09/06
                        Q1015=
201904131000 METAR LRAR 131000Z 23003KT 190V280 9999 SCT014 BKN017 09/06
                        Q1015=
201904131030 METAR LRAR 131030Z 18003KT 140V230 9999 SCT013 BKN017 10/06
                        Q1015=
201904131100 METAR LRAR 131100Z 23003KT 200V270 9999 SCT015 OVC018 10/07
                        Q1015=
201904131130 METAR LRAR 131130Z VRB02KT 9999 SCT015 OVC017 10/07 Q1015=
201904131200 METAR LRAR 131200Z 17003KT 140V240 9999 SCT014 OVC017 10/06
                        Q1015=
201904131230 METAR LRAR 131230Z VRB02KT 9999 FEW008 BKN016 10/07 Q1015=
201904131300 METAR LRAR 131300Z VRB02KT 9999 -RA FEW005 SCT012 OVC017
                        10/07 Q1015=
201904131330 METAR LRAR 131330Z VRB01KT 9999 -RA SCT010 BKN016 OVC020
                        10/08 Q1015 R09/19//95=
201904131400 METAR LRAR 131400Z VRB02KT 9999 -RA FEW009 BKN011 OVC020
                        10/08 Q1015 R09/19//95=
201904131430 METAR LRAR 131430Z 23003KT 9000 -RA FEW009 BKN011 BKN025
                        10/08 Q1015 R09/19//95=
201904131500 METAR LRAR 131500Z 23003KT 9000 -RA FEW009 SCT013 BKN025
                        10/08 Q1015 R09/19//95=
201904131530 METAR LRAR 131530Z 22003KT 9000 -RA FEW005 BKN011 OVC017
                        10/08 Q1015 R09/19//95=
201904131600 METAR LRAR 131600Z VRB02KT 8000 -RA FEW007 BKN009 BKN012
                        10/09 Q1015 R09/19//95=
201904131630 METAR LRAR 131630Z VRB02KT 7000 -RA SCT007 BKN015 10/08 Q1015
                        R09/19//95=
201904131700 METAR LRAR 131700Z 26002KT 8000 FEW015 BKN019 10/08 Q1015
                        R09/19//95=
201904131730 METAR LRAR 131730Z 25002KT 8000 SCT012 BKN018 10/09 Q1015
                        R09/19//95=
201904131800 METAR LRAR 131800Z 34002KT 6000 SCT015 BKN024 09/09 Q1015
                        R09/19//95=
201904131830 METAR LRAR 131830Z VRB01KT 5000 BR FEW013 SCT016 OVC025 10/09
                        Q1015 R09/19//95=
201904131900 METAR LRAR 131900Z 00000KT 5000 BR SCT013 OVC016 09/09 Q1015
                        R09/19//95=
201904131930 METAR LRAR 131930Z AUTO 25003KT 5000 BR FEW013/// BKN022///
                        09/09 Q1015=
201904132000 METAR LRAR 132000Z AUTO 29003KT 4700 BR FEW005/// SCT013///
                        BKN023/// 09/09 Q1015=
201904132030 METAR LRAR 132030Z AUTO 28002KT 4500 -SHRA FEW006/// BKN012///
                        09/09 Q1015=
201904132100 METAR LRAR 132100Z AUTO 26003KT 3500 -SHRA FEW007/// BKN010///
                        BKN013/// 09/09 Q1015=
201904132130 METAR LRAR 132130Z AUTO 28003KT 3600 DZ BKN010/// BKN014///
                        09/09 Q1015=
201904132200 METAR LRAR 132200Z AUTO 28003KT 3300 R27/2000 -DZ FEW008///
                        SCT023/// 09/09 Q1015=
201904132230 METAR LRAR 132230Z AUTO 28002KT 3500 -DZ FEW012/// 09/09
                        Q1015=
201904132300 METAR LRAR 132300Z AUTO 31002KT 3100 DZ FEW002/// SCT008///
                        BKN011/// 09/09 Q1015=
201904132330 METAR LRAR 132330Z AUTO 33001KT 3000 -RA FEW005/// BKN007///
                        BKN024/// ///// Q1015=
201904140000 METAR LRAR 140000Z AUTO 34002KT 320V020 3500 -DZ FEW002///
                        SCT005/// BKN008/// ///// Q1015=
201904140030 METAR LRAR 140030Z AUTO 36002KT 4100 DZ VV012 ///// Q1014=
201904140100 METAR LRAR 140100Z AUTO 35002KT 3700 -RA BKN010/// BKN014///
                        ///// Q1014=
201904140130 METAR LRAR 140130Z AUTO 35002KT 3200 R27/2000 DZ FEW004///
                        SCT006/// BKN009/// ///// Q1014=
201904140200 METAR LRAR 140200Z AUTO 35002KT 3500 -DZ FEW003/// BKN009///
                        BKN011/// ///// Q1014=
201904140230 METAR LRAR 140230Z AUTO 32002KT 2600 -RA BKN010/// BKN013///
                        ///// Q1014=
201904140300 METAR LRAR 140300Z AUTO 29002KT 2400 -RA BKN011/// BKN014///
                        ///// Q1014=
201904140330 METAR LRAR 140330Z AUTO 29002KT 1300 R27/1200V1700D -RA SCT003///
                        BKN012/// ///// Q1014=
201904140400 METAR LRAR 140400Z 30002KT 1500 DZ BR SCT003 BKN008 OVC045
                        08/08 Q1014 R09/29//95=
201904140430 METAR LRAR 140430Z VRB01KT 1500 DZ BR SCT003 BKN008 OVC040
                        08/08 Q1014 R09/29//95=
201904140500 METAR LRAR 140500Z VRB01KT 1800 -DZ BR SCT002 BKN007 OVC040
                        08/08 Q1014 R09/29//95=
201904140530 METAR LRAR 140530Z VRB02KT 2500 -RA BR SCT003 BKN008 OVC042
                        08/08 Q1014 REDZ R09/29//95=
201904140600 METAR LRAR 140600Z 02004KT 3000 -RA BR SCT003 BKN006 OVC044
                        09/09 Q1014 R09/29//95=
201904140630 METAR LRAR 140630Z 02005KT 340V050 3500 -RA BR SCT003 BKN005
                        OVC044 09/09 Q1014 R09/29//95=
201904140700 METAR LRAR 140700Z 03004KT 350V060 4000 -RA BR SCT004 BKN006
                        OVC045 10/10 Q1015 R09/29//95=
201904140730 METAR LRAR 140730Z 02004KT 330V050 5000 BR SCT005 BKN009
                        OVC045 10/10 Q1015 R09/29//95=
201904140800 METAR LRAR 140800Z 02003KT 320V070 7000 -RA FEW006 BKN010
                        OVC047 11/10 Q1015 R09/29//95=
201904140830 METAR LRAR 140830Z 02004KT 310V060 9999 FEW008 BKN015 11/10
                        Q1015 R09/29//95=
201904140900 METAR COR LRAR 140900Z 02004KT 320V080 9999 SCT010 BKN015
                        12/10 Q1015 R09/29//95=
201904140930 METAR LRAR 140930Z 01003KT 310V110 9999 FEW018 BKN023 12/09
                        Q1014 R09/29//95=
201904141000 METAR LRAR 141000Z 01003KT 310V080 9999 FEW009 BKN024 12/08
                        Q1014 R09/29//95=
201904141030 METAR LRAR 141030Z 01003KT 330V070 9999 FEW008 BKN025 13/09
                        Q1014 R09/29//95=
201904141100 METAR LRAR 141100Z 02004KT 320V080 9999 FEW014 SCT026 13/09
                        Q1014 R09/CLRD//=
201904141130 METAR LRAR 141130Z VRB03KT 9999 FEW025 SCT030 14/08 Q1014=
201904141200 METAR LRAR 141200Z 34005KT 300V030 9999 SCT025 BKN030 14/09
                        Q1014=
201904141230 METAR LRAR 141230Z VRB04KT 9999 SCT025 BKN030 14/08 Q1014=
201904141300 METAR LRAR 141300Z 01005KT 340V060 9999 -RA FEW025 BKN034
                        14/08 Q1014=
201904141330 METAR LRAR 141330Z 01006KT 340V060 9999 -RA FEW026 BKN035
                        14/09 Q1014=
201904141400 METAR LRAR 141400Z 02008KT 330V050 9999 -SHRA SCT027 SCT050CB
                        14/09 Q1014=
201904141430 METAR LRAR 141430Z 36005KT 9999 -SHRA SCT028 SCT047CB 14/09
                        Q1014=
201904141500 METAR LRAR 141500Z 35004KT 330V030 9999 FEW035 SCT050CB 14/09
                        Q1014=
201904141530 METAR LRAR 141530Z 12008KT 080V170 4000 +TSRA SCT004 BKN030CB
                        11/08 Q1014=
201904141600 METAR LRAR 141600Z 22004KT 160V240 9999 TS FEW002 SCT020
                        BKN026CB 10/09 Q1014 RESHRA R09/29//95=
201904141630 METAR COR LRAR 141630Z 18003KT 9999 SCT030CB 10/10 Q1014
                        RETSRA R09/29//95=
201904141700 METAR LRAR 141700Z 21004KT 9999 FEW035CB 10/10 Q1014 RETS
                        R09/29//95=
201904141730 METAR LRAR 141730Z 21004KT 9999 FEW047CB 10/10 Q1014 R09/29//95=
201904141800 METAR LRAR 141800Z 23003KT 9999 FEW050CB 10/10 Q1014 R09/29//95=
201904141830 METAR LRAR 141830Z 26002KT 9999 FEW047CB 10/10 Q1015 R09/29//95=
201904141900 METAR LRAR 141900Z 29002KT CAVOK 09/09 Q1015 R09/29//95=
201904141930 METAR LRAR 141930Z AUTO 18001KT 3000 R27/1600VP2000U BR BKN086///
                        09/09 Q1015=
201904142000 METAR LRAR 142000Z AUTO 31003KT 5000 BR BKN086/// ///// Q1015=
201904142030 METAR LRAR 142030Z AUTO 25002KT 5000 BR SCT086/// ///// Q1015=
201904142100 METAR LRAR 142100Z AUTO 16003KT 140V230 9999 FEW086/// /////
                        Q1015=
201904142130 METAR LRAR 142130Z AUTO VRB01KT 9999 FEW091/// 08/08 Q1015=
201904142200 METAR LRAR 142200Z AUTO 06003KT 9999 FEW086/// ///// Q1015=
201904142230 METAR LRAR 142230Z AUTO 33002KT 9999 FEW076/// 09/09 Q1015=
201904142300 METAR LRAR 142300Z AUTO 30002KT 6000 FEW045/// SCT091///
                        08/08 Q1015=
201904142330 METAR LRAR 142330Z AUTO 32001KT 7000 FEW066/// SCT086///
                        ///// Q1015=
201904150000 METAR LRAR 150000Z AUTO 24002KT 4900 BR BKN076/// ///// Q1015=
201904150030 METAR LRAR 150030Z AUTO 01002KT 340V050 5000 BR FEW066///
                        BKN086/// ///// Q1015=
201904150100 METAR LRAR 150100Z AUTO 07003KT 6000 -SHRA BKN061/// /////
                        Q1015=
201904150130 METAR LRAR 150130Z AUTO 06003KT 6000 -SHRA BKN056/// /////
                        Q1016=
201904150200 METAR LRAR 150200Z AUTO 07004KT 6000 SCT050/// BKN066///
                        ///// Q1016 REDZ=
201904150230 METAR LRAR 150230Z AUTO 05002KT 7000 FEW050/// 09/09 Q1016=
201904150300 METAR LRAR 150300Z AUTO 05003KT 350V080 6000 BKN048/// 09/09
                        Q1016=
201904150330 METAR LRAR 150330Z AUTO 09002KT 060V120 8000 BKN050/// 09/09
                        Q1016=
201904150400 METAR LRAR 150400Z VRB02KT 9999 SCT045 09/09 Q1016 R09/29//95=
201904150430 METAR LRAR 150430Z VRB04KT 9999 FEW047 09/09 Q1016 R09/29//95=
201904150500 METAR LRAR 150500Z VRB02KT 8000 MIFG NSC 08/08 Q1016 R09/29//95=
201904150530 METAR LRAR 150530Z 36004KT 340V040 7000 MIFG NSC 08/08 Q1017
                        R09/CLRD//=
201904150600 METAR LRAR 150600Z 35004KT 9000 NSC 09/09 Q1017=
201904150630 METAR LRAR 150630Z 36007KT CAVOK 08/08 Q1017=
201904150700 METAR LRAR 150700Z 36003KT 330V040 CAVOK 09/09 Q1017=
201904150730 METAR LRAR 150730Z 03004KT 350V060 CAVOK 09/08 Q1018=
201904150800 METAR LRAR 150800Z 02004KT 350V070 CAVOK 10/09 Q1018=
201904150830 METAR LRAR 150830Z 08008KT CAVOK 12/07 Q1018=
201904150900 METAR LRAR 150900Z 11009KT 080V140 CAVOK 13/04 Q1018=
201904150930 METAR LRAR 150930Z 09008KT 060V120 CAVOK 13/05 Q1018=
201904151000 METAR LRAR 151000Z 01006KT CAVOK 12/08 Q1018=
201904151030 METAR LRAR 151030Z 01004KT 320V060 9999 FEW035 12/07 Q1018=
201904151100 METAR LRAR 151100Z 03005KT 320V080 9999 FEW038 13/06 Q1018=
201904151130 METAR LRAR 151130Z 04004KT 310V100 9999 SCT040 14/06 Q1018=
201904151200 METAR LRAR 151200Z 36006KT 330V090 9999 SCT040 14/06 Q1018=
201904151230 METAR LRAR 151230Z VRB04KT 9999 SCT040 FEW043CB 15/06 Q1017=
201904151300 METAR LRAR 151300Z 36004KT 320V050 9999 -SHRA BKN043 FEW045CB
                        14/06 Q1017=
201904151330 METAR LRAR 151330Z 01008KT 9999 BKN042 FEW045CB 13/07 Q1017=
201904151400 METAR LRAR 151400Z 02005KT 350V070 9999 SCT045 FEW048CB 15/06
                        Q1017=
201904151430 METAR LRAR 151430Z 06008KT 040V110 9999 SCT045 FEW050CB 15/04
                        Q1017=
201904151500 METAR LRAR 151500Z 04007KT 350V080 9999 FEW045 FEW050CB 15/06
                        Q1017=
201904151530 METAR LRAR 151530Z 01004KT 330V050 9999 FEW050CB 15/04 Q1017=
201904151600 METAR LRAR 151600Z 36007KT CAVOK 14/04 Q1017=
201904151630 METAR LRAR 151630Z 36008KT CAVOK 14/02 Q1017=
201904151700 METAR LRAR 151700Z 01007KT CAVOK 13/02 Q1017=
201904151730 METAR LRAR 151730Z 36006KT 9999 FEW045CB 11/02 Q1017=
201904151800 METAR LRAR 151800Z 36005KT CAVOK 11/02 Q1018=
201904151830 METAR LRAR 151830Z 36003KT CAVOK 08/03 Q1018=
201904151900 METAR LRAR 151900Z VRB01KT CAVOK 08/03 Q1018=
201904151930 METAR LRAR 151930Z 28002KT 260V320 CAVOK 08/02 Q1018=
201904152000 METAR LRAR 152000Z 31005KT CAVOK 06/01 Q1018=
201904152030 METAR LRAR 152030Z 35005KT CAVOK 06/00 Q1018=
201904152100 METAR LRAR 152100Z 36009KT CAVOK 07/00 Q1018=
201904152130 METAR LRAR 152130Z 01007KT CAVOK 06/00 Q1019=
201904152200 METAR LRAR 152200Z 03008KT CAVOK 07/M01 Q1019=
201904152230 METAR LRAR 152230Z 02009KT CAVOK 07/M01 Q1019=
201904152300 METAR LRAR 152300Z 02008KT CAVOK 06/M02 Q1019=
201904152330 METAR LRAR 152330Z 03008KT CAVOK 06/M02 Q1019=
201904160000 METAR LRAR 160000Z VRB02KT CAVOK 03/M02 Q1019=
201904160030 METAR LRAR 160030Z 32002KT 290V010 CAVOK 04/M02 Q1019=
201904160100 METAR LRAR 160100Z 31003KT CAVOK 02/M01 Q1019=
201904160130 METAR LRAR 160130Z 35003KT 310V010 CAVOK 02/M02 Q1019=
201904160200 METAR LRAR 160200Z 35003KT CAVOK 01/M02 Q1019=
201904160230 METAR LRAR 160230Z VRB01KT CAVOK 01/M02 Q1019=
201904160300 METAR LRAR 160300Z 36003KT CAVOK 01/M02 Q1019=
201904160330 METAR LRAR 160330Z 35003KT CAVOK M00/M03 Q1019=
201904160400 METAR LRAR 160400Z 34003KT CAVOK 00/M02 Q1019=
201904160430 METAR LRAR 160430Z 35003KT CAVOK 00/M02 Q1019=
201904160500 METAR LRAR 160500Z 01004KT 340V040 CAVOK 02/M02 Q1020=
201904160530 METAR LRAR 160530Z 02005KT 350V050 CAVOK 04/M02 Q1020=
201904160600 METAR LRAR 160600Z 03007KT CAVOK 05/M01 Q1020=
201904160630 METAR LRAR 160630Z 03006KT 010V070 CAVOK 06/M00 Q1020=
201904160700 METAR LRAR 160700Z 02006KT 340V050 CAVOK 07/00 Q1020=
201904160730 METAR LRAR 160730Z 35004KT 300V040 CAVOK 09/01 Q1020=
201904160800 METAR LRAR 160800Z 36005KT 320V040 CAVOK 10/02 Q1020=
201904160830 METAR LRAR 160830Z 36008KT 330V030 CAVOK 12/02 Q1020=
201904160900 METAR LRAR 160900Z 01008KT 340V050 CAVOK 13/01 Q1020=
201904160930 METAR LRAR 160930Z 01010KT 350V050 CAVOK 13/01 Q1020=
201904161000 METAR LRAR 161000Z 35008KT 320V060 CAVOK 14/01 Q1019=
201904161030 METAR LRAR 161030Z 35009KT CAVOK 14/M01 Q1019=
201904161100 METAR LRAR 161100Z 36009KT 330V040 CAVOK 15/M02 Q1019=
201904161130 METAR LRAR 161130Z 03010KT 340V060 CAVOK 15/M02 Q1019=
201904161200 METAR LRAR 161200Z 36010KT CAVOK 15/M02 Q1019=
201904161230 METAR LRAR 161230Z 01012KT 340V040 CAVOK 15/M02 Q1019=
201904161300 METAR LRAR 161300Z 34009KT 310V010 CAVOK 16/M03 Q1018=
201904161330 METAR LRAR 161330Z 01010KT 330V030 CAVOK 16/M04 Q1018=
201904161400 METAR LRAR 161400Z 34011KT CAVOK 16/M04 Q1018=
201904161430 METAR LRAR 161430Z 34008KT CAVOK 16/M04 Q1018=
201904161500 METAR LRAR 161500Z 34010KT CAVOK 16/M05 Q1018=
201904161530 METAR LRAR 161530Z 34009KT CAVOK 16/M05 Q1018=
201904161600 METAR LRAR 161600Z 34008KT CAVOK 15/M05 Q1018=
201904161630 METAR LRAR 161630Z 35008KT CAVOK 15/M05 Q1018=
201904161700 METAR LRAR 161700Z 34006KT CAVOK 13/M04 Q1018=
201904161730 METAR LRAR 161730Z 35004KT CAVOK 11/M04 Q1018=
201904161800 METAR LRAR 161800Z 35003KT CAVOK 10/M04 Q1018=
201904161830 METAR LRAR 161830Z 32004KT CAVOK 09/M04 Q1018=
201904161900 METAR LRAR 161900Z 28003KT CAVOK 08/M02 Q1018=
201904161930 METAR LRAR 161930Z 27006KT CAVOK 06/M02 Q1018=
201904162000 METAR LRAR 162000Z 27006KT CAVOK 04/M02 Q1018=
201904162030 METAR LRAR 162030Z 02005KT 350V060 CAVOK 05/M02 Q1018=
201904162100 METAR LRAR 162100Z 28002KT CAVOK 05/M02 Q1018=
201904162130 METAR LRAR 162130Z 29006KT CAVOK 03/M03 Q1018=
201904162200 METAR LRAR 162200Z 02009KT CAVOK 07/M02 Q1018=
201904162230 METAR LRAR 162230Z 03010KT CAVOK 08/M00 Q1018=
201904162300 METAR LRAR 162300Z 03009KT CAVOK 07/01 Q1018=
201904162330 METAR LRAR 162330Z 03007KT CAVOK 07/02 Q1019=
201904170000 METAR LRAR 170000Z 03006KT CAVOK 06/02 Q1019=
201904170030 METAR LRAR 170030Z 04006KT CAVOK 07/03 Q1019=
201904170100 METAR LRAR 170100Z 35003KT CAVOK 06/03 Q1018=
201904170130 METAR LRAR 170130Z 33003KT CAVOK 06/03 Q1018=
201904170200 METAR LRAR 170200Z 36004KT 330V030 CAVOK 06/04 Q1018=
201904170230 METAR LRAR 170230Z 34003KT CAVOK 06/03 Q1018=
201904170300 METAR LRAR 170300Z 35005KT CAVOK 05/03 Q1018=
201904170330 METAR LRAR 170330Z 34005KT CAVOK 05/03 Q1018=
201904170400 METAR LRAR 170400Z 36005KT CAVOK 05/03 Q1018=
201904170430 METAR LRAR 170430Z 36006KT 330V030 CAVOK 06/03 Q1018=
201904170500 METAR LRAR 170500Z 36011KT CAVOK 07/03 Q1018=
201904170530 METAR LRAR 170530Z 01010KT CAVOK 06/03 Q1018=
201904170600 METAR LRAR 170600Z 01011KT CAVOK 07/03 Q1018=
201904170630 METAR LRAR 170630Z 36009KT 330V030 CAVOK 08/04 Q1019=
201904170700 METAR LRAR 170700Z 36008KT 330V060 CAVOK 09/04 Q1019=
201904170730 METAR LRAR 170730Z 03009KT 360V060 CAVOK 10/04 Q1019=
201904170800 METAR LRAR 170800Z 36009KT CAVOK 10/04 Q1019=
201904170830 METAR LRAR 170830Z 36009KT 320V040 CAVOK 11/05 Q1019=
201904170900 METAR LRAR 170900Z 36010G20KT 330V040 CAVOK 12/04 Q1019=
201904170930 METAR LRAR 170930Z 36011KT 330V040 CAVOK 13/05 Q1019=
201904171000 METAR LRAR 171000Z 03011KT CAVOK 13/05 Q1019=
201904171030 METAR LRAR 171030Z 02010KT 350V060 9999 FEW035 13/05 Q1019=
201904171100 METAR LRAR 171100Z 02011KT 9999 FEW035 14/05 Q1019=
201904171130 METAR LRAR 171130Z 02012KT 350V060 9999 FEW035 BKN040 15/06
                        Q1019=
201904171200 METAR LRAR 171200Z 02012KT 9999 SCT039 BKN043 14/05 Q1019=
201904171230 METAR LRAR 171230Z 04010KT 9999 SCT040 BKN045 14/05 Q1019=
201904171300 METAR LRAR 171300Z 04012KT 360V080 9999 FEW040 SCT045 14/05
                        Q1019=
201904171330 METAR LRAR 171330Z 01009KT 340V050 9999 SCT047 15/05 Q1018=
201904171400 METAR LRAR 171400Z 04006KT 350V100 9999 SCT045 SCT050CB 15/05
                        Q1019=
201904171430 METAR LRAR 171430Z 01008KT 340V050 9999 FEW040 SCT050CB 15/04
                        Q1019=
201904171500 METAR LRAR 171500Z 07014KT 020V100 9999 -SHRA SCT010 BKN040CB
                        14/06 Q1019=
201904171530 METAR LRAR 171530Z 13008KT 9999 VCSH FEW030 SCT045CB 12/09
                        Q1019 RESHRA R09/29//95=
201904171600 METAR LRAR 171600Z 14006KT 9999 SCT033 SCT045CB 12/09 Q1019
                        RESHRA R09/29//95=
201904171630 METAR LRAR 171630Z 15006KT 9999 FEW015 SCT040 11/08 Q1019
                        R09/29//95=
201904171700 METAR LRAR 171700Z 15004KT 9999 FEW012 SCT048 11/08 Q1020
                        R09/29//95=
201904171730 METAR LRAR 171730Z 29003KT 9999 SCT048 10/08 Q1020 R09/29//95=
201904171800 METAR LRAR 171800Z 00000KT CAVOK 11/08 Q1020 R09/29//95=
201904171830 METAR LRAR 171830Z 36005KT CAVOK 10/08 Q1021 R09/29//95=
201904171900 METAR LRAR 171900Z 36008KT 9999 SCT046 11/08 Q1022 R09/29//95=
201904171930 METAR LRAR 171930Z 01006KT 9999 FEW046 10/08 Q1022 R09/29//95=
201904172000 METAR LRAR 172000Z 04003KT 010V080 CAVOK 10/08 Q1022 R09/29//95=
201904172030 METAR LRAR 172030Z VRB01KT CAVOK 09/08 Q1022 R09/29//95=
201904172100 METAR LRAR 172100Z 08001KT CAVOK 08/07 Q1022 R09/29//95=
201904172130 METAR LRAR 172130Z 06002KT CAVOK 08/08 Q1022 R09/29//95=
201904172200 METAR LRAR 172200Z VRB02KT CAVOK 07/07 Q1022 R09/29//95=
201904172230 METAR LRAR 172230Z VRB02KT CAVOK 08/08 Q1022 R09/29//95=
201904172300 METAR LRAR 172300Z 34002KT CAVOK 07/07 Q1022 R09/29//95=
201904172330 METAR LRAR 172330Z 08004KT CAVOK 07/07 Q1022 R09/29//95=
201904180000 METAR LRAR 180000Z 09003KT CAVOK 07/07 Q1023 R09/29//95=
201904180030 METAR LRAR 180030Z 13003KT CAVOK 07/07 Q1023 R09/29//95=
201904180100 METAR LRAR 180100Z 13004KT CAVOK 06/06 Q1023 R09/29//95=
201904180130 METAR LRAR 180130Z VRB02KT CAVOK 06/06 Q1023 R09/29//95=
201904180200 METAR LRAR 180200Z 30001KT 8000 NSC 05/05 Q1023 R09/29//95=
201904180230 METAR COR LRAR 180230Z 00000KT 6000 R27/0800 BCFG NSC 04/04
                        Q1023 R09/29//95=
201904180300 METAR LRAR 180300Z 00000KT 6000 MIFG NSC 04/04 Q1023 R09/29//95=
201904180330 METAR LRAR 180330Z 10002KT 0800 R27/1200 R09/1000 FG NSC
                        03/03 Q1024 R09/29//95=
201904180400 METAR LRAR 180400Z 10002KT 1300 R09/1300 R27/0700 BR NSC
                        05/05 Q1024 R09/29//95=
201904180430 METAR LRAR 180430Z 03003KT 360V070 7000 MIFG NSC 04/04 Q1024
                        R09/29//95=
201904180500 METAR LRAR 180500Z 05003KT 8000 NSC 05/05 Q1025 R09/CLRD//=
201904180530 METAR LRAR 180530Z 08004KT CAVOK 09/07 Q1025=
201904180600 METAR LRAR 180600Z 12006KT CAVOK 10/05 Q1025=
201904180630 METAR LRAR 180630Z 11006KT CAVOK 12/06 Q1026=
201904180700 METAR LRAR 180700Z 11007KT CAVOK 12/06 Q1026=
201904180730 METAR LRAR 180730Z 13006KT CAVOK 13/05 Q1026=
201904180800 METAR LRAR 180800Z 13004KT 080V170 9999 FEW030 14/05 Q1026=
201904180830 METAR LRAR 180830Z 33003KT 250V030 CAVOK 14/05 Q1027=
201904180900 METAR LRAR 180900Z VRB05KT CAVOK 16/04 Q1026=
201904180930 METAR LRAR 180930Z 06007KT 030V110 CAVOK 16/04 Q1027=
201904181000 METAR LRAR 181000Z 05007KT 010V100 CAVOK 16/04 Q1026=
201904181030 METAR LRAR 181030Z 02005KT 350V070 CAVOK 16/05 Q1026=
201904181100 METAR LRAR 181100Z 05009KT 020V100 CAVOK 17/05 Q1026=
201904181130 METAR LRAR 181130Z VRB05KT CAVOK 17/05 Q1026=
201904181200 METAR LRAR 181200Z 08005KT 040V150 CAVOK 18/04 Q1026=
201904181230 METAR LRAR 181230Z 04006KT CAVOK 18/04 Q1026=
201904181300 METAR LRAR 181300Z 05008KT 360V100 CAVOK 18/04 Q1026=
201904181330 METAR LRAR 181330Z 04007KT 350V090 CAVOK 18/05 Q1025=
201904181400 METAR LRAR 181400Z 36006KT 320V080 CAVOK 19/04 Q1025=
201904181430 METAR LRAR 181430Z 02005KT 350V060 9999 FEW050CB 18/06 Q1025=
201904181500 METAR LRAR 181500Z 09013KT 060V120 9999 -SHRA SCT008 BKN050CB
                        15/09 Q1026 RESHRA=
201904181530 METAR LRAR 181530Z 14005KT 9999 -SHRA FEW007 SCT013 BKN030CB
                        13/10 Q1026 RESHRA R09/29//95=
201904181600 METAR LRAR 181600Z 25004KT 9999 FEW010 SCT045CB 13/10 Q1026
                        RESHRA R09/29//95=
201904181630 METAR LRAR 181630Z 23003KT 9999 FEW020 SCT050CB 13/10 Q1026
                        RESHRA R09/29//95=
201904181700 METAR LRAR 181700Z 24004KT 9999 SCT050CB 13/10 Q1026 R09/29//95=
201904181730 METAR LRAR 181730Z 04005KT 9999 -SHRA SCT045CB 12/10 Q1026
                        R09/29//95=
201904181800 METAR LRAR 181800Z 31008KT 9999 -SHRA FEW020 SCT045CB 13/09
                        Q1026 R09/29//95=
201904181830 METAR LRAR 181830Z 06004KT 010V080 9999 FEW050CB 13/09 Q1027
                        R09/29//95=
201904181900 METAR LRAR 181900Z VRB02KT CAVOK 12/10 Q1027 R09/29//95=
201904181930 METAR LRAR 181930Z 13004KT CAVOK 11/09 Q1027 R09/29//95=
201904182000 METAR LRAR 182000Z 15001KT CAVOK 10/09 Q1027 R09/CLRD//=
201904182030 METAR LRAR 182030Z 13003KT 9999 MIFG NSC 10/10 Q1027=
201904182100 METAR LRAR 182100Z 14003KT 9999 MIFG NSC 10/10 Q1027=
201904182130 METAR LRAR 182130Z 15004KT 9999 MIFG NSC 09/09 Q1027=
201904182200 METAR LRAR 182200Z 15001KT 9999 MIFG NSC 08/08 Q1028=
201904182230 METAR LRAR 182230Z 14002KT 9999 MIFG NSC 07/07 Q1028=
201904182300 METAR LRAR 182300Z 18002KT 9999 MIFG NSC 07/07 Q1028=
201904182330 METAR COR LRAR 182330Z VRB01KT 1300 R09/1400 R27/0750 BCFG
                        NSC 06/06 Q1028=
201904190000 METAR LRAR 190000Z 27002KT 9999 MIFG NSC 05/05 Q1027=
201904190030 METAR LRAR 190030Z 00000KT 9999 MIFG NSC 06/06 Q1028=
201904190100 METAR LRAR 190100Z VRB02KT 9999 MIFG NSC 06/06 Q1027=
201904190130 METAR LRAR 190130Z VRB01KT 9999 MIFG NSC 05/05 Q1027=
201904190200 METAR LRAR 190200Z 36002KT 9999 MIFG NSC 05/05 Q1027=
201904190230 METAR LRAR 190230Z VRB01KT 0700 R09/0800 R27/0900D FG NSC
                        04/04 Q1027=
201904190300 METAR LRAR 190300Z 06002KT 1100 R09/1100 R27/0650N BCFG NSC
                        04/04 Q1027=
201904190330 METAR LRAR 190330Z 13001KT 0500 R09/0600 R27/0800D FG NSC
                        04/04 Q1027=
201904190400 METAR LRAR 190400Z VRB01KT 0600 R09/0800 R27/0700U FG NSC
                        03/03 Q1027=
201904190430 METAR LRAR 190430Z 24002KT 0600 R09/0800 R27/0450N FG NSC
                        03/03 Q1027=
201904190500 METAR LRAR 190500Z 25002KT 1500 BR NSC 03/03 Q1028=
201904190530 METAR LRAR 190530Z VRB01KT 5000 MIFG BR NSC 07/07 Q1028=
201904190600 METAR LRAR 190600Z VRB02KT 7000 MIFG NSC 08/08 Q1028=
201904190630 METAR LRAR 190630Z 32004KT 290V350 CAVOK 11/11 Q1028=
201904190700 METAR LRAR 190700Z 32004KT 280V360 CAVOK 13/13 Q1028=
201904190730 METAR LRAR 190730Z 31005KT 270V330 CAVOK 14/14 Q1028=
201904190800 METAR LRAR 190800Z 32006KT 280V360 CAVOK 15/15 Q1028=
201904190830 METAR LRAR 190830Z 34006KT 300V030 CAVOK 16/12 Q1028=
201904190900 METAR LRAR 190900Z 34009KT CAVOK 17/08 Q1027=
201904190930 METAR LRAR 190930Z 35010KT CAVOK 18/05 Q1027=
201904191000 METAR LRAR 191000Z 35009KT 320V020 CAVOK 19/05 Q1027=
201904191030 METAR LRAR 191030Z 01012KT 330V050 9999 FEW045 19/04 Q1026=
201904191100 METAR LRAR 191100Z 02014KT 9999 FEW048 20/03 Q1026=
201904191130 METAR LRAR 191130Z 01011KT 340V040 CAVOK 20/05 Q1025=
201904191200 METAR LRAR 191200Z 36011KT CAVOK 20/03 Q1025=
201904191230 METAR LRAR 191230Z 36012KT 330V050 CAVOK 21/04 Q1025=
201904191300 METAR LRAR 191300Z 35012KT 320V030 CAVOK 21/01 Q1024=
201904191330 METAR LRAR 191330Z 36013KT 320V040 CAVOK 21/00 Q1024=
201904191400 METAR LRAR 191400Z 36015G25KT 320V020 CAVOK 21/M01 Q1024=
201904191430 METAR LRAR 191430Z 01013KT 340V040 CAVOK 21/M01 Q1024=
201904191500 METAR LRAR 191500Z 36016KT 340V040 CAVOK 21/M02 Q1024=
201904191530 METAR LRAR 191530Z 01017KT CAVOK 20/M03 Q1024=
201904191600 METAR LRAR 191600Z 01014G24KT 340V040 CAVOK 20/M03 Q1024=
201904191630 METAR LRAR 191630Z 03013KT CAVOK 19/M03 Q1024=
201904191700 METAR LRAR 191700Z 04010KT CAVOK 18/M04 Q1025=
201904191730 METAR LRAR 191730Z 02008KT CAVOK 16/M04 Q1025=
201904191800 METAR LRAR 191800Z 02006KT CAVOK 14/M03 Q1025=
201904191830 METAR LRAR 191830Z 03009KT CAVOK 14/M02 Q1025=
201904191900 METAR LRAR 191900Z 02007KT CAVOK 12/M02 Q1025=
201904191930 METAR LRAR 191930Z 03009KT CAVOK 12/M02 Q1025=
201904192000 METAR LRAR 192000Z 01009KT CAVOK 11/M01 Q1026=
201904192030 METAR LRAR 192030Z 03010KT CAVOK 12/M03 Q1026=
201904192100 METAR LRAR 192100Z 03011KT CAVOK 11/M02 Q1026=
201904192130 METAR LRAR 192130Z 05009KT CAVOK 11/M03 Q1026=
201904192200 METAR LRAR 192200Z 06007KT CAVOK 09/M02 Q1026=
201904192230 METAR LRAR 192230Z 05008KT CAVOK 08/M02 Q1026=
201904192300 METAR LRAR 192300Z 08004KT 050V110 CAVOK 09/M02 Q1026=
201904192330 METAR LRAR 192330Z 04007KT CAVOK 07/M01 Q1026=
201904200000 METAR LRAR 200000Z 05004KT 360V150 CAVOK 07/M01 Q1026=
201904200030 METAR LRAR 200030Z 07002KT 030V130 CAVOK 06/M02 Q1026=
201904200100 METAR LRAR 200100Z 08005KT CAVOK 08/M02 Q1027=
201904200130 METAR LRAR 200130Z 05004KT 020V080 CAVOK 06/M02 Q1027=
201904200200 METAR LRAR 200200Z 34002KT 300V020 CAVOK 03/M01 Q1027=
201904200230 METAR LRAR 200230Z 01004KT CAVOK 03/M01 Q1027=
201904200300 METAR LRAR 200300Z 34001KT CAVOK 02/M01 Q1027=
201904200330 METAR LRAR 200330Z 34002KT CAVOK 02/M01 Q1027=
201904200400 METAR LRAR 200400Z 00000KT CAVOK 03/M01 Q1027=
201904200430 METAR LRAR 200430Z VRB01KT CAVOK 03/M01 Q1027=
201904200500 METAR LRAR 200500Z 34002KT CAVOK 04/02 Q1028=
201904200530 METAR LRAR 200530Z 00000KT CAVOK 08/03 Q1028=
201904200600 METAR LRAR 200600Z VRB01KT CAVOK 10/03 Q1028=
201904200630 METAR LRAR 200630Z 02002KT CAVOK 13/03 Q1028=
201904200700 METAR LRAR 200700Z 07003KT 360V120 CAVOK 15/01 Q1028=
201904200730 METAR COR LRAR 200730Z 12004KT 080V160 CAVOK 15/M01 Q1028=
201904200800 METAR LRAR 200800Z VRB02KT CAVOK 16/M01 Q1028=
201904200830 METAR LRAR 200830Z 08005KT 030V110 CAVOK 16/M01 Q1028=
201904200900 METAR LRAR 200900Z 10007KT CAVOK 17/M02 Q1028=
201904200930 METAR LRAR 200930Z 05009KT 360V090 CAVOK 17/M03 Q1028=
201904201000 METAR LRAR 201000Z 34008KT 320V020 CAVOK 17/M00 Q1028=
201904201030 METAR LRAR 201030Z 03004KT 320V130 CAVOK 17/01 Q1027=
201904201100 METAR LRAR 201100Z 05006KT 340V120 CAVOK 18/M01 Q1027=
201904201130 METAR LRAR 201130Z 03009KT 350V060 CAVOK 18/M01 Q1027=
201904201200 METAR LRAR 201200Z 03007KT 340V060 CAVOK 19/M02 Q1027=
201904201230 METAR LRAR 201230Z 35006KT 320V050 CAVOK 19/M02 Q1027=
201904201300 METAR LRAR 201300Z 02009KT 330V050 CAVOK 19/M02 Q1026=
201904201330 METAR LRAR 201330Z 03008KT 360V100 CAVOK 19/M02 Q1026=
201904201400 METAR LRAR 201400Z 02006KT CAVOK 19/M03 Q1026=
201904201430 METAR LRAR 201430Z 05008KT 010V090 CAVOK 19/M03 Q1026=
201904201500 METAR LRAR 201500Z 04009KT 010V080 CAVOK 19/M03 Q1025=
201904201530 METAR LRAR 201530Z 04005KT 360V070 CAVOK 19/M02 Q1025=
201904201600 METAR LRAR 201600Z 08006KT 040V100 CAVOK 18/M03 Q1025=
201904201630 METAR LRAR 201630Z 01003KT 340V050 CAVOK 18/M01 Q1025=
201904201700 METAR LRAR 201700Z 07003KT 040V100 CAVOK 17/M03 Q1025=
201904201730 METAR LRAR 201730Z 11002KT CAVOK 15/01 Q1025=
201904201800 METAR LRAR 201800Z 17001KT CAVOK 13/M00 Q1025=
201904201830 METAR LRAR 201830Z 19002KT CAVOK 11/M00 Q1025=
201904201900 METAR LRAR 201900Z 21001KT CAVOK 10/00 Q1025=
201904201930 METAR LRAR 201930Z 15001KT CAVOK 09/01 Q1025=
201904202000 METAR LRAR 202000Z 25004KT CAVOK 07/01 Q1025=
201904202030 METAR LRAR 202030Z VRB02KT CAVOK 08/00 Q1025=
201904202100 METAR LRAR 202100Z VRB02KT CAVOK 08/00 Q1025=
201904202130 METAR LRAR 202130Z 19002KT CAVOK 07/01 Q1025=
201904202200 METAR LRAR 202200Z 13004KT CAVOK 07/00 Q1025=
201904202230 METAR LRAR 202230Z 16001KT CAVOK 07/00 Q1025=
201904202300 METAR LRAR 202300Z 15003KT CAVOK 06/01 Q1024=
201904202330 METAR LRAR 202330Z 16002KT CAVOK 06/M00 Q1024=
201904210000 METAR LRAR 210000Z 15004KT CAVOK 05/00 Q1024=
201904210030 METAR LRAR 210030Z 15005KT CAVOK 06/M01 Q1024=
201904210100 METAR LRAR 210100Z 14005KT CAVOK 06/M00 Q1024=
201904210130 METAR LRAR 210130Z 13006KT CAVOK 05/M00 Q1024=
201904210200 METAR LRAR 210200Z 16004KT CAVOK 05/M01 Q1023=
201904210230 METAR LRAR 210230Z 15006KT CAVOK 04/M00 Q1023=
201904210300 METAR LRAR 210300Z 15007KT CAVOK 04/M00 Q1023=
201904210330 METAR LRAR 210330Z 16007KT CAVOK 04/00 Q1023=
201904210400 METAR LRAR 210400Z 14011KT CAVOK 05/01 Q1023=
201904210430 METAR LRAR 210430Z 15008KT CAVOK 05/01 Q1023=
201904210500 METAR LRAR 210500Z 14010KT CAVOK 06/02 Q1023=
201904210530 METAR LRAR 210530Z 16008KT CAVOK 08/02 Q1023=
201904210600 METAR LRAR 210600Z 17005KT 140V200 CAVOK 09/03 Q1023=
201904210630 METAR LRAR 210630Z 18006KT 150V210 CAVOK 10/03 Q1023=
201904210700 METAR LRAR 210700Z 19009KT CAVOK 12/03 Q1023=
201904210730 METAR LRAR 210730Z 19009KT 160V220 CAVOK 14/04 Q1022=
201904210800 METAR LRAR 210800Z 20011KT CAVOK 15/04 Q1022=
201904210830 METAR LRAR 210830Z 22011KT 190V250 CAVOK 16/04 Q1022=
201904210900 METAR LRAR 210900Z 22011KT CAVOK 18/05 Q1022=
201904210930 METAR LRAR 210930Z 21012KT 190V250 CAVOK 19/04 Q1021=
201904211000 METAR LRAR 211000Z 24012KT CAVOK 20/02 Q1021=
201904211030 METAR LRAR 211030Z 25011KT CAVOK 21/02 Q1021=
201904211100 METAR LRAR 211100Z 30011KT 270V340 CAVOK 21/01 Q1020=
201904211130 METAR LRAR 211130Z 32007KT 290V350 CAVOK 20/01 Q1020=
201904211200 METAR LRAR 211200Z 31010KT 280V340 CAVOK 21/M00 Q1020=
201904211230 METAR LRAR 211230Z 33010KT 300V020 9999 FEW040 20/01 Q1019=
201904211300 METAR LRAR 211300Z 30010KT 270V330 9999 SCT040 22/01 Q1019=
201904211330 METAR LRAR 211330Z 29010KT 9999 SCT045 22/01 Q1019=
201904211400 METAR LRAR 211400Z 29009KT 9999 FEW047 21/01 Q1018=
201904211430 METAR LRAR 211430Z 29007KT 9999 FEW050TCU 20/03 Q1018=
201904211500 METAR LRAR 211500Z 28006KT 9999 FEW050TCU 20/03 Q1018=
201904211530 METAR LRAR 211530Z VRB02KT 9999 SCT020 SCT045CB 21/03 Q1018=
201904211600 METAR LRAR 211600Z VRB02KT 9999 FEW040CB 20/02 Q1017=
201904211630 METAR LRAR 211630Z 02003KT 330V060 9999 FEW040CB 20/03 Q1017=
201904211700 METAR LRAR 211700Z 06004KT 9999 FEW040CB 19/02 Q1017=
201904211730 METAR LRAR 211730Z 10003KT 9999 SCT048 18/01 Q1017=
201904211800 METAR LRAR 211800Z 10006KT 9999 FEW045CB SCT048 17/01 Q1017=
201904211830 METAR LRAR 211830Z 11004KT 9999 SCT046 16/03 Q1017=
201904211900 METAR LRAR 211900Z 08003KT CAVOK 17/M00 Q1017=
201904211930 METAR LRAR 211930Z 12004KT CAVOK 15/02 Q1017=
201904212000 METAR LRAR 212000Z 11003KT CAVOK 14/01 Q1017=
201904212030 METAR LRAR 212030Z 14005KT CAVOK 13/03 Q1017=
201904212100 METAR LRAR 212100Z 14006KT CAVOK 11/03 Q1017=
201904212130 METAR LRAR 212130Z VRB01KT CAVOK 11/03 Q1017=
201904212200 METAR LRAR 212200Z 13003KT CAVOK 11/03 Q1017=
201904212230 METAR LRAR 212230Z 14004KT CAVOK 10/04 Q1017=
201904212300 METAR LRAR 212300Z 20004KT CAVOK 07/03 Q1017=
201904212330 METAR LRAR 212330Z 21003KT CAVOK 08/03 Q1017=
201904220000 METAR LRAR 220000Z 21004KT CAVOK 07/02 Q1016=
201904220030 METAR LRAR 220030Z 17003KT 140V200 CAVOK 08/02 Q1016=
201904220100 METAR LRAR 220100Z 17005KT CAVOK 07/02 Q1016=
201904220130 METAR LRAR 220130Z 16005KT CAVOK 07/02 Q1016=
201904220200 METAR LRAR 220200Z 17005KT CAVOK 08/01 Q1016=
201904220230 METAR LRAR 220230Z 20005KT CAVOK 08/01 Q1016=
201904220300 METAR LRAR 220300Z 19004KT CAVOK 08/01 Q1016=
201904220330 METAR LRAR 220330Z 18004KT CAVOK 08/02 Q1016=
201904220400 METAR LRAR 220400Z 16005KT CAVOK 07/02 Q1016=
201904220430 METAR LRAR 220430Z 15005KT CAVOK 07/02 Q1016=
201904220500 METAR LRAR 220500Z 15006KT CAVOK 08/03 Q1016=
201904220530 METAR LRAR 220530Z 15005KT CAVOK 10/03 Q1016=
201904220600 METAR LRAR 220600Z 15006KT CAVOK 11/04 Q1016=
201904220630 METAR LRAR 220630Z 16007KT CAVOK 12/04 Q1016=
201904220700 METAR LRAR 220700Z 18007KT CAVOK 14/04 Q1016=
201904220730 METAR LRAR 220730Z 17010KT CAVOK 15/04 Q1016=
201904220800 METAR LRAR 220800Z 17011KT CAVOK 17/03 Q1016=
201904220830 METAR LRAR 220830Z 20011KT 170V230 CAVOK 18/03 Q1016=
201904220900 METAR LRAR 220900Z 21011KT CAVOK 19/02 Q1016=
201904220930 METAR LRAR 220930Z 20010KT 150V250 CAVOK 19/00 Q1016=
201904221000 METAR LRAR 221000Z 18010KT CAVOK 20/02 Q1016=
201904221030 METAR LRAR 221030Z 18008KT 150V210 CAVOK 21/03 Q1015=
201904221100 METAR LRAR 221100Z 18011KT 150V220 CAVOK 21/M01 Q1015=
201904221130 METAR LRAR 221130Z 19010KT 160V230 CAVOK 21/01 Q1015=
201904221200 METAR LRAR 221200Z 19010KT CAVOK 21/01 Q1014=
201904221230 METAR LRAR 221230Z 18010KT 160V220 CAVOK 21/00 Q1014=
201904221300 METAR LRAR 221300Z 18009KT 150V210 CAVOK 21/01 Q1014=
201904221330 METAR LRAR 221330Z 12011KT CAVOK 20/04 Q1014=
201904221400 METAR LRAR 221400Z 12013KT CAVOK 20/04 Q1014=
201904221430 METAR LRAR 221430Z 12015KT 9999 FEW040CB 21/04 Q1013=
201904221500 METAR LRAR 221500Z 12014KT 9999 FEW045CB 20/04 Q1013=
201904221530 METAR LRAR 221530Z 12013KT 9999 FEW045CB 20/03 Q1013=
201904221600 METAR LRAR 221600Z 11013KT 9999 FEW045CB 19/04 Q1013=
201904221630 METAR LRAR 221630Z 11014KT CAVOK 18/05 Q1013=
201904221700 METAR LRAR 221700Z 11013KT CAVOK 18/06 Q1013=
201904221730 METAR LRAR 221730Z 12011KT CAVOK 17/05 Q1013=
201904221800 METAR LRAR 221800Z 12011KT CAVOK 16/04 Q1014=
201904221830 METAR LRAR 221830Z 13013KT CAVOK 16/04 Q1014=
201904221900 METAR LRAR 221900Z 12013KT CAVOK 16/04 Q1014=
201904221930 METAR LRAR 221930Z 13014KT CAVOK 15/04 Q1015=
201904222000 METAR LRAR 222000Z 13011KT CAVOK 15/04 Q1015=
201904222030 METAR LRAR 222030Z 12013KT CAVOK 15/04 Q1015=
201904222100 METAR LRAR 222100Z 12013KT CAVOK 14/04 Q1015=
201904222130 METAR LRAR 222130Z 12012KT CAVOK 14/04 Q1015=
201904222200 METAR LRAR 222200Z 13012KT CAVOK 14/05 Q1015=
201904222230 METAR LRAR 222230Z 12013KT CAVOK 13/05 Q1015=
201904222300 METAR LRAR 222300Z 13012KT CAVOK 13/05 Q1015=
201904222330 METAR LRAR 222330Z 14009KT CAVOK 12/05 Q1015=
201904230000 METAR LRAR 230000Z 13010KT CAVOK 12/05 Q1015=
201904230030 METAR LRAR 230030Z 15008KT CAVOK 12/05 Q1015=
201904230100 METAR LRAR 230100Z 14011KT CAVOK 12/05 Q1015=
201904230130 METAR LRAR 230130Z 15009KT CAVOK 11/04 Q1015=
201904230200 METAR LRAR 230200Z 14010KT CAVOK 11/04 Q1015=
201904230230 METAR LRAR 230230Z 14010KT CAVOK 11/04 Q1015=
201904230300 METAR LRAR 230300Z 13008KT CAVOK 11/04 Q1015=
201904230330 METAR LRAR 230330Z 14010KT 9999 -SHRA SCT015 SCT045CB 11/05
                        Q1015=
201904230400 METAR LRAR 230400Z 13013KT 9999 FEW015 SCT045CB 11/05 Q1015=
201904230430 METAR LRAR 230430Z 14011KT 9999 FEW045CB 12/05 Q1016=
201904230500 METAR LRAR 230500Z 14012KT 9999 FEW045CB 12/04 Q1016=
201904230530 METAR LRAR 230530Z 13012KT 9999 FEW050CB 12/04 Q1016=
201904230600 METAR LRAR 230600Z 15011KT 9999 FEW050CB 13/03 Q1017=
201904230630 METAR LRAR 230630Z 16011KT 9999 FEW050CB 14/02 Q1017=
201904230700 METAR LRAR 230700Z 16009KT 9999 FEW049CB 13/03 Q1017=
201904230730 METAR LRAR 230730Z 16010KT 140V200 9999 -SHRA SCT050CB 13/03
                        Q1018=
201904230800 METAR LRAR 230800Z 16010KT 9999 SCT016 FEW040CB 12/06 Q1018=
201904230830 METAR LRAR 230830Z 15015KT 9999 FEW009 FEW040CB 13/06 Q1018=
201904230900 METAR LRAR 230900Z 15013KT 9999 FEW048CB 14/06 Q1018=
201904230930 METAR LRAR 230930Z 16015KT 9999 FEW050CB 13/06 Q1018=
201904231000 METAR LRAR 231000Z 15019KT 9999 FEW050CB 13/06 Q1018=
201904231030 METAR LRAR 231030Z 13020KT 9999 -SHRA SCT045CB 12/06 Q1018=
201904231100 METAR LRAR 231100Z 13018KT 9999 -SHRA SCT011 SCT040CB 11/08
                        Q1018=
201904231130 METAR LRAR 231130Z 12017KT 9999 SCT040CB 12/07 Q1017=
201904231200 METAR LRAR 231200Z 11016KT 9999 SCT045 14/06 Q1017=
201904231230 METAR LRAR 231230Z 12017KT 9999 FEW045 14/06 Q1017=
201904231300 METAR LRAR 231300Z 13015KT 9999 FEW045CB 14/06 Q1017=
201904231330 METAR LRAR 231330Z 12015KT 9999 -SHRA FEW050CB 14/06 Q1016=
201904231400 METAR LRAR 231400Z 12014KT 9999 SCT050CB 13/05 Q1016=
201904231430 METAR LRAR 231430Z 12013KT 9999 SCT050CB 13/05 Q1016=
201904231500 METAR LRAR 231500Z 13013KT 9999 SCT050CB 13/05 Q1016=
201904231530 METAR LRAR 231530Z 12010KT 9999 FEW050CB 13/05 Q1016=
201904231600 METAR LRAR 231600Z 12008KT 9999 -SHRA SCT040CB 13/05 Q1016=
201904231630 METAR LRAR 231630Z 12009KT 9999 SCT040CB 14/05 Q1016=
201904231700 METAR LRAR 231700Z 13012KT 9999 FEW040CB 14/04 Q1016=
201904231730 METAR LRAR 231730Z 13011KT 9999 FEW040CB 14/04 Q1016=
201904231800 METAR LRAR 231800Z 13012KT 9999 FEW040CB 14/03 Q1016=
201904231830 METAR LRAR 231830Z 13012KT 9999 FEW040CB 13/03 Q1017=
201904231900 METAR LRAR 231900Z 14013KT 9999 -SHRA FEW010 SCT040CB 12/05
                        Q1017 R09/19//95=
201904231930 METAR LRAR 231930Z 14013KT 9999 FEW040CB 13/04 Q1017 R09/19//95=
201904232000 METAR LRAR 232000Z 14012KT 9999 -SHRA FEW009 FEW040CB 13/05
                        Q1017 R09/19//95=
201904232030 METAR LRAR 232030Z 14013KT 9999 FEW040CB 13/05 Q1017 R09/19//95=
201904232100 METAR LRAR 232100Z 14012KT CAVOK 13/05 Q1017 R09/19//95=
201904232130 METAR LRAR 232130Z 15011KT CAVOK 13/05 Q1017 R09/19//95=
201904232200 METAR LRAR 232200Z 15011KT 9999 FEW029 12/05 Q1017 R09/19//95=
201904232230 METAR LRAR 232230Z 14009KT 9999 -RA FEW009 SCT019 11/07 Q1017
                        R09/19//95=
201904232300 METAR LRAR 232300Z 13012KT 9999 FEW007 SCT019 11/07 Q1017
                        R09/19//95=
201904232330 METAR LRAR 232330Z 13012KT 9999 FEW009 SCT014 11/07 Q1017
                        R09/19//95=
201904240000 METAR LRAR 240000Z 13012KT 9999 FEW009 SCT016 11/07 Q1016
                        R09/19//95=
201904240030 METAR LRAR 240030Z 14011KT 9999 FEW010 12/06 Q1016 R09/19//95=
201904240100 METAR LRAR 240100Z 14010KT CAVOK 12/06 Q1017 R09/19//95=
201904240130 METAR LRAR 240130Z 14009KT CAVOK 11/06 Q1017 R09/19//95=
201904240200 METAR LRAR 240200Z 15010KT CAVOK 12/06 Q1017 R09/19//95=
201904240230 METAR LRAR 240230Z 14011KT CAVOK 12/06 Q1017 R09/19//95=
201904240300 METAR LRAR 240300Z 14011KT CAVOK 12/06 Q1017 R09/19//95=
201904240330 METAR LRAR 240330Z 15010KT CAVOK 12/06 Q1017 R09/19//95=
201904240400 METAR LRAR 240400Z 15011KT CAVOK 12/06 Q1018 R09/19//95=
201904240430 METAR LRAR 240430Z 14010KT CAVOK 12/06 Q1018 R09/CLRD//=
201904240500 METAR LRAR 240500Z 14009KT CAVOK 12/07 Q1018=
201904240530 METAR LRAR 240530Z 14011KT CAVOK 13/07 Q1019=
201904240600 METAR LRAR 240600Z 14013KT CAVOK 14/07 Q1019=
201904240630 METAR LRAR 240630Z 15011KT CAVOK 15/08 Q1019=
201904240700 METAR LRAR 240700Z 16013KT CAVOK 17/07 Q1019=
201904240730 METAR LRAR 240730Z 17015KT 140V200 CAVOK 17/08 Q1019=
201904240800 METAR LRAR 240800Z 17016KT 140V200 CAVOK 18/08 Q1019=
201904240830 METAR LRAR 240830Z 17015KT CAVOK 18/08 Q1019=
201904240900 METAR LRAR 240900Z 17016KT CAVOK 19/09 Q1019=
201904240930 METAR LRAR 240930Z 17013KT 140V220 CAVOK 20/09 Q1019=
201904241000 METAR LRAR 241000Z 19015KT 160V220 CAVOK 20/08 Q1019=
201904241030 METAR LRAR 241030Z 19013KT 160V230 CAVOK 21/09 Q1019=
201904241100 METAR LRAR 241100Z 18014KT 150V220 CAVOK 21/08 Q1019=
201904241130 METAR LRAR 241130Z 19014KT CAVOK 22/08 Q1019=
201904241200 METAR LRAR 241200Z 18013KT 150V220 CAVOK 23/09 Q1018=
201904241230 METAR LRAR 241230Z 17014KT 140V200 CAVOK 23/08 Q1018=
201904241300 METAR LRAR 241300Z 17014KT CAVOK 23/08 Q1018=
201904241330 METAR LRAR 241330Z 18014KT 140V210 CAVOK 23/08 Q1018=
201904241400 METAR LRAR 241400Z 19013KT 160V220 CAVOK 23/08 Q1017=
201904241430 METAR LRAR 241430Z 16011KT CAVOK 23/08 Q1017=
201904241500 METAR LRAR 241500Z 18012KT 150V220 CAVOK 23/08 Q1017=
201904241530 METAR LRAR 241530Z 16012KT CAVOK 23/08 Q1017=
201904241600 METAR LRAR 241600Z 17011KT CAVOK 23/08 Q1017=
201904241630 METAR LRAR 241630Z 18010KT 150V220 CAVOK 22/08 Q1017=
201904241700 METAR LRAR 241700Z 19007KT CAVOK 21/08 Q1017=
201904241730 METAR LRAR 241730Z 18007KT CAVOK 20/09 Q1017=
201904241800 METAR LRAR 241800Z 15007KT CAVOK 18/09 Q1018=
201904241830 METAR LRAR 241830Z 15007KT CAVOK 17/08 Q1018=
201904241900 METAR LRAR 241900Z 13008KT CAVOK 16/08 Q1018=
201904241930 METAR LRAR 241930Z 14007KT CAVOK 16/08 Q1018=
201904242000 METAR LRAR 242000Z 14008KT CAVOK 16/07 Q1018=
201904242030 METAR LRAR 242030Z 13008KT CAVOK 15/07 Q1018=
201904242100 METAR LRAR 242100Z 14007KT CAVOK 14/07 Q1018=
201904242130 METAR LRAR 242130Z 13007KT CAVOK 14/07 Q1018=
201904242200 METAR LRAR 242200Z 14008KT CAVOK 14/07 Q1018=
201904242230 METAR LRAR 242230Z 14008KT CAVOK 14/08 Q1018=
201904242300 METAR LRAR 242300Z 13007KT CAVOK 15/07 Q1018=
201904242330 METAR LRAR 242330Z 14007KT CAVOK 15/08 Q1018=
201904250000 METAR LRAR 250000Z 15007KT CAVOK 14/08 Q1018=
201904250030 METAR LRAR 250030Z 15008KT CAVOK 14/08 Q1019=
201904250100 METAR LRAR 250100Z 14009KT CAVOK 14/09 Q1019=
201904250130 METAR LRAR 250130Z 15009KT CAVOK 13/08 Q1019=
201904250200 METAR LRAR 250200Z 18005KT CAVOK 12/08 Q1019=
201904250230 METAR LRAR 250230Z 18006KT CAVOK 12/08 Q1019=
201904250300 METAR LRAR 250300Z 17007KT CAVOK 12/08 Q1019=
201904250330 METAR LRAR 250330Z 17006KT CAVOK 12/08 Q1019=
201904250400 METAR LRAR 250400Z 16006KT CAVOK 11/08 Q1020=
201904250430 METAR LRAR 250430Z 15008KT CAVOK 12/08 Q1020=
201904250500 METAR LRAR 250500Z 15008KT CAVOK 13/08 Q1020=
201904250530 METAR LRAR 250530Z 15010KT CAVOK 15/09 Q1020=
201904250600 METAR LRAR 250600Z 15009KT CAVOK 16/09 Q1020=
201904250630 METAR LRAR 250630Z 16009KT CAVOK 18/09 Q1020=
201904250700 METAR LRAR 250700Z 17013KT CAVOK 19/08 Q1020=
201904250730 METAR LRAR 250730Z 18013KT 150V210 CAVOK 19/08 Q1020=
201904250800 METAR LRAR 250800Z 17014KT CAVOK 20/09 Q1020=
201904250830 METAR LRAR 250830Z 19014KT CAVOK 21/09 Q1020=
201904250900 METAR LRAR 250900Z 20013KT 160V220 CAVOK 22/10 Q1020=
201904250930 METAR LRAR 250930Z 21012KT CAVOK 22/10 Q1020=
201904251000 METAR LRAR 251000Z 21012KT CAVOK 23/09 Q1020=
201904251030 METAR LRAR 251030Z 19011KT CAVOK 23/09 Q1020=
201904251100 METAR LRAR 251100Z 18010KT CAVOK 24/09 Q1020=
201904251130 METAR LRAR 251130Z 17012KT 140V210 CAVOK 24/09 Q1020=
201904251200 METAR LRAR 251200Z 19011KT 160V220 CAVOK 24/09 Q1019=
201904251230 METAR LRAR 251230Z 21010KT CAVOK 25/09 Q1019=
201904251300 METAR LRAR 251300Z 18009KT CAVOK 25/08 Q1019=
201904251330 METAR LRAR 251330Z 21009KT CAVOK 25/08 Q1018=
201904251400 METAR LRAR 251400Z 22009KT 180V240 CAVOK 25/08 Q1018=
201904251430 METAR LRAR 251430Z 20009KT 170V230 CAVOK 25/08 Q1018=
201904251500 METAR LRAR 251500Z 21009KT 180V240 CAVOK 25/08 Q1018=
201904251530 METAR LRAR 251530Z 21008KT CAVOK 25/09 Q1018=
201904251600 METAR LRAR 251600Z 18007KT CAVOK 25/09 Q1017=
201904251630 METAR LRAR 251630Z 18006KT CAVOK 24/09 Q1017=
201904251700 METAR LRAR 251700Z 17005KT CAVOK 23/09 Q1017=
201904251730 METAR LRAR 251730Z 15005KT CAVOK 21/10 Q1017=
201904251800 METAR LRAR 251800Z 15006KT CAVOK 20/10 Q1017=
201904251830 METAR LRAR 251830Z 15007KT CAVOK 19/10 Q1017=
201904251900 METAR LRAR 251900Z 15006KT CAVOK 18/10 Q1017=
201904251930 METAR LRAR 251930Z 16007KT CAVOK 17/10 Q1017=
201904252000 METAR LRAR 252000Z 16007KT CAVOK 17/10 Q1017=
201904252030 METAR LRAR 252030Z 18008KT CAVOK 18/09 Q1018=
201904252100 METAR LRAR 252100Z 16008KT CAVOK 18/09 Q1018=
201904252130 METAR LRAR 252130Z 17008KT CAVOK 17/10 Q1018=
201904252200 METAR LRAR 252200Z 15008KT CAVOK 16/10 Q1018=
201904252230 METAR LRAR 252230Z 15007KT CAVOK 14/10 Q1018=
201904252300 METAR LRAR 252300Z 16006KT CAVOK 14/09 Q1018=
201904252330 METAR LRAR 252330Z 16006KT CAVOK 14/09 Q1018=
201904260000 METAR LRAR 260000Z 16007KT CAVOK 13/09 Q1018=
201904260030 METAR LRAR 260030Z 16007KT CAVOK 13/09 Q1017=
201904260100 METAR LRAR 260100Z 15008KT CAVOK 13/09 Q1017=
201904260130 METAR LRAR 260130Z 15009KT CAVOK 13/09 Q1017=
201904260200 METAR LRAR 260200Z 15008KT CAVOK 12/09 Q1017=
201904260230 METAR LRAR 260230Z 15009KT CAVOK 13/09 Q1017=
201904260300 METAR LRAR 260300Z 14009KT CAVOK 12/09 Q1017=
201904260330 METAR LRAR 260330Z 14009KT CAVOK 13/09 Q1017=
201904260400 METAR LRAR 260400Z 14010KT CAVOK 13/09 Q1017=
201904260430 METAR LRAR 260430Z 14010KT CAVOK 14/10 Q1017=
201904260500 METAR LRAR 260500Z 14010KT CAVOK 15/10 Q1017=
201904260530 METAR LRAR 260530Z 14012KT CAVOK 17/10 Q1017=
201904260600 METAR LRAR 260600Z 15011KT CAVOK 18/11 Q1017=
201904260630 METAR LRAR 260630Z 15010KT CAVOK 20/11 Q1017=
201904260700 METAR LRAR 260700Z 16011KT CAVOK 21/11 Q1017=
201904260730 METAR LRAR 260730Z 17012KT 140V210 CAVOK 22/11 Q1017=
201904260800 METAR LRAR 260800Z 18013KT CAVOK 23/11 Q1017=
201904260830 METAR LRAR 260830Z 19013KT 150V210 CAVOK 24/12 Q1017=
201904260900 METAR LRAR 260900Z 19012KT 160V220 CAVOK 24/12 Q1017=
201904260930 METAR LRAR 260930Z 18012KT 140V210 CAVOK 25/13 Q1016=
201904261000 METAR LRAR 261000Z 17013KT 140V210 9999 FEW045 26/11 Q1016=
201904261030 METAR LRAR 261030Z 18012KT 150V210 9999 FEW048 26/11 Q1016=
201904261100 METAR LRAR 261100Z 17011KT 140V200 CAVOK 27/11 Q1015=
201904261130 METAR LRAR 261130Z 18013KT 140V210 CAVOK 27/10 Q1015=
201904261200 METAR LRAR 261200Z 21013KT 160V230 CAVOK 28/08 Q1015=
201904261230 METAR LRAR 261230Z 19011KT 140V220 CAVOK 28/10 Q1014=
201904261300 METAR LRAR 261300Z 19010KT 160V230 CAVOK 27/10 Q1014=
201904261330 METAR LRAR 261330Z 19010KT CAVOK 27/08 Q1014=
201904261400 METAR LRAR 261400Z 18010KT CAVOK 27/08 Q1013=
201904261430 METAR LRAR 261430Z 18009KT CAVOK 27/08 Q1013=
201904261500 METAR LRAR 261500Z 18009KT CAVOK 26/10 Q1013=
201904261530 METAR LRAR 261530Z 16009KT 140V200 CAVOK 26/10 Q1013=
201904261600 METAR LRAR 261600Z 16008KT CAVOK 26/11 Q1012=
201904261630 METAR LRAR 261630Z 15006KT CAVOK 25/11 Q1012=
201904261700 METAR LRAR 261700Z 15007KT CAVOK 24/11 Q1012=
201904261730 METAR LRAR 261730Z 15006KT CAVOK 23/12 Q1012=
201904261800 METAR LRAR 261800Z 15008KT CAVOK 21/12 Q1012=
201904261830 METAR LRAR 261830Z 15008KT CAVOK 21/11 Q1012=
201904261900 METAR LRAR 261900Z 15008KT CAVOK 19/11 Q1012=
201904261930 METAR LRAR 261930Z 14009KT CAVOK 19/11 Q1012=
201904262000 METAR LRAR 262000Z 14009KT CAVOK 19/11 Q1012=
201904262030 METAR LRAR 262030Z 14010KT CAVOK 18/11 Q1012=
201904262100 METAR LRAR 262100Z 14008KT CAVOK 18/10 Q1012=
201904262130 METAR LRAR 262130Z 13009KT CAVOK 18/09 Q1012=
201904262200 METAR LRAR 262200Z 13009KT CAVOK 18/09 Q1012=
201904262230 METAR LRAR 262230Z 13007KT CAVOK 18/10 Q1011=
201904262300 METAR LRAR 262300Z 29007KT CAVOK 19/10 Q1013=
201904262330 METAR LRAR 262330Z 28003KT 200V300 CAVOK 16/11 Q1012=
201904270000 METAR LRAR 270000Z 18004KT 150V220 CAVOK 16/12 Q1012=
201904270030 METAR LRAR 270030Z 19006KT CAVOK 17/12 Q1012=
201904270100 METAR LRAR 270100Z 15006KT CAVOK 16/11 Q1012=
201904270130 METAR LRAR 270130Z 15004KT CAVOK 15/11 Q1012=
201904270200 METAR LRAR 270200Z VRB02KT CAVOK 14/10 Q1012=
201904270230 METAR LRAR 270230Z 00000KT CAVOK 13/11 Q1012=
201904270300 METAR LRAR 270300Z 13003KT 9999 FEW050CB 13/11 Q1012=
201904270330 METAR LRAR 270330Z VRB01KT CAVOK 14/11 Q1012=
201904270400 METAR LRAR 270400Z 36003KT 300V090 9999 SCT040CB 13/11 Q1012=
201904270430 METAR LRAR 270430Z 28006KT 9999 -SHRA SCT040CB 14/12 Q1012=
201904270500 METAR LRAR 270500Z 02004KT 340V060 9999 -SHRA FEW007 SCT040CB
                        15/12 Q1013 R09/19//95=
201904270530 METAR LRAR 270530Z 30005KT 9999 SCT040CB 16/13 Q1013 R09/19//95=
201904270600 METAR LRAR 270600Z 35006KT 9999 FEW005 SCT011 SCT040CB 16/14
                        Q1012 R09/19//95=
201904270630 METAR LRAR 270630Z 34005KT 9999 FEW009 FEW045CB 16/14 Q1012
                        R09/19//95=
201904270700 METAR LRAR 270700Z 30007KT 9999 FEW045CB 17/14 Q1013 R09/19//95=
201904270730 METAR LRAR 270730Z 36005KT 320V050 9999 SCT020 17/14 Q1013
                        R09/19//95=
201904270800 METAR LRAR 270800Z 02006KT 340V050 9999 FEW030 18/14 Q1013
                        R09/19//95=
201904270830 METAR LRAR 270830Z 01006KT 310V050 9999 FEW030 19/13 Q1013
                        R09/19//95=
201904270900 METAR LRAR 270900Z 36005KT 310V040 9999 -SHRA FEW030 SCT035CB
                        19/12 Q1013 R09/19//95=
201904270930 METAR LRAR 270930Z 06004KT 020V090 9999 SCT012 BKN040CB 19/13
                        Q1013 R09/19//95=
201904271000 METAR LRAR 271000Z 05004KT 9999 BKN035CB 19/13 Q1012 R09/19//95=
201904271030 METAR LRAR 271030Z 31009KT 9999 BKN030CB 18/15 Q1012 R09/19//95=
201904271100 METAR LRAR 271100Z 32009KT 9999 FEW027 SCT033CB 19/15 Q1012
                        R09/CLRD//=
201904271130 METAR LRAR 271130Z 33005KT 9999 FEW017 SCT035CB 18/15 Q1012=
201904271200 METAR LRAR 271200Z 33009KT 9999 FEW005 SCT035CB 19/15 Q1012=
201904271230 METAR LRAR 271230Z 34006KT 300V020 9999 SCT019 BKN030CB 18/15
                        Q1011=
201904271300 METAR LRAR 271300Z 32014KT 8000 SHRA FEW012 SCT018 BKN025CB
                        16/14 Q1011=
201904271330 METAR LRAR 271330Z 28019KT 2000 +TSRA SCT009 BKN011 OVC025CB
                        13/13 Q1012 R09/29//95=
201904271400 METAR LRAR 271400Z 30017KT 9999 TS FEW004 BKN009 SCT035CB
                        13/13 Q1011 RESHRA R09/29//95=
201904271430 METAR LRAR 271430Z 29013KT 9999 FEW006 SCT040CB 14/12 Q1011
                        RETSRA R09/29//95=
201904271500 METAR LRAR 271500Z 31008KT 9999 SCT040CB 14/12 Q1011 RETS
                        R09/29//95=
201904271530 METAR LRAR 271530Z 29004KT 260V320 9999 FEW045CB 14/11 Q1011
                        R09/29//95=
201904271600 METAR LRAR 271600Z 10005KT 9999 FEW045CB 15/11 Q1010 R09/19//95=
201904271630 METAR LRAR 271630Z 24009KT 170V280 9999 FEW045CB 14/12 Q1011
                        R09/19//95=
201904271700 METAR LRAR 271700Z 28012KT 9999 FEW010 SCT015 BKN025 13/12
                        Q1012 R09/19//95=
201904271730 METAR LRAR 271730Z 29006KT 9999 FEW012 SCT018 13/12 Q1012
                        R09/19//95=
201904271800 METAR LRAR 271800Z 29003KT 9999 FEW018 12/11 Q1012 R09/19//95=
201904271830 METAR COR LRAR 271830Z 21003KT 6000 NSC 11/11 Q1012 R09/19//95=
201904271900 METAR LRAR 271900Z 17003KT 6000 NSC 10/10 Q1013 R09/19//95=
201904271930 METAR LRAR 271930Z 19004KT 7000 SCT028 11/11 Q1013 R09/19//95=
201904272000 METAR LRAR 272000Z 20004KT 8000 BKN030 11/11 Q1013 R09/19//95=
201904272030 METAR LRAR 272030Z 22005KT 8000 BKN033 12/12 Q1013 R09/19//95=
201904272100 METAR LRAR 272100Z 22006KT 7000 OVC036 12/12 Q1013 R09/19//95=
201904272130 METAR LRAR 272130Z 24005KT 8000 BKN037 12/11 Q1012 R09/CLRD//=
201904272200 METAR LRAR 272200Z 23006KT 8000 NSC 11/11 Q1012=
201904272230 METAR LRAR 272230Z 24006KT 8000 NSC 11/11 Q1012=
201904272300 METAR LRAR 272300Z 24010KT 7000 NSC 12/12 Q1012=
201904272330 METAR LRAR 272330Z 24008KT 7000 BKN047 12/12 Q1012=
201904280000 METAR LRAR 280000Z 23006KT 7000 BKN046 12/12 Q1012=
201904280030 METAR LRAR 280030Z 25007KT 9999 BKN046 11/11 Q1012=
201904280100 METAR LRAR 280100Z 25007KT 9999 BKN048 11/10 Q1011=
201904280130 METAR LRAR 280130Z 23007KT CAVOK 11/10 Q1012=
201904280200 METAR LRAR 280200Z 23007KT CAVOK 10/10 Q1012=
201904280230 METAR LRAR 280230Z 23008KT CAVOK 10/10 Q1011=
201904280300 METAR LRAR 280300Z 23008KT CAVOK 10/09 Q1011=
201904280330 METAR LRAR 280330Z 23007KT CAVOK 10/09 Q1011=
201904280400 METAR LRAR 280400Z 24007KT CAVOK 10/08 Q1011=
201904280430 METAR LRAR 280430Z 24007KT CAVOK 10/08 Q1011=
201904280500 METAR LRAR 280500Z 25009KT CAVOK 11/08 Q1012=
201904280530 METAR LRAR 280530Z 25010KT CAVOK 12/08 Q1012=
201904280600 METAR LRAR 280600Z 26013KT CAVOK 12/08 Q1012=
201904280630 METAR COR LRAR 280630Z 26008KT9999 FEW015 12/09 Q1012=
201904280700 METAR LRAR 280700Z 27013KT 9999 FEW018 SCT040 12/08 Q1012=
201904280730 METAR LRAR 280730Z 28011KT 9999 FEW020 SCT035 12/09 Q1012=
201904280800 METAR LRAR 280800Z 28011KT 9999 SCT020 12/09 Q1012=
201904280830 METAR LRAR 280830Z 29011KT 9999 BKN017 11/09 Q1012=
201904280900 METAR LRAR 280900Z 28009KT 8000 FEW010 BKN015 11/09 Q1012=
201904280930 METAR LRAR 280930Z 27009KT 2000 -RA BR SCT003 BKN008 BKN014
                        10/10 Q1012 R09/29//95=
201904281000 METAR LRAR 281000Z 25009KT 3700 -RA BR SCT006 BKN009 10/10
                        Q1012 R09/29//95=
201904281030 METAR LRAR 281030Z 28013KT 7000 -RA SCT007 BKN011 11/11 Q1013
                        R09/29//95=
201904281100 METAR LRAR 281100Z 29014KT 9000 -RA FEW006 BKN009 BKN018
                        12/11 Q1013 R09/29//95=
201904281130 METAR LRAR 281130Z 30011KT 9999 FEW007 SCT012 BKN019 12/11
                        Q1013 R09/29//95=
201904281200 METAR LRAR 281200Z 30013KT 9999 FEW008 SCT017 BKN030 13/10
                        Q1013 R09/29//95=
201904281230 METAR LRAR 281230Z 30011KT 9999 FEW010 SCT014 OVC030 12/11
                        Q1013 R09/29//95=
201904281300 METAR LRAR 281300Z 30011KT 7000 -RA BKN012 OVC040 11/10 Q1013
                        R09/29//95=
201904281330 METAR LRAR 281330Z 30009KT 8000 -RA BKN012 OVC040 11/11 Q1013
                        R09/29//95=
201904281400 METAR LRAR 281400Z 30008KT 6000 RA SCT010 BKN013 OVC040 11/11
                        Q1013 R09/29//95=
201904281430 METAR LRAR 281430Z 30009KT 7000 -RA BKN011 OVC048 11/11 Q1013
                        RERA R09/29//95=
201904281500 METAR LRAR 281500Z 29009KT 7000 -RA SCT008 BKN010 11/11 Q1013
                        RERA R09/29//95=
201904281530 METAR LRAR 281530Z 30006KT 8000 -RA FEW006 BKN012 11/11 Q1012
                        R09/29//95=
201904281600 METAR LRAR 281600Z 31007KT 8000 -RA FEW006 BKN014 11/11 Q1012
                        R09/29//95=
201904281630 METAR LRAR 281630Z 32004KT 7000 -RA SCT007 BKN011 11/11 Q1012
                        R09/29//95=
201904281700 METAR LRAR 281700Z 31004KT 8000 -RA FEW006 SCT008 OVC011
                        11/11 Q1012 R09/29//95=
201904281730 METAR LRAR 281730Z 29003KT 8000 -RA FEW005 SCT007 OVC012
                        11/11 Q1012 R09/29//95=
201904281800 METAR LRAR 281800Z 23003KT 6000 -RA FEW005 BKN008 OVC010
                        11/11 Q1013 R09/29//95=
201904281830 METAR LRAR 281830Z 27004KT 6000 -DZ FEW002 SCT004 BKN009
                        11/11 Q1013 R09/29//95=
201904281900 METAR LRAR 281900Z 30002KT 7000 SCT004 BKN012 BKN039 11/11
                        Q1013 R09/29//95=
201904281930 METAR LRAR 281930Z 28002KT 7000 SCT020 BKN040 11/11 Q1013
                        R09/29//95=
201904282000 METAR LRAR 282000Z 21002KT 6000 FEW010 BKN043 11/11 Q1013
                        R09/29//95=
201904282030 METAR LRAR 282030Z 22003KT 6000 FEW016 SCT032 10/10 Q1013
                        R09/29//95=
201904282100 METAR LRAR 282100Z 24003KT 5000 BR FEW006 SCT013 OVC017 10/10
                        Q1013 R09/29//95=
201904282130 METAR LRAR 282130Z 31003KT 270V010 5000 BR FEW002 SCT005
                        OVC020 11/11 Q1013 R09/29//95=
201904282200 METAR LRAR 282200Z 33002KT 8000 SCT020 BKN025 10/10 Q1013
                        R09/29//95=
201904282230 METAR LRAR 282230Z 01003KT 9999 FEW028 10/10 Q1013 R09/29//95=
201904282300 METAR LRAR 282300Z 30002KT 9999 SCT014 10/10 Q1013 R09/29//95=
201904282330 METAR LRAR 282330Z 00000KT 9999 SCT015 BKN024 10/10 Q1013
                        R09/29//95=
201904290000 METAR LRAR 290000Z 00000KT CAVOK 10/10 Q1013 R09/29//95=
201904290030 METAR LRAR 290030Z 29002KT CAVOK 09/09 Q1012 R09/29//95=
201904290100 METAR LRAR 290100Z 20002KT 9999 FEW009 SCT015 10/10 Q1012
                        R09/29//95=
201904290130 METAR LRAR 290130Z 25001KT 9999 SCT009 OVC014 10/10 Q1012
                        R09/29//95=
201904290200 METAR LRAR 290200Z 36002KT 9999 SCT009 BKN016 OVC020 10/10
                        Q1012 R09/29//95=
201904290230 METAR LRAR 290230Z VRB01KT 8000 SCT008 OVC012 10/10 Q1012
                        R09/29//95=
201904290300 METAR LRAR 290300Z 35001KT 6000 SCT007 BKN020 BKN045 10/10
                        Q1012 R09/29//95=
201904290330 METAR LRAR 290330Z 02002KT 8000 FEW005 BKN008 BKN046 10/10
                        Q1012 R09/29//95=
201904290400 METAR LRAR 290400Z VRB02KT 8000 FEW006 BKN010 BKN030 10/10
                        Q1012 R09/29//95=
201904290430 METAR LRAR 290430Z 03003KT 350V060 8000 FEW004 BKN007 BKN013
                        10/10 Q1012 R09/19//95=
201904290500 METAR LRAR 290500Z 05005KT 8000 -DZ FEW005 BKN008 OVC012
                        10/10 Q1012 R09/19//95=
201904290530 METAR LRAR 290530Z 05005KT 4000 BR RA FEW005 BKN008 BKN010
                        10/10 Q1012 R09/29//95=
201904290600 METAR LRAR 290600Z 05004KT 020V080 4000 -RA BR FEW004 BKN006
                        BKN010 10/10 Q1012 RERA R09/29//95=
201904290630 METAR LRAR 290630Z 18003KT 090V220 3000 RA BR SCT002 BKN004
                        OVC006 10/10 Q1012 R09/29//95=
201904290700 METAR LRAR 290700Z 19005KT 2500 -RA BR FEW003 BKN004 OVC008
                        10/10 Q1012 RERA R09/29//95=
201904290730 METAR LRAR 290730Z 18005KT 160V220 2000 -DZ BR FEW002 BKN004
                        OVC006 10/10 Q1012 R09/29//95=
201904290800 METAR LRAR 290800Z 21004KT 3000 -DZ BR FEW003 BKN006 OVC010
                        10/10 Q1012 R09/29//95=
201904290830 METAR LRAR 290830Z 19005KT 150V230 7000 SCT005 SCT012 BKN017
                        11/11 Q1012 R09/29//95=
201904290900 METAR LRAR 290900Z 20005KT 170V230 9999 FEW008 SCT013 BKN026
                        12/11 Q1012 R09/29//95=
201904290930 METAR LRAR 290930Z 25005KT 220V280 9999 FEW010 SCT020 BKN034
                        13/11 Q1012 R09/29//95=
201904291000 METAR LRAR 291000Z 25004KT 9999 FEW014 SCT021 BKN030 13/10
                        Q1012 R09/29//95=
201904291030 METAR LRAR 291030Z VRB03KT 9999 SCT030 14/09 Q1012 R09/29//95=
201904291100 METAR LRAR 291100Z VRB03KT 9999 FEW023 SCT035 14/10 Q1012
                        R09/29//95=
201904291130 METAR COR LRAR 291130Z 31003KT 210V350 9999 SCT030 SCT040
                        15/10 Q1011 R09/29//95=
201904291200 METAR LRAR 291200Z 31004KT 260V010 9999 SCT025 15/10 Q1011
                        R09/29//95=
201904291230 METAR LRAR 291230Z VRB02KT 9999 SCT035 16/09 Q1011 R09/29//95=
201904291300 METAR LRAR 291300Z 34003KT 300V050 9999 SCT040 16/09 Q1010
                        R09/29//95=
201904291330 METAR LRAR 291330Z VRB03KT 9999 FEW045 16/09 Q1010 R09/29//95=
201904291400 METAR LRAR 291400Z 26003KT 190V350 9999 FEW035 16/08 Q1010
                        R09/29//95=
201904291430 METAR LRAR 291430Z VRB03KT 9999 FEW040 17/09 Q1010 R09/29//95=
201904291500 METAR LRAR 291500Z VRB03KT 9999 FEW045 17/10 Q1010 R09/CLRD//=
201904291530 METAR LRAR 291530Z 34004KT 310V010 9999 FEW040 17/09 Q1010=
201904291600 METAR LRAR 291600Z 34004KT 9999 FEW035 SCT048 16/09 Q1009=
201904291630 METAR LRAR 291630Z 01005KT 9999 FEW035 15/09 Q1009=
201904291700 METAR LRAR 291700Z 36004KT 9999 FEW035 15/10 Q1009=
201904291730 METAR COR LRAR 291730Z 35003KT 9999 FEW035 14/11 Q1010=
201904291800 METAR LRAR 291800Z 01003KT CAVOK 13/11 Q1010=
201904291830 METAR LRAR 291830Z 36006KT CAVOK 13/11 Q1010=
201904291900 METAR LRAR 291900Z 36004KT 330V030 CAVOK 13/11 Q1010=
201904291930 METAR LRAR 291930Z 01005KT CAVOK 13/11 Q1010=
201904292000 METAR LRAR 292000Z 02005KT 340V050 CAVOK 13/10 Q1010=
201904292030 METAR LRAR 292030Z 04006KT CAVOK 13/10 Q1010=
201904292100 METAR LRAR 292100Z 03004KT 350V050 CAVOK 12/10 Q1010=
201904292130 METAR LRAR 292130Z 34002KT CAVOK 12/10 Q1010=
201904292200 METAR LRAR 292200Z VRB02KT CAVOK 11/11 Q1010=
201904292230 METAR LRAR 292230Z VRB01KT CAVOK 11/11 Q1010=
201904292300 METAR LRAR 292300Z 34002KT CAVOK 11/10 Q1010=
201904292330 METAR LRAR 292330Z 34001KT CAVOK 11/10 Q1009=
201904300000 METAR LRAR 300000Z 36002KT CAVOK 11/11 Q1009=
201904300030 METAR LRAR 300030Z 32004KT CAVOK 10/10 Q1009=
201904300100 METAR LRAR 300100Z 07002KT CAVOK 10/10 Q1009=
201904300130 METAR LRAR 300130Z 33002KT CAVOK 10/10 Q1009=
201904300200 METAR LRAR 300200Z 33003KT CAVOK 10/10 Q1009=
201904300230 METAR LRAR 300230Z VRB01KT CAVOK 10/10 Q1008=
201904300300 METAR LRAR 300300Z VRB02KT CAVOK 10/10 Q1008=
201904300330 METAR LRAR 300330Z VRB01KT CAVOK 10/10 Q1008=
201904300400 METAR LRAR 300400Z 05004KT CAVOK 10/09 Q1008=
201904300430 METAR LRAR 300430Z 03002KT CAVOK 10/09 Q1008=
201904300500 METAR LRAR 300500Z 34003KT CAVOK 10/09 Q1008=
201904300530 METAR LRAR 300530Z 33002KT 300V010 9999 -RA NSC 10/10 Q1008=
201904300600 METAR LRAR 300600Z 32002KT 280V350 9999 -RA NSC 11/10 Q1008=
201904300630 METAR LRAR 300630Z VRB01KT CAVOK 11/10 Q1008=
201904300700 METAR LRAR 300700Z VRB01KT 9999 FEW008 12/10 Q1008=
201904300730 METAR LRAR 300730Z 24002KT 130V280 9999 -RA FEW007 SCT009
                        BKN038 12/11 Q1008=
201904300800 METAR LRAR 300800Z 21004KT 180V240 9999 -RA SCT007 SCT009
                        12/11 Q1008=
201904300830 METAR LRAR 300830Z 22005KT 9999 -RA SCT007 BKN010 12/11 Q1008
                        R09/19//95=
201904300900 METAR LRAR 300900Z 25005KT 7000 -RA FEW006 SCT008 BKN011
                        12/11 Q1008 R09/19//95=
201904300930 METAR LRAR 300930Z 24005KT 8000 -RA SCT005 BKN007 12/11 Q1007
                        R09/19//95=
201904301000 METAR LRAR 301000Z 27006KT 8000 -RA SCT005 BKN010 12/12 Q1007
                        R09/29//95=
201904301030 METAR LRAR 301030Z 22005KT 8000 -RA FEW005 BKN010 12/12 Q1007
                        R09/29//95=
201904301100 METAR LRAR 301100Z 24004KT 220V280 8000 -SHRA BKN008 SCT030CB
                        12/12 Q1007 R09/29//95=
201904301130 METAR LRAR 301130Z 27004KT 8000 -SHRA BKN007 SCT030CB 12/12
                        Q1007 R09/29//95=
201904301200 METAR LRAR 301200Z 22004KT 140V260 9999 -SHRA BKN007 SCT030CB
                        12/12 Q1007 R09/29//95=
201904301230 METAR LRAR 301230Z 25003KT 9999 BKN009 FEW030CB 12/11 Q1007
                        R09/29//95=
201904301300 METAR LRAR 301300Z 29006KT 9999 -SHRA BKN009 SCT030CB 12/12
                        Q1007 R09/29//95=
201904301330 METAR LRAR 301330Z 29008KT 9999 -SHRA BKN006 SCT027CB 12/11
                        Q1006 R09/29//95=
201904301400 METAR LRAR 301400Z 29009KT 9999 -SHRA SCT008 SCT030CB 12/12
                        Q1006 R09/29//95=
201904301430 METAR LRAR 301430Z 29009KT 9999 -SHRA SCT009 SCT030CB 12/11
                        Q1006 R09/29//95=
201904301500 METAR LRAR 301500Z 29009KT 9999 -SHRA SCT009 SCT030CB OVC049
                        12/11 Q1006 R09/29//95=
201904301530 METAR LRAR 301530Z 29008KT 9999 BKN008 FEW030CB 12/11 Q1006
                        R09/29//95=
201904301600 METAR LRAR 301600Z 28008KT 9999 FEW035CB BKN040 11/10 Q1006
                        R09/29//95=
201904301630 METAR LRAR 301630Z 27007KT 9999 -SHRA FEW009 SCT025CB BKN035
                        11/11 Q1006 R09/29//95=
201904301700 METAR LRAR 301700Z 27008KT 8000 -SHRA FEW010 SCT025CB BKN035
                        11/11 Q1006 RESHRA R09/29//95=
201904301730 METAR LRAR 301730Z 26009KT 9000 -SHRA FEW015 SCT030CB BKN040
                        11/11 Q1006 RESHRA R09/29//95=
201904301800 METAR LRAR 301800Z 27008KT 3000 SHRA SCT015 BKN030CB BKN045
                        11/11 Q1006 R09/29//95=
201904301830 METAR LRAR 301830Z 26009KT 8000 -SHRA FEW007 SCT040CB 11/11
                        Q1006 RESHRA R09/29//95=
201904301900 METAR LRAR 301900Z 27009KT 8000 FEW008 BKN030 11/11 Q1006
                        RESHRA R09/29//95=
201904301930 METAR LRAR 301930Z 27011KT 9999 FEW025 SCT040 11/11 Q1006
                        R09/29//95=
201904302000 METAR LRAR 302000Z 25010KT 9999 SCT040 11/11 Q1005 R09/29//95=
201904302030 METAR LRAR 302030Z 26009KT 9999 -RA SCT018 BKN035 11/11 Q1005
                        R09/29//95=
201904302100 METAR LRAR 302100Z 25008KT 9999 -RA FEW010 BKN031 11/11 Q1005
                        R09/29//95=
201904302130 METAR LRAR 302130Z 27011KT 7000 SHRA SCT020 SCT035CB 11/11
                        Q1005 R09/29//95=
201904302200 METAR LRAR 302200Z 28012KT 7000 -SHRA FEW005 BKN015 BKN035CB
                        11/11 Q1005 RESHRA R09/29//95=
201904302230 METAR LRAR 302230Z 28011KT 8000 FEW006 BKN015 BKN020 11/11
                        Q1004 RESHRA R09/29//95=
201904302300 METAR LRAR 302300Z 28011KT 7000 -RA FEW006 SCT016 BKN025
                        11/11 Q1004 R09/29//95=
201904302330 METAR LRAR 302330Z 28011KT 6000 -RA SCT006 BKN011 BKN030
                        11/11 Q1004 R09/29//95=