201906010000 METAR LRAR 010000Z 36007KT 9999 -RA FEW009 SCT023 BKN045
                        16/15 Q1017 R09/29//95=
201906010030 METAR LRAR 010030Z 01008KT 340V040 9999 SCT025 BKN046 16/15
                        Q1017 R09/29//95=
201906010100 METAR LRAR 010100Z 01008KT 9999 FEW033 SCT048 15/15 Q1017
                        R09/29//95=
201906010130 METAR LRAR 010130Z 03006KT 360V060 CAVOK 15/15 Q1016 R09/29//95=
201906010200 METAR LRAR 010200Z 03005KT CAVOK 15/14 Q1016 R09/29//95=
201906010230 METAR LRAR 010230Z 02006KT CAVOK 15/14 Q1016 R09/29//95=
201906010300 METAR LRAR 010300Z 02003KT 330V080 CAVOK 15/14 Q1016 R09/29//95=
201906010330 METAR LRAR 010330Z 03003KT 360V060 CAVOK 15/14 Q1016 R09/29//95=
201906010400 METAR LRAR 010400Z 02006KT 340V050 CAVOK 15/14 Q1016 R09/29//95=
201906010430 METAR LRAR 010430Z 03005KT 350V060 9999 -RA FEW007 15/15
                        Q1016 R09/29//95=
201906010500 METAR LRAR 010500Z 04005KT 360V070 9999 BKN009 16/15 Q1016
                        R09/CLRD//=
201906010530 METAR LRAR 010530Z 03006KT 350V050 9999 SCT007 BKN009 16/16
                        Q1016=
201906010600 METAR LRAR 010600Z 04006KT 360V070 9999 BKN008 16/16 Q1016=
201906010630 METAR LRAR 010630Z 05006KT 010V080 9999 SCT007 17/16 Q1016=
201906010700 METAR LRAR 010700Z 06004KT 030V100 9999 SCT007 17/17 Q1016=
201906010730 METAR LRAR 010730Z 07004KT 020V100 9999 FEW008 SCT010 18/17
                        Q1017=
201906010800 METAR LRAR 010800Z 04005KT 9999 -RA FEW008 BKN010 18/17 Q1017=
201906010830 METAR LRAR 010830Z 02004KT 340V070 9999 -RA FEW007 BKN012
                        18/17 Q1017 R09/19//95=
201906010900 METAR LRAR 010900Z 04006KT 350V080 9999 FEW009 BKN011 18/17
                        Q1017 R09/19//95=
201906010930 METAR LRAR 010930Z 06005KT 030V090 9999 FEW010 SCT014 BKN047
                        19/17 Q1017 R09/19//95=
201906011000 METAR LRAR 011000Z 06004KT 010V090 9999 FEW012 SCT020 BKN044
                        19/17 Q1017 R09/19//95=
201906011030 METAR LRAR 011030Z 06004KT 360V080 9999 SCT013 BKN045 19/17
                        Q1017 R09/19//95=
201906011100 METAR LRAR 011100Z 10004KT 070V130 9999 FEW020 BKN038 20/17
                        Q1017 R09/19//95=
201906011130 METAR LRAR 011130Z VRB02KT 9999 FEW018 BKN045 21/16 Q1017
                        R09/19//95=
201906011200 METAR LRAR 011200Z 13003KT 070V170 9999 FEW018 SCT045 21/16
                        Q1017 R09/CLRD//=
201906011230 METAR LRAR 011230Z 14006KT 9999 FEW018 SCT045 20/16 Q1017=
201906011300 METAR LRAR 011300Z 16007KT 9999 FEW015 SCT040 19/17 Q1017=
201906011330 METAR LRAR 011330Z 16006KT 9999 FEW011 SCT040 18/17 Q1017=
201906011400 METAR LRAR 011400Z 15005KT 9999 FEW010 SCT045 18/15 Q1016=
201906011430 METAR LRAR 011430Z 18004KT 9999 SCT045 18/17 Q1016=
201906011500 METAR LRAR 011500Z VRB02KT 9999 -SHRA FEW012 SCT040CB 19/16
                        Q1016=
201906011530 METAR LRAR 011530Z VRB02KT 9999 SCT048 18/17 Q1016=
201906011600 METAR LRAR 011600Z 19003KT 150V230 9999 -SHRA FEW010 SCT035CB
                        18/17 Q1016 R09/19//95=
201906011630 METAR LRAR 011630Z VRB01KT 9999 -SHRA FEW012 SCT028 BKN035CB
                        18/16 Q1016 R09/19//95=
201906011700 METAR LRAR 011700Z 18003KT 9999 SCT010 SCT040CB 18/17 Q1016
                        RESHRA R09/29//95=
201906011730 METAR LRAR 011730Z 18002KT 9999 FEW015 SCT040 FEW050CB 17/17
                        Q1016 RESHRA R09/29//95=
201906011800 METAR LRAR 011800Z 19001KT 9999 FEW050CB 17/17 Q1016 R09/29//95=
201906011830 METAR LRAR 011830Z 29003KT 9999 FEW035 16/16 Q1017 R09/29//95=
201906011900 METAR LRAR 011900Z 00000KT 9999 MIFG FEW030 SCT040 16/16
                        Q1017 R09/29//95=
201906011930 METAR LRAR 011930Z 31001KT 9999 FEW020 SCT035 16/16 Q1017
                        R09/29//95=
201906012000 METAR LRAR 012000Z VRB02KT 9999 MIFG NSC 16/16 Q1017 R09/29//95=
201906012030 METAR LRAR 012030Z 00000KT 3000 BR FEW001 SCT003 16/16 Q1017
                        R09/29//95=
201906012100 METAR LRAR 012100Z 22002KT 3500 BR SCT003 16/16 Q1017 R09/29//95=
201906012130 METAR LRAR 012130Z 13002KT 3000 BR NSC 16/16 Q1017 R09/19//95=
201906012200 METAR LRAR 012200Z 06003KT 3500 BR NSC 16/16 Q1017 R09/19//95=
201906012230 METAR LRAR 012230Z 11002KT 1500 BR FEW002 16/16 Q1017 R09/19//95=
201906012300 METAR LRAR 012300Z 16003KT 3000 -SHRA BR FEW009 FEW040CB
                        16/16 Q1017 R09/19//95=
201906012330 METAR LRAR 012330Z 12002KT 5000 -SHRA BR SCT014 FEW040CB
                        16/16 Q1017 R09/19//95=
201906020000 METAR LRAR 020000Z VRB02KT 5000 SHRA BR SCT013 BKN030CB 16/16
                        Q1017 R09/19//95=
201906020030 METAR COR LRAR 020030Z 19002KT 3000 -SHRA BR BKN014 BKN035CB
                        16/16 Q1017 RESHRA R09/19//95=
201906020100 METAR COR LRAR 020100Z VRB01KT 0500 R09/0600 R27/0900D FG
                        BKN001 15/15 Q1017 RESHRA R09/19//95=
201906020130 METAR LRAR 020130Z 02001KT 0300 R09/0400 R27/0750N FG BKN001
                        15/15 Q1017 R09/19//95=
201906020200 METAR LRAR 020200Z 13001KT 0300 R09/0400 R27/0750N FG BKN001
                        OVC002 16/16 Q1017 R09/19//95=
201906020230 METAR LRAR 020230Z VRB01KT 2000 BR SCT001 BKN035 15/15 Q1017
                        R09/19//95=
201906020300 METAR LRAR 020300Z 00000KT 2000 1000W BCFG BR SCT001 BKN040
                        15/15 Q1017 R09/19//95=
201906020330 METAR COR LRAR 020330Z VRB01KT 0900 R09/1000 R27/1100V1500U
                        -SHRA FG FEW001 BKN003 SCT045CB 16/16
                        Q1017 R09/19//95=
201906020400 METAR LRAR 020400Z 14001KT 3000 BR BKN002 FEW045CB 16/16
                        Q1017 R09/19//95=
201906020430 METAR LRAR 020430Z VRB01KT 5000 BR SCT003 BKN024 16/16 Q1017
                        R09/19//95=
201906020500 METAR LRAR 020500Z 12002KT 5000 -SHRA BR SCT010 BKN023 FEW040CB
                        16/16 Q1018 R09/29//95=
201906020530 METAR LRAR 020530Z VRB02KT 2000 SHRA BR FEW009 BKN025 SCT030CB
                        16/16 Q1018 R09/29//95=
201906020600 METAR LRAR 020600Z 21003KT 6000 -SHRA FEW012 SCT030CB 16/16
                        Q1018 RESHRA R09/29//95=
201906020630 METAR LRAR 020630Z VRB02KT 8000 SCT020 SCT035CB 17/17 Q1018
                        RESHRA R09/29//95=
201906020700 METAR LRAR 020700Z VRB01KT 9999 FEW004 SCT035CB 18/18 Q1018
                        R09/29//95=
201906020730 METAR LRAR 020730Z VRB02KT 9999 FEW009 SCT029CB 18/17 Q1018
                        R09/29//95=
201906020800 METAR LRAR 020800Z VRB02KT 9999 SCT040CB 19/16 Q1018 R09/29//95=
201906020830 METAR LRAR 020830Z VRB02KT 9999 SCT012 SCT038 FEW043CB 21/17
                        Q1018 R09/29//95=
201906020900 METAR LRAR 020900Z VRB02KT 9999 FEW013 BKN037 FEW043CB 19/17
                        Q1018 R09/29//95=
201906020930 METAR LRAR 020930Z 11004KT 040V200 9999 BKN035 FEW038CB 21/16
                        Q1018 R09/19//95=
201906021000 METAR LRAR 021000Z VRB02KT 9999 BKN035 FEW037CB 22/16 Q1018
                        R09/19//95=
201906021030 METAR LRAR 021030Z 17005KT 130V210 9999 BKN030 FEW035CB 22/17
                        Q1018 R09/19//95=
201906021100 METAR LRAR 021100Z VRB03KT 9999 BKN028 21/16 Q1018 R09/19//95=
201906021130 METAR LRAR 021130Z VRB03KT 9999 BKN028 23/16 Q1018 R09/19//95=
201906021200 METAR LRAR 021200Z 21005KT 170V260 9999 SCT028 BKN041 23/18
                        Q1017 R09/19//95=
201906021230 METAR LRAR 021230Z 21004KT 150V260 9999 FEW030 BKN040 24/17
                        Q1017 R09/19//95=
201906021300 METAR LRAR 021300Z 26004KT 170V310 9999 BKN033 24/16 Q1017
                        R09/CLRD//=
201906021330 METAR LRAR 021330Z VRB03KT 9999 BKN033 24/17 Q1016=
201906021400 METAR LRAR 021400Z VRB02KT 9999 BKN034 24/16 Q1016=
201906021430 METAR LRAR 021430Z 33004KT 300V360 9999 BKN036 24/17 Q1016=
201906021500 METAR LRAR 021500Z 31006KT 270V350 9999 SCT037 FEW040CB 24/15
                        Q1015=
201906021530 METAR LRAR 021530Z 32004KT 280V010 9999 SCT035 FEW040CB 23/17
                        Q1016=
201906021600 METAR LRAR 021600Z 03003KT 340V050 9999 SCT035 FEW040CB 22/17
                        Q1015=
201906021630 METAR LRAR 021630Z 34002KT 290V060 9999 FEW038 FEW040CB 24/17
                        Q1015=
201906021700 METAR COR LRAR 021700Z 03004KT 9999 FEW040CB 22/16 Q1015=
201906021730 METAR LRAR 021730Z 33004KT 9999 FEW040CB 22/18 Q1015=
201906021800 METAR LRAR 021800Z 36003KT 9999 FEW040CB 21/17 Q1016=
201906021830 METAR LRAR 021830Z VRB01KT CAVOK 20/17 Q1016=
201906021900 METAR LRAR 021900Z 29004KT CAVOK 18/17 Q1016=
201906021930 METAR LRAR 021930Z 33003KT CAVOK 17/17 Q1016=
201906022000 METAR LRAR 022000Z VRB02KT CAVOK 18/17 Q1016=
201906022030 METAR LRAR 022030Z 29003KT CAVOK 17/16 Q1016=
201906022100 METAR LRAR 022100Z 31003KT CAVOK 16/16 Q1016=
201906022130 METAR LRAR 022130Z 33004KT CAVOK 15/15 Q1016=
201906022200 METAR LRAR 022200Z VRB02KT CAVOK 16/16 Q1015=
201906022230 METAR LRAR 022230Z VRB02KT CAVOK 15/15 Q1015=
201906022300 METAR LRAR 022300Z 35004KT CAVOK 15/15 Q1015=
201906022330 METAR LRAR 022330Z 36003KT CAVOK 16/16 Q1015=
201906030000 METAR COR LRAR 030000Z 33004KT CAVOK 15/15 Q1014=
201906030030 METAR LRAR 030030Z 36004KT CAVOK 15/15 Q1014=
201906030100 METAR LRAR 030100Z 02005KT CAVOK 16/15 Q1014=
201906030130 METAR COR LRAR 030130Z 01004KT CAVOK 15/15 Q1014=
201906030200 METAR LRAR 030200Z VRB02KT CAVOK 14/14 Q1014=
201906030230 METAR LRAR 030230Z VRB02KT CAVOK 14/14 Q1014=
201906030300 METAR LRAR 030300Z 01003KT 320V070 CAVOK 14/14 Q1014=
201906030330 METAR LRAR 030330Z VRB02KT CAVOK 14/14 Q1013=
201906030400 METAR LRAR 030400Z 06004KT 020V090 CAVOK 16/15 Q1014=
201906030430 METAR LRAR 030430Z 02003KT 330V060 CAVOK 16/16 Q1013=
201906030500 METAR LRAR 030500Z 06003KT 030V100 CAVOK 17/16 Q1013=
201906030530 METAR LRAR 030530Z 06004KT CAVOK 19/17 Q1014=
201906030600 METAR LRAR 030600Z 04004KT 010V080 CAVOK 18/17 Q1014=
201906030630 METAR LRAR 030630Z 04004KT 010V070 CAVOK 18/17 Q1014=
201906030700 METAR LRAR 030700Z 03004KT 350V060 CAVOK 19/17 Q1014=
201906030730 METAR LRAR 030730Z 04003KT 330V130 CAVOK 21/18 Q1014=
201906030800 METAR COR LRAR 030800Z VRB01KT CAVOK 22/18 Q1014=
201906030830 METAR LRAR 030830Z VRB03KT CAVOK 23/17 Q1014=
201906030900 METAR COR LRAR 030900Z 06005KT 010V100 9999 FEW026 24/17
                        Q1014=
201906030930 METAR LRAR 030930Z VRB02KT 9999 SCT026 25/19 Q1014=
201906031000 METAR LRAR 031000Z VRB03KT 9999 SCT028 25/17 Q1014=
201906031030 METAR COR LRAR 031030Z 15007KT 9999 FEW026 BKN030 24/16 Q1014=
201906031100 METAR LRAR 031100Z 14006KT 090V180 9999 TS SCT027 BKN033
                        FEW045CB 24/15 Q1014=
201906031130 METAR LRAR 031130Z 14009KT 9999 TS BKN034 FEW045CB 23/15
                        Q1014=
201906031200 METAR LRAR 031200Z 13008KT 9999 -TSRA BKN036 SCT046CB 22/14
                        Q1014=
201906031230 METAR LRAR 031230Z 08006KT 9999 -TSRA FEW010 BKN028 SCT045CB
                        19/17 Q1015 R09/19//95=
201906031300 METAR LRAR 031300Z VRB01KT 9999 -SHRA FEW008 BKN020 FEW048CB
                        20/18 Q1014 RETS R09/19//95=
201906031330 METAR LRAR 031330Z 00000KT 9999 -SHRA SCT013 BKN025 FEW050CB
                        22/17 Q1013 RETS R09/19//95=
201906031400 METAR COR LRAR 031400Z VRB02KT 9999 SCT015 BKN030 FEW055CB
                        22/17 Q1013 R09/19//95=
201906031430 METAR COR LRAR 031430Z VRB01KT 9999 FEW025 BKN037 FEW060CB
                        22/18 Q1013 R09/19//95=
201906031500 METAR LRAR 031500Z 33003KT 280V360 9999 FEW026 BKN038 FEW060CB
                        22/18 Q1014 R09/19//95=
201906031530 METAR LRAR 031530Z 34004KT 9999 FEW030 BKN045 21/17 Q1013
                        R09/19//95=
201906031600 METAR LRAR 031600Z VRB02KT 9999 FEW055CB 21/18 Q1013 R09/19//95=
201906031630 METAR LRAR 031630Z VRB02KT 9999 FEW055CB 21/19 Q1012 R09/19//95=
201906031700 METAR LRAR 031700Z 33001KT 9999 FEW060CB 21/19 Q1012 R09/19//95=
201906031730 METAR LRAR 031730Z 02003KT 9999 FEW060CB 20/18 Q1013 R09/19//95=
201906031800 METAR LRAR 031800Z 03003KT 9999 FEW060CB 20/17 Q1013 R09/19//95=
201906031830 METAR LRAR 031830Z 36002KT CAVOK 18/17 Q1013 R09/19//95=
201906031900 METAR LRAR 031900Z 14001KT CAVOK 17/17 Q1013 R09/19//95=
201906031930 METAR LRAR 031930Z 11001KT CAVOK 17/17 Q1013 R09/CLRD//=
201906032000 METAR LRAR 032000Z VRB01KT CAVOK 16/16 Q1013=
201906032030 METAR LRAR 032030Z VRB02KT CAVOK 16/16 Q1014=
201906032100 METAR LRAR 032100Z 27003KT 9999 MIFG NSC 15/15 Q1014=
201906032130 METAR LRAR 032130Z 31003KT 9999 MIFG NSC 14/14 Q1014=
201906032200 METAR LRAR 032200Z 00000KT 9999 MIFG NSC 15/15 Q1013=
201906032230 METAR LRAR 032230Z VRB01KT 6000 MIFG NSC 14/14 Q1013=
201906032300 METAR LRAR 032300Z 00000KT 1500 MIFG BR NSC 14/14 Q1013=
201906032330 METAR LRAR 032330Z 00000KT 1000 R09/1200 R27/1000D MIFG BR
                        NSC 13/13 Q1013=
201906040000 METAR LRAR 040000Z 30001KT 0800 R09/1000 R27/0900N FG NSC
                        13/13 Q1013=
201906040030 METAR LRAR 040030Z 00000KT 0800 R09/1000 FG NSC 13/12 Q1012=
201906040100 METAR LRAR 040100Z 00000KT 0700 R09/0900 R27/0750N FG NSC
                        14/14 Q1012=
201906040130 METAR LRAR 040130Z 00000KT 0700 R09/0900 R27/0700N FG NSC
                        13/13 Q1012=
201906040200 METAR LRAR 040200Z 10002KT 0700 R09/0900 R27/1000N FG NSC
                        14/14 Q1012=
201906040230 METAR LRAR 040230Z 13001KT 2000 0800N BCFG BR FEW043 14/14
                        Q1012=
201906040300 METAR LRAR 040300Z 00000KT 1500 0600E R09/0800 R27/0600U
                        BCFG BR SCT001 13/13 Q1012=
201906040330 METAR LRAR 040330Z VRB01KT 0600 R09/0800 R27/0600U FG SCT001
                        13/13 Q1012=
201906040400 METAR LRAR 040400Z 14001KT 0600 R09/0600 R27/1000U BCFG SCT001
                        14/14 Q1012=
201906040430 METAR LRAR 040430Z VRB02KT 3000 0800N BCFG BR FEW001 15/15
                        Q1012=
201906040500 METAR LRAR 040500Z 11003KT CAVOK 17/17 Q1012=
201906040530 METAR LRAR 040530Z VRB02KT 9999 SCT045 19/19 Q1012=
201906040600 METAR LRAR 040600Z VRB01KT CAVOK 20/19 Q1012=
201906040630 METAR LRAR 040630Z 09003KT 050V130 9999 FEW050CB 21/17 Q1012=
201906040700 METAR LRAR 040700Z 11003KT 9999 FEW060CB 21/17 Q1012=
201906040730 METAR LRAR 040730Z 13004KT 100V160 CAVOK 21/17 Q1012=
201906040800 METAR LRAR 040800Z 01003KT 310V080 CAVOK 22/17 Q1012=
201906040830 METAR LRAR 040830Z 36006KT 9999 FEW025 23/17 Q1012=
201906040900 METAR LRAR 040900Z 02006KT 340V060 9999 FEW030 24/17 Q1012=
201906040930 METAR LRAR 040930Z 07005KT 010V160 9999 SCT035 FEW040TCU
                        24/17 Q1012=
201906041000 METAR LRAR 041000Z 04007KT 340V100 9999 TS VCSH SCT040 SCT045CB
                        24/17 Q1012=
201906041030 METAR LRAR 041030Z 15009KT 9999 -TSRA SCT040 BKN045CB 23/17
                        Q1012=
201906041100 METAR LRAR 041100Z 18010KT 150V210 9999 -TSRA SCT010 BKN025CB
                        18/16 Q1012 RESHRA R09/29//95=
201906041130 METAR LRAR 041130Z 23007KT 200V270 9999 FEW025 SCT040CB 21/19
                        Q1012 RETSRA R09/29//95=
201906041200 METAR LRAR 041200Z 20007KT 170V230 9999 SCT050CB 23/17 Q1011
                        RETS R09/29//95=
201906041230 METAR LRAR 041230Z 19004KT 160V250 9999 TS VCSH SCT040CB
                        23/17 Q1011 R09/29//95=
201906041300 METAR LRAR 041300Z VRB01KT 9999 TS VCSH BKN050CB 23/18 Q1011
                        R09/19//95=
201906041330 METAR LRAR 041330Z 01007KT 330V060 9999 -TSRA SCT015 SCT040CB
                        21/18 Q1011 R09/29//95=
201906041400 METAR LRAR 041400Z VRB02KT 9999 -TSRA FEW010 SCT040CB 21/20
                        Q1011 R09/29//95=
201906041430 METAR LRAR 041430Z 26003KT 170V300 9999 TS SCT040CB 22/19
                        Q1012 R09/29//95=
201906041500 METAR LRAR 041500Z 15016KT 120V180 9999 TS VCSH FEW020 BKN045CB
                        19/17 Q1012 R09/29//95=
201906041530 METAR LRAR 041530Z 17012KT 9999 SCT030 SCT050CB 18/16 Q1012
                        RETS R09/29//95=
201906041600 METAR LRAR 041600Z 17009KT 9999 FEW030 FEW050CB 19/17 Q1012
                        R09/29//95=
201906041630 METAR LRAR 041630Z 20004KT 150V240 9999 FEW025 FEW050CB 19/17
                        Q1011 R09/CLRD//=
201906041700 METAR LRAR 041700Z 22003KT 190V250 9999 FEW050CB 20/17 Q1011=
201906041730 METAR LRAR 041730Z 17003KT 140V230 9999 FEW050CB 20/17 Q1011=
201906041800 METAR LRAR 041800Z 16005KT CAVOK 18/17 Q1011=
201906041830 METAR LRAR 041830Z 15004KT CAVOK 18/17 Q1011=
201906041900 METAR LRAR 041900Z 15004KT CAVOK 17/16 Q1011=
201906041930 METAR LRAR 041930Z 11004KT CAVOK 16/16 Q1011=
201906042000 METAR LRAR 042000Z 13003KT CAVOK 16/16 Q1011=
201906042030 METAR LRAR 042030Z 16004KT 140V200 CAVOK 16/16 Q1011=
201906042100 METAR LRAR 042100Z 15003KT CAVOK 16/16 Q1012=
201906042130 METAR LRAR 042130Z 14004KT CAVOK 16/16 Q1012=
201906042200 METAR LRAR 042200Z VRB02KT CAVOK 16/15 Q1012=
201906042230 METAR LRAR 042230Z VRB04KT CAVOK 16/15 Q1011=
201906042300 METAR LRAR 042300Z 16003KT CAVOK 15/15 Q1011=
201906042330 METAR LRAR 042330Z 15003KT CAVOK 15/15 Q1011=
201906050000 METAR LRAR 050000Z 16003KT CAVOK 15/15 Q1011=
201906050030 METAR LRAR 050030Z VRB03KT 9999 FEW037 15/15 Q1011=
201906050100 METAR LRAR 050100Z 15005KT 9999 SCT038 15/15 Q1011=
201906050130 METAR LRAR 050130Z 14006KT 9999 BKN038 15/15 Q1011=
201906050200 METAR LRAR 050200Z 14008KT 9999 VCTS SCT034 BKN041 16/16
                        Q1010=
201906050230 METAR LRAR 050230Z 07009KT 5000 TSRA BR SCT007 SCT012 BKN035CB
                        16/16 Q1011=
201906050300 METAR LRAR 050300Z 09006KT 3000 +TSRA BR SCT005 SCT010 BKN033CB
                        16/16 Q1011=
201906050330 METAR LRAR 050330Z 15009KT 4000 TSRA BR SCT008 SCT013 BKN040CB
                        16/16 Q1011=
201906050400 METAR LRAR 050400Z 21013KT 9999 -SHRA SCT012 SCT040CB 16/16
                        Q1010 RETSRA R09/29//95=
201906050430 METAR COR LRAR 050430Z 12006KT 090V180 9999 FEW007 FEW040CB
                        16/16 Q1011 RETSRA R09/29//95=
201906050500 METAR LRAR 050500Z 14010KT 9999 -DZ FEW006 BKN015 16/16 Q1011
                        R09/29//95=
201906050530 METAR LRAR 050530Z 17006KT 140V200 9999 -DZ FEW004 SCT010
                        BKN016 16/16 Q1011 R09/29//95=
201906050600 METAR LRAR 050600Z 17007KT 9999 FEW007 SCT016 17/17 Q1011
                        R09/29//95=
201906050630 METAR COR LRAR 050630Z 16005KT 9999 FEW005 BKN009 17/17 Q1011
                        R09/29//95=
201906050700 METAR LRAR 050700Z 18007KT 150V210 9999 SCT008 BKN010 17/17
                        Q1011 R09/19//95=
201906050730 METAR LRAR 050730Z 18006KT 9999 SCT008 BKN010 18/17 Q1012
                        R09/19//95=
201906050800 METAR LRAR 050800Z 19006KT 9999 FEW009 SCT013 BKN019 19/17
                        Q1012 R09/19//95=
201906050830 METAR LRAR 050830Z 22006KT 9999 SCT011 BKN015 BKN028 18/17
                        Q1012 R09/19//95=
201906050900 METAR LRAR 050900Z 19007KT 150V220 9999 FEW012 SCT015 BKN028
                        19/17 Q1012 R09/19//95=
201906050930 METAR LRAR 050930Z 20007KT 170V230 9999 FEW015 SCT019 BKN045
                        20/17 Q1012 R09/CLRD//=
201906051000 METAR LRAR 051000Z 18006KT 150V210 9999 FEW017 SCT033 FEW050CB
                        19/17 Q1012=
201906051030 METAR LRAR 051030Z 15005KT 9999 VCTS SCT010 FEW050CB 19/17
                        Q1012=
201906051100 METAR LRAR 051100Z 11012KT 4000 SHRA SCT008 SCT015 BKN038CB
                        17/17 Q1012 R09/29//95=
201906051130 METAR LRAR 051130Z 14011KT 5000 TSRA BKN012 BKN035CB 17/17
                        Q1012 RESHRA R09/29//95=
201906051200 METAR LRAR 051200Z 16008KT 9999 TS FEW008 SCT010 SCT036CB
                        18/18 Q1012 RESHRA R09/29//95=
201906051230 METAR LRAR 051230Z 17007KT 130V210 9999 FEW009 FWE040CB 19/18
                        Q1011 RETSRA R09/29//95=
201906051300 METAR LRAR 051300Z 18008KT 9999 FEW012 SCT018 20/18 Q1011
                        RETS R09/29//95=
201906051330 METAR LRAR 051330Z 18007KT 120V210 9999 FEW014 SCT030 21/17
                        Q1011 R09/29//95=
201906051400 METAR LRAR 051400Z 17006KT 100V220 9999 FEW025 SCT040 21/17
                        Q1011 R09/29//95=
201906051430 METAR LRAR 051430Z 15008KT 9999 FEW025 SCT030 BKN047 20/16
                        Q1011 R09/CLRD//=
201906051500 METAR LRAR 051500Z 16005KT 9999 VCSH FEW010 SCT025 FEW040CB
                        18/17 Q1011=
201906051530 METAR LRAR 051530Z 14004KT 9999 VCSH SCT018 FEW035CB 19/18
                        Q1011=
201906051600 METAR LRAR 051600Z 14005KT 9999 FEW035CB 19/17 Q1010=
201906051630 METAR LRAR 051630Z 15003KT 9999 FEW040CB 20/17 Q1011=
201906051700 METAR LRAR 051700Z 14005KT 9999 FEW040CB 20/17 Q1011=
201906051730 METAR COR LRAR 051730Z 16003KT 9999 VCSH SCT040CB 19/17 Q1011=
201906051800 METAR LRAR 051800Z 17002KT 9999 FEW045CB 19/17 Q1011=
201906051830 METAR LRAR 051830Z 20003KT 9999 FEW050CB 18/17 Q1011=
201906051900 METAR LRAR 051900Z 20004KT CAVOK 18/17 Q1012=
201906051930 METAR LRAR 051930Z 18003KT CAVOK 17/16 Q1012=
201906052000 METAR LRAR 052000Z 10003KT CAVOK 17/17 Q1012=
201906052030 METAR LRAR 052030Z 13004KT CAVOK 17/17 Q1012=
201906052100 METAR LRAR 052100Z 15004KT CAVOK 17/17 Q1012=
201906052130 METAR LRAR 052130Z 13005KT CAVOK 17/16 Q1012=
201906052200 METAR LRAR 052200Z 13004KT CAVOK 17/16 Q1012=
201906052230 METAR LRAR 052230Z 13005KT CAVOK 17/16 Q1012=
201906052300 METAR LRAR 052300Z 13004KT 9999 SCT033 17/16 Q1012=
201906052330 METAR LRAR 052330Z 12005KT 9999 BKN032 17/16 Q1012=
201906060000 METAR LRAR 060000Z 15004KT 9999 SCT030 SCT040CB 17/16 Q1012=
201906060030 METAR LRAR 060030Z 18004KT 9999 -SHRA BKN030 SCT040CB 16/16
                        Q1012 RESHRA=
201906060100 METAR LRAR 060100Z 10003KT 070V130 9999 -SHRA SCT014 BKN035CB
                        16/16 Q1012 RESHRA=
201906060130 METAR LRAR 060130Z 11005KT 9999 -SHRA BKN011 BKN035CB 16/16
                        Q1011=
201906060200 METAR LRAR 060200Z 12006KT 9999 -SHRA BKN035 SCT045CB 16/16
                        Q1011=
201906060230 METAR LRAR 060230Z 13006KT 9999 FEW030 BKN037 SCT045CB 16/16
                        Q1012=
201906060300 METAR LRAR 060300Z 13008KT 9999 SCT029 BKN034 FEW045CB 16/16
                        Q1012=
201906060330 METAR LRAR 060330Z 13007KT 9999 FEW026 SCT035 FEW050CB 16/16
                        Q1012=
201906060400 METAR LRAR 060400Z 13007KT 9999 SCT026 SCT040CB 16/16 Q1012
                        R09/19//95=
201906060430 METAR LRAR 060430Z 14007KT 9999 BKN033 FEW040CB 16/16 Q1012
                        R09/19//95=
201906060500 METAR LRAR 060500Z 13007KT 9999 BKN028 17/16 Q1012 R09/19//95=
201906060530 METAR LRAR 060530Z 12007KT 9999 BKN028 FEW035CB 17/16 Q1013
                        R09/19//95=
201906060600 METAR LRAR 060600Z 12009KT 9999 SCT025 18/16 Q1013 R09/19//95=
201906060630 METAR LRAR 060630Z 13007KT 9999 BKN023 19/17 Q1013 R09/19//95=
201906060700 METAR LRAR 060700Z 14009KT 9999 BKN020 19/17 Q1013 R09/19//95=
201906060730 METAR LRAR 060730Z 16007KT 120V180 9999 FEW017 BKN020 20/17
                        Q1013 R09/19//95=
201906060800 METAR LRAR 060800Z 17007KT 130V210 9999 SCT018 BKN023 20/17
                        Q1013 R09/19//95=
201906060830 METAR LRAR 060830Z 19008KT 9999 FEW018 SCT022 BKN027 22/18
                        Q1013 R09/19//95=
201906060900 METAR LRAR 060900Z 16008KT 120V190 9999 FEW020 BKN027 22/17
                        Q1014 R09/19//95=
201906060930 METAR LRAR 060930Z 20006KT 150V270 9999 FEW020 SCT025 BKN035
                        23/19 Q1013 R09/CLRD//=
201906061000 METAR LRAR 061000Z 20006KT 9999 BKN033 FEW035CB 22/17 Q1013=
201906061030 METAR LRAR 061030Z 20007KT 160V240 9999 BKN033 FEW036CB 23/18
                        Q1013=
201906061100 METAR LRAR 061100Z 21005KT 160V240 9999 BKN030 FEW035CB 23/18
                        Q1013=
201906061130 METAR LRAR 061130Z 22009KT 200V260 9999 TS BKN035 SCT040CB
                        23/17 Q1013=
201906061200 METAR LRAR 061200Z 22007KT 190V260 2000 +TSRAGR BKN030CB
                        22/18 Q1014=
201906061230 METAR LRAR 061230Z 23003KT 140V270 9999 -TSRA FEW008 BKN030CB
                        18/18 Q1014 RESHGR R09/29//95=
201906061300 METAR LRAR 061300Z 22004KT 150V260 9999 FEW010 SCT035CB 22/21
                        Q1013 RETSGR R09/29//95=
201906061330 METAR LRAR 061330Z 23007KT 9999 FEW023 SCT030CB 24/20 Q1013
                        RETS R09/29//95=
201906061400 METAR LRAR 061400Z 24010KT 210V270 9999 SCT030 SCT035CB 24/19
                        Q1013 R09/29//95=
201906061430 METAR LRAR 061430Z 24009KT 9999 FEW027 SCT033CB 24/20 Q1013
                        R09/29//95=
201906061500 METAR LRAR 061500Z 24009KT 9999 FEW030 FEW035CB 24/19 Q1013
                        R09/29//95=
201906061530 METAR LRAR 061530Z 23006KT 9999 FEW033 FEW037CB 24/18 Q1013
                        R09/29//95=
201906061600 METAR LRAR 061600Z 25007KT 9999 FEW035CB 24/19 Q1013 R09/29//95=
201906061630 METAR LRAR 061630Z 23006KT 9999 FEW035CB 23/18 Q1013 R09/29//95=
201906061700 METAR LRAR 061700Z 22003KT 9999 FEW035CB 23/19 Q1013 R09/29//95=
201906061730 METAR COR LRAR 061730Z 17003KT 9999 FEW035CB 23/19 Q1013
                        R09/29//95=
201906061800 METAR LRAR 061800Z 17003KT 9999 FEW040CB 22/19 Q1014 R09/29//95=
201906061830 METAR LRAR 061830Z 17004KT CAVOK 21/19 Q1014 R09/29//95=
201906061900 METAR LRAR 061900Z 19004KT CAVOK 21/19 Q1014 R09/CLRD//=
201906061930 METAR LRAR 061930Z 18004KT CAVOK 21/19 Q1014=
201906062000 METAR LRAR 062000Z 16004KT 120V180 CAVOK 21/19 Q1014=
201906062030 METAR LRAR 062030Z 15006KT CAVOK 20/19 Q1014=
201906062100 METAR LRAR 062100Z 14006KT CAVOK 19/19 Q1014=
201906062130 METAR LRAR 062130Z 14007KT CAVOK 19/19 Q1014=
201906062200 METAR LRAR 062200Z 13006KT CAVOK 19/19 Q1015=
201906062230 METAR LRAR 062230Z 13008KT CAVOK 19/18 Q1014=
201906062300 METAR LRAR 062300Z AUTO 13007KT 9999 FEW066/// 19/18 Q1014=
201906062330 METAR LRAR 062330Z 15006KT CAVOK 19/18 Q1014=
201906070000 METAR LRAR 070000Z 16005KT 9999 FEW048 18/18 Q1015=
201906070030 METAR LRAR 070030Z 14007KT 9999 FEW048 18/18 Q1014=
201906070100 METAR LRAR 070100Z 14006KT CAVOK 18/18 Q1015=
201906070130 METAR LRAR 070130Z 14006KT 8000 VCTS SCT048 FEW050CB 18/18
                        Q1015=
201906070200 METAR LRAR 070200Z 15008KT 8000 FEW050CB 17/17 Q1015=
201906070230 METAR LRAR 070230Z 10005KT 9999 FEW050CB 18/17 Q1015=
201906070300 METAR LRAR 070300Z 12005KT 9999 FEW050CB 17/17 Q1016=
201906070330 METAR LRAR 070330Z 14005KT 9999 FEW050CB 17/17 Q1016=
201906070400 METAR LRAR 070400Z 15006KT 9999 FEW028 FEW050CB 18/17 Q1016=
201906070430 METAR LRAR 070430Z 15008KT 9999 SCT030 19/18 Q1016=
201906070500 METAR LRAR 070500Z 16007KT 9999 SCT030 20/18 Q1016=
201906070530 METAR LRAR 070530Z 16007KT 9999 SCT033 21/18 Q1016=
201906070600 METAR LRAR 070600Z 19008KT 160V220 9999 SCT033 21/18 Q1017=
201906070630 METAR LRAR 070630Z 18008KT 140V200 9999 FEW035 21/19 Q1017=
201906070700 METAR LRAR 070700Z 20008KT CAVOK 22/19 Q1017=
201906070730 METAR LRAR 070730Z 19006KT 170V230 CAVOK 22/19 Q1017=
201906070800 METAR LRAR 070800Z 17004KT 100V220 CAVOK 23/19 Q1017=
201906070830 METAR LRAR 070830Z VRB03KT CAVOK 25/19 Q1017=
201906070900 METAR LRAR 070900Z VRB02KT CAVOK 25/18 Q1017=
201906070930 METAR LRAR 070930Z VRB03KT 9999 SCT026 26/18 Q1017=
201906071000 METAR LRAR 071000Z 23006KT 180V270 9999 SCT026 26/17 Q1017=
201906071030 METAR LRAR 071030Z 22005KT 160V270 9999 SCT028 26/18 Q1017=
201906071100 METAR LRAR 071100Z 22004KT 180V330 9999 SCT025 BKN033 26/18
                        Q1017=
201906071130 METAR LRAR 071130Z 21006KT 150V250 9999 SCT026 BKN035 27/18
                        Q1017=
201906071200 METAR LRAR 071200Z 18006KT 150V230 9999 SCT028 BKN040 27/19
                        Q1017=
201906071230 METAR LRAR 071230Z 18006KT 150V220 9999 SCT028 BKN043 27/19
                        Q1017=
201906071300 METAR LRAR 071300Z 20004KT 160V250 9999 SCT030 BKN045 27/18
                        Q1016=
201906071330 METAR LRAR 071330Z 18005KT 130V210 9999 SCT033 BKN045 27/18
                        Q1016=
201906071400 METAR LRAR 071400Z 20008KT 170V230 9999 SCT035 BKN046 27/18
                        Q1016=
201906071430 METAR LRAR 071430Z 22006KT 170V260 9999 SCT035 BKN047 27/18
                        Q1016=
201906071500 METAR LRAR 071500Z 21007KT 9999 FEW036 BKN048 27/19 Q1016=
201906071530 METAR LRAR 071530Z 21005KT 180V240 9999 FEW037 BKN048 27/18
                        Q1016=
201906071600 METAR LRAR 071600Z 21004KT 9999 SCT048 26/19 Q1016=
201906071630 METAR LRAR 071630Z 18004KT 9999 FEW047 27/19 Q1016=
201906071700 METAR LRAR 071700Z 21004KT CAVOK 26/19 Q1016=
201906071730 METAR LRAR 071730Z 17003KT CAVOK 26/20 Q1016=
201906071800 METAR LRAR 071800Z 16004KT CAVOK 25/20 Q1016=
201906071830 METAR LRAR 071830Z 15005KT CAVOK 24/20 Q1016=
201906071900 METAR LRAR 071900Z 16005KT CAVOK 23/20 Q1017=
201906071930 METAR LRAR 071930Z 15005KT CAVOK 22/19 Q1017=
201906072000 METAR LRAR 072000Z 16005KT CAVOK 21/19 Q1017=
201906072030 METAR LRAR 072030Z 17004KT CAVOK 21/19 Q1017=
201906072100 METAR LRAR 072100Z 16002KT CAVOK 20/19 Q1017=
201906072130 METAR LRAR 072130Z 16003KT CAVOK 20/19 Q1017=
201906072200 METAR LRAR 072200Z 14003KT CAVOK 20/19 Q1017=
201906072230 METAR LRAR 072230Z 15002KT CAVOK 19/18 Q1017=
201906072300 METAR LRAR 072300Z 14004KT CAVOK 18/18 Q1017=
201906072330 METAR LRAR 072330Z 15005KT CAVOK 18/18 Q1017=
201906080000 METAR LRAR 080000Z 14005KT CAVOK 18/18 Q1017=
201906080030 METAR LRAR 080030Z 15006KT CAVOK 18/18 Q1017=
201906080100 METAR LRAR 080100Z 14006KT CAVOK 18/18 Q1016=
201906080130 METAR LRAR 080130Z 13005KT CAVOK 18/18 Q1016=
201906080200 METAR LRAR 080200Z 14007KT CAVOK 18/18 Q1016=
201906080230 METAR LRAR 080230Z 14007KT CAVOK 18/18 Q1016=
201906080300 METAR LRAR 080300Z 15007KT CAVOK 18/18 Q1016=
201906080330 METAR LRAR 080330Z 14007KT CAVOK 18/18 Q1016=
201906080400 METAR LRAR 080400Z 24004KT 190V280 CAVOK 18/18 Q1017=
201906080430 METAR LRAR 080430Z 15004KT 120V180 CAVOK 19/19 Q1017=
201906080500 METAR LRAR 080500Z 15008KT CAVOK 20/19 Q1017=
201906080530 METAR LRAR 080530Z 14006KT CAVOK 21/20 Q1017=
201906080600 METAR LRAR 080600Z 16008KT CAVOK 22/20 Q1017=
201906080630 METAR LRAR 080630Z 21006KT 190V250 CAVOK 24/19 Q1017=
201906080700 METAR LRAR 080700Z 20005KT CAVOK 25/20 Q1017=
201906080730 METAR LRAR 080730Z 26005KT 220V310 CAVOK 25/19 Q1017=
201906080800 METAR LRAR 080800Z 26004KT 200V320 CAVOK 26/20 Q1018=
201906080830 METAR LRAR 080830Z 24006KT CAVOK 26/20 Q1018=
201906080900 METAR LRAR 080900Z 22006KT 180V260 CAVOK 27/18 Q1018=
201906080930 METAR LRAR 080930Z 25007KT 210V290 9999 FEW040 27/18 Q1017=
201906081000 METAR LRAR 081000Z 25010KT 9999 FEW045 27/18 Q1017=
201906081030 METAR LRAR 081030Z 25006KT 210V290 9999 FEW048 28/19 Q1018=
201906081100 METAR LRAR 081100Z 23007KT CAVOK 28/18 Q1018=
201906081130 METAR LRAR 081130Z 26006KT 220V330 CAVOK 28/17 Q1018=
201906081200 METAR LRAR 081200Z 29006KT 240V330 CAVOK 28/18 Q1017=
201906081230 METAR LRAR 081230Z 31005KT 280V360 CAVOK 28/18 Q1017=
201906081300 METAR LRAR 081300Z 28007KT 260V330 CAVOK 28/17 Q1018=
201906081330 METAR LRAR 081330Z 31005KT 260V010 CAVOK 28/18 Q1018=
201906081400 METAR LRAR 081400Z 29006KT 250V330 CAVOK 28/18 Q1018=
201906081430 METAR LRAR 081430Z 31009KT CAVOK 28/18 Q1018=
201906081500 METAR LRAR 081500Z 30007KT 260V350 CAVOK 28/18 Q1018=
201906081530 METAR LRAR 081530Z 32007KT CAVOK 27/18 Q1018=
201906081600 METAR LRAR 081600Z 31006KT CAVOK 27/17 Q1018=
201906081630 METAR LRAR 081630Z 29004KT CAVOK 27/19 Q1018=
201906081700 METAR LRAR 081700Z 28004KT CAVOK 26/20 Q1018=
201906081730 METAR LRAR 081730Z 28005KT CAVOK 25/20 Q1018=
201906081800 METAR LRAR 081800Z 28005KT CAVOK 23/20 Q1018=
201906081830 METAR LRAR 081830Z 25003KT CAVOK 23/19 Q1018=
201906081900 METAR LRAR 081900Z VRB02KT CAVOK 23/19 Q1019=
201906081930 METAR LRAR 081930Z VRB01KT CAVOK 22/19 Q1019=
201906082000 METAR LRAR 082000Z 26004KT CAVOK 20/19 Q1019=
201906082030 METAR LRAR 082030Z 29004KT CAVOK 20/19 Q1020=
201906082100 METAR LRAR 082100Z 29005KT CAVOK 19/18 Q1020=
201906082130 METAR LRAR 082130Z 34006KT CAVOK 21/20 Q1020=
201906082200 METAR LRAR 082200Z 34005KT CAVOK 20/20 Q1020=
201906082230 METAR LRAR 082230Z 33004KT CAVOK 20/19 Q1021=
201906082300 METAR LRAR 082300Z 31004KT CAVOK 19/19 Q1020=
201906082330 METAR LRAR 082330Z 30005KT CAVOK 19/18 Q1020=
201906090000 METAR LRAR 090000Z 29004KT CAVOK 18/18 Q1021=
201906090030 METAR LRAR 090030Z 28003KT CAVOK 18/18 Q1021=
201906090100 METAR LRAR 090100Z 28005KT CAVOK 17/17 Q1021=
201906090130 METAR LRAR 090130Z 28004KT 7000 NSC 17/17 Q1021=
201906090200 METAR LRAR 090200Z VRB02KT 5000 MIFG NSC 17/17 Q1021=
201906090230 METAR LRAR 090230Z 32003KT 4000 MIFG NSC 16/16 Q1021=
201906090300 METAR LRAR 090300Z 29003KT 5000 MIFG NSC 16/16 Q1021=
201906090330 METAR LRAR 090330Z VRB01KT 7000 MIFG NSC 16/16 Q1021=
201906090400 METAR LRAR 090400Z 30002KT 7000 MIFG NSC 17/17 Q1021=
201906090430 METAR COR LRAR 090430Z VRB02KT 9999 MIFG NSC 19/19 Q1021=
201906090500 METAR LRAR 090500Z 32003KT CAVOK 19/19 Q1021=
201906090530 METAR LRAR 090530Z 31003KT 280V350 CAVOK 20/19 Q1022=
201906090600 METAR LRAR 090600Z 31003KT 270V360 CAVOK 21/20 Q1022=
201906090630 METAR LRAR 090630Z 31004KT 280V010 CAVOK 22/20 Q1022=
201906090700 METAR LRAR 090700Z VRB02KT CAVOK 24/21 Q1022=
201906090730 METAR LRAR 090730Z VRB02KT CAVOK 25/21 Q1022=
201906090800 METAR LRAR 090800Z 03004KT 340V080 CAVOK 26/21 Q1022=
201906090830 METAR LRAR 090830Z 35003KT 240V040 CAVOK 27/21 Q1022=
201906090900 METAR LRAR 090900Z 04004KT 320V110 9999 FEW030 27/20 Q1022=
201906090930 METAR LRAR 090930Z 32004KT 250V010 9999 FEW030 28/20 Q1022=
201906091000 METAR LRAR 091000Z 36005KT 310V040 9999 FEW035 28/19 Q1021=
201906091030 METAR LRAR 091030Z 33006KT 310V010 9999 SCT040 28/20 Q1021=
201906091100 METAR LRAR 091100Z 33005KT 300V360 9999 SCT048 29/20 Q1021=
201906091130 METAR LRAR 091130Z 36004KT 280V080 9999 SCT045 29/20 Q1021=
201906091200 METAR LRAR 091200Z 34006KT 290V020 9999 SCT046 29/19 Q1020=
201906091230 METAR LRAR 091230Z 30006KT 260V350 9999 SCT046 29/20 Q1020=
201906091300 METAR LRAR 091300Z 33007KT 300V360 9999 SCT045 29/20 Q1020=
201906091330 METAR COR LRAR 091330Z 32007KT 280V360 9999 BKN045 29/21
                        Q1019=
201906091400 METAR LRAR 091400Z 35005KT 320V020 9999 BKN045 29/20 Q1019=
201906091430 METAR LRAR 091430Z 34007KT 310V010 9999 BKN048 29/20 Q1019=
201906091500 METAR LRAR 091500Z 35006KT 9999 SCT048 29/20 Q1019=
201906091530 METAR LRAR 091530Z 01006KT 330V040 9999 SCT048 FEW050CB 29/20
                        Q1019=
201906091600 METAR LRAR 091600Z 02007KT 340V050 9999 FEW050CB 28/19 Q1019=
201906091630 METAR LRAR 091630Z 36006KT 9999 FEW050CB 28/20 Q1019=
201906091700 METAR LRAR 091700Z 04006KT CAVOK 27/20 Q1019=
201906091730 METAR LRAR 091730Z 35004KT CAVOK 27/21 Q1018=
201906091800 METAR LRAR 091800Z 36004KT CAVOK 26/20 Q1018=
201906091830 METAR LRAR 091830Z 01004KT CAVOK 25/20 Q1018=
201906091900 METAR LRAR 091900Z 04003KT CAVOK 24/19 Q1019=
201906091930 METAR LRAR 091930Z VRB02KT CAVOK 23/20 Q1019=
201906092000 METAR LRAR 092000Z VRB02KT CAVOK 22/19 Q1019=
201906092030 METAR LRAR 092030Z VRB01KT CAVOK 21/19 Q1019=
201906092100 METAR LRAR 092100Z VRB02KT CAVOK 22/19 Q1019=
201906092130 METAR LRAR 092130Z VRB01KT CAVOK 20/19 Q1019=
201906092200 METAR LRAR 092200Z 14004KT CAVOK 20/18 Q1019=
201906092230 METAR LRAR 092230Z 15003KT CAVOK 20/18 Q1019=
201906092300 METAR LRAR 092300Z 15003KT CAVOK 20/18 Q1019=
201906092330 METAR LRAR 092330Z VRB02KT CAVOK 19/18 Q1019=
201906100000 METAR LRAR 100000Z 00000KT CAVOK 19/18 Q1018=
201906100030 METAR LRAR 100030Z 02001KT CAVOK 18/18 Q1018=
201906100100 METAR LRAR 100100Z 15001KT CAVOK 18/17 Q1018=
201906100130 METAR LRAR 100130Z VRB01KT CAVOK 17/17 Q1018=
201906100200 METAR LRAR 100200Z 14002KT CAVOK 17/17 Q1018=
201906100230 METAR LRAR 100230Z 15002KT 2000 BCFG FEW002 17/17 Q1018=
201906100300 METAR LRAR 100300Z 20002KT 9999 MIFG NSC 17/17 Q1018=
201906100330 METAR LRAR 100330Z VRB02KT 9999 MIFG NSC 16/16 Q1018=
201906100400 METAR LRAR 100400Z VRB01KT 9999 MIFG NSC 19/19 Q1018=
201906100430 METAR LRAR 100430Z VRB01KT CAVOK 21/20 Q1018=
201906100500 METAR LRAR 100500Z 11007KT CAVOK 22/18 Q1018=
201906100530 METAR LRAR 100530Z 12009KT CAVOK 22/19 Q1018=
201906100600 METAR LRAR 100600Z 13009KT CAVOK 23/19 Q1018=
201906100630 METAR LRAR 100630Z 14008KT 110V170 CAVOK 24/20 Q1018=
201906100700 METAR LRAR 100700Z 16007KT CAVOK 25/21 Q1018=
201906100730 METAR LRAR 100730Z 15008KT 120V180 CAVOK 25/20 Q1018=
201906100800 METAR LRAR 100800Z 15007KT 120V190 CAVOK 26/20 Q1018=
201906100830 METAR LRAR 100830Z 15006KT 110V200 CAVOK 27/21 Q1017=
201906100900 METAR LRAR 100900Z 13006KT 090V160 CAVOK 27/20 Q1017=
201906100930 METAR LRAR 100930Z 16006KT 130V210 CAVOK 27/20 Q1017=
201906101000 METAR LRAR 101000Z 17005KT 120V250 9999 FEW030 28/21 Q1017=
201906101030 METAR LRAR 101030Z 12006KT 080V180 9999 FEW035 28/21 Q1016=
201906101100 METAR LRAR 101100Z 13008KT 100V170 9999 FEW039 29/20 Q1016=
201906101130 METAR LRAR 101130Z 21005KT 160V270 9999 SCT043 29/19 Q1016=
201906101200 METAR LRAR 101200Z 16007KT 120V220 9999 FEW045 29/20 Q1016=
201906101230 METAR LRAR 101230Z VRB04KT 9999 FEW043 FEW045CB 30/20 Q1015=
201906101300 METAR LRAR 101300Z VRB03KT 9999 FEW045 FEW047CB 30/19 Q1015=
201906101330 METAR LRAR 101330Z VRB02KT 9999 SCT048 FEW050CB 30/19 Q1015=
201906101400 METAR LRAR 101400Z VRB02KT 9999 FEW053CB 31/18 Q1015=
201906101430 METAR LRAR 101430Z VRB01KT 9999 FEW055CB 31/19 Q1014=
201906101500 METAR LRAR 101500Z VRB02KT 9999 FEW055CB 31/16 Q1014=
201906101530 METAR LRAR 101530Z 06003KT 310V100 9999 FEW055CB 30/18 Q1014=
201906101600 METAR LRAR 101600Z 05005KT 020V080 9999 FEW055CB 29/18 Q1013=
201906101630 METAR LRAR 101630Z 02005KT 340V060 9999 FEW055CB 29/19 Q1013=
201906101700 METAR LRAR 101700Z 03006KT 350V050 9999 FEW055CB 28/19 Q1013=
201906101730 METAR LRAR 101730Z 05005KT 9999 FEW055CB 28/20 Q1014=
201906101800 METAR LRAR 101800Z 04006KT 9999 FEW055CB 27/20 Q1014=
201906101830 METAR COR LRAR 101830Z 05004KT 9999 FEW050CB 27/20 Q1013=
201906101900 METAR LRAR 101900Z 14008KT 9999 FEW050CB 26/19 Q1014=
201906101930 METAR LRAR 101930Z 15006KT CAVOK 24/18 Q1014=
201906102000 METAR LRAR 102000Z 14006KT CAVOK 23/19 Q1014=
201906102030 METAR LRAR 102030Z 15007KT CAVOK 23/19 Q1014=
201906102100 METAR LRAR 102100Z 14007KT CAVOK 23/18 Q1014=
201906102130 METAR LRAR 102130Z 14006KT CAVOK 22/18 Q1014=
201906102200 METAR LRAR 102200Z 14005KT CAVOK 22/18 Q1014=
201906102230 METAR LRAR 102230Z 13005KT CAVOK 21/17 Q1014=
201906102300 METAR LRAR 102300Z 13006KT CAVOK 21/17 Q1014=
201906102330 METAR LRAR 102330Z 13007KT CAVOK 21/17 Q1013=
201906110000 METAR LRAR 110000Z 12006KT CAVOK 21/16 Q1013=
201906110030 METAR LRAR 110030Z 13009KT CAVOK 21/16 Q1013=
201906110100 METAR LRAR 110100Z 14009KT CAVOK 20/17 Q1013=
201906110130 METAR LRAR 110130Z 13008KT CAVOK 20/16 Q1013=
201906110200 METAR COR LRAR 110200Z 14005KT CAVOK 19/16 Q1013=
201906110230 METAR LRAR 110230Z 13007KT CAVOK 19/17 Q1013=
201906110300 METAR LRAR 110300Z 14006KT CAVOK 19/16 Q1013=
201906110330 METAR LRAR 110330Z 14007KT CAVOK 19/17 Q1013=
201906110400 METAR LRAR 110400Z 13009KT CAVOK 20/16 Q1013=
201906110430 METAR LRAR 110430Z 13007KT CAVOK 20/17 Q1014=
201906110500 METAR LRAR 110500Z 13005KT CAVOK 22/17 Q1014=
201906110530 METAR LRAR 110530Z 13006KT 100V160 CAVOK 23/17 Q1014=
201906110600 METAR LRAR 110600Z 12009KT CAVOK 24/17 Q1014=
201906110630 METAR LRAR 110630Z 13008KT CAVOK 25/17 Q1014=
201906110700 METAR LRAR 110700Z 12007KT CAVOK 26/16 Q1014=
201906110730 METAR LRAR 110730Z 12004KT 090V160 CAVOK 27/17 Q1014=
201906110800 METAR LRAR 110800Z 09004KT 050V130 CAVOK 27/18 Q1014=
201906110830 METAR LRAR 110830Z VRB03KT CAVOK 28/18 Q1014=
201906110900 METAR LRAR 110900Z VRB03KT CAVOK 29/17 Q1014=
201906110930 METAR LRAR 110930Z 35004KT 300V040 CAVOK 29/19 Q1014=
201906111000 METAR LRAR 111000Z VRB04KT CAVOK 29/17 Q1013=
201906111030 METAR LRAR 111030Z 07006KT 010V130 9999 SCT025 FEW045 29/18
                        Q1013=
201906111100 METAR LRAR 111100Z VRB04KT 9999 SCT026 FEW045 29/19 Q1013=
201906111130 METAR LRAR 111130Z 08008KT 9999 TS SCT028 FEW046CB 28/17
                        Q1013=
201906111200 METAR LRAR 111200Z 10007KT 7000 TSRA SCT012 SCT024 BKN040CB
                        21/19 Q1014 R09/19//95=
201906111230 METAR LRAR 111230Z 29004KT 260V320 9999 SCT024 SCT048CB 22/19
                        Q1013 RETSRA R09/19//95=
201906111300 METAR LRAR 111300Z VRB02KT 9999 SCT028 FEW050CB 22/21 Q1013
                        RETSRA R09/19//95=
201906111330 METAR LRAR 111330Z 09004KT 9999 SCT034 FEW055CB 24/19 Q1013
                        R09/19//95=
201906111400 METAR LRAR 111400Z 07004KT 020V090 9999 SCT035 FEW060CB 25/20
                        Q1013 R09/19//95=
201906111430 METAR LRAR 111430Z 05004KT 020V090 9999 SCT037 26/20 Q1013
                        R09/19//95=
201906111500 METAR LRAR 111500Z 06005KT 9999 SCT038 27/20 Q1013 R09/CLRD//=
201906111530 METAR LRAR 111530Z 05006KT 020V080 9999 SCT026 SCT040 27/20
                        Q1013=
201906111600 METAR LRAR 111600Z 11008KT 070V140 9999 -TSRA SCT030 FEW040CB
                        26/18 Q1013=
201906111630 METAR LRAR 111630Z 12008KT 9999 FEW009 FEW040CB 26/19 Q1013
                        RETS=
201906111700 METAR LRAR 111700Z 12009KT 9999 FEW050CB 26/19 Q1013 RETS=
201906111730 METAR LRAR 111730Z 11009KT 9999 FEW055CB 25/19 Q1013=
201906111800 METAR LRAR 111800Z 12009KT CAVOK 24/18 Q1013=
201906111830 METAR LRAR 111830Z 12009KT CAVOK 24/18 Q1013=
201906111900 METAR LRAR 111900Z 13008KT 100V160 CAVOK 24/18 Q1014=
201906111930 METAR LRAR 111930Z 14005KT CAVOK 23/18 Q1014=
201906112000 METAR LRAR 112000Z 14003KT CAVOK 21/18 Q1014=
201906112030 METAR LRAR 112030Z VRB01KT CAVOK 20/18 Q1014=
201906112100 METAR LRAR 112100Z VRB01KT CAVOK 19/18 Q1014=
201906112130 METAR COR LRAR 112130Z 13005KT CAVOK 19/18 Q1014=
201906112200 METAR LRAR 112200Z 11005KT CAVOK 21/18 Q1015=
201906112230 METAR LRAR 112230Z 14005KT CAVOK 20/18 Q1015=
201906112300 METAR LRAR 112300Z VRB02KT CAVOK 20/18 Q1015=
201906112330 METAR LRAR 112330Z VRB02KT CAVOK 20/18 Q1015=
201906120000 METAR LRAR 120000Z VRB01KT CAVOK 19/18 Q1014=
201906120030 METAR LRAR 120030Z VRB03KT CAVOK 18/18 Q1014=
201906120100 METAR LRAR 120100Z 14003KT CAVOK 19/18 Q1014=
201906120130 METAR LRAR 120130Z 07003KT CAVOK 18/17 Q1014=
201906120200 METAR LRAR 120200Z 09002KT CAVOK 18/17 Q1014=
201906120230 METAR LRAR 120230Z 11003KT 9999 MIFG NSC 18/17 Q1014=
201906120300 METAR LRAR 120300Z 00000KT 9999 MIFG NSC 17/17 Q1014=
201906120330 METAR LRAR 120330Z 13001KT 9999 MIFG NSC 17/17 Q1014=
201906120400 METAR LRAR 120400Z 11003KT CAVOK 19/18 Q1014=
201906120430 METAR LRAR 120430Z 10002KT CAVOK 21/19 Q1014=
201906120500 METAR LRAR 120500Z 11003KT 080V150 CAVOK 22/19 Q1014=
201906120530 METAR LRAR 120530Z VRB02KT CAVOK 22/20 Q1014=
201906120600 METAR LRAR 120600Z VRB02KT CAVOK 24/19 Q1014=
201906120630 METAR LRAR 120630Z 09003KT 050V140 CAVOK 26/19 Q1014=
201906120700 METAR LRAR 120700Z 14003KT 080V170 CAVOK 26/18 Q1015=
201906120730 METAR LRAR 120730Z 11004KT 080V140 CAVOK 27/19 Q1014=
201906120800 METAR LRAR 120800Z 14006KT 100V170 CAVOK 27/18 Q1015=
201906120830 METAR LRAR 120830Z 12006KT CAVOK 28/18 Q1015=
201906120900 METAR LRAR 120900Z 14008KT CAVOK 28/19 Q1015=
201906120930 METAR LRAR 120930Z 12006KT 090V160 CAVOK 29/20 Q1015=
201906121000 METAR LRAR 121000Z 13004KT 090V180 CAVOK 29/19 Q1015=
201906121030 METAR LRAR 121030Z 19004KT 140V240 CAVOK 29/20 Q1014=
201906121100 METAR LRAR 121100Z 19004KT 150V250 9999 FEW045CB 30/18 Q1014=
201906121130 METAR LRAR 121130Z 28005KT 250V320 9999 FEW045CB 30/17 Q1014=
201906121200 METAR LRAR 121200Z VRB02KT 9999 FEW045CB 31/19 Q1014=
201906121230 METAR LRAR 121230Z VRB02KT 9999 FEW050CB 31/16 Q1014=
201906121300 METAR LRAR 121300Z 25003KT 180V320 9999 FEW040 FEW050CB 31/17
                        Q1013=
201906121330 METAR LRAR 121330Z VRB02KT 9999 FEW040 FEW050CB 32/15 Q1014=
201906121400 METAR LRAR 121400Z 21004KT 140V300 9999 FEW042 FEW050CB 31/15
                        Q1014=
201906121430 METAR LRAR 121430Z 20005KT 140V230 9999 FEW045 31/15 Q1013=
201906121500 METAR LRAR 121500Z VRB03KT 9999 FEW045 31/15 Q1013=
201906121530 METAR LRAR 121530Z 20004KT 140V220 9999 FEW047 31/17 Q1013=
201906121600 METAR LRAR 121600Z 20004KT 9999 FEW030 30/18 Q1013=
201906121630 METAR LRAR 121630Z 20003KT 9999 FEW035 30/17 Q1013=
201906121700 METAR LRAR 121700Z 20004KT 9999 FEW040 30/19 Q1013=
201906121730 METAR LRAR 121730Z VRB01KT CAVOK 29/20 Q1013=
201906121800 METAR LRAR 121800Z VRB02KT CAVOK 29/18 Q1013=
201906121830 METAR LRAR 121830Z VRB02KT CAVOK 26/19 Q1013=
201906121900 METAR LRAR 121900Z 15006KT CAVOK 25/20 Q1013=
201906121930 METAR LRAR 121930Z 14007KT CAVOK 24/20 Q1014=
201906122000 METAR LRAR 122000Z 13006KT CAVOK 23/19 Q1014=
201906122030 METAR LRAR 122030Z 14006KT CAVOK 22/19 Q1014=
201906122100 METAR LRAR 122100Z 14007KT CAVOK 22/19 Q1014=
201906122130 METAR LRAR 122130Z 14007KT CAVOK 22/19 Q1014=
201906122200 METAR LRAR 122200Z 14006KT CAVOK 21/19 Q1014=
201906122230 METAR LRAR 122230Z 14006KT CAVOK 21/19 Q1014=
201906122300 METAR LRAR 122300Z 15006KT CAVOK 21/19 Q1014=
201906122330 METAR LRAR 122330Z 14007KT CAVOK 21/19 Q1014=
201906130000 METAR LRAR 130000Z 14007KT CAVOK 20/19 Q1014=
201906130030 METAR LRAR 130030Z 14008KT CAVOK 20/19 Q1014=
201906130100 METAR LRAR 130100Z 13008KT CAVOK 21/19 Q1014=
201906130130 METAR LRAR 130130Z 14008KT CAVOK 21/19 Q1013=
201906130200 METAR LRAR 130200Z 14008KT CAVOK 20/19 Q1013=
201906130230 METAR LRAR 130230Z 12008KT CAVOK 21/18 Q1013=
201906130300 METAR LRAR 130300Z 13007KT CAVOK 20/18 Q1014=
201906130330 METAR LRAR 130330Z 13008KT CAVOK 21/18 Q1014=
201906130400 METAR LRAR 130400Z 13006KT CAVOK 21/18 Q1014=
201906130430 METAR LRAR 130430Z 13007KT CAVOK 22/18 Q1014=
201906130500 METAR LRAR 130500Z 14007KT CAVOK 23/19 Q1014=
201906130530 METAR LRAR 130530Z 14007KT CAVOK 24/19 Q1014=
201906130600 METAR LRAR 130600Z 14007KT CAVOK 25/18 Q1014=
201906130630 METAR LRAR 130630Z 13007KT CAVOK 26/18 Q1014=
201906130700 METAR LRAR 130700Z 14008KT CAVOK 27/19 Q1015=
201906130730 METAR LRAR 130730Z 14009KT CAVOK 27/19 Q1015=
201906130800 METAR LRAR 130800Z 14008KT 110V170 CAVOK 28/19 Q1015=
201906130830 METAR LRAR 130830Z 16007KT CAVOK 29/19 Q1015=
201906130900 METAR LRAR 130900Z 15006KT 120V190 CAVOK 29/18 Q1015=
201906130930 METAR LRAR 130930Z 15005KT 120V180 CAVOK 30/18 Q1015=
201906131000 METAR LRAR 131000Z 17005KT 130V210 CAVOK 30/17 Q1015=
201906131030 METAR LRAR 131030Z 15007KT 130V210 CAVOK 30/17 Q1015=
201906131100 METAR LRAR 131100Z 15005KT 100V220 CAVOK 31/17 Q1014=
201906131130 METAR LRAR 131130Z 13007KT CAVOK 31/17 Q1014=
201906131200 METAR LRAR 131200Z 13006KT 100V160 CAVOK 31/17 Q1014=
201906131230 METAR LRAR 131230Z 15006KT CAVOK 31/17 Q1014=
201906131300 METAR LRAR 131300Z 15006KT 080V200 CAVOK 32/16 Q1014=
201906131330 METAR LRAR 131330Z 15006KT 120V190 CAVOK 32/17 Q1014=
201906131400 METAR LRAR 131400Z 13006KT CAVOK 32/20 Q1014=
201906131430 METAR LRAR 131430Z 16004KT 130V210 CAVOK 32/16 Q1013=
201906131500 METAR LRAR 131500Z 17004KT 130V220 CAVOK 32/18 Q1014=
201906131530 METAR LRAR 131530Z 16004KT 120V190 CAVOK 31/18 Q1013=
201906131600 METAR LRAR 131600Z 14004KT CAVOK 31/19 Q1013=
201906131630 METAR LRAR 131630Z 14005KT CAVOK 31/20 Q1013=
201906131700 METAR LRAR 131700Z 14005KT CAVOK 30/19 Q1013=
201906131730 METAR LRAR 131730Z 12006KT CAVOK 29/19 Q1013=
201906131800 METAR LRAR 131800Z 13004KT CAVOK 28/20 Q1013=
201906131830 METAR LRAR 131830Z 13004KT CAVOK 27/20 Q1013=
201906131900 METAR LRAR 131900Z 12004KT 100V160 CAVOK 27/19 Q1014=
201906131930 METAR LRAR 131930Z 14004KT CAVOK 25/20 Q1014=
201906132000 METAR LRAR 132000Z VRB01KT CAVOK 24/21 Q1014=
201906132030 METAR LRAR 132030Z 15006KT CAVOK 24/21 Q1014=
201906132100 METAR LRAR 132100Z 15006KT CAVOK 23/21 Q1014=
201906132130 METAR LRAR 132130Z 14007KT CAVOK 23/21 Q1015=
201906132200 METAR LRAR 132200Z 14006KT CAVOK 23/21 Q1015=
201906132230 METAR LRAR 132230Z 15005KT CAVOK 23/20 Q1015=
201906132300 METAR LRAR 132300Z 14004KT CAVOK 22/20 Q1015=
201906132330 METAR LRAR 132330Z 14004KT CAVOK 22/19 Q1015=
201906140000 METAR LRAR 140000Z 13005KT CAVOK 21/19 Q1015=
201906140030 METAR LRAR 140030Z 12004KT CAVOK 21/20 Q1015=
201906140100 METAR LRAR 140100Z 14007KT CAVOK 22/20 Q1015=
201906140130 METAR LRAR 140130Z 13006KT CAVOK 22/19 Q1015=
201906140200 METAR LRAR 140200Z 14006KT CAVOK 21/19 Q1015=
201906140230 METAR LRAR 140230Z 14006KT CAVOK 21/19 Q1015=
201906140300 METAR LRAR 140300Z 15004KT CAVOK 21/19 Q1015=
201906140330 METAR LRAR 140330Z 14004KT CAVOK 21/19 Q1015=
201906140400 METAR LRAR 140400Z 14006KT CAVOK 22/19 Q1015=
201906140430 METAR LRAR 140430Z 14006KT CAVOK 23/19 Q1016=
201906140500 METAR LRAR 140500Z 16005KT 130V190 CAVOK 24/20 Q1016=
201906140530 METAR LRAR 140530Z 17004KT 140V210 CAVOK 25/20 Q1016=
201906140600 METAR LRAR 140600Z 18004KT 140V210 CAVOK 26/21 Q1017=
201906140630 METAR LRAR 140630Z 15005KT 120V190 CAVOK 27/20 Q1017=
201906140700 METAR LRAR 140700Z 15007KT CAVOK 27/21 Q1017=
201906140730 METAR LRAR 140730Z 18005KT 130V220 CAVOK 28/21 Q1017=
201906140800 METAR COR LRAR 140800Z 16005KT 120V190 CAVOK 29/22 Q1017=
201906140830 METAR COR LRAR 140830Z 18005KT 120V230 CAVOK 29/21 Q1017=
201906140900 METAR COR LRAR 140900Z 16005KT 110V240 CAVOK 29/21 Q1017=
201906140930 METAR LRAR 140930Z 18005KT 130V210 CAVOK 29/22 Q1017=
201906141000 METAR LRAR 141000Z 16006KT 120V220 CAVOK 30/21 Q1017=
201906141030 METAR LRAR 141030Z 23007KT CAVOK 30/22 Q1017=
201906141100 METAR LRAR 141100Z 23006KT 200V270 CAVOK 30/22 Q1017=
201906141130 METAR LRAR 141130Z VRB04KT CAVOK 31/22 Q1017=
201906141200 METAR LRAR 141200Z 20005KT 130V280 CAVOK 31/23 Q1017=
201906141230 METAR LRAR 141230Z 22004KT 170V260 9999 FEW048 32/21 Q1017=
201906141300 METAR LRAR 141300Z VRB03KT 9999 FEW048 32/21 Q1017=
201906141330 METAR LRAR 141330Z 26004KT 200V290 9999 FEW045CB 32/22 Q1016=
201906141400 METAR LRAR 141400Z 19004KT 110V270 9999 FEW048CB 32/22 Q1016=
201906141430 METAR LRAR 141430Z 19005KT 140V230 9999 FEW048CB 31/22 Q1016=
201906141500 METAR LRAR 141500Z VRB01KT 9999 VCTS SCT045CB 32/23 Q1016=
201906141530 METAR LRAR 141530Z 00000KT 9999 TS BKN045CB 31/22 Q1016=
201906141600 METAR LRAR 141600Z 28007KT 9999 TS BKN045CB 28/24 Q1017=
201906141630 METAR LRAR 141630Z 25003KT 9999 TS BKN045CB 27/24 Q1016=
201906141700 METAR LRAR 141700Z 27005KT 9999 SCT045CB 27/24 Q1016 RETS=
201906141730 METAR LRAR 141730Z 27005KT 9999 FEW045CB 26/24 Q1016 RETS=
201906141800 METAR LRAR 141800Z 31004KT CAVOK 25/23 Q1016=
201906141830 METAR LRAR 141830Z 32003KT 9999 FEW045CB 25/23 Q1016=
201906141900 METAR LRAR 141900Z 05003KT 040V160 9999 FEW045CB 24/22 Q1017=
201906141930 METAR LRAR 141930Z VRB01KT 9999 FEW045CB 24/22 Q1017=
201906142000 METAR LRAR 142000Z VRB01KT 9999 FEW045CB 23/22 Q1017=
201906142030 METAR LRAR 142030Z 11001KT CAVOK 23/22 Q1017=
201906142100 METAR LRAR 142100Z 14003KT 110V220 CAVOK 23/22 Q1017=
201906142130 METAR LRAR 142130Z 28002KT CAVOK 22/21 Q1017=
201906142200 METAR LRAR 142200Z VRB01KT CAVOK 21/20 Q1017=
201906142230 METAR LRAR 142230Z 09003KT CAVOK 22/22 Q1017=
201906142300 METAR LRAR 142300Z 14004KT CAVOK 23/22 Q1016=
201906142330 METAR LRAR 142330Z 15003KT CAVOK 23/22 Q1016=
201906150000 METAR LRAR 150000Z 13003KT CAVOK 22/22 Q1016=
201906150030 METAR LRAR 150030Z 13004KT CAVOK 22/21 Q1016=
201906150100 METAR LRAR 150100Z 15002KT CAVOK 23/22 Q1015=
201906150130 METAR LRAR 150130Z 12006KT CAVOK 23/21 Q1016=
201906150200 METAR LRAR 150200Z 14004KT 110V240 CAVOK 22/21 Q1016=
201906150230 METAR LRAR 150230Z 22002KT 170V250 CAVOK 21/20 Q1016=
201906150300 METAR LRAR 150300Z 12002KT 8000 MIFG NSC 20/20 Q1016=
201906150330 METAR LRAR 150330Z 16002KT 120V180 8000 MIFG NSC 21/21 Q1016=
201906150400 METAR LRAR 150400Z VRB02KT CAVOK 22/21 Q1016=
201906150430 METAR LRAR 150430Z VRB02KT CAVOK 23/22 Q1016=
201906150500 METAR LRAR 150500Z 14005KT CAVOK 24/22 Q1016=
201906150530 METAR LRAR 150530Z VRB03KT CAVOK 24/22 Q1016=
201906150600 METAR LRAR 150600Z 18004KT 140V220 CAVOK 25/22 Q1016=
201906150630 METAR LRAR 150630Z VRB03KT CAVOK 27/22 Q1016=
201906150700 METAR LRAR 150700Z 15004KT CAVOK 27/21 Q1016=
201906150730 METAR LRAR 150730Z 14004KT 100V210 CAVOK 28/22 Q1016=
201906150800 METAR LRAR 150800Z 17004KT 120V230 CAVOK 29/23 Q1016=
201906150830 METAR LRAR 150830Z 15004KT 080V210 CAVOK 30/22 Q1016=
201906150900 METAR LRAR 150900Z 16005KT 120V230 CAVOK 29/21 Q1016=
201906150930 METAR LRAR 150930Z 21005KT 170V250 9999 SCT026 30/22 Q1016=
201906151000 METAR LRAR 151000Z 19006KT 140V230 9999 SCT026 30/23 Q1015=
201906151030 METAR COR LRAR 151030Z VRB04KT 9999 FEW026 BKN033 31/21 Q1015=
201906151100 METAR LRAR 151100Z 22004KT 9999 FEW026 BKN034 31/22 Q1015=
201906151130 METAR LRAR 151130Z 21004KT 140V260 9999 SCT026 BKN034 32/23
                        Q1014=
201906151200 METAR LRAR 151200Z VRB04KT 9999 SCT026 BKN035 31/21 Q1014=
201906151230 METAR LRAR 151230Z VRB05KT 9999 SCT027 BKN037 32/20 Q1014=
201906151300 METAR LRAR 151300Z 17003KT 110V250 9999 FEW029 BKN040 32/20
                        Q1014=
201906151330 METAR LRAR 151330Z VRB02KT 9999 FEW030 BKN040 33/19 Q1014=
201906151400 METAR LRAR 151400Z VRB05KT 9999 SCT033 BKN042 32/20 Q1013=
201906151430 METAR LRAR 151430Z 21005KT 180V240 9999 SCT037 FEW045TCU
                        32/21 Q1013=
201906151500 METAR LRAR 151500Z VRB04KT 9999 SCT037 FEW050CB 32/19 Q1013=
201906151530 METAR LRAR 151530Z 19004KT 9999 SCT038 FEW055CB 32/19 Q1013=
201906151600 METAR LRAR 151600Z 17005KT 140V200 9999 SCT050CB 31/20 Q1013=
201906151630 METAR LRAR 151630Z 19008KT 9999 FEW050CB 28/18 Q1013=
201906151700 METAR COR LRAR 151700Z 22007KT 9999 FEW050CB 27/20 Q1013=
201906151730 METAR COR LRAR 151730Z 16005KT 130V190 CAVOK 27/20 Q1013=
201906151800 METAR LRAR 151800Z 18005KT 140V210 CAVOK 26/21 Q1013=
201906151830 METAR LRAR 151830Z 14005KT CAVOK 25/21 Q1013=
201906151900 METAR LRAR 151900Z 14007KT CAVOK 25/20 Q1013=
201906151930 METAR LRAR 151930Z 14009KT CAVOK 25/19 Q1014=
201906152000 METAR LRAR 152000Z 14008KT CAVOK 23/19 Q1013=
201906152030 METAR LRAR 152030Z 15008KT CAVOK 22/18 Q1013=
201906152100 METAR LRAR 152100Z AUTO 13006KT 9999 NCD 22/18 Q1013=
201906152130 METAR COR LRAR 152130Z 14007KT CAVOK 21/18 Q1013=
201906152200 METAR LRAR 152200Z 16004KT CAVOK 21/17 Q1012=
201906152230 METAR LRAR 152230Z VRB01KT CAVOK 21/17 Q1012=
201906152300 METAR LRAR 152300Z 15005KT CAVOK 20/17 Q1013=
201906152330 METAR LRAR 152330Z 12005KT CAVOK 20/17 Q1013=
201906160000 METAR LRAR 160000Z 14008KT CAVOK 21/17 Q1013=
201906160030 METAR COR LRAR 160030Z 14009KT CAVOK 21/17 Q1013=
201906160100 METAR LRAR 160100Z 15005KT CAVOK 20/16 Q1013=
201906160130 METAR LRAR 160130Z 15006KT CAVOK 20/16 Q1012=
201906160200 METAR LRAR 160200Z 14004KT CAVOK 20/17 Q1012=
201906160230 METAR LRAR 160230Z 14002KT CAVOK 20/17 Q1012=
201906160300 METAR LRAR 160300Z 16003KT 140V200 CAVOK 20/17 Q1012=
201906160330 METAR LRAR 160330Z 15003KT CAVOK 20/17 Q1013=
201906160400 METAR LRAR 160400Z 15003KT 130V190 CAVOK 21/18 Q1013=
201906160430 METAR LRAR 160430Z 13005KT CAVOK 22/19 Q1013=
201906160500 METAR LRAR 160500Z 13004KT CAVOK 24/19 Q1013=
201906160530 METAR LRAR 160530Z 12005KT CAVOK 25/20 Q1013=
201906160600 METAR LRAR 160600Z 12004KT CAVOK 26/19 Q1013=
201906160630 METAR LRAR 160630Z 15004KT CAVOK 27/19 Q1013=
201906160700 METAR LRAR 160700Z AUTO 14004KT 110V180 9999 NCD 28/18 Q1013=
201906160730 METAR LRAR 160730Z VRB03KT CAVOK 28/19 Q1014=
201906160800 METAR LRAR 160800Z VRB03KT CAVOK 28/19 Q1014=
201906160830 METAR LRAR 160830Z 19003KT 140V250 CAVOK 29/19 Q1013=
201906160900 METAR LRAR 160900Z VRB02KT CAVOK 30/18 Q1013=
201906160930 METAR LRAR 160930Z 15004KT 100V200 CAVOK 30/18 Q1013=
201906161000 METAR LRAR 161000Z VRB02KT CAVOK 31/19 Q1013=
201906161030 METAR LRAR 161030Z 28003KT 220V030 CAVOK 30/20 Q1013=
201906161100 METAR LRAR 161100Z 31005KT 270V360 9999 FEW050CB 31/20 Q1013=
201906161130 METAR LRAR 161130Z 31004KT 240V350 9999 FEW050CB 31/21 Q1013=
201906161200 METAR LRAR 161200Z 28004KT 250V320 9999 FEW050CB 31/20 Q1012=
201906161230 METAR LRAR 161230Z 27005KT 240V320 9999 FEW050CB 31/21 Q1012=
201906161300 METAR LRAR 161300Z 28005KT 230V350 9999 FEW050CB 32/21 Q1012=
201906161330 METAR LRAR 161330Z 31005KT 250V350 9999 FEW055CB 32/21 Q1011=
201906161400 METAR COR LRAR 161400Z 02006KT 340V050 9999 FEW055CB 32/19
                        Q1011=
201906161430 METAR LRAR 161430Z 08007KT 9999 FEW055CB 31/19 Q1011=
201906161500 METAR LRAR 161500Z 10005KT 040V130 9999 FEW060CB 32/18 Q1010=
201906161530 METAR LRAR 161530Z 09005KT 050V120 9999 FEW060CB 32/17 Q1011=
201906161600 METAR LRAR 161600Z 13006KT 080V170 9999 SCT055CB 31/20 Q1011=
201906161630 METAR LRAR 161630Z 16010KT 140V200 9999 SCT055CB 28/18 Q1011=
201906161700 METAR LRAR 161700Z 18007KT 9999 SCT055CB 27/18 Q1012=
201906161730 METAR LRAR 161730Z 21003KT 9999 VCTS BKN050CB 26/18 Q1012=
201906161800 METAR LRAR 161800Z 15006KT 130V190 9999 SCT050CB 25/19 Q1012=
201906161830 METAR LRAR 161830Z 30015G26KT 9999 TS BKN050CB 25/18 Q1013=
201906161900 METAR LRAR 161900Z 32016KT 9999 TS BKN050CB 22/18 Q1013=
201906161930 METAR LRAR 161930Z 33007KT 300V010 9999 TS BKN050CB 22/18
                        Q1014=
201906162000 METAR LRAR 162000Z 19005KT 170V260 9999 -TSRA FEW007 SCT015
                        BKN045CB 21/19 Q1014 R09/29//95=
201906162030 METAR LRAR 162030Z 02011KT 350V050 9999 -TSRA SCT007 BKN040CB
                        21/20 Q1015 R09/29//95=
201906162100 METAR LRAR 162100Z 07010KT 040V100 9999 -TSRA SCT010 BKN040CB
                        21/18 Q1016 R09/29//95=
201906162130 METAR LRAR 162130Z 06018G29KT 9999 SCT006 SCT038CB 21/19
                        Q1015 RETS R09/29//95=
201906162200 METAR LRAR 162200Z AUTO 04018KT 9000 RA FEW006/// SCT022///
                        BKN026/// 20/19 Q1014=
201906162230 METAR LRAR 162230Z 05014KT 9999 -TS SCT007 SCT030CB 19/18
                        Q1013 R09/29//95=
201906162300 METAR LRAR 162300Z 07013KT 9999 SCT030CB 20/18 Q1013 RETS
                        R09/29//95=
201906162330 METAR LRAR 162330Z 08016KT 9999 SCT030CB 20/18 Q1012 RETS
                        R09/29//95=
201906170000 METAR LRAR 170000Z 08011KT 050V110 9999 FEW030CB 20/17 Q1013
                        R09/29//95=
201906170030 METAR LRAR 170030Z 15004KT 110V190 9999 FEW030CB 20/17 Q1013
                        R09/29//95=
201906170100 METAR LRAR 170100Z 25009KT 9999 FEW030CB 19/18 Q1014 R09/29//95=
201906170130 METAR LRAR 170130Z 28008KT CAVOK 19/18 Q1015 R09/29//95=
201906170200 METAR LRAR 170200Z 31004KT 250V340 CAVOK 19/19 Q1015 R09/29//95=
201906170230 METAR LRAR 170230Z 29006KT 9999 FEW040CB 18/18 Q1015 R09/29//95=
201906170300 METAR LRAR 170300Z 33003KT 300V020 9999 FEW040CB 18/18 Q1015
                        R09/29//95=
201906170330 METAR LRAR 170330Z 35002KT 310V040 CAVOK 19/19 Q1015 R09/29//95=
201906170400 METAR LRAR 170400Z VRB02KT CAVOK 19/19 Q1015 R09/29//95=
201906170430 METAR LRAR 170430Z VRB02KT CAVOK 19/19 Q1015 R09/29//95=
201906170500 METAR LRAR 170500Z 05003KT CAVOK 20/20 Q1015 R09/29//95=
201906170530 METAR LRAR 170530Z 04006KT 010V070 CAVOK 21/19 Q1015 R09/29//95=
201906170600 METAR LRAR 170600Z 06006KT CAVOK 20/19 Q1016 R09/29//95=
201906170630 METAR LRAR 170630Z 08006KT 050V110 CAVOK 21/19 Q1016 R09/29//95=
201906170700 METAR LRAR 170700Z 06005KT 020V090 CAVOK 21/19 Q1016 R09/29//95=
201906170730 METAR LRAR 170730Z 02004KT 340V070 9999 FEW026 21/19 Q1016
                        R09/29//95=
201906170800 METAR LRAR 170800Z 04004KT 350V070 9999 FEW028 22/19 Q1016
                        R09/29//95=
201906170830 METAR LRAR 170830Z VRB02KT 9999 SCT028 22/19 Q1016 R09/29//95=
201906170900 METAR LRAR 170900Z 28003KT 250V310 9999 SCT030 22/20 Q1017
                        R09/29//95=
201906170930 METAR LRAR 170930Z 23004KT 9999 SCT030 22/20 Q1017 R09/29//95=
201906171000 METAR LRAR 171000Z 23004KT 9999 SCT033 FEW045CB 22/20 Q1017
                        R09/29//95=
201906171030 METAR LRAR 171030Z 27005KT 9999 SCT034 FEW047CB 23/20 Q1017
                        R09/29//95=
201906171100 METAR LRAR 171100Z 26005KT 230V300 9999 SCT036 FEW050CB 24/20
                        Q1017 R09/29//95=
201906171130 METAR LRAR 171130Z 28004KT 230V340 9999 SCT036 FEW055CB 24/19
                        Q1016 R09/29//95=
201906171200 METAR LRAR 171200Z 28005KT 250V330 9999 SCT038 FEW055CB 26/20
                        Q1016 R09/29//95=
201906171230 METAR LRAR 171230Z 28006KT 230V320 9999 SCT038 FEW055CB 26/20
                        Q1016 R09/29//95=
201906171300 METAR LRAR 171300Z 28005KT 210V330 9999 SCT040 FEW055CB 27/20
                        Q1016 R09/29//95=
201906171330 METAR LRAR 171330Z 34005KT 260V040 9999 SCT040 FEW055CB 27/21
                        Q1016 R09/29//95=
201906171400 METAR LRAR 171400Z 35006KT 310V040 9999 SCT043 FEW056CB 27/21
                        Q1015 R09/29//95=
201906171430 METAR LRAR 171430Z 36004KT 320V070 9999 FEW028 BKN044 FEW058CB
                        27/21 Q1015 R09/29//95=
201906171500 METAR LRAR 171500Z 36006KT 310V040 9999 SCT040 FEW060CB 27/20
                        Q1015 R09/29//95=
201906171530 METAR LRAR 171530Z 01004KT 340V060 9999 SCT040 FEW060CB 27/20
                        Q1015 R09/29//95=
201906171600 METAR LRAR 171600Z 36004KT 330V040 9999 FEW045 FEW050CB 27/19
                        Q1015 R09/CLRD//=
201906171630 METAR LRAR 171630Z 02004KT 330V080 9999 FEW045 FEW050CB 27/19
                        Q1015=
201906171700 METAR LRAR 171700Z 04003KT 320V110 9999 FEW050CB 27/19 Q1015=
201906171730 METAR LRAR 171730Z 07004KT 9999 SCT045CB 26/19 Q1015=
201906171800 METAR LRAR 171800Z 06005KT 9999 TS VCSH BKN042CB 25/18 Q1015=
201906171830 METAR LRAR 171830Z 11008KT 9999 TS VCSH FEW035 BKN045CB 23/15
                        Q1015=
201906171900 METAR LRAR 171900Z 12005KT 9999 TS VCSH SCT045CB 22/16 Q1015=
201906171930 METAR LRAR 171930Z 09003KT 030V190 9999 TS FEW045CB 21/17
                        Q1016=
201906172000 METAR LRAR 172000Z 28003KT 250V320 9999 FEW050CB 20/17 Q1016
                        RETS=
201906172030 METAR LRAR 172030Z 16003KT 9999 FEW055CB 19/17 Q1016 RETS=
201906172100 METAR LRAR 172100Z VRB02KT CAVOK 18/17 Q1016=
201906172130 METAR LRAR 172130Z 18003KT 160V260 CAVOK 18/17 Q1016=
201906172200 METAR LRAR 172200Z VRB01KT CAVOK 19/16 Q1016=
201906172230 METAR LRAR 172230Z VRB01KT CAVOK 18/17 Q1016=
201906172300 METAR LRAR 172300Z 30002KT CAVOK 17/16 Q1016=
201906172330 METAR LRAR 172330Z VRB02KT CAVOK 17/17 Q1016=
201906180000 METAR LRAR 180000Z 28002KT CAVOK 17/17 Q1015=
201906180030 METAR LRAR 180030Z VRB01KT CAVOK 17/17 Q1016=
201906180100 METAR LRAR 180100Z 01003KT CAVOK 17/17 Q1016=
201906180130 METAR LRAR 180130Z 35003KT 330V040 CAVOK 17/17 Q1015=
201906180200 METAR LRAR 180200Z 01003KT CAVOK 17/17 Q1015=
201906180230 METAR LRAR 180230Z 01003KT 9999 MIFG NSC 17/17 Q1015=
201906180300 METAR LRAR 180300Z 01002KT 9999 MIFG NSC 16/16 Q1016=
201906180330 METAR LRAR 180330Z VRB02KT 9999 MIFG NSC 16/16 Q1016=
201906180400 METAR LRAR 180400Z VRB01KT CAVOK 17/17 Q1016=
201906180430 METAR LRAR 180430Z VRB03KT 8000 FEW005 19/19 Q1016=
201906180500 METAR LRAR 180500Z 14007KT 9000 SCT004 20/20 Q1017=
201906180530 METAR LRAR 180530Z 16005KT CAVOK 22/20 Q1017=
201906180600 METAR LRAR 180600Z 14009KT CAVOK 23/19 Q1017=
201906180630 METAR LRAR 180630Z 16010KT CAVOK 23/19 Q1017=
201906180700 METAR LRAR 180700Z 18008KT CAVOK 24/19 Q1017=
201906180730 METAR LRAR 180730Z 19006KT CAVOK 23/19 Q1017=
201906180800 METAR LRAR 180800Z 21007KT 170V240 9999 FEW026 24/19 Q1016=
201906180830 METAR LRAR 180830Z 22007KT 180V250 9999 FEW026 24/19 Q1017=
201906180900 METAR LRAR 180900Z 18006KT 140V220 9999 FEW026 24/20 Q1017=
201906180930 METAR LRAR 180930Z 16006KT 130V200 9999 FEW030 25/20 Q1017=
201906181000 METAR LRAR 181000Z 16005KT 110V210 9999 FEW030 25/20 Q1017=
201906181030 METAR LRAR 181030Z 15005KT 110V210 9999 FEW025 FEW030CB 25/20
                        Q1017=
201906181100 METAR LRAR 181100Z 16004KT 100V260 9999 FEW025 FEW030CB 27/21
                        Q1016=
201906181130 METAR LRAR 181130Z 25005KT 230V310 9999 SCT029 27/21 Q1016=
201906181200 METAR LRAR 181200Z 26004KT 210V310 9999 SCT030 27/20 Q1016=
201906181230 METAR LRAR 181230Z 28007KT 260V330 9999 SCT032 27/22 Q1015=
201906181300 METAR LRAR 181300Z 28005KT 220V330 9999 SCT032 28/19 Q1015=
201906181330 METAR LRAR 181330Z 31005KT 270V010 9999 SCT032 29/18 Q1015=
201906181400 METAR LRAR 181400Z 27005KT 180V330 9999 SCT035 28/18 Q1015=
201906181430 METAR LRAR 181430Z 28004KT 240V310 9999 SCT035 28/18 Q1015=
201906181500 METAR LRAR 181500Z VRB03KT 9999 FEW035 FEW040CB 29/19 Q1014=
201906181530 METAR LRAR 181530Z 08004KT 030V120 9999 FEW035 FEW040CB 28/19
                        Q1014=
201906181600 METAR LRAR 181600Z 05004KT 020V080 9999 FEW040CB 28/19 Q1014=
201906181630 METAR LRAR 181630Z VRB01KT 9999 FEW040CB SCT042 30/20 Q1014=
201906181700 METAR LRAR 181700Z 07002KT 360V130 9999 FEW040CB SCT042 28/20
                        Q1014=
201906181730 METAR LRAR 181730Z 35002KT 260V030 9999 FEW042CB 28/19 Q1014=
201906181800 METAR LRAR 181800Z 05003KT 020V080 9999 FEW043CB 26/20 Q1015=
201906181830 METAR LRAR 181830Z 03005KT CAVOK 25/21 Q1014=
201906181900 METAR LRAR 181900Z 06005KT CAVOK 24/20 Q1014=
201906181930 METAR LRAR 181930Z 05006KT CAVOK 23/20 Q1015=
201906182000 METAR LRAR 182000Z 05004KT CAVOK 23/20 Q1015=
201906182030 METAR LRAR 182030Z VRB01KT CAVOK 22/20 Q1015=
201906182100 METAR LRAR 182100Z 10004KT CAVOK 22/20 Q1015=
201906182130 METAR LRAR 182130Z 10002KT CAVOK 21/20 Q1015=
201906182200 METAR LRAR 182200Z 11004KT CAVOK 21/19 Q1015=
201906182230 METAR LRAR 182230Z 29004KT 220V300 CAVOK 19/18 Q1015=
201906182300 METAR LRAR 182300Z 30003KT 260V320 CAVOK 19/19 Q1015=
201906182330 METAR LRAR 182330Z 26006KT 230V290 CAVOK 19/19 Q1015=
201906190000 METAR LRAR 190000Z 25003KT 160V330 CAVOK 19/19 Q1015=
201906190030 METAR LRAR 190030Z 30003KT 280V350 8000 NSC 19/19 Q1014=
201906190100 METAR LRAR 190100Z 00000KT 8000 NSC 19/19 Q1014=
201906190130 METAR LRAR 190130Z 04002KT 360V070 8000 NSC 19/19 Q1014=
201906190200 METAR LRAR 190200Z 01004KT 8000 NSC 19/19 Q1014=
201906190230 METAR LRAR 190230Z 05002KT 6000 MIFG NSC 19/19 Q1014=
201906190300 METAR LRAR 190300Z 11003KT 7000 MIFG NSC 19/19 Q1014=
201906190330 METAR LRAR 190330Z 14003KT 6000 NSC 19/19 Q1014=
201906190400 METAR LRAR 190400Z VRB01KT 5000 BR NSC 20/20 Q1014=
201906190430 METAR LRAR 190430Z VRB01KT CAVOK 21/20 Q1014=
201906190500 METAR LRAR 190500Z 14005KT CAVOK 22/20 Q1014=
201906190530 METAR LRAR 190530Z 14008KT CAVOK 22/20 Q1014=
201906190600 METAR LRAR 190600Z 16005KT 130V190 CAVOK 23/21 Q1014=
201906190630 METAR LRAR 190630Z 15005KT 120V190 CAVOK 24/21 Q1014=
201906190700 METAR LRAR 190700Z 16004KT 130V190 CAVOK 25/21 Q1014=
201906190730 METAR LRAR 190730Z 14004KT CAVOK 26/22 Q1014=
201906190800 METAR LRAR 190800Z 15004KT 120V190 CAVOK 27/22 Q1014=
201906190830 METAR LRAR 190830Z VRB04KT 9999 SCT026 27/21 Q1014=
201906190900 METAR LRAR 190900Z 21005KT 160V290 9999 SCT026 28/20 Q1014=
201906190930 METAR LRAR 190930Z VRB04KT 9999 BKN028 FEW040TCU 28/20 Q1014=
201906191000 METAR LRAR 191000Z VRB05KT 9999 VCTS BKN027 FEW045CB 28/19
                        Q1014=
201906191030 METAR LRAR 191030Z 18003KT 130V210 9999 TS BKN028 SCT047CB
                        28/19 Q1014=
201906191100 METAR LRAR 191100Z 14003KT 110V180 9999 TS FEW008 BKN033
                        SCT050CB 28/19 Q1013=
201906191130 METAR COR LRAR 191130Z VRB03KT 9999 TS FEW006 BKN034 SCT055CB
                        28/20 Q1013=
201906191200 METAR LRAR 191200Z VRB01KT 9999 TS FEW009 BKN035 SCT056CB
                        29/20 Q1013=
201906191230 METAR LRAR 191230Z 31005KT 260V350 9999 TS FEW014 BKN036
                        SCT056CB 27/21 Q1012=
201906191300 METAR LRAR 191300Z 33008KT 9999 TS BKN036 SCT057CB 26/20
                        Q1012=
201906191330 METAR LRAR 191330Z 10009KT 020V120 5000 +TSRA BR SCT010 SCT038
                        BKN060CB 22/21 Q1012=
201906191400 METAR LRAR 191400Z 08006KT 050V110 9999 -TSRA SCT015 SCT042
                        SCT060CB 23/21 Q1012 R09/29//95=
201906191430 METAR COR LRAR 191430Z 04004KT 010V080 9999 TS FEW018 SCT045
                        FEW060CB 27/20 Q1012 RESHRA R09/29//95=
201906191500 METAR LRAR 191500Z 08004KT 060V120 9999 TS FEW020 SCT037
                        SCT050CB 27/21 Q1012 RESHRA R09/29//95=
201906191530 METAR LRAR 191530Z 09011KT 5000 +TSRA BR SCT010 BKN040CB
                        21/20 Q1013 R09/29//95=
201906191600 METAR LRAR 191600Z VRB02KT 9999 -TSRA FEW010 SCT016 BKN040CB
                        21/20 Q1012 RESHRA R09/29//95=
201906191630 METAR LRAR 191630Z 17003KT 120V220 9999 -TSRA FEW009 SCT014
                        BKN040CB 20/20 Q1012 RESHRA R09/29//95=
201906191700 METAR LRAR 191700Z 32003KT 200V010 9999 VCSH SCT012 SCT040CB
                        20/20 Q1012 RETS R09/29//95=
201906191730 METAR LRAR 191730Z 32003KT 290V360 9999 TS FEW010 FEW040CB
                        20/20 Q1013 R09/29//95=
201906191800 METAR LRAR 191800Z 34003KT 310V010 9999 VCSH FEW040CB 21/20
                        Q1013 RETS R09/29//95=
201906191830 METAR LRAR 191830Z 08005KT 9999 FEW040CB 21/20 Q1012 RETS
                        R09/29//95=
201906191900 METAR LRAR 191900Z 09003KT 9999 -RA NSC 21/20 Q1013 R09/29//95=
201906191930 METAR LRAR 191930Z 06005KT 9999 -RA NSC 20/20 Q1013 R09/29//95=
201906192000 METAR LRAR 192000Z 07008KT 9999 -RA SCT013 20/19 Q1013 R09/29//95=
201906192030 METAR LRAR 192030Z 08004KT 9999 FEW010 20/20 Q1012 R09/29//95=
201906192100 METAR LRAR 192100Z 01006KT 320V080 CAVOK 20/20 Q1013 R09/19//95=
201906192130 METAR LRAR 192130Z 04005KT 350V070 CAVOK 20/20 Q1012 R09/19//95=
201906192200 METAR LRAR 192200Z 01004KT 340V040 CAVOK 19/19 Q1012 R09/19//95=
201906192230 METAR LRAR 192230Z 02003KT 340V050 CAVOK 20/20 Q1012 R09/19//95=
201906192300 METAR LRAR 192300Z 09004KT CAVOK 19/19 Q1012 R09/19//95=
201906192330 METAR LRAR 192330Z 08003KT CAVOK 19/19 Q1012 R09/19//95=
201906200000 METAR LRAR 200000Z 09004KT CAVOK 19/19 Q1012 R09/19//95=
201906200030 METAR LRAR 200030Z 23013KT 9999 TS FEW047CB 20/20 Q1012 R09/19//95=
201906200100 METAR LRAR 200100Z 22009KT 9999 -TSRA SCT050CB 20/20 Q1012
                        R09/19//95=
201906200130 METAR LRAR 200130Z 16010KT 7000 -TSRA FEW016 BKN033CB 19/18
                        Q1012 R09/19//95=
201906200200 METAR LRAR 200200Z 11003KT 060V130 9999 -SHRA FEW011 SCT020
                        SCT033CB 18/17 Q1011 RETS R09/19//95=
201906200230 METAR LRAR 200230Z 28003KT 9999 FEW012 FEW035CB 18/18 Q1011
                        RETS R09/19//95=
201906200300 METAR LRAR 200300Z VRB02KT 9999 FEW035CB 18/18 Q1012 R09/19//95=
201906200330 METAR LRAR 200330Z 15008KT 8000 -TSRA FEW008 SCT045CB 19/19
                        Q1012 R09/19//95=
201906200400 METAR LRAR 200400Z 13009KT 9999 TS VCSH FEW020 SCT048CB 20/19
                        Q1012 R09/29//95=
201906200430 METAR LRAR 200430Z 16006KT 9999 FEW050CB 20/20 Q1012 RETS
                        R09/29//95=
201906200500 METAR LRAR 200500Z 17003KT 140V210 9999 FEW045 21/20 Q1012
                        RETS R09/29//95=
201906200530 METAR LRAR 200530Z 13006KT CAVOK 23/21 Q1012 R09/29//95=
201906200600 METAR LRAR 200600Z 12008KT CAVOK 23/20 Q1013 R09/29//95=
201906200630 METAR LRAR 200630Z 12008KT 9999 FEW045 24/20 Q1013 R09/29//95=
201906200700 METAR LRAR 200700Z 11005KT 9999 SCT045 24/20 Q1013 R09/29//95=
201906200730 METAR LRAR 200730Z 11005KT 080V150 9999 FEW010 FEW035TCU
                        25/20 Q1013 R09/29//95=
201906200800 METAR LRAR 200800Z 15005KT 100V210 9999 FEW025 FEW035TCU
                        25/20 Q1013 R09/CLRD//=
201906200830 METAR LRAR 200830Z 16008KT 130V190 9999 SCT028 26/19 Q1013=
201906200900 METAR LRAR 200900Z 17008KT 9999 FEW030 26/19 Q1012=
201906200930 METAR LRAR 200930Z 20008KT 160V230 9999 FEW035 26/19 Q1013=
201906201000 METAR LRAR 201000Z 20007KT 170V230 9999 SCT035 27/21 Q1012=
201906201030 METAR LRAR 201030Z 21008KT 170V240 9999 BKN040 28/20 Q1012=
201906201100 METAR LRAR 201100Z 20008KT 160V230 9999 FEW035 SCT040TCU
                        28/20 Q1012=
201906201130 METAR LRAR 201130Z 24008KT 9999 TS VCSH FEW024 BKN035CB 26/21
                        Q1012=
201906201200 METAR LRAR 201200Z 22006KT 9999 -TSRA FEW010 SCT020 BKN040CB
                        21/20 Q1012 RESHRA R09/29//95=
201906201230 METAR LRAR 201230Z 27004KT 240V310 9999 -SHRA VCTS SCT035
                        SCT040CB 22/19 Q1012 RESHRA R09/29//95=
201906201300 METAR LRAR 201300Z 25004KT 220V300 9999 -SHRA SCT045CB 22/20
                        Q1012 RETS R09/29//95=
201906201330 METAR LRAR 201330Z 24006KT 9999 FEW045CB 23/20 Q1012 RETS
                        R09/29//95=
201906201400 METAR LRAR 201400Z VRB02KT 9999 FEW050CB 24/20 Q1012 R09/29//95=
201906201430 METAR LRAR 201430Z 34006KT 9999 FEW050CB 22/20 Q1012 R09/29//95=
201906201500 METAR LRAR 201500Z 05003KT 360V090 9999 FEW040 22/19 Q1011
                        R09/29//95=
201906201530 METAR LRAR 201530Z VRB01KT 9999 FEW045 23/19 Q1012 R09/29//95=
201906201600 METAR LRAR 201600Z VRB01KT 9999 FEW050CB 23/20 Q1011 R09/29//95=
201906201630 METAR LRAR 201630Z 12003KT 060V190 9999 FEW050CB 23/20 Q1011
                        R09/29//95=
201906201700 METAR LRAR 201700Z VRB01KT 9999 FEW055CB 24/21 Q1012 R09/29//95=
201906201730 METAR LRAR 201730Z 23004KT 170V280 CAVOK 23/20 Q1012 R09/29//95=
201906201800 METAR LRAR 201800Z 21002KT 150V260 CAVOK 22/21 Q1012 R09/29//95=
201906201830 METAR LRAR 201830Z 05003KT 030V100 CAVOK 21/21 Q1012 R09/29//95=
201906201900 METAR LRAR 201900Z 23003KT CAVOK 20/20 Q1013 R09/29//95=
201906201930 METAR LRAR 201930Z VRB01KT CAVOK 20/20 Q1013 R09/CLRD//=
201906202000 METAR LRAR 202000Z 00000KT CAVOK 20/20 Q1013=
201906202030 METAR LRAR 202030Z VRB02KT CAVOK 20/20 Q1013=
201906202100 METAR LRAR 202100Z VRB02KT CAVOK 20/20 Q1013=
201906202130 METAR LRAR 202130Z 18003KT 150V220 CAVOK 20/20 Q1013=
201906202200 METAR LRAR 202200Z VRB01KT CAVOK 19/19 Q1013=
201906202230 METAR LRAR 202230Z VRB01KT CAVOK 19/19 Q1013=
201906202300 METAR LRAR 202300Z 16003KT CAVOK 19/19 Q1013=
201906202330 METAR LRAR 202330Z 15004KT CAVOK 19/19 Q1013=
201906210000 METAR COR LRAR 210000Z 13003KT CAVOK 19/19 Q1013=
201906210030 METAR LRAR 210030Z 17003KT CAVOK 19/19 Q1013=
201906210100 METAR LRAR 210100Z 15005KT CAVOK 19/19 Q1013=
201906210130 METAR LRAR 210130Z 16004KT CAVOK 19/18 Q1013=
201906210200 METAR LRAR 210200Z 16004KT CAVOK 18/18 Q1014=
201906210230 METAR LRAR 210230Z 14003KT CAVOK 18/18 Q1014=
201906210300 METAR LRAR 210300Z 13002KT 110V170 CAVOK 18/18 Q1014=
201906210330 METAR COR LRAR 210330Z 13004KT CAVOK 18/18 Q1014=
201906210400 METAR LRAR 210400Z 14004KT CAVOK 18/18 Q1014=
201906210430 METAR LRAR 210430Z 14003KT CAVOK 19/18 Q1015=
201906210500 METAR LRAR 210500Z 15005KT CAVOK 20/19 Q1015=
201906210530 METAR LRAR 210530Z 18004KT 160V220 CAVOK 21/19 Q1015=
201906210600 METAR LRAR 210600Z 23003KT 190V270 CAVOK 21/19 Q1015=
201906210630 METAR LRAR 210630Z 15005KT 110V180 CAVOK 22/19 Q1015=
201906210700 METAR LRAR 210700Z 15004KT 120V200 CAVOK 23/20 Q1015=
201906210730 METAR LRAR 210730Z 14004KT 120V180 CAVOK 24/19 Q1015=
201906210800 METAR LRAR 210800Z 20003KT 130V260 CAVOK 24/20 Q1015=
201906210830 METAR LRAR 210830Z 14004KT 110V200 CAVOK 25/20 Q1015=
201906210900 METAR LRAR 210900Z 15005KT 100V220 CAVOK 26/18 Q1015=
201906210930 METAR LRAR 210930Z 15004KT 110V190 9999 FEW040 27/19 Q1015=
201906211000 METAR LRAR 211000Z 27005KT 230V310 9999 SCT032 26/19 Q1015=
201906211030 METAR LRAR 211030Z 23005KT 190V270 9999 SCT031 27/20 Q1015=
201906211100 METAR LRAR 211100Z 27006KT 250V320 9999 SCT034 27/20 Q1015=
201906211130 METAR LRAR 211130Z 28006KT 250V320 9999 SCT036 28/20 Q1015=
201906211200 METAR LRAR 211200Z 26005KT 170V330 9999 SCT035 28/20 Q1014=
201906211230 METAR LRAR 211230Z 28006KT 240V310 9999 SCT045 28/20 Q1014=
201906211300 METAR LRAR 211300Z 25006KT 9999 SCT041 28/20 Q1014=
201906211330 METAR LRAR 211330Z 28006KT 9999 SCT041 29/20 Q1014=
201906211400 METAR LRAR 211400Z 27005KT 190V320 9999 FEW040CB SCT045 28/21
                        Q1014=
201906211430 METAR LRAR 211430Z 31009KT 9999 FEW042CB SCT047 29/19 Q1014=
201906211500 METAR LRAR 211500Z 29008KT 9999 FEW045CB 28/20 Q1014=
201906211530 METAR LRAR 211530Z 31005KT 280V340 9999 FEW045CB 27/21 Q1014=
201906211600 METAR LRAR 211600Z 08015KT 9999 VCSH FEW045CB 25/19 Q1014=
201906211630 METAR LRAR 211630Z 09007KT 9999 VCSH SCT045CB 24/19 Q1015=
201906211700 METAR LRAR 211700Z 34009KT 9999 TS VCSH BKN035CB 24/19 Q1016=
201906211730 METAR LRAR 211730Z 33009G19KT 290V010 6000 2500N +TSRA FEW022
                        BKN030CB 19/18 Q1017 R09/29//95=
201906211800 METAR LRAR 211800Z 10007KT 9000 -TSRA SCT012 BKN040CB 19/19
                        Q1016 RESHRA R09/29//95=
201906211830 METAR LRAR 211830Z 11005KT 9999 -SHRA SCT020 SCT045CB 19/19
                        Q1015 RETSRA R09/29//95=
201906211900 METAR LRAR 211900Z VRB02KT 9999 -SHRA SCT015 SCT047CB 20/19
                        Q1016 RETS R09/29//95=
201906211930 METAR LRAR 211930Z 13006KT 9999 FEW050CB 20/19 Q1015 R09/29//95=
201906212000 METAR LRAR 212000Z 16004KT 9999 FEW050CB 19/19 Q1015 R09/29//95=
201906212030 METAR LRAR 212030Z 13003KT CAVOK 19/19 Q1016 R09/29//95=
201906212100 METAR LRAR 212100Z 13002KT CAVOK 19/19 Q1016 R09/29//95=
201906212130 METAR LRAR 212130Z VRB02KT CAVOK 19/19 Q1016 R09/29//95=
201906212200 METAR LRAR 212200Z 33002KT CAVOK 18/18 Q1016 R09/29//95=
201906212230 METAR LRAR 212230Z 25003KT CAVOK 18/18 Q1016 R09/29//95=
201906212300 METAR LRAR 212300Z 26002KT CAVOK 18/18 Q1016 R09/29//95=
201906212330 METAR LRAR 212330Z VRB02KT CAVOK 17/17 Q1016 R09/29//95=
201906220000 METAR LRAR 220000Z 00000KT 3000 BR NSC 17/17 Q1016 R09/29//95=
201906220030 METAR LRAR 220030Z VRB01KT 9999 MIFG NSC 17/17 Q1016 R09/29//95=
201906220100 METAR LRAR 220100Z 06002KT 9999 MIFG NSC 17/17 Q1016 R09/29//95=
201906220130 METAR LRAR 220130Z 00000KT 9999 MIFG NSC 17/17 Q1017 R09/29//95=
201906220200 METAR LRAR 220200Z 00000KT 9999 MIFG NSC 17/17 Q1016 R09/29//95=
201906220230 METAR LRAR 220230Z 11002KT 1500 BCFG NSC 17/17 Q1016 R09/29//95=
201906220300 METAR LRAR 220300Z VRB01KT 3000 1400E R27/0800VP2000D BCFG
                        NSC 17/17 Q1017 R09/CLRD//=
201906220330 METAR LRAR 220330Z VRB01KT 9999 0800N BCFG NSC 16/16 Q1017=
201906220400 METAR LRAR 220400Z 00000KT 9999 MIFG NSC 18/18 Q1017=
201906220430 METAR LRAR 220430Z VRB01KT 8000 NSC 19/19 Q1017=
201906220500 METAR LRAR 220500Z VRB02KT 8000 NSC 20/20 Q1017=
201906220530 METAR LRAR 220530Z VRB01KT CAVOK 21/20 Q1017=
201906220600 METAR LRAR 220600Z 09003KT 050V120 CAVOK 23/20 Q1017=
201906220630 METAR LRAR 220630Z 08004KT 020V120 CAVOK 23/18 Q1017=
201906220700 METAR LRAR 220700Z 05004KT 010V090 CAVOK 24/19 Q1017=
201906220730 METAR LRAR 220730Z 05003KT 360V090 CAVOK 25/19 Q1017=
201906220800 METAR LRAR 220800Z 01004KT 300V100 CAVOK 25/19 Q1017=
201906220830 METAR COR LRAR 220830Z VRB03KT CAVOK 26/18 Q1017=
201906220900 METAR LRAR 220900Z VRB04KT 9999 FEW035 27/19 Q1017=
201906220930 METAR LRAR 220930Z VRB03KT 9999 FEW035 27/17 Q1018=
201906221000 METAR LRAR 221000Z VRB03KT 9999 FEW035TCU 28/19 Q1018=
201906221030 METAR LRAR 221030Z 05004KT 300V110 9999 FEW035TCU 28/20 Q1017=
201906221100 METAR LRAR 221100Z VRB03KT 9999 SCT040 28/20 Q1017=
201906221130 METAR LRAR 221130Z VRB03KT 9999 SCT040 28/19 Q1017=
201906221200 METAR LRAR 221200Z VRB04KT 9999 BKN043 28/18 Q1016=
201906221230 METAR LRAR 221230Z VRB03KT 9999 BKN043 28/19 Q1016=
201906221300 METAR LRAR 221300Z VRB03KT 9999 BKN043 29/18 Q1016=
201906221330 METAR LRAR 221330Z VRB04KT 9999 BKN045 29/17 Q1015=
201906221400 METAR LRAR 221400Z VRB03KT 9999 BKN045 29/19 Q1015=
201906221430 METAR LRAR 221430Z 31004KT 250V360 9999 BKN048 28/19 Q1015=
201906221500 METAR LRAR 221500Z 35004KT 320V050 9999 SCT048 28/18 Q1015=
201906221530 METAR LRAR 221530Z 36003KT 320V050 9999 SCT048 28/18 Q1015=
201906221600 METAR LRAR 221600Z 03004KT 350V060 9999 FEW045 27/19 Q1014=
201906221630 METAR LRAR 221630Z 05004KT 020V080 CAVOK 27/20 Q1014=
201906221700 METAR LRAR 221700Z 07004KT CAVOK 27/20 Q1014=
201906221730 METAR LRAR 221730Z 07005KT CAVOK 26/19 Q1014=
201906221800 METAR LRAR 221800Z 06004KT CAVOK 25/20 Q1014=
201906221830 METAR LRAR 221830Z 07002KT CAVOK 25/20 Q1014=
201906221900 METAR LRAR 221900Z 06003KT CAVOK 24/20 Q1014=
201906221930 METAR LRAR 221930Z 07001KT CAVOK 23/20 Q1015=
201906222000 METAR LRAR 222000Z 08005KT CAVOK 23/20 Q1014=
201906222030 METAR LRAR 222030Z 08003KT CAVOK 23/20 Q1014=
201906222100 METAR LRAR 222100Z 06004KT CAVOK 23/20 Q1014=
201906222130 METAR LRAR 222130Z 10003KT CAVOK 22/20 Q1014=
201906222200 METAR LRAR 222200Z 25004KT 9999 FEW035CB 21/20 Q1015=
201906222230 METAR COR LRAR 222230Z 25003KT 9999 SCT035CB 21/20 Q1015=
201906222300 METAR LRAR 222300Z 24015KT 9999 TS SCT046CB 21/18 Q1016=
201906222330 METAR LRAR 222330Z 27006KT 240V300 9999 TS FEW007 SCT045CB
                        19/18 Q1015=
201906230000 METAR LRAR 230000Z 00000KT 9999 -SHRA FEW011 SCT035CB 19/18
                        Q1014 RETS=
201906230030 METAR LRAR 230030Z 08006KT 9999 SCT035CB 19/18 Q1013 RETS=
201906230100 METAR LRAR 230100Z 11005KT 9999 FEW035CB 19/18 Q1013=
201906230130 METAR LRAR 230130Z 33005KT 9999 FEW035CB 18/18 Q1014=
201906230200 METAR LRAR 230200Z 35002KT 330V060 CAVOK 18/18 Q1014=
201906230230 METAR LRAR 230230Z 04003KT 350V060 9999 FEW035CB 18/18 Q1014=
201906230300 METAR LRAR 230300Z 24002KT 210V340 9999 FEW035CB 18/18 Q1015=
201906230330 METAR LRAR 230330Z 09002KT 070V140 9999 FEW035CB 18/18 Q1014=
201906230400 METAR LRAR 230400Z 07004KT 9999 FEW037CB 19/19 Q1014=
201906230430 METAR LRAR 230430Z VRB03KT 9999 FEW045CB 20/19 Q1014=
201906230500 METAR LRAR 230500Z 07004KT 9999 FEW046CB 21/19 Q1014=
201906230530 METAR LRAR 230530Z 04003KT 010V070 9999 FEW048CB 21/19 Q1014=
201906230600 METAR LRAR 230600Z 00000KT 9999 FEW050CB 22/20 Q1014=
201906230630 METAR LRAR 230630Z 09004KT 9999 FEW050CB 23/20 Q1014=
201906230700 METAR LRAR 230700Z 09006KT 060V130 9999 -SHRA FEW008 SCT012
                        FEW050CB 22/19 Q1014=
201906230730 METAR LRAR 230730Z 03004KT 360V080 9999 SCT013 23/20 Q1014=
201906230800 METAR LRAR 230800Z 06006KT 030V100 9999 SCT015 23/21 Q1014=
201906230830 METAR LRAR 230830Z 07007KT 030V100 9999 SCT025 25/20 Q1014=
201906230900 METAR LRAR 230900Z 34005KT 300V030 9999 SCT026 25/20 Q1014=
201906230930 METAR LRAR 230930Z VRB04KT 9999 SCT028 26/19 Q1014=
201906231000 METAR LRAR 231000Z 04008KT 9999 SCT028 26/19 Q1013=
201906231030 METAR LRAR 231030Z 04008KT 010V070 9999 BKN026 26/20 Q1013=
201906231100 METAR LRAR 231100Z 35007KT 320V030 9999 BKN026 26/18 Q1014=
201906231130 METAR LRAR 231130Z 01008KT 340V070 9999 TS BKN033 FEW040CB
                        27/18 Q1014=
201906231200 METAR LRAR 231200Z 35006KT 320V030 9999TS BKN033 FEW040CB
                        27/19 Q1013=
201906231230 METAR LRAR 231230Z 36006KT 310V030 9999 -TSRA BKN033 FEW042CB
                        26/19 Q1013=
201906231300 METAR LRAR 231300Z 36006KT 9999 -TSRA BKN035 FEW046CB 26/21
                        Q1013=
201906231330 METAR LRAR 231330Z 34005KT 310V010 9999 BKN037 FEW046CB 26/21
                        Q1013 RETSRA=
201906231400 METAR LRAR 231400Z 34009KT 300V010 9999 SCT038 FEW047CB 26/21
                        Q1013 RETSRA=
201906231430 METAR LRAR 231430Z 35008KT 320V020 9999 SCT040 FEW048CB 26/20
                        Q1013=
201906231500 METAR LRAR 231500Z 36008KT 330V030 9999 TS SCT040 SCT050CB
                        27/20 Q1012=
201906231530 METAR LRAR 231530Z 03009KT 010V070 9999 FEW009 SCT042 SCT050CB
                        27/20 Q1012=
201906231600 METAR LRAR 231600Z 03008KT 360V060 9999 SCT040 SCT050CB 26/20
                        Q1012 RETS=
201906231630 METAR LRAR 231630Z 03011KT 9999 FEW040 FEW050CB 26/20 Q1012
                        RETS=
201906231700 METAR LRAR 231700Z 03008KT 360V070 9999 FEW050CB 26/20 Q1012=
201906231730 METAR LRAR 231730Z 06004KT 9999 FEW050CB 25/21 Q1012=
201906231800 METAR LRAR 231800Z 07005KT 040V100 9999 FEW050CB 24/20 Q1012=
201906231830 METAR LRAR 231830Z 32004KT 290V360 9999 FEW050CB 23/21 Q1012=
201906231900 METAR LRAR 231900Z 20022KT 9999 -SHRA VCTS FEW020 BKN040CB
                        22/18 Q1014=
201906231930 METAR LRAR 231930Z 24016KT 210V270 3700 +TSRA SCT007 BKN018
                        OVC035CB 18/18 Q1015 R09/29//95=
201906232000 METAR LRAR 232000Z 26013KT 9999 -TSRA SCT003 BKN014 OVC035CB
                        17/17 Q1014 RESHRA R09/29//95=
201906232030 METAR LRAR 232030Z 26006KT 9999 VCTS SCT015 SCT040CB 18/18
                        Q1014 RESHRA R09/29//95=
201906232100 METAR LRAR 232100Z 13007KT 100V200 9999 FEW007 18/18 Q1016
                        RETS R09/29//95=
201906232130 METAR LRAR 232130Z 14006KT 9999 -RA SCT013 18/18 Q1016 RETS
                        R09/29//95=
201906232200 METAR LRAR 232200Z 17001KT 6000 TSRA SCT016 BKN029CB 18/18
                        Q1016 R09/29//95=
201906232230 METAR LRAR 232230Z 03005KT 6000 SHRA SCT018 BKN029CB 18/18
                        Q1015 RETS R09/29//95=
201906232300 METAR LRAR 232300Z 02005KT 350V050 9999 -SHRA FEW011 SCT016
                        BKN030CB 18/18 Q1015 RETSRA R09/29//95=
201906232330 METAR LRAR 232330Z VRB02KT 9999 -RA SCT014 FEW030CB 18/18
                        Q1015 RRSHRA R09/29//95=
201906240000 METAR LRAR 240000Z 09005KT 020V110 9999 -RA FEW004 BKN011
                        18/18 Q1016 R09/29//95=
201906240030 METAR LRAR 240030Z 06004KT 010V090 9999 -RA FEW004 BKN014
                        18/18 Q1015 R09/29//95=
201906240100 METAR LRAR 240100Z VRB02KT 9999 -RA SCT010 18/18 Q1015 R09/29//95=
201906240130 METAR LRAR 240130Z 26002KT 9999 -RA FEW010 18/18 Q1015 R09/29//95=
201906240200 METAR LRAR 240200Z 26002KT 8000 NSC 17/17 Q1015 R09/29//95=
201906240230 METAR LRAR 240230Z 22003KT 8000 SCT040 17/17 Q1015 R09/29//95=
201906240300 METAR COR LRAR 240300Z 22003KT 9999 FEW007 SCT045 18/18 Q1015
                        R09/29//95=
201906240330 METAR LRAR 240330Z VRB02KT 9999 FEW008 SCT045 18/18 Q1016
                        R09/29//95=
201906240400 METAR LRAR 240400Z 16003KT 9999 FEW010 SCT045 FEW050CB 18/18
                        Q1016 R09/29//95=
201906240430 METAR LRAR 240430Z VRB02KT 9999 FEW050CB 18/18 Q1016 R09/29//95=
201906240500 METAR LRAR 240500Z VRB01KT 9999 FEW010 FEW040 18/18 Q1016
                        R09/29//95=
201906240530 METAR LRAR 240530Z 19003KT 160V220 9999 -SHRA FEW008 FEW045CB
                        19/19 Q1016 R09/19//95=
201906240600 METAR LRAR 240600Z 18005KT 150V220 9999 FEW008 20/19 Q1017
                        R09/19//95=
201906240630 METAR LRAR 240630Z 20004KT 9999 FEW010 20/19 Q1017 R09/19//95=
201906240700 METAR LRAR 240700Z 17005KT 9999 SCT012 21/19 Q1017 R09/19//95=
201906240730 METAR LRAR 240730Z 19004KT 140V240 9999 BKN016 22/19 Q1017
                        R09/19//95=
201906240800 METAR LRAR 240800Z VRB02KT 9999 BKN023 23/19 Q1017 R09/19//95=
201906240830 METAR LRAR 240830Z 16004KT 120V220 9999 FEW025 BKN030 23/18
                        Q1017 R09/19//95=
201906240900 METAR LRAR 240900Z VRB02KT 9999 BKN027 24/18 Q1018 R09/19//95=
201906240930 METAR LRAR 240930Z 10004KT 020V180 9999 BKN030 24/18 Q1018
                        R09/19//95=
201906241000 METAR LRAR 241000Z 17005KT 110V230 9999 BKN033 25/19 Q1018
                        R09/CLRD//=
201906241030 METAR LRAR 241030Z 14004KT 100V180 9999 BKN035 25/19 Q1018=
201906241100 METAR LRAR 241100Z VRB03KT 9999 SCT033 26/18 Q1018=
201906241130 METAR LRAR 241130Z VRB03KT 9999 SCT035 27/18 Q1018=
201906241200 METAR LRAR 241200Z VRB03KT 9999 SCT040 27/18 Q1018=
201906241230 METAR LRAR 241230Z VRB03KT 9999 SCT045 28/19 Q1018=
201906241300 METAR LRAR 241300Z VRB02KT 9999 SCT043 27/17 Q1018=
201906241330 METAR LRAR 241330Z 31004KT 250V030 9999 SCT045 27/18 Q1018=
201906241400 METAR LRAR 241400Z 01005KT 310V080 9999 FEW040 27/19 Q1017=
201906241430 METAR LRAR 241430Z 36005KT 300V080 9999 FEW042 28/18 Q1017=
201906241500 METAR LRAR 241500Z 36007KT 9999 FEW043 27/19 Q1018=
201906241530 METAR LRAR 241530Z 34006KT 9999 SCT026 FEW050CB 27/19 Q1018=
201906241600 METAR COR LRAR 241600Z 01007KT 350V060 9999 SCT029 FEW055CB
                        28/19 Q1018=
201906241630 METAR LRAR 241630Z 03007KT 340V070 9999 SCT033 FEW055CB 27/19
                        Q1018=
201906241700 METAR LRAR 241700Z 02005KT 330V060 9999 SCT036 FEW056CB 27/18
                        Q1018=
201906241730 METAR LRAR 241730Z 36004KT 9999 SCT040 FEW060CB 26/20 Q1018=
201906241800 METAR LRAR 241800Z 32003KT 9999 SCT045 FEW060CB 25/21 Q1018=
201906241830 METAR LRAR 241830Z VRB02KT 9999 SCT046 24/21 Q1019=
201906241900 METAR LRAR 241900Z 36004KT 9999 SCT047 23/21 Q1019=
201906241930 METAR LRAR 241930Z VRB02KT 9999 SCT049 22/21 Q1019=
201906242000 METAR COR LRAR 242000Z 30004KT CAVOK 21/21 Q1020=
201906242030 METAR LRAR 242030Z VRB01KT CAVOK 21/21 Q1020=
201906242100 METAR LRAR 242100Z 02004KT CAVOK 22/21 Q1020=
201906242130 METAR LRAR 242130Z 04004KT CAVOK 21/21 Q1020=
201906242200 METAR LRAR 242200Z 02004KT CAVOK 21/21 Q1020=
201906242230 METAR LRAR 242230Z 04003KT 310V070 CAVOK 20/20 Q1020=
201906242300 METAR LRAR 242300Z 06003KT 010V100 CAVOK 20/20 Q1020=
201906242330 METAR LRAR 242330Z 07003KT CAVOK 20/20 Q1020=
201906250000 METAR LRAR 250000Z 00000KT CAVOK 19/19 Q1020=
201906250030 METAR LRAR 250030Z VRB02KT CAVOK 19/19 Q1020=
201906250100 METAR LRAR 250100Z VRB01KT CAVOK 19/19 Q1020=
201906250130 METAR LRAR 250130Z 00000KT CAVOK 18/18 Q1020=
201906250200 METAR LRAR 250200Z VRB02KT 7000 MIFG NSC 18/18 Q1020=
201906250230 METAR LRAR 250230Z VRB02KT 2000 0800SW R27/0900VP2000U BCFG
                        NSC 17/17 Q1020=
201906250300 METAR LRAR 250300Z 36003KT 3300 1500SE R27/1700VP2000D BCFG
                        NSC 18/18 Q1020=
201906250330 METAR LRAR 250330Z VRB01KT 3500 1000NE R27/1700VP2000D BCFG
                        NSC 18/18 Q1020=
201906250400 METAR LRAR 250400Z 10005KT CAVOK 20/20 Q1021=
201906250430 METAR LRAR 250430Z 11005KT CAVOK 21/20 Q1021=
201906250500 METAR LRAR 250500Z 12010KT CAVOK 22/19 Q1021=
201906250530 METAR LRAR 250530Z 14008KT CAVOK 23/19 Q1021=
201906250600 METAR LRAR 250600Z 15006KT CAVOK 25/20 Q1022=
201906250630 METAR LRAR 250630Z 18006KT CAVOK 25/19 Q1022=
201906250700 METAR LRAR 250700Z 18006KT 150V210 CAVOK 26/19 Q1022=
201906250730 METAR LRAR 250730Z 14006KT 100V210 CAVOK 27/19 Q1022=
201906250800 METAR LRAR 250800Z 13011KT 090V160 CAVOK 27/19 Q1022=
201906250830 METAR LRAR 250830Z 13008KT 100V160 CAVOK 27/20 Q1023=
201906250900 METAR LRAR 250900Z 14009KT 110V170 9999 FEW035 28/20 Q1023=
201906250930 METAR LRAR 250930Z 12007KT 070V160 9999 SCT037 28/20 Q1023=
201906251000 METAR LRAR 251000Z 10008KT 050V140 9999 SCT040 29/19 Q1023=
201906251030 METAR LRAR 251030Z 10006KT 040V160 9999 SCT045 29/20 Q1023=
201906251100 METAR LRAR 251100Z 06007KT 040V100 CAVOK 30/19 Q1023=
201906251130 METAR LRAR 251130Z 13006KT 080V180 CAVOK 29/19 Q1023=
201906251200 METAR LRAR 251200Z 02005KT 340V060 9999 SCT049 29/20 Q1023=
201906251230 METAR LRAR 251230Z 05003KT 9999 SCT049 30/20 Q1022=
201906251300 METAR LRAR 251300Z 04009KT 010V070 CAVOK 30/20 Q1023=
201906251330 METAR LRAR 251330Z 04010KT 010V080 CAVOK 29/20 Q1023=
201906251400 METAR LRAR 251400Z 04009KT 360V060 CAVOK 30/21 Q1023=
201906251430 METAR LRAR 251430Z 06008KT 020V080 CAVOK 28/20 Q1022=
201906251500 METAR LRAR 251500Z 05007KT 020V080 CAVOK 29/20 Q1022=
201906251530 METAR LRAR 251530Z 03009KT 9999 FEW050TCU 29/20 Q1022=
201906251600 METAR LRAR 251600Z 03005KT 360V060 9999 FEW050TCU 29/20 Q1022=
201906251630 METAR LRAR 251630Z 04004KT 9999 FEW053TCU 29/19 Q1022=
201906251700 METAR LRAR 251700Z 04005KT CAVOK 29/19 Q1022=
201906251730 METAR LRAR 251730Z 06003KT CAVOK 28/21 Q1022=
201906251800 METAR LRAR 251800Z 07003KT CAVOK 28/20 Q1023=
201906251830 METAR LRAR 251830Z 00000KT CAVOK 26/22 Q1023=
201906251900 METAR LRAR 251900Z VRB01KT CAVOK 25/21 Q1023=
201906251930 METAR LRAR 251930Z 32004KT CAVOK 23/22 Q1023=
201906252000 METAR LRAR 252000Z 24003KT CAVOK 23/21 Q1023=
201906252030 METAR LRAR 252030Z 22001KT CAVOK 23/21 Q1024=
201906252100 METAR LRAR 252100Z VRB01KT CAVOK 22/21 Q1024=
201906252130 METAR LRAR 252130Z 17003KT CAVOK 22/21 Q1024=
201906252200 METAR LRAR 252200Z 00000KT CAVOK 22/21 Q1024=
201906252230 METAR LRAR 252230Z 07001KT CAVOK 21/21 Q1024=
201906252300 METAR LRAR 252300Z VRB01KT CAVOK 21/21 Q1024=
201906252330 METAR LRAR 252330Z 28002KT CAVOK 20/20 Q1023=
201906260000 METAR LRAR 260000Z VRB02KT CAVOK 21/21 Q1024=
201906260030 METAR LRAR 260030Z 14004KT CAVOK 21/21 Q1023=
201906260100 METAR LRAR 260100Z VRB02KT CAVOK 21/21 Q1023=
201906260130 METAR LRAR 260130Z 15004KT CAVOK 21/21 Q1023=
201906260200 METAR LRAR 260200Z 15001KT CAVOK 21/21 Q1023=
201906260230 METAR LRAR 260230Z 13002KT 9999 MIFG NSC 21/21 Q1023=
201906260300 METAR LRAR 260300Z 15003KT CAVOK 20/20 Q1024=
201906260330 METAR LRAR 260330Z 15005KT CAVOK 21/21 Q1024=
201906260400 METAR LRAR 260400Z 14004KT CAVOK 21/21 Q1024=
201906260430 METAR LRAR 260430Z 14005KT CAVOK 22/21 Q1024=
201906260500 METAR LRAR 260500Z 15006KT CAVOK 23/21 Q1024=
201906260530 METAR LRAR 260530Z 16006KT CAVOK 24/21 Q1024=
201906260600 METAR LRAR 260600Z 17006KT 140V200 CAVOK 25/22 Q1025=
201906260630 METAR COR LRAR 260630Z 19005KT 150V220 CAVOK 26/21 Q1025=
201906260700 METAR LRAR 260700Z 23005KT 200V260 CAVOK 27/21 Q1025=
201906260730 METAR LRAR 260730Z 22006KT CAVOK 27/21 Q1025=
201906260800 METAR LRAR 260800Z 24005KT 190V280 CAVOK 28/22 Q1025=
201906260830 METAR LRAR 260830Z 26006KT 230V290 CAVOK 28/21 Q1025=
201906260900 METAR COR LRAR 260900Z 26006KT 230V300 CAVOK 29/20 Q1025=
201906260930 METAR LRAR 260930Z 26005KT 210V300 CAVOK 29/21 Q1025=
201906261000 METAR LRAR 261000Z 27005KT 230V340 CAVOK 30/21 Q1024=
201906261030 METAR LRAR 261030Z VRB04KT 9999 FEW040 30/21 Q1024=
201906261100 METAR LRAR 261100Z VRB02KT 9999 FEW038 31/20 Q1024=
201906261130 METAR LRAR 261130Z VRB03KT 9999 FEW038 31/20 Q1024=
201906261200 METAR LRAR 261200Z 22005KT 180V250 9999 SCT040 31/21 Q1024=
201906261230 METAR LRAR 261230Z VRB05KT 9999 SCT040 32/21 Q1023=
201906261300 METAR LRAR 261300Z 29006KT 260V320 9999 SCT040 32/20 Q1023=
201906261330 METAR LRAR 261330Z 30006KT 250V350 9999 SCT045 32/21 Q1023=
201906261400 METAR LRAR 261400Z VRB03KT 9999 SCT045 32/20 Q1022=
201906261430 METAR LRAR 261430Z 35005KT 310V020 9999 FEW048 32/19 Q1022=
201906261500 METAR LRAR 261500Z 36004KT 310V060 9999 FEW048 32/19 Q1022=
201906261530 METAR LRAR 261530Z 33004KT 280V010 CAVOK 32/20 Q1021=
201906261600 METAR LRAR 261600Z 34005KT 300V020 CAVOK 32/20 Q1021=
201906261630 METAR LRAR 261630Z 34004KT 310V010 CAVOK 32/20 Q1021=
201906261700 METAR LRAR 261700Z 32005KT CAVOK 31/21 Q1021=
201906261730 METAR COR LRAR 261730Z 32005KT CAVOK 31/21 Q1021=
201906261800 METAR LRAR 261800Z 30004KT CAVOK 28/22 Q1021=
201906261830 METAR LRAR 261830Z 26003KT CAVOK 27/23 Q1021=
201906261900 METAR LRAR 261900Z 27002KT CAVOK 26/23 Q1021=
201906261930 METAR LRAR 261930Z 27003KT CAVOK 25/23 Q1021=
201906262000 METAR LRAR 262000Z 27003KT CAVOK 24/22 Q1021=
201906262030 METAR LRAR 262030Z 26003KT CAVOK 24/22 Q1021=
201906262100 METAR LRAR 262100Z 28004KT CAVOK 23/22 Q1021=
201906262130 METAR LRAR 262130Z 27004KT CAVOK 23/22 Q1021=
201906262200 METAR LRAR 262200Z 28004KT CAVOK 23/21 Q1021=
201906262230 METAR LRAR 262230Z 27003KT CAVOK 23/21 Q1021=
201906262300 METAR LRAR 262300Z 27004KT CAVOK 22/21 Q1021=
201906262330 METAR LRAR 262330Z 28004KT CAVOK 22/21 Q1020=
201906270000 METAR LRAR 270000Z 27003KT CAVOK 22/21 Q1020=
201906270030 METAR LRAR 270030Z 27003KT CAVOK 21/20 Q1020=
201906270100 METAR LRAR 270100Z 25003KT CAVOK 21/20 Q1020=
201906270130 METAR LRAR 270130Z 00000KT CAVOK 21/20 Q1020=
201906270200 METAR LRAR 270200Z 13003KT CAVOK 20/20 Q1020=
201906270230 METAR LRAR 270230Z 14003KT CAVOK 20/20 Q1020=
201906270300 METAR LRAR 270300Z 15003KT 120V190 CAVOK 20/20 Q1020=
201906270330 METAR LRAR 270330Z 14004KT 8000 MIFG NSC 20/20 Q1020=
201906270400 METAR LRAR 270400Z 14003KT CAVOK 21/21 Q1020=
201906270430 METAR LRAR 270430Z 15005KT CAVOK 22/21 Q1020=
201906270500 METAR LRAR 270500Z 17003KT 140V220 CAVOK 24/22 Q1020=
201906270530 METAR LRAR 270530Z 19003KT 160V230 CAVOK 25/22 Q1019=
201906270600 METAR LRAR 270600Z 20005KT 160V220 CAVOK 26/22 Q1019=
201906270630 METAR LRAR 270630Z 20005KT CAVOK 26/22 Q1019=
201906270700 METAR LRAR 270700Z 21003KT 170V240 CAVOK 28/22 Q1019=
201906270730 METAR LRAR 270730Z 25003KT 150V320 CAVOK 28/21 Q1019=
201906270800 METAR LRAR 270800Z VRB03KT 9999 FEW026 29/24 Q1018=
201906270830 METAR LRAR 270830Z 29005KT 250V340 9999 SCT028 30/22 Q1018=
201906270900 METAR LRAR 270900Z 25008KT 220V280 9999 SCT030 31/21 Q1018=
201906270930 METAR LRAR 270930Z 26007KT 220V290 9999 SCT033 31/22 Q1018=
201906271000 METAR LRAR 271000Z 25008KT 220V280 9999 BKN033 31/20 Q1018=
201906271030 METAR LRAR 271030Z 25009KT 220V280 9999 BKN034 31/19 Q1017=
201906271100 METAR LRAR 271100Z 23009KT 200V260 9999 BKN035 32/20 Q1017=
201906271130 METAR LRAR 271130Z 24011KT 9999 BKN036 32/20 Q1016=
201906271200 METAR LRAR 271200Z 24011KT 9999 BKN037 32/18 Q1016=
201906271230 METAR LRAR 271230Z 24010KT 9999 BKN039 32/18 Q1015=
201906271300 METAR LRAR 271300Z 26010KT 9999 SCT040 32/19 Q1015=
201906271330 METAR LRAR 271330Z 24011KT 9999 SCT045 32/20 Q1015=
201906271400 METAR LRAR 271400Z 25012KT 9999 SCT047 32/20 Q1014=
201906271430 METAR LRAR 271430Z 24011KT CAVOK 32/20 Q1014=
201906271500 METAR LRAR 271500Z 25011KT CAVOK 32/20 Q1013=
201906271530 METAR LRAR 271530Z 24010KT CAVOK 31/21 Q1013=
201906271600 METAR LRAR 271600Z 23008KT 9999 VCTS FEW048CB 31/21 Q1013=
201906271630 METAR LRAR 271630Z 22007KT 9999 VCTS FEW048CB 31/22 Q1012=
201906271700 METAR LRAR 271700Z 08021KT 9999 TS VCSH SCT035CB 26/19 Q1014=
201906271730 METAR LRAR 271730Z 04025G45KT 350V060 2000 +TSRAGR SQ FEW009
                        SCT013 OVC035CB 20/20 Q1016 R09/29//95=
201906271800 METAR LRAR 271800Z 17006KT 110V250 2300 +TSRA BKN008 OVC035CB
                        20/20 Q1015 RESHGR R09/29//95=
201906271830 METAR LRAR 271830Z 18006KT 140V210 4000 TSRA SCT009 BKN016
                        BKN040CB 21/21 Q1013 RESHGR R09/29//95=
201906271900 METAR LRAR 271900Z 20009KT 9999 FEW007 SCT010 SCT040CB 20/20
                        Q1013 RETSRA R09/29//95=
201906271930 METAR LRAR 271930Z 19003KT 140V250 9999 FEW043CB 20/20 Q1013
                        RETSRA R09/29//95=
201906272000 METAR COR LRAR 272000Z 16002KT CAVOK 20/20 Q1014 R09/29//95=
201906272030 METAR LRAR 272030Z 12003KT 100V160 CAVOK 20/20 Q1014 R09/29//95=
201906272100 METAR LRAR 272100Z VRB01KT CAVOK 20/20 Q1014 R09/19//95=
201906272130 METAR LRAR 272130Z 16004KT CAVOK 20/20 Q1015 R09/19//95=
201906272200 METAR LRAR 272200Z 17004KT 140V200 CAVOK 20/20 Q1014 R09/19//95=
201906272230 METAR LRAR 272230Z 09005KT CAVOK 20/20 Q1014 R09/19//95=
201906272300 METAR LRAR 272300Z 07003KT CAVOK 20/20 Q1014 R09/19//95=
201906272330 METAR LRAR 272330Z VRB02KT 9999 SCT013 20/20 Q1014 R09/19//95=
201906280000 METAR LRAR 280000Z VRB01KT 9999 BKN011 20/20 Q1014 R09/19//95=
201906280030 METAR LRAR 280030Z VRB02KT 9999 BKN010 19/19 Q1014 R09/19//95=
201906280100 METAR LRAR 280100Z 03004KT 9999 FEW011 19/19 Q1014 R09/19//95=
201906280130 METAR LRAR 280130Z 03002KT 8000 NSC 19/19 Q1014 R09/19//95=
201906280200 METAR LRAR 280200Z 01005KT 8000 NSC 19/19 Q1014 Q1014 R09/19//95=
201906280230 METAR LRAR 280230Z 02005KT CAVOK 18/18 Q1014 R09/19//95=
201906280300 METAR LRAR 280300Z 02007KT 350V050 CAVOK 18/18 Q1014 R09/19//95=
201906280330 METAR LRAR 280330Z 02008KT CAVOK 18/18 Q1015 R09/19//95=
201906280400 METAR LRAR 280400Z 03009KT 360V060 CAVOK 19/18 Q1015 R09/CLRD//=
201906280430 METAR LRAR 280430Z 02008KT 350V060 CAVOK 19/18 Q1015=
201906280500 METAR LRAR 280500Z 03009KT 350V050 CAVOK 20/18 Q1015=
201906280530 METAR LRAR 280530Z 03011KT CAVOK 20/16 Q1015=
201906280600 METAR LRAR 280600Z 02009KT 350V060 CAVOK 20/16 Q1016=
201906280630 METAR LRAR 280630Z 02011KT 350V070 CAVOK 21/17 Q1016=
201906280700 METAR LRAR 280700Z 03011KT 360V060 CAVOK 21/17 Q1016=
201906280730 METAR LRAR 280730Z 01011KT CAVOK 22/16 Q1016=
201906280800 METAR LRAR 280800Z 01011KT 330V050 CAVOK 23/15 Q1016=
201906280830 METAR LRAR 280830Z 02013KT CAVOK 23/14 Q1016=
201906280900 METAR LRAR 280900Z 03013KT 350V060 CAVOK 24/14 Q1016=
201906280930 METAR LRAR 280930Z 02013KT 340V060 CAVOK 24/14 Q1017=
201906281000 METAR LRAR 281000Z 02010KT 340V060 9999 FEW040 25/15 Q1017=
201906281030 METAR LRAR 281030Z 02012KT 350V060 9999 FEW042 24/14 Q1017=
201906281100 METAR LRAR 281100Z 02012KT 340V050 9999 FEW045 25/13 Q1017=
201906281130 METAR LRAR 281130Z 01012KT 330V040 9999 FEW045 25/13 Q1017=
201906281200 METAR LRAR 281200Z 01012KT 340V040 9999 FEW047 25/12 Q1017=
201906281230 METAR LRAR 281230Z 01014KT 330V050 9999 FEW049 25/11 Q1017=
201906281300 METAR LRAR 281300Z 35011KT 320V020 CAVOK 25/11 Q1017=
201906281330 METAR LRAR 281330Z 02012KT 340V070 CAVOK 25/10 Q1017=
201906281400 METAR LRAR 281400Z 36012KT 330V030 CAVOK 24/09 Q1017=
201906281430 METAR LRAR 281430Z 01012KT 330V050 CAVOK 25/10 Q1017=
201906281500 METAR LRAR 281500Z 02011KT 320V060 CAVOK 25/11 Q1017=
201906281530 METAR LRAR 281530Z 03013KT 360V070 CAVOK 24/10 Q1017=
201906281600 METAR LRAR 281600Z 02011KT 9999 FEW040 24/09 Q1017=
201906281630 METAR LRAR 281630Z 04012KT 010V070 9999 FEW045 23/11 Q1017=
201906281700 METAR LRAR 281700Z 04010KT 010V080 CAVOK 23/11 Q1017=
201906281730 METAR LRAR 281730Z 04007KT 010V070 CAVOK 22/12 Q1017=
201906281800 METAR LRAR 281800Z 03007KT CAVOK 21/12 Q1017=
201906281830 METAR LRAR 281830Z 02005KT CAVOK 20/13 Q1018=
201906281900 METAR LRAR 281900Z 03007KT 360V060 CAVOK 19/13 Q1018=
201906281930 METAR LRAR 281930Z 02007KT CAVOK 19/12 Q1018=
201906282000 METAR LRAR 282000Z 01006KT 350V050 CAVOK 18/13 Q1018=
201906282030 METAR LRAR 282030Z 03006KT CAVOK 18/12 Q1019=
201906282100 METAR LRAR 282100Z 03006KT CAVOK 17/13 Q1019=
201906282130 METAR LRAR 282130Z 03008KT CAVOK 18/12 Q1019=
201906282200 METAR LRAR 282200Z 02006KT CAVOK 17/12 Q1019=
201906282230 METAR LRAR 282230Z 02005KT CAVOK 17/13 Q1019=
201906282300 METAR LRAR 282300Z 03005KT CAVOK 16/13 Q1019=
201906282330 METAR LRAR 282330Z 03004KT CAVOK 16/13 Q1019=
201906290000 METAR LRAR 290000Z 00000KT CAVOK 15/13 Q1019=
201906290030 METAR LRAR 290030Z 28004KT CAVOK 13/12 Q1020=
201906290100 METAR COR LRAR 290100Z VRB02KT CAVOK 14/13 Q1020=
201906290130 METAR LRAR 290130Z VRB02KT CAVOK 14/13 Q1020=
201906290200 METAR LRAR 290200Z VRB01KT CAVOK 14/13 Q1020=
201906290230 METAR LRAR 290230Z VRB01KT CAVOK 14/13 Q1020=
201906290300 METAR LRAR 290300Z VRB01KT CAVOK 13/12 Q1020=
201906290330 METAR LRAR 290330Z VRB02KT CAVOK 13/13 Q1020=
201906290400 METAR LRAR 290400Z VRB01KT CAVOK 14/14 Q1020=
201906290430 METAR LRAR 290430Z 04005KT 360V080 CAVOK 16/13 Q1021=
201906290500 METAR LRAR 290500Z 07003KT 010V110 CAVOK 17/14 Q1021=
201906290530 METAR LRAR 290530Z 04003KT 360V070 CAVOK 18/13 Q1021=
201906290600 METAR LRAR 290600Z 02003KT 310V070 CAVOK 20/12 Q1021=
201906290630 METAR LRAR 290630Z 05004KT 350V090 CAVOK 21/12 Q1021=
201906290700 METAR LRAR 290700Z 01006KT 340V040 CAVOK 21/11 Q1021=
201906290730 METAR LRAR 290730Z 36006KT 320V050 CAVOK 22/12 Q1021=
201906290800 METAR LRAR 290800Z 01008KT 320V070 CAVOK 23/11 Q1021=
201906290830 METAR LRAR 290830Z 03008KT 350V060 CAVOK 23/11 Q1021=
201906290900 METAR LRAR 290900Z 02007KT 350V080 CAVOK 24/11 Q1021=
201906290930 METAR LRAR 290930Z 03009KT 350V060 CAVOK 24/11 Q1021=
201906291000 METAR LRAR 291000Z 01009KT 320V050 CAVOK 24/12 Q1021=
201906291030 METAR LRAR 291030Z 04007KT 320V080 CAVOK 25/12 Q1021=
201906291100 METAR LRAR 291100Z 01008KT 330V050 CAVOK 25/13 Q1021=
201906291130 METAR LRAR 291130Z 06006KT 360V090 CAVOK 24/13 Q1021=
201906291200 METAR LRAR 291200Z 02008KT 330V060 CAVOK 25/13 Q1020=
201906291230 METAR LRAR 291230Z 01009KT 330V050 CAVOK 24/12 Q1020=
201906291300 METAR LRAR 291300Z 36008KT 320V060 CAVOK 25/13 Q1020=
201906291330 METAR LRAR 291330Z 01009KT 330V040 CAVOK 25/13 Q1020=
201906291400 METAR LRAR 291400Z 35009KT 310V040 CAVOK 26/12 Q1020=
201906291430 METAR LRAR 291430Z 35006KT 320V030 CAVOK 25/13 Q1020=
201906291500 METAR LRAR 291500Z 01006KT 310V070 CAVOK 26/13 Q1020=
201906291530 METAR LRAR 291530Z 34008KT 310V010 CAVOK 25/13 Q1020=
201906291600 METAR LRAR 291600Z 36006KT 330V040 CAVOK 26/13 Q1019=
201906291630 METAR LRAR 291630Z 35005KT 310V030 CAVOK 25/14 Q1020=
201906291700 METAR LRAR 291700Z 02003KT 330V060 CAVOK 25/13 Q1020=
201906291730 METAR LRAR 291730Z 33003KT CAVOK 25/15 Q1020=
201906291800 METAR LRAR 291800Z 34002KT CAVOK 24/16 Q1020=
201906291830 METAR LRAR 291830Z 07003KT 040V100 CAVOK 22/15 Q1020=
201906291900 METAR LRAR 291900Z 07004KT CAVOK 22/15 Q1020=
201906291930 METAR LRAR 291930Z 08006KT CAVOK 21/11 Q1020=
201906292000 METAR LRAR 292000Z 10006KT CAVOK 20/11 Q1020=
201906292030 METAR LRAR 292030Z 13004KT CAVOK 20/12 Q1021=
201906292100 METAR LRAR 292100Z 13003KT CAVOK 19/14 Q1021=
201906292130 METAR LRAR 292130Z 15003KT CAVOK 18/14 Q1021=
201906292200 METAR LRAR 292200Z VRB02KT CAVOK 17/14 Q1021=
201906292230 METAR LRAR 292230Z 14003KT CAVOK 18/14 Q1021=
201906292300 METAR LRAR 292300Z 15003KT CAVOK 17/13 Q1021=
201906292330 METAR LRAR 292330Z 15003KT CAVOK 18/13 Q1021=
201906300000 METAR LRAR 300000Z 18002KT CAVOK 16/13 Q1021=
201906300030 METAR LRAR 300030Z 18002KT CAVOK 16/13 Q1021=
201906300100 METAR LRAR 300100Z VRB02KT CAVOK 16/12 Q1021=
201906300130 METAR LRAR 300130Z 00000KT CAVOK 16/12 Q1021=
201906300200 METAR LRAR 300200Z VRB02KT CAVOK 16/13 Q1021=
201906300230 METAR LRAR 300230Z 15003KT CAVOK 16/14 Q1021=
201906300300 METAR LRAR 300300Z 14005KT CAVOK 16/13 Q1021=
201906300330 METAR LRAR 300330Z 15005KT CAVOK 15/13 Q1021=
201906300400 METAR LRAR 300400Z 14005KT CAVOK 16/13 Q1021=
201906300430 METAR LRAR 300430Z 14006KT CAVOK 17/13 Q1021=
201906300500 METAR LRAR 300500Z 15005KT CAVOK 18/14 Q1021=
201906300530 METAR LRAR 300530Z 15005KT 100V180 CAVOK 19/15 Q1021=
201906300600 METAR LRAR 300600Z 17004KT 140V210 CAVOK 21/15 Q1022=
201906300630 METAR LRAR 300630Z 20004KT 140V230 CAVOK 22/16 Q1022=
201906300700 METAR LRAR 300700Z 20005KT 160V230 CAVOK 23/16 Q1022=
201906300730 METAR LRAR 300730Z 21005KT 180V240 CAVOK 25/16 Q1022=
201906300800 METAR LRAR 300800Z 24004KT 190V300 CAVOK 25/15 Q1022=
201906300830 METAR LRAR 300830Z 24005KT 190V310 CAVOK 26/16 Q1022=
201906300900 METAR LRAR 300900Z 23005KT 170V310 CAVOK 26/15 Q1022=
201906300930 METAR LRAR 300930Z 25005KT 210V290 CAVOK 27/14 Q1022=
201906301000 METAR LRAR 301000Z 25005KT 200V290 9999 FEW035 27/15 Q1022=
201906301030 METAR LRAR 301030Z 22005KT 180V280 9999 FEW035 28/15 Q1022=
201906301100 METAR LRAR 301100Z VRB04KT 9999 FEW035 28/15 Q1022=
201906301130 METAR LRAR 301130Z 25006KT 220V280 9999 FEW040 29/17 Q1022=
201906301200 METAR LRAR 301200Z 28004KT 220V340 CAVOK 28/16 Q1021=
201906301230 METAR LRAR 301230Z 22005KT 180V270 CAVOK 29/14 Q1021=
201906301300 METAR LRAR 301300Z 23004KT 160V280 CAVOK 29/15 Q1021=
201906301330 METAR LRAR 301330Z 23005KT 180V300 CAVOK 29/15 Q1021=
201906301400 METAR LRAR 301400Z 23004KT 120V290 CAVOK 29/15 Q1021=
201906301430 METAR LRAR 301430Z VRB04KT CAVOK 29/15 Q1021=
201906301500 METAR LRAR 301500Z 23005KT 190V260 CAVOK 29/15 Q1020=
201906301530 METAR LRAR 301530Z 22004KT CAVOK 29/15 Q1020=
201906301600 METAR LRAR 301600Z 21004KT 170V240 CAVOK 29/15 Q1020=
201906301630 METAR LRAR 301630Z 22004KT CAVOK 29/16 Q1020=
201906301700 METAR LRAR 301700Z 22004KT CAVOK 28/18 Q1020=
201906301730 METAR LRAR 301730Z 22004KT CAVOK 27/18 Q1020=
201906301800 METAR LRAR 301800Z 23004KT CAVOK 25/19 Q1020=
201906301830 METAR LRAR 301830Z 21004KT CAVOK 24/19 Q1020=
201906301900 METAR LRAR 301900Z 22005KT CAVOK 23/18 Q1020=
201906301930 METAR LRAR 301930Z 22004KT CAVOK 22/18 Q1020=
201906302000 METAR LRAR 302000Z 22004KT CAVOK 21/18 Q1020=
201906302030 METAR LRAR 302030Z 22003KT CAVOK 21/18 Q1020=
201906302100 METAR LRAR 302100Z 22003KT CAVOK 20/18 Q1020=
201906302130 METAR LRAR 302130Z 20003KT 170V230 CAVOK 21/17 Q1020=
201906302200 METAR LRAR 302200Z 13003KT 110V170 CAVOK 20/18 Q1020=
201906302230 METAR LRAR 302230Z 14005KT CAVOK 20/18 Q1020=
201906302300 METAR LRAR 302300Z 14005KT CAVOK 19/17 Q1020=
201906302330 METAR LRAR 302330Z 14004KT CAVOK 19/17 Q1020=S