201907010200 TAF LRAR 010200Z 0103/0112 14006KT CAVOK=
201907010500 TAF LRAR 010500Z 0106/0115 14006KT CAVOK=
201907010800 TAF LRAR 010800Z 0109/0118 16006KT CAVOK=
201907011100 TAF LRAR 011100Z 0112/0121 20006KT CAVOK=
201907011400 TAF LRAR 011400Z 0115/0124 23006KT CAVOK=
201907011700 TAF LRAR 011700Z 0118/0203 22006KT CAVOK=
201907012000 TAF LRAR 012000Z 0121/0206 VRB04KT CAVOK=
201907012300 TAF LRAR 012300Z 0200/0209 VRB04KT CAVOK
                      BECMG 0207/0209 20010KT=
201907020200 TAF LRAR 020200Z 0203/0212 14006KT CAVOK
                      BECMG 0207/0209 20010KT
                      BECMG 0210/0212 27010KT=
201907020500 TAF LRAR 020500Z 0206/0215 VRB04KT CAVOK
                      BECMG 0213/0215 33010KT=
201907020800 TAF LRAR 020800Z 0209/0218 19006KT CAVOK
                      BECMG 0213/0215 33010KT=
201907021100 TAF LRAR 021100Z 0212/0221 23006KT CAVOK
                      BECMG 0213/0215 33010KT=
201907021400 TAF LRAR 021400Z 0215/0224 29006KT CAVOK
                      BECMG 0217/0219 36010KT=
201907021700 TAF LRAR 021700Z 0218/0303 33008KT CAVOK
                      PROB30 TEMPO 0222/0301 VRB15G25KT -TSRA SCT040CB=
201907022000 TAF LRAR 022000Z 0221/0306 33008KT CAVOK
                      PROB30 TEMPO 0223/0302 VRB15G25KT -TSRA SCT040CB=
201907022300 TAF LRAR 022300Z 0300/0309 33006KT CAVOK
                      TEMPO 0300/0302 VRB15G25KT -TSRA SCT040CB=
201907030200 TAF LRAR 030200Z 0303/0312 30008KT 9999 FEW045CB
                      TEMPO 0303/0304 VRB15G25KT 5000 TSRA SCT040CB
                       BECMG 0304/0306 NSC=
201907030500 TAF LRAR 030500Z 0306/0315 34008KT 9999 BKN040
                      TEMPO 0307/0312 36015G25KT BKN005 BKN030CB
                       PROB40
                      TEMPO 0307/0311 3000 TSRA=
201907030800 TAF LRAR 030800Z 0309/0318 36008KT 9999 BKN040
                      PROB30 TEMPO 0309/0312 36015G25KT BKN005
                       BKN030CB=
201907031100 TAF LRAR 031100Z 0312/0321 02008KT CAVOK=
201907031400 TAF LRAR 031400Z 0315/0324 02008KT CAVOK=
201907031700 TAF LRAR 031700Z 0318/0403 06004KT CAVOK
                      BECMG 0321/0323 33010KT=
201907032000 TAF LRAR 032000Z 0321/0406 VRB04KT CAVOK
                      BECMG 0321/0323 33010KT=
201907032300 TAF LRAR 032300Z 0400/0409 VRB04KT CAVOK=
201907040200 TAF LRAR 040200Z 0403/0412 27006KT CAVOK
                      BECMG 0406/0408 36010KT=
201907040500 TAF LRAR 040500Z 0406/0415 29006KT 9999 SCT040CB
                      BECMG 0407/0409 35010KT CAVOK=
201907040800 TAF LRAR 040800Z 0409/0418 35010KT CAVOK
                      BECMG 0416/0418 VRB04KT=
201907041100 TAF LRAR 041100Z 0412/0421 VRB04KT CAVOK=
201907041400 TAF LRAR 041400Z 0415/0424 VRB04KT CAVOK=
201907041700 TAF LRAR 041700Z 0418/0503 34006KT CAVOK=
201907042000 TAF LRAR 042000Z 0421/0506 34006KT CAVOK=
201907042300 TAF LRAR 042300Z 0500/0509 VRB04KT CAVOK=
201907050200 TAF LRAR 050200Z 0503/0512 VRB04KT CAVOK=
201907050500 TAF LRAR 050500Z 0506/0515 VRB04KT CAVOK
                      BECMG 0512/0514 30010KT=
201907050800 TAF LRAR 050800Z 0509/0518 VRB04KT CAVOK
                      BECMG 0509/0511 29010KT=
201907051100 TAF LRAR 051100Z 0512/0521 VRB04KT 9999 BKN040
                      BECMG 0512/0514 29010KT=
201907051400 TAF LRAR 051400Z 0515/0524 27007KT CAVOK=
201907051700 TAF LRAR 051700Z 0518/0603 25006KT CAVOK=
201907052000 TAF LRAR 052000Z 0521/0606 23005KT CAVOK=
201907052300 TAF LRAR 052300Z 0600/0609 VRB04KT CAVOK=
201907060200 TAF LRAR 060200Z 0603/0612 VRB04KT CAVOK
                      PROB40 TEMPO 0603/0605 3000 BR=
201907060500 TAF LRAR 060500Z 0606/0615 VRB04KT CAVOK=
201907060800 TAF LRAR 060800Z 0609/0618 VRB04KT CAVOK=
201907061100 TAF LRAR 061100Z 0612/0621 27005KT CAVOK=
201907061400 TAF LRAR 061400Z 0615/0624 25005KT CAVOK=
201907061700 TAF LRAR 061700Z 0618/0703 VRB04KT CAVOK
                      BECMG 0620/0622 18010KT=
201907062000 TAF LRAR 062000Z 0621/0706 18010KT CAVOK=
201907062300 TAF LRAR 062300Z 0700/0709 18010KT CAVOK
                      BECMG 0706/0708 27012KT=
201907070200 TAF LRAR 070200Z 0703/0712 14010KT CAVOK
                      BECMG 0706/0708 27012KT
                      TEMPO 0708/0712 VRB18G28KT 5000 TSRA SCT015
                       SCT040CB=
201907070432 TAF AMD LRAR 070432Z 0704/0712 14010KT CAVOK
                      TEMPO 0704/0707 VRB20G30KT 3000 TSRA BKN010
                       BKN030CB
                      PROB30 0704/0706 1500 +TSRA=
201907070500 TAF LRAR 070500Z 0706/0715 14012KT CAVOK
                      TEMPO 0706/0709 VRB20G30KT 3000 TSRA BKN010
                       BKN030CB=
201907070800 TAF LRAR 070800Z 0709/0718 12008KT CAVOK
                      PROB30 TEMPO 0709/0711 5000 TSRA BKN015 BKN035CB
                       TEMPO 0713/0718 VRB20G30KT 3000 TSRA BKN010
                       BKN030CB=
201907071100 TAF LRAR 071100Z 0712/0721 20008KT CAVOK
                      TEMPO 0719/0721 VRB20G30KT 3000 TSRA BKN010
                       BKN030CB=
201907071400 TAF LRAR 071400Z 0715/0724 22008KT CAVOK
                      PROB30 TEMPO 0715/0717 VRB15G25KT 3000 TSRA
                       BKN015 BKN030CB
                      TEMPO 0720/0724 VRB20G30KT 3000 TSRA BKN010
                       BKN030CB
                      PROB30 0720/0724 1500 +TSRA=
201907071700 TAF LRAR 071700Z 0718/0803 29006KT 9999 SCT040CB
                      TEMPO 0718/0722 VRB18KT 3000 TSRA SCT010
                       BKN030CB
                      PROB30 TEMPO 0718/0721 1500 +TSRA
                      BECMG 0722/0724 NSC=
201907072000 TAF LRAR 072000Z 0721/0806 VRB04KT 9999 SCT045CB
                      BECMG 0721/0723 NSC=
201907072300 TAF LRAR 072300Z 0800/0809 VRB04KT CAVOK
                      BECMG 0800/0802 27010KT=
201907080200 TAF LRAR 080200Z 0803/0812 27008KT CAVOK=
201907080500 TAF LRAR 080500Z 0806/0815 30008KT CAVOK=
201907080800 TAF LRAR 080800Z 0809/0818 33008KT 9999 SCT035=
201907081100 TAF LRAR 081100Z 0812/0821 33010KT 9999 SCT040
                      TEMPO 0812/0815 FEW040CB=
201907081400 TAF LRAR 081400Z 0815/0824 29010KT CAVOK
                      TEMPO 0822/0824 5000 -SHRA BKN010 SCT040CB=
201907081700 TAF LRAR 081700Z 0818/0903 30006KT CAVOK
                      PROB40 TEMPO 0901/0903 VRB20G30KT 3000 TSRA
                       BKN010 BKN030CB=
201907082000 TAF LRAR 082000Z 0821/0906 VRB04KT CAVOK
                      TEMPO 0822/0902 VRB20G30KT 3000 TSRA BKN010
                       BKN030CB=
201907082300 TAF LRAR 082300Z 0900/0909 VRB04KT CAVOK
                      TEMPO 0900/0905 VRB20G30KT 3000 TSRA BKN010
                       BKN030CB=
201907090200 TAF LRAR 090200Z 0903/0912 24008KT CAVOK
                      TEMPO 0903/0907 3000 SHRA BKN010 BKN030CB=
201907090500 TAF LRAR 090500Z 0906/0915 25007KT 9999 -SHRA SCT010 FEW040CB
                      BECMG 0906/0908 CAVOK
                      PROB40 TEMPO 0911/0915 VRB18KT -TSRA SCT040CB=
201907090800 TAF LRAR 090800Z 0909/0918 25007KT CAVOK
                      TEMPO 0911/0916 FEW040CB
                      PROB30 TEMPO 0912/0916 VRB18KT -TSRA=
201907091100 TAF LRAR 091100Z 0912/0921 24007KT 9999 SCT040
                      TEMPO 0912/0916 FEW030CB BKN040
                      PROB30 TEMPO 0912/0915 VRB18KT -TSRA=
201907091400 TAF LRAR 091400Z 0915/0924 24007KT 9999 SCT040
                      TEMPO 0915/0917 FEW030CB BKN040
                      PROB30 TEMPO 0915/0917 VRB17KT -TSRA=
201907091700 TAF LRAR 091700Z 0918/1003 28006KT CAVOK
                      TEMPO 0918/0920 FEW045CB
                      PROB30 TEMPO 1000/1003 5000 -SHRA SCT045CB=
201907092000 TAF LRAR 092000Z 0921/1006 32006KT CAVOK
                      PROB30 TEMPO 1001/1005 5000 -SHRA SCT045CB=
201907092300 TAF LRAR 092300Z 1000/1009 28006KT CAVOK
                      PROB30 TEMPO 1002/1006 5000 -SHRA SCT045CB=
201907100200 TAF LRAR 100200Z 1003/1012 28006KT CAVOK
                      PROB30 TEMPO 1003/1006 5000 -SHRA SCT045CB=
201907100500 TAF LRAR 100500Z 1006/1015 02006KT CAVOK=
201907100800 TAF LRAR 100800Z 1009/1018 02006KT CAVOK=
201907101100 TAF LRAR 101100Z 1012/1021 34008KT CAVOK=
201907101400 TAF LRAR 101400Z 1015/1024 30008KT CAVOK=
201907101700 TAF LRAR 101700Z 1018/1103 28005KT CAVOK=
201907102000 TAF LRAR 102000Z 1021/1106 VRB04KT CAVOK=
201907102300 TAF LRAR 102300Z 1100/1109 VRB04KT CAVOK
                      BECMG 1107/1109 30010KT=
201907110200 TAF LRAR 110200Z 1103/1112 VRB04KT CAVOK
                      BECMG 1107/1109 30010KT=
201907110500 TAF LRAR 110500Z 1106/1115 VRB04KT CAVOK
                      BECMG 1107/1109 30010KT
                      PROB30 TEMPO 1112/1115 5000 SHRA SCT040CB=
201907110800 TAF LRAR 110800Z 1109/1118 29008KT CAVOK
                      PROB30 TEMPO 1112/1115 30015G25KT 5000 SHRA
                       SCT040CB=
201907111100 TAF LRAR 111100Z 1112/1121 29008KT CAVOK
                      PROB30 TEMPO 1112/1115 30015G25KT 5000 SHRA
                       SCT040CB=
201907111400 TAF LRAR 111400Z 1115/1124 29008KT CAVOK
                      PROB30 TEMPO 1115/1118 SCT040CB=
201907111700 TAF LRAR 111700Z 1118/1203 06010KT CAVOK
                      BECMG 1118/1120 VRB04KT=
201907112000 TAF LRAR 112000Z 1121/1206 VRB04KT CAVOK=
201907112300 TAF LRAR 112300Z 1200/1209 VRB04KT CAVOK=
201907120200 TAF LRAR 120200Z 1203/1212 VRB04KT CAVOK
                      TEMPO 1203/1205 3000 BR=
201907120334 TAF AMD LRAR 120334Z 1203/1212 VRB04KT 0350 FG NSC
                      BECMG 1203/1205 3000 BR
                      BECMG 1205/1206 CAVOK=
201907120500 TAF LRAR 120500Z 1206/1215 VRB04KT CAVOK=
201907120800 TAF LRAR 120800Z 1209/1218 VRB04KT CAVOK
                      TEMPO 1214/1218 SCT040CB=
201907121100 TAF LRAR 121100Z 1212/1221 VRB04KT 9999 SCT045
                      TEMPO 1214/1218 SCT040CB=
201907121400 TAF LRAR 121400Z 1215/1224 VRB04KT CAVOK
                      TEMPO 1215/1219 SCT040CB=
201907121700 TAF LRAR 121700Z 1218/1303 VRB04KT CAVOK
                      TEMPO 1218/1220 SCT040CB=
201907122000 TAF LRAR 122000Z 1221/1306 VRB04KT CAVOK
                      TEMPO 1221/1224 FEW045CB=
201907122300 TAF LRAR 122300Z 1300/1309 VRB04KT CAVOK=
201907130200 TAF LRAR 130200Z 1303/1312 VRB04KT CAVOK
                      PROB30 TEMPO 1306/1309 SCT040CB
                      BECMG 1309/1311 30010KT=
201907130500 TAF LRAR 130500Z 1306/1315 VRB04KT CAVOK
                      TEMPO 1306/1309 FEW050CB
                      BECMG 1309/1311 12010KT
                      TEMPO 1311/1315 VRB20KT 5000 -TSRA BKN015
                       SCT035CB=
201907130800 TAF LRAR 130800Z 1309/1318 14008KT 9999 SCT035
                      TEMPO 1311/1317 5000 -SHRA SCT015 SCT035CB
                       PROB40
                      TEMPO 1312/1315 VRB20KT 3000 TSRA BKN010
                       SCT030CB=
201907131100 TAF LRAR 131100Z 1312/1321 14008KT 9999 SCT030
                      TEMPO 1312/1314 SCT030CB
                      TEMPO 1314/1318 VRB20KT 3000 TSRA BKN010
                       SCT030CB
                      BECMG 1318/1320 27006KT=
201907131400 TAF LRAR 131400Z 1315/1324 34010KT 9999 SCT010 SCT030CB
                      TEMPO 1315/1316 3000 TSRA
                      BECMG 1316/1318 VRB04KT NSC
                      PROB30 TEMPO 1321/1324 5000 TSRA BKN010 SCT030CB=
201907131700 TAF LRAR 131700Z 1318/1403 VRB04KT 9999 SCT040
                      TEMPO 1318/1322 VRB18KT 3000 TSRA SCT015
                       SCT040CB
                      PROB40 TEMPO 1400/1403 3000 BR BKN010=
201907132000 TAF LRAR 132000Z 1321/1406 VRB04KT 9999 SCT040
                      PROB40 TEMPO 1323/1405 3000 BR BKN010=
201907132300 TAF LRAR 132300Z 1400/1409 VRB04KT CAVOK
                      PROB40 TEMPO 1400/1405 3000 BR BKN010=
201907140200 TAF LRAR 140200Z 1403/1412 VRB04KT 9999 SCT045
                      PROB40 TEMPO 1403/1405 3000 BR BKN010
                      BECMG 1407/1409 33010KT
                      TEMPO 1409/1412 5000 TSRA SCT015 SCT035CB=
201907140500 TAF LRAR 140500Z 1406/1415 VRB04KT CAVOK
                      BECMG 1408/1410 33010KT
                      TEMPO 1410/1413 3000 TSRA SCT015 SCT040CB=
201907140612 TAF AMD LRAR 140612Z 1406/1415 VRB04KT 5000 BR BKN003
                      BECMG 1406/1408 9999 NSW BKN040
                      BECMG 1408/1410 33010KT
                      TEMPO 1410/1413 3000 TSRA SCT015 SCT040CB=
201907140800 TAF LRAR 140800Z 1409/1418 VRB04KT 9999 SCT030
                      BECMG 1409/1411 33010KT
                      TEMPO 1411/1414 3000 TSRA SCT015 SCT040CB=
201907141100 TAF LRAR 141100Z 1412/1421 31008KT 9999 SCT030 SCT035CB
                      TEMPO 1412/1415 3000 TSRA SCT015 BKN030CB
                       PROB40
                      TEMPO 1415/1417 5000 -TSRA=
201907141400 TAF LRAR 141400Z 1415/1424 29006KT 9999 SCT035CB
                      TEMPO 1415/1417 5000 -TSRA
                      BECMG 1417/1419 CAVOK
                      BECMG 1420/1422 3000 BR=
201907141700 TAF LRAR 141700Z 1418/1503 29006KT 9999 SCT040 FEW050CB
                      BECMG 1418/1420 NSC
                      BECMG 1420/1422 3000 BR
                      PROB40 TEMPO 1500/1503 0800 FG BKN002=
201907142000 TAF LRAR 142000Z 1421/1506 34006KT 8000 -RA SCT010 BKN045
                      BECMG 1422/1424 3000 BR BKN005
                      PROB30 TEMPO 1500/1503 0800 FG BKN002
                      BECMG 1504/1506 9999 NSW SCT015=
201907142300 TAF LRAR 142300Z 1500/1509 34006KT 9999 SCT045
                      TEMPO 1500/1504 3000 BR
                      BECMG 1507/1509 34010KT=
201907150200 TAF LRAR 150200Z 1503/1512 34006KT CAVOK
                      BECMG 1507/1509 34010KT=
201907150500 TAF LRAR 150500Z 1506/1515 VRB04KT CAVOK
                      BECMG 1506/1508 34012KT=
201907150800 TAF LRAR 150800Z 1509/1518 02010KT CAVOK=
201907151100 TAF LRAR 151100Z 1512/1521 01010KT 9999 SCT045=
201907151400 TAF LRAR 151400Z 1515/1524 01010KT CAVOK=
201907151700 TAF LRAR 151700Z 1518/1603 01008KT CAVOK=
201907152000 TAF LRAR 152000Z 1521/1606 VRB04KT CAVOK=
201907152300 TAF LRAR 152300Z 1600/1609 VRB04KT CAVOK=
201907160200 TAF LRAR 160200Z 1603/1612 VRB04KT CAVOK
                      BECMG 1608/1610 01010KT=
201907160500 TAF LRAR 160500Z 1606/1615 VRB04KT CAVOK
                      BECMG 1608/1610 01010KT=
201907160800 TAF LRAR 160800Z 1609/1618 01010KT 9999 SCT040
                      BECMG 1616/1618 VRB04KT=
201907161100 TAF LRAR 161100Z 1612/1621 01010KT 9999 BKN045
                      BECMG 1616/1618 VRB04KT=
201907161400 TAF LRAR 161400Z 1615/1624 35010KT CAVOK
                      BECMG 1616/1618 VRB04KT=
201907161700 TAF LRAR 161700Z 1618/1703 VRB04KT CAVOK=
201907162000 TAF LRAR 162000Z 1621/1706 VRB04KT CAVOK=
201907162300 TAF LRAR 162300Z 1700/1709 VRB04KT CAVOK
                      BECMG 1707/1709 30010KT=
201907170200 TAF LRAR 170200Z 1703/1712 VRB04KT CAVOK
                      BECMG 1707/1709 30010KT=
201907170500 TAF LRAR 170500Z 1706/1715 VRB04KT CAVOK
                      BECMG 1707/1709 30012KT=
201907170800 TAF LRAR 170800Z 1709/1718 32012KT CAVOK=
201907171100 TAF LRAR 171100Z 1712/1721 31008KT CAVOK=
201907171400 TAF LRAR 171400Z 1715/1724 34007KT CAVOK=
201907171700 TAF LRAR 171700Z 1718/1803 34007KT CAVOK=
201907172000 TAF LRAR 172000Z 1721/1806 VRB04KT CAVOK=
201907172300 TAF LRAR 172300Z 1800/1809 VRB04KT CAVOK=
201907180200 TAF LRAR 180200Z 1803/1812 VRB04KT CAVOK=
201907180500 TAF LRAR 180500Z 1806/1815 VRB04KT CAVOK=
201907180800 TAF LRAR 180800Z 1809/1818 VRB04KT CAVOK=
201907181100 TAF LRAR 181100Z 1812/1821 VRB04KT CAVOK=
201907181400 TAF LRAR 181400Z 1815/1824 VRB04KT CAVOK=
201907181700 TAF LRAR 181700Z 1818/1903 03008KT CAVOK
                      TEMPO 1818/1821 FEW045CB=
201907182000 TAF LRAR 182000Z 1821/1906 VRB04KT CAVOK
                      PROB30 TEMPO 1821/1823 -TSRA FEW045CB=
201907182300 TAF LRAR 182300Z 1900/1909 VRB04KT CAVOK
                      TEMPO 1900/1902 FEW040CB=
201907190200 TAF LRAR 190200Z 1903/1912 VRB04KT CAVOK=
201907190500 TAF LRAR 190500Z 1906/1915 VRB04KT CAVOK=
201907190800 TAF LRAR 190800Z 1909/1918 VRB04KT CAVOK=
201907191100 TAF LRAR 191100Z 1912/1921 30006KT CAVOK=
201907191400 TAF LRAR 191400Z 1915/1924 30006KT CAVOK=
201907191700 TAF LRAR 191700Z 1918/2003 VRB04KT CAVOK=
201907192000 TAF LRAR 192000Z 1921/2006 VRB04KT CAVOK=
201907192300 TAF LRAR 192300Z 2000/2009 VRB04KT CAVOK=
201907200200 TAF LRAR 200200Z 2003/2012 VRB04KT CAVOK=
201907200500 TAF LRAR 200500Z 2006/2015 13008KT CAVOK=
201907200800 TAF LRAR 200800Z 2009/2018 19008KT 9999 SCT040=
201907201100 TAF LRAR 201100Z 2012/2021 25006KT 9999 FEW045=
201907201400 TAF LRAR 201400Z 2015/2024 26006KT CAVOK=
201907201700 TAF LRAR 201700Z 2018/2103 VRB04KT CAVOK=
201907202000 TAF LRAR 202000Z 2021/2106 VRB04KT CAVOK=
201907202300 TAF LRAR 202300Z 2100/2109 14008KT CAVOK=
201907210200 TAF LRAR 210200Z 2103/2112 14008KT CAVOK=
201907210500 TAF LRAR 210500Z 2106/2115 14008KT CAVOK=
201907210800 TAF LRAR 210800Z 2109/2118 17006KT CAVOK=
201907211100 TAF LRAR 211100Z 2112/2121 27006KT CAVOK=
201907211400 TAF LRAR 211400Z 2115/2124 25008KT CAVOK=
201907211700 TAF LRAR 211700Z 2118/2203 20005KT CAVOK=
201907212000 TAF LRAR 212000Z 2121/2206 22005KT CAVOK
                      BECMG 2203/2205 34010KT=
201907212300 TAF LRAR 212300Z 2200/2209 VRB04KT CAVOK
                      BECMG 2203/2205 34010KT=
201907220200 TAF LRAR 220200Z 2203/2212 30008KT CAVOK=
201907220500 TAF LRAR 220500Z 2206/2215 35008KT CAVOK=
201907220800 TAF LRAR 220800Z 2209/2218 35008KT CAVOK=
201907221100 TAF LRAR 221100Z 2212/2221 34008KT CAVOK=
201907221400 TAF LRAR 221400Z 2215/2224 34008KT CAVOK=
201907221700 TAF LRAR 221700Z 2218/2303 VRB04KT CAVOK=
201907222000 TAF LRAR 222000Z 2221/2306 VRB04KT CAVOK=
201907222300 TAF LRAR 222300Z 2300/2309 VRB04KT CAVOK
                      BECMG 2307/2309 35010KT=
201907230200 TAF LRAR 230200Z 2303/2312 VRB04KT CAVOK
                      BECMG 2307/2309 35010KT=
201907230500 TAF LRAR 230500Z 2306/2315 VRB04KT CAVOK
                      BECMG 2307/2309 35010KT=
201907230800 TAF LRAR 230800Z 2309/2318 VRB04KT CAVOK
                      BECMG 2309/2311 35010KT=
201907231100 TAF LRAR 231100Z 2312/2321 32010KT CAVOK=
201907231400 TAF LRAR 231400Z 2315/2324 02010KT CAVOK=
201907231700 TAF LRAR 231700Z 2318/2403 03008KT CAVOK=
201907232000 TAF LRAR 232000Z 2321/2406 03006KT CAVOK=
201907232300 TAF LRAR 232300Z 2400/2409 VRB04KT CAVOK
                      BECMG 2406/2408 36010KT=
201907240200 TAF LRAR 240200Z 2403/2412 01008KT CAVOK=
201907240500 TAF LRAR 240500Z 2406/2415 02010KT CAVOK=
201907240800 TAF LRAR 240800Z 2409/2418 02010KT CAVOK
                      BECMG 2416/2418 VRB04KT=
201907241100 TAF LRAR 241100Z 2412/2421 01007KT 9999 SCT045=
201907241400 TAF LRAR 241400Z 2415/2424 01008KT CAVOK=
201907241700 TAF LRAR 241700Z 2418/2503 35008KT CAVOK
                      PROB30 TEMPO 2500/2503 5000 -SHRA BKN010
                       SCT030CB=
201907242000 TAF LRAR 242000Z 2421/2506 35008KT CAVOK
                      PROB30 TEMPO 2500/2503 5000 -SHRA BKN010
                       SCT030CB=
201907242300 TAF LRAR 242300Z 2500/2509 34006KT CAVOK
                      PROB30 TEMPO 2500/2503 5000 -SHRA BKN010
                       SCT030CB=
201907250200 TAF LRAR 250200Z 2503/2512 VRB04KT CAVOK
                      BECMG 2504/2506 06010KT=
201907250500 TAF LRAR 250500Z 2506/2515 VRB04KT 9999 SCT045=
201907250800 TAF LRAR 250800Z 2509/2518 VRB04KT 9999 SCT035=
201907251100 TAF LRAR 251100Z 2512/2521 VRB04KT 9999 SCT040=
201907251400 TAF LRAR 251400Z 2515/2524 VRB04KT 9999 SCT040=
201907251700 TAF LRAR 251700Z 2518/2603 VRB04KT CAVOK=
201907252000 TAF LRAR 252000Z 2521/2606 VRB04KT CAVOK=
201907252300 TAF LRAR 252300Z 2600/2609 VRB04KT CAVOK=
201907260200 TAF LRAR 260200Z 2603/2612 VRB04KT CAVOK=
201907260500 TAF LRAR 260500Z 2606/2615 VRB04KT CAVOK=
201907260800 TAF LRAR 260800Z 2609/2618 VRB04KT CAVOK=
201907261100 TAF LRAR 261100Z 2612/2621 VRB04KT CAVOK=
201907261400 TAF LRAR 261400Z 2615/2624 VRB04KT CAVOK=
201907261700 TAF LRAR 261700Z 2618/2703 VRB04KT CAVOK
                      TEMPO 2618/2620 FEW050CB=
201907262000 TAF LRAR 262000Z 2621/2706 VRB03KT CAVOK=
201907262300 TAF LRAR 262300Z 2700/2709 VRB04KT CAVOK
                      TEMPO 2707/2709 17010KT=
201907270200 TAF LRAR 270200Z 2703/2712 VRB04KT CAVOK
                      TEMPO 2707/2712 17010KT
                      TEMPO 2709/2712 SCT040CB=
201907270500 TAF LRAR 270500Z 2706/2715 15008KT CAVOK
                      TEMPO 2711/2715 SCT040CB=
201907270800 TAF LRAR 270800Z 2709/2718 15008KT CAVOK
                      TEMPO 2711/2715 SCT040CB=
201907271100 TAF LRAR 271100Z 2712/2721 15012KT CAVOK
                      TEMPO 2712/2716 SCT040CB
                      PROB30 2712/2716 5000 -TSRA
                      BECMG 2716/2718 VRB03KT=
201907271400 TAF LRAR 271400Z 2715/2724 23010KT CAVOK
                      BECMG 2716/2718 VRB03KT=
201907271700 TAF LRAR 271700Z 2718/2803 VRB04KT CAVOK
                      PROB40 TEMPO 2721/2724 VRB16KT 5000 -TSRA
                       SCT040CB=
201907272000 TAF LRAR 272000Z 2721/2806 VRB04KT CAVOK
                      PROB30 TEMPO 2721/2724 VRB16KT 5000 -TSRA
                       SCT040CB
                      BECMG 2801/2803 11010KT=
201907272300 TAF LRAR 272300Z 2800/2809 VRB04KT CAVOK
                      PROB30 TEMPO 2800/2802 VRB16KT 5000 -TSRA
                       SCT040CB
                      BECMG 2802/2804 12010KT=
201907280200 TAF LRAR 280200Z 2803/2812 07008KT 9999 FEW050CB
                      BECMG 2803/2805 13010KT NSC
                      BECMG 2810/2812 VRB04KT=
201907280500 TAF LRAR 280500Z 2806/2815 11008KT CAVOK
                      BECMG 2807/2809 17015KT
                      TEMPO 2810/2815 18015G25KT -TSRA SCT040CB
                       PROB30
                      TEMPO 2812/2815 5000 TSRA=
201907280800 TAF LRAR 280800Z 2809/2818 17015KT CAVOK
                      TEMPO 2810/2812 FEW050CB
                      TEMPO 2812/2815 18015G25KT 5000 TSRA SCT040CB
                       PROB40
                      TEMPO 2815/2818 -TSRA SCT040CB=
201907281100 TAF LRAR 281100Z 2812/2821 18015KT 9999 SCT040
                      TEMPO 2812/2815 18015G25KT 5000 TSRA SCT040CB
                       PROB40
                      TEMPO 2815/2818 -TSRA SCT040CB
                      TEMPO 2818/2821 VRB20G30KT 3000 TSRA SCT010
                       BKN030CB=
201907281252 TAF AMD LRAR 281252Z 2812/2821 18015KT 5000 TSRA SCT010 BKN030CB
                       TEMPO 2812/2814 VRB25G40KT 1500 +TSRA
                      BECMG 2814/2815 9999 NSW SCT040
                      TEMPO 2817/2821 VRB20G30KT 3000 TSRA SCT010
                       BKN030CB=
201907281400 TAF LRAR 281400Z 2815/2824 18010KT 9999 SCT040
                      TEMPO 2815/2817 SCT030 FEW040CB
                      TEMPO 2817/2821 VRB20G30KT 3000 TSRA SCT010
                       BKN030CB=
201907281700 TAF LRAR 281700Z 2818/2903 08006KT 9999 SCT040CB
                      TEMPO 2818/2823 VRB20G30KT 3000 TSRA SCT010
                       BKN030CB
                      TEMPO 2823/2903 5000 SHRA=
201907282000 TAF LRAR 282000Z 2821/2906 VRB04KT 9999 SCT040CB
                      TEMPO 2821/2903 5000 SHRA
                      BECMG 2903/2905 NSC=
201907282300 TAF LRAR 282300Z 2900/2909 VRB04KT CAVOK
                      TEMPO 2900/2904 5000 SHRA SCT040CB=
201907290200 TAF LRAR 290200Z 2903/2912 VRB04KT 9999 BKN040
                      TEMPO 2903/2907 5000 -SHRA BKN010 SCT040CB=
201907290500 TAF LRAR 290500Z 2906/2915 VRB04KT 9999 BKN045
                      TEMPO 2906/2912 5000 SHRA SCT010 SCT040CB=
201907290800 TAF LRAR 290800Z 2909/2918 VRB04KT 9999 BKN045
                      TEMPO 2909/2912 5000 -SHRA SCT010 SCT040CB=
201907291100 TAF LRAR 291100Z 2912/2921 04006KT 9999 BKN035
                      PROB40 TEMPO 2912/2916 SCT035CB=
201907291400 TAF LRAR 291400Z 2915/2924 04006KT 9999 BKN035=
201907291700 TAF LRAR 291700Z 2918/3003 33005KT CAVOK
                      TEMPO 3000/3003 5000 BR=
201907292000 TAF LRAR 292000Z 2921/3006 VRB04KT CAVOK
                      BECMG 2923/3001 5000 BR
                      TEMPO 3001/3004 3000 BR
                      PROB30 TEMPO 3002/3004 0800 FG=
201907292300 TAF LRAR 292300Z 3000/3009 VRB04KT CAVOK
                      TEMPO 3000/3005 3000 BR
                      PROB30 TEMPO 3002/3004 0800 FG=
201907300200 TAF LRAR 300200Z 3003/3012 VRB04KT 3000 BR NSC
                      TEMPO 3003/3004 0600 FG BKN001
                      BECMG 3004/3006 9999 NSW
                      BECMG 3010/3012 30010KT=
201907300435 TAF AMD LRAR 300435Z 3004/3012 VRB04KT 3000 BR NSC
                      TEMPO 3004/3006 0800 FG BKN001
                      BECMG 3006/3007 CAVOK
                      BECMG 3010/3012 30010KT=
201907300500 TAF LRAR 300500Z 3006/3015 VRB03KT 3000 BR BKN002
                      BECMG 3006/3008 CAVOK=
201907300800 TAF LRAR 300800Z 3009/3018 VRB03KT CAVOK=
201907301100 TAF LRAR 301100Z 3012/3021 VRB03KT CAVOK=
201907301400 TAF LRAR 301400Z 3015/3024 26007KT CAVOK=
201907301700 TAF LRAR 301700Z 3018/3103 26006KT CAVOK
                      PROB30 TEMPO 3021/3101 VRB15G25KT 5000 -TSRA
                       SCT040CB=
201907302000 TAF LRAR 302000Z 3021/3106 26006KT CAVOK
                      PROB30 TEMPO 3022/3101 -TSRA SCT040CB=
201907302300 TAF LRAR 302300Z 3100/3109 VRB04KT CAVOK
                      TEMPO 3100/3101 FEW050CB
                      TEMPO 3101/3104 5000 BR=
201907310200 TAF LRAR 310200Z 3103/3112 VRB04KT 5000 BR NSC
                      PROB30 TEMPO 3103/3104 3000 BR
                      BECMG 3104/3106 9999 NSW=
201907310500 TAF LRAR 310500Z 3106/3115 VRB04KT CAVOK
                      BECMG 3110/3112 SCT040CB
                      TEMPO 3112/3115 VRB20KT 5000 TSRA BKN015
                       BKN035CB=
201907310800 TAF LRAR 310800Z 3109/3118 VRB04KT CAVOK
                      PROB40 TEMPO 3112/3116 VRB20KT 5000 TSRA
                       SCT040CB=
201907311100 TAF LRAR 311100Z 3112/3121 VRB04KT CAVOK
                      PROB40 TEMPO 3112/3116 VRB20KT 5000 TSRA
                       SCT040CB=
201907311400 TAF LRAR 311400Z 3115/3124 VRB04KT CAVOK
                      TEMPO 3115/3118 VRB20KT 5000 TSRA SCT035CB=
201907311700 TAF LRAR 311700Z 3118/0103 VRB04KT CAVOK
                      TEMPO 3123/0103 3000 BR BKN010=
201907311917 TAF AMD LRAR 311917Z 3119/0103 VRB04KT CAVOK
                      TEMPO 3119/3121 5000 TSRA BKN035CB
                      TEMPO 3123/0103 3000 BR BKN010=
201907312000 TAF LRAR 312000Z 3121/0106 VRB04KT CAVOK
                      PROB30 TEMPO 3121/3123 5000 TSRA SCT040CB
                       TEMPO 3123/0105 3000 BR BKN010=
201907312300 TAF LRAR 312300Z 0100/0109 VRB04KT CAVOK
                      PROB30 TEMPO 0101/0105 3000 BR BKN010=
