201907010000 METAR LRAR 010000Z 15005KT CAVOK 19/17 Q1020=
201907010030 METAR LRAR 010030Z 14005KT CAVOK 18/17 Q1020=
201907010100 METAR LRAR 010100Z 14006KT CAVOK 18/17 Q1019=
201907010130 METAR LRAR 010130Z 14004KT CAVOK 18/17 Q1019=
201907010200 METAR LRAR 010200Z 13004KT CAVOK 18/17 Q1019=
201907010230 METAR LRAR 010230Z 13004KT CAVOK 18/17 Q1019=
201907010300 METAR LRAR 010300Z 13005KT CAVOK 18/17 Q1019=
201907010330 METAR LRAR 010330Z 13004KT CAVOK 18/18 Q1019=
201907010400 METAR LRAR 010400Z 13004KT CAVOK 19/18 Q1019=
201907010430 METAR LRAR 010430Z 14005KT CAVOK 20/18 Q1019=
201907010500 METAR LRAR 010500Z 14006KT CAVOK 21/19 Q1019=
201907010530 METAR LRAR 010530Z 14007KT CAVOK 22/18 Q1019=
201907010600 METAR LRAR 010600Z 15007KT CAVOK 23/19 Q1019=
201907010630 METAR LRAR 010630Z 14008KT CAVOK 25/19 Q1019=
201907010700 METAR LRAR 010700Z 14007KT 120V180 CAVOK 26/19 Q1019=
201907010730 METAR LRAR 010730Z 15006KT 130V190 CAVOK 27/19 Q1019=
201907010800 METAR COR LRAR 010800Z 16006KT 130V210 CAVOK 27/19 Q1019=
201907010830 METAR LRAR 010830Z 16006KT 130V190 CAVOK 28/17 Q1019=
201907010900 METAR LRAR 010900Z 15005KT 110V200 CAVOK 29/18 Q1018=
201907010930 METAR LRAR 010930Z 15005KT 110V200 CAVOK 29/18 Q1018=
201907011000 METAR LRAR 011000Z 22005KT 170V260 CAVOK 30/18 Q1018=
201907011030 METAR LRAR 011030Z 22006KT 160V240 CAVOK 31/17 Q1018=
201907011100 METAR LRAR 011100Z 21006KT 160V240 CAVOK 31/18 Q1018=
201907011130 METAR LRAR 011130Z 16005KT 130V200 CAVOK 32/17 Q1017=
201907011200 METAR LRAR 011200Z 22006KT 160V250 CAVOK 32/17 Q1017=
201907011230 METAR LRAR 011230Z 22005KT 190V270 CAVOK 33/17 Q1017=
201907011300 METAR LRAR 011300Z 22005KT 160V260 CAVOK 33/17 Q1017=
201907011330 METAR LRAR 011330Z 21005KT 170V260 CAVOK 33/17 Q1016=
201907011400 METAR LRAR 011400Z 25007KT CAVOK 33/19 Q1016=
201907011430 METAR LRAR 011430Z 25006KT CAVOK 33/20 Q1016=
201907011500 METAR LRAR 011500Z 24006KT CAVOK 33/19 Q1015=
201907011530 METAR LRAR 011530Z 24005KT CAVOK 33/19 Q1015=
201907011600 METAR LRAR 011600Z 24005KT CAVOK 32/20 Q1015=
201907011630 METAR LRAR 011630Z 25005KT CAVOK 32/20 Q1015=
201907011700 METAR LRAR 011700Z 22003KT CAVOK 31/21 Q1015=
201907011730 METAR LRAR 011730Z 26003KT CAVOK 30/21 Q1015=
201907011800 METAR LRAR 011800Z 19004KT CAVOK 28/22 Q1015=
201907011830 METAR LRAR 011830Z 14003KT CAVOK 26/22 Q1015=
201907011900 METAR LRAR 011900Z 16006KT CAVOK 26/21 Q1015=
201907011930 METAR LRAR 011930Z 16006KT CAVOK 25/20 Q1015=
201907012000 METAR LRAR 012000Z 15006KT CAVOK 24/20 Q1015=
201907012030 METAR LRAR 012030Z 15007KT CAVOK 23/20 Q1015=
201907012100 METAR LRAR 012100Z 15005KT CAVOK 23/20 Q1015=
201907012130 METAR LRAR 012130Z 15003KT CAVOK 22/20 Q1015=
201907012200 METAR LRAR 012200Z AUTO 14002KT 9999 NCD 22/20 Q1015=
201907012230 METAR LRAR 012230Z 14003KT CAVOK 22/20 Q1015=
201907012300 METAR LRAR 012300Z 15005KT CAVOK 21/19 Q1015=
201907012330 METAR LRAR 012330Z 14005KT CAVOK 21/19 Q1015=
201907020000 METAR LRAR 020000Z 14004KT CAVOK 21/20 Q1015=
201907020030 METAR COR LRAR 020030Z 14006KT CAVOK 21/20 Q1014=
201907020100 METAR LRAR 020100Z 14005KT CAVOK 21/20 Q1014=
201907020130 METAR LRAR 020130Z 14006KT CAVOK 21/20 Q1014=
201907020200 METAR LRAR 020200Z 14006KT CAVOK 20/20 Q1014=
201907020230 METAR LRAR 020230Z 15006KT CAVOK 20/20 Q1014=
201907020300 METAR LRAR 020300Z 13007KT CAVOK 20/19 Q1013=
201907020330 METAR LRAR 020330Z 13006KT CAVOK 20/19 Q1014=
201907020400 METAR LRAR 020400Z 13004KT CAVOK 21/20 Q1014=
201907020430 METAR LRAR 020430Z 14007KT CAVOK 22/20 Q1013=
201907020500 METAR LRAR 020500Z 13004KT CAVOK 23/20 Q1014=
201907020530 METAR LRAR 020530Z 15005KT CAVOK 24/21 Q1014=
201907020600 METAR LRAR 020600Z 13005KT CAVOK 25/21 Q1014=
201907020630 METAR LRAR 020630Z 15005KT 120V180 CAVOK 27/22 Q1014=
201907020700 METAR LRAR 020700Z 18004KT 140V220 CAVOK 28/21 Q1014=
201907020730 METAR LRAR 020730Z 20006KT 160V230 CAVOK 29/21 Q1013=
201907020800 METAR LRAR 020800Z 19006KT 150V220 CAVOK 30/21 Q1013=
201907020830 METAR LRAR 020830Z 21005KT 160V240 CAVOK 31/20 Q1013=
201907020900 METAR LRAR 020900Z 25005KT 190V290 CAVOK 31/20 Q1014=
201907020930 METAR LRAR 020930Z 24004KT 180V310 CAVOK 31/21 Q1013=
201907021000 METAR LRAR 021000Z 27006KT 230V300 CAVOK 32/20 Q1013=
201907021030 METAR LRAR 021030Z 23005KT 200V270 CAVOK 32/19 Q1013=
201907021100 METAR LRAR 021100Z 22005KT 140V280 CAVOK 33/20 Q1013=
201907021130 METAR LRAR 021130Z 22005KT 170V280 CAVOK 33/21 Q1013=
201907021200 METAR LRAR 021200Z VRB04KT CAVOK 33/20 Q1013=
201907021230 METAR LRAR 021230Z 21005KT 170V260 CAVOK 33/20 Q1013=
201907021300 METAR LRAR 021300Z 31005KT 260V050 CAVOK 34/20 Q1012=
201907021330 METAR LRAR 021330Z 27004KT 220V310 CAVOK 34/21 Q1012=
201907021400 METAR LRAR 021400Z 29004KT 240V330 CAVOK 34/20 Q1012=
201907021430 METAR LRAR 021430Z 27006KT CAVOK 33/19 Q1012=
201907021500 METAR LRAR 021500Z 29005KT 250V040 CAVOK 33/19 Q1012=
201907021530 METAR LRAR 021530Z 32006KT 290V350 CAVOK 33/18 Q1012=
201907021600 METAR LRAR 021600Z 33006KT CAVOK 33/17 Q1012=
201907021630 METAR LRAR 021630Z 33004KT 300V360 CAVOK 33/18 Q1012=
201907021700 METAR LRAR 021700Z 33004KT CAVOK 32/19 Q1012=
201907021730 METAR LRAR 021730Z 32004KT CAVOK 31/20 Q1012=
201907021800 METAR LRAR 021800Z 33004KT CAVOK 29/20 Q1012=
201907021830 METAR LRAR 021830Z 27002KT 250V310 CAVOK 27/22 Q1012=
201907021900 METAR LRAR 021900Z 33005KT CAVOK 26/20 Q1012=
201907021930 METAR LRAR 021930Z 34005KT CAVOK 26/18 Q1013=
201907022000 METAR LRAR 022000Z 33003KT CAVOK 24/19 Q1013=
201907022030 METAR LRAR 022030Z 34005KT CAVOK 24/18 Q1013=
201907022100 METAR LRAR 022100Z 34005KT CAVOK 25/18 Q1013=
201907022130 METAR LRAR 022130Z 30004KT CAVOK 22/19 Q1013=
201907022200 METAR LRAR 022200Z 29003KT CAVOK 22/19 Q1013=
201907022230 METAR LRAR 022230Z 31005KT CAVOK 21/19 Q1013=
201907022300 METAR LRAR 022300Z 31004KT CAVOK 21/18 Q1013=
201907022330 METAR LRAR 022330Z 33002KT CAVOK 20/18 Q1013=
201907030000 METAR LRAR 030000Z VRB02KT CAVOK 20/18 Q1013=
201907030030 METAR LRAR 030030Z 33004KT CAVOK 20/19 Q1013=
201907030100 METAR LRAR 030100Z 32004KT CAVOK 21/19 Q1013=
201907030130 METAR LRAR 030130Z 32005KT CAVOK 21/19 Q1013=
201907030200 METAR LRAR 030200Z 31006KT CAVOK 21/19 Q1014=
201907030230 METAR LRAR 030230Z 30018G28KT 6000 +TSRA FEW006 SCT031 BKN040CB
                        18/17 Q1016 R09/29//95=
201907030300 METAR LRAR 030300Z 30007KT 9999 -TSRA FEW008 SCT015 SCT046CB
                        19/17 Q1015 RESHRA R09/29//95=
201907030330 METAR LRAR 030330Z 34006KT 300V360 9999 -TSRA FEW015 SCT023
                        SCT048CB 19/19 Q1014 RESHRA R09/29//95=
201907030400 METAR LRAR 030400Z 33007KT 9999 -SHRA SCT009 SCT045CB 19/18
                        Q1015 RETS R09/29//95=
201907030430 METAR LRAR 030430Z 06004KT 030V090 9999 -SHRA FEW008 SCT013
                        SCT045CB 19/19 Q1014 RETS R09/29//95=
201907030500 METAR LRAR 030500Z 07003KT 360V140 9999 FEW008 SCT045CB 20/19
                        Q1014 R09/29//95=
201907030530 METAR LRAR 030530Z 26002KT 230V340 9999 FEW048CB 20/19 Q1015
                        R09/29//95=
201907030600 METAR LRAR 030600Z 36004KT 320V070 9999 FEW048CB 21/20 Q1016
                        R09/29//95=
201907030630 METAR LRAR 030630Z 35005KT 320V020 9999 FEW048CB 21/19 Q1016
                        R09/19//95=
201907030700 METAR LRAR 030700Z 36004KT 320V030 CAVOK 21/19 Q1016 R09/19//95=
201907030730 METAR LRAR 030730Z 01006KT 340V050 CAVOK 22/18 Q1016 R09/19//95=
201907030800 METAR LRAR 030800Z 01007KT 330V040 CAVOK 22/17 Q1016 R09/19//95=
201907030830 METAR LRAR 030830Z 02007KT 340V050 CAVOK 23/17 Q1016 R09/19//95=
201907030900 METAR LRAR 030900Z 03007KT 350V070 CAVOK 24/18 Q1016 R09/CLRD//=
201907030930 METAR LRAR 030930Z 02007KT 340V060 CAVOK 25/17 Q1016=
201907031000 METAR LRAR 031000Z 01006KT 320V060 CAVOK 26/17 Q1016=
201907031030 METAR LRAR 031030Z 01006KT 300V070 CAVOK 27/17 Q1017=
201907031100 METAR LRAR 031100Z 02007KT 340V050 CAVOK 28/12 Q1017=
201907031130 METAR LRAR 031130Z 36009KT 310V040 CAVOK 28/12 Q1017=
201907031200 METAR LRAR 031200Z 01008KT 310V050 CAVOK 29/13 Q1017=
201907031230 METAR LRAR 031230Z 02011KT 340V050 CAVOK 28/11 Q1017=
201907031300 METAR LRAR 031300Z 01010KT 340V040 CAVOK 29/10 Q1017=
201907031330 METAR LRAR 031330Z 36008KT 330V050 CAVOK 29/10 Q1017=
201907031400 METAR LRAR 031400Z 02008KT 340V070 CAVOK 29/11 Q1016=
201907031430 METAR LRAR 031430Z 06008KT CAVOK 29/10 Q1016=
201907031500 METAR LRAR 031500Z 05007KT 340V110 CAVOK 28/10 Q1016=
201907031530 METAR LRAR 031530Z 02007KT 350V050 CAVOK 28/11 Q1016=
201907031600 METAR LRAR 031600Z 01004KT 320V070 CAVOK 28/11 Q1016=
201907031630 METAR LRAR 031630Z 05004KT 360V080 CAVOK 28/10 Q1016=
201907031700 METAR LRAR 031700Z 06004KT CAVOK 27/12 Q1016=
201907031730 METAR LRAR 031730Z 07003KT CAVOK 26/12 Q1016=
201907031800 METAR LRAR 031800Z VRB01KT CAVOK 25/17 Q1016=
201907031830 METAR LRAR 031830Z 16001KT CAVOK 22/16 Q1016=
201907031900 METAR LRAR 031900Z VRB01KT CAVOK 21/15 Q1016=
201907031930 METAR LRAR 031930Z 15001KT CAVOK 21/16 Q1016=
201907032000 METAR LRAR 032000Z VRB01KT CAVOK 21/15 Q1017=
201907032030 METAR LRAR 032030Z 15002KT CAVOK 20/15 Q1017=
201907032100 METAR LRAR 032100Z VRB01KT CAVOK 20/15 Q1017=
201907032130 METAR LRAR 032130Z 17002KT CAVOK 20/15 Q1017=
201907032200 METAR LRAR 032200Z 30006KT CAVOK 17/15 Q1018=
201907032230 METAR LRAR 032230Z 28004KT CAVOK 18/16 Q1017=
201907032300 METAR LRAR 032300Z 00000KT CAVOK 18/16 Q1017=
201907032330 METAR LRAR 032330Z 14005KT CAVOK 18/16 Q1017=
201907040000 METAR LRAR 040000Z 23003KT 140V280 CAVOK 16/15 Q1018=
201907040030 METAR LRAR 040030Z 26003KT CAVOK 16/15 Q1018=
201907040100 METAR LRAR 040100Z 26002KT CAVOK 16/15 Q1017=
201907040130 METAR LRAR 040130Z 29006KT CAVOK 15/14 Q1017=
201907040200 METAR LRAR 040200Z 27006KT CAVOK 15/14 Q1017=
201907040230 METAR LRAR 040230Z VRB02KT CAVOK 16/14 Q1017=
201907040300 METAR LRAR 040300Z 22001KT CAVOK 16/14 Q1018=
201907040330 METAR LRAR 040330Z 00000KT CAVOK 17/14 Q1018=
201907040400 METAR LRAR 040400Z 32004KT 9999 FEW040CB 17/15 Q1018=
201907040430 METAR LRAR 040430Z 30003KT 9999 SCT040CB 17/15 Q1018=
201907040500 METAR LRAR 040500Z 28005KT 9999 SCT040CB 17/15 Q1018=
201907040530 METAR LRAR 040530Z 28007KT 260V320 9999 FEW040CB 17/16 Q1019=
201907040600 METAR LRAR 040600Z 30005KT 280V340 9999 FEW040CB 18/16 Q1019=
201907040630 METAR LRAR 040630Z 31003KT 260V340 9999 FEW040CB 18/16 Q1019=
201907040700 METAR LRAR 040700Z 30003KT 250V350 9999 -SHRA FEW045CB 18/16
                        Q1019=
201907040730 METAR LRAR 040730Z 34003KT 310V040 9999 FEW045CB 19/16 Q1019=
201907040800 METAR LRAR 040800Z 34004KT 310V020 9999 FEW045CB 20/16 Q1019=
201907040830 METAR LRAR 040830Z 35005KT 300V050 CAVOK 21/16 Q1019=
201907040900 METAR LRAR 040900Z 01004KT 320V080 CAVOK 22/16 Q1020=
201907040930 METAR LRAR 040930Z VRB03KT CAVOK 23/16 Q1020=
201907041000 METAR LRAR 041000Z VRB03KT CAVOK 25/16 Q1019=
201907041030 METAR LRAR 041030Z 01008KT CAVOK 25/14 Q1019=
201907041100 METAR LRAR 041100Z 01006KT 330V070 CAVOK 27/12 Q1019=
201907041130 METAR LRAR 041130Z 36005KT 310V080 CAVOK 26/13 Q1019=
201907041200 METAR LRAR 041200Z 31004KT 260V030 CAVOK 27/13 Q1019=
201907041230 METAR LRAR 041230Z 32006KT 260V360 CAVOK 27/12 Q1019=
201907041300 METAR LRAR 041300Z 33007KT 270V020 9999 FEW050CB 27/13 Q1019=
201907041330 METAR LRAR 041330Z 01005KT 320V040 9999 FEW050CB 26/12 Q1019=
201907041400 METAR LRAR 041400Z 35005KT 290V040 9999 FEW050CB 27/10 Q1018=
201907041430 METAR LRAR 041430Z 31006KT 270V350 9999 FEW055CB 27/09 Q1018=
201907041500 METAR LRAR 041500Z 33006KT 310V010 9999 FEW055CB 26/10 Q1018=
201907041530 METAR LRAR 041530Z 33007KT 9999 FEW055CB 25/11 Q1018=
201907041600 METAR LRAR 041600Z 34005KT 9999 FEW050CB 25/12 Q1018=
201907041630 METAR LRAR 041630Z 35003KT 9999 FEW050CB 24/12 Q1018=
201907041700 METAR LRAR 041700Z 36004KT 9999 SCT050CB 24/14 Q1018=
201907041730 METAR LRAR 041730Z 02005KT 350V050 9999 FEW050CB 24/13 Q1018=
201907041800 METAR LRAR 041800Z 01005KT 9999 FEW050CB 23/13 Q1018=
201907041830 METAR LRAR 041830Z 03004KT CAVOK 22/12 Q1018=
201907041900 METAR LRAR 041900Z 00000KT CAVOK 19/15 Q1018=
201907041930 METAR LRAR 041930Z 00000KT CAVOK 19/14 Q1018=
201907042000 METAR LRAR 042000Z 31001KT CAVOK 18/15 Q1018=
201907042030 METAR LRAR 042030Z 32001KT CAVOK 18/15 Q1018=
201907042100 METAR LRAR 042100Z 28002KT CAVOK 17/14 Q1018=
201907042130 METAR LRAR 042130Z VRB01KT CAVOK 17/14 Q1018=
201907042200 METAR LRAR 042200Z VRB01KT CAVOK 16/14 Q1018=
201907042230 METAR LRAR 042230Z 20001KT CAVOK 15/13 Q1018=
201907042300 METAR LRAR 042300Z 00000KT CAVOK 15/14 Q1018=
201907042330 METAR LRAR 042330Z 00000KT CAVOK 15/14 Q1018=
201907050000 METAR LRAR 050000Z 00000KT CAVOK 14/14 Q1018=
201907050030 METAR LRAR 050030Z 00000KT CAVOK 14/14 Q1018=
201907050100 METAR LRAR 050100Z VRB01KT CAVOK 14/14 Q1018=
201907050130 METAR LRAR 050130Z VRB01KT CAVOK 14/14 Q1018=
201907050200 METAR LRAR 050200Z 00000KT CAVOK 13/13 Q1017=
201907050230 METAR LRAR 050230Z 28002KT 240V310 9000 MIFG NSC 13/13 Q1017=
201907050300 METAR LRAR 050300Z 15001KT 7000 MIFG NSC 13/13 Q1017=
201907050330 METAR LRAR 050330Z 14002KT 010V150 9999 MIFG NSC 13/13 Q1017=
201907050400 METAR LRAR 050400Z 14003KT CAVOK 15/15 Q1017=
201907050430 METAR LRAR 050430Z 14003KT CAVOK 17/15 Q1017=
201907050500 METAR LRAR 050500Z VRB02KT CAVOK 19/16 Q1017=
201907050530 METAR LRAR 050530Z VRB02KT CAVOK 20/15 Q1017=
201907050600 METAR LRAR 050600Z VRB01KT CAVOK 23/15 Q1017=
201907050630 METAR LRAR 050630Z VRB02KT CAVOK 23/15 Q1017=
201907050700 METAR LRAR 050700Z 34004KT 300V020 CAVOK 23/15 Q1017=
201907050730 METAR LRAR 050730Z VRB04KT CAVOK 24/15 Q1017=
201907050800 METAR LRAR 050800Z VRB03KT CAVOK 25/16 Q1017=
201907050830 METAR LRAR 050830Z 26004KT 230V310 9999 SCT026 25/15 Q1017=
201907050900 METAR LRAR 050900Z VRB04KT 9999 BKN027 26/14 Q1017=
201907050930 METAR LRAR 050930Z VRB04KT 9999 BKN028 26/14 Q1016=
201907051000 METAR LRAR 051000Z 26004KT 210V330 9999 BKN028 27/14 Q1016=
201907051030 METAR LRAR 051030Z 23006KT 180V260 9999 BKN028 27/14 Q1016=
201907051100 METAR LRAR 051100Z 25006KT 210V300 9999 BKN030 27/14 Q1016=
201907051130 METAR LRAR 051130Z 22005KT 170V340 9999 BKN035 27/12 Q1015=
201907051200 METAR LRAR 051200Z 22006KT 170V250 9999 BKN035 27/11 Q1015=
201907051230 METAR LRAR 051230Z 28008KT 9999 SCT040 28/12 Q1015=
201907051300 METAR LRAR 051300Z 25006KT 220V290 9999 SCT040 28/11 Q1015=
201907051330 METAR LRAR 051330Z 27007KT 230V320 9999 SCT040 28/13 Q1014=
201907051400 METAR LRAR 051400Z 27007KT 230V320 9999 SCT040 28/13 Q1014=
201907051430 METAR LRAR 051430Z 23007KT 200V260 9999 SCT046 28/11 Q1014=
201907051500 METAR LRAR 051500Z 26007KT 220V310 CAVOK 28/11 Q1013=
201907051530 METAR COR LRAR 051530Z 24008KT CAVOK 28/11 Q1013=
201907051600 METAR LRAR 051600Z 24007KT CAVOK 28/12 Q1013=
201907051630 METAR LRAR 051630Z 23005KT CAVOK 28/13 Q1013=
201907051700 METAR LRAR 051700Z 23005KT CAVOK 27/14 Q1013=
201907051730 METAR LRAR 051730Z 24005KT CAVOK 26/15 Q1013=
201907051800 METAR LRAR 051800Z 22005KT CAVOK 25/15 Q1013=
201907051830 METAR LRAR 051830Z 21005KT CAVOK 23/15 Q1013=
201907051900 METAR LRAR 051900Z 20006KT CAVOK 22/16 Q1013=
201907051930 METAR LRAR 051930Z 20006KT CAVOK 21/16 Q1013=
201907052000 METAR LRAR 052000Z 21007KT CAVOK 21/16 Q1013=
201907052030 METAR LRAR 052030Z 21007KT CAVOK 22/16 Q1013=
201907052100 METAR LRAR 052100Z 23005KT CAVOK 22/16 Q1013=
201907052130 METAR LRAR 052130Z 24005KT CAVOK 21/16 Q1013=
201907052200 METAR LRAR 052200Z 24006KT CAVOK 21/16 Q1013=
201907052230 METAR LRAR 052230Z 24005KT CAVOK 20/17 Q1013=
201907052300 METAR LRAR 052300Z VRB02KT CAVOK 19/17 Q1013=
201907052330 METAR LRAR 052330Z 34003KT CAVOK 18/16 Q1014=
201907060000 METAR LRAR 060000Z 31003KT CAVOK 18/17 Q1014=
201907060030 METAR LRAR 060030Z 27002KT CAVOK 18/16 Q1014=
201907060100 METAR LRAR 060100Z VRB01KT CAVOK 17/16 Q1014=
201907060130 METAR LRAR 060130Z VRB01KT CAVOK 17/16 Q1014=
201907060200 METAR LRAR 060200Z 00000KT CAVOK 16/16 Q1014=
201907060230 METAR LRAR 060230Z 19002KT CAVOK 15/15 Q1014=
201907060300 METAR LRAR 060300Z 19002KT 9999 MIFG NSC 15/15 Q1014=
201907060330 METAR LRAR 060330Z 23002KT 9999 MIFG NSC 14/14 Q1014=
201907060400 METAR LRAR 060400Z 00000KT CAVOK 16/15 Q1014=
201907060430 METAR LRAR 060430Z 28001KT CAVOK 18/16 Q1014=
201907060500 METAR LRAR 060500Z VRB01KT CAVOK 21/16 Q1014=
201907060530 METAR LRAR 060530Z 18003KT 130V230 CAVOK 21/15 Q1014=
201907060600 METAR LRAR 060600Z 16003KT 120V200 CAVOK 22/15 Q1014=
201907060630 METAR LRAR 060630Z 18003KT 140V230 CAVOK 23/14 Q1014=
201907060700 METAR LRAR 060700Z VRB03KT CAVOK 24/13 Q1014=
201907060730 METAR LRAR 060730Z 17003KT 090V230 CAVOK 25/11 Q1014=
201907060800 METAR LRAR 060800Z 20003KT 120V290 CAVOK 26/10 Q1014=
201907060830 METAR LRAR 060830Z 29004KT CAVOK 26/10 Q1014=
201907060900 METAR LRAR 060900Z VRB02KT CAVOK 28/10 Q1014=
201907060930 METAR LRAR 060930Z VRB03KT CAVOK 28/11 Q1014=
201907061000 METAR LRAR 061000Z 23005KT 170V300 CAVOK 28/09 Q1014=
201907061030 METAR LRAR 061030Z VRB04KT CAVOK 28/11 Q1014=
201907061100 METAR LRAR 061100Z 28006KT CAVOK 28/12 Q1013=
201907061130 METAR LRAR 061130Z 23005KT 190V330 CAVOK 29/11 Q1013=
201907061200 METAR LRAR 061200Z 27006KT 230V290 CAVOK 29/12 Q1013=
201907061230 METAR LRAR 061230Z 26007KT 220V310 CAVOK 29/13 Q1013=
201907061300 METAR LRAR 061300Z 27005KT 220V320 CAVOK 29/11 Q1012=
201907061330 METAR LRAR 061330Z VRB04KT CAVOK 30/13 Q1012=
201907061400 METAR LRAR 061400Z 26005KT 170V310 CAVOK 30/10 Q1012=
201907061430 METAR LRAR 061430Z 24007KT 200V270 CAVOK 30/12 Q1011=
201907061500 METAR LRAR 061500Z 21007KT 180V240 CAVOK 30/11 Q1011=
201907061530 METAR LRAR 061530Z 23005KT 200V260 CAVOK 30/11 Q1011=
201907061600 METAR LRAR 061600Z 24005KT 200V260 CAVOK 30/11 Q1011=
201907061630 METAR LRAR 061630Z 22004KT CAVOK 29/14 Q1011=
201907061700 METAR LRAR 061700Z 22004KT CAVOK 29/15 Q1011=
201907061730 METAR LRAR 061730Z 20004KT CAVOK 27/16 Q1010=
201907061800 METAR LRAR 061800Z 19004KT CAVOK 26/16 Q1010=
201907061830 METAR LRAR 061830Z 19004KT CAVOK 26/15 Q1010=
201907061900 METAR LRAR 061900Z 15006KT CAVOK 23/17 Q1010=
201907061930 METAR LRAR 061930Z 14007KT CAVOK 23/16 Q1010=
201907062000 METAR LRAR 062000Z 14007KT CAVOK 22/16 Q1010=
201907062030 METAR LRAR 062030Z 14008KT CAVOK 22/16 Q1010=
201907062100 METAR LRAR 062100Z 14008KT CAVOK 20/16 Q1010=
201907062130 METAR LRAR 062130Z 14009KT CAVOK 20/15 Q1010=
201907062200 METAR LRAR 062200Z 14008KT CAVOK 20/15 Q1010=
201907062230 METAR LRAR 062230Z 14009KT CAVOK 19/15 Q1010=
201907062300 METAR LRAR 062300Z 14009KT CAVOK 20/15 Q1010=
201907062330 METAR LRAR 062330Z 14010KT CAVOK 19/15 Q1010=
201907070000 METAR LRAR 070000Z 14009KT CAVOK 19/15 Q1010=
201907070030 METAR LRAR 070030Z 14009KT CAVOK 19/15 Q1010=
201907070100 METAR LRAR 070100Z 13010KT CAVOK 20/14 Q1009=
201907070130 METAR LRAR 070130Z 14010KT CAVOK 20/14 Q1009=
201907070200 METAR LRAR 070200Z 14011KT CAVOK 20/14 Q1009=
201907070230 METAR LRAR 070230Z 14010KT CAVOK 19/14 Q1008=
201907070300 METAR LRAR 070300Z 14011KT CAVOK 19/14 Q1008=
201907070330 METAR LRAR 070330Z 14011KT 9999 FEW033 19/14 Q1008=
201907070400 METAR LRAR 070400Z 14011KT 9999 FEW033CB 20/14 Q1008=
201907070430 METAR LRAR 070430Z 14012KT 9999 TS SCT033CB 20/14 Q1007=
201907070500 METAR LRAR 070500Z 15011KT 9999 -TSRA BKN035CB 22/14 Q1008=
201907070530 METAR LRAR 070530Z 15009KT 9999 TS FEW009 BKN035CB 21/16
                        Q1007=
201907070600 METAR LRAR 070600Z 34003KT 300V080 4000 TSRA SCT008 BKN035CB
                        19/17 Q1008 R09/29//95=
201907070630 METAR LRAR 070630Z 24009KT 9999 TS FEW008 BKN030CB 19/18
                        Q1008 RESHRA R09/29//95=
201907070700 METAR LRAR 070700Z 35003KT 9999 TS FEW012 SCT035CB 19/19
                        Q1009 RESHRA R09/29//95=
201907070730 METAR LRAR 070730Z 09004KT 9999 SCT035CB 19/18 Q1009 RETS
                        R09/29//95=
201907070800 METAR LRAR 070800Z 09007KT 9999 FEW035CB 19/19 Q1009 RETS
                        R09/29//95=
201907070830 METAR LRAR 070830Z 11009KT 9999 FEW035CB 20/18 Q1008 R09/29//95=
201907070900 METAR LRAR 070900Z 13009KT 9999 FEW035CB 21/19 Q1008 R09/29//95=
201907070930 METAR LRAR 070930Z 14009KT CAVOK 23/20 Q1008 R09/CLRD//=
201907071000 METAR LRAR 071000Z 17008KT 140V200 CAVOK 25/20 Q1008=
201907071030 METAR LRAR 071030Z 20007KT 150V230 CAVOK 26/20 Q1008=
201907071100 METAR LRAR 071100Z 21007KT 170V240 CAVOK 27/19 Q1008=
201907071130 METAR LRAR 071130Z 22006KT 170V270 9999 FEW040 28/19 Q1008=
201907071200 METAR LRAR 071200Z 25006KT 170V290 CAVOK 28/18 Q1008=
201907071230 METAR LRAR 071230Z 25006KT 210V300 CAVOK 28/18 Q1007=
201907071300 METAR LRAR 071300Z 28005KT 250V020 CAVOK 29/17 Q1007=
201907071330 METAR LRAR 071330Z 22005KT 160V280 CAVOK 29/18 Q1007=
201907071400 METAR LRAR 071400Z 21005KT 180V260 9999 FEW050TCU 29/18 Q1006=
201907071430 METAR LRAR 071430Z 23006KT 9999 FEW050CB 29/16 Q1006=
201907071500 METAR LRAR 071500Z 29004KT 9999 FEW050CB 29/16 Q1006=
201907071530 METAR LRAR 071530Z 05002KT 360V130 9999 SCT050CB 29/17 Q1005=
201907071600 METAR COR LRAR 071600Z 06010KT 020V080 9999 SCT050CB 25/18
                        Q1005=
201907071630 METAR LRAR 071630Z 08006KT 9999 TS SCT050CB 24/18 Q1005=
201907071700 METAR LRAR 071700Z 27016KT 9999 -TSRA FEW015 SCT040CB 24/19
                        Q1006=
201907071730 METAR LRAR 071730Z 21005KT 150V260 9999 -TSRA FEW009 SCT020
                        BKN035CB 21/19 Q1006=
201907071800 METAR LRAR 071800Z 27006KT 9999 -TSRA FEW009 SCT019 SCT040CB
                        21/20 Q1007 R09/19//95=
201907071830 METAR LRAR 071830Z 26013KT 9999 TSRA FEW020 SCT034 BKN040CB
                        20/19 Q1008 R09/19//95=
201907071900 METAR LRAR 071900Z 26012KT 9999 -TSRA FEW019 BKN023 BKN040CB
                        19/18 Q1009 R09/29//95=
201907071930 METAR LRAR 071930Z VRB02KT 9999 -TSRA FEW012 BKN020 BKN040CB
                        18/18 Q1007 RESHRA R09/29//95=
201907072000 METAR LRAR 072000Z 25005KT 9999 -SHRA FEW008 BKN012 SCT045CB
                        18/18 Q1008 RETS R09/29//95=
201907072030 METAR LRAR 072030Z 20005KT 170V250 9999 -SHRA FEW009 SCT030
                        FEW050CB 18/18 Q1008 RETS R09/29//95=
201907072100 METAR LRAR 072100Z 26008KT 9999 FEW035 19/19 Q1008 R09/29//95=
201907072130 METAR LRAR 072130Z 23005KT 200V260 9999 FEW040 19/19 Q1009
                        R09/29//95=
201907072200 METAR LRAR 072200Z 23005KT 9999 FEW040 19/19 Q1009 R09/29//95=
201907072230 METAR LRAR 072230Z 25005KT CAVOK 19/19 Q1009 R09/29//95=
201907072300 METAR LRAR 072300Z 22005KT CAVOK 19/19 Q1009 R09/29//95=
201907072330 METAR LRAR 072330Z 22006KT CAVOK 18/18 Q1009 R09/29//95=
201907080000 METAR LRAR 080000Z 23007KT CAVOK 18/18 Q1009 R09/29//95=
201907080030 METAR LRAR 080030Z 25006KT CAVOK 18/18 Q1009 R09/29//95=
201907080100 METAR LRAR 080100Z 26006KT CAVOK 18/18 Q1009 R09/29//95=
201907080130 METAR LRAR 080130Z 28007KT CAVOK 17/17 Q1009 R09/29//95=
201907080200 METAR LRAR 080200Z 27007KT CAVOK 17/17 Q1009 R09/29//95=
201907080230 METAR LRAR 080230Z 28006KT CAVOK 16/16 Q1010 R09/29//95=
201907080300 METAR LRAR 080300Z 28006KT CAVOK 16/16 Q1010 R09/29//95=
201907080330 METAR LRAR 080330Z 29005KT 9999 MIFG NSC 16/16 Q1010 R09/29//95=
201907080400 METAR LRAR 080400Z 29003KT 9999 MIFG NSC 16/16 Q1010 R09/19//95=
201907080430 METAR LRAR 080430Z 28003KT 240V320 CAVOK 17/17 Q1010 R09/19//95=
201907080500 METAR LRAR 080500Z 30007KT CAVOK 18/18 Q1011 R09/19//95=
201907080530 METAR LRAR 080530Z 31009KT 9999 FEW007 19/18 Q1011 R09/CLRD//=
201907080600 METAR LRAR 080600Z 33006KT 300V010 9999 FEW008 20/18 Q1012=
201907080630 METAR LRAR 080630Z 35005KT 320V030 9999 SCT010 21/18 Q1012=
201907080700 METAR LRAR 080700Z 34006KT 9999 FEW016 SCT020 21/17 Q1013=
201907080730 METAR LRAR 080730Z 34006KT 300V030 9999 BKN025 21/17 Q1013=
201907080800 METAR LRAR 080800Z 32008KT 290V350 9999 BKN025 22/17 Q1013=
201907080830 METAR LRAR 080830Z 32007KT 270V350 9999 BKN024 22/16 Q1013=
201907080900 METAR LRAR 080900Z 01008KT 340V070 9999 SCT031 23/15 Q1014=
201907080930 METAR LRAR 080930Z 33008KT 300V010 9999 SCT036 23/14 Q1014=
201907081000 METAR LRAR 081000Z VRB07KT 9999 SCT042 24/13 Q1014=
201907081030 METAR LRAR 081030Z 33006KT 250V040 9999 FEW045 24/12 Q1014=
201907081100 METAR LRAR 081100Z 33010KT CAVOK 24/10 Q1014=
201907081130 METAR LRAR 081130Z 33008KT 300V010 CAVOK 24/11 Q1014=
201907081200 METAR LRAR 081200Z 02007KT 350V060 CAVOK 24/12 Q1014=
201907081230 METAR LRAR 081230Z 30009KT 260V340 CAVOK 24/12 Q1014=
201907081300 METAR LRAR 081300Z 29009KT 260V320 CAVOK 25/13 Q1014=
201907081330 METAR LRAR 081330Z 27011KT CAVOK 25/12 Q1014=
201907081400 METAR LRAR 081400Z 30010KT CAVOK 25/11 Q1014=
201907081430 METAR LRAR 081430Z 30008KT 260V330 CAVOK 25/11 Q1014=
201907081500 METAR LRAR 081500Z 28007KT 250V320 CAVOK 25/11 Q1013=
201907081530 METAR LRAR 081530Z 29007KT 250V320 CAVOK 25/12 Q1013=
201907081600 METAR LRAR 081600Z 28007KT 260V320 CAVOK 24/13 Q1013=
201907081630 METAR LRAR 081630Z 31009KT CAVOK 25/12 Q1013=
201907081700 METAR LRAR 081700Z 31007KT CAVOK 23/12 Q1013=
201907081730 METAR LRAR 081730Z 31006KT CAVOK 22/13 Q1013=
201907081800 METAR LRAR 081800Z 29005KT CAVOK 21/14 Q1013=
201907081830 METAR LRAR 081830Z 27003KT CAVOK 20/14 Q1013=
201907081900 METAR LRAR 081900Z 27003KT CAVOK 20/14 Q1014=
201907081930 METAR LRAR 081930Z 28004KT CAVOK 19/14 Q1014=
201907082000 METAR LRAR 082000Z 29003KT CAVOK 19/15 Q1014=
201907082030 METAR LRAR 082030Z 33003KT CAVOK 19/15 Q1014=
201907082100 METAR LRAR 082100Z 33005KT CAVOK 19/14 Q1014=
201907082130 METAR LRAR 082130Z 34005KT CAVOK 19/13 Q1015=
201907082200 METAR LRAR 082200Z 36005KT CAVOK 19/13 Q1014=
201907082230 METAR LRAR 082230Z 36003KT CAVOK 19/13 Q1014=
201907082300 METAR LRAR 082300Z 01003KT 340V050 9999 -SHRA FEW011 SCT045CB
                        18/13 Q1014=
201907082330 METAR LRAR 082330Z 29003KT 9999 FEW045CB 18/15 Q1014=
201907090000 METAR LRAR 090000Z 24002KT 9999 -SHRA FEW013 SCT045CB 17/15
                        Q1014=
201907090030 METAR LRAR 090030Z 18003KT 140V230 9999 FEW012 SCT040CB 17/15
                        Q1014=
201907090100 METAR LRAR 090100Z 13001KT 9999 FEW040CB 17/15 Q1015=
201907090130 METAR LRAR 090130Z 24003KT 9999 FEW038CB 17/16 Q1015=
201907090200 METAR LRAR 090200Z 24002KT 9999 -SHRA SCT008 SCT035CB 17/16
                        Q1015=
201907090230 METAR LRAR 090230Z 23006KT 9999 -SHRA FEW009 SCT035CB 17/15
                        Q1015=
201907090300 METAR LRAR 090300Z 23007KT 9999 -SHRA FEW009 SCT035CB 16/15
                        Q1015=
201907090330 METAR LRAR 090330Z 22006KT 9999 FEW011 SCT035CB 16/14 Q1015
                        R09/19//95=
201907090400 METAR LRAR 090400Z VRB01KT 9999 -SHRA SCT011 FEW035CB 16/14
                        Q1015 R09/19//95=
201907090430 METAR LRAR 090430Z 23003KT 9999 -SHRA SCT013 FEW040CB 16/14
                        Q1015 R09/19//95=
201907090500 METAR LRAR 090500Z 25003KT 9999 SCT014 FEW045CB 16/15 Q1015
                        R09/19//95=
201907090530 METAR LRAR 090530Z 25003KT 220V280 9999 SCT018 FEW055CB 17/14
                        Q1015 R09/19//95=
201907090600 METAR LRAR 090600Z 25005KT 210V270 9999 SCT020 18/13 Q1015
                        R09/19//95=
201907090630 METAR LRAR 090630Z 27005KT 9999 FEW030 19/13 Q1015 R09/CLRD//=
201907090700 METAR LRAR 090700Z 28005KT 250V310 CAVOK 20/13 Q1015=
201907090730 METAR LRAR 090730Z 27005KT 230V330 CAVOK 20/12 Q1015=
201907090800 METAR LRAR 090800Z 23005KT 140V260 CAVOK 21/10 Q1015=
201907090830 METAR LRAR 090830Z 27004KT 210V010 9999 FEW033 22/11 Q1015=
201907090900 METAR LRAR 090900Z VRB03KT 9999 SCT036 22/11 Q1015=
201907090930 METAR LRAR 090930Z VRB03KT 9999 SCT037 23/09 Q1014=
201907091000 METAR LRAR 091000Z 17005KT 110V210 9999 FEW026 BKN037 23/10
                        Q1014=
201907091030 METAR LRAR 091030Z VRB04KT 9999 FEW025 BKN033 23/08 Q1014=
201907091100 METAR LRAR 091100Z 23005KT 150V310 9999 SCT025 BKN034 24/08
                        Q1014=
201907091130 METAR LRAR 091130Z 21006KT 150V250 9999 FEW025 BKN035 24/08
                        Q1014=
201907091200 METAR LRAR 091200Z 23007KT 190V270 9999 SCT026 BKN037 24/08
                        Q1014=
201907091230 METAR LRAR 091230Z 24006KT 200V280 9999 SCT028 BKN039 25/10
                        Q1013=
201907091300 METAR LRAR 091300Z 23007KT 190V270 9999 SCT028 BKN040 25/10
                        Q1013=
201907091330 METAR LRAR 091330Z 24009KT 200V260 9999 SCT034 FEW040CB 25/09
                        Q1013=
201907091400 METAR LRAR 091400Z 23007KT 200V260 9999 SCT035 SCT040CB 24/11
                        Q1013=
201907091430 METAR LRAR 091430Z 03011KT 360V060 6000 TSRA SCT013 SCT044CB
                        21/14 Q1013=
201907091500 METAR LRAR 091500Z 06011KT 030V090 9999 TS FEW004 SCT020
                        FEW046CB 18/17 Q1013 RESHRA R09/19//95=
201907091530 METAR LRAR 091530Z 09007KT 9999 TS FEW007 SCT030 FEW053CB
                        19/16 Q1013 RESHRA R09/19//95=
201907091600 METAR LRAR 091600Z 10007KT 9999 FEW040 SCT050CB 20/16 Q1012
                        R09/19//95=
201907091630 METAR LRAR 091630Z 13005KT 9999 FEW050CB 21/15 Q1012 RETS
                        R09/19//95=
201907091700 METAR LRAR 091700Z 18003KT 150V220 9999 FEW050CB 21/16 Q1012
                        R09/19//95=
201907091730 METAR LRAR 091730Z 16002KT 9999 FEW055CB 21/16 Q1012 R09/19//95=
201907091800 METAR LRAR 091800Z 00000KT 9999 FEW055CB 20/16 Q1012 R09/19//95=
201907091830 METAR LRAR 091830Z VRB01KT CAVOK 19/17 Q1012 R09/CLRD//=
201907091900 METAR LRAR 091900Z 22002KT CAVOK 18/17 Q1013=
201907091930 METAR LRAR 091930Z 23004KT CAVOK 18/16 Q1013=
201907092000 METAR LRAR 092000Z 23003KT CAVOK 18/16 Q1013=
201907092030 METAR LRAR 092030Z 27003KT CAVOK 17/16 Q1013=
201907092100 METAR LRAR 092100Z 27006KT CAVOK 15/15 Q1013=
201907092130 METAR LRAR 092130Z 29006KT CAVOK 14/14 Q1013=
201907092200 METAR LRAR 092200Z 27005KT CAVOK 14/13 Q1013=
201907092230 METAR LRAR 092230Z 28006KT CAVOK 14/13 Q1013=
201907092300 METAR LRAR 092300Z 28006KT CAVOK 13/12 Q1013=
201907092330 METAR LRAR 092330Z 28005KT CAVOK 13/12 Q1013=
201907100000 METAR LRAR 100000Z 27006KT CAVOK 13/12 Q1013=
201907100030 METAR LRAR 100030Z 27004KT CAVOK 12/12 Q1013=
201907100100 METAR LRAR 100100Z 28005KT CAVOK 12/11 Q1013=
201907100130 METAR LRAR 100130Z 27004KT CAVOK 13/11 Q1013=
201907100200 METAR LRAR 100200Z 26004KT CAVOK 12/11 Q1013=
201907100230 METAR LRAR 100230Z 30005KT CAVOK 11/10 Q1013=
201907100300 METAR LRAR 100300Z 30004KT CAVOK 11/10 Q1013=
201907100330 METAR LRAR 100330Z 30003KT CAVOK 11/10 Q1013=
201907100400 METAR LRAR 100400Z 05003KT 360V070 CAVOK 12/11 Q1013=
201907100430 METAR COR LRAR 100430Z VRB02KT CAVOK 14/12 Q1013=
201907100500 METAR LRAR 100500Z 02004KT 340V070 CAVOK 14/12 Q1013=
201907100530 METAR LRAR 100530Z 04005KT 330V090 CAVOK 15/13 Q1013=
201907100600 METAR COR LRAR 100600Z 03005KT 340V070 CAVOK 16/14 Q1013=
201907100630 METAR LRAR 100630Z 02006KT 350V060 CAVOK 17/13 Q1013=
201907100700 METAR LRAR 100700Z 02006KT 350V060 CAVOK 18/12 Q1013=
201907100730 METAR LRAR 100730Z 02006KT 340V060 CAVOK 19/13 Q1013=
201907100800 METAR LRAR 100800Z 36005KT 310V040 CAVOK 20/12 Q1013=
201907100830 METAR LRAR 100830Z 03006KT 350V070 CAVOK 20/12 Q1013=
201907100900 METAR LRAR 100900Z 32003KT 270V040 CAVOK 20/13 Q1013=
201907100930 METAR LRAR 100930Z 32005KT 270V010 CAVOK 21/10 Q1013=
201907101000 METAR LRAR 101000Z 32007KT 300V360 9999 FEW040 21/10 Q1013=
201907101030 METAR LRAR 101030Z 32008KT 9999 FEW042 20/09 Q1013=
201907101100 METAR LRAR 101100Z 35006KT 320V020 9999 FEW045 20/08 Q1013=
201907101130 METAR LRAR 101130Z 33006KT CAVOK 20/06 Q1013=
201907101200 METAR LRAR 101200Z 32007KT 290V350 CAVOK 21/07 Q1013=
201907101230 METAR LRAR 101230Z 32007KT 290V010 CAVOK 21/09 Q1013=
201907101300 METAR LRAR 101300Z 36007KT 300V040 CAVOK 22/06 Q1013=
201907101330 METAR LRAR 101330Z 31008KT 270V350 CAVOK 22/06 Q1012=
201907101400 METAR LRAR 101400Z 29007KT 9999 FEW040 22/07 Q1012=
201907101430 METAR LRAR 101430Z 33007KT 9999 FEW045 21/08 Q1013=
201907101500 METAR LRAR 101500Z 35008KT 9999 FEW045 21/08 Q1012=
201907101530 METAR LRAR 101530Z 01006KT 330V060 CAVOK 22/08 Q1012=
201907101600 METAR LRAR 101600Z 33007KT 300V360 9999 FEW025 SCT046 22/07
                        Q1012=
201907101630 METAR LRAR 101630Z 32007KT 290V350 9999 FEW030 FEW048 22/06
                        Q1012=
201907101700 METAR LRAR 101700Z 31007KT CAVOK 21/08 Q1012=
201907101730 METAR LRAR 101730Z 31005KT CAVOK 20/09 Q1012=
201907101800 METAR LRAR 101800Z 30004KT CAVOK 18/10 Q1012=
201907101830 METAR LRAR 101830Z 26003KT CAVOK 17/12 Q1012=
201907101900 METAR LRAR 101900Z VRB01KT CAVOK 15/11 Q1012=
201907101930 METAR LRAR 101930Z VRB02KT CAVOK 15/11 Q1013=
201907102000 METAR LRAR 102000Z 00000KT CAVOK 14/11 Q1013=
201907102030 METAR LRAR 102030Z VRB02KT CAVOK 13/11 Q1013=
201907102100 METAR LRAR 102100Z 25003KT CAVOK 13/11 Q1013=
201907102130 METAR LRAR 102130Z VRB01KT CAVOK 12/11 Q1013=
201907102200 METAR LRAR 102200Z VRB01KT CAVOK 12/11 Q1013=
201907102230 METAR LRAR 102230Z 19003KT CAVOK 12/12 Q1013=
201907102300 METAR LRAR 102300Z 17003KT CAVOK 13/11 Q1013=
201907102330 METAR LRAR 102330Z VRB03KT CAVOK 12/11 Q1013=
201907110000 METAR LRAR 110000Z VRB03KT CAVOK 12/10 Q1013=
201907110030 METAR LRAR 110030Z VRB02KT CAVOK 12/10 Q1013=
201907110100 METAR LRAR 110100Z VRB02KT CAVOK 11/10 Q1012=
201907110130 METAR LRAR 110130Z VRB02KT CAVOK 11/10 Q1012=
201907110200 METAR LRAR 110200Z VRB02KT CAVOK 11/10 Q1012=
201907110230 METAR LRAR 110230Z 15005KT CAVOK 10/09 Q1012=
201907110300 METAR LRAR 110300Z 15003KT CAVOK 10/09 Q1013=
201907110330 METAR LRAR 110330Z VRB02KT CAVOK 10/09 Q1013=
201907110400 METAR LRAR 110400Z 19003KT CAVOK 11/10 Q1013=
201907110430 METAR LRAR 110430Z 22003KT CAVOK 12/11 Q1013=
201907110500 METAR LRAR 110500Z 21004KT CAVOK 13/11 Q1013=
201907110530 METAR LRAR 110530Z 19003KT 150V230 CAVOK 14/11 Q1012=
201907110600 METAR LRAR 110600Z 21004KT 140V260 CAVOK 16/11 Q1012=
201907110630 METAR LRAR 110630Z 19005KT CAVOK 17/11 Q1013=
201907110700 METAR LRAR 110700Z 20005KT 170V240 CAVOK 17/11 Q1013=
201907110730 METAR LRAR 110730Z 22006KT 180V260 CAVOK 19/12 Q1012=
201907110800 METAR LRAR 110800Z 23008KT 190V270 CAVOK 20/12 Q1012=
201907110830 METAR LRAR 110830Z 27008KT 230V310 CAVOK 20/13 Q1013=
201907110900 METAR LRAR 110900Z 28009KT 240V300 CAVOK 21/12 Q1013=
201907110930 METAR LRAR 110930Z 31009KT 9999 FEW048 21/12 Q1012=
201907111000 METAR LRAR 111000Z 31012KT CAVOK 22/10 Q1012=
201907111030 METAR LRAR 111030Z 31010KT 270V340 CAVOK 22/11 Q1012=
201907111100 METAR LRAR 111100Z 33008KT 300V020 CAVOK 23/10 Q1012=
201907111130 METAR LRAR 111130Z 32011KT CAVOK 23/09 Q1012=
201907111200 METAR LRAR 111200Z 32010KT 290V350 CAVOK 24/10 Q1012=
201907111230 METAR LRAR 111230Z 29009KT CAVOK 24/10 Q1011=
201907111300 METAR LRAR 111300Z 30010KT CAVOK 24/09 Q1011=
201907111330 METAR LRAR 111330Z 33005KT 280V010 CAVOK 23/10 Q1011=
201907111400 METAR LRAR 111400Z 27004KT 210V310 CAVOK 23/10 Q1011=
201907111430 METAR LRAR 111430Z 27006KT CAVOK 24/10 Q1011=
201907111500 METAR LRAR 111500Z 28010KT 250V310 9999 FEW050CB 23/09 Q1010=
201907111530 METAR LRAR 111530Z 28009KT 9999 SCT050CB 22/08 Q1010=
201907111600 METAR LRAR 111600Z 02011KT 9999 -SHRA SCT040CB 22/10 Q1011=
201907111630 METAR LRAR 111630Z 04014KT 010V070 9999 FEW045CB 18/13 Q1012=
201907111700 METAR LRAR 111700Z 06012KT 030V090 9999 FEW050CB 17/12 Q1012=
201907111730 METAR LRAR 111730Z 07009KT 9999 FEW050CB 17/12 Q1012=
201907111800 METAR LRAR 111800Z 07006KT 9999 FEW045CB 16/12 Q1012=
201907111830 METAR LRAR 111830Z 07005KT 030V100 9999 FEW050CB 16/12 Q1012=
201907111900 METAR LRAR 111900Z 06002KT 9999 FEW050CB 16/12 Q1012=
201907111930 METAR LRAR 111930Z VRB01KT 9999 FEW055CB 16/12 Q1012=
201907112000 METAR LRAR 112000Z VRB02KT CAVOK 15/12 Q1012=
201907112030 METAR LRAR 112030Z 31004KT CAVOK 13/12 Q1013=
201907112100 METAR LRAR 112100Z 28003KT 260V330 CAVOK 13/12 Q1013=
201907112130 METAR LRAR 112130Z 01005KT CAVOK 13/12 Q1013=
201907112200 METAR LRAR 112200Z VRB01KT CAVOK 12/12 Q1013=
201907112230 METAR LRAR 112230Z 02003KT CAVOK 12/12 Q1013=
201907112300 METAR LRAR 112300Z 32002KT CAVOK 12/12 Q1013=
201907112330 METAR LRAR 112330Z 00000KT CAVOK 12/12 Q1013=
201907120000 METAR LRAR 120000Z 21002KT CAVOK 11/11 Q1013=
201907120030 METAR LRAR 120030Z 27002KT CAVOK 10/10 Q1013=
201907120100 METAR LRAR 120100Z 00000KT 9999 MIFG NSC 10/10 Q1013=
201907120130 METAR LRAR 120130Z 32003KT 9999 MIFG NSC 09/09 Q1013=
201907120200 METAR LRAR 120200Z VRB01KT 9999 MIFG NSC 09/09 Q1013=
201907120230 METAR LRAR 120230Z VRB01KT 9999 MIFG NSC 10/10 Q1013=
201907120300 METAR LRAR 120300Z 00000KT 1400 0800N R09/1400 BCFG NSC 09/09
                        Q1013=
201907120330 METAR LRAR 120330Z 28004KT 0300 R09/0400 R27/0500N FG NSC
                        08/08 Q1013=
201907120400 METAR LRAR 120400Z 00000KT 0500 R09/0700 R27/1300U FG NSC
                        09/09 Q1013=
201907120430 METAR LRAR 120430Z VRB01KT 9999 MIFG NSC 12/12 Q1014=
201907120500 METAR LRAR 120500Z VRB01KT CAVOK 15/15 Q1014=
201907120530 METAR LRAR 120530Z 07003KT 030V130 CAVOK 16/14 Q1014=
201907120600 METAR LRAR 120600Z 08004KT 050V120 CAVOK 17/12 Q1014=
201907120630 METAR LRAR 120630Z 08004KT 020V120 CAVOK 18/12 Q1014=
201907120700 METAR LRAR 120700Z 09003KT 030V140 CAVOK 19/11 Q1014=
201907120730 METAR LRAR 120730Z 07003KT 360V170 CAVOK 20/11 Q1014=
201907120800 METAR LRAR 120800Z VRB03KT CAVOK 20/10 Q1014=
201907120830 METAR LRAR 120830Z VRB04KT CAVOK 21/08 Q1014=
201907120900 METAR LRAR 120900Z VRB04KT 9999 FEW038 21/09 Q1014=
201907120930 METAR LRAR 120930Z VRB03KT 9999 FEW040 22/09 Q1014=
201907121000 METAR LRAR 121000Z VRB04KT 9999 FEW043 22/11 Q1014=
201907121030 METAR LRAR 121030Z 02005KT 320V080 9999 SCT043 23/11 Q1013=
201907121100 METAR LRAR 121100Z VRB04KT 9999 FEW045 23/08 Q1013=
201907121130 METAR LRAR 121130Z VRB05KT 9999 FEW048 23/10 Q1013=
201907121200 METAR LRAR 121200Z 04005KT 350V120 CAVOK 23/09 Q1013=
201907121230 METAR LRAR 121230Z 32005KT 280V350 CAVOK 24/10 Q1013=
201907121300 METAR LRAR 121300Z VRB04KT CAVOK 24/09 Q1013=
201907121330 METAR LRAR 121330Z VRB04KT CAVOK 24/11 Q1012=
201907121400 METAR LRAR 121400Z VRB02KT 9999 FEW055CB 24/10 Q1012=
201907121430 METAR LRAR 121430Z VRB01KT 9999 FEW053CB 23/10 Q1012=
201907121500 METAR LRAR 121500Z VRB02KT 9999 FEW053CB 23/10 Q1012=
201907121530 METAR LRAR 121530Z VRB02KT 9999 SCT050CB 23/08 Q1012=
201907121600 METAR LRAR 121600Z 27010KT 240V300 9999 SCT050CB 21/13 Q1012=
201907121630 METAR LRAR 121630Z 27009KT 9999 SCT050CB 20/13 Q1012=
201907121700 METAR LRAR 121700Z 28008KT 9999 FEW050CB 19/13 Q1012=
201907121730 METAR LRAR 121730Z 27007KT 9999 FEW050CB 19/13 Q1012=
201907121800 METAR LRAR 121800Z 26005KT 9999 FEW050CB 19/13 Q1012=
201907121830 METAR LRAR 121830Z 26003KT 9999 FEW050CB 19/13 Q1012=
201907121900 METAR LRAR 121900Z 20003KT 9999 FEW050CB 19/13 Q1012=
201907121930 METAR LRAR 121930Z 15004KT 9999 FEW050CB 18/13 Q1012=
201907122000 METAR LRAR 122000Z 19002KT 9999 FEW050CB 18/14 Q1012=
201907122030 METAR LRAR 122030Z 17002KT 9999 FEW050CB 18/14 Q1012=
201907122100 METAR LRAR 122100Z 23002KT CAVOK 18/14 Q1012=
201907122130 METAR LRAR 122130Z 00000KT CAVOK 18/14 Q1012=
201907122200 METAR LRAR 122200Z 00000KT CAVOK 17/15 Q1012=
201907122230 METAR LRAR 122230Z 00000KT CAVOK 17/15 Q1012=
201907122300 METAR LRAR 122300Z 20001KT CAVOK 17/15 Q1012=
201907122330 METAR LRAR 122330Z 16002KT CAVOK 17/15 Q1012=
201907130000 METAR LRAR 130000Z 17002KT CAVOK 17/15 Q1012=
201907130030 METAR LRAR 130030Z 18003KT CAVOK 17/14 Q1012=
201907130100 METAR LRAR 130100Z 18002KT CAVOK 17/14 Q1011=
201907130130 METAR LRAR 130130Z 17003KT CAVOK 17/14 Q1011=
201907130200 METAR LRAR 130200Z 15003KT CAVOK 17/14 Q1011=
201907130230 METAR LRAR 130230Z 14003KT CAVOK 16/14 Q1011=
201907130300 METAR LRAR 130300Z 15003KT CAVOK 16/14 Q1011=
201907130330 METAR LRAR 130330Z 15004KT 9999 FEW040CB 16/14 Q1011=
201907130400 METAR LRAR 130400Z 13004KT 9999 FEW050CB 17/15 Q1011=
201907130430 METAR COR LRAR 130430Z 35003KT 330V030 9999 -SHRA FEW011
                        SCT037 FEW046CB 17/16 Q1011=
201907130500 METAR COR LRAR 130500Z 03003KT 350V060 9999 -SHRA FEW009
                        SCT038 FEW048CB 16/16 Q1012 R09/19//95=
201907130530 METAR LRAR 130530Z 04005KT 010V080 5000 SHRA BR SCT010 SCT040CB
                        15/15 Q1012 R09/29//95=
201907130600 METAR LRAR 130600Z 08004KT 030V130 6000 SHRA FEW008 SCT018
                        SCT045CB 16/16 Q1012 R09/29//95=
201907130630 METAR LRAR 130630Z 14006KT 9999 SCT009 SCT024 FEW046CB 16/16
                        Q1011 RESHRA R09/29//95=
201907130700 METAR LRAR 130700Z 13008KT 9999 SCT015 FEW050CB 17/16 Q1011
                        RESHRA R09/29//95=
201907130730 METAR LRAR 130730Z 13008KT 9999 SCT017 18/16 Q1011 R09/29//95=
201907130800 METAR LRAR 130800Z 13009KT 9999 SCT018 18/16 Q1011 R09/29//95=
201907130830 METAR LRAR 130830Z 13009KT 9999 SCT018 18/15 Q1011 R09/29//95=
201907130900 METAR LRAR 130900Z 14007KT 9999 FEW007 SCT014 19/16 Q1011
                        R09/29//95=
201907130930 METAR LRAR 130930Z 14008KT 9999 FEW012 SCT014 20/15 Q1011
                        R09/29//95=
201907131000 METAR LRAR 131000Z 15009KT 9999 FEW013 SCT020 21/15 Q1011
                        R09/29//95=
201907131030 METAR LRAR 131030Z 15008KT 9999 SCT026 21/14 Q1010 R09/29//95=
201907131100 METAR COR LRAR 131100Z 19007KT 150V230 9999 SCT028 22/14
                        Q1010 R09/29//95=
201907131130 METAR LRAR 131130Z 18007KT 140V220 9999 BKN028 23/13 Q1010
                        R09/29//95=
201907131200 METAR LRAR 131200Z 20009KT 170V230 9999 BKN028 23/12 Q1009
                        R09/29//95=
201907131230 METAR LRAR 131230Z 22009KT 9999 BKN028 24/14 Q1009 R09/29//95=
201907131300 METAR LRAR 131300Z 22008KT 190V250 9999 TS FEW020 BKN028
                        FEW033CB 24/14 Q1009 R09/29//95=
201907131330 METAR LRAR 131330Z 23008KT 9999 TS SCT015 BKN033 FEW040CB
                        23/14 Q1009 R09/29//95=
201907131400 METAR LRAR 131400Z 32016KT 9999 TS SCT010 BKN034 SCT040CB
                        17/14 Q1010 R09/29//95=
201907131430 METAR LRAR 131430Z 34006KT 9999 -TSRA SCT011 SCT045CB 17/14
                        Q1010 R09/CLRD//=
201907131500 METAR LRAR 131500Z 36006KT 330V030 9999 -SHRA SCT011 FEW046CB
                        16/15 Q1010 RETS=
201907131530 METAR LRAR 131530Z 03006KT 340V060 9999 FEW012 FEW050CB 17/16
                        Q1010 RETSRA=
201907131600 METAR LRAR 131600Z 03005KT 350V080 9999 SCT050CB 18/16 Q1010=
201907131630 METAR LRAR 131630Z 08005KT 9999 SCT050CB 18/15 Q1009=
201907131700 METAR LRAR 131700Z 09006KT 9999 FEW055CB 17/16 Q1009=
201907131730 METAR LRAR 131730Z 09005KT 9999 FEW055CB 17/15 Q1009=
201907131800 METAR LRAR 131800Z 08003KT 9999 FEW055CB 16/15 Q1009=
201907131830 METAR LRAR 131830Z 02003KT 9999 FEW060CB 16/15 Q1009=
201907131900 METAR LRAR 131900Z 06002KT 9999 FEW060CB 15/15 Q1009=
201907131930 METAR LRAR 131930Z VRB01KT 9999 FEW060CB 15/15 Q1010=
201907132000 METAR LRAR 132000Z 19002KT 9999 FEW060CB 16/15 Q1010=
201907132030 METAR LRAR 132030Z 18002KT CAVOK 16/15 Q1010=
201907132100 METAR LRAR 132100Z 19002KT CAVOK 16/15 Q1010=
201907132130 METAR LRAR 132130Z 15002KT CAVOK 16/15 Q1010=
201907132200 METAR LRAR 132200Z 20002KT CAVOK 16/15 Q1010=
201907132230 METAR LRAR 132230Z 19002KT CAVOK 16/15 Q1010=
201907132300 METAR LRAR 132300Z VRB01KT CAVOK 16/15 Q1009=
201907132330 METAR LRAR 132330Z VRB02KT CAVOK 16/15 Q1009=
201907140000 METAR LRAR 140000Z 17003KT 130V200 CAVOK 15/15 Q1009=
201907140030 METAR LRAR 140030Z VRB02KT CAVOK 15/15 Q1009=
201907140100 METAR LRAR 140100Z VRB02KT CAVOK 15/15 Q1009=
201907140130 METAR LRAR 140130Z VRB01KT 8000 FEW043 14/14 Q1009=
201907140200 METAR LRAR 140200Z 16003KT 8000 SCT042 14/14 Q1008=
201907140230 METAR LRAR 140230Z 18003KT 9000 FEW045 14/14 Q1008=
201907140300 METAR LRAR 140300Z VRB01KT 8000 SCT041 14/14 Q1009=
201907140330 METAR LRAR 140330Z VRB02KT 8000 SCT042 14/14 Q1008=
201907140400 METAR LRAR 140400Z VRB01KT 9999 SCT043 14/14 Q1009=
201907140430 METAR LRAR 140430Z 13003KT 9999 FEW045 15/15 Q1009=
201907140500 METAR LRAR 140500Z 14004KT 9999 FEW048 15/15 Q1009=
201907140530 METAR LRAR 140530Z 16004KT 8000 SCT003 15/15 Q1009=
201907140600 METAR LRAR 140600Z VRB02KT 5000 BR BKN003 16/16 Q1009=
201907140630 METAR LRAR 140630Z VRB02KT 7000 BKN002 OVC004 16/16 Q1009=
201907140700 METAR LRAR 140700Z 18003KT 140V220 9000 BKN005 17/16 Q1009=
201907140730 METAR LRAR 140730Z 15004KT 120V190 9999 BKN006 BKN008 18/17
                        Q1009=
201907140800 METAR LRAR 140800Z 18003KT 130V280 9999 SCT008 SCT010 19/17
                        Q1009=
201907140830 METAR LRAR 140830Z VRB02KT 9999 FEW014 SCT019 20/16 Q1009=
201907140900 METAR LRAR 140900Z VRB03KT 9999 FEW015 SCT020 20/16 Q1009=
201907140930 METAR LRAR 140930Z VRB03KT 9999 BKN030 21/16 Q1009=
201907141000 METAR LRAR 141000Z VRB04KT 9999 SCT030 SCT040CB 22/15 Q1009=
201907141030 METAR LRAR 141030Z 28008KT 9999 -TSRA SCT030 BKN035CB 21/17
                        Q1009=
201907141100 METAR LRAR 141100Z 27008KT 9999 -TSRA FEW030 BKN040CB 19/17
                        Q1009=
201907141130 METAR LRAR 141130Z 27007KT 240V320 9999 FEW035 SCT045CB 20/16
                        Q1009 RETS=
201907141200 METAR LRAR 141200Z 25006KT 9999 TS VCSH FEW020 SCT035CB 21/17
                        Q1009=
201907141230 METAR LRAR 141230Z 31006KT 260V360 9999 -TSRA SCT015 SCT035CB
                        17/17 Q1009 RESHRA R09/29//95=
201907141300 METAR LRAR 141300Z 24004KT 9999 SCT030 SCT040CB 21/16 Q1009
                        RETSRA R09/29//95=
201907141330 METAR LRAR 141330Z 25003KT 190V330 9999 SCT045CB 23/17 Q1008
                        RETS R09/29//95=
201907141400 METAR LRAR 141400Z 28005KT 9999 SCT035CB 21/17 Q1008 R09/29//95=
201907141430 METAR LRAR 141430Z 03006KT 350V060 9999 VCTS VCSH FEW015
                        SCT035CB 23/18 Q1008 R09/29//95=
201907141500 METAR LRAR 141500Z 07008KT 030V100 9999 -TSRA FEW010 SCT018
                        BKN040CB 18/16 Q1009 RESHRA R09/29//95=
201907141530 METAR LRAR 141530Z 20004KT 9999 TS FEW015 SCT025 SCT040CB
                        19/19 Q1008 RESHRA R09/29//95=
201907141600 METAR LRAR 141600Z 31002KT 250V010 9999 SCT012 SCT029 FEW050CB
                        20/19 Q1008 RETS R09/29//95=
201907141630 METAR LRAR 141630Z 36005KT 330V030 9999 SCT018 SCT033 FEW055CB
                        20/17 Q1009 RETS R09/29//95=
201907141700 METAR LRAR 141700Z 36005KT 330V030 9999 FEW024 SCT040 FEW060CB
                        20/18 Q1009 R09/29//95=
201907141730 METAR LRAR 141730Z 02006KT 9999 SCT044 FEW060CB 20/17 Q1009
                        R09/29//95=
201907141800 METAR LRAR 141800Z 01005KT 9999 SCT046 19/17 Q1009 R09/29//95=
201907141830 METAR LRAR 141830Z 01004KT 9999 SCT048 18/17 Q1009 R09/29//95=
201907141900 METAR LRAR 141900Z VRB02KT 7000 SCT048 17/17 Q1010 R09/29//95=
201907141930 METAR LRAR 141930Z 27004KT 8000 -RA SCT023 BKN048 16/16 Q1010
                        R09/29//95=
201907142000 METAR LRAR 142000Z 32004KT 9000 -RA FEW010 SCT022 BKN045
                        16/16 Q1010 R09/29//95=
201907142030 METAR LRAR 142030Z 31003KT 9999 -RA FEW011 SCT024 BKN045
                        16/16 Q1010 R09/29//95=
201907142100 METAR LRAR 142100Z 31006KT 9999 -RA FEW015 SCT027 BKN047
                        16/16 Q1010 R09/29//95=
201907142130 METAR LRAR 142130Z 34003KT 320V020 9999 -RA SCT027 BKN047
                        16/16 Q1010 R09/29//95=
201907142200 METAR LRAR 142200Z VRB02KT 9999 SCT029 BKN047 16/16 Q1010
                        R09/29//95=
201907142230 METAR LRAR 142230Z 35003KT 9999 FEW034 BKN047 16/16 Q1010
                        R09/29//95=
201907142300 METAR LRAR 142300Z 27004KT 240V300 9999 BKN047 15/15 Q1010
                        R09/29//95=
201907142330 METAR LRAR 142330Z VRB02KT 9999 SCT048 16/16 Q1010 R09/29//95=
201907150000 METAR LRAR 150000Z 35003KT 9999 SCT048 15/15 Q1010 R09/29//95=
201907150030 METAR LRAR 150030Z 35003KT CAVOK 15/15 Q1010 R09/29//95=
201907150100 METAR LRAR 150100Z 36004KT CAVOK 15/15 Q1010 R09/29//95=
201907150130 METAR LRAR 150130Z VRB02KT CAVOK 15/14 Q1010 R09/29//95=
201907150200 METAR LRAR 150200Z VRB02KT CAVOK 14/14 Q1010 R09/29//95=
201907150230 METAR LRAR 150230Z 32003KT 7000 MIFG NSC 13/13 Q1010 R09/29//95=
201907150300 METAR LRAR 150300Z 30003KT 9000 MIFG NSC 13/13 Q1010 R09/29//95=
201907150330 METAR LRAR 150330Z 32003KT 7000 NSC 12/12 Q1010 R09/29//95=
201907150400 METAR LRAR 150400Z 31002KT CAVOK 12/12 Q1010 R09/29//95=
201907150430 METAR LRAR 150430Z 32003KT CAVOK 14/14 Q1010 R09/29//95=
201907150500 METAR LRAR 150500Z 36005KT 320V040 CAVOK 15/14 Q1010 R09/29//95=
201907150530 METAR LRAR 150530Z 01006KT 340V050 CAVOK 16/15 Q1011 R09/CLRD//=
201907150600 METAR LRAR 150600Z 01005KT 330V070 CAVOK 17/15 Q1011=
201907150630 METAR LRAR 150630Z 35005KT 310V030 CAVOK 18/15 Q1011=
201907150700 METAR LRAR 150700Z VRB03KT CAVOK 19/16 Q1011=
201907150730 METAR LRAR 150730Z 35005KT 320V050 CAVOK 19/15 Q1011=
201907150800 METAR LRAR 150800Z 02007KT CAVOK 20/14 Q1011=
201907150830 METAR LRAR 150830Z 36007KT 320V040 CAVOK 21/14 Q1011=
201907150900 METAR LRAR 150900Z 01008KT 340V070 9999 FEW035 22/14 Q1011=
201907150930 METAR LRAR 150930Z 01008KT 320V040 9999 FEW040 22/13 Q1011=
201907151000 METAR LRAR 151000Z 36008KT 320V050 9999 SCT040 23/14 Q1011=
201907151030 METAR LRAR 151030Z VRB08KT 9999 SCT039 23/14 Q1011=
201907151100 METAR LRAR 151100Z 36008KT 320V040 9999 SCT040 23/13 Q1011=
201907151130 METAR LRAR 151130Z 01007KT 9999 SCT043 24/13 Q1011=
201907151200 METAR LRAR 151200Z 35007KT 310V050 9999 SCT046 23/13 Q1011=
201907151230 METAR LRAR 151230Z 35008KT 300V020 CAVOK 23/12 Q1010=
201907151300 METAR LRAR 151300Z 35008KT 320V040 CAVOK 24/12 Q1010=
201907151330 METAR LRAR 151330Z 02009KT CAVOK 25/11 Q1010=
201907151400 METAR LRAR 151400Z 01010KT CAVOK 23/11 Q1011=
201907151430 METAR LRAR 151430Z 36010KT 320V050 CAVOK 25/10 Q1011=
201907151500 METAR LRAR 151500Z 36009KT 340V040 CAVOK 25/09 Q1011=
201907151530 METAR LRAR 151530Z 03009KT 330V070 CAVOK 25/07 Q1011=
201907151600 METAR LRAR 151600Z 34008KT 320V030 CAVOK 24/07 Q1011=
201907151630 METAR LRAR 151630Z 36008KT CAVOK 24/07 Q1011=
201907151700 METAR LRAR 151700Z 01008KT 340V050 CAVOK 23/07 Q1011=
201907151730 METAR LRAR 151730Z 02007KT CAVOK 22/07 Q1011=
201907151800 METAR LRAR 151800Z 01005KT CAVOK 21/09 Q1011=
201907151830 METAR LRAR 151830Z 02004KT CAVOK 20/10 Q1011=
201907151900 METAR LRAR 151900Z 02004KT CAVOK 19/10 Q1011=
201907151930 METAR LRAR 151930Z VRB01KT CAVOK 16/12 Q1011=
201907152000 METAR LRAR 152000Z 30002KT CAVOK 15/12 Q1011=
201907152030 METAR LRAR 152030Z 27003KT CAVOK 14/12 Q1012=
201907152100 METAR LRAR 152100Z 28004KT CAVOK 13/12 Q1012=
201907152130 METAR LRAR 152130Z 27004KT CAVOK 13/12 Q1012=
201907152200 METAR LRAR 152200Z 27004KT CAVOK 14/12 Q1012=
201907152230 METAR LRAR 152230Z 29001KT CAVOK 13/12 Q1012=
201907152300 METAR LRAR 152300Z 11002KT CAVOK 13/12 Q1012=
201907152330 METAR LRAR 152330Z 00000KT CAVOK 12/12 Q1012=
201907160000 METAR LRAR 160000Z 26003KT CAVOK 12/11 Q1012=
201907160030 METAR LRAR 160030Z 25003KT CAVOK 11/11 Q1012=
201907160100 METAR LRAR 160100Z 27002KT CAVOK 11/11 Q1012=
201907160130 METAR LRAR 160130Z 28002KT CAVOK 10/10 Q1012=
201907160200 METAR LRAR 160200Z 29002KT CAVOK 11/11 Q1012=
201907160230 METAR LRAR 160230Z 30001KT 9999 MIFG NSC 11/11 Q1012=
201907160300 METAR LRAR 160300Z 27001KT 9999 MIFG NSC 11/11 Q1012=
201907160330 METAR LRAR 160330Z 27002KT 9999 MIFG NSC 11/11 Q1012=
201907160400 METAR LRAR 160400Z VRB01KT 9999 MIFG NSC 11/11 Q1012=
201907160430 METAR LRAR 160430Z 00000KT CAVOK 13/12 Q1012=
201907160500 METAR LRAR 160500Z VRB01KT CAVOK 14/13 Q1012=
201907160530 METAR LRAR 160530Z VRB01KT CAVOK 16/13 Q1012=
201907160600 METAR LRAR 160600Z VRB02KT CAVOK 18/14 Q1012=
201907160630 METAR LRAR 160630Z VRB01KT CAVOK 19/13 Q1012=
201907160700 METAR LRAR 160700Z VRB02KT CAVOK 21/13 Q1012=
201907160730 METAR LRAR 160730Z 36005KT 310V040 CAVOK 22/13 Q1012=
201907160800 METAR LRAR 160800Z 01007KT 310V060 9999 FEW040 22/13 Q1012=
201907160830 METAR LRAR 160830Z 03008KT 330V090 9999 FEW040 23/11 Q1012=
201907160900 METAR LRAR 160900Z 36006KT 310V030 9999 FEW040 24/12 Q1012=
201907160930 METAR LRAR 160930Z 03008KT 340V060 9999 SCT043 24/11 Q1012=
201907161000 METAR LRAR 161000Z 01007KT 330V050 9999 SCT043 24/10 Q1012=
201907161030 METAR LRAR 161030Z 35008KT 310V060 9999 SCT045 25/08 Q1012=
201907161100 METAR LRAR 161100Z 36008KT 310V050 9999 BKN048 25/07 Q1012=
201907161130 METAR LRAR 161130Z 36007KT 330V030 CAVOK 25/07 Q1012=
201907161200 METAR LRAR 161200Z 34009KT 310V020 CAVOK 25/07 Q1012=
201907161230 METAR LRAR 161230Z 03007KT 350V060 CAVOK 26/08 Q1012=
201907161300 METAR LRAR 161300Z 35009KT 310V040 CAVOK 26/08 Q1011=
201907161330 METAR LRAR 161330Z 34009KT 290V020 CAVOK 26/09 Q1011=
201907161400 METAR LRAR 161400Z 35008KT CAVOK 26/08 Q1011=
201907161430 METAR LRAR 161430Z 36006KT 310V060 CAVOK 26/08 Q1011=
201907161500 METAR LRAR 161500Z 34008KT 320V040 CAVOK 26/08 Q1011=
201907161530 METAR LRAR 161530Z 36008KT 320V040 CAVOK 26/08 Q1011=
201907161600 METAR LRAR 161600Z 35007KT 320V030 CAVOK 25/07 Q1011=
201907161630 METAR LRAR 161630Z 34007KT 310V010 CAVOK 25/07 Q1011=
201907161700 METAR LRAR 161700Z 34004KT CAVOK 25/09 Q1011=
201907161730 METAR LRAR 161730Z 36003KT CAVOK 24/09 Q1011=
201907161800 METAR LRAR 161800Z 36003KT CAVOK 24/09 Q1011=
201907161830 METAR LRAR 161830Z VRB01KT CAVOK 19/13 Q1011=
201907161900 METAR LRAR 161900Z 19001KT CAVOK 18/12 Q1011=
201907161930 METAR LRAR 161930Z 23002KT CAVOK 17/12 Q1012=
201907162000 METAR LRAR 162000Z 20002KT CAVOK 15/12 Q1012=
201907162030 METAR LRAR 162030Z 20003KT CAVOK 15/13 Q1012=
201907162100 METAR LRAR 162100Z 22002KT 150V280 CAVOK 16/12 Q1012=
201907162130 METAR LRAR 162130Z 17002KT CAVOK 15/13 Q1012=
201907162200 METAR LRAR 162200Z 22002KT 190V250 CAVOK 15/12 Q1012=
201907162230 METAR LRAR 162230Z VRB01KT CAVOK 16/11 Q1012=
201907162300 METAR LRAR 162300Z VRB01KT CAVOK 15/11 Q1012=
201907162330 METAR LRAR 162330Z VRB01KT CAVOK 15/11 Q1012=
201907170000 METAR LRAR 170000Z 20002KT 160V220 CAVOK 15/11 Q1012=
201907170030 METAR LRAR 170030Z 21002KT CAVOK 15/11 Q1012=
201907170100 METAR LRAR 170100Z 23002KT CAVOK 15/10 Q1012=
201907170130 METAR LRAR 170130Z 19003KT CAVOK 14/11 Q1011=
201907170200 METAR LRAR 170200Z 16003KT CAVOK 13/10 Q1011=
201907170230 METAR LRAR 170230Z 16002KT 090V230 CAVOK 13/10 Q1011=
201907170300 METAR LRAR 170300Z 18004KT 130V220 CAVOK 14/10 Q1011=
201907170330 METAR LRAR 170330Z 17003KT 130V190 CAVOK 14/10 Q1011=
201907170400 METAR LRAR 170400Z 22004KT CAVOK 14/11 Q1011=
201907170430 METAR LRAR 170430Z 22003KT CAVOK 15/12 Q1011=
201907170500 METAR LRAR 170500Z 24005KT CAVOK 17/12 Q1011=
201907170530 METAR LRAR 170530Z 28006KT CAVOK 18/13 Q1011=
201907170600 METAR LRAR 170600Z 27006KT CAVOK 18/13 Q1011=
201907170630 METAR LRAR 170630Z 28007KT CAVOK 19/13 Q1011=
201907170700 METAR LRAR 170700Z 28007KT 250V310 CAVOK 20/13 Q1011=
201907170730 METAR LRAR 170730Z 32009KT CAVOK 21/13 Q1012=
201907170800 METAR LRAR 170800Z 32008KT 280V360 CAVOK 21/13 Q1012=
201907170830 METAR LRAR 170830Z 32008KT 280V350 CAVOK 22/13 Q1012=
201907170900 METAR LRAR 170900Z 31008KT 260V350 CAVOK 23/12 Q1012=
201907170930 METAR LRAR 170930Z VRB05KT CAVOK 24/12 Q1012=
201907171000 METAR LRAR 171000Z 32008KT 300V020 CAVOK 24/12 Q1012=
201907171030 METAR LRAR 171030Z 31008KT 270V360 CAVOK 24/11 Q1011=
201907171100 METAR LRAR 171100Z 31007KT 270V350 CAVOK 24/11 Q1011=
201907171130 METAR LRAR 171130Z 34007KT 300V020 9999 FEW045 25/11 Q1011=
201907171200 METAR LRAR 171200Z 31008KT 270V340 9999 SCT045 25/11 Q1011=
201907171230 METAR LRAR 171230Z 34007KT 320V020 9999 SCT045 25/11 Q1011=
201907171300 METAR LRAR 171300Z 31007KT 260V360 9999 SCT048 25/12 Q1011=
201907171330 METAR LRAR 171330Z 33006KT 280V020 9999 SCT048 25/12 Q1011=
201907171400 METAR LRAR 171400Z 33009KT 300V360 9999 SCT048 25/11 Q1011=
201907171430 METAR LRAR 171430Z 33007KT 290V010 CAVOK 26/11 Q1011=
201907171500 METAR LRAR 171500Z 33005KT 290V360 CAVOK 26/11 Q1011=
201907171530 METAR LRAR 171530Z 32006KT 280V080 CAVOK 25/10 Q1011=
201907171600 METAR LRAR 171600Z 32004KT 260V020 CAVOK 26/10 Q1011=
201907171630 METAR LRAR 171630Z 35004KT 310V040 CAVOK 25/11 Q1011=
201907171700 METAR LRAR 171700Z 05004KT 350V080 CAVOK 24/12 Q1011=
201907171730 METAR LRAR 171730Z 01004KT 340V040 CAVOK 24/11 Q1011=
201907171800 METAR LRAR 171800Z 05004KT CAVOK 22/12 Q1011=
201907171830 METAR LRAR 171830Z 07004KT CAVOK 22/11 Q1011=
201907171900 METAR LRAR 171900Z VRB01KT CAVOK 19/14 Q1011=
201907171930 METAR LRAR 171930Z 12002KT CAVOK 18/13 Q1011=
201907172000 METAR LRAR 172000Z 13002KT CAVOK 18/13 Q1011=
201907172030 METAR LRAR 172030Z 15002KT CAVOK 16/13 Q1011=
201907172100 METAR LRAR 172100Z 15003KT CAVOK 17/13 Q1011=
201907172130 METAR LRAR 172130Z 15004KT CAVOK 17/13 Q1011=
201907172200 METAR LRAR 172200Z 15004KT CAVOK 17/13 Q1012=
201907172230 METAR LRAR 172230Z 14004KT CAVOK 17/13 Q1012=
201907172300 METAR LRAR 172300Z 14004KT CAVOK 16/13 Q1011=
201907172330 METAR LRAR 172330Z 16003KT CAVOK 15/13 Q1011=
201907180000 METAR LRAR 180000Z 15003KT CAVOK 15/12 Q1012=
201907180030 METAR LRAR 180030Z 14004KT CAVOK 15/13 Q1012=
201907180100 METAR LRAR 180100Z 13005KT CAVOK 15/13 Q1012=
201907180130 METAR LRAR 180130Z 15004KT CAVOK 15/12 Q1012=
201907180200 METAR LRAR 180200Z 16003KT CAVOK 14/12 Q1011=
201907180230 METAR LRAR 180230Z 15003KT CAVOK 14/12 Q1011=
201907180300 METAR LRAR 180300Z 14004KT CAVOK 14/12 Q1012=
201907180330 METAR LRAR 180330Z 15004KT CAVOK 14/12 Q1012=
201907180400 METAR LRAR 180400Z 14004KT CAVOK 15/13 Q1012=
201907180430 METAR LRAR 180430Z 14004KT CAVOK 16/13 Q1012=
201907180500 METAR LRAR 180500Z 13004KT CAVOK 18/14 Q1012=
201907180530 METAR LRAR 180530Z 15004KT CAVOK 19/14 Q1012=
201907180600 METAR LRAR 180600Z 15005KT CAVOK 20/15 Q1012=
201907180630 METAR LRAR 180630Z 16005KT 120V190 CAVOK 22/14 Q1012=
201907180700 METAR LRAR 180700Z 18004KT 140V210 CAVOK 23/14 Q1012=
201907180730 METAR LRAR 180730Z 20005KT 160V250 CAVOK 24/13 Q1012=
201907180800 METAR LRAR 180800Z 14005KT 110V250 CAVOK 24/13 Q1012=
201907180830 METAR LRAR 180830Z 16005KT 110V210 CAVOK 25/13 Q1013=
201907180900 METAR LRAR 180900Z 22004KT 130V270 CAVOK 25/11 Q1013=
201907180930 METAR LRAR 180930Z 26004KT 220V290 CAVOK 25/11 Q1013=
201907181000 METAR LRAR 181000Z VRB04KT CAVOK 26/11 Q1013=
201907181030 METAR LRAR 181030Z VRB03KT CAVOK 26/11 Q1013=
201907181100 METAR LRAR 181100Z 28004KT CAVOK 25/12 Q1013=
201907181130 METAR LRAR 181130Z VRB03KT CAVOK 26/11 Q1013=
201907181200 METAR LRAR 181200Z VRB06KT CAVOK 27/11 Q1013=
201907181230 METAR LRAR 181230Z VRB02KT CAVOK 28/10 Q1013=
201907181300 METAR LRAR 181300Z 30006KT 250V340 CAVOK 27/11 Q1013=
201907181330 METAR LRAR 181330Z 29005KT 250V330 CAVOK 28/10 Q1013=
201907181400 METAR LRAR 181400Z 33003KT 280V020 CAVOK 27/11 Q1013=
201907181430 METAR LRAR 181430Z 33005KT CAVOK 27/11 Q1013=
201907181500 METAR LRAR 181500Z 34005KT 320V020 CAVOK 27/12 Q1013=
201907181530 METAR LRAR 181530Z 33010KT 300V360 CAVOK 25/11 Q1013=
201907181600 METAR COR LRAR 181600Z 36010KT 330V030 CAVOK 23/13 Q1013=
201907181630 METAR LRAR 181630Z 01009KT CAVOK 23/13 Q1013=
201907181700 METAR LRAR 181700Z 04008KT 360V060 CAVOK 22/14 Q1013=
201907181730 METAR LRAR 181730Z 04006KT CAVOK 22/14 Q1013=
201907181800 METAR LRAR 181800Z 09005KT CAVOK 22/14 Q1013=
201907181830 METAR LRAR 181830Z 09004KT CAVOK 22/14 Q1013=
201907181900 METAR LRAR 181900Z 07004KT CAVOK 21/13 Q1014=
201907181930 METAR LRAR 181930Z VRB02KT CAVOK 20/15 Q1014=
201907182000 METAR LRAR 182000Z 36004KT CAVOK 20/16 Q1014=
201907182030 METAR LRAR 182030Z 36003KT CAVOK 20/16 Q1014=
201907182100 METAR LRAR 182100Z 03003KT CAVOK 19/16 Q1014=
201907182130 METAR LRAR 182130Z 04004KT CAVOK 19/15 Q1015=
201907182200 METAR LRAR 182200Z 07005KT CAVOK 19/14 Q1015=
201907182230 METAR LRAR 182230Z 10003KT CAVOK 19/14 Q1015=
201907182300 METAR LRAR 182300Z VRB02KT CAVOK 17/14 Q1015=
201907182330 METAR LRAR 182330Z 28003KT CAVOK 16/15 Q1015=
201907190000 METAR LRAR 190000Z VRB01KT CAVOK 17/16 Q1015=
201907190030 METAR LRAR 190030Z VRB02KT CAVOK 16/16 Q1015=
201907190100 METAR LRAR 190100Z VRB02KT CAVOK 17/16 Q1015=
201907190130 METAR LRAR 190130Z 28002KT CAVOK 17/16 Q1015=
201907190200 METAR LRAR 190200Z 33004KT CAVOK 16/16 Q1015=
201907190230 METAR LRAR 190230Z 32004KT CAVOK 15/15 Q1015=
201907190300 METAR LRAR 190300Z 29003KT 250V350 CAVOK 15/15 Q1016=
201907190330 METAR LRAR 190330Z 00000KT CAVOK 15/15 Q1016=
201907190400 METAR LRAR 190400Z 05002KT CAVOK 15/15 Q1016=
201907190430 METAR LRAR 190430Z VRB01KT CAVOK 17/17 Q1016=
201907190500 METAR LRAR 190500Z 00000KT CAVOK 18/17 Q1016=
201907190530 METAR LRAR 190530Z VRB01KT CAVOK 20/17 Q1016=
201907190600 METAR LRAR 190600Z 09003KT 050V120 CAVOK 22/15 Q1016=
201907190630 METAR LRAR 190630Z 07004KT 030V110 CAVOK 23/14 Q1016=
201907190700 METAR LRAR 190700Z 08004KT CAVOK 24/13 Q1016=
201907190730 METAR LRAR 190730Z 06003KT 030V100 CAVOK 25/13 Q1016=
201907190800 METAR LRAR 190800Z 07004KT 020V140 CAVOK 26/13 Q1016=
201907190830 METAR LRAR 190830Z VRB04KT CAVOK 26/14 Q1017=
201907190900 METAR LRAR NIL=
201907190930 METAR LRAR 190930Z VRB02KT CAVOK 27/14 Q1017=
201907191000 METAR LRAR 191000Z 25005KT 210V290 CAVOK 27/13 Q1017=
201907191030 METAR LRAR 191030Z VRB03KT CAVOK 27/14 Q1017=
201907191100 METAR LRAR 191100Z 30004KT 240V020 CAVOK 28/14 Q1017=
201907191130 METAR LRAR 191130Z VRB04KT CAVOK 28/14 Q1016=
201907191200 METAR LRAR 191200Z VRB03KT CAVOK 29/14 Q1016=
201907191230 METAR LRAR 191230Z 25003KT 170V320 CAVOK 28/13 Q1016=
201907191300 METAR LRAR 191300Z 33004KT 240V040 CAVOK 28/14 Q1016=
201907191330 METAR LRAR 191330Z VRB03KT CAVOK 29/15 Q1016=
201907191400 METAR LRAR 191400Z 30005KT 260V030 CAVOK 29/14 Q1016=
201907191430 METAR LRAR 191430Z 31004KT 260V360 CAVOK 29/13 Q1015=
201907191500 METAR LRAR 191500Z 28004KT 230V300 CAVOK 29/13 Q1015=
201907191530 METAR LRAR 191530Z 32005KT 270V350 9999 FEW050TCU 28/14 Q1015=
201907191600 METAR LRAR 191600Z 35003KT 300V040 9999 FEW050TCU 28/14 Q1015=
201907191630 METAR LRAR 191630Z 31004KT 280V350 CAVOK 28/14 Q1015=
201907191700 METAR LRAR 191700Z 33003KT 300V360 CAVOK 28/15 Q1016=
201907191730 METAR LRAR 191730Z 34002KT 310V010 CAVOK 27/15 Q1016=
201907191800 METAR LRAR 191800Z 26003KT CAVOK 25/17 Q1016=
201907191830 METAR LRAR 191830Z 25002KT CAVOK 23/18 Q1016=
201907191900 METAR LRAR 191900Z 00000KT CAVOK 22/17 Q1017=
201907191930 METAR LRAR 191930Z 00000KT CAVOK 21/17 Q1017=
201907192000 METAR LRAR 192000Z 15001KT CAVOK 20/17 Q1017=
201907192030 METAR LRAR 192030Z 17001KT CAVOK 20/17 Q1017=
201907192100 METAR LRAR 192100Z 12001KT CAVOK 19/16 Q1017=
201907192130 METAR LRAR 192130Z 14002KT CAVOK 18/16 Q1017=
201907192200 METAR LRAR 192200Z 14004KT CAVOK 20/16 Q1017=
201907192230 METAR LRAR 192230Z 14004KT CAVOK 19/16 Q1017=
201907192300 METAR LRAR 192300Z 14005KT CAVOK 19/16 Q1017=
201907192330 METAR LRAR 192330Z 15004KT CAVOK 19/16 Q1017=
201907200000 METAR LRAR 200000Z 14006KT CAVOK 18/15 Q1017=
201907200030 METAR LRAR 200030Z 13004KT CAVOK 18/15 Q1017=
201907200100 METAR LRAR 200100Z 14004KT CAVOK 18/15 Q1017=
201907200130 METAR LRAR 200130Z 14003KT CAVOK 18/15 Q1017=
201907200200 METAR LRAR 200200Z 13006KT CAVOK 17/15 Q1017=
201907200230 METAR LRAR 200230Z 14005KT CAVOK 17/15 Q1017=
201907200300 METAR LRAR 200300Z 13004KT CAVOK 16/15 Q1018=
201907200330 METAR LRAR 200330Z 13004KT CAVOK 17/15 Q1018=
201907200400 METAR LRAR 200400Z 14006KT CAVOK 18/15 Q1018=
201907200430 METAR LRAR 200430Z 13006KT CAVOK 19/16 Q1018=
201907200500 METAR LRAR 200500Z 14006KT CAVOK 20/16 Q1018=
201907200530 METAR LRAR 200530Z 14007KT CAVOK 21/16 Q1018=
201907200600 METAR LRAR 200600Z 13006KT CAVOK 22/17 Q1018=
201907200630 METAR LRAR 200630Z 15007KT CAVOK 23/17 Q1019=
201907200700 METAR LRAR 200700Z 17005KT 140V210 CAVOK 25/17 Q1019=
201907200730 METAR LRAR 200730Z 20004KT CAVOK 26/17 Q1019=
201907200800 METAR LRAR 200800Z 19004KT 160V220 9999 FEW040 26/17 Q1019=
201907200830 METAR LRAR 200830Z VRB04KT 9999 FEW040 27/16 Q1019=
201907200900 METAR LRAR 200900Z 23004KT 180V270 9999 FEW040 FEW043TCU
                        28/14 Q1019=
201907200930 METAR LRAR 200930Z 18003KT 110V240 9999 FEW043 FEW045TCU
                        28/14 Q1019=
201907201000 METAR LRAR 201000Z 22005KT 160V300 9999 FEW043 FEW045TCU
                        28/15 Q1019=
201907201030 METAR LRAR 201030Z VRB04KT 9999 SCT045 FEW047TCU 29/13 Q1019=
201907201100 METAR LRAR 201100Z 28005KT 230V330 9999 SCT045 FEW048TCU
                        29/15 Q1018=
201907201130 METAR LRAR 201130Z 25007KT 9999 FEW048 FEW050TCU 30/15 Q1018=
201907201200 METAR LRAR 201200Z VRB04KT 9999 FEW055TCU 30/14 Q1018=
201907201230 METAR LRAR 201230Z VRB04KT 9999 FEW055TCU 30/13 Q1018=
201907201300 METAR LRAR 201300Z 23004KT 9999 FEW055CB 30/13 Q1018=
201907201330 METAR LRAR 201330Z 27005KT 230V340 CAVOK 30/13 Q1018=
201907201400 METAR LRAR 201400Z 27007KT 240V300 CAVOK 30/14 Q1017=
201907201430 METAR LRAR 201430Z VRB04KT CAVOK 30/13 Q1017=
201907201500 METAR LRAR 201500Z 27006KT 240V300 CAVOK 30/15 Q1017=
201907201530 METAR LRAR 201530Z 28006KT CAVOK 30/14 Q1017=
201907201600 METAR LRAR 201600Z 28006KT CAVOK 30/14 Q1017=
201907201630 METAR LRAR 201630Z 28005KT 260V320 9999 FEW055CB 29/14 Q1017=
201907201700 METAR LRAR 201700Z 28005KT 9999 FEW055CB 29/16 Q1017=
201907201730 METAR LRAR 201730Z 23002KT 9999 FEW050CB 28/18 Q1017=
201907201800 METAR LRAR 201800Z 23003KT 9999 FEW050CB 26/18 Q1017=
201907201830 METAR LRAR 201830Z 24002KT CAVOK 24/17 Q1017=
201907201900 METAR LRAR 201900Z 25001KT CAVOK 23/16 Q1018=
201907201930 METAR LRAR 201930Z 09002KT CAVOK 23/16 Q1018=
201907202000 METAR LRAR 202000Z 17003KT 120V190 CAVOK 22/16 Q1018=
201907202030 METAR LRAR 202030Z 14002KT CAVOK 22/16 Q1018=
201907202100 METAR LRAR 202100Z 15002KT CAVOK 22/16 Q1018=
201907202130 METAR LRAR 202130Z 15003KT CAVOK 22/16 Q1018=
201907202200 METAR LRAR 202200Z 15004KT CAVOK 21/17 Q1018=
201907202230 METAR LRAR 202230Z 15004KT CAVOK 20/17 Q1019=
201907202300 METAR LRAR 202300Z 14005KT CAVOK 20/17 Q1019=
201907202330 METAR LRAR 202330Z 14007KT CAVOK 20/17 Q1018=
201907210000 METAR LRAR 210000Z 14004KT CAVOK 19/17 Q1018=
201907210030 METAR LRAR 210030Z 14005KT CAVOK 19/16 Q1018=
201907210100 METAR LRAR 210100Z 14006KT CAVOK 19/16 Q1018=
201907210130 METAR LRAR 210130Z 14007KT CAVOK 19/16 Q1018=
201907210200 METAR LRAR 210200Z 14007KT CAVOK 19/16 Q1018=
201907210230 METAR LRAR 210230Z 14007KT CAVOK 19/16 Q1018=
201907210300 METAR LRAR 210300Z 14007KT CAVOK 19/16 Q1018=
201907210330 METAR LRAR 210330Z 14007KT CAVOK 19/16 Q1018=
201907210400 METAR LRAR 210400Z 14007KT CAVOK 20/16 Q1018=
201907210430 METAR LRAR 210430Z 14008KT CAVOK 21/16 Q1018=
201907210500 METAR LRAR 210500Z 14008KT CAVOK 22/16 Q1018=
201907210530 METAR LRAR 210530Z 14008KT CAVOK 23/16 Q1018=
201907210600 METAR LRAR 210600Z 15007KT CAVOK 24/16 Q1019=
201907210630 METAR LRAR 210630Z 15008KT CAVOK 25/16 Q1019=
201907210700 METAR LRAR 210700Z 19007KT CAVOK 26/16 Q1019=
201907210730 METAR LRAR 210730Z 17005KT 140V200 CAVOK 27/17 Q1019=
201907210800 METAR LRAR 210800Z 17005KT 130V210 CAVOK 28/16 Q1019=
201907210830 METAR LRAR 210830Z 18004KT 120V280 CAVOK 29/16 Q1019=
201907210900 METAR LRAR 210900Z 18004KT 150V250 CAVOK 29/16 Q1019=
201907210930 METAR LRAR 210930Z 23006KT 190V270 CAVOK 30/15 Q1019=
201907211000 METAR LRAR 211000Z 23006KT 200V270 CAVOK 30/13 Q1019=
201907211030 METAR LRAR 211030Z 23006KT CAVOK 31/13 Q1019=
201907211100 METAR LRAR 211100Z 24005KT 160V290 CAVOK 31/14 Q1019=
201907211130 METAR LRAR 211130Z VRB05KT CAVOK 31/13 Q1019=
201907211200 METAR LRAR 211200Z 27006KT 230V300 CAVOK 31/13 Q1019=
201907211230 METAR LRAR 211230Z 25005KT 190V280 CAVOK 32/14 Q1018=
201907211300 METAR LRAR 211300Z 25008KT CAVOK 32/13 Q1018=
201907211330 METAR LRAR 211330Z 25006KT 200V300 CAVOK 32/14 Q1018=
201907211400 METAR LRAR 211400Z 24008KT CAVOK 32/13 Q1017=
201907211430 METAR LRAR 211430Z 25007KT 220V280 CAVOK 32/14 Q1017=
201907211500 METAR LRAR 211500Z 25007KT CAVOK 32/12 Q1017=
201907211530 METAR LRAR 211530Z 23005KT CAVOK 32/14 Q1017=
201907211600 METAR LRAR 211600Z 23004KT CAVOK 31/13 Q1018=
201907211630 METAR LRAR 211630Z 23003KT CAVOK 30/16 Q1018=
201907211700 METAR LRAR 211700Z 20003KT CAVOK 28/19 Q1017=
201907211730 METAR LRAR 211730Z 21004KT CAVOK 27/18 Q1017=
201907211800 METAR LRAR 211800Z 19004KT CAVOK 27/16 Q1018=
201907211830 METAR LRAR 211830Z VRB02KT CAVOK 25/17 Q1018=
201907211900 METAR LRAR 211900Z 21003KT CAVOK 24/17 Q1018=
201907211930 METAR LRAR 211930Z 22003KT CAVOK 24/17 Q1018=
201907212000 METAR LRAR 212000Z 22003KT CAVOK 24/17 Q1018=
201907212030 METAR LRAR 212030Z 21004KT CAVOK 23/17 Q1018=
201907212100 METAR LRAR 212100Z 13003KT CAVOK 23/18 Q1018=
201907212130 METAR LRAR 212130Z 14003KT CAVOK 23/17 Q1019=
201907212200 METAR LRAR 212200Z 15004KT CAVOK 22/17 Q1019=
201907212230 METAR LRAR 212230Z 15005KT CAVOK 21/17 Q1019=
201907212300 METAR LRAR 212300Z 19003KT CAVOK 21/17 Q1019=
201907212330 METAR LRAR 212330Z 20005KT CAVOK 21/17 Q1019=
201907220000 METAR LRAR 220000Z NIL=
201907220030 METAR LRAR 220030Z NIL=
201907220100 METAR COR LRAR 220100Z 28005KT CAVOK 19/17 Q1019=
201907220130 METAR LRAR 220130Z 30004KT CAVOK 18/18 Q1019=
201907220200 METAR LRAR 220200Z 31004KT 7000 NSC 18/18 Q1019=
201907220230 METAR LRAR 220230Z 31003KT 7000 NSC 18/18 Q1019=
201907220300 METAR LRAR 220300Z 32004KT 8000 MIFG NSC 17/17 Q1019=
201907220330 METAR LRAR 220330Z 31003KT 9999 MIFG NSC 17/17 Q1020=
201907220400 METAR LRAR 220400Z 33004KT CAVOK 18/18 Q1020=
201907220430 METAR LRAR 220430Z 35004KT 320V020 CAVOK 18/18 Q1020=
201907220500 METAR LRAR 220500Z 35004KT 320V020 CAVOK 19/18 Q1020=
201907220530 METAR LRAR 220530Z 01007KT 330V050 CAVOK 20/18 Q1020=
201907220600 METAR LRAR 220600Z 01006KT 340V050 CAVOK 22/18 Q1020=
201907220630 METAR LRAR 220630Z 01009KT 350V050 CAVOK 23/18 Q1020=
201907220700 METAR LRAR 220700Z 35007KT CAVOK 24/19 Q1020=
201907220730 METAR LRAR 220730Z 36008KT 320V040 CAVOK 25/18 Q1021=
201907220800 METAR LRAR 220800Z 36008KT 330V040 CAVOK 25/18 Q1021=
201907220830 METAR LRAR 220830Z 35008KT 310V030 CAVOK 26/18 Q1021=
201907220900 METAR LRAR 220900Z 34008KT CAVOK 26/17 Q1021=
201907220930 METAR LRAR 220930Z 33008KT CAVOK 27/17 Q1021=
201907221000 METAR LRAR 221000Z 34007KT 310V010 CAVOK 27/17 Q1021=
201907221030 METAR LRAR 221030Z 34006KT 280V030 CAVOK 27/17 Q1021=
201907221100 METAR LRAR 221100Z 33008KT 310V040 CAVOK 28/16 Q1021=
201907221130 METAR LRAR 221130Z 33008KT 290V020 CAVOK 27/16 Q1021=
201907221200 METAR LRAR 221200Z 34009KT 310V030 9999 FEW045 29/15 Q1020=
201907221230 METAR LRAR 221230Z 36008KT 320V030 9999 FEW047 28/15 Q1020=
201907221300 METAR LRAR 221300Z 02007KT 350V060 9999 FEW048 29/17 Q1020=
201907221330 METAR LRAR 221330Z 33009KT 300V010 9999 SCT049 29/16 Q1020=
201907221400 METAR LRAR 221400Z 35007KT 310V020 CAVOK 29/15 Q1020=
201907221430 METAR LRAR 221430Z 35007KT 310V030 CAVOK 29/15 Q1020=
201907221500 METAR LRAR 221500Z 34006KT 300V050 CAVOK 29/16 Q1020=
201907221530 METAR LRAR 221530Z 35007KT 310V050 CAVOK 29/15 Q1020=
201907221600 METAR LRAR 221600Z 34005KT 310V030 9999 FEW050CB 28/14 Q1019=
201907221630 METAR LRAR 221630Z 36006KT 330V040 CAVOK 28/14 Q1019=
201907221700 METAR LRAR 221700Z 36006KT CAVOK 27/15 Q1019=
201907221730 METAR LRAR 221730Z 36005KT CAVOK 26/15 Q1019=
201907221800 METAR LRAR 221800Z 01004KT CAVOK 25/15 Q1019=
201907221830 METAR LRAR 221830Z VRB01KT CAVOK 23/17 Q1020=
201907221900 METAR LRAR 221900Z 29003KT CAVOK 22/17 Q1020=
201907221930 METAR LRAR 221930Z 28003KT CAVOK 22/17 Q1020=
201907222000 METAR LRAR 222000Z 27001KT CAVOK 20/17 Q1020=
201907222030 METAR LRAR 222030Z 00000KT CAVOK 20/17 Q1020=
201907222100 METAR LRAR 222100Z 25001KT CAVOK 20/17 Q1020=
201907222130 METAR LRAR 222130Z 25003KT CAVOK 19/17 Q1020=
201907222200 METAR LRAR 222200Z VRB01KT CAVOK 19/17 Q1020=
201907222230 METAR LRAR 222230Z 00000KT CAVOK 19/17 Q1019=
201907222300 METAR LRAR 222300Z 20001KT CAVOK 18/17 Q1019=
201907222330 METAR LRAR 222330Z VRB01KT CAVOK 18/17 Q1019=
201907230000 METAR LRAR 230000Z 27003KT CAVOK 17/16 Q1019=
201907230030 METAR LRAR 230030Z 25002KT CAVOK 17/17 Q1019=
201907230100 METAR LRAR 230100Z 14001KT CAVOK 17/17 Q1019=
201907230130 METAR LRAR 230130Z 12003KT CAVOK 18/17 Q1019=
201907230200 METAR LRAR 230200Z 11001KT CAVOK 18/17 Q1018=
201907230230 METAR LRAR 230230Z 13003KT CAVOK 17/17 Q1018=
201907230300 METAR LRAR 230300Z VRB01KT 9999 MIFG NSC 17/17 Q1018=
201907230330 METAR LRAR 230330Z 14003KT 9999 MIFG NSC 17/17 Q1018=
201907230400 METAR LRAR 230400Z 17002KT 9999 MIFG NSC 16/16 Q1018=
201907230430 METAR LRAR 230430Z 18003KT CAVOK 18/17 Q1018=
201907230500 METAR LRAR 230500Z 00000KT CAVOK 19/18 Q1018=
201907230530 METAR LRAR 230530Z 27002KT 240V310 CAVOK 20/18 Q1018=
201907230600 METAR LRAR 230600Z VRB01KT CAVOK 21/17 Q1018=
201907230630 METAR LRAR 230630Z VRB01KT CAVOK 22/18 Q1018=
201907230700 METAR LRAR 230700Z VRB02KT CAVOK 24/17 Q1018=
201907230730 METAR LRAR 230730Z VRB02KT CAVOK 25/17 Q1018=
201907230800 METAR LRAR 230800Z VRB02KT CAVOK 26/17 Q1018=
201907230830 METAR LRAR 230830Z 36003KT 280V070 CAVOK 27/15 Q1018=
201907230900 METAR LRAR 230900Z 31005KT 240V020 CAVOK 27/14 Q1018=
201907230930 METAR LRAR 230930Z 32005KT 260V030 CAVOK 28/15 Q1017=
201907231000 METAR LRAR 231000Z 32008KT CAVOK 27/15 Q1018=
201907231030 METAR LRAR 231030Z 31009KT 270V340 CAVOK 28/16 Q1017=
201907231100 METAR LRAR 231100Z 34007KT 310V020 CAVOK 29/15 Q1017=
201907231130 METAR LRAR 231130Z 32009KT 300V010 CAVOK 29/13 Q1017=
201907231200 METAR LRAR 231200Z 34009KT CAVOK 29/14 Q1017=
201907231230 METAR LRAR 231230Z 33011KT 300V010 CAVOK 28/13 Q1016=
201907231300 METAR LRAR 231300Z 32013KT 280V350 CAVOK 28/14 Q1016=
201907231330 METAR LRAR 231330Z 35010KT CAVOK 28/15 Q1016=
201907231400 METAR LRAR 231400Z 02011KT 340V060 CAVOK 27/16 Q1016=
201907231430 METAR LRAR 231430Z 03012KT 360V070 CAVOK 26/16 Q1016=
201907231500 METAR LRAR 231500Z 03012KT 340V060 CAVOK 26/16 Q1016=
201907231530 METAR LRAR 231530Z 03011KT 360V070 CAVOK 27/16 Q1016=
201907231600 METAR LRAR 231600Z 04012KT 350V070 CAVOK 25/14 Q1016=
201907231630 METAR LRAR 231630Z 04013KT 360V070 CAVOK 25/14 Q1016=
201907231700 METAR LRAR 231700Z 03010KT 350V070 CAVOK 25/14 Q1016=
201907231730 METAR LRAR 231730Z 04008KT 360V070 CAVOK 24/15 Q1016=
201907231800 METAR LRAR 231800Z 04009KT CAVOK 24/15 Q1017=
201907231830 METAR LRAR 231830Z 05011KT CAVOK 23/15 Q1017=
201907231900 METAR LRAR 231900Z 05009KT CAVOK 23/15 Q1017=
201907231930 METAR LRAR 231930Z 04008KT 010V070 CAVOK 22/15 Q1017=
201907232000 METAR LRAR 232000Z 04007KT 010V070 CAVOK 22/15 Q1017=
201907232030 METAR LRAR 232030Z 03005KT CAVOK 21/15 Q1017=
201907232100 METAR LRAR 232100Z 03005KT CAVOK 21/16 Q1017=
201907232130 METAR LRAR 232130Z 02005KT 340V040 CAVOK 20/16 Q1017=
201907232200 METAR LRAR 232200Z 01006KT CAVOK 20/16 Q1017=
201907232230 METAR LRAR 232230Z 36004KT CAVOK 19/15 Q1017=
201907232300 METAR LRAR 232300Z 34003KT CAVOK 19/16 Q1017=
201907232330 METAR LRAR 232330Z 35004KT CAVOK 19/16 Q1017=
201907240000 METAR LRAR 240000Z 01006KT 350V060 CAVOK 20/16 Q1017=
201907240030 METAR LRAR 240030Z 01005KT CAVOK 19/16 Q1017=
201907240100 METAR LRAR 240100Z 01006KT 340V040 CAVOK 19/16 Q1017=
201907240130 METAR LRAR 240130Z 02006KT CAVOK 18/15 Q1017=
201907240200 METAR COR LRAR 240200Z 02008KT 350V060 CAVOK 18/15 Q1017=
201907240230 METAR LRAR 240230Z 01005KT CAVOK 17/16 Q1017=
201907240300 METAR LRAR 240300Z 02007KT CAVOK 17/16 Q1017=
201907240330 METAR LRAR 240330Z 02007KT CAVOK 17/16 Q1017=
201907240400 METAR LRAR 240400Z 03007KT CAVOK 17/16 Q1017=
201907240430 METAR LRAR 240430Z 04008KT 360V070 CAVOK 18/16 Q1017=
201907240500 METAR LRAR 240500Z 03005KT 350V080 CAVOK 19/16 Q1017=
201907240530 METAR LRAR 240530Z 01005KT 320V080 CAVOK 19/16 Q1017=
201907240600 METAR LRAR 240600Z 03006KT 330V070 CAVOK 20/17 Q1017=
201907240630 METAR LRAR 240630Z 01005KT 310V060 CAVOK 21/17 Q1017=
201907240700 METAR LRAR 240700Z 03005KT 320V080 CAVOK 22/17 Q1017=
201907240730 METAR LRAR 240730Z 02007KT 9999 FEW030 23/17 Q1017=
201907240800 METAR LRAR 240800Z 04007KT 350V070 9999 SCT033 23/16 Q1017=
201907240830 METAR LRAR 240830Z VRB06KT 9999 SCT033 24/17 Q1017=
201907240900 METAR LRAR 240900Z 02008KT 340V050 9999 SCT033 25/16 Q1017=
201907240930 METAR LRAR 240930Z 36008KT 310V040 9999 SCT035 25/15 Q1017=
201907241000 METAR LRAR 241000Z 01009KT 340V050 9999 SCT040 26/15 Q1017=
201907241030 METAR LRAR 241030Z 01006KT 330V050 9999 SCT045 26/16 Q1017=
201907241100 METAR LRAR 241100Z 01006KT 320V050 9999 BKN045 27/15 Q1017=
201907241130 METAR LRAR 241130Z 01008KT 320V060 9999 BKN045 26/15 Q1017=
201907241200 METAR LRAR 241200Z 34005KT 290V050 9999 BKN045 27/14 Q1017=
201907241230 METAR LRAR 241230Z 01006KT 310V050 9999 SCT048 27/14 Q1017=
201907241300 METAR LRAR 241300Z 04007KT 350V080 9999 SCT048 28/15 Q1017=
201907241330 METAR LRAR 241330Z 36008KT 320V050 9999 SCT048 28/15 Q1017=
201907241400 METAR LRAR 241400Z 01008KT 340V050 9999 FEW048 28/14 Q1017=
201907241430 METAR LRAR 241430Z 36008KT 330V040 9999 FEW048 28/14 Q1017=
201907241500 METAR LRAR 241500Z 36008KT 320V050 9999 FEW048 28/13 Q1016=
201907241530 METAR LRAR 241530Z 01009KT 330V050 9999 FEW048 27/14 Q1016=
201907241600 METAR LRAR 241600Z 36008KT 320V030 CAVOK 27/13 Q1016=
201907241630 METAR LRAR 241630Z 35007KT 320V020 CAVOK 27/13 Q1016=
201907241700 METAR LRAR 241700Z 36008KT CAVOK 26/14 Q1016=
201907241730 METAR LRAR 241730Z 36006KT CAVOK 26/15 Q1016=
201907241800 METAR LRAR 241800Z 01004KT CAVOK 24/15 Q1016=
201907241830 METAR LRAR 241830Z 01004KT CAVOK 23/15 Q1017=
201907241900 METAR LRAR 241900Z 01004KT CAVOK 22/16 Q1017=
201907241930 METAR LRAR 241930Z 02005KT CAVOK 22/15 Q1017=
201907242000 METAR LRAR 242000Z 01006KT CAVOK 21/15 Q1017=
201907242030 METAR LRAR 242030Z 02005KT CAVOK 21/15 Q1017=
201907242100 METAR LRAR 242100Z 03004KT CAVOK 21/15 Q1017=
201907242130 METAR LRAR 242130Z 31002KT 240V050 CAVOK 20/15 Q1018=
201907242200 METAR LRAR 242200Z 32001KT CAVOK 21/15 Q1018=
201907242230 METAR LRAR 242230Z 30003KT CAVOK 19/16 Q1018=
201907242300 METAR LRAR 242300Z 31002KT 250V350 CAVOK 19/17 Q1018=
201907242330 METAR LRAR 242330Z 27004KT CAVOK 18/17 Q1018=
201907250000 METAR LRAR 250000Z 00000KT CAVOK 19/17 Q1018=
201907250030 METAR LRAR 250030Z 24002KT CAVOK 19/17 Q1018=
201907250100 METAR LRAR 250100Z 26002KT CAVOK 19/17 Q1017=
201907250130 METAR LRAR 250130Z 00000KT CAVOK 19/17 Q1017=
201907250200 METAR LRAR 250200Z VRB01KT CAVOK 19/17 Q1017=
201907250230 METAR LRAR 250230Z 30003KT CAVOK 18/17 Q1018=
201907250300 METAR LRAR 250300Z 35002KT CAVOK 19/17 Q1018=
201907250330 METAR LRAR 250330Z 01004KT 9999 FEW040CB 18/17 Q1018=
201907250400 METAR LRAR 250400Z VRB02KT 9999 FEW045CB 18/17 Q1018=
201907250430 METAR LRAR 250430Z 03004KT 9999 FEW045CB 20/17 Q1018=
201907250500 METAR LRAR 250500Z 04003KT 010V070 9999 FEW050CB 20/17 Q1018=
201907250530 METAR COR LRAR 250530Z VRB01KT 9999 SCT047 22/18 Q1019=
201907250600 METAR LRAR 250600Z VRB02KT 9999 FEW028 SCT048 23/17 Q1019=
201907250630 METAR COR LRAR 250630Z VRB01KT 9999 FEW030 SCT048 23/17 Q1019=
201907250700 METAR LRAR 250700Z VRB02KT 9999 SCT033 24/16 Q1019=
201907250730 METAR LRAR 250730Z VRB02KT 9999 SCT033 25/17 Q1019=
201907250800 METAR LRAR 250800Z VRB03KT 9999 SCT035 26/17 Q1018=
201907250830 METAR LRAR 250830Z 05004KT 360V100 9999 FEW027 SCT046 26/17
                        Q1018=
201907250900 METAR LRAR 250900Z VRB02KT 9999 FEW026 SCT038 26/16 Q1018=
201907250930 METAR LRAR 250930Z 33003KT 230V040 9999 FEW028 SC038 27/15
                        Q1018=
201907251000 METAR LRAR 251000Z 01004KT 310V070 9999 FEW030 SCT040 27/16
                        Q1018=
201907251030 METAR LRAR 251030Z 29006KT 220V330 9999 FEW033 SCT040 28/15
                        Q1018=
201907251100 METAR LRAR 251100Z VRB04KT 9999 FEW035 SCT042 28/15 Q1018=
201907251130 METAR LRAR 251130Z 30008KT 9999 FEW035 SCT045 28/15 Q1018=
201907251200 METAR COR LRAR 251200Z VRB03KT 9999 FEW036 BKN044 29/16 Q1017=
201907251230 METAR LRAR 251230Z 30005KT 250V010 9999 FEW038 BKN046 29/16
                        Q1017=
201907251300 METAR LRAR 251300Z 30005KT 240V010 9999 FEW040 BKN048 29/15
                        Q1017=
201907251330 METAR LRAR 251330Z 32007KT 270V010 9999 BKN046 29/15 Q1017=
201907251400 METAR LRAR 251400Z VRB03KT 9999 BKN046 29/16 Q1016=
201907251430 METAR LRAR 251430Z 32006KT 280V020 9999 BKN047 30/15 Q1016=
201907251500 METAR LRAR 251500Z 03007KT 350V060 9999 BKN047 29/15 Q1016=
201907251530 METAR LRAR 251530Z 36004KT 320V050 9999 FEW033 SCT048 29/16
                        Q1016=
201907251600 METAR LRAR 251600Z VRB02KT 9999 SCT048 28/15 Q1016=
201907251630 METAR LRAR 251630Z 01004KT 310V070 9999 FEW048 28/16 Q1016=
201907251700 METAR LRAR 251700Z 01004KT 330V040 CAVOK 28/16 Q1016=
201907251730 METAR COR LRAR 251730Z 01004KT CAVOK 27/17 Q1016=
201907251800 METAR LRAR 251800Z 04004KT CAVOK 26/17 Q1016=
201907251830 METAR COR LRAR 251830Z 05004KT CAVOK 25/17 Q1016=
201907251900 METAR LRAR 251900Z 05003KT CAVOK 23/17 Q1016=
201907251930 METAR LRAR 251930Z 00000KT CAVOK 22/18 Q1016=
201907252000 METAR LRAR 252000Z 00000KT CAVOK 22/17 Q1016=
201907252030 METAR LRAR 252030Z 09001KT CAVOK 21/17 Q1016=
201907252100 METAR LRAR 252100Z VRB01KT CAVOK 21/17 Q1015=
201907252130 METAR LRAR 252130Z 14003KT CAVOK 20/17 Q1015=
201907252200 METAR LRAR 252200Z 16002KT CAVOK 20/17 Q1015=
201907252230 METAR LRAR 252230Z 14002KT CAVOK 19/17 Q1015=
201907252300 METAR LRAR 252300Z 14003KT CAVOK 19/17 Q1015=
201907252330 METAR LRAR 252330Z 14004KT CAVOK 19/17 Q1015=
201907260000 METAR LRAR 260000Z 14004KT CAVOK 19/17 Q1015=
201907260030 METAR LRAR 260030Z 12002KT CAVOK 18/17 Q1014=
201907260100 METAR LRAR 260100Z 14003KT CAVOK 19/17 Q1014=
201907260130 METAR LRAR 260130Z 12004KT CAVOK 18/16 Q1014=
201907260200 METAR LRAR 260200Z 15003KT CAVOK 19/17 Q1014=
201907260230 METAR LRAR 260230Z 15005KT CAVOK 18/16 Q1014=
201907260300 METAR LRAR 260300Z 14005KT CAVOK 18/16 Q1014=
201907260330 METAR LRAR 260330Z 14003KT CAVOK 17/16 Q1013=
201907260400 METAR LRAR 260400Z 14004KT CAVOK 18/16 Q1013=
201907260430 METAR LRAR 260430Z 14004KT CAVOK 19/16 Q1013=
201907260500 METAR LRAR 260500Z 14002KT CAVOK 21/17 Q1013=
201907260530 METAR LRAR 260530Z 14004KT CAVOK 22/17 Q1013=
201907260600 METAR LRAR 260600Z 13003KT CAVOK 24/17 Q1013=
201907260630 METAR LRAR 260630Z 14004KT CAVOK 25/17 Q1013=
201907260700 METAR LRAR 260700Z 15003KT 110V190 CAVOK 26/16 Q1013=
201907260730 METAR LRAR 260730Z 11003KT 060V170 CAVOK 28/15 Q1013=
201907260800 METAR LRAR 260800Z VRB02KT CAVOK 28/16 Q1013=
201907260830 METAR LRAR 260830Z VRB02KT CAVOK 30/13 Q1013=
201907260900 METAR LRAR 260900Z VRB03KT CAVOK 29/13 Q1012=
201907260930 METAR LRAR 260930Z 27003KT 230V330 CAVOK 29/13 Q1012=
201907261000 METAR LRAR 261000Z VRB02KT CAVOK 30/12 Q1012=
201907261030 METAR LRAR 261030Z VRB03KT CAVOK 30/13 Q1012=
201907261100 METAR LRAR 261100Z 21003KT 150V260 CAVOK 30/13 Q1011=
201907261130 METAR LRAR 261130Z 28003KT 230V350 CAVOK 30/13 Q1011=
201907261200 METAR LRAR 261200Z 23005KT 180V270 CAVOK 31/13 Q1011=
201907261230 METAR LRAR 261230Z 29004KT 230V350 CAVOK 31/13 Q1011=
201907261300 METAR LRAR 261300Z 22004KT 110V260 CAVOK 31/13 Q1010=
201907261330 METAR LRAR 261330Z 21004KT 160V260 CAVOK 31/15 Q1010=
201907261400 METAR LRAR 261400Z 24006KT CAVOK 31/15 Q1010=
201907261430 METAR LRAR 261430Z 26006KT 220V290 CAVOK 30/15 Q1009=
201907261500 METAR LRAR 261500Z 28007KT CAVOK 30/16 Q1009=
201907261530 METAR LRAR 261530Z 28006KT 260V320 CAVOK 31/17 Q1009=
201907261600 METAR LRAR 261600Z 27005KT 240V300 9999 FEW033 30/17 Q1009=
201907261630 METAR LRAR 261630Z 27007KT 9999 FEW038 30/16 Q1008=
201907261700 METAR LRAR 261700Z 27006KT 9999 FEW046 29/18 Q1008=
201907261730 METAR LRAR 261730Z 23005KT CAVOK 27/18 Q1008=
201907261800 METAR LRAR 261800Z 21005KT CAVOK 27/17 Q1008=
201907261830 METAR LRAR 261830Z VRB02KT CAVOK 26/17 Q1008=
201907261900 METAR LRAR 261900Z 00000KT CAVOK 25/18 Q1008=
201907261930 METAR LRAR 261930Z VRB01KT CAVOK 22/18 Q1008=
201907262000 METAR LRAR 262000Z 00000KT CAVOK 23/18 Q1008=
201907262030 METAR LRAR 262030Z VRB01KT CAVOK 22/18 Q1008=
201907262100 METAR LRAR 262100Z VRB02KT CAVOK 21/18 Q1008=
201907262130 METAR LRAR 262130Z 13004KT CAVOK 21/18 Q1008=
201907262200 METAR LRAR 262200Z 14004KT CAVOK 22/17 Q1008=
201907262230 METAR LRAR 262230Z 05003KT 350V110 CAVOK 21/17 Q1008=
201907262300 METAR LRAR 262300Z VRB02KT CAVOK 20/17 Q1008=
201907262330 METAR LRAR 262330Z 14005KT CAVOK 20/18 Q1007=
201907270000 METAR LRAR 270000Z 14004KT CAVOK 20/17 Q1007=
201907270030 METAR LRAR 270030Z 13004KT CAVOK 20/17 Q1007=
201907270100 METAR LRAR 270100Z 12005KT CAVOK 20/17 Q1007=
201907270130 METAR LRAR 270130Z 15003KT CAVOK 21/17 Q1007=
201907270200 METAR LRAR 270200Z 11004KT CAVOK 20/17 Q1007=
201907270230 METAR LRAR 270230Z VRB03KT CAVOK 19/17 Q1007=
201907270300 METAR LRAR 270300Z 12007KT CAVOK 20/17 Q1007=
201907270330 METAR LRAR 270330Z 14004KT CAVOK 19/17 Q1006=
201907270400 METAR LRAR 270400Z 15005KT CAVOK 20/17 Q1006=
201907270430 METAR LRAR 270430Z 13007KT CAVOK 21/17 Q1006=
201907270500 METAR LRAR 270500Z 14007KT CAVOK 22/17 Q1007=
201907270530 METAR LRAR 270530Z 14010KT CAVOK 23/16 Q1006=
201907270600 METAR LRAR 270600Z 14010KT CAVOK 24/16 Q1006=
201907270630 METAR LRAR 270630Z 15009KT CAVOK 26/15 Q1006=
201907270700 METAR LRAR 270700Z 17008KT CAVOK 27/16 Q1006=
201907270730 METAR LRAR 270730Z 15008KT 130V190 CAVOK 28/15 Q1006=
201907270800 METAR LRAR 270800Z 15008KT CAVOK 28/16 Q1006=
201907270830 METAR LRAR 270830Z 19007KT CAVOK 29/16 Q1006=
201907270900 METAR LRAR 270900Z 21008KT 170V240 CAVOK 30/18 Q1006=
201907270930 METAR LRAR 270930Z 18006KT CAVOK 30/16 Q1006=
201907271000 METAR LRAR 271000Z 16008KT 130V210 CAVOK 30/16 Q1006=
201907271030 METAR LRAR 271030Z 18006KT 130V230 CAVOK 31/16 Q1006=
201907271100 METAR LRAR 271100Z 15013KT CAVOK 31/15 Q1005=
201907271130 METAR LRAR 271130Z 20010KT CAVOK 31/15 Q1005=
201907271200 METAR LRAR 271200Z 18006KT 150V210 CAVOK 31/16 Q1005=
201907271230 METAR LRAR 271230Z 22008KT CAVOK 31/17 Q1005=
201907271300 METAR LRAR 271300Z 20007KT CAVOK 30/18 Q1005=
201907271330 METAR LRAR 271330Z 23007KT CAVOK 29/20 Q1005=
201907271400 METAR LRAR 271400Z 24008KT CAVOK 29/19 Q1005=
201907271430 METAR LRAR 271430Z 24007KT CAVOK 29/20 Q1004=
201907271500 METAR LRAR 271500Z 23006KT 200V260 CAVOK 30/20 Q1004=
201907271530 METAR LRAR 271530Z 25006KT CAVOK 30/19 Q1004=
201907271600 METAR LRAR 271600Z 24005KT CAVOK 30/20 Q1004=
201907271630 METAR LRAR 271630Z 24005KT CAVOK 30/20 Q1004=
201907271700 METAR LRAR 271700Z 25004KT CAVOK 29/21 Q1004=
201907271730 METAR LRAR 271730Z 23002KT CAVOK 29/20 Q1004=
201907271800 METAR LRAR 271800Z VRB01KT CAVOK 27/21 Q1004=
201907271830 METAR LRAR 271830Z 33001KT CAVOK 26/21 Q1004=
201907271900 METAR LRAR 271900Z 05007KT CAVOK 24/20 Q1004=
201907271930 METAR LRAR 271930Z 07005KT CAVOK 24/19 Q1004=
201907272000 METAR LRAR 272000Z 09005KT CAVOK 24/20 Q1004=
201907272030 METAR LRAR 272030Z 08003KT CAVOK 23/20 Q1004=
201907272100 METAR LRAR 272100Z 10005KT CAVOK 23/20 Q1004=
201907272130 METAR LRAR 272130Z 11005KT CAVOK 23/20 Q1004=
201907272200 METAR LRAR 272200Z 14005KT CAVOK 23/20 Q1004=
201907272230 METAR LRAR 272230Z 14007KT CAVOK 22/20 Q1004=
201907272300 METAR LRAR 272300Z 14007KT CAVOK 23/20 Q1004=
201907272330 METAR LRAR 272330Z 13005KT CAVOK 23/19 Q1004=
201907280000 METAR LRAR 280000Z 13008KT CAVOK 23/19 Q1003=
201907280030 METAR LRAR 280030Z 02015KT 9999 TS FEW015 SCT040CB 22/19
                        Q1005=
201907280100 METAR LRAR 280100Z 34015KT 9999 TS FEW020 SCT040CB 21/19
                        Q1006=
201907280130 METAR LRAR 280130Z 01011KT 340V040 9999 -TSRA SCT040CB 20/18
                        Q1005=
201907280200 METAR LRAR 280200Z 06012KT 9999 FEW007 FEW050CB 20/19 Q1005
                        RETS=
201907280230 METAR LRAR 280230Z 07009KT 9999 FEW050CB 20/19 Q1005 RETS=
201907280300 METAR LRAR 280300Z 08015KT 9999 FEW050CB 20/18 Q1004=
201907280330 METAR LRAR 280330Z 08012KT 9999 FEW055CB 20/18 Q1005=
201907280400 METAR LRAR 280400Z 08011KT CAVOK 21/17 Q1004=
201907280430 METAR LRAR 280430Z 09009KT CAVOK 22/18 Q1004=
201907280500 METAR LRAR 280500Z 11006KT CAVOK 23/18 Q1004=
201907280530 METAR LRAR 280530Z 14008KT CAVOK 24/18 Q1004=
201907280600 METAR LRAR 280600Z 13007KT CAVOK 25/19 Q1004=
201907280630 METAR LRAR 280630Z 14010KT CAVOK 27/18 Q1004=
201907280700 METAR LRAR 280700Z 12009KT CAVOK 28/19 Q1003=
201907280730 METAR COR LRAR 280730Z 14010KT 110V170 CAVOK 30/17 Q1003=
201907280800 METAR LRAR 280800Z 16011KT CAVOK 31/17 Q1003=
201907280830 METAR LRAR 280830Z 16013KT 130V200 CAVOK 31/17 Q1003=
201907280900 METAR LRAR 280900Z 16011KT 130V190 CAVOK 32/17 Q1003=
201907280930 METAR LRAR 280930Z 20012KT CAVOK 32/18 Q1002=
201907281000 METAR LRAR 281000Z 19009KT 160V220 9999 FEW045 32/18 Q1002=
201907281030 METAR LRAR 281030Z 16011KT 130V200 9999 SCT040 33/16 Q1002=
201907281100 METAR LRAR 281100Z 21010KT 9999 SCT048 32/17 Q1002=
201907281130 METAR LRAR 281130Z 20010KT 9999 SCT048 33/17 Q1002=
201907281200 METAR LRAR 281200Z 20013KT 160V220 9999 SCT048 FEW055CB 34/15
                        Q1002=
201907281230 METAR LRAR 281230Z 21014G24KT 150V250 8000 TSRA FEW011 BKN050CB
                        28/19 Q1002=
201907281300 METAR LRAR 281300Z VRB03KT 9999 TS VCSH SCT008 BKN040CB 22/22
                        Q1002 RESHRA R09/29//95=
201907281330 METAR LRAR 281330Z 09006KT 070V130 9999 FEW009 SCT045CB 25/22
                        Q1001 RETSRA R09/29//95=
201907281400 METAR LRAR 281400Z 22003KT 130V280 9999 FEW045CB 26/23 Q1001
                        RETS R09/29//95=
201907281430 METAR LRAR 281430Z 13005KT 9999 FEW045CB 29/22 Q1001 R09/29//95=
201907281500 METAR LRAR 281500Z 16006KT 9999 FEW050CB 29/20 Q1001 R09/29//95=
201907281530 METAR LRAR 281530Z 17009KT 9999 FEW050CB 30/17 Q1001 R09/29//95=
201907281600 METAR LRAR 281600Z 06008KT 9999 FEW045CB 27/19 Q1001 R09/29//95=
201907281630 METAR LRAR 281630Z 07007KT 9999 FEW045CB 26/19 Q1001 R09/29//95=
201907281700 METAR LRAR 281700Z 08006KT 9999 FEW045CB 26/18 Q1001 R09/29//95=
201907281730 METAR LRAR 281730Z 11004KT 9999 SCT045CB 26/19 Q1001 R09/29//95=
201907281800 METAR LRAR 281800Z 13005KT 090V190 9999 -TSRA FEW009 SCT045CB
                        24/20 Q1001 R09/29//95=
201907281830 METAR LRAR 281830Z 22023G37KT 180V240 1600 +TSRA SQ FEW007
                        BKN040CB 19/19 Q1004 R09/29//95=
201907281900 METAR LRAR 281900Z 19003KT 130V280 7000 -TSRA SCT007 BKN036CB
                        19/19 Q1004 RESHRA R09/29//95=
201907281930 METAR LRAR 281930Z 01003KT 8000 -TSRA FEW009 SCT013 BKN035CB
                        19/19 Q1004 RESHRA R09/29//95=
201907282000 METAR LRAR 282000Z 27004KT 240V300 9999 FEW011 SCT031CB 19/19
                        Q1004 RETS R09/29//95=
201907282030 METAR LRAR 282030Z 28002KT 240V320 9999 FEW007 SCT013 SCT030CB
                        19/19 Q1004 RETS R09/29//95=
201907282100 METAR LRAR 282100Z 06004KT 9999 -SHRA SCT013 SCT030CB 19/19
                        Q1004 R09/29//95=
201907282130 METAR LRAR 282130Z 16004KT 9999 -SHRA FEW012 SCT030CB 19/19
                        Q1004 R09/29//95=
201907282200 METAR LRAR 282200Z 12005KT 9999 -SHRA FEW010 SCT030CB 20/20
                        Q1004 R09/29//95=
201907282230 METAR LRAR 282230Z 11003KT 080V140 9999 FEW012 SCT030CB 20/20
                        Q1003 R09/29//95=
201907282300 METAR LRAR 282300Z 08006KT 9999 FEW030CB 20/20 Q1003 R09/29//95=
201907282330 METAR LRAR 282330Z 10006KT 9999 FEW030CB 20/20 Q1003 R09/29//95=
201907290000 METAR LRAR 290000Z 12004KT 090V150 9999 -SHRA FEW010 SCT030CB
                        20/19 Q1003 R09/29//95=
201907290030 METAR LRAR 290030Z 09002KT 030V150 9999 -SHRA FEW010 SCT030CB
                        20/19 Q1003 R09/29//95=
201907290100 METAR LRAR 290100Z 12002KT 080V150 9999 -SHRA FEW012 SCT030CB
                        20/19 Q1003 R09/29//95=
201907290130 METAR LRAR 290130Z 02001KT 9999 -SHRA FEW009 SCT012 SCT030CB
                        19/20 Q1004 R09/29//95=
201907290200 METAR LRAR 290200Z 03004KT 9999 -SHRA FEW009 SCT012 SCT030CB
                        19/19 Q1004 R09/29//95=
201907290230 METAR LRAR 290230Z 06003KT 9999 -SHRA FEW008 SCT010 SCT030CB
                        19/19 Q1004 R09/29//95=
201907290300 METAR LRAR 290300Z 07004KT 9999 FEW010 SCT030CB 19/19 Q1004
                        R09/29//95=
201907290330 METAR LRAR 290330Z 08004KT 9999 -SHRA FEW010 SCT040CB 19/19
                        Q1004 R09/29//95=
201907290400 METAR LRAR 290400Z 08005KT 6000 -SHRA FEW009 SCT020 SCT042CB
                        19/19 Q1004 R09/29//95=
201907290430 METAR LRAR 290430Z 05003KT 5000 -SHRA BR FEW007 SCT012 SCT045CB
                        19/19 Q1004 R09/29//95=
201907290500 METAR LRAR 290500Z 02003KT 7000 -SHRA FEW010 SCT015 SCT046CB
                        19/19 Q1004 R09/29//95=
201907290530 METAR LRAR 290530Z VRB01KT 6000 -SHRA FEW009 BKN015 SCT047CB
                        20/20 Q1004 R09/29//95=
201907290600 METAR COR LRAR 290600Z VRB02KT 6000 -SHRA FEW008 BKN017 SCT047CB
                        20/20 Q1005 R09/29//95=
201907290630 METAR COR LRAR 290630Z 01003 330V040 8000 -SHRA FEW009 BKN015
                        FEW050CB 20/20 Q1005 R09/29//95=
201907290700 METAR COR LRAR 290700Z VRB02 9999 SCT005 BKN015 21/21 Q1014
                        R09/29//95=
201907290730 METAR COR LRAR 290730Z 02004 330V050 9999 SCT005 BKN017 21/21
                        Q1005 R09/29//95=
201907290800 METAR COR LRAR 290800Z 02004 330V050 9999 SCT007 BKN024 21/21
                        Q1005 R09/29//95=
201907290830 METAR LRAR 290830Z 03004KT 350V080 9999 FEW015 SCT030 22/21
                        Q1005=
201907290900 METAR LRAR 290900Z 04005KT 360V090 9999 FEW018 SCT030 23/20
                        Q1005=
201907290930 METAR LRAR 290930Z 05007KT 010V090 9999 FEW025 SCT030 24/19
                        Q1005 R09/29//95=
201907291000 METAR LRAR 291000Z 05007KT 9999 FEW025 SCT033 23/19 Q1005
                        R09/29//95=
201907291030 METAR LRAR 291030Z 07006KT 360V110 9999 FEW026 SCT032 24/19
                        Q1005 R09/CLRD//=
201907291100 METAR LRAR 291100Z 02005KT 330V070 9999 BKN033 24/19 Q1005=
201907291130 METAR LRAR 291130Z 09006KT 050V130 9999 BKN033 25/17 Q1005=
201907291200 METAR LRAR 291200Z VRB03KT 9999 BKN033 26/17 Q1005=
201907291230 METAR LRAR 291230Z 03005KT 330V060 9999 BKN036 26/18 Q1005=
201907291300 METAR LRAR 291300Z VRB04KT 9999 FEW026 BKN036 26/18 Q1005=
201907291330 METAR LRAR 291330Z 07004KT 020V130 9999 FEW026 BKN038 26/18
                        Q1005=
201907291400 METAR LRAR 291400Z VRB04KT 9999 FEW028 BKN040 27/17 Q1005=
201907291430 METAR LRAR 291430Z 02008KT 340V070 9999 BKN042 26/19 Q1005=
201907291500 METAR LRAR 291500Z 01006KT 320V050 9999 SCT045 26/19 Q1005=
201907291530 METAR COR LRAR 291530Z 36004KT 310V060 9999 SCT046 26/19
                        Q1005=
201907291600 METAR LRAR 291600Z 36005KT 320V050 9999 FEW046 26/19 Q1005=
201907291630 METAR LRAR 291630Z 33004KT 9999 FEW046 26/18 Q1005=
201907291700 METAR LRAR 291700Z 34003KT 9999 FEW046 25/18 Q1005=
201907291730 METAR LRAR 291730Z 32003KT CAVOK 24/19 Q1005=
201907291800 METAR LRAR 291800Z 29003KT CAVOK 23/20 Q1005=
201907291830 METAR COR LRAR 291830Z 00000KT CAVOK 23/19 Q1006=
201907291900 METAR LRAR 291900Z 33001KT CAVOK 22/20 Q1006=
201907291930 METAR LRAR 291930Z VRB01KT CAVOK 21/20 Q1006=
201907292000 METAR LRAR 292000Z 28002KT CAVOK 20/20 Q1006=
201907292030 METAR LRAR 292030Z 31003KT CAVOK 20/20 Q1007=
201907292100 METAR LRAR 292100Z VRB03KT CAVOK 20/20 Q1007=
201907292130 METAR LRAR 292130Z 22001KT CAVOK 20/19 Q1007=
201907292200 METAR LRAR 292200Z VRB01KT CAVOK 19/19 Q1007=
201907292230 METAR LRAR 292230Z 24003KT CAVOK 18/18 Q1007=
201907292300 METAR LRAR 292300Z 26002KT CAVOK 18/18 Q1007=
201907292330 METAR COR LRAR 292330Z 00000KT CAVOK 18/18 Q1007=
201907300000 METAR LRAR 300000Z VRB01KT CAVOK 18/18 Q1007=
201907300030 METAR LRAR 300030Z VRB01KT 7000 NSC 17/17 Q1007=
201907300100 METAR LRAR 300100Z 00000KT 7000 NSC 17/17 Q1007=
201907300130 METAR LRAR 300130Z VRB01KT 9000 NCD 17/17 Q1007=
201907300200 METAR LRAR 300200Z 16003KT 6000 NSC 17/17 Q1007=
201907300230 METAR LRAR 300230Z 22002KT 5000 BR NSC 17/17 Q1007=
201907300300 METAR COR LRAR 300300Z 33002KT 3000 BR NSC 17/17 Q1008=
201907300330 METAR LRAR 300330Z VRB02KT 4500 MIFG BR NSC 17/17 Q1008=
201907300400 METAR LRAR 300400Z VRB02KT 4000 MIFG BR NSC 17/17 Q1008=
201907300430 METAR LRAR 300430Z 16002KT 3000 BR SCT001 BKN002 18/18 Q1008=
201907300500 METAR LRAR 300500Z 16003KT 0800 R09/0800 R27/0800V1900U FG
                        BKN001 18/18 Q1008=
201907300530 METAR LRAR 300530Z 18003KT 130V210 2000 BR FEW001 BKN002
                        19/19 Q1008=
201907300600 METAR LRAR 300600Z VRB02KT 5000 BR SCT002 SCT003 21/21 Q1009=
201907300630 METAR LRAR 300630Z 27003KT 210V330 CAVOK 21/20 Q1009=
201907300700 METAR LRAR 300700Z VRB02KT CAVOK 23/21 Q1009=
201907300730 METAR LRAR 300730Z VRB02KT CAVOK 25/19 Q1009=
201907300800 METAR LRAR 300800Z VRB03KT CAVOK 26/18 Q1009=
201907300830 METAR LRAR 300830Z 27004KT 210V320 CAVOK 26/18 Q1009=
201907300900 METAR LRAR 300900Z VRB03KT CAVOK 27/19 Q1009=
201907300930 METAR LRAR 300930Z VRB03KT 9999 FEW035 26/18 Q1009=
201907301000 METAR LRAR 301000Z 28005KT 210V340 9999 SCT038 27/19 Q1009=
201907301030 METAR LRAR 301030Z VRB04KT 9999 SCT039 28/19 Q1009=
201907301100 METAR LRAR 301100Z 26005KT 210V350 9999 SCT040 28/19 Q1009=
201907301130 METAR LRAR 301130Z 27005KT 210V340 9999 FEW042 28/19 Q1009=
201907301200 METAR LRAR 301200Z 24005KT 210V280 9999 FEW045 28/18 Q1009=
201907301230 METAR LRAR 301230Z 26006KT 220V310 9999 FEW047 29/18 Q1009=
201907301300 METAR LRAR 301300Z 26007KT 230V310 9999 FEW049 29/19 Q1009=
201907301330 METAR LRAR 301330Z 28007KT CAVOK 29/18 Q1008=
201907301400 METAR LRAR 301400Z 25007KT 220V300 CAVOK 29/18 Q1008=
201907301430 METAR COR LRAR 301430Z 24007KT 220V280 CAVOK 29/19 Q1008=
201907301500 METAR LRAR 301500Z 23006KT CAVOK 29/18 Q1008=
201907301530 METAR LRAR 301530Z 26006KT CAVOK 29/18 Q1008=
201907301600 METAR LRAR 301600Z 25005KT 220V280 CAVOK 29/18 Q1008=
201907301630 METAR LRAR 301630Z 25005KT CAVOK 29/19 Q1008=
201907301700 METAR LRAR 301700Z 24003KT CAVOK 28/21 Q1008=
201907301730 METAR LRAR 301730Z VRB01KT CAVOK 28/21 Q1008=
201907301800 METAR COR LRAR 301800Z 19003KT CAVOK 26/21 Q1008=
201907301830 METAR LRAR 301830Z 20005KT CAVOK 25/21 Q1008=
201907301900 METAR LRAR 301900Z 19006KT CAVOK 25/21 Q1009=
201907301930 METAR LRAR 301930Z 20006KT CAVOK 24/21 Q1009=
201907302000 METAR LRAR 302000Z 20006KT CAVOK 24/20 Q1009=
201907302030 METAR LRAR 302030Z 20007KT CAVOK 24/20 Q1009=
201907302100 METAR LRAR 302100Z 21005KT CAVOK 23/21 Q1009=
201907302130 METAR LRAR 302130Z 20003KT CAVOK 23/21 Q1009=
201907302200 METAR LRAR 302200Z 18003KT CAVOK 22/21 Q1009=
201907302230 METAR LRAR 302230Z 20004KT CAVOK 22/21 Q1009=
201907302300 METAR LRAR 302300Z 26002KT 230V290 9999 VCTS FEW055CB 21/21
                        Q1009=
201907302330 METAR LRAR 302330Z 18003KT 9999 FEW057CB 21/21 Q1009=
201907310000 METAR LRAR 310000Z 21004KT 9999 FEW057CB 21/21 Q1009=
201907310030 METAR LRAR 310030Z VRB01KT 8000 SCT040 FEW056CB 21/21 Q1009=
201907310100 METAR LRAR 310100Z VRB01KT 7000 SCT042 21/21 Q1009=
201907310130 METAR LRAR 310130Z 24002KT 180V280 8000 NSC 21/21 Q1009=
201907310200 METAR LRAR 310200Z 00000KT 5000 BR NSC 20/20 Q1009=
201907310230 METAR LRAR 310230Z VRB02KT 6000 MIFG NSC 20/20 Q1009=
201907310300 METAR COR LRAR 310300Z VRB02KT 5000 MIFG BR NSC 20/20 Q1009=
201907310330 METAR LRAR 310330Z VRB02KT 4000 MIFG BR NSC 20/20 Q1010=
201907310400 METAR LRAR 310400Z 24002KT 4000 MIFG NSC 20/20 Q1010=
201907310430 METAR LRAR 310430Z 22002KT 8000 MIFG NSC 21/21 Q1010=
201907310500 METAR LRAR 310500Z 22002KT 170V260 CAVOK 22/21 Q1010=
201907310530 METAR LRAR 310530Z VRB01KT CAVOK 23/21 Q1010=
201907310600 METAR LRAR 310600Z VRB01KT CAVOK 23/21 Q1010=
201907310630 METAR LRAR 310630Z VRB02KT CAVOK 24/21 Q1010=
201907310700 METAR LRAR 310700Z 28004KT 230V330 9999 FEW020 25/21 Q1010=
201907310730 METAR LRAR 310730Z VRB02KT 9999 FEW020 26/22 Q1011=
201907310800 METAR LRAR 310800Z 22005KT 170V250 9999 FEW025 26/20 Q1011=
201907310830 METAR LRAR 310830Z 27004KT 200V360 9999 FEW030 27/21 Q1011=
201907310900 METAR LRAR 310900Z 24004KT 220V280 9999 SCT030 27/21 Q1011=
201907310930 METAR LRAR 310930Z 26006KT 230V300 9999 SCT027 28/22 Q1011=
201907311000 METAR LRAR 311000Z 26006KT 210V320 9999 SCT027 28/21 Q1011=
201907311030 METAR LRAR 311030Z AUTO 29005KT 250V350 9999 FEW029/// 29/21
                        Q1011=
201907311100 METAR LRAR 311100Z 26005KT 210V350 9999 SCT030 29/21 Q1010=
201907311130 METAR LRAR 311130Z 30006KT 250V340 9999 SCT040 29/20 Q1010=
201907311200 METAR LRAR 311200Z 30008KT 280V340 9999 SCT038 30/20 Q1010=
201907311230 METAR LRAR 311230Z 32007KT 280V360 9999 SCT037 30/21 Q1010=
201907311300 METAR LRAR 311300Z 33006KT 280V020 9999 FEW035TCU SCT040
                        31/21 Q1010=
201907311330 METAR LRAR 311330Z 32007KT 270V040 9999 FEW035TCU SCT041
                        30/21 Q1010=
201907311400 METAR LRAR 311400Z 35005KT 270V050 9999 SCT042 31/20 Q1010=
201907311430 METAR LRAR 311430Z 02006KT 340V040 9999 SCT045 30/21 Q1010=
201907311500 METAR LRAR 311500Z 07013KT 9999 TS SCT043CB 28/19 Q1010=
201907311530 METAR LRAR 311530Z 09011KT 9999 TS SCT035CB 26/19 Q1010=
201907311600 METAR LRAR 311600Z 02007KT 330V090 8000 TSRA FEW015 BKN040CB
                        25/21 Q1011 R09/29//95=
201907311630 METAR LRAR 311630Z 19005KT 160V240 2400 +TSRA SCT011 BKN040CB
                        22/22 Q1011 R09/29//95=
201907311700 METAR LRAR 311700Z 17005KT 110V230 9999 -TSRA VCSH FEW006
                        SCT020 BKN035CB 22/22 Q1010 RESHRA
                        R09/29//95=
201907311730 METAR LRAR 311730Z 16003KT 130V190 9999 VCTS FEW025 SCT040CB
                        22/22 Q1011 RESHRA R09/29//95=
201907311800 METAR LRAR 311800Z VRB02KT 9999 -TSRA FEW009 SCT016 BKN040CB
                        22/22 Q1011 R09/29//95=
201907311830 METAR LRAR 311830Z 01013KT 330V040 9999 -SHRA VCTS FEW009
                        SCT015 BKN040CB 22/22 Q1013 RETS
                        R09/29//95=
201907311900 METAR LRAR 311900Z 35006KT 300V050 9999 -TSRA FEW009 SCT020
                        BKN040CB 21/21 Q1013 R09/29//95=
201907311930 METAR COR LRAR 311930Z 10009KT 8000 -TSRA SCT012 OVC035CB
                        20/20 Q1011 RESHRA R09/29//95=
201907312000 METAR LRAR 312000Z 28005KT 9999 TS FEW010 SCT035CB 20/20
                        Q1012 RESHRA R09/29//95=
201907312030 METAR LRAR 312030Z 27003KT 240V310 9999 VCTS FEW035CB 20/20
                        Q1013 RETS R09/29//95=
201907312100 METAR LRAR 312100Z 30005KT 260V320 9999 FEW035CB 20/20 Q1013
                        RETS R09/29//95=
201907312130 METAR LRAR 312130Z 23006KT 200V270 9999 FEW035CB 20/20 Q1013
                        R09/29//95=
201907312200 METAR LRAR 312200Z 17004KT 150V240 CAVOK 20/20 Q1011 R09/29//95=
201907312230 METAR LRAR 312230Z 06005KT CAVOK 20/20 Q1012 R09/29//95=
201907312300 METAR LRAR 312300Z 35004KT 320V030 9999 SCT011 20/20 Q1012
                        R09/29//95=
201907312330 METAR LRAR 312330Z 06003KT 020V080 9999 FEW012 20/20 Q1012
                        R09/29//95=
