201908010200 TAF LRAR 010200Z 0103/0112 30005KT 3000 BR NSC
                      PROB30 TEMPO 0103/0105 0600 FG BKN002
                      BECMG 0106/0108 CAVOK=
201908010500 TAF LRAR 010500Z 0106/0115 VRB04KT CAVOK
                      PROB40 TEMPO 0110/0115 35015G25KT 5000 -TSRA
                       SCT040CB=
201908010800 TAF LRAR 010800Z 0109/0118 31005KT 9999 SCT010 SCT040CB
                      TEMPO 0109/0116 31015G25KT 5000 -TSRA=
201908011100 TAF LRAR 011100Z 0112/0121 31005KT 9999 SCT040CB
                      PROB30 TEMPO 0113/0116 31015G25KT 5000 -TSRA
                       BECMG 0116/0118 NSC=
201908011400 TAF LRAR 011400Z 0115/0124 30010KT 9999 SCT035
                      BECMG 0118/0120 VRB04KT=
201908011700 TAF LRAR 011700Z 0118/0203 VRB04KT CAVOK
                      TEMPO 0118/0120 SCT045CB
                      BECMG 0122/0124 3000 BR
                      PROB40 TEMPO 0200/0203 0800 FG BKN002=
201908012000 TAF LRAR 012000Z 0121/0206 VRB04KT CAVOK
                      BECMG 0122/0124 3000 BR
                      PROB40 TEMPO 0200/0203 0800 FG BKN002
                      BECMG 0203/0205 9999 NSW=
201908012300 TAF LRAR 012300Z 0200/0209 VRB04KT 5000 BR NSC
                      TEMPO 0200/0204 1500 BR BKN005
                      PROB40 TEMPO 0201/0203 0800 FG BKN002
                      BECMG 0204/0206 CAVOK=
201908020200 TAF LRAR 020200Z 0203/0212 VRB04KT CAVOK
                      TEMPO 0203/0205 3000 BR=
201908020500 TAF LRAR 020500Z 0206/0215 VRB04KT CAVOK
                      BECMG 0210/0212 06010KT
                      TEMPO 0212/0215 FEW050CB=
201908020800 TAF LRAR 020800Z 0209/0218 VRB04KT CAVOK
                      BECMG 0210/0212 06010KT
                      TEMPO 0212/0218 FEW050CB=
201908021100 TAF LRAR 021100Z 0212/0221 06006KT 9999 SCT030
                      TEMPO 0212/0218 SCT040CB
                      PROB30 TEMPO 0218/0221 VRB20KT -TSRA SCT010
                       SCT035CB=
201908021400 TAF LRAR 021400Z 0215/0224 06006KT 9999 SCT040
                      TEMPO 0215/0217 SCT040CB
                      PROB30 TEMPO 0217/0222 VRB20KT -TSRA SCT010
                       SCT035CB=
201908021700 TAF LRAR 021700Z 0218/0303 03006KT 9999 SCT045CB
                      TEMPO 0218/0223 VRB20G30KT 3000 TSRA BKN010
                       BKN035CB
                      BECMG 0223/0301 33016KT 3000 SHRA BKN010
                       SCT035CB BKN040=
201908022000 TAF LRAR 022000Z 0221/0306 04010KT 9999 SCT045CB
                      TEMPO 0221/0223 VRB15G25KT 5000 -TSRA BKN010
                       BKN035CB
                      BECMG 0223/0301 33016KT 3000 SHRA BKN010
                       SCT035CB BKN040
                      BECMG 0304/0306 5000 -RA -SHRA=
201908022300 TAF LRAR 022300Z 0300/0309 06010KT CAVOK
                      BECMG 0300/0302 33016KT 3000 SHRA BKN010
                       SCT035CB BKN040
                      BECMG 0304/0306 5000 -RA -SHRA
                      BECMG 0307/0309 9999 NSW SCT015 SCT030=
201908030200 TAF LRAR 030200Z 0303/0312 36006KT 9999 SCT040
                      TEMPO 0303/0306 5000 -RA -SHRA BKN010 SCT035CB
                       BKN040
                      BECMG 0309/0311 30012KT
                      TEMPO 0311/0312 5000 -SHRA SCT035CB=
201908030500 TAF LRAR 030500Z 0306/0315 35004KT 9999 BKN045
                      BECMG 0306/0308 35014KT
                      TEMPO 0306/0309 5000 -SHRA SCT040CB
                      TEMPO 0311/0315 5000 -TSRA SCT040CB=
201908030726 TAF AMD LRAR 030726Z 0307/0315 33008KT 9999 BKN010 BKN045
                      TEMPO 0307/0309 5000 -RA -SHRA BKN005 SCT040CB
                       TEMPO 0311/0315 5000 -TSRA SCT040CB=
201908030800 TAF LRAR 030800Z 0309/0318 33010KT 9999 BKN010 BKN040
                      BECMG 0309/0311 BKN040
                      TEMPO 0311/0316 5000 -TSRA SCT040CB=
201908031100 TAF LRAR 031100Z 0312/0321 33010KT 9999 BKN035
                      TEMPO 0312/0316 5000 -TSRA SCT040CB=
201908031400 TAF LRAR 031400Z 0315/0324 34012KT 9999 SCT040
                      TEMPO 0315/0317 5000 -TSRA SCT040CB
                      BECMG 0319/0321 VRB04KT 5000 BR=
201908031700 TAF LRAR 031700Z 0318/0403 33008KT CAVOK
                      BECMG 0319/0321 5000 BR
                      TEMPO 0323/0403 1500 BR BKN005=
201908032000 TAF LRAR 032000Z 0321/0406 30006KT CAVOK
                      BECMG 0321/0323 3000 BR
                      TEMPO 0323/0404 1500 BR BKN005
                      BECMG 0404/0406 9999 NSW=
201908032300 TAF LRAR 032300Z 0400/0409 30006KT CAVOK
                      TEMPO 0400/0404 3000 BR BKN005=
201908040200 TAF LRAR 040200Z 0403/0412 VRB04KT CAVOK
                      TEMPO 0403/0405 3000 BR BKN005
                      BECMG 0408/0410 35010KT=
201908040500 TAF LRAR 040500Z 0406/0415 VRB04KT CAVOK
                      PROB40 TEMPO 0406/0407 3000 BR BKN005
                      BECMG 0408/0410 35010KT=
201908040800 TAF LRAR 040800Z 0409/0418 32008KT CAVOK=
201908041100 TAF LRAR 041100Z 0412/0421 32008KT CAVOK
                      TEMPO 0412/0416 SCT030CB
                      PROB30 0412/0415 5000 -TSRA=
201908041400 TAF LRAR 041400Z 0415/0424 32008KT CAVOK
                      TEMPO 0415/0417 SCT040CB=
201908041700 TAF LRAR 041700Z 0418/0503 30006KT CAVOK
                      TEMPO 0500/0503 3000 BR=
201908042000 TAF LRAR 042000Z 0421/0506 VRB04KT CAVOK
                      TEMPO 0500/0504 3000 BR=
201908042300 TAF LRAR 042300Z 0500/0509 VRB04KT CAVOK
                      TEMPO 0500/0504 3000 BR=
201908050200 TAF LRAR 050200Z 0503/0512 VRB04KT CAVOK
                      TEMPO 0503/0505 3000 BR
                      BECMG 0509/0511 24010KT=
201908050500 TAF LRAR 050500Z 0506/0515 17006KT CAVOK
                      BECMG 0508/0511 24010KT
                      PROB30 TEMPO 0512/0515 FEW045CB=
201908050800 TAF LRAR 050800Z 0509/0518 21008KT CAVOK
                      PROB30 TEMPO 0512/0515 FEW045CB=
201908051100 TAF LRAR 051100Z 0512/0521 23008KT 9999 SCT045
                      PROB30 TEMPO 0512/0515 FEW040CB BKN045=
201908051400 TAF LRAR 051400Z 0515/0524 25007KT CAVOK=
201908051700 TAF LRAR 051700Z 0518/0603 25007KT CAVOK=
201908052000 TAF LRAR 052000Z 0521/0606 20005KT CAVOK
                      TEMPO 0600/0604 3000 BR=
201908052300 TAF LRAR 052300Z 0600/0609 VRB04KT CAVOK
                      TEMPO 0600/0605 3000 BR=
201908060200 TAF LRAR 060200Z 0603/0612 14006KT CAVOK
                      TEMPO 0603/0605 3000 BR=
201908060500 TAF LRAR 060500Z 0606/0615 16010KT CAVOK=
201908060800 TAF LRAR 060800Z 0609/0618 21010KT CAVOK=
201908061100 TAF LRAR 061100Z 0612/0621 23010KT CAVOK=
201908061400 TAF LRAR 061400Z 0615/0624 20008KT CAVOK=
201908061700 TAF LRAR 061700Z 0618/0703 VRB04KT CAVOK
                      PROB30 TEMPO 0618/0620 FEW045CB=
201908062000 TAF LRAR 062000Z 0621/0706 VRB04KT CAVOK=
201908062300 TAF LRAR 062300Z 0700/0709 VRB04KT CAVOK
                      BECMG 0707/0709 18012KT=
201908070200 TAF LRAR 070200Z 0703/0712 13008KT CAVOK
                      BECMG 0707/0709 19012KT=
201908070500 TAF LRAR 070500Z 0706/0715 16010KT CAVOK
                      BECMG 0712/0714 23010KT=
201908070800 TAF LRAR 070800Z 0709/0718 18012KT CAVOK
                      BECMG 0712/0714 24010KT=
201908071100 TAF LRAR 071100Z 0712/0721 22012KT CAVOK=
201908071400 TAF LRAR 071400Z 0715/0724 21010KT CAVOK=
201908071700 TAF LRAR 071700Z 0718/0803 20008KT CAVOK=
201908072000 TAF LRAR 072000Z 0721/0806 20008KT CAVOK=
201908072300 TAF LRAR 072300Z 0800/0809 20010KT CAVOK
                      BECMG 0805/0807 33008KT=
201908080200 TAF LRAR 080200Z 0803/0812 VRB04KT CAVOK=
201908080500 TAF LRAR 080500Z 0806/0815 28006KT CAVOK=
201908080800 TAF LRAR 080800Z 0809/0818 35008KT CAVOK=
201908081100 TAF LRAR 081100Z 0812/0821 35008KT CAVOK=
201908081400 TAF LRAR 081400Z 0815/0824 35008KT CAVOK=
201908081700 TAF LRAR 081700Z 0818/0903 35006KT CAVOK
                      TEMPO 0822/0903 SCT040CB
                      PROB40 TEMPO 0823/0903 VRB16KT 5000 TSRA=
201908082000 TAF LRAR 082000Z 0821/0906 35006KT CAVOK
                      TEMPO 0822/0904 SCT040CB
                      PROB40 TEMPO 0823/0904 VRB16KT 5000 TSRA=
201908082300 TAF LRAR 082300Z 0900/0909 35006KT 9999 SCT045
                      TEMPO 0900/0905 SCT040CB
                      PROB40 TEMPO 0901/0904 VRB16KT 5000 TSRA=
201908090200 TAF LRAR 090200Z 0903/0912 VRB04KT CAVOK=
201908090500 TAF LRAR 090500Z 0906/0915 26005KT CAVOK=
201908090800 TAF LRAR 090800Z 0909/0918 31005KT CAVOK=
201908091100 TAF LRAR 091100Z 0912/0921 33006KT CAVOK=
201908091400 TAF LRAR 091400Z 0915/0924 VRB03KT CAVOK=
201908091700 TAF LRAR 091700Z 0918/1003 VRB03KT CAVOK=
201908092000 TAF LRAR 092000Z 0921/1006 VRB03KT CAVOK=
201908092300 TAF LRAR 092300Z 1000/1009 VRB03KT CAVOK=
201908100200 TAF LRAR 100200Z 1003/1012 VRB03KT CAVOK=
201908100500 TAF LRAR 100500Z 1006/1015 13007KT CAVOK=
201908100800 TAF LRAR 100800Z 1009/1018 16006KT CAVOK=
201908101100 TAF LRAR 101100Z 1012/1021 VRB04KT CAVOK=
201908101400 TAF LRAR 101400Z 1015/1024 VRB04KT CAVOK=
201908101700 TAF LRAR 101700Z 1018/1103 VRB04KT CAVOK=
201908102000 TAF LRAR 102000Z 1021/1106 VRB04KT CAVOK=
201908102300 TAF LRAR 102300Z 1100/1109 VRB04KT CAVOK=
201908110200 TAF LRAR 110200Z 1103/1112 VRB04KT CAVOK=
201908110500 TAF LRAR 110500Z 1106/1115 VRB04KT CAVOK=
201908110800 TAF LRAR 110800Z 1109/1118 VRB04KT CAVOK=
201908111100 TAF LRAR 111100Z 1112/1121 VRB04KT CAVOK=
201908111400 TAF LRAR 111400Z 1115/1124 VRB04KT CAVOK=
201908111700 TAF LRAR 111700Z 1118/1203 VRB04KT CAVOK=
201908112000 TAF LRAR 112000Z 1121/1206 VRB04KT CAVOK
                      BECMG 1204/1206 16010KT=
201908112300 TAF LRAR 112300Z 1200/1209 VRB04KT CAVOK
                      BECMG 1205/1207 17012KT=
201908120200 TAF LRAR 120200Z 1203/1212 VRB04KT CAVOK
                      BECMG 1205/1207 17012KT=
201908120500 TAF LRAR 120500Z 1206/1215 12006KT CAVOK
                      BECMG 1207/1209 19012KT=
201908120800 TAF LRAR 120800Z 1209/1218 17010KT CAVOK=
201908121100 TAF LRAR 121100Z 1212/1221 20010KT CAVOK=
201908121400 TAF LRAR 121400Z 1215/1224 21010KT CAVOK=
201908121700 TAF LRAR 121700Z 1218/1303 VRB04KT CAVOK=
201908122000 TAF LRAR 122000Z 1221/1306 14007KT CAVOK=
201908122300 TAF LRAR 122300Z 1300/1309 14005KT CAVOK=
201908130200 TAF LRAR 130200Z 1303/1312 15008KT CAVOK=
201908130500 TAF LRAR 130500Z 1306/1315 13006KT CAVOK=
201908130800 TAF LRAR 130800Z 1309/1318 16006KT CAVOK
                      BECMG 1315/1317 36010KT=
201908131100 TAF LRAR 131100Z 1312/1321 16006KT CAVOK
                      BECMG 1315/1317 36010KT=
201908131400 TAF LRAR 131400Z 1315/1324 30006KT CAVOK
                      BECMG 1315/1317 36010KT=
201908131700 TAF LRAR 131700Z 1318/1403 33006KT CAVOK=
201908132000 TAF LRAR 132000Z 1321/1406 VRB04KT CAVOK=
201908132300 TAF LRAR 132300Z 1400/1409 VRB04KT CAVOK
                      BECMG 1405/1407 34018KT=
201908140200 TAF LRAR 140200Z 1403/1412 VRB04KT CAVOK
                      BECMG 1405/1407 34015KT
                      TEMPO 1409/1412 VRB25G35KT 3000 TSRA BKN010
                       BKN030CB
                      PROB30 1409/1412 1500 +TSRA=
201908140500 TAF LRAR 140500Z 1406/1415 33008KT CAVOK
                      BECMG 1408/1410 34018KT SCT040CB
                      TEMPO 1410/1414 VRB25G35KT 3000 TSRA BKN010
                       BKN030CB
                      PROB30 1410/1413 1500 +TSRA
                      BECMG 1413/1415 34008KT=
201908140800 TAF LRAR 140800Z 1409/1418 31018KT 9999 SCT035
                      TEMPO 1410/1415 VRB25G35KT 3000 TSRA BKN010
                       BKN030CB
                      BECMG 1414/1416 34008KT
                      PROB40 TEMPO 1415/1417 5000 TSRA SCT010 SCT035CB=
201908141100 TAF LRAR 141100Z 1412/1421 28010KT 9999 SCT010 BKN015
                      BECMG 1412/1414 SCT010 FEW020CB BKN030
                      TEMPO 1414/1417 5000 -TSRA
                      BECMG 1417/1419 35006KT NSC=
201908141400 TAF LRAR 141400Z 1415/1424 29010KT 9999 SCT030
                      TEMPO 1415/1417 5000 -SHRA SCT010 FEW025CB
                       BKN030
                      BECMG 1417/1419 35006KT=
201908141700 TAF LRAR 141700Z 1418/1503 29006KT 9999 SCT030
                      BECMG 1418/1420 35010KT
                      TEMPO 1418/1421 5000 -SHRA SCT010 FEW025CB
                       BKN030=
201908142000 TAF LRAR 142000Z 1421/1506 35008KT 9999 BKN035
                      TEMPO 1421/1424 BKN010 BKN030=
201908142300 TAF LRAR 142300Z 1500/1509 35005KT 9999 FEW040=
201908150200 TAF LRAR 150200Z 1503/1512 35005KT CAVOK=
201908150500 TAF LRAR 150500Z 1506/1515 34005KT CAVOK=
201908150800 TAF LRAR 150800Z 1509/1518 35006KT 9999 SCT025=
201908151100 TAF LRAR 151100Z 1512/1521 35006KT 9999 SCT035=
201908151400 TAF LRAR 151400Z 1515/1524 03010KT 9999 BKN045
                      BECMG 1518/1520 33006KT=
201908151700 TAF LRAR 151700Z 1518/1603 34006KT 9999 SCT045=
201908152000 TAF LRAR 152000Z 1521/1606 VRB04KT CAVOK=
201908152300 TAF LRAR 152300Z 1600/1609 30006KT CAVOK=
201908160200 TAF LRAR 160200Z 1603/1612 VRB04KT CAVOK
                      BECMG 1607/1609 32010KT=
201908160500 TAF LRAR 160500Z 1606/1615 VRB04KT CAVOK
                      BECMG 1607/1609 32010KT=
201908160800 TAF LRAR 160800Z 1609/1618 32008KT CAVOK=
201908161100 TAF LRAR 161100Z 1612/1621 32008KT CAVOK=
201908161400 TAF LRAR 161400Z 1615/1624 32008KT CAVOK=
201908161700 TAF LRAR 161700Z 1618/1703 VRB04KT CAVOK=
201908162000 TAF LRAR 162000Z 1621/1706 VRB04KT CAVOK=
201908162300 TAF LRAR 162300Z 1700/1709 VRB04KT CAVOK=
201908170200 TAF LRAR 170200Z 1703/1712 VRB04KT CAVOK=
201908170500 TAF LRAR 170500Z 1706/1715 VRB04KT CAVOK=
201908170800 TAF LRAR 170800Z 1709/1718 VRB04KT CAVOK=
201908171100 TAF LRAR 171100Z 1712/1721 26006KT 9999 SCT045=
201908171400 TAF LRAR 171400Z 1715/1724 26006KT 9999 SCT045=
201908171700 TAF LRAR 171700Z 1718/1803 VRB04KT CAVOK=
201908172000 TAF LRAR 172000Z 1721/1806 VRB04KT CAVOK=
201908172300 TAF LRAR 172300Z 1800/1809 VRB04KT CAVOK=
201908180200 TAF LRAR 180200Z 1803/1812 VRB04KT CAVOK=
201908180500 TAF LRAR 180500Z 1806/1815 VRB04KT CAVOK=
201908180800 TAF LRAR 180800Z 1809/1818 VRB04KT CAVOK=
201908181100 TAF LRAR 181100Z 1812/1821 VRB04KT 9999 SCT030=
201908181400 TAF LRAR 181400Z 1815/1824 VRB04KT CAVOK=
201908181700 TAF LRAR 181700Z 1818/1903 VRB04KT CAVOK=
201908182000 TAF LRAR 182000Z 1821/1906 VRB04KT CAVOK=
201908182300 TAF LRAR 182300Z 1900/1909 14006KT CAVOK=
201908190200 TAF LRAR 190200Z 1903/1912 13008KT CAVOK=
201908190500 TAF LRAR 190500Z 1906/1915 13008KT CAVOK=
201908190800 TAF LRAR 190800Z 1909/1918 15008KT CAVOK=
201908191100 TAF LRAR 191100Z 1912/1921 15008KT CAVOK=
201908191400 TAF LRAR 191400Z 1915/1924 VRB04KT CAVOK=
201908191700 TAF LRAR 191700Z 1918/2003 VRB04KT CAVOK=
201908192000 TAF LRAR 192000Z 1921/2006 VRB04KT CAVOK=
201908192300 TAF LRAR 192300Z 2000/2009 VRB04KT CAVOK=
201908200200 TAF LRAR 200200Z 2003/2012 14006KT CAVOK=
201908200500 TAF LRAR 200500Z 2006/2015 14008KT CAVOK=
201908200800 TAF LRAR 200800Z 2009/2018 20008KT CAVOK=
201908201100 TAF LRAR 201100Z 2012/2021 20006KT CAVOK=
201908201400 TAF LRAR 201400Z 2015/2024 VRB04KT CAVOK=
201908201700 TAF LRAR 201700Z 2018/2103 VRB04KT CAVOK=
201908202000 TAF LRAR 202000Z 2021/2106 VRB04KT CAVOK=
201908202300 TAF LRAR 202300Z 2100/2109 14005KT CAVOK=
201908210200 TAF LRAR 210200Z 2103/2112 14005KT CAVOK=
201908210500 TAF LRAR 210500Z 2106/2115 14008KT CAVOK=
201908210800 TAF LRAR 210800Z 2109/2118 VRB04KT CAVOK=
201908211100 TAF LRAR 211100Z 2112/2121 28008KT CAVOK=
201908211400 TAF LRAR 211400Z 2115/2124 VRB04KT CAVOK=
201908211700 TAF LRAR 211700Z 2118/2203 VRB04KT CAVOK=
201908212000 TAF LRAR 212000Z 2121/2206 34008KT CAVOK=
201908212300 TAF LRAR 212300Z 2200/2209 VRB04KT CAVOK=
201908220200 TAF LRAR 220200Z 2203/2212 02010KT CAVOK=
201908220500 TAF LRAR 220500Z 2206/2215 01010KT CAVOK
                      TEMPO 2213/2215 VRB15G25KT -TSRA SCT040CB=
201908220800 TAF LRAR 220800Z 2209/2218 VRB04KT CAVOK
                      TEMPO 2213/2216 VRB15G25KT -TSRA SCT040CB=
201908221100 TAF LRAR 221100Z 2212/2221 VRB04KT CAVOK
                      PROB40 TEMPO 2214/2217 VRB15G25KT -TSRA SCT040CB=
201908221400 TAF LRAR 221400Z 2215/2224 VRB04KT CAVOK
                      TEMPO 2215/2218 FEW040CB
                      PROB30 TEMPO 2215/2218 VRB15G25KT -TSRA=
201908221700 TAF LRAR 221700Z 2218/2303 VRB04KT CAVOK=
201908222000 TAF LRAR 222000Z 2221/2306 VRB04KT CAVOK=
201908222300 TAF LRAR 222300Z 2300/2309 04006KT CAVOK=
201908230200 TAF LRAR 230200Z 2303/2312 VRB04KT CAVOK=
201908230500 TAF LRAR 230500Z 2306/2315 VRB04KT CAVOK
                      PROB30 TEMPO 2313/2315 SCT045CB=
201908230800 TAF LRAR 230800Z 2309/2318 VRB04KT CAVOK
                      PROB30 TEMPO 2313/2317 SCT045CB=
201908231100 TAF LRAR 231100Z 2312/2321 VRB04KT CAVOK
                      PROB30 TEMPO 2313/2317 07010KT SCT045CB=
201908231400 TAF LRAR 231400Z 2315/2324 VRB04KT CAVOK
                      PROB30 TEMPO 2315/2317 07010KT SCT045CB=
201908231608 TAF AMD LRAR 231608Z 2316/2324 10018G28KT 9999 TS SCT040CB
                      TEMPO 2316/2317 5000 TSRA
                      BECMG 2317/2319 07008KT CAVOK=
201908231700 TAF LRAR 231700Z 2318/2403 05006KT CAVOK=
201908232000 TAF LRAR 232000Z 2321/2406 05006KT CAVOK=
201908232300 TAF LRAR 232300Z 2400/2409 05006KT CAVOK=
201908240200 TAF LRAR 240200Z 2403/2412 VRB04KT CAVOK=
201908240500 TAF LRAR 240500Z 2406/2415 VRB04KT CAVOK
                      TEMPO 2413/2415 SCT040CB=
201908240800 TAF LRAR 240800Z 2409/2418 17008KT CAVOK
                      TEMPO 2413/2417 SCT040CB=
201908241100 TAF LRAR 241100Z 2412/2421 VRB04KT 9999 SCT045
                      TEMPO 2413/2417 SCT040CB=
201908241400 TAF LRAR 241400Z 2415/2424 VRB04KT 9999 SCT045
                      TEMPO 2415/2417 SCT040CB=
201908241700 TAF LRAR 241700Z 2418/2503 VRB04KT CAVOK=
201908241854 TAF AMD LRAR 241854Z 2418/2503 VRB04KT 9999 SCT050CB
                      TEMPO 2418/2420 -TSRA
                      BECMG 2420/2422 CAVOK=
201908242000 TAF LRAR 242000Z 2421/2506 VRB04KT CAVOK
                      PROB30 TEMPO 2421/2423 -TSRA SCT050CB=
201908242300 TAF LRAR 242300Z 2500/2509 VRB04KT CAVOK=
201908250200 TAF LRAR 250200Z 2503/2512 13008KT CAVOK
                      TEMPO 2510/2512 SCT045CB=
201908250500 TAF LRAR 250500Z 2506/2515 14008KT 9999 SCT045
                      TEMPO 2509/2515 SCT045CB=
201908250800 TAF LRAR 250800Z 2509/2518 14008KT 9999 SCT045
                      TEMPO 2510/2516 SCT045CB=
201908251100 TAF LRAR 251100Z 2512/2521 27008KT 9999 SCT045
                      TEMPO 2512/2517 SCT045CB
                      TEMPO 2513/2516 VRB15G25KT 5000 -TSRA=
201908251158 TAF COR LRAR 251158Z 2512/2521 27008KT 9999 SCT045
                      TEMPO 2512/2517 VRB15G25KT 5000 -TSRA SCT045CB=
201908251400 TAF LRAR 251400Z 2515/2524 25006KT 9999 SCT045CB
                      TEMPO 2515/2518 VRB15G25KT 5000 -TSRA
                      BECMG 2518/2520 NSC
                      PROB30 TEMPO 2522/2524 5000 -TSRA SCT045CB=
201908251700 TAF LRAR 251700Z 2518/2603 VRB04KT 9999 FEW045CB
                      TEMPO 2521/2602 5000 -TSRA
                      PROB40 TEMPO 2522/2601 VRB20G30KT 1500 +TSRA
                       BKN010 BKN040CB=
201908252000 TAF LRAR 252000Z 2521/2606 12006KT CAVOK
                      TEMPO 2521/2602 5000 -TSRA SCT040CB
                      PROB40 TEMPO 2521/2524 VRB20G30KT 1500 +TSRA
                       BKN010 BKN035CB=
201908252300 TAF LRAR 252300Z 2600/2609 12006KT 9999 SCT045
                      TEMPO 2600/2604 5000 -TSRA SCT040CB
                      PROB40 TEMPO 2600/2603 VRB20G30KT 1500 +TSRA
                       BKN010 BKN035CB=
201908260200 TAF LRAR 260200Z 2603/2612 12010KT 9999 SCT045
                      PROB30 TEMPO 2603/2605 3000 TSRA BKN040CB
                       BECMG 2609/2611 04010KT=
201908260500 TAF LRAR 260500Z 2606/2615 13006KT 9999 SCT015 SCT045CB
                      TEMPO 2606/2609 5000 SHRA
                      BECMG 2609/2610 SCT040
                      PROB30 TEMPO 2613/2615 5000 -TSRA SCT045CB=
201908260800 TAF LRAR 260800Z 2609/2618 13006KT 9999 SCT025 SCT045
                      TEMPO 2609/2612 SCT025 SCT045CB
                      PROB30 TEMPO 2610/2612 5000 -SHRA SCT015
                       BKN035CB
                      PROB40 TEMPO 2614/2618 5000 -TSRA SCT045CB=
201908261100 TAF LRAR 261100Z 2612/2621 12006KT 9999 SCT040
                      PROB40 TEMPO 2614/2619 5000 -TSRA SCT040CB=
201908261400 TAF LRAR 261400Z 2615/2624 10006KT CAVOK=
201908261700 TAF LRAR 261700Z 2618/2703 08008KT CAVOK
                      PROB30 TEMPO 2620/2623 VRB15G25KT 5000 -TSRA
                       SCT040CB=
201908262000 TAF LRAR 262000Z 2621/2706 08006KT 9999 SCT040
                      PROB30 TEMPO 2621/2624 VRB15G25KT 5000 -TSRA
                       SCT040CB
                      PROB30 TEMPO 2700/2705 5000 BR=
201908262300 TAF LRAR 262300Z 2700/2709 VRB04KT 9999 SCT040
                      PROB30 TEMPO 2700/2705 5000 BR=
201908270200 TAF LRAR 270200Z 2703/2712 VRB04KT CAVOK=
201908270500 TAF LRAR 270500Z 2706/2715 14008KT CAVOK=
201908270800 TAF LRAR 270800Z 2709/2718 14008KT CAVOK=
201908271100 TAF LRAR 271100Z 2712/2721 14008KT CAVOK=
201908271400 TAF LRAR 271400Z 2715/2724 11006KT CAVOK=
201908271503 TAF AMD LRAR 271503Z 2715/2724 08006KT 9999 TS FEW050CB
                      BECMG 2715/2717 CAVOK=
201908271700 TAF LRAR 271700Z 2718/2803 10006KT CAVOK
                      TEMPO 2718/2719 FEW050CB=
201908272000 TAF LRAR 272000Z 2721/2806 10006KT CAVOK=
201908272300 TAF LRAR 272300Z 2800/2809 10006KT CAVOK=
201908280200 TAF LRAR 280200Z 2803/2812 14008KT CAVOK=
201908280500 TAF LRAR 280500Z 2806/2815 14008KT CAVOK=
201908280800 TAF LRAR 280800Z 2809/2818 14008KT CAVOK=
201908281100 TAF LRAR 281100Z 2812/2821 16008KT CAVOK=
201908281400 TAF LRAR 281400Z 2815/2824 VRB04KT CAVOK=
201908281450 TAF AMD LRAR 281450Z 2815/2824 VRB04KT CAVOK
                      TEMPO 2815/2817 5000 -TSRA SCT030CB=
201908281700 TAF LRAR 281700Z 2818/2903 10005KT CAVOK=
201908282000 TAF LRAR 282000Z 2821/2906 14005KT CAVOK=
201908282300 TAF LRAR 282300Z 2900/2909 14006KT CAVOK=
201908290200 TAF LRAR 290200Z 2903/2912 14006KT CAVOK=
201908290500 TAF LRAR 290500Z 2906/2915 14008KT CAVOK=
201908290800 TAF LRAR 290800Z 2909/2918 14008KT CAVOK=
201908291100 TAF LRAR 291100Z 2912/2921 14008KT CAVOK=
201908291400 TAF LRAR 291400Z 2915/2924 VRB04KT CAVOK=
201908291700 TAF LRAR 291700Z 2918/3003 07006KT CAVOK=
201908292000 TAF LRAR 292000Z 2921/3006 VRB04KT CAVOK=
201908292300 TAF LRAR 292300Z 3000/3009 VRB04KT CAVOK=
201908300200 TAF LRAR 300200Z 3003/3012 VRB04KT CAVOK
                      BECMG 3008/3010 03012KT=
201908300500 TAF LRAR 300500Z 3006/3015 VRB04KT CAVOK
                      BECMG 3008/3010 03010KT
                      TEMPO 3012/3015 SCT040CB
                      PROB30 TEMPO 3013/3015 VRB20G30KT 5000 -TSRA
                       BKN010 BKN030CB=
201908300800 TAF LRAR 300800Z 3009/3018 VRB04KT CAVOK
                      BECMG 3009/3011 03010KT
                      TEMPO 3012/3018 SCT040CB
                      PROB30 TEMPO 3014/3017 VRB20G30KT -TSRA=
201908301100 TAF LRAR 301100Z 3012/3021 02008KT 9999 SCT040
                      TEMPO 3012/3018 SCT040CB
                      PROB30 TEMPO 3014/3017 VRB20G30KT 5000 TSRA=
201908301400 TAF LRAR 301400Z 3015/3024 02008KT 9999 SCT045
                      TEMPO 3015/3018 SCT045CB
                      PROB30 TEMPO 3015/3017 VRB20G30KT 5000 TSRA=
201908301700 TAF LRAR 301700Z 3018/3103 VRB04KT 9999 FEW045CB
                      BECMG 3018/3020 NSC=
201908302000 TAF LRAR 302000Z 3021/3106 VRB04KT CAVOK
                      BECMG 3104/3106 12010KT=
201908302300 TAF LRAR 302300Z 3100/3109 VRB04KT CAVOK
                      BECMG 3104/3106 12010KT=
201908310200 TAF LRAR 310200Z 3103/3112 12008KT CAVOK=
201908310500 TAF LRAR 310500Z 3106/3115 12006KT CAVOK=
201908310800 TAF LRAR 310800Z 3109/3118 12008KT CAVOK
                      TEMPO 3113/3117 SCT040CB=
201908311100 TAF LRAR 311100Z 3112/3121 VRB04KT CAVOK
                      TEMPO 3113/3117 SCT040CB=
201908311400 TAF LRAR 311400Z 3115/3124 VRB04KT CAVOK
                      TEMPO 3115/3118 SCT035CB
                      PROB30 TEMPO 3115/3117 VRB15G25KT 5000 -TSRA=
201908311700 TAF LRAR 311700Z 3118/0103 VRB04KT 9999 FEW055CB
                      BECMG 3118/3120 NSC=
201908312000 TAF LRAR 312000Z 3121/0106 15006KT CAVOK=
201908312300 TAF LRAR 312300Z 0100/0109 15006KT CAVOK=
