201908010000 METAR LRAR 010000Z 09004KT 8000 NSC 20/20 Q1012 R09/29//95=
201908010030 METAR LRAR 010030Z VRB01KT 8000 NSC 20/20 Q1012 R09/29//95=
201908010100 METAR LRAR 010100Z VRB02KT 6000 MIFG NSC 19/19 Q1013 R09/29//95=
201908010130 METAR LRAR 010130Z 31005KT 5000 MIFG BR NSC 18/18 Q1013 R09/29//95=
201908010200 METAR LRAR 010200Z 30005KT 2400 BR SCT003 18/18 Q1014 R09/29//95=
201908010230 METAR LRAR 010230Z 31007KT 6000 FEW001 BKN005 19/19 Q1014
                        R09/29//95=
201908010300 METAR LRAR 010300Z 36004KT 320V040 8000 FEW004 SCT019 19/19
                        Q1013 R09/29//95=
201908010330 METAR LRAR 010330Z 03003KT 8000 FEW006 19/19 Q1013 R09/29//95=
201908010400 METAR LRAR 010400Z 10001KT 9999 FEW007 FEW040CB 19/19 Q1013
                        R09/29//95=
201908010430 METAR LRAR 010430Z 18002KT 9999 FEW040CB 19/19 Q1013 R09/29//95=
201908010500 METAR LRAR 010500Z 10003KT CAVOK 21/21 Q1013 R09/CLRD//=
201908010530 METAR LRAR 010530Z 08003KT 050V120 9999 FEW045CB 23/22 Q1013=
201908010600 METAR LRAR 010600Z 09004KT 040V120 9999 FEW045CB 23/21 Q1013=
201908010630 METAR LRAR 010630Z VRB02KT 9999 FEW045CB 25/20 Q1013=
201908010700 METAR LRAR 010700Z 30005KT 9999 SCT018 FEW040CB 24/21 Q1014=
201908010730 METAR LRAR 010730Z 30005KT 9999 -SHRA SCT019 BKN022 FEW040CB
                        23/21 Q1014=
201908010800 METAR LRAR 010800Z 31005KT 270V340 9999 FEW005 SCT032 FEW045CB
                        23/22 Q1014=
201908010830 METAR LRAR 010830Z 29004KT 9999 SCT010 FEW040CB 23/22 Q1014=
201908010900 METAR LRAR 010900Z 27004KT 240V300 9999 SCT009 FEW040CB 24/22
                        Q1014=
201908010930 METAR LRAR 010930Z 29006KT 230V330 9999 SCT012 FEW040CB 24/22
                        Q1014=
201908011000 METAR LRAR 011000Z 30006KT 260V350 9999 FEW016 SCT020 25/21
                        Q1014=
201908011030 METAR LRAR 011030Z 28007KT 240V320 9999 FEW018 SCT022 25/22
                        Q1014=
201908011100 METAR LRAR 011100Z 31006KT 230V340 9999 FEW018 BKN024 FEW040CB
                        26/21 Q1014=
201908011130 METAR LRAR 011130Z 29006KT 250V330 9999 BKN025 FEW040CB 27/21
                        Q1014=
201908011200 METAR LRAR 011200Z 28007KT 250V320 9999 BKN030 FEW040CB 27/20
                        Q1014=
201908011230 METAR LRAR 011230Z 28007KT 230V330 9999 BKN033 FEW040CB 27/21
                        Q1013=
201908011300 METAR LRAR 011300Z 30009KT 260V340 9999 BKN035 FEW043CB 28/21
                        Q1013=
201908011330 METAR LRAR 011330Z 31008KT 280V340 9999 BKN033 28/21 Q1013=
201908011400 METAR LRAR 011400Z 30010KT 270V330 9999 BKN033 28/20 Q1013=
201908011430 METAR LRAR 011430Z 29010KT 260V320 9999 BKN037 29/21 Q1013=
201908011500 METAR LRAR 011500Z 29009KT 9999 SCT038 FEW043TCU 29/20 Q1013=
201908011530 METAR LRAR 011530Z 31008KT 270V330 9999 SCT040 FEW045TCU
                        29/20 Q1013=
201908011600 METAR LRAR 011600Z 32008KT CAVOK 28/19 Q1012=
201908011630 METAR LRAR 011630Z 31006KT 270V330 CAVOK 28/19 Q1012=
201908011700 METAR LRAR 011700Z 29006KT 9999 FEW045CB 27/20 Q1012=
201908011730 METAR LRAR 011730Z 30004KT 9999 FEW045CB 26/21 Q1012=
201908011800 METAR LRAR 011800Z 26003KT 9999 FEW045CB 25/22 Q1013=
201908011830 METAR LRAR 011830Z 26004KT CAVOK 24/22 Q1013=
201908011900 METAR LRAR 011900Z 27006KT CAVOK 23/21 Q1013=
201908011930 METAR LRAR 011930Z 31003KT 250V360 CAVOK 22/21 Q1013=
201908012000 METAR LRAR 012000Z 30004KT CAVOK 21/21 Q1013=
201908012030 METAR LRAR 012030Z 25003KT CAVOK 22/20 Q1013=
201908012100 METAR LRAR 012100Z 25003KT CAVOK 21/21 Q1013=
201908012130 METAR LRAR 012130Z 24004KT CAVOK 20/20 Q1013=
201908012200 METAR LRAR 012200Z 24004KT CAVOK 20/20 Q1013=
201908012230 METAR LRAR 012230Z 22002KT 170V230 CAVOK 20/20 Q1013=
201908012300 METAR LRAR 012300Z 22003KT CAVOK 20/19 Q1013=
201908012330 METAR LRAR 012330Z 26003KT CAVOK 20/19 Q1013=
201908020000 METAR LRAR 020000Z 26003KT CAVOK 19/18 Q1013=
201908020030 METAR LRAR 020030Z 27004KT CAVOK 19/18 Q1013=
201908020100 METAR LRAR 020100Z VRB01KT CAVOK 18/18 Q1013=
201908020130 METAR LRAR 020130Z 24002KT CAVOK 18/18 Q1013=
201908020200 METAR LRAR 020200Z 24002KT CAVOK 18/17 Q1013=
201908020230 METAR LRAR 020230Z VRB01KT CAVOK 18/18 Q1013=
201908020300 METAR LRAR 020300Z 16002KT 130V190 CAVOK 17/17 Q1013=
201908020330 METAR LRAR 020330Z 15002KT CAVOK 16/16 Q1013=
201908020400 METAR LRAR 020400Z 19001KT 8000 MIFG NSC 17/17 Q1013=
201908020430 METAR LRAR 020430Z VRB01KT CAVOK 18/18 Q1013=
201908020500 METAR LRAR 020500Z VRB02KT CAVOK 19/19 Q1013=
201908020530 METAR LRAR 020530Z VRB02KT CAVOK 20/18 Q1013=
201908020600 METAR LRAR 020600Z VRB01KT CAVOK 22/18 Q1013=
201908020630 METAR LRAR 020630Z VRB01KT CAVOK 23/18 Q1013=
201908020700 METAR LRAR 020700Z VRB01KT CAVOK 24/18 Q1013=
201908020730 METAR LRAR 020730Z VRB02KT CAVOK 25/18 Q1013=
201908020800 METAR LRAR 020800Z 15002KT 090V210 CAVOK 26/18 Q1013=
201908020830 METAR LRAR 020830Z VRB02KT 9999 FEW030 27/17 Q1012=
201908020900 METAR LRAR 020900Z VRB02KT 9999 SCT030 28/16 Q1012=
201908020930 METAR LRAR 020930Z VRB03KT 9999 SCT033 28/16 Q1012=
201908021000 METAR LRAR 021000Z VRB03KT 9999 FEW025 BKN035 28/15 Q1012=
201908021030 METAR LRAR 021030Z VRB03KT 9999 FEW028 BKN035 29/16 Q1012=
201908021100 METAR LRAR 021100Z VRB05KT 9999 SCT028 BKN040 29/13 Q1012=
201908021130 METAR LRAR 021130Z VRB05KT 9999 SCT029 BKN040 30/14 Q1012=
201908021200 METAR LRAR 021200Z VRB03KT 9999 SCT030 BKN042 30/15 Q1011=
201908021230 METAR LRAR 021230Z VRB04KT 9999 SCT035 BKN042 29/14 Q1011=
201908021300 METAR LRAR 021300Z VRB05KT 9999 SCT033 BKN044 29/14 Q1011=
201908021330 METAR LRAR 021330Z VRB04KT 9999 FEW035 BKN045 30/14 Q1010=
201908021400 METAR LRAR 021400Z VRB03KT 9999 FEW035 BKN046 30/14 Q1010=
201908021430 METAR COR LRAR 021430Z 30004KT 250V340 9999 FEW026 SCT045
                        30/14 Q1010=
201908021500 METAR LRAR 021500Z VRB05KT 9999 SCT045 28/16 Q1010=
201908021530 METAR LRAR 021530Z 32005KT 9999 SCT048 28/17 Q1010=
201908021600 METAR LRAR 021600Z 33005KT CAVOK 28/16 Q1009=
201908021630 METAR LRAR 021630Z 02005KT 9999 FEW050CB 27/17 Q1009=
201908021700 METAR LRAR 021700Z 03006KT 9999 FEW050CB 27/17 Q1009=
201908021730 METAR LRAR 021730Z 05007KT 9999 FEW045CB 26/16 Q1008=
201908021800 METAR LRAR 021800Z 04010KT 9999 TS BKN045CB 24/18 Q1008=
201908021830 METAR LRAR 021830Z 04009KT 9999 TS BKN045CB 24/17 Q1009=
201908021900 METAR LRAR 021900Z 05005KT 020V090 9999 -TSRA BKN050CB 23/17
                        Q1009=
201908021930 METAR COR LRAR 021930Z 06004KT 9999 -SHRA FEW011 SCT045CB
                        22/18 Q1009 RETS=
201908022000 METAR LRAR 022000Z 02005KT 340V070 9999 -SHRA FEW012 SCT040CB
                        22/19 Q1009 RETS=
201908022030 METAR LRAR 022030Z 29007KT 260V330 9999 -SHRA SCT040CB 21/20
                        Q1009=
201908022100 METAR LRAR 022100Z 34008KT 9999 -SHRA SCT043CB 20/18 Q1010=
201908022130 METAR LRAR 022130Z 01010KT 9999 FEW009 FEW045CB 19/19 Q1009=
201908022200 METAR LRAR 022200Z 01006KT 330V050 9999 FEW050CB 19/18 Q1009=
201908022230 METAR LRAR 022230Z 02007KT 340V050 CAVOK 19/18 Q1009=
201908022300 METAR LRAR 022300Z 04008KT 010V070 CAVOK 19/18 Q1008=
201908022330 METAR LRAR 022330Z 04008KT 010V070 CAVOK 19/18 Q1008=
201908030000 METAR LRAR 030000Z 04005KT 340V070 CAVOK 19/18 Q1008=
201908030030 METAR LRAR 030030Z 03005KT 330V070 CAVOK 19/18 Q1008=
201908030100 METAR LRAR 030100Z 04007KT CAVOK 18/18 Q1008=
201908030130 METAR LRAR 030130Z 02003KT 320V060 CAVOK 18/18 Q1008=
201908030200 METAR LRAR 030200Z 36005KT 9999 FEW040CB 18/18 Q1007=
201908030230 METAR LRAR 030230Z 35005KT 9999 FEW040CB 18/18 Q1007=
201908030300 METAR LRAR 030300Z 35004KT 320V020 9999 FEW040CB 18/18 Q1007=
201908030330 METAR LRAR 030330Z 34004KT 310V020 9999 FEW037CB 18/18 Q1007=
201908030400 METAR LRAR 030400Z 36003KT 320V030 9999 FEW018 BKN035 18/18
                        Q1007=
201908030430 METAR LRAR 030430Z 35003KT 320V020 9999 FEW020 BKN040 18/18
                        Q1007=
201908030500 METAR LRAR 030500Z 36005KT 320V030 9999 FEW018 BKN047 18/18
                        Q1007=
201908030530 METAR LRAR 030530Z 34006KT 9999 FEW007 BKN045 18/18 Q1007=
201908030600 METAR LRAR 030600Z 34008KT 9999 FEW005 SCT007 BKN045 18/18
                        Q1007=
201908030630 METAR LRAR 030630Z 34007KT 8000 -RA FEW005 BKN008 BKN045
                        18/18 Q1007=
201908030700 METAR LRAR 030700Z 33007KT 8000 -RA FEW004 BKN006 18/18 Q1007
                        R09/19//95=
201908030730 METAR LRAR 030730Z 32008KT 8000 SCT004 BKN010 19/19 Q1007
                        R09/19//95=
201908030800 METAR LRAR 030800Z 33008KT 9000 -RA SCT006 BKN010 19/19 Q1008
                        R09/19//95=
201908030830 METAR LRAR 030830Z 33008KT 9999 -DZ FEW007 SCT009 BKN011
                        20/20 Q1008 R09/19//95=
201908030900 METAR LRAR 030900Z 33010KT 9999 FEW007 SCT011 BKN014 20/19
                        Q1008 R09/19//95=
201908030930 METAR LRAR 030930Z 33010KT 9999 SCT014 BKN049 21/19 Q1008
                        R09/19//95=
201908031000 METAR LRAR 031000Z 33010KT 300V360 9999 FEW016 BKN035 22/19
                        Q1008 R09/19//95=
201908031030 METAR LRAR 031030Z 33011KT 9999 FEW018 BKN040 22/18 Q1008
                        R09/19//95=
201908031100 METAR LRAR 031100Z 33010KT 300V360 9999 FEW022 BKN035 22/18
                        Q1008 R09/19//95=
201908031130 METAR LRAR 031130Z 34010KT 310V010 9999 FEW026 BKN035 23/18
                        Q1008 R09/19//95=
201908031200 METAR LRAR 031200Z 35008KT 9999 FEW026 SCT040 23/18 Q1008
                        R09/19//95=
201908031230 METAR LRAR 031230Z 35008KT 320V020 9999 SCT035 25/17 Q1008
                        R09/19//95=
201908031300 METAR LRAR 031300Z 33007KT 310V020 9999 SCT037 24/16 Q1008
                        R09/19//95=
201908031330 METAR LRAR 031330Z 33007KT 300V040 9999 BKN037 25/17 Q1008
                        R09/19//95=
201908031400 METAR LRAR 031400Z 34008KT 310V020 9999 SCT039 25/15 Q1008
                        R09/19//95=
201908031430 METAR LRAR 031430Z 32008KT 290V360 9999 FEW040CB 25/16 Q1008
                        R09/19//95=
201908031500 METAR LRAR 031500Z 33023G35KT 9999 TS FEW035 BKN040CB 20/15
                        Q1009 R09/19//95=
201908031530 METAR LRAR 031530Z 01006KT 330V050 9999 FEW025 BKN040CB 18/18
                        Q1008 RETSRA R09/19//95=
201908031600 METAR COR LRAR 031600Z 32005KT 9999 FEW036 SCT044CB 19/18
                        Q1009 RETSRA R09/19//95=
201908031630 METAR LRAR 031630Z 32004KT 9999 SCT046CB 19/18 Q1009 R09/19//95=
201908031700 METAR LRAR 031700Z 35007KT 320V020 9999 FEW050CB 19/16 Q1009
                        R09/19//95=
201908031730 METAR LRAR 031730Z 33005KT 9999 FEW055CB 19/17 Q1009 R09/19//95=
201908031800 METAR LRAR 031800Z 35003KT 9999 FEW060CB 18/16 Q1009 R09/19//95=
201908031830 METAR LRAR 031830Z 36003KT 9999 FEW060CB 17/16 Q1010 R09/19//95=
201908031900 METAR LRAR 031900Z VRB02KT CAVOK 16/15 Q1010 R09/19//95=
201908031930 METAR LRAR 031930Z VRB01KT CAVOK 16/16 Q1011 R09/19//95=
201908032000 METAR LRAR 032000Z 27004KT CAVOK 15/15 Q1011 R09/19//95=
201908032030 METAR LRAR 032030Z 27004KT CAVOK 15/15 Q1011 R09/19//95=
201908032100 METAR LRAR 032100Z 25004KT CAVOK 15/15 Q1011 R09/19//95=
201908032130 METAR LRAR 032130Z 27005KT CAVOK 14/14 Q1011 R09/19//95=
201908032200 METAR LRAR 032200Z 27006KT CAVOK 14/14 Q1011 R09/19//95=
201908032230 METAR LRAR 032230Z 29006KT CAVOK 14/14 Q1011 R09/19//95=
201908032300 METAR LRAR 032300Z 28005KT CAVOK 14/14 Q1011 R09/19//95=
201908032330 METAR LRAR 032330Z 28004KT CAVOK 14/14 Q1011 R09/19//95=
201908040000 METAR LRAR 040000Z 00000KT CAVOK 14/14 Q1011 R09/19//95=
201908040030 METAR LRAR 040030Z VRB02KT CAVOK 14/14 Q1011 R09/19//95=
201908040100 METAR LRAR 040100Z VRB02KT CAVOK 14/14 Q1011 R09/19//95=
201908040130 METAR LRAR 040130Z VRB01KT CAVOK 14/14 Q1011 R09/19//95=
201908040200 METAR LRAR 040200Z 00000KT CAVOK 14/14 Q1012 R09/19//95=
201908040230 METAR LRAR 040230Z 24003KT CAVOK 13/13 Q1012 R09/19//95=
201908040300 METAR LRAR 040300Z VRB02KT 6000 MIFG NSC 13/13 Q1012 R09/19//95=
201908040330 METAR LRAR 040330Z 26003KT 2500 MIFG BR NSC 13/13 Q1012 R09/19//95=
201908040400 METAR LRAR 040400Z 27002KT 240V310 2500 MIFG NSC 13/13 Q1012
                        R09/19//95=
201908040430 METAR LRAR 040430Z 29002KT 4000 MIFG NSC 13/13 Q1012 R09/19//95=
201908040500 METAR LRAR 040500Z 00000KT 6000 MIFG NSC 15/15 Q1013 R09/19//95=
201908040530 METAR LRAR 040530Z 00000KT CAVOK 17/17 Q1013 R09/CLRD//=
201908040600 METAR LRAR 040600Z 02002KT 310V090 CAVOK 18/17 Q1013=
201908040630 METAR LRAR 040630Z VRB01KT CAVOK 19/16 Q1013=
201908040700 METAR LRAR 040700Z 20002KT 140V280 CAVOK 19/16 Q1013=
201908040730 METAR LRAR 040730Z 27004KT 240V340 9999 FEW015 20/17 Q1013=
201908040800 METAR LRAR 040800Z VRB03KT CAVOK 21/17 Q1013=
201908040830 METAR LRAR 040830Z 29005KT 250V360 9999 FEW018 22/17 Q1013=
201908040900 METAR LRAR 040900Z 30004KT 250V020 9999 FEW020 23/15 Q1014=
201908040930 METAR LRAR 040930Z VRB04KT 9999 SCT031 23/15 Q1014=
201908041000 METAR LRAR 041000Z 33003KT 280V080 9999 SCT033 23/15 Q1014=
201908041030 METAR LRAR 041030Z 30005KT 250V350 9999 FEW031TCU SCT036
                        23/15 Q1014=
201908041100 METAR LRAR 041100Z 34003KT 310V060 9999 FEW035CB SCT045 23/14
                        Q1014=
201908041130 METAR LRAR 041130Z 32007KT 290V350 9999 FEW043CB SCT045 24/13
                        Q1013=
201908041200 METAR LRAR 041200Z 36006KT 330V030 9999 SCT049 24/14 Q1014=
201908041230 METAR LRAR 041230Z 34007KT 320V020 9999 SCT047 25/14 Q1013=
201908041300 METAR LRAR 041300Z 32006KT 290V020 9999 SCT047 24/14 Q1013=
201908041330 METAR LRAR 041330Z 32007KT 290V350 9999 FEW045TCU SCT049
                        25/13 Q1013=
201908041400 METAR LRAR 041400Z 32007KT 9999 -SHRA SCT047CB 23/15 Q1013=
201908041430 METAR LRAR 041430Z 29008KT 9999 FEW047CB 23/14 Q1013=
201908041500 METAR LRAR 041500Z 28006KT 9999 FEW047CB 23/16 Q1013=
201908041530 METAR LRAR 041530Z 31008KT 9999 FEW047CB 24/14 Q1013=
201908041600 METAR LRAR 041600Z 29008KT 9999 FEW047CB 24/14 Q1013=
201908041630 METAR LRAR 041630Z 29009KT 9999 FEW047CB 23/15 Q1013=
201908041700 METAR LRAR 041700Z 29008KT 9999 FEW047CB 22/14 Q1013=
201908041730 METAR LRAR 041730Z 28005KT 9999 FEW047CB 21/16 Q1014=
201908041800 METAR LRAR 041800Z 25003KT CAVOK 20/16 Q1014=
201908041830 METAR LRAR 041830Z 23002KT CAVOK 19/15 Q1014=
201908041900 METAR LRAR 041900Z 25003KT CAVOK 18/15 Q1015=
201908041930 METAR LRAR 041930Z 25002KT CAVOK 17/15 Q1015=
201908042000 METAR LRAR 042000Z 24001KT CAVOK 17/15 Q1015=
201908042030 METAR LRAR 042030Z 26002KT CAVOK 17/16 Q1015=
201908042100 METAR LRAR 042100Z 25001KT CAVOK 16/15 Q1015=
201908042130 METAR LRAR 042130Z 24001KT CAVOK 16/15 Q1015=
201908042200 METAR LRAR 042200Z 23001KT CAVOK 16/15 Q1015=
201908042230 METAR LRAR 042230Z VRB01KT CAVOK 15/15 Q1015=
201908042300 METAR LRAR 042300Z 13003KT CAVOK 15/15 Q1016=
201908042330 METAR LRAR 042330Z 17003KT CAVOK 15/14 Q1016=
201908050000 METAR LRAR 050000Z 18002KT CAVOK 15/14 Q1016=
201908050030 METAR LRAR 050030Z VRB02KT CAVOK 15/14 Q1016=
201908050100 METAR LRAR 050100Z 14004KT CAVOK 14/14 Q1016=
201908050130 METAR LRAR 050130Z 15004KT CAVOK 14/14 Q1016=
201908050200 METAR LRAR 050200Z 14004KT CAVOK 14/14 Q1016=
201908050230 METAR LRAR 050230Z 14004KT CAVOK 14/14 Q1016=
201908050300 METAR LRAR 050300Z 14004KT CAVOK 14/14 Q1016=
201908050330 METAR LRAR 050330Z 15004KT 9999 MIFG NSC 14/14 Q1016=
201908050400 METAR LRAR 050400Z 15005KT 9999 MIFG NSC 14/14 Q1016=
201908050430 METAR LRAR 050430Z 15005KT 9999 MIFG NSC 15/15 Q1016=
201908050500 METAR LRAR 050500Z 14006KT CAVOK 16/15 Q1016=
201908050530 METAR LRAR 050530Z 16006KT CAVOK 17/16 Q1016=
201908050600 METAR LRAR 050600Z 17006KT 140V200 CAVOK 18/16 Q1016=
201908050630 METAR LRAR 050630Z 19006KT 150V210 CAVOK 19/16 Q1016=
201908050700 METAR LRAR 050700Z 17006KT CAVOK 20/17 Q1016=
201908050730 METAR LRAR 050730Z 19006KT 160V220 CAVOK 22/17 Q1016=
201908050800 METAR LRAR 050800Z 20007KT CAVOK 22/16 Q1016=
201908050830 METAR LRAR 050830Z 20007KT 170V230 CAVOK 23/16 Q1016=
201908050900 METAR LRAR 050900Z 23007KT 190V280 9999 FEW040 24/14 Q1016=
201908050930 METAR LRAR 050930Z 24007KT 9999 FEW040 25/14 Q1016=
201908051000 METAR LRAR 051000Z 24006KT 190V290 9999 SCT043 25/14 Q1016=
201908051030 METAR LRAR 051030Z 26008KT 230V290 9999 SCT043 25/13 Q1016=
201908051100 METAR LRAR 051100Z 25006KT 180V300 9999 BKN045 26/13 Q1016=
201908051130 METAR LRAR 051130Z 26006KT 230V290 9999 BKN047 27/12 Q1015=
201908051200 METAR LRAR 051200Z 24007KT 9999 SCT048 26/11 Q1015=
201908051230 METAR LRAR 051230Z VRB06KT CAVOK 27/11 Q1015=
201908051300 METAR LRAR 051300Z VRB03KT CAVOK 27/11 Q1015=
201908051330 METAR LRAR 051330Z 27007KT CAVOK 27/09 Q1015=
201908051400 METAR LRAR 051400Z 27004KT 200V010 CAVOK 27/10 Q1015=
201908051430 METAR LRAR 051430Z 26006KT 230V300 CAVOK 27/11 Q1014=
201908051500 METAR LRAR 051500Z 24005KT 190V280 CAVOK 27/12 Q1014=
201908051530 METAR LRAR 051530Z 24006KT CAVOK 26/11 Q1014=
201908051600 METAR LRAR 051600Z 23005KT CAVOK 26/14 Q1014=
201908051630 METAR LRAR 051630Z 24005KT CAVOK 26/13 Q1014=
201908051700 METAR LRAR 051700Z 25002KT CAVOK 26/14 Q1014=
201908051730 METAR LRAR 051730Z 22002KT CAVOK 24/16 Q1014=
201908051800 METAR LRAR 051800Z 20002KT CAVOK 22/15 Q1014=
201908051830 METAR LRAR 051830Z 19004KT CAVOK 20/16 Q1014=
201908051900 METAR LRAR 051900Z 20005KT CAVOK 21/15 Q1014=
201908051930 METAR LRAR 051930Z 20005KT CAVOK 20/15 Q1015=
201908052000 METAR LRAR 052000Z 21004KT CAVOK 20/16 Q1015=
201908052030 METAR COR LRAR 052030Z 20004KT CAVOK 19/15 Q1015=
201908052100 METAR LRAR 052100Z 21004KT CAVOK 19/15 Q1015=
201908052130 METAR LRAR 052130Z 21004KT CAVOK 19/15 Q1015=
201908052200 METAR LRAR 052200Z 22004KT CAVOK 18/15 Q1015=
201908052230 METAR LRAR 052230Z 20002KT 160V240 CAVOK 18/15 Q1015=
201908052300 METAR LRAR 052300Z 19003KT CAVOK 18/15 Q1015=
201908052330 METAR LRAR 052330Z 15002KT 110V200 CAVOK 18/15 Q1015=
201908060000 METAR LRAR 060000Z 14004KT CAVOK 17/15 Q1015=
201908060030 METAR LRAR 060030Z 14006KT CAVOK 16/15 Q1015=
201908060100 METAR LRAR 060100Z 14006KT CAVOK 16/15 Q1015=
201908060130 METAR LRAR 060130Z 14005KT CAVOK 16/15 Q1015=
201908060200 METAR LRAR 060200Z 14006KT CAVOK 16/15 Q1015=
201908060230 METAR LRAR 060230Z 14005KT CAVOK 16/15 Q1015=
201908060300 METAR LRAR 060300Z 14007KT CAVOK 16/15 Q1015=
201908060330 METAR LRAR 060330Z 14007KT CAVOK 16/15 Q1015=
201908060400 METAR LRAR 060400Z 15006KT CAVOK 16/15 Q1015=
201908060430 METAR LRAR 060430Z 13006KT CAVOK 16/15 Q1015=
201908060500 METAR LRAR 060500Z 15008KT CAVOK 17/15 Q1015=
201908060530 METAR LRAR 060530Z 15007KT CAVOK 18/16 Q1016=
201908060600 METAR LRAR 060600Z 15005KT CAVOK 20/16 Q1016=
201908060630 METAR LRAR 060630Z 16006KT CAVOK 20/15 Q1016?=
201908060700 METAR LRAR 060700Z 17004KT CAVOK 22/16 Q1016=
201908060730 METAR LRAR 060730Z 19008KT CAVOK 23/15 Q1016=
201908060800 METAR LRAR 060800Z 20008KT 170V230 CAVOK 24/15 Q1016=
201908060830 METAR LRAR 060830Z 20008KT 170V230 CAVOK 25/15 Q1016=
201908060900 METAR LRAR 060900Z 21009KT CAVOK 26/15 Q1016=
201908060930 METAR LRAR 060930Z 21010KT CAVOK 26/14 Q1016=
201908061000 METAR LRAR 061000Z 20008KT 170V240 9999 FEW026 27/14 Q1016=
201908061030 METAR LRAR 061030Z 20009KT 9999 FEW026 27/14 Q1016=
201908061100 METAR LRAR 061100Z 21007KT 170V240 9999 FEW028 28/14 Q1016=
201908061130 METAR LRAR 061130Z 22009KT 170V250 9999 SCT030 28/13 Q1015=
201908061200 METAR LRAR 061200Z 21009KT 170V240 9999 SCT033 28/13 Q1015=
201908061230 METAR LRAR 061230Z 20007KT 160V240 9999 FEW036 28/13 Q1015=
201908061300 METAR LRAR 061300Z 21008KT 170V230 9999 FEW038 29/12 Q1015=
201908061330 METAR LRAR 061330Z 20008KT 170V230 CAVOK 29/12 Q1014=
201908061400 METAR LRAR 061400Z 20008KT 170V230 CAVOK 29/12 Q1014=
201908061430 METAR LRAR 061430Z 22008KT 190V250 CAVOK 29/11 Q1014=
201908061500 METAR LRAR 061500Z 22007KT CAVOK 29/12 Q1014=
201908061530 METAR LRAR 061530Z AUTO 23007KT 9999 NCD 29/14 Q1014=
201908061600 METAR LRAR 061600Z 21006KT CAVOK 29/14 Q1014=
201908061630 METAR LRAR 061630Z 20005KT CAVOK 28/14 Q1013=
201908061700 METAR LRAR 061700Z 22004KT CAVOK 27/15 Q1013=
201908061730 METAR LRAR 061730Z 21005KT CAVOK 26/15 Q1013=
201908061800 METAR LRAR 061800Z 18004KT 9999 FEW040CB 26/19 Q1014=
201908061830 METAR LRAR 061830Z 19004KT 9999 FEW040CB 24/16 Q1014=
201908061900 METAR LRAR 061900Z 17005KT CAVOK 24/14 Q1014=
201908061930 METAR LRAR 061930Z 16006KT CAVOK 23/15 Q1014=
201908062000 METAR LRAR 062000Z 16004KT CAVOK 23/15 Q1014=
201908062030 METAR LRAR 062030Z 15007KT CAVOK 23/15 Q1013=
201908062100 METAR LRAR 062100Z 15005KT CAVOK 22/16 Q1013=
201908062130 METAR LRAR 062130Z 14005KT CAVOK 22/16 Q1013=
201908062200 METAR LRAR 062200Z 13006KT CAVOK 21/15 Q1014=
201908062230 METAR LRAR 062230Z 14008KT CAVOK 21/16 Q1013=
201908062300 METAR LRAR 062300Z 14007KT CAVOK 20/16 Q1013=
201908062330 METAR LRAR 062330Z 14009KT CAVOK 20/16 Q1013=
201908070000 METAR LRAR 070000Z 13009KT CAVOK 20/16 Q1013=
201908070030 METAR LRAR 070030Z 14009KT CAVOK 20/16 Q1013=
201908070100 METAR LRAR 070100Z 14008KT CAVOK 19/16 Q1013=
201908070130 METAR LRAR 070130Z 13009KT CAVOK 19/16 Q1013=
201908070200 METAR LRAR 070200Z 14009KT CAVOK 19/16 Q1012=
201908070230 METAR LRAR 070230Z 14008KT CAVOK 19/15 Q1013=
201908070300 METAR LRAR 070300Z 13008KT CAVOK 19/15 Q1013=
201908070330 METAR LRAR 070330Z 14008KT CAVOK 19/15 Q1013=
201908070400 METAR LRAR 070400Z 14008KT CAVOK 19/16 Q1013=
201908070430 METAR LRAR 070430Z 14009KT CAVOK 20/16 Q1013=
201908070500 METAR LRAR 070500Z 14010KT CAVOK 21/16 Q1013=
201908070530 METAR LRAR 070530Z 14009KT CAVOK 23/16 Q1013=
201908070600 METAR LRAR 070600Z 14010KT CAVOK 23/15 Q1013=
201908070630 METAR LRAR 070630Z 14010KT CAVOK 24/15 Q1013=
201908070700 METAR COR LRAR 070700Z 16009KT CAVOK 26/15 Q1013=
201908070730 METAR LRAR 070730Z 18009KT CAVOK 27/14 Q1013=
201908070800 METAR LRAR 070800Z 18008KT CAVOK 28/15 Q1013=
201908070830 METAR COR LRAR 070830Z 19011KT 160V220 CAVOK 28/15 Q1013=
201908070900 METAR LRAR 070900Z 19011KT 140V220 CAVOK 28/15 Q1012=
201908070930 METAR LRAR 070930Z 19010KT 160V220 CAVOK 29/16 Q1013=
201908071000 METAR LRAR 071000Z 22009KT CAVOK 29/18 Q1013=
201908071030 METAR LRAR 071030Z 21010KT 170V250 CAVOK 30/16 Q1012=
201908071100 METAR LRAR 071100Z 20009KT 150V230 CAVOK 30/17 Q1012=
201908071130 METAR LRAR 071130Z 22009KT CAVOK 30/18 Q1012=
201908071200 METAR LRAR 071200Z 21008KT 180V250 CAVOK 30/18 Q1012=
201908071230 METAR LRAR 071230Z 22008KT 190V250 CAVOK 31/18 Q1011=
201908071300 METAR LRAR 071300Z 24008KT CAVOK 31/19 Q1011=
201908071330 METAR LRAR 071330Z 23007KT 190V260 CAVOK 31/18 Q1011=
201908071400 METAR LRAR 071400Z 21008KT 170V230 CAVOK 31/18 Q1011=
201908071430 METAR LRAR 071430Z 22009KT CAVOK 31/18 Q1011=
201908071500 METAR LRAR 071500Z 21010KT 9999 FEW048 31/18 Q1010=
201908071530 METAR LRAR 071530Z 22010KT 9999 FEW048 31/18 Q1010=
201908071600 METAR LRAR 071600Z 22010KT 190V250 9999 SCT045 31/17 Q1010=
201908071630 METAR LRAR 071630Z 21008KT 9999 SCT046 30/18 Q1010=
201908071700 METAR LRAR 071700Z 20006KT 9999 SCT047 29/18 Q1010=
201908071730 METAR LRAR 071730Z 20007KT 9999 SCT048 29/18 Q1010=
201908071800 METAR LRAR 071800Z 18007KT CAVOK 28/19 Q1010=
201908071830 METAR LRAR 071830Z 18007KT CAVOK 27/19 Q1010=
201908071900 METAR LRAR 071900Z 19007KT CAVOK 27/19 Q1010=
201908071930 METAR COR LRAR 071930Z 19007KT CAVOK 26/19 Q1010=
201908072000 METAR LRAR 072000Z 18008KT CAVOK 26/19 Q1010=
201908072030 METAR LRAR 072030Z 18008KT CAVOK 26/18 Q1010=
201908072100 METAR LRAR 072100Z 18008KT CAVOK 26/18 Q1010=
201908072130 METAR LRAR 072130Z 18006KT CAVOK 25/18 Q1010=
201908072200 METAR LRAR 072200Z 15006KT CAVOK 24/18 Q1010=
201908072230 METAR LRAR 072230Z 15007KT CAVOK 23/19 Q1010=
201908072300 METAR LRAR 072300Z 15007KT CAVOK 23/18 Q1010=
201908072330 METAR LRAR 072330Z 16006KT CAVOK 22/18 Q1010=
201908080000 METAR LRAR 080000Z 16006KT CAVOK 22/18 Q1010=
201908080030 METAR LRAR 080030Z 15005KT CAVOK 21/18 Q1010=
201908080100 METAR LRAR 080100Z 14005KT CAVOK 21/18 Q1010=
201908080130 METAR LRAR 080130Z 15005KT CAVOK 21/18 Q1010=
201908080200 METAR LRAR 080200Z 15004KT CAVOK 21/18 Q1010=
201908080230 METAR LRAR 080230Z 18003KT 150V300 CAVOK 21/17 Q1011=
201908080300 METAR LRAR 080300Z VRB01KT CAVOK 20/18 Q1010=
201908080330 METAR LRAR 080330Z 14004KT CAVOK 20/18 Q1010=
201908080400 METAR LRAR 080400Z 28003KT CAVOK 19/18 Q1011=
201908080430 METAR LRAR 080430Z 27003KT 210V290 CAVOK 20/19 Q1011=
201908080500 METAR LRAR 080500Z VRB01KT CAVOK 21/20 Q1011=
201908080530 METAR COR LRAR 080530Z VRB01KT CAVOK 23/18 Q1011=
201908080600 METAR LRAR 080600Z 25003KT CAVOK 24/18 Q1011=
201908080630 METAR LRAR 080630Z VRB01KT CAVOK 25/19 Q1011=
201908080700 METAR LRAR 080700Z 01004KT 320V070 CAVOK 26/19 Q1012=
201908080730 METAR LRAR 080730Z 36005KT 320V050 CAVOK 26/19 Q1012=
201908080800 METAR LRAR 080800Z 36005KT 310V030 CAVOK 27/19 Q1012=
201908080830 METAR LRAR 080830Z 35005KT 310V030 CAVOK 26/19 Q1012=
201908080900 METAR LRAR 080900Z 34005KT 310V010 CAVOK 26/19 Q1012=
201908080930 METAR LRAR 080930Z 36006KT 330V030 CAVOK 26/18 Q1013=
201908081000 METAR LRAR 081000Z 34006KT 310V040 CAVOK 27/18 Q1012=
201908081030 METAR LRAR 081030Z 35006KT 310V050 CAVOK 28/18 Q1012=
201908081100 METAR LRAR 081100Z 34007KT 300V020 CAVOK 28/18 Q1013=
201908081130 METAR LRAR 081130Z 32009KT CAVOK 28/18 Q1012=
201908081200 METAR LRAR 081200Z 35006KT 320V040 CAVOK 29/18 Q1012=
201908081230 METAR LRAR 081230Z 34007KT 310V040 CAVOK 29/19 Q1012=
201908081300 METAR LRAR 081300Z 35007KT CAVOK 29/19 Q1012=
201908081330 METAR LRAR 081330Z 33009KT 300V360 CAVOK 29/17 Q1012=
201908081400 METAR LRAR 081400Z 35006KT 300V060 CAVOK 29/18 Q1012=
201908081430 METAR LRAR 081430Z 01008KT 320V040 CAVOK 29/18 Q1012=
201908081500 METAR LRAR 081500Z 35006KT 310V030 CAVOK 29/16 Q1012=
201908081530 METAR LRAR 081530Z 35006KT 330V030 CAVOK 29/16 Q1012=
201908081600 METAR LRAR 081600Z 36007KT 330V030 CAVOK 28/18 Q1012=
201908081630 METAR LRAR 081630Z 35006KT CAVOK 28/18 Q1012=
201908081700 METAR LRAR 081700Z 36006KT CAVOK 27/18 Q1012=
201908081730 METAR LRAR 081730Z 36005KT CAVOK 25/18 Q1012=
201908081800 METAR LRAR 081800Z 01005KT CAVOK 24/18 Q1012=
201908081830 METAR LRAR 081830Z 36006KT CAVOK 24/18 Q1013=
201908081900 METAR LRAR 081900Z 35004KT CAVOK 23/18 Q1013=
201908081930 METAR LRAR 081930Z 02005KT CAVOK 23/18 Q1013=
201908082000 METAR LRAR 082000Z 03004KT 360V060 CAVOK 23/18 Q1013=
201908082030 METAR LRAR 082030Z 36003KT 330V050 CAVOK 22/18 Q1013=
201908082100 METAR LRAR 082100Z 32003KT CAVOK 21/18 Q1013=
201908082130 METAR LRAR 082130Z 31003KT CAVOK 21/18 Q1013=
201908082200 METAR COR LRAR 082200Z 29008KT 9999 TS SCT040CB 20/18 Q1015=
201908082230 METAR LRAR 082230Z 30012KT 9999 -SHRA VCTS SCT040CB 21/16
                        Q1016=
201908082300 METAR LRAR 082300Z 34006KT 300V020 9999 -SHRA SCT018 SCT040CB
                        19/18 Q1015 RETS=
201908082330 METAR LRAR 082330Z 09006KT 050V110 9999 FEW040CB 19/18 Q1013
                        RETS=
201908090000 METAR LRAR 090000Z VRB01KT CAVOK 19/18 Q1014=
201908090030 METAR LRAR 090030Z 23003KT 140V280 CAVOK 19/19 Q1014=
201908090100 METAR LRAR 090100Z 22005KT CAVOK 19/19 Q1015=
201908090130 METAR LRAR 090130Z 17004KT CAVOK 19/19 Q1015=
201908090200 METAR LRAR 090200Z VRB01KT CAVOK 19/19 Q1015=
201908090230 METAR COR LRAR 090230Z VRB02KT CAVOK 18/18 Q1015=
201908090300 METAR LRAR 090300Z VRB01KT CAVOK 18/18 Q1015=
201908090330 METAR LRAR 090330Z 28002KT CAVOK 18/18 Q1015=
201908090400 METAR LRAR 090400Z VRB02KT CAVOK 18/18 Q1015=
201908090430 METAR LRAR 090430Z 26002KT CAVOK 18/18 Q1015=
201908090500 METAR LRAR 090500Z 23002KT CAVOK 18/18 Q1015=
201908090530 METAR LRAR 090530Z 27003KT CAVOK 20/20 Q1015=
201908090600 METAR LRAR 090600Z 27003KT 220V290 CAVOK 21/19 Q1015=
201908090630 METAR LRAR 090630Z 24001KT CAVOK 23/18 Q1015=
201908090700 METAR LRAR 090700Z 33003KT 290V020 CAVOK 23/18 Q1015=
201908090730 METAR LRAR 090730Z VRB02KT CAVOK 24/18 Q1015=
201908090800 METAR LRAR 090800Z 32004KT 250V020 CAVOK 25/19 Q1016=
201908090830 METAR LRAR 090830Z 33005KT 280V020 CAVOK 26/17 Q1016=
201908090900 METAR LRAR 090900Z 32006KT 290V360 CAVOK 26/17 Q1016=
201908090930 METAR LRAR 090930Z 33006KT 290V010 CAVOK 27/15 Q1016=
201908091000 METAR LRAR 091000Z 35005KT 260V060 CAVOK 28/16 Q1016=
201908091030 METAR LRAR 091030Z 35005KT 290V030 CAVOK 28/15 Q1015=
201908091100 METAR LRAR 091100Z 34004KT 290V050 CAVOK 28/14 Q1015=
201908091130 METAR LRAR 091130Z VRB04KT CAVOK 29/13 Q1015=
201908091200 METAR LRAR 091200Z VRB05KT 9999 FEW055TCU 29/13 Q1015=
201908091230 METAR LRAR 091230Z 35004KT 290V050 9999 FEW055TCU 29/14 Q1015=
201908091300 METAR LRAR 091300Z 35005KT 310V050 CAVOK 29/13 Q1015=
201908091330 METAR LRAR 091330Z VRB04KT CAVOK 30/14 Q1014=
201908091400 METAR LRAR 091400Z VRB01KT CAVOK 29/12 Q1014=
201908091430 METAR LRAR 091430Z VRB01KT CAVOK 30/13 Q1014=
201908091500 METAR LRAR 091500Z VRB03KT CAVOK 30/15 Q1014=
201908091530 METAR LRAR 091530Z VRB02KT CAVOK 30/13 Q1014=
201908091600 METAR LRAR 091600Z 30004KT 260V330 CAVOK 30/14 Q1014=
201908091630 METAR LRAR 091630Z 27003KT CAVOK 29/14 Q1014=
201908091700 METAR LRAR 091700Z 27003KT 230V290 CAVOK 28/16 Q1014=
201908091730 METAR LRAR 091730Z 21002KT CAVOK 27/18 Q1014=
201908091800 METAR LRAR 091800Z 18002KT CAVOK 25/17 Q1014=
201908091830 METAR LRAR 091830Z 23002KT CAVOK 24/17 Q1015=
201908091900 METAR LRAR 091900Z 23002KT CAVOK 23/17 Q1015=
201908091930 METAR COR LRAR 091930Z 13003KT CAVOK 22/17 Q1015=
201908092000 METAR LRAR 092000Z 13001KT CAVOK 22/17 Q1015=
201908092030 METAR LRAR 092030Z 18001KT CAVOK 21/17 Q1015=
201908092100 METAR LRAR 092100Z 13004KT CAVOK 21/18 Q1015=
201908092130 METAR LRAR 092130Z 14004KT CAVOK 21/17 Q1015=
201908092200 METAR LRAR 092200Z 14004KT CAVOK 21/16 Q1015=
201908092230 METAR LRAR 092230Z 14003KT CAVOK 21/16 Q1015=
201908092300 METAR LRAR 092300Z 14005KT CAVOK 20/16 Q1015=
201908092330 METAR LRAR 092330Z 14005KT CAVOK 20/16 Q1015=
201908100000 METAR LRAR 100000Z 14004KT CAVOK 19/16 Q1015=
201908100030 METAR LRAR 100030Z 13006KT CAVOK 19/16 Q1015=
201908100100 METAR LRAR 100100Z 14006KT CAVOK 19/16 Q1015=
201908100130 METAR LRAR 100130Z 14006KT CAVOK 19/16 Q1015=
201908100200 METAR LRAR 100200Z 13004KT CAVOK 18/15 Q1015=
201908100230 METAR LRAR 100230Z 14004KT CAVOK 18/15 Q1015=
201908100300 METAR LRAR 100300Z 14004KT CAVOK 18/16 Q1015=
201908100330 METAR LRAR 100330Z 13006KT CAVOK 18/15 Q1015=
201908100400 METAR LRAR 100400Z 14006KT CAVOK 18/15 Q1015=
201908100430 METAR LRAR 100430Z 14005KT CAVOK 19/15 Q1015=
201908100500 METAR LRAR 100500Z 13004KT CAVOK 21/16 Q1016=
201908100530 METAR LRAR 100530Z 14005KT CAVOK 22/16 Q1016=
201908100600 METAR LRAR 100600Z 14006KT CAVOK 24/16 Q1016=
201908100630 METAR LRAR 100630Z 14007KT CAVOK 25/15 Q1016=
201908100700 METAR LRAR 100700Z 15006KT CAVOK 26/14 Q1016=
201908100730 METAR LRAR 100730Z 15006KT CAVOK 28/14 Q1016=
201908100800 METAR LRAR 100800Z 16005KT 120V200 CAVOK 29/13 Q1017=
201908100830 METAR LRAR 100830Z 17004KT 110V230 CAVOK 29/15 Q1017=
201908100900 METAR LRAR 100900Z 12003KT 050V180 CAVOK 30/13 Q1016=
201908100930 METAR LRAR 100930Z 16004KT 100V200 CAVOK 30/14 Q1016=
201908101000 METAR LRAR 101000Z VRB03KT CAVOK 31/13 Q1016=
201908101030 METAR LRAR 101030Z 15005KT 120V190 CAVOK 31/14 Q1016=
201908101100 METAR LRAR 101100Z 19004KT 140V250 CAVOK 31/14 Q1015=
201908101130 METAR LRAR 101130Z 18004KT 110V270 CAVOK 32/12 Q1015=
201908101200 METAR LRAR 101200Z 12007KT 090V190 CAVOK 32/12 Q1015=
201908101230 METAR LRAR 101230Z VRB02KT CAVOK 33/14 Q1015=
201908101300 METAR LRAR 101300Z VRB03KT CAVOK 33/13 Q1015=
201908101330 METAR LRAR 101330Z 30004KT 250V350 CAVOK 33/14 Q1015=
201908101400 METAR LRAR 101400Z 26005KT CAVOK 33/13 Q1015=
201908101430 METAR LRAR 101430Z VRB02KT CAVOK 33/12 Q1015=
201908101500 METAR LRAR 101500Z VRB03KT CAVOK 33/14 Q1015=
201908101530 METAR LRAR 101530Z 32003KT 260V010 CAVOK 33/14 Q1015=
201908101600 METAR LRAR 101600Z 33003KT 270V010 CAVOK 33/13 Q1015=
201908101630 METAR LRAR 101630Z 32003KT CAVOK 33/13 Q1015=
201908101700 METAR LRAR 101700Z 36003KT CAVOK 32/15 Q1015=
201908101730 METAR LRAR 101730Z 01003KT CAVOK 30/15 Q1015=
201908101800 METAR LRAR 101800Z 04002KT CAVOK 29/14 Q1015=
201908101830 METAR LRAR 101830Z 00000KT CAVOK 26/18 Q1015=
201908101900 METAR LRAR 101900Z 11002KT CAVOK 26/16 Q1015=
201908101930 METAR LRAR 101930Z 10002KT CAVOK 25/17 Q1015=
201908102000 METAR LRAR 102000Z 11002KT CAVOK 24/17 Q1015=
201908102030 METAR LRAR 102030Z 13003KT CAVOK 24/17 Q1015=
201908102100 METAR LRAR 102100Z 20002KT CAVOK 22/17 Q1015=
201908102130 METAR LRAR 102130Z 13002KT CAVOK 22/17 Q1015=
201908102200 METAR LRAR 102200Z 14005KT CAVOK 22/18 Q1015=
201908102230 METAR LRAR 102230Z 14004KT CAVOK 22/18 Q1015=
201908102300 METAR LRAR 102300Z 13003KT CAVOK 22/18 Q1015=
201908102330 METAR LRAR 102330Z 15001KT CAVOK 21/18 Q1015=
201908110000 METAR LRAR 110000Z VRB01KT CAVOK 19/17 Q1015=
201908110030 METAR LRAR 110030Z VRB01KT CAVOK 19/18 Q1015=
201908110100 METAR LRAR 110100Z 13002KT CAVOK 19/17 Q1015=
201908110130 METAR LRAR 110130Z 00000KT CAVOK 18/18 Q1015=
201908110200 METAR LRAR 110200Z 12001KT CAVOK 18/17 Q1015=
201908110230 METAR LRAR 110230Z 13003KT CAVOK 20/17 Q1015=
201908110300 METAR LRAR 110300Z 12005KT CAVOK 20/16 Q1015=
201908110330 METAR LRAR 110330Z 13004KT CAVOK 21/16 Q1016=
201908110400 METAR LRAR 110400Z 13003KT CAVOK 20/16 Q1016=
201908110430 METAR LRAR 110430Z 13004KT CAVOK 21/17 Q1016=
201908110500 METAR LRAR 110500Z VRB01KT CAVOK 23/18 Q1016=
201908110530 METAR LRAR 110530Z VRB02KT CAVOK 23/17 Q1017=
201908110600 METAR LRAR 110600Z VRB02KT CAVOK 25/18 Q1017=
201908110630 METAR LRAR 110630Z VRB02KT CAVOK 26/17 Q1017=
201908110700 METAR LRAR 110700Z 11005KT CAVOK 27/17 Q1017=
201908110730 METAR LRAR 110730Z 12004KT 090V150 CAVOK 28/17 Q1017=
201908110800 METAR LRAR 110800Z VRB02KT CAVOK 29/17 Q1017=
201908110830 METAR LRAR 110830Z VRB02KT CAVOK 30/17 Q1017=
201908110900 METAR LRAR 110900Z VRB01KT CAVOK 31/16 Q1017=
201908110930 METAR LRAR 110930Z VRB02KT CAVOK 31/16 Q1017=
201908111000 METAR LRAR 111000Z VRB03KT CAVOK 32/16 Q1017=
201908111030 METAR LRAR 111030Z 30005KT 270V350 CAVOK 33/17 Q1017=
201908111100 METAR LRAR 111100Z 27004KT 230V350 CAVOK 32/16 Q1016=
201908111130 METAR LRAR 111130Z VRB05KT CAVOK 33/15 Q1016=
201908111200 METAR LRAR 111200Z 26007KT 240V330 CAVOK 33/15 Q1016=
201908111230 METAR LRAR 111230Z 29006KT 250V320 CAVOK 33/14 Q1016=
201908111300 METAR LRAR 111300Z 27006KT 240V330 CAVOK 33/14 Q1016=
201908111330 METAR LRAR 111330Z 33007KT CAVOK 34/15 Q1015=
201908111400 METAR LRAR 111400Z VRB03KT CAVOK 34/14 Q1015=
201908111430 METAR LRAR 111430Z 30006KT 270V360 CAVOK 34/15 Q1015=
201908111500 METAR LRAR 111500Z 36003KT 310V100 CAVOK 34/15 Q1015=
201908111530 METAR LRAR 111530Z 33006KT CAVOK 33/14 Q1015=
201908111600 METAR LRAR 111600Z 31005KT 280V340 CAVOK 33/15 Q1015=
201908111630 METAR LRAR 111630Z 34004KT CAVOK 33/15 Q1015=
201908111700 METAR LRAR 111700Z 34004KT CAVOK 32/16 Q1015=
201908111730 METAR LRAR 111730Z 36004KT CAVOK 30/17 Q1015=
201908111800 METAR LRAR 111800Z VRB02KT CAVOK 29/17 Q1015=
201908111830 METAR LRAR 111830Z 00000KT CAVOK 27/19 Q1015=
201908111900 METAR LRAR 111900Z 00000KT CAVOK 26/19 Q1015=
201908111930 METAR LRAR 111930Z VRB01KT CAVOK 25/19 Q1015=
201908112000 METAR LRAR 112000Z VRB01KT CAVOK 24/19 Q1015=
201908112030 METAR LRAR 112030Z VRB01KT CAVOK 23/18 Q1015=
201908112100 METAR LRAR 112100Z VRB02KT CAVOK 23/18 Q1015=
201908112130 METAR LRAR 112130Z VRB02KT CAVOK 23/18 Q1015=
201908112200 METAR LRAR 112200Z 14003KT CAVOK 23/19 Q1015=
201908112230 METAR LRAR 112230Z 13003KT CAVOK 22/18 Q1015=
201908112300 METAR LRAR 112300Z 13004KT CAVOK 22/19 Q1015=
201908112330 METAR LRAR 112330Z 13004KT CAVOK 22/19 Q1015=
201908120000 METAR LRAR 120000Z 13005KT CAVOK 22/18 Q1015=
201908120030 METAR LRAR 120030Z 13006KT CAVOK 22/18 Q1015=
201908120100 METAR LRAR 120100Z 13006KT CAVOK 21/18 Q1015=
201908120130 METAR LRAR 120130Z 13006KT CAVOK 21/19 Q1014=
201908120200 METAR LRAR 120200Z 14005KT CAVOK 21/18 Q1014=
201908120230 METAR LRAR 120230Z 14006KT CAVOK 21/18 Q1014=
201908120300 METAR LRAR 120300Z 14006KT CAVOK 21/18 Q1014=
201908120330 METAR COR LRAR 120330Z 13006KT CAVOK 21/18 Q1015=
201908120400 METAR LRAR 120400Z 13005KT CAVOK 21/18 Q1015=
201908120430 METAR LRAR 120430Z 14007KT CAVOK 23/19 Q1015=
201908120500 METAR LRAR 120500Z 14009KT CAVOK 24/19 Q1015=
201908120530 METAR LRAR 120530Z 14007KT CAVOK 25/19 Q1015=
201908120600 METAR LRAR 120600Z 14007KT CAVOK 27/20 Q1015=
201908120630 METAR LRAR 120630Z 15006KT CAVOK 28/20 Q1015=
201908120700 METAR LRAR 120700Z 14007KT CAVOK 30/19 Q1015=
201908120730 METAR LRAR 120730Z 17007KT 140V200 CAVOK 31/19 Q1015=
201908120800 METAR LRAR 120800Z 17007KT 140V200 CAVOK 32/18 Q1015=
201908120830 METAR LRAR 120830Z 20006KT 160V230 CAVOK 32/19 Q1015=
201908120900 METAR LRAR 120900Z 21011KT 160V230 CAVOK 33/16 Q1015=
201908120930 METAR LRAR 120930Z 20010KT 170V230 CAVOK 33/16 Q1015=
201908121000 METAR LRAR 121000Z 21009KT CAVOK 33/17 Q1014=
201908121030 METAR LRAR 121030Z 21009KT 170V250 CAVOK 34/16 Q1014=
201908121100 METAR COR LRAR 121100Z 21010KT CAVOK 35/16 Q1014=
201908121130 METAR LRAR 121130Z 21011KT CAVOK 35/14 Q1014=
201908121200 METAR LRAR 121200Z 22010KT CAVOK 35/15 Q1013=
201908121230 METAR LRAR 121230Z 22008KT CAVOK 35/14 Q1013=
201908121300 METAR LRAR 121300Z 21009KT CAVOK 35/15 Q1013=
201908121330 METAR LRAR 121330Z 21009KT CAVOK 35/15 Q1013=
201908121400 METAR LRAR 121400Z 20008KT 170V240 CAVOK 36/15 Q1013=
201908121430 METAR LRAR 121430Z 21007KT 170V250 CAVOK 35/15 Q1012=
201908121500 METAR LRAR 121500Z 22007KT 190V250 CAVOK 35/15 Q1012=
201908121530 METAR LRAR 121530Z 22007KT CAVOK 35/15 Q1012=
201908121600 METAR LRAR 121600Z 20005KT CAVOK 35/15 Q1012=
201908121630 METAR LRAR 121630Z 19004KT CAVOK 35/16 Q1012=
201908121700 METAR LRAR 121700Z 22003KT CAVOK 34/17 Q1012=
201908121730 METAR LRAR 121730Z 18005KT CAVOK 32/16 Q1011=
201908121800 METAR LRAR 121800Z 18005KT CAVOK 31/15 Q1012=
201908121830 METAR LRAR 121830Z 16005KT CAVOK 30/15 Q1012=
201908121900 METAR LRAR 121900Z 15005KT CAVOK 28/16 Q1012=
201908121930 METAR LRAR 121930Z 14006KT CAVOK 27/18 Q1012=
201908122000 METAR LRAR 122000Z 14007KT CAVOK 26/18 Q1012=
201908122030 METAR LRAR 122030Z 14006KT CAVOK 26/18 Q1012=
201908122100 METAR LRAR 122100Z 15006KT CAVOK 25/18 Q1012=
201908122130 METAR LRAR 122130Z 14006KT CAVOK 24/18 Q1012=
201908122200 METAR LRAR 122200Z 14007KT CAVOK 24/18 Q1012=
201908122230 METAR LRAR 122230Z 14005KT CAVOK 24/18 Q1012=
201908122300 METAR LRAR 122300Z 14005KT CAVOK 23/18 Q1012=
201908122330 METAR LRAR 122330Z 13007KT CAVOK 24/18 Q1012=
201908130000 METAR LRAR 130000Z 13007KT CAVOK 23/18 Q1012=
201908130030 METAR LRAR 130030Z 13006KT CAVOK 23/18 Q1012=
201908130100 METAR LRAR 130100Z 13007KT CAVOK 23/18 Q1012=
201908130130 METAR LRAR 130130Z 14009KT CAVOK 23/18 Q1011=
201908130200 METAR LRAR 130200Z 14007KT CAVOK 22/18 Q1011=
201908130230 METAR LRAR 130230Z 14009KT CAVOK 22/18 Q1011=
201908130300 METAR LRAR 130300Z 15008KT CAVOK 22/18 Q1011=
201908130330 METAR LRAR 130330Z 14008KT CAVOK 22/18 Q1011=
201908130400 METAR LRAR 130400Z 13007KT CAVOK 22/18 Q1011=
201908130430 METAR LRAR 130430Z 13005KT CAVOK 23/18 Q1011=
201908130500 METAR LRAR 130500Z 12006KT CAVOK 25/18 Q1012=
201908130530 METAR LRAR 130530Z 13006KT CAVOK 26/18 Q1012=
201908130600 METAR LRAR 130600Z 14007KT CAVOK 27/18 Q1012=
201908130630 METAR LRAR 130630Z 14009KT CAVOK 28/17 Q1012=
201908130700 METAR LRAR 130700Z 15008KT CAVOK 30/17 Q1012=
201908130730 METAR LRAR 130730Z 15008KT CAVOK 31/15 Q1012=
201908130800 METAR LRAR 130800Z 16005KT 110V200 CAVOK 31/15 Q1012=
201908130830 METAR LRAR 130830Z 27005KT 250V320 CAVOK 32/16 Q1012=
201908130900 METAR LRAR 130900Z 29004KT 220V030 CAVOK 32/15 Q1012=
201908130930 METAR LRAR 130930Z VRB04KT CAVOK 33/15 Q1012=
201908131000 METAR LRAR 131000Z VRB04KT CAVOK 33/15 Q1012=
201908131030 METAR LRAR 131030Z 28005KT 240V320 CAVOK 34/15 Q1012=
201908131100 METAR LRAR 131100Z 25006KT 220V310 CAVOK 34/14 Q1011=
201908131130 METAR LRAR 131130Z 27008KT 240V300 CAVOK 35/15 Q1011=
201908131200 METAR LRAR 131200Z 24007KT CAVOK 35/14 Q1011=
201908131230 METAR LRAR 131230Z 26007KT 220V300 CAVOK 34/15 Q1011=
201908131300 METAR LRAR 131300Z 25005KT 200V320 CAVOK 35/17 Q1010=
201908131330 METAR LRAR 131330Z 28007KT 250V310 CAVOK 35/15 Q1010=
201908131400 METAR LRAR 131400Z 30006KT 270V350 CAVOK 35/15 Q1010=
201908131430 METAR LRAR 131430Z 33005KT 260V070 CAVOK 36/16 Q1010=
201908131500 METAR LRAR 131500Z 02007KT 320V060 CAVOK 35/16 Q1010=
201908131530 METAR LRAR 131530Z 36004KT 330V050 CAVOK 35/15 Q1009=
201908131600 METAR LRAR 131600Z 02007KT 350V050 CAVOK 34/15 Q1010=
201908131630 METAR LRAR 131630Z 36005KT 330V030 CAVOK 33/17 Q1010=
201908131700 METAR LRAR 131700Z 35003KT 320V040 CAVOK 32/18 Q1010=
201908131730 METAR LRAR 131730Z 27004KT 240V330 CAVOK 30/18 Q1010=
201908131800 METAR LRAR 131800Z 24002KT CAVOK 29/19 Q1010=
201908131830 METAR LRAR 131830Z 24001KT CAVOK 27/19 Q1010=
201908131900 METAR LRAR 131900Z 13002KT CAVOK 26/19 Q1010=
201908131930 METAR LRAR 131930Z 31005KT CAVOK 25/20 Q1010=
201908132000 METAR LRAR 132000Z 31003KT 270V350 CAVOK 24/20 Q1010=
201908132030 METAR LRAR 132030Z 35003KT 300V030 CAVOK 24/20 Q1010=
201908132100 METAR LRAR 132100Z 27003KT 220V320 CAVOK 24/20 Q1010=
201908132130 METAR LRAR 132130Z 06003KT 350V090 CAVOK 24/20 Q1010=
201908132200 METAR LRAR 132200Z 36003KT 310V030 CAVOK 22/20 Q1010=
201908132230 METAR LRAR 132230Z 35003KT CAVOK 22/20 Q1010=
201908132300 METAR LRAR 132300Z 01005KT CAVOK 21/20 Q1009=
201908132330 METAR LRAR 132330Z 04003KT 360V090 CAVOK 21/19 Q1009=
201908140000 METAR LRAR 140000Z 08003KT 050V110 CAVOK 21/19 Q1009=
201908140030 METAR LRAR 140030Z 34002KT CAVOK 20/19 Q1009=
201908140100 METAR LRAR 140100Z 31007KT CAVOK 20/19 Q1009=
201908140130 METAR LRAR 140130Z 34004KT CAVOK 19/18 Q1009=
201908140200 METAR LRAR 140200Z 35003KT CAVOK 19/18 Q1010=
201908140230 METAR LRAR 140230Z 36002KT 330V030 CAVOK 18/18 Q1010=
201908140300 METAR LRAR 140300Z 04003KT 360V080 CAVOK 18/18 Q1010=
201908140330 METAR LRAR 140330Z 30005KT 290V350 CAVOK 17/17 Q1010=
201908140400 METAR LRAR 140400Z 33006KT CAVOK 18/18 Q1010=
201908140430 METAR LRAR 140430Z 33005KT CAVOK 19/18 Q1010=
201908140500 METAR LRAR 140500Z 33005KT CAVOK 20/18 Q1010=
201908140530 METAR LRAR 140530Z 33006KT 300V360 9999 SCT025 20/19 Q1010=
201908140600 METAR LRAR 140600Z 31011KT 9999 FEW013 SCT026 20/19 Q1011=
201908140630 METAR LRAR 140630Z 31010KT 9999 FEW010 SCT013 BKN015 21/19
                        Q1011=
201908140700 METAR LRAR 140700Z 32008KT 290V350 9999 FEW011 SCT016 BKN019
                        21/19 Q1011=
201908140730 METAR LRAR 140730Z 29010KT 9999 FEW012 SCT015 BKN022 21/19
                        Q1012=
201908140800 METAR LRAR 140800Z 29011KT 9999 SCT014 BKN020 21/18 Q1012=
201908140830 METAR LRAR 140830Z 29013KT 9999 FEW010 OVC013 19/18 Q1013=
201908140900 METAR LRAR 140900Z 29010KT 5000 DZ BR FEW007 BKN010 OVC013
                        18/18 Q1013=
201908140930 METAR LRAR 140930Z 30009KT 9999 BKN018 18/18 Q1013 REDZ=
201908141000 METAR LRAR 141000Z 30006KT 270V330 9999 SCT005 BKN017 19/18
                        Q1013 REDZ=
201908141030 METAR LRAR 141030Z 28006KT 9999 SCT008 BKN015 19/18 Q1013=
201908141100 METAR LRAR 141100Z 28007KT 260V320 9999 FEW007 BKN012 19/18
                        Q1013=
201908141130 METAR LRAR 141130Z 26009KT 9999 FEW009 BKN015 20/18 Q1013=
201908141200 METAR LRAR 141200Z 26009KT 9999 FEW011 BKN015 BKN020 20/18
                        Q1013=
201908141230 METAR LRAR 141230Z 25007KT 220V290 9999 FEW014 SCT018 BKN023
                        21/18 Q1013=
201908141300 METAR LRAR 141300Z 30012KT 9999 SCT021 BKN035 20/17 Q1013=
201908141330 METAR LRAR 141330Z 30011KT 9999 FEW008 SCT022 BKN035 21/17
                        Q1014=
201908141400 METAR LRAR 141400Z 30010KT 9999 FEW026 SCT032 21/16 Q1013=
201908141430 METAR LRAR 141430Z 31012KT 9999 FEW028 SCT037 21/16 Q1013=
201908141500 METAR LRAR 141500Z 31009KT 9999 FEW0027 SCT038 20/17 Q1013=
201908141530 METAR LRAR 141530Z 31009KT 9999 -RA FEW012 SCT040 19/17 Q1014=
201908141600 METAR LRAR 141600Z 30005KT 270V350 9999 SCT010 FEW030CB BKN030
                        19/18 Q1014=
201908141630 METAR LRAR 141630Z 29006KT 9999 FEW010 FEW028CB BKN040 18/18
                        Q1014=
201908141700 METAR LRAR 141700Z 30006KT 9999 FEW030CB SCT043 19/18 Q1014=
201908141730 METAR LRAR 141730Z 31004KT 9999 BKN016 18/18 Q1014=
201908141800 METAR LRAR 141800Z 02006KT 350V060 9999 FEW011 SCT014 OVC017
                        18/17 Q1015=
201908141830 METAR LRAR 141830Z 02008KT 9999 SCT009 BKN012 18/17 Q1015=
201908141900 METAR LRAR 141900Z 02008KT 340V040 9999 FEW011 SCT014 BKN018
                        18/16 Q1015=
201908141930 METAR LRAR 141930Z 01007KT 340V040 9999 SCT012 BKN028 17/16
                        Q1015=
201908142000 METAR LRAR 142000Z 01008KT 9999 BKN035 17/15 Q1015=
201908142030 METAR LRAR 142030Z 02008KT 330V050 9999 BKN035 17/14 Q1015=
201908142100 METAR LRAR 142100Z 35006KT 9999 BKN038 17/15 Q1016=
201908142130 METAR LRAR 142130Z 02009KT 9999 BKN040 17/14 Q1016=
201908142200 METAR LRAR 142200Z 01006KT 340V040 CAVOK 16/14 Q1016=
201908142230 METAR LRAR 142230Z 36004KT CAVOK 15/14 Q1015=
201908142300 METAR LRAR 142300Z 34002KT CAVOK 15/14 Q1016=
201908142330 METAR LRAR 142330Z 35003KT CAVOK 15/14 Q1016=
201908150000 METAR LRAR 150000Z 35003KT CAVOK 14/14 Q1015=
201908150030 METAR LRAR 150030Z 30004KT CAVOK 14/14 Q1015=
201908150100 METAR LRAR 150100Z 34004KT CAVOK 14/13 Q1015=
201908150130 METAR LRAR 150130Z 34004KT CAVOK 13/13 Q1015=
201908150200 METAR LRAR 150200Z 34004KT CAVOK 13/12 Q1015=
201908150230 METAR LRAR 150230Z 33005KT CAVOK 12/12 Q1015=
201908150300 METAR LRAR 150300Z 34005KT CAVOK 12/12 Q1015=
201908150330 METAR LRAR 150330Z 35004KT CAVOK 12/12 Q1015=
201908150400 METAR LRAR 150400Z 32003KT CAVOK 12/12 Q1015=
201908150430 METAR LRAR 150430Z 32004KT CAVOK 13/13 Q1015=
201908150500 METAR LRAR 150500Z 33005KT CAVOK 14/14 Q1015=
201908150530 METAR LRAR 150530Z 34006KT 320V020 CAVOK 14/13 Q1015=
201908150600 METAR LRAR 150600Z 33006KT CAVOK 15/13 Q1016=
201908150630 METAR LRAR 150630Z 36007KT CAVOK 16/12 Q1015=
201908150700 METAR LRAR 150700Z 34007KT 310V010 CAVOK 17/12 Q1015=
201908150730 METAR LRAR 150730Z 36006KT 340V040 CAVOK 18/12 Q1016=
201908150800 METAR LRAR 150800Z 34005KT 280V040 9999 FEW020 18/12 Q1015=
201908150830 METAR LRAR 150830Z 33006KT 290V020 9999 FEW020 19/12 Q1015=
201908150900 METAR LRAR 150900Z 34007KT 290V050 9999 FEW025 20/12 Q1015=
201908150930 METAR LRAR 150930Z 34007KT 290V030 9999 FEW026 20/12 Q1015=
201908151000 METAR LRAR 151000Z 34007KT 310V050 9999 SCT030 21/12 Q1015=
201908151030 METAR LRAR 151030Z 34007KT 300V030 9999 SCT034 22/12 Q1015=
201908151100 METAR LRAR 151100Z 35008KT 9999 SCT035 22/12 Q1015=
201908151130 METAR LRAR 151130Z 33008KT 290V020 9999 BKN036 22/12 Q1014=
201908151200 METAR LRAR 151200Z 35008KT 310V060 9999 BKN037 22/12 Q1014=
201908151230 METAR LRAR 151230Z 35007KT 300V040 9999 BKN040 23/13 Q1014=
201908151300 METAR LRAR 151300Z 33007KT 300V020 9999 FEW042 SCT049 24/12
                        Q1014=
201908151330 METAR LRAR 151330Z 01008KT 320V050 9999 BKN045 22/12 Q1014=
201908151400 METAR LRAR 151400Z 03010KT 9999 BKN048 23/12 Q1014=
201908151430 METAR LRAR 151430Z 02008KT 330V070 9999 BKN048 22/13 Q1014=
201908151500 METAR LRAR 151500Z 01006KT 330V080 9999 SCT048 23/12 Q1014=
201908151530 METAR LRAR 151530Z 04007KT 360V070 9999 SCT048 23/12 Q1014=
201908151600 METAR LRAR 151600Z 04008KT 360V070 9999 FEW030 SCT048 22/12
                        Q1014=
201908151630 METAR LRAR 151630Z 01007KT 340V040 9999 FEW033 SCT049 22/12
                        Q1014=
201908151700 METAR LRAR 151700Z 03007KT 9999 FEW034 SCT049 21/12 Q1014=
201908151730 METAR LRAR 151730Z 06005KT 9999 FEW049 20/13 Q1014=
201908151800 METAR LRAR 151800Z 06006KT CAVOK 19/13 Q1015=
201908151830 METAR LRAR 151830Z 06004KT CAVOK 18/13 Q1015=
201908151900 METAR LRAR 151900Z 06003KT CAVOK 18/13 Q1015=
201908151930 METAR LRAR 151930Z 00000KT CAVOK 17/13 Q1015=
201908152000 METAR LRAR 152000Z VRB02KT CAVOK 15/13 Q1015=
201908152030 METAR LRAR 152030Z 28003KT CAVOK 14/13 Q1015=
201908152100 METAR LRAR 152100Z 27002KT CAVOK 14/13 Q1015=
201908152130 METAR LRAR 152130Z 27004KT CAVOK 13/13 Q1015=
201908152200 METAR LRAR 152200Z VRB01KT CAVOK 14/13 Q1015=
201908152230 METAR LRAR 152230Z VRB02KT CAVOK 13/13 Q1015=
201908152300 METAR LRAR 152300Z 27003KT CAVOK 13/13 Q1015=
201908152330 METAR LRAR 152330Z 28004KT CAVOK 12/12 Q1015=
201908160000 METAR LRAR 160000Z VRB01KT CAVOK 12/12 Q1015=
201908160030 METAR LRAR 160030Z 00000KT CAVOK 12/12 Q1016=
201908160100 METAR LRAR 160100Z 00000KT 7000 NSC 12/12 Q1015=
201908160130 METAR LRAR 160130Z 00000KT CAVOK 12/12 Q1015=
201908160200 METAR LRAR 160200Z 00000KT CAVOK 12/12 Q1015=
201908160230 METAR LRAR 160230Z VRB01KT CAVOK 12/12 Q1015=
201908160300 METAR COR LRAR 160300Z 00000KT 7000 MIFG NSC 12/12 Q1016=
201908160330 METAR LRAR 160330Z VRB01KT 8000 MIFG NSC 11/11 Q1016=
201908160400 METAR LRAR 160400Z 27002KT 9999 MIFG NSC 11/11 Q1016=
201908160430 METAR LRAR 160430Z 24002KT 9999 MIFG NSC 12/12 Q1016=
201908160500 METAR COR LRAR 160500Z 00000KT CAVOK 15/14 Q1016=
201908160530 METAR LRAR 160530Z VRB01KT CAVOK 17/15 Q1016=
201908160600 METAR LRAR 160600Z 35002KT 300V050 CAVOK 18/15 Q1016=
201908160630 METAR LRAR 160630Z 01002KT 300V070 CAVOK 19/14 Q1016=
201908160700 METAR LRAR 160700Z 36003KT 290V050 CAVOK 20/13 Q1016=
201908160730 METAR COR LRAR 160730Z VRB03KT CAVOK 21/14 Q1016=
201908160800 METAR LRAR 160800Z VRB02KT CAVOK 22/12 Q1016=
201908160830 METAR LRAR 160830Z 35005KT 300V030 CAVOK 23/11 Q1016=
201908160900 METAR LRAR 160900Z 30005KT 260V360 9999 FEW040 23/12 Q1016=
201908160930 METAR LRAR 160930Z 30007KT 250V330 CAVOK 24/12 Q1016=
201908161000 METAR LRAR 161000Z 36007KT 310V060 CAVOK 25/10 Q1016=
201908161030 METAR LRAR 161030Z 29008KT CAVOK 25/09 Q1016=
201908161100 METAR LRAR 161100Z 32006KT 290V050 CAVOK 26/09 Q1015=
201908161130 METAR LRAR 161130Z 02006KT 290V080 CAVOK 25/09 Q1015=
201908161200 METAR LRAR 161200Z 36005KT 290V070 CAVOK 26/09 Q1015=
201908161230 METAR LRAR 161230Z 34007KT 310V010 CAVOK 26/08 Q1015=
201908161300 METAR LRAR 161300Z 28007KT 250V320 CAVOK 26/09 Q1015=
201908161330 METAR LRAR 161330Z 30007KT 240V350 CAVOK 26/07 Q1014=
201908161400 METAR LRAR 161400Z 29007KT 260V320 CAVOK 25/08 Q1014=
201908161430 METAR LRAR 161430Z VRB02KT CAVOK 26/08 Q1014=
201908161500 METAR LRAR 161500Z 31004KT 270V350 CAVOK 25/09 Q1014=
201908161530 METAR LRAR 161530Z 02002KT 290V090 CAVOK 24/10 Q1014=
201908161600 METAR LRAR 161600Z 19003KT CAVOK 25/08 Q1014=
201908161630 METAR LRAR 161630Z VRB02KT CAVOK 25/11 Q1014=
201908161700 METAR LRAR 161700Z VRB01KT CAVOK 24/11 Q1014=
201908161730 METAR LRAR 161730Z 31003KT 260V060 CAVOK 22/13 Q1015=
201908161800 METAR LRAR 161800Z 29006KT CAVOK 19/14 Q1015=
201908161830 METAR LRAR 161830Z 28007KT CAVOK 17/14 Q1015=
201908161900 METAR LRAR 161900Z 27006KT CAVOK 17/14 Q1016=
201908161930 METAR LRAR 161930Z 28004KT CAVOK 17/14 Q1016=
201908162000 METAR LRAR 162000Z 29004KT CAVOK 17/14 Q1016=
201908162030 METAR LRAR 162030Z 30002KT CAVOK 16/14 Q1016=
201908162100 METAR LRAR 162100Z 28006KT CAVOK 15/13 Q1016=
201908162130 METAR LRAR 162130Z 28004KT CAVOK 14/13 Q1016=
201908162200 METAR LRAR 162200Z 29003KT CAVOK 15/14 Q1016=
201908162230 METAR LRAR 162230Z 00000KT CAVOK 15/14 Q1016=
201908162300 METAR LRAR 162300Z 24001KT CAVOK 15/13 Q1016=
201908162330 METAR LRAR 162330Z VRB02KT CAVOK 14/13 Q1016=
201908170000 METAR LRAR 170000Z VRB02KT CAVOK 14/13 Q1016=
201908170030 METAR LRAR 170030Z 15002KT CAVOK 14/14 Q1016=
201908170100 METAR LRAR 170100Z VRB01KT CAVOK 13/13 Q1016=
201908170130 METAR LRAR 170130Z 17001KT CAVOK 13/13 Q1016=
201908170200 METAR LRAR 170200Z 18002KT CAVOK 14/14 Q1016=
201908170230 METAR LRAR 170230Z 22003KT CAVOK 15/14 Q1016=
201908170300 METAR LRAR 170300Z VRB01KT CAVOK 15/14 Q1016=
201908170330 METAR LRAR 170330Z VRB01KT CAVOK 15/14 Q1016=
201908170400 METAR LRAR 170400Z 14002KT CAVOK 14/14 Q1016=
201908170430 METAR LRAR 170430Z 14004KT CAVOK 14/13 Q1017=
201908170500 METAR LRAR 170500Z 14003KT CAVOK 15/14 Q1017=
201908170530 METAR LRAR 170530Z 13004KT CAVOK 16/14 Q1017=
201908170600 METAR LRAR 170600Z 16004KT 130V190 CAVOK 17/15 Q1017=
201908170630 METAR LRAR 170630Z 18003KT 130V220 CAVOK 19/15 Q1017=
201908170700 METAR LRAR 170700Z 17003KT 110V240 CAVOK 20/16 Q1017=
201908170730 METAR LRAR 170730Z 23004KT 150V260 CAVOK 21/16 Q1017=
201908170800 METAR LRAR 170800Z VRB03KT CAVOK 22/16 Q1017=
201908170830 METAR LRAR 170830Z 27004KT 200V360 9999 FEW035 23/16 Q1017=
201908170900 METAR LRAR 170900Z 28003KT 210V350 9999 SCT040 24/16 Q1017=
201908170930 METAR LRAR 170930Z VRB05KT 9999 BKN043 24/14 Q1017=
201908171000 METAR LRAR 171000Z VRB05KT 9999 BKN045 25/14 Q1017=
201908171030 METAR LRAR 171030Z 24009KT 9999 BKN045 25/14 Q1017=
201908171100 METAR LRAR 171100Z 28005KT 230V010 9999 BKN048 26/13 Q1017=
201908171130 METAR LRAR 171130Z 28008KT 250V330 9999 BKN048 25/14 Q1016=
201908171200 METAR LRAR 171200Z 27006KT 240V350 9999 FEW055TCU 26/12 Q1016=
201908171230 METAR LRAR 171230Z 29006KT 210V350 9999 FEW055TCU 27/13 Q1016=
201908171300 METAR LRAR 171300Z 26005KT 210V340 9999 FEW056TCU 26/11 Q1016=
201908171330 METAR LRAR 171330Z 23006KT 200V290 9999 FEW060TCU 26/10 Q1015=
201908171400 METAR LRAR 171400Z 26006KT 220V320 9999 FEW060TCU 27/12 Q1015=
201908171430 METAR LRAR 171430Z 29008KT CAVOK 27/10 Q1015=
201908171500 METAR LRAR 171500Z 28007KT 250V310 CAVOK 27/11 Q1015=
201908171530 METAR LRAR 171530Z 30008KT 270V340 CAVOK 27/10 Q1015=
201908171600 METAR LRAR 171600Z 30007KT CAVOK 26/11 Q1015=
201908171630 METAR LRAR 171630Z 28006KT CAVOK 25/13 Q1015=
201908171700 METAR LRAR 171700Z 29005KT CAVOK 24/14 Q1015=
201908171730 METAR LRAR 171730Z 29005KT CAVOK 23/14 Q1015=
201908171800 METAR LRAR 171800Z 29004KT CAVOK 21/13 Q1015=
201908171830 METAR LRAR 171830Z 28004KT CAVOK 20/13 Q1016=
201908171900 METAR LRAR 171900Z 27002KT CAVOK 20/13 Q1016=
201908171930 METAR LRAR 171930Z 26002KT CAVOK 20/13 Q1016=
201908172000 METAR LRAR 172000Z 25002KT CAVOK 18/13 Q1016=
201908172030 METAR LRAR 172030Z 25001KT CAVOK 18/13 Q1016=
201908172100 METAR LRAR 172100Z 23001KT CAVOK 17/13 Q1016=
201908172130 METAR LRAR 172130Z 00000KT CAVOK 17/13 Q1016=
201908172200 METAR LRAR 172200Z 14004KT CAVOK 17/14 Q1016=
201908172230 METAR LRAR 172230Z 16003KT CAVOK 17/13 Q1016=
201908172300 METAR LRAR 172300Z 15003KT CAVOK 17/12 Q1016=
201908172330 METAR LRAR 172330Z 00000KT CAVOK 16/12 Q1016=
201908180000 METAR LRAR 180000Z 00000KT CAVOK 14/13 Q1016=
201908180030 METAR LRAR 180030Z 15002KT CAVOK 15/13 Q1016=
201908180100 METAR LRAR 180100Z 15004KT CAVOK 15/13 Q1016=
201908180130 METAR LRAR 180130Z 14004KT CAVOK 15/13 Q1016=
201908180200 METAR LRAR 180200Z 14004KT CAVOK 15/12 Q1016=
201908180230 METAR LRAR 180230Z 14005KT CAVOK 15/12 Q1016=
201908180300 METAR LRAR 180300Z 14005KT CAVOK 14/13 Q1016=
201908180330 METAR LRAR 180330Z 14006KT CAVOK 14/13 Q1016=
201908180400 METAR LRAR 180400Z 14006KT CAVOK 14/13 Q1016=
201908180430 METAR LRAR 180430Z 14005KT CAVOK 15/14 Q1017=
201908180500 METAR LRAR 180500Z 14005KT CAVOK 16/14 Q1017=
201908180530 METAR LRAR 180530Z 14005KT CAVOK 18/15 Q1017=
201908180600 METAR LRAR 180600Z 14005KT CAVOK 19/15 Q1017=
201908180630 METAR LRAR 180630Z 16004KT CAVOK 20/15 Q1017=
201908180700 METAR LRAR 180700Z 17005KT 140V200 CAVOK 22/15 Q1017=
201908180730 METAR LRAR 180730Z 19005KT 150V220 CAVOK 24/15 Q1017=
201908180800 METAR LRAR 180800Z 20005KT 160V240 CAVOK 25/14 Q1017=
201908180830 METAR LRAR 180830Z VRB04KT CAVOK 26/13 Q1017=
201908180900 METAR LRAR 180900Z VRB03KT CAVOK 26/11 Q1017=
201908180930 METAR LRAR 180930Z VRB03KT CAVOK 27/11 Q1017=
201908181000 METAR LRAR 181000Z VRB03KT 9999 FEW026 27/11 Q1017=
201908181030 METAR LRAR 181030Z VRB02KT 9999 SCT028 27/12 Q1017=
201908181100 METAR LRAR 181100Z VRB03KT 9999 SCT030 28/11 Q1017=
201908181130 METAR LRAR 181130Z 17004KT 9999 SCT033 28/09 Q1017=
201908181200 METAR LRAR 181200Z 24005KT 210V320 9999 SCT034 28/11 Q1016=
201908181230 METAR LRAR 181230Z 25006KT 210V300 9999 SCT038 29/10 Q1016=
201908181300 METAR LRAR 181300Z 26006KT 230V300 9999 BKN040 28/12 Q1016=
201908181330 METAR LRAR 181330Z 24006KT 200V280 9999 BKN040 29/11 Q1016=
201908181400 METAR LRAR 181400Z VRB04KT 9999 SCT045 29/10 Q1016=
201908181430 METAR LRAR 181430Z 28005KT 240V320 9999 FEW048 29/10 Q1016=
201908181500 METAR COR LRAR 181500Z 28005KT 240V310 CAVOK 30/10 Q1016=
201908181530 METAR LRAR 181530Z 24005KT CAVOK 29/10 Q1015=
201908181600 METAR LRAR 181600Z 26005KT CAVOK 29/10 Q1015=
201908181630 METAR LRAR 181630Z 29004KT CAVOK 29/11 Q1015=
201908181700 METAR LRAR 181700Z 28004KT CAVOK 28/12 Q1016=
201908181730 METAR LRAR 181730Z VRB02KT CAVOK 26/14 Q1015=
201908181800 METAR LRAR 181800Z 18001KT CAVOK 23/14 Q1016=
201908181830 METAR LRAR 181830Z 19001KT CAVOK 22/13 Q1016=
201908181900 METAR LRAR 181900Z 18002KT CAVOK 22/13 Q1016=
201908181930 METAR LRAR 181930Z 17003KT CAVOK 21/13 Q1016=
201908182000 METAR LRAR 182000Z 15004KT CAVOK 20/13 Q1016=
201908182030 METAR LRAR 182030Z 15005KT CAVOK 20/12 Q1016=
201908182100 METAR LRAR 182100Z 14007KT CAVOK 20/12 Q1016=
201908182130 METAR LRAR 182130Z 14008KT CAVOK 20/13 Q1016=
201908182200 METAR LRAR 182200Z 15008KT CAVOK 19/13 Q1016=
201908182230 METAR LRAR 182230Z 14008KT CAVOK 19/13 Q1016=
201908182300 METAR LRAR 182300Z 14007KT CAVOK 19/14 Q1016=
201908182330 METAR LRAR 182330Z 13008KT CAVOK 19/13 Q1016=
201908190000 METAR LRAR 190000Z 13007KT CAVOK 19/13 Q1016=
201908190030 METAR LRAR 190030Z 14007KT CAVOK 19/13 Q1016=
201908190100 METAR LRAR 190100Z 14006KT CAVOK 18/13 Q1016=
201908190130 METAR LRAR 190130Z 13008KT CAVOK 18/13 Q1016=
201908190200 METAR LRAR 190200Z 13007KT CAVOK 18/14 Q1016=
201908190230 METAR LRAR 190230Z 13008KT CAVOK 18/14 Q1016=
201908190300 METAR LRAR 190300Z 14006KT CAVOK 18/13 Q1016=
201908190330 METAR LRAR 190330Z 14006KT CAVOK 18/13 Q1017=
201908190400 METAR LRAR 190400Z 14007KT CAVOK 17/13 Q1017=
201908190430 METAR LRAR 190430Z 13006KT CAVOK 18/13 Q1017=
201908190500 METAR LRAR 190500Z 13007KT CAVOK 20/14 Q1017=
201908190530 METAR LRAR 190530Z 14006KT CAVOK 22/14 Q1017=
201908190600 METAR LRAR 190600Z 14007KT CAVOK 24/13 Q1017=
201908190630 METAR LRAR 190630Z 13007KT CAVOK 25/13 Q1017=
201908190700 METAR LRAR 190700Z 13008KT CAVOK 26/13 Q1017=
201908190730 METAR LRAR 190730Z 12008KT CAVOK 27/13 Q1017=
201908190800 METAR LRAR 190800Z 13007KT 100V160 CAVOK 28/12 Q1017=
201908190830 METAR LRAR 190830Z 12007KT CAVOK 30/10 Q1017=
201908190900 METAR LRAR 190900Z 12007KT 100V160 CAVOK 30/09 Q1017=
201908190930 METAR LRAR 190930Z 12005KT 080V170 CAVOK 31/09 Q1017=
201908191000 METAR LRAR 191000Z 22005KT CAVOK 31/11 Q1017=
201908191030 METAR LRAR 191030Z VRB04KT CAVOK 32/10 Q1017=
201908191100 METAR LRAR 191100Z 16009KT CAVOK 32/11 Q1017=
201908191130 METAR LRAR 191130Z 20007KT 150V230 CAVOK 32/11 Q1017=
201908191200 METAR LRAR 191200Z VRB03KT CAVOK 33/13 Q1017=
201908191230 METAR LRAR 191230Z 27004KT 210V350 CAVOK 33/10 Q1017=
201908191300 METAR LRAR 191300Z 11007KT 080V140 CAVOK 33/12 Q1016=
201908191330 METAR LRAR 191330Z 33003KT 260V010 CAVOK 33/10 Q1016=
201908191400 METAR LRAR 191400Z 31005KT 180V350 CAVOK 34/12 Q1016=
201908191430 METAR LRAR 191430Z 30005KT 250V020 CAVOK 33/11 Q1016=
201908191500 METAR LRAR 191500Z 28006KT 250V310 CAVOK 33/12 Q1016=
201908191530 METAR LRAR 191530Z 31004KT 270V360 CAVOK 33/11 Q1016=
201908191600 METAR LRAR 191600Z 33003KT 290V040 CAVOK 33/10 Q1016=
201908191630 METAR LRAR 191630Z 32004KT CAVOK 33/12 Q1016=
201908191700 METAR LRAR 191700Z 34003KT CAVOK 31/13 Q1016=
201908191730 METAR LRAR 191730Z 36005KT CAVOK 29/13 Q1016=
201908191800 METAR LRAR 191800Z 03003KT CAVOK 28/13 Q1016=
201908191830 METAR LRAR 191830Z VRB01KT CAVOK 25/15 Q1017=
201908191900 METAR LRAR 191900Z 00000KT CAVOK 24/16 Q1017=
201908191930 METAR LRAR 191930Z VRB01KT CAVOK 23/15 Q1017=
201908192000 METAR LRAR 192000Z VRB01KT CAVOK 22/15 Q1017=
201908192030 METAR LRAR 192030Z 12003KT CAVOK 22/15 Q1017=
201908192100 METAR LRAR 192100Z 13004KT CAVOK 24/15 Q1017=
201908192130 METAR LRAR 192130Z 13004KT CAVOK 23/15 Q1017=
201908192200 METAR LRAR 192200Z 14006KT CAVOK 23/15 Q1017=
201908192230 METAR LRAR 192230Z 13006KT CAVOK 22/16 Q1017=
201908192300 METAR LRAR 192300Z 13006KT CAVOK 21/16 Q1018=
201908192330 METAR LRAR 192330Z 14007KT CAVOK 22/15 Q1018=
201908200000 METAR LRAR 200000Z 14005KT CAVOK 22/15 Q1018=
201908200030 METAR LRAR 200030Z 14007KT CAVOK 21/15 Q1018=
201908200100 METAR LRAR 200100Z 13007KT CAVOK 21/16 Q1017=
201908200130 METAR LRAR 200130Z 14008KT CAVOK 21/15 Q1017=
201908200200 METAR LRAR 200200Z 14007KT CAVOK 21/15 Q1018=
201908200230 METAR LRAR 200230Z 14008KT CAVOK 21/15 Q1018=
201908200300 METAR LRAR 200300Z 14007KT CAVOK 21/15 Q1018=
201908200330 METAR LRAR 200330Z 14008KT CAVOK 21/15 Q1018=
201908200400 METAR LRAR 200400Z 14007KT CAVOK 20/15 Q1018=
201908200430 METAR LRAR 200430Z 14007KT CAVOK 21/15 Q1019=
201908200500 METAR LRAR 200500Z 13007KT CAVOK 22/16 Q1019=
201908200530 METAR LRAR 200530Z 13007KT CAVOK 24/16 Q1019=
201908200600 METAR LRAR 200600Z 14005KT CAVOK 25/16 Q1019=
201908200630 METAR LRAR 200630Z 15007KT CAVOK 27/16 Q1019=
201908200700 METAR LRAR 200700Z 15006KT CAVOK 28/16 Q1019=
201908200730 METAR LRAR 200730Z 19005KT 140V240 CAVOK 29/15 Q1019=
201908200800 METAR LRAR 200800Z 20005KT 150V240 CAVOK 30/14 Q1019=
201908200830 METAR LRAR 200830Z 21006KT 170V240 CAVOK 30/14 Q1019=
201908200900 METAR LRAR 200900Z 23006KT 200V270 CAVOK 31/12 Q1019=
201908200930 METAR LRAR 200930Z 24004KT 170V290 CAVOK 32/13 Q1019=
201908201000 METAR LRAR 201000Z 26005KT CAVOK 32/13 Q1019=
201908201030 METAR LRAR 201030Z 30006KT 260V010 CAVOK 32/13 Q1019=
201908201100 METAR LRAR 201100Z 20006KT 130V250 CAVOK 33/13 Q1019=
201908201130 METAR LRAR 201130Z 32005KT 280V360 CAVOK 33/14 Q1019=
201908201200 METAR LRAR 201200Z 24006KT 170V290 CAVOK 33/14 Q1018=
201908201230 METAR LRAR 201230Z 27005KT 220V330 CAVOK 34/13 Q1018=
201908201300 METAR LRAR 201300Z VRB03KT CAVOK 34/13 Q1018=
201908201330 METAR LRAR 201330Z 27007KT 230V330 CAVOK 34/13 Q1018=
201908201400 METAR LRAR 201400Z 27004KT 210V340 CAVOK 34/14 Q1018=
201908201430 METAR LRAR 201430Z 30005KT 260V330 CAVOK 34/13 Q1018=
201908201500 METAR LRAR 201500Z 28004KT 230V010 CAVOK 34/14 Q1018=
201908201530 METAR LRAR 201530Z 28004KT 240V350 CAVOK 34/14 Q1018=
201908201600 METAR LRAR 201600Z 28004KT CAVOK 33/15 Q1018=
201908201630 METAR LRAR 201630Z 28005KT CAVOK 32/17 Q1018=
201908201700 METAR LRAR 201700Z 33004KT CAVOK 31/15 Q1018=
201908201730 METAR COR LRAR 201730Z 35002KT CAVOK 29/15 Q1018=
201908201800 METAR LRAR 201800Z VRB01KT CAVOK 27/17 Q1018=
201908201830 METAR LRAR 201830Z 25002KT CAVOK 25/18 Q1018=
201908201900 METAR LRAR 201900Z 24001KT CAVOK 25/17 Q1018=
201908201930 METAR LRAR 201930Z 00000KT CAVOK 24/17 Q1018=
201908202000 METAR LRAR 202000Z 12002KT CAVOK 24/17 Q1018=
201908202030 METAR LRAR 202030Z VRB01KT CAVOK 23/17 Q1018=
201908202100 METAR LRAR 202100Z 00000KT CAVOK 22/18 Q1018=
201908202130 METAR LRAR 202130Z 14002KT CAVOK 22/17 Q1018=
201908202200 METAR LRAR 202200Z 13004KT CAVOK 21/18 Q1018=
201908202230 METAR LRAR 202230Z 14007KT CAVOK 22/16 Q1018=
201908202300 METAR LRAR 202300Z 14005KT CAVOK 22/16 Q1018=
201908202330 METAR LRAR 202330Z 12002KT CAVOK 21/15 Q1018=
201908210000 METAR LRAR 210000Z 14006KT CAVOK 21/16 Q1018=
201908210030 METAR LRAR 210030Z 14006KT CAVOK 21/16 Q1018=
201908210100 METAR LRAR 210100Z 14007KT CAVOK 21/16 Q1018=
201908210130 METAR LRAR 210130Z 14006KT CAVOK 20/16 Q1018=
201908210200 METAR LRAR 210200Z 14007KT CAVOK 21/16 Q1018=
201908210230 METAR LRAR 210230Z 15007KT CAVOK 20/16 Q1018=
201908210300 METAR LRAR 210300Z 15006KT CAVOK 20/16 Q1018=
201908210330 METAR LRAR 210330Z 14006KT CAVOK 20/16 Q1019=
201908210400 METAR LRAR 210400Z 14007KT CAVOK 20/16 Q1019=
201908210430 METAR LRAR 210430Z 13008KT CAVOK 21/16 Q1019=
201908210500 METAR LRAR 210500Z 14007KT CAVOK 22/17 Q1019=
201908210530 METAR LRAR 210530Z 14007KT CAVOK 23/17 Q1019=
201908210600 METAR LRAR 210600Z 13008KT CAVOK 25/17 Q1020=
201908210630 METAR LRAR 210630Z 14006KT CAVOK 27/16 Q1020=
201908210700 METAR LRAR 210700Z 15006KT CAVOK 29/15 Q1020=
201908210730 METAR LRAR 210730Z 19004KT 140V230 CAVOK 30/12 Q1020=
201908210800 METAR LRAR 210800Z 22006KT 180V240 CAVOK 30/13 Q1020=
201908210830 METAR LRAR 210830Z 21006KT 170V250 CAVOK 31/12 Q1020=
201908210900 METAR LRAR 210900Z 26006KT 220V290 CAVOK 31/12 Q1020=
201908210930 METAR LRAR 210930Z 27007KT CAVOK 32/13 Q1020=
201908211000 METAR LRAR 211000Z 23004KT 150V300 CAVOK 32/12 Q1020=
201908211030 METAR LRAR 211030Z 28005KT 220V330 CAVOK 33/11 Q1020=
201908211100 METAR LRAR 211100Z 26007KT CAVOK 33/12 Q1019=
201908211130 METAR LRAR 211130Z 29005KT 250V320 CAVOK 33/12 Q1019=
201908211200 METAR LRAR 211200Z 02006KT 340V040 CAVOK 34/13 Q1019=
201908211230 METAR LRAR 211230Z VRB03KT CAVOK 34/12 Q1019=
201908211300 METAR LRAR 211300Z 02005KT 320V040 CAVOK 34/13 Q1019=
201908211330 METAR LRAR 211330Z VRB05KT CAVOK 34/12 Q1018=
201908211400 METAR LRAR 211400Z 33005KT 300V360 CAVOK 34/13 Q1018=
201908211430 METAR LRAR 211430Z 33006KT 300V020 CAVOK 34/13 Q1018=
201908211500 METAR LRAR 211500Z 33005KT 290V040 CAVOK 34/13 Q1018=
201908211530 METAR LRAR 211530Z 34005KT 310V030 CAVOK 34/13 Q1018=
201908211600 METAR LRAR 211600Z 34005KT 320V040 CAVOK 33/13 Q1018=
201908211630 METAR LRAR 211630Z 34006KT 320V030 CAVOK 33/13 Q1018=
201908211700 METAR LRAR 211700Z 01005KT CAVOK 32/14 Q1018=
201908211730 METAR LRAR 211730Z 36004KT CAVOK 30/14 Q1018=
201908211800 METAR LRAR 211800Z 01004KT CAVOK 28/15 Q1018=
201908211830 METAR LRAR 211830Z 00000KT CAVOK 27/16 Q1019=
201908211900 METAR LRAR 211900Z VRB02KT CAVOK 26/17 Q1019=
201908211930 METAR LRAR 211930Z 28004KT CAVOK 23/18 Q1019=
201908212000 METAR LRAR 212000Z 34008KT CAVOK 26/18 Q1019=
201908212030 METAR LRAR 212030Z 34009KT CAVOK 26/19 Q1020=
201908212100 METAR LRAR 212100Z 01009KT 340V040 CAVOK 25/19 Q1020=
201908212130 METAR LRAR 212130Z 36008KT CAVOK 24/18 Q1020=
201908212200 METAR LRAR 212200Z 02011KT 340V040 CAVOK 23/17 Q1020=
201908212230 METAR LRAR 212230Z 01009KT 330V050 CAVOK 22/17 Q1021=
201908212300 METAR LRAR 212300Z 02007KT 340V060 CAVOK 21/17 Q1021=
201908212330 METAR LRAR 212330Z 01008KT 350V050 CAVOK 20/16 Q1021=
201908220000 METAR LRAR 220000Z 02008KT 340V050 CAVOK 20/16 Q1021=
201908220030 METAR LRAR 220030Z 02009KT 350V050 CAVOK 20/16 Q1021=
201908220100 METAR LRAR 220100Z 03009KT 350V050 CAVOK 19/16 Q1020=
201908220130 METAR LRAR 220130Z 02007KT 350V050 CAVOK 19/16 Q1020=
201908220200 METAR LRAR 220200Z 01009KT 350V050 CAVOK 19/15 Q1020=
201908220230 METAR LRAR 220230Z 02009KT CAVOK 19/15 Q1020=
201908220300 METAR LRAR 220300Z 02007KT 340V050 CAVOK 18/15 Q1020=
201908220330 METAR LRAR 220330Z 01007KT CAVOK 18/15 Q1021=
201908220400 METAR LRAR 220400Z 01007KT 340V050 CAVOK 18/15 Q1021=
201908220430 METAR LRAR 220430Z 02008KT 340V040 CAVOK 18/15 Q1021=
201908220500 METAR LRAR 220500Z 01008KT 340V050 CAVOK 19/15 Q1021=
201908220530 METAR COR LRAR 220530Z 03010KT CAVOK 19/16 Q1022=
201908220600 METAR LRAR 220600Z 04007KT 360V080 CAVOK 20/16 Q1022=
201908220630 METAR LRAR 220630Z 02005KT 340V060 CAVOK 21/16 Q1022=
201908220700 METAR LRAR 220700Z 01003KT 290V100 CAVOK 22/16 Q1022=
201908220730 METAR LRAR 220730Z 01004KT 330V070 CAVOK 23/17 Q1022=
201908220800 METAR LRAR 220800Z VRB03KT CAVOK 24/17 Q1022=
201908220830 METAR LRAR 220830Z VRB04KT CAVOK 25/17 Q1022=
201908220900 METAR LRAR 220900Z VRB02KT CAVOK 27/18 Q1022=
201908220930 METAR LRAR 220930Z VRB03KT CAVOK 27/18 Q1022=
201908221000 METAR LRAR 221000Z VRB03KT CAVOK 28/18 Q1022=
201908221030 METAR LRAR 221030Z VRB03KT CAVOK 28/18 Q1022=
201908221100 METAR LRAR 221100Z 30004KT 230V020 CAVOK 29/18 Q1022=
201908221130 METAR LRAR 221130Z 31004KT 250V010 CAVOK 30/19 Q1021=
201908221200 METAR LRAR 221200Z 36005KT 270V050 CAVOK 30/17 Q1021=
201908221230 METAR LRAR 221230Z VRB04KT CAVOK 31/18 Q1021=
201908221300 METAR LRAR 221300Z VRB04KT 9999 FEW040 31/18 Q1021=
201908221330 METAR LRAR 221330Z 35005KT 300V020 9999 FEW040 31/18 Q1020=
201908221400 METAR LRAR 221400Z 36006KT 320V060 9999 FEW027 SCT044 31/17
                        Q1020=
201908221430 METAR LRAR 221430Z 01006KT 330V060 9999 FEW030 SCT045 32/17
                        Q1020=
201908221500 METAR LRAR 221500Z 36008KT 320V050 9999 FEW030 SCT046 32/17
                        Q1020=
201908221530 METAR LRAR 221530Z 01008KT 330V040 9999 FEW034 FEW047CB 31/17
                        Q1020=
201908221600 METAR LRAR 221600Z 36007KT 330V030 9999 FEW040 FEW050CB 31/18
                        Q1020=
201908221630 METAR LRAR 221630Z 01006KT 330V030 CAVOK 31/17 Q1020=
201908221700 METAR LRAR 221700Z 01006KT CAVOK 29/18 Q1020=
201908221730 METAR LRAR 221730Z 36006KT CAVOK 28/18 Q1020=
201908221800 METAR LRAR 221800Z 01005KT CAVOK 27/18 Q1021=
201908221830 METAR LRAR 221830Z 02005KT CAVOK 27/18 Q1021=
201908221900 METAR LRAR 221900Z 01008KT CAVOK 26/18 Q1021=
201908221930 METAR LRAR 221930Z 02008KT CAVOK 26/18 Q1021=
201908222000 METAR LRAR 222000Z 04009KT 010V070 CAVOK 25/18 Q1022=
201908222030 METAR LRAR 222030Z 05007KT CAVOK 24/18 Q1021=
201908222100 METAR LRAR 222100Z 05008KT CAVOK 24/18 Q1021=
201908222130 METAR LRAR 222130Z 04007KT CAVOK 23/18 Q1022=
201908222200 METAR LRAR 222200Z 02004KT 340V060 CAVOK 22/18 Q1022=
201908222230 METAR LRAR 222230Z 03006KT CAVOK 22/17 Q1022=
201908222300 METAR LRAR 222300Z 03007KT 360V060 CAVOK 21/17 Q1022=
201908222330 METAR LRAR 222330Z 05005KT 020V080 CAVOK 21/17 Q1021=
201908230000 METAR LRAR 230000Z 05004KT CAVOK 20/17 Q1021=
201908230030 METAR LRAR 230030Z VRB02KT CAVOK 19/16 Q1021=
201908230100 METAR LRAR 230100Z 36003KT CAVOK 18/16 Q1021=
201908230130 METAR LRAR 230130Z 01003KT CAVOK 18/16 Q1021=
201908230200 METAR LRAR 230200Z 35003KT CAVOK 17/16 Q1021=
201908230230 METAR LRAR 230230Z 35001KT CAVOK 17/16 Q1021=
201908230300 METAR LRAR 230300Z 34002KT CAVOK 17/16 Q1021=
201908230330 METAR LRAR 230330Z 04003KT CAVOK 17/17 Q1021=
201908230400 METAR LRAR 230400Z 06003KT 030V090 CAVOK 18/17 Q1022=
201908230430 METAR LRAR 230430Z 36003KT CAVOK 18/17 Q1022=
201908230500 METAR LRAR 230500Z 01003KT 340V060 CAVOK 19/17 Q1022=
201908230530 METAR LRAR 230530Z 02005KT 330V060 CAVOK 20/17 Q1022=
201908230600 METAR LRAR 230600Z 01004KT 330V050 CAVOK 21/17 Q1023=
201908230630 METAR LRAR 230630Z 02005KT 340V070 CAVOK 22/17 Q1023=
201908230700 METAR LRAR 230700Z 02004KT 320V070 CAVOK 23/18 Q1023=
201908230730 METAR LRAR 230730Z VRB03KT CAVOK 24/18 Q1023=
201908230800 METAR LRAR 230800Z VRB02KT CAVOK 25/18 Q1023=
201908230830 METAR LRAR 230830Z VRB02KT CAVOK 27/18 Q1023=
201908230900 METAR LRAR 230900Z 03004KT 310V110 CAVOK 27/18 Q1023=
201908230930 METAR LRAR 230930Z VRB05KT CAVOK 29/18 Q1023=
201908231000 METAR LRAR 231000Z 33006KT 280V030 CAVOK 29/18 Q1023=
201908231030 METAR LRAR 231030Z VRB05KT CAVOK 30/18 Q1022=
201908231100 METAR LRAR 231100Z 01005KT 300V060 CAVOK 30/17 Q1022=
201908231130 METAR LRAR 231130Z 02005KT 320V100 9999 FEW040 31/17 Q1022=
201908231200 METAR LRAR 231200Z VRB03KT 9999 FEW043 32/17 Q1021=
201908231230 METAR LRAR 231230Z 05006KT 010V080 9999 FEW045 32/18 Q1021=
201908231300 METAR LRAR 231300Z VRB03KT 9999 FEW048 32/17 Q1021=
201908231330 METAR LRAR 231330Z VRB02KT 9999 FEW048 33/17 Q1020=
201908231400 METAR LRAR 231400Z 01006KT 320V070 9999 FEW050TCU 33/17 Q1020=
201908231430 METAR LRAR 231430Z 15004KT 120V200 9999 FEW050TCU 32/16 Q1020=
201908231500 METAR LRAR 231500Z VRB06KT 9999 FEW050CB 32/17 Q1020=
201908231530 METAR LRAR 231530Z 01006KT 340V050 9999 TS VCSH SCT050CB
                        33/17 Q1020=
201908231600 METAR COR LRAR 231600Z 10018G28KT 9999 TS VCSH FEW008 SCT050CB
                        26/17 Q1020=
201908231630 METAR LRAR 231630Z 02008KT 330V050 9999 -TSRA FEW013 SCT052CB
                        27/18 Q1020=
201908231700 METAR LRAR 231700Z 05006KT 9999 TS FEW018 SCT055CB 29/18
                        Q1020 RESHRA=
201908231730 METAR LRAR 231730Z 03006KT 9999 TS FEW026 FEW060CB 28/18
                        Q1020 RESHRA=
201908231800 METAR LRAR 231800Z 03006KT 9999 SCT030 FEW060CB 28/18 Q1020
                        RETS=
201908231830 METAR LRAR 231830Z 03008KT 9999 SCT036 FEW060CB 28/17 Q1020
                        RETS=
201908231900 METAR LRAR 231900Z 04007KT 9999 FEW045 27/18 Q1021=
201908231930 METAR LRAR 231930Z 04007KT CAVOK 26/17 Q1021=
201908232000 METAR LRAR 232000Z 04006KT CAVOK 25/16 Q1021=
201908232030 METAR LRAR 232030Z 04007KT CAVOK 25/15 Q1021=
201908232100 METAR LRAR 232100Z 04005KT CAVOK 24/16 Q1020=
201908232130 METAR LRAR 232130Z 04004KT 360V060 CAVOK 23/16 Q1020=
201908232200 METAR LRAR 232200Z 05004KT CAVOK 23/16 Q1020=
201908232230 METAR LRAR 232230Z 05005KT CAVOK 22/17 Q1021=
201908232300 METAR LRAR 232300Z 04002KT 020V090 CAVOK 22/17 Q1020=
201908232330 METAR LRAR 232330Z VRB01KT CAVOK 21/17 Q1020=
201908240000 METAR LRAR 240000Z VRB01KT CAVOK 21/17 Q1020=
201908240030 METAR LRAR 240030Z VRB01KT CAVOK 19/17 Q1020=
201908240100 METAR LRAR 240100Z 00000KT CAVOK 19/18 Q1020=
201908240130 METAR LRAR 240130Z NIL=
201908240200 METAR LRAR 240200Z NIL=
201908240230 METAR COR LRAR 240230Z 06003KT CAVOK 19/17 Q1020 NOSIG=
201908240300 METAR LRAR 240300Z 08003KT CAVOK 19/18 Q1020=
201908240330 METAR LRAR 240330Z 10004KT CAVOK 19/17 Q1020=
201908240400 METAR LRAR 240400Z 09004KT CAVOK 20/17 Q1021=
201908240430 METAR LRAR 240430Z 12004KT CAVOK 20/17 Q1021=
201908240500 METAR LRAR 240500Z 13003KT CAVOK 22/18 Q1021=
201908240530 METAR LRAR 240530Z 14004KT CAVOK 23/17 Q1021=
201908240600 METAR LRAR 240600Z 15004KT 130V190 CAVOK 25/17 Q1021=
201908240630 METAR LRAR 240630Z 15007KT CAVOK 27/17 Q1021=
201908240700 METAR LRAR 240700Z 14008KT CAVOK 28/17 Q1021=
201908240730 METAR LRAR 240730Z 17006KT 130V220 CAVOK 29/16 Q1021=
201908240800 METAR LRAR 240800Z 20005KT 170V230 CAVOK 29/15 Q1021=
201908240830 METAR LRAR 240830Z 21005KT 150V250 CAVOK 30/15 Q1021=
201908240900 METAR LRAR 240900Z VRB03KT CAVOK 31/15 Q1021=
201908240930 METAR LRAR 240930Z 25006KT 170V300 CAVOK 31/14 Q1021=
201908241000 METAR LRAR 241000Z 26006KT 240V300 CAVOK 31/13 Q1021=
201908241030 METAR LRAR 241030Z 29005KT 210V010 9999 FEW045 32/14 Q1021=
201908241100 METAR LRAR 241100Z VRB03KT 9999 FEW045 32/13 Q1020=
201908241130 METAR LRAR 241130Z 24005KT 180V280 9999 SCT048 32/13 Q1020=
201908241200 METAR LRAR 241200Z 02006KT 340V060 9999 SCT048 33/14 Q1020=
201908241230 METAR LRAR 241230Z VRB05KT 9999 SCT048 33/13 Q1019=
201908241300 METAR LRAR 241300Z VRB05KT 9999 SCT048 33/13 Q1019=
201908241330 METAR LRAR 241330Z VRB05KT 9999 SCT048 33/13 Q1019=
201908241400 METAR LRAR 241400Z 03006KT 330V090 9999 SCT048 33/13 Q1019=
201908241430 METAR LRAR 241430Z 36007KT 9999 FEW045TCU 33/13 Q1019=
201908241500 METAR LRAR 241500Z 01007KT 330V050 9999 FEW045TCU 33/14 Q1018=
201908241530 METAR LRAR 241530Z 36007KT 320V040 9999 FEW050CB 33/14 Q1018=
201908241600 METAR LRAR 241600Z 03006KT 340V060 9999 FEW050CB 32/14 Q1018=
201908241630 METAR LRAR 241630Z 02006KT 350V050 9999 FEW050CB 31/15 Q1018=
201908241700 METAR LRAR 241700Z 01004KT 9999 FEW055CB 31/15 Q1018=
201908241730 METAR LRAR 241730Z 06005KT 9999 FEW055CB 30/15 Q1018=
201908241800 METAR LRAR 241800Z 06005KT 020V100 9999 FEW055CB 28/15 Q1019=
201908241830 METAR LRAR 241830Z 15005KT 030V190 9999 TS SCT055CB 27/17
                        Q1019=
201908241900 METAR LRAR 241900Z 25007KT 9999 TS SCT055CB 26/17 Q1019=
201908241930 METAR LRAR 241930Z 27005KT 9999 FEW055CB 25/17 Q1019 RETS=
201908242000 METAR LRAR 242000Z VRB02KT 9999 FEW060CB 25/17 Q1019 RETS=
201908242030 METAR LRAR 242030Z 06004KT CAVOK 25/17 Q1019=
201908242100 METAR LRAR 242100Z 16005KT 9999 VCTS FEW060CB 26/16 Q1019=
201908242130 METAR LRAR 242130Z VRB02KT 9999 VCTS FEW060CB 24/17 Q1019=
201908242200 METAR LRAR 242200Z 13004KT CAVOK 24/16 Q1019=
201908242230 METAR LRAR 242230Z 14004KT CAVOK 23/17 Q1019=
201908242300 METAR LRAR 242300Z 12006KT CAVOK 23/17 Q1019=
201908242330 METAR LRAR 242330Z 12003KT CAVOK 22/16 Q1019=
201908250000 METAR LRAR 250000Z 13003KT CAVOK 23/17 Q1019=
201908250030 METAR LRAR 250030Z VRB01KT CAVOK 22/17 Q1019=
201908250100 METAR LRAR 250100Z 12007KT CAVOK 23/17 Q1019=
201908250130 METAR LRAR 250130Z 13007KT CAVOK 23/17 Q1018=
201908250200 METAR LRAR 250200Z 13007KT CAVOK 23/16 Q1018=
201908250230 METAR LRAR 250230Z 13007KT CAVOK 23/16 Q1018=
201908250300 METAR LRAR 250300Z 13007KT CAVOK 23/16 Q1018=
201908250330 METAR LRAR 250330Z 14007KT CAVOK 23/16 Q1019=
201908250400 METAR LRAR 250400Z 13007KT 9999 FEW045 22/16 Q1019=
201908250430 METAR LRAR 250430Z 14006KT 9999 FEW043 21/16 Q1019=
201908250500 METAR LRAR 250500Z 14007KT 9999 FEW043 22/16 Q1019=
201908250530 METAR LRAR 250530Z 12006KT 9999 FEW045 23/16 Q1019=
201908250600 METAR LRAR 250600Z 12007KT 9999 FEW047 25/16 Q1019=
201908250630 METAR LRAR 250630Z 13009KT 9999 FEW048 26/16 Q1020=
201908250700 METAR LRAR 250700Z 13008KT CAVOK 27/16 Q1020=
201908250730 METAR LRAR 250730Z 14007KT 110V180 CAVOK 29/15 Q1020=
201908250800 METAR LRAR 250800Z 15005KT 120V190 CAVOK 29/14 Q1020=
201908250830 METAR LRAR 250830Z 15006KT 120V180 CAVOK 30/14 Q1020=
201908250900 METAR LRAR 250900Z VRB04KT CAVOK 31/13 Q1020=
201908250930 METAR LRAR 250930Z VRB03KT 9999 FEW047 31/13 Q1020=
201908251000 METAR LRAR 251000Z VRB04KT 9999 FEW045 32/14 Q1019=
201908251030 METAR LRAR 251030Z 24008KT 9999 FEW045 FEW048CB 30/15 Q1019=
201908251100 METAR LRAR 251100Z 27006KT 9999 FEW048 FEW050CB 32/14 Q1019=
201908251130 METAR LRAR 251130Z 23006KT 190V280 9999 SCT048 FEW050CB 31/15
                        Q1019=
201908251200 METAR LRAR 251200Z 25008KT 210V280 9999 VCTS FEW045 SCT050CB
                        31/17 Q1019=
201908251230 METAR LRAR 251230Z 22007KT 190V250 9999 SCT053CB 31/16 Q1018=
201908251300 METAR LRAR 251300Z 23006KT 9999 SCT055CB 31/15 Q1018=
201908251330 METAR LRAR 251330Z 24005KT 9999 FEW055CB 31/16 Q1018=
201908251400 METAR LRAR 251400Z 25005KT 210V310 9999 FEW056CB 31/17 Q1018=
201908251430 METAR LRAR 251430Z 25005KT 210V290 9999 FEW060CB 31/16 Q1018=
201908251500 METAR LRAR 251500Z 27006KT 9999 FEW055CB 31/16 Q1018=
201908251530 METAR LRAR 251530Z 27005KT 240V300 9999 FEW055CB 32/15 Q1018=
201908251600 METAR LRAR 251600Z 25004KT 220V290 9999 FEW055CB 32/15 Q1018=
201908251630 METAR LRAR 251630Z 07009KT 9999 FEW050CB 30/15 Q1018=
201908251700 METAR LRAR 251700Z 17007KT 130V200 9999 FEW050CB 29/16 Q1018=
201908251730 METAR LRAR 251730Z 18003KT 9999 FEW050CB 28/16 Q1018=
201908251800 METAR LRAR 251800Z 15008KT 9999 FEW050CB 27/16 Q1019=
201908251830 METAR LRAR 251830Z 16006KT 9999 FEW050CB 26/16 Q1019=
201908251900 METAR LRAR 251900Z 15005KT CAVOK 26/16 Q1019=
201908251930 METAR LRAR 251930Z 14005KT CAVOK 26/15 Q1019=
201908252000 METAR LRAR 252000Z 12008KT CAVOK 26/14 Q1019=
201908252030 METAR LRAR 252030Z 12008KT CAVOK 26/14 Q1019=
201908252100 METAR LRAR 252100Z 14007KT CAVOK 25/14 Q1019=
201908252130 METAR LRAR 252130Z 11006KT CAVOK 24/15 Q1019=
201908252200 METAR LRAR 252200Z 12003KT 9999 FEW050CB 24/16 Q1019=
201908252230 METAR LRAR 252230Z 10006KT 9999 FEW050CB 23/16 Q1019=
201908252300 METAR LRAR 252300Z 10009KT 9999 FEW050CB 25/16 Q1019=
201908252330 METAR LRAR 252330Z 11010KT 9999 FEW050CB 24/17 Q1019=
201908260000 METAR COR LRAR 260000Z 11013KT 9999 FEW050CB 24/17 Q1019=
201908260030 METAR LRAR 260030Z 10011KT 9999 FEW050CB 24/17 Q1019=
201908260100 METAR LRAR 260100Z 12011KT 9999 VCTS FEW050CB 23/17 Q1019=
201908260130 METAR LRAR 260130Z 10011KT 9999 VCTS FEW050CB 24/16 Q1019=
201908260200 METAR LRAR 260200Z 10009KT CAVOK 24/16 Q1020=
201908260230 METAR LRAR 260230Z AUTO 10009KT 070V140 9999 FEW076/// 23/16
                        Q1020=
201908260300 METAR LRAR 260300Z 13006KT CAVOK 23/17 Q1020=
201908260330 METAR LRAR 260330Z 10007KT CAVOK 22/18 Q1020=
201908260400 METAR LRAR 260400Z 09005KT 9999 SCT048 22/17 Q1020=
201908260430 METAR COR LRAR 260430Z 14006KT 110V170 9999 FEW013 SCT048
                        21/17 Q1021=
201908260500 METAR COR LRAR 260500Z 13006KT 9999 SCT014 SCT049 21/18 Q1020=
201908260530 METAR LRAR 260530Z 11005KT 9999 -RA SCT015 BKN047 21/18 Q1021=
201908260600 METAR LRAR 260600Z 13007KT 9999 SCT018 BKN048 FEW050CB 21/18
                        Q1021=
201908260630 METAR LRAR 260630Z 11008KT 9999 SCT021 BKN048 FEW055CB 21/18
                        Q1020=
201908260700 METAR LRAR 260700Z 12007KT 9999 -SHRA SCT022 BKN045 FEW056CB
                        21/19 Q1021=
201908260730 METAR LRAR 260730Z 12004KT 9999 -SHRA SCT025 SCT046 FEW057CB
                        22/20 Q1021 R09/19//95=
201908260800 METAR LRAR 260800Z 13008KT 9999 SCT026 SCT048 23/19 Q1021
                        R09/19//95=
201908260830 METAR LRAR 260830Z 11009KT 9999 SCT028 SCT049 26/19 Q1021
                        R09/19//95=
201908260900 METAR LRAR 260900Z 10007KT 9999 FEW033 SCT049 26/19 Q1020
                        R09/19//95=
201908260930 METAR LRAR 260930Z 10006KT CAVOK 28/18 Q1020 R09/19//95=
201908261000 METAR LRAR 261000Z 13008KT 100V160 CAVOK 29/16 Q1021 R09/CLRD//=
201908261030 METAR LRAR 261030Z 09007KT CAVOK 29/17 Q1021=
201908261100 METAR LRAR 261100Z 13006KT 100V180 CAVOK 29/18 Q1020=
201908261130 METAR LRAR 261130Z 11007KT 080V140 9999 FEW030 29/18 Q1020=
201908261200 METAR COR LRAR 261200Z 12007KT 9999 FEW036 29/17 Q1020=
201908261230 METAR LRAR 261230Z 12012KT 9999 SCT037 28/18 Q1020=
201908261300 METAR LRAR 261300Z 11009KT 9999 SCT038 29/18 Q1020=
201908261330 METAR LRAR 261330Z 09006KT 060V120 9999 FEW045 29/16 Q1019=
201908261400 METAR LRAR 261400Z 09006KT 060V130 CAVOK 30/16 Q1019=
201908261430 METAR LRAR 261430Z 11005KT 070V150 CAVOK 30/15 Q1019=
201908261500 METAR LRAR 261500Z VRB03KT CAVOK 30/15 Q1018=
201908261530 METAR LRAR 261530Z 12004KT CAVOK 30/15 Q1018=
201908261600 METAR LRAR 261600Z 08006KT CAVOK 29/14 Q1018=
201908261630 METAR LRAR 261630Z 07007KT CAVOK 28/15 Q1018=
201908261700 METAR LRAR 261700Z 07008KT CAVOK 27/16 Q1018=
201908261730 METAR LRAR 261730Z 08005KT CAVOK 26/17 Q1018=
201908261800 METAR LRAR 261800Z 08005KT CAVOK 25/18 Q1019=
201908261830 METAR LRAR 261830Z 09004KT CAVOK 25/18 Q1019=
201908261900 METAR LRAR 261900Z 07003KT CAVOK 24/18 Q1019=
201908261930 METAR LRAR 261930Z 08004KT CAVOK 23/18 Q1019=
201908262000 METAR LRAR 262000Z 07004KT CAVOK 23/18 Q1019=
201908262030 METAR LRAR 262030Z 10008KT CAVOK 24/17 Q1019=
201908262100 METAR LRAR 262100Z 09007KT CAVOK 24/17 Q1018=
201908262130 METAR LRAR 262130Z 10006KT CAVOK 23/17 Q1018=
201908262200 METAR LRAR 262200Z 12005KT CAVOK 23/17 Q1018=
201908262230 METAR LRAR 262230Z 13008KT CAVOK 24/17 Q1018=
201908262300 METAR LRAR 262300Z 13010KT CAVOK 24/16 Q1018=
201908262330 METAR LRAR 262330Z 13010KT CAVOK 24/15 Q1018=
201908270000 METAR LRAR 270000Z 14008KT CAVOK 24/15 Q1019=
201908270030 METAR LRAR 270030Z 19010KT CAVOK 24/15 Q1019=
201908270100 METAR LRAR 270100Z 16005KT CAVOK 23/16 Q1019=
201908270130 METAR LRAR 270130Z 17006KT CAVOK 22/16 Q1019=
201908270200 METAR LRAR 270200Z 11005KT 080V140 CAVOK 20/16 Q1019=
201908270230 METAR LRAR 270230Z 13006KT CAVOK 21/17 Q1019=
201908270300 METAR LRAR 270300Z 14005KT CAVOK 20/17 Q1019=
201908270330 METAR LRAR 270330Z 13005KT 9999 FEW045CB 20/18 Q1019=
201908270400 METAR LRAR 270400Z 14004KT 9999 FEW050CB 20/17 Q1019=
201908270430 METAR LRAR 270430Z 12009KT CAVOK 20/17 Q1020=
201908270500 METAR LRAR 270500Z 13009KT CAVOK 21/16 Q1020=
201908270530 METAR LRAR 270530Z 13008KT CAVOK 22/17 Q1020=
201908270600 METAR LRAR 270600Z 14007KT CAVOK 23/17 Q1020=
201908270630 METAR LRAR 270630Z 13005KT CAVOK 24/17 Q1020=
201908270700 METAR LRAR 270700Z 12004KT 100V170 CAVOK 26/18 Q1020=
201908270730 METAR LRAR 270730Z 12004KT 070V160 CAVOK 27/17 Q1020=
201908270800 METAR LRAR 270800Z 13007KT 110V170 CAVOK 28/17 Q1020=
201908270830 METAR LRAR 270830Z 12006KT 100V170 CAVOK 28/15 Q1020=
201908270900 METAR LRAR 270900Z 10007KT 080V170 CAVOK 30/15 Q1020=
201908270930 METAR LRAR 270930Z 13008KT 090V170 CAVOK 30/15 Q1020=
201908271000 METAR LRAR 271000Z 15006KT 100V220 CAVOK 31/14 Q1020=
201908271030 METAR LRAR 271030Z VRB04KT CAVOK 32/14 Q1020=
201908271100 METAR LRAR 271100Z 13006KT 100V200 CAVOK 32/13 Q1020=
201908271130 METAR LRAR 271130Z 14005KT 070V200 CAVOK 32/12 Q1020=
201908271200 METAR LRAR 271200Z 11008KT CAVOK 33/13 Q1019=
201908271230 METAR LRAR 271230Z 20005KT 080V250 9999 FEW045 33/12 Q1019=
201908271300 METAR LRAR 271300Z 24004KT 200V290 9999 FEW045 33/11 Q1019=
201908271330 METAR LRAR 271330Z 12007KT 070V140 9999 FEW047 33/13 Q1019=
201908271400 METAR LRAR 271400Z 10008KT 9999 FEW048 33/13 Q1019=
201908271430 METAR LRAR 271430Z 12007KT 9999 FEW050TCU 32/13 Q1019=
201908271500 METAR LRAR 271500Z 08008KT 050V110 9999 TS FEW050CB 31/14
                        Q1019=
201908271530 METAR LRAR 271530Z 08009KT 9999 TS VCSH FEW050CB 31/15 Q1019=
201908271600 METAR LRAR 271600Z 08006KT 9999 TS VCSH FEW055CB 30/14 Q1018=
201908271630 METAR LRAR 271630Z 09008KT 9999 TS FEW050CB 30/14 Q1018=
201908271700 METAR LRAR 271700Z AUTO 09006KT 9999 -SHRA NCD 29/13 Q1018=
201908271730 METAR COR LRAR 271730Z 09005KT CAVOK 27/13 Q1019 RETS=
201908271800 METAR LRAR 271800Z 10005KT CAVOK 26/12 Q1019=
201908271830 METAR LRAR 271830Z 10005KT CAVOK 26/13 Q1019=
201908271900 METAR LRAR 271900Z 11003KT CAVOK 25/14 Q1019=
201908271930 METAR LRAR 271930Z 08004KT CAVOK 25/14 Q1019=
201908272000 METAR LRAR 272000Z 11004KT CAVOK 24/14 Q1019=
201908272030 METAR LRAR 272030Z 14004KT CAVOK 24/15 Q1019=
201908272100 METAR LRAR 272100Z 14004KT CAVOK 23/16 Q1019=
201908272130 METAR LRAR 272130Z 13006KT CAVOK 23/16 Q1019=
201908272200 METAR LRAR 272200Z 13006KT CAVOK 22/16 Q1020=
201908272230 METAR LRAR 272230Z 13007KT CAVOK 23/15 Q1020=
201908272300 METAR LRAR 272300Z 12007KT CAVOK 23/15 Q1019=
201908272330 METAR LRAR 272330Z 13008KT CAVOK 23/15 Q1019=
201908280000 METAR COR LRAR 280000Z 14008KT CAVOK 22/16 Q1020=
201908280030 METAR LRAR 280030Z 14007KT CAVOK 22/16 Q1019=
201908280100 METAR LRAR 280100Z 14007KT CAVOK 21/16 Q1019=
201908280130 METAR LRAR 280130Z 13007KT CAVOK 21/16 Q1019=
201908280200 METAR LRAR 280200Z 13008KT CAVOK 22/16 Q1019=
201908280230 METAR LRAR 280230Z 14007KT CAVOK 22/16 Q1019=
201908280300 METAR LRAR 280300Z 14008KT CAVOK 22/16 Q1019=
201908280330 METAR LRAR 280330Z 14008KT CAVOK 22/16 Q1019=
201908280400 METAR LRAR 280400Z 14008KT CAVOK 22/16 Q1019=
201908280430 METAR LRAR 280430Z 14008KT CAVOK 22/16 Q1019=
201908280500 METAR LRAR 280500Z 13008KT CAVOK 23/16 Q1020=
201908280530 METAR COR LRAR 280530Z 13008KT CAVOK 24/16 Q1020=
201908280600 METAR LRAR 280600Z 13008KT CAVOK 25/16 Q1020=
201908280630 METAR LRAR 280630Z 14009KT CAVOK 26/16 Q1020=
201908280700 METAR LRAR 280700Z 14008KT CAVOK 28/16 Q1020=
201908280730 METAR LRAR 280730Z 13007KT CAVOK 29/16 Q1020=
201908280800 METAR LRAR 280800Z 13006KT 100V180 CAVOK 30/14 Q1020=
201908280830 METAR LRAR 280830Z 16007KT 130V190 CAVOK 31/13 Q1020=
201908280900 METAR LRAR 280900Z 16008KT 130V200 CAVOK 32/12 Q1020=
201908280930 METAR LRAR 280930Z 16009KT 140V210 CAVOK 32/12 Q1019=
201908281000 METAR LRAR 281000Z 19007KT 150V230 CAVOK 32/12 Q1019=
201908281030 METAR LRAR 281030Z 20005KT 150V280 CAVOK 31/11 Q1019=
201908281100 METAR LRAR 281100Z 20007KT 180V240 CAVOK 32/12 Q1019=
201908281130 METAR LRAR 281130Z 14007KT 100V180 9999 SCT048 33/11 Q1019=
201908281200 METAR LRAR 281200Z 16008KT 9999 SCT048 33/11 Q1018=
201908281230 METAR LRAR 281230Z 16004KT 9999 SCT048 33/11 Q1018=
201908281300 METAR LRAR 281300Z 16008KT 9999 SCT048 33/12 Q1018=
201908281330 METAR LRAR 281330Z VRB01KT CAVOK 32/14 Q1018=
201908281400 METAR LRAR 281400Z 12005KT CAVOK 31/14 Q1018=
201908281430 METAR LRAR 281430Z 14015KT 9999 -SHRA VCTS FEW045 FEW050CB
                        28/14 Q1018=
201908281500 METAR LRAR 281500Z 31008KT 9999 -TSRA FEW012 SCT045CB 27/14
                        Q1018 RESHRA R09/29//95=
201908281530 METAR LRAR 281530Z 32007KT 9999 FEW040CB 26/17 Q1018 RETSRA
                        R09/29//95=
201908281600 METAR LRAR 281600Z 32007KT 9999 FEW045CB 27/16 Q1018 RETS
                        R09/19//95=
201908281630 METAR LRAR 281630Z 00000KT 9999 FEW050CB 26/20 Q1017 R09/19//95=
201908281700 METAR LRAR 281700Z 11004KT CAVOK 26/19 Q1018 R09/19//95=
201908281730 METAR LRAR 281730Z 11004KT CAVOK 26/17 Q1018 R09/19//95=
201908281800 METAR LRAR 281800Z 12004KT CAVOK 24/18 Q1018 R09/19//95=
201908281830 METAR LRAR 281830Z 11002KT CAVOK 24/18 Q1018 R09/CLRD//=
201908281900 METAR LRAR 281900Z 12004KT CAVOK 23/18 Q1018=
201908281930 METAR LRAR 281930Z 13004KT CAVOK 23/18 Q1018=
201908282000 METAR LRAR 282000Z 14006KT CAVOK 23/17 Q1018=
201908282030 METAR LRAR 282030Z 14007KT CAVOK 22/17 Q1018=
201908282100 METAR LRAR 282100Z 14007KT CAVOK 22/17 Q1018=
201908282130 METAR LRAR 282130Z 14008KT CAVOK 22/17 Q1018=
201908282200 METAR LRAR 282200Z 13007KT CAVOK 22/17 Q1018=
201908282230 METAR LRAR 282230Z 14007KT CAVOK 21/17 Q1018=
201908282300 METAR LRAR 282300Z 14007KT CAVOK 21/17 Q1018=
201908282330 METAR LRAR 282330Z 14007KT CAVOK 21/17 Q1018=
201908290000 METAR LRAR 290000Z 14007KT CAVOK 20/17 Q1018=
201908290030 METAR LRAR 290030Z 14007KT CAVOK 20/17 Q1018=
201908290100 METAR LRAR 290100Z 14004KT CAVOK 19/16 Q1018=
201908290130 METAR LRAR 290130Z 13005KT CAVOK 19/16 Q1018=
201908290200 METAR LRAR 290200Z 14006KT CAVOK 20/16 Q1018=
201908290230 METAR LRAR 290230Z 13005KT CAVOK 19/16 Q1018=
201908290300 METAR LRAR 290300Z 14007KT CAVOK 20/16 Q1018=
201908290330 METAR LRAR 290330Z 14008KT CAVOK 20/16 Q1018=
201908290400 METAR LRAR 290400Z 14007KT CAVOK 20/16 Q1018=
201908290430 METAR LRAR 290430Z 13007KT CAVOK 20/16 Q1019=
201908290500 METAR LRAR 290500Z 14006KT CAVOK 21/17 Q1019=
201908290530 METAR LRAR 290530Z 13007KT CAVOK 22/17 Q1019=
201908290600 METAR LRAR 290600Z 14007KT CAVOK 24/17 Q1019=
201908290630 METAR LRAR 290630Z 14008KT CAVOK 25/16 Q1019=
201908290700 METAR LRAR 290700Z 15007KT CAVOK 27/16 Q1019=
201908290730 METAR LRAR 290730Z 13008KT CAVOK 28/15 Q1019=
201908290800 METAR LRAR 290800Z 12008KT CAVOK 29/15 Q1019=
201908290830 METAR LRAR 290830Z 15009KT CAVOK 30/12 Q1018=
201908290900 METAR LRAR 290900Z 15007KT 120V200 CAVOK 31/11 Q1018=
201908290930 METAR LRAR 290930Z 15006KT 100V200 CAVOK 32/11 Q1018=
201908291000 METAR LRAR 291000Z 16006KT 120V190 CAVOK 32/10 Q1018=
201908291030 METAR LRAR 291030Z 10006KT 050V140 CAVOK 32/10 Q1018=
201908291100 METAR LRAR 291100Z 19006KT 150V220 CAVOK 32/10 Q1018=
201908291130 METAR LRAR 291130Z 12006KT 080V160 CAVOK 32/12 Q1018=
201908291200 METAR LRAR 291200Z VRB02KT CAVOK 33/10 Q1018=
201908291230 METAR LRAR 291230Z 13005KT 080V170 CAVOK 33/12 Q1018=
201908291300 METAR LRAR 291300Z 05004KT 360V110 9999 FEW055TCU 33/10 Q1018=
201908291330 METAR LRAR 291330Z VRB04KT 9999 FEW055TCU 33/10 Q1017=
201908291400 METAR LRAR 291400Z 05005KT 010V100 CAVOK 32/11 Q1017=
201908291430 METAR LRAR 291430Z 08006KT 050V110 CAVOK 32/11 Q1017=
201908291500 METAR LRAR 291500Z 08006KT 040V110 CAVOK 32/11 Q1017=
201908291530 METAR LRAR 291530Z 07007KT 030V110 CAVOK 32/11 Q1017=
201908291600 METAR LRAR 291600Z 05005KT 340V080 CAVOK 32/11 Q1017=
201908291630 METAR LRAR 291630Z 07006KT CAVOK 31/11 Q1017=
201908291700 METAR LRAR 291700Z 08004KT CAVOK 30/10 Q1017=
201908291730 METAR LRAR 291730Z VRB01KT CAVOK 27/16 Q1017=
201908291800 METAR LRAR 291800Z 00000KT CAVOK 25/17 Q1017=
201908291830 METAR LRAR 291830Z 00000KT CAVOK 24/16 Q1017=
201908291900 METAR LRAR 291900Z VRB01KT CAVOK 23/16 Q1017=
201908291930 METAR LRAR 291930Z VRB01KT CAVOK 22/15 Q1017=
201908292000 METAR LRAR 292000Z 14004KT CAVOK 22/15 Q1017=
201908292030 METAR COR LRAR 292030Z 16001KT CAVOK 22/15 Q1018=
201908292100 METAR LRAR 292100Z 11002KT CAVOK 21/15 Q1018=
201908292130 METAR LRAR 292130Z 06001KT CAVOK 20/16 Q1018=
201908292200 METAR LRAR 292200Z 16001KT CAVOK 20/16 Q1018=
201908292230 METAR LRAR 292230Z 27001KT CAVOK 19/16 Q1018=
201908292300 METAR LRAR 292300Z VRB01KT CAVOK 19/16 Q1018=
201908292330 METAR LRAR 292330Z 00000KT CAVOK 19/16 Q1018=
201908300000 METAR LRAR 300000Z 16001KT CAVOK 19/16 Q1018=
201908300030 METAR LRAR 300030Z 13002KT CAVOK 19/16 Q1018=
201908300100 METAR LRAR 300100Z 13002KT CAVOK 19/16 Q1018=
201908300130 METAR LRAR 300130Z VRB02KT CAVOK 18/16 Q1018=
201908300200 METAR LRAR 300200Z 14003KT CAVOK 19/16 Q1018=
201908300230 METAR LRAR 300230Z 00000KT CAVOK 17/16 Q1018=
201908300300 METAR LRAR 300300Z 00000KT CAVOK 17/16 Q1018=
201908300330 METAR LRAR 300330Z 03002KT CAVOK 17/16 Q1018=
201908300400 METAR COR LRAR 300400Z VRB02KT CAVOK 17/16 Q1018=
201908300430 METAR LRAR 300430Z 00000KT CAVOK 17/16 Q1018=
201908300500 METAR LRAR 300500Z 00000KT CAVOK 19/16 Q1019=
201908300530 METAR LRAR 300530Z VRB01KT CAVOK 21/18 Q1019=
201908300600 METAR LRAR 300600Z 00000KT CAVOK 24/18 Q1019=
201908300630 METAR LRAR 300630Z VRB01KT CAVOK 24/17 Q1019=
201908300700 METAR LRAR 300700Z VRB01KT CAVOK 27/17 Q1019=
201908300730 METAR LRAR 300730Z VRB02KT CAVOK 27/16 Q1019=
201908300800 METAR COR LRAR 300800Z VRB02KT CAVOK 27/16 Q1019=
201908300830 METAR LRAR 300830Z 02005KT 330V070 CAVOK 30/15 Q1019=
201908300900 METAR COR LRAR 300900Z 03007KT CAVOK 31/15 Q1019=
201908300930 METAR COR LRAR 300930Z 03008KT CAVOK 31/15 Q1019=
201908301000 METAR LRAR 301000Z 9999 FEW033 32/14 Q1019=
201908301030 METAR LRAR 301030Z 01007KT 340V070 9999 FEW033 33/14 Q1019=
201908301100 METAR LRAR 301100Z 03008KT 330V090 9999 SCT033 33/14 Q1019=
201908301130 METAR LRAR 301130Z 04008KT 360V070 9999 SCT035 33/13 Q1019=
201908301200 METAR LRAR 301200Z 03009KT 350V070 9999 SCT037 33/13 Q1018=
201908301230 METAR LRAR 301230Z 33008KT 300V010 9999 SCT040 33/13 Q1018=
201908301300 METAR LRAR 301300Z 01004KT 290V060 9999 SCT045 33/14 Q1017=
201908301330 METAR LRAR 301330Z 03006KT 360V080 9999 SCT045 34/13 Q1017=
201908301400 METAR LRAR 301400Z 02008KT 330V060 9999 SCT046 33/12 Q1017=
201908301430 METAR COR LRAR 301430Z 02006KT 330V060 9999 SCT047 34/13
                        Q1017=
201908301500 METAR LRAR 301500Z 36008KT 320V040 9999 SCT048 33/11 Q1017=
201908301530 METAR LRAR 301530Z 36006KT 330V030 9999 SCT048 33/12 Q1017=
201908301600 METAR LRAR 301600Z 01007KT 350V050 9999 FEW050CB 32/12 Q1017=
201908301630 METAR LRAR 301630Z 36007KT 9999 FEW050CB 31/12 Q1017=
201908301700 METAR LRAR 301700Z 01005KT 9999 FEW050CB 29/12 Q1017=
201908301730 METAR LRAR 301730Z 34006KT CAVOK 27/14 Q1017=
201908301800 METAR LRAR 301800Z 34006KT CAVOK 26/15 Q1018=
201908301830 METAR LRAR 301830Z 34005KT CAVOK 25/16 Q1018=
201908301900 METAR LRAR 301900Z 35004KT CAVOK 24/15 Q1018=
201908301930 METAR LRAR 301930Z 36005KT CAVOK 24/15 Q1018=
201908302000 METAR LRAR 302000Z VRB01KT CAVOK 23/15 Q1018=
201908302030 METAR LRAR 302030Z 04003KT CAVOK 23/15 Q1018=
201908302100 METAR LRAR 302100Z 32003KT CAVOK 21/16 Q1018=
201908302130 METAR LRAR 302130Z 33003KT CAVOK 20/16 Q1018=
201908302200 METAR LRAR 302200Z 36003KT CAVOK 19/17 Q1018=
201908302230 METAR LRAR 302230Z VRB02KT CAVOK 19/17 Q1018=
201908302300 METAR LRAR 302300Z 15003KT CAVOK 18/17 Q1018=
201908302330 METAR LRAR 302330Z 13003KT CAVOK 19/16 Q1018=
201908310000 METAR LRAR 310000Z VRB02KT CAVOK 20/15 Q1018=
201908310030 METAR LRAR 310030Z 33003KT CAVOK 18/15 Q018=
201908310100 METAR LRAR 310100Z 35001KT CAVOK 16/15 Q1017=
201908310130 METAR LRAR 310130Z 00000KT CAVOK 17/15 Q1017=
201908310200 METAR LRAR 310200Z 35003KT CAVOK 17/15 Q1017=
201908310230 METAR LRAR 310230Z 03003KT CAVOK 16/15 Q1017=
201908310300 METAR LRAR 310300Z 05002KT CAVOK 17/15 Q1017=
201908310330 METAR LRAR 310330Z 10001KT CAVOK 17/15 Q1017=
201908310400 METAR LRAR 310400Z 15004KT CAVOK 17/16 Q1018=
201908310430 METAR LRAR 310430Z 15003KT CAVOK 18/16 Q1018=
201908310500 METAR LRAR 310500Z 00000KT CAVOK 18/16 Q1018=
201908310530 METAR LRAR 310530Z 00000KT CAVOK 20/18 Q1018=
201908310600 METAR LRAR 310600Z VRB04KT CAVOK 24/16 Q1018=
201908310630 METAR LRAR 310630Z 12005KT CAVOK 25/16 Q1018=
201908310700 METAR LRAR 310700Z 13010KT CAVOK 27/15 Q1018=
201908310730 METAR LRAR 310730Z 13008KT CAVOK 27/15 Q1018=
201908310800 METAR LRAR 310800Z 13007KT CAVOK 29/15 Q1018=
201908310830 METAR LRAR 310830Z 14008KT 100V170 CAVOK 30/13 Q1018=
201908310900 METAR LRAR 310900Z 16008KT 120V200 CAVOK 30/13 Q1018=
201908310930 METAR LRAR 310930Z 15005KT 110V210 CAVOK 31/13 Q1017=
201908311000 METAR LRAR 311000Z 15008KT 110V190 CAVOK 32/12 Q1017=
201908311030 METAR LRAR 311030Z 20004KT 150V280 CAVOK 32/12 Q1017=
201908311100 METAR LRAR 311100Z 13006KT 090V160 CAVOK 32/12 Q1017=
201908311130 METAR LRAR 311130Z 18007KT 140V240 CAVOK 33/12 Q1016=
201908311200 METAR LRAR 311200Z 01004KT 320V050 CAVOK 33/12 Q1016=
201908311230 METAR LRAR 311230Z 09006KT 050V150 CAVOK 33/12 Q1016=
201908311300 METAR LRAR 311300Z 10005KT CAVOK 31/10 Q1016=
201908311330 METAR LRAR 311330Z 08004KT 050V150 CAVOK 33/10 Q1015=
201908311400 METAR LRAR 311400Z 18004KT 130V200 CAVOK 32/10 Q1015=
201908311430 METAR LRAR 311430Z 23004KT 200V280 9999 VCTS FEW050CB 33/10
                        Q1015=
201908311500 METAR LRAR 311500Z 24006KT 210V270 9999 TS VCSH FEW050CB
                        33/13 Q1014=
201908311530 METAR LRAR 311530Z 03010KT 350V070 9999 VCSH FEW055CB 32/12
                        Q1014 RETS=
201908311600 METAR LRAR 311600Z 01007KT 9999 FEW055CB 31/12 Q1014 RETS=
201908311630 METAR LRAR 311630Z 03005KT 360V060 9999 FEW060CB 30/10 Q1014=
201908311700 METAR LRAR 311700Z 05003KT 9999 FEW060CB 30/10 Q1014=
201908311730 METAR LRAR 311730Z VRB01KT CAVOK 27/14 Q1014=
201908311800 METAR LRAR 311800Z 12002KT 070V180 CAVOK 25/13 Q1014=
201908311830 METAR LRAR 311830Z 13004KT CAVOK 25/14 Q1015=
201908311900 METAR LRAR 311900Z 13004KT CAVOK 24/14 Q1015=
201908311930 METAR LRAR 311930Z 14005KT CAVOK 24/14 Q1015=
201908312000 METAR LRAR 312000Z 14006KT CAVOK 24/13 Q1015=
201908312030 METAR LRAR 312030Z 14006KT CAVOK 23/12 Q1015=
201908312100 METAR LRAR 312100Z 15006KT CAVOK 23/12 Q1015=
201908312130 METAR LRAR 312130Z 15008KT CAVOK 23/12 Q1015=
201908312200 METAR LRAR 312200Z 15007KT CAVOK 22/11 Q1015=
201908312230 METAR LRAR 312230Z 15008KT CAVOK 22/11 Q1015=
201908312300 METAR LRAR 312300Z 15008KT CAVOK 21/11 Q1015=
201908312330 METAR LRAR 312330Z 14008KT CAVOK 21/11 Q1015=
