201909010000 METAR LRAR 010000Z 14009KT CAVOK 21/11 Q1015=
201909010030 METAR LRAR 010030Z 14008KT CAVOK 21/12 Q1015=
201909010100 METAR LRAR 010100Z 14008KT CAVOK 20/12 Q1015=
201909010130 METAR LRAR 010130Z 15008KT CAVOK 20/12 Q1015=
201909010200 METAR LRAR 010200Z 14008KT CAVOK 19/12 Q1015=
201909010230 METAR LRAR 010230Z 12008KT CAVOK 19/12 Q1015=
201909010300 METAR LRAR 010300Z 14009KT CAVOK 19/12 Q1014=
201909010330 METAR LRAR 010330Z 14009KT CAVOK 19/12 Q1014=
201909010400 METAR LRAR 010400Z 14009KT CAVOK 19/13 Q1014=
201909010430 METAR LRAR 010430Z 14009KT CAVOK 19/12 Q1014=
201909010500 METAR LRAR 010500Z 14009KT CAVOK 20/12 Q1014=
201909010530 METAR LRAR 010530Z 14010KT CAVOK 22/12 Q1014=
201909010600 METAR LRAR 010600Z 14010KT CAVOK 24/13 Q1015=
201909010630 METAR LRAR 010630Z 15009KT CAVOK 25/12 Q1015=
201909010700 METAR LRAR 010700Z 16010KT CAVOK 27/11 Q1015=
201909010730 METAR LRAR 010730Z 18010KT CAVOK 28/09 Q1015=
201909010800 METAR LRAR 010800Z 19011KT CAVOK 29/06 Q1015=
201909010830 METAR LRAR 010830Z 21011KT CAVOK 29/06 Q1015=
201909010900 METAR LRAR 010900Z 20012KT CAVOK 30/06 Q1015=
201909010930 METAR LRAR 010930Z 20010KT 160V220 CAVOK 30/07 Q1014=
201909011000 METAR LRAR 011000Z 19009KT 160V220 CAVOK 30/08 Q1014=
201909011030 METAR LRAR 011030Z 20008KT 170V240 CAVOK 31/08 Q1014=
201909011100 METAR LRAR 011100Z 20006KT 160V230 CAVOK 31/09 Q1014=
201909011130 METAR LRAR 011130Z VRB03KT CAVOK 32/09 Q1014=
201909011200 METAR LRAR 011200Z 11005KT 040V170 CAVOK 32/09 Q1013=
201909011230 METAR LRAR 011230Z VRB03KT CAVOK 32/09 Q1013=
201909011300 METAR LRAR 011300Z 21004KT 140V260 CAVOK 32/09 Q1013=
201909011330 METAR LRAR 011330Z VRB04KT CAVOK 32/09 Q1012=
201909011400 METAR LRAR 011400Z VRB03KT CAVOK 32/08 Q1012=
201909011430 METAR LRAR 011430Z 12006KT 090V170 CAVOK 32/08 Q1012=
201909011500 METAR LRAR 011500Z 09003KT 310V120 CAVOK 32/09 Q1012=
201909011530 METAR LRAR 011530Z 14004KT 100V190 CAVOK 32/08 Q1012=
201909011600 METAR LRAR 011600Z 12004KT 080V160 CAVOK 31/10 Q1011=
201909011630 METAR LRAR 011630Z 15004KT CAVOK 31/10 Q1011=
201909011700 METAR LRAR 011700Z 16004KT CAVOK 29/10 Q1011=
201909011730 METAR LRAR 011730Z 16005KT CAVOK 28/10 Q1012=
201909011800 METAR LRAR 011800Z 18003KT 150V280 CAVOK 25/12 Q1012=
201909011830 METAR LRAR 011830Z 00000KT CAVOK 24/13 Q1013=
201909011900 METAR LRAR 011900Z 04003KT CAVOK 26/10 Q1013=
201909011930 METAR LRAR 011930Z VRB01KT CAVOK 23/13 Q1013=
201909012000 METAR LRAR 012000Z VRB01KT CAVOK 22/13 Q1013=
201909012030 METAR LRAR 012030Z 15002KT CAVOK 21/13 Q1013=
201909012100 METAR LRAR 012100Z 16005KT CAVOK 21/12 Q1013=
201909012130 METAR LRAR 012130Z 15002KT CAVOK 21/13 Q1013=
201909012200 METAR LRAR 012200Z VRB02KT CAVOK 22/13 Q1013=
201909012230 METAR LRAR 012230Z 12003KT CAVOK 20/13 Q1013=
201909012300 METAR LRAR 012300Z 13004KT CAVOK 19/14 Q1013=
201909012330 METAR LRAR 012330Z 14003KT CAVOK 20/13 Q1013=
201909020000 METAR LRAR 020000Z 14005KT CAVOK 18/13 Q1013=
201909020030 METAR LRAR 020030Z 14008KT CAVOK 19/13 Q1013=
201909020100 METAR LRAR 020100Z 14006KT CAVOK 19/13 Q1013=
201909020130 METAR LRAR 020130Z 14007KT CAVOK 19/13 Q1013=
201909020200 METAR LRAR 020200Z 15006KT CAVOK 19/12 Q1013=
201909020230 METAR LRAR 020230Z 14007KT CAVOK 18/12 Q1013=
201909020300 METAR LRAR 020300Z 14008KT CAVOK 18/13 Q1013=
201909020330 METAR LRAR 020330Z 14007KT CAVOK 18/13 Q1013=
201909020400 METAR LRAR 020400Z 13007KT CAVOK 18/13 Q1013=
201909020430 METAR LRAR 020430Z 14008KT CAVOK 18/13 Q1013=
201909020500 METAR LRAR 020500Z 13007KT CAVOK 19/13 Q1014=
201909020530 METAR LRAR 020530Z 14008KT CAVOK 20/13 Q1014=
201909020600 METAR LRAR 020600Z 13008KT CAVOK 22/13 Q1014=
201909020630 METAR LRAR 020630Z 13007KT CAVOK 24/13 Q1014=
201909020700 METAR LRAR 020700Z 13007KT CAVOK 26/13 Q1014=
201909020730 METAR LRAR 020730Z 12006KT CAVOK 27/11 Q1014=
201909020800 METAR LRAR 020800Z 12005KT 090V150 CAVOK 28/11 Q1014=
201909020830 METAR LRAR 020830Z 14006KT 100V170 CAVOK 30/09 Q1014=
201909020900 METAR LRAR 020900Z 15007KT 120V190 CAVOK 30/08 Q1014=
201909020930 METAR LRAR 020930Z 13008KT CAVOK 31/08 Q1014=
201909021000 METAR LRAR 021000Z 15007KT 120V210 CAVOK 32/08 Q1014=
201909021030 METAR LRAR 021030Z 23006KT 180V270 CAVOK 31/07 Q1014=
201909021100 METAR LRAR 021100Z 18005KT 130V220 CAVOK 32/08 Q1014=
201909021130 METAR LRAR 021130Z 20007KT 140V250 CAVOK 32/09 Q1013=
201909021200 METAR LRAR 021200Z VRB04KT CAVOK 32/08 Q1013=
201909021230 METAR LRAR 021230Z 05004KT 350V110 CAVOK 33/08 Q1013=
201909021300 METAR LRAR 021300Z 20004KT 120V270 CAVOK 33/09 Q1013=
201909021330 METAR LRAR 021330Z VRB03KT CAVOK 33/09 Q1013=
201909021400 METAR LRAR 021400Z VRB01KT CAVOK 33/09 Q1012=
201909021430 METAR LRAR 021430Z VRB02KT CAVOK 33/10 Q1012=
201909021500 METAR LRAR 021500Z 09005KT 060V130 CAVOK 32/07 Q1012=
201909021530 METAR LRAR 021530Z 08005KT 050V110 CAVOK 32/07 Q1012=
201909021600 METAR LRAR 021600Z 15004KT CAVOK 32/08 Q1012=
201909021630 METAR LRAR 021630Z 16004KT CAVOK 31/06 Q1012=
201909021700 METAR LRAR 021700Z 16003KT CAVOK 28/10 Q1012=
201909021730 METAR LRAR 021730Z 31002KT CAVOK 26/13 Q1012=
201909021800 METAR LRAR 021800Z VRB01KT CAVOK 24/12 Q1013=
201909021830 METAR LRAR 021830Z 00000KT CAVOK 23/12 Q1013=
201909021900 METAR LRAR 021900Z VRB01KT CAVOK 22/12 Q1013=
201909021930 METAR LRAR 021930Z VRB01KT CAVOK 22/12 Q1013=
201909022000 METAR LRAR 022000Z 15004KT CAVOK 21/12 Q1014=
201909022030 METAR LRAR 022030Z 12004KT CAVOK 21/11 Q1014=
201909022100 METAR LRAR 022100Z 13005KT CAVOK 21/11 Q1014=
201909022130 METAR LRAR 022130Z 14007KT CAVOK 21/12 Q1014=
201909022200 METAR LRAR 022200Z 15007KT CAVOK 21/11 Q1014=
201909022230 METAR LRAR 022230Z 16007KT CAVOK 22/09 Q1014=
201909022300 METAR LRAR 022300Z 30007KT 260V340 CAVOK 21/10 Q1014=
201909022330 METAR LRAR 022330Z VRB02KT CAVOK 20/10 Q1014=
201909030000 METAR LRAR 030000Z 23005KT 200V280 CAVOK 18/11 Q1014=
201909030030 METAR LRAR 030030Z 26005KT CAVOK 17/12 Q1014=
201909030100 METAR LRAR 030100Z 27006KT CAVOK 16/13 Q1015=
201909030130 METAR LRAR 030130Z 27005KT CAVOK 16/14 Q1015=
201909030200 METAR LRAR 030200Z 28006KT CAVOK 16/15 Q1015=
201909030230 METAR LRAR 030230Z 27005KT CAVOK 16/16 Q1015=
201909030300 METAR LRAR 030300Z 28004KT CAVOK 16/16 Q1015=
201909030330 METAR LRAR 030330Z 27003KT CAVOK 15/15 Q1015=
201909030400 METAR COR LRAR 030400Z 26003KT CAVOK 15/15 Q1015=
201909030430 METAR LRAR 030430Z 26002KT CAVOK 15/15 Q1015=
201909030500 METAR LRAR 030500Z 23002KT CAVOK 16/16 Q1016=
201909030530 METAR LRAR 030530Z 26004KT CAVOK 17/16 Q1016=
201909030600 METAR LRAR 030600Z 25006KT CAVOK 18/16 Q1016=
201909030630 METAR LRAR 030630Z 27008KT CAVOK 19/17 Q1017=
201909030700 METAR LRAR 030700Z 30006KT 260V360 CAVOK 20/16 Q1017=
201909030730 METAR LRAR 030730Z 29005KT 230V340 CAVOK 21/17 Q1017=
201909030800 METAR LRAR 030800Z 30004KT 240V010 CAVOK 22/17 Q1017=
201909030830 METAR LRAR 030830Z 24004KT 140V310 9999 FEW026 23/17 Q1017=
201909030900 METAR LRAR 030900Z 30007KT 260V340 9999 FEW026 24/16 Q1017=
201909030930 METAR LRAR 030930Z 25006G16KT 180V350 9999 FEW030 24/17 Q1017=
201909031000 METAR LRAR 031000Z 30008KT 260V330 9999 FEW034 24/16 Q1018=
201909031030 METAR LRAR 031030Z 31008KT 260V360 9999 FEW034 24/15 Q1018=
201909031100 METAR LRAR 031100Z 33007KT 280V350 9999 FEW035 24/15 Q1018=
201909031130 METAR LRAR 031130Z 32008KT 9999 FEW038 24/15 Q1018=
201909031200 METAR LRAR 031200Z 32012KT 290V350 CAVOK 22/14 Q1018=
201909031230 METAR LRAR 031230Z 30013KT CAVOK 21/14 Q1019=
201909031300 METAR LRAR 031300Z 32012KT CAVOK 22/14 Q1018=
201909031330 METAR LRAR 031330Z 31012KT CAVOK 22/14 Q1019=
201909031400 METAR LRAR 031400Z 31012KT CAVOK 21/14 Q1019=
201909031430 METAR LRAR 031430Z 32010KT CAVOK 21/14 Q1019=
201909031500 METAR LRAR 031500Z 33008KT 9999 FEW040 21/14 Q1019=
201909031530 METAR LRAR 031530Z 34008KT 9999 FEW037 21/13 Q1019=
201909031600 METAR LRAR 031600Z 34007KT 9999 BKN036 21/13 Q1019=
201909031630 METAR LRAR 031630Z 33010KT 9999 SCT036 20/13 Q1020=
201909031700 METAR LRAR 031700Z 34007KT 9999 -RA SCT040 19/13 Q1020=
201909031730 METAR LRAR 031730Z 36008KT 9999 -RA FEW010 18/14 Q1020=
201909031800 METAR LRAR 031800Z 36007KT 9999 -RA FEW008 18/14 Q1020=
201909031830 METAR LRAR 031830Z 01006KT 340V040 9999 -RA FEW009 BKN012
                        17/15 Q1021=
201909031900 METAR LRAR 031900Z 01006KT 340V040 9999 -RA SCT010 16/15
                        Q1021=
201909031930 METAR LRAR 031930Z 36005KT 9999 -RA FEW008 BKN011 BKN014
                        16/15 Q1021=
201909032000 METAR LRAR 032000Z 36004KT 9999 FEW009 SCT013 16/15 Q1021=
201909032030 METAR LRAR 032030Z 35004KT 330V030 9999 SCT012 16/15 Q1021=
201909032100 METAR LRAR 032100Z 36006KT 9999 SCT012 16/15 Q1021=
201909032130 METAR LRAR 032130Z 35004KT 9999 FEW043 15/15 Q1021=
201909032200 METAR LRAR 032200Z 36004KT 9999 FEW045 15/15 Q1021=
201909032230 METAR LRAR 032230Z 34003KT CAVOK 15/15 Q1021=
201909032300 METAR LRAR 032300Z 34004KT CAVOK 15/15 Q1021=
201909032330 METAR LRAR 032330Z 33004KT CAVOK 14/14 Q1021=
201909040000 METAR LRAR 040000Z 34002KT CAVOK 14/14 Q1021=
201909040030 METAR LRAR 040030Z 32003KT 9999 SCT047 14/14 Q1021=
201909040100 METAR LRAR 040100Z 35004KT 9999 BKN048 15/14 Q1021=
201909040130 METAR LRAR 040130Z 34003KT 9999 BKN048 14/14 Q1020=
201909040200 METAR LRAR 040200Z 34003KT 9999 SCT048 14/13 Q1020=
201909040230 METAR LRAR 040230Z 34004KT CAVOK 13/13 Q1020=
201909040300 METAR LRAR 040300Z 34003KT CAVOK 13/12 Q1020=
201909040330 METAR LRAR 040330Z 34004KT CAVOK 12/12 Q1021=
201909040400 METAR LRAR 040400Z 34004KT CAVOK 12/12 Q1021=
201909040430 METAR LRAR 040430Z 34003KT CAVOK 12/12 Q1021=
201909040500 METAR LRAR 040500Z 34003KT 310V010 CAVOK 13/12 Q1021=
201909040530 METAR LRAR 040530Z 35003KT 300V040 CAVOK 14/13 Q1021=
201909040600 METAR LRAR 040600Z 01006KT 330V060 CAVOK 15/13 Q1021=
201909040630 METAR LRAR 040630Z 01006KT 330V050 CAVOK 16/13 Q1021=
201909040700 METAR LRAR 040700Z 03007KT 350V070 CAVOK 17/13 Q1021=
201909040730 METAR LRAR 040730Z 03006KT 360V070 CAVOK 17/12 Q1021=
201909040800 METAR LRAR 040800Z 36006KT 310V050 CAVOK 18/12 Q1021=
201909040830 METAR LRAR 040830Z 02007KT 320V060 CAVOK 19/12 Q1021=
201909040900 METAR LRAR 040900Z 35006KT 300V050 CAVOK 20/12 Q1020=
201909040930 METAR LRAR 040930Z 03007KT 350V070 CAVOK 21/12 Q1020=
201909041000 METAR LRAR 041000Z 01006KT 310V060 CAVOK 22/11 Q1020=
201909041030 METAR LRAR 041030Z 36006KT 290V050 CAVOK 22/11 Q1020=
201909041100 METAR LRAR 041100Z 36008KT 320V040 CAVOK 23/10 Q1019=
201909041130 METAR LRAR 041130Z 02006KT 320V070 CAVOK 23/10 Q1019=
201909041200 METAR LRAR 041200Z VRB04KT CAVOK 24/10 Q1019=
201909041230 METAR LRAR 041230Z 04007KT 350V080 CAVOK 24/10 Q1018=
201909041300 METAR LRAR 041300Z 01007KT CAVOK 24/09 Q1018=
201909041330 METAR LRAR 041330Z VRB03KT CAVOK 24/08 Q1018=
201909041400 METAR LRAR 041400Z 03006KT 350V100 CAVOK 25/08 Q1017=
201909041430 METAR LRAR 041430Z 31005KT 270V030 CAVOK 25/09 Q1017=
201909041500 METAR LRAR 041500Z 02006KT 310V080 CAVOK 25/09 Q1017=
201909041530 METAR COR LRAR 041530Z 35004KT 280V070 CAVOK 24/09 Q1017=
201909041600 METAR LRAR 041600Z 04006KT 350V090 CAVOK 24/09 Q1017=
201909041630 METAR LRAR 041630Z 02005KT 350V060 CAVOK 23/09 Q1016=
201909041700 METAR LRAR 041700Z 01003KT CAVOK 22/10 Q1016=
201909041730 METAR LRAR 041730Z 03003KT CAVOK 21/10 Q1017=
201909041800 METAR LRAR 041800Z 05003KT CAVOK 20/10 Q1017=
201909041830 METAR LRAR 041830Z 00000KT CAVOK 18/11 Q1017=
201909041900 METAR LRAR 041900Z 25001KT CAVOK 17/11 Q1017=
201909041930 METAR LRAR 041930Z 25002KT CAVOK 15/12 Q1017=
201909042000 METAR LRAR 042000Z 27003KT CAVOK 15/12 Q1016=
201909042030 METAR LRAR 042030Z 28002KT CAVOK 14/12 Q1016=
201909042100 METAR LRAR 042100Z 00000KT CAVOK 14/12 Q1016=
201909042130 METAR LRAR 042130Z 00000KT CAVOK 14/11 Q1016=
201909042200 METAR LRAR 042200Z 00000KT CAVOK 14/11 Q1016=
201909042230 METAR LRAR 042230Z 00000KT CAVOK 13/11 Q1016=
201909042300 METAR LRAR 042300Z 28002KT CAVOK 13/12 Q1016=
201909042330 METAR LRAR 042330Z 27003KT CAVOK 12/11 Q1016=
201909050000 METAR LRAR 050000Z 28002KT CAVOK 11/11 Q1016=
201909050030 METAR LRAR 050030Z 30001KT CAVOK 12/11 Q1016=
201909050100 METAR LRAR 050100Z VRB01KT CAVOK 12/10 Q1016=
201909050130 METAR LRAR 050130Z 14002KT CAVOK 12/11 Q1015=
201909050200 METAR LRAR 050200Z 13003KT CAVOK 12/11 Q1015=
201909050230 METAR LRAR 050230Z 13001KT CAVOK 12/12 Q1015=
201909050300 METAR LRAR 050300Z VRB01KT CAVOK 11/10 Q1015=
201909050330 METAR LRAR 050330Z 15003KT CAVOK 11/10 Q1015=
201909050400 METAR LRAR 050400Z 17002KT CAVOK 12/10 Q1015=
201909050430 METAR LRAR 050430Z 15003KT CAVOK 12/11 Q1015=
201909050500 METAR LRAR 050500Z 14004KT CAVOK 13/11 Q1015=
201909050530 METAR LRAR 050530Z 15002KT CAVOK 15/12 Q1015=
201909050600 METAR LRAR 050600Z 15002KT 120V200 CAVOK 17/12 Q1016=
201909050630 METAR LRAR 050630Z 18002KT 140V240 CAVOK 18/12 Q1016=
201909050700 METAR LRAR 050700Z 24002KT 200V310 CAVOK 20/12 Q1016=
201909050730 METAR LRAR 050730Z VRB01KT CAVOK 22/12 Q1016=
201909050800 METAR LRAR 050800Z 35003KT 300V070 CAVOK 22/12 Q1015=
201909050830 METAR LRAR 050830Z 35003KT 280V060 CAVOK 23/11 Q1015=
201909050900 METAR LRAR 050900Z VRB03KT CAVOK 24/11 Q1015=
201909050930 METAR LRAR 050930Z 01004KT 310V080 CAVOK 24/10 Q1015=
201909051000 METAR LRAR 051000Z 26005KT 190V360 CAVOK 25/09 Q1015=
201909051030 METAR LRAR 051030Z VRB04KT CAVOK 25/08 Q1015=
201909051100 METAR LRAR 051100Z VRB04KT CAVOK 26/08 Q1015=
201909051130 METAR LRAR 051130Z VRB03KT CAVOK 26/08 Q1014=
201909051200 METAR LRAR 051200Z VRB04KT CAVOK 26/08 Q1014=
201909051230 METAR LRAR 051230Z 35004KT 260V060 CAVOK 27/07 Q1014=
201909051300 METAR LRAR 051300Z VRB03KT CAVOK 27/07 Q1014=
201909051330 METAR LRAR 051330Z VRB03KT CAVOK 27/07 Q1013=
201909051400 METAR LRAR 051400Z VRB03KT CAVOK 27/07 Q1013=
201909051430 METAR LRAR 051430Z VRB02KT CAVOK 27/07 Q1013=
201909051500 METAR LRAR 051500Z 01005KT 340V070 CAVOK 27/07 Q1013=
201909051530 METAR LRAR 051530Z 32004KT 290V360 CAVOK 27/07 Q1013=
201909051600 METAR LRAR 051600Z 34003KT 250V040 CAVOK 27/07 Q1013=
201909051630 METAR LRAR 051630Z 36004KT CAVOK 25/07 Q1013=
201909051700 METAR LRAR 051700Z 01005KT CAVOK 24/07 Q1013=
201909051730 METAR LRAR 051730Z 03005KT CAVOK 22/08 Q1014=
201909051800 METAR LRAR 051800Z 04004KT CAVOK 21/08 Q1014=
201909051830 METAR LRAR 051830Z 00000KT CAVOK 19/10 Q1014=
201909051900 METAR LRAR 051900Z 00000KT CAVOK 18/10 Q1014=
201909051930 METAR LRAR 051930Z VRB02KT CAVOK 17/11 Q1014=
201909052000 METAR LRAR 052000Z 34001KT CAVOK 17/11 Q1014=
201909052030 METAR LRAR 052030Z VRB01KT CAVOK 16/10 Q1015=
201909052100 METAR LRAR 052100Z 00000KT CAVOK 16/10 Q1015=
201909052130 METAR LRAR 052130Z VRB01KT CAVOK 15/10 Q1015=
201909052200 METAR LRAR 052200Z VRB01KT CAVOK 16/09 Q1015=
201909052230 METAR LRAR 052230Z 32002KT CAVOK 14/09 Q1015=
201909052300 METAR LRAR 052300Z 34002KT CAVOK 15/09 Q1015=
201909052330 METAR LRAR 052330Z 32001KT CAVOK 14/10 Q1016=
201909060000 METAR LRAR 060000Z 32002KT CAVOK 13/10 Q1016=
201909060030 METAR LRAR 060030Z 31002KT CAVOK 12/10 Q1016=
201909060100 METAR LRAR 060100Z 28002KT CAVOK 12/10 Q1016=
201909060130 METAR LRAR 060130Z VRB02KT CAVOK 12/09 Q1016=
201909060200 METAR LRAR 060200Z 24001KT CAVOK 12/09 Q1016=
201909060230 METAR LRAR 060230Z 29002KT CAVOK 11/10 Q1016=
201909060300 METAR LRAR 060300Z 27002KT CAVOK 11/10 Q1016=
201909060330 METAR LRAR 060330Z 30002KT CAVOK 10/10 Q1016=
201909060400 METAR LRAR 060400Z VRB01KT CAVOK 11/10 Q1017=
201909060430 METAR LRAR 060430Z 35002KT CAVOK 10/09 Q1017=
201909060500 METAR LRAR 060500Z 33002KT CAVOK 12/11 Q1017=
201909060530 METAR LRAR 060530Z 34002KT CAVOK 14/11 Q1017=
201909060600 METAR LRAR 060600Z VRB02KT CAVOK 16/11 Q1017=
201909060630 METAR LRAR 060630Z 01003KT 310V070 CAVOK 18/12 Q1017=
201909060700 METAR LRAR 060700Z 02004KT 320V090 CAVOK 20/11 Q1017=
201909060730 METAR LRAR 060730Z 02007KT 340V050 CAVOK 21/11 Q1018=
201909060800 METAR LRAR 060800Z 04009KT 010V080 CAVOK 23/10 Q1018=
201909060830 METAR LRAR 060830Z 03009KT 360V060 CAVOK 24/10 Q1018=
201909060900 METAR LRAR 060900Z 03009KT 330V080 CAVOK 25/10 Q1018=
201909060930 METAR LRAR 060930Z 03010KT 340V060 CAVOK 25/10 Q1018=
201909061000 METAR LRAR 061000Z 03009KT 340V050 CAVOK 26/09 Q1017=
201909061030 METAR LRAR 061030Z 02008KT 340V060 CAVOK 27/10 Q1017=
201909061100 METAR LRAR 061100Z 01006KT 320V060 CAVOK 27/09 Q1017=
201909061130 METAR LRAR 061130Z 09007KT 060V140 CAVOK 27/09 Q1017=
201909061200 METAR LRAR 061200Z 03008KT 340V050 CAVOK 27/09 Q1017=
201909061230 METAR LRAR 061230Z 08008KT CAVOK 28/08 Q1016=
201909061300 METAR LRAR 061300Z VRB02KT CAVOK 28/09 Q1016=
201909061330 METAR LRAR 061330Z 07004KT 340V140 CAVOK 28/08 Q1016=
201909061400 METAR LRAR 061400Z VRB03KT CAVOK 28/08 Q1016=
201909061430 METAR LRAR 061430Z VRB02KT CAVOK 29/09 Q1016=
201909061500 METAR LRAR 061500Z 12004KT 090V160 CAVOK 28/08 Q1015=
201909061530 METAR LRAR 061530Z VRB01KT CAVOK 28/09 Q1015=
201909061600 METAR LRAR 061600Z 02005KT CAVOK 27/09 Q1015=
201909061630 METAR LRAR 061630Z 35002KT CAVOK 26/10 Q1015=
201909061700 METAR LRAR 061700Z 01003KT 310V060 CAVOK 25/10 Q1015=
201909061730 METAR LRAR 061730Z 04003KT CAVOK 24/10 Q1016=
201909061800 METAR LRAR 061800Z 04005KT CAVOK 23/10 Q1016=
201909061830 METAR LRAR 061830Z VRB01KT CAVOK 20/11 Q1016=
201909061900 METAR LRAR 061900Z VRB01KT CAVOK 20/11 Q1016=
201909061930 METAR LRAR 061930Z 00000KT CAVOK 19/11 Q1016=
201909062000 METAR LRAR 062000Z 00000KT CAVOK 18/11 Q1016=
201909062030 METAR LRAR 062030Z 01004KT CAVOK 18/11 Q1016=
201909062100 METAR LRAR 062100Z 01004KT CAVOK 18/11 Q1016=
201909062130 METAR LRAR 062130Z 06003KT CAVOK 18/11 Q1016=
201909062200 METAR LRAR 062200Z 04003KT CAVOK 18/11 Q1016=
201909062230 METAR LRAR 062230Z 12006KT CAVOK 17/12 Q1016=
201909062300 METAR LRAR 062300Z 17003KT 110V220 CAVOK 17/11 Q1016=
201909062330 METAR LRAR 062330Z 23002KT CAVOK 14/11 Q1016=
201909070000 METAR LRAR 070000Z VRB01KT CAVOK 14/12 Q1016=
201909070030 METAR LRAR 070030Z 16002KT 120V190 CAVOK 15/11 Q1015=
201909070100 METAR LRAR 070100Z 15003KT CAVOK 16/11 Q1015=
201909070130 METAR LRAR 070130Z 14006KT CAVOK 16/12 Q1015=
201909070200 METAR LRAR 070200Z 14007KT CAVOK 17/12 Q1016=
201909070230 METAR LRAR 070230Z 14005KT CAVOK 17/12 Q1016=
201909070300 METAR LRAR 070300Z 14005KT CAVOK 17/12 Q1016=
201909070330 METAR LRAR 070330Z 14006KT CAVOK 17/13 Q1016=
201909070400 METAR LRAR 070400Z 15005KT CAVOK 18/13 Q1016=
201909070430 METAR LRAR 070430Z 14005KT CAVOK 19/13 Q1016=
201909070500 METAR LRAR 070500Z 13007KT CAVOK 19/12 Q1016=
201909070530 METAR LRAR 070530Z 14008KT 9999 FEW045 20/12 Q1016=
201909070600 METAR LRAR 070600Z 14007KT 9999 FEW045 21/12 Q1016=
201909070630 METAR LRAR 070630Z 24007KT 190V250 9999 FEW050CB 21/12 Q1017=
201909070700 METAR LRAR 070700Z 16005KT 140V200 9999 FEW050CB 23/12 Q1017=
201909070730 METAR LRAR 070730Z VRB02KT 9999 -SHRA SCT050CB 22/15 Q1017=
201909070800 METAR LRAR 070800Z 14009KT CAVOK 22/12 Q1017=
201909070830 METAR LRAR 070830Z 14011KT CAVOK 24/11 Q1016=
201909070900 METAR LRAR 070900Z 14012KT CAVOK 25/10 Q1016=
201909070930 METAR LRAR 070930Z 14010KT 100V190 CAVOK 26/09 Q1016=
201909071000 METAR LRAR 071000Z 17009KT 140V210 CAVOK 27/09 Q1016=
201909071030 METAR LRAR 071030Z 16007KT 130V200 CAVOK 27/09 Q1016=
201909071100 METAR LRAR 071100Z 16005KT 120V200 CAVOK 27/10 Q1016=
201909071130 METAR LRAR 071130Z VRB03KT CAVOK 28/09 Q1015=
201909071200 METAR LRAR 071200Z 24004KT 160V290 CAVOK 28/09 Q1015=
201909071230 METAR LRAR 071230Z 29007KT CAVOK 27/10 Q1015=
201909071300 METAR LRAR 071300Z 28007KT 250V310 CAVOK 27/10 Q1015=
201909071330 METAR LRAR 071330Z 28006KT 240V330 CAVOK 28/10 Q1015=
201909071400 METAR LRAR 071400Z 34005KT 310V020 CAVOK 29/10 Q1014=
201909071430 METAR LRAR 071430Z 35003KT 280V080 CAVOK 29/09 Q1014=
201909071500 METAR LRAR 071500Z 02005KT 350V070 CAVOK 28/10 Q1014=
201909071530 METAR LRAR 071530Z 36003KT CAVOK 27/10 Q1015=
201909071600 METAR LRAR 071600Z 34004KT 9999 FEW045CB 25/11 Q1014=
201909071630 METAR LRAR 071630Z 01006KT 340V040 9999 VCSH SCT045CB 26/10
                        Q1015=
201909071700 METAR LRAR 071700Z 30013KT 270V330 9999 -SHRA FEW006 SCT045CB
                        20/16 Q1016=
201909071730 METAR LRAR 071730Z 32009KT 9999 -SHRA FEW010 SCT018 SCT045CB
                        19/17 Q1016=
201909071800 METAR LRAR 071800Z 36005KT 9999 -SHRA SCT006 SCT050CB 19/17
                        Q1016=
201909071830 METAR LRAR 071830Z 02006KT 350V050 9999 TS SCT050CB 19/16
                        Q1016=
201909071900 METAR LRAR 071900Z 04008KT 010V070 9999 TS FEW007 SCT050CB
                        19/15 Q1016=
201909071930 METAR LRAR 071930Z 32004KT 260V050 9999 TS SCT050CB 19/16
                        Q1017=
201909072000 METAR LRAR 072000Z 23012KT 7000 TSRA SCT050CB 17/17 Q1019=
201909072030 METAR LRAR 072030Z VRB02KT 7000 -SHRA SCT050CB 17/17 Q1018
                        RETSRA=
201909072100 METAR LRAR 072100Z 10005KT 8000 -SHRA SCT045CB 17/17 Q1018
                        RETSRA=
201909072130 METAR LRAR 072130Z 05004KT 280V090 9999 FEW050CB 17/17 Q1017=
201909072200 METAR LRAR 072200Z 08007KT CAVOK 17/17 Q1016=
201909072230 METAR LRAR 072230Z 09007KT CAVOK 17/17 Q1016=
201909072300 METAR LRAR 072300Z 08006KT 9999 FEW050CB 17/17 Q1016=
201909072330 METAR LRAR 072330Z 10003KT 050V160 9999 FEW050CB 17/16 Q1016=
201909080000 METAR LRAR 080000Z 11005KT CAVOK 17/16 Q1016=
201909080030 METAR LRAR 080030Z 11005KT CAVOK 17/17 Q1016=
201909080100 METAR LRAR 080100Z 14004KT 110V230 CAVOK 17/17 Q1016=
201909080130 METAR LRAR 080130Z 29003KT 250V340 CAVOK 17/17 Q1016=
201909080200 METAR LRAR 080200Z 05004KT 010V080 CAVOK 17/17 Q1016=
201909080230 METAR LRAR 080230Z 10004KT CAVOK 17/17 Q1016=
201909080300 METAR LRAR 080300Z 09004KT CAVOK 17/17 Q1016 R09/19//95=
201909080330 METAR LRAR 080330Z 11004KT CAVOK 16/16 Q1016 R09/19//95=
201909080400 METAR LRAR 080400Z 14003KT CAVOK 17/17 Q1016 R09/19//95=
201909080430 METAR LRAR 080430Z 11002KT CAVOK 17/17 Q1016 R09/19//95=
201909080500 METAR LRAR 080500Z 11003KT CAVOK 18/17 Q1016 R09/19//95=
201909080530 METAR LRAR 080530Z 11005KT 9999 FEW050CB VCSH 18/17 Q1016
                        R09/19//95=
201909080600 METAR COR LRAR 080600Z 12004KT 9999 VCSH FEW055CB 19/17 Q1016
                        R09/19//95=
201909080630 METAR LRAR 080630Z 12004KT 9999 VCSH FEW055CB 19/17 Q1016
                        R09/19//95=
201909080700 METAR LRAR 080700Z 14004KT 100V170 9999 FEW060CB 21/16 Q1017
                        R09/19//95=
201909080730 METAR LRAR 080730Z 14006KT CAVOK 21/16 Q1017 R09/19//95=
201909080800 METAR LRAR 080800Z 15007KT CAVOK 23/18 Q1017 R09/19//95=
201909080830 METAR LRAR 080830Z 16006KT 130V190 CAVOK 24/16 Q1017 R09/CLRD//=
201909080900 METAR LRAR 080900Z 19007KT 160V220 CAVOK 24/15 Q1017=
201909080930 METAR LRAR 080930Z 18008KT 140V220 CAVOK 25/15 Q1017=
201909081000 METAR LRAR 081000Z 20007KT CAVOK 25/14 Q1017=
201909081030 METAR LRAR 081030Z 19007KT CAVOK 25/14 Q1017=
201909081100 METAR LRAR 081100Z 19010KT 9999 FEW045 26/14 Q1017=
201909081130 METAR LRAR 081130Z 17005KT 120V210 9999 FEW047 26/14 Q1016=
201909081200 METAR LRAR 081200Z 18007KT 140V220 9999 FEW048 27/14 Q1016=
201909081230 METAR LRAR 081230Z 17008KT 150V210 CAVOK 27/14 Q1016=
201909081300 METAR LRAR 081300Z 19008KT 140V220 CAVOK 27/15 Q1016=
201909081330 METAR LRAR 081330Z 19006KT 160V230 CAVOK 27/15 Q1016=
201909081400 METAR LRAR 081400Z 16006KT 130V270 CAVOK 27/14 Q1015=
201909081430 METAR LRAR 081430Z 19004KT 150V300 CAVOK 27/15 Q1015=
201909081500 METAR LRAR 081500Z 16004KT 9999 FEW050TCU 27/14 Q1015=
201909081530 METAR LRAR 081530Z VRB02KT 9999 FEW050TCU 28/14 Q1015=
201909081600 METAR LRAR 081600Z 14004KT 9999 FEW055TCU 27/14 Q1015=
201909081630 METAR LRAR 081630Z 12005KT CAVOK 26/15 Q1015=
201909081700 METAR LRAR 081700Z 14005KT CAVOK 25/15 Q1015=
201909081730 METAR LRAR 081730Z 13004KT CAVOK 23/16 Q1015=
201909081800 METAR LRAR 081800Z 13005KT CAVOK 23/15 Q1015=
201909081830 METAR LRAR 081830Z 12007KT CAVOK 23/15 Q1015=
201909081900 METAR LRAR 081900Z 13007KT CAVOK 22/15 Q1015=
201909081930 METAR LRAR 081930Z 12006KT CAVOK 22/14 Q1015=
201909082000 METAR LRAR 082000Z 12007KT CAVOK 22/14 Q1015=
201909082030 METAR LRAR 082030Z 12005KT CAVOK 20/14 Q1015=
201909082100 METAR LRAR 082100Z 14007KT CAVOK 21/13 Q1015=
201909082130 METAR LRAR 082130Z 12008KT CAVOK 21/13 Q1015=
201909082200 METAR LRAR 082200Z 12006KT CAVOK 20/13 Q1014=
201909082230 METAR LRAR 082230Z 13008KT CAVOK 20/13 Q1014=
201909082300 METAR LRAR 082300Z 12009KT CAVOK 21/13 Q1014=
201909082330 METAR LRAR 082330Z 13009KT CAVOK 21/13 Q1014=
201909090000 METAR LRAR 090000Z 13011KT CAVOK 21/12 Q1014=
201909090030 METAR LRAR 090030Z 13011KT CAVOK 21/12 Q1013=
201909090100 METAR LRAR 090100Z 12011KT CAVOK 21/12 Q1013=
201909090130 METAR LRAR 090130Z 13010KT CAVOK 21/12 Q1013=
201909090200 METAR LRAR 090200Z 13010KT CAVOK 20/13 Q1013=
201909090230 METAR LRAR 090230Z 12008KT CAVOK 20/13 Q1013=
201909090300 METAR LRAR 090300Z 13008KT CAVOK 20/13 Q1013=
201909090330 METAR LRAR 090330Z 14009KT CAVOK 20/13 Q1013=
201909090400 METAR LRAR 090400Z 15006KT CAVOK 19/13 Q1013=
201909090430 METAR LRAR 090430Z 14007KT CAVOK 20/13 Q1012=
201909090500 METAR LRAR 090500Z 14008KT CAVOK 20/13 Q1013=
201909090530 METAR LRAR 090530Z 14008KT CAVOK 20/13 Q1012=
201909090600 METAR LRAR 090600Z 14010KT CAVOK 21/13 Q1012=
201909090630 METAR LRAR 090630Z 14011KT CAVOK 23/12 Q1012=
201909090700 METAR LRAR 090700Z 15014KT CAVOK 24/12 Q1012=
201909090730 METAR LRAR 090730Z 15013KT 9999 FEW045 24/11 Q1012=
201909090800 METAR LRAR 090800Z 16015KT CAVOK 25/10 Q1012=
201909090830 METAR LRAR 090830Z 16014KT CAVOK 25/11 Q1012=
201909090900 METAR LRAR 090900Z 17011KT CAVOK 25/10 Q1012=
201909090930 METAR LRAR 090930Z 16015KT CAVOK 25/09 Q1012=
201909091000 METAR LRAR 091000Z 17016KT CAVOK 26/09 Q1012=
201909091030 METAR LRAR 091030Z 16014KT 130V190 CAVOK 26/09 Q1012=
201909091100 METAR LRAR 091100Z 16014KT CAVOK 26/09 Q1011=
201909091130 METAR LRAR 091130Z 16016KT 140V200 CAVOK 26/10 Q1011=
201909091200 METAR LRAR 091200Z 16016KT CAVOK 27/10 Q1010=
201909091230 METAR LRAR 091230Z 16019KT CAVOK 27/10 Q1010=
201909091300 METAR LRAR 091300Z 17017KT 150V220 CAVOK 27/11 Q1010=
201909091330 METAR LRAR 091330Z 16016KT CAVOK 26/11 Q1010=
201909091400 METAR LRAR 091400Z 16013KT 9999 FEW045CB 26/11 Q1011=
201909091430 METAR LRAR 091430Z 29027G38KT 9999 SQ SCT050CB 17/11 Q1013=
201909091500 METAR LRAR 091500Z 30020KT 9999 SCT050CB 16/11 Q1014=
201909091530 METAR LRAR 091530Z 31013KT 9999 SCT050CB 16/12 Q1014=
201909091600 METAR LRAR 091600Z 31010KT 9999 -TSRA FEW008 SCT045CB 15/13
                        Q1015 R09/19//95=
201909091630 METAR LRAR 091630Z 33006KT 9000 -TSRA FEW010 SCT020 BKN030CB
                        14/14 Q1015 RESHRA R09/29//95=
201909091700 METAR LRAR 091700Z 06003KT 340V090 5000 SHRA SCT012 BKN030CB
                        14/14 Q1015 RETS R09/29//95=
201909091730 METAR LRAR 091730Z 08004KT 050V120 6000 SHRA SCT012 BKN030CB
                        14/14 Q1015 RETS R09/29//95=
201909091800 METAR LRAR 091800Z 12009KT 7000 SHRA SCT012 BKN030CB 14/14
                        Q1015 R09/29//95=
201909091830 METAR LRAR 091830Z 12011KT 9000 SHRA SCT019 BKN028CB 14/14
                        Q1016 R09/29//95=
201909091900 METAR LRAR 091900Z 13010KT 9999 -SHRA FEW009 SCT027CB 15/15
                        Q1016 RESHRA R09/29//95=
201909091930 METAR LRAR 091930Z 13008KT 9999 -SHRA FEW009 SCT012 SCT027CB
                        15/15 Q1016 RESHRA R09/29//95=
201909092000 METAR LRAR 092000Z 14011KT 9999 -SHRA SCT009 SCT027CB 15/15
                        Q1016 R09/29//95=
201909092030 METAR LRAR 092030Z 14007KT 9999 -SHRA FEW011 SCT027CB 15/15
                        Q1017 R09/29//95=
201909092100 METAR LRAR 092100Z 19002KT 140V230 9999 FEW027CB 15/15 Q1017
                        R09/29//95=
201909092130 METAR LRAR 092130Z 12002KT 080V170 9999 FEW027CB 15/15 Q1017
                        R09/29//95=
201909092200 METAR LRAR 092200Z 19002KT 140V220 9999 FEW030CB 15/15 Q1017
                        R09/29//95=
201909092230 METAR LRAR 092230Z 15003KT CAVOK 15/15 Q1017 R09/29//95=
201909092300 METAR LRAR 092300Z VRB01KT CAVOK 15/15 Q1017 R09/29//95=
201909092330 METAR LRAR 092330Z 20002KT CAVOK 15/15 Q1017 R09/29//95=
201909100000 METAR LRAR 100000Z VRB01KT CAVOK 14/14 Q1018 R09/29//95=
201909100030 METAR LRAR 100030Z 30005KT CAVOK 13/13 Q1018 R09/29//95=
201909100100 METAR LRAR 100100Z 31004KT 5000 BR FEW003 13/13 Q1018 R09/29//95=
201909100130 METAR LRAR 100130Z 30001KT 0800 R09/0800 FG OVC001 13/13
                        Q1018 R09/29//95=
201909100200 METAR LRAR 100200Z 00000KT 0400 R27/0500N R09/0600 FG OVC001
                        13/13 Q1018 R09/29//95=
201909100230 METAR LRAR 100230Z 32002KT 280V360 0500 R27/0600N FG OVC001
                        13/13 Q1018 R09/29//95=
201909100300 METAR LRAR 100300Z 32003KT 0400 R27/0500N FG OVC001 13/13
                        Q1018 R09/29//95=
201909100330 METAR LRAR 100330Z 32003KT 280V350 0450 R27/0550D FG OVC001
                        13/13 Q1019 R09/29//95=
201909100400 METAR COR LRAR 100400Z VRB02KT 0600 R09/0800 R27/0800U FG
                        BKN001 13/13 Q1019 R09/29//95=
201909100430 METAR LRAR 100430Z VRB01KT 0600 R09/0800 R27/0700N FG BKN001
                        13/13 Q1019 R09/29//95=
201909100500 METAR LRAR 100500Z 36003KT 340V040 1000 R09/1200 R27/1400U
                        BR SCT001 BKN003 13/13 Q1019 R09/29//95=
201909100530 METAR LRAR 100530Z 03003KT 360V060 5000 BR FEW001 14/14 Q1019
                        R09/29//95=
201909100600 METAR LRAR 100600Z 02004KT 6000 SCT003 14/14 Q1019 R09/29//95=
201909100630 METAR LRAR 100630Z 03004KT 340V070 6000 BKN004 14/14 Q1020
                        R09/29//95=
201909100700 METAR LRAR 100700Z 03005KT 340V070 8000 SCT003 BKN006 15/15
                        Q1020 R09/29//95=
201909100730 METAR LRAR 100730Z 07005KT 010V090 9999 SCT004 BKN006 15/15
                        Q1020 R09/29//95=
201909100800 METAR LRAR 100800Z 07006KT 010V110 9999 BKN006 16/16 Q1020
                        R09/29//95=
201909100830 METAR LRAR 100830Z 04005KT 360V070 9999 FEW010 17/17 Q1020
                        R09/29//95=
201909100900 METAR LRAR 100900Z 04005KT 350V080 9999 FEW012 19/17 Q1020
                        R09/29//95=
201909100930 METAR LRAR 100930Z 03005KT 330V090 9999 FEW015 20/17 Q1020
                        R09/CLRD//=
201909101000 METAR LRAR 101000Z 03006KT 340V080 9999 FEW020 21/15 Q1020=
201909101030 METAR LRAR 101030Z 04006KT 350V080 9999 SCT023 21/16 Q1020=
201909101100 METAR LRAR 101100Z 06008KT 020V100 9999 SCT025 22/16 Q1020=
201909101130 METAR LRAR 101130Z 04007KT 360V070 9999 SCT028 22/15 Q1019=
201909101200 METAR LRAR 101200Z 35006KT 320V060 9999 SCT033 23/15 Q1019=
201909101230 METAR LRAR 101230Z 02006KT 340V070 9999 FEW035 23/14 Q1019=
201909101300 METAR LRAR 101300Z 36007KT 320V030 9999 FEW040 23/13 Q1019=
201909101330 METAR LRAR 101330Z 05007KT 010V080 9999 FEW043 24/13 Q1019=
201909101400 METAR LRAR 101400Z 01007KT 330V050 9999 FEW046 24/13 Q1019=
201909101430 METAR LRAR 101430Z 36006KT 320V040 CAVOK 24/13 Q1019=
201909101500 METAR LRAR 101500Z 02008KT 350V060 CAVOK 23/12 Q1019=
201909101530 METAR LRAR 101530Z 35006KT 330V030 CAVOK 23/12 Q1019=
201909101600 METAR LRAR 101600Z 01006KT 340V040 CAVOK 22/13 Q1019=
201909101630 METAR LRAR 101630Z 01006KT CAVOK 21/12 Q1019=
201909101700 METAR LRAR 101700Z 01005KT CAVOK 20/13 Q1019=
201909101730 METAR LRAR 101730Z 36005KT CAVOK 19/13 Q1019=
201909101800 METAR LRAR 101800Z 01005KT CAVOK 18/13 Q1019=
201909101830 METAR LRAR 101830Z 01005KT CAVOK 17/13 Q1019=
201909101900 METAR LRAR 101900Z 01005KT CAVOK 17/13 Q1020=
201909101930 METAR LRAR 101930Z 02003KT 350V050 CAVOK 16/13 Q1020=
201909102000 METAR LRAR 102000Z 36003KT 320V030 CAVOK 16/13 Q1020=
201909102030 METAR LRAR 102030Z 01003KT CAVOK 15/13 Q1020=
201909102100 METAR LRAR 102100Z 36002KT CAVOK 15/13 Q1020=
201909102130 METAR LRAR 102130Z 33003KT CAVOK 14/13 Q1020=
201909102200 METAR LRAR 102200Z VRB01KT CAVOK 14/13 Q1020=
201909102230 METAR LRAR 102230Z 35003KT CAVOK 14/13 Q1020=
201909102300 METAR LRAR 102300Z 35002KT CAVOK 14/13 Q1020=
201909102330 METAR LRAR 102330Z 01003KT 340V050 CAVOK 14/13 Q1020=
201909110000 METAR LRAR 110000Z 03004KT 360V060 CAVOK 14/13 Q1020=
201909110030 METAR LRAR 110030Z 05003KT 030V100 CAVOK 14/13 Q1020=
201909110100 METAR LRAR 110100Z 01004KT CAVOK 14/13 Q1020=
201909110130 METAR LRAR 110130Z 02003KT CAVOK 13/13 Q1020=
201909110200 METAR LRAR 110200Z 06003KT CAVOK 13/13 Q1020=
201909110230 METAR LRAR 110230Z 02002KT CAVOK 13/13 Q1020=
201909110300 METAR LRAR 110300Z 03001KT CAVOK 13/13 Q1020=
201909110330 METAR LRAR 110330Z 01002KT CAVOK 12/12 Q1020=
201909110400 METAR LRAR 110400Z VRB01KT 9999 MIFG NSC 12/12 Q1021=
201909110430 METAR LRAR 110430Z 02001KT 9999 MIFG NSC 12/12 Q1021=
201909110500 METAR LRAR 110500Z 02002KT 9999 MIFG NSC 13/13 Q1021=
201909110530 METAR LRAR 110530Z VRB01KT CAVOK 15/15 Q1021=
201909110600 METAR LRAR 110600Z VRB02KT CAVOK 17/15 Q1021=
201909110630 METAR LRAR 110630Z VRB02KT CAVOK 19/14 Q1021=
201909110700 METAR LRAR 110700Z VRB02KT CAVOK 20/14 Q1022=
201909110730 METAR LRAR 110730Z 14003KT 100V200 CAVOK 21/14 Q1022=
201909110800 METAR LRAR 110800Z VRB03KT CAVOK 23/14 Q1022=
201909110830 METAR LRAR 110830Z VRB03KT CAVOK 24/14 Q1022=
201909110900 METAR LRAR 110900Z VRB02KT CAVOK 25/14 Q1022=
201909110930 METAR LRAR 110930Z VRB04KT CAVOK 25/13 Q1022=
201909111000 METAR LRAR 111000Z 31004KT 260V020 CAVOK 26/13 Q1022=
201909111030 METAR LRAR 111030Z VRB04KT CAVOK 26/12 Q1022=
201909111100 METAR LRAR 111100Z 36005KT 320V030 CAVOK 27/13 Q1022=
201909111130 METAR LRAR 111130Z 36005KT 310V040 CAVOK 27/12 Q1022=
201909111200 METAR LRAR 111200Z 36006KT 300V040 CAVOK 28/13 Q1021=
201909111230 METAR LRAR 111230Z 35005KT 300V050 CAVOK 28/11 Q1021=
201909111300 METAR LRAR 111300Z 34005KT 300V050 CAVOK 27/11 Q1021=
201909111330 METAR LRAR 111330Z 03007KT 340V080 9999 FEW048 28/11 Q1021=
201909111400 METAR LRAR 111400Z 35005KT 320V030 CAVOK 28/12 Q1021=
201909111430 METAR LRAR 111430Z 02006KT 330V060 CAVOK 28/11 Q1021=
201909111500 METAR LRAR 111500Z 36005KT 320V060 CAVOK 28/12 Q1021=
201909111530 METAR LRAR 111530Z 36006KT CAVOK 27/12 Q1021=
201909111600 METAR LRAR 111600Z 01006KT CAVOK 26/13 Q1021=
201909111630 METAR LRAR 111630Z 36005KT CAVOK 25/13 Q1021=
201909111700 METAR LRAR 111700Z 36005KT CAVOK 24/14 Q1021=
201909111730 METAR LRAR 111730Z 35004KT CAVOK 23/14 Q1021=
201909111800 METAR LRAR 111800Z 35003KT CAVOK 21/15 Q1022=
201909111830 METAR LRAR 111830Z 36005KT CAVOK 21/14 Q1022=
201909111900 METAR LRAR 111900Z 35003KT CAVOK 20/14 Q1022=
201909111930 METAR LRAR 111930Z VRB02KT CAVOK 20/15 Q1022=
201909112000 METAR LRAR 112000Z VRB02KT CAVOK 20/15 Q1023=
201909112030 METAR LRAR 112030Z 01002KT CAVOK 19/15 Q1023=
201909112100 METAR LRAR 112100Z VRB02KT CAVOK 19/15 Q1023=
201909112130 METAR LRAR 112130Z VRB01KT CAVOK 18/15 Q1023=
201909112200 METAR LRAR 112200Z VRB01KT CAVOK 18/15 Q1023=
201909112230 METAR LRAR 112230Z VRB01KT CAVOK 17/15 Q1023=
201909112300 METAR LRAR 112300Z VRB01KT CAVOK 16/15 Q1023=
201909112330 METAR LRAR 112330Z VRB02KT CAVOK 16/15 Q1023=
201909120000 METAR LRAR 120000Z VRB02KT CAVOK 16/15 Q1023=
201909120030 METAR LRAR 120030Z 26002KT CAVOK 15/15 Q1023=
201909120100 METAR LRAR 120100Z 26002KT CAVOK 15/15 Q1023=
201909120130 METAR LRAR 120130Z 31003KT CAVOK 15/15 Q1023=
201909120200 METAR LRAR 120200Z 32002KT CAVOK 15/15 Q1024=
201909120230 METAR LRAR 120230Z 00000KT CAVOK 16/16 Q1024=
201909120300 METAR LRAR 120300Z 00000KT CAVOK 15/15 Q1024=
201909120330 METAR LRAR 120330Z 12002KT CAVOK 15/15 Q1024=
201909120400 METAR LRAR 120400Z 00000KT CAVOK 15/15 Q1024=
201909120430 METAR LRAR 120430Z 00000KT 9999 MIFG NSC 14/14 Q1024=
201909120500 METAR LRAR 120500Z 33002KT 9999 MIFG NSC 15/15 Q1024=
201909120530 METAR LRAR 120530Z 00000KT CAVOK 16/16 Q1025=
201909120600 METAR LRAR 120600Z 26003KT 230V300 CAVOK 17/17 Q1025=
201909120630 METAR LRAR 120630Z 31003KT 270V340 CAVOK 17/16 Q1025=
201909120700 METAR LRAR 120700Z 32004KT 270V350 CAVOK 18/16 Q1026=
201909120730 METAR LRAR 120730Z 35003KT 310V050 CAVOK 19/16 Q1026=
201909120800 METAR LRAR 120800Z 35006KT 310V040 CAVOK 21/15 Q1026=
201909120830 METAR LRAR 120830Z 35006KT 310V030 CAVOK 22/15 Q1026=
201909120900 METAR LRAR 120900Z 34007KT 320V030 CAVOK 24/15 Q1027=
201909120930 METAR LRAR 120930Z 36009KT 330V040 CAVOK 25/14 Q1026=
201909121000 METAR LRAR 121000Z 02008KT 330V080 CAVOK 26/13 Q1026=
201909121030 METAR LRAR 121030Z 02010KT 340V050 CAVOK 26/13 Q1026=
201909121100 METAR LRAR 121100Z 36009KT 330V050 CAVOK 27/13 Q1026=
201909121130 METAR LRAR 121130Z 02010KT 320V050 CAVOK 28/12 Q1026=
201909121200 METAR LRAR 121200Z 35007KT 330V040 CAVOK 28/13 Q1026=
201909121230 METAR LRAR 121230Z 36007KT 320V030 CAVOK 27/12 Q1026=
201909121300 METAR LRAR 121300Z 34008KT 310V010 CAVOK 28/12 Q1025=
201909121330 METAR LRAR 121330Z 35008KT 310V030 CAVOK 28/11 Q1025=
201909121400 METAR LRAR 121400Z 33010KT 310V010 CAVOK 28/12 Q1025=
201909121430 METAR LRAR 121430Z 33013KT CAVOK 27/13 Q1025=
201909121500 METAR LRAR 121500Z 33012KT CAVOK 27/12 Q1025=
201909121530 METAR LRAR 121530Z 33011KT CAVOK 26/12 Q1025=
201909121600 METAR LRAR 121600Z 33008KT CAVOK 25/12 Q1025=
201909121630 METAR LRAR 121630Z 34005KT CAVOK 24/13 Q1026=
201909121700 METAR LRAR 121700Z 34004KT CAVOK 22/13 Q1026=
201909121730 METAR LRAR 121730Z 32004KT CAVOK 21/13 Q1026=
201909121800 METAR LRAR 121800Z 33005KT CAVOK 20/14 Q1026=
201909121830 METAR LRAR 121830Z 32004KT CAVOK 18/14 Q1027=
201909121900 METAR LRAR 121900Z 32005KT CAVOK 17/13 Q1027=
201909121930 METAR LRAR 121930Z 31005KT CAVOK 17/12 Q1027=
201909122000 METAR LRAR 122000Z 31004KT CAVOK 16/12 Q1027=
201909122030 METAR LRAR 122030Z 31003KT CAVOK 16/12 Q1027=
201909122100 METAR LRAR 122100Z 28002KT CAVOK 16/12 Q1027=
201909122130 METAR LRAR 122130Z 29004KT CAVOK 15/11 Q1027=
201909122200 METAR LRAR 122200Z 29006KT CAVOK 14/11 Q1027=
201909122230 METAR LRAR 122230Z 30004KT CAVOK 14/11 Q1027=
201909122300 METAR LRAR 122300Z 29004KT CAVOK 14/11 Q1027=
201909122330 METAR LRAR 122330Z 28005KT CAVOK 14/11 Q1027=
201909130000 METAR LRAR 130000Z 30004KT CAVOK 13/11 Q1027=
201909130030 METAR LRAR 130030Z 31003KT CAVOK 13/12 Q1027=
201909130100 METAR LRAR 130100Z 30002KT CAVOK 13/12 Q1027=
201909130130 METAR LRAR 130130Z 30002KT CAVOK 13/12 Q1027=
201909130200 METAR LRAR 130200Z VBB02KT CAVOK 13/12 Q1027=
201909130230 METAR LRAR 130230Z 28003KT CAVOK 13/12 Q1027=
201909130300 METAR LRAR 130300Z 28002KT CAVOK 12/11 Q1027=
201909130330 METAR LRAR 130330Z 27003KT CAVOK 12/11 Q1027=
201909130400 METAR LRAR 130400Z 28003KT CAVOK 11/11 Q1027=
201909130430 METAR LRAR 130430Z 28003KT CAVOK 11/11 Q1028=
201909130500 METAR LRAR 130500Z VRB01KT CAVOK 12/12 Q1028=
201909130530 METAR LRAR 130530Z 28002KT CAVOK 13/13 Q1028=
201909130600 METAR LRAR 130600Z 28002KT 250V310 CAVOK 14/13 Q1028=
201909130630 METAR LRAR 130630Z VRB01KT CAVOK 16/13 Q1028=
201909130700 METAR LRAR 130700Z VRB01KT CAVOK 18/13 Q1028=
201909130730 METAR LRAR 130730Z 19002KT 120V250 CAVOK 20/14 Q1028=
201909130800 METAR LRAR 130800Z 22004KT 160V260 CAVOK 21/14 Q1028=
201909130830 METAR LRAR 130830Z 23003KT 170V280 CAVOK 22/13 Q1028=
201909130900 METAR LRAR 130900Z VRB02KT CAVOK 23/14 Q1028=
201909130930 METAR LRAR 130930Z 27004KT 160V320 CAVOK 24/13 Q1028=
201909131000 METAR LRAR 131000Z 26005KT 230V320 CAVOK 25/13 Q1028=
201909131030 METAR LRAR 131030Z 28005KT 230V320 CAVOK 26/13 Q1028=
201909131100 METAR COR LRAR 131100Z 29005KT 220V340 CAVOK 26/12 Q1027=
201909131130 METAR LRAR 131130Z VRB03KT CAVOK 27/13 Q1027=
201909131200 METAR LRAR 131200Z 30005KT 210V340 CAVOK 27/12 Q1027=
201909131230 METAR LRAR 131230Z VRB03KT CAVOK 27/11 Q1027=
201909131300 METAR LRAR 131300Z 31007KT 260V340 CAVOK 27/11 Q1026=
201909131330 METAR LRAR 131330Z 31005KT 280V340 CAVOK 28/11 Q1026=
201909131400 METAR LRAR 131400Z 31006KT 270V340 CAVOK 28/11 Q1026=
201909131430 METAR LRAR 131430Z 27005KT 210V310 CAVOK 27/10 Q1026=
201909131500 METAR LRAR 131500Z 28005KT CAVOK 27/10 Q1026=
201909131530 METAR LRAR 131530Z 30006KT CAVOK 27/10 Q1026=
201909131600 METAR LRAR 131600Z 30003KT 270V330 CAVOK 27/12 Q1026=
201909131630 METAR LRAR 131630Z 31003KT 240V330 CAVOK 24/13 Q1026=
201909131700 METAR LRAR 131700Z 25002KT CAVOK 22/14 Q1026=
201909131730 METAR LRAR 131730Z 28004KT CAVOK 19/14 Q1026=
201909131800 METAR LRAR 131800Z 31004KT CAVOK 18/13 Q1026=
201909131830 METAR LRAR 131830Z 33004KT CAVOK 18/12 Q1027=
201909131900 METAR LRAR 131900Z 28003KT CAVOK 18/13 Q1027=
201909131930 METAR LRAR 131930Z 28004KT CAVOK 17/12 Q1027=
201909132000 METAR LRAR 132000Z 29004KT CAVOK 16/12 Q1027=
201909132030 METAR LRAR 132030Z 27003KT CAVOK 16/12 Q1027=
201909132100 METAR LRAR 132100Z 27003KT CAVOK 15/12 Q1027=
201909132130 METAR LRAR 132130Z 27004KT CAVOK 15/12 Q1027=
201909132200 METAR LRAR 132200Z 27003KT CAVOK 15/12 Q1027=
201909132230 METAR LRAR 132230Z 27003KT CAVOK 15/12 Q1027=
201909132300 METAR LRAR 132300Z VRB02KT CAVOK 14/12 Q1027=
201909132330 METAR LRAR 132330Z 14001KT CAVOK 15/12 Q1027=
201909140000 METAR LRAR 140000Z VRB01KT CAVOK 14/13 Q1027=
201909140030 METAR LRAR 140030Z 22002KT CAVOK 13/12 Q1027=
201909140100 METAR LRAR 140100Z 23001KT CAVOK 13/13 Q1026=
201909140130 METAR LRAR 140130Z 23001KT CAVOK 13/12 Q1026=
201909140200 METAR LRAR 140200Z 20001KT CAVOK 12/12 Q1026=
201909140230 METAR LRAR 140230Z 00000KT CAVOK 12/12 Q1026=
201909140300 METAR LRAR 140300Z 22001KT CAVOK 12/12 Q1026=
201909140330 METAR LRAR 140330Z 25001KT 9999 MIFG NSC 12/12 Q1026=
201909140400 METAR LRAR 140400Z VRB01KT 9999 MIFG NSC 12/12 Q1026=
201909140430 METAR LRAR 140430Z VRB02KT 9999 MIFG NSC 11/11 Q1027=
201909140500 METAR LRAR 140500Z VRB02KT 9999 MIFG NSC 12/12 Q1027=
201909140530 METAR LRAR 140530Z VRB02KT CAVOK 14/14 Q1027=
201909140600 METAR LRAR 140600Z 35003KT 320V070 CAVOK 16/14 Q1027=
201909140630 METAR LRAR 140630Z 06003KT 020V110 CAVOK 17/14 Q1027=
201909140700 METAR LRAR 140700Z VRB02KT CAVOK 19/14 Q1027=
201909140730 METAR LRAR 140730Z VRB03KT CAVOK 21/14 Q1027=
201909140800 METAR LRAR 140800Z 02004KT 320V070 CAVOK 22/14 Q1027=
201909140830 METAR LRAR 140830Z 03004KT 330V110 CAVOK 23/14 Q1027=
201909140900 METAR LRAR 140900Z 03008KT 350V060 CAVOK 24/13 Q1027=
201909140930 METAR LRAR 140930Z 01009KT 320V040 CAVOK 25/13 Q1027=
201909141000 METAR LRAR 141000Z 04009KT 360V070 CAVOK 25/12 Q1027=
201909141030 METAR LRAR 141030Z 02009KT 340V060 9999 FEW045 26/13 Q1027=
201909141100 METAR LRAR 141100Z 02010KT 330V050 9999 SCT047 26/13 Q1027=
201909141130 METAR LRAR 141130Z 01011KT 330V050 CAVOK 26/12 Q1027=
201909141200 METAR LRAR 141200Z 03011KT 340V070 CAVOK 26/12 Q1026=
201909141230 METAR LRAR 141230Z 01011KT 340V050 CAVOK 26/12 Q1026=
201909141300 METAR LRAR 141300Z 01011KT 330V050 CAVOK 27/10 Q1026=
201909141330 METAR LRAR 141330Z 01012KT 340V060 CAVOK 26/10 Q1026=
201909141400 METAR LRAR 141400Z 36011KT 340V060 CAVOK 26/09 Q1026=
201909141430 METAR LRAR 141430Z 01012G22KT 350V060 CAVOK 26/09 Q1026=
201909141500 METAR LRAR 141500Z 36012KT 330V040 CAVOK 25/09 Q1026=
201909141530 METAR LRAR 141530Z 36010KT CAVOK 24/09 Q1026=
201909141600 METAR LRAR 141600Z 01010KT 340V040 CAVOK 24/10 Q1026=
201909141630 METAR LRAR 141630Z 01009KT 340V050 CAVOK 23/09 Q1026=
201909141700 METAR LRAR 141700Z 01008KT CAVOK 21/09 Q1026=
201909141730 METAR LRAR 141730Z 36006KT CAVOK 19/09 Q1026=
201909141800 METAR LRAR 141800Z 01005KT CAVOK 19/10 Q1026=
201909141830 METAR LRAR 141830Z 03007KT 360V060 CAVOK 19/08 Q1027=
201909141900 METAR LRAR 141900Z 03007KT 010V070 CAVOK 19/07 Q1027=
201909141930 METAR LRAR 141930Z 03007KT CAVOK 18/07 Q1027=
201909142000 METAR LRAR 142000Z 03008KT CAVOK 18/06 Q1027=
201909142030 METAR LRAR 142030Z 04009KT CAVOK 17/06 Q1027=
201909142100 METAR LRAR 142100Z 03008KT CAVOK 16/06 Q1027=
201909142130 METAR LRAR 142130Z 03007KT CAVOK 15/07 Q1027=
201909142200 METAR LRAR 142200Z 03008KT 360V060 CAVOK 15/07 Q1027=
201909142230 METAR LRAR 142230Z 03005KT 350V050 CAVOK 14/07 Q1027=
201909142300 METAR LRAR 142300Z 03003KT 350V050 CAVOK 14/07 Q1027=
201909142330 METAR LRAR 142330Z 02004KT CAVOK 13/07 Q1027=
201909150000 METAR LRAR 150000Z 04002KT 360V070 CAVOK 13/07 Q1027=
201909150030 METAR LRAR 150030Z 01005KT CAVOK 12/07 Q1027=
201909150100 METAR LRAR 150100Z 36004KT CAVOK 11/07 Q1027=
201909150130 METAR LRAR 150130Z 03003KT CAVOK 11/07 Q1027=
201909150200 METAR LRAR 150200Z 02006KT 360V060 CAVOK 11/07 Q1027=
201909150230 METAR LRAR 150230Z 02004KT CAVOK 11/07 Q1027=
201909150300 METAR LRAR 150300Z 03002KT 350V060 CAVOK 10/07 Q1027=
201909150330 METAR LRAR 150330Z 02003KT CAVOK 10/07 Q1027=
201909150400 METAR LRAR 150400Z 35001KT CAVOK 09/07 Q1027=
201909150430 METAR LRAR 150430Z 36001KT CAVOK 09/07 Q1027=
201909150500 METAR LRAR 150500Z 35001KT CAVOK 10/08 Q1027=
201909150530 METAR LRAR 150530Z 00000KT CAVOK 12/08 Q1027=
201909150600 METAR LRAR 150600Z VRB01KT CAVOK 13/09 Q1027=
201909150630 METAR LRAR 150630Z 00000KT CAVOK 16/09 Q1027=
201909150700 METAR LRAR 150700Z VRB01KT CAVOK 18/09 Q1027=
201909150730 METAR LRAR 150730Z VRB02KT CAVOK 19/08 Q1027=
201909150800 METAR LRAR 150800Z 09003KT 040V140 CAVOK 21/08 Q1027=
201909150830 METAR LRAR 150830Z 07003KT 340V150 9999 FEW045 22/08 Q1027=
201909150900 METAR LRAR 150900Z VRB02KT 9999 FEW045 23/07 Q1027=
201909150930 METAR LRAR 150930Z VRB03KT 9999 FEW048 23/10 Q1027=
201909151000 METAR LRAR 151000Z 29005KT 250V330 9999 FEW048 24/10 Q1026=
201909151030 METAR LRAR 151030Z VRB03KT CAVOK 24/11 Q1026=
201909151100 METAR LRAR 151100Z 25007KT 220V340 CAVOK 25/09 Q1026=
201909151130 METAR LRAR 151130Z 20009KT 160V250 CAVOK 25/08 Q1025=
201909151200 METAR LRAR 151200Z 25006KT 190V320 CAVOK 25/08 Q1025=
201909151230 METAR LRAR 151230Z 24007KT 210V300 CAVOK 26/08 Q1024=
201909151300 METAR LRAR 151300Z 27007KT 240V300 CAVOK 26/07 Q1024=
201909151330 METAR LRAR 151330Z 29006KT CAVOK 26/07 Q1024=
201909151400 METAR LRAR 151400Z 26006KT 230V310 CAVOK 25/06 Q1023=
201909151430 METAR LRAR 151430Z VRB03KT CAVOK 24/06 Q1023=
201909151500 METAR LRAR 151500Z 28007KT CAVOK 23/07 Q1023=
201909151530 METAR LRAR 151530Z 27006KT CAVOK 23/07 Q1022=
201909151600 METAR LRAR 151600Z 26006KT CAVOK 23/06 Q1022=
201909151630 METAR LRAR 151630Z 25003KT CAVOK 21/08 Q1022=
201909151700 METAR LRAR 151700Z 27003KT CAVOK 18/09 Q1022=
201909151730 METAR LRAR 151730Z 26002KT CAVOK 17/09 Q1022=
201909151800 METAR LRAR 151800Z 25002KT CAVOK 17/11 Q1022=
201909151830 METAR LRAR 151830Z 26004KT CAVOK 16/11 Q1022=
201909151900 METAR LRAR 151900Z 27003KT CAVOK 15/10 Q1022=
201909151930 METAR LRAR 151930Z 27002KT CAVOK 15/09 Q1022=
201909152000 METAR LRAR 152000Z VRB01KT CAVOK 15/10 Q1022=
201909152030 METAR LRAR 152030Z 13002KT CAVOK 14/10 Q1022=
201909152100 METAR LRAR 152100Z 17001KT CAVOK 13/10 Q1022=
201909152130 METAR LRAR 152130Z 13003KT CAVOK 14/10 Q1022=
201909152200 METAR LRAR 152200Z 13003KT CAVOK 14/10 Q1021=
201909152230 METAR LRAR 152230Z 14004KT CAVOK 14/09 Q1021=
201909152300 METAR LRAR 152300Z 13003KT CAVOK 14/10 Q1021=
201909152330 METAR LRAR 152330Z 14005KT CAVOK 14/09 Q1021=
201909160000 METAR LRAR 160000Z 12003KT CAVOK 13/09 Q1021=
201909160030 METAR LRAR 160030Z 14004KT CAVOK 13/09 Q1021=
201909160100 METAR LRAR 160100Z 14005KT CAVOK 13/09 Q1020=
201909160130 METAR LRAR 160130Z 13004KT CAVOK 12/09 Q1020=
201909160200 METAR LRAR 160200Z 13005KT CAVOK 12/08 Q1020=
201909160230 METAR LRAR 160230Z 14005KT CAVOK 12/09 Q1020=
201909160300 METAR LRAR 160300Z 14005KT CAVOK 12/09 Q1020=
201909160330 METAR LRAR 160330Z 16003KT 120V230 CAVOK 12/09 Q1020=
201909160400 METAR LRAR 160400Z 15006KT CAVOK 12/09 Q1020=
201909160430 METAR LRAR 160430Z 15003KT CAVOK 11/09 Q1020=
201909160500 METAR LRAR 160500Z 15004KT CAVOK 12/10 Q1020=
201909160530 METAR LRAR 160530Z 14003KT CAVOK 14/10 Q1020=
201909160600 METAR LRAR 160600Z 15004KT CAVOK 15/11 Q1020=
201909160630 METAR LRAR 160630Z 16004KT 140V200 CAVOK 17/12 Q1020=
201909160700 METAR LRAR 160700Z 20004KT 160V230 CAVOK 19/12 Q1020=
201909160730 METAR LRAR 160730Z 21005KT 170V240 CAVOK 21/11 Q1020=
201909160800 METAR LRAR 160800Z 25006KT 200V280 CAVOK 22/11 Q1020=
201909160830 METAR LRAR 160830Z 24005KT 210V270 CAVOK 23/11 Q1019=
201909160900 METAR LRAR 160900Z 25005KT 210V310 CAVOK 23/12 Q1019=
201909160930 METAR LRAR 160930Z 23005KT 160V310 CAVOK 24/12 Q1019=
201909161000 METAR LRAR 161000Z 21007KT CAVOK 25/11 Q1019=
201909161030 METAR LRAR 161030Z 27008KT 240V300 CAVOK 25/11 Q1018=
201909161100 METAR LRAR 161100Z 23008KT CAVOK 26/11 Q1018=
201909161130 METAR LRAR 161130Z 27007KT 240V300 CAVOK 26/11 Q1018=
201909161200 METAR LRAR 161200Z 26007KT CAVOK 27/10 Q1017=
201909161230 METAR LRAR 161230Z 25010KT CAVOK 27/10 Q1017=
201909161300 METAR LRAR 161300Z 26010KT CAVOK 27/10 Q1016=
201909161330 METAR LRAR 161330Z 27010KT 240V300 CAVOK 28/09 Q1016=
201909161400 METAR LRAR 161400Z 25009KT 220V280 CAVOK 27/10 Q1015=
201909161430 METAR LRAR 161430Z 29009KT 250V320 CAVOK 28/09 Q1015=
201909161500 METAR LRAR 161500Z 28008KT CAVOK 28/09 Q1015=
201909161530 METAR LRAR 161530Z 30007KT CAVOK 27/10 Q1015=
201909161600 METAR LRAR 161600Z 28006KT CAVOK 25/12 Q1015=
201909161630 METAR LRAR 161630Z 25004KT CAVOK 24/12 Q1015=
201909161700 METAR LRAR 161700Z 25004KT CAVOK 22/12 Q1015=
201909161730 METAR LRAR 161730Z 24004KT CAVOK 20/13 Q1015=
201909161800 METAR LRAR 161800Z 25004KT CAVOK 20/13 Q1015=
201909161830 METAR LRAR 161830Z 26003KT CAVOK 18/13 Q1015=
201909161900 METAR LRAR 161900Z 24003KT CAVOK 18/13 Q1015=
201909161930 METAR LRAR 161930Z VRB01KT CAVOK 17/13 Q1015=
201909162000 METAR LRAR 162000Z VRB01KT CAVOK 17/14 Q1015=
201909162030 METAR LRAR 162030Z 19002KT CAVOK 17/13 Q1015=
201909162100 METAR LRAR 162100Z 00000KT CAVOK 16/14 Q1015=
201909162130 METAR LRAR 162130Z 19002KT CAVOK 16/13 Q1015=
201909162200 METAR LRAR 162200Z 20002KT CAVOK 15/13 Q1015=
201909162230 METAR LRAR 162230Z VRB01KT CAVOK 15/13 Q1015=
201909162300 METAR COR LRAR 162300Z VRB01KT CAVOK 16/13 Q1015=
201909162330 METAR LRAR 162330Z 16002KT CAVOK 15/13 Q1015=
201909170000 METAR LRAR 170000Z 15002KT CAVOK 15/13 Q1014=
201909170030 METAR LRAR 170030Z 19002KT 140V210 CAVOK 15/12 Q1014=
201909170100 METAR LRAR 170100Z 17002KT CAVOK 16/12 Q1014=
201909170130 METAR LRAR 170130Z 00000KT CAVOK 16/12 Q1014=
201909170200 METAR LRAR 170200Z 35007KT 320V030 9999 FEW050CB 17/13 Q1015=
201909170230 METAR LRAR 170230Z 04006KT 350V070 9999 FEW045CB 18/13 Q1015=
201909170300 METAR LRAR 170300Z 07004KT 9999 FEW045CB 18/14 Q1015=
201909170330 METAR LRAR 170330Z 06003KT 020V110 9999 -SHRA FEW010 SCT040CB
                        18/14 Q1015=
201909170400 METAR LRAR 170400Z 11003KT 9999 FEW010 FEW040CB 17/15 Q1014
                        R09/19//95=
201909170430 METAR LRAR 170430Z VRB03KT 9999 VCSH FEW011 SCT040CB 16/16
                        Q1015 R09/19//95=
201909170500 METAR LRAR 170500Z VRB01KT 9999 -SHRA FEW005 SCT020 SCT040CB
                        16/16 Q1015 R09/19//95=
201909170530 METAR LRAR 170530Z 18005KT 9999 VCSH FEW008 FEW040CB 16/16
                        Q1014 R09/19//95=
201909170600 METAR COR LRAR 170600Z VRB02KT 9999 SCT048 17/16 Q1014 R09/19//95=
201909170630 METAR LRAR 170630Z VRB02KT 9999 SCT048 17/17 Q1014 R09/19//95=
201909170700 METAR LRAR 170700Z 20005KT 150V230 9999 SCT048 18/16 Q1014
                        R09/19//95=
201909170730 METAR LRAR 170730Z 20006KT CAVOK 17/16 Q1015 R09/19//95=
201909170800 METAR LRAR 170800Z 21003KT 180V240 9999 -RA NSC 18/15 Q1015
                        R09/19//95=
201909170830 METAR LRAR 170830Z 21004KT CAVOK 18/15 Q1015 R09/19//95=
201909170900 METAR LRAR 170900Z 20004KT 150V240 CAVOK 19/15 Q1015 R09/19//95=
201909170930 METAR LRAR 170930Z VRB02KT 9999 -RA FEW010 19/16 Q1015 R09/19//95=
201909171000 METAR LRAR 171000Z 23003KT 9999 FEW008 19/15 Q1015 R09/19//95=
201909171030 METAR LRAR 171030Z 25002KT 9999 FEW005 SCT012 19/17 Q1015
                        R09/19//95=
201909171100 METAR LRAR 171100Z 00000KT 9999 -RA FEW006 SCT011 19/17 Q1015
                        R09/19//95=
201909171130 METAR LRAR 171130Z 30003KT 240V330 9999 FEW008 20/17 Q1015
                        R09/19//95=
201909171200 METAR LRAR 171200Z 27006KT 9999 FEW026 20/17 Q1015 R09/19//95=
201909171230 METAR LRAR 171230Z 27005KT 9999 FEW026 21/16 Q1014 R09/19//95=
201909171300 METAR COR LRAR 171300Z 27006KT 9999 FEW025 22/15 Q1014 R09/CLRD//=
201909171330 METAR LRAR 171330Z 28006KT CAVOK 22/14 Q1014=
201909171400 METAR LRAR 171400Z 29005KT CAVOK 21/15 Q1014=
201909171430 METAR LRAR 171430Z 28006KT 9999 FEW050CB 21/15 Q1014=
201909171500 METAR COR LRAR 171500Z 30006KT CAVOK 20/14 Q1014=
201909171530 METAR LRAR 171530Z 28004KT CAVOK 20/15 Q1013=
201909171600 METAR LRAR 171600Z 25003KT CAVOK 20/16 Q1013=
201909171630 METAR LRAR 171630Z 26003KT 9999 FEW050CB 19/15 Q1013=
201909171700 METAR LRAR 171700Z VRB02KT 9999 FEW055CB 19/16 Q1013=
201909171730 METAR LRAR 171730Z VRB01KT CAVOK 19/15 Q1013=
201909171800 METAR LRAR 171800Z 24002KT CAVOK 18/15 Q1013=
201909171830 METAR LRAR 171830Z 00000KT CAVOK 18/15 Q1013=
201909171900 METAR LRAR 171900Z 22001KT CAVOK 17/15 Q1013=
201909171930 METAR LRAR 171930Z 16001KT CAVOK 17/15 Q1013=
201909172000 METAR COR LRAR 172000Z 15004KT CAVOK 17/15 Q1013=
201909172030 METAR LRAR 172030Z 15003KT CAVOK 17/15 Q1013=
201909172100 METAR LRAR 172100Z VRB03KT CAVOK 17/15 Q1013=
201909172130 METAR LRAR 172130Z VRB02KT CAVOK 18/15 Q1013=
201909172200 METAR LRAR 172200Z VRB01KT 9999 -RA FEW020 SCT040 17/16 Q1014=
201909172230 METAR LRAR 172230Z VRB01KT 9999 FEW045 16/16 Q1014=
201909172300 METAR LRAR 172300Z 27004KT 250V310 9999 -RA FEW010 SCT020
                        BKN045 16/16 Q1014=
201909172330 METAR LRAR 172330Z 26005KT 9999 -RA SCT020 16/16 Q1014=
201909180000 METAR LRAR 180000Z AUTO 26005KT 9000 -SHRA FEW009/// 16/16
                        Q1015=
201909180030 METAR LRAR 180030Z 26004KT 240V300 9999 -RA FEW048 15/15
                        Q1014=
201909180100 METAR LRAR 180100Z 27005KT 9999 FEW049 15/15 Q1015=
201909180130 METAR LRAR 180130Z 27005KT 9999 -RA FEW011 15/15 Q1015 R09/29//95=
201909180200 METAR LRAR 180200Z 27004KT 9999 -RA FEW040 15/15 Q1015 R09/29//95=
201909180230 METAR LRAR 180230Z 28006KT 9999 -RA FEW045 15/15 Q1015 R09/29//95=
201909180300 METAR LRAR 180300Z 31005KT 9999 -RA FEW008 15/13 Q1015 R09/29//95=
201909180330 METAR LRAR 180330Z 30005KT 9999 FEW009 15/14 Q1016 R09/29//95=
201909180400 METAR LRAR 180400Z 31008KT 9999 FEW045 15/13 Q1016 R09/29//95=
201909180430 METAR LRAR 180430Z 31008KT CAVOK 14/11 Q1017 R09/29//95=
201909180500 METAR LRAR 180500Z 30007KT CAVOK 13/10 Q1017 R09/29//95=
201909180530 METAR LRAR 180530Z 29006KT CAVOK 13/10 Q1018 R09/29//95=
201909180600 METAR LRAR 180600Z 29007KT CAVOK 13/11 Q1018 R09/19//95=
201909180630 METAR LRAR 180630Z 31013KT CAVOK 14/07 Q1019 R09/19//95=
201909180700 METAR LRAR 180700Z 32014KT CAVOK 14/07 Q1019 R09/19//95=
201909180730 METAR LRAR 180730Z 33011KT CAVOK 15/07 Q1019 R09/19//95=
201909180800 METAR LRAR 180800Z 32012KT CAVOK 16/04 Q1020 R09/CLRD//=
201909180830 METAR LRAR 180830Z 32011KT 290V360 CAVOK 16/03 Q1020=
201909180900 METAR LRAR 180900Z 34009KT CAVOK 17/02 Q1020=
201909180930 METAR LRAR 180930Z 32013KT 280V360 CAVOK 17/02 Q1020=
201909181000 METAR LRAR 181000Z 32014KT CAVOK 17/03 Q1020=
201909181030 METAR LRAR 181030Z 33013KT 290V010 CAVOK 17/02 Q1020=
201909181100 METAR LRAR 181100Z 32011KT 280V350 CAVOK 17/01 Q1020=
201909181130 METAR LRAR 181130Z 32011KT 270V010 CAVOK 18/00 Q1020=
201909181200 METAR LRAR 181200Z 31011KT 280V350 CAVOK 18/02 Q1020=
201909181230 METAR LRAR 181230Z 30009KT 250V320 CAVOK 18/02 Q1020=
201909181300 METAR LRAR 181300Z 31010KT 270V060 CAVOK 18/02 Q1020=
201909181330 METAR LRAR 181330Z 31009KT CAVOK 18/M01 Q1020=
201909181400 METAR LRAR 181400Z 31008KT 280V360 CAVOK 18/M01 Q1020=
201909181430 METAR LRAR 181430Z 34006KT 300V020 CAVOK 18/M01 Q1020=
201909181500 METAR LRAR 181500Z 32008KT CAVOK 18/00 Q1020=
201909181530 METAR LRAR 181530Z 29009KT CAVOK 18/M01 Q1020=
201909181600 METAR LRAR 181600Z 32006KT CAVOK 16/00 Q1020=
201909181630 METAR LRAR 181630Z 30006KT CAVOK 14/02 Q1020=
201909181700 METAR LRAR 181700Z 26004KT CAVOK 13/05 Q1021=
201909181730 METAR LRAR 181730Z 24004KT CAVOK 12/04 Q1021=
201909181800 METAR LRAR 181800Z 24003KT CAVOK 10/04 Q1021=
201909181830 METAR LRAR 181830Z 26003KT CAVOK 11/04 Q1022=
201909181900 METAR LRAR 181900Z 24002KT CAVOK 11/05 Q1022=
201909181930 METAR LRAR 181930Z 24002KT CAVOK 08/05 Q1022=
201909182000 METAR LRAR 182000Z 28004KT CAVOK 08/03 Q1022=
201909182030 METAR LRAR 182030Z 22002KT 180V260 CAVOK 07/03 Q1022=
201909182100 METAR LRAR 182100Z 17002KT 140V250 CAVOK 07/03 Q1022=
201909182130 METAR LRAR 182130Z 24001KT CAVOK 08/05 Q1022=
201909182200 METAR LRAR 182200Z 00000KT CAVOK 08/05 Q1022=
201909182230 METAR LRAR 182230Z 18002KT 150V220 CAVOK 07/05 Q1022=
201909182300 METAR LRAR 182300Z 14002KT CAVOK 07/05 Q1022=
201909182330 METAR LRAR 182330Z 19003KT 160V220 CAVOK 06/05 Q1022=
201909190000 METAR LRAR 190000Z 15002KT 140V200 CAVOK 03/02 Q1022=
201909190030 METAR LRAR 190030Z VRB01KT CAVOK 06/05 Q1022=
201909190100 METAR LRAR 190100Z 24002KT CAVOK 05/04 Q1022=
201909190130 METAR LRAR 190130Z VRB01KT CAVOK 05/04 Q1022=
201909190200 METAR LRAR 190200Z 15001KT CAVOK 05/04 Q1022=
201909190230 METAR LRAR 190230Z 00000KT CAVOK 05/05 Q1022=
201909190300 METAR LRAR 190300Z 17002KT 130V200 CAVOK 04/04 Q1022=
201909190330 METAR LRAR 190330Z 21001KT CAVOK 04/04 Q1022=
201909190400 METAR LRAR 190400Z VRB01KT 9000 MIFG NSC 04/04 Q1022=
201909190430 METAR LRAR 190430Z 00000KT 8000 MIFG NSC 04/04 Q1023=
201909190500 METAR LRAR 190500Z 00000KT CAVOK 05/05 Q1023=
201909190530 METAR LRAR 190530Z VRB01KT CAVOK 06/06 Q1023=
201909190600 METAR LRAR 190600Z VRB02KT CAVOK 09/06 Q1023=
201909190630 METAR LRAR 190630Z VRB01KT CAVOK 11/05 Q1023=
201909190700 METAR LRAR 190700Z VRB02KT CAVOK 12/05 Q1024=
201909190730 METAR LRAR 190730Z 32004KT 270V010 CAVOK 13/05 Q1024=
201909190800 METAR LRAR 190800Z 34005KT 300V040 CAVOK 15/05 Q1024=
201909190830 METAR LRAR 190830Z 32006KT 290V010 CAVOK 16/03 Q1024=
201909190900 METAR LRAR 190900Z 33007KT 290V040 CAVOK 16/03 Q1024=
201909190930 METAR LRAR 190930Z 33008KT 300V360 9999 FEW033 17/02 Q1023=
201909191000 METAR LRAR 191000Z 33009KT 300V010 9999 SCT033 18/01 Q1023=
201909191030 METAR LRAR 191030Z 33009KT 300V360 9999 SCT035 18/M02 Q1023=
201909191100 METAR LRAR 191100Z 32009KT 9999 BKN036 18/M01 Q1023=
201909191130 METAR LRAR 191130Z 32008KT 290V360 9999 BKN036 18/M01 Q1023=
201909191200 METAR LRAR 191200Z 32008KT 290V360 9999 BKN036 19/M02 Q1023=
201909191230 METAR LRAR 191230Z 35007KT 290V030 9999 BKN040 19/M03 Q1022=
201909191300 METAR LRAR 191300Z 35008G19KT 320V030 9999 BKN040 19/M02
                        Q1022=
201909191330 METAR LRAR 191330Z 34009KT 310V030 9999 BKN040 19/M02 Q1022=
201909191400 METAR LRAR 191400Z 35006KT 290V020 9999 BKN042 19/M02 Q1022=
201909191430 METAR LRAR 191430Z 33010KT 9999 BKN044 18/M01 Q1022=
201909191500 METAR LRAR 191500Z 33010KT 9999 SCT045 18/M02 Q1022=
201909191530 METAR LRAR 191530Z 35006KT 9999 SCT046 17/M01 Q1022=
201909191600 METAR LRAR 191600Z 36005KT CAVOK 17/M01 Q1022=
201909191630 METAR LRAR 191630Z 33004KT CAVOK 15/01 Q1022=
201909191700 METAR LRAR 191700Z 33004KT CAVOK 13/01 Q1022=
201909191730 METAR LRAR 191730Z 31004KT CAVOK 12/02 Q1023=
201909191800 METAR LRAR 191800Z VRB01KT CAVOK 11/02 Q1023=
201909191830 METAR LRAR 191830Z 26002KT CAVOK 10/05 Q1023=
201909191900 METAR LRAR 191900Z 27003KT CAVOK 09/04 Q1023=
201909191930 METAR LRAR 191930Z VRB02KT CAVOK 09/03 Q1023=
201909192000 METAR LRAR 192000Z 27001KT CAVOK 08/04 Q1024=
201909192030 METAR LRAR 192030Z VRB01KT CAVOK 07/04 Q1024=
201909192100 METAR LRAR 192100Z VRB02KT CAVOK 07/03 Q1024=
201909192130 METAR LRAR 192130Z 28004KT CAVOK 07/03 Q1024=
201909192200 METAR LRAR 192200Z 28004KT CAVOK 06/03 Q1024=
201909192230 METAR LRAR 192230Z 29004KT CAVOK 06/02 Q1024=
201909192300 METAR LRAR 192300Z 28002KT CAVOK 06/02 Q1024=
201909192330 METAR LRAR 192330Z 29002KT CAVOK 05/03 Q1024=
201909200000 METAR LRAR 200000Z 29003KT CAVOK 05/03 Q1024=
201909200030 METAR LRAR 200030Z 27003KT CAVOK 05/03 Q1024=
201909200100 METAR LRAR 200100Z 28003KT CAVOK 04/03 Q1024=
201909200130 METAR LRAR 200130Z 32002KT CAVOK 04/04 Q1024=
201909200200 METAR LRAR 200200Z 33003KT CAVOK 03/02 Q1024=
201909200230 METAR LRAR 200230Z 32003KT CAVOK 03/02 Q1024=
201909200300 METAR LRAR 200300Z 35001KT CAVOK 03/03 Q1024=
201909200330 METAR LRAR 200330Z VRB02KT CAVOK 04/02 Q1024=
201909200400 METAR LRAR 200400Z VRB02KT CAVOK 04/03 Q1024=
201909200430 METAR LRAR 200430Z 03005KT 360V060 CAVOK 05/04 Q1025=
201909200500 METAR LRAR 200500Z 03005KT 350V050 CAVOK 06/04 Q1025=
201909200530 METAR LRAR 200530Z 03006KT 360V060 CAVOK 07/05 Q1025=
201909200600 METAR LRAR 200600Z 03008KT 340V050 CAVOK 08/05 Q1025=
201909200630 METAR LRAR 200630Z 03008KT CAVOK 10/05 Q1026=
201909200700 METAR LRAR 200700Z 03010KT CAVOK 11/05 Q1026=
201909200730 METAR LRAR 200730Z 05011KT CAVOK 13/05 Q1026=
201909200800 METAR LRAR 200800Z 05011KT 010V080 CAVOK 14/04 Q1026=
201909200830 METAR LRAR 200830Z 05010KT 020V080 CAVOK 14/04 Q1026=
201909200900 METAR LRAR 200900Z 03011KT CAVOK 15/02 Q1026=
201909200930 METAR LRAR 200930Z 01007KT 310V070 CAVOK 15/02 Q1026=
201909201000 METAR LRAR 201000Z 01009KT 330V050 CAVOK 15/01 Q1026=
201909201030 METAR LRAR 201030Z 36009G20KT 330V030 CAVOK 16/M00 Q1026=
201909201100 METAR LRAR 201100Z 02009KT 350V050 CAVOK 17/M00 Q1026=
201909201130 METAR LRAR 201130Z 03007KT 330V060 CAVOK 17/M00 Q1026=
201909201200 METAR LRAR 201200Z 03012KT CAVOK 17/M01 Q1025=
201909201230 METAR LRAR 201230Z 04010KT 350V070 CAVOK 18/M00 Q1025=
201909201300 METAR LRAR 201300Z 36009KT 330V070 CAVOK 18/00 Q1025=
201909201330 METAR LRAR 201330Z 03009KT 330V080 CAVOK 18/M01 Q1025=
201909201400 METAR LRAR 201400Z 03009KT 340V080 CAVOK 18/M01 Q1025=
201909201430 METAR LRAR 201430Z 03010KT 350V070 CAVOK 17/M01 Q1025=
201909201500 METAR LRAR 201500Z 02009KT 320V050 CAVOK 17/M02 Q1025=
201909201530 METAR LRAR 201530Z 02007KT 340V050 CAVOK 17/M02 Q1025=
201909201600 METAR LRAR 201600Z 02008KT CAVOK 16/M01 Q1025=
201909201630 METAR LRAR 201630Z 02006KT CAVOK 15/M00 Q1025=
201909201700 METAR LRAR 201700Z 02005KT CAVOK 13/00 Q1026=
201909201730 METAR LRAR 201730Z 02002KT CAVOK 12/00 Q1026=
201909201800 METAR LRAR 201800Z VRB01KT CAVOK 10/03 Q1026=
201909201830 METAR LRAR 201830Z VRB01KT CAVOK 09/03 Q1026=
201909201900 METAR LRAR 201900Z 00000KT CAVOK 09/03 Q1026=
201909201930 METAR LRAR 201930Z VRB02KT CAVOK 08/04 Q1027=
201909202000 METAR LRAR 202000Z VRB01KT CAVOK 07/03 Q1027=
201909202030 METAR LRAR 202030Z 26003KT CAVOK 06/04 Q1027=
201909202100 METAR LRAR 202100Z VRB02KT CAVOK 07/03 Q1027=
201909202130 METAR LRAR 202130Z 00000KT CAVOK 07/03 Q1027=
201909202200 METAR LRAR 202200Z 00000KT CAVOK 06/03 Q1027=
201909202230 METAR LRAR 202230Z VRB01KT CAVOK 06/03 Q1027=
201909202300 METAR LRAR 202300Z VRB01KT CAVOK 05/03 Q1027=
201909202330 METAR LRAR 202330Z 00000KT CAVOK 05/03 Q1027=
201909210000 METAR LRAR 210000Z VRB02KT CAVOK 06/04 Q1027=
201909210030 METAR LRAR 210030Z VRB01KT CAVOK 06/03 Q1027=
201909210100 METAR LRAR 210100Z VRB02KT CAVOK 05/03 Q1027=
201909210130 METAR LRAR 210130Z VRB02KT CAVOK 05/04 Q1027=
201909210200 METAR LRAR 210200Z VRB01KT CAVOK 05/03 Q1027=
201909210230 METAR LRAR 210230Z 00000KT CAVOK 03/03 Q1027=
201909210300 METAR LRAR 210300Z 16001KT CAVOK 04/03 Q1027=
201909210330 METAR LRAR 210330Z VRB01KT CAVOK 04/03 Q1027=
201909210400 METAR LRAR 210400Z 00000KT CAVOK 03/03 Q1027=
201909210430 METAR LRAR 210430Z 00000KT CAVOK 03/02 Q1027=
201909210500 METAR LRAR 210500Z 14003KT CAVOK 04/03 Q1027=
201909210530 METAR LRAR 210530Z 14004KT CAVOK 07/03 Q1027=
201909210600 METAR LRAR 210600Z 14004KT CAVOK 08/03 Q1027=
201909210630 METAR LRAR 210630Z 15003KT CAVOK 10/04 Q1028=
201909210700 METAR LRAR 210700Z 16002KT 120V270 CAVOK 13/04 Q1028=
201909210730 METAR LRAR 210730Z VRB02KT CAVOK 15/02 Q1028=
201909210800 METAR LRAR 210800Z VRB02KT CAVOK 16/02 Q1028=
201909210830 METAR LRAR 210830Z VRB03KT CAVOK 17/01 Q1028=
201909210900 METAR LRAR 210900Z VRB03KT CAVOK 17/01 Q1028=
201909210930 METAR LRAR 210930Z VRB02KT CAVOK 18/01 Q1028=
201909211000 METAR LRAR 211000Z VRB02KT CAVOK 18/01 Q1028=
201909211030 METAR LRAR 211030Z 30005KT 240V010 CAVOK 18/01 Q1027=
201909211100 METAR LRAR 211100Z 23005KT 190V280 CAVOK 18/00 Q1027=
201909211130 METAR LRAR 211130Z VRB04KT CAVOK 19/01 Q1027=
201909211200 METAR LRAR 211200Z VRB04KT CAVOK 19/M00 Q1026=
201909211230 METAR LRAR 211230Z 11004KT 080V140 CAVOK 19/00 Q1026=
201909211300 METAR LRAR 211300Z VRB03KT CAVOK 20/00 Q1026=
201909211330 METAR LRAR 211330Z 26004KT 200V320 CAVOK 19/M00 Q1026=
201909211400 METAR LRAR 211400Z 17002KT 070V240 CAVOK 20/M00 Q1025=
201909211430 METAR LRAR 211430Z 34002KT 260V070 CAVOK 20/01 Q1025=
201909211500 METAR LRAR 211500Z VRB02KT CAVOK 20/M00 Q1025=
201909211530 METAR LRAR 211530Z 26003KT 220V290 CAVOK 19/M00 Q1025=
201909211600 METAR LRAR 211600Z 26003KT CAVOK 18/01 Q1025=
201909211630 METAR LRAR 211630Z 25001KT CAVOK 16/04 Q1025=
201909211700 METAR LRAR 211700Z 24001KT CAVOK 14/04 Q1025=
201909211730 METAR LRAR 211730Z 23001KT CAVOK 12/04 Q1025=
201909211800 METAR LRAR 211800Z 00000KT CAVOK 11/04 Q1025=
201909211830 METAR LRAR 211830Z 00000KT CAVOK 11/05 Q1025=
201909211900 METAR LRAR 211900Z VRB02KT CAVOK 11/04 Q1025=
201909211930 METAR LRAR 211930Z 12001KT CAVOK 10/04 Q1025=
201909212000 METAR LRAR 212000Z 00000KT CAVOK 10/04 Q1024=
201909212030 METAR LRAR 212030Z 00000KT CAVOK 09/04 Q1024=
201909212100 METAR LRAR 212100Z 16001KT CAVOK 08/05 Q1024=
201909212130 METAR LRAR 212130Z 14003KT CAVOK 09/05 Q1024=
201909212200 METAR LRAR 212200Z 14002KT CAVOK 08/04 Q1024=
201909212230 METAR LRAR 212230Z 14003KT CAVOK 09/03 Q1024=
201909212300 METAR LRAR 212300Z 13003KT CAVOK 09/04 Q1024=
201909212330 METAR LRAR 212330Z 13004KT CAVOK 08/04 Q1024=
201909220000 METAR LRAR 220000Z 13004KT CAVOK 08/04 Q1023=
201909220030 METAR LRAR 220030Z 13004KT CAVOK 08/04 Q1023=
201909220100 METAR LRAR 220100Z 14004KT CAVOK 08/03 Q1023=
201909220130 METAR LRAR 220130Z 14006KT CAVOK 08/03 Q1023=
201909220200 METAR LRAR 220200Z 13004KT CAVOK 07/03 Q1023=
201909220230 METAR LRAR 220230Z 13004KT CAVOK 07/03 Q1023=
201909220300 METAR LRAR 220300Z 12004KT CAVOK 07/03 Q1022=
201909220330 METAR LRAR 220330Z 13008KT CAVOK 08/03 Q1022=
201909220400 METAR LRAR 220400Z 13008KT CAVOK 08/03 Q1022=
201909220430 METAR LRAR 220430Z 12007KT CAVOK 08/03 Q1022=
201909220500 METAR LRAR 220500Z 12006KT CAVOK 09/04 Q1022=
201909220530 METAR LRAR 220530Z 13007KT CAVOK 10/04 Q1022=
201909220600 METAR LRAR 220600Z 13007KT CAVOK 10/04 Q1022=
201909220630 METAR LRAR 220630Z 12007KT CAVOK 14/03 Q1022=
201909220700 METAR LRAR 220700Z 13007KT CAVOK 16/03 Q1022=
201909220730 METAR LRAR 220730Z 14008KT CAVOK 17/02 Q1022=
201909220800 METAR LRAR 220800Z 14006KT CAVOK 18/02 Q1022=
201909220830 METAR LRAR 220830Z 14007KT 110V180 CAVOK 19/01 Q1022=
201909220900 METAR LRAR 220900Z 17007KT 140V200 CAVOK 20/00 Q1021=
201909220930 METAR LRAR 220930Z 15007KT 130V200 CAVOK 21/00 Q1021=
201909221000 METAR LRAR 221000Z 19007KT 140V220 CAVOK 21/M01 Q1020=
201909221030 METAR LRAR 221030Z 17007KT 140V260 CAVOK 22/M02 Q1020=
201909221100 METAR LRAR 221100Z 15007KT CAVOK 22/M02 Q1019=
201909221130 METAR LRAR 221130Z 15006KT 110V200 CAVOK 23/M02 Q1019=
201909221200 METAR LRAR 221200Z 17010KT CAVOK 23/M03 Q1019=
201909221230 METAR LRAR 221230Z 21008KT CAVOK 24/M01 Q1018=
201909221300 METAR LRAR 221300Z 21009KT CAVOK 24/M01 Q1018=
201909221330 METAR LRAR 221330Z 19007KT CAVOK 24/M01 Q1017=
201909221400 METAR LRAR 221400Z 19005KT 140V250 CAVOK 24/M00 Q1017=
201909221430 METAR LRAR 221430Z 19005KT 140V220 CAVOK 24/00 Q1016=
201909221500 METAR LRAR 221500Z 16004KT 120V200 CAVOK 23/00 Q1016=
201909221530 METAR LRAR 221530Z 17003KT CAVOK 23/M00 Q1016=
201909221600 METAR LRAR 221600Z 14002KT 110V190 CAVOK 20/04 Q1016=
201909221630 METAR LRAR 221630Z 00000KT CAVOK 18/05 Q1016=
201909221700 METAR LRAR 221700Z 00000KT CAVOK 16/06 Q1016=
201909221730 METAR LRAR 221730Z 00000KT CAVOK 15/06 Q1016=
201909221800 METAR LRAR 221800Z 12003KT CAVOK 15/06 Q1016=
201909221830 METAR LRAR 221830Z 13002KT 8000 NSC 16/06 Q1016=
201909221900 METAR LRAR 221900Z 15003KT CAVOK 15/05 Q1016=
201909221930 METAR LRAR 221930Z 14003KT CAVOK 15/04 Q1016=
201909222000 METAR LRAR 222000Z 13005KT CAVOK 14/04 Q1016=
201909222030 METAR LRAR 222030Z 14006KT CAVOK 14/05 Q1016=
201909222100 METAR LRAR 222100Z 14007KT CAVOK 14/04 Q1016=
201909222130 METAR LRAR 222130Z 14006KT CAVOK 15/05 Q1015=
201909222200 METAR LRAR 222200Z 15007KT CAVOK 14/04 Q1015=
201909222230 METAR LRAR 222230Z 14007KT CAVOK 14/04 Q1015=
201909222300 METAR LRAR 222300Z 14007KT CAVOK 14/04 Q1015=
201909222330 METAR LRAR 222330Z 14007KT CAVOK 14/04 Q1015=
201909230000 METAR LRAR 230000Z 14007KT CAVOK 14/05 Q1015=
201909230030 METAR LRAR 230030Z 14007KT 9999 FEW045CB 14/07 Q1015=
201909230100 METAR LRAR 230100Z 14007KT 9999 -SHRA FEW012 SCT045CB 15/07
                        Q1015=
201909230130 METAR LRAR 230130Z 14006KT 9999 FEW045CB 15/06 Q1015=
201909230200 METAR LRAR 230200Z 13006KT 9999 -SHRA FEW013 SCT045CB 15/07
                        Q1015=
201909230230 METAR LRAR 230230Z 12005KT 9999 FEW045CB 15/07 Q1015=
201909230300 METAR LRAR 230300Z 13007KT 9999 -SHRA FEW013 SCT045CB 15/07
                        Q1014=
201909230330 METAR LRAR 230330Z 13005KT 9999 SCT045 15/07 Q1014=
201909230400 METAR LRAR 230400Z 13008KT 9999 FEW045CB 15/06 Q1014=
201909230430 METAR LRAR 230430Z 15007KT 9999 FEW045CB 15/07 Q1014=
201909230500 METAR LRAR 230500Z 17006KT 9999 -SHRA FEW010 FEW045CB 15/08
                        Q1015=
201909230530 METAR LRAR 230530Z 20004KT 9999 -SHRA FEW010 BKN015 FEW045CB
                        14/09 Q1015=
201909230600 METAR LRAR 230600Z 13005KT 9999 FEW009 SCT015 FEW047CB 14/11
                        Q1015 R09/19//95=
201909230630 METAR LRAR 230630Z 11004KT 9999 -SHRA SCT016 BKN025 FEW050CB
                        14/12 Q1015 R09/19//95=
201909230700 METAR LRAR 230700Z 11004KT 9999 -SHRA SCT016 BKN025 FEW050CB
                        14/12 Q1015 R09/19//95=
201909230730 METAR LRAR 230730Z 12007KT 9999 -RA SCT017 BKN026 15/12 Q1015
                        R09/19//95=
201909230800 METAR LRAR 230800Z 12006KT 9999 -RA SCT018 BKN028 15/12 Q1015
                        R09/19//95=
201909230830 METAR LRAR 230830Z 12006KT 9999 SCT018 BKN030 15/12 Q1015
                        R09/19//95=
201909230900 METAR LRAR 230900Z 12006KT 9999 -RA FEW022 SCT030 16/12 Q1015
                        R09/19//95=
201909230930 METAR LRAR 230930Z 14007KT 9999 SCT033 17/12 Q1014 R09/19//95=
201909231000 METAR LRAR 231000Z 13008KT 9999 SCT034 19/12 Q1014 R09/19//95=
201909231030 METAR LRAR 231030Z 12008KT 9999 SCT037 20/11 Q1014 R09/19//95=
201909231100 METAR LRAR 231100Z 12007KT 9999 FEW040 21/11 Q1013 R09/19//95=
201909231130 METAR LRAR 231130Z 11006KT CAVOK 21/11 Q1013 R09/19//95=
201909231200 METAR LRAR 231200Z 14004KT 100V220 CAVOK 21/11 Q1013 R09/19//95=
201909231230 METAR LRAR 231230Z 15005KT 120V200 CAVOK 21/10 Q1013 R09/19//95=
201909231300 METAR LRAR 231300Z 10005KT 060V130 9999 FEW020 21/10 Q1013
                        R09/CLRD//=
201909231330 METAR LRAR 231330Z 12005KT 9999 FEW023 21/10 Q1013=
201909231400 METAR LRAR 231400Z 13005KT 100V170 9999 SCT025 21/11 Q1013=
201909231430 METAR LRAR 231430Z 10004KT 060V140 9999 SCT026 21/10 Q1012=
201909231500 METAR LRAR 231500Z 09003KT 9999 SCT028 21/10 Q1012=
201909231530 METAR LRAR 231530Z 11004KT 9999 FEW036 21/10 Q1012=
201909231600 METAR LRAR 231600Z 09002KT 9999 FEW045 20/10 Q1012=
201909231630 METAR LRAR 231630Z 00000KT CAVOK 20/12 Q1012=
201909231700 METAR LRAR 231700Z 25001KT CAVOK 18/13 Q1012=
201909231730 METAR LRAR 231730Z 30002KT CAVOK 18/12 Q1012=
201909231800 METAR LRAR 231800Z 25002KT CAVOK 17/12 Q1012=
201909231830 METAR LRAR 231830Z VRB02KT CAVOK 17/13 Q1012=
201909231900 METAR LRAR 231900Z 04006KT 010V070 CAVOK 18/10 Q1012=
201909231930 METAR LRAR 231930Z 06006KT 020V080 CAVOK 17/09 Q1012=
201909232000 METAR LRAR 232000Z 04005KT CAVOK 17/09 Q1012=
201909232030 METAR LRAR 232030Z 06003KT 020V080 CAVOK 17/09 Q1012=
201909232100 METAR LRAR 232100Z 05002KT CAVOK 16/09 Q1012=
201909232130 METAR LRAR 232130Z 04004KT CAVOK 16/09 Q1012=
201909232200 METAR LRAR 232200Z 04003KT 010V070 CAVOK 16/09 Q1012=
201909232230 METAR LRAR 232230Z 03004KT CAVOK 15/09 Q1011=
201909232300 METAR LRAR 232300Z VRB01KT CAVOK 15/10 Q1011=
201909232330 METAR LRAR 232330Z 03002KT CAVOK 15/10 Q1011=
201909240000 METAR LRAR 240000Z 00000KT CAVOK 14/10 Q1011=
201909240030 METAR LRAR 240030Z VRB01KT CAVOK 14/10 Q1011=
201909240100 METAR LRAR 240100Z VRB01KT CAVOK 14/10 Q1011=
201909240130 METAR LRAR 240130Z 01002KT CAVOK 14/10 Q1011=
201909240200 METAR LRAR 240200Z 36003KT CAVOK 14/10 Q1010=
201909240230 METAR LRAR 240230Z VRB02KT CAVOK 14/10 Q1010=
201909240300 METAR LRAR 240300Z 03001KT CAVOK 14/10 Q1010=
201909240330 METAR LRAR 240330Z 00000KT CAVOK 14/10 Q1011=
201909240400 METAR LRAR 240400Z 33002KT CAVOK 14/11 Q1011=
201909240430 METAR LRAR 240430Z 28002KT CAVOK 14/10 Q1011=
201909240500 METAR LRAR 240500Z 28002KT CAVOK 14/11 Q1011=
201909240530 METAR LRAR 240530Z VRB01KT CAVOK 14/11 Q1011=
201909240600 METAR LRAR 240600Z 00000KT CAVOK 15/11 Q1011=
201909240630 METAR LRAR 240630Z 14001KT CAVOK 15/11 Q1011=
201909240700 METAR LRAR 240700Z VRB01KT CAVOK 16/12 Q1012=
201909240730 METAR LRAR 240730Z VRB02KT 9999 SCT046 18/12 Q1012=
201909240800 METAR LRAR 240800Z 19003KT 150V240 9999 SCT045 18/12 Q1012=
201909240830 METAR LRAR 240830Z VRB02KT 9999 FEW047 19/12 Q1012=
201909240900 METAR LRAR 240900Z 25003KT 190V320 9999 FEW048 20/12 Q1012=
201909240930 METAR LRAR 240930Z VRB02KT 9999 FEW049 21/12 Q1012=
201909241000 METAR LRAR 241000Z VRB04KT 9999 FEW047 22/13 Q1012=
201909241030 METAR LRAR 241030Z 31005KT 250V020 9999 FEW045 22/12 Q1012=
201909241100 METAR LRAR 241100Z 26005KT 210V310 9999 FEW040 21/12 Q1011=
201909241130 METAR LRAR 241130Z 25005KT 200V290 9999 FEW043 21/12 Q1012=
201909241200 METAR LRAR 241200Z 24005KT 220V280 9999 FEW045 20/12 Q1012=
201909241230 METAR LRAR 241230Z 26006KT CAVOK 20/11 Q1012=
201909241300 METAR LRAR 241300Z 26007KT CAVOK 20/12 Q1012=
201909241330 METAR LRAR 241330Z 26007KT CAVOK 19/12 Q1012=
201909241400 METAR LRAR 241400Z 24006KT CAVOK 19/12 Q1012=
201909241430 METAR LRAR 241430Z 27005KT CAVOK 19/12 Q1012=
201909241500 METAR LRAR 241500Z 27005KT CAVOK 19/12 Q1012=
201909241530 METAR LRAR 241530Z 24003KT CAVOK 19/12 Q1012=
201909241600 METAR LRAR 241600Z 26004KT CAVOK 19/12 Q1011=
201909241630 METAR LRAR 241630Z 29004KT CAVOK 18/13 Q1012=
201909241700 METAR LRAR 241700Z VRB02KT CAVOK 18/13 Q1012=
201909241730 METAR LRAR 241730Z 00000KT CAVOK 18/13 Q1012=
201909241800 METAR LRAR 241800Z VRB01KT CAVOK 17/13 Q1012=
201909241830 METAR LRAR 241830Z 00000KT CAVOK 17/14 Q1012=
201909241900 METAR LRAR 241900Z 22003KT CAVOK 17/14 Q1012=
201909241930 METAR LRAR 241930Z 22003KT CAVOK 17/14 Q1012=
201909242000 METAR LRAR 242000Z 22004KT 9999 FEW044 17/14 Q1013=
201909242030 METAR LRAR 242030Z 24004KT 9999 SCT044 17/13 Q1013=
201909242100 METAR LRAR 242100Z 22003KT 9999 BKN045 17/13 Q1013=
201909242130 METAR LRAR 242130Z VRB02KT 9999 BKN045 16/13 Q1012=
201909242200 METAR LRAR 242200Z VRB02KT 9999 SCT048 16/13 Q1012=
201909242230 METAR LRAR 242230Z VRB02KT 9999 SCT048 16/14 Q1012=
201909242300 METAR LRAR 242300Z VRB02KT 9999 SCT049 16/14 Q1012=
201909242330 METAR LRAR 242330Z 15003KT 9999 BKN049 16/14 Q1012=
201909250000 METAR LRAR 250000Z VRB02KT 9999 BKN047 16/14 Q1012=
201909250030 METAR LRAR 250030Z VRB01KT 9999 BKN048 16/13 Q1012=
201909250100 METAR LRAR 250100Z 13003KT 7000 SCT048 16/14 Q1012=
201909250130 METAR LRAR 250130Z VRB02KT 9000 SCT049 16/14 Q1012=
201909250200 METAR LRAR 250200Z VRB01KT 9999 BKN049 16/14 Q1012=
201909250230 METAR LRAR 250230Z VRB01KT 9999 BKN048 16/14 Q1012=
201909250300 METAR LRAR 250300Z VRB02KT 9999 SCT008 BKN047 16/14 Q1012=
201909250330 METAR LRAR 250330Z VRB02KT 7000 SCT005 BN008 BKN046 16/15
                        Q1012=
201909250400 METAR LRAR 250400Z 00000KT 5000 BR OVC005 15/15 Q1012=
201909250430 METAR LRAR 250430Z 15003KT 3000 BR BKN004 OVC033 15/15 Q1012=
201909250500 METAR LRAR 250500Z 18002KT 150V220 3000 BR BKN004 OVC035
                        15/15 Q1012=
201909250530 METAR LRAR 250530Z 16002KT 130V230 3100 BR BKN004 OVC040
                        15/15 Q1012=
201909250600 METAR LRAR 250600Z 17004KT 150V210 3200 BR SCT005 OVC035
                        15/15 Q1012=
201909250630 METAR LRAR 250630Z 15004KT 3300 BR SCT005 OVC035 16/15 Q1012=
201909250700 METAR LRAR 250700Z 14006KT 4000 BR OVC037 16/15 Q1012=
201909250730 METAR LRAR 250730Z 16006KT 6000 BKN038 16/15 Q1012=
201909250800 METAR LRAR 250800Z 17007KT 8000 BKN038 17/15 Q1012=
201909250830 METAR LRAR 250830Z 19009KT 160V230 9999 FEW017 SCT040 18/14
                        Q1012=
201909250900 METAR LRAR 250900Z 21008KT 9000 SCT035 BKN040 18/14 Q1012=
201909250930 METAR LRAR 250930Z 22010KT 9999 BKN033 18/14 Q1012=
201909251000 METAR LRAR 251000Z 21010KT 180V240 9999 SCT022 OVC040 18/14
                        Q1012=
201909251030 METAR LRAR 251030Z 21010KT 9999 SCT021 OVC030 18/14 Q1012=
201909251100 METAR LRAR 251100Z 20009KT 170V230 9999 SCT021 OVC030 19/14
                        Q1012=
201909251130 METAR LRAR 251130Z 21010KT 190V250 9999 SCT023 OVC030 19/14
                        Q1012=
201909251200 METAR LRAR 251200Z 20008KT 160V220 9999 FEW023 SCT028 OVC041
                        19/14 Q1011=
201909251230 METAR LRAR 251230Z 20008KT 170V230 9999 SCT025 OVC033 20/14
                        Q1011=
201909251300 METAR LRAR 251300Z 20007KT 160V230 9999 FEW026 OVC044 20/14
                        Q1011=
201909251330 METAR LRAR 251330Z 20008KT 150V230 9999 SCT030 20/14 Q1011=
201909251400 METAR LRAR 251400Z 20009KT 170V230 9999 FEW027 SCT035 20/14
                        Q1011=
201909251430 METAR LRAR 251430Z 21009KT 9999 SCT027 20/14 Q1011=
201909251500 METAR LRAR 251500Z 21007KT 9999 SCT027 19/14 Q1011=
201909251530 METAR LRAR 251530Z 22007KT 9999 SCT040 19/14 Q1011=
201909251600 METAR LRAR 251600Z 21004KT 180V240 9999 SCT042 19/14 Q1011=
201909251630 METAR LRAR 251630Z 19004KT 9999 SCT043 19/14 Q1011=
201909251700 METAR LRAR 251700Z 18005KT 9999 SCT044 18/14 Q1011=
201909251730 METAR LRAR 251730Z 18006KT 9999 BKN045 19/14 Q1011=
201909251800 METAR LRAR 251800Z 17004KT 9999 SCT048 18/14 Q1011=
201909251830 METAR LRAR 251830Z 16004KT 9999 FEW048 18/14 Q1011=
201909251900 METAR LRAR 251900Z 15005KT CAVOK 17/14 Q1011=
201909251930 METAR LRAR 251930Z 14005KT CAVOK 16/14 Q1011=
201909252000 METAR LRAR 252000Z 15004KT CAVOK 17/14 Q1011=
201909252030 METAR LRAR 252030Z 14004KT CAVOK 16/14 Q1011=
201909252100 METAR LRAR 252100Z 15005KT 9999 -RA FEW045 16/14 Q1011=
201909252130 METAR LRAR 252130Z 14004KT 9999 -RA SCT040 16/15 Q1011=
201909252200 METAR LRAR 252200Z 15004KT 9999 FEW043 15/15 Q1011=
201909252230 METAR LRAR 252230Z VRB02KT 9999 FEW045 15/15 Q1011=
201909252300 METAR LRAR 252300Z 12001KT 9999 -RA FEW047 15/15 Q1011=
201909252330 METAR LRAR 252330Z 12003KT 9999 FEW049 15/15 Q1011=
201909260000 METAR LRAR 260000Z 13002KT CAVOK 15/15 Q1011=
201909260030 METAR LRAR 260030Z 16002KT CAVOK 15/15 Q1011=
201909260100 METAR LRAR 260100Z 14003KT 9999 SCT025 15/15 Q1011=
201909260130 METAR LRAR 260130Z 15004KT 9999 BKN032 15/15 Q1011=
201909260200 METAR LRAR 260200Z VRB02KT 9999 BKN033 15/15 Q1011=
201909260230 METAR LRAR 260230Z 13002KT 9999 BKN035 15/15 Q1011=
201909260300 METAR LRAR 260300Z 15003KT 9999 SCT042 15/15 Q1011=
201909260330 METAR LRAR 260330Z 15002KT 9999 SCT045 15/15 Q1010=
201909260400 METAR LRAR 260400Z 13003KT 9999 FEW045 15/15 Q1011=
201909260430 METAR LRAR 260430Z VRB02KT 9999 SCT028 BKN036 15/15 Q1011=
201909260500 METAR LRAR 260500Z 27002KT 9999 BKN030 15/15 Q1011=
201909260530 METAR LRAR 260530Z 00000KT 9999 BKN028 15/15 Q1011=
201909260600 METAR LRAR 260600Z 9999 BKN030 15/15 Q1011=
201909260630 METAR COR LRAR 260630Z VRB01KT 8000 -RA OVC027 15/15 Q1011
                        R09/19//95=
201909260700 METAR LRAR 260700Z VRB02KT 7000 -RA OVC030 15/15 Q1011 R09/29//95=
201909260730 METAR LRAR 260730Z 13001KT 2500 RA BR SCT012 OVC030 15/15
                        Q1012=
201909260800 METAR LRAR 260800Z VRB01KT 2500 RA BR SCT009 BKN018 OVC030
                        15/15 Q1012 R09/29//95=
201909260830 METAR LRAR 260830Z 29003KT 2500 RA BR FEW002 SCT007 OVC030
                        15/15 Q1012 R09/29//95=
201909260900 METAR LRAR 260900Z 29004KT 2500 RA BR FEW002 BKN006 OVC025
                        15/15 Q1012 R09/29//95=
201909260930 METAR LRAR 260930Z 29004KT 3000 RA BR FEW002 BKN004 OVC025
                        15/15 Q1012 R09/29//95=
201909261000 METAR LRAR 261000Z 31004KT 3000 RA BR SCT005 BKN007 OVC030
                        15/15 Q1012 R09/29//95=
201909261030 METAR LRAR 261030Z 33006KT 3500 RA BR SCT004 BKN006 OVC030
                        15/15 Q1012 R09/29//95=
201909261100 METAR LRAR 261100Z 36004KT 330V030 6000 -RA FEW004 SCT007
                        BKN009 15/15 Q1012 R09/29//95=
201909261130 METAR LRAR 261130Z 36007KT 330V030 8000 -RA FEW005 SCT007
                        BKN009 16/16 Q1012 RERA R09/29//95=
201909261200 METAR LRAR 261200Z 34006KT 320V020 9999 SCT008 BKN020 16/16
                        Q1012 R09/29//95=
201909261230 METAR LRAR 261230Z 34006KT 9999 -SHRA FEW009 FEW040CB 16/16
                        Q1013 R09/29//95=
201909261300 METAR LRAR 261300Z 33005KT 9999 -SHRA SCT008 FEW040CB 16/16
                        Q1013 R09/29//95=
201909261330 METAR LRAR 261330Z 33008KT 9999 SCT009 BKN017 FEW040CB 16/16
                        Q1013 R09/29//95=
201909261400 METAR LRAR 261400Z 32008KT 9999 FEW008 SCT016 FEW040CB 16/15
                        Q1013 R09/29//95=
201909261430 METAR LRAR 261430Z 34005KT 310V010 9999 FEW013 FEW045CB 16/15
                        Q1013 R09/29//95=
201909261500 METAR LRAR 261500Z 31006KT 9999 FEW015 FEW045CB 17/15 Q1014
                        R09/29//95=
201909261530 METAR LRAR 261530Z 29006KT 9999 FEW020 FEW045CB 17/15 Q1014
                        R09/29//95=
201909261600 METAR LRAR 261600Z 29004KT 9999 FEW015 FEW045CB 17/15 Q1014
                        R09/29//95=
201909261630 METAR LRAR 261630Z 25003KT 9999 FEW045CB 15/14 Q1014 R09/29//95=
201909261700 METAR LRAR 261700Z 21003KT 9999 FEW045CB 14/14 Q1014 R09/CLRD//=
201909261730 METAR LRAR 261730Z 20003KT CAVOK 13/13 Q1014=
201909261800 METAR LRAR 261800Z 20003KT CAVOK 13/13 Q1014=
201909261830 METAR LRAR 261830Z 21003KT CAVOK 13/13 Q1014=
201909261900 METAR LRAR 261900Z 21003KT CAVOK 13/13 Q1015=
201909261930 METAR LRAR 261930Z 21003KT CAVOK 13/13 Q1015=
201909262000 METAR LRAR 262000Z 21004KT CAVOK 13/13 Q1015=
201909262030 METAR LRAR 262030Z 23004KT CAVOK 13/13 Q1015=
201909262100 METAR LRAR 262100Z 23004KT CAVOK 13/13 Q1015=
201909262130 METAR LRAR 262130Z 24003KT CAVOK 12/12 Q1015=
201909262200 METAR LRAR 262200Z 24005KT CAVOK 12/12 Q1015=
201909262230 METAR LRAR 262230Z 27006KT CAVOK 12/12 Q1015=
201909262300 METAR LRAR 262300Z 27005KT CAVOK 11/11 Q1016=
201909262330 METAR LRAR 262330Z 27004KT CAVOK 11/11 Q1015=
201909270000 METAR LRAR 270000Z 27004KT CAVOK 10/10 Q1015=
201909270030 METAR LRAR 270030Z 27002KT CAVOK 10/10 Q1016=
201909270100 METAR LRAR 270100Z VRB01KT CAVOK 11/11 Q1016=
201909270130 METAR LRAR 270130Z 19001KT CAVOK 10/10 Q1016=
201909270200 METAR LRAR 270200Z 20003KT 160V230 CAVOK 09/09 Q1016=
201909270230 METAR LRAR 270230Z 19002KT 8000 NSC 09/09 Q1016=
201909270300 METAR LRAR 270300Z 23002KT 7000 MIFG NSC 08/08 Q1016=
201909270330 METAR LRAR 270330Z 20003KT 8000 MIFG NSC 09/09 Q1017=
201909270400 METAR LRAR 270400Z VRB02KT 6000 MIFG NSC 09/09 Q1017=
201909270430 METAR LRAR 270430Z VRB02KT 5000 MIFG BR NSC 09/09 Q1017=
201909270500 METAR LRAR 270500Z VRB02KT 5000 MIFG BR NSC 09/09 Q1017=
201909270530 METAR LRAR 270530Z VRB02KT 8000 NSC 10/10 Q1017=
201909270600 METAR LRAR 270600Z 17003KT CAVOK 11/10 Q1017=
201909270630 METAR LRAR 270630Z 17002KT 130V220 9999 FEW020 12/12 Q1018=
201909270700 METAR LRAR 270700Z 21003KT 160V240 9999 SCT022 13/12 Q1018=
201909270730 METAR LRAR 270730Z 13003KT 080V160 9999 SCT024 15/13 Q1018=
201909270800 METAR LRAR 270800Z VRB03KT 9999 SCT024 15/14 Q1018=
201909270830 METAR LRAR 270830Z 22004KT 140V250 9999 FEW025 16/14 Q1019=
201909270900 METAR LRAR 270900Z VRB03KT 9999 SCT026 17/14 Q1019=
201909270930 METAR LRAR 270930Z 15005KT 110V230 9999 SCT026 17/14 Q1019=
201909271000 METAR LRAR 271000Z 21005KT 160V250 9999 SCT026 18/14 Q1019=
201909271030 METAR LRAR 271030Z 20004KT 120V280 9999 SCT027 19/14 Q1018=
201909271100 METAR LRAR 271100Z VRB03KT 9999 BKN030 20/14 Q1018=
201909271130 METAR LRAR 271130Z VRB03KT 9999 BKN033 20/13 Q1018=
201909271200 METAR LRAR 271200Z 17003KT 110V270 9999 BKN033 21/13 Q1017=
201909271230 METAR LRAR 271230Z VRB03KT 9999 BKN034 21/13 Q1017=
201909271300 METAR LRAR 271300Z VRB03KT 9999 BKN035 22/12 Q1017=
201909271330 METAR LRAR 271330Z 21004KT 160V280 9999 BKN035 22/12 Q1017=
201909271400 METAR LRAR 271400Z 17003KT 110V240 9999 BKN035 22/12 Q1017=
201909271430 METAR LRAR 271430Z 16003KT 110V220 9999 BKN038 22/12 Q1017=
201909271500 METAR LRAR 271500Z VRB03KT 9999 SCT040 22/12 Q1017=
201909271530 METAR LRAR 271530Z 15004KT 9999 FEW045 21/13 Q1017=
201909271600 METAR LRAR 271600Z 14003KT CAVOK 20/14 Q1017=
201909271630 METAR LRAR 271630Z 15003KT CAVOK 18/13 Q1017=
201909271700 METAR LRAR 271700Z 13003KT CAVOK 17/14 Q1017=
201909271730 METAR LRAR 271730Z 14004KT CAVOK 16/14 Q1017=
201909271800 METAR LRAR 271800Z 14003KT CAVOK 16/13 Q1017=
201909271830 METAR LRAR 271830Z 15005KT CAVOK 16/13 Q1017=
201909271900 METAR LRAR 271900Z 16005KT CAVOK 15/13 Q1017=
201909271930 METAR LRAR 271930Z 14005KT CAVOK 15/13 Q1018=
201909272000 METAR LRAR 272000Z 14006KT CAVOK 14/13 Q1018=
201909272030 METAR LRAR 272030Z 13006KT CAVOK 14/13 Q1018=
201909272100 METAR LRAR 272100Z 14007KT CAVOK 14/13 Q1018=
201909272130 METAR LRAR 272130Z 14008KT CAVOK 13/13 Q1018=
201909272200 METAR LRAR 272200Z 13007KT CAVOK 13/13 Q1018=
201909272230 METAR LRAR 272230Z 14008KT CAVOK 13/13 Q1017=
201909272300 METAR LRAR 272300Z 15006KT CAVOK 14/13 Q1017=
201909272330 METAR LRAR 272330Z 15007KT CAVOK 13/12 Q1018=
201909280000 METAR LRAR 280000Z 14008KT CAVOK 13/13 Q1018=
201909280030 METAR LRAR 280030Z 13008KT CAVOK 13/12 Q1017=
201909280100 METAR LRAR 280100Z 14008KT CAVOK 13/12 Q1017=
201909280130 METAR LRAR 280130Z 14010KT CAVOK 13/12 Q1017=
201909280200 METAR LRAR 280200Z 13009KT CAVOK 14/12 Q1017=
201909280230 METAR LRAR 280230Z 13008KT CAVOK 14/12 Q1017=
201909280300 METAR LRAR 280300Z 14008KT CAVOK 14/12 Q1017=
201909280330 METAR LRAR 280330Z 14006KT CAVOK 13/12 Q1017=
201909280400 METAR LRAR 280400Z 15007KT CAVOK 13/12 Q1017=
201909280430 METAR LRAR 280430Z 15007KT CAVOK 13/12 Q1017=
201909280500 METAR LRAR 280500Z 14008KT CAVOK 13/12 Q1017=
201909280530 METAR LRAR 280530Z 14008KT CAVOK 13/12 Q1017=
201909280600 METAR LRAR 280600Z 14008KT CAVOK 14/12 Q1017=
201909280630 METAR LRAR 280630Z 14008KT CAVOK 15/12 Q1017=
201909280700 METAR LRAR 280700Z 14010KT CAVOK 17/12 Q1017=
201909280730 METAR LRAR 280730Z 15009KT CAVOK 19/13 Q1017=
201909280800 METAR LRAR 280800Z 16009KT CAVOK 19/12 Q1017=
201909280830 METAR LRAR 280830Z 16007KT CAVOK 20/12 Q1017=
201909280900 METAR LRAR 280900Z 19009KT 150V220 CAVOK 21/11 Q1017=
201909280930 METAR LRAR 280930Z 18011KT 150V210 CAVOK 22/11 Q1017=
201909281000 METAR LRAR 281000Z 19010KT 160V220 CAVOK 22/11 Q1017=
201909281030 METAR LRAR 281030Z 18010KT CAVOK 22/12 Q1017=
201909281100 METAR LRAR 281100Z 18009KT CAVOK 22/12 Q1016=
201909281130 METAR LRAR 281130Z 17009KT 130V200 CAVOK 22/12 Q1016=
201909281200 METAR LRAR 281200Z 21009KT 180V250 CAVOK 23/12 Q1016=
201909281230 METAR LRAR 281230Z 22007KT CAVOK 22/12 Q1016=
201909281300 METAR LRAR 281300Z 23005KT CAVOK 22/13 Q1016=
201909281330 METAR LRAR 281330Z 23006KT CAVOK 23/13 Q1016=
201909281400 METAR LRAR 281400Z 25006KT CAVOK 23/14 Q1016=
201909281430 METAR LRAR 281430Z 27007KT CAVOK 22/13 Q1016=
201909281500 METAR LRAR 281500Z 27005KT CAVOK 22/14 Q1016=
201909281530 METAR LRAR 281530Z 27004KT CAVOK 21/14 Q1016=
201909281600 METAR LRAR 281600Z 28003KT 9999 BKN049 21/15 Q1016=
201909281630 METAR LRAR 281630Z 32004KT 9999 FEW030 BKN048 19/15 Q1016=
201909281700 METAR LRAR 281700Z 33005KT 9999 FEW032 BKN047 19/15 Q1016=
201909281730 METAR LRAR 281730Z 33003KT 9999 FEW033 BKN043 18/15 Q1017=
201909281800 METAR LRAR 281800Z 31003KT 9999 BKN042 18/15 Q1017=
201909281830 METAR LRAR 281830Z VRB02KT 9999 BKN040 18/15 Q1017=
201909281900 METAR LRAR 281900Z VRB02KT 9999 SCT046 17/15 Q1017=
201909281930 METAR LRAR 281930Z VRB02KT 9999 FEW048 17/16 Q1017=
201909282000 METAR LRAR 282000Z 29004KT CAVOK 16/15 Q1017=
201909282030 METAR LRAR 282030Z 29003KT CAVOK 15/15 Q1017=
201909282100 METAR LRAR 282100Z 28003KT CAVOK 16/15 Q1017=
201909282130 METAR LRAR 282130Z 28004KT CAVOK 15/15 Q1017=
201909282200 METAR LRAR 282200Z 30004KT CAVOK 15/15 Q1017=
201909282230 METAR LRAR 282230Z 29004KT CAVOK 15/14 Q1018=
201909282300 METAR LRAR 282300Z VRB03KT CAVOK 15/14 Q1018=
201909282330 METAR LRAR 282330Z 34004KT CAVOK 14/13 Q1018=
201909290000 METAR LRAR 290000Z VRB02KT CAVOK 14/13 Q1018=
201909290030 METAR LRAR 290030Z 30003KT CAVOK 14/13 Q1018=
201909290100 METAR LRAR 290100Z 26003KT CAVOK 14/13 Q1018=
201909290130 METAR LRAR 290130Z 28004KT CAVOK 13/13 Q1018=
201909290200 METAR LRAR 290200Z 29003KT CAVOK 13/13 Q1018=
201909290230 METAR LRAR 290230Z 26004KT CAVOK 13/13 Q1018=
201909290300 METAR LRAR 290300Z 26003KT CAVOK 13/13 Q1018=
201909290330 METAR LRAR 290330Z VRB02KT CAVOK 13/12 Q1018=
201909290400 METAR LRAR 290400Z 00000KT CAVOK 13/12 Q1018=
201909290430 METAR LRAR 290430Z 00000KT CAVOK 12/12 Q1018=
201909290500 METAR LRAR 290500Z 00000KT CAVOK 12/12 Q1018=
201909290530 METAR LRAR 290530Z 00000KT CAVOK 13/13 Q1018=
201909290600 METAR LRAR 290600Z 00000KT CAVOK 14/13 Q1018=
201909290630 METAR LRAR 290630Z 25002KT 200V290 CAVOK 16/13 Q1018=
201909290700 METAR LRAR 290700Z VRB01KT CAVOK 18/12 Q1018=
201909290730 METAR LRAR 290730Z VRB02KT CAVOK 18/11 Q1018=
201909290800 METAR LRAR 290800Z 23002KT 170V320 CAVOK 19/11 Q1018=
201909290830 METAR LRAR 290830Z VRB02KT CAVOK 20/11 Q1018=
201909290900 METAR LRAR 290900Z 26003KT 170V320 CAVOK 20/11 Q1018=
201909290930 METAR LRAR 290930Z VRB02KT CAVOK 21/11 Q1018=
201909291000 METAR LRAR 291000Z VRB04KT CAVOK 21/10 Q1018=
201909291030 METAR LRAR 291030Z VRB03KT CAVOK 22/11 Q1017=
201909291100 METAR LRAR 291100Z VRB03KT CAVOK 22/10 Q1017=
201909291130 METAR LRAR 291130Z 27004KT 190V340 CAVOK 23/10 Q1016=
201909291200 METAR LRAR 291200Z 26005KT 230V300 CAVOK 23/10 Q1016=
201909291230 METAR LRAR 291230Z VRB05KT CAVOK 23/09 Q1016=
201909291300 METAR LRAR 291300Z 25007KT 220V280 CAVOK 23/10 Q1015=
201909291330 METAR LRAR 291330Z 26004KT 190V320 CAVOK 24/10 Q1015=
201909291400 METAR LRAR 291400Z 20005KT 160V240 CAVOK 23/10 Q1015=
201909291430 METAR LRAR 291430Z 19004KT CAVOK 23/11 Q1014=
201909291500 METAR LRAR 291500Z 19005KT 160V230 CAVOK 23/11 Q1014=
201909291530 METAR LRAR 291530Z 19005KT CAVOK 22/12 Q1014=
201909291600 METAR LRAR 291600Z 21003KT CAVOK 22/12 Q1013=
201909291630 METAR LRAR 291630Z 20004KT CAVOK 20/13 Q1013=
201909291700 METAR LRAR 291700Z 19005KT CAVOK 19/12 Q1013=
201909291730 METAR LRAR 291730Z 18006KT CAVOK 19/12 Q1013=
201909291800 METAR LRAR 291800Z 17005KT CAVOK 19/12 Q1013=
201909291830 METAR LRAR 291830Z 17006KT CAVOK 19/12 Q1013=
201909291900 METAR LRAR 291900Z 16006KT CAVOK 17/12 Q1012=
201909291930 METAR LRAR 291930Z 16007KT CAVOK 17/12 Q1012=
201909292000 METAR LRAR 292000Z 15007KT CAVOK 16/12 Q1012=
201909292030 METAR LRAR 292030Z 15007KT CAVOK 16/12 Q1012=
201909292100 METAR LRAR 292100Z 15008KT CAVOK 15/12 Q1012=
201909292130 METAR LRAR 292130Z 15007KT CAVOK 15/12 Q1012=
201909292200 METAR LRAR 292200Z 15007KT CAVOK 14/12 Q1012=
201909292230 METAR LRAR 292230Z 15007KT CAVOK 15/12 Q1011=
201909292300 METAR LRAR 292300Z 16007KT CAVOK 15/12 Q1011=
201909292330 METAR LRAR 292330Z 16007KT CAVOK 15/12 Q1011=
201909300000 METAR LRAR 300000Z 16006KT CAVOK 14/12 Q1010=
201909300030 METAR LRAR 300030Z 15007KT CAVOK 14/12 Q1010=
201909300100 METAR LRAR 300100Z 15007KT CAVOK 15/12 Q1010=
201909300130 METAR LRAR 300130Z 15006KT CAVOK 14/12 Q1010=
201909300200 METAR LRAR 300200Z 15007KT CAVOK 14/13 Q1009=
201909300230 METAR LRAR 300230Z 15006KT CAVOK 14/13 Q1010=
201909300300 METAR LRAR 300300Z 15007KT CAVOK 14/13 Q1009=
201909300330 METAR LRAR 300330Z 16006KT CAVOK 14/13 Q1009=
201909300400 METAR LRAR 300400Z 18004KT CAVOK 15/13 Q1009=
201909300430 METAR LRAR 300430Z 19004KT 160V240 CAVOK 15/13 Q1009=
201909300500 METAR LRAR 300500Z 18005KT CAVOK 15/13 Q1009=
201909300530 METAR LRAR 300530Z 19004KT CAVOK 15/13 Q1009=
201909300600 METAR LRAR 300600Z 19005KT 160V270 CAVOK 16/14 Q1009=
201909300630 METAR LRAR 300630Z 19006KT 140V240 CAVOK 18/14 Q1009=
201909300700 METAR LRAR 300700Z 19008KT CAVOK 19/15 Q1010=
201909300730 METAR LRAR 300730Z 20007KT CAVOK 20/15 Q1010=
201909300800 METAR LRAR 300800Z 21007KT CAVOK 21/15 Q1010=
201909300830 METAR LRAR 300830Z 21008KT CAVOK 21/14 Q1009=
201909300900 METAR LRAR 300900Z 22009KT CAVOK 21/14 Q1010=
201909300930 METAR LRAR 300930Z 21006KT CAVOK 22/14 Q1010=
201909301000 METAR LRAR 301000Z 21006KT 170V250 9999 BKN045 22/15 Q1010=
201909301030 METAR LRAR 301030Z 24008KT 9999 BKN046 23/13 Q1009=
201909301100 METAR LRAR 301100Z 24010KT 9999 SCT046 24/14 Q1009=
201909301130 METAR LRAR 301130Z 23015KT 9999 FEW048 24/13 Q1009=
201909301200 METAR LRAR 301200Z 25011KT 230V290 9999 FEW047 24/13 Q1008=
201909301230 METAR LRAR 301230Z 26009KT 9999 FEW048 24/13 Q1008=
201909301300 METAR LRAR 301300Z 26009KT 220V290 9999 FEW047 25/13 Q1008=
201909301330 METAR LRAR 301330Z 25009KT 9999 FEW050CB 25/13 Q1008=
201909301400 METAR LRAR 301400Z 25008KT 9999 FEW050CB 25/14 Q1008=
201909301430 METAR LRAR 301430Z 24007KT 9999 FEW055CB 24/14 Q1008=
201909301500 METAR LRAR 301500Z 24006KT 9999 FEW055CB 24/14 Q1007=
201909301530 METAR LRAR 301530Z 23005KT 9999 FEW045CB 24/14 Q1007=
201909301600 METAR LRAR 301600Z 25005KT 9999 FEW045CB 22/14 Q1008=
201909301630 METAR LRAR 301630Z 24007KT 9999 FEW045CB 21/14 Q1008=
201909301700 METAR LRAR 301700Z 26008KT 9999 FEW045CB 21/14 Q1008=
201909301730 METAR LRAR 301730Z 33011KT CAVOK 18/14 Q1009=
201909301800 METAR LRAR 301800Z 34005KT CAVOK 19/15 Q1010=
201909301830 METAR LRAR 301830Z 33004KT CAVOK 19/15 Q1010=
201909301900 METAR LRAR 301900Z 28004KT CAVOK 17/15 Q1010=
201909301930 METAR LRAR 301930Z 33007KT 290V350 CAVOK 19/13 Q1011=
201909302000 METAR LRAR 302000Z 32010KT CAVOK 20/09 Q1011=
201909302030 METAR LRAR 302030Z 32008KT CAVOK 19/08 Q1012=
201909302100 METAR LRAR 302100Z 33006KT CAVOK 18/07 Q1012=
201909302130 METAR LRAR 302130Z 33007KT CAVOK 18/07 Q1013=
201909302200 METAR LRAR 302200Z 29005KT CAVOK 16/08 Q1013=
201909302230 METAR LRAR 302230Z 31006KT CAVOK 16/08 Q1013=
201909302300 METAR LRAR 302300Z 31006KT CAVOK 16/08 Q1014=
201909302330 METAR LRAR 302330Z 30006KT CAVOK 14/08 Q1014=
