201910010000 METAR LRAR 010000Z 28006KT CAVOK 12/08 Q1014=
201910010030 METAR LRAR 010030Z 27006KT CAVOK 13/08 Q1014=
201910010100 METAR LRAR 010100Z 29006KT CAVOK 11/08 Q1014=
201910010130 METAR LRAR 010130Z 29006KT CAVOK 10/07 Q1014=
201910010200 METAR LRAR 010200Z 26004KT CAVOK 10/08 Q1014=
201910010230 METAR LRAR 010230Z 26005KT CAVOK 10/07 Q1015=
201910010300 METAR LRAR 010300Z 27005KT 230V300 CAVOK 10/07 Q1015=
201910010330 METAR LRAR 010330Z 26004KT CAVOK 11/07 Q1015=
201910010400 METAR LRAR 010400Z 26005KT CAVOK 09/07 Q1015=
201910010430 METAR LRAR 010430Z VRB01KT CAVOK 08/06 Q1015=
201910010500 METAR LRAR 010500Z 13004KT 110V180 CAVOK 09/07 Q1015=
201910010530 METAR LRAR 010530Z 19002KT 160V240 CAVOK 11/09 Q1016=
201910010600 METAR LRAR 010600Z VRB01KT CAVOK 14/09 Q1016=
201910010630 METAR LRAR 010630Z VRB01KT CAVOK 15/08 Q1016=
201910010700 METAR LRAR 010700Z 03002KT 330V100 CAVOK 16/08 Q1016=
201910010730 METAR LRAR 010730Z VRB02KT CAVOK 17/08 Q1016=
201910010800 METAR LRAR 010800Z VRB01KT CAVOK 18/08 Q1016=
201910010830 METAR LRAR 010830Z 14003KT 070V220 CAVOK 19/08 Q1016=
201910010900 METAR LRAR 010900Z 19006KT 160V250 CAVOK 19/08 Q1016=
201910010930 METAR LRAR 010930Z 20007KT 160V240 CAVOK 20/07 Q1016=
201910011000 METAR LRAR 011000Z 25007KT 210V270 CAVOK 21/07 Q1016=
201910011030 METAR LRAR 011030Z 24007KT 220V290 CAVOK 21/05 Q1015=
201910011100 METAR LRAR 011100Z 25006KT 190V290 CAVOK 22/05 Q1015=
201910011130 METAR LRAR 011130Z 26005KT 180V320 CAVOK 22/05 Q1015=
201910011200 METAR LRAR 011200Z 28004KT 220V360 CAVOK 23/05 Q1014=
201910011230 METAR LRAR 011230Z 20003KT 130V260 CAVOK 23/05 Q1014=
201910011300 METAR LRAR 011300Z 18006KT 120V240 CAVOK 23/05 Q1014=
201910011330 METAR LRAR 011330Z 19005KT 150V230 CAVOK 23/05 Q1013=
201910011400 METAR LRAR 011400Z 16003KT 100V210 CAVOK 23/05 Q1013=
201910011430 METAR LRAR 011430Z 18005KT CAVOK 23/06 Q1012=
201910011500 METAR LRAR 011500Z 18005KT CAVOK 23/06 Q1012=
201910011530 METAR LRAR 011530Z 17004KT CAVOK 23/06 Q1012=
201910011600 METAR LRAR 011600Z 16004KT CAVOK 21/07 Q1012=
201910011630 METAR LRAR 011630Z 17005KT CAVOK 20/07 Q1012=
201910011700 METAR LRAR 011700Z 17005KT CAVOK 20/07 Q1011=
201910011730 METAR LRAR 011730Z 16005KT CAVOK 18/08 Q1011=
201910011800 METAR LRAR 011800Z 14004KT CAVOK 16/08 Q1011=
201910011830 METAR LRAR 011830Z 13004KT CAVOK 15/09 Q1011=
201910011900 METAR LRAR 011900Z 14005KT CAVOK 16/09 Q1011=
201910011930 METAR LRAR 011930Z 13005KT CAVOK 15/09 Q1011=
201910012000 METAR LRAR 012000Z 14006KT CAVOK 14/09 Q1011=
201910012030 METAR LRAR 012030Z 14005KT CAVOK 14/09 Q1011=
201910012100 METAR LRAR 012100Z 13006KT CAVOK 14/09 Q1010=
201910012130 METAR LRAR 012130Z 15006KT CAVOK 14/09 Q1010=
201910012200 METAR LRAR 012200Z 15006KT CAVOK 14/09 Q1010=
201910012230 METAR LRAR 012230Z 14007KT CAVOK 14/09 Q1010=
201910012300 METAR LRAR 012300Z 13007KT CAVOK 13/09 Q1010=
201910012330 METAR LRAR 012330Z 14008KT CAVOK 14/09 Q1009=
201910020000 METAR LRAR 020000Z 15009KT CAVOK 14/09 Q1009=
201910020030 METAR LRAR 020030Z 14009KT CAVOK 14/09 Q1009=
201910020100 METAR LRAR 020100Z 14009KT CAVOK 14/09 Q1008=
201910020130 METAR LRAR 020130Z 15008KT CAVOK 14/09 Q1008=
201910020200 METAR LRAR 020200Z 15009KT CAVOK 14/09 Q1008=
201910020230 METAR LRAR 020230Z 14008KT CAVOK 14/09 Q1008=
201910020300 METAR LRAR 020300Z 14008KT CAVOK 14/09 Q1008=
201910020330 METAR LRAR 020330Z 13008KT CAVOK 14/09 Q1007=
201910020400 METAR LRAR 020400Z 13008KT CAVOK 14/09 Q1007=
201910020430 METAR LRAR 020430Z 14009KT CAVOK 14/09 Q1007=
201910020500 METAR LRAR 020500Z 14010KT CAVOK 15/09 Q1007=
201910020530 METAR LRAR 020530Z 14009KT CAVOK 16/09 Q1006=
201910020600 METAR LRAR 020600Z 13009KT CAVOK 18/09 Q1006=
201910020630 METAR LRAR 020630Z 14010KT CAVOK 19/09 Q1006=
201910020700 METAR LRAR 020700Z 15007KT CAVOK 19/10 Q1007=
201910020730 METAR LRAR 020730Z 16008KT CAVOK 21/10 Q1007=
201910020800 METAR LRAR 020800Z 19008KT 160V220 CAVOK 22/09 Q1007=
201910020830 METAR LRAR 020830Z 20010KT 150V220 CAVOK 23/09 Q1006=
201910020900 METAR LRAR 020900Z 20009KT 170V230 CAVOK 24/10 Q1006=
201910020930 METAR LRAR 020930Z 21011KT 170V240 CAVOK 25/10 Q1006=
201910021000 METAR LRAR 021000Z 21011KT CAVOK 25/10 Q1006=
201910021030 METAR LRAR 021030Z 21012KT CAVOK 26/10 Q1006=
201910021100 METAR LRAR 021100Z 21011KT 160V240 CAVOK 26/10 Q1005=
201910021130 METAR LRAR 021130Z 22010KT CAVOK 27/10 Q1005=
201910021200 METAR LRAR 021200Z 22009KT 180V240 CAVOK 27/10 Q1005=
201910021230 METAR LRAR 021230Z 23008KT 200V260 CAVOK 27/10 Q1005=
201910021300 METAR LRAR 021300Z 23010KT CAVOK 27/11 Q1004=
201910021330 METAR COR LRAR 021330Z 20009KT 160V220 CAVOK 27/11 Q1004=
201910021400 METAR LRAR 021400Z 20010KT 160V230 CAVOK 27/10 Q1004=
201910021430 METAR LRAR 021430Z 20009KT 170V230 CAVOK 26/11 Q1004=
201910021500 METAR LRAR 021500Z 18008KT CAVOK 26/10 Q1003=
201910021530 METAR LRAR 021530Z 20007KT CAVOK 25/10 Q1004=
201910021600 METAR LRAR 021600Z 20005KT CAVOK 24/11 Q1004=
201910021630 METAR LRAR 021630Z 20005KT CAVOK 22/11 Q1004=
201910021700 METAR LRAR 021700Z 20005KT CAVOK 22/11 Q1004=
201910021730 METAR LRAR 021730Z 17004KT CAVOK 21/11 Q1004=
201910021800 METAR LRAR 021800Z 17004KT CAVOK 19/12 Q1003=
201910021830 METAR LRAR 021830Z 15005KT CAVOK 20/12 Q1003=
201910021900 METAR LRAR 021900Z 17005KT CAVOK 20/11 Q1003=
201910021930 METAR LRAR 021930Z 14006KT CAVOK 19/11 Q1003=
201910022000 METAR LRAR 022000Z 14007KT CAVOK 19/11 Q1003=
201910022030 METAR LRAR 022030Z 14006KT CAVOK 19/11 Q1003=
201910022100 METAR LRAR 022100Z 14009KT CAVOK 19/11 Q1003=
201910022130 METAR COR LRAR 022130Z 32005KT 240V010 9999 -SHRA FEW007
                        FEW050CB 19/14 Q1003=
201910022200 METAR LRAR 022200Z VRB02KT 9999 SCT008 FEW050CB 18/13 Q1003=
201910022230 METAR LRAR 022230Z 30013KT 270V330 9999 SCT013 SCT024 FEW055CB
                        18/15 Q1004=
201910022300 METAR LRAR 022300Z 32010KT 9999 SCT026 FEW060CB 17/16 Q1004=
201910022330 METAR LRAR 022330Z 35004KT 320V050 9999 BKN030 17/16 Q1004=
201910030000 METAR LRAR 030000Z 01006KT 340V060 9999 -RA BKN030 17/16
                        Q1003=
201910030030 METAR LRAR 030030Z 07003KT 040V110 9999 FEW018 BKN033 17/16
                        Q1004=
201910030100 METAR LRAR 030100Z 11003KT 080V140 9999 -RA FEW005 SCT021
                        BKN033 16/16 Q1004=
201910030130 METAR LRAR 030130Z 30007KT 6000 FEW010 SCT033 16/16 Q1004=
201910030200 METAR LRAR 030200Z 30007KT 6000 FEW012 BKN030 16/16 Q1005=
201910030230 METAR LRAR 030230Z 32007KT 9999 SCT007 BKN027 15/15 Q1005=
201910030300 METAR LRAR 030300Z 31007KT 9999 FEW007 BKN024 15/15 Q1005=
201910030330 METAR LRAR 030330Z 29006KT 9999 FEW008 SCT010 BKN020 15/15
                        Q1005=
201910030400 METAR LRAR 030400Z 29008KT 9999 BKN009 OVC023 15/15 Q1005=
201910030430 METAR LRAR 030430Z 29008KT 9999 SCT010 OVC035 14/14 Q1005=
201910030500 METAR LRAR 030500Z 29007KT 9999 -RA FEW008 BKN012 OVC037
                        14/14 Q1006 R09/19//95=
201910030530 METAR LRAR 030530Z 31006KT 9999 -RA FEW008 BKN011 OVC035
                        14/14 Q1006 R09/19//95=
201910030600 METAR LRAR 030600Z 30008KT 9999 SCT007 OVC009 14/14 Q1007
                        R09/19//95=
201910030630 METAR LRAR 030630Z 29016KT 6000 -SHRA SCT005 SCT025CB OVC030
                        13/13 Q1007 RESHRA R09/29//95=
201910030700 METAR LRAR 030700Z 30016KT 8000 -SHRA SCT007 SCT025CB OVC030
                        12/12 Q1008 RESHRA R09/29//95=
201910030730 METAR LRAR 030730Z 31013KT 9999 -SHRA SCT010 SCT025CB OVC030
                        12/12 Q1008 R09/29//95=
201910030800 METAR LRAR 030800Z 31013KT 9999 -SHRA SCT007 SCT030CB OVC030
                        11/11 Q1009 R09/29//95=
201910030830 METAR LRAR 030830Z 32011KT 9999 -SHRA BKN007 FEW025CB OVC030
                        12/12 Q1009 R09/29//95=
201910030900 METAR LRAR 030900Z 34009KT 9999 BKN009 FEW025CB OVC035 12/12
                        Q1009 R09/29//95=
201910030930 METAR LRAR 030930Z 01013KT 340V040 9999 FEW009 BKN011 13/12
                        Q1009 R09/29//95=
201910031000 METAR LRAR 031000Z 01009KT 330V050 9999 SCT010 BKN014 13/12
                        Q1010 R09/29//95=
201910031030 METAR LRAR 031030Z 36008KT 9999 SCT010 BKN014 13/12 Q1010
                        R09/29//95=
201910031100 METAR LRAR 031100Z 02008KT 350V050 9999 FEW011 SCT015 BKN020
                        13/12 Q1010 R09/19//95=
201910031130 METAR LRAR 031130Z 01007KT 330V050 9999 FEW010 BKN015 OVC030
                        13/11 Q1010 R09/19//95=
201910031200 METAR LRAR 031200Z 36009KT 330V030 9999 OVC014 13/10 Q1011
                        R09/19//95=
201910031230 METAR LRAR 031230Z 01010KT 340V040 9999 BKN016 OVC020 13/10
                        Q1011 R09/19//95=
201910031300 METAR LRAR 031300Z 36010KT 340V040 9999 SCT017 OVC020 13/10
                        Q1012 R09/CLRD//=
201910031330 METAR LRAR 031330Z 36009KT 330V040 9999 BKN020 OVC028 12/09
                        Q1012=
201910031400 METAR LRAR 031400Z 35008KT 9999 BKN017 OVC020 12/10 Q1012=
201910031430 METAR LRAR 031430Z 36008KT 330V030 9999 SCT017 BKN043 12/10
                        Q1012=
201910031500 METAR LRAR 031500Z 36008KT 330V030 9999 FEW018 12/09 Q1012=
201910031530 METAR LRAR 031530Z 36006KT 330V030 9999 SCT018 12/09 Q1012=
201910031600 METAR LRAR 031600Z 36006KT 9999 FEW019 11/09 Q1012=
201910031630 METAR LRAR 031630Z 36005KT 9999 SCT040 11/09 Q1012=
201910031700 METAR LRAR 031700Z 01005KT 340V050 9999 FEW035 BKN042 11/09
                        Q1013=
201910031730 METAR LRAR 031730Z 02005KT 340V060 9999 BKN043 11/09 Q1012=
201910031800 METAR LRAR 031800Z 03003KT 350V060 9999 BKN044 11/09 Q1013=
201910031830 METAR LRAR 031830Z 04004KT 360V070 9999 BKN045 11/10 Q1013=
201910031900 METAR LRAR 031900Z 02004KT 350V050 9999 BKN047 11/09 Q1013=
201910031930 METAR LRAR 031930Z 01003KT 350V050 9999 BKN049 11/09 Q1013=
201910032000 METAR LRAR 032000Z 34003KT CAVOK 11/09 Q1013=
201910032030 METAR LRAR 032030Z 31004KT CAVOK 10/10 Q1014=
201910032100 METAR LRAR 032100Z 33004KT 9999 SCT040 10/10 Q1014=
201910032130 METAR LRAR 032130Z 33004KT 9999 BKN045 10/10 Q1014=
201910032200 METAR LRAR 032200Z 35003KT 9999 SCT040 10/10 Q1014=
201910032230 METAR LRAR 032230Z 33004KT 9999 BKN042 10/10 Q1014=
201910032300 METAR LRAR 032300Z 33003KT 9999 SCT045 10/10 Q1014=
201910032330 METAR LRAR 032330Z 33002KT 9999 FEW047 10/10 Q1014=
201910040000 METAR LRAR 040000Z 33003KT CAVOK 09/09 Q1013=
201910040030 METAR LRAR 040030Z 33003KT CAVOK 09/09 Q1013=
201910040100 METAR LRAR 040100Z 33002KT CAVOK 09/09 Q1013=
201910040130 METAR LRAR 040130Z 32003KT CAVOK 09/09 Q1013=
201910040200 METAR LRAR 040200Z 31003KT 290V350 CAVOK 09/09 Q1013=
201910040230 METAR LRAR 040230Z 30004KT CAVOK 09/09 Q1013=
201910040300 METAR LRAR 040300Z 32003KT CAVOK 08/08 Q1013=
201910040330 METAR LRAR 040330Z 32004KT CAVOK 08/08 Q1013=
201910040400 METAR LRAR 040400Z 33003KT CAVOK 08/08 Q1013=
201910040430 METAR LRAR 040430Z 31003KT CAVOK 08/08 Q1013=
201910040500 METAR LRAR 040500Z 32003KT CAVOK 08/08 Q1014=
201910040530 METAR LRAR 040530Z 32003KT CAVOK 08/08 Q1014=
201910040600 METAR LRAR 040600Z VRB02KT CAVOK 08/08 Q1014=
201910040630 METAR LRAR 040630Z VRB01KT CAVOK 09/09 Q1014=
201910040700 METAR LRAR 040700Z 01004KT 330V050 CAVOK 10/09 Q1014=
201910040730 METAR LRAR 040730Z 36004KT 320V040 CAVOK 10/08 Q1014=
201910040800 METAR LRAR 040800Z 36004KT 320V030 CAVOK 11/08 Q1014=
201910040830 METAR LRAR 040830Z 01004KT 330V070 CAVOK 11/08 Q1014=
201910040900 METAR LRAR 040900Z 36005KT 320V060 CAVOK 12/06 Q1014=
201910040930 METAR LRAR 040930Z 06008KT 020V080 CAVOK 13/05 Q1014=
201910041000 METAR LRAR 041000Z 07008KT 020V090 CAVOK 13/06 Q1014=
201910041030 METAR LRAR 041030Z 08007KT 060V120 CAVOK 14/05 Q1013=
201910041100 METAR LRAR 041100Z 06006KT 010V100 CAVOK 14/05 Q1013=
201910041130 METAR LRAR 041130Z 04007KT 360V080 9999 FEW045 15/03 Q1012=
201910041200 METAR LRAR 041200Z 01005KT 310V100 9999 FEW045 16/04 Q1012=
201910041230 METAR LRAR 041230Z 05006KT 350V090 9999 SCT047 16/03 Q1012=
201910041300 METAR LRAR 041300Z VRB02KT 9999 SCT048 16/02 Q1012=
201910041330 METAR LRAR 041330Z 36004KT 320V040 CAVOK 15/03 Q1012=
201910041400 METAR LRAR 041400Z 02004KT 320V070 CAVOK 15/04 Q1011=
201910041430 METAR LRAR 041430Z 36004KT 330V030 CAVOK 15/03 Q1011=
201910041500 METAR LRAR 041500Z 35003KT CAVOK 14/04 Q1011=
201910041530 METAR LRAR 041530Z 34003KT 320V030 CAVOK 14/05 Q1011=
201910041600 METAR LRAR 041600Z 36003KT CAVOK 13/04 Q1011=
201910041630 METAR LRAR 041630Z 04002KT 340V070 CAVOK 12/05 Q1011=
201910041700 METAR LRAR 041700Z VRB01KT CAVOK 10/07 Q1011=
201910041730 METAR LRAR 041730Z 00000KT CAVOK 11/07 Q1011=
201910041800 METAR LRAR 041800Z VRB01KT CAVOK 10/08 Q1011=
201910041830 METAR LRAR 041830Z 29002KT 260V020 CAVOK 10/07 Q1011=
201910041900 METAR LRAR 041900Z 00000KT CAVOK 10/07 Q1012=
201910041930 METAR LRAR 041930Z VRB01KT CAVOK 10/07 Q1012=
201910042000 METAR LRAR 042000Z VRB01KT CAVOK 08/07 Q1011=
201910042030 METAR LRAR 042030Z 11002KT CAVOK 09/06 Q1011=
201910042100 METAR LRAR 042100Z 00000KT CAVOK 07/06 Q1011=
201910042130 METAR LRAR 042130Z VRB01KT CAVOK 06/05 Q1011=
201910042200 METAR LRAR 042200Z VRB01KT CAVOK 06/06 Q1011=
201910042230 METAR LRAR 042230Z VRB01KT CAVOK 05/05 Q1011=
201910042300 METAR LRAR 042300Z 15002KT CAVOK 06/06 Q1011=
201910042330 METAR LRAR 042330Z 14004KT CAVOK 07/05 Q1011=
201910050000 METAR LRAR 050000Z 14005KT CAVOK 06/05 Q1011=
201910050030 METAR LRAR 050030Z 16003KT 8000 NSC 06/05 Q1011=
201910050100 METAR LRAR 050100Z 14004KT 8000 NSC 06/05 Q1011=
201910050130 METAR LRAR 050130Z 15004KT 8000 NSC 06/06 Q1010=
201910050200 METAR LRAR 050200Z 14004KT 8000 NSC 07/06 Q1010=
201910050230 METAR LRAR 050230Z 14004KT CAVOK 06/06 Q1010=
201910050300 METAR LRAR 050300Z 13005KT CAVOK 06/06 Q1010=
201910050330 METAR LRAR 050330Z 13005KT CAVOK 07/06 Q1010=
201910050400 METAR LRAR 050400Z 15004KT CAVOK 06/05 Q1010=
201910050430 METAR LRAR 050430Z 15005KT CAVOK 06/06 Q1010=
201910050500 METAR LRAR 050500Z VRB01KT CAVOK 05/05 Q1010=
201910050530 METAR LRAR 050530Z VRB02KT CAVOK 07/06 Q1010=
201910050600 METAR LRAR 050600Z 13004KT CAVOK 07/06 Q1010=
201910050630 METAR LRAR 050630Z 16005KT CAVOK 08/07 Q1010=
201910050700 METAR LRAR 050700Z 15006KT CAVOK 09/07 Q1010=
201910050730 METAR LRAR 050730Z 16005KT CAVOK 11/07 Q1010=
201910050800 METAR LRAR 050800Z 18006KT 150V220 CAVOK 12/07 Q1010=
201910050830 METAR LRAR 050830Z 20007KT CAVOK 13/07 Q1010=
201910050900 METAR LRAR 050900Z 22006KT 180V250 CAVOK 14/07 Q1010=
201910050930 METAR LRAR 050930Z 21007KT CAVOK 15/05 Q1010=
201910051000 METAR LRAR 051000Z 21007KT 150V260 9999 SCT028 15/05 Q1010=
201910051030 METAR LRAR 051030Z 21007KT 170V250 9999 SCT030 16/05 Q1010=
201910051100 METAR LRAR 051100Z 17007KT 9999 BKN033 16/05 Q1009=
201910051130 METAR LRAR 051130Z 20007KT 160V240 9999 BKN033 16/05 Q1009=
201910051200 METAR LRAR 051200Z 23005KT 190V270 9999 BKN033 16/04 Q1009=
201910051230 METAR LRAR 051230Z 22006KT 190V270 9999 SCT035 16/04 Q1009=
201910051300 METAR LRAR 051300Z 24007KT 9999 SCT036 17/04 Q1009=
201910051330 METAR LRAR 051330Z 24007KT 9999 SCT038 17/05 Q1009=
201910051400 METAR LRAR 051400Z 25005KT 9999 SCT040 16/04 Q1009=
201910051430 METAR COR LRAR 051430Z 24006KT 9999 SCT040 16/05 Q1009=
201910051500 METAR LRAR 051500Z 23004KT 9999 SCT045 16/06 Q1008=
201910051530 METAR LRAR 051530Z 23004KT 9999 SCT045 15/06 Q1008=
201910051600 METAR LRAR 051600Z 23003KT CAVOK 15/07 Q1009=
201910051630 METAR LRAR 051630Z 22005KT CAVOK 14/06 Q1009=
201910051700 METAR LRAR 051700Z 19004KT 9999 -RA FEW012 14/06 Q1009=
201910051730 METAR LRAR 051730Z 22005KT 9999 -RA NSC 14/06 Q1009=
201910051800 METAR LRAR 051800Z 20004KT CAVOK 13/06 Q1009=
201910051830 METAR LRAR 051830Z 19005KT CAVOK 13/06 Q1009=
201910051900 METAR LRAR 051900Z 21005KT CAVOK 13/06 Q1010=
201910051930 METAR LRAR 051930Z 19005KT CAVOK 12/06 Q1010=
201910052000 METAR LRAR 052000Z 19006KT CAVOK 13/06 Q1009=
201910052030 METAR LRAR 052030Z 18006KT 150V220 9999 -RA NSC 12/07 Q1009=
201910052100 METAR LRAR 052100Z 19008KT 9999 -RA NSC 12/07 Q1009=
201910052130 METAR LRAR 052130Z 27011KT 9999 -RA FEW040 11/08 Q1010=
201910052200 METAR LRAR 052200Z 25005KT 9999 -RA BKN045 10/09 Q1010=
201910052230 METAR LRAR 052230Z 24004KT 9999 BKN045 10/10 Q1010=
201910052300 METAR LRAR 052300Z 25007KT 9999 -RA BKN046 10/09 Q1010=
201910052330 METAR LRAR 052330Z 25006KT 9999 -RA FEW013 10/10 Q1010=
201910060000 METAR LRAR 060000Z 24004KT 9999 FEW010 SCT018 10/10 Q1010=
201910060030 METAR LRAR 060030Z 25006KT 9999 SCT025 BKN030 10/10 Q1010=
201910060100 METAR LRAR 060100Z 24006KT 9999 BKN035 10/10 Q1010=
201910060130 METAR LRAR 060130Z 27008KT 9999 FEW020 BKN025 10/10 Q1010=
201910060200 METAR LRAR 060200Z 26007KT 9999 FEW020 BKN030 10/09 Q1010=
201910060230 METAR LRAR 060230Z 25006KT 9999 SCT016 BKN019 10/09 Q1010=
201910060300 METAR LRAR 060300Z 24007KT 9999 OVC016 10/10 Q1010=
201910060330 METAR LRAR 060330Z 25007KT 9999 OVC014 10/10 Q1010=
201910060400 METAR LRAR 060400Z 25008KT 9999 SCT008 OVC011 10/10 Q1010=
201910060430 METAR LRAR 060430Z 26008KT 9999 BKN009 OVC014 10/10 Q1010=
201910060500 METAR LRAR 060500Z 27008KT 9999 -DZ FEW006 BKN010 OVC014
                        10/10 Q1010=
201910060530 METAR LRAR 060530Z 26010KT 9000 -DZ SCT006 OVC009 10/10 Q1011=
201910060600 METAR LRAR 060600Z 27011KT 5000 -DZ BR FEW005 BKN007 OVC011
                        10/10 Q1011 R09/19//95=
201910060630 METAR LRAR 060630Z 31011KT 270V350 9999 -RA FEW005 SCT008
                        BKN012 09/09 Q1012 R09/19//95=
201910060700 METAR LRAR 060700Z 35009KT 320V020 9999 FEW007 SCT019 BKN027
                        09/09 Q1012 R09/19//95=
201910060730 METAR LRAR 060730Z 36009KT 330V030 9999 FEW012 BKN030 10/09
                        Q1012 R09/19//95=
201910060800 METAR LRAR 060800Z 33009KT 9999 FEW009 BKN012 OVC035 10/09
                        Q1013 R09/19//95=
201910060830 METAR LRAR 060830Z 35008KT 9999 SCT019 BKN025 10/08 Q1013
                        R09/19//95=
201910060900 METAR LRAR 060900Z 34007KT 310V020 9999 FEW018 SCT020 BKN030
                        10/07 Q1014 R09/CLRD//=
201910060930 METAR LRAR 060930Z 33009KT 9999 SCT025 BKN033 11/07 Q1014=
201910061000 METAR LRAR 061000Z 33009KT 9999 FEW023 BKN030 11/07 Q1014=
201910061030 METAR LRAR 061030Z 33012KT 9999 FEW027 BKN036 11/06 Q1014=
201910061100 METAR LRAR 061100Z 34009KT 300V010 9999 BKN032 BKN040 11/06
                        Q1015=
201910061130 METAR LRAR 061130Z 34008KT 9999 FEW030 BKN038 11/06 Q1015=
201910061200 METAR LRAR 061200Z 33009KT 9999 BKN040 BKN048 12/06 Q1015=
201910061230 METAR LRAR 061230Z 35008KT 310V020 9999 FEW035 SCT045 13/05
                        Q1015=
201910061300 METAR LRAR 061300Z 33010KT 9999 SCT045 13/05 Q1015=
201910061330 METAR LRAR 061330Z 33011KT 310V010 9999 FEW038 SCT045 13/05
                        Q1015=
201910061400 METAR LRAR 061400Z 35006KT 320V030 9999 FEW040 12/05 Q1015=
201910061430 METAR LRAR 061430Z 01010KT 340V050 9999 FEW043 13/05 Q1015=
201910061500 METAR LRAR 061500Z 01009KT 9999 FEW043 12/04 Q1015=
201910061530 METAR LRAR 061530Z 36003KT 330V030 9999 FEW048 11/05 Q1016=
201910061600 METAR LRAR 061600Z 01004KT 340V050 9999 FEW049 10/05 Q1016=
201910061630 METAR LRAR 061630Z 03003KT CAVOK 09/05 Q1016=
201910061700 METAR LRAR 061700Z VRB01KT CAVOK 07/05 Q1016=
201910061730 METAR LRAR 061730Z VRB01KT CAVOK 07/04 Q1016=
201910061800 METAR LRAR 061800Z VRB01KT CAVOK 07/05 Q1016=
201910061830 METAR LRAR 061830Z VRB02KT CAVOK 06/05 Q1016=
201910061900 METAR LRAR 061900Z 00000KT CAVOK 06/05 Q1016=
201910061930 METAR LRAR 061930Z VRB02KT CAVOK 04/04 Q1016=
201910062000 METAR LRAR 062000Z 03003KT CAVOK 06/05 Q1016=
201910062030 METAR LRAR 062030Z 06003KT CAVOK 06/05 Q1016=
201910062100 METAR LRAR 062100Z 00000KT CAVOK 06/04 Q1016=
201910062130 METAR LRAR 062130Z 00000KT CAVOK 05/05 Q1016=
201910062200 METAR LRAR 062200Z 00000KT CAVOK 05/05 Q1015=
201910062230 METAR LRAR 062230Z VRB01KT CAVOK 05/05 Q1016=
201910062300 METAR LRAR 062300Z 00000KT CAVOK 05/05 Q1015=
201910062330 METAR LRAR 062330Z VRB01KT CAVOK 05/05 Q1015=
201910070000 METAR LRAR 070000Z 00000KT CAVOK 04/04 Q1015=
201910070030 METAR LRAR 070030Z VRB01KT CAVOK 04/04 Q1015=
201910070100 METAR LRAR 070100Z 04003KT CAVOK 04/04 Q1015=
201910070130 METAR LRAR 070130Z 00000KT CAVOK 03/03 Q1015=
201910070200 METAR COR LRAR 070200Z VRB01KT CAVOK 02/02 Q1015=
201910070230 METAR LRAR 070230Z VRB01KT 6000 MIFG NSC 03/03 Q1015=
201910070300 METAR LRAR 070300Z 06003KT 7000 MIFG NSC 03/03 Q1015=
201910070330 METAR LRAR 070330Z 09003KT 7000 NSC 03/03 Q1015=
201910070400 METAR LRAR 070400Z 00000KT CAVOK 03/03 Q1015=
201910070430 METAR LRAR 070430Z 10003KT CAVOK 03/03 Q1015=
201910070500 METAR LRAR 070500Z 01002KT CAVOK 03/03 Q1015=
201910070530 METAR LRAR 070530Z 01002KT CAVOK 04/04 Q1015=
201910070600 METAR LRAR 070600Z 03003KT 360V070 CAVOK 05/05 Q1016=
201910070630 METAR LRAR 070630Z 01003KT 330V050 9999 FEW015 05/05 Q1016=
201910070700 METAR LRAR 070700Z 01003KT 320V060 9999 FEW004 SCT011 05/05
                        Q1016=
201910070730 METAR LRAR 070730Z 04005KT 350V070 9999 SCT004 06/06 Q1017=
201910070800 METAR LRAR 070800Z 05006KT CAVOK 08/07 Q1017=
201910070830 METAR LRAR 070830Z 03009KT CAVOK 10/06 Q1017=
201910070900 METAR LRAR 070900Z 04008KT 010V080 CAVOK 11/05 Q1017=
201910070930 METAR LRAR 070930Z 05008KT 020V080 CAVOK 12/04 Q1017=
201910071000 METAR LRAR 071000Z 03008KT 360V070 9999 FEW040 12/03 Q1017=
201910071030 METAR LRAR 071030Z 02008KT 360V060 9999 FEW040 13/04 Q1017=
201910071100 METAR LRAR 071100Z 03008KT 330V090 9999 FEW040 14/02 Q1016=
201910071130 METAR LRAR 071130Z 01008KT 350V060 CAVOK 14/01 Q1016=
201910071200 METAR LRAR 071200Z 02009KT 320V070 CAVOK 14/01 Q1016=
201910071230 METAR LRAR 071230Z 06006KT 020V090 CAVOK 14/M00 Q1016=
201910071300 METAR LRAR 071300Z 02007KT 350V060 CAVOK 14/01 Q1016=
201910071330 METAR LRAR 071330Z 01009KT 350V060 CAVOK 14/M00 Q1017=
201910071400 METAR LRAR 071400Z 02007KT 340V050 CAVOK 14/M00 Q1017=
201910071430 METAR LRAR 071430Z 01009KT 340V050 CAVOK 13/M01 Q1017=
201910071500 METAR LRAR 071500Z 01008KT 340V040 CAVOK 13/M00 Q1017=
201910071530 METAR LRAR 071530Z 02007KT CAVOK 12/00 Q1017=
201910071600 METAR LRAR 071600Z 02007KT 340V040 CAVOK 11/M00 Q1018=
201910071630 METAR LRAR 071630Z 02005KT 350V060 CAVOK 10/M00 Q1018=
201910071700 METAR LRAR 071700Z 02005KT CAVOK 09/M00 Q1018=
201910071730 METAR LRAR 071730Z 01006KT CAVOK 09/00 Q1019=
201910071800 METAR LRAR 071800Z 01005KT CAVOK 08/00 Q1019=
201910071830 METAR LRAR 071830Z 36004KT CAVOK 08/00 Q1019=
201910071900 METAR LRAR 071900Z 36004KT CAVOK 07/00 Q1019=
201910071930 METAR LRAR 071930Z 01003KT CAVOK 07/00 Q1020=
201910072000 METAR LRAR 072000Z 03005KT CAVOK 07/M00 Q1020=
201910072030 METAR LRAR 072030Z 03005KT CAVOK 06/M00 Q1020=
201910072100 METAR LRAR 072100Z 04005KT CAVOK 05/M00 Q1020=
201910072130 METAR LRAR 072130Z VRB02KT CAVOK 04/M01 Q1020=
201910072200 METAR LRAR 072200Z 26002KT CAVOK 03/M01 Q1020=
201910072230 METAR LRAR 072230Z 03003KT CAVOK 04/M01 Q1020=
201910072300 METAR LRAR 072300Z 33002KT CAVOK 01/M01 Q1021=
201910072330 METAR LRAR 072330Z 29003KT CAVOK M00/M01 Q1021=
201910080000 METAR LRAR 080000Z VRB01KT CAVOK 00/M00 Q1021=
201910080030 METAR LRAR 080030Z 00000KT CAVOK M00/M01 Q1021=
201910080100 METAR LRAR 080100Z 34002KT CAVOK M00/M01 Q1021=
201910080130 METAR LRAR 080130Z VRB01KT CAVOK 00/M00 Q1021=
201910080200 METAR LRAR 080200Z VRB01KT CAVOK M00/M01 Q1021=
201910080230 METAR LRAR 080230Z 00000KT CAVOK M00/M02 Q1022=
201910080300 METAR LRAR 080300Z 00000KT CAVOK M01/M01 Q1022=
201910080330 METAR LRAR 080330Z 00000KT CAVOK M01/M01 Q1022=
201910080400 METAR LRAR 080400Z 00000KT CAVOK M01/M01 Q1022=
201910080430 METAR LRAR 080430Z 00000KT CAVOK M01/M01 Q1023=
201910080500 METAR LRAR 080500Z 26001KT CAVOK M01/M01 Q1023=
201910080530 METAR LRAR 080530Z 14001KT CAVOK M01/M01 Q1023=
201910080600 METAR LRAR 080600Z 15002KT CAVOK 02/01 Q1023=
201910080630 METAR LRAR 080630Z 15002KT CAVOK 04/02 Q1023=
201910080700 METAR LRAR 080700Z VRB02KT CAVOK 06/02 Q1023=
201910080730 METAR LRAR 080730Z VRB01KT CAVOK 09/02 Q1023=
201910080800 METAR LRAR 080800Z 12003KT 050V160 CAVOK 10/M00 Q1023=
201910080830 METAR LRAR 080830Z 11003KT 080V160 CAVOK 11/M02 Q1023=
201910080900 METAR LRAR 080900Z 11003KT 070V180 CAVOK 13/M02 Q1023=
201910080930 METAR LRAR 080930Z VRB03KT CAVOK 13/M03 Q1023=
201910081000 METAR LRAR 081000Z 19005KT 130V230 CAVOK 14/M03 Q1023=
201910081030 METAR LRAR 081030Z VRB03KT CAVOK 15/M03 Q1023=
201910081100 METAR LRAR 081100Z 23004KT 140V280 CAVOK 15/M03 Q1022=
201910081130 METAR LRAR 081130Z 24006KT 170V290 CAVOK 15/M04 Q1022=
201910081200 METAR LRAR 081200Z 15005KT 110V230 CAVOK 15/M04 Q1022=
201910081230 METAR LRAR 081230Z VRB03KT CAVOK 15/M03 Q1021=
201910081300 METAR LRAR 081300Z 18004KT 100V250 CAVOK 15/M03 Q1021=
201910081330 METAR LRAR 081330Z VRB03KT CAVOK 16/M03 Q1021=
201910081400 METAR LRAR 081400Z 23006KT 200V260 CAVOK 16/M04 Q1021=
201910081430 METAR LRAR 081430Z 20005KT 170V240 CAVOK 15/M05 Q1021=
201910081500 METAR LRAR 081500Z 18005KT 150V210 CAVOK 15/M05 Q1021=
201910081530 METAR LRAR 081530Z 18004KT CAVOK 14/M05 Q1020=
201910081600 METAR LRAR 081600Z 18005KT CAVOK 13/M04 Q1020=
201910081630 METAR LRAR 081630Z 18004KT CAVOK 12/M04 Q1020=
201910081700 METAR LRAR 081700Z 19004KT CAVOK 11/M04 Q1020=
201910081730 METAR LRAR 081730Z 19004KT CAVOK 08/M00 Q1020=
201910081800 METAR LRAR 081800Z 19002KT CAVOK 08/M01 Q1020=
201910081830 METAR LRAR 081830Z 18005KT CAVOK 08/M02 Q1020=
201910081900 METAR LRAR 081900Z 17005KT CAVOK 09/M02 Q1020=
201910081930 METAR LRAR 081930Z 18007KT CAVOK 11/02 Q1020=
201910082000 METAR LRAR 082000Z 17007KT CAVOK 10/03 Q1020=
201910082030 METAR LRAR 082030Z 16005KT CAVOK 08/02 Q1020=
201910082100 METAR LRAR 082100Z 15005KT CAVOK 07/02 Q1020=
201910082130 METAR LRAR 082130Z 14006KT CAVOK 07/03 Q1020=
201910082200 METAR LRAR 082200Z 14005KT CAVOK 06/03 Q1020=
201910082230 METAR LRAR 082230Z 15006KT CAVOK 06/03 Q1019=
201910082300 METAR LRAR 082300Z 14007KT CAVOK 07/03 Q1019=
201910082330 METAR LRAR 082330Z 14009KT CAVOK 07/04 Q1019=
201910090000 METAR LRAR 090000Z 14008KT CAVOK 07/04 Q1019=
201910090030 METAR LRAR 090030Z 14009KT CAVOK 08/04 Q1019=
201910090100 METAR LRAR 090100Z 14009KT CAVOK 07/04 Q1018=
201910090130 METAR LRAR 090130Z 14009KT CAVOK 07/04 Q1018=
201910090200 METAR LRAR 090200Z 14010KT CAVOK 08/04 Q1018=
201910090230 METAR LRAR 090230Z 14008KT CAVOK 08/04 Q1018=
201910090300 METAR LRAR 090300Z 14008KT CAVOK 08/04 Q1018=
201910090330 METAR LRAR 090330Z 15008KT CAVOK 07/04 Q1018=
201910090400 METAR LRAR 090400Z 15009KT CAVOK 08/04 Q1018=
201910090430 METAR LRAR 090430Z 15008KT CAVOK 08/04 Q1018=
201910090500 METAR LRAR 090500Z 15008KT CAVOK 07/04 Q1018=
201910090530 METAR LRAR 090530Z 15007KT CAVOK 08/05 Q1018=
201910090600 METAR LRAR 090600Z 14006KT CAVOK 10/05 Q1018=
201910090630 METAR LRAR 090630Z 16006KT 140V200 CAVOK 12/06 Q1018=
201910090700 METAR LRAR 090700Z 18007KT 150V210 CAVOK 14/06 Q1019=
201910090730 METAR LRAR 090730Z 18011KT 150V210 CAVOK 15/06 Q1019=
201910090800 METAR LRAR 090800Z 19012KT 160V220 CAVOK 15/06 Q1018=
201910090830 METAR COR LRAR 090830Z 18011KT CAVOK 16/06 Q1018=
201910090900 METAR LRAR 090900Z 18012KT CAVOK 17/06 Q1018=
201910090930 METAR LRAR 090930Z 20011KT CAVOK 18/06 Q1018=
201910091000 METAR LRAR 091000Z 20010KT 170V230 CAVOK 19/06 Q1018=
201910091030 METAR LRAR 091030Z 20010KT CAVOK 20/06 Q1017=
201910091100 METAR LRAR 091100Z 20008KT CAVOK 21/05 Q1017=
201910091130 METAR LRAR 091130Z 19008KT CAVOK 21/04 Q1016=
201910091200 METAR LRAR 091200Z 22008KT 190V260 CAVOK 22/03 Q1016=
201910091230 METAR COR LRAR 091230Z 21008KT CAVOK 22/04 Q1016=
201910091300 METAR LRAR 091300Z 19009KT 160V220 CAVOK 22/03 Q1015=
201910091330 METAR LRAR 091330Z 20010KT CAVOK 23/03 Q1015=
201910091400 METAR LRAR 091400Z 20007KT CAVOK 23/03 Q1014=
201910091430 METAR LRAR 091430Z 20009KT CAVOK 22/02 Q1014=
201910091500 METAR LRAR 091500Z 20007KT CAVOK 22/03 Q1014=
201910091530 METAR LRAR 091530Z 19006KT CAVOK 21/04 Q1014=
201910091600 METAR LRAR 091600Z 18007KT CAVOK 20/04 Q1014=
201910091630 METAR LRAR 091630Z 18006KT CAVOK 19/04 Q1014=
201910091700 METAR LRAR 091700Z 19006KT CAVOK 18/05 Q1014=
201910091730 METAR LRAR 091730Z 18006KT CAVOK 17/05 Q1014=
201910091800 METAR LRAR 091800Z 16006KT CAVOK 15/05 Q1014=
201910091830 METAR LRAR 091830Z 16007KT CAVOK 15/05 Q1014=
201910091900 METAR LRAR 091900Z 17007KT CAVOK 15/05 Q1014=
201910091930 METAR LRAR 091930Z 15007KT CAVOK 13/05 Q1014=
201910092000 METAR LRAR 092000Z 14006KT CAVOK 12/05 Q1014=
201910092030 METAR LRAR 092030Z 15005KT CAVOK 11/05 Q1014=
201910092100 METAR LRAR 092100Z 15004KT CAVOK 11/05 Q1014=
201910092130 METAR LRAR 092130Z 17007KT CAVOK 13/06 Q1014=
201910092200 METAR LRAR 092200Z 16006KT CAVOK 12/06 Q1014=
201910092230 METAR LRAR 092230Z 17006KT CAVOK 14/07 Q1014=
201910092300 METAR LRAR 092300Z VRB01KT CAVOK 12/07 Q1014=
201910092330 METAR LRAR 092330Z VRB02KT CAVOK 12/06 Q1015=
201910100000 METAR LRAR 100000Z 20007KT CAVOK 13/07 Q1015=
201910100030 METAR LRAR 100030Z 21004KT CAVOK 13/07 Q1015=
201910100100 METAR LRAR 100100Z 21004KT CAVOK 13/07 Q1015=
201910100130 METAR LRAR 100130Z 25004KT CAVOK 13/08 Q1015=
201910100200 METAR LRAR 100200Z 23003KT CAVOK 13/08 Q1015=
201910100230 METAR LRAR 100230Z 21003KT CAVOK 13/09 Q1015=
201910100300 METAR LRAR 100300Z 22004KT 9999 -SHRA FEW045CB 13/09 Q1015=
201910100330 METAR LRAR 100330Z 24006KT 9999 -SHRA FEW045CB 13/10 Q1016=
201910100400 METAR LRAR 100400Z 26005KT 9999 -SHRA FEW015 FEW045CB 13/12
                        Q1016=
201910100430 METAR LRAR 100430Z 29004KT 9999 FEW030 FEW050CB 13/11 Q1016=
201910100500 METAR LRAR 100500Z 22002KT 9999 FEW035 13/12 Q1016=
201910100530 METAR LRAR 100530Z VRB02KT 9999 FEW040 13/11 Q1017=
201910100600 METAR LRAR 100600Z 24002KT CAVOK 13/11 Q1017=
201910100630 METAR LRAR 100630Z 13003KT CAVOK 13/12 Q1017=
201910100700 METAR LRAR 100700Z 14002KT CAVOK 13/12 Q1017=
201910100730 METAR LRAR 100730Z VRB01KT CAVOK 14/11 Q1018=
201910100800 METAR LRAR 100800Z 15004KT CAVOK 14/11 Q1018=
201910100830 METAR LRAR 100830Z 15004KT 130V190 CAVOK 15/10 Q1018=
201910100900 METAR LRAR 100900Z VRB02KT CAVOK 15/09 Q1018=
201910100930 METAR LRAR 100930Z 14003KT 100V170 CAVOK 16/08 Q1018=
201910101000 METAR LRAR 101000Z 11002KT 060V170 9999 FEW020 FEW050CB 16/08
                        Q1018=
201910101030 METAR LRAR 101030Z 15003KT 080V180 9999 -SHRA FEW050CB 16/08
                        Q1018=
201910101100 METAR LRAR 101100Z VRB01KT 9999 FEW025 16/08 Q1018=
201910101130 METAR LRAR 101130Z 26003KT 9999 FEW030 16/09 Q1018=
201910101200 METAR LRAR 101200Z 26004KT 9999 FEW035 16/09 Q1018=
201910101230 METAR LRAR 101230Z 25003KT 220V280 9999 -RA FEW015 FEW040
                        16/10 Q1018=
201910101300 METAR LRAR 101300Z 24003KT 200V280 9999 -RA FEW040 16/10
                        Q1018=
201910101330 METAR LRAR 101330Z 31004KT 290V350 9999 -RA SCT015 SCT040
                        14/11 Q1018 R09/19//95=
201910101400 METAR LRAR 101400Z 00000KT 9999 -RA FEW045 15/12 Q1018 R09/19//95=
201910101430 METAR LRAR 101430Z VRB02KT 9999 -RA FEW048 14/13 Q1018 R09/19//95=
201910101500 METAR LRAR 101500Z 30003KT 9999 -RA FEW025 13/13 Q1018 R09/19//95=
201910101530 METAR LRAR 101530Z 31007KT 9999 -RA SCT025 13/13 Q1019 R09/19//95=
201910101600 METAR LRAR 101600Z VRB02KT 9999 -RA FEW010 SCT022 BKN027
                        13/13 Q1019 R09/19//95=
201910101630 METAR LRAR 101630Z 35004KT 9999 -RA SCT010 SCT020 BKN030
                        12/12 Q1019 R09/19//95=
201910101700 METAR LRAR 101700Z 34006KT 310V010 9999 -RA SCT010 SCT020
                        BKN030 13/12 Q1019 R09/19//95=
201910101730 METAR LRAR 101730Z 01004KT 9999 -RA FEW018 SCT024 BKN035
                        12/11 Q1020 R09/19//95=
201910101800 METAR LRAR 101800Z 08004KT 9999 -RA SCT016 BKN023 OVC040
                        12/11 Q1020 R09/19//95=
201910101830 METAR LRAR 101830Z VRB02KT 9999 -RA SCT018 BKN024 OVC040
                        12/10 Q1020 R09/19//95=
201910101900 METAR LRAR 101900Z 24002KT 210V270 9999 -RA SCT026 OVC040
                        11/11 Q1020 R09/19//95=
201910101930 METAR LRAR 101930Z VRB01KT 9999 -RA SCT026 OVC040 11/11 Q1020
                        R09/19//95=
201910102000 METAR LRAR 102000Z 20003KT 130V270 9999 -RA SCT028 OVC042
                        11/11 Q1020 R09/19//95=
201910102030 METAR LRAR 102030Z VRB03KT 9999 SCT033 BKN045 10/10 Q1021
                        R09/19//95=
201910102100 METAR LRAR 102100Z 27003KT 9999 FEW038 SCT049 10/10 Q1021
                        R09/19//95=
201910102130 METAR LRAR 102130Z 27003KT 6000 FEW049 08/08 Q1021 R09/19//95=
201910102200 METAR LRAR 102200Z 28004KT 5000 MIFG NSC 08/08 Q1022 R09/19//95=
201910102230 METAR LRAR 102230Z 33005KT 9999 7000 MIFG NSC 07/07 Q1022
                        R09/19//95=
201910102300 METAR COR LRAR 102300Z VRB02KT CAVOK 07/07 Q1023 R09/19//95=
201910102330 METAR LRAR 102330Z 28003KT CAVOK 07/07 Q1023 R09/19//95=
201910110000 METAR LRAR 110000Z VRB02KT 6000 MIFG NSC 06/06 Q1023 R09/19//95=
201910110030 METAR LRAR 110030Z VRB01KT 3000 MIFG BR NSC 06/06 Q1023 R09/19//95=
201910110100 METAR LRAR 110100Z VRB02KT 2500 MIFG BR NSC 06/06 Q1023 R09/19//95=
201910110130 METAR LRAR 110130Z 25004KT 3000 MIFG BR NSC 05/05 Q1023 R09/19//95=
201910110200 METAR LRAR 110200Z VRB02KT 3000 MIFG BR NSC 06/06 Q1024 R09/19//95=
201910110230 METAR LRAR 110230Z VRB02KT 2500 MIFG BR NSC 06/06 Q1024 R09/19//95=
201910110300 METAR LRAR 110300Z VRB02KT 1800 MIFG BR NSC 05/05 Q1024 R09/19//95=
201910110330 METAR LRAR 110330Z VRB01KT 1800 BR NSC 06/06 Q1024 R09/19//95=
201910110400 METAR LRAR 110400Z VRB01KT 2500 MIFG NSC 05/05 Q1025 R09/19//95=
201910110430 METAR LRAR 110430Z VRB01KT 1200 R09/1400 R27/1300 MIFG NSC
                        05/05 Q1025 R09/19//95=
201910110500 METAR LRAR 110500Z 14003KT 1200 R27/1300 R09/1200 MIFG NSC
                        05/05 Q1025 R09/19//95=
201910110530 METAR LRAR 110530Z VRB01KT 2000 MIFG NSC 06/06 Q1025 R09/19//95=
201910110600 METAR LRAR 110600Z 15002KT 130V200 5000 BR NSC 08/08 Q1026
                        R09/19//95=
201910110630 METAR LRAR 110630Z 15003KT CAVOK 09/09 Q1026 R09/19//95=
201910110700 METAR LRAR 110700Z 20004KT 9999 BKN048 10/10 Q1026 R09/CLRD//=
201910110730 METAR LRAR 110730Z 21004KT 180V240 9999 SCT048 12/12 Q1026=
201910110800 METAR LRAR 110800Z 21006KT 9999 FEW045 12/12 Q1027=
201910110830 METAR LRAR 110830Z 22005KT 190V250 9999 FEW017 14/11 Q1027=
201910110900 METAR LRAR 110900Z 23004KT 140V280 9999 FEW017 14/11 Q1027=
201910110930 METAR LRAR 110930Z 22003KT 150V290 9999 FEW017 15/10 Q1027=
201910111000 METAR LRAR 111000Z VRB03KT 9999 SCT025 15/09 Q1027=
201910111030 METAR LRAR 111030Z VRB03KT 9999 SCT030 17/10 Q1027=
201910111100 METAR LRAR 111100Z VRB03KT 9999 SCT030 17/09 Q1027=
201910111130 METAR LRAR 111130Z VRB05KT 9999 SCT033 17/09 Q1026=
201910111200 METAR LRAR 111200Z VRB03KT 9999 SCT037 18/08 Q1026=
201910111230 METAR LRAR 111230Z 29004KT 230V030 9999 SCT039 17/08 Q1026=
201910111300 METAR LRAR 111300Z 32004KT 250V010 9999 SCT040 17/08 Q1026=
201910111330 METAR LRAR 111330Z 26004KT 210V330 9999 SCT042 18/08 Q1026=
201910111400 METAR LRAR 111400Z 24006KT 9999 SCT049 18/08 Q1025=
201910111430 METAR LRAR 111430Z 24005KT 200V260 CAVOK 17/08 Q1025=
201910111500 METAR COR LRAR 111500Z 22004KT CAVOK 17/08 Q1025=
201910111530 METAR LRAR 111530Z 24003KT CAVOK 16/09 Q1025=
201910111600 METAR LRAR 111600Z 19002KT CAVOK 14/09 Q1025=
201910111630 METAR LRAR 111630Z 18001KT CAVOK 12/09 Q1025=
201910111700 METAR LRAR 111700Z 14002KT CAVOK 12/09 Q1025=
201910111730 METAR LRAR 111730Z 17002KT CAVOK 10/09 Q1025=
201910111800 METAR LRAR 111800Z 17002KT CAVOK 10/09 Q1025=
201910111830 METAR LRAR 111830Z 14002KT CAVOK 10/09 Q1025=
201910111900 METAR LRAR 111900Z 14003KT CAVOK 10/08 Q1025=
201910111930 METAR LRAR 111930Z 13004KT CAVOK 09/08 Q1025=
201910112000 METAR LRAR 112000Z 13004KT CAVOK 09/08 Q1025=
201910112030 METAR LRAR 112030Z 13004KT CAVOK 09/07 Q1025=
201910112100 METAR LRAR 112100Z 13004KT CAVOK 08/07 Q1025=
201910112130 METAR LRAR 112130Z 13005KT CAVOK 08/07 Q1025=
201910112200 METAR LRAR 112200Z 13005KT CAVOK 08/07 Q1024=
201910112230 METAR LRAR 112230Z 14005KT CAVOK 07/07 Q1024=
201910112300 METAR LRAR 112300Z 14007KT CAVOK 08/08 Q1024=
201910112330 METAR LRAR 112330Z 14005KT CAVOK 07/07 Q1024=
201910120000 METAR LRAR 120000Z 14006KT CAVOK 07/07 Q1024=
201910120030 METAR LRAR 120030Z 13004KT CAVOK 06/06 Q1024=
201910120100 METAR LRAR 120100Z 13004KT CAVOK 06/06 Q1024=
201910120130 METAR LRAR 120130Z 13006KT CAVOK 07/07 Q1024=
201910120200 METAR LRAR 120200Z 13007KT CAVOK 08/07 Q1024=
201910120230 METAR LRAR 120230Z 13009KT CAVOK 09/07 Q1024=
201910120300 METAR LRAR 120300Z 13008KT CAVOK 09/07 Q1024=
201910120330 METAR LRAR 120330Z 14008KT CAVOK 08/07 Q1024=
201910120400 METAR LRAR 120400Z 13008KT CAVOK 08/07 Q1024=
201910120430 METAR LRAR 120430Z 13008KT CAVOK 07/06 Q1023=
201910120500 METAR LRAR 120500Z 14007KT CAVOK 07/06 Q1024=
201910120530 METAR LRAR 120530Z 14007KT CAVOK 08/07 Q1023=
201910120600 METAR LRAR 120600Z 13008KT CAVOK 10/07 Q1024=
201910120630 METAR LRAR 120630Z 13009KT CAVOK 11/07 Q1024=
201910120700 METAR LRAR 120700Z 14010KT CAVOK 13/07 Q1024=
201910120730 METAR LRAR 120730Z 14010KT CAVOK 14/07 Q1024=
201910120800 METAR LRAR 120800Z 15009KT CAVOK 16/07 Q1024=
201910120830 METAR LRAR 120830Z 14008KT CAVOK 17/08 Q1024=
201910120900 METAR LRAR 120900Z 16009KT CAVOK 19/05 Q1024=
201910120930 METAR LRAR 120930Z 17008KT CAVOK 20/05 Q1024=
201910121000 METAR LRAR 121000Z 20010KT 160V230 CAVOK 21/05 Q1023=
201910121030 METAR LRAR 121030Z 19010KT 160V230 CAVOK 21/05 Q1023=
201910121100 METAR LRAR 121100Z 21009KT CAVOK 21/06 Q1023=
201910121130 METAR LRAR 121130Z 20008KT 170V230 CAVOK 22/07 Q1023=
201910121200 METAR LRAR 121200Z 20008KT 170V230 CAVOK 22/07 Q1023=
201910121230 METAR LRAR 121230Z 21007KT 160V230 CAVOK 22/07 Q1022=
201910121300 METAR LRAR 121300Z 21005KT 180V240 CAVOK 23/07 Q1022=
201910121330 METAR LRAR 121330Z 23006KT CAVOK 23/07 Q1022=
201910121400 METAR LRAR 121400Z 23005KT CAVOK 23/08 Q1022=
201910121430 METAR LRAR 121430Z 21003KT CAVOK 23/08 Q1022=
201910121500 METAR LRAR 121500Z 21003KT CAVOK 23/09 Q1021=
201910121530 METAR LRAR 121530Z 15002KT CAVOK 22/10 Q1021=
201910121600 METAR LRAR 121600Z 15003KT CAVOK 17/11 Q1021=
201910121630 METAR LRAR 121630Z 16003KT CAVOK 15/10 Q1021=
201910121700 METAR LRAR 121700Z 16003KT CAVOK 15/10 Q1021=
201910121730 METAR LRAR 121730Z VRB01KT CAVOK 14/10 Q1022=
201910121800 METAR LRAR 121800Z 00000KT CAVOK 13/10 Q1022=
201910121830 METAR LRAR 121830Z 27001KT CAVOK 12/09 Q1022=
201910121900 METAR LRAR 121900Z 00000KT CAVOK 12/11 Q1022=
201910121930 METAR LRAR 121930Z 14003KT CAVOK 12/10 Q1022=
201910122000 METAR LRAR 122000Z 14004KT CAVOK 13/08 Q1022=
201910122030 METAR LRAR 122030Z 14007KT CAVOK 12/08 Q1022=
201910122100 METAR LRAR 122100Z 15005KT CAVOK 12/08 Q1022=
201910122130 METAR LRAR 122130Z 14007KT CAVOK 12/08 Q1022=
201910122200 METAR LRAR 122200Z 14005KT CAVOK 11/08 Q1022=
201910122230 METAR LRAR 122230Z 13003KT CAVOK 11/07 Q1022=
201910122300 METAR LRAR 122300Z 14005KT CAVOK 11/07 Q1022=
201910122330 METAR LRAR 122330Z 14004KT CAVOK 11/07 Q1022=
201910130000 METAR LRAR 130000Z 14006KT CAVOK 10/07 Q1022=
201910130030 METAR LRAR 130030Z 13004KT CAVOK 11/07 Q1022=
201910130100 METAR LRAR 130100Z 14005KT CAVOK 11/07 Q1022=
201910130130 METAR LRAR 130130Z 14006KT CAVOK 10/07 Q1022=
201910130200 METAR LRAR 130200Z 14006KT CAVOK 10/07 Q1022=
201910130230 METAR LRAR 130230Z 14006KT CAVOK 10/07 Q1022=
201910130300 METAR LRAR 130300Z 14006KT CAVOK 10/07 Q1022=
201910130330 METAR LRAR 130330Z 14005KT CAVOK 09/07 Q1022=
201910130400 METAR LRAR 130400Z 14005KT CAVOK 10/07 Q1022=
201910130430 METAR LRAR 130430Z 13006KT CAVOK 10/07 Q1022=
201910130500 METAR LRAR 130500Z 14005KT CAVOK 10/07 Q1023=
201910130530 METAR LRAR 130530Z 14006KT CAVOK 11/07 Q1023=
201910130600 METAR LRAR 130600Z 15005KT CAVOK 12/08 Q1023=
201910130630 METAR LRAR 130630Z 14006KT CAVOK 14/09 Q1023=
201910130700 METAR LRAR 130700Z 14007KT CAVOK 16/08 Q1023=
201910130730 METAR LRAR 130730Z 15007KT CAVOK 17/09 Q1023=
201910130800 METAR LRAR 130800Z 14007KT CAVOK 19/09 Q1023=
201910130830 METAR LRAR 130830Z 17004KT 150V210 CAVOK 20/09 Q1023=
201910130900 METAR LRAR 130900Z 16004KT 140V200 CAVOK 21/09 Q1023=
201910130930 METAR LRAR 130930Z 12003KT 040V200 CAVOK 22/09 Q1023=
201910131000 METAR LRAR 131000Z 18003KT 100V230 CAVOK 23/08 Q1023=
201910131030 METAR LRAR 131030Z VRB03KT CAVOK 23/09 Q1023=
201910131100 METAR LRAR 131100Z VRB04KT CAVOK 24/09 Q1022=
201910131130 METAR LRAR 131130Z VRB03KT CAVOK 24/07 Q1022=
201910131200 METAR LRAR 131200Z 15004KT 100V270 CAVOK 25/07 Q1022=
201910131230 METAR LRAR 131230Z 14003KT 090V230 CAVOK 24/07 Q1022=
201910131300 METAR LRAR 131300Z VRB02KT CAVOK 24/07 Q1022=
201910131330 METAR LRAR 131330Z VRB01KT CAVOK 25/07 Q1021=
201910131400 METAR LRAR 131400Z VRB01KT CAVOK 24/08 Q1021=
201910131430 METAR LRAR 131430Z VRB02KT CAVOK 24/08 Q1021=
201910131500 METAR LRAR 131500Z 02001KT CAVOK 24/08 Q1021=
201910131530 METAR LRAR 131530Z 36003KT CAVOK 23/08 Q1021=
201910131600 METAR LRAR 131600Z 00000KT CAVOK 19/12 Q1021=
201910131630 METAR LRAR 131630Z 30002KT CAVOK 17/12 Q1021=
201910131700 METAR LRAR 131700Z 30001KT CAVOK 16/12 Q1021=
201910131730 METAR LRAR 131730Z 00000KT CAVOK 15/11 Q1022=
201910131800 METAR LRAR 131800Z 05001KT CAVOK 16/11 Q1022=
201910131830 METAR LRAR 131830Z 00000KT CAVOK 15/10 Q1022=
201910131900 METAR LRAR 131900Z 06001KT CAVOK 14/10 Q1022=
201910131930 METAR LRAR 131930Z 00000KT CAVOK 13/10 Q1022=
201910132000 METAR LRAR 132000Z 11003KT CAVOK 13/10 Q1022=
201910132030 METAR LRAR 132030Z 13003KT CAVOK 13/10 Q1022=
201910132100 METAR LRAR 132100Z 14003KT CAVOK 13/10 Q1022=
201910132130 METAR LRAR 132130Z 14002KT CAVOK 13/09 Q1022=
201910132200 METAR LRAR 132200Z 13002KT CAVOK 13/09 Q1022=
201910132230 METAR LRAR 132230Z 13004KT CAVOK 11/09 Q1022=
201910132300 METAR LRAR 132300Z 13004KT CAVOK 12/09 Q1021=
201910132330 METAR LRAR 132330Z 14007KT CAVOK 11/09 Q1021=
201910140000 METAR LRAR 140000Z 14008KT CAVOK 13/09 Q1021=
201910140030 METAR LRAR 140030Z 13008KT CAVOK 13/08 Q1021=
201910140100 METAR LRAR 140100Z 14007KT CAVOK 14/08 Q1021=
201910140130 METAR LRAR 140130Z 15008KT CAVOK 14/08 Q1021=
201910140200 METAR LRAR 140200Z 15008KT CAVOK 13/08 Q1021=
201910140230 METAR LRAR 140230Z 14006KT CAVOK 13/08 Q1021=
201910140300 METAR LRAR 140300Z 15008KT CAVOK 13/08 Q1021=
201910140330 METAR LRAR 140330Z 14006KT CAVOK 13/08 Q1021=
201910140400 METAR LRAR 140400Z 14003KT CAVOK 13/08 Q1021=
201910140430 METAR LRAR 140430Z 14007KT CAVOK 12/08 Q1021=
201910140500 METAR LRAR 140500Z 15006KT CAVOK 11/08 Q1021=
201910140530 METAR LRAR 140530Z 14006KT CAVOK 12/08 Q1021=
201910140600 METAR LRAR 140600Z 14006KT CAVOK 13/09 Q1022=
201910140630 METAR LRAR 140630Z 14006KT CAVOK 15/09 Q1022=
201910140700 METAR LRAR 140700Z 14008KT CAVOK 17/09 Q1022=
201910140730 METAR LRAR 140730Z 15006KT CAVOK 19/09 Q1022=
201910140800 METAR LRAR 140800Z 16007KT CAVOK 20/10 Q1022=
201910140830 METAR LRAR 140830Z 19006KT 160V220 CAVOK 21/10 Q1022=
201910140900 METAR LRAR 140900Z 21005KT 160V250 CAVOK 22/11 Q1022=
201910140930 METAR LRAR 140930Z 21004KT 150V260 CAVOK 23/11 Q1022=
201910141000 METAR LRAR 141000Z 22004KT 180V240 CAVOK 23/10 Q1021=
201910141030 METAR LRAR 141030Z 20005KT 160V230 CAVOK 24/10 Q1021=
201910141100 METAR LRAR 141100Z VRB03KT CAVOK 25/10 Q1021=
201910141130 METAR LRAR 141130Z 24005KT 210V280 CAVOK 25/10 Q1020=
201910141200 METAR LRAR 141200Z 20004KT 160V270 CAVOK 25/09 Q1020=
201910141230 METAR LRAR 141230Z VRB04KT CAVOK 26/09 Q1019=
201910141300 METAR COR LRAR 141300Z VRB02KT CAVOK 26/09 Q1019=
201910141330 METAR LRAR 141330Z 28003KT 210V330 CAVOK 26/09 Q1019=
201910141400 METAR LRAR 141400Z 33003KT 300V020 CAVOK 25/11 Q1019=
201910141430 METAR LRAR 141430Z 34002KT CAVOK 25/11 Q1019=
201910141500 METAR LRAR 141500Z 35001KT CAVOK 24/11 Q1019=
201910141530 METAR LRAR 141530Z 35003KT CAVOK 23/11 Q1019=
201910141600 METAR LRAR 141600Z 00000KT CAVOK 20/12 Q1019=
201910141630 METAR LRAR 141630Z VRB02KT CAVOK 19/13 Q1019=
201910141700 METAR LRAR 141700Z 07004KT CAVOK 18/12 Q1019=
201910141730 METAR LRAR 141730Z 08004KT CAVOK 19/11 Q1019=
201910141800 METAR LRAR 141800Z 06004KT CAVOK 18/11 Q1019=
201910141830 METAR LRAR 141830Z VRB01KT CAVOK 16/11 Q1019=
201910141900 METAR LRAR 141900Z VRB02KT CAVOK 17/11 Q1019=
201910141930 METAR LRAR 141930Z 10003KT CAVOK 15/11 Q1019=
201910142000 METAR LRAR 142000Z 13003KT CAVOK 15/11 Q1019=
201910142030 METAR LRAR 142030Z VRB02KT CAVOK 15/10 Q1018=
201910142100 METAR LRAR 142100Z 14004KT CAVOK 15/10 Q1019=
201910142130 METAR LRAR 142130Z 11004KT CAVOK 14/10 Q1018=
201910142200 METAR LRAR 142200Z 14004KT CAVOK 14/10 Q1018=
201910142230 METAR LRAR 142230Z 14005KT CAVOK 13/10 Q1018=
201910142300 METAR LRAR 142300Z 14006KT CAVOK 13/10 Q1018=
201910142330 METAR LRAR 142330Z 14008KT CAVOK 14/10 Q1018=
201910150000 METAR LRAR 150000Z 14008KT CAVOK 14/10 Q1018=
201910150030 METAR LRAR 150030Z 14007KT CAVOK 14/10 Q1018=
201910150100 METAR LRAR 150100Z 14007KT CAVOK 14/10 Q1017=
201910150130 METAR LRAR 150130Z 14007KT CAVOK 14/10 Q1017=
201910150200 METAR LRAR 150200Z 14008KT CAVOK 14/09 Q1017=
201910150230 METAR LRAR 150230Z 14008KT CAVOK 14/09 Q1017=
201910150300 METAR LRAR 150300Z 14008KT CAVOK 14/09 Q1017=
201910150330 METAR LRAR 150330Z 14007KT CAVOK 13/09 Q1017=
201910150400 METAR LRAR 150400Z 14008KT CAVOK 13/09 Q1017=
201910150430 METAR LRAR 150430Z 14008KT CAVOK 13/09 Q1017=
201910150500 METAR LRAR 150500Z 14008KT CAVOK 13/09 Q1017=
201910150530 METAR LRAR 150530Z 14008KT CAVOK 14/09 Q1017=
201910150600 METAR LRAR 150600Z 14008KT CAVOK 15/09 Q1017=
201910150630 METAR LRAR 150630Z 14009KT CAVOK 17/10 Q1017=
201910150700 METAR LRAR 150700Z 14009KT CAVOK 19/10 Q1017=
201910150730 METAR LRAR 150730Z 14009KT CAVOK 20/10 Q1017=
201910150800 METAR LRAR 150800Z 15009KT CAVOK 22/10 Q1017=
201910150830 METAR LRAR 150830Z 15009KT CAVOK 23/10 Q1017=
201910150900 METAR LRAR 150900Z 18008KT 150V220 CAVOK 24/09 Q1017=
201910150930 METAR LRAR 150930Z 17008KT 140V220 CAVOK 24/09 Q1017=
201910151000 METAR LRAR 151000Z 19008KT 150V220 CAVOK 25/09 Q1017=
201910151030 METAR LRAR 151030Z 20010KT 170V240 CAVOK 26/09 Q1016=
201910151100 METAR LRAR 151100Z 21009KT 170V240 CAVOK 26/10 Q1016=
201910151130 METAR LRAR 151130Z 21009KT 180V240 CAVOK 26/09 Q1016=
201910151200 METAR LRAR 151200Z 21010KT 170V240 CAVOK 26/10 Q1015=
201910151230 METAR LRAR 151230Z 20008KT 150V220 CAVOK 27/09 Q1015=
201910151300 METAR LRAR 151300Z 19009KT 150V230 CAVOK 27/09 Q1015=
201910151330 METAR LRAR 151330Z 19009KT 160V220 CAVOK 27/09 Q1015=
201910151400 METAR LRAR 151400Z 20009KT 170V230 CAVOK 27/09 Q1014=
201910151430 METAR LRAR 151430Z 20006KT CAVOK 26/09 Q1014=
201910151500 METAR LRAR 151500Z 22005KT CAVOK 25/10 Q1014=
201910151530 METAR LRAR 151530Z 21004KT CAVOK 24/10 Q1014=
201910151600 METAR LRAR 151600Z 20003KT CAVOK 21/11 Q1014=
201910151630 METAR LRAR 151630Z 19003KT CAVOK 18/11 Q1014=
201910151700 METAR LRAR 151700Z 18002KT CAVOK 17/12 Q1014=
201910151730 METAR LRAR 151730Z 20004KT CAVOK 16/11 Q1014=
201910151800 METAR LRAR 151800Z 20002KT CAVOK 15/11 Q1014=
201910151830 METAR LRAR 151830Z 16002KT CAVOK 16/11 Q1015=
201910151900 METAR LRAR 151900Z 13003KT CAVOK 15/10 Q1015=
201910151930 METAR LRAR 151930Z 13004KT CAVOK 15/10 Q1015=
201910152000 METAR LRAR 152000Z 15005KT CAVOK 14/10 Q1015=
201910152030 METAR LRAR 152030Z 15005KT CAVOK 14/10 Q1015=
201910152100 METAR LRAR 152100Z 15005KT CAVOK 14/10 Q1015=
201910152130 METAR LRAR 152130Z 14003KT CAVOK 13/10 Q1015=
201910152200 METAR LRAR 152200Z 14006KT CAVOK 13/10 Q1015=
201910152230 METAR LRAR 152230Z VRB02KT CAVOK 13/09 Q1015=
201910152300 METAR LRAR 152300Z 14007KT CAVOK 13/10 Q1015=
201910152330 METAR LRAR 152330Z VRB02KT CAVOK 12/10 Q1015=
201910160000 METAR LRAR 160000Z 13005KT CAVOK 12/09 Q1015=
201910160030 METAR LRAR 160030Z 14005KT CAVOK 12/09 Q1015=
201910160100 METAR LRAR 160100Z 14006KT CAVOK 13/09 Q1015=
201910160130 METAR LRAR 160130Z 14007KT CAVOK 13/09 Q1015=
201910160200 METAR LRAR 160200Z 14006KT CAVOK 12/09 Q1015=
201910160230 METAR LRAR 160230Z 13005KT CAVOK 12/09 Q1015=
201910160300 METAR LRAR 160300Z 14005KT CAVOK 11/09 Q1015=
201910160330 METAR LRAR 160330Z 14006KT CAVOK 12/09 Q1015=
201910160400 METAR LRAR 160400Z 14006KT CAVOK 12/09 Q1015=
201910160430 METAR LRAR 160430Z 14007KT CAVOK 12/09 Q1014=
201910160500 METAR LRAR 160500Z 15004KT CAVOK 11/08 Q1015=
201910160530 METAR LRAR 160530Z 15004KT CAVOK 12/09 Q1015=
201910160600 METAR LRAR 160600Z 15005KT CAVOK 13/10 Q1015=
201910160630 METAR LRAR 160630Z 15006KT CAVOK 15/10 Q1016=
201910160700 METAR LRAR 160700Z 15006KT CAVOK 17/11 Q1016=
201910160730 METAR LRAR 160730Z 18007KT 150V210 CAVOK 20/10 Q1016=
201910160800 METAR LRAR 160800Z 20010KT CAVOK 21/09 Q1016=
201910160830 METAR LRAR 160830Z 21011KT CAVOK 21/10 Q1016=
201910160900 METAR LRAR 160900Z 21011KT CAVOK 22/10 Q1016=
201910160930 METAR LRAR 160930Z 21009KT 170V230 CAVOK 23/10 Q1016=
201910161000 METAR LRAR 161000Z 21008KT 170V240 CAVOK 24/09 Q1016=
201910161030 METAR LRAR 161030Z 22007KT 190V260 CAVOK 25/08 Q1016=
201910161100 METAR LRAR 161100Z 22008KT CAVOK 25/06 Q1016=
201910161130 METAR LRAR 161130Z 22006KT 190V250 CAVOK 26/08 Q1015=
201910161200 METAR LRAR 161200Z 25007KT 190V280 CAVOK 26/07 Q1015=
201910161230 METAR LRAR 161230Z 25006KT 220V280 CAVOK 27/07 Q1015=
201910161300 METAR LRAR 161300Z 23006KT 200V280 CAVOK 26/07 Q1015=
201910161330 METAR LRAR 161330Z 26005KT CAVOK 26/07 Q1015=
201910161400 METAR LRAR 161400Z 27005KT 240V320 CAVOK 26/07 Q1015=
201910161430 METAR LRAR 161430Z 29005KT CAVOK 26/06 Q1015=
201910161500 METAR LRAR 161500Z 29004KT CAVOK 24/07 Q1015=
201910161530 METAR LRAR 161530Z 32004KT CAVOK 22/07 Q1015=
201910161600 METAR LRAR 161600Z 30002KT CAVOK 20/09 Q1015=
201910161630 METAR LRAR 161630Z 00000KT CAVOK 17/10 Q1016=
201910161700 METAR LRAR 161700Z 27001KT CAVOK 16/10 Q1016=
201910161730 METAR LRAR 161730Z 00000KT CAVOK 15/10 Q1016=
201910161800 METAR LRAR 161800Z 26001KT CAVOK 15/09 Q1016=
201910161830 METAR LRAR 161830Z AUTO 28002KT 240V320 9999 NCD 13/09 Q1017=
201910161900 METAR LRAR 161900Z VRB01KT CAVOK 13/09 Q1017=
201910161930 METAR LRAR 161930Z 00000KT CAVOK 13/09 Q1017=
201910162000 METAR LRAR 162000Z 28002KT CAVOK 12/08 Q1017=
201910162030 METAR LRAR 162030Z 29004KT CAVOK 11/08 Q1017=
201910162100 METAR LRAR 162100Z VRB01KT CAVOK 11/08 Q1017=
201910162130 METAR LRAR 162130Z 29004KT CAVOK 10/08 Q1018=
201910162200 METAR LRAR 162200Z 31003KT CAVOK 10/08 Q1018=
201910162230 METAR LRAR 162230Z 01002KT 330V060 CAVOK 10/08 Q1018=
201910162300 METAR LRAR 162300Z 33004KT CAVOK 11/09 Q1018=
201910162330 METAR LRAR 162330Z VRB01KT CAVOK 11/09 Q1018=
201910170000 METAR LRAR 170000Z VRB01KT CAVOK 12/10 Q1018=
201910170030 METAR LRAR 170030Z 00000KT CAVOK 11/10 Q1018=
201910170100 METAR LRAR 170100Z 33001KT CAVOK 10/10 Q1018=
201910170130 METAR LRAR 170130Z VRB01KT CAVOK 09/09 Q1018=
201910170200 METAR LRAR 170200Z 10002KT CAVOK 10/10 Q1018=
201910170230 METAR LRAR 170230Z 10003KT CAVOK 10/10 Q1018=
201910170300 METAR LRAR 170300Z VRB01KT CAVOK 10/10 Q1018=
201910170330 METAR LRAR 170330Z 00000KT CAVOK 09/09 Q1018=
201910170400 METAR LRAR 170400Z VRB02KT CAVOK 08/08 Q1018=
201910170430 METAR LRAR 170430Z VRB02KT CAVOK 08/08 Q1018=
201910170500 METAR COR LRAR 170500Z VRB02KT 8000 NSC 08/08 Q1019=
201910170530 METAR LRAR 170530Z 00000KT 5000 BR NSC 08/08 Q1019=
201910170600 METAR LRAR 170600Z VRB01KT 6000 NSC 10/10 Q1019=
201910170630 METAR LRAR 170630Z VRB02KT 6000 NSC 13/11 Q1019=
201910170700 METAR LRAR 170700Z 13002KT 110V170 7000 NSC 14/11 Q1019=
201910170730 METAR LRAR 170730Z 12003KT 090V150 CAVOK 16/11 Q1019=
201910170800 METAR LRAR 170800Z 15003KT 100V180 CAVOK 18/11 Q1019=
201910170830 METAR LRAR 170830Z VRB01KT CAVOK 19/11 Q1019=
201910170900 METAR LRAR 170900Z 36002KT 310V070 CAVOK 20/12 Q1019=
201910170930 METAR LRAR 170930Z VRB02KT CAVOK 22/12 Q1019=
201910171000 METAR LRAR 171000Z 26003KT 210V350 CAVOK 22/10 Q1019=
201910171030 METAR LRAR 171030Z VRB02KT CAVOK 22/12 Q1019=
201910171100 METAR LRAR 171100Z VRB02KT CAVOK 24/11 Q1019=
201910171130 METAR LRAR 171130Z 20002KT 130V300 CAVOK 24/10 Q1018=
201910171200 METAR LRAR 171200Z VRB02KT CAVOK 24/10 Q1018=
201910171230 METAR LRAR 171230Z 01002KT 290V080 CAVOK 24/10 Q1018=
201910171300 METAR LRAR 171300Z VRB02KT CAVOK 25/10 Q1018=
201910171330 METAR LRAR 171330Z VRB02KT CAVOK 25/10 Q1017=
201910171400 METAR COR LRAR 171400Z 32002KT 270V030 CAVOK 24/10 Q1018=
201910171430 METAR LRAR 171430Z 32002KT 300V360 CAVOK 24/10 Q1017=
201910171500 METAR LRAR 171500Z 35003KT CAVOK 23/11 Q1017=
201910171530 METAR LRAR 171530Z VRB02KT CAVOK 21/11 Q1017=
201910171600 METAR LRAR 171600Z 36003KT CAVOK 20/11 Q1017=
201910171630 METAR LRAR 171630Z 29001KT CAVOK 17/12 Q1018=
201910171700 METAR LRAR 171700Z VRB01KT CAVOK 17/12 Q1018=
201910171730 METAR LRAR 171730Z 00000KT CAVOK 16/12 Q1018=
201910171800 METAR LRAR 171800Z 00000KT CAVOK 15/12 Q1018=
201910171830 METAR LRAR 171830Z 10003KT CAVOK 15/11 Q1018=
201910171900 METAR LRAR 171900Z 10003KT CAVOK 15/11 Q1018=
201910171930 METAR LRAR 171930Z 00000KT CAVOK 13/11 Q1018=
201910172000 METAR LRAR 172000Z 10002KT CAVOK 13/12 Q1018=
201910172030 METAR LRAR 172030Z 09002KT CAVOK 15/11 Q1018=
201910172100 METAR LRAR 172100Z 13001KT CAVOK 13/11 Q1018=
201910172130 METAR LRAR 172130Z VRB02KT CAVOK 12/10 Q1018=
201910172200 METAR LRAR 172200Z VRB01KT CAVOK 12/11 Q1018=
201910172230 METAR LRAR 172230Z 14003KT CAVOK 12/12 Q1018=
201910172300 METAR LRAR 172300Z 14003KT CAVOK 13/11 Q1018=
201910172330 METAR LRAR 172330Z 15003KT CAVOK 13/11 Q1018=
201910180000 METAR LRAR 180000Z 15004KT CAVOK 12/11 Q1017=
201910180030 METAR LRAR 180030Z 15003KT CAVOK 13/11 Q1017=
201910180100 METAR LRAR 180100Z 14002KT CAVOK 12/10 Q1017=
201910180130 METAR LRAR 180130Z 15002KT CAVOK 13/10 Q1017=
201910180200 METAR LRAR 180200Z VRB01KT CAVOK 13/10 Q1017=
201910180230 METAR LRAR 180230Z VRB02KT CAVOK 13/10 Q1017=
201910180300 METAR LRAR 180300Z 14002KT CAVOK 12/10 Q1017=
201910180330 METAR LRAR 180330Z VRB01KT CAVOK 11/10 Q1017=
201910180400 METAR LRAR 180400Z 13001KT CAVOK 12/10 Q1017=
201910180430 METAR LRAR 180430Z 00000KT CAVOK 10/09 Q1017=
201910180500 METAR LRAR 180500Z VRB02KT 9999 MIFG NSC 09/09 Q1017=
201910180530 METAR LRAR 180530Z 14005KT CAVOK 12/10 Q1017=
201910180600 METAR LRAR 180600Z 14005KT CAVOK 13/11 Q1018=
201910180630 METAR LRAR 180630Z 13004KT CAVOK 14/12 Q1018=
201910180700 METAR LRAR 180700Z 14006KT CAVOK 17/11 Q1018=
201910180730 METAR LRAR 180730Z 15006KT CAVOK 19/11 Q1018=
201910180800 METAR LRAR 180800Z 16005KT 140V210 CAVOK 20/11 Q1018=
201910180830 METAR LRAR 180830Z 20006KT 160V240 CAVOK 21/11 Q1018=
201910180900 METAR LRAR 180900Z 22007KT 190V250 CAVOK 21/11 Q1018=
201910180930 METAR LRAR 180930Z 20008KT CAVOK 22/11 Q1017=
201910181000 METAR LRAR 181000Z 22008KT CAVOK 23/11 Q1017=
201910181030 METAR LRAR 181030Z 21008KT 180V240 CAVOK 23/10 Q1017=
201910181100 METAR LRAR 181100Z 22007KT 180V250 CAVOK 23/10 Q1016=
201910181130 METAR LRAR 181130Z 23008KT CAVOK 24/10 Q1016=
201910181200 METAR LRAR 181200Z 23007KT 190V250 CAVOK 24/10 Q1016=
201910181230 METAR LRAR 181230Z 23008KT 200V260 CAVOK 24/10 Q1016=
201910181300 METAR LRAR 181300Z 21006KT 170V240 CAVOK 24/11 Q1015=
201910181330 METAR LRAR 181330Z 24005KT 190V280 CAVOK 25/11 Q1015=
201910181400 METAR LRAR 181400Z 23007KT CAVOK 24/11 Q1015=
201910181430 METAR LRAR 181430Z 23005KT CAVOK 23/11 Q1015=
201910181500 METAR LRAR 181500Z 24004KT CAVOK 22/12 Q1015=
201910181530 METAR LRAR 181530Z 23002KT 8000 NSC 20/13 Q1015=
201910181600 METAR LRAR 181600Z 20002KT 7000 18/13 Q1016=
201910181630 METAR COR LRAR 181630Z 21003KT 8000 NSC 17/12 Q1016=
201910181700 METAR LRAR 181700Z 21003KT 7000 NSC 16/12 Q1016=
201910181730 METAR LRAR 181730Z 22003KT 6000 NSC 16/11 Q1016=
201910181800 METAR LRAR 181800Z 16001KT 5000 BR NSC 15/11 Q1016=
201910181830 METAR LRAR 181830Z 21003KT 6000 NSC 15/11 Q1016=
201910181900 METAR LRAR 181900Z 22004KT 6000 NSC 15/11 Q1017=
201910181930 METAR LRAR 181930Z 21003KT 6000 NSC 14/10 Q1017=
201910182000 METAR LRAR 182000Z 16001KT 6000 NSC 13/10 Q1017=
201910182030 METAR LRAR 182030Z 16001KT 5000 BR NSC 12/10 Q1017=
201910182100 METAR LRAR 182100Z 18002KT 5000 BR NSC 12/10 Q1017=
201910182130 METAR LRAR 182130Z 00000KT 5000 BR NSC 11/10 Q1017=
201910182200 METAR LRAR 182200Z 14002KT 5000 BR NSC 11/10 Q1017=
201910182230 METAR LRAR 182230Z 14004KT 6000 NSC 12/09 Q1017=
201910182300 METAR LRAR 182300Z 14005KT 6000 NSC 11/09 Q1017=
201910182330 METAR LRAR 182330Z 15003KT 6000 NSC 12/09 Q1017=
201910190000 METAR LRAR 190000Z 15004KT 6000 NSC 11/09 Q1017=
201910190030 METAR LRAR 190030Z 15004KT 6000 NSC 12/10 Q1017=
201910190100 METAR LRAR 190100Z 15002KT 8000 NSC 12/10 Q1017=
201910190130 METAR LRAR 190130Z 00000KT 5000 BR NSC 11/10 Q1017=
201910190200 METAR LRAR 190200Z 14003KT 6000 NSC 11/10 Q1017=
201910190230 METAR LRAR 190230Z 14003KT 6000 NSC 11/10 Q1017=
201910190300 METAR LRAR 190300Z 14006KT 6000 NSC 12/11 Q1017=
201910190330 METAR LRAR 190330Z 13005KT 8000 NSC 12/11 Q1017=
201910190400 METAR LRAR 190400Z 13004KT CAVOK 12/11 Q1017=
201910190430 METAR LRAR 190430Z 13005KT CAVOK 11/11 Q1017=
201910190500 METAR LRAR 190500Z 13003KT 7000 NSC 12/11 Q1017=
201910190530 METAR LRAR 190530Z 13004KT 8000 NSC 12/11 Q1017=
201910190600 METAR LRAR 190600Z 13005KT CAVOK 13/12 Q1018=
201910190630 METAR LRAR 190630Z 14005KT CAVOK 15/12 Q1018=
201910190700 METAR LRAR 190700Z 13005KT CAVOK 17/12 Q1018=
201910190730 METAR LRAR 190730Z 14006KT CAVOK 18/12 Q1018=
201910190800 METAR LRAR 190800Z 14006KT 110V170 CAVOK 19/12 Q1018=
201910190830 METAR LRAR 190830Z 15006KT CAVOK 21/12 Q1018=
201910190900 METAR LRAR 190900Z 17006KT 140V220 CAVOK 22/12 Q1018=
201910190930 METAR LRAR 190930Z 20005KT 160V240 CAVOK 22/11 Q1017=
201910191000 METAR LRAR 191000Z 21008KT 180V250 CAVOK 22/11 Q1017=
201910191030 METAR LRAR 191030Z 17008KT CAVOK 23/10 Q1017=
201910191100 METAR LRAR 191100Z 19008KT 150V230 CAVOK 23/10 Q1017=
201910191130 METAR LRAR 191130Z 22010KT CAVOK 23/10 Q1016=
201910191200 METAR LRAR 191200Z 21009KT CAVOK 24/11 Q1016=
201910191230 METAR LRAR 191230Z 21007KT 160V240 CAVOK 24/11 Q1016=
201910191300 METAR LRAR 191300Z 19008KT 160V220 CAVOK 24/11 Q1016=
201910191330 METAR LRAR 191330Z 20008KT 160V230 CAVOK 24/11 Q1016=
201910191400 METAR LRAR 191400Z 21007KT 170V240 CAVOK 24/11 Q1016=
201910191430 METAR LRAR 191430Z 21006KT CAVOK 24/11 Q1016=
201910191500 METAR LRAR 191500Z 23005KT CAVOK 22/11 Q1016=
201910191530 METAR LRAR 191530Z 22004KT CAVOK 21/12 Q1016=
201910191600 METAR LRAR 191600Z 21004KT CAVOK 20/12 Q1017=
201910191630 METAR LRAR 191630Z 20004KT CAVOK 18/11 Q1017=
201910191700 METAR LRAR 191700Z 20005KT 9000 NSC 16/11 Q1017=
201910191730 METAR LRAR 191730Z 19005KT 9000 NSC 17/11 Q1017=
201910191800 METAR LRAR 191800Z 23003KT 180V310 8000 NSC 15/11 Q1017=
201910191830 METAR LRAR 191830Z 20003KT 8000 NSC 15/11 Q1017=
201910191900 METAR LRAR 191900Z 19003KT 7000 NSC 15/11 Q1017=
201910191930 METAR LRAR 191930Z VRB02KT 7000 NSC 15/10 Q1017=
201910192000 METAR LRAR 192000Z 18003KT 7000 NSC 14/10 Q1018=
201910192030 METAR LRAR 192030Z 00000KT 7000 NSC 14/10 Q1018=
201910192100 METAR LRAR 192100Z 00000KT 7000 NSC 13/10 Q1018=
201910192130 METAR LRAR 192130Z 15003KT 7000 NSC 13/10 Q1018=
201910192200 METAR LRAR 192200Z 15004KT 7000 NSC 12/10 Q1018=
201910192230 METAR LRAR 192230Z 14004KT 7000 NSC 12/10 Q1018=
201910192300 METAR LRAR 192300Z 15004KT 7000 NSC 12/10 Q1018=
201910192330 METAR LRAR 192330Z 14006KT 7000 NSC 12/10 Q1018=
201910200000 METAR LRAR 200000Z 14006KT 7000 NSC 12/09 Q1018=
201910200030 METAR LRAR 200030Z 13003KT 7000 NSC 11/10 Q1018=
201910200100 METAR LRAR 200100Z 13003KT 7000 NSC 12/10 Q1018=
201910200130 METAR LRAR 200130Z 13003KT 7000 NSC 12/10 Q1018=
201910200200 METAR LRAR 200200Z 12003KT 9000 NSC 12/10 Q1018=
201910200230 METAR LRAR 200230Z 13006KT 9000 NSC 12/11 Q1019=
201910200300 METAR LRAR 200300Z 13003KT 090V160 8000 NSC 12/11 Q1019=
201910200330 METAR LRAR 200330Z 13006KT CAVOK 12/11 Q1019=
201910200400 METAR LRAR 200400Z 13006KT CAVOK 12/11 Q1019=
201910200430 METAR LRAR 200430Z 13005KT CAVOK 12/11 Q1019=
201910200500 METAR LRAR 200500Z 13005KT CAVOK 12/11 Q1019=
201910200530 METAR LRAR 200530Z 14008KT CAVOK 13/11 Q1019=
201910200600 METAR LRAR 200600Z 13006KT CAVOK 14/12 Q1019=
201910200630 METAR LRAR 200630Z 14007KT CAVOK 16/12 Q1019=
201910200700 METAR LRAR 200700Z 14007KT CAVOK 17/12 Q1019=
201910200730 METAR LRAR 200730Z 15008KT CAVOK 19/11 Q1020=
201910200800 METAR LRAR 200800Z 15007KT CAVOK 21/12 Q1020=
201910200830 METAR LRAR 200830Z 16007KT CAVOK 22/11 Q1020=
201910200900 METAR LRAR 200900Z 17008KT 130V200 CAVOK 23/10 Q1020=
201910200930 METAR LRAR 200930Z 18010KT 150V220 CAVOK 24/09 Q1020=
201910201000 METAR LRAR 201000Z 20012KT CAVOK 24/09 Q1020=
201910201030 METAR LRAR 201030Z 19011KT 150V220 CAVOK 24/09 Q1019=
201910201100 METAR LRAR 201100Z 19010KT 170V230 CAVOK 24/09 Q1019=
201910201130 METAR LRAR 201130Z 20010KT CAVOK 24/09 Q1019=
201910201200 METAR LRAR 201200Z 20008KT 160V230 CAVOK 26/09 Q1019=
201910201230 METAR LRAR 201230Z 19009KT 160V220 CAVOK 25/09 Q1019=
201910201300 METAR LRAR 201300Z 22009KT CAVOK 26/09 Q1019=
201910201330 METAR LRAR 201330Z 22008KT 190V250 CAVOK 26/09 Q1018=
201910201400 METAR LRAR 201400Z 22007KT CAVOK 26/08 Q1018=
201910201430 METAR LRAR 201430Z 22006KT CAVOK 25/08 Q1018=
201910201500 METAR LRAR 201500Z 23006KT CAVOK 24/09 Q1018=
201910201530 METAR LRAR 201530Z 22005KT CAVOK 22/09 Q1018=
201910201600 METAR LRAR 201600Z 22004KT CAVOK 20/10 Q1019=
201910201630 METAR LRAR 201630Z 20001KT CAVOK 18/10 Q1019=
201910201700 METAR LRAR 201700Z 20002KT CAVOK 16/10 Q1019=
201910201730 METAR LRAR 201730Z 21003KT CAVOK 16/10 Q1019=
201910201800 METAR LRAR 201800Z VRB01KT CAVOK 15/11 Q1019=
201910201830 METAR LRAR 201830Z 13003KT CAVOK 15/10 Q1019=
201910201900 METAR LRAR 201900Z 13004KT CAVOK 16/09 Q1020=
201910201930 METAR LRAR 201930Z 14005KT CAVOK 14/09 Q1020=
201910202000 METAR LRAR 202000Z 14004KT CAVOK 14/08 Q1020=
201910202030 METAR LRAR 202030Z 14005KT CAVOK 14/08 Q1020=
201910202100 METAR LRAR 202100Z 14004KT CAVOK 14/09 Q1020=
201910202130 METAR LRAR 202130Z 13004KT CAVOK 14/09 Q1020=
201910202200 METAR LRAR 202200Z 14005KT CAVOK 13/09 Q1020=
201910202230 METAR LRAR 202230Z 14005KT CAVOK 13/09 Q1020=
201910202300 METAR LRAR 202300Z 14005KT CAVOK 13/09 Q1020=
201910202330 METAR LRAR 202330Z 14005KT CAVOK 13/09 Q1020=
201910210000 METAR LRAR 210000Z 14005KT CAVOK 12/09 Q1020=
201910210030 METAR LRAR 210030Z 14005KT CAVOK 12/09 Q1020=
201910210100 METAR LRAR 210100Z 13003KT CAVOK 11/09 Q1020=
201910210130 METAR LRAR 210130Z 14007KT CAVOK 12/09 Q1020=
201910210200 METAR LRAR 210200Z 14006KT CAVOK 12/09 Q1021=
201910210230 METAR LRAR 210230Z 14004KT CAVOK 11/09 Q1021=
201910210300 METAR LRAR 210300Z 13004KT CAVOK 11/09 Q1021=
201910210330 METAR LRAR 210330Z 14004KT CAVOK 12/09 Q1021=
201910210400 METAR LRAR 210400Z 13006KT CAVOK 12/09 Q1021=
201910210430 METAR LRAR 210430Z 13004KT CAVOK 12/09 Q1021=
201910210500 METAR LRAR 210500Z 14007KT CAVOK 12/09 Q1021=
201910210530 METAR LRAR 210530Z 14008KT CAVOK 12/10 Q1021=
201910210600 METAR LRAR 210600Z 13005KT CAVOK 14/10 Q1021=
201910210630 METAR COR LRAR 210630Z 14007KT CAVOK 16/11 Q1022=
201910210700 METAR LRAR 210700Z 15007KT CAVOK 18/11 Q1022=
201910210730 METAR LRAR 210730Z 15008KT CAVOK 20/11 Q1022=
201910210800 METAR LRAR 210800Z 15008KT CAVOK 21/11 Q1022=
201910210830 METAR LRAR 210830Z 15009KT CAVOK 23/10 Q1022=
201910210900 METAR LRAR 210900Z 20006KT 160V240 CAVOK 24/10 Q1022=
201910210930 METAR LRAR 210930Z 19008KT 160V230 CAVOK 24/10 Q1022=
201910211000 METAR LRAR 211000Z 20009KT 170V230 CAVOK 25/10 Q1022=
201910211030 METAR LRAR 211030Z 22008KT 180V240 CAVOK 25/10 Q1022=
201910211100 METAR LRAR 211100Z 21008KT 180V260 CAVOK 25/10 Q1022=
201910211130 METAR LRAR 211130Z 21007KT 180V260 CAVOK 26/11 Q1022=
201910211200 METAR LRAR 211200Z 21008KT CAVOK 26/10 Q1022=
201910211230 METAR LRAR 211230Z 22007KT 190V250 CAVOK 26/10 Q1022=
201910211300 METAR LRAR 211300Z 21007KT CAVOK 26/10 Q1021=
201910211330 METAR LRAR 211330Z 22006KT CAVOK 26/10 Q1021=
201910211400 METAR LRAR 211400Z 20007KT CAVOK 26/10 Q1021=
201910211430 METAR LRAR 211430Z 21005KT CAVOK 26/10 Q1021=
201910211500 METAR LRAR 211500Z 20004KT CAVOK 24/10 Q1021=
201910211530 METAR LRAR 211530Z 21002KT CAVOK 22/11 Q1021=
201910211600 METAR LRAR 211600Z 17003KT 9000 NSC 20/11 Q1021=
201910211630 METAR LRAR 211630Z 17004KT 8000 NSC 17/11 Q1021=
201910211700 METAR LRAR 211700Z 15002KT 8000 NSC 17/12 Q1021=
201910211730 METAR LRAR 211730Z 26002KT 8000 NSC 16/11 Q1022=
201910211800 METAR LRAR 211800Z 16001KT 8000 NSC 15/11 Q1022=
201910211830 METAR LRAR 211830Z 00000KT 7000 NSC 15/11 Q1022=
201910211900 METAR LRAR 211900Z 14002KT 7000 NSC 14/10 Q1022=
201910211930 METAR LRAR 211930Z VRB02KT 7000 NSC 14/10 Q1022=
201910212000 METAR LRAR 212000Z 14004KT 8000 NSC 14/10 Q1022=
201910212030 METAR LRAR 212030Z 14005KT 8000 NSC 14/10 Q1022=
201910212100 METAR LRAR 212100Z 14004KT CAVOK 14/09 Q1022=
201910212130 METAR LRAR 212130Z 15005KT CAVOK 14/09 Q1022=
201910212200 METAR LRAR 212200Z 15005KT CAVOK 14/09 Q1022=
201910212230 METAR LRAR 212230Z 14005KT CAVOK 14/09 Q1022=
201910212300 METAR LRAR 212300Z 15005KT CAVOK 14/09 Q1022=
201910212330 METAR LRAR 212330Z 14005KT CAVOK 14/09 Q1022=
201910220000 METAR LRAR 220000Z 14005KT CAVOK 12/09 Q1023=
201910220030 METAR LRAR 220030Z 15005KT CAVOK 13/09 Q1023=
201910220100 METAR LRAR 220100Z 14005KT CAVOK 13/09 Q1022=
201910220130 METAR LRAR 220130Z 14005KT CAVOK 12/09 Q1022=
201910220200 METAR LRAR 220200Z 14004KT CAVOK 13/09 Q1022=
201910220230 METAR LRAR 220230Z 14005KT CAVOK 12/09 Q1023=
201910220300 METAR LRAR 220300Z 15005KT CAVOK 13/09 Q1023=
201910220330 METAR LRAR 220330Z 14005KT CAVOK 12/09 Q1023=
201910220400 METAR LRAR 220400Z 14005KT CAVOK 12/09 Q1023=
201910220430 METAR LRAR 220430Z 15004KT CAVOK 12/09 Q1023=
201910220500 METAR LRAR 220500Z 13003KT CAVOK 12/09 Q1023=
201910220530 METAR LRAR 220530Z 14005KT CAVOK 13/09 Q1023=
201910220600 METAR LRAR 220600Z 14005KT CAVOK 13/10 Q1023=
201910220630 METAR LRAR 220630Z 14004KT CAVOK 15/10 Q1023=
201910220700 METAR LRAR 220700Z 15006KT CAVOK 17/10 Q1024=
201910220730 METAR LRAR 220730Z 15005KT 130V190 CAVOK 19/11 Q1024=
201910220800 METAR LRAR 220800Z 15006KT CAVOK 20/11 Q1024=
201910220830 METAR LRAR 220830Z 19004KT 140V230 CAVOK 22/11 Q1024=
201910220900 METAR LRAR 220900Z 18005KT 160V220 CAVOK 23/10 Q1024=
201910220930 METAR LRAR 220930Z 21005KT 180V240 CAVOK 23/10 Q1024=
201910221000 METAR LRAR 221000Z 22005KT 140V250 CAVOK 24/10 Q1024=
201910221030 METAR LRAR 221030Z VRB03KT CAVOK 25/10 Q1024=
201910221100 METAR LRAR 221100Z VRB03KT CAVOK 26/10 Q1023=
201910221130 METAR LRAR 221130Z VRB03KT CAVOK 27/09 Q1023=
201910221200 METAR LRAR 221200Z 29004KT 180V330 CAVOK 26/10 Q1023=
201910221230 METAR LRAR 221230Z VRB01KT CAVOK 27/10 Q1022=
201910221300 METAR COR LRAR 221300Z 32003KT 290V360 CAVOK 27/10 Q1022=
201910221330 METAR LRAR 221330Z VRB01KT CAVOK 27/10 Q1022=
201910221400 METAR LRAR 221400Z VRB01KT CAVOK 27/10 Q1022=
201910221430 METAR LRAR 221430Z 00000KT CAVOK 28/10 Q1022=
201910221500 METAR LRAR 221500Z 00000KT CAVOK 26/12 Q1022=
201910221530 METAR LRAR 221530Z 00000KT CAVOK 22/14 Q1022=
201910221600 METAR LRAR 221600Z 00000KT CAVOK 20/14 Q1022=
201910221630 METAR LRAR 221630Z 00000KT CAVOK 18/13 Q1022=
201910221700 METAR LRAR 221700Z AUTO 00000KT 9999 NCD 17/13 Q1022=
201910221730 METAR LRAR 221730Z 00000KT CAVOK 16/12 Q1022=
201910221800 METAR LRAR 221800Z 00000KT CAVOK 16/12 Q1022=
201910221830 METAR LRAR 221830Z 00000KT CAVOK 15/12 Q1022=
201910221900 METAR LRAR 221900Z 00000KT CAVOK 15/12 Q1022=
201910221930 METAR LRAR 221930Z 00000KT CAVOK 15/12 Q1022=
201910222000 METAR LRAR 222000Z 09002KT CAVOK 15/12 Q1022=
201910222030 METAR LRAR 222030Z 13002KT CAVOK 14/12 Q1022=
201910222100 METAR LRAR 222100Z 15002KT CAVOK 14/11 Q1022=
201910222130 METAR LRAR 222130Z 14004KT CAVOK 15/11 Q1022=
201910222200 METAR LRAR 222200Z 14004KT CAVOK 14/10 Q1022=
201910222230 METAR LRAR 222230Z 13003KT CAVOK 14/10 Q1022=
201910222300 METAR LRAR 222300Z 13003KT CAVOK 14/10 Q1022=
201910222330 METAR LRAR 222330Z 14005KT CAVOK 14/10 Q1022=
201910230000 METAR LRAR 230000Z 15004KT CAVOK 14/10 Q1022=
201910230030 METAR LRAR 230030Z 15004KT CAVOK 13/09 Q1022=
201910230100 METAR LRAR 230100Z 14004KT CAVOK 14/10 Q1022=
201910230130 METAR LRAR 230130Z VRB02KT CAVOK 13/10 Q1022=
201910230200 METAR LRAR 230200Z VRB01KT CAVOK 13/10 Q1022=
201910230230 METAR LRAR 230230Z VRB01KT CAVOK 13/09 Q1022=
201910230300 METAR LRAR 230300Z 13004KT CAVOK 13/09 Q1022=
201910230330 METAR LRAR 230330Z 13003KT CAVOK 12/09 Q1022=
201910230400 METAR LRAR 230400Z 13003KT CAVOK 13/09 Q1022=
201910230430 METAR LRAR 230430Z 11004KT CAVOK 12/09 Q1022=
201910230500 METAR LRAR 230500Z 10002KT CAVOK 12/09 Q1022=
201910230530 METAR LRAR 230530Z 15001KT CAVOK 11/09 Q1022=
201910230600 METAR LRAR 230600Z 14003KT CAVOK 12/10 Q1022=
201910230630 METAR LRAR 230630Z 13003KT CAVOK 14/10 Q1022=
201910230700 METAR LRAR 230700Z 13004KT CAVOK 16/11 Q1022=
201910230730 METAR LRAR 230730Z 14004KT CAVOK 19/11 Q1022=
201910230800 METAR LRAR 230800Z 14004KT CAVOK 21/11 Q1022=
201910230830 METAR LRAR 230830Z 15003KT 110V180 CAVOK 23/10 Q1022=
201910230900 METAR LRAR 230900Z 19003KT 120V290 CAVOK 24/08 Q1022=
201910230930 METAR LRAR 230930Z 23003KT 140V290 CAVOK 24/09 Q1022=
201910231000 METAR LRAR 231000Z VRB02KT CAVOK 25/09 Q1021=
201910231030 METAR LRAR 231030Z VRB02KT CAVOK 26/09 Q1021=
201910231100 METAR LRAR 231100Z 03003KT 350V070 CAVOK 26/09 Q1021=
201910231130 METAR LRAR 231130Z VRB01KT CAVOK 27/08 Q1021=
201910231200 METAR LRAR 231200Z 32002KT 200V010 CAVOK 27/08 Q1020=
201910231230 METAR LRAR 231230Z VRB01KT CAVOK 28/09 Q1020=
201910231300 METAR LRAR 231300Z VRB02KT CAVOK 27/08 Q1020=
201910231330 METAR LRAR 231330Z 03002KT 320V080 CAVOK 27/08 Q1020=
201910231400 METAR LRAR 231400Z 05003KT 360V090 CAVOK 27/08 Q1020=
201910231430 METAR LRAR 231430Z 06003KT CAVOK 26/10 Q1019=
201910231500 METAR LRAR 231500Z 07004KT CAVOK 25/09 Q1019=
201910231530 METAR LRAR 231530Z 07003KT CAVOK 23/09 Q1019=
201910231600 METAR LRAR 231600Z 08002KT CAVOK 20/11 Q1019=
201910231630 METAR LRAR 231630Z 08001KT CAVOK 18/11 Q1019=
201910231700 METAR LRAR 231700Z 09002KT CAVOK 19/11 Q1019=
201910231730 METAR LRAR 231730Z VRB01KT CAVOK 16/11 Q1019=
201910231800 METAR LRAR 231800Z 11003KT CAVOK 16/10 Q1019=
201910231830 METAR LRAR 231830Z 11003KT CAVOK 17/10 Q1019=
201910231900 METAR LRAR 231900Z 13002KT CAVOK 16/10 Q1019=
201910231930 METAR LRAR 231930Z 13003KT CAVOK 16/10 Q1019=
201910232000 METAR LRAR 232000Z 13006KT CAVOK 15/10 Q1019=
201910232030 METAR LRAR 232030Z 13005KT CAVOK 15/10 Q1019=
201910232100 METAR LRAR 232100Z 13005KT CAVOK 14/10 Q1019=
201910232130 METAR LRAR 232130Z 14004KT CAVOK 14/10 Q1019=
201910232200 METAR LRAR 232200Z 14004KT CAVOK 13/09 Q1019=
201910232230 METAR LRAR 232230Z 14007KT CAVOK 14/09 Q1019=
201910232300 METAR LRAR 232300Z 15008KT CAVOK 15/09 Q1019=
201910232330 METAR LRAR 232330Z 15008KT CAVOK 16/09 Q1019=
201910240000 METAR LRAR 240000Z 15008KT CAVOK 16/08 Q1019=
201910240030 METAR LRAR 240030Z 15008KT CAVOK 16/08 Q1018=
201910240100 METAR LRAR 240100Z 15007KT CAVOK 15/08 Q1018=
201910240130 METAR LRAR 240130Z 15007KT CAVOK 15/09 Q1018=
201910240200 METAR LRAR 240200Z 15008KT CAVOK 15/09 Q1018=
201910240230 METAR LRAR 240230Z 14007KT CAVOK 14/09 Q1018=
201910240300 METAR LRAR 240300Z 14007KT CAVOK 14/09 Q1018=
201910240330 METAR LRAR 240330Z 14006KT CAVOK 14/09 Q1018=
201910240400 METAR LRAR 240400Z 14008KT CAVOK 14/09 Q1018=
201910240430 METAR LRAR 240430Z 14006KT CAVOK 12/08 Q1018=
201910240500 METAR LRAR 240500Z 14006KT CAVOK 12/08 Q1018=
201910240530 METAR LRAR 240530Z 14005KT CAVOK 13/09 Q1018=
201910240600 METAR LRAR 240600Z 13005KT CAVOK 14/09 Q1018=
201910240630 METAR LRAR 240630Z 13007KT CAVOK 17/09 Q1018=
201910240700 METAR LRAR 240700Z 13007KT CAVOK 18/09 Q1018=
201910240730 METAR LRAR 240730Z 13008KT CAVOK 20/09 Q1018=
201910240800 METAR LRAR 240800Z 12008KT CAVOK 21/09 Q1018=
201910240830 METAR LRAR 240830Z 12007KT CAVOK 22/09 Q1018=
201910240900 METAR LRAR 240900Z 13006KT CAVOK 24/08 Q1018=
201910240930 METAR LRAR 240930Z 10006KT CAVOK 25/08 Q1018=
201910241000 METAR LRAR 241000Z 12006KT CAVOK 25/08 Q1017=
201910241030 METAR LRAR 241030Z 13005KT 100V180 CAVOK 27/06 Q1017=
201910241100 METAR LRAR 241100Z 16008KT 120V190 CAVOK 27/04 Q1017=
201910241130 METAR LRAR 241130Z 19007KT 150V230 CAVOK 28/03 Q1016=
201910241200 METAR LRAR 241200Z 18008KT CAVOK 28/04 Q1016=
201910241230 METAR LRAR 241230Z 20009KT CAVOK 28/04 Q1016=
201910241300 METAR LRAR 241300Z 19007KT CAVOK 28/04 Q1016=
201910241330 METAR LRAR 241330Z 20006KT 150V240 CAVOK 28/05 Q1016=
201910241400 METAR LRAR 241400Z 18005KT CAVOK 27/05 Q1015=
201910241430 METAR LRAR 241430Z 20004KT CAVOK 27/06 Q1015=
201910241500 METAR LRAR 241500Z VRB02KT CAVOK 26/07 Q1015=
201910241530 METAR LRAR 241530Z 19002KT CAVOK 22/08 Q1015=
201910241600 METAR LRAR 241600Z 19004KT CAVOK 19/08 Q1015=
201910241630 METAR LRAR 241630Z 21004KT CAVOK 17/08 Q1016=
201910241700 METAR COR LRAR 241700Z 20002KT CAVOK 18/07 Q1016=
201910241730 METAR LRAR 241730Z VRB01KT CAVOK 18/07 Q1015=
201910241800 METAR LRAR 241800Z 09004KT CAVOK 17/07 Q1016=
201910241830 METAR LRAR 241830Z 12004KT CAVOK 17/07 Q1016=
201910241900 METAR LRAR 241900Z 13005KT CAVOK 16/07 Q1016=
201910241930 METAR LRAR 241930Z 14004KT CAVOK 16/06 Q1016=
201910242000 METAR LRAR 242000Z 14004KT CAVOK 15/06 Q1016=
201910242030 METAR LRAR 242030Z 16002KT CAVOK 15/06 Q1016=
201910242100 METAR LRAR 242100Z 16002KT CAVOK 14/06 Q1016=
201910242130 METAR LRAR 242130Z 15002KT CAVOK 13/06 Q1016=
201910242200 METAR LRAR 242200Z 14004KT CAVOK 13/06 Q1016=
201910242230 METAR LRAR 242230Z 14003KT CAVOK 13/06 Q1017=
201910242300 METAR LRAR 242300Z 14003KT CAVOK 13/07 Q1017=
201910242330 METAR LRAR 242330Z 00000KT CAVOK 10/07 Q1017=
201910250000 METAR LRAR 250000Z 12001KT CAVOK 10/07 Q1017=
201910250030 METAR LRAR 250030Z 13003KT CAVOK 10/07 Q1017=
201910250100 METAR LRAR 250100Z VRB02KT CAVOK 11/07 Q1017=
201910250130 METAR LRAR 250130Z 09002KT 050V120 CAVOK 10/06 Q1017=
201910250200 METAR LRAR 250200Z 04001KT CAVOK 09/06 Q1017=
201910250230 METAR LRAR 250230Z 10002KT CAVOK 09/06 Q1017=
201910250300 METAR LRAR 250300Z 08001KT CAVOK 09/07 Q1017=
201910250330 METAR LRAR 250330Z 00000KT CAVOK 08/05 Q1017=
201910250400 METAR LRAR 250400Z VRB01KT CAVOK 07/05 Q1018=
201910250430 METAR LRAR 250430Z 13003KT CAVOK 08/07 Q1018=
201910250500 METAR LRAR 250500Z 14002KT CAVOK 09/07 Q1018=
201910250530 METAR LRAR 250530Z VRB02KT CAVOK 09/08 Q1018=
201910250600 METAR LRAR 250600Z 14002KT CAVOK 11/09 Q1018=
201910250630 METAR LRAR 250630Z VRB01KT CAVOK 11/10 Q1019=
201910250700 METAR LRAR 250700Z 14002KT CAVOK 15/10 Q1019=
201910250730 METAR LRAR 250730Z 13004KT CAVOK 17/09 Q1019=
201910250800 METAR LRAR 250800Z 12003KT CAVOK 19/09 Q1019=
201910250830 METAR LRAR 250830Z VRB03KT CAVOK 21/07 Q1019=
201910250900 METAR LRAR 250900Z VRB03KT CAVOK 21/07 Q1020=
201910250930 METAR LRAR 250930Z VRB04KT CAVOK 23/08 Q1020=
201910251000 METAR LRAR 251000Z VRB03KT CAVOK 24/07 Q1020=
201910251030 METAR LRAR 251030Z VRB03KT CAVOK 24/07 Q1020=
201910251100 METAR LRAR 251100Z VRB02KT CAVOK 25/07 Q1020=
201910251130 METAR LRAR 251130Z VRB02KT CAVOK 25/07 Q1019=
201910251200 METAR LRAR 251200Z VRB04KT CAVOK 25/07 Q1019=
201910251230 METAR COR LRAR 251230Z VRB03KT CAVOK 25/07 Q1019=
201910251300 METAR LRAR 251300Z 02003KT 320V060 CAVOK 25/07 Q1019=
201910251330 METAR LRAR 251330Z 03005KT 340V080 CAVOK 25/07 Q1019=
201910251400 METAR LRAR 251400Z 03004KT CAVOK 24/07 Q1019=
201910251430 METAR LRAR 251430Z 03004KT CAVOK 24/07 Q1019=
201910251500 METAR LRAR 251500Z 36004KT CAVOK 22/07 Q1019=
201910251530 METAR LRAR 251530Z 01003KT CAVOK 21/07 Q1020=
201910251600 METAR LRAR 251600Z 36004KT CAVOK 19/08 Q1020=
201910251630 METAR LRAR 251630Z 36002KT CAVOK 16/08 Q1020=
201910251700 METAR LRAR 251700Z VRB01KT CAVOK 16/08 Q1020=
201910251730 METAR LRAR 251730Z 00000KT CAVOK 15/08 Q1021=
201910251800 METAR LRAR 251800Z 36002KT CAVOK 14/08 Q1021=
201910251830 METAR LRAR 251830Z 00000KT CAVOK 13/08 Q1021=
201910251900 METAR LRAR 251900Z 32001KT CAVOK 12/08 Q1021=
201910251930 METAR LRAR 251930Z 00000KT CAVOK 13/08 Q1021=
201910252000 METAR LRAR 252000Z 28001KT CAVOK 11/08 Q1021=
201910252030 METAR LRAR 252030Z 28002KT CAVOK 09/07 Q1021=
201910252100 METAR LRAR 252100Z 27002KT CAVOK 10/07 Q1022=
201910252130 METAR LRAR 252130Z 29002KT CAVOK 09/07 Q1022=
201910252200 METAR LRAR 252200Z 28003KT CAVOK 08/07 Q1022=
201910252230 METAR LRAR 252230Z 28004KT CAVOK 08/06 Q1022=
201910252300 METAR LRAR 252300Z 28003KT CAVOK 08/06 Q1023=
201910252330 METAR LRAR 252330Z 00000KT CAVOK 08/06 Q1023=
201910260000 METAR LRAR 260000Z 00000KT CAVOK 09/07 Q1023=
201910260030 METAR LRAR 260030Z 00000KT CAVOK 08/06 Q1023=
201910260100 METAR LRAR 260100Z 00000KT CAVOK 08/07 Q1023=
201910260130 METAR LRAR 260130Z 00000KT CAVOK 07/07 Q1023=
201910260200 METAR LRAR 260200Z 00000KT 8000 NSC 07/07 Q1022=
201910260230 METAR LRAR 260230Z 00000KT 7000 NSC 07/07 Q1022=
201910260300 METAR LRAR 260300Z 27002KT 8000 NSC 06/06 Q1022=
201910260330 METAR LRAR 260330Z 00000KT 8000 NSC 05/05 Q1022=
201910260400 METAR LRAR 260400Z 13002KT 7000 NSC 06/06 Q1023=
201910260430 METAR LRAR 260430Z 14002KT 5000 BR NSC 06/06 Q1023=
201910260500 METAR LRAR 260500Z 00000KT 4500 BR NSC 06/06 Q1023=
201910260530 METAR LRAR 260530Z VRB01KT 4000 BR NSC 06/06 Q1023=
201910260600 METAR LRAR 260600Z 00000KT 4000 BR NSC 07/07 Q1024=
201910260630 METAR LRAR 260630Z 00000KT 5000 BR NSC 09/08 Q1024=
201910260700 METAR LRAR 260700Z VRB01KT 7000 NSC 10/08 Q1024=
201910260730 METAR COR LRAR 260730Z VRB02KT CAVOK 12/08 Q1025=
201910260800 METAR LRAR 260800Z 20003KT 160V220 CAVOK 13/08 Q1025=
201910260830 METAR LRAR 260830Z 20003KT 150V240 CAVOK 15/08 Q1025=
201910260900 METAR LRAR 260900Z 22003KT 150V270 CAVOK 16/09 Q1025=
201910260930 METAR LRAR 260930Z 22003KT 180V250 CAVOK 18/09 Q1025=
201910261000 METAR LRAR 261000Z 25003KT 220V300 CAVOK 18/09 Q1024=
201910261030 METAR LRAR 261030Z VRB02KT CAVOK 20/09 Q1024=
201910261100 METAR LRAR 261100Z 27003KT 210V310 CAVOK 20/09 Q1024=
201910261130 METAR LRAR 261130Z VRB02KT CAVOK 21/09 Q1023=
201910261200 METAR LRAR 261200Z VRB01KT CAVOK 22/09 Q1023=
201910261230 METAR LRAR 261230Z VRB02KT CAVOK 23/09 Q1023=
201910261300 METAR LRAR 261300Z VRB01KT CAVOK 23/08 Q1022=
201910261330 METAR LRAR 261330Z VRB01KT CAVOK 23/08 Q1022=
201910261400 METAR LRAR 261400Z 00000KT CAVOK 24/07 Q1022=
201910261430 METAR LRAR 261430Z 00000KT CAVOK 23/08 Q1022=
201910261500 METAR LRAR 261500Z 00000KT CAVOK 22/10 Q1022=
201910261530 METAR LRAR 261530Z 00000KT CAVOK 18/11 Q1022=
201910261600 METAR LRAR 261600Z 00000KT CAVOK 15/10 Q1022=
201910261630 METAR LRAR 261630Z 00000KT CAVOK 14/10 Q1022=
201910261700 METAR LRAR 261700Z 16001KT CAVOK 13/10 Q1022=
201910261730 METAR LRAR 261730Z 13001KT CAVOK 13/10 Q1022=
201910261800 METAR LRAR 261800Z VRB01KT CAVOK 12/10 Q1022=
201910261830 METAR LRAR 261830Z 00000KT CAVOK 10/09 Q1022=
201910261900 METAR LRAR 261900Z 13001KT CAVOK 11/09 Q1022=
201910261930 METAR LRAR 261930Z 15001KT CAVOK 10/09 Q1023=
201910262000 METAR LRAR 262000Z 00000KT CAVOK 09/09 Q1023=
201910262030 METAR LRAR 262030Z 12001KT CAVOK 09/09 Q1022=
201910262100 METAR LRAR 262100Z 14002KT CAVOK 09/08 Q1023=
201910262130 METAR LRAR 262130Z VRB01KT CAVOK 09/08 Q1023=
201910262200 METAR LRAR 262200Z 15003KT CAVOK 10/07 Q1022=
201910262230 METAR LRAR 262230Z 14004KT CAVOK 10/07 Q1022=
201910262300 METAR LRAR 262300Z 14004KT CAVOK 10/07 Q1022=
201910262330 METAR LRAR 262330Z 14003KT CAVOK 10/07 Q1022=
201910270000 METAR LRAR 270000Z 14004KT CAVOK 10/07 Q1022=
201910270030 METAR LRAR 270030Z 15003KT CAVOK 09/07 Q1022=
201910270100 METAR LRAR 270100Z 15003KT CAVOK 09/07 Q1021=
201910270130 METAR LRAR 270130Z 15004KT CAVOK 08/07 Q1021=
201910270200 METAR LRAR 270200Z 14004KT CAVOK 09/07 Q1021=
201910270230 METAR LRAR 270230Z 14004KT CAVOK 09/07 Q1021=
201910270300 METAR LRAR 270300Z 13003KT CAVOK 09/07 Q1021=
201910270330 METAR LRAR 270330Z 14003KT CAVOK 09/07 Q1021=
201910270400 METAR LRAR 270400Z 13004KT CAVOK 09/08 Q1020=
201910270430 METAR LRAR 270430Z 14003KT CAVOK 09/08 Q1020=
201910270500 METAR LRAR 270500Z 14002KT 7000 MIFG NSC 09/08 Q1020=
201910270530 METAR LRAR 270530Z 00000KT 8000 MIFG NSC 08/08 Q1021=
201910270600 METAR LRAR 270600Z 28001KT 8000 MIFG NSC 06/06 Q1021=
201910270630 METAR LRAR 270630Z 00000KT 7000 NSC 08/08 Q1021=
201910270700 METAR LRAR 270700Z 14002KT 8000 NSC 12/09 Q1021=
201910270730 METAR LRAR 270730Z 15003KT CAVOK 13/09 Q1021=
201910270800 METAR LRAR 270800Z 13004KT CAVOK 16/10 Q1021=
201910270830 METAR LRAR 270830Z 15003KT 120V180 CAVOK 17/09 Q1021=
201910270900 METAR LRAR 270900Z VRB02KT CAVOK 19/09 Q1021=
201910270930 METAR LRAR 270930Z 15004KT 110V190 CAVOK 19/09 Q1021=
201910271000 METAR LRAR 271000Z 14004KT CAVOK 20/09 Q1020=
201910271030 METAR LRAR 271030Z 16003KT 090V210 CAVOK 21/09 Q1020=
201910271100 METAR LRAR 271100Z 24003KT 180V310 CAVOK 21/08 Q1020=
201910271130 METAR LRAR 271130Z 24002KT 170V290 CAVOK 22/08 Q1019=
201910271200 METAR LRAR 271200Z VRB02KT CAVOK 22/08 Q1019=
201910271230 METAR LRAR 271230Z VRB02KT CAVOK 23/07 Q1019=
201910271300 METAR LRAR 271300Z VRB02KT CAVOK 23/07 Q1018=
201910271330 METAR LRAR 271330Z VRB01KT CAVOK 24/07 Q1018=
201910271400 METAR LRAR 271400Z VRB01KT CAVOK 23/07 Q1018=
201910271430 METAR LRAR 271430Z 28001KT CAVOK 22/08 Q1018=
201910271500 METAR LRAR 271500Z 26001KT CAVOK 20/09 Q1017=
201910271530 METAR LRAR 271530Z 25002KT CAVOK 17/10 Q1017=
201910271600 METAR LRAR 271600Z 00000KT CAVOK 15/09 Q1017=
201910271630 METAR LRAR 271630Z 00000KT CAVOK 14/09 Q1018=
201910271700 METAR LRAR 271700Z 00000KT CAVOK 13/09 Q1018=
201910271730 METAR LRAR 271730Z 00000KT CAVOK 12/09 Q1018=
201910271800 METAR LRAR 271800Z 00000KT CAVOK 11/09 Q1018=
201910271830 METAR LRAR 271830Z 00000KT CAVOK 11/09 Q1018=
201910271900 METAR LRAR 271900Z 12002KT CAVOK 11/09 Q1018=
201910271930 METAR LRAR 271930Z 14002KT CAVOK 10/08 Q1017=
201910272000 METAR LRAR 272000Z 14002KT CAVOK 10/08 Q1017=
201910272030 METAR LRAR 272030Z 15001KT CAVOK 09/08 Q1017=
201910272100 METAR LRAR 272100Z 00000KT CAVOK 09/08 Q1017=
201910272130 METAR LRAR 272130Z 00000KT CAVOK 08/07 Q1017=
201910272200 METAR LRAR 272200Z 13002KT CAVOK 08/07 Q1017=
201910272230 METAR LRAR 272230Z 00000KT CAVOK 08/07 Q1017=
201910272300 METAR LRAR 272300Z 14002KT CAVOK 09/06 Q1017=
201910272330 METAR LRAR 272330Z 14004KT CAVOK 09/06 Q1017=
201910280000 METAR LRAR 280000Z 15003KT CAVOK 09/06 Q1017=
201910280030 METAR LRAR 280030Z 00000KT CAVOK 09/06 Q1017=
201910280100 METAR LRAR 280100Z 00000KT CAVOK 08/06 Q1016=
201910280130 METAR LRAR 280130Z 14003KT CAVOK 08/06 Q1016=
201910280200 METAR LRAR 280200Z 00000KT CAVOK 08/05 Q1016=
201910280230 METAR LRAR 280230Z 14002KT CAVOK 07/05 Q1016=
201910280300 METAR LRAR 280300Z 14004KT CAVOK 08/06 Q1016=
201910280330 METAR LRAR 280330Z 20001KT CAVOK 06/04 Q1016=
201910280400 METAR LRAR 280400Z 17001KT CAVOK 06/05 Q1016=
201910280430 METAR LRAR 280430Z 00000KT 7000 NSC 04/04 Q1016=
201910280500 METAR LRAR 280500Z 14002KT 6000 NSC 06/06 Q1016=
201910280530 METAR LRAR 280530Z 14004KT 7000 NSC 07/06 Q1016=
201910280600 METAR LRAR 280600Z VRB01KT 7000 NSC 08/06 Q1016=
201910280630 METAR LRAR 280630Z 00000KT 7000 NSC 08/08 Q1016=
201910280700 METAR LRAR 280700Z 00000KT 8000 NSC 11/08 Q1016=
201910280730 METAR LRAR 280730Z 15003KT CAVOK 12/07 Q1016=
201910280800 METAR LRAR 280800Z VRB01KT CAVOK 13/08 Q1016=
201910280830 METAR LRAR 280830Z 17003KT 140V220 CAVOK 15/08 Q1016=
201910280900 METAR LRAR 280900Z VRB02KT 8000 NSC 16/09 Q1016=
201910280930 METAR LRAR 280930Z 21003KT 170V260 8000 NSC 17/08 Q1016=
201910281000 METAR LRAR 281000Z 24003KT 170V290 7000 NSC 18/09 Q1016=
201910281030 METAR LRAR 281030Z VRB02KT 7000 NSC 19/10 Q1016=
201910281100 METAR LRAR 281100Z VRB02KT 7000 NSC 19/10 Q1016=
201910281130 METAR LRAR 281130Z VRB03KT 7000 NSC 20/10 Q1016=
201910281200 METAR LRAR 281200Z 32005KT 6000 NSC 20/09 Q1016=
201910281230 METAR LRAR 281230Z 33005KT 300V360 7000 NSC 20/10 Q1016=
201910281300 METAR LRAR 281300Z 34004KT 7000 NSC 19/10 Q1016=
201910281330 METAR LRAR 281330Z 35004KT 7000 NSC 19/11 Q1016=
201910281400 METAR LRAR 281400Z 36004KT 7000 NSC 19/11 Q1016=
201910281430 METAR LRAR 281430Z 01003KT 350V060 6000 NSC 18/11 Q1015=
201910281500 METAR LRAR 281500Z 36004KT 6000 NSC 17/11 Q1015=
201910281530 METAR LRAR 281530Z 36004KT 5000 BR NSC 16/11 Q1015=
201910281600 METAR LRAR 281600Z 35005KT 8000 NSC 16/10 Q1016=
201910281630 METAR LRAR 281630Z 36004KT 8000 NSC 15/10 Q1016=
201910281700 METAR LRAR 281700Z 35002KT CAVOK 13/10 Q1016=
201910281730 METAR LRAR 281730Z 36003KT CAVOK 13/10 Q1016=
201910281800 METAR LRAR 281800Z 35003KT CAVOK 13/10 Q1016=
201910281830 METAR LRAR 281830Z 36004KT CAVOK 12/11 Q1016=
201910281900 METAR LRAR 281900Z 01005KT CAVOK 13/11 Q1016=
201910281930 METAR LRAR 281930Z 02005KT 8000 NSC 13/10 Q1016=
201910282000 METAR LRAR 282000Z 03005KT 8000 NSC 12/10 Q1016=
201910282030 METAR LRAR 282030Z 04006KT 8000 NSC 12/10 Q1016=
201910282100 METAR LRAR 282100Z 04003KT 010V080 8000 NSC 12/10 Q1016=
201910282130 METAR LRAR 282130Z 36004KT CAVOK 11/10 Q1016=
201910282200 METAR LRAR 282200Z 01003KT 340V040 CAVOK 11/10 Q1016=
201910282230 METAR LRAR 282230Z 36004KT CAVOK 11/09 Q1017=
201910282300 METAR LRAR 282300Z 36004KT CAVOK 11/09 Q1016=
201910282330 METAR LRAR 282330Z 33004KT CAVOK 11/09 Q1017=
201910290000 METAR LRAR 290000Z 35003KT CAVOK 11/09 Q1017=
201910290030 METAR LRAR 290030Z 36006KT CAVOK 11/08 Q1016=
201910290100 METAR LRAR 290100Z 36007KT CAVOK 11/08 Q1017=
201910290130 METAR LRAR 290130Z 01007KT 340V050 9999 -RA FEW010 10/08
                        Q1017=
201910290200 METAR LRAR 290200Z 02006KT 350V050 9999 -RA FEW010 10/08
                        Q1017=
201910290230 METAR LRAR 290230Z 02005KT 350V060 9999 FEW010 10/07 Q1017=
201910290300 METAR LRAR 290300Z 03006KT 340V050 9999 -RA FEW009 09/07
                        Q1017=
201910290330 METAR LRAR 290330Z 03006KT 340V060 9999 FEW010 09/07 Q1016=
201910290400 METAR LRAR 290400Z 03007KT 350V050 9999 FEW015 09/06 Q1017=
201910290430 METAR LRAR 290430Z 03006KT 360V060 CAVOK 09/06 Q1017=
201910290500 METAR LRAR 290500Z 03005KT 350V060 CAVOK 09/06 Q1017=
201910290530 METAR LRAR 290530Z 02005KT 340V050 CAVOK 09/05 Q1017=
201910290600 METAR LRAR 290600Z 02005KT 350V050 CAVOK 09/05 Q1017=
201910290630 METAR LRAR 290630Z 03005KT 360V060 9999 -RA SCT049 09/05
                        Q1017=
201910290700 METAR LRAR 290700Z 02005KT 340V050 9999 -RA SCT010 BKN049
                        09/05 Q1017=
201910290730 METAR LRAR 290730Z 02007KT 9999 -RA SCT012 BKN049 09/05 Q1018=
201910290800 METAR LRAR 290800Z 01008KT 340V040 9999 SCT015 BKN048 09/05
                        Q1018=
201910290830 METAR LRAR 290830Z 02008KT 340V050 9999 SCT018 BKN047 09/04
                        Q1018=
201910290900 METAR LRAR 290900Z 02008KT 350V050 9999 SCT024 BKN045 10/04
                        Q1017=
201910290930 METAR LRAR 290930Z 03007KT 330V060 9999 SCT026 BKN044 10/05
                        Q1017=
201910291000 METAR LRAR 291000Z 03006KT 9999 -RA SCT025 BKN045 10/05 Q1018=
201910291030 METAR LRAR 291030Z 34004KT 9999 -RA SCT013 SCT026 BKN045
                        09/06 Q1018=
201910291100 METAR LRAR 291100Z 35006KT 9000 -RA SCT012 BKN026 BKN040
                        08/07 Q1018 R09/19//95=
201910291130 METAR LRAR 291130Z 35006KT 9999 -RA SCT012 SCT026 BKN040
                        08/07 Q1018 R09/19//95=
201910291200 METAR LRAR 291200Z 36007KT 9999 -RA SCT013 SCT030 BKN040
                        08/08 Q1018 R09/19//95=
201910291230 METAR LRAR 291230Z 01007KT 320V040 9999 -RA FEW007 BKN018
                        OVC040 08/07 Q1019 R09/19//95=
201910291300 METAR LRAR 291300Z 03007KT 360V060 9999 -RA SCT009 BKN015
                        OVC040 08/08 Q1018 R09/19//95=
201910291330 METAR LRAR 291330Z 03010KT 9999 -RA SCT010 BKN018 OVC040
                        08/07 Q1018 R09/19//95=
201910291400 METAR LRAR 291400Z 03009KT 9999 -RA SCT010 BKN018 OVC040
                        08/07 Q1018 R09/19//95=
201910291430 METAR LRAR 291430Z 03009KT 360V060 9999 -RA SCT009 SCT018
                        OVC040 08/07 Q1018 R09/19//95=
201910291500 METAR LRAR 291500Z 04007KT 7000 -RA SCT011 SCT020 OVC040
                        07/07 Q1018 R09/29//95=
201910291530 METAR LRAR 291530Z 03007KT 8000 -RA FEW010 SCT015 OVC040
                        07/07 Q1018 R09/29//95=
201910291600 METAR LRAR 291600Z 03008KT 9999 SCT012 BKN045 07/07 Q1019
                        R09/29//95=
201910291630 METAR LRAR 291630Z 03007KT 9999 -RA FEW009 SCT023 BKN044
                        07/07 Q1019 R09/29//95=
201910291700 METAR LRAR 291700Z 02006KT 9999 -RA FEW009 BKN018 08/08 Q1019
                        R09/29//95=
201910291730 METAR LRAR 291730Z 01005KT 340V040 9999 -RA FEW009 SCT016
                        BKN020 08/08 Q1020 R09/29//95=
201910291800 METAR LRAR 291800Z 36005KT 330V030 9999 FEW012 SCT020 08/08
                        Q1020 R09/29//95=
201910291830 METAR LRAR 291830Z 36004KT 9999 -RA SCT018 07/07 Q1020 R09/29//95=
201910291900 METAR LRAR 291900Z 34004KT 9999 -RA SCT040 08/08 Q1020 R09/29//95=
201910291930 METAR LRAR 291930Z 34004KT 8000 -RA FEW010 BKN022 08/08 Q1020
                        R09/29//95=
201910292000 METAR LRAR 292000Z 34004KT 9999 -RA FEW009 SCT040 08/08 Q1021
                        R09/29//95=
201910292030 METAR LRAR 292030Z 35004KT 9999 FEW008 SCT045 08/08 Q1021
                        R09/29//95=
201910292100 METAR LRAR 292100Z 35004KT 9999 -RA FEW010 SCT048 08/07 Q1021
                        R09/29//95=
201910292130 METAR LRAR 292130Z 34005KT 9999 -RA FEW011 SCT048 07/07 Q1021
                        R09/29//95=
201910292200 METAR LRAR 292200Z 34004KT 9999 SCT048 07/07 Q1021 R09/29//95=
201910292230 METAR LRAR 292230Z 34004KT CAVOK 07/07 Q1021 R09/29//95=
201910292300 METAR LRAR 292300Z AUTO 34005KT 9999 SCT066/// 07/07 Q1021=
201910292330 METAR LRAR 292330Z AUTO 34005KT 9999 SCT056/// 08/07 Q1021=
201910300000 METAR LRAR 300000Z 35005KT CAVOK 08/07 Q1021 R09/29//95=
201910300030 METAR LRAR 300030Z 36006KT CAVOK 08/06 Q1022 R09/29//95=
201910300100 METAR LRAR 300100Z 34005KT CAVOK 07/06 Q1022 R09/29//95=
201910300130 METAR LRAR 300130Z 35004KT CAVOK 07/06 Q1022 R09/29//95=
201910300200 METAR LRAR 300200Z 35005KT CAVOK 07/06 Q1022 R09/29//95=
201910300230 METAR LRAR 300230Z 36007KT CAVOK 07/05 Q1022 R09/29//95=
201910300300 METAR LRAR 300300Z 36006KT CAVOK 07/05 Q1022 R09/29//95=
201910300330 METAR LRAR 300330Z 01007KT 340V040 CAVOK 07/05 Q1022 R09/29//95=
201910300400 METAR LRAR 300400Z 01006KT 340V040 CAVOK 06/05 Q1022 R09/29//95=
201910300430 METAR LRAR 300430Z 01007KT CAVOK 07/05 Q1022 R09/29//95=
201910300500 METAR LRAR 300500Z 01005KT CAVOK 06/05 Q1022 R09/29//95=
201910300530 METAR LRAR 300530Z 01006KT 340V040 CAVOK 07/05 Q1023 R09/CLRD//=
201910300600 METAR LRAR 300600Z 02008KT 340V050 CAVOK 07/05 Q1023=
201910300630 METAR LRAR 300630Z 03009KT CAVOK 07/05 Q1023=
201910300700 METAR LRAR 300700Z 02010KT 350V050 CAVOK 07/05 Q1023=
201910300730 METAR LRAR 300730Z 02010KT 350V070 CAVOK 07/05 Q1024=
201910300800 METAR LRAR 300800Z 03009KT 350V060 CAVOK 08/05 Q1024=
201910300830 METAR LRAR 300830Z 03011KT CAVOK 08/05 Q1024=
201910300900 METAR LRAR 300900Z 04010KT CAVOK 08/05 Q1024=
201910300930 METAR LRAR 300930Z 03008KT 350V060 CAVOK 09/05 Q1024=
201910301000 METAR LRAR 301000Z 03006KT 360V070 CAVOK 09/05 Q1024=
201910301030 METAR LRAR 301030Z 03007KT 350V060 CAVOK 09/05 Q1024=
201910301100 METAR LRAR 301100Z 03007KT CAVOK 09/05 Q1024=
201910301130 METAR LRAR 301130Z 03005KT 340V060 CAVOK 10/04 Q1024=
201910301200 METAR LRAR 301200Z 03007KT 350V060 CAVOK 10/04 Q1023=
201910301230 METAR LRAR 301230Z 02006KT 340V050 CAVOK 10/04 Q1023=
201910301300 METAR LRAR 301300Z 36006KT 320V040 CAVOK 10/04 Q1023=
201910301330 METAR LRAR 301330Z 36007KT 330V040 CAVOK 10/04 Q1023=
201910301400 METAR LRAR 301400Z 35005KT CAVOK 10/04 Q1024=
201910301430 METAR LRAR 301430Z 34004KT CAVOK 10/04 Q1024=
201910301500 METAR LRAR 301500Z 34004KT CAVOK 09/04 Q1024=
201910301530 METAR LRAR 301530Z 35005KT 320V020 9999 -RA FEW045 09/04
                        Q1024=
201910301600 METAR LRAR 301600Z 33005KT 9999 -RA FEW019 SCT040 09/05 Q1024=
201910301630 METAR LRAR 301630Z 35007KT 9999 -RA SCT020 BKN042 08/04 Q1025=
201910301700 METAR LRAR 301700Z 35008KT 5000 SHRA BR BKN018 BKN040CB 06/06
                        Q1025=
201910301730 METAR LRAR 301730Z 01006KT 350V050 7000 SHRA SCT018 SCT045CB
                        06/06 Q1025=
201910301800 METAR COR LRAR 301800Z 35005KT 8000 -SHRA FEW009 BKN019 SCT047CB
                        06/06 Q1026 RERA=
201910301830 METAR LRAR 301830Z 01004KT 340V040 6000 -RA SCT013 BKN023
                        FEW050CB 06/06 Q1026 RERA=
201910301900 METAR LRAR 301900Z 36003KT 9999 -RA SCT014 BKN026 06/06 Q1026=
201910301930 METAR LRAR 301930Z 36002KT 9999 BKN030 06/06 Q1026 R09/29//95=
201910302000 METAR LRAR 302000Z 34002KT 9999 BKN032 06/06 Q1026 R09/29//95=
201910302030 METAR LRAR 302030Z 33003KT 9999 BKN035 06/06 Q1026 R09/29//95=
201910302100 METAR LRAR 302100Z 32004KT 9999 SCT035 BKN047 06/06 Q1026
                        R09/29//95=
201910302130 METAR LRAR 302130Z 32004KT 9999 SCT038 BKN047 06/06 Q1026
                        R09/29//95=
201910302200 METAR LRAR 302200Z 32005KT 9999 FEW040 BKN046 05/05 Q1026
                        R09/29//95=
201910302230 METAR LRAR 302230Z 32004KT 9999 FEW040 BKN045 05/05 Q1026
                        R09/29//95=
201910302300 METAR LRAR 302300Z 32004KT 7000 BKN045 04/04 Q1025 R09/29//95=
201910302330 METAR LRAR 302330Z 28003KT 6000 BKN047 03/03 Q1026 R09/29//95=
201910310000 METAR LRAR 310000Z 30004KT 5000 BR NSC 01/01 Q1026 R09/29//95=
201910310030 METAR LRAR 310030Z 30002KT 6000 NSC 01/01 Q1026 R09/29//95=
201910310100 METAR LRAR 310100Z 29003KT 7000 NSC 01/01 Q1025 R09/29//95=
201910310130 METAR LRAR 310130Z 28003KT 8000 NSC 00/00 Q1025 R09/29//95=
201910310200 METAR LRAR 310200Z 30003KT 8000 NSC M00/M00 Q1025 R09/29//95=
201910310230 METAR LRAR 310230Z 30003KT CAVOK M00/M00 Q1025 R09/29//95=
201910310300 METAR LRAR 310300Z VRB01KT CAVOK M00/M00 Q1025 R09/29//95=
201910310330 METAR LRAR 310330Z 00000KT CAVOK M00/M00 Q1025 R09/29//95=
201910310400 METAR LRAR 310400Z 00000KT 6000 NSC M01/M01 Q1025 R09/29//95=
201910310430 METAR LRAR 310430Z VRB01KT 8000 NSC M01/M01 Q1025 R09/29//95=
201910310500 METAR LRAR 310500Z 00000KT 6000 NSC M01/M01 Q1025 R09/CLRD//=
201910310530 METAR LRAR 310530Z 00000KT 5000 MIFG NSC M01/M01 Q1025=
201910310600 METAR LRAR 310600Z 00000KT 6000 MIFG NSC M01/M01 Q1025=
201910310630 METAR LRAR 310630Z 28001KT 9999 MIFG NSC M00/M00 Q1026=
201910310700 METAR LRAR 310700Z 27002KT CAVOK 00/00 Q1026=
201910310730 METAR LRAR 310730Z VRB02KT CAVOK 01/01 Q1026=
201910310800 METAR LRAR 310800Z 33002KT 290V010 CAVOK 02/02 Q1026=
201910310830 METAR LRAR 310830Z VRB01KT CAVOK 03/02 Q1026=
201910310900 METAR LRAR 310900Z VRB01KT CAVOK 04/04 Q1025=
201910310930 METAR LRAR 310930Z VRB01KT CAVOK 05/04 Q1025=
201910311000 METAR LRAR 311000Z VRB01KT CAVOK 06/04 Q1025=
201910311030 METAR LRAR 311030Z VRB01KT CAVOK 08/02 Q1025=
201910311100 METAR LRAR 311100Z VRB02KT CAVOK 07/02 Q1025=
201910311130 METAR LRAR 311130Z VRB02KT CAVOK 08/03 Q1025=
201910311200 METAR LRAR 311200Z VRB02KT CAVOK 08/03 Q1025=
201910311230 METAR LRAR 311230Z VRB01KT CAVOK 09/03 Q1024=
201910311300 METAR LRAR 311300Z 00000KT CAVOK 10/03 Q1024=
201910311330 METAR LRAR 311330Z VRB02KT CAVOK 10/03 Q1024=
201910311400 METAR LRAR 311400Z 22003KT 190V250 CAVOK 09/02 Q1024=
201910311430 METAR LRAR 311430Z 22003KT 190V250 CAVOK 09/02 Q1024=
201910311500 METAR LRAR 311500Z 02003KT CAVOK 08/04 Q1024=
201910311530 METAR LRAR 311530Z 02003KT CAVOK 07/03 Q1024=
201910311600 METAR LRAR 311600Z 06003KT CAVOK 06/03 Q1024=
201910311630 METAR LRAR 311630Z 08001KT CAVOK 06/03 Q1024=
201910311700 METAR LRAR 311700Z 00000KT CAVOK 05/03 Q1025=
201910311730 METAR LRAR 311730Z 00000KT CAVOK 05/04 Q1025=
201910311800 METAR LRAR 311800Z 00000KT 9999 SCT048 04/04 Q1025=
201910311830 METAR LRAR 311830Z 00000KT CAVOK 04/04 Q1025=
201910311900 METAR LRAR 311900Z 22001KT CAVOK 03/03 Q1025=
201910311930 METAR LRAR 311930Z 30001KT 9999 FEW048 02/02 Q1025=
201910312000 METAR LRAR 312000Z 00000KT 9999 BKN045 02/02 Q1025=
201910312030 METAR LRAR 312030Z 00000KT 9999 BKN044 02/02 Q1025=
201910312100 METAR LRAR 312100Z 00000KT 9999 BKN043 03/03 Q1025=
201910312130 METAR LRAR 312130Z 00000KT 9999 BKN042 04/04 Q1025=
201910312200 METAR LRAR 312200Z 00000KT 9999 BKN042 04/04 Q1025=
201910312230 METAR LRAR 312230Z 34001KT 9999 BKN041 04/04 Q1025=
201910312300 METAR LRAR 312300Z 00000KT 9999 BKN040 04/04 Q1025=
201910312330 METAR LRAR 312330Z VRB02KT 9999 BKN040 04/04 Q1025=
