201911010000 METAR LRAR 010000Z 00000KT 9999 BKN041 04/04 Q1025=
201911010030 METAR LRAR 010030Z 00000KT 9999 BKN043 04/04 Q1025=
201911010100 METAR LRAR 010100Z 00000KT 9999 SCT042 04/04 Q1025=
201911010130 METAR LRAR 010130Z 00000KT 9999 SCT043 04/04 Q1024=
201911010200 METAR LRAR 010200Z 00000KT 9999 FEW048 04/04 Q1024=
201911010230 METAR LRAR 010230Z 00000KT CAVOK 04/04 Q1024=
201911010300 METAR LRAR 010300Z 00000KT 9999 SCT035 04/04 Q1024=
201911010330 METAR LRAR 010330Z 26001KT 9999 SCT040 04/04 Q1024=
201911010400 METAR LRAR 010400Z 34001KT 9999 BKN040 04/04 Q1024=
201911010430 METAR LRAR 010430Z 00000KT 9000 SCT042 04/04 Q1024=
201911010500 METAR LRAR 010500Z 00000KT 6000 FEW044 04/04 Q1024=
201911010530 METAR LRAR 010530Z 00000KT 6000 NSC 04/04 Q1024=
201911010600 METAR LRAR 010600Z 00000KT 7000 NSC 04/04 Q1024=
201911010630 METAR LRAR 010630Z 00000KT 6000 NSC 05/05 Q1025=
201911010700 METAR LRAR 010700Z VRB01KT 8000 SCT023 06/06 Q1025=
201911010730 METAR COR LRAR 010730Z 24003KT 9999 SCT027 07/06 Q1025=
201911010800 METAR LRAR 010800Z 27003KT 9999 BKN025 07/06 Q1025=
201911010830 METAR LRAR 010830Z 26003KT 9999 FEW025 BKN030 07/04 Q1025=
201911010900 METAR LRAR 010900Z VRB01KT 9999 BKN029 08/05 Q1025=
201911010930 METAR LRAR 010930Z VRB01KT 9999 SCT030 09/05 Q1025=
201911011000 METAR LRAR 011000Z VRB01KT 9999 FEW020 BKN032 09/05 Q1025=
201911011030 METAR LRAR 011030Z 23003KT 180V270 9999 FEW019 BKN027 10/05
                        Q1024=
201911011100 METAR LRAR 011100Z 20003KT 150V250 9999 BKN028 09/04 Q1024=
201911011130 METAR LRAR 011130Z 15003KT 120V180 9999 BKN028 09/04 Q1024=
201911011200 METAR LRAR 011200Z 23003KT 9999 SCT028 10/04 Q1023=
201911011230 METAR LRAR 011230Z 23002KT 9999 SCT030 10/04 Q1023=
201911011300 METAR LRAR 011300Z 21003KT 160V280 9999 SCT026 11/03 Q1022=
201911011330 METAR LRAR 011330Z 19003KT 120V240 9999 SCT026 11/04 Q1022=
201911011400 METAR LRAR 011400Z 16005KT 9999 FEW030 10/03 Q1022=
201911011430 METAR LRAR 011430Z 18003KT 140V220 9999 FEW030 10/03 Q1022=
201911011500 METAR LRAR 011500Z 18002KT 9999 FEW035 09/03 Q1021=
201911011530 METAR LRAR 011530Z 14002KT CAVOK 08/03 Q1021=
201911011600 METAR LRAR 011600Z VRB02KT CAVOK 06/03 Q1021=
201911011630 METAR LRAR 011630Z 17003KT CAVOK 05/02 Q1021=
201911011700 METAR LRAR 011700Z 14003KT CAVOK 06/03 Q1021=
201911011730 METAR LRAR 011730Z 13001KT CAVOK 06/02 Q1021=
201911011800 METAR LRAR 011800Z 00000KT CAVOK 04/04 Q1021=
201911011830 METAR LRAR 011830Z 21006KT 9999 BKN037 06/03 Q1021=
201911011900 METAR LRAR 011900Z 22006KT 9999 SCT039 05/02 Q1021=
201911011930 METAR LRAR 011930Z 18005KT CAVOK 05/02 Q1020=
201911012000 METAR LRAR 012000Z 15004KT CAVOK 03/02 Q1020=
201911012030 METAR LRAR 012030Z 13004KT 100V160 CAVOK 03/02 Q1020=
201911012100 METAR LRAR 012100Z 12006KT CAVOK 03/02 Q1019=
201911012130 METAR LRAR 012130Z 13004KT CAVOK 03/02 Q1019=
201911012200 METAR LRAR 012200Z 12004KT CAVOK 02/02 Q1019=
201911012230 METAR LRAR 012230Z 12006KT CAVOK 03/02 Q1018=
201911012300 METAR LRAR 012300Z 13007KT CAVOK 03/02 Q1018=
201911012330 METAR LRAR 012330Z 14007KT CAVOK 03/01 Q1017=
201911020000 METAR LRAR 020000Z 13005KT CAVOK 03/01 Q1017=
201911020030 METAR LRAR 020030Z 13007KT CAVOK 03/01 Q1016=
201911020100 METAR LRAR 020100Z 14007KT CAVOK 04/01 Q1016=
201911020130 METAR LRAR 020130Z 14006KT CAVOK 03/01 Q1015=
201911020200 METAR LRAR 020200Z 14007KT CAVOK 03/01 Q1015=
201911020230 METAR LRAR 020230Z 14006KT CAVOK 03/01 Q1015=
201911020300 METAR LRAR 020300Z 14007KT CAVOK 04/02 Q1014=
201911020330 METAR LRAR 020330Z 15008KT CAVOK 04/02 Q1014=
201911020400 METAR LRAR 020400Z 15009KT CAVOK 05/02 Q1013=
201911020430 METAR LRAR 020430Z 15010KT CAVOK 05/02 Q1013=
201911020500 METAR LRAR 020500Z 16009KT CAVOK 05/02 Q1013=
201911020530 METAR LRAR 020530Z 15009KT CAVOK 05/02 Q1013=
201911020600 METAR LRAR 020600Z 16010KT 9999 -RA SCT049 06/03 Q1013=
201911020630 METAR LRAR 020630Z 16009KT 9999 -RA FEW009 SCT022 06/03 Q1013
                        R09/19//95=
201911020700 METAR LRAR 020700Z 16010KT 9999 -RA FEW010 SCT024 07/04 Q1013
                        R09/19//95=
201911020730 METAR LRAR 020730Z 16009KT 9999 -RA SCT010 SCT020 BKN046
                        07/04 Q1013 R09/19//95=
201911020800 METAR LRAR 020800Z 16008KT 9999 SCT010 SCT022 BKN047 07/04
                        Q1012 R09/19//95=
201911020830 METAR LRAR 020830Z 16011KT 9999 -RA SCT015 SCT025 BKN046
                        08/04 Q1012 R09/19//95=
201911020900 METAR LRAR 020900Z 16009KT 9999 -RA SCT015 SCT025 BKN046
                        09/05 Q1012 R09/19//95=
201911020930 METAR LRAR 020930Z 16010KT 9999 -RA SCT015 SCT030 BKN049
                        10/05 Q1012 R09/19//95=
201911021000 METAR LRAR 021000Z 17011KT 9999 -RA FEW022 SCT032 11/05 Q1011
                        R09/19//95=
201911021030 METAR LRAR 021030Z 18012KT 9999 -RA SCT035 11/05 Q1011 R09/19//95=
201911021100 METAR LRAR 021100Z 17011KT 9999 SCT037 11/06 Q1011 R09/19//95=
201911021130 METAR LRAR 021130Z 16012KT 9999 SCT038 11/05 Q1010 R09/19//95=
201911021200 METAR LRAR 021200Z 18010KT 9999 SCT042 12/07 Q1010 R09/19//95=
201911021230 METAR COR LRAR 021230Z 18012KT 9999 -RA FEW010 SCT042 12/07
                        Q1010 R09/19//95=
201911021300 METAR LRAR 021300Z 17011KT 9999 -RA SCT010 SCT045 13/06 Q1010
                        R09/19//95=
201911021330 METAR LRAR 021330Z 17010KT 9999 SCT010 SCT048 12/07 Q1010
                        R09/19//95=
201911021400 METAR LRAR 021400Z 18009KT 9999 SCT012 SCT046 13/06 Q1010
                        R09/19//95=
201911021430 METAR LRAR 021430Z 17009KT 9999 -RA SCT015 SCT020 BKN046
                        12/07 Q1009 R09/19//95=
201911021500 METAR LRAR 021500Z 17009KT 9999 -RA SCT015 SCT021 BKN048
                        12/07 Q1009 R09/29//95=
201911021530 METAR LRAR 021530Z 18012KT 150V210 9999 SCT023 BKN048 13/06
                        Q1009 R09/29//95=
201911021600 METAR LRAR 021600Z 18012KT 9999 SCT024 BKN049 13/06 Q1009
                        R09/29//95=
201911021630 METAR LRAR 021630Z 17008KT 9999 -RA FEW013 SCT022 BKN049
                        12/07 Q1009 R09/29//95=
201911021700 METAR COR LRAR 021700Z 16008KT 9999 -RA FEW014 12/07 Q1009
                        R09/29//95=
201911021730 METAR LRAR 021730Z 17008KT 9999 -RA FEW013 11/08 Q1009 R09/29//95=
201911021800 METAR LRAR 021800Z 16007KT 9999 -RA FEW010 SCT018 10/08 Q1009
                        R09/29//95=
201911021830 METAR LRAR 021830Z 15009KT 9999 SCT010 10/08 Q1009 R09/29//95=
201911021900 METAR LRAR 021900Z 15009KT 9999 FEW012 SCT019 11/09 Q1009
                        R09/29//95=
201911021930 METAR LRAR 021930Z 16009KT 9999 -RA FEW015 SCT020 11/08 Q1009
                        R09/29//95=
201911022000 METAR LRAR 022000Z 15006KT 9999 -RA FEW016 SCT030 BKN045
                        11/09 Q1009 R09/29//95=
201911022030 METAR LRAR 022030Z 15005KT 9999 -RA FEW017 SCT032 BKN045
                        11/09 Q1009 R09/29//95=
201911022100 METAR LRAR 022100Z 16008KT 9999 -RA SCT017 OVC045 10/09 Q1008
                        R09/29//95=
201911022130 METAR LRAR 022130Z 15007KT 9999 -RA SCT018 BKN046 11/09 Q1008
                        R09/29//95=
201911022200 METAR LRAR 022200Z 16007KT 9999 -RA SCT014 BKN024 10/10 Q1008
                        R09/29//95=
201911022230 METAR LRAR 022230Z 16010KT 9999 -RA FEW008 SCT023 11/10 Q1008
                        R09/29//95=
201911022300 METAR LRAR 022300Z 15009KT 9999 -RA FEW006 11/10 Q1007 R09/29//95=
201911022330 METAR LRAR 022330Z 16009KT 9999 FEW045 11/10 Q1007 R09/29//95=
201911030000 METAR LRAR 030000Z 16010KT CAVOK 11/10 Q1007 R09/29//95=
201911030030 METAR LRAR 030030Z 17009KT CAVOK 12/09 Q1007 R09/29//95=
201911030100 METAR LRAR 030100Z 16010KT CAVOK 12/09 Q1007 R09/29//95=
201911030130 METAR LRAR 030130Z 15009KT CAVOK 12/09 Q1006 R09/29//95=
201911030200 METAR LRAR 030200Z 16011KT 9999 -RA FEW011 SCT025 12/09 Q1006
                        R09/29//95=
201911030230 METAR LRAR 030230Z 16012KT 9999 -RA FEW019 13/09 Q1006 R09/29//95=
201911030300 METAR LRAR 030300Z 17011KT 9999 -RA NSC 12/09 Q1006 R09/29//95=
201911030330 METAR LRAR 030330Z 17010KT CAVOK 13/09 Q1006 R09/29//95=
201911030400 METAR LRAR 030400Z 15008KT CAVOK 12/10 Q1006 R09/29//95=
201911030430 METAR LRAR 030430Z 14008KT 9999 -RA SCT033 12/10 Q1005 R09/29//95=
201911030500 METAR LRAR 030500Z 15009KT 9999 FEW017 SCT040 12/10 Q1005
                        R09/29//95=
201911030530 METAR LRAR 030530Z 14008KT 9999 FEW045 12/10 Q1005 R09/29//95=
201911030600 METAR LRAR 030600Z 14007KT CAVOK 12/10 Q1005 R09/29//95=
201911030630 METAR LRAR 030630Z 15007KT CAVOK 13/10 Q1005 R09/19//95=
201911030700 METAR LRAR 030700Z 14007KT CAVOK 13/10 Q1005 R09/19//95=
201911030730 METAR LRAR 030730Z 15008KT CAVOK 14/10 Q1005 R09/19//95=
201911030800 METAR LRAR 030800Z 15010KT CAVOK 15/10 Q1005 R09/19//95=
201911030830 METAR LRAR 030830Z 16010KT CAVOK 15/10 Q1004 R09/19//95=
201911030900 METAR LRAR 030900Z 16012KT CAVOK 16/11 Q1004 R09/19//95=
201911030930 METAR LRAR 030930Z 17012KT CAVOK 16/11 Q1004 R09/19//95=
201911031000 METAR LRAR 031000Z 17014G24KT CAVOK 18/11 Q1004 R09/19//95=
201911031030 METAR LRAR 031030Z 18014KT CAVOK 18/11 Q1003 R09/19//95=
201911031100 METAR LRAR 031100Z 18016KT CAVOK 19/11 Q1003 R09/CLRD//=
201911031130 METAR LRAR 031130Z 18016KT CAVOK 18/10 Q1003=
201911031200 METAR LRAR 031200Z 17016KT 150V210 CAVOK 18/10 Q1002=
201911031230 METAR LRAR 031230Z 17017KT CAVOK 18/10 Q1002=
201911031300 METAR LRAR 031300Z 17015KT CAVOK 17/10 Q1002=
201911031330 METAR LRAR 031330Z 17015G26KT 150V210 9999 FEW045 17/10 Q1002=
201911031400 METAR LRAR 031400Z 17016KT CAVOK 17/11 Q1002=
201911031430 METAR LRAR 031430Z 16014KT CAVOK 16/12 Q1002=
201911031500 METAR LRAR 031500Z 16013G25KT 9999 -RA FEW015 15/12 Q1002=
201911031530 METAR LRAR 031530Z 15014KT 9999 -RA FEW020 15/12 Q1002=
201911031600 METAR LRAR 031600Z 15013KT 9999 -RA FEW025 15/12 Q1002=
201911031630 METAR LRAR 031630Z 15013KT 9999 -RA FEW030 15/12 Q1002=
201911031700 METAR LRAR 031700Z 13011KT 9999 SCT034 15/12 Q1002=
201911031730 METAR LRAR 031730Z 14010KT 9999 SCT040 14/12 Q1002=
201911031800 METAR LRAR 031800Z 14009KT 9999 FEW048 14/11 Q1001=
201911031830 METAR LRAR 031830Z 14009KT CAVOK 14/11 Q1001=
201911031900 METAR LRAR 031900Z 14009KT CAVOK 14/11 Q1001=
201911031930 METAR LRAR 031930Z 15007KT CAVOK 14/11 Q1001=
201911032000 METAR LRAR 032000Z 15008KT CAVOK 14/11 Q1001=
201911032030 METAR LRAR 032030Z 15007KT CAVOK 14/11 Q1001=
201911032100 METAR LRAR 032100Z 14007KT CAVOK 14/11 Q1000=
201911032130 METAR LRAR 032130Z 14007KT CAVOK 14/11 Q1000=
201911032200 METAR LRAR 032200Z 15010KT CAVOK 16/11 Q1000=
201911032230 METAR LRAR 032230Z 16013KT CAVOK 17/10 Q1000=
201911032300 METAR LRAR 032300Z 16013KT CAVOK 17/10 Q0999=
201911032330 METAR LRAR 032330Z 16014KT CAVOK 17/10 Q0999=
201911040000 METAR LRAR 040000Z 16014KT CAVOK 17/10 Q0999=
201911040030 METAR LRAR 040030Z 16014KT CAVOK 18/10 Q0999=
201911040100 METAR LRAR 040100Z 15011KT CAVOK 17/10 Q0999=
201911040130 METAR LRAR 040130Z 13007KT CAVOK 14/10 Q0998=
201911040200 METAR LRAR 040200Z 15009KT CAVOK 16/10 Q0998=
201911040230 METAR LRAR 040230Z 14008KT CAVOK 15/10 Q0998=
201911040300 METAR LRAR 040300Z 14008KT CAVOK 15/10 Q0998=
201911040330 METAR LRAR 040330Z 14009KT CAVOK 15/10 Q0998=
201911040400 METAR LRAR 040400Z 15010KT 9999 -RA FEW007 SCT045 16/11 Q0998=
201911040430 METAR LRAR 040430Z 16011KT 9999 -RA FEW009 SCT017 BKN035
                        15/11 Q0998=
201911040500 METAR LRAR 040500Z 15012KT 9999 -RA SCT008 15/12 Q0997 R09/29//95=
201911040530 METAR LRAR 040530Z 15014KT 9999 FEW009 15/12 Q0998 R09/29//95=
201911040600 METAR LRAR 040600Z 15014KT 9999 -RA FEW009 SCT020 16/13 Q0998
                        R09/29//95=
201911040630 METAR LRAR 040630Z 15014KT 9999 -RA SCT010 15/13 Q0998 R09/29//95=
201911040700 METAR LRAR 040700Z 15013KT CAVOK 16/13 Q0998 R09/29//95=
201911040730 METAR LRAR 040730Z 15015KT CAVOK 16/13 Q0997 R09/29//95=
201911040800 METAR LRAR 040800Z 15015KT CAVOK 17/13 Q0997 R09/29//95=
201911040830 METAR LRAR 040830Z 16016KT CAVOK 17/13 Q0997 R09/19//95=
201911040900 METAR LRAR 040900Z 17015KT CAVOK 18/12 Q0997 R09/19//95=
201911040930 METAR LRAR 040930Z 17016KT CAVOK 18/12 Q0997 R09/19//95=
201911041000 METAR LRAR 041000Z 17018KT CAVOK 19/12 Q0997 R09/19//95=
201911041030 METAR LRAR 041030Z 17019KT 140V200 CAVOK 19/12 Q0996 R09/CLRD//=
201911041100 METAR LRAR 041100Z 18021G31KT CAVOK 19/12 Q0996=
201911041130 METAR LRAR 041130Z 18018KT CAVOK 19/12 Q0996=
201911041200 METAR COR LRAR 041200Z 18017KT 9999 FEW012 18/12 Q0996=
201911041230 METAR LRAR 041230Z 18017KT 150V210 9999 -RA FEW009 SCT018
                        17/13 Q0997=
201911041300 METAR LRAR 041300Z 19017G27KT 150V220 9999 -RA FEW012 SCT045
                        17/12 Q0997=
201911041330 METAR LRAR 041330Z 21014KT 9000 -SHRA FEW013 SCT023 BKN030CB
                        15/14 Q0998 R09/19//95=
201911041400 METAR LRAR 041400Z 19011KT 9999 FEW010 FEW030CB 15/15 Q0998
                        R09/19//95=
201911041430 METAR LRAR 041430Z 20011KT 9999 SCT012 15/15 Q0998 R09/19//95=
201911041500 METAR LRAR 041500Z 21011KT 9999 FEW008 BKN014 15/15 Q0999
                        R09/19//95=
201911041530 METAR LRAR 041530Z 20011KT 9999 FEW010 SCT018 15/15 Q0999
                        R09/19//95=
201911041600 METAR LRAR 041600Z 20008KT 9999 SCT014 14/14 Q1000 R09/19//95=
201911041630 METAR LRAR 041630Z 20009KT 9999 FEW020 SCT032 14/14 Q1000
                        R09/19//95=
201911041700 METAR LRAR 041700Z 20007KT 170V230 9999 SCT018 BKN030 14/14
                        Q1001 R09/19//95=
201911041730 METAR LRAR 041730Z 22008KT 9999 FEW018 SCT025 14/14 Q1001
                        R09/19//95=
201911041800 METAR LRAR 041800Z 24009KT 9999 FEW011 14/14 Q1002 R09/19//95=
201911041830 METAR LRAR 041830Z 24011KT 9999 FEW008 BKN017 13/13 Q1002
                        R09/19//95=
201911041900 METAR LRAR 041900Z 24007KT 9999 SCT007 12/12 Q1003 R09/19//95=
201911041930 METAR LRAR 041930Z 23008KT 9999 FEW008 12/12 Q1003 R09/19//95=
201911042000 METAR LRAR 042000Z 22008KT 9999 FEW008 12/12 Q1003 R09/19//95=
201911042030 METAR LRAR 042030Z 21007KT CAVOK 12/12 Q1004 R09/19//95=
201911042100 METAR LRAR 042100Z 20007KT CAVOK 11/11 Q1004 R09/19//95=
201911042130 METAR LRAR 042130Z 20008KT CAVOK 11/11 Q1004 R09/19//95=
201911042200 METAR LRAR 042200Z 20007KT CAVOK 11/11 Q1004 R09/19//95=
201911042230 METAR LRAR 042230Z 20007KT CAVOK 11/11 Q1005 R09/19//95=
201911042300 METAR LRAR 042300Z 19008KT CAVOK 11/11 Q1005 R09/19//95=
201911042330 METAR LRAR 042330Z 17007KT CAVOK 11/11 Q1005 R09/19//95=
201911050000 METAR LRAR 050000Z 17009KT CAVOK 11/11 Q1005 R09/19//95=
201911050030 METAR LRAR 050030Z 17009KT CAVOK 11/11 Q1005 R09/19//95=
201911050100 METAR LRAR 050100Z 17009KT CAVOK 11/11 Q1005 R09/19//95=
201911050130 METAR LRAR 050130Z 17010KT CAVOK 12/12 Q1005 R09/19//95=
201911050200 METAR LRAR 050200Z 18009KT CAVOK 12/12 Q1005 R09/19//95=
201911050230 METAR LRAR 050230Z 18008KT CAVOK 12/12 Q1005 R09/19//95=
201911050300 METAR LRAR 050300Z AUTO 18009KT 9999 NCD 12/12 Q1005=
201911050330 METAR LRAR 050330Z AUTO 18009KT 9999 NCD 12/12 Q1005=
201911050400 METAR COR LRAR 050400Z 18010KT CAVOK 12/12 Q1005 R09/19//95=
201911050430 METAR LRAR 050430Z 18009KT CAVOK 11/11 Q1005 R09/19//95=
201911050500 METAR LRAR 050500Z 19009KT CAVOK 12/12 Q1005 R09/19//95=
201911050530 METAR LRAR 050530Z 18010KT CAVOK 12/08 Q1005 R09/19//95=
201911050600 METAR LRAR 050600Z 18009KT CAVOK 12/08 Q1006 R09/19//95=
201911050630 METAR LRAR 050630Z 17010KT CAVOK 13/08 Q1006 R09/19//95=
201911050700 METAR LRAR 050700Z 18012KT CAVOK 14/08 Q1006 R09/CLRD//=
201911050730 METAR LRAR 050730Z 17012KT CAVOK 15/08 Q1006=
201911050800 METAR LRAR 050800Z 18012KT CAVOK 15/09 Q1006=
201911050830 METAR LRAR 050830Z 17011KT 140V200 CAVOK 15/09 Q1006=
201911050900 METAR LRAR 050900Z 17013KT CAVOK 17/09 Q1005=
201911050930 METAR LRAR 050930Z 17014KT CAVOK 18/09 Q1005=
201911051000 METAR LRAR 051000Z 18016KT CAVOK 19/09 Q1005=
201911051030 METAR LRAR 051030Z 17016KT CAVOK 20/09 Q1004=
201911051100 METAR LRAR 051100Z 17013KT CAVOK 21/09 Q1003=
201911051130 METAR LRAR 051130Z 18015KT CAVOK 21/09 Q1003=
201911051200 METAR LRAR 051200Z 17017KT CAVOK 21/08 Q1003=
201911051230 METAR LRAR 051230Z 18015KT CAVOK 22/08 Q1002=
201911051300 METAR LRAR 051300Z 19016KT CAVOK 22/09 Q1002=
201911051330 METAR LRAR 051330Z 18015KT 160V220 CAVOK 22/09 Q1002=
201911051400 METAR LRAR 051400Z 18013KT CAVOK 21/09 Q1002=
201911051430 METAR LRAR 051430Z 18012KT CAVOK 21/09 Q1002=
201911051500 METAR LRAR 051500Z 17011KT CAVOK 21/09 Q1002=
201911051530 METAR LRAR 051530Z 17010KT CAVOK 20/09 Q1002=
201911051600 METAR LRAR 051600Z 18012KT CAVOK 20/09 Q1001=
201911051630 METAR LRAR 051630Z 16012KT CAVOK 20/09 Q1001=
201911051700 METAR LRAR 051700Z 17011KT CAVOK 19/09 Q1001=
201911051730 METAR LRAR 051730Z 16012KT CAVOK 18/09 Q1001=
201911051800 METAR LRAR 051800Z 16014G24KT CAVOK 18/09 Q1000=
201911051830 METAR LRAR 051830Z 17016KT CAVOK 18/09 Q1000=
201911051900 METAR LRAR 051900Z 17014G26KT CAVOK 18/09 Q1000=
201911051930 METAR LRAR 051930Z 17015KT CAVOK 18/09 Q1000=
201911052000 METAR LRAR 052000Z 18018G29KT CAVOK 19/09 Q0999=
201911052030 METAR LRAR 052030Z 18019G29KT 150V210 CAVOK 19/09 Q0999=
201911052100 METAR LRAR 052100Z 18018KT CAVOK 19/09 Q0999=
201911052130 METAR LRAR 052130Z 18019G29KT CAVOK 19/09 Q0999=
201911052200 METAR LRAR 052200Z 18018KT CAVOK 19/09 Q0999=
201911052230 METAR LRAR 052230Z 18018KT CAVOK 19/09 Q0999=
201911052300 METAR LRAR 052300Z 18018KT CAVOK 19/09 Q0999=
201911052330 METAR LRAR 052330Z 18018KT CAVOK 19/09 Q0998=
201911060000 METAR LRAR 060000Z 18019KT 150V210 CAVOK 19/09 Q0998=
201911060030 METAR LRAR 060030Z 18021KT CAVOK 19/09 Q0998=
201911060100 METAR LRAR 060100Z 29015KT 9999 -RA FEW013 17/12 Q1000=
201911060130 METAR LRAR 060130Z 26006KT 220V300 9999 -SHRA FEW010 SCT032CB
                        15/13 Q1000=
201911060200 METAR LRAR 060200Z 28007KT 9999 -SHRA FEW008 SCT035CB 15/13
                        Q1000=
201911060230 METAR LRAR 060230Z 30008KT 9999 FEW011 14/14 Q1001=
201911060300 METAR LRAR 060300Z 29009KT 9999 -SHRA FEW008 SCT035CB 13/13
                        Q1002=
201911060330 METAR COR LRAR 060330Z 29004KT 9999 -SHRA FEW012 SCT027 BKN032CB
                        13/13 Q1001=
201911060400 METAR LRAR 060400Z 29005KT 250V320 9999 -SHRA FEW013 SCT025
                        BKN032CB 13/13 Q1003=
201911060430 METAR LRAR 060430Z 24006KT 9000 -SHRA FEW012 SCT020 BKN035CB
                        13/13 Q1003=
201911060500 METAR LRAR 060500Z 23005KT 9999 -SHRA FEW011 SCT020 BKN038CB
                        13/13 Q1004=
201911060530 METAR LRAR 060530Z 20007KT 9999 -SHRA FEW010 BKN017 SCT040CB
                        13/13 Q1003=
201911060600 METAR LRAR 060600Z 16008KT 9999 BKN018 FEW045CB 13/13 Q1003=
201911060630 METAR LRAR 060630Z 17009KT 140V200 9999 -SHRA FEW011 SCT023
                        FEW050CB 13/13 Q1003=
201911060700 METAR LRAR 060700Z 19009KT 9999 -SHRA FEW003 BKN015 FEW050CB
                        13/13 Q1004=
201911060730 METAR LRAR 060730Z 18010KT 160V220 9999 -SHRA FEW003 BKN017
                        FEW055CB 13/12 Q1005=
201911060800 METAR LRAR 060800Z 18010KT 9999 -SHRA FEW006 BKN0018 FEW058CB
                        13/13 Q1005=
201911060830 METAR LRAR 060830Z 19010KT 160V220 9999 FEW007 BKN020 13/13
                        Q1006 R09/29//95=
201911060900 METAR LRAR 060900Z 20010KT 9999 SCT009 BKN024 13/13 Q1006
                        R09/29//95=
201911060930 METAR LRAR 060930Z 20010KT 170V230 9999 FEW008 SCT019 BKN025
                        13/13 Q1007 R09/29//95=
201911061000 METAR LRAR 061000Z 21011KT 9999 SCT016 BKN027 14/13 Q1007
                        R09/29//95=
201911061030 METAR LRAR 061030Z 20010KT 9999 SCT018 BKN033 14/13 Q1007
                        R09/29//95=
201911061100 METAR LRAR 061100Z 20009KT 9999 SCT023 BKN035 14/13 Q1007
                        R09/29//95=
201911061130 METAR LRAR 061130Z 20008KT 9999 SCT022 BKN035 14/13 Q1007
                        R09/29//95=
201911061200 METAR LRAR 061200Z 20010KT 9999 SCT025 BKN036 14/13 Q1007
                        R09/29//95=
201911061230 METAR LRAR 061230Z 19009KT 9999 SCT026 BKN037 14/13 Q1007
                        R09/29//95=
201911061300 METAR LRAR 061300Z 19008KT 9999 SCT026 BKN037 14/13 Q1007
                        R09/CLRD//=
201911061330 METAR LRAR 061330Z 19007KT 160V220 9999 SCT028 BKN040 14/13
                        Q1007=
201911061400 METAR LRAR 061400Z 18006KT 9999 SCT030 BKN040 14/13 Q1007=
201911061430 METAR LRAR 061430Z 19005KT 9999 FEW036 BKN040 13/13 Q1008=
201911061500 METAR COR LRAR 061500Z 17004KT 9999 SCT045 13/13 Q1007=
201911061530 METAR LRAR 061530Z 18003KT 9999 SCT047 13/12 Q1008=
201911061600 METAR LRAR 061600Z 16004KT 9999 SCT048 12/12 Q1008=
201911061630 METAR LRAR 061630Z AUTO 18006KT 9999 NCD 12/12 Q1008=
201911061700 METAR LRAR 061700Z 15005KT CAVOK 12/12 Q1007=
201911061730 METAR LRAR 061730Z 14004KT CAVOK 11/11 Q1007=
201911061800 METAR LRAR 061800Z 18003KT CAVOK 11/11 Q1008=
201911061830 METAR LRAR 061830Z 13005KT CAVOK 11/11 Q1007=
201911061900 METAR LRAR 061900Z 14003KT CAVOK 11/11 Q1008=
201911061930 METAR LRAR 061930Z 14005KT CAVOK 11/11 Q1008=
201911062000 METAR LRAR 062000Z 12004KT CAVOK 11/11 Q1007=
201911062030 METAR LRAR 062030Z 12004KT CAVOK 11/11 Q1007=
201911062100 METAR LRAR 062100Z 14004KT CAVOK 11/11 Q1007=
201911062130 METAR LRAR 062130Z 11003KT CAVOK 11/11 Q1007=
201911062200 METAR LRAR 062200Z 11005KT CAVOK 12/12 Q1007=
201911062230 METAR LRAR 062230Z 09004KT 9999 SCT030 12/12 Q1007=
201911062300 METAR LRAR 062300Z 12005KT 9999 FEW035 12/12 Q1006=
201911062330 METAR LRAR 062330Z 13007KT CAVOK 12/12 Q1006=
201911070000 METAR LRAR 070000Z 12006KT CAVOK 12/11 Q1006=
201911070030 METAR LRAR 070030Z 13006KT CAVOK 12/11 Q1006=
201911070100 METAR LRAR 070100Z 13009KT CAVOK 12/11 Q1006=
201911070130 METAR LRAR 070130Z 14007KT CAVOK 12/12 Q1006=
201911070200 METAR LRAR 070200Z 14007KT CAVOK 12/12 Q1006=
201911070230 METAR LRAR 070230Z 14007KT CAVOK 12/12 Q1006=
201911070300 METAR LRAR 070300Z 15007KT CAVOK 12/12 Q1006=
201911070330 METAR LRAR 070330Z 15008KT CAVOK 12/12 Q1006=
201911070400 METAR LRAR 070400Z 14007KT CAVOK 12/12 Q1006=
201911070430 METAR LRAR 070430Z 16006KT CAVOK 12/12 Q1006=
201911070500 METAR LRAR 070500Z 15008KT CAVOK 11/11 Q1006=
201911070530 METAR LRAR 070530Z 16006KT CAVOK 11/11 Q1006=
201911070600 METAR LRAR 070600Z 17003KT 140V200 CAVOK 11/11 Q1006=
201911070630 METAR LRAR 070630Z 16004KT 130V190 CAVOK 12/12 Q1006=
201911070700 METAR LRAR 070700Z 16007KT 9999 BKN007 12/12 Q1007=
201911070730 METAR LRAR 070730Z 20008KT 9999 BKN004 BKN006 13/13 Q1007=
201911070800 METAR LRAR 070800Z 21007KT 6000 BKN003 OVC005 12/12 Q1007=
201911070830 METAR LRAR 070830Z 21007KT 5000 BR BKN005 OVC007 12/12 Q1008=
201911070900 METAR LRAR 070900Z 24007KT 3000 BR BKN003 OVC006 12/12 Q1008=
201911070930 METAR LRAR 070930Z 23007KT 5000 BR BKN005 BKN006 12/12 Q1008=
201911071000 METAR LRAR 071000Z 23008KT 6000 SCT006 12/12 Q1008=
201911071030 METAR LRAR 071030Z 24005KT 180V270 9000 FEW007 13/12 Q1008=
201911071100 METAR LRAR 071100Z 22005KT 9000 FEW030 13/12 Q1008=
201911071130 METAR LRAR 071130Z 22005KT 9000 NSC 13/13 Q1008=
201911071200 METAR LRAR 071200Z 23004KT 190V260 9000 FEW010 13/13 Q1008=
201911071230 METAR LRAR 071230Z 22004KT 180V240 8000 FEW010 14/13 Q1009=
201911071300 METAR LRAR 071300Z 22005KT 9000 SCT013 14/12 Q1009=
201911071330 METAR LRAR 071330Z 22003KT 170V240 9000 SCT014 14/13 Q1009=
201911071400 METAR LRAR 071400Z VRB02KT 9000 FEW013 SCT017 14/12 Q1009=
201911071430 METAR LRAR 071430Z 19003KT 9000 FEW015 14/12 Q1009=
201911071500 METAR LRAR 071500Z 16003KT 9000 NSC 13/12 Q1009=
201911071530 METAR LRAR 071530Z 25002KT 5000 BR SCT020 12/12 Q1010=
201911071600 METAR COR LRAR 071600Z 00000KT 4500 BR SCT020 11/11 Q1010=
201911071630 METAR LRAR 071630Z 00000KT 3000 BR SCT020 10/10 Q1010=
201911071700 METAR LRAR 071700Z VRB01KT 3000 MIFG BR FEW026 10/10 Q1010=
201911071730 METAR LRAR 071730Z 15005KT 3500 MIFG BR NSC 10/10 Q1011=
201911071800 METAR LRAR 071800Z 15004KT 4000 BR NSC 10/10 Q1011=
201911071830 METAR LRAR 071830Z 15003KT 3300 BR NSC 09/09 Q1011=
201911071900 METAR LRAR 071900Z 14004KT 3400 BR NSC 09/09 Q1011=
201911071930 METAR LRAR 071930Z 13003KT 3400 BR NSC 09/09 Q1011=
201911072000 METAR LRAR 072000Z 11003KT 2000 BR NSC 09/09 Q1011=
201911072030 METAR LRAR 072030Z 11003KT 1800 BR NSC 09/09 Q1011=
201911072100 METAR LRAR 072100Z 12002KT 1500 BR NSC 09/09 Q1011=
201911072130 METAR LRAR 072130Z 12004KT 3000 BR NSC 08/08 Q1011=
201911072200 METAR LRAR 072200Z 11002KT 3300 BR NSC 09/09 Q1011=
201911072230 METAR LRAR 072230Z 06002KT 1700 BR NSC 08/08 Q1011=
201911072300 METAR LRAR 072300Z 10002KT 0800 R09/0700 R27/0500VP2000D
                        FG SCT002 08/08 Q1011=
201911072330 METAR LRAR 072330Z 08003KT 2500 BR FEW004 08/08 Q1011=
201911080000 METAR LRAR 080000Z 09003KT 4000 BR SCT008 08/08 Q1011=
201911080030 METAR LRAR 080030Z 08003KT 5000 BR FEW009 07/07 Q1011=
201911080100 METAR LRAR 080100Z 09002KT 4000 BR NSC 07/07 Q1010=
201911080130 METAR LRAR 080130Z 07003KT 5000 BR NSC 07/07 Q1010=
201911080200 METAR LRAR 080200Z 06002KT 5000 BR NSC 07/07 Q1010=
201911080230 METAR LRAR 080230Z 09003KT 5000 BR NSC 07/07 Q1010=
201911080300 METAR LRAR 080300Z 07004KT 6000 NSC 07/07 Q1010=
201911080330 METAR LRAR 080330Z 08003KT 7000 NSC 06/06 Q1010=
201911080400 METAR LRAR 080400Z 08004KT 8000 NSC 07/07 Q1009=
201911080430 METAR LRAR 080430Z 07004KT 8000 NSC 07/07 Q1009=
201911080500 METAR LRAR 080500Z 10004KT CAVOK 07/07 Q1009=
201911080530 METAR LRAR 080530Z 09003KT CAVOK 08/08 Q1009=
201911080600 METAR LRAR 080600Z VRB02KT CAVOK 08/08 Q1009=
201911080630 METAR LRAR 080630Z 01002KT 8000 -RA FEW009 BKN012 09/09 Q1010
                        R09/19//95=
201911080700 METAR LRAR 080700Z VRB01KT 7000 -RA FEW009 SCT016 BKN024
                        09/09 Q1010 R09/19//95=
201911080730 METAR LRAR 080730Z VRB01KT 5000 -RA BR BKN013 09/09 Q1010
                        R09/29//95=
201911080800 METAR LRAR 080800Z 08002KT 4000 RA BR FEW010 BKN018 OVC035
                        10/10 Q1010 R09/29//95=
201911080830 METAR LRAR 080830Z 05003KT 4000 RA BR BKN013 OVC035 10/10
                        Q1009 R09/29//95=
201911080900 METAR LRAR 080900Z VRB02KT 3000 RA BR SCT017 BKN020 10/10
                        Q1009 R09/29//95=
201911080930 METAR LRAR 080930Z VRB02KT 2300 RA BR BKN016 BKN020 10/10
                        Q1009 R09/29//95=
201911081000 METAR LRAR 081000Z 01003KT 340V040 4000 -RA BR SCT008 BKN015
                        10/10 Q1009 RERA R09/29//95=
201911081030 METAR LRAR 081030Z 04005KT 010V070 4000 -RA BR SCT003 BKN015
                        10/10 Q1008 RERA R09/29//95=
201911081100 METAR LRAR 081100Z 05003KT 350V080 8000 SCT002 SCT015 11/11
                        Q1008 R09/29//95=
201911081130 METAR LRAR 081130Z 04003KT 360V090 9999 FEW002 SCT015 11/11
                        Q1008 R09/29//95=
201911081200 METAR LRAR 081200Z 06005KT 9999 FEW009 BKN040 12/12 Q1008
                        R09/29//95=
201911081230 METAR LRAR 081230Z 08005KT 9999 FEW034 BKN046 12/12 Q1007
                        R09/29//95=
201911081300 METAR LRAR 081300Z 07007KT 9999 FEW005 BKN040 13/13 Q1007
                        R09/29//95=
201911081330 METAR LRAR 081330Z 08005KT 9999 FEW012 BKN040 13/13 Q1007
                        R09/29//95=
201911081400 METAR LRAR 081400Z 08005KT 9999 SCT045 13/13 Q1007 R09/29//95=
201911081430 METAR LRAR 081430Z 10006KT 9999 FEW045 13/13 Q1007 R09/29//95=
201911081500 METAR LRAR 081500Z 10005KT 9999 FEW045 13/13 Q1007 R09/19//95=
201911081530 METAR LRAR 081530Z 11002KT 8000 MIFG SCT040 12/12 Q1007 R09/19//95=
201911081600 METAR LRAR 081600Z VRB02KT 8000 MIFG BKN042 12/12 Q1007 R09/19//95=
201911081630 METAR LRAR 081630Z 11003KT 100V160 8000 MIFG SCT036 12/12
                        Q1008 R09/19//95=
201911081700 METAR LRAR 081700Z 13004KT 8000 MIFG FEW040 12/12 Q1008 R09/19//95=
201911081730 METAR LRAR 081730Z 14005KT 9000 FEW040 12/12 Q1008 R09/19//95=
201911081800 METAR LRAR 081800Z 15005KT CAVOK 12/12 Q1008 R09/19//95=
201911081830 METAR LRAR 081830Z 16004KT CAVOK 12/12 Q1008 R09/19//95=
201911081900 METAR LRAR 081900Z 16004KT CAVOK 12/12 Q1008 R09/19//95=
201911081930 METAR LRAR 081930Z 14004KT CAVOK 11/11 Q1009 R09/19//95=
201911082000 METAR LRAR 082000Z 13005KT CAVOK 10/10 Q1009 R09/19//95=
201911082030 METAR LRAR 082030Z 14004KT CAVOK 10/10 Q1009 R09/19//95=
201911082100 METAR LRAR 082100Z 14006KT CAVOK 10/10 Q1009 R09/19//95=
201911082130 METAR LRAR 082130Z 14006KT CAVOK 10/10 Q1009 R09/19//95=
201911082200 METAR LRAR 082200Z 14005KT CAVOK 10/10 Q1009 R09/19//95=
201911082230 METAR LRAR 082230Z 15006KT CAVOK 11/11 Q1009 R09/19//95=
201911082300 METAR LRAR 082300Z 18009KT CAVOK 12/11 Q1010 R09/19//95=
201911082330 METAR LRAR 082330Z 18011KT CAVOK 13/12 Q1010 R09/19//95=
201911090000 METAR LRAR 090000Z 18009KT CAVOK 13/12 Q1010 R09/19//95=
201911090030 METAR LRAR 090030Z 18009KT CAVOK 13/12 Q1010 R09/19//95=
201911090100 METAR LRAR 090100Z 18009KT CAVOK 13/11 Q1010 R09/19//95=
201911090130 METAR LRAR 090130Z 18009KT CAVOK 13/11 Q1010 R09/19//95=
201911090200 METAR LRAR 090200Z 18010KT CAVOK 13/11 Q1010 R09/19//95=
201911090230 METAR LRAR 090230Z 16009KT CAVOK 12/11 Q1010 R09/19//95=
201911090300 METAR LRAR 090300Z 15007KT CAVOK 11/10 Q1010 R09/19//95=
201911090330 METAR LRAR 090330Z 14008KT CAVOK 10/10 Q1010 R09/19//95=
201911090400 METAR LRAR 090400Z 14009KT CAVOK 11/10 Q1010 R09/19//95=
201911090430 METAR LRAR 090430Z 14008KT CAVOK 10/10 Q1010 R09/19//95=
201911090500 METAR LRAR 090500Z 13008KT CAVOK 10/09 Q1010 R09/19//95=
201911090530 METAR LRAR 090530Z 14008KT CAVOK 10/09 Q1010 R09/19//95=
201911090600 METAR LRAR 090600Z 14008KT CAVOK 10/10 Q1010 R09/19//95=
201911090630 METAR LRAR 090630Z 15008KT CAVOK 12/10 Q1011 R09/19//95=
201911090700 METAR LRAR 090700Z 14009KT CAVOK 13/11 Q1011 R09/19//95=
201911090730 METAR LRAR 090730Z 14009KT CAVOK 14/11 Q1011 R09/19//95=
201911090800 METAR LRAR 090800Z 14009KT CAVOK 15/11 Q1011 R09/19//95=
201911090830 METAR LRAR 090830Z 15008KT CAVOK 16/11 Q1011 R09/19//95=
201911090900 METAR LRAR 090900Z 16012KT CAVOK 18/09 Q1011 R09/19//95=
201911090930 METAR LRAR 090930Z 16014KT CAVOK 18/09 Q1011 R09/19//95=
201911091000 METAR LRAR 091000Z 17013KT 140V200 CAVOK 19/09 Q1010 R09/19//95=
201911091030 METAR LRAR 091030Z 17014KT CAVOK 19/10 Q1010 R09/19//95=
201911091100 METAR LRAR 091100Z 17013KT 140V200 CAVOK 19/09 Q1010 R09/19//95=
201911091130 METAR LRAR 091130Z 18012KT 150V220 CAVOK 20/10 Q1010 R09/19//95=
201911091200 METAR LRAR 091200Z 18013KT CAVOK 20/09 Q1010 R09/CLRD//=
201911091230 METAR LRAR 091230Z 19007KT 160V220 CAVOK 20/10 Q1010=
201911091300 METAR LRAR 091300Z 18009KT CAVOK 20/10 Q1010=
201911091330 METAR LRAR 091330Z 17008KT CAVOK 20/10 Q1010=
201911091400 METAR LRAR 091400Z 17008KT CAVOK 19/10 Q1010=
201911091430 METAR LRAR 091430Z 16006KT CAVOK 18/10 Q1010=
201911091500 METAR LRAR 091500Z 15006KT CAVOK 17/10 Q1010=
201911091530 METAR LRAR 091530Z 14006KT CAVOK 16/10 Q1010=
201911091600 METAR LRAR 091600Z 15007KT CAVOK 15/10 Q1010=
201911091630 METAR LRAR 091630Z 15005KT CAVOK 14/10 Q1010=
201911091700 METAR LRAR 091700Z 15005KT CAVOK 13/10 Q1010=
201911091730 METAR COR LRAR 091730Z 13005KT CAVOK 13/09 Q1010=
201911091800 METAR LRAR 091800Z 13005KT CAVOK 13/09 Q1010=
201911091830 METAR LRAR 091830Z 14004KT CAVOK 12/09 Q1010=
201911091900 METAR LRAR 091900Z 13004KT CAVOK 11/09 Q1010=
201911091930 METAR LRAR 091930Z 27006KT CAVOK 12/10 Q1011=
201911092000 METAR LRAR 092000Z VRB01KT CAVOK 12/11 Q1011=
201911092030 METAR LRAR 092030Z 12001KT CAVOK 12/11 Q1011=
201911092100 METAR LRAR 092100Z 11003KT CAVOK 12/11 Q1010=
201911092130 METAR LRAR 092130Z 11004KT CAVOK 11/11 Q1010=
201911092200 METAR LRAR 092200Z 08002KT CAVOK 11/11 Q1010=
201911092230 METAR LRAR 092230Z VRB02KT CAVOK 10/10 Q1010=
201911092300 METAR LRAR 092300Z VRB01KT CAVOK 09/09 Q1010=
201911092330 METAR LRAR 092330Z VRB02KT CAVOK 08/08 Q1009=
201911100000 METAR LRAR 100000Z 09003KT CAVOK 09/09 Q1009=
201911100030 METAR LRAR 100030Z VRB01KT CAVOK 10/10 Q1009=
201911100100 METAR LRAR 100100Z 11002KT CAVOK 09/09 Q1008=
201911100130 METAR LRAR 100130Z 09005KT CAVOK 10/10 Q1008=
201911100200 METAR LRAR 100200Z 10005KT CAVOK 11/11 Q1007=
201911100230 METAR LRAR 100230Z 10004KT CAVOK 12/11 Q1007=
201911100300 METAR LRAR 100300Z 11004KT 9999 -RA FEW010 11/11 Q1007=
201911100330 METAR LRAR 100330Z 10005KT 9999 -RA FEW010 11/11 Q1006=
201911100400 METAR LRAR 100400Z 11004KT CAVOK 12/11 Q1006=
201911100430 METAR LRAR 100430Z 13006KT 9999 -RA FEW012 12/11 Q1006=
201911100500 METAR LRAR 100500Z 13006KT 9999 -SHRA FEW011 BKN033 FEW045CB
                        13/11 Q1007=
201911100530 METAR COR LRAR 100530Z 12004KT 9999 -SHRA FEW015 BKN030 FEW050CB
                        12/12 Q1007 R09/29//95=
201911100600 METAR LRAR 100600Z 12005KT 8000 -SHRA SCT013 BKN029 SCT052CB
                        12/12 Q1007 RESHRA R09/29//95=
201911100630 METAR LRAR 100630Z 12007KT 9999 -RA FEW015 SCT024 BKN039
                        FEW055CB 12/12 Q1007 RESHRA R09/29//95=
201911100700 METAR LRAR 100700Z 13007KT 9999 -RA FEW010 BKN015 BKN028
                        12/12 Q1006 R09/29//95=
201911100730 METAR LRAR 100730Z 12006KT 9999 -RA FEW010 SCT016 BKN032
                        13/13 Q1006 R09/29//95=
201911100800 METAR LRAR 100800Z 14008KT 9999 -RA SCT020 BKN040 13/13 Q1006
                        R09/29//95=
201911100830 METAR LRAR 100830Z 13008KT 9999 -RA SCT024 BKN045 14/14 Q1006
                        R09/29//95=
201911100900 METAR LRAR 100900Z 14008KT 9999 SCT028 BKN045 15/15 Q1006
                        R09/29//95=
201911100930 METAR LRAR 100930Z 15009KT 9999 SCT028 BKN046 16/14 Q1006
                        R09/29//95=
201911101000 METAR LRAR 101000Z 15011KT 9999 SCT035 17/13 Q1006 R09/29//95=
201911101030 METAR LRAR 101030Z 17015KT 9999 SCT035 18/12 Q1006 R09/29//95=
201911101100 METAR LRAR 101100Z 18015KT 150V210 9999 FEW025 SCT036 18/12
                        Q1006 R09/29//95=
201911101130 METAR LRAR 101130Z 20016KT 9999 SCT009 BKN039 18/11 Q1006
                        R09/29//95=
201911101200 METAR LRAR 101200Z 22010KT 9999 FEW010 SCT040 FEW050CB 18/12
                        Q1007 R09/29//95=
201911101230 METAR LRAR 101230Z 23013KT 9999 SCT013 SCT040 FEW050CB 18/11
                        Q1007 R09/29//95=
201911101300 METAR LRAR 101300Z 24015KT 9999 SCT040 FEW055CB 16/12 Q1008
                        R09/29//95=
201911101330 METAR LRAR 101330Z 24016KT 9999 SCT042 15/11 Q1008 R09/29//95=
201911101400 METAR LRAR 101400Z 24014KT 9999 SCT048 15/10 Q1008 R09/29//95=
201911101430 METAR LRAR 101430Z 24012KT 9999 SCT048 14/11 Q1008 R09/CLRD//=
201911101500 METAR LRAR 101500Z 25013KT 9999 FEW048 13/11 Q1009=
201911101530 METAR LRAR 101530Z 25010KT 9999 SCT010 12/10 Q1010=
201911101600 METAR LRAR 101600Z 27011KT 9999 SCT010 10/10 Q1010=
201911101630 METAR LRAR 101630Z 27008KT 9999 FEW009 09/09 Q1010=
201911101700 METAR LRAR 101700Z 28010KT 9999 FEW006 SCT009 09/09 Q1011=
201911101730 METAR LRAR 101730Z 24003KT 9999 SCT011 08/08 Q1012=
201911101800 METAR LRAR 101800Z 26003KT 240V320 9999 SCT008 OVC012 09/09
                        Q1013=
201911101830 METAR LRAR 101830Z 24004KT 9999 SCT008 BKN011 09/09 Q1014=
201911101900 METAR LRAR 101900Z 26006KT 9999 SCT009 OVC011 09/09 Q1014=
201911101930 METAR LRAR 101930Z 28005KT 9999 -RA BKN011 09/09 Q1014=
201911102000 METAR LRAR 102000Z 27003KT 9999 SCT008 OVC011 09/09 Q1015=
201911102030 METAR LRAR 102030Z 24004KT 200V260 9999 SCT007 OVC009 09/09
                        Q1015=
201911102100 METAR LRAR 102100Z 21003KT 9999 SCT007 OVC009 09/09 Q1015=
201911102130 METAR LRAR 102130Z 20004KT 9999 SCT009 OVC011 09/09 Q1015=
201911102200 METAR LRAR 102200Z 22005KT 190V250 9999 FEW007 SCT009 OVC012
                        09/09 Q1016=
201911102230 METAR LRAR 102230Z 22005KT 9999 SCT010 OVC014 09/09 Q1016=
201911102300 METAR LRAR 102300Z 24007KT 9999 FEW008 SCT013 BKN016 09/09
                        Q1017=
201911102330 METAR LRAR 102330Z 25008KT 9999 FEW009 SCT014 BKN017 08/08
                        Q1017=
201911110000 METAR LRAR 110000Z 25007KT 9999 SCT009 BKN011 08/08 Q1017=
201911110030 METAR LRAR 110030Z 25004KT 9999 FEW009 SCT011 06/06 Q1017=
201911110100 METAR LRAR 110100Z 21005KT 9999 FEW010 06/06 Q1018=
201911110130 METAR LRAR 110130Z 23004KT CAVOK 05/05 Q1018=
201911110200 METAR LRAR 110200Z 24004KT CAVOK 05/05 Q1018=
201911110230 METAR LRAR 110230Z 23004KT CAVOK 05/05 Q1018=
201911110300 METAR LRAR 110300Z 22003KT CAVOK 05/05 Q1018=
201911110330 METAR LRAR 110330Z 23003KT 8000 NSC 04/04 Q1019=
201911110400 METAR LRAR 110400Z 20003KT 6000 NSC 04/04 Q1019=
201911110430 METAR LRAR 110430Z 19004KT 4000 MIFG BR FEW002 04/04 Q1019=
201911110500 METAR LRAR 110500Z 19003KT 0200 R27/0600N R09/0300N FG BKN001
                        04/04 Q1019=
201911110530 METAR LRAR 110530Z VRB01KT 0200 R27/0500N R09/0300N FG BKN001
                        04/04 Q1019=
201911110600 METAR LRAR 110600Z 15002KT 0300 R27/0800N R09/0400N FG BKN001
                        04/04 Q1020=
201911110630 METAR LRAR 110630Z VRB01KT 0400 R27/0550N R09/0400N FG BKN002
                        04/04 Q1020=
201911110700 METAR LRAR 110700Z VRB01KT 0200 R27/0400N R09/0300N FG FEW001
                        BKN002 05/05 Q1020=
201911110730 METAR LRAR 110730Z 15003KT 110V170 0300 R27/0600N R09/0400
                        FG BKN002 05/05 Q1020=
201911110800 METAR LRAR 110800Z 16004KT 0800 R27/1400U R09/0900N FG BKN002
                        BKN004 06/06 Q1020=
201911110830 METAR LRAR 110830Z 15005KT 3000 BR SCT002 BKN004 07/07 Q1020=
201911110900 METAR LRAR 110900Z 15006KT 6000 FEW005 BKN007 08/08 Q1020=
201911110930 METAR LRAR 110930Z 15005KT 120V200 8000 FEW005 SCT008 09/09
                        Q1020=
201911111000 METAR LRAR 111000Z 16004KT 130V210 9999 FEW010 SCT012 11/11
                        Q1019=
201911111030 METAR LRAR 111030Z 14004KT 110V210 9999 FEW013 SCT020 11/09
                        Q1019=
201911111100 METAR LRAR 111100Z 14003KT 090V230 9999 SCT024 12/08 Q1019=
201911111130 METAR LRAR 111130Z 20004KT 150V240 9999 FEW025 13/06 Q1018=
201911111200 METAR LRAR 111200Z 15003KT 110V210 9999 FEW030 13/06 Q1018=
201911111230 METAR LRAR 111230Z 18003KT 090V220 9999 FEW030 13/07 Q1018=
201911111300 METAR LRAR 111300Z 16003KT 080V200 CAVOK 13/06 Q1018=
201911111330 METAR LRAR 111330Z 12003KT 080V150 CAVOK 13/07 Q1017=
201911111400 METAR LRAR 111400Z 12003KT CAVOK 12/07 Q1017=
201911111430 METAR LRAR 111430Z 11003KT CAVOK 12/07 Q1017=
201911111500 METAR LRAR 111500Z 07002KT CAVOK 11/07 Q1017=
201911111530 METAR LRAR 111530Z 06004KT CAVOK 10/07 Q1017=
201911111600 METAR LRAR 111600Z 06004KT CAVOK 09/06 Q1016=
201911111630 METAR LRAR 111630Z 08004KT 9000 NSC 09/09 Q1016=
201911111700 METAR LRAR 111700Z 08004KT 6000 NSC 09/09 Q1017=
201911111730 METAR LRAR 111730Z 07004KT 5000 BR NSC 08/08 Q1016=
201911111800 METAR LRAR 111800Z 07003KT 5000 BR NSC 08/08 Q1016=
201911111830 METAR LRAR 111830Z 08005KT 5000 BR NSC 07/07 Q1016=
201911111900 METAR LRAR 111900Z 08004KT 7000 NSC 07/07 Q1016=
201911111930 METAR LRAR 111930Z 10004KT 7000 NSC 07/07 Q1016=
201911112000 METAR LRAR 112000Z 10003KT 8000 NSC 07/07 Q1016=
201911112030 METAR LRAR 112030Z 10004KT 9000 NSC 07/07 Q1015=
201911112100 METAR LRAR 112100Z 13006KT CAVOK 07/07 Q1015=
201911112130 METAR LRAR 112130Z 14007KT CAVOK 08/07 Q1015=
201911112200 METAR LRAR 112200Z 13009KT CAVOK 09/07 Q1015=
201911112230 METAR LRAR 112230Z 13008KT CAVOK 10/06 Q1015=
201911112300 METAR LRAR 112300Z 13007KT CAVOK 09/06 Q1015=
201911112330 METAR LRAR 112330Z 13007KT CAVOK 09/06 Q1015=
201911120000 METAR LRAR 120000Z 13008KT CAVOK 10/06 Q1015=
201911120030 METAR LRAR 120030Z 13008KT CAVOK 10/06 Q1014=
201911120100 METAR LRAR 120100Z 13010KT CAVOK 10/06 Q1014=
201911120130 METAR LRAR 120130Z 13010KT CAVOK 10/06 Q1013=
201911120200 METAR LRAR 120200Z 13011KT CAVOK 11/06 Q1013=
201911120230 METAR LRAR 120230Z 13010KT CAVOK 10/06 Q1013=
201911120300 METAR LRAR 120300Z 12009KT CAVOK 10/06 Q1013=
201911120330 METAR LRAR 120330Z 13009KT CAVOK 10/05 Q1013=
201911120400 METAR LRAR 120400Z 12010KT CAVOK 10/05 Q1013=
201911120430 METAR LRAR 120430Z 13008KT CAVOK 10/05 Q1013=
201911120500 METAR LRAR 120500Z 12007KT CAVOK 10/05 Q1012=
201911120530 METAR LRAR 120530Z 11009KT CAVOK 11/05 Q1012=
201911120600 METAR LRAR 120600Z 12010KT CAVOK 11/05 Q1012=
201911120630 METAR LRAR 120630Z 13007KT CAVOK 11/05 Q1012=
201911120700 METAR LRAR 120700Z 13008KT CAVOK 12/06 Q1012=
201911120730 METAR LRAR 120730Z 12013KT CAVOK 14/06 Q1011=
201911120800 METAR LRAR 120800Z 12011KT CAVOK 13/06 Q1011=
201911120830 METAR LRAR 120830Z 13012KT CAVOK 14/07 Q1011=
201911120900 METAR LRAR 120900Z 13010KT CAVOK 15/08 Q1011=
201911120930 METAR LRAR 120930Z 13011KT CAVOK 16/08 Q1010=
201911121000 METAR LRAR 121000Z 12009KT CAVOK 16/08 Q1010=
201911121030 METAR LRAR 121030Z 12010KT CAVOK 16/08 Q1009=
201911121100 METAR LRAR 121100Z 13011KT CAVOK 17/08 Q1009=
201911121130 METAR LRAR 121130Z 12012KT CAVOK 18/08 Q1009=
201911121200 METAR LRAR 121200Z 12012KT CAVOK 18/09 Q1008=
201911121230 METAR LRAR 121230Z 12010KT CAVOK 19/09 Q1008=
201911121300 METAR LRAR 121300Z 14012KT CAVOK 19/09 Q1008=
201911121330 METAR LRAR 121330Z 13011KT CAVOK 19/09 Q1007=
201911121400 METAR LRAR 121400Z 13014KT CAVOK 19/09 Q1007=
201911121430 METAR LRAR 121430Z 13014KT CAVOK 19/09 Q1007=
201911121500 METAR LRAR 121500Z 13012KT CAVOK 18/09 Q1007=
201911121530 METAR LRAR 121530Z 13015KT CAVOK 18/09 Q1006=
201911121600 METAR LRAR 121600Z 13014KT CAVOK 18/09 Q1006=
201911121630 METAR LRAR 121630Z 14017KT CAVOK 19/09 Q1006=
201911121700 METAR LRAR 121700Z 14015KT CAVOK 19/09 Q1006=
201911121730 METAR LRAR 121730Z 15011KT CAVOK 18/09 Q1007=
201911121800 METAR LRAR 121800Z 15009KT CAVOK 18/10 Q1007=
201911121830 METAR LRAR 121830Z 14011KT CAVOK 19/10 Q1007=
201911121900 METAR LRAR 121900Z 15013KT CAVOK 19/10 Q1007=
201911121930 METAR LRAR 121930Z 13011KT CAVOK 18/10 Q1007=
201911122000 METAR LRAR 122000Z 13011KT CAVOK 18/10 Q1007=
201911122030 METAR LRAR 122030Z 14009KT CAVOK 18/10 Q1006=
201911122100 METAR LRAR 122100Z 13007KT CAVOK 17/10 Q1006=
201911122130 METAR LRAR 122130Z 13006KT CAVOK 16/10 Q1006=
201911122200 METAR LRAR 122200Z 13004KT CAVOK 16/10 Q1006=
201911122230 METAR LRAR 122230Z 13005KT CAVOK 16/10 Q1006=
201911122300 METAR LRAR 122300Z 14007KT CAVOK 16/10 Q1005=
201911122330 METAR LRAR 122330Z 14011KT CAVOK 18/10 Q1005=
201911130000 METAR LRAR 130000Z 15011KT CAVOK 18/10 Q1005=
201911130030 METAR LRAR 130030Z 15008KT CAVOK 18/10 Q1005=
201911130100 METAR LRAR 130100Z 14008KT CAVOK 18/10 Q1004=
201911130130 METAR LRAR 130130Z 14008KT CAVOK 17/10 Q1004=
201911130200 METAR LRAR 130200Z 14009KT CAVOK 18/10 Q1004=
201911130230 METAR LRAR 130230Z 14008KT CAVOK 18/10 Q1003=
201911130300 METAR LRAR 130300Z 13007KT CAVOK 18/10 Q1003=
201911130330 METAR LRAR 130330Z 13006KT CAVOK 17/10 Q1003=
201911130400 METAR LRAR 130400Z 25013KT CAVOK 17/10 Q1003=
201911130430 METAR LRAR 130430Z 23010KT CAVOK 16/10 Q1004=
201911130500 METAR LRAR 130500Z 22011KT CAVOK 15/11 Q1004=
201911130530 METAR LRAR 130530Z 22012KT CAVOK 15/11 Q1005=
201911130600 METAR LRAR 130600Z 21012KT CAVOK 15/11 Q1005=
201911130630 METAR LRAR 130630Z 20014KT 160V220 CAVOK 15/11 Q1005=
201911130700 METAR LRAR 130700Z 19013KT CAVOK 15/11 Q1005=
201911130730 METAR LRAR 130730Z 16013KT CAVOK 15/11 Q1004=
201911130800 METAR LRAR 130800Z 16009KT 9999 -RA NSC 15/11 Q1004=
201911130830 METAR LRAR 130830Z 12009KT CAVOK 15/11 Q1003=
201911130900 METAR LRAR 130900Z 11007KT CAVOK 15/11 Q1003=
201911130930 METAR LRAR 130930Z 12009KT CAVOK 18/11 Q1003=
201911131000 METAR LRAR 131000Z 15017KT CAVOK 20/10 Q1002=
201911131030 METAR LRAR 131030Z 15024KT CAVOK 20/09 Q1002=
201911131100 METAR LRAR 131100Z 15025KT CAVOK 20/09 Q1002=
201911131130 METAR LRAR 131130Z 16021KT CAVOK 21/09 Q1002=
201911131200 METAR LRAR 131200Z 15022KT CAVOK 22/09 Q1001=
201911131230 METAR LRAR 131230Z 15017KT CAVOK 21/09 Q1002=
201911131300 METAR LRAR 131300Z 16013KT CAVOK 21/09 Q1002=
201911131330 METAR LRAR 131330Z 16012KT CAVOK 21/10 Q1002=
201911131400 METAR LRAR 131400Z 15014KT CAVOK 20/10 Q1002=
201911131430 METAR LRAR 131430Z 16013KT CAVOK 20/09 Q1002=
201911131500 METAR LRAR 131500Z 16011KT CAVOK 18/10 Q1002=
201911131530 METAR LRAR 131530Z 15012KT CAVOK 18/10 Q1002=
201911131600 METAR LRAR 131600Z 16012KT CAVOK 17/10 Q1003=
201911131630 METAR LRAR 131630Z 15013KT CAVOK 17/10 Q1003=
201911131700 METAR LRAR 131700Z 15012KT CAVOK 17/10 Q1003=
201911131730 METAR LRAR 131730Z 15013KT CAVOK 17/10 Q1004=
201911131800 METAR LRAR 131800Z 16013KT CAVOK 17/10 Q1004=
201911131830 METAR LRAR 131830Z 15012KT CAVOK 17/10 Q1004=
201911131900 METAR LRAR 131900Z 15010KT CAVOK 17/10 Q1004=
201911131930 METAR LRAR 131930Z 15011KT CAVOK 17/10 Q1005=
201911132000 METAR LRAR 132000Z 16011KT CAVOK 17/10 Q1006=
201911132030 METAR LRAR 132030Z 16011KT CAVOK 16/10 Q1006=
201911132100 METAR LRAR 132100Z 16012KT CAVOK 16/10 Q1006=
201911132130 METAR LRAR 132130Z 16011KT CAVOK 16/10 Q1006=
201911132200 METAR LRAR 132200Z 17011KT CAVOK 17/10 Q1006=
201911132230 METAR LRAR 132230Z 18011KT 9999 FEW013 17/10 Q1006=
201911132300 METAR LRAR 132300Z 17011KT 150V210 9999 FEW014 16/10 Q1007=
201911132330 METAR LRAR 132330Z 18010KT 9999 -RA NSC 16/10 Q1007=
201911140000 METAR LRAR 140000Z 21007KT CAVOK 15/11 Q1007=
201911140030 METAR LRAR 140030Z 22007KT 9999 FEW010 SCT038 15/11 Q1008=
201911140100 METAR LRAR 140100Z 23007KT 9999 FEW012 14/11 Q1008=
201911140130 METAR LRAR 140130Z 25006KT 9999 FEW038 14/12 Q1008=
201911140200 METAR LRAR 140200Z 23005KT 9999 SCT046 14/12 Q1009=
201911140230 METAR LRAR 140230Z 23003KT 9999 -RA FEW010 SCT018 13/13 Q1009=
201911140300 METAR LRAR 140300Z 29001KT 9999 FEW008 13/13 Q1009=
201911140330 METAR LRAR 140330Z 09002KT 8000 FEW035 SCT040 13/13 Q1009=
201911140400 METAR LRAR 140400Z 31003KT 7000 FEW037 SCT043 12/12 Q1009=
201911140430 METAR LRAR 140430Z 34005KT 310V020 7000 MIFG SCT008 11/11
                        Q1010=
201911140500 METAR LRAR 140500Z 35004KT 320V030 7000 -RA BKN005 BKN027
                        11/11 Q1010 R09/19//95=
201911140530 METAR LRAR 140530Z 06003KT 3000 -RA BR FEW002 SCT006 BKN018
                        11/11 Q1010 R09/29//95=
201911140600 METAR LRAR 140600Z 04003KT 010V080 3200 -RA BR FEW009 SCT015
                        BKN019 11/11 Q1010 R09/29//95=
201911140630 METAR LRAR 140630Z 06002KT 3000 -RA BR FEW008 SCT013 BKN020
                        11/11 Q1011 R09/29//95=
201911140700 METAR LRAR 140700Z 06002KT 010V100 2500 -RA BR FEW008 SCT014
                        BKN018 12/12 Q1011 R09/29//95=
201911140730 METAR LRAR 140730Z VRB02KT 2500 -RA BR FEW008 BKN020 12/12
                        Q1011 R09/29//95=
201911140800 METAR LRAR 140800Z VRB04KT 3000 BR SCT017 BKN026 12/12 Q1011
                        R09/29//95=
201911140830 METAR LRAR 140830Z 08004KT 3300 -SHRA BR SCT014 BKN031 FEW036CB
                        12/12 Q1011 R09/29//95=
201911140900 METAR LRAR 140900Z VRB03KT 4200 -SHRA BR SCT015 BKN035 FEW045CB
                        13/13 Q1011 R09/29//95=
201911140930 METAR LRAR 140930Z VRB02KT 5000 -SHRA BR FEW018 SCT045 FEW049CB
                        13/13 Q1011 R09/29//95=
201911141000 METAR LRAR 141000Z VRB02KT 6000 -RA SCT045 14/14 Q1011 R09/29//95=
201911141030 METAR LRAR 141030Z 31004KT 4500 -RA BR FEW009 SCT018 BKN045
                        14/14 Q1011 R09/29//95=
201911141100 METAR LRAR 141100Z 34003KT 320V020 4600 -RA BR SCT024 BKN046
                        14/14 Q1011 R09/29//95=
201911141130 METAR LRAR 141130Z 35003KT 5000 BR FEW030 BKN049 14/14 Q1011
                        R09/29//95=
201911141200 METAR LRAR 141200Z 36004KT 4600 -RA FEW033 BKN049 14/14 Q1011
                        R09/29//95=
201911141230 METAR LRAR 141230Z 36004KT 5000 BR FEW036 BKN049 15/15 Q1011
                        R09/29//95=
201911141300 METAR LRAR 141300Z 04004KT 6000 SCT046 15/15 Q1010 R09/29//95=
201911141330 METAR LRAR 141330Z 05004KT 8000 NSC 15/15 Q1010 R09/29//95=
201911141400 METAR LRAR 141400Z 03003KT 6000 NSC 14/14 Q1011 R09/29//95=
201911141430 METAR LRAR 141430Z VRB02KT 5000 BR NSC 14/14 Q1011 R09/19//95=
201911141500 METAR LRAR 141500Z 34002KT 3000 BR NSC 14/14 Q1011 R09/19//95=
201911141530 METAR LRAR 141530Z 36002KT 2500 BR SCT045 13/13 Q1011 R09/19//95=
201911141600 METAR LRAR 141600Z 01004KT 3200 BR SCT045 13/13 Q1011 R09/19//95=
201911141630 METAR LRAR 141630Z 02004KT 3300 -RA BR FEW002 SCT040 13/13
                        Q1011 R09/19//95=
201911141700 METAR LRAR 141700Z 04005KT 5000 BR BKN039 13/13 Q1011 R09/19//95=
201911141730 METAR LRAR 141730Z 02004KT 5000 BR SCT040 13/13 Q1011 R09/19//95=
201911141800 METAR LRAR 141800Z 02004KT 4000 BR OVC042 13/13 Q1011 R09/19//95=
201911141830 METAR LRAR 141830Z 04003KT 360V070 4000 BR OVC040 13/13 Q1011
                        R09/19//95=
201911141900 METAR LRAR 141900Z VRB01KT 4000 -RA BR SCT040 13/13 Q1011
                        R09/19//95=
201911141930 METAR LRAR 141930Z 07004KT 4000 -RA BR FEW010 SCT017 BKN042
                        13/13 Q1011 R09/19//95=
201911142000 METAR LRAR 142000Z 07003KT 5000 -RA BR FEW011 SCT018 13/13
                        Q1011 R09/19//95=
201911142030 METAR LRAR 142030Z 11002KT 5000 -RA BR SCT013 13/13 Q1012
                        R09/19//95=
201911142100 METAR LRAR 142100Z VRB01KT 5000 BR SCT048 12/12 Q1012 R09/19//95=
201911142130 METAR LRAR 142130Z 15003KT 5000 BR SCT047 12/12 Q1012 R09/19//95=
201911142200 METAR LRAR 142200Z 14005KT 6000 NSC 12/12 Q1012 R09/19//95=
201911142230 METAR LRAR 142230Z 15005KT 6000 NSC 13/13 Q1012 R09/19//95=
201911142300 METAR LRAR 142300Z 16004KT 6000 NSC 13/13 Q1012 R09/19//95=
201911142330 METAR LRAR 142330Z 15004KT 7000 NSC 13/13 Q1012 R09/19//95=
201911150000 METAR LRAR 150000Z 15003KT 6000 NSC 13/13 Q1012 R09/19//95=
201911150030 METAR LRAR 150030Z VRB02KT 5000 BR NSC 12/12 Q1012 R09/19//95=
201911150100 METAR LRAR 150100Z 00000KT 4000 BR NSC 12/12 Q1012 R09/19//95=
201911150130 METAR LRAR 150130Z 00000KT 2000 0600E R09/0800 R27/0750U
                        BCFG BR NSC 11/11 Q1012 R09/19//95=
201911150200 METAR LRAR 150200Z VRB01KT 0600 R09/0800 R27/0750N FG FEW039
                        11/11 Q1012 R09/19//95=
201911150230 METAR LRAR 150230Z 00000KT 0600 R09/0800 R27/0800U FG SCT035
                        11/11 Q1012 R09/19//95=
201911150300 METAR LRAR 150300Z 14002KT 0800 R09/1000 R27/0900U FG SCT035
                        11/11 Q1012 R09/19//95=
201911150330 METAR LRAR 150330Z 15006KT 4000 BR FEW002 SCT004 BKN036 11/11
                        Q1012 R09/19//95=
201911150400 METAR LRAR 150400Z 17005KT 1000 0400E R09/0600 R27/1100D
                        BCFG BR BKN001 OVC003 11/11 Q1012
                        R09/19//95=
201911150430 METAR LRAR 150430Z 19005KT 1000 0600E R09/0800 R27/1300D
                        BCFG BR VV002 11/11 Q1013 R09/19//95=
201911150500 METAR LRAR 150500Z 20005KT 4500 BR BKN001 BKN003 11/11 Q1013
                        R09/19//95=
201911150530 METAR LRAR 150530Z 23007KT 1100 0700N R09/1100 BCFG BR BKN001
                        BKN003 11/11 Q1013 R09/19//95=
201911150600 METAR LRAR 150600Z 22006KT 0500 R09/0500 R27/1100N FG BKN001
                        OVC002 10/10 Q1014 R09/19//95=
201911150630 METAR LRAR 150630Z 22006KT 0800 R09/0800 R27/1200N FG BKN001
                        OVC003 10/10 Q1014 R09/19//95=
201911150700 METAR LRAR 150700Z 20005KT 160V230 2000 BR SCT001 OVC002
                        10/10 Q1014 R09/19//95=
201911150730 METAR LRAR 150730Z 20005KT 1200 R09/1200 R27/1200D BR BKN001
                        OVC002 11/11 Q1014 R09/19//95=
201911150800 METAR LRAR 150800Z 17005KT 140V200 0700 R09/0700 R27/1300U
                        BCFG BR BKN001 OVC003 11/11 Q1014
                        R09/19//95=
201911150830 METAR LRAR 150830Z 17006KT 1500 BR BKN001 BKN003 11/11 Q1015
                        R09/19//95=
201911150900 METAR LRAR 150900Z 18005KT 150V210 2500 BR SCT002 BKN003
                        11/11 Q1015 R09/19//95=
201911150930 METAR LRAR 150930Z 14009KT 7000 BKN002 11/11 Q1014 R09/19//95=
201911151000 METAR LRAR 151000Z 17007KT 7000 SCT003 BKN005 12/12 Q1014
                        R09/19//95=
201911151030 METAR LRAR 151030Z 17005KT 150V210 9999 SCT005 SCT008 13/13
                        Q1014 R09/19//95=
201911151100 METAR LRAR 151100Z 16006KT 130V190 9999 FEW008 15/15 Q1014
                        R09/19//95=
201911151130 METAR LRAR 151130Z 15008KT 9999 FEW010 16/13 Q1013 R09/CLRD//=
201911151200 METAR LRAR 151200Z 17009KT 140V200 CAVOK 17/11 Q1013=
201911151230 METAR LRAR 151230Z 17008KT 140V200 CAVOK 17/11 Q1013=
201911151300 METAR LRAR 151300Z 17006KT CAVOK 17/11 Q1013=
201911151330 METAR LRAR 151330Z 15005KT CAVOK 17/11 Q1013=
201911151400 METAR LRAR 151400Z 15006KT CAVOK 16/11 Q1013=
201911151430 METAR LRAR 151430Z 15005KT CAVOK 16/11 Q1013=
201911151500 METAR LRAR 151500Z 14005KT CAVOK 15/11 Q1013=
201911151530 METAR LRAR 151530Z 13005KT CAVOK 14/11 Q1014=
201911151600 METAR LRAR 151600Z 13005KT CAVOK 14/11 Q1014=
201911151630 METAR LRAR 151630Z 12005KT CAVOK 13/11 Q1014=
201911151700 METAR LRAR 151700Z 14005KT CAVOK 13/10 Q1014=
201911151730 METAR LRAR 151730Z 14008KT CAVOK 13/10 Q1014=
201911151800 METAR LRAR 151800Z 14007KT CAVOK 13/09 Q1014=
201911151830 METAR LRAR 151830Z 14008KT CAVOK 13/09 Q1014=
201911151900 METAR LRAR 151900Z 13007KT CAVOK 13/09 Q1014=
201911151930 METAR LRAR 151930Z 14008KT CAVOK 13/09 Q1014=
201911152000 METAR LRAR 152000Z 13009KT CAVOK 13/09 Q1014=
201911152030 METAR LRAR 152030Z 14009KT CAVOK 13/09 Q1014=
201911152100 METAR LRAR 152100Z 14009KT CAVOK 13/09 Q1014=
201911152130 METAR LRAR 152130Z 14009KT CAVOK 13/09 Q1014=
201911152200 METAR LRAR 152200Z 14009KT CAVOK 13/09 Q1014=
201911152230 METAR LRAR 152230Z 14008KT CAVOK 12/09 Q1014=
201911152300 METAR LRAR 152300Z 15009KT CAVOK 12/09 Q1014=
201911152330 METAR LRAR 152330Z 15009KT CAVOK 12/09 Q1015=
201911160000 METAR LRAR 160000Z 15009KT CAVOK 12/09 Q1015=
201911160030 METAR LRAR 160030Z 15009KT CAVOK 12/09 Q1015=
201911160100 METAR LRAR 160100Z 14010KT CAVOK 12/09 Q1015=
201911160130 METAR LRAR 160130Z 14011KT CAVOK 12/09 Q1015=
201911160200 METAR LRAR 160200Z 14010KT CAVOK 12/09 Q1015=
201911160230 METAR LRAR 160230Z 14011KT CAVOK 13/09 Q1015=
201911160300 METAR LRAR 160300Z 14010KT CAVOK 13/09 Q1015=
201911160330 METAR LRAR 160330Z 14010KT CAVOK 13/09 Q1015=
201911160400 METAR LRAR 160400Z 14009KT CAVOK 13/09 Q1015=
201911160430 METAR LRAR 160430Z 14010KT CAVOK 13/09 Q1015=
201911160500 METAR LRAR 160500Z 14010KT CAVOK 13/09 Q1015=
201911160530 METAR LRAR 160530Z 15010KT CAVOK 13/09 Q1016=
201911160600 METAR LRAR 160600Z 15010KT CAVOK 13/09 Q1016=
201911160630 METAR LRAR 160630Z 14011KT CAVOK 13/09 Q1016=
201911160700 METAR LRAR 160700Z 14010KT CAVOK 14/09 Q1017=
201911160730 METAR LRAR 160730Z 15010KT CAVOK 15/09 Q1017=
201911160800 METAR LRAR 160800Z 15009KT CAVOK 15/10 Q1017=
201911160830 METAR LRAR 160830Z 15009KT CAVOK 16/10 Q1017=
201911160900 METAR LRAR 160900Z 17010KT CAVOK 17/09 Q1017=
201911160930 METAR LRAR 160930Z 16009KT 130V190 CAVOK 17/09 Q1017=
201911161000 METAR LRAR 161000Z 16011KT CAVOK 17/09 Q1017=
201911161030 METAR LRAR 161030Z 16010KT CAVOK 18/09 Q1017=
201911161100 METAR LRAR 161100Z 16012KT 130V190 CAVOK 18/09 Q1017=
201911161130 METAR LRAR 161130Z 16011KT CAVOK 18/09 Q1017=
201911161200 METAR LRAR 161200Z 17010KT CAVOK 18/09 Q1017=
201911161230 METAR LRAR 161230Z 16010KT CAVOK 18/09 Q1017=
201911161300 METAR LRAR 161300Z 15008KT CAVOK 18/10 Q1017=
201911161330 METAR LRAR 161330Z 16006KT CAVOK 18/09 Q1017=
201911161400 METAR LRAR 161400Z 15007KT CAVOK 18/10 Q1017=
201911161430 METAR LRAR 161430Z 15007KT CAVOK 17/10 Q1017=
201911161500 METAR LRAR 161500Z 15008KT CAVOK 17/10 Q1017=
201911161530 METAR LRAR 161530Z 14007KT CAVOK 16/09 Q1017=
201911161600 METAR LRAR 161600Z 15008KT CAVOK 15/09 Q1017=
201911161630 METAR LRAR 161630Z 14008KT CAVOK 15/09 Q1017=
201911161700 METAR LRAR 161700Z 14007KT CAVOK 15/09 Q1017=
201911161730 METAR LRAR 161730Z 13006KT CAVOK 14/09 Q1017=
201911161800 METAR LRAR 161800Z 13006KT CAVOK 14/08 Q1017=
201911161830 METAR LRAR 161830Z 12007KT CAVOK 14/08 Q1017=
201911161900 METAR LRAR 161900Z 13006KT CAVOK 14/08 Q1017=
201911161930 METAR LRAR 161930Z 13006KT CAVOK 14/08 Q1018=
201911162000 METAR LRAR 162000Z 13007KT CAVOK 14/08 Q1018=
201911162030 METAR LRAR 162030Z 13008KT CAVOK 14/08 Q1017=
201911162100 METAR LRAR 162100Z 14006KT CAVOK 13/08 Q1018=
201911162130 METAR LRAR 162130Z 13006KT CAVOK 12/07 Q1017=
201911162200 METAR LRAR 162200Z 13006KT CAVOK 12/07 Q1017=
201911162230 METAR LRAR 162230Z 14006KT CAVOK 12/07 Q1017=
201911162300 METAR COR LRAR 162300Z 13006KT CAVOK 11/07 Q1017=
201911162330 METAR LRAR 162330Z 15006KT CAVOK 11/07 Q1017=
201911170000 METAR LRAR 170000Z 13006KT CAVOK 11/07 Q1017=
201911170030 METAR LRAR 170030Z 14008KT CAVOK 10/07 Q1017=
201911170100 METAR LRAR 170100Z 14007KT CAVOK 10/07 Q1017=
201911170130 METAR LRAR 170130Z 14008KT CAVOK 10/07 Q1017=
201911170200 METAR LRAR 170200Z 15007KT CAVOK 11/06 Q1017=
201911170230 METAR LRAR 170230Z 14006KT CAVOK 11/06 Q1017=
201911170300 METAR LRAR 170300Z 14006KT CAVOK 10/06 Q1017=
201911170330 METAR LRAR 170330Z 13006KT CAVOK 11/06 Q1016=
201911170400 METAR LRAR 170400Z 14008KT CAVOK 11/06 Q1016=
201911170430 METAR LRAR 170430Z 14007KT CAVOK 12/07 Q1017=
201911170500 METAR LRAR 170500Z 14007KT CAVOK 12/06 Q1017=
201911170530 METAR LRAR 170530Z 15007KT CAVOK 12/07 Q1017=
201911170600 METAR LRAR 170600Z 14007KT CAVOK 12/06 Q1017=
201911170630 METAR LRAR 170630Z 15006KT CAVOK 12/07 Q1017=
201911170700 METAR LRAR 170700Z 14007KT CAVOK 12/07 Q1017=
201911170730 METAR LRAR 170730Z 15009KT CAVOK 13/07 Q1017=
201911170800 METAR LRAR 170800Z 13008KT CAVOK 13/07 Q1017=
201911170830 METAR LRAR 170830Z 13009KT CAVOK 14/07 Q1017=
201911170900 METAR LRAR 170900Z 14007KT CAVOK 15/08 Q1017=
201911170930 METAR LRAR 170930Z 14007KT CAVOK 16/08 Q1017=
201911171000 METAR LRAR 171000Z 13007KT CAVOK 17/08 Q1016=
201911171030 METAR LRAR 171030Z 13010KT CAVOK 18/08 Q1016=
201911171100 METAR LRAR 171100Z 14008KT CAVOK 18/08 Q1016=
201911171130 METAR LRAR 171130Z 14007KT CAVOK 18/08 Q1016=
201911171200 METAR LRAR 171200Z 16006KT CAVOK 18/08 Q1015=
201911171230 METAR LRAR 171230Z 13006KT CAVOK 18/08 Q1015=
201911171300 METAR LRAR 171300Z 12006KT CAVOK 17/08 Q1015=
201911171330 METAR LRAR 171330Z 13006KT CAVOK 17/09 Q1015=
201911171400 METAR LRAR 171400Z 13008KT CAVOK 17/08 Q1015=
201911171430 METAR LRAR 171430Z 14008KT CAVOK 17/07 Q1015=
201911171500 METAR LRAR 171500Z 15005KT CAVOK 16/08 Q1015=
201911171530 METAR LRAR 171530Z 14007KT CAVOK 16/07 Q1014=
201911171600 METAR LRAR 171600Z 14005KT CAVOK 14/08 Q1014=
201911171630 METAR LRAR 171630Z 13005KT CAVOK 14/08 Q1014=
201911171700 METAR LRAR 171700Z VRB02KT CAVOK 13/07 Q1014=
201911171730 METAR LRAR 171730Z 16003KT CAVOK 13/07 Q1014=
201911171800 METAR LRAR 171800Z 14006KT CAVOK 12/08 Q1014=
201911171830 METAR LRAR 171830Z 12008KT CAVOK 13/08 Q1014=
201911171900 METAR LRAR 171900Z 13007KT CAVOK 13/07 Q1014=
201911171930 METAR LRAR 171930Z 13006KT CAVOK 12/07 Q1014=
201911172000 METAR LRAR 172000Z 13004KT CAVOK 12/07 Q1014=
201911172030 METAR LRAR 172030Z 13005KT CAVOK 12/07 Q1014=
201911172100 METAR LRAR 172100Z 14003KT CAVOK 12/08 Q1014=
201911172130 METAR LRAR 172130Z 13006KT CAVOK 12/08 Q1014=
201911172200 METAR LRAR 172200Z 14009KT CAVOK 12/08 Q1013=
201911172230 METAR LRAR 172230Z 14009KT CAVOK 13/08 Q1013=
201911172300 METAR LRAR 172300Z 14009KT CAVOK 13/08 Q1013=
201911172330 METAR LRAR 172330Z 12010KT CAVOK 13/08 Q1013=
201911180000 METAR LRAR 180000Z 13006KT CAVOK 13/08 Q1013=
201911180030 METAR LRAR 180030Z 12011KT CAVOK 13/08 Q1013=
201911180100 METAR LRAR 180100Z 14007KT CAVOK 12/08 Q1013=
201911180130 METAR LRAR 180130Z 13004KT 090V160 CAVOK 12/08 Q1012=
201911180200 METAR LRAR 180200Z 14010KT CAVOK 13/08 Q1012=
201911180230 METAR LRAR 180230Z 13010KT CAVOK 14/08 Q1012=
201911180300 METAR LRAR 180300Z 13010KT CAVOK 13/08 Q1012=
201911180330 METAR LRAR 180330Z 14010KT CAVOK 13/08 Q1011=
201911180400 METAR LRAR 180400Z 14011KT CAVOK 14/08 Q1011=
201911180430 METAR LRAR 180430Z 14011KT CAVOK 14/08 Q1011=
201911180500 METAR LRAR 180500Z 14010KT CAVOK 14/08 Q1012=
201911180530 METAR LRAR 180530Z 13010KT CAVOK 14/08 Q1012=
201911180600 METAR LRAR 180600Z 13009KT CAVOK 13/08 Q1012=
201911180630 METAR LRAR 180630Z 14009KT CAVOK 13/08 Q1012=
201911180700 METAR LRAR 180700Z 14009KT CAVOK 14/08 Q1013=
201911180730 METAR LRAR 180730Z 14011KT CAVOK 15/08 Q1013=
201911180800 METAR LRAR 180800Z 14012KT CAVOK 15/08 Q1013=
201911180830 METAR LRAR 180830Z 15008KT CAVOK 16/09 Q1013=
201911180900 METAR LRAR 180900Z 16010KT 9999 -RA FEW012 SCT017 16/09 Q1014=
201911180930 METAR LRAR 180930Z 17011KT 9999 -RA SCT018 16/09 Q1014=
201911181000 METAR LRAR 181000Z 16011KT 9999 -RA SCT020 16/10 Q1014=
201911181030 METAR LRAR 181030Z 16014KT CAVOK 17/10 Q1014=
201911181100 METAR LRAR 181100Z 17014KT 140V200 9999 FEW025 18/10 Q1015=
201911181130 METAR LRAR 181130Z 19015KT 9999 FEW026 SCT036 18/10 Q1015=
201911181200 METAR LRAR 181200Z 19015KT 160V220 9999 FEW030 BKN040 18/10
                        Q1015=
201911181230 METAR COR LRAR 181230Z 20012KT 170V230 9999 FEW033 BKN040
                        17/10 Q1016=
201911181300 METAR LRAR 181300Z 21013KT 9999 SCT035 BKN045 17/09 Q1016=
201911181330 METAR LRAR 181330Z 21011KT 9999 FEW038 BKN045 17/09 Q1016=
201911181400 METAR LRAR 181400Z 21010KT 9999 FEW037 SCT045 17/10 Q1016=
201911181430 METAR LRAR 181430Z 23009KT 9999 FEW038 SCT047 16/10 Q1017=
201911181500 METAR LRAR 181500Z 24006KT 9999 SCT048 15/08 Q1018=
201911181530 METAR LRAR 181530Z 21004KT 9999 SCT048 13/09 Q1018=
201911181600 METAR LRAR 181600Z 22005KT 9999 SCT049 12/08 Q1019=
201911181630 METAR LRAR 181630Z 24004KT CAVOK 11/08 Q1019=
201911181700 METAR LRAR 181700Z 22003KT CAVOK 10/08 Q1019=
201911181730 METAR LRAR 181730Z 16002KT CAVOK 08/07 Q1019=
201911181800 METAR LRAR 181800Z 16002KT CAVOK 08/07 Q1020=
201911181830 METAR COR LRAR 181830Z 16002KT CAVOK 07/07 Q1020=
201911181900 METAR LRAR 181900Z 19001KT CAVOK 07/07 Q1020=
201911181930 METAR LRAR 181930Z 12001KT CAVOK 07/07 Q1020=
201911182000 METAR LRAR 182000Z 12004KT CAVOK 06/06 Q1021=
201911182030 METAR LRAR 182030Z 13005KT CAVOK 07/07 Q1021=
201911182100 METAR LRAR 182100Z 13004KT CAVOK 07/07 Q1021=
201911182130 METAR LRAR 182130Z 13004KT CAVOK 07/07 Q1021=
201911182200 METAR LRAR 182200Z 12005KT 9999 MIFG NSC 07/07 Q1021=
201911182230 METAR LRAR 182230Z 13003KT 9999 MIFG NSC 07/07 Q1022=
201911182300 METAR LRAR 182300Z 12005KT CAVOK 07/07 Q1022=
201911182330 METAR LRAR 182330Z 12004KT CAVOK 07/07 Q1022=
201911190000 METAR LRAR 190000Z 13004KT CAVOK 07/07 Q1022=
201911190030 METAR LRAR 190030Z 14005KT CAVOK 06/06 Q1022=
201911190100 METAR LRAR 190100Z 12002KT CAVOK 06/06 Q1022=
201911190130 METAR LRAR 190130Z 13004KT CAVOK 06/06 Q1022=
201911190200 METAR LRAR 190200Z 11004KT CAVOK 06/06 Q1022=
201911190230 METAR LRAR 190230Z 13005KT CAVOK 07/07 Q1022=
201911190300 METAR LRAR 190300Z 11003KT CAVOK 07/07 Q1022=
201911190330 METAR LRAR 190330Z 13002KT CAVOK 06/06 Q1022=
201911190400 METAR LRAR 190400Z 13004KT CAVOK 06/06 Q1022=
201911190430 METAR LRAR 190430Z 13004KT CAVOK 06/06 Q1022=
201911190500 METAR LRAR 190500Z VRB01KT 9999 MIFG NSC 05/05 Q1022=
201911190530 METAR LRAR 190530Z VRB01KT 5000 MIFG BR NSC 04/04 Q1023=
201911190600 METAR LRAR 190600Z 13003KT 7000 MIFG NSC 06/06 Q1022=
201911190630 METAR LRAR 190630Z 13003KT 8000 MIFG NSC 06/06 Q1023=
201911190700 METAR LRAR 190700Z 14003KT 8000 MIFG NSC 09/09 Q1023=
201911190730 METAR LRAR 190730Z VRB01KT CAVOK 11/10 Q1023=
201911190800 METAR LRAR 190800Z 14005KT CAVOK 12/10 Q1023=
201911190830 METAR LRAR 190830Z 13009KT CAVOK 13/09 Q1023=
201911190900 METAR LRAR 190900Z 14010KT CAVOK 14/09 Q1022=
201911190930 METAR LRAR 190930Z 13009KT CAVOK 15/09 Q1022=
201911191000 METAR LRAR 191000Z 13008KT CAVOK 16/09 Q1022=
201911191030 METAR LRAR 191030Z 11009KT CAVOK 17/10 Q1021=
201911191100 METAR LRAR 191100Z 13007KT CAVOK 17/08 Q1021=
201911191130 METAR LRAR 191130Z 14007KT 110V170 CAVOK 18/08 Q1021=
201911191200 METAR LRAR 191200Z 13006KT CAVOK 18/08 Q1021=
201911191230 METAR LRAR 191230Z 13007KT CAVOK 18/08 Q1020=
201911191300 METAR LRAR 191300Z 13006KT CAVOK 18/08 Q1020=
201911191330 METAR LRAR 191330Z 11006KT CAVOK 18/08 Q1020=
201911191400 METAR LRAR 191400Z 11005KT CAVOK 17/08 Q1020=
201911191430 METAR LRAR 191430Z 13003KT CAVOK 16/08 Q1020=
201911191500 METAR LRAR 191500Z 12002KT CAVOK 15/08 Q1020=
201911191530 METAR LRAR 191530Z 12002KT CAVOK 14/08 Q1020=
201911191600 METAR LRAR 191600Z 00000KT CAVOK 13/08 Q1020=
201911191630 METAR LRAR 191630Z 15004KT CAVOK 11/08 Q1020=
201911191700 METAR COR LRAR 191700Z 15002KT CAVOK 11/08 Q1020=
201911191730 METAR LRAR 191730Z 14003KT CAVOK 11/08 Q1020=
201911191800 METAR COR LRAR 191800Z 15002KT 8000 NSC 11/08 Q1020=
201911191830 METAR LRAR 191830Z 14004KT 5000 BR NSC 09/07 Q1020=
201911191900 METAR LRAR 191900Z 14006KT 6000 NSC 10/07 Q1020=
201911191930 METAR LRAR 191930Z 14007KT 5000 BR NSC 10/07 Q1020=
201911192000 METAR LRAR 192000Z 15006KT 9000 NSC 10/07 Q1020=
201911192030 METAR LRAR 192030Z 14005KT 8000 NSC 09/07 Q1020=
201911192100 METAR LRAR 192100Z 13005KT 7000 NSC 09/07 Q1020=
201911192130 METAR LRAR 192130Z 12007KT CAVOK 10/07 Q1020=
201911192200 METAR LRAR 192200Z 13007KT CAVOK 10/07 Q1020=
201911192230 METAR LRAR 192230Z 12006KT CAVOK 10/08 Q1019=
201911192300 METAR LRAR 192300Z 13003KT CAVOK 10/08 Q1019=
201911192330 METAR COR LRAR 192330Z 12001KT CAVOK 10/08 Q1019=
201911200000 METAR LRAR 200000Z 14003KT CAVOK 09/08 Q1019=
201911200030 METAR LRAR 200030Z 12007KT CAVOK 10/08 Q1019=
201911200100 METAR LRAR 200100Z 11008KT CAVOK 11/08 Q1018=
201911200130 METAR LRAR 200130Z 11008KT CAVOK 11/08 Q1018=
201911200200 METAR LRAR 200200Z 10009KT CAVOK 11/08 Q1018=
201911200230 METAR LRAR 200230Z 12008KT CAVOK 12/07 Q1018=
201911200300 METAR LRAR 200300Z 12005KT CAVOK 10/07 Q1017=
201911200330 METAR LRAR 200330Z 13004KT CAVOK 09/07 Q1017=
201911200400 METAR LRAR 200400Z 09003KT CAVOK 10/07 Q1017=
201911200430 METAR LRAR 200430Z 10008KT CAVOK 11/07 Q1016=
201911200500 METAR LRAR 200500Z 11009KT CAVOK 11/07 Q1016=
201911200530 METAR LRAR 200530Z 12011KT CAVOK 12/07 Q1016=
201911200600 METAR LRAR 200600Z 12009KT CAVOK 12/07 Q1016=
201911200630 METAR LRAR 200630Z 12011KT CAVOK 12/07 Q1016=
201911200700 METAR LRAR 200700Z 12009KT CAVOK 12/07 Q1016=
201911200730 METAR LRAR 200730Z 13011KT 9999 -SHRA FEW050CB 13/07 Q1016=
201911200800 METAR LRAR 200800Z 11010KT 9999 FEW050CB 13/07 Q1015=
201911200830 METAR LRAR 200830Z 12008KT CAVOK 14/07 Q1015=
201911200900 METAR LRAR 200900Z 11011KT CAVOK 14/06 Q1015=
201911200930 METAR LRAR 200930Z 11010KT CAVOK 14/06 Q1015=
201911201000 METAR LRAR 201000Z 08004KT 030V120 CAVOK 14/08 Q1015=
201911201030 METAR LRAR 201030Z 09005KT 060V120 CAVOK 14/07 Q1015=
201911201100 METAR LRAR 201100Z 12005KT 9999 -RA FEW008 SCT024 14/08 Q1015=
201911201130 METAR LRAR 201130Z 14004KT 9999 -RA SCT012 13/09 Q1015=
201911201200 METAR LRAR 201200Z 12005KT 9999 -RA SCT012 14/10 Q1014=
201911201230 METAR LRAR 201230Z 14006KT 9999 -RA FEW010 SCT014 13/11 Q1014
                        R09/19//95=
201911201300 METAR LRAR 201300Z 13007KT 9000 -RA FEW010 SCT018 13/12 Q1014
                        RERA R09/19//95=
201911201330 METAR LRAR 201330Z 14017KT 9000 -RA SCT010 SCT020 14/13 Q1014
                        RERA R09/29//95=
201911201400 METAR LRAR 201400Z 12013KT 9999 -RA SCT009 OVC032 13/13 Q1013
                        R09/29//95=
201911201430 METAR LRAR 201430Z 12012KT 9999 SCT013 OVC045 13/13 Q1014
                        R09/29//95=
201911201500 METAR LRAR 201500Z 14009KT CAVOK 13/13 Q1014 R09/29//95=
201911201530 METAR LRAR 201530Z 14010KT CAVOK 13/12 Q1014 R09/29//95=
201911201600 METAR LRAR 201600Z 13009KT CAVOK 13/12 Q1013 R09/29//95=
201911201630 METAR LRAR 201630Z 13011KT CAVOK 13/11 Q1013 R09/29//95=
201911201700 METAR LRAR 201700Z 14011KT CAVOK 13/11 Q1013 R09/29//95=
201911201730 METAR LRAR 201730Z 14010KT CAVOK 13/10 Q1014 R09/29//95=
201911201800 METAR LRAR 201800Z 13010KT CAVOK 13/10 Q1014 R09/29//95=
201911201830 METAR LRAR 201830Z 13009KT CAVOK 12/10 Q1014 R09/29//95=
201911201900 METAR LRAR 201900Z 12009KT CAVOK 12/10 Q1014 R09/19//95=
201911201930 METAR LRAR 201930Z 13010KT CAVOK 12/10 Q1014 R09/19//95=
201911202000 METAR LRAR 202000Z 13008KT CAVOK 11/09 Q1014 R09/19//95=
201911202030 METAR LRAR 202030Z 13008KT CAVOK 12/10 Q1014 R09/19//95=
201911202100 METAR LRAR 202100Z 13010KT CAVOK 13/10 Q1014 R09/19//95=
201911202130 METAR LRAR 202130Z 14010KT CAVOK 13/10 Q1014 R09/19//95=
201911202200 METAR LRAR 202200Z 13011KT CAVOK 13/10 Q1014 R09/19//95=
201911202230 METAR LRAR 202230Z 13011KT CAVOK 13/09 Q1014 R09/19//95=
201911202300 METAR LRAR 202300Z 13011KT CAVOK 13/09 Q1014 R09/19//95=
201911202330 METAR LRAR 202330Z 13010KT CAVOK 12/09 Q1014 R09/19//95=
201911210000 METAR LRAR 210000Z 13010KT CAVOK 12/09 Q1014 R09/19//95=
201911210030 METAR LRAR 210030Z 13009KT CAVOK 12/09 Q1015 R09/19//95=
201911210100 METAR LRAR 210100Z 13008KT CAVOK 12/09 Q1015 R09/19//95=
201911210130 METAR LRAR 210130Z 13008KT CAVOK 11/09 Q1014 R09/19//95=
201911210200 METAR LRAR 210200Z 14008KT CAVOK 11/08 Q1014 R09/19//95=
201911210230 METAR LRAR 210230Z 14009KT CAVOK 11/08 Q1014 R09/19//95=
201911210300 METAR LRAR 210300Z 14009KT CAVOK 11/08 Q1014 R09/19//95=
201911210330 METAR LRAR 210330Z 14008KT CAVOK 10/08 Q1014 R09/19//95=
201911210400 METAR LRAR 210400Z 14008KT CAVOK 10/08 Q1014 R09/19//95=
201911210430 METAR LRAR 210430Z 14008KT CAVOK 10/08 Q1015 R09/19//95=
201911210500 METAR LRAR 210500Z 14006KT CAVOK 10/08 Q1015 R09/19//95=
201911210530 METAR LRAR 210530Z 15006KT CAVOK 10/08 Q1015 R09/19//95=
201911210600 METAR LRAR 210600Z 14006KT CAVOK 10/08 Q1015 R09/19//95=
201911210630 METAR LRAR 210630Z 14007KT CAVOK 11/08 Q1016 R09/19//95=
201911210700 METAR LRAR 210700Z 15008KT CAVOK 11/08 Q1016 R09/CLRD//=
201911210730 METAR LRAR 210730Z 14008KT CAVOK 11/08 Q1016=
201911210800 METAR COR LRAR 210800Z 15007KT CAVOK 12/08 Q1016=
201911210830 METAR LRAR 210830Z 14008KT CAVOK 13/09 Q1016=
201911210900 METAR LRAR 210900Z 15011KT CAVOK 15/09 Q1016=
201911210930 METAR LRAR 210930Z 16010KT CAVOK 16/09 Q1016=
201911211000 METAR LRAR 211000Z 18011KT CAVOK 16/09 Q1016=
201911211030 METAR LRAR 211030Z 17009KT CAVOK 16/09 Q1015=
201911211100 METAR LRAR 211100Z NIL=
201911211130 METAR LRAR 211130Z 18007KT 9999 SCT030 17/10 Q1015=
201911211200 METAR LRAR 211200Z 17007KT 140V200 9999 SCT030 17/09 Q1015=
201911211230 METAR LRAR 211230Z 18006KT 140V210 9999 BKN041 17/09 Q1015=
201911211300 METAR LRAR 211300Z 18009KT 150V220 9999 BKN042 FEW045TCU
                        18/08 Q1015=
201911211330 METAR LRAR 211330Z 20009KT 9999 SCT043 FEW045TCU 17/09 Q1015=
201911211400 METAR LRAR 211400Z 21005KT 9999 FEW045 FEW047CB 16/09 Q1015=
201911211430 METAR LRAR 211430Z 19004KT 160V220 9999 FEW050CB 16/09 Q1015=
201911211500 METAR LRAR 211500Z 17005KT CAVOK 15/09 Q1015=
201911211530 METAR LRAR 211530Z 16005KT CAVOK 14/09 Q1016=
201911211600 METAR LRAR 211600Z 18005KT CAVOK 14/08 Q1016=
201911211630 METAR LRAR 211630Z 15004KT 110V180 CAVOK 12/08 Q1016=
201911211700 METAR LRAR 211700Z 13004KT CAVOK 12/08 Q1016=
201911211730 METAR LRAR 211730Z 14004KT CAVOK 10/08 Q1016=
201911211800 METAR LRAR 211800Z 15004KT CAVOK 09/07 Q1016=
201911211830 METAR LRAR 211830Z 15005KT CAVOK 10/07 Q1016=
201911211900 METAR LRAR 211900Z 15004KT CAVOK 09/07 Q1016=
201911211930 METAR LRAR 211930Z 15004KT CAVOK 08/07 Q1016=
201911212000 METAR LRAR 212000Z 12007KT CAVOK 10/08 Q1016=
201911212030 METAR LRAR 212030Z 13009KT CAVOK 11/08 Q1016=
201911212100 METAR LRAR 212100Z 13010KT CAVOK 12/08 Q1016=
201911212130 METAR LRAR 212130Z 14007KT CAVOK 12/08 Q1016=
201911212200 METAR LRAR 212200Z 13007KT 9999 FEW011 11/08 Q1016=
201911212230 METAR LRAR 212230Z 13006KT 9999 FEW011 11/08 Q1016=
201911212300 METAR LRAR 212300Z 14008KT CAVOK 11/08 Q1016=
201911212330 METAR LRAR 212330Z 14007KT CAVOK 11/08 Q1016=
201911220000 METAR LRAR 220000Z 14007KT CAVOK 11/08 Q1016=
201911220030 METAR LRAR 220030Z 14007KT CAVOK 11/07 Q1016=
201911220100 METAR LRAR 220100Z 15007KT CAVOK 10/07 Q1016=
201911220130 METAR LRAR 220130Z 15007KT CAVOK 10/07 Q1016=
201911220200 METAR LRAR 220200Z 14006KT CAVOK 09/07 Q1016=
201911220230 METAR LRAR 220230Z 14008KT CAVOK 10/07 Q1016=
201911220300 METAR LRAR 220300Z 14008KT CAVOK 10/07 Q1017=
201911220330 METAR LRAR 220330Z 14007KT CAVOK 10/07 Q1017=
201911220400 METAR LRAR 220400Z 15006KT CAVOK 09/06 Q1017=
201911220430 METAR LRAR 220430Z 14005KT CAVOK 09/06 Q1017=
201911220500 METAR LRAR 220500Z 14006KT CAVOK 08/06 Q1017=
201911220530 METAR LRAR 220530Z 14005KT CAVOK 08/06 Q1017=
201911220600 METAR LRAR 220600Z 14006KT CAVOK 07/06 Q1018=
201911220630 METAR LRAR 220630Z 14005KT CAVOK 08/06 Q1018=
201911220700 METAR LRAR 220700Z 13006KT CAVOK 09/06 Q1018=
201911220730 METAR LRAR 220730Z 13007KT CAVOK 10/06 Q1018=
201911220800 METAR LRAR 220800Z 13009KT CAVOK 11/05 Q1018=
201911220830 METAR LRAR 220830Z 14011KT CAVOK 12/05 Q1018=
201911220900 METAR LRAR 220900Z 14010KT CAVOK 12/05 Q1018=
201911220930 METAR LRAR 220930Z 14010KT CAVOK 12/05 Q1018=
201911221000 METAR LRAR 221000Z 14007KT CAVOK 12/06 Q1018=
201911221030 METAR LRAR 221030Z 15007KT CAVOK 12/05 Q1018=
201911221100 METAR LRAR 221100Z 19006KT 160V220 CAVOK 12/05 Q1018=
201911221130 METAR LRAR 221130Z 19007KT CAVOK 12/05 Q1018=
201911221200 METAR LRAR 221200Z 18006KT CAVOK 12/05 Q1018=
201911221230 METAR LRAR 221230Z 18006KT CAVOK 12/05 Q1018=
201911221300 METAR LRAR 221300Z 16004KT 140V200 CAVOK 12/05 Q1018=
201911221330 METAR LRAR 221330Z 17005KT 140V210 CAVOK 12/05 Q1018=
201911221400 METAR LRAR 221400Z 17007KT CAVOK 11/04 Q1018=
201911221430 METAR LRAR 221430Z 17006KT CAVOK 11/03 Q1018=
201911221500 METAR LRAR 221500Z 18005KT 150V210 CAVOK 10/04 Q1018=
201911221530 METAR LRAR 221530Z 17004KT 9999 SCT048 10/03 Q1018=
201911221600 METAR LRAR 221600Z 14003KT 9999 BKN047 09/04 Q1018=
201911221630 METAR LRAR 221630Z 14004KT 9999 BKN047 09/05 Q1018=
201911221700 METAR LRAR 221700Z 13003KT 9999 BKN048 08/05 Q1019=
201911221730 METAR LRAR 221730Z 14005KT CAVOK 09/04 Q1019=
201911221800 METAR LRAR 221800Z 13006KT CAVOK 08/04 Q1019=
201911221830 METAR LRAR 221830Z 15005KT CAVOK 08/03 Q1019=
201911221900 METAR LRAR 221900Z 16004KT CAVOK 08/03 Q1019=
201911221930 METAR LRAR 221930Z 16004KT CAVOK 07/03 Q1019=
201911222000 METAR LRAR 222000Z 14003KT CAVOK 07/03 Q1019=
201911222030 METAR LRAR 222030Z 16001KT 9999 SCT045 06/03 Q1019=
201911222100 METAR LRAR 222100Z 00000KT 9999 BKN046 06/03 Q1019=
201911222130 METAR LRAR 222130Z 14002KT 9999 BKN046 06/04 Q1019=
201911222200 METAR LRAR 222200Z 16004KT CAVOK 07/03 Q1019=
201911222230 METAR LRAR 222230Z 18003KT CAVOK 07/02 Q1019=
201911222300 METAR LRAR 222300Z 13003KT CAVOK 06/03 Q1019=
201911222330 METAR LRAR 222330Z 14003KT CAVOK 05/03 Q1019=
201911230000 METAR LRAR 230000Z 17004KT CAVOK 05/02 Q1019=
201911230030 METAR LRAR 230030Z 16003KT CAVOK 05/02 Q1019=
201911230100 METAR LRAR 230100Z 18004KT CAVOK 06/02 Q1019=
201911230130 METAR LRAR 230130Z 20004KT CAVOK 06/02 Q1019=
201911230200 METAR LRAR 230200Z 19004KT CAVOK 06/02 Q1019=
201911230230 METAR LRAR 230230Z 16002KT CAVOK 06/02 Q1019=
201911230300 METAR LRAR 230300Z 19002KT CAVOK 06/02 Q1019=
201911230330 METAR LRAR 230330Z 12003KT CAVOK 06/03 Q1019=
201911230400 METAR LRAR 230400Z 13002KT CAVOK 06/02 Q1019=
201911230430 METAR LRAR 230430Z 14003KT CAVOK 05/02 Q1019=
201911230500 METAR LRAR 230500Z 14002KT CAVOK 04/01 Q1019=
201911230530 METAR LRAR 230530Z 13006KT 9999 BKN047 05/01 Q1019=
201911230600 METAR LRAR 230600Z 14008KT 9999 BKN047 06/01 Q1019=
201911230630 METAR LRAR 230630Z 15007KT 9999 BKN046 06/01 Q1019=
201911230700 METAR LRAR 230700Z 14009KT 9999 FEW048 06/01 Q1019=
201911230730 METAR LRAR 230730Z 14008KT 9999 FEW048 07/02 Q1019=
201911230800 METAR LRAR 230800Z 14009KT CAVOK 08/02 Q1019=
201911230830 METAR LRAR 230830Z 14010KT CAVOK 09/02 Q1019=
201911230900 METAR LRAR 230900Z 14012KT CAVOK 10/02 Q1019=
201911230930 METAR LRAR 230930Z 14011KT CAVOK 10/02 Q1019=
201911231000 METAR LRAR 231000Z 14012KT CAVOK 11/02 Q1018=
201911231030 METAR LRAR 231030Z 14011KT CAVOK 11/02 Q1018=
201911231100 METAR LRAR 231100Z 15010KT CAVOK 12/03 Q1018=
201911231130 METAR LRAR 231130Z 15011KT CAVOK 12/02 Q1017=
201911231200 METAR LRAR 231200Z 16010KT CAVOK 12/02 Q1017=
201911231230 METAR LRAR 231230Z 16010KT CAVOK 12/02 Q1017=
201911231300 METAR LRAR 231300Z 15010KT CAVOK 12/03 Q1017=
201911231330 METAR LRAR 231330Z 14009KT CAVOK 12/03 Q1017=
201911231400 METAR LRAR 231400Z 14007KT CAVOK 12/03 Q1017=
201911231430 METAR LRAR 231430Z 14005KT CAVOK 11/03 Q1017=
201911231500 METAR LRAR 231500Z 15005KT CAVOK 10/03 Q1017=
201911231530 METAR LRAR 231530Z 14004KT CAVOK 10/03 Q1017=
201911231600 METAR LRAR 231600Z 14006KT CAVOK 08/03 Q1017=
201911231630 METAR LRAR 231630Z 15008KT CAVOK 08/03 Q1017=
201911231700 METAR LRAR 231700Z 14008KT CAVOK 07/02 Q1017=
201911231730 METAR LRAR 231730Z 14008KT CAVOK 07/02 Q1017=
201911231800 METAR LRAR 231800Z 14008KT CAVOK 07/02 Q1017=
201911231830 METAR LRAR 231830Z 14007KT CAVOK 06/02 Q1017=
201911231900 METAR LRAR 231900Z 14007KT CAVOK 06/02 Q1017=
201911231930 METAR LRAR 231930Z 13006KT CAVOK 05/02 Q1017=
201911232000 METAR LRAR 232000Z 13006KT CAVOK 05/02 Q1017=
201911232030 METAR LRAR 232030Z 13006KT CAVOK 05/02 Q1017=
201911232100 METAR LRAR 232100Z 14007KT CAVOK 05/02 Q1017=
201911232130 METAR LRAR 232130Z 15007KT CAVOK 05/02 Q1017=
201911232200 METAR LRAR 232200Z 14006KT CAVOK 04/02 Q1017=
201911232230 METAR LRAR 232230Z 14006KT CAVOK 04/02 Q1017=
201911232300 METAR LRAR 232300Z 13005KT CAVOK 04/02 Q1017=
201911232330 METAR LRAR 232330Z 14006KT CAVOK 05/02 Q1017=
201911240000 METAR LRAR 240000Z 15006KT CAVOK 05/02 Q1017=
201911240030 METAR LRAR 240030Z 14006KT CAVOK 05/02 Q1017=
201911240100 METAR LRAR 240100Z 14006KT CAVOK 05/02 Q1017=
201911240130 METAR LRAR 240130Z 14006KT CAVOK 05/02 Q1017=
201911240200 METAR LRAR 240200Z 14007KT CAVOK 05/02 Q1016=
201911240230 METAR LRAR 240230Z 14007KT CAVOK 05/02 Q1016=
201911240300 METAR LRAR 240300Z 14007KT CAVOK 05/02 Q1016=
201911240330 METAR LRAR 240330Z 14007KT CAVOK 05/02 Q1016=
201911240400 METAR LRAR 240400Z 14006KT CAVOK 04/02 Q1016=
201911240430 METAR LRAR 240430Z 14007KT CAVOK 04/02 Q1016=
201911240500 METAR LRAR 240500Z 14007KT CAVOK 04/02 Q1016=
201911240530 METAR LRAR 240530Z 13005KT CAVOK 04/02 Q1016=
201911240600 METAR LRAR 240600Z 12006KT CAVOK 05/02 Q1017=
201911240630 METAR LRAR 240630Z 13008KT CAVOK 06/02 Q1017=
201911240700 METAR LRAR 240700Z 13007KT CAVOK 07/03 Q1017=
201911240730 METAR LRAR 240730Z 14008KT CAVOK 08/03 Q1017=
201911240800 METAR LRAR 240800Z 14011KT CAVOK 10/03 Q1017=
201911240830 METAR LRAR 240830Z 13011KT CAVOK 10/04 Q1017=
201911240900 METAR LRAR 240900Z 13012KT CAVOK 11/04 Q1017=
201911240930 METAR LRAR 240930Z 14012KT CAVOK 12/04 Q1017=
201911241000 METAR LRAR 241000Z 14011KT CAVOK 13/04 Q1016=
201911241030 METAR LRAR 241030Z 15009KT CAVOK 13/04 Q1016=
201911241100 METAR LRAR 241100Z 15009KT CAVOK 14/04 Q1016=
201911241130 METAR LRAR 241130Z 14008KT CAVOK 14/04 Q1016=
201911241200 METAR COR LRAR 241200Z 17007KT 140V200 CAVOK 15/04 Q1016=
201911241230 METAR LRAR 241230Z 17007KT 140V200 CAVOK 15/04 Q1015=
201911241300 METAR LRAR 241300Z 16007KT 130V190 CAVOK 15/05 Q1015=
201911241330 METAR LRAR 241330Z 13007KT 100V160 CAVOK 14/05 Q1015=
201911241400 METAR LRAR 241400Z 11005KT CAVOK 14/05 Q1015=
201911241430 METAR LRAR 241430Z 11005KT CAVOK 12/04 Q1015=
201911241500 METAR LRAR 241500Z 12004KT CAVOK 12/04 Q1015=
201911241530 METAR LRAR 241530Z 13004KT CAVOK 10/04 Q1015=
201911241600 METAR LRAR 241600Z 13003KT CAVOK 10/04 Q1015=
201911241630 METAR LRAR 241630Z 14003KT CAVOK 09/05 Q1015=
201911241700 METAR LRAR 241700Z 12003KT CAVOK 08/04 Q1015=
201911241730 METAR LRAR 241730Z 13004KT CAVOK 08/04 Q1015=
201911241800 METAR LRAR 241800Z 12005KT CAVOK 08/04 Q1015=
201911241830 METAR LRAR 241830Z 13005KT CAVOK 08/04 Q1015=
201911241900 METAR LRAR 241900Z 13005KT CAVOK 07/03 Q1015=
201911241930 METAR LRAR 241930Z 11005KT CAVOK 07/04 Q1015=
201911242000 METAR LRAR 242000Z 13007KT CAVOK 08/04 Q1015=
201911242030 METAR LRAR 242030Z 14006KT CAVOK 07/03 Q1015=
201911242100 METAR LRAR 242100Z 15007KT CAVOK 07/04 Q1015=
201911242130 METAR LRAR 242130Z 13004KT CAVOK 06/03 Q1015=
201911242200 METAR LRAR 242200Z 12005KT CAVOK 05/03 Q1014=
201911242230 METAR LRAR 242230Z 12002KT CAVOK 05/03 Q1014=
201911242300 METAR LRAR 242300Z 12003KT CAVOK 05/03 Q1014=
201911242330 METAR LRAR 242330Z 13006KT CAVOK 06/03 Q1014=
201911250000 METAR LRAR 250000Z 13004KT CAVOK 05/03 Q1014=
201911250030 METAR LRAR 250030Z 13001KT CAVOK 05/03 Q1014=
201911250100 METAR LRAR 250100Z 00000KT CAVOK 04/02 Q1014=
201911250130 METAR LRAR 250130Z 00000KT CAVOK 04/03 Q1014=
201911250200 METAR LRAR 250200Z 00000KT CAVOK 02/02 Q1014=
201911250230 METAR LRAR 250230Z 12002KT CAVOK 02/02 Q1014=
201911250300 METAR COR LRAR 250300Z 06004KT CAVOK 03/03 Q1013=
201911250330 METAR LRAR 250330Z 06003KT CAVOK 03/03 Q1013=
201911250400 METAR LRAR 250400Z 10002KT CAVOK 03/03 Q1013=
201911250430 METAR LRAR 250430Z VRB01KT CAVOK 02/02 Q1013=
201911250500 METAR LRAR 250500Z VRB01KT CAVOK 02/02 Q1013=
201911250530 METAR LRAR 250530Z VRB01KT 9999 MIFG NSC 01/01 Q1013=
201911250600 METAR LRAR 250600Z 08002KT 9999 MIFG NSC 01/01 Q1013=
201911250630 METAR LRAR 250630Z 00000KT 9999 MIFG NSC 01/01 Q1013=
201911250700 METAR LRAR 250700Z VRB01KT CAVOK 02/02 Q1013=
201911250730 METAR LRAR 250730Z 30001KT CAVOK 04/04 Q1013=
201911250800 METAR LRAR 250800Z VRB02KT CAVOK 06/05 Q1013=
201911250830 METAR LRAR 250830Z VRB01KT CAVOK 08/06 Q1013=
201911250900 METAR LRAR 250900Z VRB01KT CAVOK 10/06 Q1013=
201911250930 METAR LRAR 250930Z VRB04KT CAVOK 12/05 Q1013=
201911251000 METAR LRAR 251000Z 12004KT CAVOK 13/05 Q1013=
201911251030 METAR LRAR 251030Z VRB02KT CAVOK 14/05 Q1013=
201911251100 METAR LRAR 251100Z VRB03KT CAVOK 14/05 Q1012=
201911251130 METAR LRAR 251130Z VRB01KT CAVOK 15/05 Q1012=
201911251200 METAR LRAR 251200Z 31004KT 270V010 CAVOK 14/06 Q1012=
201911251230 METAR LRAR 251230Z 33004KT 300V010 CAVOK 14/06 Q1012=
201911251300 METAR LRAR 251300Z 31004KT 280V350 CAVOK 14/06 Q1012=
201911251330 METAR LRAR 251330Z 32004KT CAVOK 14/06 Q1012=
201911251400 METAR LRAR 251400Z 36004KT CAVOK 13/06 Q1012=
201911251430 METAR LRAR 251430Z 33002KT CAVOK 12/07 Q1012=
201911251500 METAR LRAR 251500Z 31003KT CAVOK 11/07 Q1012=
201911251530 METAR LRAR 251530Z 32002KT CAVOK 09/06 Q1012=
201911251600 METAR LRAR 251600Z 32002KT CAVOK 07/06 Q1012=
201911251630 METAR LRAR 251630Z 00000KT CAVOK 07/06 Q1012=
201911251700 METAR LRAR 251700Z 02003KT CAVOK 07/07 Q1012=
201911251730 METAR LRAR 251730Z VRB01KT 8000 NSC 06/06 Q1012=
201911251800 METAR LRAR 251800Z 00000KT 8000 NSC 06/06 Q1012=
201911251830 METAR LRAR 251830Z 00000KT 7000 NSC 05/05 Q1012=
201911251900 METAR LRAR 251900Z 28004KT 6000 NSC 04/04 Q1012=
201911251930 METAR LRAR 251930Z 30003KT 6000 NSC 04/04 Q1012=
201911252000 METAR LRAR 252000Z 31001KT CAVOK 03/03 Q1012=
201911252030 METAR LRAR 252030Z 00000KT 4000 BR NSC 04/04 Q1012=
201911252100 METAR LRAR 252100Z 00000KT 3500 BR NSC 03/03 Q1012=
201911252130 METAR LRAR 252130Z 24001KT 4000 BR NSC 03/03 Q1013=
201911252200 METAR LRAR 252200Z 00000KT 4000 BR NSC 02/02 Q1013=
201911252230 METAR LRAR 252230Z 14002KT 5000 BR NSC 02/02 Q1013=
201911252300 METAR LRAR 252300Z VRB01KT 5000 BR NSC 02/02 Q1012=
201911252330 METAR LRAR 252330Z VRB02KT 5000 MIFG NSC 01/01 Q1012=
201911260000 METAR LRAR 260000Z 16002KT 4500 MIFG NSC 02/02 Q1013=
201911260030 METAR LRAR 260030Z 00000KT 2000 MIFG NSC 01/01 Q1013=
201911260100 METAR LRAR 260100Z 28004KT 0600 R27/0550N R09/0800 FZFG FEW001
                        M00/M00 Q1013=
201911260130 METAR LRAR 260130Z 32002KT 0600 R27/0700U FG BKN001 00/00
                        Q1013=
201911260200 METAR LRAR 260200Z 00000KT 0400 R27/0375N FG BKN001 00/00
                        Q1013=
201911260230 METAR LRAR 260230Z 00000KT 0350 R27/0400N FG BKN001 01/01
                        Q1012=
201911260300 METAR LRAR 260300Z 14002KT 0100 R27/0100N FG OVC001 02/02
                        Q1012=
201911260330 METAR LRAR 260330Z 00000KT 0800 R27/1000 FG BKN001 03/03
                        Q1012=
201911260400 METAR LRAR 260400Z VRB02KT 3500 BR SCT001 03/03 Q1012=
201911260430 METAR LRAR 260430Z 00000KT 4500 BR SCT003 04/04 Q1012=
201911260500 METAR LRAR 260500Z 00000KT 4500 BR SCT003 04/04 Q1013=
201911260530 METAR LRAR 260530Z 06003KT 040V130 5000 BR BKN003 05/05 Q1013=
201911260600 METAR LRAR 260600Z 15002KT 4000 BR SCT009 04/04 Q1013=
201911260630 METAR LRAR 260630Z VRB01KT 4000 BR SCT010 05/05 Q1013=
201911260700 METAR LRAR 260700Z 00000KT 4500 BR SCT018 05/05 Q1013=
201911260730 METAR LRAR 260730Z 00000KT 6000 FEW026 06/06 Q1013=
201911260800 METAR LRAR 260800Z 00000KT 8000 NSC 07/07 Q1013=
201911260830 METAR COR LRAR 260830Z VRB01KT 9000 NSC 07/07 Q1013=
201911260900 METAR LRAR 260900Z VRB01KT CAVOK 09/08 Q1013=
201911260930 METAR LRAR 260930Z VRB01KT CAVOK 09/08 Q1013=
201911261000 METAR LRAR 261000Z 36003KT 310V040 CAVOK 10/08 Q1013=
201911261030 METAR LRAR 261030Z VRB02KT CAVOK 10/07 Q1013=
201911261100 METAR LRAR 261100Z 29002KT CAVOK 10/07 Q1013=
201911261130 METAR LRAR 261130Z 27003KT 240V310 CAVOK 11/07 Q1012=
201911261200 METAR COR LRAR 261200Z VRB02KT CAVOK 11/07 Q1012=
201911261230 METAR LRAR 261230Z 27003KT 230V290 CAVOK 12/07 Q1012=
201911261300 METAR LRAR 261300Z 28004KT 260V320 CAVOK 12/07 Q1012=
201911261330 METAR LRAR 261330Z 28004KT 260V320 CAVOK 12/07 Q1012=
201911261400 METAR LRAR 261400Z 34003KT CAVOK 12/07 Q1012=
201911261430 METAR LRAR 261430Z 35002KT CAVOK 10/06 Q1012=
201911261500 METAR LRAR 261500Z 35002KT CAVOK 10/06 Q1012=
201911261530 METAR LRAR 261530Z 28001KT CAVOK 08/06 Q1013=
201911261600 METAR LRAR 261600Z 00000KT CAVOK 07/07 Q1013=
201911261630 METAR LRAR 261630Z 00000KT CAVOK 07/07 Q1013=
201911261700 METAR LRAR 261700Z 00000KT 7000 NSC 06/06 Q1013=
201911261730 METAR LRAR 261730Z 00000KT 8000 NSC 05/05 Q1013=
201911261800 METAR LRAR 261800Z 13001KT 6000 NSC 05/05 Q1013=
201911261830 METAR LRAR 261830Z 14003KT 3000 BR NSC 04/04 Q1013=
201911261900 METAR LRAR 261900Z 12002KT 3000 BR NSC 05/05 Q1013=
201911261930 METAR LRAR 261930Z 00000KT 4000 BR NSC 02/02 Q1013=
201911262000 METAR LRAR 262000Z 14002KT 2000 BR NSC 03/03 Q1013=
201911262030 METAR LRAR 262030Z 15002KT 1500 BR NSC 03/03 Q1013=
201911262100 METAR LRAR 262100Z 11001KT 0600 R09/0800 R27/0400N FG SCT003
                        04/04 Q1013=
201911262130 METAR LRAR 262130Z 12002KT 0400 R09/0600 R27/1700D FG FEW003
                        03/03 Q1013=
201911262200 METAR LRAR 262200Z 15001KT 1000 0800N R09/1200 R27/0550D
                        BCFG BR NSC 03/03 Q1013=
201911262230 METAR LRAR 262230Z 15002KT 1200 0800E R09/1000 R27/1000U
                        BCFG BR FEW003 02/02 Q1013=
201911262300 METAR LRAR 262300Z 13003KT 1000 0600E R09/0800 R27/1300D
                        BCFG BR FEW004 02/02 Q1012=
201911262330 METAR LRAR 262330Z 15003KT 2000 BR NSC 03/03 Q1012=
201911270000 METAR LRAR 270000Z 13003KT 1200 R09/1400 R27/P2000 BR NSC
                        03/03 Q1012=
201911270030 METAR LRAR 270030Z 14004KT 1500 BR NSC 02/02 Q1012=
201911270100 METAR LRAR 270100Z 15005KT 2500 BR NSC 02/02 Q1012=
201911270130 METAR LRAR 270130Z 15004KT 2000 BR NSC 02/02 Q1012=
201911270200 METAR LRAR 270200Z 14005KT 2000 BR NSC 02/02 Q1011=
201911270230 METAR LRAR 270230Z 14004KT 2500 BR NSC 02/02 Q1011=
201911270300 METAR LRAR 270300Z 13003KT 2500 BR NSC 02/02 Q1011=
201911270330 METAR LRAR 270330Z 15002KT 3500 BR NSC 02/02 Q1011=
201911270400 METAR LRAR 270400Z 14003KT 2000 MIFG BR NSC 02/02 Q1011=
201911270430 METAR LRAR 270430Z 14004KT 5000 MIFG BR NSC 02/02 Q1011=
201911270500 METAR LRAR 270500Z 14004KT 5000 MIFG BR NSC 01/01 Q1011=
201911270530 METAR LRAR 270530Z 15003KT 9999 MIFG NSC 02/02 Q1011=
201911270600 METAR LRAR 270600Z 15005KT 9999 MIFG NSC 02/02 Q1011=
201911270630 METAR LRAR 270630Z 22002KT 9999 MIFG NSC 01/01 Q1011=
201911270700 METAR LRAR 270700Z 18003KT 9999 MIFG NSC 03/03 Q1011=
201911270730 METAR LRAR 270730Z 16003KT CAVOK 06/06 Q1011=
201911270800 METAR LRAR 270800Z 15008KT CAVOK 07/06 Q1011=
201911270830 METAR LRAR 270830Z 15008KT CAVOK 08/07 Q1011=
201911270900 METAR LRAR 270900Z 16008KT CAVOK 09/06 Q1010=
201911270930 METAR LRAR 270930Z 16008KT CAVOK 10/06 Q1010=
201911271000 METAR LRAR 271000Z 16007KT CAVOK 11/06 Q1010=
201911271030 METAR LRAR 271030Z 19009KT 160V230 CAVOK 11/05 Q1009=
201911271100 METAR LRAR 271100Z 19011KT CAVOK 11/06 Q1009=
201911271130 METAR LRAR 271130Z 19010KT 150V210 CAVOK 11/06 Q1009=
201911271200 METAR LRAR 271200Z 17009KT 140V210 CAVOK 11/06 Q1008=
201911271230 METAR LRAR 271230Z 19008KT 160V220 CAVOK 12/06 Q1008=
201911271300 METAR LRAR 271300Z 18009KT 150V210 CAVOK 13/06 Q1008=
201911271330 METAR LRAR 271330Z 20008KT CAVOK 13/06 Q1008=
201911271400 METAR LRAR 271400Z 19007KT CAVOK 12/06 Q1008=
201911271430 METAR LRAR 271430Z 20005KT CAVOK 11/06 Q1008=
201911271500 METAR LRAR 271500Z 17006KT CAVOK 11/06 Q1008=
201911271530 METAR LRAR 271530Z 15006KT CAVOK 09/06 Q1008=
201911271600 METAR LRAR 271600Z 15007KT CAVOK 09/06 Q1008=
201911271630 METAR LRAR 271630Z 15007KT CAVOK 09/06 Q1008=
201911271700 METAR LRAR 271700Z 16006KT CAVOK 10/06 Q1008=
201911271730 METAR LRAR 271730Z 16008KT CAVOK 10/06 Q1008=
201911271800 METAR LRAR 271800Z 16010KT CAVOK 10/06 Q1007=
201911271830 METAR LRAR 271830Z 15009KT CAVOK 10/06 Q1007=
201911271900 METAR LRAR 271900Z 15008KT CAVOK 10/06 Q1007=
201911271930 METAR LRAR 271930Z 15009KT CAVOK 09/06 Q1007=
201911272000 METAR LRAR 272000Z 14010KT CAVOK 09/06 Q1007=
201911272030 METAR LRAR 272030Z 14009KT CAVOK 09/06 Q1007=
201911272100 METAR LRAR 272100Z 14010KT CAVOK 09/05 Q1007=
201911272130 METAR LRAR 272130Z 15008KT CAVOK 09/05 Q1007=
201911272200 METAR LRAR 272200Z 15009KT 9999 -SHRA SCT010 SCT030 FEW040CB
                        09/06 Q1007=
201911272230 METAR LRAR 272230Z 15006KT 9999 -SHRA SCT011 SCT034 FEW040CB
                        09/06 Q1007 R09/19//95=
201911272300 METAR LRAR 272300Z 16004KT 9999 -SHRA FEW012 SCT036 FEW045CB
                        09/06 Q1007 R09/19//95=
201911272330 METAR LRAR 272330Z 24003KT 170V290 9999 -RA FEW014 SCT036
                        BKN046 09/08 Q1007 R09/19//95=
201911280000 METAR LRAR 280000Z 18004KT 9999 -RA SCT015 BKN046 09/08 Q1007
                        R09/19//95=
201911280030 METAR LRAR 280030Z 18006KT 9999 -RA SCT015 BKN046 09/08 Q1007
                        R09/19//95=
201911280100 METAR LRAR 280100Z 16007KT 9999 SCT022 BKN047 09/08 Q1007
                        R09/19//95=
201911280130 METAR LRAR 280130Z 17006KT 9999 SCT025 BKN047 09/08 Q1007
                        R09/19//95=
201911280200 METAR LRAR 280200Z 17006KT 9999 -RA FEW010 SCT024 BKN043
                        09/08 Q1007 R09/19//95=
201911280230 METAR LRAR 280230Z 16009KT 9999 -RA FEW011 SCT024 BKN043
                        09/08 Q1006 R09/19//95=
201911280300 METAR LRAR 280300Z 17008KT 9999 -RA SCT015 BKN019 BKN049
                        09/09 Q1007 R09/19//95=
201911280330 METAR LRAR 280330Z 17007KT 9999 -RA FEW011 SCT017 OVC040
                        09/09 Q1006 R09/19//95=
201911280400 METAR LRAR 280400Z 17007KT 9999 -RA FEW009 SCT015 BKN030
                        09/09 Q1006 R09/19//95=
201911280430 METAR LRAR 280430Z 17008KT 9999 -DZ SCT010 SCT015 BKN018
                        09/09 Q1006 R09/19//95=
201911280500 METAR LRAR 280500Z 16010KT 9999 BKN010 09/09 Q1006 R09/19//95=
201911280530 METAR LRAR 280530Z 16010KT 9999 SCT012 09/09 Q1006 R09/29//95=
201911280600 METAR LRAR 280600Z 15010KT 9999 SCT017 09/09 Q1006 R09/29//95=
201911280630 METAR LRAR 280630Z 15010KT 9999 SCT010 09/09 Q1006 R09/29//95=
201911280700 METAR LRAR 280700Z 15008KT 9999 SCT008 09/09 Q1006 R09/29//95=
201911280730 METAR LRAR 280730Z 15009KT 9999 FEW010 09/09 Q1006 R09/29//95=
201911280800 METAR LRAR 280800Z 14010KT 9999 FEW010 10/10 Q1006 R09/29//95=
201911280830 METAR LRAR 280830Z 15010KT CAVOK 10/10 Q1006 R09/29//95=
201911280900 METAR LRAR 280900Z 16009KT CAVOK 11/10 Q1006 R09/29//95=
201911280930 METAR LRAR 280930Z 16009KT 9999 -RA FEW011 11/11 Q1005 R09/29//95=
201911281000 METAR LRAR 281000Z 16008KT 9999 -RA FEW010 SCT034 11/11 Q1005
                        R09/19//95=
201911281030 METAR LRAR 281030Z 16008KT 9999 -RA FEW006 SCT020 11/11 Q1005
                        R09/29//95=
201911281100 METAR LRAR 281100Z 16007KT 9999 -RA FEW008 SCT018 11/11 Q1005
                        R09/29//95=
201911281130 METAR LRAR 281130Z 16007KT 9999 -RA FEW010 SCT018 12/11 Q1005
                        R09/29//95=
201911281200 METAR LRAR 281200Z 17009KT 9999 -RA FEW009 12/12 Q1004 R09/29//95=
201911281230 METAR LRAR 281230Z 16011KT 9999 FEW017 12/12 Q1004 R09/29//95=
201911281300 METAR LRAR 281300Z 16011KT 9999 SCT017 12/12 Q1004 R09/29//95=
201911281330 METAR LRAR 281330Z 17009KT 9999 FEW017 12/12 Q1003 R09/29//95=
201911281400 METAR LRAR 281400Z 18009KT 9999 FEW017 12/12 Q1004 R09/29//95=
201911281430 METAR LRAR 281430Z 18009KT 9999 FEW018 12/12 Q1004 R09/29//95=
201911281500 METAR LRAR 281500Z 17011KT 9999 FEW018 12/12 Q1003 R09/29//95=
201911281530 METAR LRAR 281530Z 18010KT 9999 -RA SCT009 12/12 Q1003 R09/29//95=
201911281600 METAR LRAR 281600Z 18011KT 9999 -RA SCT012 12/11 Q1004 R09/29//95=
201911281630 METAR LRAR 281630Z 18011KT 9999 FEW012 SCT018 12/12 Q1004
                        R09/29//95=
201911281700 METAR LRAR 281700Z 20011KT 9999 FEW018 12/12 Q1004 R09/29//95=
201911281730 METAR LRAR 281730Z 19009KT CAVOK 11/11 Q1003 R09/29//95=
201911281800 METAR LRAR 281800Z 21007KT CAVOK 11/11 Q1004 R09/29//95=
201911281830 METAR LRAR 281830Z 20008KT 9999 -RA FEW012 SCT019 11/11 Q1004
                        R09/29//95=
201911281900 METAR LRAR 281900Z 21006KT 9999 -RA FEW008 SCT017 BKN025
                        11/11 Q1004 R09/29//95=
201911281930 METAR LRAR 281930Z 21007KT 9000 -RA FEW006 BKN010 11/11 Q1004
                        R09/29//95=
201911282000 METAR LRAR 282000Z 20008KT 170V230 7000 RA SCT007 BKN010
                        11/11 Q1004 R09/29//95=
201911282030 METAR LRAR 282030Z 20009KT 9999 -RA SCT009 BKN012 11/11 Q1004
                        RERA R09/29//95=
201911282100 METAR LRAR 282100Z 20010KT 9000 -RA SCT007 BKN013 11/11 Q1004
                        RERA R09/29//95=
201911282130 METAR COR LRAR 282130Z 20010KT 9999 -RA FEW005 SCT018 10/10
                        Q1004 R09/29//95=
201911282200 METAR LRAR 282200Z 20009KT 9999 SCT015 10/10 Q1004 R09/29//95=
201911282230 METAR LRAR 282230Z 20009KT 9999 FEW018 10/10 Q1004 R09/29//95=
201911282300 METAR LRAR 282300Z 20008KT 9999 FEW009 10/10 Q1004 R09/29//95=
201911282330 METAR LRAR 282330Z 22008KT 9999 SCT012 BKN036 10/10 Q1004
                        R09/29//95=
201911290000 METAR LRAR 290000Z 25008KT 9999 FEW006 BKN013 10/10 Q1004
                        R09/29//95=
201911290030 METAR LRAR 290030Z 22006KT 190V250 9999 FEW009 BKN011 10/10
                        Q1004 R09/29//95=
201911290100 METAR LRAR 290100Z 22007KT 9999 SCT008 BKN010 10/10 Q1004
                        R09/29//95=
201911290130 METAR LRAR 290130Z 24007KT 8000 FEW004 BKN009 BKN011 10/10
                        Q1004 R09/29//95=
201911290200 METAR LRAR 290200Z 25005KT 8000 FEW003 SCT009 BKN013 10/10
                        Q1005 R09/29//95=
201911290230 METAR LRAR 290230Z 25004KT 5000 BR FEW003 BKN011 09/09 Q1005
                        R09/29//95=
201911290300 METAR LRAR 290300Z 22003KT 4600 BR FEW009 SCT012 09/09 Q1005
                        R09/29//95=
201911290330 METAR COR LRAR 290330Z 21003KT 0800 R09/1000 R27/800 FG SCT001
                        08/08 Q1005 R09/29//95=
201911290400 METAR LRAR 290400Z 24003KT 0200 R27/0250N R09/0300 OVC001
                        FG 07/07 Q1005 R09/29//95=
201911290430 METAR LRAR 290430Z 29002KT 0400 R09/0550 R27/0650 FG SCT001
                        06/06 Q1006 R09/29//95=
201911290500 METAR LRAR 290500Z 00000KT 0400 R09/0600 R27/0650N FG BKN001
                        06/06 Q1006 R09/29//95=
201911290530 METAR LRAR 290530Z 09001KT 0300 R09/0500 R27/0600N FG BKN001
                        06/06 Q1006 R09/29//95=
201911290600 METAR LRAR 290600Z 22002KT 0400 R09/0600 R27/0600U FG OVC001
                        07/07 Q1006 R09/29//95=
201911290630 METAR LRAR 290630Z 00000KT 0500 R09/0700 R27/0750N FG BKN001
                        07/07 Q1006 R09/19//95=
201911290700 METAR LRAR 290700Z VRB02KT 0500 R09/0700 R27/0750N -RA FG
                        OVC001 08/08 Q1006 R09/19//95=
201911290730 METAR LRAR 290730Z 14004KT 0700 R09/0900 R27/0650U FG BKN001
                        08/08 Q1006 R09/19//95=
201911290800 METAR LRAR 290800Z 16004KT 0800 R09/1000 R27/1300D FG BKN001
                        OVC002 08/08 Q1006 R09/19//95=
201911290830 METAR LRAR 290830Z 16004KT 2000 BR BKN001 BKN003 09/09 Q1007
                        R09/19//95=
201911290900 METAR LRAR 290900Z 17004KT 4000 BR SCT001 BKN003 09/09 Q1007
                        R09/19//95=
201911290930 METAR LRAR 290930Z 20004KT 160V220 4000 BR FEW002 BKN004
                        09/09 Q1007 R09/19//95=
201911291000 METAR LRAR 291000Z 25008KT 5000 BR SCT004 OVC006 09/09 Q1008
                        R09/19//95=
201911291030 METAR LRAR 291030Z 27005KT 4000 SHRA BR SCT003 BKN016 SCT030CB
                        09/09 Q1008 R09/19//95=
201911291100 METAR LRAR 291100Z 13003KT 6000 -SHRA SCT005 BKN015 FEW030CB
                        09/09 Q1007 RESHRA R09/29//95=
201911291130 METAR LRAR 291130Z 15004KT 8000 FEW009 FEW040CB 09/09 Q1007
                        RESHRA R09/29//95=
201911291200 METAR LRAR 291200Z 18002KT 9999 FEW040CB 10/10 Q1007 R09/29//95=
201911291230 METAR LRAR 291230Z VRB02KT 9999 FEW040CB 10/10 Q1007 R09/29//95=
201911291300 METAR LRAR 291300Z 15003KT 9999 FEW040CB 10/10 Q1008 R09/29//95=
201911291330 METAR LRAR 291330Z 13004KT 9999 FEW040CB BKN047 11/11 Q1008
                        R09/29//95=
201911291400 METAR LRAR 291400Z 16006KT 9999 FEW040CB SCT044 11/10 Q1008
                        R09/29//95=
201911291430 METAR LRAR 291430Z 16007KT 9999 FEW040CB SCT045 10/10 Q1008
                        R09/19//95=
201911291500 METAR LRAR 291500Z 17006KT 9999 SCT047 09/09 Q1008 R09/19//95=
201911291530 METAR LRAR 291530Z 19006KT 9999 FEW019 SCT023 09/09 Q1009
                        R09/19//95=
201911291600 METAR LRAR 291600Z 20006KT 9999 FEW020 SCT025 09/09 Q1009
                        R09/19//95=
201911291630 METAR LRAR 291630Z 18005KT 8000 SCT017 09/09 Q1009 R09/19//95=
201911291700 METAR LRAR 291700Z 18006KT 8000 FEW015 09/09 Q1009 R09/19//95=
201911291730 METAR LRAR 291730Z 18006KT 6000 FEW013 09/09 Q1009 R09/19//95=
201911291800 METAR LRAR 291800Z 18006KT 1000 R09/1200 BR BKN001 09/09
                        Q1009 R09/19//95=
201911291830 METAR LRAR 291830Z 16006KT 0800 R09/1000 R27/1000 FG OVC001
                        08/08 Q1009 R09/19//95=
201911291900 METAR LRAR 291900Z 18005KT 0800 R27/1000 R09/1000 FG OVC001
                        08/08 Q1009 R09/19//95=
201911291930 METAR LRAR 291930Z 16004KT 0500 R09/0600 R27/0750N FG OVC001
                        07/07 Q1009 R09/19//95=
201911292000 METAR LRAR 292000Z 13002KT 0500 R09/0600 R27/0650N FG OVC001
                        07/07 Q1009 R09/19//95=
201911292030 METAR LRAR 292030Z 15003KT 120V180 0600 R09/0800 R27/0800U
                        FG OVC001 07/07 Q1009 R09/19//95=
201911292100 METAR LRAR 292100Z 18003KT 110V210 0600 R09/0800 R27/0900D
                        FG OVC001 08/08 Q1010 R09/19//95=
201911292130 METAR LRAR 292130Z VRB02KT 0500 R09/0600 R27/1100U FG OVC001
                        08/08 Q1010 R09/19//95=
201911292200 METAR LRAR 292200Z 21001KT 1000 R09/1200 BR OVC001 08/08
                        Q1010 R09/19//95=
201911292230 METAR COR LRAR 292230Z 25003KT 220V280 1000 R09/1200 R27/1100U
                        BR OVC002 08/08 Q1010 R09/19//95=
201911292300 METAR LRAR 292300Z 24002KT 1200 R09/1400 R27/1300D BR OVC001
                        08/08 Q1010 R09/19//95=
201911292330 METAR LRAR 292330Z 20003KT 0800 R09/1000 R27/1000D FG OVC001
                        07/07 Q1010 R09/19//95=
201911300000 METAR LRAR 300000Z VRB02KT 0600 R09/0600 R27/0800U FG OVC001
                        07/07 Q1010 R09/19//95=
201911300030 METAR LRAR 300030Z 19002KT 0500 R09/0600 R27/0700N FG OVC001
                        07/07 Q1010 R09/19//95=
201911300100 METAR LRAR 300100Z 00000KT 0500 R09/0600 R27/0600N FG OVC001
                        07/07 Q1010 R09/19//95=
201911300130 METAR LRAR 300130Z VRB02KT 0400 R09/0400 R27/0500N FG OVC001
                        07/07 Q1010 R09/19//95=
201911300200 METAR LRAR 300200Z VRB02KT 0600 R09/0800 R27/0800D FG OVC001
                        07/07 Q1011 R09/19//95=
201911300230 METAR LRAR 300230Z 28003KT 260V320 2500 BR SCT001 06/06 Q1011
                        R09/19//95=
201911300300 METAR LRAR 300300Z 31006KT 9999 FEW009 06/06 Q1011 R09/19//95=
201911300330 METAR LRAR 300330Z 31006KT CAVOK 06/06 Q1012 R09/19//95=
201911300400 METAR LRAR 300400Z 32009KT CAVOK 06/06 Q1012 R09/19//95=
201911300430 METAR LRAR 300430Z 31009KT 9999 BKN045 06/06 Q1013 R09/19//95=
201911300500 METAR LRAR 300500Z 32009KT 9999 BKN046 05/05 Q1013 R09/19//95=
201911300530 METAR LRAR 300530Z 31010KT 9999 BKN049 05/04 Q1014 R09/19//95=
201911300600 METAR LRAR 300600Z 32010KT 9999 BKN049 05/03 Q1014 R09/19//95=
201911300630 METAR LRAR 300630Z 31009KT 9999 SCT049 04/03 Q1014 R09/19//95=
201911300700 METAR COR LRAR 300700Z 31011KT 9999 SCT049 04/03 Q1015 R09/CLRD//=
201911300730 METAR LRAR 300730Z 31010KT 9999 FEW049 04/03 Q1015=
201911300800 METAR LRAR 300800Z 31010KT 9999 FEW026 04/03 Q1016=
201911300830 METAR COR LRAR 300830Z 31013KT 9999 SCT026 04/03 Q1016=
201911300900 METAR LRAR 300900Z 31015KT 9999 SCT026 05/03 Q1016=
201911300930 METAR LRAR 300930Z 32016KT 9999 SCT029 BKN039 05/03 Q1017=
201911301000 METAR LRAR 301000Z 32015KT 9999 SCT032 BKN049 05/02 Q1017=
201911301030 METAR LRAR 301030Z 32013KT 9999 SCT033 BKN049 06/03 Q1017=
201911301100 METAR LRAR 301100Z 33012KT 9999 SCT035 07/03 Q1017=
201911301130 METAR LRAR 301130Z 32013KT 9999 SCT038 06/03 Q1018=
201911301200 METAR LRAR 301200Z 32013KT 9999 FEW024 SCT039 07/03 Q1018=
201911301230 METAR LRAR 301230Z 31012KT 9999 FEW023 SCT027 07/02 Q1018=
201911301300 METAR LRAR 301300Z 31010KT 9999 SCT024 BKN029 07/02 Q1019=
201911301330 METAR LRAR 301330Z 33009KT 300V360 9999 SCT025 BKN030 06/01
                        Q1019=
201911301400 METAR COR LRAR 301400Z 32008KT 9999 SCT030 BKN040 06/01 Q1020=
201911301430 METAR LRAR 301430Z 32009KT 9999 FEW030 BKN040 06/01 Q1020=
201911301500 METAR LRAR 301500Z 32008KT 9999 FEW033 BKN040 05/01 Q1020=
201911301530 METAR LRAR 301530Z 30006KT 9999 BKN036 04/02 Q1021=
201911301600 METAR LRAR 301600Z 32007KT 9999 BKN038 04/01 Q1021=
201911301630 METAR LRAR 301630Z 33007KT 9999 SCT040 04/01 Q1021=
201911301700 METAR LRAR 301700Z 35003KT 9999 FEW045 02/01 Q1022=
201911301730 METAR LRAR 301730Z 30002KT CAVOK 01/01 Q1022=
201911301800 METAR LRAR 301800Z 27002KT CAVOK 01/01 Q1022=
201911301830 METAR LRAR 301830Z 28001KT CAVOK M00/M00 Q1022=
201911301900 METAR LRAR 301900Z 29003KT CAVOK 00/00 Q1023=
201911301930 METAR LRAR 301930Z 32003KT 9999 BKN042 00/00 Q1023=
201911302000 METAR LRAR 302000Z 30001KT 9999 BKN043 M00/M00 Q1023=
201911302030 METAR LRAR 302030Z 28002KT 9999 SCT045 M01/M01 Q1023=
201911302100 METAR LRAR 302100Z 28003KT CAVOK M01/M01 Q1024=
201911302130 METAR LRAR 302130Z 27004KT CAVOK M02/M02 Q1024=
201911302200 METAR LRAR 302200Z 28003KT CAVOK M02/M02 Q1024=
201911302230 METAR LRAR 302230Z 27004KT CAVOK M03/M03 Q1025=
201911302300 METAR LRAR 302300Z 27004KT CAVOK M02/M02 Q1025=
201911302330 METAR LRAR 302330Z 28003KT CAVOK M02/M02 Q1025=