201912010000 METAR LRAR 010000Z 27002KT CAVOK M03/M03 Q1025=
201912010030 METAR LRAR 010030Z 26002KT CAVOK M03/M03 Q1025=
201912010100 METAR LRAR 010100Z 27003KT CAVOK M03/M03 Q1025=
201912010130 METAR LRAR 010130Z 28002KT CAVOK M04/M04 Q1025=
201912010200 METAR LRAR 010200Z 28002KT CAVOK M03/M03 Q1025=
201912010230 METAR LRAR 010230Z 28004KT CAVOK M03/M03 Q1025=
201912010300 METAR LRAR 010300Z 27003KT 8000 NSC M04/M04 Q1026=
201912010330 METAR LRAR 010330Z 28001KT 7000 NSC M04/M04 Q1026=
201912010400 METAR LRAR 010400Z 28002KT 8000 MIFG NSC M04/M04 Q1026=
201912010430 METAR LRAR 010430Z 27002KT 9999 MIFG NSC M04/M04 Q1026=
201912010500 METAR LRAR 010500Z 29001KT 9999 MIFG NSC M05/M05 Q1026=
201912010530 METAR LRAR 010530Z 00000KT 9999 MIFG NSC M04/M04 Q1027=
201912010600 METAR LRAR 010600Z 00000KT 9999 MIFG NSC M05/M05 Q1027=
201912010630 METAR LRAR 010630Z 15003KT 9999 MIFG NSC M04/M04 Q1027=
201912010700 METAR COR LRAR 010700Z 15001KT 9999 MIFG NSC M03/M03 Q1027=
201912010730 METAR LRAR 010730Z 14002KT CAVOK M01/M01 Q1027=
201912010800 METAR LRAR 010800Z 14002KT CAVOK M00/M01 Q1027=
201912010830 METAR LRAR 010830Z 13002KT CAVOK 01/M00 Q1027=
201912010900 METAR LRAR 010900Z VEB02KT CAVOK 03/M02 Q1027=
201912010930 METAR LRAR 010930Z VRB01KT CAVOK 04/M02 Q1027=
201912011000 METAR LRAR 011000Z 12003KT 080V170 CAVOK 04/M04 Q1027=
201912011030 METAR LRAR 011030Z VRB02KT CAVOK 05/M04 Q1027=
201912011100 METAR LRAR 011100Z VRB03KT CAVOK 05/M04 Q1027=
201912011130 METAR LRAR 011130Z VRB01KT CAVOK 05/M04 Q1026=
201912011200 METAR LRAR 011200Z VRB02KT CAVOK 05/M04 Q1026=
201912011230 METAR LRAR 011230Z 14001KT CAVOK 05/M04 Q1026=
201912011300 METAR LRAR 011300Z 21003KT 150V260 CAVOK 05/M04 Q1026=
201912011330 METAR LRAR 011330Z VRB02KT CAVOK 05/M04 Q1026=
201912011400 METAR LRAR 011400Z VRB01KT CAVOK 04/M04 Q1026=
201912011430 METAR LRAR 011430Z 14001KT CAVOK 04/M04 Q1026=
201912011500 METAR LRAR 011500Z 17002KT CAVOK 02/M04 Q1026=
201912011530 METAR LRAR 011530Z 14002KT CAVOK 00/M03 Q1026=
201912011600 METAR LRAR 011600Z 08003KT CAVOK M00/M03 Q1026=
201912011630 METAR LRAR 011630Z 11003KT CAVOK M00/M04 Q1026=
201912011700 METAR LRAR 011700Z 14003KT CAVOK 00/M03 Q1026=
201912011730 METAR LRAR 011730Z 14003KT CAVOK M00/M03 Q1025=
201912011800 METAR LRAR 011800Z 14004KT CAVOK M01/M03 Q1025=
201912011830 METAR LRAR 011830Z 15004KT CAVOK M01/M04 Q1025=
201912011900 METAR LRAR 011900Z 13005KT CAVOK M01/M04 Q1025=
201912011930 METAR LRAR 011930Z 14003KT CAVOK M02/M04 Q1025=
201912012000 METAR LRAR 012000Z 14003KT CAVOK M02/M04 Q1024=
201912012030 METAR LRAR 012030Z 13005KT CAVOK M00/M04 Q1024=
201912012100 METAR LRAR 012100Z VRB02KT CAVOK M00/M03 Q1024=
201912012130 METAR LRAR 012130Z 12006KT CAVOK 00/M03 Q1024=
201912012200 METAR LRAR 012200Z 14007KT CAVOK 00/M03 Q1024=
201912012230 METAR LRAR 012230Z 14009KT CAVOK 00/M03 Q1023=
201912012300 METAR LRAR 012300Z 14008KT CAVOK 01/M03 Q1023=
201912012330 METAR LRAR 012330Z 14009KT CAVOK 01/M03 Q1022=
201912020000 METAR LRAR 020000Z 14008KT CAVOK 01/M03 Q1022=
201912020030 METAR LRAR 020030Z 14010KT CAVOK 02/M03 Q1022=
201912020100 METAR LRAR 020100Z 14010KT CAVOK 02/M02 Q1021=
201912020130 METAR LRAR 020130Z 14005KT CAVOK 02/M02 Q1022=
201912020200 METAR LRAR 020200Z 13006KT CAVOK 02/M02 Q1021=
201912020230 METAR LRAR 020230Z 13006KT CAVOK 02/M02 Q1021=
201912020300 METAR LRAR 020300Z 14008KT CAVOK 02/M02 Q1021=
201912020330 METAR LRAR 020330Z 14007KT 9999 -RA FEW015 02/M02 Q1020=
201912020400 METAR LRAR 020400Z 14007KT 9999 -RA SCT015 02/M01 Q1020=
201912020430 METAR LRAR 020430Z 14006KT 9999 SCT018 BKN047 02/M01 Q1020=
201912020500 METAR LRAR 020500Z 14009KT 9999 -RA SCT020 OVC030 02/M00
                        Q1019 R09/19//95=
201912020530 METAR LRAR 020530Z 14011KT 9999 -RA SCT020 OVC026 02/00 Q1018
                        R09/19//95=
201912020600 METAR LRAR 020600Z 14012KT 9999 -RA SCT015 OVC026 02/00 Q1018
                        R09/19//95=
201912020630 METAR LRAR 020630Z 14010KT 9999 -RA FEW019 SCT020 OVC026
                        02/01 Q1018 R09/19//95=
201912020700 METAR LRAR 020700Z 15009KT 9999 -RA FEW018 SCT020 OVC031
                        02/02 Q1018 R09/19//95=
201912020730 METAR LRAR 020730Z 15010KT 9999 -RA SCT014 SCT020 OVC029
                        02/02 Q1018 R09/19//95=
201912020800 METAR LRAR 020800Z 15012KT 9999 -RA FEW016 BKN020 OVC028
                        03/03 Q1017 R09/19//95=
201912020830 METAR LRAR 020830Z 15012KT 9999 -RA FEW016 BKN020 OVC028
                        03/03 Q1017 R09/19//95=
201912020900 METAR LRAR 020900Z 15010KT 9999 -RA FEW014 BKN020 OVC028
                        04/03 Q1017 R09/19//95=
201912020930 METAR LRAR 020930Z 15010KT 9999 BKN019 04/03 Q1016 R09/19//95=
201912021000 METAR LRAR 021000Z 15010KT 9999 SCT019 04/03 Q1016 R09/19//95=
201912021030 METAR LRAR 021030Z 16008KT 9999 FEW020 05/03 Q1015 R09/19//95=
201912021100 METAR LRAR 021100Z 16007KT 9999 -RA FEW020 SCT028 OVC040
                        05/02 Q1015 R09/19//95=
201912021130 METAR LRAR 021130Z 18006KT 9999 -RA FEW019 SCT030 OVC038
                        05/02 Q1016 R09/19//95=
201912021200 METAR LRAR 021200Z VRB02KT 8000 -RA FEW009 SCT020 OVC028
                        05/03 Q1016 R09/19//95=
201912021230 METAR LRAR 021230Z 29004KT 8000 -RA SCT006 BKN009 05/05 Q1017
                        R09/19//95=
201912021300 METAR LRAR 021300Z 22001KT 6000 -RA BKN013 04/04 Q1016 R09/29//95=
201912021330 METAR LRAR 021330Z 17003KT 5000 -RA BR BKN012 04/04 Q1016
                        R09/29//95=
201912021400 METAR LRAR 021400Z VRB02KT 7000 -RA SCT011 SCT019 OVC028
                        04/04 Q1016 R09/29//95=
201912021430 METAR LRAR 021430Z 29005KT 8000 -RA FEW010 SCT020 OVC028
                        04/04 Q1017 R09/29//95=
201912021500 METAR LRAR 021500Z 28005KT 7000 -RA FEW005 BKN014 04/04 Q1017
                        R09/29//95=
201912021530 METAR LRAR 021530Z 28005KT 8000 FEW007 SCT010 OVC013 04/04
                        Q1017 R09/29//95=
201912021600 METAR LRAR 021600Z 30010KT 9999 FEW006 SCT008 OVC010 03/03
                        Q1018 R09/29//95=
201912021630 METAR LRAR 021630Z 31010KT 9999 FEW007 SCT010 OVC015 03/03
                        Q1018 R09/29//95=
201912021700 METAR LRAR 021700Z 32009KT 9999 -RA FEW006 BKN009 03/03 Q1019
                        R09/29//95=
201912021730 METAR LRAR 021730Z 32012KT 9999 -RA SCT005 BKN008 02/02 Q1019
                        R09/29//95=
201912021800 METAR LRAR 021800Z 32011KT 9999 -RA SCT007 BKN010 02/02 Q1020
                        R09/29//95=
201912021830 METAR LRAR 021830Z 32010KT 9999 FEW006 BKN009 01/01 Q1020
                        R09/29//95=
201912021900 METAR LRAR 021900Z 32010KT 9999 SCT006 BKN009 01/01 Q1021
                        R09/29//95=
201912021930 METAR LRAR 021930Z 32010KT 9999 FEW007 BKN012 01/01 Q1021
                        R09/29//95=
201912022000 METAR LRAR 022000Z 32008KT 9999 SCT008 BKN013 01/01 Q1022
                        R09/29//95=
201912022030 METAR LRAR 022030Z 31007KT 9000 BKN009 BKN012 01/01 Q1022
                        R09/29//95=
201912022100 METAR LRAR 022100Z 32008KT 9000 FEW008 BKN010 01/01 Q1022
                        R09/29//95=
201912022130 METAR LRAR 022130Z 33007KT 9000 SCT008 BKN010 01/01 Q1023
                        R09/29//95=
201912022200 METAR LRAR 022200Z 33006KT 8000 FEW007 OVC010 01/01 Q1023
                        R09/29//95=
201912022230 METAR LRAR 022230Z 33005KT 7000 BKN008 OVC010 01/01 Q1023
                        R09/29//95=
201912022300 METAR LRAR 022300Z 33005KT 7000 OVC010 01/01 Q1023 R09/29//95=
201912022330 METAR LRAR 022330Z 33004KT 7000 OVC010 01/01 Q1023 R09/29//95=
201912030000 METAR LRAR 030000Z 31005KT 7000 FEW006 OVC010 01/01 Q1023
                        R09/29//95=
201912030030 METAR LRAR 030030Z 31005KT 7000 OVC011 01/01 Q1023 R09/29//95=
201912030100 METAR LRAR 030100Z 32005KT 7000 OVC010 00/00 Q1024 R09/29//95=
201912030130 METAR LRAR 030130Z 32003KT 7000 SCT006 BKN008 00/00 Q1024
                        R09/29//95=
201912030200 METAR LRAR 030200Z VRB01KT 7000 BKN006 00/00 Q1024 R09/29//95=
201912030230 METAR LRAR 030230Z VRB02KT 7000 BKN006 OVC008 M00/M00 Q1024
                        R09/29//95=
201912030300 METAR LRAR 030300Z VRB01KT 7000 BKN005 M00/M00 Q1024 R09/29//95=
201912030330 METAR LRAR 030330Z VRB01KT 6000 OVC005 M00/M00 Q1024 R09/29//95=
201912030400 METAR LRAR 030400Z 22002KT 6000 BKN005 BKN007 M01/M01 Q1024
                        R09/29//95=
201912030430 METAR LRAR 030430Z 16003KT 120V220 5000 BR BKN004 OVC006
                        M01/M01 Q1024 R09/29//95=
201912030500 METAR LRAR 030500Z 18003KT 5000 BR BKN004 OVC006 M01/M01
                        Q1024 R09/29//95=
201912030530 METAR LRAR 030530Z 23003KT 5000 BR BKN003 OVC006 M01/M01
                        Q1025 R09/29//95=
201912030600 METAR LRAR 030600Z 15002KT 3000 BR BKN003 M01/M01 Q1025 R09/19//95=
201912030630 METAR LRAR 030630Z 17003KT 3000 BR BKN003 M01/M01 Q1025 R09/19//95=
201912030700 METAR LRAR 030700Z 18004KT 3000 BR BKN003 M01/M01 Q1025 R09/19//95=
201912030730 METAR LRAR 030730Z 18006KT 3500 BR BKN003 M00/M00 Q1025 R09/19//95=
201912030800 METAR LRAR 030800Z 20006KT 170V230 4000 BR BKN003 M00/M00
                        Q1026 R09/19//95=
201912030830 METAR LRAR 030830Z 21006KT 4000 BR SCT004 00/00 Q1026 R09/19//95=
201912030900 METAR LRAR 030900Z 21007KT 5000 BR SCT004 01/01 Q1026 R09/19//95=
201912030930 METAR LRAR 030930Z 23007KT 8000 FEW006 02/01 Q1026 R09/19//95=
201912031000 METAR LRAR 031000Z 23005KT 190V270 9999 SCT011 02/01 Q1026
                        R09/19//95=
201912031030 METAR LRAR 031030Z 26003KT 200V330 9999 SCT011 BKN014 03/00
                        Q1026 R09/19//95=
201912031100 METAR LRAR 031100Z VRB02KT 9999 FEW012 SCT015 03/00 Q1025
                        R09/19//95=
201912031130 METAR LRAR 031130Z 20004KT 170V230 9999 FEW017 SCT023 04/00
                        Q1025 R09/19//95=
201912031200 METAR LRAR 031200Z 17006KT 9999 FEW015 SCT020 BKN030 04/00
                        Q1025 R09/19//95=
201912031230 METAR LRAR 031230Z 21004KT 180V240 9999 SCT020 BKN030 03/00
                        Q1025 R09/19//95=
201912031300 METAR LRAR 031300Z 22003KT 9999 BKN017 03/00 Q1025 R09/19//95=
201912031330 METAR LRAR 031330Z VRB02KT 9999 SCT016 BKN020 03/00 Q1025
                        R09/19//95=
201912031400 METAR LRAR 031400Z 27003KT 9999 FEW016 SCT019 BKN027 03/00
                        Q1025 R09/19//95=
201912031430 METAR LRAR 031430Z 28003KT 9999 SCT020 BKN030 03/00 Q1025
                        R09/19//95=
201912031500 METAR LRAR 031500Z VRB01KT 9999 BKN032 03/01 Q1025 R09/CLRD//=
201912031530 METAR LRAR 031530Z 27001KT 9999 BKN033 03/00 Q1026=
201912031600 METAR LRAR 031600Z VRB01KT 9999 BKN033 03/01 Q1026=
201912031630 METAR LRAR 031630Z 00000KT 9999 BKN031 02/01 Q1026=
201912031700 METAR LRAR 031700Z 16003KT 9999 SCT018 BKN031 03/02 Q1026=
201912031730 METAR LRAR 031730Z 19003KT 9999 FEW019 BKN030 02/02 Q1027=
201912031800 METAR LRAR 031800Z 20003KT 9999 SCT018 BKN025 02/02 Q1027=
201912031830 METAR LRAR 031830Z 19003KT 9999 FEW018 BKN031 02/02 Q1027=
201912031900 METAR LRAR 031900Z 14002KT 9999 FEW018 BKN034 02/02 Q1027=
201912031930 METAR LRAR 031930Z 14003KT 9999 FEW018 BKN032 02/02 Q1028=
201912032000 METAR LRAR 032000Z 14002KT 9999 FEW019 BKN032 02/02 Q1028=
201912032030 METAR LRAR 032030Z 13003KT 9999 OVC031 02/02 Q1028=
201912032100 METAR LRAR 032100Z 15003KT 9999 BKN032 02/02 Q1028=
201912032130 METAR LRAR 032130Z 14003KT 9999 BKN032 02/02 Q1028=
201912032200 METAR LRAR 032200Z 13003KT 9999 BKN033 02/01 Q1028=
201912032230 METAR LRAR 032230Z 13002KT 9999 BKN032 02/01 Q1028=
201912032300 METAR LRAR 032300Z 13002KT 9999 BKN032 02/01 Q1028=
201912032330 METAR LRAR 032330Z 13002KT 9999 BKN031 02/00 Q1028=
201912040000 METAR LRAR 040000Z 11003KT 9999 BKN034 02/00 Q1028=
201912040030 METAR LRAR 040030Z 11002KT 9999 BKN033 01/00 Q1029=
201912040100 METAR LRAR 040100Z 14002KT 9999 BKN031 01/M00 Q1029=
201912040130 METAR LRAR 040130Z VRB01KT 9999 BKN031 01/00 Q1029=
201912040200 METAR LRAR 040200Z 25002KT 190V330 9999 FEW030 M00/M00 Q1029=
201912040230 METAR LRAR 040230Z VRB01KT 9999 SCT035 M01/M01 Q1029=
201912040300 METAR LRAR 040300Z 00000KT 8000 SCT032 M01/M01 Q1029=
201912040330 METAR LRAR 040330Z 07002KT 8000 BKN032 M00/M00 Q1029=
201912040400 METAR LRAR 040400Z 08003KT 010V100 9999 BKN032 M00/M00 Q1029=
201912040430 METAR LRAR 040430Z VRB02KT 1700 BR OVC030 M01/M01 Q1029=
201912040500 METAR LRAR 040500Z 07001KT 0800 R27/1400U R09/0900 FG BKN029
                        M01/M01 Q1030=
201912040530 METAR LRAR 040530Z 00000KT 0800 R09/0800 R27/1100VP2000U
                        FG BKN028 M01/M01 Q1030=
201912040600 METAR LRAR 040600Z 00000KT 0750 R09/0800 R27/0900U FG SCT027
                        M01/M01 Q1030=
201912040630 METAR LRAR 040630Z 04002KT 1000 R27/1100N BR FEW028 M02/M02
                        Q1030=
201912040700 METAR LRAR 040700Z 04001KT 1100 0800N R09/0800 R27/1200U
                        BCFG NSC M02/M02 Q1031=
201912040730 METAR LRAR 040730Z VRB02KT 3000 BR FEW010 M01/M01 Q1031=
201912040800 METAR LRAR 040800Z 12005KT 9999 FEW008 01/M00 Q1031=
201912040830 METAR LRAR 040830Z 12006KT CAVOK 01/M01 Q1031=
201912040900 METAR LRAR 040900Z 11006KT CAVOK 02/M01 Q1031=
201912040930 METAR LRAR 040930Z 11005KT 090V160 CAVOK 03/M02 Q1031=
201912041000 METAR LRAR 041000Z 15003KT 100V200 CAVOK 03/M02 Q1031=
201912041030 METAR LRAR 041030Z VRB01KT CAVOK 04/M02 Q1031=
201912041100 METAR LRAR 041100Z VRB02KT 9999 FEW020 04/M02 Q1031=
201912041130 METAR LRAR 041130Z VRB03KT 9999 SCT023 04/M02 Q1031=
201912041200 METAR LRAR 041200Z 12003KT 090V160 9999 SCT024 04/M02 Q1031=
201912041230 METAR LRAR 041230Z 25003KT 210V290 9999 SCT024 04/M02 Q1031=
201912041300 METAR LRAR 041300Z VRB02KT 9999 FEW024 04/M02 Q1030=
201912041330 METAR LRAR 041330Z 00000KT 9999 FEW025 05/M02 Q1030=
201912041400 METAR LRAR 041400Z 03005KT CAVOK 03/00 Q1030=
201912041430 METAR LRAR 041430Z 03005KT 8000 NSC 02/01 Q1031=
201912041500 METAR LRAR 041500Z 04003KT 5000 BR NSC 00/00 Q1031=
201912041530 METAR LRAR 041530Z 06003KT 5000 BR NSC M01/M01 Q1031=
201912041600 METAR LRAR 041600Z 05004KT 1500 BR FEW001 M01/M01 Q1031=
201912041630 METAR LRAR 041630Z 04004KT 360V070 0600 R09/0800 R27/0900D
                        FZFG OVC001 M01/M01 Q1031=
201912041700 METAR LRAR 041700Z 03004KT 360V060 0400 R09/0600 R27/0700D
                        FZFG OVC001 M01/M01 Q1031=
201912041730 METAR LRAR 041730Z 04004KT 360V070 0400 R09/0600 R27/0700N
                        FZFG VV001 M01/M01 Q1032=
201912041800 METAR LRAR 041800Z 06005KT 0400 R09/0600 R27/0650N FZFG VV001
                        M01/M01 Q1032=
201912041830 METAR LRAR 041830Z 06004KT 020V080 0400 R09/0600 R27/0650N
                        FZFG VV001 M02/M02 Q1032=
201912041900 METAR LRAR 041900Z 07003KT 030V090 0500 R09/0700 R27/1000D
                        FZFG VV001 M02/M02 Q1032=
201912041930 METAR LRAR 041930Z 07004KT 0700 R09/0900 R27/1100D FZFG VV001
                        M02/M02 Q1032=
201912042000 METAR LRAR 042000Z 06003KT 0700 R09/0900 R27/0800N FZFG VV001
                        M02/M02 Q1032=
201912042030 METAR LRAR 042030Z 07003KT 0700 R09/0900 R27/0900N FZFG VV001
                        M02/M02 Q1032=
201912042100 METAR LRAR 042100Z 05003KT 0600 R09/0800 R27/0800N FZFG VV001
                        M02/M02 Q1032=
201912042130 METAR LRAR 042130Z VRB01KT 0700 R09/0900 R27/0900D FZFG VV001
                        M02/M02 Q1032=
201912042200 METAR LRAR 042200Z 00000KT 0600 R09/0800 R27/0700N FZFG VV001
                        M02/M02 Q1032=
201912042230 METAR LRAR 042230Z 00000KT 0600 R09/0800 R27/0700N FZFG VV001
                        M03/M03 Q1032=
201912042300 METAR LRAR 042300Z 00000KT 0400 R09/0600 R27/0650N FZFG VV001
                        M02/M02 Q1031=
201912042330 METAR LRAR 042330Z 00000KT 0400 R09/0600 R27/0900D FZFG VV001
                        M03/M03 Q1031=
201912050000 METAR LRAR 050000Z 00000KT 0500 R09/0700N R27/1000N FZFG
                        VV001 M03/M03 Q1031=
201912050030 METAR LRAR 050030Z 00000KT 0500 R09/0700 R27/0800N FZFG VV001
                        M03/M03 Q1031=
201912050100 METAR COR LRAR 050100Z 00000KT 0800 R09/1000 R27/2000U FZFG
                        BKN001 M03/M03 Q1031=
201912050130 METAR LRAR 050130Z 00000KT 2000 BR NSC M03/M03 Q1031=
201912050200 METAR LRAR 050200Z 00000KT 3000 BR FEW002 M04/M04 Q1031=
201912050230 METAR LRAR 050230Z 00000KT 3000 BR FEW003 M04/M04 Q1031=
201912050300 METAR LRAR 050300Z VRB02KT 2500 0800N BCFG BR SCT003 M04/M04
                        Q1031=
201912050330 METAR LRAR 050330Z 05002KT 3000 0800W BCFG BR SCT003 M04/M04
                        Q1031=
201912050400 METAR LRAR 050400Z 07002KT 1500 0800N BCFG BR BKN001 M04/M04
                        Q1031=
201912050430 METAR LRAR 050430Z 07002KT 1500 0700N BCFG BR OVC002 M04/M04
                        Q1031=
201912050500 METAR LRAR 050500Z 06001KT 0900 R09/1000 R27/1200V1900U FZFG
                        SCT001 SCT002 M04/M04 Q1031=
201912050530 METAR LRAR 050530Z 00000KT 1700 0700N BCFG BR SCT001 SCT002
                        M04/M04 Q1031=
201912050600 METAR LRAR 050600Z 00000KT 0500 R09/0600 R27/1200D BCFG SCT001
                        BKN002 M04/M04 Q1031=
201912050630 METAR LRAR 050630Z 00000KT 0500 R09/0600 R27/1200N BCFG SCT001
                        BKN002 M04/M04 Q1031=
201912050700 METAR COR LRAR 050700Z 00000KT 1000 R27/0800D -FZDZ FEW001
                        SCT003 M04/M04 Q1031=
201912050730 METAR LRAR 050730Z 00000KT 0600 R09/0700 R27/0700D BCFG SCT001
                        BKN003 M04/M04 Q1031=
201912050800 METAR LRAR 050800Z 00000KT 1800 0700N BCFG BR SCT001 BKN003
                        M03/M03 Q1031=
201912050830 METAR LRAR 050830Z 00000KT 1700 0800N BCFG BR SCT001 BKN003
                        M03/M03 Q1031=
201912050900 METAR LRAR 050900Z 00000KT 1700 0800N R27/1200U BCFG BR SCT001
                        BKN003 M03/M03 Q1031=
201912050930 METAR LRAR 050930Z 00000KT 0700 R09/0700 R27/0550VP2000N
                        BCFG BR BKN001 BKN002 M02/M02 Q1030=
201912051000 METAR LRAR 051000Z VRB02KT 0800 R09/0800 R27/1100U BCFG BR
                        BKN001 BKN002 M02/M02 Q1030=
201912051030 METAR LRAR 051030Z VRB02KT 2000 BR SCT002 SCT003 M01/M01
                        Q1030=
201912051100 METAR LRAR 051100Z VRB02KT 2500 BR FEW002 SCT003 M01/M01
                        Q1030=
201912051130 METAR LRAR 051130Z 35003KT 320V020 4000 BR FEW003 SCT004
                        M00/M00 Q1030=
201912051200 METAR LRAR 051200Z VRB02KT 5000 BR FEW002 SCT004 M00/M00
                        Q1029=
201912051230 METAR LRAR 051230Z 36003KT 320V040 9000 FEW004 00/00 Q1029=
201912051300 METAR LRAR 051300Z 35003KT 320V020 CAVOK 01/01 Q1029=
201912051330 METAR LRAR 051330Z 36003KT 320V030 CAVOK 02/02 Q1029=
201912051400 METAR LRAR 051400Z 02004KT CAVOK 02/01 Q1028=
201912051430 METAR LRAR 051430Z 03004KT 5000 BR NSC 01/00 Q1028=
201912051500 METAR LRAR 051500Z 03003KT 3000 BR NSC M00/M00 Q1028=
201912051530 METAR LRAR 051530Z VRB02KT 3000 BR NSC M01/M01 Q1029=
201912051600 METAR LRAR 051600Z 01003KT 3500 BR FEW004 M01/M01 Q1029=
201912051630 METAR LRAR 051630Z VRB02KT 3000 BR SCT002 M01/M01 Q1029=
201912051700 METAR LRAR 051700Z 02002KT 3000 BR FEW002 M02/M02 Q1028=
201912051730 METAR LRAR 051730Z 02003KT 0300 R09/0400 R27/1100D FZFG BKN001
                        M02/M02 Q1028=
201912051800 METAR LRAR 051800Z 01003KT 350V050 0100 R09/0200 R27/0500N
                        FZFG BKN001 BKN002 M02/M02 Q1028=
201912051830 METAR LRAR 051830Z 03003KT 340V070 0400 R09/0550 R27/0550V0800U=
201912051900 METAR LRAR 051900Z 35003KT 330V030 0550 R09/0600 R27/0550V0800U=
201912051930 METAR LRAR 051930Z 36003KT 1500 0700N R09/0700 R27/1400VP2000N
                        -SG BCFG OVC001 M03/M03 Q1029=
201912052000 METAR LRAR 052000Z 35003KT 320V040 1200 0800N R09/0900 R27/1500D
                        -SG BCFG BKN001 M03/M03 Q1029=
201912052030 METAR LRAR 052030Z 36003KT 330V060 1500 BR BKN002 M03/M03
                        Q1029=
201912052100 METAR LRAR 052100Z 04003KT 350V080 1500 BR BKN002 M03/M03
                        Q1028=
201912052130 METAR LRAR 052130Z 06004KT 1800 BR BKN002 M03/M03 Q1028=
201912052200 METAR LRAR 052200Z 06004KT 1500 BR OVC001 M03/M03 Q1028=
201912052230 METAR LRAR 052230Z 07004KT 1700 -SN BR BKN002 M03/M03 Q1028=
201912052300 METAR LRAR 052300Z 08004KT 1500 BR OVC002 M03/M03 Q1027=
201912052330 METAR LRAR 052330Z VRB02KT 1800 BR OVC002 M03/M03 Q1027=
201912060000 METAR LRAR 060000Z VRB02KT 1500 BR OVC002 M03/M03 Q1027=
201912060030 METAR LRAR 060030Z 00000KT 1500 0800N R09/0900 R27/1600N
                        BCFG BR OVC002 M03/M03 Q1027=
201912060100 METAR LRAR 060100Z 24001KT 0800 R09/0800 R27/1200N FZFG OVC001
                        M03/M03 Q1027=
201912060130 METAR LRAR 060130Z VRB02KT 0800 R09/0800 R27/1100VP2000U
                        FZFG OVC002 M03/M03 Q1027=
201912060200 METAR LRAR 060200Z 19003KT 1500 BR OVC002 M04/M04 Q1027=
201912060230 METAR LRAR 060230Z 19003KT 150V230 2400 BR BKN001 M04/M04
                        Q1027=
201912060300 METAR LRAR 060300Z VRB02KT 1200 R27/1100VP2000D BR OVC001
                        M04/M04 Q1027=
201912060330 METAR LRAR 060330Z VRB01KT 0800 R09/0800 R27/1000D FZFG OVC002
                        M04/M04 Q1027=
201912060400 METAR LRAR 060400Z 14002KT 0800 R09/0900 R27/1000N FZFG OVC002
                        M03/M03 Q1027=
201912060430 METAR LRAR 060430Z 14003KT 0800 R09/0900 R27/1200U FZFG OVC002
                        M03/M03 Q1027=
201912060500 METAR LRAR 060500Z 14003KT 1200 R27/1300V1700U BR OVC002
                        M03/M03 Q1027=
201912060530 METAR LRAR 060530Z 14003KT 2000 BR BKN001 M02/M02 Q1027=
201912060600 METAR LRAR 060600Z 15003KT 2000 BR BKN001 OVC003 M02/M02
                        Q1027=
201912060630 METAR LRAR 060630Z VRB02KT 1700 BR BKN001 OVC003 M02/M02
                        Q1027=
201912060700 METAR LRAR 060700Z VRB02KT 1700 BR OVC002 M02/M02 Q1027=
201912060730 METAR LRAR 060730Z 18003KT 2300 BR FEW002 OVC008 M01/M01
                        Q1027=
201912060800 METAR LRAR 060800Z 18003KT 3200 BR FEW004 OVC007 M01/M01
                        Q1027=
201912060830 METAR LRAR 060830Z 19004KT 160V220 2600 BR FEW003 OVC005
                        M01/M01 Q1027=
201912060900 METAR LRAR 060900Z 19004KT 150V220 3300 BR FEW003 OVC006
                        M01/M01 Q1027=
201912060930 METAR LRAR 060930Z 18004KT 140V200 2000 BR FEW002 SCT004
                        OVC007 M01/M01 Q1027=
201912061000 METAR LRAR 061000Z 19005KT 2500 BR SCT003 OVC005 M01/M01
                        Q1026=
201912061030 METAR LRAR 061030Z 19004KT 160V220 2300 BR BKN003 OVC005
                        M01/M01 Q1026=
201912061100 METAR LRAR 061100Z 18004KT 150V220 2100 BR SCT002 OVC004
                        M01/M01 Q1026=
201912061130 METAR LRAR 061130Z 18005KT 2100 BR OVC002 M01/M01 Q1025=
201912061200 METAR LRAR 061200Z 18003KT 150V210 2500 BR SCT001 OVC003
                        M00/M00 Q1025=
201912061230 METAR LRAR 061230Z 17004KT 140V210 1500 BR OVC002 M00/M00
                        Q1025=
201912061300 METAR LRAR 061300Z 16003KT 2100 BR OVC002 M00/M00 Q1024=
201912061330 METAR LRAR 061330Z 16004KT 1800 BR BKN001 OVC003 M01/M01
                        Q1024=
201912061400 METAR LRAR 061400Z 15004KT 2100 BR OVC002 M01/M01 Q1024=
201912061430 METAR LRAR 061430Z 17004KT 140V210 2000 BR OVC002 M01/M01
                        Q1024=
201912061500 METAR LRAR 061500Z 16004KT 130V200 1900 BR BKN001 OVC003
                        M01/M01 Q1024=
201912061530 METAR LRAR 061530Z 15003KT 1800 BR BKN001 BKN003 M01/M01
                        Q1024=
201912061600 METAR LRAR 061600Z 17003KT 2000 BR BKN001 OVC003 M01/M01
                        Q1024=
201912061630 METAR LRAR 061630Z 16004KT 2000 BR BKN001 BKN003 M01/M01
                        Q1023=
201912061700 METAR LRAR 061700Z 16004KT 2500 BR BKN001 BKN003 M01/M01
                        Q1023=
201912061730 METAR LRAR 061730Z 14003KT 2500 BR BKN002 OVC003 M00/M00
                        Q1023=
201912061800 METAR LRAR 061800Z 14003KT 3000 BR BKN002 M00/M00 Q1023=
201912061830 METAR LRAR 061830Z 14002KT 3000 BR FEW002 BKN004 M00/M00
                        Q1023=
201912061900 METAR LRAR 061900Z 12002KT 3500 BR FEW004 BKN033 M00/M00
                        Q1022=
201912061930 METAR LRAR 061930Z 00000KT 4000 BR BKN034 M00/M00 Q1022=
201912062000 METAR LRAR 062000Z 11003KT 5000 BR BKN035 00/00 Q1022=
201912062030 METAR LRAR 062030Z 11004KT 6000 BKN035 01/01 Q1022=
201912062100 METAR LRAR 062100Z 06002KT 5000 BR BKN040 01/01 Q1022=
201912062130 METAR LRAR 062130Z VRB02KT 5000 BR FEW035 BKN043 00/00 Q1022=
201912062200 METAR LRAR 062200Z VRB02KT 5000 BR SCT034 BKN050 00/00 Q1021=
201912062230 METAR LRAR 062230Z 10004KT 4500 BR BKN047 00/00 Q1021=
201912062300 METAR LRAR 062300Z 12004KT 6000 BKN033 BKN048 01/01 Q1020=
201912062330 METAR LRAR 062330Z 11003KT 6000 SCT034 BKN041 01/01 Q1020=
201912070000 METAR LRAR 070000Z 10002KT 6000 BKN043 01/01 Q1020=
201912070030 METAR LRAR 070030Z 09002KT 6000 BKN040 02/02 Q1020=
201912070100 METAR LRAR 070100Z 12005KT 9999 BKN037 02/02 Q1019=
201912070130 METAR LRAR 070130Z 12004KT 9999 BKN040 03/03 Q1019=
201912070200 METAR LRAR 070200Z 09002KT 9999 BKN039 03/03 Q1019=
201912070230 METAR LRAR 070230Z 08002KT 9999 BKN039 02/02 Q1018=
201912070300 METAR LRAR 070300Z 11003KT 9999 BKN038 02/02 Q1018=
201912070330 METAR LRAR 070330Z VRB02KT 9999 BKN043 03/03 Q1018=
201912070400 METAR LRAR 070400Z 12003KT 9999 BKN040 03/03 Q1018=
201912070430 METAR LRAR 070430Z 13004KT 9999 BKN044 04/03 Q1018=
201912070500 METAR LRAR 070500Z 09002KT 9999 BKN043 04/03 Q1018=
201912070530 METAR LRAR 070530Z 12002KT 9999 BKN043 04/03 Q1018=
201912070600 METAR LRAR 070600Z 13003KT 9999 OVC038 04/03 Q1018=
201912070630 METAR LRAR 070630Z VRB01KT 9999 OVC039 04/04 Q1018=
201912070700 METAR LRAR 070700Z 36002KT 9999 BKN040 04/04 Q1018=
201912070730 METAR LRAR 070730Z 05002KT 8000 BKN040 05/04 Q1018=
201912070800 METAR LRAR 070800Z 11002KT 9000 BKN040 05/04 Q1018=
201912070830 METAR LRAR 070830Z 12003KT 8000 BKN041 05/04 Q1018=
201912070900 METAR LRAR 070900Z 13003KT 9000 BKN039 05/04 Q1018=
201912070930 METAR LRAR 070930Z 16003KT 9999 BKN037 06/04 Q1018=
201912071000 METAR LRAR 071000Z 17002KT 9999 BKN036 06/05 Q1018=
201912071030 METAR LRAR 071030Z VRB02KT 9999 BKN033 07/05 Q1017=
201912071100 METAR LRAR 071100Z 19004KT 160V230 9999 BKN030 07/04 Q1017=
201912071130 METAR LRAR 071130Z 20004KT 9999 SCT029 BKN037 07/04 Q1017=
201912071200 METAR LRAR 071200Z 19003KT 160V220 9999 -RA SCT042 07/04
                        Q1017=
201912071230 METAR LRAR 071230Z 29004KT 9999 -RA FEW009 BKN026 07/05 Q1017=
201912071300 METAR LRAR 071300Z 30004KT 9999 SCT022 07/05 Q1017=
201912071330 METAR LRAR 071330Z 31004KT 9999 SCT025 07/05 Q1017=
201912071400 METAR LRAR 071400Z 36003KT 4000 BR NSC 06/06 Q1017=
201912071430 METAR LRAR 071430Z 00000KT 4000 BR NSC 06/06 Q1018=
201912071500 METAR LRAR 071500Z VRB01KT 3500 BR NSC 06/06 Q1018=
201912071530 METAR LRAR 071530Z 28004KT 4000 BR NSC 05/05 Q1018=
201912071600 METAR LRAR 071600Z 33002KT 5000 BR NSC 05/05 Q1018=
201912071630 METAR LRAR 071630Z 13003KT 4000 BR NSC 05/05 Q1018=
201912071700 METAR LRAR 071700Z VRB01KT 3700 BR NSC 05/05 Q1018=
201912071730 METAR LRAR 071730Z 24003KT 2800 BR NSC 03/03 Q1018=
201912071800 METAR COR LRAR 071800Z 00000KT 2000 BR NSC 03/03 Q1018=
201912071830 METAR LRAR 071830Z VRB01KT 1600 BR NSC 02/02 Q1018=
201912071900 METAR LRAR 071900Z 00000KT 1000 R09/1200 R27/0900 BR NSC
                        02/02 Q1019=
201912071930 METAR LRAR 071930Z VRB01KT 0800 R09/0800 R27/0450N FG NSC
                        02/02 Q1019=
201912072000 METAR LRAR 072000Z 27002KT 0500 R09/0600 R27/0325N FG NSC
                        01/01 Q1019=
201912072030 METAR LRAR 072030Z 00000KT 0300 R09/0500 R27/0375N FG FEW001
                        01/01 Q1019=
201912072100 METAR LRAR 072100Z 22002KT 0400 R09/0500 R27/0550N FG SCT001
                        01/01 Q1019=
201912072130 METAR LRAR 072130Z VRB01KT 0800 R09/1200 FG FEW002 02/02
                        Q1020=
201912072200 METAR LRAR 072200Z VRB01KT 2200 BR BKN049 02/02 Q1020=
201912072230 METAR LRAR 072230Z 17003KT 2200 BR BKN046 02/02 Q1020=
201912072300 METAR LRAR 072300Z 13003KT 1800 BR SCT048 03/03 Q1020=
201912072330 METAR LRAR 072330Z 14002KT 2500 BR NSC 03/03 Q1020=
201912080000 METAR LRAR 080000Z 23003KT 2800 BR NSC 02/02 Q1020=
201912080030 METAR LRAR 080030Z VRB02KT 3700 BR FEW005 03/03 Q1020=
201912080100 METAR LRAR 080100Z 21002KT 2500 BR NSC 02/02 Q1020=
201912080130 METAR LRAR 080130Z 17002KT 0500 R09/0600 R27/0500N FG BKN001
                        02/02 Q1020=
201912080200 METAR LRAR 080200Z 17002KT 0200 R09/0300 R27/0275N FG VV001
                        02/02 Q1019=
201912080230 METAR LRAR 080230Z 16002KT 0250 R09/0300 R27/0325N FG VV001
                        01/01 Q1020=
201912080300 METAR LRAR 080300Z 15003KT 0400 R09/0400 R27/0450U FG VV001
                        01/01 Q1020=
201912080330 METAR LRAR 080330Z 17003KT 0400 R09/0500 R27/0550N FG VV001
                        01/01 Q1020=
201912080400 METAR LRAR 080400Z 19004KT 150V220 0800 R09/1000 FG OVC002
                        02/02 Q1020=
201912080430 METAR LRAR 080430Z 18003KT 160V230 1000 R09/1000 R27/1200D
                        BR OVC002 03/03 Q1020=
201912080500 METAR LRAR 080500Z 20004KT 0600 R09/0800 R27/1200N OVC001
                        RA FG 03/03 Q1020=
201912080530 METAR LRAR 080530Z 19006KT 1000 R09/1200 R27/1800U -DZ BR
                        BKN001 OVC002 03/03 Q1020 RERA=
201912080600 METAR LRAR 080600Z 20005KT 180V240 0700 R09/0900 R27/1200V1900D
                        FG BKN001 OVC002 03/03 Q1020 RERA=
201912080630 METAR LRAR 080630Z 19005KT 0300 R09/0500 R27/1000N FG OVC001
                        03/03 Q1021=
201912080700 METAR LRAR 080700Z 19006KT 0300 R09/0400 R27/0800D FG OVC001
                        03/03 Q1021=
201912080730 METAR LRAR 080730Z 19007KT 0600 R09/0800 R27/0900U FG OVC001
                        03/03 Q1021=
201912080800 METAR LRAR 080800Z 17006KT 0300 R09/0550 R27/0700N FG BKN001
                        BKN002 04/04 Q1021=
201912080830 METAR LRAR 080830Z 19006KT 0800 R09/0800 R27/1000D FG BKN001
                        BKN002 04/04 Q1021=
201912080900 METAR LRAR 080900Z 19007KT 0800 R09/0800 R27/1000U FG BKN001
                        BKN002 04/04 Q1021=
201912080930 METAR LRAR 080930Z 18005KT 150V210 0600 R09/0600 R27/0900U
                        FG SCT001 BKN002 05/05 Q1021=
201912081000 METAR LRAR 081000Z 19007KT 0400 R09/0600 R27/1100D FG OVC001
                        05/05 Q1020=
201912081030 METAR LRAR 081030Z 19009KT 0500 R09/0600 R27/1000D FG OVC001
                        04/04 Q1020=
201912081100 METAR LRAR 081100Z 18009KT 0600 R09/0800 R27/1100N FG SCT001
                        BKN002 05/05 Q1020=
201912081130 METAR LRAR 081130Z 17009KT 0800 R09/0900 R27/0800V1300U FG
                        OVC001 05/05 Q1020=
201912081200 METAR LRAR 081200Z 18008KT 1500 BR SCT001 BKN002 05/05 Q1019=
201912081230 METAR LRAR 081230Z 18009KT 1800 BR SCT001 BKN002 05/05 Q1019=
201912081300 METAR LRAR 081300Z 17009KT 1700 BR SCT001 BKN002 05/05 Q1019=
201912081330 METAR LRAR 081330Z 17008KT 1500 BR BKN001 BKN002 05/05 Q1019=
201912081400 METAR LRAR 081400Z 16009KT 1500 BR SCT001 BKN002 05/05 Q1019=
201912081430 METAR COR LRAR 081430Z 16011KT 0500 R09/550 R27/1100N FG
                        OVC001 05/05 Q1018=
201912081500 METAR LRAR 081500Z 16011KT 0700 R09/0600 R27/1000V1400U FG
                        OVC001 05/05 Q1018=
201912081530 METAR LRAR 081530Z 16009KT 0800 R09/0900 R27/1000V1400U FG
                        OVC001 05/05 Q1018=
201912081600 METAR LRAR 081600Z 16008KT 1500 BR SCT001 BKN002 05/05 Q1018=
201912081630 METAR LRAR 081630Z 16006KT 2000 BR SCT001 BKN002 05/05 Q1018=
201912081700 METAR LRAR 081700Z 16005KT 0800 R09/1000 R27/P2000 FG SCT001
                        BKN003 04/04 Q1017=
201912081730 METAR LRAR 081730Z 15008KT 0500 R09/0700 R27/0500N FG SCT001
                        BKN003 04/04 Q1017=
201912081800 METAR LRAR 081800Z 16005KT 0900 R09/1000 R27/1000U FG BKN001
                        03/03 Q1017=
201912081830 METAR LRAR 081830Z 15007KT 2000 BR SCT002 03/03 Q1017=
201912081900 METAR LRAR 081900Z 16008KT 3000 BR SCT002 03/03 Q1016=
201912081930 METAR LRAR 081930Z 16007KT 3500 BR FEW002 03/03 Q1016=
201912082000 METAR LRAR 082000Z 18005KT 2000 BR NSC 02/02 Q1016=
201912082030 METAR LRAR 082030Z 19005KT 2000 BR NSC 01/01 Q1016=
201912082100 METAR LRAR 082100Z 17004KT 1000 R09/1200 R27/P2000 BR NSC
                        02/02 Q1016=
201912082130 METAR LRAR 082130Z 15007KT 2500 BR NSC 02/02 Q1015=
201912082200 METAR LRAR 082200Z 15007KT 5000 BR NSC 02/02 Q1015=
201912082230 METAR LRAR 082230Z 16007KT 7000 NSC 03/03 Q1015=
201912082300 METAR LRAR 082300Z 16007KT 8000 NSC 03/03 Q1014=
201912082330 METAR LRAR 082330Z 15007KT 8000 NSC 03/03 Q1014=
201912090000 METAR LRAR 090000Z 16008KT 7000 NSC 04/04 Q1014=
201912090030 METAR LRAR 090030Z 16008KT 8000 NSC 03/03 Q1014=
201912090100 METAR LRAR 090100Z 15008KT CAVOK 03/03 Q1014=
201912090130 METAR LRAR 090130Z 16008KT CAVOK 03/03 Q1014=
201912090200 METAR LRAR 090200Z 16008KT CAVOK 03/03 Q1014=
201912090230 METAR LRAR 090230Z 15007KT CAVOK 03/03 Q1013=
201912090300 METAR LRAR 090300Z 16007KT CAVOK 03/03 Q1013=
201912090330 METAR LRAR 090330Z 17007KT CAVOK 03/03 Q1013=
201912090400 METAR LRAR 090400Z 16004KT CAVOK 04/04 Q1013=
201912090430 METAR LRAR 090430Z 16006KT 9999 FEW047 04/04 Q1013=
201912090500 METAR LRAR 090500Z 15007KT CAVOK 03/03 Q1013=
201912090530 METAR LRAR 090530Z 16005KT CAVOK 02/02 Q1012=
201912090600 METAR LRAR 090600Z 15007KT CAVOK 02/02 Q1012=
201912090630 METAR LRAR 090630Z 15007KT CAVOK 02/02 Q1012=
201912090700 METAR LRAR 090700Z 15007KT CAVOK 03/03 Q1012=
201912090730 METAR LRAR 090730Z 15008KT CAVOK 05/04 Q1012=
201912090800 METAR LRAR 090800Z 17009KT CAVOK 07/05 Q1012=
201912090830 METAR LRAR 090830Z 17010KT CAVOK 07/04 Q1012=
201912090900 METAR LRAR 090900Z 16009KT CAVOK 08/04 Q1012=
201912090930 METAR LRAR 090930Z 17010KT CAVOK 09/04 Q1012=
201912091000 METAR LRAR 091000Z 16011KT CAVOK 09/04 Q1011=
201912091030 METAR LRAR 091030Z 16012KT CAVOK 09/04 Q1011=
201912091100 METAR LRAR 091100Z 18008KT CAVOK 09/05 Q1010=
201912091130 METAR LRAR 091130Z 18009KT CAVOK 09/05 Q1010=
201912091200 METAR LRAR 091200Z 21008KT CAVOK 09/06 Q1010=
201912091230 METAR LRAR 091230Z 20006KT CAVOK 09/06 Q1010=
201912091300 METAR LRAR 091300Z 18007KT 9999 BKN048 09/06 Q1010=
201912091330 METAR LRAR 091330Z 16007KT 9999 FEW013 BKN047 09/06 Q1009=
201912091400 METAR LRAR 091400Z 18007KT CAVOK 10/06 Q1009=
201912091430 METAR LRAR 091430Z 17007KT CAVOK 10/05 Q1009=
201912091500 METAR LRAR 091500Z 16005KT CAVOK 09/06 Q1009=
201912091530 METAR LRAR 091530Z 16005KT CAVOK 09/06 Q1009=
201912091600 METAR LRAR 091600Z 17006KT CAVOK 09/06 Q1009=
201912091630 METAR LRAR 091630Z 16006KT CAVOK 09/06 Q1009=
201912091700 METAR LRAR 091700Z 16005KT CAVOK 08/06 Q1009=
201912091730 METAR LRAR 091730Z 16005KT CAVOK 08/06 Q1009=
201912091800 METAR LRAR 091800Z 15005KT CAVOK 08/06 Q1008=
201912091830 METAR LRAR 091830Z 14004KT CAVOK 08/06 Q1008=
201912091900 METAR LRAR 091900Z 14008KT CAVOK 08/05 Q1008=
201912091930 METAR LRAR 091930Z 14007KT CAVOK 08/05 Q1008=
201912092000 METAR LRAR 092000Z 12007KT CAVOK 08/05 Q1008=
201912092030 METAR LRAR 092030Z 13007KT CAVOK 08/05 Q1008=
201912092100 METAR LRAR 092100Z 13008KT CAVOK 08/04 Q1008=
201912092130 METAR LRAR 092130Z 13007KT CAVOK 08/04 Q1008=
201912092200 METAR LRAR 092200Z 13008KT CAVOK 08/04 Q1008=
201912092230 METAR LRAR 092230Z 13008KT CAVOK 08/04 Q1008=
201912092300 METAR LRAR 092300Z 13008KT CAVOK 08/04 Q1008=
201912092330 METAR LRAR 092330Z 13008KT CAVOK 08/04 Q1008=
201912100000 METAR LRAR 100000Z 13007KT CAVOK 08/04 Q1008=
201912100030 METAR LRAR 100030Z 12007KT CAVOK 08/03 Q1008=
201912100100 METAR LRAR 100100Z 13007KT CAVOK 08/03 Q1008=
201912100130 METAR LRAR 100130Z 13008KT CAVOK 08/03 Q1008=
201912100200 METAR LRAR 100200Z 13007KT CAVOK 08/03 Q1008=
201912100230 METAR LRAR 100230Z 14007KT CAVOK 07/03 Q1008=
201912100300 METAR LRAR 100300Z 13006KT CAVOK 07/03 Q1008=
201912100330 METAR LRAR 100330Z 13007KT CAVOK 07/03 Q1008=
201912100400 METAR LRAR 100400Z 13006KT CAVOK 07/03 Q1009=
201912100430 METAR LRAR 100430Z 14007KT CAVOK 06/03 Q1009=
201912100500 METAR LRAR 100500Z 14005KT CAVOK 06/03 Q1009=
201912100530 METAR LRAR 100530Z 30005KT CAVOK 05/03 Q1010=
201912100600 METAR LRAR 100600Z VRB01KT CAVOK 05/04 Q1010=
201912100630 METAR LRAR 100630Z 00000KT CAVOK 05/04 Q1011=
201912100700 METAR LRAR 100700Z 00000KT CAVOK 05/05 Q1011=
201912100730 METAR LRAR 100730Z 36004KT CAVOK 05/05 Q1012=
201912100800 METAR LRAR 100800Z 34004KT 310V020 6000 SCT008 05/05 Q1012=
201912100830 METAR LRAR 100830Z 01004KT 3200 BR SCT002 BKN004 05/05 Q1012=
201912100900 METAR LRAR 100900Z 01004KT 330V060 3400 BR SCT002 BKN004
                        05/05 Q1013=
201912100930 METAR LRAR 100930Z 01004KT 330V050 4000 BR FEW003 SCT005
                        06/06 Q1013=
201912101000 METAR LRAR 101000Z 35005KT 5000 BR SCT004 07/07 Q1013=
201912101030 METAR LRAR 101030Z 01005KT 330V050 4400 BR FEW004 07/07 Q1013=
201912101100 METAR LRAR 101100Z 03006KT 360V060 6000 NSC 07/07 Q1013=
201912101130 METAR LRAR 101130Z 01007KT 6000 FEW007 07/07 Q1013=
201912101200 METAR LRAR 101200Z 01006KT 330V040 8000 NSC 08/07 Q1014=
201912101230 METAR LRAR 101230Z 01006KT 330V040 8000 NSC 08/07 Q1014=
201912101300 METAR LRAR 101300Z 35006KT 6000 SCT008 07/07 Q1014=
201912101330 METAR LRAR 101330Z 36009KT 8000 SCT009 BKN011 07/07 Q1015=
201912101400 METAR LRAR 101400Z 36008KT 9999 SCT011 07/07 Q1015=
201912101430 METAR LRAR 101430Z 36007KT CAVOK 07/07 Q1015=
201912101500 METAR LRAR 101500Z 36007KT 340V040 7000 FEW010 SCT013 07/07
                        Q1015=
201912101530 METAR LRAR 101530Z 36009KT 9999 BKN010 07/07 Q1016=
201912101600 METAR LRAR 101600Z 01010KT 9999 SCT012 OVC015 07/07 Q1016=
201912101630 METAR LRAR 101630Z 01011KT 9999 OVC019 07/06 Q1017=
201912101700 METAR LRAR 101700Z 36009KT 9999 BKN018 BKN023 06/06 Q1017=
201912101730 METAR LRAR 101730Z 36009KT 9999 SCT022 BKN025 06/06 Q1018=
201912101800 METAR LRAR 101800Z 01009KT 9999 -RA FEW015 BKN026 06/06 Q1018=
201912101830 METAR LRAR 101830Z 36009KT 9999 -RA SCT013 BKN016 BKN025
                        06/06 Q1018=
201912101900 METAR LRAR 101900Z 36010KT 9999 SCT015 BKN027 06/05 Q1018=
201912101930 METAR LRAR 101930Z 01012KT 350V050 9999 SCT025 BKN030 05/04
                        Q1019=
201912102000 METAR LRAR 102000Z 02011KT 9999 BKN028 05/03 Q1019=
201912102030 METAR LRAR 102030Z 02012KT 9999 BKN030 05/02 Q1019=
201912102100 METAR LRAR 102100Z 02010KT 340V060 9999 SCT033 05/02 Q1019=
201912102130 METAR LRAR 102130Z 01011KT CAVOK 05/01 Q1019=
201912102200 METAR LRAR 102200Z 01012KT CAVOK 04/01 Q1019=
201912102230 METAR LRAR 102230Z 01009KT CAVOK 04/01 Q1019=
201912102300 METAR LRAR 102300Z 36008KT CAVOK 04/01 Q1019=
201912102330 METAR LRAR 102330Z 01010KT CAVOK 04/00 Q1019=
201912110000 METAR LRAR 110000Z 01009KT CAVOK 03/M00 Q1019=
201912110030 METAR LRAR 110030Z 01008KT 340V040 CAVOK 03/M01 Q1019=
201912110100 METAR LRAR 110100Z 01008KT CAVOK 03/M00 Q1019=
201912110130 METAR LRAR 110130Z 02008KT CAVOK 03/M01 Q1019=
201912110200 METAR LRAR 110200Z 02008KT CAVOK 03/M01 Q1019=
201912110230 METAR LRAR 110230Z 01008KT CAVOK 03/M01 Q1019=
201912110300 METAR LRAR 110300Z 02008KT CAVOK 03/M01 Q1019=
201912110330 METAR LRAR 110330Z 02008KT CAVOK 03/M01 Q1019=
201912110400 METAR LRAR 110400Z 03008KT 9999 BKN040 03/M00 Q1019=
201912110430 METAR LRAR 110430Z 03008KT 9999 BKN040 03/M00 Q1019=
201912110500 METAR LRAR 110500Z 03006KT 360V060 9999 BKN039 03/M00 Q1019=
201912110530 METAR LRAR 110530Z 02007KT 9999 SCT040 03/00 Q1019=
201912110600 METAR LRAR 110600Z 03007KT 9999 BKN042 03/00 Q1019=
201912110630 METAR LRAR 110630Z 04007KT 9999 BKN043 03/01 Q1019=
201912110700 METAR LRAR 110700Z 04005KT 010V070 9999 SCT027 02/01 Q1019=
201912110730 METAR LRAR 110730Z 03006KT 360V070 9999 FEW015 SCT020 BKN025
                        03/01 Q1019=
201912110800 METAR LRAR 110800Z 06005KT 9999 BKN016 OVC019 03/01 Q1019=
201912110830 METAR LRAR 110830Z 06005KT 9999 OVC014 04/01 Q1019=
201912110900 METAR LRAR 110900Z 05003KT 010V090 9999 BKN013 OVC016 04/02
                        Q1019=
201912110930 METAR LRAR 110930Z 05003KT 9999 BKN013 OVC016 04/02 Q1019=
201912111000 METAR LRAR 111000Z 04002KT 9999 SCT014 BKN017 04/02 Q1019=
201912111030 METAR LRAR 111030Z 09003KT 060V130 9999 SCT008 OVC011 04/02
                        Q1018=
201912111100 METAR LRAR 111100Z VRB02KT 9999 SCT007 BKN009 OVC011 05/03
                        Q1018=
201912111130 METAR LRAR 111130Z 00000KT 9999 SCT007 OVC009 05/03 Q1018=
201912111200 METAR LRAR 111200Z VRB02KT 8000 OVC008 05/04 Q1018=
201912111230 METAR LRAR 111230Z VRB02KT 8000 SCT005 OVC007 05/05 Q1018=
201912111300 METAR LRAR 111300Z VRB01KT 7000 SCT005 BKN007 OVC009 05/05
                        Q1017=
201912111330 METAR LRAR 111330Z VRB01KT 8000 SCT006 BKN012 05/05 Q1017=
201912111400 METAR LRAR 111400Z VRB01KT 9999 SCT007 BKN013 05/05 Q1017=
201912111430 METAR LRAR 111430Z 16003KT 9999 SCT006 OVC009 05/05 Q1017=
201912111500 METAR LRAR 111500Z 18002KT 9999 BKN009 OVC012 05/05 Q1016=
201912111530 METAR LRAR 111530Z 18003KT 8000 SCT008 OVC011 05/05 Q1016=
201912111600 METAR LRAR 111600Z 17003KT 7000 SCT008 BKN013 05/05 Q1016=
201912111630 METAR LRAR 111630Z 19002KT 7000 SCT007 OVC011 05/05 Q1016=
201912111700 METAR LRAR 111700Z 21003KT 6000 SCT008 OVC010 05/05 Q1016=
201912111730 METAR LRAR 111730Z VRB01KT 6000 FEW006 OVC008 05/05 Q1016=
201912111800 METAR LRAR 111800Z 26001KT 6000 BKN007 OVC045 05/05 Q1015=
201912111830 METAR LRAR 111830Z 00000KT 5000 BR SCT006 04/04 Q1015=
201912111900 METAR LRAR 111900Z 00000KT 4500 BR SCT004 04/04 Q1015=
201912111930 METAR LRAR 111930Z 17001KT 4300 BR BKN004 04/04 Q1015=
201912112000 METAR LRAR 112000Z VRB02KT 3900 BR OVC003 04/04 Q1015=
201912112030 METAR LRAR 112030Z 00000KT 3400 BR BKN003 OVC005 04/04 Q1015=
201912112100 METAR LRAR 112100Z 12003KT 4100 BR OVC003 04/04 Q1014=
201912112130 METAR LRAR 112130Z 08003KT 050V110 3900 BR SCT003 OVC005
                        04/04 Q1014=
201912112200 METAR LRAR 112200Z 06003KT 020V090 4400 BR SCT003 OVC005
                        04/04 Q1014=
201912112230 METAR LRAR 112230Z VRB01KT 3600 BR BKN004 04/04 Q1013=
201912112300 METAR LRAR 112300Z 36003KT 2500 BR SCT002 BKN004 03/03 Q1013=
201912112330 METAR LRAR 112330Z 03004KT 0800 R09/1000 R27/1000D FG BKN001
                        03/03 Q1012=
201912120000 METAR LRAR 120000Z 01003KT 340V040 0400 R09/0500 R27/0450N
                        FG BKN001 03/03 Q1012=
201912120030 METAR LRAR 120030Z 02002KT 340V080 0300 R09/0400 R27/0400N
                        FG BKN001 02/02 Q1012=
201912120100 METAR LRAR 120100Z VRB01KT 0300 R09/0400 R27/0350N FG VV001
                        02/02 Q1011=
201912120130 METAR LRAR 120130Z VRB02KT 0400 R09/0400 R27/0450N FG VV001
                        02/02 Q1011=
201912120200 METAR LRAR 120200Z 01002KT 0350 R09/0400 R27/0400N FG VV001
                        02/02 Q1011=
201912120230 METAR LRAR 120230Z 33001KT 0400 R09/0400 R27/0550N FG VV001
                        01/01 Q1010=
201912120300 METAR LRAR 120300Z VRB01KT 0500 R09/0500 R27/0600N FG VV001
                        01/01 Q1010=
201912120330 METAR LRAR 120330Z 36002KT 0700 R09/0800 R27/0800D FG OVC001
                        01/01 Q1010=
201912120400 METAR COR LRAR 120400Z 01003KT 0800 R09/1000 R27/1200N FG
                        OVC001 00/00 Q1010=
201912120430 METAR LRAR 120430Z 02003KT 350V050 2100 BR OVC001 00/00 Q1009=
201912120500 METAR LRAR 120500Z 04003KT 2200 0800N BCFG BR OVC001 00/00
                        Q1009=
201912120530 METAR LRAR 120530Z 06003KT 2300 0800N BCFG BR BKN001 00/00
                        Q1009=
201912120600 METAR LRAR 120600Z 05004KT 0600 R09/0550 R27/1300VP2000D
                        FG OVC001 00/00 Q1009=
201912120630 METAR LRAR 120630Z VRB02KT 0250 R09/0300 R27/0500N FG VV001
                        00/00 Q1009=
201912120700 METAR LRAR 120700Z VRB02KT 0100 R09/0100 R27/0400V0500N FG
                        VV001 00/00 Q1009=
201912120730 METAR LRAR 120730Z VRB01KT 0100 R09/0100 R27/0275N FG VV001
                        00/00 Q1009=
201912120800 METAR COR LRAR 120800Z VRB01KT 0100 R09/0100 R27/0325N FG
                        VV001 00/00 Q1009=
201912120830 METAR LRAR 120830Z 00000KT 0150 R09/0200 R27/0325N FG VV001
                        00/00 Q1009=
201912120900 METAR COR LRAR 120900Z 00000KT 0500 R09/0800 R27/0900V1600U
                        FG BKN001 BKN002 01/01 Q1009=
201912120930 METAR LRAR 120930Z VRB01KT 2500 BR SCT002 BKN003 02/02 Q1009=
201912121000 METAR LRAR 121000Z VRB03KT 5000 BR FEW003 BKN008 03/03 Q1008=
201912121030 METAR LRAR 121030Z VRB01KT 5000 BR SCT009 04/04 Q1008=
201912121100 METAR LRAR 121100Z 07004KT 5000 BR SCT010 04/04 Q1007=
201912121130 METAR LRAR 121130Z VRB02KT 6000 SCT015 04/04 Q1007=
201912121200 METAR LRAR 121200Z 04003KT 020V080 6000 SCT020 04/04 Q1007=
201912121230 METAR LRAR 121230Z VRB03KT 8000 FEW026 05/05 Q1007=
201912121300 METAR LRAR 121300Z 08004KT 8000 NSC 05/05 Q1006=
201912121330 METAR LRAR 121330Z 10004KT CAVOK 05/05 Q1006=
201912121400 METAR LRAR 121400Z 06003KT 6000 -RA BKN048 05/05 Q1006=
201912121430 METAR LRAR 121430Z VRB02KT 6000 -RA FEW013 BKN048 04/04 Q1006=
201912121500 METAR LRAR 121500Z VRB02KT 5000 -RA BR SCT011 04/04 Q1006=
201912121530 METAR LRAR 121530Z VRB02KT 5000 BR SCT017 04/04 Q1006=
201912121600 METAR LRAR 121600Z 03002KT 5000 -RA BR SCT028 04/04 Q1006
                        R09/19//95=
201912121630 METAR LRAR 121630Z 04002KT 6000 -RA SCT033 04/04 Q1006 R09/19//95=
201912121700 METAR LRAR 121700Z 06002KT 5000 -RA BR FEW012 BKN048 04/04
                        Q1006 R09/19//95=
201912121730 METAR LRAR 121730Z 00000KT 5000 -RA BR FEW011 10/04 Q1005
                        R09/19//95=
201912121800 METAR LRAR 121800Z 29002KT 4000 -RA BR SCT011 BKN048 04/04
                        Q1005 R09/19//95=
201912121830 METAR LRAR 121830Z 32001KT 4000 -RA BR SCT012 BKN049 04/04
                        Q1005 R09/19//95=
201912121900 METAR LRAR 121900Z VRB01KT 3500 -RA BR FEW011 BKN047 04/04
                        Q1005 R09/19//95=
201912121930 METAR LRAR 121930Z 00000KT 3500 -RA BR FEW007 BKN047 04/04
                        Q1004 R09/19//95=
201912122000 METAR LRAR 122000Z 08002KT 3000 -RA BR FEW009 BKN046 04/04
                        Q1004 R09/19//95=
201912122030 METAR LRAR 122030Z 09001KT 3000 -RA BR FEW011 BKN043 04/04
                        Q1004 R09/19//95=
201912122100 METAR LRAR 122100Z 08001KT 3000 -RA BR SCT008 BKN043 04/04
                        Q1004 R09/19//95=
201912122130 METAR LRAR 122130Z 07003KT 3500 -RA BR FEW015 BKN044 04/04
                        Q1003 R09/19//95=
201912122200 METAR LRAR 122200Z 11002KT 3500 BR FEW013 BKN044 04/04 Q1003
                        R09/19//95=
201912122230 METAR LRAR 122230Z 10002KT 5000 BR BKN045 05/05 Q1003 R09/19//95=
201912122300 METAR LRAR 122300Z 11003KT 5000 BR BKN040 05/05 Q1002 R09/19//95=
201912122330 METAR LRAR 122330Z 12004KT 7000 -RA SCT029 BKN039 05/05 Q1002
                        R09/19//95=
201912130000 METAR LRAR 130000Z 12004KT 7000 -RA SCT023 BKN040 05/05 Q1002
                        R09/19//95=
201912130030 METAR LRAR 130030Z 11004KT 6000 -RA FEW014 SCT025 BKN029
                        05/05 Q1001 R09/19//95=
201912130100 METAR LRAR 130100Z 13005KT 6000 -RA FEW014 SCT022 BKN037
                        05/05 Q1001 R09/19//95=
201912130130 METAR LRAR 130130Z 14003KT 7000 -RA FEW011 SCT020 BKN038
                        05/05 Q1001 R09/19//95=
201912130200 METAR LRAR 130200Z 15003KT 7000 -RA FEW015 SCT020 BKN038
                        05/05 Q1000 R09/19//95=
201912130230 METAR LRAR 130230Z 14005KT 9999 -RA SCT023 BKN036 05/05 Q1000
                        R09/19//95=
201912130300 METAR LRAR 130300Z 14005KT 9999 BKN035 05/05 Q0999 R09/19//95=
201912130330 METAR LRAR 130330Z 16004KT 9999 BKN035 06/06 Q0999 R09/19//95=
201912130400 METAR LRAR 130400Z 21004KT 9999 FEW020 BKN033 06/06 Q0999
                        R09/19//95=
201912130430 METAR LRAR 130430Z 16005KT 9999 -RA FEW009 BKN032 05/05 Q0999
                        R09/19//95=
201912130500 METAR LRAR 130500Z 16005KT 9999 FEW014 BKN030 06/06 Q0999
                        R09/19//95=
201912130530 METAR LRAR 130530Z 16006KT 9999 SCT032 06/06 Q0999 R09/19//95=
201912130600 METAR LRAR 130600Z 17006KT 9999 FEW035 06/05 Q0999 R09/19//95=
201912130630 METAR LRAR 130630Z 19005KT 9999 FEW037 05/05 Q0999 R09/19//95=
201912130700 METAR LRAR 130700Z 22005KT 9999 -RA FEW013 BKN045 05/05 Q0999
                        R09/19//95=
201912130730 METAR LRAR 130730Z 22006KT 9999 FEW037 BKN047 05/05 Q0999
                        R09/19//95=
201912130800 METAR LRAR 130800Z 19006KT 9999 SCT040 05/05 Q0998 R09/19//95=
201912130830 METAR LRAR 130830Z 17006KT CAVOK 06/06 Q0998 R09/19//95=
201912130900 METAR LRAR 130900Z 17006KT CAVOK 07/06 Q0998 R09/19//95=
201912130930 METAR LRAR 130930Z 17006KT 9999 SCT030 08/07 Q0997 R09/19//95=
201912131000 METAR LRAR 131000Z 16009KT 9999 FEW040 09/06 Q0997 R09/19//95=
201912131030 METAR LRAR 131030Z 17010KT 140V200 CAVOK 09/05 Q0996 R09/19//95=
201912131100 METAR LRAR 131100Z 17012KT 9999 FEW030 10/05 Q0996 R09/19//95=
201912131130 METAR LRAR 131130Z 17014KT CAVOK 10/06 Q0995 R09/19//95=
201912131200 METAR LRAR 131200Z 18012KT CAVOK 10/05 Q0995 R09/19//95=
201912131230 METAR LRAR 131230Z 18012KT 140V210 CAVOK 11/05 Q0995 R09/CLRD//=
201912131300 METAR LRAR 131300Z 19012KT 160V220 CAVOK 11/05 Q0994=
201912131330 METAR LRAR 131330Z 19011KT CAVOK 10/05 Q0994=
201912131400 METAR LRAR 131400Z 18011KT CAVOK 10/05 Q0994=
201912131430 METAR LRAR 131430Z 19010KT CAVOK 09/04 Q0994=
201912131500 METAR LRAR 131500Z 19007KT 150V210 CAVOK 09/04 Q0994=
201912131530 METAR LRAR 131530Z 15004KT CAVOK 07/04 Q0994=
201912131600 METAR LRAR 131600Z 16006KT 9999 FEW047 08/04 Q0994=
201912131630 METAR LRAR 131630Z 15008KT CAVOK 08/04 Q0994=
201912131700 METAR LRAR 131700Z 15007KT CAVOK 07/03 Q0994=
201912131730 METAR COR LRAR 131730Z 14009KT CAVOK 07/03 Q0994=
201912131800 METAR LRAR 131800Z 14008KT CAVOK 07/03 Q0994=
201912131830 METAR LRAR 131830Z 14011KT CAVOK 07/03 Q0994=
201912131900 METAR LRAR 131900Z 14011KT CAVOK 07/03 Q0993=
201912131930 METAR LRAR 131930Z 14010KT CAVOK 07/03 Q0993=
201912132000 METAR LRAR 132000Z 14009KT CAVOK 07/03 Q0993=
201912132030 METAR LRAR 132030Z 14008KT CAVOK 06/03 Q0993=
201912132100 METAR LRAR 132100Z 14008KT CAVOK 06/02 Q0993=
201912132130 METAR LRAR 132130Z 14008KT CAVOK 06/02 Q0993=
201912132200 METAR LRAR 132200Z 14007KT CAVOK 06/02 Q0993=
201912132230 METAR LRAR 132230Z 13011KT CAVOK 07/02 Q0993=
201912132300 METAR LRAR 132300Z 12009KT CAVOK 06/02 Q0993=
201912132330 METAR LRAR 132330Z 12008KT CAVOK 06/02 Q0993=
201912140000 METAR LRAR 140000Z 12008KT CAVOK 06/02 Q0993=
201912140030 METAR LRAR 140030Z 12009KT CAVOK 06/02 Q0993=
201912140100 METAR LRAR 140100Z 12008KT CAVOK 06/02 Q0993=
201912140130 METAR LRAR 140130Z 10007KT CAVOK 06/02 Q0993=
201912140200 METAR LRAR 140200Z 10009KT CAVOK 06/02 Q0992=
201912140230 METAR LRAR 140230Z 10007KT CAVOK 05/02 Q0993=
201912140300 METAR LRAR 140300Z 10007KT CAVOK 05/02 Q0993=
201912140330 METAR LRAR 140330Z 11007KT CAVOK 06/02 Q0993=
201912140400 METAR LRAR 140400Z 11006KT CAVOK 06/02 Q0993=
201912140430 METAR LRAR 140430Z VRB03KT CAVOK 05/02 Q0994=
201912140500 METAR LRAR 140500Z VRB01KT CAVOK 02/02 Q0994=
201912140530 METAR LRAR 140530Z 30002KT CAVOK 00/00 Q0995=
201912140600 METAR LRAR 140600Z 30002KT CAVOK M00/M00 Q0995=
201912140630 METAR LRAR 140630Z VRB01KT CAVOK 00/00 Q0995=
201912140700 METAR LRAR 140700Z 00000KT CAVOK 01/01 Q0996=
201912140730 METAR LRAR 140730Z VRB02KT CAVOK 03/03 Q0996=
201912140800 METAR LRAR 140800Z 14006KT CAVOK 08/03 Q0996=
201912140830 METAR LRAR 140830Z 17005KT CAVOK 09/04 Q0997=
201912140900 METAR LRAR 140900Z 25006KT 9999 BKN048 08/04 Q0998=
201912140930 METAR LRAR 140930Z 28004KT 9999 BKN047 05/04 Q0998=
201912141000 METAR LRAR 141000Z 30005KT CAVOK 05/04 Q0999=
201912141030 METAR LRAR 141030Z 29006KT 9999 BKN046 05/04 Q0999=
201912141100 METAR LRAR 141100Z 28004KT 9999 BKN047 05/05 Q1000=
201912141130 METAR LRAR 141130Z 28003KT 220V300 7000 FEW010 BKN044 05/05
                        Q1000=
201912141200 METAR LRAR 141200Z 20003KT 160V230 9999 FEW009 06/06 Q1000=
201912141230 METAR LRAR 141230Z 14007KT CAVOK 06/06 Q1000=
201912141300 METAR LRAR 141300Z 18003KT 140V230 9999 -RA FEW009 SCT014
                        06/06 Q1001=
201912141330 METAR LRAR 141330Z 26004KT 9999 -RA SCT012 06/06 Q1002=
201912141400 METAR LRAR 141400Z 22004KT 9999 FEW010 SCT014 07/07 Q1002
                        R09/19//95=
201912141430 METAR LRAR 141430Z 22005KT 9999 SCT010 BKN040 07/07 Q1003
                        R09/19//95=
201912141500 METAR LRAR 141500Z 22006KT 190V250 9999 FEW010 BKN013 07/07
                        Q1003 R09/19//95=
201912141530 METAR LRAR 141530Z 24007KT 9999 BKN011 07/07 Q1004 R09/19//95=
201912141600 METAR LRAR 141600Z 27011KT 9999 SCT008 BKN010 06/06 Q1005
                        R09/19//95=
201912141630 METAR LRAR 141630Z 26011KT 9999 SCT008 OVC010 05/05 Q1005
                        R09/19//95=
201912141700 METAR LRAR 141700Z 26007KT 9999 SCT010 BKN015 05/05 Q1006
                        R09/19//95=
201912141730 METAR LRAR 141730Z 21005KT 9999 FEW020 05/05 Q1007 R09/19//95=
201912141800 METAR LRAR 141800Z 20005KT CAVOK 04/04 Q1007 R09/19//95=
201912141830 METAR LRAR 141830Z 20006KT CAVOK 04/04 Q1008 R09/19//95=
201912141900 METAR LRAR 141900Z 21006KT CAVOK 04/04 Q1009 R09/19//95=
201912141930 METAR LRAR 141930Z 20006KT CAVOK 04/04 Q1009 R09/19//95=
201912142000 METAR LRAR 142000Z 22007KT CAVOK 03/03 Q1010 R09/19//95=
201912142030 METAR LRAR 142030Z 19007KT CAVOK 03/03 Q1011 R09/19//95=
201912142100 METAR LRAR 142100Z 20005KT 8000 NSC 03/03 Q1011 R09/19//95=
201912142130 METAR LRAR 142130Z 19006KT 7000 NSC 03/03 Q1012 R09/19//95=
201912142200 METAR LRAR 142200Z 19006KT 7000 NSC 03/03 Q1012 R09/19//95=
201912142230 METAR LRAR 142230Z 20004KT 7000 NSC 03/03 Q1012 R09/19//95=
201912142300 METAR LRAR 142300Z 20004KT 170V230 6000 NSC 02/02 Q1013 R09/19//95=
201912142330 METAR LRAR 142330Z 19004KT 6000 NSC 02/02 Q1013 R09/19//95=
201912150000 METAR LRAR 150000Z 20004KT 6000 NSC 02/02 Q1013 R09/19//95=
201912150030 METAR LRAR 150030Z 19007KT 6000 NSC 02/02 Q1014 R09/19//95=
201912150100 METAR LRAR 150100Z 19007KT 6000 NSC 02/02 Q1014 R09/19//95=
201912150130 METAR LRAR 150130Z 18006KT 160V220 6000 NSC 02/02 Q1014 R09/19//95=
201912150200 METAR LRAR 150200Z 20009KT 6000 NSC 02/02 Q1014 R09/19//95=
201912150230 METAR LRAR 150230Z 19008KT 6000 NSC 02/02 Q1014 R09/19//95=
201912150300 METAR LRAR 150300Z 18008KT 6000 NSC 02/02 Q1014 R09/19//95=
201912150330 METAR LRAR 150330Z 17007KT 6000 NSC 02/02 Q1015 R09/19//95=
201912150400 METAR LRAR 150400Z 17009KT 2000 BR BKN002 02/02 Q1015 R09/19//95=
201912150430 METAR LRAR 150430Z 16008KT 1700 0800N BCFG BR BKN002 02/02
                        Q1015 R09/19//95=
201912150500 METAR LRAR 150500Z 16010KT 2000 BR BKN002 02/02 Q1015 R09/19//95=
201912150530 METAR LRAR 150530Z 16009KT 4000 BR SCT001 02/02 Q1015 R09/19//95=
201912150600 METAR LRAR 150600Z 15007KT 7000 NSC 03/03 Q1015 R09/19//95=
201912150630 METAR LRAR 150630Z 16008KT CAVOK 03/03 Q1015 R09/19//95=
201912150700 METAR LRAR 150700Z 15008KT CAVOK 03/03 Q1015 R09/19//95=
201912150730 METAR LRAR 150730Z 16009KT CAVOK 04/04 Q1015 R09/19//95=
201912150800 METAR LRAR 150800Z 15008KT CAVOK 04/04 Q1015 R09/19//95=
201912150830 METAR LRAR 150830Z 16011KT CAVOK 06/06 Q1015 R09/19//95=
201912150900 METAR LRAR 150900Z 16012KT CAVOK 07/06 Q1016 R09/19//95=
201912150930 METAR LRAR 150930Z 15012KT CAVOK 07/06 Q1015 R09/19//95=
201912151000 METAR LRAR 151000Z 17011KT CAVOK 09/05 Q1015 R09/19//95=
201912151030 METAR LRAR 151030Z 18012KT CAVOK 09/05 Q1016 R09/19//95=
201912151100 METAR LRAR 151100Z 19011KT CAVOK 10/05 Q1015 R09/19//95=
201912151130 METAR LRAR 151130Z 19011KT CAVOK 10/05 Q1015 R09/19//95=
201912151200 METAR LRAR 151200Z 18009KT 160V220 CAVOK 11/05 Q1015 R09/CLRD//=
201912151230 METAR LRAR 151230Z 17007KT 140V200 CAVOK 11/05 Q1015=
201912151300 METAR COR LRAR 151300Z 18006KT 150V220 CAVOK 12/05 Q1016=
201912151330 METAR LRAR 151330Z 20007KT CAVOK 11/06 Q1016=
201912151400 METAR LRAR 151400Z 17005KT CAVOK 10/06 Q1016=
201912151430 METAR LRAR 151430Z 16006KT CAVOK 10/06 Q1016=
201912151500 METAR LRAR 151500Z 17009KT CAVOK 09/06 Q1016=
201912151530 METAR LRAR 151530Z 17008KT CAVOK 09/05 Q1016=
201912151600 METAR LRAR 151600Z 17009KT CAVOK 09/05 Q1016=
201912151630 METAR LRAR 151630Z 17008KT CAVOK 08/05 Q1017=
201912151700 METAR LRAR 151700Z 16005KT CAVOK 06/04 Q1017=
201912151730 METAR LRAR 151730Z 15007KT CAVOK 06/04 Q1017=
201912151800 METAR LRAR 151800Z 15007KT CAVOK 06/04 Q1017=
201912151830 METAR LRAR 151830Z 18008KT CAVOK 08/04 Q1017=
201912151900 METAR LRAR 151900Z 19011KT CAVOK 09/04 Q1017=
201912151930 METAR LRAR 151930Z 19010KT CAVOK 09/04 Q1018=
201912152000 METAR LRAR 152000Z 19010KT CAVOK 09/04 Q1018=
201912152030 METAR LRAR 152030Z 18009KT CAVOK 09/04 Q1018=
201912152100 METAR LRAR 152100Z 17009KT CAVOK 09/04 Q1018=
201912152130 METAR LRAR 152130Z 15007KT CAVOK 08/04 Q1018=
201912152200 METAR LRAR 152200Z 16007KT CAVOK 09/04 Q1018=
201912152230 METAR LRAR 152230Z 17009KT CAVOK 09/04 Q1018=
201912152300 METAR LRAR 152300Z 17007KT CAVOK 09/04 Q1019=
201912152330 METAR LRAR 152330Z 15008KT CAVOK 09/04 Q1019=
201912160000 METAR LRAR 160000Z 15008KT CAVOK 09/04 Q1019=
201912160030 METAR LRAR 160030Z 17007KT CAVOK 09/03 Q1019=
201912160100 METAR LRAR 160100Z 18006KT CAVOK 09/03 Q1019=
201912160130 METAR LRAR 160130Z 18008KT CAVOK 09/03 Q1019=
201912160200 METAR LRAR 160200Z 19009KT CAVOK 09/03 Q1019=
201912160230 METAR LRAR 160230Z 19010KT CAVOK 09/03 Q1019=
201912160300 METAR LRAR 160300Z 19011KT CAVOK 09/03 Q1019=
201912160330 METAR LRAR 160330Z 19011KT CAVOK 09/03 Q1020=
201912160400 METAR LRAR 160400Z 19011KT CAVOK 09/03 Q1020=
201912160430 METAR LRAR 160430Z 19011KT CAVOK 09/03 Q1020=
201912160500 METAR LRAR 160500Z 19011KT CAVOK 09/03 Q1020=
201912160530 METAR LRAR 160530Z 18010KT CAVOK 09/03 Q1021=
201912160600 METAR LRAR 160600Z 18009KT CAVOK 08/03 Q1021=
201912160630 METAR LRAR 160630Z 17008KT CAVOK 09/03 Q1021=
201912160700 METAR LRAR 160700Z 16007KT CAVOK 09/03 Q1022=
201912160730 METAR LRAR 160730Z 16007KT CAVOK 09/03 Q1022=
201912160800 METAR LRAR 160800Z 17008KT CAVOK 10/03 Q1022=
201912160830 METAR LRAR 160830Z 17009KT CAVOK 10/04 Q1022=
201912160900 METAR LRAR 160900Z 18010KT CAVOK 11/03 Q1022=
201912160930 METAR LRAR 160930Z 18010KT CAVOK 11/04 Q1022=
201912161000 METAR LRAR 161000Z 19011KT CAVOK 11/04 Q1022=
201912161030 METAR LRAR 161030Z 19011KT CAVOK 12/04 Q1022=
201912161100 METAR LRAR 161100Z 18009KT CAVOK 12/05 Q1021=
201912161130 METAR LRAR 161130Z 18010KT CAVOK 13/05 Q1021=
201912161200 METAR LRAR 161200Z 18010KT CAVOK 14/05 Q1021=
201912161230 METAR LRAR 161230Z 17008KT CAVOK 14/05 Q1021=
201912161300 METAR LRAR 161300Z 16009KT CAVOK 14/06 Q1021=
201912161330 METAR LRAR 161330Z 17007KT CAVOK 14/06 Q1021=
201912161400 METAR LRAR 161400Z 19007KT CAVOK 13/06 Q1021=
201912161430 METAR LRAR 161430Z 18006KT CAVOK 13/06 Q1021=
201912161500 METAR LRAR 161500Z 17004KT CAVOK 11/06 Q1021=
201912161530 METAR LRAR 161530Z 17004KT CAVOK 10/06 Q1021=
201912161600 METAR LRAR 161600Z 16004KT CAVOK 08/05 Q1021=
201912161630 METAR LRAR 161630Z 15006KT CAVOK 08/05 Q1021=
201912161700 METAR LRAR 161700Z 15004KT CAVOK 06/04 Q1021=
201912161730 METAR LRAR 161730Z 15006KT CAVOK 08/04 Q1021=
201912161800 METAR LRAR 161800Z 15005KT CAVOK 07/04 Q1021=
201912161830 METAR LRAR 161830Z 14004KT CAVOK 06/04 Q1021=
201912161900 METAR LRAR 161900Z 14006KT CAVOK 06/03 Q1021=
201912161930 METAR LRAR 161930Z 13008KT CAVOK 06/03 Q1020=
201912162000 METAR LRAR 162000Z 14010KT CAVOK 07/03 Q1020=
201912162030 METAR LRAR 162030Z 14009KT CAVOK 07/03 Q1020=
201912162100 METAR LRAR 162100Z 15009KT CAVOK 07/03 Q1020=
201912162130 METAR LRAR 162130Z 14009KT CAVOK 07/03 Q1020=
201912162200 METAR LRAR 162200Z 14009KT CAVOK 07/02 Q1020=
201912162230 METAR LRAR 162230Z 15009KT CAVOK 07/03 Q1020=
201912162300 METAR LRAR 162300Z 14008KT CAVOK 06/02 Q1020=
201912162330 METAR LRAR 162330Z 14008KT CAVOK 05/02 Q1020=
201912170000 METAR LRAR 170000Z 15008KT CAVOK 06/03 Q1020=
201912170030 METAR LRAR 170030Z 15009KT CAVOK 06/02 Q1020=
201912170100 METAR LRAR 170100Z 15011KT CAVOK 06/02 Q1020=
201912170130 METAR LRAR 170130Z 14009KT CAVOK 06/02 Q1020=
201912170200 METAR LRAR 170200Z 14007KT CAVOK 05/02 Q1020=
201912170230 METAR COR LRAR 170230Z 15006KT CAVOK 05/02 Q1020=
201912170300 METAR LRAR 170300Z 15005KT CAVOK 04/02 Q1020=
201912170330 METAR LRAR 170330Z 15008KT CAVOK 04/02 Q1020=
201912170400 METAR LRAR 170400Z 15008KT CAVOK 05/02 Q1020=
201912170430 METAR LRAR 170430Z 14008KT CAVOK 04/02 Q1020=
201912170500 METAR LRAR 170500Z 14008KT CAVOK 04/02 Q1020=
201912170530 METAR LRAR 170530Z 14008KT CAVOK 04/02 Q1020=
201912170600 METAR LRAR 170600Z 15009KT CAVOK 05/02 Q1021=
201912170630 METAR LRAR 170630Z 14008KT CAVOK 05/02 Q1021=
201912170700 METAR LRAR 170700Z 15008KT CAVOK 06/02 Q1021=
201912170730 METAR LRAR 170730Z 15009KT CAVOK 07/03 Q1021=
201912170800 METAR LRAR 170800Z 15006KT CAVOK 07/03 Q1022=
201912170830 METAR LRAR 170830Z 15007KT CAVOK 09/04 Q1022=
201912170900 METAR LRAR 170900Z 16009KT CAVOK 10/05 Q1022=
201912170930 METAR LRAR 170930Z 17011KT CAVOK 12/04 Q1022=
201912171000 METAR LRAR 171000Z 18010KT 150V210 CAVOK 13/05 Q1021=
201912171030 METAR LRAR 171030Z 19009KT CAVOK 13/05 Q1021=
201912171100 METAR LRAR 171100Z 19010KT CAVOK 13/05 Q1021=
201912171130 METAR LRAR 171130Z 18009KT CAVOK 14/05 Q1021=
201912171200 METAR LRAR 171200Z 18009KT CAVOK 14/06 Q1021=
201912171230 METAR LRAR 171230Z 18007KT CAVOK 14/06 Q1021=
201912171300 METAR LRAR 171300Z 19008KT CAVOK 14/06 Q1020=
201912171330 METAR LRAR 171330Z 18007KT CAVOK 14/06 Q1021=
201912171400 METAR LRAR 171400Z 17006KT CAVOK 14/06 Q1021=
201912171430 METAR LRAR 171430Z 16005KT CAVOK 13/07 Q1021=
201912171500 METAR LRAR 171500Z 15004KT CAVOK 12/07 Q1021=
201912171530 METAR LRAR 171530Z 16005KT CAVOK 11/07 Q1021=
201912171600 METAR LRAR 171600Z 14005KT CAVOK 10/06 Q1022=
201912171630 METAR LRAR 171630Z 15005KT CAVOK 08/06 Q1022=
201912171700 METAR LRAR 171700Z 17004KT CAVOK 08/05 Q1022=
201912171730 METAR LRAR 171730Z 14006KT CAVOK 08/05 Q1022=
201912171800 METAR LRAR 171800Z 14006KT CAVOK 08/05 Q1022=
201912171830 METAR LRAR 171830Z 15006KT CAVOK 07/05 Q1022=
201912171900 METAR LRAR 171900Z 14006KT CAVOK 07/04 Q1022=
201912171930 METAR LRAR 171930Z 15008KT CAVOK 07/04 Q1022=
201912172000 METAR LRAR 172000Z 14009KT CAVOK 07/04 Q1022=
201912172030 METAR LRAR 172030Z 14008KT CAVOK 07/03 Q1022=
201912172100 METAR LRAR 172100Z 15008KT CAVOK 07/03 Q1022=
201912172130 METAR LRAR 172130Z 14007KT CAVOK 06/03 Q1022=
201912172200 METAR LRAR 172200Z 14008KT CAVOK 06/03 Q1022=
201912172230 METAR LRAR 172230Z 14008KT CAVOK 06/03 Q1022=
201912172300 METAR LRAR 172300Z 14009KT CAVOK 06/03 Q1022=
201912172330 METAR LRAR 172330Z 14010KT CAVOK 06/03 Q1022=
201912180000 METAR LRAR 180000Z 14009KT CAVOK 06/03 Q1022=
201912180030 METAR LRAR 180030Z 14010KT CAVOK 06/03 Q1022=
201912180100 METAR LRAR 180100Z 15010KT CAVOK 07/03 Q1022=
201912180130 METAR LRAR 180130Z 15010KT CAVOK 06/03 Q1022=
201912180200 METAR LRAR 180200Z 15010KT CAVOK 06/03 Q1022=
201912180230 METAR LRAR 180230Z 15010KT CAVOK 06/03 Q1022=
201912180300 METAR LRAR 180300Z 16008KT CAVOK 06/03 Q1022=
201912180330 METAR LRAR 180330Z 15008KT CAVOK 05/03 Q1022=
201912180400 METAR LRAR 180400Z 15007KT CAVOK 05/03 Q1022=
201912180430 METAR LRAR 180430Z 15004KT CAVOK 05/02 Q1022=
201912180500 METAR LRAR 180500Z 15006KT CAVOK 05/02 Q1022=
201912180530 METAR LRAR 180530Z 14005KT CAVOK 04/02 Q1022=
201912180600 METAR LRAR 180600Z 15006KT CAVOK 04/02 Q1023=
201912180630 METAR LRAR 180630Z 16004KT 130V200 CAVOK 06/03 Q1023=
201912180700 METAR LRAR 180700Z 16004KT CAVOK 07/03 Q1024=
201912180730 METAR LRAR 180730Z 16004KT CAVOK 08/04 Q1024=
201912180800 METAR LRAR 180800Z 18003KT 130V220 CAVOK 09/05 Q1024=
201912180830 METAR LRAR 180830Z 18007KT 150V210 CAVOK 10/05 Q1024=
201912180900 METAR LRAR 180900Z 18008KT CAVOK 10/05 Q1024=
201912180930 METAR LRAR 180930Z 18007KT CAVOK 11/05 Q1025=
201912181000 METAR LRAR 181000Z 18008KT CAVOK 12/05 Q1024=
201912181030 METAR LRAR 181030Z 17007KT CAVOK 13/06 Q1024=
201912181100 METAR LRAR 181100Z 17007KT CAVOK 13/06 Q1024=
201912181130 METAR LRAR 181130Z 19007KT CAVOK 13/06 Q1024=
201912181200 METAR LRAR 181200Z 18007KT CAVOK 15/06 Q1024=
201912181230 METAR LRAR 181230Z 19008KT CAVOK 15/07 Q1024=
201912181300 METAR LRAR 181300Z 22006KT CAVOK 15/07 Q1024=
201912181330 METAR LRAR 181330Z 21006KT CAVOK 14/07 Q1024=
201912181400 METAR LRAR 181400Z 20006KT CAVOK 13/07 Q1024=
201912181430 METAR LRAR 181430Z 19004KT CAVOK 13/07 Q1024=
201912181500 METAR LRAR 181500Z VRB02KT CAVOK 11/07 Q1024=
201912181530 METAR LRAR 181530Z 18007KT CAVOK 11/06 Q1024=
201912181600 METAR LRAR 181600Z 18007KT CAVOK 11/06 Q1024=
201912181630 METAR LRAR 181630Z 18007KT CAVOK 10/06 Q1024=
201912181700 METAR LRAR 181700Z VRB02KT CAVOK 09/05 Q1025=
201912181730 METAR LRAR 181730Z VRB02KT CAVOK 08/05 Q1025=
201912181800 METAR LRAR 181800Z 17002KT CAVOK 07/04 Q1025=
201912181830 METAR LRAR 181830Z 12005KT CAVOK 07/05 Q1025=
201912181900 METAR LRAR 181900Z 14006KT CAVOK 08/05 Q1025=
201912181930 METAR LRAR 181930Z 15007KT CAVOK 08/05 Q1025=
201912182000 METAR LRAR 182000Z 14006KT CAVOK 07/04 Q1026=
201912182030 METAR LRAR 182030Z 14006KT CAVOK 07/04 Q1026=
201912182100 METAR LRAR 182100Z 14005KT CAVOK 07/04 Q1026=
201912182130 METAR LRAR 182130Z 14003KT CAVOK 07/04 Q1026=
201912182200 METAR LRAR 182200Z 16004KT CAVOK 07/04 Q1026=
201912182230 METAR LRAR 182230Z 16003KT CAVOK 07/04 Q1026=
201912182300 METAR LRAR 182300Z 16002KT CAVOK 06/04 Q1026=
201912182330 METAR LRAR 182330Z 15003KT 120V190 CAVOK 06/04 Q1026=
201912190000 METAR LRAR 190000Z 14004KT CAVOK 06/04 Q1026=
201912190030 METAR LRAR 190030Z 15006KT CAVOK 07/04 Q1026=
201912190100 METAR LRAR 190100Z 15005KT CAVOK 06/04 Q1026=
201912190130 METAR LRAR 190130Z 14004KT CAVOK 06/04 Q1026=
201912190200 METAR LRAR 190200Z 13004KT CAVOK 06/04 Q1026=
201912190230 METAR LRAR 190230Z 14005KT CAVOK 06/04 Q1026=
201912190300 METAR LRAR 190300Z 14006KT CAVOK 05/03 Q1026=
201912190330 METAR LRAR 190330Z 15006KT CAVOK 05/03 Q1026=
201912190400 METAR LRAR 190400Z 14006KT CAVOK 05/03 Q1026=
201912190430 METAR LRAR 190430Z 13005KT CAVOK 05/03 Q1026=
201912190500 METAR LRAR 190500Z 14005KT CAVOK 05/03 Q1026=
201912190530 METAR LRAR 190530Z 14005KT CAVOK 05/04 Q1026=
201912190600 METAR LRAR 190600Z 14005KT CAVOK 05/03 Q1026=
201912190630 METAR LRAR 190630Z 15004KT CAVOK 06/04 Q1026=
201912190700 METAR LRAR 190700Z 13004KT CAVOK 06/04 Q1026=
201912190730 METAR LRAR 190730Z 13004KT CAVOK 08/05 Q1026=
201912190800 METAR LRAR 190800Z 15005KT CAVOK 09/05 Q1026=
201912190830 METAR LRAR 190830Z 14007KT CAVOK 10/06 Q1026=
201912190900 METAR LRAR 190900Z 14009KT CAVOK 11/06 Q1026=
201912190930 METAR LRAR 190930Z 15006KT CAVOK 12/06 Q1026=
201912191000 METAR LRAR 191000Z 14006KT CAVOK 13/06 Q1026=
201912191030 METAR LRAR 191030Z 13005KT CAVOK 14/06 Q1026=
201912191100 METAR LRAR 191100Z 16005KT 140V210 CAVOK 15/07 Q1025=
201912191130 METAR LRAR 191130Z 22003KT 160V260 CAVOK 15/07 Q1025=
201912191200 METAR LRAR 191200Z VRB02KT CAVOK 15/07 Q1025=
201912191230 METAR LRAR 191230Z 20004KT 090V230 CAVOK 15/07 Q1024=
201912191300 METAR LRAR 191300Z VRB02KT CAVOK 15/07 Q1024=
201912191330 METAR LRAR 191330Z VRB02KT CAVOK 15/06 Q1024=
201912191400 METAR LRAR 191400Z 00000KT CAVOK 15/06 Q1024=
201912191430 METAR LRAR 191430Z VRB02KT CAVOK 13/07 Q1024=
201912191500 METAR LRAR 191500Z 07004KT 7000 NSC 11/08 Q1024=
201912191530 METAR LRAR 191530Z 04005KT 8000 NSC 11/07 Q1023=
201912191600 METAR LRAR 191600Z 05003KT 7000 NSC 09/07 Q1023=
201912191630 METAR LRAR 191630Z 00000KT 7000 NSC 09/08 Q1023=
201912191700 METAR LRAR 191700Z 00000KT 7000 MIFG NSC 07/07 Q1023=
201912191730 METAR LRAR 191730Z 00000KT 7000 MIFG NSC 06/06 Q1023=
201912191800 METAR LRAR 191800Z 00000KT 5000 MIFG BR NSC 06/06 Q1023=
201912191830 METAR LRAR 191830Z 00000KT 4000 MIFG BR NSC 06/06 Q1023=
201912191900 METAR LRAR 191900Z 00000KT 3800 MIFG BR NSC 05/05 Q1023=
201912191930 METAR LRAR 191930Z 14004KT 3500 MIFG BR NSC 06/06 Q1022=
201912192000 METAR LRAR 192000Z 15007KT 3500 MIFG BR NSC 07/07 Q1022=
201912192030 METAR LRAR 192030Z 17006KT CAVOK 09/03 Q1022=
201912192100 METAR LRAR 192100Z 17006KT CAVOK 09/03 Q1022=
201912192130 METAR LRAR 192130Z 14007KT CAVOK 07/03 Q1022=
201912192200 METAR LRAR 192200Z 14007KT CAVOK 06/03 Q1021=
201912192230 METAR LRAR 192230Z 14006KT CAVOK 06/03 Q1021=
201912192300 METAR LRAR 192300Z 13008KT CAVOK 06/03 Q1021=
201912192330 METAR LRAR 192330Z 13007KT CAVOK 07/03 Q1020=
201912200000 METAR LRAR 200000Z 14008KT CAVOK 08/03 Q1020=
201912200030 METAR LRAR 200030Z 13008KT CAVOK 08/03 Q1020=
201912200100 METAR LRAR 200100Z 14008KT CAVOK 08/03 Q1020=
201912200130 METAR LRAR 200130Z 14008KT CAVOK 07/03 Q1019=
201912200200 METAR LRAR 200200Z 15008KT CAVOK 07/03 Q1019=
201912200230 METAR LRAR 200230Z 15007KT CAVOK 06/02 Q1019=
201912200300 METAR LRAR 200300Z 14009KT CAVOK 06/02 Q1018=
201912200330 METAR LRAR 200330Z 14010KT CAVOK 07/02 Q1018=
201912200400 METAR LRAR 200400Z 15010KT CAVOK 07/02 Q1017=
201912200430 METAR LRAR 200430Z 15010KT CAVOK 07/02 Q1017=
201912200500 METAR LRAR 200500Z 14011KT CAVOK 07/02 Q1017=
201912200530 METAR LRAR 200530Z 15011KT CAVOK 07/02 Q1016=
201912200600 METAR LRAR 200600Z 14009KT CAVOK 07/02 Q1016=
201912200630 METAR LRAR 200630Z 14010KT CAVOK 07/02 Q1016=
201912200700 METAR LRAR 200700Z 14010KT CAVOK 08/02 Q1016=
201912200730 METAR LRAR 200730Z 14009KT CAVOK 08/02 Q1016=
201912200800 METAR LRAR 200800Z 15008KT CAVOK 08/02 Q1016=
201912200830 METAR LRAR 200830Z 15009KT CAVOK 10/02 Q1016=
201912200900 METAR LRAR 200900Z 16008KT CAVOK 11/03 Q1015=
201912200930 METAR LRAR 200930Z 16011KT CAVOK 11/03 Q1015=
201912201000 METAR LRAR 201000Z 17010KT CAVOK 12/04 Q1015=
201912201030 METAR LRAR 201030Z 18010KT CAVOK 13/04 Q1014=
201912201100 METAR LRAR 201100Z 17011KT 140V200 CAVOK 13/04 Q1013=
201912201130 METAR COR LRAR 201130Z 17009KT 140V210 CAVOK 14/04 Q1013=
201912201200 METAR LRAR 201200Z 17009KT 140V210 CAVOK 14/04 Q1012=
201912201230 METAR LRAR 201230Z 19010KT 150V220 CAVOK 14/05 Q1012=
201912201300 METAR LRAR 201300Z 17008KT 140V210 CAVOK 14/05 Q1011=
201912201330 METAR LRAR 201330Z 17007KT 140V200 CAVOK 15/06 Q1011=
201912201400 METAR LRAR 201400Z 17006KT CAVOK 14/05 Q1010=
201912201430 METAR LRAR 201430Z 19006KT CAVOK 13/06 Q1010=
201912201500 METAR LRAR 201500Z 20008KT CAVOK 13/05 Q1011=
201912201530 METAR LRAR 201530Z 18009KT CAVOK 13/05 Q1010=
201912201600 METAR LRAR 201600Z 17008KT CAVOK 12/05 Q1010=
201912201630 METAR LRAR 201630Z 18008KT CAVOK 12/05 Q1010=
201912201700 METAR LRAR 201700Z 17009KT CAVOK 12/05 Q1010=
201912201730 METAR LRAR 201730Z 16012KT CAVOK 12/05 Q1009=
201912201800 METAR LRAR 201800Z 17010KT CAVOK 11/05 Q1009=
201912201830 METAR LRAR 201830Z 17011KT 140V200 CAVOK 11/04 Q1009=
201912201900 METAR LRAR 201900Z 16012KT CAVOK 11/04 Q1009=
201912201930 METAR LRAR 201930Z 17011KT 150V210 CAVOK 10/05 Q1009=
201912202000 METAR LRAR 202000Z 17010KT CAVOK 10/05 Q1008=
201912202030 METAR LRAR 202030Z 18010KT CAVOK 10/05 Q1008=
201912202100 METAR LRAR 202100Z 17012KT CAVOK 10/05 Q1008=
201912202130 METAR LRAR 202130Z 18012KT CAVOK 10/05 Q1008=
201912202200 METAR LRAR 202200Z 18012KT CAVOK 10/05 Q1008=
201912202230 METAR LRAR 202230Z 17013KT CAVOK 10/05 Q1007=
201912202300 METAR LRAR 202300Z 17012KT CAVOK 10/05 Q1007=
201912202330 METAR LRAR 202330Z 17013KT CAVOK 10/05 Q1007=
201912210000 METAR COR LRAR 210000Z 17012KT CAVOK 10/05 Q1006=
201912210030 METAR LRAR 210030Z 18011KT CAVOK 11/06 Q1006=
201912210100 METAR LRAR 210100Z 18012KT 150V210 9999 -RA NSC 10/06 Q1007=
201912210130 METAR LRAR 210130Z 17012KT CAVOK 11/06 Q1006=
201912210200 METAR LRAR 210200Z NIL=
201912210230 METAR LRAR 210230Z 17009KT 140V210 CAVOK 11/06 Q1006=
201912210300 METAR LRAR 210300Z 17011KT CAVOK 11/06 Q1006=
201912210330 METAR COR LRAR 210330Z 17010KT 9999 -RA NSC 11/07 Q1006=
201912210400 METAR LRAR 210400Z 16011KT 9999 -RA NSC 11/07 Q1005=
201912210430 METAR LRAR 210430Z 16013KT 9999 -RA FEW013 11/07 Q1005=
201912210500 METAR LRAR 210500Z 16011KT 9999 -RA FEW010 11/07 Q1005 R09/29//95=
201912210530 METAR LRAR 210530Z 15012KT CAVOK 11/07 Q1005 R09/29//95=
201912210600 METAR LRAR 210600Z 16011KT CAVOK 12/07 Q1005 R09/29//95=
201912210630 METAR LRAR 210630Z 17010KT CAVOK 12/07 Q1005 R09/29//95=
201912210700 METAR LRAR 210700Z 16011KT CAVOK 12/07 Q1004 R09/29//95=
201912210730 METAR LRAR 210730Z 16010KT CAVOK 12/07 Q1004 R09/29//95=
201912210800 METAR LRAR 210800Z 17010KT CAVOK 13/07 Q1004 R09/CLRD//=
201912210830 METAR LRAR 210830Z 17011KT 9999 NCD 13/07 Q1004=
201912210900 METAR LRAR 210900Z 16012KT CAVOK 13/07 Q1003=
201912210930 METAR LRAR 210930Z 16012KT CAVOK 14/07 Q1003=
201912211000 METAR LRAR 211000Z 16010KT CAVOK 14/07 Q1002=
201912211030 METAR LRAR 211030Z 17011KT CAVOK 15/07 Q1002=
201912211100 METAR LRAR 211100Z 17011KT 140V200 CAVOK 16/08 Q1001=
201912211130 METAR LRAR 211130Z 17012KT CAVOK 16/07 Q1000=
201912211200 METAR LRAR 211200Z 16011KT CAVOK 16/07 Q1000=
201912211230 METAR LRAR 211230Z 17015KT CAVOK 16/07 Q0999=
201912211300 METAR LRAR 211300Z 17011KT 140V200 CAVOK 16/07 Q0999=
201912211330 METAR LRAR 211330Z 17012KT CAVOK 16/06 Q0999=
201912211400 METAR LRAR 211400Z 17013KT CAVOK 16/06 Q0999=
201912211430 METAR LRAR 211430Z 17012KT 9999 FEW015 16/06 Q0998=
201912211500 METAR LRAR 211500Z 17012KT 9999 -RA FEW014 15/07 Q0998=
201912211530 METAR LRAR 211530Z 17009KT 9999 -RA FEW010 SCT024 14/08 Q0998=
201912211600 METAR LRAR 211600Z 17009KT 9999 -RA FEW015 BKN028 13/08 Q0998
                        R09/29//95=
201912211630 METAR LRAR 211630Z 15010KT 9999 -RA FEW015 BKN030 12/09 Q0997
                        R09/29//95=
201912211700 METAR COR LRAR 211700Z 15012KT 9999 -RA FEW011 SCT031 13/09
                        Q0997 R09/29//95=
201912211730 METAR LRAR 211730Z 15011KT 9999 -RA SCT015 SCT036 12/09 Q0996
                        R09/29//95=
201912211800 METAR LRAR 211800Z 15011KT 9999 -RA SCT020 BKN040 12/09 Q0996
                        R09/29//95=
201912211830 METAR LRAR 211830Z 15011KT 9999 -RA SCT025 BKN042 13/09 Q0996
                        R09/29//95=
201912211900 METAR LRAR 211900Z 15011KT 9999 FEW030 BKN045 13/08 Q0996
                        R09/29//95=
201912211930 METAR LRAR 211930Z 14010KT 9999 FEW035 BKN047 12/08 Q0996
                        R09/29//95=
201912212000 METAR LRAR 212000Z 14009KT 9999 SCT048 12/08 Q0995 R09/29//95=
201912212030 METAR LRAR 212030Z 16012KT 9999 SCT048 13/07 Q0995 R09/29//95=
201912212100 METAR LRAR 212100Z 17013KT 140V200 9999 -RA FEW010 BKN048
                        13/07 Q0995 R09/29//95=
201912212130 METAR LRAR 212130Z 17013KT 9999 FEW014 BKN045 14/07 Q0995
                        R09/29//95=
201912212200 METAR LRAR 212200Z 18014KT 9999 -RA SCT014 BKN045 14/07 Q0995
                        R09/29//95=
201912212230 METAR LRAR 212230Z 22017KT 9999 SCT014 BKN045 13/08 Q0996
                        R09/29//95=
201912212300 METAR LRAR 212300Z 21018KT 9999 -SHRA SCT015 BKN045 FEW050CB
                        11/11 Q0997 R09/29//95=
201912212330 METAR LRAR 212330Z 17011KT 140V200 9999 -SHRA SCT018 BKN045
                        SCT050CB 11/11 Q0995 R09/29//95=
201912220000 METAR LRAR 220000Z 20009KT 170V230 9999 SCT023 SCT055CB 11/10
                        Q0995 R09/29//95=
201912220030 METAR COR LRAR 220030Z 19010KT 9999 SCT030 FEW055CB 10/10
                        Q0996 R09/29//95=
201912220100 METAR LRAR 220100Z 19012KT 9999 SCT040 11/10 Q0996 R09/29//95=
201912220130 METAR LRAR 220130Z 19012KT CAVOK 10/10 Q0996 R09/29//95=
201912220200 METAR LRAR 220200Z 19011KT CAVOK 10/09 Q0996 R09/29//95=
201912220230 METAR LRAR 220230Z 19011KT CAVOK 11/10 Q0996 R09/29//95=
201912220300 METAR LRAR 220300Z 19012KT 160V220 CAVOK 11/10 Q0996 R09/29//95=
201912220330 METAR LRAR 220330Z 19011KT CAVOK 10/10 Q0996 R09/29//95=
201912220400 METAR LRAR 220400Z 18009KT CAVOK 10/10 Q0995 R09/29//95=
201912220430 METAR LRAR 220430Z 17009KT CAVOK 10/10 Q0995 R09/29//95=
201912220500 METAR LRAR 220500Z 18010KT CAVOK 10/09 Q0995 R09/29//95=
201912220530 METAR LRAR 220530Z 17008KT CAVOK 10/09 Q0995 R09/29//95=
201912220600 METAR LRAR 220600Z 17008KT CAVOK 09/09 Q0994 R09/29//95=
201912220630 METAR LRAR 220630Z 16009KT CAVOK 09/09 Q0994 R09/29//95=
201912220700 METAR LRAR 220700Z 15008KT CAVOK 09/09 Q0994 R09/29//95=
201912220730 METAR LRAR 220730Z 16007KT CAVOK 10/09 Q0994 R09/29//95=
201912220800 METAR LRAR 220800Z 14008KT 9999 FEW030 10/09 Q0994 R09/29//95=
201912220830 METAR LRAR 220830Z 14007KT 9999 FEW030 11/09 Q0993 R09/9//95=
201912220900 METAR LRAR 220900Z 14009KT CAVOK 12/09 Q0993 R09/19//95=
201912220930 METAR LRAR 220930Z 13009KT CAVOK 12/09 Q0993 R09/19//95=
201912221000 METAR LRAR 221000Z 13008KT CAVOK 14/09 Q0992 R09/19//95=
201912221030 METAR LRAR 221030Z 12009KT CAVOK 14/09 Q0991 R09/19//95=
201912221100 METAR LRAR 221100Z 12010KT CAVOK 14/09 Q0991 R09/CLRD//=
201912221130 METAR LRAR 221130Z 12011KT CAVOK 14/09 Q0990=
201912221200 METAR LRAR 221200Z 12014KT 9999 FEW035CB 15/09 Q0989=
201912221230 METAR LRAR 221230Z 12011KT 9999 FEW035CB 15/09 Q0988=
201912221300 METAR LRAR 221300Z 12011KT CAVOK 15/09 Q0988=
201912221330 METAR LRAR 221330Z 13010KT 9999 -SHRA SCT035CB 15/09 Q0988=
201912221400 METAR LRAR 221400Z 12010KT 9999 FEW035CB 14/10 Q0987=
201912221430 METAR LRAR 221430Z 12011KT 9999 FEW035CB 14/09 Q0987=
201912221500 METAR LRAR 221500Z 13010KT CAVOK 14/09 Q0987=
201912221530 METAR LRAR 221530Z 14011KT 9999 -RA FEW014 14/09 Q0987 R09/19//95=
201912221600 METAR LRAR 221600Z 14011KT 9999 FEW010 SCT041 13/10 Q0987
                        R09/19//95=
201912221630 METAR LRAR 221630Z 14010KT 9999 -RA BKN045 13/10 Q0987 R09/19//95=
201912221700 METAR LRAR 221700Z 14010KT 9999 -RA FEW009 SCT018 BKN046
                        13/10 Q0987 R09/29//95=
201912221730 METAR LRAR 221730Z 14009KT 9999 SCT046 13/11 Q0987 R09/29//95=
201912221800 METAR LRAR 221800Z 14007KT CAVOK 12/11 Q0987 R09/29//95=
201912221830 METAR LRAR 221830Z 14006KT CAVOK 12/12 Q0987 R09/29//95=
201912221900 METAR LRAR 221900Z 16008KT CAVOK 13/11 Q0987 R09/29//95=
201912221930 METAR LRAR 221930Z 17012KT CAVOK 13/09 Q0987 R09/29//95=
201912222000 METAR LRAR 222000Z 17012KT CAVOK 13/09 Q0987 R09/29//95=
201912222030 METAR LRAR 222030Z 18011KT 9999 BKN049 13/09 Q0987 R09/29//95=
201912222100 METAR LRAR 222100Z 18009KT 9999 BKN047 13/09 Q0987 R09/29//95=
201912222130 METAR LRAR 222130Z 17009KT 140V200 9999 SCT048 12/09 Q0987
                        R09/29//95=
201912222200 METAR LRAR 222200Z 18010KT CAVOK 12/08 Q0987 R09/29//95=
201912222230 METAR LRAR 222230Z 18010KT CAVOK 12/08 Q0987 R09/29//95=
201912222300 METAR LRAR 222300Z 19008KT CAVOK 12/08 Q0987 R09/29//95=
201912222330 METAR LRAR 222330Z 18010KT CAVOK 12/08 Q0987 R09/29//95=
201912230000 METAR LRAR 230000Z 19007KT CAVOK 12/08 Q0987 R09/29//95=
201912230030 METAR LRAR 230030Z 17006KT 130V200 CAVOK 12/08 Q0987 R09/29//95=
201912230100 METAR LRAR 230100Z 16006KT CAVOK 11/08 Q0987 R09/29//95=
201912230130 METAR LRAR 230130Z 16007KT CAVOK 11/08 Q0987 R09/29//95=
201912230200 METAR LRAR 230200Z 19008KT CAVOK 11/07 Q0987 R09/29//95=
201912230230 METAR LRAR 230230Z 19007KT CAVOK 10/07 Q0987 R09/29//95=
201912230300 METAR LRAR 230300Z 21007KT 180V240 CAVOK 10/07 Q0987 R09/29//95=
201912230330 METAR LRAR 230330Z 21007KT 9999 FEW010 09/07 Q0988 R09/29//95=
201912230400 METAR LRAR 230400Z 21005KT 9999 SCT009 BKN038 09/09 Q0988
                        R09/29//95=
201912230430 METAR LRAR 230430Z 23005KT 9999 SCT006 BKN008 09/09 Q0988
                        R09/29//95=
201912230500 METAR LRAR 230500Z 25003KT 5000 BR SCT002 OVC007 09/09 Q0988
                        R09/29//95=
201912230530 METAR LRAR 230530Z 25005KT 3000 -DZ BR SCT001 OVC003 09/09
                        Q0989 R09/29//95=
201912230600 METAR LRAR 230600Z 27009KT 5000 BR SCT002 OVC004 08/08 Q0989
                        R09/29//95=
201912230630 METAR LRAR 230630Z 28010KT 5000 -RA BR SCT006 OVC008 08/08
                        Q0989 R09/29//95=
201912230700 METAR LRAR 230700Z 27012KT 5000 RA BR SCT004 BKN006 OVC009
                        07/07 Q0990 R09/29//95=
201912230730 METAR LRAR 230730Z 28010KT 4000 -RA BR SCT004 BKN006 OVC008
                        07/07 Q0990 RERA R09/29//95=
201912230800 METAR LRAR 230800Z 27010KT 7000 -DZ FEW005 BKN007 OVC009
                        07/07 Q0990 RERA R09/29//95=
201912230830 METAR LRAR 230830Z 27009KT 7000 -DZ FEW005 OVC007 07/07 Q0991
                        R09/29//95=
201912230900 METAR LRAR 230900Z 26007KT 6000 -RADZ SCT005 OVC007 07/07
                        Q0991 R09/29//95=
201912230930 METAR LRAR 230930Z 25005KT 6000 -RADZ SCT005 OVC007 07/07
                        Q0991 R09/29//95=
201912231000 METAR LRAR 231000Z 25005KT 7000 -RADZ SCT004 OVC008 07/07
                        Q0991 R09/29//95=
201912231030 METAR LRAR 231030Z 26005KT 7000 -RADZ FEW004 BKN006 OVC008
                        07/07 Q0991 R09/29//95=
201912231100 METAR LRAR 231100Z 25004KT 7000 -RADZ FEW004 BKN006 OVC008
                        07/07 Q0991 R09/29//95=
201912231130 METAR LRAR 231130Z 23004KT 5000 -RADZ BR FEW003 BKN006 OVC008
                        07/07 Q0991 R09/29//95=
201912231200 METAR LRAR 231200Z 25004KT 3500 -RADZ BR FEW003 BKN005 OVC009
                        07/07 Q0992 R09/29//95=
201912231230 METAR LRAR 231230Z 26004KT 4000 -RA BR SCT003 BKN006 BKN008
                        07/07 Q0992 R09/29//95=
201912231300 METAR LRAR 231300Z 26005KT 5000 -RA BR FEW003 SCT005 BKN008
                        07/07 Q0992 R09/29//95=
201912231330 METAR LRAR 231330Z 28006KT 8000 -RA SCT005 OVC007 07/07 Q0992
                        R09/29//95=
201912231400 METAR LRAR 231400Z 28006KT 8000 -RA FEW004 SCT008 OVC011
                        07/07 Q0993 R09/29//95=
201912231430 METAR LRAR 231430Z 28006KT 8000 -RA FEW004 BKN008 OVC010
                        07/07 Q0993 R09/29//95=
201912231500 METAR LRAR 231500Z 29006KT 9999 -RA BKN008 OVC011 07/07 Q0993
                        R09/29//95=
201912231530 METAR LRAR 231530Z 28005KT 9999 BKN004 OVC006 07/07 Q0994
                        R09/29//95=
201912231600 METAR LRAR 231600Z 24003KT 6000 SCT003 OVC005 07/07 Q0994
                        R09/29//95=
201912231630 METAR LRAR 231630Z 00000KT 5000 BR BKN002 OVC004 07/07 Q0994
                        R09/29//95=
201912231700 METAR LRAR 231700Z 35004KT 3500 -RA BR FEW001 BKN003 07/07
                        Q0995 R09/29//95=
201912231730 METAR LRAR 231730Z 02016KT 8000 -RA SCT004 BKN007 06/06 Q0996
                        R09/29//95=
201912231800 METAR LRAR 231800Z 01013KT 9999 SCT011 BKN014 06/06 Q0997
                        R09/29//95=
201912231830 METAR LRAR 231830Z 36009KT 9999 -RA SCT005 BKN010 06/06 Q0998
                        R09/29//95=
201912231900 METAR LRAR 231900Z 35007KT 9999 -RA SCT005 BKN008 06/06 Q0998
                        R09/29//95=
201912231930 METAR LRAR 231930Z 34006KT 310V010 9999 FEW004 BKN007 06/06
                        Q0999 R09/29//95=
201912232000 METAR LRAR 232000Z 34009KT 9999 -RA SCT010 BKN015 06/06 Q0999
                        R09/29//95=
201912232030 METAR LRAR 232030Z 34005KT 9999 -RA FEW009 BKN012 06/06 Q0999
                        R09/29//95=
201912232100 METAR LRAR 232100Z 32005KT 9999 -RA FEW010 SCT017 OVC034
                        06/06 Q0999 R09/29//95=
201912232130 METAR LRAR 232130Z 31007KT 9999 SCT017 06/06 Q1000 R09/29//95=
201912232200 METAR LRAR 232200Z 32008KT 9999 FEW012 SCT017 06/06 Q1000
                        R09/29//95=
201912232230 METAR LRAR 232230Z 32008KT 9999 FEW011 SCT015 06/06 Q1001
                        R09/29//95=
201912232300 METAR LRAR 232300Z 32008KT 9999 FEW010 SCT015 06/06 Q1001
                        R09/29//95=
201912232330 METAR LRAR 232330Z 31010KT 9999 -RADZ FEW011 SCT015 OVC018
                        06/06 Q1001 R09/29//95=
201912240000 METAR LRAR 240000Z 31011KT 9999 -RADZ FEW011 SCT014 OVC019
                        06/06 Q1002 R09/29//95=
201912240030 METAR LRAR 240030Z 31011KT 9999 FEW011 BKN020 06/06 Q1002
                        R09/29//95=
201912240100 METAR LRAR 240100Z 31011KT 9999 -RA FEW012 BKN020 OVC034
                        06/06 Q1002 R09/29//95=
201912240130 METAR LRAR 240130Z 31010KT 9999 -RA FEW012 BKN020 OVC030
                        06/06 Q1003 R09/29//95=
201912240200 METAR LRAR 240200Z 31012KT 9999 -RA SCT014 BKN019 OVC030
                        06/06 Q1003 R09/29//95=
201912240230 METAR LRAR 240230Z 31013KT 9999 -RA FEW011 BKN015 OVC030
                        06/06 Q1003 R09/29//95=
201912240300 METAR LRAR 240300Z 31014KT 9999 -RA FEW012 BKN020 OVC030
                        06/06 Q1004 R09/29//95=
201912240330 METAR LRAR 240330Z 31014KT 9999 -RA FEW014 BKN017 OVC030
                        06/06 Q1004 R09/29//95=
201912240400 METAR LRAR 240400Z 31014KT 9999 -RA FEW010 SCT015 OVC030
                        06/06 Q1004 R09/29//95=
201912240430 METAR LRAR 240430Z 31014KT 9999 -RA FEW008 BKN018 OVC030
                        06/06 Q1004 R09/29//95=
201912240500 METAR LRAR 240500Z 32013KT 9000 -RA FEW011 BKN018 OVC030
                        06/06 Q1005 R09/29//95=
201912240530 METAR LRAR 240530Z 32014KT 9999 -RA SCT012 BKN022 OVC030
                        06/06 Q1005 R09/29//95=
201912240600 METAR LRAR 240600Z 32013KT 9999 -RA SCT015 BKN025 OVC033
                        06/06 Q1006 R09/29//95=
201912240630 METAR LRAR 240630Z 32014KT 9999 -RA SCT015 BKN026 OVC035
                        06/06 Q1007 R09/29//95=
201912240700 METAR COR LRAR 240700Z 32014KT 9999 -RA SCT013 BKN024 OVC035
                        06/06 Q1007 R09/29//95=
201912240730 METAR LRAR 240730Z 32015KT 9999 -RA SCT015 BKN024 OVC039
                        06/06 Q1007 R09/29//95=
201912240800 METAR LRAR 240800Z 32015KT 9999 -RA SCT025 OVC040 06/06 Q1008
                        R09/29//95=
201912240830 METAR LRAR 240830Z 32017KT 9999 -RA SCT026 OVC040 06/06 Q1008
                        R09/29//95=
201912240900 METAR LRAR 240900Z 32015KT 9999 -RA FEW008 BKN023 OVC045
                        06/06 Q1009 R09/29//95=
201912240930 METAR LRAR 240930Z 32016KT 9999 -RA SCT008 BKN025 OVC045
                        06/06 Q1009 R09/29//95=
201912241000 METAR COR LRAR 241000Z 33015KT 9999 SCT012 SCT033 OVC046
                        06/06 Q1009 R09/29//95=
201912241030 METAR LRAR 241030Z 32014KT 9999 -RA SCT020 OVC048 07/07 Q1009
                        R09/29//95=
201912241100 METAR LRAR 241100Z 32014KT 9999 -RA SCT022 07/06 Q1009 R09/29//95=
201912241130 METAR LRAR 241130Z 33014KT 9999 -RA SCT025 07/07 Q1009 R09/29//95=
201912241200 METAR LRAR 241200Z 32016KT 9999 SCT030 07/06 Q1009 R09/29//95=
201912241230 METAR LRAR 241230Z 32012KT 9999 SCT033 07/06 Q1009 R09/29//95=
201912241300 METAR LRAR 241300Z 32012KT 9999 SCT035 08/06 Q1010 R09/29//95=
201912241330 METAR LRAR 241330Z 32012KT 9999 SCT040 07/06 Q1010 R09/29//95=
201912241400 METAR LRAR 241400Z 32010KT 9999 SCT040 07/07 Q1010 R09/29//95=
201912241430 METAR LRAR 241430Z 31008KT 9999 SCT045 07/06 Q1010 R09/29//95=
201912241500 METAR LRAR 241500Z 31006KT 9999 BKN045 07/06 Q1010 R09/29//95=
201912241530 METAR LRAR 241530Z 31004KT 9999 SCT046 07/06 Q1010 R09/29//95=
201912241600 METAR LRAR 241600Z 32004KT 9999 SCT048 07/06 Q1010 R09/29//95=
201912241630 METAR LRAR 241630Z 31003KT 9999 SCT048 06/06 Q1010 R09/29//95=
201912241700 METAR LRAR 241700Z VRB01KT 9999 -RA NSC 06/06 Q1011 R09/29//95=
201912241730 METAR LRAR 241730Z 31001KT 9999 -RA NSC 06/06 Q1011 R09/29//95=
201912241800 METAR LRAR 241800Z 29002KT 9999 -RA FEW010 SCT013 06/06 Q1011
                        R09/29//95=
201912241830 METAR LRAR 241830Z 29004KT 9999 SCT013 BKN044 05/05 Q1011
                        R09/29//95=
201912241900 METAR LRAR 241900Z 31003KT 9999 FEW010 BKN035 06/06 Q1011
                        R09/29//95=
201912241930 METAR LRAR 241930Z 30002KT 9999 FEW010 SCT040 05/05 Q1011
                        R09/19//95=
201912242000 METAR LRAR 242000Z 29002KT CAVOK 05/05 Q1011 R09/19//95=
201912242030 METAR LRAR 242030Z 28006KT 9999 FEW034 05/05 Q1011 R09/19//95=
201912242100 METAR LRAR 242100Z 29005KT 9999 FEW030 05/05 Q1011 R09/19//95=
201912242130 METAR LRAR 242130Z 30006KT 9999 FEW030 03/03 Q1011 R09/19//95=
201912242200 METAR LRAR 242200Z 29006KT 9999 BKN027 02/02 Q1011 R09/19//95=
201912242230 METAR LRAR 242230Z 29004KT 9999 BKN025 03/03 Q1011 R09/19//95=
201912242300 METAR LRAR 242300Z 27003KT 9999 FEW024 02/02 Q1010 R09/19//95=
201912242330 METAR LRAR 242330Z 27005KT CAVOK 01/01 Q1010 R09/19//95=
201912250000 METAR LRAR 250000Z 26003KT CAVOK 02/02 Q1011 R09/19//95=
201912250030 METAR LRAR 250030Z 27006KT CAVOK 02/02 Q1010 R09/19//95=
201912250100 METAR LRAR 250100Z 27005KT CAVOK 01/01 Q1010 R09/19//95=
201912250130 METAR LRAR 250130Z 26004KT CAVOK 01/01 Q1010 R09/19//95=
201912250200 METAR LRAR 250200Z 27002KT CAVOK 02/02 Q1010 R09/19//95=
201912250230 METAR LRAR 250230Z 27002KT CAVOK 02/02 Q1010 R09/19//95=
201912250300 METAR LRAR 250300Z 21001KT CAVOK 02/02 Q1010 R09/19//95=
201912250330 METAR LRAR 250330Z 25002KT CAVOK 01/01 Q1010 R09/19//95=
201912250400 METAR LRAR 250400Z VRB01KT CAVOK 02/02 Q1010 R09/19//95=
201912250430 METAR LRAR 250430Z 15003KT 9999 BKN049 02/02 Q1010 R09/19//95=
201912250500 METAR LRAR 250500Z VRB02KT 9999 OVC049 02/02 Q1010 R09/19//95=
201912250530 METAR LRAR 250530Z 21003KT 9999 FEW032 BKN049 02/02 Q1010
                        R09/19//95=
201912250600 METAR LRAR 250600Z 22003KT 9999 FEW023 BKN049 03/03 Q1011
                        R09/19//95=
201912250630 METAR LRAR 250630Z 22002KT 9999 SCT028 03/03 Q1011 R09/19//95=
201912250700 METAR LRAR 250700Z 21001KT 9999 BKN025 03/03 Q1011 R09/19//95=
201912250730 METAR LRAR 250730Z 23001KT 9999 BKN028 04/04 Q1011 R09/19//95=
201912250800 METAR LRAR 250800Z VRB01KT 9999 SCT026 BKN030 04/04 Q1011
                        R09/19//95=
201912250830 METAR LRAR 250830Z VRB02KT 9999 FEW005 BKN029 04/04 Q1011
                        R09/CLRD//=
201912250900 METAR LRAR 250900Z 32004KT 9999 FEW005 SCT007 BKN030 05/05
                        Q1011=
201912250930 METAR LRAR 250930Z 31006KT 9999 SCT006 BKN030 05/05 Q1011=
201912251000 METAR LRAR 251000Z 32004KT 9999 SCT006 BKN032 06/06 Q1011=
201912251030 METAR LRAR 251030Z 33003KT 310V030 9999 FEW007 BKN009 BKN032
                        06/06 Q1011=
201912251100 METAR LRAR 251100Z 31005KT 9999 FEW009 SCT011 BKN032 06/06
                        Q1011=
201912251130 METAR LRAR 251130Z 30004KT 270V330 9999 FEW009 BKN014 BKN048
                        06/06 Q1011=
201912251200 METAR LRAR 251200Z 29004KT 9999 FEW012 SCT029 BKN046 06/05
                        Q1011=
201912251230 METAR LRAR 251230Z 29006KT 9999 FEW009 BKN012 06/06 Q1011=
201912251300 METAR LRAR 251300Z 28008KT 9999 SCT009 SCT024 BKN030 06/06
                        Q1011=
201912251330 METAR LRAR 251330Z 29008KT 8000 FEW009 SCT011 BKN025 06/06
                        Q1011=
201912251400 METAR LRAR 251400Z 28004KT 9999 FEW005 SCT011 BKN020 06/06
                        Q1012=
201912251430 METAR LRAR 251430Z 27005KT 9999 FEW007 SCT015 BKN020 06/06
                        Q1012=
201912251500 METAR LRAR 251500Z 28005KT 9999 FEW016 BKN030 BKN038 05/05
                        Q1012=
201912251530 METAR LRAR 251530Z 30002KT 9999 FEW015 BKN034 05/05 Q1012=
201912251600 METAR LRAR 251600Z 26002KT 9999 BKN036 05/05 Q1012=
201912251630 METAR LRAR 251630Z 25002KT 9999 SCT032 OVC037 05/05 Q1012=
201912251700 METAR LRAR 251700Z VRB02KT 9999 SCT033 OVC038 05/05 Q1012=
201912251730 METAR LRAR 251730Z VRB01KT 9999 BKN036 05/05 Q1012=
201912251800 METAR LRAR 251800Z 00000KT 9999 BKN036 05/05 Q1013=
201912251830 METAR LRAR 251830Z 00000KT 9999 BKN036 04/04 Q1013=
201912251900 METAR LRAR 251900Z 00000KT 9999 BKN038 04/04 Q1013=
201912251930 METAR LRAR 251930Z VRB01KT 9999 BKN040 05/05 Q1013=
201912252000 METAR LRAR 252000Z VRB02KT 8000 BKN040 04/04 Q1013=
201912252030 METAR COR LRAR 252030Z VRB02KT 7000 SCT021 BKN042 04/04 Q1013=
201912252100 METAR LRAR 252100Z 23003KT 5000 BR SCT024 BKN044 04/04 Q1013=
201912252130 METAR LRAR 252130Z VRB02KT 4000 BR SCT015 BKN045 04/04 Q1013=
201912252200 METAR LRAR 252200Z 00000KT 4000 BR SCT013 BKN046 03/03 Q1013=
201912252230 METAR LRAR 252230Z VRB02KT 3500 BR SCT034 BKN046 04/04 Q1013=
201912252300 METAR LRAR 252300Z VRB02KT 5000 BR SCT028 BKN040 04/04 Q1013=
201912252330 METAR LRAR 252330Z VRB02KT 5000 BR SCT025 BKN040 04/04 Q1013=
201912260000 METAR COR LRAR 260000Z VRB02KT 4600 BR SCT015 BKN024 OVC040
                        05/05 Q1013=
201912260030 METAR LRAR 260030Z VRB02KT 4600 -RA FEW003 SCT016 OVC040
                        05/05 Q1013=
201912260100 METAR LRAR 260100Z 18004KT 4700 -RA BR FEW005 BKN021 OVC040
                        05/05 Q1014=
201912260130 METAR LRAR 260130Z 18004KT 4700 -RA BR FEW005 BKN021 OVC040
                        05/05 Q1014=
201912260200 METAR LRAR 260200Z VRB02KT 4200 BR SCT001 SCT003 OVC045 05/05
                        Q1014=
201912260230 METAR LRAR 260230Z 29003KT 260V330 6000 FEW003 BKN006 06/06
                        Q1014=
201912260300 METAR LRAR 260300Z 28003KT 6000 FEW008 BKN011 05/05 Q1014=
201912260330 METAR LRAR 260330Z 30005KT 8000 FEW007 BKN010 05/05 Q1014=
201912260400 METAR LRAR 260400Z 30006KT 9999 SCT008 OVC011 05/05 Q1014=
201912260430 METAR LRAR 260430Z 31007KT 9999 OVC010 05/05 Q1014=
201912260500 METAR LRAR 260500Z 32006KT 9999 BKN008 OVC010 05/05 Q1015=
201912260530 METAR LRAR 260530Z 33007KT 7000 -DZ FEW006 OVC008 05/05 Q1015
                        R09/29//95=
201912260600 METAR LRAR 260600Z 34005KT 8000 -DZ SCT003 OVC005 05/05 Q1015
                        R09/29//95=
201912260630 METAR LRAR 260630Z 35005KT 5000 BR BKN002 OVC004 05/05 Q1016
                        R09/29//95=
201912260700 METAR LRAR 260700Z 36007KT 4000 -DZ BR OVC002 05/05 Q1016
                        R09/29//95=
201912260730 METAR LRAR 260730Z 08005KT 360V120 4100 -DZ BR BKN001 OVC003
                        04/04 Q1016 R09/29//95=
201912260800 METAR LRAR 260800Z 09004KT 8000 FEW003 OVC008 04/04 Q1017
                        R09/29//95=
201912260830 METAR LRAR 260830Z VRB02KT 9999 -RA SCT011 BKN015 05/05 Q1017
                        R09/29//95=
201912260900 METAR LRAR 260900Z 34005KT 9999 SCT004 BKN007 05/05 Q1018
                        R09/29//95=
201912260930 METAR LRAR 260930Z 01009KT 9999 SCT004 BKN006 05/05 Q1018
                        R09/29//95=
201912261000 METAR LRAR 261000Z 36009KT 9999 FEW006 SCT009 06/06 Q1018
                        R09/29//95=
201912261030 METAR LRAR 261030Z 36009KT 330V040 9999 SCT012 06/05 Q1018
                        R09/29//95=
201912261100 METAR LRAR 261100Z 35008KT 9999 SCT014 06/05 Q1019 R09/29//95=
201912261130 METAR LRAR 261130Z 35008KT 9999 SCT014 06/05 Q1019 R09/29//95=
201912261200 METAR LRAR 261200Z 33008KT 9999 FEW017 06/04 Q1019 R09/29//95=
201912261230 METAR LRAR 261230Z 33010KT 9999 FEW020 06/04 Q1019 R09/29//95=
201912261300 METAR LRAR 261300Z 33010KT 9999 FEW020 06/04 Q1020 R09/29//95=
201912261330 METAR LRAR 261330Z 33011KT CAVOK 06/04 Q1020 R09/CLRD//=
201912261400 METAR LRAR 261400Z 33009KT CAVOK 06/04 Q1020=
201912261430 METAR LRAR 261430Z 32006KT CAVOK 06/04 Q1020=
201912261500 METAR LRAR 261500Z 30004KT CAVOK 05/05 Q1020=
201912261530 METAR LRAR 261530Z 30002KT CAVOK 05/05 Q1020=
201912261600 METAR LRAR 261600Z VRB02KT CAVOK 05/05 Q1020=
201912261630 METAR LRAR 261630Z 30003KT CAVOK 04/04 Q1021=
201912261700 METAR LRAR 261700Z 27003KT CAVOK 04/04 Q1021=
201912261730 METAR LRAR 261730Z 27004KT CAVOK 04/04 Q1021=
201912261800 METAR LRAR 261800Z 27005KT CAVOK 04/04 Q1021=
201912261830 METAR LRAR 261830Z 28006KT CAVOK 03/03 Q1021=
201912261900 METAR LRAR 261900Z 27007KT CAVOK 04/04 Q1021=
201912261930 METAR LRAR 261930Z 27006KT CAVOK 04/04 Q1021=
201912262000 METAR LRAR 262000Z 28006KT CAVOK 03/03 Q1021=
201912262030 METAR LRAR 262030Z 28005KT CAVOK 02/02 Q1021=
201912262100 METAR LRAR 262100Z 27005KT CAVOK 02/02 Q1021=
201912262130 METAR LRAR 262130Z 27005KT CAVOK 02/02 Q1021=
201912262200 METAR LRAR 262200Z 28003KT CAVOK 01/01 Q1021=
201912262230 METAR LRAR 262230Z 27003KT CAVOK 00/00 Q1021=
201912262300 METAR LRAR 262300Z 28004KT CAVOK 00/00 Q1021=
201912262330 METAR LRAR 262330Z 27004KT CAVOK M00/M00 Q1021=
201912270000 METAR LRAR 270000Z 27004KT CAVOK M01/M01 Q1021=
201912270030 METAR LRAR 270030Z 27006KT CAVOK M02/M02 Q1021=
201912270100 METAR LRAR 270100Z 27005KT CAVOK M02/M02 Q1021=
201912270130 METAR LRAR 270130Z 27005KT CAVOK M02/M02 Q1021=
201912270200 METAR LRAR 270200Z 27005KT CAVOK M01/M01 Q1021=
201912270230 METAR LRAR 270230Z 24002KT CAVOK M01/M01 Q1021=
201912270300 METAR LRAR 270300Z 25004KT CAVOK M01/M01 Q1021=
201912270330 METAR LRAR 270330Z 26004KT CAVOK M01/M01 Q1021=
201912270400 METAR LRAR 270400Z 30004KT CAVOK M01/M01 Q1021=
201912270430 METAR LRAR 270430Z 26002KT CAVOK M02/M02 Q1021=
201912270500 METAR LRAR 270500Z 27003KT CAVOK M02/M02 Q1021=
201912270530 METAR LRAR 270530Z 27003KT 9999 MIFG NSC M03/M03 Q1021=
201912270600 METAR LRAR 270600Z 00000KT 9999 MIFG NSC M03/M03 Q1021=
201912270630 METAR LRAR 270630Z VRB01KT 9999 MIFG NSC M02/M02 Q1021=
201912270700 METAR LRAR 270700Z 21002KT CAVOK M02/M02 Q1021=
201912270730 METAR LRAR 270730Z VRB01KT CAVOK M02/M02 Q1021=
201912270800 METAR LRAR 270800Z 00000KT CAVOK M01/M01 Q1021=
201912270830 METAR LRAR 270830Z 18002KT CAVOK 00/00 Q1021=
201912270900 METAR LRAR 270900Z 17003KT 9999 SCT003 00/00 Q1022=
201912270930 METAR LRAR 270930Z 20004KT 9999 BKN004 00/00 Q1021=
201912271000 METAR LRAR 271000Z 19004KT 160V220 9999 OVC004 00/00 Q1021=
201912271030 METAR LRAR 271030Z 19004KT 150V220 7000 SCT001 OVC004 00/00
                        Q1021=
201912271100 METAR LRAR 271100Z 19005KT 5000 BR SCT001 OVC003 00/00 Q1021=
201912271130 METAR LRAR 271130Z 18005KT 150V220 1500 BR SCT001 OVC003
                        M00/M00 Q1021=
201912271200 METAR LRAR 271200Z 19005KT 2500 BR SCT001 BKN003 M00/M00
                        Q1021=
201912271230 METAR LRAR 271230Z 17005KT 2000 BR SCT001 OVC003 M00/M00
                        Q1021=
201912271300 METAR LRAR 271300Z 16005KT 2500 BR BKN002 OVC003 M00/M00
                        Q1021=
201912271330 METAR LRAR 271330Z 16004KT 4000 BR BKN002 OVC004 00/00 Q1021=
201912271400 METAR LRAR 271400Z 15005KT 3000 -SHSN BR BKN003 FEW040CB
                        01/01 Q1021 RESHGS=
201912271430 METAR LRAR 271430Z 15005KT 6000 BKN004 OVC006 01/01 Q1021
                        RESHGS=
201912271500 METAR LRAR 271500Z 16005KT 3000 BR BKN002 OVC005 01/01 Q1021=
201912271530 METAR LRAR 271530Z 16004KT 5000 BR SCT003 BKN009 BKN013 01/01
                        Q1021=
201912271600 METAR LRAR 271600Z 17003KT 5000 BR SCT010 BKN013 01/01 Q1021=
201912271630 METAR LRAR 271630Z 17002KT 4000 BR FEW009 BKN014 01/01 Q1021=
201912271700 METAR LRAR 271700Z VRB01KT 4500 BR SCT012 BKN022 01/01 Q1021=
201912271730 METAR LRAR 271730Z VRB01KT 8000 SCT019 BKN022 01/01 Q1022=
201912271800 METAR LRAR 271800Z 13002KT 8000 FEW018 OVC025 01/01 Q1022=
201912271830 METAR LRAR 271830Z 13002KT 7000 FEW009 SCT020 01/01 Q1022=
201912271900 METAR LRAR 271900Z 14002KT 6000 BKN009 OVC018 01/01 Q1022=
201912271930 METAR LRAR 271930Z 11002KT 6000 FEW009 BKN016 01/01 Q1022=
201912272000 METAR LRAR 272000Z 15001KT 6000 SCT009 BKN018 01/01 Q1022=
201912272030 METAR LRAR 272030Z 00000KT 5000 BR SCT015 01/01 Q1022=
201912272100 METAR LRAR 272100Z 00000KT 5000 BR NSC 00/00 Q1022=
201912272130 METAR LRAR 272130Z 00000KT 4000 BR NSC 01/01 Q1023=
201912272200 METAR LRAR 272200Z 29001KT 4000 BR NSC M00/M00 Q1023=
201912272230 METAR LRAR 272230Z 29001KT 2700 BR FEW007 M00/M00 Q1023=
201912272300 METAR LRAR 272300Z 30002KT 3200 BR NSC M00/M00 Q1023=
201912272330 METAR LRAR 272330Z 34002KT 3200 BR FEW012 SCT036 00/00 Q1023=
201912280000 METAR LRAR 280000Z 34005KT 6000 FEW011 BKN045 01/01 Q1023=
201912280030 METAR LRAR 280030Z 36010KT 9999 -RA FEW016 SCT049 02/02 Q1024=
201912280100 METAR LRAR 280100Z 02010KT 340V060 9999 -SHSN FEW006 SCT030CB
                        02/02 Q1024=
201912280130 METAR LRAR 280130Z 36005KT 9999 FEW030CB 02/01 Q1024=
201912280200 METAR LRAR 280200Z 33006KT CAVOK 01/01 Q1024=
201912280230 METAR LRAR 280230Z 32008KT CAVOK 01/01 Q1024=
201912280300 METAR LRAR 280300Z 33005KT CAVOK 01/01 Q1024=
201912280330 METAR LRAR 280330Z 33005KT CAVOK 01/01 Q1024=
201912280400 METAR LRAR 280400Z 33004KT CAVOK 01/01 Q1024=
201912280430 METAR LRAR 280430Z 33006KT CAVOK 01/01 Q1024=
201912280500 METAR LRAR 280500Z 33007KT CAVOK 01/01 Q1024=
201912280530 METAR LRAR 280530Z 34008KT CAVOK 01/01 Q1024=
201912280600 METAR LRAR 280600Z 32010KT 9999 FEW007 SCT047 01/01 Q1024=
201912280630 METAR LRAR 280630Z 32008KT 9999 FEW025 SCT034 BKN043 01/01
                        Q1024=
201912280700 METAR LRAR 280700Z 32007KT 9999 FEW036 BKN043 01/01 Q1024=
201912280730 METAR LRAR 280730Z 32008KT 9999 FEW037 SCT045 01/01 Q1024=
201912280800 METAR LRAR 280800Z 33007KT 9999 FEW038 SCT046 01/01 Q1025=
201912280830 METAR LRAR 280830Z 35008KT 9999 SCT033 BKN046 02/01 Q1025=
201912280900 METAR LRAR 280900Z 35009KT 9999 SCT033 BKN047 02/00 Q1025=
201912280930 METAR LRAR 280930Z 34008KT 320V020 9999 SCT020 SCT048 03/00
                        Q1025=
201912281000 METAR LRAR 281000Z 35010KT 9999 SCT022 BKN048 03/M00 Q1025=
201912281030 METAR LRAR 281030Z 01016KT 9999 SCT026 BKN042 03/M01 Q1025=
201912281100 METAR LRAR 281100Z 36017G28KT 9999 FEW027 SCT035 03/M01 Q1025=
201912281130 METAR LRAR 281130Z 36018G28KT 9999 SCT024 SCT035 03/M01 Q1025=
201912281200 METAR LRAR 281200Z 01018G28KT 9999 -SHSN SCT025 SCT038CB
                        03/00 Q1025=
201912281230 METAR LRAR 281230Z 01020KT 9999 SCT025 SCT040CB 03/00 Q1025=
201912281300 METAR LRAR 281300Z 02018KT 340V040 9999 FEW017 SCT024 BKN047
                        03/M01 Q1026=
201912281330 METAR LRAR 281330Z 02016KT 9999 FEW018 SCT033 02/M01 Q1026=
201912281400 METAR LRAR 281400Z 02016KT 350V050 9999 FEW022 SCT036 02/M00
                        Q1026=
201912281430 METAR LRAR 281430Z 02016G26KT 9999 SCT023 SCT040 02/M00 Q1026=
201912281500 METAR LRAR 281500Z 02015KT 9999 SCT024 SCT042 02/M01 Q1027=
201912281530 METAR LRAR 281530Z 01014KT 9999 FEW012 SCT025 BKN044 02/M00
                        Q1027=
201912281600 METAR COR LRAR 281600Z 02017KT 9999 -SN SCT015 SCT025 BKN045
                        01/M00 Q1027=
201912281630 METAR LRAR 281630Z 02017G27KT 9999 -SN SCT010 BKN015 BKN045
                        02/M02 Q1027=
201912281700 METAR LRAR 281700Z 01019KT 9999 -SN FEW011 SCT016 02/M02
                        Q1028 R09/19//95=
201912281730 METAR LRAR 281730Z 01011KT CAVOK 02/M02 Q1028 R09/19//95=
201912281800 METAR LRAR 281800Z 02015G27KT CAVOK 02/M03 Q1028 R09/19//95=
201912281830 METAR LRAR 281830Z 02012KT CAVOK 01/M02 Q1028 R09/19//95=
201912281900 METAR LRAR 281900Z 02010KT 360V060 CAVOK 01/M03 Q1029 R09/19//95=
201912281930 METAR LRAR 281930Z 03014KT CAVOK 01/M03 Q1029 R09/19//95=
201912282000 METAR LRAR 282000Z 01015KT CAVOK 01/M03 Q1029 R09/19//95=
201912282030 METAR LRAR 282030Z 01014KT CAVOK 01/M03 Q1029 R09/19//95=
201912282100 METAR LRAR 282100Z 01014KT CAVOK 01/M03 Q1029 R09/19//95=
201912282130 METAR LRAR 282130Z 01015KT CAVOK 01/M03 Q1029 R09/19//95=
201912282200 METAR LRAR 282200Z 02014G24KT CAVOK 00/M03 Q1030 R09/19//95=
201912282230 METAR LRAR 282230Z 01013KT CAVOK 00/M03 Q1030 R09/19//95=
201912282300 METAR LRAR 282300Z 01013KT CAVOK M00/M03 Q1030 R09/19//95=
201912282330 METAR LRAR 282330Z 01013KT CAVOK M00/M03 Q1030 R09/19//95=
201912290000 METAR LRAR 290000Z 36013KT CAVOK M00/M03 Q1030 R09/19//95=
201912290030 METAR LRAR 290030Z 01012KT CAVOK M01/M03 Q1030 R09/19//95=
201912290100 METAR LRAR 290100Z 01012KT CAVOK M00/M03 Q1030 R09/19//95=
201912290130 METAR LRAR 290130Z 02012KT 330V050 CAVOK M00/M03 Q1030 R09/19//95=
201912290200 METAR LRAR 290200Z 01014KT CAVOK M00/M03 Q1030 R09/19//95=
201912290230 METAR LRAR 290230Z 01010KT CAVOK M00/M03 Q1030 R09/19//95=
201912290300 METAR LRAR 290300Z 36011KT CAVOK M00/M03 Q1030 R09/19//95=
201912290330 METAR LRAR 290330Z 36013KT CAVOK M00/M03 Q1030 R09/19//95=
201912290400 METAR LRAR 290400Z 01014KT CAVOK M00/M03 Q1030 R09/19//95=
201912290430 METAR LRAR 290430Z 36012G23KT CAVOK M01/M03 Q1030 R09/19//95=
201912290500 METAR LRAR 290500Z 01012KT 9999 SCT023 M00/M03 Q1030 R09/19//95=
201912290530 METAR LRAR 290530Z 02011KT 9999 FEW023 M01/M03 Q1030 R09/CLRD//=
201912290600 METAR LRAR 290600Z 02007KT 350V050 9999 FEW023 M01/M03 Q1031=
201912290630 METAR LRAR 290630Z 01009KT 9999 FEW023 M01/M03 Q1031=
201912290700 METAR LRAR 290700Z 01014KT 340V040 9999 FEW016 BKN024 M00/M03
                        Q1031=
201912290730 METAR LRAR 290730Z 01012KT 340V040 9999 FEW015 BKN017 BKN025
                        M01/M02 Q1031=
201912290800 METAR LRAR 290800Z 02013KT 4000 -SN BR FEW006 BKN010 BKN013
                        M01/M01 Q1031 RESN=
201912290830 METAR LRAR 290830Z 02016KT 350V050 3000 -SN BR BKN010 M01/M01
                        Q1032 RESN R09/19//95=
201912290900 METAR LRAR 290900Z 02013KT 3000 -SN BR BKN009 M01/M01 Q1032
                        R09/19//95=
201912290930 METAR COR LRAR 290930Z 01012KT 2900 -SN DRSN BR SCT005 BKN008
                        M01/M01 Q1032 R09/19//95=
201912291000 METAR LRAR 291000Z 01014KT 340V040 7000 -SN FEW006 BKN009
                        BKN012 M01/M01 Q1032 R09/29//95=
201912291030 METAR LRAR 291030Z 01015KT 9999 FEW007 SCT010 BKN013 M01/M01
                        Q1032 R09/29//95=
201912291100 METAR LRAR 291100Z 01011KT 9999 FEW010 M00/M00 Q1031 R09/29//95=
201912291130 METAR LRAR 291130Z 02015KT 350V050 9999 FEW023 01/M00 Q1031
                        R09/29//95=
201912291200 METAR LRAR 291200Z 02014KT 9999 SCT024 01/M02 Q1031 R09/29//95=
201912291230 METAR LRAR 291230Z 03013KT 360V070 9999 FEW024 BKN029 01/M03
                        Q1031 R09/29//95=
201912291300 METAR LRAR 291300Z 03012G22KT 9999 SCT027 BKN031 01/M04 Q1031
                        R09/CLRD//=
201912291330 METAR LRAR 291330Z 03013KT 360V060 9999 BKN030 01/M04 Q1032=
201912291400 METAR LRAR 291400Z 02010KT 9999 FEW031 01/M03 Q1032=
201912291430 METAR LRAR 291430Z 02009KT 9999 SCT031 01/M03 Q1032=
201912291500 METAR LRAR 291500Z 01007KT 340V040 9999 FEW030 00/M04 Q1032=
201912291530 METAR LRAR 291530Z 36008KT CAVOK M00/M03 Q1032=
201912291600 METAR LRAR 291600Z 01009KT CAVOK M01/M03 Q1032=
201912291630 METAR LRAR 291630Z 36008KT 340V040 CAVOK M01/M04 Q1033=
201912291700 METAR LRAR 291700Z 36008KT CAVOK M01/M04 Q1033=
201912291730 METAR LRAR 291730Z 36009KT CAVOK M01/M03 Q1033=
201912291800 METAR LRAR 291800Z 02011KT CAVOK M01/M04 Q1033=
201912291830 METAR LRAR 291830Z 02011KT CAVOK M01/M04 Q1034=
201912291900 METAR LRAR 291900Z 02012KT CAVOK M02/M04 Q1034=
201912291930 METAR LRAR 291930Z 02010KT CAVOK M02/M04 Q1034=
201912292000 METAR LRAR 292000Z 02008KT CAVOK M02/M04 Q1034=
201912292030 METAR LRAR 292030Z 01009KT CAVOK M02/M04 Q1034=
201912292100 METAR LRAR 292100Z 36007KT CAVOK M03/M03 Q1035=
201912292130 METAR LRAR 292130Z 01006KT CAVOK M03/M03 Q1035=
201912292200 METAR LRAR 292200Z 02007KT 350V050 CAVOK M03/M03 Q1035=
201912292230 METAR LRAR 292230Z 02008KT CAVOK M03/M04 Q1035=
201912292300 METAR LRAR 292300Z 02008KT 350V050 CAVOK M03/M04 Q1035=
201912292330 METAR LRAR 292330Z 02008KT 360V060 CAVOK M03/M04 Q1035=
201912300000 METAR LRAR 300000Z 03008KT CAVOK M03/M04 Q1035=
201912300030 METAR LRAR 300030Z 02008KT 350V050 CAVOK M03/M04 Q1036=
201912300100 METAR LRAR 300100Z 03008KT CAVOK M03/M04 Q1036=
201912300130 METAR LRAR 300130Z VRB03KT CAVOK M04/M04 Q1036=
201912300200 METAR LRAR 300200Z VRB02KT CAVOK M04/M04 Q1035=
201912300230 METAR LRAR 300230Z 33004KT CAVOK M05/M05 Q1036=
201912300300 METAR LRAR 300300Z 35002KT CAVOK M06/M06 Q1036=
201912300330 METAR LRAR 300330Z 35002KT CAVOK M06/M06 Q1035=
201912300400 METAR LRAR 300400Z 36002KT CAVOK M06/M06 Q1036=
201912300430 METAR LRAR 300430Z VRB01KT CAVOK M06/M06 Q1036=
201912300500 METAR LRAR 300500Z 33004KT CAVOK M06/M06 Q1036=
201912300530 METAR LRAR 300530Z 35003KT CAVOK M06/M06 Q1036=
201912300600 METAR LRAR 300600Z 01003KT CAVOK M06/M06 Q1036=
201912300630 METAR LRAR 300630Z VRB02KT CAVOK M06/M06 Q1036=
201912300700 METAR LRAR 300700Z VRB01KT CAVOK M06/M06 Q1037=
201912300730 METAR LRAR 300730Z VRB01KT CAVOK M05/M05 Q1037=
201912300800 METAR LRAR 300800Z 03003KT 360V070 CAVOK M04/M04 Q1037=
201912300830 METAR LRAR 300830Z 03003KT 360V070 CAVOK M03/M03 Q1037=
201912300900 METAR LRAR 300900Z VRB02KT CAVOK M02/M03 Q1037=
201912300930 METAR LRAR 300930Z VRB01KT CAVOK M02/M03 Q1037=
201912301000 METAR LRAR 301000Z VRB02KT 9999 NCD M01/M02 Q1037=
201912301030 METAR LRAR 301030Z 30003KT 260V350 CAVOK M01/M02 Q1037=
201912301100 METAR LRAR 301100Z 32003KT 280V350 CAVOK M00/M03 Q1037=
201912301130 METAR LRAR 301130Z VRB02KT CAVOK 00/M03 Q1037=
201912301200 METAR LRAR 301200Z VRB01KT CAVOK 01/M03 Q1037=
201912301230 METAR COR LRAR 301230Z VRB01KT CAVOK 01/M03 Q1037=
201912301300 METAR LRAR 301300Z VRB02KT CAVOK 01/M03 Q1036=
201912301330 METAR LRAR 301330Z 22003KT 190V270 CAVOK 01/M03 Q1037=
201912301400 METAR LRAR 301400Z 21004KT CAVOK 01/M03 Q1037=
201912301430 METAR LRAR 301430Z 20006KT CAVOK M01/M02 Q1037=
201912301500 METAR LRAR 301500Z 20004KT CAVOK M02/M02 Q1036=
201912301530 METAR LRAR 301530Z 20004KT 8000 NSC M03/M03 Q1036=
201912301600 METAR LRAR 301600Z 19003KT 8000 NSC M03/M03 Q1037=
201912301630 METAR LRAR 301630Z 19004KT 7000 NSC M04/M04 Q1037=
201912301700 METAR LRAR 301700Z 18004KT 7000 NSC M04/M04 Q1037=
201912301730 METAR LRAR 301730Z 19005KT 7000 NSC M04/M04 Q1037=
201912301800 METAR LRAR 301800Z 19004KT 7000 NSC M04/M04 Q1037=
201912301830 METAR LRAR 301830Z 19006KT 7000 NSC M04/M04 Q1037=
201912301900 METAR LRAR 301900Z 19006KT 2500 BR FEW001 SCT002 M04/M04
                        Q1037=
201912301930 METAR LRAR 301930Z 19006KT 2500 BR SCT002 M04/M04 Q1037=
201912302000 METAR LRAR 302000Z 18005KT 4500 BR FEW002 M04/M04 Q1037=
201912302030 METAR LRAR 302030Z 18005KT 5000 BR FEW005 M04/M04 Q1037=
201912302100 METAR LRAR 302100Z 16005KT 6000 NSC M04/M04 Q1037=
201912302130 METAR LRAR 302130Z 17004KT 6000 NSC M04/M04 Q1036=
201912302200 METAR LRAR 302200Z 17005KT 7000 NSC M04/M04 Q1036=
201912302230 METAR LRAR 302230Z 17005KT 7000 NSC M04/M04 Q1036=
201912302300 METAR LRAR 302300Z 16005KT 7000 NSC M04/M04 Q1035=
201912302330 METAR LRAR 302330Z 15006KT 7000 NSC M03/M03 Q1035=
201912310000 METAR LRAR 310000Z 15006KT 7000 SCT008 M04/M04 Q1035=
201912310030 METAR LRAR 310030Z 14006KT 8000 SCT007 M03/M03 Q1035=
201912310100 METAR LRAR 310100Z 14005KT 8000 SCT008 M04/M04 Q1035=
201912310130 METAR LRAR 310130Z 15005KT 8000 NSC M04/M04 Q1035=
201912310200 METAR LRAR 310200Z 16007KT 8000 NSC M04/M04 Q1034=
201912310230 METAR LRAR 310230Z 15005KT 8000 NSC M05/M05 Q1034=
201912310300 METAR LRAR 310300Z 15005KT 8000 NSC M05/M05 Q1033=
201912310330 METAR LRAR 310330Z 15006KT 8000 NSC M05/M05 Q1033=
201912310400 METAR LRAR 310400Z 15004KT 7000 NSC M05/M05 Q1033=
201912310430 METAR LRAR 310430Z 15005KT 7000 NSC M05/M05 Q1033=
201912310500 METAR LRAR 310500Z 16006KT 7000 NSC M04/M04 Q1032=
201912310530 METAR LRAR 310530Z 16007KT 6000 NSC M04/M04 Q1032=
201912310600 METAR LRAR 310600Z 17007KT 6000 SCT005 M03/M03 Q1032=
201912310630 METAR LRAR 310630Z 17007KT 7000 SCT005 M03/M03 Q1032=
201912310700 METAR LRAR 310700Z 16006KT 7000 FEW005 SCT007 M03/M03 Q1032=
201912310730 METAR LRAR 310730Z 17007KT 7000 FEW006 M03/M03 Q1031=
201912310800 METAR LRAR 310800Z 17006KT 8000 NSC M03/M03 Q1031=
201912310830 METAR LRAR 310830Z 18005KT 8000 NSC M02/M02 Q1032=
201912310900 METAR LRAR 310900Z 18006KT 160V220 7000 NSC M02/M02 Q1031=
201912310930 METAR LRAR 310930Z 19007KT 8000 FEW007 M02/M02 Q1031=
201912311000 METAR LRAR 311000Z 19007KT 8000 FEW009 M02/M02 Q1030=
201912311030 METAR LRAR 311030Z 20007KT 160V220 8000 FEW008 M01/M01 Q1030=
201912311100 METAR COR LRAR 311100Z 19008KT 7000 FEW008 M01/M01 Q1029=
201912311130 METAR LRAR 311130Z 19010KT 7000 FEW007 SCT009 M01/M01 Q1029=
201912311200 METAR LRAR 311200Z 20010KT 8000 SCT009 M01/M01 Q1028=
201912311230 METAR LRAR 311230Z 18008KT 7000 SCT008 M01/M01 Q1028=
201912311300 METAR LRAR 311300Z 19008KT 8000 BKN009 M01/M01 Q1028=
201912311330 METAR LRAR 311330Z 20009KT 8000 FEW008 SCT010 M00/M01 Q1028=
201912311400 METAR LRAR 311400Z 19011KT 7000 FEW008 M01/M01 Q1027=
201912311430 METAR LRAR 311430Z 19009KT 8000 FEW009 M01/M01 Q1027=
201912311500 METAR LRAR 311500Z 18009KT 7000 NSC M01/M01 Q1026=
201912311530 METAR LRAR 311530Z 18008KT 7000 NSC M02/M02 Q1026=
201912311600 METAR LRAR 311600Z 19007KT 7000 NSC M02/M02 Q1027=
201912311630 METAR LRAR 311630Z 18005KT 8000 NSC M02/M02 Q1027=
201912311700 METAR LRAR 311700Z 17003KT 140V210 9999 BKN049 M02/M02 Q1027=
201912311730 METAR LRAR 311730Z 17004KT 9999 SCT046 M02/M02 Q1027=
201912311800 METAR LRAR 311800Z 15003KT 8000 NSC M02/M02 Q1028=
201912311830 METAR LRAR 311830Z 16002KT 8000 NSC M02/M02 Q1027=
201912311900 METAR LRAR 311900Z 14004KT 8000 NSC M03/M03 Q1028=
201912311930 METAR LRAR 311930Z 13003KT 8000 NSC M03/M03 Q1028=
201912312000 METAR LRAR 312000Z VRB02KT 8000 NSC M03/M03 Q1029=
201912312030 METAR LRAR 312030Z 14003KT 8000 NSC M04/M04 Q1028=
201912312100 METAR LRAR 312100Z 15004KT 8000 NSC M04/M04 Q1029=
201912312130 METAR LRAR 312130Z 16004KT 8000 NSC M04/M04 Q1029=
201912312200 METAR LRAR 312200Z 00000KT 8000 NSC M05/M05 Q1029=
201912312230 METAR LRAR 312230Z 00000KT 8000 NSC M06/M06 Q1029=
201912312300 METAR LRAR 312300Z 00000KT 6000 NSC M06/M06 Q1029=
201912312330 METAR LRAR 312330Z 00000KT 6000 NSC M06/M06 Q1029=
