201901010000 METAR LRTC 010000Z AUTO VRB01KT 9999 FEW017/// BKN026///
                        BKN075/// 02/00 Q1028=
201901010030 METAR LRTC 010030Z AUTO 30002KT 260V340 7000 BKN026/// 01/M00
                        Q1028=
201901010100 METAR LRTC 010100Z AUTO VRB01KT 9999 BKN025/// 02/M00 Q1028=
201901010130 METAR LRTC 010130Z AUTO 21002KT 180V260 7000 BKN025/// BKN060///
                        01/M01 Q1028=
201901010200 METAR LRTC 010200Z AUTO 22002KT 190V270 5000 BR BKN024///
                        BKN060/// 00/M01 Q1027=
201901010230 METAR LRTC 010230Z AUTO 25004KT 5000 BR BKN024/// M00/M01
                        Q1027=
201901010300 METAR LRTC 010300Z AUTO 00000KT 9999 BKN024/// 01/00 Q1027=
201901010330 METAR LRTC 010330Z AUTO 01002KT 5000 BR BKN024/// BKN060///
                        00/M01 Q1027=
201901010400 METAR LRTC 010400Z AUTO 32002KT 6000 BKN024/// 00/M01 Q1027=
201901010430 METAR LRTC 010430Z AUTO 25002KT 210V300 7000 OVC025/// 01/M00
                        Q1028=
201901010500 METAR LRTC 010500Z AUTO 18003KT 4200 BR FEW025/// BKN055///
                        M00/M01 Q1028=
201901010530 METAR LRTC 010530Z AUTO 22004KT 5000 BR BKN055/// M00/M01
                        Q1028=
201901010600 METAR LRTC 010600Z 22004KT 5000 BR NSC M00/M01 Q1028 R16/CLRD//=
201901010630 METAR LRTC 010630Z 22001KT 5000 BR NSC 00/M00 Q1028=
201901010700 METAR LRTC 010700Z 21002KT 6000 SCT028 01/00 Q1028=
201901010730 METAR LRTC 010730Z VRB02KT 7000 BKN027 01/00 Q1028=
201901010800 METAR LRTC 010800Z 24002KT 8000 BKN027 02/00 Q1027=
201901010830 METAR LRTC 010830Z 19002KT 9999 BKN026 02/00 Q1027=
201901010900 METAR LRTC 010900Z VRB02KT 9999 BKN024 03/00 Q1027=
201901010930 METAR LRTC 010930Z VRB01KT 9999 SCT023 BKN027 03/M00 Q1026=
201901011000 METAR LRTC 011000Z VRB02KT 9999 BKN025 03/00 Q1026=
201901011030 METAR LRTC 011030Z VRB02KT 9999 FEW022 BKN026 03/00 Q1025=
201901011100 METAR LRTC 011100Z VRB02KT 9999 BKN024 04/01 Q1025=
201901011130 METAR LRTC 011130Z 18003KT 130V210 9999 BKN022 04/01 Q1024=
201901011200 METAR LRTC 011200Z 24007KT 9999 SCT012 BKN022 04/01 Q1024=
201901011230 METAR LRTC 011230Z 25008KT 9999 FEW016 OVC022 04/01 Q1024=
201901011300 METAR LRTC 011300Z 25008KT 9999 FEW018 BKN021 04/01 Q1023=
201901011330 METAR LRTC 011330Z 26009KT 7000 FEW014 BKN021 04/01 Q1023=
201901011400 METAR LRTC 011400Z 25008KT 7000 BKN019 04/01 Q1022=
201901011430 METAR LRTC 011430Z 23006KT 8000 BKN018 03/01 Q1022=
201901011500 METAR LRTC 011500Z 20005KT 8000 BKN017 03/02 Q1022=
201901011530 METAR LRTC 011530Z 24009KT 8000 BKN015 03/01 Q1022=
201901011600 METAR LRTC 011600Z 23009KT 9999 BKN015 03/01 Q1021=
201901011630 METAR LRTC 011630Z 23011KT 9999 BKN015 03/M00 Q1021=
201901011700 METAR LRTC 011700Z 22010KT 9999 BKN013 02/M00 Q1021=
201901011730 METAR LRTC 011730Z 22009KT 9999 BKN013 01/M01 Q1021=
201901011800 METAR LRTC 011800Z AUTO 23012KT 6000 FEW013/// 00/M01 Q1020=
201901011830 METAR LRTC 011830Z AUTO 22010KT 6000 SCT010/// 00/M01 Q1020=
201901011900 METAR LRTC 011900Z AUTO 22007KT 6000 BKN009/// BKN011///
                        M00/M01 Q1020=
201901011930 METAR LRTC 011930Z AUTO 20010KT 6000 BKN009/// 00/M01 Q1019=
201901012000 METAR LRTC 012000Z AUTO 22009KT 6000 FEW010/// M00/M02 Q1019=
201901012030 METAR LRTC 012030Z AUTO 22011KT 6000 FEW010/// 00/M02 Q1018=
201901012100 METAR LRTC 012100Z AUTO 22010KT 6000 FEW012/// 00/M01 Q1018=
201901012130 METAR LRTC 012130Z AUTO 22011KT 6000 BKN010/// M00/M02 Q1017=
201901012200 METAR LRTC 012200Z AUTO 22010KT 6000 SCT009/// BKN011///
                        M00/M01 Q1017=
201901012230 METAR LRTC 012230Z AUTO 21011KT 6000 FEW010/// SCT013///
                        M00/M02 Q1016=
201901012300 METAR LRTC 012300Z AUTO 22011KT 7000 NCD M00/M02 Q1016=
201901012330 METAR LRTC 012330Z AUTO 21011KT 7000 FEW009/// BKN011///
                        00/M01 Q1016=
201901020000 METAR LRTC 020000Z AUTO 21013KT 7000 SCT010/// BKN013///
                        M00/M02 Q1015=
201901020030 METAR LRTC 020030Z AUTO 19008KT 8000 SCT012/// M00/M02 Q1015=
201901020100 METAR LRTC 020100Z AUTO 21005KT 7000 BKN014/// 00/M02 Q1014=
201901020130 METAR LRTC 020130Z AUTO 22013KT 8000 SCT014/// BKN017///
                        00/M02 Q1014=
201901020200 METAR LRTC 020200Z AUTO 21013KT 8000 BKN013/// BKN016///
                        00/M02 Q1013=
201901020230 METAR LRTC 020230Z AUTO 21018KT 8000 BKN013/// BKN016///
                        00/M02 Q1013=
201901020300 METAR LRTC 020300Z AUTO 21013KT 8000 BKN013/// BKN017///
                        00/M02 Q1012=
201901020330 METAR LRTC 020330Z AUTO 21009KT 9000 BKN013/// BKN016///
                        01/M02 Q1012=
201901020400 METAR LRTC 020400Z AUTO 21012KT 9000 BKN013/// 01/M02 Q1012=
201901020430 METAR LRTC 020430Z AUTO 22015KT 9000 BKN014/// 01/M02 Q1011=
201901020500 METAR LRTC 020500Z AUTO 21009KT 7000 OVC014/// 01/M01 Q1011=
201901020530 METAR LRTC 020530Z AUTO 21010KT 9000 BKN014/// 01/M01 Q1011=
201901020600 METAR LRTC 020600Z 22011KT 9999 BKN015 01/M01 Q1011 R16/CLRD//=
201901020630 METAR LRTC 020630Z 21012KT 9999 BKN015 01/M01 Q1011=
201901020700 METAR LRTC 020700Z 21012KT 9999 BKN016 01/M01 Q1011=
201901020730 METAR LRTC 020730Z 21013KT 9999 BKN015 02/M01 Q1011=
201901020800 METAR LRTC 020800Z 21013KT 9999 BKN017 02/M01 Q1010=
201901020830 METAR LRTC 020830Z 22011KT 9999 BKN017 02/M01 Q1010=
201901020900 METAR LRTC 020900Z 22012KT 9999 SCT014 BKN016 01/M02 Q1010=
201901020930 METAR LRTC 020930Z 22013KT 9999 FEW013 BKN016 01/M01 Q1009=
201901021000 METAR LRTC 021000Z 21012KT 9999 FEW014 BKN017 02/M01 Q1009=
201901021030 METAR LRTC 021030Z 21012KT 9999 BKN014 02/M01 Q1009=
201901021100 METAR LRTC 021100Z 22012KT 9999 SCT014 BKN017 02/M01 Q1008=
201901021130 METAR LRTC 021130Z 23012KT 9999 BKN014 02/M01 Q1008=
201901021200 METAR LRTC 021200Z 23010KT 9999 FEW013 BKN015 02/M01 Q1008=
201901021230 METAR LRTC 021230Z 22009KT 9999 SCT012 BKN015 02/M01 Q1008=
201901021300 METAR LRTC 021300Z 23010KT 9999 SCT012 BKN015 02/M01 Q1008=
201901021330 METAR LRTC 021330Z 24008KT 9999 BKN013 02/M01 Q1009=
201901021400 METAR LRTC 021400Z 25009KT 9999 BKN013 02/M01 Q1009=
201901021430 METAR LRTC 021430Z 25010KT 9999 BKN012 01/M01 Q1008=
201901021500 METAR LRTC 021500Z 24008KT 9000 BKN011 01/M01 Q1008=
201901021530 METAR LRTC 021530Z 22008KT 8000 SCT012 01/M01 Q1009=
201901021600 METAR LRTC 021600Z 22009KT 8000 BKN013 01/M01 Q1009=
201901021630 METAR LRTC 021630Z 20005KT 8000 BKN012 01/M01 Q1009=
201901021700 METAR LRTC 021700Z 22006KT 7000 SCT010 00/M01 Q1009=
201901021730 METAR LRTC 021730Z 22006KT 7000 FEW010 00/M01 Q1009=
201901021800 METAR LRTC 021800Z AUTO 24007KT 6000 BKN075/// 01/M01 Q1009=
201901021830 METAR LRTC 021830Z AUTO 25007KT 6000 SCT080/// 00/M01 Q1009=
201901021900 METAR LRTC 021900Z AUTO 27004KT 5000 BR FEW085/// 00/M01
                        Q1009=
201901021930 METAR LRTC 021930Z AUTO 24004KT 5000 BR NCD M00/M01 Q1009=
201901022000 METAR LRTC 022000Z AUTO 25007KT 5000 BR NCD M00/M01 Q1010=
201901022030 METAR LRTC 022030Z AUTO 27006KT 6000 BKN080/// 00/M01 Q1010=
201901022100 METAR LRTC 022100Z AUTO 28006KT 6000 FEW085/// 00/M01 Q1010=
201901022130 METAR LRTC 022130Z AUTO 28007KT 6000 NCD M00/M02 Q1010=
201901022200 METAR LRTC 022200Z AUTO 28005KT 6000 NCD M01/M02 Q1010=
201901022230 METAR LRTC 022230Z AUTO 23004KT 6000 NCD M01/M02 Q1010=
201901022300 METAR LRTC 022300Z AUTO 32002KT 290V020 6000 NCD M02/M03
                        Q1010=
201901022330 METAR LRTC 022330Z AUTO 03003KT 6000 NCD M01/M02 Q1011=
201901030000 METAR LRTC 030000Z AUTO 07003KT 6000 NCD M01/M02 Q1011=
201901030030 METAR LRTC 030030Z AUTO 05006KT 360V080 8000 NCD M01/M03
                        Q1011=
201901030100 METAR LRTC 030100Z AUTO 32010KT 9999 NCD 00/M03 Q1011=
201901030130 METAR LRTC 030130Z AUTO 32012KT 9999 NCD 00/M03 Q1011=
201901030200 METAR LRTC 030200Z AUTO 33012KT 9999 NCD 00/M03 Q1011=
201901030230 METAR LRTC 030230Z AUTO 32012KT 9999 NCD 00/M03 Q1011=
201901030300 METAR LRTC 030300Z AUTO 32012KT 9999 NCD M00/M03 Q1012=
201901030330 METAR LRTC 030330Z AUTO 32012KT 9999 NCD 00/M02 Q1012=
201901030400 METAR LRTC 030400Z AUTO 33012KT 9999 NCD M00/M03 Q1012=
201901030430 METAR LRTC 030430Z AUTO 33011KT 9999 NCD M00/M03 Q1012=
201901030500 METAR LRTC 030500Z AUTO 33010KT 9999 NCD M01/M03 Q1013=
201901030530 METAR LRTC 030530Z AUTO 32010KT 9999 NCD M00/M03 Q1013=
201901030600 METAR LRTC 030600Z 32009KT CAVOK M01/M03 Q1013 R16/390095=
201901030630 METAR LRTC 030630Z 33010KT CAVOK M00/M03 Q1014 R16/390095=
201901030700 METAR LRTC 030700Z 22004KT 180V310 CAVOK M01/M03 Q1014 R16/390095=
201901030730 METAR LRTC 030730Z VRB02KT CAVOK 00/M02 Q1014 R16/390095=
201901030800 METAR LRTC 030800Z VRB03KT CAVOK 01/M02 Q1015 R16/390095=
201901030830 METAR LRTC 030830Z 23004KT 190V280 CAVOK 02/M01 Q1015 R16/390095=
201901030900 METAR LRTC 030900Z 31005KT 260V360 CAVOK 03/M01 Q1015 R16/CLRD//=
201901030930 METAR LRTC 030930Z 34007KT CAVOK 03/M02 Q1015=
201901031000 METAR LRTC 031000Z 34010KT CAVOK 03/M02 Q1015=
201901031030 METAR LRTC 031030Z 35011KT CAVOK 03/M02 Q1015=
201901031100 METAR LRTC 031100Z 35009KT CAVOK 04/M02 Q1015=
201901031130 METAR LRTC 031130Z 35009KT 9999 FEW025 04/M02 Q1015=
201901031200 METAR LRTC 031200Z 35012KT 9999 SCT025 04/M02 Q1015=
201901031230 METAR LRTC 031230Z 34011KT 9999 SCT022 03/M02 Q1015=
201901031300 METAR LRTC 031300Z 35008KT 9999 FEW019 02/M02 Q1016=
201901031330 METAR LRTC 031330Z 33008KT 9999 FEW019 02/M02 Q1016=
201901031400 METAR LRTC 031400Z 32008KT CAVOK 01/M02 Q1016=
201901031430 METAR LRTC 031430Z 33009KT CAVOK 01/M02 Q1016=
201901031500 METAR LRTC 031500Z 34010KT CAVOK 00/M02 Q1016=
201901031530 METAR LRTC 031530Z 34010KT CAVOK M01/M03 Q1016=
201901031600 METAR LRTC 031600Z 35006KT CAVOK M01/M03 Q1017=
201901031630 METAR LRTC 031630Z 36006KT CAVOK M01/M02 Q1017=
201901031700 METAR LRTC 031700Z 35008KT CAVOK M00/M02 Q1016=
201901031730 METAR LRTC 031730Z 35007KT CAVOK M00/M02 Q1016=
201901031800 METAR LRTC 031800Z AUTO 35007KT 9999 BKN120/// M00/M03 Q1016=
201901031830 METAR LRTC 031830Z AUTO 35008KT 9999 OVC120/// M00/M03 Q1017=
201901031900 METAR LRTC 031900Z AUTO 35009KT 9999 BKN120/// M00/M03 Q1017=
201901031930 METAR LRTC 031930Z AUTO 35011KT 9999 OVC120/// M00/M03 Q1016=
201901032000 METAR LRTC 032000Z AUTO 36014KT 9999 BKN110/// M00/M03 Q1016=
201901032030 METAR LRTC 032030Z AUTO 35013KT 9999 BKN100/// BKN120///
                        M01/M04 Q1016=
201901032100 METAR LRTC 032100Z AUTO 36014KT 9999 SCT130/// BKN150///
                        M01/M04 Q1016=
201901032130 METAR LRTC 032130Z AUTO 36015KT 9999 BKN110/// OVC130///
                        M00/M05 Q1016=
201901032200 METAR LRTC 032200Z AUTO 35016KT 9999 BKN100/// M01/M05 Q1016=
201901032230 METAR LRTC 032230Z AUTO 35015KT 9999 BKN090/// OVC100///
                        M01/M05 Q1016=
201901032300 METAR LRTC 032300Z AUTO 35016KT 9999 BKN085/// M01/M05 Q1016=
201901032330 METAR LRTC 032330Z AUTO 35017KT 9999 OVC080/// M01/M06 Q1016=
201901040000 METAR LRTC 040000Z AUTO 35017KT 9999 BKN070/// M01/M06 Q1016=
201901040030 METAR LRTC 040030Z AUTO 35019KT 9999 OVC075/// M01/M06 Q1017=
201901040100 METAR LRTC 040100Z AUTO 35017KT 9999 BKN070/// M02/M06 Q1017=
201901040130 METAR LRTC 040130Z AUTO 35017KT 9999 OVC070/// M02/M06 Q1017=
201901040200 METAR LRTC 040200Z AUTO 34018KT 9999 BKN070/// M02/M07 Q1017=
201901040230 METAR LRTC 040230Z AUTO 35019KT 9999 OVC075/// M02/M07 Q1017=
201901040300 METAR LRTC 040300Z AUTO 34022KT 9999 BKN080/// M02/M07 Q1016=
201901040330 METAR LRTC 040330Z AUTO 35021KT 9999 FEW075/// BKN100///
                        M02/M07 Q1016=
201901040400 METAR LRTC 040400Z AUTO 35022KT 9999 BKN090/// BKN110///
                        M02/M07 Q1016=
201901040430 METAR LRTC 040430Z AUTO 35024G34KT 9999 SCT110/// BKN150///
                        M03/M08 Q1016=
201901040500 METAR LRTC 040500Z AUTO 35020KT 9999 BKN140/// M03/M08 Q1016=
201901040530 METAR LRTC 040530Z AUTO 35018G28KT 9999 BKN140/// BKN170///
                        M03/M08 Q1017=
201901040600 METAR LRTC 040600Z 35018KT CAVOK M03/M08 Q1018 R16/CLRD//=
201901040630 METAR LRTC 040630Z 34017KT CAVOK M03/M07 Q1018=
201901040700 METAR LRTC 040700Z 34018KT CAVOK M03/M07 Q1019=
201901040730 METAR LRTC 040730Z 32016KT CAVOK M03/M07 Q1019=
201901040800 METAR LRTC 040800Z 32019KT CAVOK M02/M07 Q1020=
201901040830 METAR LRTC 040830Z 33022KT CAVOK M02/M08 Q1020=
201901040900 METAR LRTC 040900Z 32020KT CAVOK M01/M08 Q1020=
201901040930 METAR LRTC 040930Z 33018KT 9999 SCT028 M00/M09 Q1020=
201901041000 METAR LRTC 041000Z 32020KT 9999 BKN034 M00/M09 Q1020=
201901041030 METAR LRTC 041030Z 33019KT 9999 SCT034 M00/M09 Q1021=
201901041100 METAR LRTC 041100Z 32020KT 9999 BKN034 M01/M08 Q1021=
201901041130 METAR LRTC 041130Z 32020KT 9999 FEW031 BKN040 M01/M08 Q1021=
201901041200 METAR LRTC 041200Z 32017KT 9999 BKN036 M01/M08 Q1021=
201901041230 METAR LRTC 041230Z 31014KT 9999 BKN037 M01/M08 Q1022=
201901041300 METAR LRTC 041300Z 30016KT 9999 SCT034 OVC039 M01/M08 Q1022=
201901041330 METAR LRTC 041330Z 30015KT 9999 SCT037 BKN042 M01/M07 Q1023=
201901041400 METAR LRTC 041400Z 30012KT 9999 SCT034 BKN039 M01/M07 Q1023=
201901041430 METAR LRTC 041430Z 30012KT 9999 FEW033 OVC038 M01/M06 Q1023=
201901041500 METAR LRTC 041500Z 29011KT 9999 SCT032 BKN038 M01/M06 Q1023=
201901041530 METAR LRTC 041530Z 29011KT 9999 BKN041 M01/M06 Q1023=
201901041600 METAR LRTC 041600Z 29010KT 9999 BKN044 M01/M06 Q1024=
201901041630 METAR LRTC 041630Z 29008KT 9999 BKN046 M01/M06 Q1024=
201901041700 METAR LRTC 041700Z 28007KT 9999 BKN048 M01/M06 Q1024=
201901041730 METAR LRTC 041730Z 30006KT 9999 BKN049 M01/M06 Q1024=
201901041800 METAR LRTC 041800Z AUTO 30008KT 9999 OVC055/// M01/M06 Q1024=
201901041830 METAR LRTC 041830Z AUTO 31008KT 9999 OVC060/// M02/M06 Q1024=
201901041900 METAR LRTC 041900Z AUTO 31007KT 9999 BKN055/// M02/M06 Q1024=
201901041930 METAR LRTC 041930Z AUTO 32005KT 9999 BKN055/// M02/M06 Q1024=
201901042000 METAR LRTC 042000Z AUTO 33004KT 9999 BKN055/// M02/M06 Q1024=
201901042030 METAR LRTC 042030Z AUTO 31005KT 9999 BKN055/// M02/M06 Q1024=
201901042100 METAR LRTC 042100Z AUTO 26004KT 9999 SCT055/// M03/M05 Q1024=
201901042130 METAR LRTC 042130Z AUTO 26007KT 9999 SCT055/// M04/M06 Q1024=
201901042200 METAR LRTC 042200Z AUTO 28007KT 9999 NCD M05/M07 Q1024=
201901042230 METAR LRTC 042230Z AUTO 27004KT 9999 NCD M05/M07 Q1024=
201901042300 METAR LRTC 042300Z AUTO 18002KT 140V280 9999 NCD M05/M08
                        Q1024=
201901042330 METAR LRTC 042330Z AUTO 23006KT 200V270 9999 NCD M05/M07
                        Q1024=
201901050000 METAR LRTC 050000Z AUTO 19003KT 140V200 9999 NCD M06/M08
                        Q1024=
201901050030 METAR LRTC 050030Z AUTO 25005KT 9999 NCD M05/M08 Q1023=
201901050100 METAR LRTC 050100Z AUTO 27004KT 9999 NCD M05/M08 Q1023=
201901050130 METAR LRTC 050130Z AUTO 29001KT 9999 NCD M05/M08 Q1023=
201901050200 METAR LRTC 050200Z AUTO 33004KT 9999 NCD M06/M08 Q1022=
201901050230 METAR LRTC 050230Z AUTO 02001KT 9999 NCD M06/M08 Q1022=
201901050300 METAR LRTC 050300Z AUTO 35001KT 9999 NCD M06/M08 Q1021=
201901050330 METAR LRTC 050330Z AUTO 23004KT 9999 NCD M07/M08 Q1021=
201901050400 METAR LRTC 050400Z AUTO 22003KT 170V240 9999 FEW150/// M07/M09
                        Q1021=
201901050430 METAR LRTC 050430Z AUTO 23005KT 9999 NCD M08/M09 Q1021=
201901050500 METAR LRTC 050500Z AUTO 21004KT 9999 NCD M08/M09 Q1021=
201901050530 METAR LRTC 050530Z AUTO 00000KT 9999 NCD M08/M09 Q1021=
201901050600 METAR LRTC 050600Z 24005KT CAVOK M08/M09 Q1021=
201901050630 METAR LRTC 050630Z 21001KT CAVOK M06/M08 Q1021=
201901050700 METAR LRTC 050700Z VRB01KT CAVOK M05/M08 Q1020=
201901050730 METAR LRTC 050730Z 23004KT CAVOK M05/M07 Q1020=
201901050800 METAR LRTC 050800Z VRB02KT CAVOK M04/M06 Q1020=
201901050830 METAR LRTC 050830Z 20003KT 160V230 CAVOK M03/M08 Q1019=
201901050900 METAR LRTC 050900Z 23006KT CAVOK M02/M07 Q1019=
201901050930 METAR LRTC 050930Z 24010KT CAVOK M00/M06 Q1018=
201901051000 METAR LRTC 051000Z 24010KT CAVOK M00/M07 Q1017=
201901051030 METAR LRTC 051030Z 25009KT CAVOK 00/M07 Q1017=
201901051100 METAR LRTC 051100Z 25009KT CAVOK 01/M09 Q1016=
201901051130 METAR LRTC 051130Z 23006KT 180V280 CAVOK 01/M09 Q1015=
201901051200 METAR LRTC 051200Z 22009KT CAVOK 00/M08 Q1015=
201901051230 METAR LRTC 051230Z 21008KT CAVOK 00/M08 Q1015=
201901051300 METAR LRTC 051300Z 22008KT 190V250 CAVOK 00/M07 Q1014=
201901051330 METAR LRTC 051330Z 22009KT CAVOK 00/M08 Q1014=
201901051400 METAR LRTC 051400Z 23007KT CAVOK M00/M08 Q1014=
201901051430 METAR LRTC 051430Z 23006KT CAVOK M01/M07 Q1013=
201901051500 METAR LRTC 051500Z 23005KT CAVOK M02/M06 Q1013=
201901051530 METAR LRTC 051530Z 21007KT CAVOK M03/M06 Q1013=
201901051600 METAR LRTC 051600Z 22008KT CAVOK M03/M06 Q1013=
201901051630 METAR LRTC 051630Z 20008KT CAVOK M03/M06 Q1013=
201901051700 METAR LRTC 051700Z VRB02KT CAVOK M04/M06 Q1013=
201901051730 METAR LRTC 051730Z 21009KT CAVOK M04/M06 Q1013=
201901051800 METAR LRTC 051800Z AUTO 23003KT 9999 NCD M04/M06 Q1013=
201901051830 METAR LRTC 051830Z AUTO 24003KT 200V290 9999 NCD M04/M07
                        Q1013=
201901051900 METAR LRTC 051900Z AUTO 18005KT 150V210 9999 NCD M05/M07
                        Q1012=
201901051930 METAR LRTC 051930Z AUTO 22006KT 9999 NCD M05/M07 Q1012=
201901052000 METAR LRTC 052000Z AUTO 22007KT 170V250 9999 NCD M04/M07
                        Q1012=
201901052030 METAR LRTC 052030Z AUTO 21004KT 9999 NCD M05/M08 Q1011=
201901052100 METAR LRTC 052100Z AUTO 22005KT 9999 NCD M05/M08 Q1011=
201901052130 METAR LRTC 052130Z AUTO 20005KT 9999 NCD M05/M08 Q1011=
201901052200 METAR LRTC 052200Z AUTO VRB03KT 9999 NCD M05/M08 Q1010=
201901052230 METAR LRTC 052230Z AUTO VRB01KT 9999 NCD M06/M08 Q1010=
201901052300 METAR LRTC 052300Z AUTO 24011KT 9999 NCD M05/M08 Q1009=
201901052330 METAR LRTC 052330Z AUTO 23007KT 9999 NCD M05/M08 Q1009=
201901060000 METAR LRTC 060000Z AUTO 24008KT 9999 NCD M05/M08 Q1010=
201901060030 METAR LRTC 060030Z AUTO 24006KT 9999 NCD M06/M09 Q1009=
201901060100 METAR LRTC 060100Z AUTO 26011KT 9999 NCD M05/M08 Q1009=
201901060130 METAR LRTC 060130Z AUTO 24005KT 9000 NCD M06/M08 Q1009=
201901060200 METAR LRTC 060200Z AUTO 23006KT 9000 NCD M06/M09 Q1009=
201901060230 METAR LRTC 060230Z AUTO 25007KT 9000 NCD M07/M09 Q1008=
201901060300 METAR LRTC 060300Z AUTO 26003KT 9000 NCD M07/M09 Q1008=
201901060330 METAR LRTC 060330Z AUTO 26006KT 9999 NCD M07/M09 Q1008=
201901060400 METAR LRTC 060400Z AUTO 30006KT 9000 NCD M07/M09 Q1008=
201901060430 METAR LRTC 060430Z AUTO 32004KT 9000 NCD M08/M10 Q1008=
201901060500 METAR LRTC 060500Z AUTO 35003KT 8000 NCD M08/M10 Q1008=
201901060530 METAR LRTC 060530Z AUTO 02002KT 8000 FEW060/// SCT210///
                        M08/M09 Q1008=
201901060600 METAR LRTC 060600Z 01002KT CAVOK M07/M09 Q1009=
201901060630 METAR LRTC 060630Z VRB01KT CAVOK M04/M06 Q1009=
201901060700 METAR LRTC 060700Z 21001KT 8000 -SN BKN048 M05/M07 Q1009=
201901060730 METAR LRTC 060730Z VRB03KT 6000 -SN BKN045 M03/M05 Q1009=
201901060800 METAR LRTC 060800Z 32007KT 6000 -SN FEW007 BKN040 M02/M04
                        Q1009=
201901060830 METAR LRTC 060830Z 33008KT 9000 SCT008 SCT042 M02/M04 Q1009=
201901060900 METAR LRTC 060900Z 31008KT 9999 FEW009 BKN015 M02/M03 Q1009=
201901060930 METAR LRTC 060930Z 32008KT 9999 FEW008 BKN014 M01/M03 Q1009=
201901061000 METAR LRTC 061000Z 32010KT 9999 -SG FEW010 SCT015 M01/M03
                        Q1009=
201901061030 METAR LRTC 061030Z 31012KT 6000 -SG SCT010 SCT020 M01/M03
                        Q1009=
201901061100 METAR LRTC 061100Z 32012KT 7000 -SG SCT008 BKN026 M01/M03
                        Q1009=
201901061130 METAR LRTC 061130Z 32012KT 6000 -SG BKN010 BKN030 M01/M03
                        Q1009=
201901061200 METAR LRTC 061200Z 32012KT 4000 SG BKN010 BKN027 M01/M02
                        Q1009=
201901061230 METAR LRTC 061230Z 31013KT 3000 SN BR BKN010 BKN022 M01/M02
                        Q1009=
201901061300 METAR LRTC 061300Z 32013KT 4000 -SN BR SCT010 BKN021 M01/M02
                        Q1009 RESN=
201901061330 METAR LRTC 061330Z 34014KT 5000 -SN BR SCT011 SCT025 M01/M02
                        Q1010=
201901061400 METAR LRTC 061400Z 34010KT 9999 -SG SCT014 BKN025 M01/M02
                        Q1010=
201901061430 METAR LRTC 061430Z 33016KT 8000 -SG FEW015 BKN019 M01/M03
                        Q1010=
201901061500 METAR LRTC 061500Z 33016KT 8000 -SG BKN016 BKN021 M01/M03
                        Q1011=
201901061530 METAR LRTC 061530Z 33017KT 5000 -SN DRSN BR SCT017 BKN023
                        M02/M04 Q1011=
201901061600 METAR LRTC 061600Z 32017KT 2000 SN DRSN BR FEW015 BKN025
                        M02/M04 Q1012=
201901061630 METAR LRTC 061630Z 33016KT 1500 SN DRSN BR BKN009 BKN022
                        M03/M04 Q1012=
201901061700 METAR COR LRTC 061700Z 32015KT 2000 SN DRSN BR BKN012 BKN025
                        M03/M04 Q1012=
201901061730 METAR LRTC 061730Z 33017KT 2000 SN DRSN BR FEW015 BKN025
                        M03/M04 Q1013=
201901061800 METAR LRTC 061800Z AUTO 32017KT 4200 -SN BKN023/// BKN029///
                        M03/M04 Q1013=
201901061830 METAR LRTC 061830Z AUTO 32018KT 4400 -SN FEW022/// SCT030///
                        BKN036/// M03/M04 Q1013=
201901061900 METAR LRTC 061900Z AUTO 32017KT 4200 -SN FEW020/// BKN025///
                        OVC029/// M03/M04 Q1014=
201901061930 METAR LRTC 061930Z AUTO 32017KT 4000 -SN BKN021/// OVC031///
                        M03/M04 Q1014=
201901062000 METAR LRTC 062000Z AUTO 32016KT 3200 R34/2000 -SN VV010 M03/M04
                        Q1014=
201901062030 METAR LRTC 062030Z AUTO 31016KT 4300 -SN FEW018/// BKN021///
                        BKN025/// M04/M04 Q1014=
201901062100 METAR LRTC 062100Z AUTO 31016KT 6000 SG FEW020/// BKN024///
                        BKN033/// M03/M05 Q1014=
201901062130 METAR LRTC 062130Z AUTO 31017KT 6000 SG FEW016/// BKN019///
                        BKN022/// M03/M05 Q1014=
201901062200 METAR LRTC 062200Z AUTO 32017KT 5000 SG FEW014/// BKN019///
                        BKN033/// M03/M05 Q1014=
201901062230 METAR LRTC 062230Z AUTO 32017KT 3500 -SN SCT015/// BKN018///
                        BKN032/// M04/M05 Q1014=
201901062300 METAR LRTC 062300Z AUTO 32016KT 4200 -SN FEW018/// BKN038///
                        OVC050/// M04/M05 Q1014=
201901062330 METAR LRTC 062330Z AUTO 32017KT 3500 -SN VV011 M04/M05 Q1014=
201901070000 METAR LRTC 070000Z AUTO 32019KT 3600 -SN VV010 M03/M04 Q1015=
201901070030 METAR LRTC 070030Z AUTO 33018KT 3100 -SN FEW012/// BKN015///
                        OVC019/// M03/M04 Q1015=
201901070100 METAR LRTC 070100Z AUTO 33017KT 2900 -SN SCT011/// BKN015///
                        M03/M04 Q1015=
201901070130 METAR LRTC 070130Z AUTO 34018KT 3700 -SN FEW009/// SCT013///
                        BKN016/// M03/M04 Q1015=
201901070200 METAR LRTC 070200Z AUTO 34019KT 2200 -SN VV006 M03/M04 Q1015=
201901070230 METAR LRTC 070230Z AUTO 34018KT 2300 -SN VV008 M03/M04 Q1015=
201901070300 METAR LRTC 070300Z AUTO 35015KT 4200 -SN VV011 M03/M04 Q1016=
201901070330 METAR LRTC 070330Z AUTO 35015KT 5000 -SN FEW010/// BKN023///
                        OVC034/// M03/M04 Q1016=
201901070400 METAR LRTC 070400Z AUTO 35014KT 5000 -SN FEW010/// BKN021///
                        OVC027/// M04/M05 Q1017=
201901070430 METAR LRTC 070430Z AUTO 35014KT 9999 -SN FEW026/// BKN042///
                        OVC065/// M04/M06 Q1018=
201901070500 METAR LRTC 070500Z AUTO 35013KT 9999 -SN FEW034/// BKN040///
                        BKN046/// M04/M06 Q1018=
201901070530 METAR LRTC 070530Z AUTO 35014KT 9999 -SN FEW040/// OVC049///
                        M05/M06 Q1018=
201901070600 METAR LRTC 070600Z 35013KT 9999 DRSN BKN049 M05/M07 Q1019=
201901070630 METAR LRTC 070630Z 35013KT 9999 DRSN FEW019 SCT049 M05/M07
                        Q1019 R16/899293=
201901070700 METAR LRTC 070700Z 34016KT 9999 FEW020 M05/M08 Q1019 R16/899293=
201901070730 METAR LRTC 070730Z 35017KT 9999 DRSN FEW025 M05/M08 Q1020
                        R16/899293=
201901070800 METAR LRTC 070800Z 34019KT 9999 DRSN BKN018 M04/M08 Q1020
                        R16/899293=
201901070830 METAR LRTC 070830Z 32015KT 9999 DRSN OVC020 M04/M07 Q1020
                        R16/899293=
201901070900 METAR LRTC 070900Z 33015KT 9999 DRSN OVC025 M03/M07 Q1020
                        R16/899293=
201901070930 METAR LRTC 070930Z 33015KT 9000 DRSN BKN018 BKN021 M03/M06
                        Q1020 R16/899293=
201901071000 METAR LRTC 071000Z 33017KT 9000 DRSN SCT016 BKN019 M03/M06
                        Q1020 R16/899293=
201901071030 METAR LRTC 071030Z 33019KT 5000 -SG DRSN SCT015 BKN018 M03/M06
                        Q1020 R16/899293=
201901071100 METAR LRTC 071100Z 33019KT 5000 -SG DRSN SCT017 BKN021 OVC031
                        M03/M06 Q1020 R16/899293=
201901071130 METAR LRTC 071130Z 33017KT 4500 -SN DRSN FEW016 OVC024 M03/M06
                        Q1020 R16/899293=
201901071200 METAR LRTC 071200Z 32017KT 2000 SN DRSN FEW014 OVC021 M04/M05
                        Q1020 RESN R16/899293=
201901071230 METAR LRTC 071230Z 32015KT 2000 SN DRSN SCT015 OVC018 M03/M05
                        Q1021 R16/899293=
201901071300 METAR LRTC 071300Z 32016KT 4500 -SN DRSN BKN013 OVC016 M03/M05
                        Q1021 R16/899293=
201901071330 METAR LRTC 071330Z 33016KT 9000 DRSN BKN014 BKN017 M03/M05
                        Q1021 R16/899293=
201901071400 METAR LRTC 071400Z 33016KT 9999 DRSN BKN015 BKN018 M03/M05
                        Q1021 R16/899293=
201901071430 METAR LRTC 071430Z 34020KT 9999 DRSN FEW015 SCT018 M03/M05
                        Q1021 R16/899293=
201901071500 METAR LRTC 071500Z 33015KT 9000 FEW015 SCT049 M03/M06 Q1022
                        R16/899293=
201901071530 METAR LRTC 071530Z 33016KT 9999 DRSN FEW016 SCT019 M03/M05
                        Q1022 R16/899293=
201901071600 METAR LRTC 071600Z 33016KT 9999 FEW015 SCT019 BKN030 M03/M06
                        Q1022 R16/899293=
201901071630 METAR LRTC 071630Z 33014KT 9999 SCT018 M03/M06 Q1022 R16/899293=
201901071700 METAR LRTC 071700Z 32015KT 9999 SCT019 BKN022 M03/M06 Q1022
                        R16/899293=
201901071730 METAR LRTC 071730Z 32016KT 9999 FEW019 BKN022 M03/M06 Q1023
                        R16/899293=
201901071800 METAR LRTC 071800Z AUTO 33017KT 9999 FEW019/// BKN022///
                        BKN026/// M03/M06 Q1023=
201901071830 METAR LRTC 071830Z AUTO 34018KT 9999 FEW020/// BKN024///
                        M03/M06 Q1023=
201901071900 METAR LRTC 071900Z AUTO 34019KT 9999 FEW023/// BKN027///
                        BKN150/// M03/M07 Q1023=
201901071930 METAR LRTC 071930Z AUTO 34020KT 9999 FEW020/// BKN160///
                        M04/M07 Q1023=
201901072000 METAR LRTC 072000Z AUTO 33019KT 9999 FEW021/// BKN140///
                        M04/M07 Q1023=
201901072030 METAR LRTC 072030Z AUTO 32019KT 9999 FEW020/// SCT026///
                        BKN140/// M04/M07 Q1023=
201901072100 METAR LRTC 072100Z AUTO 32019KT 9999 FEW020/// BKN026///
                        BKN100/// M04/M07 Q1023=
201901072130 METAR LRTC 072130Z AUTO 32015KT 9999 BKN095/// M05/M08 Q1023=
201901072200 METAR LRTC 072200Z AUTO 33017KT 9999 BKN095/// M05/M08 Q1023=
201901072230 METAR LRTC 072230Z AUTO 32016KT 9999 FEW037/// SCT045///
                        BKN080/// M05/M08 Q1023=
201901072300 METAR LRTC 072300Z AUTO 32016KT 9999 FEW037/// BKN085///
                        M05/M08 Q1023=
201901072330 METAR LRTC 072330Z AUTO 32016KT 9999 FEW038/// SCT060///
                        BKN085/// M05/M08 Q1023=
201901080000 METAR LRTC 080000Z AUTO 32014KT 9999 SCT041/// OVC080///
                        M05/M09 Q1023=
201901080030 METAR LRTC 080030Z AUTO 32015KT 7000 -SHSN FEW028/// BKN034///
                        BKN043/// M05/M08 Q1023=
201901080100 METAR LRTC 080100Z AUTO 32014KT 9999 -SHSN SCT028/// BKN037///
                        BKN085/// M06/M09 Q1023=
201901080130 METAR LRTC 080130Z AUTO 33014KT 9999 -SN FEW036/// SCT055///
                        BKN085/// M06/M09 Q1023=
201901080200 METAR LRTC 080200Z AUTO 32012KT 9999 BKN035/// M06/M09 Q1023
                        RESG=
201901080230 METAR LRTC 080230Z AUTO 32011KT 9999 SCT033/// BKN085///
                        M06/M09 Q1022=
201901080300 METAR LRTC 080300Z AUTO 30010KT 9999 BKN085/// M07/M09 Q1022=
201901080330 METAR LRTC 080330Z AUTO 30011KT 9999 SCT085/// BKN110///
                        M07/M09 Q1022=
201901080400 METAR LRTC 080400Z AUTO 31009KT 9999 BKN110/// M07/M09 Q1022=
201901080430 METAR LRTC 080430Z AUTO 31012KT 9999 BKN095/// OVC110///
                        M06/M09 Q1021=
201901080500 METAR LRTC 080500Z AUTO 32011KT 9999 BKN090/// M06/M09 Q1021=
201901080530 METAR LRTC 080530Z AUTO 31010KT 9999 FEW090/// BKN100///
                        M06/M09 Q1021=
201901080600 METAR LRTC 080600Z 30009KT CAVOK M06/M09 Q1021=
201901080630 METAR LRTC 080630Z 29007KT CAVOK M06/M09 Q1021 R16/897093=
201901080700 METAR LRTC 080700Z 27007KT CAVOK M07/M09 Q1021 R16/897093=
201901080730 METAR LRTC 080730Z 27009KT CAVOK M06/M09 Q1020 R16/897093=
201901080800 METAR LRTC 080800Z 28007KT CAVOK M05/M09 Q1020 R16/897093=
201901080830 METAR LRTC 080830Z 28008KT CAVOK M05/M09 Q1020 R16/897093=
201901080900 METAR LRTC 080900Z 31008KT CAVOK M05/M09 Q1019 R16/897093=
201901080930 METAR LRTC 080930Z 31009KT 9999 FEW034 M04/M09 Q1019 R16/897093=
201901081000 METAR LRTC 081000Z 32009KT 9999 BKN028 M04/M09 Q1018 R16/897093=
201901081030 METAR LRTC 081030Z 31009KT 260V330 9999 BKN026 M04/M09 Q1018
                        R16/897093=
201901081100 METAR LRTC 081100Z 24010KT 9999 BKN024 M04/M08 Q1017 R16/897093=
201901081130 METAR LRTC 081130Z 26008KT 9999 BKN024 M03/M08 Q1017 R16/897093=
201901081200 METAR LRTC 081200Z 25007KT 9999 FEW026 M03/M07 Q1016 R16/897093=
201901081230 METAR LRTC 081230Z 25005KT 9999 FEW026 M04/M08 Q1016 R16/897093=
201901081300 METAR LRTC 081300Z 25004KT CAVOK M04/M08 Q1016 R16/897093=
201901081330 METAR LRTC 081330Z 24003KT CAVOK M04/M08 Q1015 R16/897093=
201901081400 METAR LRTC 081400Z 25003KT 9999 FEW018 M04/M08 Q1015 R16/897093=
201901081430 METAR LRTC 081430Z 20002KT 9999 FEW017 M05/M08 Q1015 R16/897093=
201901081500 METAR LRTC 081500Z 19004KT 8000 SCT016 M07/M09 Q1015 R16/897093=
201901081530 METAR LRTC 081530Z 24005KT 8000 SCT016 M08/M10 Q1014 R16/897093=
201901081600 METAR LRTC 081600Z 23006KT 8000 FEW016 M09/M10 Q1014 R16/897093=
201901081630 METAR LRTC 081630Z 23009KT 8000 NSC M08/M10 Q1014 R16/897093=
201901081700 METAR LRTC 081700Z 22006KT 8000 NSC M09/M10 Q1014 R16/897093=
201901081730 METAR LRTC 081730Z 19003KT 8000 NSC M08/M10 Q1014 R16/897093=
201901081800 METAR LRTC 081800Z AUTO 21005KT 6000 SCT180/// M09/M10 Q1014=
201901081830 METAR LRTC 081830Z AUTO 20003KT 6000 SCT180/// M09/M11 Q1013=
201901081900 METAR LRTC 081900Z AUTO 18003KT 7000 NCD M08/M10 Q1013=
201901081930 METAR LRTC 081930Z AUTO 18002KT 7000 BKN150/// M09/M10 Q1013=
201901082000 METAR LRTC 082000Z AUTO 18002KT 7000 SCT150/// M08/M10 Q1013=
201901082030 METAR LRTC 082030Z AUTO VRB02KT 5000 BR NCD M09/M10 Q1012=
201901082100 METAR LRTC 082100Z AUTO 16003KT 120V230 6000 NCD M09/M10
                        Q1012=
201901082130 METAR LRTC 082130Z AUTO 17006KT 8000 NCD M09/M11 Q1012=
201901082200 METAR LRTC 082200Z AUTO 18007KT 9999 NCD M09/M11 Q1011=
201901082230 METAR LRTC 082230Z AUTO 19005KT 9999 NCD M09/M11 Q1011=
201901082300 METAR LRTC 082300Z AUTO 19005KT 9999 NCD M08/M11 Q1011=
201901082330 METAR LRTC 082330Z AUTO 18005KT 9999 NCD M09/M12 Q1010=
201901090000 METAR LRTC 090000Z AUTO 14005KT 7000 NCD M10/M12 Q1010=
201901090030 METAR LRTC 090030Z AUTO 15006KT 9999 NCD M09/M11 Q1010=
201901090100 METAR LRTC 090100Z AUTO 14007KT 9999 NCD M09/M12 Q1010=
201901090130 METAR LRTC 090130Z AUTO 14005KT 9999 NCD M10/M12 Q1010=
201901090200 METAR LRTC 090200Z AUTO 14004KT 9999 NCD M09/M12 Q1010=
201901090230 METAR LRTC 090230Z AUTO 14008KT 9999 NCD M09/M12 Q1009=
201901090300 METAR LRTC 090300Z AUTO 15004KT 9999 BKN200/// M09/M12 Q1009=
201901090330 METAR LRTC 090330Z AUTO 17004KT 9999 BKN170/// M09/M12 Q1009=
201901090400 METAR LRTC 090400Z AUTO 16007KT 9999 FEW130/// BKN150///
                        M08/M11 Q1009=
201901090430 METAR LRTC 090430Z AUTO 18006KT 9999 FEW120/// BKN130///
                        M07/M10 Q1009=
201901090500 METAR LRTC 090500Z AUTO 14008KT 9999 SCT090/// BKN100///
                        BKN160/// M06/M10 Q1009=
201901090530 METAR LRTC 090530Z AUTO 14007KT 9999 SCT070/// OVC090///
                        M05/M10 Q1009=
201901090600 METAR LRTC 090600Z 16007KT CAVOK M05/M09 Q1009=
201901090630 METAR LRTC 090630Z 17008KT CAVOK M03/M09 Q1009 R16/897093=
201901090700 METAR LRTC 090700Z 17007KT CAVOK M03/M09 Q1009 R16/897093=
201901090730 METAR COR LRTC 090730Z 17006KT 9999 FEW025 SCT048 M03/M08
                        Q1009 R16/897093=
201901090800 METAR LRTC 090800Z 20006KT 9999 FEW024 SCT040 M02/M08 Q1009
                        R16/897093=
201901090830 METAR LRTC 090830Z 20008KT 9999 FEW024 SCT030 M01/M08 Q1009
                        R16/897093=
201901090900 METAR LRTC 090900Z 21008KT 9999 BKN024 M00/M06 Q1009 R16/897093=
201901090930 METAR LRTC 090930Z 22009KT 9999 BKN023 00/M06 Q1009 R16/897093=
201901091000 METAR LRTC 091000Z 22014KT 9999 BKN025 01/M05 Q1008 R16/897093=
201901091030 METAR LRTC 091030Z 21011KT 9999 SCT025 02/M04 Q1008 R16/897093=
201901091100 METAR LRTC 091100Z 22010KT 9999 FEW025 02/M05 Q1008 R16/897093=
201901091130 METAR LRTC 091130Z 21012KT 9999 FEW027 02/M04 Q1008 R16/897093=
201901091200 METAR LRTC 091200Z 22011KT 9999 FEW030 02/M04 Q1008 R16/897093=
201901091230 METAR LRTC 091230Z 22011KT 9999 FEW030 02/M04 Q1008 R16/897093=
201901091300 METAR LRTC 091300Z 23011KT CAVOK 02/M04 Q1008 R16/897093=
201901091330 METAR LRTC 091330Z 23008KT CAVOK 01/M04 Q1008 R16/897093=
201901091400 METAR LRTC 091400Z 19006KT CAVOK 01/M03 Q1009 R16/897093=
201901091430 METAR LRTC 091430Z 16007KT CAVOK M00/M03 Q1009 R16/897093=
201901091500 METAR LRTC 091500Z 16007KT CAVOK M01/M04 Q1009 R16/897093=
201901091530 METAR LRTC 091530Z 16006KT CAVOK M02/M04 Q1009 R16/897093=
201901091600 METAR LRTC 091600Z 15006KT CAVOK M02/M04 Q1009 R16/897093=
201901091630 METAR LRTC 091630Z 14007KT CAVOK M02/M04 Q1009 R16/897093=
201901091700 METAR LRTC 091700Z 14005KT CAVOK M01/M05 Q1009 R16/897093=
201901091730 METAR LRTC 091730Z 13003KT CAVOK M02/M05 Q1009 R16/897093=
201901091800 METAR LRTC 091800Z AUTO 14004KT 9000 FEW230/// M02/M05 Q1010=
201901091830 METAR LRTC 091830Z AUTO 19003KT 170V230 9999 NCD M03/M05
                        Q1010=
201901091900 METAR LRTC 091900Z AUTO 19002KT 140V210 9999 NCD M02/M05
                        Q1010=
201901091930 METAR LRTC 091930Z AUTO 19003KT 140V230 9999 BKN140/// M02/M05
                        Q1010=
201901092000 METAR LRTC 092000Z AUTO VRB01KT 9999 FEW140/// M02/M05 Q1010=
201901092030 METAR LRTC 092030Z AUTO 14002KT 9999 FEW120/// BKN150///
                        M01/M05 Q1010=
201901092100 METAR LRTC 092100Z AUTO 14002KT 9000 BKN110/// OVC130///
                        M02/M05 Q1010=
201901092130 METAR LRTC 092130Z AUTO 14002KT 060V170 9000 BKN095/// OVC110///
                        M02/M05 Q1009=
201901092200 METAR LRTC 092200Z AUTO 07003KT 030V100 9999 BKN085/// OVC100///
                        M01/M03 Q1009=
201901092230 METAR LRTC 092230Z AUTO 01003KT 9999 FEW021/// BKN075///
                        BKN090/// M01/M03 Q1009=
201901092300 METAR LRTC 092300Z AUTO 09003KT 030V120 9999 FEW017/// SCT032///
                        BKN037/// 01/M02 Q1009=
201901092330 METAR LRTC 092330Z AUTO 19002KT 6000 -FZDZ FEW017/// SCT029///
                        BKN033/// M01/M03 Q1009=
201901100000 METAR LRTC 100000Z AUTO 26003KT 4500 FZRA FEW012/// SCT019///
                        BKN024/// M00/M02 Q1009=
201901100030 METAR LRTC 100030Z AUTO 14003KT 100V190 5000 -FZRA SCT012///
                        BKN016/// BKN020/// 01/M00 Q1009=
201901100100 METAR LRTC 100100Z AUTO 14009KT 4800 -RASN FEW008/// BKN011///
                        OVC017/// 02/01 Q1008=
201901100130 METAR LRTC 100130Z AUTO 14009KT 4700 -RASN BKN007/// BKN009///
                        01/01 Q1008=
201901100200 METAR LRTC 100200Z AUTO 14007KT 3700 -SN FEW004/// BKN008///
                        OVC010/// 01/00 Q1008=
201901100230 METAR LRTC 100230Z AUTO 12006KT 7000 -SN BKN007/// BKN009///
                        01/01 Q1008=
201901100300 METAR LRTC 100300Z AUTO 12006KT 8000 -RA FEW007/// SCT009///
                        BKN012/// 02/01 Q1007=
201901100330 METAR LRTC 100330Z AUTO 11009KT 6000 -RA FEW009/// BKN012///
                        02/02 Q1007=
201901100400 METAR LRTC 100400Z AUTO 12013KT 9000 DZ FEW008/// SCT012///
                        OVC015/// 03/02 Q1007=
201901100430 METAR LRTC 100430Z AUTO 11016KT 8000 DZ SCT014/// BKN017///
                        BKN020/// 03/02 Q1006=
201901100500 METAR LRTC 100500Z AUTO 11016KT 6000 DZ FEW008/// BKN015///
                        BKN018/// 03/02 Q1006=
201901100530 METAR LRTC 100530Z AUTO 11016KT 5000 -RA FEW007/// SCT015///
                        BKN018/// 03/03 Q1006=
201901100600 METAR LRTC 100600Z 10014KT 4000 -RA BR FEW006 SCT010 BKN015
                        03/03 Q1006=
201901100630 METAR LRTC 100630Z 12013KT 5000 -RA BR FEW003 SCT013 BKN022
                        04/03 Q1006 R16/390192=
201901100700 METAR LRTC 100700Z 10012KT 5000 -RA BR SCT005 BKN008 04/03
                        Q1006 R16/390192=
201901100730 METAR LRTC 100730Z 11014KT 5000 -DZ BR SCT004 BKN009 04/04
                        Q1006 R16/390192=
201901100800 METAR LRTC 100800Z 11011KT 4500 -DZ BR SCT005 BKN009 04/03
                        Q1006 R16/390192=
201901100830 METAR LRTC 100830Z 13010KT 0600 R34/2000D -DZ FG BKN004 BKN008
                        04/04 Q1006 R16/390192=
201901100900 METAR LRTC 100900Z 15007KT 0300 R34/1000D FG BKN003 OVC006
                        04/04 Q1006 R16/390192=
201901100930 METAR LRTC 100930Z 16006KT 0250 R34/0650N FG BKN005 BKN010
                        04/04 Q1006 R16/390192=
201901101000 METAR LRTC 101000Z VRB02KT 0800 R34/1600U FG FEW009 SCT013
                        BKN035 05/05 Q1006 R16/653594=
201901101030 METAR LRTC 101030Z VRB02KT 7000 FEW007 BKN035 05/05 Q1006
                        R16/653594=
201901101100 METAR LRTC 101100Z 26005KT 7000 SCT010 SCT036 05/04 Q1006
                        R16/653594=
201901101130 METAR LRTC 101130Z 25004KT 6000 SCT004 SCT011 05/04 Q1006
                        R16/653594=
201901101200 METAR LRTC 101200Z 23005KT 6000 SCT007 BKN013 05/04 Q1006
                        R16/653594=
201901101230 METAR LRTC 101230Z 27007KT 8000 BKN005 BKN009 04/03 Q1007
                        R16/653594=
201901101300 METAR LRTC 101300Z 27008KT 9999 FEW007 BKN012 03/03 Q1007
                        R16/653594=
201901101330 METAR LRTC 101330Z 27009KT 7000 FEW014 BKN017 03/02 Q1007
                        R16/653594=
201901101400 METAR LRTC 101400Z 24005KT 6000 BKN017 02/02 Q1007 R16/653594=
201901101430 METAR LRTC 101430Z 26010KT 1800 BR FEW001 BKN018 01/01 Q1008
                        R16/653594=
201901101500 METAR LRTC 101500Z 27011KT 1500 BR FEW003 BKN008 01/00 Q1008
                        R16/653594=
201901101530 METAR LRTC 101530Z 27005KT 2500 BR FEW001 BKN005 01/01 Q1008
                        R16/653594=
201901101600 METAR LRTC 101600Z 27004KT 2500 BR FEW001 OVC005 01/01 Q1008
                        R16/653594=
201901101630 METAR LRTC 101630Z 32008KT 4000 BR FEW001 OVC005 01/01 Q1008
                        R16/653594=
201901101700 METAR LRTC 101700Z 29007KT 0500 R34/1300N FG FEW003 BKN005
                        01/00 Q1008 R16/653594=
201901101730 METAR LRTC 101730Z 32012KT 0500 R34/1600D FG BKN002 01/00
                        Q1008 R16/653594=
201901101800 METAR LRTC 101800Z AUTO 31010KT 1100 R34/1300D FG FEW002///
                        OVC010/// 01/00 Q1008=
201901101830 METAR LRTC 101830Z AUTO 32010KT 1000 R34/1200D FG FEW001///
                        SCT007/// OVC011/// 00/00 Q1008=
201901101900 METAR LRTC 101900Z AUTO 32011KT 1100 R34/1300N FG VV002 00/00
                        Q1008=
201901101930 METAR LRTC 101930Z AUTO 33009KT 1100 R34/1300N UP VV002 00/00
                        Q1008=
201901102000 METAR LRTC 102000Z AUTO 33007KT 1100 R34/1400N -FZRA VV002
                        00/00 Q1008=
201901102030 METAR LRTC 102030Z AUTO 31003KT 280V340 1300 R34/1400U +UP
                        VV002 00/00 Q1009=
201901102100 METAR LRTC 102100Z AUTO 31007KT 2900 FZRA FEW002/// BKN004///
                        OVC006/// 01/00 Q1008=
201901102130 METAR LRTC 102130Z AUTO 31007KT 4300 -FZRA BKN005/// BKN014///
                        OVC022/// 01/01 Q1008=
201901102200 METAR LRTC 102200Z AUTO 34008KT 4600 RA SCT005/// BKN007///
                        BKN037/// 01/01 Q1008=
201901102230 METAR LRTC 102230Z AUTO 35008KT 6000 -RA FEW003/// SCT008///
                        BKN028/// 01/01 Q1007=
201901102300 METAR LRTC 102300Z AUTO 33009KT 4600 -SHRA BKN004/// OVC010///
                        01/01 Q1007=
201901102330 METAR LRTC 102330Z AUTO 32008KT 2300 -SHRA FEW001/// OVC003///
                        01/01 Q1008=
201901110000 METAR LRTC 110000Z AUTO 33009KT 3100 R34/2000 SG SCT003///
                        BKN005/// OVC009/// 01/01 Q1007=
201901110030 METAR LRTC 110030Z AUTO 33009KT 3500 -SHRA SCT003/// OVC009///
                        01/01 Q1007=
201901110100 METAR LRTC 110100Z AUTO 33009KT 4200 -SHRA BKN003/// OVC005///
                        01/01 Q1007=
201901110130 METAR LRTC 110130Z AUTO 32008KT 3800 -RA BKN003/// OVC005///
                        01/01 Q1007=
201901110200 METAR LRTC 110200Z AUTO 33006KT 5000 DZ BKN004/// OVC010///
                        01/01 Q1007=
201901110230 METAR LRTC 110230Z AUTO 32007KT 4000 -SHRA SCT003/// OVC005///
                        01/01 Q1006=
201901110300 METAR LRTC 110300Z AUTO 31009KT 3600 -SHRA SCT005/// OVC007///
                        01/01 Q1007=
201901110330 METAR LRTC 110330Z AUTO 32009KT 3400 -RA FEW006/// OVC012///
                        01/01 Q1006=
201901110400 METAR LRTC 110400Z AUTO 28008KT 4200 -RA FEW005/// OVC007///
                        01/01 Q1007=
201901110430 METAR LRTC 110430Z AUTO 28005KT 2700 -RA FEW004/// OVC008///
                        01/01 Q1007=
201901110500 METAR LRTC 110500Z AUTO 30007KT 270V340 6000 -RASN FEW008///
                        BKN010/// OVC014/// 01/00 Q1007=
201901110530 METAR LRTC 110530Z AUTO 30011KT 9999 -SN FEW006/// BKN014///
                        BKN018/// M00/M00 Q1008=
201901110600 METAR LRTC 110600Z 29015KT 9999 FEW008 SCT015 M00/M01 Q1008=
201901110630 METAR LRTC 110630Z 28015KT 9999 SCT011 BKN020 M00/M02 Q1009
                        R16/790191=
201901110700 METAR LRTC 110700Z 29014KT 9000 BKN011 M00/M02 Q1009 R16/790191=
201901110730 METAR LRTC 110730Z 31019KT 9000 FEW011 SCT014 M01/M02 Q1009
                        R16/790191=
201901110800 METAR LRTC 110800Z 31020KT 9000 SCT013 M01/M02 Q1010 R16/790191=
201901110830 METAR LRTC 110830Z 29017KT 9999 FEW012 BKN016 M01/M02 Q1011
                        R16/790191=
201901110900 METAR LRTC 110900Z 29017KT 9999 BKN012 SCT015 M01/M02 Q1011
                        R16/790191=
201901110930 METAR LRTC 110930Z 28016KT 8000 BKN012 M00/M02 Q1012 R16/790191=
201901111000 METAR LRTC 111000Z 29016KT 8000 BKN012 M01/M03 Q1012 R16/790191=
201901111030 METAR LRTC 111030Z 29016KT 8000 BKN014 M01/M03 Q1011 R16/790191=
201901111100 METAR LRTC 111100Z 30017KT 8000 FEW014 BKN025 M01/M03 Q1012
                        R16/29//95=
201901111130 METAR LRTC 111130Z 29016KT 7000 FEW013 BKN028 M01/M03 Q1012
                        R16/29//95=
201901111200 METAR LRTC 111200Z 29016KT 7000 SCT015 BKN028 M01/M04 Q1013
                        R16/29//95=
201901111230 METAR LRTC 111230Z 29013KT 8000 FEW012 BKN015 M01/M04 Q1013
                        R16/29//95=
201901111300 METAR LRTC 111300Z 30013KT 8000 BKN013 SCT028 M01/M04 Q1014
                        R16/29//95=
201901111330 METAR LRTC 111330Z 29013KT 9000 BKN013 SCT024 M02/M04 Q1014
                        R16/29//95=
201901111400 METAR LRTC 111400Z 30014KT 7000 SCT014 BKN044 M02/M05 Q1014
                        R16/29//95=
201901111430 METAR LRTC 111430Z 30015KT 7000 SCT014 SCT024 M02/M05 Q1014
                        R16/29//95=
201901111500 METAR LRTC 111500Z 30012KT 6000 FEW014 SCT024 M03/M05 Q1014
                        R16/29//95=
201901111530 METAR LRTC 111530Z 30012KT 6000 FEW025 M03/M05 Q1015 R16/29//95=
201901111600 METAR LRTC 111600Z 29012KT 7000 FEW016 SCT026 M03/M05 Q1015
                        R16/29//95=
201901111630 METAR LRTC 111630Z 30013KT 8000 FEW025 SCT050 M03/M05 Q1015
                        R16/29//95=
201901111700 METAR LRTC 111700Z 30014KT 8000 SCT029 M03/M05 Q1016 R16/29//95=
201901111730 METAR LRTC 111730Z 31015KT 9000 FEW029 M03/M05 Q1016 R16/29//95=
201901111800 METAR LRTC 111800Z AUTO 30014KT 9000 BKN055/// M03/M05 Q1016=
201901111830 METAR LRTC 111830Z AUTO 30012KT 9999 FEW013/// BKN046///
                        M03/M05 Q1016=
201901111900 METAR LRTC 111900Z AUTO 31014KT 9999 SG BKN046/// M03/M05
                        Q1016=
201901111930 METAR LRTC 111930Z AUTO 31014KT 8000 SG OVC047/// M03/M05
                        Q1017=
201901112000 METAR LRTC 112000Z AUTO 30012KT 6000 -SN BKN049/// M03/M05
                        Q1017=
201901112030 METAR LRTC 112030Z AUTO 30011KT 9999 -SN OVC050/// M03/M05
                        Q1017=
201901112100 METAR LRTC 112100Z AUTO 30010KT 9999 OVC055/// M03/M05 Q1017
                        RESN=
201901112130 METAR LRTC 112130Z AUTO 29006KT 9999 SCT050/// BKN065///
                        M03/M05 Q1017=
201901112200 METAR LRTC 112200Z AUTO 28007KT 9999 SCT055/// M04/M06 Q1016=
201901112230 METAR LRTC 112230Z AUTO 25004KT 9000 NCD M04/M06 Q1016=
201901112300 METAR LRTC 112300Z AUTO 26005KT 9000 SCT028/// M04/M06 Q1016=
201901112330 METAR LRTC 112330Z AUTO 25005KT 9000 NCD M05/M06 Q1016=
201901120000 METAR LRTC 120000Z AUTO 25006KT 6000 NCD M05/M06 Q1016=
201901120030 METAR LRTC 120030Z AUTO 25006KT 6000 SCT017/// M04/M05 Q1016=
201901120100 METAR LRTC 120100Z AUTO 25008KT 6000 BKN014/// OVC017///
                        M03/M04 Q1016=
201901120130 METAR LRTC 120130Z AUTO 21002KT 150V240 6000 OVC013/// M03/M04
                        Q1016=
201901120200 METAR LRTC 120200Z AUTO 13002KT 6000 OVC015/// M03/M04 Q1015=
201901120230 METAR LRTC 120230Z AUTO 12002KT 6000 OVC016/// M03/M04 Q1015=
201901120300 METAR LRTC 120300Z AUTO 19002KT 6000 OVC015/// M03/M04 Q1015=
201901120330 METAR LRTC 120330Z AUTO 17004KT 140V210 7000 OVC013/// M02/M04
                        Q1015=
201901120400 METAR LRTC 120400Z AUTO 18006KT 9000 OVC013/// M02/M04 Q1015=
201901120430 METAR LRTC 120430Z AUTO 19006KT 8000 OVC012/// M02/M04 Q1014=
201901120500 METAR LRTC 120500Z AUTO 22009KT 7000 BKN009/// BKN011///
                        M02/M03 Q1014=
201901120530 METAR LRTC 120530Z AUTO 23011KT 6000 SCT007/// BKN009///
                        M02/M03 Q1014=
201901120600 METAR LRTC 120600Z 24011KT 4000 BR BKN007 M02/M03 Q1014=
201901120630 METAR LRTC 120630Z 19007KT 4000 BR FEW005 BKN007 M02/M03
                        Q1014=
201901120700 METAR LRTC 120700Z 19009KT 4300 BR BKN007 M02/M03 Q1013=
201901120730 METAR LRTC 120730Z 21015KT 6000 BKN010 M01/M03 Q1013=
201901120800 METAR LRTC 120800Z 21014KT 7000 BKN011 M01/M03 Q1013=
201901120830 METAR LRTC 120830Z 21012KT 9000 BKN013 M00/M02 Q1013=
201901120900 METAR LRTC 120900Z 22015KT 9000 BKN015 M00/M02 Q1013=
201901120930 METAR LRTC 120930Z 23015KT 9000 BKN013 M00/M02 Q1012=
201901121000 METAR LRTC 121000Z 25010KT 9999 BKN011 M00/M02 Q1012=
201901121030 METAR LRTC 121030Z 26015KT 9999 FEW008 BKN010 M01/M03 Q1012=
201901121100 METAR LRTC 121100Z 24013KT 9999 FEW008 BKN010 M01/M03 Q1011=
201901121130 METAR LRTC 121130Z 25019KT 8000 FEW009 BKN011 M01/M03 Q1011=
201901121200 METAR LRTC 121200Z 25014KT 7000 FEW008 BKN010 M01/M03 Q1011=
201901121230 METAR LRTC 121230Z 26014KT 6000 BKN009 M01/M03 Q1011=
201901121300 METAR LRTC 121300Z 25017KT 6000 SCT009 M02/M03 Q1011=
201901121330 METAR LRTC 121330Z 25014KT 6000 FEW009 M01/M03 Q1011=
201901121400 METAR LRTC 121400Z 25011KT 6000 FEW010 M01/M03 Q1011=
201901121430 METAR LRTC 121430Z 25010KT 7000 FEW010 M01/M03 Q1011=
201901121500 METAR LRTC 121500Z 26010KT 6000 NSC M02/M03 Q1011=
201901121530 METAR LRTC 121530Z 26010KT 6000 NSC M02/M03 Q1011=
201901121600 METAR LRTC 121600Z 25009KT 6000 NSC M02/M03 Q1012=
201901121630 METAR LRTC 121630Z 26009KT 5000 BR NSC M02/M03 Q1012=
201901121700 METAR LRTC 121700Z 25011KT 5000 BR NSC M02/M03 Q1012=
201901121730 METAR LRTC 121730Z 24011KT 5000 BR SCT049 M01/M03 Q1012=
201901121800 METAR LRTC 121800Z AUTO 25010KT 5000 BR OVC055/// M02/M03
                        Q1012=
201901121830 METAR LRTC 121830Z AUTO 25008KT 6000 BKN060/// M02/M03 Q1012=
201901121900 METAR LRTC 121900Z AUTO 27008KT 6000 OVC060/// M02/M03 Q1012=
201901121930 METAR LRTC 121930Z AUTO 27005KT 6000 BKN060/// M02/M03 Q1012=
201901122000 METAR LRTC 122000Z AUTO 26005KT 7000 OVC060/// M02/M04 Q1012=
201901122030 METAR LRTC 122030Z AUTO 25005KT 6000 FEW065/// M03/M04 Q1012=
201901122100 METAR LRTC 122100Z AUTO 27005KT 6000 NCD M03/M05 Q1012=
201901122130 METAR LRTC 122130Z AUTO 23005KT 6000 NCD M04/M05 Q1012=
201901122200 METAR LRTC 122200Z AUTO 25004KT 6000 NCD M04/M05 Q1012=
201901122230 METAR LRTC 122230Z AUTO 24005KT 7000 NCD M04/M06 Q1012=
201901122300 METAR LRTC 122300Z AUTO 23005KT 7000 FEW055/// M04/M06 Q1012=
201901122330 METAR LRTC 122330Z AUTO 23003KT 7000 SCT055/// M04/M06 Q1012=
201901130000 METAR LRTC 130000Z AUTO 21005KT 6000 FEW055/// M04/M06 Q1012=
201901130030 METAR LRTC 130030Z AUTO 22004KT 7000 BKN055/// M04/M05 Q1012=
201901130100 METAR LRTC 130100Z AUTO 22004KT 8000 BKN055/// M04/M06 Q1012=
201901130130 METAR LRTC 130130Z AUTO 23004KT 8000 FEW055/// M04/M06 Q1011=
201901130200 METAR LRTC 130200Z AUTO 24004KT 7000 FEW050/// M04/M05 Q1011=
201901130230 METAR LRTC 130230Z AUTO VRB03KT 8000 FEW050/// M05/M06 Q1011=
201901130300 METAR LRTC 130300Z AUTO 17002KT 110V230 7000 NCD M04/M06
                        Q1011=
201901130330 METAR LRTC 130330Z AUTO 33002KT 8000 NCD M05/M07 Q1011=
201901130400 METAR LRTC 130400Z AUTO 36003KT 8000 NCD M05/M07 Q1011=
201901130430 METAR LRTC 130430Z AUTO 01004KT 6000 FEW210/// M05/M07 Q1011=
201901130500 METAR LRTC 130500Z AUTO 01002KT 7000 FEW210/// M05/M06 Q1011=
201901130530 METAR LRTC 130530Z AUTO 03001KT 8000 BKN190/// M04/M06 Q1011=
201901130600 METAR LRTC 130600Z VRB01KT CAVOK M05/M07 Q1011=
201901130630 METAR LRTC 130630Z 15002KT CAVOK M05/M07 Q1011=
201901130700 METAR LRTC 130700Z 00000KT CAVOK M03/M05 Q1011=
201901130730 METAR LRTC 130730Z 16002KT CAVOK M03/M05 Q1011=
201901130800 METAR LRTC 130800Z 19002KT 9000 NSC M02/M04 Q1011=
201901130830 METAR LRTC 130830Z 15004KT 120V200 CAVOK M00/M04 Q1011=
201901130900 METAR LRTC 130900Z 15003KT 110V180 CAVOK 00/M04 Q1010=
201901130930 METAR LRTC 130930Z 21003KT 160V240 CAVOK 00/M04 Q1010=
201901131000 METAR LRTC 131000Z 22003KT 190V270 CAVOK 01/M03 Q1009=
201901131030 METAR LRTC 131030Z 22007KT CAVOK 02/M03 Q1009=
201901131100 METAR LRTC 131100Z 23014KT CAVOK 03/M05 Q1009=
201901131130 METAR LRTC 131130Z 23013KT CAVOK 03/M03 Q1009=
201901131200 METAR LRTC 131200Z 23011KT CAVOK 02/M04 Q1008=
201901131230 METAR LRTC 131230Z 24010KT CAVOK 02/M03 Q1008=
201901131300 METAR LRTC 131300Z 23009KT CAVOK 02/M04 Q1008=
201901131330 METAR LRTC 131330Z 23009KT CAVOK 02/M04 Q1007=
201901131400 METAR LRTC 131400Z 24009KT CAVOK 02/M04 Q1007=
201901131430 METAR LRTC 131430Z 23006KT CAVOK 01/M03 Q1007=
201901131500 METAR LRTC 131500Z 22007KT CAVOK M00/M03 Q1006=
201901131530 METAR LRTC 131530Z 22008KT CAVOK M01/M03 Q1006=
201901131600 METAR LRTC 131600Z 24007KT CAVOK M01/M04 Q1006=
201901131630 METAR LRTC 131630Z 18005KT 150V230 CAVOK M02/M04 Q1006=
201901131700 METAR LRTC 131700Z 22007KT CAVOK M02/M04 Q1006=
201901131730 METAR LRTC 131730Z 21009KT CAVOK M02/M04 Q1005=
201901131800 METAR LRTC 131800Z AUTO 21007KT 9999 BKN190/// M02/M04 Q1005=
201901131830 METAR LRTC 131830Z AUTO 24008KT 9999 BKN170/// M02/M04 Q1005=
201901131900 METAR LRTC 131900Z AUTO 22012KT 9999 SCT140/// BKN170///
                        M01/M04 Q1005=
201901131930 METAR LRTC 131930Z AUTO 16005KT 9000 FEW140/// BKN210///
                        M02/M04 Q1005=
201901132000 METAR LRTC 132000Z AUTO 16005KT 8000 BKN170/// M03/M04 Q1004=
201901132030 METAR LRTC 132030Z AUTO 19005KT 8000 FEW170/// SCT230///
                        M03/M04 Q1004=
201901132100 METAR LRTC 132100Z AUTO 19005KT 7000 SCT160/// M03/M05 Q1003=
201901132130 METAR LRTC 132130Z AUTO 18005KT 8000 FEW120/// M03/M05 Q1003=
201901132200 METAR LRTC 132200Z AUTO 18005KT 8000 FEW110/// M03/M04 Q1002=
201901132230 METAR LRTC 132230Z AUTO 18007KT 9000 FEW130/// SCT140///
                        BKN210/// M02/M04 Q1002=
201901132300 METAR LRTC 132300Z AUTO 17004KT 9000 FEW140/// SCT170///
                        M03/M04 Q1002=
201901132330 METAR LRTC 132330Z AUTO 18003KT 130V240 9000 BKN090/// BKN140///
                        M03/M04 Q1001=
201901140000 METAR LRTC 140000Z AUTO 17006KT 9999 BKN080/// M02/M05 Q1001=
201901140030 METAR LRTC 140030Z AUTO 17005KT 9999 NCD M02/M05 Q1001=
201901140100 METAR LRTC 140100Z AUTO 11004KT 090V150 9999 NCD M02/M04
                        Q1000=
201901140130 METAR LRTC 140130Z AUTO 18006KT 9999 SCT070/// BKN085///
                        M02/M04 Q1000=
201901140200 METAR LRTC 140200Z AUTO 22011KT 9999 FEW070/// SCT090///
                        BKN160/// M01/M04 Q0999=
201901140230 METAR LRTC 140230Z AUTO 23015KT 9000 FEW100/// M01/M03 Q0999=
201901140300 METAR LRTC 140300Z AUTO 22013KT 7000 FEW120/// M02/M03 Q0998=
201901140330 METAR LRTC 140330Z AUTO 24011KT 9000 FEW110/// M01/M03 Q0998=
201901140400 METAR LRTC 140400Z AUTO 20011KT 8000 SCT012/// BKN015///
                        M01/M03 Q0998=
201901140430 METAR LRTC 140430Z AUTO 18007KT 8000 BKN012/// M02/M03 Q0998=
201901140500 METAR LRTC 140500Z AUTO 17008KT 9999 FEW013/// M01/M03 Q0997=
201901140530 METAR LRTC 140530Z AUTO 14004KT 110V190 9999 FEW018/// M01/M02
                        Q0997=
201901140600 METAR LRTC 140600Z VRB01KT 9999 FEW018 M01/M03 Q0997 R16/390095=
201901140630 METAR LRTC 140630Z 15006KT 140V210 9999 FEW018 M00/M02 Q0997
                        R16/390095=
201901140700 METAR LRTC 140700Z 17010KT 150V210 9999 FEW020 01/M02 Q0996
                        R16/390095=
201901140730 METAR LRTC 140730Z 18006KT 9999 FEW020 02/M01 Q0997 R16/390095=
201901140800 METAR LRTC 140800Z 16010KT 9999 FEW025 03/M01 Q0996 R16/390095=
201901140830 METAR LRTC 140830Z 21014KT 9999 FEW027 04/M01 Q0996 R16/15//95=
201901140900 METAR LRTC 140900Z 20015KT CAVOK 03/M01 Q0996 R16/15//95=
201901140930 METAR LRTC 140930Z 21022KT CAVOK 04/M00 Q0995 R16/15//95=
201901141000 METAR LRTC 141000Z 21019KT CAVOK 05/M01 Q0995 R16/15//95=
201901141030 METAR LRTC 141030Z 22020KT CAVOK 04/M01 Q0995 R16/15//95=
201901141100 METAR LRTC 141100Z 22015KT CAVOK 04/M01 Q0994 R16/15//95=
201901141130 METAR LRTC 141130Z 22010KT CAVOK 05/M00 Q0994 R16/15//95=
201901141200 METAR LRTC 141200Z 21021KT CAVOK 05/M01 Q0994 R16/15//95=
201901141230 METAR LRTC 141230Z 22021KT CAVOK 05/M01 Q0994 R16/15//95=
201901141300 METAR LRTC 141300Z 23019KT CAVOK 05/M01 Q0993 R16/15//95=
201901141330 METAR LRTC 141330Z 23019KT CAVOK 06/M01 Q0994 R16/15//95=
201901141400 METAR LRTC 141400Z 22018KT CAVOK 05/M01 Q0994 R16/15//95=
201901141430 METAR LRTC 141430Z 23011KT CAVOK 04/M02 Q0994 R16/15//95=
201901141500 METAR LRTC 141500Z 23016KT CAVOK 04/M02 Q0994 R16/15//95=
201901141530 METAR LRTC 141530Z 22018KT CAVOK 03/M02 Q0994 R16/15//95=
201901141600 METAR LRTC 141600Z 24020KT CAVOK 03/M01 Q0994 R16/15//95=
201901141630 METAR LRTC 141630Z 24019KT CAVOK 03/M01 Q0994 R16/15//95=
201901141700 METAR LRTC 141700Z 13006KT 070V170 CAVOK 02/M01 Q0995 R16/15//95=
201901141730 METAR LRTC 141730Z 16005KT 130V210 CAVOK 02/M01 Q0995 R16/15//95=
201901141800 METAR LRTC 141800Z AUTO 23010KT 9999 FEW075/// BKN230///
                        02/M01 Q0996=
201901141830 METAR LRTC 141830Z AUTO VRB03KT 9999 FEW230/// 01/M02 Q0996=
201901141900 METAR LRTC 141900Z AUTO 25010KT 9999 FEW240/// 01/M02 Q0996=
201901141930 METAR LRTC 141930Z AUTO 23006KT 9999 NCD 01/M02 Q0996=
201901142000 METAR LRTC 142000Z AUTO 23007KT 9000 NCD 01/M02 Q0997=
201901142030 METAR LRTC 142030Z AUTO 26012KT 8000 NCD 01/M01 Q0997=
201901142100 METAR LRTC 142100Z AUTO 26009KT 8000 NCD 01/M01 Q0997=
201901142130 METAR LRTC 142130Z AUTO 24004KT 200V270 8000 NCD 01/M02 Q0997=
201901142200 METAR LRTC 142200Z AUTO 26009KT 8000 NCD 01/M02 Q0997=
201901142230 METAR LRTC 142230Z AUTO 24006KT 210V270 8000 NCD 01/M02 Q0998=
201901142300 METAR LRTC 142300Z AUTO 26007KT 7000 NCD 01/M02 Q0998=
201901142330 METAR LRTC 142330Z AUTO 28007KT 8000 FEW095/// 01/M02 Q0998=
201901150000 METAR LRTC 150000Z AUTO 22008KT 170V270 6000 FEW100/// 00/M01
                        Q0999=
201901150030 METAR LRTC 150030Z AUTO 36006KT 7000 BKN055/// BKN120///
                        M00/M02 Q0999=
201901150100 METAR LRTC 150100Z AUTO 33004KT 6000 BKN055/// BKN110///
                        M00/M02 Q0999=
201901150130 METAR LRTC 150130Z AUTO 32011KT 9999 BKN060/// 02/M01 Q0999=
201901150200 METAR LRTC 150200Z AUTO 34014KT 9999 BKN100/// 01/M01 Q0999=
201901150230 METAR LRTC 150230Z AUTO 34013KT 9000 FEW055/// BKN110///
                        01/M01 Q1000=
201901150300 METAR LRTC 150300Z AUTO 33014KT 8000 BKN050/// 01/M01 Q1000=
201901150330 METAR LRTC 150330Z AUTO 33015KT 8000 OVC050/// 01/M01 Q1000=
201901150400 METAR LRTC 150400Z AUTO 33015KT 7000 UP FEW011/// OVC046///
                        01/M00 Q1001=
201901150430 METAR LRTC 150430Z AUTO 33019KT 7000 -SN FEW007/// SCT010///
                        BKN014/// 01/M00 Q1001=
201901150500 METAR LRTC 150500Z AUTO 33019KT 6000 -SN FEW009/// SCT011///
                        BKN014/// 00/M00 Q1002=
201901150530 METAR LRTC 150530Z AUTO 33022KT 4300 -SN FEW007/// SCT011///
                        BKN015/// M00/M01 Q1002=
201901150600 METAR LRTC 150600Z 34021KT 1200 R34/2000 -SN DRSN BR VV007
                        M00/M01 Q1003 R16/550294=
201901150630 METAR LRTC 150630Z 34019KT 1800 -SN DRSN BR VV007 M00/M01
                        Q1003 R16/550294=
201901150700 METAR LRTC 150700Z 34017KT 1500 SN DRSN BR FEW007 SCT017
                        BKN020 M00/M01 Q1004 R16/550294=
201901150730 METAR LRTC 150730Z 34017KT 1500 SN DRSN BR VV008 M00/M01
                        Q1004 R16/550294=
201901150800 METAR LRTC 150800Z 34017KT 0500 R34/1100D +SN VV006 M00/M01
                        Q1005 R16/550294=
201901150830 METAR LRTC 150830Z 35017KT 1000 R34/1300D SN BR VV008 M00/M01
                        Q1005 R16/550294=
201901150900 METAR LRTC 150900Z 35014KT 7000 -SN BKN010 BKN018 M00/M01
                        Q1006 R16/590893=
201901150930 METAR LRTC 150930Z 35011KT 9999 BKN008 M01/M01 Q1006 R16/590893=
201901151000 METAR LRTC 151000Z 34013KT 9999 SCT012 M01/M02 Q1006 R16/590893=
201901151030 METAR LRTC 151030Z 35012KT 9999 SCT010 M01/M02 Q1006 R16/590893=
201901151100 METAR LRTC 151100Z 35012KT CAVOK M01/M02 Q1006 R16/590893=
201901151130 METAR LRTC 151130Z 34013KT CAVOK M00/M02 Q1006 R16/590893=
201901151200 METAR LRTC 151200Z 35013KT CAVOK M00/M03 Q1006 R16/590893=
201901151230 METAR LRTC 151230Z 34010KT CAVOK M01/M03 Q1007 R16/590893=
201901151300 METAR LRTC 151300Z 34011KT CAVOK M01/M04 Q1007 R16/590893=
201901151330 METAR LRTC 151330Z 33011KT CAVOK M01/M05 Q1007 R16/590893=
201901151400 METAR LRTC 151400Z 32010KT CAVOK M01/M05 Q1007 R16/590893=
201901151430 METAR LRTC 151430Z 32010KT CAVOK M02/M06 Q1007 R16/590893=
201901151500 METAR LRTC 151500Z 32009KT CAVOK M03/M07 Q1007 R16/590893=
201901151530 METAR LRTC 151530Z 31013KT CAVOK M03/M07 Q1008 R16/590893=
201901151600 METAR LRTC 151600Z 32012KT CAVOK M04/M08 Q1008 R16/590893=
201901151630 METAR LRTC 151630Z 31011KT CAVOK M04/M08 Q1008 R16/590893=
201901151700 METAR LRTC 151700Z 30010KT CAVOK M04/M08 Q1008 R16/590893=
201901151730 METAR LRTC 151730Z 30010KT CAVOK M03/M08 Q1008 R16/590893=
201901151800 METAR LRTC 151800Z AUTO 27005KT 9999 NCD M04/M09 Q1008=
201901151830 METAR LRTC 151830Z AUTO 28007KT 9999 NCD M04/M08 Q1008=
201901151900 METAR LRTC 151900Z AUTO 29005KT 9999 NCD M05/M09 Q1009=
201901151930 METAR LRTC 151930Z AUTO 11003KT 9999 NCD M05/M09 Q1009=
201901152000 METAR LRTC 152000Z AUTO VRB01KT 9999 NCD M05/M09 Q1009=
201901152030 METAR LRTC 152030Z AUTO 22002KT 160V320 9999 NCD M04/M09
                        Q1009=
201901152100 METAR LRTC 152100Z AUTO VRB04KT 9999 NCD M04/M10 Q1009=
201901152130 METAR LRTC 152130Z AUTO 31013KT 9999 NCD M02/M09 Q1009=
201901152200 METAR LRTC 152200Z AUTO 31010KT 9999 NCD M02/M09 Q1009=
201901152230 METAR LRTC 152230Z AUTO VRB01KT 9999 NCD M05/M10 Q1009=
201901152300 METAR LRTC 152300Z AUTO 22004KT 9999 NCD M05/M10 Q1009=
201901152330 METAR LRTC 152330Z AUTO 25006KT 200V270 9999 NCD M05/M09
                        Q1009=
201901160000 METAR LRTC 160000Z AUTO 26008KT 9999 NCD M05/M09 Q1010=
201901160030 METAR LRTC 160030Z AUTO 23007KT 170V270 9999 NCD M06/M11
                        Q1010=
201901160100 METAR LRTC 160100Z AUTO 21004KT 170V260 9999 NCD M06/M10
                        Q1010=
201901160130 METAR LRTC 160130Z AUTO 26003KT 9999 NCD M05/M10 Q1010=
201901160200 METAR LRTC 160200Z AUTO 19002KT 100V270 9999 NCD M06/M11
                        Q1010=
201901160230 METAR LRTC 160230Z AUTO 20003KT 9999 NCD M06/M11 Q1009=
201901160300 METAR LRTC 160300Z AUTO 19004KT 150V230 9999 NCD M06/M11
                        Q1009=
201901160330 METAR LRTC 160330Z AUTO 21006KT 100V240 9999 NCD M06/M11
                        Q1009=
201901160400 METAR LRTC 160400Z AUTO 18003KT 150V220 9999 NCD M06/M11
                        Q1009=
201901160430 METAR LRTC 160430Z AUTO 16004KT 130V210 9999 FEW170/// M07/M11
                        Q1009=
201901160500 METAR LRTC 160500Z AUTO 16006KT 140V300 9999 BKN180/// M05/M10
                        Q1009=
201901160530 METAR LRTC 160530Z AUTO 19004KT 150V240 9999 SCT180/// M05/M11
                        Q1009=
201901160600 METAR LRTC 160600Z 19008KT CAVOK M05/M10 Q1009=
201901160630 METAR LRTC 160630Z 15004KT 100V200 CAVOK M04/M09 Q1009 R16/590892=
201901160700 METAR LRTC 160700Z 20008KT CAVOK M03/M08 Q1009 R16/590892=
201901160730 METAR LRTC 160730Z 22009KT CAVOK M03/M06 Q1009 R16/590892=
201901160800 METAR LRTC 160800Z 22013KT 9999 SCT046 M02/M05 Q1008 R16/590892=
201901160830 METAR LRTC 160830Z 22013KT 9999 FEW049 M01/M05 Q1008 R16/590892=
201901160900 METAR LRTC 160900Z 22006KT 190V250 CAVOK M00/M04 Q1008 R16/590892=
201901160930 METAR LRTC 160930Z 23011KT CAVOK 01/M03 Q1007 R16/590892=
201901161000 METAR LRTC 161000Z 25021KT CAVOK 01/M03 Q1007 R16/590892=
201901161030 METAR LRTC 161030Z 25023KT CAVOK 01/M03 Q1006 R16/590892=
201901161100 METAR LRTC 161100Z 25022KT CAVOK 01/M02 Q1006 R16/590892=
201901161130 METAR LRTC 161130Z 25021KT CAVOK 02/M02 Q1006 R16/590892=
201901161200 METAR LRTC 161200Z 26024KT CAVOK 02/M02 Q1006 R16/590892=
201901161230 METAR LRTC 161230Z 26020KT CAVOK 02/M02 Q1007 R16/590892=
201901161300 METAR LRTC 161300Z 25019KT CAVOK 02/M02 Q1007 R16/590892=
201901161330 METAR LRTC 161330Z 26017KT CAVOK 02/M02 Q1007 R16/590892=
201901161400 METAR LRTC 161400Z 26017KT CAVOK 02/M02 Q1008 R16/590892=
201901161430 METAR LRTC 161430Z 26016KT CAVOK 02/M02 Q1008 R16/590892=
201901161500 METAR LRTC 161500Z 26015KT CAVOK 02/M02 Q1009 R16/590892=
201901161530 METAR LRTC 161530Z 26012KT CAVOK 01/M02 Q1010 R16/590892=
201901161600 METAR LRTC 161600Z 26010KT CAVOK 01/M02 Q1010 R16/590892=
201901161630 METAR LRTC 161630Z 27009KT CAVOK 01/M02 Q1011 R16/590892=
201901161700 METAR LRTC 161700Z 29008KT CAVOK 00/M02 Q1012 R16/590892=
201901161730 METAR LRTC 161730Z 31013KT CAVOK 02/M02 Q1012 R16/590892=
201901161800 METAR LRTC 161800Z AUTO 32011KT 9999 SCT050/// BKN080///
                        02/M02 Q1013=
201901161830 METAR LRTC 161830Z AUTO 32010KT 9999 BKN050/// 02/M02 Q1013=
201901161900 METAR LRTC 161900Z AUTO 33010KT 9999 BKN050/// 02/M03 Q1014=
201901161930 METAR LRTC 161930Z AUTO 33010KT 9999 BKN050/// 02/M02 Q1014=
201901162000 METAR LRTC 162000Z AUTO 34010KT 9999 FEW050/// SCT070///
                        01/M02 Q1015=
201901162030 METAR LRTC 162030Z AUTO 35012KT 9999 SCT050/// BKN070///
                        01/M03 Q1015=
201901162100 METAR LRTC 162100Z AUTO 35010KT 9999 BKN048/// 01/M03 Q1015=
201901162130 METAR LRTC 162130Z AUTO 35010KT 9999 BKN046/// 01/M03 Q1015=
201901162200 METAR LRTC 162200Z AUTO 33005KT 280V360 9999 BKN075/// 01/M04
                        Q1016=
201901162230 METAR LRTC 162230Z AUTO 30003KT 9999 OVC070/// 00/M03 Q1016=
201901162300 METAR LRTC 162300Z AUTO 27003KT 250V310 9999 BKN070/// 00/M03
                        Q1016=
201901162330 METAR LRTC 162330Z AUTO 03005KT 9999 SCT050/// BKN065///
                        00/M03 Q1016=
201901170000 METAR LRTC 170000Z AUTO 05002KT 010V070 9999 BKN048/// BKN070///
                        00/M03 Q1016=
201901170030 METAR LRTC 170030Z AUTO 21002KT 180V240 9999 FEW050/// BKN065///
                        M00/M03 Q1017=
201901170100 METAR LRTC 170100Z AUTO 23003KT 9999 BKN065/// M00/M03 Q1017=
201901170130 METAR LRTC 170130Z AUTO 23005KT 9999 BKN065/// M01/M03 Q1017=
201901170200 METAR LRTC 170200Z AUTO 19003KT 9999 BKN065/// M01/M03 Q1017=
201901170230 METAR LRTC 170230Z AUTO 23002KT 9999 OVC065/// M00/M03 Q1017=
201901170300 METAR LRTC 170300Z AUTO 24001KT 9999 BKN065/// M01/M03 Q1017=
201901170330 METAR LRTC 170330Z AUTO 13002KT 9999 OVC070/// M01/M03 Q1017=
201901170400 METAR LRTC 170400Z AUTO 15005KT 9999 OVC070/// M00/M04 Q1017=
201901170430 METAR LRTC 170430Z AUTO 14004KT 9999 OVC070/// M01/M04 Q1017=
201901170500 METAR LRTC 170500Z AUTO 13005KT 9999 BKN070/// M01/M04 Q1017=
201901170530 METAR LRTC 170530Z AUTO 18005KT 9999 FEW075/// M02/M05 Q1017=
201901170600 METAR LRTC 170600Z 15007KT CAVOK M02/M04 Q1017 R16/590892=
201901170630 METAR LRTC 170630Z 15005KT CAVOK M00/M04 Q1017 R16/590892=
201901170700 METAR LRTC 170700Z 15005KT CAVOK 00/M04 Q1017 R16/590892=
201901170730 METAR LRTC 170730Z 16005KT CAVOK 01/M03 Q1017 R16/590892=
201901170800 METAR LRTC 170800Z 15005KT CAVOK 02/M03 Q1018 R16/590892=
201901170830 METAR LRTC 170830Z 17007KT CAVOK 03/M02 Q1018 R16/590892=
201901170900 METAR LRTC 170900Z 16007KT CAVOK 04/M01 Q1018 R16/590892=
201901170930 METAR LRTC 170930Z 16009KT CAVOK 04/M00 Q1017 R16/590892=
201901171000 METAR LRTC 171000Z 15009KT CAVOK 05/M00 Q1017 R16/590892=
201901171030 METAR LRTC 171030Z 14009KT CAVOK 05/01 Q1016 R16/590892=
201901171100 METAR LRTC 171100Z 15009KT CAVOK 06/01 Q1016 R16/590892=
201901171130 METAR LRTC 171130Z 15009KT CAVOK 07/01 Q1015 R16/590892=
201901171200 METAR LRTC 171200Z 15011KT CAVOK 06/02 Q1015 R16/590892=
201901171230 METAR LRTC 171230Z 17010KT CAVOK 07/02 Q1015 R16/590892=
201901171300 METAR LRTC 171300Z 16010KT CAVOK 07/02 Q1015 R16/590892=
201901171330 METAR LRTC 171330Z 17009KT CAVOK 06/02 Q1015 R16/590892=
201901171400 METAR LRTC 171400Z 17009KT CAVOK 06/01 Q1015 R16/590892=
201901171430 METAR LRTC 171430Z 17009KT CAVOK 04/01 Q1015 R16/590892=
201901171500 METAR LRTC 171500Z 18008KT CAVOK 03/00 Q1014 R16/590892=
201901171530 METAR LRTC 171530Z 19006KT CAVOK 02/M00 Q1015 R16/590892=
201901171600 METAR LRTC 171600Z 13004KT 080V160 CAVOK 03/00 Q1015 R16/590892=
201901171630 METAR LRTC 171630Z 14004KT 110V170 CAVOK 03/01 Q1015 R16/590892=
201901171700 METAR LRTC 171700Z 14006KT CAVOK 03/01 Q1015 R16/590892=
201901171730 METAR LRTC 171730Z 14004KT CAVOK 02/00 Q1015 R16/590892=
201901171800 METAR LRTC 171800Z AUTO 15005KT 9999 NCD 02/01 Q1015=
201901171830 METAR LRTC 171830Z AUTO 15004KT 120V260 9999 NCD 02/M00 Q1014=
201901171900 METAR LRTC 171900Z AUTO 17004KT 140V230 9999 NCD 01/M01 Q1015=
201901171930 METAR LRTC 171930Z AUTO 16004KT 120V200 9999 NCD 03/00 Q1015=
201901172000 METAR LRTC 172000Z AUTO 18006KT 9999 NCD 03/M00 Q1015=
201901172030 METAR LRTC 172030Z AUTO 16006KT 9999 FEW240/// 02/M01 Q1014=
201901172100 METAR LRTC 172100Z AUTO 18009KT 9999 FEW240/// 02/M01 Q1014=
201901172130 METAR LRTC 172130Z AUTO 18007KT 9999 NCD 02/M01 Q1014=
201901172200 METAR LRTC 172200Z AUTO 21004KT 180V240 9999 NCD 03/M01 Q1014=
201901172230 METAR LRTC 172230Z AUTO 20006KT 9999 NCD 03/M02 Q1014=
201901172300 METAR LRTC 172300Z AUTO 18005KT 150V220 9999 NCD 02/M02 Q1014=
201901172330 METAR LRTC 172330Z AUTO 21009KT 9999 NCD 02/M01 Q1014=
201901180000 METAR LRTC 180000Z AUTO 22009KT 9999 NCD 02/M01 Q1014=
201901180030 METAR LRTC 180030Z AUTO 22010KT 9999 NCD 02/M01 Q1014=
201901180100 METAR LRTC 180100Z AUTO 15005KT 120V210 9999 NCD 02/M01 Q1014=
201901180130 METAR LRTC 180130Z AUTO 14005KT 070V230 9999 NCD 03/M01 Q1014=
201901180200 METAR LRTC 180200Z AUTO 06004KT 030V090 9999 NCD 02/M01 Q1014=
201901180230 METAR LRTC 180230Z AUTO VRB01KT 9999 NCD 02/M01 Q1014=
201901180300 METAR LRTC 180300Z AUTO 20004KT 150V240 9999 NCD 04/M01 Q1014=
201901180330 METAR LRTC 180330Z AUTO 23007KT 9999 NCD 03/M01 Q1014=
201901180400 METAR LRTC 180400Z AUTO 18005KT 110V230 9999 NCD 03/M01 Q1014=
201901180430 METAR LRTC 180430Z AUTO 22006KT 9999 NCD 02/M01 Q1014=
201901180500 METAR LRTC 180500Z AUTO 20003KT 160V230 9999 NCD 02/M01 Q1014=
201901180530 METAR LRTC 180530Z AUTO 19003KT 160V230 9999 NCD 01/M02 Q1014=
201901180600 METAR LRTC 180600Z VRB02KT CAVOK 02/M01 Q1014 R16/390194=
201901180630 METAR LRTC 180630Z 13002KT CAVOK 03/M01 Q1014 R16/390194=
201901180700 METAR LRTC 180700Z VRB01KT CAVOK 04/M01 Q1014 R16/390194=
201901180730 METAR LRTC 180730Z 10003KT 040V120 CAVOK 05/00 Q1015 R16/390194=
201901180800 METAR LRTC 180800Z 22003KT 170V260 CAVOK 07/00 Q1014 R16/390194=
201901180830 METAR LRTC 180830Z 19005KT 140V230 CAVOK 07/00 Q1014 R16/19//95=
201901180900 METAR LRTC 180900Z 19005KT 150V240 CAVOK 08/01 Q1014 R16/19//95=
201901180930 METAR LRTC 180930Z VRB03KT CAVOK 08/01 Q1014 R16/19//95=
201901181000 METAR LRTC 181000Z 19004KT 150V230 CAVOK 09/02 Q1014 R16/19//95=
201901181030 METAR LRTC 181030Z 24007KT CAVOK 10/02 Q1014 R16/19//95=
201901181100 METAR LRTC 181100Z 23007KT 200V260 CAVOK 10/02 Q1013 R16/19//95=
201901181130 METAR LRTC 181130Z 25011KT CAVOK 09/01 Q1013 R16/19//95=
201901181200 METAR LRTC 181200Z 24009KT CAVOK 09/01 Q1013 R16/19//95=
201901181230 METAR LRTC 181230Z 23008KT CAVOK 09/01 Q1013 R16/19//95=
201901181300 METAR LRTC 181300Z 25004KT CAVOK 10/01 Q1013 R16/19//95=
201901181330 METAR LRTC 181330Z VRB02KT CAVOK 10/00 Q1013 R16/19//95=
201901181400 METAR LRTC 181400Z 21005KT CAVOK 09/00 Q1013 R16/19//95=
201901181430 METAR LRTC 181430Z 18006KT 150V210 CAVOK 08/M00 Q1013 R16/19//95=
201901181500 METAR LRTC 181500Z 21009KT CAVOK 05/M01 Q1013 R16/19//95=
201901181530 METAR LRTC 181530Z 18003KT 130V270 CAVOK 05/M01 Q1013 R16/19//95=
201901181600 METAR LRTC 181600Z 19002KT CAVOK 06/M01 Q1013 R16/19//95=
201901181630 METAR LRTC 181630Z VRB02KT CAVOK 04/M01 Q1013 R16/19//95=
201901181700 METAR LRTC 181700Z 17004KT CAVOK 04/M01 Q1013 R16/19//95=
201901181730 METAR LRTC 181730Z 20008KT CAVOK 05/00 Q1013 R16/19//95=
201901181800 METAR LRTC 181800Z AUTO 19005KT 9999 SCT240/// 04/M00 Q1013=
201901181830 METAR LRTC 181830Z AUTO 16005KT 9999 FEW220/// 04/00 Q1013=
201901181900 METAR LRTC 181900Z AUTO 09003KT 9999 NCD 05/00 Q1013=
201901181930 METAR LRTC 181930Z AUTO 10004KT 9999 FEW220/// 04/M00 Q1013=
201901182000 METAR LRTC 182000Z AUTO 13002KT 090V190 9999 BKN200/// 04/M00
                        Q1013=
201901182030 METAR LRTC 182030Z AUTO 25003KT 9999 SCT200/// 04/M01 Q1013=
201901182100 METAR LRTC 182100Z AUTO 23009KT 9999 SCT180/// 03/M01 Q1013=
201901182130 METAR LRTC 182130Z AUTO 24012KT 9999 BKN160/// 04/M01 Q1013=
201901182200 METAR LRTC 182200Z AUTO 36005KT 9999 BKN160/// 04/M02 Q1014=
201901182230 METAR LRTC 182230Z AUTO VRB03KT 9999 BKN160/// 06/M02 Q1014=
201901182300 METAR LRTC 182300Z AUTO 25008KT 230V300 9999 SCT170/// 03/M02
                        Q1014=
201901182330 METAR LRTC 182330Z AUTO 33011KT 300V360 9999 NCD 03/M01 Q1015=
201901190000 METAR LRTC 190000Z AUTO 33008KT 9000 NCD 02/M01 Q1015=
201901190030 METAR LRTC 190030Z AUTO 34011KT 9000 NCD 02/M01 Q1015=
201901190100 METAR LRTC 190100Z AUTO 33016KT 8000 NCD 02/M01 Q1016=
201901190130 METAR LRTC 190130Z AUTO 33020KT 8000 NCD 02/M00 Q1016=
201901190200 METAR LRTC 190200Z AUTO 33020KT 9000 NCD 02/M00 Q1016=
201901190230 METAR LRTC 190230Z AUTO 33019KT 9999 NCD 02/M00 Q1017=
201901190300 METAR LRTC 190300Z AUTO 33019KT 9999 NCD 02/M00 Q1017=
201901190330 METAR LRTC 190330Z AUTO 33017KT 9999 NCD 01/M00 Q1017=
201901190400 METAR LRTC 190400Z AUTO 33019KT 9999 NCD 01/M01 Q1017=
201901190430 METAR LRTC 190430Z AUTO 34017KT 9999 NCD 01/M01 Q1018=
201901190500 METAR LRTC 190500Z AUTO 34015KT 9999 NCD 01/M01 Q1019=
201901190530 METAR LRTC 190530Z AUTO 34011KT 9999 SCT075/// 01/M01 Q1019=
201901190600 METAR LRTC 190600Z 34007KT CAVOK 01/M01 Q1020=
201901190630 METAR LRTC 190630Z 34009KT CAVOK 01/M01 Q1020=
201901190700 METAR LRTC 190700Z 35009KT CAVOK 02/M01 Q1021=
201901190730 METAR LRTC 190730Z 35010KT CAVOK 02/M01 Q1021=
201901190800 METAR LRTC 190800Z 35010KT CAVOK 02/M01 Q1021=
201901190830 METAR LRTC 190830Z 34010KT CAVOK 02/M00 Q1022=
201901190900 METAR LRTC 190900Z 33010KT CAVOK 02/M00 Q1022=
201901190930 METAR LRTC 190930Z 34010KT CAVOK 02/M01 Q1023=
201901191000 METAR LRTC 191000Z 34009KT CAVOK 02/M01 Q1023=
201901191030 METAR LRTC 191030Z 34009KT CAVOK 02/M01 Q1023=
201901191100 METAR LRTC 191100Z 35008KT CAVOK 02/M01 Q1023=
201901191130 METAR LRTC 191130Z 35009KT CAVOK 02/M02 Q1023=
201901191200 METAR LRTC 191200Z 34008KT CAVOK 02/M02 Q1023=
201901191230 METAR LRTC 191230Z 35007KT CAVOK 02/M03 Q1023=
201901191300 METAR LRTC 191300Z 36006KT CAVOK 02/M04 Q1023=
201901191330 METAR LRTC 191330Z 36008KT CAVOK 02/M05 Q1023=
201901191400 METAR LRTC 191400Z 01007KT CAVOK 01/M04 Q1023=
201901191430 METAR LRTC 191430Z 01007KT CAVOK 01/M04 Q1024=
201901191500 METAR LRTC 191500Z 36006KT CAVOK 01/M04 Q1024=
201901191530 METAR LRTC 191530Z 02008KT CAVOK 01/M04 Q1024=
201901191600 METAR LRTC 191600Z 35004KT CAVOK 01/M04 Q1024=
201901191630 METAR LRTC 191630Z 01008KT CAVOK 01/M03 Q1024=
201901191700 METAR LRTC 191700Z 01007KT CAVOK 01/M03 Q1024=
201901191730 METAR LRTC 191730Z 01005KT CAVOK 01/M03 Q1025=
201901191800 METAR LRTC 191800Z AUTO 02007KT 9999 SCT060/// OVC075///
                        01/M03 Q1025=
201901191830 METAR LRTC 191830Z AUTO 01004KT 9999 BKN055/// BKN075///
                        01/M03 Q1025=
201901191900 METAR LRTC 191900Z AUTO 02006KT 9999 SCT050/// OVC065///
                        01/M03 Q1025=
201901191930 METAR LRTC 191930Z AUTO 02006KT 9999 BKN055/// OVC070///
                        01/M03 Q1025=
201901192000 METAR LRTC 192000Z AUTO 01008KT 9999 OVC048/// 01/M03 Q1025=
201901192030 METAR LRTC 192030Z AUTO 36003KT 340V040 9999 BKN045/// BKN070///
                        00/M03 Q1025=
201901192100 METAR LRTC 192100Z AUTO 06005KT 040V100 9999 OVC044/// 01/M03
                        Q1025=
201901192130 METAR LRTC 192130Z AUTO 05005KT 9999 OVC044/// 01/M03 Q1025=
201901192200 METAR LRTC 192200Z AUTO 02003KT 9999 BKN042/// OVC049///
                        01/M03 Q1024=
201901192230 METAR LRTC 192230Z AUTO 36004KT 9999 FEW041/// BKN049///
                        BKN110/// 00/M03 Q1024=
201901192300 METAR LRTC 192300Z AUTO 36004KT 9999 FEW020/// BKN041///
                        OVC050/// 01/M03 Q1024=
201901192330 METAR LRTC 192330Z AUTO 36005KT 9999 FEW020/// OVC049///
                        01/M03 Q1024=
201901200000 METAR LRTC 200000Z AUTO 03003KT 340V070 9999 BKN018/// OVC024///
                        01/M02 Q1023=
201901200030 METAR LRTC 200030Z AUTO 02001KT 9999 BKN017/// BKN020///
                        OVC025/// 01/M03 Q1024=
201901200100 METAR LRTC 200100Z AUTO 01003KT 340V080 9999 BKN018/// OVC023///
                        01/M02 Q1023=
201901200130 METAR LRTC 200130Z AUTO 03002KT 360V070 9999 OVC018/// 01/M02
                        Q1023=
201901200200 METAR LRTC 200200Z AUTO 09002KT 9999 BKN018/// OVC030///
                        01/M02 Q1023=
201901200230 METAR LRTC 200230Z AUTO 30004KT 250V330 9999 SCT017/// BKN021///
                        OVC031/// 01/M02 Q1023=
201901200300 METAR LRTC 200300Z AUTO 04003KT 010V070 9999 FEW017/// OVC024///
                        01/M02 Q1022=
201901200330 METAR LRTC 200330Z AUTO 08004KT 9999 FEW020/// OVC026///
                        01/M01 Q1022=
201901200400 METAR LRTC 200400Z AUTO 10006KT 070V130 9999 OVC020/// 02/M01
                        Q1022=
201901200430 METAR LRTC 200430Z AUTO 12005KT 070V170 9999 OVC019/// 02/M01
                        Q1021=
201901200500 METAR LRTC 200500Z AUTO 15006KT 120V180 9999 OVC019/// 03/M00
                        Q1021=
201901200530 METAR LRTC 200530Z AUTO 16005KT 080V210 9999 BKN017/// OVC020///
                        03/M00 Q1021=
201901200600 METAR LRTC 200600Z 15005KT 090V260 9999 OVC017 03/00 Q1021=
201901200630 METAR LRTC 200630Z 16003KT 120V200 9999 OVC016 02/M00 Q1020=
201901200700 METAR LRTC 200700Z 14004KT 090V190 9999 OVC016 03/00 Q1021=
201901200730 METAR LRTC 200730Z 12007KT 080V150 9999 OVC014 03/01 Q1021=
201901200800 METAR LRTC 200800Z 12007KT 090V150 9999 OVC014 03/01 Q1021=
201901200830 METAR LRTC 200830Z 19004KT 160V220 9999 OVC012 03/01 Q1021=
201901200900 METAR LRTC 200900Z 14005KT 110V190 6000 -DZ OVC010 03/02
                        Q1020=
201901200930 METAR LRTC 200930Z 14007KT 9999 SCT012 BKN015 03/02 Q1020=
201901201000 METAR LRTC 201000Z 13008KT 110V170 9999 OVC013 04/02 Q1019=
201901201030 METAR LRTC 201030Z 13009KT 6000 -DZ FEW011 OVC013 04/03 Q1019=
201901201100 METAR LRTC 201100Z 12008KT 9999 OVC012 05/03 Q1018=
201901201130 METAR LRTC 201130Z 12008KT 9999 OVC010 05/03 Q1018=
201901201200 METAR LRTC 201200Z 13010KT 9999 OVC011 05/03 Q1018=
201901201230 METAR LRTC 201230Z 13011KT 9999 SCT012 BKN015 05/04 Q1017=
201901201300 METAR LRTC 201300Z 13010KT 9999 BKN014 05/04 Q1017=
201901201330 METAR LRTC 201330Z 14011KT 9999 OVC013 05/04 Q1016=
201901201400 METAR LRTC 201400Z 13011KT 9999 OVC011 05/04 Q1016=
201901201430 METAR LRTC 201430Z 13011KT 9999 OVC011 05/04 Q1016=
201901201500 METAR LRTC 201500Z 13012KT 9999 OVC010 05/04 Q1016=
201901201530 METAR LRTC 201530Z 13011KT 8000 OVC009 05/04 Q1015=
201901201600 METAR LRTC 201600Z 12010KT 7000 OVC010 04/03 Q1015=
201901201630 METAR LRTC 201630Z 13008KT 7000 OVC008 05/04 Q1015=
201901201700 METAR LRTC 201700Z 14007KT 5000 BR OVC005 05/04 Q1015=
201901201730 METAR LRTC 201730Z 14003KT 120V190 4000 BR OVC004 05/04 Q1015=
201901201800 METAR LRTC 201800Z AUTO 18004KT 0800 R34/0800V1200D FG VV002
                        04/04 Q1015=
201901201830 METAR LRTC 201830Z AUTO 20006KT 0450 R34/0550N DZ VV001 04/04
                        Q1014=
201901201900 METAR LRTC 201900Z AUTO 21005KT 0450 R34/0550N -RA SCT002///
                        BKN004/// 04/04 Q1014=
201901201930 METAR LRTC 201930Z AUTO 15007KT 1100 R34/0800V1600U -RA SCT003///
                        BKN005/// 05/05 Q1014=
201901202000 METAR LRTC 202000Z AUTO 17005KT 140V210 1100 R34/0800V1400D
                        -RA BKN005/// OVC007/// 05/04 Q1014=
201901202030 METAR LRTC 202030Z AUTO 22006KT 0750 R34/0900U -RA BKN004///
                        BKN006/// 04/04 Q1014=
201901202100 METAR LRTC 202100Z AUTO 18007KT 1500 R34/1700U DZ SCT003///
                        OVC005/// 05/05 Q1014=
201901202130 METAR LRTC 202130Z AUTO 16006KT 1000 R34/1200N FG FEW003///
                        BKN007/// BKN019/// 05/04 Q1014=
201901202200 METAR LRTC 202200Z AUTO 16005KT 1300 R34/1200VP2000U FG FEW011///
                        SCT021/// BKN031/// 05/05 Q1013=
201901202230 METAR LRTC 202230Z AUTO 18003KT 140V200 1900 R34/1600VP2000U
                        FEW012/// BKN030/// 05/04 Q1013=
201901202300 METAR LRTC 202300Z AUTO 17002KT 140V200 2500 FEW009/// SCT012///
                        BKN027/// 05/05 Q1013=
201901202330 METAR LRTC 202330Z AUTO 20004KT 150V290 4500 BR FEW006///
                        BKN008/// BKN011/// 06/05 Q1013=
201901210000 METAR LRTC 210000Z AUTO 21009KT 2900 BR SCT007/// BKN009///
                        05/04 Q1013=
201901210030 METAR LRTC 210030Z AUTO 26016KT 3200 R34/2000 BR FEW004///
                        SCT006/// BKN008/// 04/04 Q1013=
201901210100 METAR LRTC 210100Z AUTO 25015KT 4600 BR BKN004/// OVC007///
                        04/03 Q1013=
201901210130 METAR LRTC 210130Z AUTO 26014KT 3400 R34/2000 BR BKN003///
                        OVC005/// 03/02 Q1013=
201901210200 METAR LRTC 210200Z AUTO 29008KT 250V330 5000 BR BKN004///
                        OVC006/// 03/02 Q1014=
201901210230 METAR LRTC 210230Z AUTO 28013KT 3700 BR BKN003/// OVC005///
                        02/02 Q1014=
201901210300 METAR LRTC 210300Z AUTO 27011KT 2600 BR BKN002/// OVC004///
                        02/02 Q1014=
201901210330 METAR LRTC 210330Z AUTO 26012KT 1700 R34/1900D FG OVC001///
                        02/01 Q1014=
201901210400 METAR LRTC 210400Z AUTO 29012KT 3900 BKN002/// OVC005///
                        02/02 Q1015=
201901210430 METAR LRTC 210430Z AUTO 31019KT 9999 FEW002/// BKN010///
                        OVC014/// 01/00 Q1015=
201901210500 METAR LRTC 210500Z AUTO 31017KT 9999 FEW009/// OVC015///
                        01/M00 Q1016=
201901210530 METAR LRTC 210530Z AUTO 31018KT 9999 BKN015/// BKN018///
                        01/M01 Q1016=
201901210600 METAR LRTC 210600Z 32017KT 9999 BKN011 SCT024 00/M01 Q1016
                        R16/19//95=
201901210630 METAR LRTC 210630Z 31015KT 9999 BKN011 SCT026 00/M01 Q1017
                        R16/19//95=
201901210700 METAR LRTC 210700Z 31013KT 9999 BKN011 BKN014 00/M01 Q1018
                        R16/19//95=
201901210730 METAR LRTC 210730Z 32013KT 9999 BKN012 00/M01 Q1018 R16/19//95=
201901210800 METAR LRTC 210800Z 31015KT 9999 BKN011 BKN014 00/M02 Q1018
                        R16/19//95=
201901210830 METAR LRTC 210830Z 33013KT 9999 OVC012 00/M02 Q1019 R16/19//95=
201901210900 METAR LRTC 210900Z 33015KT 9999 SCT012 BKN016 01/M01 Q1019
                        R16/19//95=
201901210930 METAR LRTC 210930Z 33018KT 9999 SCT014 SCT044 02/M01 Q1019
                        R16/19//95=
201901211000 METAR LRTC 211000Z 32019KT 9999 BKN014 SCT046 01/M03 Q1019
                        R16/19//95=
201901211030 METAR LRTC 211030Z 33017KT 9999 SCT015 BKN019 00/M03 Q1020
                        R16/19//95=
201901211100 METAR LRTC 211100Z 34017KT 9999 BKN014 SCT017 00/M03 Q1020
                        R16/19//95=
201901211130 METAR LRTC 211130Z 33017KT 9999 BKN015 01/M03 Q1020 R16/19//95=
201901211200 METAR LRTC 211200Z 34016KT 9999 BKN015 01/M03 Q1020 R16/CLRD//=
201901211230 METAR LRTC 211230Z 34018KT 9000 BKN016 01/M03 Q1020=
201901211300 METAR LRTC 211300Z 35016KT 9999 BKN018 01/M04 Q1020=
201901211330 METAR LRTC 211330Z 34014KT 9999 OVC017 M00/M04 Q1021=
201901211400 METAR LRTC 211400Z 33014KT 9999 OVC016 M00/M04 Q1021=
201901211430 METAR LRTC 211430Z 36014KT 9999 BKN017 M00/M04 Q1021=
201901211500 METAR LRTC 211500Z 35012KT 9999 OVC018 M00/M04 Q1022=
201901211530 METAR LRTC 211530Z 34011KT 9999 OVC019 M00/M04 Q1022=
201901211600 METAR LRTC 211600Z 34010KT 9999 OVC019 M00/M04 Q1022=
201901211630 METAR LRTC 211630Z 34009KT 9999 OVC019 M00/M04 Q1022=
201901211700 METAR LRTC 211700Z 34009KT 9999 OVC020 M00/M04 Q1023=
201901211730 METAR LRTC 211730Z 35009KT 9999 OVC021 M00/M04 Q1023=
201901211800 METAR LRTC 211800Z AUTO 34010KT 9999 OVC021/// M00/M04 Q1023=
201901211830 METAR LRTC 211830Z AUTO 34009KT 9999 OVC021/// M00/M04 Q1023=
201901211900 METAR LRTC 211900Z AUTO 35008KT 9999 OVC021/// M00/M05 Q1023=
201901211930 METAR LRTC 211930Z AUTO 34008KT 9999 OVC024/// M00/M04 Q1023=
201901212000 METAR LRTC 212000Z AUTO 35008KT 9999 BKN023/// M01/M04 Q1023=
201901212030 METAR LRTC 212030Z AUTO 36009KT 9999 BKN022/// M01/M05 Q1024=
201901212100 METAR LRTC 212100Z AUTO 01011KT 9999 BKN020/// BKN025///
                        M01/M05 Q1024=
201901212130 METAR LRTC 212130Z AUTO 01008KT 9999 BKN025/// M02/M05 Q1024=
201901212200 METAR LRTC 212200Z AUTO 01008KT 9999 NCD M02/M05 Q1024=
201901212230 METAR LRTC 212230Z AUTO 36006KT 9999 NCD M03/M05 Q1024=
201901212300 METAR LRTC 212300Z AUTO 01007KT 9999 NCD M03/M05 Q1023=
201901212330 METAR LRTC 212330Z AUTO 01003KT 9999 NCD M03/M05 Q1024=
201901220000 METAR LRTC 220000Z AUTO 35005KT 9999 NCD M04/M06 Q1024=
201901220030 METAR LRTC 220030Z AUTO 36004KT 9999 NCD M03/M06 Q1024=
201901220100 METAR LRTC 220100Z AUTO 36003KT 9999 SCT230/// M03/M06 Q1024=
201901220130 METAR LRTC 220130Z AUTO 01005KT 9999 BKN220/// M03/M06 Q1023=
201901220200 METAR LRTC 220200Z AUTO 36005KT 9999 SCT210/// M04/M06 Q1023=
201901220230 METAR LRTC 220230Z AUTO 35004KT 9999 BKN200/// M04/M06 Q1023=
201901220300 METAR LRTC 220300Z AUTO 36005KT 9999 BKN170/// M03/M05 Q1023=
201901220330 METAR LRTC 220330Z AUTO 01006KT 9000 BKN150/// M03/M05 Q1023=
201901220400 METAR LRTC 220400Z AUTO 01005KT 9000 BKN140/// BKN180///
                        M03/M05 Q1023=
201901220430 METAR LRTC 220430Z AUTO 36005KT 9999 SCT140/// BKN180///
                        M03/M05 Q1023=
201901220500 METAR LRTC 220500Z AUTO 31002KT 280V350 9000 BKN021/// BKN190///
                        M03/M05 Q1023=
201901220530 METAR LRTC 220530Z AUTO VRB01KT 9000 SCT021/// BKN120///
                        M03/M05 Q1023=
201901220600 METAR LRTC 220600Z 32003KT 280V350 9000 FEW021 M04/M05 Q1022
                        R16/CLRD//=
201901220630 METAR LRTC 220630Z VRB01KT 9999 FEW021 M03/M05 Q1023=
201901220700 METAR LRTC 220700Z 04003KT 360V080 CAVOK M02/M05 Q1022=
201901220730 METAR LRTC 220730Z VRB01KT CAVOK M02/M04 Q1022=
201901220800 METAR LRTC 220800Z VRB02KT 9999 SCT049 M01/M04 Q1022=
201901220830 METAR LRTC 220830Z VRB02KT 9999 SCT025 BKN049 M01/M04 Q1022=
201901220900 METAR LRTC 220900Z 10004KT 080V140 9999 BKN025 M01/M03 Q1022=
201901220930 METAR LRTC 220930Z 19003KT 150V230 9999 OVC024 M01/M03 Q1022=
201901221000 METAR LRTC 221000Z 11003KT 070V140 9999 OVC023 M00/M04 Q1021=
201901221030 METAR LRTC 221030Z VRB02KT 9999 OVC023 M00/M04 Q1021=
201901221100 METAR LRTC 221100Z 09002KT 9999 OVC023 M00/M04 Q1020=
201901221130 METAR LRTC 221130Z VRB02KT 9999 OVC023 M00/M03 Q1020=
201901221200 METAR LRTC 221200Z VRB01KT 9999 SCT023 BKN026 M00/M03 Q1020=
201901221230 METAR LRTC 221230Z VRB01KT 9999 SCT023 BKN027 00/M03 Q1019=
201901221300 METAR LRTC 221300Z 06003KT 040V100 9999 OVC026 00/M03 Q1019=
201901221330 METAR LRTC 221330Z 07006KT 9999 SCT026 BKN043 00/M02 Q1018=
201901221400 METAR LRTC 221400Z 09007KT 9999 SCT032 BKN046 01/M02 Q1018=
201901221430 METAR LRTC 221430Z 10007KT 9999 SCT024 BKN033 01/M02 Q1017=
201901221500 METAR LRTC 221500Z 14003KT 100V210 9999 BKN024 01/M02 Q1017=
201901221530 METAR LRTC 221530Z 05004KT 010V090 9999 OVC025 01/M02 Q1017=
201901221600 METAR LRTC 221600Z 09004KT 070V130 9999 OVC024 01/M01 Q1017=
201901221630 METAR LRTC 221630Z 08010KT 9999 OVC025 01/M01 Q1016=
201901221700 METAR LRTC 221700Z 09008KT 9999 OVC025 01/M01 Q1016=
201901221730 METAR LRTC 221730Z 10009KT 9999 OVC026 01/M01 Q1015=
201901221800 METAR LRTC 221800Z AUTO 11009KT 9999 OVC026/// 02/M01 Q1015=
201901221830 METAR LRTC 221830Z AUTO 12010KT 9999 OVC025/// 02/M00 Q1015=
201901221900 METAR LRTC 221900Z AUTO 12007KT 9999 OVC024/// 02/M00 Q1014=
201901221930 METAR LRTC 221930Z AUTO 13009KT 8000 -RA SCT024/// BKN032///
                        BKN038/// 02/M00 Q1014=
201901222000 METAR LRTC 222000Z AUTO 12009KT 9999 BKN027/// BKN032///
                        02/00 Q1013 RERA=
201901222030 METAR LRTC 222030Z AUTO 13011KT 9999 BKN023/// OVC030///
                        03/01 Q1013 RERA=
201901222100 METAR LRTC 222100Z AUTO 12010KT 9999 OVC023/// 02/01 Q1013=
201901222130 METAR LRTC 222130Z AUTO 12007KT 9999 SCT020/// OVC025///
                        03/01 Q1013=
201901222200 METAR LRTC 222200Z AUTO 12007KT 9999 OVC023/// 02/01 Q1012=
201901222230 METAR LRTC 222230Z AUTO 15007KT 9999 OVC021/// 03/02 Q1012=
201901222300 METAR LRTC 222300Z AUTO 14009KT 9999 OVC020/// 04/02 Q1011=
201901222330 METAR LRTC 222330Z AUTO 14012KT 9999 BKN018/// OVC021///
                        04/02 Q1011=
201901230000 METAR LRTC 230000Z AUTO 14013KT 9999 OVC018/// 04/02 Q1010=
201901230030 METAR LRTC 230030Z AUTO 14017KT 9999 BKN017/// OVC020///
                        04/02 Q1010=
201901230100 METAR LRTC 230100Z AUTO 14015KT 9999 BKN017/// OVC020///
                        04/02 Q1009=
201901230130 METAR LRTC 230130Z AUTO 14015KT 9999 BKN017/// BKN021///
                        04/02 Q1009=
201901230200 METAR LRTC 230200Z AUTO 15015KT 9999 OVC017/// 04/02 Q1008=
201901230230 METAR LRTC 230230Z AUTO 14016KT 9999 BKN017/// 05/03 Q1007=
201901230300 METAR LRTC 230300Z AUTO 13014KT 9999 OVC017/// 05/03 Q1007=
201901230330 METAR LRTC 230330Z AUTO 13013KT 9999 BKN016/// 05/03 Q1007=
201901230400 METAR LRTC 230400Z AUTO 13013KT 9999 OVC016/// 05/03 Q1006=
201901230430 METAR LRTC 230430Z AUTO 11011KT 7000 DZ SCT009/// BKN011///
                        04/03 Q1006=
201901230500 METAR LRTC 230500Z AUTO 12012KT 4600 RA FEW008/// SCT010///
                        BKN013/// 04/03 Q1005=
201901230530 METAR LRTC 230530Z AUTO 13014KT 4900 RA FEW010/// BKN014///
                        05/04 Q1005=
201901230600 METAR LRTC 230600Z 15013KT 4500 -RA BR BKN010 BKN014 05/05
                        Q1005 R16/29//95=
201901230630 METAR LRTC 230630Z 14005KT 3200 -RA BR BKN007 BKN010 05/04
                        Q1005 R16/29//95=
201901230700 METAR LRTC 230700Z 15008KT 2000 -RA BR SCT007 BKN010 05/05
                        Q1005 R16/29//95=
201901230730 METAR LRTC 230730Z 17008KT 0800 R34/1100 -RA FG BKN007 BKN010
                        05/05 Q1004 R16/29//95=
201901230800 METAR LRTC 230800Z 22003KT 170V270 0200 R34/1200 -RADZ FG
                        SCT005 OVC007 05/04 Q1004 R16/29//95=
201901230830 METAR LRTC 230830Z 19004KT 160V280 0800 R34/1800 -RADZ FG
                        BKN003 BKN005 05/05 Q1004 R16/29//95=
201901230900 METAR LRTC 230900Z 18005KT 2300 BR SCT001 BKN003 06/05 Q1004
                        R16/29//95=
201901230930 METAR LRTC 230930Z 18008KT 4100 BR FEW001 SCT012 07/07 Q1003
                        R16/29//95=
201901231000 METAR LRTC 231000Z 19012KT 9000 FEW008 SCT018 08/07 Q1003
                        R16/29//95=
201901231030 METAR LRTC 231030Z 22015KT 9999 SCT016 08/06 Q1003 R16/29//95=
201901231100 METAR LRTC 231100Z 23014KT 9999 SCT015 08/06 Q1002 R16/29//95=
201901231130 METAR LRTC 231130Z 23016KT 9999 SCT021 08/06 Q1002 R16/29//95=
201901231200 METAR LRTC 231200Z 22014KT 9999 SCT022 09/06 Q1002 R16/29//95=
201901231230 METAR LRTC 231230Z 23012KT 9999 FEW024 09/06 Q1002 R16/29//95=
201901231300 METAR LRTC 231300Z 24010KT 9999 FEW024 09/06 Q1003 R16/29//95=
201901231330 METAR LRTC 231330Z 23010KT CAVOK 08/06 Q1003 R16/29//95=
201901231400 METAR LRTC 231400Z 24011KT 9999 FEW018 07/05 Q1002 R16/29//95=
201901231430 METAR LRTC 231430Z 22006KT CAVOK 07/04 Q1003 R16/29//95=
201901231500 METAR LRTC 231500Z 17004KT 130V220 CAVOK 07/04 Q1003 R16/29//95=
201901231530 METAR LRTC 231530Z 21009KT 180V240 CAVOK 07/04 Q1003 R16/29//95=
201901231600 METAR LRTC 231600Z 30008KT CAVOK 04/03 Q1004 R16/29//95=
201901231630 METAR LRTC 231630Z 30003KT 280V010 CAVOK 04/03 Q1004 R16/29//95=
201901231700 METAR LRTC 231700Z 21004KT 170V230 9999 2500N BCFG NSC 04/03
                        Q1004 R16/29//95=
201901231730 METAR LRTC 231730Z 29005KT 4500 2000N BR NSC 03/02 Q1004
                        R16/29//95=
201901231800 METAR LRTC 231800Z AUTO 35008KT 1200 R34/1100VP2000D FG BKN190///
                        01/01 Q1004=
201901231830 METAR LRTC 231830Z AUTO 36008KT 0550 R34/0700N SG VV001 01/01
                        Q1004=
201901231900 METAR LRTC 231900Z AUTO 36010KT 0500 R34/0600N SG VV001 01/01
                        Q1004=
201901231930 METAR LRTC 231930Z AUTO 35009KT 0550 R34/0650N SG VV001 02/01
                        Q1004=
201901232000 METAR LRTC 232000Z AUTO 36009KT 0700 R34/0800N SG VV002 01/01
                        Q1004=
201901232030 METAR LRTC 232030Z AUTO 36005KT 0900 R34/1100U FG VV002 01/01
                        Q1005=
201901232100 METAR LRTC 232100Z AUTO 36007KT 0800 R34/1000N FG VV002 02/01
                        Q1005=
201901232130 METAR LRTC 232130Z AUTO 36008KT 1200 R34/1400N -DZ VV002
                        02/01 Q1004=
201901232200 METAR LRTC 232200Z AUTO 36009KT 1100 R34/1300N -SN VV002
                        02/02 Q1005=
201901232230 METAR LRTC 232230Z AUTO 36007KT 1100 R34/1300N -RA VV002
                        02/02 Q1005=
201901232300 METAR LRTC 232300Z AUTO 35007KT 1100 R34/1300N -RA VV002
                        02/02 Q1005=
201901232330 METAR LRTC 232330Z AUTO 36006KT 1300 R34/1400N -RA VV002
                        02/02 Q1005=
201901240000 METAR LRTC 240000Z AUTO 36007KT 1700 R34/1900U -RA VV002
                        02/02 Q1004=
201901240030 METAR LRTC 240030Z AUTO 36006KT 3900 DZ FEW001/// SCT006///
                        OVC010/// 02/02 Q1005=
201901240100 METAR LRTC 240100Z AUTO 35006KT 2400 DZ FEW004/// SCT006///
                        OVC009/// 02/02 Q1004=
201901240130 METAR LRTC 240130Z AUTO 35004KT 1600 R34/1800D DZ FEW002///
                        OVC004/// 02/02 Q1004=
201901240200 METAR LRTC 240200Z AUTO 35005KT 1800 DZ OVC004/// 02/02 Q1004=
201901240230 METAR LRTC 240230Z AUTO 35006KT 1800 R34/2000D FG SCT002///
                        OVC004/// 02/02 Q1004=
201901240300 METAR LRTC 240300Z AUTO 35008KT 1200 R34/1400N -SHRA VV002
                        02/02 Q1004=
201901240330 METAR LRTC 240330Z AUTO 35009KT 1500 R34/1700U -SHRA VV002
                        02/02 Q1004=
201901240400 METAR LRTC 240400Z AUTO 34010KT 2800 -RA OVC002/// 02/02
                        Q1004=
201901240430 METAR LRTC 240430Z AUTO 34009KT 2900 RA BKN002/// OVC004///
                        02/01 Q1004=
201901240500 METAR LRTC 240500Z AUTO 35008KT 2200 -RA OVC002/// 01/01
                        Q1004=
201901240530 METAR LRTC 240530Z AUTO 35012KT 2800 DZ BKN002/// OVC004///
                        02/01 Q1004=
201901240600 METAR LRTC 240600Z 35011KT 1500 BR OVC003 02/01 Q1004 R16/29//95=
201901240630 METAR LRTC 240630Z 34011KT 0600 R34/1400N FG OVC002 02/02
                        Q1004 R16/29//95=
201901240700 METAR LRTC 240700Z 34012KT 0700 R34/1400N -RA FG OVC002 02/02
                        Q1004 R16/29//95=
201901240730 METAR LRTC 240730Z 34013KT 0700 R34/1400N FG OVC002 02/02
                        Q1004 R16/29//95=
201901240800 METAR LRTC 240800Z 35012KT 0500 R34/1200N -RA FG OVC002 02/02
                        Q1004 R16/29//95=
201901240830 METAR LRTC 240830Z 35013KT 0800 R34/1500U -RA FG OVC002 02/02
                        Q1004 R16/29//95=
201901240900 METAR LRTC 240900Z 35014KT 1600 BR OVC003 02/02 Q1004 R16/29//95=
201901240930 METAR LRTC 240930Z 33014KT 0700 R34/1500D FG OVC003 02/02
                        Q1004 R16/29//95=
201901241000 METAR LRTC 241000Z 34014KT 0400 R34/0900D -RA FG OVC001 02/02
                        Q1004 R16/29//95=
201901241030 METAR LRTC 241030Z 34015KT 0400 R34/0800N -DZ FG VV002 03/03
                        Q1004 R16/29//95=
201901241100 METAR LRTC 241100Z 34017KT 0400 R34/1000U FG VV002 03/03
                        Q1004 R16/29//95=
201901241130 METAR LRTC 241130Z 34017KT 0500 R34/0900N -RA FG OVC002 03/03
                        Q1004 R16/29//95=
201901241200 METAR LRTC 241200Z 34017KT 0600 R34/1300D -RADZ FG OVC002
                        03/02 Q1004 R16/29//95=
201901241230 METAR LRTC 241230Z 35018KT 0800 R34/1300N FG OVC002 03/03
                        Q1003 R16/29//95=
201901241300 METAR LRTC 241300Z 35017KT 0700 R34/1500U FG OVC001 03/03
                        Q1004 R16/29//95=
201901241330 METAR LRTC 241330Z 36018KT 0800 R34/1600N FG OVC001 02/02
                        Q1003 R16/29//95=
201901241400 METAR LRTC 241400Z 36013KT 1000 R34/1800U BR OVC001 02/02
                        Q1004 R16/29//95=
201901241430 METAR LRTC 241430Z 36012KT 1300 R34/2000N BR OVC002 02/02
                        Q1004 R16/29//95=
201901241500 METAR LRTC 241500Z 35011KT 1500 BR OVC002 02/01 Q1004 R16/29//95=
201901241530 METAR LRTC 241530Z 36011KT 1000 R34/P2000 BR OVC002 02/01
                        Q1005 R16/29//95=
201901241600 METAR LRTC 241600Z 01012KT 1300 R34/P2000 BR SCT001 BKN003
                        02/01 Q1005 R16/29//95=
201901241630 METAR LRTC 241630Z 01012KT 1000 R34/P2000 BR OVC002 02/02
                        Q1005 R16/29//95=
201901241700 METAR LRTC 241700Z 36014KT 0800 R34/1900D FG OVC002 02/02
                        Q1005 R16/29//95=
201901241730 METAR LRTC 241730Z 01016KT 0800 R34/1900N FG OVC002 02/02
                        Q1005 R16/29//95=
201901241800 METAR LRTC 241800Z AUTO 01018KT 1700 R34/1800D FG BKN001///
                        BKN003/// 02/01 Q1006=
201901241830 METAR LRTC 241830Z AUTO 01020KT 1500 R34/1600U FG OVC001///
                        02/01 Q1006=
201901241900 METAR LRTC 241900Z AUTO 36018KT 1200 R34/1400N FG BKN001///
                        01/01 Q1006=
201901241930 METAR LRTC 241930Z AUTO 01018KT 1200 R34/1400N -SN OVC001///
                        01/01 Q1006=
201901242000 METAR LRTC 242000Z AUTO 01014KT 1400 R34/1500N FG BKN001///
                        01/01 Q1006=
201901242030 METAR LRTC 242030Z AUTO 01015KT 1600 R34/1700N FG OVC002///
                        01/01 Q1007=
201901242100 METAR LRTC 242100Z AUTO 01014KT 1600 R34/1800D FG BKN002///
                        01/01 Q1007=
201901242130 METAR LRTC 242130Z AUTO 01011KT 1400 R34/1500N FG BKN001///
                        OVC003/// 01/01 Q1008=
201901242200 METAR LRTC 242200Z AUTO 01011KT 1400 R34/1500N BKN002///
                        01/01 Q1008=
201901242230 METAR LRTC 242230Z AUTO 01013KT 1300 R34/1400N -SHRA OVC001///
                        01/01 Q1008=
201901242300 METAR LRTC 242300Z AUTO 01012KT 1600 R34/1800U FG BKN001///
                        BKN003/// 01/01 Q1008=
201901242330 METAR LRTC 242330Z AUTO 36014KT 2000 -FZDZ OVC002/// 01/01
                        Q1008=
201901250000 METAR LRTC 250000Z AUTO 01014KT 1700 R34/1900N -FZDZ OVC002///
                        01/01 Q1008=
201901250030 METAR LRTC 250030Z AUTO 01014KT 1400 R34/1600D FG BKN001///
                        OVC003/// 00/00 Q1008=
201901250100 METAR LRTC 250100Z AUTO 01014KT 1200 R34/1400N FG OVC001///
                        00/00 Q1009=
201901250130 METAR LRTC 250130Z AUTO 01012KT 1100 R34/1400D FG VV002 00/00
                        Q1009=
201901250200 METAR LRTC 250200Z AUTO 01012KT 1100 R34/1300U FG VV002 00/00
                        Q1009=
201901250230 METAR LRTC 250230Z AUTO 01011KT 1200 R34/1400N FG OVC001///
                        00/00 Q1009=
201901250300 METAR LRTC 250300Z AUTO 01010KT 1200 R34/1400N FZFG VV002
                        M00/M00 Q1009=
201901250330 METAR LRTC 250330Z AUTO 01010KT 1200 R34/1400N FZFG OVC001///
                        M00/M00 Q1009=
201901250400 METAR LRTC 250400Z AUTO 01011KT 1300 R34/1400N FZFG OVC001///
                        M00/M00 Q1010=
201901250430 METAR LRTC 250430Z AUTO 01010KT 1400 R34/1600U FZFG VV002
                        M00/M00 Q1010=
201901250500 METAR LRTC 250500Z AUTO 02011KT 1200 R34/1400N FZFG OVC001///
                        M00/M00 Q1010=
201901250530 METAR LRTC 250530Z AUTO 01012KT 1300 R34/1400N FZFG OVC001///
                        M01/M01 Q1010=
201901250600 METAR LRTC 250600Z 01012KT 0200 R34/0650 FZFG BKN001 OVC003
                        M01/M01 Q1011 R16/29//95=
201901250630 METAR COR LRTC 250630Z 01012KT 0150 R34/1300D FZFG BKN001
                        OVC003 M01/M01 Q1011 R16/29//95=
201901250700 METAR LRTC 250700Z 01012KT 0150 R34/1000 FZFG SCT001 OVC003
                        M01/M01 Q1011 R16/29//95=
201901250730 METAR LRTC 250730Z 01013KT 0150 R34/0900N FZFG BKN001 OVC003
                        M01/M01 Q1010 R16/29//95=
201901250800 METAR LRTC 250800Z 36014KT 0150 R34/0900D FZFG BKN001 OVC003
                        M01/M01 Q1011 R16/29//95=
201901250830 METAR LRTC 250830Z 35009KT 0100 R34/0800N -FZDZ FZFG BKN001
                        OVC003 M01/M01 Q1012 R16/29//95=
201901250900 METAR LRTC 250900Z 36012KT 0100 R34/0800N -FZDZ FZFG SCT001
                        OVC003 M01/M01 Q1011 R16/29//95=
201901250930 METAR LRTC 250930Z 35010KT 0100 R34/0800N -FZDZ FZFG VV002
                        M01/M01 Q1012 R16/29//95=
201901251000 METAR LRTC 251000Z 36011KT 0100 R34/0550N -FZDZ FZFG OVC001
                        M01/M01 Q1011 R16/32//93=
201901251030 METAR LRTC 251030Z 01012KT 0100 R34/0900N -FZDZ FZFG VV002
                        M01/M01 Q1011 R16/32//93=
201901251100 METAR COR LRTC 251100Z 01014KT 0100 R34/0700U FZFG VV002
                        M01/M01 Q1011 REFZDZ R16/32//93=
201901251130 METAR LRTC 251130Z 36011KT 0100 R34/0800N FZFG VV002 M01/M01
                        Q1010 R16/32//93=
201901251200 METAR LRTC 251200Z 35009KT 0100 R34/0800N FZFG VV002 M01/M01
                        Q1010 R16/32//93=
201901251230 METAR LRTC 251230Z 35009KT 0100 R34/0800N FZFG OVC001 M01/M01
                        Q1010 R16/32//93=
201901251300 METAR LRTC 251300Z 36009KT 0100 R34/0900N -FZDZ FZFG BKN001
                        OVC003 M01/M01 Q1011 R16/32//93=
201901251330 METAR LRTC 251330Z 36013KT 0150 R34/1200D -FZDZ FZFG BKN001
                        OVC003 M01/M01 Q1011 R16/32//93=
201901251400 METAR LRTC 251400Z 36012KT 0600 R34/1400U -FZDZ FZFG BKN002
                        OVC004 M00/M01 Q1011 R16/32//93=
201901251430 METAR LRTC 251430Z 36013KT 0800 R34/1800U -FZDZ FZFG BKN002
                        BKN004 M00/M01 Q1011 R16/32//93=
201901251500 METAR LRTC 251500Z 35012KT 1500 -FZDZ BR BKN003 OVC005 M00/M01
                        Q1011 R16/32//93=
201901251530 METAR LRTC 251530Z 35011KT 1600 -FZDZ BR OVC003 M00/M01 Q1011
                        R16/32//93=
201901251600 METAR LRTC 251600Z 01014KT 2300 BR BKN004 BKN007 M00/M00
                        Q1010 REFZDZ R16/32//93=
201901251630 METAR LRTC 251630Z 01014KT 2300 BR FEW002 BKN008 M00/M01
                        Q1011 R16/32//93=
201901251700 METAR LRTC 251700Z 36012KT 1600 BR BKN002 BKN004 M00/M01
                        Q1010 R16/32//93=
201901251730 METAR LRTC 251730Z 36012KT 1600 BR BKN002 BKN004 M00/M01
                        Q1010 R16/32//93=
201901251800 METAR LRTC 251800Z AUTO 01012KT 3100 BR BKN002/// OVC004///
                        M00/M00 Q1010=
201901251830 METAR LRTC 251830Z AUTO 01011KT 2800 BR BKN002/// BKN004///
                        M00/M00 Q1010=
201901251900 METAR LRTC 251900Z AUTO 01012KT 2900 BR BKN002/// OVC004///
                        M00/M00 Q1010=
201901251930 METAR LRTC 251930Z AUTO 01008KT 2900 BR SCT002/// BKN004///
                        M00/M00 Q1010=
201901252000 METAR LRTC 252000Z AUTO 02009KT 2700 BR SCT002/// OVC004///
                        M00/M00 Q1010=
201901252030 METAR LRTC 252030Z AUTO 02009KT 2900 BR BKN003/// BKN005///
                        M00/M00 Q1010=
201901252100 METAR LRTC 252100Z AUTO 02008KT 3200 R34/2000 BR SCT003///
                        OVC005/// M00/M00 Q1010=
201901252130 METAR LRTC 252130Z AUTO 02008KT 3000 BR BKN003/// 00/M00
                        Q1009=
201901252200 METAR LRTC 252200Z AUTO 02007KT 2600 BR OVC003/// 00/M00
                        Q1009=
201901252230 METAR LRTC 252230Z AUTO 02008KT 2600 BR BKN002/// BKN004///
                        00/M00 Q1009=
201901252300 METAR LRTC 252300Z AUTO 02007KT 2600 BR BKN002/// OVC004///
                        00/M00 Q1009=
201901252330 METAR LRTC 252330Z AUTO 01008KT 2800 BR BKN002/// BKN004///
                        M00/M00 Q1009=
201901260000 METAR LRTC 260000Z AUTO 01011KT 2600 BR BKN002/// OVC004///
                        M00/M00 Q1008=
201901260030 METAR LRTC 260030Z AUTO 01011KT 2500 BR BKN002/// BKN004///
                        M00/M01 Q1008=
201901260100 METAR LRTC 260100Z AUTO 36012KT 2700 BR BKN002/// OVC004///
                        M00/M01 Q1008=
201901260130 METAR LRTC 260130Z AUTO 36013KT 2900 R34/2000 BR BKN002///
                        BKN004/// M00/M01 Q1007=
201901260200 METAR LRTC 260200Z AUTO 01012KT 2700 BR SCT002/// OVC004///
                        M00/M01 Q1007=
201901260230 METAR LRTC 260230Z AUTO 01012KT 2500 BR BKN002/// BKN004///
                        M00/M01 Q1007=
201901260300 METAR LRTC 260300Z AUTO 01015KT 2300 BR OVC002/// M00/M00
                        Q1007=
201901260330 METAR LRTC 260330Z AUTO 01016KT 2000 BR BKN002/// M00/M01
                        Q1007=
201901260400 METAR LRTC 260400Z AUTO 01015KT 1700 R34/1900N FZFG OVC002///
                        M00/M01 Q1007=
201901260430 METAR LRTC 260430Z AUTO 36016KT 1600 R34/1800D FZFG BKN002///
                        M01/M01 Q1007=
201901260500 METAR LRTC 260500Z AUTO 36014KT 1600 R34/1700U -FZDZ OVC002///
                        M00/M01 Q1007=
201901260530 METAR LRTC 260530Z AUTO 36015KT 2300 -FZDZ SCT001/// BKN003///
                        M00/M01 Q1007=
201901260600 METAR LRTC 260600Z 36013KT 0900 R34/1700N FZFG BKN002 OVC004
                        M00/M01 Q1007=
201901260630 METAR LRTC 260630Z 36013KT 0900 R34/1700D FZFG BKN002 OVC004
                        M00/M01 Q1007=
201901260700 METAR LRTC 260700Z 35012KT 1300 R34/1800U BR OVC002 M00/M01
                        Q1006=
201901260730 METAR LRTC 260730Z 36013KT 3000 BR SCT003 BKN005 M01/M01
                        Q1007=
201901260800 METAR LRTC 260800Z 36012KT 3200 -FZRA BR BKN004 BKN006 M00/M01
                        Q1006=
201901260830 METAR LRTC 260830Z 36013KT 3800 -FZRA BR BKN005 BKN007 M00/M01
                        Q1006=
201901260900 METAR LRTC 260900Z 35014KT 4000 BR FEW004 BKN006 BKN013 M01/M01
                        Q1006 REFZRA=
201901260930 METAR LRTC 260930Z 35011KT 3000 -FZDZ BR BKN004 OVC014 M01/M01
                        Q1006=
201901261000 METAR LRTC 261000Z 35012KT 2700 -FZDZ BR BKN004 OVC014 M00/M01
                        Q1006=
201901261030 METAR LRTC 261030Z 35011KT 2500 -FZRA BR OVC005 M00/M01 Q1005=
201901261100 METAR LRTC 261100Z 35011KT 2700 -FZRA BR BKN004 OVC006 M00/M00
                        Q1005=
201901261130 METAR LRTC 261130Z 35010KT 4000 -FZRA BR SCT004 OVC006 M00/M00
                        Q1005=
201901261200 METAR LRTC 261200Z 35009KT 4500 -FZRA BR BKN005 OVC007 M00/M00
                        Q1005=
201901261230 METAR LRTC 261230Z 35009KT 2500 BR SCT003 OVC005 M00/M01
                        Q1005=
201901261300 METAR LRTC 261300Z 34010KT 2300 -FZRA BR BKN003 OVC005 M01/M01
                        Q1004=
201901261330 METAR LRTC 261330Z 34011KT 2500 -FZRA BR BKN003 OVC005 M01/M01
                        Q1004=
201901261400 METAR LRTC 261400Z 34011KT 2500 BR SCT003 OVC005 M01/M01
                        Q1004 REFZRA=
201901261430 METAR LRTC 261430Z 34010KT 2700 BR SCT003 OVC005 M01/M01
                        Q1004=
201901261500 METAR LRTC 261500Z 34009KT 3000 BR OVC004 M01/M01 Q1004=
201901261530 METAR LRTC 261530Z 34008KT 3000 BR SCT003 OVC005 M01/M01
                        Q1004=
201901261600 METAR LRTC 261600Z 33008KT 3000 BR BKN004 OVC006 M01/M01
                        Q1004=
201901261630 METAR LRTC 261630Z 32007KT 4000 BR BKN004 BKN006 M01/M01
                        Q1005=
201901261700 METAR LRTC 261700Z 30008KT 4500 BR FEW004 BKN006 M00/M01
                        Q1005=
201901261730 METAR LRTC 261730Z 30005KT 4000 -FZRA BR SCT006 OVC010 M00/M01
                        Q1005=
201901261800 METAR LRTC 261800Z AUTO 33005KT 4400 -FZRA SCT009/// OVC015///
                        M00/M01 Q1005=
201901261830 METAR LRTC 261830Z AUTO 32003KT 4000 -FZDZ FEW009/// SCT020///
                        BKN025/// M00/M00 Q1005=
201901261900 METAR LRTC 261900Z AUTO 33004KT 4500 -FZDZ FEW021/// BKN026///
                        OVC033/// 00/M00 Q1004=
201901261930 METAR LRTC 261930Z AUTO 00000KT 5000 FEW004/// BKN008///
                        M00/M00 Q1004 REFZRA=
201901262000 METAR LRTC 262000Z AUTO 00000KT 4900 BR FEW004/// BKN011///
                        OVC046/// 00/M00 Q1004=
201901262030 METAR LRTC 262030Z AUTO 31003KT 5000 BR SCT006/// BKN008///
                        OVC046/// 00/M00 Q1004=
201901262100 METAR LRTC 262100Z AUTO 31003KT 280V340 4800 BR FEW005///
                        BKN009/// OVC012/// 00/M00 Q1004=
201901262130 METAR LRTC 262130Z AUTO 25006KT 190V300 5000 BR SCT006///
                        OVC008/// 00/M00 Q1004=
201901262200 METAR LRTC 262200Z AUTO 26006KT 5000 BR FEW008/// BKN011///
                        BKN016/// 00/M00 Q1004=
201901262230 METAR LRTC 262230Z AUTO 25008KT 5000 BR BKN010/// OVC043///
                        00/M00 Q1004=
201901262300 METAR LRTC 262300Z AUTO 32004KT 5000 BKN010/// 00/M00 Q1004
                        REUP=
201901262330 METAR LRTC 262330Z AUTO 27007KT 6000 SCT009/// OVC011///
                        00/M00 Q1004 REUP=
201901270000 METAR LRTC 270000Z AUTO 29006KT 6000 SCT007/// BKN009///
                        00/M00 Q1005=
201901270030 METAR LRTC 270030Z AUTO 29003KT 270V330 5000 FEW007/// OVC009///
                        00/M00 Q1005=
201901270100 METAR LRTC 270100Z AUTO 30003KT 5000 -SHRA FEW008/// BKN010///
                        00/M00 Q1005=
201901270130 METAR LRTC 270130Z AUTO 34007KT 5000 SG FEW005/// BKN007///
                        OVC010/// M00/M01 Q1005=
201901270200 METAR LRTC 270200Z AUTO 33008KT 5000 -SN BKN006/// BKN008///
                        M01/M01 Q1005=
201901270230 METAR LRTC 270230Z AUTO 33009KT 5000 -SN FEW006/// OVC010///
                        M01/M02 Q1006=
201901270300 METAR LRTC 270300Z AUTO 33010KT 3900 SG FEW006/// BKN012///
                        BKN015/// M01/M02 Q1006=
201901270330 METAR LRTC 270330Z AUTO 33009KT 3200 -SN FEW004/// SCT013///
                        BKN025/// M01/M02 Q1006=
201901270400 METAR LRTC 270400Z AUTO 32008KT 3700 -SN SCT013/// BKN024///
                        BKN040/// M01/M02 Q1006=
201901270430 METAR LRTC 270430Z AUTO 31007KT 4200 -SN SCT041/// OVC049///
                        M01/M02 Q1007=
201901270500 METAR LRTC 270500Z AUTO 33007KT 3900 SG FEW007/// SCT050///
                        BKN065/// M01/M02 Q1007=
201901270530 METAR LRTC 270530Z AUTO 33007KT 5000 -SN FEW011/// OVC055///
                        M02/M02 Q1007=
201901270600 METAR LRTC 270600Z 32007KT 3900 -SN BR FEW009 M02/M02 Q1008=
201901270630 METAR LRTC 270630Z 32005KT 4400 -SN BR FEW009 M02/M02 Q1008=
201901270700 METAR LRTC 270700Z 31008KT 4500 -SN BR FEW049 M02/M02 Q1008=
201901270730 METAR LRTC 270730Z 33005KT 3900 -SN BR SCT045 M02/M02 Q1008=
201901270800 METAR LRTC 270800Z 31005KT 5000 BR SCT043 BKN049 M02/M02
                        Q1009=
201901270830 METAR LRTC 270830Z 30004KT 6000 NSC M01/M02 Q1009=
201901270900 METAR LRTC 270900Z 29003KT 7000 NSC M01/M02 Q1009=
201901270930 METAR LRTC 270930Z 31005KT 7000 NSC M01/M02 Q1009=
201901271000 METAR LRTC 271000Z 00000KT 8000 NSC M01/M02 Q1009=
201901271030 METAR COR LRTC 271030Z 00000KT 7000 NSC M00/M02 Q1008=
201901271100 METAR LRTC 271100Z 00000KT 8000 NSC 00/M01 Q1008=
201901271130 METAR LRTC 271130Z 00000KT 7000 NSC 00/M01 Q1008=
201901271200 METAR LRTC 271200Z VRB01KT 7000 NSC 00/M01 Q1008=
201901271230 METAR LRTC 271230Z VRB01KT 6000 NSC 00/M00 Q1008=
201901271300 METAR LRTC 271300Z 00000KT 6000 NSC 01/00 Q1008=
201901271330 METAR LRTC 271330Z VRB02KT 6000 NSC 01/01 Q1009=
201901271400 METAR LRTC 271400Z 21004KT 5000 BR SCT009 01/01 Q1009=
201901271430 METAR LRTC 271430Z 22004KT 4500 BR BKN007 01/01 Q1009=
201901271500 METAR LRTC 271500Z 22004KT 4500 BR BKN007 01/00 Q1009=
201901271530 METAR LRTC 271530Z 24004KT 3900 BR BKN007 00/00 Q1009=
201901271600 METAR LRTC 271600Z 26003KT 3900 BR OVC006 00/M00 Q1009=
201901271630 METAR LRTC 271630Z 26002KT 5000 BR OVC006 00/M00 Q1009=
201901271700 METAR LRTC 271700Z 27002KT 5000 BR OVC006 M00/M00 Q1009=
201901271730 METAR LRTC 271730Z 22003KT 5000 BR OVC005 M00/M01 Q1009=
201901271800 METAR LRTC 271800Z AUTO 18002KT 5000 BR BKN004/// BKN006///
                        M01/M01 Q1009=
201901271830 METAR LRTC 271830Z AUTO 18002KT 140V200 3800 BR FEW004///
                        M01/M01 Q1009=
201901271900 METAR LRTC 271900Z AUTO 12003KT 0350 R34/0375N FZFG VV001
                        M01/M01 Q1009=
201901271930 METAR LRTC 271930Z AUTO 10001KT 0300 R34/0350N FZFG FEW002///
                        M02/M02 Q1009=
201901272000 METAR LRTC 272000Z AUTO 18003KT 1200 R34/0800VP2000U FZFG
                        FEW001/// M01/M02 Q1009=
201901272030 METAR LRTC 272030Z AUTO 16004KT 1100 R34/0800V1900U FZFG
                        FEW005/// M02/M02 Q1009=
201901272100 METAR LRTC 272100Z AUTO 17003KT 0500 R34/0600N FZFG FEW003///
                        BKN011/// M02/M02 Q1009=
201901272130 METAR LRTC 272130Z AUTO 17005KT 3500 FEW006/// OVC008///
                        M01/M01 Q1009=
201901272200 METAR LRTC 272200Z AUTO 16005KT 4500 OVC006/// 00/00 Q1009=
201901272230 METAR LRTC 272230Z AUTO 16006KT 3900 BR SCT007/// M00/M00
                        Q1009=
201901272300 METAR LRTC 272300Z AUTO 14005KT 3900 BR FEW008/// M00/M00
                        Q1009=
201901272330 METAR LRTC 272330Z AUTO 14006KT 3700 BR NCD M01/M01 Q1009=
201901280000 METAR LRTC 280000Z AUTO 15006KT 3800 BR NCD M01/M01 Q1008=
201901280030 METAR LRTC 280030Z AUTO 16008KT 4900 BR NCD M00/M00 Q1008=
201901280100 METAR LRTC 280100Z AUTO 17008KT 4500 BR NCD M00/M00 Q1008=
201901280130 METAR LRTC 280130Z AUTO 15007KT 4000 BR NCD M00/M01 Q1008=
201901280200 METAR LRTC 280200Z AUTO 14007KT 4300 BR FEW020/// 00/M00
                        Q1008=
201901280230 METAR LRTC 280230Z AUTO 13006KT 4800 BR BKN018/// OVC021///
                        01/01 Q1008=
201901280300 METAR LRTC 280300Z AUTO 17004KT 150V220 4700 BR OVC017///
                        01/01 Q1008=
201901280330 METAR LRTC 280330Z AUTO 17006KT 4800 BR OVC018/// 01/01 Q1008=
201901280400 METAR LRTC 280400Z AUTO 16006KT 5000 BR OVC019/// 02/01 Q1008=
201901280430 METAR LRTC 280430Z AUTO 16006KT 5000 BR BKN020/// 02/01 Q1008=
201901280500 METAR LRTC 280500Z AUTO 16008KT 5000 BR OVC022/// 02/01 Q1007=
201901280530 METAR LRTC 280530Z AUTO 15006KT 6000 BKN022/// 03/02 Q1007=
201901280600 METAR LRTC 280600Z 16006KT 140V200 9000 BKN021 03/02 Q1007
                        R16/35//95=
201901280630 METAR LRTC 280630Z 14008KT 8000 FEW020 BKN024 03/02 Q1007
                        R16/35//95=
201901280700 METAR LRTC 280700Z 17004KT 150V210 8000 FEW019 BKN022 03/02
                        Q1008 R16/35//95=
201901280730 METAR LRTC 280730Z 16006KT 9000 BKN020 03/03 Q1007 R16/35//95=
201901280800 METAR LRTC 280800Z 18007KT 9999 FEW018 BKN021 04/03 Q1007
                        R16/35//95=
201901280830 METAR LRTC 280830Z 17006KT 9999 FEW017 BKN021 04/03 Q1007
                        R16/35//95=
201901280900 METAR LRTC 280900Z 17007KT 9999 SCT017 BKN022 05/04 Q1007
                        R16/35//95=
201901280930 METAR LRTC 280930Z 17007KT 9999 SCT016 BKN019 05/04 Q1007
                        R16/35//95=
201901281000 METAR LRTC 281000Z 16013KT 9999 SCT015 BKN019 06/04 Q1006
                        R16/29//95=
201901281030 METAR LRTC 281030Z 15013KT 9999 SCT015 BKN019 06/05 Q1006
                        R16/29//95=
201901281100 METAR LRTC 281100Z 16015KT 9999 SCT015 BKN019 07/05 Q1006
                        R16/29//95=
201901281130 METAR LRTC 281130Z 16014KT 9999 SCT014 BKN018 07/05 Q1005
                        R16/29//95=
201901281200 METAR LRTC 281200Z 15015KT 9999 SCT014 BKN018 07/05 Q1005
                        R16/29//95=
201901281230 METAR LRTC 281230Z 15016KT 9999 FEW012 BKN015 07/05 Q1005
                        R16/29//95=
201901281300 METAR LRTC 281300Z 15014KT 9999 SCT012 BKN016 07/05 Q1004
                        R16/29//95=
201901281330 METAR LRTC 281330Z 15012KT 9999 BKN016 BKN021 07/05 Q1004
                        R16/29//95=
201901281400 METAR LRTC 281400Z 15011KT 9999 SCT016 BKN023 07/05 Q1004
                        R16/29//95=
201901281430 METAR LRTC 281430Z 15010KT 9999 FEW015 BKN024 07/05 Q1004
                        R16/29//95=
201901281500 METAR LRTC 281500Z 15009KT 9999 FEW015 BKN023 07/05 Q1004
                        R16/29//95=
201901281530 METAR LRTC 281530Z 15006KT 120V180 9999 FEW014 BKN022 06/05
                        Q1004 R16/29//95=
201901281600 METAR LRTC 281600Z 16010KT 9999 FEW013 BKN024 06/05 Q1004
                        R16/29//95=
201901281630 METAR LRTC 281630Z 17009KT 8000 BKN012 BKN021 07/05 Q1004
                        R16/29//95=
201901281700 METAR LRTC 281700Z 17012KT 6000 BKN010 BKN020 07/06 Q1004
                        R16/29//95=
201901281730 METAR LRTC 281730Z 17014KT 5000 BR OVC008 07/06 Q1004 R16/29//95=
201901281800 METAR LRTC 281800Z AUTO 17014KT 4800 BR SCT006/// OVC008///
                        07/06 Q1004=
201901281830 METAR LRTC 281830Z AUTO 16013KT 4500 BR BKN006/// 07/06 Q1004=
201901281900 METAR LRTC 281900Z AUTO 15011KT 3800 BR SCT005/// OVC007///
                        07/06 Q1004=
201901281930 METAR LRTC 281930Z AUTO 15013KT 3600 BR BKN004/// BKN006///
                        07/06 Q1004=
201901282000 METAR LRTC 282000Z AUTO 15012KT 3300 BR BKN004/// OVC006///
                        07/06 Q1004=
201901282030 METAR LRTC 282030Z AUTO 15012KT 3500 BR BKN004/// OVC006///
                        07/06 Q1004=
201901282100 METAR LRTC 282100Z AUTO 14012KT 3600 BR BKN005/// BKN007///
                        07/06 Q1004=
201901282130 METAR LRTC 282130Z AUTO 14012KT 3600 BR FEW007/// SCT009///
                        06/06 Q1004=
201901282200 METAR LRTC 282200Z AUTO 15007KT 3700 BR FEW006/// 06/06 Q1004=
201901282230 METAR LRTC 282230Z AUTO 15009KT 3300 R34/2000 BR FEW007///
                        06/05 Q1004=
201901282300 METAR LRTC 282300Z AUTO 16004KT 3000 R34/2000 BR NCD 05/05
                        Q1004=
201901282330 METAR LRTC 282330Z AUTO 16007KT 4100 BR NCD 05/05 Q1004=
201901290000 METAR LRTC 290000Z AUTO 13006KT 3300 R34/2000 BR NCD 05/04
                        Q1004=
201901290030 METAR LRTC 290030Z AUTO 10006KT 4400 BR NCD 05/04 Q1004=
201901290100 METAR LRTC 290100Z AUTO 12006KT 5000 BR NCD 05/05 Q1004=
201901290130 METAR LRTC 290130Z AUTO 13006KT 5000 BR NCD 05/04 Q1004=
201901290200 METAR LRTC 290200Z AUTO 11006KT 5000 BR NCD 04/03 Q1004=
201901290230 METAR LRTC 290230Z AUTO 13006KT 6000 SCT240/// 04/04 Q1004=
201901290300 METAR LRTC 290300Z AUTO 13006KT 6000 BKN230/// 05/04 Q1004=
201901290330 METAR LRTC 290330Z AUTO 14005KT 6000 BKN230/// 05/04 Q1004=
201901290400 METAR LRTC 290400Z AUTO 12006KT 6000 SCT230/// 04/03 Q1004=
201901290430 METAR LRTC 290430Z AUTO 14002KT 110V170 6000 NCD 04/04 Q1005=
201901290500 METAR LRTC 290500Z AUTO 18005KT 5000 BR FEW240/// 04/03 Q1005=
201901290530 METAR LRTC 290530Z AUTO 17005KT 3900 BR FEW220/// 03/03 Q1005=
201901290600 METAR LRTC 290600Z 18003KT 150V210 5000 MIFG BR NSC 03/03
                        Q1005 R16/29//95=
201901290630 METAR LRTC 290630Z 12004KT 6000 NSC 04/04 Q1006 R16/29//95=
201901290700 METAR LRTC 290700Z VRB02KT 8000 NSC 05/05 Q1006 R16/29//95=
201901290730 METAR LRTC 290730Z 15004KT CAVOK 07/05 Q1006 R16/29//95=
201901290800 METAR LRTC 290800Z 16005KT CAVOK 07/05 Q1006 R16/29//95=
201901290830 METAR LRTC 290830Z 14004KT CAVOK 09/06 Q1006 R16/29//95=
201901290900 METAR LRTC 290900Z 18005KT CAVOK 10/06 Q1007 R16/29//95=
201901290930 METAR LRTC 290930Z 16007KT CAVOK 12/06 Q1006 R16/29//95=
201901291000 METAR LRTC 291000Z 16006KT 130V200 CAVOK 12/07 Q1006 R16/29//95=
201901291030 METAR LRTC 291030Z 18007KT 150V210 CAVOK 13/08 Q1006 R16/29//95=
201901291100 METAR LRTC 291100Z 23005KT CAVOK 14/06 Q1006 R16/29//95=
201901291130 METAR LRTC 291130Z 22005KT CAVOK 14/06 Q1006 R16/29//95=
201901291200 METAR LRTC 291200Z 20003KT 130V240 CAVOK 14/06 Q1006 R16/29//95=
201901291230 METAR LRTC 291230Z 16007KT CAVOK 14/07 Q1006 R16/29//95=
201901291300 METAR LRTC 291300Z 15007KT 120V180 CAVOK 13/08 Q1006 R16/29//95=
201901291330 METAR LRTC 291330Z 10006KT CAVOK 11/08 Q1006 R16/29//95=
201901291400 METAR LRTC 291400Z 13009KT 9999 FEW040 10/08 Q1006 R16/29//95=
201901291430 METAR LRTC 291430Z 15008KT CAVOK 11/09 Q1006 R16/29//95=
201901291500 METAR LRTC 291500Z 14007KT CAVOK 10/08 Q1006 R16/29//95=
201901291530 METAR LRTC 291530Z 13009KT CAVOK 09/08 Q1006=
201901291600 METAR LRTC 291600Z 14008KT CAVOK 09/07 Q1007=
201901291630 METAR LRTC 291630Z 14008KT CAVOK 09/07 Q1007=
201901291700 METAR LRTC 291700Z 14009KT CAVOK 09/07 Q1007=
201901291730 METAR LRTC 291730Z 15006KT CAVOK 08/07 Q1007=
201901291800 METAR LRTC 291800Z AUTO 14006KT 9999 BKN055/// BKN100///
                        09/07 Q1007=
201901291830 METAR LRTC 291830Z AUTO 13007KT 9999 FEW042/// BKN055///
                        OVC070/// 09/07 Q1007=
201901291900 METAR LRTC 291900Z AUTO 13008KT 9999 -RA BKN050/// 09/07
                        Q1007=
201901291930 METAR LRTC 291930Z AUTO 12007KT 8000 -SHRA FEW037/// BKN055///
                        BKN075/// 09/07 Q1007=
201901292000 METAR LRTC 292000Z AUTO 12007KT 9000 -SHRA FEW031/// SCT085///
                        BKN110/// 08/07 Q1007=
201901292030 METAR LRTC 292030Z AUTO 09007KT 8000 -SHRA FEW055/// SCT070///
                        BKN100/// 08/07 Q1007=
201901292100 METAR LRTC 292100Z AUTO 12003KT 080V180 9999 FEW060/// BKN085///
                        BKN100/// 09/07 Q1007 RERA=
201901292130 METAR LRTC 292130Z AUTO 19002KT 110V270 9999 FEW070/// SCT100///
                        BKN140/// 09/07 Q1007=
201901292200 METAR LRTC 292200Z AUTO 05003KT 330V120 9999 FEW090/// BKN110///
                        08/07 Q1007=
201901292230 METAR LRTC 292230Z AUTO VRB03KT 9999 FEW095/// SCT120///
                        09/07 Q1007=
201901292300 METAR LRTC 292300Z AUTO 07004KT 030V130 9999 SCT110/// BKN130///
                        BKN150/// 08/07 Q1007=
201901292330 METAR LRTC 292330Z AUTO 06003KT 010V140 9999 FEW085/// BKN110///
                        07/06 Q1007=
201901300000 METAR LRTC 300000Z AUTO 10005KT 060V150 9000 FEW140/// BKN170///
                        08/06 Q1007=
201901300030 METAR LRTC 300030Z AUTO VRB03KT 8000 FEW060/// SCT090///
                        BKN120/// 08/07 Q1007=
201901300100 METAR LRTC 300100Z AUTO 06002KT 360V120 8000 FEW075/// BKN100///
                        08/07 Q1007=
201901300130 METAR LRTC 300130Z AUTO 11007KT 8000 FEW110/// 07/06 Q1006=
201901300200 METAR LRTC 300200Z AUTO 09005KT 7000 NCD 07/05 Q1006=
201901300230 METAR LRTC 300230Z AUTO 05004KT 020V080 8000 NCD 07/06 Q1006=
201901300300 METAR LRTC 300300Z AUTO 10005KT 070V130 8000 FEW090/// 07/05
                        Q1006=
201901300330 METAR LRTC 300330Z AUTO 12007KT 9000 BKN095/// 07/06 Q1006=
201901300400 METAR LRTC 300400Z AUTO 12008KT 8000 SCT170/// 06/05 Q1006=
201901300430 METAR LRTC 300430Z AUTO 13007KT 9000 FEW090/// BKN100///
                        BKN160/// 07/06 Q1006=
201901300500 METAR LRTC 300500Z AUTO 13009KT 9999 FEW050/// SCT100///
                        06/05 Q1006=
201901300530 METAR LRTC 300530Z AUTO 13009KT 9999 SCT110/// 06/05 Q1006=
201901300600 METAR LRTC 300600Z 13006KT 9999 FEW040 06/05 Q1007 R16/29//95=
201901300630 METAR LRTC 300630Z 12008KT 9999 FEW045 06/05 Q1006 R16/29//95=
201901300700 METAR LRTC 300700Z 12009KT CAVOK 07/06 Q1006 R16/29//95=
201901300730 METAR LRTC 300730Z 13009KT CAVOK 08/07 Q1006 R16/29//95=
201901300800 METAR LRTC 300800Z 14009KT CAVOK 08/07 Q1006 R16/29//95=
201901300830 METAR LRTC 300830Z 13014KT 9999 FEW009 08/07 Q1006 R16/29//95=
201901300900 METAR LRTC 300900Z 13013KT 9999 FEW009 09/08 Q1006 R16/29//95=
201901300930 METAR LRTC 300930Z 14007KT 9999 FEW010 10/08 Q1006 R16/29//95=
201901301000 METAR LRTC 301000Z 14009KT 9999 FEW013 10/08 Q1006 R16/29//95=
201901301030 METAR LRTC 301030Z 13009KT 9999 FEW013 10/08 Q1006 R16/29//95=
201901301100 METAR LRTC 301100Z 13007KT 9999 FEW015 10/08 Q1005 R16/29//95=
201901301130 METAR LRTC 301130Z 13004KT 100V180 9999 FEW015 11/08 Q1005
                        R16/29//95=
201901301200 METAR LRTC 301200Z 10005KT CAVOK 11/08 Q1005 R16/29//95=
201901301230 METAR LRTC 301230Z 10010KT 9999 FEW010 11/08 Q1005 R16/29//95=
201901301300 METAR LRTC 301300Z 11013KT 9999 FEW010 10/08 Q1005 R16/29//95=
201901301330 METAR LRTC 301330Z 10009KT 9999 FEW010 10/08 Q1005 R16/29//95=
201901301400 METAR LRTC 301400Z 11008KT CAVOK 10/08 Q1005 R16/29//95=
201901301430 METAR LRTC 301430Z 11007KT CAVOK 10/07 Q1004 R16/29//95=
201901301500 METAR LRTC 301500Z 12008KT CAVOK 09/07 Q1004 R16/29//95=
201901301530 METAR LRTC 301530Z 11011KT 7000 SCT008 08/07 Q1004 R16/29//95=
201901301600 METAR LRTC 301600Z 10008KT 6000 SCT006 07/07 Q1004 R16/29//95=
201901301630 METAR LRTC 301630Z 09007KT 4000 BR SCT001 07/07 Q1005 R16/29//95=
201901301700 METAR LRTC 301700Z 12009KT 4000 BR SCT002 07/07 Q1004 R16/29//95=
201901301730 METAR LRTC 301730Z 12009KT 1500 BR BKN002 07/07 Q1004 R16/29//95=
201901301800 METAR LRTC 301800Z AUTO 13007KT 1000 R34/1200D FG VV002 07/07
                        Q1004=
201901301830 METAR LRTC 301830Z AUTO 13007KT 1400 R34/1600U FG BKN001///
                        07/07 Q1004=
201901301900 METAR LRTC 301900Z AUTO 14007KT 1300 R34/1500U FG BKN001///
                        07/07 Q1005=
201901301930 METAR LRTC 301930Z AUTO 13004KT 0800 R34/1000N FG VV002 07/07
                        Q1005=
201901302000 METAR LRTC 302000Z AUTO 12004KT 0900 R34/0900V1400U FG VV002
                        07/07 Q1004=
201901302030 METAR LRTC 302030Z AUTO 12004KT 2100 R34/1400VP2000U FG OVC001///
                        07/07 Q1004=
201901302100 METAR LRTC 302100Z AUTO 18004KT 0600 R34/0700N FG FEW001///
                        BKN003/// 07/06 Q1004=
201901302130 METAR LRTC 302130Z AUTO 17002KT 1100 R34/1000V1500D FG VV001
                        07/06 Q1004=
201901302200 METAR LRTC 302200Z AUTO 15003KT 120V200 0700 R34/0800N FG
                        VV002 07/07 Q1004=
201901302230 METAR LRTC 302230Z AUTO 17004KT 0700 R34/0800N FG VV002 07/06
                        Q1004=
201901302300 METAR LRTC 302300Z AUTO 17002KT 0500 R34/0600N FG VV001 06/06
                        Q1004=
201901302330 METAR LRTC 302330Z AUTO 14002KT 140V220 0500 R34/0550N FG
                        BKN003/// BKN005/// 06/06 Q1004=
201901310000 METAR LRTC 310000Z AUTO VRB01KT 0750 R34/0800V1100U FG VV002
                        06/06 Q1004=
201901310030 METAR LRTC 310030Z AUTO VRB01KT 0800 R34/0900N FG VV002 06/06
                        Q1004=
201901310100 METAR LRTC 310100Z AUTO VRB01KT 0800 R34/1000U BCFG BKN003///
                        BKN095/// 06/06 Q1003=
201901310130 METAR LRTC 310130Z AUTO 12006KT 080V150 3600 R34/0900VP2000U
                        FEW004/// SCT007/// BKN095/// 06/06
                        Q1003=
201901310200 METAR LRTC 310200Z AUTO 27002KT 0900 R34/1000V1400D FG SCT002///
                        BKN004/// BKN006/// 06/06 Q1003=
201901310230 METAR LRTC 310230Z AUTO VRB01KT 2300 R34/1500VP2000D FEW001///
                        BKN003/// 06/06 Q1003=
201901310300 METAR LRTC 310300Z AUTO 12002KT 060V150 1100 R34/1100V1700N
                        FG FEW003/// BKN005/// 06/06 Q1003=
201901310330 METAR LRTC 310330Z AUTO 12006KT 090V150 4800 R34/2000 BKN004///
                        BKN010/// 06/06 Q1003=
201901310400 METAR LRTC 310400Z AUTO 11004KT 6000 FEW004/// BKN110///
                        06/06 Q1002=
201901310430 METAR LRTC 310430Z AUTO VRB01KT 6000 -RA SCT055/// BKN070///
                        06/06 Q1003=
201901310500 METAR LRTC 310500Z AUTO 14003KT 5000 DZ FEW006/// BKN060///
                        06/06 Q1003=
201901310530 METAR LRTC 310530Z AUTO 14003KT 4800 -RA FEW006/// BKN070///
                        06/06 Q1003=
201901310600 METAR COR LRTC 310600Z 16003KT 120V190 9999 2000W BCFG FEW006
                        06/06 Q1003 R16/29//95=
201901310630 METAR LRTC 310630Z VRB02KT 9999 2000NW BCFG FEW002 SCT007
                        06/06 Q1003 R16/29//95=
201901310700 METAR LRTC 310700Z 15003KT 110V170 9999 FEW006 07/06 Q1003
                        R16/29//95=
201901310730 METAR LRTC 310730Z 16005KT 130V190 9999 FEW006 08/08 Q1003
                        R16/29//95=
201901310800 METAR LRTC 310800Z 14009KT 9999 FEW008 09/09 Q1003 R16/29//95=
201901310830 METAR LRTC 310830Z 16008KT 9999 FEW010 10/08 Q1003 R16/29//95=
201901310900 METAR LRTC 310900Z 15008KT 9999 FEW015 10/08 Q1003 R16/29//95=
201901310930 METAR COR LRTC 310930Z 15008KT 9999 FEW012 11/08 Q1003 R16/29//95=
201901311000 METAR LRTC 311000Z 16010KT 9999 FEW013 12/08 Q1003 R16/29//95=
201901311030 METAR LRTC 311030Z 15009KT 120V180 9999 FEW015 SCT020 12/08
                        Q1003 R16/29//95=
201901311100 METAR LRTC 311100Z 15009KT 9999 FEW017 SCT026 12/08 Q1003
                        R16/29//95=
201901311130 METAR LRTC 311130Z 14012KT 9999 BKN048 11/08 Q1003 R16/29//95=
201901311200 METAR LRTC 311200Z 15009KT 9999 BKN044 11/08 Q1003 R16/29//95=
201901311230 METAR LRTC 311230Z 16008KT 9999 FEW022 BKN043 12/08 Q1003
                        R16/29//95=
201901311300 METAR LRTC 311300Z 16008KT 9999 BKN021 SCT038 12/08 Q1003
                        R16/29//95=
201901311330 METAR LRTC 311330Z 16008KT 9999 FEW020 SCT025 12/08 Q1003
                        R16/29//95=
201901311400 METAR LRTC 311400Z 14007KT 9999 SCT030 SCT045 12/08 Q1003
                        R16/29//95=
201901311430 METAR LRTC 311430Z 14006KT 9999 SCT031 10/08 Q1003 R16/29//95=
201901311500 METAR LRTC 311500Z 15007KT 9999 SCT023 SCT038 10/08 Q1003
                        R16/29//95=
201901311530 METAR LRTC 311530Z 16007KT 9999 FEW029 09/07 Q1003 R16/29//95=
201901311600 METAR LRTC 311600Z 14006KT 9999 FEW030 08/06 Q1003 R16/29//95=
201901311630 METAR LRTC 311630Z 00000KT CAVOK 08/06 Q1003 R16/29//95=
201901311700 METAR LRTC 311700Z 07004KT CAVOK 07/06 Q1004 R16/29//95=
201901311730 METAR LRTC 311730Z 05004KT CAVOK 06/05 Q1004 R16/29//95=
201901311800 METAR LRTC 311800Z AUTO 08005KT 9999 FEW230/// 06/05 Q1004=
201901311830 METAR LRTC 311830Z AUTO 08004KT 9000 SCT220/// 05/05 Q1004=
201901311900 METAR LRTC 311900Z AUTO 09005KT 6000 BKN180/// 04/04 Q1004=
201901311930 METAR LRTC 311930Z AUTO 10004KT 9000 FEW060/// BKN150///
                        06/05 Q1004=
201901312000 METAR LRTC 312000Z AUTO 16001KT 5000 BR BKN160/// 05/04 Q1005=
201901312030 METAR LRTC 312030Z AUTO 10001KT 5000 BR BKN160/// 05/04 Q1005=
201901312100 METAR LRTC 312100Z AUTO 00000KT 3100 R34/1600VP2000N BR FEW001///
                        BKN080/// BKN150/// 05/05 Q1005=
201901312130 METAR LRTC 312130Z AUTO 29002KT 1600 R34/1500VP2000U FG BKN001///
                        BKN080/// 04/04 Q1005=
201901312200 METAR LRTC 312200Z AUTO 31004KT 3800 R34/2000 -SHRA OVC001///
                        05/04 Q1005=
201901312230 METAR LRTC 312230Z AUTO 00000KT 2400 -SHRA BKN001/// OVC007///
                        04/04 Q1006=
201901312300 METAR LRTC 312300Z AUTO 08001KT 3000 R34/2000 -SHRA VV002
                        04/04 Q1006=
201901312330 METAR LRTC 312330Z AUTO 27004KT 1100 R34/1100V1600U -RA FEW002///
                        BKN005/// OVC008/// 05/04 Q1006=
