201902010200 TAF LRTC 010200Z NIL=
201902010500 TAF LRTC 010500Z 0106/0115 29008KT 9999 BKN020 BKN040
                      TEMPO 0106/0109 3000 -RA BR BKN005 BKN030=
201902010800 TAF LRTC 010800Z 0109/0118 29008KT 5000 BR BKN020 BKN040
                      TEMPO 0109/0114 3000 -RA BR BKN005 BKN030=
201902011100 TAF LRTC 011100Z 0112/0121 25010KT 5000 BR BKN020 BKN040
                      BECMG 0115/0117 VRB04KT 1500 BR BKN005 BKN030=
201902011400 TAF LRTC 011400Z 0115/0124 25010KT 5000 BR BKN010
                      BECMG 0116/0118 VRB04KT 1500 BR BKN005
                      BECMG 0118/0120 0600 FG BKN002=
201902011700 TAF LRTC 011700Z NIL=
201902012000 TAF LRTC 012000Z NIL=
201902012300 TAF LRTC 012300Z NIL=
201902020200 TAF LRTC 020200Z NIL=
201902020500 TAF LRTC 020500Z 0206/0215 15010KT 0800 FG BKN002
                      BECMG 0206/0208 3000 BR BKN010
                      BECMG 0209/0211 9999 NSW BKN025=
201902020800 TAF LRTC 020800Z 0209/0218 15010KT 0300 FG VV001
                      BECMG 0209/0210 0800 BKN002
                      BECMG 0210/0211 3000 BR BKN005
                      BECMG 0211/0213 9999 NSW BKN025=
201902021100 TAF LRTC 021100Z 0212/0221 15010KT CAVOK
                      BECMG 0215/0217 5000 BR
                      BECMG 0217/0219 1500 BR BKN005=
201902021400 TAF LRTC 021400Z 0215/0224 15010KT CAVOK
                      BECMG 0216/0218 5000 BR
                      BECMG 0218/0220 3000 BR BKN010
                      BECMG 0220/0222 0800 FG BKN002=
201902021700 TAF LRTC 021700Z NIL=
201902022000 TAF LRTC 022000Z NIL=
201902022300 TAF LRTC 022300Z NIL=
201902030200 TAF LRTC 030200Z NIL=
201902030500 TAF LRTC 030500Z 0306/0315 17008KT 0350 FG VV001
                      BECMG 0306/0308 0800 FG OVC002
                      BECMG 0308/0310 3000 BR BKN010
                      BECMG 0309/0310 9999 NSW BKN035=
201902030800 TAF LRTC 030800Z 0309/0318 16005KT 0350 FG BKN001
                      BECMG 0309/0311 3000 BR SCT005
                      BECMG 0311/0312 9999 NSW
                      BECMG 0315/0317 3000 BR
                      PROB30 TEMPO 0317/0318 0800 FG BKN002=
201902031100 TAF LRTC 031100Z 0312/0321 16005KT 5000 BR SCT005
                      BECMG 0312/0313 CAVOK
                      BECMG 0315/0317 3000 BR
                      BECMG 0317/0319 1500 BR
                      TEMPO 0319/0321 0800 FG BKN002=
201902031400 TAF LRTC 031400Z 0315/0324 13008KT CAVOK
                      BECMG 0315/0317 5000 BR
                      BECMG 0318/0320 1500 BR
                      BECMG 0320/0322 0600 FG BKN002=
201902031700 TAF LRTC 031700Z NIL=
201902032000 TAF LRTC 032000Z NIL=
201902032300 TAF LRTC 032300Z NIL=
201902040200 TAF LRTC 040200Z NIL=
201902040500 TAF LRTC 040500Z 0406/0415 VRB04KT 0600 FG BKN002
                      BECMG 0406/0408 1500 BR BKN005
                      BECMG 0408/0410 5000 BKN010
                      BECMG 0410/0412 9999 NSW SCT020=
201902040800 TAF LRTC 040800Z 0409/0418 VRB04KT CAVOK=
201902041100 TAF LRTC 041100Z 0412/0421 01006KT CAVOK=
201902041400 TAF LRTC 041400Z 0415/0424 36012KT CAVOK=
201902041602 TAF AMD LRTC 041602Z 0416/0424 34012KT 0600 FG OVC002
                      BECMG 0416/0418 0300 FG VV001=
201902041700 TAF LRTC 041700Z NIL=
201902042000 TAF LRTC 042000Z NIL=
201902042300 TAF LRTC 042300Z NIL=
201902050200 TAF LRTC 050200Z NIL=
201902050500 TAF LRTC 050500Z 0506/0515 33014KT 1500 BR BKN002
                      TEMPO 0506/0508 0600 FG VV001
                      BECMG 0508/0510 3000 BKN005 BKN015
                      BECMG 0510/0512 9999 NSW BKN020=
201902050800 TAF LRTC 050800Z 0509/0518 33014KT 3000 BR BKN005
                      TEMPO 0509/0512 1500 -DZ FG BKN002 OVC010
                       BECMG 0512/0514 5000 BR BKN010=
201902051100 TAF LRTC 051100Z 0512/0521 33014KT 3000 BR BKN005
                      TEMPO 0512/0515 1500 -DZ FG BKN002 OVC010=
201902051400 TAF LRTC 051400Z 0515/0524 33014KT 3000 BR BKN005
                      BECMG 0518/0520 1500 BR BKN002=
201902051700 TAF LRTC 051700Z NIL=
201902052000 TAF LRTC 052000Z NIL=
201902052300 TAF LRTC 052300Z NIL=
201902060200 TAF LRTC 060200Z NIL=
201902060500 TAF LRTC 060500Z 0606/0615 01015KT 3000 BR BKN002
                      BECMG 0607/0609 BKN010
                      BECMG 0609/0611 9999 NSW BKN020
                      TEMPO 0611/0615 01015G25KT=
201902060800 TAF LRTC 060800Z 0609/0618 01015KT 7000 BKN010
                      TEMPO 0610/0615 01017G27KT SCT020=
201902061100 TAF LRTC 061100Z 0612/0621 01015KT 9999 BKN010
                      PROB30 TEMPO 0612/0615 01017G27KT SCT020
                       PROB30
                      TEMPO 0615/0621 5000 -RADZ BKN005 BKN025=
201902061400 TAF LRTC 061400Z 0615/0624 01015KT 9999 BKN010
                      TEMPO 0615/0618 3000 -RADZ BKN005 BKN025=
201902061700 TAF LRTC 061700Z NIL=
201902062000 TAF LRTC 062000Z NIL=
201902062300 TAF LRTC 062300Z NIL=
201902070200 TAF LRTC 070200Z NIL=
201902070500 TAF LRTC 070500Z 0706/0715 35012KT 9999 BKN035=
201902070800 TAF LRTC 070800Z 0709/0718 01012KT CAVOK=
201902071100 TAF LRTC 071100Z 0712/0721 01016KT 9999 SCT035
                      BECMG 0716/0718 02006KT=
201902071400 TAF LRTC 071400Z 0715/0724 02008KT 9999 SCT035=
201902071700 TAF LRTC 071700Z NIL=
201902072000 TAF LRTC 072000Z NIL=
201902072300 TAF LRTC 072300Z NIL=
201902080200 TAF LRTC 080200Z NIL=
201902080500 TAF LRTC 080500Z 0806/0815 01006KT 9999 BKN025=
201902080800 TAF LRTC 080800Z 0809/0818 01007KT 9999 BKN025=
201902081100 TAF LRTC 081100Z 0812/0821 01007KT 9999 BKN025=
201902081400 TAF LRTC 081400Z 0815/0824 01007KT 9999 BKN025=
201902081700 TAF LRTC 081700Z NIL=
201902082000 TAF LRTC 082000Z NIL=
201902082300 TAF LRTC 082300Z NIL=
201902090200 TAF LRTC 090200Z NIL=
201902090500 TAF LRTC 090500Z 0906/0915 34006KT 9999 BKN025=
201902090800 TAF LRTC 090800Z 0909/0918 31006KT 9999 BKN025=
201902091100 TAF LRTC 091100Z 0912/0921 33006KT 9999 BKN030=
201902091400 TAF LRTC 091400Z 0915/0924 VRB04KT 9999 BKN030=
201902091700 TAF LRTC 091700Z NIL=
201902092000 TAF LRTC 092000Z NIL=
201902092300 TAF LRTC 092300Z NIL=
201902100200 TAF LRTC 100200Z NIL=
201902100500 TAF LRTC 100500Z 1006/1015 VRB04KT 3000 BR NSC
                      BECMG 1006/1008 CAVOK=
201902100800 TAF LRTC 100800Z 1009/1018 VRB04KT CAVOK=
201902101100 TAF LRTC 101100Z 1012/1021 VRB04KT CAVOK=
201902101400 TAF LRTC 101400Z 1015/1024 VRB04KT CAVOK=
201902101700 TAF LRTC 101700Z NIL=
201902102000 TAF LRTC 102000Z NIL=
201902102300 TAF LRTC 102300Z NIL=
201902110200 TAF LRTC 110200Z NIL=
201902110500 TAF LRTC 110500Z 1106/1115 17014KT 3000 BR NSC
                      BECMG 1106/1108 9999 NSW=
201902110800 TAF LRTC 110800Z 1109/1118 17012KT CAVOK=
201902111100 TAF LRTC 111100Z 1112/1121 15012KT CAVOK=
201902111400 TAF LRTC 111400Z 1115/1124 15012KT CAVOK
                      BECMG 1120/1122 3000 BR=
201902111700 TAF LRTC 111700Z NIL=
201902112000 TAF LRTC 112000Z NIL=
201902112300 TAF LRTC 112300Z NIL=
201902120200 TAF LRTC 120200Z NIL=
201902120500 TAF LRTC 120500Z 1206/1215 34010KT 0600 FG OVC002
                      TEMPO 1206/1208 0150 FG OVC001
                      BECMG 1208/1210 3000 -RA BR BKN005 OVC020=
201902120710 TAF AMD LRTC 120710Z 1207/1215 34012KT 3000 BR BKN005
                      BECMG 1208/1210 5000 -RA BR BKN010 OVC020
                       BECMG 1212/1214 7000 NSW BKN020=
201902120800 TAF LRTC 120800Z 1209/1218 33015KT 5000 BR BKN010 BKN025
                      TEMPO 1209/1213 1500 -RA BR BKN003 OVC020
                       BECMG 1214/1216 9999 NSW BKN025=
201902121100 TAF LRTC 121100Z 1212/1221 31012KT 9999 BKN010
                      TEMPO 1212/1214 BKN015
                      BECMG 1214/1216 BKN025=
201902121400 TAF LRTC 121400Z 1215/1224 31015KT 9999 BKN010
                      TEMPO 1215/1218 BKN015
                      BECMG 1218/1220 BKN020=
201902121700 TAF LRTC 121700Z NIL=
201902122000 TAF LRTC 122000Z NIL=
201902122300 TAF LRTC 122300Z NIL=
201902130200 TAF LRTC 130200Z NIL=
201902130500 TAF LRTC 130500Z 1306/1315 31015KT CAVOK=
201902130800 TAF LRTC 130800Z 1309/1318 31014KT CAVOK=
201902131100 TAF LRTC 131100Z 1312/1321 31016KT CAVOK
                      BECMG 1318/1320 VRB04KT=
201902131400 TAF LRTC 131400Z 1315/1324 35008KT 9999 BKN040=
201902131700 TAF LRTC 131700Z NIL=
201902132000 TAF LRTC 132000Z NIL=
201902132300 TAF LRTC 132300Z NIL=
201902140200 TAF LRTC 140200Z NIL=
201902140500 TAF LRTC 140500Z 1406/1415 VRB04KT CAVOK
                      BECMG 1411/1413 5000 -RA BR BKN015 BKN040
                       TEMPO 1413/1415 3000 RA BR BKN010 OVC030=
201902140800 TAF LRTC 140800Z 1409/1418 VRB04KT CAVOK
                      BECMG 1412/1414 5000 -RA BR BKN015 BKN040
                       TEMPO 1414/1418 3000 RA BR BKN010 OVC030=
201902141100 TAF LRTC 141100Z 1412/1421 32014KT 9999 BKN030
                      PROB40 TEMPO 1412/1416 3000 RA BR BKN010
                       BKN020=
201902141400 TAF LRTC 141400Z 1415/1424 32014KT 9999 BKN030
                      PROB40 TEMPO 1415/1419 5000 -RA BR BKN015
                       BKN025=
201902141700 TAF LRTC 141700Z NIL=
201902142000 TAF LRTC 142000Z NIL=
201902142300 TAF LRTC 142300Z NIL=
201902150200 TAF LRTC 150200Z NIL=
201902150500 TAF LRTC 150500Z 1506/1515 36010KT 9999 OVC035=
201902150800 TAF LRTC 150800Z 1509/1518 01012KT 9999 BKN045=
201902151100 TAF LRTC 151100Z 1512/1521 01014KT 9999 SCT040=
201902151400 TAF LRTC 151400Z 1515/1524 36012KT 9999 BKN035=
201902151700 TAF LRTC 151700Z NIL=
201902152000 TAF LRTC 152000Z NIL=
201902152300 TAF LRTC 152300Z NIL=
201902160200 TAF LRTC 160200Z NIL=
201902160500 TAF LRTC 160500Z 1606/1615 32012KT 9999 OVC030=
201902160800 TAF LRTC 160800Z 1609/1618 32012KT 9999 BKN025=
201902161100 TAF LRTC 161100Z 1612/1621 32010KT 9999 BKN025
                      BECMG 1619/1621 VRB04KT=
201902161400 TAF LRTC 161400Z 1615/1624 32010KT 9999 BKN025
                      BECMG 1619/1621 VRB04KT
                      BECMG 1621/1623 3000 BR=
201902161700 TAF LRTC 161700Z NIL=
201902162000 TAF LRTC 162000Z NIL=
201902162300 TAF LRTC 162300Z NIL=
201902170200 TAF LRTC 170200Z NIL=
201902170500 TAF LRTC 170500Z 1706/1715 VRB04KT CAVOK
                      TEMPO 1706/1708 5000 BR=
201902170800 TAF LRTC 170800Z 1709/1718 VRB04KT CAVOK=
201902171100 TAF LRTC 171100Z 1712/1721 26012KT CAVOK=
201902171400 TAF LRTC 171400Z 1715/1724 26012KT CAVOK=
201902171700 TAF LRTC 171700Z NIL=
201902172000 TAF LRTC 172000Z NIL=
201902172300 TAF LRTC 172300Z NIL=
201902180200 TAF LRTC 180200Z NIL=
201902180500 TAF LRTC 180500Z 1806/1815 VRB04KT CAVOK
                      BECMG 1808/1810 35010KT=
201902180800 TAF LRTC 180800Z 1809/1818 35012KT CAVOK=
201902181100 TAF LRTC 181100Z 1812/1821 35010KT 9999 SCT035
                      TEMPO 1818/1821 5000 BR=
201902181400 TAF LRTC 181400Z 1815/1824 35008KT CAVOK
                      TEMPO 1818/1824 5000 BR=
201902181700 TAF LRTC 181700Z NIL=
201902182000 TAF LRTC 182000Z NIL=
201902182300 TAF LRTC 182300Z NIL=
201902190200 TAF LRTC 190200Z 1903/1912 VRB04KT CAVOK
                      TEMPO 1904/1907 3000 BR
                      BECMG 1909/1911 16010KT=
201902190500 TAF LRTC 190500Z 1906/1915 VRB04KT CAVOK
                      TEMPO 1906/1908 3000 BR
                      BECMG 1909/1911 16012KT=
201902190800 TAF LRTC 190800Z 1909/1918 VRB04KT CAVOK
                      BECMG 1910/1912 16012KT=
201902191100 TAF LRTC 191100Z 1912/1921 13012KT CAVOK=
201902191400 TAF LRTC 191400Z 1915/1924 13015KT CAVOK
                      BECMG 1920/1922 14005KT 3000 BR=
201902191700 TAF LRTC 191700Z NIL=
201902192000 TAF LRTC 192000Z NIL=
201902192300 TAF LRTC 192300Z NIL=
201902200200 TAF LRTC 200200Z NIL=
201902200500 TAF LRTC 200500Z 2006/2015 14008KT 3000 BR NSC
                      PROB30 TEMPO 2006/2008 0800 FG BKN002
                      BECMG 2008/2010 30010KT 9999 NSW=
201902200800 TAF LRTC 200800Z 2009/2018 VRB04KT CAVOK
                      BECMG 2009/2011 35010KT=
201902201100 TAF LRTC 201100Z 2012/2021 32012KT CAVOK=
201902201400 TAF LRTC 201400Z 2015/2024 35008KT CAVOK=
201902201700 TAF LRTC 201700Z NIL=
201902202000 TAF LRTC 202000Z NIL=
201902202300 TAF LRTC 202300Z NIL=
201902210200 TAF LRTC 210200Z NIL=
201902210500 TAF LRTC 210500Z 2106/2115 VRB04KT CAVOK
                      BECMG 2107/2109 31012KT=
201902210800 TAF LRTC 210800Z 2109/2118 31010KT CAVOK=
201902211100 TAF LRTC 211100Z 2112/2121 32016KT CAVOK
                      BECMG 2116/2118 VRB04KT=
201902211400 TAF LRTC 211400Z 2115/2124 32014KT CAVOK
                      BECMG 2116/2118 VRB04KT=
201902211700 TAF LRTC 211700Z NIL=
201902212000 TAF LRTC 212000Z NIL=
201902212300 TAF LRTC 212300Z NIL=
201902220200 TAF LRTC 220200Z NIL=
201902220500 TAF LRTC 220500Z 2206/2215 VRB04KT CAVOK
                      BECMG 2212/2214 01020G40KT 3000 RA BKN015
                       BKN040=
201902220800 TAF LRTC 220800Z 2209/2218 32010KT 9999 SCT040
                      BECMG 2212/2214 02020G40KT 5000 -RA BR BKN015
                       BKN030
                      BECMG 2215/2217 3000 -SN BLSN BKN010 BKN025=
201902221100 TAF LRTC 221100Z 2212/2221 33012KT 9999 BKN040
                      BECMG 2212/2214 02020G40KT 5000 -RA BR BKN015
                       BKN030
                      BECMG 2214/2216 3000 -SN BR BKN010 BKN025
                       BECMG 2219/2221 9999 NSW BKN030=
201902221400 TAF LRTC 221400Z 2215/2224 36025KT 3000 -SN BR BKN010 OVC015
                      TEMPO 2215/2218 1500 SN BLSN OVC005
                      TEMPO 2215/2224 36025G35KT
                      BECMG 2219/2221 9999 NSW BKN030=
201902221700 TAF LRTC 221700Z NIL=
201902222000 TAF LRTC 222000Z NIL=
201902222300 TAF LRTC 222300Z NIL=
201902230200 TAF LRTC 230200Z NIL=
201902230500 TAF LRTC 230500Z 2306/2315 36020KT CAVOK
                      BECMG 2313/2315 01010KT=
201902230800 TAF LRTC 230800Z 2309/2318 36020KT 9999 SCT030
                      BECMG 2315/2316 01010KT=
201902231100 TAF LRTC 231100Z 2312/2321 36020KT 9999 BKN035
                      BECMG 2316/2318 01010KT=
201902231400 TAF LRTC 231400Z 2315/2324 36014KT 9999 BKN030=
201902231700 TAF LRTC 231700Z NIL=
201902232000 TAF LRTC 232000Z NIL=
201902232300 TAF LRTC 232300Z NIL=
201902240200 TAF LRTC 240200Z NIL=
201902240500 TAF LRTC 240500Z 2406/2415 36008KT CAVOK=
201902240800 TAF LRTC 240800Z 2409/2418 01010KT CAVOK=
201902241100 TAF LRTC 241100Z 2412/2421 01010KT 9999 SCT045=
201902241400 TAF LRTC 241400Z 2415/2424 01006KT 9999 SCT030=
201902241700 TAF LRTC 241700Z NIL=
201902242000 TAF LRTC 242000Z NIL=
201902242300 TAF LRTC 242300Z NIL=
201902250200 TAF LRTC 250200Z NIL=
201902250500 TAF LRTC 250500Z 2506/2515 VRB04KT 9999 BKN030
                      BECMG 2507/2509 26015KT=
201902250800 TAF LRTC 250800Z 2509/2518 26015KT CAVOK=
201902251100 TAF LRTC 251100Z 2512/2521 26015KT CAVOK=
201902251400 TAF LRTC 251400Z 2515/2524 26015KT CAVOK=
201902251700 TAF LRTC 251700Z NIL=
201902252000 TAF LRTC 252000Z NIL=
201902252300 TAF LRTC 252300Z NIL=
201902260200 TAF LRTC 260200Z NIL=
201902260500 TAF LRTC 260500Z 2606/2615 27014KT CAVOK
                      BECMG 2613/2615 34014KT=
201902260800 TAF LRTC 260800Z 2609/2618 27014KT CAVOK
                      BECMG 2613/2615 34014KT
                      TEMPO 2616/2618 5000 -RA BR BKN015 BKN040=
201902261100 TAF LRTC 261100Z 2612/2621 26016KT CAVOK
                      BECMG 2613/2615 34018KT
                      TEMPO 2616/2618 5000 -RA BR BKN015 BKN040=
201902261400 TAF LRTC 261400Z 2615/2624 32016KT 7000 -RA SCT035
                      TEMPO 2615/2620 32018G28KT 3000 RA BR BKN015
                       BKN035
                      BECMG 2620/2622 3000 -SN BKN010 OVC030=
201902261700 TAF LRTC 261700Z NIL=
201902262000 TAF LRTC 262000Z NIL=
201902262300 TAF LRTC 262300Z NIL=
201902270200 TAF LRTC 270200Z NIL=
201902270500 TAF LRTC 270500Z 2706/2715 34014KT 9999 BKN040
                      PROB30 TEMPO 2709/2714 FEW030CB BKN040=
201902270800 TAF LRTC 270800Z 2709/2718 34017KT 9999 BKN030
                      TEMPO 2709/2714 34017G27KT
                      PROB30 TEMPO 2710/2714 FEW025CB BKN030=
201902271100 TAF LRTC 271100Z 2712/2721 34017KT 9999 BKN040
                      PROB30 TEMPO 2712/2714 34017G27KT FEW030CB
                       BKN040=
201902271400 TAF LRTC 271400Z 2715/2724 34014KT 9999 BKN040=
201902271700 TAF LRTC 271700Z NIL=
201902272000 TAF LRTC 272000Z NIL=
201902272300 TAF LRTC 272300Z NIL=
201902280200 TAF LRTC 280200Z NIL=
201902280500 TAF LRTC 280500Z 2806/2815 26014KT CAVOK
                      TEMPO 2812/2815 26015G25KT=
201902280800 TAF LRTC 280800Z 2809/2818 26018KT CAVOK
                      TEMPO 2811/2818 26018G28KT=
201902281100 TAF LRTC 281100Z 2812/2821 25020KT CAVOK
                      TEMPO 2812/2819 26020G30KT
                      BECMG 2819/2821 31010KT=
201902281400 TAF LRTC 281400Z 2815/2824 25020KT CAVOK
                      TEMPO 2815/2820 26020G30KT
                      BECMG 2820/2822 31010KT=
201902281700 TAF LRTC 281700Z NIL=
201902282000 TAF LRTC 282000Z NIL=
201902282300 TAF LRTC 282300Z NIL=