201902010000 METAR LRTC 010000Z AUTO 26002KT 2500 R34/1900VP2000U RA FEW002///
                        OVC045/// 05/05 Q1006=
201902010030 METAR LRTC 010030Z AUTO 31002KT 270V010 2800 RA SCT002///
                        BKN044/// 05/04 Q1006=
201902010100 METAR LRTC 010100Z AUTO 26001KT 4400 RA FEW042/// BKN050///
                        05/05 Q1006=
201902010130 METAR LRTC 010130Z AUTO 00000KT 3000 R34/2000 -RA BKN046///
                        OVC060/// 05/05 Q1006=
201902010200 METAR LRTC 010200Z AUTO 29002KT 270V330 3400 -RA SCT043///
                        BKN050/// 05/05 Q1006=
201902010230 METAR LRTC 010230Z AUTO 25005KT 6000 -RA SCT039/// OVC050///
                        06/05 Q1007=
201902010300 METAR LRTC 010300Z AUTO 32003KT 240V010 7000 RA FEW039///
                        OVC046/// 06/05 Q1007=
201902010330 METAR LRTC 010330Z AUTO 01006KT 3200 RA FEW035/// OVC044///
                        05/05 Q1007=
201902010400 METAR LRTC 010400Z AUTO 35001KT 3900 RA FEW001/// SCT043///
                        BKN050/// 05/05 Q1007=
201902010430 METAR LRTC 010430Z AUTO 29006KT 240V330 7000 -RA FEW044///
                        OVC050/// 05/05 Q1008=
201902010500 METAR LRTC 010500Z AUTO 36004KT 4100 RA FEW003/// BKN040///
                        BKN046/// 05/04 Q1008=
201902010530 METAR LRTC 010530Z AUTO 31004KT 280V340 4700 -RA BKN003///
                        OVC005/// 05/04 Q1009=
201902010600 METAR LRTC 010600Z 30007KT 5000 -RA BR BKN003 BKN005 05/04
                        Q1009 R16/29//95=
201902010630 METAR LRTC 010630Z 33005KT 7000 -RA SCT005 BKN048 04/04 Q1009
                        R16/29//95=
201902010700 METAR LRTC 010700Z 33005KT 300V360 8000 -RA FEW005 BKN045
                        05/04 Q1010 R16/29//95=
201902010730 METAR LRTC 010730Z 31005KT 7000 -RA SCT006 BKN039 05/04 Q1010
                        R16/29//95=
201902010800 METAR LRTC 010800Z 30006KT 6000 -RA SCT006 BKN039 05/04 Q1010
                        R16/29//95=
201902010830 METAR LRTC 010830Z 32006KT 4500 -RA BR BKN006 BKN039 05/05
                        Q1010 R16/29//95=
201902010900 METAR LRTC 010900Z 26013KT 5000 -RA BR FEW003 BKN007 BKN043
                        05/05 Q1011 R16/29//95=
201902010930 METAR LRTC 010930Z 25012KT 6000 -RA BKN007 BKN045 05/05 Q1011
                        R16/29//95=
201902011000 METAR LRTC 011000Z 26013KT 3000 BR SCT003 BKN005 05/04 Q1012
                        R16/29//95=
201902011030 METAR LRTC 011030Z 25010KT 4000 BR FEW003 BKN005 05/04 Q1012
                        R16/29//95=
201902011100 METAR LRTC 011100Z 25010KT 5000 BR SCT004 BKN006 05/04 Q1012
                        R16/29//95=
201902011130 METAR LRTC 011130Z 24010KT 7000 FEW006 BKN008 06/05 Q1012
                        R16/29//95=
201902011200 METAR LRTC 011200Z 24009KT 7000 FEW005 BKN009 06/05 Q1012
                        R16/29//95=
201902011230 METAR LRTC 011230Z 25011KT 8000 FEW005 BKN010 06/05 Q1012
                        R16/29//95=
201902011300 METAR LRTC 011300Z 25007KT 7000 FEW010 BKN013 06/05 Q1012
                        R16/29//95=
201902011330 METAR COR LRTC 011330Z 24007KT 8000 BKN010 06/05 Q1012 R16/29//95=
201902011400 METAR LRTC 011400Z 24010KT 8000 BKN010 06/05 Q1013 R16/29//95=
201902011430 METAR LRTC 011430Z 25009KT 7000 BKN010 06/04 Q1013 R16/29//95=
201902011500 METAR LRTC 011500Z 25007KT 7000 BKN010 06/04 Q1013 R16/29//95=
201902011530 METAR LRTC 011530Z 26010KT 7000 BKN009 05/04 Q1014 R16/29//95=
201902011600 METAR LRTC 011600Z 25011KT 7000 BKN010 05/04 Q1014 R16/29//95=
201902011630 METAR LRTC 011630Z 25009KT 7000 BKN010 05/04 Q1014 R16/29//95=
201902011700 METAR LRTC 011700Z 24005KT 7000 BKN009 04/03 Q1015 R16/29//95=
201902011730 METAR LRTC 011730Z 22004KT 180V270 6000 FEW008 04/03 Q1015
                        R16/29//95=
201902011800 METAR LRTC 011800Z AUTO 21003KT 180V250 5000 BR NCD 03/02
                        Q1015=
201902011830 METAR LRTC 011830Z AUTO 23005KT 4300 BR NCD 02/01 Q1015=
201902011900 METAR LRTC 011900Z AUTO 22004KT 3500 BR NCD 02/01 Q1015=
201902011930 METAR LRTC 011930Z AUTO 22005KT 0500 R34/0600N FG VV002 02/01
                        Q1015=
201902012000 METAR LRTC 012000Z AUTO 24005KT 0350 R34/0400N FG VV001 02/01
                        Q1015=
201902012030 METAR LRTC 012030Z AUTO 24003KT 0300 R34/0350N -SHSN VV001
                        02/01 Q1016=
201902012100 METAR LRTC 012100Z AUTO 00000KT 0350 R34/0400N FG VV001 02/01
                        Q1016=
201902012130 METAR LRTC 012130Z AUTO VRB01KT 0300 R34/0325N FG VV001 01/01
                        Q1016=
201902012200 METAR LRTC 012200Z AUTO 17002KT 0350 R34/0350V0500N FG VV001
                        01/01 Q1016=
201902012230 METAR LRTC 012230Z AUTO 17002KT 140V210 0350 R34/0400N FG
                        VV001 00/00 Q1016=
201902012300 METAR LRTC 012300Z AUTO 18001KT 0400 R34/0500N FG VV001 00/M00
                        Q1016=
201902012330 METAR LRTC 012330Z AUTO 14002KT 0500 R34/0600N FG VV001 01/01
                        Q1016=
201902020000 METAR LRTC 020000Z AUTO 15006KT 0350 R34/0400N SG VV001 01/01
                        Q1016=
201902020030 METAR LRTC 020030Z AUTO 15007KT 0450 R34/0500N -SN VV001
                        01/01 Q1016=
201902020100 METAR LRTC 020100Z AUTO 16007KT 0500 R34/0600N FG VV001 01/01
                        Q1016=
201902020130 METAR LRTC 020130Z AUTO 14004KT 0400 R34/0500N FG VV001 01/01
                        Q1016=
201902020200 METAR LRTC 020200Z AUTO 13004KT 0350 R34/0400N FG VV001 01/01
                        Q1016=
201902020230 METAR LRTC 020230Z AUTO 14006KT 0350 R34/0450N VV001 01/01
                        Q1016=
201902020300 METAR LRTC 020300Z AUTO 15006KT 0350 R34/0400N -SN VV001
                        01/01 Q1016=
201902020330 METAR LRTC 020330Z AUTO 14008KT 0500 R34/0550N SG VV001 01/01
                        Q1016=
201902020400 METAR LRTC 020400Z AUTO 16008KT 0450 R34/0500N -SN VV001
                        01/01 Q1016=
201902020430 METAR LRTC 020430Z AUTO 16007KT 0450 R34/0550N -SN VV001
                        02/01 Q1016=
201902020500 METAR LRTC 020500Z AUTO 16009KT 0500 R34/0600N -SN VV001
                        02/02 Q1016=
201902020530 METAR LRTC 020530Z AUTO 14011KT 0500 R34/0550V0750N -SN VV001
                        02/02 Q1016=
201902020600 METAR LRTC 020600Z 15007KT 0300 R34/0500N FG VV002 02/02
                        Q1016=
201902020630 METAR LRTC 020630Z 15007KT 0300 R34/0550N FG VV001 03/03
                        Q1016=
201902020700 METAR LRTC 020700Z 13011KT 0300 R34/0400N FG VV001 03/03
                        Q1016=
201902020730 METAR LRTC 020730Z 13008KT 0300 R34/0400N FG VV002 04/04
                        Q1016=
201902020800 METAR LRTC 020800Z 13010KT 0300 R34/0375N FG VV001 04/04
                        Q1016=
201902020830 METAR LRTC 020830Z 13011KT 0350 R34/0450N FG VV002 05/05
                        Q1016=
201902020900 METAR LRTC 020900Z 14010KT 0400 R34/0600N FG VV002 06/06
                        Q1016=
201902020930 METAR LRTC 020930Z 13010KT 1300 R34/1800U BR BKN003 07/07
                        Q1016=
201902021000 METAR LRTC 021000Z 12009KT 3000 BR BKN005 07/07 Q1016=
201902021030 METAR LRTC 021030Z 12011KT 7000 BKN005 08/08 Q1015=
201902021100 METAR LRTC 021100Z 12012KT 8000 SCT003 08/08 Q1015=
201902021130 METAR LRTC 021130Z 11010KT 9999 SCT010 09/09 Q1015=
201902021200 METAR LRTC 021200Z 11009KT 9999 FEW012 10/09 Q1014=
201902021230 METAR LRTC 021230Z 11012KT 9999 FEW012 09/09 Q1014=
201902021300 METAR LRTC 021300Z 13012KT 9999 FEW015 09/08 Q1014=
201902021330 METAR LRTC 021330Z 13009KT 9999 FEW020 09/08 Q1014=
201902021400 METAR LRTC 021400Z 13011KT CAVOK 09/07 Q1014=
201902021430 METAR LRTC 021430Z 11008KT CAVOK 09/08 Q1014=
201902021500 METAR LRTC 021500Z 13012KT 9999 FEW022 08/07 Q1014=
201902021530 METAR LRTC 021530Z 13011KT 7000 FEW005 08/07 Q1014=
201902021600 METAR LRTC 021600Z 14009KT 5000 BR BKN005 07/07 Q1014=
201902021630 METAR LRTC 021630Z 13006KT 4000 BR BKN006 07/07 Q1014=
201902021700 METAR LRTC 021700Z 12005KT 090V160 4000 BR SCT004 06/06 Q1014=
201902021730 METAR LRTC 021730Z 17003KT 5000 BR FEW010 06/06 Q1014=
201902021800 METAR LRTC 021800Z AUTO VRB01KT 2200 R34/1100VP2000D FG VV001
                        06/05 Q1014=
201902021830 METAR LRTC 021830Z AUTO 13004KT 0900 R34/0800V1700D FG FEW003///
                        05/05 Q1014=
201902021900 METAR LRTC 021900Z AUTO 04002KT 310V120 1000 R34/1000V1400U
                        FG NCD 05/04 Q1014=
201902021930 METAR LRTC 021930Z AUTO 09003KT 050V110 3500 NCD 06/05 Q1014=
201902022000 METAR LRTC 022000Z AUTO 12003KT 3800 R34/2000 FEW001/// 05/05
                        Q1014=
201902022030 METAR LRTC 022030Z AUTO 19002KT 130V260 0350 R34/0350V0500N
                        FG FEW002/// 03/03 Q1014=
201902022100 METAR LRTC 022100Z AUTO 21004KT 0500 R34/0600N FG FEW003///
                        04/03 Q1014=
201902022130 METAR LRTC 022130Z AUTO 19005KT 0550 R34/0650N FG FEW004///
                        BKN170/// 03/03 Q1014=
201902022200 METAR LRTC 022200Z AUTO 18004KT 0400 R34/0500N FG FEW001///
                        SCT005/// 04/04 Q1014=
201902022230 METAR LRTC 022230Z AUTO 18003KT 1000 R34/0800V1500U FG SCT220///
                        04/04 Q1014=
201902022300 METAR LRTC 022300Z AUTO 18004KT 140V200 0700 R34/0600V1000D
                        FG FEW001/// 04/04 Q1014=
201902022330 METAR LRTC 022330Z AUTO 18003KT 0800 R34/1000N FG BKN001///
                        BKN003/// 04/04 Q1014=
201902030000 METAR LRTC 030000Z AUTO 24004KT 190V280 0550 R34/0650N FG
                        FEW001/// 03/02 Q1014=
201902030030 METAR LRTC 030030Z AUTO 10002KT 040V130 2500 R34/0900VP2000D
                        FG FEW210/// 03/03 Q1014=
201902030100 METAR LRTC 030100Z AUTO 24003KT 080V250 1000 R34/0900V1500U
                        FG FEW210/// 03/03 Q1014=
201902030130 METAR LRTC 030130Z AUTO 16003KT 130V200 0900 R34/1100U FG
                        SCT003/// 04/04 Q1013=
201902030200 METAR LRTC 030200Z AUTO 17004KT 1400 R34/0650VP2000D FG FEW003///
                        04/04 Q1013=
201902030230 METAR LRTC 030230Z AUTO 22004KT 0600 R34/0700D FG VV001 03/02
                        Q1013=
201902030300 METAR LRTC 030300Z AUTO 34002KT 0300 R34/0375N FG VV002 03/03
                        Q1013=
201902030330 METAR LRTC 030330Z AUTO 10002KT 0250 R34/0275N FG VV001 02/02
                        Q1013=
201902030400 METAR LRTC 030400Z AUTO 21002KT 170V240 0650 R34/0750N FG
                        FEW001/// BKN003/// BKN005/// 03/02
                        Q1014=
201902030430 METAR LRTC 030430Z AUTO 04002KT 0350 R34/0400N FG VV002 02/02
                        Q1014=
201902030500 METAR LRTC 030500Z AUTO 18003KT 140V210 0350 R34/0400N FG
                        VV001 03/03 Q1014=
201902030530 METAR LRTC 030530Z AUTO 24004KT 0300 R34/0375N FG VV001 02/02
                        Q1014=
201902030600 METAR LRTC 030600Z VRB01KT 0050 R34/0250N FG VV001 03/03
                        Q1014=
201902030630 METAR LRTC 030630Z 00000KT 0100 R34/0225N FG SCT001 03/03
                        Q1015=
201902030700 METAR LRTC 030700Z VRB02KT 0150 R34/0300N FG SCT001 03/03
                        Q1014=
201902030730 METAR LRTC 030730Z 24004KT 0150 R34/0400N FG SCT001 04/03
                        Q1015=
201902030800 METAR LRTC 030800Z VRB02KT 0200 R34/0400N FG BKN001 05/04
                        Q1015=
201902030830 METAR LRTC 030830Z 18004KT 0200 R34/0275N FG BKN001 05/05
                        Q1015=
201902030900 METAR LRTC 030900Z VRB02KT 0200 R34/0400N FG SCT001 06/06
                        Q1015=
201902030930 METAR LRTC 030930Z 19003KT 150V220 0600 R34/1900U FG SCT002
                        08/08 Q1015=
201902031000 METAR LRTC 031000Z 16006KT 3000 BCFG BR BKN003 09/08 Q1015=
201902031030 METAR LRTC 031030Z 14006KT 4500 2000S BCFG BR SCT003 09/09
                        Q1015=
201902031100 METAR LRTC 031100Z 13006KT 5000 BCFG SCT003 09/09 Q1015=
201902031130 METAR LRTC 031130Z 15005KT 9999 SCT005 10/10 Q1015=
201902031200 METAR LRTC 031200Z 13006KT 9999 FEW005 10/10 Q1015=
201902031230 METAR LRTC 031230Z 12008KT CAVOK 10/10 Q1014=
201902031300 METAR LRTC 031300Z 12009KT CAVOK 10/10 Q1014=
201902031330 METAR LRTC 031330Z 12012KT CAVOK 10/09 Q1014=
201902031400 METAR LRTC 031400Z 13010KT CAVOK 10/09 Q1015=
201902031430 METAR LRTC 031430Z 12008KT CAVOK 09/08 Q1015=
201902031500 METAR LRTC 031500Z 12006KT CAVOK 08/08 Q1015=
201902031530 METAR LRTC 031530Z 14004KT CAVOK 08/07 Q1015=
201902031600 METAR LRTC 031600Z 13005KT CAVOK 08/07 Q1015=
201902031630 METAR LRTC 031630Z 18004KT CAVOK 07/07 Q1015=
201902031700 METAR LRTC 031700Z 15005KT CAVOK 07/06 Q1015=
201902031730 METAR LRTC 031730Z 17004KT CAVOK 07/06 Q1016=
201902031800 METAR LRTC 031800Z AUTO 13005KT 6000 FEW150/// BKN210///
                        06/06 Q1016=
201902031830 METAR LRTC 031830Z AUTO 16004KT 130V190 6000 BKN160/// 07/06
                        Q1016=
201902031900 METAR LRTC 031900Z AUTO 17005KT 4100 BR BKN160/// 06/05 Q1016=
201902031930 METAR LRTC 031930Z AUTO 15005KT 5000 BR SCT210/// 06/06 Q1016=
201902032000 METAR LRTC 032000Z AUTO 17006KT 1600 R34/1400VP2000D FG NCD
                        05/05 Q1016=
201902032030 METAR LRTC 032030Z AUTO 15004KT 2100 R34/1700VP2000D FEW200///
                        05/05 Q1016=
201902032100 METAR LRTC 032100Z AUTO 16005KT 130V190 1100 R34/0900V1600U
                        FG FEW005/// BKN200/// 05/05 Q1016=
201902032130 METAR LRTC 032130Z AUTO 11004KT 1100 R34/1300D FG FEW006///
                        BKN200/// 05/05 Q1017=
201902032200 METAR LRTC 032200Z AUTO 13003KT 3700 BKN200/// 06/05 Q1017=
201902032230 METAR LRTC 032230Z AUTO 17004KT 2100 R34/1200VP2000D FG BKN200///
                        05/05 Q1017=
201902032300 METAR LRTC 032300Z AUTO 19005KT 0550 R34/0650N FG SCT200///
                        04/04 Q1017=
201902032330 METAR LRTC 032330Z AUTO 21004KT 0600 R34/0700N FG FEW003///
                        SCT005/// 04/03 Q1017=
201902040000 METAR LRTC 040000Z AUTO 24004KT 0550 R34/0650N FG FEW001///
                        SCT005/// 04/04 Q1017=
201902040030 METAR LRTC 040030Z AUTO 27005KT 1100 R34/1300N FG VV002 03/03
                        Q1017=
201902040100 METAR LRTC 040100Z AUTO 03002KT 350V060 0700 R34/0800N FG
                        VV001 03/03 Q1017=
201902040130 METAR LRTC 040130Z AUTO VRB01KT 0250 R34/0300N FG VV001 04/03
                        Q1017=
201902040200 METAR LRTC 040200Z AUTO 34003KT 260V010 0600 R34/0550V0800U
                        FG VV001 03/02 Q1017=
201902040230 METAR LRTC 040230Z AUTO 01004KT 1500 R34/1700D FG SCT003///
                        BKN005/// 02/02 Q1018=
201902040300 METAR LRTC 040300Z AUTO 27002KT 260V330 0500 R34/0550V0750N
                        FG VV001 02/02 Q1018=
201902040330 METAR LRTC 040330Z AUTO 10002KT 1100 R34/1100V1600U FG VV001
                        02/02 Q1018=
201902040400 METAR LRTC 040400Z AUTO 18004KT 0400 R34/0500N FG SCT001///
                        BKN003/// 01/01 Q1018=
201902040430 METAR LRTC 040430Z AUTO 24003KT 0500 R34/0600D FG FEW002///
                        SCT004/// 01/01 Q1018=
201902040500 METAR LRTC 040500Z AUTO VRB03KT 2900 R34/1900VP2000U FEW003///
                        01/01 Q1018=
201902040530 METAR LRTC 040530Z AUTO 03004KT 0300 R34/0350N NCD 00/00
                        Q1019=
201902040600 METAR LRTC 040600Z 36002KT 0800 R34/1100U FG FEW002 01/01
                        Q1019 R16/19//95=
201902040630 METAR LRTC 040630Z 34001KT 3000 BR FEW005 03/02 Q1019 R16/19//95=
201902040700 METAR LRTC 040700Z 01003KT 9999 FEW005 03/03 Q1020 R16/19//95=
201902040730 METAR LRTC 040730Z 27002KT 9999 FEW007 05/05 Q1020 R16/19//95=
201902040800 METAR LRTC 040800Z 32002KT 9999 MIFG NSC 07/07 Q1021 R16/19//95=
201902040830 METAR LRTC 040830Z 03002KT 9999 MIFG NSC 08/08 Q1020 R16/19//95=
201902040900 METAR LRTC 040900Z 36004KT 310V020 9999 FEW010 09/09 Q1021
                        R16/19//95=
201902040930 METAR LRTC 040930Z 02005KT 340V060 9999 FEW010 10/09 Q1021
                        R16/19//95=
201902041000 METAR LRTC 041000Z 36006KT 330V030 9999 FEW010 10/09 Q1021
                        R16/CLRD//=
201902041030 METAR LRTC 041030Z 01006KT 330V030 CAVOK 12/09 Q1021=
201902041100 METAR LRTC 041100Z 35003KT 280V050 CAVOK 13/09 Q1021=
201902041130 METAR LRTC 041130Z 18004KT CAVOK 13/10 Q1021=
201902041200 METAR LRTC 041200Z 16003KT 130V220 CAVOK 14/09 Q1021=
201902041230 METAR LRTC 041230Z 16004KT 120V190 CAVOK 14/10 Q1021=
201902041300 METAR LRTC 041300Z 17004KT 120V200 CAVOK 14/10 Q1021=
201902041330 METAR LRTC 041330Z 19003KT CAVOK 13/10 Q1021=
201902041400 METAR LRTC 041400Z VRB01KT CAVOK 13/10 Q1021=
201902041430 METAR LRTC 041430Z 36009KT CAVOK 12/08 Q1021=
201902041500 METAR LRTC 041500Z 35009KT CAVOK 10/08 Q1021=
201902041530 METAR LRTC 041530Z 34010KT 0800 R34/1600D FG VV008 08/07
                        Q1022=
201902041600 METAR LRTC 041600Z 34008KT 0500 R34/0800N FG VV002 08/08
                        Q1022=
201902041630 METAR LRTC 041630Z 36009KT 0500 R34/0800N FG VV002 08/08
                        Q1022=
201902041700 METAR LRTC 041700Z 36007KT 0600 R34/0700N FG VV001 08/08
                        Q1023=
201902041730 METAR LRTC 041730Z 36010KT 0800 R34/0900U FG VV004 09/08
                        Q1023=
201902041800 METAR LRTC 041800Z AUTO 35009KT 0750 R34/0900D DZ VV002 09/09
                        Q1024=
201902041830 METAR LRTC 041830Z AUTO 34010KT 0600 R34/0700N -SN VV002
                        08/08 Q1024=
201902041900 METAR LRTC 041900Z AUTO 34011KT 1000 R34/1200N FG VV002 08/08
                        Q1024=
201902041930 METAR LRTC 041930Z AUTO 34009KT 1600 R34/1800N FG BKN001///
                        OVC004/// 08/08 Q1024=
201902042000 METAR LRTC 042000Z AUTO 33015KT 1900 FG BKN001/// OVC003///
                        08/08 Q1024=
201902042030 METAR LRTC 042030Z AUTO 33015KT 2600 BKN002/// OVC006///
                        07/07 Q1025=
201902042100 METAR LRTC 042100Z AUTO 34018KT 2300 OVC003/// 07/07 Q1025=
201902042130 METAR LRTC 042130Z AUTO 34015KT 2300 BR OVC002/// 07/07 Q1025=
201902042200 METAR LRTC 042200Z AUTO 34014KT 2200 BR OVC002/// 07/07 Q1025=
201902042230 METAR LRTC 042230Z AUTO 34014KT 2400 BR BKN002/// OVC004///
                        07/07 Q1025=
201902042300 METAR LRTC 042300Z AUTO 34014KT 2700 BR SCT002/// OVC004///
                        07/07 Q1025=
201902042330 METAR LRTC 042330Z AUTO 34014KT 2800 BR BKN003/// OVC005///
                        07/07 Q1026=
201902050000 METAR LRTC 050000Z AUTO 34013KT 2500 BR BKN003/// OVC005///
                        07/07 Q1026=
201902050030 METAR LRTC 050030Z AUTO 34013KT 2500 BR BKN003/// 07/06 Q1026=
201902050100 METAR LRTC 050100Z AUTO 34014KT 2300 BR OVC003/// 06/06 Q1026=
201902050130 METAR LRTC 050130Z AUTO 34014KT 2200 BR BKN002/// BKN004///
                        06/06 Q1026=
201902050200 METAR LRTC 050200Z AUTO 33013KT 2300 BR BKN002/// OVC004///
                        05/05 Q1026=
201902050230 METAR LRTC 050230Z AUTO 33015KT 2000 BR BKN002/// 05/05 Q1026=
201902050300 METAR LRTC 050300Z AUTO 33014KT 2200 BR OVC002/// 05/05 Q1026=
201902050330 METAR LRTC 050330Z AUTO 33013KT 2200 BR BKN002/// 05/05 Q1026=
201902050400 METAR LRTC 050400Z AUTO 33014KT 2000 BR OVC002/// 05/05 Q1026=
201902050430 METAR LRTC 050430Z AUTO 33014KT 2100 BR BKN002/// 05/05 Q1026=
201902050500 METAR LRTC 050500Z AUTO 33014KT 2400 BR BKN002/// OVC004///
                        05/04 Q1026=
201902050530 METAR LRTC 050530Z AUTO 34012KT 2500 BR BKN002/// BKN004///
                        05/04 Q1027=
201902050600 METAR LRTC 050600Z 33013KT 1100 R34/1900D -DZ BR OVC003 05/04
                        Q1027 R16/29//95=
201902050630 METAR LRTC 050630Z 34012KT 0800 R34/1600N -DZ FG BKN002 BKN004
                        05/04 Q1027 R16/29//95=
201902050700 METAR LRTC 050700Z 34012KT 0800 R34/1600N -DZ FG OVC002 05/04
                        Q1027 R16/29//95=
201902050730 METAR LRTC 050730Z 35012KT 0900 R34/1700U -DZ FG OVC002 05/05
                        Q1027 R16/29//95=
201902050800 METAR LRTC 050800Z 36013KT 1100 R34/1400U -DZ BR BKN002 BKN004
                        05/05 Q1027 R16/29//95=
201902050830 METAR LRTC 050830Z 36012KT 1300 R34/1600U -DZ BR SCT002 BKN004
                        05/05 Q1027 R16/29//95=
201902050900 METAR LRTC 050900Z 35011KT 1200 R34/1500D -DZ BR SCT002 BKN004
                        05/05 Q1028 R16/29//95=
201902050930 METAR LRTC 050930Z 36012KT 1200 R34/1600N -DZ BR BKN002 BKN004
                        05/05 Q1027 R16/29//95=
201902051000 METAR LRTC 051000Z 36011KT 1500 -DZ BR BKN002 BKN004 05/05
                        Q1027 R16/29//95=
201902051030 METAR LRTC 051030Z 36010KT 1500 -DZ BR BKN002 BKN004 05/05
                        Q1027 R16/29//95=
201902051100 METAR LRTC 051100Z 36011KT 1300 R34/1700U BR SCT003 BKN005
                        05/05 Q1027 R16/29//95=
201902051130 METAR LRTC 051130Z 35009KT 1000 R34/1400N BR BKN002 BKN004
                        05/05 Q1027 R16/29//95=
201902051200 METAR LRTC 051200Z 01010KT 340V040 1500 BR FEW002 BKN005
                        06/05 Q1026 R16/29//95=
201902051230 METAR LRTC 051230Z 36011KT 3500 BR SCT002 BKN005 06/05 Q1026
                        R16/29//95=
201902051300 METAR LRTC 051300Z 36012KT 3000 BR FEW003 BKN005 06/05 Q1026
                        R16/29//95=
201902051330 METAR LRTC 051330Z 36011KT 4000 BR FEW004 OVC006 05/05 Q1026
                        R16/29//95=
201902051400 METAR LRTC 051400Z 36011KT 4500 BR SCT004 BKN006 06/05 Q1026
                        R16/29//95=
201902051430 METAR LRTC 051430Z 36011KT 5000 BR FEW004 BKN007 06/05 Q1026
                        R16/29//95=
201902051500 METAR LRTC 051500Z 36011KT 6000 BKN007 06/05 Q1026 R16/29//95=
201902051530 METAR LRTC 051530Z 35010KT 6000 FEW006 BKN008 05/05 Q1026
                        R16/29//95=
201902051600 METAR LRTC 051600Z 36010KT 6000 BKN007 05/04 Q1026 R16/29//95=
201902051630 METAR LRTC 051630Z 01010KT 6000 SCT006 BKN008 05/04 Q1026
                        R16/29//95=
201902051700 METAR LRTC 051700Z 02011KT 6000 SCT006 OVC008 05/04 Q1026
                        R16/29//95=
201902051730 METAR LRTC 051730Z 36009KT 6000 OVC007 05/04 Q1026 R16/29//95=
201902051800 METAR LRTC 051800Z AUTO 01011KT 5000 BR BKN006/// OVC008///
                        05/04 Q1025=
201902051830 METAR LRTC 051830Z AUTO 36009KT 5000 BR BKN005/// OVC007///
                        05/04 Q1025=
201902051900 METAR LRTC 051900Z AUTO 36009KT 5000 BR FEW005/// OVC007///
                        05/04 Q1025=
201902051930 METAR LRTC 051930Z AUTO 36011KT 5000 BR BKN005/// OVC007///
                        05/04 Q1025=
201902052000 METAR LRTC 052000Z AUTO 36010KT 5000 BR BKN005/// OVC007///
                        05/04 Q1025=
201902052030 METAR LRTC 052030Z AUTO 36010KT 5000 BR BKN005/// OVC007///
                        05/04 Q1024=
201902052100 METAR LRTC 052100Z AUTO 36008KT 5000 BR BKN004/// BKN006///
                        05/04 Q1025=
201902052130 METAR LRTC 052130Z AUTO 36011KT 4600 BR BKN003/// OVC005///
                        04/04 Q1024=
201902052200 METAR LRTC 052200Z AUTO 02010KT 4700 BR SCT003/// BKN005///
                        04/04 Q1024=
201902052230 METAR LRTC 052230Z AUTO 03009KT 4400 BR SCT003/// BKN005///
                        04/03 Q1024=
201902052300 METAR LRTC 052300Z AUTO 02009KT 4300 BR SCT003/// BKN005///
                        04/03 Q1024=
201902052330 METAR LRTC 052330Z AUTO 01009KT 3900 BR BKN003/// OVC005///
                        04/03 Q1024=
201902060000 METAR LRTC 060000Z AUTO 01008KT 4000 BR OVC003/// 04/03 Q1024=
201902060030 METAR LRTC 060030Z AUTO 01010KT 3500 BR FEW001/// BKN003///
                        OVC005/// 04/03 Q1023=
201902060100 METAR LRTC 060100Z AUTO 36011KT 2100 BR SCT001/// OVC003///
                        04/03 Q1022=
201902060130 METAR LRTC 060130Z AUTO 36012KT 2300 BR BKN001/// OVC003///
                        04/03 Q1022=
201902060200 METAR LRTC 060200Z AUTO 36013KT 2200 BR SCT001/// OVC003///
                        03/03 Q1022=
201902060230 METAR LRTC 060230Z AUTO 01014KT 2300 BR OVC002/// 03/03 Q1021=
201902060300 METAR LRTC 060300Z AUTO 36009KT 3500 R34/2000 BR BKN002///
                        OVC004/// 03/03 Q1022=
201902060330 METAR LRTC 060330Z AUTO 35012KT 3900 BR BKN002/// OVC004///
                        03/03 Q1021=
201902060400 METAR LRTC 060400Z AUTO 01010KT 3600 BR OVC003/// 03/03 Q1021=
201902060430 METAR LRTC 060430Z AUTO 01012KT 4300 BR SCT002/// OVC004///
                        03/03 Q1021=
201902060500 METAR LRTC 060500Z AUTO 01011KT 4500 BR BKN003/// OVC005///
                        03/03 Q1021=
201902060530 METAR LRTC 060530Z AUTO 01012KT 3800 BR SCT002/// OVC004///
                        03/03 Q1022=
201902060600 METAR LRTC 060600Z 36012KT 4000 BR OVC004 03/03 Q1022 R16/15//95=
201902060630 METAR LRTC 060630Z 01015KT 6000 OVC005 03/03 Q1022 R16/15//95=
201902060700 METAR LRTC 060700Z 01014KT 6000 BKN005 03/03 Q1022 R16/15//95=
201902060730 METAR COR LRTC 060730Z 01013KT 6000 OVC005 03/03 Q1023 R16/15//95=
201902060800 METAR LRTC 060800Z 01014KT 5000 BR BKN005 03/03 Q1022 R16/15//95=
201902060830 METAR LRTC 060830Z 01012KT 7000 OVC008 04/03 Q1023 R16/15//95=
201902060900 METAR LRTC 060900Z 01012KT 8000 BKN007 04/03 Q1023 R16/15//95=
201902060930 METAR LRTC 060930Z 36014KT 9999 OVC009 04/03 Q1022 R16/15//95=
201902061000 METAR LRTC 061000Z 36018KT 9999 BKN011 04/03 Q1021 R16/15//95=
201902061030 METAR LRTC 061030Z 36017KT 9999 OVC011 04/03 Q1021=
201902061100 METAR LRTC 061100Z 36017KT 9999 BKN010 05/03 Q1021=
201902061130 METAR LRTC 061130Z 36018KT 9999 OVC011 05/03 Q1021=
201902061200 METAR LRTC 061200Z 34015KT 9999 BKN013 04/03 Q1022=
201902061230 METAR LRTC 061230Z 34015KT 9999 OVC007 04/03 Q1022=
201902061300 METAR LRTC 061300Z 34014KT 9999 BKN008 04/03 Q1022=
201902061330 METAR LRTC 061330Z 36016KT 9999 OVC014 04/03 Q1022=
201902061400 METAR LRTC 061400Z 35013KT 9999 BKN014 04/03 Q1022=
201902061430 METAR LRTC 061430Z 35015KT 9999 OVC010 04/03 Q1022=
201902061500 METAR LRTC 061500Z 36013KT 9999 OVC010 04/02 Q1022=
201902061530 METAR LRTC 061530Z 35014KT 7000 OVC011 04/02 Q1022=
201902061600 METAR LRTC 061600Z 35018KT 9000 OVC016 04/02 Q1022=
201902061630 METAR LRTC 061630Z 34020KT 9000 OVC016 04/02 Q1021=
201902061700 METAR LRTC 061700Z 35021KT 9000 BKN021 04/02 Q1022=
201902061730 METAR LRTC 061730Z 35020KT 9000 OVC019 04/02 Q1022=
201902061800 METAR LRTC 061800Z AUTO 36019KT 9999 SCT016/// BKN019///
                        04/01 Q1023=
201902061830 METAR LRTC 061830Z AUTO 35019KT 9999 BKN019/// BKN022///
                        04/01 Q1023=
201902061900 METAR LRTC 061900Z AUTO 35017KT 9000 BKN020/// BKN024///
                        04/M00 Q1024=
201902061930 METAR LRTC 061930Z AUTO 35017KT 9999 OVC022/// 04/M00 Q1024=
201902062000 METAR LRTC 062000Z AUTO 35014KT 9999 BKN022/// 03/M01 Q1024=
201902062030 METAR LRTC 062030Z AUTO 35014KT 9999 OVC021/// 03/M01 Q1025=
201902062100 METAR LRTC 062100Z AUTO 35013KT 9999 FEW021/// BKN026///
                        BKN036/// 03/M01 Q1025=
201902062130 METAR LRTC 062130Z AUTO 35015KT 9999 FEW024/// SCT028///
                        BKN036/// 03/M01 Q1025=
201902062200 METAR LRTC 062200Z AUTO 36018KT 9999 FEW034/// BKN055///
                        03/M01 Q1024=
201902062230 METAR LRTC 062230Z AUTO 36020KT 9999 OVC055/// 02/M02 Q1024=
201902062300 METAR LRTC 062300Z AUTO 36019KT 9999 BKN055/// 02/M03 Q1025=
201902062330 METAR LRTC 062330Z AUTO 36014KT 9999 OVC060/// 02/M03 Q1025=
201902070000 METAR LRTC 070000Z AUTO 35011KT 9999 OVC060/// 01/M02 Q1025=
201902070030 METAR LRTC 070030Z AUTO 35009KT 9999 FEW055/// SCT075///
                        BKN210/// 01/M02 Q1025=
201902070100 METAR LRTC 070100Z AUTO 35007KT 9999 OVC075/// 01/M02 Q1025=
201902070130 METAR LRTC 070130Z AUTO 35009KT 9999 BKN080/// 01/M01 Q1025=
201902070200 METAR LRTC 070200Z AUTO 35009KT 9999 BKN075/// 01/M02 Q1025=
201902070230 METAR LRTC 070230Z AUTO 34006KT 9999 BKN080/// 01/M01 Q1025=
201902070300 METAR LRTC 070300Z AUTO 34006KT 9000 FEW080/// BKN210///
                        00/M02 Q1025=
201902070330 METAR LRTC 070330Z AUTO 33009KT 9999 BKN210/// 01/M01 Q1025=
201902070400 METAR LRTC 070400Z AUTO 35011KT 9999 BKN220/// 01/M02 Q1025=
201902070430 METAR LRTC 070430Z AUTO 35012KT 9999 BKN200/// 01/M02 Q1025=
201902070500 METAR LRTC 070500Z AUTO 35011KT 9999 BKN210/// 01/M02 Q1025=
201902070530 METAR LRTC 070530Z AUTO 35009KT 9999 SCT210/// 01/M02 Q1025=
201902070600 METAR LRTC 070600Z 34007KT CAVOK 01/M02 Q1026=
201902070630 METAR LRTC 070630Z 35007KT CAVOK 01/M02 Q1026 R16/CLRD//=
201902070700 METAR LRTC 070700Z 36011KT CAVOK 01/M02 Q1025=
201902070730 METAR LRTC 070730Z 36011KT CAVOK 02/M01 Q1026=
201902070800 METAR LRTC 070800Z 01013KT CAVOK 02/M01 Q1025=
201902070830 METAR LRTC 070830Z 36012KT CAVOK 03/M01 Q1025=
201902070900 METAR LRTC 070900Z 01011KT 9999 FEW025 04/M01 Q1025=
201902070930 METAR LRTC 070930Z 01013KT 9999 FEW020 04/M00 Q1024=
201902071000 METAR LRTC 071000Z 01016KT 9999 FEW022 05/M01 Q1024=
201902071030 METAR LRTC 071030Z 02014KT 9999 FEW024 05/M01 Q1024=
201902071100 METAR LRTC 071100Z 03015KT 9999 SCT031 05/M02 Q1024=
201902071130 METAR LRTC 071130Z 02013KT 9999 SCT034 05/M01 Q1024=
201902071200 METAR LRTC 071200Z 03013KT 9999 BKN034 05/M02 Q1024=
201902071230 METAR LRTC 071230Z 36011KT 9999 BKN034 05/M02 Q1024=
201902071300 METAR LRTC 071300Z 01012KT 9999 BKN034 04/M02 Q1024=
201902071330 METAR LRTC 071330Z 01011KT 9999 BKN036 05/M02 Q1024=
201902071400 METAR LRTC 071400Z 01009KT 9999 FEW027 BKN037 05/M02 Q1024=
201902071430 METAR LRTC 071430Z 02010KT 9999 FEW029 SCT036 04/M01 Q1024=
201902071500 METAR LRTC 071500Z 01010KT 9999 FEW029 SCT036 04/M01 Q1024=
201902071530 METAR LRTC 071530Z 01006KT 9999 FEW035 03/M01 Q1024=
201902071600 METAR LRTC 071600Z 01005KT 9999 FEW036 02/M01 Q1024=
201902071630 METAR LRTC 071630Z 35007KT 9999 FEW036 02/M02 Q1024=
201902071700 METAR LRTC 071700Z 35006KT 9999 SCT033 01/M01 Q1024=
201902071730 METAR LRTC 071730Z 35006KT 9999 SCT033 02/M01 Q1023=
201902071800 METAR LRTC 071800Z AUTO 35006KT 9999 BKN230/// 01/M02 Q1023=
201902071830 METAR LRTC 071830Z AUTO 02007KT 8000 BKN230/// 00/M02 Q1023=
201902071900 METAR LRTC 071900Z AUTO 01005KT 350V050 6000 FEW220/// 00/M01
                        Q1023=
201902071930 METAR LRTC 071930Z AUTO 03006KT 6000 FEW240/// 01/M01 Q1023=
201902072000 METAR LRTC 072000Z AUTO 02005KT 6000 FEW023/// SCT240///
                        00/M01 Q1023=
201902072030 METAR LRTC 072030Z AUTO 01005KT 5000 BR BKN220/// M00/M01
                        Q1023=
201902072100 METAR LRTC 072100Z AUTO 02005KT 6000 BKN220/// 00/M01 Q1023=
201902072130 METAR LRTC 072130Z AUTO 03006KT 7000 NCD 00/M01 Q1023=
201902072200 METAR LRTC 072200Z AUTO 02007KT 6000 NCD M00/M02 Q1023=
201902072230 METAR LRTC 072230Z AUTO 02006KT 8000 BKN022/// 00/M01 Q1023=
201902072300 METAR LRTC 072300Z AUTO 01007KT 9999 OVC021/// 01/M01 Q1023=
201902072330 METAR LRTC 072330Z AUTO 02006KT 9999 BKN020/// 01/M02 Q1023=
201902080000 METAR LRTC 080000Z AUTO 01005KT 9999 FEW020/// OVC024///
                        01/M02 Q1023=
201902080030 METAR LRTC 080030Z AUTO 33007KT 9999 BKN024/// BKN028///
                        01/M02 Q1023=
201902080100 METAR LRTC 080100Z AUTO 33007KT 9999 OVC026/// 01/M02 Q1022=
201902080130 METAR LRTC 080130Z AUTO 34006KT 9999 BKN027/// 01/M01 Q1022=
201902080200 METAR LRTC 080200Z AUTO 34006KT 9999 OVC027/// 01/M01 Q1022=
201902080230 METAR LRTC 080230Z AUTO 35007KT 9999 BKN027/// 01/M02 Q1022=
201902080300 METAR LRTC 080300Z AUTO 35006KT 9999 OVC028/// 01/M02 Q1022=
201902080330 METAR LRTC 080330Z AUTO 35006KT 9999 BKN025/// BKN029///
                        01/M01 Q1022=
201902080400 METAR LRTC 080400Z AUTO 34007KT 9000 OVC026/// 01/M01 Q1022=
201902080430 METAR LRTC 080430Z AUTO 35006KT 9000 OVC027/// 01/M01 Q1022=
201902080500 METAR LRTC 080500Z AUTO 35006KT 9000 OVC026/// 01/M01 Q1022=
201902080530 METAR LRTC 080530Z AUTO 36006KT 9000 OVC026/// 01/M01 Q1022=
201902080600 METAR LRTC 080600Z 36006KT 9000 OVC026 01/M01 Q1022 R16/CLRD//=
201902080630 METAR LRTC 080630Z 36005KT 9000 OVC027 01/M01 Q1022=
201902080700 METAR LRTC 080700Z 35006KT 9000 OVC026 01/M01 Q1022=
201902080730 METAR LRTC 080730Z 36006KT 8000 OVC024 01/M01 Q1022=
201902080800 METAR LRTC 080800Z 36007KT 9999 OVC024 01/M01 Q1022=
201902080830 METAR LRTC 080830Z 36008KT 9999 OVC024 01/M01 Q1022=
201902080900 METAR LRTC 080900Z 36007KT 9999 OVC025 01/M01 Q1023=
201902080930 METAR LRTC 080930Z 01007KT 9999 OVC026 02/M01 Q1023=
201902081000 METAR LRTC 081000Z 01006KT 9999 OVC026 02/M01 Q1023=
201902081030 METAR LRTC 081030Z 02007KT 9999 OVC026 02/M02 Q1022=
201902081100 METAR LRTC 081100Z 02007KT 9999 OVC027 02/M02 Q1022=
201902081130 METAR LRTC 081130Z 03007KT 9999 OVC027 02/M02 Q1022=
201902081200 METAR LRTC 081200Z 02008KT 9999 BKN026 02/M02 Q1022=
201902081230 METAR LRTC 081230Z 02008KT 9999 OVC026 02/M02 Q1022=
201902081300 METAR LRTC 081300Z 02007KT 9999 OVC025 02/M02 Q1022=
201902081330 METAR LRTC 081330Z 03007KT 9999 OVC027 02/M02 Q1022=
201902081400 METAR LRTC 081400Z 02007KT 9999 BKN027 02/M03 Q1022=
201902081430 METAR LRTC 081430Z 36006KT 9999 OVC029 02/M03 Q1022=
201902081500 METAR LRTC 081500Z 01008KT 9999 OVC022 01/M02 Q1022=
201902081530 METAR LRTC 081530Z 02008KT 9999 OVC023 01/M02 Q1023=
201902081600 METAR LRTC 081600Z 02007KT 9999 OVC025 01/M02 Q1023=
201902081630 METAR LRTC 081630Z 01005KT 9999 OVC024 01/M02 Q1023=
201902081700 METAR LRTC 081700Z 01006KT 9999 OVC026 01/M02 Q1023=
201902081730 METAR LRTC 081730Z 01005KT 9999 OVC027 01/M03 Q1023=
201902081800 METAR LRTC 081800Z AUTO 01006KT 9999 BKN021/// 01/M03 Q1023=
201902081830 METAR LRTC 081830Z AUTO 02005KT 9999 OVC022/// 01/M03 Q1023=
201902081900 METAR LRTC 081900Z AUTO 36004KT 310V030 9999 OVC024/// 01/M04
                        Q1023=
201902081930 METAR LRTC 081930Z AUTO 01005KT 9999 OVC022/// 01/M04 Q1023=
201902082000 METAR LRTC 082000Z AUTO 35006KT 9999 BKN023/// 01/M04 Q1023=
201902082030 METAR LRTC 082030Z AUTO 35005KT 9999 OVC023/// 00/M04 Q1023=
201902082100 METAR LRTC 082100Z AUTO 35005KT 9999 BKN025/// 00/M04 Q1023=
201902082130 METAR LRTC 082130Z AUTO 34006KT 9999 OVC025/// 00/M04 Q1023=
201902082200 METAR LRTC 082200Z AUTO 35005KT 9999 BKN024/// 00/M04 Q1023=
201902082230 METAR LRTC 082230Z AUTO 33006KT 9999 BKN023/// 00/M05 Q1023=
201902082300 METAR LRTC 082300Z AUTO 34006KT 9999 BKN024/// 00/M04 Q1023=
201902082330 METAR LRTC 082330Z AUTO 02005KT 350V050 9999 BKN022/// BKN026///
                        00/M05 Q1023=
201902090000 METAR LRTC 090000Z AUTO 01006KT 9999 BKN025/// M00/M05 Q1023=
201902090030 METAR LRTC 090030Z AUTO 34004KT 300V010 9999 BKN023/// M00/M05
                        Q1023=
201902090100 METAR LRTC 090100Z AUTO 36005KT 320V020 9999 BKN023/// M00/M05
                        Q1023=
201902090130 METAR LRTC 090130Z AUTO 34006KT 300V010 9999 BKN022/// M00/M05
                        Q1023=
201902090200 METAR LRTC 090200Z AUTO 36005KT 9999 BKN023/// M00/M05 Q1023=
201902090230 METAR LRTC 090230Z AUTO 35007KT 9999 OVC022/// M00/M06 Q1023=
201902090300 METAR LRTC 090300Z AUTO 34004KT 9999 BKN023/// M00/M05 Q1023=
201902090330 METAR LRTC 090330Z AUTO 32008KT 9999 SCT022/// OVC026///
                        M00/M05 Q1023=
201902090400 METAR LRTC 090400Z AUTO 30006KT 9999 BKN025/// M00/M05 Q1023=
201902090430 METAR LRTC 090430Z AUTO 31006KT 9999 BKN026/// M00/M05 Q1023=
201902090500 METAR LRTC 090500Z AUTO 31007KT 9999 BKN027/// M00/M05 Q1023=
201902090530 METAR LRTC 090530Z AUTO 31007KT 9999 OVC027/// M00/M05 Q1023=
201902090600 METAR LRTC 090600Z 29006KT 9999 OVC027 M00/M05 Q1023=
201902090630 METAR LRTC 090630Z 31004KT 260V350 9999 OVC026 00/M06 Q1023=
201902090700 METAR LRTC 090700Z VRB02KT 9999 BKN028 00/M06 Q1023=
201902090730 METAR LRTC 090730Z 29003KT 240V350 9999 OVC028 00/M05 Q1023=
201902090800 METAR LRTC 090800Z 31007KT 9999 BKN028 01/M05 Q1023=
201902090830 METAR LRTC 090830Z 36007KT 320V050 9999 BKN028 01/M06 Q1023=
201902090900 METAR LRTC 090900Z 03006KT 360V060 9999 FEW028 SCT032 01/M06
                        Q1023=
201902090930 METAR LRTC 090930Z 02008KT 9999 BKN029 02/M05 Q1022=
201902091000 METAR LRTC 091000Z 33008KT 300V360 9999 BKN028 02/M06 Q1022=
201902091030 METAR LRTC 091030Z 32006KT 290V360 9999 BKN029 02/M06 Q1022=
201902091100 METAR LRTC 091100Z 34007KT 320V020 9999 BKN030 02/M06 Q1022=
201902091130 METAR LRTC 091130Z 35004KT 320V020 9999 BKN030 02/M06 Q1022=
201902091200 METAR LRTC 091200Z 03005KT 350V080 9999 BKN029 02/M06 Q1022=
201902091230 METAR LRTC 091230Z VRB03KT 9999 BKN029 02/M06 Q1021=
201902091300 METAR LRTC 091300Z 10003KT 060V180 9999 OVC028 02/M06 Q1021=
201902091330 METAR LRTC 091330Z 06005KT 040V100 9999 BKN031 02/M05 Q1021=
201902091400 METAR LRTC 091400Z 07003KT 040V110 9999 BKN030 02/M05 Q1021=
201902091430 METAR LRTC 091430Z 09003KT 050V120 9999 BKN030 02/M05 Q1021=
201902091500 METAR LRTC 091500Z 04002KT 9999 BKN029 02/M05 Q1021=
201902091530 METAR LRTC 091530Z 10002KT 9999 OVC029 02/M04 Q1021=
201902091600 METAR LRTC 091600Z 11003KT 9999 OVC029 01/M03 Q1021=
201902091630 METAR LRTC 091630Z 09005KT 9999 BKN030 01/M03 Q1022=
201902091700 METAR LRTC 091700Z 08005KT 9999 BKN030 01/M03 Q1022=
201902091730 METAR LRTC 091730Z 09006KT 9999 SCT030 M00/M03 Q1021=
201902091800 METAR LRTC 091800Z AUTO 18005KT 140V210 9999 FEW180/// M01/M03
                        Q1022=
201902091830 METAR LRTC 091830Z AUTO 14005KT 9999 NCD M01/M03 Q1022=
201902091900 METAR LRTC 091900Z AUTO 16005KT 140V200 9999 NCD M01/M03
                        Q1022=
201902091930 METAR LRTC 091930Z AUTO 16004KT 9000 NCD M01/M03 Q1021=
201902092000 METAR LRTC 092000Z AUTO 17004KT 9000 NCD M02/M03 Q1021=
201902092030 METAR LRTC 092030Z AUTO 15004KT 8000 NCD M02/M03 Q1021=
201902092100 METAR LRTC 092100Z AUTO 17003KT 9000 NCD M02/M04 Q1021=
201902092130 METAR LRTC 092130Z AUTO 17004KT 9000 NCD M02/M04 Q1021=
201902092200 METAR LRTC 092200Z AUTO 18004KT 9999 NCD M02/M04 Q1021=
201902092230 METAR LRTC 092230Z AUTO 17002KT 9999 NCD M02/M04 Q1021=
201902092300 METAR LRTC 092300Z AUTO 18002KT 9999 NCD M02/M04 Q1021=
201902092330 METAR LRTC 092330Z AUTO 18003KT 9999 NCD M02/M04 Q1021=
201902100000 METAR LRTC 100000Z AUTO 19003KT 9999 NCD M01/M04 Q1021=
201902100030 METAR LRTC 100030Z AUTO 00000KT 9999 NCD M01/M04 Q1021=
201902100100 METAR LRTC 100100Z AUTO 11004KT 8000 NCD M02/M04 Q1021=
201902100130 METAR LRTC 100130Z AUTO 12005KT 7000 NCD M02/M04 Q1021=
201902100200 METAR LRTC 100200Z AUTO 14004KT 9000 NCD M01/M03 Q1020=
201902100230 METAR LRTC 100230Z AUTO 17004KT 6000 NCD M02/M04 Q1020=
201902100300 METAR LRTC 100300Z AUTO 23004KT 6000 NCD M02/M04 Q1020=
201902100330 METAR LRTC 100330Z AUTO 24003KT 7000 NCD M02/M03 Q1021=
201902100400 METAR LRTC 100400Z AUTO 28003KT 6000 NCD M02/M03 Q1021=
201902100430 METAR LRTC 100430Z AUTO 12002KT 5000 BR NCD M03/M04 Q1021=
201902100500 METAR LRTC 100500Z AUTO 15003KT 5000 BR NCD M03/M04 Q1021=
201902100530 METAR LRTC 100530Z AUTO 19003KT 5000 BR NCD M03/M03 Q1021=
201902100600 METAR LRTC 100600Z 25002KT 8000 NSC M03/M04 Q1021=
201902100630 METAR LRTC 100630Z 00000KT 8000 NSC M02/M03 Q1021=
201902100700 METAR LRTC 100700Z VRB02KT 8000 NSC M01/M02 Q1021=
201902100730 METAR LRTC 100730Z VRB01KT 8000 NSC 01/M02 Q1021=
201902100800 METAR LRTC 100800Z 14003KT 090V170 9000 NSC 02/M02 Q1021=
201902100830 METAR LRTC 100830Z 19002KT CAVOK 03/M01 Q1022=
201902100900 METAR LRTC 100900Z 13003KT 100V190 CAVOK 04/M00 Q1021=
201902100930 METAR LRTC 100930Z 17004KT 120V220 CAVOK 05/M00 Q1021=
201902101000 METAR LRTC 101000Z 21006KT 170V230 CAVOK 06/M02 Q1021=
201902101030 METAR LRTC 101030Z 23004KT 170V340 CAVOK 07/M01 Q1021=
201902101100 METAR LRTC 101100Z VRB02KT CAVOK 08/M01 Q1020=
201902101130 METAR LRTC 101130Z 23005KT 200V270 CAVOK 08/M02 Q1020=
201902101200 METAR LRTC 101200Z 25007KT 230V290 9999 FEW033 08/M01 Q1020=
201902101230 METAR LRTC 101230Z 23007KT 190V270 9999 FEW033 08/M01 Q1020=
201902101300 METAR LRTC 101300Z 24005KT 120V280 9999 FEW035 08/M01 Q1019=
201902101330 METAR LRTC 101330Z 22005KT 180V260 CAVOK 08/M01 Q1019=
201902101400 METAR LRTC 101400Z 20004KT CAVOK 08/M01 Q1019=
201902101430 METAR LRTC 101430Z 22003KT CAVOK 08/M01 Q1019=
201902101500 METAR LRTC 101500Z 15004KT 100V230 CAVOK 06/01 Q1019=
201902101530 METAR LRTC 101530Z 11006KT CAVOK 04/01 Q1019=
201902101600 METAR LRTC 101600Z 15008KT 9000 NSC 04/00 Q1019=
201902101630 METAR LRTC 101630Z 15006KT 8000 NSC 02/M00 Q1019=
201902101700 METAR LRTC 101700Z 17004KT 8000 NSC 02/M01 Q1019=
201902101730 METAR LRTC 101730Z 16006KT 9000 NSC 01/M01 Q1019=
201902101800 METAR LRTC 101800Z AUTO 15006KT 9000 NCD 01/M01 Q1019=
201902101830 METAR LRTC 101830Z AUTO 18004KT 9000 NCD 01/M01 Q1019=
201902101900 METAR LRTC 101900Z AUTO 16004KT 7000 NCD 01/M01 Q1018=
201902101930 METAR LRTC 101930Z AUTO 16004KT 7000 NCD 01/M01 Q1018=
201902102000 METAR LRTC 102000Z AUTO 15003KT 6000 NCD 01/M00 Q1018=
201902102030 METAR LRTC 102030Z AUTO 15005KT 6000 SCT240/// 01/M00 Q1017=
201902102100 METAR LRTC 102100Z AUTO 18004KT 6000 SCT240/// 01/M01 Q1017=
201902102130 METAR LRTC 102130Z AUTO 20004KT 7000 NCD 01/M00 Q1017=
201902102200 METAR LRTC 102200Z AUTO 18004KT 6000 NCD 01/M00 Q1017=
201902102230 METAR LRTC 102230Z AUTO 15006KT 5000 BR SCT220/// 01/00 Q1016=
201902102300 METAR LRTC 102300Z AUTO 15005KT 5000 BR FEW200/// 01/00 Q1016=
201902102330 METAR LRTC 102330Z AUTO 14006KT 6000 SCT230/// 01/M00 Q1015=
201902110000 METAR LRTC 110000Z AUTO 18005KT 6000 BKN210/// 01/M00 Q1015=
201902110030 METAR LRTC 110030Z AUTO VRB03KT 7000 BKN200/// 02/01 Q1015=
201902110100 METAR LRTC 110100Z AUTO 14005KT 5000 BR BKN190/// 02/00 Q1015=
201902110130 METAR LRTC 110130Z AUTO 17007KT 5000 BR BKN200/// 03/01 Q1014=
201902110200 METAR LRTC 110200Z AUTO 15006KT 4300 BR FEW210/// 02/01 Q1014=
201902110230 METAR LRTC 110230Z AUTO 15012KT 4300 BR BKN190/// 03/02 Q1013=
201902110300 METAR LRTC 110300Z AUTO 17013KT 4100 BR FEW006/// BKN210///
                        03/03 Q1013=
201902110330 METAR LRTC 110330Z AUTO 16014KT 3200 R34/2000 BR FEW006///
                        BKN180/// 03/03 Q1013=
201902110400 METAR LRTC 110400Z AUTO 16014KT 3100 R34/2000 BR BKN170///
                        04/03 Q1012=
201902110430 METAR LRTC 110430Z AUTO 17012KT 3000 BR FEW004/// BKN170///
                        04/03 Q1012=
201902110500 METAR LRTC 110500Z AUTO 16010KT 4100 BR BKN150/// 03/03 Q1012=
201902110530 METAR LRTC 110530Z AUTO 15011KT 5000 BR BKN150/// 04/03 Q1012=
201902110600 METAR LRTC 110600Z 16011KT 8000 NSC 05/03 Q1012 R16/19//95=
201902110630 METAR LRTC 110630Z 16011KT 9000 NSC 05/03 Q1012 R16/19//95=
201902110700 METAR LRTC 110700Z 17013KT 9000 NSC 06/03 Q1012 R16/19//95=
201902110730 METAR LRTC 110730Z 17010KT 9000 NSC 06/03 Q1012 R16/19//95=
201902110800 METAR LRTC 110800Z 17008KT 130V200 9000 NSC 06/03 Q1011 R16/19//95=
201902110830 METAR LRTC 110830Z 17014KT 7000 NSC 07/04 Q1011 R16/19//95=
201902110900 METAR LRTC 110900Z 17010KT 8000 FEW025 08/03 Q1011 R16/19//95=
201902110930 METAR LRTC 110930Z 15009KT 110V180 9000 FEW017 08/04 Q1010
                        R16/19//95=
201902111000 METAR LRTC 111000Z 16011KT 9000 FEW018 09/04 Q1010 R16/19//95=
201902111030 METAR LRTC 111030Z 15010KT 9000 NSC 10/04 Q1010 R16/CLRD//=
201902111100 METAR LRTC 111100Z 15009KT 120V180 9000 NSC 11/04 Q1009=
201902111130 METAR LRTC 111130Z 14013KT 8000 NSC 10/05 Q1008=
201902111200 METAR LRTC 111200Z 14011KT 9000 NSC 11/05 Q1008=
201902111230 METAR LRTC 111230Z 14014KT 9000 NSC 10/05 Q1008=
201902111300 METAR LRTC 111300Z 15012KT 9000 NSC 10/05 Q1008=
201902111330 METAR LRTC 111330Z 14011KT 9000 NSC 09/05 Q1008=
201902111400 METAR LRTC 111400Z 14011KT 9000 NSC 09/05 Q1008=
201902111430 METAR LRTC 111430Z 14011KT 9000 NSC 08/05 Q1008=
201902111500 METAR LRTC 111500Z 12009KT 9000 NSC 08/05 Q1007=
201902111530 METAR LRTC 111530Z 13007KT 100V160 7000 NSC 07/05 Q1007=
201902111600 METAR LRTC 111600Z 14006KT 7000 NSC 06/05 Q1007=
201902111630 METAR LRTC 111630Z 13004KT 7000 NSC 06/04 Q1007=
201902111700 METAR LRTC 111700Z 12007KT 6000 NSC 05/04 Q1007=
201902111730 METAR LRTC 111730Z 12005KT 5000 BR NSC 05/04 Q1007=
201902111800 METAR LRTC 111800Z AUTO 12006KT 4900 BR FEW240/// 04/03 Q1007=
201902111830 METAR LRTC 111830Z AUTO 15003KT 4800 BR BKN170/// 05/04 Q1007=
201902111900 METAR LRTC 111900Z AUTO 16003KT 4700 BR BKN150/// 05/04 Q1006=
201902111930 METAR LRTC 111930Z AUTO 17003KT 4200 BR BKN160/// 04/04 Q1007=
201902112000 METAR LRTC 112000Z AUTO 14005KT 5000 BR BKN150/// 05/04 Q1007=
201902112030 METAR LRTC 112030Z AUTO 11003KT 5000 BR BKN140/// BKN180///
                        05/04 Q1006=
201902112100 METAR LRTC 112100Z AUTO 13007KT 6000 BKN150/// 06/04 Q1006=
201902112130 METAR LRTC 112130Z AUTO 13007KT 5000 BR SCT130/// BKN140///
                        06/05 Q1005=
201902112200 METAR LRTC 112200Z AUTO 14006KT 5000 BR BKN140/// 06/05 Q1005=
201902112230 METAR LRTC 112230Z AUTO 16004KT 130V190 3900 BR OVC130///
                        05/05 Q1005=
201902112300 METAR LRTC 112300Z AUTO 15005KT 3600 BR BKN130/// 06/05 Q1005=
201902112330 METAR LRTC 112330Z AUTO 15005KT 3000 BR OVC120/// 05/05 Q1005=
201902120000 METAR LRTC 120000Z AUTO 18003KT 140V220 3200 R34/2000 BR
                        SCT120/// BKN130/// BKN150/// 05/05
                        Q1005=
201902120030 METAR LRTC 120030Z AUTO 16001KT 2000 BR BKN120/// OVC130///
                        05/04 Q1005=
201902120100 METAR LRTC 120100Z AUTO 15003KT 2400 R34/1300VP2000U BKN130///
                        05/05 Q1004=
201902120130 METAR LRTC 120130Z AUTO 17003KT 2400 R34/1900VP2000D BKN130///
                        05/04 Q1005=
201902120200 METAR LRTC 120200Z AUTO 03002KT 320V060 0500 R34/0600N FG
                        FEW140/// 04/03 Q1004=
201902120230 METAR LRTC 120230Z AUTO 07002KT 0550 R34/0550V0700N FG FEW003///
                        04/04 Q1004=
201902120300 METAR LRTC 120300Z AUTO 22003KT 0300 R34/0325V0450N FG BKN001///
                        BKN003/// 03/03 Q1004=
201902120330 METAR LRTC 120330Z AUTO 27003KT 230V290 0800 R34/0800V1300U
                        FG FEW003/// BKN110/// 04/03 Q1004=
201902120400 METAR LRTC 120400Z AUTO 33005KT 2300 BKN110/// 04/04 Q1004=
201902120430 METAR LRTC 120430Z AUTO 32008KT 1200 R34/0900VP2000D FG FEW004///
                        SCT085/// BKN110/// 04/04 Q1004=
201902120500 METAR LRTC 120500Z AUTO 33011KT 0600 R34/0700N FG VV001 04/04
                        Q1005=
201902120530 METAR LRTC 120530Z AUTO 35006KT 310V020 0800 R34/1000U FG
                        VV002 04/04 Q1005=
201902120600 METAR LRTC 120600Z 32009KT 0800 R34/1200U FG BKN003 04/04
                        Q1005 R16/19//95=
201902120630 METAR LRTC 120630Z 26005KT 0800 R34/1000U FG BKN005 05/04
                        Q1005 R16/19//95=
201902120700 METAR LRTC 120700Z 32008KT 260V340 3000 BR BKN006 05/05 Q1005
                        R16/19//95=
201902120730 METAR LRTC 120730Z 32016KT 3000 BR OVC006 05/05 Q1005 R16/19//95=
201902120800 METAR LRTC 120800Z 33012KT 2200 BR OVC006 05/05 Q1005 R16/CLRD//=
201902120830 METAR LRTC 120830Z 32012KT 1900 -RA BR OVC004 05/05 Q1005=
201902120900 METAR LRTC 120900Z 30013KT 2000 -RA BR OVC006 05/05 Q1006
                        R16/29//95=
201902120930 METAR LRTC 120930Z 29010KT 3000 -RA BR BKN010 05/05 Q1006
                        R16/29//95=
201902121000 METAR LRTC 121000Z 32016KT 7000 BKN012 06/05 Q1005 R16/29//95=
201902121030 METAR LRTC 121030Z 33015KT 8000 BKN010 06/05 Q1005 R16/29//95=
201902121100 METAR LRTC 121100Z 29014KT 9999 BKN015 05/04 Q1006 R16/29//95=
201902121130 METAR LRTC 121130Z 29014KT 9999 BKN011 05/04 Q1006 R16/29//95=
201902121200 METAR LRTC 121200Z 29013KT 9999 FEW009 BKN026 05/03 Q1007
                        R16/29//95=
201902121230 METAR LRTC 121230Z 30014KT 9999 BKN015 04/03 Q1008 R16/29//95=
201902121300 METAR LRTC 121300Z 32016KT 9999 OVC010 04/02 Q1007 R16/29//95=
201902121330 METAR LRTC 121330Z 31015KT 9999 OVC010 03/02 Q1008 R16/29//95=
201902121400 METAR LRTC 121400Z 30015KT 9999 OVC010 03/02 Q1008 R16/29//95=
201902121430 METAR LRTC 121430Z 31013KT 9999 OVC014 03/02 Q1009 R16/29//95=
201902121500 METAR LRTC 121500Z 31015KT 9999 OVC024 03/02 Q1009 R16/29//95=
201902121530 METAR LRTC 121530Z 30016KT 9000 BKN022 03/02 Q1010 R16/29//95=
201902121600 METAR LRTC 121600Z 31016KT 9000 FEW018 BKN045 03/02 Q1011
                        R16/29//95=
201902121630 METAR LRTC 121630Z 31015KT 9999 BKN039 04/02 Q1012 R16/29//95=
201902121700 METAR LRTC 121700Z 31014KT 9999 OVC030 03/02 Q1012 R16/29//95=
201902121730 METAR LRTC 121730Z 30014KT 9999 BKN035 03/02 Q1013 R16/29//95=
201902121800 METAR LRTC 121800Z AUTO 31015KT 9999 UP SCT019/// BKN022///
                        OVC055/// 03/02 Q1014=
201902121830 METAR LRTC 121830Z AUTO 31016KT 9999 -DZ FEW019/// BKN022///
                        OVC035/// 03/02 Q1014=
201902121900 METAR LRTC 121900Z AUTO 32017KT 9999 SCT023/// BKN032///
                        BKN045/// 03/01 Q1015 REDZ=
201902121930 METAR LRTC 121930Z AUTO 34019KT 9999 FEW019/// SCT034///
                        03/00 Q1016 REUP=
201902122000 METAR LRTC 122000Z AUTO 33022KT 9999 BKN120/// 03/M00 Q1016=
201902122030 METAR LRTC 122030Z AUTO 32021KT 9999 BKN120/// BKN140///
                        02/M01 Q1017=
201902122100 METAR LRTC 122100Z AUTO 32017KT 9999 BKN021/// OVC140///
                        02/M01 Q1018=
201902122130 METAR LRTC 122130Z AUTO 32017KT 9999 FEW022/// BKN120///
                        BKN150/// 02/M01 Q1018=
201902122200 METAR LRTC 122200Z AUTO 33015KT 9999 FEW025/// BKN110///
                        BKN160/// 02/M01 Q1019=
201902122230 METAR LRTC 122230Z AUTO 33016KT 9999 FEW110/// BKN160///
                        02/M02 Q1019=
201902122300 METAR LRTC 122300Z AUTO 33012KT 9999 SCT140/// BKN160///
                        01/M02 Q1020=
201902122330 METAR LRTC 122330Z AUTO 33014KT 9999 FEW140/// 02/M02 Q1020=
201902130000 METAR LRTC 130000Z AUTO 32011KT 9999 FEW130/// 01/M02 Q1021=
201902130030 METAR LRTC 130030Z AUTO 33013KT 9999 NCD 01/M02 Q1021=
201902130100 METAR LRTC 130100Z AUTO 33014KT 9999 SCT120/// 01/M02 Q1021=
201902130130 METAR LRTC 130130Z AUTO 33014KT 9999 BKN120/// 01/M02 Q1022=
201902130200 METAR LRTC 130200Z AUTO 33017KT 9999 BKN120/// 01/M03 Q1022=
201902130230 METAR LRTC 130230Z AUTO 34018KT 9999 FEW120/// 01/M03 Q1022=
201902130300 METAR LRTC 130300Z AUTO 34017KT 9999 NCD 01/M03 Q1023=
201902130330 METAR LRTC 130330Z AUTO 34017KT 9999 NCD 00/M03 Q1023=
201902130400 METAR LRTC 130400Z AUTO 34015KT 9999 NCD 00/M03 Q1023=
201902130430 METAR LRTC 130430Z AUTO 33013KT 9999 NCD 00/M03 Q1024=
201902130500 METAR LRTC 130500Z AUTO 33013KT 9999 NCD 00/M03 Q1025=
201902130530 METAR LRTC 130530Z AUTO 34008KT 9999 FEW210/// M00/M03 Q1026=
201902130600 METAR LRTC 130600Z 33009KT CAVOK 00/M03 Q1026 R16/CLRD//=
201902130630 METAR LRTC 130630Z 35006KT CAVOK 01/M02 Q1027=
201902130700 METAR LRTC 130700Z 34010KT CAVOK 02/M02 Q1027=
201902130730 METAR LRTC 130730Z 34011KT CAVOK 02/M02 Q1027=
201902130800 METAR LRTC 130800Z 34014KT CAVOK 03/M01 Q1027=
201902130830 METAR LRTC 130830Z 34015KT CAVOK 03/M01 Q1027=
201902130900 METAR LRTC 130900Z 35015KT CAVOK 04/M01 Q1028=
201902130930 METAR LRTC 130930Z 35016KT 9999 FEW024 05/M00 Q1028=
201902131000 METAR LRTC 131000Z 34016KT 9999 FEW025 05/M01 Q1028=
201902131030 METAR LRTC 131030Z 34018KT 9999 SCT030 06/M03 Q1028=
201902131100 METAR LRTC 131100Z 35016KT 9999 BKN036 06/M04 Q1028=
201902131130 METAR LRTC 131130Z 35014KT 9999 FEW032 BKN037 05/M04 Q1028=
201902131200 METAR LRTC 131200Z 35014KT 9999 FEW031 BKN043 06/M02 Q1028=
201902131230 METAR LRTC 131230Z 34014KT 9999 BKN042 05/M04 Q1028=
201902131300 METAR LRTC 131300Z 34014KT 9999 BKN041 05/M04 Q1029=
201902131330 METAR LRTC 131330Z 34013KT 9999 BKN042 05/M03 Q1029=
201902131400 METAR LRTC 131400Z 35010KT 9999 BKN041 04/M03 Q1029=
201902131430 METAR LRTC 131430Z 34009KT 9999 FEW040 04/M03 Q1029=
201902131500 METAR LRTC 131500Z 34010KT CAVOK 03/M03 Q1029=
201902131530 METAR LRTC 131530Z 34007KT CAVOK 02/M03 Q1029=
201902131600 METAR LRTC 131600Z 34008KT CAVOK 00/M04 Q1029=
201902131630 METAR LRTC 131630Z 34008KT CAVOK M00/M04 Q1030=
201902131700 METAR LRTC 131700Z 34008KT CAVOK M01/M03 Q1030=
201902131730 METAR LRTC 131730Z 33006KT CAVOK M00/M03 Q1030=
201902131800 METAR LRTC 131800Z AUTO 30005KT 9999 NCD 00/M02 Q1030=
201902131830 METAR LRTC 131830Z AUTO 17003KT 9000 NCD M02/M03 Q1029=
201902131900 METAR LRTC 131900Z AUTO 25004KT 230V290 9999 NCD M02/M03
                        Q1029=
201902131930 METAR LRTC 131930Z AUTO 26003KT 9999 NCD M01/M04 Q1030=
201902132000 METAR LRTC 132000Z AUTO VRB01KT 8000 NCD M02/M03 Q1030=
201902132030 METAR LRTC 132030Z AUTO VRB01KT 9999 NCD M02/M03 Q1030=
201902132100 METAR LRTC 132100Z AUTO 01005KT 9000 NCD M02/M03 Q1029=
201902132130 METAR LRTC 132130Z AUTO 35001KT 9999 NCD M02/M03 Q1029=
201902132200 METAR LRTC 132200Z AUTO 22004KT 9999 NCD M02/M03 Q1030=
201902132230 METAR LRTC 132230Z AUTO 19004KT 9999 NCD M03/M04 Q1029=
201902132300 METAR LRTC 132300Z AUTO 12002KT 080V150 9999 NCD M03/M04
                        Q1029=
201902132330 METAR LRTC 132330Z AUTO 00000KT 9999 NCD M03/M04 Q1029=
201902140000 METAR LRTC 140000Z AUTO 31001KT 9999 NCD M03/M04 Q1028=
201902140030 METAR LRTC 140030Z AUTO 17002KT 140V200 9999 NCD M02/M04
                        Q1028=
201902140100 METAR LRTC 140100Z AUTO 23003KT 9999 SCT085/// M02/M04 Q1028=
201902140130 METAR LRTC 140130Z AUTO VRB02KT 9999 OVC080/// M02/M04 Q1028=
201902140200 METAR LRTC 140200Z AUTO 06003KT 9999 FEW050/// OVC090///
                        M02/M03 Q1028=
201902140230 METAR LRTC 140230Z AUTO 04003KT 9999 BKN080/// OVC095///
                        M02/M03 Q1027=
201902140300 METAR LRTC 140300Z AUTO 15001KT 9999 FEW044/// SCT055///
                        BKN090/// M01/M04 Q1027=
201902140330 METAR LRTC 140330Z AUTO 14003KT 9999 SCT050/// BKN065///
                        M01/M04 Q1027=
201902140400 METAR LRTC 140400Z AUTO 22004KT 9999 BKN065/// BKN085///
                        M01/M03 Q1027=
201902140430 METAR LRTC 140430Z AUTO 21002KT 9999 OVC085/// M00/M04 Q1027=
201902140500 METAR LRTC 140500Z AUTO 22002KT 200V260 9999 BKN080/// M00/M03
                        Q1027=
201902140530 METAR LRTC 140530Z AUTO 21003KT 170V230 9999 BKN080/// M00/M03
                        Q1027=
201902140600 METAR LRTC 140600Z 18003KT CAVOK 00/M02 Q1027 R16/CLRD//=
201902140630 METAR LRTC 140630Z 17003KT 140V210 CAVOK 00/M02 Q1027=
201902140700 METAR LRTC 140700Z 22004KT 9999 FEW040 01/M02 Q1027=
201902140730 METAR LRTC 140730Z 21003KT 9999 -SN FEW038 01/M01 Q1027=
201902140800 METAR LRTC 140800Z 20001KT 9999 BKN037 01/M01 Q1027=
201902140830 METAR LRTC 140830Z 24002KT 9999 FEW037 BKN045 02/M01 Q1026=
201902140900 METAR LRTC 140900Z 12003KT 070V160 9999 SCT032 BKN041 02/M00
                        Q1026=
201902140930 METAR LRTC 140930Z 24005KT 170V340 9999 FEW027 BKN034 03/M01
                        Q1026=
201902141000 METAR LRTC 141000Z VRB02KT 9999 -RA BKN025 03/M01 Q1026=
201902141030 METAR LRTC 141030Z VRB02KT 9999 BKN024 03/M00 Q1026=
201902141100 METAR LRTC 141100Z 32014KT 9999 FEW019 BKN024 04/01 Q1025=
201902141130 METAR LRTC 141130Z 31012KT 9999 FEW020 BKN025 04/01 Q1025=
201902141200 METAR LRTC 141200Z 31011KT 9999 FEW015 BKN026 03/02 Q1025=
201902141230 METAR LRTC 141230Z 32011KT 9999 FEW022 OVC026 04/02 Q1025=
201902141300 METAR LRTC 141300Z 32011KT 9999 BKN021 BKN029 04/02 Q1025=
201902141330 METAR LRTC 141330Z 31011KT 9999 -RA SCT019 OVC022 04/02 Q1024=
201902141400 METAR LRTC 141400Z 31010KT 9999 SCT018 OVC021 04/02 Q1024=
201902141430 METAR LRTC 141430Z 31010KT 9999 FEW018 OVC025 04/03 Q1024=
201902141500 METAR LRTC 141500Z 33010KT 9999 SCT011 BKN022 04/03 Q1024=
201902141530 METAR LRTC 141530Z 31009KT 9999 SCT015 BKN022 04/03 Q1024=
201902141600 METAR LRTC 141600Z 32009KT 9999 FEW018 BKN025 04/03 Q1024=
201902141630 METAR LRTC 141630Z 33010KT 9999 -RA SCT019 OVC022 04/03 Q1025=
201902141700 METAR LRTC 141700Z 33008KT 9999 FEW019 BKN023 04/03 Q1025=
201902141730 METAR LRTC 141730Z 35006KT 9999 FEW015 BKN019 04/03 Q1025=
201902141800 METAR LRTC 141800Z AUTO 34007KT 9000 -SHRA FEW012/// BKN015///
                        BKN019/// 04/03 Q1025=
201902141830 METAR LRTC 141830Z AUTO 35009KT 9999 FEW017/// BKN021///
                        OVC025/// 04/03 Q1025 REUP=
201902141900 METAR LRTC 141900Z AUTO 35009KT 9999 BKN023/// OVC027///
                        04/02 Q1025=
201902141930 METAR LRTC 141930Z AUTO 35010KT 9999 SCT014/// BKN019///
                        OVC023/// 04/02 Q1025=
201902142000 METAR LRTC 142000Z AUTO 35013KT 7000 SCT011/// OVC014///
                        04/02 Q1025=
201902142030 METAR LRTC 142030Z AUTO 36014KT 5000 DZ BKN008/// BKN010///
                        03/02 Q1025=
201902142100 METAR LRTC 142100Z AUTO 36011KT 5000 -RA FEW008/// BKN010///
                        OVC016/// 03/02 Q1026=
201902142130 METAR LRTC 142130Z AUTO 01010KT 5000 -RA FEW007/// BKN009///
                        OVC011/// 03/02 Q1026=
201902142200 METAR LRTC 142200Z AUTO 36011KT 4800 -RA FEW005/// BKN007///
                        OVC009/// 03/02 Q1026=
201902142230 METAR LRTC 142230Z AUTO 01012KT 4900 -RA SCT005/// BKN007///
                        OVC009/// 03/03 Q1026=
201902142300 METAR LRTC 142300Z AUTO 01012KT 5000 -DZ FEW005/// BKN009///
                        BKN018/// 03/02 Q1026=
201902142330 METAR LRTC 142330Z AUTO 36009KT 5000 -DZ FEW007/// BKN009///
                        OVC013/// 03/02 Q1026=
201902150000 METAR LRTC 150000Z AUTO 02011KT 4900 -SHRA SCT006/// BKN008///
                        OVC010/// 03/02 Q1026=
201902150030 METAR LRTC 150030Z AUTO 01009KT 4900 FEW009/// BKN012///
                        BKN015/// 03/02 Q1026 REDZ=
201902150100 METAR LRTC 150100Z AUTO 01010KT 5000 FEW010/// BKN013///
                        OVC016/// 03/02 Q1026 REUP=
201902150130 METAR LRTC 150130Z AUTO 01010KT 5000 BR FEW009/// BKN012///
                        BKN024/// 03/02 Q1027=
201902150200 METAR LRTC 150200Z AUTO 01010KT 6000 FEW010/// BKN021///
                        03/02 Q1027=
201902150230 METAR LRTC 150230Z AUTO 01010KT 5000 BR FEW010/// SCT013///
                        BKN016/// 03/02 Q1027=
201902150300 METAR LRTC 150300Z AUTO 36009KT 6000 FEW010/// BKN024///
                        03/02 Q1027=
201902150330 METAR LRTC 150330Z AUTO 36009KT 6000 OVC025/// 03/02 Q1027=
201902150400 METAR LRTC 150400Z AUTO 36009KT 6000 FEW028/// BKN035///
                        03/01 Q1028=
201902150430 METAR LRTC 150430Z AUTO 36008KT 7000 OVC034/// 02/01 Q1028=
201902150500 METAR LRTC 150500Z AUTO 36009KT 8000 SCT030/// BKN035///
                        02/01 Q1028=
201902150530 METAR LRTC 150530Z AUTO 36009KT 7000 SCT029/// BKN033///
                        BKN065/// 02/01 Q1029=
201902150600 METAR LRTC 150600Z 36009KT 9999 FEW038 02/01 Q1029 R16/29//95=
201902150630 METAR LRTC 150630Z 36010KT 9999 FEW032 03/01 Q1029 R16/29//95=
201902150700 METAR LRTC 150700Z 36011KT 9999 FEW032 03/01 Q1030 R16/29//95=
201902150730 METAR LRTC 150730Z 01013KT 9999 FEW035 03/01 Q1030 R16/29//95=
201902150800 METAR LRTC 150800Z 01013KT CAVOK 03/00 Q1030 R16/29//95=
201902150830 METAR LRTC 150830Z 01013KT 9999 FEW015 04/00 Q1030 R16/29//95=
201902150900 METAR LRTC 150900Z 01015KT 9999 FEW021 04/00 Q1030 R16/29//95=
201902150930 METAR LRTC 150930Z 02014KT 9999 FEW021 05/M00 Q1030 R16/29//95=
201902151000 METAR LRTC 151000Z 02015KT 9999 FEW023 05/00 Q1030 R16/29//95=
201902151030 METAR LRTC 151030Z 01015KT 9999 FEW025 06/M00 Q1030 R16/29//95=
201902151100 METAR LRTC 151100Z 01015KT 9999 FEW028 06/M01 Q1030 R16/29//95=
201902151130 METAR LRTC 151130Z 02015KT 9999 SCT030 07/M00 Q1030 R16/29//95=
201902151200 METAR LRTC 151200Z 02014KT 9999 FEW031 SCT049 06/M00 Q1030
                        R16/29//95=
201902151230 METAR LRTC 151230Z 01013KT 9999 SCT034 07/M01 Q1029 R16/29//95=
201902151300 METAR LRTC 151300Z 01013KT 9999 BKN036 06/M01 Q1029 R16/29//95=
201902151330 METAR LRTC 151330Z 36013KT 9999 FEW035 SCT040 06/M01 Q1029
                        R16/29//95=
201902151400 METAR LRTC 151400Z 36012KT 9999 BKN038 06/M01 Q1030 R16/29//95=
201902151430 METAR LRTC 151430Z 36010KT 9999 BKN045 06/M01 Q1030 R16/29//95=
201902151500 METAR LRTC 151500Z 34008KT 9999 BKN045 05/01 Q1030 R16/29//95=
201902151530 METAR LRTC 151530Z 34012KT 9999 FEW036 BKN048 05/01 Q1029
                        R16/29//95=
201902151600 METAR LRTC 151600Z 34012KT 9999 FEW034 BKN043 05/01 Q1030
                        R16/29//95=
201902151630 METAR LRTC 151630Z 34014KT 9999 FEW034 BKN040 05/01 Q1030
                        R16/29//95=
201902151700 METAR LRTC 151700Z 34012KT 9999 OVC040 04/01 Q1030 R16/29//95=
201902151730 METAR LRTC 151730Z 35010KT 9999 OVC036 04/01 Q1030 R16/29//95=
201902151800 METAR LRTC 151800Z AUTO 35010KT 9999 OVC035/// 04/00 Q1031=
201902151830 METAR LRTC 151830Z AUTO 35010KT 9999 BKN038/// 03/M00 Q1031=
201902151900 METAR LRTC 151900Z AUTO 35007KT 9999 OVC040/// 03/M01 Q1031=
201902151930 METAR LRTC 151930Z AUTO 35006KT 9999 FEW041/// 01/M01 Q1031=
201902152000 METAR LRTC 152000Z AUTO 34006KT 9999 SCT030/// 01/M01 Q1030=
201902152030 METAR LRTC 152030Z AUTO 35005KT 320V020 9999 BKN030/// 02/M00
                        Q1030=
201902152100 METAR LRTC 152100Z AUTO 34005KT 9999 OVC033/// 02/M00 Q1030=
201902152130 METAR LRTC 152130Z AUTO 34005KT 9999 BKN034/// 02/00 Q1030=
201902152200 METAR LRTC 152200Z AUTO 32003KT 9999 OVC034/// 02/00 Q1030=
201902152230 METAR LRTC 152230Z AUTO 32004KT 9999 BKN033/// 02/00 Q1030=
201902152300 METAR LRTC 152300Z AUTO 32008KT 9999 OVC033/// 03/00 Q1030=
201902152330 METAR LRTC 152330Z AUTO 31008KT 9999 BKN032/// 03/M00 Q1030=
201902160000 METAR LRTC 160000Z AUTO 30009KT 9999 OVC032/// 03/00 Q1030=
201902160030 METAR LRTC 160030Z AUTO 31008KT 9999 OVC033/// 03/M00 Q1030=
201902160100 METAR LRTC 160100Z AUTO 32007KT 9999 OVC033/// 03/M00 Q1029=
201902160130 METAR LRTC 160130Z AUTO 33007KT 9999 OVC033/// 03/M01 Q1029=
201902160200 METAR LRTC 160200Z AUTO 31006KT 9999 OVC033/// 03/M00 Q1029=
201902160230 METAR LRTC 160230Z AUTO 30006KT 9999 OVC035/// 03/M00 Q1029=
201902160300 METAR LRTC 160300Z AUTO 30007KT 9999 OVC035/// 03/M00 Q1029=
201902160330 METAR LRTC 160330Z AUTO 30007KT 9999 OVC034/// 03/M01 Q1029=
201902160400 METAR LRTC 160400Z AUTO 30009KT 9999 OVC033/// 03/M01 Q1029=
201902160430 METAR LRTC 160430Z AUTO 31011KT 9999 OVC031/// 03/M00 Q1029=
201902160500 METAR LRTC 160500Z AUTO 32009KT 9999 OVC031/// 03/M00 Q1029=
201902160530 METAR LRTC 160530Z AUTO 32009KT 9999 BKN030/// 03/M00 Q1029=
201902160600 METAR LRTC 160600Z 31011KT 9999 BKN028 03/M00 Q1029=
201902160630 METAR LRTC 160630Z 30009KT 9999 BKN024 03/00 Q1029=
201902160700 METAR LRTC 160700Z 32008KT 9999 BKN022 04/M00 Q1029=
201902160730 METAR LRTC 160730Z 32011KT 9999 OVC025 04/M01 Q1029=
201902160800 METAR LRTC 160800Z 33010KT 9999 OVC027 05/M00 Q1030=
201902160830 METAR LRTC 160830Z 30008KT 9999 OVC028 05/00 Q1030=
201902160900 METAR LRTC 160900Z 32007KT 9999 OVC031 05/00 Q1029=
201902160930 METAR LRTC 160930Z 30008KT 9999 OVC030 06/01 Q1029=
201902161000 METAR LRTC 161000Z 31010KT 9999 OVC029 06/01 Q1029=
201902161030 METAR LRTC 161030Z 30010KT 9999 OVC028 06/00 Q1029=
201902161100 METAR LRTC 161100Z 30009KT 9999 OVC028 06/01 Q1028=
201902161130 METAR LRTC 161130Z 30007KT 9999 OVC029 07/01 Q1028=
201902161200 METAR LRTC 161200Z 30011KT 9999 OVC033 07/01 Q1028=
201902161230 METAR LRTC 161230Z 31013KT 9999 OVC031 06/01 Q1028=
201902161300 METAR LRTC 161300Z 31013KT 9999 OVC031 06/01 Q1028=
201902161330 METAR LRTC 161330Z 31010KT 9999 OVC029 06/02 Q1028=
201902161400 METAR LRTC 161400Z 31012KT 9999 BKN029 06/02 Q1028=
201902161430 METAR LRTC 161430Z 31011KT 9999 BKN029 07/02 Q1028=
201902161500 METAR LRTC 161500Z 31009KT 9999 SCT026 06/01 Q1027=
201902161530 METAR LRTC 161530Z 32007KT 9999 FEW030 05/01 Q1027=
201902161600 METAR LRTC 161600Z 30005KT CAVOK 04/01 Q1028=
201902161630 METAR LRTC 161630Z 28006KT CAVOK 03/01 Q1028=
201902161700 METAR LRTC 161700Z 28006KT CAVOK 03/00 Q1028=
201902161730 METAR LRTC 161730Z 28006KT CAVOK 02/M00 Q1028=
201902161800 METAR LRTC 161800Z AUTO 28007KT 7000 NCD 02/M01 Q1028=
201902161830 METAR LRTC 161830Z AUTO 33004KT 280V070 6000 NCD 01/M01 Q1028=
201902161900 METAR LRTC 161900Z AUTO 35002KT 310V020 5000 BR NCD 01/00
                        Q1028=
201902161930 METAR LRTC 161930Z AUTO 06002KT 030V170 5000 BR NCD 01/M00
                        Q1028=
201902162000 METAR LRTC 162000Z AUTO 06002KT 5000 BR NCD 01/M00 Q1028=
201902162030 METAR LRTC 162030Z AUTO 07002KT 5000 BR NCD 01/M00 Q1028=
201902162100 METAR LRTC 162100Z AUTO 12002KT 5000 BR NCD 01/M00 Q1027=
201902162130 METAR LRTC 162130Z AUTO 07002KT 5000 BR NCD 00/M01 Q1027=
201902162200 METAR LRTC 162200Z AUTO 11002KT 5000 BR NCD 01/M00 Q1027=
201902162230 METAR LRTC 162230Z AUTO 10002KT 5000 BR NCD 00/M01 Q1027=
201902162300 METAR LRTC 162300Z AUTO 05003KT 5000 BR NCD 01/M00 Q1027=
201902162330 METAR LRTC 162330Z AUTO 05003KT 5000 BR NCD 01/M00 Q1027=
201902170000 METAR LRTC 170000Z AUTO 05002KT 5000 BR NCD 01/M00 Q1027=
201902170030 METAR LRTC 170030Z AUTO 05002KT 4800 BR NCD 00/M01 Q1026=
201902170100 METAR LRTC 170100Z AUTO 00000KT 5000 BR NCD 00/M01 Q1026=
201902170130 METAR LRTC 170130Z AUTO 00000KT 6000 NCD 01/M00 Q1026=
201902170200 METAR LRTC 170200Z AUTO 05002KT 6000 NCD 01/M00 Q1026=
201902170230 METAR LRTC 170230Z AUTO 05001KT 5000 BR NCD M00/M01 Q1026=
201902170300 METAR LRTC 170300Z AUTO 00000KT 5000 BR NCD M00/M01 Q1025=
201902170330 METAR LRTC 170330Z AUTO 05002KT 6000 NCD M00/M02 Q1025=
201902170400 METAR LRTC 170400Z AUTO 00000KT 5000 BR NCD M00/M01 Q1025=
201902170430 METAR LRTC 170430Z AUTO 05002KT 6000 NCD M00/M01 Q1025=
201902170500 METAR LRTC 170500Z AUTO 04002KT 010V080 6000 NCD M01/M02
                        Q1025=
201902170530 METAR LRTC 170530Z AUTO 05002KT 6000 NCD 00/M01 Q1026=
201902170600 METAR LRTC 170600Z 04002KT 8000 NSC 01/M01 Q1026=
201902170630 METAR LRTC 170630Z 36002KT 8000 NSC 02/00 Q1026=
201902170700 METAR LRTC 170700Z VRB02KT CAVOK 03/01 Q1026=
201902170730 METAR LRTC 170730Z 01003KT CAVOK 04/02 Q1026=
201902170800 METAR LRTC 170800Z VRB02KT CAVOK 06/03 Q1026=
201902170830 METAR LRTC 170830Z 07003KT 030V100 CAVOK 08/04 Q1026=
201902170900 METAR LRTC 170900Z 09003KT 060V130 CAVOK 10/04 Q1025=
201902170930 METAR LRTC 170930Z VRB02KT CAVOK 12/03 Q1025=
201902171000 METAR LRTC 171000Z 28005KT 230V360 CAVOK 13/03 Q1025=
201902171030 METAR LRTC 171030Z 25010KT 220V280 CAVOK 14/03 Q1024=
201902171100 METAR LRTC 171100Z 24011KT CAVOK 14/02 Q1024=
201902171130 METAR LRTC 171130Z 25011KT CAVOK 14/03 Q1024=
201902171200 METAR LRTC 171200Z 33008KT 300V360 CAVOK 15/02 Q1023=
201902171230 METAR LRTC 171230Z 31008KT 280V340 CAVOK 15/01 Q1023=
201902171300 METAR LRTC 171300Z 25012KT CAVOK 14/03 Q1023=
201902171330 METAR LRTC 171330Z 24012KT CAVOK 14/03 Q1023=
201902171400 METAR LRTC 171400Z 25011KT CAVOK 14/04 Q1023=
201902171430 METAR LRTC 171430Z 26010KT CAVOK 13/03 Q1022=
201902171500 METAR LRTC 171500Z 26010KT CAVOK 12/03 Q1022=
201902171530 METAR LRTC 171530Z 26010KT CAVOK 10/04 Q1022=
201902171600 METAR LRTC 171600Z 27007KT CAVOK 09/03 Q1022=
201902171630 METAR LRTC 171630Z 26004KT CAVOK 08/03 Q1022=
201902171700 METAR LRTC 171700Z 25009KT CAVOK 07/04 Q1022=
201902171730 METAR LRTC 171730Z 24005KT CAVOK 07/04 Q1022=
201902171800 METAR LRTC 171800Z AUTO 26007KT 9999 NCD 07/04 Q1022=
201902171830 METAR LRTC 171830Z AUTO 27009KT 9999 NCD 08/04 Q1022=
201902171900 METAR LRTC 171900Z AUTO 26007KT 9999 NCD 07/04 Q1022=
201902171930 METAR LRTC 171930Z AUTO 26012KT 9999 NCD 08/04 Q1022=
201902172000 METAR LRTC 172000Z AUTO 27011KT 9999 NCD 08/04 Q1022=
201902172030 METAR LRTC 172030Z AUTO 27011KT 9999 NCD 07/04 Q1022=
201902172100 METAR LRTC 172100Z AUTO 27006KT 240V330 9999 NCD 07/03 Q1022=
201902172130 METAR LRTC 172130Z AUTO VRB04KT 9999 NCD 06/02 Q1022=
201902172200 METAR LRTC 172200Z AUTO VRB01KT 9999 NCD 06/02 Q1022=
201902172230 METAR LRTC 172230Z AUTO 01006KT 7000 NCD 02/00 Q1022=
201902172300 METAR LRTC 172300Z AUTO 32004KT 230V010 8000 NCD 03/00 Q1022=
201902172330 METAR LRTC 172330Z AUTO 34004KT 270V030 9999 NCD 04/01 Q1022=
201902180000 METAR LRTC 180000Z AUTO VRB02KT 9000 NCD 03/00 Q1022=
201902180030 METAR LRTC 180030Z AUTO 00000KT 9000 NCD 04/01 Q1022=
201902180100 METAR LRTC 180100Z AUTO 00000KT 9000 NCD 03/01 Q1022=
201902180130 METAR LRTC 180130Z AUTO VRB01KT 8000 NCD 03/01 Q1022=
201902180200 METAR LRTC 180200Z AUTO 23002KT 9000 NCD 03/00 Q1022=
201902180230 METAR LRTC 180230Z AUTO VRB01KT 7000 NCD 02/01 Q1023=
201902180300 METAR LRTC 180300Z AUTO 03002KT 8000 NCD 03/01 Q1022=
201902180330 METAR LRTC 180330Z AUTO 27002KT 180V330 9000 NCD 03/01 Q1023=
201902180400 METAR LRTC 180400Z AUTO 34003KT 310V040 8000 NCD 02/00 Q1023=
201902180430 METAR LRTC 180430Z AUTO 35002KT 300V050 9999 NCD 04/M00 Q1023=
201902180500 METAR LRTC 180500Z AUTO 01003KT 330V040 9999 NCD 04/M00 Q1023=
201902180530 METAR LRTC 180530Z AUTO 28003KT 9999 NCD 05/M00 Q1023=
201902180600 METAR LRTC 180600Z 25003KT CAVOK 04/M00 Q1023 R16/CLRD//=
201902180630 METAR LRTC 180630Z VRB01KT CAVOK 06/01 Q1024=
201902180700 METAR LRTC 180700Z 31011KT CAVOK 07/02 Q1024=
201902180730 METAR LRTC 180730Z 32012KT CAVOK 09/02 Q1024=
201902180800 METAR LRTC 180800Z 32015KT CAVOK 10/02 Q1024=
201902180830 METAR LRTC 180830Z 34016KT CAVOK 09/02 Q1024=
201902180900 METAR LRTC 180900Z 34015KT CAVOK 10/02 Q1024=
201902180930 METAR LRTC 180930Z 35013KT 310V010 CAVOK 10/02 Q1024=
201902181000 METAR LRTC 181000Z 35012KT CAVOK 11/02 Q1024=
201902181030 METAR LRTC 181030Z 35011KT 320V020 9999 FEW036 11/02 Q1024=
201902181100 METAR LRTC 181100Z 34012KT 9999 FEW036 11/02 Q1024=
201902181130 METAR LRTC 181130Z 34010KT 310V020 9999 FEW040 12/01 Q1024=
201902181200 METAR LRTC 181200Z 34010KT 9999 FEW044 12/01 Q1024=
201902181230 METAR LRTC 181230Z 34010KT 9999 FEW044 12/01 Q1023=
201902181300 METAR LRTC 181300Z 35008KT 280V030 9999 FEW044 12/01 Q1023=
201902181330 METAR LRTC 181330Z 35008KT 9999 FEW044 12/01 Q1023=
201902181400 METAR LRTC 181400Z 34007KT CAVOK 12/01 Q1023=
201902181430 METAR LRTC 181430Z 34007KT CAVOK 11/01 Q1023=
201902181500 METAR LRTC 181500Z 34005KT CAVOK 10/01 Q1023=
201902181530 METAR LRTC 181530Z 32005KT CAVOK 09/01 Q1023=
201902181600 METAR LRTC 181600Z 32005KT CAVOK 09/01 Q1023=
201902181630 METAR LRTC 181630Z 36003KT CAVOK 07/02 Q1023=
201902181700 METAR LRTC 181700Z 32004KT CAVOK 07/01 Q1024=
201902181730 METAR LRTC 181730Z 09003KT 060V120 CAVOK 04/02 Q1024=
201902181800 METAR LRTC 181800Z AUTO 10004KT 9999 NCD 04/01 Q1024=
201902181830 METAR LRTC 181830Z AUTO 08004KT 050V120 9999 NCD 05/01 Q1024=
201902181900 METAR LRTC 181900Z AUTO 11004KT 9999 NCD 04/01 Q1024=
201902181930 METAR LRTC 181930Z AUTO 13002KT 9999 NCD 04/01 Q1024=
201902182000 METAR LRTC 182000Z AUTO 17003KT 9999 NCD 03/00 Q1025=
201902182030 METAR LRTC 182030Z AUTO 17003KT 9999 NCD 03/00 Q1025=
201902182100 METAR LRTC 182100Z AUTO 16001KT 9999 NCD 03/00 Q1025=
201902182130 METAR LRTC 182130Z AUTO 04002KT 9999 NCD 03/01 Q1025=
201902182200 METAR LRTC 182200Z AUTO 04002KT 9999 NCD 04/01 Q1025=
201902182230 METAR LRTC 182230Z AUTO 02003KT 9999 NCD 04/00 Q1025=
201902182300 METAR LRTC 182300Z AUTO 29002KT 230V010 9999 NCD 00/M02 Q1025=
201902182330 METAR LRTC 182330Z AUTO 00000KT 7000 NCD M00/M02 Q1025=
201902190000 METAR LRTC 190000Z AUTO 05002KT 6000 NCD M00/M01 Q1025=
201902190030 METAR LRTC 190030Z AUTO 00000KT 9000 NCD 01/M00 Q1025=
201902190100 METAR LRTC 190100Z AUTO 05001KT 6000 NCD M00/M01 Q1025=
201902190130 METAR LRTC 190130Z AUTO 36004KT 9999 NCD 01/M00 Q1024=
201902190200 METAR LRTC 190200Z AUTO 01005KT 9999 NCD 01/00 Q1024=
201902190230 METAR LRTC 190230Z AUTO 02004KT 9999 NCD 01/M01 Q1024=
201902190300 METAR LRTC 190300Z AUTO 33003KT 9000 NCD 00/M01 Q1024=
201902190330 METAR LRTC 190330Z AUTO 22001KT 7000 NCD M01/M03 Q1024=
201902190400 METAR LRTC 190400Z AUTO 22001KT 6000 NCD M01/M01 Q1024=
201902190430 METAR LRTC 190430Z AUTO 04001KT 7000 NCD M00/M01 Q1024=
201902190500 METAR LRTC 190500Z AUTO 10003KT 7000 NCD M00/M01 Q1024=
201902190530 METAR LRTC 190530Z AUTO 09001KT 6000 NCD M01/M02 Q1025=
201902190600 METAR LRTC 190600Z 07003KT CAVOK M00/M01 Q1025 R16/CLRD//=
201902190630 METAR LRTC 190630Z VRB03KT 8000 NSC 01/M00 Q1025=
201902190700 METAR LRTC 190700Z 23002KT 9000 NSC 03/01 Q1025=
201902190730 METAR LRTC 190730Z VRB02KT CAVOK 04/02 Q1025=
201902190800 METAR LRTC 190800Z 15003KT 090V180 8000 NSC 06/02 Q1025=
201902190830 METAR LRTC 190830Z 11004KT 070V160 CAVOK 08/03 Q1025=
201902190900 METAR LRTC 190900Z 14008KT CAVOK 10/02 Q1025=
201902190930 METAR LRTC 190930Z 15009KT CAVOK 10/02 Q1025=
201902191000 METAR LRTC 191000Z 14010KT CAVOK 11/03 Q1024=
201902191030 METAR LRTC 191030Z 12011KT CAVOK 11/03 Q1024=
201902191100 METAR LRTC 191100Z 12012KT CAVOK 11/03 Q1024=
201902191130 METAR LRTC 191130Z 12013KT CAVOK 11/04 Q1023=
201902191200 METAR LRTC 191200Z 12013KT CAVOK 11/03 Q1023=
201902191230 METAR LRTC 191230Z 14011KT CAVOK 11/04 Q1023=
201902191300 METAR LRTC 191300Z 12014KT CAVOK 10/04 Q1023=
201902191330 METAR LRTC 191330Z 13013KT CAVOK 10/04 Q1022=
201902191400 METAR LRTC 191400Z 13014KT CAVOK 09/04 Q1022=
201902191430 METAR LRTC 191430Z 13013KT CAVOK 09/04 Q1022=
201902191500 METAR LRTC 191500Z 13013KT CAVOK 08/04 Q1022=
201902191530 METAR LRTC 191530Z 14011KT CAVOK 07/04 Q1022=
201902191600 METAR LRTC 191600Z 14007KT CAVOK 06/03 Q1022=
201902191630 METAR LRTC 191630Z 14008KT CAVOK 06/03 Q1022=
201902191700 METAR LRTC 191700Z 15009KT CAVOK 05/03 Q1022=
201902191730 METAR LRTC 191730Z 14009KT CAVOK 05/03 Q1021=
201902191800 METAR LRTC 191800Z AUTO 15010KT 9999 FEW160/// 05/03 Q1021=
201902191830 METAR LRTC 191830Z AUTO 16009KT 9999 BKN150/// 05/03 Q1021=
201902191900 METAR LRTC 191900Z AUTO 17007KT 150V210 9999 SCT150/// 05/03
                        Q1021=
201902191930 METAR LRTC 191930Z AUTO 16008KT 9999 BKN150/// 05/03 Q1021=
201902192000 METAR LRTC 192000Z AUTO 16007KT 9999 SCT140/// BKN170///
                        04/02 Q1021=
201902192030 METAR LRTC 192030Z AUTO 15007KT 9999 SCT170/// 03/01 Q1020=
201902192100 METAR LRTC 192100Z AUTO 15007KT 9999 NCD 04/02 Q1020=
201902192130 METAR LRTC 192130Z AUTO 15010KT 9999 FEW190/// 06/03 Q1020=
201902192200 METAR LRTC 192200Z AUTO 14006KT 9999 NCD 05/02 Q1020=
201902192230 METAR LRTC 192230Z AUTO 15004KT 9999 NCD 04/03 Q1020=
201902192300 METAR LRTC 192300Z AUTO 15006KT 9999 NCD 04/02 Q1019=
201902192330 METAR LRTC 192330Z AUTO 16009KT 9000 NCD 03/02 Q1019=
201902200000 METAR LRTC 200000Z AUTO 16008KT 9999 NCD 03/02 Q1019=
201902200030 METAR LRTC 200030Z AUTO 15007KT 9999 NCD 04/03 Q1018=
201902200100 METAR LRTC 200100Z AUTO 14009KT 9999 NCD 04/03 Q1018=
201902200130 METAR LRTC 200130Z AUTO 16010KT 9999 FEW011/// 04/03 Q1017=
201902200200 METAR LRTC 200200Z AUTO 16011KT 9000 NCD 04/03 Q1017=
201902200230 METAR LRTC 200230Z AUTO 15007KT 8000 NCD 03/02 Q1017=
201902200300 METAR LRTC 200300Z AUTO 15007KT 6000 NCD 02/01 Q1017=
201902200330 METAR LRTC 200330Z AUTO 15006KT 100V170 5000 BR NCD 02/01
                        Q1017=
201902200400 METAR LRTC 200400Z AUTO 14006KT 4600 BR NCD 02/01 Q1017=
201902200430 METAR LRTC 200430Z AUTO 15005KT 4400 BR NCD 02/02 Q1016=
201902200500 METAR LRTC 200500Z AUTO 14006KT 2900 BR NCD 02/01 Q1016=
201902200530 METAR LRTC 200530Z AUTO 13005KT 2100 BR NCD 01/01 Q1016=
201902200600 METAR LRTC 200600Z 12005KT 5000 BR SCT010 01/01 Q1016 R16/CLRD//=
201902200630 METAR LRTC 200630Z 14005KT 4000 BR FEW008 03/03 Q1016=
201902200700 METAR LRTC 200700Z 18006KT 7000 FEW010 04/04 Q1016=
201902200730 METAR LRTC 200730Z 19004KT 150V220 9000 FEW010 06/05 Q1016=
201902200800 METAR LRTC 200800Z 18003KT 120V220 CAVOK 08/05 Q1016=
201902200830 METAR LRTC 200830Z 20005KT 170V260 CAVOK 09/05 Q1016=
201902200900 METAR LRTC 200900Z 23008KT 180V260 CAVOK 11/04 Q1016=
201902200930 METAR LRTC 200930Z 25013KT CAVOK 11/04 Q1016=
201902201000 METAR LRTC 201000Z 25011KT CAVOK 12/04 Q1016=
201902201030 METAR LRTC 201030Z 31010KT 270V350 CAVOK 13/02 Q1015=
201902201100 METAR LRTC 201100Z 31012KT 290V350 CAVOK 13/M00 Q1015=
201902201130 METAR LRTC 201130Z 32013KT CAVOK 14/M02 Q1015=
201902201200 METAR LRTC 201200Z 32012KT 300V010 CAVOK 14/M02 Q1015=
201902201230 METAR LRTC 201230Z 34012KT 300V010 CAVOK 13/M01 Q1015=
201902201300 METAR LRTC 201300Z 34013KT CAVOK 13/M00 Q1015=
201902201330 METAR LRTC 201330Z 34009KT CAVOK 13/01 Q1015=
201902201400 METAR LRTC 201400Z 35007KT 310V010 CAVOK 12/01 Q1016=
201902201430 METAR LRTC 201430Z 33006KT CAVOK 12/02 Q1016=
201902201500 METAR LRTC 201500Z 33005KT CAVOK 11/02 Q1016=
201902201530 METAR LRTC 201530Z 32004KT CAVOK 10/03 Q1016=
201902201600 METAR LRTC 201600Z 30003KT 9000 NSC 10/03 Q1017=
201902201630 METAR LRTC 201630Z 29003KT CAVOK 09/03 Q1017=
201902201700 METAR LRTC 201700Z 35006KT CAVOK 06/01 Q1017=
201902201730 METAR LRTC 201730Z 36007KT CAVOK 06/01 Q1018=
201902201800 METAR LRTC 201800Z AUTO 35005KT 9999 FEW100/// 06/01 Q1018=
201902201830 METAR LRTC 201830Z AUTO 34009KT 9999 FEW070/// 06/02 Q1019=
201902201900 METAR LRTC 201900Z AUTO 33010KT 9999 FEW090/// 06/02 Q1019=
201902201930 METAR LRTC 201930Z AUTO 33011KT 9999 NCD 06/01 Q1019=
201902202000 METAR LRTC 202000Z AUTO 33010KT 9999 NCD 06/01 Q1019=
201902202030 METAR LRTC 202030Z AUTO 33012KT 9999 FEW120/// 06/01 Q1019=
201902202100 METAR LRTC 202100Z AUTO 34010KT 9999 FEW110/// 05/01 Q1019=
201902202130 METAR LRTC 202130Z AUTO 32012KT 9999 FEW100/// SCT120///
                        05/01 Q1020=
201902202200 METAR LRTC 202200Z AUTO 33012KT 9999 BKN100/// 05/01 Q1020=
201902202230 METAR LRTC 202230Z AUTO 32011KT 9999 FEW110/// 05/01 Q1020=
201902202300 METAR LRTC 202300Z AUTO 32011KT 9999 FEW110/// 05/01 Q1020=
201902202330 METAR LRTC 202330Z AUTO 34005KT 9999 FEW095/// 02/M01 Q1020=
201902210000 METAR LRTC 210000Z AUTO 32011KT 9999 FEW090/// 04/00 Q1021=
201902210030 METAR LRTC 210030Z AUTO 32012KT 9999 FEW095/// 04/00 Q1021=
201902210100 METAR LRTC 210100Z AUTO 32010KT 9999 SCT065/// 04/00 Q1021=
201902210130 METAR LRTC 210130Z AUTO 33009KT 9999 BKN070/// 04/01 Q1021=
201902210200 METAR LRTC 210200Z AUTO 32011KT 9999 BKN070/// 05/01 Q1021=
201902210230 METAR LRTC 210230Z AUTO 32012KT 9999 SCT075/// 05/00 Q1021=
201902210300 METAR LRTC 210300Z AUTO 32012KT 9999 FEW070/// 05/M00 Q1022=
201902210330 METAR LRTC 210330Z AUTO 32011KT 9999 BKN065/// 05/00 Q1022=
201902210400 METAR LRTC 210400Z AUTO 32009KT 9999 BKN055/// 05/00 Q1022=
201902210430 METAR LRTC 210430Z AUTO 19003KT 160V220 9999 BKN055/// 03/M00
                        Q1022=
201902210500 METAR LRTC 210500Z AUTO 22003KT 9999 BKN060/// 03/M01 Q1022=
201902210530 METAR LRTC 210530Z AUTO 22007KT 9999 FEW060/// 02/M01 Q1022=
201902210600 METAR LRTC 210600Z 21005KT CAVOK 03/M00 Q1023 R16/CLRD//=
201902210630 METAR LRTC 210630Z 24003KT CAVOK 05/M00 Q1023=
201902210700 METAR LRTC 210700Z VRB02KT CAVOK 06/00 Q1023=
201902210730 METAR LRTC 210730Z VRB02KT CAVOK 08/01 Q1023=
201902210800 METAR LRTC 210800Z 31009KT 270V340 CAVOK 10/00 Q1023=
201902210830 METAR LRTC 210830Z 31015KT 9999 FEW045 11/M02 Q1023=
201902210900 METAR LRTC 210900Z 32013KT 9999 FEW045 11/M02 Q1023=
201902210930 METAR COR LRTC 210930Z 32014KT 9999 FEW045 11/M03 Q1023=
201902211000 METAR LRTC 211000Z 33011KT 9999 FEW049 12/M03 Q1023=
201902211030 METAR LRTC 211030Z 32011KT 290V350 CAVOK 11/M04 Q1023=
201902211100 METAR LRTC 211100Z 32015KT CAVOK 12/M05 Q1022=
201902211130 METAR LRTC 211130Z 32013KT CAVOK 12/M05 Q1022=
201902211200 METAR LRTC 211200Z 29012KT 250V330 CAVOK 12/M06 Q1022=
201902211230 METAR LRTC 211230Z 27013KT CAVOK 13/M05 Q1022=
201902211300 METAR LRTC 211300Z 30010KT CAVOK 12/M05 Q1022=
201902211330 METAR LRTC 211330Z 33011KT CAVOK 12/M06 Q1022=
201902211400 METAR LRTC 211400Z 27013KT CAVOK 12/M06 Q1021=
201902211430 METAR LRTC 211430Z 31012KT 260V350 CAVOK 12/M06 Q1021=
201902211500 METAR LRTC 211500Z 34007KT CAVOK 10/M05 Q1021=
201902211530 METAR LRTC 211530Z 31005KT CAVOK 10/M03 Q1021=
201902211600 METAR LRTC 211600Z 36007KT CAVOK 09/M02 Q1022=
201902211630 METAR LRTC 211630Z 32004KT 290V350 CAVOK 08/M01 Q1022=
201902211700 METAR LRTC 211700Z 32003KT CAVOK 08/M01 Q1022=
201902211730 METAR LRTC 211730Z VRB02KT CAVOK 06/M01 Q1022=
201902211800 METAR LRTC 211800Z AUTO 23002KT 9999 BKN065/// BKN140///
                        07/M02 Q1022=
201902211830 METAR LRTC 211830Z AUTO 00000KT 9999 SCT070/// OVC140///
                        07/M02 Q1022=
201902211900 METAR LRTC 211900Z AUTO 23001KT 9999 BKN070/// OVC130///
                        06/M01 Q1022=
201902211930 METAR LRTC 211930Z AUTO 23001KT 9999 BKN070/// 06/M01 Q1022=
201902212000 METAR LRTC 212000Z AUTO 05002KT 9999 BKN070/// 05/M01 Q1022=
201902212030 METAR LRTC 212030Z AUTO 14002KT 070V150 9999 FEW070/// BKN240///
                        05/M01 Q1021=
201902212100 METAR LRTC 212100Z AUTO 00000KT 9999 FEW240/// 03/M01 Q1021=
201902212130 METAR LRTC 212130Z AUTO 24003KT 200V310 9999 NCD 03/M02 Q1021=
201902212200 METAR LRTC 212200Z AUTO VRB01KT 9999 NCD 03/M02 Q1021=
201902212230 METAR LRTC 212230Z AUTO 05003KT 350V070 9999 FEW160/// 03/M02
                        Q1021=
201902212300 METAR LRTC 212300Z AUTO 06002KT 020V100 9999 FEW240/// 03/M02
                        Q1021=
201902212330 METAR LRTC 212330Z AUTO 00000KT 9999 BKN230/// 04/M02 Q1020=
201902220000 METAR LRTC 220000Z AUTO 20002KT 9999 BKN200/// 02/M02 Q1020=
201902220030 METAR LRTC 220030Z AUTO 24003KT 9999 SCT200/// 02/M03 Q1020=
201902220100 METAR LRTC 220100Z AUTO 13002KT 070V230 9999 BKN210/// 00/M02
                        Q1019=
201902220130 METAR LRTC 220130Z AUTO 29003KT 260V350 9999 FEW230/// 02/M03
                        Q1019=
201902220200 METAR LRTC 220200Z AUTO 32002KT 260V350 9999 NCD 01/M03 Q1018=
201902220230 METAR LRTC 220230Z AUTO 33002KT 280V030 9999 NCD 01/M03 Q1018=
201902220300 METAR LRTC 220300Z AUTO 00000KT 9999 FEW120/// 02/M03 Q1018=
201902220330 METAR LRTC 220330Z AUTO 00000KT 9999 NCD 01/M04 Q1017=
201902220400 METAR LRTC 220400Z AUTO VRB01KT 9999 SCT110/// BKN130///
                        01/M03 Q1017=
201902220430 METAR LRTC 220430Z AUTO 21001KT 9999 BKN130/// 00/M04 Q1017=
201902220500 METAR LRTC 220500Z AUTO 00000KT 9999 SCT110/// BKN130///
                        BKN160/// 01/M03 Q1016=
201902220530 METAR LRTC 220530Z AUTO 00000KT 9999 BKN095/// BKN110///
                        02/M04 Q1016=
201902220600 METAR LRTC 220600Z 00000KT CAVOK 02/M03 Q1016 R16/CLRD//=
201902220630 METAR LRTC 220630Z 33003KT CAVOK 03/M01 Q1016=
201902220700 METAR LRTC 220700Z 28003KT CAVOK 04/M01 Q1016=
201902220730 METAR LRTC 220730Z 32005KT 9999 -RA BKN049 04/M00 Q1016=
201902220800 METAR LRTC 220800Z 32007KT 9999 FEW042 SCT049 05/00 Q1015=
201902220830 METAR LRTC 220830Z 34011KT 9999 SCT045 06/00 Q1015=
201902220900 METAR LRTC 220900Z 34011KT 9999 BKN045 06/01 Q1015=
201902220930 METAR LRTC 220930Z 34012KT 9999 BKN047 06/01 Q1015=
201902221000 METAR LRTC 221000Z 34011KT 9999 BKN042 06/02 Q1014=
201902221030 METAR LRTC 221030Z 32011KT 9999 -RA FEW038 BKN048 07/02 Q1014=
201902221100 METAR LRTC 221100Z 33012KT 9999 -RA SCT030 BKN040 06/03 Q1014=
201902221130 METAR LRTC 221130Z 32011KT 9999 -RA FEW021 BKN032 05/03 Q1014=
201902221200 METAR LRTC 221200Z 33011KT 8000 -RA FEW019 BKN028 05/03 Q1014
                        R16/29//95=
201902221230 METAR LRTC 221230Z 31009KT 8000 -RA FEW019 BKN026 04/03 Q1014
                        R16/29//95=
201902221300 METAR LRTC 221300Z 31010KT 7000 -RA BKN013 BKN022 05/04 Q1014
                        R16/29//95=
201902221330 METAR LRTC 221330Z 31015KT 6000 -RA BKN013 BKN019 04/03 Q1014
                        R16/29//95=
201902221400 METAR LRTC 221400Z 36024KT 3000 SNRA BKN008 BKN013 02/00
                        Q1015 R16/29//95=
201902221430 METAR LRTC 221430Z 36023KT 1000 R34/1700D +SN BKN008 BKN015
                        00/M00 Q1016 R16/29//95=
201902221500 METAR LRTC 221500Z 36025KT 1200 R34/1700N SN BR BKN007 OVC012
                        M00/M01 Q1017 RESN R16/29//95=
201902221530 METAR LRTC 221530Z 36026G38KT 1200 R34/1900U SN BR BKN010
                        BKN016 M01/M01 Q1018 R16/29//95=
201902221600 METAR LRTC 221600Z 36025G35KT 1500 SN BR BKN010 OVC015 M02/M02
                        Q1019 R16/29//95=
201902221630 METAR LRTC 221630Z 36021KT 1500 SN BR BKN012 OVC018 M02/M02
                        Q1020 R16/29//95=
201902221700 METAR LRTC 221700Z 01022KT 3900 -SN BR BKN016 BKN026 M02/M03
                        Q1021 RESN R16/29//95=
201902221730 METAR LRTC 221730Z 01022G32KT 3000 -SN BR BKN014 BKN025 M02/M03
                        Q1021 R16/29//95=
201902221800 METAR LRTC 221800Z AUTO 36020KT 2300 -SN FEW008/// BKN013///
                        BKN029/// M03/M04 Q1022=
201902221830 METAR LRTC 221830Z AUTO 01025KT //// R34////// SCT008///
                        BKN021/// M04/M04 Q1023=
201902221900 METAR LRTC 221900Z AUTO 36021KT 9999 -SN FEW020/// SCT034///
                        BKN039/// M03/M05 Q1023=
201902221930 METAR LRTC 221930Z AUTO 01024KT 9999 FEW041/// OVC055///
                        M04/M06 Q1024 RESN=
201902222000 METAR LRTC 222000Z AUTO 01025KT 9999 FEW065/// OVC080///
                        M04/M07 Q1024=
201902222030 METAR LRTC 222030Z AUTO 01025KT 9999 OVC085/// M04/M08 Q1025=
201902222100 METAR LRTC 222100Z AUTO 01023KT 9999 BKN075/// M04/M09 Q1025=
201902222130 METAR LRTC 222130Z AUTO 01024KT 9999 OVC085/// M04/M09 Q1025=
201902222200 METAR LRTC 222200Z AUTO 01023KT 9999 OVC085/// M04/M10 Q1026=
201902222230 METAR LRTC 222230Z AUTO 01022KT 9999 OVC095/// M04/M10 Q1026=
201902222300 METAR LRTC 222300Z AUTO 01019KT 9999 BKN095/// BKN110///
                        M05/M09 Q1027=
201902222330 METAR LRTC 222330Z AUTO 01022KT 9999 FEW110/// BKN130///
                        M05/M10 Q1027=
201902230000 METAR LRTC 230000Z AUTO 01021KT 9999 FEW110/// M06/M11 Q1028=
201902230030 METAR LRTC 230030Z AUTO 36020KT 9999 FEW110/// M06/M11 Q1028=
201902230100 METAR LRTC 230100Z AUTO 36019KT 9999 FEW110/// BKN130///
                        M06/M10 Q1028=
201902230130 METAR LRTC 230130Z AUTO 36019KT 9999 OVC120/// M06/M10 Q1029=
201902230200 METAR LRTC 230200Z AUTO 36019KT 9999 FEW130/// BKN140///
                        M06/M11 Q1029=
201902230230 METAR LRTC 230230Z AUTO 36018KT 9999 FEW110/// BKN140///
                        M06/M11 Q1030=
201902230300 METAR LRTC 230300Z AUTO 36019KT 9999 FEW120/// SCT140///
                        M06/M11 Q1030=
201902230330 METAR LRTC 230330Z AUTO 36018KT 9999 SCT200/// M07/M12 Q1031=
201902230400 METAR LRTC 230400Z AUTO 36017KT 9999 OVC190/// M07/M11 Q1031=
201902230430 METAR LRTC 230430Z AUTO 36019KT 9999 FEW180/// M07/M11 Q1031=
201902230500 METAR LRTC 230500Z AUTO 36017KT 9999 NCD M07/M11 Q1032=
201902230530 METAR LRTC 230530Z AUTO 36017KT 9999 NCD M07/M11 Q1032=
201902230600 METAR LRTC 230600Z 36015KT 9999 FEW030 M07/M11 Q1033=
201902230630 METAR LRTC 230630Z 36019KT 9999 FEW030 M06/M11 Q1033=
201902230700 METAR LRTC 230700Z 36018KT 9999 SCT025 M06/M10 Q1034=
201902230730 METAR LRTC 230730Z 36019KT 9999 SCT025 M05/M10 Q1034=
201902230800 METAR LRTC 230800Z 35020KT 9999 SCT026 M05/M11 Q1034=
201902230830 METAR LRTC 230830Z 36021KT 9999 BKN029 M05/M10 Q1034=
201902230900 METAR LRTC 230900Z 36017KT 9999 BKN028 M05/M10 Q1035=
201902230930 METAR LRTC 230930Z 35019KT 9999 -SN BKN031 M04/M10 Q1035=
201902231000 METAR LRTC 231000Z 36018KT 9999 BKN034 M04/M09 Q1035=
201902231030 METAR LRTC 231030Z 01019KT 9999 -SN BKN040 M04/M10 Q1035=
201902231100 METAR LRTC 231100Z 36018KT 9999 BKN034 M03/M09 Q1035=
201902231130 METAR LRTC 231130Z 36019KT 9999 FEW029 SCT043 M03/M08 Q1035=
201902231200 METAR LRTC 231200Z 01016KT 9999 SCT033 BKN041 M03/M09 Q1035=
201902231230 METAR LRTC 231230Z 36016KT 9999 FEW032 SCT043 M03/M09 Q1035=
201902231300 METAR LRTC 231300Z 36013KT 9999 FEW028 SCT035 M03/M08 Q1035=
201902231330 METAR LRTC 231330Z 36016KT 9999 FEW022 SCT033 M03/M07 Q1035=
201902231400 METAR LRTC 231400Z 36017KT 9999 -SN FEW021 BKN030 M03/M08
                        Q1036=
201902231430 METAR LRTC 231430Z 36014KT 9999 -SN FEW024 BKN032 M02/M08
                        Q1036=
201902231500 METAR LRTC 231500Z 35014KT 9999 SCT030 M03/M09 Q1036=
201902231530 METAR LRTC 231530Z 36010KT 9999 SCT029 M04/M08 Q1036=
201902231600 METAR LRTC 231600Z 01012KT 5000 -SN BR FEW026 BKN037 M04/M07
                        Q1037=
201902231630 METAR LRTC 231630Z 36012KT 8000 -SN SCT028 BKN032 M04/M06
                        Q1037 RESN=
201902231700 METAR LRTC 231700Z 35010KT 9999 SCT035 M04/M07 Q1037=
201902231730 METAR LRTC 231730Z 34013KT 9999 SCT025 M04/M06 Q1037=
201902231800 METAR LRTC 231800Z AUTO 35012KT 9999 -SHSN OVC055/// M04/M07
                        Q1037=
201902231830 METAR LRTC 231830Z AUTO 35012KT 9999 -SHSN FEW023/// BKN055///
                        M04/M07 Q1038=
201902231900 METAR LRTC 231900Z AUTO 35013KT 9999 -SN FEW023/// OVC050///
                        M04/M07 Q1038=
201902231930 METAR LRTC 231930Z AUTO 35011KT 9999 BKN055/// M04/M07 Q1038
                        RESN=
201902232000 METAR LRTC 232000Z AUTO 35011KT 9999 -SHSN FEW024/// SCT037///
                        BKN045/// M05/M07 Q1038=
201902232030 METAR LRTC 232030Z AUTO 35011KT 9999 SCT025/// BKN055///
                        M04/M07 Q1038 RESG=
201902232100 METAR LRTC 232100Z AUTO 35012KT 9999 FEW021/// BKN055///
                        M04/M07 Q1038=
201902232130 METAR LRTC 232130Z AUTO 35009KT 9999 BKN055/// M04/M07 Q1038=
201902232200 METAR LRTC 232200Z AUTO 35013KT 9999 FEW018/// BKN028///
                        BKN055/// M04/M07 Q1038=
201902232230 METAR LRTC 232230Z AUTO 35012KT 9999 FEW036/// BKN060///
                        M04/M07 Q1038=
201902232300 METAR LRTC 232300Z AUTO 35012KT 9999 FEW032/// BKN060///
                        M04/M07 Q1038=
201902232330 METAR LRTC 232330Z AUTO 35012KT 9999 FEW033/// BKN060///
                        M04/M07 Q1037=
201902240000 METAR LRTC 240000Z AUTO 35010KT 9999 SG OVC060/// M04/M07
                        Q1037=
201902240030 METAR LRTC 240030Z AUTO 35009KT 9999 BKN060/// M04/M07 Q1037
                        RESN=
201902240100 METAR LRTC 240100Z AUTO 35009KT 9999 BKN060/// M04/M07 Q1037
                        RESN=
201902240130 METAR LRTC 240130Z AUTO 35010KT 9999 BKN060/// M04/M07 Q1037=
201902240200 METAR LRTC 240200Z AUTO 35008KT 9999 FEW040/// SCT046///
                        BKN060/// M05/M08 Q1036 RESN=
201902240230 METAR LRTC 240230Z AUTO 35007KT 9999 FEW034/// BKN040///
                        BKN046/// M05/M08 Q1036=
201902240300 METAR LRTC 240300Z AUTO 35005KT 9999 FEW036/// SCT044///
                        BKN060/// M05/M08 Q1036=
201902240330 METAR LRTC 240330Z AUTO 35006KT 9999 FEW042/// OVC060///
                        M05/M08 Q1036=
201902240400 METAR LRTC 240400Z AUTO 34007KT 9999 BKN060/// M06/M08 Q1036=
201902240430 METAR LRTC 240430Z AUTO 35006KT 9999 BKN060/// M05/M08 Q1036=
201902240500 METAR LRTC 240500Z AUTO 35004KT 9999 BKN060/// M05/M07 Q1036=
201902240530 METAR LRTC 240530Z AUTO 35005KT 9999 BKN060/// M05/M07 Q1036=
201902240600 METAR LRTC 240600Z 36005KT 9999 FEW023 M04/M07 Q1036=
201902240630 METAR LRTC 240630Z 35007KT 9999 FEW023 M03/M07 Q1036=
201902240700 METAR LRTC 240700Z 35008KT 9999 FEW025 M04/M08 Q1036=
201902240730 METAR LRTC 240730Z 35008KT 9999 FEW025 M04/M07 Q1037=
201902240800 METAR LRTC 240800Z 01009KT 9999 FEW030 M04/M08 Q1037=
201902240830 METAR LRTC 240830Z 36009KT 9999 FEW030 M03/M09 Q1037=
201902240900 METAR LRTC 240900Z 35011KT 9999 FEW030 M03/M10 Q1037=
201902240930 METAR LRTC 240930Z 36010KT 9999 FEW035 M03/M10 Q1037=
201902241000 METAR LRTC 241000Z 36010KT 9999 FEW035 M03/M10 Q1037=
201902241030 METAR LRTC 241030Z 35008KT 330V050 9999 SCT042 M02/M10 Q1037=
201902241100 METAR LRTC 241100Z 01009KT 330V030 9999 FEW046 M02/M10 Q1036=
201902241130 METAR LRTC 241130Z 36009KT 9999 SCT045 M02/M12 Q1036=
201902241200 METAR LRTC 241200Z 01007KT 9999 FEW042 M02/M09 Q1036=
201902241230 METAR LRTC 241230Z 36007KT 9999 FEW037 M02/M10 Q1036=
201902241300 METAR LRTC 241300Z 04006KT 360V070 9999 FEW035 M02/M09 Q1035=
201902241330 METAR LRTC 241330Z 35004KT 310V020 9999 FEW034 M02/M08 Q1035=
201902241400 METAR LRTC 241400Z 36004KT 330V030 9999 SCT031 M02/M08 Q1035=
201902241430 METAR LRTC 241430Z 36005KT 9999 FEW031 M02/M09 Q1035=
201902241500 METAR LRTC 241500Z 36004KT 9999 FEW032 M02/M08 Q1035=
201902241530 METAR LRTC 241530Z 36004KT 340V040 CAVOK M02/M09 Q1035=
201902241600 METAR LRTC 241600Z 36003KT CAVOK M02/M08 Q1035=
201902241630 METAR LRTC 241630Z 01003KT CAVOK M02/M07 Q1035=
201902241700 METAR LRTC 241700Z 01002KT CAVOK M02/M08 Q1036=
201902241730 METAR LRTC 241730Z 01002KT CAVOK M02/M08 Q1036=
201902241800 METAR LRTC 241800Z AUTO 01003KT 9999 SCT070/// BKN180///
                        M03/M08 Q1035=
201902241830 METAR LRTC 241830Z AUTO 01002KT 9999 BKN180/// M03/M09 Q1035=
201902241900 METAR LRTC 241900Z AUTO 35003KT 280V010 9999 SCT210/// M04/M08
                        Q1035=
201902241930 METAR LRTC 241930Z AUTO 30005KT 9999 BKN210/// M04/M08 Q1036=
201902242000 METAR LRTC 242000Z AUTO 31004KT 290V010 9999 BKN210/// M05/M08
                        Q1036=
201902242030 METAR LRTC 242030Z AUTO 00000KT 9999 BKN220/// M05/M07 Q1036=
201902242100 METAR LRTC 242100Z AUTO 02001KT 9999 NCD M05/M08 Q1036=
201902242130 METAR LRTC 242130Z AUTO 33005KT 9999 NCD M07/M10 Q1036=
201902242200 METAR LRTC 242200Z AUTO 34005KT 9999 NCD M05/M09 Q1036=
201902242230 METAR LRTC 242230Z AUTO 31002KT 280V350 9999 NCD M05/M09
                        Q1036=
201902242300 METAR LRTC 242300Z AUTO VRB01KT 9999 NCD M06/M09 Q1036=
201902242330 METAR LRTC 242330Z AUTO 10001KT 9999 NCD M06/M09 Q1036=
201902250000 METAR LRTC 250000Z AUTO 06002KT 020V080 9999 NCD M06/M09
                        Q1036=
201902250030 METAR LRTC 250030Z AUTO 13001KT 9999 NCD M06/M09 Q1036=
201902250100 METAR LRTC 250100Z AUTO 00000KT 9999 NCD M06/M09 Q1035=
201902250130 METAR LRTC 250130Z AUTO 24003KT 9999 NCD M06/M10 Q1035=
201902250200 METAR LRTC 250200Z AUTO 25002KT 9999 NCD M06/M10 Q1035=
201902250230 METAR LRTC 250230Z AUTO 03002KT 9999 NCD M07/M09 Q1035=
201902250300 METAR LRTC 250300Z AUTO 31002KT 220V320 9999 NCD M06/M09
                        Q1035=
201902250330 METAR LRTC 250330Z AUTO 26003KT 220V280 9999 NCD M07/M09
                        Q1035=
201902250400 METAR LRTC 250400Z AUTO 24006KT 9999 NCD M08/M10 Q1035=
201902250430 METAR LRTC 250430Z AUTO 25005KT 9999 NCD M07/M10 Q1035=
201902250500 METAR LRTC 250500Z AUTO 23003KT 210V270 9999 NCD M07/M09
                        Q1035=
201902250530 METAR LRTC 250530Z AUTO VRB01KT 9999 NCD M07/M09 Q1035=
201902250600 METAR LRTC 250600Z 21003KT CAVOK M05/M07 Q1035 R16/CLRD//=
201902250630 METAR LRTC 250630Z VRB02KT CAVOK M03/M06 Q1034=
201902250700 METAR LRTC 250700Z 23006KT 200V260 CAVOK M01/M05 Q1034=
201902250730 METAR LRTC 250730Z 26011KT CAVOK M00/M05 Q1034=
201902250800 METAR LRTC 250800Z 26013KT CAVOK 00/M05 Q1033=
201902250830 METAR LRTC 250830Z 25016KT CAVOK 01/M05 Q1033=
201902250900 METAR LRTC 250900Z 25015KT CAVOK 01/M05 Q1033=
201902250930 METAR LRTC 250930Z 25016KT CAVOK 02/M05 Q1032=
201902251000 METAR LRTC 251000Z 26016KT CAVOK 03/M05 Q1032=
201902251030 METAR LRTC 251030Z 26014KT CAVOK 04/M04 Q1032=
201902251100 METAR LRTC 251100Z 26014KT CAVOK 05/M05 Q1031=
201902251130 METAR LRTC 251130Z 25015KT CAVOK 05/M05 Q1030=
201902251200 METAR LRTC 251200Z 26015KT CAVOK 06/M07 Q1030=
201902251230 METAR LRTC 251230Z 26017KT CAVOK 06/M07 Q1029=
201902251300 METAR LRTC 251300Z 26016KT CAVOK 07/M08 Q1029=
201902251330 METAR LRTC 251330Z 25016KT CAVOK 07/M07 Q1028=
201902251400 METAR LRTC 251400Z 26016KT CAVOK 07/M07 Q1028=
201902251430 METAR LRTC 251430Z 26015KT CAVOK 06/M08 Q1027=
201902251500 METAR LRTC 251500Z 25015KT CAVOK 06/M07 Q1026=
201902251530 METAR LRTC 251530Z 24014KT CAVOK 05/M07 Q1026=
201902251600 METAR LRTC 251600Z 25016KT CAVOK 04/M07 Q1025=
201902251630 METAR LRTC 251630Z 26016KT CAVOK 04/M06 Q1025=
201902251700 METAR LRTC 251700Z 25019KT CAVOK 03/M07 Q1025=
201902251730 METAR LRTC 251730Z 25019KT CAVOK 03/M06 Q1025=
201902251800 METAR LRTC 251800Z AUTO 25018KT 9999 NCD 03/M07 Q1024=
201902251830 METAR LRTC 251830Z AUTO 25020KT 9999 NCD 02/M06 Q1024=
201902251900 METAR LRTC 251900Z AUTO 25017KT 9999 FEW080/// 02/M06 Q1024=
201902251930 METAR LRTC 251930Z AUTO 26020KT 9999 NCD 02/M06 Q1024=
201902252000 METAR LRTC 252000Z AUTO 26018KT 9999 NCD 01/M06 Q1024=
201902252030 METAR LRTC 252030Z AUTO 26020KT 9999 FEW090/// 01/M05 Q1024=
201902252100 METAR LRTC 252100Z AUTO 26019KT 9999 NCD 01/M05 Q1024=
201902252130 METAR LRTC 252130Z AUTO 26015KT 9999 FEW190/// 01/M05 Q1023=
201902252200 METAR LRTC 252200Z AUTO 27012KT 9999 FEW180/// 00/M05 Q1024=
201902252230 METAR LRTC 252230Z AUTO 26013KT 9999 FEW240/// M00/M05 Q1024=
201902252300 METAR LRTC 252300Z AUTO 26015KT 9999 NCD M00/M05 Q1023=
201902252330 METAR LRTC 252330Z AUTO 26014KT 9999 NCD M00/M05 Q1023=
201902260000 METAR LRTC 260000Z AUTO 26014KT 9999 NCD M00/M05 Q1023=
201902260030 METAR LRTC 260030Z AUTO 25013KT 9999 NCD M01/M05 Q1022=
201902260100 METAR LRTC 260100Z AUTO 26012KT 9999 NCD M01/M05 Q1022=
201902260130 METAR LRTC 260130Z AUTO 26012KT 9999 NCD M00/M05 Q1022=
201902260200 METAR LRTC 260200Z AUTO 26010KT 9999 NCD M00/M05 Q1021=
201902260230 METAR LRTC 260230Z AUTO 27009KT 9999 NCD M00/M05 Q1021=
201902260300 METAR LRTC 260300Z AUTO 27012KT 9999 NCD M00/M05 Q1020=
201902260330 METAR LRTC 260330Z AUTO 26012KT 9999 NCD M01/M05 Q1020=
201902260400 METAR LRTC 260400Z AUTO 27013KT 9999 NCD M01/M05 Q1020=
201902260430 METAR LRTC 260430Z AUTO 26014KT 9999 NCD M01/M05 Q1019=
201902260500 METAR LRTC 260500Z AUTO 26014KT 9999 NCD M01/M05 Q1019=
201902260530 METAR LRTC 260530Z AUTO 26013KT 9999 NCD M00/M05 Q1019=
201902260600 METAR LRTC 260600Z 26012KT CAVOK 01/M05 Q1019 R16/CLRD//=
201902260630 METAR LRTC 260630Z 26013KT CAVOK 01/M04 Q1019=
201902260700 METAR LRTC 260700Z 25010KT CAVOK 03/M04 Q1018=
201902260730 METAR LRTC 260730Z 27013KT CAVOK 05/M05 Q1018=
201902260800 METAR LRTC 260800Z 27013KT CAVOK 07/M05 Q1017=
201902260830 METAR LRTC 260830Z 26013KT CAVOK 07/M04 Q1016=
201902260900 METAR LRTC 260900Z 25015KT CAVOK 07/M03 Q1016=
201902260930 METAR LRTC 260930Z 25018KT CAVOK 07/M03 Q1015=
201902261000 METAR LRTC 261000Z 25017KT CAVOK 07/M03 Q1015=
201902261030 METAR LRTC 261030Z 26017KT CAVOK 06/M03 Q1015=
201902261100 METAR LRTC 261100Z 26016KT CAVOK 06/M03 Q1014=
201902261130 METAR LRTC 261130Z 26013KT CAVOK 06/M03 Q1013=
201902261200 METAR LRTC 261200Z 26013KT CAVOK 07/M03 Q1013=
201902261230 METAR LRTC 261230Z 26012KT 9999 FEW045 07/M03 Q1012=
201902261300 METAR LRTC 261300Z 26013KT CAVOK 07/M03 Q1012=
201902261330 METAR LRTC 261330Z 27009KT CAVOK 08/M03 Q1012=
201902261400 METAR LRTC 261400Z 31013G28KT 280V350 9999 -RA SCT030 08/M04
                        Q1012=
201902261430 METAR LRTC 261430Z 28012KT 9999 FEW038 07/M03 Q1011=
201902261500 METAR LRTC 261500Z 30009KT 9999 FEW045 08/M04 Q1011=
201902261530 METAR LRTC 261530Z 32013KT 9999 SCT049 07/M05 Q1011=
201902261600 METAR LRTC 261600Z 30010KT 9999 BKN049 06/M03 Q1011=
201902261630 METAR LRTC 261630Z 31009KT 9999 SCT049 06/M02 Q1011=
201902261700 METAR LRTC 261700Z 32012KT 9999 FEW041 BKN048 07/M01 Q1011=
201902261730 METAR LRTC 261730Z 35018G30KT 9999 -RA SCT037 BKN043 06/01
                        Q1012=
201902261800 METAR LRTC 261800Z AUTO 35015KT 9999 FEW022/// SCT026///
                        BKN050/// 05/01 Q1012 RERA=
201902261830 METAR LRTC 261830Z AUTO 33011KT 9999 FEW021/// BKN065///
                        BKN090/// 04/01 Q1013=
201902261900 METAR LRTC 261900Z AUTO 32012KT 9999 SCT060/// BKN095///
                        04/01 Q1013=
201902261930 METAR LRTC 261930Z AUTO 32011KT 9999 FEW027/// SCT032///
                        BKN037/// 04/01 Q1013=
201902262000 METAR LRTC 262000Z AUTO 33014KT 9999 FEW022/// BKN026///
                        BKN040/// 04/01 Q1013=
201902262030 METAR LRTC 262030Z AUTO 32013KT 9999 FEW021/// BKN046///
                        03/01 Q1013=
201902262100 METAR LRTC 262100Z AUTO 32016KT 9999 SCT021/// BKN028///
                        BKN065/// 04/01 Q1013=
201902262130 METAR LRTC 262130Z AUTO 32017KT 9999 SCT023/// BKN029///
                        04/01 Q1013=
201902262200 METAR LRTC 262200Z AUTO 33019KT 9999 -SHRA FEW026/// BKN050///
                        BKN065/// 04/01 Q1013=
201902262230 METAR LRTC 262230Z AUTO 33014KT 9999 FEW030/// SCT039///
                        BKN055/// 04/01 Q1013 REDZ=
201902262300 METAR LRTC 262300Z AUTO 34011KT 9999 BKN040/// BKN046///
                        OVC060/// 03/01 Q1013=
201902262330 METAR LRTC 262330Z AUTO 33012KT 9999 OVC041/// 03/01 Q1014=
201902270000 METAR LRTC 270000Z AUTO 34011KT 9999 -SHRA FEW032/// OVC046///
                        03/00 Q1014=
201902270030 METAR LRTC 270030Z AUTO 34012KT 9999 FEW031/// BKN050///
                        BKN080/// 03/01 Q1014 REDZ=
201902270100 METAR LRTC 270100Z AUTO 34011KT 9999 FEW030/// BKN060///
                        03/00 Q1014=
201902270130 METAR LRTC 270130Z AUTO 34013KT 9999 FEW036/// OVC055///
                        03/M00 Q1014=
201902270200 METAR LRTC 270200Z AUTO 34012KT 9999 FEW034/// BKN055///
                        03/M00 Q1014=
201902270230 METAR LRTC 270230Z AUTO 33012KT 9999 FEW025/// BKN033///
                        OVC055/// 03/M00 Q1014=
201902270300 METAR LRTC 270300Z AUTO 34013KT 9999 BKN055/// 03/M00 Q1015=
201902270330 METAR LRTC 270330Z AUTO 34014KT 9999 SCT023/// OVC050///
                        03/M00 Q1015=
201902270400 METAR LRTC 270400Z AUTO 34012KT 9999 FEW023/// BKN050///
                        03/M01 Q1015=
201902270430 METAR LRTC 270430Z AUTO 33011KT 9999 OVC050/// 03/M01 Q1016=
201902270500 METAR LRTC 270500Z AUTO 33013KT 9999 FEW041/// BKN055///
                        03/M01 Q1016=
201902270530 METAR LRTC 270530Z AUTO 33014KT 9999 -SHRA BKN050/// 03/M01
                        Q1016=
201902270600 METAR LRTC 270600Z 32013KT 9999 SCT030 03/M01 Q1017 R16/CLRD//=
201902270630 METAR LRTC 270630Z 33015KT 9999 BKN024 04/M00 Q1017=
201902270700 METAR LRTC 270700Z 34017KT 9999 BKN022 04/M01 Q1017=
201902270730 METAR LRTC 270730Z 34016KT 9999 SCT023 04/M00 Q1017=
201902270800 METAR LRTC 270800Z 34019KT 9999 SCT025 05/M01 Q1017=
201902270830 METAR LRTC 270830Z 33020KT 9999 BKN026 05/M01 Q1017=
201902270900 METAR COR LRTC 270900Z 34019KT 9999 BKN034 05/M01 Q1017=
201902270930 METAR LRTC 270930Z 35017KT 9999 FEW028 BKN032 06/M01 Q1017=
201902271000 METAR LRTC 271000Z 33018KT 9999 BKN033 05/M01 Q1017=
201902271030 METAR LRTC 271030Z 33018KT 9999 FEW035 BKN040 05/M02 Q1017=
201902271100 METAR LRTC 271100Z 34017KT 9999 BKN039 05/M02 Q1017=
201902271130 METAR LRTC 271130Z 33020KT 9999 BKN038 06/M03 Q1017=
201902271200 METAR LRTC 271200Z 34020KT 9999 BKN041 05/M02 Q1017=
201902271230 METAR LRTC 271230Z 34016KT 9999 BKN042 05/M02 Q1017=
201902271300 METAR LRTC 271300Z 33016KT 9999 BKN044 05/M02 Q1017=
201902271330 METAR LRTC 271330Z 33018KT 9999 BKN044 05/M04 Q1017=
201902271400 METAR LRTC 271400Z 33016KT 9999 BKN048 05/M04 Q1017=
201902271430 METAR LRTC 271430Z 32017KT 9999 OVC048 05/M03 Q1017=
201902271500 METAR LRTC 271500Z 32015KT 9999 BKN048 04/M02 Q1017=
201902271530 METAR LRTC 271530Z 32013KT 9999 BKN048 04/M03 Q1018=
201902271600 METAR LRTC 271600Z 31013KT 9999 BKN049 04/M02 Q1018=
201902271630 METAR LRTC 271630Z 31014KT CAVOK 04/M01 Q1018=
201902271700 METAR LRTC 271700Z 31014KT 9999 BKN049 03/M01 Q1018=
201902271730 METAR LRTC 271730Z 31011KT 9999 BKN049 03/M01 Q1018=
201902271800 METAR LRTC 271800Z AUTO 31012KT 9999 BKN060/// 03/M01 Q1018=
201902271830 METAR LRTC 271830Z AUTO 31011KT 9999 BKN050/// OVC065///
                        03/M01 Q1018=
201902271900 METAR LRTC 271900Z AUTO 31011KT 9999 BKN050/// 03/M01 Q1018=
201902271930 METAR LRTC 271930Z AUTO 31010KT 9999 OVC050/// 03/M01 Q1018=
201902272000 METAR LRTC 272000Z AUTO 31010KT 9999 BKN050/// 03/M01 Q1017=
201902272030 METAR LRTC 272030Z AUTO 30008KT 9999 OVC055/// 03/M01 Q1017=
201902272100 METAR LRTC 272100Z AUTO 31008KT 9999 OVC055/// 03/M01 Q1017=
201902272130 METAR LRTC 272130Z AUTO 03005KT 350V060 9999 OVC055/// 02/M01
                        Q1017=
201902272200 METAR LRTC 272200Z AUTO 31009KT 9999 OVC050/// 02/M01 Q1017=
201902272230 METAR LRTC 272230Z AUTO 31008KT 9999 OVC055/// 02/M01 Q1017=
201902272300 METAR LRTC 272300Z AUTO 30009KT 9999 OVC055/// 02/M01 Q1016=
201902272330 METAR LRTC 272330Z AUTO 30008KT 9999 OVC050/// 02/M01 Q1016=
201902280000 METAR LRTC 280000Z AUTO 31008KT 9999 OVC050/// 02/M02 Q1016=
201902280030 METAR LRTC 280030Z AUTO 31008KT 9999 OVC049/// 03/M02 Q1015=
201902280100 METAR LRTC 280100Z AUTO 30008KT 9999 OVC049/// 02/M02 Q1015=
201902280130 METAR LRTC 280130Z AUTO 27004KT 9999 OVC049/// 02/M02 Q1014=
201902280200 METAR LRTC 280200Z AUTO 27006KT 9999 OVC050/// 02/M02 Q1014=
201902280230 METAR LRTC 280230Z AUTO 26011KT 9999 BKN050/// 02/M01 Q1014=
201902280300 METAR LRTC 280300Z AUTO 27009KT 9999 OVC050/// 02/M01 Q1014=
201902280330 METAR LRTC 280330Z AUTO 28008KT 9999 OVC050/// 02/M01 Q1014=
201902280400 METAR LRTC 280400Z AUTO 25006KT 9999 FEW050/// BKN085///
                        02/M01 Q1013=
201902280430 METAR LRTC 280430Z AUTO 25009KT 9999 FEW042/// BKN085///
                        02/M01 Q1013=
201902280500 METAR LRTC 280500Z AUTO 26009KT 9999 BKN090/// BKN100///
                        02/M01 Q1013=
201902280530 METAR LRTC 280530Z AUTO 25015KT 9999 BKN095/// BKN120///
                        02/M02 Q1012=
201902280600 METAR LRTC 280600Z 25016KT CAVOK 02/M01 Q1012 R16/CLRD//=
201902280630 METAR LRTC 280630Z 25018KT CAVOK 03/M01 Q1012=
201902280700 METAR LRTC 280700Z 25020KT CAVOK 04/M01 Q1011=
201902280730 METAR LRTC 280730Z 25020KT CAVOK 05/M01 Q1011=
201902280800 METAR LRTC 280800Z 25021KT CAVOK 06/M01 Q1011=
201902280830 METAR LRTC 280830Z 25024KT CAVOK 07/M01 Q1010=
201902280900 METAR LRTC 280900Z 24022KT CAVOK 08/M01 Q1009=
201902280930 METAR LRTC 280930Z 24021KT CAVOK 10/M02 Q1009=
201902281000 METAR LRTC 281000Z 24019KT CAVOK 11/M03 Q1008=
201902281030 METAR LRTC 281030Z 25024KT CAVOK 12/M02 Q1007=
201902281100 METAR LRTC 281100Z 25023KT CAVOK 13/M02 Q1007=
201902281130 METAR LRTC 281130Z 24024KT CAVOK 13/M01 Q1006=
201902281200 METAR LRTC 281200Z 25023KT CAVOK 13/M03 Q1006=
201902281230 METAR LRTC 281230Z 24020KT CAVOK 15/M03 Q1005=
201902281300 METAR LRTC 281300Z 25021KT CAVOK 15/M03 Q1004=
201902281330 METAR LRTC 281330Z 25022KT CAVOK 15/M04 Q1003=
201902281400 METAR LRTC 281400Z 25024KT CAVOK 15/M05 Q1003=
201902281430 METAR LRTC 281430Z 24024KT CAVOK 15/M05 Q1002=
201902281500 METAR LRTC 281500Z 25022KT CAVOK 15/M05 Q1002=
201902281530 METAR LRTC 281530Z 23015KT CAVOK 13/M04 Q1002=
201902281600 METAR LRTC 281600Z 23016KT CAVOK 12/M04 Q1001=
201902281630 METAR LRTC 281630Z 23013KT CAVOK 11/M03 Q1001=
201902281700 METAR LRTC 281700Z 24017KT CAVOK 12/M02 Q1001=
201902281730 METAR LRTC 281730Z 24017KT CAVOK 11/M03 Q1001=
201902281800 METAR LRTC 281800Z AUTO 25021G31KT 9999 SCT180/// 11/M02
                        Q1001=
201902281830 METAR LRTC 281830Z AUTO 26017KT 9999 FEW180/// 10/M02 Q1001=
201902281900 METAR LRTC 281900Z AUTO 25016KT 9999 FEW160/// 09/M01 Q1001=
201902281930 METAR LRTC 281930Z AUTO 25014KT 9999 SCT160/// 09/M01 Q1001=
201902282000 METAR LRTC 282000Z AUTO 26016KT 9999 BKN150/// 10/M01 Q1001=
201902282030 METAR LRTC 282030Z AUTO 26014KT 9999 FEW150/// 08/M01 Q1001=
201902282100 METAR LRTC 282100Z AUTO 26005KT 9999 NCD 06/M01 Q1001=
201902282130 METAR LRTC 282130Z AUTO 27009KT 9999 NCD 07/M02 Q1001=
201902282200 METAR LRTC 282200Z AUTO 27007KT 9999 NCD 07/M03 Q1001=
201902282230 METAR LRTC 282230Z AUTO 26008KT 9999 NCD 06/M03 Q1001=
201902282300 METAR LRTC 282300Z AUTO 28007KT 9999 NCD 07/M03 Q1001=
201902282330 METAR LRTC 282330Z AUTO 30007KT 9999 NCD 06/M03 Q1001=
