201903010000 METAR LRTC 010000Z AUTO 29007KT 9999 NCD 07/M02 Q1001=
201903010030 METAR LRTC 010030Z AUTO 29012KT 9999 NCD 08/M02 Q1001=
201903010100 METAR LRTC 010100Z AUTO 29010KT 9999 NCD 07/M02 Q1001=
201903010130 METAR LRTC 010130Z AUTO 27006KT 190V290 9999 NCD 07/M02 Q1001=
201903010200 METAR LRTC 010200Z AUTO 26008KT 9999 NCD 07/M02 Q1001=
201903010230 METAR LRTC 010230Z AUTO 30007KT 9999 FEW085/// 06/M02 Q1001=
201903010300 METAR LRTC 010300Z AUTO 28006KT 240V300 9999 NCD 07/M02 Q1001=
201903010330 METAR LRTC 010330Z AUTO 36005KT 9999 NCD 05/M02 Q1002=
201903010400 METAR LRTC 010400Z AUTO 35005KT 320V020 9999 NCD 06/M02 Q1002=
201903010430 METAR LRTC 010430Z AUTO 33013KT 9999 NCD 06/M01 Q1002=
201903010500 METAR LRTC 010500Z AUTO VRB03KT 9999 NCD 04/M02 Q1003=
201903010530 METAR LRTC 010530Z AUTO 20004KT 170V250 9999 NCD 05/M01 Q1004=
201903010600 METAR LRTC 010600Z 27003KT 180V310 CAVOK 07/00 Q1004 R16/CLRD//=
201903010630 METAR LRTC 010630Z 03003KT 340V090 CAVOK 08/00 Q1004=
201903010700 METAR LRTC 010700Z 35010KT CAVOK 10/M00 Q1005=
201903010730 METAR LRTC 010730Z 33014KT CAVOK 10/M01 Q1005=
201903010800 METAR LRTC 010800Z 34018KT CAVOK 11/M02 Q1005=
201903010830 METAR LRTC 010830Z 34017KT CAVOK 11/M02 Q1005=
201903010900 METAR LRTC 010900Z 34016KT CAVOK 11/M02 Q1005=
201903010930 METAR LRTC 010930Z 34018KT CAVOK 11/M02 Q1005=
201903011000 METAR LRTC 011000Z 34014KT CAVOK 11/M02 Q1005=
201903011030 METAR LRTC 011030Z 34012KT 300V360 CAVOK 11/M02 Q1005=
201903011100 METAR LRTC 011100Z 31012KT 280V340 CAVOK 12/M02 Q1005=
201903011130 METAR LRTC 011130Z 31009KT 250V340 CAVOK 12/M02 Q1005=
201903011200 METAR LRTC 011200Z 36010KT CAVOK 12/M02 Q1005=
201903011230 METAR LRTC 011230Z 36010KT CAVOK 12/M01 Q1005=
201903011300 METAR LRTC 011300Z 35010KT 320V020 CAVOK 12/M02 Q1005=
201903011330 METAR LRTC 011330Z 01008KT CAVOK 12/M01 Q1005=
201903011400 METAR LRTC 011400Z 01008KT CAVOK 12/M02 Q1004=
201903011430 METAR LRTC 011430Z 01008KT CAVOK 11/M02 Q1004=
201903011500 METAR LRTC 011500Z 01006KT CAVOK 11/M01 Q1004=
201903011530 METAR LRTC 011530Z 04003KT 010V070 CAVOK 10/M01 Q1005=
201903011600 METAR LRTC 011600Z VRB02KT CAVOK 09/M01 Q1005=
201903011630 METAR LRTC 011630Z 13003KT 070V170 CAVOK 08/M01 Q1005=
201903011700 METAR LRTC 011700Z 13004KT CAVOK 07/M00 Q1005=
201903011730 METAR LRTC 011730Z 14004KT CAVOK 07/00 Q1005=
201903011800 METAR LRTC 011800Z AUTO 11003KT 9999 FEW085/// BKN190///
                        06/00 Q1005=
201903011830 METAR LRTC 011830Z AUTO 06002KT 9999 FEW080/// SCT210///
                        06/00 Q1005=
201903011900 METAR LRTC 011900Z AUTO 11003KT 9999 BKN080/// BKN220///
                        06/00 Q1006=
201903011930 METAR LRTC 011930Z AUTO 09003KT 9999 FEW080/// SCT110///
                        BKN210/// 05/00 Q1006=
201903012000 METAR LRTC 012000Z AUTO 05004KT 030V100 9999 FEW095/// SCT110///
                        04/M00 Q1006=
201903012030 METAR LRTC 012030Z AUTO 05004KT 360V090 9999 FEW085/// BKN140///
                        05/M00 Q1005=
201903012100 METAR LRTC 012100Z AUTO 08004KT 050V110 9999 FEW085/// SCT100///
                        BKN140/// 05/M00 Q1005=
201903012130 METAR LRTC 012130Z AUTO 05002KT 360V100 9999 SCT090/// BKN100///
                        BKN140/// 06/M00 Q1005=
201903012200 METAR LRTC 012200Z AUTO 02003KT 9999 BKN095/// 06/M00 Q1005=
201903012230 METAR LRTC 012230Z AUTO 36006KT 9000 FEW075/// SCT140///
                        05/M00 Q1005=
201903012300 METAR LRTC 012300Z AUTO 36007KT 9999 SCT080/// BKN150///
                        05/M00 Q1005=
201903012330 METAR LRTC 012330Z AUTO 36007KT 9999 BKN080/// OVC150///
                        05/M00 Q1006=
201903020000 METAR LRTC 020000Z AUTO 35008KT 9999 FEW080/// BKN150///
                        05/M02 Q1006=
201903020030 METAR LRTC 020030Z AUTO 35009KT 9999 BKN150/// 05/M03 Q1005=
201903020100 METAR LRTC 020100Z AUTO 36010KT 9999 SCT120/// BKN160///
                        04/M04 Q1005=
201903020130 METAR LRTC 020130Z AUTO 36008KT 9999 FEW130/// BKN160///
                        04/M04 Q1005=
201903020200 METAR LRTC 020200Z AUTO 35007KT 9999 FEW090/// SCT100///
                        BKN160/// 04/M04 Q1005=
201903020230 METAR LRTC 020230Z AUTO 33010KT 9999 BKN049/// OVC080///
                        05/M04 Q1006=
201903020300 METAR LRTC 020300Z AUTO 36012KT 9999 -DZ FEW034/// BKN043///
                        BKN049/// 05/M03 Q1007=
201903020330 METAR LRTC 020330Z AUTO 34014KT 9999 -SHRA FEW029/// SCT039///
                        BKN048/// 05/M02 Q1008=
201903020400 METAR LRTC 020400Z AUTO 36014KT 9000 -SHRA VV012 03/M00 Q1008=
201903020430 METAR LRTC 020430Z AUTO 35011KT 9999 -RA FEW021/// BKN042///
                        OVC065/// 03/00 Q1009=
201903020500 METAR LRTC 020500Z AUTO 36011KT 7000 -RA FEW006/// SCT034///
                        BKN044/// 02/01 Q1009=
201903020530 METAR LRTC 020530Z AUTO 36010KT 8000 -RA FEW006/// BKN060///
                        BKN100/// 02/01 Q1009=
201903020600 METAR LRTC 020600Z 35008KT 7000 FEW010 02/01 Q1010=
201903020630 METAR LRTC 020630Z 36009KT 9999 FEW005 02/01 Q1010=
201903020700 METAR LRTC 020700Z 35006KT 9999 FEW007 03/01 Q1010=
201903020730 METAR LRTC 020730Z 34010KT 9999 FEW011 03/01 Q1011=
201903020800 METAR LRTC 020800Z 35012KT 9999 SCT016 04/02 Q1011=
201903020830 METAR LRTC 020830Z 35016KT 9999 SCT021 04/M02 Q1011=
201903020900 METAR LRTC 020900Z 35018KT 9999 FEW028 SCT037 05/M04 Q1012=
201903020930 METAR LRTC 020930Z 34017KT 9999 SCT042 06/M06 Q1012=
201903021000 METAR LRTC 021000Z 34016KT 310V010 9999 SCT042 06/M06 Q1012=
201903021030 METAR LRTC 021030Z 35016KT 9999 SCT045 06/M07 Q1012=
201903021100 METAR LRTC 021100Z 34016KT 9999 SCT045 06/M07 Q1012=
201903021130 METAR LRTC 021130Z 34014KT 9999 BKN048 06/M07 Q1012=
201903021200 METAR LRTC 021200Z 34014KT 9999 BKN045 05/M06 Q1013=
201903021230 METAR LRTC 021230Z 34013KT 310V010 9999 SCT047 07/M07 Q1013=
201903021300 METAR LRTC 021300Z 35013KT 310V010 9999 FEW049 06/M08 Q1013=
201903021330 METAR LRTC 021330Z 35014KT CAVOK 07/M10 Q1013=
201903021400 METAR LRTC 021400Z 34012KT CAVOK 06/M10 Q1013=
201903021430 METAR LRTC 021430Z 35011KT CAVOK 06/M10 Q1013=
201903021500 METAR LRTC 021500Z 34013KT CAVOK 06/M10 Q1014=
201903021530 METAR LRTC 021530Z 34011KT CAVOK 04/M10 Q1014=
201903021600 METAR LRTC 021600Z 34008KT CAVOK 02/M09 Q1014=
201903021630 METAR LRTC 021630Z 33008KT 9999 FEW049 01/M08 Q1015=
201903021700 METAR LRTC 021700Z 01004KT 9999 FEW049 01/M08 Q1016=
201903021730 METAR LRTC 021730Z 01005KT 9999 FEW049 01/M09 Q1016=
201903021800 METAR LRTC 021800Z AUTO 36008KT 9999 NCD M00/M09 Q1016=
201903021830 METAR LRTC 021830Z AUTO 36007KT 9999 BKN047/// M01/M09 Q1017=
201903021900 METAR LRTC 021900Z AUTO 36008KT 9999 BKN047/// M01/M09 Q1017=
201903021930 METAR LRTC 021930Z AUTO 36006KT 9999 FEW048/// M02/M08 Q1018=
201903022000 METAR LRTC 022000Z AUTO 32005KT 9999 FEW210/// M03/M08 Q1018=
201903022030 METAR LRTC 022030Z AUTO 34005KT 9999 FEW200/// M03/M08 Q1018=
201903022100 METAR LRTC 022100Z AUTO VRB01KT 9999 FEW200/// M01/M08 Q1018=
201903022130 METAR LRTC 022130Z AUTO 26003KT 9999 NCD M04/M08 Q1018=
201903022200 METAR LRTC 022200Z AUTO 27003KT 9999 NCD M02/M08 Q1018=
201903022230 METAR LRTC 022230Z AUTO 33004KT 300V030 9999 NCD M04/M08
                        Q1019=
201903022300 METAR LRTC 022300Z AUTO 03003KT 9999 NCD M03/M08 Q1019=
201903022330 METAR LRTC 022330Z AUTO 03004KT 9999 NCD M03/M08 Q1019=
201903030000 METAR LRTC 030000Z AUTO 01003KT 9999 NCD M05/M07 Q1019=
201903030030 METAR LRTC 030030Z AUTO 36003KT 9999 NCD M04/M07 Q1019=
201903030100 METAR LRTC 030100Z AUTO 35006KT 9999 NCD M04/M07 Q1019=
201903030130 METAR LRTC 030130Z AUTO 24004KT 210V290 9999 NCD M06/M08
                        Q1019=
201903030200 METAR LRTC 030200Z AUTO 23003KT 9999 BKN043/// M05/M08 Q1019=
201903030230 METAR LRTC 030230Z AUTO 01002KT 9999 FEW043/// M06/M08 Q1019=
201903030300 METAR LRTC 030300Z AUTO 02005KT 9999 FEW034/// BKN043///
                        M05/M07 Q1019=
201903030330 METAR LRTC 030330Z AUTO 35003KT 230V030 9999 BKN042/// M05/M07
                        Q1019=
201903030400 METAR LRTC 030400Z AUTO 00000KT 9999 BKN043/// M04/M07 Q1020=
201903030430 METAR LRTC 030430Z AUTO 24001KT 9999 BKN043/// M04/M06 Q1019=
201903030500 METAR LRTC 030500Z AUTO 27002KT 9999 OVC043/// M03/M05 Q1020=
201903030530 METAR LRTC 030530Z AUTO VRB01KT 9999 BKN043/// M02/M06 Q1020=
201903030600 METAR LRTC 030600Z VRB02KT 9999 BKN043 M02/M06 Q1020=
201903030630 METAR LRTC 030630Z 22003KT 9999 BKN043 M01/M05 Q1020=
201903030700 METAR LRTC 030700Z VRB02KT 9999 SCT043 00/M05 Q1020=
201903030730 METAR LRTC 030730Z VRB02KT 9999 FEW043 02/M08 Q1020=
201903030800 METAR LRTC 030800Z 13005KT 090V160 9999 FEW044 03/M09 Q1020=
201903030830 METAR LRTC 030830Z 17005KT 140V200 9999 SCT043 04/M09 Q1020=
201903030900 METAR LRTC 030900Z 17004KT 100V210 9999 BKN042 05/M10 Q1020=
201903030930 METAR LRTC 030930Z VRB04KT 9999 BKN044 06/M10 Q1020=
201903031000 METAR LRTC 031000Z 13005KT 080V210 9999 SCT043 07/M09 Q1020=
201903031030 METAR LRTC 031030Z 14006KT 090V190 9999 FEW045 07/M08 Q1020=
201903031100 METAR LRTC 031100Z 12004KT 020V190 9999 FEW048 08/M08 Q1020=
201903031130 METAR LRTC 031130Z 12008KT 080V150 9999 SCT049 07/M06 Q1019=
201903031200 METAR LRTC 031200Z VRB05KT 9999 SCT048 07/M05 Q1019=
201903031230 METAR LRTC 031230Z 15008KT 120V180 9999 SCT048 08/M05 Q1019=
201903031300 METAR LRTC 031300Z 16007KT 140V200 9999 BKN049 08/M04 Q1018=
201903031330 METAR LRTC 031330Z 19007KT 140V220 9999 BKN049 08/M04 Q1018=
201903031400 METAR LRTC 031400Z 18011KT 9999 BKN049 07/M04 Q1018=
201903031430 METAR LRTC 031430Z 18012KT 9999 SCT049 07/M04 Q1018=
201903031500 METAR LRTC 031500Z 16011KT 9999 FEW049 07/M04 Q1018=
201903031530 METAR LRTC 031530Z 16011KT CAVOK 05/M03 Q1018=
201903031600 METAR LRTC 031600Z 17009KT CAVOK 03/M03 Q1018=
201903031630 METAR LRTC 031630Z 17008KT CAVOK 02/M03 Q1018=
201903031700 METAR LRTC 031700Z 18008KT CAVOK 02/M03 Q1018=
201903031730 METAR LRTC 031730Z 19008KT CAVOK 01/M03 Q1018=
201903031800 METAR LRTC 031800Z AUTO 18008KT 9999 NCD 01/M03 Q1018=
201903031830 METAR LRTC 031830Z AUTO 19009KT 9999 NCD 01/M03 Q1018=
201903031900 METAR LRTC 031900Z AUTO 19008KT 9999 NCD 00/M03 Q1018=
201903031930 METAR LRTC 031930Z AUTO 19007KT 9999 NCD 00/M02 Q1017=
201903032000 METAR LRTC 032000Z AUTO 19006KT 9999 NCD 01/M02 Q1017=
201903032030 METAR LRTC 032030Z AUTO 16005KT 9999 NCD 00/M02 Q1017=
201903032100 METAR LRTC 032100Z AUTO 15004KT 9999 NCD 00/M02 Q1017=
201903032130 METAR LRTC 032130Z AUTO 14005KT 9999 NCD 00/M02 Q1017=
201903032200 METAR LRTC 032200Z AUTO 15005KT 9999 NCD 00/M02 Q1016=
201903032230 METAR LRTC 032230Z AUTO 16004KT 9999 NCD 00/M02 Q1016=
201903032300 METAR LRTC 032300Z AUTO 15003KT 9999 NCD 01/M01 Q1016=
201903032330 METAR LRTC 032330Z AUTO 11003KT 060V150 9000 NCD 00/M01 Q1016=
201903040000 METAR LRTC 040000Z AUTO 13003KT 9000 FEW240/// 01/M01 Q1016=
201903040030 METAR LRTC 040030Z AUTO 16006KT 8000 NCD 00/M01 Q1015=
201903040100 METAR LRTC 040100Z AUTO 15005KT 7000 NCD 00/M01 Q1015=
201903040130 METAR LRTC 040130Z AUTO 13004KT 7000 NCD 00/M01 Q1015=
201903040200 METAR LRTC 040200Z AUTO 15004KT 7000 NCD 00/M01 Q1015=
201903040230 METAR LRTC 040230Z AUTO 20006KT 170V230 9999 NCD 02/M01 Q1015=
201903040300 METAR LRTC 040300Z AUTO 20006KT 8000 SCT230/// 00/M02 Q1015=
201903040330 METAR LRTC 040330Z AUTO 23006KT 8000 FEW230/// 01/M02 Q1015=
201903040400 METAR LRTC 040400Z AUTO 22009KT 7000 NCD 00/M02 Q1014=
201903040430 METAR LRTC 040430Z AUTO 21007KT 7000 NCD M00/M02 Q1014=
201903040500 METAR LRTC 040500Z AUTO 22006KT 8000 NCD 00/M02 Q1014=
201903040530 METAR LRTC 040530Z AUTO 19006KT 8000 NCD 01/M01 Q1014=
201903040600 METAR LRTC 040600Z 21006KT 170V240 CAVOK 03/00 Q1014 R16/CLRD//=
201903040630 METAR LRTC 040630Z 23013KT CAVOK 05/00 Q1014=
201903040700 METAR LRTC 040700Z 24013KT CAVOK 07/00 Q1014=
201903040730 METAR LRTC 040730Z 23016KT CAVOK 08/M01 Q1013=
201903040800 METAR LRTC 040800Z 22018KT CAVOK 10/M01 Q1013=
201903040830 METAR LRTC 040830Z 22020KT CAVOK 10/M01 Q1013=
201903040900 METAR LRTC 040900Z 22020KT CAVOK 11/M01 Q1013=
201903040930 METAR COR LRTC 040930Z 23020KT CAVOK 12/M02 Q1013=
201903041000 METAR LRTC 041000Z 23019KT CAVOK 13/M02 Q1013=
201903041030 METAR LRTC 041030Z 22018KT CAVOK 13/M02 Q1012=
201903041100 METAR LRTC 041100Z 22020KT CAVOK 13/M03 Q1012=
201903041130 METAR LRTC 041130Z 22020KT CAVOK 13/M03 Q1012=
201903041200 METAR LRTC 041200Z 22017KT CAVOK 14/M02 Q1011=
201903041230 METAR LRTC 041230Z 22017KT CAVOK 15/M03 Q1010=
201903041300 METAR LRTC 041300Z 22016KT CAVOK 15/M03 Q1010=
201903041330 METAR LRTC 041330Z 22016KT CAVOK 15/M02 Q1010=
201903041400 METAR LRTC 041400Z 22016KT CAVOK 15/M02 Q1009=
201903041430 METAR LRTC 041430Z 22015KT CAVOK 15/M03 Q1009=
201903041500 METAR LRTC 041500Z 22014KT CAVOK 14/M02 Q1009=
201903041530 METAR LRTC 041530Z 22011KT CAVOK 13/M02 Q1008=
201903041600 METAR LRTC 041600Z 21010KT CAVOK 11/M02 Q1009=
201903041630 METAR LRTC 041630Z 20007KT CAVOK 10/M01 Q1009=
201903041700 METAR LRTC 041700Z 16007KT CAVOK 09/M01 Q1009=
201903041730 METAR LRTC 041730Z 16009KT CAVOK 08/M01 Q1009=
201903041800 METAR LRTC 041800Z AUTO 17007KT 9999 FEW230/// 07/M01 Q1009=
201903041830 METAR LRTC 041830Z AUTO 17009KT 9999 BKN220/// 07/M00 Q1008=
201903041900 METAR LRTC 041900Z AUTO 17008KT 9999 NCD 07/M00 Q1008=
201903041930 METAR LRTC 041930Z AUTO 19006KT 9999 NCD 06/M00 Q1008=
201903042000 METAR LRTC 042000Z AUTO 19008KT 9999 NCD 05/M00 Q1008=
201903042030 METAR LRTC 042030Z AUTO 15008KT 9999 NCD 06/00 Q1008=
201903042100 METAR LRTC 042100Z AUTO 16008KT 9999 NCD 05/M00 Q1008=
201903042130 METAR LRTC 042130Z AUTO 16008KT 9999 NCD 06/00 Q1008=
201903042200 METAR LRTC 042200Z AUTO 14009KT 9999 NCD 07/00 Q1008=
201903042230 METAR LRTC 042230Z AUTO 16008KT 9999 NCD 07/00 Q1007=
201903042300 METAR LRTC 042300Z AUTO 13006KT 9999 NCD 05/M00 Q1007=
201903042330 METAR LRTC 042330Z AUTO 14007KT 9999 NCD 05/M00 Q1007=
201903050000 METAR LRTC 050000Z AUTO 13005KT 9999 NCD 05/M00 Q1007=
201903050030 METAR LRTC 050030Z AUTO 14006KT 100V160 9999 NCD 05/M00 Q1007=
201903050100 METAR LRTC 050100Z AUTO 15009KT 9999 NCD 05/M00 Q1006=
201903050130 METAR LRTC 050130Z AUTO 18008KT 9999 NCD 05/M00 Q1006=
201903050200 METAR LRTC 050200Z AUTO 17011KT 9999 NCD 05/M00 Q1005=
201903050230 METAR LRTC 050230Z AUTO 17008KT 9999 NCD 05/M01 Q1005=
201903050300 METAR LRTC 050300Z AUTO 16007KT 9999 NCD 05/M00 Q1005=
201903050330 METAR LRTC 050330Z AUTO 17010KT 9999 NCD 06/M00 Q1005=
201903050400 METAR LRTC 050400Z AUTO 16007KT 9999 NCD 06/M00 Q1005=
201903050430 METAR LRTC 050430Z AUTO 18004KT 9999 NCD 06/M00 Q1005=
201903050500 METAR LRTC 050500Z AUTO 19008KT 9999 NCD 05/M00 Q1005=
201903050530 METAR LRTC 050530Z AUTO 22014KT 9999 NCD 09/00 Q1005=
201903050600 METAR LRTC 050600Z 22013KT CAVOK 10/M00 Q1005 R16/CLRD//=
201903050630 METAR LRTC 050630Z 21012KT CAVOK 11/00 Q1005=
201903050700 METAR LRTC 050700Z 22016KT CAVOK 13/M00 Q1004=
201903050730 METAR LRTC 050730Z 22015KT CAVOK 14/M00 Q1004=
201903050800 METAR LRTC 050800Z 22018KT CAVOK 15/M01 Q1004=
201903050830 METAR LRTC 050830Z 22019KT CAVOK 16/M01 Q1004=
201903050900 METAR LRTC 050900Z 23018KT CAVOK 18/M02 Q1005=
201903050930 METAR LRTC 050930Z 23019KT CAVOK 17/M02 Q1005=
201903051000 METAR LRTC 051000Z 24020KT CAVOK 17/M02 Q1005=
201903051030 METAR LRTC 051030Z 25019KT CAVOK 18/M03 Q1004=
201903051100 METAR LRTC 051100Z 24023KT CAVOK 18/M02 Q1004=
201903051130 METAR LRTC 051130Z 26019KT CAVOK 19/M02 Q1005=
201903051200 METAR LRTC 051200Z 27018KT CAVOK 19/M02 Q1005=
201903051230 METAR LRTC 051230Z 28011KT 250V310 CAVOK 20/M02 Q1005=
201903051300 METAR LRTC 051300Z 30021KT CAVOK 19/M02 Q1005=
201903051330 METAR LRTC 051330Z 32023KT CAVOK 18/M02 Q1006=
201903051400 METAR LRTC 051400Z 31024KT CAVOK 17/M04 Q1007=
201903051430 METAR LRTC 051430Z 31020KT CAVOK 16/M03 Q1007=
201903051500 METAR LRTC 051500Z 32018KT CAVOK 15/M03 Q1007=
201903051530 METAR LRTC 051530Z 31013KT CAVOK 14/M03 Q1008=
201903051600 METAR LRTC 051600Z 32011KT CAVOK 13/M03 Q1008=
201903051630 METAR LRTC 051630Z 29007KT CAVOK 11/M02 Q1008=
201903051700 METAR LRTC 051700Z 24005KT CAVOK 11/M02 Q1009=
201903051730 METAR LRTC 051730Z 25006KT CAVOK 10/M02 Q1009=
201903051800 METAR LRTC 051800Z AUTO 25005KT 9999 BKN180/// 10/M02 Q1010=
201903051830 METAR LRTC 051830Z AUTO 27007KT 9999 BKN200/// 11/M02 Q1010=
201903051900 METAR LRTC 051900Z AUTO 27006KT 9999 BKN180/// 09/M02 Q1010=
201903051930 METAR LRTC 051930Z AUTO 10004KT 9999 BKN170/// 09/M01 Q1011=
201903052000 METAR LRTC 052000Z AUTO 21005KT 9999 BKN180/// 08/M01 Q1011=
201903052030 METAR LRTC 052030Z AUTO 20003KT 150V220 9999 BKN150/// 07/M01
                        Q1011=
201903052100 METAR LRTC 052100Z AUTO 24004KT 9999 BKN150/// 08/M02 Q1012=
201903052130 METAR LRTC 052130Z AUTO 02001KT 9999 SCT140/// BKN170///
                        08/M01 Q1012=
201903052200 METAR LRTC 052200Z AUTO VRB03KT 9999 FEW140/// BKN170///
                        09/M01 Q1012=
201903052230 METAR LRTC 052230Z AUTO 01006KT 330V040 9999 BKN190/// 07/M01
                        Q1012=
201903052300 METAR LRTC 052300Z AUTO 29006KT 250V320 9999 BKN150/// 09/M02
                        Q1013=
201903052330 METAR LRTC 052330Z AUTO 29007KT 9999 BKN140/// BKN170///
                        08/M02 Q1013=
201903060000 METAR LRTC 060000Z AUTO 29007KT 9999 BKN150/// 07/M02 Q1013=
201903060030 METAR LRTC 060030Z AUTO 29007KT 9999 BKN180/// 07/M03 Q1013=
201903060100 METAR LRTC 060100Z AUTO 28008KT 9999 FEW160/// BKN220///
                        06/M03 Q1013=
201903060130 METAR LRTC 060130Z AUTO 33006KT 9999 NCD 05/M04 Q1013=
201903060200 METAR LRTC 060200Z AUTO 30005KT 9999 NCD 05/M05 Q1013=
201903060230 METAR LRTC 060230Z AUTO VRB01KT 9999 BKN180/// 04/M03 Q1013=
201903060300 METAR LRTC 060300Z AUTO 19002KT 150V230 9999 BKN170/// 04/M03
                        Q1013=
201903060330 METAR LRTC 060330Z AUTO 06004KT 9999 BKN150/// 04/M03 Q1013=
201903060400 METAR LRTC 060400Z AUTO 10003KT 9999 BKN150/// 05/M04 Q1013=
201903060430 METAR LRTC 060430Z AUTO 08002KT 9999 BKN170/// 05/M04 Q1013=
201903060500 METAR LRTC 060500Z AUTO 21001KT 9999 SCT210/// 05/M04 Q1014=
201903060530 METAR LRTC 060530Z AUTO VRB02KT 9999 BKN210/// 05/M04 Q1014=
201903060600 METAR LRTC 060600Z 03002KT CAVOK 04/M02 Q1014 R16/CLRD//=
201903060630 METAR LRTC 060630Z VRB01KT CAVOK 08/M04 Q1014=
201903060700 METAR LRTC 060700Z VRB02KT CAVOK 10/M03 Q1014=
201903060730 METAR LRTC 060730Z 22003KT 170V250 CAVOK 12/M03 Q1015=
201903060800 METAR LRTC 060800Z 22004KT 160V270 CAVOK 14/M03 Q1014=
201903060830 METAR LRTC 060830Z 23007KT CAVOK 15/M05 Q1014=
201903060900 METAR LRTC 060900Z 23005KT 180V280 CAVOK 15/M07 Q1014=
201903060930 METAR LRTC 060930Z 24006KT CAVOK 16/M09 Q1014=
201903061000 METAR LRTC 061000Z VRB03KT CAVOK 16/M09 Q1014=
201903061030 METAR LRTC 061030Z 19007KT 100V250 CAVOK 17/M08 Q1014=
201903061100 METAR LRTC 061100Z 23014KT 9999 FEW049 17/M09 Q1014=
201903061130 METAR LRTC 061130Z 26016KT 9999 FEW049 16/M06 Q1014=
201903061200 METAR LRTC 061200Z 25015KT 9999 FEW050CB 16/M09 Q1014=
201903061230 METAR LRTC 061230Z 28017KT 9999 FEW045CB 16/M08 Q1014=
201903061300 METAR LRTC 061300Z 32022KT 9999 FEW045 FEW050CB 13/M02 Q1014=
201903061330 METAR LRTC 061330Z 32019KT 9999 FEW050CB 13/M02 Q1015=
201903061400 METAR LRTC 061400Z 34019KT 9999 FEW049 13/M00 Q1015=
201903061430 METAR LRTC 061430Z 35021KT CAVOK 12/01 Q1016=
201903061500 METAR LRTC 061500Z 35019KT CAVOK 10/01 Q1017=
201903061530 METAR LRTC 061530Z 34015KT 9999 FEW045 10/01 Q1018=
201903061600 METAR LRTC 061600Z 34014KT 9999 FEW050CB 09/01 Q1018=
201903061630 METAR LRTC 061630Z 35012KT CAVOK 08/01 Q1019=
201903061700 METAR LRTC 061700Z 35008KT CAVOK 07/01 Q1020=
201903061730 METAR LRTC 061730Z 31008KT CAVOK 05/M00 Q1020=
201903061800 METAR LRTC 061800Z AUTO 32007KT 9999 NCD 05/00 Q1021=
201903061830 METAR LRTC 061830Z AUTO 35005KT 9999 NCD 05/00 Q1021=
201903061900 METAR LRTC 061900Z AUTO 31008KT 9999 NCD 04/M00 Q1021=
201903061930 METAR LRTC 061930Z AUTO 31007KT 9999 NCD 03/M01 Q1022=
201903062000 METAR LRTC 062000Z AUTO 32003KT 290V360 9999 NCD 04/M00 Q1022=
201903062030 METAR LRTC 062030Z AUTO 02002KT 320V060 9999 NCD 02/M02 Q1023=
201903062100 METAR LRTC 062100Z AUTO 06003KT 020V080 9999 NCD 03/M00 Q1023=
201903062130 METAR LRTC 062130Z AUTO 02004KT 9999 NCD 01/M01 Q1023=
201903062200 METAR LRTC 062200Z AUTO 35006KT 9999 NCD 00/M02 Q1023=
201903062230 METAR LRTC 062230Z AUTO 25005KT 180V320 9999 NCD 00/M02 Q1023=
201903062300 METAR LRTC 062300Z AUTO VRB01KT 9999 NCD M01/M03 Q1023=
201903062330 METAR LRTC 062330Z AUTO VRB01KT 9999 NCD M01/M02 Q1024=
201903070000 METAR LRTC 070000Z AUTO VRB01KT 9000 NCD M01/M02 Q1024=
201903070030 METAR LRTC 070030Z AUTO 28002KT 230V340 9999 NCD M00/M02
                        Q1024=
201903070100 METAR LRTC 070100Z AUTO 36002KT 260V010 8000 NCD M01/M02
                        Q1024=
201903070130 METAR LRTC 070130Z AUTO 02002KT 9999 NCD 00/M01 Q1024=
201903070200 METAR LRTC 070200Z AUTO 36002KT 9999 NCD 00/M01 Q1024=
201903070230 METAR LRTC 070230Z AUTO 03002KT 320V110 9000 NCD M02/M04
                        Q1024=
201903070300 METAR LRTC 070300Z AUTO 03005KT 7000 NCD M04/M05 Q1024=
201903070330 METAR LRTC 070330Z AUTO 26005KT 8000 NCD M03/M04 Q1024=
201903070400 METAR LRTC 070400Z AUTO 05004KT 010V070 7000 NCD M04/M05
                        Q1024=
201903070430 METAR LRTC 070430Z AUTO VRB01KT 8000 NCD M02/M03 Q1024=
201903070500 METAR LRTC 070500Z AUTO VRB01KT 8000 NCD M01/M02 Q1024=
201903070530 METAR LRTC 070530Z AUTO 07002KT 8000 NCD M00/M02 Q1024=
201903070600 METAR LRTC 070600Z VRB01KT CAVOK 02/M00 Q1025 R16/CLRD//=
201903070630 METAR LRTC 070630Z VRB01KT CAVOK 03/M00 Q1025=
201903070700 METAR LRTC 070700Z VRB02KT CAVOK 05/01 Q1025=
201903070730 METAR LRTC 070730Z VRB02KT CAVOK 06/01 Q1025=
201903070800 METAR LRTC 070800Z 14003KT 080V180 CAVOK 08/01 Q1025=
201903070830 METAR LRTC 070830Z 16009KT 130V200 CAVOK 10/00 Q1025=
201903070900 METAR LRTC 070900Z 15010KT CAVOK 11/M00 Q1024=
201903070930 METAR LRTC 070930Z 17011KT 9999 FEW045TCU 12/M01 Q1024=
201903071000 METAR LRTC 071000Z 16011KT CAVOK 12/M01 Q1024=
201903071030 METAR LRTC 071030Z 15015KT CAVOK 12/M02 Q1024=
201903071100 METAR LRTC 071100Z 15016KT CAVOK 13/M03 Q1023=
201903071130 METAR LRTC 071130Z 14016KT CAVOK 13/M02 Q1023=
201903071200 METAR LRTC 071200Z 15017KT CAVOK 13/M02 Q1022=
201903071230 METAR LRTC 071230Z 15018KT CAVOK 13/M03 Q1022=
201903071300 METAR LRTC 071300Z 16018KT CAVOK 12/M00 Q1021=
201903071330 METAR LRTC 071330Z 15018KT CAVOK 12/00 Q1021=
201903071400 METAR LRTC 071400Z 15018KT CAVOK 11/01 Q1021=
201903071430 METAR LRTC 071430Z 14015KT CAVOK 10/02 Q1021=
201903071500 METAR LRTC 071500Z 14015KT CAVOK 09/03 Q1021=
201903071530 METAR LRTC 071530Z 14015KT CAVOK 08/03 Q1021=
201903071600 METAR LRTC 071600Z 14013KT CAVOK 08/02 Q1021=
201903071630 METAR LRTC 071630Z 14013KT CAVOK 08/02 Q1020=
201903071700 METAR LRTC 071700Z 13012KT CAVOK 08/03 Q1021=
201903071730 METAR LRTC 071730Z 14015KT CAVOK 07/03 Q1020=
201903071800 METAR LRTC 071800Z AUTO 14012KT 9999 NCD 07/04 Q1020=
201903071830 METAR LRTC 071830Z AUTO 14013KT 9999 NCD 07/03 Q1020=
201903071900 METAR LRTC 071900Z AUTO 15011KT 9999 NCD 07/03 Q1020=
201903071930 METAR LRTC 071930Z AUTO 14008KT 100V180 9999 FEW210/// 07/03
                        Q1020=
201903072000 METAR LRTC 072000Z AUTO 16008KT 9999 BKN210/// 07/03 Q1019=
201903072030 METAR LRTC 072030Z AUTO 17009KT 9999 BKN210/// 07/03 Q1020=
201903072100 METAR LRTC 072100Z AUTO 16011KT 9999 NCD 06/03 Q1019=
201903072130 METAR LRTC 072130Z AUTO 17012KT 9999 SCT210/// 07/03 Q1019=
201903072200 METAR LRTC 072200Z AUTO 17010KT 9999 FEW210/// 07/03 Q1019=
201903072230 METAR LRTC 072230Z AUTO 15007KT 110V170 9999 NCD 07/02 Q1019=
201903072300 METAR LRTC 072300Z AUTO 16007KT 9999 NCD 07/03 Q1019=
201903072330 METAR LRTC 072330Z AUTO 16008KT 9999 SCT210/// 07/03 Q1019=
201903080000 METAR LRTC 080000Z AUTO 12005KT 090V150 9999 FEW220/// 06/03
                        Q1019=
201903080030 METAR LRTC 080030Z AUTO 14009KT 9999 FEW240/// 07/03 Q1018=
201903080100 METAR LRTC 080100Z AUTO 14008KT 9999 NCD 06/03 Q1018=
201903080130 METAR LRTC 080130Z AUTO 14008KT 9999 NCD 06/03 Q1018=
201903080200 METAR LRTC 080200Z AUTO 15009KT 9999 NCD 06/03 Q1018=
201903080230 METAR LRTC 080230Z AUTO 15008KT 9999 NCD 05/02 Q1018=
201903080300 METAR LRTC 080300Z AUTO 13006KT 9999 NCD 05/03 Q1018=
201903080330 METAR LRTC 080330Z AUTO 13007KT 9999 NCD 05/02 Q1018=
201903080400 METAR LRTC 080400Z AUTO 14008KT 9999 NCD 06/03 Q1018=
201903080430 METAR LRTC 080430Z AUTO 13007KT 9999 NCD 05/03 Q1018=
201903080500 METAR LRTC 080500Z AUTO 13007KT 9999 NCD 05/03 Q1018=
201903080530 METAR LRTC 080530Z AUTO 13005KT 9999 NCD 06/04 Q1018=
201903080600 METAR LRTC 080600Z 14005KT CAVOK 07/05 Q1018 R16/CLRD//=
201903080630 METAR LRTC 080630Z 16008KT CAVOK 09/05 Q1018=
201903080700 METAR LRTC 080700Z 14006KT CAVOK 10/05 Q1018=
201903080730 METAR LRTC 080730Z 15007KT CAVOK 12/05 Q1018=
201903080800 METAR LRTC 080800Z 15008KT CAVOK 14/05 Q1018=
201903080830 METAR LRTC 080830Z 14007KT CAVOK 16/05 Q1017=
201903080900 METAR LRTC 080900Z 14009KT CAVOK 16/04 Q1017=
201903080930 METAR LRTC 080930Z 15010KT CAVOK 19/06 Q1017=
201903081000 METAR LRTC 081000Z 14011KT CAVOK 21/04 Q1017=
201903081030 METAR LRTC 081030Z 14012KT CAVOK 21/04 Q1016=
201903081100 METAR LRTC 081100Z 17014KT CAVOK 23/03 Q1016=
201903081130 METAR LRTC 081130Z 15012KT CAVOK 23/04 Q1016=
201903081200 METAR LRTC 081200Z 16013KT CAVOK 23/04 Q1015=
201903081230 METAR LRTC 081230Z 16013KT CAVOK 23/05 Q1015=
201903081300 METAR LRTC 081300Z 16015KT CAVOK 22/05 Q1015=
201903081330 METAR LRTC 081330Z 16013KT CAVOK 23/05 Q1015=
201903081400 METAR LRTC 081400Z 16012KT CAVOK 22/06 Q1015=
201903081430 METAR LRTC 081430Z 14010KT CAVOK 19/07 Q1015=
201903081500 METAR LRTC 081500Z 14009KT CAVOK 17/07 Q1015=
201903081530 METAR LRTC 081530Z 16010KT CAVOK 17/07 Q1015=
201903081600 METAR LRTC 081600Z 16009KT CAVOK 16/07 Q1015=
201903081630 METAR LRTC 081630Z 16009KT CAVOK 16/07 Q1015=
201903081700 METAR LRTC 081700Z 03004KT 350V130 CAVOK 15/07 Q1015=
201903081730 METAR LRTC 081730Z 09005KT CAVOK 14/07 Q1016=
201903081800 METAR LRTC 081800Z AUTO 08006KT 9999 BKN160/// 12/07 Q1015=
201903081830 METAR LRTC 081830Z AUTO 08007KT 9999 BKN160/// 11/07 Q1015=
201903081900 METAR LRTC 081900Z AUTO 11007KT 9999 BKN160/// 11/07 Q1015=
201903081930 METAR LRTC 081930Z AUTO 10003KT 9999 BKN160/// 12/07 Q1015=
201903082000 METAR LRTC 082000Z AUTO 10006KT 9999 BKN150/// 11/07 Q1016=
201903082030 METAR LRTC 082030Z AUTO 12006KT 9999 BKN150/// 11/07 Q1015=
201903082100 METAR LRTC 082100Z AUTO 12006KT 9999 BKN150/// 12/07 Q1015=
201903082130 METAR LRTC 082130Z AUTO 14005KT 9999 BKN150/// 13/07 Q1015=
201903082200 METAR LRTC 082200Z AUTO 15007KT 9999 BKN150/// 13/06 Q1015=
201903082230 METAR LRTC 082230Z AUTO 09002KT 9999 BKN140/// 13/06 Q1016=
201903082300 METAR LRTC 082300Z AUTO VRB01KT 9999 BKN140/// 14/06 Q1016=
201903082330 METAR LRTC 082330Z AUTO 36004KT 9999 BKN160/// 13/06 Q1016=
201903090000 METAR LRTC 090000Z AUTO 29004KT 250V320 9999 BKN160/// 13/04
                        Q1016=
201903090030 METAR LRTC 090030Z AUTO 20008KT 9999 SCT140/// BKN160///
                        12/05 Q1016=
201903090100 METAR LRTC 090100Z AUTO 23006KT 9999 BKN150/// 14/02 Q1016=
201903090130 METAR LRTC 090130Z AUTO 24006KT 9999 SCT130/// BKN150///
                        15/02 Q1016=
201903090200 METAR LRTC 090200Z AUTO 26006KT 9999 FEW120/// SCT140///
                        BKN160/// 14/02 Q1016=
201903090230 METAR LRTC 090230Z AUTO 28005KT 240V320 9999 SCT120/// BKN150///
                        13/02 Q1016=
201903090300 METAR LRTC 090300Z AUTO 17002KT 110V210 9999 FEW120/// SCT130///
                        BKN150/// 11/04 Q1017=
201903090330 METAR LRTC 090330Z AUTO 33007KT 9999 SCT130/// BKN150///
                        13/02 Q1017=
201903090400 METAR LRTC 090400Z AUTO 32014KT 9999 BKN140/// 13/02 Q1017=
201903090430 METAR LRTC 090430Z AUTO 33014KT 9999 FEW110/// BKN130///
                        BKN150/// 14/03 Q1017=
201903090500 METAR LRTC 090500Z AUTO 01008KT 330V040 9999 BKN110/// BKN140///
                        13/04 Q1018=
201903090530 METAR LRTC 090530Z AUTO 35012KT 9999 BKN130/// 13/03 Q1018=
201903090600 METAR LRTC 090600Z 35009KT CAVOK 13/04 Q1018=
201903090630 METAR LRTC 090630Z 02005KT 350V060 CAVOK 14/04 Q1018=
201903090700 METAR LRTC 090700Z 36006KT CAVOK 16/04 Q1018=
201903090730 METAR LRTC 090730Z 36009KT CAVOK 16/03 Q1018=
201903090800 METAR LRTC 090800Z 36007KT CAVOK 17/04 Q1018=
201903090830 METAR LRTC 090830Z 01006KT 340V040 CAVOK 18/03 Q1018=
201903090900 METAR LRTC 090900Z 06005KT 360V110 CAVOK 19/02 Q1018=
201903090930 METAR LRTC 090930Z 03004KT 320V090 CAVOK 19/01 Q1018=
201903091000 METAR LRTC 091000Z VRB03KT CAVOK 20/00 Q1018=
201903091030 METAR LRTC 091030Z 03005KT 320V110 CAVOK 20/01 Q1017=
201903091100 METAR LRTC 091100Z 08003KT 360V140 CAVOK 21/00 Q1017=
201903091130 METAR LRTC 091130Z 23003KT 180V290 CAVOK 21/01 Q1016=
201903091200 METAR LRTC 091200Z VRB04KT CAVOK 21/01 Q1016=
201903091230 METAR LRTC 091230Z 19004KT 140V240 CAVOK 21/01 Q1016=
201903091300 METAR LRTC 091300Z 23014KT CAVOK 22/01 Q1015=
201903091330 METAR LRTC 091330Z 23011KT 200V270 CAVOK 21/01 Q1015=
201903091400 METAR LRTC 091400Z 25010KT CAVOK 21/01 Q1015=
201903091430 METAR LRTC 091430Z 25009KT CAVOK 21/01 Q1015=
201903091500 METAR LRTC 091500Z 24010KT CAVOK 20/02 Q1014=
201903091530 METAR LRTC 091530Z 17008KT 140V200 CAVOK 18/03 Q1014=
201903091600 METAR LRTC 091600Z 14009KT CAVOK 15/04 Q1014=
201903091630 METAR LRTC 091630Z 14009KT CAVOK 14/03 Q1014=
201903091700 METAR LRTC 091700Z 15008KT CAVOK 13/04 Q1014=
201903091730 METAR LRTC 091730Z 16008KT CAVOK 12/04 Q1014=
201903091800 METAR LRTC 091800Z AUTO 19004KT 7000 FEW190/// 11/04 Q1014=
201903091830 METAR LRTC 091830Z AUTO 25005KT 7000 NCD 12/03 Q1014=
201903091900 METAR LRTC 091900Z AUTO 26010KT 8000 NCD 13/03 Q1014=
201903091930 METAR LRTC 091930Z AUTO 25012KT 8000 NCD 13/03 Q1014=
201903092000 METAR LRTC 092000Z AUTO 26010KT 9000 NCD 12/03 Q1014=
201903092030 METAR LRTC 092030Z AUTO 28004KT 8000 NCD 10/03 Q1014=
201903092100 METAR LRTC 092100Z AUTO 26007KT 9999 NCD 11/03 Q1014=
201903092130 METAR LRTC 092130Z AUTO 27006KT 9999 NCD 09/02 Q1013=
201903092200 METAR LRTC 092200Z AUTO 13002KT 070V240 9999 NCD 08/02 Q1013=
201903092230 METAR LRTC 092230Z AUTO 27005KT 9999 NCD 11/03 Q1013=
201903092300 METAR LRTC 092300Z AUTO 25002KT 190V290 9999 NCD 10/03 Q1013=
201903092330 METAR LRTC 092330Z AUTO VRB01KT 9999 SCT240/// 10/03 Q1013=
201903100000 METAR LRTC 100000Z AUTO 20005KT 9999 BKN200/// 09/03 Q1013=
201903100030 METAR LRTC 100030Z AUTO VRB02KT 9999 BKN085/// BKN230///
                        10/03 Q1013=
201903100100 METAR LRTC 100100Z AUTO VRB03KT 9999 BKN090/// BKN240///
                        10/03 Q1013=
201903100130 METAR LRTC 100130Z AUTO VRB02KT 9999 FEW090/// BKN240///
                        10/03 Q1013=
201903100200 METAR LRTC 100200Z AUTO 25004KT 210V290 9999 FEW240/// 10/03
                        Q1013=
201903100230 METAR LRTC 100230Z AUTO 24005KT 190V270 9999 BKN240/// 10/03
                        Q1013=
201903100300 METAR LRTC 100300Z AUTO 22002KT 200V260 9999 BKN230/// 10/03
                        Q1012=
201903100330 METAR LRTC 100330Z AUTO 21004KT 9999 BKN210/// 08/02 Q1012=
201903100400 METAR LRTC 100400Z AUTO 17005KT 130V190 9999 BKN150/// 08/03
                        Q1011=
201903100430 METAR LRTC 100430Z AUTO 22006KT 9999 BKN150/// 08/03 Q1011=
201903100500 METAR LRTC 100500Z AUTO 22003KT 170V240 9999 BKN150/// 08/03
                        Q1011=
201903100530 METAR LRTC 100530Z AUTO 22011KT 9999 FEW130/// 08/03 Q1012=
201903100600 METAR LRTC 100600Z 22013KT CAVOK 10/03 Q1011=
201903100630 METAR LRTC 100630Z 24012KT CAVOK 12/03 Q1011=
201903100700 METAR LRTC 100700Z 23015KT CAVOK 13/04 Q1011=
201903100730 METAR LRTC 100730Z 24016G27KT CAVOK 14/03 Q1011=
201903100800 METAR LRTC 100800Z 25019KT CAVOK 15/04 Q1011=
201903100830 METAR LRTC 100830Z 26024KT CAVOK 16/04 Q1011=
201903100900 METAR LRTC 100900Z 26022KT CAVOK 17/03 Q1010=
201903100930 METAR LRTC 100930Z 26022KT CAVOK 17/01 Q1011=
201903101000 METAR LRTC 101000Z 26024G35KT CAVOK 19/M01 Q1011=
201903101030 METAR LRTC 101030Z 29027G41KT CAVOK 20/M09 Q1010=
201903101100 METAR LRTC 101100Z 29028KT CAVOK 19/M09 Q1011=
201903101130 METAR LRTC 101130Z 31031KT CAVOK 19/M09 Q1011=
201903101200 METAR LRTC 101200Z 31031KT CAVOK 19/M10 Q1010=
201903101230 METAR LRTC 101230Z 31022G32KT CAVOK 20/M09 Q1010=
201903101300 METAR LRTC 101300Z 29015G26KT CAVOK 20/M09 Q1010=
201903101330 METAR LRTC 101330Z 28015KT 250V310 CAVOK 20/M08 Q1010=
201903101400 METAR LRTC 101400Z 28016G27KT CAVOK 20/M08 Q1010=
201903101430 METAR LRTC 101430Z 27019KT CAVOK 19/M09 Q1010=
201903101500 METAR LRTC 101500Z 31011KT CAVOK 18/M09 Q1010=
201903101530 METAR LRTC 101530Z 33006KT CAVOK 15/M08 Q1011=
201903101600 METAR LRTC 101600Z 01006KT CAVOK 14/M07 Q1011=
201903101630 METAR LRTC 101630Z 34004KT CAVOK 15/M08 Q1011=
201903101700 METAR LRTC 101700Z VRB03KT CAVOK 13/M07 Q1011=
201903101730 METAR LRTC 101730Z 13007KT CAVOK 11/M05 Q1011=
201903101800 METAR LRTC 101800Z AUTO 07004KT 9999 BKN160/// 13/M06 Q1010=
201903101830 METAR LRTC 101830Z AUTO 20003KT 140V220 9999 BKN150/// BKN220///
                        10/M05 Q1010=
201903101900 METAR LRTC 101900Z AUTO 16004KT 120V220 9999 BKN160/// 11/M05
                        Q1010=
201903101930 METAR LRTC 101930Z AUTO 13003KT 9999 SCT120/// BKN150///
                        12/M05 Q1010=
201903102000 METAR LRTC 102000Z AUTO 15004KT 9999 BKN200/// 11/M04 Q1009=
201903102030 METAR LRTC 102030Z AUTO 12003KT 9999 BKN170/// 11/M04 Q1008=
201903102100 METAR LRTC 102100Z AUTO 10003KT 070V130 9999 SCT120/// BKN130///
                        BKN150/// 12/M03 Q1008=
201903102130 METAR LRTC 102130Z AUTO 14003KT 9999 SCT090/// BKN100///
                        BKN120/// 12/M03 Q1007=
201903102200 METAR LRTC 102200Z AUTO 18004KT 140V220 9999 SCT100/// OVC110///
                        12/M01 Q1007=
201903102230 METAR LRTC 102230Z AUTO 15003KT 130V190 9999 FEW085/// BKN110///
                        BKN140/// 12/M02 Q1007=
201903102300 METAR LRTC 102300Z AUTO 25005KT 9999 BKN085/// BKN100///
                        13/M01 Q1007=
201903102330 METAR LRTC 102330Z AUTO 11003KT 030V190 9999 BKN090/// 13/M01
                        Q1006=
201903110000 METAR LRTC 110000Z AUTO 22003KT 140V260 9999 OVC090/// 14/M02
                        Q1006=
201903110030 METAR LRTC 110030Z AUTO 20005KT 9999 -SHRA SCT070/// BKN085///
                        13/M01 Q1006=
201903110100 METAR LRTC 110100Z AUTO 27005KT 240V300 9999 -SHRA BKN070///
                        BKN085/// 13/M01 Q1005=
201903110130 METAR LRTC 110130Z AUTO 23008KT 9999 -SHRA SCT070/// BKN085///
                        13/00 Q1005=
201903110200 METAR LRTC 110200Z AUTO 24005KT 200V280 9999 FEW070/// BKN120///
                        BKN170/// 14/M01 Q1005 RERA=
201903110230 METAR LRTC 110230Z AUTO 26012KT 9999 SCT095/// BKN110///
                        14/00 Q1005 RERA=
201903110300 METAR LRTC 110300Z AUTO 25007KT 190V270 9999 SCT100/// BKN110///
                        13/00 Q1005=
201903110330 METAR LRTC 110330Z AUTO 26014KT 9999 SCT110/// 13/00 Q1005=
201903110400 METAR LRTC 110400Z AUTO 25013KT 9999 FEW120/// 12/01 Q1005=
201903110430 METAR LRTC 110430Z AUTO 25014KT 9999 NCD 12/02 Q1005=
201903110500 METAR LRTC 110500Z AUTO 25010KT 9999 NCD 12/02 Q1005=
201903110530 METAR LRTC 110530Z AUTO 24015KT 9999 NCD 13/02 Q1006=
201903110600 METAR LRTC 110600Z 25015KT CAVOK 14/02 Q1006 R16/CLRD//=
201903110630 METAR LRTC 110630Z 25017KT CAVOK 15/02 Q1006=
201903110700 METAR LRTC 110700Z 25018KT CAVOK 16/01 Q1006=
201903110730 METAR LRTC 110730Z 25017KT CAVOK 17/00 Q1006=
201903110800 METAR LRTC 110800Z 25016KT CAVOK 18/00 Q1006=
201903110830 METAR LRTC 110830Z 25021KT CAVOK 20/M03 Q1006=
201903110900 METAR LRTC 110900Z 25024KT CAVOK 20/M04 Q1006=
201903110930 METAR LRTC 110930Z 25023KT CAVOK 20/M06 Q1006=
201903111000 METAR LRTC 111000Z 25020KT CAVOK 21/M07 Q1006=
201903111030 METAR LRTC 111030Z 26017G27KT CAVOK 22/M08 Q1006=
201903111100 METAR LRTC 111100Z 26012KT CAVOK 21/M08 Q1006=
201903111130 METAR LRTC 111130Z 25016KT CAVOK 21/M09 Q1006=
201903111200 METAR LRTC 111200Z 25015KT 220V280 CAVOK 22/M08 Q1006=
201903111230 METAR LRTC 111230Z 27013KT CAVOK 22/M09 Q1006=
201903111300 METAR LRTC 111300Z 26016KT CAVOK 20/M10 Q1006=
201903111330 METAR LRTC 111330Z 26014KT CAVOK 20/M11 Q1006=
201903111400 METAR LRTC 111400Z 27014KT CAVOK 20/M11 Q1006=
201903111430 METAR LRTC 111430Z 32012KT CAVOK 19/M10 Q1006=
201903111500 METAR LRTC 111500Z 33011KT CAVOK 18/M10 Q1006=
201903111530 METAR LRTC 111530Z 33011KT CAVOK 17/M09 Q1007=
201903111600 METAR LRTC 111600Z 33010KT CAVOK 16/M08 Q1007=
201903111630 METAR LRTC 111630Z 36014KT CAVOK 15/M05 Q1008=
201903111700 METAR LRTC 111700Z 01015KT CAVOK 14/M04 Q1008=
201903111730 METAR LRTC 111730Z 02013KT CAVOK 14/M05 Q1009=
201903111800 METAR LRTC 111800Z AUTO 04013KT 8000 OVC100/// 13/M05 Q1010=
201903111830 METAR LRTC 111830Z AUTO 04012KT 7000 SCT080/// OVC100///
                        12/M05 Q1010=
201903111900 METAR LRTC 111900Z AUTO 04014KT 7000 BKN075/// 11/M05 Q1010=
201903111930 METAR LRTC 111930Z AUTO 05011KT 9999 SCT095/// 10/M04 Q1010=
201903112000 METAR LRTC 112000Z AUTO VRB01KT 9000 BKN095/// 10/M02 Q1011=
201903112030 METAR LRTC 112030Z AUTO 06006KT 030V090 9000 BKN090/// 10/M02
                        Q1011=
201903112100 METAR LRTC 112100Z AUTO 03008KT 9999 OVC085/// 10/M02 Q1011=
201903112130 METAR LRTC 112130Z AUTO 03007KT 9999 OVC090/// 09/M02 Q1011=
201903112200 METAR LRTC 112200Z AUTO 02005KT 9999 SCT060/// BKN075///
                        OVC090/// 09/M02 Q1012=
201903112230 METAR LRTC 112230Z AUTO 02013KT 9999 -RA FEW033/// BKN047///
                        09/M01 Q1012=
201903112300 METAR LRTC 112300Z AUTO 02015KT 9999 -SHRA FEW028/// BKN043///
                        BKN050/// 08/M00 Q1013=
201903112330 METAR LRTC 112330Z AUTO 05013KT 9999 -SHRA FEW028/// BKN033///
                        BKN044/// 07/01 Q1013=
201903120000 METAR LRTC 120000Z AUTO 04010KT 9999 -RA SCT030/// BKN035///
                        06/02 Q1013=
201903120030 METAR LRTC 120030Z AUTO 06009KT 9999 -RA SCT025/// BKN031///
                        06/03 Q1013=
201903120100 METAR LRTC 120100Z AUTO 06014KT 9999 -RA FEW022/// BKN027///
                        OVC032/// 05/02 Q1012=
201903120130 METAR LRTC 120130Z AUTO 04012KT 9999 -RA FEW017/// BKN028///
                        OVC033/// 05/02 Q1013=
201903120200 METAR LRTC 120200Z AUTO 05013KT 9999 -RA FEW015/// BKN024///
                        04/02 Q1012=
201903120230 METAR LRTC 120230Z AUTO 04011KT 9999 -RA SCT013/// BKN023///
                        04/02 Q1013=
201903120300 METAR LRTC 120300Z AUTO 03011KT 9999 -RA SCT012/// OVC015///
                        04/02 Q1013=
201903120330 METAR LRTC 120330Z AUTO 04013KT 9999 -RA BKN012/// BKN015///
                        OVC019/// 04/02 Q1013=
201903120400 METAR LRTC 120400Z AUTO 05012KT 9999 DZ FEW011/// SCT026///
                        BKN048/// 04/02 Q1013=
201903120430 METAR LRTC 120430Z AUTO 04008KT 9999 DZ FEW011/// BKN014///
                        BKN045/// 04/03 Q1013=
201903120500 METAR LRTC 120500Z AUTO 03009KT 9999 -RA FEW010/// SCT014///
                        BKN027/// 04/03 Q1013=
201903120530 METAR LRTC 120530Z AUTO 03015KT 9999 -RA FEW013/// SCT023///
                        BKN033/// 04/02 Q1013=
201903120600 METAR LRTC 120600Z 02012KT 9999 -RA FEW011 SCT021 BKN031
                        04/02 Q1013 R16/29//95=
201903120630 METAR LRTC 120630Z 01014KT 9999 -RA BKN010 BKN018 03/02 Q1014
                        R16/29//95=
201903120700 METAR LRTC 120700Z 36014KT 9999 -RA BKN010 BKN018 03/02 Q1014
                        R16/29//95=
201903120730 METAR LRTC 120730Z 01012KT 9999 -RA FEW007 SCT024 BKN033
                        04/03 Q1014 R16/29//95=
201903120800 METAR LRTC 120800Z 05011KT 9999 -RA FEW012 BKN032 04/03 Q1014
                        R16/29//95=
201903120830 METAR LRTC 120830Z 35009KT 9999 -RA SCT011 BKN030 04/03 Q1015
                        R16/29//95=
201903120900 METAR LRTC 120900Z 36010KT 9999 -RA FEW013 SCT017 BKN026
                        04/03 Q1015 R16/29//95=
201903120930 METAR LRTC 120930Z 01009KT 9999 -RA FEW013 BKN030 05/03 Q1015
                        R16/29//95=
201903121000 METAR LRTC 121000Z 03010KT 9999 BKN014 BKN027 05/03 Q1015
                        R16/29//95=
201903121030 METAR LRTC 121030Z 03010KT 9999 FEW014 BKN022 06/03 Q1015
                        R16/29//95=
201903121100 METAR LRTC 121100Z 01010KT 9999 SCT019 BKN026 06/02 Q1015
                        R16/29//95=
201903121130 METAR LRTC 121130Z 04008KT 9999 FEW019 BKN030 06/03 Q1015
                        R16/29//95=
201903121200 METAR LRTC 121200Z 05008KT 010V070 9999 FEW017 SCT030 06/03
                        Q1015 R16/29//95=
201903121230 METAR LRTC 121230Z 04007KT 010V080 9999 FEW016 SCT032 06/03
                        Q1016 R16/29//95=
201903121300 METAR LRTC 121300Z 04007KT 9999 FEW019 SCT028 07/02 Q1016
                        R16/29//95=
201903121330 METAR LRTC 121330Z 36005KT 320V040 9999 FEW020 BKN036 07/02
                        Q1016 R16/29//95=
201903121400 METAR LRTC 121400Z 35008KT 9999 FEW021 BKN034 07/02 Q1016
                        R16/29//95=
201903121430 METAR LRTC 121430Z 36008KT 9999 SCT040 07/01 Q1016 R16/29//95=
201903121500 METAR LRTC 121500Z 01005KT 9999 FEW045 06/02 Q1016 R16/29//95=
201903121530 METAR LRTC 121530Z 02005KT 9999 FEW049 06/02 Q1016 R16/29//95=
201903121600 METAR LRTC 121600Z 10003KT CAVOK 05/03 Q1016 R16/29//95=
201903121630 METAR LRTC 121630Z 13004KT CAVOK 05/02 Q1016 R16/29//95=
201903121700 METAR LRTC 121700Z 19004KT CAVOK 04/02 Q1017 R16/29//95=
201903121730 METAR LRTC 121730Z 25003KT CAVOK 04/03 Q1017 R16/29//95=
201903121800 METAR LRTC 121800Z AUTO 28005KT 9999 BKN230/// 03/02 Q1018=
201903121830 METAR LRTC 121830Z AUTO 29004KT 9999 FEW033/// BKN240///
                        04/02 Q1018=
201903121900 METAR LRTC 121900Z AUTO 29005KT 9999 FEW033/// BKN230///
                        03/02 Q1018=
201903121930 METAR LRTC 121930Z AUTO 27004KT 9999 FEW070/// BKN230///
                        03/01 Q1018=
201903122000 METAR LRTC 122000Z AUTO 02002KT 340V070 9999 BKN230/// 03/02
                        Q1018=
201903122030 METAR LRTC 122030Z AUTO 31010KT 9999 OVC240/// 05/02 Q1018=
201903122100 METAR LRTC 122100Z AUTO 30008KT 9999 FEW048/// SCT100///
                        BKN240/// 05/02 Q1018=
201903122130 METAR LRTC 122130Z AUTO 31005KT 9999 BKN050/// OVC095///
                        04/02 Q1018=
201903122200 METAR LRTC 122200Z AUTO 31007KT 9999 BKN050/// BKN100///
                        04/02 Q1018=
201903122230 METAR LRTC 122230Z AUTO 34006KT 9999 BKN100/// 04/01 Q1018=
201903122300 METAR LRTC 122300Z AUTO 33006KT 9999 FEW100/// 02/M00 Q1018=
201903122330 METAR LRTC 122330Z AUTO 34009KT 9999 SCT095/// 03/00 Q1019=
201903130000 METAR LRTC 130000Z AUTO 34010KT 9999 FEW095/// 02/M00 Q1019=
201903130030 METAR LRTC 130030Z AUTO 34008KT 9999 NCD 02/M01 Q1019=
201903130100 METAR LRTC 130100Z AUTO 33007KT 9999 NCD 01/M01 Q1019=
201903130130 METAR LRTC 130130Z AUTO 32010KT 9999 NCD 01/M01 Q1019=
201903130200 METAR LRTC 130200Z AUTO 32008KT 9999 NCD 00/M02 Q1019=
201903130230 METAR LRTC 130230Z AUTO 33011KT 9999 NCD 01/M02 Q1019=
201903130300 METAR LRTC 130300Z AUTO 33008KT 9999 NCD 00/M02 Q1019=
201903130330 METAR LRTC 130330Z AUTO 32009KT 9999 NCD 00/M02 Q1019=
201903130400 METAR LRTC 130400Z AUTO 34009KT 9999 NCD 00/M02 Q1019=
201903130430 METAR LRTC 130430Z AUTO 34008KT 9999 NCD 00/M02 Q1019=
201903130500 METAR LRTC 130500Z AUTO 35007KT 9999 NCD 01/M02 Q1019=
201903130530 METAR LRTC 130530Z AUTO 33004KT 300V360 9999 NCD 02/M01 Q1019=
201903130600 METAR LRTC 130600Z 32004KT 230V360 CAVOK 03/M02 Q1020 R16/CLRD//=
201903130630 METAR LRTC 130630Z 01003KT 290V060 CAVOK 04/M02 Q1020=
201903130700 METAR LRTC 130700Z 03006KT 350V070 CAVOK 04/M02 Q1020=
201903130730 METAR LRTC 130730Z 04008KT 360V070 CAVOK 05/M02 Q1020=
201903130800 METAR LRTC 130800Z 03006KT 350V070 CAVOK 05/M02 Q1020=
201903130830 METAR LRTC 130830Z 04006KT 010V090 CAVOK 06/M03 Q1020=
201903130900 METAR LRTC 130900Z 04004KT 320V100 CAVOK 07/M03 Q1020=
201903130930 METAR LRTC 130930Z 06006KT 010V100 CAVOK 07/M04 Q1020=
201903131000 METAR LRTC 131000Z 06005KT 020V100 CAVOK 08/M05 Q1019=
201903131030 METAR LRTC 131030Z 09005KT 040V110 9999 FEW049 09/M04 Q1019=
201903131100 METAR LRTC 131100Z VRB04KT 9999 FEW049 09/M06 Q1019=
201903131130 METAR LRTC 131130Z VRB04KT 9999 SCT049 09/M05 Q1019=
201903131200 METAR LRTC 131200Z 05004KT 010V110 9999 BKN049 09/M06 Q1018=
201903131230 METAR LRTC 131230Z VRB03KT 9999 SCT049 10/M05 Q1018=
201903131300 METAR LRTC 131300Z 10004KT 030V180 9999 FEW049 10/M05 Q1018=
201903131330 METAR LRTC 131330Z 11005KT 070V140 9999 FEW049 09/M06 Q1018=
201903131400 METAR LRTC 131400Z 07004KT 020V120 9999 SCT049 10/M05 Q1017=
201903131430 METAR LRTC 131430Z 15011KT CAVOK 09/M02 Q1017=
201903131500 METAR LRTC 131500Z 14010KT CAVOK 08/M01 Q1018=
201903131530 METAR LRTC 131530Z 13012KT CAVOK 06/01 Q1018=
201903131600 METAR LRTC 131600Z 13011KT CAVOK 05/00 Q1018=
201903131630 METAR LRTC 131630Z 13009KT CAVOK 04/M00 Q1018=
201903131700 METAR LRTC 131700Z 13007KT CAVOK 04/M01 Q1018=
201903131730 METAR LRTC 131730Z 14008KT CAVOK 03/M01 Q1018=
201903131800 METAR LRTC 131800Z AUTO 14007KT 9999 NCD 03/M01 Q1018=
201903131830 METAR LRTC 131830Z AUTO 16005KT 130V260 9999 NCD 02/M02 Q1018=
201903131900 METAR LRTC 131900Z AUTO 14004KT 9999 NCD 02/M02 Q1018=
201903131930 METAR LRTC 131930Z AUTO 18005KT 9999 NCD 02/M02 Q1019=
201903132000 METAR LRTC 132000Z AUTO 17006KT 9999 NCD 02/M02 Q1018=
201903132030 METAR LRTC 132030Z AUTO 19004KT 9999 NCD 02/M02 Q1018=
201903132100 METAR LRTC 132100Z AUTO 16004KT 9999 NCD 02/M02 Q1018=
201903132130 METAR LRTC 132130Z AUTO 13003KT 090V150 9999 SCT240/// 01/M02
                        Q1018=
201903132200 METAR LRTC 132200Z AUTO VRB01KT 9999 BKN220/// 02/M02 Q1018=
201903132230 METAR LRTC 132230Z AUTO 16003KT 9999 FEW240/// 02/M02 Q1017=
201903132300 METAR LRTC 132300Z AUTO 18003KT 9999 BKN210/// 02/M02 Q1017=
201903132330 METAR LRTC 132330Z AUTO 17004KT 9999 BKN210/// 02/M02 Q1017=
201903140000 METAR LRTC 140000Z AUTO 18005KT 9999 BKN210/// 02/M02 Q1017=
201903140030 METAR LRTC 140030Z AUTO 15002KT 110V170 9999 BKN220/// 01/M02
                        Q1017=
201903140100 METAR LRTC 140100Z AUTO 12002KT 9999 BKN220/// 02/M02 Q1016=
201903140130 METAR LRTC 140130Z AUTO 13003KT 9999 BKN220/// 02/M01 Q1016=
201903140200 METAR LRTC 140200Z AUTO 16004KT 9999 OVC210/// 02/M01 Q1016=
201903140230 METAR LRTC 140230Z AUTO 16004KT 9999 BKN200/// 01/M02 Q1016=
201903140300 METAR LRTC 140300Z AUTO 14003KT 9999 BKN210/// 01/M01 Q1016=
201903140330 METAR LRTC 140330Z AUTO 14003KT 9999 BKN210/// 02/M01 Q1016=
201903140400 METAR LRTC 140400Z AUTO 14002KT 9999 OVC200/// 02/M01 Q1016=
201903140430 METAR LRTC 140430Z AUTO VRB01KT 9999 BKN200/// 02/M01 Q1015=
201903140500 METAR LRTC 140500Z AUTO 16002KT 9999 BKN190/// 02/M01 Q1015=
201903140530 METAR LRTC 140530Z AUTO 14002KT 9999 SCT200/// 02/M01 Q1016=
201903140600 METAR LRTC 140600Z 17003KT CAVOK 03/M00 Q1015 R16/CLRD//=
201903140630 METAR LRTC 140630Z 18003KT CAVOK 04/M00 Q1015=
201903140700 METAR LRTC 140700Z 16003KT 110V210 CAVOK 05/00 Q1015=
201903140730 METAR LRTC 140730Z 15004KT 120V190 CAVOK 06/00 Q1015=
201903140800 METAR LRTC 140800Z 16007KT 130V190 CAVOK 07/M02 Q1015=
201903140830 METAR LRTC 140830Z 16007KT 130V200 9999 FEW036 07/M02 Q1015=
201903140900 METAR LRTC 140900Z 19007KT 150V220 9999 FEW040 07/M03 Q1015=
201903140930 METAR LRTC 140930Z 17006KT 130V200 CAVOK 08/M04 Q1014=
201903141000 METAR LRTC 141000Z 16007KT 090V190 CAVOK 08/M04 Q1014=
201903141030 METAR LRTC 141030Z 17005KT 130V220 CAVOK 08/M03 Q1014=
201903141100 METAR LRTC 141100Z 10006KT 060V140 9999 FEW049 09/M02 Q1013=
201903141130 METAR LRTC 141130Z 08006KT 040V130 9999 FEW049 09/M03 Q1013=
201903141200 METAR LRTC 141200Z 15008KT 130V210 9999 FEW049 09/M03 Q1012=
201903141230 METAR LRTC 141230Z 11006KT 060V160 9999 FEW049 09/M03 Q1012=
201903141300 METAR LRTC 141300Z 14008KT 9999 FEW049 09/M03 Q1012=
201903141330 METAR LRTC 141330Z 12007KT 090V150 9999 FEW049 08/M04 Q1012=
201903141400 METAR LRTC 141400Z 13008KT 100V170 CAVOK 08/M03 Q1012=
201903141430 METAR LRTC 141430Z 12009KT CAVOK 08/M03 Q1011=
201903141500 METAR LRTC 141500Z 12009KT CAVOK 07/M02 Q1011=
201903141530 METAR LRTC 141530Z 13010KT CAVOK 06/M02 Q1011=
201903141600 METAR LRTC 141600Z 13010KT CAVOK 05/M01 Q1011=
201903141630 METAR LRTC 141630Z 13008KT CAVOK 05/M01 Q1011=
201903141700 METAR LRTC 141700Z 15007KT CAVOK 04/M00 Q1011=
201903141730 METAR LRTC 141730Z 14005KT CAVOK 04/M00 Q1011=
201903141800 METAR LRTC 141800Z AUTO 14005KT 9999 BKN130/// BKN180///
                        04/M00 Q1011=
201903141830 METAR LRTC 141830Z AUTO 13003KT 100V160 9999 BKN120/// BKN140///
                        03/M00 Q1011=
201903141900 METAR LRTC 141900Z AUTO 20002KT 150V260 9999 FEW130/// BKN150///
                        03/M00 Q1011=
201903141930 METAR LRTC 141930Z AUTO 15003KT 9999 FEW130/// 03/M00 Q1010=
201903142000 METAR LRTC 142000Z AUTO 16005KT 9999 NCD 03/M00 Q1010=
201903142030 METAR LRTC 142030Z AUTO 15004KT 9999 SCT130/// 02/M00 Q1010=
201903142100 METAR LRTC 142100Z AUTO 13002KT 9999 SCT120/// BKN140///
                        02/M00 Q1010=
201903142130 METAR LRTC 142130Z AUTO 14002KT 9999 BKN130/// 03/00 Q1010=
201903142200 METAR LRTC 142200Z AUTO 15002KT 9999 BKN130/// 03/00 Q1010=
201903142230 METAR LRTC 142230Z AUTO 15001KT 9999 SCT120/// BKN130///
                        03/00 Q1010=
201903142300 METAR LRTC 142300Z AUTO 13004KT 9999 BKN120/// 03/01 Q1009=
201903142330 METAR LRTC 142330Z AUTO 22003KT 180V240 9999 SCT065/// BKN110///
                        02/00 Q1009=
201903150000 METAR LRTC 150000Z AUTO 30003KT 9999 SCT065/// BKN090///
                        BKN100/// 02/01 Q1009=
201903150030 METAR LRTC 150030Z AUTO 30002KT 9999 FEW075/// BKN090///
                        03/01 Q1009=
201903150100 METAR LRTC 150100Z AUTO 30001KT 9999 BKN095/// 02/01 Q1009=
201903150130 METAR LRTC 150130Z AUTO 30001KT 9999 FEW080/// SCT095///
                        BKN120/// 03/01 Q1008=
201903150200 METAR LRTC 150200Z AUTO 07002KT 040V100 9999 BKN060/// 02/01
                        Q1008=
201903150230 METAR LRTC 150230Z AUTO 11001KT 9999 BKN055/// 03/01 Q1008=
201903150300 METAR LRTC 150300Z AUTO 05003KT 9999 BKN050/// BKN065///
                        02/01 Q1008=
201903150330 METAR LRTC 150330Z AUTO 00000KT 9999 SCT049/// 02/01 Q1008=
201903150400 METAR LRTC 150400Z AUTO 19002KT 7000 NCD 01/M00 Q1008=
201903150430 METAR LRTC 150430Z AUTO 15002KT 8000 NCD 01/00 Q1008=
201903150500 METAR LRTC 150500Z AUTO 12002KT 080V190 9999 FEW044/// SCT065///
                        00/M00 Q1008=
201903150530 METAR LRTC 150530Z AUTO 11001KT 9999 BKN080/// 02/01 Q1008=
201903150600 METAR LRTC 150600Z VRB02KT CAVOK 04/01 Q1008 R16/CLRD//=
201903150630 METAR LRTC 150630Z 26001KT CAVOK 05/01 Q1008=
201903150700 METAR LRTC 150700Z 14003KT 080V200 CAVOK 06/01 Q1008=
201903150730 METAR LRTC 150730Z 19005KT CAVOK 06/02 Q1009=
201903150800 METAR LRTC 150800Z 21004KT 160V250 CAVOK 07/02 Q1009=
201903150830 METAR LRTC 150830Z 17004KT 100V210 9999 FEW045 08/01 Q1009=
201903150900 METAR LRTC 150900Z VRB03KT 9999 FEW048 10/01 Q1008=
201903150930 METAR LRTC 150930Z VRB04KT 9999 FEW048 10/01 Q1008=
201903151000 METAR LRTC 151000Z VRB05KT 9999 FEW033 10/01 Q1008=
201903151030 METAR LRTC 151030Z 19006KT 150V210 9999 FEW033 FEW050TCU
                        11/01 Q1007=
201903151100 METAR LRTC 151100Z 17007KT 130V230 9999 FEW040 FEW050TCU
                        12/M00 Q1007=
201903151130 METAR LRTC 151130Z 17007KT 140V210 9999 FEW047CB 12/M01 Q1007=
201903151200 METAR LRTC 151200Z 16010KT 140V200 9999 FEW050TCU 11/02 Q1007=
201903151230 METAR LRTC 151230Z 14012KT 9999 FEW050TCU 10/03 Q1007=
201903151300 METAR LRTC 151300Z 13011KT 9999 FEW050TCU 10/04 Q1007=
201903151330 METAR LRTC 151330Z 15012KT 9999 FEW050TCU 10/03 Q1007=
201903151400 METAR LRTC 151400Z 14012KT 9999 FEW050TCU 11/04 Q1007=
201903151430 METAR LRTC 151430Z 15011KT CAVOK 09/03 Q1007=
201903151500 METAR LRTC 151500Z 14009KT CAVOK 09/03 Q1007=
201903151530 METAR LRTC 151530Z 13006KT CAVOK 08/03 Q1008=
201903151600 METAR LRTC 151600Z 13008KT CAVOK 07/03 Q1008=
201903151630 METAR LRTC 151630Z 12007KT CAVOK 06/03 Q1008=
201903151700 METAR LRTC 151700Z 12006KT CAVOK 06/03 Q1008=
201903151730 METAR LRTC 151730Z 11006KT CAVOK 05/03 Q1009=
201903151800 METAR LRTC 151800Z AUTO 12006KT 9000 BKN085/// 06/03 Q1009=
201903151830 METAR LRTC 151830Z AUTO 13004KT 9000 BKN095/// 06/03 Q1009=
201903151900 METAR LRTC 151900Z AUTO 14004KT 9000 BKN095/// 06/04 Q1009=
201903151930 METAR LRTC 151930Z AUTO 18003KT 8000 BKN095/// 05/03 Q1009=
201903152000 METAR LRTC 152000Z AUTO 15003KT 7000 NCD 05/03 Q1009=
201903152030 METAR LRTC 152030Z AUTO 15003KT 120V200 6000 NCD 04/03 Q1009=
201903152100 METAR LRTC 152100Z AUTO 17002KT 6000 NCD 04/03 Q1009=
201903152130 METAR LRTC 152130Z AUTO 17003KT 6000 NCD 04/02 Q1009=
201903152200 METAR LRTC 152200Z AUTO 13002KT 4700 BR NCD 03/02 Q1009=
201903152230 METAR LRTC 152230Z AUTO 00000KT 8000 NCD 02/01 Q1008=
201903152300 METAR LRTC 152300Z AUTO 08002KT 9000 NCD 03/00 Q1009=
201903152330 METAR LRTC 152330Z AUTO VRB02KT 9999 NCD 02/M01 Q1008=
201903160000 METAR LRTC 160000Z AUTO VRB02KT 9999 SCT090/// 05/M00 Q1008=
201903160030 METAR LRTC 160030Z AUTO VRB01KT 9999 FEW090/// 05/M00 Q1008=
201903160100 METAR LRTC 160100Z AUTO 22004KT 9999 FEW090/// 05/M00 Q1008=
201903160130 METAR LRTC 160130Z AUTO VRB02KT 9999 NCD 04/M01 Q1008=
201903160200 METAR LRTC 160200Z AUTO 13002KT 9999 NCD 03/M01 Q1008=
201903160230 METAR LRTC 160230Z AUTO 15003KT 130V190 9999 NCD 03/M01 Q1008=
201903160300 METAR LRTC 160300Z AUTO 00000KT 9999 NCD 02/M01 Q1008=
201903160330 METAR LRTC 160330Z AUTO VRB01KT 9999 NCD 03/M01 Q1008=
201903160400 METAR LRTC 160400Z AUTO 13002KT 120V220 9999 NCD 03/M01 Q1008=
201903160430 METAR LRTC 160430Z AUTO VRB01KT 9999 NCD 03/M01 Q1008=
201903160500 METAR LRTC 160500Z AUTO 17001KT 9999 FEW230/// 04/M00 Q1008=
201903160530 METAR LRTC 160530Z AUTO 21001KT 9999 FEW230/// 03/M00 Q1008=
201903160600 METAR LRTC 160600Z VRB02KT CAVOK 05/01 Q1008=
201903160630 METAR LRTC 160630Z 21010KT CAVOK 08/03 Q1008=
201903160700 METAR LRTC 160700Z 20011KT CAVOK 09/01 Q1007=
201903160730 METAR LRTC 160730Z 20008KT 170V230 CAVOK 11/01 Q1007=
201903160800 METAR LRTC 160800Z 23017KT CAVOK 11/01 Q1006=
201903160830 METAR LRTC 160830Z 23019KT CAVOK 11/00 Q1006 R16/CLRD//=
201903160900 METAR LRTC 160900Z 22017KT CAVOK 12/M00 Q1006=
201903160930 METAR LRTC 160930Z 23021KT CAVOK 12/M01 Q1006=
201903161000 METAR LRTC 161000Z 23019KT CAVOK 13/M03 Q1005=
201903161030 METAR LRTC 161030Z 23022KT CAVOK 13/M03 Q1005=
201903161100 METAR LRTC 161100Z 22025KT CAVOK 13/M01 Q1004=
201903161130 METAR LRTC 161130Z 24026KT CAVOK 14/M01 Q1003=
201903161200 METAR LRTC 161200Z 23022KT CAVOK 14/M00 Q1003=
201903161230 METAR LRTC 161230Z 23024KT CAVOK 13/01 Q1002=
201903161300 METAR LRTC 161300Z 23025KT CAVOK 13/01 Q1001=
201903161330 METAR LRTC 161330Z 25021KT CAVOK 13/01 Q1002=
201903161400 METAR LRTC 161400Z 25022KT CAVOK 13/02 Q1002=
201903161430 METAR LRTC 161430Z 26019KT CAVOK 13/02 Q1002=
201903161500 METAR LRTC 161500Z 35029KT 9999 FEW050CB 10/03 Q1004=
201903161530 METAR LRTC 161530Z 35023KT 9999 SCT048 08/03 Q1006=
201903161600 METAR LRTC 161600Z 34018KT CAVOK 08/03 Q1006=
201903161630 METAR LRTC 161630Z 34010KT CAVOK 07/03 Q1006=
201903161700 METAR LRTC 161700Z 33012KT CAVOK 07/03 Q1007=
201903161730 METAR LRTC 161730Z 31011KT CAVOK 06/02 Q1008=
201903161800 METAR LRTC 161800Z AUTO 31008KT 9999 FEW075/// 06/02 Q1008=
201903161830 METAR LRTC 161830Z AUTO 31007KT 9999 NCD 05/01 Q1009=
201903161900 METAR LRTC 161900Z AUTO 32006KT 9999 FEW100/// SCT130///
                        04/01 Q1009=
201903161930 METAR LRTC 161930Z AUTO 32011KT 9999 FEW095/// 05/01 Q1009=
201903162000 METAR LRTC 162000Z AUTO 31011KT 9999 NCD 05/01 Q1010=
201903162030 METAR LRTC 162030Z AUTO 30011KT 9999 NCD 04/00 Q1010=
201903162100 METAR LRTC 162100Z AUTO 29008KT 9999 NCD 03/M00 Q1011=
201903162130 METAR LRTC 162130Z AUTO 28009KT 9999 BKN210/// 03/M00 Q1011=
201903162200 METAR LRTC 162200Z AUTO 00000KT 9999 BKN210/// 03/M01 Q1011=
201903162230 METAR LRTC 162230Z AUTO VRB02KT 9999 SCT210/// 03/M01 Q1012=
201903162300 METAR LRTC 162300Z AUTO 27007KT 9999 NCD 03/M00 Q1012=
201903162330 METAR LRTC 162330Z AUTO 27008KT 9999 NCD 03/M00 Q1012=
201903170000 METAR LRTC 170000Z AUTO VRB03KT 9999 NCD 01/M02 Q1012=
201903170030 METAR LRTC 170030Z AUTO 11002KT 050V170 9999 NCD 02/M00 Q1013=
201903170100 METAR LRTC 170100Z AUTO 09003KT 9999 NCD 03/M00 Q1013=
201903170130 METAR LRTC 170130Z AUTO 11002KT 9999 NCD 03/M01 Q1013=
201903170200 METAR LRTC 170200Z AUTO 00000KT 9999 NCD 03/M00 Q1014=
201903170230 METAR LRTC 170230Z AUTO 04003KT 350V060 9999 FEW180/// 02/M01
                        Q1014=
201903170300 METAR LRTC 170300Z AUTO 03004KT 9999 FEW180/// 01/M01 Q1014=
201903170330 METAR LRTC 170330Z AUTO 10001KT 9999 BKN180/// 03/M00 Q1014=
201903170400 METAR LRTC 170400Z AUTO 14003KT 9999 FEW120/// OVC170///
                        02/M01 Q1014=
201903170430 METAR LRTC 170430Z AUTO 09003KT 050V140 9999 SCT110/// OVC120///
                        01/M01 Q1014=
201903170500 METAR LRTC 170500Z AUTO 18002KT 9999 BKN100/// BKN120///
                        03/01 Q1015=
201903170530 METAR LRTC 170530Z AUTO 13003KT 9999 BKN120/// 04/02 Q1015=
201903170600 METAR LRTC 170600Z 09004KT CAVOK 06/02 Q1015=
201903170630 METAR LRTC 170630Z VRB02KT CAVOK 09/01 Q1015=
201903170700 METAR LRTC 170700Z 20003KT 090V230 CAVOK 09/01 Q1015=
201903170730 METAR LRTC 170730Z 21005KT 180V240 CAVOK 11/02 Q1015=
201903170800 METAR LRTC 170800Z 23010KT CAVOK 13/M01 Q1015=
201903170830 METAR LRTC 170830Z 24010KT 210V270 9999 FEW049 14/M01 Q1016=
201903170900 METAR LRTC 170900Z 25009KT 220V280 CAVOK 15/M01 Q1015=
201903170930 METAR LRTC 170930Z 25011KT 230V290 9999 FEW049 15/M01 Q1015=
201903171000 METAR LRTC 171000Z 23010KT 210V270 CAVOK 15/M02 Q1015=
201903171030 METAR LRTC 171030Z 24013KT CAVOK 15/M02 Q1015=
201903171100 METAR LRTC 171100Z 24014KT CAVOK 16/M01 Q1015=
201903171130 METAR LRTC 171130Z 25010KT 210V280 CAVOK 17/M01 Q1014=
201903171200 METAR LRTC 171200Z 26013KT CAVOK 18/M01 Q1014=
201903171230 METAR LRTC 171230Z 25012KT 210V270 CAVOK 18/M01 Q1014=
201903171300 METAR LRTC 171300Z 26013KT CAVOK 18/M00 Q1014=
201903171330 METAR LRTC 171330Z 26010KT CAVOK 18/M00 Q1013=
201903171400 METAR LRTC 171400Z 25008KT CAVOK 18/M01 Q1013=
201903171430 METAR LRTC 171430Z 33007KT 290V030 CAVOK 18/00 Q1013=
201903171500 METAR LRTC 171500Z 11011KT CAVOK 16/02 Q1013=
201903171530 METAR LRTC 171530Z 12010KT CAVOK 15/02 Q1013=
201903171600 METAR LRTC 171600Z 12008KT CAVOK 13/03 Q1014=
201903171630 METAR LRTC 171630Z 11008KT CAVOK 11/03 Q1014=
201903171700 METAR LRTC 171700Z 10006KT CAVOK 09/03 Q1014=
201903171730 METAR LRTC 171730Z 12005KT CAVOK 09/03 Q1014=
201903171800 METAR LRTC 171800Z AUTO 13003KT 9999 NCD 09/03 Q1014=
201903171830 METAR LRTC 171830Z AUTO 13002KT 9999 NCD 09/03 Q1014=
201903171900 METAR LRTC 171900Z AUTO 17002KT 150V210 9999 NCD 08/04 Q1015=
201903171930 METAR LRTC 171930Z AUTO 11002KT 9999 NCD 08/03 Q1015=
201903172000 METAR LRTC 172000Z AUTO 15003KT 9999 NCD 08/04 Q1015=
201903172030 METAR LRTC 172030Z AUTO 14004KT 9999 NCD 07/04 Q1015=
201903172100 METAR LRTC 172100Z AUTO VRB01KT 9999 NCD 07/03 Q1014=
201903172130 METAR LRTC 172130Z AUTO 10003KT 9999 NCD 07/03 Q1014=
201903172200 METAR LRTC 172200Z AUTO 12003KT 070V130 9999 NCD 07/03 Q1014=
201903172230 METAR LRTC 172230Z AUTO 11003KT 9999 NCD 07/03 Q1014=
201903172300 METAR LRTC 172300Z AUTO 11004KT 9999 NCD 07/03 Q1014=
201903172330 METAR LRTC 172330Z AUTO 12004KT 9999 NCD 07/03 Q1014=
201903180000 METAR LRTC 180000Z AUTO 12004KT 9999 NCD 07/03 Q1014=
201903180030 METAR LRTC 180030Z AUTO 12002KT 9999 NCD 07/03 Q1014=
201903180100 METAR LRTC 180100Z AUTO 10004KT 9999 NCD 07/03 Q1014=
201903180130 METAR LRTC 180130Z AUTO 08003KT 9999 NCD 07/03 Q1014=
201903180200 METAR LRTC 180200Z AUTO 08003KT 9999 NCD 07/03 Q1014=
201903180230 METAR LRTC 180230Z AUTO 17002KT 9999 NCD 06/03 Q1014=
201903180300 METAR LRTC 180300Z AUTO 20003KT 9999 NCD 06/03 Q1014=
201903180330 METAR LRTC 180330Z AUTO 16003KT 9999 NCD 05/03 Q1014=
201903180400 METAR LRTC 180400Z AUTO 16002KT 9999 NCD 05/03 Q1014=
201903180430 METAR LRTC 180430Z AUTO 20003KT 9999 NCD 05/03 Q1014=
201903180500 METAR LRTC 180500Z AUTO 17002KT 110V250 9999 NCD 05/03 Q1015=
201903180530 METAR LRTC 180530Z AUTO 13003KT 090V170 9999 NCD 08/06 Q1015=
201903180600 METAR LRTC 180600Z 16003KT 130V210 9999 VCFG NSC 10/07 Q1015=
201903180630 METAR LRTC 180630Z 12008KT CAVOK 12/08 Q1015 R16/CLRD//=
201903180700 METAR LRTC 180700Z 12011KT CAVOK 12/08 Q1015=
201903180730 METAR LRTC 180730Z 13010KT CAVOK 13/08 Q1015=
201903180800 METAR LRTC 180800Z 12015KT CAVOK 14/08 Q1015=
201903180830 METAR LRTC 180830Z 13015KT CAVOK 14/08 Q1015=
201903180900 METAR LRTC 180900Z 13015KT CAVOK 15/08 Q1015=
201903180930 METAR LRTC 180930Z 12014KT 100V160 CAVOK 16/08 Q1015=
201903181000 METAR LRTC 181000Z 12016KT CAVOK 16/07 Q1015=
201903181030 METAR LRTC 181030Z 13017KT CAVOK 17/07 Q1015=
201903181100 METAR LRTC 181100Z 13019KT CAVOK 16/07 Q1015=
201903181130 METAR LRTC 181130Z 13018KT CAVOK 16/07 Q1015=
201903181200 METAR LRTC 181200Z 13018KT CAVOK 16/07 Q1015=
201903181230 METAR LRTC 181230Z 13017KT CAVOK 16/07 Q1015=
201903181300 METAR LRTC 181300Z 13015KT CAVOK 16/07 Q1015=
201903181330 METAR LRTC 181330Z 12017KT CAVOK 15/07 Q1014=
201903181400 METAR LRTC 181400Z 13016KT CAVOK 15/06 Q1014=
201903181430 METAR LRTC 181430Z 13014KT CAVOK 14/06 Q1014=
201903181500 METAR LRTC 181500Z 13012KT CAVOK 13/06 Q1015=
201903181530 METAR LRTC 181530Z 13015KT CAVOK 12/05 Q1015=
201903181600 METAR LRTC 181600Z 14015KT CAVOK 11/06 Q1015=
201903181630 METAR LRTC 181630Z 14016KT CAVOK 10/05 Q1015=
201903181700 METAR LRTC 181700Z 14019KT CAVOK 09/05 Q1015=
201903181730 METAR LRTC 181730Z 14019KT CAVOK 09/05 Q1016=
201903181800 METAR LRTC 181800Z AUTO 14017KT 9999 NCD 09/05 Q1016=
201903181830 METAR LRTC 181830Z AUTO 15016KT 9999 NCD 09/05 Q1016=
201903181900 METAR LRTC 181900Z AUTO 15015KT 9999 NCD 09/05 Q1017=
201903181930 METAR LRTC 181930Z AUTO 15013KT 9999 NCD 09/04 Q1017=
201903182000 METAR LRTC 182000Z AUTO 14010KT 9999 NCD 08/04 Q1017=
201903182030 METAR LRTC 182030Z AUTO 14011KT 9999 NCD 08/04 Q1017=
201903182100 METAR LRTC NIL=
201903182130 METAR LRTC NIL=
201903182200 METAR LRTC 182200Z AUTO 15009KT 9999 NCD 08/04 Q1017=
201903182230 METAR LRTC 182230Z AUTO 13007KT 9999 NCD 08/04 Q1017=
201903182300 METAR LRTC 182300Z AUTO 12007KT 090V150 9999 NCD 07/04 Q1017=
201903182330 METAR LRTC 182330Z AUTO 13008KT 9999 NCD 07/05 Q1017=
201903190000 METAR LRTC 190000Z AUTO 13011KT 9999 NCD 07/05 Q1017=
201903190030 METAR LRTC 190030Z AUTO 13010KT 9999 NCD 07/04 Q1017=
201903190100 METAR LRTC 190100Z AUTO 11008KT 9999 NCD 07/04 Q1017=
201903190130 METAR LRTC 190130Z AUTO 12010KT 9999 NCD 07/05 Q1016=
201903190200 METAR LRTC 190200Z AUTO 13013KT 9999 NCD 07/05 Q1016=
201903190230 METAR LRTC 190230Z AUTO 14013KT 9999 NCD 08/05 Q1017=
201903190300 METAR LRTC 190300Z AUTO 14011KT 9999 NCD 07/05 Q1017=
201903190330 METAR LRTC 190330Z AUTO 13010KT 9999 NCD 07/05 Q1017=
201903190400 METAR LRTC 190400Z AUTO 10005KT 9999 NCD 07/05 Q1017=
201903190430 METAR LRTC 190430Z AUTO 12004KT 9999 NCD 07/05 Q1018=
201903190500 METAR LRTC 190500Z AUTO 12006KT 9999 FEW160/// 08/06 Q1018=
201903190530 METAR LRTC 190530Z AUTO 11004KT 9999 BKN160/// 09/06 Q1018=
201903190600 METAR LRTC 190600Z 12008KT CAVOK 10/07 Q1018 R16/CLRD//=
201903190630 METAR LRTC 190630Z 12013KT CAVOK 11/06 Q1018=
201903190700 METAR LRTC 190700Z 12015KT CAVOK 11/06 Q1019=
201903190730 METAR LRTC 190730Z 13015KT 090V150 CAVOK 12/06 Q1019=
201903190800 METAR LRTC 190800Z 13014KT CAVOK 12/05 Q1019=
201903190830 METAR LRTC 190830Z 12015KT CAVOK 12/05 Q1019=
201903190900 METAR LRTC 190900Z 12016KT CAVOK 12/05 Q1019=
201903190930 METAR LRTC 190930Z 12016KT CAVOK 13/05 Q1019=
201903191000 METAR LRTC 191000Z 12016KT CAVOK 13/05 Q1019=
201903191030 METAR LRTC 191030Z 12015KT CAVOK 13/05 Q1019=
201903191100 METAR LRTC 191100Z 12017KT CAVOK 13/05 Q1019=
201903191130 METAR LRTC 191130Z 12017KT CAVOK 13/05 Q1019=
201903191200 METAR LRTC 191200Z 12016KT CAVOK 13/05 Q1019=
201903191230 METAR LRTC 191230Z 12016KT CAVOK 13/05 Q1019=
201903191300 METAR LRTC 191300Z 12015KT CAVOK 13/04 Q1019=
201903191330 METAR LRTC 191330Z 12014KT CAVOK 12/04 Q1019=
201903191400 METAR LRTC 191400Z 12014KT CAVOK 12/05 Q1019=
201903191430 METAR LRTC 191430Z 12012KT CAVOK 12/05 Q1020=
201903191500 METAR LRTC 191500Z 12014KT CAVOK 11/05 Q1020=
201903191530 METAR LRTC 191530Z 11012KT CAVOK 11/05 Q1020=
201903191600 METAR LRTC 191600Z 12011KT CAVOK 10/05 Q1020=
201903191630 METAR LRTC 191630Z 11007KT CAVOK 09/05 Q1020=
201903191700 METAR LRTC 191700Z 09005KT CAVOK 08/04 Q1021=
201903191730 METAR LRTC 191730Z 10004KT CAVOK 07/04 Q1021=
201903191800 METAR LRTC 191800Z AUTO 08004KT 9999 NCD 08/05 Q1021=
201903191830 METAR LRTC 191830Z AUTO 09006KT 9999 NCD 06/04 Q1022=
201903191900 METAR LRTC 191900Z AUTO 08007KT 9999 NCD 06/04 Q1022=
201903191930 METAR LRTC 191930Z AUTO 08008KT 9999 NCD 06/04 Q1022=
201903192000 METAR LRTC 192000Z AUTO 07006KT 9999 NCD 05/03 Q1022=
201903192030 METAR LRTC 192030Z AUTO 03005KT 360V060 9999 NCD 05/04 Q1022=
201903192100 METAR LRTC 192100Z AUTO 05006KT 9999 NCD 06/05 Q1023=
201903192130 METAR LRTC 192130Z AUTO 04005KT 9999 NCD 05/04 Q1023=
201903192200 METAR LRTC 192200Z AUTO 01006KT 9999 NCD 05/04 Q1023=
201903192230 METAR LRTC 192230Z AUTO 35007KT 9999 NCD 05/04 Q1023=
201903192300 METAR LRTC 192300Z AUTO 36007KT 7000 NCD 05/04 Q1023=
201903192330 METAR LRTC 192330Z AUTO 35007KT 4400 BR NCD 05/04 Q1023=
201903200000 METAR LRTC 200000Z AUTO 34007KT 1000 R34/1300D FG VV001 05/04
                        Q1023=
201903200030 METAR LRTC 200030Z AUTO 36005KT 0550 R34/0650N UP VV001 05/04
                        Q1023=
201903200100 METAR LRTC 200100Z AUTO 30003KT 260V320 0450 R34/0550N FG
                        VV001 04/04 Q1023=
201903200130 METAR LRTC 200130Z AUTO 33004KT 0500 R34/0600N FG VV001 04/03
                        Q1023=
201903200200 METAR LRTC 200200Z AUTO 34006KT 0800 R34/0600V1300D FG VV001
                        04/04 Q1024=
201903200230 METAR LRTC 200230Z AUTO 03006KT 0550 R34/0550V0900U SN VV001
                        05/04 Q1024=
201903200300 METAR LRTC 200300Z AUTO 36006KT 1000 R34/0900V1500U VV002
                        06/05 Q1024=
201903200330 METAR LRTC 200330Z AUTO 34006KT 4400 SCT001/// OVC003///
                        06/06 Q1024 RERA=
201903200400 METAR LRTC 200400Z AUTO 35007KT 5000 SCT002/// BKN004///
                        06/06 Q1024=
201903200430 METAR LRTC 200430Z AUTO 36008KT 6000 BKN005/// OVC007///
                        06/06 Q1025=
201903200500 METAR LRTC 200500Z AUTO 35010KT 8000 FEW004/// BKN006///
                        06/06 Q1025=
201903200530 METAR LRTC 200530Z AUTO 35009KT 7000 OVC005/// 06/06 Q1025=
201903200600 METAR LRTC 200600Z 34009KT 9000 BKN005 07/07 Q1025 R16/CLRD//=
201903200630 METAR LRTC 200630Z 33010KT 9999 BKN006 07/07 Q1026=
201903200700 METAR LRTC 200700Z 33011KT 9999 FEW006 SCT010 08/07 Q1026=
201903200730 METAR LRTC 200730Z 34011KT 310V010 9999 SCT013 10/06 Q1026=
201903200800 METAR LRTC 200800Z 33014KT 9999 SCT015 11/06 Q1026=
201903200830 METAR LRTC 200830Z 35013KT 9999 FEW021 12/05 Q1026=
201903200900 METAR LRTC 200900Z 33014KT 9999 FEW025 13/05 Q1026=
201903200930 METAR LRTC 200930Z 33013KT 9999 FEW028 13/05 Q1026=
201903201000 METAR LRTC 201000Z 34013KT 9999 FEW035 14/04 Q1026=
201903201030 METAR LRTC 201030Z 34014KT 9999 FEW040 14/05 Q1026=
201903201100 METAR LRTC 201100Z 33014KT 300V360 9999 SCT030 14/05 Q1026=
201903201130 METAR LRTC 201130Z 33016KT 9999 FEW027 13/06 Q1026=
201903201200 METAR LRTC 201200Z 34018KT 9999 FEW025 13/06 Q1026=
201903201230 METAR LRTC 201230Z 34017KT 9999 FEW027 13/05 Q1026=
201903201300 METAR LRTC 201300Z 33018KT 9999 FEW035 12/05 Q1027=
201903201330 METAR LRTC 201330Z 33018KT 9999 BKN040 12/06 Q1027=
201903201400 METAR LRTC 201400Z 34018KT 9999 BKN040 12/05 Q1027=
201903201430 METAR LRTC 201430Z 34017KT 9999 BKN043 12/05 Q1027=
201903201500 METAR LRTC 201500Z 35014KT 9999 BKN044 12/05 Q1027=
201903201530 METAR LRTC 201530Z 34014KT 9999 BKN046 12/04 Q1027=
201903201600 METAR LRTC 201600Z 34011KT 9999 SCT049 11/04 Q1028=
201903201630 METAR LRTC 201630Z 35012KT CAVOK 11/04 Q1028=
201903201700 METAR LRTC 201700Z 35011KT 9999 FEW037 10/04 Q1029=
201903201730 METAR LRTC 201730Z 35011KT 9999 SCT036 10/04 Q1029=
201903201800 METAR LRTC 201800Z AUTO 35012KT 9999 BKN034/// 10/03 Q1029=
201903201830 METAR LRTC 201830Z AUTO 35010KT 9999 FEW034/// 09/03 Q1029=
201903201900 METAR LRTC 201900Z AUTO 35009KT 9999 BKN036/// 09/03 Q1030=
201903201930 METAR LRTC 201930Z AUTO 36012KT 9999 SCT036/// 09/03 Q1030=
201903202000 METAR LRTC 202000Z AUTO 01006KT 9999 BKN036/// 08/03 Q1030=
201903202030 METAR LRTC 202030Z AUTO 01007KT 9999 FEW038/// 07/02 Q1031=
201903202100 METAR LRTC 202100Z AUTO 33005KT 9999 NCD 06/02 Q1031=
201903202130 METAR LRTC 202130Z AUTO 32006KT 9999 NCD 05/02 Q1031=
201903202200 METAR LRTC 202200Z AUTO 32005KT 9999 NCD 05/02 Q1031=
201903202230 METAR LRTC 202230Z AUTO 34004KT 310V010 9999 NCD 05/02 Q1031=
201903202300 METAR LRTC 202300Z AUTO 35007KT 9999 NCD 04/02 Q1031=
201903202330 METAR LRTC 202330Z AUTO 34005KT 9999 SCT110/// 05/03 Q1031=
201903210000 METAR LRTC 210000Z AUTO 34005KT 9999 FEW065/// SCT080///
                        BKN110/// 05/03 Q1031=
201903210030 METAR LRTC 210030Z AUTO 32007KT 9999 SCT080/// 05/03 Q1031=
201903210100 METAR LRTC 210100Z AUTO 35005KT 9999 FEW065/// 04/02 Q1031=
201903210130 METAR LRTC 210130Z AUTO 34006KT 9999 BKN070/// 05/03 Q1031=
201903210200 METAR LRTC 210200Z AUTO 33007KT 9999 BKN075/// BKN120///
                        05/03 Q1031=
201903210230 METAR LRTC 210230Z AUTO 33007KT 9999 FEW080/// 04/02 Q1031=
201903210300 METAR LRTC 210300Z AUTO 33007KT 9999 BKN080/// 03/02 Q1031=
201903210330 METAR LRTC 210330Z AUTO 33007KT 9999 BKN080/// 04/02 Q1031=
201903210400 METAR LRTC 210400Z AUTO 32008KT 9999 FEW090/// 03/01 Q1031=
201903210430 METAR LRTC 210430Z AUTO 32009KT 9999 FEW100/// 04/02 Q1032=
201903210500 METAR LRTC 210500Z AUTO 32008KT 9999 FEW075/// 05/02 Q1032=
201903210530 METAR LRTC 210530Z AUTO 32009KT 9999 FEW070/// 06/02 Q1032=
201903210600 METAR LRTC 210600Z 33009KT CAVOK 08/03 Q1033 R16/CLRD//=
201903210630 METAR LRTC 210630Z 33010KT CAVOK 08/02 Q1033=
201903210700 METAR LRTC 210700Z 33007KT 310V020 CAVOK 09/02 Q1033=
201903210730 METAR LRTC 210730Z 35008KT 320V020 CAVOK 10/01 Q1033=
201903210800 METAR LRTC 210800Z 36008KT 310V040 9999 FEW045 12/M02 Q1033=
201903210830 METAR LRTC 210830Z 03006KT 360V090 9999 FEW045 12/M03 Q1033=
201903210900 METAR LRTC 210900Z 33010KT 290V360 CAVOK 13/M04 Q1032=
201903210930 METAR LRTC 210930Z 33009G21KT 300V360 CAVOK 13/M06 Q1032=
201903211000 METAR LRTC 211000Z 35012KT 310V040 CAVOK 13/M07 Q1032=
201903211030 METAR LRTC 211030Z 35010KT 300V010 CAVOK 13/M07 Q1032=
201903211100 METAR LRTC 211100Z 31010KT CAVOK 13/M06 Q1032=
201903211130 METAR LRTC 211130Z 33008KT CAVOK 13/M06 Q1031=
201903211200 METAR LRTC 211200Z 31009KT 220V020 CAVOK 14/M06 Q1030=
201903211230 METAR LRTC 211230Z 32010KT 290V020 CAVOK 14/M07 Q1030=
201903211300 METAR LRTC 211300Z 32010KT 290V020 CAVOK 14/M07 Q1030=
201903211330 METAR LRTC 211330Z 31011KT CAVOK 14/M07 Q1030=
201903211400 METAR LRTC 211400Z 33012KT 290V350 CAVOK 14/M06 Q1029=
201903211430 METAR LRTC 211430Z 34007KT CAVOK 14/M06 Q1029=
201903211500 METAR LRTC 211500Z 34009KT 310V010 CAVOK 14/M06 Q1029=
201903211530 METAR LRTC 211530Z 31010KT CAVOK 14/M06 Q1029=
201903211600 METAR LRTC 211600Z 30008KT CAVOK 12/M06 Q1029=
201903211630 METAR LRTC 211630Z 31007KT CAVOK 11/M05 Q1029=
201903211700 METAR LRTC 211700Z 31006KT CAVOK 10/M05 Q1029=
201903211730 METAR LRTC 211730Z 32005KT CAVOK 10/M05 Q1030=
201903211800 METAR LRTC 211800Z AUTO 30005KT 290V360 9999 BKN240/// 07/M05
                        Q1030=
201903211830 METAR LRTC 211830Z AUTO 31007KT 9999 FEW240/// 07/M03 Q1030=
201903211900 METAR LRTC 211900Z AUTO 31011KT 9999 NCD 08/M03 Q1030=
201903211930 METAR LRTC 211930Z AUTO 31009KT 9999 FEW160/// SCT240///
                        08/M04 Q1030=
201903212000 METAR LRTC 212000Z AUTO 33007KT 9999 BKN220/// 07/M04 Q1030=
201903212030 METAR LRTC 212030Z AUTO 32006KT 9999 FEW150/// BKN220///
                        05/M03 Q1030=
201903212100 METAR LRTC 212100Z AUTO 19003KT 9999 FEW065/// BKN140///
                        05/M03 Q1030=
201903212130 METAR LRTC 212130Z AUTO 05003KT 9999 SCT060/// BKN075///
                        05/M02 Q1030=
201903212200 METAR LRTC 212200Z AUTO 13001KT 9999 BKN065/// BKN080///
                        06/M01 Q1030=
201903212230 METAR LRTC 212230Z AUTO 14001KT 9999 BKN065/// 07/M02 Q1030=
201903212300 METAR LRTC 212300Z AUTO 16002KT 140V220 9999 BKN055/// OVC075///
                        07/M01 Q1030=
201903212330 METAR LRTC 212330Z AUTO VRB01KT 9999 OVC050/// 06/M01 Q1030=
201903220000 METAR LRTC 220000Z AUTO VRB02KT 9999 OVC050/// 06/M00 Q1030=
201903220030 METAR LRTC 220030Z AUTO 03002KT 9999 BKN047/// 07/M00 Q1029=
201903220100 METAR LRTC 220100Z AUTO VRB01KT 9999 FEW046/// OVC070///
                        07/M01 Q1029=
201903220130 METAR LRTC 220130Z AUTO 06003KT 9999 BKN070/// OVC180///
                        07/M01 Q1029=
201903220200 METAR LRTC 220200Z AUTO 03002KT 9999 SCT070/// OVC180///
                        07/M01 Q1029=
201903220230 METAR LRTC 220230Z AUTO 33003KT 300V010 9999 OVC180/// 07/M01
                        Q1029=
201903220300 METAR LRTC 220300Z AUTO 31007KT 9999 OVC180/// 07/M01 Q1029=
201903220330 METAR LRTC 220330Z AUTO 31009KT 9999 BKN180/// 07/M02 Q1029=
201903220400 METAR LRTC 220400Z AUTO 31010KT 9999 BKN180/// 07/M02 Q1029=
201903220430 METAR LRTC 220430Z AUTO 32010KT 9999 BKN170/// 07/M01 Q1029=
201903220500 METAR LRTC 220500Z AUTO 31009KT 9999 BKN110/// BKN180///
                        08/00 Q1029=
201903220530 METAR LRTC 220530Z AUTO 31008KT 9999 SCT110/// 09/01 Q1030=
201903220600 METAR LRTC 220600Z 31011KT CAVOK 10/01 Q1030 R16/CLRD//=
201903220630 METAR LRTC 220630Z 31012KT CAVOK 11/01 Q1030=
201903220700 METAR LRTC 220700Z 31012KT CAVOK 11/02 Q1029=
201903220730 METAR LRTC 220730Z 31013KT CAVOK 12/02 Q1029=
201903220800 METAR LRTC 220800Z 31013KT 270V330 CAVOK 12/02 Q1029=
201903220830 METAR LRTC 220830Z 32013KT CAVOK 13/02 Q1029=
201903220900 METAR LRTC 220900Z 33012KT 290V360 9999 FEW040 14/02 Q1029=
201903220930 METAR LRTC 220930Z 33011KT 280V360 9999 SCT038 14/02 Q1028=
201903221000 METAR LRTC 221000Z 33010KT 300V360 9999 SCT043 14/01 Q1028=
201903221030 METAR LRTC 221030Z 35009KT 310V020 9999 BKN045 14/01 Q1028=
201903221100 METAR LRTC 221100Z 33011KT 310V010 9999 SCT048 14/01 Q1027=
201903221130 METAR LRTC 221130Z 32010KT 280V010 9999 FEW048 15/00 Q1027=
201903221200 METAR LRTC 221200Z 32012KT 9999 SCT049 15/00 Q1026=
201903221230 METAR LRTC 221230Z 34012KT 9999 FEW049 16/00 Q1026=
201903221300 METAR LRTC 221300Z 33013KT 290V010 CAVOK 16/00 Q1026=
201903221330 METAR LRTC 221330Z 32014KT CAVOK 16/M00 Q1025=
201903221400 METAR LRTC 221400Z 30012KT 270V330 CAVOK 16/M01 Q1025=
201903221430 METAR LRTC 221430Z 32013KT CAVOK 16/M01 Q1025=
201903221500 METAR LRTC 221500Z 30010KT CAVOK 16/M00 Q1024=
201903221530 METAR LRTC 221530Z 31010KT CAVOK 15/M02 Q1024=
201903221600 METAR LRTC 221600Z 30007KT CAVOK 14/M02 Q1024=
201903221630 METAR LRTC 221630Z 29006KT CAVOK 13/M01 Q1024=
201903221700 METAR LRTC 221700Z 30007KT CAVOK 13/M01 Q1024=
201903221730 METAR LRTC 221730Z 31009KT CAVOK 12/M00 Q1025=
201903221800 METAR LRTC 221800Z AUTO 29005KT 9999 BKN065/// 12/00 Q1024=
201903221830 METAR LRTC 221830Z AUTO 30006KT 9999 FEW065/// 11/00 Q1024=
201903221900 METAR LRTC 221900Z AUTO 30008KT 9999 SCT070/// 10/M00 Q1024=
201903221930 METAR LRTC 221930Z AUTO 31009KT 9999 NCD 10/00 Q1025=
201903222000 METAR LRTC 222000Z AUTO 31010KT 9999 BKN055/// 10/01 Q1025=
201903222030 METAR LRTC 222030Z AUTO 31010KT 9999 BKN049/// 11/02 Q1025=
201903222100 METAR LRTC 222100Z AUTO 30009KT 9999 BKN049/// 12/03 Q1024=
201903222130 METAR LRTC 222130Z AUTO 30011KT 9999 BKN055/// 11/04 Q1024=
201903222200 METAR LRTC 222200Z AUTO 30010KT 9999 SCT060/// 11/04 Q1024=
201903222230 METAR LRTC 222230Z AUTO 30009KT 9999 OVC065/// 12/04 Q1024=
201903222300 METAR LRTC 222300Z AUTO 30012KT 9999 BKN065/// 12/04 Q1024=
201903222330 METAR LRTC 222330Z AUTO 32011KT 9999 SCT065/// 10/04 Q1024=
201903230000 METAR LRTC 230000Z AUTO 32014KT 9999 NCD 10/04 Q1024=
201903230030 METAR LRTC 230030Z AUTO 31012KT 9999 NCD 10/04 Q1024=
201903230100 METAR LRTC 230100Z AUTO 32016KT 9999 FEW060/// 10/04 Q1023=
201903230130 METAR LRTC 230130Z AUTO 33016KT 9999 FEW060/// 10/04 Q1023=
201903230200 METAR LRTC 230200Z AUTO 32015KT 9999 FEW240/// 09/04 Q1023=
201903230230 METAR LRTC 230230Z AUTO 31013KT 9999 NCD 08/04 Q1023=
201903230300 METAR LRTC 230300Z AUTO 32009KT 9999 NCD 07/03 Q1023=
201903230330 METAR LRTC 230330Z AUTO 33011KT 9999 NCD 07/04 Q1023=
201903230400 METAR LRTC 230400Z AUTO 34011KT 9999 NCD 07/04 Q1024=
201903230430 METAR LRTC 230430Z AUTO 32010KT 9999 NCD 06/04 Q1024=
201903230500 METAR LRTC 230500Z AUTO 34009KT 9999 NCD 07/03 Q1024=
201903230530 METAR LRTC 230530Z AUTO 34009KT 9999 NCD 08/M00 Q1024=
201903230600 METAR LRTC 230600Z 34012KT CAVOK 09/M04 Q1024=
201903230630 METAR LRTC 230630Z 33015KT CAVOK 10/M00 Q1024=
201903230700 METAR LRTC 230700Z 35015KT CAVOK 11/M01 Q1025=
201903230730 METAR LRTC 230730Z 33018KT CAVOK 10/M05 Q1024=
201903230800 METAR LRTC 230800Z 33022KT CAVOK 11/M07 Q1025=
201903230830 METAR LRTC 230830Z 34021G31KT CAVOK 12/M09 Q1025=
201903230900 METAR LRTC 230900Z 33021KT 300V360 CAVOK 12/M09 Q1023=
201903230930 METAR LRTC 230930Z 33021KT CAVOK 12/M11 Q1023=
201903231000 METAR LRTC 231000Z 35021G31KT CAVOK 12/M14 Q1023=
201903231030 METAR LRTC 231030Z 35021KT CAVOK 13/M13 Q1023=
201903231100 METAR LRTC 231100Z 34019G29KT CAVOK 13/M14 Q1023=
201903231130 METAR LRTC 231130Z 35021KT CAVOK 13/M15 Q1023=
201903231200 METAR LRTC 231200Z 35021KT CAVOK 13/M16 Q1022=
201903231230 METAR LRTC 231230Z 34019KT CAVOK 13/M13 Q1022=
201903231300 METAR LRTC 231300Z 34021G31KT CAVOK 13/M15 Q1022=
201903231330 METAR LRTC 231330Z 35019G30KT CAVOK 13/M14 Q1022=
201903231400 METAR LRTC 231400Z 34018KT CAVOK 13/M13 Q1022=
201903231430 METAR LRTC 231430Z 34020KT CAVOK 13/M13 Q1022=
201903231500 METAR LRTC 231500Z 34017KT CAVOK 12/M13 Q1022=
201903231530 METAR LRTC 231530Z 35017KT CAVOK 12/M12 Q1022=
201903231600 METAR LRTC 231600Z 34013KT CAVOK 11/M10 Q1022=
201903231630 METAR LRTC 231630Z 33011KT CAVOK 09/M09 Q1023=
201903231700 METAR LRTC 231700Z 34009KT CAVOK 08/M07 Q1023=
201903231730 METAR LRTC 231730Z 36006KT 340V040 CAVOK 06/M07 Q1023=
201903231800 METAR LRTC 231800Z AUTO 30005KT 9999 NCD 06/M06 Q1023=
201903231830 METAR LRTC 231830Z AUTO 32006KT 9999 NCD 05/M07 Q1024=
201903231900 METAR LRTC 231900Z AUTO 33007KT 9999 NCD 05/M06 Q1024=
201903231930 METAR LRTC 231930Z AUTO 35007KT 9999 NCD 04/M06 Q1024=
201903232000 METAR LRTC 232000Z AUTO 36007KT 9999 NCD 05/M07 Q1024=
201903232030 METAR LRTC 232030Z AUTO 36005KT 9999 NCD 05/M07 Q1024=
201903232100 METAR LRTC 232100Z AUTO 36007KT 9999 NCD 03/M07 Q1024=
201903232130 METAR LRTC 232130Z AUTO 36007KT 9999 NCD 03/M07 Q1024=
201903232200 METAR LRTC 232200Z AUTO 36007KT 9999 NCD 04/M06 Q1024=
201903232230 METAR LRTC 232230Z AUTO 02005KT 9999 NCD 04/M06 Q1024=
201903232300 METAR LRTC 232300Z AUTO 36006KT 320V020 9999 NCD 02/M06 Q1024=
201903232330 METAR LRTC 232330Z AUTO 32006KT 9999 NCD 01/M06 Q1024=
201903240000 METAR LRTC 240000Z AUTO 34006KT 9999 NCD 01/M06 Q1024=
201903240030 METAR LRTC 240030Z AUTO 33005KT 9999 NCD 01/M06 Q1023=
201903240100 METAR LRTC 240100Z AUTO 32009KT 9999 NCD 00/M05 Q1023=
201903240130 METAR LRTC 240130Z AUTO 33009KT 9999 NCD 01/M05 Q1023=
201903240200 METAR LRTC 240200Z AUTO 33008KT 9999 NCD 01/M04 Q1023=
201903240230 METAR LRTC 240230Z AUTO VRB05KT 9999 NCD M01/M06 Q1023=
201903240300 METAR LRTC 240300Z AUTO 20003KT 9999 NCD M01/M05 Q1023=
201903240330 METAR LRTC 240330Z AUTO 28004KT 9999 NCD M01/M05 Q1023=
201903240400 METAR LRTC 240400Z AUTO VRB01KT 9999 NCD M02/M06 Q1023=
201903240430 METAR LRTC 240430Z AUTO VRB02KT 9999 NCD M02/M05 Q1023=
201903240500 METAR LRTC 240500Z AUTO 00000KT 9999 NCD 00/M04 Q1023=
201903240530 METAR LRTC 240530Z AUTO VRB02KT 9999 NCD 02/M04 Q1023=
201903240600 METAR LRTC 240600Z VRB02KT CAVOK 04/M03 Q1023=
201903240630 METAR LRTC 240630Z VRB02KT CAVOK 06/M03 Q1023=
201903240700 METAR LRTC 240700Z VRB02KT CAVOK 07/M03 Q1023=
201903240730 METAR LRTC 240730Z 15003KT 100V250 CAVOK 09/M04 Q1023=
201903240800 METAR LRTC 240800Z 20003KT 140V260 CAVOK 10/M04 Q1023=
201903240830 METAR LRTC 240830Z 22003KT 130V300 CAVOK 11/M04 Q1022=
201903240900 METAR LRTC 240900Z VRB04KT CAVOK 12/M05 Q1022=
201903240930 METAR LRTC 240930Z 31005KT 260V020 CAVOK 13/M06 Q1021=
201903241000 METAR LRTC 241000Z VRB07KT CAVOK 14/M07 Q1021=
201903241030 METAR LRTC 241030Z VRB02KT CAVOK 15/M07 Q1021=
201903241100 METAR LRTC 241100Z VRB03KT CAVOK 15/M07 Q1020=
201903241130 METAR LRTC 241130Z 21005KT CAVOK 14/M08 Q1020=
201903241200 METAR LRTC 241200Z 23007KT 200V280 CAVOK 15/M09 Q1020=
201903241230 METAR LRTC 241230Z 23005KT 180V270 CAVOK 16/M09 Q1019=
201903241300 METAR LRTC 241300Z VRB05KT CAVOK 16/M09 Q1019=
201903241330 METAR LRTC 241330Z VRB05KT CAVOK 16/M10 Q1018=
201903241400 METAR LRTC 241400Z 14010KT CAVOK 15/M04 Q1018=
201903241430 METAR LRTC 241430Z 15011KT CAVOK 14/M02 Q1018=
201903241500 METAR LRTC 241500Z 14010KT CAVOK 13/M01 Q1018=
201903241530 METAR LRTC 241530Z 13011KT CAVOK 12/00 Q1018=
201903241600 METAR LRTC 241600Z 14011KT CAVOK 10/00 Q1018=
201903241630 METAR LRTC 241630Z 14009KT CAVOK 09/01 Q1018=
201903241700 METAR LRTC 241700Z 14008KT CAVOK 08/01 Q1018=
201903241730 METAR LRTC 241730Z 15007KT CAVOK 07/00 Q1018=
201903241800 METAR LRTC 241800Z AUTO 15006KT 9999 SCT110/// 07/01 Q1018=
201903241830 METAR LRTC 241830Z AUTO 14006KT 9999 SCT110/// 07/01 Q1018=
201903241900 METAR LRTC 241900Z AUTO 15005KT 9999 SCT085/// 07/01 Q1018=
201903241930 METAR LRTC 241930Z AUTO 16007KT 9999 FEW080/// SCT095///
                        06/00 Q1018=
201903242000 METAR LRTC 242000Z AUTO 16007KT 9999 FEW110/// 05/M00 Q1018=
201903242030 METAR LRTC 242030Z AUTO 16007KT 9999 NCD 04/M01 Q1017=
201903242100 METAR LRTC 242100Z AUTO 16006KT 9999 NCD 05/M01 Q1017=
201903242130 METAR LRTC 242130Z AUTO 14005KT 110V170 9999 NCD 04/M01 Q1017=
201903242200 METAR LRTC 242200Z AUTO 16005KT 9999 SCT100/// 04/M01 Q1017=
201903242230 METAR LRTC 242230Z AUTO 14003KT 9999 FEW100/// 04/M01 Q1016=
201903242300 METAR LRTC 242300Z AUTO 16003KT 9999 NCD 04/M01 Q1016=
201903242330 METAR LRTC 242330Z AUTO 15004KT 9999 NCD 04/M01 Q1016=
201903250000 METAR LRTC 250000Z AUTO 06003KT 020V080 9999 NCD 04/M02 Q1016=
201903250030 METAR LRTC 250030Z AUTO 07001KT 9999 NCD 06/M02 Q1016=
201903250100 METAR LRTC 250100Z AUTO VRB01KT 9999 NCD 04/M02 Q1016=
201903250130 METAR LRTC 250130Z AUTO 25004KT 9999 NCD 01/M02 Q1015=
201903250200 METAR LRTC 250200Z AUTO 15003KT 100V190 9999 NCD M00/M04
                        Q1015=
201903250230 METAR LRTC 250230Z AUTO 18002KT 9999 NCD 01/M02 Q1015=
201903250300 METAR LRTC 250300Z AUTO 07002KT 9999 NCD 01/M02 Q1014=
201903250330 METAR LRTC 250330Z AUTO 07001KT 9999 NCD 02/M02 Q1014=
201903250400 METAR LRTC 250400Z AUTO 28001KT 9999 NCD 02/M03 Q1014=
201903250430 METAR LRTC 250430Z AUTO VRB01KT 9999 NCD 01/M03 Q1014=
201903250500 METAR LRTC 250500Z AUTO 00000KT 9999 NCD 03/M01 Q1013=
201903250530 METAR LRTC 250530Z AUTO 13003KT 110V170 9999 NCD 04/M01 Q1013=
201903250600 METAR LRTC 250600Z VRB02KT CAVOK 07/M00 Q1013 R16/CLRD//=
201903250630 METAR LRTC 250630Z 22003KT 170V270 CAVOK 08/M01 Q1013=
201903250700 METAR LRTC 250700Z 19003KT 150V220 CAVOK 11/M01 Q1012=
201903250730 METAR LRTC 250730Z 17004KT 130V210 CAVOK 13/M03 Q1012=
201903250800 METAR LRTC 250800Z 22003KT 140V290 CAVOK 14/M03 Q1012=
201903250830 METAR LRTC 250830Z 16004KT 100V220 CAVOK 16/M02 Q1011=
201903250900 METAR LRTC 250900Z VRB03KT CAVOK 19/M02 Q1011=
201903250930 METAR COR LRTC 250930Z 21012KT CAVOK 20/M04 Q1010=
201903251000 METAR LRTC 251000Z 22015KT 190V250 CAVOK 20/M05 Q1010=
201903251030 METAR LRTC 251030Z 22018KT CAVOK 21/M05 Q1009=
201903251100 METAR LRTC 251100Z 23016KT CAVOK 21/M05 Q1009=
201903251130 METAR LRTC 251130Z 22014KT 190V250 CAVOK 21/M06 Q1008=
201903251200 METAR LRTC 251200Z 22013KT CAVOK 22/M06 Q1008=
201903251230 METAR LRTC 251230Z 24012KT CAVOK 22/M07 Q1008=
201903251300 METAR LRTC 251300Z 23014KT 210V280 CAVOK 22/M07 Q1007=
201903251330 METAR LRTC 251330Z 22013KT CAVOK 23/M07 Q1007=
201903251400 METAR LRTC 251400Z 17015KT CAVOK 20/00 Q1006=
201903251430 METAR LRTC 251430Z 14017KT CAVOK 18/01 Q1006=
201903251500 METAR LRTC 251500Z 15014KT CAVOK 17/01 Q1006=
201903251530 METAR LRTC 251530Z 15015KT CAVOK 15/03 Q1007=
201903251600 METAR LRTC 251600Z 15014KT CAVOK 13/03 Q1007=
201903251630 METAR LRTC 251630Z 15010KT CAVOK 12/03 Q1007=
201903251700 METAR LRTC 251700Z 15008KT CAVOK 11/02 Q1007=
201903251730 METAR LRTC 251730Z 16008KT CAVOK 10/02 Q1007=
201903251800 METAR LRTC 251800Z AUTO 13004KT 050V170 9999 NCD 10/01 Q1008=
201903251830 METAR LRTC 251830Z AUTO 13005KT 080V170 9999 NCD 10/M01 Q1008=
201903251900 METAR LRTC 251900Z AUTO 17009KT 9999 SCT130/// 12/M04 Q1008=
201903251930 METAR LRTC 251930Z AUTO 16007KT 9999 BKN100/// BKN130///
                        12/M05 Q1008=
201903252000 METAR LRTC 252000Z AUTO 16004KT 9999 OVC100/// 12/M05 Q1008=
201903252030 METAR LRTC 252030Z AUTO 11005KT 9999 SCT100/// BKN120///
                        10/M03 Q1008=
201903252100 METAR LRTC 252100Z AUTO 18005KT 9999 FEW120/// SCT130///
                        09/M04 Q1009=
201903252130 METAR LRTC 252130Z AUTO 35006KT 9999 FEW130/// 08/M03 Q1009=
201903252200 METAR LRTC 252200Z AUTO 32008KT 9999 NCD 07/01 Q1009=
201903252230 METAR LRTC 252230Z AUTO 33011KT 9000 NCD 09/05 Q1009=
201903252300 METAR LRTC 252300Z AUTO 35008KT 8000 NCD 08/04 Q1009=
201903252330 METAR LRTC 252330Z AUTO 34010KT 9000 NCD 09/04 Q1009=
201903260000 METAR LRTC 260000Z AUTO 34010KT 9000 FEW130/// 09/04 Q1010=
201903260030 METAR LRTC 260030Z AUTO 35008KT 9000 NCD 08/04 Q1010=
201903260100 METAR LRTC 260100Z AUTO 35007KT 8000 FEW140/// 07/04 Q1010=
201903260130 METAR LRTC 260130Z AUTO 34009KT 8000 FEW130/// 07/04 Q1010=
201903260200 METAR LRTC 260200Z AUTO 35006KT 7000 SCT130/// 06/04 Q1010=
201903260230 METAR LRTC 260230Z AUTO 34009KT 6000 FEW120/// 06/04 Q1010=
201903260300 METAR LRTC 260300Z AUTO 34009KT 7000 NCD 05/03 Q1010=
201903260330 METAR LRTC 260330Z AUTO 34010KT 7000 NCD 07/04 Q1010=
201903260400 METAR LRTC 260400Z AUTO 35009KT 7000 NCD 07/04 Q1011=
201903260430 METAR LRTC 260430Z AUTO 35008KT 6000 NCD 07/04 Q1012=
201903260500 METAR LRTC 260500Z AUTO 36007KT 7000 NCD 07/04 Q1012=
201903260530 METAR LRTC 260530Z AUTO 01009KT 8000 FEW100/// 08/05 Q1012=
201903260600 METAR LRTC 260600Z 01010KT 9000 NSC 09/05 Q1012 R16/CLRD//=
201903260630 METAR LRTC 260630Z 36014KT 9000 NSC 09/04 Q1013=
201903260700 METAR LRTC 260700Z 01013KT CAVOK 10/04 Q1013=
201903260730 METAR LRTC 260730Z 01014KT 9999 FEW030 11/04 Q1013=
201903260800 METAR LRTC 260800Z 36015KT 9999 FEW030 11/04 Q1013=
201903260830 METAR LRTC 260830Z 36014KT 340V040 9999 FEW035 12/03 Q1014=
201903260900 METAR LRTC 260900Z 02017KT 9999 SCT040 13/03 Q1014=
201903260930 METAR LRTC 260930Z 36016KT 9999 SCT032 12/02 Q1014=
201903261000 METAR LRTC 261000Z 36015KT 330V030 9999 SCT033 13/02 Q1014=
201903261030 METAR LRTC 261030Z 35015KT 9999 FEW035 13/01 Q1015=
201903261100 METAR LRTC 261100Z 36017KT 9999 FEW038 13/01 Q1015=
201903261130 METAR LRTC 261130Z 34020KT 9999 FEW039 12/02 Q1014=
201903261200 METAR LRTC 261200Z 33020KT 9999 SCT035 10/03 Q1015=
201903261230 METAR LRTC 261230Z 34019KT 9999 SCT035 10/03 Q1015=
201903261300 METAR LRTC 261300Z 35017KT 9999 BKN032 09/03 Q1015=
201903261330 METAR LRTC 261330Z 35013KT 9999 FEW019 BKN025 09/04 Q1016=
201903261400 METAR LRTC 261400Z 35012KT 9999 -RA FEW018 BKN024 08/04 Q1016=
201903261430 METAR LRTC 261430Z 35010KT 8000 -RA FEW011 BKN023 BKN044
                        07/05 Q1016=
201903261500 METAR LRTC 261500Z 35008KT 9999 SCT020 BKN045 07/05 Q1017=
201903261530 METAR LRTC 261530Z 34009KT 9999 FEW029 SCT048 07/04 Q1017=
201903261600 METAR LRTC 261600Z 34007KT 9999 FEW033 07/04 Q1017=
201903261630 METAR LRTC 261630Z 32006KT CAVOK 07/05 Q1017=
201903261700 METAR LRTC 261700Z 31006KT CAVOK 07/05 Q1018=
201903261730 METAR LRTC 261730Z 30005KT CAVOK 07/05 Q1018=
201903261800 METAR LRTC 261800Z AUTO 30006KT 7000 OVC080/// 07/05 Q1018=
201903261830 METAR LRTC 261830Z AUTO 30005KT 8000 SCT085/// BKN100///
                        07/05 Q1018=
201903261900 METAR LRTC 261900Z AUTO 29004KT 7000 FEW090/// BKN110///
                        06/05 Q1018=
201903261930 METAR LRTC 261930Z AUTO 32007KT 9000 FEW095/// BKN110///
                        07/05 Q1018=
201903262000 METAR LRTC 262000Z AUTO 32010KT 9999 BKN120/// 07/04 Q1018=
201903262030 METAR LRTC 262030Z AUTO 32009KT 9999 BKN120/// BKN130///
                        06/04 Q1018=
201903262100 METAR LRTC 262100Z AUTO 32006KT 9999 BKN130/// 06/03 Q1018=
201903262130 METAR LRTC 262130Z AUTO 30005KT 9000 FEW140/// BKN210///
                        05/03 Q1018=
201903262200 METAR LRTC 262200Z AUTO 32005KT 9999 BKN100/// BKN220///
                        05/03 Q1019=
201903262230 METAR LRTC 262230Z AUTO 30004KT 9000 BKN100/// 05/03 Q1019=
201903262300 METAR LRTC 262300Z AUTO 33008KT 9999 BKN110/// 06/02 Q1019=
201903262330 METAR LRTC 262330Z AUTO 32006KT 9999 BKN110/// 05/02 Q1018=
201903270000 METAR LRTC 270000Z AUTO 30005KT 9999 BKN120/// 04/01 Q1018=
201903270030 METAR LRTC 270030Z AUTO VRB05KT 9999 SCT120/// 03/00 Q1018=
201903270100 METAR LRTC 270100Z AUTO VRB02KT 9999 FEW110/// 03/01 Q1018=
201903270130 METAR LRTC 270130Z AUTO 34002KT 9999 NCD 04/M00 Q1019=
201903270200 METAR LRTC 270200Z AUTO 34004KT 310V010 9999 FEW110/// 02/M01
                        Q1019=
201903270230 METAR LRTC 270230Z AUTO VRB02KT 9999 NCD 01/M02 Q1019=
201903270300 METAR LRTC 270300Z AUTO VRB02KT 5000 BR NCD M00/M01 Q1019=
201903270330 METAR LRTC 270330Z AUTO 22006KT 9999 NCD 01/M01 Q1019=
201903270400 METAR LRTC 270400Z AUTO 23006KT 1500 R34/1700N BR NCD 01/M00
                        Q1019=
201903270430 METAR LRTC 270430Z AUTO VRB02KT 1000 R34/0900V1300U FG NCD
                        00/M00 Q1019=
201903270500 METAR LRTC 270500Z AUTO 16004KT 3000 NCD 02/01 Q1019=
201903270530 METAR LRTC 270530Z AUTO VRB03KT 4900 NCD 03/02 Q1019=
201903270600 METAR LRTC 270600Z 26011KT 240V310 CAVOK 07/03 Q1019 R16/CLRD//=
201903270630 METAR LRTC 270630Z 26011KT 9999 FEW040 08/02 Q1019=
201903270700 METAR LRTC 270700Z 25016KT 9999 FEW040 08/01 Q1019=
201903270730 METAR LRTC 270730Z 31023KT 270V330 9999 SCT040 10/M01 Q1019=
201903270800 METAR LRTC 270800Z 34021KT 9999 FEW040 08/00 Q1020=
201903270830 METAR LRTC 270830Z 34022KT 9999 FEW040 08/M00 Q1021=
201903270900 METAR LRTC 270900Z 34023KT 9999 BKN045 09/M06 Q1021=
201903270930 METAR LRTC 270930Z 35023KT 9999 SCT049 08/M05 Q1021=
201903271000 METAR LRTC 271000Z 35021KT CAVOK 09/M04 Q1022=
201903271030 METAR LRTC 271030Z 34019KT 310V010 CAVOK 10/M06 Q1022=
201903271100 METAR LRTC 271100Z 33017KT CAVOK 10/M06 Q1022=
201903271130 METAR LRTC 271130Z 32015KT 9999 SCT049 10/M06 Q1022=
201903271200 METAR LRTC 271200Z 32017KT 290V360 CAVOK 11/M08 Q1022=
201903271230 METAR LRTC 271230Z 32021KT 280V360 CAVOK 12/M09 Q1022=
201903271300 METAR LRTC 271300Z 33021G32KT CAVOK 12/M10 Q1022=
201903271330 METAR LRTC 271330Z 33022KT CAVOK 11/M10 Q1022=
201903271400 METAR LRTC 271400Z 34021KT CAVOK 10/M08 Q1022=
201903271430 METAR LRTC 271430Z 35021KT CAVOK 09/M07 Q1023=
201903271500 METAR LRTC 271500Z 34020KT CAVOK 09/M07 Q1023=
201903271530 METAR LRTC 271530Z 35021KT CAVOK 09/M07 Q1023=
201903271600 METAR LRTC 271600Z 35019KT CAVOK 08/M07 Q1024=
201903271630 METAR LRTC 271630Z 35015KT CAVOK 07/M05 Q1024=
201903271700 METAR LRTC 271700Z 34012KT CAVOK 06/M06 Q1025=
201903271730 METAR LRTC 271730Z 35015KT CAVOK 06/M05 Q1025=
201903271800 METAR LRTC 271800Z AUTO 35014KT 9999 FEW095/// SCT210///
                        06/M06 Q1026=
201903271830 METAR LRTC 271830Z AUTO 35011KT 9999 FEW095/// BKN220///
                        05/M05 Q1027=
201903271900 METAR LRTC 271900Z AUTO 35011KT 9999 SCT090/// BKN220///
                        04/M05 Q1027=
201903271930 METAR LRTC 271930Z AUTO 34012KT 9999 FEW095/// 04/M05 Q1027=
201903272000 METAR LRTC 272000Z AUTO 34014KT 9999 NCD 03/M05 Q1027=
201903272030 METAR LRTC 272030Z AUTO 34012KT 9999 NCD 02/M05 Q1028=
201903272100 METAR LRTC 272100Z AUTO 33010KT 9999 NCD 02/M05 Q1028=
201903272130 METAR LRTC 272130Z AUTO 31010KT 9999 NCD 01/M06 Q1028=
201903272200 METAR LRTC 272200Z AUTO 30008KT 9999 FEW160/// 01/M05 Q1028=
201903272230 METAR LRTC 272230Z AUTO 31011KT 9999 NCD 00/M05 Q1028=
201903272300 METAR LRTC 272300Z AUTO 32012KT 9999 NCD 01/M05 Q1028=
201903272330 METAR LRTC 272330Z AUTO 32010KT 9999 NCD 00/M06 Q1028=
201903280000 METAR LRTC 280000Z AUTO 33009KT 9999 NCD 01/M05 Q1028=
201903280030 METAR LRTC 280030Z AUTO 27006KT 9999 NCD M02/M06 Q1028=
201903280100 METAR LRTC 280100Z AUTO VRB03KT 9999 NCD M00/M06 Q1028=
201903280130 METAR LRTC 280130Z AUTO 27003KT 240V300 9999 NCD 01/M05 Q1028=
201903280200 METAR LRTC 280200Z AUTO 34005KT 9999 NCD 01/M05 Q1028=
201903280230 METAR LRTC 280230Z AUTO 33006KT 9999 NCD M01/M06 Q1028=
201903280300 METAR LRTC 280300Z AUTO 36005KT 9999 NCD M02/M06 Q1028=
201903280330 METAR LRTC 280330Z AUTO VRB02KT 9999 NCD M01/M05 Q1028=
201903280400 METAR LRTC 280400Z AUTO 19003KT 9999 NCD M02/M06 Q1029=
201903280430 METAR LRTC 280430Z AUTO 23003KT 190V250 9999 NCD M01/M07
                        Q1029=
201903280500 METAR LRTC 280500Z AUTO VRB03KT 9999 NCD 01/M05 Q1029=
201903280530 METAR LRTC 280530Z AUTO VRB01KT 9999 NCD 03/M05 Q1029=
201903280600 METAR LRTC 280600Z 33008KT 300V010 CAVOK 06/M06 Q1029 R16/CLRD//=
201903280630 METAR LRTC 280630Z 33010KT CAVOK 06/M08 Q1029=
201903280700 METAR LRTC 280700Z 33010KT CAVOK 07/M07 Q1029=
201903280730 METAR LRTC 280730Z 32011KT 290V350 CAVOK 07/M07 Q1029=
201903280800 METAR LRTC 280800Z 35013KT CAVOK 09/M08 Q1029=
201903280830 METAR LRTC 280830Z 34012KT 310V020 CAVOK 09/M08 Q1029=
201903280900 METAR LRTC 280900Z 35013KT 310V010 CAVOK 10/M09 Q1029=
201903280930 METAR LRTC 280930Z 35016KT 310V020 CAVOK 10/M11 Q1029=
201903281000 METAR LRTC 281000Z 34014KT 310V010 CAVOK 11/M10 Q1028=
201903281030 METAR LRTC 281030Z 34012KT 310V010 CAVOK 11/M09 Q1028=
201903281100 METAR LRTC 281100Z 01011KT 340V040 CAVOK 11/M09 Q1028=
201903281130 METAR LRTC 281130Z 31012KT CAVOK 11/M08 Q1028=
201903281200 METAR LRTC 281200Z 33009KT 290V010 CAVOK 12/M08 Q1028=
201903281230 METAR LRTC 281230Z 35009KT 310V020 CAVOK 11/M08 Q1027=
201903281300 METAR LRTC 281300Z 34011KT CAVOK 12/M08 Q1027=
201903281330 METAR LRTC 281330Z 32008KT 280V350 CAVOK 11/M07 Q1027=
201903281400 METAR LRTC 281400Z 32007KT 280V010 CAVOK 11/M08 Q1027=
201903281430 METAR LRTC 281430Z 34007KT 310V020 CAVOK 11/M07 Q1027=
201903281500 METAR LRTC 281500Z 01009KT 340V040 CAVOK 10/M07 Q1027=
201903281530 METAR LRTC 281530Z 02007KT CAVOK 10/M07 Q1026=
201903281600 METAR LRTC 281600Z 01006KT CAVOK 10/M07 Q1026=
201903281630 METAR LRTC 281630Z 01006KT CAVOK 09/M07 Q1027=
201903281700 METAR LRTC 281700Z 01007KT CAVOK 09/M06 Q1027=
201903281730 METAR LRTC 281730Z 36007KT CAVOK 09/M06 Q1027=
201903281800 METAR LRTC 281800Z AUTO 11006KT 9999 BKN080/// 08/M01 Q1027=
201903281830 METAR LRTC 281830Z NIL=
201903281900 METAR LRTC 281900Z AUTO 08006KT 9999 BKN070/// 08/M01 Q1028=
201903281930 METAR LRTC 281930Z AUTO 09009KT 060V120 9999 -DZ FEW042///
                        SCT050/// OVC065/// 08/M00 Q1028=
201903282000 METAR LRTC 282000Z AUTO 33007KT 300V010 9999 -RA FEW031///
                        BKN040/// BKN075/// 07/01 Q1029=
201903282030 METAR LRTC 282030Z AUTO 34004KT 320V020 9999 -RA FEW031///
                        SCT036/// BKN050/// 06/02 Q1029=
201903282100 METAR LRTC 282100Z AUTO 33004KT 9999 -RA FEW026/// SCT043///
                        BKN050/// 06/02 Q1029=
201903282130 METAR LRTC 282130Z AUTO 32004KT 9999 SCT035/// BKN050///
                        06/03 Q1029 RERA=
201903282200 METAR LRTC 282200Z AUTO 36005KT 9999 SCT033/// OVC049///
                        06/02 Q1029 REDZ=
201903282230 METAR LRTC 282230Z AUTO 36004KT 9999 FEW033/// OVC065///
                        06/02 Q1029 REUP=
201903282300 METAR LRTC 282300Z AUTO 04003KT 340V140 9999 FEW037/// OVC060///
                        06/02 Q1029 REUP=
201903282330 METAR LRTC 282330Z AUTO 09004KT 9999 OVC055/// 05/02 Q1029=
201903290000 METAR LRTC 290000Z AUTO 08005KT 9999 FEW036/// BKN060///
                        05/02 Q1029=
201903290030 METAR LRTC 290030Z AUTO 07002KT 050V120 9999 FEW033/// SCT043///
                        BKN060/// 04/01 Q1029=
201903290100 METAR LRTC 290100Z AUTO 07003KT 9999 FEW032/// 04/01 Q1028=
201903290130 METAR LRTC 290130Z AUTO 07001KT 9999 FEW029/// SCT034///
                        BKN041/// 04/01 Q1028=
201903290200 METAR LRTC 290200Z AUTO 34006KT 9999 FEW042/// BKN050///
                        03/01 Q1028=
201903290230 METAR LRTC 290230Z AUTO 36006KT 9999 SCT050/// 03/01 Q1029=
201903290300 METAR LRTC 290300Z AUTO 01003KT 9999 SCT055/// 03/01 Q1029=
201903290330 METAR LRTC 290330Z AUTO 06003KT 9999 BKN050/// 03/01 Q1029=
201903290400 METAR LRTC 290400Z AUTO 34002KT 300V020 9999 FEW038/// SCT055///
                        02/01 Q1029=
201903290430 METAR LRTC 290430Z AUTO 33005KT 9999 FEW037/// BKN050///
                        02/01 Q1029=
201903290500 METAR LRTC 290500Z AUTO 35003KT 300V030 9999 SCT026/// BKN030///
                        BKN050/// 04/02 Q1029=
201903290530 METAR LRTC 290530Z AUTO 35006KT 9999 FEW030/// BKN055///
                        05/03 Q1029=
201903290600 METAR LRTC 290600Z 36007KT 9999 FEW019 BKN049 05/02 Q1029
                        R16/19//95=
201903290630 METAR LRTC 290630Z 35008KT 320V020 9999 FEW014 06/03 Q1029=
201903290700 METAR LRTC 290700Z 36007KT 9999 FEW016 SCT030 06/02 Q1029=
201903290730 METAR LRTC 290730Z 01008KT 9999 BKN030 07/01 Q1029=
201903290800 METAR LRTC 290800Z 35007KT 9999 FEW029TCU BKN030 07/00 Q1029=
201903290830 METAR LRTC 290830Z 02007KT 350V050 9999 FEW030TCU BKN031
                        07/M01 Q1030 R16/CLRD//=
201903290900 METAR LRTC 290900Z 32009KT 290V360 9999 BKN037 08/M00 Q1029=
201903290930 METAR LRTC 290930Z 34011KT 9999 FEW034 BKN042 09/M01 Q1029=
201903291000 METAR LRTC 291000Z 33010KT 9999 SCT041 BKN049 08/M02 Q1029=
201903291030 METAR LRTC 291030Z 33007KT 300V010 9999 BKN046 09/M04 Q1029=
201903291100 METAR LRTC 291100Z 33009KT 290V020 9999 BKN049 09/M06 Q1029=
201903291130 METAR LRTC 291130Z 01008KT 280V050 9999 BKN049 09/M06 Q1028=
201903291200 METAR LRTC 291200Z 36008KT 320V040 CAVOK 09/M07 Q1028=
201903291230 METAR LRTC 291230Z 35005KT 300V050 CAVOK 11/M07 Q1028=
201903291300 METAR LRTC 291300Z 02006KT CAVOK 10/M06 Q1027=
201903291330 METAR LRTC 291330Z 36006KT 300V050 CAVOK 11/M06 Q1027=
201903291400 METAR LRTC 291400Z VRB03KT CAVOK 11/M07 Q1027=
201903291430 METAR LRTC 291430Z 33008KT CAVOK 10/M07 Q1027=
201903291500 METAR COR LRTC 291500Z 35007KT 320V020 CAVOK 10/M07 Q1026=
201903291530 METAR LRTC 291530Z 35005KT 310V020 CAVOK 10/M07 Q1026=
201903291600 METAR LRTC 291600Z 15007KT 120V180 CAVOK 08/M03 Q1026=
201903291630 METAR LRTC 291630Z 13006KT CAVOK 06/M02 Q1026=
201903291700 METAR LRTC 291700Z 14006KT CAVOK 05/M02 Q1026=
201903291730 METAR LRTC 291730Z 16006KT CAVOK 04/M02 Q1026=
201903291800 METAR LRTC 291800Z AUTO 11002KT 070V160 9999 NCD 04/M02 Q1026=
201903291830 METAR LRTC 291830Z AUTO 12005KT 070V150 9999 NCD 03/M02 Q1026=
201903291900 METAR LRTC 291900Z AUTO 13005KT 9999 NCD 03/M02 Q1027=
201903291930 METAR LRTC 291930Z AUTO 16003KT 9999 NCD 02/M02 Q1027=
201903292000 METAR LRTC 292000Z AUTO 15003KT 9999 NCD 02/M03 Q1027=
201903292030 METAR LRTC 292030Z AUTO 15003KT 9999 NCD 02/M03 Q1026=
201903292100 METAR LRTC 292100Z AUTO 15002KT 130V190 9999 NCD 02/M03 Q1026=
201903292130 METAR LRTC 292130Z AUTO 18002KT 9999 NCD 02/M03 Q1026=
201903292200 METAR LRTC 292200Z AUTO 09002KT 9999 NCD 01/M03 Q1026=
201903292230 METAR LRTC 292230Z AUTO VRB01KT 9999 NCD 00/M03 Q1026=
201903292300 METAR LRTC 292300Z AUTO 16001KT 9999 NCD M00/M03 Q1026=
201903292330 METAR LRTC 292330Z AUTO 00000KT 9999 FEW065/// M01/M04 Q1026=
201903300000 METAR LRTC 300000Z AUTO 08002KT 9999 NCD M01/M04 Q1025=
201903300030 METAR LRTC 300030Z AUTO 08003KT 9999 BKN050/// M00/M04 Q1025=
201903300100 METAR LRTC 300100Z AUTO 09002KT 9999 BKN050/// 00/M04 Q1025=
201903300130 METAR LRTC 300130Z AUTO VRB01KT 9999 BKN050/// 01/M03 Q1025=
201903300200 METAR LRTC 300200Z AUTO VRB01KT 9999 BKN050/// 02/M03 Q1025=
201903300230 METAR LRTC 300230Z AUTO VRB01KT 9999 OVC055/// 02/M03 Q1025=
201903300300 METAR LRTC 300300Z AUTO 07002KT 9999 OVC055/// 03/M02 Q1025=
201903300330 METAR LRTC 300330Z AUTO 10001KT 9999 BKN055/// 03/M03 Q1025=
201903300400 METAR LRTC 300400Z AUTO 00000KT 9999 OVC055/// 03/M02 Q1025=
201903300430 METAR LRTC 300430Z AUTO 16001KT 9999 BKN055/// 04/M02 Q1025=
201903300500 METAR LRTC 300500Z AUTO 04002KT 9999 BKN050/// 05/M01 Q1025=
201903300530 METAR LRTC 300530Z AUTO 04002KT 9999 BKN050/// 06/M01 Q1025=
201903300600 METAR LRTC 300600Z VRB02KT 9999 BKN049 07/M01 Q1025=
201903300630 METAR LRTC 300630Z 32007KT 9999 BKN049 10/M00 Q1025=
201903300700 METAR LRTC 300700Z 33011KT 9999 SCT049 11/01 Q1025=
201903300730 METAR LRTC 300730Z 33012KT 310V010 9999 FEW049 12/01 Q1025=
201903300800 METAR LRTC 300800Z 33012KT 9999 SCT048 12/01 Q1025=
201903300830 METAR LRTC 300830Z 35013KT 320V020 9999 SCT048 13/02 Q1024=
201903300900 METAR LRTC 300900Z 35012KT 320V020 9999 BKN049 14/03 Q1024=
201903300930 METAR LRTC 300930Z 34014KT 9999 FEW040 SCT049 13/03 Q1024=
201903301000 METAR LRTC 301000Z 35014KT 9999 SCT040 14/03 Q1024=
201903301030 METAR LRTC 301030Z 34013KT 9999 SCT041 SCT047 15/03 Q1024=
201903301100 METAR LRTC 301100Z 34011KT 9999 BKN044 14/02 Q1024=
201903301130 METAR LRTC 301130Z 34010KT 300V020 9999 BKN044 15/01 Q1023=
201903301200 METAR LRTC 301200Z 34012KT 9999 SCT046 16/01 Q1023=
201903301230 METAR LRTC 301230Z 36010KT 320V040 9999 SCT049 16/01 Q1023=
201903301300 METAR LRTC 301300Z VRB11KT 9999 SCT049 15/01 Q1022=
201903301330 METAR LRTC 301330Z 36008KT 310V030 9999 SCT049 16/01 Q1022=
201903301400 METAR LRTC 301400Z 34011KT 9999 SCT049 16/01 Q1022=
201903301430 METAR LRTC 301430Z 36005KT 300V040 9999 SCT049 16/02 Q1022=
201903301500 METAR LRTC 301500Z 05006KT 010V080 9999 FEW049 15/02 Q1021=
201903301530 METAR LRTC 301530Z 03006KT 9999 FEW049 15/02 Q1021=
201903301600 METAR LRTC 301600Z 06005KT CAVOK 14/02 Q1021=
201903301630 METAR LRTC 301630Z 12008KT CAVOK 10/03 Q1022=
201903301700 METAR LRTC 301700Z 14005KT CAVOK 09/03 Q1022=
201903301730 METAR LRTC 301730Z 11007KT CAVOK 08/03 Q1022=
201903301800 METAR LRTC 301800Z AUTO 19002KT 130V270 9999 NCD 07/02 Q1022=
201903301830 METAR LRTC 301830Z AUTO 13004KT 9999 NCD 07/02 Q1022=
201903301900 METAR LRTC 301900Z AUTO 16002KT 9999 NCD 07/02 Q1022=
201903301930 METAR LRTC 301930Z AUTO 13002KT 9999 NCD 06/02 Q1022=
201903302000 METAR LRTC 302000Z AUTO 00000KT 9999 NCD 06/03 Q1022=
201903302030 METAR LRTC 302030Z AUTO 00000KT 9999 NCD 06/02 Q1022=
201903302100 METAR LRTC 302100Z AUTO 13002KT 9999 NCD 06/02 Q1022=
201903302130 METAR LRTC 302130Z AUTO 11002KT 060V120 9999 NCD 05/02 Q1022=
201903302200 METAR LRTC 302200Z AUTO 00000KT 9999 NCD 05/02 Q1022=
201903302230 METAR LRTC 302230Z AUTO 10002KT 9999 NCD 04/01 Q1022=
201903302300 METAR LRTC 302300Z AUTO VRB01KT 9999 NCD 03/01 Q1022=
201903302330 METAR LRTC 302330Z AUTO VRB01KT 9999 NCD 04/01 Q1021=
201903310000 METAR LRTC 310000Z AUTO 09003KT 050V140 9999 NCD 04/01 Q1021=
201903310030 METAR LRTC 310030Z AUTO 09003KT 8000 NCD 01/M01 Q1021=
201903310100 METAR LRTC 310100Z AUTO 07001KT 9000 NCD 02/00 Q1021=
201903310130 METAR LRTC 310130Z AUTO 09002KT 060V120 9999 NCD 03/01 Q1021=
201903310200 METAR LRTC 310200Z AUTO 13002KT 080V140 9999 NCD 03/01 Q1020=
201903310230 METAR LRTC 310230Z AUTO VRB01KT 9999 NCD 03/00 Q1020=
201903310300 METAR LRTC 310300Z AUTO 04003KT 9999 NCD 02/M00 Q1020=
201903310330 METAR LRTC 310330Z AUTO 02003KT 9999 NCD 03/00 Q1020=
201903310400 METAR LRTC 310400Z AUTO VRB01KT 9999 NCD 03/00 Q1020=
201903310430 METAR LRTC 310430Z AUTO VRB01KT 9999 NCD 03/01 Q1020=
201903310500 METAR LRTC 310500Z 02002KT CAVOK 05/02 Q1020=
201903310530 METAR LRTC 310530Z 03003KT 360V060 CAVOK 06/02 Q1020=
201903310600 METAR LRTC 310600Z 03003KT 360V060 CAVOK 08/03 Q1020=
201903310630 METAR LRTC 310630Z 01004KT 330V050 CAVOK 10/03 Q1020=
201903310700 METAR LRTC 310700Z 32006KT CAVOK 12/03 Q1019=
201903310730 METAR LRTC 310730Z 33008KT 300V010 CAVOK 13/03 Q1019=
201903310800 METAR LRTC 310800Z 35007KT 310V010 CAVOK 14/03 Q1019=
201903310830 METAR LRTC 310830Z 36008KT 310V040 CAVOK 15/03 Q1019=
201903310900 METAR LRTC 310900Z 01007KT 330V080 CAVOK 16/03 Q1019=
201903310930 METAR LRTC 310930Z 36006KT 320V050 CAVOK 17/03 Q1018=
201903311000 METAR LRTC 311000Z 36006KT 310V070 CAVOK 17/03 Q1018=
201903311030 METAR LRTC 311030Z 07008KT 040V100 CAVOK 18/02 Q1018=
201903311100 METAR LRTC 311100Z 05005KT 010V100 CAVOK 18/03 Q1017=
201903311130 METAR LRTC 311130Z 05009KT 330V080 CAVOK 19/02 Q1017=
201903311200 METAR LRTC 311200Z 36007KT 320V030 CAVOK 18/01 Q1017=
201903311230 METAR LRTC 311230Z 02005KT 300V090 CAVOK 19/01 Q1016=
201903311300 METAR LRTC 311300Z 11008KT 070V140 CAVOK 18/04 Q1016=
201903311330 METAR LRTC 311330Z 15010KT 110V170 CAVOK 18/04 Q1016=
201903311400 METAR LRTC 311400Z 13011KT CAVOK 17/04 Q1016=
201903311430 METAR LRTC 311430Z 14011KT CAVOK 16/04 Q1016=
201903311500 METAR LRTC 311500Z 14010KT CAVOK 15/03 Q1015=
201903311530 METAR LRTC 311530Z 14011KT CAVOK 14/01 Q1015=
201903311600 METAR LRTC 311600Z 14009KT CAVOK 13/01 Q1015=
201903311630 METAR LRTC 311630Z 14007KT CAVOK 11/02 Q1015=
201903311700 METAR LRTC 311700Z AUTO 13005KT 9999 NCD 10/02 Q1015=
201903311730 METAR LRTC 311730Z AUTO 15003KT 9999 NCD 09/01 Q1016=
201903311800 METAR LRTC 311800Z AUTO 15003KT 9999 NCD 09/02 Q1016=
201903311830 METAR LRTC 311830Z AUTO 16002KT 9999 NCD 08/02 Q1016=
201903311900 METAR LRTC 311900Z AUTO 14003KT 9999 NCD 07/01 Q1016=
201903311930 METAR LRTC 311930Z AUTO 12003KT 9999 NCD 07/01 Q1016=
201903312000 METAR LRTC 312000Z AUTO 00000KT 9999 NCD 07/02 Q1016=
201903312030 METAR LRTC 312030Z AUTO 06002KT 9999 NCD 06/02 Q1016=
201903312100 METAR LRTC 312100Z AUTO 10001KT 9999 NCD 06/02 Q1016=
201903312130 METAR LRTC 312130Z AUTO 10001KT 9999 NCD 06/02 Q1016=
201903312200 METAR LRTC 312200Z AUTO 05002KT 9999 NCD 06/02 Q1016=
201903312230 METAR LRTC 312230Z AUTO 01002KT 9999 NCD 06/02 Q1015=
201903312300 METAR LRTC 312300Z AUTO 34003KT 320V020 9999 NCD 04/00 Q1015=
201903312330 METAR LRTC 312330Z AUTO 01002KT 320V050 9999 NCD 04/00 Q1015=
