201905010200 TAF LRTC 010200Z NIL=
201905010500 TAF LRTC 010500Z 0106/0115 22016KT CAVOK
                      TEMPO 0108/0115 22020G30KT
                      PROB30 TEMPO 0109/0113 5000 -SHRA SCT040CB=
201905010800 TAF LRTC 010800Z 0109/0118 22020KT 9999 SCT040
                      TEMPO 0109/0115 22024G34KT
                      PROB30 TEMPO 0109/0113 5000 -SHRA SCT040CB=
201905011100 TAF LRTC 011100Z 0112/0121 24018KT 9999 BKN040
                      TEMPO 0112/0117 22022G32KT
                      PROB30 TEMPO 0112/0115 5000 -SHRA SCT040CB
                       BECMG 0118/0120 30008KT=
201905011400 TAF LRTC 011400Z 0115/0124 24018KT 9999 BKN045
                      BECMG 0118/0120 30008KT=
201905011700 TAF LRTC 011700Z NIL=
201905012000 TAF LRTC 012000Z NIL=
201905012300 TAF LRTC 012300Z NIL=
201905020200 TAF LRTC 020200Z NIL=
201905020500 TAF LRTC 020500Z 0206/0215 24006KT CAVOK
                      TEMPO 0206/0207 FEW050CB
                      TEMPO 0210/0215 SCT040CB
                      PROB30 TEMPO 0211/0215 VRB10KT 5000 SHRA=
201905020800 TAF LRTC 020800Z 0209/0218 25008KT 9999 SCT040
                      TEMPO 0210/0215 SCT040CB
                      PROB40 TEMPO 0211/0215 VRB18KT 5000 SHRA=
201905021100 TAF LRTC 021100Z 0212/0221 25010KT 9999 SCT040
                      TEMPO 0212/0216 5000 SHRA SCT040CB
                      PROB30 TEMPO 0212/0215 VRB15G25KT TSRA=
201905021400 TAF LRTC 021400Z 0215/0224 32010KT 9999 SCT040
                      PROB30 TEMPO 0215/0217 SCT040 FEW050CB
                      BECMG 0216/0218 26006KT=
201905021700 TAF LRTC 021700Z NIL=
201905022000 TAF LRTC 022000Z NIL=
201905022300 TAF LRTC 022300Z NIL=
201905030200 TAF LRTC 030200Z NIL=
201905030500 TAF LRTC 030500Z 0306/0315 VRB04KT CAVOK
                      BECMG 0310/0312 19010KT=
201905030800 TAF LRTC 030800Z 0309/0318 VRB04KT CAVOK
                      BECMG 0310/0312 19010KT=
201905031100 TAF LRTC 031100Z 0312/0321 VRB04KT CAVOK
                      BECMG 0312/0314 19010KT=
201905031400 TAF LRTC 031400Z 0315/0324 16014KT CAVOK
                      BECMG 0321/0323 20004KT=
201905031700 TAF LRTC 031700Z NIL=
201905032000 TAF LRTC 032000Z NIL=
201905032300 TAF LRTC 032300Z NIL=
201905040200 TAF LRTC 040200Z NIL=
201905040500 TAF LRTC 040500Z 0406/0415 VRB04KT CAVOK
                      BECMG 0409/0411 18012KT SCT040CB
                      PROB40 TEMPO 0411/0415 VRB20G30KT 3000 TSRA
                       BKN030CB=
201905040800 TAF LRTC 040800Z 0409/0418 VRB04KT CAVOK
                      BECMG 0409/0411 18012KT SCT040CB
                      PROB40 TEMPO 0411/0416 VRB20G30KT 3000 TSRA
                       BKN030CB=
201905041100 TAF LRTC 041100Z 0412/0421 14010KT CAVOK
                      PROB40 TEMPO 0412/0416 VRB20G30KT 3000 TSRA
                       BKN030CB=
201905041400 TAF LRTC 041400Z 0415/0424 14014KT CAVOK
                      PROB40 TEMPO 0415/0417 VRB20G30KT 3000 TSRA
                       BKN030CB
                      BECMG 0417/0419 13004KT=
201905041700 TAF LRTC 041700Z NIL=
201905042000 TAF LRTC 042000Z NIL=
201905042300 TAF LRTC 042300Z NIL=
201905050200 TAF LRTC 050200Z NIL=
201905050500 TAF LRTC 050500Z 0506/0515 14012KT CAVOK
                      BECMG 0506/0508 14015G25KT
                      TEMPO 0509/0515 14025G35KT=
201905050800 TAF LRTC 050800Z 0509/0518 15017KT CAVOK
                      TEMPO 0509/0516 15020G30KT=
201905051100 TAF LRTC 051100Z 0512/0521 15017KT 9999 SCT040
                      TEMPO 0512/0517 15020G30KT
                      PROB30 TEMPO 0517/0521 5000 -SHRA SCT040CB=
201905051400 TAF LRTC 051400Z 0515/0524 15017KT 9999 SCT040
                      TEMPO 0515/0518 15020G30KT=
201905051700 TAF LRTC 051700Z NIL=
201905052000 TAF LRTC 052000Z NIL=
201905052300 TAF LRTC 052300Z NIL=
201905060200 TAF LRTC 060200Z NIL=
201905060500 TAF LRTC 060500Z 0606/0615 16012KT CAVOK
                      TEMPO 0609/0615 15020G30KT FEW050CB=
201905060800 TAF LRTC 060800Z 0609/0618 16012KT 9999 SCT035
                      TEMPO 0609/0616 15020G30KT FEW035CB=
201905061100 TAF LRTC 061100Z 0612/0621 16018KT 9999 SCT040
                      TEMPO 0612/0616 15020G30KT FEW040CB
                      BECMG 0617/0619 15008KT=
201905061400 TAF LRTC 061400Z 0615/0624 16018KT CAVOK
                      BECMG 0617/0619 15008KT
                      TEMPO 0619/0622 5000 -TSRA SCT015 SCT040CB=
201905061700 TAF LRTC 061700Z NIL=
201905062000 TAF LRTC 062000Z NIL=
201905062300 TAF LRTC 062300Z NIL=
201905070200 TAF LRTC 070200Z NIL=
201905070500 TAF LRTC 070500Z 0706/0715 24010KT CAVOK
                      BECMG 0710/0712 31010KT=
201905070702 TAF AMD LRTC 070702Z 0707/0715 24010KT 9999 BKN010
                      BECMG 0707/0709 BKN025
                      BECMG 0710/0712 31010KT=
201905070800 TAF LRTC 070800Z 0709/0718 31010KT 9999 BKN010
                      BECMG 0709/0711 BKN025=
201905071100 TAF LRTC 071100Z 0712/0721 31010KT 9999 BKN030=
201905071400 TAF LRTC 071400Z 0715/0724 33012KT 9999 BKN035=
201905071700 TAF LRTC 071700Z NIL=
201905072000 TAF LRTC 072000Z NIL=
201905072300 TAF LRTC 072300Z NIL=
201905080200 TAF LRTC 080200Z NIL=
201905080500 TAF LRTC 080500Z 0806/0815 30018KT 9999 BKN040
                      TEMPO 0806/0810 5000 -SHRA SCT015 SCT030CB
                       OVC035=
201905080800 TAF LRTC 080800Z 0809/0818 30016KT 9999 BKN040
                      PROB40 TEMPO 0809/0812 5000 -SHRA SCT015
                       SCT030CB OVC035=
201905081100 TAF LRTC 081100Z 0812/0821 30014KT 9999 BKN020 BKN040
                      PROB40 TEMPO 0812/0815 5000 -RA BKN010 OVC035=
201905081400 TAF LRTC 081400Z 0815/0824 30014KT 9999 SCT020 BKN040
                      PROB40 TEMPO 0815/0817 5000 -RA BKN010 OVC035=
201905081700 TAF LRTC 081700Z NIL=
201905082000 TAF LRTC 082000Z NIL=
201905082300 TAF LRTC 082300Z NIL=
201905090200 TAF LRTC 090200Z NIL=
201905090500 TAF LRTC 090500Z 0906/0915 30008KT CAVOK=
201905090800 TAF LRTC 090800Z 0909/0918 30008KT 9999 SCT035
                      BECMG 0915/0917 17012KT=
201905091100 TAF LRTC 091100Z 0912/0921 VRB04KT 9999 SCT045
                      BECMG 0915/0917 17012KT=
201905091400 TAF LRTC 091400Z 0915/0924 17012KT CAVOK=
201905091700 TAF LRTC 091700Z NIL=
201905092000 TAF LRTC 092000Z NIL=
201905092300 TAF LRTC 092300Z NIL=
201905100200 TAF LRTC 100200Z NIL=
201905100500 TAF LRTC 100500Z 1006/1015 17005KT CAVOK
                      BECMG 1007/1009 17015KT
                      TEMPO 1008/1012 5000 -RA BKN015 OVC040=
201905100800 TAF LRTC 100800Z 1009/1018 13010KT CAVOK
                      TEMPO 1009/1013 5000 -RA BKN015 FEW030CB
                       OVC045
                      BECMG 1015/1017 VRB04KT=
201905101100 TAF LRTC 101100Z 1012/1021 13010KT CAVOK
                      TEMPO 1012/1016 5000 -RA BKN015 FEW030CB
                       OVC045
                      BECMG 1015/1017 VRB04KT=
201905101400 TAF LRTC 101400Z 1015/1024 13007KT CAVOK
                      PROB30 TEMPO 1015/1021 5000 -SHRA SCT015
                       FEW030CB OVC045=
201905101700 TAF LRTC 101700Z NIL=
201905102000 TAF LRTC 102000Z NIL=
201905102300 TAF LRTC 102300Z NIL=
201905110200 TAF LRTC 110200Z NIL=
201905110500 TAF LRTC 110500Z 1106/1115 34006KT 9999 BKN005
                      BECMG 1107/1109 SCT025
                      TEMPO 1112/1115 SCT040CB=
201905110800 TAF LRTC 110800Z 1109/1118 33010KT 9999 BKN025
                      BECMG 1112/1114 VRB04KT
                      TEMPO 1112/1116 SCT040CB=
201905111100 TAF LRTC 111100Z 1112/1121 33010KT 9999 BKN040
                      BECMG 1112/1114 VRB04KT
                      TEMPO 1112/1116 SCT040CB=
201905111400 TAF LRTC 111400Z 1115/1124 04006KT CAVOK=
201905111700 TAF LRTC 111700Z NIL=
201905112000 TAF LRTC 112000Z NIL=
201905112300 TAF LRTC 112300Z NIL=
201905120200 TAF LRTC 120200Z NIL=
201905120500 TAF LRTC 120500Z 1206/1215 VRB04KT CAVOK
                      BECMG 1211/1213 13010KT=
201905120800 TAF LRTC 120800Z 1209/1218 VRB04KT 9999 SCT035
                      BECMG 1211/1213 13010KT=
201905121100 TAF LRTC 121100Z 1212/1221 05010KT 9999 SCT045
                      TEMPO 1213/1216 SCT035CB=
201905121400 TAF LRTC 121400Z 1215/1224 10008KT 9999 SCT045=
201905121700 TAF LRTC 121700Z NIL=
201905122000 TAF LRTC 122000Z NIL=
201905122300 TAF LRTC 122300Z NIL=
201905130200 TAF LRTC 130200Z NIL=
201905130500 TAF LRTC 130500Z 1306/1315 05006KT 0600 FG BKN002
                      BECMG 1306/1308 3000 BR BKN010
                      BECMG 1308/1309 CAVOK=
201905130800 TAF LRTC 130800Z 1309/1318 09006KT CAVOK=
201905131100 TAF LRTC 131100Z 1312/1321 08007KT 9999 SCT040=
201905131400 TAF LRTC 131400Z 1315/1324 08007KT 9999 SCT040
                      TEMPO 1315/1318 5000 -SHRA SCT040CB=
201905131700 TAF LRTC 131700Z NIL=
201905132000 TAF LRTC 132000Z NIL=
201905132300 TAF LRTC 132300Z NIL=
201905140200 TAF LRTC 140200Z NIL=
201905140500 TAF LRTC 140500Z 1406/1415 08008KT 5000 BR BKN005
                      BECMG 1406/1408 9999 NSW BKN015
                      BECMG 1408/1410 14012KT SCT015 SCT030
                      PROB30 TEMPO 1410/1415 5000 -SHRA SCT015
                       SCT030CB=
201905140800 TAF LRTC 140800Z 1409/1418 13012KT 9999 SCT030
                      PROB30 TEMPO 1410/1415 5000 -SHRA SCT015
                       SCT030CB=
201905141100 TAF LRTC 141100Z 1412/1421 14012KT 9999 SCT030
                      TEMPO 1412/1416 SCT030CB
                      PROB30 TEMPO 1412/1416 5000 -TSRA=
201905141400 TAF LRTC 141400Z 1415/1424 12010KT 9999 SCT040
                      TEMPO 1415/1417 FEW030CB SCT040=
201905141700 TAF LRTC 141700Z NIL=
201905142000 TAF LRTC 142000Z NIL=
201905142300 TAF LRTC 142300Z NIL=
201905150200 TAF LRTC 150200Z NIL=
201905150500 TAF LRTC 150500Z 1506/1515 VRB04KT 9999 SCT040
                      PROB40 TEMPO 1506/1508 5000 -TSRA SCT045CB
                       BECMG 1508/1509 13012KT
                      TEMPO 1509/1515 14015G25KT=
201905150800 TAF LRTC 150800Z 1509/1518 08012KT CAVOK
                      PROB30 TEMPO 1509/1511 5000 -TSRA SCT045CB=
201905151100 TAF LRTC 151100Z 1512/1521 09012KT CAVOK
                      TEMPO 1512/1515 SCT045CB=
201905151400 TAF LRTC 151400Z 1515/1524 09008KT CAVOK
                      TEMPO 1515/1518 SCT045CB=
201905151700 TAF LRTC 151700Z NIL=
201905152000 TAF LRTC 152000Z NIL=
201905152300 TAF LRTC 152300Z NIL=
201905160200 TAF LRTC 160200Z NIL=
201905160500 TAF LRTC 160500Z 1606/1615 34010KT 9999 BKN040
                      TEMPO 1606/1610 3000 RA BKN010 OVC035
                      PROB40 TEMPO 1610/1615 34015G25KT 5000 -SHRA
                       BKN010 SCT025CB=
201905160800 TAF LRTC 160800Z 1609/1618 34010KT 9999 BKN040
                      PROB40 TEMPO 1609/1615 34015G25KT 5000 -SHRA
                       BKN010 SCT025CB=
201905161100 TAF LRTC 161100Z 1612/1621 34010KT 9999 BKN040
                      PROB40 TEMPO 1612/1615 34015G25KT 5000 -SHRA
                       BKN010 SCT025CB
                      BECMG 1615/1617 VRB04KT=
201905161400 TAF LRTC 161400Z 1615/1624 34010KT CAVOK
                      BECMG 1616/1618 VRB04KT=
201905161700 TAF LRTC 161700Z NIL=
201905162000 TAF LRTC 162000Z NIL=
201905162300 TAF LRTC 162300Z NIL=
201905170200 TAF LRTC 170200Z NIL=
201905170500 TAF LRTC 170500Z 1706/1715 34010KT 0600 FG BKN001
                      BECMG 1706/1708 3000 BR BKN005
                      BECMG 1708/1710 9999 NSW SCT010=
201905170800 TAF LRTC 170800Z 1709/1718 02006KT CAVOK
                      TEMPO 1714/1718 SCT040CB=
201905171100 TAF LRTC 171100Z 1712/1721 05008KT CAVOK
                      TEMPO 1712/1720 5000 -TSRA SCT035CB
                      BECMG 1714/1716 33012KT=
201905171400 TAF LRTC 171400Z 1715/1724 11006KT CAVOK
                      TEMPO 1715/1721 5000 -TSRA SCT035CB
                      BECMG 1715/1717 33010KT=
201905171700 TAF LRTC 171700Z NIL=
201905172000 TAF LRTC 172000Z NIL=
201905172300 TAF LRTC 172300Z NIL=
201905180200 TAF LRTC 180200Z NIL=
201905180500 TAF LRTC 180500Z 1806/1815 34012KT 9999 FEW045CB
                      TEMPO 1811/1815 VRB20G30KT 5000 TSRA BKN035CB=
201905180800 TAF LRTC 180800Z 1809/1818 34012KT 9999 SCT030
                      TEMPO 1811/1816 VRB20G30KT 5000 TSRA BKN035CB=
201905181100 TAF LRTC 181100Z 1812/1821 34015KT 9999 SCT030
                      TEMPO 1812/1816 VRB20G30KT 5000 TSRA SCT030CB=
201905181400 TAF LRTC 181400Z 1815/1824 36010KT CAVOK
                      TEMPO 1815/1817 SCT035CB=
201905181700 TAF LRTC 181700Z NIL=
201905182000 TAF LRTC 182000Z NIL=
201905182300 TAF LRTC 182300Z NIL=
201905190200 TAF LRTC 190200Z NIL=
201905190500 TAF LRTC 190500Z 1906/1915 33008KT CAVOK=
201905190800 TAF LRTC 190800Z 1909/1918 35008KT 9999 SCT030
                      TEMPO 1914/1918 SCT040CB
                      PROB40 TEMPO 1915/1917 3000 TSRA BKN030CB=
201905191100 TAF LRTC 191100Z 1912/1921 33008KT 9999 SCT040
                      TEMPO 1914/1918 SCT040CB
                      PROB40 TEMPO 1915/1917 3000 TSRA BKN030CB=
201905191400 TAF LRTC 191400Z 1915/1924 03008KT 9999 SCT040CB
                      PROB30 TEMPO 1915/1917 3000 TSRA BKN030CB
                       BECMG 1917/1919 CAVOK=
201905191700 TAF LRTC 191700Z NIL=
201905192000 TAF LRTC 192000Z NIL=
201905192300 TAF LRTC 192300Z NIL=
201905200200 TAF LRTC 200200Z NIL=
201905200500 TAF LRTC 200500Z 2006/2015 14012KT CAVOK
                      TEMPO 2010/2015 14015G25KT=
201905200800 TAF LRTC 200800Z 2009/2018 14012KT CAVOK
                      TEMPO 2010/2015 14015G25KT=
201905201100 TAF LRTC 201100Z 2012/2021 14015KT CAVOK
                      TEMPO 2012/2016 14015G25KT=
201905201400 TAF LRTC 201400Z 2015/2024 14012KT CAVOK=
201905201700 TAF LRTC 201700Z NIL=
201905202000 TAF LRTC 202000Z NIL=
201905202300 TAF LRTC 202300Z NIL=
201905210200 TAF LRTC 210200Z NIL=
201905210500 TAF LRTC 210500Z 2106/2115 15006KT CAVOK
                      BECMG 2106/2108 21012KT
                      TEMPO 2111/2115 5000 -TSRA SCT040CB=
201905210800 TAF LRTC 210800Z 2109/2118 20012KT CAVOK
                      TEMPO 2111/2116 5000 -TSRA SCT040CB=
201905211100 TAF LRTC 211100Z 2112/2121 20012KT 9999 SCT045
                      TEMPO 2112/2117 5000 -TSRA SCT040CB
                      BECMG 2118/2120 VRB04KT=
201905211400 TAF LRTC 211400Z 2115/2124 16012KT 9999 SCT045CB
                      TEMPO 2115/2117 VRB15G25KT 3000 TSRA BKN010
                       BKN040
                      BECMG 2118/2120 VRB04KT SCT045=
201905211700 TAF LRTC 211700Z NIL=
201905212000 TAF LRTC 212000Z NIL=
201905212300 TAF LRTC 212300Z NIL=
201905220200 TAF LRTC 220200Z NIL=
201905220500 TAF LRTC 220500Z 2206/2215 25006KT CAVOK
                      TEMPO 2210/2215 25015G25KT FEW050CB=
201905220800 TAF LRTC 220800Z 2209/2218 25010KT CAVOK
                      PROB40 TEMPO 2210/2215 25015G25KT FEW050CB=
201905221100 TAF LRTC 221100Z 2212/2221 25010KT CAVOK
                      PROB40 TEMPO 2212/2216 25015G25KT FEW050CB=
201905221400 TAF LRTC 221400Z 2215/2224 25015KT CAVOK
                      BECMG 2216/2218 25005KT=
201905221700 TAF LRTC 221700Z 2218/2303 22008KT CAVOK=
201905222000 TAF LRTC 222000Z NIL=
201905222300 TAF LRTC 222300Z NIL=
201905230200 TAF LRTC 230200Z NIL=
201905230500 TAF LRTC 230500Z 2306/2315 24008KT CAVOK=
201905230800 TAF LRTC 230800Z 2309/2318 24009KT CAVOK=
201905231100 TAF LRTC 231100Z 2312/2321 24009KT CAVOK=
201905231400 TAF LRTC 231400Z 2315/2324 25009KT CAVOK=
201905231700 TAF LRTC 231700Z NIL=
201905232000 TAF LRTC 232000Z NIL=
201905232300 TAF LRTC 232300Z NIL=
201905240200 TAF LRTC 240200Z NIL=
201905240500 TAF LRTC 240500Z 2406/2415 VRB04KT CAVOK
                      PROB40 TEMPO 2411/2415 VRB15G25KT 5000 -TSRA
                       BKN015 SCT030CB=
201905240800 TAF LRTC 240800Z 2409/2418 VRB04KT 9999 SCT045
                      PROB40 TEMPO 2411/2415 VRB15G25KT 5000 -TSRA
                       BKN015 SCT030CB=
201905241100 TAF LRTC 241100Z 2412/2421 19008KT 9999 SCT045CB
                      TEMPO 2412/2416 VRB15G25KT 3000 TSRA BKN015
                       BKN030CB
                      BECMG 2417/2419 SCT045=
201905241400 TAF LRTC 241400Z 2415/2424 23008KT 9999 SCT045CB
                      PROB40 TEMPO 2415/2418 5000 -TSRA SCT030
                       BECMG 2418/2420 BKN040=
201905241700 TAF LRTC 241700Z NIL=
201905242000 TAF LRTC 242000Z NIL=
201905242300 TAF LRTC 242300Z NIL=
201905250200 TAF LRTC 250200Z NIL=
201905250500 TAF LRTC 250500Z 2506/2515 30010KT CAVOK
                      PROB30 TEMPO 2506/2507 BKN010
                      TEMPO 2507/2509 5000 -SHRA SCT010 SCT035CB
                       TEMPO 2510/2515 VRB20G30KT 3000 TSRA BKN010
                       BKN030CB=
201905250800 TAF LRTC 250800Z 2509/2518 30008KT 9999 SCT035
                      TEMPO 2511/2515 VRB20G30KT 3000 TSRA SCT010
                       BKN030CB=
201905251100 TAF LRTC 251100Z 2512/2521 30008KT 9999 SCT035CB
                      TEMPO 2512/2515 VRB20G30KT 3000 TSRA SCT010
                       BKN030CB
                      BECMG 2515/2517 SCT040=
201905251400 TAF LRTC 251400Z 2515/2524 27012KT 9999 SCT040CB
                      PROB30 TEMPO 2515/2517 VRB20KT 5000 -TSRA
                       BECMG 2517/2519 SCT040=
201905251700 TAF LRTC 251700Z NIL=
201905252000 TAF LRTC 252000Z NIL=
201905252300 TAF LRTC 252300Z NIL=
201905260200 TAF LRTC 260200Z NIL=
201905260500 TAF LRTC 260500Z 2606/2615 32012KT CAVOK
                      TEMPO 2612/2615 FEW040CB=
201905260800 TAF LRTC 260800Z 2609/2618 32012KT CAVOK
                      TEMPO 2612/2615 FEW040CB=
201905261100 TAF LRTC 261100Z 2612/2621 31010KT CAVOK
                      TEMPO 2612/2615 FEW040CB
                      BECMG 2615/2617 VRB04KT=
201905261400 TAF LRTC 261400Z 2615/2624 31010KT CAVOK
                      PROB30 TEMPO 2615/2617 FEW040CB
                      BECMG 2616/2618 VRB04KT=
201905261700 TAF LRTC 261700Z NIL=
201905262000 TAF LRTC 262000Z NIL=
201905262300 TAF LRTC 262300Z NIL=
201905270200 TAF LRTC 270200Z NIL=
201905270500 TAF LRTC 270500Z 2706/2715 VRB04KT CAVOK
                      BECMG 2707/2709 17010KT
                      TEMPO 2710/2715 17015G25KT=
201905270800 TAF LRTC 270800Z 2709/2718 17012KT CAVOK
                      TEMPO 2710/2716 17015G25KT=
201905271100 TAF LRTC 271100Z 2712/2721 15014KT CAVOK
                      TEMPO 2712/2716 16015G25KT=
201905271400 TAF LRTC 271400Z 2715/2724 15014KT CAVOK
                      PROB40 TEMPO 2715/2717 16015G25KT=
201905271700 TAF LRTC 271700Z NIL=
201905272000 TAF LRTC 272000Z NIL=
201905272300 TAF LRTC 272300Z NIL=
201905280200 TAF LRTC 280200Z NIL=
201905280500 TAF LRTC 280500Z 2806/2815 12010KT CAVOK
                      TEMPO 2806/2807 BKN010
                      TEMPO 2808/2814 12020G30KT=
201905280800 TAF LRTC 280800Z 2809/2818 13017KT CAVOK
                      TEMPO 2809/2813 17020G30KT SCT030CB=
201905281100 TAF LRTC 281100Z 2812/2821 13019KT CAVOK
                      TEMPO 2812/2815 14020G30KT SCT030CB
                      BECMG 2817/2819 15008KT=
201905281400 TAF LRTC 281400Z 2815/2824 12019KT CAVOK
                      TEMPO 2815/2817 14020G30KT SCT030CB
                      BECMG 2818/2820 15008KT=
201905281700 TAF LRTC 281700Z NIL=
201905282000 TAF LRTC 282000Z NIL=
201905282300 TAF LRTC 282300Z NIL=
201905290200 TAF LRTC 290200Z NIL=
201905290500 TAF LRTC 290500Z 2906/2915 16010KT 9999 BKN010
                      BECMG 2907/2909 SCT035
                      TEMPO 2912/2915 SCT040CB=
201905290800 TAF LRTC 290800Z 2909/2918 16010KT 9999 SCT035
                      TEMPO 2912/2917 5000 -SHRA SCT040CB
                      PROB40 2912/2916 -TSRA=
201905291100 TAF LRTC 291100Z 2912/2921 15010KT 9999 SCT040
                      TEMPO 2913/2917 5000 -SHRA SCT040CB
                      PROB40 2913/2916 VRB20KT -TSRA=
201905291400 TAF LRTC 291400Z 2915/2924 13012KT 9999 SCT040=
201905291700 TAF LRTC 291700Z NIL=
201905292000 TAF LRTC 292000Z NIL=
201905292300 TAF LRTC 292300Z NIL=
201905300200 TAF LRTC 300200Z NIL=
201905300500 TAF LRTC 300500Z 3006/3015 VRB04KT 9999 SCT040
                      TEMPO 3008/3015 15010KT SCT040CB
                      PROB40 TEMPO 3012/3015 5000 -TSRA=
201905300800 TAF LRTC 300800Z 3009/3018 VRB04KT 9999 SCT040
                      TEMPO 3009/3015 13010KT
                      TEMPO 3011/3018 SCT040CB
                      PROB40 TEMPO 3012/3016 5000 -TSRA=
201905301100 TAF LRTC 301100Z 3012/3021 13010KT 9999 FEW050CB
                      PROB40 TEMPO 3012/3017 VRB15G25KT 5000 -TSRA
                       BKN010 BKN040CB
                      BECMG 3014/3016 VRB04KT
                      BECMG 3017/3018 NSC=
201905301400 TAF LRTC 301400Z 3015/3024 15010KT 9999 FEW050CB
                      PROB30 TEMPO 3015/3017 VRB15G25KT -TSRA
                      BECMG 3017/3018 VRB04KT NSC=
201905301700 TAF LRTC 301700Z NIL=
201905302000 TAF LRTC 302000Z NIL=
201905302300 TAF LRTC 302300Z NIL=
201905310200 TAF LRTC 310200Z NIL=
201905310500 TAF LRTC 310500Z 3106/3115 33010KT 9999 BKN005
                      BECMG 3106/3108 CAVOK
                      TEMPO 3111/3115 5000 -TSRA SCT040CB=
201905310800 TAF LRTC 310800Z 3109/3118 34012KT 9999 SCT020
                      TEMPO 3111/3115 5000 -TSRA SCT040CB=
201905311100 TAF LRTC 311100Z 3112/3121 34008KT 9999 SCT040
                      PROB40 TEMPO 3112/3115 5000 -TSRA SCT040CB=
201905311400 TAF LRTC 311400Z 3115/3124 34008KT 9999 SCT045CB
                      BECMG 3115/3117 SCT045=
201905311700 TAF LRTC 311700Z NIL=
201905312000 TAF LRTC 312000Z NIL=
201905312300 TAF LRTC 312300Z NIL=
