201906010000 METAR LRTC 010000Z AUTO 31009KT 9000 NCD 18/16 Q1014=
201906010030 METAR LRTC 010030Z AUTO 32007KT 9000 NCD 18/16 Q1014=
201906010100 METAR LRTC 010100Z AUTO 32006KT 280V350 8000 NCD 18/16 Q1014=
201906010130 METAR LRTC 010130Z AUTO 26008KT 9999 FEW016/// 18/16 Q1014=
201906010200 METAR LRTC 010200Z AUTO 30007KT 8000 BKN016/// 18/16 Q1014=
201906010230 METAR LRTC 010230Z AUTO 30008KT 9999 BKN015/// 18/16 Q1014=
201906010300 METAR LRTC 010300Z AUTO 31011KT 9999 BKN016/// 19/16 Q1014=
201906010330 METAR LRTC 010330Z AUTO 32014KT 9999 BKN017/// 19/16 Q1014=
201906010400 METAR LRTC 010400Z AUTO 33015KT 9999 NCD 19/16 Q1014=
201906010430 METAR LRTC 010430Z AUTO 33015KT 9999 NCD 20/16 Q1014=
201906010500 METAR LRTC 010500Z 33014KT 9999 FEW021 20/16 Q1014=
201906010530 METAR LRTC 010530Z 34015KT 9999 FEW025 21/16 Q1014=
201906010600 METAR LRTC 010600Z 33014KT 9999 FEW025 21/16 Q1014=
201906010630 METAR LRTC 010630Z 34014KT 310V010 9999 FEW025 22/16 Q1014=
201906010700 METAR LRTC 010700Z 34011KT 310V010 9999 FEW028 23/16 Q1015=
201906010730 METAR LRTC 010730Z 35011KT 9999 SCT028 23/16 Q1015=
201906010800 METAR LRTC 010800Z 34007KT 310V010 9999 SCT025 24/16 Q1015=
201906010830 METAR LRTC 010830Z 30008KT 270V340 9999 BKN024 24/16 Q1015=
201906010900 METAR LRTC 010900Z 31009KT 280V350 9999 BKN026 25/16 Q1015=
201906010930 METAR LRTC 010930Z 29007KT 240V360 9999 SCT030 26/16 Q1015=
201906011000 METAR LRTC 011000Z 30010KT 280V360 9999 SCT033 26/16 Q1015=
201906011030 METAR LRTC 011030Z 31010KT 9999 SCT035 27/16 Q1015=
201906011100 METAR LRTC 011100Z 30010KT 260V350 9999 SCT037 27/15 Q1015=
201906011130 METAR LRTC 011130Z 30012KT 9999 SCT043 28/15 Q1015=
201906011200 METAR LRTC 011200Z 33011KT 300V360 9999 SCT044 28/14 Q1015=
201906011230 METAR LRTC 011230Z 30011KT 9999 SCT048 28/14 Q1014=
201906011300 METAR LRTC 011300Z 31010KT 280V350 9999 SCT048 28/14 Q1014=
201906011330 METAR LRTC 011330Z 33010KT 300V010 9999 SCT048 28/14 Q1014=
201906011400 METAR LRTC 011400Z 31010KT 9999 SCT046 27/15 Q1014=
201906011430 METAR LRTC 011430Z 34008KT 300V010 9999 SCT045 28/15 Q1013=
201906011500 METAR LRTC 011500Z 33010KT 300V360 9999 FEW045 28/15 Q1013=
201906011530 METAR LRTC 011530Z 32009KT 9999 FEW045 28/15 Q1013=
201906011600 METAR LRTC 011600Z 32010KT 9999 FEW045 27/14 Q1013=
201906011630 METAR LRTC 011630Z 32009KT CAVOK 27/15 Q1013=
201906011700 METAR LRTC 011700Z AUTO 32008KT 9999 NCD 26/15 Q1014=
201906011730 METAR LRTC 011730Z AUTO 32007KT 9999 NCD 24/15 Q1014=
201906011800 METAR LRTC 011800Z AUTO 32007KT 9999 NCD 23/15 Q1014=
201906011830 METAR LRTC 011830Z AUTO 32008KT 9999 NCD 22/15 Q1014=
201906011900 METAR LRTC 011900Z AUTO 32011KT 9999 NCD 22/15 Q1015=
201906011930 METAR LRTC 011930Z AUTO 33012KT 9999 NCD 22/16 Q1015=
201906012000 METAR LRTC 012000Z AUTO 35011KT 9999 NCD 21/16 Q1015=
201906012030 METAR LRTC 012030Z AUTO 34008KT 9999 NCD 20/16 Q1015=
201906012100 METAR LRTC 012100Z AUTO 33010KT 9999 NCD 19/15 Q1015=
201906012130 METAR LRTC 012130Z AUTO 32010KT 9999 NCD 19/15 Q1015=
201906012200 METAR LRTC 012200Z AUTO 33011KT 9999 NCD 19/14 Q1015=
201906012230 METAR LRTC 012230Z AUTO 30005KT 270V350 9999 NCD 18/14 Q1015=
201906012300 METAR LRTC 012300Z AUTO 32006KT 9999 NCD 18/14 Q1015=
201906012330 METAR LRTC 012330Z AUTO 32007KT 9999 NCD 17/14 Q1015=
201906020000 METAR LRTC 020000Z AUTO 33005KT 9999 NCD 17/14 Q1015=
201906020030 METAR LRTC 020030Z AUTO 34005KT 8000 NCD 17/14 Q1015=
201906020100 METAR LRTC 020100Z AUTO 32007KT 9999 NCD 16/14 Q1015=
201906020130 METAR LRTC 020130Z AUTO 33005KT 9999 NCD 16/14 Q1015=
201906020200 METAR LRTC 020200Z AUTO 35006KT 9999 NCD 15/14 Q1015=
201906020230 METAR LRTC 020230Z AUTO 32006KT 9999 NCD 15/14 Q1015=
201906020300 METAR LRTC 020300Z AUTO 31007KT 9999 NCD 15/14 Q1015=
201906020330 METAR LRTC 020330Z AUTO 33007KT 9999 NCD 17/14 Q1015=
201906020400 METAR LRTC 020400Z AUTO 32009KT 9999 NCD 18/14 Q1015=
201906020430 METAR LRTC 020430Z AUTO 32009KT 9999 NCD 19/14 Q1015=
201906020500 METAR LRTC 020500Z 34012KT CAVOK 19/14 Q1015=
201906020530 METAR LRTC 020530Z 32011KT CAVOK 20/14 Q1015=
201906020600 METAR LRTC 020600Z 33011KT CAVOK 21/14 Q1016=
201906020630 METAR LRTC 020630Z 30011KT CAVOK 22/15 Q1015=
201906020700 METAR LRTC 020700Z 33010KT 300V010 CAVOK 22/15 Q1015=
201906020730 METAR LRTC 020730Z 34010KT 310V010 CAVOK 23/15 Q1016=
201906020800 METAR LRTC 020800Z 33011KT CAVOK 24/15 Q1015=
201906020830 METAR LRTC 020830Z 33010KT 310V010 CAVOK 24/14 Q1015=
201906020900 METAR LRTC 020900Z 34012KT CAVOK 25/14 Q1016=
201906020930 METAR LRTC 020930Z 34013KT 310V010 CAVOK 26/14 Q1015=
201906021000 METAR LRTC 021000Z 35012KT CAVOK 27/15 Q1015=
201906021030 METAR LRTC 021030Z 36011KT CAVOK 27/15 Q1015=
201906021100 METAR LRTC 021100Z 35009KT 320V040 CAVOK 27/16 Q1015=
201906021130 METAR LRTC 021130Z 33008KT 9999 FEW048 27/16 Q1015=
201906021200 METAR LRTC 021200Z 36013KT 9999 FEW048 28/16 Q1014=
201906021230 METAR LRTC 021230Z 35008KT 320V030 9999 FEW048 28/15 Q1014=
201906021300 METAR LRTC 021300Z 34010KT 9999 FEW048 28/15 Q1014=
201906021330 METAR LRTC 021330Z 01007KT 340V050 9999 FEW044 28/16 Q1014=
201906021400 METAR LRTC 021400Z 02007KT 350V050 9999 FEW045 27/15 Q1013=
201906021430 METAR LRTC 021430Z 01007KT 9999 FEW048 27/16 Q1013=
201906021500 METAR LRTC 021500Z 01005KT 340V050 CAVOK 27/16 Q1013=
201906021530 METAR LRTC 021530Z 05005KT 010V080 CAVOK 27/16 Q1012=
201906021600 METAR LRTC 021600Z 07005KT 040V100 CAVOK 27/17 Q1012=
201906021630 METAR LRTC 021630Z 11005KT CAVOK 26/19 Q1013=
201906021700 METAR LRTC 021700Z AUTO 12005KT 9999 BKN100/// BKN170///
                        24/19 Q1013=
201906021730 METAR LRTC 021730Z AUTO 13008KT 9999 SCT100/// BKN130///
                        BKN190/// 24/19 Q1013=
201906021800 METAR LRTC 021800Z AUTO 14006KT 9999 -DZ SCT100/// BKN140///
                        23/19 Q1013=
201906021830 METAR LRTC 021830Z AUTO 14005KT 9999 -SHRA BKN095/// 23/20
                        Q1013=
201906021900 METAR LRTC 021900Z AUTO 12001KT 7000 FEW090/// BKN100///
                        BKN130/// 22/20 Q1013 REDZ=
201906021930 METAR LRTC 021930Z AUTO VRB01KT 9999 -SHRA FEW110/// SCT130///
                        BKN140/// 22/20 Q1012=
201906022000 METAR LRTC 022000Z AUTO 15003KT 7000 BKN130/// BKN180///
                        21/20 Q1013 REDZ=
201906022030 METAR LRTC 022030Z AUTO 16001KT 9999 BKN120/// 22/20 Q1013=
201906022100 METAR LRTC 022100Z AUTO 28003KT 9999 BKN110/// BKN130///
                        21/19 Q1013=
201906022130 METAR LRTC 022130Z AUTO 34008KT 9000 BKN100/// OVC110///
                        22/19 Q1013=
201906022200 METAR LRTC 022200Z AUTO 32007KT 9999 -SHRA BKN100/// BKN120///
                        22/19 Q1013=
201906022230 METAR LRTC 022230Z AUTO 35006KT 9999 -SHRA FEW085/// BKN120///
                        21/19 Q1013=
201906022300 METAR LRTC 022300Z AUTO 34006KT 9999 SCT120/// OVC140///
                        21/19 Q1013 RERA=
201906022330 METAR LRTC 022330Z AUTO VRB02KT 9000 FEW130/// BKN150///
                        20/19 Q1012 REDZ=
201906030000 METAR LRTC 030000Z AUTO 32010KT 9999 SCT075/// BKN140///
                        BKN160/// 20/18 Q1012=
201906030030 METAR LRTC 030030Z AUTO 32012KT 9999 BKN070/// BKN100///
                        20/18 Q1012=
201906030100 METAR LRTC 030100Z AUTO 32011KT 9999 FEW055/// BKN180///
                        20/18 Q1012=
201906030130 METAR LRTC 030130Z AUTO 33010KT 9000 FEW100/// BKN180///
                        20/18 Q1012=
201906030200 METAR LRTC 030200Z AUTO 33009KT 9999 FEW055/// 19/18 Q1012=
201906030230 METAR LRTC 030230Z AUTO 33008KT 9999 NCD 19/17 Q1012=
201906030300 METAR LRTC 030300Z AUTO 33011KT 9000 NCD 19/17 Q1012=
201906030330 METAR LRTC 030330Z AUTO 33012KT 9999 NCD 19/17 Q1012=
201906030400 METAR LRTC 030400Z AUTO 33011KT 9999 FEW130/// 20/17 Q1012=
201906030430 METAR LRTC 030430Z AUTO 33011KT 9999 BKN130/// 20/18 Q1012=
201906030500 METAR LRTC 030500Z 33010KT 9999 FEW015 21/18 Q1012=
201906030530 METAR LRTC 030530Z 35010KT 320V020 9999 FEW015 22/18 Q1012
                        R16/CLRD//=
201906030600 METAR LRTC 030600Z 35005KT 310V030 9999 FEW018 23/18 Q1012=
201906030630 METAR LRTC 030630Z VRB02KT 9999 SCT017 25/18 Q1013=
201906030700 METAR LRTC 030700Z 16004KT 100V200 9999 FEW018 SCT022 24/18
                        Q1013=
201906030730 METAR LRTC 030730Z 16005KT 120V210 9999 FEW021 SCT027 25/18
                        Q1013=
201906030800 METAR LRTC 030800Z 13005KT 040V190 9999 SCT024 26/18 Q1013=
201906030830 METAR LRTC 030830Z 10006KT 060V150 9999 SCT025 27/17 Q1013=
201906030900 METAR LRTC 030900Z 13007KT 100V190 9999 SCT027 FEW030TCU
                        27/17 Q1013=
201906030930 METAR LRTC 030930Z 15006KT 9999 SCT032 FEW035TCU 27/16 Q1013=
201906031000 METAR LRTC 031000Z 13008KT 100V170 9999 FEW035 FEW037CB 28/15
                        Q1013=
201906031030 METAR LRTC 031030Z 15010KT 100V170 9999 FEW035 FEW037CB 28/15
                        Q1013=
201906031100 METAR LRTC 031100Z 12011KT 090V160 9999 FEW035 FEW037CB 28/15
                        Q1013=
201906031130 METAR LRTC 031130Z 12013KT 100V160 9999 FEW040CB 28/13 Q1012=
201906031200 METAR LRTC 031200Z 13013KT 100V170 9999 FEW040CB 28/14 Q1012=
201906031230 METAR LRTC 031230Z 13010KT 090V160 9999 FEW040CB 28/14 Q1013=
201906031300 METAR LRTC 031300Z 13012KT 100V160 9999 FEW040CB 27/15 Q1012=
201906031330 METAR LRTC 031330Z 12014KT 9999 FEW040TCU 27/16 Q1012=
201906031400 METAR LRTC 031400Z 13013KT 9999 FEW045 27/16 Q1012=
201906031430 METAR LRTC 031430Z 12013KT 9999 FEW045 26/18 Q1012=
201906031500 METAR LRTC 031500Z 13012KT CAVOK 25/17 Q1012=
201906031530 METAR LRTC 031530Z 12010KT CAVOK 25/17 Q1012=
201906031600 METAR LRTC 031600Z 12012KT CAVOK 24/17 Q1012=
201906031630 METAR LRTC 031630Z 11009KT 9999 FEW024 23/17 Q1013=
201906031700 METAR LRTC 031700Z AUTO 10007KT 9999 NCD 22/18 Q1013=
201906031730 METAR LRTC 031730Z AUTO 09006KT 9999 FEW017/// 21/18 Q1013=
201906031800 METAR LRTC 031800Z AUTO 13006KT 9000 NCD 20/18 Q1013=
201906031830 METAR LRTC 031830Z AUTO 12006KT 8000 FEW015/// SCT023///
                        20/18 Q1014=
201906031900 METAR LRTC 031900Z AUTO 16002KT 9000 SCT015/// BKN019///
                        20/18 Q1014=
201906031930 METAR LRTC 031930Z AUTO 15005KT 7000 FEW017/// 20/17 Q1014=
201906032000 METAR LRTC 032000Z AUTO 11006KT 7000 NCD 19/17 Q1014=
201906032030 METAR LRTC 032030Z AUTO 13006KT 6000 NCD 18/17 Q1014=
201906032100 METAR LRTC 032100Z AUTO 12005KT 6000 NCD 18/17 Q1014=
201906032130 METAR LRTC 032130Z AUTO 14005KT 5000 BR NCD 19/17 Q1014=
201906032200 METAR LRTC 032200Z AUTO 17003KT 5000 BR NCD 19/17 Q1014=
201906032230 METAR LRTC 032230Z AUTO VRB02KT 5000 BR FEW021/// 19/17 Q1013=
201906032300 METAR LRTC 032300Z AUTO 27002KT 6000 NCD 18/17 Q1013=
201906032330 METAR LRTC 032330Z AUTO 11002KT 040V140 4700 BR NCD 18/17
                        Q1013=
201906040000 METAR LRTC 040000Z AUTO 05003KT 3200 R34/2000 BR NCD 17/16
                        Q1013=
201906040030 METAR LRTC 040030Z AUTO 01004KT 3100 BR NCD 17/16 Q1013=
201906040100 METAR LRTC 040100Z AUTO 08002KT 3900 BR NCD 18/17 Q1013=
201906040130 METAR LRTC 040130Z AUTO 06003KT 1700 R34/1000VP2000U SHRA
                        NCD 17/16 Q1013=
201906040200 METAR LRTC 040200Z AUTO 01007KT 2500 FEW005/// 15/15 Q1013
                        RERA=
201906040230 METAR LRTC 040230Z AUTO 07004KT 2700 FEW005/// 16/16 Q1013
                        RERA=
201906040300 METAR LRTC 040300Z AUTO 21002KT 170V230 2200 BR FEW012///
                        SCT015/// 16/15 Q1013=
201906040330 METAR LRTC 040330Z AUTO 06004KT 3600 BR FEW018/// 18/18 Q1013=
201906040400 METAR LRTC 040400Z AUTO 05003KT 010V090 3500 BR FEW012///
                        19/18 Q1014=
201906040430 METAR LRTC 040430Z AUTO 10002KT 030V180 5000 BR FEW009///
                        SCT012/// BKN180/// 20/19 Q1013=
201906040500 METAR LRTC 040500Z 10005KT 070V150 7000 SCT010 22/18 Q1013
                        R16/CLRD//=
201906040530 METAR LRTC 040530Z 22003KT 120V250 8000 SCT013 21/18 Q1013=
201906040600 METAR LRTC 040600Z VRB02KT 9999 SCT021 22/18 Q1013=
201906040630 METAR LRTC 040630Z VRB02KT 9999 SCT018 24/18 Q1013=
201906040700 METAR LRTC 040700Z 11005KT 060V160 9999 SCT023 24/16 Q1013=
201906040730 METAR LRTC 040730Z 12004KT 040V200 9999 SCT025 FEW030TCU
                        25/14 Q1013=
201906040800 METAR LRTC 040800Z 16004KT 120V200 9999 SCT028 FEW035TCU
                        24/16 Q1013=
201906040830 METAR LRTC 040830Z 18007KT 150V210 9999 FEW035 FEW040TCU
                        25/14 Q1013=
201906040900 METAR LRTC 040900Z 16010KT 9999 FEW035 FEW040CB 24/16 Q1014=
201906040930 METAR LRTC 040930Z 21011KT 190V250 4000 TSRA FEW021 BKN029CB
                        18/14 Q1014 RETSRA R16/29//95=
201906041000 METAR LRTC 041000Z 19007KT 9999 -SHRA VCTS FEW023 SCT036CB
                        20/16 Q1014 RETS R16/29//95=
201906041030 METAR LRTC 041030Z 18009KT 8000 -SHRA FEW029 SCT040CB 21/18
                        Q1013 R16/29//95=
201906041100 METAR LRTC 041100Z 16006KT 9999 FEW040CB 22/18 Q1013 R16/29//95=
201906041130 METAR LRTC 041130Z 15006KT 110V180 CAVOK 22/17 Q1013 R16/29//95=
201906041200 METAR LRTC 041200Z 12004KT 060V180 CAVOK 23/15 Q1013 R16/29//95=
201906041230 METAR LRTC 041230Z 15010KT 120V190 9999 FEW045 26/12 Q1013
                        R16/29//95=
201906041300 METAR LRTC 041300Z 18010KT CAVOK 25/10 Q1013 R16/29//95=
201906041330 METAR LRTC 041330Z 16012KT 130V190 CAVOK 26/10 Q1012 R16/29//95=
201906041400 METAR LRTC 041400Z 16012KT CAVOK 26/09 Q1012 R16/29//95=
201906041430 METAR LRTC 041430Z 16014KT CAVOK 26/09 Q1012 R16/29//95=
201906041500 METAR LRTC 041500Z 16014KT CAVOK 25/10 Q1012 R16/29//95=
201906041530 METAR LRTC 041530Z 16013KT 9999 FEW050TCU 25/11 Q1012 R16/29//95=
201906041600 METAR LRTC 041600Z 16012KT 9999 FEW050CB 24/13 Q1012 R16/29//95=
201906041630 METAR LRTC 041630Z 16010KT 9999 FEW050CB 23/13 Q1012 R16/29//95=
201906041700 METAR LRTC 041700Z AUTO 18007KT 9999 FEW095/// 21/14 Q1013=
201906041730 METAR LRTC 041730Z AUTO 16006KT 9999 FEW095/// 20/14 Q1013=
201906041800 METAR LRTC 041800Z AUTO 16004KT 9999 FEW095/// 20/14 Q1013=
201906041830 METAR LRTC 041830Z AUTO 13006KT 9000 FEW100/// 19/14 Q1014=
201906041900 METAR LRTC 041900Z AUTO 14004KT 9999 NCD 18/14 Q1014=
201906041930 METAR LRTC 041930Z AUTO 15005KT 9999 NCD 18/14 Q1014=
201906042000 METAR LRTC 042000Z AUTO 13003KT 100V170 9999 NCD 17/14 Q1014=
201906042030 METAR LRTC 042030Z AUTO 15005KT 9999 NCD 17/14 Q1014=
201906042100 METAR LRTC 042100Z AUTO 14002KT 110V190 9000 NCD 17/14 Q1014=
201906042130 METAR LRTC 042130Z AUTO 21002KT 8000 NCD 17/14 Q1014=
201906042200 METAR LRTC 042200Z AUTO 20002KT 9000 NCD 17/14 Q1014=
201906042230 METAR LRTC 042230Z AUTO 02004KT 7000 NCD 15/14 Q1014=
201906042300 METAR LRTC 042300Z AUTO 36004KT 7000 FEW120/// 16/14 Q1014=
201906042330 METAR LRTC 042330Z AUTO 04004KT 8000 FEW055/// 15/13 Q1014=
201906050000 METAR LRTC 050000Z AUTO 33002KT 290V040 8000 NCD 14/13 Q1014=
201906050030 METAR LRTC 050030Z AUTO 31003KT 9999 NCD 15/14 Q1014=
201906050100 METAR LRTC 050100Z AUTO 00000KT 6000 NCD 13/12 Q1013=
201906050130 METAR LRTC 050130Z AUTO 03002KT 020V080 6000 NCD 13/12 Q1013=
201906050200 METAR LRTC 050200Z AUTO 04004KT 5000 BR NCD 12/12 Q1013=
201906050230 METAR LRTC 050230Z AUTO 02002KT 300V030 7000 FEW100/// 14/13
                        Q1014=
201906050300 METAR LRTC 050300Z AUTO 36004KT 5000 BR FEW100/// 13/12 Q1014=
201906050330 METAR LRTC 050330Z AUTO 36003KT 8000 R34/1300VP2000U NCD
                        15/14 Q1014=
201906050400 METAR LRTC 050400Z AUTO VRB03KT 8000 NCD 16/14 Q1014=
201906050430 METAR LRTC 050430Z AUTO 23004KT 7000 BKN020/// 17/16 Q1014=
201906050500 METAR LRTC 050500Z 21003KT 9999 FEW022 19/16 Q1014 R16/CLRD//=
201906050530 METAR LRTC 050530Z VRB01KT 9999 FEW025 21/16 Q1014=
201906050600 METAR LRTC 050600Z 22003KT 160V330 9999 FEW025 22/16 Q1014=
201906050630 METAR LRTC 050630Z 14004KT 120V190 9999 SCT028 23/16 Q1014=
201906050700 METAR LRTC 050700Z VRB04KT 9999 SCT024 24/15 Q1014=
201906050730 METAR LRTC 050730Z 16007KT 9999 BKN032 25/15 Q1014=
201906050800 METAR LRTC 050800Z VRB05KT 9999 SCT032 FEW036TCU 25/14 Q1014=
201906050830 METAR LRTC 050830Z 13007KT 090V180 9999 SCT035 FEW038TCU
                        24/12 Q1015=
201906050900 METAR LRTC 050900Z 14008KT 090V180 9999 SCT040 27/11 Q1014=
201906050930 METAR LRTC 050930Z 12007KT 070V150 9999 SCT045 27/11 Q1014=
201906051000 METAR LRTC 051000Z 16010KT 130V190 9999 SCT048 27/09 Q1014=
201906051030 METAR LRTC 051030Z 13007KT 100V160 CAVOK 27/09 Q1014=
201906051100 METAR LRTC 051100Z 15008KT 110V180 CAVOK 28/09 Q1014=
201906051130 METAR LRTC 051130Z 17011KT CAVOK 27/08 Q1014=
201906051200 METAR LRTC 051200Z 14009KT 100V200 CAVOK 28/09 Q1014=
201906051230 METAR LRTC 051230Z 14009KT 100V180 CAVOK 28/09 Q1013=
201906051300 METAR LRTC 051300Z 15009KT 120V180 CAVOK 28/09 Q1013=
201906051330 METAR LRTC 051330Z 17010KT CAVOK 28/09 Q1013=
201906051400 METAR LRTC 051400Z 12010KT 090V160 CAVOK 28/11 Q1013=
201906051430 METAR LRTC 051430Z 13012KT 090V150 CAVOK 27/11 Q1013=
201906051500 METAR LRTC 051500Z 16009KT CAVOK 27/12 Q1013=
201906051530 METAR LRTC 051530Z 16011KT CAVOK 26/13 Q1013=
201906051600 METAR LRTC 051600Z 16008KT CAVOK 26/12 Q1013=
201906051630 METAR LRTC 051630Z 17008KT CAVOK 25/14 Q1013=
201906051700 METAR LRTC 051700Z AUTO 17005KT 9999 NCD 24/15 Q1013=
201906051730 METAR LRTC 051730Z AUTO 16005KT 8000 NCD 22/15 Q1013=
201906051800 METAR LRTC 051800Z AUTO 16005KT 9999 NCD 21/15 Q1013=
201906051830 METAR LRTC 051830Z AUTO 10005KT 9999 NCD 20/16 Q1014=
201906051900 METAR LRTC 051900Z AUTO 19004KT 9999 NCD 20/16 Q1014=
201906051930 METAR LRTC 051930Z AUTO 19006KT 9999 NCD 19/16 Q1014=
201906052000 METAR LRTC 052000Z AUTO 21007KT 9999 NCD 18/16 Q1014=
201906052030 METAR LRTC 052030Z AUTO 35002KT 6000 NCD 17/16 Q1014=
201906052100 METAR LRTC 052100Z AUTO 05002KT 6000 NCD 18/16 Q1014=
201906052130 METAR LRTC 052130Z AUTO 29002KT 240V300 6000 NCD 17/16 Q1014=
201906052200 METAR LRTC 052200Z AUTO 24002KT 220V030 7000 NCD 17/15 Q1014=
201906052230 METAR LRTC 052230Z AUTO 23002KT 9000 NCD 18/16 Q1014=
201906052300 METAR LRTC 052300Z AUTO 00000KT 7000 NCD 17/16 Q1014=
201906052330 METAR LRTC 052330Z AUTO 25004KT 9000 NCD 16/15 Q1014=
201906060000 METAR LRTC 060000Z AUTO 03004KT 3400 BR NCD 15/15 Q1014=
201906060030 METAR LRTC 060030Z AUTO 01004KT 6000 NCD 16/16 Q1014=
201906060100 METAR LRTC 060100Z AUTO 36004KT 8000 NCD 16/15 Q1014=
201906060130 METAR LRTC 060130Z AUTO 26001KT 5000 BR NCD 14/13 Q1014=
201906060200 METAR LRTC 060200Z AUTO 23005KT 5000 BR NCD 14/14 Q1014=
201906060230 METAR LRTC 060230Z AUTO 11002KT 080V180 3300 BR NCD 13/11
                        Q1014=
201906060300 METAR LRTC 060300Z AUTO 00000KT 3700 BR NCD 14/13 Q1015=
201906060330 METAR LRTC 060330Z AUTO 05003KT 5000 BR NCD 15/14 Q1015=
201906060400 METAR LRTC 060400Z AUTO 00000KT 7000 NCD 16/15 Q1015=
201906060430 METAR LRTC 060430Z AUTO VRB01KT 7000 NCD 17/15 Q1015=
201906060500 METAR LRTC 060500Z VRB02KT CAVOK 19/15 Q1015 R16/CLRD//=
201906060530 METAR LRTC 060530Z VRB01KT CAVOK 22/15 Q1015=
201906060600 METAR LRTC 060600Z VRB03KT CAVOK 23/14 Q1015=
201906060630 METAR LRTC 060630Z VRB02KT CAVOK 25/14 Q1015=
201906060700 METAR LRTC 060700Z 19004KT 110V220 CAVOK 25/13 Q1015=
201906060730 METAR LRTC 060730Z VRB03KT CAVOK 26/12 Q1015=
201906060800 METAR LRTC 060800Z 20005KT 150V250 CAVOK 26/11 Q1015=
201906060830 METAR LRTC 060830Z VRB04KT CAVOK 27/11 Q1015=
201906060900 METAR LRTC 060900Z VRB03KT CAVOK 28/11 Q1015=
201906060930 METAR LRTC 060930Z VRB05KT CAVOK 29/11 Q1015=
201906061000 METAR LRTC 061000Z 20007KT 170V230 9999 FEW049 29/10 Q1015=
201906061030 METAR LRTC 061030Z 17007KT 140V210 9999 FEW049 29/10 Q1015=
201906061100 METAR LRTC 061100Z 18006KT 130V220 9999 FEW055TCU 30/09 Q1015=
201906061130 METAR LRTC 061130Z VRB03KT 9999 FEW055TCU 30/09 Q1014=
201906061200 METAR LRTC 061200Z 18007KT 120V220 9999 FEW055TCU 29/12 Q1014=
201906061230 METAR LRTC 061230Z 16009KT 130V190 9999 FEW055CB 29/12 Q1014=
201906061300 METAR LRTC 061300Z 15010KT 9999 FEW055CB 29/12 Q1014=
201906061330 METAR LRTC 061330Z 12007KT 070V160 9999 FEW055CB 29/11 Q1014=
201906061400 METAR LRTC 061400Z 15005KT 110V190 9999 FEW055CB 29/13 Q1014=
201906061430 METAR LRTC 061430Z 14007KT 9999 VCSH FEW050CB 28/11 Q1014=
201906061500 METAR LRTC 061500Z 17011KT 9999 VCSH FEW050CB 26/13 Q1014=
201906061530 METAR LRTC 061530Z 18009KT 9999 VCSH FEW050CB 25/14 Q1014=
201906061600 METAR LRTC 061600Z 16007KT 9999 VCSH FEW050CB 25/13 Q1015=
201906061630 METAR LRTC 061630Z 19004KT 9999 VCSH FEW050CB 24/14 Q1015=
201906061700 METAR LRTC 061700Z AUTO 15004KT 9999 FEW090/// BKN110///
                        24/14 Q1015=
201906061730 METAR LRTC 061730Z AUTO 12007KT 9999 SCT090/// BKN100///
                        BKN120/// 23/14 Q1015=
201906061800 METAR LRTC 061800Z AUTO 14006KT 9999 BKN095/// 23/14 Q1015=
201906061830 METAR LRTC 061830Z AUTO 14005KT 9999 BKN100/// 23/15 Q1015=
201906061900 METAR LRTC 061900Z AUTO 12004KT 9999 SCT100/// BKN140///
                        22/16 Q1016=
201906061930 METAR LRTC 061930Z AUTO 17005KT 9999 SCT100/// 22/16 Q1016=
201906062000 METAR LRTC 062000Z AUTO 16005KT 9000 FEW110/// BKN240///
                        21/16 Q1015=
201906062030 METAR LRTC 062030Z AUTO 21002KT 180V290 9999 NCD 20/16 Q1015=
201906062100 METAR LRTC 062100Z AUTO 14004KT 8000 NCD 20/16 Q1015=
201906062130 METAR LRTC 062130Z AUTO 14004KT 8000 SCT120/// 20/17 Q1015=
201906062200 METAR LRTC 062200Z AUTO 25003KT 210V290 8000 FEW120/// 19/16
                        Q1016=
201906062230 METAR LRTC 062230Z AUTO VRB01KT 9000 FEW120/// 19/16 Q1015=
201906062300 METAR LRTC 062300Z AUTO 00000KT 8000 NCD 19/17 Q1015=
201906062330 METAR LRTC 062330Z AUTO 26001KT 7000 NCD 19/17 Q1015=
201906070000 METAR LRTC 070000Z AUTO 20001KT 6000 NCD 18/16 Q1015=
201906070030 METAR LRTC 070030Z AUTO 18002KT 170V230 5000 BR NCD 17/16
                        Q1015=
201906070100 METAR LRTC 070100Z AUTO 29003KT 6000 NCD 16/15 Q1015=
201906070130 METAR LRTC 070130Z AUTO 03003KT 4800 BR NCD 16/15 Q1015=
201906070200 METAR LRTC 070200Z AUTO 01003KT 4900 BR NCD 15/14 Q1015=
201906070230 METAR LRTC 070230Z AUTO 34003KT 7000 NCD 16/15 Q1015=
201906070300 METAR LRTC 070300Z AUTO 29001KT 4900 BR NCD 15/14 Q1015=
201906070330 METAR LRTC 070330Z AUTO 00000KT 5000 BR NCD 16/15 Q1015=
201906070400 METAR LRTC 070400Z AUTO 00000KT 6000 NCD 19/16 Q1016=
201906070430 METAR LRTC 070430Z AUTO 20002KT 150V260 9000 NCD 20/17 Q1016=
201906070500 METAR LRTC 070500Z VRB02KT CAVOK 21/17 Q1016 R16/CLRD//=
201906070530 METAR LRTC 070530Z VRB02KT CAVOK 23/18 Q1016=
201906070600 METAR LRTC 070600Z 10003KT 040V150 CAVOK 25/18 Q1017=
201906070630 METAR LRTC 070630Z VRB02KT CAVOK 26/18 Q1017=
201906070700 METAR LRTC 070700Z VRB03KT 9999 FEW040 27/17 Q1017=
201906070730 METAR LRTC 070730Z VRB03KT 9999 FEW035 FEW040TCU 27/17 Q1017=
201906070800 METAR LRTC 070800Z 20003KT 140V280 9999 SCT035 FEW040TCU
                        27/17 Q1017=
201906070830 METAR LRTC 070830Z VRB04KT 9999 FEW040 SCT044CB 27/16 Q1017=
201906070900 METAR LRTC 070900Z 01012KT 340V040 9999 -TSRA FEW040 SCT045CB
                        24/16 Q1017 RESHRA R16/29//95=
201906070930 METAR LRTC 070930Z 07004KT 9999 FEW025 SCT047CB 26/19 Q1017
                        RETS R16/29//95=
201906071000 METAR LRTC 071000Z 03004KT 350V070 9999 VCTS FEW040 SCT045CB
                        27/17 Q1016 R16/29//95=
201906071030 METAR LRTC 071030Z 06005KT 020V100 9999 VCTS SCT044 SCT048CB
                        27/16 Q1016 R16/CLRD//=
201906071100 METAR LRTC 071100Z 23011G22KT 9999 TS VCSH FEW035 BKN040CB
                        24/16 Q1017=
201906071130 METAR LRTC 071130Z 23006KT 9999 SCT040CB 25/16 Q1016 RETS=
201906071200 METAR LRTC 071200Z 23007KT 190V260 9999 FEW045CB 29/14 Q1016=
201906071230 METAR LRTC 071230Z 22006KT 160V250 9999 FEW045TCU 30/14 Q1016=
201906071300 METAR LRTC 071300Z VRB03KT 9999 FEW050CB 30/14 Q1016=
201906071330 METAR LRTC 071330Z VRB03KT 9999 SCT045CB 29/15 Q1016=
201906071400 METAR LRTC 071400Z 23011KT 200V260 9999 3000S TSRA FEW025
                        BKN035CB 24/16 Q1016=
201906071430 METAR COR LRTC 071430Z 27005KT 200V320 9999 -TSRA FEW038
                        BKN044CB 24/18 Q1016=
201906071500 METAR LRTC 071500Z 07005KT 020V120 9999 FEW029 SCT040CB 25/19
                        Q1016 RETS=
201906071530 METAR LRTC 071530Z 22003KT 170V260 9999 SCT045CB 24/19 Q1016=
201906071600 METAR LRTC 071600Z 05005KT 030V100 9999 FEW045CB 26/17 Q1017=
201906071630 METAR LRTC 071630Z 03007KT 9999 FEW045CB 25/15 Q1017=
201906071700 METAR LRTC 071700Z AUTO VRB01KT 9999 NCD 25/17 Q1017=
201906071730 METAR LRTC 071730Z AUTO 06002KT 9999 NCD 24/17 Q1017=
201906071800 METAR LRTC 071800Z AUTO 02001KT 9999 NCD 23/17 Q1016=
201906071830 METAR LRTC 071830Z AUTO 30002KT 9999 FEW170/// 21/18 Q1017=
201906071900 METAR LRTC 071900Z AUTO 35004KT 9999 NCD 20/17 Q1017=
201906071930 METAR LRTC 071930Z AUTO 32005KT 9999 NCD 20/17 Q1017=
201906072000 METAR LRTC 072000Z AUTO 01003KT 350V050 8000 NCD 19/17 Q1017=
201906072030 METAR LRTC 072030Z AUTO 20001KT 8000 NCD 19/17 Q1017=
201906072100 METAR LRTC 072100Z AUTO 36005KT 8000 NCD 18/16 Q1018=
201906072130 METAR LRTC 072130Z AUTO 32004KT 9000 NCD 18/16 Q1018=
201906072200 METAR LRTC 072200Z AUTO 34004KT 7000 NCD 18/17 Q1017=
201906072230 METAR LRTC 072230Z AUTO 32005KT 8000 FEW240/// 18/17 Q1017=
201906072300 METAR LRTC 072300Z AUTO 31006KT 8000 FEW240/// 19/17 Q1017=
201906072330 METAR LRTC 072330Z AUTO 09002KT 6000 BKN150/// 18/16 Q1017=
201906080000 METAR LRTC 080000Z AUTO VRB01KT 7000 BKN150/// 18/17 Q1017=
201906080030 METAR LRTC 080030Z AUTO 05002KT 5000 BR NCD 17/16 Q1017=
201906080100 METAR LRTC 080100Z AUTO 30003KT 6000 NCD 17/16 Q1017=
201906080130 METAR LRTC 080130Z AUTO 23005KT 190V260 5000 BR FEW006///
                        16/16 Q1017=
201906080200 METAR LRTC 080200Z AUTO 28003KT 260V020 6000 NCD 17/16 Q1017=
201906080230 METAR LRTC 080230Z AUTO 06001KT 3800 BR SCT005/// 17/16 Q1017=
201906080300 METAR LRTC 080300Z AUTO 06001KT 5000 BR BKN002/// OVC005///
                        18/17 Q1017=
201906080330 METAR LRTC 080330Z AUTO 06003KT 0550 R34/0500V1000N FG BKN001///
                        OVC003/// 18/17 Q1017=
201906080400 METAR LRTC 080400Z AUTO 00000KT 0350 R34/0450N FG VV001 19/18
                        Q1017=
201906080430 METAR LRTC 080430Z AUTO 23003KT 0200 R34/0250N FG VV001 19/18
                        Q1017=
201906080500 METAR LRTC 080500Z VRB02KT 0200 R34/0325N FG VV001 20/19
                        Q1018=
201906080530 METAR LRTC 080530Z VRB02KT 3000 BR BKN001 21/20 Q1018=
201906080600 METAR LRTC 080600Z VRB02KT 6000 BKN003 21/21 Q1018=
201906080630 METAR LRTC 080630Z VRB03KT 7000 SCT006 23/21 Q1018=
201906080700 METAR LRTC 080700Z VRB01KT 9999 FEW025 25/20 Q1018=
201906080730 METAR LRTC 080730Z VRB02KT 9999 FEW030 26/17 Q1018=
201906080800 METAR LRTC 080800Z VRB02KT 9999 FEW035 28/17 Q1017=
201906080830 METAR LRTC 080830Z 05005KT 320V100 9999 SCT040 28/16 Q1017=
201906080900 METAR LRTC 080900Z 34005KT 270V020 9999 FEW045 FEW048TCU
                        29/15 Q1017=
201906080930 METAR LRTC 080930Z VRB02KT 9999 TS VCSH FEW045 SCT048CB 29/13
                        Q1017=
201906081000 METAR LRTC 081000Z 34003KT 310V030 9999 VCSH FEW045 SCT048CB
                        28/14 Q1017 RETS=
201906081030 METAR LRTC 081030Z 23006KT 190V260 9999 VCSH FEW043 SCT045CB
                        26/18 Q1017=
201906081100 METAR LRTC 081100Z 22007KT 9999 FEW045 SCT048CB 27/18 Q1017=
201906081130 METAR LRTC 081130Z 19007KT 150V220 9999 VCTS FEW045 SCT048CB
                        28/17 Q1017=
201906081200 METAR LRTC 081200Z 18010KT 9999 FEW045 FEW048CB 28/17 Q1017=
201906081230 METAR LRTC 081230Z 16006KT 120V200 9999 VCSH SCT050CB 28/16
                        Q1016=
201906081300 METAR LRTC 081300Z 18006KT 150V210 9999 FEW045 SCT050CB 29/15
                        Q1016=
201906081330 METAR LRTC 081330Z 25003KT 200V290 9999 -TSRA FEW030 SCT040CB
                        27/18 Q1017=
201906081400 METAR LRTC 081400Z 04011KT 9999 -TSRA FEW034 SCT045CB 24/14
                        Q1017=
201906081430 METAR LRTC 081430Z 01012KT 9999 TS VCSH SCT045CB 24/17 Q1017=
201906081500 METAR LRTC 081500Z 07005KT 9999 VCSH FEW036 SCT045CB 23/17
                        Q1017=
201906081530 METAR LRTC 081530Z 09005KT 9999 FEW050CB 23/17 Q1017=
201906081600 METAR LRTC 081600Z 15003KT 120V200 9999 FEW020 FEW050CB 23/18
                        Q1017=
201906081630 METAR LRTC 081630Z 25004KT CAVOK 23/18 Q1017=
201906081700 METAR LRTC 081700Z AUTO 22003KT 9999 SCT120/// 23/18 Q1017=
201906081730 METAR LRTC 081730Z AUTO 34003KT 9999 BKN120/// 23/18 Q1017=
201906081800 METAR LRTC 081800Z AUTO 34004KT 9999 FEW120/// BKN140///
                        22/18 Q1017=
201906081830 METAR LRTC 081830Z AUTO 36004KT 9999 FEW120/// BKN140///
                        21/19 Q1017=
201906081900 METAR LRTC 081900Z AUTO 33005KT 9999 BKN120/// BKN140///
                        21/18 Q1017=
201906081930 METAR LRTC 081930Z AUTO 34004KT 9999 BKN130/// 21/18 Q1017=
201906082000 METAR LRTC 082000Z AUTO 32006KT 9999 BKN130/// 21/18 Q1018=
201906082030 METAR LRTC 082030Z AUTO 22002KT 200V280 9999 BKN130/// 20/18
                        Q1017=
201906082100 METAR LRTC 082100Z AUTO 33003KT 310V010 9000 FEW130/// 20/18
                        Q1017=
201906082130 METAR LRTC 082130Z AUTO 25002KT 9999 NCD 19/17 Q1017=
201906082200 METAR LRTC 082200Z AUTO 36002KT 330V030 9999 NCD 19/17 Q1018=
201906082230 METAR LRTC 082230Z AUTO 00000KT 9999 NCD 19/17 Q1017=
201906082300 METAR LRTC 082300Z AUTO VRB01KT 9000 FEW130/// 18/17 Q1018=
201906082330 METAR LRTC 082330Z AUTO 36003KT 330V030 8000 NCD 18/17 Q1018=
201906090000 METAR LRTC 090000Z AUTO 34008KT 9999 NCD 18/17 Q1018=
201906090030 METAR LRTC 090030Z AUTO 32005KT 9999 NCD 19/17 Q1018=
201906090100 METAR LRTC 090100Z AUTO 33008KT 9999 NCD 18/17 Q1018=
201906090130 METAR LRTC 090130Z AUTO 33007KT 8000 NCD 18/17 Q1018=
201906090200 METAR LRTC 090200Z AUTO 32005KT 290V350 7000 NCD 18/17 Q1018=
201906090230 METAR LRTC 090230Z AUTO 33007KT 7000 FEW009/// 18/17 Q1018=
201906090300 METAR LRTC 090300Z AUTO 34010KT 8000 FEW007/// SCT110///
                        19/17 Q1018=
201906090330 METAR LRTC 090330Z AUTO 34008KT 8000 FEW020/// BKN110///
                        19/17 Q1019=
201906090400 METAR LRTC 090400Z AUTO 34008KT 9999 FEW023/// BKN110///
                        19/16 Q1019=
201906090430 METAR LRTC 090430Z 34009KT CAVOK 20/16 Q1019=
201906090500 METAR LRTC 090500Z 35010KT CAVOK 21/16 Q1019 R16/CLRD//=
201906090530 METAR LRTC 090530Z 36010KT 9999 FEW025 22/15 Q1019=
201906090600 METAR LRTC 090600Z 36010KT 330V030 CAVOK 23/15 Q1019=
201906090630 METAR LRTC 090630Z 35010KT 320V030 CAVOK 24/15 Q1019=
201906090700 METAR LRTC 090700Z 35010KT 310V020 CAVOK 24/14 Q1019=
201906090730 METAR LRTC 090730Z 35011KT 330V030 CAVOK 25/15 Q1019=
201906090800 METAR LRTC 090800Z 34011KT 300V010 CAVOK 26/14 Q1019=
201906090830 METAR LRTC 090830Z 35011KT CAVOK 26/15 Q1019=
201906090900 METAR LRTC 090900Z 34012KT 300V010 9999 FEW040 26/15 Q1019=
201906090930 METAR LRTC 090930Z 34012KT 310V010 9999 FEW046 FEW048TCU
                        28/16 Q1019=
201906091000 METAR LRTC 091000Z 34012KT 300V030 9999 FEW046 FEW048TCU
                        28/16 Q1019=
201906091030 METAR LRTC 091030Z 35012KT 320V020 9999 VCSH FEW045 SCT048CB
                        29/15 Q1019=
201906091100 METAR LRTC 091100Z 34016KT 9999 VCSH SCT046 SCT048CB 24/15
                        Q1019=
201906091130 METAR LRTC 091130Z 30008KT 9999 FEW040 SCT045CB 25/19 Q1018=
201906091200 METAR LRTC 091200Z 33009KT 290V020 9999 FEW045 FEW048CB 29/16
                        Q1018=
201906091230 METAR LRTC 091230Z 34013KT 9999 SCT045 FEW048CB 28/16 Q1017=
201906091300 METAR LRTC 091300Z 34014KT 9999 FEW048 SCT050CB 30/14 Q1017=
201906091330 METAR LRTC 091330Z 05010KT 020V080 9999 FEW048 SCT050CB 28/13
                        Q1017=
201906091400 METAR LRTC 091400Z 04010KT 9999 SCT050CB 28/14 Q1017=
201906091430 METAR LRTC 091430Z 04013KT 9999 SCT050CB 30/14 Q1017=
201906091500 METAR LRTC 091500Z 03013KT 9999 VCTS VCSH SCT050CB 29/15
                        Q1017=
201906091530 METAR LRTC 091530Z 05009KT 9999 SCT050CB 27/16 Q1017=
201906091600 METAR LRTC 091600Z 33014KT 9999 BKN044CB 24/16 Q1017=
201906091630 METAR LRTC 091630Z 33013KT 9999 SCT041CB 23/17 Q1018 RETS=
201906091700 METAR LRTC 091700Z AUTO 33012KT 9999 FEW130/// 22/18 Q1018=
201906091730 METAR LRTC 091730Z AUTO 33011KT 9999 NCD 21/18 Q1018=
201906091800 METAR LRTC 091800Z AUTO 32010KT 9000 FEW140/// 20/17 Q1018=
201906091830 METAR LRTC 091830Z AUTO 33011KT 9999 SCT130/// 20/17 Q1018=
201906091900 METAR LRTC 091900Z AUTO 34009KT 9999 FEW140/// 20/17 Q1018=
201906091930 METAR LRTC 091930Z AUTO 33012KT 9999 NCD 20/17 Q1018=
201906092000 METAR LRTC 092000Z AUTO 32013KT 9999 NCD 19/17 Q1018=
201906092030 METAR LRTC 092030Z AUTO 33012KT 9000 NCD 19/17 Q1018=
201906092100 METAR LRTC 092100Z AUTO 33014KT 9999 NCD 19/16 Q1017=
201906092130 METAR LRTC 092130Z AUTO 32012KT 9999 NCD 19/16 Q1017=
201906092200 METAR LRTC 092200Z AUTO 33012KT 9999 NCD 19/16 Q1017=
201906092230 METAR LRTC 092230Z AUTO 34010KT 9999 FEW085/// 19/16 Q1017=
201906092300 METAR LRTC 092300Z AUTO 32011KT 9999 FEW060/// SCT080///
                        19/16 Q1017=
201906092330 METAR LRTC 092330Z AUTO 33012KT 9999 FEW055/// SCT070///
                        20/16 Q1017=
201906100000 METAR LRTC 100000Z AUTO 33013KT 9999 NCD 19/16 Q1016=
201906100030 METAR LRTC 100030Z AUTO 33012KT 9999 NCD 19/16 Q1016=
201906100100 METAR LRTC 100100Z AUTO 33011KT 9999 NCD 19/17 Q1016=
201906100130 METAR LRTC 100130Z AUTO 32012KT 9000 NCD 19/17 Q1016=
201906100200 METAR LRTC 100200Z AUTO 34012KT 9999 NCD 20/17 Q1016=
201906100230 METAR LRTC 100230Z AUTO 34011KT 9999 NCD 20/17 Q1016=
201906100300 METAR LRTC 100300Z AUTO 35010KT 9999 NCD 20/17 Q1016=
201906100330 METAR LRTC 100330Z AUTO 34012KT 9999 NCD 21/17 Q1016=
201906100400 METAR LRTC 100400Z AUTO 35011KT 9999 FEW055/// 21/18 Q1016=
201906100430 METAR LRTC 100430Z AUTO 35011KT 9999 FEW050/// 22/18 Q1016=
201906100500 METAR LRTC 100500Z 36012KT CAVOK 23/17 Q1016 R16/CLRD//=
201906100530 METAR LRTC 100530Z 35012KT CAVOK 23/18 Q1016=
201906100600 METAR LRTC 100600Z 35012KT CAVOK 24/18 Q1016=
201906100630 METAR LRTC 100630Z 35013KT 9999 FEW025 25/18 Q1016=
201906100700 METAR LRTC 100700Z 02011KT 9999 SCT026 26/18 Q1016=
201906100730 METAR LRTC 100730Z 03010KT 360V060 9999 SCT027 27/17 Q1016=
201906100800 METAR LRTC 100800Z 02012KT 350V050 9999 SCT031 28/17 Q1016=
201906100830 METAR LRTC 100830Z 03010KT 340V060 9999 FEW035 28/16 Q1015=
201906100900 METAR LRTC 100900Z 03012KT 9999 FEW035 29/17 Q1015=
201906100930 METAR LRTC 100930Z 04011KT 010V080 9999 SCT042 29/15 Q1015=
201906101000 METAR LRTC 101000Z 03013KT 010V080 9999 FEW047 31/15 Q1015=
201906101030 METAR LRTC 101030Z 05012KT 020V080 9999 FEW049 30/15 Q1015=
201906101100 METAR LRTC 101100Z 03013KT 360V060 9999 FEW049 31/15 Q1014=
201906101130 METAR LRTC 101130Z 03014KT 9999 FEW050TCU 31/15 Q1014=
201906101200 METAR LRTC 101200Z 04014KT 010V070 CAVOK 32/11 Q1014=
201906101230 METAR LRTC 101230Z 05015KT 9999 FEW055TCU 33/11 Q1013=
201906101300 METAR LRTC 101300Z 05014KT 9999 FEW055TCU 32/11 Q1013=
201906101330 METAR LRTC 101330Z 06014KT 9999 FEW055TCU 32/11 Q1013=
201906101400 METAR LRTC 101400Z 06014KT CAVOK 32/11 Q1013=
201906101430 METAR LRTC 101430Z 07013KT CAVOK 32/13 Q1013=
201906101500 METAR LRTC 101500Z 07014KT 9999 FEW050CB 31/12 Q1013=
201906101530 METAR LRTC 101530Z 08010KT 9999 FEW050CB 30/13 Q1013=
201906101600 METAR LRTC 101600Z VRB02KT CAVOK 28/16 Q1013=
201906101630 METAR LRTC 101630Z 25003KT 210V280 CAVOK 28/18 Q1012=
201906101700 METAR LRTC 101700Z AUTO 35004KT 270V040 9999 FEW140/// 28/15
                        Q1012=
201906101730 METAR LRTC 101730Z AUTO 36006KT 9999 SCT150/// 27/15 Q1012=
201906101800 METAR LRTC 101800Z AUTO 35007KT 9999 BKN150/// 26/15 Q1012=
201906101830 METAR LRTC 101830Z AUTO 35009KT 9999 FEW130/// BKN160///
                        27/15 Q1012=
201906101900 METAR LRTC 101900Z AUTO 01008KT 9999 FEW120/// SCT140///
                        26/16 Q1012=
201906101930 METAR LRTC 101930Z AUTO 04011KT 9999 FEW080/// BKN110///
                        BKN130/// 26/12 Q1012=
201906102000 METAR LRTC 102000Z AUTO 04009KT 9999 -RA SCT100/// OVC110///
                        25/14 Q1012=
201906102030 METAR LRTC 102030Z AUTO 36009KT 9999 -SHRA BKN110/// 25/14
                        Q1012=
201906102100 METAR LRTC 102100Z AUTO 36010KT 9999 FEW100/// BKN120///
                        25/14 Q1011 RERA=
201906102130 METAR LRTC 102130Z AUTO 01011KT 9999 BKN120/// 25/14 Q1011=
201906102200 METAR LRTC 102200Z AUTO 02011KT 9999 FEW070/// OVC130///
                        25/15 Q1011=
201906102230 METAR LRTC 102230Z AUTO 02011KT 9999 BKN060/// BKN120///
                        25/15 Q1011=
201906102300 METAR LRTC 102300Z AUTO 03012KT 9999 SCT055/// BKN080///
                        25/16 Q1011=
201906102330 METAR LRTC 102330Z AUTO 04011KT 9999 SCT055/// BKN080///
                        24/17 Q1011=
201906110000 METAR LRTC 110000Z AUTO 05010KT 9999 BKN070/// 24/17 Q1011=
201906110030 METAR LRTC 110030Z AUTO 06009KT 9999 FEW046/// SCT060///
                        BKN075/// 24/18 Q1011=
201906110100 METAR LRTC 110100Z AUTO 05008KT 9999 FEW050/// 23/18 Q1010=
201906110130 METAR LRTC 110130Z AUTO 05009KT 9999 FEW065/// 23/19 Q1010=
201906110200 METAR LRTC 110200Z AUTO 03008KT 9000 NCD 22/19 Q1010=
201906110230 METAR LRTC 110230Z AUTO 03007KT 9000 NCD 22/19 Q1010=
201906110300 METAR LRTC 110300Z AUTO 01005KT 9999 NCD 22/19 Q1011=
201906110330 METAR LRTC 110330Z AUTO 01005KT 330V040 9999 NCD 22/20 Q1011=
201906110400 METAR LRTC 110400Z AUTO 03009KT 9999 NCD 24/20 Q1011=
201906110430 METAR LRTC 110430Z AUTO 04011KT 9999 NCD 24/20 Q1011=
201906110500 METAR LRTC 110500Z 04010KT CAVOK 25/20 Q1011 R16/CLRD//=
201906110530 METAR LRTC 110530Z 05011KT 020V080 CAVOK 26/20 Q1011=
201906110600 METAR LRTC 110600Z 04012KT CAVOK 27/19 Q1011=
201906110630 METAR LRTC 110630Z 04013KT CAVOK 27/19 Q1011=
201906110700 METAR LRTC 110700Z 03014KT CAVOK 28/18 Q1012=
201906110730 METAR LRTC 110730Z 04013KT 010V080 CAVOK 29/17 Q1012=
201906110800 METAR LRTC 110800Z 04013KT 010V070 CAVOK 30/16 Q1012=
201906110830 METAR LRTC 110830Z 03014KT CAVOK 31/15 Q1012=
201906110900 METAR LRTC 110900Z 03013KT 360V060 CAVOK 31/14 Q1012=
201906110930 METAR LRTC 110930Z 05016KT CAVOK 32/12 Q1011=
201906111000 METAR LRTC 111000Z 04017KT 010V070 CAVOK 33/11 Q1011=
201906111030 METAR LRTC 111030Z 04017KT 010V070 CAVOK 32/09 Q1011=
201906111100 METAR LRTC 111100Z 05016KT 020V080 CAVOK 33/08 Q1011=
201906111130 METAR LRTC 111130Z 05018KT CAVOK 32/08 Q1011=
201906111200 METAR LRTC 111200Z 04020KT CAVOK 33/07 Q1011=
201906111230 METAR LRTC 111230Z 07016KT CAVOK 32/08 Q1011=
201906111300 METAR LRTC 111300Z 07015KT CAVOK 32/09 Q1011=
201906111330 METAR LRTC 111330Z 06015KT CAVOK 31/09 Q1011=
201906111400 METAR LRTC 111400Z 06017KT CAVOK 32/08 Q1011=
201906111430 METAR LRTC 111430Z 06015KT CAVOK 32/09 Q1011=
201906111500 METAR LRTC 111500Z 05015KT CAVOK 32/09 Q1010=
201906111530 METAR LRTC 111530Z 05015KT CAVOK 31/09 Q1010=
201906111600 METAR LRTC 111600Z 05013KT CAVOK 31/09 Q1011=
201906111630 METAR LRTC 111630Z 03011KT CAVOK 30/10 Q1011=
201906111700 METAR LRTC 111700Z AUTO 03010KT 9999 FEW160/// 29/11 Q1011=
201906111730 METAR LRTC 111730Z AUTO 03007KT 9999 BKN170/// 27/13 Q1011=
201906111800 METAR LRTC 111800Z AUTO 02007KT 9999 SCT170/// 25/14 Q1011=
201906111830 METAR LRTC 111830Z AUTO 03009KT 9999 BKN170/// 25/16 Q1012=
201906111900 METAR LRTC 111900Z AUTO 04010KT 9999 BKN170/// 25/16 Q1012=
201906111930 METAR LRTC 111930Z AUTO 05007KT 9999 FEW110/// BKN180///
                        25/16 Q1012=
201906112000 METAR LRTC 112000Z AUTO 05010KT 9999 FEW100/// BKN170///
                        27/18 Q1012=
201906112030 METAR LRTC 112030Z AUTO 05008KT 9999 FEW100/// BKN160///
                        27/18 Q1012=
201906112100 METAR LRTC 112100Z AUTO 26003KT 230V010 9999 FEW100/// BKN150///
                        24/17 Q1012=
201906112130 METAR LRTC 112130Z AUTO 30002KT 9999 FEW120/// BKN140///
                        24/17 Q1012=
201906112200 METAR LRTC 112200Z AUTO 34006KT 9999 BKN140/// 23/17 Q1012=
201906112230 METAR LRTC 112230Z AUTO 34005KT 330V120 9999 SCT120/// BKN140///
                        23/16 Q1012=
201906112300 METAR LRTC 112300Z AUTO 32006KT 9999 OVC120/// 22/16 Q1012=
201906112330 METAR LRTC 112330Z AUTO 34005KT 9999 BKN130/// 22/16 Q1011=
201906120000 METAR LRTC 120000Z AUTO 34010KT 9999 BKN140/// 23/15 Q1011=
201906120030 METAR LRTC 120030Z AUTO 33009KT 9999 BKN140/// 23/14 Q1011=
201906120100 METAR LRTC 120100Z AUTO 34008KT 9999 BKN150/// 23/14 Q1011=
201906120130 METAR LRTC 120130Z AUTO 35006KT 9999 NCD 23/15 Q1011=
201906120200 METAR LRTC 120200Z AUTO 34010KT 9999 NCD 22/16 Q1011=
201906120230 METAR LRTC 120230Z AUTO 34010KT 9999 NCD 23/15 Q1011=
201906120300 METAR LRTC 120300Z 34008KT CAVOK 23/15 Q1011=
201906120330 METAR LRTC 120330Z 35007KT CAVOK 23/14 Q1011 R16/CLRD//=
201906120400 METAR LRTC 120400Z 35009KT CAVOK 23/14 Q1011=
201906120430 METAR LRTC 120430Z 34007KT 320V020 CAVOK 24/15 Q1011=
201906120500 METAR LRTC 120500Z 36009KT 330V040 CAVOK 25/15 Q1011=
201906120530 METAR LRTC 120530Z 35011KT CAVOK 25/13 Q1012=
201906120600 METAR LRTC 120600Z 01011KT 330V030 CAVOK 26/14 Q1012=
201906120630 METAR LRTC 120630Z 01011KT 340V040 CAVOK 27/14 Q1012=
201906120700 METAR LRTC 120700Z 34010KT 310V010 CAVOK 28/14 Q1012=
201906120730 METAR LRTC 120730Z 35010KT 320V020 CAVOK 29/14 Q1012=
201906120800 METAR LRTC 120800Z 36013KT CAVOK 29/13 Q1012=
201906120830 METAR LRTC 120830Z 36012KT 320V020 CAVOK 31/12 Q1012=
201906120900 METAR LRTC 120900Z 36011KT 320V030 CAVOK 32/11 Q1012=
201906120930 METAR LRTC 120930Z 01010KT 330V040 CAVOK 32/11 Q1012=
201906121000 METAR LRTC 121000Z 01010KT 300V030 CAVOK 33/09 Q1012=
201906121030 METAR LRTC 121030Z 36010KT 310V040 CAVOK 33/08 Q1011=
201906121100 METAR LRTC 121100Z 03012KT 320V070 CAVOK 34/06 Q1011=
201906121130 METAR LRTC 121130Z 02012KT CAVOK 35/07 Q1011=
201906121200 METAR LRTC 121200Z 03013KT 340V070 CAVOK 34/07 Q1011=
201906121230 METAR LRTC 121230Z 03013KT CAVOK 35/06 Q1011=
201906121300 METAR LRTC 121300Z 04010KT 010V070 CAVOK 33/06 Q1010=
201906121330 METAR LRTC 121330Z 01009KT 340V050 CAVOK 34/07 Q1010=
201906121400 METAR LRTC 121400Z 05011KT 020V080 CAVOK 34/07 Q1010=
201906121430 METAR LRTC 121430Z 06012KT CAVOK 34/06 Q1010=
201906121500 METAR LRTC 121500Z AUTO 03008KT 9999 SCT100/// BKN110///
                        BKN130/// 32/08 Q1010=
201906121530 METAR LRTC 121530Z AUTO 04008KT 9999 BKN110/// 31/07 Q1010=
201906121600 METAR LRTC 121600Z AUTO 04004KT 010V080 9999 BKN110/// 31/08
                        Q1011=
201906121630 METAR LRTC 121630Z AUTO 36003KT 9999 BKN110/// 30/09 Q1011=
201906121700 METAR LRTC 121700Z AUTO 36002KT 9999 BKN110/// 30/10 Q1011=
201906121730 METAR LRTC 121730Z AUTO 31008KT 9999 SCT100/// BKN130///
                        28/11 Q1011=
201906121800 METAR LRTC 121800Z AUTO 30009KT 9999 FEW110/// 27/13 Q1011=
201906121830 METAR LRTC 121830Z AUTO 32009KT 9999 FEW110/// BKN240///
                        26/14 Q1012=
201906121900 METAR LRTC 121900Z AUTO 33007KT 9999 BKN240/// 25/14 Q1012=
201906121930 METAR LRTC 121930Z AUTO 32009KT 9999 NCD 25/15 Q1012=
201906122000 METAR LRTC 122000Z AUTO 32009KT 9999 NCD 25/15 Q1012=
201906122030 METAR LRTC 122030Z AUTO 32010KT 9999 R34/2000 FEW130/// 25/14
                        Q1012=
201906122100 METAR LRTC 122100Z AUTO 31011KT 9999 NCD 25/15 Q1012=
201906122130 METAR LRTC 122130Z AUTO 32010KT 9999 FEW140/// 25/15 Q1012=
201906122200 METAR LRTC 122200Z AUTO 32010KT 9999 FEW230/// 24/15 Q1012=
201906122230 METAR LRTC 122230Z AUTO 33011KT 9999 FEW220/// 24/15 Q1012=
201906122300 METAR LRTC 122300Z AUTO 34010KT 9999 SCT110/// 25/15 Q1012=
201906122330 METAR LRTC 122330Z AUTO 35007KT 9999 FEW120/// 25/15 Q1012=
201906130000 METAR LRTC 130000Z AUTO 33007KT 9999 NCD 24/15 Q1012=
201906130030 METAR LRTC 130030Z AUTO 33010KT 9999 NCD 23/15 Q1012=
201906130100 METAR LRTC 130100Z AUTO 33010KT 9999 NCD 24/15 Q1012=
201906130130 METAR LRTC 130130Z AUTO 33007KT 9999 NCD 23/15 Q1012=
201906130200 METAR LRTC 130200Z AUTO 35006KT 320V020 9999 NCD 23/15 Q1012=
201906130230 METAR LRTC 130230Z AUTO VRB03KT 9999 FEW110/// BKN130///
                        23/15 Q1012=
201906130300 METAR LRTC 130300Z 34004KT 300V020 CAVOK 23/15 Q1012 R16/CLRD//=
201906130330 METAR LRTC 130330Z 33007KT CAVOK 24/15 Q1012=
201906130400 METAR LRTC 130400Z 34006KT 310V020 CAVOK 25/15 Q1013=
201906130430 METAR LRTC 130430Z 36007KT CAVOK 24/15 Q1013=
201906130500 METAR LRTC 130500Z 36005KT 320V040 CAVOK 25/15 Q1013=
201906130530 METAR LRTC 130530Z 35007KT 320V030 CAVOK 26/15 Q1014=
201906130600 METAR LRTC 130600Z 36007KT 330V050 CAVOK 28/15 Q1014=
201906130630 METAR LRTC 130630Z 36008KT 330V030 CAVOK 28/15 Q1014=
201906130700 METAR LRTC 130700Z 36007KT 320V040 CAVOK 28/16 Q1014=
201906130730 METAR LRTC 130730Z 02009KT 330V060 CAVOK 29/14 Q1014=
201906130800 METAR LRTC 130800Z 01007KT 340V060 CAVOK 29/14 Q1014=
201906130830 METAR LRTC 130830Z 03007KT 360V070 CAVOK 30/13 Q1014=
201906130900 METAR LRTC 130900Z 36006KT 310V050 CAVOK 31/13 Q1014=
201906130930 METAR LRTC 130930Z 35006KT 300V020 CAVOK 32/11 Q1014=
201906131000 METAR LRTC 131000Z VRB07KT CAVOK 33/10 Q1014=
201906131030 METAR LRTC 131030Z 33005KT 280V030 9999 FEW050TCU 33/10 Q1014=
201906131100 METAR LRTC 131100Z 03007KT 350V060 9999 FEW050CB 33/10 Q1014=
201906131130 METAR LRTC 131130Z 29006KT 240V030 9999 FEW050CB 33/11 Q1014=
201906131200 METAR LRTC 131200Z 34006KT 290V090 9999 FEW050CB 33/11 Q1013=
201906131230 METAR LRTC 131230Z 01008KT 330V070 9999 SCT050CB 32/10 Q1013=
201906131300 METAR LRTC 131300Z 36009KT 9999 TS VCSH SCT050CB 31/11 Q1014=
201906131330 METAR LRTC 131330Z 36008KT 9999 SCT050CB 28/13 Q1014 RETS=
201906131400 METAR LRTC 131400Z 29006KT 9999 -SHRA SCT045CB 31/13 Q1013=
201906131430 METAR LRTC 131430Z 30006KT 9999 FEW050CB 30/11 Q1013=
201906131500 METAR LRTC 131500Z AUTO 10011KT 060V130 9999 ///// Q////
                        RERA=
201906131530 METAR LRTC 131530Z NIL=
201906131600 METAR LRTC 131600Z AUTO 09007KT 9999 SCT075/// BKN090///
                        28/14 Q1015=
201906131630 METAR LRTC 131630Z AUTO 11007KT 9999 FEW075/// SCT220///
                        27/14 Q1015=
201906131700 METAR LRTC 131700Z AUTO 12005KT 9999 NCD 26/14 Q1015=
201906131730 METAR LRTC 131730Z AUTO 14002KT 080V210 9999 NCD 25/15 Q1015=
201906131800 METAR LRTC 131800Z AUTO 05004KT 9999 NCD 24/15 Q1015=
201906131830 METAR LRTC 131830Z AUTO 36003KT 9999 NCD 23/15 Q1015=
201906131900 METAR LRTC 131900Z AUTO 31005KT 9999 NCD 22/15 Q1015=
201906131930 METAR LRTC 131930Z AUTO 35005KT 9999 NCD 20/15 Q1015=
201906132000 METAR LRTC 132000Z AUTO 32006KT 9999 NCD 20/15 Q1015=
201906132030 METAR LRTC 132030Z AUTO 23001KT 9999 NCD 20/16 Q1015=
201906132100 METAR LRTC 132100Z AUTO 03003KT 9999 NCD 18/15 Q1015=
201906132130 METAR LRTC 132130Z AUTO 31004KT 9999 NCD 19/15 Q1015=
201906132200 METAR LRTC 132200Z AUTO 33005KT 290V350 9999 NCD 18/15 Q1015=
201906132230 METAR LRTC 132230Z AUTO 33007KT 9999 NCD 19/15 Q1015=
201906132300 METAR LRTC 132300Z AUTO 32008KT 9999 NCD 20/16 Q1015=
201906132330 METAR LRTC 132330Z AUTO 34005KT 320V030 9999 NCD 20/16 Q1015=
201906140000 METAR LRTC 140000Z AUTO 32009KT 9999 FEW090/// BKN110///
                        22/16 Q1015=
201906140030 METAR LRTC 140030Z AUTO 33007KT 9999 FEW100/// BKN130///
                        21/15 Q1015=
201906140100 METAR LRTC 140100Z AUTO 32008KT 9999 SCT130/// 21/15 Q1015=
201906140130 METAR LRTC 140130Z AUTO 32009KT 9999 NCD 21/15 Q1015=
201906140200 METAR LRTC 140200Z AUTO 33010KT 9999 FEW095/// 21/15 Q1015=
201906140230 METAR LRTC 140230Z AUTO 34011KT 9999 FEW090/// 22/15 Q1015=
201906140300 METAR LRTC 140300Z 35008KT CAVOK 22/15 Q1015=
201906140330 METAR LRTC 140330Z 34009KT CAVOK 23/15 Q1015 R16/CLRD//=
201906140400 METAR LRTC 140400Z 34010KT CAVOK 23/15 Q1015=
201906140430 METAR LRTC 140430Z 34011KT CAVOK 23/15 Q1015=
201906140500 METAR LRTC 140500Z 35011KT CAVOK 25/15 Q1015=
201906140530 METAR LRTC 140530Z 36013KT CAVOK 24/15 Q1015=
201906140600 METAR LRTC 140600Z 35011KT CAVOK 24/15 Q1015=
201906140630 METAR LRTC 140630Z 34011KT 320V020 CAVOK 26/15 Q1016=
201906140700 METAR LRTC 140700Z 35012KT CAVOK 27/15 Q1016=
201906140730 METAR LRTC 140730Z 36011KT 320V030 CAVOK 27/15 Q1016=
201906140800 METAR LRTC 140800Z 34010KT 320V020 CAVOK 28/16 Q1016=
201906140830 METAR LRTC 140830Z 34010KT CAVOK 29/16 Q1016=
201906140900 METAR LRTC 140900Z 36010KT 320V050 CAVOK 30/15 Q1016=
201906140930 METAR LRTC 140930Z 35011KT 320V030 CAVOK 31/14 Q1016=
201906141000 METAR LRTC 141000Z 02010KT CAVOK 32/12 Q1016=
201906141030 METAR LRTC 141030Z 36010KT 310V060 CAVOK 31/12 Q1016=
201906141100 METAR LRTC 141100Z 35011KT 310V030 CAVOK 32/13 Q1015=
201906141130 METAR LRTC 141130Z 34010KT 300V040 CAVOK 33/11 Q1015=
201906141200 METAR LRTC 141200Z 35012KT 330V030 9999 FEW055CB 32/12 Q1015=
201906141230 METAR LRTC 141230Z 04012KT 360V070 9999 FEW055CB 33/14 Q1015=
201906141300 METAR LRTC 141300Z 06015KT 9999 FEW055CB 32/09 Q1015=
201906141330 METAR LRTC 141330Z 06014KT 030V090 9999 FEW055CB 32/09 Q1015=
201906141400 METAR LRTC 141400Z 07012KT CAVOK 32/10 Q1015=
201906141430 METAR LRTC 141430Z 06012KT 040V100 CAVOK 32/08 Q1015=
201906141500 METAR LRTC 141500Z AUTO 06008KT 9999 OVC100/// 30/09 Q1015=
201906141530 METAR LRTC 141530Z AUTO 05007KT 9999 SCT110/// BKN120///
                        30/11 Q1015=
201906141600 METAR LRTC 141600Z AUTO 05008KT 9999 SCT120/// BKN130///
                        30/12 Q1015=
201906141630 METAR LRTC 141630Z AUTO 04006KT 010V070 9999 SCT110/// BKN130///
                        28/13 Q1015=
201906141700 METAR LRTC 141700Z AUTO 07003KT 9999 BKN110/// 27/17 Q1015=
201906141730 METAR LRTC 141730Z AUTO 02005KT 9999 OVC110/// 27/16 Q1015=
201906141800 METAR LRTC 141800Z AUTO 34005KT 310V020 9999 BKN120/// 26/16
                        Q1015=
201906141830 METAR LRTC 141830Z AUTO 02007KT 330V070 9999 BKN120/// BKN140///
                        25/17 Q1016=
201906141900 METAR LRTC 141900Z AUTO 35006KT 9999 FEW140/// 24/18 Q1016=
201906141930 METAR LRTC 141930Z AUTO 33007KT 9999 FEW140/// BKN170///
                        23/17 Q1016=
201906142000 METAR LRTC 142000Z AUTO 35004KT 310V010 9000 SCT140/// 23/17
                        Q1017=
201906142030 METAR LRTC 142030Z AUTO 33007KT 9999 NCD 22/16 Q1016=
201906142100 METAR LRTC 142100Z AUTO 36005KT 340V040 9999 SCT160/// 22/16
                        Q1016=
201906142130 METAR LRTC 142130Z AUTO 35004KT 9999 OVC160/// 22/16 Q1016=
201906142200 METAR LRTC 142200Z AUTO 32010KT 9999 FEW160/// 23/17 Q1016=
201906142230 METAR LRTC 142230Z AUTO 32013KT 9999 FEW180/// 23/18 Q1016=
201906142300 METAR LRTC 142300Z AUTO 33011KT 9999 FEW140/// 23/17 Q1015=
201906142330 METAR LRTC 142330Z AUTO 35007KT 9999 FEW180/// 23/17 Q1015=
201906150000 METAR LRTC 150000Z AUTO 36007KT 9999 NCD 21/17 Q1015=
201906150030 METAR LRTC 150030Z AUTO 36007KT 9999 NCD 21/17 Q1015=
201906150100 METAR LRTC 150100Z AUTO 33009KT 9999 NCD 21/17 Q1015=
201906150130 METAR LRTC 150130Z AUTO 34009KT 9999 SCT180/// 22/17 Q1015=
201906150200 METAR LRTC 150200Z AUTO 34008KT 9999 FEW180/// 22/17 Q1015=
201906150230 METAR LRTC 150230Z AUTO 34008KT 8000 NCD 21/17 Q1015=
201906150300 METAR LRTC 150300Z 34010KT CAVOK 22/17 Q1015 R16/CLRD//=
201906150330 METAR LRTC 150330Z 35007KT CAVOK 22/18 Q1015=
201906150400 METAR LRTC 150400Z 35006KT CAVOK 22/18 Q1015=
201906150430 METAR LRTC 150430Z 35008KT CAVOK 23/17 Q1015=
201906150500 METAR LRTC 150500Z 35009KT CAVOK 24/18 Q1016=
201906150530 METAR LRTC 150530Z 36010KT CAVOK 25/17 Q1016=
201906150600 METAR LRTC 150600Z 36009KT CAVOK 27/17 Q1016=
201906150630 METAR LRTC 150630Z 36008KT CAVOK 29/16 Q1015=
201906150700 METAR LRTC 150700Z 01008KT 350V050 CAVOK 30/13 Q1015=
201906150730 METAR LRTC 150730Z 02010KT 350V050 CAVOK 30/14 Q1015=
201906150800 METAR LRTC 150800Z 01010KT 340V040 CAVOK 31/15 Q1015=
201906150830 METAR LRTC 150830Z 05011KT CAVOK 31/15 Q1015=
201906150900 METAR LRTC 150900Z 35010KT 320V020 CAVOK 31/15 Q1015=
201906150930 METAR LRTC 150930Z 02007KT 340V060 9999 FEW055TCU 31/14 Q1015=
201906151000 METAR LRTC 151000Z 02009KT 340V060 9999 FEW050CB 32/14 Q1015=
201906151030 METAR LRTC 151030Z 34007KT 310V030 9999 FEW050CB 32/14 Q1014=
201906151100 METAR LRTC 151100Z 02009KT 350V060 9999 SCT050CB 33/13 Q1014=
201906151130 METAR LRTC 151130Z 35012KT 9999 SCT050CB 32/13 Q1014=
201906151200 METAR LRTC 151200Z 35012KT 9999 SCT050CB 31/10 Q1013=
201906151230 METAR LRTC 151230Z 01011KT 9999 SCT050CB 31/12 Q1013=
201906151300 METAR LRTC 151300Z 01005KT 340V060 9999 SCT050CB 31/13 Q1013=
201906151330 METAR LRTC 151330Z 32012KT 9999 SCT045CB 27/15 Q1013=
201906151400 METAR LRTC 151400Z 34009KT 9999 FEW045CB 28/16 Q1013=
201906151430 METAR LRTC 151430Z 34008KT CAVOK 29/15 Q1013=
201906151500 METAR LRTC 151500Z AUTO 34014KT 9999 NCD 28/15 Q1014=
201906151530 METAR LRTC 151530Z AUTO 35012KT 9999 NCD 26/17 Q1013=
201906151600 METAR LRTC 151600Z AUTO 34014KT 9999 R34/1700VP2000D FEW200///
                        26/16 Q1014=
201906151630 METAR LRTC 151630Z AUTO 35012KT 9999 NCD 25/16 Q1013=
201906151700 METAR LRTC 151700Z AUTO 01006KT 9999 NCD 24/16 Q1013=
201906151730 METAR LRTC 151730Z AUTO 32003KT 270V360 9999 NCD 24/16 Q1013=
201906151800 METAR LRTC 151800Z AUTO 31003KT 9999 NCD 24/16 Q1013=
201906151830 METAR LRTC 151830Z AUTO 31005KT 9999 NCD 22/17 Q1013=
201906151900 METAR LRTC 151900Z AUTO 01002KT 9999 NCD 21/16 Q1013=
201906151930 METAR LRTC 151930Z AUTO 31004KT 9999 NCD 21/15 Q1013=
201906152000 METAR LRTC 152000Z AUTO 34004KT 9999 NCD 22/14 Q1013=
201906152030 METAR LRTC 152030Z AUTO 32005KT 9999 NCD 22/15 Q1014=
201906152100 METAR LRTC 152100Z AUTO 06002KT 320V130 9999 NCD 21/15 Q1013=
201906152130 METAR LRTC 152130Z AUTO VRB01KT 9999 NCD 21/15 Q1013=
201906152200 METAR LRTC 152200Z AUTO VRB01KT 9999 NCD 21/15 Q1013=
201906152230 METAR LRTC 152230Z AUTO VRB03KT 9999 NCD 19/15 Q1013=
201906152300 METAR LRTC 152300Z AUTO 30003KT 250V340 9999 NCD 21/15 Q1013=
201906152330 METAR LRTC 152330Z AUTO 31002KT 9999 NCD 20/15 Q1012=
201906160000 METAR LRTC 160000Z AUTO VRB01KT 9999 NCD 20/15 Q1012=
201906160030 METAR LRTC 160030Z AUTO 32005KT 290V360 9999 NCD 21/16 Q1012=
201906160100 METAR LRTC 160100Z AUTO 00000KT 9999 NCD 21/15 Q1012=
201906160130 METAR LRTC 160130Z AUTO 15002KT 070V190 9999 NCD 19/15 Q1012=
201906160200 METAR LRTC 160200Z AUTO VRB01KT 9999 NCD 18/15 Q1012=
201906160230 METAR LRTC 160230Z AUTO 10001KT 9000 NCD 19/16 Q1012=
201906160300 METAR LRTC 160300Z VRB01KT CAVOK 19/16 Q1012 R16/CLRD//=
201906160330 METAR LRTC 160330Z 34004KT 270V030 CAVOK 22/17 Q1012=
201906160400 METAR LRTC 160400Z 34005KT 320V020 CAVOK 24/17 Q1012=
201906160430 METAR LRTC 160430Z 01006KT 330V040 CAVOK 24/17 Q1012=
201906160500 METAR LRTC 160500Z 36008KT 320V030 CAVOK 25/17 Q1012=
201906160530 METAR LRTC 160530Z 01007KT 330V040 CAVOK 26/18 Q1012=
201906160600 METAR LRTC 160600Z 01006KT 300V050 CAVOK 27/18 Q1012=
201906160630 METAR LRTC 160630Z 36008KT 330V040 CAVOK 28/18 Q1012=
201906160700 METAR LRTC 160700Z 36008KT 320V040 CAVOK 29/17 Q1012=
201906160730 METAR LRTC 160730Z 35007KT 320V030 CAVOK 30/18 Q1013=
201906160800 METAR LRTC 160800Z 02008KT 340V080 9999 FEW048 31/16 Q1013=
201906160830 METAR LRTC 160830Z 06009KT 350V080 CAVOK 32/13 Q1013=
201906160900 METAR LRTC 160900Z 36010KT 320V020 9999 FEW050TCU 32/14 Q1012=
201906160930 METAR LRTC 160930Z 07010KT 030V100 9999 FEW055CB 33/09 Q1012=
201906161000 METAR LRTC 161000Z 04009KT 360V080 9999 FEW055CB 33/10 Q1012=
201906161030 METAR LRTC 161030Z 04010KT 360V070 9999 FEW055CB 33/12 Q1012=
201906161100 METAR LRTC 161100Z 04010KT 360V070 9999 FEW055TCU 32/14 Q1012=
201906161130 METAR LRTC 161130Z 03013KT 9999 FEW055TCU 33/12 Q1012=
201906161200 METAR LRTC 161200Z 05010KT 010V080 CAVOK 33/12 Q1012=
201906161230 METAR LRTC 161230Z 07013KT 020V090 CAVOK 33/09 Q1011=
201906161300 METAR LRTC 161300Z 08012KT 040V100 CAVOK 33/04 Q1011=
201906161330 METAR LRTC 161330Z 06011KT CAVOK 34/04 Q1011=
201906161400 METAR LRTC 161400Z 07011KT 040V100 CAVOK 33/05 Q1011=
201906161430 METAR LRTC 161430Z 08011KT 050V110 CAVOK 33/06 Q1011=
201906161500 METAR LRTC 161500Z AUTO 07010KT 030V100 9999 NCD 32/06 Q1011=
201906161530 METAR LRTC 161530Z AUTO 07009KT 9999 NCD 32/08 Q1011=
201906161600 METAR LRTC 161600Z AUTO 09007KT 060V130 9999 NCD 31/08 Q1011=
201906161630 METAR LRTC 161630Z AUTO 16004KT 130V190 9999 NCD 29/10 Q1012=
201906161700 METAR LRTC 161700Z AUTO 17004KT 9999 NCD 27/12 Q1011=
201906161730 METAR LRTC 161730Z AUTO 28005KT 9999 NCD 26/11 Q1012=
201906161800 METAR LRTC 161800Z AUTO 33005KT 290V020 9999 NCD 24/11 Q1011=
201906161830 METAR LRTC 161830Z AUTO 35004KT 9999 NCD 25/10 Q1011=
201906161900 METAR LRTC 161900Z AUTO 33007KT 9999 NCD 22/11 Q1012=
201906161930 METAR LRTC 161930Z AUTO 31010KT 9999 NCD 24/11 Q1012=
201906162000 METAR LRTC 162000Z AUTO 33008KT 9999 NCD 22/12 Q1012=
201906162030 METAR LRTC 162030Z AUTO VRB03KT 9999 NCD 23/13 Q1012=
201906162100 METAR LRTC 162100Z AUTO 27002KT 200V360 9999 NCD 21/12 Q1012=
201906162130 METAR LRTC 162130Z AUTO 32005KT 9999 NCD 21/13 Q1012=
201906162200 METAR LRTC 162200Z AUTO 31001KT 9999 NCD 20/12 Q1012=
201906162230 METAR LRTC 162230Z AUTO 27002KT 230V320 9999 NCD 20/14 Q1012=
201906162300 METAR LRTC 162300Z AUTO 31003KT 9999 FEW095/// 21/13 Q1012=
201906162330 METAR LRTC 162330Z AUTO 02001KT 9999 FEW095/// 20/13 Q1012=
201906170000 METAR LRTC 170000Z AUTO VRB01KT 9999 FEW085/// 20/14 Q1012=
201906170030 METAR LRTC 170030Z AUTO 34003KT 9000 FEW085/// 22/17 Q1012=
201906170100 METAR LRTC 170100Z AUTO 33003KT 280V010 9999 NCD 21/16 Q1012=
201906170130 METAR LRTC 170130Z AUTO 32003KT 9999 FEW100/// 22/17 Q1012=
201906170200 METAR LRTC 170200Z AUTO 04003KT 360V070 9000 BKN090/// BKN110///
                        20/16 Q1012=
201906170230 METAR LRTC 170230Z AUTO 36003KT 300V070 9999 FEW100/// 22/18
                        Q1012=
201906170300 METAR LRTC 170300Z 35006KT 300V030 9999 FEW025 23/18 Q1012=
201906170330 METAR LRTC 170330Z 35009KT CAVOK 24/18 Q1012=
201906170400 METAR LRTC 170400Z 36009KT CAVOK 25/18 Q1013=
201906170430 METAR LRTC 170430Z 36010KT CAVOK 25/18 Q1013=
201906170500 METAR LRTC 170500Z 02008KT CAVOK 27/18 Q1013=
201906170530 METAR LRTC 170530Z 36007KT CAVOK 27/18 Q1013=
201906170600 METAR LRTC 170600Z 35006KT CAVOK 28/18 Q1013=
201906170630 METAR LRTC 170630Z 01009KT 340V050 CAVOK 29/18 Q1013=
201906170700 METAR LRTC 170700Z 03009KT CAVOK 30/16 Q1013=
201906170730 METAR LRTC 170730Z 05008KT 360V080 CAVOK 31/16 Q1013=
201906170800 METAR LRTC 170800Z 01009KT 340V040 CAVOK 31/17 Q1013=
201906170830 METAR LRTC 170830Z 04010KT 010V080 9999 FEW045 32/13 Q1013=
201906170900 METAR LRTC 170900Z 07011KT 030V100 9999 FEW045 32/13 Q1013=
201906170930 METAR LRTC 170930Z 02011KT 350V050 9999 FEW048 32/13 Q1013=
201906171000 METAR LRTC 171000Z 05012KT CAVOK 32/12 Q1013=
201906171030 METAR LRTC 171030Z 04011KT 010V070 CAVOK 33/11 Q1013=
201906171100 METAR LRTC 171100Z 06009KT CAVOK 33/11 Q1013=
201906171130 METAR LRTC 171130Z 10008KT 040V130 CAVOK 32/11 Q1013=
201906171200 METAR LRTC 171200Z 08011KT 020V110 CAVOK 33/10 Q1013=
201906171230 METAR LRTC 171230Z 06011KT 020V090 CAVOK 33/09 Q1013=
201906171300 METAR LRTC 171300Z 08012KT 040V100 CAVOK 33/09 Q1013=
201906171330 METAR LRTC 171330Z 07011KT 030V100 CAVOK 32/10 Q1012=
201906171400 METAR LRTC 171400Z 08012KT 050V110 CAVOK 32/11 Q1012=
201906171430 METAR LRTC 171430Z 08011KT CAVOK 31/10 Q1012=
201906171500 METAR LRTC 171500Z AUTO 09009KT 060V120 9999 NCD 31/11 Q1012=
201906171530 METAR LRTC 171530Z AUTO 08009KT 040V100 9999 NCD 30/11 Q1012=
201906171600 METAR LRTC 171600Z AUTO 07008KT 9999 NCD 30/09 Q1013=
201906171630 METAR LRTC 171630Z AUTO 07007KT 9999 NCD 29/10 Q1013=
201906171700 METAR LRTC 171700Z AUTO 07006KT 9999 NCD 28/11 Q1013=
201906171730 METAR LRTC 171730Z AUTO 05006KT 9999 NCD 27/12 Q1013=
201906171800 METAR LRTC 171800Z AUTO 02004KT 9999 NCD 26/13 Q1013=
201906171830 METAR LRTC 171830Z AUTO 03004KT 9999 NCD 25/13 Q1014=
201906171900 METAR LRTC 171900Z AUTO 36005KT 9999 NCD 24/14 Q1014=
201906171930 METAR LRTC 171930Z AUTO 34004KT 9999 FEW160/// 24/13 Q1014=
201906172000 METAR LRTC 172000Z AUTO 36003KT 9999 NCD 25/12 Q1014=
201906172030 METAR LRTC 172030Z AUTO 36003KT 9999 NCD 22/12 Q1015=
201906172100 METAR LRTC 172100Z AUTO 32005KT 9999 NCD 21/13 Q1015=
201906172130 METAR LRTC 172130Z AUTO 34002KT 9999 FEW140/// 20/13 Q1015=
201906172200 METAR LRTC 172200Z AUTO 32005KT 9999 BKN100/// 23/14 Q1015=
201906172230 METAR LRTC 172230Z AUTO 32012KT 9999 FEW100/// 24/14 Q1014=
201906172300 METAR LRTC 172300Z AUTO 32011KT 9999 NCD 23/16 Q1014=
201906172330 METAR LRTC 172330Z AUTO 33011KT 9999 NCD 23/16 Q1014=
201906180000 METAR LRTC 180000Z AUTO 32010KT 9999 NCD 22/17 Q1014=
201906180030 METAR LRTC 180030Z AUTO 34011KT 9999 NCD 23/17 Q1014=
201906180100 METAR LRTC 180100Z AUTO 34011KT 9999 NCD 22/17 Q1014=
201906180130 METAR LRTC 180130Z AUTO 34011KT 9999 NCD 22/16 Q1014=
201906180200 METAR LRTC 180200Z AUTO 33010KT 9999 FEW100/// 22/16 Q1014=
201906180230 METAR LRTC 180230Z AUTO 35008KT 9999 FEW075/// BKN100///
                        22/16 Q1014=
201906180300 METAR LRTC 180300Z 35006KT CAVOK 22/16 Q1014 R16/CLRD//=
201906180330 METAR LRTC 180330Z 35007KT 320V020 CAVOK 23/16 Q1014=
201906180400 METAR LRTC 180400Z 35011KT CAVOK 23/16 Q1014=
201906180430 METAR LRTC 180430Z 35014KT CAVOK 23/16 Q1014=
201906180500 METAR LRTC 180500Z 35015KT CAVOK 23/16 Q1015=
201906180530 METAR LRTC 180530Z 36013KT CAVOK 25/16 Q1015=
201906180600 METAR LRTC 180600Z 35013KT CAVOK 26/15 Q1015=
201906180630 METAR LRTC 180630Z 36013KT CAVOK 26/15 Q1015=
201906180700 METAR LRTC 180700Z 36011KT 330V030 CAVOK 27/15 Q1015=
201906180730 METAR LRTC 180730Z 01010KT 340V040 CAVOK 28/15 Q1015=
201906180800 METAR LRTC 180800Z 34011KT 320V020 CAVOK 28/14 Q1015=
201906180830 METAR LRTC 180830Z 01010KT CAVOK 29/12 Q1015=
201906180900 METAR LRTC 180900Z 36009KT 330V040 CAVOK 30/11 Q1015=
201906180930 METAR LRTC 180930Z 35010KT 320V020 CAVOK 30/11 Q1015=
201906181000 METAR LRTC 181000Z 01007KT 330V040 CAVOK 30/11 Q1015=
201906181030 METAR LRTC 181030Z 36007KT 320V040 CAVOK 30/11 Q1015=
201906181100 METAR LRTC 181100Z 01006KT 280V090 CAVOK 32/12 Q1014=
201906181130 METAR LRTC 181130Z 36008KT 330V030 CAVOK 32/12 Q1014=
201906181200 METAR LRTC 181200Z 01011KT 9999 FEW055TCU 32/12 Q1014=
201906181230 METAR LRTC 181230Z 05006KT 340V100 9999 FEW055TCU 32/12 Q1014=
201906181300 METAR LRTC 181300Z 02008KT 320V060 9999 FEW055TCU 32/12 Q1013=
201906181330 METAR LRTC 181330Z VRB05KT CAVOK 32/12 Q1013=
201906181400 METAR LRTC 181400Z 13007KT 9999 FEW055TCU 31/11 Q1013=
201906181430 METAR LRTC 181430Z 14009KT 9999 FEW055CB 31/11 Q1013=
201906181500 METAR LRTC 181500Z AUTO 15010KT 9999 BKN065/// 31/11 Q1012=
201906181530 METAR LRTC 181530Z AUTO 14009KT 9999 FEW070/// 30/10 Q1013=
201906181600 METAR LRTC 181600Z AUTO 13010KT 100V170 9999 NCD 30/10 Q1013=
201906181630 METAR LRTC 181630Z AUTO 13008KT 9999 NCD 28/09 Q1013=
201906181700 METAR LRTC 181700Z AUTO 32006KT 290V350 9999 FEW075/// 26/13
                        Q1014=
201906181730 METAR LRTC 181730Z AUTO 30006KT 9999 FEW075/// 25/16 Q1014=
201906181800 METAR LRTC 181800Z AUTO 31008KT 9999 BKN075/// 25/16 Q1014=
201906181830 METAR LRTC 181830Z AUTO 32005KT 9999 FEW075/// 23/16 Q1014=
201906181900 METAR LRTC 181900Z AUTO 02003KT 340V090 9999 SCT080/// 23/16
                        Q1014=
201906181930 METAR LRTC 181930Z AUTO 34006KT 9999 SCT080/// 23/17 Q1014=
201906182000 METAR LRTC 182000Z AUTO 30003KT 180V340 9999 SCT080/// 22/17
                        Q1014=
201906182030 METAR LRTC 182030Z AUTO 30005KT 9999 FEW080/// 21/17 Q1014=
201906182100 METAR LRTC 182100Z AUTO 28001KT 9999 NCD 21/16 Q1014=
201906182130 METAR LRTC 182130Z AUTO 33004KT 9999 NCD 20/17 Q1014=
201906182200 METAR LRTC 182200Z AUTO 31002KT 7000 NCD 19/16 Q1014=
201906182230 METAR LRTC 182230Z AUTO 30006KT 9999 NCD 20/17 Q1015=
201906182300 METAR LRTC 182300Z AUTO 34004KT 9999 NCD 19/17 Q1014=
201906182330 METAR LRTC 182330Z AUTO 33003KT 270V340 9999 FEW085/// 20/18
                        Q1014=
201906190000 METAR LRTC 190000Z AUTO 17002KT 9000 FEW085/// 17/15 Q1014=
201906190030 METAR LRTC 190030Z AUTO 03001KT 9999 FEW085/// 18/16 Q1014=
201906190100 METAR LRTC 190100Z AUTO 34006KT 9000 FEW085/// 20/18 Q1014=
201906190130 METAR LRTC 190130Z AUTO 33006KT 9000 BKN080/// 20/18 Q1014=
201906190200 METAR LRTC 190200Z AUTO VRB02KT 9999 SCT080/// 20/18 Q1014=
201906190230 METAR LRTC 190230Z AUTO 03003KT 320V090 9999 FEW085/// 20/18
                        Q1014=
201906190300 METAR LRTC 190300Z AUTO 34007KT 9000 FEW080/// 21/18 Q1014=
201906190330 METAR LRTC 190330Z AUTO 33009KT 9999 FEW080/// 21/18 Q1014=
201906190400 METAR LRTC 190400Z AUTO 34009KT 9999 BKN080/// 23/18 Q1014=
201906190430 METAR LRTC 190430Z AUTO 34011KT 9999 BKN085/// 23/18 Q1014=
201906190500 METAR LRTC 190500Z 34012KT CAVOK 24/18 Q1014 R16/CLRD//=
201906190530 METAR LRTC 190530Z 35013KT CAVOK 25/18 Q1014=
201906190600 METAR LRTC 190600Z 35009KT 320V020 CAVOK 26/18 Q1014=
201906190630 METAR LRTC 190630Z 36008KT 330V030 CAVOK 26/19 Q1014=
201906190700 METAR LRTC 190700Z 34007KT 300V020 CAVOK 27/18 Q1014=
201906190730 METAR LRTC 190730Z 34008KT 310V010 CAVOK 28/18 Q1014=
201906190800 METAR LRTC 190800Z 34009KT 310V020 CAVOK 28/18 Q1014=
201906190830 METAR LRTC 190830Z 35010KT 320V030 9999 FEW045TCU 29/17 Q1014=
201906190900 METAR LRTC 190900Z 32010KT 9999 FEW045TCU 30/18 Q1014=
201906190930 METAR LRTC 190930Z 36009KT 320V040 9999 FEW045 FEW048TCU
                        30/17 Q1013=
201906191000 METAR LRTC 191000Z 01010KT 340V040 9999 FEW045 FEW048CB 31/17
                        Q1013=
201906191030 METAR LRTC 191030Z 02008KT 310V060 9999 SCT050CB 32/11 Q1013=
201906191100 METAR LRTC 191100Z 36008KT 9999 SCT050CB 31/11 Q1012=
201906191130 METAR LRTC 191130Z 04006KT 320V070 9999 FEW050CB 31/13 Q1012=
201906191200 METAR LRTC 191200Z 07008KT 040V100 9999 VCTS SCT050CB 31/13
                        Q1012=
201906191230 METAR LRTC 191230Z 03008KT 340V060 9999 VCSH SCT050CB 31/13
                        Q1012=
201906191300 METAR LRTC 191300Z 35016KT 9999 SCT050CB 32/14 Q1011=
201906191330 METAR LRTC 191330Z 35013KT 9999 VCSH SCT050CB 29/14 Q1012=
201906191400 METAR LRTC 191400Z 28019KT 9999 TS VCSH SCT040CB 24/16 Q1012=
201906191430 METAR LRTC 191430Z 26015KT 9999 TS SCT040CB 24/15 Q1012=
201906191500 METAR LRTC 191500Z 24008KT 9999 FEW040CB 25/15 Q1012 RETS=
201906191530 METAR LRTC 191530Z 27004KT 220V290 9999 FEW048 27/14 Q1012=
201906191600 METAR LRTC 191600Z VRB02KT CAVOK 29/15 Q1011=
201906191630 METAR LRTC 191630Z 36006KT CAVOK 29/16 Q1011=
201906191700 METAR LRTC 191700Z AUTO 01004KT 9999 NCD 29/16 Q1011=
201906191730 METAR LRTC 191730Z AUTO 24005KT 9999 NCD 25/18 Q1011=
201906191800 METAR LRTC 191800Z AUTO VRB01KT 9999 NCD 24/18 Q1011=
201906191830 METAR LRTC 191830Z AUTO 23003KT 9000 NCD 22/18 Q1012=
201906191900 METAR LRTC 191900Z AUTO 29004KT 9999 NCD 22/17 Q1012=
201906191930 METAR LRTC 191930Z AUTO 33007KT 9999 NCD 23/17 Q1012=
201906192000 METAR LRTC 192000Z AUTO 32009KT 9999 NCD 23/17 Q1012=
201906192030 METAR LRTC 192030Z AUTO 32008KT 9999 NCD 23/17 Q1012=
201906192100 METAR LRTC 192100Z AUTO 33008KT 9999 NCD 22/17 Q1012=
201906192130 METAR LRTC 192130Z AUTO 31006KT 9999 FEW170/// 22/18 Q1012=
201906192200 METAR LRTC 192200Z AUTO 31004KT 9999 FEW170/// 22/18 Q1012=
201906192230 METAR LRTC 192230Z AUTO 32006KT 9999 NCD 21/18 Q1012=
201906192300 METAR LRTC 192300Z AUTO 35004KT 9999 NCD 21/18 Q1012=
201906192330 METAR LRTC 192330Z AUTO 30005KT 9999 NCD 21/18 Q1012=
201906200000 METAR LRTC 200000Z AUTO 27002KT 190V330 9999 NCD 21/17 Q1012=
201906200030 METAR LRTC 200030Z AUTO 29002KT 200V330 9999 FEW180/// 20/17
                        Q1011=
201906200100 METAR LRTC 200100Z AUTO 31004KT 9999 NCD 21/18 Q1011=
201906200130 METAR LRTC 200130Z AUTO 00000KT 9000 NCD 20/17 Q1011=
201906200200 METAR LRTC 200200Z AUTO 34004KT 9999 NCD 20/18 Q1011=
201906200230 METAR LRTC 200230Z AUTO 31005KT 9999 NCD 21/18 Q1011=
201906200300 METAR LRTC 200300Z AUTO 35002KT 280V040 9999 R34/1800VP2000U
                        NCD 21/18 Q1011=
201906200330 METAR LRTC 200330Z AUTO 36005KT 330V030 9999 NCD 23/19 Q1011=
201906200400 METAR LRTC 200400Z AUTO 35009KT 9999 SCT200/// 24/18 Q1011=
201906200430 METAR LRTC 200430Z AUTO 35010KT 9999 NCD 25/18 Q1011=
201906200500 METAR LRTC 200500Z 35011KT CAVOK 26/18 Q1011 R16/CLRD//=
201906200530 METAR LRTC 200530Z 35007KT 320V020 CAVOK 25/18 Q1011=
201906200600 METAR LRTC 200600Z 36008KT CAVOK 27/19 Q1011=
201906200630 METAR LRTC 200630Z 01008KT CAVOK 28/18 Q1011=
201906200700 METAR LRTC 200700Z 03009KT 9999 FEW045TCU 28/18 Q1011=
201906200730 METAR LRTC 200730Z 36007KT 330V040 9999 FEW045CB 28/18 Q1011=
201906200800 METAR LRTC 200800Z 01010KT CAVOK 30/17 Q1011=
201906200830 METAR LRTC 200830Z 02007KT 350V090 9999 FEW050TCU 30/18 Q1011=
201906200900 METAR LRTC 200900Z 36009KT 330V030 9999 FEW049TCU 31/16 Q1011=
201906200930 METAR LRTC 200930Z 04011KT 360V070 9999 FEW050CB 31/16 Q1011=
201906201000 METAR LRTC 201000Z 05011KT 020V080 9999 FEW045 FEW050CB 32/16
                        Q1011=
201906201030 METAR LRTC 201030Z 08012KT 040V100 9999 FEW050CB 33/14 Q1010=
201906201100 METAR LRTC 201100Z 07013KT 040V110 9999 FEW050CB 33/12 Q1010=
201906201130 METAR LRTC 201130Z 07012KT 9999 FEW050CB 33/12 Q1010=
201906201200 METAR LRTC 201200Z 11012KT 070V140 9999 FEW050CB 32/12 Q1010=
201906201230 METAR LRTC 201230Z 14010KT 9999 FEW050CB 32/11 Q1010=
201906201300 METAR LRTC 201300Z 13012KT 9999 FEW050CB 32/11 Q1010=
201906201330 METAR LRTC 201330Z 14009KT 9999 FEW050CB 32/13 Q1011=
201906201400 METAR LRTC 201400Z 24008KT 9999 FEW050CB 30/15 Q1011=
201906201430 METAR LRTC 201430Z 25011KT CAVOK 29/15 Q1011=
201906201500 METAR LRTC 201500Z 25009KT CAVOK 29/14 Q1011=
201906201530 METAR LRTC 201530Z 25007KT CAVOK 29/14 Q1011=
201906201600 METAR LRTC 201600Z 27004KT CAVOK 29/14 Q1011=
201906201630 METAR LRTC 201630Z 24006KT CAVOK 29/16 Q1011=
201906201700 METAR LRTC 201700Z AUTO 24003KT 180V270 9999 FEW210/// 28/18
                        Q1011=
201906201730 METAR LRTC 201730Z AUTO 21005KT 9999 SCT190/// 26/18 Q1011=
201906201800 METAR LRTC 201800Z AUTO 26004KT 9999 BKN190/// 25/18 Q1011=
201906201830 METAR LRTC 201830Z AUTO 34005KT 320V020 9999 BKN190/// 25/18
                        Q1011=
201906201900 METAR LRTC 201900Z AUTO 34007KT 9999 BKN190/// 25/16 Q1012=
201906201930 METAR LRTC 201930Z AUTO 34005KT 9999 BKN190/// 24/16 Q1012=
201906202000 METAR LRTC 202000Z AUTO 29003KT 9999 BKN160/// 23/16 Q1012=
201906202030 METAR LRTC 202030Z AUTO 31004KT 9999 BKN160/// 23/16 Q1012=
201906202100 METAR LRTC 202100Z AUTO 35004KT 9999 BKN160/// 23/15 Q1012=
201906202130 METAR LRTC 202130Z AUTO 25002KT 9999 BKN150/// 22/16 Q1012=
201906202200 METAR LRTC 202200Z AUTO 25003KT 9999 OVC160/// 22/18 Q1012=
201906202230 METAR LRTC 202230Z AUTO 30003KT 9999 OVC140/// 22/17 Q1012=
201906202300 METAR LRTC 202300Z AUTO 35003KT 9999 OVC140/// 22/16 Q1012=
201906202330 METAR LRTC 202330Z AUTO 00000KT 9999 BKN140/// 22/16 Q1012=
201906210000 METAR LRTC 210000Z AUTO 21003KT 9999 SCT140/// BKN170///
                        22/17 Q1012=
201906210030 METAR LRTC 210030Z AUTO 24004KT 9999 BKN170/// 22/17 Q1012=
201906210100 METAR LRTC 210100Z AUTO 36005KT 9999 FEW180/// 21/16 Q1012=
201906210130 METAR LRTC 210130Z AUTO 35003KT 9999 NCD 21/16 Q1012=
201906210200 METAR LRTC 210200Z AUTO 35002KT 9999 FEW080/// 21/16 Q1012=
201906210230 METAR LRTC 210230Z AUTO 26003KT 240V350 9999 BKN075/// 21/16
                        Q1012=
201906210300 METAR LRTC 210300Z AUTO 25001KT 9999 NCD 21/16 Q1012=
201906210330 METAR LRTC 210330Z AUTO 28001KT 9999 NCD 21/17 Q1012=
201906210400 METAR LRTC 210400Z AUTO 29001KT 9999 NCD 23/16 Q1012=
201906210430 METAR LRTC 210430Z AUTO 01002KT 340V040 9999 NCD 24/17 Q1012=
201906210500 METAR LRTC 210500Z VRB02KT 9999 FEW035 26/17 Q1012 R16/CLRD//=
201906210530 METAR LRTC 210530Z 36005KT 330V030 9999 FEW040 27/17 Q1013=
201906210600 METAR LRTC 210600Z 36005KT 340V040 9999 FEW040 28/18 Q1013=
201906210630 METAR LRTC 210630Z 06004KT 330V140 9999 FEW048 30/16 Q1013=
201906210700 METAR LRTC 210700Z VRB03KT CAVOK 31/13 Q1013=
201906210730 METAR LRTC 210730Z 09006KT 050V110 CAVOK 31/13 Q1013=
201906210800 METAR LRTC 210800Z 08005KT 030V140 CAVOK 32/13 Q1013=
201906210830 METAR LRTC 210830Z VRB04KT CAVOK 32/13 Q1013=
201906210900 METAR LRTC 210900Z 07006KT 020V160 9999 FEW055TCU 32/13 Q1013=
201906210930 METAR LRTC 210930Z 34007KT 9999 FEW055CB 32/14 Q1013=
201906211000 METAR LRTC 211000Z VRB04KT 9999 SCT055CB 32/14 Q1013=
201906211030 METAR LRTC 211030Z 28010KT 250V310 9999 VCTS SCT050CB 30/16
                        Q1013=
201906211100 METAR LRTC 211100Z 27012KT 9999 VCTS SCT050CB 29/16 Q1013=
201906211130 METAR LRTC 211130Z 29010KT 9999 FEW055CB 32/14 Q1013=
201906211200 METAR LRTC 211200Z 32006KT 290V020 9999 VCTS FEW055CB 33/13
                        Q1013=
201906211230 METAR LRTC 211230Z 01015KT 9999 TS SCT050CB 31/14 Q1013=
201906211300 METAR LRTC 211300Z 36012KT 9999 -TSRA SCT045CB 29/17 Q1013=
201906211330 METAR LRTC 211330Z 33008KT 300V360 9999 TS SCT045CB 29/16
                        Q1013=
201906211400 METAR LRTC 211400Z 34009KT 9999 FEW040CB 29/18 Q1013 RETS=
201906211430 METAR LRTC 211430Z 34009KT 310V010 9999 FEW040CB 29/17 Q1013=
201906211500 METAR LRTC 211500Z 35009KT 9999 FEW044TCU 29/18 Q1013=
201906211530 METAR LRTC 211530Z 36009KT CAVOK 29/19 Q1013=
201906211600 METAR LRTC 211600Z 33010KT CAVOK 28/18 Q1013=
201906211630 METAR LRTC 211630Z 34009KT CAVOK 28/16 Q1013=
201906211700 METAR LRTC 211700Z AUTO 34006KT 9999 NCD 27/17 Q1013=
201906211730 METAR LRTC 211730Z AUTO 34006KT 9999 NCD 26/17 Q1013=
201906211800 METAR LRTC 211800Z AUTO 33007KT 9999 NCD 25/17 Q1013=
201906211830 METAR LRTC 211830Z AUTO VRB02KT 9999 NCD 24/17 Q1013=
201906211900 METAR LRTC 211900Z AUTO 26002KT 210V330 9999 NCD 24/16 Q1013=
201906211930 METAR LRTC 211930Z AUTO 34004KT 310V020 9999 NCD 24/16 Q1013=
201906212000 METAR LRTC 212000Z AUTO 32004KT 9999 NCD 23/16 Q1014=
201906212030 METAR LRTC 212030Z AUTO 34004KT 310V010 9999 NCD 22/16 Q1014=
201906212100 METAR LRTC 212100Z AUTO 34005KT 9999 NCD 22/17 Q1014=
201906212130 METAR LRTC 212130Z AUTO 30003KT 9999 NCD 21/17 Q1014=
201906212200 METAR LRTC 212200Z AUTO 23002KT 160V290 9999 NCD 21/17 Q1014=
201906212230 METAR LRTC 212230Z AUTO 04004KT 9999 NCD 20/16 Q1013=
201906212300 METAR LRTC 212300Z AUTO 29002KT 250V010 9999 NCD 19/16 Q1013=
201906212330 METAR LRTC 212330Z AUTO 27002KT 230V330 9999 NCD 19/16 Q1013=
201906220000 METAR LRTC 220000Z AUTO 36003KT 9999 NCD 20/17 Q1013=
201906220030 METAR LRTC 220030Z AUTO VRB01KT 9999 NCD 19/16 Q1013=
201906220100 METAR LRTC 220100Z AUTO 27004KT 9000 NCD 19/17 Q1013=
201906220130 METAR LRTC 220130Z AUTO 30004KT 9999 NCD 19/17 Q1013=
201906220200 METAR LRTC 220200Z AUTO 06005KT 8000 NCD 18/16 Q1013=
201906220230 METAR LRTC 220230Z AUTO 34006KT 9999 NCD 19/18 Q1014=
201906220300 METAR LRTC 220300Z AUTO 28004KT 9999 NCD 19/17 Q1014=
201906220330 METAR LRTC 220330Z AUTO 31003KT 9000 NCD 22/19 Q1014=
201906220400 METAR LRTC 220400Z AUTO 00000KT 8000 NCD 24/19 Q1014=
201906220430 METAR LRTC 220430Z AUTO 33004KT 270V050 9999 NCD 25/19 Q1014=
201906220500 METAR LRTC 220500Z 04003KT 320V090 CAVOK 27/19 Q1014=
201906220530 METAR LRTC 220530Z 36009KT CAVOK 28/17 Q1014=
201906220600 METAR LRTC 220600Z 35010KT CAVOK 29/17 Q1014=
201906220630 METAR LRTC 220630Z 36009KT 330V030 CAVOK 30/16 Q1014=
201906220700 METAR LRTC 220700Z 35010KT 320V020 CAVOK 30/16 Q1014=
201906220730 METAR LRTC 220730Z 33012KT CAVOK 30/16 Q1014=
201906220800 METAR LRTC 220800Z 34010KT CAVOK 30/16 Q1014=
201906220830 METAR LRTC 220830Z 34008KT 320V020 9999 -SHRA FEW050CB 29/17
                        Q1014=
201906220900 METAR LRTC 220900Z 33009KT 9999 FEW055CB 30/17 Q1014=
201906220930 METAR LRTC 220930Z 01008KT 9999 FEW055TCU 31/17 Q1014=
201906221000 METAR LRTC 221000Z 02008KT 340V050 CAVOK 32/15 Q1014=
201906221030 METAR LRTC 221030Z 05008KT CAVOK 33/16 Q1014=
201906221100 METAR LRTC 221100Z 01009KT 350V050 9999 FEW055TCU 35/12 Q1014=
201906221130 METAR LRTC 221130Z 36008KT 320V040 9999 FEW055CB 35/09 Q1014=
201906221200 METAR LRTC 221200Z 07008KT 360V090 9999 VCTS VCSH FEW050CB
                        33/11 Q1013=
201906221230 METAR LRTC 221230Z 09010KT 060V120 9999 VCSH SCT050CB 33/12
                        Q1013=
201906221300 METAR LRTC 221300Z 09008KT 070V130 9999 VCSH SCT050CB 33/12
                        Q1013=
201906221330 METAR LRTC 221330Z 13007KT 9999 VCTS SCT050CB 32/13 Q1013=
201906221400 METAR LRTC 221400Z 13008KT 9999 VCSH FEW050CB 32/15 Q1013=
201906221430 METAR LRTC 221430Z 19010KT 160V220 9999 FEW050CB 31/14 Q1013=
201906221500 METAR LRTC 221500Z 24007KT CAVOK 30/15 Q1014=
201906221530 METAR LRTC 221530Z 25008KT CAVOK 29/15 Q1014=
201906221600 METAR LRTC 221600Z 25008KT 220V280 CAVOK 28/14 Q1014=
201906221630 METAR LRTC 221630Z 27007KT CAVOK 27/15 Q1014=
201906221700 METAR LRTC 221700Z AUTO 27004KT 9999 NCD 27/15 Q1014=
201906221730 METAR LRTC 221730Z AUTO 23002KT 9999 NCD 25/16 Q1014=
201906221800 METAR LRTC 221800Z AUTO 00000KT 9999 NCD 24/16 Q1015=
201906221830 METAR LRTC 221830Z AUTO 00000KT 9999 NCD 24/16 Q1015=
201906221900 METAR LRTC 221900Z AUTO 26005KT 9999 NCD 22/16 Q1015=
201906221930 METAR LRTC 221930Z AUTO 31005KT 9999 NCD 22/15 Q1015=
201906222000 METAR LRTC 222000Z AUTO 35005KT 9999 NCD 21/15 Q1014=
201906222030 METAR LRTC 222030Z AUTO 36003KT 9999 NCD 21/15 Q1014=
201906222100 METAR LRTC 222100Z AUTO 26004KT 230V290 9999 NCD 20/15 Q1014=
201906222130 METAR LRTC 222130Z AUTO 24005KT 9999 NCD 20/16 Q1014=
201906222200 METAR LRTC 222200Z AUTO 25007KT 9999 NCD 20/16 Q1014=
201906222230 METAR LRTC 222230Z AUTO 06003KT 9999 NCD 18/15 Q1014=
201906222300 METAR LRTC 222300Z AUTO 06001KT 9000 NCD 19/16 Q1014=
201906222330 METAR LRTC 222330Z AUTO 01002KT 9999 NCD 20/15 Q1014=
201906230000 METAR LRTC 230000Z AUTO 36003KT 9999 NCD 20/15 Q1014=
201906230030 METAR LRTC 230030Z AUTO VRB02KT 9999 NCD 19/15 Q1014=
201906230100 METAR LRTC 230100Z AUTO 05004KT 030V090 9000 FEW130/// 18/15
                        Q1014=
201906230130 METAR LRTC 230130Z AUTO VRB01KT 9999 NCD 18/15 Q1014=
201906230200 METAR LRTC 230200Z AUTO 22004KT 9999 NCD 19/16 Q1015=
201906230230 METAR LRTC 230230Z AUTO 26004KT 9999 NCD 19/16 Q1015=
201906230300 METAR LRTC 230300Z AUTO 00000KT 9999 R34/1800VP2000U NCD
                        18/15 Q1015=
201906230330 METAR LRTC 230330Z AUTO 00000KT 9999 FEW200/// 19/16 Q1015=
201906230400 METAR LRTC 230400Z AUTO VRB01KT 9999 NCD 20/17 Q1015=
201906230430 METAR LRTC 230430Z AUTO 27003KT 220V310 9999 NCD 22/18 Q1015=
201906230500 METAR LRTC 230500Z 07004KT 030V100 CAVOK 24/18 Q1015=
201906230530 METAR LRTC 230530Z 33004KT 290V010 CAVOK 25/18 Q1015=
201906230600 METAR LRTC 230600Z 35004KT 280V030 CAVOK 26/18 Q1015=
201906230630 METAR LRTC 230630Z 31006KT 260V350 CAVOK 27/18 Q1014=
201906230700 METAR LRTC 230700Z 32006KT 290V020 CAVOK 28/18 Q1014=
201906230730 METAR LRTC 230730Z 36008KT 310V030 CAVOK 29/18 Q1014=
201906230800 METAR LRTC 230800Z 01010KT CAVOK 29/18 Q1014=
201906230830 METAR LRTC 230830Z 33006KT 9999 FEW045 30/17 Q1014=
201906230900 METAR LRTC 230900Z 34009KT 9999 FEW050TCU 30/16 Q1014=
201906230930 METAR LRTC 230930Z 02006KT 320V060 9999 FEW055TCU 32/14 Q1014=
201906231000 METAR LRTC 231000Z 01007KT 340V060 9999 FEW055CB 32/14 Q1014=
201906231030 METAR LRTC 231030Z 03005KT 320V090 9999 FEW055CB 33/13 Q1014=
201906231100 METAR LRTC 231100Z VRB04KT 9999 FEW055CB 33/12 Q1013=
201906231130 METAR LRTC 231130Z 03008KT 350V070 9999 VCPO FEW055CB 33/12
                        Q1013=
201906231200 METAR LRTC 231200Z 36005KT 9999 VCTS VCSH SCT055CB 32/11
                        Q1013=
201906231230 METAR LRTC 231230Z 21013G23KT 9999 PO VCTS VCSH SCT055CB
                        27/17 Q1014=
201906231300 METAR LRTC 231300Z 13013G23KT 100V160 9999 VCTS SCT040CB
                        24/17 Q1015=
201906231330 METAR LRTC 231330Z 19005KT 170V230 9999 FEW045CB 27/16 Q1014=
201906231400 METAR LRTC 231400Z 19004KT 140V220 9999 FEW050CB 30/13 Q1013=
201906231430 METAR LRTC 231430Z 18006KT 140V220 9999 FEW055CB 30/12 Q1014=
201906231500 METAR LRTC 231500Z 14005KT 9999 FEW055CB 29/14 Q1014=
201906231530 METAR LRTC 231530Z 15004KT 110V180 9999 FEW050CB 29/15 Q1013=
201906231600 METAR LRTC 231600Z 12004KT CAVOK 29/15 Q1013=
201906231630 METAR LRTC 231630Z 12003KT CAVOK 28/16 Q1013=
201906231700 METAR LRTC 231700Z AUTO 15005KT 120V180 9999 FEW140/// 27/19
                        Q1013=
201906231730 METAR LRTC 231730Z AUTO 10001KT 9999 NCD 27/20 Q1013=
201906231800 METAR LRTC 231800Z AUTO 12003KT 9999 NCD 26/19 Q1013=
201906231830 METAR LRTC 231830Z AUTO 13003KT 9999 NCD 25/18 Q1014=
201906231900 METAR LRTC 231900Z AUTO VRB01KT 9999 NCD 25/18 Q1014=
201906231930 METAR LRTC 231930Z AUTO 00000KT 9999 NCD 24/19 Q1014=
201906232000 METAR LRTC 232000Z AUTO 20002KT 9999 NCD 24/19 Q1014=
201906232030 METAR LRTC 232030Z AUTO 00000KT 9999 NCD 23/19 Q1013=
201906232100 METAR LRTC 232100Z AUTO 23002KT 9999 NCD 23/19 Q1013=
201906232130 METAR LRTC 232130Z AUTO VRB01KT 9999 NCD 23/18 Q1014=
201906232200 METAR LRTC 232200Z AUTO 06002KT 9999 NCD 20/17 Q1014=
201906232230 METAR LRTC 232230Z AUTO 31004KT 250V010 9999 NCD 19/16 Q1014=
201906232300 METAR LRTC 232300Z AUTO 32005KT 300V040 8000 NCD 20/17 Q1014=
201906232330 METAR LRTC 232330Z AUTO 31007KT 9999 NCD 20/17 Q1014=
201906240000 METAR LRTC 240000Z AUTO 24004KT 190V320 9000 NCD 20/17 Q1014=
201906240030 METAR LRTC 240030Z AUTO VRB03KT 9999 NCD 19/16 Q1014=
201906240100 METAR LRTC 240100Z AUTO 11002KT 9000 NCD 18/16 Q1014=
201906240130 METAR LRTC 240130Z AUTO 34005KT 9999 NCD 19/18 Q1014=
201906240200 METAR LRTC 240200Z AUTO 29002KT 270V350 9999 NCD 18/17 Q1014=
201906240230 METAR LRTC 240230Z AUTO 35004KT 300V030 6000 NCD 18/17 Q1014=
201906240300 METAR LRTC 240300Z AUTO 28005KT 8000 NCD 19/17 Q1014=
201906240330 METAR LRTC 240330Z AUTO VRB02KT 9000 NCD 19/17 Q1014=
201906240400 METAR LRTC 240400Z AUTO 30004KT 9999 NCD 23/20 Q1014=
201906240430 METAR LRTC 240430Z AUTO 31008KT 9999 NCD 24/19 Q1014=
201906240500 METAR LRTC 240500Z 35010KT CAVOK 25/19 Q1015 R16/CLRD//=
201906240530 METAR LRTC 240530Z 34010KT CAVOK 26/19 Q1015=
201906240600 METAR LRTC 240600Z 34008KT 300V360 CAVOK 27/19 Q1015=
201906240630 METAR LRTC 240630Z 36012KT CAVOK 27/19 Q1015=
201906240700 METAR LRTC 240700Z 34007KT 280V020 CAVOK 28/18 Q1015=
201906240730 METAR LRTC 240730Z 36009KT 320V030 CAVOK 29/16 Q1015=
201906240800 METAR LRTC 240800Z 35008KT 320V030 CAVOK 30/15 Q1015=
201906240830 METAR LRTC 240830Z 03008KT 340V060 CAVOK 30/16 Q1015=
201906240900 METAR LRTC 240900Z 36008KT 330V060 CAVOK 31/16 Q1015=
201906240930 METAR LRTC 240930Z 01008KT 330V050 9999 FEW055TCU 31/14 Q1015=
201906241000 METAR LRTC 241000Z 02010KT CAVOK 32/15 Q1015=
201906241030 METAR LRTC 241030Z 36010KT 300V060 9999 FEW055TCU 32/14 Q1015=
201906241100 METAR LRTC 241100Z 32010KT 9999 FEW055CB 32/14 Q1015=
201906241130 METAR LRTC 241130Z 36008KT 320V040 9999 SCT055CB 33/14 Q1015=
201906241200 METAR LRTC 241200Z 34009KT 300V010 9999 SCT055CB 34/13 Q1015=
201906241230 METAR LRTC 241230Z 05022KT 9999 SCT050CB 30/14 Q1015=
201906241300 METAR LRTC 241300Z 06014KT 9999 VCSH SCT050CB 29/17 Q1015=
201906241330 METAR LRTC 241330Z 36011KT 330V030 9999 -SHRA BKN045CB 28/15
                        Q1015=
201906241400 METAR LRTC 241400Z 32013KT 9999 VCSH SCT045CB 25/17 Q1015=
201906241430 METAR LRTC 241430Z 33007KT 9999 FEW050CB 26/16 Q1015=
201906241500 METAR LRTC 241500Z 36008KT 9999 FEW050CB 26/17 Q1015=
201906241530 METAR LRTC 241530Z 33006KT 310V020 9999 FEW050CB 25/17 Q1016=
201906241600 METAR LRTC 241600Z 29005KT 9999 FEW050CB 25/18 Q1016=
201906241630 METAR LRTC 241630Z 32009KT CAVOK 24/18 Q1017=
201906241700 METAR LRTC 241700Z AUTO 33008KT 9999 BKN190/// 24/18 Q1017=
201906241730 METAR LRTC 241730Z AUTO 33011KT 9999 FEW130/// BKN210///
                        24/18 Q1017=
201906241800 METAR LRTC 241800Z AUTO 34011KT 9999 FEW140/// 24/18 Q1017=
201906241830 METAR LRTC 241830Z AUTO 33012KT 9000 BKN220/// 23/18 Q1017=
201906241900 METAR LRTC 241900Z AUTO 32011KT 9999 BKN210/// 23/18 Q1017=
201906241930 METAR LRTC 241930Z AUTO 32010KT 9999 SCT080/// BKN230///
                        23/18 Q1017=
201906242000 METAR LRTC 242000Z AUTO 33008KT 9999 FEW085/// BKN230///
                        22/18 Q1018=
201906242030 METAR LRTC 242030Z AUTO 33011KT 9999 NCD 23/18 Q1018=
201906242100 METAR LRTC 242100Z AUTO 32012KT 9999 FEW100/// SCT110///
                        23/18 Q1018=
201906242130 METAR LRTC 242130Z AUTO 31011KT 9999 SCT100/// 22/18 Q1018=
201906242200 METAR LRTC 242200Z AUTO 31012KT 9999 FEW120/// 23/18 Q1017=
201906242230 METAR LRTC 242230Z AUTO 32011KT 9000 FEW100/// BKN130///
                        23/18 Q1017=
201906242300 METAR LRTC 242300Z AUTO 31009KT 9999 FEW095/// BKN130///
                        23/18 Q1017=
201906242330 METAR LRTC 242330Z AUTO 33011KT 9999 SCT130/// 23/18 Q1017=
201906250000 METAR LRTC 250000Z AUTO 32012KT 9999 SCT140/// 23/18 Q1017=
201906250030 METAR LRTC 250030Z AUTO 31010KT 9999 FEW140/// 23/18 Q1017=
201906250100 METAR LRTC 250100Z AUTO 31010KT 9999 NCD 23/18 Q1017=
201906250130 METAR LRTC 250130Z AUTO 32011KT 9999 NCD 23/18 Q1017=
201906250200 METAR LRTC 250200Z AUTO 32010KT 9999 NCD 23/19 Q1017=
201906250230 METAR LRTC 250230Z AUTO 31010KT 9999 FEW120/// 22/19 Q1017=
201906250300 METAR LRTC 250300Z AUTO 30008KT 9999 NCD 22/19 Q1017=
201906250330 METAR LRTC 250330Z AUTO 33010KT 9999 NCD 24/19 Q1017=
201906250400 METAR LRTC 250400Z AUTO 33015KT 9999 NCD 24/19 Q1017=
201906250430 METAR LRTC 250430Z AUTO 34017KT 9999 NCD 25/18 Q1017=
201906250500 METAR LRTC 250500Z 35016KT CAVOK 25/18 Q1017 R16/CLRD//=
201906250530 METAR LRTC 250530Z 35014KT CAVOK 26/18 Q1017=
201906250600 METAR LRTC 250600Z 36015KT 9999 FEW040 27/17 Q1017=
201906250630 METAR LRTC 250630Z 02016KT 9999 FEW040 28/17 Q1018=
201906250700 METAR LRTC 250700Z 01015KT CAVOK 29/17 Q1018=
201906250730 METAR LRTC 250730Z 01016KT CAVOK 30/16 Q1018=
201906250800 METAR LRTC 250800Z 02016KT CAVOK 30/16 Q1018=
201906250830 METAR LRTC 250830Z 02014KT 350V060 9999 FEW045 31/16 Q1018=
201906250900 METAR LRTC 250900Z 02017KT 9999 FEW048 31/15 Q1019=
201906250930 METAR LRTC 250930Z 02015KT 350V050 9999 FEW050TCU 31/15 Q1019=
201906251000 METAR LRTC 251000Z 02014G27KT 350V050 9999 VCSH SCT045CB
                        32/15 Q1018=
201906251030 METAR LRTC 251030Z 01016G26KT 5000 TSRA BKN035CB 22/20 Q1019
                        RETSRA R16/29//95=
201906251100 METAR LRTC 251100Z 01004KT 280V080 7000 TSRA FEW020 SCT030CB
                        23/19 Q1019 R16/29//95=
201906251130 METAR LRTC 251130Z 28007KT 9999 SCT030CB 25/21 Q1018 RETSRA
                        R16/29//95=
201906251200 METAR LRTC 251200Z 29007KT 9999 VCTS SCT035CB 29/21 Q1018
                        R16/29//95=
201906251230 METAR LRTC 251230Z 33008KT 9999 TS VCSH BKN035CB 28/19 Q1018
                        R16/29//95=
201906251300 METAR LRTC 251300Z 33015KT 9999 TS BKN030CB 24/19 Q1019 R16/29//95=
201906251330 METAR LRTC 251330Z 32010KT 9999 SCT030CB 24/19 Q1019 RETS
                        R16/29//95=
201906251400 METAR LRTC 251400Z 34010KT 9999 FEW035CB 26/18 Q1019 R16/29//95=
201906251430 METAR LRTC 251430Z 36007KT CAVOK 26/19 Q1019 R16/29//95=
201906251500 METAR LRTC 251500Z 35003KT 320V030 CAVOK 27/20 Q1019 R16/29//95=
201906251530 METAR LRTC 251530Z 31004KT CAVOK 26/20 Q1019 R16/29//95=
201906251600 METAR LRTC 251600Z 27004KT 220V320 CAVOK 26/20 Q1019 R16/29//95=
201906251630 METAR LRTC 251630Z 32013G25KT 9999 FEW050CB 25/20 Q1020 R16/29//95=
201906251700 METAR LRTC 251700Z AUTO 31013KT 9999 FEW080/// 24/19 Q1020=
201906251730 METAR LRTC 251730Z AUTO 31013KT 9999 NCD 24/19 Q1020=
201906251800 METAR LRTC 251800Z AUTO 33013KT 9999 NCD 23/19 Q1021=
201906251830 METAR LRTC 251830Z AUTO 32013KT 9999 FEW110/// 23/19 Q1020=
201906251900 METAR LRTC 251900Z AUTO 32013KT 9999 NCD 23/19 Q1021=
201906251930 METAR LRTC 251930Z AUTO 32013KT 9999 NCD 23/18 Q1021=
201906252000 METAR LRTC 252000Z AUTO 32011KT 9999 NCD 23/19 Q1021=
201906252030 METAR LRTC 252030Z AUTO 35012KT 9999 NCD 24/19 Q1021=
201906252100 METAR LRTC 252100Z AUTO 35011KT 9999 FEW095/// 24/19 Q1021=
201906252130 METAR LRTC 252130Z AUTO 34009KT 9999 NCD 23/19 Q1021=
201906252200 METAR LRTC 252200Z AUTO 35008KT 9999 NCD 23/18 Q1021=
201906252230 METAR LRTC 252230Z AUTO 34009KT 9999 FEW150/// 23/18 Q1021=
201906252300 METAR LRTC 252300Z AUTO 34011KT 9999 FEW150/// 23/18 Q1021=
201906252330 METAR LRTC 252330Z AUTO 34009KT 9999 FEW120/// 23/18 Q1021=
201906260000 METAR LRTC 260000Z AUTO 34010KT 9999 NCD 23/18 Q1021=
201906260030 METAR LRTC 260030Z AUTO 34010KT 9999 NCD 23/17 Q1021=
201906260100 METAR LRTC 260100Z AUTO 33010KT 9999 NCD 22/17 Q1021=
201906260130 METAR LRTC 260130Z AUTO 33008KT 9999 NCD 22/16 Q1021=
201906260200 METAR LRTC 260200Z AUTO 32010KT 8000 NCD 22/16 Q1021=
201906260230 METAR LRTC 260230Z AUTO 34012KT 9999 NCD 22/16 Q1022=
201906260300 METAR LRTC 260300Z AUTO 34012KT 9999 NCD 22/15 Q1022=
201906260330 METAR LRTC 260330Z AUTO 34012KT 9999 NCD 22/15 Q1022=
201906260400 METAR LRTC 260400Z AUTO 35013KT 9999 NCD 23/15 Q1022=
201906260430 METAR LRTC 260430Z AUTO 34014KT 9999 NCD 24/14 Q1022=
201906260500 METAR LRTC 260500Z 34012KT CAVOK 24/14 Q1022 R16/CLRD//=
201906260530 METAR LRTC 260530Z 34011KT CAVOK 25/14 Q1022=
201906260600 METAR LRTC 260600Z 35011KT 320V020 CAVOK 26/15 Q1022=
201906260630 METAR LRTC 260630Z 35011KT CAVOK 26/15 Q1022=
201906260700 METAR LRTC 260700Z 35011KT CAVOK 27/14 Q1022=
201906260730 METAR LRTC 260730Z 35013KT CAVOK 28/14 Q1023=
201906260800 METAR LRTC 260800Z 34014KT CAVOK 29/14 Q1022=
201906260830 METAR LRTC 260830Z 34012KT 310V010 CAVOK 30/16 Q1022=
201906260900 METAR LRTC 260900Z 35010KT CAVOK 31/15 Q1022=
201906260930 METAR LRTC 260930Z 34013KT CAVOK 30/14 Q1022=
201906261000 METAR LRTC 261000Z 34014KT 310V010 CAVOK 31/14 Q1022=
201906261030 METAR LRTC 261030Z 34013KT CAVOK 32/14 Q1022=
201906261100 METAR LRTC 261100Z 34013KT 310V010 CAVOK 32/14 Q1022=
201906261130 METAR LRTC 261130Z 33013KT 310V010 CAVOK 32/13 Q1022=
201906261200 METAR LRTC 261200Z 35011KT 320V030 CAVOK 32/13 Q1021=
201906261230 METAR LRTC 261230Z 34012KT 310V020 CAVOK 32/13 Q1021=
201906261300 METAR LRTC 261300Z 32011KT 290V360 CAVOK 32/13 Q1021=
201906261330 METAR LRTC 261330Z 02006KT 320V060 CAVOK 33/12 Q1021=
201906261400 METAR LRTC 261400Z 33010KT 290V010 CAVOK 32/13 Q1020=
201906261430 METAR LRTC 261430Z 33008KT 280V020 CAVOK 32/14 Q1020=
201906261500 METAR LRTC 261500Z 35008KT 300V020 CAVOK 32/13 Q1020=
201906261530 METAR LRTC 261530Z 34006KT 310V030 CAVOK 32/13 Q1020=
201906261600 METAR LRTC 261600Z 15005KT 080V190 CAVOK 31/18 Q1020=
201906261630 METAR LRTC 261630Z 14006KT 110V170 CAVOK 30/15 Q1020=
201906261700 METAR LRTC 261700Z AUTO 14006KT 9999 FEW070/// 29/17 Q1020=
201906261730 METAR LRTC 261730Z AUTO 15007KT 9999 NCD 28/18 Q1020=
201906261800 METAR LRTC 261800Z AUTO VRB02KT 9999 NCD 26/18 Q1020=
201906261830 METAR LRTC 261830Z AUTO 17003KT 140V200 9999 NCD 26/18 Q1020=
201906261900 METAR LRTC 261900Z AUTO 19004KT 9999 NCD 25/18 Q1020=
201906261930 METAR LRTC 261930Z AUTO 19004KT 9999 NCD 24/18 Q1020=
201906262000 METAR LRTC 262000Z AUTO 15002KT 9999 NCD 23/18 Q1020=
201906262030 METAR LRTC 262030Z AUTO VRB01KT 9999 NCD 24/18 Q1020=
201906262100 METAR LRTC 262100Z AUTO 23004KT 9999 NCD 23/18 Q1020=
201906262130 METAR LRTC 262130Z AUTO 34005KT 300V040 9999 NCD 21/18 Q1019=
201906262200 METAR LRTC 262200Z AUTO 01002KT 330V070 9999 NCD 21/18 Q1019=
201906262230 METAR LRTC 262230Z AUTO 33004KT 9999 NCD 22/15 Q1019=
201906262300 METAR LRTC 262300Z AUTO 31004KT 220V340 9999 NCD 21/16 Q1019=
201906262330 METAR LRTC 262330Z AUTO VRB01KT 9999 NCD 21/16 Q1019=
201906270000 METAR LRTC 270000Z AUTO 22004KT 9999 NCD 20/16 Q1019=
201906270030 METAR LRTC 270030Z AUTO 23004KT 9999 NCD 19/15 Q1018=
201906270100 METAR LRTC 270100Z AUTO 24003KT 9999 NCD 19/15 Q1018=
201906270130 METAR LRTC 270130Z AUTO 00000KT 9000 NCD 18/15 Q1018=
201906270200 METAR LRTC 270200Z AUTO 00000KT 9999 NCD 19/15 Q1018=
201906270230 METAR LRTC 270230Z AUTO 27002KT 9999 NCD 18/14 Q1018=
201906270300 METAR LRTC 270300Z AUTO 34003KT 320V080 9999 NCD 18/15 Q1018=
201906270330 METAR LRTC 270330Z AUTO 05002KT 9999 NCD 19/16 Q1018=
201906270400 METAR LRTC 270400Z AUTO 00000KT 9999 NCD 21/17 Q1017=
201906270430 METAR LRTC 270430Z AUTO VRB01KT 9999 NCD 22/17 Q1017=
201906270500 METAR LRTC 270500Z 28003KT 250V310 CAVOK 24/16 Q1017 R16/CLRD//=
201906270530 METAR LRTC 270530Z 27003KT 240V310 CAVOK 25/16 Q1017=
201906270600 METAR LRTC 270600Z 27004KT 220V320 CAVOK 27/14 Q1017=
201906270630 METAR LRTC 270630Z VRB03KT CAVOK 29/14 Q1016=
201906270700 METAR LRTC 270700Z 27003KT CAVOK 29/12 Q1016=
201906270730 METAR LRTC 270730Z 24009KT CAVOK 30/11 Q1016=
201906270800 METAR LRTC 270800Z 25011KT CAVOK 30/10 Q1015=
201906270830 METAR LRTC 270830Z 26010KT 230V290 CAVOK 31/11 Q1015=
201906270900 METAR LRTC 270900Z 25010KT 220V280 CAVOK 31/11 Q1015=
201906270930 METAR LRTC 270930Z 26011KT CAVOK 32/12 Q1014=
201906271000 METAR LRTC 271000Z 26010KT CAVOK 32/11 Q1014=
201906271030 METAR LRTC 271030Z 27009KT 240V300 CAVOK 32/10 Q1014=
201906271100 METAR LRTC 271100Z 24008KT CAVOK 33/08 Q1013=
201906271130 METAR LRTC 271130Z 25009KT 210V300 CAVOK 33/10 Q1013=
201906271200 METAR LRTC 271200Z 24008KT 210V300 CAVOK 34/11 Q1012=
201906271230 METAR LRTC 271230Z 25010KT 220V280 CAVOK 34/12 Q1012=
201906271300 METAR LRTC 271300Z 25010KT 200V290 CAVOK 34/12 Q1011=
201906271330 METAR LRTC 271330Z 28009KT 230V320 CAVOK 34/13 Q1011=
201906271400 METAR LRTC 271400Z 25011KT 220V280 CAVOK 34/13 Q1010=
201906271430 METAR LRTC 271430Z 25011KT CAVOK 34/12 Q1010=
201906271500 METAR LRTC 271500Z 25010KT 220V290 CAVOK 34/13 Q1009=
201906271530 METAR LRTC 271530Z 25012KT CAVOK 34/13 Q1009=
201906271600 METAR LRTC 271600Z 26012KT CAVOK 34/10 Q1009=
201906271630 METAR LRTC 271630Z 28010KT CAVOK 33/09 Q1009=
201906271700 METAR LRTC 271700Z AUTO 28006KT 9999 NCD 31/11 Q1009=
201906271730 METAR LRTC 271730Z AUTO 29006KT 9999 R34/1800VP2000D NCD
                        29/12 Q1009=
201906271800 METAR LRTC 271800Z AUTO 31005KT 9999 NCD 28/14 Q1009=
201906271830 METAR LRTC 271830Z AUTO 34020KT 9999 FEW075/// SCT100///
                        26/18 Q1010=
201906271900 METAR LRTC 271900Z AUTO 33015KT 9999 NCD 25/19 Q1010=
201906271930 METAR LRTC 271930Z AUTO 33014KT 9999 NCD 25/18 Q1009=
201906272000 METAR LRTC 272000Z AUTO 33019KT 9999 NCD 25/18 Q1009=
201906272030 METAR LRTC 272030Z AUTO 31009KT 9999 NCD 24/18 Q1010=
201906272100 METAR LRTC 272100Z AUTO 29005KT 9999 FEW140/// 23/17 Q1009=
201906272130 METAR LRTC 272130Z AUTO 23003KT 9999 FEW120/// SCT150///
                        23/17 Q1009=
201906272200 METAR LRTC 272200Z AUTO 32008KT 9999 FEW110/// SCT190///
                        23/16 Q1009=
201906272230 METAR LRTC 272230Z AUTO 32009KT 9999 NCD 23/16 Q1009=
201906272300 METAR LRTC 272300Z AUTO 31013KT 9999 FEW180/// 22/16 Q1009=
201906272330 METAR LRTC 272330Z AUTO 32014KT 9999 FEW220/// 22/16 Q1009=
201906280000 METAR LRTC 280000Z AUTO 32013KT 9999 NCD 22/17 Q1009=
201906280030 METAR LRTC 280030Z AUTO 33014KT 9999 FEW120/// SCT150///
                        22/17 Q1009=
201906280100 METAR LRTC 280100Z AUTO 33014KT 9999 BKN140/// 22/17 Q1009=
201906280130 METAR LRTC 280130Z AUTO 33013KT 9999 FEW130/// BKN150///
                        22/17 Q1009=
201906280200 METAR LRTC 280200Z AUTO 33012KT 9999 SCT120/// 22/17 Q1009=
201906280230 METAR LRTC 280230Z AUTO 33014KT 9999 NCD 21/16 Q1009=
201906280300 METAR LRTC 280300Z AUTO 34014KT 9999 NCD 21/16 Q1010=
201906280330 METAR LRTC 280330Z AUTO 33013KT 9999 FEW085/// 22/16 Q1010=
201906280400 METAR LRTC 280400Z AUTO 33015KT 9999 SCT090/// 22/15 Q1010=
201906280430 METAR LRTC 280430Z AUTO 34017KT 9999 BKN090/// 23/15 Q1011=
201906280500 METAR LRTC 280500Z 34018KT CAVOK 23/14 Q1011 R16/CLRD//=
201906280530 METAR LRTC 280530Z 35018KT CAVOK 24/14 Q1011=
201906280600 METAR LRTC 280600Z 35018KT CAVOK 24/13 Q1010=
201906280630 METAR LRTC 280630Z 34019KT CAVOK 24/12 Q1011=
201906280700 METAR LRTC 280700Z 33018KT CAVOK 25/13 Q1012=
201906280730 METAR LRTC 280730Z 33018KT CAVOK 26/12 Q1011=
201906280800 METAR LRTC 280800Z 33021KT CAVOK 26/09 Q1011=
201906280830 METAR LRTC 280830Z 33019KT CAVOK 26/11 Q1011=
201906280900 METAR LRTC 280900Z 32018KT CAVOK 26/12 Q1011=
201906280930 METAR LRTC 280930Z 33021KT 300V360 CAVOK 26/08 Q1011=
201906281000 METAR LRTC 281000Z 33021KT CAVOK 27/09 Q1011=
201906281030 METAR LRTC 281030Z 35017KT CAVOK 27/10 Q1011=
201906281100 METAR LRTC 281100Z 34018KT CAVOK 27/08 Q1011=
201906281130 METAR LRTC 281130Z 35018KT CAVOK 27/09 Q1011=
201906281200 METAR LRTC 281200Z 34017G27KT 300V010 CAVOK 27/08 Q1011=
201906281230 METAR LRTC 281230Z 35016KT CAVOK 27/07 Q1011=
201906281300 METAR LRTC 281300Z 35019KT CAVOK 27/07 Q1011=
201906281330 METAR LRTC 281330Z 34018KT CAVOK 26/07 Q1011=
201906281400 METAR LRTC 281400Z 34016KT CAVOK 26/06 Q1011=
201906281430 METAR LRTC 281430Z 34017KT CAVOK 26/06 Q1011=
201906281500 METAR LRTC 281500Z 35017KT CAVOK 26/05 Q1011=
201906281530 METAR LRTC 281530Z 34015KT CAVOK 25/05 Q1011=
201906281600 METAR LRTC 281600Z 34016KT CAVOK 25/06 Q1012=
201906281630 METAR LRTC 281630Z 34015KT CAVOK 24/06 Q1012=
201906281700 METAR LRTC 281700Z AUTO 32012KT 9999 R34/1700VP2000U FEW090///
                        BKN110/// 24/05 Q1012=
201906281730 METAR LRTC 281730Z AUTO 34013KT 320V020 9999 BKN100/// 23/05
                        Q1013=
201906281800 METAR LRTC 281800Z AUTO 35012KT 9999 SCT100/// BKN120///
                        23/04 Q1013=
201906281830 METAR LRTC 281830Z AUTO 33013KT 9999 BKN110/// 22/05 Q1013=
201906281900 METAR LRTC 281900Z AUTO 34012KT 9999 FEW100/// SCT120///
                        22/05 Q1014=
201906281930 METAR LRTC 281930Z AUTO 32009KT 9999 BKN100/// 21/07 Q1014=
201906282000 METAR LRTC 282000Z AUTO 33011KT 9999 BKN110/// 20/07 Q1014=
201906282030 METAR LRTC 282030Z AUTO 32010KT 9999 FEW100/// 20/07 Q1014=
201906282100 METAR LRTC 282100Z AUTO 32013KT 9999 SCT100/// OVC120///
                        20/07 Q1014=
201906282130 METAR LRTC 282130Z AUTO 32013KT 9999 FEW095/// 20/07 Q1015=
201906282200 METAR LRTC 282200Z AUTO 33012KT 9999 SCT110/// 19/07 Q1015=
201906282230 METAR LRTC 282230Z AUTO 32011KT 9999 BKN110/// 19/08 Q1015=
201906282300 METAR LRTC 282300Z AUTO 32010KT 9999 BKN110/// 18/08 Q1015=
201906282330 METAR LRTC 282330Z AUTO 33010KT 9999 SCT100/// BKN120///
                        18/08 Q1015=
201906290000 METAR LRTC 290000Z AUTO 32013KT 9999 FEW110/// 18/07 Q1015=
201906290030 METAR LRTC 290030Z AUTO 33011KT 9999 NCD 17/07 Q1015=
201906290100 METAR LRTC 290100Z AUTO 33011KT 9999 NCD 16/07 Q1015=
201906290130 METAR LRTC 290130Z AUTO 33009KT 9000 NCD 16/07 Q1015=
201906290200 METAR LRTC 290200Z AUTO 33008KT 9999 NCD 16/08 Q1015=
201906290230 METAR LRTC 290230Z AUTO 33009KT 9000 NCD 15/08 Q1015=
201906290300 METAR LRTC 290300Z AUTO 33009KT 9999 NCD 15/08 Q1016=
201906290330 METAR LRTC 290330Z AUTO 31007KT 9999 NCD 15/09 Q1016=
201906290400 METAR LRTC 290400Z AUTO 32010KT 9999 SCT190/// 17/09 Q1016=
201906290430 METAR LRTC 290430Z AUTO 32012KT 9999 FEW190/// 18/09 Q1016=
201906290500 METAR LRTC 290500Z 32012KT CAVOK 19/08 Q1016=
201906290530 METAR LRTC 290530Z 32013KT CAVOK 20/07 Q1016=
201906290600 METAR LRTC 290600Z 31010KT 280V340 CAVOK 21/08 Q1016=
201906290630 METAR LRTC 290630Z 34011KT 300V360 CAVOK 22/05 Q1016=
201906290700 METAR LRTC 290700Z 32012KT 290V350 CAVOK 22/05 Q1016=
201906290730 METAR LRTC 290730Z 31012KT 280V350 CAVOK 23/06 Q1016=
201906290800 METAR LRTC 290800Z 30014KT CAVOK 22/04 Q1016=
201906290830 METAR LRTC 290830Z 31013KT CAVOK 24/04 Q1016=
201906290900 METAR LRTC 290900Z 32014KT 280V350 CAVOK 23/04 Q1016=
201906290930 METAR LRTC 290930Z 33013KT 290V350 CAVOK 24/05 Q1016=
201906291000 METAR LRTC 291000Z 33018KT 300V010 CAVOK 25/05 Q1015=
201906291030 METAR LRTC 291030Z 34016KT CAVOK 24/04 Q1015=
201906291100 METAR LRTC 291100Z 33015KT CAVOK 24/04 Q1015=
201906291130 METAR LRTC 291130Z 32017KT 290V350 CAVOK 24/04 Q1015=
201906291200 METAR LRTC 291200Z 34017KT CAVOK 25/03 Q1015=
201906291230 METAR LRTC 291230Z 32014KT 300V360 CAVOK 26/04 Q1015=
201906291300 METAR COR LRTC 291300Z 32016KT CAVOK 25/03 Q1015=
201906291330 METAR LRTC 291330Z 32015KT CAVOK 25/03 Q1015=
201906291400 METAR LRTC 291400Z 31014KT CAVOK 26/04 Q1015=
201906291430 METAR LRTC 291430Z 34016G26KT CAVOK 26/03 Q1015=
201906291500 METAR LRTC 291500Z 31014KT CAVOK 26/03 Q1015=
201906291530 METAR LRTC 291530Z 32010KT 280V350 CAVOK 25/04 Q1015=
201906291600 METAR LRTC 291600Z 31012KT CAVOK 24/04 Q1015=
201906291630 METAR LRTC 291630Z 31010KT CAVOK 24/05 Q1015=
201906291700 METAR LRTC 291700Z AUTO 33012KT 9999 FEW075/// SCT095///
                        23/05 Q1016=
201906291730 METAR LRTC 291730Z AUTO 32011KT 9999 FEW070/// SCT085///
                        23/06 Q1016=
201906291800 METAR LRTC 291800Z AUTO 32011KT 9999 BKN065/// BKN160///
                        23/07 Q1016=
201906291830 METAR LRTC 291830Z AUTO 31012KT 9999 FEW065/// SCT080///
                        BKN100/// 22/07 Q1017=
201906291900 METAR LRTC 291900Z AUTO 32014KT 9999 FEW075/// SCT110///
                        BKN150/// 22/05 Q1017=
201906291930 METAR LRTC 291930Z AUTO 32011KT 9999 FEW095/// SCT110///
                        BKN150/// 21/05 Q1017=
201906292000 METAR LRTC 292000Z AUTO 31008KT 9999 FEW090/// SCT110///
                        20/06 Q1017=
201906292030 METAR LRTC 292030Z AUTO 30007KT 9999 FEW230/// 18/07 Q1017=
201906292100 METAR LRTC 292100Z AUTO 29008KT 9999 BKN230/// 17/07 Q1017=
201906292130 METAR LRTC 292130Z AUTO 29007KT 9999 NCD 17/07 Q1017=
201906292200 METAR LRTC 292200Z AUTO 30007KT 9999 NCD 16/07 Q1017=
201906292230 METAR LRTC 292230Z AUTO 29008KT 9999 NCD 17/06 Q1017=
201906292300 METAR LRTC 292300Z AUTO 29009KT 9999 SCT130/// 18/07 Q1017=
201906292330 METAR LRTC 292330Z AUTO 29008KT 9999 FEW130/// 18/07 Q1017=
201906300000 METAR LRTC 300000Z AUTO 30010KT 9999 FEW065/// SCT080///
                        BKN110/// 18/07 Q1017=
201906300030 METAR LRTC 300030Z AUTO 30010KT 9999 FEW090/// 17/08 Q1017=
201906300100 METAR LRTC 300100Z AUTO 30009KT 9999 SCT100/// 17/09 Q1017=
201906300130 METAR LRTC 300130Z AUTO 29010KT 9999 SCT085/// BKN100///
                        18/09 Q1017=
201906300200 METAR LRTC 300200Z AUTO 31009KT 9999 FEW100/// 17/10 Q1017=
201906300230 METAR LRTC 300230Z AUTO 31009KT 9999 NCD 16/11 Q1017=
201906300300 METAR LRTC 300300Z AUTO 30008KT 9999 NCD 16/11 Q1017=
201906300330 METAR LRTC 300330Z AUTO 31007KT 9999 NCD 17/12 Q1017=
201906300400 METAR LRTC 300400Z AUTO 31007KT 9999 NCD 19/12 Q1017=
201906300430 METAR LRTC 300430Z AUTO 32010KT 280V340 9999 NCD 20/11 Q1017=
201906300500 METAR LRTC 300500Z 33012KT CAVOK 20/12 Q1018=
201906300530 METAR LRTC 300530Z 33012KT CAVOK 21/10 Q1018=
201906300600 METAR LRTC 300600Z 33011KT CAVOK 22/10 Q1018=
201906300630 METAR LRTC 300630Z 34010KT 310V020 CAVOK 23/07 Q1018=
201906300700 METAR LRTC 300700Z 35012KT 320V020 CAVOK 24/05 Q1018=
201906300730 METAR LRTC 300730Z 32012KT CAVOK 24/04 Q1018=
201906300800 METAR LRTC 300800Z 33015KT 300V360 CAVOK 25/04 Q1019=
201906300830 METAR LRTC 300830Z 33015KT CAVOK 25/05 Q1019=
201906300900 METAR LRTC 300900Z 33014KT 300V360 CAVOK 25/05 Q1018=
201906300930 METAR LRTC 300930Z 33015KT CAVOK 26/06 Q1019=
201906301000 METAR LRTC 301000Z 33013KT 300V010 CAVOK 27/05 Q1018=
201906301030 METAR LRTC 301030Z 33012KT 300V020 CAVOK 27/06 Q1018=
201906301100 METAR LRTC 301100Z 31010KT CAVOK 27/06 Q1018=
201906301130 METAR LRTC 301130Z 33013KT 300V030 CAVOK 28/06 Q1018=
201906301200 METAR LRTC 301200Z 34014KT CAVOK 27/07 Q1018=
201906301230 METAR LRTC 301230Z 34014KT CAVOK 28/07 Q1018=
201906301300 METAR LRTC 301300Z 35012KT CAVOK 28/07 Q1018=
201906301330 METAR LRTC 301330Z 35012KT CAVOK 28/07 Q1018=
201906301400 METAR LRTC 301400Z 34011KT CAVOK 28/08 Q1018=
201906301430 METAR LRTC 301430Z 33010KT CAVOK 28/08 Q1018=
201906301500 METAR LRTC 301500Z 30013KT CAVOK 28/08 Q1017=
201906301530 METAR LRTC 301530Z 32010KT 280V010 CAVOK 28/07 Q1017=
201906301600 METAR LRTC 301600Z 31011KT CAVOK 28/08 Q1017=
201906301630 METAR LRTC 301630Z 31009KT CAVOK 28/08 Q1017=
201906301700 METAR LRTC 301700Z AUTO 30007KT 9999 NCD 27/08 Q1017=
201906301730 METAR LRTC 301730Z AUTO 30005KT 9999 NCD 26/09 Q1017=
201906301800 METAR LRTC 301800Z AUTO 30005KT 9999 NCD 25/09 Q1017=
201906301830 METAR LRTC 301830Z AUTO 28005KT 9999 NCD 24/10 Q1017=
201906301900 METAR LRTC 301900Z AUTO 05004KT 9999 NCD 22/10 Q1018=
201906301930 METAR LRTC 301930Z AUTO 21006KT 9999 NCD 21/11 Q1018=
201906302000 METAR LRTC 302000Z AUTO 25003KT 9999 NCD 23/11 Q1018=
201906302030 METAR LRTC 302030Z AUTO 09002KT 8000 NCD 20/11 Q1018=
201906302100 METAR LRTC 302100Z AUTO 00000KT 9999 NCD 21/11 Q1018=
201906302130 METAR LRTC 302130Z AUTO 10003KT 060V120 9999 NCD 20/11 Q1018=
201906302200 METAR LRTC 302200Z AUTO 08003KT 9999 NCD 19/12 Q1018=
201906302230 METAR LRTC 302230Z AUTO 00000KT 9999 NCD 19/12 Q1018=
201906302300 METAR LRTC 302300Z AUTO 23002KT 9999 NCD 19/12 Q1017=
201906302330 METAR LRTC 302330Z AUTO 25004KT 9999 NCD 18/12 Q1018=
