201906010200 TAF LRTC 010200Z NIL=
201906010500 TAF LRTC 010500Z 0106/0115 34015KT 9999 BKN025
                      TEMPO 0112/0115 SCT035CB=
201906010800 TAF LRTC 010800Z 0109/0118 34015KT 9999 BKN025
                      TEMPO 0112/0115 SCT035CB=
201906011100 TAF LRTC 011100Z 0112/0121 34015KT 9999 BKN025
                      TEMPO 0112/0115 SCT035CB=
201906011400 TAF LRTC 011400Z 0115/0124 34008KT CAVOK=
201906011700 TAF LRTC 011700Z NIL=
201906012000 TAF LRTC 012000Z NIL=
201906012300 TAF LRTC 012300Z NIL=
201906020200 TAF LRTC 020200Z NIL=
201906020500 TAF LRTC 020500Z 0206/0215 34015KT CAVOK=
201906020800 TAF LRTC 020800Z 0209/0218 33012KT CAVOK=
201906021100 TAF LRTC 021100Z 0212/0221 01008KT CAVOK=
201906021400 TAF LRTC 021400Z 0215/0224 02007KT CAVOK=
201906021700 TAF LRTC 021700Z NIL=
201906022000 TAF LRTC 022000Z NIL=
201906022300 TAF LRTC 022300Z NIL=
201906030200 TAF LRTC 030200Z NIL=
201906030500 TAF LRTC 030500Z 0306/0315 33010KT CAVOK
                      PROB30 TEMPO 0306/0308 BKN015
                      BECMG 0306/0308 VRB04KT
                      BECMG 0308/0310 14012KT
                      TEMPO 0312/0315 FEW040CB=
201906030800 TAF LRTC 030800Z 0309/0318 15009KT 9999 SCT025
                      TEMPO 0312/0315 FEW035CB=
201906031100 TAF LRTC 031100Z 0312/0321 14010KT 9999 SCT035 FEW040CB
                      BECMG 0316/0318 NSC
                      PROB30 TEMPO 0319/0321 BKN015=
201906031400 TAF LRTC 031400Z 0315/0324 14010KT 9999 SCT045
                      PROB40 TEMPO 0321/0324 5000 BR BKN015=
201906031700 TAF LRTC 031700Z NIL=
201906032000 TAF LRTC 032000Z NIL=
201906032300 TAF LRTC 032300Z NIL=
201906040200 TAF LRTC 040200Z NIL=
201906040500 TAF LRTC 040500Z 0406/0415 12008KT 9999 SCT045
                      BECMG 0407/0408 19012KT
                      PROB40 TEMPO 0408/0411 5000 -TSRA BKN010
                       SCT045CB=
201906040800 TAF LRTC 040800Z 0409/0418 16009KT 9999 SCT030
                      PROB40 TEMPO 0409/0412 5000 -TSRA SCT040CB=
201906041100 TAF LRTC 041100Z 0412/0421 19009KT 9999 SCT040
                      PROB40 TEMPO 0412/0415 5000 -TSRA SCT035CB=
201906041400 TAF LRTC 041400Z 0415/0424 17010KT CAVOK
                      TEMPO 0418/0421 SCT045CB
                      BECMG 0421/0423 VRB04KT=
201906041700 TAF LRTC 041700Z NIL=
201906042000 TAF LRTC 042000Z NIL=
201906050200 TAF LRTC 050200Z NIL=
201906050500 TAF LRTC 050500Z 0506/0515 VRB04KT 9999 SCT030
                      BECMG 0507/0509 11010KT=
201906050800 TAF LRTC 050800Z 0509/0518 13010KT 9999 SCT035
                      TEMPO 0509/0511 SCT030CB=
201906051100 TAF LRTC 051100Z 0512/0521 13010KT CAVOK
                      TEMPO 0512/0516 SCT035CB
                      BECMG 0517/0519 VRB04KT=
201906051400 TAF LRTC 051400Z 0515/0524 14010KT CAVOK
                      BECMG 0517/0519 VRB04KT=
201906051700 TAF LRTC 051700Z NIL=
201906052000 TAF LRTC 052000Z NIL=
201906052300 TAF LRTC 052300Z NIL=
201906060200 TAF LRTC 060200Z NIL=
201906060500 TAF LRTC 060500Z 0606/0615 VRB04KT CAVOK
                      TEMPO 0611/0615 SCT040CB
                      PROB30 TEMPO 0612/0615 -TSRA=
201906060800 TAF LRTC 060800Z 0609/0618 VRB04KT CAVOK
                      TEMPO 0611/0618 SCT040CB
                      PROB30 TEMPO 0612/0617 -TSRA=
201906061100 TAF LRTC 061100Z 0612/0621 18008KT 9999 SCT045CB
                      TEMPO 0612/0617 5000 -TSRA
                      BECMG 0618/0620 SCT045=
201906061400 TAF LRTC 061400Z 0615/0624 15008KT 9999 SCT045CB
                      TEMPO 0615/0617 5000 -TSRA
                      BECMG 0618/0620 SCT045=
201906061700 TAF LRTC 061700Z NIL=
201906062000 TAF LRTC 062000Z NIL=
201906062300 TAF LRTC 062300Z NIL=
201906070200 TAF LRTC 070200Z NIL=
201906070500 TAF LRTC 070500Z 0706/0715 VRB04KT CAVOK
                      TEMPO 0709/0715 VRB15G25KT 5000 TSRA SCT015
                       SCT040CB
                      PROB30 TEMPO 0710/0714 3000 TSRA=
201906070800 TAF LRTC 070800Z 0709/0718 VRB04KT 9999 SCT035
                      TEMPO 0709/0715 VRB15G25KT 5000 TSRA SCT015
                       SCT030CB
                      PROB30 TEMPO 0710/0714 3000 TSRA=
201906071100 TAF LRTC 071100Z 0712/0721 VRB04KT 9999 SCT035
                      TEMPO 0712/0715 VRB15G25KT 5000 TSRA SCT015
                       SCT030CB
                      PROB30 TEMPO 0712/0714 3000 TSRA=
201906071400 TAF LRTC 071400Z 0715/0724 VRB04KT 9999 SCT040CB
                      TEMPO 0715/0717 VRB18KT -TSRA
                      BECMG 0717/0718 NSC=
201906071700 TAF LRTC 071700Z NIL=
201906072000 TAF LRTC 072000Z NIL=
201906072300 TAF LRTC 072300Z NIL=
201906080200 TAF LRTC 080200Z NIL=
201906080500 TAF LRTC 080500Z 0806/0815 VRB04KT 3000 BR BKN005
                      BECMG 0806/0808 CAVOK
                      PROB40 TEMPO 0812/0815 VRB18KT 3000 TSRA
                       BKN040CB=
201906080800 TAF LRTC 080800Z 0809/0818 VRB04KT CAVOK
                      PROB40 TEMPO 0812/0816 VRB18KT 3000 TSRA
                       BKN040CB=
201906080937 TAF AMD LRTC 080937Z 0809/0818 VRB04KT 9999 SCT045CB
                      TEMPO 0809/0814 5000 -TSRA
                      BECMG 0814/0816 NSC=
201906081100 TAF LRTC 081100Z 0812/0821 VRB04KT CAVOK
                      PROB30 TEMPO 0812/0815 5000 -TSRA SCT045CB=
201906081400 TAF LRTC 081400Z 0815/0824 VRB04KT 9999 SCT045CB
                      BECMG 0815/0817 NSC=
201906081700 TAF LRTC 081700Z NIL=
201906082000 TAF LRTC 082000Z NIL=
201906082300 TAF LRTC 082300Z NIL=
201906090200 TAF LRTC 090200Z NIL=
201906090433 TAF LRTC 090433Z 0904/0912 35010KT CAVOK=
201906090500 TAF LRTC 090500Z 0906/0915 35012KT CAVOK
                      TEMPO 0912/0915 VRB15G25KT 5000 -TSRA SCT035CB=
201906090800 TAF LRTC 090800Z 0909/0918 35012KT CAVOK
                      TEMPO 0912/0915 VRB20G30KT 3000 TSRA BKN035CB=
201906091100 TAF LRTC 091100Z 0912/0921 35012KT 9999 SCT045
                      TEMPO 0912/0915 VRB20G30KT 3000 TSRA BKN035CB=
201906091400 TAF LRTC 091400Z 0915/0924 04010KT 9999 SCT045CB
                      TEMPO 0915/0918 VRB20G30KT 3000 TSRA BKN035CB
                       BECMG 0919/0921 NSC=
201906091700 TAF LRTC 091700Z NIL=
201906092000 TAF LRTC 092000Z NIL=
201906092300 TAF LRTC 092300Z NIL=
201906100200 TAF LRTC 100200Z NIL=
201906100500 TAF LRTC 100500Z 1006/1015 34012KT CAVOK
                      BECMG 1006/1008 04014KT
                      TEMPO 1009/1013 05016G26KT SCT045CB=
201906100800 TAF LRTC 100800Z 1009/1018 04014KT 9999 SCT035
                      TEMPO 1010/1013 05016G26KT SCT035CB=
201906101100 TAF LRTC 101100Z 1012/1021 04014KT 9999 SCT045
                      BECMG 1017/1019 VRB04KT=
201906101400 TAF LRTC 101400Z 1015/1024 06012KT CAVOK
                      PROB30 TEMPO 1015/1017 5000 -SHRA SCT040CB
                       BECMG 1017/1019 VRB04KT=
201906101700 TAF LRTC 101700Z NIL=
201906102000 TAF LRTC 102000Z NIL=
201906102300 TAF LRTC 102300Z NIL=
201906110200 TAF LRTC 110200Z NIL=
201906110500 TAF LRTC 110500Z 1106/1115 05015KT CAVOK
                      TEMPO 1108/1115 06017G27KT FEW050CB=
201906110800 TAF LRTC 110800Z 1109/1118 05015KT CAVOK
                      TEMPO 1109/1115 06017G27KT FEW050CB=
201906111100 TAF LRTC 111100Z 1112/1121 05016KT CAVOK
                      TEMPO 1112/1115 06017G27KT FEW050CB
                      BECMG 1118/1120 VRB04KT=
201906111400 TAF LRTC 111400Z 1115/1124 06018KT CAVOK
                      BECMG 1118/1120 05008KT=
201906111700 TAF LRTC 111700Z NIL=
201906112000 TAF LRTC 112000Z NIL=
201906112300 TAF LRTC 112300Z NIL=
201906120200 TAF LRTC 120200Z NIL=
201906120302 TAF LRTC 120302Z 1203/1212 34008KT CAVOK=
201906120500 TAF LRTC 120500Z 1206/1215 36010KT CAVOK=
201906120800 TAF LRTC 120800Z 1209/1218 36014KT CAVOK=
201906121100 TAF LRTC 121100Z 1212/1221 01012KT CAVOK=
201906121400 TAF LRTC 121400Z 1215/1224 02010KT CAVOK=
201906121700 TAF LRTC 121700Z NIL=
201906122000 TAF LRTC 122000Z NIL=
201906122300 TAF LRTC 122300Z NIL=
201906130200 TAF LRTC 130200Z 1303/1312 35007KT CAVOK
                      PROB40 TEMPO 1309/1312 -TSRA SCT045CB=
201906130500 TAF LRTC 130500Z 1306/1315 35007KT CAVOK
                      PROB40 TEMPO 1312/1315 -TSRA SCT045CB=
201906130800 TAF LRTC 130800Z 1309/1318 02010KT CAVOK
                      PROB40 TEMPO 1312/1316 -TSRA SCT045CB=
201906131100 TAF LRTC 131100Z 1312/1321 02008KT CAVOK
                      PROB40 TEMPO 1312/1316 -TSRA SCT045CB=
201906131400 TAF LRTC 131400Z 1315/1324 33006KT CAVOK
                      PROB40 TEMPO 1315/1317 -TSRA SCT045CB=
201906131700 TAF LRTC 131700Z NIL=
201906132000 TAF LRTC 132000Z NIL=
201906132300 TAF LRTC 132300Z NIL=
201906140200 TAF LRTC 140200Z 1403/1412 34010KT CAVOK
                      BECMG 1408/1410 04010KT=
201906140500 TAF LRTC 140500Z 1406/1415 34012KT CAVOK
                      BECMG 1408/1410 05010KT=
201906140800 TAF LRTC 140800Z 1409/1418 34012KT CAVOK
                      BECMG 1409/1411 05010KT=
201906141100 TAF LRTC 141100Z 1412/1421 05008KT CAVOK=
201906141400 TAF LRTC 141400Z NIL=
201906141700 TAF LRTC 141700Z NIL=
201906142000 TAF LRTC 142000Z NIL=
201906142300 TAF LRTC 142300Z NIL=
201906150200 TAF LRTC 150200Z 1503/1512 35008KT CAVOK=
201906150500 TAF LRTC 150500Z 1506/1515 36010KT CAVOK
                      BECMG 1510/1512 SCT040CB
                      PROB40 TEMPO 1512/1515 5000 TSRA=
201906150800 TAF LRTC 150800Z 1509/1518 02010KT CAVOK
                      BECMG 1510/1512 SCT040CB
                      PROB40 TEMPO 1512/1515 5000 TSRA
                      BECMG 1516/1518 NSC=
201906151100 TAF LRTC 151100Z 1512/1521 02010KT 9999 SCT050CB
                      TEMPO 1512/1515 5000 TSRA
                      BECMG 1516/1518 NSC=
201906151400 TAF LRTC 151400Z 1515/1524 34010KT 9999 FEW045CB
                      BECMG 1516/1518 NSC=
201906151700 TAF LRTC 151700Z NIL=
201906152000 TAF LRTC 152000Z NIL=
201906152300 TAF LRTC 152300Z NIL=
201906160200 TAF LRTC 160200Z 1603/1612 VRB04KT CAVOK
                      TEMPO 1610/1612 SCT040CB=
201906160500 TAF LRTC 160500Z 1606/1615 02008KT CAVOK
                      TEMPO 1610/1615 -TSRA SCT040CB=
201906160800 TAF LRTC 160800Z 1609/1618 02008KT CAVOK
                      TEMPO 1610/1615 -TSRA SCT040CB=
201906161100 TAF LRTC 161100Z 1612/1621 04010KT CAVOK
                      TEMPO 1612/1615 -TSRA SCT040CB
                      BECMG 1615/1617 VRB04KT=
201906161400 TAF LRTC 161400Z NIL=
201906161700 TAF LRTC 161700Z NIL=
201906162000 TAF LRTC 162000Z NIL=
201906162300 TAF LRTC 162300Z NIL=
201906170200 TAF LRTC 170200Z 1703/1712 VRB04KT CAVOK=
201906170500 TAF LRTC 170500Z 1706/1715 02010KT CAVOK
                      BECMG 1711/1713 09014KT=
201906170800 TAF LRTC 170800Z 1709/1718 02008KT CAVOK
                      BECMG 1709/1711 09016KT
                      BECMG 1716/1718 VRB04KT=
201906171100 TAF LRTC 171100Z 1712/1721 08010KT CAVOK
                      PROB40 TEMPO 1713/1716 10015G25KT SCT040CB
                       BECMG 1716/1718 VRB04KT=
201906171400 TAF LRTC 171400Z NIL=
201906171700 TAF LRTC 171700Z NIL=
201906172000 TAF LRTC 172000Z NIL=
201906172300 TAF LRTC 172300Z NIL=
201906180200 TAF LRTC 180200Z 1803/1812 34010KT CAVOK
                      BECMG 1805/1807 05012KT=
201906180500 TAF LRTC 180500Z 1806/1815 35014KT CAVOK
                      BECMG 1806/1808 05012KT
                      TEMPO 1811/1815 VRB20KT 5000 -TSRA SCT040CB=
201906180800 TAF LRTC 180800Z 1809/1818 34012KT CAVOK
                      BECMG 1809/1811 05012KT
                      TEMPO 1811/1816 VRB20KT 5000 -TSRA SCT040CB=
201906181100 TAF LRTC 181100Z 1812/1821 05010KT CAVOK
                      TEMPO 1812/1816 VRB20KT 5000 -TSRA SCT040CB=
201906181400 TAF LRTC 181400Z 1815/1824 05010KT CAVOK
                      TEMPO 1815/1818 SCT040CB
                      PROB30 TEMPO 1815/1818 VRB20KT 5000 -TSRA=
201906181700 TAF LRTC 181700Z 1818/1903 05010KT CAVOK=
201906182000 TAF LRTC 182000Z NIL=
201906182300 TAF LRTC 182300Z NIL=
201906190200 TAF LRTC 190200Z NIL=
201906190338 TAF LRTC 190338Z 1903/1912 33010KT CAVOK=
201906190500 TAF LRTC 190500Z 1906/1915 35012KT CAVOK
                      BECMG 1909/1911 FEW045CB
                      TEMPO 1911/1915 VRB20KT 5000 -TSRA BKN010
                       BKN035CB=
201906190800 TAF LRTC 190800Z 1909/1918 35012KT CAVOK
                      BECMG 1909/1911 FEW045CB
                      TEMPO 1911/1916 VRB20KT 5000 -TSRA BKN010
                       BKN035CB
                      BECMG 1916/1918 NSC=
201906191100 TAF LRTC 191100Z 1912/1921 35008KT 9999 SCT050CB
                      TEMPO 1912/1916 VRB20KT 5000 -TSRA BKN010
                       BKN040CB
                      BECMG 1916/1918 NSC=
201906191400 TAF LRTC 191400Z 1915/1924 29014KT 9999 SCT040CB
                      TEMPO 1915/1917 5000 -TSRA
                      BECMG 1916/1918 36008KT NSC=
201906191700 TAF LRTC 191700Z NIL=
201906192000 TAF LRTC 192000Z NIL=
201906192300 TAF LRTC 192300Z NIL=
201906200200 TAF LRTC 200200Z NIL=
201906200500 TAF LRTC 200500Z 2006/2015 03006KT CAVOK
                      TEMPO 2009/2014
                      PROB40 TEMPO 2010/2013 VRB18KT 3000 TSRA
                       BKN040CB=
201906200719 TAF COR LRTC 200719Z 2006/2015 03006KT CAVOK
                      TEMPO 2009/2014 SCT040CB
                      PROB40 TEMPO 2010/2013 VRB18KT 3000 TSRA
                       BKN040CB=
201906200800 TAF LRTC 200800Z 2009/2018 01008KT CAVOK
                      TEMPO 2009/2014 SCT040CB
                      PROB40 TEMPO 2010/2013 VRB18KT 3000 TSRA
                       BKN040CB=
201906201100 TAF LRTC 201100Z 2012/2021 07010KT 9999 FEW050CB
                      PROB40 TEMPO 2012/2014 3000 TSRA BKN040CB
                       BECMG 2015/2017 VRB04KT NSC=
201906201400 TAF LRTC 201400Z 2015/2024 24010KT CAVOK
                      BECMG 2015/2017 VRB04KT NSC=
201906201700 TAF LRTC 201700Z NIL=
201906202000 TAF LRTC 202000Z NIL=
201906202300 TAF LRTC 202300Z NIL=
201906210200 TAF LRTC 210200Z NIL=
201906210500 TAF LRTC 210500Z 2106/2115 VRB04KT CAVOK
                      TEMPO 2111/2115 VRB15G25KT 5000 TSRA SCT030CB=
201906210800 TAF LRTC 210800Z 2109/2118 VRB04KT CAVOK
                      PROB30 TEMPO 2111/2116 VRB15G25KT 5000 TSRA
                       SCT030CB=
201906211100 TAF LRTC 211100Z 2112/2121 29012KT CAVOK
                      PROB30 TEMPO 2112/2116 5000 TSRA SCT040CB
                       BECMG 2116/2118 VRB04KT=
201906211400 TAF LRTC 211400Z 2115/2124 34008KT CAVOK
                      TEMPO 2115/2117 SCT040CB=
201906211700 TAF LRTC 211700Z NIL=
201906212000 TAF LRTC 212000Z NIL=
201906212300 TAF LRTC 212300Z NIL=
201906220200 TAF LRTC 220200Z NIL=
201906220500 TAF LRTC 220500Z 2206/2215 34007KT CAVOK
                      TEMPO 2212/2215 VRB20G30KT 3000 TSRA SCT010
                       BKN035CB=
201906220800 TAF LRTC 220800Z 2209/2218 34010KT CAVOK
                      TEMPO 2212/2215 VRB20G30KT 3000 TSRA SCT010
                       BKN035CB
                      BECMG 2215/2217 VRB04KT=
201906221100 TAF LRTC 221100Z 2212/2221 36008KT CAVOK
                      PROB40 TEMPO 2212/2215 VRB20G30KT 3000 TSRA
                       SCT010 BKN035CB=
201906221400 TAF LRTC 221400Z 2215/2224 14007KT 9999 SCT040=
201906221534 TAF AMD LRTC 221534Z 2215/2224 14007KT 9999 SCT040=
201906221700 TAF LRTC 221700Z NIL=
201906222000 TAF LRTC 222000Z NIL=
201906222300 TAF LRTC 222300Z NIL=
201906230200 TAF LRTC 230200Z 2303/2312 VRB04KT CAVOK=
201906230500 TAF LRTC 230500Z 2306/2315 VRB04KT CAVOK
                      PROB30 TEMPO 2312/2315 VRB15G25KT 5000 -TSRA
                       SCT035CB=
201906230800 TAF LRTC 230800Z 2309/2318 36008KT CAVOK
                      PROB30 TEMPO 2312/2316 VRB15G25KT 5000 -TSRA
                       SCT035CB=
201906231100 TAF LRTC 231100Z 2312/2321 VRB04KT CAVOK
                      PROB30 TEMPO 2312/2316 VRB15G25KT 5000 -TSRA
                       SCT035CB=
201906231400 TAF LRTC 231400Z 2315/2324 VRB04KT CAVOK
                      PROB30 TEMPO 2315/2317 VRB15G25KT 5000 -TSRA
                       SCT035CB=
201906231700 TAF LRTC 231700Z NIL=
201906232000 TAF LRTC 232000Z NIL=
201906232300 TAF LRTC 232300Z NIL=
201906240200 TAF LRTC 240200Z NIL=
201906240500 TAF LRTC 240500Z 2406/2415 01010KT CAVOK
                      PROB30 TEMPO 2412/2415 VRB15G25KT 5000 -TSRA
                       SCT040CB=
201906240800 TAF LRTC 240800Z 2409/2418 01010KT CAVOK
                      PROB30 TEMPO 2412/2415 SCT040CB=
201906241100 TAF LRTC 241100Z 2412/2421 34010KT CAVOK
                      PROB40 TEMPO 2412/2415 VRB15G25KT 5000 -TSRA
                       SCT030CB=
201906241400 TAF LRTC 241400Z 2415/2424 33010KT CAVOK
                      PROB30 TEMPO 2415/2417 5000 -TSRA SCT030CB
                       BECMG 2418/2420 VRB04KT=
201906241700 TAF LRTC 241700Z NIL=
201906242000 TAF LRTC 242000Z NIL=
201906242300 TAF LRTC 242300Z NIL=
201906250200 TAF LRTC 250200Z NIL=
201906250500 TAF LRTC 250500Z 2506/2515 35015KT CAVOK
                      TEMPO 2508/2513 3000 TSRA BKN010 BKN030CB
                       PROB30 2509/2512 02031G41KT 1500 SQ +TSRAGR=
201906250800 TAF LRTC 250800Z 2509/2518 02015KT CAVOK
                      TEMPO 2509/2513 3000 TSRA BKN010 BKN030CB
                       PROB30 2509/2512 02031G41KT 1500 SQ +TSRAGR=
201906251100 TAF LRTC 251100Z 2512/2521 02015KT CAVOK
                      TEMPO 2512/2515 3000 TSRA BKN010 BKN030CB=
201906251250 TAF AMD LRTC 251250Z 2512/2521 02015KT CAVOK
                      TEMPO 2512/2515 34025G35KT 3000 TSRA BKN010
                       BKN030CB=
201906251400 TAF LRTC 251400Z 2515/2524 34010KT CAVOK
                      PROB40 TEMPO 2515/2520 36015G25KT 3000 TSRA
                       BKN030CB=
201906251700 TAF LRTC 251700Z NIL=
201906252000 TAF LRTC 252000Z NIL=
201906252300 TAF LRTC 252300Z NIL=
201906260200 TAF LRTC 260200Z NIL=
201906260500 TAF LRTC 260500Z 2606/2615 34012KT CAVOK
                      TEMPO 2610/2615 SCT045CB=
201906260800 TAF LRTC 260800Z 2609/2618 34014KT CAVOK
                      TEMPO 2610/2617 SCT045CB
                      BECMG 2616/2618 VRB04KT=
201906261100 TAF LRTC 261100Z 2612/2621 34014KT CAVOK
                      PROB40 TEMPO 2612/2617 SCT045CB
                      BECMG 2616/2618 VRB04KT=
201906261400 TAF LRTC 261400Z 2615/2624 33010KT CAVOK
                      BECMG 2616/2618 VRB04KT=
201906261700 TAF LRTC 261700Z NIL=
201906262000 TAF LRTC 262000Z NIL=
201906262300 TAF LRTC 262300Z NIL=
201906270200 TAF LRTC 270200Z 2703/2712 33010KT CAVOK
                      BECMG 2708/2710 26010KT SCT030CB=
201906270500 TAF LRTC 270500Z 2706/2715 VRB04KT CAVOK
                      BECMG 2708/2710 24012KT=
201906270800 TAF LRTC 270800Z 2709/2718 27012KT CAVOK=
201906271100 TAF LRTC 271100Z 2712/2721 27012KT CAVOK
                      TEMPO 2719/2721 33020G30KT SCT045CB=
201906271400 TAF LRTC 271400Z 2715/2724 25012KT CAVOK
                      TEMPO 2718/2721 33020G30KT SCT045CB=
201906271700 TAF LRTC 271700Z NIL=
201906272000 TAF LRTC 272000Z NIL=
201906272300 TAF LRTC 272300Z NIL=
201906280200 TAF LRTC 280200Z NIL=
201906280500 TAF LRTC 280500Z 2806/2815 34018KT CAVOK
                      TEMPO 2809/2815 34018G28KT=
201906280800 TAF LRTC 280800Z 2809/2818 34018KT CAVOK
                      TEMPO 2809/2816 34018G28KT=
201906281100 TAF LRTC 281100Z 2812/2821 34018KT CAVOK
                      TEMPO 2812/2816 34018G28KT=
201906281400 TAF LRTC 281400Z 2815/2824 34016KT CAVOK
                      TEMPO 2815/2817 34016G26KT=
201906281700 TAF LRTC 281700Z NIL=
201906282000 TAF LRTC 282000Z NIL=
201906282300 TAF LRTC 282300Z NIL=
201906290200 TAF LRTC 290200Z NIL=
201906290500 TAF LRTC 290500Z 2906/2915 32012KT CAVOK
                      TEMPO 2908/2915 34015G25KT=
201906290800 TAF LRTC 290800Z 2909/2918 32014KT CAVOK
                      TEMPO 2909/2916 34015G25KT=
201906291100 TAF LRTC 291100Z 2912/2921 32014KT CAVOK
                      TEMPO 2912/2916 34015G25KT=
201906291400 TAF LRTC 291400Z 2915/2924 32012KT CAVOK
                      TEMPO 2915/2917 33015G25KT=
201906291700 TAF LRTC 291700Z NIL=
201906292000 TAF LRTC 292000Z NIL=
201906292300 TAF LRTC 292300Z NIL=
201906300200 TAF LRTC 300200Z NIL=
201906300500 TAF LRTC 300500Z 3006/3015 33014KT CAVOK=
201906300800 TAF LRTC 300800Z 3009/3018 34012KT CAVOK=
201906301100 TAF LRTC 301100Z 3012/3021 34012KT CAVOK
                      BECMG 3019/3021 VRB03KT=
201906301400 TAF LRTC 301400Z 3015/3024 34012KT CAVOK
                      BECMG 3019/3021 VRB03KT=
201906301700 TAF LRTC 301700Z NIL=
201906302000 TAF LRTC 302000Z NIL=
201906302300 TAF LRTC 302300Z NIL=