201907010000 METAR LRTC 010000Z AUTO 22003KT 9999 NCD 19/12 Q1017=
201907010030 METAR LRTC 010030Z AUTO 10001KT 9999 NCD 17/12 Q1017=
201907010100 METAR LRTC 010100Z AUTO 27002KT 9999 NCD 18/12 Q1017=
201907010130 METAR LRTC 010130Z AUTO 24002KT 9999 NCD 18/12 Q1017=
201907010200 METAR LRTC 010200Z AUTO 23002KT 9999 NCD 16/12 Q1017=
201907010230 METAR LRTC 010230Z AUTO 30001KT 9999 NCD 16/12 Q1017=
201907010300 METAR LRTC 010300Z AUTO 01002KT 9999 NCD 17/12 Q1017=
201907010330 METAR LRTC 010330Z AUTO 02003KT 9999 NCD 18/13 Q1017=
201907010400 METAR LRTC 010400Z AUTO 05001KT 9999 NCD 20/13 Q1017=
201907010430 METAR LRTC 010430Z AUTO VRB01KT 9999 NCD 22/14 Q1017=
201907010500 METAR LRTC 010500Z VRB01KT CAVOK 23/13 Q1017=
201907010530 METAR LRTC 010530Z VRB02KT CAVOK 27/16 Q1017=
201907010600 METAR LRTC 010600Z 32005KT 270V010 CAVOK 29/16 Q1017=
201907010630 METAR LRTC 010630Z 02004KT 300V100 CAVOK 30/14 Q1017=
201907010700 METAR LRTC 010700Z 36006KT 300V050 CAVOK 30/11 Q1017=
201907010730 METAR LRTC 010730Z VRB03KT CAVOK 31/10 Q1017=
201907010800 METAR LRTC 010800Z VRB02KT CAVOK 31/10 Q1017=
201907010830 METAR LRTC 010830Z VRB02KT CAVOK 32/08 Q1017=
201907010900 METAR LRTC 010900Z VRB03KT CAVOK 32/08 Q1017=
201907010930 METAR LRTC 010930Z 17005KT 060V230 CAVOK 33/10 Q1017=
201907011000 METAR LRTC 011000Z 17005KT 080V230 CAVOK 33/09 Q1017=
201907011030 METAR LRTC 011030Z 16007KT 110V230 CAVOK 34/08 Q1017=
201907011100 METAR LRTC 011100Z 23005KT 180V260 CAVOK 34/09 Q1016=
201907011130 METAR LRTC 011130Z 15012KT 120V180 CAVOK 34/11 Q1016=
201907011200 METAR LRTC 011200Z 12008KT CAVOK 34/11 Q1016=
201907011230 METAR LRTC 011230Z 13011KT 100V160 CAVOK 34/11 Q1016=
201907011300 METAR LRTC 011300Z 15012KT 120V180 CAVOK 34/11 Q1016=
201907011330 METAR LRTC 011330Z 14013KT CAVOK 33/11 Q1016=
201907011400 METAR LRTC 011400Z 14013KT CAVOK 33/11 Q1015=
201907011430 METAR LRTC 011430Z 15013KT CAVOK 33/12 Q1015=
201907011500 METAR LRTC 011500Z 15013KT CAVOK 32/12 Q1015=
201907011530 METAR LRTC 011530Z 14014KT CAVOK 32/12 Q1015=
201907011600 METAR LRTC 011600Z 15014KT CAVOK 30/13 Q1015=
201907011630 METAR LRTC 011630Z 15010KT CAVOK 30/14 Q1015=
201907011700 METAR LRTC 011700Z AUTO 15009KT 9999 NCD 29/13 Q1015=
201907011730 METAR LRTC 011730Z AUTO 15008KT 9999 NCD 27/15 Q1015=
201907011800 METAR LRTC 011800Z AUTO 15007KT 9999 NCD 26/15 Q1015=
201907011830 METAR LRTC 011830Z AUTO 16006KT 9999 NCD 25/15 Q1015=
201907011900 METAR LRTC 011900Z AUTO 16004KT 9999 NCD 24/15 Q1015=
201907011930 METAR LRTC 011930Z AUTO 16004KT 9999 NCD 24/15 Q1015=
201907012000 METAR LRTC 012000Z AUTO 16005KT 9999 NCD 24/15 Q1015=
201907012030 METAR LRTC 012030Z AUTO 17007KT 9999 NCD 23/15 Q1015=
201907012100 METAR LRTC 012100Z AUTO 18006KT 9999 NCD 24/15 Q1015=
201907012130 METAR LRTC 012130Z AUTO 17006KT 9999 NCD 23/15 Q1015=
201907012200 METAR LRTC 012200Z AUTO 16006KT 9999 NCD 22/14 Q1015=
201907012230 METAR LRTC 012230Z AUTO 17007KT 9999 NCD 21/15 Q1015=
201907012300 METAR LRTC 012300Z AUTO 16004KT 9999 NCD 21/15 Q1015=
201907012330 METAR LRTC 012330Z AUTO 12003KT 9999 NCD 21/15 Q1015=
201907020000 METAR LRTC 020000Z AUTO 15005KT 9999 NCD 21/15 Q1014=
201907020030 METAR LRTC 020030Z AUTO 16006KT 9999 NCD 21/14 Q1014=
201907020100 METAR LRTC 020100Z AUTO 15005KT 9999 NCD 20/15 Q1014=
201907020130 METAR LRTC 020130Z AUTO 15006KT 9999 NCD 20/15 Q1014=
201907020200 METAR LRTC 020200Z AUTO 17007KT 9999 NCD 20/15 Q1014=
201907020230 METAR LRTC 020230Z AUTO 16005KT 9999 NCD 20/15 Q1014=
201907020300 METAR LRTC 020300Z AUTO 17004KT 9999 NCD 21/15 Q1014=
201907020330 METAR LRTC 020330Z AUTO 16006KT 9999 NCD 21/15 Q1014=
201907020400 METAR LRTC 020400Z AUTO 16004KT 9999 NCD 23/15 Q1014=
201907020430 METAR LRTC 020430Z AUTO 17003KT 9999 NCD 25/15 Q1014=
201907020500 METAR LRTC 020500Z 18006KT CAVOK 26/15 Q1013=
201907020530 METAR LRTC 020530Z 19006KT CAVOK 28/14 Q1013 R16/CLRD//=
201907020600 METAR LRTC 020600Z 18006KT 140V240 CAVOK 29/14 Q1013=
201907020630 METAR LRTC 020630Z 19008KT 160V220 CAVOK 30/14 Q1013=
201907020700 METAR LRTC 020700Z 19007KT 160V230 CAVOK 31/14 Q1013=
201907020730 METAR LRTC 020730Z 25008KT 210V280 CAVOK 32/14 Q1013=
201907020800 METAR LRTC 020800Z 24006KT 200V280 CAVOK 33/14 Q1013=
201907020830 METAR LRTC 020830Z 23008KT 180V270 CAVOK 35/15 Q1013=
201907020900 METAR LRTC 020900Z 21008KT 170V250 CAVOK 35/14 Q1013=
201907020930 METAR LRTC 020930Z 19008KT 160V220 CAVOK 35/13 Q1012=
201907021000 METAR LRTC 021000Z 17009KT 140V200 CAVOK 35/13 Q1012=
201907021030 METAR LRTC 021030Z VRB04KT CAVOK 36/12 Q1012=
201907021100 METAR LRTC 021100Z 17005KT CAVOK 36/13 Q1012=
201907021130 METAR LRTC 021130Z 20009KT 160V240 CAVOK 37/14 Q1011=
201907021200 METAR LRTC 021200Z 15012KT CAVOK 36/15 Q1011=
201907021230 METAR LRTC 021230Z 17012KT 130V200 CAVOK 36/15 Q1011=
201907021300 METAR LRTC 021300Z 15013KT CAVOK 36/15 Q1011=
201907021330 METAR LRTC 021330Z 14012KT CAVOK 36/15 Q1011=
201907021400 METAR LRTC 021400Z 16011KT 130V190 CAVOK 36/14 Q1011=
201907021430 METAR LRTC 021430Z 16013KT CAVOK 36/14 Q1010=
201907021500 METAR LRTC 021500Z 16012KT CAVOK 35/14 Q1011=
201907021530 METAR LRTC 021530Z 16011KT CAVOK 34/14 Q1011=
201907021600 METAR LRTC 021600Z 16010KT CAVOK 33/15 Q1011=
201907021630 METAR LRTC 021630Z 15009KT CAVOK 33/14 Q1011=
201907021700 METAR LRTC 021700Z AUTO 12008KT 7000 NCD 31/15 Q1011=
201907021730 METAR LRTC 021730Z AUTO 11009KT 9999 NCD 29/15 Q1011=
201907021800 METAR LRTC 021800Z AUTO 14008KT 9999 NCD 28/16 Q1011=
201907021830 METAR LRTC 021830Z AUTO 11006KT 9999 NCD 26/16 Q1011=
201907021900 METAR LRTC 021900Z AUTO 11007KT 9999 NCD 26/16 Q1011=
201907021930 METAR LRTC 021930Z AUTO 11006KT 9999 NCD 25/17 Q1012=
201907022000 METAR LRTC 022000Z AUTO 13006KT 9999 NCD 25/16 Q1012=
201907022030 METAR LRTC 022030Z AUTO 12006KT 9999 NCD 24/16 Q1012=
201907022100 METAR LRTC 022100Z AUTO 13006KT 9999 NCD 24/17 Q1012=
201907022130 METAR LRTC 022130Z AUTO 15004KT 9999 NCD 23/18 Q1012=
201907022200 METAR LRTC 022200Z AUTO 16004KT 9999 NCD 23/18 Q1012=
201907022230 METAR LRTC 022230Z AUTO 15002KT 030V190 9999 NCD 23/18 Q1012=
201907022300 METAR LRTC 022300Z AUTO 36007KT 9999 NCD 24/18 Q1012=
201907022330 METAR LRTC 022330Z AUTO 01004KT 9999 NCD 23/19 Q1012=
201907030000 METAR LRTC 030000Z AUTO 29004KT 270V340 9999 NCD 22/19 Q1012=
201907030030 METAR LRTC 030030Z AUTO 34009KT 9999 NCD 23/19 Q1012=
201907030100 METAR LRTC 030100Z AUTO 34007KT 9999 NCD 23/19 Q1012=
201907030130 METAR LRTC 030130Z AUTO 34006KT 9999 NCD 22/19 Q1012=
201907030200 METAR LRTC 030200Z AUTO 34005KT 9999 NCD 22/19 Q1012=
201907030230 METAR LRTC 030230Z AUTO 34007KT 9999 NCD 22/19 Q1012=
201907030300 METAR LRTC 030300Z AUTO 35007KT 9000 R34/1400VP2000D NCD
                        22/19 Q1012=
201907030330 METAR LRTC 030330Z AUTO 36007KT 9999 NCD 23/17 Q1012=
201907030400 METAR LRTC 030400Z AUTO 34010KT 9999 NCD 24/17 Q1012=
201907030430 METAR LRTC 030430Z AUTO 36010KT 9999 NCD 24/16 Q1013=
201907030500 METAR LRTC 030500Z 36009KT CAVOK 25/16 Q1013 R16/CLRD//=
201907030530 METAR LRTC 030530Z 01010KT CAVOK 26/16 Q1013=
201907030600 METAR LRTC 030600Z 01009KT 340V050 CAVOK 26/16 Q1013=
201907030630 METAR LRTC 030630Z 02007KT 350V050 CAVOK 27/17 Q1013=
201907030700 METAR LRTC 030700Z 01007KT 320V060 CAVOK 28/17 Q1013=
201907030730 METAR LRTC 030730Z 04007KT 350V080 CAVOK 28/17 Q1013=
201907030800 METAR LRTC 030800Z 02008KT 350V050 CAVOK 29/17 Q1013=
201907030830 METAR LRTC 030830Z 02006KT 330V080 CAVOK 30/17 Q1013=
201907030900 METAR LRTC 030900Z 36006KT 320V060 CAVOK 31/16 Q1012=
201907030930 METAR COR LRTC 030930Z 06007KT 030V100 CAVOK 32/16 Q1012=
201907031000 METAR LRTC 031000Z VRB06KT 9999 PO NSC 32/16 Q1012=
201907031030 METAR LRTC 031030Z 36006KT 320V040 9999 PO NSC 33/16 Q1012=
201907031100 METAR LRTC 031100Z VRB03KT 9999 PO FEW060TCU 33/17 Q1012=
201907031130 METAR LRTC 031130Z 05008KT 010V090 9999 PO FEW050CB 34/17
                        Q1012=
201907031200 METAR LRTC 031200Z 34012KT 9999 SCT050CB 32/16 Q1012=
201907031230 METAR LRTC 031230Z 33027G37KT 2500 0800S TS BLDU BKN040CB
                        28/16 Q1013=
201907031300 METAR LRTC 031300Z 36020KT 9999 VCTS SCT040CB 26/15 Q1014
                        RETS=
201907031330 METAR LRTC 031330Z 03016KT 9999 SCT050CB 25/13 Q1014=
201907031400 METAR LRTC 031400Z 02016KT 9999 SCT050CB 24/14 Q1014=
201907031430 METAR LRTC 031430Z 03016KT 9999 FEW050CB 24/15 Q1015=
201907031500 METAR LRTC 031500Z 03015KT 9999 FEW050CB 25/15 Q1014=
201907031530 METAR LRTC 031530Z 03014KT 9999 VCSH SCT040CB 25/15 Q1014=
201907031600 METAR LRTC 031600Z 33012KT 9999 -TSRA BKN040CB 23/17 Q1017=
201907031630 METAR LRTC 031630Z 31004KT 9999 -SHRA VCTS SCT050CB 22/18
                        Q1017 RETS=
201907031700 METAR LRTC 031700Z AUTO 36007KT 9999 RA FEW043/// BKN049///
                        21/18 Q1015=
201907031730 METAR LRTC 031730Z AUTO 13006KT 080V170 9999 -RA FEW041///
                        BKN095/// BKN120/// 21/19 Q1014=
201907031800 METAR LRTC 031800Z AUTO 06008KT 350V090 9999 -RA FEW110///
                        BKN120/// 21/18 Q1014=
201907031830 METAR LRTC 031830Z AUTO VRB01KT 9999 SCT130/// BKN160///
                        21/18 Q1015 RERA=
201907031900 METAR LRTC 031900Z AUTO 25006KT 8000 BKN160/// 21/19 Q1016=
201907031930 METAR LRTC 031930Z AUTO 26004KT 9999 BKN180/// 20/19 Q1016=
201907032000 METAR LRTC 032000Z AUTO 28004KT 9999 BKN190/// 20/18 Q1016=
201907032030 METAR LRTC 032030Z AUTO 20004KT 9999 FEW200/// 20/18 Q1016=
201907032100 METAR LRTC 032100Z AUTO 35004KT 9999 NCD 19/18 Q1016=
201907032130 METAR LRTC 032130Z AUTO 32007KT 9000 NCD 19/18 Q1017=
201907032200 METAR LRTC 032200Z AUTO 32007KT 9999 NCD 19/17 Q1017=
201907032230 METAR LRTC 032230Z AUTO 30007KT 9000 NCD 19/17 Q1017=
201907032300 METAR LRTC 032300Z AUTO 33009KT 9000 NCD 19/17 Q1017=
201907032330 METAR LRTC 032330Z AUTO 32009KT 9999 NCD 19/17 Q1016=
201907040000 METAR LRTC 040000Z AUTO 31007KT 7000 NCD 19/17 Q1017=
201907040030 METAR LRTC 040030Z AUTO 29006KT 7000 SCT110/// 19/17 Q1017=
201907040100 METAR LRTC 040100Z AUTO 31008KT 8000 BKN110/// 19/18 Q1017=
201907040130 METAR LRTC 040130Z AUTO 33007KT 9999 FEW110/// 19/17 Q1016=
201907040200 METAR LRTC 040200Z AUTO 33005KT 9999 NCD 18/17 Q1016=
201907040230 METAR LRTC 040230Z AUTO 34007KT 9000 NCD 18/17 Q1016=
201907040300 METAR LRTC 040300Z AUTO 33008KT 9000 NCD 18/17 Q1017=
201907040330 METAR LRTC 040330Z AUTO 35006KT 8000 NCD 19/17 Q1016=
201907040400 METAR LRTC 040400Z AUTO 35009KT 9999 NCD 20/18 Q1016=
201907040430 METAR LRTC 040430Z AUTO 35010KT 9999 NCD 21/16 Q1017=
201907040500 METAR LRTC 040500Z 36011KT CAVOK 22/16 Q1017 R16/CLRD//=
201907040530 METAR LRTC 040530Z 36011KT CAVOK 23/16 Q1017=
201907040600 METAR LRTC 040600Z 01011KT CAVOK 24/15 Q1017=
201907040630 METAR LRTC 040630Z 03012KT CAVOK 25/13 Q1017=
201907040700 METAR LRTC 040700Z 05010KT CAVOK 25/13 Q1018=
201907040730 METAR LRTC 040730Z 07009KT CAVOK 26/12 Q1018=
201907040800 METAR LRTC 040800Z 10006KT 060V120 CAVOK 27/11 Q1018=
201907040830 METAR LRTC 040830Z 07006KT 020V110 CAVOK 28/11 Q1018=
201907040900 METAR LRTC 040900Z 09006KT 060V120 CAVOK 28/11 Q1018=
201907040930 METAR LRTC 040930Z 06009KT 010V090 CAVOK 29/08 Q1018=
201907041000 METAR LRTC 041000Z 06008KT 030V100 CAVOK 29/10 Q1018=
201907041030 METAR LRTC 041030Z 08008KT 040V110 CAVOK 29/10 Q1018=
201907041100 METAR LRTC 041100Z 10007KT 060V140 CAVOK 28/11 Q1018=
201907041130 METAR LRTC 041130Z 13010KT 100V170 CAVOK 29/12 Q1018=
201907041200 METAR LRTC 041200Z 14009KT 090V170 CAVOK 28/12 Q1018=
201907041230 METAR LRTC 041230Z 19006KT 140V260 CAVOK 28/11 Q1018=
201907041300 METAR LRTC 041300Z 13007KT 080V170 CAVOK 28/11 Q1018=
201907041330 METAR LRTC 041330Z 14009KT 100V160 CAVOK 27/11 Q1017=
201907041400 METAR LRTC 041400Z 12006KT 070V160 CAVOK 29/11 Q1017=
201907041430 METAR LRTC 041430Z 13008KT 100V170 CAVOK 28/12 Q1017=
201907041500 METAR LRTC 041500Z 13009KT CAVOK 28/12 Q1017=
201907041530 METAR LRTC 041530Z 13011KT CAVOK 27/12 Q1017=
201907041600 METAR LRTC 041600Z 14009KT CAVOK 27/11 Q1017=
201907041630 METAR LRTC 041630Z 13010KT CAVOK 26/12 Q1017=
201907041700 METAR LRTC 041700Z AUTO 14009KT 9999 NCD 25/13 Q1017=
201907041730 METAR LRTC 041730Z AUTO 14007KT 9999 NCD 25/14 Q1016=
201907041800 METAR LRTC 041800Z AUTO 13006KT 9999 NCD 23/14 Q1017=
201907041830 METAR LRTC 041830Z AUTO 16005KT 9999 NCD 22/15 Q1017=
201907041900 METAR LRTC 041900Z AUTO 16005KT 9999 NCD 21/14 Q1017=
201907041930 METAR LRTC 041930Z AUTO 19003KT 9999 NCD 21/15 Q1017=
201907042000 METAR LRTC 042000Z AUTO 12002KT 060V150 9999 NCD 20/14 Q1017=
201907042030 METAR LRTC 042030Z AUTO 17002KT 9999 NCD 21/15 Q1017=
201907042100 METAR LRTC 042100Z AUTO 18003KT 9999 NCD 20/15 Q1018=
201907042130 METAR LRTC 042130Z AUTO 08003KT 9999 NCD 19/15 Q1018=
201907042200 METAR LRTC 042200Z AUTO 15002KT 9000 NCD 20/16 Q1018=
201907042230 METAR LRTC 042230Z AUTO 20003KT 9999 NCD 20/16 Q1017=
201907042300 METAR LRTC 042300Z AUTO 18002KT 120V210 9000 NCD 19/16 Q1017=
201907042330 METAR LRTC 042330Z AUTO 14002KT 9999 NCD 19/16 Q1017=
201907050000 METAR LRTC 050000Z AUTO 18001KT 9999 NCD 19/16 Q1017=
201907050030 METAR LRTC 050030Z AUTO 05003KT 9999 NCD 18/16 Q1017=
201907050100 METAR LRTC 050100Z AUTO 12003KT 070V140 8000 NCD 19/15 Q1017=
201907050130 METAR LRTC 050130Z AUTO 00000KT 9999 NCD 18/15 Q1017=
201907050200 METAR LRTC 050200Z AUTO VRB01KT 9999 NCD 18/15 Q1017=
201907050230 METAR LRTC 050230Z AUTO 22001KT 9999 FEW055/// 19/15 Q1017=
201907050300 METAR LRTC 050300Z AUTO 06001KT 9999 NCD 17/15 Q1017=
201907050330 METAR LRTC 050330Z AUTO 00000KT 9999 NCD 18/16 Q1017=
201907050400 METAR LRTC 050400Z AUTO 04004KT 020V080 9999 NCD 19/16 Q1017=
201907050430 METAR LRTC 050430Z AUTO 33002KT 260V030 9999 FEW055/// 22/16
                        Q1017=
201907050500 METAR LRTC 050500Z VRB02KT CAVOK 24/16 Q1017 R16/CLRD//=
201907050530 METAR LRTC 050530Z VRB02KT CAVOK 24/15 Q1017=
201907050600 METAR LRTC 050600Z 24004KT 200V350 CAVOK 25/14 Q1017=
201907050630 METAR LRTC 050630Z 23006KT 200V260 CAVOK 25/14 Q1017=
201907050700 METAR LRTC 050700Z 17009KT CAVOK 27/12 Q1016=
201907050730 METAR LRTC 050730Z 17011KT 140V210 CAVOK 29/09 Q1016=
201907050800 METAR LRTC 050800Z 17011KT CAVOK 28/11 Q1016=
201907050830 METAR LRTC 050830Z 15011KT 120V180 CAVOK 29/11 Q1015=
201907050900 METAR LRTC 050900Z 14013KT 110V170 CAVOK 30/09 Q1015=
201907050930 METAR LRTC 050930Z 15016KT CAVOK 30/10 Q1015=
201907051000 METAR LRTC 051000Z 15016KT 120V180 9999 FEW060TCU 30/10 Q1015=
201907051030 METAR LRTC 051030Z 15015KT 9999 FEW055CB 29/12 Q1015=
201907051100 METAR LRTC 051100Z 15014KT 9999 FEW055CB 28/11 Q1015=
201907051130 METAR LRTC 051130Z 15016KT 9999 FEW055CB 29/11 Q1014=
201907051200 METAR LRTC 051200Z 18015KT 150V220 9999 VCSH FEW050CB 28/12
                        Q1014=
201907051230 METAR LRTC 051230Z 17014KT 9999 VCSH FEW050CB 28/12 Q1014=
201907051300 METAR LRTC 051300Z 16013KT 9999 FEW050CB 29/11 Q1014=
201907051330 METAR LRTC 051330Z 16013KT 120V190 9999 FEW050CB 28/11 Q1013=
201907051400 METAR LRTC 051400Z 18011KT CAVOK 28/12 Q1013=
201907051430 METAR LRTC 051430Z 18011KT CAVOK 29/11 Q1013=
201907051500 METAR LRTC 051500Z 18013KT CAVOK 29/11 Q1012=
201907051530 METAR LRTC 051530Z 15014KT CAVOK 28/12 Q1012=
201907051600 METAR LRTC 051600Z 16014KT CAVOK 28/13 Q1012=
201907051630 METAR LRTC 051630Z 15015KT CAVOK 27/13 Q1012=
201907051700 METAR LRTC 051700Z AUTO 16013KT 9999 NCD 26/14 Q1012=
201907051730 METAR LRTC 051730Z AUTO 16011KT 9999 NCD 25/13 Q1012=
201907051800 METAR LRTC 051800Z AUTO 17009KT 9999 NCD 24/13 Q1012=
201907051830 METAR LRTC 051830Z AUTO 17008KT 9999 NCD 23/13 Q1012=
201907051900 METAR LRTC 051900Z AUTO 16005KT 9999 NCD 21/14 Q1012=
201907051930 METAR LRTC 051930Z AUTO 18006KT 9999 NCD 21/14 Q1012=
201907052000 METAR LRTC 052000Z AUTO 18007KT 9999 NCD 21/14 Q1012=
201907052030 METAR LRTC 052030Z AUTO 16004KT 9999 NCD 20/14 Q1012=
201907052100 METAR LRTC 052100Z AUTO 17005KT 9999 NCD 20/14 Q1012=
201907052130 METAR LRTC 052130Z AUTO 17006KT 9999 NCD 20/14 Q1011=
201907052200 METAR LRTC 052200Z AUTO 18005KT 9999 NCD 20/14 Q1011=
201907052230 METAR LRTC 052230Z AUTO 19006KT 9999 NCD 20/13 Q1011=
201907052300 METAR LRTC 052300Z AUTO VRB04KT 9999 FEW095/// 18/13 Q1011=
201907052330 METAR LRTC 052330Z AUTO 23003KT 180V260 9999 FEW090/// 22/13
                        Q1011=
201907060000 METAR LRTC 060000Z AUTO 08003KT 9999 FEW085/// 19/13 Q1011=
201907060030 METAR LRTC 060030Z AUTO 18003KT 9999 FEW095/// 20/13 Q1011=
201907060100 METAR LRTC 060100Z AUTO 17004KT 9000 SCT100/// 20/13 Q1011=
201907060130 METAR LRTC 060130Z AUTO 16003KT 9999 FEW090/// SCT110///
                        19/13 Q1011=
201907060200 METAR LRTC 060200Z AUTO 18004KT 9999 FEW090/// 20/13 Q1011=
201907060230 METAR LRTC 060230Z AUTO VRB02KT 9999 BKN080/// 18/13 Q1011=
201907060300 METAR LRTC 060300Z AUTO 25003KT 9999 FEW080/// 19/14 Q1011=
201907060330 METAR LRTC 060330Z AUTO 02003KT 9999 NCD 20/14 Q1011=
201907060400 METAR LRTC 060400Z AUTO 30006KT 9999 NCD 22/16 Q1011=
201907060430 METAR LRTC 060430Z AUTO 31014KT 9999 NCD 22/15 Q1011=
201907060500 METAR LRTC 060500Z 32013KT CAVOK 23/14 Q1011=
201907060530 METAR LRTC 060530Z 34010KT CAVOK 24/13 Q1011=
201907060600 METAR LRTC 060600Z 34010KT CAVOK 25/13 Q1011=
201907060630 METAR LRTC 060630Z 34010KT 310V010 CAVOK 26/12 Q1011=
201907060700 METAR LRTC 060700Z 35011KT CAVOK 26/13 Q1011=
201907060730 METAR LRTC 060730Z 34008KT 300V020 CAVOK 26/12 Q1012=
201907060800 METAR LRTC 060800Z 34010KT 300V010 CAVOK 27/11 Q1012=
201907060830 METAR LRTC 060830Z 34009KT CAVOK 27/11 Q1012=
201907060900 METAR LRTC 060900Z 34010KT CAVOK 28/12 Q1012=
201907060930 METAR LRTC 060930Z 29007KT 260V330 CAVOK 28/12 Q1012=
201907061000 METAR LRTC 061000Z 30011KT 260V350 CAVOK 29/11 Q1012=
201907061030 METAR LRTC 061030Z 30014KT CAVOK 30/09 Q1011=
201907061100 METAR LRTC 061100Z 31017KT 290V350 CAVOK 30/08 Q1011=
201907061130 METAR LRTC 061130Z 31015KT 290V360 CAVOK 30/08 Q1011=
201907061200 METAR LRTC 061200Z 33013KT CAVOK 29/07 Q1011=
201907061230 METAR LRTC 061230Z 33012KT CAVOK 30/09 Q1011=
201907061300 METAR LRTC 061300Z 35011KT 320V020 CAVOK 30/10 Q1011=
201907061330 METAR LRTC 061330Z 34011KT CAVOK 29/10 Q1011=
201907061400 METAR LRTC 061400Z 34012KT 310V010 CAVOK 29/10 Q1011=
201907061430 METAR LRTC 061430Z 35010KT CAVOK 29/10 Q1011=
201907061500 METAR LRTC 061500Z 35010KT CAVOK 28/10 Q1011=
201907061530 METAR LRTC 061530Z 01009KT CAVOK 28/09 Q1011=
201907061600 METAR LRTC 061600Z 35009KT CAVOK 28/09 Q1011=
201907061630 METAR LRTC 061630Z 34008KT CAVOK 28/09 Q1011=
201907061700 METAR LRTC 061700Z AUTO 36006KT 9999 SCT100/// 28/09 Q1011=
201907061730 METAR LRTC 061730Z AUTO 36006KT 9999 SCT100/// 26/09 Q1011=
201907061800 METAR LRTC 061800Z AUTO 35007KT 9999 FEW095/// 25/10 Q1011=
201907061830 METAR LRTC 061830Z AUTO 01006KT 9999 NCD 23/10 Q1012=
201907061900 METAR LRTC 061900Z AUTO 01004KT 9999 NCD 23/11 Q1012=
201907061930 METAR LRTC 061930Z AUTO 33005KT 9999 NCD 22/11 Q1012=
201907062000 METAR LRTC 062000Z AUTO 34004KT 9999 NCD 22/11 Q1012=
201907062030 METAR LRTC 062030Z AUTO 21002KT 170V250 9999 NCD 21/10 Q1012=
201907062100 METAR LRTC 062100Z AUTO 26003KT 9999 NCD 20/11 Q1012=
201907062130 METAR LRTC 062130Z AUTO 30004KT 9999 NCD 20/11 Q1012=
201907062200 METAR LRTC 062200Z AUTO 35004KT 9999 NCD 20/11 Q1012=
201907062230 METAR LRTC 062230Z AUTO 21003KT 170V240 9999 NCD 18/11 Q1012=
201907062300 METAR LRTC 062300Z AUTO 25002KT 210V320 9999 NCD 18/12 Q1012=
201907062330 METAR LRTC 062330Z AUTO 19002KT 9999 NCD 18/11 Q1012=
201907070000 METAR LRTC 070000Z AUTO 06003KT 9999 NCD 17/12 Q1012=
201907070030 METAR LRTC 070030Z AUTO 15001KT 9999 NCD 18/12 Q1012=
201907070100 METAR LRTC 070100Z AUTO 04003KT 9999 NCD 17/12 Q1012=
201907070130 METAR LRTC 070130Z AUTO 02001KT 9999 FEW220/// 17/12 Q1012=
201907070200 METAR LRTC 070200Z AUTO 01003KT 9999 NCD 17/12 Q1012=
201907070230 METAR LRTC 070230Z AUTO 03003KT 9000 NCD 15/10 Q1012=
201907070300 METAR LRTC 070300Z AUTO 00000KT 9999 FEW095/// 17/12 Q1012=
201907070330 METAR LRTC 070330Z AUTO VRB01KT 9999 BKN095/// 18/12 Q1012=
201907070400 METAR LRTC 070400Z AUTO 16003KT 9999 R34/1700VP2000U BKN090///
                        19/12 Q1011=
201907070430 METAR LRTC 070430Z AUTO 19002KT 9999 BKN085/// 19/13 Q1011=
201907070500 METAR LRTC 070500Z 15002KT 110V180 CAVOK 23/13 Q1011=
201907070530 METAR LRTC 070530Z 16004KT 130V190 CAVOK 24/14 Q1011=
201907070600 METAR LRTC 070600Z 16006KT 130V190 CAVOK 27/17 Q1011=
201907070630 METAR LRTC 070630Z 16010KT CAVOK 28/16 Q1010=
201907070700 METAR LRTC 070700Z 16010KT CAVOK 30/16 Q1010=
201907070730 METAR LRTC 070730Z 16010KT 130V190 CAVOK 31/17 Q1010=
201907070800 METAR LRTC 070800Z 19011KT 9999 FEW049 30/13 Q1010=
201907070830 METAR LRTC 070830Z 19011KT 160V220 CAVOK 30/11 Q1010=
201907070900 METAR LRTC 070900Z 18010KT 150V220 9999 FEW060TCU 31/11 Q1009=
201907070930 METAR LRTC 070930Z 16012KT 130V190 9999 FEW060TCU 31/13 Q1009=
201907071000 METAR LRTC 071000Z 15014KT CAVOK 30/15 Q1009=
201907071030 METAR LRTC 071030Z 15016KT CAVOK 30/17 Q1009=
201907071100 METAR LRTC 071100Z 16016KT 9999 FEW060TCU 31/17 Q1008=
201907071130 METAR LRTC 071130Z 16016KT CAVOK 32/16 Q1008=
201907071200 METAR LRTC 071200Z 15018KT 9999 FEW060TCU 31/17 Q1008=
201907071230 METAR LRTC 071230Z 16018KT CAVOK 31/16 Q1007=
201907071300 METAR LRTC 071300Z 16018KT CAVOK 32/16 Q1007=
201907071330 METAR LRTC 071330Z 15018KT CAVOK 31/17 Q1007=
201907071400 METAR LRTC 071400Z 15019KT CAVOK 31/16 Q1006=
201907071430 METAR LRTC 071430Z 15020KT CAVOK 31/16 Q1006=
201907071500 METAR LRTC 071500Z 16018KT CAVOK 30/17 Q1006=
201907071530 METAR LRTC 071530Z 16019KT CAVOK 30/16 Q1005=
201907071600 METAR LRTC 071600Z 16017KT CAVOK 29/17 Q1005=
201907071630 METAR LRTC 071630Z 16017KT CAVOK 28/17 Q1005=
201907071700 METAR LRTC 071700Z AUTO 16014KT 9999 FEW085/// 27/17 Q1005=
201907071730 METAR LRTC 071730Z AUTO 16015KT 9999 FEW095/// 27/17 Q1005=
201907071800 METAR LRTC 071800Z AUTO 16013KT 9999 FEW085/// 26/18 Q1005=
201907071830 METAR LRTC 071830Z AUTO 16011KT 9999 FEW110/// BKN130///
                        25/18 Q1005=
201907071900 METAR LRTC 071900Z AUTO 16008KT 9999 OVC130/// 25/18 Q1005=
201907071930 METAR LRTC 071930Z AUTO 16008KT 9999 FEW085/// 25/18 Q1005=
201907072000 METAR LRTC 072000Z AUTO 17006KT 9999 NCD 24/17 Q1005=
201907072030 METAR LRTC 072030Z AUTO 17008KT 9999 FEW095/// 24/16 Q1005=
201907072100 METAR LRTC 072100Z AUTO 17006KT 9999 NCD 23/16 Q1005=
201907072130 METAR LRTC 072130Z AUTO 19006KT 9999 NCD 24/16 Q1005=
201907072200 METAR LRTC 072200Z AUTO 19013KT 9999 NCD 24/16 Q1005=
201907072230 METAR LRTC 072230Z AUTO 17010KT 9999 NCD 24/16 Q1005=
201907072300 METAR LRTC 072300Z AUTO 17008KT 9999 NCD 23/16 Q1005=
201907072330 METAR LRTC 072330Z AUTO 19008KT 9999 NCD 23/17 Q1005=
201907080000 METAR LRTC 080000Z AUTO 17005KT 9999 NCD 22/17 Q1005=
201907080030 METAR LRTC 080030Z AUTO 17004KT 150V210 9999 NCD 22/17 Q1004=
201907080100 METAR LRTC 080100Z AUTO 17003KT 9999 NCD 22/17 Q1004=
201907080130 METAR LRTC 080130Z AUTO 23004KT 9999 FEW110/// 22/16 Q1004=
201907080200 METAR LRTC 080200Z AUTO 24004KT 9999 FEW120/// 21/16 Q1005=
201907080230 METAR LRTC 080230Z AUTO 25004KT 210V270 9999 SCT150/// 22/16
                        Q1004=
201907080300 METAR LRTC 080300Z AUTO 21004KT 170V270 9999 BKN120/// BKN140///
                        23/16 Q1004=
201907080330 METAR LRTC 080330Z AUTO 30003KT 230V360 9999 BKN100/// BKN120///
                        23/16 Q1004=
201907080400 METAR LRTC 080400Z AUTO 25004KT 9999 FEW110/// BKN120///
                        23/16 Q1004=
201907080430 METAR LRTC 080430Z AUTO 26006KT 9999 BKN110/// BKN130///
                        25/16 Q1004=
201907080500 METAR LRTC 080500Z 30009KT CAVOK 26/15 Q1005 R16/CLRD//=
201907080530 METAR LRTC 080530Z 30014KT CAVOK 25/16 Q1005=
201907080600 METAR LRTC 080600Z 30015KT 9999 SCT049 24/17 Q1005=
201907080630 METAR LRTC 080630Z 31016KT 9999 BKN049 24/17 Q1006=
201907080700 METAR LRTC 080700Z 32014KT 290V350 9999 FEW024 SCT049 25/17
                        Q1006=
201907080730 METAR LRTC 080730Z 32015KT 290V350 9999 FEW025 SCT049 23/17
                        Q1006=
201907080800 METAR LRTC 080800Z 32016KT 9999 SCT017 23/17 Q1007=
201907080830 METAR LRTC 080830Z 32018KT 9999 -RA SCT016 21/17 Q1007=
201907080900 METAR LRTC 080900Z 32014KT 9999 FEW019 22/17 Q1008=
201907080930 METAR LRTC 080930Z 32016KT 9999 FEW025 SCT049 23/16 Q1008=
201907081000 METAR LRTC 081000Z 32015KT 9999 SCT025 25/16 Q1008=
201907081030 METAR LRTC 081030Z 32014KT 280V350 9999 FEW027 26/16 Q1008=
201907081100 METAR LRTC 081100Z 34016KT 310V010 9999 FEW030 27/13 Q1008=
201907081130 METAR LRTC 081130Z 32016KT 9999 SCT040 27/14 Q1008=
201907081200 METAR LRTC 081200Z 32016KT 9999 SCT042 26/13 Q1009=
201907081230 METAR LRTC 081230Z 33015KT 9999 FEW040 26/14 Q1009=
201907081300 METAR LRTC 081300Z 33012KT 290V350 9999 FEW045 27/14 Q1009=
201907081330 METAR LRTC 081330Z 33012KT 290V360 9999 FEW048 27/13 Q1009=
201907081400 METAR LRTC 081400Z 33012KT 290V350 9999 FEW048 26/13 Q1009=
201907081430 METAR LRTC 081430Z 32011KT 290V350 9999 FEW045 27/13 Q1009=
201907081500 METAR LRTC 081500Z 33010KT 300V360 9999 FEW045 26/13 Q1009=
201907081530 METAR LRTC 081530Z 34010KT 9999 FEW045 25/14 Q1009=
201907081600 METAR LRTC 081600Z 33006KT 290V010 CAVOK 25/14 Q1009=
201907081630 METAR LRTC 081630Z 36005KT 280V050 CAVOK 25/14 Q1010=
201907081700 METAR LRTC 081700Z AUTO 27002KT 240V300 9999 FEW180/// 25/14
                        Q1010=
201907081730 METAR LRTC 081730Z AUTO 28005KT 9999 FEW140/// 24/14 Q1010=
201907081800 METAR LRTC 081800Z AUTO 25004KT 9999 SCT130/// BKN140///
                        24/14 Q1010=
201907081830 METAR LRTC 081830Z AUTO 28005KT 9999 FEW140/// 23/14 Q1011=
201907081900 METAR LRTC 081900Z AUTO 29004KT 9999 NCD 22/14 Q1011=
201907081930 METAR LRTC 081930Z AUTO 31006KT 9999 NCD 20/14 Q1012=
201907082000 METAR LRTC 082000Z AUTO 30004KT 9999 NCD 20/14 Q1012=
201907082030 METAR LRTC 082030Z AUTO 06003KT 030V090 9999 NCD 19/13 Q1012=
201907082100 METAR LRTC 082100Z AUTO 33008KT 9999 SCT042/// 21/15 Q1012=
201907082130 METAR LRTC 082130Z AUTO 34007KT 9999 FEW042/// 20/15 Q1012=
201907082200 METAR LRTC 082200Z AUTO 34008KT 9999 NCD 20/13 Q1012=
201907082230 METAR LRTC 082230Z AUTO 34007KT 9999 NCD 19/13 Q1013=
201907082300 METAR LRTC 082300Z AUTO 36004KT 9999 FEW085/// 19/13 Q1013=
201907082330 METAR LRTC 082330Z AUTO 34004KT 320V030 9999 NCD 18/13 Q1013=
201907090000 METAR LRTC 090000Z AUTO 32006KT 9999 SCT085/// 17/13 Q1013=
201907090030 METAR LRTC 090030Z AUTO 33008KT 9999 FEW085/// 18/12 Q1013=
201907090100 METAR LRTC 090100Z AUTO 32007KT 9999 BKN080/// 17/12 Q1013=
201907090130 METAR LRTC 090130Z AUTO 32006KT 9999 SCT080/// 17/12 Q1013=
201907090200 METAR LRTC 090200Z AUTO 33005KT 9999 FEW080/// 16/12 Q1013=
201907090230 METAR LRTC 090230Z AUTO VRB01KT 9999 SCT075/// BKN090///
                        17/12 Q1013=
201907090300 METAR LRTC 090300Z AUTO 34004KT 9999 BKN075/// BKN090///
                        17/12 Q1013=
201907090330 METAR LRTC 090330Z AUTO VRB01KT 9999 SCT075/// BKN090///
                        18/12 Q1014=
201907090400 METAR LRTC 090400Z AUTO VRB01KT 9999 FEW090/// 19/12 Q1014=
201907090430 METAR LRTC 090430Z AUTO VRB01KT 9999 SCT070/// BKN090///
                        21/11 Q1014=
201907090500 METAR LRTC 090500Z 05003KT 360V100 CAVOK 21/09 Q1014 R16/CLRD//=
201907090530 METAR LRTC 090530Z 06003KT 010V110 CAVOK 22/06 Q1014=
201907090600 METAR LRTC 090600Z 08005KT 040V140 CAVOK 23/06 Q1014=
201907090630 METAR LRTC 090630Z 10004KT 040V160 CAVOK 23/06 Q1013=
201907090700 METAR LRTC 090700Z VRB01KT CAVOK 23/06 Q1013=
201907090730 METAR LRTC 090730Z 15005KT 050V190 9999 FEW050CB 23/07 Q1013=
201907090800 METAR LRTC 090800Z 16006KT 100V200 9999 FEW050CB 23/08 Q1013=
201907090830 METAR LRTC 090830Z 15005KT 100V200 CAVOK 24/07 Q1013=
201907090900 METAR LRTC 090900Z 16004KT 120V200 CAVOK 24/06 Q1013=
201907090930 METAR LRTC 090930Z 11003KT 050V210 CAVOK 24/07 Q1013=
201907091000 METAR LRTC 091000Z VRB01KT 9999 -RA FEW043 24/08 Q1013=
201907091030 METAR LRTC 091030Z 36003KT 300V060 9999 FEW045 24/07 Q1013=
201907091100 METAR LRTC 091100Z VRB02KT 9999 FEW048 25/05 Q1013=
201907091130 METAR LRTC 091130Z 03005KT 340V100 CAVOK 25/06 Q1012=
201907091200 METAR LRTC 091200Z 09005KT 030V160 CAVOK 24/06 Q1012=
201907091230 METAR LRTC 091230Z VRB03KT CAVOK 26/07 Q1012=
201907091300 METAR LRTC 091300Z VRB04KT CAVOK 25/08 Q1012=
201907091330 METAR LRTC 091330Z 07003KT 360V170 CAVOK 26/09 Q1011=
201907091400 METAR LRTC 091400Z 09003KT 030V180 CAVOK 26/09 Q1011=
201907091430 METAR LRTC 091430Z 15007KT 110V180 CAVOK 25/11 Q1011=
201907091500 METAR LRTC 091500Z 16004KT 130V200 CAVOK 24/12 Q1011=
201907091530 METAR LRTC 091530Z 12004KT 080V160 9999 SCT048 24/13 Q1011=
201907091600 METAR LRTC 091600Z 34005KT 310V030 9999 BKN038 23/10 Q1011=
201907091630 METAR LRTC 091630Z 34005KT 300V040 9999 SCT038 24/10 Q1011=
201907091700 METAR LRTC 091700Z AUTO 03003KT 340V070 9999 FEW075/// BKN140///
                        23/10 Q1010=
201907091730 METAR LRTC 091730Z AUTO 36003KT 8000 SCT075/// BKN130///
                        23/11 Q1010=
201907091800 METAR LRTC 091800Z AUTO 01002KT 9999 FEW110/// BKN130///
                        22/11 Q1010=
201907091830 METAR LRTC 091830Z AUTO 34003KT 9999 BKN100/// OVC140///
                        22/11 Q1011=
201907091900 METAR LRTC 091900Z AUTO VRB02KT 9999 BKN085/// BKN100///
                        22/11 Q1011=
201907091930 METAR LRTC 091930Z AUTO 27003KT 220V290 9999 BKN085/// BKN100///
                        21/11 Q1011=
201907092000 METAR LRTC 092000Z AUTO VRB01KT 9999 FEW085/// 21/11 Q1011=
201907092030 METAR LRTC 092030Z AUTO 32004KT 9999 NCD 19/11 Q1011=
201907092100 METAR LRTC 092100Z AUTO 33002KT 310V020 9999 NCD 19/12 Q1011=
201907092130 METAR LRTC 092130Z AUTO 35002KT 330V040 9999 NCD 18/12 Q1010=
201907092200 METAR LRTC 092200Z AUTO 32005KT 9999 FEW180/// 17/11 Q1010=
201907092230 METAR LRTC 092230Z AUTO 22002KT 9999 NCD 15/10 Q1010=
201907092300 METAR LRTC 092300Z AUTO 25003KT 9999 NCD 16/11 Q1010=
201907092330 METAR LRTC 092330Z AUTO 05002KT 9999 NCD 15/10 Q1010=
201907100000 METAR LRTC 100000Z AUTO 06001KT 9999 NCD 15/11 Q1010=
201907100030 METAR LRTC 100030Z AUTO VRB02KT 9999 NCD 16/11 Q1010=
201907100100 METAR LRTC 100100Z AUTO 01005KT 9000 NCD 14/11 Q1010=
201907100130 METAR LRTC 100130Z AUTO 04003KT 020V080 9999 NCD 14/10 Q1010=
201907100200 METAR LRTC 100200Z AUTO 35003KT 280V080 9999 NCD 15/11 Q1010=
201907100230 METAR LRTC 100230Z AUTO 32009KT 9999 NCD 14/12 Q1010=
201907100300 METAR LRTC 100300Z AUTO 33007KT 9999 NCD 15/12 Q1010=
201907100330 METAR LRTC 100330Z AUTO 32006KT 9000 NCD 15/12 Q1010=
201907100400 METAR LRTC 100400Z AUTO 34006KT 9000 NCD 18/12 Q1010=
201907100430 METAR LRTC 100430Z AUTO 02005KT 9999 NCD 18/12 Q1010=
201907100500 METAR LRTC 100500Z 02005KT 340V040 CAVOK 19/12 Q1010 R16/CLRD//=
201907100530 METAR LRTC 100530Z 36007KT 320V040 CAVOK 21/11 Q1010=
201907100600 METAR LRTC 100600Z 03007KT 360V060 CAVOK 22/09 Q1010=
201907100630 METAR LRTC 100630Z 03006KT 360V080 CAVOK 22/09 Q1010=
201907100700 METAR LRTC 100700Z 04008KT 360V080 9999 FEW030 23/10 Q1010=
201907100730 METAR LRTC 100730Z 03008KT 9999 FEW030 24/10 Q1010=
201907100800 METAR LRTC 100800Z VRB04KT CAVOK 24/09 Q1010=
201907100830 METAR LRTC 100830Z VRB04KT 9999 FEW050TCU 24/09 Q1010=
201907100900 METAR LRTC 100900Z VRB03KT 9999 SCT049 26/09 Q1010=
201907100930 METAR LRTC 100930Z 03007KT 340V080 9999 FEW050TCU 26/07 Q1009=
201907101000 METAR LRTC 101000Z VRB03KT 9999 FEW055TCU 25/07 Q1009=
201907101030 METAR LRTC 101030Z VRB03KT 9999 FEW055CB 26/06 Q1009=
201907101100 METAR LRTC 101100Z 07003KT 020V150 9999 FEW055CB 25/06 Q1009=
201907101130 METAR LRTC 101130Z 10008KT 040V170 9999 SCT050CB 25/11 Q1009=
201907101200 METAR LRTC 101200Z 01004KT 310V070 9999 SCT050CB 25/08 Q1008=
201907101230 METAR LRTC 101230Z 09005KT 020V160 9999 FEW055CB 27/09 Q1008=
201907101300 METAR LRTC 101300Z 13012KT 100V170 9999 FEW050CB 24/13 Q1008=
201907101330 METAR LRTC 101330Z 12012KT 9999 FEW030 SCT040CB 23/15 Q1008=
201907101400 METAR LRTC 101400Z 12009KT 090V150 9999 FEW045CB 24/13 Q1008=
201907101430 METAR LRTC 101430Z 12010KT 9999 FEW045CB 23/15 Q1008=
201907101500 METAR LRTC 101500Z 14010KT 120V180 9999 FEW045CB 23/14 Q1008=
201907101530 METAR LRTC 101530Z 12007KT 100V160 9999 FEW045CB 22/14 Q1008=
201907101600 METAR LRTC 101600Z 11005KT 090V150 CAVOK 22/14 Q1008=
201907101630 METAR LRTC 101630Z 12005KT CAVOK 22/14 Q1008=
201907101700 METAR LRTC 101700Z AUTO 16003KT 9000 R34/1900VP2000U BKN160///
                        22/14 Q1008=
201907101730 METAR LRTC 101730Z AUTO 15003KT 9999 FEW120/// BKN140///
                        22/15 Q1008=
201907101800 METAR LRTC 101800Z AUTO 17003KT 120V230 9999 FEW055/// BKN075///
                        BKN140/// 21/14 Q1008=
201907101830 METAR LRTC 101830Z AUTO VRB01KT 9999 FEW044/// BKN080///
                        21/15 Q1009=
201907101900 METAR LRTC 101900Z AUTO 05004KT 350V080 9999 BKN085/// BKN100///
                        20/14 Q1009=
201907101930 METAR LRTC 101930Z AUTO 05004KT 9999 DZ SCT075/// OVC090///
                        20/12 Q1009=
201907102000 METAR LRTC 102000Z AUTO 31008KT 9999 RA BKN055/// OVC085///
                        18/14 Q1010=
201907102030 METAR LRTC 102030Z AUTO 30007KT 9999 +RA FEW040/// OVC050///
                        16/14 Q1010=
201907102100 METAR LRTC 102100Z AUTO 32008KT 9999 RA FEW037/// SCT060///
                        BKN075/// 16/14 Q1010=
201907102130 METAR LRTC 102130Z AUTO 32017KT 9999 RA BKN065/// OVC080///
                        16/14 Q1010=
201907102200 METAR LRTC 102200Z AUTO 34017KT 9999 -RA OVC070/// 15/13
                        Q1010=
201907102230 METAR LRTC 102230Z AUTO 36011KT 9999 RA SCT060/// OVC075///
                        15/13 Q1010=
201907102300 METAR LRTC 102300Z AUTO 35008KT 9999 -RA FEW070/// BKN085///
                        BKN100/// 15/13 Q1010=
201907102330 METAR LRTC 102330Z AUTO 36006KT 9999 -SHRA SCT085/// BKN100///
                        15/13 Q1009=
201907110000 METAR LRTC 110000Z AUTO 33007KT 9999 -SHRA BKN075/// OVC100///
                        15/14 Q1010=
201907110030 METAR LRTC 110030Z AUTO 34007KT 9999 OVC075/// 15/14 Q1009
                        RERA=
201907110100 METAR LRTC 110100Z AUTO 35006KT 9999 BKN080/// 15/14 Q1009=
201907110130 METAR LRTC 110130Z AUTO 34005KT 310V010 9000 BKN080/// BKN095///
                        15/13 Q1009=
201907110200 METAR LRTC 110200Z AUTO 32007KT 9999 FEW095/// 14/13 Q1009=
201907110230 METAR LRTC 110230Z AUTO 32009KT 9999 NCD 14/12 Q1009=
201907110300 METAR LRTC 110300Z AUTO 32009KT 9000 NCD 14/12 Q1009=
201907110330 METAR LRTC 110330Z AUTO 33010KT 9999 NCD 15/12 Q1009=
201907110400 METAR LRTC 110400Z AUTO 33011KT 9999 NCD 15/12 Q1009=
201907110430 METAR LRTC 110430Z AUTO 33008KT 9000 NCD 17/12 Q1010=
201907110500 METAR LRTC 110500Z 33012KT CAVOK 17/12 Q1010=
201907110530 METAR LRTC 110530Z 33012KT CAVOK 17/12 Q1010 R16/CLRD//=
201907110600 METAR LRTC 110600Z 32012KT 300V010 9999 FEW022 18/13 Q1010=
201907110630 METAR LRTC 110630Z 35014KT 320V020 9999 FEW022 19/11 Q1010=
201907110700 METAR LRTC 110700Z 34015KT 9999 SCT027 19/11 Q1010=
201907110730 METAR LRTC 110730Z 35015KT 320V020 9999 SCT029 20/10 Q1010=
201907110800 METAR LRTC 110800Z 35016KT 320V020 9999 SCT035 21/09 Q1010=
201907110830 METAR LRTC 110830Z 35015KT 320V020 9999 SCT039 22/10 Q1010=
201907110900 METAR LRTC 110900Z 34013KT 300V020 9999 SCT040 21/10 Q1009=
201907110930 METAR LRTC 110930Z 34011KT 300V030 9999 BKN045 22/09 Q1009=
201907111000 METAR LRTC 111000Z 35015KT 320V030 9999 BKN047 23/07 Q1009=
201907111030 METAR LRTC 111030Z 34013KT 300V020 9999 SCT049 24/07 Q1009=
201907111100 METAR LRTC 111100Z 32014G24KT 290V360 9999 SCT049 24/07 Q1009=
201907111130 METAR LRTC 111130Z 33012KT 290V020 9999 SCT049 25/07 Q1009=
201907111200 METAR LRTC 111200Z 33012KT 280V010 9999 SCT049 24/06 Q1009=
201907111230 METAR LRTC 111230Z 31011KT 270V010 CAVOK 25/06 Q1008=
201907111300 METAR LRTC 111300Z 33011KT 290V360 CAVOK 25/06 Q1008=
201907111330 METAR LRTC 111330Z 31011KT 280V350 CAVOK 24/05 Q1008=
201907111400 METAR LRTC 111400Z 32013KT 280V010 CAVOK 25/05 Q1008=
201907111430 METAR LRTC 111430Z 32014KT 300V360 CAVOK 24/06 Q1008=
201907111500 METAR LRTC 111500Z 32020KT CAVOK 22/07 Q1009=
201907111530 METAR LRTC 111530Z 32015KT CAVOK 22/06 Q1009=
201907111600 METAR LRTC 111600Z 30008KT CAVOK 22/05 Q1009=
201907111630 METAR LRTC 111630Z 27008KT CAVOK 21/07 Q1009=
201907111700 METAR LRTC 111700Z AUTO 28009KT 250V310 9999 FEW120/// BKN140///
                        20/08 Q1009=
201907111730 METAR LRTC 111730Z AUTO 29005KT 260V320 9999 R34/1800VP2000U
                        BKN120/// BKN140/// 20/09 Q1009=
201907111800 METAR LRTC 111800Z AUTO 29004KT 9999 FEW130/// 18/09 Q1009=
201907111830 METAR LRTC 111830Z AUTO 29004KT 9999 NCD 18/09 Q1010=
201907111900 METAR LRTC 111900Z AUTO 32004KT 9999 NCD 16/09 Q1010=
201907111930 METAR LRTC 111930Z AUTO VRB01KT 9999 NCD 16/09 Q1010=
201907112000 METAR LRTC 112000Z AUTO 22004KT 9999 NCD 15/09 Q1010=
201907112030 METAR LRTC 112030Z AUTO VRB01KT 9999 NCD 14/09 Q1010=
201907112100 METAR LRTC 112100Z AUTO 34002KT 300V010 9999 SCT140/// 15/09
                        Q1010=
201907112130 METAR LRTC 112130Z AUTO 32002KT 210V020 9000 FEW140/// 14/10
                        Q1010=
201907112200 METAR LRTC 112200Z AUTO 32007KT 9999 NCD 15/11 Q1010=
201907112230 METAR LRTC 112230Z AUTO 23001KT 9999 FEW130/// 13/10 Q1010=
201907112300 METAR LRTC 112300Z AUTO VRB02KT 9999 BKN130/// 14/10 Q1010=
201907112330 METAR LRTC 112330Z AUTO 33005KT 300V360 9999 BKN130/// 15/11
                        Q1010=
201907120000 METAR LRTC 120000Z AUTO 04003KT 360V080 9999 BKN130/// 14/11
                        Q1010=
201907120030 METAR LRTC 120030Z AUTO 34005KT 9999 BKN130/// BKN140///
                        15/11 Q1010=
201907120100 METAR LRTC 120100Z AUTO 30005KT 250V340 9999 FEW090/// BKN120///
                        BKN140/// 16/11 Q1010=
201907120130 METAR LRTC 120130Z AUTO 26004KT 9999 FEW090/// BKN120///
                        15/11 Q1010=
201907120200 METAR LRTC 120200Z AUTO 27006KT 9999 FEW090/// BKN120///
                        15/12 Q1010=
201907120230 METAR LRTC 120230Z AUTO 28005KT 9999 SCT055/// BKN110///
                        15/12 Q1010=
201907120300 METAR LRTC 120300Z AUTO 22003KT 180V260 9999 SCT055/// OVC075///
                        15/12 Q1010=
201907120330 METAR LRTC 120330Z AUTO 25002KT 190V290 9999 FEW060/// BKN100///
                        15/12 Q1011=
201907120400 METAR LRTC 120400Z AUTO 31002KT 270V350 9999 BKN080/// 16/12
                        Q1011=
201907120430 METAR LRTC 120430Z AUTO 32003KT 9999 FEW100/// BKN120///
                        BKN160/// 16/12 Q1011=
201907120500 METAR LRTC 120500Z 33010KT CAVOK 17/11 Q1011=
201907120530 METAR LRTC 120530Z 33009KT 9999 FEW040TCU 17/11 Q1011=
201907120600 METAR LRTC 120600Z 33009KT CAVOK 18/11 Q1011=
201907120630 METAR LRTC 120630Z 34008KT 300V010 CAVOK 18/10 Q1011=
201907120700 METAR LRTC 120700Z 31007KT 280V340 9999 FEW040TCU 19/10 Q1011=
201907120730 METAR LRTC 120730Z 31007KT 280V340 9999 FEW040TCU 20/10 Q1011=
201907120800 METAR LRTC 120800Z 30007KT 260V340 9999 FEW045TCU 21/09 Q1011=
201907120830 METAR LRTC 120830Z 31009KT 270V350 9999 FEW049 22/08 Q1011=
201907120900 METAR LRTC 120900Z 33009KT 300V020 9999 FEW050TCU 23/06 Q1011=
201907120930 METAR LRTC 120930Z 33009KT 270V030 9999 FEW050TCU 23/06 Q1011=
201907121000 METAR LRTC 121000Z 31011KT 270V350 9999 SCT049 24/07 Q1010=
201907121030 METAR LRTC 121030Z 33013KT 290V360 9999 FEW050TCU 23/04 Q1010=
201907121100 METAR LRTC 121100Z 32010KT 250V360 9999 FEW050TCU 24/04 Q1010=
201907121130 METAR LRTC 121130Z 31010KT 270V360 9999 FEW050TCU 24/05 Q1010=
201907121200 METAR LRTC 121200Z 35008KT 300V040 9999 FEW050TCU 24/05 Q1010=
201907121230 METAR LRTC 121230Z 29010KT 250V340 9999 FEW050TCU 25/06 Q1010=
201907121300 METAR LRTC 121300Z 28009KT 220V340 9999 FEW050TCU 25/06 Q1010=
201907121330 METAR LRTC 121330Z 35004KT 250V040 9999 FEW050TCU 24/04 Q1010=
201907121400 METAR LRTC 121400Z VRB05KT 9999 FEW050TCU 24/05 Q1010=
201907121430 METAR LRTC 121430Z 31008KT 250V360 9999 FEW050CB 25/04 Q1010=
201907121500 METAR LRTC 121500Z 32007KT 290V010 9999 FEW050CB 25/06 Q1010=
201907121530 METAR LRTC 121530Z 33010KT 300V010 9999 FEW050CB 25/05 Q1010=
201907121600 METAR LRTC 121600Z 32009KT 280V360 CAVOK 25/05 Q1010=
201907121630 METAR LRTC 121630Z 31010KT 9999 FEW060TCU 24/05 Q1010=
201907121700 METAR LRTC 121700Z AUTO 32008KT 9999 NCD 23/06 Q1010=
201907121730 METAR LRTC 121730Z AUTO 32007KT 9999 NCD 22/07 Q1011=
201907121800 METAR LRTC 121800Z AUTO 01005KT 9999 FEW110/// 20/09 Q1011=
201907121830 METAR LRTC 121830Z AUTO 35004KT 9999 NCD 19/10 Q1011=
201907121900 METAR LRTC 121900Z AUTO 32003KT 9999 NCD 20/09 Q1011=
201907121930 METAR LRTC 121930Z AUTO 30004KT 9999 NCD 18/09 Q1011=
201907122000 METAR LRTC 122000Z AUTO 09002KT 360V130 9999 NCD 17/10 Q1011=
201907122030 METAR LRTC 122030Z AUTO 02004KT 340V040 9000 NCD 16/09 Q1011=
201907122100 METAR LRTC 122100Z AUTO 19004KT 9999 NCD 16/09 Q1011=
201907122130 METAR LRTC 122130Z AUTO 08002KT 040V120 9999 NCD 15/09 Q1011=
201907122200 METAR LRTC 122200Z AUTO VRB01KT 9999 NCD 15/09 Q1011=
201907122230 METAR LRTC 122230Z AUTO VRB01KT 9999 NCD 16/09 Q1011=
201907122300 METAR LRTC 122300Z AUTO 19002KT 120V270 9999 NCD 13/09 Q1011=
201907122330 METAR LRTC 122330Z AUTO VRB01KT 8000 NCD 14/09 Q1011=
201907130000 METAR LRTC 130000Z AUTO 05004KT 9999 NCD 13/09 Q1011=
201907130030 METAR LRTC 130030Z AUTO VRB01KT 9999 NCD 13/09 Q1011=
201907130100 METAR LRTC 130100Z AUTO 06002KT 9999 NCD 12/08 Q1011=
201907130130 METAR LRTC 130130Z AUTO 06002KT 030V090 8000 NCD 13/09 Q1011=
201907130200 METAR LRTC 130200Z AUTO 03002KT 8000 NCD 12/09 Q1011=
201907130230 METAR LRTC 130230Z AUTO 04003KT 9999 NCD 13/09 Q1011=
201907130300 METAR LRTC 130300Z AUTO 35001KT 9999 NCD 13/09 Q1011=
201907130330 METAR LRTC 130330Z AUTO 00000KT 9999 NCD 14/10 Q1011=
201907130400 METAR LRTC 130400Z AUTO 03002KT 9999 NCD 15/10 Q1011=
201907130430 METAR LRTC 130430Z AUTO VRB01KT 9999 NCD 17/11 Q1011=
201907130500 METAR LRTC 130500Z VRB01KT CAVOK 19/10 Q1011=
201907130530 METAR LRTC 130530Z VRB02KT CAVOK 20/10 Q1011=
201907130600 METAR LRTC 130600Z 27002KT CAVOK 21/11 Q1011=
201907130630 METAR LRTC 130630Z VRB02KT CAVOK 23/08 Q1011=
201907130700 METAR LRTC 130700Z VRB02KT 9999 FEW048 24/07 Q1011=
201907130730 METAR LRTC 130730Z VRB03KT 9999 FEW055TCU 25/07 Q1011=
201907130800 METAR LRTC 130800Z 34004KT 280V050 9999 FEW055TCU 25/07 Q1011=
201907130830 METAR LRTC 130830Z 33006KT 290V060 9999 FEW060CB 26/07 Q1011=
201907130900 METAR LRTC 130900Z VRB03KT 9999 FEW060CB 25/06 Q1011=
201907130930 METAR LRTC 130930Z 27004KT 190V320 9999 FEW060CB 25/07 Q1010=
201907131000 METAR LRTC 131000Z 18003KT 130V230 9999 FEW060CB 25/06 Q1010=
201907131030 METAR LRTC 131030Z 17005KT 110V220 9999 FEW060CB 27/07 Q1010=
201907131100 METAR LRTC 131100Z 19004KT 110V240 9999 FEW060CB 27/07 Q1010=
201907131130 METAR LRTC 131130Z 14006KT 060V200 9999 FEW060CB 26/08 Q1010=
201907131200 METAR LRTC 131200Z 08010KT 050V110 9999 -SHRA SCT055CB 25/08
                        Q1010=
201907131230 METAR LRTC 131230Z 15007KT 100V200 9999 SCT055CB 25/08 Q1010=
201907131300 METAR LRTC 131300Z 16011KT 130V190 9999 FEW055CB 27/10 Q1009=
201907131330 METAR LRTC 131330Z 14014KT 100V180 9999 FEW055CB 25/09 Q1009=
201907131400 METAR LRTC 131400Z 13015KT 100V160 9999 TS VCSH SCT055CB
                        25/09 Q1009=
201907131430 METAR LRTC 131430Z 13015KT 9999 FEW055CB 26/10 Q1009 RETS=
201907131500 METAR LRTC 131500Z 13014KT 100V160 9999 FEW055CB 26/09 Q1009=
201907131530 METAR LRTC 131530Z 13011KT 100V160 9999 FEW050CB 24/10 Q1009=
201907131600 METAR LRTC 131600Z 15011KT CAVOK 24/10 Q1009=
201907131630 METAR LRTC 131630Z 15010KT 120V180 CAVOK 24/10 Q1009=
201907131700 METAR LRTC 131700Z AUTO 15007KT 110V180 9999 SCT095/// 23/11
                        Q1010=
201907131730 METAR LRTC 131730Z AUTO 16011KT 9999 SCT095/// BKN110///
                        23/11 Q1009=
201907131800 METAR LRTC 131800Z AUTO 16009KT 9999 FEW100/// SCT120///
                        22/12 Q1009=
201907131830 METAR LRTC 131830Z AUTO 16008KT 9999 FEW120/// BKN150///
                        22/12 Q1009=
201907131900 METAR LRTC 131900Z AUTO 16008KT 9999 SCT110/// BKN140///
                        22/11 Q1009=
201907131930 METAR LRTC 131930Z AUTO 16006KT 9999 FEW110/// SCT120///
                        BKN140/// 21/12 Q1009=
201907132000 METAR LRTC 132000Z AUTO 17005KT 9999 BKN100/// OVC140///
                        20/12 Q1009=
201907132030 METAR LRTC 132030Z AUTO 17004KT 9999 BKN100/// 20/13 Q1009=
201907132100 METAR LRTC 132100Z AUTO 14003KT 9999 BKN110/// BKN120///
                        20/13 Q1009=
201907132130 METAR LRTC 132130Z AUTO VRB01KT 9999 BKN110/// BKN150///
                        20/13 Q1009=
201907132200 METAR LRTC 132200Z AUTO VRB01KT 9999 SCT110/// OVC150///
                        20/13 Q1009=
201907132230 METAR LRTC 132230Z AUTO 17003KT 120V220 9999 FEW120/// BKN150///
                        19/12 Q1009=
201907132300 METAR LRTC 132300Z AUTO 16003KT 9999 OVC140/// 19/12 Q1009=
201907132330 METAR LRTC 132330Z AUTO 18002KT 9999 FEW120/// BKN140///
                        19/12 Q1009=
201907140000 METAR LRTC 140000Z AUTO 11003KT 9999 BKN150/// 18/13 Q1008=
201907140030 METAR LRTC 140030Z AUTO 16004KT 9999 BKN150/// 17/13 Q1008=
201907140100 METAR LRTC 140100Z AUTO 14002KT 100V180 9999 FEW150/// 17/12
                        Q1008=
201907140130 METAR LRTC 140130Z AUTO 21002KT 180V240 9999 FEW150/// 17/12
                        Q1008=
201907140200 METAR LRTC 140200Z AUTO VRB01KT 9999 FEW110/// SCT150///
                        17/12 Q1008=
201907140230 METAR LRTC 140230Z AUTO VRB01KT 9999 FEW110/// 17/12 Q1008=
201907140300 METAR LRTC 140300Z AUTO 08002KT 9999 SCT110/// 16/12 Q1008=
201907140330 METAR LRTC 140330Z AUTO 15002KT 9000 BKN110/// BKN150///
                        17/12 Q1008=
201907140400 METAR LRTC 140400Z AUTO VRB01KT 9999 FEW110/// BKN150///
                        17/13 Q1008=
201907140430 METAR LRTC 140430Z AUTO VRB01KT 9999 BKN150/// 19/13 Q1008=
201907140500 METAR LRTC 140500Z VRB01KT 9999 FEW035CB 21/13 Q1008=
201907140530 METAR LRTC 140530Z VRB02KT 9999 FEW035CB 21/13 Q1008=
201907140600 METAR LRTC 140600Z 14005KT 090V200 9999 FEW040CB 24/14 Q1008=
201907140630 METAR LRTC 140630Z 16007KT 120V190 9999 FEW035 FEW040CB 24/15
                        Q1008=
201907140700 METAR LRTC 140700Z 16010KT 120V190 9999 FEW035 FEW040CB 25/14
                        Q1008=
201907140730 METAR LRTC 140730Z 15010KT 110V190 9999 VCTS FEW035 SCT040CB
                        25/13 Q1007=
201907140800 METAR LRTC 140800Z 13010KT 070V180 9999 VCTS FEW040 SCT045CB
                        27/13 Q1007=
201907140830 METAR LRTC 140830Z 14011KT 090V180 9999 VCSH FEW040 BKN045CB
                        26/13 Q1007=
201907140900 METAR LRTC 140900Z 13011KT 090V170 9999 VCTS FEW040 BKN045CB
                        25/11 Q1007=
201907140930 METAR LRTC 140930Z 15012KT 110V170 9999 VCTS FEW045 BKN050CB
                        25/12 Q1007=
201907141000 METAR LRTC 141000Z 13009KT 100V160 9999 VCSH FEW045 SCT050CB
                        24/11 Q1007=
201907141030 METAR LRTC 141030Z 14010KT 9999 VCSH FEW045 SCT050CB 24/11
                        Q1007=
201907141100 METAR LRTC 141100Z 15007KT 9999 VCSH FEW045 FEW050CB 24/11
                        Q1008=
201907141130 METAR LRTC 141130Z 30005KT 240V350 9999 VCTS FEW040 FEW045CB
                        23/14 Q1008=
201907141200 METAR LRTC 141200Z 29005KT 9999 VCTS SCT040 FEW045CB 23/14
                        Q1008=
201907141230 METAR LRTC 141230Z 31003KT 260V360 9999 FEW040 FEW045CB 23/14
                        Q1008=
201907141300 METAR LRTC 141300Z VRB03KT 9999 FEW040 FEW045CB 24/13 Q1008=
201907141330 METAR LRTC 141330Z 29008KT 260V320 9999 SCT040 FEW045CB 23/14
                        Q1007=
201907141400 METAR LRTC 141400Z 32007KT 280V360 9999 FEW045 FEW050CB 23/15
                        Q1007=
201907141430 METAR LRTC 141430Z 32007KT 290V350 9999 FEW040 FEW045CB 22/15
                        Q1007=
201907141500 METAR LRTC 141500Z 33006KT 300V020 9999 FEW040 FEW045CB 23/15
                        Q1007=
201907141530 METAR LRTC 141530Z 34007KT 310V010 9999 FEW040 FEW045CB 22/15
                        Q1007=
201907141600 METAR LRTC 141600Z 35005KT 9999 FEW035 FEW040CB 22/14 Q1007=
201907141630 METAR LRTC 141630Z 36004KT CAVOK 22/14 Q1007=
201907141700 METAR LRTC 141700Z AUTO 35005KT 320V020 9999 NCD 21/14 Q1007=
201907141730 METAR LRTC 141730Z AUTO 36005KT 9999 NCD 20/14 Q1007=
201907141800 METAR LRTC 141800Z AUTO 36004KT 9999 NCD 19/15 Q1007=
201907141830 METAR LRTC 141830Z AUTO 35004KT 9999 FEW130/// 18/15 Q1008=
201907141900 METAR LRTC 141900Z AUTO 36006KT 9999 NCD 17/15 Q1008=
201907141930 METAR LRTC 141930Z AUTO 36008KT 9999 FEW130/// 18/15 Q1008=
201907142000 METAR LRTC 142000Z AUTO 34005KT 9999 FEW240/// 17/15 Q1008=
201907142030 METAR LRTC 142030Z AUTO 35003KT 320V020 9999 BKN240/// 17/14
                        Q1008=
201907142100 METAR LRTC 142100Z AUTO 33004KT 9999 NCD 17/14 Q1008=
201907142130 METAR LRTC 142130Z AUTO VRB01KT 9999 NCD 16/14 Q1007=
201907142200 METAR LRTC 142200Z AUTO VRB01KT 9999 NCD 16/14 Q1007=
201907142230 METAR LRTC 142230Z AUTO 35003KT 9999 NCD 16/14 Q1007=
201907142300 METAR LRTC 142300Z AUTO 30002KT 220V350 9999 NCD 16/14 Q1007=
201907142330 METAR LRTC 142330Z AUTO 31002KT 230V360 9999 NCD 16/14 Q1007=
201907150000 METAR LRTC 150000Z AUTO 35004KT 320V020 9999 NCD 16/14 Q1007=
201907150030 METAR LRTC 150030Z AUTO 31002KT 260V360 9999 NCD 15/13 Q1007=
201907150100 METAR LRTC 150100Z AUTO 34004KT 310V010 9999 NCD 15/13 Q1007=
201907150130 METAR LRTC 150130Z AUTO 34006KT 9000 FEW240/// 15/14 Q1007=
201907150200 METAR LRTC 150200Z AUTO 34007KT 9999 BKN220/// 16/14 Q1007=
201907150230 METAR LRTC 150230Z AUTO 34008KT 9999 OVC210/// 16/14 Q1007=
201907150300 METAR LRTC 150300Z AUTO 33010KT 9999 FEW050/// BKN200///
                        17/14 Q1007=
201907150330 METAR LRTC 150330Z AUTO 33010KT 9999 FEW200/// 17/14 Q1007=
201907150400 METAR LRTC 150400Z AUTO 34009KT 9999 FEW230/// 17/14 Q1007=
201907150430 METAR LRTC 150430Z AUTO 33010KT 9999 FEW220/// 18/15 Q1007=
201907150500 METAR LRTC 150500Z 33010KT CAVOK 19/14 Q1007=
201907150530 METAR LRTC 150530Z 34009KT 310V010 CAVOK 21/13 Q1007 R16/CLRD//=
201907150600 METAR LRTC 150600Z 35009KT 310V020 CAVOK 22/13 Q1007=
201907150630 METAR LRTC 150630Z 35009KT 320V020 CAVOK 22/11 Q1007=
201907150700 METAR LRTC 150700Z 34010KT 310V010 9999 FEW040 23/12 Q1007=
201907150730 METAR LRTC 150730Z 34010KT 300V030 9999 FEW045 24/11 Q1007=
201907150800 METAR LRTC 150800Z 35010KT 310V030 9999 FEW048 24/10 Q1007=
201907150830 METAR LRTC 150830Z 35010KT 300V040 9999 FEW048 25/12 Q1007=
201907150900 METAR LRTC 150900Z 35010KT 320V040 9999 SCT045 25/11 Q1008=
201907150930 METAR LRTC 150930Z 34010KT 300V020 9999 SCT048 26/11 Q1007=
201907151000 METAR LRTC 151000Z 02011KT 350V050 9999 SCT048 26/10 Q1007=
201907151030 METAR LRTC 151030Z 35009KT 9999 SCT048 FEW050CB 26/10 Q1007=
201907151100 METAR LRTC 151100Z 34010KT 310V030 9999 VCSH FEW050CB 27/10
                        Q1007=
201907151130 METAR LRTC 151130Z 02007KT 320V110 9999 VCSH FEW050CB 27/09
                        Q1007=
201907151200 METAR LRTC 151200Z 03009KT 320V080 9999 SCT055CB 27/09 Q1007=
201907151230 METAR LRTC 151230Z 34009KT 300V030 9999 SCT055CB 26/09 Q1007=
201907151300 METAR LRTC 151300Z 36010KT 320V040 9999 SCT055CB 26/11 Q1007=
201907151330 METAR LRTC 151330Z 02013KT 350V050 9999 -SHRA SCT050CB 24/12
                        Q1007=
201907151400 METAR LRTC 151400Z 01007KT 330V040 9999 TS VCSH SCT045CB
                        24/14 Q1007=
201907151430 METAR LRTC 151430Z 33012KT 300V010 9999 TS VCSH SCT050CB
                        25/12 Q1007=
201907151500 METAR LRTC 151500Z 32013KT 9999 VCSH SCT050CB 24/11 Q1008
                        RETS=
201907151530 METAR LRTC 151530Z 19005KT 160V240 9999 SCT044CB 22/14 Q1008=
201907151600 METAR LRTC 151600Z 31010KT 270V360 9999 VCTS FEW038 SCT040CB
                        25/14 Q1008=
201907151630 METAR LRTC 151630Z 16010KT 110V200 9999 TS SCT035CB 21/11
                        Q1009=
201907151700 METAR LRTC 151700Z AUTO 17006KT 120V220 9999 VCTS BKN035///
                        BKN044/// OVC055/// 21/11 Q1009=
201907151730 METAR LRTC 151730Z AUTO VRB02KT 9999 R34/1500VP2000U BKN035///
                        BKN044/// 21/11 Q1009=
201907151800 METAR LRTC 151800Z AUTO 14003KT 080V170 9999 FEW041/// BKN150///
                        20/12 Q1009=
201907151830 METAR LRTC 151830Z AUTO 33006KT 8000 FEW110/// SCT240///
                        20/13 Q1009=
201907151900 METAR LRTC 151900Z AUTO 31007KT 9999 NCD 20/13 Q1009=
201907151930 METAR LRTC 151930Z AUTO 32007KT 9999 NCD 19/14 Q1009=
201907152000 METAR LRTC 152000Z AUTO 32008KT 9999 BKN230/// 19/14 Q1009=
201907152030 METAR LRTC 152030Z AUTO 32008KT 9999 FEW180/// SCT240///
                        19/14 Q1009=
201907152100 METAR LRTC 152100Z AUTO 31005KT 280V340 9999 FEW120/// BKN170///
                        19/14 Q1009=
201907152130 METAR LRTC 152130Z AUTO 32006KT 9999 BKN120/// BKN170///
                        19/14 Q1009=
201907152200 METAR LRTC 152200Z AUTO 32009KT 9999 BKN120/// BKN150///
                        19/14 Q1009=
201907152230 METAR LRTC 152230Z AUTO 32009KT 9999 FEW110/// SCT130///
                        BKN150/// 19/14 Q1009=
201907152300 METAR LRTC 152300Z AUTO 31008KT 9999 FEW120/// BKN150///
                        BKN210/// 19/14 Q1009=
201907152330 METAR LRTC 152330Z AUTO 32007KT 9999 BKN180/// 18/14 Q1009=
201907160000 METAR LRTC 160000Z AUTO 31008KT 9999 FEW100/// BKN200///
                        18/14 Q1009=
201907160030 METAR LRTC 160030Z AUTO 32007KT 9999 FEW100/// SCT110///
                        18/14 Q1009=
201907160100 METAR LRTC 160100Z AUTO 33007KT 290V360 9999 SCT095/// BKN110///
                        17/14 Q1009=
201907160130 METAR LRTC 160130Z AUTO 33005KT 290V010 9999 OVC090/// 17/14
                        Q1009=
201907160200 METAR LRTC 160200Z AUTO 32005KT 280V340 9999 BKN090/// 17/14
                        Q1010=
201907160230 METAR LRTC 160230Z AUTO 28005KT 260V320 9999 FEW090/// 17/14
                        Q1010=
201907160300 METAR LRTC 160300Z AUTO 31004KT 280V340 9999 NCD 17/14 Q1010=
201907160330 METAR LRTC 160330Z AUTO 33006KT 300V360 9999 NCD 17/14 Q1010=
201907160400 METAR LRTC 160400Z AUTO 32007KT 9999 NCD 18/14 Q1010=
201907160430 METAR LRTC 160430Z AUTO 35006KT 310V040 9999 NCD 19/15 Q1010=
201907160500 METAR LRTC 160500Z 36007KT 320V040 9999 FEW020 20/15 Q1010
                        R16/CLRD//=
201907160530 METAR LRTC 160530Z 36005KT 320V050 9999 SCT018 20/15 Q1010=
201907160600 METAR LRTC 160600Z 01009KT 310V050 9999 SCT022 21/14 Q1010=
201907160630 METAR LRTC 160630Z 03008KT 350V060 9999 SCT023 22/14 Q1010=
201907160700 METAR LRTC 160700Z 36009KT 310V040 9999 SCT027 23/13 Q1010=
201907160730 METAR LRTC 160730Z 36011KT 320V040 9999 FEW030 23/12 Q1010=
201907160800 METAR LRTC 160800Z 34013KT 310V020 9999 FEW035 23/12 Q1010=
201907160830 METAR LRTC 160830Z 35010KT 310V040 9999 FEW040 24/11 Q1010=
201907160900 METAR LRTC 160900Z 02007KT 330V100 9999 FEW040 FEW050TCU
                        24/12 Q1010=
201907160930 METAR LRTC 160930Z 35008KT 290V040 9999 SCT041 FEW045TCU
                        25/12 Q1010=
201907161000 METAR LRTC 161000Z 36009KT 320V070 9999 SCT046 FEW050TCU
                        26/10 Q1010=
201907161030 METAR LRTC 161030Z 05006KT 330V110 9999 SCT046 FEW050TCU
                        26/10 Q1009=
201907161100 METAR LRTC 161100Z 02009KT 350V050 9999 FEW050CB 26/09 Q1009=
201907161130 METAR LRTC 161130Z 33012KT 270V360 9999 FEW050CB 27/08 Q1009=
201907161200 METAR LRTC 161200Z 35008KT 310V050 9999 FEW055CB 27/09 Q1009=
201907161230 METAR LRTC 161230Z 33010KT 300V020 9999 FEW055CB 27/08 Q1009=
201907161300 METAR LRTC 161300Z 36012KT 320V030 9999 FEW055CB 27/08 Q1009=
201907161330 METAR LRTC 161330Z 34009KT 300V040 9999 FEW055CB 27/08 Q1009=
201907161400 METAR LRTC 161400Z 35010KT 320V030 9999 FEW055TCU 26/07 Q1009=
201907161430 METAR LRTC 161430Z 36007KT 310V050 9999 FEW060TCU 26/08 Q1009=
201907161500 METAR LRTC 161500Z 36007KT 320V040 CAVOK 26/07 Q1009=
201907161530 METAR LRTC 161530Z 34006KT 310V030 CAVOK 26/07 Q1009=
201907161600 METAR LRTC 161600Z 02005KT 340V050 CAVOK 26/07 Q1009=
201907161630 METAR LRTC 161630Z 34004KT 310V030 CAVOK 26/08 Q1009=
201907161700 METAR LRTC 161700Z AUTO 36003KT 9999 NCD 25/08 Q1009=
201907161730 METAR LRTC 161730Z AUTO 34003KT 9999 NCD 23/08 Q1009=
201907161800 METAR LRTC 161800Z AUTO 29004KT 9999 NCD 23/09 Q1009=
201907161830 METAR LRTC 161830Z AUTO 28004KT 9999 NCD 22/09 Q1009=
201907161900 METAR LRTC 161900Z AUTO 32004KT 9999 NCD 20/10 Q1010=
201907161930 METAR LRTC 161930Z AUTO 15002KT 080V210 9999 NCD 19/10 Q1010=
201907162000 METAR LRTC 162000Z AUTO 16002KT 130V190 9999 NCD 19/10 Q1010=
201907162030 METAR LRTC 162030Z AUTO 07002KT 020V170 9999 NCD 18/11 Q1010=
201907162100 METAR LRTC 162100Z AUTO 02002KT 300V090 9999 NCD 18/11 Q1010=
201907162130 METAR LRTC 162130Z AUTO 34002KT 290V090 9999 NCD 18/11 Q1010=
201907162200 METAR LRTC 162200Z AUTO 34002KT 290V040 9999 NCD 18/11 Q1010=
201907162230 METAR LRTC 162230Z AUTO VRB01KT 9999 NCD 16/11 Q1010=
201907162300 METAR LRTC 162300Z AUTO VRB01KT 9999 FEW130/// 16/11 Q1010=
201907162330 METAR LRTC 162330Z AUTO 25002KT 200V280 9999 NCD 16/11 Q1010=
201907170000 METAR LRTC 170000Z AUTO 29005KT 9999 NCD 16/10 Q1010=
201907170030 METAR LRTC 170030Z AUTO VRB03KT 9999 NCD 15/10 Q1010=
201907170100 METAR LRTC 170100Z AUTO 30003KT 9000 NCD 18/10 Q1010=
201907170130 METAR LRTC 170130Z AUTO 32004KT 9999 NCD 17/10 Q1010=
201907170200 METAR LRTC 170200Z AUTO 34003KT 9999 NCD 17/10 Q1009=
201907170230 METAR LRTC 170230Z AUTO VRB01KT 9999 NCD 13/10 Q1010=
201907170300 METAR LRTC 170300Z AUTO 25004KT 9999 NCD 13/10 Q1009=
201907170330 METAR LRTC 170330Z AUTO 24005KT 9999 NCD 14/10 Q1010=
201907170400 METAR LRTC 170400Z AUTO 02002KT 9999 NCD 16/11 Q1010=
201907170430 METAR LRTC 170430Z AUTO 04002KT 020V100 9999 NCD 18/11 Q1010=
201907170500 METAR LRTC 170500Z VRB02KT CAVOK 19/10 Q1010 R16/CLRD//=
201907170530 METAR LRTC 170530Z VRB02KT CAVOK 21/11 Q1010=
201907170600 METAR LRTC 170600Z VRB03KT CAVOK 23/11 Q1009=
201907170630 METAR LRTC 170630Z 34005KT 290V030 CAVOK 25/09 Q1009=
201907170700 METAR LRTC 170700Z 32004KT CAVOK 26/08 Q1009=
201907170730 METAR LRTC 170730Z 31004KT 240V010 CAVOK 26/07 Q1009=
201907170800 METAR LRTC 170800Z 33009KT CAVOK 26/06 Q1009=
201907170830 METAR LRTC 170830Z 35006KT 320V040 CAVOK 26/07 Q1009=
201907170900 METAR LRTC 170900Z VRB06KT CAVOK 28/07 Q1009=
201907170930 METAR LRTC 170930Z 29008KT 250V330 CAVOK 28/06 Q1009=
201907171000 METAR LRTC 171000Z 35012KT CAVOK 28/02 Q1009=
201907171030 METAR LRTC 171030Z 34009KT CAVOK 29/02 Q1008=
201907171100 METAR LRTC 171100Z 34009KT CAVOK 29/02 Q1008=
201907171130 METAR LRTC 171130Z 04010KT 020V080 CAVOK 29/02 Q1008=
201907171200 METAR LRTC 171200Z 03011KT CAVOK 30/01 Q1008=
201907171230 METAR LRTC 171230Z 32004KT 270V040 CAVOK 28/04 Q1008=
201907171300 METAR LRTC 171300Z 31005KT 280V010 CAVOK 29/04 Q1008=
201907171330 METAR LRTC 171330Z VRB03KT CAVOK 28/06 Q1007=
201907171400 METAR LRTC 171400Z 27004KT CAVOK 29/06 Q1007=
201907171430 METAR LRTC 171430Z VRB04KT CAVOK 28/06 Q1007=
201907171500 METAR LRTC 171500Z 17010KT CAVOK 27/09 Q1007=
201907171530 METAR LRTC 171530Z 17009KT CAVOK 26/11 Q1007=
201907171600 METAR LRTC 171600Z 14007KT CAVOK 26/12 Q1007=
201907171630 METAR LRTC 171630Z 12008KT CAVOK 26/12 Q1008=
201907171700 METAR LRTC 171700Z AUTO 16008KT 9999 SCT075/// 26/11 Q1008=
201907171730 METAR LRTC 171730Z AUTO 16006KT 9999 NCD 25/11 Q1008=
201907171800 METAR LRTC 171800Z AUTO 15004KT 9999 NCD 23/12 Q1008=
201907171830 METAR LRTC 171830Z AUTO 16005KT 9999 NCD 21/13 Q1008=
201907171900 METAR LRTC 171900Z AUTO 18005KT 9999 NCD 20/13 Q1009=
201907171930 METAR LRTC 171930Z AUTO 18006KT 9999 NCD 21/12 Q1009=
201907172000 METAR LRTC 172000Z AUTO 19002KT 150V230 9999 NCD 20/11 Q1009=
201907172030 METAR LRTC 172030Z AUTO 15002KT 9999 NCD 20/11 Q1009=
201907172100 METAR LRTC 172100Z AUTO 11002KT 100V170 9999 NCD 20/12 Q1009=
201907172130 METAR LRTC 172130Z AUTO VRB01KT 9999 NCD 19/12 Q1009=
201907172200 METAR LRTC 172200Z AUTO 00000KT 9999 FEW120/// 19/12 Q1009=
201907172230 METAR LRTC 172230Z NIL=
201907172300 METAR LRTC 172300Z AUTO 32007KT 9000 FEW120/// 18/11 Q1009=
201907172330 METAR LRTC 172330Z AUTO 33010KT 9999 NCD 20/13 Q1009=
201907180000 METAR LRTC 180000Z AUTO 32012KT 9999 NCD 20/13 Q1009=
201907180030 METAR LRTC 180030Z AUTO 33012KT 9999 NCD 20/13 Q1009=
201907180100 METAR LRTC 180100Z AUTO 33013KT 9999 NCD 20/14 Q1009=
201907180130 METAR LRTC 180130Z AUTO 33012KT 9000 NCD 20/14 Q1010=
201907180200 METAR LRTC 180200Z AUTO 34012KT 9999 BKN095/// 20/13 Q1010=
201907180230 METAR LRTC 180230Z AUTO 35010KT 9999 FEW070/// BKN085///
                        20/13 Q1010=
201907180300 METAR LRTC 180300Z AUTO 35009KT 9999 FEW070/// SCT110///
                        20/13 Q1010=
201907180330 METAR LRTC 180330Z AUTO 33011KT 9999 FEW110/// 19/13 Q1010=
201907180400 METAR LRTC 180400Z AUTO 35011KT 9999 FEW110/// 20/13 Q1011=
201907180430 METAR LRTC 180430Z AUTO 33009KT 9999 BKN110/// 20/14 Q1011=
201907180500 METAR LRTC 180500Z 35011KT CAVOK 21/13 Q1011 R16/CLRD//=
201907180530 METAR LRTC 180530Z 36013KT CAVOK 22/12 Q1011=
201907180600 METAR LRTC 180600Z 36014KT CAVOK 22/12 Q1011=
201907180630 METAR LRTC 180630Z 36011KT CAVOK 23/12 Q1011=
201907180700 METAR LRTC 180700Z 36009KT 320V060 CAVOK 24/11 Q1011=
201907180730 METAR LRTC 180730Z 01012KT 330V050 CAVOK 25/08 Q1012=
201907180800 METAR LRTC 180800Z 01012KT 320V040 CAVOK 26/08 Q1012=
201907180830 METAR LRTC 180830Z 01010KT 350V050 CAVOK 26/08 Q1012=
201907180900 METAR LRTC 180900Z 02008KT 340V050 CAVOK 26/08 Q1012=
201907180930 METAR LRTC 180930Z VRB07KT CAVOK 26/08 Q1012=
201907181000 METAR LRTC 181000Z 03006KT 310V080 CAVOK 28/08 Q1012=
201907181030 METAR LRTC 181030Z 32005KT 210V010 CAVOK 27/08 Q1012=
201907181100 METAR LRTC 181100Z 06008KT CAVOK 27/08 Q1012=
201907181130 METAR LRTC 181130Z VRB04KT CAVOK 29/08 Q1012=
201907181200 METAR LRTC 181200Z VRB04KT CAVOK 27/08 Q1012=
201907181230 METAR LRTC 181230Z 19004KT 140V240 CAVOK 28/07 Q1012=
201907181300 METAR LRTC 181300Z 10006KT 070V140 CAVOK 27/09 Q1012=
201907181330 METAR LRTC 181330Z 13007KT 100V170 CAVOK 28/09 Q1012=
201907181400 METAR LRTC 181400Z 14005KT 110V180 CAVOK 27/10 Q1012=
201907181430 METAR LRTC 181430Z 13011KT CAVOK 26/13 Q1012=
201907181500 METAR LRTC 181500Z 14010KT CAVOK 26/13 Q1012=
201907181530 METAR LRTC 181530Z 15010KT CAVOK 26/14 Q1012=
201907181600 METAR LRTC 181600Z 17009KT CAVOK 25/14 Q1012=
201907181630 METAR LRTC 181630Z 16009KT CAVOK 25/14 Q1012=
201907181700 METAR LRTC 181700Z AUTO 17006KT 9999 NCD 24/14 Q1013=
201907181730 METAR LRTC 181730Z AUTO 19005KT 9999 FEW075/// 23/15 Q1013=
201907181800 METAR LRTC 181800Z AUTO 14004KT 9000 NCD 22/15 Q1013=
201907181830 METAR LRTC 181830Z AUTO 18005KT 9999 NCD 21/15 Q1014=
201907181900 METAR LRTC 181900Z AUTO 14004KT 9999 NCD 21/14 Q1014=
201907181930 METAR LRTC 181930Z AUTO 16003KT 9999 NCD 20/14 Q1014=
201907182000 METAR LRTC 182000Z AUTO 17003KT 9999 NCD 20/15 Q1014=
201907182030 METAR LRTC 182030Z AUTO 11003KT 070V160 9999 NCD 19/15 Q1014=
201907182100 METAR LRTC 182100Z AUTO 04002KT 360V070 9999 NCD 19/15 Q1015=
201907182130 METAR LRTC 182130Z AUTO 10002KT 9999 NCD 19/15 Q1015=
201907182200 METAR LRTC 182200Z AUTO VRB01KT 9999 NCD 19/15 Q1015=
201907182230 METAR LRTC 182230Z AUTO VRB01KT 9999 NCD 18/15 Q1015=
201907182300 METAR LRTC 182300Z AUTO 25002KT 9999 NCD 18/15 Q1015=
201907182330 METAR LRTC 182330Z AUTO 05003KT 9999 NCD 15/13 Q1015=
201907190000 METAR LRTC 190000Z AUTO 04002KT 9999 NCD 18/15 Q1015=
201907190030 METAR LRTC 190030Z AUTO 33006KT 9999 NCD 16/14 Q1015=
201907190100 METAR LRTC 190100Z AUTO 03004KT 9000 NCD 15/12 Q1015=
201907190130 METAR LRTC 190130Z AUTO VRB02KT 9999 NCD 15/12 Q1015=
201907190200 METAR LRTC 190200Z AUTO 25004KT 8000 NCD 15/12 Q1016=
201907190230 METAR LRTC 190230Z AUTO 23002KT 9000 NCD 16/14 Q1016=
201907190300 METAR LRTC 190300Z AUTO 03003KT 7000 NCD 14/12 Q1016=
201907190330 METAR LRTC 190330Z AUTO 36002KT 7000 NCD 15/13 Q1016=
201907190400 METAR LRTC 190400Z AUTO VRB01KT 8000 NCD 18/15 Q1016=
201907190430 METAR LRTC 190430Z AUTO VRB01KT 9999 NCD 20/14 Q1016=
201907190500 METAR LRTC 190500Z VRB02KT CAVOK 20/15 Q1016=
201907190530 METAR LRTC 190530Z VRB02KT CAVOK 22/15 Q1016 R16/CLRD//=
201907190600 METAR LRTC 190600Z 01003KT 280V060 CAVOK 24/15 Q1016=
201907190630 METAR LRTC 190630Z VRB03KT CAVOK 26/15 Q1016=
201907190700 METAR LRTC 190700Z VRB05KT CAVOK 27/11 Q1016=
201907190730 METAR LRTC 190730Z 17005KT 110V240 9999 FEW060CB 27/10 Q1016=
201907190800 METAR LRTC 190800Z 15007KT 080V180 9999 FEW055CB 27/11 Q1016=
201907190830 METAR LRTC 190830Z 17007KT 130V220 9999 FEW055CB 28/11 Q1016=
201907190900 METAR LRTC 190900Z 13012KT 9999 FEW050CB 29/13 Q1016=
201907190930 METAR LRTC 190930Z 13009KT 110V180 9999 -SHRA VCTS SCT045CB
                        26/15 Q1016=
201907191000 METAR LRTC 191000Z 35026KT 9999 3000N TSRA BKN040CB 20/16
                        Q1016 R16/29//95=
201907191030 METAR LRTC 191030Z 06010KT 020V100 9999 TS VCSH FEW010 SCT039CB
                        20/19 Q1016 RETSRA R16/29//95=
201907191100 METAR LRTC 191100Z 11015KT 9999 VCTS FEW040CB 24/18 Q1017
                        RETS R16/29//95=
201907191130 METAR LRTC 191130Z 14014KT 9999 FEW040CB 24/19 Q1017 R16/29//95=
201907191200 METAR LRTC 191200Z 14013KT 9999 FEW040CB 24/16 Q1017 R16/29//95=
201907191230 METAR LRTC 191230Z 15013KT 9999 FEW045CB 27/14 Q1016 R16/29//95=
201907191300 METAR LRTC 191300Z 15013KT 9999 FEW045CB 27/12 Q1016 R16/29//95=
201907191330 METAR LRTC 191330Z 16011KT 9999 FEW045CB 27/13 Q1016 R16/29//95=
201907191400 METAR LRTC 191400Z 14011KT 9999 FEW045CB 27/16 Q1016 R16/29//95=
201907191430 METAR LRTC 191430Z 15011KT 9999 FEW045CB 27/15 Q1016 R16/29//95=
201907191500 METAR LRTC 191500Z 14011KT 9999 FEW045CB 27/14 Q1016 R16/29//95=
201907191530 METAR LRTC 191530Z 15010KT 9999 FEW040CB 25/14 Q1016 R16/29//95=
201907191600 METAR LRTC 191600Z 15007KT 9999 FEW040CB 25/15 Q1016 R16/29//95=
201907191630 METAR LRTC 191630Z 15008KT 9999 FEW040CB 24/16 Q1016 R16/29//95=
201907191700 METAR LRTC 191700Z AUTO 14008KT 9999 SCT110/// BKN230///
                        24/17 Q1017=
201907191730 METAR LRTC 191730Z AUTO 16005KT 9999 FEW180/// 23/17 Q1017=
201907191800 METAR LRTC 191800Z AUTO 15004KT 9999 NCD 22/17 Q1017=
201907191830 METAR LRTC 191830Z AUTO 12005KT 9999 FEW085/// 21/17 Q1017=
201907191900 METAR LRTC 191900Z AUTO 14006KT 9999 FEW090/// 22/17 Q1017=
201907191930 METAR LRTC 191930Z AUTO 15005KT 9999 FEW090/// 21/17 Q1017=
201907192000 METAR LRTC 192000Z AUTO 16005KT 9999 FEW085/// 21/17 Q1017=
201907192030 METAR LRTC 192030Z AUTO 15003KT 110V170 9999 SCT085/// 21/17
                        Q1018=
201907192100 METAR LRTC 192100Z AUTO 08002KT 030V090 9999 FEW080/// 20/17
                        Q1018=
201907192130 METAR LRTC 192130Z AUTO 12004KT 9999 FEW080/// 20/17 Q1018=
201907192200 METAR LRTC 192200Z AUTO VRB01KT 9999 NCD 20/16 Q1018=
201907192230 METAR LRTC 192230Z AUTO 12003KT 9999 NCD 19/16 Q1018=
201907192300 METAR LRTC 192300Z AUTO 14003KT 9999 NCD 19/16 Q1018=
201907192330 METAR LRTC 192330Z AUTO 17004KT 9999 FEW110/// 20/15 Q1018=
201907200000 METAR LRTC 200000Z AUTO 00000KT 9999 FEW110/// 18/16 Q1018=
201907200030 METAR LRTC 200030Z AUTO 26001KT 9999 NCD 19/15 Q1018=
201907200100 METAR LRTC 200100Z AUTO 26002KT 9999 NCD 19/14 Q1018=
201907200130 METAR LRTC 200130Z AUTO 00000KT 9999 FEW075/// 18/14 Q1018=
201907200200 METAR LRTC 200200Z AUTO 24002KT 9999 NCD 18/14 Q1018=
201907200230 METAR LRTC 200230Z AUTO 19003KT 9999 NCD 18/14 Q1018=
201907200300 METAR LRTC 200300Z AUTO 20003KT 8000 NCD 17/14 Q1018=
201907200330 METAR LRTC 200330Z AUTO 25001KT 9000 NCD 18/14 Q1018=
201907200400 METAR LRTC 200400Z AUTO 25002KT 9000 NCD 18/15 Q1018=
201907200430 METAR LRTC 200430Z AUTO VRB01KT 9999 NCD 20/16 Q1019=
201907200500 METAR LRTC 200500Z VRB02KT CAVOK 21/15 Q1019=
201907200530 METAR LRTC 200530Z 16005KT CAVOK 22/16 Q1019=
201907200600 METAR LRTC 200600Z 16006KT CAVOK 24/15 Q1019=
201907200630 METAR LRTC 200630Z 15008KT CAVOK 26/15 Q1019=
201907200700 METAR LRTC 200700Z 15007KT 120V180 CAVOK 27/14 Q1019=
201907200730 METAR LRTC 200730Z 14008KT CAVOK 26/14 Q1019=
201907200800 METAR LRTC 200800Z 13010KT 110V180 9999 FEW060TCU 28/14 Q1019=
201907200830 METAR LRTC 200830Z 14011KT 100V170 9999 FEW060CB 28/14 Q1019=
201907200900 METAR LRTC 200900Z 13012KT 9999 FEW060CB 28/15 Q1019=
201907200930 METAR LRTC 200930Z 12014KT CAVOK 28/16 Q1019=
201907201000 METAR LRTC 201000Z 13013KT 100V160 CAVOK 29/16 Q1019=
201907201030 METAR LRTC 201030Z 13014KT 9999 FEW060TCU 29/14 Q1019=
201907201100 METAR LRTC 201100Z 13014KT 9999 FEW060TCU 29/15 Q1019=
201907201130 METAR LRTC 201130Z 13014KT CAVOK 28/15 Q1019=
201907201200 METAR LRTC 201200Z 13015KT CAVOK 29/14 Q1019=
201907201230 METAR LRTC 201230Z 12015KT 9999 FEW060TCU 28/13 Q1018=
201907201300 METAR LRTC 201300Z 13014KT 9999 FEW060TCU 28/13 Q1018=
201907201330 METAR LRTC 201330Z 13015KT 9999 FEW060TCU 29/12 Q1018=
201907201400 METAR LRTC 201400Z 13015KT 9999 FEW060CB 28/13 Q1018=
201907201430 METAR LRTC 201430Z 13014KT 9999 FEW060TCU 28/15 Q1018=
201907201500 METAR LRTC 201500Z 13015KT 9999 FEW055TCU 27/16 Q1018=
201907201530 METAR LRTC 201530Z 14013KT CAVOK 27/15 Q1018=
201907201600 METAR LRTC 201600Z 15012KT CAVOK 27/16 Q1018=
201907201630 METAR LRTC 201630Z 15011KT CAVOK 26/16 Q1018=
201907201700 METAR LRTC 201700Z AUTO 15008KT 9999 NCD 25/16 Q1018=
201907201730 METAR LRTC 201730Z AUTO 16008KT 9999 NCD 24/16 Q1018=
201907201800 METAR LRTC 201800Z AUTO 16005KT 9999 NCD 23/17 Q1018=
201907201830 METAR LRTC 201830Z AUTO 13004KT 9999 NCD 22/17 Q1019=
201907201900 METAR LRTC 201900Z AUTO 16004KT 9999 NCD 22/17 Q1019=
201907201930 METAR LRTC 201930Z AUTO 16005KT 9999 NCD 21/17 Q1019=
201907202000 METAR LRTC 202000Z AUTO 14005KT 9000 NCD 21/17 Q1019=
201907202030 METAR LRTC 202030Z AUTO 13004KT 9999 NCD 21/17 Q1019=
201907202100 METAR LRTC 202100Z AUTO 16004KT 9999 NCD 21/17 Q1019=
201907202130 METAR LRTC 202130Z AUTO 18002KT 150V210 9999 NCD 21/17 Q1019=
201907202200 METAR LRTC 202200Z AUTO 26001KT 9000 NCD 20/17 Q1019=
201907202230 METAR LRTC 202230Z AUTO 00000KT 9000 NCD 20/17 Q1019=
201907202300 METAR LRTC 202300Z AUTO 22001KT 9000 NCD 19/16 Q1019=
201907202330 METAR LRTC 202330Z AUTO 00000KT 9999 NCD 20/16 Q1019=
201907210000 METAR LRTC 210000Z AUTO 18001KT 9999 NCD 19/17 Q1019=
201907210030 METAR LRTC 210030Z AUTO 00000KT 9999 NCD 19/17 Q1019=
201907210100 METAR LRTC 210100Z AUTO 27001KT 8000 NCD 18/16 Q1018=
201907210130 METAR LRTC 210130Z AUTO 00000KT 9999 NCD 18/16 Q1018=
201907210200 METAR LRTC 210200Z AUTO VRB01KT 7000 NCD 18/16 Q1018=
201907210230 METAR LRTC 210230Z AUTO 00000KT 6000 NCD 18/16 Q1018=
201907210300 METAR LRTC 210300Z AUTO 03001KT 6000 NCD 17/16 Q1018=
201907210330 METAR LRTC 210330Z AUTO 18002KT 140V220 8000 NCD 18/14 Q1019=
201907210400 METAR LRTC 210400Z AUTO 18002KT 9000 NCD 19/15 Q1019=
201907210430 METAR LRTC 210430Z AUTO 25003KT 210V280 9999 NCD 19/15 Q1019=
201907210500 METAR LRTC 210500Z VRB01KT CAVOK 22/15 Q1019=
201907210530 METAR LRTC 210530Z VRB02KT CAVOK 23/16 Q1019=
201907210600 METAR LRTC 210600Z VRB03KT CAVOK 25/14 Q1019=
201907210630 METAR LRTC 210630Z 18003KT 110V220 CAVOK 26/12 Q1019=
201907210700 METAR LRTC 210700Z VRB02KT CAVOK 27/13 Q1019=
201907210730 METAR LRTC 210730Z VRB03KT CAVOK 28/12 Q1019=
201907210800 METAR LRTC 210800Z VRB03KT CAVOK 29/13 Q1019=
201907210830 METAR LRTC 210830Z VRB03KT CAVOK 30/12 Q1018=
201907210900 METAR LRTC 210900Z 11005KT 040V180 9999 FEW060TCU 30/13 Q1018=
201907210930 METAR LRTC 210930Z VRB03KT 9999 FEW060TCU 31/13 Q1018=
201907211000 METAR LRTC 211000Z 17007KT 120V200 9999 FEW055CB 31/13 Q1018=
201907211030 METAR LRTC 211030Z 15012KT 9999 SCT060CB 29/15 Q1018=
201907211100 METAR LRTC 211100Z 15010KT 9999 FEW045 FEW055CB 30/15 Q1018=
201907211130 METAR LRTC 211130Z 17009KT 130V200 9999 FEW055CB 31/14 Q1018=
201907211200 METAR LRTC 211200Z 18008KT 130V210 9999 FEW055CB 30/14 Q1018=
201907211230 METAR LRTC 211230Z 18007KT 140V210 9999 FEW055CB 31/13 Q1018=
201907211300 METAR LRTC 211300Z 17008KT 140V200 9999 FEW055CB 31/14 Q1017=
201907211330 METAR LRTC 211330Z 16007KT 090V210 9999 FEW055CB 31/14 Q1017=
201907211400 METAR LRTC 211400Z 16010KT 130V190 9999 FEW055CB 31/13 Q1017=
201907211430 METAR LRTC 211430Z 13015KT 9999 FEW055CB 30/15 Q1017=
201907211500 METAR LRTC 211500Z 15011KT 120V190 9999 FEW055CB 30/15 Q1017=
201907211530 METAR LRTC 211530Z 15012KT 9999 FEW050CB 29/14 Q1017=
201907211600 METAR LRTC 211600Z 16011KT 130V190 9999 FEW050CB 29/13 Q1017=
201907211630 METAR LRTC 211630Z 16010KT 9999 FEW050CB 28/13 Q1017=
201907211700 METAR LRTC 211700Z AUTO 15009KT 9999 NCD 27/14 Q1017=
201907211730 METAR LRTC 211730Z AUTO 16007KT 9999 NCD 26/15 Q1017=
201907211800 METAR LRTC 211800Z AUTO 17007KT 9999 NCD 25/16 Q1018=
201907211830 METAR LRTC 211830Z AUTO 18007KT 9999 NCD 25/15 Q1018=
201907211900 METAR LRTC 211900Z AUTO 17005KT 9999 NCD 24/15 Q1018=
201907211930 METAR LRTC 211930Z AUTO 17004KT 9999 NCD 23/15 Q1018=
201907212000 METAR LRTC 212000Z AUTO 10002KT 060V190 9999 NCD 23/15 Q1018=
201907212030 METAR LRTC 212030Z AUTO 16004KT 9999 NCD 23/14 Q1018=
201907212100 METAR LRTC 212100Z AUTO 18002KT 9999 NCD 22/14 Q1018=
201907212130 METAR LRTC 212130Z AUTO 14001KT 9999 NCD 22/15 Q1018=
201907212200 METAR LRTC 212200Z AUTO 04002KT 9999 NCD 21/15 Q1018=
201907212230 METAR LRTC 212230Z AUTO 10002KT 9999 NCD 21/14 Q1018=
201907212300 METAR LRTC 212300Z AUTO VRB01KT 9999 NCD 21/14 Q1018=
201907212330 METAR LRTC 212330Z AUTO 18001KT 9999 NCD 21/14 Q1018=
201907220000 METAR LRTC 220000Z AUTO VRB01KT 9999 NCD 20/14 Q1018=
201907220030 METAR LRTC 220030Z AUTO VRB01KT 9999 NCD 20/14 Q1018=
201907220100 METAR LRTC 220100Z AUTO 23001KT 9999 NCD 20/13 Q1018=
201907220130 METAR LRTC 220130Z AUTO 25001KT 9999 NCD 21/13 Q1018=
201907220200 METAR LRTC 220200Z AUTO 25001KT 9999 NCD 20/13 Q1018=
201907220230 METAR LRTC 220230Z AUTO 27002KT 9999 NCD 20/14 Q1018=
201907220300 METAR LRTC 220300Z AUTO 02001KT 9999 NCD 19/15 Q1018=
201907220330 METAR LRTC 220330Z AUTO VRB01KT 9999 NCD 20/15 Q1018=
201907220400 METAR LRTC 220400Z AUTO 18002KT 9000 NCD 21/14 Q1018=
201907220430 METAR LRTC 220430Z AUTO VRB01KT 9999 NCD 22/14 Q1018=
201907220500 METAR LRTC 220500Z VRB01KT CAVOK 23/14 Q1018=
201907220530 METAR LRTC 220530Z VRB02KT CAVOK 24/14 Q1018=
201907220600 METAR LRTC 220600Z VRB01KT CAVOK 26/13 Q1018=
201907220630 METAR LRTC 220630Z VRB02KT CAVOK 28/13 Q1017=
201907220700 METAR LRTC 220700Z 33004KT 240V030 CAVOK 29/14 Q1017=
201907220730 METAR LRTC 220730Z 01005KT 330V070 CAVOK 30/15 Q1017=
201907220800 METAR LRTC 220800Z VRB03KT CAVOK 31/14 Q1017=
201907220830 METAR LRTC 220830Z VRB03KT 9999 FEW060TCU 32/13 Q1017=
201907220900 METAR LRTC 220900Z 06006KT 020V130 9999 FEW060TCU 32/13 Q1017=
201907220930 METAR LRTC 220930Z 02008KT 340V080 9999 FEW060CB 32/12 Q1017=
201907221000 METAR LRTC 221000Z 04009KT 350V080 9999 FEW060CB 33/12 Q1017=
201907221030 METAR LRTC 221030Z 23005KT 190V260 9999 FEW060TCU 31/12 Q1017
                        R16/CLRD//=
201907221100 METAR LRTC 221100Z 35005KT 320V060 9999 FEW060CB 31/12 Q1017=
201907221130 METAR LRTC 221130Z 20011KT 150V220 9999 FEW055CB 32/13 Q1016=
201907221200 METAR LRTC 221200Z 22007G18KT 180V300 9999 -SHRA VCTS SCT048CB
                        30/17 Q1016=
201907221230 METAR LRTC 221230Z 14005KT 100V190 9999 SCT055CB 29/18 Q1016=
201907221300 METAR LRTC 221300Z 16007KT 9999 FEW060CB 31/17 Q1016=
201907221330 METAR LRTC 221330Z 17007KT 9999 VCSH FEW055CB 30/17 Q1016=
201907221400 METAR LRTC 221400Z 18007KT 9999 VCSH SCT048CB 29/19 Q1016=
201907221430 METAR LRTC 221430Z 25010KT 9999 VCSH SCT050CB 27/16 Q1016=
201907221500 METAR LRTC 221500Z 27009KT 9999 VCSH SCT050CB 27/16 Q1016=
201907221530 METAR LRTC 221530Z 32009KT 270V360 9999 VCTS VCSH SCT055CB
                        30/12 Q1016=
201907221600 METAR LRTC 221600Z 01010KT 340V040 9999 -SHRA VCTS SCT050CB
                        27/15 Q1016=
201907221630 METAR LRTC 221630Z 10005KT 9999 VCSH SCT050CB 27/15 Q1016=
201907221700 METAR LRTC 221700Z AUTO VRB01KT 9999 FEW130/// SCT170///
                        26/18 Q1016 RERA=
201907221730 METAR LRTC 221730Z AUTO 33002KT 290V090 9999 NCD 25/18 Q1016=
201907221800 METAR LRTC 221800Z AUTO 26003KT 9999 NCD 25/17 Q1016=
201907221830 METAR LRTC 221830Z AUTO 34002KT 290V010 9999 NCD 24/17 Q1016=
201907221900 METAR LRTC 221900Z AUTO 28003KT 9999 SCT120/// 24/17 Q1016=
201907221930 METAR LRTC 221930Z AUTO 33003KT 9999 BKN130/// 23/18 Q1016=
201907222000 METAR LRTC 222000Z AUTO 34004KT 9999 BKN120/// BKN150///
                        23/19 Q1016=
201907222030 METAR LRTC 222030Z AUTO 36004KT 9999 BKN120/// BKN170///
                        23/19 Q1016=
201907222100 METAR LRTC 222100Z AUTO 35004KT 320V040 9999 FEW100/// SCT120///
                        BKN170/// 23/18 Q1016=
201907222130 METAR LRTC 222130Z AUTO 35009KT 9999 FEW110/// BKN170///
                        24/17 Q1016=
201907222200 METAR LRTC 222200Z AUTO 34009KT 9999 FEW140/// SCT200///
                        23/17 Q1016=
201907222230 METAR LRTC 222230Z AUTO 33009KT 9999 FEW120/// 23/16 Q1016=
201907222300 METAR LRTC 222300Z AUTO 34008KT 9999 FEW110/// 23/16 Q1016=
201907222330 METAR LRTC 222330Z AUTO 34008KT 9999 FEW170/// 23/16 Q1016=
201907230000 METAR LRTC 230000Z AUTO 34009KT 9999 BKN180/// 22/16 Q1016=
201907230030 METAR LRTC 230030Z AUTO 34008KT 9999 SCT230/// 22/16 Q1016=
201907230100 METAR LRTC 230100Z AUTO 34007KT 9999 FEW085/// BKN140///
                        23/16 Q1015=
201907230130 METAR LRTC 230130Z AUTO 02004KT 350V070 9999 FEW085/// BKN130///
                        22/17 Q1015=
201907230200 METAR LRTC 230200Z AUTO 35004KT 9999 SCT130/// 21/17 Q1015=
201907230230 METAR LRTC 230230Z AUTO 01002KT 330V060 9999 FEW080/// 21/17
                        Q1015=
201907230300 METAR LRTC 230300Z AUTO 34006KT 9999 FEW080/// 21/16 Q1015=
201907230330 METAR LRTC 230330Z AUTO 35004KT 320V040 9999 SCT140/// 21/17
                        Q1015=
201907230400 METAR LRTC 230400Z AUTO 01006KT 340V040 9999 BKN140/// 23/17
                        Q1015=
201907230430 METAR LRTC 230430Z AUTO 36008KT 9999 BKN150/// 23/16 Q1015=
201907230500 METAR LRTC 230500Z 36009KT 330V030 CAVOK 24/16 Q1015=
201907230530 METAR LRTC 230530Z 01010KT 340V050 9999 FEW050CB 24/15 Q1015
                        R16/CLRD//=
201907230600 METAR LRTC 230600Z 02011KT 340V050 9999 FEW050CB 25/15 Q1015=
201907230630 METAR LRTC 230630Z 01008KT 9999 FEW050CB 26/15 Q1015=
201907230700 METAR LRTC 230700Z 02008KT 330V070 9999 FEW050CB 25/15 Q1015=
201907230730 METAR LRTC 230730Z 01007KT 330V030 9999 FEW050CB 26/15 Q1015=
201907230800 METAR LRTC 230800Z 03004KT 310V090 9999 FEW050CB 26/15 Q1015=
201907230830 METAR LRTC 230830Z 01005KT 330V070 CAVOK 26/15 Q1015=
201907230900 METAR LRTC 230900Z 03005KT 350V080 9999 FEW048 27/14 Q1015=
201907230930 METAR LRTC 230930Z 34004KT 280V070 9999 FEW048 27/14 Q1015=
201907231000 METAR LRTC 231000Z 36005KT 270V060 9999 FEW050TCU 28/13 Q1015=
201907231030 METAR LRTC 231030Z 36007KT 330V030 9999 FEW050CB 28/13 Q1014=
201907231100 METAR LRTC 231100Z 34006KT 290V020 9999 SCT050CB 27/13 Q1014=
201907231130 METAR LRTC 231130Z 35007KT 310V030 9999 FEW050CB 27/13 Q1014=
201907231200 METAR LRTC 231200Z 36006KT 320V050 9999 FEW055TCU 28/12 Q1014=
201907231230 METAR LRTC 231230Z 35016KT 9999 FEW050CB 27/14 Q1013=
201907231300 METAR LRTC 231300Z 01016KT 340V040 9999 SCT045CB 26/13 Q1013=
201907231330 METAR LRTC 231330Z 33018KT 9999 -SHRA SCT045CB 23/15 Q1014=
201907231400 METAR LRTC 231400Z 32010KT 9999 FEW023 SCT041CB 21/17 Q1014=
201907231430 METAR LRTC 231430Z 34006KT 9999 SCT043CB 21/18 Q1014=
201907231500 METAR LRTC 231500Z 33004KT 9999 FEW037 FEW045CB 22/18 Q1014=
201907231530 METAR LRTC 231530Z 36006KT 9999 FEW031 FEW045CB 22/18 Q1014=
201907231600 METAR LRTC 231600Z 35004KT 330V030 CAVOK 22/17 Q1014=
201907231630 METAR LRTC 231630Z 34009KT 9999 -RA FEW045 21/16 Q1014=
201907231700 METAR LRTC 231700Z AUTO 34007KT 9999 -DZ FEW034/// BKN110///
                        21/17 Q1014=
201907231730 METAR LRTC 231730Z AUTO 34006KT 9999 FEW110/// SCT130///
                        BKN150/// 21/16 Q1014 REDZ=
201907231800 METAR LRTC 231800Z AUTO 34007KT 9999 OVC150/// 20/16 Q1014=
201907231830 METAR LRTC 231830Z AUTO 35006KT 9999 BKN160/// 20/16 Q1014=
201907231900 METAR LRTC 231900Z AUTO 35006KT 9999 BKN150/// 20/16 Q1014=
201907231930 METAR LRTC 231930Z AUTO 36004KT 9999 BKN170/// 19/16 Q1014=
201907232000 METAR LRTC 232000Z AUTO 01002KT 9999 FEW140/// BKN170///
                        19/16 Q1014=
201907232030 METAR LRTC 232030Z AUTO 29003KT 260V340 9999 BKN120/// BKN150///
                        20/16 Q1014=
201907232100 METAR LRTC 232100Z AUTO 34007KT 9999 OVC120/// 20/15 Q1014=
201907232130 METAR LRTC 232130Z AUTO 33007KT 9999 FEW065/// SCT120///
                        19/15 Q1014=
201907232200 METAR LRTC 232200Z AUTO 30004KT 280V340 9000 NCD 18/15 Q1014=
201907232230 METAR LRTC 232230Z AUTO 33008KT 9999 SCT110/// 19/15 Q1014=
201907232300 METAR LRTC 232300Z AUTO 33009KT 9999 FEW110/// 19/15 Q1013=
201907232330 METAR LRTC 232330Z AUTO 34010KT 9999 BKN110/// 18/15 Q1013=
201907240000 METAR LRTC 240000Z AUTO 34010KT 9999 FEW110/// 18/15 Q1013=
201907240030 METAR LRTC 240030Z AUTO 33013KT 9000 NCD 18/15 Q1013=
201907240100 METAR LRTC 240100Z AUTO 33014KT 9000 NCD 18/15 Q1013=
201907240130 METAR LRTC 240130Z AUTO 33011KT 9999 NCD 17/15 Q1013=
201907240200 METAR LRTC 240200Z AUTO 33011KT 9999 NCD 17/15 Q1013=
201907240230 METAR LRTC 240230Z AUTO 33009KT 9000 NCD 17/15 Q1013=
201907240300 METAR LRTC 240300Z AUTO 32010KT 9999 NCD 17/15 Q1013=
201907240330 METAR LRTC 240330Z AUTO 33010KT 9000 NCD 18/15 Q1013=
201907240400 METAR LRTC 240400Z AUTO 34010KT 9000 NCD 18/15 Q1013=
201907240430 METAR LRTC 240430Z AUTO 34009KT 320V020 9999 NCD 19/15 Q1013=
201907240500 METAR LRTC 240500Z 34013KT CAVOK 20/15 Q1013 R16/CLRD//=
201907240530 METAR LRTC 240530Z 34012KT CAVOK 21/15 Q1013=
201907240600 METAR LRTC 240600Z 34012KT CAVOK 22/15 Q1013=
201907240630 METAR LRTC 240630Z 34011KT 310V020 CAVOK 22/15 Q1013=
201907240700 METAR LRTC 240700Z 34013KT 310V020 CAVOK 23/14 Q1013=
201907240730 METAR LRTC 240730Z 34012KT 310V010 CAVOK 24/14 Q1013=
201907240800 METAR LRTC 240800Z 36012KT 320V040 CAVOK 26/12 Q1014=
201907240830 METAR LRTC 240830Z 35011KT 300V030 CAVOK 26/12 Q1014=
201907240900 METAR COR LRTC 240900Z 34012KT 310V010 9999 FEW049 27/10
                        Q1013=
201907240930 METAR LRTC 240930Z 34015KT 310V010 CAVOK 28/09 Q1013=
201907241000 METAR LRTC 241000Z 34014KT 310V020 CAVOK 28/08 Q1013=
201907241030 METAR LRTC 241030Z 34013KT 310V030 CAVOK 28/06 Q1013=
201907241100 METAR LRTC 241100Z 34014KT 300V020 CAVOK 28/08 Q1013=
201907241130 METAR LRTC 241130Z 35015G25KT 320V030 CAVOK 29/07 Q1013=
201907241200 METAR LRTC 241200Z 34014KT 310V030 CAVOK 28/08 Q1013=
201907241230 METAR LRTC 241230Z 35016KT 310V020 CAVOK 28/07 Q1013=
201907241300 METAR LRTC 241300Z 34015KT 300V020 CAVOK 29/08 Q1013=
201907241330 METAR LRTC 241330Z 34014G24KT 300V030 CAVOK 29/07 Q1013=
201907241400 METAR LRTC 241400Z 34013KT 310V010 CAVOK 29/08 Q1013=
201907241430 METAR LRTC 241430Z 35014KT 310V020 CAVOK 28/09 Q1013=
201907241500 METAR LRTC 241500Z 36014KT 320V040 CAVOK 28/09 Q1013=
201907241530 METAR LRTC 241530Z 36014KT 330V030 CAVOK 28/09 Q1013=
201907241600 METAR LRTC 241600Z 36012KT CAVOK 27/09 Q1013=
201907241630 METAR LRTC 241630Z 34009KT 310V020 9999 FEW049 27/09 Q1013=
201907241700 METAR LRTC 241700Z AUTO 34010KT 320V020 9999 FEW065/// SCT110///
                        26/11 Q1014=
201907241730 METAR LRTC 241730Z AUTO 35008KT 9999 NCD 25/11 Q1014=
201907241800 METAR LRTC 241800Z AUTO 35007KT 9999 FEW110/// 23/11 Q1014=
201907241830 METAR LRTC 241830Z AUTO 34008KT 9999 BKN110/// 23/12 Q1014=
201907241900 METAR LRTC 241900Z AUTO 35007KT 9999 BKN110/// 23/13 Q1014=
201907241930 METAR LRTC 241930Z AUTO 33006KT 9999 SCT110/// 22/14 Q1015=
201907242000 METAR LRTC 242000Z AUTO 31007KT 9999 NCD 21/13 Q1015=
201907242030 METAR LRTC 242030Z AUTO 32007KT 9999 NCD 21/12 Q1015=
201907242100 METAR LRTC 242100Z AUTO 30006KT 9999 NCD 20/12 Q1015=
201907242130 METAR LRTC 242130Z AUTO 31005KT 280V350 9999 FEW130/// 21/12
                        Q1015=
201907242200 METAR LRTC 242200Z AUTO 31007KT 9999 FEW090/// BKN120///
                        22/12 Q1015=
201907242230 METAR LRTC 242230Z AUTO 32009KT 9999 FEW110/// SCT130///
                        22/12 Q1015=
201907242300 METAR LRTC 242300Z AUTO 32010KT 9999 BKN130/// 21/12 Q1015=
201907242330 METAR LRTC 242330Z AUTO 32011KT 9999 SCT130/// 21/12 Q1015=
201907250000 METAR LRTC 250000Z AUTO 32010KT 9999 NCD 21/12 Q1015=
201907250030 METAR LRTC 250030Z AUTO 32009KT 9999 NCD 20/12 Q1015=
201907250100 METAR LRTC 250100Z AUTO 32010KT 9999 NCD 20/12 Q1015=
201907250130 METAR LRTC 250130Z AUTO 32011KT 9999 NCD 20/13 Q1015=
201907250200 METAR LRTC 250200Z AUTO 32010KT 9999 NCD 20/12 Q1015=
201907250230 METAR LRTC 250230Z AUTO 32011KT 9999 NCD 20/12 Q1015=
201907250300 METAR LRTC 250300Z AUTO 32008KT 9999 NCD 19/13 Q1015=
201907250330 METAR LRTC 250330Z AUTO 32008KT 9999 NCD 19/13 Q1015=
201907250400 METAR LRTC 250400Z AUTO 33008KT 9999 NCD 21/13 Q1016=
201907250430 METAR LRTC 250430Z AUTO 32008KT 9999 NCD 22/13 Q1016=
201907250500 METAR LRTC 250500Z 34009KT 310V010 CAVOK 23/13 Q1016 R16/CLRD//=
201907250530 METAR LRTC 250530Z 34011KT CAVOK 24/12 Q1016=
201907250600 METAR LRTC 250600Z 35012KT 320V020 CAVOK 24/13 Q1016=
201907250630 METAR LRTC 250630Z 34013KT 310V020 CAVOK 25/13 Q1016=
201907250700 METAR LRTC 250700Z 35011KT 320V020 CAVOK 26/13 Q1016=
201907250730 METAR LRTC 250730Z 34011KT 310V020 CAVOK 26/13 Q1016=
201907250800 METAR LRTC 250800Z 34013KT 310V010 9999 FEW048 27/12 Q1016=
201907250830 METAR LRTC 250830Z 34013KT 300V020 9999 FEW048 28/11 Q1016=
201907250900 METAR LRTC 250900Z 34015KT 310V030 CAVOK 29/11 Q1016=
201907250930 METAR LRTC 250930Z 33012KT 300V020 CAVOK 29/11 Q1016=
201907251000 METAR LRTC 251000Z 34012KT 310V020 9999 FEW055CB 29/10 Q1016=
201907251030 METAR LRTC 251030Z 36011KT 310V040 9999 FEW055CB 29/11 Q1016=
201907251100 METAR LRTC 251100Z 35011KT 290V040 9999 FEW060CB 28/09 Q1015=
201907251130 METAR LRTC 251130Z 35012KT 320V020 9999 FEW060TCU 30/10 Q1015=
201907251200 METAR LRTC 251200Z 32011KT 280V020 9999 FEW060TCU 30/09 Q1015=
201907251230 METAR LRTC 251230Z 36013KT 9999 FEW060TCU 30/09 Q1015=
201907251300 METAR LRTC 251300Z 34011KT 300V020 CAVOK 30/09 Q1015=
201907251330 METAR LRTC 251330Z 32010KT 280V360 CAVOK 30/09 Q1015=
201907251400 METAR LRTC 251400Z 35009KT 290V030 CAVOK 31/09 Q1014=
201907251430 METAR LRTC 251430Z 35012KT 310V020 CAVOK 29/09 Q1014=
201907251500 METAR LRTC 251500Z 36012KT 320V030 CAVOK 29/09 Q1014=
201907251530 METAR LRTC 251530Z 34010KT CAVOK 29/09 Q1015=
201907251600 METAR LRTC 251600Z 29012KT CAVOK 29/08 Q1014=
201907251630 METAR LRTC 251630Z 31012KT 280V350 CAVOK 29/08 Q1015=
201907251700 METAR LRTC 251700Z AUTO 30010KT 260V320 9999 SCT120/// 28/08
                        Q1015=
201907251730 METAR LRTC 251730Z AUTO 29006KT 9999 NCD 27/09 Q1015=
201907251800 METAR LRTC 251800Z AUTO 30004KT 9999 NCD 25/10 Q1015=
201907251830 METAR LRTC 251830Z AUTO 29007KT 9999 NCD 24/10 Q1015=
201907251900 METAR LRTC 251900Z AUTO 31006KT 9999 NCD 23/10 Q1015=
201907251930 METAR LRTC 251930Z AUTO 32007KT 9999 NCD 23/11 Q1015=
201907252000 METAR LRTC 252000Z AUTO 32007KT 9999 NCD 22/11 Q1015=
201907252030 METAR LRTC 252030Z AUTO 33006KT 9999 NCD 21/11 Q1015=
201907252100 METAR LRTC 252100Z AUTO 31004KT 200V330 9999 NCD 21/11 Q1015=
201907252130 METAR LRTC 252130Z AUTO 05003KT 340V100 9999 NCD 21/11 Q1015=
201907252200 METAR LRTC 252200Z AUTO 08001KT 9999 NCD 19/11 Q1015=
201907252230 METAR LRTC 252230Z AUTO 22002KT 190V270 9999 NCD 19/11 Q1015=
201907252300 METAR LRTC 252300Z AUTO 15002KT 110V200 9999 NCD 19/11 Q1015=
201907252330 METAR LRTC 252330Z AUTO VRB01KT 9999 NCD 18/12 Q1015=
201907260000 METAR LRTC 260000Z AUTO 26001KT 9999 NCD 19/12 Q1015=
201907260030 METAR LRTC 260030Z AUTO VRB01KT 9999 NCD 18/12 Q1014=
201907260100 METAR LRTC 260100Z AUTO 24004KT 9999 NCD 18/12 Q1014=
201907260130 METAR LRTC 260130Z AUTO 34002KT 260V050 9999 NCD 17/11 Q1014=
201907260200 METAR LRTC 260200Z AUTO VRB01KT 9999 NCD 17/12 Q1014=
201907260230 METAR LRTC 260230Z AUTO 03003KT 9999 NCD 17/12 Q1014=
201907260300 METAR LRTC 260300Z AUTO 03002KT 9999 NCD 17/12 Q1014=
201907260330 METAR LRTC 260330Z AUTO 03002KT 9999 NCD 18/12 Q1014=
201907260400 METAR LRTC 260400Z AUTO 02003KT 9999 NCD 19/13 Q1014=
201907260430 METAR LRTC 260430Z AUTO VRB01KT 9999 NCD 21/13 Q1014=
201907260500 METAR LRTC 260500Z VRB01KT CAVOK 22/13 Q1014 R16/CLRD//=
201907260530 METAR LRTC 260530Z VRB02KT CAVOK 23/12 Q1014=
201907260600 METAR LRTC 260600Z VRB02KT CAVOK 25/12 Q1014=
201907260630 METAR LRTC 260630Z VRB02KT CAVOK 27/12 Q1014=
201907260700 METAR LRTC 260700Z VRB03KT CAVOK 28/11 Q1014=
201907260730 METAR LRTC 260730Z VRB04KT CAVOK 29/11 Q1014=
201907260800 METAR LRTC 260800Z VRB03KT CAVOK 30/10 Q1013=
201907260830 METAR LRTC 260830Z VRB04KT CAVOK 30/10 Q1013=
201907260900 METAR LRTC 260900Z VRB04KT CAVOK 30/09 Q1013=
201907260930 METAR LRTC 260930Z 29007KT CAVOK 31/09 Q1013=
201907261000 METAR LRTC 261000Z 25005KT CAVOK 31/09 Q1012=
201907261030 METAR LRTC 261030Z 25007KT 200V290 CAVOK 31/08 Q1012=
201907261100 METAR LRTC 261100Z 32006KT 290V360 CAVOK 30/10 Q1012=
201907261130 METAR LRTC 261130Z 07004KT CAVOK 30/09 Q1012=
201907261200 METAR LRTC 261200Z 13010KT CAVOK 30/11 Q1012=
201907261230 METAR LRTC 261230Z 13011KT CAVOK 29/12 Q1012=
201907261300 METAR LRTC 261300Z 12011KT CAVOK 29/11 Q1011=
201907261330 METAR LRTC 261330Z 12011KT CAVOK 29/11 Q1011=
201907261400 METAR LRTC 261400Z 11014KT CAVOK 29/11 Q1011=
201907261430 METAR LRTC 261430Z 12013KT CAVOK 29/12 Q1011=
201907261500 METAR LRTC 261500Z 14013KT CAVOK 29/11 Q1010=
201907261530 METAR LRTC 261530Z 15012KT 9999 FEW050TCU 29/11 Q1011=
201907261600 METAR LRTC 261600Z 15010KT 9999 FEW050TCU 28/11 Q1010=
201907261630 METAR LRTC 261630Z 15011KT 9999 FEW050TCU 28/12 Q1010=
201907261700 METAR LRTC 261700Z AUTO 17010KT 9999 FEW120/// 26/14 Q1010=
201907261730 METAR LRTC 261730Z AUTO 16007KT 9999 NCD 26/14 Q1010=
201907261800 METAR LRTC 261800Z AUTO 15007KT 9999 NCD 25/16 Q1010=
201907261830 METAR LRTC 261830Z AUTO 14006KT 9999 NCD 24/16 Q1011=
201907261900 METAR LRTC 261900Z AUTO 14006KT 9999 NCD 24/16 Q1010=
201907261930 METAR LRTC 261930Z AUTO 17004KT 130V190 9999 SCT120/// 23/16
                        Q1010=
201907262000 METAR LRTC 262000Z AUTO 14005KT 9999 FEW120/// 23/16 Q1010=
201907262030 METAR LRTC 262030Z AUTO 16004KT 9999 NCD 23/16 Q1010=
201907262100 METAR LRTC 262100Z AUTO 14004KT 9999 NCD 23/15 Q1010=
201907262130 METAR LRTC 262130Z AUTO 14004KT 9999 NCD 22/16 Q1010=
201907262200 METAR LRTC 262200Z AUTO 15004KT 9999 NCD 22/16 Q1010=
201907262230 METAR LRTC 262230Z AUTO 14005KT 100V160 9999 NCD 22/15 Q1010=
201907262300 METAR LRTC 262300Z AUTO 14004KT 100V180 8000 NCD 22/15 Q1009=
201907262330 METAR LRTC 262330Z AUTO 12005KT 090V150 9999 NCD 20/14 Q1009=
201907270000 METAR LRTC 270000Z AUTO VRB01KT 9999 NCD 21/14 Q1009=
201907270030 METAR LRTC 270030Z AUTO 17003KT 9999 NCD 21/13 Q1009=
201907270100 METAR LRTC 270100Z AUTO 17003KT 9999 NCD 21/13 Q1009=
201907270130 METAR LRTC 270130Z AUTO 17003KT 9999 NCD 21/13 Q1009=
201907270200 METAR LRTC 270200Z AUTO 20003KT 180V240 9999 NCD 21/12 Q1008=
201907270230 METAR LRTC 270230Z AUTO 13002KT 090V170 9999 SCT130/// 20/12
                        Q1008=
201907270300 METAR LRTC 270300Z AUTO VRB01KT 9999 FEW130/// 21/12 Q1008=
201907270330 METAR LRTC 270330Z AUTO 03002KT 9999 FEW130/// 21/12 Q1009=
201907270400 METAR LRTC 270400Z AUTO VRB01KT 9999 BKN075/// 23/12 Q1009=
201907270430 METAR LRTC 270430Z AUTO 13002KT 100V170 9999 NCD 23/12 Q1009=
201907270500 METAR LRTC 270500Z 18003KT 150V240 CAVOK 24/12 Q1009=
201907270530 METAR LRTC 270530Z 16003KT 120V220 CAVOK 26/13 Q1009=
201907270600 METAR LRTC 270600Z 17004KT 110V220 CAVOK 27/13 Q1009=
201907270630 METAR LRTC 270630Z 18005KT 140V260 CAVOK 28/11 Q1009=
201907270700 METAR LRTC 270700Z 16007KT 130V190 CAVOK 29/10 Q1009=
201907270730 METAR LRTC 270730Z 17006KT 140V230 CAVOK 30/12 Q1009=
201907270800 METAR LRTC 270800Z 17007KT 140V200 CAVOK 30/10 Q1009=
201907270830 METAR LRTC 270830Z 15009KT 110V210 CAVOK 31/11 Q1009=
201907270900 METAR LRTC 270900Z 16010KT 120V200 CAVOK 31/11 Q1009 R16/CLRD//=
201907270930 METAR LRTC 270930Z 15009KT 100V190 CAVOK 32/13 Q1009=
201907271000 METAR LRTC 271000Z 14012KT 100V180 CAVOK 32/13 Q1009=
201907271030 METAR LRTC 271030Z 14013KT 100V170 CAVOK 32/14 Q1009=
201907271100 METAR LRTC 271100Z 14015KT 100V170 CAVOK 31/14 Q1009=
201907271130 METAR LRTC 271130Z 14015KT CAVOK 31/13 Q1009=
201907271200 METAR LRTC 271200Z 13017KT 090V160 CAVOK 31/15 Q1009=
201907271230 METAR LRTC 271230Z 14016KT CAVOK 31/13 Q1009=
201907271300 METAR LRTC 271300Z 14016KT 100V170 CAVOK 31/12 Q1009=
201907271330 METAR LRTC 271330Z 14015KT CAVOK 31/13 Q1009=
201907271400 METAR LRTC 271400Z 13015KT CAVOK 30/13 Q1009=
201907271430 METAR LRTC 271430Z 13015KT 110V180 CAVOK 30/13 Q1009=
201907271500 METAR LRTC 271500Z 15013KT 130V190 CAVOK 29/12 Q1008=
201907271530 METAR LRTC 271530Z 16013KT CAVOK 29/14 Q1008=
201907271600 METAR LRTC 271600Z 15012KT 120V180 CAVOK 28/14 Q1008=
201907271630 METAR LRTC 271630Z 16011KT 130V190 CAVOK 27/14 Q1008=
201907271700 METAR LRTC 271700Z AUTO 15008KT 9999 NCD 26/15 Q1009=
201907271730 METAR LRTC 271730Z AUTO 15006KT 9999 NCD 25/15 Q1009=
201907271800 METAR LRTC 271800Z AUTO 14007KT 9999 NCD 24/16 Q1009=
201907271830 METAR LRTC 271830Z AUTO 14008KT 9999 NCD 24/17 Q1009=
201907271900 METAR LRTC 271900Z AUTO 14007KT 9999 NCD 23/17 Q1009=
201907271930 METAR LRTC 271930Z AUTO 14005KT 9999 NCD 22/17 Q1009=
201907272000 METAR LRTC 272000Z AUTO 14003KT 9999 NCD 22/17 Q1009=
201907272030 METAR LRTC 272030Z AUTO 15003KT 110V220 9999 NCD 21/18 Q1009=
201907272100 METAR LRTC 272100Z AUTO 21002KT 160V250 9999 NCD 22/18 Q1009=
201907272130 METAR LRTC 272130Z AUTO 16004KT 9999 NCD 21/18 Q1009=
201907272200 METAR LRTC 272200Z AUTO 19003KT 9999 NCD 21/17 Q1009=
201907272230 METAR LRTC 272230Z AUTO 17004KT 9999 NCD 20/17 Q1009=
201907272300 METAR LRTC 272300Z AUTO 16004KT 9999 NCD 20/17 Q1009=
201907272330 METAR LRTC 272330Z AUTO 15003KT 9999 NCD 19/17 Q1009=
201907280000 METAR LRTC 280000Z AUTO 19003KT 9999 NCD 20/17 Q1009=
201907280030 METAR LRTC 280030Z AUTO VRB01KT 9999 NCD 20/18 Q1009=
201907280100 METAR LRTC 280100Z AUTO 25003KT 9999 NCD 19/18 Q1009=
201907280130 METAR LRTC 280130Z AUTO 32003KT 9999 NCD 18/16 Q1009=
201907280200 METAR LRTC 280200Z AUTO 01003KT 9000 NCD 18/16 Q1009=
201907280230 METAR LRTC 280230Z AUTO 34005KT 9999 NCD 17/16 Q1009=
201907280300 METAR LRTC 280300Z AUTO 35004KT 8000 NCD 18/17 Q1010=
201907280330 METAR LRTC 280330Z AUTO 01005KT 9999 NCD 19/17 Q1010=
201907280400 METAR LRTC 280400Z AUTO VRB01KT 9999 NCD 21/19 Q1010=
201907280430 METAR LRTC 280430Z AUTO VRB01KT 9999 NCD 21/17 Q1010=
201907280500 METAR LRTC 280500Z VRB01KT CAVOK 23/18 Q1010=
201907280530 METAR LRTC 280530Z VRB01KT CAVOK 24/18 Q1010=
201907280600 METAR LRTC 280600Z VRB02KT CAVOK 26/18 Q1010=
201907280630 METAR LRTC 280630Z 20004KT 150V290 CAVOK 26/18 Q1010=
201907280700 METAR LRTC 280700Z 17005KT 090V200 CAVOK 27/16 Q1010=
201907280730 METAR LRTC 280730Z 16006KT 130V200 CAVOK 28/15 Q1010=
201907280800 METAR LRTC 280800Z 15007KT 100V200 CAVOK 29/15 Q1010=
201907280830 METAR LRTC 280830Z 15008KT 120V180 CAVOK 30/16 Q1010=
201907280900 METAR LRTC 280900Z 16007KT 120V220 CAVOK 30/14 Q1010=
201907280930 METAR LRTC 280930Z 14008KT 090V180 CAVOK 31/12 Q1009=
201907281000 METAR LRTC 281000Z 14010KT 120V180 CAVOK 31/11 Q1009=
201907281030 METAR LRTC 281030Z 14011KT 100V180 CAVOK 31/11 Q1009=
201907281100 METAR LRTC 281100Z 14012KT 110V180 CAVOK 31/11 Q1009=
201907281130 METAR LRTC 281130Z 14013KT 100V170 CAVOK 32/11 Q1009=
201907281200 METAR LRTC 281200Z 14014KT 110V170 CAVOK 31/11 Q1009=
201907281230 METAR LRTC 281230Z 14014KT 110V180 CAVOK 31/13 Q1009=
201907281300 METAR LRTC 281300Z 14015KT 110V170 CAVOK 30/14 Q1009=
201907281330 METAR LRTC 281330Z 14014KT 100V170 CAVOK 30/14 Q1008=
201907281400 METAR LRTC 281400Z 14013KT 110V170 CAVOK 30/15 Q1008=
201907281430 METAR LRTC 281430Z 13013KT 100V160 CAVOK 30/15 Q1008=
201907281500 METAR LRTC 281500Z 14011KT 110V170 CAVOK 30/15 Q1008=
201907281530 METAR LRTC 281530Z 14012KT CAVOK 29/16 Q1008=
201907281600 METAR LRTC 281600Z 14011KT 120V180 CAVOK 29/15 Q1007=
201907281630 METAR LRTC 281630Z 16010KT CAVOK 28/13 Q1007=
201907281700 METAR LRTC 281700Z AUTO 15009KT 9999 NCD 27/14 Q1007=
201907281730 METAR LRTC 281730Z AUTO 14008KT 9999 NCD 26/17 Q1007=
201907281800 METAR LRTC 281800Z AUTO 14008KT 9999 NCD 25/18 Q1008=
201907281830 METAR LRTC 281830Z AUTO 19004KT 160V230 9999 NCD 24/17 Q1008=
201907281900 METAR LRTC 281900Z AUTO 13002KT 9999 NCD 24/17 Q1008=
201907281930 METAR LRTC 281930Z AUTO 13001KT 9999 NCD 23/18 Q1008=
201907282000 METAR LRTC 282000Z AUTO 22002KT 9999 NCD 23/18 Q1008=
201907282030 METAR LRTC 282030Z AUTO 13002KT 100V160 9999 NCD 23/18 Q1008=
201907282100 METAR LRTC 282100Z AUTO 17002KT 9999 NCD 22/18 Q1007=
201907282130 METAR LRTC 282130Z AUTO 17001KT 9999 NCD 22/18 Q1007=
201907282200 METAR LRTC 282200Z AUTO 21001KT 9999 NCD 22/18 Q1007=
201907282230 METAR LRTC 282230Z AUTO 26002KT 9999 NCD 20/17 Q1007=
201907282300 METAR LRTC 282300Z AUTO VRB01KT 9999 NCD 19/16 Q1006=
201907282330 METAR LRTC 282330Z AUTO 04001KT 9000 NCD 20/17 Q1006=
201907290000 METAR LRTC 290000Z AUTO 00000KT 9999 NCD 20/17 Q1006=
201907290030 METAR LRTC 290030Z AUTO 11001KT 9999 NCD 19/17 Q1006=
201907290100 METAR LRTC 290100Z AUTO 26001KT 9999 NCD 19/17 Q1006=
201907290130 METAR LRTC 290130Z AUTO 24002KT 9999 NCD 19/15 Q1006=
201907290200 METAR LRTC 290200Z AUTO 26004KT 9999 NCD 18/15 Q1006=
201907290230 METAR LRTC 290230Z AUTO 24003KT 9999 FEW210/// 18/15 Q1006=
201907290300 METAR LRTC 290300Z AUTO 20002KT 9999 FEW210/// 18/14 Q1006=
201907290330 METAR LRTC 290330Z AUTO 06002KT 9999 NCD 17/14 Q1006=
201907290400 METAR LRTC 290400Z AUTO 04002KT 9999 NCD 19/15 Q1006=
201907290430 METAR LRTC 290430Z AUTO VRB01KT 9999 NCD 21/16 Q1006=
201907290500 METAR LRTC 290500Z VRB01KT CAVOK 23/17 Q1006 R16/CLRD//=
201907290530 METAR LRTC 290530Z VRB01KT CAVOK 25/17 Q1006=
201907290600 METAR LRTC 290600Z VRB02KT CAVOK 27/18 Q1005=
201907290630 METAR LRTC 290630Z VRB03KT CAVOK 28/15 Q1005=
201907290700 METAR LRTC 290700Z VRB03KT CAVOK 28/16 Q1005=
201907290730 METAR LRTC 290730Z 17005KT 120V200 CAVOK 29/12 Q1005=
201907290800 METAR LRTC 290800Z 16006KT 110V200 CAVOK 30/10 Q1005=
201907290830 METAR LRTC 290830Z 14008KT 110V180 CAVOK 30/11 Q1005=
201907290900 METAR LRTC 290900Z 16007KT 120V190 CAVOK 30/11 Q1005=
201907290930 METAR LRTC 290930Z 14007KT 100V180 9999 FEW050CB 31/12 Q1005=
201907291000 METAR LRTC 291000Z 14007KT 090V190 9999 FEW050CB 30/13 Q1005=
201907291030 METAR LRTC 291030Z 14007KT 9999 SCT050CB 29/12 Q1005=
201907291100 METAR LRTC 291100Z 16007KT 140V210 9999 SCT050CB 29/13 Q1005=
201907291130 METAR LRTC 291130Z 16007KT 130V200 9999 FEW050CB 29/12 Q1005=
201907291200 METAR LRTC 291200Z 18008KT 150V210 CAVOK 29/13 Q1005=
201907291230 METAR LRTC 291230Z 17005KT 120V220 9999 FEW050CB 29/13 Q1005=
201907291300 METAR LRTC 291300Z 18004KT 140V230 9999 FEW050CB 29/13 Q1005=
201907291330 METAR LRTC 291330Z 18004KT 140V230 9999 -SHRA SCT045CB 28/15
                        Q1005=
201907291400 METAR LRTC 291400Z 26014KT 9999 SCT040CB 25/18 Q1005=
201907291430 METAR LRTC 291430Z 27010KT 240V300 9999 FEW040CB 24/19 Q1005=
201907291500 METAR LRTC 291500Z 26009KT 9999 -SHRA SCT040CB 23/19 Q1005=
201907291530 METAR LRTC 291530Z 30006KT 9999 FEW040CB 23/20 Q1004=
201907291600 METAR LRTC 291600Z 34004KT 290V010 CAVOK 24/20 Q1004=
201907291630 METAR LRTC 291630Z VRB01KT CAVOK 25/20 Q1004=
201907291700 METAR LRTC 291700Z AUTO VRB01KT 9999 SCT100/// BKN170///
                        24/20 Q1004=
201907291730 METAR LRTC 291730Z AUTO 31003KT 240V360 9999 BKN110/// BKN160///
                        24/19 Q1004=
201907291800 METAR LRTC 291800Z AUTO 33003KT 9999 OVC150/// 23/19 Q1004=
201907291830 METAR LRTC 291830Z AUTO 25002KT 200V310 9999 BKN150/// 23/19
                        Q1005=
201907291900 METAR LRTC 291900Z AUTO VRB01KT 9999 BKN160/// 23/18 Q1005=
201907291930 METAR LRTC 291930Z AUTO 23003KT 9999 BKN160/// 22/18 Q1005=
201907292000 METAR LRTC 292000Z AUTO 27002KT 200V320 9999 BKN160/// 22/18
                        Q1005=
201907292030 METAR LRTC 292030Z AUTO 28003KT 9999 BKN160/// 21/18 Q1005=
201907292100 METAR LRTC 292100Z AUTO 21002KT 180V240 9999 BKN160/// 21/18
                        Q1005=
201907292130 METAR LRTC 292130Z AUTO 26002KT 230V290 9000 FEW160/// 21/18
                        Q1005=
201907292200 METAR LRTC 292200Z AUTO 25003KT 9999 NCD 20/17 Q1005=
201907292230 METAR LRTC 292230Z AUTO 25004KT 9999 FEW170/// 20/16 Q1005=
201907292300 METAR LRTC 292300Z AUTO 01002KT 280V040 9000 BKN180/// 19/16
                        Q1005=
201907292330 METAR LRTC 292330Z AUTO 04003KT 360V080 9000 BKN180/// 19/17
                        Q1005=
201907300000 METAR LRTC 300000Z AUTO 20003KT 8000 BKN190/// 18/17 Q1005=
201907300030 METAR LRTC 300030Z AUTO 24002KT 9999 BKN190/// 19/16 Q1005=
201907300100 METAR LRTC 300100Z AUTO 24004KT 9000 BKN190/// 19/16 Q1005=
201907300130 METAR LRTC 300130Z AUTO VRB01KT 7000 BKN190/// 19/17 Q1004=
201907300200 METAR LRTC 300200Z AUTO 01003KT 9000 OVC190/// 19/16 Q1004=
201907300230 METAR LRTC 300230Z AUTO 06001KT 8000 BKN190/// 18/17 Q1005=
201907300300 METAR LRTC 300300Z AUTO 34002KT 8000 FEW070/// SCT200///
                        18/16 Q1005=
201907300330 METAR LRTC 300330Z AUTO 23002KT 9999 FEW065/// BKN190///
                        19/16 Q1005=
201907300400 METAR LRTC 300400Z AUTO 05002KT 310V090 8000 FEW065/// BKN190///
                        19/17 Q1005=
201907300430 METAR LRTC 300430Z AUTO 14002KT 100V190 8000 BKN190/// 20/17
                        Q1005=
201907300500 METAR LRTC 300500Z VRB02KT CAVOK 21/17 Q1005=
201907300530 METAR LRTC 300530Z VRB01KT CAVOK 23/17 Q1005 R16/CLRD//=
201907300600 METAR LRTC 300600Z VRB01KT CAVOK 25/16 Q1005=
201907300630 METAR LRTC 300630Z 31008KT 240V010 CAVOK 28/14 Q1005=
201907300700 METAR LRTC 300700Z 32011KT 270V340 CAVOK 29/12 Q1005=
201907300730 METAR LRTC 300730Z 32011KT 280V350 CAVOK 29/11 Q1005=
201907300800 METAR LRTC 300800Z 32012KT 280V360 CAVOK 29/11 Q1005=
201907300830 METAR LRTC 300830Z 33010KT 230V020 CAVOK 30/11 Q1005=
201907300900 METAR LRTC 300900Z 30010KT 260V330 CAVOK 31/11 Q1005=
201907300930 METAR LRTC 300930Z 35012KT 320V020 CAVOK 31/11 Q1005=
201907301000 METAR LRTC 301000Z 33010KT 300V020 CAVOK 31/12 Q1005=
201907301030 METAR LRTC 301030Z 32010KT CAVOK 31/12 Q1005=
201907301100 METAR LRTC 301100Z VRB07KT CAVOK 31/12 Q1005=
201907301130 METAR LRTC 301130Z 32006KT 240V050 CAVOK 32/11 Q1005=
201907301200 METAR LRTC 301200Z 33007KT 290V040 CAVOK 32/10 Q1005=
201907301230 METAR LRTC 301230Z 35007KT 290V040 CAVOK 33/09 Q1005=
201907301300 METAR LRTC 301300Z 31006KT 250V020 CAVOK 32/10 Q1004=
201907301330 METAR LRTC 301330Z 30008KT 260V340 CAVOK 33/09 Q1004=
201907301400 METAR LRTC 301400Z VRB05KT 9999 FEW060CB 32/10 Q1004=
201907301430 METAR LRTC 301430Z 26005KT 210V290 9999 FEW060CB 33/09 Q1004=
201907301500 METAR LRTC 301500Z 25014KT 9999 FEW055CB 33/11 Q1004=
201907301530 METAR LRTC 301530Z VRB07KT 9999 FEW055CB 32/12 Q1004=
201907301600 METAR LRTC 301600Z 36012KT 9999 FEW050CB 30/14 Q1004=
201907301630 METAR LRTC 301630Z 36008KT CAVOK 30/14 Q1004=
201907301700 METAR LRTC 301700Z AUTO 36005KT 320V030 9999 NCD 29/15 Q1004=
201907301730 METAR LRTC 301730Z AUTO 35003KT 9999 NCD 27/15 Q1005=
201907301800 METAR LRTC 301800Z AUTO 29002KT 260V320 9999 NCD 28/14 Q1005=
201907301830 METAR LRTC 301830Z AUTO 30003KT 9999 NCD 28/14 Q1005=
201907301900 METAR LRTC 301900Z AUTO 32004KT 9999 NCD 26/15 Q1006=
201907301930 METAR LRTC 301930Z AUTO VRB01KT 9999 NCD 25/14 Q1006=
201907302000 METAR LRTC 302000Z AUTO 25002KT 220V280 9999 NCD 25/15 Q1006=
201907302030 METAR LRTC 302030Z AUTO 27002KT 240V300 9999 NCD 25/15 Q1006=
201907302100 METAR LRTC 302100Z AUTO VRB01KT 9999 NCD 23/14 Q1006=
201907302130 METAR LRTC 302130Z AUTO 19002KT 9999 NCD 22/14 Q1006=
201907302200 METAR LRTC 302200Z AUTO 22003KT 9999 NCD 23/14 Q1006=
201907302230 METAR LRTC 302230Z AUTO VRB02KT 9999 NCD 22/14 Q1006=
201907302300 METAR LRTC 302300Z AUTO VRB01KT 9999 NCD 22/14 Q1006=
201907302330 METAR LRTC 302330Z AUTO 15002KT 9999 NCD 22/14 Q1006=
201907310000 METAR LRTC 310000Z AUTO VRB01KT 9999 NCD 22/14 Q1006=
201907310030 METAR LRTC 310030Z AUTO VRB02KT 9999 NCD 24/15 Q1006=
201907310100 METAR LRTC 310100Z AUTO 25006KT 200V300 9999 NCD 24/15 Q1006=
201907310130 METAR LRTC 310130Z AUTO 13002KT 080V250 9999 NCD 23/15 Q1005=
201907310200 METAR LRTC 310200Z AUTO VRB02KT 9999 NCD 23/15 Q1005=
201907310230 METAR LRTC 310230Z AUTO 27005KT 9999 NCD 23/15 Q1005=
201907310300 METAR LRTC 310300Z AUTO VRB02KT 9999 NCD 22/15 Q1006=
201907310330 METAR LRTC 310330Z AUTO 26002KT 210V300 9000 NCD 22/15 Q1006=
201907310400 METAR LRTC 310400Z AUTO 25002KT 220V280 9999 NCD 23/16 Q1006=
201907310430 METAR LRTC 310430Z AUTO 25002KT 210V300 9999 NCD 24/16 Q1006=
201907310500 METAR LRTC 310500Z VRB02KT CAVOK 26/15 Q1006 R16/CLRD//=
201907310530 METAR LRTC 310530Z 32010KT CAVOK 28/15 Q1007=
201907310600 METAR LRTC 310600Z 32012KT CAVOK 29/15 Q1007=
201907310630 METAR LRTC 310630Z 34013KT 310V010 CAVOK 30/15 Q1007=
201907310700 METAR LRTC 310700Z 34012KT 310V020 CAVOK 30/15 Q1007=
201907310730 METAR LRTC 310730Z 35014KT 320V020 CAVOK 30/16 Q1007=
201907310800 METAR LRTC 310800Z 35011KT 320V030 CAVOK 30/16 Q1008=
201907310830 METAR LRTC 310830Z 35011KT 320V030 CAVOK 31/15 Q1008=
201907310900 METAR LRTC 310900Z 35014KT 320V030 CAVOK 32/15 Q1008=
201907310930 METAR LRTC 310930Z 35012KT 310V030 CAVOK 32/14 Q1008=
201907311000 METAR LRTC 311000Z 34013KT 310V040 CAVOK 32/15 Q1008=
201907311030 METAR LRTC 311030Z 36011KT 310V040 CAVOK 33/15 Q1007=
201907311100 METAR LRTC 311100Z 36013KT 310V040 CAVOK 34/15 Q1007=
201907311130 METAR LRTC 311130Z 35014KT 320V020 CAVOK 34/14 Q1007=
201907311200 METAR LRTC 311200Z 35012KT 290V040 CAVOK 33/13 Q1007=
201907311230 METAR LRTC 311230Z 35013KT 320V020 CAVOK 34/13 Q1007=
201907311300 METAR LRTC 311300Z 35011KT 310V030 CAVOK 34/13 Q1007=
201907311330 METAR LRTC 311330Z 36012KT 330V030 CAVOK 34/13 Q1007=
201907311400 METAR LRTC 311400Z 34012KT 310V010 CAVOK 34/12 Q1007=
201907311430 METAR LRTC 311430Z 35010KT 320V030 CAVOK 33/11 Q1007=
201907311500 METAR LRTC 311500Z 34009KT 310V020 CAVOK 33/12 Q1007=
201907311530 METAR LRTC 311530Z 35011KT 320V020 CAVOK 33/12 Q1007=
201907311600 METAR LRTC 311600Z 35010KT 320V020 9999 FEW060TCU 32/12 Q1008=
201907311630 METAR LRTC 311630Z 34011KT CAVOK 31/13 Q1008=
201907311700 METAR LRTC 311700Z AUTO 34008KT 320V020 9999 NCD 30/14 Q1008=
201907311730 METAR LRTC 311730Z AUTO 34012KT 9999 SCT140/// 29/15 Q1009=
201907311800 METAR LRTC 311800Z AUTO 35009KT 9999 SCT140/// 29/14 Q1009=
201907311830 METAR LRTC 311830Z AUTO 35006KT 9999 FEW140/// 27/16 Q1009=
201907311900 METAR LRTC 311900Z AUTO 35008KT 9999 FEW150/// 27/17 Q1009=
201907311930 METAR LRTC 311930Z AUTO 36008KT 9999 NCD 27/17 Q1009=
201907312000 METAR LRTC 312000Z AUTO 01008KT 9999 NCD 26/17 Q1009=
201907312030 METAR LRTC 312030Z AUTO 36008KT 9999 SCT140/// 26/16 Q1010=
201907312100 METAR LRTC 312100Z AUTO 35007KT 9999 FEW150/// 25/16 Q1010=
201907312130 METAR LRTC 312130Z AUTO 34009KT 9999 FEW070/// SCT110///
                        BKN150/// 26/16 Q1010=
201907312200 METAR LRTC 312200Z AUTO 34009KT 9999 FEW075/// OVC150///
                        26/16 Q1010=
201907312230 METAR LRTC 312230Z AUTO 34009KT 9999 FEW100/// BKN150///
                        26/16 Q1010=
201907312300 METAR LRTC 312300Z AUTO 35009KT 9999 OVC150/// 26/16 Q1010=
201907312330 METAR LRTC 312330Z AUTO 35007KT 9999 FEW110/// BKN150///
                        25/16 Q1010=
