201908010200 TAF LRTC 010200Z NIL=
201908010500 TAF LRTC 010500Z 0106/0115 35008KT CAVOK
                      TEMPO 0108/0112 VRB18KT 5000 -TSRA SCT040CB
                       BKN045=
201908010800 TAF LRTC 010800Z 0109/0118 35007KT CAVOK
                      TEMPO 0110/0113 VRB18KT 5000 -TSRA SCT040CB=
201908011100 TAF LRTC 011100Z 0112/0121 VRB04KT CAVOK
                      TEMPO 0112/0117 SCT040CB
                      PROB30 TEMPO 0113/0116 VRB18KT 5000 -TSRA=
201908011400 TAF LRTC 011400Z 0115/0124 31016KT 9999 FEW045CB
                      BECMG 0115/0117 NSC
                      BECMG 0118/0120 VRB04KT=
201908011700 TAF LRTC 011700Z NIL=
201908012000 TAF LRTC 012000Z NIL=
201908012300 TAF LRTC 012300Z NIL=
201908020200 TAF LRTC 020200Z NIL=
201908020500 TAF LRTC 020500Z 0206/0215 31006KT CAVOK=
201908020800 TAF LRTC 020800Z 0209/0218 31007KT CAVOK
                      TEMPO 0212/0217 FEW045CB=
201908021100 TAF LRTC 021100Z 0212/0221 31007KT CAVOK
                      TEMPO 0212/0217 FEW045CB=
201908021400 TAF LRTC 021400Z 0215/0224 34007KT CAVOK
                      TEMPO 0215/0217 FEW045CB=
201908021700 TAF LRTC 021700Z NIL=
201908022000 TAF LRTC 022000Z NIL=
201908022300 TAF LRTC 022300Z NIL=
201908030200 TAF LRTC 030200Z NIL=
201908030500 TAF LRTC 030500Z 0306/0315 VRB03KT CAVOK
                      TEMPO 0306/0311 3000 TSRA BKN010 SCT035CB
                       BECMG 0313/0315 24010KT=
201908030800 TAF LRTC 030800Z 0309/0318 17008KT CAVOK
                      PROB30 TEMPO 0309/0313 3000 TSRA BKN010 SCT035CB
                       BECMG 0315/0317 24010KT=
201908031100 TAF LRTC 031100Z 0312/0321 14008KT CAVOK
                      PROB30 TEMPO 0312/0315 3000 TSRA BKN010 SCT035CB
                       BECMG 0315/0317 24010KT=
201908031400 TAF LRTC 031400Z 0315/0324 13010KT CAVOK
                      PROB30 TEMPO 0315/0317 3000 TSRA BKN010 BKN035CB
                       BECMG 0317/0319 24010KT=
201908031700 TAF LRTC 031700Z NIL=
201908032000 TAF LRTC 032000Z NIL=
201908032300 TAF LRTC 032300Z NIL=
201908040200 TAF LRTC 040200Z NIL=
201908040500 TAF LRTC 040500Z 0406/0415 34018KT CAVOK
                      TEMPO 0412/0415 SCT035CB
                      PROB30 0412/0415 VRB20G30KT 3000 TSRA BKN010
                       BKN030CB=
201908040800 TAF LRTC 040800Z 0409/0418 32014KT CAVOK
                      TEMPO 0412/0416 SCT035CB
                      PROB30 0412/0415 VRB15G25KT 3000 TSRA BKN010
                       BKN030CB=
201908041100 TAF LRTC 041100Z 0412/0421 32018KT CAVOK
                      TEMPO 0412/0416 VRB20G30KT 3000 TSRA BKN010
                       BKN030CB=
201908041400 TAF LRTC 041400Z 0415/0424 34010KT CAVOK
                      PROB30 TEMPO 0415/0417 34015G25KT=
201908041700 TAF LRTC 041700Z NIL=
201908042000 TAF LRTC 042000Z NIL=
201908042300 TAF LRTC 042300Z NIL=
201908050200 TAF LRTC 050200Z NIL=
201908050500 TAF LRTC 050500Z 0506/0515 VRB03KT CAVOK
                      BECMG 0507/0509 32010KT=
201908050800 TAF LRTC 050800Z 0509/0518 32008KT CAVOK=
201908051100 TAF LRTC 051100Z 0512/0521 28010KT 9999 SCT040
                      TEMPO 0512/0517 SCT040CB=
201908051400 TAF LRTC 051400Z 0515/0524 31007KT 9999 SCT040
                      TEMPO 0515/0517 SCT040CB=
201908051700 TAF LRTC 051700Z NIL=
201908052000 TAF LRTC 052000Z NIL=
201908052300 TAF LRTC 052300Z NIL=
201908060200 TAF LRTC 060200Z NIL=
201908060500 TAF LRTC 060500Z 0606/0615 VRB04KT CAVOK=
201908060800 TAF LRTC 060800Z 0609/0618 VRB04KT CAVOK=
201908061100 TAF LRTC 061100Z 0612/0621 VRB04KT CAVOK=
201908061400 TAF LRTC 061400Z 0615/0624 14010KT CAVOK
                      TEMPO 0615/0617 FEW045CB
                      BECMG 0617/0619 VRB04KT=
201908061700 TAF LRTC 061700Z NIL=
201908062000 TAF LRTC 062000Z NIL=
201908062300 TAF LRTC 062300Z NIL=
201908070200 TAF LRTC 070200Z NIL=
201908070500 TAF LRTC 070500Z 0706/0715 21006KT CAVOK
                      BECMG 0712/0714 18016KT=
201908070800 TAF LRTC 070800Z 0709/0718 18006KT CAVOK
                      BECMG 0712/0714 18016KT
                      TEMPO 0714/0717 18016G26KT=
201908071100 TAF LRTC 071100Z 0712/0721 18016KT CAVOK
                      TEMPO 0712/0716 18016G26KT=
201908071400 TAF LRTC 071400Z 0715/0724 16016KT CAVOK=
201908071700 TAF LRTC 071700Z NIL=
201908072000 TAF LRTC 072000Z NIL=
201908072300 TAF LRTC 072300Z NIL=
201908080200 TAF LRTC 080200Z NIL=
201908080500 TAF LRTC 080500Z 0806/0815 18016KT CAVOK=
201908080800 TAF LRTC 080800Z 0809/0818 18016KT CAVOK=
201908081100 TAF LRTC 081100Z 0812/0821 16016KT CAVOK
                      BECMG 0818/0820 16006KT=
201908081400 TAF LRTC 081400Z 0815/0824 16016KT CAVOK
                      BECMG 0818/0820 16006KT=
201908081700 TAF LRTC 081700Z NIL=
201908082000 TAF LRTC 082000Z NIL=
201908082300 TAF LRTC 082300Z NIL=
201908090200 TAF LRTC 090200Z NIL=
201908090500 TAF LRTC 090500Z 0906/0915 VRB04KT CAVOK
                      BECMG 0913/0915 36010KT
                      PROB40 TEMPO 0913/0915 SCT050CB=
201908090800 TAF LRTC 090800Z 0909/0918 VRB04KT CAVOK
                      TEMPO 0911/0915 36010KT
                      PROB40 TEMPO 0912/0918 VRB15G25KT -TSRA SCT050CB=
201908091100 TAF LRTC 091100Z 0912/0921 36007KT CAVOK
                      PROB30 TEMPO 0915/0921 -TSRA SCT050CB=
201908091400 TAF LRTC 091400Z 0915/0924 13008KT CAVOK
                      PROB30 TEMPO 0915/0920 FEW050CB=
201908091700 TAF LRTC 091700Z NIL=
201908092000 TAF LRTC 092000Z NIL=
201908092300 TAF LRTC 092300Z NIL=
201908100200 TAF LRTC 100200Z NIL=
201908100500 TAF LRTC 100500Z 1006/1015 36008KT CAVOK=
201908100800 TAF LRTC 100800Z 1009/1018 02006KT CAVOK=
201908101100 TAF LRTC 101100Z 1012/1021 VRB04KT CAVOK=
201908101400 TAF LRTC 101400Z 1015/1024 VRB04KT CAVOK=
201908101700 TAF LRTC 101700Z NIL=
201908102000 TAF LRTC 102000Z NIL=
201908102300 TAF LRTC 102300Z NIL=
201908110200 TAF LRTC 110200Z NIL=
201908110500 TAF LRTC 110500Z 1106/1115 VRB04KT CAVOK
                      BECMG 1113/1115 17014KT=
201908110800 TAF LRTC 110800Z 1109/1118 VRB04KT CAVOK
                      BECMG 1113/1115 17014KT=
201908111100 TAF LRTC 111100Z 1112/1121 17012KT CAVOK=
201908111400 TAF LRTC 111400Z 1115/1124 17012KT CAVOK
                      BECMG 1122/1124 VRB04KT=
201908111700 TAF LRTC 111700Z NIL=
201908112000 TAF LRTC 112000Z NIL=
201908112300 TAF LRTC 112300Z NIL=
201908120200 TAF LRTC 120200Z NIL=
201908120500 TAF LRTC 120500Z 1206/1215 VRB03KT CAVOK
                      BECMG 1211/1213 15012KT=
201908120800 TAF LRTC 120800Z 1209/1218 VRB03KT CAVOK
                      BECMG 1212/1214 15012KT=
201908121100 TAF LRTC 121100Z 1212/1221 15008KT CAVOK=
201908121400 TAF LRTC 121400Z 1215/1224 15012KT CAVOK
                      BECMG 1218/1220 VRB04KT=
201908121700 TAF LRTC 121700Z NIL=
201908122000 TAF LRTC 122000Z NIL=
201908122300 TAF LRTC 122300Z NIL=
201908130200 TAF LRTC 130200Z NIL=
201908130500 TAF LRTC 130500Z 1306/1315 VRB04KT CAVOK
                      BECMG 1307/1310 14012KT=
201908130800 TAF LRTC 130800Z 1309/1318 14012KT CAVOK=
201908131100 TAF LRTC 131100Z 1312/1321 13012KT CAVOK
                      BECMG 1317/1319 VRB04KT=
201908131400 TAF LRTC 131400Z 1315/1324 14012KT CAVOK
                      BECMG 1317/1319 VRB04KT=
201908131700 TAF LRTC 131700Z NIL=
201908132000 TAF LRTC 132000Z NIL=
201908132300 TAF LRTC 132300Z NIL=
201908140200 TAF LRTC 140200Z NIL=
201908140500 TAF LRTC 140500Z 1406/1415 VRB04KT CAVOK
                      BECMG 1407/1409 14012KT=
201908140800 TAF LRTC 140800Z 1409/1418 VRB04KT CAVOK
                      BECMG 1409/1411 14012KT=
201908141100 TAF LRTC 141100Z 1412/1421 15010KT CAVOK
                      BECMG 1417/1419 VRB04KT=
201908141400 TAF LRTC 141400Z 1415/1424 15010KT CAVOK
                      BECMG 1417/1419 VRB04KT=
201908141700 TAF LRTC 141700Z NIL=
201908142000 TAF LRTC 142000Z NIL=
201908142300 TAF LRTC 142300Z NIL=
201908150200 TAF LRTC 150200Z NIL=
201908150500 TAF LRTC 150500Z 1506/1515 34018KT CAVOK
                      TEMPO 1506/1511 34022G32KT=
201908150800 TAF LRTC 150800Z 1509/1518 34018KT CAVOK
                      TEMPO 1509/1513 34018G28KT=
201908151100 TAF LRTC 151100Z 1512/1521 34015KT CAVOK
                      TEMPO 1512/1515 34015G25KT=
201908151400 TAF LRTC 151400Z 1515/1524 34015KT CAVOK=
201908151700 TAF LRTC 151700Z NIL=
201908152000 TAF LRTC 152000Z NIL=
201908152300 TAF LRTC 152300Z NIL=
201908160200 TAF LRTC 160200Z NIL=
201908160500 TAF LRTC 160500Z 1606/1615 34018KT 9999 SCT045
                      PROB30 TEMPO 1606/1609 5000 -SHRA SCT040CB=
201908160800 TAF LRTC 160800Z 1609/1618 34014KT CAVOK=
201908161100 TAF LRTC 161100Z 1612/1621 34012KT CAVOK
                      BECMG 1617/1619 VRB04KT=
201908161400 TAF LRTC 161400Z 1615/1624 34012KT CAVOK
                      BECMG 1617/1619 VRB04KT=
201908161700 TAF LRTC 161700Z NIL=
201908162000 TAF LRTC 162000Z NIL=
201908162300 TAF LRTC 162300Z NIL=
201908170200 TAF LRTC 170200Z NIL=
201908170500 TAF LRTC 170500Z 1706/1715 35008KT CAVOK=
201908170800 TAF LRTC 170800Z 1709/1718 35012KT CAVOK
                      BECMG 1715/1717 VRB03KT=
201908171100 TAF LRTC 171100Z 1712/1721 34012KT CAVOK
                      BECMG 1715/1717 VRB03KT=
201908171400 TAF LRTC 171400Z 1715/1724 34012KT CAVOK
                      BECMG 1715/1717 VRB03KT=
201908171700 TAF LRTC 171700Z NIL=
201908172000 TAF LRTC 172000Z NIL=
201908172300 TAF LRTC 172300Z NIL=
201908180200 TAF LRTC 180200Z NIL=
201908180500 TAF LRTC 180500Z 1806/1815 35007KT CAVOK=
201908180800 TAF LRTC 180800Z 1809/1818 35008KT CAVOK=
201908181100 TAF LRTC 181100Z 1812/1821 34011KT CAVOK
                      BECMG 1818/1820 VRB04KT=
201908181400 TAF LRTC 181400Z 1815/1824 33010KT CAVOK
                      BECMG 1818/1820 VRB04KT=
201908181700 TAF LRTC 181700Z NIL=
201908182000 TAF LRTC 182000Z NIL=
201908182300 TAF LRTC 182300Z NIL=
201908190200 TAF LRTC 190200Z NIL=
201908190500 TAF LRTC 190500Z 1906/1915 VRB04KT CAVOK=
201908190800 TAF LRTC 190800Z 1909/1918 06010KT CAVOK=
201908191100 TAF LRTC 191100Z 1912/1921 12008KT CAVOK=
201908191400 TAF LRTC 191400Z 1915/1924 14012KT CAVOK
                      BECMG 1916/1918 VRB04KT=
201908191700 TAF LRTC 191700Z NIL=
201908192000 TAF LRTC 192000Z NIL=
201908192300 TAF LRTC 192300Z NIL=
201908200200 TAF LRTC 200200Z NIL=
201908200500 TAF LRTC 200500Z 2006/2015 VRB04KT CAVOK=
201908200800 TAF LRTC 200800Z 2009/2018 04006KT CAVOK=
201908201100 TAF LRTC 201100Z 2012/2021 04006KT CAVOK=
201908201400 TAF LRTC 201400Z 2015/2024 14008KT CAVOK=
201908201700 TAF LRTC 201700Z NIL=
201908202000 TAF LRTC 202000Z NIL=
201908202300 TAF LRTC 202300Z NIL=
201908210200 TAF LRTC 210200Z NIL=
201908210500 TAF LRTC 210500Z 2106/2115 36012KT CAVOK
                      BECMG 2111/2113 07012KT=
201908210800 TAF LRTC 210800Z 2109/2118 36012KT CAVOK
                      BECMG 2111/2113 07012KT=
201908211100 TAF LRTC 211100Z 2112/2121 06012KT CAVOK
                      BECMG 2118/2120 VRB04KT=
201908211400 TAF LRTC 211400Z 2115/2124 02008KT CAVOK=
201908211700 TAF LRTC 211700Z NIL=
201908212000 TAF LRTC 212000Z NIL=
201908212300 TAF LRTC 212300Z NIL=
201908220200 TAF LRTC 220200Z NIL=
201908220500 TAF LRTC 220500Z 2206/2215 34012KT CAVOK
                      TEMPO 2209/2215 01016G26KT=
201908220800 TAF LRTC 220800Z 2209/2218 34016KT CAVOK
                      TEMPO 2209/2216 01018G28KT=
201908221100 TAF LRTC 221100Z 2212/2221 34016KT CAVOK
                      TEMPO 2212/2216 01018G28KT=
201908221400 TAF LRTC 221400Z 2215/2224 34020KT CAVOK
                      BECMG 2218/2220 01010KT=
201908221700 TAF LRTC 221700Z NIL=
201908222000 TAF LRTC 222000Z NIL=
201908222300 TAF LRTC 222300Z NIL=
201908230200 TAF LRTC 230200Z NIL=
201908230500 TAF LRTC 230500Z 2306/2315 32020KT CAVOK
                      BECMG 2309/2311 02018KT=
201908230800 TAF LRTC 230800Z 2309/2318 01016KT CAVOK=
201908231100 TAF LRTC 231100Z 2312/2321 36015KT CAVOK=
201908231400 TAF LRTC 231400Z 2315/2324 02014KT CAVOK=
201908231700 TAF LRTC 231700Z NIL=
201908232000 TAF LRTC 232000Z NIL=
201908232300 TAF LRTC 232300Z NIL=
201908240200 TAF LRTC 240200Z NIL=
201908240500 TAF LRTC 240500Z 2406/2415 35012KT CAVOK=
201908240800 TAF LRTC 240800Z 2409/2418 35014KT CAVOK=
201908241100 TAF LRTC 241100Z 2412/2421 03012KT CAVOK=
201908241400 TAF LRTC 241400Z 2415/2424 08012KT CAVOK=
201908241700 TAF LRTC 241700Z NIL=
201908242000 TAF LRTC 242000Z NIL=
201908242300 TAF LRTC 242300Z NIL=
201908250200 TAF LRTC 250200Z NIL=
201908250500 TAF LRTC 250500Z 2506/2515 36012KT CAVOK
                      BECMG 2506/2508 06014KT
                      PROB30 TEMPO 2512/2515 5000 -TSRA SCT040CB=
201908250800 TAF LRTC 250800Z 2509/2518 05014KT CAVOK
                      PROB30 TEMPO 2512/2517 5000 -TSRA SCT040CB=
201908251100 TAF LRTC 251100Z 2512/2521 08015KT CAVOK
                      TEMPO 2512/2518 SCT045CB
                      PROB30 TEMPO 2512/2517 5000 -TSRA=
201908251400 TAF LRTC 251400Z 2515/2524 08018KT CAVOK
                      BECMG 2517/2519 04006KT=
201908251700 TAF LRTC 251700Z NIL=
201908252000 TAF LRTC 252000Z NIL=
201908252300 TAF LRTC 252300Z NIL=
201908260200 TAF LRTC 260200Z NIL=
201908260500 TAF LRTC 260500Z 2606/2615 36012KT CAVOK
                      BECMG 2608/2610 08015KT=
201908260800 TAF LRTC 260800Z 2609/2618 07014KT CAVOK
                      BECMG 2616/2618 01006KT=
201908261100 TAF LRTC 261100Z 2612/2621 07016KT CAVOK
                      BECMG 2616/2618 01006KT=
201908261400 TAF LRTC 261400Z 2615/2624 07014KT CAVOK
                      BECMG 2616/2618 01006KT=
201908261700 TAF LRTC 261700Z NIL=
201908262000 TAF LRTC 262000Z NIL=
201908262300 TAF LRTC 262300Z NIL=
201908270200 TAF LRTC 270200Z NIL=
201908270500 TAF LRTC 270500Z 2706/2715 34006KT CAVOK
                      BECMG 2707/2710 06014KT=
201908270800 TAF LRTC 270800Z 2709/2718 06014KT CAVOK
                      BECMG 2716/2718 12006KT=
201908271100 TAF LRTC 271100Z 2712/2721 06014KT CAVOK
                      BECMG 2716/2718 12006KT=
201908271400 TAF LRTC 271400Z 2715/2724 09012KT CAVOK
                      BECMG 2717/2719 VRB04KT=
201908271700 TAF LRTC 271700Z NIL=
201908272000 TAF LRTC 272000Z NIL=
201908272300 TAF LRTC 272300Z NIL=
201908280200 TAF LRTC 280200Z NIL=
201908280500 TAF LRTC 280500Z 2806/2815 VRB04KT CAVOK
                      BECMG 2806/2808 05016KT=
201908280800 TAF LRTC 280800Z 2809/2818 03012KT CAVOK
                      BECMG 2816/2818 13006KT=
201908281100 TAF LRTC 281100Z 2812/2821 05012KT CAVOK
                      BECMG 2816/2818 13006KT=
201908281400 TAF LRTC 281400Z 2815/2824 09010KT CAVOK
                      BECMG 2816/2818 VRB04KT=
201908281700 TAF LRTC 281700Z NIL=
201908282000 TAF LRTC 282000Z NIL=
201908282300 TAF LRTC 282300Z NIL=
201908290200 TAF LRTC 290200Z NIL=
201908290500 TAF LRTC 290500Z 2906/2915 36006KT CAVOK=
201908290800 TAF LRTC 290800Z 2909/2918 06007KT CAVOK=
201908291100 TAF LRTC 291100Z 2912/2921 05006KT CAVOK=
201908291400 TAF LRTC 291400Z 2915/2924 11013KT CAVOK
                      BECMG 2916/2918 VRB03KT=
201908291700 TAF LRTC 291700Z NIL=
201908292000 TAF LRTC 292000Z NIL=
201908292300 TAF LRTC 292300Z NIL=
201908300200 TAF LRTC 300200Z NIL=
201908300500 TAF LRTC 300500Z 3006/3015 VRB04KT CAVOK
                      TEMPO 3011/3015 08010KT=
201908300800 TAF LRTC 300800Z 3009/3018 VRB04KT CAVOK
                      TEMPO 3010/3016 07010KT=
201908301100 TAF LRTC 301100Z 3012/3021 VRB04KT CAVOK
                      TEMPO 3012/3016 07010KT=
201908301400 TAF LRTC 301400Z 3015/3024 07010KT CAVOK
                      BECMG 3016/3018 VRB04KT=
201908301700 TAF LRTC 301700Z NIL=
201908302000 TAF LRTC 302000Z NIL=
201908302300 TAF LRTC 302300Z NIL=
201908310200 TAF LRTC 310200Z NIL=
201908310500 TAF LRTC 310500Z 3106/3115 36010KT CAVOK
                      BECMG 3110/3112 07010KT=
201908310800 TAF LRTC 310800Z 3109/3118 04015KT CAVOK=
201908311100 TAF LRTC 311100Z 3112/3121 04012KT CAVOK
                      BECMG 3117/3119 VRB04KT=
201908311400 TAF LRTC 311400Z 3115/3124 06012KT CAVOK
                      BECMG 3117/3119 VRB04KT=
201908311700 TAF LRTC 311700Z NIL=
201908312000 TAF LRTC 312000Z NIL=
201908312300 TAF LRTC 312300Z NIL=