201910010200 TAF LRTC 010200Z NIL=
201910010500 TAF LRTC 010500Z 0106/0115 36010KT CAVOK
                      BECMG 0113/0115 VRB04KT=
201910010800 TAF LRTC 010800Z 0109/0118 02012KT CAVOK
                      BECMG 0113/0115 16007KT=
201910011100 TAF LRTC 011100Z 0112/0121 01008KT CAVOK
                      BECMG 0113/0115 16010KT=
201910011400 TAF LRTC 011400Z 0115/0124 VRB04KT CAVOK
                      TEMPO 0115/0118 17010KT=
201910011700 TAF LRTC 011700Z NIL=
201910012000 TAF LRTC 012000Z NIL=
201910012300 TAF LRTC 012300Z NIL=
201910020200 TAF LRTC 020200Z NIL=
201910020500 TAF LRTC 020500Z 0206/0215 14008KT CAVOK
                      BECMG 0206/0208 16018KT=
201910020800 TAF LRTC 020800Z 0209/0218 16016KT CAVOK=
201910021100 TAF LRTC 021100Z 0212/0221 16018KT CAVOK
                      BECMG 0218/0220 16008KT=
201910021400 TAF LRTC 021400Z 0215/0224 13014KT CAVOK=
201910021700 TAF LRTC 021700Z NIL=
201910022000 TAF LRTC 022000Z NIL=
201910022300 TAF LRTC 022300Z NIL=
201910030200 TAF LRTC 030200Z NIL=
201910030500 TAF LRTC 030500Z 0306/0315 VRB04KT 9999 BKN010
                      BECMG 0307/0309 14012KT BKN030
                      TEMPO 0310/0315 16015G25KT=
201910030800 TAF LRTC 030800Z 0309/0318 16012KT 9999 BKN010
                      TEMPO 0310/0315 18015G25KT=
201910031100 TAF LRTC 031100Z 0312/0321 16012KT 9999 SCT025
                      TEMPO 0312/0316 18015G25KT=
201910031400 TAF LRTC 031400Z 0315/0324 16012KT 9999 SCT025
                      TEMPO 0315/0318 18015G25KT=
201910031700 TAF LRTC 031700Z NIL=
201910032000 TAF LRTC 032000Z NIL=
201910032300 TAF LRTC 032300Z NIL=
201910040200 TAF LRTC 040200Z NIL=
201910040500 TAF LRTC 040500Z 0406/0415 34015KT 9999 BKN035
                      TEMPO 0406/0412 5000 -RA BR BKN010 BKN025=
201910040800 TAF LRTC 040800Z 0409/0418 34015KT 9999 BKN035
                      TEMPO 0409/0413 5000 -RA BR BKN010 BKN025
                       BECMG 0415/0417 5000 -RA BR BKN010 BKN025=
201910041100 TAF LRTC 041100Z 0412/0421 34015KT 9999 SCT015 BKN035
                      BECMG 0415/0417 5000 -RA BR BKN010 BKN035
                       TEMPO 0417/0421 3000 RA SHRA BKN010 BKN025CB
                       OVC045=
201910041400 TAF LRTC 041400Z 0415/0424 34015KT 9999 SCT015 BKN035
                      BECMG 0415/0417 5000 -RA BR BKN010 BKN035
                       TEMPO 0417/0424 3000 RA SHRA BKN010 BKN025CB
                       OVC045=
201910041700 TAF LRTC 041700Z NIL=
201910042000 TAF LRTC 042000Z NIL=
201910042300 TAF LRTC 042300Z NIL=
201910050200 TAF LRTC 050200Z NIL=
201910050500 TAF LRTC 050500Z 0506/0515 34011KT 9999 BKN010 BKN040
                      PROB30 TEMPO 0506/0507 5000 -RA BR
                      BECMG 0507/0509 SCT015 SCT040=
201910050800 TAF LRTC 050800Z 0509/0518 34012KT 9999 SCT020 SCT040=
201910051100 TAF LRTC 051100Z 0512/0521 33010KT 9999 BKN025=
201910051400 TAF LRTC 051400Z 0515/0524 29009KT 9999 SCT040
                      PROB30 TEMPO 0523/0524 5000 BR=
201910051700 TAF LRTC 051700Z NIL=
201910052000 TAF LRTC 052000Z NIL=
201910052300 TAF LRTC 052300Z NIL=
201910060200 TAF LRTC 060200Z NIL=
201910060500 TAF LRTC 060500Z 0606/0615 VRB04KT CAVOK
                      BECMG 0613/0615 5000 -RA BR BKN030=
201910060800 TAF LRTC 060800Z 0609/0618 VRB04KT CAVOK
                      BECMG 0613/0615 5000 -RA BR BKN030
                      TEMPO 0616/0618 3000 RA BR BKN010 OVC035=
201910061100 TAF LRTC 061100Z 0612/0621 VRB04KT CAVOK
                      BECMG 0613/0615 5000 -RA BR BKN030
                      TEMPO 0616/0621 3000 RA BR BKN010 OVC035=
201910061400 TAF LRTC 061400Z 0615/0624 VRB04KT CAVOK
                      TEMPO 0615/0620 5000 -RA BR BKN015 OVC035=
201910061700 TAF LRTC 061700Z NIL=
201910062000 TAF LRTC 062000Z NIL=
201910062300 TAF LRTC 062300Z NIL=
201910070200 TAF LRTC 070200Z NIL=
201910070500 TAF LRTC 070500Z 0706/0715 35012KT 9999 BKN020 OVC035
                      TEMPO 0708/0712 5000 -RADZ BR BKN015=
201910070549 TAF COR LRTC 070549Z 0706/0715 35012KT 9999 BKN020 OVC035
                      TEMPO 0706/0712 5000 -RADZ BR BKN010=
201910070800 TAF LRTC 070800Z 0709/0718 35012KT 9999 BKN020 OVC035
                      TEMPO 0709/0712 5000 -RADZ BR BKN010=
201910071100 TAF LRTC 071100Z 0712/0721 35012KT 9999 BKN020 BKN035=
201910071400 TAF LRTC 071400Z 0715/0724 35010KT 9999 BKN030=
201910071700 TAF LRTC 071700Z NIL=
201910072000 TAF LRTC 072000Z NIL=
201910072300 TAF LRTC 072300Z NIL=
201910080200 TAF LRTC 080200Z NIL=
201910080500 TAF LRTC 080500Z 0806/0815 01010KT CAVOK
                      BECMG 0813/0815 VRB04KT=
201910080800 TAF LRTC 080800Z 0809/0818 04010KT CAVOK
                      BECMG 0814/0816 VRB04KT=
201910081100 TAF LRTC 081100Z 0812/0821 VRB04KT CAVOK=
201910081400 TAF LRTC 081400Z 0815/0824 VRB04KT CAVOK
                      BECMG 0822/0824 20010KT=
201910081700 TAF LRTC 081700Z NIL=
201910082000 TAF LRTC 082000Z NIL=
201910082300 TAF LRTC 082300Z NIL=
201910090200 TAF LRTC 090200Z NIL=
201910090500 TAF LRTC 090500Z 0906/0915 19015KT CAVOK
                      TEMPO 0907/0913 20016G26KT=
201910090800 TAF LRTC 090800Z 0909/0918 20020KT CAVOK
                      TEMPO 0909/0913 21020G30KT
                      BECMG 0915/0917 VRB04KT=
201910091100 TAF LRTC 091100Z 0912/0921 20016KT CAVOK
                      BECMG 0915/0917 VRB04KT=
201910091400 TAF LRTC 091400Z 0915/0924 19012KT CAVOK
                      BECMG 0916/0918 VRB04KT=
201910091700 TAF LRTC 091700Z NIL=
201910092000 TAF LRTC 092000Z NIL=
201910092300 TAF LRTC 092300Z NIL=
201910100200 TAF LRTC 100200Z NIL=
201910100500 TAF LRTC 100500Z 1006/1015 VRB04KT CAVOK
                      BECMG 1007/1009 26010KT=
201910100800 TAF LRTC 100800Z 1009/1018 25010KT CAVOK
                      BECMG 1016/1018 VRB04KT=
201910101100 TAF LRTC 101100Z 1012/1021 25012KT CAVOK
                      BECMG 1016/1018 VRB04KT=
201910101400 TAF LRTC 101400Z 1015/1024 25008KT CAVOK=
201910101700 TAF LRTC 101700Z NIL=
201910102000 TAF LRTC 102000Z NIL=
201910102300 TAF LRTC 102300Z NIL=
201910110200 TAF LRTC 110200Z NIL=
201910110500 TAF LRTC 110500Z 1106/1115 34010KT 9999 BKN030=
201910110800 TAF LRTC 110800Z 1109/1118 34010KT CAVOK=
201910111100 TAF LRTC 111100Z 1112/1121 34014KT CAVOK
                      BECMG 1115/1117 VRB04KT=
201910111400 TAF LRTC 111400Z 1115/1124 34010KT CAVOK
                      BECMG 1115/1117 VRB04KT=
201910111700 TAF LRTC 111700Z NIL=
201910112000 TAF LRTC 112000Z NIL=
201910112300 TAF LRTC 112300Z NIL=
201910120200 TAF LRTC 120200Z NIL=
201910120500 TAF LRTC 120500Z 1206/1215 VRB03KT CAVOK
                      BECMG 1206/1208 20010KT=
201910120800 TAF LRTC 120800Z 1209/1218 19015KT CAVOK=
201910121100 TAF LRTC 121100Z 1212/1221 21012KT CAVOK=
201910121400 TAF LRTC 121400Z 1215/1224 18017KT CAVOK
                      BECMG 1222/1224 18007KT=
201910121700 TAF LRTC 121700Z NIL=
201910122000 TAF LRTC 122000Z NIL=
201910122300 TAF LRTC 122300Z NIL=
201910130200 TAF LRTC 130200Z NIL=
201910130500 TAF LRTC 130500Z 1306/1315 14005KT CAVOK
                      BECMG 1307/1309 17015KT=
201910130800 TAF LRTC 130800Z 1309/1318 16014KT CAVOK=
201910131100 TAF LRTC 131100Z 1312/1321 16012KT CAVOK=
201910131400 TAF LRTC 131400Z 1315/1324 16012KT CAVOK=
201910131700 TAF LRTC 131700Z NIL=
201910132000 TAF LRTC 132000Z NIL=
201910132300 TAF LRTC 132300Z NIL=
201910140200 TAF LRTC 140200Z NIL=
201910140500 TAF LRTC 140500Z 1406/1415 VRB04KT 0350 FG NSC
                      BECMG 1406/1407 1500 BR
                      BECMG 1407/1408 CAVOK
                      BECMG 1408/1410 16010KT=
201910140800 TAF LRTC 140800Z 1409/1418 17010KT CAVOK=
201910141100 TAF LRTC 141100Z 1412/1421 16010KT CAVOK
                      BECMG 1416/1418 VRB04KT=
201910141400 TAF LRTC 141400Z 1415/1424 13012KT CAVOK
                      BECMG 1416/1418 VRB04KT
                      BECMG 1421/1423 3000 BR=
201910141700 TAF LRTC 141700Z NIL=
201910142000 TAF LRTC 142000Z NIL=
201910142300 TAF LRTC 142300Z NIL=
201910150200 TAF LRTC 150200Z NIL=
201910150500 TAF LRTC 150500Z 1506/1515 VRB03KT 0150 FG VV001
                      BECMG 1506/1508 3000 BR SCT002
                      BECMG 1508/1510 CAVOK
                      TEMPO 1511/1515 14010KT=
201910150800 TAF LRTC 150800Z 1509/1518 VRB04KT 9999 BKN015
                      BECMG 1509/1510 CAVOK
                      TEMPO 1511/1516 14010KT=
201910151100 TAF LRTC 151100Z 1512/1521 14010KT CAVOK
                      BECMG 1518/1520 VRB04KT=
201910151400 TAF LRTC 151400Z 1515/1524 13007KT CAVOK=
201910151700 TAF LRTC 151700Z NIL=
201910152000 TAF LRTC 152000Z NIL=
201910152300 TAF LRTC 152300Z NIL=
201910160200 TAF LRTC 160200Z NIL=
201910160500 TAF LRTC 160500Z 1606/1615 VRB04KT 0350 FG BKN002
                      BECMG 1606/1608 1500 BR BKN010
                      BECMG 1608/1609 5000 BR SCT020
                      BECMG 1609/1610 9999 NSW
                      BECMG 1612/1614 14010KT=
201910160720 TAF AMD LRTC 160720Z 1607/1615 VRB04KT 9999 BKN010
                      BECMG 1608/1610 SCT020
                      BECMG 1612/1614 14010KT=
201910160800 TAF LRTC 160800Z 1609/1618 VRB04KT 9999 SCT015
                      BECMG 1612/1614 14010KT=
201910161100 TAF LRTC 161100Z 1612/1621 VRB04KT CAVOK
                      TEMPO 1613/1616 13010KT=
201910161400 TAF LRTC 161400Z 1615/1624 15006KT CAVOK
                      BECMG 1619/1621 3000 BR BKN010
                      BECMG 1621/1623 0600 FG OVC002=
201910161700 TAF LRTC 161700Z NIL=
201910162000 TAF LRTC 162000Z NIL=
201910162300 TAF LRTC 162300Z NIL=
201910170200 TAF LRTC 170200Z NIL=
201910170500 TAF LRTC 170500Z 1706/1715 VRB04KT 1500 BR BKN015
                      TEMPO 1706/1708 0800 FG BKN002
                      BECMG 1708/1710 CAVOK=
201910170800 TAF LRTC 170800Z 1709/1718 VRB04KT CAVOK
                      TEMPO 1709/1710 BKN015=
201910171100 TAF LRTC 171100Z 1712/1721 VRB04KT CAVOK=
201910171400 TAF LRTC 171400Z 1715/1724 VRB04KT CAVOK
                      BECMG 1722/1724 1500 BR BKN002=
201910171700 TAF LRTC 171700Z NIL=
201910172000 TAF LRTC 172000Z NIL=
201910172300 TAF LRTC 172300Z NIL=
201910180200 TAF LRTC 180200Z NIL=
201910180500 TAF LRTC 180500Z 1806/1815 VRB04KT 0800 FG NSC
                      TEMPO 1806/1808 0150 FG VV001
                      BECMG 1808/1809 3000 BR
                      BECMG 1809/1810 CAVOK=
201910180800 TAF LRTC 180800Z 1809/1818 VRB04KT CAVOK=
201910181100 TAF LRTC 181100Z 1812/1821 36008KT CAVOK=
201910181400 TAF LRTC 181400Z 1815/1824 01006KT CAVOK=
201910181700 TAF LRTC 181700Z NIL=
201910182000 TAF LRTC 182000Z NIL=
201910182300 TAF LRTC 182300Z NIL=
201910190200 TAF LRTC 190200Z NIL=
201910190500 TAF LRTC 190500Z 1906/1915 VRB04KT 0150 FG VV001
                      BECMG 1906/1908 0800 BKN002
                      BECMG 1908/1909 3000 BR BKN005
                      BECMG 1909/1910 CAVOK=
201910190800 TAF LRTC 190800Z 1909/1918 VRB04KT 0350 FG VV001
                      BECMG 1909/1911 3000 BR BKN005
                      BECMG 1911/1912 CAVOK=
201910190812 TAF AMD LRTC 190812Z 1908/1915 VRB04KT 0150 FG VV001
                      BECMG 1908/1910 1500 BR BKN005
                      BECMG 1910/1911 CAVOK=
201910191100 TAF LRTC 191100Z 1912/1921 VRB04KT CAVOK
                      BECMG 1917/1919 3000 BR BKN005
                      BECMG 1919/1921 0600 FG BKN002=
201910191400 TAF LRTC 191400Z 1915/1924 VRB04KT CAVOK
                      BECMG 1917/1919 3000 BR BKN005
                      BECMG 1919/1922 0600 FG BKN002=
201910191700 TAF LRTC 191700Z NIL=
201910192000 TAF LRTC 192000Z NIL=
201910192300 TAF LRTC 192300Z NIL=
201910200200 TAF LRTC 200200Z NIL=
201910200500 TAF LRTC 200500Z 2006/2015 VRB04KT 0600 FG VV002
                      TEMPO 2006/2008 0150 FG VV001
                      BECMG 2008/2009 14010KT 1500 BR BKN005
                      BECMG 2009/2010 5000 BR BKN015=
201910200800 TAF LRTC 200800Z 2009/2018 09008KT 5000 BR BKN015
                      TEMPO 2009/2010 1500 BR BKN005
                      BECMG 2010/2011 CAVOK=
201910201100 TAF LRTC 201100Z 2012/2021 15008KT CAVOK
                      BECMG 2014/2016 3000 BR BKN010
                      BECMG 2016/2018 1500 BR BKN005=
201910201400 TAF LRTC 201400Z 2015/2024 13010KT CAVOK
                      BECMG 2015/2017 VRB04KT 3000 BR BKN010
                      BECMG 2017/2019 1500 BR BKN005
                      BECMG 2020/2022 0600 FG VV001=
201910201700 TAF LRTC 201700Z NIL=
201910202000 TAF LRTC 202000Z NIL=
201910202300 TAF LRTC 202300Z NIL=
201910210200 TAF LRTC 210200Z NIL=
201910210500 TAF LRTC 210500Z 2106/2115 VRB04KT 0350 FG VV001
                      BECMG 2107/2108 1500 BR BKN005
                      BECMG 2108/2109 5000 SCT010
                      BECMG 2109/2110 14010KT CAVOK=
201910210800 TAF LRTC 210800Z 2109/2118 14008KT 9999 BKN015
                      BECMG 2110/2112 SCT025=
201910211100 TAF LRTC 211100Z 2112/2121 14010KT CAVOK
                      BECMG 2116/2118 VRB04KT 3000 BR BKN010
                      BECMG 2119/2121 0800 FG BKN002=
201910211400 TAF LRTC 211400Z 2115/2124 13010KT CAVOK
                      BECMG 2116/2118 VRB04KT 5000 BR BKN010
                      BECMG 2119/2121 1500 BR BKN005
                      BECMG 2122/2124 0600 FG BKN002=
201910211700 TAF LRTC 211700Z NIL=
201910212000 TAF LRTC 212000Z NIL=
201910212300 TAF LRTC 212300Z NIL=
201910220200 TAF LRTC 220200Z NIL=
201910220500 TAF LRTC 220500Z 2206/2215 13010KT 5000 BR BKN005
                      BECMG 2206/2208 BKN010
                      BECMG 2208/2209 9999 NSW SCT015=
201910220800 TAF LRTC 220800Z 2209/2218 VRB04KT 5000 BR OVC010
                      BECMG 2209/2210 9999 NSW
                      BECMG 2210/2212 SCT015=
201910221100 TAF LRTC 221100Z 2212/2221 10004KT CAVOK
                      BECMG 2218/2220 3000 BR=
201910221400 TAF LRTC 221400Z 2215/2224 10004KT CAVOK
                      BECMG 2218/2220 3000 BR
                      BECMG 2220/2222 1500 BR BKN002=
201910221700 TAF LRTC 221700Z NIL=
201910222000 TAF LRTC 222000Z NIL=
201910222300 TAF LRTC 222300Z NIL=
201910230200 TAF LRTC 230200Z NIL=
201910230500 TAF LRTC 230500Z 2306/2315 VRB04KT 0350 FG VV002
                      BECMG 2307/2309 3000 BR BKN010
                      BECMG 2308/2310 7000 NSW NSC=
201910230800 TAF LRTC 230800Z 2309/2318 VRB04KT 1500 BR OVC002
                      BECMG 2309/2311 7000 NSW BKN015
                      BECMG 2316/2318 3000 BR BKN010=
201910231100 TAF LRTC 231100Z 2312/2321 VRB04KT 7000 OVC005
                      TEMPO 2312/2316 BKN015
                      BECMG 2319/2321 3000 BR BKN002=
201910231400 TAF LRTC 231400Z 2315/2324 VRB04KT CAVOK
                      BECMG 2319/2321 3000 BR BKN005
                      BECMG 2322/2324 1500 BR=
201910231700 TAF LRTC 231700Z NIL=
201910232000 TAF LRTC 232000Z NIL=
201910232300 TAF LRTC 232300Z NIL=
201910240200 TAF LRTC 240200Z NIL=
201910240500 TAF LRTC 240500Z 2406/2415 VRB04KT 1500 BR OVC002
                      BECMG 2406/2408 3000 BKN005
                      BECMG 2408/2410 5000 BKN010
                      BECMG 2410/2412 9999 NSW BKN020=
201910240800 TAF LRTC 240800Z 2409/2418 VRB04KT 5000 BR OVC005
                      BECMG 2409/2411 7000 NSW BKN010
                      BECMG 2411/2413 SCT015=
201910241100 TAF LRTC 241100Z 2412/2421 VRB04KT 9999 BKN010
                      BECMG 2412/2414 SCT015=
201910241400 TAF LRTC 241400Z 2415/2424 VRB04KT 9999 SCT015
                      BECMG 2418/2420 5000 BR BKN010
                      BECMG 2420/2422 1500 BR OVC005
                      BECMG 2422/2424 0600 FG OVC002=
201910241700 TAF LRTC 241700Z NIL=
201910242000 TAF LRTC 242000Z NIL=
201910242300 TAF LRTC 242300Z NIL=
201910250200 TAF LRTC 250200Z NIL=
201910250500 TAF LRTC 250500Z 2506/2515 VRB04KT 5000 BR OVC010
                      TEMPO 2506/2507 1500 BR OVC005
                      BECMG 2509/2511 9999 NSW BKN015=
201910250800 TAF LRTC 250800Z 2509/2518 VRB04KT 8000 OVC010
                      BECMG 2509/2511 BKN020=
201910251100 TAF LRTC 251100Z 2512/2521 VRB04KT 9999 OVC010
                      PROB40 TEMPO 2512/2515 BKN020=
201910251400 TAF LRTC 251400Z 2515/2524 VRB04KT 9999 OVC010
                      BECMG 2518/2520 5000 BR OVC005=
201910251700 TAF LRTC 251700Z NIL=
201910252000 TAF LRTC 252000Z NIL=
201910252300 TAF LRTC 252300Z NIL=
201910260200 TAF LRTC 260200Z NIL=
201910260500 TAF LRTC 260500Z 2606/2615 VRB04KT 5000 BR OVC015
                      PROB30 TEMPO 2606/2608 3000 BR OVC010
                      BECMG 2608/2610 9999 NSW BKN020
                      TEMPO 2608/2614 36010KT=
201910260800 TAF LRTC 260800Z 2609/2618 VRB04KT 9999 OVC020
                      BECMG 2616/2618 5000 BR OVC015=
201910261100 TAF LRTC 261100Z 2612/2621 VRB04KT 9999 BKN020
                      BECMG 2616/2618 5000 BR OVC015
                      BECMG 2618/2620 3000 BR OVC010=
201910261400 TAF LRTC 261400Z 2615/2624 VRB04KT 9999 BKN020
                      BECMG 2616/2618 5000 BR OVC015
                      BECMG 2619/2621 3000 BR OVC010
                      PROB40 TEMPO 2621/2624 1500 BR OVC003=
201910261700 TAF LRTC 261700Z NIL=
201910262000 TAF LRTC 262000Z NIL=
201910262300 TAF LRTC 262300Z NIL=
201910270200 TAF LRTC 270200Z NIL=
201910270500 TAF LRTC 270500Z 2706/2715 VRB04KT 9999 BKN025
                      TEMPO 2706/2708 5000 BR BKN010=
201910270800 TAF LRTC 270800Z 2709/2718 VRB04KT 9999 BKN010=
201910271100 TAF LRTC 271100Z 2712/2721 VRB04KT 9999 OVC010=
201910271400 TAF LRTC 271400Z 2715/2724 16006KT CAVOK
                      BECMG 2717/2719 5000 BR BKN015
                      BECMG 2720/2722 1500 BR BKN005=
201910271700 TAF LRTC 271700Z NIL=
201910272000 TAF LRTC 272000Z NIL=
201910272300 TAF LRTC 272300Z NIL=
201910280200 TAF LRTC 280200Z NIL=
201910280500 TAF LRTC 280500Z 2806/2815 VRB04KT 0600 FG BKN001
                      BECMG 2807/2809 3000 BR SCT005
                      BECMG 2809/2810 CAVOK=
201910280800 TAF LRTC 280800Z 2809/2818 VRB04KT CAVOK=
201910281100 TAF LRTC 281100Z 2812/2821 VRB04KT CAVOK
                      BECMG 2819/2821 5000 BR=
201910281400 TAF LRTC 281400Z 2815/2824 13008KT CAVOK
                      BECMG 2819/2821 5000 BR
                      PROB30 TEMPO 2822/2824 3000 BR=
201910281700 TAF LRTC 281700Z NIL=
201910282000 TAF LRTC 282000Z NIL=
201910282300 TAF LRTC 282300Z NIL=
201910290200 TAF LRTC 290200Z NIL=
201910290500 TAF LRTC 290500Z 2906/2915 34010KT 0800 FG BKN002 OVC005
                      TEMPO 2906/2907 0350 FG VV001
                      BECMG 2907/2909 3000 BR BKN010
                      BECMG 2909/2911 9999 NSW BKN025=
201910290800 TAF LRTC 290800Z 2909/2918 34010KT 1500 BR BKN005
                      BECMG 2909/2911 9999 NSW BKN025=
201910291100 TAF LRTC 291100Z 2912/2921 34010KT 7000 BKN010
                      TEMPO 2912/2916 BKN015
                      BECMG 2916/2918 5000 -RA BR BKN005 OVC020=
201910291400 TAF LRTC 291400Z 2915/2924 02005KT 9999 OVC015
                      BECMG 2921/2923 01012KT 5000 -RA BKN005 OVC015=
201910291700 TAF LRTC 291700Z NIL=
201910292000 TAF LRTC 292000Z NIL=
201910292300 TAF LRTC 292300Z NIL=
201910300200 TAF LRTC 300200Z NIL=
201910300500 TAF LRTC 300500Z 3006/3015 01010KT 9999 BKN045
                      PROB30 TEMPO 3006/3009 5000 -RA=
201910300800 TAF LRTC 300800Z 3009/3018 01010KT CAVOK=
201910301100 TAF LRTC 301100Z 3012/3021 36010KT CAVOK=
201910301400 TAF LRTC 301400Z 3015/3024 02010KT CAVOK
                      BECMG 3022/3024 5000 -RA BKN015 OVC035=
201910301700 TAF LRTC 301700Z NIL=
201910302000 TAF LRTC 302000Z NIL=
201910302300 TAF LRTC 302300Z NIL=
201910310200 TAF LRTC 310200Z NIL=
201910310500 TAF LRTC 310500Z 3106/3115 02010KT 9999 BKN045
                      TEMPO 3106/3109 5000 -RA=
201910310800 TAF LRTC 310800Z 3109/3118 02010KT 9999 SCT045=
201910311100 TAF LRTC 311100Z 3112/3121 01010KT 9999 SCT045=
201910311400 TAF LRTC 311400Z 3115/3124 01008KT CAVOK=
201910311700 TAF LRTC 311700Z NIL=
201910312000 TAF LRTC 312000Z NIL=
201910312300 TAF LRTC 312300Z NIL=
