201911010000 METAR LRTC 010000Z AUTO 34008KT 9999 OVC095/// 03/M02 Q1026=
201911010030 METAR LRTC 010030Z AUTO 35006KT 9999 BKN095/// 02/M02 Q1026=
201911010100 METAR LRTC 010100Z AUTO 33008KT 9999 SCT095/// 00/M03 Q1026=
201911010130 METAR LRTC 010130Z AUTO 34008KT 9999 BKN095/// 00/M03 Q1025=
201911010200 METAR LRTC 010200Z AUTO 34008KT 6000 BKN095/// 00/M03 Q1025=
201911010230 METAR LRTC 010230Z AUTO 33006KT 8000 BKN095/// 01/M03 Q1025=
201911010300 METAR LRTC 010300Z AUTO 35007KT 9000 BKN095/// 01/M03 Q1025=
201911010330 METAR LRTC 010330Z AUTO 35007KT 8000 BKN095/// 01/M04 Q1025=
201911010400 METAR LRTC 010400Z AUTO 33009KT 8000 BKN095/// 01/M04 Q1025=
201911010430 METAR LRTC 010430Z AUTO 33010KT 8000 BKN095/// 01/M04 Q1025=
201911010500 METAR LRTC 010500Z AUTO 34011KT 9999 BKN095/// 01/M03 Q1025=
201911010530 METAR LRTC 010530Z AUTO 34012KT 9999 FEW033/// SCT095///
                        03/M03 Q1025=
201911010600 METAR LRTC 010600Z 35013KT 9999 FEW030 03/M03 Q1025 R16/CLRD//=
201911010630 METAR LRTC 010630Z 35013KT 9999 SCT045 03/M04 Q1026=
201911010700 METAR LRTC 010700Z 35012KT 9999 SCT036 SCT045 04/M03 Q1026=
201911010730 METAR LRTC 010730Z 35011KT 9999 SCT035 05/M02 Q1026=
201911010800 METAR LRTC 010800Z 35011KT 9999 BKN040 05/M02 Q1026=
201911010830 METAR LRTC 010830Z 34011KT 9999 BKN036 05/M02 Q1026=
201911010900 METAR LRTC 010900Z 34010KT 9999 BKN035 06/M01 Q1026=
201911010930 METAR LRTC 010930Z 34011KT 9999 BKN040 06/M01 Q1026=
201911011000 METAR LRTC 011000Z 34012KT 9999 BKN040 06/M01 Q1026=
201911011030 METAR LRTC 011030Z 35011KT 9999 BKN045 07/M00 Q1026=
201911011100 METAR LRTC 011100Z 35010KT 320V020 9999 BKN045 07/M01 Q1025=
201911011130 METAR LRTC 011130Z 34009KT 9999 BKN049 07/M01 Q1025=
201911011200 METAR LRTC 011200Z 35008KT 9999 SCT049 07/M00 Q1025=
201911011230 METAR LRTC 011230Z 36008KT 9999 SCT048 08/M00 Q1025=
201911011300 METAR LRTC 011300Z 03006KT 360V060 9999 BKN048 09/01 Q1025=
201911011330 METAR LRTC 011330Z 02006KT 9999 BKN045 08/00 Q1025=
201911011400 METAR LRTC 011400Z 36004KT 340V040 9999 SCT048 08/00 Q1025=
201911011430 METAR LRTC 011430Z 03005KT 9999 SCT045 08/00 Q1025=
201911011500 METAR LRTC 011500Z 07004KT 040V100 9999 BKN045 07/01 Q1025=
201911011530 METAR LRTC 011530Z 06005KT 9999 SCT042 07/01 Q1025=
201911011600 METAR LRTC 011600Z 07004KT 9999 FEW044 06/01 Q1025=
201911011630 METAR LRTC 011630Z 03004KT 9999 FEW044 04/00 Q1026=
201911011700 METAR LRTC 011700Z 04004KT 9999 BKN042 05/00 Q1026=
201911011730 METAR LRTC 011730Z 02004KT 9999 SCT042 04/M00 Q1026=
201911011800 METAR LRTC 011800Z AUTO 01005KT 9999 SCT041/// 03/M01 Q1026=
201911011830 METAR LRTC 011830Z AUTO 36003KT 8000 SCT044/// 04/M01 Q1026=
201911011900 METAR LRTC 011900Z AUTO 01003KT 9999 BKN044/// BKN050///
                        04/M00 Q1026=
201911011930 METAR LRTC 011930Z AUTO 22002KT 170V310 8000 BKN050/// 02/00
                        Q1026=
201911012000 METAR LRTC 012000Z AUTO 02002KT 9999 SCT041/// BKN050///
                        03/M00 Q1026=
201911012030 METAR LRTC 012030Z AUTO 05003KT 6000 FEW041/// BKN048///
                        02/00 Q1026=
201911012100 METAR LRTC 012100Z AUTO 06002KT 8000 BKN046/// 02/M00 Q1025=
201911012130 METAR LRTC 012130Z AUTO 00000KT 7000 SCT050/// 01/M01 Q1025=
201911012200 METAR LRTC 012200Z AUTO 23001KT 8000 NCD 01/M00 Q1025=
201911012230 METAR LRTC 012230Z AUTO 00000KT 8000 NCD 00/M01 Q1025=
201911012300 METAR LRTC 012300Z AUTO 25002KT 9000 FEW050/// 01/M01 Q1025=
201911012330 METAR LRTC 012330Z AUTO 24002KT 7000 BKN047/// 01/M01 Q1025=
201911020000 METAR LRTC 020000Z AUTO 05002KT 7000 FEW036/// BKN048///
                        00/M01 Q1025=
201911020030 METAR LRTC 020030Z AUTO 07002KT 8000 FEW043/// BKN050///
                        00/M01 Q1024=
201911020100 METAR LRTC 020100Z AUTO 00000KT 9999 FEW044/// 01/M01 Q1024=
201911020130 METAR LRTC 020130Z AUTO 03002KT 7000 FEW038/// SCT046///
                        01/M01 Q1024=
201911020200 METAR LRTC 020200Z AUTO 01005KT 9000 FEW036/// BKN043///
                        00/M01 Q1024=
201911020230 METAR LRTC 020230Z AUTO 28002KT 230V010 9000 SCT035/// BKN042///
                        01/M01 Q1024=
201911020300 METAR LRTC 020300Z AUTO VRB01KT 9000 FEW040/// BKN047///
                        01/M01 Q1024=
201911020330 METAR LRTC 020330Z AUTO 07003KT 9000 SCT048/// 01/M01 Q1023=
201911020400 METAR LRTC 020400Z AUTO 23002KT 9000 FEW049/// 00/M01 Q1023=
201911020430 METAR LRTC 020430Z AUTO VRB01KT 7000 NCD M00/M02 Q1023=
201911020500 METAR LRTC 020500Z AUTO VRB01KT 9999 NCD 01/M01 Q1023=
201911020530 METAR LRTC 020530Z AUTO 03004KT 7000 NCD 00/M01 Q1023=
201911020600 METAR LRTC 020600Z 00000KT 9999 FEW035 02/01 Q1023=
201911020630 METAR LRTC 020630Z 10003KT 070V130 9999 FEW040 04/02 Q1022=
201911020700 METAR LRTC 020700Z 20003KT 160V260 CAVOK 05/02 Q1022=
201911020730 METAR LRTC 020730Z VRB02KT 9999 FEW040 07/04 Q1022=
201911020800 METAR LRTC 020800Z 15014KT 9999 FEW040 11/04 Q1022=
201911020830 METAR LRTC 020830Z 14020KT 9999 FEW040 11/03 Q1021=
201911020900 METAR LRTC 020900Z 15021KT 9999 FEW040 11/03 Q1021=
201911020930 METAR LRTC 020930Z 15021KT 9999 FEW040 12/03 Q1021=
201911021000 METAR LRTC 021000Z 15020KT 9999 FEW033 12/03 Q1021=
201911021030 METAR LRTC 021030Z 15018KT 9999 SCT031 12/04 Q1020=
201911021100 METAR LRTC 021100Z 15018KT 9999 FEW035 13/04 Q1020=
201911021130 METAR LRTC 021130Z 15018KT 9999 SCT035 12/04 Q1020=
201911021200 METAR LRTC 021200Z 16017KT 9999 FEW035 12/04 Q1019=
201911021230 METAR LRTC 021230Z 16016KT 9999 SCT035 12/05 Q1019=
201911021300 METAR LRTC 021300Z 15018KT 9999 SCT035 13/06 Q1019=
201911021330 METAR LRTC 021330Z 16018KT 9999 SCT035 13/05 Q1019=
201911021400 METAR LRTC 021400Z 16013KT 9999 FEW035 12/06 Q1018=
201911021430 METAR LRTC 021430Z 16014KT 9999 FEW040 12/06 Q1018=
201911021500 METAR LRTC 021500Z 16014KT 9999 FEW040 12/06 Q1018=
201911021530 METAR LRTC 021530Z 17010KT CAVOK 12/06 Q1018=
201911021600 METAR LRTC 021600Z 19007KT CAVOK 11/06 Q1018=
201911021630 METAR LRTC 021630Z 16003KT 120V200 CAVOK 11/06 Q1018=
201911021700 METAR LRTC 021700Z 17006KT CAVOK 11/06 Q1018=
201911021730 METAR LRTC 021730Z 16007KT CAVOK 10/05 Q1018=
201911021800 METAR LRTC 021800Z AUTO 16006KT 9999 BKN190/// 09/05 Q1018=
201911021830 METAR LRTC 021830Z AUTO 15006KT 9999 NCD 08/05 Q1017=
201911021900 METAR LRTC 021900Z AUTO 17007KT 9999 FEW065/// 08/04 Q1017=
201911021930 METAR LRTC 021930Z AUTO 19009KT 9999 NCD 09/05 Q1018=
201911022000 METAR LRTC 022000Z AUTO 18009KT 9999 SCT060/// 09/05 Q1017=
201911022030 METAR LRTC 022030Z AUTO 18012KT 9999 SCT060/// 11/05 Q1017=
201911022100 METAR LRTC 022100Z AUTO 18012KT 9999 BKN060/// 11/05 Q1017=
201911022130 METAR LRTC 022130Z AUTO 16012KT 9999 BKN060/// 11/05 Q1016=
201911022200 METAR LRTC 022200Z AUTO 16012KT 9999 FEW060/// 11/06 Q1016=
201911022230 METAR LRTC 022230Z AUTO 16011KT 9999 BKN055/// 11/06 Q1016=
201911022300 METAR LRTC 022300Z AUTO 15008KT 9999 OVC055/// 11/06 Q1016=
201911022330 METAR LRTC 022330Z AUTO 18011KT 9999 BKN055/// BKN240///
                        11/06 Q1016=
201911030000 METAR LRTC 030000Z AUTO 19011KT 9999 BKN055/// 11/06 Q1016=
201911030030 METAR LRTC 030030Z AUTO 18010KT 9999 FEW055/// 11/06 Q1015=
201911030100 METAR LRTC 030100Z AUTO 15008KT 9999 BKN230/// 10/06 Q1015=
201911030130 METAR LRTC 030130Z AUTO 17011KT 9999 FEW055/// SCT140///
                        11/06 Q1015=
201911030200 METAR LRTC 030200Z AUTO 17011KT 9999 NCD 11/06 Q1015=
201911030230 METAR LRTC 030230Z AUTO 18009KT 9999 FEW150/// SCT240///
                        11/06 Q1015=
201911030300 METAR LRTC 030300Z AUTO 18012KT 9999 FEW130/// SCT150///
                        11/06 Q1014=
201911030330 METAR LRTC 030330Z AUTO 17011KT 9999 FEW130/// BKN150///
                        11/07 Q1014=
201911030400 METAR LRTC 030400Z AUTO 17009KT 9999 FEW150/// 10/07 Q1014=
201911030430 METAR LRTC 030430Z AUTO 17009KT 9999 FEW150/// 10/07 Q1014=
201911030500 METAR LRTC 030500Z AUTO 17006KT 9999 FEW170/// 10/07 Q1014=
201911030530 METAR LRTC 030530Z AUTO 18006KT 9999 FEW100/// 11/08 Q1014=
201911030600 METAR LRTC 030600Z 17013KT CAVOK 13/09 Q1014=
201911030630 METAR LRTC 030630Z 17016KT CAVOK 13/09 Q1013=
201911030700 METAR LRTC 030700Z 17011KT CAVOK 14/09 Q1013=
201911030730 METAR LRTC 030730Z 17011KT CAVOK 14/08 Q1013=
201911030800 METAR LRTC 030800Z 17013KT CAVOK 15/07 Q1013=
201911030830 METAR LRTC 030830Z 18017KT CAVOK 15/06 Q1013=
201911030900 METAR LRTC 030900Z 17017KT CAVOK 16/07 Q1013=
201911030930 METAR LRTC 030930Z 17018KT CAVOK 16/07 Q1013=
201911031000 METAR LRTC 031000Z 18021KT CAVOK 17/07 Q1012=
201911031030 METAR LRTC 031030Z 17019KT CAVOK 17/07 Q1012=
201911031100 METAR LRTC 031100Z 17018KT CAVOK 17/08 Q1012=
201911031130 METAR LRTC 031130Z 17017KT CAVOK 17/07 Q1012=
201911031200 METAR LRTC 031200Z 16014KT CAVOK 17/08 Q1011=
201911031230 METAR LRTC 031230Z 16015KT CAVOK 16/08 Q1011=
201911031300 METAR LRTC 031300Z 15019KT CAVOK 16/08 Q1011=
201911031330 METAR LRTC 031330Z 15016KT CAVOK 15/08 Q1011=
201911031400 METAR LRTC 031400Z 14012KT CAVOK 15/08 Q1011=
201911031430 METAR LRTC 031430Z 14012KT CAVOK 15/09 Q1011=
201911031500 METAR LRTC 031500Z 14010KT CAVOK 14/09 Q1011=
201911031530 METAR LRTC 031530Z 14009KT CAVOK 14/09 Q1011=
201911031600 METAR LRTC 031600Z 10006KT CAVOK 13/10 Q1011=
201911031630 METAR LRTC 031630Z 15006KT 120V190 CAVOK 13/09 Q1011=
201911031700 METAR LRTC 031700Z 16014KT CAVOK 14/09 Q1011=
201911031730 METAR LRTC 031730Z 16013KT CAVOK 13/09 Q1010=
201911031800 METAR LRTC 031800Z AUTO 17012KT 8000 NCD 13/09 Q1010=
201911031830 METAR LRTC 031830Z AUTO 17010KT 9999 NCD 13/09 Q1010=
201911031900 METAR LRTC 031900Z AUTO 18012KT 9999 NCD 13/09 Q1010=
201911031930 METAR LRTC 031930Z AUTO 18012KT 9999 NCD 13/09 Q1010=
201911032000 METAR LRTC 032000Z AUTO 18009KT 9999 NCD 13/09 Q1010=
201911032030 METAR LRTC 032030Z AUTO 19010KT 9999 FEW180/// 13/09 Q1010=
201911032100 METAR LRTC 032100Z AUTO 22007KT 150V260 9999 NCD 14/09 Q1010=
201911032130 METAR LRTC 032130Z AUTO 21002KT 170V260 8000 NCD 13/09 Q1009=
201911032200 METAR LRTC 032200Z AUTO 18010KT 9000 FEW200/// 12/09 Q1009=
201911032230 METAR LRTC 032230Z AUTO 15006KT 9999 BKN190/// 12/09 Q1009=
201911032300 METAR LRTC 032300Z AUTO 16009KT 9000 BKN190/// 12/09 Q1009=
201911032330 METAR LRTC 032330Z AUTO 14005KT 9000 NCD 12/09 Q1008=
201911040000 METAR LRTC 040000Z AUTO 16006KT 130V190 9999 NCD 12/09 Q1008=
201911040030 METAR LRTC 040030Z AUTO 16007KT 130V190 9999 BKN230/// 12/09
                        Q1008=
201911040100 METAR LRTC 040100Z AUTO 14005KT 9999 SCT230/// 11/09 Q1008=
201911040130 METAR LRTC 040130Z AUTO 16008KT 9999 FEW180/// SCT240///
                        11/09 Q1007=
201911040200 METAR LRTC 040200Z AUTO 16007KT 9999 BKN180/// 12/09 Q1007=
201911040230 METAR LRTC 040230Z AUTO 12004KT 070V210 8000 BKN200/// 12/09
                        Q1007=
201911040300 METAR LRTC 040300Z AUTO 11005KT 7000 BKN170/// 12/09 Q1007=
201911040330 METAR LRTC 040330Z AUTO 12003KT 100V160 9000 OVC190/// 12/09
                        Q1007=
201911040400 METAR LRTC 040400Z AUTO 17005KT 9000 BKN200/// 12/09 Q1007=
201911040430 METAR LRTC 040430Z AUTO VRB01KT 8000 BKN190/// 12/09 Q1007=
201911040500 METAR LRTC 040500Z AUTO 16006KT 9999 BKN210/// 12/09 Q1007=
201911040530 METAR LRTC 040530Z AUTO 11003KT 060V160 8000 BKN200/// 12/09
                        Q1008=
201911040600 METAR LRTC 040600Z 14003KT 110V180 CAVOK 13/09 Q1008 R16/CLRD//=
201911040630 METAR LRTC 040630Z 13005KT 090V160 CAVOK 15/10 Q1008=
201911040700 METAR LRTC 040700Z 16011KT CAVOK 15/10 Q1007=
201911040730 METAR LRTC 040730Z 16011KT CAVOK 15/10 Q1007=
201911040800 METAR LRTC 040800Z 19013KT CAVOK 17/11 Q1007=
201911040830 METAR LRTC 040830Z 17012KT CAVOK 18/11 Q1007=
201911040900 METAR LRTC 040900Z 17014KT CAVOK 20/11 Q1007=
201911040930 METAR LRTC 040930Z 19017KT CAVOK 21/11 Q1007=
201911041000 METAR LRTC 041000Z 18013KT CAVOK 22/11 Q1006=
201911041030 METAR LRTC 041030Z 18012KT 150V210 CAVOK 23/11 Q1006=
201911041100 METAR LRTC 041100Z 19014KT CAVOK 23/11 Q1006=
201911041130 METAR LRTC 041130Z 19015KT CAVOK 23/11 Q1005=
201911041200 METAR LRTC 041200Z 19015KT CAVOK 23/12 Q1005=
201911041230 METAR LRTC 041230Z 18017KT CAVOK 22/13 Q1005=
201911041300 METAR LRTC 041300Z 19018KT CAVOK 22/12 Q1005=
201911041330 METAR LRTC 041330Z 18018KT CAVOK 22/13 Q1004=
201911041400 METAR LRTC 041400Z 17017KT CAVOK 22/13 Q1004=
201911041430 METAR LRTC 041430Z 19018KT CAVOK 21/13 Q1004=
201911041500 METAR LRTC 041500Z 17012KT CAVOK 19/14 Q1004=
201911041530 METAR LRTC 041530Z 18014KT CAVOK 18/14 Q1005=
201911041600 METAR LRTC 041600Z 15009KT CAVOK 17/14 Q1005=
201911041630 METAR LRTC 041630Z 16010KT CAVOK 17/14 Q1005=
201911041700 METAR LRTC 041700Z 16012KT CAVOK 17/14 Q1005=
201911041730 METAR LRTC 041730Z 17009KT CAVOK 17/14 Q1005=
201911041800 METAR LRTC 041800Z AUTO 18006KT 8000 NCD 17/14 Q1005=
201911041830 METAR LRTC 041830Z AUTO 16008KT 8000 FEW100/// 17/14 Q1004=
201911041900 METAR LRTC 041900Z AUTO 18010KT 8000 NCD 17/14 Q1004=
201911041930 METAR LRTC 041930Z AUTO 18011KT 9999 NCD 17/14 Q1004=
201911042000 METAR LRTC 042000Z AUTO 18012KT 9000 NCD 17/14 Q1004=
201911042030 METAR LRTC 042030Z AUTO 18008KT 9000 NCD 17/14 Q1004=
201911042100 METAR LRTC 042100Z AUTO VRB01KT 8000 NCD 17/14 Q1004=
201911042130 METAR LRTC 042130Z AUTO 18012KT 9999 BKN110/// 18/14 Q1004=
201911042200 METAR LRTC 042200Z AUTO 19014KT 9999 SCT110/// 18/14 Q1004=
201911042230 METAR LRTC 042230Z AUTO 20016KT 9999 -RA BKN090/// BKN160///
                        18/14 Q1004=
201911042300 METAR LRTC 042300Z AUTO 20014KT 9999 -RA FEW065/// BKN080///
                        18/15 Q1004=
201911042330 METAR LRTC 042330Z AUTO 19014KT 9999 -SHRA SCT065/// BKN080///
                        18/15 Q1004=
201911050000 METAR LRTC 050000Z AUTO 20012KT 9999 -SHRA BKN085/// BKN100///
                        18/15 Q1004=
201911050030 METAR LRTC 050030Z AUTO 18008KT 9999 SCT095/// BKN110///
                        BKN170/// 17/15 Q1004 RERA=
201911050100 METAR LRTC 050100Z AUTO 21004KT 9000 FEW100/// BKN180///
                        17/14 Q1005=
201911050130 METAR LRTC 050130Z AUTO 21008KT 9999 FEW080/// SCT240///
                        17/13 Q1005=
201911050200 METAR LRTC 050200Z AUTO 20007KT 9999 FEW090/// SCT100///
                        16/13 Q1005=
201911050230 METAR LRTC 050230Z AUTO 23009KT 9999 SCT100/// 15/11 Q1005=
201911050300 METAR LRTC 050300Z AUTO 24011KT 9999 NCD 15/11 Q1006=
201911050330 METAR LRTC 050330Z AUTO 23013KT 9999 NCD 15/11 Q1006=
201911050400 METAR LRTC 050400Z AUTO 22008KT 9999 NCD 14/11 Q1006=
201911050430 METAR LRTC 050430Z AUTO 22008KT 9999 NCD 13/10 Q1007=
201911050500 METAR LRTC 050500Z AUTO 22011KT 9999 NCD 13/10 Q1007=
201911050530 METAR LRTC 050530Z AUTO 24012KT 9999 NCD 14/10 Q1008=
201911050600 METAR LRTC 050600Z 24013KT CAVOK 14/11 Q1008 R16/29//95=
201911050630 METAR LRTC 050630Z 24013KT CAVOK 15/11 Q1008 R16/29//95=
201911050700 METAR LRTC 050700Z 24012KT CAVOK 16/11 Q1008 R16/29//95=
201911050730 METAR LRTC 050730Z 24014KT CAVOK 16/11 Q1009 R16/29//95=
201911050800 METAR LRTC 050800Z 24011KT CAVOK 17/12 Q1009 R16/29//95=
201911050830 METAR LRTC 050830Z 23014KT CAVOK 18/11 Q1009 R16/29//95=
201911050900 METAR LRTC 050900Z 23013KT CAVOK 18/11 Q1009 R16/29//95=
201911050930 METAR LRTC 050930Z 23014KT CAVOK 19/11 Q1009 R16/29//95=
201911051000 METAR LRTC 051000Z 24016KT CAVOK 20/10 Q1009 R16/29//95=
201911051030 METAR LRTC 051030Z 23013KT CAVOK 21/09 Q1009 R16/29//95=
201911051100 METAR LRTC 051100Z 22015KT CAVOK 21/08 Q1009 R16/29//95=
201911051130 METAR LRTC 051130Z 22016KT CAVOK 21/08 Q1008 R16/29//95=
201911051200 METAR LRTC 051200Z 23016KT CAVOK 22/06 Q1008 R16/29//95=
201911051230 METAR COR LRTC 051230Z 23017KT CAVOK 22/05 Q1009 R16/29//95=
201911051300 METAR LRTC 051300Z 22016KT CAVOK 21/06 Q1009 R16/29//95=
201911051330 METAR LRTC 051330Z 22017KT CAVOK 21/05 Q1009 R16/29//95=
201911051400 METAR LRTC 051400Z 22015KT CAVOK 20/04 Q1009 R16/29//95=
201911051430 METAR LRTC 051430Z 21010KT CAVOK 19/06 Q1009 R16/29//95=
201911051500 METAR LRTC 051500Z 20007KT CAVOK 16/06 Q1009 R16/29//95=
201911051530 METAR LRTC 051530Z VRB02KT CAVOK 16/06 Q1009 R16/29//95=
201911051600 METAR LRTC 051600Z 17008KT CAVOK 14/07 Q1009 R16/29//95=
201911051630 METAR LRTC 051630Z 16006KT CAVOK 14/07 Q1009 R16/29//95=
201911051700 METAR LRTC 051700Z 17006KT CAVOK 13/06 Q1010 R16/29//95=
201911051730 METAR LRTC 051730Z 15005KT CAVOK 13/06 Q1009 R16/29//95=
201911051800 METAR LRTC 051800Z AUTO 19004KT 9999 NCD 14/07 Q1009=
201911051830 METAR LRTC 051830Z AUTO 14005KT 9999 NCD 13/07 Q1009=
201911051900 METAR LRTC 051900Z AUTO 15007KT 8000 NCD 13/07 Q1009=
201911051930 METAR LRTC 051930Z AUTO 15005KT 9999 NCD 14/07 Q1009=
201911052000 METAR LRTC 052000Z AUTO 16006KT 9000 NCD 13/08 Q1009=
201911052030 METAR LRTC 052030Z AUTO 13005KT 9999 NCD 13/08 Q1009=
201911052100 METAR LRTC 052100Z AUTO 12005KT 9999 NCD 10/08 Q1009=
201911052130 METAR LRTC 052130Z AUTO 15006KT 9999 NCD 12/08 Q1008=
201911052200 METAR LRTC 052200Z AUTO 05002KT 350V110 8000 NCD 11/09 Q1008=
201911052230 METAR LRTC 052230Z AUTO 13006KT 9999 NCD 12/09 Q1008=
201911052300 METAR LRTC 052300Z AUTO 15005KT 9999 NCD 12/08 Q1008=
201911052330 METAR LRTC 052330Z AUTO 14006KT 9999 NCD 12/09 Q1008=
201911060000 METAR LRTC 060000Z AUTO 15006KT 8000 NCD 12/09 Q1008=
201911060030 METAR LRTC 060030Z AUTO 16005KT 9999 NCD 13/09 Q1007=
201911060100 METAR LRTC 060100Z AUTO 16004KT 8000 NCD 12/09 Q1007=
201911060130 METAR LRTC 060130Z AUTO 14008KT 9999 NCD 12/09 Q1007=
201911060200 METAR LRTC 060200Z AUTO 17005KT 140V210 9999 NCD 11/09 Q1007=
201911060230 METAR LRTC 060230Z AUTO 20005KT 9000 NCD 10/08 Q1007=
201911060300 METAR LRTC 060300Z AUTO 19006KT 9999 NCD 09/08 Q1006=
201911060330 METAR LRTC 060330Z AUTO 16008KT 9999 NCD 09/08 Q1006=
201911060400 METAR LRTC 060400Z AUTO VRB01KT 9999 NCD 11/09 Q1006=
201911060430 METAR LRTC 060430Z AUTO 07002KT 020V100 9999 NCD 11/08 Q1006=
201911060500 METAR LRTC 060500Z AUTO VRB01KT 9999 NCD 10/08 Q1006=
201911060530 METAR LRTC 060530Z AUTO 15004KT 9999 NCD 11/08 Q1006=
201911060600 METAR LRTC 060600Z 17004KT CAVOK 12/09 Q1006 R16/CLRD//=
201911060630 METAR LRTC 060630Z 18007KT CAVOK 13/10 Q1006=
201911060700 METAR LRTC 060700Z 21003KT CAVOK 15/10 Q1006=
201911060730 METAR LRTC 060730Z 16006KT 120V180 CAVOK 18/10 Q1006=
201911060800 METAR LRTC 060800Z 17009KT CAVOK 19/09 Q1006=
201911060830 METAR LRTC 060830Z 19004KT 140V230 CAVOK 20/09 Q1006=
201911060900 METAR LRTC 060900Z 13005KT 080V180 CAVOK 22/08 Q1006=
201911060930 METAR LRTC 060930Z 20007KT 170V230 CAVOK 23/07 Q1006=
201911061000 METAR LRTC 061000Z 22010KT CAVOK 24/06 Q1006=
201911061030 METAR LRTC 061030Z 22008KT CAVOK 24/06 Q1005=
201911061100 METAR LRTC 061100Z 22010KT CAVOK 24/07 Q1005=
201911061130 METAR LRTC 061130Z 21014KT CAVOK 25/06 Q1005=
201911061200 METAR LRTC 061200Z 22014KT CAVOK 25/05 Q1005=
201911061230 METAR LRTC 061230Z 22013KT CAVOK 24/06 Q1005=
201911061300 METAR LRTC 061300Z 22012KT CAVOK 24/07 Q1005=
201911061330 METAR LRTC 061330Z 22014KT CAVOK 24/07 Q1005=
201911061400 METAR LRTC 061400Z 22012KT CAVOK 23/07 Q1006=
201911061430 METAR LRTC 061430Z 21008KT CAVOK 21/08 Q1006=
201911061500 METAR LRTC 061500Z 20008KT CAVOK 21/08 Q1006=
201911061530 METAR LRTC 061530Z 19008KT CAVOK 20/07 Q1006=
201911061600 METAR LRTC 061600Z 21007KT CAVOK 19/08 Q1007=
201911061630 METAR LRTC 061630Z 21007KT CAVOK 19/08 Q1007=
201911061700 METAR LRTC 061700Z 22006KT CAVOK 19/08 Q1007=
201911061730 METAR LRTC 061730Z 22006KT CAVOK 19/08 Q1008=
201911061800 METAR LRTC 061800Z AUTO 22010KT 9999 NCD 19/08 Q1008=
201911061830 METAR LRTC 061830Z AUTO 24011KT 9999 NCD 17/08 Q1008=
201911061900 METAR LRTC 061900Z AUTO 19007KT 9999 NCD 17/08 Q1008=
201911061930 METAR LRTC 061930Z AUTO 18005KT 130V240 9000 NCD 16/08 Q1008=
201911062000 METAR LRTC 062000Z AUTO 20007KT 9999 NCD 17/08 Q1008=
201911062030 METAR LRTC 062030Z AUTO 20004KT 120V250 9999 NCD 16/08 Q1008=
201911062100 METAR LRTC 062100Z AUTO 16004KT 9999 NCD 16/08 Q1008=
201911062130 METAR LRTC 062130Z AUTO VRB01KT 6000 R34/0900VP2000U NCD
                        17/08 Q1008=
201911062200 METAR LRTC 062200Z AUTO 17002KT 140V210 9999 NCD 16/08 Q1008=
201911062230 METAR LRTC 062230Z AUTO 12002KT 050V170 9000 NCD 16/08 Q1008=
201911062300 METAR LRTC 062300Z AUTO 18003KT 9000 NCD 13/08 Q1009=
201911062330 METAR LRTC 062330Z AUTO 14002KT 9999 NCD 15/08 Q1009=
201911070000 METAR LRTC 070000Z AUTO 00000KT 9999 NCD 15/08 Q1009=
201911070030 METAR LRTC 070030Z AUTO 00000KT 9999 NCD 14/08 Q1008=
201911070100 METAR LRTC 070100Z AUTO 00000KT 9999 NCD 13/08 Q1008=
201911070130 METAR LRTC 070130Z AUTO 35002KT 9999 NCD 13/08 Q1008=
201911070200 METAR LRTC 070200Z AUTO VRB01KT 9999 NCD 13/08 Q1008=
201911070230 METAR LRTC 070230Z AUTO 19002KT 9999 NCD 09/07 Q1008=
201911070300 METAR LRTC 070300Z AUTO 16001KT 9999 NCD 11/08 Q1008=
201911070330 METAR LRTC 070330Z AUTO 22002KT 9999 NCD 11/07 Q1008=
201911070400 METAR LRTC 070400Z AUTO 23003KT 8000 NCD 11/08 Q1008=
201911070430 METAR LRTC 070430Z AUTO 16001KT 8000 NCD 10/07 Q1008=
201911070500 METAR LRTC 070500Z AUTO 19003KT 8000 NCD 10/08 Q1008=
201911070530 METAR LRTC 070530Z AUTO 24003KT 7000 NCD 08/06 Q1008=
201911070600 METAR LRTC 070600Z 14003KT 090V210 9000 NSC 10/08 Q1009 R16/CLRD//=
201911070630 METAR LRTC 070630Z VRB02KT 9000 NSC 11/08 Q1009=
201911070700 METAR LRTC 070700Z VRB01KT CAVOK 13/09 Q1009=
201911070730 METAR LRTC 070730Z VRB02KT CAVOK 15/09 Q1009=
201911070800 METAR LRTC 070800Z VRB02KT CAVOK 18/11 Q1008=
201911070830 METAR LRTC 070830Z 21008KT CAVOK 19/11 Q1008=
201911070900 METAR LRTC 070900Z 24004KT 190V290 CAVOK 20/11 Q1008=
201911070930 METAR LRTC 070930Z 17010KT CAVOK 20/12 Q1008=
201911071000 METAR LRTC 071000Z 18011KT CAVOK 21/12 Q1008=
201911071030 METAR LRTC 071030Z 19010KT 150V220 CAVOK 21/11 Q1008=
201911071100 METAR LRTC 071100Z 23013KT CAVOK 22/10 Q1008=
201911071130 METAR LRTC 071130Z 24012KT CAVOK 22/10 Q1008=
201911071200 METAR LRTC 071200Z 23008KT CAVOK 22/11 Q1008=
201911071230 METAR LRTC 071230Z 21008KT CAVOK 21/11 Q1008=
201911071300 METAR LRTC 071300Z 27008KT CAVOK 21/11 Q1008=
201911071330 METAR LRTC 071330Z 28006KT CAVOK 20/11 Q1008=
201911071400 METAR LRTC 071400Z 29003KT CAVOK 20/12 Q1009=
201911071430 METAR LRTC 071430Z 28002KT CAVOK 19/11 Q1009=
201911071500 METAR LRTC 071500Z 24002KT CAVOK 19/12 Q1009=
201911071530 METAR LRTC 071530Z 14004KT CAVOK 17/11 Q1009=
201911071600 METAR LRTC 071600Z 14004KT CAVOK 16/11 Q1009=
201911071630 METAR LRTC 071630Z 17006KT CAVOK 15/11 Q1009=
201911071700 METAR LRTC 071700Z 16006KT CAVOK 15/10 Q1010=
201911071730 METAR LRTC 071730Z 19004KT CAVOK 15/11 Q1010=
201911071800 METAR LRTC 071800Z AUTO 21002KT 180V250 8000 NCD 14/11 Q1010=
201911071830 METAR LRTC 071830Z AUTO 19004KT 8000 NCD 14/11 Q1010=
201911071900 METAR LRTC 071900Z AUTO 26003KT 9999 NCD 14/10 Q1010=
201911071930 METAR LRTC 071930Z AUTO 27002KT 220V340 8000 NCD 13/10 Q1010=
201911072000 METAR LRTC 072000Z AUTO 34002KT 9000 NCD 14/11 Q1011=
201911072030 METAR LRTC 072030Z AUTO 31001KT 9000 NCD 15/11 Q1011=
201911072100 METAR LRTC 072100Z AUTO VRB01KT 9999 NCD 15/11 Q1011=
201911072130 METAR LRTC 072130Z AUTO 00000KT 9999 NCD 14/10 Q1011=
201911072200 METAR LRTC 072200Z AUTO 19001KT 9000 NCD 13/11 Q1011=
201911072230 METAR LRTC 072230Z AUTO 18002KT 8000 NCD 13/10 Q1011=
201911072300 METAR LRTC 072300Z AUTO 21001KT 7000 NCD 12/10 Q1011=
201911072330 METAR LRTC 072330Z AUTO 23003KT 6000 NCD 13/10 Q1011=
201911080000 METAR LRTC 080000Z AUTO 00000KT 7000 NCD 12/09 Q1012=
201911080030 METAR LRTC 080030Z AUTO 00000KT 8000 NCD 12/10 Q1012=
201911080100 METAR LRTC 080100Z AUTO 34008KT 7000 NCD 11/09 Q1012=
201911080130 METAR LRTC 080130Z AUTO 01005KT 360V060 8000 NCD 10/09 Q1012=
201911080200 METAR LRTC 080200Z AUTO 33006KT 8000 NCD 11/09 Q1012=
201911080230 METAR LRTC 080230Z AUTO VRB03KT 8000 NCD 11/08 Q1012=
201911080300 METAR LRTC 080300Z AUTO 00000KT 7000 NCD 09/08 Q1012=
201911080330 METAR LRTC 080330Z AUTO 33004KT 300V090 7000 NCD 09/08 Q1013=
201911080400 METAR LRTC 080400Z AUTO 30004KT 7000 NCD 09/08 Q1013=
201911080430 METAR LRTC 080430Z AUTO 35005KT 330V070 6000 NCD 10/09 Q1013=
201911080500 METAR LRTC 080500Z AUTO 32010KT 5000 BR NCD 11/09 Q1013=
201911080530 METAR LRTC 080530Z AUTO VRB01KT 5000 BR NCD 09/08 Q1013=
201911080600 METAR LRTC 080600Z 00000KT CAVOK 10/09 Q1014 R16/CLRD//=
201911080630 METAR LRTC 080630Z 01004KT CAVOK 13/11 Q1014=
201911080700 METAR LRTC 080700Z 34003KT 320V020 CAVOK 14/12 Q1014=
201911080730 METAR LRTC 080730Z 36004KT 310V030 CAVOK 15/11 Q1014=
201911080800 METAR LRTC 080800Z 03003KT 360V090 CAVOK 16/12 Q1014=
201911080830 METAR LRTC 080830Z 06004KT 020V100 CAVOK 18/12 Q1013=
201911080900 METAR LRTC 080900Z 08006KT CAVOK 19/12 Q1013=
201911080930 METAR LRTC 080930Z 10006KT 040V150 CAVOK 20/13 Q1013=
201911081000 METAR LRTC 081000Z 13006KT 090V150 CAVOK 20/15 Q1013=
201911081030 METAR LRTC 081030Z 13006KT 080V170 CAVOK 20/15 Q1013=
201911081100 METAR LRTC 081100Z 08005KT 030V110 CAVOK 20/14 Q1013=
201911081130 METAR LRTC 081130Z 15007KT CAVOK 20/14 Q1013=
201911081200 METAR LRTC 081200Z 14007KT 110V170 CAVOK 20/14 Q1013=
201911081230 METAR LRTC 081230Z 13008KT CAVOK 19/14 Q1013=
201911081300 METAR LRTC 081300Z 14010KT CAVOK 19/14 Q1013=
201911081330 METAR LRTC 081330Z 14009KT CAVOK 18/14 Q1013=
201911081400 METAR LRTC 081400Z 11007KT 040V160 8000 3000SE BR SCT002
                        16/15 Q1013=
201911081430 METAR LRTC 081430Z 14007KT 9000 3500NE BR FEW003 16/15 Q1013=
201911081500 METAR LRTC 081500Z 15007KT 9000 3000NE BR FEW003 16/15 Q1013=
201911081530 METAR LRTC 081530Z 13007KT 0200 R34/1300D FG VV001 16/15
                        Q1013=
201911081600 METAR LRTC 081600Z 13005KT 0200 R34/0800N FG FEW001 SCT003
                        15/15 Q1014=
201911081630 METAR LRTC 081630Z 12004KT 2400 1200SE R34/P2000D BR SCT002
                        15/15 Q1014=
201911081700 METAR LRTC 081700Z 12006KT 0200 R34/0750N FG BKN001 16/15
                        Q1014=
201911081730 METAR LRTC 081730Z AUTO 15005KT 120V180 2000 R34/1800VP2000D
                        VV002 16/15 Q1014=
201911081800 METAR LRTC 081800Z AUTO 14005KT 0800 R34/1000U FG BKN004///
                        16/15 Q1014=
201911081830 METAR LRTC 081830Z AUTO 12006KT 0750 R34/0900U FG VV002 16/15
                        Q1014=
201911081900 METAR LRTC 081900Z AUTO 18004KT 0900 R34/0800V1300N FG SCT001///
                        BKN100/// 15/15 Q1014=
201911081930 METAR LRTC 081930Z AUTO 14005KT 1500 R34/1100VP2000U FG VV002
                        15/14 Q1014=
201911082000 METAR LRTC 082000Z AUTO 12005KT 080V150 2800 R34/1200VP2000U
                        FG BKN001/// 15/14 Q1014=
201911082030 METAR LRTC 082030Z AUTO 16005KT 0300 R34/0375N +SHRA SCT001///
                        BKN003/// 14/13 Q1014=
201911082100 METAR LRTC 082100Z AUTO 14005KT 110V180 0500 R34/0500V0750D
                        +SHRA VV001 15/14 Q1014=
201911082130 METAR LRTC 082130Z AUTO 14005KT 0550 R34/0650N +RA VV001
                        15/15 Q1014=
201911082200 METAR LRTC 082200Z AUTO 14008KT 0800 R34/1000N +RA VV001
                        15/15 Q1014=
201911082230 METAR LRTC 082230Z AUTO 14008KT 1100 R34/1300U +RA VV002
                        15/15 Q1014=
201911082300 METAR LRTC 082300Z AUTO 15005KT 0900 R34/0900V1300U +RA BKN002///
                        BKN004/// 14/14 Q1014=
201911082330 METAR LRTC 082330Z AUTO 12005KT 0750 R34/0900U +RA SCT003///
                        BKN005/// 14/14 Q1014=
201911090000 METAR LRTC 090000Z AUTO 13005KT 0200 R34/0225N +RA FEW001///
                        BKN003/// BKN005/// 13/13 Q1014=
201911090030 METAR LRTC 090030Z AUTO 14006KT 1900 R34/1200VP2000U +RA
                        FEW003/// BKN100/// BKN110/// 14/14
                        Q1014=
201911090100 METAR LRTC 090100Z AUTO 15005KT 2200 R34/1900VP2000U +RA
                        BKN090/// BKN110/// 14/14 Q1014=
201911090130 METAR LRTC 090130Z AUTO 14006KT 3900 FEW090/// BKN110///
                        14/14 Q1014 RERA=
201911090200 METAR LRTC 090200Z AUTO 14008KT 3800 FEW095/// SCT110///
                        BKN140/// 14/14 Q1015 RERA=
201911090230 METAR LRTC 090230Z AUTO 16004KT 2700 R34/2000 BR SCT100///
                        BKN130/// 14/13 Q1015=
201911090300 METAR LRTC 090300Z AUTO 20004KT 2400 BR BKN110/// 14/14 Q1015=
201911090330 METAR LRTC 090330Z AUTO 21002KT 180V240 1400 R34/0800VP2000U
                        BCFG FEW110/// 14/14 Q1015=
201911090400 METAR LRTC 090400Z AUTO 18005KT 0300 R34/0375N BCFG NCD 13/12
                        Q1015=
201911090430 METAR LRTC 090430Z AUTO 21005KT 0800 R34/1000N FG BKN070///
                        12/12 Q1015=
201911090500 METAR LRTC 090500Z AUTO 19003KT 2200 R34/1400VP2000D SCT070///
                        13/12 Q1015=
201911090530 METAR LRTC 090530Z AUTO 07004KT 0150 R34/0175N +SHRA NCD
                        12/11 Q1016=
201911090600 METAR LRTC 090600Z 06004KT 0550 R34/0750N FG NSC 13/13 Q1016=
201911090630 METAR LRTC 090630Z 10003KT 7000 FEW005 15/14 Q1016=
201911090700 METAR LRTC 090700Z 12002KT 9999 FEW005 16/15 Q1016=
201911090730 METAR LRTC 090730Z 14004KT CAVOK 17/16 Q1016=
201911090800 METAR LRTC 090800Z 15007KT CAVOK 19/15 Q1016=
201911090830 METAR LRTC 090830Z 15008KT 120V180 CAVOK 20/14 Q1016=
201911090900 METAR LRTC 090900Z 15008KT CAVOK 21/14 Q1016=
201911090930 METAR LRTC 090930Z 15007KT 120V210 CAVOK 21/14 Q1016=
201911091000 METAR LRTC 091000Z 15010KT CAVOK 22/14 Q1015=
201911091030 METAR LRTC 091030Z 14011KT CAVOK 22/14 Q1015=
201911091100 METAR LRTC 091100Z 13011KT 9999 FEW030 22/14 Q1015=
201911091130 METAR LRTC 091130Z 14010KT 9999 FEW030 22/14 Q1015=
201911091200 METAR LRTC 091200Z 15012KT 9999 FEW030 23/13 Q1015=
201911091230 METAR LRTC 091230Z 14012KT 9999 FEW030 22/14 Q1015=
201911091300 METAR LRTC 091300Z 16013KT 9999 FEW035 22/14 Q1015=
201911091330 METAR LRTC 091330Z 16012KT 9999 FEW040 21/14 Q1015=
201911091400 METAR LRTC 091400Z 15011KT 9999 FEW045 20/14 Q1015=
201911091430 METAR LRTC 091430Z 14009KT CAVOK 18/14 Q1015=
201911091500 METAR LRTC 091500Z 13008KT CAVOK 17/14 Q1015=
201911091530 METAR LRTC 091530Z 12008KT CAVOK 16/14 Q1015=
201911091600 METAR LRTC 091600Z 11007KT CAVOK 15/13 Q1015=
201911091630 METAR LRTC 091630Z 11007KT CAVOK 15/14 Q1015=
201911091700 METAR LRTC 091700Z 11007KT CAVOK 15/13 Q1015=
201911091730 METAR LRTC 091730Z 12008KT CAVOK 15/13 Q1015=
201911091800 METAR LRTC 091800Z AUTO 12007KT 7000 NCD 14/13 Q1015=
201911091830 METAR LRTC 091830Z AUTO 11007KT 6000 NCD 14/13 Q1015=
201911091900 METAR LRTC 091900Z AUTO 13009KT 9000 NCD 15/13 Q1016=
201911091930 METAR LRTC 091930Z AUTO 13008KT 6000 NCD 15/13 Q1016=
201911092000 METAR LRTC 092000Z AUTO 14006KT 6000 NCD 15/13 Q1016=
201911092030 METAR LRTC 092030Z AUTO 17006KT 130V200 5000 BR NCD 15/14
                        Q1016=
201911092100 METAR LRTC 092100Z AUTO 17006KT 3500 BR NCD 14/13 Q1016=
201911092130 METAR LRTC 092130Z AUTO 15009KT 4100 BR NCD 15/14 Q1015=
201911092200 METAR LRTC 092200Z AUTO 15010KT 4600 BR NCD 15/14 Q1015=
201911092230 METAR LRTC 092230Z AUTO 15009KT 4900 BR NCD 15/14 Q1015=
201911092300 METAR LRTC 092300Z AUTO 13007KT 4600 BR NCD 14/13 Q1015=
201911092330 METAR LRTC 092330Z AUTO 12006KT 5000 BR NCD 14/13 Q1015=
201911100000 METAR LRTC 100000Z AUTO 11007KT 4000 BR NCD 13/12 Q1015=
201911100030 METAR LRTC 100030Z AUTO VRB01KT 4800 BR NCD 13/12 Q1015=
201911100100 METAR LRTC 100100Z AUTO 12004KT 080V150 6000 NCD 14/13 Q1015=
201911100130 METAR LRTC 100130Z AUTO 11004KT 060V140 6000 NCD 13/12 Q1015=
201911100200 METAR LRTC 100200Z AUTO 13005KT 6000 FEW055/// 14/13 Q1015=
201911100230 METAR LRTC 100230Z AUTO 31003KT 250V360 5000 BR FEW055///
                        14/13 Q1015=
201911100300 METAR LRTC 100300Z AUTO VRB01KT 6000 FEW060/// 14/13 Q1015=
201911100330 METAR LRTC 100330Z AUTO 13007KT 5000 BR FEW060/// 14/13 Q1015=
201911100400 METAR LRTC 100400Z AUTO 14007KT 5000 BR SCT060/// 14/13 Q1015=
201911100430 METAR LRTC 100430Z AUTO 14007KT 5000 BR BKN055/// 15/14 Q1015=
201911100500 METAR LRTC 100500Z AUTO 12008KT 2900 BR FEW002/// SCT004///
                        BKN060/// 15/14 Q1015=
201911100530 METAR LRTC 100530Z AUTO 12010KT 1500 R34/1100VP2000U +RA
                        BKN001/// 15/15 Q1015=
201911100600 METAR LRTC 100600Z 12009KT 1600 BR OVC002 15/15 Q1015=
201911100630 METAR LRTC 100630Z 13011KT 3600 BR OVC002 15/15 Q1015=
201911100700 METAR LRTC 100700Z 13013KT 4500 BR BKN003 BKN006 15/15 Q1015=
201911100730 METAR LRTC 100730Z 12012KT 6000 BKN003 BKN005 15/15 Q1015=
201911100800 METAR LRTC 100800Z 12011KT 9000 BKN004 BKN006 16/15 Q1015=
201911100830 METAR LRTC 100830Z 13012KT 9999 BKN007 BKN010 17/15 Q1015=
201911100900 METAR LRTC 100900Z 13015KT 9999 BKN009 17/15 Q1014=
201911100930 METAR LRTC 100930Z 13016KT 9999 SCT009 18/15 Q1014=
201911101000 METAR LRTC 101000Z 13017KT 9999 FEW010 18/14 Q1013=
201911101030 METAR LRTC 101030Z 13017KT 9999 FEW010 18/14 Q1013=
201911101100 METAR LRTC 101100Z 13015KT 9999 FEW010 18/15 Q1013=
201911101130 METAR LRTC 101130Z 14016KT 9999 FEW010 19/15 Q1013=
201911101200 METAR LRTC 101200Z 14016KT 9999 FEW016 19/14 Q1012=
201911101230 METAR LRTC 101230Z 14017KT 9999 FEW015 18/15 Q1012=
201911101300 METAR LRTC 101300Z 14015KT 9999 FEW014 18/15 Q1012=
201911101330 METAR LRTC 101330Z 13014KT 9999 FEW011 18/15 Q1012=
201911101400 METAR LRTC 101400Z 13012KT 9999 FEW012 17/15 Q1012=
201911101430 METAR LRTC 101430Z 12012KT 9999 FEW012 16/15 Q1012=
201911101500 METAR LRTC 101500Z 13014KT 8000 NSC 16/15 Q1012=
201911101530 METAR LRTC 101530Z 14012KT 6000 NSC 16/15 Q1013=
201911101600 METAR LRTC 101600Z 14014KT 6000 NSC 16/15 Q1013=
201911101630 METAR LRTC 101630Z 13007KT 6000 NSC 15/14 Q1013=
201911101700 METAR LRTC 101700Z VRB02KT 5000 BR FEW010 15/14 Q1013=
201911101730 METAR LRTC 101730Z VRB02KT 7000 SCT010 15/14 Q1013=
201911101800 METAR LRTC 101800Z AUTO 15006KT 5000 BR NCD 15/14 Q1013=
201911101830 METAR LRTC 101830Z AUTO 14005KT 100V180 5000 BR NCD 15/14
                        Q1013=
201911101900 METAR LRTC 101900Z AUTO 15008KT 120V180 6000 FEW075/// 15/14
                        Q1013=
201911101930 METAR LRTC 101930Z AUTO 16005KT 6000 SCT060/// BKN075///
                        15/14 Q1014=
201911102000 METAR LRTC 102000Z AUTO 15006KT 5000 BR BKN060/// BKN080///
                        16/14 Q1014=
201911102030 METAR LRTC 102030Z AUTO 12008KT 5000 BR BKN060/// BKN075///
                        16/14 Q1014=
201911102100 METAR LRTC 102100Z AUTO 13006KT 5000 BR FEW046/// BKN065///
                        BKN100/// 16/14 Q1013=
201911102130 METAR LRTC 102130Z AUTO 16006KT 5000 BR BKN044/// BKN050///
                        16/14 Q1014=
201911102200 METAR LRTC 102200Z AUTO 14005KT 5000 -SHRA FEW042/// SCT050///
                        BKN075/// 16/14 Q1014=
201911102230 METAR LRTC 102230Z AUTO 13008KT 4600 FEW050/// SCT070///
                        15/14 Q1014 RERA=
201911102300 METAR LRTC 102300Z AUTO 14004KT 110V180 6000 FEW039/// 15/14
                        Q1014=
201911102330 METAR LRTC 102330Z AUTO 16003KT 5000 BR FEW060/// 15/13 Q1014=
201911110000 METAR LRTC 110000Z AUTO 16005KT 4600 BR SCT065/// 14/13 Q1014=
201911110030 METAR LRTC 110030Z AUTO 15007KT 4800 BR NCD 13/12 Q1014=
201911110100 METAR LRTC 110100Z AUTO 17006KT 4200 BR NCD 12/11 Q1014=
201911110130 METAR LRTC 110130Z AUTO 21008KT 3600 BR NCD 12/11 Q1015=
201911110200 METAR LRTC 110200Z AUTO 21005KT 190V260 8000 NCD 13/11 Q1015=
201911110230 METAR LRTC 110230Z AUTO 21007KT 6000 NCD 12/11 Q1015=
201911110300 METAR LRTC 110300Z AUTO 23006KT 7000 NCD 12/10 Q1015=
201911110330 METAR LRTC 110330Z AUTO 23013KT 9999 NCD 13/10 Q1015=
201911110400 METAR LRTC 110400Z AUTO 21010KT 9999 NCD 13/09 Q1015=
201911110430 METAR LRTC 110430Z AUTO 30004KT 250V350 9999 NCD 12/09 Q1016=
201911110500 METAR LRTC 110500Z AUTO 19005KT 160V220 9999 NCD 12/08 Q1016=
201911110530 METAR LRTC 110530Z AUTO 22005KT 190V250 9999 NCD 12/08 Q1016=
201911110600 METAR LRTC 110600Z 07003KT 340V150 CAVOK 13/09 Q1017 R16/CLRD//=
201911110630 METAR LRTC 110630Z 25011KT CAVOK 13/09 Q1017=
201911110700 METAR LRTC 110700Z 25018KT CAVOK 14/09 Q1017=
201911110730 METAR LRTC 110730Z 26015KT CAVOK 15/09 Q1017=
201911110800 METAR LRTC 110800Z 26016KT CAVOK 16/09 Q1017=
201911110830 METAR LRTC 110830Z 27010KT CAVOK 17/09 Q1018=
201911110900 METAR LRTC 110900Z 25011KT CAVOK 18/09 Q1018=
201911110930 METAR LRTC 110930Z 24010KT CAVOK 18/09 Q1018=
201911111000 METAR LRTC 111000Z 24011KT CAVOK 19/09 Q1018=
201911111030 METAR LRTC 111030Z 26013KT CAVOK 19/08 Q1018=
201911111100 METAR LRTC 111100Z 24014KT CAVOK 19/08 Q1018=
201911111130 METAR LRTC 111130Z 25014KT CAVOK 19/08 Q1017=
201911111200 METAR LRTC 111200Z 25012KT CAVOK 20/07 Q1017=
201911111230 METAR LRTC 111230Z 25011KT CAVOK 20/07 Q1018=
201911111300 METAR LRTC 111300Z 24009KT CAVOK 20/07 Q1018=
201911111330 METAR LRTC 111330Z 25009KT CAVOK 19/06 Q1018=
201911111400 METAR LRTC 111400Z 24007KT CAVOK 18/06 Q1018=
201911111430 METAR LRTC 111430Z 24008KT CAVOK 16/07 Q1018=
201911111500 METAR LRTC 111500Z 26006KT CAVOK 15/06 Q1018=
201911111530 METAR LRTC 111530Z VRB01KT CAVOK 13/06 Q1018=
201911111600 METAR LRTC 111600Z 25003KT CAVOK 15/06 Q1019=
201911111630 METAR LRTC 111630Z 12002KT CAVOK 13/06 Q1019=
201911111700 METAR LRTC 111700Z 19003KT 160V240 CAVOK 11/05 Q1019=
201911111730 METAR LRTC 111730Z 22003KT CAVOK 12/06 Q1019=
201911111800 METAR LRTC 111800Z AUTO 23002KT 9999 NCD 12/06 Q1019=
201911111830 METAR LRTC 111830Z AUTO 09002KT 070V130 9999 NCD 09/05 Q1020=
201911111900 METAR LRTC 111900Z AUTO 05002KT 9000 NCD 10/06 Q1020=
201911111930 METAR LRTC 111930Z AUTO 06003KT 8000 NCD 10/06 Q1020=
201911112000 METAR LRTC 112000Z AUTO 02002KT 350V050 9000 NCD 10/06 Q1020=
201911112030 METAR LRTC 112030Z AUTO VRB01KT 8000 NCD 08/04 Q1020=
201911112100 METAR LRTC 112100Z AUTO VRB01KT 7000 NCD 06/03 Q1020=
201911112130 METAR LRTC 112130Z AUTO VRB01KT 8000 NCD 10/06 Q1020=
201911112200 METAR LRTC 112200Z AUTO 25002KT 9999 NCD 08/06 Q1020=
201911112230 METAR LRTC 112230Z AUTO 01001KT 9000 NCD 05/03 Q1020=
201911112300 METAR LRTC 112300Z AUTO 14002KT 8000 NCD 06/04 Q1020=
201911112330 METAR LRTC 112330Z AUTO 22004KT 7000 NCD 05/04 Q1020=
201911120000 METAR LRTC 120000Z AUTO 04005KT 7000 NCD 03/02 Q1020=
201911120030 METAR LRTC 120030Z AUTO 05002KT 020V080 8000 NCD 05/04 Q1020=
201911120100 METAR LRTC 120100Z AUTO 02002KT 360V060 8000 NCD 07/05 Q1021=
201911120130 METAR LRTC 120130Z AUTO 32002KT 270V340 7000 FEW050/// 05/04
                        Q1020=
201911120200 METAR LRTC 120200Z AUTO 11001KT 6000 BKN050/// 06/04 Q1020=
201911120230 METAR LRTC 120230Z AUTO 00000KT 8000 FEW050/// 06/04 Q1020=
201911120300 METAR LRTC 120300Z AUTO 28002KT 260V320 7000 FEW050/// 06/05
                        Q1020=
201911120330 METAR LRTC 120330Z AUTO 03003KT 8000 NCD 05/04 Q1020=
201911120400 METAR LRTC 120400Z AUTO 05003KT 9000 FEW004/// 06/05 Q1020=
201911120430 METAR LRTC 120430Z AUTO 00000KT 6000 BKN003/// OVC005///
                        06/05 Q1021=
201911120500 METAR LRTC 120500Z AUTO VRB01KT 7000 BKN002/// 06/05 Q1021=
201911120530 METAR LRTC 120530Z AUTO 24003KT 8000 FEW002/// 07/05 Q1021=
201911120600 METAR LRTC 120600Z 27003KT 2400 BR FEW001 09/08 Q1021 R16/CLRD//=
201911120630 METAR LRTC 120630Z 22003KT 0100 R34/1300D FG FEW001 09/09
                        Q1021=
201911120700 METAR LRTC 120700Z VRB02KT 0500 R34/0150N FG BKN001 11/10
                        Q1021=
201911120730 METAR LRTC 120730Z 19004KT 160V220 0200 R34/0175N FG BKN001
                        11/11 Q1021=
201911120800 METAR LRTC 120800Z 16003KT 140V200 0100 R34/0300N FG BKN001
                        11/11 Q1021=
201911120830 METAR LRTC 120830Z 19003KT 150V220 1200 R34/1800U BR FEW001
                        12/12 Q1021=
201911120900 METAR LRTC 120900Z 15005KT 110V210 CAVOK 15/14 Q1021=
201911120930 METAR LRTC 120930Z 12008KT CAVOK 18/12 Q1021=
201911121000 METAR LRTC 121000Z 12010KT CAVOK 19/11 Q1021=
201911121030 METAR LRTC 121030Z 12009KT CAVOK 20/10 Q1020=
201911121100 METAR LRTC 121100Z 12009KT 090V150 CAVOK 20/10 Q1020=
201911121130 METAR LRTC 121130Z 13008KT 110V170 CAVOK 20/10 Q1020=
201911121200 METAR LRTC 121200Z 13013KT CAVOK 20/09 Q1020=
201911121230 METAR LRTC 121230Z 13014KT CAVOK 20/09 Q1019=
201911121300 METAR LRTC 121300Z 13013KT CAVOK 19/10 Q1019=
201911121330 METAR LRTC 121330Z 13012KT CAVOK 18/12 Q1019=
201911121400 METAR LRTC 121400Z 12011KT CAVOK 17/13 Q1019=
201911121430 METAR LRTC 121430Z 12009KT CAVOK 15/13 Q1019=
201911121500 METAR LRTC 121500Z 12006KT 8000 FEW005 14/13 Q1019=
201911121530 METAR LRTC 121530Z 11005KT 6000 FEW008 14/13 Q1019=
201911121600 METAR LRTC 121600Z 11007KT 9000 FEW008 13/12 Q1019=
201911121630 METAR LRTC 121630Z 13004KT 080V160 9000 FEW008 13/12 Q1020=
201911121700 METAR LRTC 121700Z 10007KT 9000 NSC 14/13 Q1020=
201911121730 METAR LRTC 121730Z 10006KT 9000 NSC 14/13 Q1020=
201911121800 METAR LRTC 121800Z AUTO 08004KT 020V130 9999 NCD 14/13 Q1020=
201911121830 METAR LRTC 121830Z AUTO 07003KT 350V130 9000 NCD 14/13 Q1020=
201911121900 METAR LRTC 121900Z AUTO 07005KT 020V100 5000 BR NCD 13/12
                        Q1019=
201911121930 METAR LRTC 121930Z AUTO 08008KT 4500 BR NCD 14/13 Q1019=
201911122000 METAR LRTC 122000Z AUTO 10006KT 5000 BR NCD 14/13 Q1019=
201911122030 METAR LRTC 122030Z AUTO 09007KT 6000 NCD 13/13 Q1019=
201911122100 METAR LRTC 122100Z AUTO VRB01KT 7000 NCD 13/13 Q1019=
201911122130 METAR LRTC 122130Z AUTO 09005KT 060V130 6000 NCD 13/12 Q1019=
201911122200 METAR LRTC 122200Z AUTO 09004KT 7000 NCD 13/12 Q1019=
201911122230 METAR LRTC 122230Z AUTO 10005KT 8000 NCD 13/12 Q1019=
201911122300 METAR LRTC 122300Z AUTO 09006KT 8000 NCD 13/12 Q1019=
201911122330 METAR LRTC 122330Z AUTO 10008KT 8000 NCD 13/12 Q1018=
201911130000 METAR LRTC 130000Z AUTO 09005KT 7000 NCD 13/12 Q1018=
201911130030 METAR LRTC 130030Z AUTO 08005KT 6000 NCD 12/11 Q1018=
201911130100 METAR LRTC 130100Z AUTO 05005KT 6000 NCD 12/11 Q1017=
201911130130 METAR LRTC 130130Z AUTO 07008KT 6000 NCD 13/12 Q1017=
201911130200 METAR LRTC 130200Z AUTO 08008KT 6000 NCD 13/12 Q1017=
201911130230 METAR LRTC 130230Z AUTO 07007KT 6000 NCD 13/12 Q1017=
201911130300 METAR LRTC 130300Z AUTO VRB03KT 8000 NCD 13/12 Q1017=
201911130330 METAR LRTC 130330Z AUTO 08008KT 6000 NCD 12/11 Q1017=
201911130400 METAR LRTC 130400Z AUTO 08007KT 5000 BR NCD 12/11 Q1017=
201911130430 METAR LRTC 130430Z AUTO 08008KT 5000 BR NCD 12/11 Q1017=
201911130500 METAR LRTC 130500Z AUTO 09009KT 5000 BR NCD 12/11 Q1017=
201911130530 METAR LRTC 130530Z AUTO 09011KT 7000 NCD 12/11 Q1016=
201911130600 METAR LRTC 130600Z 09011KT 8000 FEW018 13/12 Q1016 R16/29//95=
201911130630 METAR LRTC 130630Z 09009KT 9000 BKN016 14/13 Q1016 R16/29//95=
201911130700 METAR LRTC 130700Z 11008KT 9000 OVC015 15/13 Q1016 R16/29//95=
201911130730 METAR LRTC 130730Z 10010KT 9000 OVC015 15/13 Q1016 R16/29//95=
201911130800 METAR LRTC 130800Z 11010KT 9000 OVC014 15/13 Q1016 R16/29//95=
201911130830 METAR LRTC 130830Z 10010KT 9000 OVC014 16/14 Q1016 R16/29//95=
201911130900 METAR LRTC 130900Z 11009KT 9000 OVC013 16/14 Q1016 R16/29//95=
201911130930 METAR LRTC 130930Z 12010KT 9999 OVC014 16/14 Q1016 R16/29//95=
201911131000 METAR LRTC 131000Z 13011KT 9999 OVC016 17/14 Q1016 R16/29//95=
201911131030 METAR LRTC 131030Z 11013KT 9999 BKN017 17/14 Q1015 R16/29//95=
201911131100 METAR LRTC 131100Z 12014KT 9999 SCT013 19/14 Q1015 R16/CLRD//=
201911131130 METAR LRTC 131130Z 12016KT 9999 FEW016 19/14 Q1015=
201911131200 METAR LRTC 131200Z 11014KT 9999 FEW016 19/13 Q1014=
201911131230 METAR LRTC 131230Z 12016KT 9999 FEW016 18/14 Q1014=
201911131300 METAR LRTC 131300Z 12016KT 9999 FEW016 17/13 Q1014=
201911131330 METAR LRTC 131330Z 12014KT 9999 FEW014 17/13 Q1014=
201911131400 METAR LRTC 131400Z AUTO 12014KT 9999 NCD 16/13 Q1015=
201911131430 METAR LRTC 131430Z AUTO 12011KT 8000 NCD 16/13 Q1015=
201911131500 METAR LRTC 131500Z AUTO 11006KT 8000 NCD 15/13 Q1015=
201911131530 METAR LRTC 131530Z AUTO 08002KT 010V120 9000 NCD 14/13 Q1015=
201911131600 METAR LRTC 131600Z AUTO 08007KT 9000 NCD 14/12 Q1015=
201911131630 METAR LRTC 131630Z AUTO 09005KT 8000 NCD 14/12 Q1015=
201911131700 METAR LRTC 131700Z AUTO 08007KT 8000 NCD 14/12 Q1015=
201911131730 METAR LRTC 131730Z AUTO 09008KT 7000 NCD 14/12 Q1015=
201911131800 METAR LRTC 131800Z AUTO VRB01KT 6000 NCD 14/12 Q1015=
201911131830 METAR LRTC 131830Z AUTO 11003KT 080V140 6000 NCD 13/12 Q1015=
201911131900 METAR LRTC 131900Z AUTO 13005KT 5000 BR NCD 13/12 Q1015=
201911131930 METAR LRTC 131930Z AUTO VRB01KT 4700 BR NCD 13/12 Q1015=
201911132000 METAR LRTC 132000Z AUTO 09006KT 5000 BR NCD 12/11 Q1015=
201911132030 METAR LRTC 132030Z AUTO 09005KT 5000 BR NCD 12/11 Q1015=
201911132100 METAR LRTC 132100Z AUTO 08005KT 5000 BR NCD 12/11 Q1015=
201911132130 METAR LRTC 132130Z AUTO 09005KT 6000 NCD 12/12 Q1014=
201911132200 METAR LRTC 132200Z AUTO 09005KT 5000 BR NCD 12/11 Q1014=
201911132230 METAR LRTC 132230Z AUTO 09006KT 7000 NCD 12/11 Q1014=
201911132300 METAR LRTC 132300Z AUTO 09007KT 8000 NCD 12/11 Q1014=
201911132330 METAR LRTC 132330Z AUTO 09008KT 9000 NCD 12/11 Q1014=
201911140000 METAR LRTC 140000Z AUTO 08011KT 7000 NCD 12/11 Q1014=
201911140030 METAR LRTC 140030Z AUTO 08008KT 7000 NCD 12/11 Q1014=
201911140100 METAR LRTC 140100Z AUTO 06005KT 6000 NCD 11/10 Q1014=
201911140130 METAR LRTC 140130Z AUTO 06007KT 6000 NCD 11/10 Q1014=
201911140200 METAR LRTC 140200Z AUTO 08007KT 6000 BKN010/// BKN013///
                        12/11 Q1014=
201911140230 METAR LRTC 140230Z AUTO 09008KT 4100 BR FEW012/// BKN015///
                        12/11 Q1014=
201911140300 METAR LRTC 140300Z AUTO 08007KT 5000 BR BKN013/// BKN017///
                        12/12 Q1014=
201911140330 METAR LRTC 140330Z AUTO 08008KT 8000 BKN014/// 13/12 Q1014=
201911140400 METAR LRTC 140400Z AUTO 08006KT 7000 BKN015/// BKN018///
                        13/11 Q1014=
201911140430 METAR LRTC 140430Z AUTO 04003KT 360V110 7000 BKN015/// OVC018///
                        13/11 Q1014=
201911140500 METAR LRTC 140500Z AUTO 06003KT 010V110 7000 SCT016/// BKN019///
                        13/11 Q1014=
201911140530 METAR LRTC 140530Z AUTO 01005KT 7000 SCT019/// OVC022///
                        13/11 Q1014=
201911140600 METAR LRTC 140600Z 01005KT 9999 4900N BR OVC020 12/12 Q1014
                        R16/19//95=
201911140630 METAR LRTC 140630Z 03008KT 8000 FEW010 OVC020 13/12 Q1014
                        R16/19//95=
201911140700 METAR LRTC 140700Z 05006KT 9000 FEW010 BKN020 13/12 Q1015
                        R16/19//95=
201911140730 METAR LRTC 140730Z 04010KT 7000 SCT010 OVC020 13/12 Q1014
                        R16/19//95=
201911140800 METAR LRTC 140800Z 06010KT 9999 OVC020 14/12 Q1014 R16/19//95=
201911140830 METAR LRTC 140830Z 05010KT 9999 BKN024 14/12 Q1014 R16/CLRD//=
201911140900 METAR LRTC 140900Z 05012KT 9999 FEW015 BKN025 14/12 Q1014=
201911140930 METAR LRTC 140930Z 06013KT 9999 SCT027 15/12 Q1014=
201911141000 METAR LRTC 141000Z 06013KT 9999 FEW015 BKN025 16/11 Q1014=
201911141030 METAR LRTC 141030Z 07012KT 9999 SCT018 BKN026 16/11 Q1014=
201911141100 METAR LRTC 141100Z 07013KT 9999 FEW020 BKN030 16/11 Q1013=
201911141130 METAR LRTC 141130Z 07012KT 9999 FEW020 SCT030 16/10 Q1014=
201911141200 METAR LRTC 141200Z 07010KT 9999 FEW020 BKN030 16/11 Q1014=
201911141230 METAR LRTC 141230Z 08010KT 9999 BKN035 16/11 Q1014=
201911141300 METAR LRTC 141300Z 06011KT 9999 BKN035 16/11 Q1013=
201911141330 METAR LRTC 141330Z 06012KT 9999 SCT030 16/10 Q1013=
201911141400 METAR LRTC 141400Z AUTO 06011KT 9999 FEW190/// 15/10 Q1013=
201911141430 METAR LRTC 141430Z AUTO 06010KT 9999 BKN180/// 14/10 Q1013=
201911141500 METAR LRTC 141500Z AUTO 05011KT 9999 BKN160/// 14/11 Q1013=
201911141530 METAR LRTC 141530Z AUTO 05011KT 9999 BKN180/// 13/11 Q1013=
201911141600 METAR LRTC 141600Z AUTO 05010KT 9999 SCT190/// 13/10 Q1014=
201911141630 METAR LRTC 141630Z AUTO 05009KT 9999 SCT180/// 13/10 Q1014=
201911141700 METAR LRTC 141700Z AUTO 05008KT 9999 FEW015/// BKN029///
                        13/11 Q1014=
201911141730 METAR LRTC 141730Z AUTO 05010KT 9999 SCT029/// BKN033///
                        BKN220/// 13/11 Q1014=
201911141800 METAR LRTC 141800Z AUTO 04009KT 9999 BKN030/// 13/11 Q1014=
201911141830 METAR LRTC 141830Z AUTO 04010KT 9999 BKN029/// 13/11 Q1014=
201911141900 METAR LRTC 141900Z AUTO 04009KT 9999 BKN028/// OVC032///
                        13/11 Q1014=
201911141930 METAR LRTC 141930Z AUTO 04009KT 9999 BKN029/// OVC033///
                        13/11 Q1014=
201911142000 METAR LRTC 142000Z AUTO 04008KT 9999 FEW025/// OVC031///
                        13/11 Q1014=
201911142030 METAR LRTC 142030Z AUTO 03006KT 9999 BKN029/// OVC033///
                        13/11 Q1014=
201911142100 METAR LRTC 142100Z AUTO 03008KT 9999 FEW025/// OVC031///
                        13/11 Q1014=
201911142130 METAR LRTC 142130Z AUTO 02007KT 9999 BKN025/// OVC030///
                        13/11 Q1014=
201911142200 METAR LRTC 142200Z AUTO 02008KT 9999 FEW023/// OVC031///
                        13/11 Q1014=
201911142230 METAR LRTC 142230Z AUTO 35006KT 9999 BKN029/// BKN034///
                        13/11 Q1014=
201911142300 METAR LRTC 142300Z AUTO 03006KT 9999 OVC028/// 13/11 Q1014=
201911142330 METAR LRTC 142330Z AUTO 02007KT 9999 OVC027/// 13/11 Q1014=
201911150000 METAR LRTC 150000Z AUTO 04005KT 9999 BKN023/// OVC027///
                        13/11 Q1015=
201911150030 METAR LRTC 150030Z AUTO 04008KT 9000 RA FEW022/// SCT031///
                        BKN070/// 13/12 Q1014=
201911150100 METAR LRTC 150100Z AUTO 03009KT 9999 -SHRA BKN085/// BKN100///
                        13/12 Q1014=
201911150130 METAR LRTC 150130Z AUTO 01009KT 9999 -SHRA BKN090/// 13/12
                        Q1014=
201911150200 METAR LRTC 150200Z AUTO 05008KT 010V090 9999 FEW006/// SCT023///
                        BKN100/// 12/11 Q1014 REDZ=
201911150230 METAR LRTC 150230Z AUTO 05008KT 9999 FEW014/// SCT017///
                        BKN025/// 12/11 Q1015=
201911150300 METAR LRTC 150300Z AUTO 36009KT 9999 FEW014/// SCT026///
                        BKN030/// 12/11 Q1015=
201911150330 METAR LRTC 150330Z AUTO 04006KT 9999 FEW022/// BKN026///
                        OVC030/// 12/11 Q1015=
201911150400 METAR LRTC 150400Z AUTO 04006KT 9000 FEW019/// SCT027///
                        BKN031/// 13/12 Q1015=
201911150430 METAR LRTC 150430Z AUTO 05008KT 8000 FEW020/// BKN025///
                        BKN032/// 13/12 Q1015=
201911150500 METAR LRTC 150500Z AUTO 06009KT 8000 FEW007/// SCT018///
                        BKN028/// 13/12 Q1015 REDZ=
201911150530 METAR LRTC 150530Z AUTO 07005KT 030V090 7000 FEW004/// BKN007///
                        BKN025/// 13/12 Q1015 RERA=
201911150600 METAR LRTC 150600Z 06006KT 030V090 4500 BR BKN005 BKN030
                        14/13 Q1015 R16/29//95=
201911150630 METAR LRTC 150630Z 20006KT 130V250 4500 VCSH BR BKN005 SCT030
                        FEW035CB 14/13 Q1016 R16/29//95=
201911150700 METAR LRTC 150700Z 26003KT 230V320 5000 BR BKN006 SCT045
                        15/14 Q1016 R16/29//95=
201911150730 METAR LRTC 150730Z 16003KT 130V190 7000 SCT012 SCT036 15/14
                        Q1016 R16/29//95=
201911150800 METAR LRTC 150800Z VRB02KT 6000 FEW005 SCT015 16/15 Q1016
                        R16/29//95=
201911150830 METAR LRTC 150830Z 15003KT 120V180 7000 FEW008 SCT012 16/14
                        Q1017 R16/29//95=
201911150900 METAR LRTC 150900Z 13003KT 7000 -SHRA SCT007 SCT012 SCT024CB
                        16/15 Q1017 RESHRA R16/29//95=
201911150930 METAR LRTC 150930Z 20003KT 8000 FEW030CB BKN040 16/15 Q1017
                        R16/29//95=
201911151000 METAR LRTC 151000Z VRB02KT 9999 FEW012 FEW035CB BKN045 17/14
                        Q1017 R16/29//95=
201911151030 METAR LRTC 151030Z VRB01KT 9999 SCT041 SCT049 17/14 Q1017
                        R16/29//95=
201911151100 METAR LRTC 151100Z 00000KT 9999 SCT049 17/15 Q1017 R16/29//95=
201911151130 METAR LRTC 151130Z VRB01KT 9999 FEW035 SCT045 18/15 Q1017
                        R16/29//95=
201911151200 METAR LRTC 151200Z VRB02KT 9999 FEW048 18/14 Q1017 R16/29//95=
201911151230 METAR LRTC 151230Z 15005KT 9999 SCT045 18/14 Q1017 R16/29//95=
201911151300 METAR LRTC 151300Z 14008KT 9999 FEW032CB 18/14 Q1017 R16/29//95=
201911151330 METAR LRTC 151330Z 14007KT 9999 FEW032CB SCT049 18/14 Q1017
                        R16/29//95=
201911151400 METAR LRTC 151400Z AUTO 19007KT 150V220 9999 BKN047/// 17/13
                        Q1018=
201911151430 METAR LRTC 151430Z AUTO 24005KT 9000 FEW020/// BKN024///
                        BKN050/// 16/14 Q1018=
201911151500 METAR LRTC 151500Z AUTO 26008KT 9000 FEW030/// SCT055///
                        15/13 Q1019=
201911151530 METAR LRTC 151530Z AUTO 27009KT 8000 NCD 14/12 Q1019=
201911151600 METAR LRTC 151600Z AUTO 31004KT 270V330 6000 NCD 13/11 Q1019=
201911151630 METAR LRTC 151630Z AUTO 10002KT 080V170 5000 BR NCD 12/11
                        Q1019=
201911151700 METAR LRTC 151700Z AUTO 12002KT 5000 BR NCD 13/12 Q1020=
201911151730 METAR LRTC 151730Z AUTO 00000KT 3600 R34/1500VP2000U BR NCD
                        12/11 Q1020=
201911151800 METAR LRTC 151800Z AUTO VRB01KT 3900 R34/2000 BR NCD 12/12
                        Q1020=
201911151830 METAR LRTC 151830Z AUTO 26004KT 1500 R34/0800VP2000U BCFG
                        NCD 11/10 Q1020=
201911151900 METAR LRTC 151900Z AUTO 26003KT 0800 R34/1000D FG SCT027///
                        11/11 Q1021=
201911151930 METAR LRTC 151930Z AUTO 25005KT 230V320 0250 R34/0275N FG
                        FEW004/// 08/08 Q1021=
201911152000 METAR LRTC 152000Z AUTO 28004KT 1100 R34/0900V2000U FG VV002
                        09/09 Q1021=
201911152030 METAR LRTC 152030Z AUTO 03002KT 300V070 0350 R34/0300V0500N
                        -SN VV001 08/07 Q1021=
201911152100 METAR LRTC 152100Z AUTO 08004KT 0300 R34/0325N -SN VV001
                        08/07 Q1021=
201911152130 METAR LRTC 152130Z AUTO 12002KT 0150 R34/0175N -SN VV001
                        09/09 Q1021=
201911152200 METAR LRTC 152200Z AUTO 26003KT 0500 R34/0650N -SN VV001
                        07/07 Q1022=
201911152230 METAR LRTC 152230Z AUTO VRB01KT 0450 R34/0500N -SN VV001
                        07/07 Q1021=
201911152300 METAR LRTC 152300Z AUTO 00000KT 0200 R34/0225N SN VV001 07/07
                        Q1022=
201911152330 METAR LRTC 152330Z AUTO 17001KT 0200 R34/0250N -SN VV001
                        07/07 Q1022=
201911160000 METAR LRTC 160000Z AUTO 27002KT 0300 R34/0325N -SN VV001
                        07/06 Q1022=
201911160030 METAR LRTC 160030Z AUTO 29002KT 250V320 0150 R34/0200N SN
                        VV001 07/06 Q1022=
201911160100 METAR LRTC 160100Z AUTO 00000KT 0500 R34/0650N -SN VV001
                        06/06 Q1022=
201911160130 METAR LRTC 160130Z AUTO 00000KT 0250 R34/0300N -SN VV001
                        06/06 Q1022=
201911160200 METAR LRTC 160200Z AUTO 06001KT 0200 R34/0225N +SN VV001
                        06/06 Q1023=
201911160230 METAR LRTC 160230Z AUTO 05001KT 0350 R34/0325V0500D SN VV001
                        07/06 Q1023=
201911160300 METAR LRTC 160300Z AUTO 28002KT 210V310 0200 R34/0250N -SN
                        VV001 07/07 Q1022=
201911160330 METAR LRTC 160330Z AUTO 00000KT 0200 R34/0225N -SN VV001
                        08/07 Q1022=
201911160400 METAR LRTC 160400Z AUTO 00000KT 0200 R34/0225N -SN VV001
                        07/07 Q1023=
201911160430 METAR LRTC 160430Z AUTO 09002KT 060V120 0300 R34/0325N -SN
                        VV001 07/07 Q1023=
201911160500 METAR LRTC 160500Z AUTO 00000KT 0250 R34/0300V0400N SN VV001
                        08/07 Q1023=
201911160530 METAR LRTC 160530Z AUTO 29004KT 0250 R34/0325N -SN VV001
                        09/08 Q1023=
201911160600 METAR LRTC 160600Z AUTO 05002KT 0300 R34/0400N +RA VV001
                        09/08 Q1023=
201911160630 METAR LRTC 160630Z AUTO 09002KT 0300 R34/0375N +RA VV002
                        09/09 Q1023=
201911160700 METAR LRTC 160700Z AUTO 24003KT 200V260 1900 R34/1100VP2000U
                        SCT007/// BKN009/// 11/10 Q1024 RERA=
201911160730 METAR LRTC 160730Z AUTO 18003KT 3100 FEW003/// BKN008///
                        12/12 Q1024 RERA=
201911160800 METAR LRTC 160800Z AUTO 17004KT 3800 BR FEW003/// OVC008///
                        12/12 Q1024=
201911160830 METAR LRTC 160830Z AUTO 15004KT 4600 BR SCT009/// BKN011///
                        13/13 Q1024=
201911160900 METAR LRTC 160900Z AUTO 19005KT 4600 BR FEW006/// BKN008///
                        OVC010/// 14/14 Q1024=
201911160930 METAR LRTC 160930Z AUTO 17008KT 4700 BR FEW007/// BKN010///
                        15/14 Q1024=
201911161000 METAR LRTC 161000Z AUTO 16009KT 7000 FEW007/// BKN010///
                        BKN013/// 16/15 Q1023=
201911161030 METAR LRTC 161030Z AUTO 16010KT 9000 FEW009/// BKN012///
                        16/15 Q1023=
201911161100 METAR LRTC 161100Z AUTO 17008KT 8000 SCT011/// 16/15 Q1023=
201911161130 METAR LRTC 161130Z AUTO 16008KT 9999 FEW011/// 18/15 Q1023=
201911161200 METAR LRTC 161200Z AUTO 15008KT 120V180 9000 NCD 18/14 Q1023=
201911161230 METAR LRTC 161230Z AUTO 15008KT 9999 NCD 18/14 Q1023=
201911161300 METAR LRTC 161300Z AUTO 12009KT 9000 NCD 18/14 Q1023=
201911161330 METAR LRTC 161330Z AUTO 12009KT 8000 NCD 17/15 Q1023=
201911161400 METAR LRTC 161400Z AUTO 13009KT 6000 NCD 16/14 Q1023=
201911161430 METAR LRTC 161430Z AUTO 12007KT 5000 BR NCD 15/14 Q1023=
201911161500 METAR LRTC 161500Z AUTO 13007KT 5000 BR NCD 14/13 Q1023=
201911161530 METAR LRTC 161530Z AUTO 14008KT 4500 BR FEW007/// 15/14 Q1024=
201911161600 METAR LRTC 161600Z AUTO 14008KT 4000 BR FEW011/// 14/13 Q1024=
201911161630 METAR LRTC 161630Z AUTO 13006KT 5000 BR FEW009/// SCT012///
                        14/13 Q1024=
201911161700 METAR LRTC 161700Z AUTO 13007KT 6000 FEW006/// BKN009///
                        15/14 Q1024=
201911161730 METAR LRTC 161730Z AUTO 12007KT 5000 BR FEW003/// SCT010///
                        BKN013/// 14/14 Q1024=
201911161800 METAR LRTC 161800Z AUTO 12008KT 6000 BKN012/// BKN015///
                        15/14 Q1024=
201911161830 METAR LRTC 161830Z AUTO 13005KT 7000 BKN011/// BKN015///
                        15/13 Q1024=
201911161900 METAR LRTC 161900Z AUTO 13006KT 8000 BKN010/// BKN013///
                        14/13 Q1024=
201911161930 METAR LRTC 161930Z AUTO 14009KT 9999 SCT009/// BKN011///
                        14/13 Q1024=
201911162000 METAR LRTC 162000Z AUTO 13007KT 9999 BKN008/// BKN010///
                        14/13 Q1024=
201911162030 METAR LRTC 162030Z AUTO 14006KT 7000 FEW008/// OVC010///
                        14/13 Q1024=
201911162100 METAR LRTC 162100Z AUTO 13007KT 9000 SCT009/// BKN011///
                        14/12 Q1024=
201911162130 METAR LRTC 162130Z AUTO 14007KT 9999 BKN009/// OVC011///
                        14/12 Q1024=
201911162200 METAR LRTC 162200Z AUTO 12008KT 9999 BKN009/// 14/12 Q1024=
201911162230 METAR LRTC 162230Z AUTO 13007KT 9999 OVC009/// 14/12 Q1024=
201911162300 METAR LRTC 162300Z AUTO 12006KT 9999 SCT009/// BKN011///
                        14/12 Q1025=
201911162330 METAR LRTC 162330Z AUTO 11007KT 9999 OVC011/// 14/11 Q1025=
201911170000 METAR LRTC 170000Z AUTO 11007KT 9999 BKN011/// 14/11 Q1025=
201911170030 METAR LRTC 170030Z AUTO 11007KT 9999 OVC011/// 14/11 Q1025=
201911170100 METAR LRTC 170100Z AUTO 11005KT 080V140 9999 BKN011/// 14/11
                        Q1024=
201911170130 METAR LRTC 170130Z AUTO 10006KT 9999 OVC011/// 13/11 Q1024=
201911170200 METAR LRTC 170200Z AUTO 10006KT 9999 BKN011/// BKN014///
                        13/11 Q1024=
201911170230 METAR LRTC 170230Z AUTO 09005KT 9999 OVC013/// 13/11 Q1024=
201911170300 METAR LRTC 170300Z AUTO 09005KT 9999 BKN013/// 13/11 Q1024=
201911170330 METAR LRTC 170330Z AUTO 08005KT 9999 OVC013/// 14/11 Q1025=
201911170400 METAR LRTC 170400Z AUTO 07004KT 9999 BKN014/// 13/11 Q1025=
201911170430 METAR LRTC 170430Z AUTO 08005KT 9999 BKN015/// 13/11 Q1025=
201911170500 METAR LRTC 170500Z AUTO 08005KT 9999 BKN015/// 13/11 Q1025=
201911170530 METAR LRTC 170530Z AUTO 08006KT 9999 BKN014/// OVC017///
                        14/12 Q1025=
201911170600 METAR LRTC 170600Z AUTO 08007KT 9999 BKN014/// BKN017///
                        14/11 Q1025=
201911170630 METAR LRTC 170630Z AUTO 09010KT 9999 BKN013/// BKN016///
                        14/11 Q1025=
201911170700 METAR LRTC 170700Z AUTO 07009KT 9999 BKN013/// BKN018///
                        14/11 Q1025=
201911170730 METAR LRTC 170730Z AUTO 09011KT 9999 BKN012/// OVC015///
                        14/11 Q1025=
201911170800 METAR LRTC 170800Z AUTO 08010KT 9999 BKN013/// OVC016///
                        14/11 Q1025=
201911170830 METAR LRTC 170830Z AUTO 09010KT 9999 SCT012/// OVC015///
                        14/11 Q1025=
201911170900 METAR LRTC 170900Z AUTO 08011KT 9999 BKN014/// OVC017///
                        14/11 Q1025=
201911170930 METAR LRTC 170930Z AUTO 08010KT 9999 BKN015/// OVC018///
                        15/11 Q1025=
201911171000 METAR LRTC 171000Z AUTO 08011KT 9999 BKN015/// OVC018///
                        15/11 Q1024=
201911171030 METAR LRTC 171030Z AUTO 08011KT 9999 BKN016/// OVC019///
                        15/11 Q1024=
201911171100 METAR LRTC 171100Z AUTO 08011KT 9999 BKN016/// BKN019///
                        14/11 Q1024=
201911171130 METAR LRTC 171130Z AUTO 08010KT 9999 BKN016/// OVC020///
                        14/10 Q1024=
201911171200 METAR LRTC 171200Z AUTO 08009KT 9999 SCT015/// OVC018///
                        14/10 Q1024=
201911171230 METAR LRTC 171230Z AUTO 07009KT 9999 BKN015/// BKN019///
                        14/10 Q1024=
201911171300 METAR LRTC 171300Z AUTO 08010KT 9999 BKN016/// OVC019///
                        14/10 Q1024=
201911171330 METAR LRTC 171330Z AUTO 06009KT 9999 BKN017/// OVC020///
                        14/10 Q1023=
201911171400 METAR LRTC 171400Z AUTO 08009KT 9999 OVC018/// 14/10 Q1023=
201911171430 METAR LRTC 171430Z AUTO 08009KT 9999 OVC017/// 14/10 Q1023=
201911171500 METAR LRTC 171500Z AUTO 09009KT 9999 BKN016/// 13/09 Q1023=
201911171530 METAR LRTC 171530Z AUTO 08008KT 9999 OVC016/// 13/09 Q1024=
201911171600 METAR LRTC 171600Z AUTO 07007KT 9999 OVC016/// 13/09 Q1024=
201911171630 METAR LRTC 171630Z AUTO 06007KT 9999 OVC016/// 13/09 Q1024=
201911171700 METAR LRTC 171700Z AUTO 07008KT 9999 OVC016/// 13/09 Q1024=
201911171730 METAR LRTC 171730Z AUTO 07008KT 9999 OVC016/// 13/09 Q1024=
201911171800 METAR LRTC 171800Z AUTO 07007KT 9999 OVC016/// 12/09 Q1024=
201911171830 METAR LRTC 171830Z AUTO 07007KT 9999 OVC015/// 12/09 Q1024=
201911171900 METAR LRTC 171900Z AUTO 08007KT 9999 OVC014/// 12/09 Q1024=
201911171930 METAR LRTC 171930Z AUTO 08007KT 9999 BKN014/// OVC017///
                        12/09 Q1024=
201911172000 METAR LRTC 172000Z AUTO 08010KT 9999 OVC015/// 12/09 Q1023=
201911172030 METAR LRTC 172030Z AUTO 08008KT 9999 BKN015/// 12/09 Q1023=
201911172100 METAR LRTC 172100Z AUTO 09007KT 9999 BKN014/// OVC017///
                        12/09 Q1023=
201911172130 METAR LRTC 172130Z AUTO 08007KT 9999 BKN014/// 12/09 Q1023=
201911172200 METAR LRTC 172200Z AUTO 07008KT 9999 OVC015/// 12/09 Q1023=
201911172230 METAR LRTC 172230Z AUTO 06007KT 9999 BKN016/// BKN019///
                        12/09 Q1023=
201911172300 METAR LRTC 172300Z AUTO 07009KT 9999 BKN017/// OVC020///
                        12/09 Q1022=
201911172330 METAR LRTC 172330Z AUTO 07009KT 9999 BKN018/// 12/09 Q1022=
201911180000 METAR LRTC 180000Z AUTO 07008KT 9999 OVC018/// 12/09 Q1022=
201911180030 METAR LRTC 180030Z AUTO 08010KT 9999 BKN018/// 12/09 Q1022=
201911180100 METAR LRTC 180100Z AUTO 08010KT 9999 BKN018/// 12/09 Q1022=
201911180130 METAR LRTC 180130Z AUTO 07009KT 9999 BKN018/// 12/09 Q1022=
201911180200 METAR LRTC 180200Z AUTO 08009KT 9999 BKN018/// OVC021///
                        12/09 Q1022=
201911180230 METAR LRTC 180230Z AUTO 06009KT 9999 BKN019/// 12/09 Q1022=
201911180300 METAR LRTC 180300Z AUTO 07007KT 9999 BKN019/// OVC022///
                        12/09 Q1022=
201911180330 METAR LRTC 180330Z AUTO 07007KT 9999 BKN018/// BKN021///
                        12/09 Q1022=
201911180400 METAR LRTC 180400Z AUTO 06006KT 9999 BKN019/// OVC022///
                        12/09 Q1022=
201911180430 METAR LRTC 180430Z AUTO 07008KT 9999 SCT019/// BKN022///
                        12/09 Q1022=
201911180500 METAR LRTC 180500Z AUTO 06006KT 9999 SCT021/// OVC025///
                        12/09 Q1022=
201911180530 METAR LRTC 180530Z AUTO 05007KT 9999 SCT023/// BKN029///
                        12/09 Q1022=
201911180600 METAR LRTC 180600Z 06008KT 9999 OVC033 12/09 Q1022 R16/CLRD//=
201911180630 METAR LRTC 180630Z 07004KT 9999 BKN033 13/10 Q1022=
201911180700 METAR LRTC 180700Z 07008KT 9999 OVC033 13/10 Q1022=
201911180730 METAR LRTC 180730Z 07009KT 9999 BKN032 14/10 Q1022=
201911180800 METAR LRTC 180800Z 08011KT 9999 OVC032 15/10 Q1022=
201911180830 METAR LRTC 180830Z 08007KT 9999 OVC031 15/10 Q1022=
201911180900 METAR LRTC 180900Z 10008KT 9999 OVC031 15/11 Q1022=
201911180930 METAR LRTC 180930Z 11008KT 9999 BKN033 16/11 Q1022=
201911181000 METAR LRTC 181000Z 11009KT 9999 FEW021 BKN034 16/11 Q1022=
201911181030 METAR LRTC 181030Z 11010KT 9999 FEW019 BKN035 17/12 Q1021=
201911181100 METAR LRTC 181100Z 13011KT 9999 SCT029 BKN033 16/10 Q1021=
201911181130 METAR LRTC 181130Z 12013KT 9999 BKN033 16/11 Q1021=
201911181200 METAR LRTC 181200Z 12013KT 9999 FEW018 BKN031 16/12 Q1021=
201911181230 METAR LRTC 181230Z 13012KT 9999 FEW018 OVC028 16/12 Q1021=
201911181300 METAR LRTC 181300Z 12013KT 9999 OVC028 16/11 Q1021=
201911181330 METAR LRTC 181330Z 13013KT 9999 OVC026 16/12 Q1021=
201911181400 METAR LRTC 181400Z AUTO 12012KT 9999 OVC027/// 15/12 Q1021=
201911181430 METAR LRTC 181430Z AUTO 12009KT 9999 BKN027/// 15/12 Q1021=
201911181500 METAR LRTC 181500Z AUTO 12010KT 9999 BKN025/// 15/12 Q1022=
201911181530 METAR LRTC 181530Z AUTO 13008KT 9999 SCT024/// 15/12 Q1022=
201911181600 METAR LRTC 181600Z AUTO 13007KT 9999 BKN023/// 14/12 Q1022=
201911181630 METAR LRTC 181630Z AUTO 12009KT 9999 BKN022/// 14/12 Q1022=
201911181700 METAR LRTC 181700Z AUTO 12011KT 9999 BKN022/// 15/12 Q1022=
201911181730 METAR LRTC 181730Z AUTO 11009KT 9999 BKN021/// 15/12 Q1022=
201911181800 METAR LRTC 181800Z AUTO 10006KT 9000 SCT021/// 14/12 Q1022=
201911181830 METAR LRTC 181830Z AUTO 12004KT 9000 BKN020/// 14/12 Q1023=
201911181900 METAR LRTC 181900Z AUTO 12004KT 080V150 9000 BKN019/// BKN022///
                        15/12 Q1023=
201911181930 METAR LRTC 181930Z AUTO 12008KT 9999 BKN021/// 15/12 Q1023=
201911182000 METAR LRTC 182000Z AUTO 12007KT 9000 FEW017/// BKN021///
                        15/12 Q1023=
201911182030 METAR LRTC 182030Z AUTO 12011KT 9999 SCT019/// BKN022///
                        15/12 Q1023=
201911182100 METAR LRTC 182100Z AUTO 13012KT 9999 BKN020/// OVC024///
                        15/12 Q1023=
201911182130 METAR LRTC 182130Z AUTO 13011KT 9999 FEW017/// BKN020///
                        15/12 Q1023=
201911182200 METAR LRTC 182200Z AUTO 13012KT 9999 OVC020/// 15/12 Q1023=
201911182230 METAR LRTC 182230Z AUTO 13010KT 9000 FEW017/// BKN020///
                        15/12 Q1023=
201911182300 METAR LRTC 182300Z AUTO 12009KT 9999 BKN019/// OVC022///
                        15/12 Q1024=
201911182330 METAR LRTC 182330Z AUTO 13008KT 9000 OVC019/// 15/12 Q1024=
201911190000 METAR LRTC 190000Z AUTO 13010KT 9000 SCT019/// OVC022///
                        15/13 Q1024=
201911190030 METAR LRTC 190030Z AUTO 13008KT 9000 BKN018/// OVC021///
                        15/13 Q1024=
201911190100 METAR LRTC 190100Z AUTO 12008KT 8000 FEW018/// OVC021///
                        15/13 Q1024=
201911190130 METAR LRTC 190130Z AUTO 13010KT 9000 FEW015/// BKN018///
                        BKN022/// 15/13 Q1024=
201911190200 METAR LRTC 190200Z AUTO 13012KT 9999 SCT016/// BKN019///
                        OVC022/// 15/13 Q1024=
201911190230 METAR LRTC 190230Z AUTO 13011KT 9999 FEW013/// BKN017///
                        15/12 Q1024=
201911190300 METAR LRTC 190300Z AUTO 13010KT 9000 FEW012/// SCT015///
                        BKN018/// 15/13 Q1024=
201911190330 METAR LRTC 190330Z AUTO 12011KT 9999 FEW013/// BKN017///
                        OVC020/// 15/13 Q1024=
201911190400 METAR LRTC 190400Z AUTO 13011KT 9999 SCT019/// BKN023///
                        BKN027/// 15/13 Q1025=
201911190430 METAR LRTC 190430Z AUTO 13010KT 9999 SCT021/// OVC025///
                        15/13 Q1025=
201911190500 METAR LRTC 190500Z AUTO 12010KT 9999 OVC022/// 15/13 Q1025=
201911190530 METAR LRTC 190530Z AUTO 12010KT 9000 OVC023/// 15/13 Q1025=
201911190600 METAR LRTC 190600Z 12009KT 9000 OVC024 15/12 Q1025 R16/CLRD//=
201911190630 METAR LRTC 190630Z 13010KT 9000 OVC024 15/12 Q1025=
201911190700 METAR LRTC 190700Z 12012KT 9000 OVC024 15/12 Q1025=
201911190730 METAR LRTC 190730Z 13010KT 9999 OVC028 15/12 Q1026=
201911190800 METAR LRTC 190800Z 12012KT 9999 BKN024 15/12 Q1026=
201911190830 METAR LRTC 190830Z 12014KT 9999 BKN025 15/12 Q1026=
201911190900 METAR LRTC 190900Z 12015KT 9999 FEW012 BKN024 15/12 Q1026=
201911190930 METAR LRTC 190930Z 13014KT 9999 SCT018 BKN024 15/12 Q1026=
201911191000 METAR LRTC 191000Z 12015KT 9999 FEW015 BKN018 15/12 Q1025=
201911191030 METAR LRTC 191030Z 12013KT 9999 OVC015 15/12 Q1025=
201911191100 METAR LRTC 191100Z 12012KT 9999 OVC014 15/12 Q1025=
201911191130 METAR COR LRTC 191130Z 11011KT 9999 OVC014 15/12 Q1025=
201911191200 METAR LRTC 191200Z 11011KT 9999 OVC013 14/11 Q1025=
201911191230 METAR LRTC 191230Z 11011KT 9999 OVC013 14/11 Q1025=
201911191300 METAR LRTC 191300Z 11012KT 9000 BKN013 14/11 Q1025=
201911191330 METAR LRTC 191330Z 11012KT 8000 OVC014 14/11 Q1025=
201911191400 METAR LRTC 191400Z AUTO 11013KT 9999 SCT011/// BKN016///
                        BKN050/// 14/11 Q1025=
201911191430 METAR LRTC 191430Z AUTO 10010KT 9000 SCT011/// 13/11 Q1025=
201911191500 METAR LRTC 191500Z AUTO 11011KT 9999 BKN009/// BKN011///
                        13/10 Q1026=
201911191530 METAR LRTC 191530Z AUTO 10011KT 9999 OVC010/// 13/10 Q1026=
201911191600 METAR LRTC 191600Z AUTO 11009KT 9999 BKN010/// 13/10 Q1026=
201911191630 METAR LRTC 191630Z AUTO 11006KT 9999 OVC010/// 13/10 Q1026=
201911191700 METAR LRTC 191700Z AUTO 10006KT 9999 BKN010/// 13/10 Q1026=
201911191730 METAR LRTC 191730Z AUTO 10009KT 9999 BKN010/// 13/10 Q1026=
201911191800 METAR LRTC 191800Z AUTO 10010KT 9000 BKN010/// 13/10 Q1026=
201911191830 METAR LRTC 191830Z AUTO 11011KT 9000 BKN010/// OVC015///
                        13/10 Q1026=
201911191900 METAR LRTC 191900Z AUTO 12010KT 8000 BKN011/// 12/10 Q1026=
201911191930 METAR LRTC 191930Z AUTO 12006KT 8000 BKN011/// BKN016///
                        12/10 Q1026=
201911192000 METAR LRTC 192000Z AUTO 10006KT 8000 BKN011/// 12/10 Q1026=
201911192030 METAR LRTC 192030Z AUTO 10006KT 8000 BKN012/// BKN015///
                        12/10 Q1026=
201911192100 METAR LRTC 192100Z AUTO 10008KT 9000 BKN013/// BKN016///
                        12/10 Q1026=
201911192130 METAR LRTC 192130Z AUTO 10008KT 8000 SCT015/// BKN018///
                        BKN021/// 13/10 Q1026=
201911192200 METAR LRTC 192200Z AUTO 10009KT 9000 BKN019/// BKN022///
                        13/10 Q1026=
201911192230 METAR LRTC 192230Z AUTO 11007KT 9000 FEW013/// BKN020///
                        13/10 Q1026=
201911192300 METAR LRTC 192300Z AUTO 10008KT 8000 FEW019/// OVC022///
                        12/10 Q1026=
201911192330 METAR LRTC 192330Z AUTO 10007KT 9000 FEW018/// BKN021///
                        OVC025/// 12/10 Q1026=
201911200000 METAR LRTC 200000Z AUTO 09008KT 9000 FEW017/// BKN020///
                        BKN024/// 12/10 Q1026=
201911200030 METAR LRTC 200030Z AUTO 08011KT 9999 FEW018/// BKN044///
                        12/09 Q1025=
201911200100 METAR LRTC 200100Z AUTO 11005KT 8000 FEW016/// SCT020///
                        11/09 Q1025=
201911200130 METAR LRTC 200130Z AUTO 12005KT 060V160 9000 SCT010/// BKN016///
                        11/09 Q1025=
201911200200 METAR LRTC 200200Z AUTO 13005KT 090V170 8000 BKN010/// 11/09
                        Q1025=
201911200230 METAR LRTC 200230Z AUTO 10004KT 080V140 7000 SCT011/// 11/09
                        Q1025=
201911200300 METAR LRTC 200300Z AUTO 07002KT 360V120 8000 OVC010/// 11/09
                        Q1025=
201911200330 METAR LRTC 200330Z AUTO 08003KT 350V130 9000 BKN010/// 11/09
                        Q1025=
201911200400 METAR LRTC 200400Z AUTO 09003KT 7000 BKN010/// OVC013///
                        11/09 Q1025=
201911200430 METAR LRTC 200430Z AUTO 11004KT 080V140 6000 SCT012/// OVC015///
                        11/09 Q1025=
201911200500 METAR LRTC 200500Z AUTO 10005KT 7000 BKN013/// OVC016///
                        11/09 Q1025=
201911200530 METAR LRTC 200530Z AUTO 09004KT 8000 FEW012/// OVC015///
                        11/09 Q1025=
201911200600 METAR LRTC 200600Z VRB01KT 8000 BKN015 BKN018 11/09 Q1025
                        R16/CLRD//=
201911200630 METAR LRTC 200630Z 07008KT 8000 BKN012 BKN016 11/09 Q1025=
201911200700 METAR LRTC 200700Z 08008KT 9000 OVC012 12/09 Q1025=
201911200730 METAR LRTC 200730Z 07009KT 9000 OVC012 12/09 Q1025=
201911200800 METAR LRTC 200800Z 09009KT 9999 OVC014 12/09 Q1025=
201911200830 METAR LRTC 200830Z 09009KT 9999 OVC013 12/09 Q1025=
201911200900 METAR LRTC 200900Z 10009KT 9999 OVC014 12/09 Q1025=
201911200930 METAR LRTC 200930Z 10010KT 9999 OVC014 12/09 Q1025=
201911201000 METAR LRTC 201000Z 09011KT 9999 OVC015 12/08 Q1025=
201911201030 METAR LRTC 201030Z 09011KT 9999 OVC014 12/08 Q1025=
201911201100 METAR LRTC 201100Z 09011KT 9999 SCT012 BKN015 11/08 Q1025=
201911201130 METAR LRTC 201130Z 07011KT 9999 SCT012 BKN016 12/08 Q1024=
201911201200 METAR LRTC 201200Z 07012KT 9000 BKN012 SCT016 11/08 Q1024=
201911201230 METAR LRTC 201230Z 07012KT 8000 SCT009 BKN012 11/08 Q1024=
201911201300 METAR LRTC 201300Z 07011KT 9000 FEW012 OVC016 11/08 Q1024=
201911201330 METAR LRTC 201330Z 06012KT 9999 FEW010 OVC015 11/08 Q1024=
201911201400 METAR LRTC 201400Z AUTO 07013KT 9999 SCT014/// OVC017///
                        11/07 Q1024=
201911201430 METAR LRTC 201430Z AUTO 08013KT 9999 BKN017/// BKN020///
                        11/07 Q1024=
201911201500 METAR LRTC 201500Z AUTO 10009KT 9999 BKN016/// OVC020///
                        11/08 Q1024=
201911201530 METAR LRTC 201530Z AUTO 08007KT 9999 BKN014/// 11/08 Q1024=
201911201600 METAR LRTC 201600Z AUTO 08008KT 9999 BKN012/// 11/08 Q1024=
201911201630 METAR LRTC 201630Z AUTO 08011KT 9999 BKN014/// 11/08 Q1024=
201911201700 METAR LRTC 201700Z AUTO 08010KT 9999 OVC014/// 11/08 Q1024=
201911201730 METAR LRTC 201730Z AUTO 08011KT 9999 BKN014/// 11/08 Q1024=
201911201800 METAR LRTC 201800Z AUTO 08012KT 9999 BKN015/// OVC018///
                        11/07 Q1024=
201911201830 METAR LRTC 201830Z AUTO 09012KT 9999 BKN016/// 11/07 Q1024=
201911201900 METAR LRTC 201900Z AUTO 09012KT 9999 OVC018/// 11/07 Q1024=
201911201930 METAR LRTC 201930Z AUTO 08013KT 9000 FEW013/// BKN016///
                        11/08 Q1024=
201911202000 METAR LRTC 202000Z AUTO 09012KT 9999 OVC017/// 11/07 Q1024=
201911202030 METAR LRTC 202030Z AUTO 09014KT 9999 BKN018/// 11/07 Q1024=
201911202100 METAR LRTC 202100Z AUTO 09010KT 9999 OVC018/// 11/07 Q1024=
201911202130 METAR LRTC 202130Z AUTO 09009KT 9999 BKN016/// 11/07 Q1024=
201911202200 METAR LRTC 202200Z AUTO 09013KT 9999 BKN015/// OVC018///
                        11/07 Q1024=
201911202230 METAR LRTC 202230Z AUTO 09012KT 9999 FEW016/// BKN019///
                        11/07 Q1024=
201911202300 METAR LRTC 202300Z AUTO 09014KT 9999 FEW016/// OVC020///
                        11/07 Q1024=
201911202330 METAR LRTC 202330Z AUTO 09011KT 9999 BKN017/// BKN021///
                        11/07 Q1024=
201911210000 METAR LRTC 210000Z AUTO 09011KT 9999 OVC016/// 10/07 Q1024=
201911210030 METAR LRTC 210030Z AUTO 07012KT 9999 FEW018/// BKN022///
                        BKN027/// 10/07 Q1024=
201911210100 METAR LRTC 210100Z AUTO 07010KT 9999 BKN018/// 10/07 Q1024=
201911210130 METAR LRTC 210130Z AUTO 07012KT 7000 BKN017/// 10/07 Q1024=
201911210200 METAR LRTC 210200Z AUTO 07013KT 8000 SCT016/// OVC019///
                        10/07 Q1024=
201911210230 METAR LRTC 210230Z AUTO 07012KT 8000 SCT019/// BKN022///
                        10/07 Q1024=
201911210300 METAR LRTC 210300Z AUTO 07013KT 9000 -SHRA SCT017/// OVC020///
                        10/07 Q1023=
201911210330 METAR LRTC 210330Z AUTO 06011KT 7000 FEW015/// BKN021///
                        10/07 Q1023 REDZ=
201911210400 METAR LRTC 210400Z AUTO 07008KT 7000 BKN014/// OVC017///
                        10/07 Q1024=
201911210430 METAR LRTC 210430Z AUTO 07008KT 9000 BKN015/// BKN018///
                        10/07 Q1024=
201911210500 METAR LRTC 210500Z AUTO 08006KT 9000 OVC015/// 10/07 Q1024=
201911210530 METAR LRTC 210530Z AUTO 09004KT 9999 -RA BKN015/// 10/07
                        Q1024=
201911210600 METAR LRTC 210600Z 07003KT 9999 BKN015 BKN020 10/08 Q1024
                        R16/29//95=
201911210630 METAR LRTC 210630Z 06011KT 8000 SCT015 BKN020 10/07 Q1024
                        R16/29//95=
201911210700 METAR LRTC 210700Z 05010KT 6000 -RA BKN014 BKN024 10/08 Q1024
                        R16/29//95=
201911210730 METAR LRTC 210730Z 05012KT 4500 -RADZ SCT015 SCT020 BKN030
                        10/08 Q1024 R16/29//95=
201911210800 METAR LRTC 210800Z 04012KT 5000 BR BKN012 BKN015 09/08 Q1024
                        R16/29//95=
201911210830 METAR LRTC 210830Z 05013KT 3000 -DZ BR FEW005 BKN010 10/09
                        Q1024 R16/29//95=
201911210900 METAR LRTC 210900Z 06017KT 2400 -DZ BR SCT005 OVC010 10/09
                        Q1024 R16/29//95=
201911210930 METAR LRTC 210930Z 06018KT 1800 -DZ BR FEW005 SCT010 BKN015
                        10/08 Q1024 R16/29//95=
201911211000 METAR LRTC 211000Z 06020KT 2400 -RA BR SCT008 BKN012 09/08
                        Q1024 R16/29//95=
201911211030 METAR LRTC 211030Z 06022KT 4500 BR SCT010 OVC020 09/08 Q1024
                        R16/29//95=
201911211100 METAR LRTC 211100Z 07022KT 4000 BR BKN010 BKN015 09/08 Q1024
                        R16/29//95=
201911211130 METAR LRTC 211130Z 07021KT 9000 BKN010 BKN020 09/07 Q1024
                        R16/29//95=
201911211200 METAR LRTC 211200Z 06018KT 5000 -DZ SCT010 BKN015 08/07 Q1024
                        R16/29//95=
201911211230 METAR LRTC 211230Z 06014KT 3000 -DZ BR FEW008 SCT012 BKN020
                        08/07 Q1024 R16/29//95=
201911211300 METAR LRTC 211300Z 05012KT 7000 BKN010 BKN016 08/06 Q1025
                        R16/29//95=
201911211330 METAR LRTC 211330Z 06012KT 9000 -RA BKN010 BKN016 08/06 Q1025
                        R16/29//95=
201911211400 METAR LRTC 211400Z AUTO 05012KT 9999 -RA BKN014/// OVC017///
                        08/06 Q1025=
201911211430 METAR LRTC 211430Z AUTO 06015KT 9999 -RA BKN016/// OVC019///
                        08/05 Q1025=
201911211500 METAR LRTC 211500Z AUTO 05014KT 8000 BKN017/// OVC020///
                        08/05 Q1025 RERA=
201911211530 METAR LRTC 211530Z AUTO 06018KT 9000 SCT016/// OVC019///
                        07/05 Q1025 REDZ=
201911211600 METAR LRTC 211600Z AUTO 06016KT 9999 SCT018/// OVC021///
                        07/05 Q1025=
201911211630 METAR LRTC 211630Z AUTO 06015KT 9999 -DZ SCT019/// OVC022///
                        07/05 Q1025=
201911211700 METAR LRTC 211700Z AUTO 06019KT 7000 FEW014/// OVC019///
                        07/04 Q1025 REDZ=
201911211730 METAR LRTC 211730Z AUTO 06017KT 8000 OVC018/// 07/04 Q1025
                        REDZ=
201911211800 METAR LRTC 211800Z AUTO 06015KT 7000 BKN018/// OVC021///
                        07/03 Q1026=
201911211830 METAR LRTC 211830Z AUTO 06016KT 7000 BKN019/// OVC024///
                        07/03 Q1026=
201911211900 METAR LRTC 211900Z AUTO 06010KT 7000 BKN019/// OVC023///
                        07/03 Q1026=
201911211930 METAR LRTC 211930Z AUTO 07015KT 7000 FEW017/// OVC020///
                        06/03 Q1026=
201911212000 METAR LRTC 212000Z AUTO 06016KT 7000 SCT020/// OVC024///
                        07/03 Q1026=
201911212030 METAR LRTC 212030Z AUTO 06015KT 8000 BKN023/// OVC027///
                        06/03 Q1026=
201911212100 METAR LRTC 212100Z AUTO 06013KT 8000 BKN023/// BKN027///
                        06/03 Q1026=
201911212130 METAR LRTC 212130Z AUTO 05014KT 7000 BKN023/// OVC027///
                        06/03 Q1026=
201911212200 METAR LRTC 212200Z AUTO 04012KT 8000 SCT023/// BKN027///
                        06/03 Q1026=
201911212230 METAR LRTC 212230Z AUTO 05013KT 9999 SCT025/// OVC029///
                        06/03 Q1026=
201911212300 METAR LRTC 212300Z AUTO 01009KT 9999 BKN024/// 05/03 Q1026=
201911212330 METAR LRTC 212330Z AUTO 05011KT 8000 FEW023/// SCT028///
                        OVC032/// 06/03 Q1026 REUP=
201911220000 METAR LRTC 220000Z AUTO 05014KT 7000 BKN025/// BKN029///
                        06/03 Q1026=
201911220030 METAR LRTC 220030Z AUTO 01010KT 8000 FEW023/// OVC027///
                        04/02 Q1027=
201911220100 METAR LRTC 220100Z AUTO 01015KT 7000 -SHRA FEW006/// BKN027///
                        03/02 Q1026=
201911220130 METAR LRTC 220130Z AUTO 01012KT 9999 -SHRA FEW007/// OVC023///
                        03/02 Q1026=
201911220200 METAR LRTC 220200Z AUTO 01013KT 7000 BKN024/// BKN028///
                        03/02 Q1026 RERA=
201911220230 METAR LRTC 220230Z AUTO 01014KT 7000 SCT019/// BKN023///
                        OVC027/// 03/02 Q1026 RERA=
201911220300 METAR LRTC 220300Z AUTO 02018KT 7000 SCT019/// BKN022///
                        03/01 Q1026=
201911220330 METAR LRTC 220330Z AUTO 02016KT 9000 SCT014/// BKN017///
                        OVC020/// 03/01 Q1026=
201911220400 METAR LRTC 220400Z AUTO 02019KT 6000 SCT010/// BKN013///
                        02/00 Q1026=
201911220430 METAR LRTC 220430Z AUTO 01018KT 8000 -RASN SCT009/// OVC012///
                        00/M02 Q1027=
201911220500 METAR LRTC 220500Z AUTO 01019KT 8000 -FZDZ BKN010/// M01/M03
                        Q1027=
201911220530 METAR LRTC 220530Z AUTO 36018KT 6000 OVC010/// M01/M03 Q1027
                        REFZRA=
201911220600 METAR LRTC 220600Z 01020KT 9999 OVC011 M02/M04 Q1027 R16/29//95=
201911220630 METAR LRTC 220630Z 01019KT 9999 OVC011 M02/M04 Q1027 R16/29//95=
201911220700 METAR LRTC 220700Z 36019KT 9999 BKN012 M02/M04 Q1028 R16/29//95=
201911220730 METAR LRTC 220730Z 01020KT 9999 SCT010 BKN012 M02/M04 Q1027
                        R16/29//95=
201911220800 METAR LRTC 220800Z 36020KT 9999 SCT010 OVC015 M02/M04 Q1027
                        R16/29//95=
201911220830 METAR LRTC 220830Z 36020KT 9999 BKN010 SCT015 M02/M05 Q1028
                        R16/29//95=
201911220900 METAR LRTC 220900Z 36020KT 9999 SCT010 BKN016 M02/M05 Q1027
                        R16/29//95=
201911220930 METAR LRTC 220930Z 36020KT 9000 FEW016 BKN022 M02/M04 Q1027
                        R16/29//95=
201911221000 METAR LRTC 221000Z 36021KT 9000 SCT020 BKN025 M02/M04 Q1027
                        R16/29//95=
201911221030 METAR LRTC 221030Z 36018KT 9999 FEW010 SCT020 BKN030 M02/M04
                        Q1027 R16/29//95=
201911221100 METAR LRTC 221100Z 36020KT 9999 FEW010 OVC028 M01/M04 Q1027
                        R16/29//95=
201911221130 METAR LRTC 221130Z 36018KT 9999 FEW010 SCT025 BKN030 M01/M03
                        Q1027 R16/29//95=
201911221200 METAR LRTC 221200Z 01021KT 9999 FEW010 SCT020 BKN030 M01/M03
                        Q1026 R16/CLRD//=
201911221230 METAR LRTC 221230Z 01021KT 9999 FEW020 OVC030 M01/M03 Q1026=
201911221300 METAR LRTC 221300Z 01021KT 9999 FEW012 BKN028 M01/M04 Q1026=
201911221330 METAR COR LRTC 221330Z 36018KT 9999 SCT010 BKN028 M01/M04
                        Q1026=
201911221400 METAR LRTC 221400Z AUTO 36020KT 7000 OVC010/// M02/M04 Q1027=
201911221430 METAR LRTC 221430Z AUTO 36020KT 9000 SCT010/// BKN026///
                        OVC030/// M02/M04 Q1027=
201911221500 METAR LRTC 221500Z AUTO 36019KT 8000 FEW010/// OVC024///
                        M02/M04 Q1027=
201911221530 METAR LRTC 221530Z AUTO 36019KT 8000 BKN017/// OVC022///
                        M02/M04 Q1027=
201911221600 METAR LRTC 221600Z AUTO 36019KT 6000 OVC015/// M02/M04 Q1027=
201911221630 METAR LRTC 221630Z AUTO 01021KT 6000 OVC014/// M02/M04 Q1027=
201911221700 METAR LRTC 221700Z AUTO 36021KT 5000 BR FEW005/// OVC015///
                        M02/M03 Q1027=
201911221730 METAR LRTC 221730Z AUTO 36020KT 6000 FEW005/// BKN014///
                        M02/M03 Q1027=
201911221800 METAR LRTC 221800Z AUTO 36020KT 6000 FEW005/// OVC016///
                        08/07 Q1026=
201911221830 METAR LRTC 221830Z AUTO 36020KT 7000 SCT005/// BKN017///
                        OVC020/// 08/07 Q1026=
201911221900 METAR LRTC 221900Z AUTO 35019KT 7000 FEW004/// BKN018///
                        M02/M03 Q1026=
201911221930 METAR LRTC 221930Z AUTO 35016KT 7000 FEW005/// BKN017///
                        M02/M03 Q1026=
201911222000 METAR LRTC 222000Z AUTO 35016KT 6000 -FZDZ FEW006/// BKN017///
                        M01/M02 Q1026=
201911222030 METAR LRTC 222030Z AUTO 33016KT 6000 -FZDZ SCT005/// BKN007///
                        OVC017/// M01/M02 Q1026=
201911222100 METAR LRTC 222100Z AUTO 35016KT 7000 -FZDZ SCT005/// OVC007///
                        M01/M02 Q1026=
201911222130 METAR LRTC 222130Z AUTO 33009KT 260V040 6000 -FZRA BKN005///
                        OVC007/// M01/M02 Q1026=
201911222200 METAR LRTC 222200Z AUTO 35015KT 6000 -FZDZ SCT006/// BKN008///
                        OVC010/// M01/M02 Q1027=
201911222230 METAR LRTC 222230Z AUTO 34012KT 7000 -FZDZ FEW005/// BKN007///
                        OVC009/// M01/M02 Q1026=
201911222300 METAR LRTC 222300Z AUTO 35015KT 320V020 7000 UP SCT006///
                        OVC008/// M01/M02 Q1026=
201911222330 METAR LRTC 222330Z AUTO 35015KT 7000 -FZDZ BKN006/// OVC008///
                        M00/M01 Q1026=
201911230000 METAR LRTC 230000Z AUTO 34015KT 7000 BKN007/// OVC009///
                        M00/M01 Q1026 REFZRA=
201911230030 METAR LRTC 230030Z AUTO 34016KT 6000 FEW005/// BKN007///
                        OVC009/// M00/M01 Q1025=
201911230100 METAR LRTC 230100Z AUTO 34013KT 6000 SCT004/// BKN006///
                        OVC008/// M00/M01 Q1025=
201911230130 METAR LRTC 230130Z AUTO 35012KT 320V020 6000 -SN BKN005///
                        OVC007/// 00/M01 Q1025=
201911230200 METAR LRTC 230200Z AUTO 35013KT 6000 UP BKN005/// OVC007///
                        00/M01 Q1025=
201911230230 METAR LRTC 230230Z AUTO 34013KT 7000 -FZDZ SCT005/// BKN008///
                        OVC010/// 00/M01 Q1025=
201911230300 METAR LRTC 230300Z AUTO 34013KT 6000 -FZRA BKN005/// OVC007///
                        01/M00 Q1025=
201911230330 METAR LRTC 230330Z AUTO 35013KT 320V020 8000 -FZDZ SCT003///
                        BKN005/// BKN007/// 01/M00 Q1025=
201911230400 METAR LRTC 230400Z AUTO 36009KT 330V040 6000 BKN003/// OVC005///
                        01/00 Q1025 REFZRA=
201911230430 METAR LRTC 230430Z AUTO 01011KT 5000 BR BKN003/// BKN005///
                        01/00 Q1025=
201911230500 METAR LRTC 230500Z AUTO 01013KT 5000 BR OVC004/// 01/00 Q1025=
201911230530 METAR LRTC 230530Z AUTO 36012KT 6000 BKN004/// 02/01 Q1025=
201911230600 METAR LRTC 230600Z AUTO 36012KT 330V030 6000 OVC003/// 02/01
                        Q1025=
201911230630 METAR LRTC 230630Z AUTO 34008KT 310V020 6000 BKN003/// 02/01
                        Q1025=
201911230700 METAR LRTC 230700Z AUTO 36010KT 6000 OVC003/// 02/01 Q1025=
201911230730 METAR LRTC 230730Z AUTO 01011KT 6000 BKN003/// 02/01 Q1025=
201911230800 METAR LRTC 230800Z AUTO 01011KT 340V040 6000 BKN003/// 02/01
                        Q1025=
201911230830 METAR LRTC 230830Z AUTO 36009KT 330V030 6000 BKN003/// 03/02
                        Q1025=
201911230900 METAR LRTC 230900Z AUTO 34007KT 4800 BR BKN003/// OVC005///
                        03/02 Q1025=
201911230930 METAR LRTC 230930Z AUTO 34008KT 320V020 3700 BR BKN003///
                        03/02 Q1025=
201911231000 METAR LRTC 231000Z AUTO 34010KT 3200 BR OVC003/// 03/02 Q1025=
201911231030 METAR LRTC 231030Z AUTO 34010KT 2700 BR BKN002/// BKN004///
                        03/02 Q1025=
201911231100 METAR LRTC 231100Z AUTO 34009KT 2800 BR OVC003/// 03/02 Q1025=
201911231130 METAR LRTC 231130Z AUTO 35008KT 320V020 3100 BR BKN003///
                        03/02 Q1025=
201911231200 METAR LRTC 231200Z AUTO 35007KT 3400 BR BKN003/// OVC005///
                        03/02 Q1025=
201911231230 METAR LRTC 231230Z AUTO 34007KT 2900 BKN003/// BKN005///
                        03/02 Q1025=
201911231300 METAR LRTC 231300Z AUTO 35007KT 330V030 3800 -RA BKN003///
                        OVC005/// 03/03 Q1025=
201911231330 METAR LRTC 231330Z AUTO 01008KT 6000 -DZ BKN004/// BKN006///
                        04/03 Q1025=
201911231400 METAR LRTC 231400Z AUTO 02009KT 5000 -DZ BKN004/// OVC006///
                        03/02 Q1025=
201911231430 METAR LRTC 231430Z AUTO 02007KT 5000 BKN004/// 03/02 Q1025
                        REDZ=
201911231500 METAR LRTC 231500Z AUTO 03008KT 8000 -SHRA OVC004/// 03/02
                        Q1025=
201911231530 METAR LRTC 231530Z AUTO 02008KT 6000 DZ BKN003/// 03/02 Q1025=
201911231600 METAR LRTC 231600Z AUTO 02009KT 6000 -DZ OVC004/// 03/02
                        Q1025=
201911231630 METAR LRTC 231630Z AUTO 03009KT 5000 -DZ BKN004/// 02/01
                        Q1025=
201911231700 METAR LRTC 231700Z AUTO 03009KT 360V060 5000 BKN004/// BKN006///
                        02/01 Q1025 REDZ=
201911231730 METAR LRTC 231730Z AUTO 03010KT 360V060 5000 BR FEW003///
                        BKN005/// BKN007/// 02/01 Q1025=
201911231800 METAR LRTC 231800Z AUTO 36006KT 340V040 5000 BR BKN004///
                        OVC006/// 02/01 Q1025=
201911231830 METAR LRTC 231830Z AUTO 35005KT 280V030 5000 FEW003/// BKN005///
                        OVC007/// 02/01 Q1025=
201911231900 METAR LRTC 231900Z AUTO 36007KT 310V030 5000 DZ BKN004///
                        OVC006/// 02/01 Q1025=
201911231930 METAR LRTC 231930Z AUTO 34006KT 310V010 5000 FEW004/// BKN006///
                        BKN023/// 02/00 Q1025 RERA=
201911232000 METAR LRTC 232000Z AUTO 01010KT 6000 OVC024/// 02/00 Q1025=
201911232030 METAR LRTC 232030Z AUTO 36009KT 6000 BKN006/// BKN025///
                        02/00 Q1025=
201911232100 METAR LRTC 232100Z AUTO 36007KT 330V030 6000 SCT006/// BKN008///
                        BKN025/// 02/00 Q1025=
201911232130 METAR LRTC 232130Z AUTO 36006KT 6000 FEW008/// BKN025///
                        OVC045/// 02/00 Q1025=
201911232200 METAR LRTC 232200Z AUTO 32005KT 6000 FEW007/// BKN025///
                        OVC044/// 02/00 Q1025=
201911232230 METAR LRTC 232230Z AUTO 35006KT 8000 FEW022/// SCT028///
                        OVC045/// 02/00 Q1024=
201911232300 METAR LRTC 232300Z AUTO 01006KT 8000 FEW024/// OVC044///
                        02/00 Q1024=
201911232330 METAR LRTC 232330Z AUTO 02008KT 8000 FEW026/// OVC042///
                        02/00 Q1024=
201911240000 METAR LRTC 240000Z AUTO 01008KT 7000 OVC039/// 02/00 Q1024=
201911240030 METAR LRTC 240030Z AUTO 01008KT 7000 OVC039/// 02/M00 Q1024=
201911240100 METAR LRTC 240100Z AUTO 33007KT 7000 OVC040/// 02/M00 Q1024=
201911240130 METAR LRTC 240130Z AUTO 36005KT 330V030 8000 OVC040/// 02/M00
                        Q1024=
201911240200 METAR LRTC 240200Z AUTO 03004KT 340V060 9999 -RA BKN039///
                        BKN090/// 02/M00 Q1024=
201911240230 METAR LRTC 240230Z AUTO 02005KT 330V060 8000 BKN085/// BKN100///
                        02/M00 Q1024 RERA=
201911240300 METAR LRTC 240300Z AUTO 01004KT 290V050 8000 FEW018/// BKN085///
                        BKN120/// 02/M00 Q1024 REDZ=
201911240330 METAR LRTC 240330Z AUTO 01006KT 340V040 7000 FEW018/// BKN120///
                        01/M01 Q1024=
201911240400 METAR LRTC 240400Z AUTO 35006KT 8000 BKN080/// OVC120///
                        01/M01 Q1024=
201911240430 METAR LRTC 240430Z AUTO 36006KT 8000 OVC075/// 01/M01 Q1024=
201911240500 METAR LRTC 240500Z AUTO 35005KT 310V040 7000 FEW017/// BKN075///
                        01/M01 Q1024=
201911240530 METAR LRTC 240530Z AUTO 06002KT 010V120 8000 BKN075/// 01/M01
                        Q1024=
201911240600 METAR LRTC 240600Z AUTO VRB01KT 9999 BKN075/// BKN090///
                        02/M01 Q1024=
201911240630 METAR LRTC 240630Z AUTO VRB01KT 8000 FEW017/// BKN120///
                        03/00 Q1024 REDZ=
201911240700 METAR LRTC 240700Z AUTO 30003KT 260V360 9999 BKN017/// BKN020///
                        03/01 Q1024 REDZ=
201911240730 METAR LRTC 240730Z AUTO 03004KT 360V080 9999 BKN017/// OVC020///
                        04/01 Q1024=
201911240800 METAR LRTC 240800Z AUTO 36003KT 320V060 8000 OVC017/// 04/02
                        Q1025=
201911240830 METAR LRTC 240830Z AUTO 35006KT 320V020 7000 R34/1600VP2000U
                        OVC016/// 04/02 Q1025=
201911240900 METAR LRTC 240900Z AUTO 04004KT 360V100 9999 OVC016/// 05/02
                        Q1025=
201911240930 METAR LRTC 240930Z AUTO 02005KT 340V070 9999 OVC016/// 06/03
                        Q1024=
201911241000 METAR LRTC 241000Z AUTO 03006KT 360V060 8000 BKN017/// 06/03
                        Q1024=
201911241030 METAR LRTC 241030Z AUTO 04007KT 360V080 9999 BKN018/// 07/03
                        Q1024=
201911241100 METAR LRTC 241100Z AUTO 05004KT 360V110 7000 SCT017/// BKN050///
                        07/03 Q1024=
201911241130 METAR LRTC 241130Z AUTO 02008KT 9000 FEW016/// BKN050///
                        07/04 Q1023=
201911241200 METAR LRTC 241200Z AUTO 02007KT 9999 SCT017/// BKN055///
                        07/03 Q1023=
201911241230 METAR LRTC 241230Z AUTO 04006KT 010V070 8000 FEW016/// BKN050///
                        07/03 Q1023=
201911241300 METAR LRTC 241300Z AUTO 03005KT 350V080 9999 BKN016/// 07/03
                        Q1023=
201911241330 METAR LRTC 241330Z AUTO 01005KT 340V040 9999 FEW015/// BKN060///
                        07/03 Q1023=
201911241400 METAR LRTC 241400Z AUTO 02004KT 340V080 9000 SCT014/// BKN018///
                        06/03 Q1023=
201911241430 METAR LRTC 241430Z AUTO 02005KT 330V060 8000 SCT017/// OVC020///
                        06/03 Q1023=
201911241500 METAR LRTC 241500Z AUTO 03007KT 9999 BKN017/// 06/03 Q1023=
201911241530 METAR LRTC 241530Z AUTO 05006KT 020V090 7000 BKN016/// OVC020///
                        06/04 Q1023=
201911241600 METAR LRTC 241600Z AUTO 03006KT 8000 SCT014/// BKN018///
                        06/04 Q1023=
201911241630 METAR LRTC 241630Z AUTO 01008KT 6000 SCT010/// BKN013///
                        OVC017/// 06/04 Q1023=
201911241700 METAR LRTC 241700Z AUTO 02007KT 6000 SCT008/// BKN010///
                        06/04 Q1023=
201911241730 METAR LRTC 241730Z AUTO 02007KT 7000 FEW009/// OVC011///
                        06/04 Q1023=
201911241800 METAR LRTC 241800Z AUTO 01007KT 6000 BKN012/// 06/04 Q1022=
201911241830 METAR LRTC 241830Z AUTO 02007KT 350V050 6000 OVC013/// 06/05
                        Q1022=
201911241900 METAR LRTC 241900Z AUTO 02006KT 7000 BKN014/// BKN017///
                        06/04 Q1022=
201911241930 METAR LRTC 241930Z AUTO 04006KT 9000 OVC015/// 06/05 Q1022=
201911242000 METAR LRTC 242000Z AUTO 03006KT 9999 BKN016/// 06/05 Q1022=
201911242030 METAR LRTC 242030Z AUTO 01005KT 7000 BKN016/// OVC019///
                        06/05 Q1022=
201911242100 METAR LRTC 242100Z AUTO 02006KT 7000 FEW013/// BKN017///
                        06/05 Q1021=
201911242130 METAR LRTC 242130Z AUTO 05008KT 010V070 7000 OVC015/// 07/05
                        Q1021=
201911242200 METAR LRTC 242200Z AUTO 04008KT 8000 BKN015/// 07/05 Q1021=
201911242230 METAR LRTC 242230Z AUTO 02008KT 8000 BKN014/// OVC017///
                        06/05 Q1021=
201911242300 METAR LRTC 242300Z AUTO 02008KT 7000 BKN015/// 06/04 Q1021=
201911242330 METAR LRTC 242330Z AUTO 01008KT 7000 OVC015/// 06/04 Q1021=
201911250000 METAR LRTC 250000Z AUTO 01008KT 9000 BKN016/// BKN019///
                        06/04 Q1021=
201911250030 METAR LRTC 250030Z AUTO 01009KT 8000 BKN016/// OVC019///
                        05/04 Q1021=
201911250100 METAR LRTC 250100Z AUTO 01009KT 8000 BKN018/// OVC021///
                        05/04 Q1020=
201911250130 METAR LRTC 250130Z AUTO 01009KT 7000 BKN019/// OVC022///
                        05/03 Q1020=
201911250200 METAR LRTC 250200Z AUTO 35008KT 8000 OVC020/// 06/04 Q1020=
201911250230 METAR LRTC 250230Z AUTO 35004KT 300V040 8000 OVC020/// 06/04
                        Q1020=
201911250300 METAR LRTC 250300Z AUTO 06009KT 020V100 7000 OVC019/// 07/04
                        Q1020=
201911250330 METAR LRTC 250330Z AUTO 07011KT 040V100 9999 OVC020/// 07/04
                        Q1019=
201911250400 METAR LRTC 250400Z AUTO 04006KT 320V080 8000 OVC020/// 06/04
                        Q1019=
201911250430 METAR LRTC 250430Z AUTO 34005KT 260V030 7000 FEW006/// OVC017///
                        06/04 Q1019=
201911250500 METAR LRTC 250500Z AUTO 36006KT 310V060 7000 BKN006/// OVC015///
                        07/05 Q1019=
201911250530 METAR LRTC 250530Z AUTO 33009KT 7000 SCT006/// OVC015///
                        06/04 Q1019=
201911250600 METAR LRTC 250600Z 31007KT 270V350 9000 BKN007 SCT011 06/04
                        Q1020 R16/CLRD//=
201911250630 METAR LRTC 250630Z 05007KT 350V110 9999 SCT008 BKN015 07/05
                        Q1020=
201911250700 METAR LRTC 250700Z 02007KT 9999 FEW012 BKN016 06/04 Q1020=
201911250730 METAR LRTC 250730Z 06007KT 020V090 9999 BKN014 SCT020 07/05
                        Q1019=
201911250800 METAR LRTC 250800Z 06011KT 9999 SCT015 SCT030 08/06 Q1019=
201911250830 METAR LRTC 250830Z 06011KT 040V100 9999 FEW014 BKN028 08/06
                        Q1019=
201911250900 METAR LRTC 250900Z 07011KT 9999 SCT018 SCT024 09/06 Q1019=
201911250930 METAR LRTC 250930Z 06008KT 9999 SCT014 BKN020 09/06 Q1019=
201911251000 METAR LRTC 251000Z 06009KT 9999 SCT016 BKN020 09/06 Q1018=
201911251030 METAR LRTC 251030Z 05009KT 9999 FEW015 BKN025 09/06 Q1018=
201911251100 METAR LRTC 251100Z 05010KT 9999 BKN024 08/05 Q1018=
201911251130 METAR LRTC 251130Z 04010KT 9999 SCT022 BKN028 08/05 Q1018=
201911251200 METAR LRTC 251200Z 04010KT 9999 OVC025 09/06 Q1018=
201911251230 METAR LRTC 251230Z 03014KT 9999 SCT022 BKN030 08/05 Q1017=
201911251300 METAR LRTC 251300Z 03010KT 9999 BKN020 SCT030 08/05 Q1017=
201911251330 METAR LRTC 251330Z 03008KT 9999 BKN018 SCT026 08/05 Q1018=
201911251400 METAR LRTC 251400Z AUTO 03008KT 9000 BKN017/// OVC020///
                        08/05 Q1017=
201911251430 METAR LRTC 251430Z AUTO 02007KT 8000 OVC016/// 08/05 Q1017=
201911251500 METAR LRTC 251500Z AUTO 03008KT 8000 SCT016/// OVC023///
                        08/05 Q1018=
201911251530 METAR LRTC 251530Z AUTO 01006KT 9000 BKN016/// OVC024///
                        07/05 Q1018=
201911251600 METAR LRTC 251600Z AUTO 35004KT 8000 SCT015/// OVC018///
                        07/05 Q1018=
201911251630 METAR LRTC 251630Z AUTO 01007KT 8000 BKN016/// BKN019///
                        07/05 Q1017=
201911251700 METAR LRTC 251700Z AUTO 01010KT 8000 BKN017/// OVC020///
                        07/05 Q1017=
201911251730 METAR LRTC 251730Z AUTO 04008KT 010V070 8000 SCT012/// BKN017///
                        08/06 Q1017=
201911251800 METAR LRTC 251800Z AUTO 05009KT 9999 BKN013/// OVC016///
                        08/05 Q1017=
201911251830 METAR LRTC 251830Z AUTO 05010KT 9999 BKN013/// BKN017///
                        08/05 Q1018=
201911251900 METAR LRTC 251900Z AUTO 05009KT 9000 BKN011/// OVC014///
                        07/05 Q1017=
201911251930 METAR LRTC 251930Z AUTO 04012KT 9999 BKN010/// BKN013///
                        07/05 Q1017=
201911252000 METAR LRTC 252000Z AUTO 03009KT 9000 BKN010/// OVC013///
                        07/05 Q1017=
201911252030 METAR LRTC 252030Z AUTO 04009KT 8000 FEW009/// BKN011///
                        07/05 Q1017=
201911252100 METAR LRTC 252100Z AUTO 03010KT 6000 SCT009/// OVC011///
                        07/05 Q1017=
201911252130 METAR LRTC 252130Z AUTO 02010KT 6000 BKN009/// BKN011///
                        06/04 Q1017=
201911252200 METAR LRTC 252200Z AUTO 02009KT 7000 BKN009/// OVC011///
                        06/04 Q1017=
201911252230 METAR LRTC 252230Z AUTO 02008KT 7000 SCT009/// BKN011///
                        06/04 Q1016=
201911252300 METAR LRTC 252300Z AUTO 01009KT 6000 SCT009/// BKN012///
                        06/04 Q1016=
201911252330 METAR LRTC 252330Z AUTO 36010KT 6000 BKN013/// BKN017///
                        05/04 Q1016=
201911260000 METAR LRTC 260000Z AUTO 36011KT 6000 BKN015/// OVC018///
                        05/04 Q1016=
201911260030 METAR LRTC 260030Z AUTO 36012KT 5000 BR SCT014/// BKN017///
                        05/03 Q1016=
201911260100 METAR LRTC 260100Z AUTO 35011KT 7000 FEW005/// SCT007///
                        BKN012/// 04/03 Q1016=
201911260130 METAR LRTC 260130Z AUTO 35010KT 5000 BR FEW005/// BKN007///
                        04/03 Q1015=
201911260200 METAR LRTC 260200Z AUTO 36013KT 5000 BR BKN005/// OVC007///
                        04/03 Q1015=
201911260230 METAR LRTC 260230Z AUTO 01014KT 5000 BR BKN005/// 04/03 Q1015=
201911260300 METAR LRTC 260300Z AUTO 36013KT 4700 BR BKN004/// OVC006///
                        03/02 Q1015=
201911260330 METAR LRTC 260330Z AUTO 01012KT 340V040 4900 BR BKN005///
                        03/02 Q1015=
201911260400 METAR LRTC 260400Z AUTO 01010KT 340V040 4800 BR BKN005///
                        OVC007/// 03/02 Q1015=
201911260430 METAR LRTC 260430Z AUTO 36012KT 4600 BR BKN005/// 02/01 Q1015=
201911260500 METAR LRTC 260500Z AUTO 01011KT 3900 BR BKN004/// OVC006///
                        02/01 Q1015=
201911260530 METAR LRTC 260530Z AUTO 01010KT 340V040 3900 BR BKN003///
                        BKN005/// 02/01 Q1015=
201911260600 METAR LRTC 260600Z 36013KT 1500 BR OVC005 01/01 Q1015=
201911260630 METAR LRTC 260630Z 01014KT 1800 BR SCT003 BKN005 01/00 Q1016=
201911260700 METAR LRTC 260700Z 36016KT 1800 BR BKN003 BKN005 01/M00 Q1015=
201911260730 METAR LRTC 260730Z 36014KT 1800 BR BKN003 OVC005 00/M00 Q1015=
201911260800 METAR LRTC 260800Z 34014KT 2000 BR BKN003 BKN005 00/M00 Q1015=
201911260830 METAR LRTC 260830Z 34014KT 3600 BR FEW004 OVC006 01/M00 Q1015=
201911260900 METAR LRTC 260900Z 35013KT 2400 BR OVC004 01/M00 Q1014=
201911260930 METAR LRTC 260930Z 35015KT 320V020 1600 BR OVC004 01/M00
                        Q1014=
201911261000 METAR LRTC 261000Z 35015KT 1500 BR OVC003 01/00 Q1014=
201911261030 METAR LRTC 261030Z 35013KT 320V020 1200 R34/P2000U -DZ BR
                        BKN002 BKN004 01/01 Q1014=
201911261100 METAR LRTC 261100Z 35014KT 320V020 1600 -DZ BR SCT003 BKN005
                        01/01 Q1013=
201911261130 METAR LRTC 261130Z 35014KT 320V020 1600 BR BKN003 BKN005
                        02/01 Q1013=
201911261200 METAR LRTC 261200Z 35012KT 320V020 1600 OVC004 02/01 Q1013=
201911261230 METAR LRTC 261230Z 35015KT 1500 -DZ BR OVC003 02/01 Q1013=
201911261300 METAR LRTC 261300Z 36015KT 1200 R34/P2000N -DZ BR OVC003
                        02/02 Q1013=
201911261330 METAR LRTC 261330Z 36014KT 1200 R34/P2000U BR OVC003 03/02
                        Q1013=
201911261400 METAR LRTC 261400Z AUTO 36012KT 1700 R34/1900U -SHSN OVC002///
                        03/02 Q1013=
201911261430 METAR LRTC 261430Z AUTO 01010KT 3200 BKN002/// OVC004///
                        03/02 Q1013 RESN=
201911261500 METAR LRTC 261500Z AUTO 36011KT 2100 -SHSN BKN002/// OVC004///
                        03/02 Q1013=
201911261530 METAR LRTC 261530Z AUTO 36012KT 320V020 2600 -SHSN SCT001///
                        OVC003/// 02/02 Q1014=
201911261600 METAR LRTC 261600Z AUTO 36010KT 330V030 6000 SCT003/// BKN008///
                        OVC010/// 02/02 Q1014 RESN=
201911261630 METAR LRTC 261630Z AUTO 36010KT 5000 BR FEW009/// BKN011///
                        02/01 Q1014=
201911261700 METAR LRTC 261700Z AUTO 35010KT 6000 SCT008/// BKN010///
                        02/01 Q1014=
201911261730 METAR LRTC 261730Z AUTO 35011KT 6000 FEW008/// SCT010///
                        02/01 Q1014=
201911261800 METAR LRTC 261800Z AUTO 35009KT 5000 BR FEW008/// 01/00 Q1014=
201911261830 METAR LRTC 261830Z AUTO 35009KT 6000 NCD 01/M00 Q1014=
201911261900 METAR LRTC 261900Z AUTO 34009KT 5000 BR NCD 01/M00 Q1014=
201911261930 METAR LRTC 261930Z AUTO 34008KT 5000 BR NCD 00/M01 Q1014=
201911262000 METAR LRTC 262000Z AUTO 33009KT 5000 BR NCD 00/M01 Q1014=
201911262030 METAR LRTC 262030Z AUTO 31007KT 5000 BR NCD M00/M01 Q1014=
201911262100 METAR LRTC 262100Z AUTO 31006KT 4800 BR NCD M00/M01 Q1014=
201911262130 METAR LRTC 262130Z AUTO 32008KT 4800 BR NCD M00/M01 Q1014=
201911262200 METAR LRTC 262200Z AUTO 31009KT 4500 BR FEW006/// SCT016///
                        00/M01 Q1013=
201911262230 METAR LRTC 262230Z AUTO 31009KT 4300 BR BKN007/// BKN009///
                        01/M00 Q1013=
201911262300 METAR LRTC 262300Z AUTO 31008KT 4900 BR FEW006/// BKN008///
                        01/M00 Q1013=
201911262330 METAR LRTC 262330Z AUTO 31008KT 5000 BR FEW007/// M00/M01
                        Q1013=
201911270000 METAR LRTC 270000Z AUTO 31010KT 4800 BR FEW008/// M00/M01
                        Q1013=
201911270030 METAR LRTC 270030Z AUTO 30008KT 5000 BR FEW007/// M00/M01
                        Q1013=
201911270100 METAR LRTC 270100Z AUTO 30007KT 5000 BR FEW008/// SCT011///
                        00/M01 Q1013=
201911270130 METAR LRTC 270130Z AUTO 31007KT 5000 BR SCT007/// BKN009///
                        00/M01 Q1013=
201911270200 METAR LRTC 270200Z AUTO 32009KT 4600 BR SCT007/// BKN009///
                        BKN011/// M00/M01 Q1013=
201911270230 METAR LRTC 270230Z AUTO 31008KT 3800 BR FEW004/// SCT008///
                        BKN010/// M00/M01 Q1013=
201911270300 METAR LRTC 270300Z AUTO 31009KT 3500 BR BKN003/// M00/M01
                        Q1013=
201911270330 METAR LRTC 270330Z AUTO 31007KT 3700 BR SCT003/// BKN005///
                        M00/M01 Q1013=
201911270400 METAR LRTC 270400Z AUTO 30006KT 270V330 3200 BR BKN003///
                        M00/M01 Q1013=
201911270430 METAR LRTC 270430Z AUTO 31007KT 3500 BR BKN003/// M00/M01
                        Q1013=
201911270500 METAR LRTC 270500Z AUTO 32007KT 3600 BR BKN003/// M00/M01
                        Q1013=
201911270530 METAR LRTC 270530Z AUTO 32009KT 2400 BR BKN003/// M00/M01
                        Q1013=
201911270600 METAR LRTC 270600Z 33010KT 2000 BR OVC004 00/M01 Q1013 R16/CLRD//=
201911270630 METAR LRTC 270630Z 32008KT 2000 BR OVC004 00/M01 Q1013=
201911270700 METAR LRTC 270700Z 31008KT 1200 R34/1800N BR OVC004 00/M01
                        Q1014=
201911270730 METAR LRTC 270730Z 32009KT 1600 BR BKN003 SCT006 00/M00 Q1014=
201911270800 METAR LRTC 270800Z 32008KT 2400 BR BKN004 SCT008 01/00 Q1014=
201911270830 METAR LRTC 270830Z 32007KT 3600 BR SCT003 BKN007 01/01 Q1014=
201911270900 METAR COR LRTC 270900Z 30005KT 240V350 4500 BR SCT005 02/02
                        Q1014=
201911270930 METAR LRTC 270930Z VRB07KT 6000 FEW005 03/03 Q1014=
201911271000 METAR LRTC 271000Z 32009KT 300V360 8000 FEW010 05/04 Q1013=
201911271030 METAR LRTC 271030Z 33009KT CAVOK 06/04 Q1013=
201911271100 METAR LRTC 271100Z 33010KT CAVOK 06/01 Q1013=
201911271130 METAR LRTC 271130Z 33009KT CAVOK 06/01 Q1013=
201911271200 METAR LRTC 271200Z 25008KT CAVOK 06/02 Q1013=
201911271230 METAR LRTC 271230Z 26009KT CAVOK 05/01 Q1013=
201911271300 METAR LRTC 271300Z 26009KT CAVOK 04/01 Q1013=
201911271330 METAR LRTC 271330Z 27008KT CAVOK 04/01 Q1013=
201911271400 METAR LRTC 271400Z AUTO 27006KT 5000 BR NCD 03/00 Q1013=
201911271430 METAR LRTC 271430Z AUTO 27007KT 4700 BR NCD 01/M00 Q1013=
201911271500 METAR LRTC 271500Z AUTO 27007KT 4500 BR NCD 01/M00 Q1013=
201911271530 METAR LRTC 271530Z AUTO 27005KT 3600 BR NCD 01/M00 Q1013=
201911271600 METAR LRTC 271600Z AUTO 26004KT 220V290 3600 BR FEW002///
                        01/M00 Q1013=
201911271630 METAR LRTC 271630Z AUTO 25004KT 2700 BR OVC002/// 01/00 Q1013=
201911271700 METAR LRTC 271700Z AUTO 24005KT 190V270 1400 R34/1400V1900U
                        -SHSN OVC002/// 02/01 Q1013=
201911271730 METAR LRTC 271730Z AUTO 21004KT 2600 R34/2000 -SHSN OVC002///
                        02/01 Q1014=
201911271800 METAR LRTC 271800Z AUTO 24006KT 1700 R34/1800D -SHSN BKN002///
                        02/02 Q1014=
201911271830 METAR LRTC 271830Z AUTO VRB01KT 2300 -SHSN OVC002/// 02/02
                        Q1014=
201911271900 METAR LRTC 271900Z AUTO 24002KT 170V290 4200 SCT002/// OVC004///
                        03/02 Q1013 RESN=
201911271930 METAR LRTC 271930Z AUTO VRB01KT 3700 OVC003/// 03/02 Q1014
                        RESN=
201911272000 METAR LRTC 272000Z AUTO VRB02KT 3100 R34/2000 BR BKN002///
                        OVC004/// 02/02 Q1014=
201911272030 METAR LRTC 272030Z AUTO 04003KT 2300 UP BKN002/// 02/01 Q1014=
201911272100 METAR LRTC 272100Z AUTO VRB01KT 2600 -SHSN OVC002/// 03/02
                        Q1014=
201911272130 METAR LRTC 272130Z AUTO 17004KT 1000 R34/0900V1300D -SHSN
                        VV002 02/02 Q1014=
201911272200 METAR LRTC 272200Z AUTO 17005KT 140V200 0550 R34/0650D -SHSN
                        VV001 02/01 Q1014=
201911272230 METAR LRTC 272230Z AUTO 16006KT 0400 R34/0450N -SN VV001
                        01/01 Q1013=
201911272300 METAR LRTC 272300Z AUTO 16005KT 0400 R34/0450N SN VV001 01/00
                        Q1013=
201911272330 METAR LRTC 272330Z AUTO 16004KT 0400 R34/0400V0600N SN VV001
                        01/00 Q1013=
201911280000 METAR LRTC 280000Z AUTO 16002KT 0550 R34/0650U -SN VV001
                        01/00 Q1013=
201911280030 METAR LRTC 280030Z AUTO 16003KT 0500 R34/0600N -SN VV001
                        01/01 Q1013=
201911280100 METAR LRTC 280100Z AUTO 14003KT 0700 R34/0800N -SN VV002
                        02/01 Q1013=
201911280130 METAR LRTC 280130Z AUTO 11002KT 1000 R34/1200N -SN OVC001///
                        02/01 Q1013=
201911280200 METAR LRTC 280200Z AUTO 13002KT 090V160 0750 R34/0900N -SN
                        SCT003/// BKN021/// 02/02 Q1012=
201911280230 METAR LRTC 280230Z AUTO 22003KT 1200 R34/1400U -SN BKN019///
                        03/02 Q1012=
201911280300 METAR LRTC 280300Z AUTO VRB01KT 1700 R34/1800U -SN FEW001///
                        SCT004/// BKN019/// 02/02 Q1012=
201911280330 METAR LRTC 280330Z AUTO 23004KT 1400 R34/1300V2000U -SN BKN002///
                        02/02 Q1012=
201911280400 METAR LRTC 280400Z AUTO 24003KT 2400 R34/1800VP2000D -SHSN
                        OVC002/// 02/02 Q1012=
201911280430 METAR LRTC 280430Z AUTO 23003KT 0800 R34/1000U -SHSN OVC001///
                        02/02 Q1011=
201911280500 METAR LRTC 280500Z AUTO 22004KT 190V250 0600 R34/0750N -SN
                        VV002 02/02 Q1011=
201911280530 METAR LRTC 280530Z AUTO 20001KT 0300 R34/0375N -SN VV001
                        03/02 Q1011=
201911280600 METAR LRTC 280600Z 23004KT 0150 R34/0400N FG VV001 03/02
                        Q1011 R16/CLRD//=
201911280630 METAR LRTC 280630Z 26004KT 0300 R34/1100U FG VV001 03/03
                        Q1012=
201911280700 METAR LRTC 280700Z VRB01KT 1500 BR BKN005 04/03 Q1012=
201911280730 METAR LRTC 280730Z VRB02KT 1500 BR SCT002 BKN004 04/04 Q1012=
201911280800 METAR LRTC 280800Z VRB01KT 0800 R34/1100U FG OVC002 05/04
                        Q1011=
201911280830 METAR LRTC 280830Z VRB02KT 0500 R34/0550U FG VV001 05/05
                        Q1011=
201911280900 METAR LRTC 280900Z VRB02KT 0800 R34/1200U FG VV001 06/05
                        Q1011=
201911280930 METAR LRTC 280930Z 21003KT 160V260 1500 BR BKN002 06/06 Q1011=
201911281000 METAR LRTC 281000Z 20003KT 150V240 3600 BKN002 06/06 Q1010=
201911281030 METAR LRTC 281030Z VRB02KT 4000 BR BKN003 07/07 Q1010=
201911281100 METAR LRTC 281100Z VRB02KT 5000 BR SCT004 08/07 Q1010=
201911281130 METAR LRTC 281130Z VRB02KT CAVOK 09/09 Q1010=
201911281200 METAR LRTC 281200Z 19003KT 160V220 CAVOK 09/09 Q1009=
201911281230 METAR LRTC 281230Z 23005KT 200V260 CAVOK 11/08 Q1009=
201911281300 METAR LRTC 281300Z VRB02KT CAVOK 10/08 Q1009=
201911281330 METAR LRTC 281330Z VRB01KT CAVOK 10/08 Q1009=
201911281400 METAR LRTC 281400Z AUTO 00000KT 7000 FEW080/// SCT130///
                        BKN160/// 10/07 Q1009=
201911281430 METAR LRTC 281430Z AUTO 17002KT 130V220 5000 BR BKN160///
                        09/07 Q1009=
201911281500 METAR LRTC 281500Z AUTO 20002KT 160V240 7000 FEW160/// 08/06
                        Q1009=
201911281530 METAR LRTC 281530Z AUTO 20003KT 6000 FEW160/// 07/06 Q1009=
201911281600 METAR LRTC 281600Z AUTO 16002KT 110V220 5000 BR BKN085///
                        07/06 Q1009=
201911281630 METAR LRTC 281630Z AUTO VRB01KT 5000 BR SCT050/// BKN085///
                        07/06 Q1009=
201911281700 METAR LRTC 281700Z AUTO 15003KT 5000 BR BKN050/// 07/06 Q1008=
201911281730 METAR LRTC 281730Z AUTO 20002KT 160V250 5000 BR SCT050///
                        07/05 Q1008=
201911281800 METAR LRTC 281800Z AUTO 16005KT 5000 BR NCD 07/06 Q1008=
201911281830 METAR LRTC 281830Z AUTO 14003KT 8000 NCD 08/05 Q1008=
201911281900 METAR LRTC 281900Z AUTO VRB01KT 9000 NCD 07/05 Q1008=
201911281930 METAR LRTC 281930Z AUTO 14003KT 5000 BR NCD 07/06 Q1007=
201911282000 METAR LRTC 282000Z AUTO 15002KT 110V170 4500 BR NCD 07/06
                        Q1007=
201911282030 METAR LRTC 282030Z AUTO 12005KT 1500 R34/1000VP2000U -SN
                        NCD 05/04 Q1007=
201911282100 METAR LRTC 282100Z AUTO 18003KT 140V260 0800 R34/0550V1200U
                        -SHSN NCD 05/05 Q1007=
201911282130 METAR LRTC 282130Z AUTO 21003KT 170V250 0750 R34/0750V1200D
                        -SHSN FEW240/// 05/05 Q1007=
201911282200 METAR LRTC 282200Z AUTO 16002KT 0550 R34/0700N SHSN NCD 06/05
                        Q1006=
201911282230 METAR LRTC 282230Z AUTO 20002KT 0300 R34/0350N -SN NCD 06/05
                        Q1006=
201911282300 METAR LRTC 282300Z AUTO 21002KT 180V240 0350 R34/0400N -SN
                        FEW003/// 05/05 Q1005=
201911282330 METAR LRTC 282330Z AUTO 25003KT 0350 R34/0400V0500N -SN FEW001///
                        SCT160/// 05/05 Q1005=
201911290000 METAR LRTC 290000Z AUTO 15002KT 110V190 1000 R34/0800V1500U
                        -SN SCT140/// 04/03 Q1005=
201911290030 METAR LRTC 290030Z AUTO 19002KT 160V240 2200 -SHSN BKN130///
                        BKN140/// 06/05 Q1005=
201911290100 METAR LRTC 290100Z AUTO VRB01KT 2900 -SHSN SCT110/// BKN130///
                        06/06 Q1004=
201911290130 METAR LRTC 290130Z AUTO 27002KT 3000 SCT095/// BKN110///
                        06/06 Q1004 RESN=
201911290200 METAR LRTC 290200Z AUTO VRB01KT 3400 R34/2000 BR SCT080///
                        BKN100/// BKN170/// 07/06 Q1004=
201911290230 METAR LRTC 290230Z AUTO VRB01KT 2800 BR SCT080/// BKN110///
                        06/06 Q1004=
201911290300 METAR LRTC 290300Z AUTO 01003KT 3500 BR BKN085/// BKN120///
                        06/06 Q1004=
201911290330 METAR LRTC 290330Z AUTO 04003KT 010V090 3000 BR BKN095///
                        OVC120/// 06/06 Q1003=
201911290400 METAR LRTC 290400Z AUTO 06002KT 360V140 3800 BR FEW100///
                        BKN130/// 07/06 Q1003=
201911290430 METAR LRTC 290430Z AUTO 26003KT 2600 BR FEW120/// BKN130///
                        06/05 Q1003=
201911290500 METAR LRTC 290500Z AUTO 08002KT 050V110 3400 R34/2000 BR
                        FEW110/// BKN130/// BKN140/// 06/06
                        Q1003=
201911290530 METAR LRTC 290530Z AUTO VRB01KT 2200 R34/2000 -RA SCT070///
                        BKN085/// 07/06 Q1003=
201911290600 METAR LRTC 290600Z 26008KT 2700 -SHRA BR FEW050CB 07/07 Q1003
                        R16/19//95=
201911290630 METAR LRTC 290630Z 14003KT 070V240 1800 BR NSC 07/07 Q1003
                        R16/19//95=
201911290700 METAR LRTC 290700Z 21003KT 180V240 2700 BR NSC 08/08 Q1003
                        R16/19//95=
201911290730 METAR LRTC 290730Z VRB02KT 9000 NSC 10/10 Q1003 R16/19//95=
201911290800 METAR LRTC 290800Z 25010KT 9000 FEW016 11/09 Q1003 R16/19//95=
201911290830 METAR LRTC 290830Z 25014KT 9999 FEW025 11/08 Q1003 R16/19//95=
201911290900 METAR LRTC 290900Z 25009KT 9999 SCT018 12/08 Q1003 R16/19//95=
201911290930 METAR LRTC 290930Z 26013KT 9999 SCT018 12/08 Q1003 R16/19//95=
201911291000 METAR LRTC 291000Z 25017KT 9999 FEW015 12/08 Q1003 R16/19//95=
201911291030 METAR LRTC 291030Z 26018KT 7000 FEW015 12/08 Q1003 R16/19//95=
201911291100 METAR LRTC 291100Z 26013KT 230V300 3200 BR BKN006 09/07 Q1003
                        R16/19//95=
201911291130 METAR LRTC 291130Z 26013KT 4600 BR BKN005 09/08 Q1003 R16/19//95=
201911291200 METAR LRTC 291200Z 26013KT 4200 BR SCT005 10/08 Q1003 R16/19//95=
201911291230 METAR LRTC 291230Z 26013KT 4100 BR FEW005 10/08 Q1003 R16/19//95=
201911291300 METAR LRTC 291300Z 26014KT 3200 BR SCT006 10/08 Q1003 R16/19//95=
201911291330 METAR COR LRTC 291330Z 26013KT 3700 BR FEW006 10/08 Q1003
                        R16/19//95=
201911291400 METAR LRTC 291400Z AUTO 27013KT 4800 -SHRA BKN070/// 10/08
                        Q1004=
201911291430 METAR LRTC 291430Z AUTO 26013KT 5000 -RA FEW048/// SCT070///
                        BKN095/// 10/08 Q1004=
201911291500 METAR LRTC 291500Z AUTO 26012KT 5000 FEW009/// SCT090///
                        BKN100/// 10/08 Q1004 RERA=
201911291530 METAR LRTC 291530Z AUTO 26012KT 5000 BR BKN090/// 10/08 Q1004=
201911291600 METAR LRTC 291600Z AUTO 26011KT 5000 BR SCT085/// BKN100///
                        BKN160/// 10/08 Q1005=
201911291630 METAR LRTC 291630Z AUTO 27012KT 5000 BR FEW085/// BKN100///
                        BKN190/// 10/08 Q1005=
201911291700 METAR LRTC 291700Z AUTO 26013KT 5000 BR SCT055/// BKN100///
                        10/08 Q1005=
201911291730 METAR LRTC 291730Z AUTO 26009KT 5000 BR OVC050/// 10/08 Q1005=
201911291800 METAR LRTC 291800Z AUTO 24011KT 5000 BR BKN060/// 10/08 Q1005=
201911291830 METAR LRTC 291830Z AUTO 25008KT 5000 BR FEW060/// BKN110///
                        BKN220/// 09/08 Q1005=
201911291900 METAR LRTC 291900Z AUTO 11004KT 050V190 5000 BR FEW065///
                        09/08 Q1006=
201911291930 METAR LRTC 291930Z AUTO 25009KT 220V290 6000 BKN065/// 10/08
                        Q1006=
201911292000 METAR LRTC 292000Z AUTO 26005KT 210V290 5000 BR BKN065///
                        10/08 Q1006=
201911292030 METAR LRTC 292030Z AUTO 27004KT 240V300 5000 BR FEW065///
                        BKN170/// 09/07 Q1006=
201911292100 METAR LRTC 292100Z AUTO 20003KT 6000 FEW070/// SCT100///
                        BKN170/// 09/07 Q1006=
201911292130 METAR LRTC 292130Z AUTO 24007KT 5000 BR SCT075/// BKN100///
                        09/07 Q1006=
201911292200 METAR LRTC 292200Z AUTO 25009KT 6000 BKN075/// 09/07 Q1007=
201911292230 METAR LRTC 292230Z AUTO VRB01KT 5000 BR BKN065/// BKN085///
                        09/07 Q1007=
201911292300 METAR LRTC 292300Z AUTO 30003KT 7000 FEW065/// BKN090///
                        09/07 Q1007=
201911292330 METAR LRTC 292330Z AUTO 27004KT 6000 BKN180/// 08/06 Q1007=
201911300000 METAR LRTC 300000Z AUTO 28003KT 6000 BKN180/// 07/06 Q1008=
201911300030 METAR LRTC 300030Z AUTO 26005KT 230V290 6000 BKN180/// 07/05
                        Q1008=
201911300100 METAR LRTC 300100Z AUTO 24003KT 180V260 6000 NCD 06/04 Q1008=
201911300130 METAR LRTC 300130Z AUTO 06002KT 360V080 5000 BR NCD 06/04
                        Q1008=
201911300200 METAR LRTC 300200Z AUTO 23004KT 190V250 5000 BR NCD 03/02
                        Q1009=
201911300230 METAR LRTC 300230Z AUTO 26003KT 5000 BR NCD 06/05 Q1008=
201911300300 METAR LRTC 300300Z AUTO 35003KT 280V080 9000 NCD 04/03 Q1009=
201911300330 METAR LRTC 300330Z AUTO 26003KT 7000 NCD 05/04 Q1009=
201911300400 METAR LRTC 300400Z AUTO VRB03KT 5000 BR FEW065/// 03/01 Q1009=
201911300430 METAR LRTC 300430Z AUTO 24009KT 7000 BKN065/// 07/05 Q1010=
201911300500 METAR LRTC 300500Z AUTO VRB01KT 6000 BKN065/// 05/04 Q1010=
201911300530 METAR LRTC 300530Z AUTO 08003KT 4100 BR FEW065/// 04/03 Q1010=
201911300600 METAR LRTC 300600Z AUTO 06002KT 030V090 4100 BR NCD 05/03
                        Q1010=
201911300630 METAR LRTC 300630Z AUTO VRB01KT 4600 BR NCD 06/05 Q1010=
201911300700 METAR LRTC 300700Z AUTO 16002KT 090V210 3900 BR NCD 06/04
                        Q1011=
201911300730 METAR LRTC 300730Z AUTO 14002KT 100V180 2900 R34/1800VP2000D
                        BR NCD 07/06 Q1011=
201911300800 METAR LRTC 300800Z AUTO 16003KT 080V230 5000 BR FEW230///
                        08/06 Q1011=
201911300830 METAR LRTC 300830Z AUTO VRB01KT 9000 NCD 10/06 Q1011=
201911300900 METAR LRTC 300900Z AUTO VRB03KT 8000 FEW230/// 10/06 Q1011=
201911300930 METAR LRTC 300930Z AUTO 20002KT 150V240 9000 FEW160/// 11/06
                        Q1011=
201911301000 METAR LRTC 301000Z AUTO 26002KT 190V320 9999 NCD 12/06 Q1011=
201911301030 METAR LRTC 301030Z AUTO 13002KT 110V180 4000 BR NCD 13/07
                        Q1011=
201911301100 METAR LRTC 301100Z AUTO 20002KT 170V240 9999 FEW230/// 13/05
                        Q1011=
201911301130 METAR LRTC 301130Z AUTO 20004KT 9000 SCT150/// 12/06 Q1011=
201911301200 METAR LRTC 301200Z AUTO 35010KT 320V030 6000 R34/1400VP2000U
                        FEW110/// BKN130/// BKN140/// 11/07
                        Q1011=
201911301230 METAR LRTC 301230Z AUTO 33010KT 8000 SCT100/// BKN120///
                        09/06 Q1011=
201911301300 METAR LRTC 301300Z AUTO 34007KT 300V010 9999 DZ BKN055///
                        BKN080/// 09/06 Q1011=
201911301330 METAR LRTC 301330Z AUTO 32013KT 9999 -SHRA FEW024/// BKN060///
                        BKN080/// 09/06 Q1012=
201911301400 METAR LRTC 301400Z AUTO 33011KT 9999 -SHRA BKN048/// BKN070///
                        08/06 Q1012=
201911301430 METAR LRTC 301430Z AUTO 34013KT 9999 -RA OVC050/// 08/06
                        Q1013=
201911301500 METAR LRTC 301500Z AUTO 33011KT 8000 -RA OVC050/// 07/06
                        Q1013=
201911301530 METAR LRTC 301530Z AUTO 33013KT 9999 -RA OVC050/// 07/06
                        Q1013=
201911301600 METAR LRTC 301600Z AUTO 33013KT 9999 -RA OVC055/// 07/06
                        Q1013=
201911301630 METAR LRTC 301630Z AUTO 33013KT 9999 -DZ SCT013/// BKN016///
                        BKN045/// 07/05 Q1014=
201911301700 METAR LRTC 301700Z AUTO 33014KT 9999 DZ BKN014/// OVC018///
                        07/05 Q1014=
201911301730 METAR LRTC 301730Z AUTO 34012KT 9999 -RA FEW015/// BKN037///
                        BKN055/// 06/05 Q1014=
201911301800 METAR LRTC 301800Z AUTO 34013KT 9999 -RA FEW030/// BKN039///
                        OVC046/// 06/05 Q1015=
201911301830 METAR LRTC 301830Z AUTO 34016KT 9999 -RA OVC041/// 06/04
                        Q1015=
201911301900 METAR LRTC 301900Z AUTO 35017KT 9999 -RA SCT035/// OVC048///
                        05/04 Q1015=
201911301930 METAR LRTC 301930Z AUTO 35014KT 310V010 9999 -RA BKN036///
                        OVC042/// 05/04 Q1016=
201911302000 METAR LRTC 302000Z AUTO 35018KT 9999 -RA FEW016/// SCT035///
                        OVC049/// 05/03 Q1016=
201911302030 METAR LRTC 302030Z AUTO 35020KT 9999 -RA FEW011/// SCT025///
                        BKN039/// 04/03 Q1016=
201911302100 METAR LRTC 302100Z AUTO 35018KT 320V020 9999 -RA FEW011///
                        SCT020/// OVC050/// 05/03 Q1017=
201911302130 METAR LRTC 302130Z AUTO 35018KT 9999 -RA OVC050/// 04/03
                        Q1017=
201911302200 METAR LRTC 302200Z AUTO 35017KT 9999 -RA FEW014/// SCT033///
                        BKN042/// 04/02 Q1017=
201911302230 METAR LRTC 302230Z AUTO 35015KT 320V020 9999 -RA FEW038///
                        SCT065/// BKN080/// 04/03 Q1017=
201911302300 METAR LRTC 302300Z AUTO 35013KT 320V020 9999 -RA BKN022///
                        BKN080/// 04/03 Q1017=
201911302330 METAR LRTC 302330Z AUTO 33013KT 9999 -RA FEW016/// SCT021///
                        BKN028/// 04/03 Q1018=
