201807010000 METAR LRBS 010000Z 01003KT 320V050 9999 SCT016 17/16 Q1008
                        R07/29//95 NOSIG=
201807010030 METAR LRBS 010030Z AUTO 10006KT 070V140 FEW010/// BKN031///
                        17/15 Q1008 NOSIG=
201807010100 METAR LRBS 010100Z 10006KT 9999 FEW010 BKN036 17/14 Q1008
                        R07/29//95 NOSIG=
201807010130 METAR LRBS 010130Z 11006KT 070V140 9999 SCT038 BKN049 16/13
                        Q1008 R07/29//95 NOSIG=
201807010200 METAR COR LRBS 010200Z 08005KT 9999 BKN040 16/14 Q1009 R07/29//95
                        NOSIG=
201807010230 METAR LRBS 010230Z 09004KT 9999 BKN041 16/14 Q1009 R07/29//95
                        NOSIG=
201807010300 METAR LRBS 010300Z 10003KT 9999 BKN040 16/14 Q1010 R07/29//95
                        NOSIG=
201807010330 METAR LRBS 010330Z 11005KT 070V140 9999 BKN040 16/13 Q1010
                        R07/19//95 NOSIG=
201807010400 METAR LRBS 010400Z 13004KT 100V160 9999 BKN039 17/13 Q1010
                        R07/19//95 NOSIG=
201807010430 METAR LRBS 010430Z 13007KT 9999 BKN040 17/13 Q1011 R07/19//95
                        NOSIG=
201807010500 METAR LRBS 010500Z 13006KT 100V170 9999 SCT027 BKN042 17/12
                        Q1011 R07/19//95 NOSIG=
201807010530 METAR COR LRBS 010530Z 12007KT 9999 SCT025 SCT048 18/12 Q1012
                        R07/19//95 NOSIG=
201807010600 METAR LRBS 010600Z 13007KT 9999 BKN035 18/12 Q1012 R07/19//95
                        NOSIG=
201807010630 METAR LRBS 010630Z 13007KT 070V170 9999 BKN034 SCT043 19/12
                        Q1012 R07/19//95 NOSIG=
201807010700 METAR LRBS 010700Z 12005KT 9999 FEW022 BKN032 19/13 Q1012
                        R07/19//95 NOSIG=
201807010730 METAR LRBS 010730Z 13007KT 9999 SCT023 BKN032 19/13 Q1012
                        R07/19//95 NOSIG=
201807010800 METAR LRBS 010800Z 13007KT 9999 BKN022 OVC033 19/13 Q1013
                        R07/19//95 NOSIG=
201807010830 METAR LRBS 010830Z 12007KT 090V150 9999 FEW023 BKN029 19/13
                        Q1013 R07/19//95 NOSIG=
201807010900 METAR LRBS 010900Z 11008KT 080V140 9999 SCT023 SCT040 20/13
                        Q1013 R07/CLRD// NOSIG=
201807010930 METAR LRBS 010930Z 12006KT 070V170 9999 SCT024 BKN031 20/13
                        Q1013 NOSIG=
201807011000 METAR LRBS 011000Z 12007KT 070V180 9999 BKN027 21/14 Q1013
                        NOSIG=
201807011030 METAR LRBS 011030Z 11007KT 060V150 9999 FEW027 BKN038 22/14
                        Q1013 NOSIG=
201807011100 METAR LRBS 011100Z 10009KT 050V130 9999 SCT028 22/14 Q1013
                        NOSIG=
201807011130 METAR LRBS 011130Z VRB04KT 9999 FEW030 23/13 Q1013 NOSIG=
201807011200 METAR LRBS 011200Z VRB04KT 9999 SCT034 23/14 Q1013 NOSIG=
201807011230 METAR LRBS 011230Z 08004KT 020V130 9999 SCT048 23/13 Q1013
                        NOSIG=
201807011300 METAR LRBS 011300Z VRB04KT 9999 FEW048 24/13 Q1012 NOSIG=
201807011330 METAR LRBS 011330Z VRB02KT CAVOK 24/12 Q1013 NOSIG=
201807011400 METAR LRBS 011400Z 18004KT 130V230 9999 SCT044 24/12 Q1012
                        NOSIG=
201807011430 METAR LRBS 011430Z 30003KT 250V010 9999 FEW045 24/12 Q1012
                        NOSIG=
201807011500 METAR LRBS 011500Z VRB02KT CAVOK 24/12 Q1013 NOSIG=
201807011530 METAR COR LRBS 011530Z VRB03KT CAVOK 25/12 Q1013 NOSIG=
201807011600 METAR LRBS 011600Z 28005KT 230V340 CAVOK 25/10 Q1013 NOSIG=
201807011630 METAR LRBS 011630Z 25003KT 210V290 CAVOK 25/10 Q1013 NOSIG=
201807011700 METAR LRBS 011700Z VRB02KT CAVOK 25/09 Q1013 NOSIG=
201807011730 METAR LRBS 011730Z 26003KT 220V310 CAVOK 23/08 Q1013 NOSIG=
201807011800 METAR LRBS 011800Z 27004KT 240V300 CAVOK 22/08 Q1013 NOSIG=
201807011830 METAR LRBS 011830Z 28002KT CAVOK 22/09 Q1013 NOSIG=
201807011900 METAR LRBS 011900Z 30002KT CAVOK 21/10 Q1014 NOSIG=
201807011930 METAR LRBS 011930Z VRB02KT CAVOK 18/12 Q1014 NOSIG=
201807012000 METAR LRBS 012000Z VRB01KT CAVOK 19/12 Q1014 NOSIG=
201807012030 METAR LRBS 012030Z VRB02KT CAVOK 18/12 Q1014 NOSIG=
201807012100 METAR LRBS 012100Z 03003KT CAVOK 17/13 Q1014 NOSIG=
201807012130 METAR LRBS 012130Z 04003KT CAVOK 16/14 Q1015 NOSIG=
201807012200 METAR LRBS 012200Z 08002KT CAVOK 16/13 Q1014 NOSIG=
201807012230 METAR LRBS 012230Z VRB02KT CAVOK 16/14 Q1015 NOSIG=
201807012300 METAR LRBS 012300Z 01002KT CAVOK 15/13 Q1015 NOSIG=
201807012330 METAR LRBS 012330Z 07003KT CAVOK 15/13 Q1015 NOSIG=
201807020000 METAR LRBS 020000Z 03002KT CAVOK 15/13 Q1015 NOSIG=
201807020030 METAR LRBS 020030Z VRB01KT CAVOK 15/13 Q1015 NOSIG=
201807020100 METAR LRBS 020100Z 07002KT CAVOK 15/13 Q1015 NOSIG=
201807020130 METAR LRBS 020130Z 06001KT CAVOK 15/13 Q1015 NOSIG=
201807020200 METAR LRBS 020200Z 36001KT CAVOK 14/13 Q1015 NOSIG=
201807020230 METAR LRBS 020230Z VRB01KT CAVOK 14/13 Q1015 NOSIG=
201807020300 METAR LRBS 020300Z VRB02KT CAVOK 14/13 Q1015 NOSIG=
201807020330 METAR LRBS 020330Z 00000KT CAVOK 15/13 Q1016 NOSIG=
201807020400 METAR LRBS 020400Z 33002KT CAVOK 15/14 Q1016 NOSIG=
201807020430 METAR COR LRBS 020430Z VRB01KT CAVOK 17/14 Q1016 NOSIG=
201807020500 METAR LRBS 020500Z VRB02KT CAVOK 18/14 Q1016 NOSIG=
201807020530 METAR LRBS 020530Z VRB01KT 9999 SCT010 18/15 Q1016 NOSIG=
201807020600 METAR LRBS 020600Z VRB03KT 9999 BKN011 19/14 Q1016 BECMG
                        NSC=
201807020630 METAR LRBS 020630Z VRB02KT 9999 SCT012 19/14 Q1016 NOSIG=
201807020700 METAR LRBS 020700Z VRB01KT 9999 SCT014 21/14 Q1016 NOSIG=
201807020730 METAR LRBS 020730Z VRB02KT 9999 SCT019 21/14 Q1016 NOSIG=
201807020800 METAR LRBS 020800Z 21004KT 150V260 9999 SCT027 22/14 Q1016
                        NOSIG=
201807020830 METAR LRBS 020830Z VRB04KT 9999 SCT024 22/14 Q1017 NOSIG=
201807020900 METAR LRBS 020900Z 23006KT 190V280 9999 SCT029 22/13 Q1017
                        NOSIG=
201807020930 METAR LRBS 020930Z 25006KT 180V340 9999 SCT034 23/12 Q1017
                        NOSIG=
201807021000 METAR LRBS 021000Z 26006KT 220V320 9999 SCT039 23/09 Q1016
                        NOSIG=
201807021030 METAR LRBS 021030Z 26008KT 9999 FEW040 24/06 Q1016 NOSIG=
201807021100 METAR LRBS 021100Z 27007KT 230V340 CAVOK 24/04 Q1016 NOSIG=
201807021130 METAR LRBS 021130Z 28007KT 230V360 CAVOK 25/06 Q1016 NOSIG=
201807021200 METAR LRBS 021200Z 27007KT 220V360 CAVOK 25/05 Q1016 NOSIG=
201807021230 METAR LRBS 021230Z 29008KT 240V010 CAVOK 25/06 Q1016 NOSIG=
201807021300 METAR LRBS 021300Z 26011KT 220V320 CAVOK 25/05 Q1016 NOSIG=
201807021330 METAR LRBS 021330Z 25008KT 220V340 CAVOK 25/05 Q1016 NOSIG=
201807021400 METAR LRBS 021400Z 27009KT 230V340 CAVOK 26/04 Q1015 NOSIG=
201807021430 METAR LRBS 021430Z 28006KT 230V010 CAVOK 26/05 Q1015 NOSIG=
201807021500 METAR LRBS 021500Z 27008KT 240V350 CAVOK 26/04 Q1015 NOSIG=
201807021530 METAR LRBS 021530Z 29006KT 260V010 CAVOK 26/05 Q1015 NOSIG=
201807021600 METAR LRBS 021600Z 28006KT 240V360 CAVOK 26/05 Q1015 NOSIG=
201807021630 METAR LRBS 021630Z 29004KT 240V340 CAVOK 25/05 Q1015 NOSIG=
201807021700 METAR LRBS 021700Z 29004KT 260V320 CAVOK 25/06 Q1015 NOSIG=
201807021730 METAR LRBS 021730Z VRB02KT CAVOK 24/06 Q1015 NOSIG=
201807021800 METAR LRBS 021800Z 34001KT CAVOK 23/07 Q1015 NOSIG=
201807021830 METAR LRBS 021830Z 00000KT CAVOK 22/09 Q1015 NOSIG=
201807021900 METAR LRBS 021900Z 00000KT CAVOK 20/10 Q1016 NOSIG=
201807021930 METAR LRBS 021930Z 00000KT CAVOK 19/10 Q1016 NOSIG=
201807022000 METAR LRBS 022000Z 00000KT CAVOK 18/10 Q1016 NOSIG=
201807022030 METAR LRBS 022030Z 14001KT CAVOK 18/11 Q1016 NOSIG=
201807022100 METAR LRBS 022100Z VRB01KT CAVOK 17/11 Q1016 NOSIG=
201807022130 METAR LRBS 022130Z 36001KT CAVOK 16/11 Q1016 NOSIG=
201807022200 METAR LRBS 022200Z 00000KT CAVOK 16/11 Q1016 NOSIG=
201807022230 METAR LRBS 022230Z 01001KT CAVOK 15/11 Q1016 NOSIG=
201807022300 METAR LRBS 022300Z AUTO 36002KT NCD 15/11 Q1016 NOSIG=
201807022330 METAR LRBS 022330Z VRB01KT CAVOK 15/11 Q1016 NOSIG=
201807030000 METAR LRBS 030000Z 00000KT CAVOK 14/11 Q1015 NOSIG=
201807030030 METAR LRBS 030030Z 00000KT CAVOK 15/11 Q1015 NOSIG=
201807030100 METAR COR LRBS 030100Z VRB01KT CAVOK 14/12 Q1015 NOSIG=
201807030130 METAR COR LRBS 030130Z VRB01KT CAVOK 14/12 Q1015 NOSIG=
201807030200 METAR LRBS 030200Z 00000KT CAVOK 15/12 Q1015 NOSIG=
201807030230 METAR LRBS 030230Z 00000KT CAVOK 14/12 Q1016 NOSIG=
201807030300 METAR LRBS 030300Z 01003KT 320V070 CAVOK 15/12 Q1016 NOSIG=
201807030330 METAR LRBS 030330Z VRB01KT CAVOK 15/12 Q1016 NOSIG=
201807030400 METAR LRBS 030400Z 07002KT CAVOK 16/13 Q1016 NOSIG=
201807030430 METAR LRBS 030430Z VRB02KT CAVOK 17/13 Q1016 NOSIG=
201807030500 METAR LRBS 030500Z VRB01KT CAVOK 17/13 Q1016 NOSIG=
201807030530 METAR LRBS 030530Z 03003KT 010V080 CAVOK 19/14 Q1017 NOSIG=
201807030600 METAR LRBS 030600Z 06005KT 020V100 CAVOK 19/12 Q1016 NOSIG=
201807030630 METAR LRBS 030630Z 03005KT 360V070 CAVOK 20/12 Q1016 NOSIG=
201807030700 METAR LRBS 030700Z 06005KT 020V100 CAVOK 21/13 Q1016 NOSIG=
201807030730 METAR COR LRBS 030730Z 07004KT 040V130 CAVOK 23/11 Q1016
                        NOSIG=
201807030800 METAR LRBS 030800Z VRB03KT CAVOK 24/11 Q1016 NOSIG=
201807030830 METAR LRBS 030830Z VRB02KT CAVOK 25/09 Q1016 NOSIG=
201807030900 METAR LRBS 030900Z VRB02KT CAVOK 25/09 Q1016 NOSIG=
201807030930 METAR COR LRBS 030930Z VRB03KT CAVOK 26/09 Q1016 NOSIG=
201807031000 METAR LRBS 031000Z VRB02KT CAVOK 27/08 Q1016 NOSIG=
201807031030 METAR LRBS 031030Z VRB03KT CAVOK 26/08 Q1015 NOSIG=
201807031100 METAR LRBS 031100Z VRB04KT CAVOK 27/10 Q1015 NOSIG=
201807031130 METAR LRBS 031130Z VRB03KT CAVOK 27/09 Q1015 NOSIG=
201807031200 METAR LRBS 031200Z 21004KT 120V270 CAVOK 28/10 Q1015 NOSIG=
201807031230 METAR LRBS 031230Z VRB04KT CAVOK 28/12 Q1015 NOSIG=
201807031300 METAR LRBS 031300Z VRB03KT CAVOK 28/12 Q1015 NOSIG=
201807031330 METAR LRBS 031330Z 30005KT 250V350 CAVOK 29/12 Q1015 NOSIG=
201807031400 METAR LRBS 031400Z 29005KT 220V350 CAVOK 29/12 Q1015 NOSIG=
201807031430 METAR LRBS 031430Z 30007KT 270V330 CAVOK 29/12 Q1015 NOSIG=
201807031500 METAR LRBS 031500Z 30003KT 260V020 CAVOK 29/12 Q1015 NOSIG=
201807031530 METAR LRBS 031530Z 30003KT 240V020 CAVOK 28/12 Q1015 NOSIG=
201807031600 METAR LRBS 031600Z 36003KT 300V050 CAVOK 28/11 Q1015 NOSIG=
201807031630 METAR LRBS 031630Z VRB01KT CAVOK 28/12 Q1015 NOSIG=
201807031700 METAR LRBS 031700Z 00000KT CAVOK 28/12 Q1015 NOSIG=
201807031730 METAR LRBS 031730Z 04003KT CAVOK 26/15 Q1015 NOSIG=
201807031800 METAR LRBS 031800Z 06003KT CAVOK 25/15 Q1015 NOSIG=
201807031830 METAR LRBS 031830Z 06003KT CAVOK 24/15 Q1015 NOSIG=
201807031900 METAR LRBS 031900Z 07003KT CAVOK 23/15 Q1015 NOSIG=
201807031930 METAR LRBS 031930Z 07003KT CAVOK 23/15 Q1015 NOSIG=
201807032000 METAR LRBS 032000Z 07003KT CAVOK 22/15 Q1015 NOSIG=
201807032030 METAR LRBS 032030Z 05002KT CAVOK 22/14 Q1016 NOSIG=
201807032100 METAR LRBS 032100Z 07003KT CAVOK 21/15 Q1016 NOSIG=
201807032130 METAR LRBS 032130Z 06003KT CAVOK 21/14 Q1016 NOSIG=
201807032200 METAR LRBS 032200Z 08003KT CAVOK 22/14 Q1016 NOSIG=
201807032230 METAR LRBS 032230Z 03003KT 360V060 CAVOK 21/13 Q1016 NOSIG=
201807032300 METAR LRBS 032300Z 02004KT CAVOK 21/14 Q1016 NOSIG=
201807032330 METAR LRBS 032330Z 36005KT CAVOK 20/15 Q1016 NOSIG=
201807040000 METAR LRBS 040000Z 02005KT 350V050 CAVOK 20/14 Q1016 NOSIG=
201807040030 METAR LRBS 040030Z 03003KT 340V070 CAVOK 20/14 Q1016 NOSIG=
201807040100 METAR LRBS 040100Z VRB02KT CAVOK 19/14 Q1016 NOSIG=
201807040130 METAR LRBS 040130Z 01004KT CAVOK 19/13 Q1016 NOSIG=
201807040200 METAR LRBS 040200Z 03003KT 360V070 CAVOK 19/13 Q1016 NOSIG=
201807040230 METAR LRBS 040230Z 04004KT CAVOK 18/13 Q1016 NOSIG=
201807040300 METAR LRBS 040300Z 04004KT 010V070 9999 FEW044 18/12 Q1015
                        NOSIG=
201807040330 METAR LRBS 040330Z 05004KT 010V070 9999 FEW044 18/12 Q1015
                        NOSIG=
201807040400 METAR LRBS 040400Z 04005KT 010V080 CAVOK 19/12 Q1015 NOSIG=
201807040430 METAR COR LRBS 040430Z 05005KT 010V070 CAVOK 19/12 Q1016
                        NOSIG=
201807040500 METAR LRBS 040500Z 05008KT 360V090 9999 FEW045 20/13 Q1016
                        NOSIG=
201807040530 METAR LRBS 040530Z 04006KT 010V070 CAVOK 20/14 Q1015 NOSIG=
201807040600 METAR LRBS 040600Z 05006KT 020V100 CAVOK 22/15 Q1015 NOSIG=
201807040630 METAR LRBS 040630Z 07007KT 030V090 CAVOK 22/16 Q1015 NOSIG=
201807040700 METAR LRBS 040700Z 07005KT 020V130 CAVOK 23/17 Q1015 NOSIG=
201807040730 METAR COR LRBS 040730Z 08005KT 040V160 CAVOK 23/17 Q1015
                        NOSIG=
201807040800 METAR LRBS 040800Z 10003KT 020V180 CAVOK 25/17 Q1015 NOSIG=
201807040830 METAR LRBS 040830Z 10003KT 040V150 CAVOK 26/17 Q1014 NOSIG=
201807040900 METAR LRBS 040900Z 10003KT 050V160 CAVOK 26/17 Q1014 NOSIG=
201807040930 METAR LRBS 040930Z 23003KT 160V310 CAVOK 27/17 Q1014 NOSIG=
201807041000 METAR LRBS 041000Z VRB02KT 9999 FEW050TCU 28/17 Q1014 NOSIG=
201807041030 METAR LRBS 041030Z 25003KT 170V340 9999 FEW045TCU 29/17 Q1013
                        NOSIG=
201807041100 METAR LRBS 041100Z VRB02KT 9999 SCT043 29/17 Q1013 NOSIG=
201807041130 METAR LRBS 041130Z VRB03KT 9999 SCT043 FEW050CB 29/17 Q1013
                        NOSIG=
201807041200 METAR LRBS 041200Z 24006KT 170V310 9999 FEW045 30/16 Q1013
                        NOSIG=
201807041230 METAR LRBS 041230Z 29003KT 210V010 9999 SCT045 29/17 Q1012
                        NOSIG=
201807041300 METAR LRBS 041300Z 30004KT 230V020 9999 FEW048 30/15 Q1012
                        NOSIG=
201807041330 METAR LRBS 041330Z 27006KT 230V300 CAVOK 30/15 Q1012 NOSIG=
201807041400 METAR LRBS 041400Z 34003KT 250V050 CAVOK 30/15 Q1012 NOSIG=
201807041430 METAR LRBS 041430Z 32003KT 240V030 CAVOK 30/16 Q1012 NOSIG=
201807041500 METAR LRBS 041500Z 29004KT 240V010 CAVOK 30/15 Q1012 NOSIG=
201807041530 METAR LRBS 041530Z 30003KT 250V010 CAVOK 30/15 Q1012 NOSIG=
201807041600 METAR LRBS 041600Z 31003KT 260V040 CAVOK 30/15 Q1012 NOSIG=
201807041630 METAR LRBS 041630Z VRB02KT CAVOK 30/14 Q1012 NOSIG=
201807041700 METAR LRBS 041700Z 01003KT 340V060 CAVOK 29/14 Q1012 NOSIG=
201807041730 METAR LRBS 041730Z 02003KT 350V050 CAVOK 28/15 Q1012 NOSIG=
201807041800 METAR LRBS 041800Z 03003KT 350V060 9999 FEW050TCU 27/15 Q1012
                        NOSIG=
201807041830 METAR LRBS 041830Z 02003KT CAVOK 26/15 Q1012 NOSIG=
201807041900 METAR LRBS 041900Z 02004KT 350V040 CAVOK 26/15 Q1012 NOSIG=
201807041930 METAR LRBS 041930Z 02005KT 350V060 CAVOK 25/15 Q1012 NOSIG=
201807042000 METAR LRBS 042000Z 02006KT 350V060 CAVOK 24/15 Q1012 NOSIG=
201807042030 METAR LRBS 042030Z 02006KT 340V060 CAVOK 24/16 Q1012 NOSIG=
201807042100 METAR LRBS 042100Z 01006KT 340V050 CAVOK 23/17 Q1012 NOSIG=
201807042130 METAR LRBS 042130Z 02006KT 340V070 CAVOK 23/17 Q1013 NOSIG=
201807042200 METAR LRBS 042200Z 03004KT 350V070 CAVOK 22/17 Q1013 NOSIG=
201807042230 METAR LRBS 042230Z 02004KT 350V060 CAVOK 22/17 Q1013 NOSIG=
201807042300 METAR LRBS 042300Z 36005KT 320V040 CAVOK 22/17 Q1013 NOSIG=
201807042330 METAR LRBS 042330Z 01004KT 330V060 CAVOK 21/17 Q1013 NOSIG=
201807050000 METAR LRBS 050000Z 02006KT 350V060 CAVOK 22/17 Q1012 NOSIG=
201807050030 METAR LRBS 050030Z 03005KT 350V060 CAVOK 21/17 Q1012 NOSIG=
201807050100 METAR LRBS 050100Z 02005KT 340V060 CAVOK 21/17 Q1012 NOSIG=
201807050130 METAR LRBS 050130Z AUTO 02005KT 340V070 FEW160/// BKN200///
                        21/17 Q1012 NOSIG=
201807050200 METAR LRBS 050200Z 04006KT 360V080 CAVOK 21/17 Q1012 NOSIG=
201807050230 METAR LRBS 050230Z 04006KT 360V070 CAVOK 21/16 Q1012 NOSIG=
201807050300 METAR LRBS 050300Z 04006KT 010V070 9999 FEW050CB 21/16 Q1012
                        TEMPO 5000 -TSRA=
201807050330 METAR LRBS 050330Z 05005KT 360V090 9999 -SHRA SCT056CB 21/14
                        Q1013 TEMPO 5000 -TSRA=
201807050400 METAR LRBS 050400Z 28006KT 240V360 9999 -TSRA FEW023 BKN042CB
                        19/16 Q1014 R07/29//95 TEMPO 5000
                        -TSRA=
201807050430 METAR LRBS 050430Z 35006KT 310V040 5000 -SHRA BR VCTS SCT042CB
                        18/15 Q1014 R07/29//95 TEMPO 3000
                        -TSRA=
201807050500 METAR LRBS 050500Z 35005KT 310V040 9999 -SHRA VCTS FEW047CB
                        17/15 Q1014 R07/29//95 TEMPO 5000
                        -TSRA=
201807050530 METAR LRBS 050530Z 01004KT 320V050 9999 -SHRA VCTS FEW025
                        FEW050CB 17/15 Q1014 R07/29//95 TEMPO
                        5000 -TSRA=
201807050600 METAR LRBS 050600Z 02003KT 340V060 9999 VCTS FEW038 FEW050CB
                        18/15 Q1013 R07/29//95 TEMPO 5000
                        -TSRA=
201807050630 METAR LRBS 050630Z VRB01KT 9999 VCTS FEW038 FEW050CB 18/15
                        Q1014 R07/29//95 TEMPO 5000 -TSRA=
201807050700 METAR LRBS 050700Z VRB02KT 9999 FEW035 FEW050CB 18/16 Q1014
                        R07/29//95 TEMPO 5000 -TSRA=
201807050730 METAR LRBS 050730Z 32004KT 300V010 9999 FEW024 FEW050CB 18/16
                        Q1014 R07/29//95 TEMPO 5000 -TSRA=
201807050800 METAR LRBS 050800Z 34003KT 290V050 9999 FEW033 FEW050CB 19/16
                        Q1014 R07/29//95 TEMPO 5000 -TSRA=
201807050830 METAR LRBS 050830Z 01006KT 310V060 9999 -SHRA FEW045 FEW050CB
                        19/16 Q1014 R07/29//95 TEMPO 5000
                        -TSRA=
201807050900 METAR LRBS 050900Z 01003KT 320V090 9999 -SHRA FEW017 SCT042CB
                        BKN049 17/16 Q1014 R07/29//95=
201807050930 METAR LRBS 050930Z 27002KT 9999 -SHRA SCT022 SCT040CB 18/17
                        Q1014 R07/29//95 TEMPO 5000 -SHRA=
201807051000 METAR LRBS 051000Z VRB02KT 9999 SCT044 FEW050CB 20/17 Q1014
                        R07/29//95 BECMG NSC=
201807051030 METAR LRBS 051030Z 01002KT 9999 FEW013 21/18 Q1014 R07/29//95
                        BECMG NSC=
201807051100 METAR LRBS 051100Z 02003KT 320V070 9999 SCT013 22/18 Q1014
                        R07/29//95 NOSIG=
201807051130 METAR COR LRBS 051130Z VRB02KT 9999 SCT015 23/17 Q1014 R07/19//95
                        NOSIG=
201807051200 METAR LRBS 051200Z VRB02KT 9999 BKN023 23/18 Q1013 R07/19//95
                        NOSIG=
201807051230 METAR LRBS 051230Z 01005KT 350V050 9999 BKN026 22/18 Q1013
                        R07/19//95 NOSIG=
201807051300 METAR LRBS 051300Z 36003KT 310V090 9999 FEW027 23/17 Q1013
                        R07/19//95 NOSIG=
201807051330 METAR LRBS 051330Z VRB01KT 9999 FEW033 24/17 Q1013 R07/19//95
                        NOSIG=
201807051400 METAR LRBS 051400Z VRB01KT 9999 FEW035 24/17 Q1013 R07/19//95
                        NOSIG=
201807051430 METAR LRBS 051430Z 36003KT 310V070 9999 FEW045 24/15 Q1013
                        R07/19//95 NOSIG=
201807051500 METAR LRBS 051500Z VRB02KT CAVOK 24/17 Q1013 R07/CLRD// NOSIG=
201807051530 METAR LRBS 051530Z VRB02KT CAVOK 24/16 Q1012 NOSIG=
201807051600 METAR LRBS 051600Z VRB02KT CAVOK 25/17 Q1012 NOSIG=
201807051630 METAR LRBS 051630Z 32003KT 270V030 CAVOK 25/17 Q1012 NOSIG=
201807051700 METAR LRBS 051700Z VRB02KT CAVOK 24/17 Q1012 NOSIG=
201807051730 METAR LRBS 051730Z 27003KT CAVOK 24/18 Q1012 NOSIG=
201807051800 METAR LRBS 051800Z 27002KT CAVOK 23/18 Q1012 NOSIG=
201807051830 METAR LRBS 051830Z VRB01KT CAVOK 22/18 Q1012 NOSIG=
201807051900 METAR LRBS 051900Z 30002KT CAVOK 21/18 Q1012 NOSIG=
201807051930 METAR LRBS 051930Z 30002KT CAVOK 21/18 Q1012 NOSIG=
201807052000 METAR LRBS 052000Z 30001KT CAVOK 20/18 Q1012 NOSIG=
201807052030 METAR LRBS 052030Z VRB01KT CAVOK 20/17 Q1012 NOSIG=
201807052100 METAR LRBS 052100Z VRB02KT CAVOK 20/18 Q1012 NOSIG=
201807052130 METAR LRBS 052130Z 26002KT CAVOK 19/18 Q1012 NOSIG=
201807052200 METAR COR LRBS 052200Z 27003KT CAVOK 19/18 Q1012 NOSIG=
201807052230 METAR LRBS 052230Z 26003KT CAVOK 19/18 Q1012 NOSIG=
201807052300 METAR LRBS 052300Z 24002KT CAVOK 19/17 Q1012 NOSIG=
201807052330 METAR LRBS 052330Z 25002KT CAVOK 19/17 Q1012 NOSIG=
201807060000 METAR LRBS 060000Z 26001KT CAVOK 18/17 Q1012 NOSIG=
201807060030 METAR LRBS 060030Z 23002KT CAVOK 18/17 Q1012 NOSIG=
201807060100 METAR LRBS 060100Z 25002KT CAVOK 18/17 Q1012 NOSIG=
201807060130 METAR LRBS 060130Z 26003KT CAVOK 17/16 Q1012 TEMPO 5000 BR=
201807060200 METAR LRBS 060200Z 25003KT 7000 MIFG NSC 17/16 Q1012 TEMPO
                        5000 BR=
201807060230 METAR LRBS 060230Z 26003KT 7000 MIFG NSC 17/16 Q1012 TEMPO
                        5000 BR=
201807060300 METAR LRBS 060300Z 24003KT 8000 NSC 17/16 Q1012 NOSIG=
201807060330 METAR LRBS 060330Z VRB02KT CAVOK 18/17 Q1012 NOSIG=
201807060400 METAR LRBS 060400Z VRB02KT CAVOK 18/17 Q1012 NOSIG=
201807060430 METAR COR LRBS 060430Z 29003KT 220V360 CAVOK 19/16 Q1012
                        NOSIG=
201807060500 METAR LRBS 060500Z 29003KT 240V340 CAVOK 20/15 Q1012 NOSIG=
201807060530 METAR LRBS 060530Z 30003KT 220V010 CAVOK 22/16 Q1012 NOSIG=
201807060600 METAR LRBS 060600Z 28003KT 210V360 CAVOK 23/16 Q1012 NOSIG=
201807060630 METAR LRBS 060630Z 29004KT 240V350 CAVOK 24/17 Q1012 NOSIG=
201807060700 METAR LRBS 060700Z 28005KT 240V320 CAVOK 25/16 Q1012 NOSIG=
201807060730 METAR LRBS 060730Z 27006KT 240V300 CAVOK 26/16 Q1012 NOSIG=
201807060800 METAR LRBS 060800Z 27006KT 240V320 CAVOK 27/16 Q1012 NOSIG=
201807060830 METAR LRBS 060830Z 29005KT 210V360 CAVOK 27/17 Q1012 NOSIG=
201807060900 METAR COR LRBS 060900Z VRB04KT CAVOK 28/15 Q1012 NOSIG=
201807060930 METAR LRBS 060930Z VRB05KT 9999 FEW047 28/14 Q1012 NOSIG=
201807061000 METAR LRBS 061000Z VRB03KT CAVOK 29/13 Q1012 NOSIG=
201807061030 METAR LRBS 061030Z VRB02KT CAVOK 29/12 Q1012 NOSIG=
201807061100 METAR LRBS 061100Z 25005KT 200V300 CAVOK 29/13 Q1011 NOSIG=
201807061130 METAR LRBS 061130Z VRB03KT CAVOK 29/13 Q1011 NOSIG=
201807061200 METAR LRBS 061200Z VRB03KT CAVOK 30/12 Q1011 NOSIG=
201807061230 METAR LRBS 061230Z VRB03KT CAVOK 30/13 Q1011 NOSIG=
201807061300 METAR LRBS 061300Z 24003KT 180V290 CAVOK 29/11 Q1011 NOSIG=
201807061330 METAR LRBS 061330Z 21003KT 150V280 CAVOK 30/12 Q1010 NOSIG=
201807061400 METAR LRBS 061400Z VRB01KT CAVOK 30/12 Q1010 NOSIG=
201807061430 METAR LRBS 061430Z VRB03KT CAVOK 30/12 Q1010 NOSIG=
201807061500 METAR LRBS 061500Z 30004KT 220V030 CAVOK 30/11 Q1010 NOSIG=
201807061530 METAR LRBS 061530Z VRB04KT CAVOK 30/11 Q1010 NOSIG=
201807061600 METAR LRBS 061600Z 32004KT 250V020 CAVOK 30/11 Q1010 NOSIG=
201807061630 METAR LRBS 061630Z 30003KT 240V010 CAVOK 30/11 Q1010 NOSIG=
201807061700 METAR LRBS 061700Z VRB02KT CAVOK 30/11 Q1010 NOSIG=
201807061730 METAR LRBS 061730Z VRB02KT CAVOK 29/11 Q1010 NOSIG=
201807061800 METAR LRBS 061800Z VRB01KT CAVOK 27/15 Q1011 NOSIG=
201807061830 METAR LRBS 061830Z 00000KT CAVOK 24/15 Q1011 NOSIG=
201807061900 METAR LRBS 061900Z 00000KT CAVOK 24/14 Q1011 NOSIG=
201807061930 METAR LRBS 061930Z 00000KT CAVOK 24/15 Q1011 NOSIG=
201807062000 METAR LRBS 062000Z 01001KT CAVOK 22/15 Q1011 NOSIG=
201807062030 METAR LRBS 062030Z 00000KT CAVOK 22/15 Q1011 NOSIG=
201807062100 METAR LRBS 062100Z 36002KT CAVOK 22/16 Q1011 NOSIG=
201807062130 METAR LRBS 062130Z VRB01KT CAVOK 21/15 Q1011 NOSIG=
201807062200 METAR LRBS 062200Z 01001KT CAVOK 21/15 Q1011 NOSIG=
201807062230 METAR LRBS 062230Z VRB01KT CAVOK 20/15 Q1011 NOSIG=
201807062300 METAR COR LRBS 062300Z 00000KT CAVOK 20/16 Q1011 NOSIG=
201807062330 METAR LRBS 062330Z 00000KT CAVOK 20/16 Q1011 NOSIG=
201807070000 METAR LRBS 070000Z VRB01KT CAVOK 19/16 Q1011 NOSIG=
201807070030 METAR LRBS 070030Z VRB02KT CAVOK 19/16 Q1011 NOSIG=
201807070100 METAR LRBS 070100Z VRB01KT CAVOK 19/16 Q1011 NOSIG=
201807070130 METAR LRBS 070130Z VRB01KT CAVOK 19/16 Q1010 NOSIG=
201807070200 METAR LRBS 070200Z AUTO VRB02KT NCD 19/16 Q1010 NOSIG=
201807070230 METAR COR LRBS 070230Z VRB01KT CAVOK 19/16 Q1011 NOSIG=
201807070300 METAR LRBS 070300Z VRB01KT CAVOK 18/16 Q1011 NOSIG=
201807070330 METAR LRBS 070330Z VRB01KT CAVOK 19/16 Q1011 NOSIG=
201807070400 METAR LRBS 070400Z VRB02KT CAVOK 20/16 Q1011 NOSIG=
201807070430 METAR LRBS 070430Z VRB01KT CAVOK 21/17 Q1011 NOSIG=
201807070500 METAR LRBS 070500Z 05003KT 020V090 CAVOK 21/17 Q1011 NOSIG=
201807070530 METAR LRBS 070530Z 08005KT 040V110 CAVOK 22/17 Q1011 NOSIG=
201807070600 METAR LRBS 070600Z 06005KT 020V090 CAVOK 23/18 Q1011 NOSIG=
201807070630 METAR LRBS 070630Z 07004KT 360V110 CAVOK 24/18 Q1011 NOSIG=
201807070700 METAR LRBS 070700Z 06004KT 010V110 CAVOK 26/18 Q1011 NOSIG=
201807070730 METAR LRBS 070730Z 06005KT 360V110 CAVOK 27/17 Q1011 NOSIG=
201807070800 METAR LRBS 070800Z 05005KT 360V100 CAVOK 27/17 Q1011 NOSIG=
201807070830 METAR LRBS 070830Z 07004KT 320V130 CAVOK 28/17 Q1011 NOSIG=
201807070900 METAR LRBS 070900Z 08004KT 020V130 CAVOK 29/15 Q1011=
201807070930 METAR LRBS 070930Z 03003KT CAVOK 29/16 Q1011 NOSIG=
201807071000 METAR LRBS 071000Z 09005KT 020V150 CAVOK 29/15 Q1010 NOSIG=
201807071030 METAR LRBS 071030Z 02004KT 330V050 9999 -SHRA FEW061CB 29/14
                        Q1010 NOSIG=
201807071100 METAR LRBS 071100Z VRB02KT 9999 FEW022 FEW060CB 29/16 Q1010
                        NOSIG=
201807071130 METAR LRBS 071130Z VRB02KT 9999 TS SCT050CB 29/16 Q1009 TEMPO
                        5000 -TSRA=
201807071200 METAR COR LRBS 071200Z 21010KT 180V240 9999 TS VCSH BKN050CB
                        25/16 Q1010 TEMPO 5000 -TSRA=
201807071230 METAR COR LRBS 071230Z 19010KT 140V250 9999 5000E -TSRA FEW032
                        BKN045CB 22/16 Q1010 R07/29//95 NOSIG=
201807071300 METAR LRBS 071300Z 32008KT 270V020 9999 -TSRA BKN045CB 21/15
                        Q1011 R07/29//95 NOSIG=
201807071330 METAR LRBS 071330Z 30008KT 270V340 6000 -TSRA OVC050CB 20/17
                        Q1012 R07/29//95 NOSIG=
201807071400 METAR LRBS 071400Z 30008KT 270V340 6000 -TSRA OVC050CB 19/18
                        Q1012 R07/29//95 NOSIG=
201807071430 METAR LRBS 071430Z 31008KT 270V350 5000 TSRA BKN050CB 19/18
                        Q1012 R07/29//95 NOSIG=
201807071500 METAR LRBS 071500Z 33006KT 300V360 7000 -SHRA SCT050CB 19/18
                        Q1012 RETSRA R07/29//95 NOSIG=
201807071530 METAR LRBS 071530Z 33006KT 300V360 9999 -SHRA FEW050CB 19/18
                        Q1011 RETSRA R07/29//95 NOSIG=
201807071600 METAR LRBS 071600Z 32005KT 280V350 9999 -SHRA FEW050CB 19/18
                        Q1010 R07/29//95 NOSIG=
201807071630 METAR LRBS 071630Z 32003KT 280V340 9999 FEW050CB 20/18 Q1010
                        R07/29//95 NOSIG=
201807071700 METAR LRBS 071700Z 34005KT 290V040 9999 -SHRA FEW050CB 20/17
                        Q1010 R07/29//95 NOSIG=
201807071730 METAR LRBS 071730Z 12004KT 060V150 9999 FEW050CB 20/17 Q1011
                        R07/29//95 NOSIG=
201807071800 METAR LRBS 071800Z VRB01KT 9999 -RA NSC 20/18 Q1011 R07/29//95
                        NOSIG=
201807071830 METAR LRBS 071830Z VRB01KT CAVOK 20/18 Q1011 R07/29//95 NOSIG=
201807071900 METAR LRBS 071900Z VRB02KT CAVOK 19/18 Q1012 R07/29//95 NOSIG=
201807071930 METAR LRBS 071930Z VRB02KT CAVOK 20/18 Q1012 R07/29//95 NOSIG=
201807072000 METAR LRBS 072000Z 00000KT CAVOK 19/18 Q1011 R07/29//95 NOSIG=
201807072030 METAR LRBS 072030Z 00000KT CAVOK 20/18 Q1011 R07/29//95 NOSIG=
201807072100 METAR LRBS 072100Z 30002KT CAVOK 20/18 Q1011 R07/29//95 NOSIG=
201807072130 METAR LRBS 072130Z 08002KT 9999 -SHRA FEW050CB 19/18 Q1012
                        R07/29//95 NOSIG=
201807072200 METAR LRBS 072200Z VRB02KT 8000 -SHRA FEW050CB 19/18 Q1012
                        R07/29//95 TEMPO 5000 SHRA=
201807072230 METAR LRBS 072230Z 02004KT 8000 -SHRA FEW050CB 19/18 Q1012
                        R07/29//95 TEMPO 5000 SHRA=
201807072300 METAR LRBS 072300Z 06003KT 6000 FEW050CB 19/18 Q1012 R07/29//95
                        TEMPO 5000 SHRA=
201807072330 METAR LRBS 072330Z 12002KT 9999 FEW050CB 19/18 Q1012 R07/29//95
                        NOSIG=
201807080000 METAR LRBS 080000Z 14003KT 9999 FEW050CB 19/18 Q1012 R07/29//95
                        NOSIG=
201807080030 METAR COR LRBS 080030Z 14003KT 9999 -SHRA FEW050CB 19/18
                        Q1012 R07/29//95 NOSIG=
201807080100 METAR LRBS 080100Z VRB02KT 9999 FEW050CB 19/18 Q1012 R07/29//95
                        NOSIG=
201807080130 METAR LRBS 080130Z 00000KT 9999 -RA NSC 19/18 Q1012 R07/29//95
                        NOSIG=
201807080200 METAR LRBS 080200Z 03001KT 8000 -RA NSC 19/18 Q1012 R07/29//95
                        NOSIG=
201807080230 METAR LRBS 080230Z VRB02KT 5000 -RA BR FEW005 19/18 Q1012
                        R07/29//95 NOSIG=
201807080300 METAR LRBS 080300Z 00000KT 5000 -RA BR FEW005 19/18 Q1012
                        R07/29//95 NOSIG=
201807080330 METAR LRBS 080330Z 03002KT 3000 -RA BR SCT048 19/18 Q1012
                        R07/29//95 NOSIG=
201807080400 METAR LRBS 080400Z VRB02KT 3000 -RA BR SCT046 19/18 Q1012
                        R07/29//95 NOSIG=
201807080430 METAR LRBS 080430Z VRB02KT 5000 -DZ BR FEW045 19/18 Q1012
                        R07/29//95 NOSIG=
201807080500 METAR LRBS 080500Z 34003KT 7000 -DZ FEW045 19/19 Q1012 R07/29//95
                        NOSIG=
201807080530 METAR LRBS 080530Z 34003KT 310V010 9999 FEW005 19/19 Q1012
                        R07/29//95 NOSIG=
201807080600 METAR LRBS 080600Z 01003KT 340V050 9999 -RA NSC 20/19 Q1012
                        R07/29//95 NOSIG=
201807080630 METAR LRBS 080630Z 36003KT 310V040 9999 FEW008 20/18 Q1012
                        R07/29//95 NOSIG=
201807080700 METAR LRBS 080700Z 36004KT 320V040 CAVOK 21/18 Q1012 R07/29//95
                        NOSIG=
201807080730 METAR LRBS 080730Z 01004KT 340V040 CAVOK 21/17 Q1012 R07/29//95
                        NOSIG=
201807080800 METAR LRBS 080800Z 03005KT 360V060 CAVOK 22/17 Q1012 R07/29//95
                        NOSIG=
201807080830 METAR LRBS 080830Z 02006KT 340V050 CAVOK 22/16 Q1012 R07/29//95
                        NOSIG=
201807080900 METAR LRBS 080900Z 01003KT 320V070 CAVOK 22/17 Q1012 R07/29//95
                        NOSIG=
201807080930 METAR LRBS 080930Z 36004KT 310V040 CAVOK 22/17 Q1012 R07/29//95
                        NOSIG=
201807081000 METAR COR LRBS 081000Z 02003KT 350V060 9999 FEW044 22/16
                        Q1012 R07/29//95 NOSIG=
201807081030 METAR LRBS 081030Z 06004KT 350V110 CAVOK 23/17 Q1012 R07/29//95
                        NOSIG=
201807081100 METAR LRBS 081100Z 05004KT 360V100 9999 FEW022 23/17 Q1012
                        R07/29//95 NOSIG=
201807081130 METAR LRBS 081130Z 06005KT 010V090 9999 FEW022 23/17 Q1011
                        R07/29//95 NOSIG=
201807081200 METAR LRBS 081200Z 07003KT 040V140 9999 FEW021 23/17 Q1011
                        R07/29//95 NOSIG=
201807081230 METAR LRBS 081230Z VRB02KT 9999 SCT025 FEW045CB 24/18 Q1011
                        R07/29//95 NOSIG=
201807081300 METAR LRBS 081300Z 07004KT 040V110 9999 SCT023 FEW045CB 24/16
                        Q1011 R07/29//95 NOSIG=
201807081330 METAR LRBS 081330Z 08004KT 010V130 9999 BKN030 25/16 Q1011
                        R07/29//95 NOSIG=
201807081400 METAR COR LRBS 081400Z 05003KT 360V100 9999 BKN032 25/16
                        Q1011 R07/29//95 NOSIG=
201807081430 METAR LRBS 081430Z 06003KT 360V100 9999 FEW036 FEW045CB 25/16
                        Q1010 R07/29//95 NOSIG=
201807081500 METAR LRBS 081500Z 05004KT 340V090 9999 SCT030 FEW040CB 25/16
                        Q1011 R07/29//95 NOSIG=
201807081530 METAR LRBS 081530Z 05006KT 360V090 9999 FEW032 FEW045CB 25/16
                        Q1011 R07/29//95 NOSIG=
201807081600 METAR LRBS 081600Z 01002KT 9999 FEW037 FEW045CB 24/17 Q1011
                        R07/29//95 NOSIG=
201807081630 METAR LRBS 081630Z 03003KT 010V090 9999 FEW037 FEW045CB 24/17
                        Q1011 R07/29//95 NOSIG=
201807081700 METAR LRBS 081700Z 31007KT 280V360 9999 SCT038 FEW045CB 22/16
                        Q1011 R07/29//95 NOSIG=
201807081730 METAR LRBS 081730Z 32005KT 280V070 9999 -SHRA BKN036CB 21/15
                        Q1011 R07/29//95 NOSIG=
201807081800 METAR LRBS 081800Z 27004KT 240V300 9999 -TSRA BKN043CB 19/17
                        Q1012 R07/29//95 NOSIG=
201807081830 METAR LRBS 081830Z VRB02KT 9999 -SHRA FEW026 BKN040CB 19/17
                        Q1012 RETS R07/29//95 NOSIG=
201807081900 METAR LRBS 081900Z 07003KT 9999 SCT040CB 20/17 Q1012 R07/29//95
                        NOSIG=
201807081930 METAR LRBS 081930Z 05003KT 010V090 9999 FEW040CB 19/16 Q1012
                        R07/29//95=
201807082000 METAR LRBS 082000Z 04003KT 010V080 CAVOK 19/15 Q1012 R07/29//95
                        NOSIG=
201807082030 METAR LRBS 082030Z 36003KT 310V040 CAVOK 19/16 Q1012 R07/29//95
                        NOSIG=
201807082100 METAR LRBS 082100Z 02003KT 340V050 CAVOK 19/16 Q1012 R07/29//95
                        NOSIG=
201807082130 METAR LRBS 082130Z 02003KT 350V050 CAVOK 19/15 Q1012 R07/29//95
                        NOSIG=
201807082200 METAR LRBS 082200Z 01003KT CAVOK 18/16 Q1012 R07/29//95 NOSIG=
201807082230 METAR LRBS 082230Z 01001KT CAVOK 18/16 Q1012 R07/29//95 NOSIG=
201807082300 METAR LRBS 082300Z 00000KT CAVOK 18/16 Q1012 R07/29//95 NOSIG=
201807082330 METAR LRBS 082330Z 00000KT 9999 FEW044 18/16 Q1012 R07/29//95
                        NOSIG=
201807090000 METAR LRBS 090000Z 36001KT 9999 FEW046 18/16 Q1012 R07/29//95
                        NOSIG=
201807090030 METAR LRBS 090030Z AUTO 28001KT BKN047/// BKN086/// 18/16
                        Q1012 NOSIG=
201807090100 METAR COR LRBS 090100Z VRB01KT 9999 BKN048 19/16 Q1011 R07/29//95
                        NOSIG=
201807090130 METAR LRBS 090130Z 30002KT 9999 OVC049 19/16 Q1011 R07/29//95
                        NOSIG=
201807090200 METAR LRBS 090200Z 25003KT 230V300 9999 BKN048 18/17 Q1011
                        R07/29//95 NOSIG=
201807090230 METAR LRBS 090230Z AUTO 28003KT 240V300 OVC048/// 19/17 Q1011
                        NOSIG=
201807090300 METAR LRBS 090300Z 25004KT 220V310 9999 -SHRA SCT040CB BKN048
                        18/17 Q1011 R07/29//95 TEMPO 5000
                        SHRA=
201807090330 METAR LRBS 090330Z 29003KT 240V350 8000 -SHRA BKN042CB 18/17
                        Q1011 R07/29//95 TEMPO 5000 SHRA=
201807090400 METAR LRBS 090400Z 27003KT 230V320 8000 -SHRA SCT040CB SCT048
                        18/17 Q1011 R07/29//95 NOSIG=
201807090430 METAR LRBS 090430Z 27003KT 8000 -SHRA SCT045CB 18/17 Q1012
                        R07/29//95 NOSIG=
201807090500 METAR LRBS 090500Z 29004KT 240V320 9999 -SHRA FEW045CB 18/17
                        Q1012 R07/29//95 NOSIG=
201807090530 METAR COR LRBS 090530Z 33003KT 270V060 8000 -SHRA SCT045CB
                        18/18 Q1012 R07/29//95 NOSIG=
201807090600 METAR LRBS 090600Z 32004KT 260V050 9999 -SHRA FEW004 BKN040
                        SCT042CB 19/18 Q1012 R07/29//95 NOSIG=
201807090630 METAR LRBS 090630Z 29003KT 240V340 9999 -SHRA FEW006 SCT040CB
                        19/18 Q1012 R07/29//95 NOSIG=
201807090700 METAR LRBS 090700Z 31003KT 250V010 8000 -SHRA FEW007 BKN045CB
                        19/18 Q1012 R07/29//95 NOSIG=
201807090730 METAR COR LRBS 090730Z 33003KT 9999 -SHRA FEW005 SCT050CB
                        19/18 Q1012 R07/29//95 NOSIG=
201807090800 METAR LRBS 090800Z 32004KT 270V010 8000 -SHRA FEW004 SCT050CB
                        19/18 Q1013 R07/29//95 NOSIG=
201807090830 METAR LRBS 090830Z 33004KT 280V020 9999 -SHRA SCT050CB 19/18
                        Q1013 R07/29//95 NOSIG=
201807090900 METAR LRBS 090900Z 34004KT 290V050 9999 FEW027 FEW050CB 20/18
                        Q1012 R07/29//95 NOSIG=
201807090930 METAR COR LRBS 090930Z 36004KT 290V050 9999 FEW050CB 20/18
                        Q1013 R07/29//95 NOSIG=
201807091000 METAR LRBS 091000Z 35004KT 310V040 9999 -RA FEW026 FEW050CB
                        20/18 Q1013 R07/29//95 NOSIG=
201807091030 METAR LRBS 091030Z 35003KT 270V050 9999 FEW019 FEW050CB 21/17
                        Q1013 R07/29//95 NOSIG=
201807091100 METAR LRBS 091100Z 35003KT 280V040 9999 FEW050CB 22/17 Q1012
                        R07/29//95 NOSIG=
201807091130 METAR LRBS 091130Z 36005KT 300V060 CAVOK 22/17 Q1012 R07/29//95
                        NOSIG=
201807091200 METAR LRBS 091200Z 02006KT 310V090 9999 FEW020 23/17 Q1012
                        R07/29//95 NOSIG=
201807091230 METAR LRBS 091230Z 02006KT 330V070 9999 FEW019 23/18 Q1012
                        R07/19//95 NOSIG=
201807091300 METAR LRBS 091300Z 02006KT 320V060 9999 BKN019 24/18 Q1012
                        R07/19//95 NOSIG=
201807091330 METAR LRBS 091330Z 01006KT 320V070 9999 FEW020 24/18 Q1012
                        R07/19//95 NOSIG=
201807091400 METAR LRBS 091400Z 36006KT 310V030 9999 FEW027 24/18 Q1012
                        R07/CLRD// NOSIG=
201807091430 METAR LRBS 091430Z 36006KT 330V040 9999 TS FEW040CB 23/17
                        Q1012 TEMPO 5000 TSRA=
201807091500 METAR LRBS 091500Z 01005KT 330V040 9999 VCTS SCT032CB 24/17
                        Q1011 RETS TEMPO 5000 TSRA=
201807091530 METAR LRBS 091530Z 05008KT 3000 SHRA FEW013 SCT040CB 20/19
                        Q1012 R07/29//95 BECMG 5000 -SHRA=
201807091600 METAR LRBS 091600Z 06007KT 020V080 9999 -SHRA VCTS FEW012
                        SCT045CB 20/18 Q1012 R07/29//95 NOSIG=
201807091630 METAR LRBS 091630Z 01004KT 340V050 9999 -SHRA FEW015 FEW040CB
                        19/18 Q1012 R07/29//95 NOSIG=
201807091700 METAR LRBS 091700Z 04006KT 9999 FEW017 FEW040CB 19/18 Q1012
                        R07/29//95 NOSIG=
201807091730 METAR LRBS 091730Z 01006KT 340V050 9999 FEW045CB 19/17 Q1012
                        R07/29//95 NOSIG=
201807091800 METAR LRBS 091800Z 01003KT 330V050 9999 FEW050CB 19/18 Q1012
                        R07/29//95 NOSIG=
201807091830 METAR LRBS 091830Z 36003KT 320V040 9999 FEW050CB 19/18 Q1012
                        R07/29//95 NOSIG=
201807091900 METAR LRBS 091900Z VRB01KT CAVOK 19/18 Q1013 R07/29//95 NOSIG=
201807091930 METAR LRBS 091930Z 04004KT 010V070 CAVOK 20/18 Q1013 R07/29//95
                        NOSIG=
201807092000 METAR LRBS 092000Z VRB02KT 9999 FEW032 20/18 Q1013 R07/29//95
                        NOSIG=
201807092030 METAR LRBS 092030Z 35003KT 310V030 9999 FEW034 19/19 Q1013
                        R07/29//95 NOSIG=
201807092100 METAR LRBS 092100Z VRB02KT 9999 FEW031 19/18 Q1012 R07/29//95
                        NOSIG=
201807092130 METAR LRBS 092130Z VRB02KT CAVOK 19/18 Q1012 R07/29//95 NOSIG=
201807092200 METAR LRBS 092200Z VRB02KT 9999 FEW033 19/18 Q1013 R07/29//95
                        NOSIG=
201807092230 METAR LRBS 092230Z 01003KT 340V040 9999 FEW033 19/18 Q1012
                        R07/29//95 NOSIG=
201807092300 METAR LRBS 092300Z 00000KT 9999 FEW042 FEW050CB 19/18 Q1012
                        R07/29//95 NOSIG=
201807092330 METAR LRBS 092330Z VRB02KT 9999 FEW050CB 19/18 Q1012 R07/29//95
                        BECMG 5000 -SHRA=
201807100000 METAR LRBS 100000Z VRB01KT 9999 SCT040 FEW050CB 19/18 Q1012
                        R07/29//95 BECMG 5000 -SHRA=
201807100030 METAR LRBS 100030Z VRB01KT 9999 -SHRA BKN040 FEW050CB 19/18
                        Q1012 R07/29//95 BECMG 5000 -SHRA=
201807100100 METAR LRBS 100100Z 18003KT 140V220 9999 -SHRA BKN040 FEW050CB
                        19/18 Q1012 R07/29//95 BECMG 5000
                        -SHRA=
201807100130 METAR LRBS 100130Z 19005KT 1300 R07/P2000 R25/P2000 TSRA
                        BKN038 SCT045CB 19/18 Q1012 R07/29//95
                        BECMG 3000 SHRA=
201807100200 METAR LRBS 100200Z 12004KT 090V180 2000 TSRA BKN035 SCT045CB
                        18/17 Q1012 R07/29//95 NOSIG=
201807100230 METAR LRBS 100230Z 05006KT 3000 TSRA FEW012 BKN042 SCT050CB
                        18/17 Q1012 R07/29//95 NOSIG=
201807100300 METAR LRBS 100300Z 06006KT 020V090 3000 TSRA BKN040 SCT045CB
                        18/17 Q1012 R07/29//95 NOSIG=
201807100330 METAR LRBS 100330Z 06004KT 4000 -SHRA BKN044 FEW050CB 18/17
                        Q1012 RETSRA R07/29//95 NOSIG=
201807100400 METAR LRBS 100400Z 04004KT 010V070 6000 -SHRA FEW050CB 18/17
                        Q1012 R07/29//95 NOSIG=
201807100430 METAR LRBS 100430Z 05003KT 010V080 9999 -SHRA FEW050CB 18/17
                        Q1012 R07/29//95 NOSIG=
201807100500 METAR LRBS 100500Z VRB01KT 9999 FEW036 FEW050CB 18/17 Q1012
                        R07/29//95 NOSIG=
201807100530 METAR LRBS 100530Z 06003KT 030V090 9999 BKN040 FEW050CB 19/18
                        Q1012 R07/29//95 NOSIG=
201807100600 METAR LRBS 100600Z 05005KT 010V090 3000 SHRA FEW013 SCT040CB
                        19/18 Q1012 R07/29//95 TEMPO 1500
                        SHRA=
201807100630 METAR LRBS 100630Z 03003KT 360V060 9999 FEW028 SCT036CB 19/18
                        Q1012 RERA R07/29//95 BECMG 5000
                        TSRA=
201807100700 METAR LRBS 100700Z 03004KT 300V090 9999 FEW008 BKN042 FEW050CB
                        20/18 Q1013 R07/29//95 NOSIG=
201807100730 METAR LRBS 100730Z 03005KT 350V080 9999 FEW007 BKN038 SCT050CB
                        19/18 Q1013 R07/29//95 NOSIG=
201807100800 METAR COR LRBS 100800Z 02005KT 340V050 9999 SCT035 SCT050CB
                        20/17 Q1013 R07/29//95 NOSIG=
201807100830 METAR LRBS 100830Z 02005KT 340V050 9999 SCT035 SCT050CB 20/17
                        Q1013 R07/29//95 NOSIG=
201807100900 METAR COR LRBS 100900Z 35003KT 270V050 9999 -TSRA FEW015
                        BKN033 SCT050CB 19/18 Q1013 R07/29//95
                        NOSIG=
201807100930 METAR LRBS 100930Z 28004KT 9999 -SHRA SCT010 SCT030 SCT050CB
                        19/18 Q1013 R07/29//95 TEMPO 5000
                        TSRA=
201807101000 METAR LRBS 101000Z 29005KT 270V330 9999 FEW010 BKN032 SCT050CB
                        19/18 Q1013 R07/29//95 TEMPO 5000
                        TSRA=
201807101030 METAR LRBS 101030Z 31006KT 270V340 9999 FEW007 SCT036 SCT050CB
                        20/18 Q1013 R07/29//95 TEMPO 5000
                        TSRA=
201807101100 METAR LRBS 101100Z 33006KT 260V020 9999 -SHRA SCT036 SCT050CB
                        20/18 Q1012 R07/29//95 TEMPO 5000
                        TSRA=
201807101130 METAR LRBS 101130Z 35005KT 290V040 9999 SCT034 FEW050CB 20/18
                        Q1012 R07/29//95 NOSIG=
201807101200 METAR LRBS 101200Z 36005KT 270V060 9999 FEW050CB 21/18 Q1012
                        R07/29//95 NOSIG=
201807101230 METAR LRBS 101230Z VRB04KT CAVOK 22/17 Q1012 R07/29//95 NOSIG=
201807101300 METAR LRBS 101300Z 03004KT 350V100 9999 FEW014 23/18 Q1012
                        R07/29//95 NOSIG=
201807101330 METAR LRBS 101330Z VRB02KT CAVOK 23/17 Q1011 R07/29//95 NOSIG=
201807101400 METAR LRBS 101400Z 07004KT 360V150 CAVOK 24/17 Q1011 R07/29//95
                        NOSIG=
201807101430 METAR LRBS 101430Z 09004KT 050V130 CAVOK 24/17 Q1011 R07/29//95
                        NOSIG=
201807101500 METAR LRBS 101500Z 06003KT 360V110 9999 FEW024 24/17 Q1011
                        R07/29//95 NOSIG=
201807101530 METAR LRBS 101530Z 00000KT 9999 FEW035CB 24/16 Q1011 R07/29//95
                        NOSIG=
201807101600 METAR LRBS 101600Z VRB01KT 9999 FEW026 FEW035CB 24/16 Q1011
                        R07/CLRD// NOSIG=
201807101630 METAR LRBS 101630Z 00000KT 9999 FEW040CB 24/17 Q1012 NOSIG=
201807101700 METAR LRBS 101700Z VRB01KT 9999 FEW040CB 25/16 Q1012 TEMPO
                        VRB20KT 5000 TSRA=
201807101730 METAR LRBS 101730Z 03003KT 360V060 9999 FEW033 FEW040CB 24/15
                        Q1012 NOSIG=
201807101800 METAR LRBS 101800Z 36002KT 9999 FEW033 FEW040CB 22/18 Q1012
                        NOSIG=
201807101830 METAR LRBS 101830Z 00000KT 9999 SCT033 FEW040CB 22/17 Q1012
                        NOSIG=
201807101900 METAR LRBS 101900Z 03005KT 360V080 9999 VCTS SCT035 FEW040CB
                        21/17 Q1012 NOSIG=
201807101930 METAR LRBS 101930Z 06003KT 010V100 9999 SCT035 FEW045CB 20/17
                        Q1013 NOSIG=
201807102000 METAR LRBS 102000Z 00000KT 9999 FEW035 FEW045CB 20/17 Q1013
                        NOSIG=
201807102030 METAR LRBS 102030Z 36002KT 9999 SCT036 20/17 Q1013 NOSIG=
201807102100 METAR LRBS 102100Z 02001KT 9999 FEW038 19/17 Q1013 NOSIG=
201807102130 METAR LRBS 102130Z VRB02KT CAVOK 18/17 Q1013 NOSIG=
201807102200 METAR COR LRBS 102200Z VRB02KT CAVOK 19/17 Q1013 NOSIG=
201807102230 METAR LRBS 102230Z 32002KT 9999 FEW030 18/17 Q1013 TEMPO
                        5000 BR=
201807102300 METAR LRBS 102300Z VRB02KT 9999 BKN029 18/17 Q1013 TEMPO
                        5000 BR=
201807102330 METAR LRBS 102330Z 01001KT 9999 FEW028 18/17 Q1013 TEMPO
                        5000 BR=
201807110000 METAR COR LRBS 110000Z 23001KT 9999 BKN028 18/17 Q1013 TEMPO
                        5000 BR=
201807110030 METAR LRBS 110030Z VRB01KT 9999 FEW032 18/17 Q1013 TEMPO
                        5000 BR=
201807110100 METAR LRBS 110100Z 00000KT 9999 SCT032 17/17 Q1013 NOSIG=
201807110130 METAR LRBS 110130Z 26002KT 9999 FEW037 17/17 Q1013 NOSIG=
201807110200 METAR LRBS 110200Z 00000KT 8000 MIFG FEW038 17/16 Q1013 TEMPO
                        5000 BR=
201807110230 METAR LRBS 110230Z 00000KT 8000 MIFG NSC 17/16 Q1013 TEMPO
                        5000 BR=
201807110300 METAR LRBS 110300Z VRB01KT 8000 MIFG NSC 17/16 Q1013 TEMPO
                        5000 BR=
201807110330 METAR LRBS 110330Z VRB02KT 9999 MIFG NSC 17/16 Q1013 TEMPO
                        5000 BR=
201807110400 METAR LRBS 110400Z 23002KT 9000 NSC 18/17 Q1013 NOSIG=
201807110430 METAR LRBS 110430Z VRB01KT CAVOK 19/18 Q1013 NOSIG=
201807110500 METAR LRBS 110500Z VRB01KT CAVOK 21/17 Q1014 NOSIG=
201807110530 METAR LRBS 110530Z VRB01KT CAVOK 21/18 Q1014 NOSIG=
201807110600 METAR LRBS 110600Z VRB01KT CAVOK 22/17 Q1014 NOSIG=
201807110630 METAR LRBS 110630Z VRB01KT 9999 FEW018 23/17 Q1014 NOSIG=
201807110700 METAR LRBS 110700Z VRB01KT 9999 BKN018 23/16 Q1014 NOSIG=
201807110730 METAR LRBS 110730Z 27003KT 200V330 9999 BKN021 24/17 Q1014
                        NOSIG=
201807110800 METAR LRBS 110800Z VRB01KT 9999 BKN021 23/17 Q1014 NOSIG=
201807110830 METAR LRBS 110830Z 17003KT 100V240 9999 BKN026 25/17 Q1014
                        NOSIG=
201807110900 METAR LRBS 110900Z VRB02KT 9999 BKN030 25/16 Q1013 NOSIG=
201807110930 METAR LRBS 110930Z VRB02KT 9999 BKN030 26/15 Q1013 NOSIG=
201807111000 METAR LRBS 111000Z VRB04KT 9999 BKN030 25/16 Q1013 NOSIG=
201807111030 METAR LRBS 111030Z 27004KT 180V320 9999 BKN035 25/16 Q1013
                        NOSIG=
201807111100 METAR LRBS 111100Z 21003KT 140V260 9999 BKN045 26/15 Q1013
                        NOSIG=
201807111130 METAR LRBS 111130Z 22005KT CAVOK 25/16 Q1013 NOSIG=
201807111200 METAR LRBS 111200Z 19005KT 140V230 CAVOK 27/14 Q1013 NOSIG=
201807111230 METAR LRBS 111230Z 23005KT 200V280 CAVOK 27/16 Q1013 NOSIG=
201807111300 METAR LRBS 111300Z VRB03KT CAVOK 27/15 Q1013 NOSIG=
201807111330 METAR LRBS 111330Z 18004KT 150V230 CAVOK 27/16 Q1013 NOSIG=
201807111400 METAR LRBS 111400Z 26004KT 180V320 CAVOK 28/16 Q1013 NOSIG=
201807111430 METAR LRBS 111430Z 19005KT 130V230 CAVOK 27/15 Q1012 NOSIG=
201807111500 METAR LRBS 111500Z 21004KT 150V270 CAVOK 28/15 Q1012 NOSIG=
201807111530 METAR LRBS 111530Z 24003KT 150V300 CAVOK 28/15 Q1012 NOSIG=
201807111600 METAR LRBS 111600Z 22005KT 140V260 CAVOK 27/16 Q1012 NOSIG=
201807111630 METAR LRBS 111630Z VRB02KT CAVOK 27/15 Q1012 NOSIG=
201807111700 METAR LRBS 111700Z VRB01KT CAVOK 28/15 Q1012 NOSIG=
201807111730 METAR LRBS 111730Z 25003KT CAVOK 27/16 Q1013 NOSIG=
201807111800 METAR LRBS 111800Z 24002KT CAVOK 26/16 Q1013 NOSIG=
201807111830 METAR LRBS 111830Z 25002KT CAVOK 24/17 Q1013 NOSIG=
201807111900 METAR LRBS 111900Z 25002KT CAVOK 23/17 Q1013 NOSIG=
201807111930 METAR LRBS 111930Z 27001KT CAVOK 23/17 Q1013 NOSIG=
201807112000 METAR LRBS 112000Z 27002KT CAVOK 22/17 Q1013 NOSIG=
201807112030 METAR LRBS 112030Z 28001KT CAVOK 22/17 Q1014 NOSIG=
201807112100 METAR LRBS 112100Z 28001KT CAVOK 21/17 Q1014 NOSIG=
201807112130 METAR LRBS 112130Z 27001KT CAVOK 21/17 Q1014 NOSIG=
201807112200 METAR LRBS 112200Z 26002KT CAVOK 20/17 Q1014 NOSIG=
201807112230 METAR LRBS 112230Z 26003KT CAVOK 20/18 Q1014 NOSIG=
201807112300 METAR LRBS 112300Z 24002KT CAVOK 20/18 Q1013 NOSIG=
201807112330 METAR LRBS 112330Z 26002KT CAVOK 20/17 Q1014 NOSIG=
201807120000 METAR LRBS 120000Z 28001KT CAVOK 19/17 Q1014 NOSIG=
201807120030 METAR LRBS 120030Z 23002KT CAVOK 19/17 Q1013 NOSIG=
201807120100 METAR LRBS 120100Z VRB02KT CAVOK 19/17 Q1014 NOSIG=
201807120130 METAR LRBS 120130Z 28002KT CAVOK 19/18 Q1013 NOSIG=
201807120200 METAR LRBS 120200Z 25003KT CAVOK 19/17 Q1013 NOSIG=
201807120230 METAR LRBS 120230Z 25002KT CAVOK 19/18 Q1013 NOSIG=
201807120300 METAR LRBS 120300Z 27002KT CAVOK 18/18 Q1014 NOSIG=
201807120330 METAR LRBS 120330Z 27002KT CAVOK 19/18 Q1014 NOSIG=
201807120400 METAR LRBS 120400Z 29003KT 260V320 CAVOK 19/18 Q1014 NOSIG=
201807120430 METAR LRBS 120430Z VRB02KT CAVOK 20/18 Q1014 NOSIG=
201807120500 METAR LRBS 120500Z VRB02KT CAVOK 21/18 Q1014 NOSIG=
201807120530 METAR LRBS 120530Z VRB02KT CAVOK 22/18 Q1014 NOSIG=
201807120600 METAR LRBS 120600Z VRB02KT CAVOK 23/17 Q1014 NOSIG=
201807120630 METAR LRBS 120630Z 26003KT 210V300 CAVOK 25/18 Q1014 NOSIG=
201807120700 METAR LRBS 120700Z 27003KT 220V360 CAVOK 26/18 Q1014 NOSIG=
201807120730 METAR LRBS 120730Z 26004KT 220V340 CAVOK 27/17 Q1014 NOSIG=
201807120800 METAR LRBS 120800Z VRB05KT CAVOK 27/16 Q1014 NOSIG=
201807120830 METAR LRBS 120830Z 30005KT 240V020 CAVOK 28/17 Q1014 NOSIG=
201807120900 METAR LRBS 120900Z 27006KT 220V340 CAVOK 28/16 Q1014 NOSIG=
201807120930 METAR LRBS 120930Z 27006KT 230V330 CAVOK 28/17 Q1014 NOSIG=
201807121000 METAR LRBS 121000Z 27007KT 220V340 CAVOK 29/17 Q1014 NOSIG=
201807121030 METAR LRBS 121030Z 26007KT 220V310 9999 FEW043 29/16 Q1014
                        NOSIG=
201807121100 METAR LRBS 121100Z VRB03KT 9999 FEW047 30/16 Q1014 NOSIG=
201807121130 METAR LRBS 121130Z 28004KT 230V020 9999 FEW047 30/16 Q1013
                        NOSIG=
201807121200 METAR LRBS 121200Z 28005KT 9999 FEW049 30/16 Q1013 NOSIG=
201807121230 METAR LRBS 121230Z 27006KT 230V310 CAVOK 30/17 Q1013 NOSIG=
201807121300 METAR LRBS 121300Z VRB04KT CAVOK 31/16 Q1013 NOSIG=
201807121330 METAR LRBS 121330Z 28005KT 220V340 CAVOK 31/16 Q1013 NOSIG=
201807121400 METAR LRBS 121400Z 29007KT 240V350 CAVOK 31/16 Q1013 NOSIG=
201807121430 METAR LRBS 121430Z 28006KT 230V320 CAVOK 31/16 Q1013 NOSIG=
201807121500 METAR LRBS 121500Z 29005KT 250V340 CAVOK 31/16 Q1013 NOSIG=
201807121530 METAR LRBS 121530Z 27007KT 230V320 CAVOK 30/16 Q1012 NOSIG=
201807121600 METAR LRBS 121600Z 28004KT 230V340 9999 FEW050CB 30/17 Q1012
                        NOSIG=
201807121630 METAR LRBS 121630Z 27004KT 230V310 9999 FEW050CB 30/17 Q1012
                        NOSIG=
201807121700 METAR LRBS 121700Z 27004KT 240V300 CAVOK 30/17 Q1012 NOSIG=
201807121730 METAR LRBS 121730Z 27004KT CAVOK 29/17 Q1013 NOSIG=
201807121800 METAR LRBS 121800Z VRB02KT CAVOK 28/18 Q1013 NOSIG=
201807121830 METAR LRBS 121830Z VRB02KT CAVOK 26/18 Q1013 NOSIG=
201807121900 METAR LRBS 121900Z VRB01KT CAVOK 25/19 Q1013 NOSIG=
201807121930 METAR LRBS 121930Z VRB02KT CAVOK 25/18 Q1013 NOSIG=
201807122000 METAR LRBS 122000Z VRB02KT CAVOK 24/19 Q1013 NOSIG=
201807122030 METAR LRBS 122030Z VRB01KT CAVOK 24/19 Q1013 NOSIG=
201807122100 METAR LRBS 122100Z VRB01KT CAVOK 24/19 Q1013 NOSIG=
201807122130 METAR LRBS 122130Z VRB02KT CAVOK 23/19 Q1013 NOSIG=
201807122200 METAR LRBS 122200Z 00000KT CAVOK 22/19 Q1013 NOSIG=
201807122230 METAR LRBS 122230Z VRB01KT CAVOK 22/18 Q1013 NOSIG=
201807122300 METAR LRBS 122300Z 29001KT CAVOK 22/18 Q1013 NOSIG=
201807122330 METAR LRBS 122330Z VRB01KT CAVOK 21/18 Q1013 NOSIG=
201807130000 METAR LRBS 130000Z VRB01KT CAVOK 21/18 Q1013 NOSIG=
201807130030 METAR LRBS 130030Z 26002KT CAVOK 20/19 Q1013 NOSIG=
201807130100 METAR LRBS 130100Z 00000KT CAVOK 20/18 Q1013 NOSIG=
201807130130 METAR LRBS 130130Z 30003KT 270V340 CAVOK 20/19 Q1013 NOSIG=
201807130200 METAR LRBS 130200Z VRB02KT CAVOK 20/18 Q1013 NOSIG=
201807130230 METAR LRBS 130230Z 00000KT CAVOK 20/17 Q1013 NOSIG=
201807130300 METAR LRBS 130300Z VRB01KT CAVOK 20/17 Q1013 NOSIG=
201807130330 METAR LRBS 130330Z 00000KT CAVOK 20/17 Q1013 NOSIG=
201807130400 METAR LRBS 130400Z 00000KT CAVOK 20/17 Q1013 NOSIG=
201807130430 METAR LRBS 130430Z 00000KT CAVOK 22/17 Q1013 NOSIG=
201807130500 METAR LRBS 130500Z VRB01KT CAVOK 24/17 Q1013 NOSIG=
201807130530 METAR LRBS 130530Z VRB02KT CAVOK 25/17 Q1013 NOSIG=
201807130600 METAR COR LRBS 130600Z VRB01KT CAVOK 26/17 Q1013 NOSIG=
201807130630 METAR LRBS 130630Z 09003KT 050V140 CAVOK 26/16 Q1013 NOSIG=
201807130700 METAR LRBS 130700Z 07003KT 010V180 CAVOK 27/16 Q1013 NOSIG=
201807130730 METAR LRBS 130730Z VRB02KT CAVOK 27/15 Q1013 NOSIG=
201807130800 METAR LRBS 130800Z VRB02KT CAVOK 28/17 Q1013 NOSIG=
201807130830 METAR LRBS 130830Z VRB02KT CAVOK 28/17 Q1014 NOSIG=
201807130900 METAR LRBS 130900Z VRB03KT 9999 FEW044 29/14 Q1013 NOSIG=
201807130930 METAR LRBS 130930Z 09005KT 020V140 9999 FEW047 28/16 Q1013
                        NOSIG=
201807131000 METAR LRBS 131000Z 10003KT 040V210 CAVOK 29/16 Q1013 NOSIG=
201807131030 METAR LRBS 131030Z VRB03KT CAVOK 29/17 Q1013 NOSIG=
201807131100 METAR LRBS 131100Z 16004KT 100V230 CAVOK 30/17 Q1013 NOSIG=
201807131130 METAR LRBS 131130Z 22005KT 140V270 9999 FEW045CB 30/16 Q1012
                        NOSIG=
201807131200 METAR COR LRBS 131200Z 25007KT 190V300 9999 FEW045CB 30/16
                        Q1012 TEMPO 02015G25KT=
201807131230 METAR LRBS 131230Z VRB05KT 9999 FEW045CB 30/16 Q1012 TEMPO
                        02015G25KT=
201807131300 METAR LRBS 131300Z 28006KT 220V340 9999 FEW045CB 31/15 Q1012
                        TEMPO 02015G25KT=
201807131330 METAR LRBS 131330Z 03009KT 340V090 9999 VCTS FEW045CB 27/16
                        Q1012 TEMPO VRB15G25KT 5000 TSRA=
201807131400 METAR LRBS 131400Z 02008KT 330V060 9999 FEW045CB 27/16 Q1012
                        TEMPO 5000 -TSRA=
201807131430 METAR LRBS 131430Z 34004KT 280V040 9999 -SHRA SCT045CB 27/16
                        Q1012 NOSIG=
201807131500 METAR LRBS 131500Z 01004KT 290V070 9999 FEW029 FEW045CB 28/16
                        Q1012 NOSIG=
201807131530 METAR LRBS 131530Z 36004KT 310V060 CAVOK 28/16 Q1012 NOSIG=
201807131600 METAR LRBS 131600Z 02005KT 340V060 CAVOK 28/15 Q1012 NOSIG=
201807131630 METAR LRBS 131630Z 02003KT 350V050 CAVOK 27/16 Q1012 NOSIG=
201807131700 METAR LRBS 131700Z 06003KT CAVOK 26/16 Q1012 NOSIG=
201807131730 METAR LRBS 131730Z 04002KT CAVOK 27/15 Q1012 NOSIG=
201807131800 METAR LRBS 131800Z 04002KT CAVOK 26/15 Q1012 NOSIG=
201807131830 METAR COR LRBS 131830Z 04003KT CAVOK 24/16 Q1013 NOSIG=
201807131900 METAR LRBS 131900Z 06003KT CAVOK 23/17 Q1013 NOSIG=
201807131930 METAR LRBS 131930Z VRB01KT CAVOK 23/17 Q1013 NOSIG=
201807132000 METAR LRBS 132000Z 29002KT CAVOK 23/17 Q1013 NOSIG=
201807132030 METAR LRBS 132030Z 31003KT CAVOK 22/17 Q1013 NOSIG=
201807132100 METAR LRBS 132100Z VRB02KT CAVOK 22/17 Q1013 NOSIG=
201807132130 METAR LRBS 132130Z 28003KT 260V320 CAVOK 21/17 Q1013 NOSIG=
201807132200 METAR LRBS 132200Z 32003KT 270V360 CAVOK 22/16 Q1013 NOSIG=
201807132230 METAR LRBS 132230Z 32004KT CAVOK 22/16 Q1013 NOSIG=
201807132300 METAR LRBS 132300Z 31004KT 290V350 CAVOK 22/15 Q1013 NOSIG=
201807132330 METAR LRBS 132330Z 30004KT 270V340 CAVOK 21/17 Q1013 NOSIG=
201807140000 METAR LRBS 140000Z 31003KT 270V350 CAVOK 21/16 Q1013 NOSIG=
201807140030 METAR LRBS 140030Z 29004KT 250V320 CAVOK 20/15 Q1013 NOSIG=
201807140100 METAR LRBS 140100Z 31003KT 260V360 CAVOK 20/14 Q1013 NOSIG=
201807140130 METAR LRBS 140130Z 30006KT CAVOK 20/14 Q1013 NOSIG=
201807140200 METAR LRBS 140200Z 30005KT CAVOK 20/14 Q1013 NOSIG=
201807140230 METAR LRBS 140230Z 30003KT 260V340 CAVOK 19/14 Q1013 NOSIG=
201807140300 METAR LRBS 140300Z VRB02KT CAVOK 19/14 Q1013 NOSIG=
201807140330 METAR LRBS 140330Z VRB02KT CAVOK 19/14 Q1013 NOSIG=
201807140400 METAR LRBS 140400Z 30002KT CAVOK 19/14 Q1013 NOSIG=
201807140430 METAR LRBS 140430Z VRB02KT CAVOK 20/15 Q1013 NOSIG=
201807140500 METAR LRBS 140500Z 00000KT CAVOK 20/14 Q1013 NOSIG=
201807140530 METAR LRBS 140530Z VRB02KT CAVOK 22/15 Q1014 NOSIG=
201807140600 METAR LRBS 140600Z VRB01KT CAVOK 23/15 Q1014 NOSIG=
201807140630 METAR LRBS 140630Z VRB02KT CAVOK 25/15 Q1014 NOSIG=
201807140700 METAR LRBS 140700Z VRB02KT CAVOK 26/13 Q1014 NOSIG=
201807140730 METAR LRBS 140730Z VRB02KT CAVOK 25/14 Q1014 NOSIG=
201807140800 METAR LRBS 140800Z 12003KT 080V170 CAVOK 26/11 Q1014 NOSIG=
201807140830 METAR LRBS 140830Z 21004KT 160V260 CAVOK 27/15 Q1014 NOSIG=
201807140900 METAR LRBS 140900Z 20003KT 140V260 CAVOK 27/15 Q1014 NOSIG=
201807140930 METAR LRBS 140930Z 18005KT 130V270 CAVOK 27/12 Q1014 NOSIG=
201807141000 METAR LRBS 141000Z VRB05KT CAVOK 28/12 Q1013 NOSIG=
201807141030 METAR LRBS 141030Z 21007KT 150V250 CAVOK 28/13 Q1013 NOSIG=
201807141100 METAR LRBS 141100Z 21007KT 150V250 CAVOK 28/13 Q1013 NOSIG=
201807141130 METAR LRBS 141130Z 27004KT CAVOK 29/14 Q1012 NOSIG=
201807141200 METAR LRBS 141200Z 29007KT 240V010 CAVOK 29/13 Q1012 NOSIG=
201807141230 METAR LRBS 141230Z 29005KT 230V020 CAVOK 29/12 Q1011 NOSIG=
201807141300 METAR LRBS 141300Z 30006KT 250V020 CAVOK 29/12 Q1011 NOSIG=
201807141330 METAR LRBS 141330Z 29005KT 240V350 CAVOK 28/12 Q1011 NOSIG=
201807141400 METAR LRBS 141400Z 28008KT 230V340 CAVOK 30/12 Q1011 NOSIG=
201807141430 METAR LRBS 141430Z 28008KT 240V350 CAVOK 30/11 Q1011 NOSIG=
201807141500 METAR LRBS 141500Z 27008KT 240V340 9999 FEW050CB 29/11 Q1010
                        NOSIG=
201807141530 METAR LRBS 141530Z 29007KT 200V350 9999 FEW050CB 30/11 Q1010
                        NOSIG=
201807141600 METAR LRBS 141600Z 29005KT 240V350 9999 FEW050CB 29/12 Q1010
                        NOSIG=
201807141630 METAR LRBS 141630Z 33004KT 270V020 9999 FEW031 FEW050CB 28/13
                        Q1010 NOSIG=
201807141700 METAR LRBS 141700Z 33003KT 260V010 9999 FEW050CB 28/14 Q1010
                        NOSIG=
201807141730 METAR LRBS 141730Z 35008KT 300V060 CAVOK 26/14 Q1011 NOSIG=
201807141800 METAR LRBS 141800Z 35004KT 310V040 CAVOK 25/13 Q1011 NOSIG=
201807141830 METAR LRBS 141830Z 35003KT 290V040 CAVOK 24/14 Q1011 NOSIG=
201807141900 METAR LRBS 141900Z VRB02KT CAVOK 23/14 Q1011 NOSIG=
201807141930 METAR LRBS 141930Z 00000KT CAVOK 22/14 Q1011 NOSIG=
201807142000 METAR LRBS 142000Z 25001KT CAVOK 21/15 Q1012 NOSIG=
201807142030 METAR LRBS 142030Z 27002KT CAVOK 20/15 Q1012 NOSIG=
201807142100 METAR LRBS 142100Z VRB01KT CAVOK 20/15 Q1012 NOSIG=
201807142130 METAR LRBS 142130Z VRB01KT CAVOK 19/15 Q1012 NOSIG=
201807142200 METAR COR LRBS 142200Z 25002KT CAVOK 19/14 Q1012 NOSIG=
201807142230 METAR COR LRBS 142230Z 25002KT CAVOK 19/14 Q1012 NOSIG=
201807142300 METAR LRBS 142300Z 30003KT 270V010 CAVOK 19/14 Q1012 NOSIG=
201807142330 METAR LRBS 142330Z 27003KT CAVOK 18/14 Q1012 NOSIG=
201807150000 METAR COR LRBS 150000Z 28003KT 260V320 CAVOK 18/15 Q1012
                        NOSIG=
201807150030 METAR LRBS 150030Z 30003KT 270V350 CAVOK 18/15 Q1011 NOSIG=
201807150100 METAR LRBS 150100Z VRB02KT CAVOK 19/15 Q1012 NOSIG=
201807150130 METAR LRBS 150130Z 28003KT CAVOK 19/14 Q1011 NOSIG=
201807150200 METAR LRBS 150200Z 28003KT 240V340 CAVOK 18/14 Q1011 NOSIG=
201807150230 METAR LRBS 150230Z VRB02KT CAVOK 18/14 Q1011 NOSIG=
201807150300 METAR LRBS 150300Z 30003KT 260V340 CAVOK 17/14 Q1012 NOSIG=
201807150330 METAR LRBS 150330Z VRB02KT CAVOK 18/14 Q1011 NOSIG=
201807150400 METAR LRBS 150400Z 27002KT CAVOK 19/14 Q1011 NOSIG=
201807150430 METAR LRBS 150430Z VRB01KT CAVOK 19/14 Q1011 NOSIG=
201807150500 METAR LRBS 150500Z 28003KT 250V320 CAVOK 20/14 Q1012 NOSIG=
201807150530 METAR LRBS 150530Z 00000KT CAVOK 22/14 Q1012 NOSIG=
201807150600 METAR LRBS 150600Z VRB02KT CAVOK 23/14 Q1011 NOSIG=
201807150630 METAR LRBS 150630Z VRB02KT CAVOK 25/12 Q1012 NOSIG=
201807150700 METAR COR LRBS 150700Z VRB02KT CAVOK 26/10 Q1012 NOSIG=
201807150730 METAR LRBS 150730Z VRB02KT CAVOK 26/11 Q1011 NOSIG=
201807150800 METAR LRBS 150800Z 30003KT 200V360 CAVOK 26/10 Q1012 NOSIG=
201807150830 METAR LRBS 150830Z VRB03KT CAVOK 27/11 Q1012 NOSIG=
201807150900 METAR LRBS 150900Z VRB02KT CAVOK 27/13 Q1011 NOSIG=
201807150930 METAR LRBS 150930Z VRB04KT CAVOK 28/11 Q1011 NOSIG=
201807151000 METAR LRBS 151000Z VRB05KT CAVOK 28/11 Q1011 NOSIG=
201807151030 METAR LRBS 151030Z 30006KT 240V020 CAVOK 28/12 Q1011 NOSIG=
201807151100 METAR LRBS 151100Z 29006KT 230V020 CAVOK 29/11 Q1011 NOSIG=
201807151130 METAR LRBS 151130Z 28005KT 230V340 CAVOK 29/11 Q1011 NOSIG=
201807151200 METAR LRBS 151200Z 29005KT 230V020 CAVOK 28/11 Q1010 NOSIG=
201807151230 METAR LRBS 151230Z 28007KT 220V340 CAVOK 29/11 Q1010 NOSIG=
201807151300 METAR LRBS 151300Z 27006KT 230V330 CAVOK 29/10 Q1010 NOSIG=
201807151330 METAR LRBS 151330Z 30004KT 240V020 CAVOK 30/09 Q1009 NOSIG=
201807151400 METAR LRBS 151400Z 32004KT 260V020 CAVOK 30/10 Q1010 NOSIG=
201807151430 METAR LRBS 151430Z 32004KT 270V020 CAVOK 30/10 Q1009 NOSIG=
201807151500 METAR LRBS 151500Z 30004KT 240V020 CAVOK 30/10 Q1009 NOSIG=
201807151530 METAR LRBS 151530Z 30004KT 260V360 CAVOK 30/11 Q1009 NOSIG=
201807151600 METAR LRBS 151600Z 30004KT 260V350 9999 FEW045CB 29/11 Q1009
                        NOSIG=
201807151630 METAR LRBS 151630Z 34005G24KT 270V030 9999 SCT045CB 28/13
                        Q1010 TEMPO 5000 -TSRA=
201807151700 METAR COR LRBS 151700Z 01011KT 330V060 9999 -SHRA BKN050CB
                        23/13 Q1010 TEMPO 5000 -TSRA=
201807151730 METAR LRBS 151730Z 01009KT 320V050 5000 SHRA SCT038 BKN050CB
                        20/15 Q1011 BECMG 9999 NSW=
201807151800 METAR LRBS 151800Z 10006KT 9999 -SHRA FEW014 SCT050CB 20/16
                        Q1010 RERA BECMG 9999 NSW=
201807151830 METAR LRBS 151830Z 07007KT 9999 SCT050CB 20/15 Q1010 NOSIG=
201807151900 METAR COR LRBS 151900Z VRB02KT 9999 SCT050CB 20/16 Q1009
                        R07/29//95 NOSIG=
201807151930 METAR LRBS 151930Z 24008KT 210V270 9999 FEW050CB 20/17 Q1010
                        R07/29//95 NOSIG=
201807152000 METAR LRBS 152000Z 25005KT 220V280 9999 FEW050CB 20/16 Q1010
                        R07/29//95 NOSIG=
201807152030 METAR LRBS 152030Z 30004KT 260V330 9999 FEW050CB 19/16 Q1010
                        R07/29//95 NOSIG=
201807152100 METAR LRBS 152100Z 30004KT CAVOK 19/16 Q1010 R07/29//95 NOSIG=
201807152130 METAR COR LRBS 152130Z 29003KT CAVOK 18/16 Q1010 R07/29//95
                        NOSIG=
201807152200 METAR LRBS 152200Z VRB02KT CAVOK 18/16 Q1010 R07/29//95 NOSIG=
201807152230 METAR LRBS 152230Z 26002KT CAVOK 18/16 Q1010 R07/29//95 NOSIG=
201807152300 METAR LRBS 152300Z 26003KT CAVOK 18/16 Q1010 R07/29//95 NOSIG=
201807152330 METAR LRBS 152330Z 25005KT CAVOK 19/16 Q1010 R07/29//95 NOSIG=
201807160000 METAR LRBS 160000Z 24004KT CAVOK 18/16 Q1010 R07/29//95 NOSIG=
201807160030 METAR COR LRBS 160030Z 27003KT 240V300 CAVOK 18/16 Q1010
                        R07/29//95 NOSIG=
201807160100 METAR LRBS 160100Z 26004KT CAVOK 18/16 Q1010 R07/29//95 NOSIG=
201807160130 METAR LRBS 160130Z 25004KT CAVOK 17/16 Q1010 R07/29//95 NOSIG=
201807160200 METAR LRBS 160200Z 27003KT 240V310 CAVOK 17/15 Q1010 R07/29//95
                        NOSIG=
201807160230 METAR LRBS 160230Z 27001KT CAVOK 17/15 Q1010 R07/29//95 NOSIG=
201807160300 METAR LRBS 160300Z 26002KT CAVOK 17/15 Q1010 R07/29//95 NOSIG=
201807160330 METAR COR LRBS 160330Z 24001KT CAVOK 18/15 Q1010 R07/CLRD//
                        NOSIG=
201807160400 METAR LRBS 160400Z 24002KT CAVOK 18/16 Q1010 NOSIG=
201807160430 METAR LRBS 160430Z 23003KT CAVOK 20/16 Q1010 NOSIG=
201807160500 METAR LRBS 160500Z 25004KT CAVOK 21/15 Q1010 NOSIG=
201807160530 METAR LRBS 160530Z 25004KT 220V280 CAVOK 21/15 Q1010 NOSIG=
201807160600 METAR LRBS 160600Z 25004KT CAVOK 22/14 Q1010 NOSIG=
201807160630 METAR LRBS 160630Z 24003KT 140V310 CAVOK 23/14 Q1010 NOSIG=
201807160700 METAR LRBS 160700Z 27003KT 220V320 CAVOK 24/14 Q1010 NOSIG=
201807160730 METAR LRBS 160730Z 25006KT CAVOK 25/13 Q1010 NOSIG=
201807160800 METAR LRBS 160800Z 25005KT 200V280 CAVOK 26/14 Q1010 NOSIG=
201807160830 METAR LRBS 160830Z 27005KT 220V360 CAVOK 26/14 Q1010 NOSIG=
201807160900 METAR LRBS 160900Z 26004KT 180V350 CAVOK 27/10 Q1010 NOSIG=
201807160930 METAR LRBS 160930Z 27005KT 230V340 CAVOK 28/12 Q1010 NOSIG=
201807161000 METAR LRBS 161000Z 28004KT 210V340 CAVOK 28/11 Q1010 NOSIG=
201807161030 METAR LRBS 161030Z 28006KT 230V040 CAVOK 28/11 Q1009 NOSIG=
201807161100 METAR LRBS 161100Z 31007KT 240V020 CAVOK 28/10 Q1009 NOSIG=
201807161130 METAR LRBS 161130Z 30006KT 250V010 CAVOK 29/10 Q1009 NOSIG=
201807161200 METAR LRBS 161200Z 27007KT 240V320 CAVOK 29/11 Q1009 NOSIG=
201807161230 METAR LRBS 161230Z 29007KT 230V020 CAVOK 29/11 Q1009 NOSIG=
201807161300 METAR LRBS 161300Z 30007KT 240V040 CAVOK 30/09 Q1009 NOSIG=
201807161330 METAR LRBS 161330Z 28009KT 240V360 CAVOK 30/10 Q1009 NOSIG=
201807161400 METAR LRBS 161400Z 27008KT 240V340 CAVOK 30/10 Q1008 NOSIG=
201807161430 METAR COR LRBS 161430Z 31006KT 240V020 CAVOK 30/11 Q1008
                        NOSIG=
201807161500 METAR LRBS 161500Z 28010KT 240V320 CAVOK 29/10 Q1008 NOSIG=
201807161530 METAR LRBS 161530Z 29006KT 260V350 CAVOK 30/10 Q1008 NOSIG=
201807161600 METAR LRBS 161600Z 28006KT 240V320 CAVOK 28/10 Q1008 NOSIG=
201807161630 METAR LRBS 161630Z 30004KT 240V010 CAVOK 29/12 Q1008 NOSIG=
201807161700 METAR LRBS 161700Z 01004KT 300V070 CAVOK 28/13 Q1008 NOSIG=
201807161730 METAR LRBS 161730Z 02004KT 350V060 CAVOK 26/14 Q1008 NOSIG=
201807161800 METAR LRBS 161800Z 02003KT 350V050 CAVOK 25/13 Q1009 NOSIG=
201807161830 METAR LRBS 161830Z 00000KT CAVOK 25/14 Q1009 NOSIG=
201807161900 METAR LRBS 161900Z 00000KT CAVOK 25/13 Q1009 NOSIG=
201807161930 METAR COR LRBS 161930Z VRB01KT CAVOK 23/15 Q1009 NOSIG=
201807162000 METAR LRBS 162000Z VRB02KT CAVOK 22/15 Q1008 NOSIG=
201807162030 METAR LRBS 162030Z VRB01KT CAVOK 22/15 Q1008 NOSIG=
201807162100 METAR LRBS 162100Z VRB01KT CAVOK 21/16 Q1008 NOSIG=
201807162130 METAR LRBS 162130Z VRB01KT CAVOK 21/15 Q1008 NOSIG=
201807162200 METAR LRBS 162200Z 00000KT CAVOK 21/16 Q1008 NOSIG=
201807162230 METAR COR LRBS 162230Z VRB02KT CAVOK 21/16 Q1008 NOSIG=
201807162300 METAR LRBS 162300Z 35002KT CAVOK 21/15 Q1008 NOSIG=
201807162330 METAR COR LRBS 162330Z 00000KT CAVOK 19/16 Q1007 NOSIG=
201807170000 METAR LRBS 170000Z 00000KT CAVOK 19/16 Q1007 NOSIG=
201807170030 METAR LRBS 170030Z 05001KT CAVOK 19/16 Q1007 NOSIG=
201807170100 METAR LRBS 170100Z VRB01KT CAVOK 18/16 Q1007 NOSIG=
201807170130 METAR LRBS 170130Z VRB01KT CAVOK 18/16 Q1007 NOSIG=
201807170200 METAR LRBS 170200Z 25003KT CAVOK 18/16 Q1007 NOSIG=
201807170230 METAR LRBS 170230Z VRB02KT CAVOK 18/15 Q1007 NOSIG=
201807170300 METAR LRBS 170300Z VRB02KT CAVOK 18/15 Q1007 NOSIG=
201807170330 METAR LRBS 170330Z 00000KT CAVOK 18/15 Q1007 NOSIG=
201807170400 METAR LRBS 170400Z AUTO VRB01KT NCD 18/16 Q1007 NOSIG=
201807170430 METAR LRBS 170430Z VRB02KT CAVOK 19/15 Q1007 NOSIG=
201807170500 METAR LRBS 170500Z VRB02KT CAVOK 20/15 Q1007 NOSIG=
201807170530 METAR LRBS 170530Z VRB01KT CAVOK 22/15 Q1007 NOSIG=
201807170600 METAR LRBS 170600Z 00000KT CAVOK 24/13 Q1007 NOSIG=
201807170630 METAR LRBS 170630Z VRB02KT CAVOK 24/14 Q1007 NOSIG=
201807170700 METAR LRBS 170700Z 26004KT 230V290 CAVOK 25/14 Q1007 NOSIG=
201807170730 METAR LRBS 170730Z VRB03KT CAVOK 26/14 Q1007 NOSIG=
201807170800 METAR LRBS 170800Z VRB03KT CAVOK 27/13 Q1006 NOSIG=
201807170830 METAR LRBS 170830Z 27006KT 220V360 CAVOK 27/13 Q1006 NOSIG=
201807170900 METAR LRBS 170900Z 27007KT 220V340 CAVOK 28/12 Q1006 NOSIG=
201807170930 METAR LRBS 170930Z 27008KT 220V340 CAVOK 28/12 Q1006 NOSIG=
201807171000 METAR LRBS 171000Z 28006KT 220V360 CAVOK 29/11 Q1006 NOSIG=
201807171030 METAR LRBS 171030Z 29007KT 230V350 CAVOK 29/11 Q1006 NOSIG=
201807171100 METAR LRBS 171100Z 29007KT 220V020 CAVOK 29/10 Q1005 NOSIG=
201807171130 METAR LRBS 171130Z 27008KT 240V350 CAVOK 30/10 Q1005 NOSIG=
201807171200 METAR LRBS 171200Z 26011KT 230V290 CAVOK 30/11 Q1005 NOSIG=
201807171230 METAR LRBS 171230Z 25011KT 210V310 CAVOK 30/11 Q1005 NOSIG=
201807171300 METAR LRBS 171300Z 26011KT 230V300 CAVOK 29/08 Q1005 NOSIG=
201807171330 METAR LRBS 171330Z 26010KT 230V300 CAVOK 30/08 Q1005 NOSIG=
201807171400 METAR LRBS 171400Z 27008KT 240V330 CAVOK 29/09 Q1005 NOSIG=
201807171430 METAR LRBS 171430Z 28007KT 230V350 CAVOK 29/09 Q1004 NOSIG=
201807171500 METAR LRBS 171500Z 27008KT 240V320 CAVOK 29/11 Q1004 NOSIG=
201807171530 METAR LRBS 171530Z 27010KT 240V310 CAVOK 28/13 Q1004 NOSIG=
201807171600 METAR LRBS 171600Z 27010KT 240V310 CAVOK 28/13 Q1004 NOSIG=
201807171630 METAR LRBS 171630Z 27008KT 240V340 CAVOK 28/13 Q1004 NOSIG=
201807171700 METAR LRBS 171700Z 27008KT 240V300 CAVOK 27/14 Q1004 NOSIG=
201807171730 METAR LRBS 171730Z 27006KT 250V310 CAVOK 26/14 Q1004 NOSIG=
201807171800 METAR LRBS 171800Z 26006KT CAVOK 26/14 Q1005 NOSIG=
201807171830 METAR LRBS 171830Z 27005KT 250V310 CAVOK 25/14 Q1005=
201807171900 METAR LRBS 171900Z 27005KT 240V300 CAVOK 25/14 Q1005 NOSIG=
201807171930 METAR LRBS 171930Z 27005KT 240V300 CAVOK 24/15 Q1005 NOSIG=
201807172000 METAR LRBS 172000Z 28004KT 250V320 CAVOK 24/15 Q1005 NOSIG=
201807172030 METAR LRBS 172030Z 27005KT 240V300 CAVOK 24/15 Q1005 NOSIG=
201807172100 METAR LRBS 172100Z 28003KT 260V320 CAVOK 23/15 Q1005 NOSIG=
201807172130 METAR LRBS 172130Z 28004KT CAVOK 22/15 Q1004 NOSIG=
201807172200 METAR LRBS 172200Z 30003KT 260V340 CAVOK 22/15 Q1004 NOSIG=
201807172230 METAR LRBS 172230Z 28003KT 260V320 CAVOK 22/16 Q1004 NOSIG=
201807172300 METAR LRBS 172300Z VRB01KT CAVOK 21/16 Q1004 NOSIG=
201807172330 METAR LRBS 172330Z 26003KT CAVOK 21/16 Q1004 NOSIG=
201807180000 METAR LRBS 180000Z VRB02KT CAVOK 21/16 Q1004 NOSIG=
201807180030 METAR LRBS 180030Z VRB02KT CAVOK 21/16 Q1004 NOSIG=
201807180100 METAR LRBS 180100Z 27004KT CAVOK 21/16 Q1004 NOSIG=
201807180130 METAR LRBS 180130Z 27003KT CAVOK 21/17 Q1004 NOSIG=
201807180200 METAR LRBS 180200Z 28003KT CAVOK 20/17 Q1004 NOSIG=
201807180230 METAR LRBS 180230Z 27003KT 240V310 CAVOK 20/17 Q1004 NOSIG=
201807180300 METAR LRBS 180300Z 27004KT 240V300 CAVOK 20/17 Q1004 NOSIG=
201807180330 METAR LRBS 180330Z 28003KT 250V320 CAVOK 20/17 Q1004 NOSIG=
201807180400 METAR LRBS 180400Z 27002KT CAVOK 20/17 Q1004 NOSIG=
201807180430 METAR LRBS 180430Z 27004KT 240V340 CAVOK 21/17 Q1005 NOSIG=
201807180500 METAR LRBS 180500Z 27003KT 250V310 CAVOK 21/16 Q1005 NOSIG=
201807180530 METAR LRBS 180530Z 27005KT 240V300 CAVOK 21/16 Q1005 NOSIG=
201807180600 METAR LRBS 180600Z 28004KT 240V310 9999 FEW011 21/16 Q1005
                        NOSIG=
201807180630 METAR LRBS 180630Z 28004KT 250V310 CAVOK 21/15 Q1005 NOSIG=
201807180700 METAR LRBS 180700Z 26003KT 220V310 CAVOK 22/15 Q1005 NOSIG=
201807180730 METAR COR LRBS 180730Z 25004KT 180V320 CAVOK 23/15 Q1005
                        NOSIG=
201807180800 METAR LRBS 180800Z 27004KT 210V320 CAVOK 25/15 Q1005 NOSIG=
201807180830 METAR LRBS 180830Z 25006KT 190V300 CAVOK 25/15 Q1004 NOSIG=
201807180900 METAR LRBS 180900Z VRB03KT CAVOK 26/14 Q1004 NOSIG=
201807180930 METAR LRBS 180930Z 22004KT 140V300 CAVOK 27/14 Q1004 NOSIG=
201807181000 METAR LRBS 181000Z 25005KT 170V320 CAVOK 27/14 Q1004 NOSIG=
201807181030 METAR LRBS 181030Z VRB03KT 9999 BKN047 27/14 Q1003 NOSIG=
201807181100 METAR LRBS 181100Z 27005KT 210V340 CAVOK 27/14 Q1003 NOSIG=
201807181130 METAR LRBS 181130Z 27007KT 240V320 CAVOK 28/14 Q1003 NOSIG=
201807181200 METAR LRBS 181200Z 25006KT 160V310 CAVOK 29/12 Q1003 NOSIG=
201807181230 METAR LRBS 181230Z 27005KT 230V310 CAVOK 28/13 Q1003 TEMPO
                        SCT045CB=
201807181300 METAR LRBS 181300Z 27006KT 240V310 9999 VCTS FEW050CB 28/14
                        Q1003 TEMPO 5000 -TSRA=
201807181330 METAR COR LRBS 181330Z 28013G24KT 240V330 3000 TSRA BKN039CB
                        23/18 Q1003 R07/29//95 TEMPO 5000=
201807181400 METAR LRBS 181400Z 28005KT 240V340 9999 SCT045CB 23/18 Q1003
                        RERA R07/29//95 NOSIG=
201807181430 METAR LRBS 181430Z 32006KT 270V040 9999 SCT050CB 24/17 Q1003
                        R07/29//95 NOSIG=
201807181500 METAR LRBS 181500Z 32006KT 240V040 9999 SCT050CB 23/17 Q1003
                        R07/29//95 NOSIG=
201807181530 METAR LRBS 181530Z 28007KT 230V340 9999 FEW050CB 23/17 Q1003
                        R07/29//95 NOSIG=
201807181600 METAR LRBS 181600Z 29004KT 240V320 9999 FEW050CB 23/16 Q1003
                        R07/29//95 BECMG NSC=
201807181630 METAR LRBS 181630Z 27004KT 250V310 9999 FEW050CB 24/15 Q1003
                        R07/29//95 BECMG NSC=
201807181700 METAR LRBS 181700Z 28004KT 250V340 9999 FEW050CB 24/15 Q1004
                        R07/29//95 BECMG NSC=
201807181730 METAR COR LRBS 181730Z 29003KT 250V340 9999 FEW050CB 23/15
                        Q1003 R07/CLRD// BECMG NSC=
201807181800 METAR LRBS 181800Z 27003KT CAVOK 22/15 Q1003 NOSIG=
201807181830 METAR LRBS 181830Z 27005KT CAVOK 22/16 Q1004 NOSIG=
201807181900 METAR LRBS 181900Z 28005KT CAVOK 21/15 Q1004 NOSIG=
201807181930 METAR LRBS 181930Z 30003KT 270V350 CAVOK 21/15 Q1004 NOSIG=
201807182000 METAR LRBS 182000Z VRB02KT CAVOK 21/15 Q1004 NOSIG=
201807182030 METAR LRBS 182030Z 29003KT 270V360 CAVOK 21/14 Q1004 NOSIG=
201807182100 METAR LRBS 182100Z 29003KT 240V330 CAVOK 20/15 Q1003 NOSIG=
201807182130 METAR LRBS 182130Z 28004KT 260V320 CAVOK 20/15 Q1003 NOSIG=
201807182200 METAR LRBS 182200Z 28003KT CAVOK 19/16 Q1003 NOSIG=
201807182230 METAR LRBS 182230Z VRB02KT CAVOK 19/16 Q1003 NOSIG=
201807182300 METAR LRBS 182300Z 27003KT CAVOK 19/16 Q1003 NOSIG=
201807182330 METAR LRBS 182330Z 28003KT 250V320 CAVOK 19/16 Q1003 NOSIG=
201807190000 METAR LRBS 190000Z 27004KT 240V310 CAVOK 18/16 Q1003 NOSIG=
201807190030 METAR LRBS 190030Z 27006KT CAVOK 18/16 Q1003 NOSIG=
201807190100 METAR LRBS 190100Z 27003KT 240V320 CAVOK 18/16 Q1004 NOSIG=
201807190130 METAR LRBS 190130Z 27004KT CAVOK 18/16 Q1004 NOSIG=
201807190200 METAR LRBS 190200Z 28003KT CAVOK 18/16 Q1004 NOSIG=
201807190230 METAR LRBS 190230Z 27003KT 240V300 CAVOK 18/16 Q1004 NOSIG=
201807190300 METAR LRBS 190300Z 28003KT 240V320 CAVOK 18/16 Q1004 NOSIG=
201807190330 METAR LRBS 190330Z VRB01KT CAVOK 18/16 Q1004 NOSIG=
201807190400 METAR LRBS 190400Z VRB02KT 9999 FEW045CB 18/16 Q1004 TEMPO
                        5000 -SHRA=
201807190430 METAR LRBS 190430Z VRB02KT CAVOK 19/16 Q1004 TEMPO 5000 -SHRA=
201807190500 METAR LRBS 190500Z 29003KT 9999 FEW050CB 19/16 Q1004 TEMPO
                        5000 -SHRA=
201807190530 METAR LRBS 190530Z 26004KT 230V300 9999 FEW050CB 20/16 Q1004
                        NOSIG=
201807190600 METAR LRBS 190600Z 27003KT 230V320 CAVOK 21/16 Q1004 NOSIG=
201807190630 METAR LRBS 190630Z 26003KT 230V300 CAVOK 21/16 Q1004 NOSIG=
201807190700 METAR LRBS 190700Z 28003KT 240V340 CAVOK 22/16 Q1004 NOSIG=
201807190730 METAR COR LRBS 190730Z 28004KT 240V320 9999 -RA NSC 22/17
                        Q1005 NOSIG=
201807190800 METAR LRBS 190800Z 27005KT 240V340 9999 FEW025 23/17 Q1005
                        NOSIG=
201807190830 METAR LRBS 190830Z 27004KT 240V310 CAVOK 24/17 Q1005 NOSIG=
201807190900 METAR LRBS 190900Z 28007KT 240V360 CAVOK 24/17 Q1005 NOSIG=
201807190930 METAR LRBS 190930Z 27007KT 220V320 CAVOK 25/17 Q1005 NOSIG=
201807191000 METAR LRBS 191000Z 27004KT 240V310 9999 -SHRA FEW050CB 24/17
                        Q1005 NOSIG=
201807191030 METAR LRBS 191030Z VRB04KT 9999 FEW020 FEW050CB 24/16 Q1005
                        NOSIG=
201807191100 METAR LRBS 191100Z 28005KT 240V310 9999 -SHRA FEW026 FEW050CB
                        25/17 Q1005 NOSIG=
201807191130 METAR COR LRBS 191130Z 29005KT 230V340 9999 FEW022 25/15
                        Q1005 NOSIG=
201807191200 METAR COR LRBS 191200Z 27008KT 240V310 CAVOK 27/15 Q1005
                        NOSIG=
201807191230 METAR LRBS 191230Z 27008KT 240V310 CAVOK 27/16 Q1005 NOSIG=
201807191300 METAR LRBS 191300Z 29007KT 240V350 CAVOK 27/16 Q1005 NOSIG=
201807191330 METAR LRBS 191330Z 27009KT 230V320 CAVOK 28/16 Q1005 TEMPO
                        SCT050CB=
201807191400 METAR COR LRBS 191400Z 29005KT 240V360 9999 TS SCT050CB 27/16
                        Q1005 TEMPO VRB15G25KT TSRA=
201807191430 METAR LRBS 191430Z 29003KT 250V350 9999 -TSRA BKN053CB 25/18
                        Q1005 TEMPO VRB15G25KT 5000 TSRA=
201807191500 METAR LRBS 191500Z VRB08KT 9999 -TSRA FEW035 BKN048CB 22/19
                        Q1006 BECMG NSW=
201807191530 METAR LRBS 191530Z 15005KT 110V210 9999 SCT048CB 23/19 Q1006
                        RETS R07/29//95 BECMG NSC=
201807191600 METAR LRBS 191600Z 17008KT 150V210 9999 FEW050CB 23/19 Q1006
                        R07/29//95 NOSIG=
201807191630 METAR LRBS 191630Z 20004KT 9999 FEW050CB 24/19 Q1006 R07/29//95
                        NOSIG=
201807191700 METAR LRBS 191700Z 21005KT 9999 FEW050CB 23/20 Q1006 R07/29//95
                        NOSIG=
201807191730 METAR LRBS 191730Z VRB02KT 9999 FEW050CB 23/20 Q1006 R07/29//95
                        NOSIG=
201807191800 METAR LRBS 191800Z 00000KT 9999 FEW050CB 23/20 Q1006 R07/29//95
                        BECMG NSC=
201807191830 METAR LRBS 191830Z 01001KT 9999 FEW050CB 23/21 Q1007 R07/29//95
                        NOSIG=
201807191900 METAR LRBS 191900Z VRB02KT 7000 -SHRA SCT050CB 23/20 Q1007
                        R07/29//95 NOSIG=
201807191930 METAR LRBS 191930Z VRB02KT 6000 -SHRA SCT050CB 22/20 Q1007
                        R07/29//95 NOSIG=
201807192000 METAR LRBS 192000Z 07002KT 9999 FEW017 SCT050CB 22/20 Q1007
                        R07/29//95 BECMG NSC=
201807192030 METAR LRBS 192030Z VRB01KT 9999 FEW050CB 22/21 Q1007 R07/29//95
                        NOSIG=
201807192100 METAR LRBS 192100Z 24005KT 9999 FEW050CB 22/21 Q1007 R07/29//95
                        NOSIG=
201807192130 METAR LRBS 192130Z 25004KT 9999 -SHRA FEW021 FEW050CB 22/21
                        Q1007 R07/29//95 NOSIG=
201807192200 METAR LRBS 192200Z VRB01KT 9999 FEW050CB 22/21 Q1007 R07/29//95
                        NOSIG=
201807192230 METAR LRBS 192230Z 35005KT 310V030 CAVOK 22/21 Q1007 R07/29//95
                        NOSIG=
201807192300 METAR LRBS 192300Z 33003KT 300V360 CAVOK 22/20 Q1007 R07/29//95
                        NOSIG=
201807192330 METAR LRBS 192330Z VRB02KT CAVOK 22/21 Q1007 R07/29//95 NOSIG=
201807200000 METAR LRBS 200000Z 00000KT CAVOK 21/20 Q1007 R07/29//95 NOSIG=
201807200030 METAR LRBS 200030Z 06003KT 020V080 CAVOK 21/20 Q1007 R07/29//95
                        NOSIG=
201807200100 METAR LRBS 200100Z 06001KT CAVOK 21/20 Q1007 R07/29//95 NOSIG=
201807200130 METAR LRBS 200130Z 24003KT CAVOK 21/20 Q1007 R07/29//95 NOSIG=
201807200200 METAR LRBS 200200Z VRB01KT CAVOK 21/20 Q1008 R07/29//95 NOSIG=
201807200230 METAR LRBS 200230Z 25002KT CAVOK 21/20 Q1008 R07/29//95 NOSIG=
201807200300 METAR LRBS 200300Z 27002KT CAVOK 21/20 Q1008 R07/29//95 NOSIG=
201807200330 METAR LRBS 200330Z VRB02KT CAVOK 21/20 Q1008 R07/29//95 NOSIG=
201807200400 METAR LRBS 200400Z VRB01KT CAVOK 22/21 Q1008 R07/29//95 NOSIG=
201807200430 METAR LRBS 200430Z VRB01KT CAVOK 22/21 Q1008 R07/29//95 NOSIG=
201807200500 METAR LRBS 200500Z 28003KT CAVOK 22/21 Q1008 R07/29//95 NOSIG=
201807200530 METAR LRBS 200530Z VRB02KT CAVOK 22/21 Q1008 R07/29//95 NOSIG=
201807200600 METAR COR LRBS 200600Z VRB01KT CAVOK 23/20 Q1008 R07/29//95
                        NOSIG=
201807200630 METAR LRBS 200630Z 33003KT 230V010 CAVOK 24/20 Q1009 R07/29//95
                        TEMPO 5000 SHRA SCT030CB=
201807200700 METAR LRBS 200700Z VRB02KT CAVOK 25/20 Q1009 R07/29//95 TEMPO
                        5000 SHRA SCT030CB=
201807200730 METAR LRBS 200730Z VRB01KT 9999 FEW035CB 26/18 Q1009 R07/CLRD//
                        NOSIG=
201807200800 METAR LRBS 200800Z 27003KT 180V340 CAVOK 25/17 Q1009 NOSIG=
201807200830 METAR LRBS 200830Z 25003KT 210V300 9999 FEW021 26/18 Q1009
                        NOSIG=
201807200900 METAR LRBS 200900Z 24003KT 200V290 CAVOK 26/18 Q1009 NOSIG=
201807200930 METAR LRBS 200930Z VRB03KT CAVOK 27/18 Q1009 NOSIG=
201807201000 METAR LRBS 201000Z VRB03KT CAVOK 28/18 Q1009 NOSIG=
201807201030 METAR LRBS 201030Z 31003KT CAVOK 28/18 Q1009 NOSIG=
201807201100 METAR LRBS 201100Z VRB02KT 9999 FEW035 28/18 Q1009 NOSIG=
201807201130 METAR LRBS 201130Z VRB05KT CAVOK 29/17 Q1009 NOSIG=
201807201200 METAR LRBS 201200Z VRB04KT 9999 FEW044 29/17 Q1008 NOSIG=
201807201230 METAR LRBS 201230Z 29005KT 220V010 9999 FEW044 29/17 Q1008
                        NOSIG=
201807201300 METAR LRBS 201300Z VRB03KT 9999 FEW047 30/17 Q1008 NOSIG=
201807201330 METAR LRBS 201330Z VRB04KT 9999 FEW045CB 30/17 Q1008 NOSIG=
201807201400 METAR LRBS 201400Z VRB03KT 9999 FEW050CB 31/18 Q1008 NOSIG=
201807201430 METAR LRBS 201430Z VRB04KT 9999 FEW050CB 30/17 Q1008 NOSIG=
201807201500 METAR LRBS 201500Z 30004KT 240V010 9999 FEW050CB 30/17 Q1008
                        NOSIG=
201807201530 METAR LRBS 201530Z 30004KT 230V040 9999 VCTS SCT050CB 30/17
                        Q1008 TEMPO VRB20G30KT 3000 TSRA
                        BKN010 BKN030CB=
201807201600 METAR LRBS 201600Z 33003KT 280V010 9999 VCTS SCT050CB 29/17
                        Q1008 TEMPO VRB15G25KT 5000 TSRA=
201807201630 METAR LRBS 201630Z 33005KT 240V040 9999 VCSH BKN050CB 26/17
                        Q1008 NOSIG=
201807201700 METAR LRBS 201700Z VRB02KT 9999 TS BKN050CB 26/17 Q1009=
201807201730 METAR LRBS 201730Z VRB02KT 9999 -TSRA BKN046CB 26/18 Q1009
                        NOSIG=
201807201800 METAR LRBS 201800Z 21005KT 170V240 9999 -TSRA BKN046CB 25/18
                        Q1009 TEMPO VRB15KT 5000 TSRA=
201807201830 METAR LRBS 201830Z VRB02KT 9999 TS BKN050CB 24/18 Q1009 NOSIG=
201807201900 METAR LRBS 201900Z 15003KT 110V200 9999 TS SCT050CB 23/20
                        Q1010 NOSIG=
201807201930 METAR LRBS 201930Z VRB02KT 9999 TS SCT050CB 23/20 Q1010 BECMG
                        NSC=
201807202000 METAR LRBS 202000Z VRB01KT 9999 FEW050CB 23/20 Q1010 RETS
                        BECMG NSC=
201807202030 METAR LRBS 202030Z VRB02KT CAVOK 22/19 Q1010 BECMG NSC=
201807202100 METAR LRBS 202100Z VRB02KT CAVOK 23/18 Q1010 BECMG NSC=
201807202130 METAR LRBS 202130Z 31003KT 280V010 CAVOK 22/18 Q1010 BECMG
                        NSC=
201807202200 METAR LRBS 202200Z VRB02KT CAVOK 21/19 Q1010 BECMG NSC=
201807202230 METAR LRBS 202230Z 28002KT CAVOK 21/18 Q1010 BECMG NSC=
201807202300 METAR LRBS 202300Z VRB02KT CAVOK 21/18 Q1010 BECMG NSC=
201807202330 METAR LRBS 202330Z VRB02KT CAVOK 20/19 Q1010 NOSIG=
201807210000 METAR LRBS 210000Z VRB02KT CAVOK 20/19 Q1010 NOSIG=
201807210030 METAR COR LRBS 210030Z VRB02KT CAVOK 20/19 Q1010 NOSIG=
201807210100 METAR LRBS 210100Z 00000KT CAVOK 20/19 Q1010 NOSIG=
201807210130 METAR LRBS 210130Z 00000KT CAVOK 20/19 Q1010 NOSIG=
201807210200 METAR LRBS 210200Z VRB01KT CAVOK 20/19 Q1010 NOSIG=
201807210230 METAR LRBS 210230Z VRB02KT CAVOK 20/18 Q1011 NOSIG=
201807210300 METAR LRBS 210300Z VRB01KT CAVOK 20/17 Q1011 NOSIG=
201807210330 METAR LRBS 210330Z VRB01KT CAVOK 20/17 Q1011 NOSIG=
201807210400 METAR LRBS 210400Z 00000KT CAVOK 20/17 Q1011 NOSIG=
201807210430 METAR LRBS 210430Z 00000KT CAVOK 22/18 Q1011 NOSIG=
201807210500 METAR LRBS 210500Z VRB01KT CAVOK 25/18 Q1011 NOSIG=
201807210530 METAR LRBS 210530Z VRB02KT CAVOK 24/19 Q1011 NOSIG=
201807210600 METAR LRBS 210600Z 09006KT 060V120 CAVOK 25/18 Q1011 NOSIG=
201807210630 METAR LRBS 210630Z 10005KT 040V140 CAVOK 26/17 Q1012 NOSIG=
201807210700 METAR LRBS 210700Z 09006KT 060V140 CAVOK 27/18 Q1012 NOSIG=
201807210730 METAR LRBS 210730Z 10006KT 060V140 CAVOK 26/18 Q1012 NOSIG=
201807210800 METAR LRBS 210800Z 10006KT 060V150 CAVOK 27/18 Q1012 NOSIG=
201807210830 METAR LRBS 210830Z 14006KT 090V190 9999 FEW035 27/18 Q1012
                        NOSIG=
201807210900 METAR LRBS 210900Z 13005KT 060V190 9999 SCT035 28/18 Q1012
                        NOSIG=
201807210930 METAR LRBS 210930Z 08004KT 020V150 9999 SCT036 27/17 Q1012
                        NOSIG=
201807211000 METAR LRBS 211000Z 08006KT 040V130 9999 SCT037 29/17 Q1011
                        NOSIG=
201807211030 METAR LRBS 211030Z VRB04KT 9999 SCT039 29/18 Q1011 NOSIG=
201807211100 METAR LRBS 211100Z VRB03KT 9999 SCT041 29/18 Q1011 NOSIG=
201807211130 METAR LRBS 211130Z VRB03KT 9999 BKN042 FEW045TCU 29/18 Q1011
                        NOSIG=
201807211200 METAR LRBS 211200Z VRB02KT 9999 BKN042 29/17 Q1011 NOSIG=
201807211230 METAR LRBS 211230Z VRB02KT 9999 FEW043TCU SCT045 30/18 Q1011
                        NOSIG=
201807211300 METAR LRBS 211300Z 09003KT 030V180 9999 FEW045CB BKN048 30/18
                        Q1011 NOSIG=
201807211330 METAR LRBS 211330Z 11003KT 050V180 9999 FEW045CB BKN047 30/17
                        Q1011 TEMPO -TSRA=
201807211400 METAR LRBS 211400Z 36011KT 300V040 9999 SCT042CB SCT047 27/16
                        Q1011 NOSIG=
201807211430 METAR LRBS 211430Z 36008KT 310V050 9999 SCT045CB 25/17 Q1011
                        NOSIG=
201807211500 METAR LRBS 211500Z 01005KT 340V050 9999 FEW045CB 25/17 Q1011
                        NOSIG=
201807211530 METAR LRBS 211530Z VRB01KT 9999 -SHRA VCTS FEW045CB 25/17
                        Q1012 NOSIG=
201807211600 METAR LRBS 211600Z 22009KT 180V250 9999 -SHRA VCTS SCT029
                        SCT045CB 22/17 Q1012 TEMPO VRB20G30KT
                        5000 TSRA=
201807211630 METAR LRBS 211630Z 21006KT 140V240 9999 SCT036 FEW050CB 23/16
                        Q1012 NOSIG=
201807211700 METAR COR LRBS 211700Z 17003KT 140V210 9999 FEW050CB 24/15
                        Q1011 NOSIG=
201807211730 METAR LRBS 211730Z VRB01KT CAVOK 24/17 Q1011 NOSIG=
201807211800 METAR LRBS 211800Z 00000KT CAVOK 23/17 Q1011 NOSIG=
201807211830 METAR LRBS 211830Z VRB01KT CAVOK 22/17 Q1011 NOSIG=
201807211900 METAR LRBS 211900Z 24002KT CAVOK 21/17 Q1011 NOSIG=
201807211930 METAR LRBS 211930Z VRB01KT CAVOK 21/18 Q1011 NOSIG=
201807212000 METAR LRBS 212000Z VRB02KT CAVOK 21/17 Q1012 NOSIG=
201807212030 METAR LRBS 212030Z 00000KT CAVOK 21/17 Q1012 NOSIG=
201807212100 METAR LRBS 212100Z 08003KT 040V100 CAVOK 20/17 Q1012 NOSIG=
201807212130 METAR LRBS 212130Z VRB01KT CAVOK 20/17 Q1012 NOSIG=
201807212200 METAR LRBS 212200Z 00000KT CAVOK 20/18 Q1012 NOSIG=
201807212230 METAR LRBS 212230Z 00000KT CAVOK 20/18 Q1011 NOSIG=
201807212300 METAR LRBS 212300Z 00000KT CAVOK 20/17 Q1011 NOSIG=
201807212330 METAR LRBS 212330Z 00000KT CAVOK 19/17 Q1011 NOSIG=
201807220000 METAR LRBS 220000Z 00000KT CAVOK 19/17 Q1011 NOSIG=
201807220030 METAR LRBS 220030Z 00000KT CAVOK 19/17 Q1011 NOSIG=
201807220100 METAR LRBS 220100Z VRB01KT CAVOK 19/18 Q1011 NOSIG=
201807220130 METAR LRBS 220130Z 00000KT CAVOK 19/17 Q1011 NOSIG=
201807220200 METAR COR LRBS 220200Z VRB02KT CAVOK 19/18 Q1011 NOSIG=
201807220230 METAR LRBS 220230Z 00000KT CAVOK 19/18 Q1011 TEMPO 5000 BR=
201807220300 METAR LRBS 220300Z VRB01KT CAVOK 19/18 Q1011 TEMPO 5000 BR=
201807220330 METAR LRBS 220330Z 27003KT CAVOK 19/18 Q1011 TEMPO 5000 BR=
201807220400 METAR LRBS 220400Z VRB02KT CAVOK 19/18 Q1011 NOSIG=
201807220430 METAR LRBS 220430Z VRB01KT CAVOK 21/18 Q1011 NOSIG=
201807220500 METAR LRBS 220500Z 00000KT CAVOK 23/18 Q1011 NOSIG=
201807220530 METAR LRBS 220530Z VRB01KT CAVOK 24/18 Q1011 NOSIG=
201807220600 METAR LRBS 220600Z VRB01KT CAVOK 25/19 Q1011 NOSIG=
201807220630 METAR LRBS 220630Z 06003KT 340V100 CAVOK 25/18 Q1011 NOSIG=
201807220700 METAR LRBS 220700Z VRB02KT CAVOK 26/18 Q1011 NOSIG=
201807220730 METAR LRBS 220730Z VRB02KT CAVOK 26/18 Q1011 NOSIG=
201807220800 METAR LRBS 220800Z VRB02KT CAVOK 27/18 Q1011 NOSIG=
201807220830 METAR LRBS 220830Z 05003KT 330V110 CAVOK 28/17 Q1011 NOSIG=
201807220900 METAR LRBS 220900Z VRB03KT CAVOK 29/17 Q1010 NOSIG=
201807220930 METAR LRBS 220930Z VRB02KT CAVOK 30/16 Q1010 NOSIG=
201807221000 METAR LRBS 221000Z VRB01KT CAVOK 30/16 Q1009 NOSIG=
201807221030 METAR LRBS 221030Z VRB03KT CAVOK 30/17 Q1009 NOSIG=
201807221100 METAR LRBS 221100Z 23005KT 170V320 CAVOK 30/17 Q1009 NOSIG=
201807221130 METAR LRBS 221130Z VRB04KT 9999 FEW044 30/18 Q1009 NOSIG=
201807221200 METAR LRBS 221200Z 25006KT 190V300 9999 SCT045 30/17 Q1009
                        NOSIG=
201807221230 METAR LRBS 221230Z 28005KT 250V350 CAVOK 30/17 Q1008 NOSIG=
201807221300 METAR LRBS 221300Z 34005KT 250V020 9999 FEW050CB 30/17 Q1008
                        NOSIG=
201807221330 METAR COR LRBS 221330Z 02012G26KT 340V080 9999 -TSRA SCT050CB
                        27/17 Q1009 NOSIG=
201807221400 METAR LRBS 221400Z 02008KT 350V070 9999 TS FEW025 SCT050CB
                        21/17 Q1009 RERA R07/29//95 BECMG
                        NSW=
201807221430 METAR LRBS 221430Z 05005KT 360V110 9999 SCT050CB 25/17 Q1008
                        R07/29//95 BECMG NSC=
201807221500 METAR LRBS 221500Z 09007KT 060V130 9999 FEW050CB 26/18 Q1008
                        R07/29//95 NOSIG=
201807221530 METAR COR LRBS 221530Z 07004KT 020V110 CAVOK 25/18 Q1008
                        R07/CLRD// NOSIG=
201807221600 METAR LRBS 221600Z 06004KT 360V110 CAVOK 25/18 Q1007 R07/CLRD//
                        NOSIG=
201807221630 METAR LRBS 221630Z 02004KT 330V060 CAVOK 24/16 Q1007 NOSIG=
201807221700 METAR LRBS 221700Z 01003KT 350V050 CAVOK 24/16 Q1007 NOSIG=
201807221730 METAR LRBS 221730Z 34004KT 300V020 CAVOK 23/16 Q1008 NOSIG=
201807221800 METAR LRBS 221800Z VRB02KT CAVOK 22/16 Q1008 NOSIG=
201807221830 METAR LRBS 221830Z 06003KT CAVOK 22/17 Q1008 NOSIG=
201807221900 METAR LRBS 221900Z 07004KT CAVOK 21/17 Q1009 NOSIG=
201807221930 METAR LRBS 221930Z 04003KT 010V070 9999 FEW045CB 21/17 Q1009
                        TEMPO VRB18KT -TSRA SCT040CB=
201807222000 METAR LRBS 222000Z 07005KT 9999 FEW045CB 21/18 Q1008 TEMPO
                        VRB18KT -TSRA=
201807222030 METAR LRBS 222030Z 09003KT 050V120 9999 FEW045CB 21/18 Q1008
                        TEMPO VRB18KT -TSRA=
201807222100 METAR LRBS 222100Z 05004KT 9999 TS FEW045CB 21/19 Q1008 NOSIG=
201807222130 METAR LRBS 222130Z 04004KT 350V070 9999 -SHRA FEW020 FEW045CB
                        21/18 Q1007 RETS NOSIG=
201807222200 METAR LRBS 222200Z 28003KT 240V310 9999 FEW045CB 21/18 Q1008
                        NOSIG=
201807222230 METAR LRBS 222230Z 00000KT CAVOK 21/18 Q1007 NOSIG=
201807222300 METAR LRBS 222300Z VRB02KT CAVOK 21/18 Q1007 NOSIG=
201807222330 METAR LRBS 222330Z 33002KT CAVOK 20/18 Q1008 NOSIG=
201807230000 METAR LRBS 230000Z VRB01KT 9999 FEW045CB 20/18 Q1007 TEMPO
                        VRB15G25KT 5000 -TSRA=
201807230030 METAR LRBS 230030Z 26005KT 9999 VCTS FEW045CB 20/18 Q1008
                        TEMPO VRB15G25KT 5000 -TSRA=
201807230100 METAR LRBS 230100Z 27004KT 230V320 9999 VCTS FEW045CB 20/18
                        Q1008 TEMPO VRB15KT 5000 TSRA=
201807230130 METAR LRBS 230130Z 24004KT 220V280 9999 TS SCT045CB 21/18
                        Q1007 TEMPO 5000 TSRA=
201807230200 METAR LRBS 230200Z 31005KT 270V010 9999 -TSRA SCT045CB 21/17
                        Q1007 NOSIG=
201807230230 METAR LRBS 230230Z 28013KT 8000 -TSRA SCT040CB 20/17 Q1007
                        R07/19//95 NOSIG=
201807230300 METAR LRBS 230300Z 25005KT 230V290 7000 -TSRA SCT040CB 19/17
                        Q1007 R07/19//95 NOSIG=
201807230330 METAR LRBS 230330Z 31003KT 260V020 6000 SHRA SCT040CB 19/17
                        Q1007 R07/29//95 NOSIG=
201807230400 METAR LRBS 230400Z 31003KT 250V350 9999 -SHRA SCT040CB 19/18
                        Q1007 R07/29//95 NOSIG=
201807230430 METAR LRBS 230430Z 02003KT 270V070 9999 -SHRA SCT050CB 19/18
                        Q1007 R07/29//95 NOSIG=
201807230500 METAR LRBS 230500Z 35004KT 280V040 9999 -SHRA SCT050CB 19/18
                        Q1006 R07/29//95 NOSIG=
201807230530 METAR LRBS 230530Z 36003KT 290V070 9999 -SHRA FEW050CB 19/18
                        Q1007 R07/29//95 NOSIG=
201807230600 METAR LRBS 230600Z VRB01KT 9999 -SHRA SCT050CB 20/19 Q1007
                        R07/29//95 NOSIG=
201807230630 METAR LRBS 230630Z VRB02KT 9999 -RA NSC 20/19 Q1006 R07/29//95
                        NOSIG=
201807230700 METAR LRBS 230700Z VRB02KT 9999 -RA NSC 21/19 Q1006 R07/29//95
                        NOSIG=
201807230730 METAR LRBS 230730Z 07004KT 020V100 9999 -RA NSC 21/19 Q1006
                        R07/29//95 NOSIG=
201807230800 METAR LRBS 230800Z 28003KT 240V020 CAVOK 22/19 Q1006 R07/29//95
                        NOSIG=
201807230830 METAR LRBS 230830Z 24005KT 210V270 9999 FEW040 23/19 Q1007
                        R07/29//95 NOSIG=
201807230900 METAR LRBS 230900Z 24005KT 200V340 9999 FEW040 24/19 Q1007
                        R07/29//95 NOSIG=
201807230930 METAR LRBS 230930Z 20005KT 160V260 9999 FEW040 24/18 Q1006
                        R07/29//95 NOSIG=
201807231000 METAR LRBS 231000Z 23007KT 200V270 CAVOK 24/19 Q1006 R07/29//95
                        NOSIG=
201807231030 METAR LRBS 231030Z 20006KT 160V250 CAVOK 25/18 Q1006 R07/29//95
                        NOSIG=
201807231100 METAR LRBS 231100Z 25005KT 190V310 CAVOK 25/15 Q1006 R07/29//95
                        NOSIG=
201807231130 METAR LRBS 231130Z 27004KT 200V310 CAVOK 25/17 Q1006 R07/29//95
                        NOSIG=
201807231200 METAR LRBS 231200Z 23007KT 200V270 9999 FEW030 25/17 Q1006
                        R07/CLRD// NOSIG=
201807231230 METAR LRBS 231230Z 23006KT 150V250 9999 FEW030 25/17 Q1005
                        NOSIG=
201807231300 METAR LRBS 231300Z 25005KT 220V290 9999 FEW030 24/17 Q1005
                        NOSIG=
201807231330 METAR LRBS 231330Z 28004KT 240V340 9999 FEW040 24/18 Q1005
                        NOSIG=
201807231400 METAR LRBS 231400Z 32003KT 240V010 9999 FEW050TCU 24/18 Q1005
                        NOSIG=
201807231430 METAR LRBS 231430Z 29003KT 250V360 CAVOK 24/17 Q1005 NOSIG=
201807231500 METAR LRBS 231500Z 34003KT 290V020 9999 FEW050TCU 24/18 Q1005
                        NOSIG=
201807231530 METAR LRBS 231530Z 36003KT 300V040 9999 FEW027 FE040CB 24/18
                        Q1005 NOSIG=
201807231600 METAR LRBS 231600Z 01003KT 340V060 9999 FEW040CB 25/18 Q1004
                        NOSIG=
201807231630 METAR LRBS 231630Z VRB01KT 9999 FEW040CB 24/17 Q1004 NOSIG=
201807231700 METAR LRBS 231700Z VRB01KT 9999 FEW040CB 24/18 Q1004 NOSIG=
201807231730 METAR LRBS 231730Z 03002KT CAVOK 24/18 Q1005=
201807231800 METAR LRBS 231800Z 01004KT 330V050 CAVOK 23/17 Q1005 NOSIG=
201807231830 METAR LRBS 231830Z VRB02KT CAVOK 23/17 Q1005 NOSIG=
201807231900 METAR LRBS 231900Z 00000KT CAVOK 23/17 Q1005 NOSIG=
201807231930 METAR LRBS 231930Z 00000KT 9999 -RA NSC 22/17 Q1005 NOSIG=
201807232000 METAR LRBS 232000Z 00000KT CAVOK 22/17 Q1005 NOSIG=
201807232030 METAR LRBS 232030Z 35001KT CAVOK 22/17 Q1005 NOSIG=
201807232100 METAR LRBS 232100Z VRB02KT CAVOK 21/17 Q1005 NOSIG=
201807232130 METAR LRBS 232130Z VRB01KT CAVOK 21/18 Q1005 NOSIG=
201807232200 METAR LRBS 232200Z VRB01KT CAVOK 21/17 Q1005 NOSIG=
201807232230 METAR LRBS 232230Z VRB02KT CAVOK 21/18 Q1004 NOSIG=
201807232300 METAR LRBS 232300Z VRB01KT CAVOK 21/17 Q1004 NOSIG=
201807232330 METAR LRBS 232330Z 01003KT 330V050 CAVOK 20/18 Q1004 NOSIG=
201807240000 METAR LRBS 240000Z VRB02KT CAVOK 20/18 Q1004 NOSIG=
201807240030 METAR COR LRBS 240030Z VRB01KT CAVOK 20/18 Q1004 NOSIG=
201807240100 METAR LRBS 240100Z VRB01KT CAVOK 20/18 Q1004 NOSIG=
201807240130 METAR LRBS 240130Z 00000KT CAVOK 20/18 Q1004 NOSIG=
201807240200 METAR LRBS 240200Z VRB01KT CAVOK 20/18 Q1004 NOSIG=
201807240230 METAR LRBS 240230Z VRB01KT CAVOK 20/18 Q1004=
201807240300 METAR LRBS 240300Z 26002KT CAVOK 20/18 Q1004 NOSIG=
201807240330 METAR LRBS 240330Z VRB02KT CAVOK 20/18 Q1004 NOSIG=
201807240400 METAR LRBS 240400Z 00000KT CAVOK 20/18 Q1004 NOSIG=
201807240430 METAR LRBS 240430Z VRB01KT CAVOK 21/18 Q1004 NOSIG=
201807240500 METAR LRBS 240500Z VRB02KT CAVOK 22/17 Q1004 NOSIG=
201807240530 METAR LRBS 240530Z VRB02KT CAVOK 22/17 Q1004 NOSIG=
201807240600 METAR LRBS 240600Z 03003KT 320V080 CAVOK 23/16 Q1005 NOSIG=
201807240630 METAR LRBS 240630Z 02004KT 340V080 CAVOK 24/17 Q1005 NOSIG=
201807240700 METAR LRBS 240700Z 03003KT 310V090 CAVOK 24/17 Q1004 NOSIG=
201807240730 METAR LRBS 240730Z 05003KT 340V120 CAVOK 25/16 Q1005 NOSIG=
201807240800 METAR LRBS 240800Z 36004KT 280V070 CAVOK 26/16 Q1005 NOSIG=
201807240830 METAR COR LRBS 240830Z VRB03KT CAVOK 26/16 Q1005 NOSIG=
201807240900 METAR LRBS 240900Z VRB03KT CAVOK 27/17 Q1004 NOSIG=
201807240930 METAR LRBS 240930Z VRB03KT 9999 FEW039 27/16 Q1004 NOSIG=
201807241000 METAR LRBS 241000Z 35003KT 260V070 9999 FEW037 FEW050CB 27/16
                        Q1004 NOSIG=
201807241030 METAR LRBS 241030Z VRB05KT 9999 SCT038 FEW050CB 27/16 Q1004
                        NOSIG=
201807241100 METAR LRBS 241100Z 31005KT 260V020 9999 BKN043 FEW050CB 27/16
                        Q1004 NOSIG=
201807241130 METAR LRBS 241130Z 32010KT 280V360 9999 VCTS BKN043 FEW050CB
                        26/15 Q1004 TEMPO VRB15G25KT 5000
                        -TSRA BKN035CB=
201807241200 METAR LRBS 241200Z 31010KT 260V010 9999 FEW050CB 27/16 Q1004
                        NOSIG=
201807241230 METAR LRBS 241230Z 30010KT 260V350 9999 FEW050CB 26/18 Q1004
                        NOSIG=
201807241300 METAR LRBS 241300Z 32007KT 250V050 9999 FEW050CB 26/17 Q1003
                        NOSIG=
201807241330 METAR COR LRBS 241330Z 32007KT 220V030 9999 FEW050CB 27/16
                        Q1003 NOSIG=
201807241400 METAR COR LRBS 241400Z 30008KT 260V010 9999 FEW050CB 26/17
                        Q1003 NOSIG=
201807241430 METAR LRBS 241430Z 33005KT 260V040 9999 FEW050CB 27/16 Q1003
                        NOSIG=
201807241500 METAR LRBS 241500Z 29007KT 250V360 9999 FEW045CB 26/16 Q1003
                        NOSIG=
201807241530 METAR LRBS 241530Z 32005KT 270V070 9999 FEW050CB 26/15 Q1003
                        NOSIG=
201807241600 METAR LRBS 241600Z 32005KT 270V070 9999 FEW050CB 26/15 Q1003
                        NOSIG=
201807241630 METAR LRBS 241630Z VRB04KT 9999 FEW050CB 26/16 Q1003 TEMPO
                        5000 TSRA BKN040CB=
201807241700 METAR LRBS 241700Z VRB01KT 9999 FEW047 FEW050CB 26/17 Q1004
                        TEMPO 5000 TSRA BKN040CB=
201807241730 METAR LRBS 241730Z VRB02KT 9999 SCT047CB 26/17 Q1004 NOSIG=
201807241800 METAR LRBS 241800Z 01004KT 340V050 9999 SCT046CB 25/18 Q1004
                        NOSIG=
201807241830 METAR LRBS 241830Z 01008KT 340V060 9999 FEW041 SCT050CB 23/17
                        Q1004 NOSIG=
201807241900 METAR LRBS 241900Z 04005KT 360V090 9999 FEW050CB 22/18 Q1005
                        NOSIG=
201807241930 METAR LRBS 241930Z 03003KT 9999 FEW050CB 21/18 Q1005 NOSIG=
201807242000 METAR LRBS 242000Z VRB02KT CAVOK 21/18 Q1005 NOSIG=
201807242030 METAR LRBS 242030Z 00000KT CAVOK 21/18 Q1005 NOSIG=
201807242100 METAR LRBS 242100Z VRB02KT CAVOK 22/17 Q1005 NOSIG=
201807242130 METAR LRBS 242130Z VRB02KT CAVOK 21/18 Q1005 NOSIG=
201807242200 METAR LRBS 242200Z VRB02KT CAVOK 21/17 Q1005 NOSIG=
201807242230 METAR LRBS 242230Z VRB01KT CAVOK 21/18 Q1005=
201807242300 METAR LRBS 242300Z VRB01KT 9999 FEW035 21/18 Q1005 NOSIG=
201807242330 METAR LRBS 242330Z VRB02KT 9999 BKN035 21/18 Q1005=
201807250000 METAR LRBS 250000Z 33003KT 300V020 9999 BKN040 21/17 Q1005
                        NOSIG=
201807250030 METAR LRBS 250030Z 32003KT 300V360 9999 FEW039 21/17 Q1005
                        NOSIG=
201807250100 METAR LRBS 250100Z VRB02KT 9999 FEW031 21/17 Q1005 NOSIG=
201807250130 METAR LRBS 250130Z VRB01KT 9999 BKN032 21/18 Q1005 NOSIG=
201807250200 METAR LRBS 250200Z VRB02KT 9999 -RA BKN036 21/18 Q1005 NOSIG=
201807250230 METAR LRBS 250230Z 28003KT 9999 BKN039 20/18 Q1005 NOSIG=
201807250300 METAR LRBS 250300Z 29003KT 250V320 9999 BKN043 20/19 Q1005
                        NOSIG=
201807250330 METAR LRBS 250330Z 28003KT 9999 FEW048 20/19 Q1005 NOSIG=
201807250400 METAR LRBS 250400Z VRB02KT 9999 FEW048CB 21/18 Q1005 NOSIG=
201807250430 METAR LRBS 250430Z 28003KT 250V310 CAVOK 21/18 Q1006 NOSIG=
201807250500 METAR LRBS 250500Z 30003KT 260V350 9999 FEW044 22/18 Q1005
                        NOSIG=
201807250530 METAR LRBS 250530Z 31004KT 280V350 9999 FEW045 23/18 Q1005
                        NOSIG=
201807250600 METAR LRBS 250600Z 29005KT 230V320 9999 FEW047 24/17 Q1005
                        NOSIG=
201807250630 METAR LRBS 250630Z 28004KT 220V350 CAVOK 25/17 Q1006 NOSIG=
201807250700 METAR COR LRBS 250700Z 27005KT 220V320 9999 FEW033 25/17
                        Q1006 NOSIG=
201807250730 METAR LRBS 250730Z 28003KT 240V340 9999 FEW035 26/17 Q1006
                        NOSIG=
201807250800 METAR LRBS 250800Z 36003KT 270V050 9999 FEW032 SCT043 26/17
                        Q1006 NOSIG=
201807250830 METAR LRBS 250830Z VRB03KT 9999 SCT032 27/17 Q1006 NOSIG=
201807250900 METAR LRBS 250900Z 03004KT 310V090 9999 SCT033 27/17 Q1006
                        BECMG FEW040CB=
201807250930 METAR LRBS 250930Z 03005KT 280V090 9999 SCT039 FEW050TCU
                        27/17 Q1006 BECMG FEW040CB=
201807251000 METAR LRBS 251000Z 02005KT 340V070 9999 SCT038 FEW045TCU
                        27/17 Q1005 NOSIG=
201807251030 METAR LRBS 251030Z 01005KT 310V090 9999 SCT038 FEW045CB 28/16
                        Q1005 NOSIG=
201807251100 METAR COR LRBS 251100Z 36008G19KT 320V040 4000 SHRA SCT040CB
                        27/17 Q1005 TEMPO 3000 -TSRA=
201807251130 METAR LRBS 251130Z 14003KT 110V180 9999 FEW034 SCT040CB 23/20
                        Q1005 NOSIG=
201807251200 METAR LRBS 251200Z VRB01KT 9999 FEW032 FEW040CB 25/17 Q1005
                        NOSIG=
201807251230 METAR LRBS 251230Z VRB02KT 9999 FEW040CB 26/17 Q1005 NOSIG=
201807251300 METAR LRBS 251300Z VRB02KT 9999 FEW045CB 27/17 Q1005 NOSIG=
201807251330 METAR LRBS 251330Z 02004KT 320V090 9999 FEW049TCU 28/18 Q1005
                        NOSIG=
201807251400 METAR LRBS 251400Z VRB01KT 9999 FEW045TCU 27/18 Q1005 NOSIG=
201807251430 METAR LRBS 251430Z VRB01KT 9999 FEW045CB 28/18 Q1005 NOSIG=
201807251500 METAR LRBS 251500Z VRB02KT 9999 FEW045CB 28/17 Q1005 NOSIG=
201807251530 METAR COR LRBS 251530Z 09010KT 070V130 9999 2500E VCSH FEW035
                        SCT040CB 27/18 Q1005 TEMPO 5000 -TSRA=
201807251600 METAR LRBS 251600Z 05010KT 320V110 9999 -TSRA SCT035 BKN045CB
                        23/17 Q1006 R07/29//95 TEMPO 3000
                        TSRA=
201807251630 METAR LRBS 251630Z VRB03KT 9999 -TSRA SCT020 BKN040 SCT050CB
                        21/18 Q1006 R07/29//95 NOSIG=
201807251700 METAR LRBS 251700Z 00000KT 9999 FEW050CB 22/18 Q1006 R07/29//95
                        NOSIG=
201807251730 METAR LRBS 251730Z 28003KT 240V310 9999 FEW050CB 22/19 Q1007
                        R07/29//95=
201807251800 METAR LRBS 251800Z 26006KT 240V310 9999 -SHRA FEW050CB 21/19
                        Q1007 R07/29//95 NOSIG=
201807251830 METAR LRBS 251830Z 26003KT 9999 FEW050CB 21/19 Q1007 R07/29//95
                        NOSIG=
201807251900 METAR LRBS 251900Z 29003KT 260V340 CAVOK 21/19 Q1007 R07/29//95
                        NOSIG=
201807251930 METAR LRBS 251930Z VRB02KT CAVOK 20/19 Q1007 R07/29//95 NOSIG=
201807252000 METAR COR LRBS 252000Z VRB02KT CAVOK 20/19 Q1007 R07/19//95
                        NOSIG=
201807252030 METAR LRBS 252030Z VRB02KT CAVOK 20/19 Q1007 R07/19//95 NOSIG=
201807252100 METAR LRBS 252100Z VRB02KT CAVOK 20/19 Q1007 R07/19//95 NOSIG=
201807252130 METAR LRBS 252130Z 32003KT 270V040 CAVOK 20/19 Q1007 R07/19//95
                        NOSIG=
201807252200 METAR LRBS 252200Z VRB02KT CAVOK 20/19 Q1007 R07/19//95 NOSIG=
201807252230 METAR LRBS 252230Z VRB02KT CAVOK 20/19 Q1007 R07/19//95 NOSIG=
201807252300 METAR LRBS 252300Z AUTO VRB01KT FEW180/// 19/19 Q1007 NOSIG=
201807252330 METAR COR LRBS 252330Z VRB01KT CAVOK 19/19 Q1007 R07/19//95
                        NOSIG=
201807260000 METAR LRBS 260000Z 27001KT CAVOK 19/19 Q1007 R07/19//95 NOSIG=
201807260030 METAR LRBS 260030Z 28001KT CAVOK 19/19 Q1008 R07/19//95 NOSIG=
201807260100 METAR COR LRBS 260100Z 00000KT CAVOK 19/18 Q1007 R07/19//95
                        NOSIG=
201807260130 METAR LRBS 260130Z 30001KT 9999 BKN049 19/19 Q1008 R07/19//95
                        NOSIG=
201807260200 METAR COR LRBS 260200Z 27001KT 9999 BKN048 20/19 Q1008 R07/19//95
                        NOSIG=
201807260230 METAR LRBS 260230Z 26001KT 9999 BKN046 20/19 Q1008 R07/19//95
                        NOSIG=
201807260300 METAR LRBS 260300Z VRB02KT 9999 BKN044 20/19 Q1008 R07/19//95
                        NOSIG=
201807260330 METAR LRBS 260330Z VRB02KT 9999 BKN044 20/19 Q1008 R07/19//95
                        NOSIG=
201807260400 METAR LRBS 260400Z VRB02KT 9999 BKN044 20/19 Q1008 R07/19//95
                        NOSIG=
201807260430 METAR COR LRBS 260430Z VRB02KT 9999 SCT046 21/20 Q1008 R07/CLRD//
                        NOSIG=
201807260500 METAR LRBS 260500Z VRB01KT 9999 SCT048 21/19 Q1009 R07/CLRD//
                        NOSIG=
201807260530 METAR COR LRBS 260530Z VRB02KT 9999 SCT048 22/20 Q1009 NOSIG=
201807260600 METAR LRBS 260600Z VRB02KT 9999 FEW006 22/20 Q1009 NOSIG=
201807260630 METAR LRBS 260630Z 26003KT 210V340 CAVOK 23/20 Q1009 NOSIG=
201807260700 METAR LRBS 260700Z 28003KT 200V350 CAVOK 23/20 Q1009 NOSIG=
201807260730 METAR LRBS 260730Z 28004KT 230V340 CAVOK 25/19 Q1009 NOSIG=
201807260800 METAR LRBS 260800Z 27007KT 240V310 9999 FEW023 26/19 Q1009
                        NOSIG=
201807260830 METAR COR LRBS 260830Z 26006KT 220V300 9999 FEW027 27/19
                        Q1009 NOSIG=
201807260900 METAR LRBS 260900Z 27004KT 210V340 CAVOK 27/19 Q1009 NOSIG=
201807260930 METAR LRBS 260930Z VRB03KT 9999 FEW032 27/18 Q1009=
201807261000 METAR LRBS 261000Z 31004KT 250V050 9999 FEW046 28/18 Q1009
                        NOSIG=
201807261030 METAR LRBS 261030Z VRB04KT 9999 FEW035TCU 28/18 Q1009 NOSIG=
201807261100 METAR LRBS 261100Z VRB03KT 9999 SCT038CB 28/17 Q1008 NOSIG=
201807261130 METAR LRBS 261130Z 35003KT 300V070 9999 FEW039CB 29/17 Q1008
                        NOSIG=
201807261200 METAR LRBS 261200Z VRB05KT 9999 SCT044 28/16 Q1008 NOSIG=
201807261230 METAR LRBS 261230Z VRB03KT 9999 SCT041 28/17 Q1008 NOSIG=
201807261300 METAR LRBS 261300Z 28004KT 240V340 9999 SCT041CB 27/19 Q1008
                        NOSIG=
201807261330 METAR LRBS 261330Z 18003KT 140V220 9999 FEW045CB 27/18 Q1008
                        NOSIG=
201807261400 METAR LRBS 261400Z VRB02KT 9999 FEW045CB 28/17 Q1008 NOSIG=
201807261430 METAR COR LRBS 261430Z VRB03KT 9999 FEW045CB 28/17 Q1008
                        NOSIG=
201807261500 METAR LRBS 261500Z 07014KT 360V110 9999 SCT048CB 26/18 Q1008
                        TEMPO VRB15G25KT 5000 TSRA=
201807261530 METAR LRBS 261530Z 08010KT 9999 SCT050CB 26/18 Q1009 NOSIG=
201807261600 METAR LRBS 261600Z 09006KT 070V130 9999 VCTS FEW044CB 25/18
                        Q1009 NOSIG=
201807261630 METAR LRBS 261630Z VRB02KT 9999 FEW040CB SCT047 25/19 Q1010
                        NOSIG=
201807261700 METAR LRBS 261700Z VRB01KT 9999 FEW008 FEW045CB 25/19 Q1010
                        NOSIG=
201807261730 METAR LRBS 261730Z VRB01KT 9999 FEW045CB SCT047 25/19 Q1010
                        NOSIG=
201807261800 METAR LRBS 261800Z 25005KT 220V320 9999 FEW045CB 24/18 Q1010
                        NOSIG=
201807261830 METAR LRBS 261830Z 28003KT CAVOK 23/19 Q1010 NOSIG=
201807261900 METAR LRBS 261900Z 27003KT CAVOK 23/19 Q1010 NOSIG=
201807261930 METAR COR LRBS 261930Z 01002KT CAVOK 22/19 Q1010 NOSIG=
201807262000 METAR LRBS 262000Z VRB01KT CAVOK 22/20 Q1010 NOSIG=
201807262030 METAR LRBS 262030Z VRB01KT CAVOK 22/20 Q1010 NOSIG=
201807262100 METAR LRBS 262100Z 27003KT 250V310 CAVOK 22/20 Q1010 NOSIG=
201807262130 METAR LRBS 262130Z 28002KT 8000 NSC 21/20 Q1010 NOSIG=
201807262200 METAR LRBS 262200Z 24002KT 8000 NSC 21/20 Q1010 NOSIG=
201807262230 METAR LRBS 262230Z 26004KT 8000 NSC 21/20 Q1010 NOSIG=
201807262300 METAR LRBS 262300Z 26003KT 8000 NSC 21/20 Q1011 NOSIG=
201807262330 METAR LRBS 262330Z 22003KT 8000 NSC 21/20 Q1011 NOSIG=
201807270000 METAR LRBS 270000Z 23003KT 9999 FEW045CB 21/20 Q1011 NOSIG=
201807270030 METAR LRBS 270030Z 28003KT 9000 FEW045CB 21/20 Q1011 NOSIG=
201807270100 METAR LRBS 270100Z 26002KT CAVOK 21/20 Q1010 NOSIG=
201807270130 METAR LRBS 270130Z VRB01KT CAVOK 21/20 Q1010 NOSIG=
201807270200 METAR LRBS 270200Z 28002KT 9999 FEW035 FEW040CB 21/20 Q1010
                        NOSIG=
201807270230 METAR LRBS 270230Z 29002KT CAVOK 21/20 Q1010 NOSIG=
201807270300 METAR LRBS 270300Z VRB01KT 7000 MIFG NSC 21/20 Q1010 NOSIG=
201807270330 METAR LRBS 270330Z 21001KT 7000 MIFG NSC 21/20 Q1010 NOSIG=
201807270400 METAR LRBS 270400Z 25001KT 8000 NSC 21/20 Q1010 NOSIG=
201807270430 METAR LRBS 270430Z 05003KT 020V090 9999 FEW006 22/21 Q1011
                        NOSIG=
201807270500 METAR LRBS 270500Z 07003KT 040V110 9999 FEW007 22/21 Q1011
                        NOSIG=
201807270530 METAR LRBS 270530Z 13004KT 090V160 9999 FEW008 FEW012 24/19
                        Q1011 NOSIG=
201807270600 METAR LRBS 270600Z 15005KT 110V230 9999 FEW013 24/20 Q1011
                        NOSIG=
201807270630 METAR LRBS 270630Z 15003KT 090V210 9999 SCT017 25/19 Q1011
                        NOSIG=
201807270700 METAR LRBS 270700Z 10004KT 060V140 9999 FEW017 SCT026 25/19
                        Q1011 NOSIG=
201807270730 METAR LRBS 270730Z AUTO VRB02KT SCT023/// 26/18 Q1011 NOSIG=
201807270800 METAR LRBS 270800Z VRB02KT 9999 BKN026 26/19 Q1011 NOSIG=
201807270830 METAR LRBS 270830Z VRB02KT 9999 SCT030 27/19 Q1011 NOSIG=
201807270900 METAR LRBS 270900Z VRB02KT 9999 SCT028 BKN040 27/18 Q1011
                        NOSIG=
201807270930 METAR LRBS 270930Z VRB01KT 9999 -SHRA SCT029TCU 26/19 Q1011
                        TEMPO SCT030CB=
201807271000 METAR LRBS 271000Z 31004KT 270V360 9999 FEW012 SCT030CB 27/19
                        Q1010 NOSIG=
201807271030 METAR LRBS 271030Z 24004KT 150V310 9999 SCT030CB 28/19 Q1010
                        NOSIG=
201807271100 METAR COR LRBS 271100Z 01010KT 270V060 9999 4000E -TSRA BKN032CB
                        26/20 Q1010 TEMPO 5000 TSRA=
201807271130 METAR LRBS 271130Z 06006KT 020V090 9999 VCTS BKN030CB 24/20
                        Q1010 NOSIG=
201807271200 METAR LRBS 271200Z 07008KT 9999 SCT030CB 25/20 Q1010 NOSIG=
201807271230 METAR LRBS 271230Z 06009KT 9999 FEW030CB 25/20 Q1010 NOSIG=
201807271300 METAR LRBS 271300Z 06009KT 020V100 9999 FEW030CB 25/20 Q1010
                        NOSIG=
201807271330 METAR LRBS 271330Z 05005KT 020V090 9999 FEW030CB 25/19 Q1010
                        NOSIG=
201807271400 METAR LRBS 271400Z 05007KT 010V070 9999 FEW030CB 25/19 Q1010
                        NOSIG=
201807271430 METAR LRBS 271430Z 07008KT 020V100 9999 FEW025 FEW040CB 25/18
                        Q1010 NOSIG=
201807271500 METAR LRBS 271500Z 07008KT 9999 FEW025 FEW040CB 26/19 Q1010
                        NOSIG=
201807271530 METAR LRBS 271530Z 08007KT 9999 FEW023 25/18 Q1010 NOSIG=
201807271600 METAR LRBS 271600Z 08005KT 050V110 9999 FEW023 25/19 Q1010
                        NOSIG=
201807271630 METAR LRBS 271630Z 05003KT 9999 FEW022 25/19 Q1010 NOSIG=
201807271700 METAR LRBS 271700Z 04003KT 9999 SCT024 FEW050CB 24/20 Q1010=
201807271730 METAR LRBS 271730Z 03003KT 360V060 9999 FEW023 FEW050CB 24/19
                        Q1010 NOSIG=
201807271800 METAR LRBS 271800Z 03003KT 9999 FEW050CB 24/19 Q1011 NOSIG=
201807271830 METAR LRBS 271830Z 36001KT 9999 FEW050CB 24/19 Q1011 NOSIG=
201807271900 METAR LRBS 271900Z 00000KT 9999 FEW050CB 24/20 Q1011 NOSIG=
201807271930 METAR LRBS 271930Z 29002KT CAVOK 23/20 Q1010 NOSIG=
201807272000 METAR LRBS 272000Z 31003KT 280V350 CAVOK 23/20 Q1010 NOSIG=
201807272030 METAR LRBS 272030Z 32003KT 280V360 CAVOK 23/20 Q1010 NOSIG=
201807272100 METAR LRBS 272100Z 29003KT CAVOK 22/20 Q1010 NOSIG=
201807272130 METAR LRBS 272130Z VRB02KT CAVOK 22/20 Q1010 NOSIG=
201807272200 METAR LRBS 272200Z 33003KT CAVOK 21/20 Q1010 NOSIG=
201807272230 METAR LRBS 272230Z 28003KT 260V320 CAVOK 21/20 Q1010 NOSIG=
201807272300 METAR LRBS 272300Z 27003KT CAVOK 21/19 Q1010 NOSIG=
201807272330 METAR COR LRBS 272330Z 31003KT CAVOK 21/19 Q1010 NOSIG=
201807280000 METAR LRBS 280000Z VRB02KT CAVOK 20/19 Q1010 NOSIG=
201807280030 METAR LRBS 280030Z 29003KT 260V320 CAVOK 20/19 Q1010 NOSIG=
201807280100 METAR LRBS 280100Z 26003KT CAVOK 20/19 Q1010 NOSIG=
201807280130 METAR LRBS 280130Z 32003KT 280V360 CAVOK 20/19 Q1009 NOSIG=
201807280200 METAR LRBS 280200Z 28003KT 250V310 CAVOK 20/18 Q1009 NOSIG=
201807280230 METAR LRBS 280230Z VRB02KT CAVOK 20/18 Q1009 NOSIG=
201807280300 METAR LRBS 280300Z VRB02KT CAVOK 20/18 Q1009 NOSIG=
201807280330 METAR LRBS 280330Z 26003KT CAVOK 20/18 Q1009 NOSIG=
201807280400 METAR LRBS 280400Z VRB01KT CAVOK 20/18 Q1009 NOSIG=
201807280430 METAR LRBS 280430Z 25001KT CAVOK 21/18 Q1009 NOSIG=
201807280500 METAR LRBS 280500Z 27002KT CAVOK 21/18 Q1009 NOSIG=
201807280530 METAR LRBS 280530Z 26003KT CAVOK 21/18 Q1009 NOSIG=
201807280600 METAR LRBS 280600Z VRB02KT 9999 FEW041 22/18 Q1009 NOSIG=
201807280630 METAR LRBS 280630Z VRB01KT 9999 BKN040 23/18 Q1009 NOSIG=
201807280700 METAR LRBS 280700Z VRB02KT 9999 BKN042 25/18 Q1009 NOSIG=
201807280730 METAR LRBS 280730Z 27003KT 240V300 9999 BKN045 FEW050CB 25/19
                        Q1010 NOSIG=
201807280800 METAR LRBS 280800Z VRB02KT 9999 FEW030 BKN045 FEW050CB 26/18
                        Q1009 NOSIG=
201807280830 METAR LRBS 280830Z 27003KT 230V320 9999 SCT043 FEW050CB 26/18
                        Q1009 NOSIG=
201807280900 METAR LRBS 280900Z VRB04KT 9999 FEW040 FEW050CB 28/18 Q1009
                        NOSIG=
201807280930 METAR LRBS 280930Z VRB03KT 9999 SCT033 FEW050CB 28/18 Q1009
                        NOSIG=
201807281000 METAR LRBS 281000Z 26003KT 200V350 9999 FEW009 SCT045 FEW050CB
                        28/18 Q1009 NOSIG=
201807281030 METAR COR LRBS 281030Z VRB03KT 9999 SCT030 FEW050CB 28/19
                        Q1009 NOSIG=
201807281100 METAR LRBS 281100Z 24006KT 190V290 9999 SCT030 FEW050CB 29/19
                        Q1009 NOSIG=
201807281130 METAR LRBS 281130Z 27006KT 240V300 9999 SCT033 FEW050CB 27/18
                        Q1008 NOSIG=
201807281200 METAR LRBS 281200Z 25004KT 190V280 9999 FEW035 FEW050CB 29/19
                        Q1008 NOSIG=
201807281230 METAR LRBS 281230Z VRB03KT 9999 FEW039 FEW050CB 29/19 Q1008
                        NOSIG=
201807281300 METAR LRBS 281300Z 22005KT 170V310 9999 FEW050CB 30/18 Q1008
                        NOSIG=
201807281330 METAR LRBS 281330Z 25006KT 190V310 9999 FEW045 FEW050CB 30/18
                        Q1008 NOSIG=
201807281400 METAR LRBS 281400Z 26006KT 220V300 9999 FEW044 FEW050CB 30/18
                        Q1008 NOSIG=
201807281430 METAR LRBS 281430Z 25005KT 150V310 9999 FEW050CB 30/18 Q1008
                        NOSIG=
201807281500 METAR LRBS 281500Z 29004KT 250V360 9999 SCT045 FEW050CB 30/17
                        Q1008 NOSIG=
201807281530 METAR LRBS 281530Z 28006KT 240V320 9999 VCTS FEW045 FEW050CB
                        30/17 Q1008 NOSIG=
201807281600 METAR LRBS 281600Z 26006KT 9999 FEW045 FEW050CB 30/18 Q1008
                        NOSIG=
201807281630 METAR LRBS 281630Z 28004KT 250V310 9999 FEW045CB 30/18 Q1008
                        NOSIG=
201807281700 METAR LRBS 281700Z 27005KT 9999 FEW045CB 29/18 Q1008 TEMPO
                        VRB18KT TSRA=
201807281730 METAR LRBS 281730Z 07009KT 040V120 9999 VCTS FEW040 BKN050CB
                        26/19 Q1009 TEMPO VRB18KT TSRA=
201807281800 METAR LRBS 281800Z 10007KT 060V140 9999 BKN039CB 25/18 Q1009
                        TEMPO 5000 -SHRA=
201807281830 METAR LRBS 281830Z 05004KT 020V090 9999 SCT039CB 24/18 Q1009
                        NOSIG=
201807281900 METAR LRBS 281900Z 02003KT 9999 FEW050CB 24/19 Q1009 NOSIG=
201807281930 METAR LRBS 281930Z 36002KT CAVOK 23/19 Q1009 NOSIG=
201807282000 METAR LRBS 282000Z 00000KT CAVOK 23/19 Q1009 NOSIG=
201807282030 METAR LRBS 282030Z 10002KT CAVOK 23/19 Q1009 NOSIG=
201807282100 METAR LRBS 282100Z VRB01KT CAVOK 23/19 Q1009 NOSIG=
201807282130 METAR LRBS 282130Z 30003KT CAVOK 23/19 Q1009 NOSIG=
201807282200 METAR LRBS 282200Z 31003KT 280V350 CAVOK 22/19 Q1009 NOSIG=
201807282230 METAR LRBS 282230Z 26003KT 230V290 CAVOK 22/19 Q1009 NOSIG=
201807282300 METAR LRBS 282300Z 27003KT CAVOK 22/18 Q1009 NOSIG=
201807282330 METAR LRBS 282330Z 32003KT CAVOK 21/18 Q1009 NOSIG=
201807290000 METAR LRBS 290000Z VRB02KT CAVOK 21/18 Q1009 NOSIG=
201807290030 METAR LRBS 290030Z AUTO VRB02KT FEW046/// 21/19 Q1009 NOSIG=
201807290100 METAR LRBS 290100Z 24003KT CAVOK 21/19 Q1008 NOSIG=
201807290130 METAR LRBS 290130Z 27002KT CAVOK 21/19 Q1008 NOSIG=
201807290200 METAR LRBS 290200Z VRB01KT CAVOK 20/18 Q1008 NOSIG=
201807290230 METAR COR LRBS 290230Z VRB01KT CAVOK 20/18 Q1009 NOSIG=
201807290300 METAR LRBS 290300Z 29001KT CAVOK 20/18 Q1009 NOSIG=
201807290330 METAR LRBS 290330Z 00000KT CAVOK 21/18 Q1009 NOSIG=
201807290400 METAR LRBS 290400Z 00000KT CAVOK 21/18 Q1009 NOSIG=
201807290430 METAR LRBS 290430Z VRB01KT CAVOK 22/19 Q1009 NOSIG=
201807290500 METAR LRBS 290500Z 26001KT CAVOK 22/19 Q1009 NOSIG=
201807290530 METAR LRBS 290530Z VRB02KT CAVOK 24/18 Q1009 NOSIG=
201807290600 METAR LRBS 290600Z VRB02KT CAVOK 25/19 Q1009 NOSIG=
201807290630 METAR LRBS 290630Z 08004KT 050V130 CAVOK 26/19 Q1010 NOSIG=
201807290700 METAR LRBS 290700Z 08004KT 050V130 CAVOK 26/19 Q1009 NOSIG=
201807290730 METAR LRBS 290730Z VRB03KT 9999 FEW030 26/19 Q1010 NOSIG=
201807290800 METAR LRBS 290800Z 07003KT 040V110 9999 FEW030 27/19 Q1010
                        NOSIG=
201807290830 METAR LRBS 290830Z VRB02KT 9999 FEW025 28/18 Q1010 NOSIG=
201807290900 METAR LRBS 290900Z VRB02KT 9999 FEW028 29/17 Q1009 NOSIG=
201807290930 METAR LRBS 290930Z VRB02KT 9999 SCT030 29/17 Q1009 BECMG
                        SCT030CB=
201807291000 METAR LRBS 291000Z VRB01KT 9999 BKN035 29/18 Q1009 BECMG
                        SCT030CB=
201807291030 METAR LRBS 291030Z VRB02KT 9999 SCT035 FEW040TCU 29/17 Q1009
                        BECMG SCT035 SCT040CB=
201807291100 METAR COR LRBS 291100Z VRB03KT 9999 VCTS SCT038 FEW045CB
                        30/18 Q1008 TEMPO 5000 -TSRA=
201807291130 METAR LRBS 291130Z 23004KT 180V300 9999 SCT040 FEW043CB 29/17
                        Q1008 TEMPO 5000 -TSRA=
201807291200 METAR LRBS 291200Z 15005KT 070V190 9999 FEW042 FEW045CB 28/18
                        Q1008 TEMPO 5000 -TSRA=
201807291230 METAR LRBS 291230Z 13004KT 090V210 9999 FEW045TCU 29/18 Q1008
                        TEMPO 5000 -TSRA=
201807291300 METAR LRBS 291300Z 14003KT 100V210 9999 FEW045TCU 29/18 Q1008
                        NOSIG=
201807291330 METAR LRBS 291330Z 20003KT 120V240 9999 FEW045CB 29/18 Q1008
                        NOSIG=
201807291400 METAR LRBS 291400Z 10004KT 050V150 9999 FEW045CB 29/17 Q1008
                        TEMPO 5000 -TSRA=
201807291430 METAR LRBS 291430Z VRB02KT 9999 FEW045CB 29/17 Q1008 TEMPO
                        5000 -TSRA=
201807291500 METAR LRBS 291500Z VRB02KT 9999 SCT045CB 29/18 Q1008 TEMPO
                        5000 -TSRA=
201807291530 METAR LRBS 291530Z 07011KT 030V100 9000 3500SE -SHRA FEW034
                        SCT045CB 26/20 Q1008 TEMPO 5000 -TSRA=
201807291600 METAR LRBS 291600Z 14007KT 110V170 9999 TS BKN046CB 25/20
                        Q1008 TEMPO VRB20KT 5000 TSRA=
201807291630 METAR LRBS 291630Z VRB02KT 9999 VCTS BKN040CB 24/21 Q1009
                        TEMPO VRB18KT 5000 TSRA=
201807291700 METAR LRBS 291700Z 08006KT 040V110 9999 VCTS SCT037 BKN045CB
                        24/19 Q1009 TEMPO VRB20KT 5000 -TSRA=
201807291730 METAR LRBS 291730Z 01003KT 350V050 9999 -TSRA SCT045 BKN050CB
                        24/20 Q1010 TEMPO 5000 TSRA=
201807291800 METAR LRBS 291800Z VRB01KT 8000 -TSRA SCT045 BKN050CB 23/21
                        Q1010 NOSIG=
201807291830 METAR LRBS 291830Z 20003KT 170V230 8000 -TSRA SCT045 BKN050CB
                        23/22 Q1010 NOSIG=
201807291900 METAR LRBS 291900Z 08001KT 9999 -SHRA FEW050CB 23/22 Q1010
                        NOSIG=
201807291930 METAR LRBS 291930Z 00000KT 9999 -SHRA FEW050CB 23/22 Q1010
                        NOSIG=
201807292000 METAR LRBS 292000Z 01003KT 9999 FEW050CB 23/22 Q1010 NOSIG=
201807292030 METAR LRBS 292030Z 00000KT CAVOK 23/22 Q1010 NOSIG=
201807292100 METAR LRBS 292100Z VRB01KT CAVOK 23/22 Q1010 NOSIG=
201807292130 METAR LRBS 292130Z 00000KT CAVOK 22/22 Q1010 NOSIG=
201807292200 METAR LRBS 292200Z 03001KT CAVOK 22/21 Q1010 NOSIG=
201807292230 METAR LRBS 292230Z 00000KT 8000 MIFG NSC 22/21 Q1010 NOSIG=
201807292300 METAR LRBS 292300Z VRB01KT 8000 NSC 22/21 Q1010 TEMPO 5000
                        BR=
201807292330 METAR LRBS 292330Z 00000KT 9999 MIFG SCT039 22/21 Q1010 TEMPO
                        5000 BR=
201807300000 METAR LRBS 300000Z 25002KT 8000 BKN039 21/21 Q1010 TEMPO
                        5000 BR=
201807300030 METAR LRBS 300030Z 27001KT 8000 SCT045 21/20 Q1010 TEMPO
                        5000 BR=
201807300100 METAR LRBS 300100Z VRB01KT 7000 MIFG SCT047 21/20 Q1010 TEMPO
                        3000 BR=
201807300130 METAR LRBS 300130Z 05002KT 5000 BR SCT049 21/20 Q1010 TEMPO
                        3000 BR=
201807300200 METAR LRBS 300200Z 03001KT 9999 NSC 21/20 Q1010 NOSIG=
201807300230 METAR LRBS 300230Z AUTO 06001KT OVC130/// 21/20 Q1010 NOSIG=
201807300300 METAR LRBS 300300Z VRB02KT CAVOK 21/20 Q1010 NOSIG=
201807300330 METAR LRBS 300330Z 30002KT CAVOK 21/20 Q1010 NOSIG=
201807300400 METAR LRBS 300400Z 23002KT 7000 FEW040 21/21 Q1010 NOSIG=
201807300430 METAR LRBS 300430Z 25003KT 8000 NSC 22/21 Q1010 NOSIG=
201807300500 METAR LRBS 300500Z VRB02KT 9999 BKN033 22/21 Q1010 NOSIG=
201807300530 METAR LRBS 300530Z 30003KT 270V340 9999 BKN033 23/21 Q1010
                        NOSIG=
201807300600 METAR LRBS 300600Z 30003KT 9999 BKN034 23/21 Q1011 NOSIG=
201807300630 METAR LRBS 300630Z 26003KT 230V300 9999 SCT038 23/22 Q1011
                        NOSIG=
201807300700 METAR LRBS 300700Z 26003KT CAVOK 24/20 Q1011 NOSIG=
201807300730 METAR LRBS 300730Z VRB02KT CAVOK 25/19 Q1011 NOSIG=
201807300800 METAR LRBS 300800Z VRB01KT CAVOK 26/20 Q1011 NOSIG=
201807300830 METAR LRBS 300830Z VRB02KT 9999 FEW025 27/20 Q1011 NOSIG=
201807300900 METAR LRBS 300900Z 09003KT 010V170 9999 SCT026 BKN049 27/18
                        Q1011 NOSIG=
201807300930 METAR LRBS 300930Z 35003KT 270V070 9999 SCT027 27/19 Q1011
                        NOSIG=
201807301000 METAR COR LRBS 301000Z 04003KT 9999 SCT033 28/19 Q1011 NOSIG=
201807301030 METAR LRBS 301030Z 35006KT 280V050 9999 -SHRA BKN033 FEW040CB
                        27/19 Q1011 NOSIG=
201807301100 METAR LRBS 301100Z 34004KT 300V050 9999 SCT036 FEW040CB 27/20
                        Q1011 NOSIG=
201807301130 METAR LRBS 301130Z 01004KT 310V090 9999 FEW038CB 28/18 Q1011
                        TEMPO 5000 SHRA=
201807301200 METAR LRBS 301200Z 34006KT 310V040 7000 -SHRA FEW020 SCT040CB
                        24/21 Q1011 BECMG NSC=
201807301230 METAR LRBS 301230Z 32003KT 300V360 9999 FEW041CB 26/21 Q1010
                        NOSIG=
201807301300 METAR LRBS 301300Z 29003KT 260V320 9999 FEW040CB 26/21 Q1010
                        NOSIG=
201807301330 METAR LRBS 301330Z VRB02KT 9999 FEW040CB 27/21 Q1010 NOSIG=
201807301400 METAR LRBS 301400Z VRB02KT 9999 FEW040CB 28/21 Q1010 NOSIG=
201807301430 METAR LRBS 301430Z VRB01KT 9999 FEW045CB 28/20 Q1010 NOSIG=
201807301500 METAR LRBS 301500Z 33005KT 300V010 9999 SCT046 27/20 Q1010
                        NOSIG=
201807301530 METAR LRBS 301530Z 36004KT 320V050 9999 FEW047CB 28/19 Q1010
                        TEMPO 5000 -TSRA=
201807301600 METAR LRBS 301600Z 36005KT 320V050 9999 SCT046CB 27/19 Q1010
                        TEMPO 5000 -TSRA=
201807301630 METAR LRBS 301630Z 36007KT 320V040 9999 FEW046CB 26/19 Q1010
                        TEMPO 5000 -TSRA=
201807301700 METAR LRBS 301700Z 05003KT 360V090 9999 FEW041 SCT045CB 26/19
                        Q1011 NOSIG=
201807301730 METAR COR LRBS 301730Z 08003KT 050V120 9999 VCTS FEW038 FEW045CB
                        26/18 Q1011 NOSIG=
201807301800 METAR LRBS 301800Z VRB01KT 9999 VCTS SCT033 FEW040CB 25/19
                        Q1011 TEMPO 5000 -TSRA=
201807301830 METAR LRBS 301830Z 04006G17KT 010V070 9999 TS FEW025 SCT034CB
                        24/20 Q1012 TEMPO 5000 -TSRA=
201807301900 METAR LRBS 301900Z 13003KT 070V170 9999 -SHRA SCT030 SCT035CB
                        21/20 Q1012 RETSRA R07/29//95 NOSIG=
201807301930 METAR LRBS 301930Z VRB01KT 9999 FEW035CB 21/20 Q1012 R07/29//95
                        NOSIG=
201807302000 METAR LRBS 302000Z VRB01KT 9999 -SHRA FEW040CB 22/20 Q1012
                        R07/29//95 NOSIG=
201807302030 METAR LRBS 302030Z 01003KT 9999 FEW026 FEW040CB 22/19 Q1012
                        R07/29//95 NOSIG=
201807302100 METAR LRBS 302100Z 04002KT 9999 BKN026 21/19 Q1012 R07/29//95
                        NOSIG=
201807302130 METAR LRBS 302130Z 04002KT 9999 FEW030 21/19 Q1012 R07/29//95
                        NOSIG=
201807302200 METAR LRBS 302200Z 35001KT CAVOK 21/19 Q1013 R07/29//95 NOSIG=
201807302230 METAR LRBS 302230Z VRB02KT CAVOK 21/19 Q1012 R07/29//95 NOSIG=
201807302300 METAR LRBS 302300Z 00000KT CAVOK 21/19 Q1012 R07/29//95 NOSIG=
201807302330 METAR LRBS 302330Z 01002KT CAVOK 20/19 Q1012 R07/29//95 NOSIG=
201807310000 METAR LRBS 310000Z VRB01KT CAVOK 20/19 Q1012 R07/29//95 NOSIG=
201807310030 METAR LRBS 310030Z VRB01KT CAVOK 20/19 Q1012 R07/29//95 NOSIG=
201807310100 METAR LRBS 310100Z 25002KT 8000 NSC 20/19 Q1012 R07/29//95
                        TEMPO 5000 BR=
201807310130 METAR LRBS 310130Z VRB01KT 8000 NSC 20/19 Q1012 R07/29//95
                        TEMPO 5000 BR=
201807310200 METAR LRBS 310200Z 27002KT 8000 NSC 20/19 Q1012 R07/29//95
                        TEMPO 5000 BR=
201807310230 METAR LRBS 310230Z 00000KT 8000 NSC 20/19 Q1012 R07/29//95
                        TEMPO 5000 BR=
201807310300 METAR LRBS 310300Z VRB01KT 8000 NSC 20/19 Q1012 R07/19//95
                        NOSIG=
201807310330 METAR LRBS 310330Z VRB01KT CAVOK 20/19 Q1012 R07/19//95 NOSIG=
201807310400 METAR LRBS 310400Z 00000KT CAVOK 21/20 Q1013 R07/19//95 NOSIG=
201807310430 METAR LRBS 310430Z 29001KT CAVOK 21/20 Q1013 R07/19//95 NOSIG=
201807310500 METAR LRBS 310500Z 25002KT CAVOK 21/20 Q1013 R07/19//95 NOSIG=
201807310530 METAR COR LRBS 310530Z 26002KT CAVOK 22/20 Q1013 R07/19//95
                        NOSIG=
201807310600 METAR COR LRBS 310600Z 00000KT CAVOK 23/20 Q1013 R07/19//95
                        NOSIG=
201807310630 METAR LRBS 310630Z 00000KT CAVOK 23/20 Q1013 R07/19//95 NOSIG=
201807310700 METAR LRBS 310700Z VRB01KT CAVOK 24/20 Q1013 R07/19//95 NOSIG=
201807310730 METAR LRBS 310730Z VRB02KT CAVOK 24/20 Q1013 R07/19//95 NOSIG=
201807310800 METAR LRBS 310800Z VRB02KT CAVOK 26/19 Q1013 R07/19//95 NOSIG=
201807310830 METAR LRBS 310830Z 29003KT 240V360 CAVOK 26/18 Q1013 R07/CLRD//
                        NOSIG=
201807310900 METAR LRBS 310900Z VRB03KT 9999 FEW035 27/18 Q1013 NOSIG=
201807310930 METAR LRBS 310930Z 32003KT 240V020 9999 FEW040 27/19 Q1013
                        NOSIG=
201807311000 METAR COR LRBS 311000Z VRB03KT 9999 FEW035 28/18 Q1013 NOSIG=
201807311030 METAR LRBS 311030Z VRB03KT 9999 SCT039 28/18 Q1013 NOSIG=
201807311100 METAR LRBS 311100Z 08004KT 040V130 9999 SCT037 29/19 Q1013
                        NOSIG=
201807311130 METAR LRBS 311130Z VRB02KT 9999 SCT037 29/19 Q1012 NOSIG=
201807311200 METAR LRBS 311200Z 03003KT 330V130 9999 SCT037 29/19 Q1012
                        NOSIG=
201807311230 METAR LRBS 311230Z 06003KT 310V120 9999 SCT039 29/19 Q1012
                        NOSIG=
201807311300 METAR LRBS 311300Z 06005KT 010V130 9999 SCT037 29/19 Q1012
                        NOSIG=
201807311330 METAR COR LRBS 311330Z VRB02KT 9999 BKN039 30/20 Q1011 TEMPO
                        TS SCT040CB=
201807311400 METAR LRBS 311400Z 03011KT 310V060 7000 -TSRA BKN037 SCT040CB
                        26/21 Q1011 TEMPO VRB15KT 3000 TSRA=
201807311430 METAR COR LRBS 311430Z 02003KT 320V060 9999 VCTS SCT032 FEW040CB
                        25/21 Q1011 NOSIG=
201807311500 METAR LRBS 311500Z 32006KT 280V040 9999 VCTS SCT033 FEW040CB
                        24/21 Q1012 NOSIG=
201807311530 METAR LRBS 311530Z 30005KT 260V320 9999 SCT032 FEW040CB 23/21
                        Q1012 NOSIG=
201807311600 METAR LRBS 311600Z 35005KT 300V040 9999 FEW031 FEW040CB 24/21
                        Q1012 NOSIG=
201807311630 METAR LRBS 311630Z 33003KT 260V020 9999 BKN031 FEW040CB 23/20
                        Q1013 NOSIG=
201807311700 METAR COR LRBS 311700Z 34004KT 290V040 9999 SCT031 SCT039CB
                        23/20 Q1013 WS IN APCH NOSIG=
201807311730 METAR COR LRBS 311730Z 35003KT 280V050 9999 FEW032 SCT040CB
                        23/20 Q1013 WS R25 NOSIG=
201807311800 METAR LRBS 311800Z 30003KT 240V040 9999 SCT030 SCT040CB 22/20
                        Q1013 WS R25 NOSIG=
201807311830 METAR COR LRBS 311830Z 32005KT 270V020 9999 TS SCT040CB 22/20
                        Q1013 WS R25 NOSIG=
201807311900 METAR LRBS 311900Z 33004KT 240V040 9999 TS BKN028 SCT040CB
                        22/20 Q1014 TS R25 NOSIG=
201807311930 METAR LRBS 311930Z 32004KT 270V020 9999 FEW040CB 22/20 Q1013
                        WS R25 NOSIG=
201807312000 METAR COR LRBS 312000Z 01003KT 310V060 9999 FEW040CB 22/20
                        Q1014 WS R25 NOSIG=
201807312030 METAR LRBS 312030Z 01003KT 340V050 9999 FEW040CB 22/20 Q1014
                        WS R25 NOSIG=
201807312100 METAR LRBS 312100Z 04003KT 360V070 9999 FEW040CB 22/20 Q1014
                        WS R25 NOSIG=
201807312130 METAR LRBS 312130Z 05003KT 010V090 CAVOK 21/20 Q1013 NOSIG=
201807312200 METAR LRBS 312200Z 06005KT 020V090 CAVOK 22/19 Q1013 NOSIG=
201807312230 METAR LRBS 312230Z 07004KT 040V110 CAVOK 22/19 Q1013 NOSIG=
201807312300 METAR LRBS 312300Z 04003KT 350V090 CAVOK 22/18 Q1013 NOSIG=
201807312330 METAR LRBS 312330Z VRB02KT 9999 FEW044 21/19 Q1014 NOSIG=