201808010000 METAR LRBS 010000Z 29003KT 260V330 9999 BKN043 21/19 Q1014
                        NOSIG=
201808010030 METAR LRBS 010030Z 28003KT 260V320 9999 FEW023 SCT044 21/20
                        Q1014 NOSIG=
201808010100 METAR LRBS 010100Z VRB02KT 9999 BKN023 21/20 Q1014 NOSIG=
201808010130 METAR COR LRBS 010130Z VRB01KT 9999 BKN027 21/20 Q1014 NOSIG=
201808010200 METAR LRBS 010200Z VRB02KT 9999 BKN028 21/20 Q1014 NOSIG=
201808010230 METAR LRBS 010230Z VRB01KT 9999 BKN031 21/20 Q1014 NOSIG=
201808010300 METAR LRBS 010300Z VRB01KT 9999 BKN033 21/20 Q1014 NOSIG=
201808010330 METAR LRBS 010330Z VRB01KT 9999 FEW036 BKN046 22/19 Q1014
                        NOSIG=
201808010400 METAR LRBS 010400Z 00000KT CAVOK 22/19 Q1014 NOSIG=
201808010430 METAR LRBS 010430Z 36002KT 9999 BKN048 22/19 Q1015 NOSIG=
201808010500 METAR LRBS 010500Z 02003KT 280V090 9999 FEW036 23/20 Q1015
                        NOSIG=
201808010530 METAR LRBS 010530Z 01004KT 320V060 CAVOK 24/18 Q1015 NOSIG=
201808010600 METAR LRBS 010600Z 02010KT 350V060 CAVOK 25/18 Q1015 NOSIG=
201808010630 METAR LRBS 010630Z 04010KT 010V070 CAVOK 26/18 Q1015 NOSIG=
201808010700 METAR LRBS 010700Z 04012KT 010V090 9999 BKN026 26/18 Q1015
                        NOSIG=
201808010730 METAR COR LRBS 010730Z 04011KT 010V080 9999 BKN025 26/19
                        Q1015 NOSIG=
201808010800 METAR LRBS 010800Z 05008KT 010V080 9999 SCT025 BKN030 26/19
                        Q1016 NOSIG=
201808010830 METAR LRBS 010830Z 06009KT 020V090 9999 BKN026 26/19 Q1016
                        NOSIG=
201808010900 METAR LRBS 010900Z 06011KT 020V100 9999 BKN027 27/20 Q1016
                        NOSIG=
201808010930 METAR LRBS 010930Z 06011KT 010V100 9999 BKN026 BKN038 28/20
                        Q1016 NOSIG=
201808011000 METAR LRBS 011000Z 04010KT 360V080 9999 BKN029 BKN037 28/20
                        Q1016 NOSIG=
201808011030 METAR LRBS 011030Z 06010KT 020V090 9999 SCT031 BKN040 29/20
                        Q1016 NOSIG=
201808011100 METAR LRBS 011100Z 06010KT 010V090 9999 FEW032 SCT040 29/19
                        Q1016 NOSIG=
201808011130 METAR LRBS 011130Z 05012KT 360V090 9999 SCT033 FEW050TCU
                        29/20 Q1015 NOSIG=
201808011200 METAR LRBS 011200Z 06012KT 030V090 9999 FEW034 SCT043 29/19
                        Q1015 NOSIG=
201808011230 METAR LRBS 011230Z 05011KT 010V090 9999 FEW035 FEW050CB 29/19
                        Q1015 NOSIG=
201808011300 METAR LRBS 011300Z 05011KT 360V080 9999 FEW037 FEW050CB 29/19
                        Q1015 NOSIG=
201808011330 METAR LRBS 011330Z 07014KT 020V090 9999 FEW037 FEW050CB 30/19
                        Q1015 TEMPO VRB15G25KT 5000 TSRA=
201808011400 METAR LRBS 011400Z 05014KT 020V090 9999 VCTS FEW036 FEW050CB
                        29/20 Q1015 TEMPO VRB15G25KT 5000
                        TSRA=
201808011430 METAR LRBS 011430Z 12011KT 080V150 9999 TS BKN036 SCT050CB
                        25/17 Q1016 TEMPO VRB20G30KT 3000
                        TSRA=
201808011500 METAR LRBS 011500Z 06006KT 7000 -TSRA BKN042 SCT050CB 22/20
                        Q1016 R07/29//95 NOSIG=
201808011530 METAR LRBS 011530Z 00000KT 9999 FEW050CB 23/22 Q1016 R07/29//95
                        NOSIG=
201808011600 METAR LRBS 011600Z 01003KT 9999 FEW050CB 24/22 Q1016 R07/29//95
                        NOSIG=
201808011630 METAR COR LRBS 011630Z VRB01KT 9999 FEW050CB 24/21 Q1016
                        R07/29//95 NOSIG=
201808011700 METAR LRBS 011700Z 03002KT CAVOK 25/22 Q1016 R07/29//95 NOSIG=
201808011730 METAR LRBS 011730Z 02003KT 350V050 CAVOK 25/21 Q1016 R07/29//95
                        NOSIG=
201808011800 METAR LRBS 011800Z 04003KT 010V070 CAVOK 25/21 Q1017 R07/29//95
                        NOSIG=
201808011830 METAR LRBS 011830Z 03004KT CAVOK 25/21 Q1017 R07/29//95 NOSIG=
201808011900 METAR LRBS 011900Z 03004KT CAVOK 25/20 Q1017 R07/29//95 NOSIG=
201808011930 METAR LRBS 011930Z 04005KT CAVOK 24/20 Q1017 R07/29//95 NOSIG=
201808012000 METAR LRBS 012000Z 04003KT CAVOK 24/20 Q1017 R07/29//95 NOSIG=
201808012030 METAR LRBS 012030Z 04004KT 360V060 CAVOK 24/20 Q1017 R07/29//95
                        NOSIG=
201808012100 METAR LRBS 012100Z 04003KT CAVOK 23/19 Q1017 R07/29//95 NOSIG=
201808012130 METAR LRBS 012130Z 07001KT CAVOK 23/20 Q1017 R07/29//95 NOSIG=
201808012200 METAR LRBS 012200Z 06001KT CAVOK 23/20 Q1017 R07/29//95 NOSIG=
201808012230 METAR LRBS 012230Z 00000KT CAVOK 22/20 Q1017 R07/29//95 NOSIG=
201808012300 METAR COR LRBS 012300Z VRB01KT CAVOK 22/20 Q1017 R07/29//95
                        NOSIG=
201808012330 METAR LRBS 012330Z 01002KT CAVOK 22/19 Q1017 R07/29//95 NOSIG=
201808020000 METAR LRBS 020000Z 03001KT CAVOK 21/19 Q1017 R07/29//95 NOSIG=
201808020030 METAR LRBS 020030Z 05002KT CAVOK 21/19 Q1017 R07/29//95 NOSIG=
201808020100 METAR LRBS 020100Z 03004KT CAVOK 21/19 Q1017 R07/29//95 NOSIG=
201808020130 METAR LRBS 020130Z 04005KT CAVOK 21/19 Q1017 R07/29//95 NOSIG=
201808020200 METAR LRBS 020200Z 04005KT 010V070 CAVOK 21/18 Q1017 R07/29//95
                        NOSIG=
201808020230 METAR LRBS 020230Z 04005KT 010V070 CAVOK 21/18 Q1017 R07/29//95
                        NOSIG=
201808020300 METAR LRBS 020300Z 04005KT CAVOK 21/18 Q1017 R07/29//95 NOSIG=
201808020330 METAR LRBS 020330Z 05005KT CAVOK 21/17 Q1017 R07/29//95 NOSIG=
201808020400 METAR LRBS 020400Z 05005KT CAVOK 22/18 Q1017 R07/29//95 NOSIG=
201808020430 METAR LRBS 020430Z 04007KT 010V070 CAVOK 22/17 Q1018 R07/CLRD//
                        NOSIG=
201808020500 METAR LRBS 020500Z 04008KT 010V070 CAVOK 23/17 Q1018 NOSIG=
201808020530 METAR LRBS 020530Z 04009KT 360V070 CAVOK 24/17 Q1018 NOSIG=
201808020600 METAR LRBS 020600Z 04008KT 010V070 CAVOK 25/17 Q1018 NOSIG=
201808020630 METAR LRBS 020630Z 05007KT 010V080 CAVOK 25/17 Q1018 NOSIG=
201808020700 METAR LRBS 020700Z 04009KT 360V090 CAVOK 26/16 Q1018 NOSIG=
201808020730 METAR LRBS 020730Z 04009KT 360V080 CAVOK 26/15 Q1018 NOSIG=
201808020800 METAR LRBS 020800Z 04009KT 360V080 CAVOK 26/16 Q1018 NOSIG=
201808020830 METAR LRBS 020830Z 06011KT 360V090 CAVOK 28/15 Q1018 NOSIG=
201808020900 METAR LRBS 020900Z 05013KT 010V090 CAVOK 28/15 Q1018 NOSIG=
201808020930 METAR LRBS 020930Z 04012KT 360V080 CAVOK 28/14 Q1018 NOSIG=
201808021000 METAR LRBS 021000Z 05013KT 010V090 CAVOK 28/14 Q1018 NOSIG=
201808021030 METAR LRBS 021030Z 06013KT 010V080 CAVOK 28/15 Q1018 NOSIG=
201808021100 METAR LRBS 021100Z 05012KT 360V080 CAVOK 28/14 Q1018 NOSIG=
201808021130 METAR LRBS 021130Z 04012KT 010V090 CAVOK 29/14 Q1018 NOSIG=
201808021200 METAR LRBS 021200Z 04012KT 360V070 CAVOK 29/12 Q1017 NOSIG=
201808021230 METAR LRBS 021230Z 06011KT 010V090 CAVOK 29/14 Q1017 NOSIG=
201808021300 METAR LRBS 021300Z 04010KT 360V080 CAVOK 29/12 Q1017 NOSIG=
201808021330 METAR LRBS 021330Z 07012KT 040V100 CAVOK 29/14 Q1017 NOSIG=
201808021400 METAR LRBS 021400Z 06010KT 020V090 CAVOK 29/14 Q1017 NOSIG=
201808021430 METAR LRBS 021430Z 05010KT 020V090 CAVOK 29/13 Q1017 NOSIG=
201808021500 METAR LRBS 021500Z 06010KT 010V090 CAVOK 28/13 Q1017 NOSIG=
201808021530 METAR LRBS 021530Z 06010KT 030V090 CAVOK 28/13 Q1017 NOSIG=
201808021600 METAR LRBS 021600Z 04007KT 010V080 CAVOK 27/13 Q1017 NOSIG=
201808021630 METAR LRBS 021630Z 06007KT 020V090 CAVOK 27/13 Q1017 NOSIG=
201808021700 METAR LRBS 021700Z 05007KT CAVOK 26/13 Q1017 NOSIG=
201808021730 METAR LRBS 021730Z 03004KT 360V070 CAVOK 25/14 Q1017 NOSIG=
201808021800 METAR LRBS 021800Z 03003KT CAVOK 24/14 Q1017 NOSIG=
201808021830 METAR LRBS 021830Z 02003KT CAVOK 24/14 Q1018 NOSIG=
201808021900 METAR LRBS 021900Z 01003KT CAVOK 23/14 Q1018 NOSIG=
201808021930 METAR LRBS 021930Z 01003KT 330V030 CAVOK 23/13 Q1018 NOSIG=
201808022000 METAR LRBS 022000Z 36003KT CAVOK 23/14 Q1018 NOSIG=
201808022030 METAR LRBS 022030Z 36003KT 340V040 CAVOK 22/14 Q1018 NOSIG=
201808022100 METAR LRBS 022100Z 01004KT CAVOK 22/13 Q1018 NOSIG=
201808022130 METAR LRBS 022130Z 36004KT 330V040 CAVOK 22/13 Q1017 NOSIG=
201808022200 METAR LRBS 022200Z 35003KT 300V060 CAVOK 22/13 Q1018 NOSIG=
201808022230 METAR LRBS 022230Z 35004KT 300V030 CAVOK 21/13 Q1018 NOSIG=
201808022300 METAR LRBS 022300Z 35004KT 300V040 CAVOK 21/14 Q1017 NOSIG=
201808022330 METAR COR LRBS 022330Z 34005KT 310V010 CAVOK 21/14 Q1017
                        NOSIG=
201808030000 METAR LRBS 030000Z 33005KT 300V010 CAVOK 21/15 Q1017 NOSIG=
201808030030 METAR LRBS 030030Z 32004KT 290V350 CAVOK 20/15 Q1017 NOSIG=
201808030100 METAR LRBS 030100Z 32005KT CAVOK 20/16 Q1017 NOSIG=
201808030130 METAR LRBS 030130Z 32005KT 280V360 CAVOK 20/16 Q1017 NOSIG=
201808030200 METAR LRBS 030200Z 33004KT 290V010 CAVOK 20/15 Q1017 NOSIG=
201808030230 METAR LRBS 030230Z 33004KT 300V010 CAVOK 20/14 Q1017 NOSIG=
201808030300 METAR LRBS 030300Z 33004KT 300V010 CAVOK 19/14 Q1017 NOSIG=
201808030330 METAR LRBS 030330Z 34004KT 300V010 CAVOK 19/14 Q1017 NOSIG=
201808030400 METAR LRBS 030400Z 33003KT 280V360 CAVOK 20/14 Q1017 NOSIG=
201808030430 METAR LRBS 030430Z 33005KT 300V360 CAVOK 21/14 Q1017 NOSIG=
201808030500 METAR LRBS 030500Z 33005KT 300V010 CAVOK 22/14 Q1017 NOSIG=
201808030530 METAR LRBS 030530Z 35006KT 310V040 CAVOK 23/14 Q1017 NOSIG=
201808030600 METAR LRBS 030600Z 36007KT 320V050 CAVOK 24/15 Q1017 NOSIG=
201808030630 METAR LRBS 030630Z 02008KT 350V060 CAVOK 26/15 Q1017 NOSIG=
201808030700 METAR COR LRBS 030700Z 03008KT 340V060 CAVOK 26/15 Q1018
                        NOSIG=
201808030730 METAR LRBS 030730Z 03010KT 320V080 CAVOK 27/14 Q1018 NOSIG=
201808030800 METAR LRBS 030800Z 03012KT 350V070 CAVOK 28/14 Q1018 NOSIG=
201808030830 METAR COR LRBS 030830Z 03012KT 360V070 CAVOK 28/14 Q1018
                        NOSIG=
201808030900 METAR LRBS 030900Z 03012KT 350V070 CAVOK 29/13 Q1017 NOSIG=
201808030930 METAR LRBS 030930Z 04012KT 010V070 CAVOK 29/14 Q1017=
201808031000 METAR LRBS 031000Z 03010KT 350V090 CAVOK 29/13 Q1017 NOSIG=
201808031030 METAR LRBS 031030Z 04010KT 340V080 CAVOK 29/12 Q1017 NOSIG=
201808031100 METAR LRBS 031100Z 05010KT 010V090 CAVOK 30/11 Q1017 NOSIG=
201808031130 METAR LRBS 031130Z 04010KT 010V080 CAVOK 30/11 Q1017=
201808031200 METAR LRBS 031200Z 03010KT 360V070 CAVOK 30/12 Q1017=
201808031230 METAR LRBS 031230Z 04009KT 350V080 CAVOK 30/11 Q1017=
201808031300 METAR LRBS 031300Z 04010KT 320V070 CAVOK 30/11 Q1017=
201808031330 METAR LRBS 031330Z 03009KT 360V060 CAVOK 30/11 Q1017=
201808031400 METAR LRBS 031400Z 04010KT 360V090 CAVOK 30/10 Q1016=
201808031430 METAR LRBS 031430Z 03008KT 360V070 CAVOK 30/10 Q1016=
201808031500 METAR LRBS 031500Z 05008KT 010V090 CAVOK 29/11 Q1016=
201808031530 METAR LRBS 031530Z 04007KT 010V070 CAVOK 29/10 Q1016=
201808031600 METAR LRBS 031600Z 03006KT 350V090 CAVOK 29/10 Q1016=
201808031630 METAR LRBS 031630Z 04006KT 010V070 CAVOK 28/13 Q1016 NOSIG=
201808031700 METAR LRBS 031700Z 04005KT 010V070 CAVOK 27/13 Q1016 NOSIG=
201808031730 METAR LRBS 031730Z 03005KT CAVOK 26/13 Q1016 NOSIG=
201808031800 METAR LRBS 031800Z 02004KT CAVOK 25/13 Q1016 NOSIG=
201808031830 METAR LRBS 031830Z 01005KT CAVOK 25/13 Q1017 NOSIG=
201808031900 METAR LRBS 031900Z 01004KT 340V050 CAVOK 25/13 Q1017 NOSIG=
201808031930 METAR LRBS 031930Z 01004KT 340V040 CAVOK 24/13 Q1017 NOSIG=
201808032000 METAR LRBS 032000Z 36004KT 320V040 CAVOK 24/13 Q1017 NOSIG=
201808032030 METAR LRBS 032030Z 36004KT 320V040 CAVOK 23/13 Q1017 NOSIG=
201808032100 METAR LRBS 032100Z 36004KT 320V040 CAVOK 23/13 Q1017 NOSIG=
201808032130 METAR LRBS 032130Z 34004KT 300V010 CAVOK 22/13 Q1017 NOSIG=
201808032200 METAR LRBS 032200Z 33003KT 300V360 CAVOK 21/14 Q1017 NOSIG=
201808032230 METAR LRBS 032230Z 34005KT 310V020 CAVOK 21/14 Q1017 NOSIG=
201808032300 METAR LRBS 032300Z 34005KT 300V020 CAVOK 21/14 Q1017 NOSIG=
201808032330 METAR LRBS 032330Z 34006KT 310V010 CAVOK 21/13 Q1017 NOSIG=
201808040000 METAR LRBS 040000Z 33004KT 280V360 CAVOK 21/13 Q1017 NOSIG=
201808040030 METAR LRBS 040030Z 33005KT 300V010 CAVOK 20/13 Q1017 NOSIG=
201808040100 METAR COR LRBS 040100Z 34005KT 300V010 CAVOK 20/13 Q1016
                        NOSIG=
201808040130 METAR LRBS 040130Z 34004KT 290V030 CAVOK 20/13 Q1016 NOSIG=
201808040200 METAR LRBS 040200Z 33005KT 300V010 CAVOK 20/13 Q1016 NOSIG=
201808040230 METAR LRBS 040230Z 33003KT 260V020 CAVOK 19/13 Q1016 NOSIG=
201808040300 METAR LRBS 040300Z VRB02KT CAVOK 19/13 Q1016 NOSIG=
201808040330 METAR LRBS 040330Z 33003KT 270V020 CAVOK 19/13 Q1016 NOSIG=
201808040400 METAR LRBS 040400Z 33003KT 240V020 CAVOK 19/13 Q1017 NOSIG=
201808040430 METAR LRBS 040430Z 29003KT 230V350 CAVOK 20/13 Q1017 NOSIG=
201808040500 METAR LRBS 040500Z VRB02KT CAVOK 21/14 Q1017 NOSIG=
201808040530 METAR LRBS 040530Z VRB02KT CAVOK 23/14 Q1017 NOSIG=
201808040600 METAR LRBS 040600Z 36004KT 310V050 CAVOK 25/14 Q1017 NOSIG=
201808040630 METAR LRBS 040630Z 01005KT 330V060 CAVOK 26/15 Q1017 NOSIG=
201808040700 METAR LRBS 040700Z 02007KT 340V060 CAVOK 27/14 Q1017 NOSIG=
201808040730 METAR LRBS 040730Z 03007KT 340V090 CAVOK 27/14 Q1017 NOSIG=
201808040800 METAR LRBS 040800Z 02006KT 330V080 CAVOK 28/15 Q1017 NOSIG=
201808040830 METAR LRBS 040830Z VRB06KT CAVOK 29/15 Q1017 NOSIG=
201808040900 METAR COR LRBS 040900Z 04006G16KT 350V090 CAVOK 29/13 Q1017
                        NOSIG=
201808040930 METAR LRBS 040930Z 03005KT 350V080 CAVOK 30/14 Q1017 NOSIG=
201808041000 METAR LRBS 041000Z 06005KT 350V110 CAVOK 30/14 Q1017 NOSIG=
201808041030 METAR LRBS 041030Z 07006KT 040V110 CAVOK 30/11 Q1017 NOSIG=
201808041100 METAR LRBS 041100Z 09005KT 040V150 CAVOK 30/11 Q1016 NOSIG=
201808041130 METAR LRBS 041130Z 05004KT 310V100 CAVOK 31/09 Q1017 NOSIG=
201808041200 METAR LRBS 041200Z 07005KT 340V130 CAVOK 31/10 Q1016 NOSIG=
201808041230 METAR LRBS 041230Z 03005KT 340V070 CAVOK 30/10 Q1016 NOSIG=
201808041300 METAR LRBS 041300Z 06006KT 010V110 CAVOK 31/10 Q1016 NOSIG=
201808041330 METAR LRBS 041330Z 06006KT 360V110 CAVOK 31/11 Q1016 NOSIG=
201808041400 METAR LRBS 041400Z 06005KT 360V100 CAVOK 31/10 Q1016 NOSIG=
201808041430 METAR LRBS 041430Z 06007KT CAVOK 31/12 Q1016 NOSIG=
201808041500 METAR LRBS 041500Z 03004KT 360V070 CAVOK 30/09 Q1016 NOSIG=
201808041530 METAR LRBS 041530Z 06005KT 320V090 CAVOK 30/11 Q1016 NOSIG=
201808041600 METAR COR LRBS 041600Z 06004KT CAVOK 30/12 Q1016 NOSIG=
201808041630 METAR LRBS 041630Z 06004KT CAVOK 29/13 Q1016 NOSIG=
201808041700 METAR LRBS 041700Z 03003KT CAVOK 28/13 Q1016 NOSIG=
201808041730 METAR LRBS 041730Z 03003KT CAVOK 27/13 Q1016 NOSIG=
201808041800 METAR COR LRBS 041800Z 04003KT CAVOK 25/14 Q1016 NOSIG=
201808041830 METAR LRBS 041830Z 03002KT CAVOK 25/14 Q1016 NOSIG=
201808041900 METAR LRBS 041900Z 00000KT CAVOK 24/15 Q1016 NOSIG=
201808041930 METAR LRBS 041930Z VRB01KT CAVOK 24/16 Q1016 NOSIG=
201808042000 METAR COR LRBS 042000Z 35001KT CAVOK 23/15 Q1016 NOSIG=
201808042030 METAR LRBS 042030Z 00000KT CAVOK 23/15 Q1016 NOSIG=
201808042100 METAR LRBS 042100Z 01002KT CAVOK 22/15 Q1017 NOSIG=
201808042130 METAR LRBS 042130Z 36001KT CAVOK 22/14 Q1016 NOSIG=
201808042200 METAR LRBS 042200Z 00000KT CAVOK 22/14 Q1016 NOSIG=
201808042230 METAR LRBS 042230Z 31002KT CAVOK 21/15 Q1017 NOSIG=
201808042300 METAR LRBS 042300Z VRB01KT CAVOK 21/15 Q1016 NOSIG=
201808042330 METAR LRBS 042330Z VRB01KT CAVOK 20/15 Q1016 NOSIG=
201808050000 METAR LRBS 050000Z VRB01KT CAVOK 20/15 Q1016 NOSIG=
201808050030 METAR LRBS 050030Z 28002KT CAVOK 20/16 Q1017 NOSIG=
201808050100 METAR LRBS 050100Z 27003KT 230V300 CAVOK 19/16 Q1016 NOSIG=
201808050130 METAR LRBS 050130Z VRB01KT CAVOK 19/16 Q1016 NOSIG=
201808050200 METAR LRBS 050200Z 28002KT CAVOK 19/15 Q1016 NOSIG=
201808050230 METAR LRBS 050230Z 00000KT CAVOK 19/15 Q1016 NOSIG=
201808050300 METAR LRBS 050300Z VRB02KT CAVOK 18/15 Q1016 NOSIG=
201808050330 METAR LRBS 050330Z VRB01KT CAVOK 19/15 Q1016 NOSIG=
201808050400 METAR LRBS 050400Z 00000KT CAVOK 19/15 Q1016 NOSIG=
201808050430 METAR LRBS 050430Z VRB01KT CAVOK 20/15 Q1016 NOSIG=
201808050500 METAR LRBS 050500Z 00000KT CAVOK 22/16 Q1016 NOSIG=
201808050530 METAR LRBS 050530Z VRB02KT CAVOK 23/16 Q1016 NOSIG=
201808050600 METAR LRBS 050600Z VRB01KT CAVOK 25/16 Q1016 NOSIG=
201808050630 METAR LRBS 050630Z VRB01KT CAVOK 26/16 Q1016 NOSIG=
201808050700 METAR LRBS 050700Z VRB01KT CAVOK 27/14 Q1016 NOSIG=
201808050730 METAR LRBS 050730Z VRB02KT CAVOK 28/14 Q1017 NOSIG=
201808050800 METAR LRBS 050800Z 06003KT 360V090 CAVOK 29/14 Q1016 NOSIG=
201808050830 METAR LRBS 050830Z VRB02KT CAVOK 29/14 Q1016 NOSIG=
201808050900 METAR LRBS 050900Z VRB04KT CAVOK 30/12 Q1017 NOSIG=
201808050930 METAR LRBS 050930Z 29005KT 240V010 CAVOK 30/13 Q1016 NOSIG=
201808051000 METAR LRBS 051000Z 23004KT 170V280 CAVOK 31/14 Q1016 NOSIG=
201808051030 METAR LRBS 051030Z 32004KT 270V040 CAVOK 31/14 Q1016 NOSIG=
201808051100 METAR LRBS 051100Z VRB02KT CAVOK 31/13 Q1016 NOSIG=
201808051130 METAR COR LRBS 051130Z 24004KT 200V280 CAVOK 32/12 Q1016
                        NOSIG=
201808051200 METAR LRBS 051200Z 27005KT 220V350 CAVOK 31/12 Q1016 NOSIG=
201808051230 METAR LRBS 051230Z VRB05KT CAVOK 32/12 Q1015 NOSIG=
201808051300 METAR LRBS 051300Z 29004KT 220V350 CAVOK 31/11 Q1015 NOSIG=
201808051330 METAR LRBS 051330Z VRB02KT CAVOK 32/10 Q1015 NOSIG=
201808051400 METAR LRBS 051400Z VRB03KT CAVOK 32/11 Q1015 NOSIG=
201808051430 METAR LRBS 051430Z 31003KT 260V060 9999 FEW050CB 32/10 Q1015
                        NOSIG=
201808051500 METAR LRBS 051500Z 29005KT 240V350 CAVOK 32/11 Q1014 NOSIG=
201808051530 METAR LRBS 051530Z 28005KT 250V330 CAVOK 32/12 Q1014 NOSIG=
201808051600 METAR LRBS 051600Z 28006KT 250V310 CAVOK 32/11 Q1014 NOSIG=
201808051630 METAR LRBS 051630Z 27004KT CAVOK 31/12 Q1014 NOSIG=
201808051700 METAR LRBS 051700Z 26003KT CAVOK 31/11 Q1014 NOSIG=
201808051730 METAR LRBS 051730Z 25002KT CAVOK 30/13 Q1014 NOSIG=
201808051800 METAR LRBS 051800Z VRB02KT CAVOK 28/15 Q1014 NOSIG=
201808051830 METAR LRBS 051830Z 28001KT CAVOK 27/14 Q1015 NOSIG=
201808051900 METAR LRBS 051900Z VRB02KT CAVOK 26/15 Q1015 NOSIG=
201808051930 METAR LRBS 051930Z 26002KT CAVOK 25/15 Q1015 NOSIG=
201808052000 METAR LRBS 052000Z 28002KT CAVOK 24/16 Q1015 NOSIG=
201808052030 METAR LRBS 052030Z 25002KT CAVOK 24/17 Q1015 NOSIG=
201808052100 METAR LRBS 052100Z 26003KT CAVOK 24/16 Q1015 NOSIG=
201808052130 METAR COR LRBS 052130Z 27003KT CAVOK 23/17 Q1015 NOSIG=
201808052200 METAR LRBS 052200Z 27003KT CAVOK 23/17 Q1015 NOSIG=
201808052230 METAR COR LRBS 052230Z 27003KT 240V310 CAVOK 22/17 Q1015
                        NOSIG=
201808052300 METAR LRBS 052300Z 27003KT CAVOK 22/16 Q1015 NOSIG=
201808052330 METAR LRBS 052330Z VRB02KT CAVOK 21/16 Q1015 NOSIG=
201808060000 METAR LRBS 060000Z AUTO 27003KT FEW100/// 21/16 Q1015 NOSIG=
201808060030 METAR LRBS 060030Z VRB02KT CAVOK 21/16 Q1015 NOSIG=
201808060100 METAR LRBS 060100Z 30003KT 260V340 CAVOK 21/16 Q1015 NOSIG=
201808060130 METAR LRBS 060130Z 27003KT 260V320 CAVOK 20/16 Q1015 NOSIG=
201808060200 METAR LRBS 060200Z 27002KT CAVOK 20/16 Q1015 NOSIG=
201808060230 METAR LRBS 060230Z 26002KT CAVOK 20/16 Q1015 NOSIG=
201808060300 METAR LRBS 060300Z 25002KT CAVOK 20/16 Q1015 NOSIG=
201808060330 METAR LRBS 060330Z 26003KT CAVOK 19/16 Q1015 NOSIG=
201808060400 METAR LRBS 060400Z VRB02KT CAVOK 20/15 Q1015 NOSIG=
201808060430 METAR LRBS 060430Z 27002KT CAVOK 21/16 Q1015 NOSIG=
201808060500 METAR LRBS 060500Z VRB02KT CAVOK 23/15 Q1015 NOSIG=
201808060530 METAR COR LRBS 060530Z 35003KT 280V050 CAVOK 24/16 Q1016
                        NOSIG=
201808060600 METAR LRBS 060600Z VRB01KT CAVOK 25/15 Q1016 NOSIG=
201808060630 METAR LRBS 060630Z VRB02KT CAVOK 26/15 Q1016 NOSIG=
201808060700 METAR LRBS 060700Z 05004KT 010V090 CAVOK 27/15 Q1016 NOSIG=
201808060730 METAR LRBS 060730Z 07006KT 030V100 CAVOK 27/16 Q1016 NOSIG=
201808060800 METAR LRBS 060800Z 09006KT 060V130 CAVOK 28/15 Q1016 NOSIG=
201808060830 METAR LRBS 060830Z 08004KT 010V160 CAVOK 29/15 Q1016 NOSIG=
201808060900 METAR LRBS 060900Z 05003KT 360V100 CAVOK 29/14 Q1016 NOSIG=
201808060930 METAR LRBS 060930Z 02004KT 310V070 CAVOK 30/14 Q1016 NOSIG=
201808061000 METAR LRBS 061000Z VRB03KT CAVOK 30/15 Q1016 NOSIG=
201808061030 METAR LRBS 061030Z VRB01KT CAVOK 31/13 Q1015 NOSIG=
201808061100 METAR LRBS 061100Z 03003KT 330V080 CAVOK 31/14 Q1015 NOSIG=
201808061130 METAR LRBS 061130Z VRB03KT CAVOK 32/14 Q1015 NOSIG=
201808061200 METAR LRBS 061200Z 28006KT 230V320 9999 FEW050TCU 32/15 Q1015
                        NOSIG=
201808061230 METAR COR LRBS 061230Z VRB02KT 9999 FEW050CB 32/13 Q1014
                        NOSIG=
201808061300 METAR LRBS 061300Z VRB03KT 9999 VCTS FEW050CB 33/14 Q1014
                        NOSIG=
201808061330 METAR LRBS 061330Z VRB06KT 9999 FEW050CB 31/15 Q1014 NOSIG=
201808061400 METAR LRBS 061400Z 17005KT 130V220 9999 FEW050TCU 31/15 Q1014
                        NOSIG=
201808061430 METAR LRBS 061430Z VRB03KT CAVOK 32/14 Q1014 NOSIG=
201808061500 METAR COR LRBS 061500Z 35003KT 270V040 9999 FEW050CB 32/14
                        Q1014 NOSIG=
201808061530 METAR LRBS 061530Z 33004KT 260V020 9999 FEW050TCU 32/12 Q1014
                        NOSIG=
201808061600 METAR LRBS 061600Z 34003KT 280V030 9999 FEW050TCU 31/12 Q1014
                        NOSIG=
201808061630 METAR LRBS 061630Z 02003KT 350V060 9999 FEW050TCU 31/12 Q1014
                        NOSIG=
201808061700 METAR LRBS 061700Z 36004KT 340V040 9999 FEW050TCU 29/15 Q1014
                        NOSIG=
201808061730 METAR LRBS 061730Z 02003KT 9999 FEW050TCU 28/16 Q1014 NOSIG=
201808061800 METAR LRBS 061800Z 06002KT CAVOK 25/16 Q1014 NOSIG=
201808061830 METAR LRBS 061830Z 05002KT CAVOK 25/17 Q1015 NOSIG=
201808061900 METAR LRBS 061900Z 02002KT CAVOK 25/16 Q1015 NOSIG=
201808061930 METAR LRBS 061930Z 01003KT CAVOK 24/17 Q1015 NOSIG=
201808062000 METAR LRBS 062000Z 05002KT CAVOK 23/17 Q1015 NOSIG=
201808062030 METAR LRBS 062030Z 01003KT CAVOK 24/17 Q1015 NOSIG=
201808062100 METAR LRBS 062100Z 03002KT CAVOK 23/17 Q1015 NOSIG=
201808062130 METAR LRBS 062130Z 05001KT CAVOK 23/17 Q1015 NOSIG=
201808062200 METAR LRBS 062200Z 00000KT CAVOK 23/17 Q1015 NOSIG=
201808062230 METAR LRBS 062230Z 36002KT CAVOK 23/17 Q1015 NOSIG=
201808062300 METAR LRBS 062300Z 36002KT CAVOK 23/17 Q1015 NOSIG=
201808062330 METAR LRBS 062330Z VRB02KT CAVOK 22/17 Q1015 NOSIG=
201808070000 METAR LRBS 070000Z VRB01KT CAVOK 22/17 Q1015 NOSIG=
201808070030 METAR LRBS 070030Z VRB01KT CAVOK 21/17 Q1015 NOSIG=
201808070100 METAR LRBS 070100Z 00000KT CAVOK 21/17 Q1015 NOSIG=
201808070130 METAR LRBS 070130Z 00000KT CAVOK 20/18 Q1015 NOSIG=
201808070200 METAR LRBS 070200Z VRB02KT CAVOK 20/18 Q1015 NOSIG=
201808070230 METAR LRBS 070230Z 28002KT CAVOK 20/18 Q1015 NOSIG=
201808070300 METAR LRBS 070300Z 32001KT CAVOK 20/18 Q1015 NOSIG=
201808070330 METAR LRBS 070330Z 00000KT CAVOK 20/17 Q1015 NOSIG=
201808070400 METAR LRBS 070400Z 29002KT CAVOK 20/17 Q1015 NOSIG=
201808070430 METAR LRBS 070430Z 00000KT CAVOK 21/18 Q1016 NOSIG=
201808070500 METAR LRBS 070500Z VRB02KT CAVOK 23/18 Q1016 NOSIG=
201808070530 METAR LRBS 070530Z 03004KT 340V100 CAVOK 24/17 Q1016 NOSIG=
201808070600 METAR LRBS 070600Z 05006KT 010V090 CAVOK 25/17 Q1016 NOSIG=
201808070630 METAR LRBS 070630Z 07009KT CAVOK 26/17 Q1016 NOSIG=
201808070700 METAR LRBS 070700Z 07010KT CAVOK 27/17 Q1016 NOSIG=
201808070730 METAR LRBS 070730Z 07009KT 040V100 CAVOK 27/17 Q1017 NOSIG=
201808070800 METAR LRBS 070800Z 07009KT 030V110 CAVOK 28/17 Q1017 NOSIG=
201808070830 METAR LRBS 070830Z 07008KT 040V110 CAVOK 29/17 Q1017 NOSIG=
201808070900 METAR LRBS 070900Z 06006KT 020V100 CAVOK 29/17 Q1016 NOSIG=
201808070930 METAR LRBS 070930Z 05004KT 350V140 CAVOK 29/17 Q1016 NOSIG=
201808071000 METAR LRBS 071000Z 05005KT 350V120 9999 FEW041 30/17 Q1016
                        NOSIG=
201808071030 METAR LRBS 071030Z 06006KT 010V160 9999 SCT043 30/17 Q1016
                        NOSIG=
201808071100 METAR LRBS 071100Z 09004KT 020V140 9999 SCT044 30/16 Q1015
                        NOSIG=
201808071130 METAR COR LRBS 071130Z VRB03KT 9999 SCT044 31/17 Q1015 NOSIG=
201808071200 METAR LRBS 071200Z 05004KT 350V100 9999 SCT047 31/16 Q1015
                        NOSIG=
201808071230 METAR LRBS 071230Z 04008G28KT 350V130 9999 FEW050CB 30/15
                        Q1016 RMK WS IN APCH TEMPO VRB20G30KT
                        5000 TSRA BKN045CB=
201808071300 METAR LRBS 071300Z 01015G26KT 330V050 9999 -SHRA VCTS SCT050CB
                        25/16 Q1016 WS IN APCH TEMPO VRB20G30KT
                        5000 TSRA BKN045CB=
201808071330 METAR COR LRBS 071330Z 02012KT 340V070 9999 TS FEW017 SCT050CB
                        24/15 Q1016 WS ALL RWY TEMPO 5000
                        TSRA=
201808071400 METAR LRBS 071400Z 36007KT 320V050 9999 TS FEW050CB 25/16
                        Q1016 WS ALL RWY NOSIG=
201808071430 METAR LRBS 071430Z VRB04KT 9999 FEW050 25/16 Q1016 WS ALL
                        RWY NOSIG=
201808071500 METAR LRBS 071500Z 36005KT 320V040 9999 FEW050CB 24/15 Q1016
                        NOSIG=
201808071530 METAR LRBS 071530Z 02006KT 340V060 CAVOK 24/16 Q1016 NOSIG=
201808071600 METAR LRBS 071600Z 35003KT 300V060 CAVOK 23/15 Q1016 NOSIG=
201808071630 METAR LRBS 071630Z VRB02KT 9999 FEW050CB 24/15 Q1017 NOSIG=
201808071700 METAR LRBS 071700Z VRB02KT 9999 FEW050CB 24/15 Q1017 NOSIG=
201808071730 METAR LRBS 071730Z 02003KT 340V060 9999 FEW050CB 24/15 Q1017
                        NOSIG=
201808071800 METAR LRBS 071800Z 24004KT 210V270 9999 FEW050CB 23/16 Q1017
                        NOSIG=
201808071830 METAR LRBS 071830Z 31003KT 280V350 CAVOK 23/16 Q1017 NOSIG=
201808071900 METAR LRBS 071900Z VRB01KT CAVOK 23/16 Q1017 NOSIG=
201808071930 METAR LRBS 071930Z 05002KT CAVOK 21/17 Q1017 NOSIG=
201808072000 METAR LRBS 072000Z 36004KT CAVOK 22/17 Q1017 NOSIG=
201808072030 METAR LRBS 072030Z VRB01KT CAVOK 22/17 Q1017 NOSIG=
201808072100 METAR LRBS 072100Z 36003KT CAVOK 22/17 Q1017 NOSIG=
201808072130 METAR LRBS 072130Z 29003KT 250V350 CAVOK 21/17 Q1017 NOSIG=
201808072200 METAR LRBS 072200Z 31003KT CAVOK 21/17 Q1018 NOSIG=
201808072230 METAR LRBS 072230Z 31005KT CAVOK 21/18 Q1017 NOSIG=
201808072300 METAR LRBS 072300Z 29002KT 9000 NSC 21/18 Q1017 NOSIG=
201808072330 METAR LRBS 072330Z 26001KT 8000 NSC 20/18 Q1018 NOSIG=
201808080000 METAR LRBS 080000Z VRB02KT 8000 NSC 20/18 Q1018 NOSIG=
201808080030 METAR LRBS 080030Z VRB02KT 8000 NSC 20/18 Q1017 NOSIG=
201808080100 METAR LRBS 080100Z VRB02KT 9000 NSC 20/18 Q1018 NOSIG=
201808080130 METAR LRBS 080130Z VRB02KT CAVOK 20/18 Q1017 NOSIG=
201808080200 METAR LRBS 080200Z 04002KT CAVOK 20/16 Q1017 NOSIG=
201808080230 METAR LRBS 080230Z 02004KT 340V050 CAVOK 20/16 Q1017 NOSIG=
201808080300 METAR LRBS 080300Z VRB02KT CAVOK 20/17 Q1018 NOSIG=
201808080330 METAR LRBS 080330Z 06003KT 030V090 CAVOK 20/16 Q1018 NOSIG=
201808080400 METAR LRBS 080400Z 03003KT 350V070 CAVOK 21/16 Q1018 NOSIG=
201808080430 METAR LRBS 080430Z 03003KT 350V090 CAVOK 21/16 Q1018 NOSIG=
201808080500 METAR LRBS 080500Z 01003KT 300V060 CAVOK 22/16 Q1018 NOSIG=
201808080530 METAR LRBS 080530Z 03004KT 340V080 CAVOK 23/15 Q1018 NOSIG=
201808080600 METAR LRBS 080600Z 05008KT 020V080 CAVOK 24/15 Q1019 NOSIG=
201808080630 METAR LRBS 080630Z 05008KT 020V090 CAVOK 25/15 Q1019 NOSIG=
201808080700 METAR LRBS 080700Z 07009KT 030V100 CAVOK 26/14 Q1019 NOSIG=
201808080730 METAR LRBS 080730Z 07008KT 040V100 CAVOK 27/15 Q1019 NOSIG=
201808080800 METAR LRBS 080800Z 06008KT 360V100 CAVOK 27/14 Q1019 NOSIG=
201808080830 METAR LRBS 080830Z 07007KT 010V100 CAVOK 27/13 Q1019 NOSIG=
201808080900 METAR LRBS 080900Z 08006KT 020V130 CAVOK 28/14 Q1019 NOSIG=
201808080930 METAR LRBS 080930Z 06007KT 320V110 CAVOK 29/13 Q1019 NOSIG=
201808081000 METAR LRBS 081000Z 07006KT 020V130 CAVOK 29/13 Q1019 NOSIG=
201808081030 METAR LRBS 081030Z 08006KT 360V150 CAVOK 29/13 Q1019 NOSIG=
201808081100 METAR LRBS 081100Z VRB03KT CAVOK 29/12 Q1019 NOSIG=
201808081130 METAR LRBS 081130Z 02006KT 330V060 CAVOK 30/14 Q1019 NOSIG=
201808081200 METAR LRBS 081200Z VRB02KT CAVOK 30/12 Q1018 NOSIG=
201808081230 METAR LRBS 081230Z VRB04KT CAVOK 30/13 Q1018 NOSIG=
201808081300 METAR LRBS 081300Z 35004KT 310V040 CAVOK 30/13 Q1018 NOSIG=
201808081330 METAR LRBS 081330Z 04004KT 360V090 CAVOK 30/14 Q1018 NOSIG=
201808081400 METAR LRBS 081400Z VRB02KT CAVOK 30/14 Q1018 NOSIG=
201808081430 METAR LRBS 081430Z 08003KT CAVOK 30/13 Q1018 NOSIG=
201808081500 METAR LRBS 081500Z VRB02KT CAVOK 30/13 Q1018 NOSIG=
201808081530 METAR COR LRBS 081530Z VRB02KT CAVOK 30/13 Q1018 NOSIG=
201808081600 METAR LRBS 081600Z VRB03KT CAVOK 30/14 Q1018 NOSIG=
201808081630 METAR LRBS 081630Z 07003KT 020V100 CAVOK 29/14 Q1018 NOSIG=
201808081700 METAR LRBS 081700Z 03002KT CAVOK 28/15 Q1018 NOSIG=
201808081730 METAR LRBS 081730Z 04003KT CAVOK 27/16 Q1018 NOSIG=
201808081800 METAR LRBS 081800Z 04003KT CAVOK 25/16 Q1018 NOSIG=
201808081830 METAR LRBS 081830Z 06003KT CAVOK 24/16 Q1018 NOSIG=
201808081900 METAR LRBS 081900Z 04003KT CAVOK 24/16 Q1018 NOSIG=
201808081930 METAR LRBS 081930Z 04004KT CAVOK 23/15 Q1019 NOSIG=
201808082000 METAR LRBS 082000Z 03003KT CAVOK 23/15 Q1019 NOSIG=
201808082030 METAR LRBS 082030Z 04002KT CAVOK 23/15 Q1019 NOSIG=
201808082100 METAR LRBS 082100Z 08001KT CAVOK 22/15 Q1019=
201808082130 METAR LRBS 082130Z VRB01KT CAVOK 22/15 Q1019 NOSIG=
201808082200 METAR COR LRBS 082200Z VRB01KT CAVOK 22/15 Q1019 NOSIG=
201808082230 METAR LRBS 082230Z 33002KT CAVOK 22/15 Q1019 NOSIG=
201808082300 METAR LRBS 082300Z 36002KT CAVOK 22/14 Q1019 NOSIG=
201808082330 METAR LRBS 082330Z 00000KT CAVOK 21/15 Q1019 NOSIG=
201808090000 METAR LRBS 090000Z 02002KT CAVOK 21/15 Q1019 NOSIG=
201808090030 METAR LRBS 090030Z VRB02KT CAVOK 20/15 Q1019 NOSIG=
201808090100 METAR LRBS 090100Z 07002KT CAVOK 19/15 Q1019 NOSIG=
201808090130 METAR LRBS 090130Z 01003KT CAVOK 19/15 Q1019 NOSIG=
201808090200 METAR LRBS 090200Z 36003KT CAVOK 20/15 Q1019 NOSIG=
201808090230 METAR LRBS 090230Z VRB02KT CAVOK 20/15 Q1019 NOSIG=
201808090300 METAR LRBS 090300Z VRB02KT CAVOK 19/15 Q1020 NOSIG=
201808090330 METAR COR LRBS 090330Z VRB01KT CAVOK 19/15 Q1020 NOSIG=
201808090400 METAR LRBS 090400Z 02003KT 350V060 CAVOK 20/15 Q1020 NOSIG=
201808090430 METAR LRBS 090430Z 05005KT 010V090 CAVOK 21/15 Q1020 NOSIG=
201808090500 METAR LRBS 090500Z 03006KT 360V070 CAVOK 22/14 Q1020 NOSIG=
201808090530 METAR LRBS 090530Z 04006KT 010V080 CAVOK 22/14 Q1021 NOSIG=
201808090600 METAR LRBS 090600Z 05009KT 010V090 CAVOK 23/14 Q1021 NOSIG=
201808090630 METAR LRBS 090630Z 04008KT 010V080 CAVOK 25/14 Q1021 NOSIG=
201808090700 METAR COR LRBS 090700Z 06009KT CAVOK 25/14 Q1021 NOSIG=
201808090730 METAR LRBS 090730Z 06007KT 030V110 CAVOK 26/14 Q1021 NOSIG=
201808090800 METAR LRBS 090800Z 07009KT 040V100 CAVOK 27/14 Q1021 NOSIG=
201808090830 METAR LRBS 090830Z 07007KT 040V110 CAVOK 27/15 Q1021 NOSIG=
201808090900 METAR LRBS 090900Z 04006KT 010V090 CAVOK 27/14 Q1021 NOSIG=
201808090930 METAR LRBS 090930Z 05008KT 350V090 CAVOK 28/14 Q1021 NOSIG=
201808091000 METAR LRBS 091000Z 08008KT 050V120 CAVOK 29/13 Q1021 NOSIG=
201808091030 METAR LRBS 091030Z 05008KT 010V110 CAVOK 29/12 Q1021 NOSIG=
201808091100 METAR LRBS 091100Z 06009KT 020V090 CAVOK 29/12 Q1021 NOSIG=
201808091130 METAR LRBS 091130Z 05008KT 360V090 CAVOK 29/12 Q1021 NOSIG=
201808091200 METAR LRBS 091200Z 06008KT 010V110 CAVOK 30/11 Q1021 NOSIG=
201808091230 METAR LRBS 091230Z 05009KT 360V090 CAVOK 30/11 Q1021 NOSIG=
201808091300 METAR LRBS 091300Z 07009KT CAVOK 30/11 Q1021 NOSIG=
201808091330 METAR LRBS 091330Z 05008KT 360V090 CAVOK 30/12 Q1021 NOSIG=
201808091400 METAR LRBS 091400Z 05008KT 010V090 CAVOK 30/11 Q1020 NOSIG=
201808091430 METAR LRBS 091430Z 07009KT CAVOK 30/10 Q1020 NOSIG=
201808091500 METAR LRBS 091500Z 06010KT 030V090 CAVOK 29/11 Q1020 NOSIG=
201808091530 METAR LRBS 091530Z 07008KT 040V100 CAVOK 29/10 Q1020 NOSIG=
201808091600 METAR LRBS 091600Z 05009KT 010V080 CAVOK 29/09 Q1020 NOSIG=
201808091630 METAR LRBS 091630Z 04005KT 360V070 CAVOK 28/09 Q1020 NOSIG=
201808091700 METAR LRBS 091700Z 03004KT CAVOK 27/09 Q1021 NOSIG=
201808091730 METAR LRBS 091730Z 02004KT CAVOK 26/09 Q1021 NOSIG=
201808091800 METAR LRBS 091800Z 01004KT CAVOK 25/11 Q1021 NOSIG=
201808091830 METAR LRBS 091830Z 02004KT CAVOK 24/11 Q1021=
201808091900 METAR LRBS 091900Z 02005KT 350V090 CAVOK 24/11 Q1021=
201808091930 METAR LRBS 091930Z 01005KT 340V050 CAVOK 24/11 Q1021=
201808092000 METAR COR LRBS 092000Z 06005KT 030V090 CAVOK 21/12 Q1022
                        NOSIG=
201808092030 METAR COR LRBS 092030Z 03004KT CAVOK 21/12 Q1022 NOSIG=
201808092100 METAR LRBS 092100Z 06003KT CAVOK 21/12 Q1022 NOSIG=
201808092130 METAR LRBS 092130Z 06003KT CAVOK 20/12 Q1022 NOSIG=
201808092200 METAR LRBS 092200Z 04002KT CAVOK 20/13 Q1022 NOSIG=
201808092230 METAR LRBS 092230Z 06003KT CAVOK 19/13 Q1022 NOSIG=
201808092300 METAR LRBS 092300Z 06002KT CAVOK 19/13 Q1022 NOSIG=
201808092330 METAR COR LRBS 092330Z 03002KT CAVOK 19/13 Q1022 NOSIG=
201808100000 METAR LRBS 100000Z AUTO VRB01KT NCD 19/14 Q1022 NOSIG=
201808100030 METAR COR LRBS 100030Z VRB02KT CAVOK 18/13 Q1022 NOSIG=
201808100100 METAR LRBS 100100Z VRB02KT CAVOK 18/13 Q1022 NOSIG=
201808100130 METAR LRBS 100130Z 01003KT CAVOK 18/13 Q1022 NOSIG=
201808100200 METAR LRBS 100200Z VRB02KT CAVOK 17/13 Q1022 NOSIG=
201808100230 METAR LRBS 100230Z 02003KT 350V050 CAVOK 17/13 Q1023 NOSIG=
201808100300 METAR LRBS 100300Z 02001KT CAVOK 17/13 Q1023 NOSIG=
201808100330 METAR LRBS 100330Z 04002KT CAVOK 17/13 Q1023 NOSIG=
201808100400 METAR LRBS 100400Z 06002KT CAVOK 17/13 Q1023 NOSIG=
201808100430 METAR LRBS 100430Z VRB02KT CAVOK 19/13 Q1023 NOSIG=
201808100500 METAR LRBS 100500Z 05003KT 020V080 CAVOK 20/14 Q1023 NOSIG=
201808100530 METAR LRBS 100530Z 04004KT 360V080 CAVOK 21/12 Q1024 NOSIG=
201808100600 METAR LRBS 100600Z 05006KT 360V090 CAVOK 22/12 Q1024 NOSIG=
201808100630 METAR LRBS 100630Z 07006KT 020V090 CAVOK 23/12 Q1024 NOSIG=
201808100700 METAR LRBS 100700Z 07009KT 020V090 CAVOK 25/11 Q1024 NOSIG=
201808100730 METAR LRBS 100730Z 06009KT 010V090 CAVOK 25/10 Q1024 NOSIG=
201808100800 METAR LRBS 100800Z 06007KT 020V100 CAVOK 26/12 Q1024 NOSIG=
201808100830 METAR LRBS 100830Z 06008KT 350V100 CAVOK 27/12 Q1024 NOSIG=
201808100900 METAR LRBS 100900Z 08009KT 010V100 CAVOK 27/11 Q1024 NOSIG=
201808100930 METAR LRBS 100930Z 07010KT 020V110 CAVOK 28/07 Q1024 NOSIG=
201808101000 METAR LRBS 101000Z 07009KT 020V130 CAVOK 29/09 Q1024 NOSIG=
201808101030 METAR LRBS 101030Z 07009KT 010V110 CAVOK 29/08 Q1024 NOSIG=
201808101100 METAR LRBS 101100Z 07011KT 040V100 CAVOK 29/09 Q1023 NOSIG=
201808101130 METAR LRBS 101130Z 06008KT 020V100 CAVOK 29/09 Q1023 NOSIG=
201808101200 METAR LRBS 101200Z 06009KT 030V100 CAVOK 29/10 Q1023 NOSIG=
201808101230 METAR LRBS 101230Z 05009KT 010V110 CAVOK 30/10 Q1023 NOSIG=
201808101300 METAR LRBS 101300Z 06009KT 020V100 CAVOK 30/09 Q1023 NOSIG=
201808101330 METAR LRBS 101330Z 05008KT 350V100 CAVOK 30/09 Q1022 NOSIG=
201808101400 METAR LRBS 101400Z 05007KT 020V090 CAVOK 29/08 Q1022 NOSIG=
201808101430 METAR LRBS 101430Z 07006KT 010V130 CAVOK 30/08 Q1022 NOSIG=
201808101500 METAR LRBS 101500Z 06005KT 020V080 CAVOK 28/09 Q1022 NOSIG=
201808101530 METAR LRBS 101530Z 06007KT 030V090 CAVOK 29/09 Q1022 NOSIG=
201808101600 METAR LRBS 101600Z 04006KT 350V070 CAVOK 29/08 Q1022 NOSIG=
201808101630 METAR COR LRBS 101630Z 03004KT 360V070 CAVOK 28/08 Q1022
                        NOSIG=
201808101700 METAR LRBS 101700Z 02004KT CAVOK 27/08 Q1022 NOSIG=
201808101730 METAR LRBS 101730Z 02004KT CAVOK 26/07 Q1022 NOSIG=
201808101800 METAR LRBS 101800Z 01005KT CAVOK 26/07 Q1022 NOSIG=
201808101830 METAR LRBS 101830Z 07006KT 030V120 CAVOK 24/09 Q1023 NOSIG=
201808101900 METAR LRBS 101900Z 05004KT 020V090 CAVOK 22/11 Q1023 NOSIG=
201808101930 METAR LRBS 101930Z 08005KT CAVOK 23/12 Q1023 NOSIG=
201808102000 METAR LRBS 102000Z 09006KT CAVOK 23/12 Q1023 NOSIG=
201808102030 METAR LRBS 102030Z 10005KT CAVOK 22/12 Q1023 NOSIG=
201808102100 METAR LRBS 102100Z 09004KT 060V130 CAVOK 22/13 Q1023 NOSIG=
201808102130 METAR LRBS 102130Z 09005KT CAVOK 20/13 Q1024 NOSIG=
201808102200 METAR LRBS 102200Z 08003KT CAVOK 20/13 Q1023 NOSIG=
201808102230 METAR LRBS 102230Z 06003KT CAVOK 19/13 Q1023 NOSIG=
201808102300 METAR LRBS 102300Z 36004KT CAVOK 19/13 Q1024 NOSIG=
201808102330 METAR LRBS 102330Z 02003KT 350V050 CAVOK 18/13 Q1024 NOSIG=
201808110000 METAR LRBS 110000Z 04002KT CAVOK 17/13 Q1024 NOSIG=
201808110030 METAR LRBS 110030Z 05003KT CAVOK 17/12 Q1024 NOSIG=
201808110100 METAR COR LRBS 110100Z 06003KT CAVOK 17/12 Q1023 NOSIG=
201808110130 METAR LRBS 110130Z 00000KT CAVOK 17/12 Q1023 NOSIG=
201808110200 METAR COR LRBS 110200Z VRB02KT CAVOK 16/12 Q1023 NOSIG=
201808110230 METAR COR LRBS 110230Z VRB02KT CAVOK 16/12 Q1023 NOSIG=
201808110300 METAR LRBS 110300Z VRB03KT CAVOK 16/12 Q1023 NOSIG=
201808110330 METAR LRBS 110330Z VRB01KT CAVOK 16/12 Q1023 NOSIG=
201808110400 METAR LRBS 110400Z VRB01KT CAVOK 17/12 Q1023 NOSIG=
201808110430 METAR LRBS 110430Z VRB02KT CAVOK 19/13 Q1023 NOSIG=
201808110500 METAR LRBS 110500Z VRB02KT CAVOK 20/12 Q1023 NOSIG=
201808110530 METAR COR LRBS 110530Z 02003KT 340V070 CAVOK 21/12 Q1023
                        NOSIG=
201808110600 METAR LRBS 110600Z 01003KT 320V070 CAVOK 22/12 Q1023 NOSIG=
201808110630 METAR LRBS 110630Z 02004KT 340V070 CAVOK 23/12 Q1023 NOSIG=
201808110700 METAR LRBS 110700Z 01004KT 330V050 CAVOK 24/11 Q1023 NOSIG=
201808110730 METAR LRBS 110730Z 36004KT 310V050 CAVOK 25/10 Q1023 NOSIG=
201808110800 METAR LRBS 110800Z 06005KT 360V110 CAVOK 25/11 Q1023 NOSIG=
201808110830 METAR LRBS 110830Z 02005KT 310V080 CAVOK 26/10 Q1023 NOSIG=
201808110900 METAR LRBS 110900Z VRB04KT CAVOK 27/11 Q1023 NOSIG=
201808110930 METAR LRBS 110930Z VRB04KT CAVOK 27/10 Q1023 NOSIG=
201808111000 METAR LRBS 111000Z VRB04KT CAVOK 27/09 Q1022 NOSIG=
201808111030 METAR LRBS 111030Z VRB03KT CAVOK 27/09 Q1022 NOSIG=
201808111100 METAR LRBS 111100Z 04006KT 330V090 CAVOK 28/09 Q1022 NOSIG=
201808111130 METAR LRBS 111130Z VRB05KT CAVOK 28/09 Q1021 NOSIG=
201808111200 METAR LRBS 111200Z VRB03KT CAVOK 29/09 Q1021 NOSIG=
201808111230 METAR LRBS 111230Z 05005KT 340V130 CAVOK 29/09 Q1021 NOSIG=
201808111300 METAR LRBS 111300Z VRB06KT CAVOK 29/09 Q1020 NOSIG=
201808111330 METAR LRBS 111330Z 05005KT 020V100 CAVOK 28/09 Q1020 NOSIG=
201808111400 METAR LRBS 111400Z 09003KT 010V170 CAVOK 29/09 Q1020 NOSIG=
201808111430 METAR LRBS 111430Z 06006KT 020V100 CAVOK 29/08 Q1020 NOSIG=
201808111500 METAR COR LRBS 111500Z 06005KT 320V100 CAVOK 28/09 Q1019
                        NOSIG=
201808111530 METAR COR LRBS 111530Z 01004KT 340V040 CAVOK 29/09 Q1019
                        NOSIG=
201808111600 METAR LRBS 111600Z VRB02KT CAVOK 28/08 Q1019 NOSIG=
201808111630 METAR LRBS 111630Z 01003KT CAVOK 28/09 Q1019 NOSIG=
201808111700 METAR LRBS 111700Z 02003KT CAVOK 27/09 Q1019 NOSIG=
201808111730 METAR LRBS 111730Z 35003KT 310V020 CAVOK 26/12 Q1019 NOSIG=
201808111800 METAR LRBS 111800Z VRB02KT CAVOK 25/11 Q1019 NOSIG=
201808111830 METAR LRBS 111830Z 33003KT 310V010 CAVOK 24/11 Q1019 NOSIG=
201808111900 METAR LRBS 111900Z VRB02KT CAVOK 24/11 Q1019 NOSIG=
201808111930 METAR LRBS 111930Z VRB02KT CAVOK 23/11 Q1019 NOSIG=
201808112000 METAR LRBS 112000Z VRB02KT CAVOK 23/11 Q1019 NOSIG=
201808112030 METAR LRBS 112030Z 00000KT CAVOK 21/12 Q1019 NOSIG=
201808112100 METAR LRBS 112100Z 00000KT CAVOK 21/12 Q1019 NOSIG=
201808112130 METAR LRBS 112130Z VRB02KT CAVOK 20/12 Q1019 NOSIG=
201808112200 METAR LRBS 112200Z 30003KT 260V350 CAVOK 19/12 Q1019 NOSIG=
201808112230 METAR LRBS 112230Z VRB01KT CAVOK 19/12 Q1019 NOSIG=
201808112300 METAR LRBS 112300Z 09004KT CAVOK 18/12 Q1019 NOSIG=
201808112330 METAR LRBS 112330Z 00000KT CAVOK 17/13 Q1019 NOSIG=
201808120000 METAR LRBS 120000Z 29002KT CAVOK 18/13 Q1019 NOSIG=
201808120030 METAR LRBS 120030Z 30003KT CAVOK 17/13 Q1019 NOSIG=
201808120100 METAR LRBS 120100Z 28003KT 260V320 CAVOK 17/13 Q1019 NOSIG=
201808120130 METAR LRBS 120130Z VRB01KT CAVOK 17/13 Q1018 NOSIG=
201808120200 METAR LRBS 120200Z 27003KT 240V300 CAVOK 17/12 Q1018 NOSIG=
201808120230 METAR LRBS 120230Z VRB02KT CAVOK 16/12 Q1018 NOSIG=
201808120300 METAR LRBS 120300Z 29003KT 240V320 CAVOK 16/12 Q1018 NOSIG=
201808120330 METAR LRBS 120330Z VRB02KT CAVOK 16/12 Q1019 NOSIG=
201808120400 METAR LRBS 120400Z 31004KT 270V350 CAVOK 17/12 Q1019 NOSIG=
201808120430 METAR LRBS 120430Z 29004KT 250V340 CAVOK 18/12 Q1019 NOSIG=
201808120500 METAR LRBS 120500Z 30004KT CAVOK 19/12 Q1019 NOSIG=
201808120530 METAR LRBS 120530Z VRB02KT CAVOK 19/13 Q1019 NOSIG=
201808120600 METAR LRBS 120600Z 30003KT 260V350 CAVOK 21/13 Q1019 NOSIG=
201808120630 METAR LRBS 120630Z VRB01KT CAVOK 22/13 Q1019 NOSIG=
201808120700 METAR LRBS 120700Z VRB01KT CAVOK 25/14 Q1019 NOSIG=
201808120730 METAR LRBS 120730Z 26001KT CAVOK 26/13 Q1019 NOSIG=
201808120800 METAR LRBS 120800Z VRB01KT CAVOK 27/10 Q1019 NOSIG=
201808120830 METAR COR LRBS 120830Z VRB02KT CAVOK 28/10 Q1019 NOSIG=
201808120900 METAR LRBS 120900Z VRB03KT CAVOK 28/10 Q1019 NOSIG=
201808120930 METAR LRBS 120930Z 32003KT 240V040 CAVOK 29/10 Q1019 NOSIG=
201808121000 METAR LRBS 121000Z VRB02KT CAVOK 29/10 Q1019 NOSIG=
201808121030 METAR LRBS 121030Z VRB03KT CAVOK 30/10 Q1019 NOSIG=
201808121100 METAR LRBS 121100Z 30005KT 220V360 CAVOK 30/09 Q1019 NOSIG=
201808121130 METAR LRBS 121130Z 11003KT 040V210 CAVOK 30/08 Q1018 NOSIG=
201808121200 METAR LRBS 121200Z VRB03KT CAVOK 30/08 Q1018 NOSIG=
201808121230 METAR LRBS 121230Z 05005KT 340V140 CAVOK 31/09 Q1018 NOSIG=
201808121300 METAR LRBS 121300Z VRB04KT CAVOK 31/07 Q1018 NOSIG=
201808121330 METAR COR LRBS 121330Z 06003KT 350V100 CAVOK 30/08 Q1017
                        NOSIG=
201808121400 METAR LRBS 121400Z 06003KT 350V100 CAVOK 30/08 Q1017 NOSIG=
201808121430 METAR LRBS 121430Z 07004KT 360V130 CAVOK 31/08 Q1017 NOSIG=
201808121500 METAR LRBS 121500Z VRB02KT CAVOK 30/08 Q1017 NOSIG=
201808121530 METAR LRBS 121530Z VRB02KT CAVOK 30/07 Q1017 NOSIG=
201808121600 METAR LRBS 121600Z VRB02KT CAVOK 30/08 Q1017 NOSIG=
201808121630 METAR LRBS 121630Z 00000KT CAVOK 30/08 Q1017 NOSIG=
201808121700 METAR LRBS 121700Z 19004KT 150V230 CAVOK 29/09 Q1017 NOSIG=
201808121730 METAR LRBS 121730Z 19003KT CAVOK 28/09 Q1017 NOSIG=
201808121800 METAR LRBS 121800Z 26001KT CAVOK 27/12 Q1017 NOSIG=
201808121830 METAR LRBS 121830Z 00000KT CAVOK 24/13 Q1017 NOSIG=
201808121900 METAR LRBS 121900Z 00000KT CAVOK 23/13 Q1018 NOSIG=
201808121930 METAR LRBS 121930Z 00000KT CAVOK 22/14 Q1018 NOSIG=
201808122000 METAR COR LRBS 122000Z 00000KT CAVOK 22/13 Q1018 NOSIG=
201808122030 METAR LRBS 122030Z 00000KT CAVOK 21/13 Q1018 NOSIG=
201808122100 METAR COR LRBS 122100Z 36001KT CAVOK 20/13 Q1018 NOSIG=
201808122130 METAR LRBS 122130Z 06004KT 020V090 CAVOK 19/13 Q1018 NOSIG=
201808122200 METAR LRBS 122200Z 07004KT CAVOK 19/13 Q1018 NOSIG=
201808122230 METAR LRBS 122230Z VRB02KT CAVOK 18/13 Q1018 NOSIG=
201808122300 METAR LRBS 122300Z VRB02KT CAVOK 20/12 Q1018 NOSIG=
201808122330 METAR LRBS 122330Z VRB02KT CAVOK 22/13 Q1018 NOSIG=
201808130000 METAR LRBS 130000Z 00000KT CAVOK 22/13 Q1017 NOSIG=
201808130030 METAR LRBS 130030Z 00000KT CAVOK 21/13 Q1017 NOSIG=
201808130100 METAR LRBS 130100Z VRB01KT CAVOK 21/13 Q1017 NOSIG=
201808130130 METAR LRBS 130130Z 31002KT CAVOK 19/13 Q1017 NOSIG=
201808130200 METAR LRBS 130200Z VRB02KT CAVOK 18/13 Q1017 NOSIG=
201808130230 METAR LRBS 130230Z 33002KT CAVOK 18/13 Q1017 NOSIG=
201808130300 METAR COR LRBS 130300Z VRB02KT CAVOK 18/13 Q1017 NOSIG=
201808130330 METAR LRBS 130330Z VRB02KT CAVOK 18/13 Q1017 NOSIG=
201808130400 METAR LRBS 130400Z VRB01KT CAVOK 18/13 Q1017 NOSIG=
201808130430 METAR LRBS 130430Z VRB02KT CAVOK 19/13 Q1017 NOSIG=
201808130500 METAR LRBS 130500Z 32003KT 290V350 CAVOK 20/14 Q1017 NOSIG=
201808130530 METAR LRBS 130530Z VRB01KT CAVOK 23/14 Q1017 NOSIG=
201808130600 METAR LRBS 130600Z VRB01KT CAVOK 24/14 Q1017 NOSIG=
201808130630 METAR LRBS 130630Z 07003KT 360V120 CAVOK 24/14 Q1017 NOSIG=
201808130700 METAR LRBS 130700Z VRB02KT CAVOK 26/14 Q1017 NOSIG=
201808130730 METAR LRBS 130730Z VRB02KT CAVOK 26/14 Q1018 NOSIG=
201808130800 METAR LRBS 130800Z VRB03KT CAVOK 27/14 Q1017 NOSIG=
201808130830 METAR COR LRBS 130830Z VRB03KT CAVOK 27/15 Q1017 NOSIG=
201808130900 METAR COR LRBS 130900Z 08004KT 360V160 CAVOK 28/12 Q1017
                        NOSIG=
201808130930 METAR COR LRBS 130930Z VRB05KT CAVOK 28/11 Q1017 NOSIG=
201808131000 METAR LRBS 131000Z 13004KT 020V190 CAVOK 29/10 Q1017 NOSIG=
201808131030 METAR LRBS 131030Z 08006KT 040V170 CAVOK 29/10 Q1017 NOSIG=
201808131100 METAR LRBS 131100Z VRB04KT CAVOK 30/09 Q1016 NOSIG=
201808131130 METAR LRBS 131130Z 10005KT 040V180 CAVOK 30/07 Q1016 NOSIG=
201808131200 METAR LRBS 131200Z VRB04KT CAVOK 30/09 Q1016 NOSIG=
201808131230 METAR LRBS 131230Z VRB03KT CAVOK 31/09 Q1015 NOSIG=
201808131300 METAR LRBS 131300Z VRB02KT CAVOK 31/08 Q1015 NOSIG=
201808131330 METAR LRBS 131330Z VRB03KT CAVOK 31/09 Q1015 NOSIG=
201808131400 METAR LRBS 131400Z VRB03KT CAVOK 30/09 Q1015 NOSIG=
201808131430 METAR LRBS 131430Z 05004KT 310V090 CAVOK 31/09 Q1015 NOSIG=
201808131500 METAR LRBS 131500Z 06003KT 010V110 CAVOK 31/09 Q1014 NOSIG=
201808131530 METAR LRBS 131530Z 06004KT 030V130 CAVOK 31/08 Q1014 NOSIG=
201808131600 METAR LRBS 131600Z 10005KT 070V140 CAVOK 30/08 Q1014 NOSIG=
201808131630 METAR LRBS 131630Z 11005KT CAVOK 29/08 Q1014 NOSIG=
201808131700 METAR LRBS 131700Z 11004KT CAVOK 28/08 Q1014 NOSIG=
201808131730 METAR LRBS 131730Z 09003KT CAVOK 26/08 Q1014 NOSIG=
201808131800 METAR LRBS 131800Z 07003KT CAVOK 24/11 Q1014 NOSIG=
201808131830 METAR LRBS 131830Z VRB02KT CAVOK 24/11 Q1014 NOSIG=
201808131900 METAR LRBS 131900Z 02001KT CAVOK 23/11 Q1014 NOSIG=
201808131930 METAR LRBS 131930Z 00000KT CAVOK 22/12 Q1014 NOSIG=
201808132000 METAR LRBS 132000Z 01001KT CAVOK 21/13 Q1014 NOSIG=
201808132030 METAR LRBS 132030Z 10003KT 070V150 CAVOK 21/12 Q1014 NOSIG=
201808132100 METAR LRBS 132100Z 06003KT CAVOK 20/11 Q1015 NOSIG=
201808132130 METAR LRBS 132130Z 07002KT CAVOK 20/12 Q1015 NOSIG=
201808132200 METAR LRBS 132200Z VRB02KT CAVOK 21/12 Q1015 NOSIG=
201808132230 METAR COR LRBS 132230Z 00000KT CAVOK 20/11 Q1015 NOSIG=
201808132300 METAR COR LRBS 132300Z VRB01KT CAVOK 20/10 Q1015 NOSIG=
201808132330 METAR COR LRBS 132330Z VRB01KT CAVOK 18/12 Q1015 NOSIG=
201808140000 METAR LRBS 140000Z 00000KT CAVOK 18/12 Q1015 NOSIG=
201808140030 METAR LRBS 140030Z 00000KT CAVOK 17/11 Q1015 NOSIG=
201808140100 METAR COR LRBS 140100Z 00000KT CAVOK 17/11 Q1015 NOSIG=
201808140130 METAR LRBS 140130Z 04002KT CAVOK 17/11 Q1015 NOSIG=
201808140200 METAR LRBS 140200Z 09001KT CAVOK 16/11 Q1015 NOSIG=
201808140230 METAR LRBS 140230Z 06003KT CAVOK 15/11 Q1015 NOSIG=
201808140300 METAR LRBS 140300Z 07001KT CAVOK 15/12 Q1015 NOSIG=
201808140330 METAR LRBS 140330Z 03001KT CAVOK 16/12 Q1015 NOSIG=
201808140400 METAR LRBS 140400Z VRB01KT CAVOK 17/12 Q1015 NOSIG=
201808140430 METAR LRBS 140430Z VRB01KT CAVOK 18/12 Q1015 NOSIG=
201808140500 METAR LRBS 140500Z 08003KT 050V110 CAVOK 19/13 Q1015 NOSIG=
201808140530 METAR LRBS 140530Z 08003KT 040V130 CAVOK 21/11 Q1015 NOSIG=
201808140600 METAR LRBS 140600Z VRB02KT CAVOK 23/10 Q1015 NOSIG=
201808140630 METAR LRBS 140630Z 07004KT 360V110 CAVOK 24/09 Q1015 NOSIG=
201808140700 METAR LRBS 140700Z 08003KT 030V140 CAVOK 26/10 Q1016 NOSIG=
201808140730 METAR LRBS 140730Z VRB03KT CAVOK 26/08 Q1016 NOSIG=
201808140800 METAR LRBS 140800Z 08004KT 050V150 CAVOK 27/08 Q1016 NOSIG=
201808140830 METAR COR LRBS 140830Z 11006KT 050V170 CAVOK 28/09 Q1015
                        NOSIG=
201808140900 METAR LRBS 140900Z 09006KT 350V130 CAVOK 28/11 Q1015 NOSIG=
201808140930 METAR LRBS 140930Z 15008KT 090V190 CAVOK 29/08 Q1015 NOSIG=
201808141000 METAR LRBS 141000Z 11006KT 050V170 CAVOK 30/09 Q1015 NOSIG=
201808141030 METAR LRBS 141030Z VRB04KT CAVOK 30/08 Q1015 NOSIG=
201808141100 METAR LRBS 141100Z 17005KT 130V220 CAVOK 30/09 Q1014 NOSIG=
201808141130 METAR LRBS 141130Z 11006KT 050V180 CAVOK 31/08 Q1014 NOSIG=
201808141200 METAR LRBS 141200Z 14006KT 090V200 CAVOK 31/08 Q1014 NOSIG=
201808141230 METAR LRBS 141230Z 14007KT 060V230 CAVOK 31/07 Q1014 NOSIG=
201808141300 METAR LRBS 141300Z VRB06KT CAVOK 31/07 Q1014 NOSIG=
201808141330 METAR LRBS 141330Z 15006KT 070V230 CAVOK 32/08 Q1013 NOSIG=
201808141400 METAR LRBS 141400Z 15005KT 050V220 CAVOK 32/07 Q1013 NOSIG=
201808141430 METAR LRBS 141430Z 11006KT 080V150 CAVOK 32/07 Q1013 NOSIG=
201808141500 METAR LRBS 141500Z 14006KT 040V180 CAVOK 32/08 Q1013 NOSIG=
201808141530 METAR LRBS 141530Z 13005KT 080V210 CAVOK 32/08 Q1013 NOSIG=
201808141600 METAR LRBS 141600Z 12004KT 090V170 CAVOK 31/09 Q1013 NOSIG=
201808141630 METAR LRBS 141630Z 16005KT 100V200 CAVOK 31/08 Q1013 NOSIG=
201808141700 METAR LRBS 141700Z 13006KT CAVOK 30/08 Q1013 NOSIG=
201808141730 METAR LRBS 141730Z 13003KT 100V180 CAVOK 29/09 Q1013 NOSIG=
201808141800 METAR LRBS 141800Z 13005KT CAVOK 29/10 Q1013 NOSIG=
201808141830 METAR LRBS 141830Z 12005KT CAVOK 28/10 Q1013 NOSIG=
201808141900 METAR LRBS 141900Z 14005KT 100V180 CAVOK 28/10 Q1013 NOSIG=
201808141930 METAR LRBS 141930Z 15008KT 120V180 CAVOK 27/10 Q1014 NOSIG=
201808142000 METAR COR LRBS 142000Z 14008KT 110V170 CAVOK 27/10 Q1014
                        NOSIG=
201808142030 METAR LRBS 142030Z 13006KT 100V160 CAVOK 26/10 Q1013 NOSIG=
201808142100 METAR LRBS 142100Z 14006KT 110V170 CAVOK 26/10 Q1014 NOSIG=
201808142130 METAR LRBS 142130Z 15005KT CAVOK 25/10 Q1014 NOSIG=
201808142200 METAR LRBS 142200Z 14005KT CAVOK 24/10 Q1014 NOSIG=
201808142230 METAR LRBS 142230Z VRB01KT CAVOK 23/11 Q1014 NOSIG=
201808142300 METAR LRBS 142300Z 36001KT CAVOK 21/12 Q1014 NOSIG=
201808142330 METAR LRBS 142330Z VRB01KT CAVOK 19/13 Q1014 NOSIG=
201808150000 METAR LRBS 150000Z 00000KT CAVOK 19/13 Q1014 NOSIG=
201808150030 METAR LRBS 150030Z VRB02KT CAVOK 18/13 Q1014 NOSIG=
201808150100 METAR COR LRBS 150100Z 01003KT 350V060 CAVOK 18/13 Q1014
                        NOSIG=
201808150130 METAR LRBS 150130Z VRB02KT CAVOK 18/13 Q1014 NOSIG=
201808150200 METAR LRBS 150200Z 00000KT CAVOK 17/13 Q1014 NOSIG=
201808150230 METAR LRBS 150230Z 00000KT CAVOK 17/13 Q1014 NOSIG=
201808150300 METAR LRBS 150300Z 02002KT CAVOK 16/12 Q1014 NOSIG=
201808150330 METAR LRBS 150330Z 36002KT CAVOK 17/12 Q1014 NOSIG=
201808150400 METAR LRBS 150400Z 00000KT CAVOK 17/12 Q1014 NOSIG=
201808150430 METAR LRBS 150430Z 05001KT CAVOK 18/13 Q1014 NOSIG=
201808150500 METAR LRBS 150500Z 07002KT CAVOK 19/13 Q1014 NOSIG=
201808150530 METAR COR LRBS 150530Z 06003KT CAVOK 20/13 Q1014 NOSIG=
201808150600 METAR LRBS 150600Z 07002KT CAVOK 21/13 Q1015 NOSIG=
201808150630 METAR LRBS 150630Z VRB01KT CAVOK 23/14 Q1015 NOSIG=
201808150700 METAR LRBS 150700Z 05003KT 360V100 CAVOK 24/14 Q1015 NOSIG=
201808150730 METAR LRBS 150730Z 05003KT 320V090 CAVOK 25/14 Q1015 NOSIG=
201808150800 METAR COR LRBS 150800Z 03003KT 320V090 CAVOK 26/13 Q1015
                        NOSIG=
201808150830 METAR LRBS 150830Z 06004KT 020V110 CAVOK 26/11 Q1015 NOSIG=
201808150900 METAR LRBS 150900Z 06003KT 360V110 CAVOK 27/12 Q1015 NOSIG=
201808150930 METAR LRBS 150930Z 07003KT 360V110 CAVOK 27/12 Q1015 NOSIG=
201808151000 METAR LRBS 151000Z VRB02KT CAVOK 28/12 Q1015 NOSIG=
201808151030 METAR LRBS 151030Z VRB02KT CAVOK 28/13 Q1015 NOSIG=
201808151100 METAR LRBS 151100Z VRB03KT CAVOK 29/11 Q1014 NOSIG=
201808151130 METAR LRBS 151130Z VRB03KT CAVOK 30/11 Q1014 NOSIG=
201808151200 METAR LRBS 151200Z VRB02KT CAVOK 30/10 Q1014 NOSIG=
201808151230 METAR LRBS 151230Z VRB02KT CAVOK 32/10 Q1014 NOSIG=
201808151300 METAR LRBS 151300Z VRB04KT CAVOK 31/09 Q1014 NOSIG=
201808151330 METAR LRBS 151330Z VRB04KT CAVOK 32/10 Q1013 NOSIG=
201808151400 METAR LRBS 151400Z 10005KT 040V140 CAVOK 32/07 Q1013 NOSIG=
201808151430 METAR LRBS 151430Z 10005KT 060V190 CAVOK 32/09 Q1013 NOSIG=
201808151500 METAR LRBS 151500Z VRB02KT CAVOK 31/08 Q1013 NOSIG=
201808151530 METAR LRBS 151530Z 07005KT CAVOK 31/09 Q1013 NOSIG=
201808151600 METAR LRBS 151600Z 03004KT 360V070 CAVOK 30/10 Q1013 NOSIG=
201808151630 METAR LRBS 151630Z 36005KT 330V040 CAVOK 29/09 Q1013 NOSIG=
201808151700 METAR LRBS 151700Z 34004KT 310V020 CAVOK 27/11 Q1013 NOSIG=
201808151730 METAR LRBS 151730Z 33003KT 270V020 CAVOK 26/10 Q1014 NOSIG=
201808151800 METAR LRBS 151800Z VRB01KT CAVOK 25/11 Q1014 NOSIG=
201808151830 METAR LRBS 151830Z 30003KT 270V010 CAVOK 24/12 Q1014 NOSIG=
201808151900 METAR LRBS 151900Z VRB02KT CAVOK 24/12 Q1014 NOSIG=
201808151930 METAR LRBS 151930Z VRB02KT CAVOK 23/12 Q1014 NOSIG=
201808152000 METAR LRBS 152000Z 00000KT CAVOK 23/12 Q1014 NOSIG=
201808152030 METAR LRBS 152030Z 00000KT CAVOK 23/12 Q1014 NOSIG=
201808152100 METAR LRBS 152100Z 00000KT CAVOK 22/12 Q1014 NOSIG=
201808152130 METAR LRBS 152130Z 06003KT CAVOK 20/13 Q1015 NOSIG=
201808152200 METAR LRBS 152200Z 35003KT CAVOK 21/12 Q1014 NOSIG=
201808152230 METAR LRBS 152230Z VRB01KT CAVOK 20/13 Q1014 NOSIG=
201808152300 METAR LRBS 152300Z 00000KT CAVOK 20/13 Q1014 NOSIG=
201808152330 METAR LRBS 152330Z 00000KT CAVOK 19/13 Q1014 NOSIG=
201808160000 METAR LRBS 160000Z VRB01KT CAVOK 18/13 Q1014 NOSIG=
201808160030 METAR LRBS 160030Z 34003KT 300V020 CAVOK 18/13 Q1014 NOSIG=
201808160100 METAR LRBS 160100Z VRB01KT CAVOK 18/13 Q1014 NOSIG=
201808160130 METAR LRBS 160130Z 02003KT CAVOK 18/12 Q1014 NOSIG=
201808160200 METAR LRBS 160200Z VRB01KT CAVOK 18/12 Q1014 NOSIG=
201808160230 METAR LRBS 160230Z VRB02KT CAVOK 17/12 Q1014 NOSIG=
201808160300 METAR LRBS 160300Z 32002KT CAVOK 18/12 Q1015 NOSIG=
201808160330 METAR LRBS 160330Z 00000KT CAVOK 17/12 Q1015 NOSIG=
201808160400 METAR LRBS 160400Z VRB01KT CAVOK 17/12 Q1015 NOSIG=
201808160430 METAR LRBS 160430Z VRB01KT CAVOK 18/12 Q1015 NOSIG=
201808160500 METAR LRBS 160500Z 00000KT CAVOK 20/12 Q1015 NOSIG=
201808160530 METAR LRBS 160530Z VRB01KT CAVOK 22/11 Q1015 NOSIG=
201808160600 METAR LRBS 160600Z VRB02KT CAVOK 23/11 Q1015 NOSIG=
201808160630 METAR LRBS 160630Z 05006KT 010V090 CAVOK 24/12 Q1015 NOSIG=
201808160700 METAR LRBS 160700Z 04006KT 360V080 CAVOK 25/12 Q1015 NOSIG=
201808160730 METAR LRBS 160730Z 04006KT 360V080 CAVOK 27/13 Q1015 NOSIG=
201808160800 METAR LRBS 160800Z 04007KT 350V090 CAVOK 27/13 Q1015 NOSIG=
201808160830 METAR LRBS 160830Z 06007KT 360V100 CAVOK 29/13 Q1015 NOSIG=
201808160900 METAR LRBS 160900Z 06007KT 360V090 CAVOK 30/13 Q1015 NOSIG=
201808160930 METAR LRBS 160930Z 05006KT 360V090 CAVOK 30/12 Q1015 NOSIG=
201808161000 METAR LRBS 161000Z 04007KT 340V090 CAVOK 31/10 Q1015 NOSIG=
201808161030 METAR LRBS 161030Z 02006KT 280V090 CAVOK 31/12 Q1014 NOSIG=
201808161100 METAR LRBS 161100Z 07006KT 030V130 CAVOK 32/11 Q1014 NOSIG=
201808161130 METAR LRBS 161130Z 04008KT 360V090 CAVOK 32/08 Q1014 NOSIG=
201808161200 METAR LRBS 161200Z 04007KT 350V100 CAVOK 32/09 Q1014 NOSIG=
201808161230 METAR LRBS 161230Z 05008KT 330V090 CAVOK 33/09 Q1014 NOSIG=
201808161300 METAR LRBS 161300Z 05007KT 350V100 CAVOK 33/09 Q1013 NOSIG=
201808161330 METAR LRBS 161330Z 04006KT 350V080 CAVOK 32/09 Q1013 NOSIG=
201808161400 METAR LRBS 161400Z 05006KT 010V090 CAVOK 33/10 Q1013 NOSIG=
201808161430 METAR LRBS 161430Z 04007KT 360V080 CAVOK 32/07 Q1013 NOSIG=
201808161500 METAR LRBS 161500Z 05006KT 360V080 CAVOK 32/08 Q1013 NOSIG=
201808161530 METAR LRBS 161530Z 04006KT 350V070 CAVOK 32/09 Q1013 NOSIG=
201808161600 METAR LRBS 161600Z 05005KT 010V080 CAVOK 31/10 Q1013 NOSIG=
201808161630 METAR LRBS 161630Z 02003KT CAVOK 30/10 Q1013 NOSIG=
201808161700 METAR LRBS 161700Z 01004KT CAVOK 29/10 Q1013 NOSIG=
201808161730 METAR LRBS 161730Z 01005KT CAVOK 29/11 Q1013 NOSIG=
201808161800 METAR LRBS 161800Z 01005KT CAVOK 28/12 Q1013 NOSIG=
201808161830 METAR LRBS 161830Z 02004KT CAVOK 27/12 Q1014 NOSIG=
201808161900 METAR LRBS 161900Z 02005KT 350V050 CAVOK 27/12 Q1014 NOSIG=
201808161930 METAR LRBS 161930Z 02005KT 360V060 CAVOK 26/12 Q1014 NOSIG=
201808162000 METAR LRBS 162000Z 02004KT 350V050 CAVOK 26/13 Q1014 NOSIG=
201808162030 METAR LRBS 162030Z 01004KT 340V040 CAVOK 25/13 Q1014 NOSIG=
201808162100 METAR LRBS 162100Z 01003KT 320V050 CAVOK 24/13 Q1014 NOSIG=
201808162130 METAR LRBS 162130Z 01003KT 300V050 CAVOK 24/14 Q1014 NOSIG=
201808162200 METAR LRBS 162200Z VRB02KT CAVOK 24/14 Q1014 NOSIG=
201808162230 METAR LRBS 162230Z VRB02KT CAVOK 23/14 Q1014 NOSIG=
201808162300 METAR LRBS 162300Z VRB02KT CAVOK 22/14 Q1014 NOSIG=
201808162330 METAR LRBS 162330Z VRB02KT CAVOK 21/15 Q1014 NOSIG=
201808170000 METAR LRBS 170000Z 00000KT CAVOK 21/14 Q1014 NOSIG=
201808170030 METAR LRBS 170030Z VRB01KT CAVOK 21/14 Q1014 NOSIG=
201808170100 METAR LRBS 170100Z VRB02KT CAVOK 21/14 Q1014 NOSIG=
201808170130 METAR LRBS 170130Z 00000KT CAVOK 20/14 Q1014 NOSIG=
201808170200 METAR LRBS 170200Z 00000KT CAVOK 20/13 Q1014 NOSIG=
201808170230 METAR LRBS 170230Z 30003KT 220V020 CAVOK 19/14 Q1014 NOSIG=
201808170300 METAR LRBS 170300Z 27003KT CAVOK 19/14 Q1014 NOSIG=
201808170330 METAR LRBS 170330Z VRB02KT CAVOK 19/13 Q1014 NOSIG=
201808170400 METAR LRBS 170400Z 25002KT CAVOK 19/13 Q1014 NOSIG=
201808170430 METAR COR LRBS 170430Z 28002KT CAVOK 20/13 Q1014 NOSIG=
201808170500 METAR LRBS 170500Z VRB01KT CAVOK 21/14 Q1015 NOSIG=
201808170530 METAR LRBS 170530Z VRB01KT CAVOK 23/14 Q1015 NOSIG=
201808170600 METAR LRBS 170600Z VRB01KT CAVOK 25/14 Q1015 NOSIG=
201808170630 METAR LRBS 170630Z 03003KT 320V100 CAVOK 25/15 Q1015 NOSIG=
201808170700 METAR LRBS 170700Z 04008KT 360V080 CAVOK 27/15 Q1015 NOSIG=
201808170730 METAR LRBS 170730Z 05007KT 010V090 CAVOK 28/15 Q1015 NOSIG=
201808170800 METAR LRBS 170800Z 06009KT 020V090 CAVOK 29/15 Q1015 NOSIG=
201808170830 METAR LRBS 170830Z 09007KT 060V130 CAVOK 29/15 Q1015 NOSIG=
201808170900 METAR LRBS 170900Z 07007KT 360V100 CAVOK 28/16 Q1015 NOSIG=
201808170930 METAR LRBS 170930Z 04006KT 360V070 CAVOK 30/15 Q1015 NOSIG=
201808171000 METAR LRBS 171000Z 06007KT 360V110 CAVOK 31/15 Q1014 NOSIG=
201808171030 METAR LRBS 171030Z 03006KT 340V090 CAVOK 31/14 Q1014 NOSIG=
201808171100 METAR LRBS 171100Z VRB05KT CAVOK 32/13 Q1014 NOSIG=
201808171130 METAR LRBS 171130Z 02007KT 320V100 CAVOK 32/13 Q1014 NOSIG=
201808171200 METAR LRBS 171200Z 05006KT 340V110 CAVOK 32/14 Q1014 NOSIG=
201808171230 METAR LRBS 171230Z 08006KT 020V190 9999 FEW050CB 33/13 Q1013
                        NOSIG=
201808171300 METAR LRBS 171300Z 06005KT 350V110 9999 FEW050CB 33/13 Q1013
                        TEMPO VRB15G25KT 5000 TSRA SCT040CB=
201808171330 METAR LRBS 171330Z 06009KT 360V120 9999 FEW050CB 33/11 Q1013
                        TEMPO VRB15G25KT 5000 TSRA SCT040CB=
201808171400 METAR LRBS 171400Z 05004KT 360V130 9999 FEW050CB 33/12 Q1013
                        TEMPO VRB15G25KT 5000 TSRA SCT040CB=
201808171430 METAR LRBS 171430Z 06009KT 010V100 9999 FEW050CB 33/12 Q1013
                        NOSIG=
201808171500 METAR LRBS 171500Z 32007KT 290V010 9999 FEW050CB 30/13 Q1013
                        TEMPO VRB15G25KT 5000 TSRA SCT040CB=
201808171530 METAR LRBS 171530Z 36006KT 310V040 9999 FEW050CB 28/13 Q1013
                        NOSIG=
201808171600 METAR LRBS 171600Z 35004KT 280V050 9999 FEW050CB 28/13 Q1013
                        NOSIG=
201808171630 METAR LRBS 171630Z 01004KT 330V050 9999 FEW250CB 28/13 Q1013
                        NOSIG=
201808171700 METAR LRBS 171700Z 01004KT 320V040 9999 FEW055TCU 28/13 Q1013
                        NOSIG=
201808171730 METAR LRBS 171730Z 02005KT 360V060 9999 FEW055CB 27/14 Q1014
                        NOSIG=
201808171800 METAR LRBS 171800Z 02006KT 340V050 9999 FEW055CB 27/14 Q1014
                        NOSIG=
201808171830 METAR LRBS 171830Z 01005KT 340V040 CAVOK 27/15 Q1014 NOSIG=
201808171900 METAR LRBS 171900Z 36005KT 330V040 CAVOK 26/15 Q1015 NOSIG=
201808171930 METAR LRBS 171930Z 01004KT 330V040 CAVOK 25/14 Q1014 NOSIG=
201808172000 METAR LRBS 172000Z VRB02KT CAVOK 24/14 Q1015 NOSIG=
201808172030 METAR LRBS 172030Z 27003KT CAVOK 24/15 Q1015 NOSIG=
201808172100 METAR LRBS 172100Z 32002KT 9999 VCTS FEW050CB 23/15 Q1015
                        NOSIG=
201808172130 METAR LRBS 172130Z 17006KT 140V210 CAVOK 23/15 Q1015 NOSIG=
201808172200 METAR LRBS 172200Z 27002KT CAVOK 23/15 Q1015 NOSIG=
201808172230 METAR LRBS 172230Z 26004KT CAVOK 22/15 Q1015 NOSIG=
201808172300 METAR LRBS 172300Z 28004KT 260V320 CAVOK 22/14 Q1015 NOSIG=
201808172330 METAR LRBS 172330Z 27005KT 250V310 CAVOK 21/14 Q1015 NOSIG=
201808180000 METAR LRBS 180000Z 29004KT 260V320 CAVOK 21/14 Q1015 NOSIG=
201808180030 METAR LRBS 180030Z 30004KT 270V360 CAVOK 21/13 Q1015 NOSIG=
201808180100 METAR COR LRBS 180100Z 33003KT 250V040 CAVOK 20/13 Q1015
                        NOSIG=
201808180130 METAR LRBS 180130Z VRB03KT CAVOK 20/13 Q1015 NOSIG=
201808180200 METAR LRBS 180200Z 28004KT 250V350 CAVOK 20/13 Q1015 NOSIG=
201808180230 METAR LRBS 180230Z VRB01KT CAVOK 19/13 Q1015 NOSIG=
201808180300 METAR LRBS 180300Z VRB01KT CAVOK 19/13 Q1015 NOSIG=
201808180330 METAR LRBS 180330Z VRB02KT CAVOK 19/12 Q1015 NOSIG=
201808180400 METAR LRBS 180400Z VRB01KT CAVOK 20/12 Q1015 NOSIG=
201808180430 METAR LRBS 180430Z 00000KT CAVOK 20/12 Q1015 NOSIG=
201808180500 METAR LRBS 180500Z 36004KT 290V070 CAVOK 22/13 Q1015 NOSIG=
201808180530 METAR LRBS 180530Z 35005KT 310V040 CAVOK 24/13 Q1016 NOSIG=
201808180600 METAR LRBS 180600Z 35003KT 280V040 CAVOK 25/13 Q1016 NOSIG=
201808180630 METAR LRBS 180630Z VRB02KT CAVOK 27/13 Q1016 NOSIG=
201808180700 METAR LRBS 180700Z VRB02KT CAVOK 28/13 Q1016 NOSIG=
201808180730 METAR LRBS 180730Z 06005KT 360V110 CAVOK 29/13 Q1016 NOSIG=
201808180800 METAR LRBS 180800Z 04007KT 350V090 CAVOK 29/13 Q1016 NOSIG=
201808180830 METAR LRBS 180830Z 05007KT 350V110 CAVOK 30/14 Q1016 NOSIG=
201808180900 METAR LRBS 180900Z 06006KT 350V110 CAVOK 31/13 Q1016 NOSIG=
201808180930 METAR LRBS 180930Z 06007KT 360V110 CAVOK 30/13 Q1016 NOSIG=
201808181000 METAR LRBS 181000Z 03009KT 320V070 CAVOK 32/12 Q1016 NOSIG=
201808181030 METAR LRBS 181030Z 05008KT 360V090 CAVOK 33/12 Q1016 NOSIG=
201808181100 METAR LRBS 181100Z 04009KT 350V110 CAVOK 33/12 Q1015 NOSIG=
201808181130 METAR LRBS 181130Z 06009KT 360V100 CAVOK 34/11 Q1015 NOSIG=
201808181200 METAR LRBS 181200Z 07009KT 050V120 CAVOK 34/10 Q1015 NOSIG=
201808181230 METAR LRBS 181230Z 06008KT 020V090 9999 FEW050TCU 34/09 Q1015
                        NOSIG=
201808181300 METAR LRBS 181300Z 06007KT 360V090 9999 FEW050CB 34/11 Q1015
                        TEMPO VRB15G25KT 5000 -TSRA=
201808181330 METAR COR LRBS 181330Z 04009KT 360V080 9999 VCTS FEW050CB
                        34/11 Q1015 TEMPO VRB15G25KT 5000
                        -TSRA=
201808181400 METAR LRBS 181400Z 11009KT 040V170 9999 -SHRA VCTS SCT050CB
                        30/15 Q1015 R07/29//95 TEMPO VRB15G25KT
                        5000 -TSRA=
201808181430 METAR COR LRBS 181430Z 22002KT 8000 -SHRA FEW016 SCT045CB
                        30/12 Q1015 R07/CLRD// TEMPO VRB15G25KT
                        5000 -TSRA=
201808181500 METAR LRBS 181500Z 35008KT 290V040 9999 4000SE -TSRA FEW027
                        SCT045CB 26/15 Q1016 R07/29//95 TEMPO
                        VRB15G25KT 5000 TSRA=
201808181530 METAR LRBS 181530Z 30004KT 260V340 9999 FEW036 SCT045CB 25/15
                        Q1015 R07/29//95 NOSIG=
201808181600 METAR LRBS 181600Z 36004KT 320V040 9999 VCSH SCT045CB 25/15
                        Q1015 R07/29//95 NOSIG=
201808181630 METAR LRBS 181630Z 19004KT 160V220 9999 FEW050CB 24/16 Q1016
                        R07/29//95 TEMPO 5000 SHRA SCT040CB=
201808181700 METAR LRBS 181700Z VRB01KT 9999 TS FEW050CB 25/16 Q1016 R07/29//95
                        TEMPO 5000 TSRA SCT040CB=
201808181730 METAR LRBS 181730Z 36003KT 310V040 9999 TS FEW050CB 24/15
                        Q1016 R07/29//95 TEMPO 5000 TSRA
                        SCT040CB=
201808181800 METAR LRBS 181800Z VRB01KT 9999 TS FEW050CB 25/14 Q1017 R07/29//95
                        TEMPO 5000 TSRA SCT040CB=
201808181830 METAR LRBS 181830Z 04003KT 010V100 9999 TS FEW050CB 23/14
                        Q1017 R07/29//95=
201808181900 METAR LRBS 181900Z 03006KT 340V070 9999 TS FEW050CB 24/14
                        Q1017 R07/29//95 NOSIG=
201808181930 METAR LRBS 181930Z 05006KT 360V100 9999 TS FEW050CB 25/14
                        Q1017 R07/29//95 NOSIG=
201808182000 METAR LRBS 182000Z 06010KT 030V100 9999 VCTS FEW050CB 25/11
                        Q1017 R07/29//95 NOSIG=
201808182030 METAR LRBS 182030Z 04006KT 010V070 9999 FEW050CB 26/11 Q1017
                        R07/29//95 NOSIG=
201808182100 METAR LRBS 182100Z 36004KT 9999 FEW050CB 24/13 Q1017 R07/29//95
                        NOSIG=
201808182130 METAR LRBS 182130Z 34005KT 310V010 9999 FEW050CB 22/14 Q1017
                        R07/29//95 NOSIG=
201808182200 METAR LRBS 182200Z 36007KT 310V040 9999 FEW050CB 22/14 Q1017
                        R07/29//95 NOSIG=
201808182230 METAR LRBS 182230Z 02003KT 350V070 CAVOK 22/14 Q1018 R07/29//95
                        NOSIG=
201808182300 METAR LRBS 182300Z 01003KT 310V060 CAVOK 22/14 Q1017 R07/29//95
                        NOSIG=
201808182330 METAR LRBS 182330Z 26004KT CAVOK 21/14 Q1018 R07/29//95 NOSIG=
201808190000 METAR LRBS 190000Z 27004KT CAVOK 20/14 Q1017 R07/29//95 NOSIG=
201808190030 METAR LRBS 190030Z 26004KT CAVOK 20/14 Q1017 R07/29//95 NOSIG=
201808190100 METAR LRBS 190100Z 25004KT 230V290 CAVOK 20/13 Q1017 R07/29//95
                        NOSIG=
201808190130 METAR LRBS 190130Z 27003KT 240V300 CAVOK 20/13 Q1017 R07/29//95
                        NOSIG=
201808190200 METAR LRBS 190200Z 09003KT 040V210 CAVOK 19/14 Q1017 R07/CLRD//
                        NOSIG=
201808190230 METAR LRBS 190230Z VRB02KT CAVOK 19/14 Q1017 NOSIG=
201808190300 METAR LRBS 190300Z VRB01KT CAVOK 20/14 Q1017 NOSIG=
201808190330 METAR LRBS 190330Z 04003KT CAVOK 20/14 Q1018 NOSIG=
201808190400 METAR LRBS 190400Z 06003KT CAVOK 19/15 Q1018 NOSIG=
201808190430 METAR LRBS 190430Z 00000KT CAVOK 20/15 Q1018 NOSIG=
201808190500 METAR LRBS 190500Z 26003KT CAVOK 20/15 Q1018 NOSIG=
201808190530 METAR LRBS 190530Z 28003KT CAVOK 21/15 Q1019 NOSIG=
201808190600 METAR LRBS 190600Z 28003KT 250V320 CAVOK 21/15 Q1019 NOSIG=
201808190630 METAR LRBS 190630Z 32003KT 280V350 CAVOK 22/16 Q1019 NOSIG=
201808190700 METAR LRBS 190700Z 04003KT 350V120 CAVOK 25/15 Q1019 NOSIG=
201808190730 METAR LRBS 190730Z 04004KT 340V110 CAVOK 26/16 Q1019 NOSIG=
201808190800 METAR LRBS 190800Z 01006KT 320V050 CAVOK 27/15 Q1018 NOSIG=
201808190830 METAR LRBS 190830Z 01005KT 300V090 CAVOK 28/16 Q1018 NOSIG=
201808190900 METAR LRBS 190900Z 03004KT 320V090 CAVOK 28/15 Q1018 NOSIG=
201808190930 METAR LRBS 190930Z VRB04KT CAVOK 29/13 Q1018 NOSIG=
201808191000 METAR LRBS 191000Z 34003KT CAVOK 30/13 Q1018 NOSIG=
201808191030 METAR LRBS 191030Z VRB04KT CAVOK 30/13 Q1018 NOSIG=
201808191100 METAR LRBS 191100Z VRB02KT CAVOK 31/11 Q1018 NOSIG=
201808191130 METAR COR LRBS 191130Z VRB04KT CAVOK 32/10 Q1017 NOSIG=
201808191200 METAR LRBS 191200Z 04005KT 340V090 9999 FEW050CB 32/11 Q1017
                        NOSIG=
201808191230 METAR LRBS 191230Z 10004KT 020V150 9999 FEW050CB 32/12 Q1017
                        NOSIG=
201808191300 METAR LRBS 191300Z 01005KT 310V060 9999 FEW050CB 32/12 Q1017
                        TEMPO 36015G25KT=
201808191330 METAR LRBS 191330Z 35014KT 310V040 9999 TS SCT050CB 28/14
                        Q1017 TEMPO 5000 TSRA=
201808191400 METAR LRBS 191400Z 34008KT 280V040 9999 TS SCT050CB 29/14
                        Q1017 NOSIG=
201808191430 METAR LRBS 191430Z 35009KT 310V030 9999 SCT050CB 30/13 Q1016
                        NOSIG=
201808191500 METAR LRBS 191500Z 35009KT 310V040 9999 FEW050CB 29/10 Q1016
                        NOSIG=
201808191530 METAR LRBS 191530Z 36008KT 330V050 9999 FEW050CB 28/10 Q1016
                        NOSIG=
201808191600 METAR LRBS 191600Z 36008KT 310V040 9999 FEW050CB 26/12 Q1016
                        NOSIG=
201808191630 METAR LRBS 191630Z 36005KT 320V040 CAVOK 26/12 Q1017 NOSIG=
201808191700 METAR LRBS 191700Z 36004KT 310V040 CAVOK 26/12 Q1016 NOSIG=
201808191730 METAR LRBS 191730Z 35006KT 310V030 CAVOK 25/13 Q1016 NOSIG=
201808191800 METAR LRBS 191800Z 01003KT CAVOK 24/13 Q1017 NOSIG=
201808191830 METAR LRBS 191830Z 03003KT 340V090 CAVOK 24/13 Q1017 NOSIG=
201808191900 METAR LRBS 191900Z 04003KT 360V060 CAVOK 23/14 Q1017 NOSIG=
201808191930 METAR LRBS 191930Z 35003KT CAVOK 23/13 Q1017 NOSIG=
201808192000 METAR LRBS 192000Z VRB02KT CAVOK 23/14 Q1017 NOSIG=
201808192030 METAR LRBS 192030Z VRB02KT CAVOK 22/14 Q1017 NOSIG=
201808192100 METAR LRBS 192100Z VRB02KT CAVOK 22/14 Q1017 NOSIG=
201808192130 METAR LRBS 192130Z VRB02KT CAVOK 22/14 Q1017 NOSIG=
201808192200 METAR LRBS 192200Z VRB01KT CAVOK 22/14 Q1017 NOSIG=
201808192230 METAR LRBS 192230Z 35003KT 310V040 CAVOK 21/14 Q1017 NOSIG=
201808192300 METAR LRBS 192300Z 36004KT 340V040 CAVOK 21/14 Q1017 NOSIG=
201808192330 METAR LRBS 192330Z 36004KT 320V040 CAVOK 21/14 Q1017 NOSIG=
201808200000 METAR LRBS 200000Z 36004KT 320V060 CAVOK 20/15 Q1017 NOSIG=
201808200030 METAR LRBS 200030Z 36003KT CAVOK 20/15 Q1017 NOSIG=
201808200100 METAR LRBS 200100Z 01003KT 340V040 CAVOK 20/15 Q1016 NOSIG=
201808200130 METAR LRBS 200130Z 35002KT CAVOK 20/15 Q1016 NOSIG=
201808200200 METAR LRBS 200200Z VRB02KT CAVOK 20/15 Q1016 NOSIG=
201808200230 METAR LRBS 200230Z 34003KT 310V010 CAVOK 20/15 Q1016 NOSIG=
201808200300 METAR COR LRBS 200300Z VRB02KT CAVOK 19/15 Q1016 NOSIG=
201808200330 METAR LRBS 200330Z 00000KT CAVOK 19/15 Q1017 NOSIG=
201808200400 METAR LRBS 200400Z 00000KT CAVOK 19/15 Q1017 NOSIG=
201808200430 METAR LRBS 200430Z 00000KT CAVOK 20/15 Q1017 NOSIG=
201808200500 METAR LRBS 200500Z 00000KT CAVOK 21/15 Q1017 NOSIG=
201808200530 METAR LRBS 200530Z VRB01KT CAVOK 22/16 Q1017 NOSIG=
201808200600 METAR LRBS 200600Z 07003KT CAVOK 22/16 Q1017 NOSIG=
201808200630 METAR LRBS 200630Z 07005KT 040V100 CAVOK 23/16 Q1017 NOSIG=
201808200700 METAR LRBS 200700Z 06006KT 020V090 CAVOK 25/16 Q1017 NOSIG=
201808200730 METAR LRBS 200730Z 07008KT CAVOK 26/16 Q1017 NOSIG=
201808200800 METAR LRBS 200800Z 05007KT 350V090 CAVOK 27/16 Q1017 NOSIG=
201808200830 METAR LRBS 200830Z 07006KT 040V130 CAVOK 28/14 Q1017 NOSIG=
201808200900 METAR LRBS 200900Z 07006KT 020V140 CAVOK 29/14 Q1017 NOSIG=
201808200930 METAR LRBS 200930Z VRB04KT CAVOK 29/13 Q1017 NOSIG=
201808201000 METAR LRBS 201000Z VRB04KT CAVOK 30/11 Q1016 NOSIG=
201808201030 METAR LRBS 201030Z VRB04KT CAVOK 30/10 Q1016 NOSIG=
201808201100 METAR LRBS 201100Z VRB03KT CAVOK 30/11 Q1016 NOSIG=
201808201130 METAR LRBS 201130Z VRB04KT CAVOK 31/11 Q1016 NOSIG=
201808201200 METAR LRBS 201200Z VRB03KT CAVOK 31/11 Q1015 NOSIG=
201808201230 METAR LRBS 201230Z VRB04KT CAVOK 32/12 Q1015 NOSIG=
201808201300 METAR LRBS 201300Z VRB04KT CAVOK 31/11 Q1015 TEMPO SCT045CB=
201808201330 METAR LRBS 201330Z 09003KT 9999 FEW050CB 32/11 Q1015 TEMPO
                        VRB16G26KT -TSRA=
201808201400 METAR LRBS 201400Z 02008KT 320V060 9999 VCTS SCT050CB 29/14
                        Q1015 TEMPO VRB18KT 5000 TSRA=
201808201430 METAR COR LRBS 201430Z 35005KT 310V040 9999 FEW050CB 29/13
                        Q1015 NOSIG=
201808201500 METAR LRBS 201500Z 36006KT 320V050 9999 FEW050CB 29/13 Q1015
                        NOSIG=
201808201530 METAR LRBS 201530Z 36008KT 320V040 9999 FEW050CB 28/16 Q1015
                        NOSIG=
201808201600 METAR LRBS 201600Z 33005KT 300V040 CAVOK 27/16 Q1015 NOSIG=
201808201630 METAR LRBS 201630Z 33004KT 270V040 CAVOK 26/16 Q1015 NOSIG=
201808201700 METAR LRBS 201700Z 35003KT 280V060 CAVOK 25/16 Q1015 NOSIG=
201808201730 METAR COR LRBS 201730Z VRB02KT CAVOK 25/16 Q1015 NOSIG=
201808201800 METAR LRBS 201800Z 01003KT CAVOK 24/16 Q1015 NOSIG=
201808201830 METAR LRBS 201830Z 03003KT 300V090 CAVOK 24/16 Q1015 NOSIG=
201808201900 METAR LRBS 201900Z 36003KT 310V060 CAVOK 23/16 Q1015 NOSIG=
201808201930 METAR LRBS 201930Z 03003KT 340V080 CAVOK 23/16 Q1015 NOSIG=
201808202000 METAR LRBS 202000Z 02003KT 340V090 CAVOK 22/16 Q1015 NOSIG=
201808202030 METAR LRBS 202030Z VRB02KT CAVOK 21/16 Q1015 NOSIG=
201808202100 METAR LRBS 202100Z 05002KT CAVOK 21/16 Q1015 NOSIG=
201808202130 METAR LRBS 202130Z 01003KT CAVOK 21/16 Q1016 NOSIG=
201808202200 METAR LRBS 202200Z VRB01KT CAVOK 21/17 Q1016 NOSIG=
201808202230 METAR LRBS 202230Z 03001KT CAVOK 19/17 Q1015 NOSIG=
201808202300 METAR LRBS 202300Z 04002KT CAVOK 20/16 Q1015 NOSIG=
201808202330 METAR LRBS 202330Z 36003KT 330V030 CAVOK 19/16 Q1015 NOSIG=
201808210000 METAR LRBS 210000Z VRB01KT CAVOK 19/16 Q1015 NOSIG=
201808210030 METAR LRBS 210030Z VRB02KT CAVOK 19/16 Q1015 NOSIG=
201808210100 METAR LRBS 210100Z VRB02KT CAVOK 18/15 Q1015 NOSIG=
201808210130 METAR LRBS 210130Z 00000KT CAVOK 19/16 Q1015 NOSIG=
201808210200 METAR LRBS 210200Z 00000KT CAVOK 19/15 Q1016 NOSIG=
201808210230 METAR LRBS 210230Z VRB02KT CAVOK 17/15 Q1016 NOSIG=
201808210300 METAR LRBS 210300Z 04001KT CAVOK 18/15 Q1016 NOSIG=
201808210330 METAR LRBS 210330Z 02001KT CAVOK 17/15 Q1016 NOSIG=
201808210400 METAR LRBS 210400Z 00000KT CAVOK 18/15 Q1016 NOSIG=
201808210430 METAR LRBS 210430Z 02001KT CAVOK 19/15 Q1016 NOSIG=
201808210500 METAR LRBS 210500Z 00000KT CAVOK 20/15 Q1016 NOSIG=
201808210530 METAR COR LRBS 210530Z VRB01KT CAVOK 22/15 Q1016 NOSIG=
201808210600 METAR LRBS 210600Z VRB01KT CAVOK 23/14 Q1016 NOSIG=
201808210630 METAR LRBS 210630Z VRB02KT CAVOK 24/14 Q1017 NOSIG=
201808210700 METAR LRBS 210700Z VRB01KT CAVOK 26/13 Q1017 NOSIG=
201808210730 METAR LRBS 210730Z VRB01KT CAVOK 27/11 Q1017 NOSIG=
201808210800 METAR LRBS 210800Z VRB01KT CAVOK 28/11 Q1017 NOSIG=
201808210830 METAR LRBS 210830Z VRB01KT CAVOK 29/12 Q1017 NOSIG=
201808210900 METAR LRBS 210900Z VRB02KT CAVOK 29/12 Q1017 NOSIG=
201808210930 METAR LRBS 210930Z VRB02KT CAVOK 29/12 Q1017 NOSIG=
201808211000 METAR LRBS 211000Z VRB04KT CAVOK 30/12 Q1016 NOSIG=
201808211030 METAR LRBS 211030Z VRB04KT CAVOK 31/12 Q1016 NOSIG=
201808211100 METAR LRBS 211100Z VRB03KT CAVOK 31/12 Q1016 NOSIG=
201808211130 METAR COR LRBS 211130Z 32004KT 250V040 CAVOK 31/12 Q1016
                        NOSIG=
201808211200 METAR LRBS 211200Z VRB03KT CAVOK 31/12 Q1015 NOSIG=
201808211230 METAR LRBS 211230Z VRB02KT CAVOK 33/12 Q1015 NOSIG=
201808211300 METAR COR LRBS 211300Z VRB02KT CAVOK 31/12 Q1015 NOSIG=
201808211330 METAR LRBS 211330Z 03003KT 320V090 CAVOK 32/12 Q1015 NOSIG=
201808211400 METAR LRBS 211400Z VRB01KT CAVOK 32/11 Q1015 NOSIG=
201808211430 METAR LRBS 211430Z 16003KT 090V210 CAVOK 32/11 Q1015 NOSIG=
201808211500 METAR LRBS 211500Z VRB02KT CAVOK 32/10 Q1015 NOSIG=
201808211530 METAR LRBS 211530Z VRB02KT CAVOK 32/11 Q1015 NOSIG=
201808211600 METAR LRBS 211600Z VRB02KT CAVOK 31/12 Q1015 NOSIG=
201808211630 METAR LRBS 211630Z 36003KT 320V040 CAVOK 31/13 Q1015 NOSIG=
201808211700 METAR LRBS 211700Z 01006KT 340V040 CAVOK 28/16 Q1015 NOSIG=
201808211730 METAR LRBS 211730Z 01006KT 320V050 CAVOK 26/15 Q1015 NOSIG=
201808211800 METAR LRBS 211800Z 02004KT 340V050 CAVOK 25/15 Q1015 NOSIG=
201808211830 METAR LRBS 211830Z 00000KT CAVOK 24/15 Q1016 NOSIG=
201808211900 METAR LRBS 211900Z VRB02KT CAVOK 24/15 Q1016 NOSIG=
201808211930 METAR LRBS 211930Z VRB01KT CAVOK 23/16 Q1016 NOSIG=
201808212000 METAR LRBS 212000Z 35001KT CAVOK 23/16 Q1016 NOSIG=
201808212030 METAR LRBS 212030Z 07003KT 010V130 CAVOK 22/16 Q1016 NOSIG=
201808212100 METAR LRBS 212100Z VRB02KT CAVOK 22/16 Q1017 NOSIG=
201808212130 METAR LRBS 212130Z 00000KT CAVOK 22/16 Q1017 NOSIG=
201808212200 METAR LRBS 212200Z 00000KT CAVOK 21/16 Q1017 NOSIG=
201808212230 METAR LRBS 212230Z VRB01KT CAVOK 21/17 Q1017 NOSIG=
201808212300 METAR LRBS 212300Z VRB01KT CAVOK 20/17 Q1017 NOSIG=
201808212330 METAR LRBS 212330Z VRB01KT CAVOK 20/17 Q1017 NOSIG=
201808220000 METAR COR LRBS 220000Z VRB02KT CAVOK 20/17 Q1017 NOSIG=
201808220030 METAR LRBS 220030Z 01003KT 330V070 CAVOK 19/17 Q1017 NOSIG=
201808220100 METAR LRBS 220100Z 03004KT 340V070 CAVOK 20/16 Q1017 NOSIG=
201808220130 METAR LRBS 220130Z 04005KT 360V080 CAVOK 20/16 Q1017 NOSIG=
201808220200 METAR LRBS 220200Z 05004KT 010V080 CAVOK 20/16 Q1017 NOSIG=
201808220230 METAR LRBS 220230Z VRB02KT CAVOK 20/16 Q1017 NOSIG=
201808220300 METAR LRBS 220300Z 09002KT CAVOK 21/16 Q1017 NOSIG=
201808220330 METAR LRBS 220330Z 00000KT CAVOK 20/16 Q1017 NOSIG=
201808220400 METAR LRBS 220400Z 00000KT CAVOK 21/16 Q1018 NOSIG=
201808220430 METAR LRBS 220430Z VRB02KT CAVOK 21/16 Q1018 NOSIG=
201808220500 METAR LRBS 220500Z VRB01KT CAVOK 22/16 Q1018 NOSIG=
201808220530 METAR LRBS 220530Z VRB02KT CAVOK 23/17 Q1018 BECMG 06010KT=
201808220600 METAR LRBS 220600Z 03004KT 340V090 CAVOK 24/16 Q1018 NOSIG=
201808220630 METAR LRBS 220630Z 05010KT 360V100 CAVOK 26/16 Q1018 NOSIG=
201808220700 METAR LRBS 220700Z 05010KT 010V090 CAVOK 27/16 Q1019 NOSIG=
201808220730 METAR LRBS 220730Z 06014KT 020V090 CAVOK 28/15 Q1019 NOSIG=
201808220800 METAR LRBS 220800Z 04012KT 010V070 CAVOK 29/15 Q1019 NOSIG=
201808220830 METAR LRBS 220830Z 05012KT 010V080 CAVOK 29/15 Q1019 NOSIG=
201808220900 METAR LRBS 220900Z 05011KT 020V090 CAVOK 30/15 Q1019 NOSIG=
201808220930 METAR LRBS 220930Z 05012KT 360V090 CAVOK 30/14 Q1018 NOSIG=
201808221000 METAR LRBS 221000Z 06013KT 030V090 CAVOK 31/15 Q1018 NOSIG=
201808221030 METAR LRBS 221030Z 05013KT 010V090 CAVOK 31/14 Q1018 NOSIG=
201808221100 METAR LRBS 221100Z 06011KT 360V100 CAVOK 31/13 Q1018 NOSIG=
201808221130 METAR LRBS 221130Z 06011KT 020V090 CAVOK 31/14 Q1018 NOSIG=
201808221200 METAR LRBS 221200Z 06011KT 010V100 CAVOK 32/14 Q1018 NOSIG=
201808221230 METAR LRBS 221230Z 05008KT 360V100 CAVOK 32/14 Q1017 NOSIG=
201808221300 METAR LRBS 221300Z 08008KT 020V110 CAVOK 32/13 Q1017 NOSIG=
201808221330 METAR LRBS 221330Z 04006KT 360V070 CAVOK 32/13 Q1017 NOSIG=
201808221400 METAR LRBS 221400Z VRB04KT CAVOK 32/12 Q1017 NOSIG=
201808221430 METAR LRBS 221430Z 03006KT 330V070 CAVOK 32/12 Q1017 NOSIG=
201808221500 METAR LRBS 221500Z 04008KT 010V080 CAVOK 32/12 Q1017 NOSIG=
201808221530 METAR LRBS 221530Z 05009KT 010V080 9999 FEW050CB 31/13 Q1017
                        NOSIG=
201808221600 METAR LRBS 221600Z 04006KT 010V090 CAVOK 31/13 Q1017 NOSIG=
201808221630 METAR LRBS 221630Z 04006KT 360V070 CAVOK 30/13 Q1017 NOSIG=
201808221700 METAR LRBS 221700Z 02005KT 350V050 CAVOK 29/14 Q1017 NOSIG=
201808221730 METAR LRBS 221730Z 10005KT 070V130 CAVOK 28/14 Q1017 NOSIG=
201808221800 METAR LRBS 221800Z 03003KT 010V070 CAVOK 27/14 Q1018 NOSIG=
201808221830 METAR LRBS 221830Z 03003KT CAVOK 26/15 Q1018 NOSIG=
201808221900 METAR LRBS 221900Z 01004KT 340V040 CAVOK 26/15 Q1018 NOSIG=
201808221930 METAR COR LRBS 221930Z 02004KT CAVOK 26/15 Q1018 NOSIG=
201808222000 METAR LRBS 222000Z 04004KT CAVOK 24/15 Q1019 NOSIG=
201808222030 METAR LRBS 222030Z VRB02KT CAVOK 24/15 Q1019 NOSIG=
201808222100 METAR LRBS 222100Z 06002KT CAVOK 23/15 Q1019 NOSIG=
201808222130 METAR LRBS 222130Z 04002KT CAVOK 23/15 Q1019 NOSIG=
201808222200 METAR LRBS 222200Z 03003KT CAVOK 23/15 Q1019 NOSIG=
201808222230 METAR LRBS 222230Z 03003KT 360V060 CAVOK 22/15 Q1019 NOSIG=
201808222300 METAR LRBS 222300Z 03002KT CAVOK 22/15 Q1019 NOSIG=
201808222330 METAR LRBS 222330Z 03003KT 350V070 CAVOK 22/15 Q1019 NOSIG=
201808230000 METAR COR LRBS 230000Z 03003KT CAVOK 22/15 Q1019 NOSIG=
201808230030 METAR LRBS 230030Z 03003KT 360V070 CAVOK 22/15 Q1019 NOSIG=
201808230100 METAR LRBS 230100Z 03004KT CAVOK 22/15 Q1018 NOSIG=
201808230130 METAR COR LRBS 230130Z 03003KT 360V060 CAVOK 21/15 Q1018
                        NOSIG=
201808230200 METAR LRBS 230200Z 03003KT 360V060 CAVOK 21/15 Q1018 NOSIG=
201808230230 METAR LRBS 230230Z 04005KT CAVOK 21/15 Q1018 NOSIG=
201808230300 METAR LRBS 230300Z 05004KT CAVOK 20/15 Q1018 NOSIG=
201808230330 METAR LRBS 230330Z 05003KT 020V090 CAVOK 20/14 Q1018 NOSIG=
201808230400 METAR LRBS 230400Z 04003KT 010V070 CAVOK 20/14 Q1019 NOSIG=
201808230430 METAR LRBS 230430Z 02003KT 360V060 CAVOK 21/15 Q1019 NOSIG=
201808230500 METAR LRBS 230500Z 03004KT 350V070 CAVOK 21/14 Q1019 NOSIG=
201808230530 METAR LRBS 230530Z 04004KT 010V070 CAVOK 22/15 Q1019 NOSIG=
201808230600 METAR LRBS 230600Z 03005KT 340V090 CAVOK 23/15 Q1019 NOSIG=
201808230630 METAR LRBS 230630Z 06005KT 020V110 CAVOK 24/15 Q1019 NOSIG=
201808230700 METAR LRBS 230700Z 05007KT 010V090 CAVOK 25/16 Q1019 NOSIG=
201808230730 METAR LRBS 230730Z 07007KT 020V090 CAVOK 26/16 Q1019 NOSIG=
201808230800 METAR COR LRBS 230800Z 07008KT 020V110 CAVOK 27/15 Q1019
                        NOSIG=
201808230830 METAR LRBS 230830Z 07007KT 040V130 CAVOK 28/15 Q1019 NOSIG=
201808230900 METAR LRBS 230900Z 06007KT 010V100 CAVOK 28/15 Q1019 NOSIG=
201808230930 METAR LRBS 230930Z 08007KT 040V140 CAVOK 29/13 Q1018 NOSIG=
201808231000 METAR LRBS 231000Z 06006KT 360V110 CAVOK 29/12 Q1018 NOSIG=
201808231030 METAR LRBS 231030Z 06008KT 360V100 CAVOK 30/12 Q1018 NOSIG=
201808231100 METAR LRBS 231100Z 06006KT 340V120 CAVOK 30/12 Q1018 NOSIG=
201808231130 METAR LRBS 231130Z 05006G16KT 350V140 CAVOK 31/12 Q1017 NOSIG=
201808231200 METAR LRBS 231200Z VRB06KT CAVOK 30/13 Q1017 NOSIG=
201808231230 METAR COR LRBS 231230Z 06007KT 010V130 CAVOK 30/12 Q1017
                        NOSIG=
201808231300 METAR LRBS 231300Z 05005KT 340V110 CAVOK 31/12 Q1016 NOSIG=
201808231330 METAR LRBS 231330Z 05005KT 360V130 CAVOK 31/11 Q1016 NOSIG=
201808231400 METAR LRBS 231400Z 06008KT 020V110 CAVOK 31/11 Q1016 NOSIG=
201808231430 METAR LRBS 231430Z 09008KT 040V130 CAVOK 31/11 Q1016 NOSIG=
201808231500 METAR LRBS 231500Z 06007KT CAVOK 30/11 Q1016 NOSIG=
201808231530 METAR LRBS 231530Z 06009KT CAVOK 30/11 Q1016 NOSIG=
201808231600 METAR LRBS 231600Z 06007KT CAVOK 29/12 Q1015 NOSIG=
201808231630 METAR LRBS 231630Z 07006KT CAVOK 29/13 Q1015 NOSIG=
201808231700 METAR LRBS 231700Z 06005KT CAVOK 27/13 Q1015 NOSIG=
201808231730 METAR LRBS 231730Z 05003KT CAVOK 26/14 Q1016 NOSIG=
201808231800 METAR LRBS 231800Z 04004KT CAVOK 25/14 Q1016 NOSIG=
201808231830 METAR LRBS 231830Z 07004KT CAVOK 24/14 Q1016 NOSIG=
201808231900 METAR LRBS 231900Z 07004KT CAVOK 24/14 Q1016 NOSIG=
201808231930 METAR LRBS 231930Z 10006KT CAVOK 25/13 Q1016 NOSIG=
201808232000 METAR LRBS 232000Z 10005KT 070V130 CAVOK 24/12 Q1016 NOSIG=
201808232030 METAR LRBS 232030Z 10004KT 070V130 CAVOK 24/12 Q1016 NOSIG=
201808232100 METAR LRBS 232100Z 08004KT 050V110 CAVOK 23/12 Q1016 NOSIG=
201808232130 METAR LRBS 232130Z 06003KT CAVOK 22/13 Q1017 NOSIG=
201808232200 METAR LRBS 232200Z 04003KT CAVOK 22/13 Q1016 NOSIG=
201808232230 METAR LRBS 232230Z 04003KT CAVOK 20/13 Q1016 NOSIG=
201808232300 METAR LRBS 232300Z 05003KT CAVOK 20/13 Q1016 NOSIG=
201808232330 METAR LRBS 232330Z 06004KT CAVOK 18/14 Q1016 NOSIG=
201808240000 METAR LRBS 240000Z 36004KT CAVOK 19/13 Q1016 NOSIG=
201808240030 METAR LRBS 240030Z 02003KT CAVOK 19/13 Q1016 NOSIG=
201808240100 METAR LRBS 240100Z 01002KT CAVOK 18/13 Q1016 NOSIG=
201808240130 METAR LRBS 240130Z 36002KT CAVOK 18/13 Q1016 NOSIG=
201808240200 METAR LRBS 240200Z 01002KT CAVOK 18/13 Q1016 NOSIG=
201808240230 METAR LRBS 240230Z VRB02KT CAVOK 18/13 Q1015 NOSIG=
201808240300 METAR LRBS 240300Z VRB02KT CAVOK 17/13 Q1016 NOSIG=
201808240330 METAR LRBS 240330Z 06003KT CAVOK 17/13 Q1016 NOSIG=
201808240400 METAR LRBS 240400Z 04001KT CAVOK 17/13 Q1016 NOSIG=
201808240430 METAR LRBS 240430Z 07003KT CAVOK 19/14 Q1016 NOSIG=
201808240500 METAR LRBS 240500Z 06003KT 030V090 CAVOK 20/14 Q1016 NOSIG=
201808240530 METAR LRBS 240530Z 06003KT CAVOK 21/14 Q1016 NOSIG=
201808240600 METAR LRBS 240600Z 03004KT 360V060 CAVOK 22/14 Q1016 NOSIG=
201808240630 METAR LRBS 240630Z 05004KT 310V120 CAVOK 24/13 Q1016 NOSIG=
201808240700 METAR LRBS 240700Z 06005KT 020V100 CAVOK 24/13 Q1016 NOSIG=
201808240730 METAR LRBS 240730Z 05004KT 350V130 CAVOK 25/12 Q1016 NOSIG=
201808240800 METAR LRBS 240800Z 05005KT 350V100 CAVOK 26/09 Q1015 NOSIG=
201808240830 METAR LRBS 240830Z 04006KT 340V100 CAVOK 27/09 Q1015 NOSIG=
201808240900 METAR COR LRBS 240900Z 06006KT 360V110 CAVOK 27/10 Q1015
                        NOSIG=
201808240930 METAR LRBS 240930Z 07009KT 010V110 CAVOK 28/09 Q1015 NOSIG=
201808241000 METAR LRBS 241000Z 06007KT 010V100 CAVOK 28/10 Q1015 NOSIG=
201808241030 METAR LRBS 241030Z 08008KT 030V130 CAVOK 29/11 Q1014 NOSIG=
201808241100 METAR LRBS 241100Z VRB06KT CAVOK 29/11 Q1014 NOSIG=
201808241130 METAR LRBS 241130Z 36005KT 310V080 CAVOK 29/11 Q1014 NOSIG=
201808241200 METAR LRBS 241200Z VRB03KT CAVOK 28/10 Q1014 NOSIG=
201808241230 METAR LRBS 241230Z 05005KT 340V140 CAVOK 29/10 Q1013 NOSIG=
201808241300 METAR LRBS 241300Z 07005KT 360V140 CAVOK 29/09 Q1013 NOSIG=
201808241330 METAR LRBS 241330Z VRB03KT CAVOK 30/09 Q1013 NOSIG=
201808241400 METAR LRBS 241400Z 03005KT 350V160 CAVOK 30/10 Q1012 NOSIG=
201808241430 METAR LRBS 241430Z 10003KT CAVOK 30/09 Q1012 NOSIG=
201808241500 METAR LRBS 241500Z VRB02KT CAVOK 30/09 Q1012 NOSIG=
201808241530 METAR LRBS 241530Z 11004KT 060V160 CAVOK 29/09 Q1012 NOSIG=
201808241600 METAR LRBS 241600Z VRB01KT CAVOK 29/10 Q1011 NOSIG=
201808241630 METAR LRBS 241630Z 08003KT 030V110 CAVOK 29/10 Q1011 NOSIG=
201808241700 METAR LRBS 241700Z 01001KT CAVOK 28/12 Q1011 NOSIG=
201808241730 METAR LRBS 241730Z 00000KT CAVOK 27/14 Q1012 NOSIG=
201808241800 METAR LRBS 241800Z 00000KT CAVOK 26/14 Q1012 NOSIG=
201808241830 METAR LRBS 241830Z 36004KT 300V080 CAVOK 24/14 Q1012 NOSIG=
201808241900 METAR LRBS 241900Z 08003KT 050V110 CAVOK 24/14 Q1012 NOSIG=
201808241930 METAR LRBS 241930Z 10006KT CAVOK 25/13 Q1012 NOSIG=
201808242000 METAR LRBS 242000Z 09006KT 070V130 CAVOK 24/13 Q1012 NOSIG=
201808242030 METAR LRBS 242030Z 10007KT CAVOK 24/13 Q1012 NOSIG=
201808242100 METAR LRBS 242100Z 09007KT 070V130 CAVOK 23/13 Q1012 NOSIG=
201808242130 METAR LRBS 242130Z 09006KT CAVOK 23/13 Q1012 NOSIG=
201808242200 METAR LRBS 242200Z 10007KT CAVOK 23/13 Q1012 NOSIG=
201808242230 METAR LRBS 242230Z 10005KT CAVOK 23/13 Q1012 NOSIG=
201808242300 METAR LRBS 242300Z 08003KT CAVOK 22/13 Q1012 NOSIG=
201808242330 METAR LRBS 242330Z 05004KT CAVOK 21/14 Q1012 NOSIG=
201808250000 METAR LRBS 250000Z 06004KT CAVOK 20/14 Q1011 NOSIG=
201808250030 METAR LRBS 250030Z 03003KT CAVOK 20/14 Q1011 NOSIG=
201808250100 METAR LRBS 250100Z 03003KT CAVOK 20/14 Q1011 NOSIG=
201808250130 METAR LRBS 250130Z 03003KT CAVOK 20/14 Q1012 NOSIG=
201808250200 METAR LRBS 250200Z 02004KT CAVOK 19/14 Q1012 NOSIG=
201808250230 METAR LRBS 250230Z 02003KT CAVOK 19/14 Q1012 NOSIG=
201808250300 METAR LRBS 250300Z 03002KT CAVOK 18/14 Q1012 NOSIG=
201808250330 METAR LRBS 250330Z 03002KT CAVOK 18/14 Q1012 NOSIG=
201808250400 METAR LRBS 250400Z 04003KT CAVOK 18/14 Q1012 NOSIG=
201808250430 METAR COR LRBS 250430Z 06003KT 020V090 CAVOK 19/14 Q1012
                        NOSIG=
201808250500 METAR LRBS 250500Z 06004KT CAVOK 20/13 Q1012 NOSIG=
201808250530 METAR LRBS 250530Z 07005KT CAVOK 22/13 Q1012 NOSIG=
201808250600 METAR LRBS 250600Z 08006KT CAVOK 23/13 Q1012 NOSIG=
201808250630 METAR LRBS 250630Z 09005KT 360V150 9999 FEW013 24/14 Q1012
                        NOSIG=
201808250700 METAR LRBS 250700Z 08006KT 050V120 CAVOK 25/13 Q1012 NOSIG=
201808250730 METAR LRBS 250730Z 08005KT 040V130 CAVOK 26/14 Q1012 NOSIG=
201808250800 METAR LRBS 250800Z 10006KT 060V170 CAVOK 27/13 Q1012 NOSIG=
201808250830 METAR LRBS 250830Z 11007KT 070V150 CAVOK 28/13 Q1011 NOSIG=
201808250900 METAR COR LRBS 250900Z 11006KT 070V170 CAVOK 28/12 Q1012
                        NOSIG=
201808250930 METAR COR LRBS 250930Z 12005KT 060V180 CAVOK 29/12 Q1011
                        NOSIG=
201808251000 METAR LRBS 251000Z 10006KT 050V150 CAVOK 30/12 Q1011 NOSIG=
201808251030 METAR LRBS 251030Z 13006KT 040V190 CAVOK 30/11 Q1011 NOSIG=
201808251100 METAR LRBS 251100Z VRB04KT CAVOK 30/11 Q1011 NOSIG=
201808251130 METAR LRBS 251130Z VRB03KT CAVOK 31/11 Q1010 NOSIG=
201808251200 METAR LRBS 251200Z VRB04KT CAVOK 31/10 Q1010 NOSIG=
201808251230 METAR LRBS 251230Z 24006KT 190V270 CAVOK 31/10 Q1010 NOSIG=
201808251300 METAR LRBS 251300Z VRB02KT CAVOK 31/11 Q1009 NOSIG=
201808251330 METAR LRBS 251330Z 26007KT 200V330 CAVOK 31/11 Q1009 NOSIG=
201808251400 METAR LRBS 251400Z VRB04KT CAVOK 32/10 Q1009 NOSIG=
201808251430 METAR LRBS 251430Z 24005KT 210V270 CAVOK 32/11 Q1009 NOSIG=
201808251500 METAR LRBS 251500Z VRB01KT CAVOK 31/10 Q1009 NOSIG=
201808251530 METAR LRBS 251530Z VRB02KT CAVOK 31/10 Q1008 NOSIG=
201808251600 METAR LRBS 251600Z 30004KT 270V340 CAVOK 31/10 Q1008 NOSIG=
201808251630 METAR LRBS 251630Z 30004KT 270V340 CAVOK 30/11 Q1008 NOSIG=
201808251700 METAR LRBS 251700Z 30003KT CAVOK 29/12 Q1008 NOSIG=
201808251730 METAR LRBS 251730Z 05003KT CAVOK 25/14 Q1009 NOSIG=
201808251800 METAR LRBS 251800Z 00000KT CAVOK 25/14 Q1009 NOSIG=
201808251830 METAR LRBS 251830Z 30002KT CAVOK 25/14 Q1009 NOSIG=
201808251900 METAR LRBS 251900Z 00000KT CAVOK 24/14 Q1009 NOSIG=
201808251930 METAR LRBS 251930Z VRB02KT CAVOK 23/13 Q1009 NOSIG=
201808252000 METAR LRBS 252000Z 00000KT CAVOK 23/14 Q1010 NOSIG=
201808252030 METAR LRBS 252030Z VRB02KT CAVOK 22/14 Q1009 NOSIG=
201808252100 METAR LRBS 252100Z 03002KT CAVOK 22/13 Q1009 NOSIG=
201808252130 METAR LRBS 252130Z 35003KT 300V040 CAVOK 22/13 Q1009 NOSIG=
201808252200 METAR LRBS 252200Z VRB01KT CAVOK 21/14 Q1009 NOSIG=
201808252230 METAR LRBS 252230Z 02003KT 340V080 CAVOK 21/13 Q1009 NOSIG=
201808252300 METAR COR LRBS 252300Z VRB01KT CAVOK 20/14 Q1009 NOSIG=
201808252330 METAR LRBS 252330Z VRB01KT CAVOK 20/14 Q1009 NOSIG=
201808260000 METAR COR LRBS 260000Z 00000KT CAVOK 19/14 Q1009 NOSIG=
201808260030 METAR LRBS 260030Z 00000KT CAVOK 19/14 Q1009 NOSIG=
201808260100 METAR COR LRBS 260100Z VRB01KT CAVOK 19/14 Q1009 NOSIG=
201808260130 METAR LRBS 260130Z VRB01KT CAVOK 19/14 Q1009 NOSIG=
201808260200 METAR LRBS 260200Z VRB02KT CAVOK 19/14 Q1009 NOSIG=
201808260230 METAR LRBS 260230Z 01003KT CAVOK 18/14 Q1009 NOSIG=
201808260300 METAR LRBS 260300Z VRB02KT CAVOK 18/14 Q1009 NOSIG=
201808260330 METAR LRBS 260330Z VRB02KT CAVOK 18/14 Q1009 NOSIG=
201808260400 METAR LRBS 260400Z 36003KT 320V050 CAVOK 18/14 Q1009 NOSIG=
201808260430 METAR LRBS 260430Z 36003KT 320V040 CAVOK 18/14 Q1009 NOSIG=
201808260500 METAR LRBS 260500Z 02003KT 340V060 CAVOK 20/14 Q1009 NOSIG=
201808260530 METAR LRBS 260530Z 04004KT 360V090 CAVOK 21/14 Q1009 NOSIG=
201808260600 METAR LRBS 260600Z 04004KT 350V080 CAVOK 22/14 Q1009 NOSIG=
201808260630 METAR LRBS 260630Z 05005KT 340V080 CAVOK 23/14 Q1009 NOSIG=
201808260700 METAR LRBS 260700Z 03004KT 310V090 CAVOK 25/14 Q1009 NOSIG=
201808260730 METAR LRBS 260730Z VRB04KT CAVOK 26/14 Q1009 NOSIG=
201808260800 METAR LRBS 260800Z 03004KT 310V110 CAVOK 27/15 Q1009 NOSIG=
201808260830 METAR LRBS 260830Z 06004KT 360V110 CAVOK 28/14 Q1009 NOSIG=
201808260900 METAR LRBS 260900Z VRB04KT CAVOK 29/14 Q1009 NOSIG=
201808260930 METAR LRBS 260930Z 04004KT 300V100 CAVOK 29/14 Q1009 NOSIG=
201808261000 METAR LRBS 261000Z VRB03KT CAVOK 30/14 Q1008 NOSIG=
201808261030 METAR LRBS 261030Z 09004KT CAVOK 31/12 Q1008 NOSIG=
201808261100 METAR LRBS 261100Z VRB04KT CAVOK 31/11 Q1008 NOSIG=
201808261130 METAR COR LRBS 261130Z 35004KT 300V050 CAVOK 32/11 Q1008
                        NOSIG=
201808261200 METAR LRBS 261200Z VRB02KT CAVOK 32/11 Q1008 NOSIG=
201808261230 METAR LRBS 261230Z VRB03KT CAVOK 33/11 Q1007 NOSIG=
201808261300 METAR LRBS 261300Z 07005KT 010V130 CAVOK 32/11 Q1007 NOSIG=
201808261330 METAR LRBS 261330Z VRB03KT CAVOK 32/10 Q1006 NOSIG=
201808261400 METAR COR LRBS 261400Z VRB03KT CAVOK 32/10 Q1006 NOSIG=
201808261430 METAR LRBS 261430Z VRB02KT CAVOK 33/09 Q1006 NOSIG=
201808261500 METAR LRBS 261500Z VRB02KT CAVOK 33/10 Q1006 NOSIG=
201808261530 METAR LRBS 261530Z 02003KT 330V070 CAVOK 32/10 Q1006 NOSIG=
201808261600 METAR LRBS 261600Z 02003KT CAVOK 32/09 Q1006 NOSIG=
201808261630 METAR LRBS 261630Z 34003KT 310V040 CAVOK 31/10 Q1006 NOSIG=
201808261700 METAR LRBS 261700Z 34002KT CAVOK 30/12 Q1006 NOSIG=
201808261730 METAR LRBS 261730Z 33002KT CAVOK 28/14 Q1007 NOSIG=
201808261800 METAR LRBS 261800Z VRB02KT CAVOK 27/13 Q1007 NOSIG=
201808261830 METAR LRBS 261830Z 02004KT 350V070 CAVOK 25/14 Q1007 NOSIG=
201808261900 METAR LRBS 261900Z 05003KT 010V080 CAVOK 23/13 Q1007 NOSIG=
201808261930 METAR LRBS 261930Z 02005KT 360V060 CAVOK 24/11 Q1007 NOSIG=
201808262000 METAR LRBS 262000Z 03005KT CAVOK 26/11 Q1007 NOSIG=
201808262030 METAR LRBS 262030Z 04005KT CAVOK 24/12 Q1007 NOSIG=
201808262100 METAR LRBS 262100Z 04003KT CAVOK 23/13 Q1007 NOSIG=
201808262130 METAR LRBS 262130Z 05004KT CAVOK 22/13 Q1007 NOSIG=
201808262200 METAR LRBS 262200Z 08004KT CAVOK 22/14 Q1007 NOSIG=
201808262230 METAR COR LRBS 262230Z 08004KT CAVOK 21/13 Q1007 NOSIG=
201808262300 METAR LRBS 262300Z 07002KT CAVOK 21/13 Q1007 NOSIG=
201808262330 METAR LRBS 262330Z 02003KT 350V050 CAVOK 22/13 Q1008 NOSIG=
201808270000 METAR LRBS 270000Z 02003KT CAVOK 21/13 Q1008 NOSIG=
201808270030 METAR LRBS 270030Z 01005KT 340V040 CAVOK 20/13 Q1008 NOSIG=
201808270100 METAR LRBS 270100Z 04003KT CAVOK 18/13 Q1008 NOSIG=
201808270130 METAR LRBS 270130Z VRB02KT CAVOK 19/13 Q1008 NOSIG=
201808270200 METAR LRBS 270200Z 03003KT CAVOK 18/13 Q1008 NOSIG=
201808270230 METAR LRBS 270230Z 06003KT 020V100 CAVOK 19/13 Q1008 NOSIG=
201808270300 METAR LRBS 270300Z 05005KT 020V080 CAVOK 19/14 Q1008 NOSIG=
201808270330 METAR LRBS 270330Z 05004KT CAVOK 19/13 Q1008 NOSIG=
201808270400 METAR LRBS 270400Z 05006KT 360V070 CAVOK 19/14 Q1009 NOSIG=
201808270430 METAR LRBS 270430Z 05007KT CAVOK 20/14 Q1009 NOSIG=
201808270500 METAR LRBS 270500Z 06008KT 040V100 CAVOK 21/14 Q1009 NOSIG=
201808270530 METAR COR LRBS 270530Z 06010KT 020V090 CAVOK 22/14 Q1009
                        NOSIG=
201808270600 METAR LRBS 270600Z 07012KT CAVOK 23/14 Q1010 NOSIG=
201808270630 METAR LRBS 270630Z 06012KT 030V090 CAVOK 25/14 Q1010 NOSIG=
201808270700 METAR LRBS 270700Z 07012KT 020V100 CAVOK 26/14 Q1010 NOSIG=
201808270730 METAR LRBS 270730Z 05012KT 010V090 CAVOK 27/14 Q1010 NOSIG=
201808270800 METAR LRBS 270800Z 06014KT 020V090 CAVOK 27/15 Q1011 NOSIG=
201808270830 METAR LRBS 270830Z 06013KT 020V090 CAVOK 27/14 Q1010 NOSIG=
201808270900 METAR LRBS 270900Z 06010KT 020V100 CAVOK 28/15 Q1010 NOSIG=
201808270930 METAR LRBS 270930Z 08011KT 040V110 CAVOK 28/15 Q1010 NOSIG=
201808271000 METAR LRBS 271000Z 05011KT 350V100 CAVOK 29/15 Q1010 NOSIG=
201808271030 METAR LRBS 271030Z 06009KT 010V090 CAVOK 30/15 Q1010 NOSIG=
201808271100 METAR LRBS 271100Z 05008KT 360V090 CAVOK 30/14 Q1010 NOSIG=
201808271130 METAR LRBS 271130Z 05008KT 010V120 CAVOK 30/13 Q1010 NOSIG=
201808271200 METAR LRBS 271200Z 07009KT 360V110 CAVOK 30/12 Q1010 NOSIG=
201808271230 METAR LRBS 271230Z 06008KT 010V100 CAVOK 30/12 Q1010 NOSIG=
201808271300 METAR LRBS 271300Z 07010KT 020V110 CAVOK 31/12 Q1010 NOSIG=
201808271330 METAR LRBS 271330Z 07011KT 040V100 CAVOK 31/12 Q1010 NOSIG=
201808271400 METAR COR LRBS 271400Z 07010KT 030V100 CAVOK 30/11 Q1010
                        NOSIG=
201808271430 METAR LRBS 271430Z 06009KT 030V090 CAVOK 30/12 Q1010 NOSIG=
201808271500 METAR LRBS 271500Z 06010KT 010V100 CAVOK 30/12 Q1010 NOSIG=
201808271530 METAR LRBS 271530Z 05006KT 010V090 CAVOK 30/12 Q1010 NOSIG=
201808271600 METAR COR LRBS 271600Z 05006KT 020V090 CAVOK 29/13 Q1010
                        NOSIG=
201808271630 METAR LRBS 271630Z 05007KT 360V070 CAVOK 28/14 Q1010 NOSIG=
201808271700 METAR LRBS 271700Z 03004KT 360V060 CAVOK 28/14 Q1010 NOSIG=
201808271730 METAR LRBS 271730Z 02005KT 350V050 CAVOK 27/15 Q1011 NOSIG=
201808271800 METAR LRBS 271800Z 04007KT 360V060 CAVOK 26/15 Q1011 NOSIG=
201808271830 METAR LRBS 271830Z 04007KT 010V070 9999 FEW045CB 26/14 Q1012
                        NOSIG=
201808271900 METAR LRBS 271900Z 03007KT 360V070 9999 FEW045CB 26/14 Q1012
                        NOSIG=
201808271930 METAR LRBS 271930Z 03005KT 360V060 9999 FEW045CB 26/15 Q1012
                        NOSIG=
201808272000 METAR LRBS 272000Z 03006KT 360V070 CAVOK 25/15 Q1012 NOSIG=
201808272030 METAR LRBS 272030Z 04005KT 360V070 CAVOK 25/15 Q1012 NOSIG=
201808272100 METAR LRBS 272100Z 05004KT 9999 FEW045CB 25/15 Q1012 NOSIG=
201808272130 METAR LRBS 272130Z 04005KT 360V070 9999 FEW045CB 24/15 Q1012
                        NOSIG=
201808272200 METAR LRBS 272200Z 05006KT 010V090 9999 FEW045CB 24/15 Q1013
                        NOSIG=
201808272230 METAR LRBS 272230Z 05008KT 010V080 9999 FEW045CB 24/15 Q1012
                        NOSIG=
201808272300 METAR LRBS 272300Z 05009KT 360V080 9999 FEW045CB 24/15 Q1012
                        NOSIG=
201808272330 METAR LRBS 272330Z 05009KT 010V090 CAVOK 24/15 Q1013 NOSIG=
201808280000 METAR LRBS 280000Z 04006KT 010V070 9999 FEW045CB 24/15 Q1013
                        NOSIG=
201808280030 METAR LRBS 280030Z 04006KT 360V070 9999 FEW045CB 23/15 Q1013
                        NOSIG=
201808280100 METAR COR LRBS 280100Z 04006KT 010V070 9999 VCTS FEW045CB
                        23/15 Q1013 NOSIG=
201808280130 METAR LRBS 280130Z 05004KT 9999 VCTS FEW045CB 22/15 Q1013
                        NOSIG=
201808280200 METAR LRBS 280200Z 08002KT 9999 FEW045CB 22/15 Q1013 NOSIG=
201808280230 METAR LRBS 280230Z VRB01KT CAVOK 21/15 Q1013 NOSIG=
201808280300 METAR LRBS 280300Z 24002KT CAVOK 21/15 Q1014 NOSIG=
201808280330 METAR LRBS 280330Z AUTO VRB01KT NCD 21/15 Q1014 NOSIG=
201808280400 METAR LRBS 280400Z 00000KT CAVOK 21/15 Q1014 NOSIG=
201808280430 METAR LRBS 280430Z 28002KT CAVOK 20/16 Q1014 NOSIG=
201808280500 METAR LRBS 280500Z 30003KT CAVOK 22/16 Q1015 NOSIG=
201808280530 METAR LRBS 280530Z VRB02KT CAVOK 22/15 Q1015 NOSIG=
201808280600 METAR LRBS 280600Z 30003KT 260V330 CAVOK 23/16 Q1015 NOSIG=
201808280630 METAR LRBS 280630Z VRB02KT CAVOK 24/15 Q1015 NOSIG=
201808280700 METAR LRBS 280700Z 27003KT 240V330 CAVOK 24/15 Q1015 NOSIG=
201808280730 METAR LRBS 280730Z 29004KT 240V020 CAVOK 25/15 Q1015 NOSIG=
201808280800 METAR LRBS 280800Z 28005KT 230V360 CAVOK 25/15 Q1015 NOSIG=
201808280830 METAR LRBS 280830Z 27005KT 230V320 CAVOK 26/16 Q1015 NOSIG=
201808280900 METAR LRBS 280900Z 29004KT 210V010 CAVOK 27/15 Q1015 NOSIG=
201808280930 METAR LRBS 280930Z 27003KT 230V320 CAVOK 28/14 Q1015 NOSIG=
201808281000 METAR LRBS 281000Z VRB02KT CAVOK 29/14 Q1015 NOSIG=
201808281030 METAR COR LRBS 281030Z VRB03KT CAVOK 30/13 Q1015 NOSIG=
201808281100 METAR LRBS 281100Z VRB03KT CAVOK 30/12 Q1015 NOSIG=
201808281130 METAR LRBS 281130Z 36003KT 270V080 CAVOK 31/10 Q1014 NOSIG=
201808281200 METAR LRBS 281200Z VRB03KT CAVOK 31/09 Q1014 NOSIG=
201808281230 METAR LRBS 281230Z VRB02KT CAVOK 32/06 Q1014 NOSIG=
201808281300 METAR LRBS 281300Z VRB02KT CAVOK 32/06 Q1014 NOSIG=
201808281330 METAR LRBS 281330Z VRB02KT CAVOK 32/06 Q1013 NOSIG=
201808281400 METAR LRBS 281400Z VRB02KT CAVOK 32/05 Q1013 NOSIG=
201808281430 METAR LRBS 281430Z VRB02KT CAVOK 33/05 Q1013 NOSIG=
201808281500 METAR LRBS 281500Z VRB02KT CAVOK 32/12 Q1013 NOSIG=
201808281530 METAR LRBS 281530Z VRB01KT CAVOK 31/13 Q1013 NOSIG=
201808281600 METAR LRBS 281600Z 29004KT 260V010 CAVOK 30/13 Q1013 NOSIG=
201808281630 METAR LRBS 281630Z 31005KT 240V020 CAVOK 29/15 Q1014 NOSIG=
201808281700 METAR LRBS 281700Z VRB05KT CAVOK 28/15 Q1014 NOSIG=
201808281730 METAR LRBS 281730Z 31004KT 260V010 CAVOK 27/14 Q1014 NOSIG=
201808281800 METAR LRBS 281800Z 35004KT 310V040 CAVOK 26/15 Q1014 NOSIG=
201808281830 METAR LRBS 281830Z 35003KT 300V040 CAVOK 25/14 Q1014 NOSIG=
201808281900 METAR LRBS 281900Z 01004KT 350V050 CAVOK 26/13 Q1015 NOSIG=
201808281930 METAR LRBS 281930Z 36004KT 320V020 CAVOK 25/14 Q1015 NOSIG=
201808282000 METAR LRBS 282000Z 35004KT 300V060 CAVOK 24/14 Q1015 NOSIG=
201808282030 METAR LRBS 282030Z 36003KT 310V050 CAVOK 23/14 Q1015 NOSIG=
201808282100 METAR LRBS 282100Z 26003KT 230V360 CAVOK 22/14 Q1015 NOSIG=
201808282130 METAR LRBS 282130Z VRB02KT CAVOK 22/14 Q1015 NOSIG=
201808282200 METAR LRBS 282200Z VRB01KT CAVOK 22/14 Q1015 NOSIG=
201808282230 METAR LRBS 282230Z 00000KT CAVOK 21/14 Q1015 NOSIG=
201808282300 METAR LRBS 282300Z VRB01KT CAVOK 21/15 Q1015 NOSIG=
201808282330 METAR LRBS 282330Z 32001KT CAVOK 20/15 Q1015 NOSIG=
201808290000 METAR LRBS 290000Z 00000KT CAVOK 20/15 Q1015 NOSIG=
201808290030 METAR LRBS 290030Z 00000KT CAVOK 19/15 Q1015 NOSIG=
201808290100 METAR COR LRBS 290100Z 00000KT CAVOK 19/15 Q1016 NOSIG=
201808290130 METAR COR LRBS 290130Z 00000KT CAVOK 20/15 Q1016 NOSIG=
201808290200 METAR COR LRBS 290200Z 26001KT CAVOK 19/15 Q1016 NOSIG=
201808290230 METAR LRBS 290230Z VRB01KT CAVOK 20/15 Q1016 NOSIG=
201808290300 METAR LRBS 290300Z 00000KT CAVOK 19/15 Q1016 NOSIG=
201808290330 METAR LRBS 290330Z 00000KT CAVOK 19/15 Q1016 NOSIG=
201808290400 METAR LRBS 290400Z 00000KT CAVOK 19/15 Q1016 NOSIG=
201808290430 METAR LRBS 290430Z 00000KT CAVOK 20/15 Q1016 NOSIG=
201808290500 METAR LRBS 290500Z VRB01KT CAVOK 21/15 Q1016 NOSIG=
201808290530 METAR LRBS 290530Z 07003KT 030V110 CAVOK 21/15 Q1017 NOSIG=
201808290600 METAR LRBS 290600Z 08004KT 040V130 CAVOK 22/15 Q1017 NOSIG=
201808290630 METAR LRBS 290630Z 09004KT 040V130 CAVOK 22/15 Q1017 NOSIG=
201808290700 METAR LRBS 290700Z 05003KT 360V130 CAVOK 23/15 Q1017 NOSIG=
201808290730 METAR LRBS 290730Z VRB02KT CAVOK 24/15 Q1017 NOSIG=
201808290800 METAR LRBS 290800Z VRB01KT CAVOK 25/15 Q1017 NOSIG=
201808290830 METAR LRBS 290830Z VRB02KT CAVOK 26/15 Q1017 NOSIG=
201808290900 METAR LRBS 290900Z VRB02KT 9999 FEW032 26/15 Q1017 NOSIG=
201808290930 METAR LRBS 290930Z VRB01KT CAVOK 27/15 Q1017 NOSIG=
201808291000 METAR LRBS 291000Z VRB03KT 9999 FEW039 27/15 Q1017 NOSIG=
201808291030 METAR LRBS 291030Z VRB04KT 9999 FEW041 28/15 Q1017 NOSIG=
201808291100 METAR LRBS 291100Z 25006KT 210V360 9999 SCT042 28/15 Q1016
                        NOSIG=
201808291130 METAR LRBS 291130Z VRB04KT 9999 FEW044 28/15 Q1016 NOSIG=
201808291200 METAR LRBS 291200Z VRB03KT 9999 FEW047 29/15 Q1016 NOSIG=
201808291230 METAR LRBS 291230Z 25004KT 180V320 9999 FEW047 29/13 Q1015
                        NOSIG=
201808291300 METAR LRBS 291300Z 25005KT 170V320 9999 SCT048 29/14 Q1015
                        NOSIG=
201808291330 METAR LRBS 291330Z VRB03KT CAVOK 29/14 Q1015 NOSIG=
201808291400 METAR LRBS 291400Z VRB01KT 9999 FEW050CB 30/14 Q1015 NOSIG=
201808291430 METAR LRBS 291430Z VRB01KT 9999 FEW050CB 30/14 Q1015 NOSIG=
201808291500 METAR LRBS 291500Z VRB02KT 9999 FEW050CB 30/14 Q1015 NOSIG=
201808291530 METAR LRBS 291530Z 06006KT 020V110 9999 FEW050CB 28/14 Q1015
                        NOSIG=
201808291600 METAR LRBS 291600Z 05006KT 020V090 9999 FEW050CB 28/15 Q1015
                        TEMPO VRB16G26KT 5000 -TSRA=
201808291630 METAR COR LRBS 291630Z 06008KT 9999 FEW050CB 26/14 Q1016
                        NOSIG=
201808291700 METAR LRBS 291700Z 06005KT 9999 FEW050CB 25/14 Q1016 NOSIG=
201808291730 METAR LRBS 291730Z 06006KT 9999 FEW050CB 24/14 Q1016 NOSIG=
201808291800 METAR LRBS 291800Z 06003KT CAVOK 24/14 Q1016 NOSIG=
201808291830 METAR LRBS 291830Z 06003KT CAVOK 23/14 Q1016 NOSIG=
201808291900 METAR LRBS 291900Z 05004KT CAVOK 23/14 Q1016 NOSIG=
201808291930 METAR LRBS 291930Z 01002KT CAVOK 23/14 Q1016 NOSIG=
201808292000 METAR LRBS 292000Z 03003KT 350V060 CAVOK 22/14 Q1016 NOSIG=
201808292030 METAR LRBS 292030Z VRB02KT CAVOK 23/14 Q1017 NOSIG=
201808292100 METAR LRBS 292100Z VRB02KT CAVOK 22/14 Q1017 NOSIG=
201808292130 METAR LRBS 292130Z VRB02KT CAVOK 22/13 Q1017 NOSIG=
201808292200 METAR LRBS 292200Z 03003KT CAVOK 21/13 Q1017 NOSIG=
201808292230 METAR LRBS 292230Z 05002KT CAVOK 20/14 Q1017 NOSIG=
201808292300 METAR LRBS 292300Z 36003KT CAVOK 21/13 Q1017 NOSIG=
201808292330 METAR LRBS 292330Z 07003KT 040V120 CAVOK 20/13 Q1016 NOSIG=
201808300000 METAR LRBS 300000Z 06001KT CAVOK 20/13 Q1017 NOSIG=
201808300030 METAR LRBS 300030Z 00000KT CAVOK 20/13 Q1017 NOSIG=
201808300100 METAR LRBS 300100Z 00000KT CAVOK 19/13 Q1017 NOSIG=
201808300130 METAR LRBS 300130Z 00000KT CAVOK 19/13 Q1016 NOSIG=
201808300200 METAR LRBS 300200Z 00000KT CAVOK 18/14 Q1016 NOSIG=
201808300230 METAR LRBS 300230Z 00000KT CAVOK 19/13 Q1017 NOSIG=
201808300300 METAR LRBS 300300Z 00000KT CAVOK 18/14 Q1017 NOSIG=
201808300330 METAR LRBS 300330Z VRB01KT CAVOK 18/13 Q1017 NOSIG=
201808300400 METAR LRBS 300400Z VRB01KT CAVOK 18/13 Q1017 NOSIG=
201808300430 METAR LRBS 300430Z 00000KT CAVOK 19/13 Q1017 NOSIG=
201808300500 METAR LRBS 300500Z 24001KT CAVOK 19/14 Q1017 NOSIG=
201808300530 METAR LRBS 300530Z VRB01KT CAVOK 22/14 Q1017 NOSIG=
201808300600 METAR LRBS 300600Z 03004KT 310V100 CAVOK 22/13 Q1018 NOSIG=
201808300630 METAR LRBS 300630Z 06005KT 010V090 CAVOK 23/13 Q1018 NOSIG=
201808300700 METAR LRBS 300700Z 05010KT 020V090 CAVOK 24/12 Q1018 NOSIG=
201808300730 METAR LRBS 300730Z 06010KT CAVOK 25/12 Q1018 NOSIG=
201808300800 METAR LRBS 300800Z 06010KT 360V090 CAVOK 26/12 Q1018 NOSIG=
201808300830 METAR LRBS 300830Z 05009KT 350V100 CAVOK 26/11 Q1018 NOSIG=
201808300900 METAR LRBS 300900Z 05007KT 010V110 CAVOK 27/11 Q1018 NOSIG=
201808300930 METAR LRBS 300930Z 05006KT 340V120 CAVOK 27/11 Q1018 NOSIG=
201808301000 METAR LRBS 301000Z 05005KT 010V130 CAVOK 28/11 Q1017 NOSIG=
201808301030 METAR LRBS 301030Z 05005KT 350V140 CAVOK 28/10 Q1017 NOSIG=
201808301100 METAR LRBS 301100Z 04005KT 340V150 CAVOK 29/10 Q1017 NOSIG=
201808301130 METAR LRBS 301130Z VRB03KT CAVOK 29/10 Q1017 NOSIG=
201808301200 METAR LRBS 301200Z VRB02KT CAVOK 30/10 Q1017 NOSIG=
201808301230 METAR LRBS 301230Z VRB03KT CAVOK 30/10 Q1016 NOSIG=
201808301300 METAR LRBS 301300Z 01005KT 300V060 CAVOK 30/11 Q1016 NOSIG=
201808301330 METAR LRBS 301330Z 02004KT 310V110 CAVOK 30/11 Q1016 NOSIG=
201808301400 METAR LRBS 301400Z 04004KT 360V110 CAVOK 30/10 Q1016 NOSIG=
201808301430 METAR LRBS 301430Z VRB02KT CAVOK 30/11 Q1016 NOSIG=
201808301500 METAR LRBS 301500Z 07003KT CAVOK 30/10 Q1016 NOSIG=
201808301530 METAR LRBS 301530Z 04003KT 350V070 CAVOK 30/10 Q1016 NOSIG=
201808301600 METAR LRBS 301600Z 03002KT CAVOK 30/11 Q1016 NOSIG=
201808301630 METAR LRBS 301630Z 03002KT CAVOK 29/12 Q1016 NOSIG=
201808301700 METAR LRBS 301700Z VRB02KT CAVOK 28/14 Q1016 NOSIG=
201808301730 METAR LRBS 301730Z 02001KT CAVOK 27/14 Q1016 NOSIG=
201808301800 METAR LRBS 301800Z 36003KT CAVOK 26/14 Q1017 NOSIG=
201808301830 METAR LRBS 301830Z 00000KT CAVOK 26/15 Q1017 NOSIG=
201808301900 METAR LRBS 301900Z VRB02KT CAVOK 24/14 Q1017 NOSIG=
201808301930 METAR LRBS 301930Z 36001KT CAVOK 23/14 Q1017 NOSIG=
201808302000 METAR LRBS 302000Z VRB01KT CAVOK 22/14 Q1017 NOSIG=
201808302030 METAR LRBS 302030Z 00000KT CAVOK 22/14 Q1017 NOSIG=
201808302100 METAR LRBS 302100Z VRB01KT CAVOK 21/15 Q1017 NOSIG=
201808302130 METAR LRBS 302130Z VRB01KT CAVOK 21/15 Q1017 NOSIG=
201808302200 METAR LRBS 302200Z 00000KT CAVOK 21/14 Q1017 NOSIG=
201808302230 METAR LRBS 302230Z 00000KT CAVOK 21/15 Q1017 NOSIG=
201808302300 METAR LRBS 302300Z VRB02KT CAVOK 20/14 Q1017 NOSIG=
201808302330 METAR LRBS 302330Z 00000KT CAVOK 20/14 Q1017 NOSIG=
201808310000 METAR LRBS 310000Z VRB02KT CAVOK 19/14 Q1017 NOSIG=
201808310030 METAR LRBS 310030Z VRB01KT CAVOK 19/14 Q1017 NOSIG=
201808310100 METAR LRBS 310100Z 36002KT CAVOK 19/14 Q1017 NOSIG=
201808310130 METAR LRBS 310130Z 01001KT CAVOK 19/14 Q1017 NOSIG=
201808310200 METAR LRBS 310200Z VRB01KT CAVOK 18/14 Q1017 NOSIG=
201808310230 METAR LRBS 310230Z 00000KT CAVOK 19/14 Q1017 NOSIG=
201808310300 METAR LRBS 310300Z 31001KT CAVOK 18/14 Q1017 NOSIG=
201808310330 METAR LRBS 310330Z 00000KT CAVOK 18/14 Q1017 NOSIG=
201808310400 METAR LRBS 310400Z VRB02KT CAVOK 18/14 Q1017 NOSIG=
201808310430 METAR LRBS 310430Z 00000KT CAVOK 19/14 Q1018 NOSIG=
201808310500 METAR LRBS 310500Z VRB01KT CAVOK 20/15 Q1018 NOSIG=
201808310530 METAR LRBS 310530Z 00000KT CAVOK 21/15 Q1018 NOSIG=
201808310600 METAR LRBS 310600Z 06003KT 020V090 CAVOK 23/14 Q1018 NOSIG=
201808310630 METAR LRBS 310630Z 07005KT 040V100 CAVOK 24/13 Q1018 NOSIG=
201808310700 METAR LRBS 310700Z 07005KT 040V100 CAVOK 25/12 Q1018 NOSIG=
201808310730 METAR LRBS 310730Z 06006KT 020V090 CAVOK 26/12 Q1018 NOSIG=
201808310800 METAR LRBS 310800Z 08005KT 030V140 CAVOK 27/10 Q1018 NOSIG=
201808310830 METAR LRBS 310830Z 07004KT 010V110 CAVOK 28/10 Q1018 NOSIG=
201808310900 METAR LRBS 310900Z 13004KT 060V220 CAVOK 29/09 Q1018 NOSIG=
201808310930 METAR LRBS 310930Z 02003KT 300V070 CAVOK 30/10 Q1018 NOSIG=
201808311000 METAR LRBS 311000Z VRB03KT CAVOK 30/10 Q1018 NOSIG=
201808311030 METAR LRBS 311030Z VRB02KT CAVOK 31/11 Q1017 NOSIG=
201808311100 METAR LRBS 311100Z VRB03KT CAVOK 31/10 Q1017 NOSIG=
201808311130 METAR LRBS 311130Z 02006KT 350V060 CAVOK 32/10 Q1018 NOSIG=
201808311200 METAR LRBS 311200Z VRB02KT CAVOK 30/09 Q1017 NOSIG=
201808311230 METAR LRBS 311230Z 24003KT 170V310 CAVOK 31/10 Q1017 NOSIG=
201808311300 METAR LRBS 311300Z VRB02KT CAVOK 31/10 Q1017 NOSIG=
201808311330 METAR LRBS 311330Z VRB01KT CAVOK 31/09 Q1017 NOSIG=
201808311400 METAR LRBS 311400Z VRB01KT CAVOK 31/09 Q1017 NOSIG=
201808311430 METAR LRBS 311430Z VRB01KT CAVOK 31/08 Q1017 NOSIG=
201808311500 METAR LRBS 311500Z VRB02KT CAVOK 31/10 Q1017 NOSIG=
201808311530 METAR LRBS 311530Z VRB01KT CAVOK 31/10 Q1017 NOSIG=
201808311600 METAR LRBS 311600Z 08001KT CAVOK 30/10 Q1017 NOSIG=
201808311630 METAR LRBS 311630Z 02001KT CAVOK 29/12 Q1017 NOSIG=
201808311700 METAR LRBS 311700Z 04003KT CAVOK 28/13 Q1017 NOSIG=
201808311730 METAR LRBS 311730Z 02004KT CAVOK 25/12 Q1017 NOSIG=
201808311800 METAR LRBS 311800Z 36003KT CAVOK 25/13 Q1017 NOSIG=
201808311830 METAR LRBS 311830Z 36003KT CAVOK 25/12 Q1017 NOSIG=
201808311900 METAR LRBS 311900Z 36003KT CAVOK 24/12 Q1017 NOSIG=
201808311930 METAR LRBS 311930Z VRB01KT CAVOK 24/12 Q1017 NOSIG=
201808312000 METAR LRBS 312000Z VRB02KT CAVOK 24/12 Q1018 NOSIG=
201808312030 METAR LRBS 312030Z 02002KT CAVOK 23/12 Q1017 NOSIG=
201808312100 METAR LRBS 312100Z 03001KT CAVOK 22/12 Q1018 NOSIG=
201808312130 METAR LRBS 312130Z VRB02KT CAVOK 22/12 Q1018 NOSIG=
201808312200 METAR LRBS 312200Z VRB01KT CAVOK 21/12 Q1018 NOSIG=
201808312230 METAR LRBS 312230Z 02002KT CAVOK 21/12 Q1018 NOSIG=
201808312300 METAR LRBS 312300Z 01001KT CAVOK 20/12 Q1018 NOSIG=
201808312330 METAR LRBS 312330Z 06002KT CAVOK 19/13 Q1018 NOSIG=