201808010500 TAF LRBS 010500Z 0106/0206 07010KT CAVOK
                      TEMPO 0111/0118 VRB20G30KT 3000 TSRA BKN010
                       BKN030CB
                      BECMG 0119/0121 VRB04KT
                      TEMPO 0200/0205 3000 BR=
201808011100 TAF LRBS 011100Z 0112/0212 07012KT 9999 BKN035
                      TEMPO 0112/0118 VRB20G30KT 3000 TSRA BKN010
                       BKN030CB
                      BECMG 0119/0121 VRB04KT
                      TEMPO 0200/0204 3000 BR
                      BECMG 0205/0207 07014KT=
201808011700 TAF LRBS 011700Z 0118/0218 VRB04KT CAVOK
                      TEMPO 0200/0204 3000 BR
                      BECMG 0205/0207 05014KT=
201808012300 TAF LRBS 012300Z 0200/0224 VRB04KT CAVOK
                      TEMPO 0200/0204 3000 BR
                      BECMG 0205/0207 05014KT=
201808020500 TAF LRBS 020500Z 0206/0306 05010KT CAVOK
                      PROB30 TEMPO 0213/0217 VRB15G25KT 3000 TSRA
                       SCT015 BKN045CB=
201808021100 TAF LRBS 021100Z 0212/0312 05012KT CAVOK
                      PROB30 TEMPO 0213/0218 VRB15G25KT 3000 TSRA
                       SCT015 BKN045CB=
201808021700 TAF LRBS 021700Z 0218/0318 06010KT CAVOK
                      BECMG 0218/0220 VRB04KT
                      TEMPO 0300/0305 3000 BR
                      BECMG 0306/0308 07012KT=
201808022300 TAF LRBS 022300Z 0300/0324 VRB04KT CAVOK
                      TEMPO 0300/0305 3000 BR
                      BECMG 0305/0307 07012KT
                      BECMG 0317/0319 VRB04KT=
201808030500 TAF LRBS 030500Z 0306/0406 35008KT CAVOK
                      BECMG 0307/0309 05014KT
                      BECMG 0317/0319 34007KT=
201808031100 TAF LRBS 031100Z 0312/0412 05014KT CAVOK
                      BECMG 0317/0319 34007KT
                      BECMG 0407/0409 04010KT=
201808031700 TAF LRBS 031700Z 0318/0418 01006KT CAVOK
                      BECMG 0407/0409 07014KT=
201808032300 TAF LRBS 032300Z 0400/0424 34005KT CAVOK
                      BECMG 0407/0409 07012KT
                      BECMG 0418/0420 35004KT=
201808040500 TAF LRBS 040500Z 0406/0506 VRB04KT CAVOK
                      BECMG 0407/0409 07012KT
                      BECMG 0414/0416 01005KT=
201808041100 TAF LRBS 041100Z 0412/0512 04008KT CAVOK=
201808041700 TAF LRBS 041700Z 0418/0518 01006KT CAVOK=
201808042300 TAF LRBS 042300Z 0500/0524 VRB04KT CAVOK=
201808050500 TAF LRBS 050500Z 0506/0606 VRB04KT CAVOK=
201808051100 TAF LRBS 051100Z 0512/0612 VRB04KT CAVOK=
201808051700 TAF LRBS 051700Z 0518/0618 VRB04KT CAVOK=
201808052300 TAF LRBS 052300Z 0600/0624 VRB04KT CAVOK=
201808060500 TAF LRBS 060500Z 0606/0706 VRB04KT CAVOK
                      TEMPO 0614/0619 SCT045CB
                      BECMG 0704/0706 06010KT=
201808061100 TAF LRBS 061100Z 0612/0712 VRB04KT CAVOK
                      PROB40 TEMPO 0614/0619 SCT045CB
                      BECMG 0701/0703 06010KT
                      BECMG 0710/0712 SCT040CB=
201808061700 TAF LRBS 061700Z 0618/0718 VRB04KT CAVOK
                      BECMG 0701/0703 06010KT
                      TEMPO 0712/0717 SCT040CB
                      PROB40 TEMPO 0714/0716 VRB20KT 5000 TSRA=
201808062300 TAF LRBS 062300Z 0700/0724 VRB04KT CAVOK
                      BECMG 0701/0703 06010KT
                      TEMPO 0712/0717 SCT040CB
                      PROB40 TEMPO 0714/0716 VRB20KT 5000 TSRA=
201808070500 TAF LRBS 070500Z 0706/0806 05008KT CAVOK
                      TEMPO 0712/0718 SCT050CB
                      PROB40 TEMPO 0714/0718 VRB20G30KT 5000 TSRA=
201808071100 TAF LRBS 071100Z 0712/0812 05008KT CAVOK
                      TEMPO 0712/0718 SCT050CB
                      PROB40 TEMPO 0713/0718 VRB20G30KT 5000 TSRA=
201808071700 TAF LRBS 071700Z 0718/0818 05006KT 9999 FEW045CB
                      BECMG 0718/0720 NSC=
201808072300 TAF LRBS 072300Z 0800/0824 05006KT CAVOK=
201808080500 TAF LRBS 080500Z 0806/0906 05008KT CAVOK=
201808081100 TAF LRBS 081100Z 0812/0912 06006KT CAVOK=
201808081700 TAF LRBS 081700Z 0818/0918 07006KT CAVOK=
201808082300 TAF LRBS 082300Z 0900/0924 07006KT CAVOK=
201808090500 TAF LRBS 090500Z 0906/1006 07010KT CAVOK
                      PROB30 TEMPO 0909/0914 SCT030CB=
201808091100 TAF LRBS 091100Z 0912/1012 07010KT CAVOK=
201808091700 TAF LRBS 091700Z 0918/1018 06006KT CAVOK=
201808092300 TAF LRBS 092300Z 1000/1024 06006KT CAVOK=
201808100500 TAF LRBS 100500Z 1006/1106 VRB04KT CAVOK
                      BECMG 1006/1008 05015KT
                      BECMG 1016/1018 VRB04KT=
201808101100 TAF LRBS 101100Z 1012/1112 07012KT CAVOK
                      BECMG 1016/1018 VRB04KT=
201808101700 TAF LRBS 101700Z 1018/1118 06006KT CAVOK=
201808102300 TAF LRBS 102300Z 1100/1124 05006KT CAVOK=
201808110500 TAF LRBS 110500Z 1106/1206 VRB04KT CAVOK
                      BECMG 1107/1109 06010KT
                      BECMG 1116/1118 VRB04KT=
201808111100 TAF LRBS 111100Z 1112/1212 06010KT CAVOK
                      BECMG 1116/1118 VRB04KT=
201808111700 TAF LRBS 111700Z 1118/1218 VRB04KT CAVOK=
201808112300 TAF LRBS 112300Z 1200/1224 VRB04KT CAVOK=
201808120500 TAF LRBS 120500Z 1206/1306 VRB04KT CAVOK
                      TEMPO 1301/1305 3000 BR=
201808121100 TAF LRBS 121100Z 1212/1312 VRB04KT CAVOK
                      TEMPO 1301/1305 3000 BR=
201808121700 TAF LRBS 121700Z 1218/1318 VRB04KT CAVOK=
201808122300 TAF LRBS 122300Z 1300/1324 VRB04KT CAVOK=
201808130500 TAF LRBS 130500Z 1306/1406 VRB04KT CAVOK=
201808131100 TAF LRBS 131100Z 1312/1412 VRB04KT CAVOK=
201808131700 TAF LRBS 131700Z 1318/1418 VRB04KT CAVOK
                      TEMPO 1413/1416 03010KT=
201808132300 TAF LRBS 132300Z 1400/1424 VRB04KT CAVOK
                      TEMPO 1413/1416 03010KT=
201808140500 TAF LRBS 140500Z 1406/1506 VRB04KT CAVOK
                      BECMG 1410/1412 03010KT
                      BECMG 1416/1418 VRB04KT=
201808141100 TAF LRBS 141100Z 1412/1512 10008KT CAVOK=
201808141700 TAF LRBS 141700Z 1418/1518 VRB04KT CAVOK=
201808142300 TAF LRBS 142300Z 1500/1524 VRB04KT CAVOK=
201808150500 TAF LRBS 150500Z 1506/1606 06007KT CAVOK=
201808151100 TAF LRBS 151100Z 1512/1612 VRB04KT CAVOK
                      BECMG 1607/1609 05010KT=
201808151700 TAF LRBS 151700Z 1518/1618 VRB04KT CAVOK
                      BECMG 1604/1606 05012KT=
201808152300 TAF LRBS 152300Z 1600/1624 VRB04KT CAVOK
                      BECMG 1604/1606 05012KT=
201808160500 TAF LRBS 160500Z 1606/1706 03008KT CAVOK=
201808161100 TAF LRBS 161100Z 1612/1712 05008KT CAVOK=
201808161700 TAF LRBS 161700Z 1618/1718 04008KT CAVOK
                      TEMPO 1715/1718 FEW040CB=
201808162300 TAF LRBS 162300Z 1700/1724 04008KT CAVOK
                      TEMPO 1715/1719 FEW040CB
                      PROB30 TEMPO 1716/1719 VRB18KT -TSRA=
201808170500 TAF LRBS 170500Z 1706/1806 04008KT CAVOK
                      TEMPO 1714/1719 SCT040CB
                      PROB30 TEMPO 1714/1718 VRB20KT -TSRA=
201808171100 TAF LRBS 171100Z 1712/1812 04010KT CAVOK
                      TEMPO 1714/1719 SCT040CB
                      PROB30 TEMPO 1714/1718 VRB20KT -TSRA=
201808171700 TAF LRBS 171700Z 1718/1818 01008KT CAVOK
                      PROB30 TEMPO 1718/1721 VRB20KT -TSRA SCT045CB=
201808172300 TAF LRBS 172300Z 1800/1824 26005KT CAVOK
                      BECMG 1805/1807 02010KT=
201808180500 TAF LRBS 180500Z 1806/1906 VRB04KT CAVOK
                      BECMG 1808/1810 03010KT
                      TEMPO 1813/1817 SCT045CB=
201808181100 TAF LRBS 181100Z 1812/1912 05010KT CAVOK
                      PROB40 TEMPO 1813/1817 VRB15G25KT 5000 -TSRA
                       SCT045CB=
201808181700 TAF LRBS 181700Z 1818/1918 05008KT CAVOK
                      TEMPO 1818/1823 VRB15G25KT 3000 TSRA BKN045CB
                       TEMPO 1914/1918 VRB15G25KT 5000 TSRA SCT040CB=
201808182300 TAF LRBS 182300Z 1900/1924 05008KT CAVOK
                      TEMPO 1914/1920 VRB15G25KT 5000 TSRA SCT040CB=
201808190500 TAF LRBS 190500Z 1906/2006 VRB04KT CAVOK
                      BECMG 1912/1913 SCT050CB
                      TEMPO 1914/1918 VRB18KT 5000 TSRA
                      BECMG 1918/1920 NSC=
201808191100 TAF LRBS 191100Z 1912/2012 VRB04KT CAVOK
                      BECMG 1912/1914 SCT050CB
                      PROB40 TEMPO 1914/1918 VRB18KT 5000 TSRA
                       BECMG 1918/1919 NSC
                      TEMPO 2011/2012 FEW050CB=
201808191700 TAF LRBS 191700Z 1918/2018 03008KT CAVOK
                      BECMG 2011/2013 SCT045CB
                      TEMPO 2013/2018 VRB15G25KT 3000 TSRA=
201808192300 TAF LRBS 192300Z 2000/2024 03008KT CAVOK
                      BECMG 2011/2013 SCT045CB
                      TEMPO 2013/2017 VRB15G25KT 5000 -TSRA
                      BECMG 2017/2019 NSC=
201808200500 TAF LRBS 200500Z 2006/2106 05006KT CAVOK
                      BECMG 2011/2013 SCT040CB
                      TEMPO 2013/2017 VRB18G28KT 5000 TSRA
                      BECMG 2017/2019 NSC=
201808201100 TAF LRBS 201100Z 2012/2112 08006KT CAVOK
                      TEMPO 2012/2017 SCT040CB
                      PROB40 TEMPO 2012/2016 VRB18G28KT 5000 TSRA=
201808201700 TAF LRBS 201700Z 2018/2118 VRB03KT CAVOK
                      PROB30 TEMPO 2113/2116 FEW050CB=
201808202300 TAF LRBS 202300Z 2100/2124 03005KT CAVOK
                      PROB30 TEMPO 2113/2116 FEW050CB=
201808210500 TAF LRBS 210500Z 2106/2206 03006KT CAVOK
                      TEMPO 2112/2116 SCT040CB
                      PROB30 TEMPO 2113/2116 VRB20G30KT 5000 -TSRA
                       BKN030CB=
201808211100 TAF LRBS 211100Z 2112/2212 VRB04KT CAVOK
                      TEMPO 2112/2116 SCT040CB
                      PROB30 TEMPO 2113/2116 VRB20G30KT 5000 -TSRA
                       BKN030CB=
201808211700 TAF LRBS 211700Z 2118/2218 VRB04KT CAVOK
                      BECMG 2207/2209 05010KT
                      PROB30 TEMPO 2214/2218 VRB18G28KT 3000 TSRA
                       SCT040CB=
201808212300 TAF LRBS 212300Z 2200/2224 VRB04KT CAVOK
                      BECMG 2207/2209 05010KT
                      PROB30 TEMPO 2214/2218 VRB18G28KT 3000 TSRA
                       SCT040CB
                      BECMG 2218/2220 VRB04KT=
201808220500 TAF LRBS 220500Z 2206/2306 VRB03KT CAVOK
                      BECMG 2206/2208 05012KT
                      TEMPO 2212/2217 SCT040CB
                      PROB40 2213/2216 VRB17G27KT 5000 -TSRA
                      BECMG 2218/2220 VRB04KT=
201808221100 TAF LRBS 221100Z 2212/2312 06010KT CAVOK
                      TEMPO 2213/2218 SCT040CB
                      PROB40 2214/2217 VRB20KT 5000 -TSRA
                      BECMG 2217/2219 VRB04KT
                      BECMG 2305/2307 06010KT=
201808221700 TAF LRBS 221700Z 2218/2318 04008KT CAVOK
                      PROB30 TEMPO 2301/2305 5000 -TSRA SCT030CB
                       TEMPO 2312/2317 SCT030CB=
201808222300 TAF LRBS 222300Z 2300/2324 04008KT CAVOK
                      PROB30 TEMPO 2301/2305 5000 -TSRA SCT030CB
                       TEMPO 2312/2317 SCT030CB=
201808230500 TAF LRBS 230500Z 2306/2406 06008KT CAVOK
                      TEMPO 2312/2318 FEW050CB=
201808231100 TAF LRBS 231100Z 2312/2412 06008KT CAVOK
                      TEMPO 2313/2318 FEW050CB=
201808231700 TAF LRBS 231700Z 2318/2418 VRB04KT CAVOK
                      BECMG 2407/2409 05010KT=
201808232300 TAF LRBS 232300Z 2400/2424 VRB04KT CAVOK
                      BECMG 2407/2409 05010KT
                      BECMG 2417/2419 VRB04KT=
201808240500 TAF LRBS 240500Z 2406/2506 VRB04KT CAVOK
                      BECMG 2407/2409 07010KT
                      PROB40 TEMPO 2415/2418 VRB20KT 5000 -TSRA
                       SCT040CB
                      BECMG 2418/2420 VRB04KT=
201808241100 TAF LRBS 241100Z 2412/2512 07008KT CAVOK
                      PROB30 TEMPO 2415/2418 VRB20KT 5000 -TSRA
                       SCT040CB=
201808241700 TAF LRBS 241700Z 2418/2518 07008KT CAVOK=
201808242300 TAF LRBS 242300Z 2500/2524 07008KT CAVOK=
201808250500 TAF LRBS 250500Z 2506/2606 07008KT CAVOK=
201808251100 TAF LRBS 251100Z 2512/2612 VRB04KT CAVOK=
201808251700 TAF LRBS 251700Z 2518/2618 VRB04KT CAVOK=
201808252300 TAF LRBS 252300Z 2600/2624 VRB04KT CAVOK=
201808260500 TAF LRBS 260500Z 2606/2706 05007KT CAVOK=
201808261100 TAF LRBS 261100Z 2612/2712 VRB04KT CAVOK
                      BECMG 2706/2708 06010KT=
201808261700 TAF LRBS 261700Z 2618/2718 VRB04KT CAVOK
                      BECMG 2706/2708 07012KT=
201808262300 TAF LRBS 262300Z 2700/2724 VRB04KT CAVOK
                      BECMG 2706/2708 07012KT
                      BECMG 2716/2718 VRB04KT
                      PROB30 TEMPO 2720/2724 VRB20G30KT 3000 TSRA
                       BKN010 BKN030CB=
201808270500 TAF LRBS 270500Z 2706/2806 06010KT CAVOK
                      PROB30 TEMPO 2720/2724 VRB20G30KT 3000 TSRA
                       BKN010 BKN030CB
                      BECMG 2800/2802 27006KT=
201808271100 TAF LRBS 271100Z 2712/2812 06010KT CAVOK
                      PROB30 TEMPO 2720/2724 VRB20G30KT 3000 TSRA
                       BKN010 BKN030CB
                      BECMG 2800/2802 27006KT=
201808271700 TAF LRBS 271700Z 2718/2818 05007KT CAVOK
                      PROB30 TEMPO 2718/2723 SCT040CB
                      PROB30 TEMPO 2813/2818 5000 -TSRA SCT040CB=
201808272300 TAF LRBS 272300Z 2800/2824 04006KT CAVOK
                      PROB30 TEMPO 2813/2818 5000 -TSRA SCT040CB=
201808280500 TAF LRBS 280500Z 2806/2906 26005KT CAVOK
                      TEMPO 2813/2817 SCT040CB
                      PROB30 TEMPO 2814/2817 VRB18G28KT 5000 -TSRA=
201808281100 TAF LRBS 281100Z 2812/2912 VRB04KT CAVOK
                      TEMPO 2813/2817 SCT040CB
                      PROB30 TEMPO 2814/2817 VRB18G28KT 5000 -TSRA=
201808281700 TAF LRBS 281700Z 2818/2918 VRB04KT CAVOK
                      PROB40 TEMPO 2818/2821 TS FEW050CB
                      TEMPO 2913/2918 VRB15G25KT -TSRA SCT040CB=
201808282300 TAF LRBS 282300Z 2900/2924 VRB04KT CAVOK
                      TEMPO 2913/2918 VRB15G25KT -TSRA SCT040CB=
201808290500 TAF LRBS 290500Z 2906/3006 VRB04KT CAVOK
                      TEMPO 2913/2918 VRB15G25KT 5000 -TSRA SCT040CB=
201808291100 TAF LRBS 291100Z 2912/3012 VRB04KT 9999 SCT045
                      TEMPO 2913/2918 VRB15G25KT 5000 -TSRA SCT040CB=
201808291700 TAF LRBS 291700Z 2918/3018 08006KT CAVOK
                      TEMPO 2918/2920 TS SCT050CB=
201808292300 TAF LRBS 292300Z 3000/3024 06006KT CAVOK=
201808300500 TAF LRBS 300500Z 3006/3106 VRB04KT CAVOK
                      PROB30 TEMPO 3013/3018 TS SCT045CB=
201808301100 TAF LRBS 301100Z 3012/3112 VRB04KT CAVOK
                      PROB30 TEMPO 3014/3019 TS SCT045CB=
201808301700 TAF LRBS 301700Z 3018/3118 VRB04KT CAVOK
                      BECMG 3109/3111 06010KT=
201808302300 TAF LRBS 302300Z 3100/3124 VRB04KT CAVOK
                      TEMPO 3111/3119 06010KT=
201808310500 TAF LRBS 310500Z 3106/0106 VRB04KT CAVOK
                      BECMG 3107/3109 06010KT
                      BECMG 3116/3118 VRB04KT=
201808311100 TAF LRBS 311100Z 3112/0112 VRB04KT CAVOK=
201808311700 TAF LRBS 311700Z 3118/0118 VRB04KT CAVOK
                      BECMG 0104/0106 06010KT=
201808312300 TAF LRBS 312300Z 0100/0124 VRB04KT CAVOK
                      BECMG 0104/0106 06010KT=