201809010000 METAR COR LRBS 010000Z 29001KT CAVOK 19/14 Q1018 NOSIG=
201809010030 METAR LRBS 010030Z 27001KT CAVOK 19/14 Q1018 NOSIG=
201809010100 METAR LRBS 010100Z 26003KT CAVOK 18/14 Q1018 NOSIG=
201809010130 METAR LRBS 010130Z 30001KT CAVOK 18/14 Q1018 NOSIG=
201809010200 METAR LRBS 010200Z 25002KT 8000 NSC 18/14 Q1018 NOSIG=
201809010230 METAR LRBS 010230Z 28001KT 9000 NSC 18/14 Q1018 NOSIG=
201809010300 METAR LRBS 010300Z VRB03KT 9000 NSC 17/14 Q1018 NOSIG=
201809010330 METAR LRBS 010330Z 31003KT 8000 NSC 18/14 Q1018 NOSIG=
201809010400 METAR LRBS 010400Z VRB02KT CAVOK 17/14 Q1019 NOSIG=
201809010430 METAR LRBS 010430Z VRB01KT CAVOK 18/13 Q1019 NOSIG=
201809010500 METAR LRBS 010500Z 36003KT 330V040 CAVOK 20/13 Q1019 NOSIG=
201809010530 METAR LRBS 010530Z 02003KT 320V060 CAVOK 22/12 Q1019 NOSIG=
201809010600 METAR LRBS 010600Z 03005KT 350V060 CAVOK 23/12 Q1019 NOSIG=
201809010630 METAR LRBS 010630Z 03006KT 340V070 CAVOK 25/12 Q1019 NOSIG=
201809010700 METAR LRBS 010700Z 04009KT 360V080 CAVOK 27/11 Q1019 NOSIG=
201809010730 METAR LRBS 010730Z 03009KT 360V060 CAVOK 28/11 Q1019 NOSIG=
201809010800 METAR LRBS 010800Z 03010KT 350V060 CAVOK 28/10 Q1019 NOSIG=
201809010830 METAR LRBS 010830Z 03010KT 320V070 CAVOK 29/10 Q1019 NOSIG=
201809010900 METAR LRBS 010900Z 04010KT 010V090 CAVOK 30/10 Q1018 NOSIG=
201809010930 METAR LRBS 010930Z 03010KT 350V060 CAVOK 31/10 Q1018 NOSIG=
201809011000 METAR LRBS 011000Z 01010KT 320V060 CAVOK 31/10 Q1018 NOSIG=
201809011030 METAR LRBS 011030Z 03010KT 360V070 CAVOK 32/10 Q1018 NOSIG=
201809011100 METAR LRBS 011100Z 02009KT 340V070 CAVOK 32/09 Q1018 NOSIG=
201809011130 METAR LRBS 011130Z AUTO 02010KT 340V060 NCD 33/09 Q1018 NOSIG=
201809011200 METAR LRBS 011200Z 04010KT 340V090 CAVOK 33/09 Q1018 NOSIG=
201809011230 METAR LRBS 011230Z 03010KT 350V070 CAVOK 33/09 Q1017 NOSIG=
201809011300 METAR LRBS 011300Z 04010KT 340V080 CAVOK 33/08 Q1017 NOSIG=
201809011330 METAR LRBS 011330Z 04010KT 360V070 CAVOK 33/08 Q1017 NOSIG=
201809011400 METAR LRBS 011400Z 03009KT 360V090 CAVOK 33/09 Q1017 NOSIG=
201809011430 METAR LRBS 011430Z 03011KT 360V070 CAVOK 32/10 Q1017 NOSIG=
201809011500 METAR LRBS 011500Z 03011KT 350V070 CAVOK 32/10 Q1017 NOSIG=
201809011530 METAR LRBS 011530Z 02008KT 340V050 CAVOK 31/10 Q1017 NOSIG=
201809011600 METAR LRBS 011600Z 02006KT 330V060 CAVOK 30/10 Q1017 NOSIG=
201809011630 METAR LRBS 011630Z 02007KT CAVOK 30/10 Q1017 NOSIG=
201809011700 METAR LRBS 011700Z 02005KT CAVOK 29/10 Q1017 NOSIG=
201809011730 METAR LRBS 011730Z 03006KT 360V060 CAVOK 28/10 Q1017 NOSIG=
201809011800 METAR LRBS 011800Z 03004KT CAVOK 27/10 Q1018 NOSIG=
201809011830 METAR LRBS 011830Z 02004KT CAVOK 27/10 Q1018 NOSIG=
201809011900 METAR LRBS 011900Z 03002KT CAVOK 24/11 Q1018 NOSIG=
201809011930 METAR LRBS 011930Z 04003KT CAVOK 24/11 Q1018 NOSIG=
201809012000 METAR LRBS 012000Z 08002KT CAVOK 24/11 Q1018 NOSIG=
201809012030 METAR LRBS 012030Z 01003KT CAVOK 23/11 Q1018 NOSIG=
201809012100 METAR LRBS 012100Z 04003KT CAVOK 22/12 Q1018 NOSIG=
201809012130 METAR LRBS 012130Z 04003KT CAVOK 22/11 Q1018 NOSIG=
201809012200 METAR LRBS 012200Z 04003KT CAVOK 22/11 Q1018 NOSIG=
201809012230 METAR LRBS 012230Z VRB01KT CAVOK 21/12 Q1018 NOSIG=
201809012300 METAR LRBS 012300Z 29002KT CAVOK 21/12 Q1018 NOSIG=
201809012330 METAR LRBS 012330Z 30001KT CAVOK 21/12 Q1018 NOSIG=
201809020000 METAR LRBS 020000Z 29001KT CAVOK 20/12 Q1018 NOSIG=
201809020030 METAR LRBS 020030Z 00000KT CAVOK 20/12 Q1018 NOSIG=
201809020100 METAR LRBS 020100Z VRB01KT CAVOK 20/12 Q1018 NOSIG=
201809020130 METAR LRBS 020130Z 00000KT CAVOK 20/12 Q1018 NOSIG=
201809020200 METAR LRBS 020200Z AUTO VRB01KT SCT120/// 20/12 Q1018 NOSIG=
201809020230 METAR LRBS 020230Z AUTO VRB02KT SCT120/// 20/12 Q1018 NOSIG=
201809020300 METAR LRBS 020300Z VRB02KT CAVOK 20/12 Q1019 NOSIG=
201809020330 METAR LRBS 020330Z VRB02KT CAVOK 20/12 Q1019 NOSIG=
201809020400 METAR LRBS 020400Z 02003KT CAVOK 20/11 Q1019 NOSIG=
201809020430 METAR LRBS 020430Z 03004KT CAVOK 20/11 Q1019 NOSIG=
201809020500 METAR LRBS 020500Z 03003KT 360V070 CAVOK 22/10 Q1019 NOSIG=
201809020530 METAR LRBS 020530Z 04004KT 360V090 CAVOK 23/11 Q1019 NOSIG=
201809020600 METAR LRBS 020600Z 05004KT 020V090 CAVOK 24/10 Q1019 NOSIG=
201809020630 METAR LRBS 020630Z 05004KT 020V080 CAVOK 24/10 Q1019 NOSIG=
201809020700 METAR LRBS 020700Z 05007KT 010V090 CAVOK 27/10 Q1019 NOSIG=
201809020730 METAR LRBS 020730Z 05012KT 020V090 CAVOK 29/08 Q1019 NOSIG=
201809020800 METAR LRBS 020800Z 05009KT 360V070 CAVOK 29/08 Q1019 NOSIG=
201809020830 METAR LRBS 020830Z 05012KT 010V090 CAVOK 30/07 Q1019 NOSIG=
201809020900 METAR LRBS 020900Z 06011KT 010V090 CAVOK 31/08 Q1019 NOSIG=
201809020930 METAR LRBS 020930Z 06011KT 010V090 CAVOK 32/08 Q1019 NOSIG=
201809021000 METAR LRBS 021000Z 05012KT 020V090 CAVOK 32/07 Q1019 NOSIG=
201809021030 METAR LRBS 021030Z 06012KT 010V090 CAVOK 32/07 Q1019 NOSIG=
201809021100 METAR LRBS 021100Z 05011KT 020V090 CAVOK 33/07 Q1018 NOSIG=
201809021130 METAR LRBS 021130Z 05010KT 350V100 CAVOK 33/07 Q1018 NOSIG=
201809021200 METAR LRBS 021200Z 05011KT 360V090 CAVOK 33/06 Q1018 NOSIG=
201809021230 METAR LRBS 021230Z 04011KT 360V070 CAVOK 33/07 Q1018 NOSIG=
201809021300 METAR LRBS 021300Z 05010KT 350V090 CAVOK 33/07 Q1018 NOSIG=
201809021330 METAR LRBS 021330Z 05011KT 360V090 CAVOK 33/07 Q1018 NOSIG=
201809021400 METAR LRBS 021400Z 05011KT 360V090 CAVOK 33/07 Q1018 NOSIG=
201809021430 METAR LRBS 021430Z 07014KT CAVOK 33/08 Q1017 NOSIG=
201809021500 METAR LRBS 021500Z 06012KT 020V090 CAVOK 32/08 Q1018 NOSIG=
201809021530 METAR LRBS 021530Z 05008KT 010V080 CAVOK 31/08 Q1018 NOSIG=
201809021600 METAR LRBS 021600Z 04006KT 360V080 CAVOK 30/09 Q1017 NOSIG=
201809021630 METAR LRBS 021630Z 03005KT 360V070 CAVOK 29/09 Q1017 NOSIG=
201809021700 METAR LRBS 021700Z 02005KT 350V050 CAVOK 28/09 Q1017 NOSIG=
201809021730 METAR LRBS 021730Z 02005KT 350V050 CAVOK 27/09 Q1018 NOSIG=
201809021800 METAR LRBS 021800Z 03006KT 360V060 CAVOK 27/09 Q1018 NOSIG=
201809021830 METAR LRBS 021830Z 04005KT CAVOK 26/09 Q1018 NOSIG=
201809021900 METAR LRBS 021900Z 04004KT CAVOK 25/10 Q1018 NOSIG=
201809021930 METAR LRBS 021930Z 04004KT 010V070 CAVOK 24/10 Q1018 NOSIG=
201809022000 METAR LRBS 022000Z 04003KT CAVOK 23/11 Q1018 NOSIG=
201809022030 METAR LRBS 022030Z 02002KT CAVOK 23/11 Q1018 NOSIG=
201809022100 METAR LRBS 022100Z VRB01KT CAVOK 22/11 Q1017 NOSIG=
201809022130 METAR LRBS 022130Z VRB01KT CAVOK 22/11 Q1017 NOSIG=
201809022200 METAR LRBS 022200Z 36001KT CAVOK 22/12 Q1017 NOSIG=
201809022230 METAR LRBS 022230Z 35001KT CAVOK 21/12 Q1017 NOSIG=
201809022300 METAR LRBS 022300Z 00000KT CAVOK 20/12 Q1017 NOSIG=
201809022330 METAR LRBS 022330Z 25003KT CAVOK 20/12 Q1017 NOSIG=
201809030000 METAR LRBS 030000Z 26002KT CAVOK 19/13 Q1017 NOSIG=
201809030030 METAR LRBS 030030Z 26002KT CAVOK 19/13 Q1017 NOSIG=
201809030100 METAR LRBS 030100Z 27002KT CAVOK 19/13 Q1016 NOSIG=
201809030130 METAR LRBS 030130Z 25002KT CAVOK 18/13 Q1016 NOSIG=
201809030200 METAR LRBS 030200Z VRB02KT CAVOK 19/13 Q1016 NOSIG=
201809030230 METAR LRBS 030230Z VRB01KT CAVOK 18/13 Q1016 NOSIG=
201809030300 METAR LRBS 030300Z VRB01KT CAVOK 18/13 Q1016 NOSIG=
201809030330 METAR LRBS 030330Z 25002KT CAVOK 18/13 Q1016 NOSIG=
201809030400 METAR LRBS 030400Z 27001KT CAVOK 19/12 Q1016 NOSIG=
201809030430 METAR LRBS 030430Z 00000KT CAVOK 19/12 Q1016 NOSIG=
201809030500 METAR LRBS 030500Z VRB02KT CAVOK 19/12 Q1016 BECMG 06012KT=
201809030530 METAR LRBS 030530Z 05003KT 020V100 CAVOK 21/13 Q1016 NOSIG=
201809030600 METAR LRBS 030600Z 05005KT 010V090 CAVOK 22/13 Q1016 NOSIG=
201809030630 METAR LRBS 030630Z 06012KT CAVOK 25/13 Q1016 NOSIG=
201809030700 METAR LRBS 030700Z 06009KT 020V100 CAVOK 26/13 Q1016 NOSIG=
201809030730 METAR LRBS 030730Z 06010KT 030V100 CAVOK 27/12 Q1016 NOSIG=
201809030800 METAR LRBS 030800Z 07010KT CAVOK 28/11 Q1016 NOSIG=
201809030830 METAR LRBS 030830Z 08012KT CAVOK 29/11 Q1016 NOSIG=
201809030900 METAR LRBS 030900Z 06012KT 030V090 CAVOK 30/10 Q1015 NOSIG=
201809030930 METAR LRBS 030930Z 06012KT 010V090 CAVOK 30/10 Q1015 NOSIG=
201809031000 METAR LRBS 031000Z 07011KT 360V110 CAVOK 31/09 Q1015 NOSIG=
201809031030 METAR LRBS 031030Z 06010KT 010V100 CAVOK 31/07 Q1014 NOSIG=
201809031100 METAR LRBS 031100Z 08012KT 040V120 CAVOK 31/07 Q1014 NOSIG=
201809031130 METAR LRBS 031130Z 07012KT 020V110 CAVOK 32/06 Q1014 NOSIG=
201809031200 METAR LRBS 031200Z 07010KT 020V110 CAVOK 32/07 Q1014 NOSIG=
201809031230 METAR LRBS 031230Z 07010KT 020V100 CAVOK 31/07 Q1013 NOSIG=
201809031300 METAR LRBS 031300Z 06010KT 020V100 CAVOK 31/07 Q1013 NOSIG=
201809031330 METAR LRBS 031330Z 05008KT 340V080 CAVOK 31/07 Q1013 NOSIG=
201809031400 METAR LRBS 031400Z 06011KT 040V100 CAVOK 31/06 Q1013 NOSIG=
201809031430 METAR LRBS 031430Z 07011KT 040V100 CAVOK 32/06 Q1012 NOSIG=
201809031500 METAR LRBS 031500Z 06012KT 020V100 CAVOK 31/05 Q1012 NOSIG=
201809031530 METAR LRBS 031530Z 07010KT CAVOK 30/05 Q1012 NOSIG=
201809031600 METAR LRBS 031600Z 05008KT 020V080 CAVOK 29/04 Q1012 NOSIG=
201809031630 METAR LRBS 031630Z 04004KT CAVOK 27/05 Q1012 NOSIG=
201809031700 METAR LRBS 031700Z 03003KT CAVOK 26/05 Q1012 NOSIG=
201809031730 METAR LRBS 031730Z 02004KT 360V060 CAVOK 25/06 Q1013 NOSIG=
201809031800 METAR LRBS 031800Z 05003KT CAVOK 23/07 Q1013 NOSIG=
201809031830 METAR LRBS 031830Z 07004KT 040V100 CAVOK 23/08 Q1013 NOSIG=
201809031900 METAR LRBS 031900Z VRB01KT CAVOK 23/08 Q1012 NOSIG=
201809031930 METAR LRBS 031930Z 04003KT CAVOK 21/08 Q1012 NOSIG=
201809032000 METAR LRBS 032000Z 05002KT CAVOK 23/07 Q1012 NOSIG=
201809032030 METAR LRBS 032030Z 06003KT CAVOK 21/09 Q1012 NOSIG=
201809032100 METAR LRBS 032100Z 03001KT CAVOK 20/09 Q1012 NOSIG=
201809032130 METAR LRBS 032130Z 01002KT CAVOK 21/09 Q1012 NOSIG=
201809032200 METAR LRBS 032200Z VRB02KT CAVOK 19/10 Q1012 NOSIG=
201809032230 METAR LRBS 032230Z VRB02KT CAVOK 20/09 Q1012 NOSIG=
201809032300 METAR COR LRBS 032300Z VRB02KT CAVOK 20/09 Q1012 NOSIG=
201809032330 METAR LRBS 032330Z VRB02KT CAVOK 19/09 Q1012 NOSIG=
201809040000 METAR COR LRBS 040000Z VRB01KT CAVOK 20/08 Q1012 NOSIG=
201809040030 METAR LRBS 040030Z VRB01KT CAVOK 20/08 Q1012 NOSIG=
201809040100 METAR LRBS 040100Z VRB02KT CAVOK 19/09 Q1011 NOSIG=
201809040130 METAR LRBS 040130Z 00000KT CAVOK 19/09 Q1011 NOSIG=
201809040200 METAR LRBS 040200Z 24001KT CAVOK 19/09 Q1011 NOSIG=
201809040230 METAR LRBS 040230Z 00000KT CAVOK 19/10 Q1011 NOSIG=
201809040300 METAR LRBS 040300Z 00000KT CAVOK 18/10 Q1012 NOSIG=
201809040330 METAR LRBS 040330Z VRB02KT CAVOK 18/10 Q1011 NOSIG=
201809040400 METAR LRBS 040400Z 07002KT CAVOK 17/11 Q1011 NOSIG=
201809040430 METAR LRBS 040430Z 06001KT CAVOK 18/11 Q1011 NOSIG=
201809040500 METAR LRBS 040500Z 00000KT CAVOK 19/11 Q1011 NOSIG=
201809040530 METAR LRBS 040530Z 04003KT 360V070 CAVOK 21/10 Q1011 NOSIG=
201809040600 METAR LRBS 040600Z 06004KT 020V090 CAVOK 22/09 Q1011 NOSIG=
201809040630 METAR LRBS 040630Z 05004KT 020V090 CAVOK 23/08 Q1011 NOSIG=
201809040700 METAR LRBS 040700Z 06006KT 020V080 CAVOK 24/08 Q1011 NOSIG=
201809040730 METAR LRBS 040730Z VRB01KT CAVOK 24/08 Q1012 NOSIG=
201809040800 METAR LRBS 040800Z VRB02KT CAVOK 25/07 Q1012 NOSIG=
201809040830 METAR LRBS 040830Z VRB01KT CAVOK 25/08 Q1012 NOSIG=
201809040900 METAR LRBS 040900Z 00000KT CAVOK 25/09 Q1011 NOSIG=
201809040930 METAR LRBS 040930Z 23005KT 190V270 CAVOK 25/11 Q1011 NOSIG=
201809041000 METAR LRBS 041000Z 30003KT 260V350 CAVOK 26/09 Q1011 NOSIG=
201809041030 METAR LRBS 041030Z 27004KT 240V320 CAVOK 27/07 Q1011 NOSIG=
201809041100 METAR COR LRBS 041100Z VRB03KT CAVOK 28/07 Q1011 NOSIG=
201809041130 METAR LRBS 041130Z VRB02KT CAVOK 29/06 Q1011 NOSIG=
201809041200 METAR LRBS 041200Z VRB03KT CAVOK 29/07 Q1010 NOSIG=
201809041230 METAR LRBS 041230Z VRB03KT CAVOK 29/07 Q1010 NOSIG=
201809041300 METAR LRBS 041300Z VRB03KT CAVOK 30/07 Q1010 NOSIG=
201809041330 METAR LRBS 041330Z 03003KT 300V110 CAVOK 30/06 Q1009 NOSIG=
201809041400 METAR LRBS 041400Z VRB05KT CAVOK 30/06 Q1009 NOSIG=
201809041430 METAR LRBS 041430Z 03005KT 360V090 CAVOK 29/06 Q1009 NOSIG=
201809041500 METAR LRBS 041500Z 01003KT 300V070 CAVOK 29/07 Q1009 NOSIG=
201809041530 METAR LRBS 041530Z 01003KT 350V070 CAVOK 29/07 Q1009 NOSIG=
201809041600 METAR LRBS 041600Z VRB02KT CAVOK 29/07 Q1009 NOSIG=
201809041630 METAR LRBS 041630Z 36002KT CAVOK 28/08 Q1009 NOSIG=
201809041700 METAR LRBS 041700Z 35001KT CAVOK 26/11 Q1009 NOSIG=
201809041730 METAR LRBS 041730Z 28001KT CAVOK 24/11 Q1009 NOSIG=
201809041800 METAR LRBS 041800Z 27002KT CAVOK 23/11 Q1010 NOSIG=
201809041830 METAR LRBS 041830Z 27002KT CAVOK 23/11 Q1010 NOSIG=
201809041900 METAR LRBS 041900Z 31001KT CAVOK 23/10 Q1010 NOSIG=
201809041930 METAR LRBS 041930Z VRB01KT CAVOK 22/11 Q1010 NOSIG=
201809042000 METAR LRBS 042000Z 31002KT CAVOK 21/11 Q1010 NOSIG=
201809042030 METAR LRBS 042030Z 30003KT 240V350 CAVOK 20/10 Q1010 NOSIG=
201809042100 METAR LRBS 042100Z 31004KT 240V010 CAVOK 21/10 Q1010 NOSIG=
201809042130 METAR LRBS 042130Z 31004KT 240V010 CAVOK 20/11 Q1009 NOSIG=
201809042200 METAR LRBS 042200Z VRB02KT CAVOK 20/11 Q1009 NOSIG=
201809042230 METAR LRBS 042230Z 27004KT CAVOK 19/11 Q1009 NOSIG=
201809042300 METAR LRBS 042300Z 27001KT CAVOK 19/12 Q1009 NOSIG=
201809042330 METAR LRBS 042330Z VRB02KT CAVOK 18/12 Q1009 NOSIG=
201809050000 METAR LRBS 050000Z VRB02KT CAVOK 18/12 Q1009 NOSIG=
201809050030 METAR LRBS 050030Z 00000KT CAVOK 19/12 Q1009 NOSIG=
201809050100 METAR LRBS 050100Z VRB01KT CAVOK 19/11 Q1009 NOSIG=
201809050130 METAR LRBS 050130Z 24001KT CAVOK 19/11 Q1009 NOSIG=
201809050200 METAR LRBS 050200Z 24003G13KT CAVOK 20/12 Q1009 NOSIG=
201809050230 METAR LRBS 050230Z 27007KT 240V310 CAVOK 20/12 Q1009 NOSIG=
201809050300 METAR LRBS 050300Z 27006KT 240V310 9999 FEW045CB 20/12 Q1009
                        TEMPO 5000 -SHRA=
201809050330 METAR LRBS 050330Z 26005KT 240V310 9999 FEW045CB 19/13 Q1010
                        NOSIG=
201809050400 METAR LRBS 050400Z 27004KT 240V300 9999 FEW045CB 19/13 Q1010
                        TEMPO 5000 -TSRA=
201809050430 METAR COR LRBS 050430Z 27006KT 240V310 9999 -SHRA FEW045CB
                        19/13 Q1010 TEMPO 5000 -TSRA=
201809050500 METAR LRBS 050500Z 26008KT 9999 FEW045CB 19/13 Q1010 NOSIG=
201809050530 METAR LRBS 050530Z 27007KT 230V310 CAVOK 19/14 Q1010 NOSIG=
201809050600 METAR LRBS 050600Z 26007KT 230V310 CAVOK 19/14 Q1010 NOSIG=
201809050630 METAR LRBS 050630Z 27006KT 240V310 CAVOK 20/15 Q1010 NOSIG=
201809050700 METAR LRBS 050700Z 30004KT 250V010 CAVOK 21/14 Q1010 NOSIG=
201809050730 METAR LRBS 050730Z 27006KT 240V300 CAVOK 21/14 Q1011 NOSIG=
201809050800 METAR LRBS 050800Z 27004KT 220V340 CAVOK 22/14 Q1011 NOSIG=
201809050830 METAR LRBS 050830Z 29003KT CAVOK 22/14 Q1011 NOSIG=
201809050900 METAR LRBS 050900Z 24004KT 200V280 CAVOK 23/14 Q1011 NOSIG=
201809050930 METAR LRBS 050930Z 27003KT 220V340 CAVOK 23/14 Q1011 NOSIG=
201809051000 METAR LRBS 051000Z 27004KT 220V310 CAVOK 23/14 Q1011 NOSIG=
201809051030 METAR LRBS 051030Z 28003KT 220V340 CAVOK 23/14 Q1011 NOSIG=
201809051100 METAR LRBS 051100Z 26006KT CAVOK 23/15 Q1010 NOSIG=
201809051130 METAR LRBS 051130Z 27004KT 200V310 CAVOK 24/14 Q1010 NOSIG=
201809051200 METAR LRBS 051200Z 26003KT 210V320 9999 FEW045CB 25/13 Q1010
                        TEMPO 5000 -TSRA=
201809051230 METAR LRBS 051230Z 32003KT 280V010 9999 FEW045CB 25/14 Q1010
                        TEMPO 5000 -TSRA=
201809051300 METAR LRBS 051300Z 33005KT 270V030 9999 FEW045CB 24/14 Q1010
                        NOSIG=
201809051330 METAR LRBS 051330Z 33004KT 240V050 9999 FEW040CB 24/11 Q1010
                        NOSIG=
201809051400 METAR LRBS 051400Z 35003KT 290V060 9999 FEW035 24/11 Q1010
                        NOSIG=
201809051430 METAR LRBS 051430Z 36003KT 330V050 9999 FEW035 24/12 Q1010
                        NOSIG=
201809051500 METAR LRBS 051500Z 01004KT 320V050 9999 FEW045 23/14 Q1010
                        NOSIG=
201809051530 METAR LRBS 051530Z 35004KT 320V040 CAVOK 23/14 Q1010 NOSIG=
201809051600 METAR LRBS 051600Z 36004KT 330V040 CAVOK 23/15 Q1010 NOSIG=
201809051630 METAR LRBS 051630Z 01003KT 320V050 CAVOK 23/14 Q1010 NOSIG=
201809051700 METAR LRBS 051700Z VRB01KT CAVOK 22/14 Q1010 NOSIG=
201809051730 METAR LRBS 051730Z 02002KT CAVOK 22/14 Q1010 NOSIG=
201809051800 METAR LRBS 051800Z 02003KT CAVOK 22/13 Q1010 NOSIG=
201809051830 METAR LRBS 051830Z 03002KT CAVOK 21/14 Q1011 NOSIG=
201809051900 METAR LRBS 051900Z 06002KT CAVOK 20/14 Q1010 NOSIG=
201809051930 METAR LRBS 051930Z 06004KT CAVOK 20/13 Q1010 NOSIG=
201809052000 METAR COR LRBS 052000Z 04003KT 9999 FEW050CB 21/13 Q1010
                        TEMPO 5000 SHRA=
201809052030 METAR LRBS 052030Z 36003KT 9999 FEW050CB 21/13 Q1010 TEMPO
                        5000 SHRA=
201809052100 METAR LRBS 052100Z 34003KT 300V030 9999 -SHRA FEW043 SCT047CB
                        19/15 Q1010 R07/29//95 TEMPO 5000
                        SHRA=
201809052130 METAR LRBS 052130Z 02004KT 350V060 9999 FEW048CB 19/15 Q1010
                        R07/29//95 TEMPO 5000 SHRA=
201809052200 METAR LRBS 052200Z 36004KT 310V050 9999 FEW045CB 19/15 Q1010
                        R07/29//95 TEMPO 5000 SHRA=
201809052230 METAR LRBS 052230Z VRB02KT 9999 FEW036 FEW045CB 18/16 Q1010
                        R07/29//95 NOSIG=
201809052300 METAR LRBS 052300Z VRB02KT 9999 FEW035 FEW045CB 18/15 Q1010
                        R07/29//95 NOSIG=
201809052330 METAR LRBS 052330Z 23003KT 9999 FEW945CB 18/15 Q1010 R07/29//95
                        NOSIG=
201809060000 METAR LRBS 060000Z 24003KT CAVOK 18/16 Q1010 R07/29//95 NOSIG=
201809060030 METAR LRBS 060030Z 24003KT CAVOK 18/16 Q1010 R07/29//95 NOSIG=
201809060100 METAR LRBS 060100Z 25002KT CAVOK 18/16 Q1009 R07/29//95 NOSIG=
201809060130 METAR COR LRBS 060130Z VRB01KT CAVOK 18/16 Q1009 R07/29//95
                        NOSIG=
201809060200 METAR LRBS 060200Z VRB02KT CAVOK 18/16 Q1009 R07/29//95 NOSIG=
201809060230 METAR LRBS 060230Z 28004KT 260V320 CAVOK 18/16 Q1009 R07/29//95
                        NOSIG=
201809060300 METAR LRBS 060300Z 26003KT 240V300 CAVOK 18/16 Q1009 R07/29//95
                        NOSIG=
201809060330 METAR LRBS 060330Z 27003KT 230V290 CAVOK 18/16 Q1009 R07/19//95
                        NOSIG=
201809060400 METAR LRBS 060400Z 27003KT CAVOK 18/16 Q1009 R07/19//95 NOSIG=
201809060430 METAR LRBS 060430Z VRB02KT CAVOK 18/16 Q1010 R07/19//95 NOSIG=
201809060500 METAR LRBS 060500Z VRB02KT CAVOK 18/16 Q1010 R07/19//95 NOSIG=
201809060530 METAR LRBS 060530Z VRB01KT CAVOK 19/15 Q1010 R07/19//95 NOSIG=
201809060600 METAR LRBS 060600Z 09001KT CAVOK 19/15 Q1010 R07/19//95 NOSIG=
201809060630 METAR LRBS 060630Z VRB01KT CAVOK 20/15 Q1010 R07/19//95 NOSIG=
201809060700 METAR COR LRBS 060700Z 00000KT 9999 -RA NSC 20/15 Q1010 R07/19//95
                        TEMPO 5000 SHRA SCT030CB=
201809060730 METAR LRBS 060730Z 26003KT 220V340 9999 FEW025 21/15 Q1010
                        R07/19//95 NOSIG=
201809060800 METAR LRBS 060800Z VRB02KT CAVOK 21/15 Q1010 R07/19//95 NOSIG=
201809060830 METAR LRBS 060830Z VRB03KT 9999 VCTS FEW030CB 22/15 Q1010
                        R07/19//95 NOSIG=
201809060900 METAR LRBS 060900Z 20002KT 9999 FEW024 23/14 Q1010 R07/19//95
                        NOSIG=
201809060930 METAR LRBS 060930Z 34003KT 9999 SCT028 24/14 Q1009 R07/19//95
                        NOSIG=
201809061000 METAR LRBS 061000Z VRB03KT 9999 FEW031 SCT039 24/13 Q1009
                        R07/19//95 NOSIG=
201809061030 METAR LRBS 061030Z VRB05KT 9999 FEW044 26/11 Q1009 R07/19//95
                        NOSIG=
201809061100 METAR LRBS 061100Z VRB03KT 9999 SCT043 25/11 Q1009 R07/19//95
                        NOSIG=
201809061130 METAR LRBS 061130Z 01004KT 300V080 9999 SCT045 25/11 Q1009
                        R07/19//95 NOSIG=
201809061200 METAR COR LRBS 061200Z 05003KT 340V110 9999 FEW050CB 26/11
                        Q1009 R07/29//95 TEMPO 5000 TSRA=
201809061230 METAR LRBS 061230Z VRB03KT 9999 FEW050CB 22/15 Q1009 R07/29//95
                        TEMPO 5000 TSRA=
201809061300 METAR LRBS 061300Z 00000KT 9999 FEW050CB 26/12 Q1009 R07/29//95
                        NOSIG=
201809061330 METAR LRBS 061330Z 34003KT 290V020 9999 FEW050CB 26/11 Q1009
                        R07/29//95 NOSIG=
201809061400 METAR LRBS 061400Z VRB02KT CAVOK 26/11 Q1008 R07/29//95 NOSIG=
201809061430 METAR LRBS 061430Z VRB01KT CAVOK 26/11 Q1008 R07/CLRD// NOSIG=
201809061500 METAR COR LRBS 061500Z 03004KT 340V100 CAVOK 26/10 Q1008
                        NOSIG=
201809061530 METAR LRBS 061530Z 01004KT 340V040 CAVOK 25/10 Q1008 NOSIG=
201809061600 METAR LRBS 061600Z 03003KT CAVOK 24/13 Q1008 NOSIG=
201809061630 METAR LRBS 061630Z 07003KT CAVOK 23/13 Q1008 NOSIG=
201809061700 METAR LRBS 061700Z 07002KT CAVOK 22/13 Q1008 NOSIG=
201809061730 METAR LRBS 061730Z 05004KT CAVOK 21/13 Q1009 NOSIG=
201809061800 METAR LRBS 061800Z 07001KT CAVOK 20/14 Q1009 NOSIG=
201809061830 METAR LRBS 061830Z VRB01KT CAVOK 20/13 Q1009 NOSIG=
201809061900 METAR LRBS 061900Z 06004KT 020V180 CAVOK 19/13 Q1009 NOSIG=
201809061930 METAR LRBS 061930Z 12001KT CAVOK 19/13 Q1009 NOSIG=
201809062000 METAR LRBS 062000Z 00000KT CAVOK 19/13 Q1009 NOSIG=
201809062030 METAR LRBS 062030Z VRB01KT CAVOK 20/13 Q1009 NOSIG=
201809062100 METAR LRBS 062100Z 06002KT CAVOK 18/14 Q1009 NOSIG=
201809062130 METAR LRBS 062130Z AUTO 06002KT BKN090/// 18/15 Q1009 NOSIG=
201809062200 METAR COR LRBS 062200Z 00000KT CAVOK 18/14 Q1009 NOSIG=
201809062230 METAR LRBS 062230Z VRB01KT CAVOK 18/14 Q1009 NOSIG=
201809062300 METAR LRBS 062300Z AUTO 04004KT NCD 18/13 Q1009 NOSIG=
201809062330 METAR COR LRBS 062330Z 04002KT CAVOK 16/13 Q1009 NOSIG=
201809070000 METAR LRBS 070000Z 05001KT CAVOK 16/13 Q1009 NOSIG=
201809070030 METAR LRBS 070030Z VRB01KT CAVOK 16/13 Q1009 NOSIG=
201809070100 METAR LRBS 070100Z 08002KT CAVOK 16/13 Q1009 NOSIG=
201809070130 METAR COR LRBS 070130Z VRB01KT CAVOK 15/14 Q1009 NOSIG=
201809070200 METAR LRBS 070200Z VRB01KT CAVOK 16/13 Q1009 NOSIG=
201809070230 METAR LRBS 070230Z 08003KT 050V110 CAVOK 15/12 Q1009 NOSIG=
201809070300 METAR LRBS 070300Z 03002KT CAVOK 15/13 Q1009 NOSIG=
201809070330 METAR LRBS 070330Z 00000KT CAVOK 15/13 Q1009 NOSIG=
201809070400 METAR LRBS 070400Z VRB01KT CAVOK 16/13 Q1009 NOSIG=
201809070430 METAR LRBS 070430Z VRB01KT CAVOK 16/13 Q1009 NOSIG=
201809070500 METAR LRBS 070500Z VRB02KT CAVOK 17/14 Q1009 NOSIG=
201809070530 METAR LRBS 070530Z VRB02KT CAVOK 18/13 Q1009 NOSIG=
201809070600 METAR LRBS 070600Z VRB01KT CAVOK 20/13 Q1009 NOSIG=
201809070630 METAR LRBS 070630Z 00000KT CAVOK 21/13 Q1009 NOSIG=
201809070700 METAR LRBS 070700Z VRB01KT CAVOK 23/12 Q1010 NOSIG=
201809070730 METAR LRBS 070730Z 23003KT 140V300 CAVOK 23/12 Q1010 NOSIG=
201809070800 METAR LRBS 070800Z VRB02KT CAVOK 25/12 Q1010 NOSIG=
201809070830 METAR LRBS 070830Z VRB01KT CAVOK 25/12 Q1010 NOSIG=
201809070900 METAR COR LRBS 070900Z VRB02KT CAVOK 26/12 Q1010 NOSIG=
201809070930 METAR LRBS 070930Z 07004KT 010V130 CAVOK 27/11 Q1010 NOSIG=
201809071000 METAR LRBS 071000Z VRB03KT CAVOK 27/10 Q1010 NOSIG=
201809071030 METAR LRBS 071030Z VRB01KT CAVOK 27/11 Q1010 NOSIG=
201809071100 METAR LRBS 071100Z VRB04KT CAVOK 27/11 Q1009 NOSIG=
201809071130 METAR LRBS 071130Z 25004KT 200V310 9999 FEW050CB 28/11 Q1009
                        NOSIG=
201809071200 METAR LRBS 071200Z VRB03KT 9999 FEW050CB 27/10 Q1009 NOSIG=
201809071230 METAR LRBS 071230Z 26006KT 210V320 9999 FEW050CB 29/09 Q1009
                        NOSIG=
201809071300 METAR COR LRBS 071300Z 24006KT 180V320 9999 FEW050CB 29/10
                        Q1009 NOSIG=
201809071330 METAR COR LRBS 071330Z VRB03KT 9999 FEW050CB 29/10 Q1009
                        TEMPO 5000 -SHRA=
201809071400 METAR LRBS 071400Z 28007KT 230V340 9999 SCT050CB 29/08 Q1009
                        TEMPO 5000 -SHRA=
201809071430 METAR LRBS 071430Z 05006KT 020V090 9999 SCT050CB 28/09 Q1009
                        NOSIG=
201809071500 METAR LRBS 071500Z 04004KT 360V090 9999 FEW050CB 27/09 Q1009
                        NOSIG=
201809071530 METAR LRBS 071530Z 05003KT 020V090 9999 FEW050CB 27/09 Q1009
                        NOSIG=
201809071600 METAR LRBS 071600Z 02003KT CAVOK 27/09 Q1009 NOSIG=
201809071630 METAR LRBS 071630Z 04002KT CAVOK 25/11 Q1009 NOSIG=
201809071700 METAR LRBS 071700Z 03002KT CAVOK 24/11 Q1010 NOSIG=
201809071730 METAR LRBS 071730Z 03001KT CAVOK 23/11 Q1010 NOSIG=
201809071800 METAR LRBS 071800Z 36004KT 340V040 CAVOK 23/10 Q1010 NOSIG=
201809071830 METAR LRBS 071830Z 01006KT 350V050 CAVOK 23/09 Q1011 NOSIG=
201809071900 METAR LRBS 071900Z 05006KT 020V080 CAVOK 21/10 Q1012 NOSIG=
201809071930 METAR LRBS 071930Z 08006KT CAVOK 20/10 Q1012 NOSIG=
201809072000 METAR LRBS 072000Z 07005KT CAVOK 19/10 Q1012 NOSIG=
201809072030 METAR LRBS 072030Z 08003KT CAVOK 19/10 Q1012 NOSIG=
201809072100 METAR LRBS 072100Z 07003KT CAVOK 19/10 Q1012 NOSIG=
201809072130 METAR LRBS 072130Z 07005KT CAVOK 18/10 Q1012 NOSIG=
201809072200 METAR LRBS 072200Z 07004KT CAVOK 18/10 Q1012 NOSIG=
201809072230 METAR LRBS 072230Z 09004KT CAVOK 19/10 Q1013 NOSIG=
201809072300 METAR LRBS 072300Z 07004KT CAVOK 18/11 Q1012 NOSIG=
201809072330 METAR LRBS 072330Z 06003KT 9999 FEW045CB 18/11 Q1013 NOSIG=
201809080000 METAR LRBS 080000Z 03003KT 9999 FEW045CB 17/11 Q1013 TEMPO
                        5000 SHRA=
201809080030 METAR LRBS 080030Z VRB01KT 7000 -SHRA FEW045CB 18/11 Q1013
                        TEMPO 5000 SHRA=
201809080100 METAR LRBS 080100Z 09002KT 9999 FEW045CB 18/13 Q1012 BECMG
                        NSC=
201809080130 METAR LRBS 080130Z 04002KT CAVOK 17/12 Q1012 NOSIG=
201809080200 METAR LRBS 080200Z 03001KT CAVOK 17/12 Q1013 NOSIG=
201809080230 METAR LRBS 080230Z 02001KT CAVOK 17/12 Q1013 NOSIG=
201809080300 METAR LRBS 080300Z 35002KT CAVOK 17/12 Q1013 NOSIG=
201809080330 METAR LRBS 080330Z VRB02KT CAVOK 17/12 Q1013 NOSIG=
201809080400 METAR LRBS 080400Z VRB02KT CAVOK 17/12 Q1013 NOSIG=
201809080430 METAR LRBS 080430Z VRB02KT CAVOK 18/12 Q1014 NOSIG=
201809080500 METAR LRBS 080500Z VRB01KT CAVOK 19/13 Q1014 NOSIG=
201809080530 METAR LRBS 080530Z VRB01KT CAVOK 19/13 Q1014 NOSIG=
201809080600 METAR LRBS 080600Z 02002KT CAVOK 19/12 Q1014 NOSIG=
201809080630 METAR LRBS 080630Z 06003KT 020V090 CAVOK 21/13 Q1014 NOSIG=
201809080700 METAR LRBS 080700Z 08004KT 040V120 CAVOK 22/12 Q1014 NOSIG=
201809080730 METAR LRBS 080730Z VRB02KT CAVOK 24/11 Q1014 NOSIG=
201809080800 METAR LRBS 080800Z VRB03KT CAVOK 25/11 Q1014 NOSIG=
201809080830 METAR LRBS 080830Z 10003KT 020V180 CAVOK 25/11 Q1014 NOSIG=
201809080900 METAR LRBS 080900Z VRB03KT CAVOK 26/11 Q1014 NOSIG=
201809080930 METAR LRBS 080930Z VRB03KT CAVOK 26/10 Q1014 NOSIG=
201809081000 METAR LRBS 081000Z VRB03KT CAVOK 27/10 Q1014 NOSIG=
201809081030 METAR LRBS 081030Z 12004KT 040V190 CAVOK 27/10 Q1014 NOSIG=
201809081100 METAR LRBS 081100Z VRB03KT CAVOK 27/10 Q1014 NOSIG=
201809081130 METAR LRBS 081130Z VRB03KT CAVOK 27/09 Q1014 NOSIG=
201809081200 METAR LRBS 081200Z 23003KT 150V320 CAVOK 28/09 Q1013 NOSIG=
201809081230 METAR LRBS 081230Z 24004KT 210V280 CAVOK 27/09 Q1013 NOSIG=
201809081300 METAR LRBS 081300Z 23003KT 150V280 CAVOK 27/09 Q1013 NOSIG=
201809081330 METAR LRBS 081330Z 22003KT 140V270 CAVOK 27/09 Q1013 NOSIG=
201809081400 METAR LRBS 081400Z 00000KT CAVOK 28/09 Q1013 NOSIG=
201809081430 METAR LRBS 081430Z VRB02KT CAVOK 28/09 Q1013 NOSIG=
201809081500 METAR LRBS 081500Z 30003KT 240V010 CAVOK 28/08 Q1013 NOSIG=
201809081530 METAR LRBS 081530Z VRB02KT CAVOK 28/08 Q1013 NOSIG=
201809081600 METAR LRBS 081600Z 02003KT 9999 FEW045CB 27/10 Q1014 NOSIG=
201809081630 METAR LRBS 081630Z 03003KT 9999 VCSH FEW045CB 25/11 Q1014
                        TEMPO 5000 -SHRA=
201809081700 METAR LRBS 081700Z 05013KT 010V070 9999 VCSH FEW045CB 23/11
                        Q1015 TEMPO 5000 -SHRA=
201809081730 METAR COR LRBS 081730Z 05010KT 010V080 8000 -SHRA SCT045CB
                        22/11 Q1015 TEMPO 5000 -SHRA=
201809081800 METAR LRBS 081800Z 04009KT 010V070 9999 -SHRA VCTS FEW014
                        FEW038CB 20/13 Q1016 R07/19//95 BECMG
                        NSW=
201809081830 METAR COR LRBS 081830Z 08008KT 9999 FEW040CB 20/13 Q1016
                        R07/19//95 NOSIG=
201809081900 METAR LRBS 081900Z 08007KT 9999 FEW040CB 19/12 Q1016 R07/19//95
                        NOSIG=
201809081930 METAR LRBS 081930Z 06007KT CAVOK 18/12 Q1016 R07/CLRD// NOSIG=
201809082000 METAR LRBS 082000Z 06005KT CAVOK 18/12 Q1017 NOSIG=
201809082030 METAR LRBS 082030Z 08004KT 050V110 CAVOK 18/12 Q1017 NOSIG=
201809082100 METAR LRBS 082100Z 01003KT CAVOK 18/12 Q1017 NOSIG=
201809082130 METAR LRBS 082130Z 07003KT 040V110 9999 FEW040CB 17/12 Q1017
                        NOSIG=
201809082200 METAR LRBS 082200Z VRB02KT CAVOK 18/12 Q1017 NOSIG=
201809082230 METAR LRBS 082230Z 04003KT CAVOK 18/12 Q1017 NOSIG=
201809082300 METAR LRBS 082300Z 02003KT CAVOK 17/12 Q1017 NOSIG=
201809082330 METAR LRBS 082330Z 01001KT CAVOK 17/12 Q1016 NOSIG=
201809090000 METAR LRBS 090000Z VRB02KT CAVOK 16/12 Q1016 NOSIG=
201809090030 METAR LRBS 090030Z 33003KT 290V010 CAVOK 16/12 Q1017 NOSIG=
201809090100 METAR LRBS 090100Z VRB01KT CAVOK 16/12 Q1016 NOSIG=
201809090130 METAR LRBS 090130Z VRB02KT CAVOK 15/12 Q1017 NOSIG=
201809090200 METAR LRBS 090200Z VRB02KT CAVOK 15/12 Q1016 NOSIG=
201809090230 METAR LRBS 090230Z 00000KT CAVOK 15/12 Q1017 NOSIG=
201809090300 METAR LRBS 090300Z 00000KT CAVOK 15/12 Q1017 NOSIG=
201809090330 METAR LRBS 090330Z 00000KT 8000 NSC 15/12 Q1017 NOSIG=
201809090400 METAR LRBS 090400Z 28002KT CAVOK 15/12 Q1017 NOSIG=
201809090430 METAR LRBS 090430Z VRB01KT CAVOK 15/12 Q1017 NOSIG=
201809090500 METAR LRBS 090500Z 00000KT CAVOK 16/13 Q1017 NOSIG=
201809090530 METAR LRBS 090530Z VRB01KT CAVOK 17/13 Q1017 NOSIG=
201809090600 METAR LRBS 090600Z 00000KT CAVOK 19/13 Q1017 NOSIG=
201809090630 METAR LRBS 090630Z 00000KT CAVOK 21/12 Q1017 NOSIG=
201809090700 METAR LRBS 090700Z 24004KT 200V310 CAVOK 21/12 Q1017 NOSIG=
201809090730 METAR LRBS 090730Z VRB03KT CAVOK 22/12 Q1017 NOSIG=
201809090800 METAR LRBS 090800Z 23004KT 180V280 CAVOK 23/11 Q1017 NOSIG=
201809090830 METAR COR LRBS 090830Z 27006KT 220V330 CAVOK 24/11 Q1017
                        NOSIG=
201809090900 METAR LRBS 090900Z VRB05KT CAVOK 24/11 Q1017 NOSIG=
201809090930 METAR LRBS 090930Z 25005KT 200V300 CAVOK 25/10 Q1016 NOSIG=
201809091000 METAR LRBS 091000Z 27006KT 190V360 CAVOK 26/11 Q1016 NOSIG=
201809091030 METAR LRBS 091030Z 27006KT 230V320 CAVOK 26/10 Q1015 NOSIG=
201809091100 METAR LRBS 091100Z 27007KT 220V010 CAVOK 27/10 Q1015 NOSIG=
201809091130 METAR LRBS 091130Z 27008KT 230V360 CAVOK 26/10 Q1015 NOSIG=
201809091200 METAR LRBS 091200Z 27006KT 220V360 CAVOK 28/09 Q1014 NOSIG=
201809091230 METAR LRBS 091230Z 27006KT 180V350 9999 FEW050CB 28/09 Q1014
                        NOSIG=
201809091300 METAR LRBS 091300Z 03011KT 340V100 9999 SCT050CB 24/12 Q1014
                        NOSIG=
201809091330 METAR LRBS 091330Z 02008KT 330V060 9999 FEW055CB 23/12 Q1014
                        NOSIG=
201809091400 METAR LRBS 091400Z 02006KT 320V060 CAVOK 23/12 Q1014 NOSIG=
201809091430 METAR LRBS 091430Z 05005KT 020V080 CAVOK 24/13 Q1015 NOSIG=
201809091500 METAR LRBS 091500Z 08005KT 040V110 CAVOK 24/14 Q1015 NOSIG=
201809091530 METAR LRBS 091530Z 06007KT CAVOK 23/15 Q1015 NOSIG=
201809091600 METAR LRBS 091600Z 05005KT CAVOK 22/15 Q1016 NOSIG=
201809091630 METAR LRBS 091630Z 04003KT 350V070 CAVOK 22/15 Q1016 NOSIG=
201809091700 METAR LRBS 091700Z 04007KT 360V070 CAVOK 22/12 Q1016 NOSIG=
201809091730 METAR LRBS 091730Z 06010KT 010V080 CAVOK 20/11 Q1017 NOSIG=
201809091800 METAR LRBS 091800Z 06007KT CAVOK 19/11 Q1017 NOSIG=
201809091830 METAR LRBS 091830Z 05005KT CAVOK 18/11 Q1018 NOSIG=
201809091900 METAR LRBS 091900Z 06003KT CAVOK 17/11 Q1018 NOSIG=
201809091930 METAR LRBS 091930Z 10002KT CAVOK 18/11 Q1018 NOSIG=
201809092000 METAR LRBS 092000Z 10003KT CAVOK 17/10 Q1018 NOSIG=
201809092030 METAR COR LRBS 092030Z 08001KT CAVOK 16/10 Q1018 NOSIG=
201809092100 METAR LRBS 092100Z 00000KT CAVOK 17/11 Q1019 NOSIG=
201809092130 METAR LRBS 092130Z 00000KT CAVOK 16/11 Q1019 NOSIG=
201809092200 METAR LRBS 092200Z 31001KT CAVOK 16/11 Q1018 NOSIG=
201809092230 METAR LRBS 092230Z VRB02KT CAVOK 15/11 Q1018 NOSIG=
201809092300 METAR LRBS 092300Z 26003KT CAVOK 15/11 Q1019 NOSIG=
201809092330 METAR LRBS 092330Z 25004KT CAVOK 16/11 Q1018 NOSIG=
201809100000 METAR LRBS 100000Z 25006KT CAVOK 17/11 Q1018 NOSIG=
201809100030 METAR LRBS 100030Z 26004KT CAVOK 16/11 Q1019 NOSIG=
201809100100 METAR LRBS 100100Z AUTO 26004KT BKN120/// 16/11 Q1018 NOSIG=
201809100130 METAR LRBS 100130Z 25005KT CAVOK 17/11 Q1018 NOSIG=
201809100200 METAR LRBS 100200Z 25006KT CAVOK 17/11 Q1018 NOSIG=
201809100230 METAR LRBS 100230Z 27004KT CAVOK 16/11 Q1018 NOSIG=
201809100300 METAR LRBS 100300Z 27004KT CAVOK 16/11 Q1018 NOSIG=
201809100330 METAR LRBS 100330Z 26004KT CAVOK 16/11 Q1018 NOSIG=
201809100400 METAR LRBS 100400Z 28004KT CAVOK 16/11 Q1018 NOSIG=
201809100430 METAR LRBS 100430Z 26003KT CAVOK 16/11 Q1019 NOSIG=
201809100500 METAR LRBS 100500Z 27002KT CAVOK 17/11 Q1019 NOSIG=
201809100530 METAR LRBS 100530Z 28004KT 240V350 CAVOK 19/11 Q1018 NOSIG=
201809100600 METAR LRBS 100600Z 29006KT 240V360 CAVOK 20/11 Q1018 NOSIG=
201809100630 METAR LRBS 100630Z 28008KT 240V340 CAVOK 21/10 Q1018 NOSIG=
201809100700 METAR LRBS 100700Z 29008KT 240V350 CAVOK 22/10 Q1018 NOSIG=
201809100730 METAR LRBS 100730Z 29008KT 240V340 CAVOK 23/10 Q1018 NOSIG=
201809100800 METAR LRBS 100800Z 28008KT 240V360 CAVOK 23/09 Q1018 NOSIG=
201809100830 METAR LRBS 100830Z 30006KT 240V040 CAVOK 24/09 Q1018 NOSIG=
201809100900 METAR LRBS 100900Z 31006KT 250V010 CAVOK 25/08 Q1018 NOSIG=
201809100930 METAR LRBS 100930Z 30007KT 230V010 CAVOK 25/07 Q1018 NOSIG=
201809101000 METAR LRBS 101000Z 29006KT 240V040 CAVOK 25/05 Q1018 NOSIG=
201809101030 METAR LRBS 101030Z 29006KT 230V040 CAVOK 26/07 Q1017 NOSIG=
201809101100 METAR LRBS 101100Z VRB04KT CAVOK 26/06 Q1017 NOSIG=
201809101130 METAR LRBS 101130Z VRB03KT CAVOK 27/05 Q1017 NOSIG=
201809101200 METAR LRBS 101200Z 25004KT 170V340 CAVOK 27/05 Q1017 NOSIG=
201809101230 METAR LRBS 101230Z VRB04KT CAVOK 27/05 Q1017 NOSIG=
201809101300 METAR LRBS 101300Z VRB04KT CAVOK 27/04 Q1016 NOSIG=
201809101330 METAR LRBS 101330Z 01004KT 280V060 CAVOK 29/04 Q1016 NOSIG=
201809101400 METAR LRBS 101400Z 04003KT 350V090 CAVOK 27/04 Q1016 NOSIG=
201809101430 METAR LRBS 101430Z VRB02KT CAVOK 27/05 Q1016 NOSIG=
201809101500 METAR LRBS 101500Z 34003KT 280V050 CAVOK 26/05 Q1017 NOSIG=
201809101530 METAR LRBS 101530Z 33003KT 270V020 CAVOK 26/06 Q1017 NOSIG=
201809101600 METAR LRBS 101600Z 35002KT CAVOK 25/05 Q1017 NOSIG=
201809101630 METAR LRBS 101630Z 03002KT CAVOK 24/06 Q1017 NOSIG=
201809101700 METAR LRBS 101700Z 03003KT 360V070 CAVOK 24/06 Q1017 NOSIG=
201809101730 METAR LRBS 101730Z VRB01KT CAVOK 23/06 Q1017 NOSIG=
201809101800 METAR LRBS 101800Z VRB02KT CAVOK 21/08 Q1018 NOSIG=
201809101830 METAR COR LRBS 101830Z 01003KT 340V040 CAVOK 22/07 Q1018
                        NOSIG=
201809101900 METAR LRBS 101900Z 36003KT CAVOK 22/07 Q1018 NOSIG=
201809101930 METAR LRBS 101930Z VRB01KT CAVOK 21/08 Q1018 NOSIG=
201809102000 METAR LRBS 102000Z VRB01KT CAVOK 20/08 Q1018 NOSIG=
201809102030 METAR LRBS 102030Z 35003KT 320V040 CAVOK 21/07 Q1018 NOSIG=
201809102100 METAR LRBS 102100Z 34003KT 280V020 CAVOK 20/08 Q1018 NOSIG=
201809102130 METAR LRBS 102130Z VRB02KT CAVOK 19/08 Q1018 NOSIG=
201809102200 METAR LRBS 102200Z 27003KT 240V310 CAVOK 18/09 Q1018 NOSIG=
201809102230 METAR LRBS 102230Z 11001KT CAVOK 18/09 Q1018 NOSIG=
201809102300 METAR LRBS 102300Z 27002KT CAVOK 18/09 Q1018 NOSIG=
201809102330 METAR LRBS 102330Z 25002KT CAVOK 18/09 Q1018 NOSIG=
201809110000 METAR COR LRBS 110000Z VRB02KT CAVOK 18/09 Q1018 NOSIG=
201809110030 METAR LRBS 110030Z 28001KT CAVOK 18/09 Q1018 NOSIG=
201809110100 METAR LRBS 110100Z VRB01KT CAVOK 17/10 Q1018 NOSIG=
201809110130 METAR COR LRBS 110130Z VRB01KT CAVOK 17/10 Q1018 NOSIG=
201809110200 METAR LRBS 110200Z VRB01KT CAVOK 17/10 Q1018 NOSIG=
201809110230 METAR LRBS 110230Z VRB02KT CAVOK 16/10 Q1018 NOSIG=
201809110300 METAR LRBS 110300Z VRB02KT CAVOK 16/10 Q1018 NOSIG=
201809110330 METAR LRBS 110330Z VRB02KT CAVOK 16/10 Q1018 NOSIG=
201809110400 METAR LRBS 110400Z 28002KT CAVOK 16/10 Q1018 NOSIG=
201809110430 METAR LRBS 110430Z 27003KT 220V310 CAVOK 16/10 Q1019 NOSIG=
201809110500 METAR LRBS 110500Z 29003KT 260V320 9999 FEW045CB 16/10 Q1019
                        NOSIG=
201809110530 METAR LRBS 110530Z VRB02KT 9999 FEW045CB 17/11 Q1019 NOSIG=
201809110600 METAR LRBS 110600Z VRB02KT 9999 FEW045CB 18/10 Q1019 NOSIG=
201809110630 METAR LRBS 110630Z 29003KT 250V350 CAVOK 18/10 Q1019 NOSIG=
201809110700 METAR LRBS 110700Z 27004KT 240V310 CAVOK 19/10 Q1019 NOSIG=
201809110730 METAR LRBS 110730Z 27003KT 230V320 CAVOK 21/10 Q1019 NOSIG=
201809110800 METAR LRBS 110800Z VRB02KT CAVOK 24/08 Q1019 NOSIG=
201809110830 METAR LRBS 110830Z 32004KT 250V010 CAVOK 25/08 Q1019 NOSIG=
201809110900 METAR LRBS 110900Z 33005KT 260V040 CAVOK 26/05 Q1019 NOSIG=
201809110930 METAR LRBS 110930Z 35007KT 280V040 CAVOK 26/05 Q1019 NOSIG=
201809111000 METAR LRBS 111000Z 35008KT 280V030 CAVOK 26/04 Q1019 NOSIG=
201809111030 METAR LRBS 111030Z 34008KT 280V020 CAVOK 27/04 Q1019 NOSIG=
201809111100 METAR LRBS 111100Z 34006KT 300V030 CAVOK 27/05 Q1018 NOSIG=
201809111130 METAR LRBS 111130Z 35006KT 290V050 CAVOK 27/05 Q1018 NOSIG=
201809111200 METAR LRBS 111200Z 32007KT 260V060 CAVOK 27/05 Q1018 NOSIG=
201809111230 METAR LRBS 111230Z VRB06KT 9999 FEW050TCU 28/05 Q1018 NOSIG=
201809111300 METAR LRBS 111300Z 02004KT CAVOK 27/05 Q1018 NOSIG=
201809111330 METAR LRBS 111330Z 35003KT 270V060 9999 FEW045CB 27/05 Q1018
                        NOSIG=
201809111400 METAR LRBS 111400Z 01004KT 330V060 9999 FEW045CB 26/06 Q1018
                        NOSIG=
201809111430 METAR LRBS 111430Z 01004KT 340V040 CAVOK 25/06 Q1018 NOSIG=
201809111500 METAR LRBS 111500Z 03005KT 360V060 9999 FEW045CB 25/06 Q1018
                        NOSIG=
201809111530 METAR LRBS 111530Z 05005KT 9999 FEW045CB 24/07 Q1018 NOSIG=
201809111600 METAR LRBS 111600Z 04005KT CAVOK 23/08 Q1019 NOSIG=
201809111630 METAR LRBS 111630Z 03004KT 360V070 CAVOK 23/08 Q1019 NOSIG=
201809111700 METAR LRBS 111700Z 03003KT CAVOK 22/08 Q1019 NOSIG=
201809111730 METAR LRBS 111730Z 03004KT 350V060 CAVOK 22/08 Q1019 NOSIG=
201809111800 METAR LRBS 111800Z 02005KT CAVOK 22/09 Q1020 NOSIG=
201809111830 METAR LRBS 111830Z 05005KT 360V070 CAVOK 21/09 Q1020 NOSIG=
201809111900 METAR LRBS 111900Z 06005KT CAVOK 20/10 Q1020 NOSIG=
201809111930 METAR LRBS 111930Z 07004KT CAVOK 20/11 Q1021 NOSIG=
201809112000 METAR LRBS 112000Z 06005KT CAVOK 20/11 Q1021 TEMPO 5000 SHRA
                        SCT040CB=
201809112030 METAR LRBS 112030Z 06007KT 010V080 9999 -SHRA FEW050CB 19/13
                        Q1021 R07/29//95 TEMPO 5000 SHRA
                        SCT040CB=
201809112100 METAR COR LRBS 112100Z 08003KT 9999 FEW050CB 18/14 Q1021
                        R07/29//95 NOSIG=
201809112130 METAR LRBS 112130Z VRB01KT CAVOK 18/13 Q1021 R07/29//95 NOSIG=
201809112200 METAR LRBS 112200Z 00000KT CAVOK 18/13 Q1021 R07/29//95 NOSIG=
201809112230 METAR LRBS 112230Z AUTO VRB01KT FEW069/// OVC100/// 19/12
                        Q1021 NOSIG=
201809112300 METAR LRBS 112300Z 29004KT CAVOK 18/13 Q1021 R07/29//95 NOSIG=
201809112330 METAR LRBS 112330Z 28004KT CAVOK 17/12 Q1021 R07/29//95 NOSIG=
201809120000 METAR LRBS 120000Z 26004KT CAVOK 18/12 Q1021 R07/29//95 NOSIG=
201809120030 METAR LRBS 120030Z 27003KT CAVOK 18/11 Q1021 R07/29//95 NOSIG=
201809120100 METAR LRBS 120100Z 28003KT 9999 TS FEW050CB 17/11 Q1021 R07/29//95
                        NOSIG=
201809120130 METAR LRBS 120130Z 28003KT CAVOK 17/11 Q1021 R07/29//95 NOSIG=
201809120200 METAR LRBS 120200Z 26002KT CAVOK 17/11 Q1021 R07/29//95 NOSIG=
201809120230 METAR LRBS 120230Z 25003KT CAVOK 17/11 Q1021 R07/29//95 NOSIG=
201809120300 METAR LRBS 120300Z VRB01KT CAVOK 17/10 Q1021 R07/29//95 NOSIG=
201809120330 METAR LRBS 120330Z VRB01KT CAVOK 16/11 Q1021 R07/29//95 NOSIG=
201809120400 METAR LRBS 120400Z 08001KT CAVOK 17/11 Q1022 R07/29//95 NOSIG=
201809120430 METAR LRBS 120430Z 00000KT CAVOK 17/10 Q1022 R07/29//95 NOSIG=
201809120500 METAR LRBS 120500Z 28003KT CAVOK 18/10 Q1022 R07/29//95 NOSIG=
201809120530 METAR LRBS 120530Z VRB02KT CAVOK 18/10 Q1022 R07/29//95 NOSIG=
201809120600 METAR COR LRBS 120600Z 28003KT 240V330 CAVOK 19/10 Q1022
                        R07/29//95 NOSIG=
201809120630 METAR LRBS 120630Z VRB02KT CAVOK 21/10 Q1022 R07/29//95 NOSIG=
201809120700 METAR LRBS 120700Z 31003KT 260V360 CAVOK 21/10 Q1022 R07/29//95
                        NOSIG=
201809120730 METAR LRBS 120730Z 33003KT 290V010 CAVOK 22/10 Q1022 R07/29//95
                        NOSIG=
201809120800 METAR LRBS 120800Z 33004KT 280V010 CAVOK 23/09 Q1022 R07/29//95
                        NOSIG=
201809120830 METAR LRBS 120830Z 01004KT 280V050 CAVOK 24/09 Q1022 R07/29//95
                        NOSIG=
201809120900 METAR LRBS 120900Z 02007KT 320V070 CAVOK 25/09 Q1022 R07/29//95
                        NOSIG=
201809120930 METAR LRBS 120930Z 05007KT 350V140 CAVOK 25/10 Q1022 R07/29//95
                        NOSIG=
201809121000 METAR LRBS 121000Z 01006KT 310V050 CAVOK 25/10 Q1022 R07/29//95
                        NOSIG=
201809121030 METAR LRBS 121030Z 34004KT 260V060 CAVOK 25/10 Q1022 R07/29//95
                        NOSIG=
201809121100 METAR LRBS 121100Z 33005KT 300V040 CAVOK 24/10 Q1022 R07/29//95
                        NOSIG=
201809121130 METAR LRBS 121130Z 34003KT CAVOK 26/10 Q1022 R07/29//95 NOSIG=
201809121200 METAR LRBS 121200Z 01007KT 280V090 CAVOK 26/10 Q1022 R07/29//95
                        NOSIG=
201809121230 METAR LRBS 121230Z 35006KT 300V050 CAVOK 26/10 Q1021 R07/29//95
                        NOSIG=
201809121300 METAR LRBS 121300Z 04010KT 340V080 CAVOK 26/10 Q1021 R07/29//95
                        NOSIG=
201809121330 METAR LRBS 121330Z 03009KT 360V060 CAVOK 25/10 Q1021 R07/29//95
                        NOSIG=
201809121400 METAR LRBS 121400Z 03007KT 360V060 CAVOK 25/10 Q1021 R07/29//95
                        NOSIG=
201809121430 METAR LRBS 121430Z 02007KT 320V070 CAVOK 25/11 Q1021 R07/29//95
                        NOSIG=
201809121500 METAR LRBS 121500Z 03008KT 360V070 CAVOK 25/11 Q1021 R07/29//95
                        NOSIG=
201809121530 METAR COR LRBS 121530Z 02004KT 350V050 CAVOK 24/11 Q1021
                        NOSIG=
201809121600 METAR LRBS 121600Z 04004KT CAVOK 23/12 Q1021 NOSIG=
201809121630 METAR LRBS 121630Z 03004KT 360V060 CAVOK 23/12 Q1021 NOSIG=
201809121700 METAR LRBS 121700Z 04004KT 9999 FEW050TCU 22/12 Q1021 NOSIG=
201809121730 METAR LRBS 121730Z 03005KT CAVOK 22/12 Q1021 NOSIG=
201809121800 METAR LRBS 121800Z 03004KT CAVOK 21/12 Q1021 NOSIG=
201809121830 METAR LRBS 121830Z 05005KT CAVOK 19/12 Q1021 NOSIG=
201809121900 METAR LRBS 121900Z 03003KT 010V070 CAVOK 21/12 Q1021 NOSIG=
201809121930 METAR LRBS 121930Z 04006KT CAVOK 21/12 Q1021 NOSIG=
201809122000 METAR LRBS 122000Z 03005KT CAVOK 21/12 Q1021 NOSIG=
201809122030 METAR LRBS 122030Z 03003KT CAVOK 21/12 Q1021 NOSIG=
201809122100 METAR LRBS 122100Z 02004KT CAVOK 20/12 Q1021 NOSIG=
201809122130 METAR LRBS 122130Z 01003KT 340V050 9999 FEW045 20/12 Q1021
                        NOSIG=
201809122200 METAR LRBS 122200Z 36003KT 330V040 9999 FEW046 19/12 Q1021
                        NOSIG=
201809122230 METAR LRBS 122230Z 36003KT 310V030 CAVOK 18/12 Q1021 NOSIG=
201809122300 METAR LRBS 122300Z 36003KT 320V030 CAVOK 18/12 Q1021 NOSIG=
201809122330 METAR LRBS 122330Z 36003KT 310V040 9999 SCT045 18/12 Q1021
                        NOSIG=
201809130000 METAR LRBS 130000Z 35003KT 320V040 9999 BKN044 18/12 Q1021
                        NOSIG=
201809130030 METAR COR LRBS 130030Z 35003KT 320V040 9999 SCT045 18/12
                        Q1021 NOSIG=
201809130100 METAR LRBS 130100Z 01003KT 340V060 9999 SCT047 17/12 Q1020
                        NOSIG=
201809130130 METAR LRBS 130130Z VRB02KT CAVOK 16/12 Q1020 NOSIG=
201809130200 METAR LRBS 130200Z VRB02KT CAVOK 16/12 Q1020 NOSIG=
201809130230 METAR LRBS 130230Z 07002KT CAVOK 15/12 Q1020 NOSIG=
201809130300 METAR LRBS 130300Z 04003KT 9000 NSC 15/12 Q1020 NOSIG=
201809130330 METAR LRBS 130330Z 04002KT 9000 NSC 15/12 Q1020 NOSIG=
201809130400 METAR LRBS 130400Z 02002KT CAVOK 15/13 Q1020 NOSIG=
201809130430 METAR LRBS 130430Z 02002KT CAVOK 16/13 Q1020 NOSIG=
201809130500 METAR LRBS 130500Z VRB02KT CAVOK 17/13 Q1020 NOSIG=
201809130530 METAR LRBS 130530Z 05004KT 020V080 CAVOK 18/13 Q1020 NOSIG=
201809130600 METAR LRBS 130600Z 07004KT 040V100 9999 FEW015 SCT019 18/14
                        Q1020 NOSIG=
201809130630 METAR LRBS 130630Z VRB03KT 9999 FEW013 20/14 Q1020 NOSIG=
201809130700 METAR LRBS 130700Z 03004KT 320V090 9999 FEW020 21/15 Q1020
                        NOSIG=
201809130730 METAR LRBS 130730Z VRB04KT 9999 SCT020 22/15 Q1020 NOSIG=
201809130800 METAR LRBS 130800Z 06006KT 340V110 9999 SCT021 SCT031 22/14
                        Q1020 NOSIG=
201809130830 METAR LRBS 130830Z 07005KT 360V170 9999 BKN027 24/14 Q1020
                        NOSIG=
201809130900 METAR LRBS 130900Z 07006KT 020V130 9999 FEW012 SCT030 24/12
                        Q1020 NOSIG=
201809130930 METAR COR LRBS 130930Z 05005KT 360V120 9999 BKN036 24/12
                        Q1019 NOSIG=
201809131000 METAR LRBS 131000Z 05006KT 360V110 9999 BKN039 25/12 Q1019
                        NOSIG=
201809131030 METAR LRBS 131030Z VRB04KT 9999 BKN042 24/12 Q1019 NOSIG=
201809131100 METAR LRBS 131100Z 06007KT 010V110 9999 BKN042 25/12 Q1019
                        NOSIG=
201809131130 METAR LRBS 131130Z 05007KT 360V090 9999 BKN042 26/12 Q1018
                        NOSIG=
201809131200 METAR LRBS 131200Z VRB03KT 9999 SCT047 26/11 Q1017 NOSIG=
201809131230 METAR LRBS 131230Z 09005KT 050V130 9999 SCT048 26/11 Q1017
                        NOSIG=
201809131300 METAR LRBS 131300Z VRB05KT 9999 SCT047 26/12 Q1017 NOSIG=
201809131330 METAR LRBS 131330Z 04004KT 340V100 CAVOK 26/12 Q1017 NOSIG=
201809131400 METAR LRBS 131400Z 04008KT 350V070 CAVOK 27/11 Q1016 NOSIG=
201809131430 METAR LRBS 131430Z 03004KT 350V090 CAVOK 26/12 Q1016 NOSIG=
201809131500 METAR LRBS 131500Z 01005KT 340V060 9999 FEW048 26/12 Q1016
                        NOSIG=
201809131530 METAR LRBS 131530Z 02003KT 310V060 CAVOK 26/11 Q1016 NOSIG=
201809131600 METAR LRBS 131600Z 04004KT 010V090 CAVOK 25/12 Q1016 NOSIG=
201809131630 METAR LRBS 131630Z 03003KT CAVOK 23/13 Q1016 NOSIG=
201809131700 METAR LRBS 131700Z 02004KT CAVOK 23/12 Q1016 NOSIG=
201809131730 METAR LRBS 131730Z 04002KT CAVOK 21/13 Q1016 NOSIG=
201809131800 METAR LRBS 131800Z 03002KT CAVOK 20/13 Q1016 NOSIG=
201809131830 METAR LRBS 131830Z 02002KT CAVOK 20/13 Q1016 NOSIG=
201809131900 METAR LRBS 131900Z VRB02KT CAVOK 19/13 Q1016 NOSIG=
201809131930 METAR COR LRBS 131930Z 06003KT CAVOK 19/13 Q1016 NOSIG=
201809132000 METAR LRBS 132000Z 06002KT CAVOK 19/13 Q1016 NOSIG=
201809132030 METAR LRBS 132030Z 00000KT CAVOK 19/13 Q1016 NOSIG=
201809132100 METAR LRBS 132100Z 00000KT CAVOK 18/13 Q1016 NOSIG=
201809132130 METAR LRBS 132130Z VRB01KT CAVOK 18/13 Q1016 NOSIG=
201809132200 METAR LRBS 132200Z 00000KT CAVOK 17/13 Q1016 NOSIG=
201809132230 METAR LRBS 132230Z 00000KT CAVOK 17/13 Q1016 NOSIG=
201809132300 METAR LRBS 132300Z 30003KT CAVOK 16/13 Q1016 NOSIG=
201809132330 METAR LRBS 132330Z 32004KT 300V360 CAVOK 17/13 Q1016 NOSIG=
201809140000 METAR LRBS 140000Z 30003KT 270V360 CAVOK 16/13 Q1016 NOSIG=
201809140030 METAR LRBS 140030Z VRB01KT CAVOK 16/12 Q1016 NOSIG=
201809140100 METAR LRBS 140100Z VRB02KT CAVOK 15/12 Q1016 NOSIG=
201809140130 METAR LRBS 140130Z VRB02KT CAVOK 15/12 Q1015 NOSIG=
201809140200 METAR LRBS 140200Z 31003KT 270V360 CAVOK 15/12 Q1015 NOSIG=
201809140230 METAR LRBS 140230Z VRB02KT CAVOK 16/12 Q1015 NOSIG=
201809140300 METAR LRBS 140300Z VRB02KT CAVOK 15/12 Q1015 NOSIG=
201809140330 METAR LRBS 140330Z 00000KT CAVOK 15/12 Q1015 NOSIG=
201809140400 METAR LRBS 140400Z 26001KT CAVOK 15/12 Q1015 NOSIG=
201809140430 METAR LRBS 140430Z 27001KT CAVOK 15/12 Q1016 NOSIG=
201809140500 METAR LRBS 140500Z VRB01KT CAVOK 17/12 Q1015 NOSIG=
201809140530 METAR LRBS 140530Z VRB01KT CAVOK 18/13 Q1016 NOSIG=
201809140600 METAR LRBS 140600Z VRB02KT CAVOK 19/12 Q1016 NOSIG=
201809140630 METAR LRBS 140630Z VRB01KT CAVOK 21/12 Q1016 NOSIG=
201809140700 METAR LRBS 140700Z VRB02KT CAVOK 22/13 Q1016 NOSIG=
201809140730 METAR LRBS 140730Z VRB01KT CAVOK 23/13 Q1016 NOSIG=
201809140800 METAR LRBS 140800Z 08003KT 030V150 CAVOK 25/13 Q1016 NOSIG=
201809140830 METAR LRBS 140830Z VRB03KT CAVOK 25/12 Q1016 NOSIG=
201809140900 METAR LRBS 140900Z VRB03KT CAVOK 26/12 Q1016 NOSIG=
201809140930 METAR LRBS 140930Z VRB03KT 9999 FEW048 27/11 Q1016 NOSIG=
201809141000 METAR LRBS 141000Z VRB03KT CAVOK 27/11 Q1015 NOSIG=
201809141030 METAR LRBS 141030Z VRB04KT CAVOK 27/11 Q1015 NOSIG=
201809141100 METAR LRBS 141100Z VRB03KT CAVOK 27/10 Q1015 NOSIG=
201809141130 METAR LRBS 141130Z 36006KT 310V070 CAVOK 28/09 Q1015 NOSIG=
201809141200 METAR LRBS 141200Z 02006KT 320V110 CAVOK 29/09 Q1015 NOSIG=
201809141230 METAR LRBS 141230Z VRB03KT CAVOK 28/09 Q1014 NOSIG=
201809141300 METAR LRBS 141300Z VRB03KT CAVOK 29/08 Q1014 NOSIG=
201809141330 METAR LRBS 141330Z VRB04KT CAVOK 29/08 Q1014 NOSIG=
201809141400 METAR LRBS 141400Z VRB02KT CAVOK 29/08 Q1014 NOSIG=
201809141430 METAR LRBS 141430Z 06004KT 020V090 CAVOK 29/09 Q1014 NOSIG=
201809141500 METAR LRBS 141500Z VRB02KT CAVOK 29/08 Q1014 NOSIG=
201809141530 METAR LRBS 141530Z 05001KT CAVOK 28/09 Q1014 NOSIG=
201809141600 METAR LRBS 141600Z 05002KT CAVOK 27/10 Q1014 NOSIG=
201809141630 METAR LRBS 141630Z 00000KT CAVOK 25/11 Q1015 NOSIG=
201809141700 METAR LRBS 141700Z VRB02KT CAVOK 24/11 Q1015 NOSIG=
201809141730 METAR LRBS 141730Z 10005KT CAVOK 24/11 Q1015 NOSIG=
201809141800 METAR LRBS 141800Z 10006KT CAVOK 23/12 Q1016 NOSIG=
201809141830 METAR LRBS 141830Z 12003KT CAVOK 24/12 Q1016 NOSIG=
201809141900 METAR LRBS 141900Z 10003KT 060V150 CAVOK 22/12 Q1016 NOSIG=
201809141930 METAR LRBS 141930Z VRB01KT CAVOK 21/12 Q1016 NOSIG=
201809142000 METAR LRBS 142000Z 28003KT CAVOK 21/12 Q1016 NOSIG=
201809142030 METAR LRBS 142030Z 00000KT CAVOK 21/12 Q1016 NOSIG=
201809142100 METAR LRBS 142100Z 27003KT CAVOK 19/13 Q1016 NOSIG=
201809142130 METAR LRBS 142130Z 28003KT CAVOK 19/13 Q1016 NOSIG=
201809142200 METAR LRBS 142200Z 32001KT CAVOK 19/13 Q1016 NOSIG=
201809142230 METAR LRBS 142230Z VRB01KT CAVOK 18/12 Q1016 NOSIG=
201809142300 METAR LRBS 142300Z 00000KT CAVOK 18/13 Q1016 NOSIG=
201809142330 METAR LRBS 142330Z 00000KT CAVOK 18/12 Q1016 NOSIG=
201809150000 METAR LRBS 150000Z VRB01KT CAVOK 17/12 Q1016 NOSIG=
201809150030 METAR LRBS 150030Z 00000KT CAVOK 17/12 Q1015 NOSIG=
201809150100 METAR LRBS 150100Z 00000KT CAVOK 16/12 Q1015 NOSIG=
201809150130 METAR LRBS 150130Z VRB02KT CAVOK 16/12 Q1015 NOSIG=
201809150200 METAR LRBS 150200Z VRB01KT CAVOK 17/13 Q1015 NOSIG=
201809150230 METAR LRBS 150230Z VRB01KT CAVOK 17/13 Q1015 NOSIG=
201809150300 METAR LRBS 150300Z 25003KT CAVOK 17/13 Q1015 NOSIG=
201809150330 METAR LRBS 150330Z 00000KT CAVOK 17/13 Q1015 NOSIG=
201809150400 METAR LRBS 150400Z 07001KT CAVOK 16/12 Q1015 NOSIG=
201809150430 METAR LRBS 150430Z 27003KT 9000 MIFG NSC 17/12 Q1016 NOSIG=
201809150500 METAR LRBS 150500Z 25003KT CAVOK 18/13 Q1016 NOSIG=
201809150530 METAR LRBS 150530Z VRB01KT CAVOK 19/13 Q1016 NOSIG=
201809150600 METAR LRBS 150600Z VRB02KT CAVOK 20/13 Q1016 NOSIG=
201809150630 METAR LRBS 150630Z VRB01KT CAVOK 22/13 Q1016 NOSIG=
201809150700 METAR LRBS 150700Z 23003KT 180V300 CAVOK 23/12 Q1016 NOSIG=
201809150730 METAR LRBS 150730Z 25003KT 210V300 CAVOK 24/12 Q1016 NOSIG=
201809150800 METAR LRBS 150800Z VRB04KT CAVOK 25/12 Q1016 NOSIG=
201809150830 METAR LRBS 150830Z VRB03KT CAVOK 25/13 Q1016 NOSIG=
201809150900 METAR LRBS 150900Z 27005KT 220V350 CAVOK 26/12 Q1016 NOSIG=
201809150930 METAR LRBS 150930Z 27004KT 210V020 CAVOK 27/12 Q1016 NOSIG=
201809151000 METAR LRBS 151000Z 27004KT CAVOK 29/10 Q1016 NOSIG=
201809151030 METAR LRBS 151030Z VRB05KT CAVOK 29/11 Q1015 NOSIG=
201809151100 METAR LRBS 151100Z 30005KT 230V040 CAVOK 29/10 Q1015 NOSIG=
201809151130 METAR LRBS 151130Z 28004KT 210V350 CAVOK 29/10 Q1015 NOSIG=
201809151200 METAR LRBS 151200Z VRB04KT 9999 FEW050CB 31/09 Q1015 NOSIG=
201809151230 METAR LRBS 151230Z VRB04KT 9999 FEW050CB 31/08 Q1014 NOSIG=
201809151300 METAR LRBS 151300Z 26004KT 200V320 9999 SCT050CB 31/08 Q1014
                        NOSIG=
201809151330 METAR LRBS 151330Z 32003KT 230V040 9999 FEW050CB 31/08 Q1014
                        NOSIG=
201809151400 METAR LRBS 151400Z 32003KT 250V040 9999 FEW050CB 31/07 Q1014
                        NOSIG=
201809151430 METAR LRBS 151430Z VRB02KT 9999 FEW050CB 31/08 Q1014 NOSIG=
201809151500 METAR LRBS 151500Z 08004KT 9999 FEW050CB 28/10 Q1014 NOSIG=
201809151530 METAR COR LRBS 151530Z 35006KT 300V050 9000 -SHRA VCTS SCT045CB
                        27/12 Q1015 R07/19//95 NOSIG=
201809151600 METAR LRBS 151600Z 02003KT 350V060 9999 -SHRA VCTS FEW050CB
                        24/15 Q1015 R07/19//95 NOSIG=
201809151630 METAR LRBS 151630Z 28003KT 240V330 9999 FEW050CB 25/15 Q1015
                        R07/19//95 TEMPO 5000 SHRA=
201809151700 METAR LRBS 151700Z VRB02KT 9999 FEW050CB 24/16 Q1015 R07/19//95
                        NOSIG=
201809151730 METAR LRBS 151730Z 34003KT 9999 FEW050CB 24/15 Q1016 R07/19//95
                        NOSIG=
201809151800 METAR LRBS 151800Z 05001KT CAVOK 24/15 Q1016 R07/19//95 NOSIG=
201809151830 METAR LRBS 151830Z VRB02KT CAVOK 23/15 Q1016 R07/19//95 NOSIG=
201809151900 METAR LRBS 151900Z 01003KT CAVOK 23/15 Q1016 R07/19//95 NOSIG=
201809151930 METAR LRBS 151930Z VRB01KT CAVOK 22/15 Q1016 R07/19//95 NOSIG=
201809152000 METAR LRBS 152000Z VRB02KT CAVOK 22/15 Q1017 R07/19//95 NOSIG=
201809152030 METAR LRBS 152030Z VRB02KT CAVOK 22/15 Q1017 R07/19//95 NOSIG=
201809152100 METAR LRBS 152100Z 00000KT CAVOK 21/15 Q1017 R07/19//95 NOSIG=
201809152130 METAR LRBS 152130Z 01003KT CAVOK 21/15 Q1017 R07/19//95 NOSIG=
201809152200 METAR LRBS 152200Z VRB01KT CAVOK 21/14 Q1017 R07/19//95 NOSIG=
201809152230 METAR LRBS 152230Z 00000KT CAVOK 21/14 Q1017 R07/19//95 NOSIG=
201809152300 METAR LRBS 152300Z 00000KT CAVOK 21/13 Q1017 R07/19//95 NOSIG=
201809152330 METAR LRBS 152330Z 25002KT CAVOK 20/14 Q1017 R07/19//95 NOSIG=
201809160000 METAR LRBS 160000Z VRB02KT CAVOK 20/14 Q1017 R07/19//95 NOSIG=
201809160030 METAR LRBS 160030Z VRB02KT CAVOK 20/14 Q1018 R07/19//95 NOSIG=
201809160100 METAR LRBS 160100Z 00000KT CAVOK 20/14 Q1018 R07/19//95 NOSIG=
201809160130 METAR LRBS 160130Z 23002KT 9999 -RA NSC 19/14 Q1018 R07/19//95
                        NOSIG=
201809160200 METAR LRBS 160200Z 00000KT 9999 FEW050CB 20/15 Q1018 R07/19//95
                        TEMPO 5000 -SHRA SCT030CB=
201809160230 METAR LRBS 160230Z 30003KT 270V350 9999 -SHRA FEW050CB 19/15
                        Q1019 R07/19//95 TEMPO 5000 -SHRA
                        SCT030CB=
201809160300 METAR LRBS 160300Z VRB02KT 9999 -SHRA FEW050CB 18/15 Q1019
                        R07/29//95 TEMPO 5000 -SHRA SCT030CB=
201809160330 METAR LRBS 160330Z VRB01KT 9999 -SHRA FEW050CB 19/16 Q1019
                        R07/29//95 TEMPO 5000 -SHRA SCT030CB=
201809160400 METAR LRBS 160400Z 15003KT 110V190 9999 FEW050CB 19/17 Q1019
                        R07/29//95 TEMPO 5000 -SHRA SCT030CB=
201809160430 METAR COR LRBS 160430Z VRB01KT 5000 -SHRA FEW050CB 19/17
                        Q1020 R07/29//95 NOSIG=
201809160500 METAR LRBS 160500Z VRB02KT CAVOK 19/16 Q1020 R07/29//95 NOSIG=
201809160530 METAR LRBS 160530Z VRB02KT CAVOK 20/16 Q1020 R07/29//95 NOSIG=
201809160600 METAR LRBS 160600Z 16003KT 130V190 CAVOK 20/16 Q1021 R07/29//95
                        NOSIG=
201809160630 METAR LRBS 160630Z 15003KT 120V190 CAVOK 20/15 Q1021 R07/29//95
                        NOSIG=
201809160700 METAR LRBS 160700Z 16004KT 110V210 CAVOK 21/15 Q1021 R07/29//95
                        NOSIG=
201809160730 METAR LRBS 160730Z 16004KT CAVOK 21/14 Q1021 R07/29//95 NOSIG=
201809160800 METAR LRBS 160800Z 14005KT 090V180 CAVOK 22/15 Q1022 R07/29//95
                        NOSIG=
201809160830 METAR LRBS 160830Z 12005KT 090V170 CAVOK 23/14 Q1022 R07/29//95
                        NOSIG=
201809160900 METAR LRBS 160900Z 09006KT 020V170 CAVOK 23/14 Q1022 R07/29//95
                        NOSIG=
201809160930 METAR LRBS 160930Z 09006KT 040V170 9999 FEW028 24/14 Q1022
                        R07/29//95 NOSIG=
201809161000 METAR LRBS 161000Z VRB04KT 9999 SCT028 24/14 Q1022 R07/29//95
                        NOSIG=
201809161030 METAR LRBS 161030Z 10003KT 030V150 9999 FEW032 25/15 Q1022
                        R07/29//95 NOSIG=
201809161100 METAR LRBS 161100Z 16005KT 120V220 9999 SCT032 25/14 Q1021
                        R07/29//95 NOSIG=
201809161130 METAR LRBS 161130Z 14005KT 100V210 9999 SCT035 26/14 Q1021
                        R07/29//95 NOSIG=
201809161200 METAR LRBS 161200Z 17005KT 100V250 9999 BKN039 26/13 Q1021
                        R07/29//95 NOSIG=
201809161230 METAR COR LRBS 161230Z VRB02KT CAVOK 25/13 Q1021 R07/29//95
                        NOSIG=
201809161300 METAR LRBS 161300Z VRB02KT 9999 BKN041 25/13 Q1021 R07/29//95
                        NOSIG=
201809161330 METAR COR LRBS 161330Z VRB02KT 9999 -SHRA SCT042CB SCT048
                        25/13 Q1021 R07/CLRD// NOSIG=
201809161400 METAR LRBS 161400Z VRB01KT 9999 FEW032 FEW040CB 24/16 Q1021
                        R07/CLRD// BECMG NSC=
201809161430 METAR LRBS 161430Z 14003KT CAVOK 25/13 Q1021 NOSIG=
201809161500 METAR LRBS 161500Z 14003KT 110V170 CAVOK 25/13 Q1021 NOSIG=
201809161530 METAR LRBS 161530Z 12004KT 080V140 9999 FEW050CB 25/14 Q1021
                        NOSIG=
201809161600 METAR LRBS 161600Z 10004KT 070V130 9999 SCT045CB 25/14 Q1021
                        TEMPO 5000 SHRA=
201809161630 METAR COR LRBS 161630Z 02006G17KT 340V060 9999 -SHRA BKN047CB
                        24/15 Q1022 R07/19//95 TEMPO 5000
                        SHRA=
201809161700 METAR LRBS 161700Z 03010KT 350V070 3500 SHRA FEW035 BKN048CB
                        19/15 Q1022 R07/29//95 BECMG 8000
                        -SHRA=
201809161730 METAR LRBS 161730Z 06008KT 030V090 9999 SCT050CB 19/15 Q1023
                        R07/29//95 NOSIG=
201809161800 METAR LRBS 161800Z 04005KT 010V070 9999 SCT050CB 19/14 Q1023
                        R07/29//95 NOSIG=
201809161830 METAR LRBS 161830Z 04006KT 360V070 9999 FEW050CB 19/14 Q1024
                        R07/29//95 NOSIG=
201809161900 METAR COR LRBS 161900Z 04007KT 360V070 8000 -SHRA SCT045CB
                        18/13 Q1024 R07/29//95 TEMPO 5000
                        SHRA=
201809161930 METAR LRBS 161930Z 03008KT 360V060 9000 -SHRA SCT047CB 17/14
                        Q1024 R07/29//95 BECMG 3000 SHRA=
201809162000 METAR LRBS 162000Z 04008KT 360V070 7000 -SHRA BKN049CB 17/13
                        Q1024 R07/29//95 TEMPO 3000 SHRA=
201809162030 METAR LRBS 162030Z 05010KT 010V100 3500 SHRA BKN048CB 17/14
                        Q1025 R07/29//95 BECMG 5000 -SHRA=
201809162100 METAR LRBS 162100Z 05011KT 010V080 3000 SHRA BKN047CB 16/13
                        Q1025 R07/29//95 BECMG 5000 -SHRA=
201809162130 METAR LRBS 162130Z 06008KT 6000 -SHRA BKN046CB 16/14 Q1025
                        RESHRA R07/29//95 NOSIG=
201809162200 METAR LRBS 162200Z 10007KT 070V130 5000 -SHRA BR BKN049CB
                        16/13 Q1025 RESHRA R07/29//95 BECMG
                        7000 NSW=
201809162230 METAR LRBS 162230Z 09004KT 050V130 7000 -SHRA SCT049CB 16/13
                        Q1025 R07/29//95 NOSIG=
201809162300 METAR LRBS 162300Z 08004KT 040V110 9000 -SHRA FEW038 SCT050CB
                        17/13 Q1025 R07/29//95 NOSIG=
201809162330 METAR LRBS 162330Z VRB02KT 9999 FEW050CB 16/13 Q1025 R07/29//95
                        NOSIG=
201809170000 METAR LRBS 170000Z 07003KT 9000 FEW050CB 16/14 Q1025 R07/29//95
                        NOSIG=
201809170030 METAR LRBS 170030Z 06005KT CAVOK 16/13 Q1025 R07/29//95 NOSIG=
201809170100 METAR LRBS 170100Z 04003KT CAVOK 17/13 Q1025 R07/29//95 NOSIG=
201809170130 METAR LRBS 170130Z 06004KT 9000 NSC 16/14 Q1025 R07/29//95
                        NOSIG=
201809170200 METAR LRBS 170200Z VRB02KT CAVOK 17/13 Q1025 R07/29//95 NOSIG=
201809170230 METAR LRBS 170230Z 04002KT CAVOK 17/13 Q1025 R07/29//95 NOSIG=
201809170300 METAR LRBS 170300Z 05002KT 8000 NSC 16/14 Q1025 R07/29//95
                        NOSIG=
201809170330 METAR LRBS 170330Z VRB02KT CAVOK 16/13 Q1025 R07/29//95 NOSIG=
201809170400 METAR LRBS 170400Z 07003KT CAVOK 16/12 Q1025 R07/29//95 NOSIG=
201809170430 METAR LRBS 170430Z 08002KT CAVOK 16/12 Q1025 R07/29//95 NOSIG=
201809170500 METAR LRBS 170500Z 07003KT CAVOK 16/13 Q1025 R07/29//95 NOSIG=
201809170530 METAR LRBS 170530Z 00000KT CAVOK 17/11 Q1026 R07/29//95 NOSIG=
201809170600 METAR LRBS 170600Z 07004KT 030V100 CAVOK 17/11 Q1026 R07/29//95
                        NOSIG=
201809170630 METAR LRBS 170630Z 08004KT 050V110 CAVOK 17/11 Q1026 R07/29//95
                        NOSIG=
201809170700 METAR LRBS 170700Z 07007KT CAVOK 18/11 Q1027 R07/CLRD// NOSIG=
201809170730 METAR LRBS 170730Z 06006KT 010V090 CAVOK 19/10 Q1026 NOSIG=
201809170800 METAR LRBS 170800Z 06008KT 020V090 CAVOK 20/11 Q1026 NOSIG=
201809170830 METAR LRBS 170830Z 06006KT 020V110 CAVOK 21/10 Q1026 NOSIG=
201809170900 METAR LRBS 170900Z 08006KT 040V110 CAVOK 21/09 Q1026 NOSIG=
201809170930 METAR LRBS 170930Z 08005KT 040V130 CAVOK 22/09 Q1026 NOSIG=
201809171000 METAR LRBS 171000Z 11004KT 060V170 CAVOK 22/09 Q1026 NOSIG=
201809171030 METAR LRBS 171030Z 08004KT 040V140 CAVOK 23/09 Q1026 NOSIG=
201809171100 METAR LRBS 171100Z 13004KT 080V170 CAVOK 23/08 Q1025 NOSIG=
201809171130 METAR LRBS 171130Z 12005KT 060V190 CAVOK 24/07 Q1025 NOSIG=
201809171200 METAR LRBS 171200Z 09005KT 040V140 CAVOK 24/07 Q1025 NOSIG=
201809171230 METAR LRBS 171230Z VRB03KT CAVOK 25/07 Q1024 NOSIG=
201809171300 METAR LRBS 171300Z VRB03KT CAVOK 25/06 Q1024 NOSIG=
201809171330 METAR LRBS 171330Z VRB04KT CAVOK 25/07 Q1024 NOSIG=
201809171400 METAR LRBS 171400Z 10004KT 060V210 CAVOK 25/07 Q1024 NOSIG=
201809171430 METAR LRBS 171430Z VRB03KT CAVOK 25/07 Q1023 NOSIG=
201809171500 METAR LRBS 171500Z 12003KT 070V180 CAVOK 24/06 Q1023 NOSIG=
201809171530 METAR LRBS 171530Z 13003KT 080V180 CAVOK 24/07 Q1023 NOSIG=
201809171600 METAR LRBS 171600Z VRB01KT CAVOK 24/08 Q1023 NOSIG=
201809171630 METAR LRBS 171630Z 36003KT CAVOK 22/10 Q1023 NOSIG=
201809171700 METAR LRBS 171700Z 35003KT CAVOK 22/10 Q1023 NOSIG=
201809171730 METAR LRBS 171730Z 00000KT CAVOK 20/12 Q1023 NOSIG=
201809171800 METAR LRBS 171800Z 00000KT CAVOK 19/11 Q1024 NOSIG=
201809171830 METAR LRBS 171830Z 00000KT CAVOK 18/11 Q1024 NOSIG=
201809171900 METAR LRBS 171900Z 05001KT CAVOK 17/11 Q1024 NOSIG=
201809171930 METAR LRBS 171930Z 04001KT CAVOK 17/12 Q1023 NOSIG=
201809172000 METAR LRBS 172000Z VRB02KT CAVOK 16/11 Q1024 NOSIG=
201809172030 METAR LRBS 172030Z VRB01KT CAVOK 17/11 Q1024 NOSIG=
201809172100 METAR COR LRBS 172100Z 07004KT 030V090 CAVOK 16/11 Q1024
                        NOSIG=
201809172130 METAR LRBS 172130Z 07004KT CAVOK 15/11 Q1024 NOSIG=
201809172200 METAR LRBS 172200Z 13003KT 090V170 CAVOK 15/11 Q1024 NOSIG=
201809172230 METAR LRBS 172230Z AUTO VRB02KT NCD 16/11 Q1024 NOSIG=
201809172300 METAR LRBS 172300Z AUTO VRB01KT NCD 17/11 Q1024 NOSIG=
201809172330 METAR LRBS 172330Z 00000KT CAVOK 16/11 Q1024 NOSIG=
201809180000 METAR LRBS 180000Z 00000KT CAVOK 16/11 Q1024 NOSIG=
201809180030 METAR LRBS 180030Z 04003KT CAVOK 14/11 Q1024 NOSIG=
201809180100 METAR LRBS 180100Z 36003KT CAVOK 13/11 Q1024 NOSIG=
201809180130 METAR LRBS 180130Z VRB02KT CAVOK 14/11 Q1024 NOSIG=
201809180200 METAR LRBS 180200Z 04002KT CAVOK 13/11 Q1024 NOSIG=
201809180230 METAR LRBS 180230Z 05003KT CAVOK 12/11 Q1024 NOSIG=
201809180300 METAR LRBS 180300Z 05002KT CAVOK 13/11 Q1024 NOSIG=
201809180330 METAR LRBS 180330Z 04001KT CAVOK 12/11 Q1024 NOSIG=
201809180400 METAR LRBS 180400Z 03002KT CAVOK 12/11 Q1024 NOSIG=
201809180430 METAR LRBS 180430Z 07001KT CAVOK 12/11 Q1024 NOSIG=
201809180500 METAR COR LRBS 180500Z 05001KT CAVOK 14/11 Q1024 NOSIG=
201809180530 METAR LRBS 180530Z VRB02KT CAVOK 15/12 Q1024 NOSIG=
201809180600 METAR LRBS 180600Z 07004KT CAVOK 16/12 Q1025 NOSIG=
201809180630 METAR LRBS 180630Z 07004KT 040V100 CAVOK 17/13 Q1025 NOSIG=
201809180700 METAR LRBS 180700Z 06004KT 010V090 CAVOK 19/13 Q1025 NOSIG=
201809180730 METAR LRBS 180730Z 07004KT 020V120 CAVOK 20/13 Q1025 NOSIG=
201809180800 METAR LRBS 180800Z 08004KT 010V130 CAVOK 21/12 Q1025 NOSIG=
201809180830 METAR LRBS 180830Z 10004KT 020V150 CAVOK 22/10 Q1025 NOSIG=
201809180900 METAR LRBS 180900Z 12006KT 090V170 CAVOK 23/08 Q1025 NOSIG=
201809180930 METAR COR LRBS 180930Z 13006KT 070V170 CAVOK 24/07 Q1025
                        NOSIG=
201809181000 METAR LRBS 181000Z VRB03KT CAVOK 24/09 Q1025 NOSIG=
201809181030 METAR LRBS 181030Z 12004KT 040V200 CAVOK 24/07 Q1024 NOSIG=
201809181100 METAR LRBS 181100Z 12004KT 070V150 CAVOK 25/08 Q1024 NOSIG=
201809181130 METAR LRBS 181130Z 11005KT 020V190 CAVOK 25/09 Q1024 NOSIG=
201809181200 METAR LRBS 181200Z VRB04KT CAVOK 25/08 Q1023 NOSIG=
201809181230 METAR LRBS 181230Z 11005KT 070V170 CAVOK 26/09 Q1023 NOSIG=
201809181300 METAR LRBS 181300Z 05005KT 340V120 CAVOK 26/08 Q1023 NOSIG=
201809181330 METAR LRBS 181330Z 07005KT 020V150 CAVOK 26/08 Q1023 NOSIG=
201809181400 METAR LRBS 181400Z VRB03KT CAVOK 26/07 Q1023 NOSIG=
201809181430 METAR LRBS 181430Z 09004KT 010V130 CAVOK 25/08 Q1022 NOSIG=
201809181500 METAR LRBS 181500Z 09006KT 060V140 CAVOK 25/08 Q1022 NOSIG=
201809181530 METAR LRBS 181530Z 09006KT 060V120 CAVOK 25/08 Q1022 NOSIG=
201809181600 METAR LRBS 181600Z 10003KT 070V140 CAVOK 24/08 Q1023 NOSIG=
201809181630 METAR LRBS 181630Z 11004KT CAVOK 23/08 Q1023 NOSIG=
201809181700 METAR LRBS 181700Z 07003KT 040V110 CAVOK 21/10 Q1023 NOSIG=
201809181730 METAR LRBS 181730Z 07002KT CAVOK 20/11 Q1023 NOSIG=
201809181800 METAR LRBS 181800Z 07004KT CAVOK 18/11 Q1023 NOSIG=
201809181830 METAR LRBS 181830Z 06003KT CAVOK 17/11 Q1023 NOSIG=
201809181900 METAR LRBS 181900Z 07004KT CAVOK 17/11 Q1024 NOSIG=
201809181930 METAR LRBS 181930Z 09004KT 060V130 CAVOK 18/09 Q1024 NOSIG=
201809182000 METAR LRBS 182000Z 11005KT 070V160 CAVOK 19/08 Q1024 NOSIG=
201809182030 METAR LRBS 182030Z 13006KT 090V150 CAVOK 19/08 Q1024 NOSIG=
201809182100 METAR LRBS 182100Z 14005KT 110V170 CAVOK 19/09 Q1024 NOSIG=
201809182130 METAR LRBS 182130Z 13005KT 090V170 CAVOK 19/09 Q1024 NOSIG=
201809182200 METAR LRBS 182200Z 15005KT 120V180 CAVOK 18/09 Q1024 NOSIG=
201809182230 METAR LRBS 182230Z 14005KT 110V170 CAVOK 18/09 Q1024 NOSIG=
201809182300 METAR LRBS 182300Z 13003KT 090V170 CAVOK 18/09 Q1024 NOSIG=
201809182330 METAR LRBS 182330Z 05003KT CAVOK 16/09 Q1024 NOSIG=
201809190000 METAR LRBS 190000Z 03004KT CAVOK 14/10 Q1024 NOSIG=
201809190030 METAR LRBS 190030Z VRB02KT CAVOK 14/10 Q1024 NOSIG=
201809190100 METAR LRBS 190100Z 01002KT CAVOK 13/10 Q1024 NOSIG=
201809190130 METAR LRBS 190130Z 36001KT CAVOK 12/10 Q1024 NOSIG=
201809190200 METAR LRBS 190200Z AUTO 04002KT NCD 12/09 Q1024 NOSIG=
201809190230 METAR LRBS 190230Z 07002KT CAVOK 12/09 Q1024 NOSIG=
201809190300 METAR LRBS 190300Z 04001KT CAVOK 12/09 Q1024 NOSIG=
201809190330 METAR LRBS 190330Z 01001KT CAVOK 11/09 Q1024 NOSIG=
201809190400 METAR LRBS 190400Z 00000KT CAVOK 12/09 Q1024 NOSIG=
201809190430 METAR LRBS 190430Z VRB01KT CAVOK 13/09 Q1024 NOSIG=
201809190500 METAR LRBS 190500Z VRB01KT CAVOK 14/09 Q1024 NOSIG=
201809190530 METAR LRBS 190530Z VRB02KT CAVOK 15/10 Q1025 NOSIG=
201809190600 METAR LRBS 190600Z 08002KT CAVOK 16/10 Q1025 NOSIG=
201809190630 METAR LRBS 190630Z 08003KT CAVOK 18/10 Q1025 NOSIG=
201809190700 METAR LRBS 190700Z 10003KT 050V150 CAVOK 19/10 Q1025 NOSIG=
201809190730 METAR LRBS 190730Z 08004KT 040V130 CAVOK 20/10 Q1025 NOSIG=
201809190800 METAR LRBS 190800Z 08003KT 350V150 CAVOK 21/09 Q1025 NOSIG=
201809190830 METAR LRBS 190830Z 10004KT 050V160 CAVOK 22/09 Q1025 NOSIG=
201809190900 METAR LRBS 190900Z 08004KT 320V130 CAVOK 23/08 Q1025 NOSIG=
201809190930 METAR LRBS 190930Z VRB03KT CAVOK 23/09 Q1025 NOSIG=
201809191000 METAR LRBS 191000Z 08005KT 350V150 CAVOK 24/09 Q1024 NOSIG=
201809191030 METAR LRBS 191030Z 10007KT 040V170 CAVOK 24/08 Q1024 NOSIG=
201809191100 METAR LRBS 191100Z 08006KT 030V130 CAVOK 24/07 Q1024 NOSIG=
201809191130 METAR LRBS 191130Z VRB05KT CAVOK 25/07 Q1024 NOSIG=
201809191200 METAR LRBS 191200Z VRB04KT CAVOK 25/06 Q1023 NOSIG=
201809191230 METAR LRBS 191230Z 07006KT 010V110 CAVOK 25/06 Q1023 NOSIG=
201809191300 METAR LRBS 191300Z 08005KT 030V170 CAVOK 26/06 Q1023 NOSIG=
201809191330 METAR LRBS 191330Z 05006KT 020V090 CAVOK 26/05 Q1023 NOSIG=
201809191400 METAR LRBS 191400Z 07003KT 010V120 CAVOK 25/04 Q1022 NOSIG=
201809191430 METAR LRBS 191430Z 08004KT 050V110 CAVOK 25/05 Q1022 NOSIG=
201809191500 METAR LRBS 191500Z 08005KT 040V110 CAVOK 25/04 Q1022 NOSIG=
201809191530 METAR LRBS 191530Z 08005KT 050V110 CAVOK 25/05 Q1022 NOSIG=
201809191600 METAR LRBS 191600Z 08004KT CAVOK 24/05 Q1022 NOSIG=
201809191630 METAR LRBS 191630Z VRB02KT CAVOK 21/07 Q1022 NOSIG=
201809191700 METAR LRBS 191700Z 07002KT CAVOK 20/07 Q1022 NOSIG=
201809191730 METAR LRBS 191730Z VRB01KT CAVOK 20/08 Q1022 NOSIG=
201809191800 METAR LRBS 191800Z NIL=
201809191830 METAR LRBS 191830Z 02001KT CAVOK 16/10 Q1022 NOSIG=
201809191900 METAR LRBS 191900Z 02002KT CAVOK 16/09 Q1023 NOSIG=
201809191930 METAR LRBS 191930Z 03001KT CAVOK 15/09 Q1023 NOSIG=
201809192000 METAR LRBS 192000Z 00000KT CAVOK 15/09 Q1022 NOSIG=
201809192030 METAR LRBS 192030Z 06001KT CAVOK 15/09 Q1023 NOSIG=
201809192100 METAR LRBS 192100Z 04002KT CAVOK 15/09 Q1023 NOSIG=
201809192130 METAR LRBS 192130Z 06003KT CAVOK 14/08 Q1023 NOSIG=
201809192200 METAR LRBS 192200Z 05003KT CAVOK 15/08 Q1023 NOSIG=
201809192230 METAR LRBS 192230Z 03002KT CAVOK 14/09 Q1023 NOSIG=
201809192300 METAR LRBS 192300Z VRB01KT CAVOK 13/09 Q1023 NOSIG=
201809192330 METAR LRBS 192330Z VRB02KT CAVOK 13/09 Q1023 NOSIG=
201809200000 METAR LRBS 200000Z VRB01KT CAVOK 13/09 Q1023 NOSIG=
201809200030 METAR COR LRBS 200030Z 05002KT CAVOK 12/09 Q1023 NOSIG=
201809200100 METAR LRBS 200100Z 05002KT CAVOK 12/09 Q1023 NOSIG=
201809200130 METAR LRBS 200130Z 03001KT CAVOK 12/09 Q1022 NOSIG=
201809200200 METAR LRBS 200200Z 05003KT CAVOK 11/09 Q1022 NOSIG=
201809200230 METAR LRBS 200230Z 04003KT CAVOK 11/08 Q1022 NOSIG=
201809200300 METAR LRBS 200300Z VRB01KT CAVOK 11/09 Q1023 NOSIG=
201809200330 METAR LRBS 200330Z 07002KT CAVOK 11/08 Q1022 NOSIG=
201809200400 METAR LRBS 200400Z 00000KT CAVOK 11/09 Q1022 NOSIG=
201809200430 METAR LRBS 200430Z VRB02KT CAVOK 11/09 Q1023 NOSIG=
201809200500 METAR LRBS 200500Z 33002KT CAVOK 13/10 Q1023 NOSIG=
201809200530 METAR LRBS 200530Z VRB01KT CAVOK 14/10 Q1023 NOSIG=
201809200600 METAR LRBS 200600Z VRB02KT CAVOK 15/11 Q1023 NOSIG=
201809200630 METAR LRBS 200630Z 07003KT 050V110 CAVOK 16/11 Q1023 NOSIG=
201809200700 METAR LRBS 200700Z 07003KT 040V130 CAVOK 18/11 Q1023 NOSIG=
201809200730 METAR LRBS 200730Z 08003KT 020V140 CAVOK 20/11 Q1023 NOSIG=
201809200800 METAR LRBS 200800Z 10004KT 010V160 CAVOK 21/11 Q1023 NOSIG=
201809200830 METAR LRBS 200830Z 09004KT 360V140 CAVOK 22/09 Q1023 NOSIG=
201809200900 METAR LRBS 200900Z 07006KT 020V120 CAVOK 23/08 Q1023 NOSIG=
201809200930 METAR LRBS 200930Z VRB03KT CAVOK 23/06 Q1023 NOSIG=
201809201000 METAR LRBS 201000Z VRB04KT CAVOK 24/04 Q1022 NOSIG=
201809201030 METAR LRBS 201030Z 11005KT 060V180 CAVOK 25/M02 Q1022 NOSIG=
201809201100 METAR LRBS 201100Z 07004KT 360V120 CAVOK 25/04 Q1022=
201809201130 METAR LRBS 201130Z VRB05KT CAVOK 25/05 Q1022 NOSIG=
201809201200 METAR LRBS 201200Z 12005KT 010V180 CAVOK 26/04 Q1021 NOSIG=
201809201230 METAR LRBS 201230Z 11005KT 010V180 CAVOK 26/05 Q1021 NOSIG=
201809201300 METAR LRBS 201300Z 08005KT 010V180 CAVOK 26/05 Q1021 NOSIG=
201809201330 METAR LRBS 201330Z VRB03KT CAVOK 26/06 Q1021 NOSIG=
201809201400 METAR LRBS 201400Z 10004KT 020V170 CAVOK 26/06 Q1020 NOSIG=
201809201430 METAR LRBS 201430Z 09005KT 040V130 CAVOK 26/06 Q1020 NOSIG=
201809201500 METAR COR LRBS 201500Z 11005KT 090V170 CAVOK 26/07 Q1020
                        NOSIG=
201809201530 METAR LRBS 201530Z 10004KT CAVOK 25/07 Q1020 NOSIG=
201809201600 METAR LRBS 201600Z 09003KT CAVOK 25/07 Q1020 NOSIG=
201809201630 METAR LRBS 201630Z 02001KT CAVOK 23/07 Q1020 NOSIG=
201809201700 METAR LRBS 201700Z 04002KT CAVOK 20/11 Q1020 NOSIG=
201809201730 METAR LRBS 201730Z 00000KT CAVOK 19/11 Q1020 NOSIG=
201809201800 METAR LRBS 201800Z 31001KT CAVOK 19/11 Q1021 NOSIG=
201809201830 METAR LRBS 201830Z 00000KT CAVOK 19/11 Q1021 NOSIG=
201809201900 METAR LRBS 201900Z 00000KT CAVOK 18/11 Q1020 NOSIG=
201809201930 METAR LRBS 201930Z 00000KT CAVOK 16/11 Q1020 NOSIG=
201809202000 METAR LRBS 202000Z 00000KT CAVOK 17/10 Q1020 NOSIG=
201809202030 METAR LRBS 202030Z 08001KT CAVOK 15/10 Q1020 NOSIG=
201809202100 METAR LRBS 202100Z 07002KT CAVOK 16/10 Q1021 NOSIG=
201809202130 METAR LRBS 202130Z 02002KT CAVOK 16/10 Q1021 NOSIG=
201809202200 METAR LRBS 202200Z VRB02KT CAVOK 15/10 Q1021 NOSIG=
201809202230 METAR LRBS 202230Z 01001KT CAVOK 14/10 Q1020 NOSIG=
201809202300 METAR LRBS 202300Z 33003KT CAVOK 15/10 Q1020 NOSIG=
201809202330 METAR LRBS 202330Z 00000KT CAVOK 14/10 Q1021 NOSIG=
201809210000 METAR LRBS 210000Z 28001KT CAVOK 14/10 Q1020 NOSIG=
201809210030 METAR LRBS 210030Z 00000KT CAVOK 14/09 Q1020 NOSIG=
201809210100 METAR LRBS 210100Z 00000KT CAVOK 13/09 Q1020 NOSIG=
201809210130 METAR LRBS 210130Z VRB01KT CAVOK 12/09 Q1020 NOSIG=
201809210200 METAR LRBS 210200Z VRB02KT CAVOK 13/09 Q1020 NOSIG=
201809210230 METAR LRBS 210230Z VRB02KT CAVOK 12/09 Q1020 NOSIG=
201809210300 METAR COR LRBS 210300Z 00000KT CAVOK 13/09 Q1020 NOSIG=
201809210330 METAR LRBS 210330Z 01001KT CAVOK 13/09 Q1021 NOSIG=
201809210400 METAR LRBS 210400Z 00000KT CAVOK 13/09 Q1020 NOSIG=
201809210430 METAR LRBS 210430Z VRB01KT CAVOK 13/09 Q1021 NOSIG=
201809210500 METAR LRBS 210500Z VRB01KT CAVOK 15/09 Q1021 NOSIG=
201809210530 METAR COR LRBS 210530Z VRB01KT CAVOK 16/09 Q1021 NOSIG=
201809210600 METAR LRBS 210600Z 01002KT CAVOK 16/10 Q1021 NOSIG=
201809210630 METAR COR LRBS 210630Z VRB02KT CAVOK 18/10 Q1021 NOSIG=
201809210700 METAR LRBS 210700Z 09003KT 060V140 CAVOK 19/11 Q1021 NOSIG=
201809210730 METAR LRBS 210730Z 08003KT 030V140 CAVOK 21/11 Q1021 NOSIG=
201809210800 METAR LRBS 210800Z 06003KT 020V110 CAVOK 22/11 Q1021 NOSIG=
201809210830 METAR LRBS 210830Z 10003KT 020V180 CAVOK 24/08 Q1021 NOSIG=
201809210900 METAR LRBS 210900Z 08003KT 360V150 CAVOK 24/07 Q1021 NOSIG=
201809210930 METAR LRBS 210930Z 03004KT 320V060 CAVOK 24/08 Q1021 NOSIG=
201809211000 METAR LRBS 211000Z 03006KT CAVOK 25/08 Q1020 NOSIG=
201809211030 METAR LRBS 211030Z VRB04KT CAVOK 26/08 Q1020 NOSIG=
201809211100 METAR COR LRBS 211100Z 04004KT 340V120 CAVOK 26/08 Q1020
                        NOSIG=
201809211130 METAR LRBS 211130Z VRB03KT CAVOK 26/08 Q1020 NOSIG=
201809211200 METAR LRBS 211200Z VRB04KT CAVOK 27/07 Q1020 NOSIG=
201809211230 METAR LRBS 211230Z VRB03KT CAVOK 26/07 Q1019 NOSIG=
201809211300 METAR LRBS 211300Z 08004KT 040V120 CAVOK 27/07 Q1019 NOSIG=
201809211330 METAR LRBS 211330Z VRB02KT CAVOK 27/07 Q1019 NOSIG=
201809211400 METAR LRBS 211400Z 05003KT 010V100 CAVOK 26/07 Q1019 NOSIG=
201809211430 METAR LRBS 211430Z 01003KT CAVOK 26/07 Q1019 NOSIG=
201809211500 METAR LRBS 211500Z VRB02KT CAVOK 26/06 Q1018 NOSIG=
201809211530 METAR LRBS 211530Z VRB02KT CAVOK 25/08 Q1019 NOSIG=
201809211600 METAR LRBS 211600Z 03003KT CAVOK 24/09 Q1018 NOSIG=
201809211630 METAR LRBS 211630Z 03004KT CAVOK 21/10 Q1018 NOSIG=
201809211700 METAR LRBS 211700Z VRB01KT CAVOK 21/11 Q1018 NOSIG=
201809211730 METAR LRBS 211730Z 00000KT CAVOK 21/11 Q1018 NOSIG=
201809211800 METAR LRBS 211800Z 00000KT CAVOK 20/11 Q1018 NOSIG=
201809211830 METAR COR LRBS 211830Z 00000KT CAVOK 19/11 Q1018 NOSIG=
201809211900 METAR COR LRBS 211900Z 00000KT CAVOK 18/10 Q1018 NOSIG=
201809211930 METAR LRBS 211930Z 00000KT CAVOK 18/10 Q1018 NOSIG=
201809212000 METAR LRBS 212000Z 05002KT CAVOK 16/10 Q1018 NOSIG=
201809212030 METAR LRBS 212030Z VRB02KT CAVOK 17/10 Q1018 NOSIG=
201809212100 METAR LRBS 212100Z VRB02KT CAVOK 17/10 Q1018 NOSIG=
201809212130 METAR LRBS 212130Z VRB01KT CAVOK 17/10 Q1018 NOSIG=
201809212200 METAR LRBS 212200Z 00000KT CAVOK 16/09 Q1018 NOSIG=
201809212230 METAR LRBS 212230Z VRB01KT CAVOK 16/09 Q1018 NOSIG=
201809212300 METAR LRBS 212300Z VRB01KT CAVOK 16/10 Q1018 NOSIG=
201809212330 METAR LRBS 212330Z VRB01KT CAVOK 15/10 Q1018 NOSIG=
201809220000 METAR LRBS 220000Z VRB01KT CAVOK 14/10 Q1018 NOSIG=
201809220030 METAR LRBS 220030Z VRB02KT CAVOK 14/10 Q1018 NOSIG=
201809220100 METAR LRBS 220100Z 00000KT CAVOK 14/10 Q1018=
201809220130 METAR LRBS 220130Z 00000KT CAVOK 14/10 Q1018 NOSIG=
201809220200 METAR LRBS 220200Z 02002KT CAVOK 13/09 Q1018 NOSIG=
201809220230 METAR LRBS 220230Z 00000KT CAVOK 13/09 Q1018 NOSIG=
201809220300 METAR LRBS 220300Z 00000KT CAVOK 13/10 Q1017 NOSIG=
201809220330 METAR LRBS 220330Z 00000KT CAVOK 13/09 Q1017 NOSIG=
201809220400 METAR LRBS 220400Z 05002KT CAVOK 12/09 Q1017 NOSIG=
201809220430 METAR LRBS 220430Z 01001KT CAVOK 13/10 Q1017 NOSIG=
201809220500 METAR LRBS 220500Z 00000KT CAVOK 15/10 Q1017 NOSIG=
201809220530 METAR LRBS 220530Z VRB01KT CAVOK 17/10 Q1017 NOSIG=
201809220600 METAR LRBS 220600Z 32002KT CAVOK 17/10 Q1018 NOSIG=
201809220630 METAR LRBS 220630Z 00000KT CAVOK 18/11 Q1018 NOSIG=
201809220700 METAR LRBS 220700Z VRB01KT CAVOK 20/12 Q1018 NOSIG=
201809220730 METAR LRBS 220730Z VRB01KT CAVOK 21/12 Q1018 NOSIG=
201809220800 METAR COR LRBS 220800Z VRB02KT CAVOK 23/12 Q1018 NOSIG=
201809220830 METAR LRBS 220830Z VRB02KT CAVOK 24/12 Q1018 NOSIG=
201809220900 METAR LRBS 220900Z VRB01KT CAVOK 25/11 Q1018 NOSIG=
201809220930 METAR LRBS 220930Z VRB02KT CAVOK 26/10 Q1018 NOSIG=
201809221000 METAR LRBS 221000Z 19003KT 120V270 CAVOK 27/10 Q1017 NOSIG=
201809221030 METAR LRBS 221030Z VRB03KT CAVOK 27/09 Q1017 NOSIG=
201809221100 METAR LRBS 221100Z 18005KT 120V240 CAVOK 28/09 Q1017 NOSIG=
201809221130 METAR LRBS 221130Z VRB04KT CAVOK 28/09 Q1016 NOSIG=
201809221200 METAR LRBS 221200Z 20004KT 130V260 CAVOK 29/09 Q1016 NOSIG=
201809221230 METAR LRBS 221230Z 24005KT 200V320 CAVOK 29/08 Q1016 NOSIG=
201809221300 METAR LRBS 221300Z VRB04KT CAVOK 30/08 Q1016 NOSIG=
201809221330 METAR LRBS 221330Z 30004KT 210V010 CAVOK 29/08 Q1016 NOSIG=
201809221400 METAR LRBS 221400Z 26005KT 220V340 CAVOK 29/07 Q1016 NOSIG=
201809221430 METAR LRBS 221430Z 27005KT 240V320 CAVOK 29/07 Q1015 NOSIG=
201809221500 METAR LRBS 221500Z 25005KT 220V300 CAVOK 29/07 Q1015 NOSIG=
201809221530 METAR LRBS 221530Z 27003KT 240V300 CAVOK 29/07 Q1015 NOSIG=
201809221600 METAR LRBS 221600Z 29003KT 240V320 CAVOK 27/08 Q1016 NOSIG=
201809221630 METAR LRBS 221630Z 00000KT CAVOK 26/08 Q1016 NOSIG=
201809221700 METAR LRBS 221700Z 00000KT CAVOK 25/09 Q1016 NOSIG=
201809221730 METAR LRBS 221730Z 34001KT CAVOK 24/10 Q1016 NOSIG=
201809221800 METAR LRBS 221800Z VRB01KT CAVOK 23/10 Q1016 NOSIG=
201809221830 METAR LRBS 221830Z 29002KT CAVOK 23/10 Q1016 NOSIG=
201809221900 METAR LRBS 221900Z VRB01KT CAVOK 22/10 Q1017 NOSIG=
201809221930 METAR LRBS 221930Z 00000KT CAVOK 21/10 Q1017 NOSIG=
201809222000 METAR LRBS 222000Z 00000KT CAVOK 21/11 Q1017 NOSIG=
201809222030 METAR LRBS 222030Z VRB01KT CAVOK 20/11 Q1017 NOSIG=
201809222100 METAR LRBS 222100Z 28002KT CAVOK 19/11 Q1017 NOSIG=
201809222130 METAR LRBS 222130Z VRB02KT CAVOK 19/11 Q1017 NOSIG=
201809222200 METAR LRBS 222200Z 31002KT CAVOK 19/11 Q1017 NOSIG=
201809222230 METAR LRBS 222230Z 26003KT CAVOK 18/11 Q1017 NOSIG=
201809222300 METAR LRBS 222300Z VRB02KT CAVOK 18/11 Q1017 NOSIG=
201809222330 METAR LRBS 222330Z 36001KT CAVOK 18/11 Q1017 NOSIG=
201809230000 METAR LRBS 230000Z VRB02KT CAVOK 16/11 Q1017 NOSIG=
201809230030 METAR LRBS 230030Z VRB01KT CAVOK 16/11 Q1017 NOSIG=
201809230100 METAR LRBS 230100Z 10004KT 070V130 CAVOK 15/11 Q1018 NOSIG=
201809230130 METAR LRBS 230130Z 11005KT 090V140 CAVOK 16/11 Q1018 NOSIG=
201809230200 METAR LRBS 230200Z 11005KT CAVOK 16/11 Q1018 NOSIG=
201809230230 METAR LRBS 230230Z 10009KT 040V120 CAVOK 16/10 Q1018 NOSIG=
201809230300 METAR LRBS 230300Z 10007KT CAVOK 16/09 Q1019 NOSIG=
201809230330 METAR COR LRBS 230330Z 06006KT CAVOK 15/09 Q1019 NOSIG=
201809230400 METAR LRBS 230400Z 07007KT CAVOK 15/09 Q1019 NOSIG=
201809230430 METAR LRBS 230430Z 07010KT CAVOK 15/09 Q1019 NOSIG=
201809230500 METAR LRBS 230500Z 07010KT CAVOK 16/08 Q1020 NOSIG=
201809230530 METAR LRBS 230530Z 08010KT CAVOK 16/08 Q1020 NOSIG=
201809230600 METAR LRBS 230600Z 07011KT 050V110 CAVOK 16/08 Q1021 NOSIG=
201809230630 METAR LRBS 230630Z 07010KT 040V110 CAVOK 16/08 Q1021 NOSIG=
201809230700 METAR LRBS 230700Z 06010KT 010V090 CAVOK 16/08 Q1021 NOSIG=
201809230730 METAR LRBS 230730Z 08011KT 050V110 CAVOK 18/08 Q1021 NOSIG=
201809230800 METAR LRBS 230800Z 07010KT 030V100 CAVOK 19/08 Q1021 NOSIG=
201809230830 METAR LRBS 230830Z 05008KT 020V100 CAVOK 18/09 Q1021 NOSIG=
201809230900 METAR LRBS 230900Z 07008KT 020V110 CAVOK 20/08 Q1021 NOSIG=
201809230930 METAR LRBS 230930Z 07008KT 020V100 CAVOK 20/09 Q1021 NOSIG=
201809231000 METAR LRBS 231000Z 06009KT 010V090 CAVOK 21/09 Q1021 NOSIG=
201809231030 METAR LRBS 231030Z 05008KT 360V110 CAVOK 22/09 Q1021 NOSIG=
201809231100 METAR LRBS 231100Z 08007KT 020V160 CAVOK 22/09 Q1021 NOSIG=
201809231130 METAR LRBS 231130Z 08006KT 010V140 CAVOK 23/09 Q1020 NOSIG=
201809231200 METAR LRBS 231200Z 09006KT 020V150 CAVOK 23/09 Q1020 NOSIG=
201809231230 METAR LRBS 231230Z 12005KT 050V220 CAVOK 24/09 Q1020 NOSIG=
201809231300 METAR LRBS 231300Z 06004KT 360V120 CAVOK 24/09 Q1019 NOSIG=
201809231330 METAR LRBS 231330Z 06006KT 010V110 CAVOK 24/09 Q1019 NOSIG=
201809231400 METAR LRBS 231400Z VRB04KT CAVOK 24/09 Q1019 NOSIG=
201809231430 METAR LRBS 231430Z 08004KT 020V120 CAVOK 24/09 Q1019 NOSIG=
201809231500 METAR LRBS 231500Z 05005KT 010V100 CAVOK 24/09 Q1019 NOSIG=
201809231530 METAR LRBS 231530Z 05005KT CAVOK 23/09 Q1019 NOSIG=
201809231600 METAR LRBS 231600Z 04004KT CAVOK 22/10 Q1019 NOSIG=
201809231630 METAR LRBS 231630Z 04003KT CAVOK 20/10 Q1019 NOSIG=
201809231700 METAR LRBS 231700Z 02004KT CAVOK 20/10 Q1019 NOSIG=
201809231730 METAR LRBS 231730Z 04004KT CAVOK 18/11 Q1019 NOSIG=
201809231800 METAR LRBS 231800Z 05003KT CAVOK 18/10 Q1019 NOSIG=
201809231830 METAR LRBS 231830Z 05003KT CAVOK 18/10 Q1019 NOSIG=
201809231900 METAR LRBS 231900Z 06005KT CAVOK 17/10 Q1019 NOSIG=
201809231930 METAR LRBS 231930Z 07005KT CAVOK 16/10 Q1019 NOSIG=
201809232000 METAR LRBS 232000Z 09005KT CAVOK 17/10 Q1019 NOSIG=
201809232030 METAR LRBS 232030Z 09005KT CAVOK 17/10 Q1018 NOSIG=
201809232100 METAR LRBS 232100Z 06004KT CAVOK 16/10 Q1018 NOSIG=
201809232130 METAR LRBS 232130Z 06003KT CAVOK 16/10 Q1017 NOSIG=
201809232200 METAR LRBS 232200Z 04003KT CAVOK 15/10 Q1017 NOSIG=
201809232230 METAR LRBS 232230Z 01004KT 340V040 CAVOK 16/10 Q1017 NOSIG=
201809232300 METAR LRBS 232300Z 36003KT 320V040 CAVOK 15/10 Q1016 NOSIG=
201809232330 METAR COR LRBS 232330Z 36003KT 320V020 CAVOK 15/10 Q1016
                        NOSIG=
201809240000 METAR COR LRBS 240000Z VRB02KT CAVOK 14/10 Q1015 NOSIG=
201809240030 METAR LRBS 240030Z 00000KT CAVOK 14/10 Q1015 NOSIG=
201809240100 METAR LRBS 240100Z VRB01KT CAVOK 14/10 Q1015 NOSIG=
201809240130 METAR LRBS 240130Z VRB01KT CAVOK 13/09 Q1014 NOSIG=
201809240200 METAR LRBS 240200Z VRB02KT CAVOK 13/10 Q1014 NOSIG=
201809240230 METAR LRBS 240230Z 00000KT CAVOK 14/10 Q1014 NOSIG=
201809240300 METAR LRBS 240300Z VRB01KT CAVOK 14/10 Q1013 NOSIG=
201809240330 METAR LRBS 240330Z 33003KT CAVOK 14/10 Q1013 NOSIG=
201809240400 METAR LRBS 240400Z 12002KT CAVOK 14/10 Q1012 NOSIG=
201809240430 METAR LRBS 240430Z 09001KT CAVOK 13/10 Q1012 NOSIG=
201809240500 METAR LRBS 240500Z 05002KT CAVOK 14/11 Q1012 NOSIG=
201809240530 METAR LRBS 240530Z VRB02KT CAVOK 15/11 Q1012 NOSIG=
201809240600 METAR LRBS 240600Z VRB01KT CAVOK 17/11 Q1011 NOSIG=
201809240630 METAR LRBS 240630Z 00000KT CAVOK 19/11 Q1011 NOSIG=
201809240700 METAR LRBS 240700Z 13003KT 070V170 CAVOK 20/11 Q1011 NOSIG=
201809240730 METAR LRBS 240730Z VRB01KT CAVOK 22/11 Q1011 NOSIG=
201809240800 METAR LRBS 240800Z VRB02KT CAVOK 23/11 Q1011 NOSIG=
201809240830 METAR LRBS 240830Z 24004KT 150V320 CAVOK 24/11 Q1010 NOSIG=
201809240900 METAR COR LRBS 240900Z 20006KT 150V240 CAVOK 25/11 Q1010
                        NOSIG=
201809240930 METAR LRBS 240930Z 25010KT 230V310 CAVOK 26/12 Q1010 NOSIG=
201809241000 METAR LRBS 241000Z 25010KT 220V290 CAVOK 27/11 Q1009 NOSIG=
201809241030 METAR LRBS 241030Z 26012KT 230V320 CAVOK 28/11 Q1009 NOSIG=
201809241100 METAR LRBS 241100Z 27010KT 240V350 CAVOK 29/10 Q1009 NOSIG=
201809241130 METAR LRBS 241130Z 27012KT 240V360 CAVOK 29/10 Q1009 NOSIG=
201809241200 METAR LRBS 241200Z 28012KT 250V320 CAVOK 29/10 Q1009 NOSIG=
201809241230 METAR LRBS 241230Z 27012KT 230V320 CAVOK 29/10 Q1010 NOSIG=
201809241300 METAR LRBS 241300Z 27014KT 230V360 CAVOK 29/10 Q1010 NOSIG=
201809241330 METAR LRBS 241330Z 28011KT 240V340 CAVOK 29/11 Q1010 NOSIG=
201809241400 METAR LRBS 241400Z VRB10KT 9999 FEW060CB 27/10 Q1010 NOSIG=
201809241430 METAR LRBS 241430Z 02009KT 340V060 9999 SCT059 24/09 Q1011
                        NOSIG=
201809241500 METAR LRBS 241500Z 02010KT 340V060 9999 SCT060CB 23/08 Q1012
                        NOSIG=
201809241530 METAR COR LRBS 241530Z 02007KT 340V060 9999 FEW060CB 22/07
                        Q1012 NOSIG=
201809241600 METAR LRBS 241600Z 02007KT 330V070 9999 FEW050CB 21/07 Q1013
                        BECMG 5000 -SHRA=
201809241630 METAR COR LRBS 241630Z 02004KT 320V090 9999 -SHRA SCT050CB
                        21/07 Q1014 BECMG 5000 -SHRA=
201809241700 METAR LRBS 241700Z 36004KT 320V040 9000 -SHRA SCT048CB 19/10
                        Q1015 TEMPO 5000 SHRA=
201809241730 METAR LRBS 241730Z 02006KT 320V080 7000 -SHRA BKN035CB BKN044
                        17/11 Q1016 RESHRA R07/29//95 TEMPO
                        3000 SHRA=
201809241800 METAR LRBS 241800Z 07005KT 020V100 4000 SHRA BKN030CB OVC040
                        15/12 Q1017 R07/29//95 TEMPO 3000
                        SHRA=
201809241830 METAR LRBS 241830Z 06006KT 020V110 3000 SHRA SCT007 BKN028CB
                        OVC035 14/12 Q1018 R07/29//95 NOSIG=
201809241900 METAR LRBS 241900Z 07012KT 4000 SHRA BKN005 BKN030CB OVC036
                        13/12 Q1019 R07/29//95 NOSIG=
201809241930 METAR LRBS 241930Z 07014KT 6000 SHRA BKN005 BKN030CB 12/11
                        Q1019 R07/29//95 BECMG SCT015 SCT030CB=
201809242000 METAR LRBS 242000Z 09009KT 060V120 5000 -SHRA BR BKN004 BKN030CB
                        12/10 Q1020 RESHRA R07/29//95 BECMG
                        9999 -SHRA SCT015 SCT030CB=
201809242030 METAR LRBS 242030Z 07008KT 3000 -SHRA BR BKN005 BKN012 SCT030CB
                        12/10 Q1021 RESHRA R07/29//95 BECMG
                        9999 -SHRA SCT015 SCT030CB=
201809242100 METAR LRBS 242100Z 07008KT 2800 SHRA BR SCT004 BKN012 SCT030CB
                        11/10 Q1021 R07/29//95 BECMG 9999
                        -SHRA=
201809242130 METAR LRBS 242130Z 11005KT 070V140 3000 -SHRA BR SCT005 BKN012
                        SCT030CB 11/10 Q1022 RESHRA R07/29//95
                        BECMG 9999 -SHRA=
201809242200 METAR LRBS 242200Z 04005KT 350V080 4000 -SHRA BR SCT004 BKN015
                        FEW030CB 11/09 Q1022 R07/29//95 BECMG
                        9999 -SHRA=
201809242230 METAR LRBS 242230Z 10005KT 070V140 3000 -SHRA BR BKN004 BKN020
                        FEW030CB 11/09 Q1022 R07/29//95 NOSIG=
201809242300 METAR LRBS 242300Z 07007KT 4000 -SHRA BR BKN005 FEW030CB
                        OVC036 10/09 Q1023 R07/29//95 NOSIG=
201809242330 METAR LRBS 242330Z 11003KT 070V140 4000 -SHRA BR SCT004 FEW030CB
                        OVC035 10/09 Q1023 R07/29//95 NOSIG=
201809250000 METAR LRBS 250000Z 14005KT 110V170 9999 SCT005 FEW030CB BKN038
                        10/09 Q1023 R07/29//95 NOSIG=
201809250030 METAR LRBS 250030Z 14003KT 9999 -SHRA SCT005 FEW035CB BKN038
                        10/09 Q1023 R07/29//95 NOSIG=
201809250100 METAR LRBS 250100Z 15003KT 9999 BKN005 FEW035CB OVC038 11/09
                        Q1023 R07/29//95 NOSIG=
201809250130 METAR LRBS 250130Z 17004KT 130V190 9000 SCT006 FEW030CB BKN035
                        11/09 Q1023 R07/29//95 NOSIG=
201809250200 METAR LRBS 250200Z 18007KT 160V220 5000 -SHRA BR SCT005 FEW030CB
                        OVC044 11/09 Q1024 R07/29//95 NOSIG=
201809250230 METAR LRBS 250230Z 20006KT 170V230 9999 -RA FEW005 OVC046
                        10/09 Q1023 R07/29//95 NOSIG=
201809250300 METAR LRBS 250300Z 19006KT 9999 FEW037 OVC046 11/09 Q1024
                        R07/29//95 NOSIG=
201809250330 METAR LRBS 250330Z 18004KT 150V220 9999 SCT007 BKN042 11/09
                        Q1024 R07/29//95 NOSIG=
201809250400 METAR LRBS 250400Z 24003KT 210V280 9999 BKN007 BKN037 11/09
                        Q1024 R07/29//95 NOSIG=
201809250430 METAR LRBS 250430Z VRB01KT 9999 BKN007 BKN036 11/09 Q1025
                        R07/29//95 NOSIG=
201809250500 METAR LRBS 250500Z 27004KT 240V310 9999 BKN007 BKN040 11/09
                        Q1025 R07/29//95 NOSIG=
201809250530 METAR LRBS 250530Z 26004KT 230V300 9999 FEW005 FEW040 11/09
                        Q1025 R07/29//95 NOSIG=
201809250600 METAR LRBS 250600Z 28003KT 240V340 9999 FEW006 FEW040 11/09
                        Q1025 R07/29//95 NOSIG=
201809250630 METAR LRBS 250630Z 30003KT 230V030 9999 BKN007 11/09 Q1026
                        R07/29//95 NOSIG=
201809250700 METAR LRBS 250700Z 34005KT 280V040 9999 SCT008 SCT037 12/09
                        Q1026 R07/29//95 NOSIG=
201809250730 METAR LRBS 250730Z VRB02KT 9999 FEW010 14/08 Q1026 R07/29//95
                        NOSIG=
201809250800 METAR COR LRBS 250800Z 03005KT 300V110 9999 FEW023 14/06
                        Q1026 R07/29//95 NOSIG=
201809250830 METAR LRBS 250830Z VRB04KT 9999 FEW026 15/02 Q1026 R07/CLRD//
                        NOSIG=
201809250900 METAR LRBS 250900Z 33006KT 250V050 9999 FEW048 16/02 Q1026
                        NOSIG=
201809250930 METAR LRBS 250930Z VRB04KT 9999 FEW047 16/01 Q1026 NOSIG=
201809251000 METAR LRBS 251000Z VRB04KT CAVOK 17/01 Q1026 NOSIG=
201809251030 METAR LRBS 251030Z VRB04KT CAVOK 17/00 Q1026 NOSIG=
201809251100 METAR LRBS 251100Z VRB02KT 9999 FEW008 16/M01 Q1026 NOSIG=
201809251130 METAR LRBS 251130Z VRB03KT CAVOK 17/M01 Q1026 NOSIG=
201809251200 METAR LRBS 251200Z 33003KT 260V040 CAVOK 16/M03 Q1026 NOSIG=
201809251230 METAR LRBS 251230Z VRB03KT CAVOK 17/M03 Q1026 NOSIG=
201809251300 METAR LRBS 251300Z 05005KT 350V100 CAVOK 16/M02 Q1027 NOSIG=
201809251330 METAR LRBS 251330Z 05004KT 020V100 CAVOK 16/M02 Q1027 NOSIG=
201809251400 METAR LRBS 251400Z 06005KT 330V100 CAVOK 17/M04 Q1027 NOSIG=
201809251430 METAR LRBS 251430Z 05005KT 010V080 CAVOK 17/M02 Q1027 NOSIG=
201809251500 METAR LRBS 251500Z 02005KT 350V060 CAVOK 17/M02 Q1027 NOSIG=
201809251530 METAR LRBS 251530Z 01004KT 340V040 CAVOK 16/M02 Q1028 NOSIG=
201809251600 METAR LRBS 251600Z 05010KT CAVOK 14/03 Q1028 NOSIG=
201809251630 METAR LRBS 251630Z 05010KT 020V090 CAVOK 13/04 Q1029 NOSIG=
201809251700 METAR LRBS 251700Z 05008KT 020V080 CAVOK 12/03 Q1030 NOSIG=
201809251730 METAR LRBS 251730Z 05005KT 010V080 CAVOK 11/03 Q1030 NOSIG=
201809251800 METAR LRBS 251800Z 04004KT CAVOK 10/03 Q1031 NOSIG=
201809251830 METAR LRBS 251830Z 02004KT 350V050 CAVOK 10/02 Q1031 NOSIG=
201809251900 METAR LRBS 251900Z 02003KT 360V060 CAVOK 10/02 Q1031 NOSIG=
201809251930 METAR LRBS 251930Z 02004KT CAVOK 10/02 Q1032 NOSIG=
201809252000 METAR LRBS 252000Z 01004KT 350V050 CAVOK 10/01 Q1032 NOSIG=
201809252030 METAR LRBS 252030Z 01004KT 340V050 CAVOK 09/01 Q1032 NOSIG=
201809252100 METAR COR LRBS 252100Z 03005KT 360V060 CAVOK 09/02 Q1033
                        NOSIG=
201809252130 METAR LRBS 252130Z 00000KT CAVOK 08/02 Q1033 NOSIG=
201809252200 METAR LRBS 252200Z VRB02KT CAVOK 08/03 Q1033 NOSIG=
201809252230 METAR LRBS 252230Z 00000KT CAVOK 07/02 Q1033 NOSIG=
201809252300 METAR LRBS 252300Z 25002KT CAVOK 07/02 Q1033 NOSIG=
201809252330 METAR LRBS 252330Z 00000KT CAVOK 07/02 Q1034 NOSIG=
201809260000 METAR LRBS 260000Z VRB02KT CAVOK 07/02 Q1034 NOSIG=
201809260030 METAR LRBS 260030Z 00000KT CAVOK 06/03 Q1034 NOSIG=
201809260100 METAR COR LRBS 260100Z 28002KT CAVOK 06/03 Q1034 NOSIG=
201809260130 METAR LRBS 260130Z 28002KT CAVOK 06/02 Q1034 NOSIG=
201809260200 METAR LRBS 260200Z 24004KT CAVOK 06/02 Q1034 NOSIG=
201809260230 METAR LRBS 260230Z 32004KT 290V350 CAVOK 06/02 Q1034 NOSIG=
201809260300 METAR LRBS 260300Z 29003KT 260V330 CAVOK 06/02 Q1034 NOSIG=
201809260330 METAR LRBS 260330Z VRB01KT CAVOK 06/02 Q1034 NOSIG=
201809260400 METAR LRBS 260400Z VRB01KT CAVOK 06/02 Q1035 NOSIG=
201809260430 METAR COR LRBS 260430Z VRB02KT CAVOK 06/02 Q1035 NOSIG=
201809260500 METAR COR LRBS 260500Z VRB02KT CAVOK 06/02 Q1035 NOSIG=
201809260530 METAR COR LRBS 260530Z VRB01KT CAVOK 08/03 Q1035 NOSIG=
201809260600 METAR COR LRBS 260600Z 36004KT 310V050 CAVOK 09/02 Q1036
                        NOSIG=
201809260630 METAR LRBS 260630Z 36005KT 300V040 CAVOK 11/02 Q1036 NOSIG=
201809260700 METAR LRBS 260700Z 02005KT 330V070 CAVOK 12/01 Q1036 NOSIG=
201809260730 METAR LRBS 260730Z 36006KT 310V060 CAVOK 13/M00 Q1036 NOSIG=
201809260800 METAR LRBS 260800Z 36006KT 300V050 CAVOK 13/M01 Q1036 NOSIG=
201809260830 METAR LRBS 260830Z 02006KT 320V090 CAVOK 14/M00 Q1036 NOSIG=
201809260900 METAR LRBS 260900Z 35007KT 300V050 CAVOK 14/M01 Q1036 NOSIG=
201809260930 METAR LRBS 260930Z 36005KT 300V040 CAVOK 11/01 Q1036 NOSIG=
201809261000 METAR LRBS 261000Z 03005KT 320V080 CAVOK 14/M02 Q1036 NOSIG=
201809261030 METAR LRBS 261030Z 03005KT 340V090 CAVOK 14/M02 Q1036 NOSIG=
201809261100 METAR LRBS 261100Z 01005KT 300V050 CAVOK 15/M02 Q1036 NOSIG=
201809261130 METAR COR LRBS 261130Z 05007KT 350V090 CAVOK 15/M03 Q1035
                        NOSIG=
201809261200 METAR COR LRBS 261200Z 36005KT 320V050 CAVOK 15/M05 Q1035
                        NOSIG=
201809261230 METAR LRBS 261230Z 36004KT 310V100 CAVOK 15/M05 Q1035 NOSIG=
201809261300 METAR LRBS 261300Z 03009KT 340V090 CAVOK 16/M05 Q1035 NOSIG=
201809261330 METAR COR LRBS 261330Z 02004KT 330V050 CAVOK 15/M05 Q1035
                        NOSIG=
201809261400 METAR LRBS 261400Z 01005KT 340V050 CAVOK 15/M05 Q1034 NOSIG=
201809261430 METAR LRBS 261430Z 36004KT 310V040 CAVOK 16/M05 Q1034 NOSIG=
201809261500 METAR LRBS 261500Z 05005KT 020V080 CAVOK 14/M03 Q1034 NOSIG=
201809261530 METAR LRBS 261530Z 07006KT 050V110 CAVOK 14/M02 Q1034 NOSIG=
201809261600 METAR LRBS 261600Z 07009KT CAVOK 13/M01 Q1034 NOSIG=
201809261630 METAR LRBS 261630Z 07003KT CAVOK 11/M01 Q1034 NOSIG=
201809261700 METAR LRBS 261700Z 06003KT 030V110 CAVOK 10/01 Q1035 NOSIG=
201809261730 METAR LRBS 261730Z 06003KT CAVOK 09/01 Q1035 NOSIG=
201809261800 METAR LRBS 261800Z 05002KT CAVOK 09/01 Q1035 NOSIG=
201809261830 METAR LRBS 261830Z 06003KT CAVOK 08/01 Q1035 NOSIG=
201809261900 METAR LRBS 261900Z 00000KT CAVOK 08/02 Q1036 NOSIG=
201809261930 METAR COR LRBS 261930Z 00000KT CAVOK 08/01 Q1036 NOSIG=
201809262000 METAR LRBS 262000Z 00000KT CAVOK 08/01 Q1036 NOSIG=
201809262030 METAR LRBS 262030Z 00000KT CAVOK 07/01 Q1036=
201809262100 METAR LRBS 262100Z 00000KT CAVOK 06/01 Q1036 NOSIG=
201809262130 METAR LRBS 262130Z 00000KT CAVOK 06/01 Q1036 NOSIG=
201809262200 METAR COR LRBS 262200Z 29001KT CAVOK 05/01 Q1035 NOSIG=
201809262230 METAR COR LRBS 262230Z 31002KT CAVOK 05/00 Q1035 NOSIG=
201809262300 METAR LRBS 262300Z 31002KT CAVOK 05/00 Q1035 NOSIG=
201809262330 METAR COR LRBS 262330Z 00000KT CAVOK 04/00 Q1035 NOSIG=
201809270000 METAR LRBS 270000Z 00000KT CAVOK 04/00 Q1035 NOSIG=
201809270030 METAR LRBS 270030Z 29002KT CAVOK 04/M00 Q1034 NOSIG=
201809270100 METAR COR LRBS 270100Z VRB02KT CAVOK 04/00 Q1034 NOSIG=
201809270130 METAR LRBS 270130Z 28003KT CAVOK 03/M00 Q1034 NOSIG=
201809270200 METAR LRBS 270200Z AUTO 25002KT NCD 03/M00 Q1034 NOSIG=
201809270230 METAR LRBS 270230Z VRB02KT CAVOK 03/M00 Q1033 NOSIG=
201809270300 METAR LRBS 270300Z VRB02KT CAVOK 03/M00 Q1033 NOSIG=
201809270330 METAR LRBS 270330Z 26002KT CAVOK 03/M01 Q1033 NOSIG=
201809270400 METAR LRBS 270400Z 30002KT CAVOK 03/M01 Q1033 NOSIG=
201809270430 METAR COR LRBS 270430Z 28002KT CAVOK 04/M01 Q1033 NOSIG=
201809270500 METAR LRBS 270500Z 28002KT CAVOK 05/01 Q1033 NOSIG=
201809270530 METAR LRBS 270530Z VRB01KT CAVOK 06/02 Q1033 NOSIG=
201809270600 METAR LRBS 270600Z VRB02KT CAVOK 08/01 Q1033 NOSIG=
201809270630 METAR LRBS 270630Z 26003KT 230V300 CAVOK 10/00 Q1033 NOSIG=
201809270700 METAR LRBS 270700Z 26005KT 230V290 CAVOK 11/M00 Q1033 NOSIG=
201809270730 METAR LRBS 270730Z 26008KT 240V320 CAVOK 12/M02 Q1032 NOSIG=
201809270800 METAR LRBS 270800Z 27009KT 230V310 CAVOK 14/M02 Q1032 NOSIG=
201809270830 METAR LRBS 270830Z 25010KT 220V280 CAVOK 14/M02 Q1032 NOSIG=
201809270900 METAR LRBS 270900Z 27010KT 230V320 CAVOK 15/M03 Q1032 NOSIG=
201809270930 METAR LRBS 270930Z 26011KT 240V310 CAVOK 15/M03 Q1032 NOSIG=
201809271000 METAR LRBS 271000Z 27010KT 230V300 CAVOK 16/M02 Q1031 NOSIG=
201809271030 METAR LRBS 271030Z 28008KT 220V350 CAVOK 16/M03 Q1031 NOSIG=
201809271100 METAR LRBS 271100Z 29008KT 210V010 CAVOK 17/M03 Q1030 NOSIG=
201809271130 METAR LRBS 271130Z 27009KT 230V020 CAVOK 18/M03 Q1030 NOSIG=
201809271200 METAR LRBS 271200Z 27009KT 230V310 CAVOK 17/M03 Q1029 NOSIG=
201809271230 METAR LRBS 271230Z 28006KT 230V010 CAVOK 17/M04 Q1029 NOSIG=
201809271300 METAR LRBS 271300Z 29007KT 230V350 CAVOK 17/M03 Q1028 NOSIG=
201809271330 METAR LRBS 271330Z 29005KT 240V340 CAVOK 18/M03 Q1028 NOSIG=
201809271400 METAR LRBS 271400Z 27006KT 240V320 CAVOK 17/M04 Q1028 NOSIG=
201809271430 METAR LRBS 271430Z 27007KT 240V310 CAVOK 17/M03 Q1028 NOSIG=
201809271500 METAR LRBS 271500Z 25007KT CAVOK 17/M03 Q1027 NOSIG=
201809271530 METAR LRBS 271530Z 25006KT CAVOK 17/M02 Q1027 NOSIG=
201809271600 METAR LRBS 271600Z 24004KT CAVOK 16/M02 Q1027 NOSIG=
201809271630 METAR LRBS 271630Z 25003KT CAVOK 16/M02 Q1027 NOSIG=
201809271700 METAR LRBS 271700Z 25002KT CAVOK 16/M01 Q1027 NOSIG=
201809271730 METAR LRBS 271730Z 26002KT CAVOK 16/M01 Q1027 NOSIG=
201809271800 METAR LRBS 271800Z VRB01KT CAVOK 16/M00 Q1027 NOSIG=
201809271830 METAR LRBS 271830Z 28001KT CAVOK 15/M01 Q1027 NOSIG=
201809271900 METAR LRBS 271900Z VRB01KT CAVOK 15/M00 Q1027 NOSIG=
201809271930 METAR LRBS 271930Z 29003KT 250V340 CAVOK 15/M00 Q1027 NOSIG=
201809272000 METAR LRBS 272000Z 29003KT 260V320 CAVOK 14/01 Q1027 NOSIG=
201809272030 METAR LRBS 272030Z 26002KT CAVOK 14/01 Q1027 NOSIG=
201809272100 METAR LRBS 272100Z VRB02KT CAVOK 14/01 Q1027 NOSIG=
201809272130 METAR LRBS 272130Z VRB02KT CAVOK 14/02 Q1027 NOSIG=
201809272200 METAR LRBS 272200Z 27002KT CAVOK 14/02 Q1027 NOSIG=
201809272230 METAR LRBS 272230Z 00000KT CAVOK 13/03 Q1027 NOSIG=
201809272300 METAR LRBS 272300Z 27001KT CAVOK 13/04 Q1027 NOSIG=
201809272330 METAR LRBS 272330Z 29003KT 270V330 CAVOK 13/04 Q1026 NOSIG=
201809280000 METAR LRBS 280000Z VRB02KT CAVOK 13/04 Q1026 NOSIG=
201809280030 METAR LRBS 280030Z 29003KT 260V340 CAVOK 13/04 Q1026 NOSIG=
201809280100 METAR LRBS 280100Z VRB02KT CAVOK 13/04 Q1026 NOSIG=
201809280130 METAR LRBS 280130Z 26003KT CAVOK 13/05 Q1025 NOSIG=
201809280200 METAR LRBS 280200Z 28002KT CAVOK 13/05 Q1025 NOSIG=
201809280230 METAR LRBS 280230Z 00000KT CAVOK 13/05 Q1025 NOSIG=
201809280300 METAR LRBS 280300Z 31001KT CAVOK 12/05 Q1025 NOSIG=
201809280330 METAR LRBS 280330Z 33001KT CAVOK 12/06 Q1025 NOSIG=
201809280400 METAR LRBS 280400Z 29002KT CAVOK 12/06 Q1025 NOSIG=
201809280430 METAR LRBS 280430Z 00000KT CAVOK 12/05 Q1024 NOSIG=
201809280500 METAR COR LRBS 280500Z VRB01KT CAVOK 13/06 Q1024 NOSIG=
201809280530 METAR LRBS 280530Z 26002KT CAVOK 14/05 Q1024 NOSIG=
201809280600 METAR LRBS 280600Z VRB02KT CAVOK 14/05 Q1024 NOSIG=
201809280630 METAR LRBS 280630Z VRB01KT CAVOK 16/05 Q1024 NOSIG=
201809280700 METAR LRBS 280700Z VRB03KT CAVOK 17/03 Q1024 NOSIG=
201809280730 METAR LRBS 280730Z 07003KT 360V110 CAVOK 19/02 Q1024 NOSIG=
201809280800 METAR LRBS 280800Z 14003KT 060V210 CAVOK 19/02 Q1024 NOSIG=
201809280830 METAR LRBS 280830Z VRB05KT CAVOK 20/02 Q1023 NOSIG=
201809280900 METAR LRBS 280900Z 05006KT 350V100 CAVOK 20/02 Q1023 NOSIG=
201809280930 METAR COR LRBS 280930Z 04005KT 310V120 CAVOK 21/01 Q1022
                        NOSIG=
201809281000 METAR LRBS 281000Z VRB04KT CAVOK 21/01 Q1022 NOSIG=
201809281030 METAR LRBS 281030Z 11004KT 040V160 CAVOK 21/02 Q1022 NOSIG=
201809281100 METAR LRBS 281100Z VRB04KT CAVOK 22/02 Q1021 NOSIG=
201809281130 METAR LRBS 281130Z VRB05KT CAVOK 22/03 Q1020 NOSIG=
201809281200 METAR LRBS 281200Z VRB03KT CAVOK 22/03 Q1020 NOSIG=
201809281230 METAR LRBS 281230Z VRB02KT CAVOK 22/03 Q1020 NOSIG=
201809281300 METAR LRBS 281300Z 12004KT 060V160 CAVOK 23/03 Q1019 NOSIG=
201809281330 METAR LRBS 281330Z 10005KT 070V140 CAVOK 23/03 Q1019 NOSIG=
201809281400 METAR LRBS 281400Z VRB05KT CAVOK 22/03 Q1018 NOSIG=
201809281430 METAR LRBS 281430Z VRB03KT CAVOK 22/02 Q1018 NOSIG=
201809281500 METAR LRBS 281500Z 18005KT 150V210 CAVOK 22/02 Q1018 NOSIG=
201809281530 METAR LRBS 281530Z 19004KT 150V220 CAVOK 21/03 Q1018 NOSIG=
201809281600 METAR LRBS 281600Z 19004KT CAVOK 20/03 Q1018 NOSIG=
201809281630 METAR LRBS 281630Z 19003KT CAVOK 20/03 Q1018 NOSIG=
201809281700 METAR LRBS 281700Z 17002KT CAVOK 19/03 Q1018 NOSIG=
201809281730 METAR LRBS 281730Z VRB01KT CAVOK 17/04 Q1018 NOSIG=
201809281800 METAR LRBS 281800Z 00000KT CAVOK 16/06 Q1017 NOSIG=
201809281830 METAR LRBS 281830Z VRB01KT CAVOK 14/07 Q1017 NOSIG=
201809281900 METAR LRBS 281900Z 00000KT CAVOK 14/07 Q1017 NOSIG=
201809281930 METAR LRBS 281930Z 00000KT CAVOK 14/07 Q1017 NOSIG=
201809282000 METAR LRBS 282000Z 00000KT CAVOK 14/07 Q1017 NOSIG=
201809282030 METAR LRBS 282030Z 27002KT CAVOK 13/07 Q1017 NOSIG=
201809282100 METAR LRBS 282100Z 00000KT CAVOK 13/07 Q1017 NOSIG=
201809282130 METAR LRBS 282130Z 00000KT CAVOK 13/08 Q1017 NOSIG=
201809282200 METAR LRBS 282200Z 00000KT CAVOK 12/07 Q1017 NOSIG=
201809282230 METAR LRBS 282230Z VRB01KT CAVOK 12/07 Q1017 NOSIG=
201809282300 METAR LRBS 282300Z 30001KT CAVOK 12/07 Q1016 NOSIG=
201809282330 METAR LRBS 282330Z VRB01KT CAVOK 12/07 Q1016 NOSIG=
201809290000 METAR LRBS 290000Z 29002KT CAVOK 11/07 Q1016 NOSIG=
201809290030 METAR COR LRBS 290030Z 24003KT CAVOK 11/06 Q1016 NOSIG=
201809290100 METAR LRBS 290100Z 26003KT CAVOK 11/06 Q1016 NOSIG=
201809290130 METAR LRBS 290130Z 26003KT CAVOK 12/06 Q1016 NOSIG=
201809290200 METAR LRBS 290200Z 25002KT CAVOK 11/06 Q1016 NOSIG=
201809290230 METAR LRBS 290230Z 25002KT CAVOK 11/06 Q1016 NOSIG=
201809290300 METAR LRBS 290300Z 29001KT CAVOK 11/06 Q1015 NOSIG=
201809290330 METAR LRBS 290330Z 00000KT CAVOK 11/06 Q1015 NOSIG=
201809290400 METAR LRBS 290400Z 27002KT CAVOK 11/07 Q1015 NOSIG=
201809290430 METAR LRBS 290430Z 23001KT CAVOK 11/07 Q1015 NOSIG=
201809290500 METAR LRBS 290500Z 00000KT CAVOK 12/08 Q1015 NOSIG=
201809290530 METAR LRBS 290530Z 00000KT CAVOK 14/08 Q1015 NOSIG=
201809290600 METAR LRBS 290600Z 00000KT CAVOK 15/08 Q1015 NOSIG=
201809290630 METAR LRBS 290630Z 00000KT CAVOK 17/07 Q1016 NOSIG=
201809290700 METAR LRBS 290700Z VRB01KT CAVOK 18/06 Q1016 NOSIG=
201809290730 METAR COR LRBS 290730Z VRB01KT CAVOK 19/06 Q1016 NOSIG=
201809290800 METAR LRBS 290800Z VRB01KT CAVOK 20/04 Q1016 NOSIG=
201809290830 METAR LRBS 290830Z VRB01KT CAVOK 21/03 Q1016 NOSIG=
201809290900 METAR LRBS 290900Z VRB01KT CAVOK 21/00 Q1016 NOSIG=
201809290930 METAR LRBS 290930Z 36004KT 320V070 CAVOK 21/07 Q1016 NOSIG=
201809291000 METAR LRBS 291000Z 01005KT 330V080 CAVOK 22/05 Q1016 NOSIG=
201809291030 METAR LRBS 291030Z VRB03KT CAVOK 22/04 Q1016 NOSIG=
201809291100 METAR LRBS 291100Z VRB05KT CAVOK 22/03 Q1016 NOSIG=
201809291130 METAR LRBS 291130Z 08007KT 020V110 CAVOK 22/03 Q1016 NOSIG=
201809291200 METAR LRBS 291200Z 07007KT 020V120 CAVOK 22/04 Q1016 NOSIG=
201809291230 METAR LRBS 291230Z 07010KT 040V100 CAVOK 22/03 Q1016 NOSIG=
201809291300 METAR LRBS 291300Z 06011KT 020V090 CAVOK 22/03 Q1016 NOSIG=
201809291330 METAR LRBS 291330Z 06014KT 030V090 CAVOK 21/09 Q1016 NOSIG=
201809291400 METAR LRBS 291400Z 06018KT 020V080 9999 FEW041 19/09 Q1016
                        NOSIG=
201809291430 METAR LRBS 291430Z 06015KT 020V090 CAVOK 17/07 Q1017 NOSIG=
201809291500 METAR LRBS 291500Z 05017KT 030V090 CAVOK 16/06 Q1017 NOSIG=
201809291530 METAR LRBS 291530Z 06018G28KT 030V090 CAVOK 15/06 Q1018 NOSIG=
201809291600 METAR COR LRBS 291600Z 04015G29KT 360V090 CAVOK 14/05 Q1018
                        NOSIG=
201809291630 METAR LRBS 291630Z 05017KT 020V090 CAVOK 14/05 Q1018 NOSIG=
201809291700 METAR LRBS 291700Z 05016KT 020V080 CAVOK 14/04 Q1019 NOSIG=
201809291730 METAR LRBS 291730Z 05017KT 020V090 CAVOK 14/04 Q1019 NOSIG=
201809291800 METAR LRBS 291800Z 05014KT 020V080 CAVOK 13/05 Q1020 NOSIG=
201809291830 METAR LRBS 291830Z 05016G27KT 010V070 9999 BKN044 13/05 Q1021
                        NOSIG=
201809291900 METAR LRBS 291900Z 04015G25KT 010V090 9999 BKN045 13/05 Q1021
                        NOSIG=
201809291930 METAR LRBS 291930Z 05017KT 020V080 9999 BKN048 13/04 Q1021
                        NOSIG=
201809292000 METAR LRBS 292000Z 05012KT 010V090 9999 BKN048 13/05 Q1022
                        NOSIG=
201809292030 METAR LRBS 292030Z 05012KT 360V090 9999 BKN045 13/04 Q1022
                        NOSIG=
201809292100 METAR COR LRBS 292100Z 04009KT 350V070 9999 BKN044 12/04
                        Q1023 NOSIG=
201809292130 METAR LRBS 292130Z 03013G24KT 360V070 9999 BKN044 12/03 Q1023
                        NOSIG=
201809292200 METAR LRBS 292200Z 05016KT 010V080 CAVOK 12/03 Q1023 NOSIG=
201809292230 METAR LRBS 292230Z 05015KT 010V070 9999 BKN047 12/03 Q1023
                        NOSIG=
201809292300 METAR LRBS 292300Z 05016G26KT 360V080 9999 BKN046 12/02 Q1023
                        NOSIG=
201809292330 METAR LRBS 292330Z 05014KT 340V080 9999 BKN045 11/02 Q1023
                        NOSIG=
201809300000 METAR LRBS 300000Z 05014KT 360V080 CAVOK 11/02 Q1023 NOSIG=
201809300030 METAR LRBS 300030Z 04014KT 360V070 9999 FEW045 11/02 Q1023
                        NOSIG=
201809300100 METAR LRBS 300100Z 05015KT 360V070 9999 FEW042 11/02 Q1023
                        NOSIG=
201809300130 METAR LRBS 300130Z 06014KT 010V080 9999 SCT044 11/02 Q1023
                        NOSIG=
201809300200 METAR LRBS 300200Z 05013KT 020V080 9999 BKN045 12/02 Q1023
                        NOSIG=
201809300230 METAR LRBS 300230Z 05010KT 020V090 9999 BKN049 11/02 Q1024
                        NOSIG=
201809300300 METAR LRBS 300300Z 05011KT 010V110 9999 SCT049 12/02 Q1024
                        NOSIG=
201809300330 METAR LRBS 300330Z 05013KT 020V080 CAVOK 11/02 Q1024 NOSIG=
201809300400 METAR LRBS 300400Z 04011KT 360V070 CAVOK 12/02 Q1024 NOSIG=
201809300430 METAR LRBS 300430Z 05012KT 020V080 9999 BKN049 12/02 Q1024
                        NOSIG=
201809300500 METAR LRBS 300500Z 05011KT 010V090 9999 BKN048 12/02 Q1025
                        NOSIG=
201809300530 METAR LRBS 300530Z 04012KT 010V080 9999 OVC046 12/02 Q1025
                        NOSIG=
201809300600 METAR LRBS 300600Z 05013KT 9999 OVC045 12/02 Q1025 NOSIG=
201809300630 METAR LRBS 300630Z 05012KT 010V080 9999 OVC045 13/03 Q1025
                        NOSIG=
201809300700 METAR LRBS 300700Z 05014KT 360V080 9999 OVC047 13/03 Q1025
                        NOSIG=
201809300730 METAR LRBS 300730Z 04013KT 010V070 9999 BKN048 13/03 Q1026
                        NOSIG=
201809300800 METAR LRBS 300800Z 04013KT 360V070 CAVOK 14/04 Q1026 NOSIG=
201809300830 METAR LRBS 300830Z 05014KT 010V080 CAVOK 14/04 Q1026 NOSIG=
201809300900 METAR LRBS 300900Z 05014KT 020V090 CAVOK 14/03 Q1025 NOSIG=
201809300930 METAR LRBS 300930Z 05010KT 010V090 9999 FEW037 15/03 Q1025
                        NOSIG=
201809301000 METAR LRBS 301000Z 05013KT 010V090 CAVOK 16/03 Q1025 NOSIG=
201809301030 METAR LRBS 301030Z 07012KT 020V100 CAVOK 17/03 Q1025 NOSIG=
201809301100 METAR LRBS 301100Z 06012KT 010V110 CAVOK 18/04 Q1024 NOSIG=
201809301130 METAR LRBS 301130Z 06013KT 020V100 CAVOK 18/03 Q1024 NOSIG=
201809301200 METAR LRBS 301200Z 05011KT 010V090 CAVOK 18/03 Q1024 NOSIG=
201809301230 METAR LRBS 301230Z 05010KT 360V090 CAVOK 18/03 Q1023 NOSIG=
201809301300 METAR LRBS 301300Z 04011KT 010V070 CAVOK 18/03 Q1023 NOSIG=
201809301330 METAR LRBS 301330Z 05010KT 010V080 CAVOK 18/03 Q1023 NOSIG=
201809301400 METAR LRBS 301400Z 06011KT CAVOK 18/03 Q1023 NOSIG=
201809301430 METAR LRBS 301430Z 05009KT 010V080 CAVOK 18/03 Q1023 NOSIG=
201809301500 METAR LRBS 301500Z 06010KT CAVOK 17/04 Q1022 NOSIG=
201809301530 METAR LRBS 301530Z 05008KT 020V080 CAVOK 17/03 Q1022 NOSIG=
201809301600 METAR LRBS 301600Z 04005KT 010V070 CAVOK 16/04 Q1022 NOSIG=
201809301630 METAR LRBS 301630Z 03004KT CAVOK 15/04 Q1023 NOSIG=
201809301700 METAR LRBS 301700Z 02004KT CAVOK 14/04 Q1023 NOSIG=
201809301730 METAR LRBS 301730Z 03004KT CAVOK 13/04 Q1023 NOSIG=
201809301800 METAR LRBS 301800Z 04004KT CAVOK 13/04 Q1023 NOSIG=
201809301830 METAR LRBS 301830Z 04005KT CAVOK 13/04 Q1023 NOSIG=
201809301900 METAR LRBS 301900Z 04005KT CAVOK 13/04 Q1022 NOSIG=
201809301930 METAR LRBS 301930Z 03003KT 360V060 CAVOK 12/04 Q1022 NOSIG=
201809302000 METAR LRBS 302000Z 04004KT 360V060 CAVOK 12/03 Q1022 NOSIG=
201809302030 METAR LRBS 302030Z 04005KT CAVOK 12/02 Q1022 NOSIG=
201809302100 METAR LRBS 302100Z 05005KT 020V080 CAVOK 12/02 Q1022 NOSIG=
201809302130 METAR LRBS 302130Z 04006KT 360V070 CAVOK 12/01 Q1021 NOSIG=
201809302200 METAR LRBS 302200Z 05006KT 010V070 9999 SCT047 11/02 Q1021
                        NOSIG=
201809302230 METAR LRBS 302230Z 04005KT 9999 FEW048 11/02 Q1021 NOSIG=
201809302300 METAR LRBS 302300Z 04003KT 360V090 CAVOK 11/02 Q1021 NOSIG=
201809302330 METAR COR LRBS 302330Z VRB01KT CAVOK 10/02 Q1020 NOSIG=