201810010000 METAR LRBS 010000Z VRB02KT CAVOK 10/02 Q1020 NOSIG=
201810010030 METAR LRBS 010030Z 02003KT 350V050 CAVOK 09/02 Q1020 NOSIG=
201810010100 METAR LRBS 010100Z 01003KT 340V040 CAVOK 09/02 Q1020=
201810010130 METAR LRBS 010130Z VRB02KT CAVOK 09/02 Q1019 NOSIG=
201810010200 METAR LRBS 010200Z VRB02KT CAVOK 09/03 Q1019 NOSIG=
201810010230 METAR LRBS 010230Z VRB02KT CAVOK 10/02 Q1018 NOSIG=
201810010300 METAR LRBS 010300Z VRB02KT CAVOK 10/03 Q1018 NOSIG=
201810010330 METAR LRBS 010330Z 36003KT 320V040 CAVOK 10/03 Q1018 NOSIG=
201810010400 METAR LRBS 010400Z 01003KT 340V040 CAVOK 10/03 Q1018 NOSIG=
201810010430 METAR LRBS 010430Z 01003KT 330V040 CAVOK 10/04 Q1018 NOSIG=
201810010500 METAR LRBS 010500Z 01003KT 340V040 CAVOK 10/04 Q1017 NOSIG=
201810010530 METAR LRBS 010530Z 02003KT 340V060 CAVOK 10/04 Q1017 NOSIG=
201810010600 METAR LRBS 010600Z 01004KT 340V050 9999 BKN045 11/04 Q1017
                        NOSIG=
201810010630 METAR LRBS 010630Z 02004KT 320V080 9999 FEW028 BKN048 12/05
                        Q1017 NOSIG=
201810010700 METAR LRBS 010700Z 03006KT 350V060 9999 BKN025 BKN046 13/04
                        Q1017 NOSIG=
201810010730 METAR LRBS 010730Z 03004KT 350V060 9999 BKN026 BKN045 13/04
                        Q1017 NOSIG=
201810010800 METAR LRBS 010800Z 02004KT 320V060 9999 -RA SCT027 BKN043
                        13/05 Q1017 NOSIG=
201810010830 METAR COR LRBS 010830Z 02003KT 350V070 9999 -RA BKN036 13/05
                        Q1016 R07/29//95 NOSIG=
201810010900 METAR LRBS 010900Z 03003KT 340V070 9999 -RA BKN021 13/06
                        Q1016 R07/29//95 NOSIG=
201810010930 METAR LRBS 010930Z 04003KT 360V070 9999 -RA OVC017 13/07
                        Q1016 R07/29//95 TEMPO BKN015 OVC025=
201810011000 METAR LRBS 011000Z VRB02KT 9999 -RA OVC019 13/07 Q1016 R07/29//95
                        TEMPO BKN015 OVC025=
201810011030 METAR LRBS 011030Z VRB02KT 9999 -RA FEW021 BKN027 13/07 Q1016
                        R07/29//95 TEMPO BKN015 OVC025=
201810011100 METAR LRBS 011100Z 01003KT 340V050 9999 -RA BKN019 BKN025
                        13/08 Q1016 R07/29//95 TEMPO BKN015
                        OVC025=
201810011130 METAR LRBS 011130Z 01004KT 320V060 9999 -RA SCT019 BKN026
                        13/09 Q1015 R07/29//95 TEMPO BKN015
                        OVC025=
201810011200 METAR LRBS 011200Z 02003KT 340V090 9999 -RA SCT018 BKN032
                        13/09 Q1015 R07/29//95 TEMPO BKN015
                        OVC025=
201810011230 METAR LRBS 011230Z 03004KT 350V060 9999 -RA BKN032 13/10
                        Q1014 R07/29//95 TEMPO BKN015 OVC025=
201810011300 METAR COR LRBS 011300Z 02003KT 340V060 9999 -RA FEW015 SCT045
                        13/11 Q1014 R07/29//95 TEMPO BKN015
                        OVC025=
201810011330 METAR COR LRBS 011330Z 01004KT 330V060 9999 SCT015 BKN029
                        13/10 Q1014 R07/29//95 TEMPO BKN015
                        OVC025=
201810011400 METAR LRBS 011400Z 02003KT 320V070 9999 FEW015 SCT040 14/10
                        Q1014 R07/29//95 TEMPO BKN015 OVC025=
201810011430 METAR LRBS 011430Z 02003KT 320V060 9999 SCT015 BKN047 14/11
                        Q1014 R07/29//95 NOSIG=
201810011500 METAR LRBS 011500Z VRB02KT 9999 -RA BKN049 14/10 Q1014 R07/29//95
                        NOSIG=
201810011530 METAR LRBS 011530Z VRB02KT 9999 BKN048 14/10 Q1014 R07/29//95
                        NOSIG=
201810011600 METAR LRBS 011600Z VRB02KT 9999 -RA OVC049 14/11 Q1013 R07/29//95
                        NOSIG=
201810011630 METAR LRBS 011630Z 02002KT 9999 -RA FEW018 13/11 Q1013 R07/29//95
                        NOSIG=
201810011700 METAR LRBS 011700Z 03002KT 9999 -RA FEW018 BKN041 13/11 Q1014
                        R07/29//95 NOSIG=
201810011730 METAR LRBS 011730Z VRB01KT 9999 -RA OVC045 13/11 Q1013 R07/29//95
                        NOSIG=
201810011800 METAR LRBS 011800Z 00000KT 9999 -RA BKN044 13/11 Q1014 R07/29//95
                        NOSIG=
201810011830 METAR LRBS 011830Z VRB01KT 9999 OVC043 13/12 Q1014 R07/29//95
                        NOSIG=
201810011900 METAR LRBS 011900Z 29002KT 9999 OVC039 13/12 Q1014 R07/29//95
                        NOSIG=
201810011930 METAR LRBS 011930Z 31003KT 280V340 9999 FEW017 OVC038 13/12
                        Q1014 R07/29//95 NOSIG=
201810012000 METAR LRBS 012000Z VRB02KT 9999 SCT017 OVC039 13/12 Q1014
                        R07/29//95 NOSIG=
201810012030 METAR LRBS 012030Z 30001KT 9999 FEW017 OVC039 13/12 Q1014
                        R07/29//95 NOSIG=
201810012100 METAR LRBS 012100Z VRB01KT 9999 OVC037 13/12 Q1014 R07/29//95
                        NOSIG=
201810012130 METAR LRBS 012130Z VRB02KT 9999 OVC036 13/12 Q1014 R07/29//95
                        NOSIG=
201810012200 METAR LRBS 012200Z VRB02KT 9999 OVC035 13/12 Q1014 R07/29//95
                        NOSIG=
201810012230 METAR LRBS 012230Z 24001KT 9999 OVC035 13/12 Q1014 R07/29//95
                        NOSIG=
201810012300 METAR LRBS 012300Z 28002KT 9999 OVC038 13/12 Q1014 R07/29//95
                        NOSIG=
201810012330 METAR LRBS 012330Z AUTO 29005KT OVC038/// 13/12 Q1014 NOSIG=
201810020000 METAR COR LRBS 020000Z 29003KT 260V320 9999 OVC040 13/12
                        Q1014 R07/29//95 NOSIG=
201810020030 METAR LRBS 020030Z 28005KT 9999 OVC040 13/12 Q1014 R07/29//95
                        NOSIG=
201810020100 METAR LRBS 020100Z 27003KT 250V320 9999 BKN036 13/11 Q1014
                        R07/29//95 NOSIG=
201810020130 METAR LRBS 020130Z 26004KT 9999 OVC037 13/11 Q1014 R07/29//95
                        NOSIG=
201810020200 METAR LRBS 020200Z 26003KT 220V280 9999 SCT041 13/11 Q1013
                        R07/29//95 NOSIG=
201810020230 METAR LRBS 020230Z 23004KT CAVOK 13/11 Q1014 R07/29//95 NOSIG=
201810020300 METAR LRBS 020300Z 24004KT CAVOK 12/10 Q1014 R07/29//95 NOSIG=
201810020330 METAR LRBS 020330Z 23006KT CAVOK 12/10 Q1014 R07/29//95 NOSIG=
201810020400 METAR LRBS 020400Z 23005KT CAVOK 12/10 Q1014 R07/29//95 NOSIG=
201810020430 METAR LRBS 020430Z 23004KT CAVOK 12/10 Q1014 R07/29//95 NOSIG=
201810020500 METAR LRBS 020500Z 24006KT CAVOK 12/10 Q1014 R07/29//95 NOSIG=
201810020530 METAR LRBS 020530Z 27005KT 240V310 CAVOK 13/10 Q1014 R07/29//95
                        NOSIG=
201810020600 METAR LRBS 020600Z 27006KT 230V310 CAVOK 14/10 Q1015 R07/29//95
                        NOSIG=
201810020630 METAR LRBS 020630Z 26007KT 240V300 CAVOK 15/10 Q1015 R07/CLRD//
                        NOSIG=
201810020700 METAR LRBS 020700Z 27008KT 240V310 CAVOK 16/11 Q1015 NOSIG=
201810020730 METAR LRBS 020730Z 27008KT 230V310 CAVOK 17/10 Q1016 NOSIG=
201810020800 METAR LRBS 020800Z 26009KT 240V300 CAVOK 18/11 Q1016 NOSIG=
201810020830 METAR LRBS 020830Z 27008KT 230V340 CAVOK 19/10 Q1016 NOSIG=
201810020900 METAR LRBS 020900Z 27009KT 240V340 CAVOK 19/11 Q1016 NOSIG=
201810020930 METAR LRBS 020930Z 26011KT 240V300 9999 FEW029 19/10 Q1016
                        NOSIG=
201810021000 METAR LRBS 021000Z 27011KT 230V330 9999 FEW028 20/11 Q1016
                        NOSIG=
201810021030 METAR LRBS 021030Z 26010KT 220V300 9999 FEW030 20/10 Q1016
                        NOSIG=
201810021100 METAR LRBS 021100Z 27011KT 240V320 CAVOK 21/10 Q1016 NOSIG=
201810021130 METAR LRBS 021130Z 25012KT 220V320 CAVOK 21/10 Q1016 NOSIG=
201810021200 METAR LRBS 021200Z 26011KT 230V300 CAVOK 21/10 Q1015 NOSIG=
201810021230 METAR LRBS 021230Z 26009KT 230V320 CAVOK 21/10 Q1015 NOSIG=
201810021300 METAR LRBS 021300Z 24011KT CAVOK 21/11 Q1015 NOSIG=
201810021330 METAR LRBS 021330Z 25010KT 220V280 CAVOK 21/11 Q1015 NOSIG=
201810021400 METAR LRBS 021400Z 24011KT CAVOK 21/11 Q1015 NOSIG=
201810021430 METAR LRBS 021430Z 25011KT 220V280 CAVOK 20/11 Q1015 NOSIG=
201810021500 METAR LRBS 021500Z 24010KT 220V280 CAVOK 20/11 Q1015 NOSIG=
201810021530 METAR LRBS 021530Z 24010KT CAVOK 19/11 Q1015 NOSIG=
201810021600 METAR LRBS 021600Z 23007KT CAVOK 18/11 Q1015 NOSIG=
201810021630 METAR LRBS 021630Z 23006KT CAVOK 18/11 Q1016 NOSIG=
201810021700 METAR LRBS 021700Z 23007KT CAVOK 17/11 Q1016 NOSIG=
201810021730 METAR LRBS 021730Z 24008KT 220V280 CAVOK 17/11 Q1016 NOSIG=
201810021800 METAR LRBS 021800Z 24006KT CAVOK 17/11 Q1016 NOSIG=
201810021830 METAR LRBS 021830Z 25007KT CAVOK 16/12 Q1016 NOSIG=
201810021900 METAR LRBS 021900Z 26007KT CAVOK 16/12 Q1016 NOSIG=
201810021930 METAR LRBS 021930Z 26009KT CAVOK 16/12 Q1016 NOSIG=
201810022000 METAR LRBS 022000Z 26007KT 230V290 CAVOK 15/11 Q1016 NOSIG=
201810022030 METAR LRBS 022030Z 26008KT CAVOK 15/11 Q1016 NOSIG=
201810022100 METAR LRBS 022100Z 25008KT CAVOK 14/11 Q1016 NOSIG=
201810022130 METAR LRBS 022130Z 26009KT CAVOK 14/11 Q1016 NOSIG=
201810022200 METAR LRBS 022200Z 25010KT CAVOK 14/10 Q1016 NOSIG=
201810022230 METAR LRBS 022230Z 25010KT CAVOK 14/10 Q1016 NOSIG=
201810022300 METAR LRBS 022300Z 27009KT 250V310 CAVOK 14/10 Q1016 NOSIG=
201810022330 METAR LRBS 022330Z 26009KT 240V310 CAVOK 13/10 Q1016 NOSIG=
201810030000 METAR LRBS 030000Z 24010KT CAVOK 14/10 Q1016 NOSIG=
201810030030 METAR LRBS 030030Z AUTO 25014KT BKN077/// 13/09 Q1016 NOSIG=
201810030100 METAR COR LRBS 030100Z 26010KT 230V310 CAVOK 13/09 Q1017
                        NOSIG=
201810030130 METAR LRBS 030130Z 27009KT 240V300 CAVOK 13/08 Q1017 NOSIG=
201810030200 METAR LRBS 030200Z 28007KT 210V340 CAVOK 13/08 Q1017 NOSIG=
201810030230 METAR LRBS 030230Z 27006KT 240V310 CAVOK 12/07 Q1018 NOSIG=
201810030300 METAR LRBS 030300Z 28004KT 240V340 CAVOK 12/07 Q1018 NOSIG=
201810030330 METAR LRBS 030330Z 28005KT 240V320 CAVOK 11/07 Q1018 NOSIG=
201810030400 METAR LRBS 030400Z 28005KT 240V310 CAVOK 11/07 Q1018 NOSIG=
201810030430 METAR LRBS 030430Z 27004KT 240V300 CAVOK 11/07 Q1019 NOSIG=
201810030500 METAR COR LRBS 030500Z 27006KT CAVOK 11/06 Q1019 NOSIG=
201810030530 METAR LRBS 030530Z 26007KT CAVOK 11/06 Q1019 NOSIG=
201810030600 METAR LRBS 030600Z 27009KT 240V310 CAVOK 11/06 Q1019 NOSIG=
201810030630 METAR LRBS 030630Z 27009KT 240V310 CAVOK 12/06 Q1019 NOSIG=
201810030700 METAR LRBS 030700Z 27008KT 240V340 CAVOK 13/05 Q1020 NOSIG=
201810030730 METAR LRBS 030730Z 27007KT 220V320 CAVOK 14/05 Q1020 NOSIG=
201810030800 METAR LRBS 030800Z 27007KT 230V350 CAVOK 15/05 Q1020 NOSIG=
201810030830 METAR LRBS 030830Z 27006KT 220V340 CAVOK 16/04 Q1019 NOSIG=
201810030900 METAR LRBS 030900Z 27006KT 210V340 CAVOK 17/03 Q1019 NOSIG=
201810030930 METAR LRBS 030930Z 27008KT 230V360 CAVOK 18/03 Q1019 NOSIG=
201810031000 METAR LRBS 031000Z 28009KT 230V330 CAVOK 18/02 Q1019 NOSIG=
201810031030 METAR LRBS 031030Z 26010KT 230V310 CAVOK 18/02 Q1018 NOSIG=
201810031100 METAR LRBS 031100Z 28008KT 240V360 CAVOK 19/02 Q1018 NOSIG=
201810031130 METAR LRBS 031130Z 27008KT 230V330 CAVOK 19/02 Q1018 NOSIG=
201810031200 METAR LRBS 031200Z 25010KT 220V300 CAVOK 20/01 Q1017 NOSIG=
201810031230 METAR LRBS 031230Z 26010KT 240V300 CAVOK 20/01 Q1017 NOSIG=
201810031300 METAR LRBS 031300Z 27009KT 230V320 CAVOK 20/M00 Q1017 NOSIG=
201810031330 METAR LRBS 031330Z 26012KT 230V310 CAVOK 21/M01 Q1017 NOSIG=
201810031400 METAR LRBS 031400Z 26013KT 230V310 CAVOK 20/M02 Q1017 NOSIG=
201810031430 METAR LRBS 031430Z 26011KT 240V300 CAVOK 20/M02 Q1017 NOSIG=
201810031500 METAR LRBS 031500Z 27009KT 230V310 CAVOK 20/M02 Q1017 NOSIG=
201810031530 METAR LRBS 031530Z 27007KT 240V300 CAVOK 19/M01 Q1017 NOSIG=
201810031600 METAR LRBS 031600Z 27006KT 240V300 CAVOK 18/M01 Q1018 NOSIG=
201810031630 METAR COR LRBS 031630Z 27005KT 240V300 CAVOK 17/M01 Q1018
                        NOSIG=
201810031700 METAR LRBS 031700Z 28004KT 260V320 CAVOK 16/00 Q1018 NOSIG=
201810031730 METAR COR LRBS 031730Z 29002KT 240V320 CAVOK 16/01 Q1019
                        NOSIG=
201810031800 METAR LRBS 031800Z 33003KT 260V020 CAVOK 14/01 Q1019 NOSIG=
201810031830 METAR LRBS 031830Z VRB01KT CAVOK 14/02 Q1020 NOSIG=
201810031900 METAR LRBS 031900Z VRB02KT CAVOK 11/03 Q1020 NOSIG=
201810031930 METAR LRBS 031930Z 00000KT CAVOK 12/03 Q1020 NOSIG=
201810032000 METAR LRBS 032000Z 10003KT 050V130 CAVOK 10/03 Q1020 NOSIG=
201810032030 METAR LRBS 032030Z 32001KT CAVOK 11/04 Q1020 NOSIG=
201810032100 METAR LRBS 032100Z 25002KT CAVOK 10/04 Q1021 NOSIG=
201810032130 METAR LRBS 032130Z VRB01KT CAVOK 10/05 Q1021 NOSIG=
201810032200 METAR LRBS 032200Z 23002KT CAVOK 09/05 Q1021 NOSIG=
201810032230 METAR LRBS 032230Z 25003KT CAVOK 09/04 Q1021 NOSIG=
201810032300 METAR LRBS 032300Z 23004KT CAVOK 09/04 Q1021 NOSIG=
201810032330 METAR LRBS 032330Z 25003KT CAVOK 08/03 Q1022 NOSIG=
201810040000 METAR LRBS 040000Z 24003KT CAVOK 08/03 Q1022 NOSIG=
201810040030 METAR LRBS 040030Z VRB01KT CAVOK 08/03 Q1022 NOSIG=
201810040100 METAR LRBS 040100Z 21005KT CAVOK 08/03 Q1022 NOSIG=
201810040130 METAR LRBS 040130Z 24005KT CAVOK 10/02 Q1022 NOSIG=
201810040200 METAR LRBS 040200Z 22006KT CAVOK 09/02 Q1022 NOSIG=
201810040230 METAR LRBS 040230Z 23007KT CAVOK 09/02 Q1023 NOSIG=
201810040300 METAR LRBS 040300Z 25008KT CAVOK 08/02 Q1023 NOSIG=
201810040330 METAR LRBS 040330Z 25008KT CAVOK 08/02 Q1023 NOSIG=
201810040400 METAR LRBS 040400Z 27004KT 220V320 CAVOK 08/01 Q1024 NOSIG=
201810040430 METAR LRBS 040430Z 27004KT CAVOK 08/01 Q1024 NOSIG=
201810040500 METAR LRBS 040500Z VRB02KT CAVOK 08/01 Q1024 NOSIG=
201810040530 METAR LRBS 040530Z 26005KT 240V310 CAVOK 09/02 Q1024 NOSIG=
201810040600 METAR COR LRBS 040600Z 27005KT 240V320 CAVOK 10/02 Q1025
                        NOSIG=
201810040630 METAR LRBS 040630Z 27005KT 230V310 CAVOK 12/02 Q1025 NOSIG=
201810040700 METAR LRBS 040700Z 25006KT 220V300 CAVOK 13/02 Q1025 NOSIG=
201810040730 METAR LRBS 040730Z 28004KT 240V010 CAVOK 14/02 Q1025 NOSIG=
201810040800 METAR COR LRBS 040800Z 29003KT CAVOK 17/M01 Q1025 NOSIG=
201810040830 METAR LRBS 040830Z VRB01KT CAVOK 17/M01 Q1025 NOSIG=
201810040900 METAR LRBS 040900Z 27004KT 210V310 CAVOK 18/M01 Q1025 NOSIG=
201810040930 METAR LRBS 040930Z 28004KT 210V010 CAVOK 18/M01 Q1025 NOSIG=
201810041000 METAR LRBS 041000Z 30003KT 220V030 CAVOK 19/M01 Q1025=
201810041030 METAR LRBS 041030Z 35006KT 300V060 CAVOK 19/M03 Q1025 NOSIG=
201810041100 METAR LRBS 041100Z VRB06KT CAVOK 20/M01 Q1025 NOSIG=
201810041130 METAR COR LRBS 041130Z 29006KT 240V360 CAVOK 20/M02 Q1025
                        NOSIG=
201810041200 METAR LRBS 041200Z VRB05KT CAVOK 20/M03 Q1025 NOSIG=
201810041230 METAR LRBS 041230Z 24006G16KT 180V350 CAVOK 20/M03 Q1025
                        NOSIG=
201810041300 METAR LRBS 041300Z 27006KT 230V310 CAVOK 20/M03 Q1025 NOSIG=
201810041330 METAR LRBS 041330Z 32003KT 240V010 CAVOK 20/M03 Q1025 NOSIG=
201810041400 METAR LRBS 041400Z 27006KT 240V320 CAVOK 20/M03 Q1025 NOSIG=
201810041430 METAR LRBS 041430Z 28004KT 240V320 CAVOK 20/M03 Q1025 NOSIG=
201810041500 METAR LRBS 041500Z 29003KT 270V340 CAVOK 20/M03 Q1025 NOSIG=
201810041530 METAR LRBS 041530Z 29002KT CAVOK 19/M02 Q1025 NOSIG=
201810041600 METAR LRBS 041600Z VRB02KT CAVOK 18/M01 Q1026 NOSIG=
201810041630 METAR LRBS 041630Z VRB01KT CAVOK 15/02 Q1026 NOSIG=
201810041700 METAR LRBS 041700Z 01001KT CAVOK 13/02 Q1026 NOSIG=
201810041730 METAR LRBS 041730Z 07006KT 040V100 CAVOK 14/00 Q1027 NOSIG=
201810041800 METAR LRBS 041800Z 07003KT CAVOK 14/00 Q1027 NOSIG=
201810041830 METAR LRBS 041830Z 08003KT CAVOK 12/01 Q1028 NOSIG=
201810041900 METAR LRBS 041900Z 07005KT CAVOK 11/01 Q1028 NOSIG=
201810041930 METAR LRBS 041930Z 08005KT CAVOK 10/01 Q1029 NOSIG=
201810042000 METAR LRBS 042000Z 07004KT CAVOK 11/00 Q1029 NOSIG=
201810042030 METAR LRBS 042030Z 07005KT CAVOK 09/00 Q1029 NOSIG=
201810042100 METAR LRBS 042100Z 06004KT CAVOK 09/01 Q1030 NOSIG=
201810042130 METAR LRBS 042130Z 07004KT CAVOK 09/01 Q1030=
201810042200 METAR LRBS 042200Z 07003KT CAVOK 09/00 Q1030 NOSIG=
201810042230 METAR LRBS 042230Z 06003KT CAVOK 09/00 Q1031 NOSIG=
201810042300 METAR LRBS 042300Z 07004KT CAVOK 08/00 Q1031 NOSIG=
201810042330 METAR LRBS 042330Z 07003KT CAVOK 08/01 Q1031 NOSIG=
201810050000 METAR LRBS 050000Z 03002KT CAVOK 08/00 Q1031 NOSIG=
201810050030 METAR LRBS 050030Z AUTO 02004KT R07////// R25/P2000 NCD 08/M00
                        Q1031 NOSIG=
201810050100 METAR LRBS 050100Z 04003KT CAVOK 07/M00 Q1031 NOSIG=
201810050130 METAR LRBS 050130Z 03003KT CAVOK 07/M00 Q1031 NOSIG=
201810050200 METAR LRBS 050200Z 04004KT 010V070 CAVOK 07/M00 Q1031 NOSIG=
201810050230 METAR LRBS 050230Z 05003KT 020V080 CAVOK 06/M00 Q1031=
201810050300 METAR LRBS 050300Z 04003KT 360V070 CAVOK 06/M00 Q1031 NOSIG=
201810050330 METAR LRBS 050330Z 03004KT 360V070 CAVOK 06/M00 Q1032 NOSIG=
201810050400 METAR LRBS 050400Z VRB02KT CAVOK 06/M00 Q1032 NOSIG=
201810050430 METAR LRBS 050430Z 04003KT CAVOK 05/M00 Q1032 NOSIG=
201810050500 METAR LRBS 050500Z 03003KT CAVOK 07/00 Q1032 NOSIG=
201810050530 METAR LRBS 050530Z 04005KT 010V070 CAVOK 08/01 Q1032 NOSIG=
201810050600 METAR LRBS 050600Z 05005KT 010V080 CAVOK 10/01 Q1033 NOSIG=
201810050630 METAR LRBS 050630Z 04006KT 010V070 CAVOK 11/01 Q1033 NOSIG=
201810050700 METAR LRBS 050700Z 05007KT 020V090 CAVOK 12/01 Q1033 NOSIG=
201810050730 METAR LRBS 050730Z 06009KT 020V090 CAVOK 13/01 Q1033 NOSIG=
201810050800 METAR LRBS 050800Z 07008KT 040V100 CAVOK 14/M00 Q1033 NOSIG=
201810050830 METAR LRBS 050830Z 08008KT 040V110 CAVOK 15/M00 Q1033 NOSIG=
201810050900 METAR LRBS 050900Z 07009KT 020V120 CAVOK 16/00 Q1032 NOSIG=
201810050930 METAR LRBS 050930Z 06008KT 010V100 CAVOK 17/00 Q1032 NOSIG=
201810051000 METAR LRBS 051000Z 08008KT 030V130 CAVOK 17/01 Q1032 NOSIG=
201810051030 METAR LRBS 051030Z 08006KT 020V130 CAVOK 18/01 Q1032 NOSIG=
201810051100 METAR LRBS 051100Z 07006KT 010V130 CAVOK 18/01 Q1031 NOSIG=
201810051130 METAR LRBS 051130Z VRB05KT CAVOK 19/01 Q1031 NOSIG=
201810051200 METAR LRBS 051200Z 05005KT 320V100 CAVOK 19/01 Q1030 NOSIG=
201810051230 METAR LRBS 051230Z VRB03KT CAVOK 20/01 Q1030 NOSIG=
201810051300 METAR LRBS 051300Z 14004KT 070V230 CAVOK 20/01 Q1030 NOSIG=
201810051330 METAR COR LRBS 051330Z VRB01KT CAVOK 20/M00 Q1030 NOSIG=
201810051400 METAR LRBS 051400Z 07003KT 020V110 CAVOK 20/00 Q1029 NOSIG=
201810051430 METAR LRBS 051430Z 08004KT 360V130 CAVOK 20/00 Q1029 NOSIG=
201810051500 METAR LRBS 051500Z 05004KT CAVOK 19/01 Q1029 NOSIG=
201810051530 METAR LRBS 051530Z 02003KT CAVOK 18/02 Q1029 NOSIG=
201810051600 METAR LRBS 051600Z 03004KT CAVOK 16/02 Q1029 NOSIG=
201810051630 METAR LRBS 051630Z 01004KT CAVOK 14/04 Q1029 NOSIG=
201810051700 METAR LRBS 051700Z 01003KT CAVOK 14/03 Q1029 NOSIG=
201810051730 METAR LRBS 051730Z 02003KT CAVOK 13/03 Q1029 NOSIG=
201810051800 METAR LRBS 051800Z 36002KT CAVOK 12/03 Q1029 NOSIG=
201810051830 METAR LRBS 051830Z 03002KT 360V060 CAVOK 12/03 Q1029 NOSIG=
201810051900 METAR LRBS 051900Z VRB01KT CAVOK 12/03 Q1029 NOSIG=
201810051930 METAR LRBS 051930Z 04002KT 010V100 CAVOK 11/02 Q1030 NOSIG=
201810052000 METAR LRBS 052000Z 05002KT CAVOK 10/03 Q1030 NOSIG=
201810052030 METAR LRBS 052030Z 04003KT CAVOK 09/03 Q1030 NOSIG=
201810052100 METAR LRBS 052100Z 05002KT CAVOK 10/03 Q1029 NOSIG=
201810052130 METAR LRBS 052130Z 04002KT CAVOK 09/03 Q1029 NOSIG=
201810052200 METAR LRBS 052200Z 05001KT CAVOK 08/04 Q1029 NOSIG=
201810052230 METAR LRBS 052230Z 01002KT CAVOK 08/04 Q1029 NOSIG=
201810052300 METAR LRBS 052300Z 02002KT CAVOK 07/04 Q1029 NOSIG=
201810052330 METAR LRBS 052330Z 01002KT 340V040 CAVOK 07/04 Q1029 NOSIG=
201810060000 METAR LRBS 060000Z 01002KT CAVOK 07/04 Q1029 NOSIG=
201810060030 METAR LRBS 060030Z 01001KT CAVOK 06/04 Q1029 NOSIG=
201810060100 METAR LRBS 060100Z 01002KT CAVOK 06/04 Q1029 NOSIG=
201810060130 METAR LRBS 060130Z 02002KT 340V050 CAVOK 06/04 Q1029 NOSIG=
201810060200 METAR COR LRBS 060200Z 01002KT 340V040 CAVOK 06/04 Q1029
                        NOSIG=
201810060230 METAR LRBS 060230Z 01002KT CAVOK 05/04 Q1029 NOSIG=
201810060300 METAR LRBS 060300Z 01002KT CAVOK 05/04 Q1029 NOSIG=
201810060330 METAR LRBS 060330Z 01002KT CAVOK 06/04 Q1029 NOSIG=
201810060400 METAR LRBS 060400Z 00000KT 9999 MIFG NSC 06/05 Q1029 NOSIG=
201810060430 METAR LRBS 060430Z 04001KT 9999 MIFG NSC 05/04 Q1029 NOSIG=
201810060500 METAR LRBS 060500Z 04002KT CAVOK 06/05 Q1029 NOSIG=
201810060530 METAR LRBS 060530Z 06002KT CAVOK 08/06 Q1029 NOSIG=
201810060600 METAR LRBS 060600Z 06004KT 030V100 CAVOK 10/07 Q1029 NOSIG=
201810060630 METAR LRBS 060630Z 07005KT CAVOK 11/08 Q1029 NOSIG=
201810060700 METAR LRBS 060700Z 06005KT 020V090 CAVOK 12/08 Q1029 NOSIG=
201810060730 METAR LRBS 060730Z 07004KT 020V110 CAVOK 14/08 Q1029 NOSIG=
201810060800 METAR LRBS 060800Z 09005KT 040V140 CAVOK 16/08 Q1029 NOSIG=
201810060830 METAR LRBS 060830Z 12006KT 070V160 CAVOK 17/08 Q1029 NOSIG=
201810060900 METAR LRBS 060900Z 14005KT 090V180 CAVOK 18/07 Q1029 NOSIG=
201810060930 METAR LRBS 060930Z 11005KT 040V170 CAVOK 19/07 Q1028 NOSIG=
201810061000 METAR LRBS 061000Z 11007KT 070V170 CAVOK 19/06 Q1028 NOSIG=
201810061030 METAR LRBS 061030Z 11006KT 050V180 CAVOK 20/05 Q1027 NOSIG=
201810061100 METAR LRBS 061100Z 09008G18KT 040V140 9999 FEW047 20/06 Q1027
                        NOSIG=
201810061130 METAR LRBS 061130Z 09007KT 050V170 CAVOK 20/05 Q1026 NOSIG=
201810061200 METAR LRBS 061200Z 12006KT 080V160 CAVOK 21/04 Q1026 NOSIG=
201810061230 METAR LRBS 061230Z 12005KT 060V190 CAVOK 21/04 Q1026 NOSIG=
201810061300 METAR LRBS 061300Z 11008KT 040V170 CAVOK 21/04 Q1025 NOSIG=
201810061330 METAR LRBS 061330Z 11004KT 040V170 CAVOK 21/03 Q1025 NOSIG=
201810061400 METAR LRBS 061400Z 10007KT 040V160 CAVOK 21/03 Q1024 NOSIG=
201810061430 METAR COR LRBS 061430Z 08008KT CAVOK 20/03 Q1024 NOSIG=
201810061500 METAR LRBS 061500Z 08008KT CAVOK 20/03 Q1024 NOSIG=
201810061530 METAR LRBS 061530Z 06005KT CAVOK 18/03 Q1024 NOSIG=
201810061600 METAR LRBS 061600Z 05003KT CAVOK 16/03 Q1024 NOSIG=
201810061630 METAR LRBS 061630Z 03003KT CAVOK 15/04 Q1024 NOSIG=
201810061700 METAR LRBS 061700Z 04003KT CAVOK 14/05 Q1024 NOSIG=
201810061730 METAR LRBS 061730Z 06002KT CAVOK 14/05 Q1023 NOSIG=
201810061800 METAR LRBS 061800Z 07002KT CAVOK 13/05 Q1023 NOSIG=
201810061830 METAR LRBS 061830Z 06003KT CAVOK 12/05 Q1024 NOSIG=
201810061900 METAR LRBS 061900Z 07004KT CAVOK 11/05 Q1024 NOSIG=
201810061930 METAR LRBS 061930Z 07004KT CAVOK 11/05 Q1024 NOSIG=
201810062000 METAR LRBS 062000Z 09003KT 060V130 CAVOK 11/06 Q1024 NOSIG=
201810062030 METAR LRBS 062030Z 08005KT CAVOK 10/05 Q1024 NOSIG=
201810062100 METAR LRBS 062100Z 07004KT CAVOK 10/06 Q1023 NOSIG=
201810062130 METAR LRBS 062130Z 07004KT CAVOK 09/06 Q1023 NOSIG=
201810062200 METAR LRBS 062200Z 06003KT CAVOK 09/06 Q1023 NOSIG=
201810062230 METAR LRBS 062230Z 07004KT CAVOK 08/06 Q1023 NOSIG=
201810062300 METAR LRBS 062300Z 06003KT CAVOK 09/06 Q1023 NOSIG=
201810062330 METAR LRBS 062330Z 04004KT CAVOK 08/06 Q1023 NOSIG=
201810070000 METAR LRBS 070000Z 01003KT 340V040 CAVOK 08/06 Q1022 NOSIG=
201810070030 METAR LRBS 070030Z 02002KT CAVOK 07/05 Q1022 NOSIG=
201810070100 METAR LRBS 070100Z 03002KT CAVOK 07/05 Q1022 NOSIG=
201810070130 METAR LRBS 070130Z 04002KT CAVOK 06/05 Q1022 NOSIG=
201810070200 METAR LRBS 070200Z 01002KT CAVOK 06/05 Q1022 NOSIG=
201810070230 METAR LRBS 070230Z 01003KT CAVOK 06/05 Q1021 NOSIG=
201810070300 METAR LRBS 070300Z 02002KT 360V060 CAVOK 06/05 Q1021 NOSIG=
201810070330 METAR COR LRBS 070330Z 03002KT 360V060 9999 FEW032 06/05
                        Q1021 NOSIG=
201810070400 METAR LRBS 070400Z 03003KT 9999 SCT031 06/05 Q1021 NOSIG=
201810070430 METAR LRBS 070430Z 03003KT 9999 SCT031 06/05 Q1021 NOSIG=
201810070500 METAR LRBS 070500Z 03003KT 360V060 9999 FEW032 08/06 Q1021
                        NOSIG=
201810070530 METAR LRBS 070530Z 03003KT 360V060 9999 SCT031 09/08 Q1021
                        NOSIG=
201810070600 METAR LRBS 070600Z 04004KT 9999 BKN032 10/08 Q1021 NOSIG=
201810070630 METAR LRBS 070630Z 04004KT 9999 BKN034 11/09 Q1021 NOSIG=
201810070700 METAR LRBS 070700Z 05005KT 020V090 9999 BKN034 13/09 Q1021
                        NOSIG=
201810070730 METAR LRBS 070730Z 06005KT 020V100 9999 OVC033 14/09 Q1021
                        NOSIG=
201810070800 METAR LRBS 070800Z 06004KT 020V110 9999 BKN034 15/09 Q1021
                        NOSIG=
201810070830 METAR LRBS 070830Z 08004KT 030V140 9999 BKN034 17/09 Q1020
                        NOSIG=
201810070900 METAR LRBS 070900Z 06005KT 020V130 9999 SCT034 17/09 Q1020
                        NOSIG=
201810070930 METAR LRBS 070930Z VRB04KT 9999 SCT029 18/08 Q1020 NOSIG=
201810071000 METAR LRBS 071000Z 08006KT 040V140 9999 SCT032 19/09 Q1020
                        NOSIG=
201810071030 METAR LRBS 071030Z 11006KT 050V150 9999 SCT033 20/08 Q1019
                        NOSIG=
201810071100 METAR LRBS 071100Z VRB04KT 9999 FEW035 20/08 Q1019 NOSIG=
201810071130 METAR LRBS 071130Z VRB03KT 9999 FEW040 20/08 Q1018 NOSIG=
201810071200 METAR LRBS 071200Z 08006KT 360V130 CAVOK 21/07 Q1018 NOSIG=
201810071230 METAR LRBS 071230Z 11005KT 050V180 CAVOK 21/07 Q1018=
201810071300 METAR LRBS 071300Z 11006KT 070V240 CAVOK 21/07 Q1018 NOSIG=
201810071330 METAR LRBS 071330Z 10006KT 060V140 CAVOK 21/07 Q1017 NOSIG=
201810071400 METAR LRBS 071400Z 11005KT 060V140 CAVOK 21/07 Q1017 NOSIG=
201810071430 METAR COR LRBS 071430Z 11004KT 060V140 CAVOK 21/07 Q1017
                        NOSIG=
201810071500 METAR LRBS 071500Z 09003KT 060V120 CAVOK 21/07 Q1017 NOSIG=
201810071530 METAR LRBS 071530Z 08003KT 050V130 CAVOK 19/07 Q1017 NOSIG=
201810071600 METAR LRBS 071600Z 04003KT CAVOK 17/08 Q1017 NOSIG=
201810071630 METAR LRBS 071630Z 04003KT CAVOK 15/08 Q1017 NOSIG=
201810071700 METAR LRBS 071700Z 03003KT CAVOK 15/08 Q1017 NOSIG=
201810071730 METAR LRBS 071730Z 36002KT CAVOK 14/08 Q1018 NOSIG=
201810071800 METAR LRBS 071800Z 00000KT CAVOK 14/08 Q1018 NOSIG=
201810071830 METAR LRBS 071830Z 00000KT CAVOK 13/08 Q1017 NOSIG=
201810071900 METAR LRBS 071900Z 00000KT CAVOK 12/08 Q1018 NOSIG=
201810071930 METAR LRBS 071930Z 00000KT CAVOK 12/08 Q1018 NOSIG=
201810072000 METAR LRBS 072000Z 05002KT CAVOK 11/08 Q1018 NOSIG=
201810072030 METAR LRBS 072030Z 01002KT CAVOK 11/08 Q1018 NOSIG=
201810072100 METAR LRBS 072100Z 01001KT CAVOK 11/07 Q1018 NOSIG=
201810072130 METAR LRBS 072130Z VRB01KT CAVOK 11/07 Q1018 NOSIG=
201810072200 METAR LRBS 072200Z 00000KT CAVOK 10/07 Q1018 NOSIG=
201810072230 METAR LRBS 072230Z 00000KT CAVOK 10/07 Q1018 NOSIG=
201810072300 METAR LRBS 072300Z 31002KT 280V350 CAVOK 09/06 Q1018 NOSIG=
201810072330 METAR LRBS 072330Z 30002KT CAVOK 09/07 Q1018 NOSIG=
201810080000 METAR LRBS 080000Z 00000KT CAVOK 08/07 Q1017 NOSIG=
201810080030 METAR LRBS 080030Z 00000KT CAVOK 08/06 Q1017 NOSIG=
201810080100 METAR LRBS 080100Z 00000KT CAVOK 08/06 Q1017 NOSIG=
201810080130 METAR LRBS 080130Z 00000KT CAVOK 08/06 Q1017 NOSIG=
201810080200 METAR LRBS 080200Z 00000KT CAVOK 07/06 Q1017 NOSIG=
201810080230 METAR LRBS 080230Z 00000KT CAVOK 07/05 Q1017 NOSIG=
201810080300 METAR LRBS 080300Z 00000KT CAVOK 07/05 Q1017 NOSIG=
201810080330 METAR LRBS 080330Z 30002KT CAVOK 07/05 Q1017 NOSIG=
201810080400 METAR LRBS 080400Z 00000KT 9999 MIFG NSC 07/06 Q1017 NOSIG=
201810080430 METAR LRBS 080430Z 32001KT 9999 MIFG NSC 07/06 Q1018 NOSIG=
201810080500 METAR LRBS 080500Z 00000KT 9999 MIFG NSC 08/06 Q1018 NOSIG=
201810080530 METAR LRBS 080530Z 00000KT CAVOK 09/06 Q1018 NOSIG=
201810080600 METAR LRBS 080600Z 03002KT 360V060 CAVOK 10/07 Q1018 NOSIG=
201810080630 METAR LRBS 080630Z 36002KT 300V040 CAVOK 11/08 Q1019 NOSIG=
201810080700 METAR LRBS 080700Z 05003KT 360V090 CAVOK 13/08 Q1019 NOSIG=
201810080730 METAR LRBS 080730Z 05003KT 350V130 CAVOK 14/08 Q1019 NOSIG=
201810080800 METAR LRBS 080800Z 06005KT 010V110 CAVOK 16/08 Q1019 NOSIG=
201810080830 METAR LRBS 080830Z 05005KT 010V110 CAVOK 17/08 Q1020 NOSIG=
201810080900 METAR LRBS 080900Z 06004KT CAVOK 18/09 Q1020 NOSIG=
201810080930 METAR LRBS 080930Z VRB03KT CAVOK 19/08 Q1020 NOSIG=
201810081000 METAR LRBS 081000Z 07003KT 340V140 CAVOK 20/08 Q1020 NOSIG=
201810081030 METAR LRBS 081030Z 07004KT CAVOK 20/08 Q1020 NOSIG=
201810081100 METAR LRBS 081100Z 08005KT 360V170 CAVOK 21/07 Q1019 NOSIG=
201810081130 METAR LRBS 081130Z 05003KT 320V110 CAVOK 21/07 Q1019 NOSIG=
201810081200 METAR LRBS 081200Z 08007KT 360V130 CAVOK 21/08 Q1019 NOSIG=
201810081230 METAR LRBS 081230Z 08006KT 050V120 CAVOK 22/07 Q1019 NOSIG=
201810081300 METAR LRBS 081300Z 06006KT 340V110 CAVOK 22/07 Q1019 NOSIG=
201810081330 METAR COR LRBS 081330Z 06006KT 340V110 CAVOK 22/07 Q1019
                        NOSIG=
201810081400 METAR LRBS 081400Z 08009KT 050V110 CAVOK 22/07 Q1019 NOSIG=
201810081430 METAR LRBS 081430Z 08007KT 040V110 CAVOK 21/07 Q1019 NOSIG=
201810081500 METAR LRBS 081500Z 07006KT CAVOK 21/07 Q1019 NOSIG=
201810081530 METAR LRBS 081530Z 06004KT CAVOK 19/08 Q1020 NOSIG=
201810081600 METAR LRBS 081600Z 03003KT CAVOK 18/08 Q1020 NOSIG=
201810081630 METAR LRBS 081630Z 03003KT CAVOK 16/08 Q1020 NOSIG=
201810081700 METAR LRBS 081700Z 03003KT CAVOK 14/08 Q1021 NOSIG=
201810081730 METAR LRBS 081730Z 01003KT CAVOK 14/08 Q1021 NOSIG=
201810081800 METAR LRBS 081800Z VRB01KT CAVOK 14/08 Q1021 NOSIG=
201810081830 METAR LRBS 081830Z 04001KT CAVOK 14/08 Q1021 NOSIG=
201810081900 METAR LRBS 081900Z 07002KT CAVOK 13/08 Q1021 NOSIG=
201810081930 METAR LRBS NIL=
201810082000 METAR LRBS 082000Z 01003KT CAVOK 13/07 Q1022 NOSIG=
201810082030 METAR LRBS 082030Z 07001KT CAVOK 12/07 Q1022 NOSIG=
201810082100 METAR LRBS 082100Z 02001KT CAVOK 12/07 Q1022 NOSIG=
201810082130 METAR LRBS 082130Z 01002KT CAVOK 11/07 Q1022 NOSIG=
201810082200 METAR LRBS 082200Z 01002KT 330V040 CAVOK 11/07 Q1023 NOSIG=
201810082230 METAR LRBS 082230Z AUTO 36003KT NCD 10/07 Q1023 NOSIG=
201810082300 METAR LRBS 082300Z 36003KT CAVOK 11/07 Q1023 NOSIG=
201810082330 METAR LRBS 082330Z 02001KT CAVOK 10/07 Q1023 NOSIG=
201810090000 METAR COR LRBS 090000Z 31001KT CAVOK 10/07 Q1023 NOSIG=
201810090030 METAR COR LRBS 090030Z VRB01KT CAVOK 09/07 Q1023 NOSIG=
201810090100 METAR LRBS 090100Z 28001KT CAVOK 09/07 Q1023 NOSIG=
201810090130 METAR LRBS 090130Z 29002KT 240V340 CAVOK 09/07 Q1023 NOSIG=
201810090200 METAR LRBS 090200Z VRB01KT CAVOK 09/07 Q1023 NOSIG=
201810090230 METAR LRBS 090230Z AUTO VRB01KT R07/P2000 R25/1700VP2000U
                        NCD 09/07 Q1023 NOSIG=
201810090300 METAR LRBS 090300Z VRB01KT CAVOK 09/07 Q1023=
201810090330 METAR LRBS 090330Z 00000KT CAVOK 10/07 Q1023 NOSIG=
201810090400 METAR LRBS 090400Z 31003KT 260V010 CAVOK 10/06 Q1023 NOSIG=
201810090430 METAR LRBS 090430Z 28003KT 240V310 CAVOK 09/06 Q1023 NOSIG=
201810090500 METAR LRBS 090500Z VRB01KT 9000 MIFG NSC 10/06 Q1023 NOSIG=
201810090530 METAR LRBS 090530Z 00000KT CAVOK 11/07 Q1023 NOSIG=
201810090600 METAR LRBS 090600Z 30003KT 270V330 CAVOK 12/07 Q1024 NOSIG=
201810090630 METAR LRBS 090630Z 31002KT 260V350 CAVOK 14/08 Q1024 NOSIG=
201810090700 METAR LRBS 090700Z 34002KT 280V070 CAVOK 17/09 Q1024 NOSIG=
201810090730 METAR LRBS 090730Z 04003KT 350V110 9999 SCT049 17/10 Q1024
                        BECMG 05010KT=
201810090800 METAR LRBS 090800Z 03007KT 340V070 9999 BKN049 18/10 Q1024
                        BECMG 05010KT=
201810090830 METAR LRBS 090830Z 04007KT 360V090 9999 FEW049 19/10 Q1024
                        NOSIG=
201810090900 METAR LRBS 090900Z 04006KT 350V100 CAVOK 20/10 Q1024 NOSIG=
201810090930 METAR LRBS 090930Z VRB05KT CAVOK 20/10 Q1024 NOSIG=
201810091000 METAR COR LRBS 091000Z 03005KT 350V100 9999 FEW040 21/09
                        Q1024 NOSIG=
201810091030 METAR LRBS 091030Z 01006KT 310V050 9999 FEW042 SCT048 21/09
                        Q1024 NOSIG=
201810091100 METAR LRBS 091100Z 03006KT 310V090 9999 FEW041 SCT048 22/09
                        Q1024 NOSIG=
201810091130 METAR LRBS 091130Z 04007KT 350V070 9999 SCT041 22/09 Q1024
                        NOSIG=
201810091200 METAR LRBS 091200Z 05007KT 010V100 9999 SCT045 23/08 Q1023
                        NOSIG=
201810091230 METAR COR LRBS 091230Z 03008KT 360V080 9999 SCT048 22/08
                        Q1023 NOSIG=
201810091300 METAR LRBS 091300Z 04010KT 360V090 9999 SCT049 23/08 Q1023
                        NOSIG=
201810091330 METAR LRBS 091330Z 04009KT 360V070 9999 FEW049 22/08 Q1023
                        NOSIG=
201810091400 METAR LRBS 091400Z 03009KT 350V070 9999 SCT047 22/09 Q1023
                        NOSIG=
201810091430 METAR LRBS 091430Z 03008KT 350V060 9999 FEW046 22/10 Q1023
                        NOSIG=
201810091500 METAR LRBS 091500Z 03007KT 360V060 9999 FEW046 21/09 Q1023
                        NOSIG=
201810091530 METAR LRBS 091530Z 04004KT 9999 FEW048 20/10 Q1023 NOSIG=
201810091600 METAR LRBS 091600Z 01003KT CAVOK 19/10 Q1024 NOSIG=
201810091630 METAR LRBS 091630Z 03002KT CAVOK 17/10 Q1024 NOSIG=
201810091700 METAR LRBS 091700Z 02002KT CAVOK 16/10 Q1024 NOSIG=
201810091730 METAR LRBS 091730Z 31002KT 260V350 CAVOK 17/10 Q1024 NOSIG=
201810091800 METAR LRBS 091800Z 36003KT CAVOK 16/10 Q1024 NOSIG=
201810091830 METAR LRBS 091830Z 35003KT 310V020 CAVOK 16/10 Q1024 NOSIG=
201810091900 METAR LRBS 091900Z 04003KT CAVOK 15/09 Q1025 NOSIG=
201810091930 METAR LRBS 091930Z 01003KT 300V100 CAVOK 15/10 Q1025 NOSIG=
201810092000 METAR LRBS 092000Z 00000KT CAVOK 15/10 Q1025 NOSIG=
201810092030 METAR LRBS 092030Z 04002KT 360V090 CAVOK 14/09 Q1025 NOSIG=
201810092100 METAR LRBS 092100Z 02003KT 350V050 CAVOK 14/09 Q1025 NOSIG=
201810092130 METAR LRBS 092130Z 36003KT 320V050 CAVOK 15/09 Q1025 NOSIG=
201810092200 METAR LRBS 092200Z VRB01KT CAVOK 14/09 Q1025 NOSIG=
201810092230 METAR LRBS 092230Z 04002KT 010V090 CAVOK 13/09 Q1025 NOSIG=
201810092300 METAR LRBS 092300Z 03004KT 360V060 CAVOK 14/09 Q1025 NOSIG=
201810092330 METAR LRBS 092330Z AUTO 04004KT 010V070 FEW052/// 14/08 Q1025
                        NOSIG=
201810100000 METAR LRBS 100000Z 04003KT 360V060 CAVOK 14/08 Q1025 NOSIG=
201810100030 METAR LRBS 100030Z 05004KT CAVOK 13/08 Q1025 NOSIG=
201810100100 METAR LRBS 100100Z 05004KT 360V070 CAVOK 13/08 Q1025 NOSIG=
201810100130 METAR LRBS 100130Z 04004KT 010V070 CAVOK 12/08 Q1026 NOSIG=
201810100200 METAR LRBS 100200Z 04004KT 010V080 CAVOK 12/08 Q1026 NOSIG=
201810100230 METAR LRBS 100230Z 04003KT 020V090 CAVOK 12/08 Q1026 NOSIG=
201810100300 METAR LRBS 100300Z 04004KT CAVOK 11/08 Q1026 NOSIG=
201810100330 METAR LRBS 100330Z 04003KT CAVOK 11/08 Q1026 NOSIG=
201810100400 METAR LRBS 100400Z VRB01KT CAVOK 10/07 Q1026 NOSIG=
201810100430 METAR LRBS 100430Z 05003KT CAVOK 10/07 Q1026 NOSIG=
201810100500 METAR LRBS 100500Z 04004KT CAVOK 10/07 Q1026 NOSIG=
201810100530 METAR LRBS 100530Z 04005KT 010V070 CAVOK 11/08 Q1026 NOSIG=
201810100600 METAR LRBS 100600Z 06006KT 030V100 CAVOK 12/08 Q1027 NOSIG=
201810100630 METAR LRBS 100630Z 07007KT CAVOK 13/08 Q1027 NOSIG=
201810100700 METAR LRBS 100700Z 07008KT CAVOK 14/08 Q1027 NOSIG=
201810100730 METAR LRBS 100730Z 06008KT 020V090 CAVOK 15/08 Q1027 NOSIG=
201810100800 METAR LRBS 100800Z 07008KT 030V110 CAVOK 15/08 Q1027 NOSIG=
201810100830 METAR LRBS 100830Z 07008KT 040V100 CAVOK 16/08 Q1027 NOSIG=
201810100900 METAR LRBS 100900Z 07007KT 020V120 CAVOK 17/08 Q1027 NOSIG=
201810100930 METAR LRBS 100930Z 06007KT 020V100 CAVOK 17/08 Q1027 NOSIG=
201810101000 METAR LRBS 101000Z 09006KT 050V130 CAVOK 18/08 Q1027 NOSIG=
201810101030 METAR LRBS 101030Z 08007KT 360V110 CAVOK 18/08 Q1026 NOSIG=
201810101100 METAR LRBS 101100Z 08007KT 360V170 CAVOK 19/08 Q1026=
201810101130 METAR LRBS 101130Z 10003KT 030V170 CAVOK 19/08 Q1026=
201810101200 METAR LRBS 101200Z VRB04KT CAVOK 19/08 Q1025 NOSIG=
201810101230 METAR LRBS 101230Z VRB03KT CAVOK 20/08 Q1025 NOSIG=
201810101300 METAR LRBS 101300Z 07003KT 350V120 CAVOK 20/09 Q1025 NOSIG=
201810101330 METAR LRBS 101330Z 11004KT 360V140 CAVOK 20/09 Q1025 NOSIG=
201810101400 METAR LRBS 101400Z 07007KT 040V100 9999 FEW038 20/08 Q1025
                        NOSIG=
201810101430 METAR LRBS 101430Z 07009KT 040V100 9999 FEW039 19/08 Q1025
                        NOSIG=
201810101500 METAR LRBS 101500Z 06008KT CAVOK 18/08 Q1025 NOSIG=
201810101530 METAR COR LRBS 101530Z 06009KT 020V080 CAVOK 16/07 Q1026
                        NOSIG=
201810101600 METAR LRBS 101600Z 06008KT CAVOK 15/05 Q1026 NOSIG=
201810101630 METAR LRBS 101630Z 06007KT CAVOK 14/04 Q1026 NOSIG=
201810101700 METAR LRBS 101700Z 07006KT 9999 BKN043 13/04 Q1026 NOSIG=
201810101730 METAR LRBS 101730Z 06008KT 9999 BKN046 15/04 Q1026 NOSIG=
201810101800 METAR LRBS 101800Z 06007KT 9999 BKN047 14/05 Q1027 NOSIG=
201810101830 METAR LRBS 101830Z 06006KT 030V090 9999 SCT048 14/05 Q1027
                        NOSIG=
201810101900 METAR LRBS 101900Z 06005KT 9999 FEW048 12/04 Q1027 NOSIG=
201810101930 METAR LRBS 101930Z 07003KT CAVOK 11/04 Q1027 NOSIG=
201810102000 METAR LRBS 102000Z 03003KT CAVOK 11/04 Q1027 NOSIG=
201810102030 METAR LRBS 102030Z 04004KT CAVOK 11/04 Q1027 NOSIG=
201810102100 METAR LRBS 102100Z VRB01KT CAVOK 11/04 Q1027 NOSIG=
201810102130 METAR LRBS 102130Z 01002KT 340V040 CAVOK 11/05 Q1027 NOSIG=
201810102200 METAR LRBS 102200Z VRB01KT 9000 NSC 11/05 Q1027 NOSIG=
201810102230 METAR LRBS 102230Z VRB01KT CAVOK 10/05 Q1027 NOSIG=
201810102300 METAR LRBS 102300Z 00000KT CAVOK 10/05 Q1027 NOSIG=
201810102330 METAR LRBS 102330Z 00000KT CAVOK 10/05 Q1027 NOSIG=
201810110000 METAR LRBS 110000Z 01002KT CAVOK 10/05 Q1027 NOSIG=
201810110030 METAR LRBS 110030Z 02002KT 350V050 CAVOK 10/05 Q1027 NOSIG=
201810110100 METAR LRBS 110100Z 03002KT 320V100 CAVOK 09/05 Q1027 NOSIG=
201810110130 METAR LRBS 110130Z VRB01KT CAVOK 10/05 Q1027 NOSIG=
201810110200 METAR LRBS 110200Z 00000KT CAVOK 11/06 Q1027 NOSIG=
201810110230 METAR LRBS 110230Z 36003KT 310V050 CAVOK 11/06 Q1027 NOSIG=
201810110300 METAR LRBS 110300Z 36002KT 270V040 CAVOK 12/06 Q1027 NOSIG=
201810110330 METAR LRBS 110330Z 36003KT 320V050 CAVOK 12/06 Q1027 NOSIG=
201810110400 METAR LRBS 110400Z 35003KT 300V070 CAVOK 12/06 Q1026 NOSIG=
201810110430 METAR LRBS 110430Z 01003KT 330V060 CAVOK 11/06 Q1027 NOSIG=
201810110500 METAR LRBS 110500Z 36002KT 320V050 CAVOK 12/06 Q1027 NOSIG=
201810110530 METAR LRBS 110530Z VRB01KT CAVOK 12/07 Q1027 NOSIG=
201810110600 METAR LRBS 110600Z 02003KT 340V060 CAVOK 13/07 Q1027 NOSIG=
201810110630 METAR LRBS 110630Z 03005KT 360V070 CAVOK 14/07 Q1027 NOSIG=
201810110700 METAR LRBS 110700Z 03006KT 350V080 CAVOK 16/07 Q1027 NOSIG=
201810110730 METAR LRBS 110730Z 04008KT 360V060 CAVOK 16/07 Q1027 NOSIG=
201810110800 METAR LRBS 110800Z 05007KT 360V080 CAVOK 17/07 Q1027 NOSIG=
201810110830 METAR LRBS 110830Z 04007KT 360V080 CAVOK 18/08 Q1027 NOSIG=
201810110900 METAR LRBS 110900Z 06008KT 020V090 CAVOK 18/07 Q1027 NOSIG=
201810110930 METAR LRBS 110930Z 06008KT 020V090 CAVOK 18/07 Q1027 NOSIG=
201810111000 METAR LRBS 111000Z 03007KT 360V070 CAVOK 19/08 Q1027 NOSIG=
201810111030 METAR LRBS 111030Z 05010KT 010V100 CAVOK 21/06 Q1027 NOSIG=
201810111100 METAR LRBS 111100Z 05010KT 360V100 CAVOK 21/06 Q1026 NOSIG=
201810111130 METAR LRBS 111130Z 05010KT 010V090 CAVOK 21/06 Q1026 NOSIG=
201810111200 METAR LRBS 111200Z 04009KT 350V090 CAVOK 21/06 Q1026 NOSIG=
201810111230 METAR LRBS 111230Z 04007KT 360V090 CAVOK 21/06 Q1026 NOSIG=
201810111300 METAR LRBS 111300Z 05008KT 010V090 CAVOK 21/06 Q1026 NOSIG=
201810111330 METAR LRBS 111330Z 03007KT 360V080 CAVOK 20/06 Q1026 NOSIG=
201810111400 METAR LRBS 111400Z 04004KT CAVOK 20/05 Q1025 NOSIG=
201810111430 METAR LRBS 111430Z 05005KT CAVOK 20/05 Q1025 NOSIG=
201810111500 METAR LRBS 111500Z 03003KT CAVOK 19/06 Q1026 NOSIG=
201810111530 METAR LRBS 111530Z 02004KT CAVOK 18/06 Q1025 NOSIG=
201810111600 METAR LRBS 111600Z 03004KT CAVOK 16/06 Q1026 NOSIG=
201810111630 METAR LRBS 111630Z 01003KT CAVOK 15/05 Q1026 NOSIG=
201810111700 METAR LRBS 111700Z 36003KT CAVOK 15/05 Q1026 NOSIG=
201810111730 METAR LRBS 111730Z 01003KT CAVOK 14/06 Q1026 NOSIG=
201810111800 METAR LRBS 111800Z 02004KT CAVOK 14/06 Q1026 NOSIG=
201810111830 METAR LRBS 111830Z 01003KT 340V040 CAVOK 15/05 Q1026 NOSIG=
201810111900 METAR LRBS 111900Z 01003KT CAVOK 15/05 Q1027 NOSIG=
201810111930 METAR LRBS 111930Z 36004KT 340V040 CAVOK 14/05 Q1027 NOSIG=
201810112000 METAR COR LRBS 112000Z 36004KT 320V030 CAVOK 14/05 Q1027
                        NOSIG=
201810112030 METAR LRBS 112030Z 35003KT 300V040 CAVOK 14/05 Q1027 NOSIG=
201810112100 METAR LRBS 112100Z 36004KT 320V040 CAVOK 13/05 Q1027 NOSIG=
201810112130 METAR LRBS 112130Z 02002KT 320V070 CAVOK 13/05 Q1027 NOSIG=
201810112200 METAR LRBS 112200Z 00000KT CAVOK 12/06 Q1027 NOSIG=
201810112230 METAR LRBS 112230Z 06001KT CAVOK 12/06 Q1027 NOSIG=
201810112300 METAR LRBS 112300Z VRB01KT CAVOK 11/06 Q1027 NOSIG=
201810112330 METAR LRBS 112330Z 26003KT 240V300 CAVOK 10/06 Q1027 NOSIG=
201810120000 METAR LRBS 120000Z 26002KT CAVOK 10/06 Q1027 NOSIG=
201810120030 METAR LRBS 120030Z 26002KT 230V310 CAVOK 10/06 Q1027 NOSIG=
201810120100 METAR LRBS 120100Z VRB01KT CAVOK 10/05 Q1026 NOSIG=
201810120130 METAR LRBS 120130Z VRB01KT CAVOK 10/06 Q1026 NOSIG=
201810120200 METAR LRBS 120200Z 34002KT 300V050 CAVOK 10/06 Q1027 NOSIG=
201810120230 METAR LRBS 120230Z VRB01KT CAVOK 10/06 Q1027 NOSIG=
201810120300 METAR LRBS 120300Z 36002KT 300V070 CAVOK 11/06 Q1027 NOSIG=
201810120330 METAR LRBS 120330Z VRB01KT CAVOK 11/06 Q1027 NOSIG=
201810120400 METAR LRBS 120400Z VRB01KT CAVOK 11/06 Q1027 NOSIG=
201810120430 METAR LRBS 120430Z VRB01KT CAVOK 11/06 Q1027 NOSIG=
201810120500 METAR LRBS 120500Z VRB01KT CAVOK 11/06 Q1028 NOSIG=
201810120530 METAR LRBS 120530Z VRB01KT CAVOK 12/06 Q1028 NOSIG=
201810120600 METAR LRBS 120600Z 01003KT 320V070 CAVOK 13/06 Q1028 NOSIG=
201810120630 METAR LRBS 120630Z 01005KT 340V050 CAVOK 15/06 Q1028 NOSIG=
201810120700 METAR LRBS 120700Z 03007KT 350V060 CAVOK 16/06 Q1028 NOSIG=
201810120730 METAR LRBS 120730Z 03008KT 350V070 CAVOK 18/05 Q1028 NOSIG=
201810120800 METAR LRBS 120800Z 04010KT 360V080 CAVOK 19/05 Q1028 NOSIG=
201810120830 METAR LRBS 120830Z 02008KT 340V070 CAVOK 20/06 Q1028 NOSIG=
201810120900 METAR LRBS 120900Z 04011KT 320V090 CAVOK 20/05 Q1029 NOSIG=
201810120930 METAR LRBS 120930Z 06011KT 020V090 CAVOK 21/05 Q1028 NOSIG=
201810121000 METAR LRBS 121000Z 05011KT 360V090 CAVOK 22/04 Q1028 NOSIG=
201810121030 METAR LRBS 121030Z 05010KT 020V090 CAVOK 22/04 Q1028 NOSIG=
201810121100 METAR LRBS 121100Z 06011KT 020V090 CAVOK 23/04 Q1028 NOSIG=
201810121130 METAR LRBS 121130Z 04011KT 010V070 CAVOK 22/04 Q1028 NOSIG=
201810121200 METAR LRBS 121200Z 05011KT 010V080 CAVOK 22/04 Q1028 NOSIG=
201810121230 METAR LRBS 121230Z 06012KT 020V090 CAVOK 23/04 Q1028 NOSIG=
201810121300 METAR LRBS 121300Z 06012KT 030V090 CAVOK 22/03 Q1028 NOSIG=
201810121330 METAR LRBS 121330Z 05011KT 010V090 CAVOK 22/03 Q1028 NOSIG=
201810121400 METAR LRBS 121400Z 06011KT CAVOK 22/03 Q1028 NOSIG=
201810121430 METAR LRBS 121430Z 05009KT CAVOK 22/03 Q1028 NOSIG=
201810121500 METAR LRBS 121500Z 05008KT 020V090 CAVOK 21/01 Q1028 NOSIG=
201810121530 METAR LRBS 121530Z 04005KT CAVOK 20/01 Q1028 NOSIG=
201810121600 METAR LRBS 121600Z 03004KT CAVOK 18/M00 Q1028 NOSIG=
201810121630 METAR LRBS 121630Z 03004KT CAVOK 17/00 Q1028 NOSIG=
201810121700 METAR COR LRBS 121700Z 02004KT CAVOK 17/00 Q1028 NOSIG=
201810121730 METAR LRBS 121730Z 02004KT CAVOK 16/01 Q1028 NOSIG=
201810121800 METAR LRBS 121800Z 04004KT 010V070 CAVOK 15/02 Q1029 NOSIG=
201810121830 METAR LRBS 121830Z 03005KT CAVOK 16/02 Q1029 NOSIG=
201810121900 METAR LRBS 121900Z 03004KT CAVOK 15/03 Q1029 NOSIG=
201810121930 METAR LRBS 121930Z 05006KT CAVOK 15/04 Q1029 NOSIG=
201810122000 METAR LRBS 122000Z 04005KT CAVOK 14/04 Q1029 NOSIG=
201810122030 METAR LRBS 122030Z 04007KT CAVOK 14/04 Q1029 NOSIG=
201810122100 METAR LRBS 122100Z 04004KT 360V060 CAVOK 13/04 Q1029 NOSIG=
201810122130 METAR LRBS 122130Z 02003KT CAVOK 12/04 Q1029 NOSIG=
201810122200 METAR LRBS 122200Z 02003KT 350V050 CAVOK 12/04 Q1029 NOSIG=
201810122230 METAR LRBS 122230Z VRB02KT CAVOK 12/05 Q1029 NOSIG=
201810122300 METAR LRBS 122300Z VRB02KT CAVOK 11/05 Q1029 NOSIG=
201810122330 METAR LRBS 122330Z 01005KT 340V050 CAVOK 12/05 Q1029 NOSIG=
201810130000 METAR LRBS 130000Z 01005KT 340V060 CAVOK 12/05 Q1029 NOSIG=
201810130030 METAR LRBS 130030Z 36004KT 320V050 CAVOK 12/05 Q1029 NOSIG=
201810130100 METAR LRBS 130100Z 01004KT 340V040 CAVOK 11/05 Q1029 NOSIG=
201810130130 METAR LRBS 130130Z 01004KT 320V050 CAVOK 12/05 Q1029 NOSIG=
201810130200 METAR LRBS 130200Z 01003KT 330V060 CAVOK 11/05 Q1029 NOSIG=
201810130230 METAR LRBS 130230Z 03006KT CAVOK 12/06 Q1029 NOSIG=
201810130300 METAR LRBS 130300Z 03006KT 340V060 CAVOK 12/06 Q1029 NOSIG=
201810130330 METAR LRBS 130330Z 02006KT 350V060 CAVOK 12/06 Q1029 NOSIG=
201810130400 METAR LRBS 130400Z 03005KT 350V070 CAVOK 11/06 Q1029 NOSIG=
201810130430 METAR LRBS 130430Z 02003KT 350V050 CAVOK 11/06 Q1029 NOSIG=
201810130500 METAR LRBS 130500Z 04004KT CAVOK 11/06 Q1029 NOSIG=
201810130530 METAR LRBS 130530Z 04003KT 360V090 CAVOK 12/06 Q1030 NOSIG=
201810130600 METAR LRBS 130600Z 05005KT 020V090 CAVOK 13/06 Q1030 BECMG
                        06014KT=
201810130630 METAR LRBS 130630Z 04008KT 010V090 CAVOK 14/06 Q1030 NOSIG=
201810130700 METAR LRBS 130700Z 04009KT 010V070 CAVOK 15/05 Q1030 NOSIG=
201810130730 METAR LRBS 130730Z 04010KT 350V080 CAVOK 16/04 Q1030 NOSIG=
201810130800 METAR LRBS 130800Z 04011KT 010V080 CAVOK 18/03 Q1030 NOSIG=
201810130830 METAR LRBS 130830Z 04011KT 360V080 CAVOK 18/01 Q1029 NOSIG=
201810130900 METAR LRBS 130900Z 05014KT 010V090 CAVOK 19/M00 Q1030 NOSIG=
201810130930 METAR LRBS 130930Z 04013KT 350V080 CAVOK 19/M00 Q1030 NOSIG=
201810131000 METAR LRBS 131000Z 04013KT 350V070 CAVOK 20/M01 Q1029 NOSIG=
201810131030 METAR LRBS 131030Z 03013KT 350V080 CAVOK 20/M02 Q1028 NOSIG=
201810131100 METAR LRBS 131100Z 05014KT 010V070 CAVOK 21/M02 Q1028 NOSIG=
201810131130 METAR LRBS 131130Z 04014KT 360V080 CAVOK 21/M02 Q1028 NOSIG=
201810131200 METAR LRBS 131200Z 03012KT 350V070 CAVOK 21/M01 Q1028 NOSIG=
201810131230 METAR LRBS 131230Z 03012KT 350V060 CAVOK 21/M02 Q1028 NOSIG=
201810131300 METAR LRBS 131300Z 05011KT 010V070 CAVOK 21/M03 Q1028 NOSIG=
201810131330 METAR LRBS 131330Z 06013KT 020V090 CAVOK 21/M04 Q1028 NOSIG=
201810131400 METAR LRBS 131400Z 07015KT CAVOK 21/M04 Q1028 NOSIG=
201810131430 METAR LRBS 131430Z 06013KT 010V100 CAVOK 20/M04 Q1028 NOSIG=
201810131500 METAR LRBS 131500Z 05011KT CAVOK 19/M03 Q1028 NOSIG=
201810131530 METAR LRBS 131530Z 05008KT CAVOK 18/M03 Q1028 NOSIG=
201810131600 METAR LRBS 131600Z 04006KT CAVOK 17/M03 Q1028 NOSIG=
201810131630 METAR LRBS 131630Z 04005KT 010V070 CAVOK 15/M03 Q1028 NOSIG=
201810131700 METAR LRBS 131700Z 03005KT CAVOK 15/M03 Q1028 NOSIG=
201810131730 METAR LRBS 131730Z 04004KT CAVOK 14/M03 Q1028 NOSIG=
201810131800 METAR LRBS 131800Z 04004KT CAVOK 13/M04 Q1028 NOSIG=
201810131830 METAR LRBS 131830Z 05007KT 020V080 CAVOK 12/M04 Q1029 NOSIG=
201810131900 METAR LRBS 131900Z 07006KT CAVOK 10/M03 Q1029 NOSIG=
201810131930 METAR LRBS 131930Z 05008KT CAVOK 13/M04 Q1029 NOSIG=
201810132000 METAR LRBS 132000Z 07006KT CAVOK 10/M03 Q1029 NOSIG=
201810132030 METAR LRBS 132030Z 07005KT CAVOK 09/M03 Q1029 NOSIG=
201810132100 METAR LRBS 132100Z 03003KT CAVOK 10/M03 Q1029 NOSIG=
201810132130 METAR LRBS 132130Z 03004KT CAVOK 10/M03 Q1029 NOSIG=
201810132200 METAR LRBS 132200Z 03003KT 360V060 CAVOK 09/M03 Q1029 NOSIG=
201810132230 METAR LRBS 132230Z 02005KT 340V050 CAVOK 11/M04 Q1029 NOSIG=
201810132300 METAR LRBS 132300Z 02005KT 340V060 CAVOK 10/M03 Q1029 NOSIG=
201810132330 METAR LRBS 132330Z 01004KT 340V050 CAVOK 10/M03 Q1029 NOSIG=
201810140000 METAR LRBS 140000Z 02003KT 320V080 CAVOK 10/M04 Q1029 NOSIG=
201810140030 METAR LRBS 140030Z VRB02KT CAVOK 09/M03 Q1029 NOSIG=
201810140100 METAR LRBS 140100Z 35003KT 300V040 CAVOK 09/M04 Q1028 NOSIG=
201810140130 METAR LRBS 140130Z 36003KT 320V050 CAVOK 09/M04 Q1028 NOSIG=
201810140200 METAR LRBS 140200Z 36003KT 320V040 CAVOK 09/M03 Q1028 NOSIG=
201810140230 METAR LRBS 140230Z 01003KT 350V050 CAVOK 08/M03 Q1028=
201810140300 METAR LRBS 140300Z 01003KT 340V050 CAVOK 08/M04 Q1028 NOSIG=
201810140330 METAR LRBS 140330Z 36003KT 320V040 CAVOK 08/M03 Q1028 NOSIG=
201810140400 METAR LRBS 140400Z VRB01KT CAVOK 08/M03 Q1028 NOSIG=
201810140430 METAR LRBS 140430Z 00000KT CAVOK 08/M03 Q1028 NOSIG=
201810140500 METAR LRBS 140500Z 00000KT CAVOK 08/M03 Q1028 NOSIG=
201810140530 METAR LRBS 140530Z VRB02KT CAVOK 09/M02 Q1028 NOSIG=
201810140600 METAR LRBS 140600Z 03003KT 340V070 CAVOK 10/M03 Q1029 NOSIG=
201810140630 METAR COR LRBS 140630Z 04004KT 350V100 CAVOK 12/M03 Q1029
                        NOSIG=
201810140700 METAR LRBS 140700Z 04010KT 010V070 CAVOK 14/M04 Q1029 NOSIG=
201810140730 METAR LRBS 140730Z 05011KT CAVOK 15/M03 Q1029 NOSIG=
201810140800 METAR LRBS 140800Z 04011KT 010V080 CAVOK 16/M03 Q1029 NOSIG=
201810140830 METAR LRBS 140830Z AUTO 06013KT 030V090 9999 NCD 18/M02 Q1029
                        NOSIG=
201810140900 METAR LRBS 140900Z 06014KT CAVOK 18/M01 Q1028 NOSIG=
201810140930 METAR LRBS 140930Z 06014KT 030V090 CAVOK 19/M00 Q1028 NOSIG=
201810141000 METAR LRBS 141000Z 06013KT 030V100 CAVOK 19/M01 Q1028 NOSIG=
201810141030 METAR LRBS 141030Z 07012KT CAVOK 20/M01 Q1028 NOSIG=
201810141100 METAR LRBS 141100Z 07014KT 020V090 CAVOK 21/M02 Q1027 NOSIG=
201810141130 METAR LRBS 141130Z 06012KT 030V100 CAVOK 21/M02 Q1027 NOSIG=
201810141200 METAR LRBS 141200Z 06014KT 010V090 CAVOK 21/M03 Q1027 NOSIG=
201810141230 METAR LRBS 141230Z 06014KT 020V090 CAVOK 22/M03 Q1027 NOSIG=
201810141300 METAR LRBS 141300Z 06014KT 360V100 CAVOK 22/M02 Q1026 NOSIG=
201810141330 METAR LRBS 141330Z 05011KT 020V080 CAVOK 22/M02 Q1026 NOSIG=
201810141400 METAR LRBS 141400Z 06013KT 020V080 CAVOK 21/M01 Q1026 NOSIG=
201810141430 METAR LRBS 141430Z 06011KT 020V090 CAVOK 21/M01 Q1026 NOSIG=
201810141500 METAR LRBS 141500Z 06010KT CAVOK 20/M01 Q1026 NOSIG=
201810141530 METAR LRBS 141530Z 04006KT 010V070 CAVOK 19/M00 Q1026 NOSIG=
201810141600 METAR LRBS 141600Z 04005KT CAVOK 17/00 Q1026 NOSIG=
201810141630 METAR LRBS 141630Z 02003KT 360V080 CAVOK 16/01 Q1026 NOSIG=
201810141700 METAR LRBS 141700Z 03005KT CAVOK 15/01 Q1027 NOSIG=
201810141730 METAR LRBS 141730Z 03006KT CAVOK 16/01 Q1027 NOSIG=
201810141800 METAR LRBS 141800Z 02006KT CAVOK 15/01 Q1027 NOSIG=
201810141830 METAR LRBS 141830Z 02006KT 350V050 CAVOK 15/01 Q1027 NOSIG=
201810141900 METAR LRBS 141900Z 02006KT 350V050 CAVOK 14/01 Q1027 NOSIG=
201810141930 METAR LRBS 141930Z 03003KT 360V070 CAVOK 12/01 Q1027 NOSIG=
201810142000 METAR LRBS 142000Z 02003KT CAVOK 12/01 Q1027 NOSIG=
201810142030 METAR LRBS 142030Z 03003KT CAVOK 11/01 Q1027 NOSIG=
201810142100 METAR LRBS 142100Z 02004KT CAVOK 11/01 Q1027 NOSIG=
201810142130 METAR LRBS 142130Z 03004KT CAVOK 11/01 Q1027 NOSIG=
201810142200 METAR LRBS 142200Z 01003KT 340V050 CAVOK 11/01 Q1027 NOSIG=
201810142230 METAR LRBS 142230Z 01003KT 330V050 CAVOK 11/01 Q1027 NOSIG=
201810142300 METAR LRBS 142300Z 36003KT 320V040 CAVOK 11/01 Q1027 NOSIG=
201810142330 METAR LRBS 142330Z VRB01KT CAVOK 10/01 Q1027 NOSIG=
201810150000 METAR LRBS 150000Z VRB02KT CAVOK 09/01 Q1027 NOSIG=
201810150030 METAR LRBS 150030Z VRB01KT CAVOK 08/01 Q1027 NOSIG=
201810150100 METAR LRBS 150100Z 32002KT CAVOK 07/01 Q1027 NOSIG=
201810150130 METAR LRBS 150130Z VRB01KT CAVOK 08/01 Q1027 NOSIG=
201810150200 METAR LRBS 150200Z VRB02KT CAVOK 09/01 Q1026 NOSIG=
201810150230 METAR LRBS 150230Z 02003KT CAVOK 09/01 Q1026 NOSIG=
201810150300 METAR LRBS 150300Z 03003KT 360V070 CAVOK 08/01 Q1026 NOSIG=
201810150330 METAR LRBS 150330Z VRB02KT CAVOK 10/01 Q1026 NOSIG=
201810150400 METAR LRBS 150400Z 02003KT 350V060 CAVOK 09/01 Q1026 NOSIG=
201810150430 METAR LRBS 150430Z 01003KT 350V050 CAVOK 09/01 Q1026 NOSIG=
201810150500 METAR LRBS 150500Z 01003KT CAVOK 10/01 Q1026 NOSIG=
201810150530 METAR LRBS 150530Z VRB02KT CAVOK 11/02 Q1026 NOSIG=
201810150600 METAR LRBS 150600Z 02003KT 350V060 CAVOK 12/02 Q1026 NOSIG=
201810150630 METAR LRBS 150630Z 03004KT 340V060 CAVOK 14/02 Q1026 NOSIG=
201810150700 METAR LRBS 150700Z 04005KT 350V070 CAVOK 15/03 Q1026 NOSIG=
201810150730 METAR LRBS 150730Z 04009KT 010V070 CAVOK 17/02 Q1026 NOSIG=
201810150800 METAR LRBS 150800Z 06010KT CAVOK 18/02 Q1026 NOSIG=
201810150830 METAR COR LRBS 150830Z 05010KT 020V080 CAVOK 19/02 Q1026
                        NOSIG=
201810150900 METAR LRBS 150900Z 06010KT 360V090 CAVOK 20/01 Q1026 NOSIG=
201810150930 METAR LRBS 150930Z 07010KT 020V100 CAVOK 21/02 Q1026 NOSIG=
201810151000 METAR COR LRBS 151000Z 05009KT 010V090 CAVOK 21/01 Q1026
                        NOSIG=
201810151030 METAR LRBS 151030Z 06010KT 040V100 CAVOK 22/02 Q1025 NOSIG=
201810151100 METAR LRBS 151100Z 06011KT 020V090 CAVOK 22/01 Q1025 NOSIG=
201810151130 METAR LRBS 151130Z 06010KT 360V100 CAVOK 23/01 Q1025 NOSIG=
201810151200 METAR LRBS 151200Z 04010KT 350V080 CAVOK 23/00 Q1025 NOSIG=
201810151230 METAR LRBS 151230Z 06010KT 020V100 CAVOK 23/M00 Q1025 NOSIG=
201810151300 METAR LRBS 151300Z 05011KT 010V100 CAVOK 23/M00 Q1024 NOSIG=
201810151330 METAR LRBS 151330Z 06011KT 030V100 CAVOK 23/M00 Q1024 NOSIG=
201810151400 METAR COR LRBS 151400Z 06010KT 030V090 CAVOK 22/M00 Q1024
                        NOSIG=
201810151430 METAR LRBS 151430Z 06008KT CAVOK 22/M00 Q1024 NOSIG=
201810151500 METAR LRBS 151500Z 04005KT CAVOK 21/00 Q1024 NOSIG=
201810151530 METAR LRBS 151530Z 02004KT 350V060 CAVOK 19/01 Q1024 NOSIG=
201810151600 METAR LRBS 151600Z 01005KT CAVOK 18/01 Q1024 NOSIG=
201810151630 METAR LRBS 151630Z 01004KT CAVOK 17/01 Q1025 NOSIG=
201810151700 METAR LRBS 151700Z 02004KT CAVOK 17/01 Q1025 NOSIG=
201810151730 METAR LRBS 151730Z 03004KT CAVOK 16/01 Q1025 NOSIG=
201810151800 METAR LRBS 151800Z 02005KT CAVOK 15/00 Q1025 NOSIG=
201810151830 METAR LRBS 151830Z 03003KT CAVOK 14/01 Q1025 NOSIG=
201810151900 METAR LRBS 151900Z 02004KT CAVOK 14/01 Q1025 NOSIG=
201810151930 METAR LRBS 151930Z 03004KT CAVOK 13/01 Q1025 NOSIG=
201810152000 METAR LRBS 152000Z 06002KT CAVOK 13/01 Q1025 NOSIG=
201810152030 METAR LRBS 152030Z 02003KT 350V060 CAVOK 12/01 Q1025 NOSIG=
201810152100 METAR LRBS 152100Z 02004KT 350V050 CAVOK 13/00 Q1025 NOSIG=
201810152130 METAR LRBS 152130Z 04003KT CAVOK 11/01 Q1025 NOSIG=
201810152200 METAR LRBS 152200Z VRB01KT CAVOK 11/01 Q1025 NOSIG=
201810152230 METAR LRBS 152230Z 01002KT CAVOK 11/01 Q1025 NOSIG=
201810152300 METAR LRBS 152300Z VRB01KT CAVOK 10/01 Q1025 NOSIG=
201810152330 METAR LRBS 152330Z 01002KT CAVOK 10/01 Q1025 NOSIG=
201810160000 METAR LRBS 160000Z 01002KT CAVOK 09/01 Q1025 NOSIG=
201810160030 METAR LRBS 160030Z 01002KT CAVOK 09/01 Q1025 NOSIG=
201810160100 METAR LRBS 160100Z VRB01KT CAVOK 09/01 Q1025 NOSIG=
201810160130 METAR LRBS 160130Z AUTO VRB01KT 9999 NCD 08/02 Q1025 NOSIG=
201810160200 METAR COR LRBS 160200Z VRB01KT CAVOK 08/02 Q1025 NOSIG=
201810160230 METAR LRBS 160230Z 29001KT CAVOK 07/02 Q1025 NOSIG=
201810160300 METAR LRBS 160300Z 31001KT CAVOK 07/02 Q1025 NOSIG=
201810160330 METAR LRBS 160330Z 32001KT CAVOK 08/02 Q1025 NOSIG=
201810160400 METAR LRBS 160400Z 00000KT CAVOK 08/02 Q1025 NOSIG=
201810160430 METAR LRBS 160430Z 00000KT CAVOK 08/02 Q1025 NOSIG=
201810160500 METAR LRBS 160500Z 27003KT CAVOK 07/02 Q1025 NOSIG=
201810160530 METAR LRBS 160530Z VRB02KT CAVOK 08/02 Q1025 NOSIG=
201810160600 METAR LRBS 160600Z VRB01KT CAVOK 09/03 Q1025 NOSIG=
201810160630 METAR LRBS 160630Z VRB01KT CAVOK 12/03 Q1025 NOSIG=
201810160700 METAR LRBS 160700Z 30001KT CAVOK 14/03 Q1025 NOSIG=
201810160730 METAR LRBS 160730Z 05005KT 330V100 CAVOK 16/03 Q1025 NOSIG=
201810160800 METAR LRBS 160800Z 06005KT 020V090 CAVOK 17/03 Q1025 NOSIG=
201810160830 METAR COR LRBS 160830Z 04007KT 350V100 CAVOK 18/03 Q1025
                        NOSIG=
201810160900 METAR LRBS 160900Z 04005KT 360V100 CAVOK 19/03 Q1025 NOSIG=
201810160930 METAR LRBS 160930Z 06007KT 010V100 CAVOK 20/04 Q1025 NOSIG=
201810161000 METAR LRBS 161000Z 06006KT 350V100 CAVOK 21/04 Q1025 NOSIG=
201810161030 METAR LRBS 161030Z 05006KT 330V090 CAVOK 22/03 Q1024 NOSIG=
201810161100 METAR LRBS 161100Z 02006KT 320V110 CAVOK 22/03 Q1024 NOSIG=
201810161130 METAR LRBS 161130Z 01006KT 320V060 CAVOK 23/01 Q1024 NOSIG=
201810161200 METAR LRBS 161200Z 02007KT 330V060 CAVOK 23/02 Q1024 NOSIG=
201810161230 METAR LRBS 161230Z 04005KT 290V100 CAVOK 23/02 Q1024 NOSIG=
201810161300 METAR LRBS 161300Z 05006KT 360V110 CAVOK 23/02 Q1023 NOSIG=
201810161330 METAR LRBS 161330Z 05006KT 360V080 CAVOK 23/02 Q1023 NOSIG=
201810161400 METAR LRBS 161400Z 04005KT 360V080 CAVOK 23/02 Q1023 NOSIG=
201810161430 METAR LRBS 161430Z 06005KT CAVOK 22/03 Q1023 NOSIG=
201810161500 METAR LRBS 161500Z 07004KT CAVOK 20/03 Q1023 NOSIG=
201810161530 METAR LRBS 161530Z 06003KT 020V090 CAVOK 19/03 Q1023 NOSIG=
201810161600 METAR LRBS 161600Z VRB01KT CAVOK 18/04 Q1023 NOSIG=
201810161630 METAR LRBS 161630Z VRB01KT CAVOK 17/05 Q1024 NOSIG=
201810161700 METAR LRBS 161700Z VRB01KT CAVOK 16/05 Q1024 NOSIG=
201810161730 METAR LRBS 161730Z 30002KT CAVOK 15/05 Q1024 NOSIG=
201810161800 METAR LRBS 161800Z 00000KT CAVOK 14/06 Q1024 NOSIG=
201810161830 METAR LRBS 161830Z VRB01KT CAVOK 13/06 Q1024 NOSIG=
201810161900 METAR LRBS 161900Z VRB02KT CAVOK 13/05 Q1024 NOSIG=
201810161930 METAR LRBS 161930Z VRB01KT CAVOK 13/05 Q1024 NOSIG=
201810162000 METAR LRBS 162000Z 27002KT CAVOK 12/05 Q1024 NOSIG=
201810162030 METAR LRBS 162030Z 31004KT 280V340 CAVOK 12/04 Q1024 NOSIG=
201810162100 METAR LRBS 162100Z AUTO 32003KT 280V360 9999 NCD 13/03 Q1024
                        NOSIG=
201810162130 METAR LRBS 162130Z VRB02KT CAVOK 13/04 Q1024 NOSIG=
201810162200 METAR LRBS 162200Z 32003KT 290V360 CAVOK 12/04 Q1024 NOSIG=
201810162230 METAR LRBS 162230Z AUTO VRB01KT 9999 NCD 12/04 Q1023 NOSIG=
201810162300 METAR COR LRBS 162300Z VRB02KT CAVOK 12/04 Q1023 NOSIG=
201810162330 METAR LRBS 162330Z VRB02KT CAVOK 12/04 Q1023 NOSIG=
201810170000 METAR LRBS 170000Z VRB02KT CAVOK 10/04 Q1023 NOSIG=
201810170030 METAR LRBS 170030Z 32002KT CAVOK 10/04 Q1023 NOSIG=
201810170100 METAR COR LRBS 170100Z 26003KT CAVOK 10/04 Q1023 NOSIG=
201810170130 METAR LRBS 170130Z 26003KT CAVOK 09/04 Q1023 NOSIG=
201810170200 METAR COR LRBS 170200Z 00000KT CAVOK 10/03 Q1023 NOSIG=
201810170230 METAR LRBS 170230Z VRB01KT CAVOK 10/03 Q1023 NOSIG=
201810170300 METAR LRBS 170300Z VRB02KT CAVOK 10/03 Q1022 NOSIG=
201810170330 METAR LRBS 170330Z VRB02KT CAVOK 10/03 Q1022 NOSIG=
201810170400 METAR LRBS 170400Z VRB02KT CAVOK 10/04 Q1022 NOSIG=
201810170430 METAR LRBS 170430Z 31001KT CAVOK 10/04 Q1022 NOSIG=
201810170500 METAR LRBS 170500Z VRB02KT 9000 NSC 10/04 Q1022 NOSIG=
201810170530 METAR LRBS 170530Z VRB02KT 9000 MIFG NSC 10/04 Q1023 NOSIG=
201810170600 METAR LRBS 170600Z VRB02KT CAVOK 13/05 Q1023 NOSIG=
201810170630 METAR LRBS 170630Z 06004KT 020V110 CAVOK 14/05 Q1023 NOSIG=
201810170700 METAR LRBS 170700Z 04005KT 360V080 CAVOK 15/06 Q1023 NOSIG=
201810170730 METAR LRBS 170730Z 05007KT 020V090 CAVOK 17/07 Q1023 NOSIG=
201810170800 METAR LRBS 170800Z 05009KT 010V070 CAVOK 18/08 Q1023 NOSIG=
201810170830 METAR LRBS 170830Z 06009KT 010V090 CAVOK 19/09 Q1023 NOSIG=
201810170900 METAR LRBS 170900Z 06011KT 020V090 CAVOK 20/09 Q1023 NOSIG=
201810170930 METAR LRBS 170930Z 06012KT 030V090 CAVOK 21/09 Q1022 NOSIG=
201810171000 METAR LRBS 171000Z 05009KT 350V090 CAVOK 21/08 Q1022 NOSIG=
201810171030 METAR LRBS 171030Z 06011KT 040V100 CAVOK 22/07 Q1022 NOSIG=
201810171100 METAR LRBS 171100Z 06012KT 030V090 CAVOK 22/07 Q1022 NOSIG=
201810171130 METAR LRBS 171130Z 07011KT 040V100 CAVOK 22/07 Q1022 NOSIG=
201810171200 METAR LRBS 171200Z 07010KT 040V100 CAVOK 22/07 Q1021 NOSIG=
201810171230 METAR LRBS 171230Z 07010KT CAVOK 22/07 Q1021 NOSIG=
201810171300 METAR LRBS 171300Z 08009KT 050V110 CAVOK 22/06 Q1021 NOSIG=
201810171330 METAR LRBS 171330Z 07009KT CAVOK 22/06 Q1021 NOSIG=
201810171400 METAR LRBS 171400Z 07007KT CAVOK 22/07 Q1021 NOSIG=
201810171430 METAR LRBS 171430Z 06005KT CAVOK 21/09 Q1021 NOSIG=
201810171500 METAR LRBS 171500Z 06005KT CAVOK 20/09 Q1021 NOSIG=
201810171530 METAR LRBS 171530Z 03003KT 360V070 9000 NSC 19/08 Q1020 NOSIG=
201810171600 METAR LRBS 171600Z 02003KT CAVOK 18/09 Q1021 NOSIG=
201810171630 METAR LRBS 171630Z 02003KT 360V060 CAVOK 19/08 Q1021 NOSIG=
201810171700 METAR LRBS 171700Z 00000KT CAVOK 18/09 Q1021 NOSIG=
201810171730 METAR LRBS 171730Z VRB01KT CAVOK 18/09 Q1021 NOSIG=
201810171800 METAR LRBS 171800Z 36003KT CAVOK 18/09 Q1021 NOSIG=
201810171830 METAR LRBS 171830Z VRB01KT CAVOK 18/10 Q1021 NOSIG=
201810171900 METAR LRBS 171900Z VRB02KT CAVOK 17/10 Q1021 NOSIG=
201810171930 METAR LRBS 171930Z 04004KT 360V070 CAVOK 17/09 Q1021 NOSIG=
201810172000 METAR LRBS 172000Z 04006KT 010V070 CAVOK 17/08 Q1021 NOSIG=
201810172030 METAR LRBS 172030Z 04005KT 360V070 CAVOK 16/08 Q1021 NOSIG=
201810172100 METAR LRBS 172100Z 02005KT CAVOK 15/08 Q1021 NOSIG=
201810172130 METAR LRBS 172130Z 03006KT 350V060 CAVOK 16/08 Q1021 NOSIG=
201810172200 METAR LRBS 172200Z 03007KT CAVOK 15/08 Q1021 NOSIG=
201810172230 METAR LRBS 172230Z 04004KT CAVOK 15/08 Q1021 NOSIG=
201810172300 METAR LRBS 172300Z 07003KT 040V100 CAVOK 14/07 Q1021 NOSIG=
201810172330 METAR LRBS 172330Z 04002KT CAVOK 13/07 Q1020 NOSIG=
201810180000 METAR LRBS 180000Z 03001KT CAVOK 12/07 Q1020 NOSIG=
201810180030 METAR LRBS 180030Z 00000KT CAVOK 13/07 Q1020 NOSIG=
201810180100 METAR LRBS 180100Z VRB01KT CAVOK 13/07 Q1020 NOSIG=
201810180130 METAR LRBS 180130Z VRB01KT CAVOK 13/07 Q1020 NOSIG=
201810180200 METAR LRBS 180200Z 07002KT CAVOK 13/07 Q1020 NOSIG=
201810180230 METAR LRBS 180230Z 05002KT CAVOK 12/07 Q1020 NOSIG=
201810180300 METAR LRBS 180300Z 03003KT CAVOK 12/07 Q1020 NOSIG=
201810180330 METAR LRBS 180330Z 06002KT CAVOK 11/07 Q1020 NOSIG=
201810180400 METAR COR LRBS 180400Z 05002KT CAVOK 11/07 Q1020 NOSIG=
201810180430 METAR LRBS 180430Z 05002KT CAVOK 11/07 Q1020 NOSIG=
201810180500 METAR LRBS 180500Z 06002KT CAVOK 10/07 Q1020 NOSIG=
201810180530 METAR LRBS 180530Z VRB01KT CAVOK 11/07 Q1020 NOSIG=
201810180600 METAR LRBS 180600Z 07005KT CAVOK 13/08 Q1020 NOSIG=
201810180630 METAR LRBS 180630Z 07006KT 9999 SCT014 14/09 Q1020 NOSIG=
201810180700 METAR COR LRBS 180700Z 07011KT 9999 SCT013 16/09 Q1020 NOSIG=
201810180730 METAR LRBS 180730Z 06011KT 040V100 9999 FEW011 16/10 Q1020
                        NOSIG=
201810180800 METAR LRBS 180800Z 07010KT 9999 FEW015 16/10 Q1020 NOSIG=
201810180830 METAR LRBS 180830Z 07011KT 040V100 9999 FEW014 17/10 Q1020
                        NOSIG=
201810180900 METAR LRBS 180900Z 10010KT 070V130 9999 FEW008 17/10 Q1020
                        NOSIG=
201810180930 METAR LRBS 180930Z 10007KT 050V140 9999 FEW019 17/10 Q1020
                        NOSIG=
201810181000 METAR LRBS 181000Z 10006KT 060V140 CAVOK 17/10 Q1020 NOSIG=
201810181030 METAR COR LRBS 181030Z 12005KT 050V190 CAVOK 19/12 Q1019
                        NOSIG=
201810181100 METAR LRBS 181100Z 07006KT 010V110 CAVOK 19/12 Q1019 NOSIG=
201810181130 METAR LRBS 181130Z VRB04KT CAVOK 20/12 Q1018 NOSIG=
201810181200 METAR LRBS 181200Z 06006KT 010V100 CAVOK 21/11 Q1018 NOSIG=
201810181230 METAR LRBS 181230Z 07007KT 040V140 CAVOK 21/11 Q1018 NOSIG=
201810181300 METAR LRBS 181300Z AUTO 10007KT 050V140 9999 NCD 21/11 Q1018
                        NOSIG=
201810181330 METAR LRBS 181330Z 10006KT 070V140 CAVOK 20/11 Q1018 NOSIG=
201810181400 METAR LRBS 181400Z 10006KT 060V130 CAVOK 20/11 Q1018 NOSIG=
201810181430 METAR LRBS 181430Z 11007KT 9999 FEW050CB 19/11 Q1017 NOSIG=
201810181500 METAR LRBS 181500Z 13004KT 100V160 CAVOK 19/11 Q1017 NOSIG=
201810181530 METAR LRBS 181530Z 11004KT CAVOK 18/11 Q1017 NOSIG=
201810181600 METAR LRBS 181600Z 11003KT 070V150 CAVOK 17/11 Q1017 NOSIG=
201810181630 METAR LRBS 181630Z 14001KT 9000 FEW045CB 17/11 Q1018 NOSIG=
201810181700 METAR LRBS 181700Z 00000KT 9000 FEW045CB 17/11 Q1017 NOSIG=
201810181730 METAR LRBS 181730Z 01002KT 9000 FEW045CB 16/11 Q1018 NOSIG=
201810181800 METAR LRBS 181800Z VRB01KT 9000 FEW045CB 15/12 Q1018 NOSIG=
201810181830 METAR LRBS 181830Z 00000KT 9000 FEW045CB 16/12 Q1018 NOSIG=
201810181900 METAR LRBS 181900Z 03001KT 9000 FEW045CB 15/12 Q1018 NOSIG=
201810181930 METAR LRBS 181930Z 09001KT 9000 NSC 15/12 Q1018 NOSIG=
201810182000 METAR LRBS 182000Z 00000KT 9000 NSC 15/12 Q1018 NOSIG=
201810182030 METAR LRBS 182030Z 00000KT 8000 FEW045CB 15/12 Q1018 NOSIG=
201810182100 METAR LRBS 182100Z VRB01KT 8000 NSC 15/13 Q1018 NOSIG=
201810182130 METAR LRBS 182130Z 00000KT 9000 NSC 15/13 Q1018=
201810182200 METAR LRBS 182200Z 00000KT 9000 FEW032 15/13 Q1018 NOSIG=
201810182230 METAR LRBS 182230Z VRB01KT 8000 SCT033 15/13 Q1018 NOSIG=
201810182300 METAR LRBS 182300Z 00000KT 7000 FEW034 14/12 Q1018 NOSIG=
201810182330 METAR LRBS 182330Z VRB01KT 5000 MIFG BR NSC 13/13 Q1018 NOSIG=
201810190000 METAR LRBS 190000Z VRB01KT 6000 MIFG FEW025 BKN032 13/13
                        Q1018 TEMPO 3000 BR=
201810190030 METAR LRBS 190030Z 00000KT 7000 MIFG SCT030 13/12 Q1017 TEMPO
                        3000 BR=
201810190100 METAR LRBS 190100Z 00000KT 6000 R07/0750 R25/0225N BCFG NSC
                        12/12 Q1017 TEMPO 3000 BR=
201810190130 METAR LRBS 190130Z 00000KT 5000 BCFG BR NSC 12/12 Q1017 TEMPO
                        3000 BR=
201810190200 METAR LRBS 190200Z 33001KT 5000 BCFG BR NSC 12/12 Q1017 NOSIG=
201810190230 METAR LRBS 190230Z 29002KT 5000 MIFG BR NSC 12/11 Q1017 NOSIG=
201810190300 METAR LRBS 190300Z 25001KT 5000 MIFG BR NSC 11/11 Q1017 NOSIG=
201810190330 METAR LRBS 190330Z 26002KT 6000 MIFG NSC 11/11 Q1017 NOSIG=
201810190400 METAR LRBS 190400Z VRB01KT 5000 MIFG BR NSC 11/11 Q1017 NOSIG=
201810190430 METAR COR LRBS 190430Z 00000KT 4200 R07/P2000 R25/1400U MIFG
                        BR NSC 11/11 Q1017 NOSIG=
201810190500 METAR LRBS 190500Z 00000KT 3400 MIFG BR NSC 11/11 Q1017 TEMPO
                        3000 BR=
201810190530 METAR LRBS 190530Z 02001KT 4000 MIFG BR NSC 11/10 Q1018 TEMPO
                        3000 BR=
201810190600 METAR COR LRBS 190600Z 00000KT 4200 BR NSC 11/11 Q1018 BECMG
                        9999 NSW=
201810190630 METAR LRBS 190630Z 00000KT 6000 -RA FEW020 12/12 Q1018 NOSIG=
201810190700 METAR LRBS 190700Z 02003KT 350V080 6000 NSC 14/13 Q1018 NOSIG=
201810190730 METAR LRBS 190730Z 04003KT 010V090 8000 NSC 15/13 Q1018 NOSIG=
201810190800 METAR LRBS 190800Z 07003KT 010V130 CAVOK 17/13 Q1018 NOSIG=
201810190830 METAR LRBS 190830Z VRB02KT CAVOK 18/12 Q1018 NOSIG=
201810190900 METAR LRBS 190900Z VRB03KT CAVOK 19/12 Q1018 NOSIG=
201810190930 METAR LRBS 190930Z VRB02KT 9999 FEW033 20/13 Q1018 NOSIG=
201810191000 METAR LRBS 191000Z VRB03KT 9999 FEW024 20/13 Q1018 NOSIG=
201810191030 METAR LRBS 191030Z VRB02KT 9999 FEW010 SCT025 21/13 Q1017
                        NOSIG=
201810191100 METAR LRBS 191100Z VRB02KT 9999 SCT030 21/12 Q1017 NOSIG=
201810191130 METAR LRBS 191130Z VRB02KT 9999 BKN032 21/12 Q1017 NOSIG=
201810191200 METAR LRBS 191200Z VRB02KT 9999 BKN032 20/12 Q1017 NOSIG=
201810191230 METAR LRBS 191230Z VRB02KT 9999 SCT032 21/12 Q1017 NOSIG=
201810191300 METAR LRBS 191300Z VRB02KT 9999 SCT040 21/11 Q1017 NOSIG=
201810191330 METAR LRBS 191330Z VRB01KT 9999 SCT039 21/11 Q1017 NOSIG=
201810191400 METAR LRBS 191400Z VRB01KT 9999 FEW039 21/11 Q1017 NOSIG=
201810191430 METAR LRBS 191430Z 07003KT 360V120 CAVOK 20/12 Q1017 NOSIG=
201810191500 METAR LRBS 191500Z 08002KT CAVOK 19/12 Q1017 NOSIG=
201810191530 METAR LRBS 191530Z 03002KT CAVOK 18/12 Q1017 NOSIG=
201810191600 METAR LRBS 191600Z 34001KT CAVOK 17/12 Q1017 NOSIG=
201810191630 METAR LRBS 191630Z 00000KT CAVOK 17/13 Q1017 NOSIG=
201810191700 METAR LRBS 191700Z 00000KT CAVOK 17/13 Q1018 NOSIG=
201810191730 METAR LRBS 191730Z 00000KT CAVOK 17/13 Q1018 NOSIG=
201810191800 METAR LRBS 191800Z VRB01KT CAVOK 16/12 Q1018 NOSIG=
201810191830 METAR LRBS 191830Z 02001KT CAVOK 16/12 Q1018 NOSIG=
201810191900 METAR LRBS 191900Z 32002KT 8000 NSC 16/12 Q1018 NOSIG=
201810191930 METAR LRBS 191930Z 02002KT 8000 NSC 15/12 Q1018 NOSIG=
201810192000 METAR LRBS 192000Z 00000KT 8000 NSC 15/12 Q1018 NOSIG=
201810192030 METAR LRBS 192030Z 24001KT 8000 NSC 15/13 Q1018 NOSIG=
201810192100 METAR LRBS 192100Z 30002KT 8000 NSC 15/12 Q1018 NOSIG=
201810192130 METAR LRBS 192130Z 30002KT 7000 NSC 14/12 Q1018 NOSIG=
201810192200 METAR LRBS 192200Z 32002KT 7000 NSC 14/12 Q1018 NOSIG=
201810192230 METAR LRBS 192230Z AUTO 30002KT 6000 OVC059/// 14/12 Q1018
                        NOSIG=
201810192300 METAR COR LRBS 192300Z 27002KT 8000 NSC 14/12 Q1019 NOSIG=
201810192330 METAR LRBS 192330Z 27002KT 8000 NSC 14/12 Q1019 NOSIG=
201810200000 METAR LRBS 200000Z 29002KT 7000 NSC 14/12 Q1019 NOSIG=
201810200030 METAR LRBS 200030Z VRB02KT 6000 NSC 14/12 Q1018 NOSIG=
201810200100 METAR COR LRBS 200100Z VRB02KT 6000 BKN048 14/12 Q1019 NOSIG=
201810200130 METAR LRBS 200130Z VRB02KT 6000 NSC 14/12 Q1018 NOSIG=
201810200200 METAR LRBS 200200Z VRB01KT 5000 BR NSC 14/11 Q1019 NOSIG=
201810200230 METAR LRBS 200230Z 29002KT 6000 NSC 14/12 Q1019 NOSIG=
201810200300 METAR LRBS 200300Z 31003KT 6000 NSC 14/12 Q1019 NOSIG=
201810200330 METAR LRBS 200330Z VRB01KT 6000 NSC 15/12 Q1019 NOSIG=
201810200400 METAR LRBS 200400Z 23004KT 6000 NSC 15/12 Q1019 NOSIG=
201810200430 METAR LRBS 200430Z VRB01KT 6000 NSC 15/12 Q1019 NOSIG=
201810200500 METAR LRBS 200500Z 22002KT 5000 BR NSC 15/12 Q1019 NOSIG=
201810200530 METAR LRBS 200530Z 25003KT 6000 NSC 15/12 Q1019 NOSIG=
201810200600 METAR LRBS 200600Z 26003KT 5000 BR SCT048 15/12 Q1020 TEMPO
                        3000 RA=
201810200630 METAR LRBS 200630Z 27002KT 6000 -RA SCT033 BKN044 15/13 Q1020
                        R07/29//95 TEMPO 3000 RA=
201810200700 METAR LRBS 200700Z VRB01KT 8000 BKN048 16/13 Q1020 R07/29//95
                        NOSIG=
201810200730 METAR LRBS 200730Z VRB02KT 7000 BKN048 16/13 Q1020 R07/29//95
                        NOSIG=
201810200800 METAR LRBS 200800Z 28004KT 230V350 9000 SCT047 17/13 Q1020
                        R07/29//95 NOSIG=
201810200830 METAR LRBS 200830Z 27006KT 240V310 9999 FEW044 18/12 Q1021
                        R07/29//95 NOSIG=
201810200900 METAR LRBS 200900Z 27006KT 230V320 CAVOK 18/12 Q1021 R07/29//95
                        NOSIG=
201810200930 METAR LRBS 200930Z 27008KT 230V310 9999 FEW046 18/12 Q1020
                        R07/29//95 NOSIG=
201810201000 METAR LRBS 201000Z 26009KT 230V290 CAVOK 18/12 Q1020 R07/29//95
                        NOSIG=
201810201030 METAR LRBS 201030Z 25009KT CAVOK 19/11 Q1020 R07/29//95 NOSIG=
201810201100 METAR LRBS 201100Z 25009KT CAVOK 20/11 Q1020 R07/CLRD// NOSIG=
201810201130 METAR LRBS 201130Z 25009KT 220V280 CAVOK 20/12 Q1019 NOSIG=
201810201200 METAR LRBS 201200Z 25008KT 220V280 CAVOK 20/11 Q1019 NOSIG=
201810201230 METAR LRBS 201230Z 25008KT 220V280 CAVOK 20/12 Q1019 NOSIG=
201810201300 METAR LRBS 201300Z 25007KT 220V280 CAVOK 21/11 Q1019 NOSIG=
201810201330 METAR LRBS 201330Z 26008KT CAVOK 21/10 Q1019 NOSIG=
201810201400 METAR LRBS 201400Z 27007KT 230V310 9999 FEW050CB 21/10 Q1019
                        NOSIG=
201810201430 METAR LRBS 201430Z 26008KT 230V290 9999 VCTS FEW050CB 20/11
                        Q1019 TEMPO VRB15G25KT 3000 TSRA
                        BKN010 BKN030CB=
201810201500 METAR LRBS 201500Z 24006KT 9999 -TSRA SCT050CB 19/11 Q1019
                        TEMPO VRB15G25KT 3000 TSRA BKN010
                        BKN030CB=
201810201530 METAR LRBS 201530Z 19006KT 100V250 2000 +TSRA SCT028 BKN040CB
                        17/14 Q1019 R07/29//95 TEMPO VRB15G25KT
                        1500 +TSRA BKN010 BKN030CB=
201810201600 METAR LRBS 201600Z 25008KT 210V010 9999 SCT029 FEW045CB 16/14
                        Q1019 RETSRA R07/29//95 NOSIG=
201810201630 METAR LRBS 201630Z 25006KT 9999 FEW040CB SCT044 16/15 Q1019
                        RETSRA R07/29//95 NOSIG=
201810201700 METAR LRBS 201700Z 27005KT 230V300 9000 -RA FEW040CB 16/15
                        Q1019 R07/29//95 NOSIG=
201810201730 METAR LRBS 201730Z 28003KT 240V350 9999 SCT040 16/15 Q1019
                        R07/29//95 NOSIG=
201810201800 METAR LRBS 201800Z 30003KT 270V340 9999 FEW044 15/15 Q1020
                        R07/29//95 NOSIG=
201810201830 METAR LRBS 201830Z 28004KT 260V320 9000 NSC 15/14 Q1020 R07/29//95
                        NOSIG=
201810201900 METAR LRBS 201900Z 27003KT 8000 NSC 15/14 Q1020 R07/29//95
                        NOSIG=
201810201930 METAR LRBS 201930Z 28003KT 250V310 6000 NSC 14/14 Q1020 R07/29//95
                        NOSIG=
201810202000 METAR LRBS 202000Z 28003KT 8000 SCT047 14/14 Q1020 R07/29//95
                        NOSIG=
201810202030 METAR LRBS 202030Z VRB02KT 8000 FEW049 14/14 Q1020 R07/29//95
                        NOSIG=
201810202100 METAR LRBS 202100Z VRB02KT 6000 FEW045 14/13 Q1020 R07/29//95
                        NOSIG=
201810202130 METAR LRBS 202130Z VRB01KT 6000 FEW044 14/13 Q1019 R07/29//95
                        NOSIG=
201810202200 METAR LRBS 202200Z VRB01KT 6000 FEW045 13/13 Q1019 R07/29//95
                        NOSIG=
201810202230 METAR LRBS 202230Z VRB01KT 5000 FEW048 13/13 Q1020 R07/29//95
                        NOSIG=
201810202300 METAR LRBS 202300Z VRB01KT 6000 BKN045 14/13 Q1020 R07/29//95
                        NOSIG=
201810202330 METAR LRBS 202330Z VRB02KT 5000 BR FEW040CB SCT048 13/13
                        Q1020 R07/29//95 NOSIG=
201810210000 METAR LRBS 210000Z VRB02KT 5000 -SHRA BR FEW040CB 14/13 Q1019
                        R07/29//95 NOSIG=
201810210030 METAR LRBS 210030Z 11003KT 4700 -SHRA BR FEW040CB 13/13 Q1019
                        R07/29//95 TEMPO 3000 SHRA SCT040CB=
201810210100 METAR LRBS 210100Z VRB01KT 5000 -RA BR NSC 14/14 Q1019 R07/29//95
                        NOSIG=
201810210130 METAR LRBS 210130Z VRB02KT 5000 BR NSC 14/14 Q1019 R07/29//95
                        NOSIG=
201810210200 METAR LRBS 210200Z 09003KT 3500 -RA BR NSC 13/13 Q1019 R07/29//95
                        NOSIG=
201810210230 METAR LRBS 210230Z VRB01KT 5000 BR NSC 13/13 Q1019 R07/29//95
                        NOSIG=
201810210300 METAR LRBS 210300Z VRB02KT 5000 -RA BR NSC 13/13 Q1018 R07/29//95
                        NOSIG=
201810210330 METAR LRBS 210330Z VRB01KT 5000 -RA BR NSC 14/14 Q1019 R07/29//95
                        NOSIG=
201810210400 METAR LRBS 210400Z 00000KT 3500 -SHRA BR FEW045CB 14/14 Q1019
                        R07/29//95 NOSIG=
201810210430 METAR LRBS 210430Z 28004KT 240V310 1800 SHRA BR SCT038CB
                        13/13 Q1019 R07/29//95 TEMPO 1500
                        SHRA=
201810210500 METAR LRBS 210500Z VRB02KT 1600 SHRA BR FEW003 SCT040CB 13/13
                        Q1019 R07/29//95 NOSIG=
201810210530 METAR LRBS 210530Z VRB02KT 1500 SHRA BR FEW003 SCT036CB 13/13
                        Q1019 R07/29//95 NOSIG=
201810210600 METAR LRBS 210600Z 27003KT 240V300 2700 -SHRA BR SCT039CB
                        13/13 Q1019 RESHRA R07/29//95 NOSIG=
201810210630 METAR LRBS 210630Z 00000KT 3500 -SHRA BR FEW040CB 14/13 Q1019
                        R07/29//95 NOSIG=
201810210700 METAR LRBS 210700Z VRB01KT 4500 BR FEW028 FEW040CB 14/14
                        Q1019 R07/29//95 NOSIG=
201810210730 METAR LRBS 210730Z 12003KT 090V150 5000 BR FEW009 FEW040CB
                        14/14 Q1020 R07/29//95 NOSIG=
201810210800 METAR LRBS 210800Z 10007KT 5000 BR FEW009 FEW040CB 15/15
                        Q1020 R07/29//95 NOSIG=
201810210830 METAR LRBS 210830Z 13004KT 080V170 6000 SCT008 15/14 Q1020
                        R07/29//95 TEMPO BKN010=
201810210900 METAR LRBS 210900Z 12005KT 6000 BKN010 SCT019 15/14 Q1020
                        R07/29//95 NOSIG=
201810210930 METAR LRBS 210930Z 12004KT 090V150 6000 SCT011 BKN018 16/13
                        Q1020 R07/29//95 NOSIG=
201810211000 METAR LRBS 211000Z 07003KT 010V140 7000 SCT015 BKN019 16/12
                        Q1020 R07/29//95 NOSIG=
201810211030 METAR LRBS 211030Z 07003KT 360V130 7000 FEW010 BKN015 16/12
                        Q1020 R07/29//95 NOSIG=
201810211100 METAR LRBS 211100Z 07004KT 040V100 7000 FEW017 BKN022 16/13
                        Q1020 R07/29//95 NOSIG=
201810211130 METAR LRBS 211130Z 07004KT 020V110 7000 BKN024 BKN048 16/13
                        Q1020 R07/29//95 NOSIG=
201810211200 METAR LRBS 211200Z 08003KT 040V120 8000 SCT026 BKN047 16/12
                        Q1020 R07/29//95 NOSIG=
201810211230 METAR LRBS 211230Z 05003KT 360V110 9000 FEW021 SCT043 17/12
                        Q1020 R07/29//95 NOSIG=
201810211300 METAR LRBS 211300Z 01003KT 340V050 9000 FEW021 BKN042 17/12
                        Q1020 R07/29//95 NOSIG=
201810211330 METAR LRBS 211330Z VRB02KT 9000 FEW040 17/12 Q1020 R07/29//95
                        NOSIG=
201810211400 METAR LRBS 211400Z VRB02KT 9000 NSC 17/12 Q1020 R07/29//95
                        NOSIG=
201810211430 METAR LRBS 211430Z 02001KT 9000 NSC 17/12 Q1020 R07/29//95
                        NOSIG=
201810211500 METAR LRBS 211500Z 03003KT 9000 SCT029 16/12 Q1020 R07/CLRD//
                        NOSIG=
201810211530 METAR LRBS 211530Z 02003KT 8000 BKN025 16/13 Q1021 NOSIG=
201810211600 METAR LRBS 211600Z 04006KT 7000 SCT022 BKN028 15/11 Q1021
                        NOSIG=
201810211630 METAR LRBS 211630Z 05006KT 020V090 7000 FEW039 14/10 Q1022
                        NOSIG=
201810211700 METAR LRBS 211700Z 05008KT 020V090 7000 NSC 14/10 Q1022 NOSIG=
201810211730 METAR LRBS 211730Z 06006KT 020V090 7000 NSC 13/10 Q1022 NOSIG=
201810211800 METAR LRBS 211800Z 06007KT 020V090 7000 NSC 13/10 Q1022 NOSIG=
201810211830 METAR LRBS 211830Z 04007KT 360V070 8000 NSC 13/09 Q1022 NOSIG=
201810211900 METAR LRBS 211900Z 04007KT 010V070 8000 NSC 13/09 Q1023 NOSIG=
201810211930 METAR LRBS 211930Z 04006KT 010V070 9000 FEW047 13/09 Q1023
                        NOSIG=
201810212000 METAR LRBS 212000Z 04006KT 010V070 9999 FEW046 13/08 Q1023
                        NOSIG=
201810212030 METAR LRBS 212030Z 04005KT 9999 SCT046 13/08 Q1023 NOSIG=
201810212100 METAR LRBS 212100Z 03005KT 360V060 CAVOK 13/08 Q1023 NOSIG=
201810212130 METAR LRBS 212130Z 04005KT CAVOK 12/07 Q1023 NOSIG=
201810212200 METAR LRBS 212200Z 03005KT CAVOK 12/07 Q1023 NOSIG=
201810212230 METAR LRBS 212230Z 03006KT CAVOK 12/07 Q1023 NOSIG=
201810212300 METAR LRBS 212300Z 03008KT 360V060 CAVOK 12/07 Q1023 NOSIG=
201810212330 METAR LRBS 212330Z 04009KT CAVOK 13/07 Q1024 NOSIG=
201810220000 METAR COR LRBS 220000Z 04008KT 020V080 CAVOK 12/07 Q1024
                        NOSIG=
201810220030 METAR LRBS 220030Z 05005KT 020V080 CAVOK 11/07 Q1024 NOSIG=
201810220100 METAR LRBS 220100Z 07006KT CAVOK 09/06 Q1023 NOSIG=
201810220130 METAR LRBS 220130Z 07005KT CAVOK 09/07 Q1023 NOSIG=
201810220200 METAR LRBS 220200Z 05005KT CAVOK 08/06 Q1024 NOSIG=
201810220230 METAR LRBS 220230Z 05004KT CAVOK 08/06 Q1024 NOSIG=
201810220300 METAR LRBS 220300Z 06003KT CAVOK 08/07 Q1024 NOSIG=
201810220330 METAR LRBS 220330Z 05002KT CAVOK 08/07 Q1024 NOSIG=
201810220400 METAR LRBS 220400Z VRB02KT CAVOK 09/07 Q1024 NOSIG=
201810220430 METAR LRBS 220430Z 06003KT 030V090 9999 SCT043 08/06 Q1024
                        NOSIG=
201810220500 METAR LRBS 220500Z 07003KT 9999 SCT041 08/07 Q1024 NOSIG=
201810220530 METAR LRBS 220530Z 07003KT CAVOK 09/07 Q1025 NOSIG=
201810220600 METAR LRBS 220600Z VRB02KT 9999 FEW042 11/07 Q1025 NOSIG=
201810220630 METAR LRBS 220630Z 06006KT 020V090 9999 BKN041 12/07 Q1025
                        NOSIG=
201810220700 METAR COR LRBS 220700Z 06010KT 030V090 9999 BKN042 12/07
                        Q1025 NOSIG=
201810220730 METAR LRBS 220730Z 06012KT 9999 BKN043 14/07 Q1025 NOSIG=
201810220800 METAR LRBS 220800Z 06011KT 9999 BKN043 15/07 Q1025 NOSIG=
201810220830 METAR LRBS 220830Z 05013KT 020V100 9999 FEW048 15/06 Q1025
                        NOSIG=
201810220900 METAR LRBS 220900Z 05012KT 010V090 CAVOK 16/06 Q1025 NOSIG=
201810220930 METAR LRBS 220930Z 07011KT 040V100 CAVOK 16/06 Q1025 NOSIG=
201810221000 METAR LRBS 221000Z 06010KT 020V090 9999 FEW040 16/06 Q1024
                        NOSIG=
201810221030 METAR LRBS 221030Z 06010KT 360V100 9999 FEW045 17/05 Q1024
                        NOSIG=
201810221100 METAR LRBS 221100Z 05008KT 360V080 9999 FEW040 16/05 Q1023
                        NOSIG=
201810221130 METAR LRBS 221130Z 04007KT 350V090 9999 FEW040 17/05 Q1023
                        NOSIG=
201810221200 METAR LRBS 221200Z 05006KT 330V110 9999 FEW042 17/05 Q1023
                        NOSIG=
201810221230 METAR LRBS 221230Z 07008KT 9999 FEW043 17/04 Q1023 NOSIG=
201810221300 METAR LRBS 221300Z 02005KT 310V110 9999 FEW048 17/04 Q1023
                        NOSIG=
201810221330 METAR LRBS 221330Z 04003KT 340V100 9000 FEW047 17/05 Q1022
                        NOSIG=
201810221400 METAR LRBS 221400Z 02003KT 340V060 9999 FEW045 17/05 Q1022
                        NOSIG=
201810221430 METAR LRBS 221430Z 01002KT 9999 FEW045 16/05 Q1022 NOSIG=
201810221500 METAR LRBS 221500Z VRB02KT CAVOK 16/06 Q1022 NOSIG=
201810221530 METAR LRBS 221530Z VRB02KT CAVOK 16/07 Q1022 NOSIG=
201810221600 METAR LRBS 221600Z 30001KT CAVOK 14/07 Q1022 NOSIG=
201810221630 METAR LRBS 221630Z 29001KT CAVOK 13/08 Q1022 NOSIG=
201810221700 METAR LRBS 221700Z 00000KT 9000 NSC 12/08 Q1022 NOSIG=
201810221730 METAR LRBS 221730Z 29002KT 9000 MIFG NSC 12/08 Q1022 NOSIG=
201810221800 METAR LRBS 221800Z 00000KT 9000 MIFG NSC 11/08 Q1023 NOSIG=
201810221830 METAR LRBS 221830Z 08002KT 9000 NSC 09/07 Q1023 NOSIG=
201810221900 METAR LRBS 221900Z 06002KT 8000 NSC 09/09 Q1023 NOSIG=
201810221930 METAR LRBS 221930Z VRB01KT 8000 NSC 10/09 Q1023 NOSIG=
201810222000 METAR LRBS 222000Z 00000KT 7000 NSC 09/08 Q1023 NOSIG=
201810222030 METAR LRBS 222030Z 00000KT 7000 NSC 09/08 Q1023 NOSIG=
201810222100 METAR LRBS 222100Z 00000KT 7000 NSC 09/08 Q1023 NOSIG=
201810222130 METAR LRBS 222130Z 00000KT 7000 NSC 09/08 Q1023 NOSIG=
201810222200 METAR LRBS 222200Z 00000KT 7000 NSC 09/08 Q1022 NOSIG=
201810222230 METAR LRBS 222230Z 00000KT 7000 NSC 09/08 Q1023 NOSIG=
201810222300 METAR LRBS 222300Z 00000KT 6000 NSC 09/09 Q1022 NOSIG=
201810222330 METAR LRBS 222330Z 31001KT 6000 NSC 08/08 Q1022 NOSIG=
201810230000 METAR LRBS 230000Z 28001KT 6000 NSC 08/08 Q1022 NOSIG=
201810230030 METAR LRBS 230030Z 00000KT 6000 NSC 08/08 Q1022 NOSIG=
201810230100 METAR LRBS 230100Z 32001KT 6000 NSC 08/08 Q1022 NOSIG=
201810230130 METAR LRBS 230130Z 28001KT 5000 BR NSC 08/08 Q1021 TEMPO
                        3000 BR=
201810230200 METAR LRBS 230200Z VRB01KT 4500 MIFG BR NSC 08/07 Q1022 TEMPO
                        3000 BR=
201810230230 METAR LRBS 230230Z 24002KT 5000 BR NSC 08/08 Q1021 TEMPO
                        3000 BR=
201810230300 METAR LRBS 230300Z 24002KT 4000 BR NSC 08/08 Q1021 NOSIG=
201810230330 METAR LRBS 230330Z 27003KT 4000 BR NSC 08/07 Q1021 NOSIG=
201810230400 METAR LRBS 230400Z 24003KT 5000 BR NSC 07/07 Q1021 NOSIG=
201810230430 METAR LRBS 230430Z 25002KT 5000 BR NSC 07/07 Q1021 NOSIG=
201810230500 METAR LRBS 230500Z 26003KT 5000 BR NSC 07/07 Q1021 NOSIG=
201810230530 METAR LRBS 230530Z 25003KT 5000 BR NSC 07/07 Q1021 NOSIG=
201810230600 METAR LRBS 230600Z 27002KT 5000 BR NSC 08/08 Q1021 NOSIG=
201810230630 METAR COR LRBS 230630Z 25004KT 5000 BR NSC 09/08 Q1022 NOSIG=
201810230700 METAR LRBS 230700Z 28004KT 250V330 CAVOK 11/08 Q1021 NOSIG=
201810230730 METAR LRBS 230730Z 26006KT CAVOK 12/08 Q1021 NOSIG=
201810230800 METAR LRBS 230800Z 26007KT 240V320 CAVOK 14/09 Q1021 NOSIG=
201810230830 METAR COR LRBS 230830Z 26009KT 240V310 CAVOK 15/08 Q1021
                        NOSIG=
201810230900 METAR LRBS 230900Z 27010KT 230V320 CAVOK 16/08 Q1021 NOSIG=
201810230930 METAR COR LRBS 230930Z 27010KT 230V320 CAVOK 17/07 Q1020
                        NOSIG=
201810231000 METAR LRBS 231000Z 26010KT 230V310 CAVOK 18/07 Q1019 NOSIG=
201810231030 METAR LRBS 231030Z 28009KT 230V310 CAVOK 18/07 Q1019 NOSIG=
201810231100 METAR LRBS 231100Z 26010KT 220V310 CAVOK 18/06 Q1019 NOSIG=
201810231130 METAR LRBS 231130Z 26010KT 230V300 CAVOK 18/07 Q1018 NOSIG=
201810231200 METAR LRBS 231200Z 25011KT CAVOK 19/06 Q1017 NOSIG=
201810231230 METAR LRBS 231230Z 26011KT 240V310 CAVOK 19/06 Q1017 NOSIG=
201810231300 METAR LRBS 231300Z 26011KT CAVOK 19/06 Q1017 NOSIG=
201810231330 METAR LRBS 231330Z 25011KT CAVOK 19/06 Q1016 NOSIG=
201810231400 METAR LRBS 231400Z 25012KT CAVOK 18/06 Q1016 NOSIG=
201810231430 METAR LRBS 231430Z 26012KT CAVOK 18/05 Q1015 NOSIG=
201810231500 METAR LRBS 231500Z 26009KT CAVOK 17/06 Q1015 NOSIG=
201810231530 METAR LRBS 231530Z 27006KT 240V300 CAVOK 16/06 Q1015 NOSIG=
201810231600 METAR LRBS 231600Z 26006KT CAVOK 15/06 Q1015 NOSIG=
201810231630 METAR LRBS 231630Z 25008KT CAVOK 15/06 Q1014 NOSIG=
201810231700 METAR LRBS 231700Z 25009KT CAVOK 14/06 Q1014 NOSIG=
201810231730 METAR LRBS 231730Z 25010KT CAVOK 14/06 Q1014 NOSIG=
201810231800 METAR LRBS 231800Z 25010KT 220V280 CAVOK 14/06 Q1013 NOSIG=
201810231830 METAR LRBS 231830Z 24010KT CAVOK 13/05 Q1013 NOSIG=
201810231900 METAR LRBS 231900Z 25011KT CAVOK 13/05 Q1013 NOSIG=
201810231930 METAR LRBS 231930Z 25010KT CAVOK 13/05 Q1012 NOSIG=
201810232000 METAR LRBS 232000Z 25010KT CAVOK 13/05 Q1012 NOSIG=
201810232030 METAR LRBS 232030Z 26010KT CAVOK 12/05 Q1011=
201810232100 METAR LRBS 232100Z 26013KT 230V290 CAVOK 12/05 Q1011 NOSIG=
201810232130 METAR COR LRBS 232130Z 26013KT 230V290 CAVOK 12/05 Q1011
                        NOSIG=
201810232200 METAR LRBS 232200Z 26011KT CAVOK 11/06 Q1009=
201810232230 METAR COR LRBS 232230Z 25012KT CAVOK 11/07 Q1008 NOSIG=
201810232300 METAR COR LRBS 232300Z 25012KT CAVOK 11/07 Q1008 NOSIG=
201810232330 METAR COR LRBS 232330Z 25012KT CAVOK 11/07 Q1008 NOSIG=
201810240000 METAR LRBS 240000Z 27011KT 240V300 CAVOK 11/07 Q1007 NOSIG=
201810240030 METAR LRBS 240030Z 26011KT 230V300 7000 NSC 11/07 Q1007 NOSIG=
201810240100 METAR LRBS 240100Z 26013KT 8000 NSC 11/07 Q1006 NOSIG=
201810240130 METAR LRBS 240130Z 26014KT 240V300 8000 NSC 11/07 Q1006 NOSIG=
201810240200 METAR LRBS 240200Z 26014KT 8000 NSC 11/07 Q1005 NOSIG=
201810240230 METAR LRBS 240230Z 26014KT 240V300 8000 NSC 10/07 Q1005 NOSIG=
201810240300 METAR LRBS 240300Z 26014KT 8000 NSC 10/07 Q1005 NOSIG=
201810240330 METAR LRBS 240330Z 27015KT 250V310 8000 NSC 10/07 Q1004 NOSIG=
201810240400 METAR LRBS 240400Z 26015KT CAVOK 11/06 Q1003 NOSIG=
201810240430 METAR COR LRBS 240430Z 27014KT 240V310 CAVOK 11/06 Q1003
                        BECMG 26020G30KT=
201810240500 METAR LRBS 240500Z 26015KT 220V300 CAVOK 11/06 Q1003 BECMG
                        26020G30KT=
201810240530 METAR LRBS 240530Z 26013KT 240V300 CAVOK 11/06 Q1002 BECMG
                        26020G30KT=
201810240600 METAR LRBS 240600Z 26015KT CAVOK 11/06 Q1002 BECMG 26020G30KT=
201810240630 METAR LRBS 240630Z 26019KT CAVOK 11/06 Q1002 NOSIG=
201810240700 METAR LRBS 240700Z 26017KT 230V300 CAVOK 12/06 Q1001 NOSIG=
201810240730 METAR LRBS 240730Z 27015KT 230V300 CAVOK 12/06 Q1001 NOSIG=
201810240800 METAR LRBS 240800Z 27015KT 230V310 CAVOK 13/06 Q1001 NOSIG=
201810240830 METAR LRBS 240830Z 27016KT 240V300 CAVOK 13/06 Q1000 NOSIG=
201810240900 METAR LRBS 240900Z 27017KT 240V310 CAVOK 13/06 Q1000 NOSIG=
201810240930 METAR LRBS 240930Z 27015KT 240V300 CAVOK 13/06 Q1000 TEMPO
                        5000 SHRA SCT030CB=
201810241000 METAR LRBS 241000Z 27016KT 240V300 CAVOK 14/07 Q1000 TEMPO
                        5000 SHRA SCT030CB=
201810241030 METAR LRBS 241030Z 27017KT 240V300 CAVOK 15/06 Q0999 NOSIG=
201810241100 METAR LRBS 241100Z 27015KT 230V310 CAVOK 15/06 Q0998 NOSIG=
201810241130 METAR LRBS 241130Z 27014KT 240V330 CAVOK 16/06 Q0998 NOSIG=
201810241200 METAR LRBS 241200Z 27016KT 240V310 CAVOK 17/05 Q0997 NOSIG=
201810241230 METAR LRBS 241230Z 27018G28KT 240V320 CAVOK 18/04 Q0997 NOSIG=
201810241300 METAR LRBS 241300Z 27019G32KT 240V340 CAVOK 18/03 Q0996 NOSIG=
201810241330 METAR LRBS 241330Z 27017KT 240V310 CAVOK 19/03 Q0995 NOSIG=
201810241400 METAR LRBS 241400Z 26022KT 230V300 9999 FEW050CB 18/03 Q0995
                        NOSIG=
201810241430 METAR LRBS 241430Z 27018G28KT 230V320 9999 FEW050CB 18/03
                        Q0995 TEMPO 3000 SHRA SCT030CB=
201810241500 METAR LRBS 241500Z 27018KT 230V320 9999 SCT050CB 17/04 Q0995
                        TEMPO 3000 SHRA SCT030CB=
201810241530 METAR LRBS 241530Z 01014G24KT 310V060 8000 -SHRA SCT033 SCT050CB
                        10/05 Q0997 R07/29//95 TEMPO 3000
                        SHRA=
201810241600 METAR LRBS 241600Z 02007KT 340V080 9999 FEW050CB 09/05 Q0998
                        R07/29//95 TEMPO 3000 SHRA=
201810241630 METAR LRBS 241630Z VRB02KT 9999 FEW050CB 09/06 Q0999 R07/29//95
                        BECMG NSC=
201810241700 METAR LRBS 241700Z 28005KT 240V330 9999 FEW050CB 09/04 Q1000
                        R07/29//95 BECMG NSC=
201810241730 METAR LRBS 241730Z 36007KT 300V050 CAVOK 10/M01 Q1000 R07/29//95
                        NOSIG=
201810241800 METAR LRBS 241800Z 30005KT 250V350 CAVOK 09/02 Q1000 R07/29//95
                        NOSIG=
201810241830 METAR LRBS 241830Z 31003KT 260V360 CAVOK 08/03 Q1001 R07/29//95
                        NOSIG=
201810241900 METAR COR LRBS 241900Z 31003KT 260V010 CAVOK 08/M00 Q1002
                        R07/29//95 NOSIG=
201810241930 METAR LRBS 241930Z 32003KT 240V360 CAVOK 07/M02 Q1003 R07/29//95
                        NOSIG=
201810242000 METAR LRBS 242000Z 32003KT 260V020 CAVOK 07/M03 Q1004 R07/29//95
                        NOSIG=
201810242030 METAR LRBS 242030Z 31003KT 240V010 CAVOK 07/M03 Q1005 R07/29//95
                        NOSIG=
201810242100 METAR LRBS 242100Z 30003KT 250V360 CAVOK 06/M02 Q1005 R07/29//95
                        NOSIG=
201810242130 METAR LRBS 242130Z 29003KT CAVOK 06/M02 Q1006 R07/29//95
                        NOSIG=
201810242200 METAR LRBS 242200Z 33005KT 270V020 CAVOK 07/M03 Q1006 R07/29//95
                        NOSIG=
201810242230 METAR LRBS 242230Z 32004KT 270V020 CAVOK 06/M03 Q1007 R07/29//95
                        NOSIG=
201810242300 METAR LRBS 242300Z AUTO 31003KT 270V360 9999 SCT120/// 05/M03
                        Q1007 NOSIG=
201810242330 METAR COR LRBS 242330Z 30004KT 250V360 CAVOK 05/M03 Q1007
                        R07/29//95 NOSIG=
201810250000 METAR LRBS 250000Z 29004KT 230V360 CAVOK 05/M02 Q1008 R07/29//95
                        NOSIG=
201810250030 METAR COR LRBS 250030Z 30004KT 250V360 CAVOK 05/M02 Q1008
                        R07/29//95 NOSIG=
201810250100 METAR LRBS 250100Z 30004KT 260V360 CAVOK 05/M02 Q1008 R07/29//95
                        NOSIG=
201810250130 METAR LRBS 250130Z 30003KT 250V360 CAVOK 04/M02 Q1008 R07/29//95
                        NOSIG=
201810250200 METAR LRBS 250200Z 28003KT 240V320 CAVOK 04/M02 Q1008 R07/29//95
                        NOSIG=
201810250230 METAR LRBS 250230Z 27005KT 240V300 CAVOK 04/M02 Q1009 R07/29//95
                        NOSIG=
201810250300 METAR LRBS 250300Z 28004KT CAVOK 04/M02 Q1009 R07/29//95
                        NOSIG=
201810250330 METAR LRBS 250330Z 27005KT CAVOK 04/M02 Q1009 R07/29//95
                        NOSIG=
201810250400 METAR LRBS 250400Z 26003KT CAVOK 04/M03 Q1009 R07/29//95
                        NOSIG=
201810250430 METAR LRBS 250430Z 26004KT CAVOK 05/M04 Q1009 R07/CLRD//
                        NOSIG=
201810250500 METAR LRBS 250500Z 27005KT CAVOK 05/M03 Q1010 NOSIG=
201810250530 METAR LRBS 250530Z 28005KT 250V310 CAVOK 05/M03 Q1010 NOSIG=
201810250600 METAR LRBS 250600Z 28007KT 240V320 CAVOK 06/M03 Q1011 NOSIG=
201810250630 METAR LRBS 250630Z 30006KT 240V350 CAVOK 07/M03 Q1011 NOSIG=
201810250700 METAR LRBS 250700Z 29005KT 250V350 CAVOK 08/M03 Q1011 NOSIG=
201810250730 METAR LRBS 250730Z 28006KT 240V010 CAVOK 09/M04 Q1012 NOSIG=
201810250800 METAR LRBS 250800Z 30006KT 210V360 CAVOK 11/M04 Q1012 NOSIG=
201810250830 METAR LRBS 250830Z 29006KT 240V010 CAVOK 12/M04 Q1012 NOSIG=
201810250900 METAR LRBS 250900Z 31005KT 240V020 CAVOK 12/M06 Q1012 NOSIG=
201810250930 METAR LRBS 250930Z 34005G16KT 260V050 CAVOK 13/M07 Q1012
                        NOSIG=
201810251000 METAR LRBS 251000Z 33005KT 240V040 CAVOK 13/M06 Q1012 NOSIG=
201810251030 METAR LRBS 251030Z 35005KT 280V040 CAVOK 14/M07 Q1012 NOSIG=
201810251100 METAR LRBS 251100Z 29008KT 240V360 CAVOK 14/M06 Q1012 NOSIG=
201810251130 METAR LRBS 251130Z 28008KT 210V350 CAVOK 14/M07 Q1012 NOSIG=
201810251200 METAR LRBS 251200Z 28010KT 220V030 CAVOK 14/M08 Q1011 NOSIG=
201810251230 METAR LRBS 251230Z 29008KT 250V350 CAVOK 13/M08 Q1011 NOSIG=
201810251300 METAR LRBS 251300Z 29009KT 240V350 CAVOK 13/M11 Q1011 NOSIG=
201810251330 METAR LRBS 251330Z 27011G21KT 230V320 CAVOK 14/M11 Q1011
                        NOSIG=
201810251400 METAR LRBS 251400Z 28009KT 240V330 CAVOK 14/M10 Q1011 NOSIG=
201810251430 METAR LRBS 251430Z 26013KT 230V300 CAVOK 14/M09 Q1011 NOSIG=
201810251500 METAR LRBS 251500Z 27011KT 240V300 CAVOK 13/M08 Q1011 NOSIG=
201810251530 METAR LRBS 251530Z 27010KT 240V310 CAVOK 12/M07 Q1011 NOSIG=
201810251600 METAR LRBS 251600Z 25010KT CAVOK 11/M07 Q1011 NOSIG=
201810251630 METAR LRBS 251630Z 27010KT 240V300 CAVOK 11/M07 Q1011 NOSIG=
201810251700 METAR LRBS 251700Z 27012KT 240V310 CAVOK 11/M05 Q1011 NOSIG=
201810251730 METAR LRBS 251730Z 27012KT 240V300 CAVOK 11/M05 Q1011 NOSIG=
201810251800 METAR LRBS 251800Z 27010KT 240V310 CAVOK 10/M04 Q1011 NOSIG=
201810251830 METAR LRBS 251830Z 27009KT 230V310 CAVOK 10/M04 Q1011 NOSIG=
201810251900 METAR LRBS 251900Z 27009KT 250V310 CAVOK 09/M04 Q1011 NOSIG=
201810251930 METAR LRBS 251930Z 29008KT 250V340 CAVOK 09/M03 Q1011 NOSIG=
201810252000 METAR LRBS 252000Z 28007KT 260V320 CAVOK 08/M03 Q1011 NOSIG=
201810252030 METAR LRBS 252030Z 28006KT 240V320 CAVOK 08/M02 Q1011 NOSIG=
201810252100 METAR LRBS 252100Z 27009KT 240V300 CAVOK 08/M01 Q1011 NOSIG=
201810252130 METAR LRBS 252130Z 27007KT 240V300 CAVOK 07/M01 Q1011 NOSIG=
201810252200 METAR LRBS 252200Z 27011KT 240V310 CAVOK 07/00 Q1010 NOSIG=
201810252230 METAR LRBS 252230Z 28009KT 250V320 CAVOK 07/01 Q1011 NOSIG=
201810252300 METAR LRBS 252300Z 28007KT 230V320 CAVOK 07/01 Q1010 NOSIG=
201810252330 METAR LRBS 252330Z 27006KT CAVOK 07/01 Q1011=
201810260000 METAR LRBS 260000Z 26009KT CAVOK 06/01 Q1011 NOSIG=
201810260030 METAR LRBS 260030Z 27008KT 240V310 CAVOK 07/02 Q1010 NOSIG=
201810260100 METAR LRBS 260100Z 28006KT 240V320 CAVOK 07/02 Q1010 NOSIG=
201810260130 METAR LRBS 260130Z 28007KT 250V320 CAVOK 08/03 Q1010 NOSIG=
201810260200 METAR LRBS 260200Z 27007KT 250V310 CAVOK 08/03 Q1011 NOSIG=
201810260230 METAR LRBS 260230Z 27007KT 240V310 CAVOK 08/03 Q1011 NOSIG=
201810260300 METAR LRBS 260300Z 27007KT 240V300 CAVOK 08/03 Q1011 NOSIG=
201810260330 METAR LRBS 260330Z 28007KT 240V320 CAVOK 08/03 Q1011 NOSIG=
201810260400 METAR LRBS 260400Z 27006KT 250V310 CAVOK 08/03 Q1011 NOSIG=
201810260430 METAR LRBS 260430Z 27006KT 250V310 CAVOK 07/03 Q1011 NOSIG=
201810260500 METAR LRBS 260500Z 28003KT 260V320 CAVOK 07/03 Q1012 NOSIG=
201810260530 METAR COR LRBS 260530Z 26004KT 240V300 CAVOK 08/03 Q1013
                        NOSIG=
201810260600 METAR LRBS 260600Z 26005KT 240V300 CAVOK 09/04 Q1013 NOSIG=
201810260630 METAR COR LRBS 260630Z 28004KT 250V360 CAVOK 10/04 Q1013
                        NOSIG=
201810260700 METAR LRBS 260700Z 27007KT 240V300 CAVOK 11/04 Q1013 NOSIG=
201810260730 METAR LRBS 260730Z VRB03KT CAVOK 13/04 Q1013 NOSIG=
201810260800 METAR LRBS 260800Z VRB01KT CAVOK 14/04 Q1014 NOSIG=
201810260830 METAR LRBS 260830Z 25005KT 220V280 CAVOK 15/04 Q1014 NOSIG=
201810260900 METAR LRBS 260900Z VRB02KT CAVOK 15/03 Q1014 NOSIG=
201810260930 METAR LRBS 260930Z 15004KT 080V190 CAVOK 17/03 Q1014 NOSIG=
201810261000 METAR LRBS 261000Z 20004KT 150V230 CAVOK 17/03 Q1014 NOSIG=
201810261030 METAR LRBS 261030Z 19005KT 130V240 CAVOK 17/03 Q1014 NOSIG=
201810261100 METAR LRBS 261100Z 19006KT 150V240 CAVOK 18/02 Q1014 NOSIG=
201810261130 METAR LRBS 261130Z 19006KT 110V240 CAVOK 18/03 Q1014 NOSIG=
201810261200 METAR LRBS 261200Z 20004KT 150V280 CAVOK 19/01 Q1014 NOSIG=
201810261230 METAR LRBS 261230Z VRB03KT CAVOK 18/02 Q1013 NOSIG=
201810261300 METAR LRBS 261300Z 17003KT 110V220 CAVOK 19/02 Q1013 NOSIG=
201810261330 METAR LRBS 261330Z 26009KT CAVOK 19/01 Q1013 NOSIG=
201810261400 METAR LRBS 261400Z 25009KT CAVOK 19/01 Q1013 NOSIG=
201810261430 METAR LRBS 261430Z 24006KT 210V270 CAVOK 19/01 Q1014 NOSIG=
201810261500 METAR LRBS 261500Z 23005KT CAVOK 18/02 Q1014 NOSIG=
201810261530 METAR LRBS 261530Z 24003KT CAVOK 17/02 Q1014 NOSIG=
201810261600 METAR LRBS 261600Z 27002KT CAVOK 16/03 Q1014 NOSIG=
201810261630 METAR LRBS 261630Z 28001KT CAVOK 16/03 Q1014 NOSIG=
201810261700 METAR LRBS 261700Z VRB01KT CAVOK 15/04 Q1015 NOSIG=
201810261730 METAR LRBS 261730Z 00000KT CAVOK 14/04 Q1014 NOSIG=
201810261800 METAR LRBS 261800Z 00000KT CAVOK 14/04 Q1015 NOSIG=
201810261830 METAR LRBS 261830Z 31001KT CAVOK 13/04 Q1015 NOSIG=
201810261900 METAR LRBS 261900Z 00000KT CAVOK 13/04 Q1015 NOSIG=
201810261930 METAR LRBS 261930Z 00000KT CAVOK 12/04 Q1015 NOSIG=
201810262000 METAR LRBS 262000Z 28003KT CAVOK 11/05 Q1015 NOSIG=
201810262030 METAR LRBS 262030Z VRB02KT 9000 NSC 10/04 Q1016 NOSIG=
201810262100 METAR LRBS 262100Z VRB01KT 9000 NSC 09/05 Q1016 NOSIG=
201810262130 METAR LRBS 262130Z 00000KT 9000 NSC 09/05 Q1016 NOSIG=
201810262200 METAR LRBS 262200Z 00000KT CAVOK 08/05 Q1016 NOSIG=
201810262230 METAR LRBS 262230Z VRB01KT CAVOK 08/06 Q1016 NOSIG=
201810262300 METAR LRBS 262300Z 30001KT CAVOK 08/05 Q1016 NOSIG=
201810262330 METAR LRBS 262330Z VRB01KT CAVOK 07/05 Q1016 NOSIG=
201810270000 METAR LRBS 270000Z 31001KT 9000 NSC 07/05 Q1016=
201810270030 METAR LRBS 270030Z VRB01KT CAVOK 07/05 Q1016 NOSIG=
201810270100 METAR LRBS 270100Z VRB02KT CAVOK 06/04 Q1016 NOSIG=
201810270130 METAR LRBS 270130Z 28002KT 9000 NSC 07/05 Q1016 NOSIG=
201810270200 METAR LRBS 270200Z VRB01KT 9000 NSC 06/04 Q1016 NOSIG=
201810270230 METAR LRBS 270230Z 00000KT CAVOK 07/04 Q1016 NOSIG=
201810270300 METAR LRBS 270300Z 26002KT CAVOK 07/04 Q1016 NOSIG=
201810270330 METAR LRBS 270330Z 26002KT CAVOK 07/04 Q1016 NOSIG=
201810270400 METAR LRBS 270400Z 29001KT CAVOK 07/04 Q1017 NOSIG=
201810270430 METAR LRBS 270430Z 25001KT CAVOK 07/04 Q1016 NOSIG=
201810270500 METAR LRBS 270500Z 00000KT CAVOK 07/04 Q1016 NOSIG=
201810270530 METAR LRBS 270530Z 03001KT CAVOK 07/04 Q1016 NOSIG=
201810270600 METAR LRBS 270600Z 00000KT CAVOK 08/05 Q1016 NOSIG=
201810270630 METAR LRBS 270630Z 00000KT CAVOK 11/06 Q1016 NOSIG=
201810270700 METAR LRBS 270700Z 00000KT CAVOK 11/06 Q1016 NOSIG=
201810270730 METAR LRBS 270730Z VRB01KT CAVOK 14/06 Q1016 NOSIG=
201810270800 METAR LRBS 270800Z VRB02KT CAVOK 15/05 Q1016 NOSIG=
201810270830 METAR LRBS 270830Z VRB02KT CAVOK 17/05 Q1016 NOSIG=
201810270900 METAR LRBS 270900Z VRB02KT CAVOK 18/04 Q1016 NOSIG=
201810270930 METAR LRBS 270930Z VRB02KT CAVOK 18/05 Q1016 NOSIG=
201810271000 METAR LRBS 271000Z 25003KT 220V300 CAVOK 18/04 Q1016 NOSIG=
201810271030 METAR LRBS 271030Z VRB02KT CAVOK 19/04 Q1015 NOSIG=
201810271100 METAR LRBS 271100Z 25003KT 210V300 CAVOK 20/05 Q1015 NOSIG=
201810271130 METAR LRBS 271130Z 27003KT 210V350 CAVOK 20/04 Q1015 NOSIG=
201810271200 METAR LRBS 271200Z 26003KT 200V340 CAVOK 21/05 Q1015 NOSIG=
201810271230 METAR LRBS 271230Z 28003KT 240V010 CAVOK 21/05 Q1014 NOSIG=
201810271300 METAR LRBS 271300Z 25003KT 220V290 CAVOK 22/05 Q1014 NOSIG=
201810271330 METAR COR LRBS 271330Z 26003KT 220V340 CAVOK 22/05 Q1014
                        NOSIG=
201810271400 METAR LRBS 271400Z 28003KT 240V320 CAVOK 21/05 Q1014 NOSIG=
201810271430 METAR LRBS 271430Z VRB01KT CAVOK 20/05 Q1014 NOSIG=
201810271500 METAR LRBS 271500Z 00000KT CAVOK 19/08 Q1014 NOSIG=
201810271530 METAR LRBS 271530Z VRB01KT CAVOK 17/08 Q1014 NOSIG=
201810271600 METAR LRBS 271600Z 01002KT CAVOK 14/09 Q1014 NOSIG=
201810271630 METAR LRBS 271630Z 00000KT CAVOK 14/08 Q1014 NOSIG=
201810271700 METAR LRBS 271700Z 00000KT CAVOK 14/09 Q1014 NOSIG=
201810271730 METAR COR LRBS 271730Z VRB01KT CAVOK 13/08 Q1015 NOSIG=
201810271800 METAR LRBS 271800Z VRB01KT CAVOK 13/08 Q1015 NOSIG=
201810271830 METAR LRBS 271830Z 00000KT CAVOK 12/08 Q1015 NOSIG=
201810271900 METAR LRBS 271900Z 00000KT CAVOK 11/07 Q1015 NOSIG=
201810271930 METAR LRBS 271930Z 35002KT CAVOK 12/08 Q1015 NOSIG=
201810272000 METAR LRBS 272000Z 00000KT CAVOK 11/08 Q1015 NOSIG=
201810272030 METAR LRBS 272030Z VRB01KT CAVOK 11/08 Q1015 NOSIG=
201810272100 METAR LRBS 272100Z 00000KT CAVOK 10/08 Q1015 NOSIG=
201810272130 METAR LRBS 272130Z 00000KT CAVOK 10/08 Q1015 NOSIG=
201810272200 METAR LRBS 272200Z 00000KT CAVOK 10/07 Q1015 NOSIG=
201810272230 METAR LRBS 272230Z 00000KT CAVOK 09/08 Q1016 NOSIG=
201810272300 METAR LRBS 272300Z VRB01KT CAVOK 10/07 Q1016 NOSIG=
201810272330 METAR LRBS 272330Z AUTO 00000KT 9000 NCD 09/07 Q1016 NOSIG=
201810280000 METAR LRBS 280000Z VRB01KT CAVOK 09/07 Q1016 NOSIG=
201810280030 METAR LRBS 280030Z 28001KT 8000 NSC 09/07 Q1016 NOSIG=
201810280100 METAR LRBS 280100Z 00000KT 7000 NSC 08/07 Q1016 NOSIG=
201810280130 METAR LRBS 280130Z 00000KT 7000 NSC 08/07 Q1016 NOSIG=
201810280200 METAR LRBS 280200Z 00000KT 7000 NSC 08/07 Q1016 NOSIG=
201810280230 METAR LRBS 280230Z 00000KT 5000 BR NSC 08/07 Q1016 NOSIG=
201810280300 METAR LRBS 280300Z 00000KT 5000 BR NSC 08/07 Q1016 NOSIG=
201810280330 METAR LRBS 280330Z 00000KT 6000 NSC 07/07 Q1017 NOSIG=
201810280400 METAR LRBS 280400Z 00000KT 5000 BR NSC 07/07 Q1017 NOSIG=
201810280430 METAR LRBS 280430Z 00000KT 5000 BR NSC 07/07 Q1017 NOSIG=
201810280500 METAR LRBS 280500Z VRB01KT 4000 BR NSC 08/07 Q1017 NOSIG=
201810280530 METAR LRBS 280530Z 25001KT 8000 NSC 08/08 Q1017 NOSIG=
201810280600 METAR LRBS 280600Z 25002KT 8000 NSC 09/08 Q1017 NOSIG=
201810280630 METAR LRBS 280630Z 26003KT CAVOK 12/09 Q1018 NOSIG=
201810280700 METAR LRBS 280700Z VRB02KT CAVOK 14/08 Q1018 NOSIG=
201810280730 METAR LRBS 280730Z 24003KT 210V270 CAVOK 16/08 Q1018 NOSIG=
201810280800 METAR LRBS 280800Z 23004KT CAVOK 18/07 Q1017 NOSIG=
201810280830 METAR LRBS 280830Z 20004KT 160V240 CAVOK 21/07 Q1017 NOSIG=
201810280900 METAR LRBS 280900Z 23004KT 210V270 CAVOK 22/07 Q1017 NOSIG=
201810280930 METAR LRBS 280930Z 25004KT 220V280 CAVOK 22/07 Q1017 NOSIG=
201810281000 METAR LRBS 281000Z 24003KT 180V300 CAVOK 23/07 Q1017 NOSIG=
201810281030 METAR LRBS 281030Z 26004KT 210V300 CAVOK 23/07 Q1017 NOSIG=
201810281100 METAR LRBS 281100Z 23003KT 180V280 CAVOK 24/07 Q1017 NOSIG=
201810281130 METAR LRBS 281130Z VRB02KT CAVOK 25/07 Q1016 NOSIG=
201810281200 METAR LRBS 281200Z VRB01KT CAVOK 25/07 Q1016 NOSIG=
201810281230 METAR LRBS 281230Z VRB02KT CAVOK 25/05 Q1016 NOSIG=
201810281300 METAR LRBS 281300Z VRB02KT CAVOK 25/05 Q1016 NOSIG=
201810281330 METAR LRBS 281330Z 00000KT CAVOK 25/06 Q1016 NOSIG=
201810281400 METAR COR LRBS 281400Z 02001KT CAVOK 23/06 Q1016 NOSIG=
201810281430 METAR LRBS 281430Z 01001KT CAVOK 22/09 Q1016 NOSIG=
201810281500 METAR LRBS 281500Z 01001KT CAVOK 20/10 Q1015 NOSIG=
201810281530 METAR LRBS 281530Z 01001KT CAVOK 18/10 Q1015 NOSIG=
201810281600 METAR LRBS 281600Z VRB01KT CAVOK 18/10 Q1016 NOSIG=
201810281630 METAR LRBS 281630Z VRB01KT CAVOK 18/09 Q1016 NOSIG=
201810281700 METAR LRBS 281700Z 28001KT CAVOK 17/10 Q1016 NOSIG=
201810281730 METAR LRBS 281730Z 00000KT CAVOK 16/09 Q1016 NOSIG=
201810281800 METAR LRBS 281800Z 00000KT CAVOK 14/10 Q1016 NOSIG=
201810281830 METAR LRBS 281830Z 00000KT CAVOK 14/10 Q1016 NOSIG=
201810281900 METAR LRBS 281900Z 00000KT CAVOK 13/10 Q1016 NOSIG=
201810281930 METAR LRBS 281930Z 00000KT CAVOK 14/10 Q1017 NOSIG=
201810282000 METAR LRBS 282000Z VRB01KT CAVOK 13/10 Q1017 NOSIG=
201810282030 METAR LRBS 282030Z VRB01KT CAVOK 13/10 Q1017 NOSIG=
201810282100 METAR LRBS 282100Z VRB01KT CAVOK 13/10 Q1017 NOSIG=
201810282130 METAR LRBS 282130Z 00000KT CAVOK 13/10 Q1017 NOSIG=
201810282200 METAR LRBS 282200Z 00000KT CAVOK 12/10 Q1017 NOSIG=
201810282230 METAR LRBS 282230Z 32001KT CAVOK 12/10 Q1016 NOSIG=
201810282300 METAR LRBS 282300Z 34001KT CAVOK 11/10 Q1016 NOSIG=
201810282330 METAR LRBS 282330Z 00000KT CAVOK 11/09 Q1017 NOSIG=
201810290000 METAR LRBS 290000Z 00000KT CAVOK 11/09 Q1017 NOSIG=
201810290030 METAR LRBS 290030Z 35002KT CAVOK 11/09 Q1017 NOSIG=
201810290100 METAR LRBS 290100Z 00000KT CAVOK 10/09 Q1016 NOSIG=
201810290130 METAR LRBS 290130Z 26001KT CAVOK 10/09 Q1016 NOSIG=
201810290200 METAR LRBS 290200Z AUTO 27001KT 9000 NCD 10/09 Q1016 NOSIG=
201810290230 METAR COR LRBS 290230Z 24001KT CAVOK 10/09 Q1016 NOSIG=
201810290300 METAR LRBS 290300Z 25001KT CAVOK 10/09 Q1016 NOSIG=
201810290330 METAR LRBS 290330Z 27002KT CAVOK 10/09 Q1016 NOSIG=
201810290400 METAR LRBS 290400Z 00000KT CAVOK 10/09 Q1017 NOSIG=
201810290430 METAR LRBS 290430Z 00000KT CAVOK 09/08 Q1016 NOSIG=
201810290500 METAR COR LRBS 290500Z 00000KT 8000 MIFG NSC 10/09 Q1017
                        NOSIG=
201810290530 METAR LRBS 290530Z 00000KT 7000 NSC 11/09 Q1017 NOSIG=
201810290600 METAR LRBS 290600Z 00000KT 8000 NSC 11/10 Q1017 NOSIG=
201810290630 METAR LRBS 290630Z 00000KT 8000 NSC 14/11 Q1017 NOSIG=
201810290700 METAR LRBS 290700Z 26001KT 9000 NSC 16/11 Q1017 NOSIG=
201810290730 METAR LRBS 290730Z VRB02KT CAVOK 17/11 Q1017 NOSIG=
201810290800 METAR LRBS 290800Z 23005KT CAVOK 18/10 Q1017 NOSIG=
201810290830 METAR LRBS 290830Z 24006KT 210V270 CAVOK 19/10 Q1017 NOSIG=
201810290900 METAR LRBS 290900Z 25006KT CAVOK 21/10 Q1017 NOSIG=
201810290930 METAR LRBS 290930Z 25006KT CAVOK 21/10 Q1017 NOSIG=
201810291000 METAR LRBS 291000Z 26007KT 220V300 CAVOK 22/09 Q1017 NOSIG=
201810291030 METAR LRBS 291030Z 25007KT 220V290 CAVOK 23/09 Q1017 NOSIG=
201810291100 METAR LRBS 291100Z 25005KT 220V280 CAVOK 24/09 Q1016 NOSIG=
201810291130 METAR LRBS 291130Z 23007KT CAVOK 24/09 Q1016 NOSIG=
201810291200 METAR LRBS 291200Z 25006KT 180V300 CAVOK 24/09 Q1016 NOSIG=
201810291230 METAR LRBS 291230Z 24006KT 200V280 CAVOK 25/09 Q1016 NOSIG=
201810291300 METAR LRBS 291300Z 24006KT 210V270 CAVOK 25/08 Q1017 NOSIG=
201810291330 METAR LRBS 291330Z 24007KT CAVOK 25/08 Q1016 NOSIG=
201810291400 METAR LRBS 291400Z 25006KT CAVOK 24/09 Q1017 NOSIG=
201810291430 METAR LRBS 291430Z 24001KT CAVOK 23/09 Q1017 NOSIG=
201810291500 METAR LRBS 291500Z 21001KT CAVOK 23/09 Q1017 NOSIG=
201810291530 METAR LRBS 291530Z 00000KT CAVOK 22/10 Q1017 NOSIG=
201810291600 METAR LRBS 291600Z VRB01KT CAVOK 21/10 Q1017 NOSIG=
201810291630 METAR LRBS 291630Z 00000KT CAVOK 18/11 Q1017 NOSIG=
201810291700 METAR LRBS 291700Z 00000KT CAVOK 19/11 Q1017 NOSIG=
201810291730 METAR LRBS 291730Z 00000KT CAVOK 17/11 Q1018 NOSIG=
201810291800 METAR LRBS 291800Z 00000KT CAVOK 17/11 Q1017 NOSIG=
201810291830 METAR LRBS 291830Z 00000KT CAVOK 16/11 Q1017 NOSIG=
201810291900 METAR LRBS 291900Z 00000KT CAVOK 16/12 Q1018 NOSIG=
201810291930 METAR LRBS 291930Z 00000KT CAVOK 15/11 Q1018 NOSIG=
201810292000 METAR LRBS 292000Z 01001KT CAVOK 15/12 Q1018 NOSIG=
201810292030 METAR LRBS 292030Z 00000KT CAVOK 14/11 Q1017 NOSIG=
201810292100 METAR LRBS 292100Z 36002KT CAVOK 14/12 Q1017 NOSIG=
201810292130 METAR LRBS 292130Z 00000KT CAVOK 14/11 Q1017 NOSIG=
201810292200 METAR LRBS 292200Z 00000KT CAVOK 13/11 Q1017 NOSIG=
201810292230 METAR LRBS 292230Z 00000KT CAVOK 13/11 Q1017 NOSIG=
201810292300 METAR LRBS 292300Z 00000KT CAVOK 13/11 Q1018 NOSIG=
201810292330 METAR LRBS 292330Z 00000KT CAVOK 13/11 Q1017 NOSIG=
201810300000 METAR LRBS 300000Z 08002KT CAVOK 11/10 Q1017 NOSIG=
201810300030 METAR LRBS 300030Z 00000KT CAVOK 12/11 Q1017 NOSIG=
201810300100 METAR LRBS 300100Z 01001KT CAVOK 12/11 Q1017 NOSIG=
201810300130 METAR LRBS 300130Z VRB01KT CAVOK 12/11 Q1017 NOSIG=
201810300200 METAR LRBS 300200Z 00000KT CAVOK 11/11 Q1017 NOSIG=
201810300230 METAR LRBS 300230Z 00000KT CAVOK 11/10 Q1017 NOSIG=
201810300300 METAR LRBS 300300Z 18002KT CAVOK 11/11 Q1017 NOSIG=
201810300330 METAR LRBS 300330Z 00000KT CAVOK 11/10 Q1017 NOSIG=
201810300400 METAR LRBS 300400Z 00000KT 7000 NSC 10/09 Q1017 NOSIG=
201810300430 METAR LRBS 300430Z VRB01KT 7000 MIFG NSC 10/10 Q1017 NOSIG=
201810300500 METAR LRBS 300500Z 00000KT 7000 MIFG NSC 10/10 Q1017 NOSIG=
201810300530 METAR LRBS 300530Z 05001KT 7000 MIFG NSC 11/11 Q1017 NOSIG=
201810300600 METAR LRBS 300600Z 06002KT 6000 NSC 10/10 Q1017 NOSIG=
201810300630 METAR LRBS 300630Z VRB01KT 7000 NSC 13/12 Q1017 NOSIG=
201810300700 METAR LRBS 300700Z VRB01KT 8000 NSC 15/11 Q1017 NOSIG=
201810300730 METAR LRBS 300730Z 35003KT 300V060 9000 NSC 16/11 Q1017 NOSIG=
201810300800 METAR LRBS 300800Z VRB01KT CAVOK 19/11 Q1017 NOSIG=
201810300830 METAR LRBS 300830Z 08003KT 020V130 CAVOK 20/12 Q1017 NOSIG=
201810300900 METAR LRBS 300900Z VRB02KT CAVOK 21/11 Q1017 NOSIG=
201810300930 METAR LRBS 300930Z VRB02KT CAVOK 22/11 Q1017 NOSIG=
201810301000 METAR LRBS 301000Z VRB01KT CAVOK 23/11 Q1017 NOSIG=
201810301030 METAR LRBS 301030Z VRB02KT CAVOK 23/10 Q1017 NOSIG=
201810301100 METAR LRBS 301100Z 08003KT 010V140 CAVOK 24/10 Q1016 NOSIG=
201810301130 METAR LRBS 301130Z 08003KT 020V130 CAVOK 24/10 Q1016 NOSIG=
201810301200 METAR LRBS 301200Z 08003KT 330V110 CAVOK 24/11 Q1016 NOSIG=
201810301230 METAR LRBS 301230Z 07003KT CAVOK 24/11 Q1016 NOSIG=
201810301300 METAR LRBS 301300Z 10003KT 070V140 CAVOK 25/09 Q1016 NOSIG=
201810301330 METAR LRBS 301330Z 09003KT 050V120 CAVOK 25/10 Q1016 NOSIG=
201810301400 METAR LRBS 301400Z VRB01KT CAVOK 25/11 Q1016 NOSIG=
201810301430 METAR LRBS 301430Z 04002KT CAVOK 23/11 Q1016 NOSIG=
201810301500 METAR LRBS 301500Z 04002KT CAVOK 20/12 Q1016 NOSIG=
201810301530 METAR LRBS 301530Z VRB01KT CAVOK 21/12 Q1017 NOSIG=
201810301600 METAR COR LRBS 301600Z 00000KT CAVOK 19/12 Q1017 NOSIG=
201810301630 METAR LRBS 301630Z 00000KT CAVOK 18/13 Q1017 NOSIG=
201810301700 METAR LRBS 301700Z VRB01KT 9000 NSC 18/13 Q1017 NOSIG=
201810301730 METAR COR LRBS 301730Z 26003KT 8000 NSC 17/13 Q1018 NOSIG=
201810301800 METAR LRBS 301800Z 28001KT 8000 NSC 17/12 Q1018 NOSIG=
201810301830 METAR LRBS 301830Z VRB01KT 8000 NSC 17/12 Q1018 NOSIG=
201810301900 METAR LRBS 301900Z VRB01KT 8000 NSC 16/12 Q1018 NOSIG=
201810301930 METAR LRBS 301930Z 00000KT CAVOK 16/12 Q1018 NOSIG=
201810302000 METAR LRBS 302000Z 11001KT CAVOK 14/12 Q1018 NOSIG=
201810302030 METAR LRBS 302030Z 00000KT CAVOK 16/12 Q1018 NOSIG=
201810302100 METAR LRBS 302100Z 00000KT CAVOK 16/12 Q1018 NOSIG=
201810302130 METAR LRBS 302130Z 26002KT CAVOK 16/13 Q1019 NOSIG=
201810302200 METAR LRBS 302200Z VRB01KT CAVOK 16/14 Q1018 NOSIG=
201810302230 METAR LRBS 302230Z 01002KT 310V070 CAVOK 16/13 Q1018 NOSIG=
201810302300 METAR LRBS 302300Z 26003KT 230V290 CAVOK 15/13 Q1019 NOSIG=
201810302330 METAR LRBS 302330Z 27003KT CAVOK 15/13 Q1019 NOSIG=
201810310000 METAR LRBS 310000Z 24002KT CAVOK 14/13 Q1020 NOSIG=
201810310030 METAR LRBS 310030Z 23001KT CAVOK 14/12 Q1020 NOSIG=
201810310100 METAR LRBS 310100Z 25002KT 220V300 8000 NSC 13/12 Q1020 NOSIG=
201810310130 METAR COR LRBS 310130Z 26002KT 8000 NSC 13/12 Q1020 NOSIG=
201810310200 METAR LRBS 310200Z AUTO 25002KT 8000 SCT250/// 13/12 Q1020
                        NOSIG=
201810310230 METAR LRBS 310230Z 23003KT 7000 NSC 13/12 Q1021 NOSIG=
201810310300 METAR LRBS 310300Z 23002KT 7000 NSC 13/12 Q1021 NOSIG=
201810310330 METAR LRBS 310330Z 21002KT 6000 NSC 13/12 Q1021 NOSIG=
201810310400 METAR LRBS 310400Z 28001KT 7000 NSC 13/11 Q1021 NOSIG=
201810310430 METAR LRBS 310430Z 26001KT 5000 BR NSC 13/12 Q1021 NOSIG=
201810310500 METAR LRBS 310500Z 24002KT 5000 BR NSC 13/12 Q1022 NOSIG=
201810310530 METAR LRBS 310530Z 25002KT 6000 NSC 14/12 Q1022 NOSIG=
201810310600 METAR LRBS 310600Z 25003KT 6000 NSC 14/12 Q1022 NOSIG=
201810310630 METAR LRBS 310630Z 24003KT 8000 NSC 16/12 Q1023 NOSIG=
201810310700 METAR LRBS 310700Z 25004KT CAVOK 18/12 Q1023 NOSIG=
201810310730 METAR LRBS 310730Z 25003KT CAVOK 19/12 Q1023 NOSIG=
201810310800 METAR LRBS 310800Z 26004KT 240V320 CAVOK 21/12 Q1023 NOSIG=
201810310830 METAR LRBS 310830Z 31003KT 250V010 CAVOK 22/12 Q1024 NOSIG=
201810310900 METAR LRBS 310900Z VRB02KT CAVOK 23/12 Q1024 NOSIG=
201810310930 METAR LRBS 310930Z 30003KT 240V010 CAVOK 24/11 Q1024 NOSIG=
201810311000 METAR LRBS 311000Z 27004KT 230V330 CAVOK 25/11 Q1024 NOSIG=
201810311030 METAR LRBS 311030Z 28005KT 230V010 CAVOK 26/10 Q1024 NOSIG=
201810311100 METAR LRBS 311100Z 27005KT 240V310 CAVOK 27/08 Q1023 NOSIG=
201810311130 METAR LRBS 311130Z 31004KT 240V040 CAVOK 27/09 Q1023 NOSIG=
201810311200 METAR LRBS 311200Z 32003KT 230V040 CAVOK 28/08 Q1023 NOSIG=
201810311230 METAR LRBS 311230Z VRB02KT CAVOK 28/08 Q1023 NOSIG=
201810311300 METAR LRBS 311300Z 02003KT 320V070 CAVOK 28/08 Q1023=
201810311330 METAR LRBS 311330Z 05003KT 360V100 CAVOK 27/08 Q1023 NOSIG=
201810311400 METAR LRBS 311400Z 04005KT 360V070 CAVOK 26/10 Q1024 NOSIG=
201810311430 METAR LRBS 311430Z 04004KT 010V070 CAVOK 24/11 Q1024 NOSIG=
201810311500 METAR LRBS 311500Z 04004KT CAVOK 23/11 Q1024 NOSIG=
201810311530 METAR LRBS 311530Z 04006KT CAVOK 22/11 Q1024 NOSIG=
201810311600 METAR LRBS 311600Z 05006KT 010V070 CAVOK 21/11 Q1025 NOSIG=
201810311630 METAR LRBS 311630Z 05006KT CAVOK 20/12 Q1025 NOSIG=
201810311700 METAR LRBS 311700Z 05006KT CAVOK 19/12 Q1025 NOSIG=
201810311730 METAR LRBS 311730Z 04007KT 010V070 CAVOK 19/13 Q1025 NOSIG=
201810311800 METAR LRBS 311800Z 05006KT 020V090 CAVOK 18/13 Q1025 NOSIG=
201810311830 METAR LRBS 311830Z 06006KT CAVOK 17/13 Q1026 NOSIG=
201810311900 METAR LRBS 311900Z 04005KT 010V070 8000 NSC 17/13 Q1026 NOSIG=
201810311930 METAR LRBS 311930Z 03003KT 340V060 8000 NSC 17/14 Q1027 NOSIG=
201810312000 METAR LRBS 312000Z 03005KT 360V060 8000 NSC 17/14 Q1027 NOSIG=
201810312030 METAR LRBS 312030Z 04008KT 010V070 8000 NSC 16/14 Q1027 NOSIG=
201810312100 METAR LRBS 312100Z AUTO 04009KT 010V070 9000 NCD 17/14 Q1027
                        NOSIG=
201810312130 METAR LRBS 312130Z 05009KT 020V080 8000 NSC 16/14 Q1027 NOSIG=
201810312200 METAR COR LRBS 312200Z 05008KT 7000 NSC 15/14 Q1027 NOSIG=
201810312230 METAR LRBS 312230Z 05008KT 7000 NSC 15/14 Q1027 NOSIG=
201810312300 METAR LRBS 312300Z 06007KT 020V080 6000 NSC 15/14 Q1027 BECMG
                        5000 BR=
201810312330 METAR COR LRBS 312330Z 06009KT 030V090 5000 BR BKN007 14/14
                        Q1027 BECMG 3000 BR BKN005=