201811010000 METAR LRBS 010000Z 06008KT 4000 BR BKN005 14/14 Q1028 BECMG
                        3000 BR BKN005=
201811010030 METAR LRBS 010030Z 06010KT 020V090 1500 BR OVC003 14/14 Q1028
                        TEMPO 0800 FG OVC001=
201811010100 METAR LRBS 010100Z 06010KT 030V090 0800 R07/0800V1100N R25/1000U
                        FG OVC001 14/14 Q1028 TEMPO 0600
                        FG=
201811010130 METAR LRBS 010130Z 06008KT 020V080 0400 R07/1000D R25/1000N
                        -DZ FG VV001 14/14 Q1028 NOSIG=
201811010200 METAR LRBS 010200Z 07009KT 040V100 0400 R07/1100V1500U R25/1000V1700D
                        -DZ FG VV001 14/14 Q1028 NOSIG=
201811010230 METAR LRBS 010230Z 07008KT 0400 R07/1000U R25/1100N FG VV001
                        14/14 Q1028 NOSIG=
201811010300 METAR LRBS 010300Z 06010KT 1500 BR BKN002 14/14 Q1028 NOSIG=
201811010330 METAR LRBS 010330Z 06008KT 3000 BR BKN003 14/14 Q1029 NOSIG=
201811010400 METAR LRBS 010400Z 05007KT 3000 BR OVC003 14/14 Q1029 NOSIG=
201811010430 METAR LRBS 010430Z 05008KT 030V090 3000 BR OVC003 14/14 Q1029
                        NOSIG=
201811010500 METAR LRBS 010500Z 05007KT 1500 BR OVC002 14/14 Q1029 NOSIG=
201811010530 METAR LRBS 010530Z 06008KT 030V090 1500 BR OVC003 14/14 Q1029
                        NOSIG=
201811010600 METAR LRBS 010600Z 06008KT 020V090 1500 BR OVC003 14/14 Q1030
                        BECMG 3000 BR BKN005=
201811010630 METAR COR LRBS 010630Z 05008KT 020V080 3000 -DZ BR OVC005
                        14/14 Q1030 BECMG 5000 BKN010=
201811010700 METAR LRBS 010700Z 06010KT 9999 SCT005 OVC007 14/14 Q1030
                        BECMG BKN015=
201811010730 METAR LRBS 010730Z 06010KT 020V090 9999 BKN007 OVC011 15/14
                        Q1030 BECMG BKN015=
201811010800 METAR LRBS 010800Z 06012KT 9999 OVC010 15/14 Q1029 BECMG
                        BKN015=
201811010830 METAR LRBS 010830Z 05008KT 020V090 9999 OVC010 15/14 Q1029
                        NOSIG=
201811010900 METAR LRBS 010900Z 06009KT 030V090 9999 OVC010 15/14 Q1029
                        NOSIG=
201811010930 METAR LRBS 010930Z 07012KT 9999 OVC010 15/14 Q1029 NOSIG=
201811011000 METAR LRBS 011000Z 08008KT 050V110 9999 OVC011 15/13 Q1029
                        NOSIG=
201811011030 METAR LRBS 011030Z 07009KT 9999 OVC010 15/13 Q1029 NOSIG=
201811011100 METAR LRBS 011100Z 07008KT 040V100 9999 OVC010 15/13 Q1029
                        NOSIG=
201811011130 METAR LRBS 011130Z 06009KT 030V090 9999 OVC012 15/13 Q1029
                        NOSIG=
201811011200 METAR LRBS 011200Z 06008KT 9999 OVC013 15/13 Q1029 NOSIG=
201811011230 METAR LRBS 011230Z 07010KT 9999 OVC014 16/13 Q1029 NOSIG=
201811011300 METAR LRBS 011300Z 06006KT 030V090 9999 OVC015 16/13 Q1029
                        NOSIG=
201811011330 METAR LRBS 011330Z 06008KT 020V090 9999 OVC016 16/12 Q1029
                        NOSIG=
201811011400 METAR LRBS 011400Z 06007KT 020V090 9999 OVC016 16/12 Q1029
                        NOSIG=
201811011430 METAR LRBS 011430Z 05006KT 010V070 9999 BKN017 16/12 Q1029
                        NOSIG=
201811011500 METAR LRBS 011500Z 05005KT 9999 BKN019 16/12 Q1029 NOSIG=
201811011530 METAR LRBS 011530Z 04004KT 010V070 9999 SCT023 15/12 Q1029
                        NOSIG=
201811011600 METAR LRBS 011600Z 05004KT 020V070 9999 SCT024 15/12 Q1029
                        NOSIG=
201811011630 METAR LRBS 011630Z 03004KT CAVOK 15/12 Q1029 NOSIG=
201811011700 METAR LRBS 011700Z 04005KT 9999 FEW027 15/12 Q1029 NOSIG=
201811011730 METAR LRBS 011730Z 04008KT 9999 BKN026 15/12 Q1029 NOSIG=
201811011800 METAR LRBS 011800Z 04007KT 9999 OVC026 16/12 Q1029 NOSIG=
201811011830 METAR LRBS 011830Z 05006KT 9999 BKN026 15/12 Q1029 NOSIG=
201811011900 METAR LRBS 011900Z 05006KT 9999 SCT027 15/12 Q1029 NOSIG=
201811011930 METAR LRBS 011930Z 04004KT 360V070 CAVOK 15/13 Q1030 NOSIG=
201811012000 METAR LRBS 012000Z 04005KT 010V070 CAVOK 15/13 Q1030 NOSIG=
201811012030 METAR LRBS 012030Z 05005KT CAVOK 14/13 Q1030 NOSIG=
201811012100 METAR LRBS 012100Z 05004KT 010V070 9999 BKN027 14/13 Q1030
                        NOSIG=
201811012130 METAR COR LRBS 012130Z 05008KT 020V090 9999 OVC022 14/13
                        Q1029 NOSIG=
201811012200 METAR COR LRBS 012200Z 04005KT 360V070 9999 OVC018 14/13
                        Q1029 NOSIG=
201811012230 METAR LRBS 012230Z AUTO 04006KT 7000 OVC016/// 14/13 Q1029
                        NOSIG=
201811012300 METAR COR LRBS 012300Z 05006KT 020V080 9999 OVC013 15/14
                        Q1029 NOSIG=
201811012330 METAR LRBS 012330Z 06008KT 020V090 9999 SCT011 SCT018 15/13
                        Q1029 NOSIG=
201811020000 METAR COR LRBS 020000Z 07009KT 9999 -RA OVC018 15/13 Q1029
                        NOSIG=
201811020030 METAR LRBS 020030Z 04005KT 010V070 9999 -RA OVC015 15/13
                        Q1029 NOSIG=
201811020100 METAR LRBS 020100Z 05006KT 9999 OVC012 14/13 Q1029 NOSIG=
201811020130 METAR LRBS 020130Z 05005KT 030V090 9999 SCT014 OVC018 14/13
                        Q1029 NOSIG=
201811020200 METAR LRBS 020200Z 05006KT 9999 -RA BKN014 OVC018 14/13 Q1029
                        NOSIG=
201811020230 METAR LRBS 020230Z 05007KT 9999 OVC016 14/13 Q1029 NOSIG=
201811020300 METAR LRBS 020300Z 05007KT 9999 OVC017 14/13 Q1029 NOSIG=
201811020330 METAR LRBS 020330Z 05007KT 9999 OVC018 14/12 Q1029 NOSIG=
201811020400 METAR LRBS 020400Z 06008KT 9999 BKN018 13/12 Q1029 NOSIG=
201811020430 METAR LRBS 020430Z 06008KT 9999 OVC017 14/12 Q1029 NOSIG=
201811020500 METAR LRBS 020500Z 06007KT 020V090 9999 OVC016 14/12 Q1029
                        NOSIG=
201811020530 METAR LRBS 020530Z 05005KT 9999 OVC015 14/12 Q1029 TEMPO
                        OVC010=
201811020600 METAR LRBS 020600Z 06006KT 9999 OVC015 14/12 Q1029 TEMPO
                        OVC010=
201811020630 METAR LRBS 020630Z 06005KT 030V090 9999 OVC014 14/12 Q1030
                        TEMPO OVC010=
201811020700 METAR LRBS 020700Z 07008KT 9999 OVC014 14/12 Q1029 NOSIG=
201811020730 METAR LRBS 020730Z 07010KT 9999 OVC013 14/12 Q1029 NOSIG=
201811020800 METAR LRBS 020800Z 08008KT 360V100 9999 OVC013 15/12 Q1029
                        NOSIG=
201811020830 METAR LRBS 020830Z 06008KT 020V090 9999 BKN014 15/12 Q1029
                        NOSIG=
201811020900 METAR LRBS 020900Z 06007KT 350V090 9999 BKN015 16/12 Q1029
                        NOSIG=
201811020930 METAR LRBS 020930Z 04006KT 340V090 9999 BKN017 16/12 Q1029
                        NOSIG=
201811021000 METAR LRBS 021000Z 03007KT 350V070 9999 SCT017 17/12 Q1028
                        NOSIG=
201811021030 METAR LRBS 021030Z 05009KT 010V090 9999 FEW019 18/11 Q1028
                        NOSIG=
201811021100 METAR LRBS 021100Z 05006KT 020V100 CAVOK 18/11 Q1028 NOSIG=
201811021130 METAR COR LRBS 021130Z 05007KT 020V090 CAVOK 18/11 Q1027
                        NOSIG=
201811021200 METAR LRBS 021200Z 08009KT CAVOK 19/11 Q1027=
201811021230 METAR LRBS 021230Z 06010KT CAVOK 19/11 Q1027 NOSIG=
201811021300 METAR LRBS 021300Z 07010KT CAVOK 19/11 Q1027 NOSIG=
201811021330 METAR LRBS 021330Z 07010KT CAVOK 19/11 Q1027 NOSIG=
201811021400 METAR LRBS 021400Z 08008KT CAVOK 19/11 Q1027 NOSIG=
201811021430 METAR LRBS 021430Z 07008KT CAVOK 19/11 Q1027 NOSIG=
201811021500 METAR LRBS 021500Z 05006KT 360V090 CAVOK 18/11 Q1027 NOSIG=
201811021530 METAR LRBS 021530Z 03004KT 360V060 CAVOK 17/11 Q1027 NOSIG=
201811021600 METAR LRBS 021600Z 04005KT CAVOK 17/11 Q1028 NOSIG=
201811021630 METAR LRBS 021630Z 05005KT CAVOK 16/11 Q1028 NOSIG=
201811021700 METAR LRBS 021700Z 05007KT CAVOK 17/11 Q1028 NOSIG=
201811021730 METAR LRBS 021730Z 05006KT CAVOK 16/11 Q1028 NOSIG=
201811021800 METAR LRBS 021800Z 06006KT CAVOK 15/11 Q1029 NOSIG=
201811021830 METAR LRBS 021830Z 06007KT CAVOK 15/11 Q1029 NOSIG=
201811021900 METAR LRBS 021900Z 07007KT CAVOK 14/11 Q1029 NOSIG=
201811021930 METAR LRBS 021930Z 07007KT CAVOK 14/11 Q1029 NOSIG=
201811022000 METAR LRBS 022000Z 07006KT CAVOK 13/11 Q1029 NOSIG=
201811022030 METAR LRBS 022030Z 06006KT CAVOK 12/11 Q1029 NOSIG=
201811022100 METAR LRBS 022100Z 06006KT CAVOK 12/11 Q1029 NOSIG=
201811022130 METAR LRBS 022130Z 04004KT CAVOK 12/11 Q1029 NOSIG=
201811022200 METAR LRBS 022200Z 05005KT CAVOK 12/11 Q1029 NOSIG=
201811022230 METAR LRBS 022230Z 05004KT CAVOK 12/11 Q1030=
201811022300 METAR LRBS 022300Z 05005KT CAVOK 11/11 Q1029 NOSIG=
201811022330 METAR LRBS 022330Z 05004KT CAVOK 12/11 Q1029 NOSIG=
201811030000 METAR LRBS 030000Z 05005KT CAVOK 12/11 Q1029 NOSIG=
201811030030 METAR LRBS 030030Z 05004KT CAVOK 12/11 Q1029 NOSIG=
201811030100 METAR LRBS 030100Z 05005KT 020V090 CAVOK 11/11 Q1029 NOSIG=
201811030130 METAR LRBS 030130Z 04004KT CAVOK 11/11 Q1029 NOSIG=
201811030200 METAR LRBS 030200Z 06003KT CAVOK 11/11 Q1029 NOSIG=
201811030230 METAR LRBS 030230Z 05004KT 030V090 CAVOK 11/11 Q1029 NOSIG=
201811030300 METAR LRBS 030300Z 05004KT 9999 BKN014 11/11 Q1029 NOSIG=
201811030330 METAR LRBS 030330Z 06005KT 9000 OVC015 11/11 Q1029 NOSIG=
201811030400 METAR LRBS 030400Z 05003KT 9000 OVC015 11/11 Q1029 NOSIG=
201811030430 METAR COR LRBS 030430Z 06004KT 9999 OVC015 12/11 Q1029 NOSIG=
201811030500 METAR LRBS 030500Z 07003KT 9999 OVC015 12/11 Q1029 NOSIG=
201811030530 METAR LRBS 030530Z 05003KT 030V090 9999 OVC015 12/11 Q1029
                        NOSIG=
201811030600 METAR LRBS 030600Z 06006KT 9999 OVC015 12/11 Q1029 NOSIG=
201811030630 METAR LRBS 030630Z 07006KT 9999 OVC015 13/11 Q1029 NOSIG=
201811030700 METAR LRBS 030700Z 07007KT 9999 OVC014 13/11 Q1030 NOSIG=
201811030730 METAR LRBS 030730Z 07008KT 040V100 9999 OVC014 13/10 Q1030
                        NOSIG=
201811030800 METAR LRBS 030800Z 06009KT 9999 OVC014 13/10 Q1030 NOSIG=
201811030830 METAR LRBS 030830Z 06006KT 020V100 9999 OVC015 13/10 Q1030
                        NOSIG=
201811030900 METAR LRBS 030900Z 06006KT 020V100 9999 OVC015 14/10 Q1030
                        BECMG BKN020=
201811030930 METAR LRBS 030930Z 07006KT 020V100 9999 BKN016 14/10 Q1029
                        NOSIG=
201811031000 METAR LRBS 031000Z 08006KT 050V110 9999 OVC018 15/10 Q1029
                        NOSIG=
201811031030 METAR LRBS 031030Z 05007KT 020V090 9999 BKN019 15/10 Q1029
                        NOSIG=
201811031100 METAR LRBS 031100Z 05007KT 010V100 9999 BKN021 15/10 Q1028
                        NOSIG=
201811031130 METAR LRBS 031130Z 06007KT 010V110 9999 SCT022 16/10 Q1028
                        NOSIG=
201811031200 METAR LRBS 031200Z 07007KT 010V110 9999 FEW024 16/09 Q1028
                        NOSIG=
201811031230 METAR LRBS 031230Z 04006KT 010V080 CAVOK 16/09 Q1028 NOSIG=
201811031300 METAR LRBS 031300Z 05007KT 010V080 CAVOK 16/09 Q1028 NOSIG=
201811031330 METAR LRBS 031330Z 06006KT 020V080 CAVOK 16/09 Q1028 NOSIG=
201811031400 METAR LRBS 031400Z 06007KT CAVOK 16/09 Q1028 NOSIG=
201811031430 METAR LRBS 031430Z 05004KT CAVOK 15/09 Q1028 NOSIG=
201811031500 METAR LRBS 031500Z 03003KT CAVOK 14/09 Q1028 NOSIG=
201811031530 METAR LRBS 031530Z 02003KT CAVOK 14/09 Q1028 NOSIG=
201811031600 METAR LRBS 031600Z 02003KT CAVOK 13/09 Q1028 NOSIG=
201811031630 METAR LRBS 031630Z 03003KT CAVOK 12/09 Q1028 NOSIG=
201811031700 METAR LRBS 031700Z 02003KT CAVOK 12/09 Q1028 NOSIG=
201811031730 METAR LRBS 031730Z 03003KT CAVOK 12/09 Q1028 NOSIG=
201811031800 METAR LRBS 031800Z 03003KT CAVOK 11/09 Q1028 NOSIG=
201811031830 METAR LRBS 031830Z 02002KT CAVOK 12/09 Q1028 NOSIG=
201811031900 METAR LRBS 031900Z 36003KT CAVOK 12/09 Q1028 NOSIG=
201811031930 METAR LRBS 031930Z 03003KT CAVOK 11/09 Q1028 NOSIG=
201811032000 METAR LRBS 032000Z 04004KT 9000 NSC 10/09 Q1028 NOSIG=
201811032030 METAR LRBS 032030Z 04003KT 9000 NSC 10/09 Q1028 NOSIG=
201811032100 METAR LRBS 032100Z 05003KT 8000 NSC 09/08 Q1028 NOSIG=
201811032130 METAR LRBS 032130Z 06003KT 8000 NSC 08/08 Q1028 NOSIG=
201811032200 METAR LRBS 032200Z 05002KT 7000 NSC 08/08 Q1029 BECMG 5000
                        BR=
201811032230 METAR LRBS 032230Z 04002KT 7000 NSC 09/08 Q1028 BECMG 5000
                        BR=
201811032300 METAR COR LRBS 032300Z 05002KT 6000 NSC 08/08 Q1028 BECMG
                        5000 BR=
201811032330 METAR LRBS 032330Z 06002KT 6000 MIFG NSC 08/07 Q1028 BECMG
                        5000 BR=
201811040000 METAR LRBS 040000Z 06002KT 5000 BCFG BR NSC 08/07 Q1028 NOSIG=
201811040030 METAR LRBS 040030Z VRB02KT 3000 BCFG BR NSC 07/07 Q1027 NOSIG=
201811040100 METAR COR LRBS 040100Z 02002KT 1500 R07/0450 R25/2000 PRFG
                        BR FEW005 07/07 Q1027 TEMPO 0600
                        FG=
201811040130 METAR COR LRBS 040130Z 05001KT 3000 BCFG BR NSC 07/07 Q1027
                        TEMPO 1500 BR=
201811040200 METAR LRBS 040200Z VRB02KT 2000 R07/0400 R25/P2000 BCFG BR
                        FEW005 06/06 Q1027 TEMPO 0600 FG=
201811040230 METAR LRBS 040230Z 05001KT 2500 BCFG BR NSC 06/06 Q1027 NOSIG=
201811040300 METAR LRBS 040300Z 03001KT 3000 BCFG BR NSC 06/06 Q1027 NOSIG=
201811040330 METAR LRBS 040330Z 06002KT 2500 BCFG BR NSC 06/06 Q1027 NOSIG=
201811040400 METAR LRBS 040400Z VRB02KT 1000 R07/0400 R25/0400 PRFG BR
                        NSC 06/06 Q1027 NOSIG=
201811040430 METAR LRBS 040430Z 01002KT 350V050 0800 R07/1000N R25/P2000
                        FG NSC 06/06 Q1027 NOSIG=
201811040500 METAR LRBS 040500Z 00000KT 0350 R07/0250N R25/0300 FG VV001
                        06/06 Q1027 NOSIG=
201811040530 METAR LRBS 040530Z VRB01KT 0300 R07/0375 R25/0450N FG VV001
                        07/07 Q1028 NOSIG=
201811040600 METAR LRBS 040600Z VRB01KT 0250 R07/0150N R25/0200N FG VV001
                        07/07 Q1028 NOSIG=
201811040630 METAR LRBS 040630Z 03002KT 010V070 0300 R07/0300N R25/0325N
                        FG BKN002 07/07 Q1028 NOSIG=
201811040700 METAR LRBS 040700Z 07003KT 0650 R07/0600N R25/0600N FG BKN002
                        08/08 Q1028 BECMG 1500 BR SCT002=
201811040730 METAR LRBS 040730Z 08004KT 0800 R07/0800D R25/0500N FG BKN001
                        09/09 Q1028 BECMG 1500 BR BKN002=
201811040800 METAR COR LRBS 040800Z 07004KT 040V100 0800 R07/0800N R25/P2000U
                        FG BKN002 09/09 Q1028 BECMG 1500
                        BR SCT002=
201811040830 METAR LRBS 040830Z 07003KT 030V110 9999 FEW002 11/11 Q1028
                        NOSIG=
201811040900 METAR LRBS 040900Z VRB03KT 9999 FEW014 13/13 Q1028 NOSIG=
201811040930 METAR LRBS 040930Z 10005KT 050V140 9999 FEW014 15/11 Q1027
                        NOSIG=
201811041000 METAR LRBS 041000Z 08006KT 030V120 9999 FEW015 16/11 Q1027
                        NOSIG=
201811041030 METAR LRBS 041030Z 08005KT 020V110 CAVOK 16/10 Q1027 NOSIG=
201811041100 METAR LRBS 041100Z 09006KT 050V130 CAVOK 17/10 Q1027 NOSIG=
201811041130 METAR COR LRBS 041130Z 08005KT 030V130 CAVOK 17/10 Q1026
                        NOSIG=
201811041200 METAR LRBS 041200Z 08006KT 040V130 CAVOK 18/10 Q1026 NOSIG=
201811041230 METAR LRBS 041230Z 08006KT 050V110 CAVOK 18/09 Q1026 NOSIG=
201811041300 METAR LRBS 041300Z 07006KT 040V100 CAVOK 18/09 Q1026 NOSIG=
201811041330 METAR LRBS 041330Z 08007KT 040V110 CAVOK 18/09 Q1025 NOSIG=
201811041400 METAR LRBS 041400Z 09006KT CAVOK 17/08 Q1025 NOSIG=
201811041430 METAR LRBS 041430Z 09003KT CAVOK 17/08 Q1025 NOSIG=
201811041500 METAR COR LRBS 041500Z 06003KT CAVOK 15/08 Q1025 NOSIG=
201811041530 METAR LRBS 041530Z 05003KT CAVOK 13/08 Q1025 NOSIG=
201811041600 METAR LRBS 041600Z 04003KT CAVOK 12/09 Q1025 NOSIG=
201811041630 METAR LRBS 041630Z 05003KT CAVOK 11/08 Q1025 NOSIG=
201811041700 METAR LRBS 041700Z VRB02KT CAVOK 11/08 Q1025 NOSIG=
201811041730 METAR LRBS 041730Z 03003KT CAVOK 10/08 Q1025 NOSIG=
201811041800 METAR LRBS 041800Z VRB01KT CAVOK 10/09 Q1025 NOSIG=
201811041830 METAR LRBS 041830Z 05002KT CAVOK 10/08 Q1026 NOSIG=
201811041900 METAR LRBS 041900Z VRB02KT CAVOK 09/08 Q1026 NOSIG=
201811041930 METAR LRBS 041930Z 05002KT CAVOK 08/08 Q1026 NOSIG=
201811042000 METAR LRBS 042000Z 05003KT 8000 NSC 09/08 Q1026 NOSIG=
201811042030 METAR LRBS 042030Z 04004KT 8000 NSC 08/08 Q1026 NOSIG=
201811042100 METAR LRBS 042100Z 06002KT 8000 NSC 08/08 Q1026 NOSIG=
201811042130 METAR LRBS 042130Z 05003KT 7000 NSC 07/07 Q1026 NOSIG=
201811042200 METAR LRBS 042200Z 04003KT 7000 NSC 07/07 Q1026 NOSIG=
201811042230 METAR LRBS 042230Z 03003KT 7000 NSC 07/06 Q1026 NOSIG=
201811042300 METAR LRBS 042300Z 03002KT 6000 NSC 07/07 Q1026 NOSIG=
201811042330 METAR LRBS 042330Z 05002KT 5000 BR NSC 06/06 Q1026 BECMG
                        3000 BR=
201811050000 METAR LRBS 050000Z 03003KT 3000 MIFG BR NSC 06/06 Q1026 BECMG
                        1500 BR=
201811050030 METAR COR LRBS 050030Z 03003KT 3000 MIFG BR NSC 06/06 Q1026
                        BECMG 1500 BR=
201811050100 METAR LRBS 050100Z 07002KT 040V100 3000 BR NSC 06/05 Q1026
                        BECMG 1500 BR=
201811050130 METAR LRBS 050130Z 04002KT 0600 R07/0500U R25/P2000 FG BKN003
                        05/05 Q1025 TEMPO 1500 BR=
201811050200 METAR LRBS 050200Z 00000KT 3000 BR BKN002 05/05 Q1025 TEMPO
                        1500 BR=
201811050230 METAR LRBS 050230Z 07003KT 0700 R07/0800D R25/1100D FG BKN001
                        06/06 Q1025 BECMG 0600 FG=
201811050300 METAR LRBS 050300Z 06004KT 030V090 0200 R07/0400N R25/0550N
                        FG VV001 07/07 Q1025 NOSIG=
201811050330 METAR LRBS 050330Z 06004KT 0200 R07/0375N R25/0450N FG VV001
                        07/07 Q1025 NOSIG=
201811050400 METAR LRBS 050400Z 07004KT 0200 R07/0550N R25/0550N FG VV001
                        07/07 Q1025 NOSIG=
201811050430 METAR LRBS 050430Z 07004KT 0200 R07/0550N R25/0400N FG VV001
                        07/07 Q1025 NOSIG=
201811050500 METAR LRBS 050500Z 06004KT 0200 R07/0450N R25/0550N FG VV001
                        07/07 Q1025 NOSIG=
201811050530 METAR LRBS 050530Z 06004KT 0450 R07/0500N R25/0275N FG VV001
                        07/07 Q1025 BECMG 0600 BKN002=
201811050600 METAR LRBS 050600Z 06004KT 0400 R07/0350 R25/0350N FG VV001
                        07/07 Q1026 BECMG 0600 BKN002=
201811050630 METAR LRBS 050630Z 04003KT 010V070 1200 R07/1200 R25/P2000
                        BR BKN002 07/07 Q1026 BECMG 1500
                        BR BKN005=
201811050700 METAR LRBS 050700Z 06004KT 020V080 5000 BR OVC002 08/07 Q1026
                        NOSIG=
201811050730 METAR LRBS 050730Z 07003KT 030V090 6000 FEW002 BKN003 08/08
                        Q1026 NOSIG=
201811050800 METAR LRBS 050800Z 04003KT 360V070 6000 OVC003 08/08 Q1026
                        NOSIG=
201811050830 METAR LRBS 050830Z 03003KT 360V070 6000 BKN004 09/09 Q1026
                        NOSIG=
201811050900 METAR LRBS 050900Z 02003KT 350V070 8000 BKN004 OVC020 09/09
                        Q1027 NOSIG=
201811050930 METAR LRBS 050930Z 02003KT 350V060 9999 BKN007 OVC019 10/10
                        Q1026 NOSIG=
201811051000 METAR LRBS 051000Z 03004KT 350V060 9999 BKN007 OVC022 11/10
                        Q1026 NOSIG=
201811051030 METAR LRBS 051030Z 06006KT 020V090 9999 SCT009 BKN019 OVC022
                        11/11 Q1026 NOSIG=
201811051100 METAR LRBS 051100Z 05007KT 020V090 9999 FEW009 OVC023 12/09
                        Q1026 NOSIG=
201811051130 METAR LRBS 051130Z 05008KT 020V080 9999 BKN020 12/08 Q1025
                        NOSIG=
201811051200 METAR LRBS 051200Z 06008KT 020V090 9999 BKN023 13/07 Q1025
                        NOSIG=
201811051230 METAR LRBS 051230Z 08007KT 9999 BKN022 13/07 Q1025 NOSIG=
201811051300 METAR LRBS 051300Z 08009KT 9999 BKN024 13/07 Q1025 NOSIG=
201811051330 METAR COR LRBS 051330Z 07006KT 020V090 9999 SCT024 13/07
                        Q1025 NOSIG=
201811051400 METAR LRBS 051400Z 07006KT 040V100 9999 FEW025 13/07 Q1024
                        NOSIG=
201811051430 METAR LRBS 051430Z 06006KT CAVOK 13/07 Q1024 NOSIG=
201811051500 METAR LRBS 051500Z 05004KT CAVOK 11/07 Q1025 NOSIG=
201811051530 METAR LRBS 051530Z 02003KT CAVOK 11/07 Q1025 NOSIG=
201811051600 METAR LRBS 051600Z 03003KT CAVOK 10/07 Q1025 NOSIG=
201811051630 METAR LRBS 051630Z 02004KT CAVOK 10/07 Q1025 NOSIG=
201811051700 METAR LRBS 051700Z 03003KT CAVOK 09/07 Q1025 NOSIG=
201811051730 METAR LRBS 051730Z 03003KT CAVOK 09/07 Q1025 NOSIG=
201811051800 METAR LRBS 051800Z 03003KT CAVOK 09/07 Q1025 NOSIG=
201811051830 METAR LRBS 051830Z 04004KT CAVOK 10/08 Q1025 NOSIG=
201811051900 METAR LRBS 051900Z 04004KT 010V070 CAVOK 10/07 Q1025 NOSIG=
201811051930 METAR LRBS 051930Z 04006KT CAVOK 10/08 Q1025 NOSIG=
201811052000 METAR LRBS 052000Z 04004KT CAVOK 09/08 Q1026 NOSIG=
201811052030 METAR LRBS 052030Z 04004KT 010V070 CAVOK 09/08 Q1026 NOSIG=
201811052100 METAR LRBS 052100Z 04004KT 8000 NSC 08/08 Q1026 BECMG 5000
                        BR=
201811052130 METAR LRBS 052130Z 04004KT 7000 NSC 08/08 Q1026 BECMG 5000
                        BR=
201811052200 METAR LRBS 052200Z 05006KT 7000 NSC 08/08 Q1026 BECMG 5000
                        BR=
201811052230 METAR COR LRBS 052230Z 05006KT 6000 NSC 08/08 Q1026 BECMG
                        5000 BR=
201811052300 METAR LRBS 052300Z 05005KT 020V080 5000 BR FEW019 08/08 Q1026
                        BECMG BKN010=
201811052330 METAR LRBS 052330Z 04005KT 010V070 5000 BR SCT020 09/09 Q1026
                        BECMG BKN010=
201811060000 METAR LRBS 060000Z 05004KT 010V090 5000 BR BKN011 09/09 Q1026
                        NOSIG=
201811060030 METAR LRBS 060030Z 04005KT 010V080 5000 BR BKN011 10/10 Q1026
                        NOSIG=
201811060100 METAR LRBS 060100Z 04006KT 010V070 5000 BR BKN007 10/10 Q1026
                        NOSIG=
201811060130 METAR LRBS 060130Z 04005KT 360V080 4700 BR BKN006 10/10 Q1025
                        NOSIG=
201811060200 METAR LRBS 060200Z 04005KT 360V070 4400 BR OVC006 10/10 Q1026
                        NOSIG=
201811060230 METAR LRBS 060230Z 05002KT 4400 BR SCT006 SCT007 10/10 Q1026
                        NOSIG=
201811060300 METAR LRBS 060300Z 04003KT 010V070 4500 BR OVC006 10/10 Q1025
                        TEMPO OVC010=
201811060330 METAR LRBS 060330Z 36003KT 340V050 4700 BR SCT006 BKN015
                        10/10 Q1025 NOSIG=
201811060400 METAR LRBS 060400Z 01003KT 340V060 4900 BR BKN013 10/10 Q1025
                        TEMPO BKN015=
201811060430 METAR LRBS 060430Z 36003KT 300V050 5000 BR OVC015 11/10 Q1025
                        NOSIG=
201811060500 METAR LRBS 060500Z 02002KT 350V050 3500 BR OVC014 11/10 Q1026
                        NOSIG=
201811060530 METAR LRBS 060530Z 03002KT 4000 BR OVC011 11/10 Q1026 NOSIG=
201811060600 METAR LRBS 060600Z 04004KT 020V080 2800 -DZ BR OVC010 11/10
                        Q1026 NOSIG=
201811060630 METAR LRBS 060630Z 04004KT 010V070 2000 -DZ BR BKN005 OVC007
                        11/10 Q1026 TEMPO 1500 BR=
201811060700 METAR LRBS 060700Z 05004KT 1000 R07/1500D R25/1400N -DZ BR
                        BKN002 OVC004 11/10 Q1026 R07/19//95
                        TEMPO 0600 FG=
201811060730 METAR LRBS 060730Z 04003KT 010V070 1000 R07/1700U R25/1800N
                        -DZ BR OVC002 11/10 Q1026 R07/19//95
                        BECMG 1500 OVC005=
201811060800 METAR LRBS 060800Z 04003KT 010V070 2000 -DZ BR BKN003 OVC015
                        11/11 Q1026 R07/19//95 BECMG 3000
                        OVC005=
201811060830 METAR LRBS 060830Z 05004KT 020V080 2300 -DZ BR BKN005 OVC019
                        11/11 Q1026 R07/19//95 BECMG 4000
                        BKN010 OVC025=
201811060900 METAR LRBS 060900Z 04003KT 010V070 3000 BR FEW003 BKN006
                        BKN022 11/11 Q1026 R07/CLRD// BECMG
                        5000 BKN010 OVC030=
201811060930 METAR LRBS 060930Z 02004KT 340V060 4000 BR FEW006 BKN007
                        OVC025 12/12 Q1026 BECMG 6000 NSW
                        SCT010 OVC025=
201811061000 METAR LRBS 061000Z 05004KT 010V090 4500 BR SCT008 OVC027
                        12/12 Q1026 BECMG 7000 NSW=
201811061030 METAR LRBS 061030Z 03004KT 010V080 5000 BR BKN009 BKN020
                        OVC033 12/11 Q1026 BECMG 7000 NSW=
201811061100 METAR LRBS 061100Z 06005KT 6000 FEW010 SCT023 OVC030 13/11
                        Q1026 NOSIG=
201811061130 METAR LRBS 061130Z 04005KT 360V100 6000 FEW011 SCT019 OVC032
                        13/11 Q1026 NOSIG=
201811061200 METAR COR LRBS 061200Z 04005KT 010V070 7000 SCT012 OVC034
                        13/11 Q1025 NOSIG=
201811061230 METAR LRBS 061230Z 03004KT 010V070 8000 FEW013 OVC033 13/10
                        Q1025 NOSIG=
201811061300 METAR LRBS 061300Z 03004KT 360V060 8000 FEW013 OVC032 13/10
                        Q1025 NOSIG=
201811061330 METAR LRBS 061330Z 04004KT 360V070 8000 FEW014 BKN033 13/10
                        Q1025 NOSIG=
201811061400 METAR LRBS 061400Z 04004KT 8000 OVC031 13/10 Q1025 NOSIG=
201811061430 METAR LRBS 061430Z 04003KT 010V080 7000 OVC030 13/10 Q1025
                        NOSIG=
201811061500 METAR LRBS 061500Z 05003KT 020V080 7000 OVC029 12/10 Q1025
                        NOSIG=
201811061530 METAR LRBS 061530Z 05003KT 020V090 7000 OVC026 12/10 Q1025
                        NOSIG=
201811061600 METAR LRBS 061600Z 04003KT 020V090 8000 OVC031 12/10 Q1025
                        NOSIG=
201811061630 METAR LRBS 061630Z 03003KT 350V070 8000 OVC031 12/10 Q1025
                        NOSIG=
201811061700 METAR LRBS 061700Z 04003KT 350V070 9999 OVC031 12/10 Q1025
                        NOSIG=
201811061730 METAR LRBS 061730Z 02002KT 340V050 9999 OVC032 12/10 Q1026
                        NOSIG=
201811061800 METAR LRBS 061800Z VRB01KT 8000 OVC032 12/10 Q1026 NOSIG=
201811061830 METAR LRBS 061830Z 04003KT 010V070 9999 OVC032 12/10 Q1026
                        NOSIG=
201811061900 METAR LRBS 061900Z 04002KT 360V070 9999 OVC032 12/10 Q1026
                        NOSIG=
201811061930 METAR LRBS 061930Z 09003KT 9999 OVC032 12/10 Q1026 NOSIG=
201811062000 METAR LRBS 062000Z 09005KT 9999 OVC030 12/10 Q1026 NOSIG=
201811062030 METAR LRBS 062030Z 07005KT 9999 OVC029 12/09 Q1026 NOSIG=
201811062100 METAR LRBS 062100Z 08004KT 9999 OVC030 12/09 Q1026 NOSIG=
201811062130 METAR LRBS 062130Z 07003KT 9999 OVC030 11/09 Q1026 NOSIG=
201811062200 METAR LRBS 062200Z AUTO 09003KT 060V120 9999 OVC029/// 11/09
                        Q1026 NOSIG=
201811062230 METAR COR LRBS 062230Z 09004KT 9999 FEW015 OVC031 11/09 Q1026
                        NOSIG=
201811062300 METAR LRBS 062300Z 10004KT 9999 OVC031 11/08 Q1026 NOSIG=
201811062330 METAR LRBS 062330Z 08004KT 040V120 9999 OVC030 11/08 Q1026
                        NOSIG=
201811070000 METAR LRBS 070000Z 07004KT 9999 SCT015 BKN031 11/09 Q1026
                        NOSIG=
201811070030 METAR LRBS 070030Z 05004KT 9999 FEW015 OVC031 10/08 Q1025
                        NOSIG=
201811070100 METAR LRBS 070100Z 05003KT 9999 OVC030 10/08 Q1025 NOSIG=
201811070130 METAR LRBS 070130Z 05003KT 020V080 9999 OVC030 10/08 Q1025
                        NOSIG=
201811070200 METAR LRBS 070200Z 05003KT 9999 OVC030 10/07 Q1025 NOSIG=
201811070230 METAR LRBS 070230Z 06004KT 9999 OVC030 10/07 Q1025 NOSIG=
201811070300 METAR LRBS 070300Z 06004KT 9999 OVC030 10/07 Q1025 NOSIG=
201811070330 METAR LRBS 070330Z 06004KT 9999 OVC030 10/07 Q1025 NOSIG=
201811070400 METAR LRBS 070400Z 06004KT 9999 OVC030 09/07 Q1025 NOSIG=
201811070430 METAR LRBS 070430Z 06004KT 9999 OVC030 09/07 Q1025 NOSIG=
201811070500 METAR LRBS 070500Z 07005KT 9999 OVC030 09/07 Q1025 NOSIG=
201811070530 METAR LRBS 070530Z 07004KT 9999 OVC030 09/07 Q1025 NOSIG=
201811070600 METAR LRBS 070600Z 07004KT 9999 OVC030 09/06 Q1026 NOSIG=
201811070630 METAR LRBS 070630Z 07003KT 9999 OVC030 10/06 Q1026 NOSIG=
201811070700 METAR LRBS 070700Z 08003KT 060V130 9999 OVC030 10/06 Q1026
                        NOSIG=
201811070730 METAR LRBS 070730Z 08004KT 050V130 9999 OVC029 10/05 Q1026
                        NOSIG=
201811070800 METAR LRBS 070800Z 08005KT 050V110 9999 OVC029 11/04 Q1026
                        NOSIG=
201811070830 METAR LRBS 070830Z 07007KT 050V110 9999 OVC030 11/04 Q1026
                        NOSIG=
201811070900 METAR LRBS 070900Z 07007KT 9999 OVC031 11/03 Q1026 NOSIG=
201811070930 METAR LRBS 070930Z 07008KT 9999 BKN032 12/04 Q1026 NOSIG=
201811071000 METAR LRBS 071000Z 08008KT 050V110 9999 BKN034 12/04 Q1025
                        NOSIG=
201811071030 METAR LRBS 071030Z 06010KT 020V090 9999 BKN036 12/03 Q1025
                        NOSIG=
201811071100 METAR LRBS 071100Z 04007KT 350V080 9999 BKN037 13/04 Q1025
                        NOSIG=
201811071130 METAR LRBS 071130Z 03004KT 330V090 9999 BKN036 12/02 Q1025
                        NOSIG=
201811071200 METAR LRBS 071200Z 08003KT 360V130 9999 BKN037 12/03 Q1024
                        NOSIG=
201811071230 METAR LRBS 071230Z 05006KT 340V090 9999 BKN037 12/03 Q1024
                        NOSIG=
201811071300 METAR COR LRBS 071300Z 08005KT 050V130 9999 BKN038 12/03
                        Q1024 NOSIG=
201811071330 METAR LRBS 071330Z 08005KT 050V130 9999 OVC038 12/03 Q1024
                        NOSIG=
201811071400 METAR LRBS 071400Z 08005KT 050V110 9999 OVC037 12/03 Q1024
                        NOSIG=
201811071430 METAR LRBS 071430Z 04002KT 9999 OVC037 12/04 Q1024 NOSIG=
201811071500 METAR LRBS 071500Z 02002KT 340V070 9999 OVC036 12/04 Q1024
                        NOSIG=
201811071530 METAR LRBS 071530Z 03002KT 360V060 9999 OVC037 12/04 Q1024
                        NOSIG=
201811071600 METAR LRBS 071600Z 03002KT 9999 OVC038 11/04 Q1024 NOSIG=
201811071630 METAR LRBS 071630Z 01003KT 340V040 9999 OVC038 11/04 Q1024
                        NOSIG=
201811071700 METAR LRBS 071700Z 01002KT 340V040 9999 OVC038 11/04 Q1024
                        NOSIG=
201811071730 METAR LRBS 071730Z 01003KT 330V040 9999 OVC038 11/04 Q1024
                        NOSIG=
201811071800 METAR LRBS 071800Z 02002KT 350V050 9999 OVC038 11/04 Q1024
                        NOSIG=
201811071830 METAR LRBS 071830Z 01002KT 9999 OVC038 11/04 Q1024 NOSIG=
201811071900 METAR LRBS 071900Z VRB01KT 9999 OVC039 11/04 Q1024 NOSIG=
201811071930 METAR LRBS 071930Z 03003KT 9999 OVC038 11/04 Q1025 NOSIG=
201811072000 METAR LRBS 072000Z 04002KT 360V070 9999 OVC038 11/04 Q1024
                        NOSIG=
201811072030 METAR COR LRBS 072030Z 03002KT 350V070 9999 OVC039 10/04
                        Q1024 NOSIG=
201811072100 METAR LRBS 072100Z 01002KT 330V070 9999 OVC039 11/04 Q1024
                        NOSIG=
201811072130 METAR LRBS 072130Z 01003KT 9999 OVC039 11/04 Q1024 NOSIG=
201811072200 METAR LRBS 072200Z 03002KT 340V100 9999 OVC039 10/04 Q1024
                        NOSIG=
201811072230 METAR LRBS 072230Z VRB01KT 9999 OVC039 10/04 Q1024 NOSIG=
201811072300 METAR LRBS 072300Z 06002KT 020V100 9999 OVC039 10/04 Q1024
                        NOSIG=
201811072330 METAR LRBS 072330Z 36003KT 320V050 9999 OVC039 10/04 Q1024
                        NOSIG=
201811080000 METAR LRBS 080000Z 36003KT 320V050 9999 OVC039 10/03 Q1024
                        NOSIG=
201811080030 METAR LRBS 080030Z 01003KT 340V040 9999 OVC042 10/03 Q1023
                        NOSIG=
201811080100 METAR LRBS 080100Z 36003KT 320V050 9999 OVC042 10/03 Q1023
                        NOSIG=
201811080130 METAR LRBS 080130Z VRB01KT 9999 OVC042 10/04 Q1023 NOSIG=
201811080200 METAR LRBS 080200Z 03002KT 9999 OVC041 10/04 Q1023 NOSIG=
201811080230 METAR LRBS 080230Z 04005KT 9999 OVC041 10/04 Q1023 NOSIG=
201811080300 METAR LRBS 080300Z 36003KT 330V030 9999 OVC041 10/04 Q1023
                        NOSIG=
201811080330 METAR LRBS 080330Z 03002KT 350V090 9999 OVC042 10/04 Q1023
                        NOSIG=
201811080400 METAR LRBS 080400Z 07002KT 9999 OVC042 09/04 Q1023 NOSIG=
201811080430 METAR LRBS 080430Z 06003KT 010V090 9999 OVC042 09/04 Q1023
                        NOSIG=
201811080500 METAR LRBS 080500Z 06003KT 9999 OVC042 09/04 Q1024 NOSIG=
201811080530 METAR LRBS 080530Z 05003KT 9999 OVC042 09/04 Q1024 NOSIG=
201811080600 METAR LRBS 080600Z 02002KT 9999 OVC042 09/04 Q1024 NOSIG=
201811080630 METAR LRBS 080630Z 01003KT 340V050 9999 OVC042 10/03 Q1024
                        NOSIG=
201811080700 METAR COR LRBS 080700Z 02004KT 340V060 9999 OVC041 10/03
                        Q1024 NOSIG=
201811080730 METAR LRBS 080730Z 02005KT 350V050 9999 OVC041 10/03 Q1024
                        NOSIG=
201811080800 METAR LRBS 080800Z 02004KT 340V050 9999 BKN040 11/03 Q1024
                        NOSIG=
201811080830 METAR LRBS 080830Z 01004KT 330V040 9999 BKN040 11/03 Q1024
                        NOSIG=
201811080900 METAR LRBS 080900Z 01004KT 340V050 9999 BKN040 11/03 Q1024
                        NOSIG=
201811080930 METAR LRBS 080930Z 03005KT 360V060 9999 BKN040 11/03 Q1024
                        NOSIG=
201811081000 METAR LRBS 081000Z 03005KT 360V060 9999 BKN039 12/03 Q1024
                        NOSIG=
201811081030 METAR LRBS 081030Z 04005KT 360V070 9999 BKN039 12/03 Q1024
                        NOSIG=
201811081100 METAR LRBS 081100Z 03006KT 360V090 9999 BKN040 13/03 Q1024
                        NOSIG=
201811081130 METAR LRBS 081130Z 05005KT 020V090 9999 BKN047 13/03 Q1023
                        NOSIG=
201811081200 METAR LRBS 081200Z 06006KT 020V090 9999 SCT047 13/03 Q1023
                        NOSIG=
201811081230 METAR LRBS 081230Z 08003KT 020V150 CAVOK 14/03 Q1023 NOSIG=
201811081300 METAR LRBS 081300Z VRB01KT CAVOK 14/03 Q1023 NOSIG=
201811081330 METAR LRBS 081330Z VRB01KT CAVOK 14/03 Q1023 NOSIG=
201811081400 METAR LRBS 081400Z 02003KT 310V090 CAVOK 13/03 Q1023 NOSIG=
201811081430 METAR COR LRBS 081430Z 03003KT CAVOK 12/04 Q1023 NOSIG=
201811081500 METAR LRBS 081500Z 01003KT CAVOK 12/03 Q1023 NOSIG=
201811081530 METAR LRBS 081530Z 02003KT CAVOK 10/03 Q1023 NOSIG=
201811081600 METAR LRBS 081600Z 05001KT CAVOK 08/04 Q1023 NOSIG=
201811081630 METAR LRBS 081630Z 02002KT CAVOK 08/04 Q1023 NOSIG=
201811081700 METAR LRBS 081700Z 00000KT CAVOK 08/04 Q1023 NOSIG=
201811081730 METAR COR LRBS 081730Z 00000KT CAVOK 08/04 Q1023 NOSIG=
201811081800 METAR LRBS 081800Z 00000KT CAVOK 07/04 Q1023 NOSIG=
201811081830 METAR LRBS 081830Z 00000KT CAVOK 07/04 Q1023 NOSIG=
201811081900 METAR LRBS 081900Z 00000KT CAVOK 07/04 Q1024 NOSIG=
201811081930 METAR COR LRBS 081930Z 00000KT CAVOK 07/04 Q1024 NOSIG=
201811082000 METAR LRBS 082000Z 00000KT CAVOK 06/03 Q1024 NOSIG=
201811082030 METAR LRBS 082030Z 06002KT 020V090 CAVOK 05/03 Q1024 NOSIG=
201811082100 METAR LRBS 082100Z 36002KT 320V020 CAVOK 05/04 Q1024 NOSIG=
201811082130 METAR LRBS 082130Z VRB01KT CAVOK 05/04 Q1024 NOSIG=
201811082200 METAR LRBS 082200Z 34002KT CAVOK 05/03 Q1024 NOSIG=
201811082230 METAR COR LRBS 082230Z 00000KT CAVOK 05/03 Q1024 NOSIG=
201811082300 METAR LRBS 082300Z 00000KT CAVOK 05/03 Q1024 NOSIG=
201811082330 METAR LRBS 082330Z 00000KT 8000 NSC 04/03 Q1024 NOSIG=
201811090000 METAR COR LRBS 090000Z VRB01KT 8000 NSC 04/03 Q1023 NOSIG=
201811090030 METAR LRBS 090030Z VRB01KT 8000 NSC 03/02 Q1023 NOSIG=
201811090100 METAR COR LRBS 090100Z 34001KT 6000 NSC 02/02 Q1023 NOSIG=
201811090130 METAR LRBS 090130Z 34001KT 6000 NSC 02/02 Q1023 NOSIG=
201811090200 METAR LRBS 090200Z VRB01KT 7000 NSC 02/02 Q1023 NOSIG=
201811090230 METAR LRBS 090230Z 29001KT 7000 NSC 02/02 Q1023 NOSIG=
201811090300 METAR LRBS 090300Z VRB01KT 6000 NSC 02/02 Q1023 NOSIG=
201811090330 METAR LRBS 090330Z VRB01KT 6000 NSC 02/01 Q1023 NOSIG=
201811090400 METAR LRBS 090400Z 30001KT 6000 NSC 02/01 Q1023 NOSIG=
201811090430 METAR LRBS 090430Z 33001KT 6000 NSC 02/01 Q1023 NOSIG=
201811090500 METAR LRBS 090500Z 00000KT 5000 BR NSC 02/01 Q1023 NOSIG=
201811090530 METAR LRBS 090530Z 00000KT 5000 BR NSC 02/02 Q1024 NOSIG=
201811090600 METAR LRBS 090600Z 00000KT 8000 NSC 03/03 Q1024 NOSIG=
201811090630 METAR LRBS 090630Z VRB01KT 7000 NSC 04/03 Q1024 NOSIG=
201811090700 METAR LRBS 090700Z 00000KT 8000 NSC 06/04 Q1024 NOSIG=
201811090730 METAR LRBS 090730Z 08003KT 050V110 CAVOK 07/05 Q1024 NOSIG=
201811090800 METAR LRBS 090800Z 08003KT CAVOK 08/05 Q1024 NOSIG=
201811090830 METAR LRBS 090830Z 09002KT 040V130 CAVOK 10/05 Q1024 NOSIG=
201811090900 METAR LRBS 090900Z VRB02KT CAVOK 11/05 Q1024 NOSIG=
201811090930 METAR LRBS 090930Z VRB01KT CAVOK 12/04 Q1024 NOSIG=
201811091000 METAR LRBS 091000Z VRB01KT CAVOK 13/04 Q1024 NOSIG=
201811091030 METAR LRBS 091030Z 18002KT 130V240 CAVOK 13/03 Q1024 NOSIG=
201811091100 METAR COR LRBS 091100Z VRB03KT CAVOK 14/04 Q1023 NOSIG=
201811091130 METAR LRBS 091130Z 20002KT 150V260 CAVOK 14/04 Q1023 NOSIG=
201811091200 METAR LRBS 091200Z VRB02KT CAVOK 15/03 Q1023 NOSIG=
201811091230 METAR LRBS 091230Z 18002KT 110V240 CAVOK 15/03 Q1022 NOSIG=
201811091300 METAR COR LRBS 091300Z VRB02KT CAVOK 14/03 Q1022 NOSIG=
201811091330 METAR LRBS 091330Z 06002KT 010V110 CAVOK 14/04 Q1022=
201811091400 METAR LRBS 091400Z 06002KT CAVOK 14/04 Q1022 NOSIG=
201811091430 METAR LRBS 091430Z 07003KT CAVOK 12/04 Q1022 NOSIG=
201811091500 METAR LRBS 091500Z 07004KT CAVOK 10/04 Q1022 NOSIG=
201811091530 METAR LRBS 091530Z 06002KT CAVOK 09/04 Q1022 NOSIG=
201811091600 METAR LRBS 091600Z 05001KT CAVOK 09/04 Q1023 NOSIG=
201811091630 METAR LRBS 091630Z 04001KT CAVOK 08/04 Q1023 NOSIG=
201811091700 METAR LRBS 091700Z 04002KT CAVOK 08/04 Q1023 NOSIG=
201811091730 METAR LRBS 091730Z 05001KT CAVOK 07/04 Q1023 NOSIG=
201811091800 METAR LRBS 091800Z 05001KT CAVOK 06/04 Q1023 NOSIG=
201811091830 METAR LRBS 091830Z 03001KT CAVOK 06/04 Q1023 NOSIG=
201811091900 METAR LRBS 091900Z 00000KT CAVOK 06/04 Q1023 NOSIG=
201811091930 METAR COR LRBS 091930Z 00000KT CAVOK 05/03 Q1023 NOSIG=
201811092000 METAR LRBS 092000Z 00000KT CAVOK 05/03 Q1023 NOSIG=
201811092030 METAR LRBS 092030Z 07002KT CAVOK 04/03 Q1023 NOSIG=
201811092100 METAR LRBS 092100Z 31001KT CAVOK 05/04 Q1023 NOSIG=
201811092130 METAR LRBS 092130Z VRB01KT 8000 NSC 04/03 Q1023 BECMG 5000
                        BR=
201811092200 METAR LRBS 092200Z 00000KT 7000 NSC 04/03 Q1023 BECMG 5000
                        BR=
201811092230 METAR LRBS 092230Z AUTO 00000KT 7000 NCD 04/03 Q1022 BECMG
                        5000 BR=
201811092300 METAR COR LRBS 092300Z 31002KT 7000 NSC 03/03 Q1022 BECMG
                        5000 BR=
201811092330 METAR LRBS 092330Z 31001KT 6000 NSC 03/03 Q1022 BECMG 3000
                        BR=
201811100000 METAR LRBS 100000Z 00000KT 5000 BR NSC 03/03 Q1022 BECMG
                        3000 BR=
201811100030 METAR LRBS 100030Z 00000KT 6000 NSC 03/02 Q1022 BECMG 3000
                        BR=
201811100100 METAR COR LRBS 100100Z 00000KT 6000 NSC 02/02 Q1022 BECMG
                        3000 BR=
201811100130 METAR LRBS 100130Z 00000KT 6000 NSC 02/02 Q1022 BECMG 3000
                        BR=
201811100200 METAR LRBS 100200Z 30001KT 6000 NSC 02/02 Q1022 TEMPO 3000
                        BR=
201811100230 METAR COR LRBS 100230Z 31002KT 280V350 5000 BR NSC 02/02
                        Q1022 TEMPO 3000 BR=
201811100300 METAR LRBS 100300Z 00000KT 5000 BR NSC 02/02 Q1022 TEMPO
                        3000 BR=
201811100330 METAR LRBS 100330Z 00000KT 4000 BR NSC 02/02 Q1021 TEMPO
                        3000 BR=
201811100400 METAR LRBS 100400Z 00000KT 3500 BR NSC 02/02 Q1021 TEMPO
                        3000 BR=
201811100430 METAR LRBS 100430Z 30002KT 270V350 5000 BR NSC 02/01 Q1022
                        TEMPO 3000 BR=
201811100500 METAR LRBS 100500Z 00000KT 3000 MIFG BR NSC 02/01 Q1022 NOSIG=
201811100530 METAR LRBS 100530Z 00000KT 3500 MIFG BR NSC 02/02 Q1022 NOSIG=
201811100600 METAR LRBS 100600Z 00000KT 4000 MIFG BR NSC 03/03 Q1022 BECMG
                        5000=
201811100630 METAR LRBS 100630Z 00000KT 4500 BR NSC 04/04 Q1022 BECMG
                        5000=
201811100700 METAR LRBS 100700Z VRB01KT 6000 NSC 06/04 Q1022 NOSIG=
201811100730 METAR LRBS 100730Z 01002KT 340V060 7000 NSC 07/05 Q1022 NOSIG=
201811100800 METAR LRBS 100800Z 01002KT 340V090 8000 NSC 09/05 Q1022 NOSIG=
201811100830 METAR LRBS 100830Z 03003KT 340V070 CAVOK 10/04 Q1022 NOSIG=
201811100900 METAR LRBS 100900Z 04003KT 320V100 CAVOK 12/04 Q1022 NOSIG=
201811100930 METAR LRBS 100930Z 05003KT CAVOK 13/05 Q1021 NOSIG=
201811101000 METAR LRBS 101000Z VRB02KT CAVOK 14/05 Q1021 NOSIG=
201811101030 METAR LRBS 101030Z VRB02KT CAVOK 14/05 Q1021 NOSIG=
201811101100 METAR LRBS 101100Z 11003KT 030V170 CAVOK 15/05 Q1021 NOSIG=
201811101130 METAR LRBS 101130Z VRB02KT CAVOK 16/05 Q1020 NOSIG=
201811101200 METAR LRBS 101200Z 06002KT 340V130 CAVOK 16/06 Q1020 NOSIG=
201811101230 METAR LRBS 101230Z 12002KT 050V190 CAVOK 16/06 Q1020 NOSIG=
201811101300 METAR LRBS 101300Z 08002KT 350V150 CAVOK 16/06 Q1020 NOSIG=
201811101330 METAR LRBS 101330Z 00000KT CAVOK 16/06 Q1020 NOSIG=
201811101400 METAR LRBS 101400Z VRB01KT CAVOK 15/06 Q1020 NOSIG=
201811101430 METAR LRBS 101430Z 05002KT CAVOK 14/06 Q1020 NOSIG=
201811101500 METAR LRBS 101500Z 03002KT CAVOK 13/06 Q1020 NOSIG=
201811101530 METAR LRBS 101530Z 01001KT CAVOK 12/06 Q1020 NOSIG=
201811101600 METAR LRBS 101600Z VRB02KT CAVOK 09/06 Q1020 NOSIG=
201811101630 METAR LRBS 101630Z VRB01KT CAVOK 09/06 Q1020 NOSIG=
201811101700 METAR LRBS 101700Z 00000KT CAVOK 08/06 Q1020 NOSIG=
201811101730 METAR LRBS 101730Z 00000KT CAVOK 07/06 Q1020 NOSIG=
201811101800 METAR LRBS 101800Z 00000KT CAVOK 06/06 Q1020 NOSIG=
201811101830 METAR LRBS 101830Z 00000KT CAVOK 07/06 Q1021 NOSIG=
201811101900 METAR LRBS 101900Z 00000KT CAVOK 06/06 Q1021 NOSIG=
201811101930 METAR LRBS 101930Z 00000KT 9999 MIFG NSC 07/06 Q1021 NOSIG=
201811102000 METAR COR LRBS 102000Z 00000KT 8000 MIFG NSC 06/06 Q1021
                        NOSIG=
201811102030 METAR LRBS 102030Z VRB01KT 8000 MIFG NSC 06/05 Q1021 BECMG
                        5000 BR=
201811102100 METAR LRBS 102100Z 00000KT 8000 NSC 06/05 Q1021 BECMG 5000
                        BR=
201811102130 METAR LRBS 102130Z 00000KT 8000 NSC 06/06 Q1021 BECMG 5000
                        BR=
201811102200 METAR LRBS 102200Z 36002KT 8000 NSC 06/05 Q1021 BECMG 5000
                        BR=
201811102230 METAR LRBS 102230Z 00000KT 8000 NSC 06/05 Q1021 BECMG 5000
                        BR=
201811102300 METAR LRBS 102300Z 02002KT 7000 NSC 06/04 Q1021 BECMG 5000
                        BR=
201811102330 METAR LRBS 102330Z 00000KT 6000 NSC 05/04 Q1021 BECMG 3000
                        BR=
201811110000 METAR LRBS 110000Z 00000KT 5000 BR NSC 05/04 Q1021 NOSIG=
201811110030 METAR LRBS 110030Z 01002KT 4500 BR NSC 04/03 Q1021 NOSIG=
201811110100 METAR LRBS 110100Z 36002KT 340V040 5000 BR NSC 04/03 Q1021
                        NOSIG=
201811110130 METAR LRBS 110130Z VRB01KT 4000 BR NSC 03/03 Q1021 BECMG
                        3000 BR=
201811110200 METAR LRBS 110200Z 00000KT 3000 BR NSC 03/03 Q1021 TEMPO
                        1500 BR=
201811110230 METAR LRBS 110230Z 01001KT 3000 BR NSC 03/03 Q1022 NOSIG=
201811110300 METAR LRBS 110300Z 00000KT 3000 BR NSC 03/03 Q1022 NOSIG=
201811110330 METAR LRBS 110330Z 00000KT 4000 MIFG BR NSC 03/03 Q1022 BECMG
                        1500 BR=
201811110400 METAR LRBS 110400Z 00000KT 4000 BR NSC 03/02 Q1022 BECMG
                        1500 BR=
201811110430 METAR LRBS 110430Z 00000KT 3000 BR NSC 03/02 Q1022 BECMG
                        1500 BR=
201811110500 METAR LRBS 110500Z 00000KT 0700 R07/0400 R25/0450 BCFG NSC
                        02/02 Q1022 TEMPO 0600 FG BKN002=
201811110530 METAR LRBS 110530Z 00000KT 1700 R07/1100 R25/P2000 BCFG BR
                        FEW001 02/02 Q1023 NOSIG=
201811110600 METAR LRBS 110600Z 06001KT 0150 R07/0125N R25/0125N FG VV001
                        03/02 Q1023 NOSIG=
201811110630 METAR LRBS 110630Z VRB01KT 0300 R07/0225N R25/0375N FG BKN001
                        03/03 Q1023 NOSIG=
201811110700 METAR LRBS 110700Z 00000KT 0250 R07/0150N R25/0400N FG VV001
                        04/03 Q1023 BECMG 0600=
201811110730 METAR LRBS 110730Z VRB01KT 0300 R07/0150N R25/1200 FG BKN001
                        04/04 Q1024 BECMG 0600=
201811110800 METAR LRBS 110800Z VRB01KT 0200 R07/0350N R25/0600 FG VV001
                        05/05 Q1024 BECMG 0600=
201811110830 METAR LRBS 110830Z VRB01KT 3000 BR FEW001 06/06 Q1024 BECMG
                        5000=
201811110900 METAR LRBS 110900Z VRB01KT 7000 FEW003 09/08 Q1024 NOSIG=
201811110930 METAR LRBS 110930Z 00000KT 9000 NSC 11/07 Q1024 NOSIG=
201811111000 METAR LRBS 111000Z 00000KT 9000 NSC 13/06 Q1024 NOSIG=
201811111030 METAR LRBS 111030Z VRB01KT CAVOK 14/06 Q1024 NOSIG=
201811111100 METAR LRBS 111100Z VRB01KT CAVOK 15/06 Q1024 NOSIG=
201811111130 METAR LRBS 111130Z VRB01KT CAVOK 15/05 Q1024 NOSIG=
201811111200 METAR LRBS 111200Z VRB01KT CAVOK 16/05 Q1023 NOSIG=
201811111230 METAR LRBS 111230Z VRB01KT CAVOK 16/05 Q1023 NOSIG=
201811111300 METAR LRBS 111300Z VRB01KT CAVOK 16/05 Q1024 NOSIG=
201811111330 METAR LRBS 111330Z 08002KT 020V140 CAVOK 16/05 Q1023 NOSIG=
201811111400 METAR LRBS 111400Z 08003KT 050V110 CAVOK 15/05 Q1024 NOSIG=
201811111430 METAR LRBS 111430Z 11002KT CAVOK 15/05 Q1024 NOSIG=
201811111500 METAR LRBS 111500Z 11001KT CAVOK 13/05 Q1024 NOSIG=
201811111530 METAR LRBS 111530Z 09001KT CAVOK 11/06 Q1024 NOSIG=
201811111600 METAR LRBS 111600Z 06002KT 9000 NSC 10/06 Q1024 NOSIG=
201811111630 METAR LRBS 111630Z 00000KT 8000 NSC 09/06 Q1025 NOSIG=
201811111700 METAR LRBS 111700Z 00000KT 8000 NSC 10/06 Q1025 BECMG 5000
                        BR=
201811111730 METAR LRBS 111730Z 32001KT 8000 NSC 09/06 Q1025 BECMG 5000
                        BR=
201811111800 METAR LRBS 111800Z VRB01KT 7000 NSC 09/06 Q1025 BECMG 5000
                        BR=
201811111830 METAR LRBS 111830Z 05003KT 7000 NSC 06/04 Q1025 BECMG 5000
                        BR=
201811111900 METAR LRBS 111900Z 05002KT 6000 NSC 06/06 Q1026 BECMG 5000
                        BR=
201811111930 METAR LRBS 111930Z 00000KT 6000 NSC 06/06 Q1026 BECMG 3000
                        BR=
201811112000 METAR LRBS 112000Z 00000KT 5000 MIFG BR NSC 05/05 Q1026 BECMG
                        3000 BR=
201811112030 METAR LRBS 112030Z 00000KT 5000 MIFG BR NSC 06/05 Q1026 BECMG
                        3000 BR=
201811112100 METAR LRBS 112100Z VRB01KT 5000 MIFG BR NSC 05/05 Q1026 BECMG
                        3000 BR=
201811112130 METAR LRBS 112130Z 00000KT 4000 MIFG BR NSC 05/05 Q1026 BECMG
                        3000 BR=
201811112200 METAR LRBS 112200Z 29002KT 3000 BR NSC 05/05 Q1026 BECMG
                        1500 BR=
201811112230 METAR LRBS 112230Z VRB01KT 3000 BR NSC 05/04 Q1026 BECMG
                        1500 BR=
201811112300 METAR COR LRBS 112300Z VRB01KT 5000 BR NSC 05/05 Q1026 NOSIG=
201811112330 METAR LRBS 112330Z VRB01KT 4000 BR NSC 04/04 Q1026 NOSIG=
201811120000 METAR LRBS 120000Z 31002KT 270V330 4000 BR NSC 04/04 Q1027
                        NOSIG=
201811120030 METAR COR LRBS 120030Z 00000KT 4000 BR NSC 04/04 Q1026 NOSIG=
201811120100 METAR LRBS 120100Z VRB01KT 4000 BR NSC 04/04 Q1026 BECMG
                        1500 BR BKN002=
201811120130 METAR LRBS 120130Z 06002KT 030V090 3000 MIFG BR NSC 03/03
                        Q1026 BECMG 0800 FG BKN002=
201811120200 METAR LRBS 120200Z 33002KT 300V010 1500 BR BKN001 04/04 Q1027
                        BECMG 0600 FG=
201811120230 METAR LRBS 120230Z 36003KT 320V070 0600 R07/0600D R25/0700N
                        FG BKN002 05/05 Q1027 BECMG 0150
                        FG OVC001=
201811120300 METAR LRBS 120300Z 03002KT 340V060 0300 R07/0350N R25/0325N
                        FG VV002 05/05 Q1027 NOSIG=
201811120330 METAR LRBS 120330Z 03003KT 360V070 0300 R07/0325N R25/0200N
                        FG VV001 05/05 Q1027 NOSIG=
201811120400 METAR LRBS 120400Z 05002KT 020V090 0400 R07/0375N R25/0300N
                        FG VV001 05/04 Q1028 NOSIG=
201811120430 METAR LRBS 120430Z VRB01KT 0400 R07/0325N R25/0400N FG VV001
                        05/05 Q1028 NOSIG=
201811120500 METAR LRBS 120500Z VRB01KT 0500 R07/0450N R25/0500N FG VV001
                        05/05 Q1028 NOSIG=
201811120530 METAR LRBS 120530Z 04004KT 010V070 0200 R07/0300N R25/0325N
                        FG VV001 06/05 Q1029 TEMPO 0150 FG=
201811120600 METAR LRBS 120600Z 05005KT 0200 R07/0325N R25/0325N FG VV001
                        06/06 Q1029 NOSIG=
201811120630 METAR COR LRBS 120630Z 06005KT 030V100 0250 R07/0225N R25/0225N
                        FG VV002 06/06 Q1029 BECMG 0350=
201811120700 METAR LRBS 120700Z 05005KT 010V090 0200 R07/0175N R25/0175N
                        FG VV001 06/06 Q1029 NOSIG=
201811120730 METAR LRBS 120730Z 02003KT 340V060 0200 R07/0225N R25/0225N
                        FG VV001 06/06 Q1029 NOSIG=
201811120800 METAR LRBS 120800Z 02003KT 340V060 0250 R07/0300N R25/0325N
                        FG VV002 07/07 Q1030 NOSIG=
201811120830 METAR LRBS 120830Z 01002KT 330V060 0400 R07/0450N R25/0500D
                        FG BKN001 07/07 Q1030 BECMG 0600=
201811120900 METAR COR LRBS 120900Z 02003KT 330V060 1100 R07/1500U R25/0750N
                        BR OVC001 08/07 Q1030 BECMG 1500
                        BR=
201811120930 METAR LRBS 120930Z 04003KT 350V080 1100 R07/1300U R25/2000D
                        BR FEW001 BKN002 08/08 Q1030 BECMG
                        3000=
201811121000 METAR LRBS 121000Z 07003KT 030V120 3000 BR OVC002 08/08 Q1030
                        BECMG 5000=
201811121030 METAR LRBS 121030Z 04003KT 320V080 3900 BR OVC003 08/08 Q1030
                        BECMG 5000 BKN005=
201811121100 METAR LRBS 121100Z VRB01KT 5000 BR OVC004 08/08 Q1029 BECMG
                        7000 NSW BKN005=
201811121130 METAR LRBS 121130Z 02002KT 310V100 7000 OVC004 09/09 Q1029
                        BECMG BKN010=
201811121200 METAR LRBS 121200Z 06004KT 040V100 7000 OVC005 09/09 Q1029
                        BECMG BKN010=
201811121230 METAR LRBS 121230Z 06004KT 020V100 9999 BKN007 09/09 Q1029
                        BECMG BKN010=
201811121300 METAR LRBS 121300Z 04004KT 360V070 9999 BKN007 09/09 Q1029
                        NOSIG=
201811121330 METAR LRBS 121330Z 36004KT 330V050 9999 BKN007 09/09 Q1030
                        NOSIG=
201811121400 METAR LRBS 121400Z 36003KT 320V040 9999 BKN007 09/09 Q1030
                        NOSIG=
201811121430 METAR LRBS 121430Z 01003KT 340V050 8000 BKN006 09/09 Q1030
                        BECMG SCT005=
201811121500 METAR LRBS 121500Z 36003KT 340V050 7000 FEW006 09/09 Q1030
                        NOSIG=
201811121530 METAR LRBS 121530Z 31002KT 280V340 4000 MIFG BR NSC 09/09
                        Q1030 BECMG 1500 BR=
201811121600 METAR LRBS 121600Z 32001KT 4000 R25/1000V1400U MIFG BR NSC
                        08/08 Q1030 BECMG 1500 BR=
201811121630 METAR LRBS 121630Z 31002KT 290V010 4000 R25/0375N MIFG BR
                        NSC 08/08 Q1030 BECMG 1500 BR=
201811121700 METAR LRBS 121700Z 36003KT 320V050 4000 BR NSC 08/08 Q1031
                        NOSIG=
201811121730 METAR LRBS 121730Z 03003KT 3500 BR FEW018 08/08 Q1031 NOSIG=
201811121800 METAR LRBS 121800Z 04004KT 360V070 3500 BR FEW017 09/09 Q1031
                        NOSIG=
201811121830 METAR LRBS 121830Z 04004KT 010V070 3000 BR SCT021 09/09 Q1031
                        NOSIG=
201811121900 METAR LRBS 121900Z 05004KT 5000 BR BKN022 09/09 Q1031 NOSIG=
201811121930 METAR LRBS 121930Z 05005KT 6000 SCT024 09/09 Q1031 NOSIG=
201811122000 METAR LRBS 122000Z 06005KT 8000 BKN026 08/08 Q1031 NOSIG=
201811122030 METAR LRBS 122030Z 06004KT 9999 SCT026 SCT033 08/08 Q1032
                        NOSIG=
201811122100 METAR COR LRBS 122100Z 05005KT 9999 OVC027 10/09 Q1032 NOSIG=
201811122130 METAR COR LRBS 122130Z 06006KT 9999 SCT018 BKN039 10/10 Q1032
                        NOSIG=
201811122200 METAR COR LRBS 122200Z 06005KT 9999 BKN018 10/10 Q1032 NOSIG=
201811122230 METAR LRBS 122230Z 06005KT 9999 OVC018 10/10 Q1032 NOSIG=
201811122300 METAR COR LRBS 122300Z 04005KT 010V070 9999 OVC018 10/09
                        Q1032 NOSIG=
201811122330 METAR LRBS 122330Z 04005KT 010V070 9999 OVC018 10/09 Q1032
                        NOSIG=
201811130000 METAR LRBS 130000Z 05006KT 010V070 9999 OVC019 10/09 Q1032
                        NOSIG=
201811130030 METAR LRBS 130030Z 05007KT 9999 OVC020 10/09 Q1032 NOSIG=
201811130100 METAR COR LRBS 130100Z 05007KT 020V100 9999 OVC021 10/09
                        Q1032 NOSIG=
201811130130 METAR LRBS 130130Z AUTO 06008KT 020V080 9999 BKN021/// 10/08
                        Q1032 NOSIG=
201811130200 METAR COR LRBS 130200Z 06008KT 9999 BKN022 10/08 Q1032 NOSIG=
201811130230 METAR LRBS 130230Z 06009KT 9999 BKN022 09/08 Q1032 NOSIG=
201811130300 METAR LRBS 130300Z 06008KT 020V090 9999 OVC020 09/08 Q1032
                        NOSIG=
201811130330 METAR LRBS 130330Z 06007KT 020V080 9999 OVC020 09/08 Q1032
                        NOSIG=
201811130400 METAR LRBS 130400Z 06007KT 9999 OVC021 09/08 Q1032 NOSIG=
201811130430 METAR LRBS 130430Z 05005KT 9999 OVC022 09/08 Q1032 NOSIG=
201811130500 METAR LRBS 130500Z 06006KT 010V080 9999 FEW015 OVC020 09/08
                        Q1033 NOSIG=
201811130530 METAR LRBS 130530Z 06006KT 9999 BKN010 OVC024 09/08 Q1033=
201811130600 METAR COR LRBS 130600Z 07006KT 9999 OVC009 09/08 Q1033 NOSIG=
201811130630 METAR LRBS 130630Z 07006KT 9999 OVC009 09/08 Q1033 NOSIG=
201811130700 METAR LRBS 130700Z 07006KT 9999 BKN009 OVC026 09/08 Q1033
                        NOSIG=
201811130730 METAR LRBS 130730Z 07006KT 9999 BKN010 OVC026 09/08 Q1033
                        NOSIG=
201811130800 METAR LRBS 130800Z 06006KT 030V100 9999 SCT010 BKN013 OVC027
                        09/08 Q1033 NOSIG=
201811130830 METAR LRBS 130830Z 05006KT 9999 SCT010 BKN013 OVC026 10/08
                        Q1033 NOSIG=
201811130900 METAR LRBS 130900Z 04006KT 010V070 9999 FEW010 BKN013 BKN030
                        10/08 Q1033 NOSIG=
201811130930 METAR LRBS 130930Z 05006KT 010V080 9999 SCT011 BKN014 OVC028
                        10/08 Q1033 NOSIG=
201811131000 METAR LRBS 131000Z 05006KT 010V080 9999 BKN012 OVC021 10/08
                        Q1033 NOSIG=
201811131030 METAR LRBS 131030Z 04005KT 010V080 9999 BKN013 OVC017 10/08
                        Q1032 NOSIG=
201811131100 METAR LRBS 131100Z 04006KT 010V070 9999 BKN012 OVC019 10/08
                        Q1032 NOSIG=
201811131130 METAR LRBS 131130Z 05006KT 010V080 9999 BKN013 OVC017 10/08
                        Q1032 NOSIG=
201811131200 METAR COR LRBS 131200Z 03006KT 360V060 9999 OVC015 10/07
                        Q1032 NOSIG=
201811131230 METAR LRBS 131230Z 03006KT 360V070 9999 OVC015 10/08 Q1032
                        NOSIG=
201811131300 METAR LRBS 131300Z 04006KT 010V070 9999 BKN015 OVC019 09/07
                        Q1032 NOSIG=
201811131330 METAR LRBS 131330Z 04006KT 360V060 9999 OVC018 09/07 Q1031
                        NOSIG=
201811131400 METAR LRBS 131400Z 03006KT 360V070 9999 OVC019 09/08 Q1031
                        NOSIG=
201811131430 METAR COR LRBS 131430Z 03005KT 360V060 9999 OVC018 09/08
                        Q1031 NOSIG=
201811131500 METAR LRBS 131500Z 03005KT 350V050 9999 OVC018 09/07 Q1031
                        NOSIG=
201811131530 METAR LRBS 131530Z 04005KT 9999 OVC018 09/07 Q1031 NOSIG=
201811131600 METAR LRBS 131600Z 04005KT 9999 BKN015 OVC017 09/07 Q1031
                        NOSIG=
201811131630 METAR LRBS 131630Z 04004KT 9999 OVC015 09/07 Q1031 NOSIG=
201811131700 METAR LRBS 131700Z 05004KT 9999 OVC015 09/07 Q1031 NOSIG=
201811131730 METAR LRBS 131730Z 07006KT 9999 BKN016 09/06 Q1031 NOSIG=
201811131800 METAR COR LRBS 131800Z 08007KT 9999 BKN019 OVC043 09/06 Q1031
                        NOSIG=
201811131830 METAR LRBS 131830Z 08005KT 9999 OVC019 09/06 Q1031 NOSIG=
201811131900 METAR LRBS 131900Z 08005KT 060V120 9999 OVC019 09/06 Q1031
                        NOSIG=
201811131930 METAR LRBS 131930Z 06004KT 9999 OVC019 09/06 Q1031 NOSIG=
201811132000 METAR LRBS 132000Z 09005KT 9999 BKN017 09/05 Q1031 NOSIG=
201811132030 METAR LRBS 132030Z 08005KT 9999 OVC018 08/05 Q1030 NOSIG=
201811132100 METAR LRBS 132100Z 09006KT 9999 SCT018 BKN041 08/05 Q1030
                        NOSIG=
201811132130 METAR LRBS 132130Z 08005KT 9999 OVC040 08/05 Q1030 NOSIG=
201811132200 METAR LRBS 132200Z 07003KT 9999 OVC040 08/05 Q1030 NOSIG=
201811132230 METAR LRBS 132230Z 07004KT 040V100 9999 FEW020 OVC040 08/05
                        Q1030 NOSIG=
201811132300 METAR LRBS 132300Z 06003KT 9999 OVC038 08/05 Q1029 NOSIG=
201811132330 METAR LRBS 132330Z 05003KT 9999 SCT021 OVC036 08/05 Q1029
                        NOSIG=
201811140000 METAR LRBS 140000Z 07003KT 9999 FEW021 OVC036 08/05 Q1029
                        NOSIG=
201811140030 METAR COR LRBS 140030Z 07003KT 9999 OVC035 07/05 Q1028 NOSIG=
201811140100 METAR LRBS 140100Z 04002KT 020V100 9999 OVC038 07/05 Q1028
                        NOSIG=
201811140130 METAR LRBS 140130Z 05002KT 9999 OVC040 07/05 Q1028 NOSIG=
201811140200 METAR COR LRBS 140200Z 03002KT 350V060 9999 OVC042 07/05
                        Q1027 NOSIG=
201811140230 METAR LRBS 140230Z 02002KT 340V040 9999 OVC043 07/05 Q1027
                        NOSIG=
201811140300 METAR LRBS 140300Z 01003KT 340V040 9999 OVC045 07/05 Q1027
                        NOSIG=
201811140330 METAR LRBS 140330Z 03002KT 360V060 9999 OVC046 07/05 Q1027
                        NOSIG=
201811140400 METAR COR LRBS 140400Z 08003KT 9999 SCT046 06/04 Q1027 NOSIG=
201811140430 METAR LRBS 140430Z VRB01KT 9999 FEW046 06/05 Q1026 NOSIG=
201811140500 METAR LRBS 140500Z 00000KT CAVOK 06/05 Q1026 NOSIG=
201811140530 METAR LRBS 140530Z VRB01KT CAVOK 06/05 Q1026 NOSIG=
201811140600 METAR LRBS 140600Z 35002KT 9999 SCT024 06/05 Q1027 NOSIG=
201811140630 METAR LRBS 140630Z 36003KT 330V040 9999 BKN024 06/05 Q1027
                        NOSIG=
201811140700 METAR LRBS 140700Z 01001KT 9999 OVC022 07/05 Q1027 NOSIG=
201811140730 METAR LRBS 140730Z VRB01KT 9999 OVC019 07/05 Q1026 NOSIG=
201811140800 METAR LRBS 140800Z 20003KT 160V240 9999 OVC019 09/05 Q1026
                        NOSIG=
201811140830 METAR LRBS 140830Z 23005KT 200V260 9999 OVC018 09/05 Q1026
                        NOSIG=
201811140900 METAR LRBS 140900Z 23005KT 200V260 9999 BKN019 10/06 Q1026
                        NOSIG=
201811140930 METAR LRBS 140930Z 24005KT 210V290 9999 OVC021 10/06 Q1026
                        NOSIG=
201811141000 METAR LRBS 141000Z 27005KT 240V340 9999 OVC021 10/06 Q1026
                        NOSIG=
201811141030 METAR LRBS 141030Z 28004KT 240V010 9999 OVC019 11/06 Q1025
                        NOSIG=
201811141100 METAR LRBS 141100Z 29006KT 240V350 9999 SCT018 11/06 Q1025
                        NOSIG=
201811141130 METAR LRBS 141130Z 31004KT 260V020 9000 FEW020 12/06 Q1025
                        NOSIG=
201811141200 METAR LRBS 141200Z VRB04KT 9000 SCT022 12/06 Q1025 NOSIG=
201811141230 METAR LRBS 141230Z 28003KT 9000 FEW023 12/06 Q1024 NOSIG=
201811141300 METAR LRBS 141300Z 27004KT 220V340 9000 FEW024 SCT042 12/06
                        Q1024 NOSIG=
201811141330 METAR LRBS 141330Z 27003KT 240V310 9000 SCT043 12/06 Q1024
                        NOSIG=
201811141400 METAR LRBS 141400Z VRB01KT 8000 SCT038 12/06 Q1024 NOSIG=
201811141430 METAR LRBS 141430Z 00000KT 8000 BKN034 12/06 Q1024 NOSIG=
201811141500 METAR LRBS 141500Z 00000KT 8000 OVC033 12/06 Q1024 NOSIG=
201811141530 METAR LRBS 141530Z VRB01KT 7000 OVC031 12/06 Q1025 NOSIG=
201811141600 METAR COR LRBS 141600Z 06004KT 7000 -RA OVC030 11/06 Q1024
                        NOSIG=
201811141630 METAR LRBS 141630Z 06004KT 7000 OVC029 10/06 Q1025 NOSIG=
201811141700 METAR LRBS 141700Z 08004KT 8000 BKN029 10/07 Q1025 NOSIG=
201811141730 METAR LRBS 141730Z 07003KT 7000 BKN029 OVC049 09/07 Q1025
                        NOSIG=
201811141800 METAR LRBS 141800Z 07004KT 7000 BKN029 09/07 Q1025 NOSIG=
201811141830 METAR LRBS 141830Z 07003KT 8000 BKN030 BKN039 09/07 Q1025
                        NOSIG=
201811141900 METAR COR LRBS 141900Z 08004KT 8000 BKN036 BKN041 09/07 Q1025
                        NOSIG=
201811141930 METAR LRBS 141930Z 08004KT 9999 BKN033 OVC042 09/06 Q1025
                        NOSIG=
201811142000 METAR LRBS 142000Z 08001KT 9999 -RA OVC042 09/06 Q1025 NOSIG=
201811142030 METAR LRBS 142030Z 07003KT 7000 -RA BKN030 OVC042 08/07 Q1024
                        NOSIG=
201811142100 METAR LRBS 142100Z 08002KT 8000 -RA BKN033 OVC042 08/07 Q1024
                        R07/19//95 NOSIG=
201811142130 METAR LRBS 142130Z VRB02KT 5000 -RA BR BKN030 OVC042 08/07
                        Q1024 R07/29//95 NOSIG=
201811142200 METAR LRBS 142200Z 04003KT 3000 -RA BR BKN025 BKN030 OVC045
                        07/07 Q1024 R07/29//95 NOSIG=
201811142230 METAR COR LRBS 142230Z 00000KT 4000 -RA BR FEW011 BKN027
                        OVC045 07/07 Q1024 R07/29//95 NOSIG=
201811142300 METAR LRBS 142300Z 10004KT 070V140 4000 -RA BR FEW003 BKN030
                        OVC043 07/07 Q1024 R07/29//95 NOSIG=
201811142330 METAR LRBS 142330Z 08004KT 4000 -RA BR FEW003 BKN025 OVC037
                        07/07 Q1024 R07/29//95 NOSIG=
201811150000 METAR LRBS 150000Z VRB01KT 5000 -RA BR OVC035 07/07 Q1024
                        R07/29//95 NOSIG=
201811150030 METAR LRBS 150030Z VRB02KT 5000 -RA BR BKN027 OVC039 08/07
                        Q1024 R07/29//95 NOSIG=
201811150100 METAR LRBS 150100Z 05003KT 010V070 8000 BKN030 OVC045 07/07
                        Q1024 R07/29//95 NOSIG=
201811150130 METAR LRBS 150130Z 28003KT 240V330 3000 -RA BR FEW003 BKN030
                        OVC042 07/07 Q1024 R07/29//95 TEMPO
                        1500 RA BR=
201811150200 METAR LRBS 150200Z 33005KT 270V020 2000 RA BR FEW003 BKN028
                        OVC043 06/06 Q1024 R07/29//95 NOSIG=
201811150230 METAR LRBS 150230Z 24004KT 7000 -RA SCT021 BKN034 BKN043
                        06/06 Q1024 R07/29//95 NOSIG=
201811150300 METAR LRBS 150300Z 25003KT 6000 SCT047 06/06 Q1024 R07/29//95
                        NOSIG=
201811150330 METAR LRBS 150330Z 26003KT 5000 BR NSC 06/06 Q1024 R07/29//95
                        TEMPO 3000 BR=
201811150400 METAR COR LRBS 150400Z 30004KT 7000 NSC 06/06 Q1024 R07/29//95
                        NOSIG=
201811150430 METAR LRBS 150430Z 26003KT 8000 NSC 06/06 Q1024 R07/29//95
                        NOSIG=
201811150500 METAR LRBS 150500Z 30003KT 260V340 8000 NSC 06/06 Q1024 R07/29//95
                        NOSIG=
201811150530 METAR LRBS 150530Z VRB01KT 5000 BR NSC 06/06 Q1024 R07/29//95
                        TEMPO 3000 BR=
201811150600 METAR LRBS 150600Z VRB02KT 4000 BR NSC 06/06 Q1024 R07/29//95
                        BECMG 5000=
201811150630 METAR LRBS 150630Z 29003KT 250V340 5000 BR NSC 07/07 Q1025
                        R07/29//95 TEMPO FEW040CB=
201811150700 METAR LRBS 150700Z 32005KT 260V010 1500 -RA BR FEW004 OVC046
                        08/07 Q1025 R07/29//95 NOSIG=
201811150730 METAR LRBS 150730Z 28005KT 250V330 3000 -RA BR FEW004 BKN046
                        08/08 Q1025 R07/29//95 NOSIG=
201811150800 METAR LRBS 150800Z 32003KT 260V020 3500 -RA BR FEW006 SCT049
                        09/08 Q1025 R07/29//95 TEMPO BKN005
                        OVC040=
201811150830 METAR LRBS 150830Z 31005KT 260V360 3500 -RA BR SCT006 BKN048
                        09/09 Q1025 R07/29//95 NOSIG=
201811150900 METAR LRBS 150900Z 30004KT 240V360 4000 -RA BR FEW007 BKN041
                        09/09 Q1024 R07/29//95 NOSIG=
201811150930 METAR LRBS 150930Z 29006KT 250V350 5000 BR FEW009 10/09 Q1024
                        R07/29//95 NOSIG=
201811151000 METAR LRBS 151000Z 29004KT 240V010 8000 FEW010 10/08 Q1024
                        R07/29//95 NOSIG=
201811151030 METAR LRBS 151030Z 30003KT 240V050 8000 FEW014 SCT049 11/09
                        Q1024 R07/29//95 NOSIG=
201811151100 METAR LRBS 151100Z 34003KT 270V030 8000 SCT013 BKN045 11/08
                        Q1024 R07/29//95 NOSIG=
201811151130 METAR LRBS 151130Z VRB03KT 8000 FEW013 SCT045 11/08 Q1024
                        R07/29//95 BECMG 06010KT=
201811151200 METAR LRBS 151200Z 08006KT 8000 FEW014 SCT058 11/07 Q1024
                        R07/29//95 NOSIG=
201811151230 METAR LRBS 151230Z 08006KT 050V110 8000 FEW015 SCT037 11/08
                        Q1024 R07/29//95 NOSIG=
201811151300 METAR LRBS 151300Z 10006KT 9000 FEW015 10/08 Q1024 R07/29//95
                        TEMPO 5000 -SHRA SCT035CB=
201811151330 METAR LRBS 151330Z 10006KT 9000 FEW015 10/08 Q1024 R07/19//95
                        TEMPO 5000 -SHRA SCT035CB=
201811151400 METAR LRBS 151400Z 08005KT 050V110 9999 BKN047 10/06 Q1024
                        R07/19//95 NOSIG=
201811151430 METAR LRBS 151430Z 08004KT 9999 BKN049 09/06 Q1024 R07/19//95
                        NOSIG=
201811151500 METAR LRBS 151500Z 07004KT CAVOK 08/06 Q1024 R07/19//95 NOSIG=
201811151530 METAR LRBS 151530Z 06005KT CAVOK 07/06 Q1024 R07/19//95 NOSIG=
201811151600 METAR LRBS 151600Z 06004KT CAVOK 07/07 Q1025 R07/19//95 NOSIG=
201811151630 METAR LRBS 151630Z 07002KT 9999 FEW037 07/07 Q1025 R07/19//95
                        NOSIG=
201811151700 METAR COR LRBS 151700Z 07006KT 9999 SCT012 07/07 Q1025 R07/19//95
                        NOSIG=
201811151730 METAR LRBS 151730Z 07007KT 9999 FEW010 07/06 Q1025 R07/19//95
                        NOSIG=
201811151800 METAR LRBS 151800Z 07006KT 9999 FEW013 06/06 Q1025 R07/19//95
                        NOSIG=
201811151830 METAR COR LRBS 151830Z 06007KT 9999 SCT008 05/05 Q1025 R07/19//95
                        TEMPO BKN010=
201811151900 METAR LRBS 151900Z 07007KT 9999 BKN008 SCT045 05/05 Q1025
                        R07/19//95 NOSIG=
201811151930 METAR LRBS 151930Z 08008KT 9999 FEW008 SCT049 05/05 Q1026
                        R07/19//95 NOSIG=
201811152000 METAR LRBS 152000Z 06006KT 9000 BKN010 04/04 Q1026 R07/19//95
                        NOSIG=
201811152030 METAR LRBS 152030Z 06008KT 030V090 9999 BKN010 05/04 Q1026
                        R07/19//95 NOSIG=
201811152100 METAR COR LRBS 152100Z 06008KT 9999 BKN010 05/04 Q1026 R07/19//95
                        NOSIG=
201811152130 METAR LRBS 152130Z 05008KT 010V090 9999 -RA BKN009 04/04
                        Q1026 R07/19//95 NOSIG=
201811152200 METAR LRBS 152200Z 05009KT 020V080 9000 OVC010 04/04 Q1027
                        R07/19//95 NOSIG=
201811152230 METAR LRBS 152230Z 04008KT 9999 BKN010 04/03 Q1027 R07/19//95
                        NOSIG=
201811152300 METAR LRBS 152300Z 04012KT 360V080 9999 -RA BKN010 OVC032
                        04/03 Q1027 R07/19//95 NOSIG=
201811152330 METAR LRBS 152330Z 04014KT 010V090 9999 -RA SCT014 SCT031
                        OVC043 04/02 Q1027 R07/19//95 NOSIG=
201811160000 METAR LRBS 160000Z 05012KT 010V070 9999 SCT013 SCT031 OVC043
                        04/02 Q1027 R07/19//95 NOSIG=
201811160030 METAR LRBS 160030Z 04010KT 350V070 9999 SCT011 BKN044 04/02
                        Q1028 R07/19//95 NOSIG=
201811160100 METAR LRBS 160100Z 04011KT 360V070 9999 SCT047 04/02 Q1027
                        R07/19//95 NOSIG=
201811160130 METAR LRBS 160130Z 03011KT 360V070 9999 FEW040 04/02 Q1028
                        R07/19//95 NOSIG=
201811160200 METAR LRBS 160200Z 03009KT 360V060 CAVOK 04/02 Q1028 R07/19//95
                        NOSIG=
201811160230 METAR LRBS 160230Z 04007KT 9999 -RA FEW034 04/02 Q1028 R07/19//95
                        NOSIG=
201811160300 METAR LRBS 160300Z 05006KT 010V080 9999 -RA FEW047 04/02
                        Q1028 R07/19//95 NOSIG=
201811160330 METAR LRBS 160330Z 05005KT 020V080 9999 -RA FEW037 04/03
                        Q1028 R07/19//95 NOSIG=
201811160400 METAR LRBS 160400Z 07006KT 9999 -RA BKN043 04/03 Q1028 R07/19//95
                        NOSIG=
201811160430 METAR LRBS 160430Z 05005KT 010V090 9999 -RA FEW043 04/03
                        Q1028 R07/19//95 NOSIG=
201811160500 METAR LRBS 160500Z 03004KT 360V070 9999 FEW036 04/03 Q1028
                        R07/19//95 NOSIG=
201811160530 METAR LRBS 160530Z 36003KT 320V040 9999 SCT033 04/03 Q1028
                        R07/19//95 NOSIG=
201811160600 METAR LRBS 160600Z 36003KT 310V050 9999 BKN010 04/03 Q1029
                        R07/19//95 NOSIG=
201811160630 METAR LRBS 160630Z 05011KT 010V080 9000 -RA OVC009 04/03
                        Q1029 R07/19//95 NOSIG=
201811160700 METAR LRBS 160700Z 04007KT 010V090 9999 SCT008 BKN044 04/03
                        Q1029 R07/19//95 NOSIG=
201811160730 METAR LRBS 160730Z 06009KT 030V100 9999 FEW011 SCT049 04/03
                        Q1030 R07/19//95 NOSIG=
201811160800 METAR LRBS 160800Z 06005KT 020V100 9999 FEW011 04/02 Q1030
                        R07/CLRD// NOSIG=
201811160830 METAR LRBS 160830Z 07003KT 020V100 9999 FEW010 04/01 Q1030
                        NOSIG=
201811160900 METAR LRBS 160900Z 07004KT 020V100 9999 FEW011 05/01 Q1030
                        NOSIG=
201811160930 METAR LRBS 160930Z 04004KT 350V100 CAVOK 05/00 Q1030 NOSIG=
201811161000 METAR LRBS 161000Z 06004KT 010V090 CAVOK 05/M00 Q1029 NOSIG=
201811161030 METAR LRBS 161030Z 04004KT 340V070 9999 FEW010 05/M00 Q1029
                        NOSIG=
201811161100 METAR LRBS 161100Z 07007KT 040V100 9999 FEW027 06/M01 Q1029=
201811161130 METAR LRBS 161130Z 04004KT 360V090 9999 FEW027 06/M02 Q1029
                        NOSIG=
201811161200 METAR LRBS 161200Z 04004KT 010V070 CAVOK 06/M03 Q1029 NOSIG=
201811161230 METAR LRBS 161230Z 03004KT 360V080 CAVOK 06/M04 Q1029 NOSIG=
201811161300 METAR LRBS 161300Z AUTO 06007KT 030V100 9999 SCT054/// BKN068///
                        06/M04 Q1029 BECMG 5000 -SN BKN010
                        OVC030=
201811161330 METAR LRBS 161330Z 08005KT 9999 SCT049 05/M03 Q1030 BECMG
                        5000 -SN BKN010 OVC030=
201811161400 METAR LRBS 161400Z VRB01KT 9999 SCT038 05/M02 Q1030 BECMG
                        5000 -SN BKN010 OVC030=
201811161430 METAR LRBS 161430Z 09008KT 060V120 CAVOK 05/M02 Q1030 BECMG
                        5000 -SN BKN010 OVC030=
201811161500 METAR LRBS 161500Z 10007KT CAVOK 04/M02 Q1030 BECMG 5000
                        -SN BKN010 OVC030=
201811161530 METAR LRBS 161530Z 10007KT CAVOK 03/M01 Q1030 NOSIG=
201811161600 METAR LRBS 161600Z 10007KT 070V130 CAVOK 03/M00 Q1030 NOSIG=
201811161630 METAR LRBS 161630Z 11005KT CAVOK 02/M00 Q1030 NOSIG=
201811161700 METAR LRBS 161700Z 10005KT CAVOK 03/M00 Q1031 NOSIG=
201811161730 METAR LRBS 161730Z VRB02KT CAVOK 02/M00 Q1031 NOSIG=
201811161800 METAR LRBS 161800Z VRB01KT 9999 FEW015 02/M00 Q1031 BECMG
                        5000 -SN BKN015 OVC040=
201811161830 METAR LRBS 161830Z VRB01KT 9999 SCT015 SCT019 02/M00 Q1031
                        BECMG 07010KT 5000 -SN BKN015 OVC040=
201811161900 METAR LRBS 161900Z 09005KT 060V130 9999 SCT014 02/00 Q1032
                        BECMG 5000 -SN BKN015 OVC040=
201811161930 METAR COR LRBS 161930Z 09005KT 060V130 9999 -RA SCT013 SCT017
                        02/00 Q1032 BECMG 5000 -SN BKN015
                        OVC040=
201811162000 METAR LRBS 162000Z 07007KT 020V100 9999 -SN BKN013 02/00
                        Q1032 BECMG 5000 -SN BKN010 OVC040=
201811162030 METAR LRBS 162030Z 05008KT 010V090 9000 -SN BKN011 SCT014
                        02/00 Q1032 BECMG 5000 -SN BKN010
                        OVC040=
201811162100 METAR LRBS 162100Z 04008KT 010V070 8000 -SN SCT009 SCT012
                        01/00 Q1032 NOSIG=
201811162130 METAR LRBS 162130Z 05009KT 010V090 9999 -SN BKN010 01/01
                        Q1032 NOSIG=
201811162200 METAR LRBS 162200Z 05010KT 010V080 9999 BKN010 01/00 Q1032
                        NOSIG=
201811162230 METAR LRBS 162230Z 04010KT 010V070 7000 -SN BKN009 01/00
                        Q1032 NOSIG=
201811162300 METAR LRBS 162300Z 04009G19KT 010V070 5000 -SN BR BKN007
                        00/M00 Q1032 NOSIG=
201811162330 METAR LRBS 162330Z 04010KT 360V070 9999 -SN BKN009 BKN020
                        M00/M01 Q1032 NOSIG=
201811170000 METAR COR LRBS 170000Z 04009KT 010V070 6000 -SN SCT009 OVC023
                        M00/M01 Q1032 NOSIG=
201811170030 METAR COR LRBS 170030Z 05008KT 010V090 5000 -SN FEW008 OVC030
                        M00/M00 Q1032 NOSIG=
201811170100 METAR LRBS 170100Z 05008KT 010V090 5000 -SN BR FEW008 OVC030
                        M00/M00 Q1032 NOSIG=
201811170130 METAR LRBS 170130Z 05009KT 020V080 4500 -SN BR SCT009 OVC030
                        M00/M00 Q1032 TEMPO BKN010 OVC030=
201811170200 METAR LRBS 170200Z 06008KT 020V090 8000 -SN BKN008 OVC032
                        00/M00 Q1032 NOSIG=
201811170230 METAR COR LRBS 170230Z 05009KT 010V080 9999 -SN FEW009 BKN042
                        00/M01 Q1032 NOSIG=
201811170300 METAR LRBS 170300Z 05010KT 020V090 9999 -SN FEW011 OVC047
                        00/M01 Q1032 NOSIG=
201811170330 METAR LRBS 170330Z 06011KT 020V080 9999 FEW012 01/M01 Q1032
                        NOSIG=
201811170400 METAR LRBS 170400Z 05011KT 020V080 9999 -SN OVC047 01/M01
                        Q1032 NOSIG=
201811170430 METAR LRBS 170430Z 06011KT 9999 -SN BKN045 01/M01 Q1032 NOSIG=
201811170500 METAR LRBS 170500Z 05011KT 020V090 9999 OVC045 01/M02 Q1032
                        R07/19//95 NOSIG=
201811170530 METAR LRBS 170530Z 05010KT 010V080 9999 FEW041 SCT045 01/M01
                        Q1033 R07/19//95 NOSIG=
201811170600 METAR LRBS 170600Z 05011KT 020V080 9999 FEW014 BKN038 01/M01
                        Q1033 R07/19//95 NOSIG=
201811170630 METAR LRBS 170630Z 05012KT 020V090 9999 SCT012 OVC038 01/M01
                        Q1033 R07/19//95 NOSIG=
201811170700 METAR LRBS 170700Z 05013KT 010V080 9999 SCT013 BKN038 01/M01
                        Q1033 R07/19//95 NOSIG=
201811170730 METAR LRBS 170730Z 05014KT 020V090 9999 SCT014 BKN038 01/M01
                        Q1033 R07/19//95 NOSIG=
201811170800 METAR LRBS 170800Z 05013KT 010V080 9999 SCT014 BKN037 01/M01
                        Q1033 R07/19//95 NOSIG=
201811170830 METAR LRBS 170830Z 05013KT 020V080 9999 -DZ FEW015 BKN036
                        01/M01 Q1033 R07/19//95 NOSIG=
201811170900 METAR LRBS 170900Z 05012KT 360V070 9999 BKN035 01/M01 Q1033
                        R07/19//95 NOSIG=
201811170930 METAR LRBS 170930Z 04012KT 360V080 9999 SCT037 02/M02 Q1033
                        R07/19//95 NOSIG=
201811171000 METAR LRBS 171000Z 05013KT 010V080 9999 SCT039 BKN047 02/M02
                        Q1033 R07/19//95 NOSIG=
201811171030 METAR LRBS 171030Z 04013KT 010V070 9999 FEW018 BKN039 BKN043
                        02/M02 Q1033 R07/19//95 NOSIG=
201811171100 METAR LRBS 171100Z 05011KT 020V090 9999 FEW018 OVC042 02/M02
                        Q1033 R07/19//95 NOSIG=
201811171130 METAR LRBS 171130Z 05013KT 9999 FEW018 OVC043 02/M02 Q1033
                        R07/19//95 NOSIG=
201811171200 METAR LRBS 171200Z 06012KT 020V090 9999 FEW017 BKN044 02/M01
                        Q1033 R07/19//95 NOSIG=
201811171230 METAR LRBS 171230Z 05012KT 020V090 9999 FEW017 OVC046 02/M01
                        Q1033 R07/19//95 NOSIG=
201811171300 METAR LRBS 171300Z 05013KT 010V070 9999 FEW018 BKN044 02/M02
                        Q1033 R07/19//95 NOSIG=
201811171330 METAR LRBS 171330Z 06011KT 020V080 9999 -DZ FEW016 OVC046
                        02/M01 Q1033 R07/19//95 NOSIG=
201811171400 METAR LRBS 171400Z 06012KT 020V100 9999 FEW018 OVC045 02/M02
                        Q1033 R07/19//95 NOSIG=
201811171430 METAR LRBS 171430Z 05014KT 020V080 9999 OVC044 02/M02 Q1033
                        R07/19//95 NOSIG=
201811171500 METAR LRBS 171500Z 05013KT 020V090 9999 BKN043 01/M02 Q1033
                        R07/19//95 NOSIG=
201811171530 METAR LRBS 171530Z 05014KT 020V080 9999 BKN045 01/M02 Q1033
                        R07/19//95 NOSIG=
201811171600 METAR LRBS 171600Z 05012KT 020V090 9999 BKN045 01/M03 Q1033
                        R07/19//95 NOSIG=
201811171630 METAR LRBS 171630Z 06011KT 010V090 9999 SCT045 01/M03 Q1033
                        R07/19//95 NOSIG=
201811171700 METAR LRBS 171700Z 06010KT CAVOK 01/M03 Q1033 R07/19//95
                        NOSIG=
201811171730 METAR LRBS 171730Z 06011KT CAVOK 01/M03 Q1033 R07/19//95
                        NOSIG=
201811171800 METAR LRBS 171800Z 05012KT 020V080 9999 FEW045 01/M03 Q1033
                        R07/19//95 NOSIG=
201811171830 METAR LRBS 171830Z 05010KT 020V080 9999 FEW045 01/M03 Q1033
                        R07/19//95 NOSIG=
201811171900 METAR LRBS 171900Z 06010KT 030V090 CAVOK 01/M03 Q1033 R07/19//95
                        NOSIG=
201811171930 METAR LRBS 171930Z 05009KT CAVOK 01/M03 Q1033 R07/19//95
                        NOSIG=
201811172000 METAR LRBS 172000Z 06009KT 020V080 9999 SCT028 01/M03 Q1033
                        R07/19//95 NOSIG=
201811172030 METAR LRBS 172030Z 06009KT 9999 OVC028 01/M02 Q1033 R07/19//95
                        NOSIG=
201811172100 METAR LRBS 172100Z 05009KT 360V090 9999 SCT027 01/M03 Q1033
                        R07/19//95 NOSIG=
201811172130 METAR LRBS 172130Z 05007KT 020V090 9999 SCT027 BKN046 01/M03
                        Q1033 R07/19//95 NOSIG=
201811172200 METAR COR LRBS 172200Z 05006KT 010V090 9999 SCT027 BKN046
                        01/M03 Q1033 R07/19//95 NOSIG=
201811172230 METAR LRBS 172230Z 06008KT 020V090 9999 FEW026 01/M03 Q1033
                        R07/19//95 NOSIG=
201811172300 METAR LRBS 172300Z 06007KT 040V100 9999 SCT026 01/M03 Q1033
                        R07/19//95 NOSIG=
201811172330 METAR LRBS 172330Z 07007KT 020V100 9999 OVC027 01/M03 Q1032
                        R07/19//95 NOSIG=
201811180000 METAR LRBS 180000Z 06008KT 020V090 9999 SCT027 00/M03 Q1032
                        R07/19//95 NOSIG=
201811180030 METAR LRBS 180030Z 06007KT 9999 FEW029 00/M03 Q1032 R07/19//95
                        NOSIG=
201811180100 METAR LRBS 180100Z 06007KT 030V090 9999 FEW030 00/M03 Q1032
                        R07/19//95 NOSIG=
201811180130 METAR LRBS 180130Z 06007KT CAVOK 00/M03 Q1032 R07/19//95
                        NOSIG=
201811180200 METAR LRBS 180200Z 06007KT CAVOK 00/M02 Q1031 R07/19//95
                        NOSIG=
201811180230 METAR COR LRBS 180230Z 06007KT CAVOK 00/M02 Q1031 R07/19//95
                        NOSIG=
201811180300 METAR LRBS 180300Z 05007KT 030V090 CAVOK 00/M02 Q1031 R07/19//95
                        NOSIG=
201811180330 METAR COR LRBS 180330Z 06006KT CAVOK 00/M02 Q1031 R07/19//95
                        NOSIG=
201811180400 METAR LRBS 180400Z 07006KT CAVOK 00/M02 Q1031 R07/19//95
                        NOSIG=
201811180430 METAR LRBS 180430Z 07009KT CAVOK 00/M02 Q1030 R07/19//95
                        NOSIG=
201811180500 METAR LRBS 180500Z 07008KT 9000 FEW013 M00/M02 Q1030 R07/19//95
                        NOSIG=
201811180530 METAR LRBS 180530Z 06007KT 8000 FEW011 M00/M02 Q1030 R07/19//95
                        NOSIG=
201811180600 METAR LRBS 180600Z 07007KT 050V110 8000 SCT011 M00/M02 Q1030
                        R07/19//95 NOSIG=
201811180630 METAR LRBS 180630Z 07008KT 7000 BKN010 M00/M02 Q1030 R07/19//95
                        NOSIG=
201811180700 METAR LRBS 180700Z 06009KT 8000 OVC009 00/M01 Q1030 R07/19//95
                        NOSIG=
201811180730 METAR LRBS 180730Z 07010KT 040V100 8000 OVC009 01/M01 Q1030
                        R07/19//95 NOSIG=
201811180800 METAR LRBS 180800Z 07010KT 9000 OVC010 01/M01 Q1029 R07/19//95
                        NOSIG=
201811180830 METAR LRBS 180830Z 08010KT 8000 OVC010 01/M01 Q1029 R07/19//95
                        NOSIG=
201811180900 METAR LRBS 180900Z 07008KT 040V100 8000 OVC009 01/M01 Q1029
                        R07/19//95 NOSIG=
201811180930 METAR LRBS 180930Z 09007KT 9000 OVC010 01/M02 Q1029 R07/19//95
                        NOSIG=
201811181000 METAR LRBS 181000Z 07006KT 040V100 9000 OVC011 01/M01 Q1028
                        R07/19//95 NOSIG=
201811181030 METAR LRBS 181030Z 06007KT 030V090 9000 OVC011 01/M01 Q1027
                        R07/19//95 NOSIG=
201811181100 METAR LRBS 181100Z 04005KT 360V090 9999 OVC012 01/M01 Q1027
                        R07/19//95 NOSIG=
201811181130 METAR LRBS 181130Z 05008KT 020V090 9999 OVC012 01/M01 Q1026
                        R07/19//95 NOSIG=
201811181200 METAR LRBS 181200Z 04005KT 360V060 9000 OVC012 01/M01 Q1026
                        R07/19//95 NOSIG=
201811181230 METAR LRBS 181230Z 04007KT 360V070 9999 OVC012 01/M01 Q1025
                        R07/19//95 NOSIG=
201811181300 METAR LRBS 181300Z 04007KT 010V070 9000 OVC012 01/M01 Q1024
                        R07/19//95 NOSIG=
201811181330 METAR LRBS 181330Z 04007KT 9000 OVC012 01/M01 Q1024 R07/19//95
                        NOSIG=
201811181400 METAR LRBS 181400Z 05007KT 010V090 8000 BKN011 01/M01 Q1024
                        R07/19//95 TEMPO 5000 BR=
201811181430 METAR LRBS 181430Z 06006KT 8000 OVC012 01/M01 Q1024 R07/19//95
                        TEMPO 5000 BR=
201811181500 METAR LRBS 181500Z 06007KT 8000 OVC011 01/M01 Q1023 R07/19//95
                        TEMPO 5000 BR=
201811181530 METAR LRBS 181530Z 05006KT 350V070 8000 BKN012 01/M01 Q1023
                        R07/19//95 TEMPO 5000 BR=
201811181600 METAR LRBS 181600Z 05007KT 010V090 8000 BKN012 01/M01 Q1022
                        R07/19//95 TEMPO 5000 BR=
201811181630 METAR LRBS 181630Z 05007KT 8000 OVC012 01/M01 Q1022 R07/CLRD//
                        TEMPO 5000 BR=
201811181700 METAR LRBS 181700Z 06008KT 9999 OVC012 02/M00 Q1022 TEMPO
                        5000 BR=
201811181730 METAR LRBS 181730Z 07009KT 9999 BKN011 BKN045 02/M00 Q1022
                        BECMG 5000 SN=
201811181800 METAR LRBS 181800Z 08008KT 9999 BKN011 BKN043 01/M00 Q1022
                        BECMG 5000 SN=
201811181830 METAR LRBS 181830Z 08008KT 050V110 9999 OVC011 01/M00 Q1022
                        BECMG 5000 SN=
201811181900 METAR LRBS 181900Z 07009KT 040V100 9000 BKN011 BKN028 01/M00
                        Q1021 BECMG 5000 SN=
201811181930 METAR LRBS 181930Z 06010KT 9000 -DZ FEW011 SCT033 01/M01
                        Q1021 BECMG 5000 SN=
201811182000 METAR LRBS 182000Z 06010KT 030V090 4000 -SN OVC030 01/M00
                        Q1020 BECMG 3000 SN=
201811182030 METAR COR LRBS 182030Z 05010KT 1500 -SN BR SCT009 OVC024
                        01/00 Q1020 R07/19//95 TEMPO 0800
                        +SN=
201811182100 METAR LRBS 182100Z 06008KT 0800 R07/1400D R25/1300 SN FG
                        BKN005 OVC018 00/00 Q1020 R07/19//95
                        TEMPO 0600 +SN BKN002 OVC015=
201811182130 METAR COR LRBS 182130Z 05007KT 020V090 0600 R07/1100D R25/1100D
                        SN=
201811182200 METAR COR LRBS 182200Z 05007KT 010V090 0800 R07/1200N R25/1300N
                        SN=
201811182230 METAR COR LRBS 182230Z 04009KT 010V070 0800 R07/1400U R25/1400N
                        SN=
201811182300 METAR LRBS 182300Z 04010KT 350V070 0700 R07/1300N R25/1300N
                        SN FZFG BKN004 OVC010 M00/M00 Q1018
                        R07/590394 BECMG 07020G30KT 0600
                        +SN BLSN=
201811182330 METAR LRBS 182330Z 04011KT 360V070 0800 R07/1500D R25/1500D
                        SN FZFG BKN005 OVC008 M00/M00 Q1017
                        R07/590394 NOSIG=
201811190000 METAR COR LRBS 190000Z 04011KT 350V060 0800 R07/1500N R25/1400U
                        SN=
201811190030 METAR LRBS 190030Z 04011KT 010V070 0800 R07/1500N R25/1500D
                        SN FZFG OVC005 M00/M00 Q1016 R07/590394
                        NOSIG=
201811190100 METAR LRBS 190100Z 04012KT 010V080 0800 R07/1200N R25/1200D
                        SN FZFG BKN004 OVC007 M00/M00 Q1016
                        R07/590394 TEMPO 0600 +SN=
201811190130 METAR LRBS 190130Z 04012KT 010V070 0700 R07/1200D R25/1100D
                        +SN BLSN BKN004 OVC007 M00/M00 Q1015
                        R07/590394 NOSIG=
201811190200 METAR LRBS 190200Z 04015KT 0500 R07/1200N R25/1100N +SN BLSN
                        BKN004 OVC006 M00/M00 Q1014 R07/590394
                        NOSIG=
201811190230 METAR LRBS 190230Z 04014KT 010V070 0700 R07/1400N R25/1300N
                        +SN BLSN BKN004 OVC006 M00/M00 Q1014
                        R07/590394 BECMG 1500 SN=
201811190300 METAR LRBS 190300Z 04017KT 010V070 1800 -SN BLSN BKN005 OVC019
                        M00/M00 Q1013 RESN R07/590394 BECMG
                        3000 -SN BR=
201811190330 METAR LRBS 190330Z 02018KT 340V060 5000 -SN BKN006 BKN014
                        OVC030 00/M00 Q1012 R07/590394 NOSIG=
201811190400 METAR LRBS 190400Z 02014KT 350V060 5000 RASN SCT005 BKN007
                        OVC026 00/M00 Q1012 R07/520195 TEMPO
                        3000 -FZRA=
201811190430 METAR LRBS 190430Z 02016KT 350V060 5000 FZRA OVC007 00/00
                        Q1012 R07/520195 TEMPO 03025G35KT
                        3000 FZRA=
201811190500 METAR LRBS 190500Z 03013KT 360V060 6000 -RA OVC007 01/00
                        Q1011 R07/520195 NOSIG=
201811190530 METAR LRBS 190530Z 03014G24KT 350V070 5000 -RA OVC007 01/01
                        Q1011 R07/520195 NOSIG=
201811190600 METAR LRBS 190600Z 03008KT 300V090 5000 -RA BR BKN007 OVC010
                        01/01 Q1012 R07/520195 NOSIG=
201811190630 METAR LRBS 190630Z 01004KT 300V060 3000 -RA BR BKN006 OVC008
                        01/01 Q1013 R07/520195 NOSIG=
201811190700 METAR LRBS 190700Z 01003KT 320V050 2000 -RA BR FEW006 SCT009
                        OVC015 01/01 Q1013 R07/520195 NOSIG=
201811190730 METAR LRBS 190730Z VRB01KT 2700 -RA BR SCT006 BKN012 OVC015
                        01/01 Q1013 R07/520195 BECMG 27010KT=
201811190800 METAR COR LRBS 190800Z 00000KT 3000 -RA BR BKN012 OVC019
                        01/01 Q1013 R07/29//95 BECMG 27010KT=
201811190830 METAR LRBS 190830Z 26003KT 3000 -RA BR FEW003 BKN005 OVC009
                        01/01 Q1013 R07/29//95 BECMG 27010KT=
201811190900 METAR LRBS 190900Z 26006KT 2500 -RA BR BKN003 OVC012 01/01
                        Q1014 R07/29//95 NOSIG=
201811190930 METAR LRBS 190930Z 24010KT 1800 -RA BR BKN003 OVC017 01/01
                        Q1014 R07/29//95 NOSIG=
201811191000 METAR LRBS 191000Z 25010KT 2500 -RA BR BKN003 OVC013 01/01
                        Q1014 R07/29//95 NOSIG=
201811191030 METAR LRBS 191030Z 27009KT 240V300 8000 BKN004 BKN013 OVC025
                        01/01 Q1014 R07/29//95 NOSIG=
201811191100 METAR LRBS 191100Z 27009KT 240V300 9999 BKN005 OVC028 02/02
                        Q1014 R07/29//95 NOSIG=
201811191130 METAR LRBS 191130Z 27008KT 240V300 9999 SCT006 OVC033 02/02
                        Q1014 R07/29//95 NOSIG=
201811191200 METAR LRBS 191200Z 27009KT 240V300 8000 OVC019 02/02 Q1014
                        R07/29//95 NOSIG=
201811191230 METAR LRBS 191230Z 27008KT 8000 FEW006 SCT022 BKN028 02/02
                        Q1014 R07/29//95 NOSIG=
201811191300 METAR LRBS 191300Z 27008KT 9999 FEW006 BKN024 03/02 Q1014
                        R07/29//95 NOSIG=
201811191330 METAR LRBS 191330Z 26008KT 9999 BKN026 BKN042 03/03 Q1014
                        R07/29//95 NOSIG=
201811191400 METAR LRBS 191400Z 27008KT 9999 SCT027 BKN034 03/03 Q1015
                        R07/29//95 NOSIG=
201811191430 METAR LRBS 191430Z 27007KT 240V300 9999 SCT036 SCT049 03/03
                        Q1015 R07/29//95 NOSIG=
201811191500 METAR LRBS 191500Z 26008KT 9999 SCT044 02/02 Q1016 R07/19//95
                        NOSIG=
201811191530 METAR LRBS 191530Z 26009KT 230V300 9999 FEW048 02/02 Q1016
                        R07/19//95 NOSIG=
201811191600 METAR LRBS 191600Z 27007KT 240V300 9999 FEW049 02/01 Q1017
                        R07/19//95 NOSIG=
201811191630 METAR LRBS 191630Z 27005KT 240V300 CAVOK 02/01 Q1017 R07/19//95
                        NOSIG=
201811191700 METAR LRBS 191700Z 25007KT 9000 NSC 01/01 Q1017 R07/19//95
                        BECMG 5000 BR=
201811191730 METAR LRBS 191730Z 26007KT 6000 NSC 01/01 Q1018 R07/19//95
                        BECMG 5000 BR=
201811191800 METAR LRBS 191800Z 25006KT 4000 BR BKN004 01/01 Q1018 R07/19//95
                        NOSIG=
201811191830 METAR LRBS 191830Z 25006KT 4000 BR BKN004 01/01 Q1018 R07/19//95
                        NOSIG=
201811191900 METAR LRBS 191900Z 26010KT 3000 BR BKN003 01/00 Q1019 R07/19//95
                        NOSIG=
201811191930 METAR LRBS 191930Z 25010KT 3500 BR OVC004 00/00 Q1019 R07/19//95
                        NOSIG=
201811192000 METAR LRBS 192000Z 26009KT 5000 BR BKN004 00/M00 Q1019 R07/19//95
                        NOSIG=
201811192030 METAR LRBS 192030Z 26008KT 3500 BR BKN003 M00/M00 Q1020 R07/19//95
                        NOSIG=
201811192100 METAR LRBS 192100Z 27007KT 240V310 3000 BR OVC003 M00/M01
                        Q1020 R07/19//95 NOSIG=
201811192130 METAR LRBS 192130Z 26007KT 3000 BR OVC002 M00/M01 Q1020 R07/19//95
                        BECMG 1500 BR=
201811192200 METAR LRBS 192200Z 24007KT 0800 R07/1700D R25/1700 FZFG OVC002
                        M00/M01 Q1020 R07/19//95 BECMG 0600
                        FZFG=
201811192230 METAR LRBS 192230Z 24007KT 0600 R07/1300 R25/1700 FZFG OVC001
                        M01/M01 Q1021 R07/19//95 NOSIG=
201811192300 METAR LRBS 192300Z 24005KT 200V260 0450 R07/0650 R25/0800D
                        FZFG VV001 M01/M01 Q1021 R07/19//95
                        NOSIG=
201811192330 METAR LRBS 192330Z 23005KT 0300 R07/0550N R25/0600N FZFG
                        VV001 M01/M01 Q1021 R07/19//95 TEMPO
                        0150 FZFG=
201811200000 METAR LRBS 200000Z VRB02KT 0350 R07/0550 R25/0550N FZFG VV001
                        M01/M01 Q1021 R07/19//95 TEMPO 0150
                        FZFG=
201811200030 METAR LRBS 200030Z 00000KT 0300 R07/0600N R25/0600N FZFG
                        VV002 M01/M01 Q1021 R07/19//95 TEMPO
                        0150 FZFG=
201811200100 METAR LRBS 200100Z VRB02KT 0300 R07/0500N R25/0500N FZFG
                        VV002 M01/M01 Q1022 R07/19//95 TEMPO
                        0150 FZFG=
201811200130 METAR LRBS 200130Z 07004KT 040V100 0300 R07/0500N R25/0550N
                        FZFG VV001 M01/M01 Q1022 R07/19//95
                        NOSIG=
201811200200 METAR LRBS 200200Z VRB02KT 0250 R07/0500N R25/0450N FZFG
                        VV002 M01/M01 Q1022 R07/19//95 TEMPO
                        0150 FZFG=
201811200230 METAR LRBS 200230Z 09003KT 040V140 0250 R07/0500N R25/0600N
                        FZFG VV001 M01/M01 Q1022 R07/19//95
                        TEMPO 0150 FZFG=
201811200300 METAR LRBS 200300Z 04003KT 010V090 0200 R07/0500N R25/0450N
                        FZFG VV001 M01/M01 Q1022 R07/19//95
                        NOSIG=
201811200330 METAR LRBS 200330Z 03002KT 0200 R07/0400N R25/0400N FZFG
                        VV001 M01/M01 Q1022 R07/19//95 NOSIG=
201811200400 METAR LRBS 200400Z 04004KT 0350 R07/0800 R25/0700 FZFG VV002
                        M01/M01 Q1022 R07/19//95 NOSIG=
201811200430 METAR LRBS 200430Z 07004KT 0600 R07/0900 R25/1000 FZFG VV001
                        M00/M01 Q1022 R07/19//95 BECMG 0800
                        VV002=
201811200500 METAR LRBS 200500Z 08005KT 0350 R07/0650N R25/0500N FZFG
                        VV002 M00/M00 Q1022 R07/19//95 NOSIG=
201811200530 METAR LRBS 200530Z 07004KT 0500 R07/0400N R25/0500N FZFG
                        VV002 M00/M00 Q1023 R07/19//95 BECMG
                        0600=
201811200600 METAR LRBS 200600Z 07007KT 0500 R07/1000U R25/1300N FZFG
                        VV002 M00/M00 Q1023 R07/19//95 BECMG
                        0600=
201811200630 METAR COR LRBS 200630Z 07006KT 0900 R07/1500U R25/1700D FZFG
                        FEW001 OVC002 M00/M00 Q1024 R07/19//95
                        BECMG 1500 BR=
201811200700 METAR LRBS 200700Z 08006KT 1500 R07/1500D R25/1800D FZFG
                        FEW001 BKN002 M00/M00 Q1024 R07/19//95
                        BECMG 3000=
201811200730 METAR COR LRBS 200730Z 06006KT 0400 R07/0550N R25/0550N FG
                        OVC001 00/00 Q1024 R07/19//95 NOSIG=
201811200800 METAR LRBS 200800Z 07007KT 1000 R07/1200U R25/0400N BR OVC001
                        00/00 Q1024 R07/19//95 BECMG 1500
                        OVC002=
201811200830 METAR LRBS 200830Z 06005KT 0800 R07/0800N R25/1300U FG OVC002
                        00/00 Q1024 R07/19//95 NOSIG=
201811200900 METAR LRBS 200900Z 06009KT 3000 BR FEW001 OVC003 00/00 Q1024
                        R07/19//95 BECMG 5000 OVC005=
201811200930 METAR LRBS 200930Z 06008KT 4400 BR OVC003 00/00 Q1024 R07/19//95
                        BECMG 5000 OVC005=
201811201000 METAR LRBS 201000Z 07006KT 5000 BR OVC004 01/00 Q1024 R07/19//95
                        BECMG OVC005=
201811201030 METAR LRBS 201030Z 08007KT 050V110 5000 BR BKN005 01/01 Q1023
                        R07/19//95 NOSIG=
201811201100 METAR LRBS 201100Z 10005KT 060V130 5000 OVC006 01/01 Q1023
                        R07/19//95 NOSIG=
201811201130 METAR COR LRBS 201130Z 07005KT 5000 BR SCT007 BKN010 01/01
                        Q1023 R07/19//95 NOSIG=
201811201200 METAR LRBS 201200Z 05005KT 5000 BR FEW007 BKN012 02/01 Q1023
                        R07/19//95 NOSIG=
201811201230 METAR LRBS 201230Z 04004KT 5000 -RA BR OVC013 02/02 Q1022
                        R07/19//95 NOSIG=
201811201300 METAR LRBS 201300Z 04005KT 4700 -RA BR FEW009 SCT012 02/02
                        Q1022 R07/19//95 NOSIG=
201811201330 METAR COR LRBS 201330Z 04004KT 010V070 4000 -RA BR FEW009
                        BKN012 02/02 Q1022 R07/19//95 NOSIG=
201811201400 METAR LRBS 201400Z 03005KT 360V070 4000 -RA BR BKN011 02/02
                        Q1022 R07/19//95 NOSIG=
201811201430 METAR LRBS 201430Z 06005KT 3000 -DZ BR OVC011 02/02 Q1022
                        R07/19//95 NOSIG=
201811201500 METAR LRBS 201500Z 07011KT 4200 -DZ BR SCT009 OVC048 02/02
                        Q1022 R07/19//95 NOSIG=
201811201530 METAR LRBS 201530Z 07012KT 5000 -DZ BR SCT008 OVC048 02/02
                        Q1021 R07/19//95 NOSIG=
201811201600 METAR LRBS 201600Z 07012KT 5000 BR BKN008 02/02 Q1021 R07/19//95
                        NOSIG=
201811201630 METAR LRBS 201630Z 08011KT 5000 BR OVC008 02/02 Q1022 R07/19//95
                        NOSIG=
201811201700 METAR LRBS 201700Z 08011KT 5000 BR SCT008 BKN014 02/02 Q1022
                        R07/19//95 NOSIG=
201811201730 METAR LRBS 201730Z 07012KT 5000 -RA BR FEW008 BKN015 OVC036
                        02/02 Q1022 R07/19//95 NOSIG=
201811201800 METAR LRBS 201800Z 06010KT 3000 -DZ BR OVC008 02/02 Q1022
                        R07/19//95 NOSIG=
201811201830 METAR LRBS 201830Z 06012KT 030V090 3000 -DZ BR OVC007 02/02
                        Q1022 R07/19//95 NOSIG=
201811201900 METAR LRBS 201900Z 06013KT 3000 -DZ BR OVC007 02/01 Q1022
                        R07/19//95 NOSIG=
201811201930 METAR LRBS 201930Z 06011KT 2000 -DZ BR FEW004 SCT007 BKN014
                        01/01 Q1022 R07/19//95 NOSIG=
201811202000 METAR LRBS 202000Z 05012KT 020V080 2000 -RA BR OVC004 01/01
                        Q1022 R07/19//95 NOSIG=
201811202030 METAR COR LRBS 202030Z 05012KT 020V080 2000 -RA BR OVC004
                        01/01 Q1022 R07/19//95 NOSIG=
201811202100 METAR LRBS 202100Z 05012KT 010V070 3000 -RA BR OVC005 01/01
                        Q1022 R07/19//95 NOSIG=
201811202130 METAR LRBS 202130Z 05013KT 020V090 3000 -RA BR OVC005 01/01
                        Q1021 R07/19//95 NOSIG=
201811202200 METAR LRBS 202200Z 06014KT 020V080 3000 -RA BR OVC005 01/01
                        Q1021 R07/19//95 NOSIG=
201811202230 METAR LRBS 202230Z 05014KT 010V090 3000 -RA BR OVC005 01/01
                        Q1021 R07/29//95 NOSIG=
201811202300 METAR LRBS 202300Z 05013KT 020V080 3000 -RA BR OVC005 01/01
                        Q1021 R07/29//95 NOSIG=
201811202330 METAR LRBS 202330Z 05012KT 020V090 3500 -RA BR OVC005 01/01
                        Q1021 R07/29//95 NOSIG=
201811210000 METAR COR LRBS 210000Z 05014KT 3500 -RA BR OVC005 01/01 Q1020
                        R07/29//95 NOSIG=
201811210030 METAR LRBS 210030Z 05014KT 3500 -RA BR OVC005 01/01 Q1020
                        R07/29//95 NOSIG=
201811210100 METAR LRBS 210100Z 05012KT 020V080 3000 -RA BR OVC005 01/01
                        Q1020 R07/29//95 NOSIG=
201811210130 METAR COR LRBS 210130Z 05012KT 360V090 3500 -RA BR OVC005
                        01/01 Q1020 R07/29//95 NOSIG=
201811210200 METAR LRBS 210200Z 05013KT 360V080 3500 -RA BR OVC005 01/01
                        Q1020 R07/29//95 NOSIG=
201811210230 METAR LRBS 210230Z 05012KT 010V070 3000 -RA BR OVC005 01/01
                        Q1019 R07/29//95 NOSIG=
201811210300 METAR LRBS 210300Z 05013KT 010V080 3000 -RA BR OVC004 01/01
                        Q1019 R07/29//95 NOSIG=
201811210330 METAR LRBS 210330Z 05014KT 020V080 3500 -RA BR OVC004 01/01
                        Q1019 R07/29//95 NOSIG=
201811210400 METAR LRBS 210400Z 05014KT 4000 -DZRA BR OVC004 01/01 Q1018
                        R07/29//95 NOSIG=
201811210430 METAR LRBS 210430Z 05013KT 020V080 5000 -DZRA BR OVC004 01/01
                        Q1019 R07/29//95 BECMG 3000 RADZ=
201811210500 METAR LRBS 210500Z 05013KT 020V080 3000 -DZRA BR OVC004 01/01
                        Q1018 R07/29//95 NOSIG=
201811210530 METAR LRBS 210530Z 04012KT 010V100 2000 -RA BR OVC004 01/01
                        Q1018 R07/29//95 NOSIG=
201811210600 METAR LRBS 210600Z 05014KT 010V090 1500 -RA BR OVC004 01/01
                        Q1018 R07/29//95 NOSIG=
201811210630 METAR LRBS 210630Z 05014KT 1500 -RA BR OVC003 01/01 Q1018
                        R07/29//95 NOSIG=
201811210700 METAR LRBS 210700Z 05015KT 360V070 1400 R07/1900D R25/P2000
                        -RA BR OVC003 01/01 Q1018 R07/29//95
                        NOSIG=
201811210730 METAR LRBS 210730Z 04014KT 360V070 1500 -RA BR OVC003 01/01
                        Q1018 R07/29//95 NOSIG=
201811210800 METAR LRBS 210800Z 05012KT 010V080 1200 R07/P2000 R25/P2000
                        BR OVC003 01/01 Q1019 R07/29//95
                        NOSIG=
201811210830 METAR LRBS 210830Z 04015KT 020V080 1100 R07/1400U R25/P2000
                        BR OVC003 01/01 Q1019 R07/29//95
                        NOSIG=
201811210900 METAR LRBS 210900Z 04014KT 010V070 1100 R07/1800U R25/P2000
                        -DZRA BR OVC003 01/01 Q1019 R07/29//95
                        TEMPO 06017G27KT 1500=
201811210930 METAR LRBS 210930Z 04014KT 010V070 1200 R07/1900D R25/P2000
                        -DZRA BR OVC003 01/01 Q1018 R07/29//95
                        TEMPO 06017G27KT 1500=
201811211000 METAR COR LRBS 211000Z 04013KT 360V070 1500 -RA BR OVC004
                        01/01 Q1018 R07/29//95 NOSIG=
201811211030 METAR LRBS 211030Z 04014KT 360V090 2000 -RA BR OVC005 01/01
                        Q1018 R07/29//95 NOSIG=
201811211100 METAR LRBS 211100Z 03014KT 2000 -DZ BR OVC005 01/01 Q1018
                        R07/29//95 NOSIG=
201811211130 METAR LRBS 211130Z 04013KT 010V070 1800 -DZRA BR OVC004 02/01
                        Q1018 R07/29//95 NOSIG=
201811211200 METAR LRBS 211200Z 04013KT 010V070 4000 -DZ BR OVC005 02/02
                        Q1018 R07/29//95 NOSIG=
201811211230 METAR LRBS 211230Z 04014KT 010V080 3000 -DZRA BR OVC005 02/02
                        Q1018 R07/29//95 NOSIG=
201811211300 METAR LRBS 211300Z 04014KT 010V070 3000 -RA BR OVC005 02/02
                        Q1018 R07/29//95 NOSIG=
201811211330 METAR LRBS 211330Z 03014KT 350V070 2000 -RA BR OVC005 02/02
                        Q1018 R07/29//95 NOSIG=
201811211400 METAR LRBS 211400Z 04014KT 360V080 2000 -DZRA BR OVC004 02/02
                        Q1018 R07/29//95 NOSIG=
201811211430 METAR LRBS 211430Z 04014KT 010V080 2000 -DZRA BR OVC005 02/02
                        Q1018 R07/29//95 NOSIG=
201811211500 METAR LRBS 211500Z 04015KT 010V080 1500 -DZRA BR OVC005 02/02
                        Q1018 R07/29//95 NOSIG=
201811211530 METAR LRBS 211530Z 04014KT 010V070 3000 -RA BR OVC005 02/01
                        Q1019 R07/29//95 NOSIG=
201811211600 METAR LRBS 211600Z 04015KT 360V070 1500 -RA BR BKN004 OVC006
                        02/01 Q1019 R07/29//95 NOSIG=
201811211630 METAR LRBS 211630Z 04014KT 360V070 2500 -RA BR BKN004 OVC006
                        02/01 Q1019 R07/29//95 NOSIG=
201811211700 METAR LRBS 211700Z 04014KT 010V070 3000 -RA BR BKN005 OVC015
                        02/01 Q1019 R07/29//95 NOSIG=
201811211730 METAR LRBS 211730Z 04014KT 360V070 7000 -RA OVC008 02/01
                        Q1020 R07/29//95 NOSIG=
201811211800 METAR LRBS 211800Z 04012KT 360V070 8000 -RA BKN008 OVC010
                        02/01 Q1020 R07/29//95 NOSIG=
201811211830 METAR COR LRBS 211830Z 04012KT 010V070 9000 -RA OVC008 02/01
                        Q1020 R07/29//95 NOSIG=
201811211900 METAR LRBS 211900Z 04012KT 350V070 9000 -RA BKN008 01/01
                        Q1021 R07/29//95 NOSIG=
201811211930 METAR LRBS 211930Z 04012KT 010V090 9999 -RASN BKN008 OVC017
                        01/01 Q1021 R07/29//95 NOSIG=
201811212000 METAR LRBS 212000Z 04011KT 010V070 9999 -RASN BKN007 OVC023
                        01/01 Q1021 R07/29//95 NOSIG=
201811212030 METAR LRBS 212030Z 04012KT 9999 -RASN BKN008 OVC023 01/01
                        Q1021 R07/29//95 NOSIG=
201811212100 METAR COR LRBS 212100Z 04013KT 360V070 8000 -SN SCT007 OVC020
                        01/01 Q1021 R07/29//95 BECMG 5000
                        -SN BKN005 OVC020=
201811212130 METAR LRBS 212130Z 04011KT 360V070 4800 -SN BR OVC007 01/01
                        Q1021 R07/29//95 TEMPO 3000 -SN BR=
201811212200 METAR COR LRBS 212200Z 04011KT 360V070 9000 -SN BKN007 01/01
                        Q1022 R07/29//95 NOSIG=
201811212230 METAR LRBS 212230Z 04012KT 360V090 9999 BKN008 01/01 Q1022
                        R07/29//95 NOSIG=
201811212300 METAR LRBS 212300Z 04012KT 010V070 9999 BKN008 01/01 Q1022
                        R07/29//95 NOSIG=
201811212330 METAR LRBS 212330Z 04011KT 010V090 9999 FEW008 OVC046 01/01
                        Q1022 R07/29//95 NOSIG=
201811220000 METAR LRBS 220000Z 04011KT 010V070 9000 -SN FEW009 BKN046
                        01/01 Q1022 R07/29//95 BECMG 5000
                        -SN=
201811220030 METAR LRBS 220030Z 04013KT 010V070 9999 FEW012 OVC048 01/01
                        Q1022 R07/29//95 BECMG 5000 -SN=
201811220100 METAR LRBS 220100Z 04011KT 010V070 9999 SCT040 01/01 Q1022
                        R07/29//95 NOSIG=
201811220130 METAR LRBS 220130Z 04011KT 010V090 9999 -SN SCT031 OVC043
                        01/00 Q1023 R07/29//95 NOSIG=
201811220200 METAR LRBS 220200Z 04011KT 010V070 9000 -SN OVC031 01/00
                        Q1023 R07/29//95 NOSIG=
201811220230 METAR LRBS 220230Z 04010KT 360V070 8000 -SN FEW010 BKN028
                        01/01 Q1023 R07/29//95 NOSIG=
201811220300 METAR LRBS 220300Z 04010KT 010V070 7000 -SN FEW007 BKN037
                        01/01 Q1023 R07/29//95 NOSIG=
201811220330 METAR LRBS 220330Z 05009KT 010V080 8000 -SN BKN008 OVC048
                        01/01 Q1023 R07/29//95 NOSIG=
201811220400 METAR LRBS 220400Z 04010KT 010V070 9000 -SN BKN009 OVC017
                        01/01 Q1023 R07/29//95 NOSIG=
201811220430 METAR LRBS 220430Z 04009KT 350V070 9000 FEW009 OVC016 01/01
                        Q1023 R07/29//95 NOSIG=
201811220500 METAR LRBS 220500Z 04010KT 360V080 8000 -SN SCT009 OVC015
                        01/00 Q1024 R07/29//95 NOSIG=
201811220530 METAR LRBS 220530Z 05009KT 360V070 4000 SN FEW010 OVC013
                        01/00 Q1024 R07/29//95 NOSIG=
201811220600 METAR LRBS 220600Z 05010KT 010V070 6000 -SN FEW010 OVC016
                        01/00 Q1024 RESN R07/29//95 NOSIG=
201811220630 METAR LRBS 220630Z 05009KT 7000 -SN FEW008 OVC015 01/00 Q1024
                        R07/29//95 NOSIG=
201811220700 METAR LRBS 220700Z 05008KT 010V090 4500 SN FEW010 OVC016
                        01/00 Q1025 R07/29//95 NOSIG=
201811220730 METAR LRBS 220730Z 05010KT 4000 SN BR SCT009 OVC016 01/01
                        Q1025 R07/29//95 NOSIG=
201811220800 METAR LRBS 220800Z 04010KT 5000 -SN BR SCT007 BKN016 OVC023
                        01/01 Q1025 R07/29//95 NOSIG=
201811220830 METAR LRBS 220830Z 04011KT 010V080 8000 -SN BKN008 BKN017
                        OVC028 01/01 Q1025 R07/29//95 NOSIG=
201811220900 METAR LRBS 220900Z 05009KT 020V080 8000 -SN SCT008 BKN018
                        BKN028 02/01 Q1025 R07/29//95 NOSIG=
201811220930 METAR LRBS 220930Z 04008KT 360V070 9000 SCT009 BKN020 OVC037
                        02/01 Q1025 R07/29//95 NOSIG=
201811221000 METAR LRBS 221000Z 04009KT 9000 SCT009 OVC029 02/01 Q1025
                        R07/29//95 NOSIG=
201811221030 METAR LRBS 221030Z 05010KT 9000 SCT010 BKN030 02/01 Q1025
                        R07/29//95 NOSIG=
201811221100 METAR LRBS 221100Z 05009KT 9999 SCT012 BKN037 FEW040CB 03/01
                        Q1025 R07/29//95 NOSIG=
201811221130 METAR LRBS 221130Z 06009KT 6000 -SN BKN011 OVC029 02/01 Q1025
                        R07/29//95 NOSIG=
201811221200 METAR LRBS 221200Z 05008KT 020V080 6000 -SN SCT008 OVC026
                        02/01 Q1025 R07/29//95 NOSIG=
201811221230 METAR LRBS 221230Z 06008KT 7000 -SN BKN008 OVC026 02/01 Q1025
                        R07/29//95 NOSIG=
201811221300 METAR LRBS 221300Z 04006KT 010V090 7000 -SN BKN009 OVC027
                        02/01 Q1025 R07/29//95 NOSIG=
201811221330 METAR LRBS 221330Z 05006KT 010V070 6000 -SN SCT009 OVC031
                        02/01 Q1025 R07/29//95 NOSIG=
201811221400 METAR LRBS 221400Z 07005KT 5000 -SN BR BKN007 OVC032 02/01
                        Q1025 R07/29//95 NOSIG=
201811221430 METAR LRBS 221430Z 07005KT 6000 SCT007 BKN021 BKN033 01/01
                        Q1025 R07/29//95 NOSIG=
201811221500 METAR LRBS 221500Z 06004KT 6000 BKN010 BKN022 OVC032 01/01
                        Q1025 R07/29//95 NOSIG=
201811221530 METAR LRBS 221530Z 08002KT 6000 FEW010 BKN023 OVC031 01/01
                        Q1025 R07/29//95 NOSIG=
201811221600 METAR LRBS 221600Z 08002KT 5000 BR FEW007 OVC024 02/01 Q1026
                        R07/29//95 NOSIG=
201811221630 METAR LRBS 221630Z 08002KT 5000 BR SCT008 OVC029 02/01 Q1026
                        R07/29//95 NOSIG=
201811221700 METAR LRBS 221700Z 09003KT 5000 BR BKN008 OVC028 02/01 Q1026
                        R07/29//95 NOSIG=
201811221730 METAR LRBS 221730Z 10002KT 7000 OVC025 02/01 Q1026 R07/29//95
                        NOSIG=
201811221800 METAR LRBS 221800Z 08001KT 7000 SCT009 BKN025 OVC030 02/01
                        Q1026 R07/29//95 NOSIG=
201811221830 METAR LRBS 221830Z 07002KT 6000 BKN010 OVC028 01/01 Q1026
                        R07/29//95 NOSIG=
201811221900 METAR LRBS 221900Z 08002KT 5000 BR SCT011 OVC027 01/01 Q1026
                        R07/29//95 NOSIG=
201811221930 METAR LRBS 221930Z 07002KT 6000 SCT008 OVC027 01/01 Q1026
                        R07/29//95 NOSIG=
201811222000 METAR COR LRBS 222000Z 09001KT 8000 BKN027 01/01 Q1026 R07/29//95
                        NOSIG=
201811222030 METAR LRBS 222030Z 00000KT 7000 FEW009 BKN026 01/01 Q1026
                        R07/29//95 NOSIG=
201811222100 METAR LRBS 222100Z 09003KT 8000 OVC026 01/01 Q1026 R07/29//95
                        NOSIG=
201811222130 METAR LRBS 222130Z 09002KT 8000 OVC025 01/00 Q1026 R07/29//95
                        NOSIG=
201811222200 METAR LRBS 222200Z 08001KT 7000 OVC024 01/00 Q1026 R07/29//95
                        NOSIG=
201811222230 METAR LRBS 222230Z 07002KT 6000 OVC023 01/01 Q1026 R07/29//95
                        NOSIG=
201811222300 METAR LRBS 222300Z 07002KT 6000 BKN022 01/01 Q1026 R07/29//95
                        NOSIG=
201811222330 METAR LRBS 222330Z 06002KT 6000 SCT013 BKN021 01/01 Q1026
                        R07/29//95 NOSIG=
201811230000 METAR LRBS 230000Z 05001KT 6000 BKN012 OVC020 01/01 Q1026
                        R07/29//95 NOSIG=
201811230030 METAR COR LRBS 230030Z 05001KT 8000 BKN012 OVC020 01/01 Q1026
                        R07/29//95 NOSIG=
201811230100 METAR LRBS 230100Z 00000KT 7000 SCT007 OVC020 02/01 Q1026
                        R07/29//95 NOSIG=
201811230130 METAR LRBS 230130Z 25003KT 5000 BR BKN006 OVC020 02/02 Q1026
                        R07/29//95 NOSIG=
201811230200 METAR COR LRBS 230200Z 24002KT 5000 BR OVC007 02/02 Q1026
                        R07/29//95 NOSIG=
201811230230 METAR LRBS 230230Z 24003KT 5000 BR OVC007 02/01 Q1026 R07/29//95
                        NOSIG=
201811230300 METAR LRBS 230300Z 24003KT 5000 BR OVC008 02/01 Q1027 R07/29//95
                        NOSIG=
201811230330 METAR LRBS 230330Z 25003KT 5000 BR OVC008 02/01 Q1027 R07/29//95
                        NOSIG=
201811230400 METAR LRBS 230400Z 25003KT 5000 BR BKN008 OVC018 02/00 Q1027
                        R07/19//95 NOSIG=
201811230430 METAR LRBS 230430Z 25001KT 8000 SCT008 OVC017 02/01 Q1027
                        R07/19//95 NOSIG=
201811230500 METAR LRBS 230500Z 23001KT 8000 FEW010 OVC015 02/01 Q1027
                        R07/19//95 NOSIG=
201811230530 METAR LRBS 230530Z 19002KT 8000 OVC016 02/00 Q1027 R07/19//95
                        NOSIG=
201811230600 METAR LRBS 230600Z VRB01KT 7000 OVC016 02/00 Q1028 R07/19//95
                        NOSIG=
201811230630 METAR LRBS 230630Z 06002KT 6000 OVC017 02/01 Q1028 R07/19//95
                        NOSIG=
201811230700 METAR LRBS 230700Z VRB01KT 8000 OVC017 02/01 Q1028 R07/19//95
                        NOSIG=
201811230730 METAR LRBS 230730Z VRB02KT 8000 OVC016 03/00 Q1028 R07/19//95
                        NOSIG=
201811230800 METAR LRBS 230800Z 21003KT 8000 OVC015 03/M00 Q1028 R07/19//95
                        NOSIG=
201811230830 METAR LRBS 230830Z VRB02KT 9000 OVC016 03/M00 Q1028 R07/19//95
                        NOSIG=
201811230900 METAR LRBS 230900Z 25003KT 180V310 9999 OVC016 04/M00 Q1029
                        R07/19//95 NOSIG=
201811230930 METAR LRBS 230930Z 23004KT 160V260 9999 OVC015 04/M00 Q1029
                        R07/19//95 NOSIG=
201811231000 METAR LRBS 231000Z 23003KT 180V270 9999 OVC014 04/00 Q1028
                        R07/19//95 NOSIG=
201811231030 METAR LRBS 231030Z VRB02KT 9000 BKN014 04/00 Q1028 R07/19//95
                        NOSIG=
201811231100 METAR LRBS 231100Z 26003KT 220V320 9000 BKN014 04/00 Q1028
                        R07/19//95 NOSIG=
201811231130 METAR LRBS 231130Z VRB01KT 9000 SCT013 BKN048 05/01 Q1028
                        R07/19//95 NOSIG=
201811231200 METAR LRBS 231200Z VRB01KT 9999 OVC048 05/01 Q1028 R07/19//95
                        NOSIG=
201811231230 METAR LRBS 231230Z VRB01KT 9000 BKN018 05/01 Q1028 R07/19//95
                        NOSIG=
201811231300 METAR LRBS 231300Z VRB02KT 9000 BKN019 05/01 Q1028 R07/19//95
                        NOSIG=
201811231330 METAR LRBS 231330Z VRB01KT 8000 BKN020 05/01 Q1029 R07/19//95
                        NOSIG=
201811231400 METAR LRBS 231400Z 07004KT 7000 OVC020 05/01 Q1029 R07/19//95
                        NOSIG=
201811231430 METAR LRBS 231430Z 07005KT 6000 OVC020 04/02 Q1029 R07/19//95
                        NOSIG=
201811231500 METAR LRBS 231500Z 08006KT 6000 OVC018 04/02 Q1029 R07/19//95
                        BECMG 5000 BR OVC015=
201811231530 METAR LRBS 231530Z 07005KT 5000 BR FEW013 OVC018 04/02 Q1029
                        R07/19//95 BECMG OVC015=
201811231600 METAR LRBS 231600Z 08006KT 5000 BR OVC013 04/02 Q1029 R07/19//95
                        BECMG OVC015=
201811231630 METAR LRBS 231630Z 08006KT 5000 BR OVC010 03/02 Q1030 R07/19//95
                        BECMG OVC015=
201811231700 METAR LRBS 231700Z 08006KT 4000 BR OVC008 03/02 Q1030 R07/19//95
                        BECMG OVC015=
201811231730 METAR LRBS 231730Z 08006KT 050V110 2500 BR OVC005 03/02 Q1030
                        R07/19//95 NOSIG=
201811231800 METAR LRBS 231800Z 06006KT 2300 BR OVC005 02/02 Q1030 R07/19//95
                        NOSIG=
201811231830 METAR LRBS 231830Z 07006KT 1800 BR OVC003 02/02 Q1030 R07/19//95
                        BECMG 1500 BR OVC002=
201811231900 METAR LRBS 231900Z 08006KT 1500 BR OVC002 02/01 Q1030 R07/19//95
                        NOSIG=
201811231930 METAR LRBS 231930Z 08007KT 1000 R07/P2000 R25/1800 BCFG BR
                        OVC001 01/01 Q1030 R07/19//95 NOSIG=
201811232000 METAR LRBS 232000Z 07006KT 0500 R07/0700 R25/0650 FG OVC001
                        01/01 Q1030 R07/19//95 BECMG 0150
                        FG=
201811232030 METAR LRBS 232030Z 07006KT 0250 R07/0450N R25/0450N FG VV001
                        01/00 Q1030 R07/19//95 NOSIG=
201811232100 METAR LRBS 232100Z 09006KT 0250 R07/0500N R25/0500N FG VV001
                        00/00 Q1030 R07/19//95 NOSIG=
201811232130 METAR LRBS 232130Z 09005KT 0300 R07/0550N R25/0550N FZFG
                        VV002 M00/M00 Q1030 R07/19//95 NOSIG=
201811232200 METAR LRBS 232200Z 09005KT 0450 R07/0650N R25/0900 FZFG VV001
                        M00/M00 Q1030 R07/19//95 TEMPO 0600
                        VV002=
201811232230 METAR LRBS 232230Z 10005KT 070V130 0600 R07/1000U R25/0800
                        FZFG OVC001 M01/M01 Q1030 R07/19//95
                        TEMPO 0800 OVC002=
201811232300 METAR LRBS 232300Z 10005KT 0500 R07/0800 R25/0900 FZFG OVC001
                        M01/M01 Q1030 R07/19//95 TEMPO 0800
                        OVC002=
201811232330 METAR LRBS 232330Z 07005KT 0700 R07/1500 R25/1000 FZFG OVC001
                        M01/M01 Q1030 R07/19//95 NOSIG=
201811240000 METAR LRBS 240000Z 08005KT 1500 R07/P2000 R25/1400 BCFG BR
                        OVC001 M01/M01 Q1030 R07/19//95 TEMPO
                        0600 FZFG=
201811240030 METAR LRBS 240030Z 11005KT 080V140 0900 R07/0900N R25/0900
                        FZFG OVC001 M01/M01 Q1030 R07/19//95
                        TEMPO 0600 FZFG=
201811240100 METAR LRBS 240100Z 08005KT 0600 R07/1400 R25/0900N FZFG OVC001
                        M01/M01 Q1029 R07/19//95 TEMPO 0600
                        FZFG=
201811240130 METAR COR LRBS 240130Z 09005KT 0700 R07/1300 R25/1900 FZFG
                        OVC001 M01/M01 Q1029 R07/19//95 NOSIG=
201811240200 METAR LRBS 240200Z 08005KT 1200 R07/1700 R25/1700 BCFG BR
                        OVC001 M01/M01 Q1029 R07/19//95 NOSIG=
201811240230 METAR LRBS 240230Z 09005KT 060V130 1800 BCFG BR OVC002 M01/M01
                        Q1029 R07/19//95 TEMPO 0600 FZFG
                        OVC001=
201811240300 METAR LRBS 240300Z 10004KT 070V130 1000 R07/1500 R25/P2000
                        BCFG BR OVC001 M01/M01 Q1028 R07/19//95
                        TEMPO 0600 FZFG=
201811240330 METAR LRBS 240330Z 09004KT 070V130 1200 R07/1700 R25/1200U
                        BCFG BR OVC001 M01/M02 Q1028 R07/19//95
                        TEMPO 0600 FZFG=
201811240400 METAR LRBS 240400Z 09004KT 1000 0500N R07/1500U R25/1900U
                        BCFG BR OVC001 M01/M02 Q1028 R07/CLRD//
                        TEMPO 0600 FZFG=
201811240430 METAR LRBS 240430Z VRB02KT 1000 R07/1700N R25/P2000 BCFG
                        BR OVC001 M01/M02 Q1028 NOSIG=
201811240500 METAR LRBS 240500Z VRB02KT 1200 R07/1900U R25/1800N BR OVC001
                        M01/M02 Q1028 NOSIG=
201811240530 METAR LRBS 240530Z VRB01KT 1500 BR OVC002 M01/M02 Q1028 NOSIG=
201811240600 METAR LRBS 240600Z VRB02KT 1800 BR OVC002 M01/M01 Q1028 NOSIG=
201811240630 METAR COR LRBS 240630Z VRB02KT 2000 BR OVC003 M01/M01 Q1028
                        NOSIG=
201811240700 METAR LRBS 240700Z 10003KT 2400 BR OVC004 M01/M01 Q1028 NOSIG=
201811240730 METAR LRBS 240730Z 10004KT 060V120 2500 BR SCT005 M01/M01
                        Q1027 NOSIG=
201811240800 METAR LRBS 240800Z 10003KT 060V130 2500 BR BKN006 M00/M01
                        Q1027 NOSIG=
201811240830 METAR LRBS 240830Z 09003KT 060V130 3000 BR FEW004 OVC007
                        M00/M00 Q1027 NOSIG=
201811240900 METAR LRBS 240900Z VRB02KT 5000 BR BKN007 00/00 Q1027 NOSIG=
201811240930 METAR LRBS 240930Z VRB01KT 6000 SCT008 01/01 Q1027 NOSIG=
201811241000 METAR LRBS 241000Z VRB01KT 6000 FEW011 02/01 Q1026 NOSIG=
201811241030 METAR LRBS 241030Z VRB01KT 6000 SCT011 02/01 Q1026 NOSIG=
201811241100 METAR LRBS 241100Z VRB01KT 6000 NSC 03/01 Q1026 NOSIG=
201811241130 METAR LRBS 241130Z VRB01KT 6000 FEW014 03/01 Q1026 NOSIG=
201811241200 METAR LRBS 241200Z VRB01KT 6000 FEW013 BKN049 03/01 Q1025
                        NOSIG=
201811241230 METAR LRBS 241230Z VRB02KT 6000 OVC049 04/01 Q1025 NOSIG=
201811241300 METAR LRBS 241300Z 07003KT 030V110 6000 OVC049 03/01 Q1024
                        NOSIG=
201811241330 METAR LRBS 241330Z 08003KT 4800 OVC049 03/01 Q1024 NOSIG=
201811241400 METAR LRBS 241400Z 08004KT 4800 BR OVC049 03/01 Q1024 NOSIG=
201811241430 METAR LRBS 241430Z 09003KT 4800 BR OVC048 03/01 Q1024 NOSIG=
201811241500 METAR COR LRBS 241500Z 08003KT 5000 BR SCT048 01/00 Q1024
                        NOSIG=
201811241530 METAR LRBS 241530Z 07002KT 4000 BR SCT048 01/01 Q1024 BECMG
                        3000 BR=
201811241600 METAR LRBS 241600Z 03002KT 4700 BR FEW011 01/01 Q1024 BECMG
                        3000 BR=
201811241630 METAR LRBS 241630Z 06002KT 4500 BR FEW011 01/01 Q1023 BECMG
                        3000 BR=
201811241700 METAR LRBS 241700Z VRB01KT 3500 BR NSC 00/00 Q1023 BECMG
                        3000 BR=
201811241730 METAR LRBS 241730Z 08002KT 3000 BR NSC M00/M00 Q1023 BECMG
                        1500 BR=
201811241800 METAR LRBS 241800Z 04001KT 3000 BR NSC 00/M00 Q1023 BECMG
                        1500 BR=
201811241830 METAR LRBS 241830Z 00000KT 3000 BR NSC 00/00 Q1023 BECMG
                        1500 BR=
201811241900 METAR LRBS 241900Z 00000KT 1500 MIFG BR NSC 00/M00 Q1023
                        TEMPO 0800=
201811241930 METAR LRBS 241930Z 00000KT 1500 MIFG BR NSC M01/M01 Q1023
                        TEMPO 0800 FZFG=
201811242000 METAR COR LRBS 242000Z 24004KT 1900 BR FEW002 01/00 Q1023
                        TEMPO 0600 FG=
201811242030 METAR LRBS 242030Z 22003KT 0800 R07/0650N R25/0800 FG VV001
                        01/01 Q1023 BECMG 0600 FG=
201811242100 METAR LRBS 242100Z 21003KT 190V250 2700 BR FEW001 BKN002
                        02/01 Q1022 NOSIG=
201811242130 METAR LRBS 242130Z 24004KT 1500 BR BKN002 02/01 Q1022 NOSIG=
201811242200 METAR COR LRBS 242200Z 24004KT 1500 BR OVC002 02/01 Q1022
                        NOSIG=
201811242230 METAR LRBS 242230Z 23003KT 1500 BR OVC002 02/01 Q1022 NOSIG=
201811242300 METAR LRBS 242300Z 23004KT 1500 BR OVC002 01/01 Q1021 NOSIG=
201811242330 METAR LRBS 242330Z 23005KT 2000 BR OVC002 01/01 Q1021 NOSIG=
201811250000 METAR LRBS 250000Z 20004KT 2500 BR OVC001 01/01 Q1021 NOSIG=
201811250030 METAR LRBS 250030Z 23004KT 0800 R07/0700N R25/1300 FG VV002
                        01/01 Q1021 BECMG 0600 FG VV001=
201811250100 METAR LRBS 250100Z 23005KT 200V260 0600 R07/0450N R25/0500N
                        FG VV001 01/01 Q1020 TEMPO 0350 FG=
201811250130 METAR LRBS 250130Z 21005KT 180V240 0400 R07/0375N R25/0400N
                        FG VV001 02/02 Q1020 TEMPO 0150 FG=
201811250200 METAR COR LRBS 250200Z 23006KT 200V260 0400 R07/0550N R25/0550N
                        FG VV001 02/02 Q1020 TEMPO 0150 FG=
201811250230 METAR LRBS 250230Z 23006KT 200V260 0400 R07/0550N R25/0550N
                        FG VV001 02/02 Q1020 NOSIG=
201811250300 METAR LRBS 250300Z 22005KT 0400 R07/0550N R25/0600U FG VV001
                        02/02 Q1020 NOSIG=
201811250330 METAR LRBS 250330Z 22005KT 190V250 0500 R07/0500N R25/0550N
                        FG VV001 03/02 Q1019 NOSIG=
201811250400 METAR LRBS 250400Z 22005KT 190V260 0500 R07/0450N R25/0550N
                        FG VV001 03/02 Q1019 NOSIG=
201811250430 METAR COR LRBS 250430Z 24008KT 220V280 0550 R07/0600N R25/0550N
                        FG VV001 02/02 Q1020 R07/19//95 NOSIG=
201811250500 METAR LRBS 250500Z 23006KT 200V260 0600 R07/0900U R25/0900N
                        FG VV002 02/02 Q1019 R07/19//95 NOSIG=
201811250530 METAR COR LRBS 250530Z 22003KT 200V270 0600 R07/0550 R25/0750
                        FG VV001 02/02 Q1019 R07/19//95 NOSIG=
201811250600 METAR LRBS 250600Z 22004KT 190V260 0600 R07/0550 R25/0550N
                        FG VV002 03/02 Q1019 R07/19//95 NOSIG=
201811250630 METAR LRBS 250630Z 21005KT 0600 R07/0650N R25/0750U FG VV001
                        02/02 Q1019 R07/19//95 BECMG 1500
                        BR BKN002=
201811250700 METAR LRBS 250700Z 20004KT 180V250 0750 R07/0600N R25/0700N
                        FG VV001 03/02 Q1019 R07/19//95 NOSIG=
201811250730 METAR COR LRBS 250730Z 22004KT 0350 R07/0500N R25/0550D FG
                        VV001 02/02 Q1019 R07/19//95 NOSIG=
201811250800 METAR LRBS 250800Z 20005KT 160V240 0300 R07/0300 R25/0375
                        FG VV002 03/03 Q1019 R07/19//95 NOSIG=
201811250830 METAR LRBS 250830Z 22006KT 190V260 0400 R07/0450 R25/1000U
                        FG VV001 03/03 Q1019 R07/19//95 NOSIG=
201811250900 METAR LRBS 250900Z 21005KT 170V240 0600 R07/0550 R25/1000
                        FG VV001 03/03 Q1018 R07/19//95 TEMPO
                        0800=
201811250930 METAR LRBS 250930Z 21005KT 170V280 0600 R07/0800 R25/0800
                        FG OVC002 03/03 Q1018 R07/19//95
                        TEMPO 0800=
201811251000 METAR LRBS 251000Z 25005KT 210V270 0800 R07/0800 R25/0900
                        FG OVC002 03/03 Q1018 R07/19//95
                        TEMPO 1500 BR BKN005=
201811251030 METAR LRBS 251030Z 20003KT 150V260 1100 R07/1400 R25/1700
                        BR OVC002 03/03 Q1017 R07/19//95=
201811251100 METAR LRBS 251100Z 23003KT 190V280 1300 R07/1900 R25/1500
                        BR OVC002 03/03 Q1017 R07/19//95
                        TEMPO 3000 BKN005=
201811251130 METAR LRBS 251130Z 21003KT 180V260 1500 BR OVC003 03/03 Q1017
                        R07/19//95 NOSIG=
201811251200 METAR COR LRBS 251200Z VRB02KT 2000 BR OVC003 04/04 Q1017
                        R07/19//95 NOSIG=
201811251230 METAR LRBS 251230Z 26003KT 2300 BR OVC003 04/04 Q1016 R07/19//95
                        NOSIG=
201811251300 METAR LRBS 251300Z 00000KT 1500 BR OVC003 04/03 Q1016 R07/19//95
                        NOSIG=
201811251330 METAR LRBS 251330Z VRB02KT 1500 BR OVC003 03/03 Q1016 R07/19//95
                        NOSIG=
201811251400 METAR LRBS 251400Z VRB01KT 2000 BR OVC003 04/03 Q1016 R07/19//95
                        NOSIG=
201811251430 METAR LRBS 251430Z 00000KT 1200 R07/P2000 R25/P2000 BR OVC003
                        03/03 Q1016 R07/19//95 BECMG 0800
                        FG OVC002=
201811251500 METAR LRBS 251500Z VRB02KT 1100 R07/P2000 R25/P2000 BR OVC002
                        03/03 Q1015 R07/19//95 BECMG 0800
                        FG OVC001=
201811251530 METAR LRBS 251530Z VRB02KT 1100 R07/P2000 R25/P2000 BR OVC002
                        03/03 Q1015 R07/19//95 BECMG 0800
                        FG OVC001=
201811251600 METAR LRBS 251600Z 05003KT 0800 R07/2000N R25/2000D FG OVC002
                        03/03 Q1015 R07/19//95 BECMG 0600
                        FG=
201811251630 METAR LRBS 251630Z 05003KT 010V070 0400 R07/0650 R25/0650N
                        FG VV001 03/03 Q1015 R07/19//95 NOSIG=
201811251700 METAR LRBS 251700Z 05003KT 340V070 0350 R07/0500N R25/0500N
                        FG VV001 03/03 Q1015 R07/19//95 NOSIG=
201811251730 METAR LRBS 251730Z 03003KT 360V060 0350 R07/0400N R25/0375N
                        FG VV001 03/03 Q1014 R07/19//95 NOSIG=
201811251800 METAR LRBS 251800Z VRB02KT 0300 R07/0350N R25/0350N FG VV002
                        03/03 Q1014 R07/19//95 NOSIG=
201811251830 METAR LRBS 251830Z 05004KT 360V090 0300 R07/0325N R25/0350N
                        FG VV001 03/03 Q1014 R07/19//95 NOSIG=
201811251900 METAR COR LRBS 251900Z 04005KT 360V060 0400 R07/0550N R25/0450N
                        FG VV001 03/02 Q1013 R07/19//95 NOSIG=
201811251930 METAR LRBS 251930Z 07006KT 0500 R07/0600N R25/0600N FG VV002
                        02/02 Q1013 R07/19//95 NOSIG=
201811252000 METAR LRBS 252000Z 06006KT 030V090 0500 R07/0500N R25/0600N
                        FG VV002 02/02 Q1013 R07/19//95 NOSIG=
201811252030 METAR LRBS 252030Z 06004KT 020V090 0500 R07/0500N R25/0600N
                        FG VV002 02/02 Q1012 R07/19//95 NOSIG=
201811252100 METAR LRBS 252100Z 05005KT 020V100 0400 R07/0500N R25/0500N
                        FG VV002 02/02 Q1012 R07/19//95 NOSIG=
201811252130 METAR LRBS 252130Z 04006KT 360V060 0500 R07/0600N R25/0600N
                        FG VV001 02/02 Q1011 R07/19//95 NOSIG=
201811252200 METAR LRBS 252200Z 05006KT 020V080 0500 R07/0600N R25/0600N
                        FG VV002 02/02 Q1012 R07/19//95 NOSIG=
201811252230 METAR LRBS 252230Z 05006KT 0500 R07/0600D R25/0550N FG VV002
                        02/02 Q1011 R07/19//95 NOSIG=
201811252300 METAR LRBS 252300Z 05007KT 0450 R07/0500N R25/0500N FG VV002
                        02/02 Q1010 R07/19//95 NOSIG=
201811252330 METAR LRBS 252330Z 05007KT 0400 R07/0500N R25/0500N FG VV002
                        02/02 Q1010 R07/19//95 NOSIG=
201811260000 METAR LRBS 260000Z 05005KT 020V090 0500 R07/0600N R25/0550N
                        FG VV002 01/01 Q1010 R07/19//95 NOSIG=
201811260030 METAR LRBS 260030Z AUTO 06006KT 0800 R07/0700N R25/0700N
                        FG VV002 01/01 Q1009 NOSIG=
201811260100 METAR LRBS 260100Z 07007KT 0550 R07/0550N R25/0600N FG VV002
                        01/01 Q1008 R07/19//95 NOSIG=
201811260130 METAR LRBS 260130Z 07004KT 0600 R07/0700N R25/0900U FG VV002
                        01/01 Q1008 R07/19//95 NOSIG=
201811260200 METAR LRBS 260200Z 04005KT 010V080 1000 R07/1700U R25/0800U
                        BR VV001 01/01 Q1008 R07/19//95 NOSIG=
201811260230 METAR COR LRBS 260230Z 05003KT 030V090 1500 R07/1600N R25/1200D
                        FG OVC002 01/01 Q1008 R07/19//95
                        NOSIG=
201811260300 METAR LRBS 260300Z 06004KT 0800 R07/1100N R25/0900N FG VV001
                        01/01 Q1007 R07/19//95 NOSIG=
201811260330 METAR LRBS 260330Z 05003KT 010V080 1000 R07/1600U R25/1400U
                        BR OVC001 01/01 Q1007 R07/19//95
                        NOSIG=
201811260400 METAR LRBS 260400Z 06003KT 020V100 1500 R07/2000 R25/P2000
                        BR OVC002 01/01 Q1007 R07/19//95
                        NOSIG=
201811260430 METAR LRBS 260430Z 06003KT 030V090 1300 R07/1800N R25/1800D
                        BR OVC001 01/01 Q1006 R07/19//95
                        NOSIG=
201811260500 METAR LRBS 260500Z 06003KT 020V090 1400 R07/P2000 R25/P2000
                        BR OVC001 01/01 Q1006 R07/19//95
                        NOSIG=
201811260530 METAR LRBS 260530Z 06003KT 030V100 1600 BR OVC001 01/01 Q1006
                        R07/19//95 TEMPO 3000 OVC002=
201811260600 METAR LRBS 260600Z 06003KT 2200 BR OVC002 01/01 Q1006 R07/19//95
                        BECMG 3000=
201811260630 METAR LRBS 260630Z 05003KT 020V080 2400 -RA BR OVC002 01/01
                        Q1005 R07/19//95 NOSIG=
201811260700 METAR LRBS 260700Z 09003KT 3500 -RA BR BKN002 01/01 Q1005
                        R07/19//95 NOSIG=
201811260730 METAR LRBS 260730Z 06004KT 4000 -RA BR BKN002 SCT027 02/02
                        Q1005 R07/29//95 NOSIG=
201811260800 METAR LRBS 260800Z 08004KT 060V120 4000 -RA BR FEW003 SCT027
                        02/02 Q1005 R07/29//95 NOSIG=
201811260830 METAR LRBS 260830Z VRB01KT 4500 -RA BR SCT003 SCT026 03/02
                        Q1005 R07/29//95 NOSIG=
201811260900 METAR LRBS 260900Z VRB02KT 3500 BR BKN003 03/03 Q1004 R07/29//95
                        NOSIG=
201811260930 METAR LRBS 260930Z 01003KT 340V050 4500 BR BKN003 03/03 Q1004
                        R07/29//95 NOSIG=
201811261000 METAR LRBS 261000Z VRB02KT 4500 BR OVC003 03/03 Q1004 R07/29//95
                        NOSIG=
201811261030 METAR LRBS 261030Z 04003KT 340V080 4000 BR BKN004 04/03 Q1003
                        R07/29//95 NOSIG=
201811261100 METAR LRBS 261100Z 03003KT 360V070 5000 BR BKN004 04/04 Q1003
                        R07/29//95 NOSIG=
201811261130 METAR LRBS 261130Z VRB02KT 5000 BR BKN004 05/05 Q1003 R07/29//95
                        NOSIG=
201811261200 METAR LRBS 261200Z VRB02KT 6000 BKN005 05/05 Q1003 R07/29//95
                        NOSIG=
201811261230 METAR LRBS 261230Z 04003KT 360V090 6000 BKN005 05/05 Q1003
                        R07/29//95 NOSIG=
201811261300 METAR LRBS 261300Z 05003KT 340V100 6000 BKN005 05/05 Q1002
                        R07/29//95 NOSIG=
201811261330 METAR LRBS 261330Z 05003KT 020V100 6000 SCT005 06/05 Q1003
                        R07/29//95 NOSIG=
201811261400 METAR LRBS 261400Z 06001KT 6000 FEW005 06/06 Q1003 R07/29//95
                        NOSIG=
201811261430 METAR LRBS 261430Z VRB01KT 5000 BR NSC 05/05 Q1003 R07/19//95
                        NOSIG=
201811261500 METAR LRBS 261500Z 02002KT 4000 BR FEW004 05/04 Q1003 R07/19//95
                        BECMG 3000 BR=
201811261530 METAR LRBS 261530Z 00000KT 3000 BR SCT004 05/04 Q1003 R07/19//95
                        NOSIG=
201811261600 METAR LRBS 261600Z VRB01KT 2800 BR BKN004 05/04 Q1003 R07/19//95
                        NOSIG=
201811261630 METAR LRBS 261630Z 03002KT 2700 BR FEW001 BKN004 05/05 Q1003
                        R07/19//95 BECMG 1500 BR BKN002=
201811261700 METAR LRBS 261700Z VRB01KT 1400 R07/P2000 R25/0750 BR OVC003
                        05/05 Q1003 R07/19//95 BECMG 0800
                        FG OVC001=
201811261730 METAR LRBS 261730Z 10003KT 070V130 0300 R07/0400N R25/0500N
                        FG VV001 05/04 Q1003 R07/19//95 NOSIG=
201811261800 METAR LRBS 261800Z 07004KT 0300 R07/0450N R25/0400N FG VV001
                        05/05 Q1003 R07/19//95 NOSIG=
201811261830 METAR LRBS 261830Z 06003KT 0250 R07/0375N R25/0350N FG VV001
                        05/05 Q1003 R07/19//95 NOSIG=
201811261900 METAR LRBS 261900Z 03005KT 0300 R07/0350N R25/0375N FG VV001
                        05/04 Q1003 R07/19//95 NOSIG=
201811261930 METAR LRBS 261930Z 02005KT 340V050 0450 R07/0400N R25/0400
                        FG VV001 04/04 Q1003 R07/19//95 TEMPO
                        0800 -RA FG=
201811262000 METAR LRBS 262000Z VRB01KT 0500 R07/0900 R25/0650D FG VV002
                        04/04 Q1005 R07/19//95 BECMG 0800
                        -RA FG=
201811262030 METAR LRBS 262030Z 07004KT 0400 R07/1200 R25/0750 -RA FG
                        VV001 04/04 Q1004 R07/29//95 TEMPO
                        0800=
201811262100 METAR LRBS 262100Z 06011KT 2000 -RA BR BKN003 OVC013 04/04
                        Q1003 R07/29//95 TEMPO 3000=
201811262130 METAR LRBS 262130Z 07008KT 5000 BR BKN003 OVC006 03/03 Q1004
                        R07/29//95 NOSIG=
201811262200 METAR COR LRBS 262200Z 06004KT 040V100 6000 BKN005 OVC008
                        03/03 Q1005 R07/29//95 NOSIG=
201811262230 METAR LRBS 262230Z VRB02KT 8000 BKN005 OVC010 03/03 Q1005
                        R07/29//95 NOSIG=
201811262300 METAR LRBS 262300Z 12003KT 070V180 7000 BKN006 OVC013 03/03
                        Q1006 R07/29//95 NOSIG=
201811262330 METAR LRBS 262330Z 09003KT 060V130 6000 OVC006 03/03 Q1006
                        R07/29//95 NOSIG=
201811270000 METAR LRBS 270000Z 10006KT 5000 -RA BR OVC006 03/03 Q1005
                        R07/29//95 NOSIG=
201811270030 METAR COR LRBS 270030Z 08006KT 5000 -RA BR OVC004 03/03 Q1005
                        R07/29//95 NOSIG=
201811270100 METAR LRBS 270100Z AUTO 08005KT 9000 BKN010/// BKN100///
                        03/03 Q1005 NOSIG=
201811270130 METAR LRBS 270130Z AUTO 08004KT 9000 OVC006/// 03/03 Q1006
                        NOSIG=
201811270200 METAR LRBS 270200Z 05002KT 9000 OVC014 03/03 Q1006 R07/29//95
                        NOSIG=
201811270230 METAR LRBS 270230Z VRB02KT 9000 SCT007 OVC014 03/03 Q1006
                        R07/29//95 NOSIG=
201811270300 METAR LRBS 270300Z 11004KT 9999 SCT007 OVC014 03/03 Q1006
                        R07/29//95 NOSIG=
201811270330 METAR LRBS 270330Z 11003KT 9999 OVC015 03/03 Q1006 R07/29//95
                        NOSIG=
201811270400 METAR LRBS 270400Z VRB02KT 9999 OVC015 03/03 Q1007 R07/29//95
                        NOSIG=
201811270430 METAR LRBS 270430Z 11003KT 9999 OVC013 03/03 Q1007 R07/29//95
                        NOSIG=
201811270500 METAR LRBS 270500Z 09003KT 9999 OVC013 03/03 Q1007 R07/29//95
                        NOSIG=
201811270530 METAR LRBS 270530Z 10005KT 9999 OVC013 03/03 Q1007 R07/29//95
                        NOSIG=
201811270600 METAR LRBS 270600Z 12005KT 9999 OVC014 03/03 Q1008 R07/29//95
                        NOSIG=
201811270630 METAR LRBS 270630Z 12004KT 090V160 9999 OVC012 04/03 Q1008
                        R07/29//95 NOSIG=
201811270700 METAR LRBS 270700Z 08004KT 9999 OVC014 04/03 Q1008 R07/29//95
                        NOSIG=
201811270730 METAR LRBS 270730Z 08006KT 9999 OVC015 04/03 Q1008 R07/29//95
                        NOSIG=
201811270800 METAR LRBS 270800Z 08006KT 9999 OVC014 04/03 Q1008 R07/29//95
                        NOSIG=
201811270830 METAR LRBS 270830Z 07005KT 9999 OVC013 04/04 Q1009 R07/29//95
                        NOSIG=
201811270900 METAR LRBS 270900Z 08006KT 360V110 9999 SCT010 OVC014 05/04
                        Q1009 R07/29//95 NOSIG=
201811270930 METAR LRBS 270930Z 07007KT 040V100 9999 OVC014 05/04 Q1009
                        R07/29//95 NOSIG=
201811271000 METAR LRBS 271000Z 07007KT 040V100 9999 BKN010 OVC016 05/04
                        Q1009 R07/29//95 NOSIG=
201811271030 METAR LRBS 271030Z 07007KT 020V090 9999 OVC009 05/05 Q1009
                        R07/29//95 NOSIG=
201811271100 METAR LRBS 271100Z 07008KT 9000 OVC007 05/05 Q1009 R07/29//95
                        NOSIG=
201811271130 METAR LRBS 271130Z 05007KT 7000 OVC005 05/05 Q1009 R07/29//95
                        NOSIG=
201811271200 METAR LRBS 271200Z 06007KT 9999 OVC006 05/05 Q1009 R07/29//95
                        NOSIG=
201811271230 METAR LRBS 271230Z 08008KT 9999 OVC009 05/05 Q1010 R07/29//95
                        NOSIG=
201811271300 METAR LRBS 271300Z 07009KT 030V100 9999 OVC010 05/05 Q1010
                        R07/29//95 NOSIG=
201811271330 METAR LRBS 271330Z 07010KT 040V100 9999 OVC011 05/04 Q1010
                        R07/29//95 BECMG OVC015=
201811271400 METAR LRBS 271400Z 07011KT 9999 SCT012 OVC016 05/03 Q1010
                        R07/29//95 BECMG 5000 -RA=
201811271430 METAR LRBS 271430Z 06012KT 9999 OVC018 05/03 Q1010 R07/29//95
                        BECMG 5000 -RA=
201811271500 METAR LRBS 271500Z 05011KT 9999 -RA BKN020 05/03 Q1010 R07/29//95
                        BECMG 5000 -RA=
201811271530 METAR LRBS 271530Z 06014KT 030V090 9999 -RA FEW017 BKN023
                        04/02 Q1011 R07/29//95 BECMG 5000
                        -RA=
201811271600 METAR LRBS 271600Z 06013KT 9999 -RA SCT023 BKN029 04/02 Q1011
                        R07/29//95 BECMG 5000 -RA=
201811271630 METAR LRBS 271630Z 06011KT 020V090 9999 FEW022 SCT028 03/02
                        Q1011 R07/29//95 BECMG 5000 -RA=
201811271700 METAR LRBS 271700Z 06014KT 9999 -RA FEW035 03/01 Q1011 R07/29//95
                        BECMG 5000 -RA=
201811271730 METAR LRBS 271730Z 07014KT 040V100 9999 -RA FEW031 03/01
                        Q1011 R07/29//95 NOSIG=
201811271800 METAR LRBS 271800Z 06013KT 9999 -RA NSC 03/01 Q1011 R07/29//95
                        NOSIG=
201811271830 METAR LRBS 271830Z 07013KT 9999 -RA NSC 02/01 Q1011 R07/29//95
                        NOSIG=
201811271900 METAR LRBS 271900Z 07014KT 9999 -RA FEW049 02/01 Q1012 R07/29//95
                        NOSIG=
201811271930 METAR LRBS 271930Z 07016KT 9999 -RA SCT048 02/01 Q1012 R07/29//95
                        NOSIG=
201811272000 METAR LRBS 272000Z 07015KT 9999 -RA SCT042 02/01 Q1012 R07/29//95
                        NOSIG=
201811272030 METAR LRBS 272030Z 06015KT 9999 -RA FEW005 02/01 Q1012 R07/29//95
                        NOSIG=
201811272100 METAR LRBS 272100Z 07015KT 9999 -RA SCT005 SCT042 02/01 Q1012
                        R07/29//95 NOSIG=
201811272130 METAR LRBS 272130Z 06015KT 9999 -RA SCT010 BKN049 01/01 Q1013
                        R07/29//95 NOSIG=
201811272200 METAR LRBS 272200Z 06016KT 9999 -RA BKN009 BKN026 OVC045
                        01/01 Q1013 R07/29//95 NOSIG=
201811272230 METAR LRBS 272230Z 06015KT 9999 -RA BKN008 BKN026 01/01 Q1013
                        R07/29//95 BECMG 07020G30KT 5000
                        -SN BKN008 BKN025=
201811272300 METAR LRBS 272300Z 06014KT 9999 FEW007 BKN009 OVC025 01/01
                        Q1013 R07/29//95 BECMG 07020G30KT
                        5000 -SN BKN008 BKN025=
201811272330 METAR LRBS 272330Z 06014KT 9999 -RA BKN010 OVC025 01/01 Q1013
                        R07/29//95 BECMG 07020G30KT 5000
                        -SN BKN008 OVC025=
201811280000 METAR LRBS 280000Z 06013KT 9000 -PL FEW010 OVC025 01/01 Q1013
                        R07/29//95 TEMPO 07015G25KT 5000
                        -RASN=
201811280030 METAR LRBS 280030Z 06012KT 8000 -PL FEW011 OVC025 01/01 Q1013
                        R07/29//95 TEMPO 07015G25KT 5000
                        -RASN BKN005 OVC020=
201811280100 METAR LRBS 280100Z 06013KT 8000 -PL SCT008 OVC025 01/00 Q1013
                        R07/29//95 TEMPO 07015G25KT 5000
                        -RASN BKN005 OVC020=
201811280130 METAR LRBS 280130Z 05015KT 010V080 8000 -RASN BKN010 OVC024
                        01/00 Q1013 R07/29//95 NOSIG=
201811280200 METAR LRBS 280200Z 05015KT 020V090 6000 -SN SCT012 OVC023
                        01/M00 Q1013 R07/29//95 NOSIG=
201811280230 METAR LRBS 280230Z 05018G28KT 020V090 9000 -SN FEW014 OVC024
                        01/M01 Q1014 R07/29//95 NOSIG=
201811280300 METAR LRBS 280300Z 05016KT 5000 -SN FEW014 OVC024 00/M01
                        Q1014 R07/29//95 NOSIG=
201811280330 METAR LRBS 280330Z 05015KT 2500 -SN BLSN FEW010 OVC025 M00/M01
                        Q1014 R07/29//95 NOSIG=
201811280400 METAR LRBS 280400Z 05015KT 010V070 4500 -SN FEW007 SCT009
                        BKN034 M00/M01 Q1014 REBLSN R07/29//95
                        NOSIG=
201811280430 METAR LRBS 280430Z 05015KT 010V070 1500 SN FEW008 BKN020
                        OVC034 M00/M01 Q1014 R07/690194 NOSIG=
201811280500 METAR LRBS 280500Z 05014KT 020V090 1500 SN FEW008 BKN018
                        OVC027 M01/M01 Q1015 R07/690194 TEMPO
                        BKN005 BKN015 OVC025=
201811280530 METAR COR LRBS 280530Z 05014KT 1000 R07/1600D R25/1500D SN
                        BR SCT007 OVC018 M01/M01 Q1015 R07/690194
                        TEMPO BKN005 BKN015 OVC025=
201811280600 METAR LRBS 280600Z 05015KT 0900 R07/1000U R25/0900N SN BR
                        FEW005 OVC010 M01/M02 Q1016 R07/590393
                        TEMPO BKN005 OVC020=
201811280630 METAR LRBS 280630Z 05016G26KT 020V080 1000 R07/0800D R25/0800N
                        SN BR FEW005 OVC007 M02/M02 Q1017
                        R07/590393 NOSIG=
201811280700 METAR LRBS 280700Z 05017G29KT 1500 -SN BR SCT004 OVC020 M02/M02
                        Q1017 RESN R07/590393 NOSIG=
201811280730 METAR LRBS 280730Z 05018KT 010V080 2000 -SN DRSN BR FEW006
                        OVC027 M02/M02 Q1018 RESN R07/590393
                        NOSIG=
201811280800 METAR COR LRBS 280800Z 05016KT 020V080 3000 -SN DRSN BR BKN029
                        M01/M02 Q1018 R07/590393 NOSIG=
201811280830 METAR LRBS 280830Z 06015KT 3200 -SN DRSN BR FEW011 OVC032
                        M01/M02 Q1019 R07/590393 NOSIG=
201811280900 METAR LRBS 280900Z 06015KT 6000 -SN DRSN OVC038 M01/M02 Q1019
                        R07/590393 NOSIG=
201811280930 METAR COR LRBS 280930Z 05014KT 030V090 9999 -SN BKN043 M01/M03
                        Q1020 R07/590393 NOSIG=
201811281000 METAR LRBS 281000Z 05012KT 020V100 9999 DRSN FEW015 OVC045
                        M02/M03 Q1020 R07/590393 NOSIG=
201811281030 METAR LRBS 281030Z 06015KT 030V090 9999 DRSN BKN041 M02/M04
                        Q1020 R07/590393 NOSIG=
201811281100 METAR LRBS 281100Z 06016KT 9999 OVC044 M01/M04 Q1020 R07/590393
                        NOSIG=
201811281130 METAR LRBS 281130Z 06016KT 030V090 9999 BKN043 M01/M04 Q1021
                        R07/590393 NOSIG=
201811281200 METAR LRBS 281200Z 06014KT 030V090 9999 OVC048 M01/M04 Q1021
                        R07/590393 NOSIG=
201811281230 METAR LRBS 281230Z 06013KT 020V090 CAVOK M01/M04 Q1021 R07/590393
                        NOSIG=
201811281300 METAR LRBS 281300Z 05013KT 020V080 CAVOK M00/M05 Q1022 R07/590393
                        NOSIG=
201811281330 METAR LRBS 281330Z 05012KT 020V080 CAVOK M00/M05 Q1022 R07/590393
                        NOSIG=
201811281400 METAR LRBS 281400Z 05013KT 020V080 CAVOK M00/M05 Q1023 R07/590393
                        NOSIG=
201811281430 METAR LRBS 281430Z 06013KT CAVOK M00/M04 Q1023 R07/590393
                        NOSIG=
201811281500 METAR LRBS 281500Z 07011KT CAVOK M01/M04 Q1024 R07/590393
                        NOSIG=
201811281530 METAR LRBS 281530Z 06009KT CAVOK M00/M04 Q1024 R07/950294
                        NOSIG=
201811281600 METAR LRBS 281600Z 05009KT 020V080 CAVOK M00/M05 Q1025 R07/950294
                        NOSIG=
201811281630 METAR LRBS 281630Z 06010KT CAVOK M00/M05 Q1025 R07/950294
                        NOSIG=
201811281700 METAR LRBS 281700Z 06010KT 020V080 CAVOK M00/M05 Q1026 R07/950294
                        NOSIG=
201811281730 METAR LRBS 281730Z 06011KT 030V090 CAVOK M01/M05 Q1026 R07/950294
                        NOSIG=
201811281800 METAR COR LRBS 281800Z 05010KT CAVOK M01/M05 Q1027 R07/950294
                        NOSIG=
201811281830 METAR LRBS 281830Z 04009KT 010V070 CAVOK M01/M05 Q1027 R07/950294
                        NOSIG=
201811281900 METAR LRBS 281900Z 05009KT 020V080 CAVOK M01/M05 Q1028 R07/950294
                        NOSIG=
201811281930 METAR LRBS 281930Z 05009KT 010V070 CAVOK M01/M05 Q1029 R07/950294
                        NOSIG=
201811282000 METAR LRBS 282000Z 05008KT CAVOK M01/M05 Q1029 R07/950294
                        NOSIG=
201811282030 METAR LRBS 282030Z 05008KT 020V080 CAVOK M01/M05 Q1029 R07/950294
                        NOSIG=
201811282100 METAR LRBS 282100Z 05009KT 020V090 CAVOK M01/M05 Q1030 R07/950294
                        NOSIG=
201811282130 METAR LRBS 282130Z 05008KT 020V080 CAVOK M01/M05 Q1030 R07/950294
                        NOSIG=
201811282200 METAR LRBS 282200Z 04009KT 010V070 CAVOK M01/M06 Q1030 R07/950294
                        NOSIG=
201811282230 METAR LRBS 282230Z 04010KT 010V070 CAVOK M01/M06 Q1030 R07/950294
                        NOSIG=
201811282300 METAR LRBS 282300Z 05008KT 020V080 CAVOK M01/M07 Q1031 R07/950294
                        NOSIG=
201811282330 METAR LRBS 282330Z 05008KT CAVOK M02/M07 Q1031 R07/950294
                        NOSIG=
201811290000 METAR LRBS 290000Z 06005KT CAVOK M03/M07 Q1032 R07/950294
                        NOSIG=
201811290030 METAR LRBS 290030Z 06007KT CAVOK M03/M08 Q1032 R07/950294
                        NOSIG=
201811290100 METAR LRBS 290100Z 05008KT 010V090 CAVOK M03/M09 Q1032 R07/950294
                        NOSIG=
201811290130 METAR COR LRBS 290130Z 05008KT CAVOK M03/M09 Q1033 R07/950294
                        NOSIG=
201811290200 METAR LRBS 290200Z 05009KT 020V080 CAVOK M03/M08 Q1033 R07/950294
                        NOSIG=
201811290230 METAR LRBS 290230Z 04011KT 010V080 CAVOK M03/M08 Q1033 R07/950294
                        NOSIG=
201811290300 METAR LRBS 290300Z 04011KT 360V070 CAVOK M03/M09 Q1033 R07/950294
                        NOSIG=
201811290330 METAR LRBS 290330Z 04011KT 010V080 CAVOK M03/M09 Q1034 R07/950294
                        NOSIG=
201811290400 METAR LRBS 290400Z 04010KT 350V070 CAVOK M03/M09 Q1034 R07/950294
                        NOSIG=
201811290430 METAR LRBS 290430Z 04009KT 360V070 CAVOK M04/M09 Q1035 R07/950294
                        NOSIG=
201811290500 METAR LRBS 290500Z 04011KT CAVOK M03/M09 Q1035 R07/950294
                        NOSIG=
201811290530 METAR LRBS 290530Z 04010KT 020V080 CAVOK M04/M09 Q1035 R07/950294
                        NOSIG=
201811290600 METAR LRBS 290600Z 05011KT CAVOK M04/M08 Q1036 R07/950294
                        NOSIG=
201811290630 METAR LRBS 290630Z 04013KT 010V080 CAVOK M03/M08 Q1036 R07/950294
                        NOSIG=
201811290700 METAR LRBS 290700Z 05014KT CAVOK M03/M08 Q1037 R07/950294
                        NOSIG=
201811290730 METAR LRBS 290730Z 05012KT 020V080 CAVOK M03/M08 Q1037 R07/950294
                        NOSIG=
201811290800 METAR LRBS 290800Z 05013KT CAVOK M03/M08 Q1037 R07/950294
                        NOSIG=
201811290830 METAR LRBS 290830Z 04011KT 010V080 9999 FEW010 M02/M07 Q1037
                        R07/950294 NOSIG=
201811290900 METAR LRBS 290900Z 05012KT 020V080 9999 FEW015 M02/M08 Q1037
                        R07/950294 NOSIG=
201811290930 METAR LRBS 290930Z 05012KT 020V080 9999 SCT030 M02/M07 Q1037
                        R07/950294 NOSIG=
201811291000 METAR LRBS 291000Z 05014KT 020V090 9999 SCT024 M02/M07 Q1037
                        R07/950294 NOSIG=
201811291030 METAR LRBS 291030Z 06015KT 9999 SCT028 M02/M07 Q1037 R07/950294
                        NOSIG=
201811291100 METAR LRBS 291100Z 06014KT 9999 SCT026 M02/M07 Q1037 R07/950294
                        NOSIG=
201811291130 METAR LRBS 291130Z 06016KT 020V090 CAVOK M02/M08 Q1037 R07/950294
                        NOSIG=
201811291200 METAR LRBS 291200Z 07017KT CAVOK M02/M08 Q1036 R07/910195
                        NOSIG=
201811291230 METAR LRBS 291230Z 06014KT 030V090 CAVOK M02/M08 Q1036 R07/910195
                        NOSIG=
201811291300 METAR LRBS 291300Z 06013KT CAVOK M02/M09 Q1036 R07/910195
                        NOSIG=
201811291330 METAR LRBS 291330Z 06013KT CAVOK M03/M09 Q1036 R07/910195
                        NOSIG=
201811291400 METAR LRBS 291400Z 06014KT CAVOK M04/M09 Q1036 R07/910195
                        NOSIG=
201811291430 METAR LRBS 291430Z 06015KT CAVOK M04/M09 Q1037 R07/910195
                        NOSIG=
201811291500 METAR LRBS 291500Z 06014KT CAVOK M04/M10 Q1037 R07/910195
                        NOSIG=
201811291530 METAR LRBS 291530Z 06014KT 030V090 CAVOK M05/M10 Q1037 R07/910195
                        NOSIG=
201811291600 METAR LRBS 291600Z 05015KT 020V090 CAVOK M05/M11 Q1037 R07/910195
                        NOSIG=
201811291630 METAR LRBS 291630Z 05011KT 010V070 CAVOK M05/M11 Q1037 R07/910195
                        NOSIG=
201811291700 METAR LRBS 291700Z 04014KT 360V070 CAVOK M05/M11 Q1037 R07/910195
                        NOSIG=
201811291730 METAR LRBS 291730Z 04013KT 010V070 CAVOK M05/M11 Q1037 R07/910195
                        NOSIG=
201811291800 METAR LRBS 291800Z 03012KT 360V070 CAVOK M05/M11 Q1037 R07/910195
                        NOSIG=
201811291830 METAR LRBS 291830Z 03011KT 350V060 CAVOK M05/M11 Q1037 R07/910195
                        NOSIG=
201811291900 METAR LRBS 291900Z 03010KT CAVOK M05/M11 Q1037 R07/910195
                        NOSIG=
201811291930 METAR LRBS 291930Z 02009KT 350V060 CAVOK M05/M11 Q1037 R07/910195
                        NOSIG=
201811292000 METAR LRBS 292000Z 03010KT 360V060 CAVOK M05/M11 Q1037 R07/910195
                        NOSIG=
201811292030 METAR LRBS 292030Z 03009KT 360V060 CAVOK M05/M11 Q1037 R07/910195
                        NOSIG=
201811292100 METAR LRBS 292100Z AUTO 04008KT 360V070 9999 FEW051/// M05/M11
                        Q1037 NOSIG=
201811292130 METAR LRBS 292130Z 03008KT 010V070 CAVOK M05/M11 Q1037 R07/910195
                        NOSIG=
201811292200 METAR LRBS 292200Z 03007KT 360V060 CAVOK M05/M10 Q1037 R07/910195
                        NOSIG=
201811292230 METAR LRBS 292230Z 03007KT 360V060 CAVOK M05/M10 Q1036 R07/910195
                        NOSIG=
201811292300 METAR LRBS 292300Z 03009KT 360V070 CAVOK M05/M10 Q1036 R07/910195
                        NOSIG=
201811292330 METAR LRBS 292330Z 03007KT CAVOK M06/M10 Q1035 R07/910195
                        NOSIG=
201811300000 METAR LRBS 300000Z AUTO 03007KT 360V070 9999 BKN038/// M06/M10
                        Q1035 NOSIG=
201811300030 METAR LRBS 300030Z 03008KT 360V070 9999 SCT044 M05/M10 Q1035
                        R07/910195 NOSIG=
201811300100 METAR LRBS 300100Z 03009KT 360V060 9999 SCT044 M05/M10 Q1035
                        R07/910195 NOSIG=
201811300130 METAR LRBS 300130Z 03009KT 010V070 CAVOK M05/M10 Q1034 R07/910195
                        NOSIG=
201811300200 METAR LRBS 300200Z 03010KT 350V060 CAVOK M05/M10 Q1034 R07/910195=
201811300230 METAR LRBS 300230Z 03008KT 360V070 CAVOK M05/M10 Q1034 R07/910195
                        NOSIG=
201811300300 METAR LRBS 300300Z 04011KT 360V070 9999 FEW041 M05/M10 Q1033
                        R07/910195 NOSIG=
201811300330 METAR LRBS 300330Z 03009KT 360V060 CAVOK M05/M10 Q1033 R07/910195
                        NOSIG=
201811300400 METAR LRBS 300400Z 03008KT 340V060 CAVOK M05/M10 Q1033 R07/910195
                        NOSIG=
201811300430 METAR LRBS 300430Z 02004KT 340V050 CAVOK M05/M10 Q1033 R07/910195
                        NOSIG=
201811300500 METAR LRBS 300500Z 03005KT 350V060 CAVOK M05/M09 Q1033 R07/910195
                        NOSIG=
201811300530 METAR LRBS 300530Z 01004KT 330V050 CAVOK M05/M09 Q1032 R07/910195
                        NOSIG=
201811300600 METAR LRBS 300600Z 01004KT 340V050 CAVOK M05/M09 Q1032 R07/910195
                        NOSIG=
201811300630 METAR COR LRBS 300630Z 02004KT 350V050 CAVOK M05/M10 Q1032
                        R07/910195 NOSIG=
201811300700 METAR LRBS 300700Z 03005KT 350V060 CAVOK M05/M10 Q1032 R07/910195
                        NOSIG=
201811300730 METAR LRBS 300730Z 03006KT 350V080 9999 BKN048 M05/M10 Q1032
                        R07/910195 NOSIG=
201811300800 METAR LRBS 300800Z 02006KT 340V050 9999 BKN045 M04/M10 Q1032
                        R07/910195 NOSIG=
201811300830 METAR LRBS 300830Z 34003KT 280V040 9999 BKN043 M04/M10 Q1032
                        R07/910195 NOSIG=
201811300900 METAR LRBS 300900Z VRB01KT 9999 BKN046 M03/M11 Q1031 R07/910195
                        NOSIG=
201811300930 METAR LRBS 300930Z VRB01KT 9999 FEW048 M03/M11 Q1031 R07/910195
                        NOSIG=
201811301000 METAR LRBS 301000Z VRB01KT CAVOK M02/M11 Q1030 R07/910195
                        NOSIG=
201811301030 METAR LRBS 301030Z VRB01KT CAVOK M02/M12 Q1029 R07/910195
                        NOSIG=
201811301100 METAR LRBS 301100Z VRB01KT CAVOK M02/M12 Q1029 R07/910195
                        NOSIG=
201811301130 METAR LRBS 301130Z VRB01KT CAVOK M02/M12 Q1028 R07/910195
                        NOSIG=
201811301200 METAR LRBS 301200Z 24003KT 190V290 CAVOK M01/M11 Q1028 R07/910195
                        NOSIG=
201811301230 METAR LRBS 301230Z 24005KT 210V270 CAVOK M01/M11 Q1027 R07/910195
                        NOSIG=
201811301300 METAR LRBS 301300Z 26005KT 230V290 CAVOK M01/M09 Q1027 R07/910195
                        NOSIG=
201811301330 METAR LRBS 301330Z 26006KT CAVOK M02/M09 Q1027 R07/910195
                        NOSIG=
201811301400 METAR LRBS 301400Z 25006KT CAVOK M02/M09 Q1027 R07/19//95
                        NOSIG=
201811301430 METAR LRBS 301430Z 27004KT CAVOK M03/M08 Q1027 R07/19//95
                        NOSIG=
201811301500 METAR LRBS 301500Z 27005KT 9000 NSC M03/M07 Q1027 R07/19//95
                        NOSIG=
201811301530 METAR LRBS 301530Z 26006KT 9000 NSC M04/M06 Q1027 R07/19//95
                        NOSIG=
201811301600 METAR LRBS 301600Z 26005KT 9000 NSC M05/M07 Q1027 R07/19//95
                        NOSIG=
201811301630 METAR LRBS 301630Z 26005KT 8000 NSC M05/M07 Q1027 R07/19//95
                        NOSIG=
201811301700 METAR LRBS 301700Z 27003KT 8000 NSC M05/M07 Q1027 R07/19//95
                        NOSIG=
201811301730 METAR LRBS 301730Z 27003KT 7000 NSC M06/M07 Q1027 R07/19//95
                        NOSIG=
201811301800 METAR LRBS 301800Z 26003KT 8000 NSC M06/M07 Q1027 R07/19//95
                        NOSIG=
201811301830 METAR LRBS 301830Z 23001KT 9000 NSC M06/M07 Q1026 R07/19//95
                        NOSIG=
201811301900 METAR LRBS 301900Z 21002KT 8000 NSC M06/M07 Q1026 R07/19//95
                        NOSIG=
201811301930 METAR LRBS 301930Z 21001KT 8000 NSC M06/M07 Q1026 R07/19//95
                        NOSIG=
201811302000 METAR LRBS 302000Z 23002KT 8000 NSC M07/M08 Q1026 R07/19//95
                        NOSIG=
201811302030 METAR LRBS 302030Z VRB01KT 8000 NSC M07/M08 Q1026 R07/19//95
                        NOSIG=
201811302100 METAR LRBS 302100Z 25001KT 8000 NSC M07/M08 Q1026 R07/19//95
                        NOSIG=
201811302130 METAR LRBS 302130Z VRB02KT 7000 NSC M07/M08 Q1025 R07/19//95
                        NOSIG=
201811302200 METAR LRBS 302200Z 26003KT CAVOK M07/M08 Q1025 R07/19//95
                        NOSIG=
201811302230 METAR LRBS 302230Z 26004KT 7000 NSC M07/M08 Q1025 R07/19//95
                        NOSIG=
201811302300 METAR LRBS 302300Z 25003KT 7000 NSC M08/M09 Q1024 R07/19//95
                        NOSIG=
201811302330 METAR LRBS 302330Z 27003KT 8000 NSC M08/M09 Q1024 R07/19//95
                        NOSIG=