201812010000 METAR LRBS 010000Z 27003KT 240V300 7000 NSC M08/M09 Q1024
                        R07/19//95 NOSIG=
201812010030 METAR LRBS 010030Z 28003KT 250V310 7000 FEW045 M08/M09 Q1024
                        R07/19//95 NOSIG=
201812010100 METAR LRBS 010100Z 27003KT 7000 FEW046 M08/M09 Q1024 R07/19//95
                        TEMPO 5000 BR=
201812010130 METAR LRBS 010130Z 28003KT 7000 NSC M09/M09 Q1023 R07/19//95
                        TEMPO 5000 BR=
201812010200 METAR COR LRBS 010200Z 27003KT 6000 SCT042 M09/M09 Q1023
                        R07/19//95 TEMPO 5000 BR=
201812010230 METAR LRBS 010230Z 27004KT 6000 FEW050 M09/M10 Q1023 R07/19//95
                        TEMPO 5000 BR=
201812010300 METAR LRBS 010300Z 27005KT 6000 BKN048 M09/M09 Q1023 R07/19//95
                        TEMPO 5000 BR=
201812010330 METAR LRBS 010330Z 27004KT 240V310 6000 OVC046 M08/M09 Q1023
                        R07/19//95 TEMPO 5000 BR=
201812010400 METAR LRBS 010400Z 27003KT 240V300 6000 BKN046 M08/M09 Q1023
                        R07/CLRD// NOSIG=
201812010430 METAR LRBS 010430Z 27004KT 6000 SCT046 M08/M09 Q1023 NOSIG=
201812010500 METAR LRBS 010500Z 27004KT 5000 BR FEW010 M08/M09 Q1023 NOSIG=
201812010530 METAR LRBS 010530Z VRB02KT 6000 FEW010 M08/M09 Q1023 NOSIG=
201812010600 METAR LRBS 010600Z 28003KT 6000 NSC M08/M09 Q1023 NOSIG=
201812010630 METAR LRBS 010630Z 27003KT 240V300 6000 NSC M07/M09 Q1023
                        NOSIG=
201812010700 METAR LRBS 010700Z 26006KT 7000 NSC M07/M09 Q1024 NOSIG=
201812010730 METAR LRBS 010730Z 26007KT 9000 NSC M06/M08 Q1023 NOSIG=
201812010800 METAR LRBS 010800Z 28007KT 240V310 CAVOK M05/M08 Q1024 NOSIG=
201812010830 METAR LRBS 010830Z 27008KT 240V320 CAVOK M04/M08 Q1024 NOSIG=
201812010900 METAR LRBS 010900Z 26007KT CAVOK M03/M07 Q1024 NOSIG=
201812010930 METAR LRBS 010930Z 26007KT 9999 BKN036 M03/M08 Q1024 NOSIG=
201812011000 METAR LRBS 011000Z 26007KT 240V300 9999 BKN038 M02/M08 Q1023
                        NOSIG=
201812011030 METAR LRBS 011030Z 26009KT 9999 FEW038 M02/M09 Q1023 NOSIG=
201812011100 METAR LRBS 011100Z 27007KT 240V310 CAVOK M01/M09 Q1023 NOSIG=
201812011130 METAR LRBS 011130Z 26007KT 240V300 CAVOK M01/M10 Q1023 NOSIG=
201812011200 METAR LRBS 011200Z 27007KT 240V310 CAVOK M00/M10 Q1022 NOSIG=
201812011230 METAR LRBS 011230Z 27007KT 220V320 CAVOK M00/M10 Q1022 NOSIG=
201812011300 METAR LRBS 011300Z 25008KT CAVOK M01/M10 Q1022 NOSIG=
201812011330 METAR LRBS 011330Z 25006KT CAVOK M01/M10 Q1022 NOSIG=
201812011400 METAR LRBS 011400Z 25005KT CAVOK M01/M10 Q1023 NOSIG=
201812011430 METAR LRBS 011430Z 24005KT CAVOK M02/M10 Q1023 NOSIG=
201812011500 METAR LRBS 011500Z 26005KT CAVOK M02/M10 Q1023 NOSIG=
201812011530 METAR LRBS 011530Z 27004KT CAVOK M03/M11 Q1023 NOSIG=
201812011600 METAR LRBS 011600Z 26005KT CAVOK M03/M09 Q1023 NOSIG=
201812011630 METAR LRBS 011630Z 26005KT 230V290 CAVOK M04/M08 Q1023 NOSIG=
201812011700 METAR LRBS 011700Z 25008KT CAVOK M04/M08 Q1023 NOSIG=
201812011730 METAR LRBS 011730Z 26009KT 7000 NSC M05/M08 Q1023 BECMG 5000
                        BR=
201812011800 METAR LRBS 011800Z 27005KT 240V300 7000 NSC M05/M08 Q1023
                        BECMG 5000 BR=
201812011830 METAR LRBS 011830Z 26005KT 6000 NSC M06/M08 Q1023 BECMG 5000
                        BR=
201812011900 METAR LRBS 011900Z 27005KT 6000 NSC M06/M08 Q1023 BECMG 5000
                        BR=
201812011930 METAR LRBS 011930Z 27004KT 7000 NSC M06/M08 Q1023 TEMPO 5000
                        BR=
201812012000 METAR LRBS 012000Z 28005KT 240V310 7000 NSC M06/M08 Q1024
                        BECMG 5000 BR=
201812012030 METAR LRBS 012030Z 27004KT 240V300 7000 NSC M06/M07 Q1023
                        BECMG 5000 BR=
201812012100 METAR LRBS 012100Z 27003KT 6000 NSC M06/M07 Q1023 BECMG 5000
                        BR=
201812012130 METAR LRBS 012130Z 27003KT 6000 NSC M06/M07 Q1024 NOSIG=
201812012200 METAR LRBS 012200Z 27003KT 240V300 6000 NSC M06/M07 Q1024
                        NOSIG=
201812012230 METAR LRBS 012230Z 26004KT 5000 BR NSC M06/M07 Q1024 NOSIG=
201812012300 METAR LRBS 012300Z 27004KT 240V310 5000 BR NSC M06/M07 Q1023
                        NOSIG=
201812012330 METAR LRBS 012330Z 27004KT 6000 NSC M06/M07 Q1023 NOSIG=
201812020000 METAR LRBS 020000Z 27004KT 6000 NSC M07/M08 Q1024 NOSIG=
201812020030 METAR LRBS 020030Z 27006KT 6000 NSC M07/M08 Q1023 NOSIG=
201812020100 METAR LRBS 020100Z 28004KT 240V310 5000 BR NSC M07/M08 Q1023
                        NOSIG=
201812020130 METAR LRBS 020130Z 27005KT 240V300 5000 BR NSC M08/M08 Q1023
                        NOSIG=
201812020200 METAR COR LRBS 020200Z 26004KT 5000 BR NSC M08/M08 Q1023
                        NOSIG=
201812020230 METAR LRBS 020230Z 27005KT 5000 BR NSC M08/M08 Q1023 NOSIG=
201812020300 METAR LRBS 020300Z 28004KT 260V320 5000 BR NSC M08/M08 Q1023
                        NOSIG=
201812020330 METAR LRBS 020330Z VRB02KT 5000 BR NSC M08/M08 Q1023 NOSIG=
201812020400 METAR LRBS 020400Z 28003KT 260V320 5000 BR NSC M08/M09 Q1023
                        NOSIG=
201812020430 METAR LRBS 020430Z 28003KT 250V310 5000 BR NSC M08/M09 Q1024
                        NOSIG=
201812020500 METAR LRBS 020500Z 28004KT 260V320 4500 BR NSC M08/M09 Q1024
                        NOSIG=
201812020530 METAR LRBS 020530Z 26003KT 5000 BR NSC M09/M09 Q1024 BECMG
                        9999 NSW=
201812020600 METAR LRBS 020600Z 27003KT 4000 BR NSC M08/M09 Q1024 BECMG
                        9999 NSW=
201812020630 METAR LRBS 020630Z 27003KT 4300 BR NSC M08/M09 Q1024 BECMG
                        9999 NSW=
201812020700 METAR LRBS 020700Z 28003KT 4000 BR NSC M07/M08 Q1024 BECMG
                        9999 NSW=
201812020730 METAR LRBS 020730Z 26003KT 4500 BR NSC M06/M08 Q1024 BECMG
                        9999 NSW=
201812020800 METAR LRBS 020800Z 26003KT 230V320 4500 BR NSC M05/M08 Q1025
                        BECMG 9999 NSW=
201812020830 METAR LRBS 020830Z 25003KT 230V310 3800 BR NSC M04/M07 Q1025
                        BECMG 9999 NSW=
201812020900 METAR LRBS 020900Z VRB01KT 3900 BR NSC M03/M07 Q1025 BECMG
                        9999 NSW=
201812020930 METAR LRBS 020930Z VRB01KT 4300 BR NSC M02/M07 Q1024 NOSIG=
201812021000 METAR LRBS 021000Z VRB01KT 5000 BR NSC M01/M06 Q1024 NOSIG=
201812021030 METAR LRBS 021030Z VRB01KT 7000 BR NSC 00/M06 Q1024 NOSIG=
201812021100 METAR LRBS 021100Z 00000KT 7000 NSC 00/M06 Q1024 NOSIG=
201812021130 METAR LRBS 021130Z VRB01KT 7000 NSC 01/M06 Q1023 NOSIG=
201812021200 METAR COR LRBS 021200Z 26002KT 8000 NSC 01/M06 Q1023 NOSIG=
201812021230 METAR LRBS 021230Z VRB01KT 7000 NSC 01/M06 Q1023 NOSIG=
201812021300 METAR LRBS 021300Z 24002KT 6000 NSC 01/M06 Q1023 NOSIG=
201812021330 METAR LRBS 021330Z 26004KT 7000 NSC 01/M06 Q1023 NOSIG=
201812021400 METAR LRBS 021400Z 27003KT 6000 NSC M00/M06 Q1023 NOSIG=
201812021430 METAR LRBS 021430Z 27003KT 6000 NSC M00/M06 Q1023 NOSIG=
201812021500 METAR LRBS 021500Z VRB01KT 6000 NSC M01/M05 Q1023 BECMG 5000
                        BR=
201812021530 METAR LRBS 021530Z 28001KT 6000 NSC M02/M05 Q1023 TEMPO 5000
                        BR=
201812021600 METAR COR LRBS 021600Z 00000KT 5000 BR NSC M02/M05 Q1023
                        TEMPO 3000 BR=
201812021630 METAR LRBS 021630Z VRB01KT 5000 BR NSC M02/M05 Q1023 TEMPO
                        3000 BR=
201812021700 METAR LRBS 021700Z 00000KT 5000 BR NSC M02/M05 Q1023 TEMPO
                        3000 BR=
201812021730 METAR LRBS 021730Z 00000KT 5000 BR NSC M03/M05 Q1023 TEMPO
                        3000 BR=
201812021800 METAR LRBS 021800Z 00000KT 5000 BR NSC M05/M06 Q1023 BECMG
                        3000 BR=
201812021830 METAR LRBS 021830Z 00000KT 4500 BR NSC M04/M05 Q1023 BECMG
                        3000 BR=
201812021900 METAR COR LRBS 021900Z 00000KT 3000 BR NSC M04/M05 Q1023
                        BECMG 1500 BR=
201812021930 METAR LRBS 021930Z 00000KT 3000 BR NSC M04/M05 Q1023 BECMG
                        1500 BR=
201812022000 METAR LRBS 022000Z 32002KT 3000 BR NSC M05/M06 Q1023 BECMG
                        1500 BR=
201812022030 METAR LRBS 022030Z VRB01KT 3000 BR NSC M05/M06 Q1023 BECMG
                        1500 BR=
201812022100 METAR LRBS 022100Z 26002KT 2500 BR NSC M05/M06 Q1023 BECMG
                        1500 BR=
201812022130 METAR LRBS 022130Z 27001KT 1500 BR NSC M05/M06 Q1022 NOSIG=
201812022200 METAR LRBS 022200Z 32001KT 1500 BR NSC M06/M06 Q1022 NOSIG=
201812022230 METAR LRBS 022230Z 29002KT 1500 BR NSC M06/M06 Q1022 NOSIG=
201812022300 METAR LRBS 022300Z 25001KT 2000 BR NSC M06/M06 Q1022 NOSIG=
201812022330 METAR LRBS 022330Z 29002KT 2000 BR NSC M07/M07 Q1022 NOSIG=
201812030000 METAR LRBS 030000Z 00000KT 2000 BR NSC M07/M07 Q1021 NOSIG=
201812030030 METAR LRBS 030030Z VRB01KT 2000 BR NSC M07/M07 Q1021 NOSIG=
201812030100 METAR LRBS 030100Z 30001KT 2000 BR NSC M07/M07 Q1021 NOSIG=
201812030130 METAR LRBS 030130Z 31001KT 2000 BR NSC M07/M07 Q1021 NOSIG=
201812030200 METAR COR LRBS 030200Z 29001KT 2000 BR NSC M07/M08 Q1020
                        NOSIG=
201812030230 METAR LRBS 030230Z AUTO 29001KT 2600 R07/1900U R25/P2000
                        BR NCD M07/M07 Q1020 NOSIG=
201812030300 METAR LRBS 030300Z 29001KT 2000 BR NSC M07/M08 Q1020 NOSIG=
201812030330 METAR LRBS 030330Z 28002KT 2500 BR NSC M07/M08 Q1020 NOSIG=
201812030400 METAR LRBS 030400Z 28003KT 2500 BR NSC M07/M07 Q1020 NOSIG=
201812030430 METAR LRBS 030430Z 28003KT 2500 BR NSC M07/M07 Q1020 NOSIG=
201812030500 METAR LRBS 030500Z 28004KT 250V310 1400 R07/1900D R25/1800N
                        BR NSC M07/M07 Q1020 NOSIG=
201812030530 METAR LRBS 030530Z 27002KT 1400 R07/1700D R25/1400D BR NSC
                        M07/M07 Q1020 NOSIG=
201812030600 METAR LRBS 030600Z 28002KT 1400 R07/1800U R25/1400N BR NSC
                        M06/M07 Q1020 NOSIG=
201812030630 METAR LRBS 030630Z 21003KT 1400 R07/P2000 R25/1600U BR NSC
                        M05/M06 Q1020 NOSIG=
201812030700 METAR LRBS 030700Z 24004KT 4000 BR NSC M05/M06 Q1020 NOSIG=
201812030730 METAR LRBS 030730Z 26005KT 5000 BR NSC M04/M06 Q1020 NOSIG=
201812030800 METAR LRBS 030800Z 27006KT 5000 BR NSC M03/M06 Q1020 NOSIG=
201812030830 METAR LRBS 030830Z 25005KT 5000 BR NSC M02/M06 Q1020 NOSIG=
201812030900 METAR LRBS 030900Z 24005KT 190V270 6000 NSC M01/M05 Q1020
                        NOSIG=
201812030930 METAR LRBS 030930Z 25005KT 8000 NSC M00/M06 Q1019 NOSIG=
201812031000 METAR LRBS 031000Z 27007KT 240V300 8000 NSC M00/M05 Q1019
                        NOSIG=
201812031030 METAR LRBS 031030Z 26006KT 7000 NSC 00/M06 Q1019 NOSIG=
201812031100 METAR LRBS 031100Z 26006KT 7000 NSC 00/M06 Q1018 NOSIG=
201812031130 METAR LRBS 031130Z 26005KT 7000 NSC 01/M06 Q1018 NOSIG=
201812031200 METAR LRBS 031200Z 26004KT CAVOK 01/M05 Q1018 NOSIG=
201812031230 METAR LRBS 031230Z 25006KT CAVOK 02/M06 Q1018 NOSIG=
201812031300 METAR LRBS 031300Z 26006KT CAVOK 02/M06 Q1018 NOSIG=
201812031330 METAR LRBS 031330Z 26007KT CAVOK 02/M05 Q1018 NOSIG=
201812031400 METAR LRBS 031400Z 26006KT CAVOK 01/M06 Q1017 BECMG 5000
                        BR=
201812031430 METAR LRBS 031430Z 27006KT 6000 NSC M00/M05 Q1017 BECMG 5000
                        BR=
201812031500 METAR LRBS 031500Z 25005KT 5000 BR NSC M01/M05 Q1017 BECMG
                        3000 BR=
201812031530 METAR LRBS 031530Z 27005KT 240V300 5000 BR NSC M02/M05 Q1017
                        BECMG 3000 BR=
201812031600 METAR LRBS 031600Z 25004KT 4000 BR NSC M02/M05 Q1017 BECMG
                        3000 BR=
201812031630 METAR LRBS 031630Z 27004KT 4000 BR NSC M03/M05 Q1017 BECMG
                        3000 BR=
201812031700 METAR LRBS 031700Z 27004KT 250V320 3000 BR NSC M03/M05 Q1017
                        BECMG 1500 BR=
201812031730 METAR LRBS 031730Z 28004KT 3000 BR NSC M04/M06 Q1018 BECMG
                        1500 BR=
201812031800 METAR LRBS 031800Z 28004KT 3000 BR NSC M05/M06 Q1018 BECMG
                        1500 BR=
201812031830 METAR LRBS 031830Z 29003KT 260V340 3000 BR NSC M05/M07 Q1018
                        BECMG 1500 BR=
201812031900 METAR LRBS 031900Z 28004KT 3000 BR NSC M06/M07 Q1018 NOSIG=
201812031930 METAR LRBS 031930Z 27004KT 3000 BR NSC M06/M07 Q1017 NOSIG=
201812032000 METAR LRBS 032000Z 26003KT 3000 BR NSC M06/M07 Q1017 NOSIG=
201812032030 METAR LRBS 032030Z 28003KT 260V320 3000 BR NSC M06/M07 Q1017
                        NOSIG=
201812032100 METAR LRBS 032100Z 27005KT 3000 BR NSC M06/M07 Q1017 NOSIG=
201812032130 METAR LRBS 032130Z 27004KT 3500 BR NSC M06/M07 Q1017 NOSIG=
201812032200 METAR LRBS 032200Z 28003KT 230V310 3500 BR NSC M06/M07 Q1017
                        NOSIG=
201812032230 METAR LRBS 032230Z VRB02KT 3000 BR NSC M07/M07 Q1017 NOSIG=
201812032300 METAR LRBS 032300Z 27004KT 240V310 2500 BR NSC M07/M07 Q1016
                        NOSIG=
201812032330 METAR LRBS 032330Z 27004KT 2800 BR NSC M07/M07 Q1016 NOSIG=
201812040000 METAR LRBS 040000Z 27003KT 3000 BR NSC M07/M07 Q1016 NOSIG=
201812040030 METAR LRBS 040030Z 27004KT 2800 BR NSC M07/M07 Q1016 NOSIG=
201812040100 METAR LRBS 040100Z 28004KT 260V320 2700 BR NSC M07/M07 Q1016
                        NOSIG=
201812040130 METAR LRBS 040130Z 27003KT 2900 BR NSC M07/M07 Q1015=
201812040200 METAR LRBS 040200Z 27004KT 3000 BR NSC M07/M08 Q1015 NOSIG=
201812040230 METAR LRBS 040230Z 26004KT 3200 BR NSC M07/M08 Q1015 NOSIG=
201812040300 METAR LRBS 040300Z 26003KT 3300 BR NSC M07/M08 Q1015 NOSIG=
201812040330 METAR LRBS 040330Z 27002KT 3100 BR FEW004 M07/M08 Q1015 NOSIG=
201812040400 METAR LRBS 040400Z VRB01KT 3100 BR FEW004 M07/M08 Q1015 NOSIG=
201812040430 METAR LRBS 040430Z 28003KT 250V310 3400 BR FEW004 M07/M08
                        Q1015 NOSIG=
201812040500 METAR LRBS 040500Z 27003KT 250V310 3500 BR FEW004 M07/M08
                        Q1015 NOSIG=
201812040530 METAR LRBS 040530Z 27003KT 2500 BR BKN002 M07/M08 Q1015 TEMPO
                        1500 BR=
201812040600 METAR LRBS 040600Z 28004KT 0700 R07/1400 R25/1300 FZFG BKN001
                        M07/M08 Q1015 TEMPO 0600 FZFG=
201812040630 METAR LRBS 040630Z 27004KT 240V310 1700 R07/1700 R25/1100
                        BCFG BR FEW001 BKN002 M08/M08 Q1016
                        BECMG 3000 BKN005=
201812040700 METAR LRBS 040700Z 27004KT 250V310 2000 BR BKN003 M07/M07
                        Q1016 BECMG 3000 BKN005=
201812040730 METAR LRBS 040730Z 28004KT 230V320 2500 BR BKN003 M07/M07
                        Q1016 BECMG 5000 BKN005=
201812040800 METAR LRBS 040800Z 27003KT 230V320 2500 BR BKN003 M06/M06
                        Q1016 BECMG 5000 BKN005=
201812040830 METAR LRBS 040830Z 25004KT 2800 BR SCT003 M04/M05 Q1016 BECMG
                        5000 BKN005=
201812040900 METAR LRBS 040900Z 26004KT 230V300 3000 BR FEW003 M03/M05
                        Q1016 BECMG 5000=
201812040930 METAR LRBS 040930Z 26004KT 240V300 4000 BR FEW005 M02/M04
                        Q1015 BECMG 7000 NSW=
201812041000 METAR LRBS 041000Z VRB01KT 4500 BR NSC 00/M03 Q1015 BECMG
                        7000 NSW=
201812041030 METAR LRBS 041030Z 26003KT 230V290 4500 BR NSC 01/M03 Q1015
                        BECMG 7000 NSW=
201812041100 METAR LRBS 041100Z VRB02KT 5000 BR NSC 02/M03 Q1015 BECMG
                        7000 NSW=
201812041130 METAR LRBS 041130Z 26003KT 230V300 5000 BR NSC 02/M03 Q1014
                        BECMG 7000 NSW=
201812041200 METAR COR LRBS 041200Z 26003KT 7000 NSC 03/M03 Q1014 NOSIG=
201812041230 METAR LRBS 041230Z 26004KT 6000 NSC 03/M03 Q1014 NOSIG=
201812041300 METAR LRBS 041300Z 26005KT 7000 NSC 03/M03 Q1014 NOSIG=
201812041330 METAR LRBS 041330Z 26004KT 7000 NSC 03/M03 Q1015 NOSIG=
201812041400 METAR LRBS 041400Z 25004KT 8000 NSC 02/M03 Q1015 NOSIG=
201812041430 METAR LRBS 041430Z VRB02KT 7000 NSC 01/M03 Q1015 NOSIG=
201812041500 METAR COR LRBS 041500Z VRB02KT 4500 BR NSC 01/M03 Q1015 BECMG
                        3000 BR=
201812041530 METAR LRBS 041530Z VRB02KT 4000 BR NSC M00/M03 Q1015 BECMG
                        3000 BR=
201812041600 METAR LRBS 041600Z 27003KT 4000 BR NSC M01/M03 Q1015 BECMG
                        3000 BR=
201812041630 METAR LRBS 041630Z 28004KT 4000 BR NSC M02/M03 Q1015 BECMG
                        3000 BR=
201812041700 METAR LRBS 041700Z 28003KT 4000 BR NSC M02/M03 Q1016 BECMG
                        3000 BR=
201812041730 METAR LRBS 041730Z 24004KT 3000 BR NSC M02/M04 Q1016 NOSIG=
201812041800 METAR LRBS 041800Z 25003KT 3000 BR NSC M03/M04 Q1016 NOSIG=
201812041830 METAR LRBS 041830Z 21003KT 3000 BR NSC M03/M04 Q1016 BECMG
                        1500 BR=
201812041900 METAR LRBS 041900Z 24003KT 3000 BR NSC M03/M04 Q1016 BECMG
                        1500 BR=
201812041930 METAR LRBS 041930Z 24005KT 3000 BR NSC M03/M04 Q1016 NOSIG=
201812042000 METAR LRBS 042000Z 24005KT 3000 BR NSC M04/M05 Q1016 NOSIG=
201812042030 METAR LRBS 042030Z 23004KT 3000 BR NSC M04/M05 Q1016 NOSIG=
201812042100 METAR LRBS 042100Z 24004KT 3000 BR NSC M04/M05 Q1016 NOSIG=
201812042130 METAR LRBS 042130Z 23004KT 3000 BR NSC M04/M05 Q1016 NOSIG=
201812042200 METAR LRBS 042200Z 24005KT 3000 BR NSC M04/M05 Q1017 NOSIG=
201812042230 METAR LRBS 042230Z 24004KT 3000 BR NSC M05/M05 Q1017 NOSIG=
201812042300 METAR LRBS 042300Z 23004KT 3000 BR NSC M05/M05 Q1016 NOSIG=
201812042330 METAR LRBS 042330Z 24003KT 3000 BR NSC M05/M05 Q1017 NOSIG=
201812050000 METAR LRBS 050000Z 24004KT 3000 BR NSC M05/M05 Q1016 NOSIG=
201812050030 METAR COR LRBS 050030Z 24004KT 3000 BR NSC M05/M05 Q1017
                        NOSIG=
201812050100 METAR LRBS 050100Z 24004KT 3000 BR NSC M05/M05 Q1017 NOSIG=
201812050130 METAR LRBS 050130Z 24003KT 3000 BR NSC M05/M05 Q1016 NOSIG=
201812050200 METAR LRBS 050200Z 23003KT 3000 BR NSC M05/M05 Q1016 NOSIG=
201812050230 METAR LRBS 050230Z 23004KT 3000 BR NSC M05/M05 Q1017 NOSIG=
201812050300 METAR LRBS 050300Z 24005KT 3000 BR NSC M05/M05 Q1017 NOSIG=
201812050330 METAR LRBS 050330Z 23005KT 3000 BR NSC M05/M05 Q1017 NOSIG=
201812050400 METAR LRBS 050400Z 23004KT 3000 BR NSC M05/M06 Q1017 NOSIG=
201812050430 METAR LRBS 050430Z 24004KT 3000 BR NSC M05/M05 Q1017 NOSIG=
201812050500 METAR LRBS 050500Z 24005KT 3000 BR NSC M05/M05 Q1017 NOSIG=
201812050530 METAR LRBS 050530Z 23003KT 3000 BR NSC M05/M05 Q1018 NOSIG=
201812050600 METAR LRBS 050600Z VRB01KT 3000 BR NSC M04/M04 Q1018 NOSIG=
201812050630 METAR LRBS 050630Z VRB01KT 3000 BR NSC M04/M04 Q1019 NOSIG=
201812050700 METAR COR LRBS 050700Z VRB02KT 3500 BR BKN037 M03/M03 Q1019
                        R07/19//95 TEMPO 3000 -FZRA=
201812050730 METAR LRBS 050730Z 00000KT 3500 BR OVC035 M02/M03 Q1020 R07/19//95
                        TEMPO 3000 -FZRA=
201812050800 METAR LRBS 050800Z 24003KT 210V270 3500 BR OVC029 M02/M03
                        Q1020 R07/19//95 TEMPO 3000 -FZRA=
201812050830 METAR LRBS 050830Z 26003KT 230V300 3500 BR OVC025 M01/M03
                        Q1020 R07/19//95 TEMPO 3000 -FZRA=
201812050900 METAR LRBS 050900Z VRB02KT 3000 BR OVC023 M01/M03 Q1020 R07/19//95
                        TEMPO 3000 -FZRA=
201812050930 METAR LRBS 050930Z VRB01KT 3500 -FZRA BR OVC022 M00/M02 Q1020
                        R07/19//95 NOSIG=
201812051000 METAR LRBS 051000Z VRB01KT 3500 -FZRA BR SCT021 OVC030 M00/M01
                        Q1020 R07/19//95 NOSIG=
201812051030 METAR LRBS 051030Z VRB02KT 3500 -FZRA BR FEW019 OVC030 00/M01
                        Q1020 R07/19//95 NOSIG=
201812051100 METAR LRBS 051100Z 00000KT 3000 -FZRA BR SCT016 BKN028 01/M00
                        Q1020 R07/19//95 NOSIG=
201812051130 METAR LRBS 051130Z VRB02KT 2000 -FZRA BR FEW018 OVC028 00/00
                        Q1020 R07/29//95 NOSIG=
201812051200 METAR COR LRBS 051200Z VRB02KT 1800 -RA BR OVC029 01/00 Q1020
                        R07/29//95 NOSIG=
201812051230 METAR LRBS 051230Z 24002KT 2000 -RA BR OVC032 01/01 Q1021
                        R07/29//95 NOSIG=
201812051300 METAR LRBS 051300Z 26004KT 220V020 1400 R07/1400N R25/1500N
                        -RA BR FEW015 OVC032 01/01 Q1021
                        R07/29//95 NOSIG=
201812051330 METAR LRBS 051330Z 26004KT 1200 R07/1300N R25/1400D -RA BR
                        BKN027 OVC048 01/01 Q1021 R07/29//95
                        NOSIG=
201812051400 METAR LRBS 051400Z 26004KT 1000 R07/1000N R25/1200N -RA BR
                        SCT003 OVC027 01/00 Q1022 R07/29//95
                        NOSIG=
201812051430 METAR COR LRBS 051430Z 25004KT 0800 R07/0900U R25/1000N -SN
                        FG BKN003 OVC032 01/00 Q1022 R07/590195
                        TEMPO 0600 -SN FG=
201812051500 METAR LRBS 051500Z 25003KT 0900 R07/1200N R25/1400N -SN FG
                        BKN003 OVC013 01/00 Q1022 R07/590195
                        TEMPO 0600 -SN FG=
201812051530 METAR LRBS 051530Z 25004KT 0900 R07/1200U R25/1400N FG BKN003
                        OVC015 01/00 Q1023 R07/590195 NOSIG=
201812051600 METAR LRBS 051600Z 25004KT 1000 R07/1300N R25/1400N BR SCT003
                        OVC022 01/01 Q1023 R07/590195 NOSIG=
201812051630 METAR LRBS 051630Z 27004KT 250V310 1200 R07/1400N R25/1500U
                        BR BKN004 OVC019 01/01 Q1023 R07/590195
                        NOSIG=
201812051700 METAR LRBS 051700Z 26003KT 1200 R07/1400D R25/1600N BR BKN005
                        OVC018 01/01 Q1023 R07/590195 NOSIG=
201812051730 METAR LRBS 051730Z 26003KT 1100 R07/1700D R25/1700D BR BKN005
                        OVC014 01/01 Q1024 R07/550194 NOSIG=
201812051800 METAR LRBS 051800Z 25003KT 1400 R07/1900N R25/1900N BR BKN006
                        BKN014 01/01 Q1024 R07/550194 NOSIG=
201812051830 METAR LRBS 051830Z 25003KT 1600 BR SCT006 BKN015 01/01 Q1024
                        R07/550194 NOSIG=
201812051900 METAR LRBS 051900Z 26004KT 1500 BR FEW004 BKN005 01/01 Q1024
                        R07/550194 TEMPO 0800 FG=
201812051930 METAR LRBS 051930Z 27004KT 1500 BR FEW004 BKN005 OVC015 01/01
                        Q1025 R07/550194 TEMPO 0800 FG=
201812052000 METAR LRBS 052000Z 26003KT 1600 BR SCT006 BKN017 01/01 Q1025
                        R07/550194 NOSIG=
201812052030 METAR LRBS 052030Z 27003KT 1500 -RA BR BKN006 BKN019 01/01
                        Q1025 R07/550194 NOSIG=
201812052100 METAR LRBS 052100Z 27003KT 1500 BR BKN007 BKN021 01/01 Q1025
                        R07/550194 NOSIG=
201812052130 METAR LRBS 052130Z 26003KT 1500 -RA BR SCT007 BKN021 01/01
                        Q1025 R07/550194 NOSIG=
201812052200 METAR LRBS 052200Z 25001KT 2000 -RA BR BKN004 OVC021 01/01
                        Q1025 R07/550194 NOSIG=
201812052230 METAR LRBS 052230Z 23001KT 2000 -RA BR BKN005 BKN019 01/01
                        Q1025 R07/550194 NOSIG=
201812052300 METAR LRBS 052300Z 22003KT 2500 BR OVC005 01/01 Q1025 R07/550194
                        NOSIG=
201812052330 METAR LRBS 052330Z 27002KT 2000 BR BKN006 OVC014 01/01 Q1025
                        R07/550194 NOSIG=
201812060000 METAR LRBS 060000Z 27001KT 2000 BR BKN004 BKN014 01/01 Q1025
                        R07/550194 NOSIG=
201812060030 METAR LRBS 060030Z 08002KT 1800 BR BKN005 BKN015 01/01 Q1026
                        R07/550194 NOSIG=
201812060100 METAR LRBS 060100Z 00000KT 2500 MIFG BR BKN007 BKN016 01/01
                        Q1026 R07/550194 NOSIG=
201812060130 METAR LRBS 060130Z 00000KT 2800 MIFG BR BKN008 BKN019 01/01
                        Q1026 R07/29//95 NOSIG=
201812060200 METAR LRBS 060200Z VRB01KT 3000 BR BKN008 BKN017 01/01 Q1026
                        R07/29//95 NOSIG=
201812060230 METAR LRBS 060230Z 00000KT 2800 MIFG BR BKN010 BKN020 01/01
                        Q1026 R07/29//95 TEMPO 1500 BR=
201812060300 METAR LRBS 060300Z 08002KT 4000 BR FEW002 BKN008 01/01 Q1026
                        R07/29//95 TEMPO 1500 BR=
201812060330 METAR LRBS 060330Z 07001KT 5000 BR OVC007 02/02 Q1026 R07/29//95
                        NOSIG=
201812060400 METAR LRBS 060400Z VRB01KT 4000 MIFG BR FEW008 BKN010 BKN029
                        02/02 Q1026 R07/29//95 NOSIG=
201812060430 METAR LRBS 060430Z 00000KT 3000 BCFG BR FEW002 SCT009 BKN043
                        01/01 Q1026 R07/29//95 NOSIG=
201812060500 METAR LRBS 060500Z 00000KT 3000 R07/1300D R25/1300N BR BKN009
                        BKN042 01/01 Q1026 R07/29//95 NOSIG=
201812060530 METAR LRBS 060530Z 06001KT 1400 R07/1500U R25/1500U BR OVC009
                        01/01 Q1026 R07/29//95 NOSIG=
201812060600 METAR LRBS 060600Z 02002KT 1300 R07/1500D R25/1500D BR OVC009
                        01/01 Q1027 R07/29//95 NOSIG=
201812060630 METAR LRBS 060630Z 11001KT 1200 R07/1300U R25/1200D BR OVC009
                        01/01 Q1027 R07/29//95 NOSIG=
201812060700 METAR LRBS 060700Z 23003KT 3000 BR OVC009 02/02 Q1027 R07/29//95
                        BECMG 5000=
201812060730 METAR LRBS 060730Z 25003KT 4000 BR OVC006 02/02 Q1027 R07/29//95
                        BECMG 5000=
201812060800 METAR LRBS 060800Z 29003KT 260V330 5000 BR OVC008 02/02 Q1027
                        R07/29//95 NOSIG=
201812060830 METAR LRBS 060830Z VRB02KT 7000 OVC007 02/02 Q1027 R07/29//95
                        NOSIG=
201812060900 METAR LRBS 060900Z VRB02KT 7000 OVC007 02/02 Q1027 R07/29//95
                        NOSIG=
201812060930 METAR LRBS 060930Z 30003KT 250V350 5000 BR OVC006 02/02 Q1027
                        R07/29//95 NOSIG=
201812061000 METAR LRBS 061000Z 30003KT 260V350 4000 BR BKN005 OVC013
                        02/02 Q1027 R07/29//95 NOSIG=
201812061030 METAR LRBS 061030Z 30003KT 240V350 3000 BR BKN004 OVC013
                        02/02 Q1027 R07/29//95 NOSIG=
201812061100 METAR LRBS 061100Z 30003KT 260V020 4000 BR OVC005 02/02 Q1026
                        R07/29//95 NOSIG=
201812061130 METAR LRBS 061130Z 28003KT 230V340 4000 BR OVC005 02/02 Q1026
                        R07/29//95 NOSIG=
201812061200 METAR LRBS 061200Z 27004KT 240V300 3000 BR OVC003 02/02 Q1026
                        R07/29//95 NOSIG=
201812061230 METAR LRBS 061230Z 29003KT 240V340 2500 BR OVC003 02/02 Q1026
                        R07/29//95 NOSIG=
201812061300 METAR LRBS 061300Z 29003KT 250V330 3000 BR OVC003 02/02 Q1026
                        R07/29//95 NOSIG=
201812061330 METAR LRBS 061330Z 28004KT 260V320 2000 BR OVC002 02/01 Q1026
                        R07/29//95 NOSIG=
201812061400 METAR LRBS 061400Z 26005KT 2000 BR OVC002 02/01 Q1026 R07/29//95
                        BECMG 1500 BR=
201812061430 METAR LRBS 061430Z 27002KT 3000 BR OVC008 02/01 Q1026 R07/29//95
                        NOSIG=
201812061500 METAR LRBS 061500Z 27003KT 4000 BR FEW010 BKN042 01/01 Q1026
                        R07/29//95 NOSIG=
201812061530 METAR LRBS 061530Z 28003KT 5000 BR OVC037 02/01 Q1026 R07/29//95
                        NOSIG=
201812061600 METAR LRBS 061600Z 26003KT 5000 BR OVC041 02/01 Q1026 R07/29//95
                        BECMG 3000 BR=
201812061630 METAR LRBS 061630Z 28002KT 5000 BR OVC034 01/01 Q1026 R07/29//95
                        BECMG 3000 BR=
201812061700 METAR LRBS 061700Z VRB01KT 5000 BR BKN038 01/01 Q1026 R07/29//95
                        BECMG 3000 BR=
201812061730 METAR LRBS 061730Z 28001KT 7000 SCT036 01/01 Q1026 R07/29//95
                        BECMG 3000 BR=
201812061800 METAR LRBS 061800Z 25002KT 6000 SCT035 01/00 Q1026 R07/29//95
                        NOSIG=
201812061830 METAR LRBS 061830Z 28003KT 5000 BR NSC 00/00 Q1026 R07/29//95
                        NOSIG=
201812061900 METAR LRBS 061900Z 28002KT 5000 BR NSC 00/M00 Q1026 R07/29//95
                        NOSIG=
201812061930 METAR LRBS 061930Z 29003KT 5000 BR NSC M00/M00 Q1026 R07/29//95
                        NOSIG=
201812062000 METAR LRBS 062000Z 27002KT 5000 BR NSC M00/M01 Q1026 R07/29//95
                        NOSIG=
201812062030 METAR LRBS 062030Z 00000KT 5000 BR NSC M01/M01 Q1026 R07/29//95
                        NOSIG=
201812062100 METAR LRBS 062100Z 07003KT 040V100 5000 BR NSC M01/M01 Q1026
                        R07/29//95 NOSIG=
201812062130 METAR COR LRBS 062130Z 12002KT 4000 BR NSC M03/M03 Q1026
                        R07/29//95 BECMG 1500 BR=
201812062200 METAR LRBS 062200Z 03001KT 4000 BR NSC M03/M03 Q1026 R07/29//95
                        BECMG 1500 BR=
201812062230 METAR LRBS 062230Z 00000KT 4000 BR NSC M03/M03 Q1026 R07/29//95
                        BECMG 1500 BR=
201812062300 METAR LRBS 062300Z VRB01KT 4000 BR NSC M02/M03 Q1025 R07/29//95
                        BECMG 1500 BR=
201812062330 METAR LRBS 062330Z VRB01KT 0600 R07/1500VP2000D R25/1200VP2000U=
201812070000 METAR LRBS 070000Z 28003KT 250V320 0100 R07/0350N R25/0550N
                        FZFG VV001 M02/M02 Q1025 R07/29//95
                        NOSIG=
201812070030 METAR LRBS 070030Z 27003KT 240V310 0200 R07/0550N R25/0325N
                        FZFG VV001 M02/M02 Q1025 R07/29//95
                        NOSIG=
201812070100 METAR LRBS 070100Z 27003KT 0200 R07/0550N R25/0550N FZFG
                        VV001 M02/M02 Q1025 R07/29//95 NOSIG=
201812070130 METAR LRBS 070130Z 26004KT 0200 R07/0550N R25/0800D FZFG
                        VV001 M02/M02 Q1025 R07/29//95=
201812070200 METAR LRBS 070200Z VRB02KT 0200 R07/0550N R25/0700N FZFG
                        VV001 M02/M02 Q1025 R07/29//95 NOSIG=
201812070230 METAR LRBS 070230Z 26003KT 230V300 0200 R07/0650N R25/0650U
                        FZFG VV001 M02/M02 Q1025 R07/29//95
                        NOSIG=
201812070300 METAR LRBS 070300Z 22003KT 190V250 0200 R07/0550N R25/0550N
                        FZFG VV001 M02/M02 Q1025 R07/29//95
                        NOSIG=
201812070330 METAR LRBS 070330Z 26004KT 230V290 0200 R07/0650N R25/0700N
                        FZFG VV001 M02/M02 Q1025 R07/29//95
                        NOSIG=
201812070400 METAR LRBS 070400Z 25004KT 220V290 0200 R07/0750N R25/0800N
                        FZFG VV002 M02/M02 Q1024 R07/29//95=
201812070430 METAR LRBS 070430Z 24004KT 0300 R07/0550D R25/0550N FZFG
                        VV002 M02/M03 Q1024 R07/29//95 NOSIG=
201812070500 METAR COR LRBS 070500Z 22004KT 190V250 1500 BR OVC001 M02/M02
                        Q1024 R07/29//95 NOSIG=
201812070530 METAR COR LRBS 070530Z 24003KT 1400 R07/2000N R25/1200 BR
                        VV002 M02/M02 Q1025 R07/29//95 NOSIG=
201812070600 METAR LRBS 070600Z 24004KT 210V280 1100 R07/1400 R25/P2000
                        BR VV001 M02/M02 Q1025 R07/29//95
                        NOSIG=
201812070630 METAR LRBS 070630Z 22004KT 1500 BR OVC002 M02/M02 Q1024 R07/29//95
                        NOSIG=
201812070700 METAR LRBS 070700Z 23005KT 0600 R07/0700U R25/1200 FZFG VV001
                        M02/M02 Q1024 R07/19//95 NOSIG=
201812070730 METAR LRBS 070730Z 22006KT 0600 R07/0650N R25/0800 FZFG VV001
                        M01/M01 Q1024 R07/19//95 NOSIG=
201812070800 METAR LRBS 070800Z 24006KT 0800 R07/1000N R25/0700N FZFG
                        VV001 M01/M01 Q1024 R07/19//95 NOSIG=
201812070830 METAR LRBS 070830Z 23007KT 1400 R07/1800 R25/P2000 BR VV002
                        M01/M01 Q1024 R07/19//95 BECMG 3000
                        BKN005=
201812070900 METAR LRBS 070900Z 23006KT 210V270 3000 BR OVC003 M00/M00
                        Q1024 R07/19//95 BECMG 5000 BKN010=
201812070930 METAR LRBS 070930Z 23006KT 200V260 4000 BR OVC005 M00/M00
                        Q1023 R07/19//95 BECMG 5000 BKN010=
201812071000 METAR LRBS 071000Z 24006KT 4000 BR OVC005 M00/M00 Q1023 R07/19//95
                        BECMG 5000 BKN010=
201812071030 METAR LRBS 071030Z 23009KT 5000 BR OVC004 M00/M01 Q1023 R07/19//95
                        NOSIG=
201812071100 METAR LRBS 071100Z 27007KT 240V320 4500 BR OVC004 M00/M00
                        Q1022 R07/19//95 NOSIG=
201812071130 METAR LRBS 071130Z 24008KT 220V280 6000 OVC005 00/M00 Q1022
                        R07/19//95 NOSIG=
201812071200 METAR LRBS 071200Z 24007KT 210V270 5000 BR OVC005 00/00 Q1021
                        R07/19//95 NOSIG=
201812071230 METAR LRBS 071230Z 25008KT 4000 BR OVC005 00/00 Q1021 R07/19//95
                        NOSIG=
201812071300 METAR LRBS 071300Z 25008KT 4000 BR OVC005 00/00 Q1021 R07/19//95
                        NOSIG=
201812071330 METAR LRBS 071330Z 26009KT 6000 SCT005 OVC008 00/00 Q1021
                        R07/19//95 NOSIG=
201812071400 METAR LRBS 071400Z 25008KT 5000 BR OVC008 00/00 Q1021 R07/19//95
                        NOSIG=
201812071430 METAR LRBS 071430Z 25007KT 5000 BR OVC008 00/00 Q1021 R07/19//95
                        NOSIG=
201812071500 METAR LRBS 071500Z 25008KT 230V290 5000 BR OVC007 00/00 Q1020
                        R07/19//95 BECMG 3000 BR=
201812071530 METAR LRBS 071530Z 27006KT 240V310 3000 BR BKN007 OVC009
                        00/00 Q1020 R07/19//95 NOSIG=
201812071600 METAR LRBS 071600Z 24007KT 3000 BR BKN006 OVC011 00/00 Q1020
                        R07/19//95 NOSIG=
201812071630 METAR LRBS 071630Z 26006KT 3000 BR BKN007 BKN010 00/00 Q1020
                        R07/19//95 NOSIG=
201812071700 METAR LRBS 071700Z 26007KT 4000 BR BKN010 00/00 Q1020 R07/19//95
                        NOSIG=
201812071730 METAR LRBS 071730Z 25006KT 5000 BR OVC009 00/00 Q1019 R07/19//95
                        NOSIG=
201812071800 METAR LRBS 071800Z 25007KT 5000 BR OVC009 00/00 Q1019 R07/19//95
                        NOSIG=
201812071830 METAR LRBS 071830Z 25006KT 5000 BR OVC009 00/00 Q1019 R07/19//95
                        NOSIG=
201812071900 METAR LRBS 071900Z 25007KT 5000 BR OVC008 00/00 Q1019 R07/19//95
                        NOSIG=
201812071930 METAR LRBS 071930Z 27007KT 240V300 5000 BR OVC008 00/M00
                        Q1018 R07/19//95 NOSIG=
201812072000 METAR LRBS 072000Z 27006KT 240V310 6000 OVC008 00/M00 Q1018
                        R07/19//95 NOSIG=
201812072030 METAR LRBS 072030Z 27007KT 240V330 6000 OVC008 00/M00 Q1018
                        R07/19//95 NOSIG=
201812072100 METAR LRBS 072100Z 27006KT 240V310 6000 OVC008 M00/M00 Q1018
                        R07/19//95 NOSIG=
201812072130 METAR LRBS 072130Z 27006KT 240V310 6000 OVC009 M00/M00 Q1017
                        R07/19//95 NOSIG=
201812072200 METAR LRBS 072200Z 27005KT 240V320 6000 OVC009 M00/M00 Q1017
                        R07/19//95 NOSIG=
201812072230 METAR LRBS 072230Z 26007KT 230V300 6000 OVC008 M00/M00 Q1017
                        R07/19//95 NOSIG=
201812072300 METAR LRBS 072300Z 26005KT 230V300 6000 OVC008 M00/M00 Q1016
                        R07/19//95 NOSIG=
201812072330 METAR LRBS 072330Z 27004KT 240V300 6000 OVC009 M00/M01 Q1016
                        R07/19//95 NOSIG=
201812080000 METAR LRBS 080000Z 26005KT 5000 BR BKN009 M01/M01 Q1016 R07/19//95
                        NOSIG=
201812080030 METAR LRBS 080030Z 26007KT 5000 BR BKN006 M01/M01 Q1015 R07/19//95
                        NOSIG=
201812080100 METAR COR LRBS 080100Z 27006KT 240V300 4500 BR OVC005 M01/M01
                        Q1015 R07/19//95 NOSIG=
201812080130 METAR LRBS 080130Z 24006KT 4000 BR OVC004 M01/M01 Q1015 R07/19//95
                        NOSIG=
201812080200 METAR LRBS 080200Z 24007KT 220V280 3000 BR OVC003 M01/M01
                        Q1014 R07/19//95 NOSIG=
201812080230 METAR LRBS 080230Z 23007KT 2000 BR OVC002 M01/M01 Q1014 R07/19//95
                        BECMG 1500 BR=
201812080300 METAR LRBS 080300Z 25004KT 2000 BR OVC002 M01/M01 Q1014 R07/19//95
                        NOSIG=
201812080330 METAR LRBS 080330Z 24004KT 2000 BR OVC002 M01/M01 Q1013 R07/19//95
                        NOSIG=
201812080400 METAR LRBS 080400Z 24004KT 210V280 1500 BR OVC002 M01/M01
                        Q1013 R07/19//95 NOSIG=
201812080430 METAR LRBS 080430Z 24005KT 1300 R07/1800U R25/1900N BR OVC001
                        M01/M01 Q1013 R07/19//95 NOSIG=
201812080500 METAR LRBS 080500Z 23005KT 0500 R07/0650D R25/0800D FZFG
                        VV001 M02/M02 Q1013 R07/19//95 BECMG
                        0350 FZFG=
201812080530 METAR LRBS 080530Z 22004KT 170V260 0200 R07/0450N R25/0450N
                        FZFG VV002 M02/M02 Q1013 R07/19//95
                        TEMPO 0600=
201812080600 METAR LRBS 080600Z 21004KT 0350 R07/0550N R25/0550U FZFG
                        VV002 M02/M02 Q1013 R07/19//95 TEMPO
                        0600=
201812080630 METAR LRBS 080630Z 23004KT 190V260 0400 R07/0800N R25/0600N
                        FZFG OVC001 M02/M02 Q1014 R07/19//95
                        TEMPO 0600=
201812080700 METAR LRBS 080700Z 24005KT 0900 R07/1300D R25/0450N FZFG
                        BKN001 M02/M02 Q1013 R07/19//95 BECMG
                        1500 BR BKN002=
201812080730 METAR LRBS 080730Z VRB02KT 1800 BR SCT002 M02/M02 Q1013 R07/19//95
                        BECMG 3000=
201812080800 METAR COR LRBS 080800Z 24004KT 220V280 3000 BR SCT002 M01/M01
                        Q1013 R07/19//95 BECMG 5000=
201812080830 METAR LRBS 080830Z 26005KT 4200 BR FEW003 M01/M01 Q1013 R07/CLRD//
                        BECMG 9999 NSW=
201812080900 METAR LRBS 080900Z 27004KT 240V320 5000 BR FEW004 00/M00
                        Q1013 BECMG 9999 NSW=
201812080930 METAR LRBS 080930Z 26003KT 230V300 5000 BR NSC 02/01 Q1012
                        BECMG 9999 NSW=
201812081000 METAR LRBS 081000Z 26005KT 6000 NSC 03/00 Q1012 NOSIG=
201812081030 METAR LRBS 081030Z 27006KT 7000 NSC 03/00 Q1012 NOSIG=
201812081100 METAR COR LRBS 081100Z 26007KT 7000 NSC 03/00 Q1011 NOSIG=
201812081130 METAR LRBS 081130Z 26007KT 9000 NSC 03/01 Q1011 NOSIG=
201812081200 METAR LRBS 081200Z 26005KT 210V280 CAVOK 05/00 Q1011 NOSIG=
201812081230 METAR LRBS 081230Z 24005KT CAVOK 04/01 Q1011 NOSIG=
201812081300 METAR LRBS 081300Z 26005KT CAVOK 04/01 Q1011 NOSIG=
201812081330 METAR LRBS 081330Z 25003KT 220V280 CAVOK 04/00 Q1011 NOSIG=
201812081400 METAR LRBS 081400Z 25005KT CAVOK 04/00 Q1011 NOSIG=
201812081430 METAR LRBS 081430Z 26004KT CAVOK 03/00 Q1011 NOSIG=
201812081500 METAR LRBS 081500Z 26005KT CAVOK 03/00 Q1011 NOSIG=
201812081530 METAR LRBS 081530Z 26003KT 230V300 8000 NSC 03/00 Q1011 NOSIG=
201812081600 METAR LRBS 081600Z 27004KT 240V300 7000 NSC 03/01 Q1011 NOSIG=
201812081630 METAR LRBS 081630Z 28004KT 7000 NSC 03/01 Q1011 BECMG 5000
                        BR=
201812081700 METAR LRBS 081700Z 27004KT 240V300 6000 NSC 03/02 Q1011 BECMG
                        5000 BR=
201812081730 METAR LRBS 081730Z 26003KT 6000 NSC 03/02 Q1011 BECMG 3000
                        -RA BR BKN010 BKN040=
201812081800 METAR LRBS 081800Z 28003KT 250V320 7000 NSC 03/01 Q1010 BECMG
                        3000 -RA BR BKN010 BKN040=
201812081830 METAR LRBS 081830Z 27004KT 5000 BR NSC 03/02 Q1011 BECMG
                        3000 -RA BR BKN010 BKN040=
201812081900 METAR LRBS 081900Z 27004KT 240V310 5000 -RA BR NSC 03/02
                        Q1011 NOSIG=
201812081930 METAR LRBS 081930Z 27004KT 5000 -RA BR NSC 02/02 Q1011 NOSIG=
201812082000 METAR LRBS 082000Z 26004KT 240V300 5000 -RA BR NSC 02/02
                        Q1011 NOSIG=
201812082030 METAR LRBS 082030Z 27003KT 5000 -RA BR NSC 03/02 Q1011 NOSIG=
201812082100 METAR LRBS 082100Z 27003KT 240V300 5000 -RA BR FEW048 03/02
                        Q1011 NOSIG=
201812082130 METAR LRBS 082130Z 27004KT 5000 -RA BR FEW045 02/02 Q1011
                        NOSIG=
201812082200 METAR LRBS 082200Z 27005KT 240V300 5000 BR NSC 02/02 Q1010
                        NOSIG=
201812082230 METAR LRBS 082230Z 26005KT 5000 -RA BR NSC 02/02 Q1010 NOSIG=
201812082300 METAR LRBS 082300Z 26006KT 5000 BR NSC 02/02 Q1010 NOSIG=
201812082330 METAR LRBS 082330Z 25005KT 5000 BR NSC 02/02 Q1010 NOSIG=
201812090000 METAR COR LRBS 090000Z 26007KT 5000 BR NSC 02/02 Q1010 R07/29//95
                        NOSIG=
201812090030 METAR LRBS 090030Z 25007KT 5000 BR NSC 02/02 Q1010 R07/29//95
                        NOSIG=
201812090100 METAR LRBS 090100Z 25006KT 5000 BR NSC 02/01 Q1010 R07/29//95
                        NOSIG=
201812090130 METAR LRBS 090130Z 27006KT 240V310 5000 BR NSC 02/02 Q1009
                        R07/29//95 NOSIG=
201812090200 METAR LRBS 090200Z 24007KT 5000 BR NSC 02/01 Q1009 R07/29//95
                        NOSIG=
201812090230 METAR LRBS 090230Z 27006KT 240V300 5000 BR NSC 02/01 Q1010
                        R07/29//95 NOSIG=
201812090300 METAR LRBS 090300Z 27006KT 240V300 5000 BR NSC 02/01 Q1010
                        R07/29//95 NOSIG=
201812090330 METAR LRBS 090330Z 26005KT 230V300 3000 BR BKN005 02/02 Q1010
                        R07/29//95 NOSIG=
201812090400 METAR LRBS 090400Z 25005KT 3000 BR OVC005 02/02 Q1010 R07/19//95
                        NOSIG=
201812090430 METAR LRBS 090430Z 24007KT 3000 BR OVC005 02/02 Q1010 R07/19//95
                        NOSIG=
201812090500 METAR LRBS 090500Z 25008KT 3000 BR OVC003 02/02 Q1010 R07/19//95
                        NOSIG=
201812090530 METAR LRBS 090530Z 25008KT 4000 BR OVC003 02/02 Q1010 R07/19//95
                        NOSIG=
201812090600 METAR LRBS 090600Z 25008KT 3000 BR OVC004 02/02 Q1010 R07/19//95
                        NOSIG=
201812090630 METAR LRBS 090630Z 27006KT 240V310 3000 BR OVC004 02/02 Q1010
                        R07/19//95 NOSIG=
201812090700 METAR LRBS 090700Z 28005KT 240V340 3000 -RA BR OVC004 02/02
                        Q1010 R07/19//95 NOSIG=
201812090730 METAR LRBS 090730Z 29003KT 240V350 3000 -RA BR OVC003 03/02
                        Q1010 R07/19//95 NOSIG=
201812090800 METAR LRBS 090800Z 26003KT 230V300 3000 BR OVC003 03/03 Q1010
                        R07/19//95 NOSIG=
201812090830 METAR LRBS 090830Z VRB02KT 3000 -RA BR OVC004 03/03 Q1010
                        R07/19//95 NOSIG=
201812090900 METAR LRBS 090900Z 25004KT 220V310 3000 -RA BR OVC004 03/03
                        Q1010 R07/19//95 NOSIG=
201812090930 METAR LRBS 090930Z 26005KT 240V280 4000 BR BKN006 04/04 Q1009
                        R07/19//95 BECMG 5000 BKN010=
201812091000 METAR LRBS 091000Z 27004KT 240V310 4000 BR OVC006 04/04 Q1009
                        R07/19//95 BECMG 5000 BKN010=
201812091030 METAR LRBS 091030Z 24003KT 210V280 4000 BR BKN006 04/04 Q1009
                        R07/19//95 BECMG 5000 BKN010=
201812091100 METAR LRBS 091100Z VRB02KT 4000 BR BKN006 04/04 Q1009 R07/19//95
                        BECMG 5000 BKN010=
201812091130 METAR LRBS 091130Z 26004KT 210V300 4000 BR BKN007 05/04 Q1008
                        R07/19//95 BECMG 5000 BKN010=
201812091200 METAR LRBS 091200Z 27003KT 220V340 3500 BR BKN007 05/04 Q1008
                        R07/19//95 BECMG 5000 BKN010=
201812091230 METAR LRBS 091230Z 26004KT 230V300 4000 BR OVC007 05/05 Q1008
                        R07/19//95 NOSIG=
201812091300 METAR LRBS 091300Z 24004KT 210V280 4000 BR OVC008 05/05 Q1008
                        R07/19//95 NOSIG=
201812091330 METAR LRBS 091330Z 25004KT 220V310 4000 BR OVC008 05/05 Q1008
                        R07/19//95 NOSIG=
201812091400 METAR LRBS 091400Z 25004KT 190V290 4000 OVC008 05/05 Q1008
                        R07/19//95 NOSIG=
201812091430 METAR LRBS 091430Z 26005KT 4000 BR OVC009 05/05 Q1008 R07/19//95
                        NOSIG=
201812091500 METAR LRBS 091500Z 23003KT 200V270 5000 BR OVC008 05/05 Q1008
                        R07/19//95 NOSIG=
201812091530 METAR LRBS 091530Z 28003KT 230V330 5000 BR OVC009 05/04 Q1008
                        R07/19//95 NOSIG=
201812091600 METAR COR LRBS 091600Z VRB01KT 5000 BR OVC009 04/04 Q1007
                        R07/19//95 NOSIG=
201812091630 METAR LRBS 091630Z VRB01KT 5000 BR OVC010 04/04 Q1007 R07/19//95
                        NOSIG=
201812091700 METAR LRBS 091700Z VRB01KT 5000 BR OVC009 04/04 Q1007 R07/19//95
                        NOSIG=
201812091730 METAR LRBS 091730Z VRB01KT 5000 BR OVC008 04/04 Q1007 R07/19//95
                        NOSIG=
201812091800 METAR LRBS 091800Z VRB02KT 4500 BR BKN009 03/03 Q1006 R07/19//95
                        NOSIG=
201812091830 METAR COR LRBS 091830Z 28003KT 0300 R07/0350N R25/P2000 FG
                        VV001 03/02 Q1006 R07/19//95 NOSIG=
201812091900 METAR LRBS 091900Z VRB02KT 0200 R07/0250N R25/1300 FG VV001
                        03/02 Q1007 R07/19//95 NOSIG=
201812091930 METAR LRBS 091930Z 29006KT 0500 R07/0550N R25/0550N FG VV002
                        03/03 Q1007 R07/19//95 NOSIG=
201812092000 METAR LRBS 092000Z 29004KT 260V320 0500 R07/0550N R25/0800N
                        FG VV002 02/02 Q1007 R07/19//95 NOSIG=
201812092030 METAR LRBS 092030Z 00000KT 0400 R07/0450N R25/0400N FG VV001
                        02/02 Q1007 R07/19//95 NOSIG=
201812092100 METAR LRBS 092100Z 00000KT 0400 R07/0400N R25/0450N FG VV001
                        02/02 Q1006 R07/19//95 NOSIG=
201812092130 METAR LRBS 092130Z VRB02KT 0800 R07/1500N R25/1400U FG OVC002
                        02/02 Q1007 R07/19//95 BECMG 1500
                        BR=
201812092200 METAR LRBS 092200Z 30004KT 270V330 0600 R07/0700N R25/1600D
                        FG OVC001 02/02 Q1007 R07/19//95
                        TEMPO 1500 BR=
201812092230 METAR LRBS 092230Z 27003KT 230V320 0300 R07/0500N R25/0550N
                        FG VV002 02/02 Q1007 R07/19//95 BECMG
                        0800=
201812092300 METAR LRBS 092300Z 27003KT 250V310 0250 R07/0300N R25/0300N
                        FG VV002 02/01 Q1006 R07/19//95 BECMG
                        0800=
201812092330 METAR LRBS 092330Z 21003KT 0300 R07/0350N R25/0275N FG VV002
                        02/02 Q1006 R07/19//95 NOSIG=
201812100000 METAR LRBS 100000Z 24003KT 0200 R07/0300N R25/0300N FG VV001
                        01/01 Q1006 R07/19//95 NOSIG=
201812100030 METAR LRBS 100030Z 26004KT 0200 R07/0300N R25/0300N FG VV001
                        01/01 Q1006 R07/19//95 NOSIG=
201812100100 METAR LRBS 100100Z 24005KT 0200 R07/0350N R25/0375N FG VV001
                        00/00 Q1006 R07/19//95 NOSIG=
201812100130 METAR LRBS 100130Z 22004KT 180V240 0300 R07/0325N R25/0325N
                        FG VV001 M00/M00 Q1005 R07/19//95
                        NOSIG=
201812100200 METAR LRBS 100200Z 25004KT 210V300 0200 R07/0350N R25/0375N
                        FZFG VV001 M00/M00 Q1006 R07/19//95
                        NOSIG=
201812100230 METAR LRBS 100230Z 27004KT 0200 R07/0375N R25/0400N FZFG
                        VV001 M00/M00 Q1005 R07/19//95 NOSIG=
201812100300 METAR LRBS 100300Z VRB02KT 0200 R07/0350N R25/0325N FZFG
                        VV001 M01/M01 Q1005 R07/19//95 NOSIG=
201812100330 METAR LRBS 100330Z 28004KT 0200 R07/0350N R25/0375N FZFG
                        VV002 M01/M01 Q1005 R07/19//95 NOSIG=
201812100400 METAR LRBS 100400Z VRB02KT 0200 R07/0375N R25/0350N FG VV002
                        M01/M01 Q1005 R07/19//95 NOSIG=
201812100430 METAR LRBS 100430Z VRB02KT 0200 R07/0375N R25/0350N FZFG
                        VV001 M01/M01 Q1006 R07/19//95 NOSIG=
201812100500 METAR LRBS 100500Z 25003KT 210V300 0300 R07/0400N R25/0350N
                        FZFG VV002 M01/M01 Q1006 R07/19//95
                        NOSIG=
201812100530 METAR LRBS 100530Z 25004KT 220V310 0350 R07/0450N R25/0450N
                        FZFG VV001 M01/M01 Q1006 R07/19//95
                        NOSIG=
201812100600 METAR LRBS 100600Z 23003KT 0200 R07/0275N R25/0275N FZFG
                        VV001 M01/M01 Q1006 R07/19//95 NOSIG=
201812100630 METAR LRBS 100630Z VRB02KT 0250 R07/0275N R25/0250N FZFG
                        VV001 M01/M01 Q1006 R07/19//95 NOSIG=
201812100700 METAR LRBS 100700Z VRB02KT 0600 R07/0500N R25/0800U FZFG
                        BKN001 M00/M00 Q1006 R07/19//95 TEMPO
                        0800 FZFG BKN002=
201812100730 METAR LRBS 100730Z VRB02KT 1400 R07/0900 R25/1900N BR FEW002
                        M00/M00 Q1007 R07/19//95 BECMG 3000
                        BR=
201812100800 METAR LRBS 100800Z 26003KT 220V280 4000 BR SCT002 00/00 Q1007
                        R07/19//95 BECMG 5000 BR=
201812100830 METAR LRBS 100830Z 23004KT 5000 BR FEW003 01/01 Q1007 R07/19//95
                        NOSIG=
201812100900 METAR LRBS 100900Z VRB02KT 5000 BR SCT004 01/01 Q1007 R07/19//95
                        NOSIG=
201812100930 METAR LRBS 100930Z VRB02KT 3000 BR OVC004 01/01 Q1007 R07/19//95
                        NOSIG=
201812101000 METAR LRBS 101000Z 24003KT 210V330 3000 BR BKN004 02/02 Q1007
                        R07/19//95 NOSIG=
201812101030 METAR LRBS 101030Z 22004KT 180V260 4000 FEW003 02/02 Q1007
                        R07/19//95 NOSIG=
201812101100 METAR LRBS 101100Z 24004KT 3000 BR NSC 03/03 Q1007 R07/19//95
                        NOSIG=
201812101130 METAR LRBS 101130Z 24005KT 210V270 3500 BR NSC 03/03 Q1007
                        R07/19//95 NOSIG=
201812101200 METAR LRBS 101200Z 27005KT 240V300 3000 BR SCT004 03/03 Q1007
                        R07/19//95 NOSIG=
201812101230 METAR LRBS 101230Z 24006KT 3000 BR FEW003 03/03 Q1007 R07/19//95
                        NOSIG=
201812101300 METAR LRBS 101300Z 24005KT 210V270 3500 BR SCT004 03/03 Q1007
                        R07/19//95 NOSIG=
201812101330 METAR LRBS 101330Z 26005KT 3500 BR SCT004 03/03 Q1007 R07/19//95
                        NOSIG=
201812101400 METAR LRBS 101400Z 23005KT 3500 BR FEW004 03/03 Q1007 R07/19//95
                        NOSIG=
201812101430 METAR LRBS 101430Z 24005KT 3000 BR NSC 03/03 Q1006 R07/19//95
                        NOSIG=
201812101500 METAR COR LRBS 101500Z 24005KT 2500 BR FEW003 03/03 Q1006
                        R07/19//95 BECMG 1500 BR=
201812101530 METAR LRBS 101530Z 24007KT 0600 R07/0550D R25/1900U FG SCT001
                        03/02 Q1006 R07/19//95 BECMG 0350
                        FG VV001=
201812101600 METAR LRBS 101600Z 25006KT 230V290 0350 R07/0325N R25/0450N
                        FG VV001 02/02 Q1007 R07/19//95 BECMG
                        0150 FG VV001=
201812101630 METAR LRBS 101630Z 24006KT 0350 R07/0400N R25/0400N FG VV001
                        02/02 Q1007 R07/19//95 BECMG 0150
                        FG VV001=
201812101700 METAR LRBS 101700Z 24006KT 0800 R07/0900U R25/0600N FG SCT001
                        03/03 Q1007 R07/19//95 TEMPO 0600
                        FG=
201812101730 METAR LRBS 101730Z 25003KT 1300 R07/1600N R25/1300U BR FEW001
                        02/02 Q1007 R07/19//95 NOSIG=
201812101800 METAR LRBS 101800Z 25004KT 2000 BR NSC 03/03 Q1007 R07/19//95
                        NOSIG=
201812101830 METAR LRBS 101830Z 24003KT 2000 BR NSC 03/03 Q1007 R07/19//95
                        NOSIG=
201812101900 METAR LRBS 101900Z 26003KT 2000 BR NSC 03/03 Q1007 R07/19//95
                        NOSIG=
201812101930 METAR LRBS 101930Z 25002KT 2000 BR NSC 03/03 Q1007 R07/19//95
                        NOSIG=
201812102000 METAR LRBS 102000Z 25003KT 2000 BR NSC 03/03 Q1007 R07/19//95
                        NOSIG=
201812102030 METAR LRBS 102030Z 25002KT 2000 BR NSC 03/03 Q1007 R07/19//95
                        NOSIG=
201812102100 METAR LRBS 102100Z 25002KT 2000 BR NSC 03/03 Q1007 R07/19//95
                        NOSIG=
201812102130 METAR LRBS 102130Z 25003KT 3000 BR NSC 03/03 Q1007 R07/19//95
                        NOSIG=
201812102200 METAR LRBS 102200Z 26002KT 4000 BR NSC 03/03 Q1007 R07/19//95
                        NOSIG=
201812102230 METAR LRBS 102230Z VRB02KT 3000 BR NSC 03/03 Q1007 R07/19//95
                        NOSIG=
201812102300 METAR LRBS 102300Z 08003KT 2000 BR NSC 02/02 Q1007 R07/19//95
                        NOSIG=
201812102330 METAR LRBS 102330Z 08005KT 1500 BR NSC 02/02 Q1008 R07/19//95
                        NOSIG=
201812110000 METAR LRBS 110000Z 06004KT 1500 BR NSC 02/02 Q1008 R07/19//95
                        NOSIG=
201812110030 METAR LRBS 110030Z 07005KT 1500 BR FEW002 01/01 Q1008 R07/19//95
                        NOSIG=
201812110100 METAR LRBS 110100Z 07005KT 0800 R07/1600D R25/1600D FG BKN002
                        01/01 Q1008 R07/19//95 TEMPO 0600
                        FG=
201812110130 METAR LRBS 110130Z 11006KT 080V140 2000 BR FEW002 01/01 Q1009
                        R07/19//95 NOSIG=
201812110200 METAR LRBS 110200Z 11004KT 080V140 5000 BR NSC 02/02 Q1009
                        R07/19//95 NOSIG=
201812110230 METAR LRBS 110230Z 10005KT 6000 NSC 02/02 Q1009 R07/19//95
                        NOSIG=
201812110300 METAR LRBS 110300Z 15003KT 110V190 8000 NSC 02/02 Q1009 R07/19//95
                        NOSIG=
201812110330 METAR LRBS 110330Z 13004KT 8000 NSC 02/02 Q1009 R07/19//95
                        TEMPO 5000 -RA BR=
201812110400 METAR LRBS 110400Z 12004KT 8000 -RA BKN049 02/02 Q1009 R07/19//95
                        TEMPO 5000 -RA BR=
201812110430 METAR LRBS 110430Z VRB02KT 9000 -RA FEW012 02/02 Q1010 R07/19//95
                        NOSIG=
201812110500 METAR LRBS 110500Z VRB01KT 9000 SCT012 02/02 Q1010 R07/19//95
                        NOSIG=
201812110530 METAR LRBS 110530Z VRB01KT 7000 BKN011 02/02 Q1010 R07/19//95
                        TEMPO 5000 -RA BR BKN010=
201812110600 METAR LRBS 110600Z VRB01KT 7000 SCT012 BKN048 02/02 Q1011
                        R07/19//95 TEMPO 5000 -RA BR BKN010=
201812110630 METAR LRBS 110630Z VRB01KT 6000 SCT011 BKN048 02/02 Q1011
                        R07/19//95 TEMPO 5000 -RA BR BKN010=
201812110700 METAR COR LRBS 110700Z VRB01KT 6000 FEW011 SCT043 BKN048
                        02/02 Q1011 R07/19//95 TEMPO 5000
                        -RA BR BKN010=
201812110730 METAR LRBS 110730Z VRB02KT 7000 FEW014 OVC043 03/03 Q1012
                        R07/19//95 NOSIG=
201812110800 METAR LRBS 110800Z 27003KT 250V310 7000 -RA OVC047 03/03
                        Q1012 R07/19//95 TEMPO 5000 -RA BR
                        BKN010 OVC040=
201812110830 METAR LRBS 110830Z 25003KT 220V280 8000 FEW012 BKN039 04/04
                        Q1012 R07/19//95 TEMPO 5000 -RA BR
                        BKN010 OVC040=
201812110900 METAR COR LRBS 110900Z 21005KT 170V240 9999 FEW010 BKN041
                        04/04 Q1012 R07/19//95 NOSIG=
201812110930 METAR LRBS 110930Z 21004KT 150V240 9999 -RA SCT011 SCT023
                        BKN037 04/04 Q1012 R07/19//95 NOSIG=
201812111000 METAR LRBS 111000Z 22004KT 170V260 9999 -RA BKN010 BKN025
                        04/04 Q1012 R07/29//95 NOSIG=
201812111030 METAR LRBS 111030Z 25005KT 220V280 9999 -RA SCT011 BKN026
                        BKN042 04/04 Q1012 R07/29//95 NOSIG=
201812111100 METAR LRBS 111100Z 25004KT 220V280 9000 -RA BKN010 BKN035
                        04/04 Q1012 R07/29//95 NOSIG=
201812111130 METAR LRBS 111130Z 23002KT 9000 -RA SCT009 OVC023 04/04 Q1012
                        R07/29//95 NOSIG=
201812111200 METAR LRBS 111200Z VRB01KT 9000 -RA BKN013 OVC022 04/04 Q1013
                        R07/29//95 NOSIG=
201812111230 METAR LRBS 111230Z VRB01KT 9000 -RA BKN012 OVC043 04/04 Q1013
                        R07/29//95 BECMG 5000 -RA BR=
201812111300 METAR LRBS 111300Z 05001KT 9999 -RA BKN008 OVC035 04/04 Q1013
                        R07/29//95 BECMG 5000 -RA BR=
201812111330 METAR LRBS 111330Z VRB02KT 9999 -RA SCT010 BKN013 OVC018
                        03/03 Q1013 R07/29//95 BECMG 5000
                        -RA BR=
201812111400 METAR LRBS 111400Z 00000KT 9000 -RA BKN017 OVC022 03/03 Q1014
                        R07/29//95 BECMG 5000 -RA BR=
201812111430 METAR LRBS 111430Z VRB02KT 4000 -RA BR OVC020 03/03 Q1014
                        R07/29//95 TEMPO 3000 -RA BR=
201812111500 METAR LRBS 111500Z VRB01KT 1400 R07/P2000 R25/P2000 -RA BR
                        BKN009 OVC020 03/03 Q1014 R07/29//95
                        NOSIG=
201812111530 METAR LRBS 111530Z VRB02KT 3000 -RA BR FEW009 SCT017 OVC027
                        02/02 Q1014 R07/29//95 NOSIG=
201812111600 METAR LRBS 111600Z 01003KT 3000 -RA BR SCT022 OVC040 02/02
                        Q1014 R07/29//95 NOSIG=
201812111630 METAR LRBS 111630Z VRB02KT 3000 -RA BR FEW004 SCT011 OVC037
                        02/02 Q1014 R07/29//95 NOSIG=
201812111700 METAR LRBS 111700Z 06005KT 020V110 3000 -RA BR BKN003 OVC037
                        02/02 Q1014 R07/29//95 BECMG 1500
                        -RASN BR BKN010 OVC020=
201812111730 METAR LRBS 111730Z VRB02KT 3000 -RASN BR BKN003 OVC023 01/01
                        Q1015 R07/29//95 BECMG 1500 -SN=
201812111800 METAR LRBS 111800Z 02002KT 3000 -RASN BR BKN004 OVC033 01/01
                        Q1015 R07/29//95 BECMG 1500 -SN=
201812111830 METAR LRBS 111830Z 01003KT 3500 -RASN BR BKN013 01/01 Q1015
                        R07/29//95 NOSIG=
201812111900 METAR LRBS 111900Z 36003KT 340V040 5000 -RASN BR SCT007 OVC039
                        01/01 Q1015 R07/29//95 NOSIG=
201812111930 METAR LRBS 111930Z 02003KT 8000 FEW004 OVC046 01/01 Q1015
                        R07/29//95 NOSIG=
201812112000 METAR LRBS 112000Z 03002KT 8000 FEW004 OVC048 01/01 Q1015
                        R07/29//95 NOSIG=
201812112030 METAR LRBS 112030Z 04002KT 5000 BR FEW003 SCT019 OVC046 01/01
                        Q1015 R07/29//95 TEMPO 3000 BR=
201812112100 METAR LRBS 112100Z 04003KT 8000 -RASN FEW011 BKN017 OVC047
                        01/01 Q1015 R07/29//95 TEMPO 3000
                        BR=
201812112130 METAR LRBS 112130Z 04004KT 010V070 9999 -SN OVC011 01/01
                        Q1015 R07/29//95 NOSIG=
201812112200 METAR LRBS 112200Z 04004KT 8000 -SN FEW003 BKN014 OVC023
                        01/01 Q1015 R07/29//95 NOSIG=
201812112230 METAR LRBS 112230Z 05003KT 9000 -SN FEW004 BKN018 OVC042
                        01/01 Q1015 R07/29//95 NOSIG=
201812112300 METAR LRBS 112300Z 05004KT 020V090 9000 -SN SCT005 BKN042
                        01/01 Q1015 R07/29//95 NOSIG=
201812112330 METAR LRBS 112330Z 06005KT 8000 -SN BKN004 01/01 Q1015 R07/29//95
                        NOSIG=
201812120000 METAR LRBS 120000Z 06005KT 030V090 8000 -SN BKN004 OVC038
                        01/01 Q1015 R07/29//95 NOSIG=
201812120030 METAR LRBS 120030Z 06004KT 7000 -SN BKN004 BKN014 OVC047
                        01/01 Q1016 R07/29//95 NOSIG=
201812120100 METAR LRBS 120100Z 05003KT 6000 -SN FEW002 SCT017 01/01 Q1016
                        R07/29//95 NOSIG=
201812120130 METAR LRBS 120130Z 06003KT 5000 -SN BR FEW002 BKN015 01/01
                        Q1015 R07/29//95 NOSIG=
201812120200 METAR COR LRBS 120200Z VRB01KT 6000 -SN FEW002 SCT019 01/01
                        Q1016 R07/29//95 NOSIG=
201812120230 METAR LRBS 120230Z 01002KT 6000 -SN BKN037 01/01 Q1016 R07/29//95
                        NOSIG=
201812120300 METAR LRBS 120300Z VRB01KT 7000 -SN FEW009 SCT038 01/01 Q1016
                        R07/29//95 NOSIG=
201812120330 METAR LRBS 120330Z VRB01KT 5000 -SN BR BKN004 01/01 Q1015
                        R07/29//95 NOSIG=
201812120400 METAR LRBS 120400Z 32002KT 5000 -SN BR BKN004 01/01 Q1016
                        R07/29//95 NOSIG=
201812120430 METAR LRBS 120430Z 32002KT 3000 -SN BR OVC004 01/01 Q1016
                        R07/29//95 TEMPO 1500 SN=
201812120500 METAR LRBS 120500Z VRB02KT 3000 -SN BR OVC003 01/01 Q1016
                        R07/29//95 TEMPO 1500 SN=
201812120530 METAR LRBS 120530Z 29003KT 1500 -SN BR OVC002 01/01 Q1016
                        R07/29//95 NOSIG=
201812120600 METAR LRBS 120600Z 27002KT 1200 R07/1300U R25/1400N -SN BR
                        OVC002 01/01 Q1017 R07/29//95 NOSIG=
201812120630 METAR LRBS 120630Z 27003KT 1500 -SN BR OVC002 01/01 Q1017
                        R07/29//95 BECMG 3000=
201812120700 METAR LRBS 120700Z 24003KT 2000 -SN BR SCT002 OVC026 01/01
                        Q1017 R07/29//95 BECMG 3000=
201812120730 METAR LRBS 120730Z 23002KT 4000 -SN BR FEW002 BKN030 01/01
                        Q1017 R07/29//95 BECMG 5000=
201812120800 METAR LRBS 120800Z 24003KT 4000 -RA BR SCT003 OVC049 01/01
                        Q1018 R07/29//95 BECMG 5000=
201812120830 METAR LRBS 120830Z 24006KT 5000 BR SCT004 OVC022 02/01 Q1018
                        R07/29//95 NOSIG=
201812120900 METAR LRBS 120900Z 25007KT 6000 -RASN OVC003 02/02 Q1018
                        R07/29//95 NOSIG=
201812120930 METAR LRBS 120930Z 24005KT 5000 -RA BR BKN004 02/02 Q1018
                        R07/29//95 BECMG 8000 NSW BKN007
                        OVC020=
201812121000 METAR LRBS 121000Z 27007KT 230V300 9999 BKN004 OVC039 02/02
                        Q1018 R07/29//95 BECMG BKN010 BKN040=
201812121030 METAR COR LRBS 121030Z 25006KT 9999 BKN006 OVC040 03/03 Q1017
                        R07/29//95 BECMG SCT015 BKN045=
201812121100 METAR LRBS 121100Z 24005KT 210V270 9999 SCT008 BKN040 03/03
                        Q1017 R07/29//95 NOSIG=
201812121130 METAR LRBS 121130Z 26006KT 230V300 9999 OVC008 03/03 Q1017
                        R07/29//95 NOSIG=
201812121200 METAR LRBS 121200Z 25006KT 9999 BKN010 03/03 Q1017 R07/29//95
                        NOSIG=
201812121230 METAR LRBS 121230Z 25005KT 9999 BKN011 03/03 Q1017 R07/29//95
                        NOSIG=
201812121300 METAR LRBS 121300Z 22004KT 140V270 9999 SCT016 04/03 Q1017
                        R07/29//95 NOSIG=
201812121330 METAR LRBS 121330Z 22004KT 180V260 9999 FEW013 SCT030 03/03
                        Q1017 R07/29//95 NOSIG=
201812121400 METAR LRBS 121400Z 21004KT 160V250 9999 SCT013 SCT032 03/03
                        Q1017 R07/29//95 NOSIG=
201812121430 METAR LRBS 121430Z 21004KT 180V240 9999 FEW017 SCT030 03/03
                        Q1017 R07/29//95 NOSIG=
201812121500 METAR LRBS 121500Z 21004KT 9999 BKN018 03/03 Q1017 R07/29//95
                        NOSIG=
201812121530 METAR LRBS 121530Z 22005KT 9999 FEW008 SCT019 BKN026 03/03
                        Q1018 R07/29//95 NOSIG=
201812121600 METAR LRBS 121600Z 23004KT 9999 FEW016 SCT022 02/02 Q1018
                        R07/29//95 NOSIG=
201812121630 METAR LRBS 121630Z 22004KT 9999 SCT022 02/02 Q1018 R07/29//95
                        NOSIG=
201812121700 METAR LRBS 121700Z VRB01KT CAVOK 02/02 Q1018 R07/29//95 NOSIG=
201812121730 METAR LRBS 121730Z 00000KT CAVOK 02/02 Q1018 R07/29//95 NOSIG=
201812121800 METAR LRBS 121800Z VRB01KT 9999 -RA BKN025 BKN048 02/02 Q1018
                        R07/29//95 NOSIG=
201812121830 METAR LRBS 121830Z 27005KT 7000 -RA FEW005 SCT018 BKN034
                        02/02 Q1018 R07/29//95 BECMG 5000
                        -SN BR BKN010 OVC020=
201812121900 METAR LRBS 121900Z 27003KT 5000 -RA BR BKN008 BKN021 02/01
                        Q1018 R07/29//95 TEMPO 3000 -SN BR
                        BKN010 OVC020=
201812121930 METAR LRBS 121930Z VRB01KT 0900 R07/1500 R25/P2000 SN FG
                        BKN003 BKN015 01/01 Q1018 R07/29//95
                        BECMG 0600 FZFG=
201812122000 METAR LRBS 122000Z VRB01KT 1400 R07/0800 R25/1000U -SN BR
                        BKN002 BKN013 01/01 Q1018 RESN R07/29//95
                        NOSIG=
201812122030 METAR LRBS 122030Z VRB01KT 1100 R07/1500D R25/1300D -SN FG
                        BKN004 OVC014 01/01 Q1018 R07/29//95
                        NOSIG=
201812122100 METAR LRBS 122100Z VRB01KT 1100 R07/1800U R25/2000D -SN BR
                        SCT002 BKN011 OVC026 01/01 Q1018
                        R07/29//95 NOSIG=
201812122130 METAR LRBS 122130Z 29001KT 1200 R07/1400N R25/1700D -SN BR
                        SCT002 BKN008 OVC020 01/01 Q1018
                        R07/29//95 NOSIG=
201812122200 METAR LRBS 122200Z 25003KT 1400 R07/P2000 R25/1600U BR FEW007
                        BKN012 OVC021 01/01 Q1018 R07/29//95
                        NOSIG=
201812122230 METAR LRBS 122230Z VRB01KT 3000 BR BKN008 BKN035 OVC043 01/01
                        Q1018 R07/29//95 NOSIG=
201812122300 METAR LRBS 122300Z 30003KT 260V360 2000 BR BKN003 OVC005
                        01/01 Q1018 R07/29//95 NOSIG=
201812122330 METAR LRBS 122330Z 27003KT 250V310 2500 BR SCT003 OVC008
                        01/01 Q1018 R07/29//95 BECMG 1500
                        BR=
201812130000 METAR LRBS 130000Z VRB02KT 2000 BR OVC003 01/01 Q1018 R07/690195
                        BECMG 1500 BR=
201812130030 METAR LRBS 130030Z 27005KT 240V300 0600 R07/1500 R25/P2000
                        FZFG OVC002 00/M00 Q1019 R07/690195=
201812130100 METAR LRBS 130100Z 30003KT 270V340 0300 R07/0400N R25/0500N
                        FZFG VV001 M00/M00 Q1019 R07/690195
                        NOSIG=
201812130130 METAR LRBS 130130Z 24005KT 220V280 0300 R07/0500N R25/0500N
                        FZFG VV001 M00/M00 Q1019 R07/690195
                        NOSIG=
201812130200 METAR LRBS 130200Z 24007KT 210V270 0400 R07/0800N R25/0800N
                        FZFG VV002 M00/M00 Q1019 R07/690195
                        NOSIG=
201812130230 METAR LRBS 130230Z 25007KT 220V280 0600 R07/0800 R25/0900N
                        FG VV001 M01/M01 Q1019 R07/690195
                        NOSIG=
201812130300 METAR LRBS 130300Z 25006KT 1200 R07/2000N R25/2000D BR OVC002
                        M01/M01 Q1019 R07/690195 NOSIG=
201812130330 METAR LRBS 130330Z 23007KT 0600 R07/0900 R25/0700U FZFG VV001
                        M01/M01 Q1019 R07/690195 NOSIG=
201812130400 METAR LRBS 130400Z 25006KT 220V280 0500 R07/0600N R25/0600N
                        FZFG VV001 M01/M01 Q1019 R07/29//95
                        NOSIG=
201812130430 METAR LRBS 130430Z 24005KT 0500 R07/1100U R25/1000 FZFG VV002
                        M01/M01 Q1019 R07/29//95 NOSIG=
201812130500 METAR LRBS 130500Z 25006KT 0500 R07/0800 R25/0800N FZFG VV001
                        M01/M01 Q1019 R07/29//95 NOSIG=
201812130530 METAR LRBS 130530Z 25005KT 220V290 0600 R07/1000U R25/0800N
                        FZFG OVC001 M01/M01 Q1019 R07/29//95
                        NOSIG=
201812130600 METAR LRBS 130600Z 26007KT 230V290 0800 R07/0800V1400U R25/0900U=
201812130630 METAR LRBS 130630Z 26007KT 0600 R07/0800N R25/1000N FZFG
                        OVC001 M01/M01 Q1020 R07/29//95 NOSIG=
201812130700 METAR LRBS 130700Z 26005KT 220V290 0900 R07/0900N R25/0800N
                        FZFG OVC001 M01/M01 Q1020 R07/29//95
                        NOSIG=
201812130730 METAR LRBS 130730Z 24005KT 210V270 1300 R07/1400U R25/1300N
                        BR OVC001 M01/M01 Q1020 R07/29//95
                        NOSIG=
201812130800 METAR LRBS 130800Z 25005KT 210V270 1300 R07/1300D R25/P2000
                        BR OVC002 M01/M01 Q1020 R07/29//95
                        NOSIG=
201812130830 METAR LRBS 130830Z 25007KT 230V290 1400 R07/1700U R25/1600U
                        BR OVC001 M01/M01 Q1020 R07/29//95
                        NOSIG=
201812130900 METAR LRBS 130900Z 22006KT 190V260 1500 BR OVC002 M01/M01
                        Q1020 R07/29//95 NOSIG=
201812130930 METAR LRBS 130930Z 22007KT 200V260 3000 BR OVC002 M01/M01
                        Q1019 R07/29//95 NOSIG=
201812131000 METAR LRBS 131000Z 23008KT 4000 BR BKN003 M01/M01 Q1019 R07/29//95
                        NOSIG=
201812131030 METAR LRBS 131030Z 23006KT 200V260 4000 BR BKN004 M00/M00
                        Q1019 R07/29//95 NOSIG=
201812131100 METAR LRBS 131100Z 24007KT 200V270 5000 BR BKN004 M00/M00
                        Q1019 R07/29//95 NOSIG=
201812131130 METAR LRBS 131130Z 23006KT 190V260 5000 BR BKN004 00/00 Q1019
                        R07/29//95 NOSIG=
201812131200 METAR LRBS 131200Z 22007KT 190V250 5000 BR BKN004 00/00 Q1019
                        R07/29//95 NOSIG=
201812131230 METAR LRBS 131230Z 24006KT 7000 BKN005 00/00 Q1019 R07/29//95
                        NOSIG=
201812131300 METAR LRBS 131300Z 24005KT 200V260 8000 SCT006 01/01 Q1019
                        R07/29//95 NOSIG=
201812131330 METAR LRBS 131330Z 22006KT 6000 FEW006 01/01 Q1019 R07/29//95
                        NOSIG=
201812131400 METAR LRBS 131400Z 25006KT 7000 FEW006 01/01 Q1019 R07/29//95
                        NOSIG=
201812131430 METAR LRBS 131430Z 27004KT 240V310 6000 NSC 01/01 Q1019 R07/29//95
                        NOSIG=
201812131500 METAR LRBS 131500Z 29003KT 240V320 6000 NSC 01/01 Q1019 R07/29//95
                        NOSIG=
201812131530 METAR LRBS 131530Z 27004KT 5000 BR NSC 00/00 Q1019 R07/29//95
                        BECMG 3000 BR=
201812131600 METAR LRBS 131600Z 29003KT 4000 BR NSC M00/M00 Q1019 R07/29//95
                        BECMG 3000 BR=
201812131630 METAR LRBS 131630Z 30003KT 0300 R07/0450N R25/1500U FZFG
                        VV001 M01/M01 Q1019 R07/29//95 NOSIG=
201812131700 METAR LRBS 131700Z 28001KT 0200 R07/0325N R25/0400N FZFG
                        VV001 M02/M02 Q1019 R07/29//95 NOSIG=
201812131730 METAR LRBS 131730Z 27002KT 0200 R07/0325N R25/0275N FZFG
                        VV001 M02/M02 Q1019 R07/29//95 NOSIG=
201812131800 METAR LRBS 131800Z 25001KT 0200 R07/0300N R25/0275N FZFG
                        VV001 M02/M02 Q1019 R07/29//95 NOSIG=
201812131830 METAR LRBS 131830Z 29002KT 0200 R07/0325N R25/0250N FZFG
                        VV001 M02/M03 Q1019 R07/29//95 NOSIG=
201812131900 METAR LRBS 131900Z VRB02KT 0250 R07/0400N R25/0350N FZFG
                        VV001 M03/M03 Q1019 R07/29//95 NOSIG=
201812131930 METAR LRBS 131930Z 25002KT 0200 R07/0300N R25/0250N FZFG
                        VV001 M03/M03 Q1019 R07/29//95 NOSIG=
201812132000 METAR LRBS 132000Z 24003KT 0250 R07/0350N R25/0375N FZFG
                        VV001 M03/M03 Q1019 R07/29//95 NOSIG=
201812132030 METAR LRBS 132030Z VRB02KT 0300 R07/0400N R25/0450N FZFG
                        VV001 M03/M03 Q1019 R07/29//95 NOSIG=
201812132100 METAR LRBS 132100Z VRB02KT 0300 R07/0400N R25/0550U FZFG
                        VV001 M03/M03 Q1020 R07/29//95 NOSIG=
201812132130 METAR LRBS 132130Z VRB01KT 0350 R07/0400N R25/0450N FZFG
                        FEW001 M04/M04 Q1019 R07/29//95 TEMPO
                        0800=
201812132200 METAR LRBS 132200Z 26001KT 0350 R07/0325N R25/0200N FZFG
                        VV002 M04/M04 Q1020 R07/29//95 NOSIG=
201812132230 METAR LRBS 132230Z VRB02KT 0900 R07/1100D R25/0300N PRFG
                        BKN002 M04/M04 Q1020 R07/29//95 TEMPO
                        1500 BR=
201812132300 METAR LRBS 132300Z 26002KT 3000 BR FEW001 M04/M04 Q1020 R07/29//95
                        BECMG 5000=
201812132330 METAR LRBS 132330Z 25002KT 4000 BR NSC M04/M04 Q1020 R07/29//95
                        NOSIG=
201812140000 METAR LRBS 140000Z 25002KT 5000 BR NSC M04/M05 Q1020 R07/29//95
                        NOSIG=
201812140030 METAR LRBS 140030Z VRB01KT 5000 BR NSC M04/M05 Q1020 R07/29//95
                        NOSIG=
201812140100 METAR LRBS 140100Z 23002KT 5000 BR NSC M05/M05 Q1020 R07/29//95
                        NOSIG=
201812140130 METAR COR LRBS 140130Z 28001KT 5000 BR NSC M05/M05 Q1020
                        R07/29//95 NOSIG=
201812140200 METAR LRBS 140200Z 24002KT 5000 BR NSC M05/M05 Q1020 R07/29//95
                        NOSIG=
201812140230 METAR LRBS 140230Z VRB01KT 6000 NSC M05/M05 Q1020 R07/29//95
                        NOSIG=
201812140300 METAR LRBS 140300Z 26002KT 6000 NSC M05/M05 Q1020 R07/29//95
                        NOSIG=
201812140330 METAR LRBS 140330Z 23001KT 7000 NSC M05/M05 Q1020 R07/29//95
                        NOSIG=
201812140400 METAR LRBS 140400Z VRB01KT 6000 NSC M05/M05 Q1021 R07/29//95
                        NOSIG=
201812140430 METAR LRBS 140430Z 00000KT 8000 NSC M05/M05 Q1021 R07/19//95
                        NOSIG=
201812140500 METAR LRBS 140500Z 31001KT 7000 NSC M05/M05 Q1021 R07/19//95
                        NOSIG=
201812140530 METAR LRBS 140530Z 00000KT 7000 NSC M05/M05 Q1021 R07/19//95
                        NOSIG=
201812140600 METAR LRBS 140600Z 08001KT 7000 NSC M05/M06 Q1021 R07/19//95
                        NOSIG=
201812140630 METAR LRBS 140630Z 02002KT 9000 NSC M04/M05 Q1022 R07/19//95
                        NOSIG=
201812140700 METAR LRBS 140700Z 06004KT 010V080 CAVOK M02/M02 Q1022 R07/19//95
                        NOSIG=
201812140730 METAR LRBS 140730Z 05003KT 010V090 CAVOK M02/M02 Q1022 R07/19//95
                        NOSIG=
201812140800 METAR LRBS 140800Z 04003KT 010V070 CAVOK M01/M01 Q1022 R07/19//95
                        NOSIG=
201812140830 METAR LRBS 140830Z 03003KT 9000 NSC M01/M01 Q1022 R07/19//95
                        NOSIG=
201812140900 METAR LRBS 140900Z VRB02KT 9000 NSC M01/M01 Q1022 R07/19//95
                        NOSIG=
201812140930 METAR LRBS 140930Z 05003KT 9000 NSC M00/M01 Q1022 R07/19//95
                        NOSIG=
201812141000 METAR LRBS 141000Z 04006KT 010V090 CAVOK 00/00 Q1022 R07/19//95
                        NOSIG=
201812141030 METAR LRBS 141030Z 05007KT 020V090 CAVOK 01/00 Q1022 R07/19//95
                        NOSIG=
201812141100 METAR LRBS 141100Z 05007KT 020V080 9000 NSC 01/01 Q1022 R07/19//95
                        NOSIG=
201812141130 METAR LRBS 141130Z 05007KT 9000 NSC 01/01 Q1022 R07/19//95
                        NOSIG=
201812141200 METAR LRBS 141200Z 06009KT 9000 FEW009 01/01 Q1022 R07/19//95
                        NOSIG=
201812141230 METAR LRBS 141230Z 05008KT 9000 NSC 01/01 Q1022 R07/19//95
                        NOSIG=
201812141300 METAR LRBS 141300Z 05008KT 8000 FEW008 01/01 Q1022 R07/19//95
                        NOSIG=
201812141330 METAR LRBS 141330Z 05009KT 7000 FEW010 01/01 Q1022 R07/19//95
                        NOSIG=
201812141400 METAR LRBS 141400Z 05008KT 5000 BR FEW010 00/00 Q1022 R07/19//95
                        NOSIG=
201812141430 METAR LRBS 141430Z 05009KT 6000 FEW007 00/M00 Q1022 R07/19//95
                        NOSIG=
201812141500 METAR LRBS 141500Z 06008KT 7000 NSC M00/M00 Q1022 R07/19//95
                        NOSIG=
201812141530 METAR LRBS 141530Z 05009KT 030V090 9000 BKN043 00/00 Q1023
                        R07/19//95 NOSIG=
201812141600 METAR LRBS 141600Z 06010KT 9999 BKN042 01/00 Q1022 R07/19//95
                        NOSIG=
201812141630 METAR LRBS 141630Z 06011KT 020V080 9999 SCT039 01/00 Q1023
                        R07/19//95 NOSIG=
201812141700 METAR LRBS 141700Z 05010KT 020V080 9000 -SN BKN029 01/00
                        Q1023 R07/19//95 NOSIG=
201812141730 METAR LRBS 141730Z 05011KT 3000 -SN BR OVC029 01/01 Q1023
                        R07/19//95 NOSIG=
201812141800 METAR COR LRBS 141800Z 05012KT 010V070 3000 -SN BR OVC025
                        01/00 Q1023 R07/29//95 NOSIG=
201812141830 METAR LRBS 141830Z 05011KT 020V080 2000 -SN BR OVC022 01/00
                        Q1023 R07/29//95 NOSIG=
201812141900 METAR LRBS 141900Z 05012KT 020V080 2000 -SN BR BKN007 OVC024
                        00/00 Q1023 R07/29//95 NOSIG=
201812141930 METAR LRBS 141930Z 05011KT 2000 -SN BR BKN006 OVC024 00/00
                        Q1023 R07/29//95 TEMPO 1500 -SN BR=
201812142000 METAR COR LRBS 142000Z 05013KT 2000 -SN BR BKN006 OVC025
                        00/00 Q1023 R07/690395 TEMPO 1500
                        -SN BR=
201812142030 METAR LRBS 142030Z 05013KT 1500 -SN BR BKN005 OVC025 00/00
                        Q1023 R07/690395 NOSIG=
201812142100 METAR LRBS 142100Z 05012KT 020V080 0800 R07/1300N R25/1300N
                        -SN FG OVC004 00/M00 Q1023 R07/690395
                        NOSIG=
201812142130 METAR LRBS 142130Z 06013KT 020V080 1100 R07/1500N R25/1600D
                        -SN BR OVC003 M00/M00 Q1023 R07/690395
                        NOSIG=
201812142200 METAR COR LRBS 142200Z 05013KT 020V080 1500 -SN BR OVC004
                        M00/M00 Q1023 R07/590594 NOSIG=
201812142230 METAR LRBS 142230Z 05014KT 1500 -SN BR OVC004 M00/M00 Q1023
                        R07/590594 NOSIG=
201812142300 METAR LRBS 142300Z 05014KT 1100 R07/1800D R25/2000D -SN BR
                        OVC004 M00/M00 Q1022 R07/590594 NOSIG=
201812142330 METAR LRBS 142330Z 05013KT 1500 -SN BR OVC004 M00/M00 Q1022
                        R07/590594 NOSIG=
201812150000 METAR LRBS 150000Z 05014KT 1100 R07/1800D R25/1900D -SN BR
                        OVC004 M00/M00 Q1022 R07/590594 NOSIG=
201812150030 METAR LRBS 150030Z 06014KT 1300 R07/1900U R25/1900U -SN BR
                        OVC004 M00/M01 Q1022 R07/590594 NOSIG=
201812150100 METAR LRBS 150100Z 06014KT 1200 R07/1900D R25/2000D -SN BR
                        OVC004 M01/M01 Q1022 R07/590594 NOSIG=
201812150130 METAR LRBS 150130Z 05014KT 1500 -SN BR OVC005 M01/M01 Q1022
                        R07/590594 NOSIG=
201812150200 METAR COR LRBS 150200Z 06016KT 1100 R07/1600N R25/1800U -SN
                        BR OVC005 M01/M01 Q1021 R07/590594
                        NOSIG=
201812150230 METAR LRBS 150230Z 06016KT 1100 R07/1600N R25/1800U -SN BR
                        OVC005 M01/M01 Q1021 R07/590594 NOSIG=
201812150300 METAR LRBS 150300Z 06016KT 020V090 0800 R07/1700D R25/1800U
                        -SN FG OVC005 M01/M01 Q1021 R07/590594
                        NOSIG=
201812150330 METAR LRBS 150330Z 05016KT 020V080 0800 R07/1600U R25/1800N
                        -SN FG OVC004 M01/M01 Q1021 R07/590594
                        NOSIG=
201812150400 METAR COR LRBS 150400Z 05016KT 0800 R07/1500U R25/1600U -SN
                        FG OVC005 M01/M01 Q1021 R07/590594
                        NOSIG=
201812150430 METAR LRBS 150430Z 05016KT 1500 -SN BR OVC006 M01/M01 Q1022
                        R07/590594 NOSIG=
201812150500 METAR COR LRBS 150500Z 05015KT 1100 R07/1900D R25/1900D -SN
                        BR OVC005 M01/M01 Q1022 R07/891093
                        NOSIG=
201812150530 METAR LRBS 150530Z 05016KT 010V070 0800 R07/1900D R25/1800U
                        SN FZFG BKN005 OVC025 M01/M01 Q1022
                        R07/891093 TEMPO 0600 +SN=
201812150600 METAR LRBS 150600Z 05016KT 020V080 0800 R07/1200 R25/1600D
                        SN DRSN=
201812150630 METAR COR LRBS 150630Z 05017KT 020V080 1100 R07/1900U R25/1900U
                        -SN=
201812150700 METAR LRBS 150700Z 04018KT 010V070 1500 SN DRSN BR BKN006
                        OVC019 M01/M01 Q1022 R07/891093 NOSIG=
201812150730 METAR LRBS 150730Z 04018KT 010V070 1500 -SN DRSN BR BKN007
                        OVC015 M01/M01 Q1022 RESN R07/891093
                        NOSIG=
201812150800 METAR LRBS 150800Z 04016KT 360V070 3000 -SN DRSN BR BKN007
                        OVC015 M01/M01 Q1022 R07/891093 NOSIG=
201812150830 METAR LRBS 150830Z 04018KT 010V070 5000 -SN DRSN BR BKN007
                        OVC013 M01/M01 Q1022 R07/891093 TEMPO
                        3000 -FZRA=
201812150900 METAR LRBS 150900Z 04016KT 010V070 3000 -SN DRSN BR OVC006
                        M01/M01 Q1022 R07/891093 BECMG 1500
                        -FZRA=
201812150930 METAR LRBS 150930Z 04016KT 010V090 1100 R07/0700 R25/P2000
                        -FZRA BR OVC005 M01/M01 Q1022 R07/891093
                        NOSIG=
201812151000 METAR LRBS 151000Z 04016G26KT 010V080 1100 R07/0450N R25/P2000
                        -FZRA BR OVC005 M00/M01 Q1022 R07/891093
                        NOSIG=
201812151030 METAR LRBS 151030Z 04013KT 010V070 1300 R07/0750N R25/P2000
                        -FZRA BR OVC005 M00/M00 Q1021 R07/891093
                        NOSIG=
201812151100 METAR LRBS 151100Z 04014KT 1200 R07/1000D R25/1400 -FZDZ
                        BR OVC004 M00/M00 Q1021 R07/891093
                        NOSIG=
201812151130 METAR LRBS 151130Z 04012KT 360V100 1500 -FZDZ BR OVC005 M00/M00
                        Q1021 R07/891093 NOSIG=
201812151200 METAR LRBS 151200Z 04012KT 010V070 1500 -FZDZ BR OVC005 M00/M00
                        Q1021 R07/891093 NOSIG=
201812151230 METAR LRBS 151230Z 04010KT 010V070 1500 -FZDZ BR OVC004 M00/M00
                        Q1021 R07/850294 NOSIG=
201812151300 METAR LRBS 151300Z 04010KT 010V070 1500 -DZ BR OVC005 00/M00
                        Q1021 R07/850294 NOSIG=
201812151330 METAR LRBS 151330Z 04010KT 010V070 1500 -FZDZ BR OVC004 M00/M00
                        Q1021 R07/850294 NOSIG=
201812151400 METAR LRBS 151400Z 04009KT 010V080 1500 -FZDZ BR OVC004 M00/M00
                        Q1021 R07/850294 NOSIG=
201812151430 METAR LRBS 151430Z 04008KT 010V080 1500 -FZDZ BR OVC004 M00/M00
                        Q1020 R07/850294 NOSIG=
201812151500 METAR LRBS 151500Z 04007KT 010V070 1800 -DZ BR OVC004 00/00
                        Q1020 R07/850294 NOSIG=
201812151530 METAR LRBS 151530Z 04007KT 010V080 1400 R07/1800N R25/P2000
                        -DZ BR OVC004 00/00 Q1020 R07/850294
                        NOSIG=
201812151600 METAR LRBS 151600Z 04007KT 010V070 2000 -RASN BR OVC004 00/00
                        Q1020 R07/850294 NOSIG=
201812151630 METAR LRBS 151630Z 04006KT 010V090 3000 -DZ BR OVC005 00/00
                        Q1020 R07/850294 NOSIG=
201812151700 METAR LRBS 151700Z 06014KT 030V110 2000 -RA BR OVC005 00/00
                        Q1020 R07/850294 NOSIG=
201812151730 METAR LRBS 151730Z 05010KT 3500 -RADZ BR OVC004 00/00 Q1020
                        R07/850294 NOSIG=
201812151800 METAR LRBS 151800Z 05009KT 2800 -DZRA BR OVC004 00/00 Q1020
                        R07/850294 NOSIG=
201812151830 METAR LRBS 151830Z 05010KT 2800 -DZRA BR OVC004 00/00 Q1020
                        R07/850294 NOSIG=
201812151900 METAR LRBS 151900Z 05010KT 3000 -DZRA BR OVC004 00/00 Q1020
                        R07/850294 NOSIG=
201812151930 METAR LRBS 151930Z 06014KT 010V100 2900 -DZRA BR OVC004 01/00
                        Q1019 R07/850294 NOSIG=
201812152000 METAR LRBS 152000Z 06014KT 030V100 6000 -DZRA OVC004 01/00
                        Q1019 R07/850294 NOSIG=
201812152030 METAR LRBS 152030Z 06012KT 020V110 5000 -DZRA BR OVC004 01/00
                        Q1019 R07/850294 NOSIG=
201812152100 METAR LRBS 152100Z 05010KT 010V100 4500 -DZ BR OVC003 01/00
                        Q1019 R07/850294 NOSIG=
201812152130 METAR LRBS 152130Z 06012KT 020V100 6000 -DZ OVC003 01/01
                        Q1019 R07/850294 NOSIG=
201812152200 METAR LRBS 152200Z 05010KT 020V090 6000 OVC004 01/01 Q1018
                        R07/850294 NOSIG=
201812152230 METAR LRBS 152230Z 06012KT 010V100 7000 -RA OVC003 01/01
                        Q1018 R07/850294 NOSIG=
201812152300 METAR LRBS 152300Z 06011KT 020V110 8000 -RA OVC003 01/01
                        Q1018 R07/850294 NOSIG=
201812152330 METAR LRBS 152330Z 05016KT 010V090 8000 -RA OVC004 01/01
                        Q1018 R07/850294 NOSIG=
201812160000 METAR LRBS 160000Z 05014KT 020V090 6000 -RA OVC004 01/01
                        Q1018 R07/850294 NOSIG=
201812160030 METAR LRBS 160030Z 05014KT 8000 -RA OVC003 01/01 Q1018 R07/850294
                        NOSIG=
201812160100 METAR LRBS 160100Z 05016KT 020V080 8000 -RA OVC003 01/01
                        Q1018 R07/850294 NOSIG=
201812160130 METAR LRBS 160130Z 05014KT 7000 -DZ OVC003 01/01 Q1017 R07/29//95
                        NOSIG=
201812160200 METAR LRBS 160200Z 05015KT 010V080 4000 -DZ BR OVC003 01/01
                        Q1017 R07/29//95 NOSIG=
201812160230 METAR LRBS 160230Z 05015KT 010V080 6000 -DZ OVC003 01/01
                        Q1017 R07/29//95 NOSIG=
201812160300 METAR LRBS 160300Z 05017KT 010V090 9000 OVC003 01/01 Q1017
                        R07/29//95 NOSIG=
201812160330 METAR LRBS 160330Z 05017KT 6000 -DZRA OVC003 01/01 Q1016
                        R07/29//95 NOSIG=
201812160400 METAR LRBS 160400Z 05016KT 010V070 7000 -DZ OVC003 02/02
                        Q1016 R07/29//95 NOSIG=
201812160430 METAR LRBS 160430Z 05014G26KT 3000 -DZ BR OVC002 02/02 Q1016
                        R07/29//95 NOSIG=
201812160500 METAR LRBS 160500Z 05017KT 2500 -DZ BR OVC002 02/02 Q1017
                        R07/29//95 NOSIG=
201812160530 METAR LRBS 160530Z 05017KT 2000 -DZ BR OVC002 02/02 Q1016
                        R07/29//95 NOSIG=
201812160600 METAR LRBS 160600Z 04016KT 2000 -DZ BR OVC002 02/02 Q1016
                        R07/29//95 NOSIG=
201812160630 METAR LRBS 160630Z 04017KT 2000 -DZ BR OVC002 02/02 Q1016
                        R07/29//95 NOSIG=
201812160700 METAR LRBS 160700Z 05013KT 3000 -DZ BR OVC002 02/02 Q1017
                        R07/29//95 NOSIG=
201812160730 METAR LRBS 160730Z 05013KT 010V070 8000 -RA OVC003 02/02
                        Q1017 R07/29//95 NOSIG=
201812160800 METAR LRBS 160800Z 05014KT 8000 -RA OVC003 02/02 Q1017 R07/29//95
                        NOSIG=
201812160830 METAR LRBS 160830Z 05015KT 9999 -RA OVC003 02/02 Q1017 R07/29//95
                        NOSIG=
201812160900 METAR LRBS 160900Z 05015KT 8000 -RA OVC003 02/02 Q1017 R07/29//95
                        TEMPO 5000 -RA=
201812160930 METAR LRBS 160930Z 05014KT 9999 -RA OVC003 02/02 Q1017 R07/29//95
                        TEMPO 5000 -RA=
201812161000 METAR LRBS 161000Z 05015KT 010V080 9999 -RA OVC003 02/02
                        Q1016 R07/29//95 TEMPO 5000 -RA=
201812161030 METAR LRBS 161030Z 05015KT 010V070 9999 -RA OVC003 02/02
                        Q1016 R07/29//95 TEMPO 5000 -RA=
201812161100 METAR LRBS 161100Z 05014KT 9999 OVC003 02/02 Q1016 R07/29//95
                        NOSIG=
201812161130 METAR LRBS 161130Z 05016KT 8000 -RA OVC003 02/02 Q1016 R07/29//95
                        NOSIG=
201812161200 METAR LRBS 161200Z 04016KT 8000 -RA OVC003 02/02 Q1016 R07/29//95
                        NOSIG=
201812161230 METAR LRBS 161230Z 05013KT 010V080 5000 -RA BR OVC003 02/02
                        Q1016 R07/29//95 BECMG 3000 -RA BR=
201812161300 METAR LRBS 161300Z 05015KT 010V070 3000 RA BR OVC003 02/02
                        Q1016 R07/29//95 NOSIG=
201812161330 METAR LRBS 161330Z 05015KT 010V080 5000 -RA BR OVC003 02/02
                        Q1016 RERA R07/29//95 NOSIG=
201812161400 METAR LRBS 161400Z 05015KT 020V090 5000 -RA BR OVC003 02/02
                        Q1017 R07/29//95 NOSIG=
201812161430 METAR LRBS 161430Z 10008KT 070V130 4000 -RA BR OVC003 02/02
                        Q1017 R07/29//95 NOSIG=
201812161500 METAR LRBS 161500Z 10008KT 080V140 3000 -RA BR OVC003 02/02
                        Q1018 R07/29//95 NOSIG=
201812161530 METAR LRBS 161530Z 09009KT 3000 -RA BR FEW002 OVC004 02/02
                        Q1018 R07/29//95 NOSIG=
201812161600 METAR LRBS 161600Z 10010KT 060V130 3000 -RA BR OVC003 02/02
                        Q1019 R07/29//95 NOSIG=
201812161630 METAR LRBS 161630Z 08009KT 060V130 3000 -RA BR OVC003 02/02
                        Q1019 R07/29//95 NOSIG=
201812161700 METAR LRBS 161700Z 09007KT 060V110 3000 BR OVC003 02/02 Q1019
                        R07/29//95 NOSIG=
201812161730 METAR LRBS 161730Z 07006KT 2000 -RA BR OVC003 02/02 Q1019
                        R07/29//95 NOSIG=
201812161800 METAR LRBS 161800Z 08006KT 3000 -DZ BR OVC003 02/02 Q1019
                        R07/29//95 NOSIG=
201812161830 METAR LRBS 161830Z 10006KT 070V130 2000 BR OVC003 02/02 Q1020
                        R07/29//95 NOSIG=
201812161900 METAR LRBS 161900Z 08006KT 1100 R07/P2000 R25/P2000 -DZ BR
                        OVC003 02/02 Q1020 R07/29//95 NOSIG=
201812161930 METAR COR LRBS 161930Z 09004KT 1200 R07/P2000 R25/P2000 -DZ
                        BR OVC003 02/02 Q1020 R07/29//95
                        NOSIG=
201812162000 METAR LRBS 162000Z 07005KT 1500 -DZ BR OVC003 02/01 Q1020
                        R07/29//95 NOSIG=
201812162030 METAR LRBS 162030Z 08005KT 050V110 1500 -RA BR OVC003 02/02
                        Q1020 R07/29//95 NOSIG=
201812162100 METAR LRBS 162100Z 06010KT 030V090 2000 -DZ BR OVC003 02/02
                        Q1020 R07/29//95 NOSIG=
201812162130 METAR LRBS 162130Z 06010KT 2000 -DZ BR OVC003 02/01 Q1020
                        R07/29//95 NOSIG=
201812162200 METAR LRBS 162200Z 07010KT 1500 DZ BR OVC004 01/01 Q1020
                        R07/29//95 NOSIG=
201812162230 METAR LRBS 162230Z 06010KT 1500 -DZ BR OVC003 01/01 Q1020
                        REDZ R07/29//95 NOSIG=
201812162300 METAR LRBS 162300Z 06009KT 2000 -DZ BR OVC003 01/01 Q1020
                        R07/29//95 NOSIG=
201812162330 METAR LRBS 162330Z 06008KT 030V090 2000 -DZ BR OVC003 01/01
                        Q1020 R07/29//95 NOSIG=
201812170000 METAR LRBS 170000Z 05009KT 020V080 2500 -DZ BR OVC003 01/01
                        Q1020 R07/29//95 NOSIG=
201812170030 METAR LRBS 170030Z 06011KT 030V090 2000 -DZ BR OVC003 01/01
                        Q1020 R07/29//95 NOSIG=
201812170100 METAR LRBS 170100Z 05009KT 010V080 2000 BR OVC003 01/01 Q1020
                        R07/29//95 NOSIG=
201812170130 METAR LRBS 170130Z 06010KT 020V100 3000 -RA BR OVC004 01/01
                        Q1020 R07/29//95 NOSIG=
201812170200 METAR LRBS 170200Z 05011KT 020V090 3000 -DZ BR OVC004 01/01
                        Q1020 R07/29//95 NOSIG=
201812170230 METAR LRBS 170230Z 05012KT 020V080 2000 -DZ BR OVC004 01/01
                        Q1020 R07/29//95 NOSIG=
201812170300 METAR LRBS 170300Z 05012KT 010V090 2000 -DZ BR OVC004 01/01
                        Q1020 R07/29//95 NOSIG=
201812170330 METAR LRBS 170330Z 04012KT 010V080 2000 BR OVC003 01/01 Q1020
                        R07/29//95 NOSIG=
201812170400 METAR LRBS 170400Z 04013KT 2000 -DZ BR OVC004 01/00 Q1020
                        R07/29//95 NOSIG=
201812170430 METAR LRBS 170430Z 05012KT 010V080 2000 BR OVC004 00/00 Q1020
                        R07/29//95 NOSIG=
201812170500 METAR LRBS 170500Z 05013KT 2000 -DZ BR OVC003 00/00 Q1020
                        R07/29//95 NOSIG=
201812170530 METAR LRBS 170530Z 04011KT 1500 BR OVC003 00/00 Q1020 R07/29//95
                        NOSIG=
201812170600 METAR LRBS 170600Z 04013KT 010V070 1500 BR OVC003 00/00 Q1020
                        R07/29//95 NOSIG=
201812170630 METAR LRBS 170630Z 04014KT 010V080 1500 -DZ BR OVC003 00/00
                        Q1020 R07/29//95 NOSIG=
201812170700 METAR LRBS 170700Z 05012KT 010V080 1500 -DZ BR OVC003 00/M00
                        Q1020 R07/29//95 NOSIG=
201812170730 METAR LRBS 170730Z 05013KT 2000 BR OVC003 00/M00 Q1021 R07/29//95
                        NOSIG=
201812170800 METAR LRBS 170800Z 05011KT 2000 BR OVC003 00/M00 Q1021 R07/29//95
                        NOSIG=
201812170830 METAR LRBS 170830Z 05010KT 020V090 1500 -SN BR OVC003 M00/M00
                        Q1021 R07/29//95 NOSIG=
201812170900 METAR LRBS 170900Z 05011KT 010V070 3000 -SN BR OVC003 M00/M00
                        Q1021 R07/29//95 NOSIG=
201812170930 METAR LRBS 170930Z 05013KT 020V090 1500 SN OVC004 M00/M00
                        Q1021 R07/29//95 NOSIG=
201812171000 METAR LRBS 171000Z 05011KT 1500 BR OVC004 M00/M00 Q1020 RESN
                        R07/29//95 NOSIG=
201812171030 METAR LRBS 171030Z 05012KT 020V080 1500 -FZRA BR OVC004 M00/M00
                        Q1020 R07/29//95 NOSIG=
201812171100 METAR LRBS 171100Z 05010KT 020V070 1500 -FZDZ BR OVC004 M00/M00
                        Q1020 R07/29//95 NOSIG=
201812171130 METAR LRBS 171130Z 04009KT 010V070 1500 -FZDZ BR OVC003 M00/M00
                        Q1020 R07/29//95 NOSIG=
201812171200 METAR LRBS 171200Z 05008KT 010V080 1500 -FZDZ BR OVC004 M00/M00
                        Q1020 R07/29//95 NOSIG=
201812171230 METAR LRBS 171230Z 05009KT 010V080 1500 -RADZ BR OVC003 M00/M00
                        Q1020 R07/29//95 NOSIG=
201812171300 METAR LRBS 171300Z 05008KT 010V070 1500 -SN BR OVC003 M00/M00
                        Q1020 R07/29//95 NOSIG=
201812171330 METAR LRBS 171330Z 05009KT 020V090 1500 -SN BR OVC004 M00/M00
                        Q1020 R07/29//95 NOSIG=
201812171400 METAR LRBS 171400Z 05009KT 020V080 2000 -SN BR OVC004 M00/M00
                        Q1021 R07/29//95 NOSIG=
201812171430 METAR LRBS 171430Z 05010KT 020V090 2000 -SN BR OVC005 M00/M00
                        Q1021 R07/29//95 NOSIG=
201812171500 METAR LRBS 171500Z 05008KT 010V070 1100 R07/1800D R25/P2000
                        -SN BR OVC005 M00/M01 Q1021 R07/29//95
                        NOSIG=
201812171530 METAR LRBS 171530Z 05009KT 1500 -SN BR OVC006 M00/M01 Q1021
                        R07/29//95 BECMG 3000=
201812171600 METAR LRBS 171600Z 05007KT 360V090 2000 -SN BR OVC006 M00/M01
                        Q1021 R07/29//95 BECMG 3000=
201812171630 METAR LRBS 171630Z 05007KT 010V080 2000 -SN BR OVC006 M01/M01
                        Q1022 R07/29//95 NOSIG=
201812171700 METAR LRBS 171700Z 04007KT 360V070 3000 -SN BR OVC006 M01/M01
                        Q1022 R07/29//95 NOSIG=
201812171730 METAR COR LRBS 171730Z 05006KT 3000 -SN BR BKN005 OVC013
                        M01/M01 Q1022 R07/590393 NOSIG=
201812171800 METAR LRBS 171800Z 04007KT 010V070 3000 -SN BR BKN006 OVC013
                        M01/M01 Q1022 R07/590393 NOSIG=
201812171830 METAR LRBS 171830Z 05009KT 010V070 4000 -SN BR FEW005 SCT007
                        OVC012 M01/M01 Q1023 R07/590393 NOSIG=
201812171900 METAR LRBS 171900Z 05007KT 020V090 4000 -SN BR BKN006 0VC017
                        M01/M01 Q1023 R07/590393 NOSIG=
201812171930 METAR COR LRBS 171930Z 05009KT 020V080 5000 -SN BR FEW005
                        SCT007 OVC013 M01/M01 Q1023 R07/590393
                        NOSIG=
201812172000 METAR LRBS 172000Z 05008KT 020V080 4000 -SN BR FEW005 SCT007
                        OVC015 M01/M01 Q1023 R07/590393 NOSIG=
201812172030 METAR LRBS 172030Z 05007KT 020V090 4000 -SN BR SCT007 BKN017
                        OVC037 M01/M01 Q1023 R07/590393 NOSIG=
201812172100 METAR LRBS 172100Z 05005KT 5000 -SN BR SCT006 BKN019 BKN038
                        M01/M01 Q1023 R07/590393 NOSIG=
201812172130 METAR LRBS 172130Z 05005KT 010V070 3000 -SN BR SCT007 BKN016
                        OVC031 M01/M01 Q1024 R07/590293 NOSIG=
201812172200 METAR LRBS 172200Z 04005KT 010V070 1500 -SN BR FEW003 SCT005
                        OVC019 M01/M01 Q1024 R07/590293 NOSIG=
201812172230 METAR LRBS 172230Z 04005KT 360V080 1500 -SN BR SCT004 OVC019
                        M01/M01 Q1024 R07/590293 NOSIG=
201812172300 METAR LRBS 172300Z 05006KT 020V080 3000 -SN BR FEW004 SCT006
                        OVC013 M01/M01 Q1023 R07/590293 NOSIG=
201812172330 METAR LRBS 172330Z 04006KT 4000 -SN BR BKN005 OVC015 M01/M01
                        Q1024 R07/590293 TEMPO 3000 -SN BR=
201812180000 METAR LRBS 180000Z 04006KT 360V070 2000 -SN BR BKN005 OVC016
                        M01/M01 Q1024 R07/590293 NOSIG=
201812180030 METAR LRBS 180030Z 04005KT 360V070 2000 -SN BR BKN006 OVC022
                        M01/M01 Q1024 R07/590293 NOSIG=
201812180100 METAR LRBS 180100Z 04005KT 360V070 2000 -SN BR BKN005 OVC015
                        M01/M01 Q1024 R07/590293 NOSIG=
201812180130 METAR LRBS 180130Z 05006KT 5000 -SN BR SCT007 OVC024 M01/M01
                        Q1024 R07/590293 NOSIG=
201812180200 METAR LRBS 180200Z 04006KT 020V090 9000 SCT006 OVC021 M01/M01
                        Q1024 R07/590293 NOSIG=
201812180230 METAR LRBS 180230Z 05006KT 010V070 9000 -SN BKN007 OVC023
                        M01/M01 Q1024 R07/590293 NOSIG=
201812180300 METAR COR LRBS 180300Z 04006KT 6000 -SN BKN006 OVC024 M01/M01
                        Q1024 R07/590293 NOSIG=
201812180330 METAR LRBS 180330Z 05007KT 020V080 6000 -SN BKN006 OVC024
                        M01/M01 Q1025 R07/590293 NOSIG=
201812180400 METAR LRBS 180400Z 05006KT 020V090 5000 -SN BR BKN006 OVC026
                        M01/M02 Q1025 R07/590293 NOSIG=
201812180430 METAR LRBS 180430Z 05007KT 010V080 6000 -SN BKN006 BKN029
                        OVC034 M01/M02 Q1025 R07/590293 NOSIG=
201812180500 METAR LRBS 180500Z 04007KT 360V070 6000 -SN BKN007 OVC039
                        M02/M02 Q1025 R07/590293 NOSIG=
201812180530 METAR LRBS 180530Z 05009KT 8000 -SN FEW006 OVC041 M02/M02
                        Q1026 R07/590293 NOSIG=
201812180600 METAR LRBS 180600Z 05006KT 9000 FEW007 SCT049 M02/M02 Q1026
                        R07/590293 NOSIG=
201812180630 METAR LRBS 180630Z 06008KT 9000 -SN FEW007 SCT049 M02/M02
                        Q1026 R07/590293 NOSIG=
201812180700 METAR LRBS 180700Z 06010KT 9000 -SN FEW010 SCT036 M02/M02
                        Q1027 R07/590293 NOSIG=
201812180730 METAR LRBS 180730Z 06008KT 020V090 9999 -SN FEW008 M02/M02
                        Q1027 R07/590293 NOSIG=
201812180800 METAR LRBS 180800Z 06010KT 030V090 9999 SCT009 M01/M02 Q1027
                        NOSIG=
201812180830 METAR LRBS 180830Z 06010KT 9999 BKN008 M01/M02 Q1027 NOSIG=
201812180900 METAR LRBS 180900Z 05008KT 010V100 9000 -SN BKN009 BKN023
                        M01/M02 Q1027 NOSIG=
201812180930 METAR LRBS 180930Z 04009KT 010V090 9000 -SN SCT009 OVC024
                        M01/M02 Q1027 R07/610194 NOSIG=
201812181000 METAR LRBS 181000Z 05008KT 010V070 9000 SCT009 SCT024 BKN040
                        M01/M02 Q1027 R07/610194 NOSIG=
201812181030 METAR LRBS 181030Z 06008KT 7000 -SN SCT009 BKN023 M01/M01
                        Q1027 R07/610194 NOSIG=
201812181100 METAR LRBS 181100Z 06010KT 7000 -SN BKN009 OVC023 M01/M02
                        Q1027 R07/610194 NOSIG=
201812181130 METAR LRBS 181130Z 06008KT 030V090 7000 -SN FEW010 OVC024
                        M01/M02 Q1027 R07/29//95 NOSIG=
201812181200 METAR LRBS 181200Z 06008KT 7000 -SN BKN009 OVC033 M01/M02
                        Q1027 R07/29//95 NOSIG=
201812181230 METAR LRBS 181230Z 06008KT 030V090 7000 -SN BKN009 OVC029
                        M01/M02 Q1027 R07/29//95 NOSIG=
201812181300 METAR LRBS 181300Z 04008KT 010V070 8000 -SN FEW009 OVC022
                        M01/M02 Q1027 R07/29//95 NOSIG=
201812181330 METAR LRBS 181330Z 05007KT 010V070 9999 -SN FEW010 BKN022
                        M01/M02 Q1027 R07/29//95 NOSIG=
201812181400 METAR LRBS 181400Z 05007KT 9999 -SN OVC023 M01/M02 Q1027
                        R07/29//95 NOSIG=
201812181430 METAR LRBS 181430Z 06007KT 9999 -SN OVC023 M01/M02 Q1027
                        R07/29//95 NOSIG=
201812181500 METAR LRBS 181500Z 05008KT 020V080 9000 -SN OVC023 M02/M02
                        Q1027 R07/29//95 NOSIG=
201812181530 METAR LRBS 181530Z 06006KT 9000 -SN OVC022 M02/M02 Q1027
                        R07/29//95 NOSIG=
201812181600 METAR LRBS 181600Z 05005KT 9000 -SN OVC023 M02/M02 Q1028
                        R07/29//95 NOSIG=
201812181630 METAR LRBS 181630Z AUTO 06007KT 9000 -UP OVC023/// M02/M02
                        Q1028 NOSIG=
201812181700 METAR LRBS 181700Z 05007KT 9000 OVC023 M02/M02 Q1028 R07/29//95
                        NOSIG=
201812181730 METAR LRBS 181730Z 05007KT 010V070 9999 OVC023 M01/M02 Q1028
                        R07/29//95 NOSIG=
201812181800 METAR LRBS 181800Z 05007KT 010V070 8000 -SN OVC021 M01/M02
                        Q1028 R07/29//95 NOSIG=
201812181830 METAR LRBS 181830Z 04006KT 010V070 8000 -SN OVC021 M02/M02
                        Q1028 R07/29//95 NOSIG=
201812181900 METAR LRBS 181900Z 04006KT 7000 -SN OVC020 M02/M02 Q1028
                        R07/29//95 NOSIG=
201812181930 METAR LRBS 181930Z 05006KT 010V080 8000 -SN OVC020 M02/M02
                        Q1029 R07/29//95 NOSIG=
201812182000 METAR LRBS 182000Z 04004KT 010V070 8000 -SN FEW013 OVC019
                        M02/M02 Q1029 R07/29//95 NOSIG=
201812182030 METAR LRBS 182030Z 04005KT 010V070 8000 -SN FEW014 OVC019
                        M02/M02 Q1029 R07/29//95 NOSIG=
201812182100 METAR LRBS 182100Z 05003KT 8000 -SN OVC018 M02/M02 Q1029
                        R07/29//95 NOSIG=
201812182130 METAR COR LRBS 182130Z 03001KT 8000 -SN OVC018 M02/M02 Q1029
                        R07/19//95 NOSIG=
201812182200 METAR LRBS 182200Z 03002KT 340V050 8000 -SN OVC017 M02/M02
                        Q1029 R07/19//95 NOSIG=
201812182230 METAR LRBS 182230Z 05003KT 010V070 5000 -SN OVC017 M02/M02
                        Q1028 R07/19//95 NOSIG=
201812182300 METAR LRBS 182300Z 04002KT 010V070 5000 -SN OVC017 M02/M02
                        Q1028 R07/19//95 NOSIG=
201812182330 METAR LRBS 182330Z 00000KT 4000 -SN BR OVC019 M02/M02 Q1028
                        R07/19//95 NOSIG=
201812190000 METAR LRBS 190000Z 00000KT 3000 -SN BR OVC025 M02/M02 Q1028
                        R07/19//95 NOSIG=
201812190030 METAR COR LRBS 190030Z 00000KT 2000 -SN BR FEW004 OVC026
                        M02/M02 Q1028 R07/19//95 NOSIG=
201812190100 METAR COR LRBS 190100Z 00000KT 1300 R07/1700N R25/1900U -SN
                        BR SCT004 BKN011 OVC021 M02/M02 Q1028
                        R07/490294 TEMPO 0800 SN FZFG=
201812190130 METAR LRBS 190130Z 00000KT 1500 -SN BR FEW003 OVC025 M02/M02
                        Q1028 R07/490294 NOSIG=
201812190200 METAR LRBS 190200Z 00000KT 1500 -SN BR FEW004 OVC021 M02/M02
                        Q1028 R07/490294 NOSIG=
201812190230 METAR LRBS 190230Z 00000KT 2000 -SN BR SCT004 OVC021 M02/M02
                        Q1028 R07/490294 NOSIG=
201812190300 METAR LRBS 190300Z 26003KT 2000 -SN BR FEW004 OVC020 M02/M02
                        Q1028 R07/490294 NOSIG=
201812190330 METAR LRBS 190330Z 27002KT 2000 -SN BR FEW005 OVC019 M02/M02
                        Q1028 R07/490294 NOSIG=
201812190400 METAR LRBS 190400Z 26003KT 2000 -SN BR FEW004 OVC017 M02/M02
                        Q1028 R07/490294 NOSIG=
201812190430 METAR LRBS 190430Z 24003KT 2000 -SN BR FEW005 OVC017 M02/M02
                        Q1028 R07/490294 NOSIG=
201812190500 METAR LRBS 190500Z 21002KT 2800 -SN BR FEW006 OVC017 M02/M02
                        Q1028 R07/490294 NOSIG=
201812190530 METAR LRBS 190530Z 22003KT 2500 -SN BR BKN011 OVC017 M02/M02
                        Q1029 R07/490294 NOSIG=
201812190600 METAR LRBS 190600Z 23003KT 3000 -SN BR FEW006 BKN009 OVC013
                        M02/M02 Q1029 R07/490294 NOSIG=
201812190630 METAR LRBS 190630Z 23002KT 190V260 3000 -SN BR BKN008 OVC013
                        M01/M02 Q1029 R07/490294 NOSIG=
201812190700 METAR LRBS 190700Z 23003KT 210V270 5000 BR SCT007 OVC010
                        M01/M02 Q1029 R07/490294 NOSIG=
201812190730 METAR LRBS 190730Z 24004KT 5000 BR BKN006 OVC011 M01/M02
                        Q1029 R07/490294 NOSIG=
201812190800 METAR LRBS 190800Z 26003KT 5000 BR BKN008 OVC013 M01/M02
                        Q1030 R07/490294 NOSIG=
201812190830 METAR LRBS 190830Z 24005KT 5000 BR BKN008 OVC013 M01/M02
                        Q1030 R07/490294 NOSIG=
201812190900 METAR LRBS 190900Z 23005KT 5000 BR BKN008 OVC013 M01/M02
                        Q1030 R07/490294 NOSIG=
201812190930 METAR LRBS 190930Z 24005KT 6000 BKN008 OVC011 M01/M02 Q1029
                        R07/490294 NOSIG=
201812191000 METAR LRBS 191000Z 24006KT 6000 BKN009 OVC020 M01/M01 Q1029
                        R07/490294 NOSIG=
201812191030 METAR LRBS 191030Z 26005KT 7000 BKN009 OVC015 M01/M01 Q1029
                        R07/490294 NOSIG=
201812191100 METAR LRBS 191100Z 27006KT 240V310 8000 BKN010 OVC016 M01/M02
                        Q1029 R07/490294 NOSIG=
201812191130 METAR LRBS 191130Z 27007KT 240V300 8000 BKN011 OVC019 M01/M01
                        Q1028 R07/490294 NOSIG=
201812191200 METAR COR LRBS 191200Z 28005KT 230V320 9000 BKN011 OVC015
                        M00/M01 Q1028 R07/490294 NOSIG=
201812191230 METAR LRBS 191230Z 26007KT 9000 BKN012 OVC040 M00/M02 Q1028
                        R07/490294 NOSIG=
201812191300 METAR LRBS 191300Z 26005KT 240V310 8000 FEW009 SCT012 BKN019
                        M01/M01 Q1028 R07/490294 NOSIG=
201812191330 METAR LRBS 191330Z 26006KT 8000 SCT009 BKN020 M01/M02 Q1028
                        R07/490294 NOSIG=
201812191400 METAR LRBS 191400Z 26005KT 8000 BKN010 OVC020 M01/M02 Q1028
                        R07/490294 NOSIG=
201812191430 METAR LRBS 191430Z 27003KT 250V310 8000 BKN009 OVC012 M01/M02
                        Q1029 R07/490294 NOSIG=
201812191500 METAR LRBS 191500Z 26003KT 7000 BKN010 OVC013 M01/M02 Q1029
                        R07/490294 NOSIG=
201812191530 METAR LRBS 191530Z 22002KT 7000 BKN010 OVC014 M01/M02 Q1029
                        R07/490294 NOSIG=
201812191600 METAR LRBS 191600Z VRB01KT 8000 BKN010 OVC013 M01/M02 Q1029
                        R07/29//95 NOSIG=
201812191630 METAR LRBS 191630Z VRB01KT 9000 OVC013 M01/M02 Q1029 R07/29//95
                        NOSIG=
201812191700 METAR LRBS 191700Z 00000KT 9999 OVC012 M01/M02 Q1029 R07/29//95
                        NOSIG=
201812191730 METAR LRBS 191730Z VRB02KT 8000 OVC010 M01/M02 Q1029 R07/29//95
                        NOSIG=
201812191800 METAR COR LRBS 191800Z 07006KT 4300 BR OVC010 M02/M02 Q1029
                        R07/29//95 NOSIG=
201812191830 METAR LRBS 191830Z 09004KT 5000 BR FEW006 OVC010 M02/M02
                        Q1030 R07/29//95 NOSIG=
201812191900 METAR LRBS 191900Z 07004KT 4700 BR OVC010 M02/M02 Q1030 R07/29//95
                        NOSIG=
201812191930 METAR LRBS 191930Z 08005KT 4600 BR OVC007 M02/M02 Q1030 R07/29//95
                        NOSIG=
201812192000 METAR COR LRBS 192000Z 08005KT 4500 BR OVC006 M02/M02 Q1030
                        R07/29//95 NOSIG=
201812192030 METAR LRBS 192030Z 09003KT 4700 BR OVC006 M02/M02 Q1030 R07/29//95
                        NOSIG=
201812192100 METAR LRBS 192100Z 08004KT 4400 BR OVC005 M02/M03 Q1030 R07/29//95
                        NOSIG=
201812192130 METAR LRBS 192130Z 09003KT 070V130 4100 BR OVC004 M02/M03
                        Q1030 R07/29//95 NOSIG=
201812192200 METAR LRBS 192200Z 08004KT 3500 BR OVC004 M03/M03 Q1029 R07/29//95
                        NOSIG=
201812192230 METAR COR LRBS 192230Z 07004KT 3400 BR OVC003 M03/M03 Q1029
                        R07/29//95 BECMG 1500 BR=
201812192300 METAR LRBS 192300Z 05004KT 3500 BR OVC003 M03/M03 Q1029 R07/29//95
                        BECMG 1500 BR=
201812192330 METAR LRBS 192330Z 08003KT 3000 BR OVC003 M03/M03 Q1029 R07/29//95
                        BECMG 1500 BR=
201812200000 METAR LRBS 200000Z 09004KT 3700 BR BKN003 M03/M03 Q1029 R07/29//95
                        BECMG 1500 BR=
201812200030 METAR LRBS 200030Z 07004KT 4100 BR BKN004 M03/M03 Q1029 R07/29//95
                        BECMG 1500 BR=
201812200100 METAR LRBS 200100Z 08003KT 3300 BR OVC004 M03/M03 Q1029 R07/29//95
                        NOSIG=
201812200130 METAR LRBS 200130Z 08003KT 3200 BR OVC003 M03/M03 Q1029 R07/29//95
                        NOSIG=
201812200200 METAR LRBS 200200Z 10004KT 1500 BR OVC003 M03/M03 Q1029 R07/29//95
                        NOSIG=
201812200230 METAR LRBS 200230Z 10004KT 1500 R07/1800D R25/1400N BR OVC002
                        M03/M03 Q1029 R07/29//95 NOSIG=
201812200300 METAR LRBS 200300Z 11004KT 1500 R07/1800N R25/1900U BR BKN003
                        M03/M03 Q1029 R07/29//95 NOSIG=
201812200330 METAR LRBS 200330Z 11005KT 1400 R07/1700N R25/1600D BR OVC003
                        M03/M04 Q1029 R07/29//95 NOSIG=
201812200400 METAR LRBS 200400Z 10006KT 2000 BR OVC003 M04/M04 Q1029 R07/29//95
                        NOSIG=
201812200430 METAR LRBS 200430Z 10005KT 2000 BR OVC003 M04/M04 Q1029 R07/29//95
                        NOSIG=
201812200500 METAR LRBS 200500Z 10005KT 1700 BR OVC003 M04/M04 Q1029 R07/29//95
                        NOSIG=
201812200530 METAR LRBS 200530Z 10005KT 1800 BR OVC003 M04/M04 Q1029 R07/29//95
                        NOSIG=
201812200600 METAR LRBS 200600Z 09004KT 1500 BR OVC003 M04/M04 Q1030 R07/29//95
                        BECMG 3000=
201812200630 METAR LRBS 200630Z 07003KT 1500 BR OVC003 M04/M04 Q1030 R07/29//95
                        BECMG 3000=
201812200700 METAR LRBS 200700Z 08003KT 1500 BR OVC003 M04/M04 Q1030 R07/29//95
                        NOSIG=
201812200730 METAR LRBS 200730Z 09003KT 1500 BR OVC003 M03/M04 Q1030 R07/29//95
                        NOSIG=
201812200800 METAR LRBS 200800Z 07004KT 1500 BR OVC003 M03/M03 Q1030 R07/29//95
                        BECMG 3000=
201812200830 METAR LRBS 200830Z 07003KT 1500 BR BKN004 OVC010 M03/M03
                        Q1030 R07/29//95 BECMG 3000=
201812200900 METAR LRBS 200900Z 07002KT 1500 BR FEW004 OVC008 M03/M03
                        Q1030 R07/29//95 BECMG 3000=
201812200930 METAR LRBS 200930Z 08003KT 1800 BR OVC007 M03/M03 Q1030 R07/29//95
                        BECMG 3000=
201812201000 METAR COR LRBS 201000Z 08003KT 1800 BR OVC006 M03/M03 Q1029
                        R07/29//95 BECMG 5000=
201812201030 METAR LRBS 201030Z 09003KT 2000 BR OVC005 M03/M03 Q1029 R07/29//95
                        BECMG 5000=
201812201100 METAR LRBS 201100Z 07002KT 2000 BR OVC006 M03/M03 Q1028 R07/29//95
                        BECMG 5000=
201812201130 METAR LRBS 201130Z 00000KT 2000 BR OVC006 M02/M03 Q1028 R07/29//95
                        BECMG 5000=
201812201200 METAR LRBS 201200Z VRB01KT 3000 BR OVC006 M02/M02 Q1028 R07/29//95
                        BECMG 5000=
201812201230 METAR LRBS 201230Z VRB01KT 3500 BR OVC007 M02/M02 Q1028 R07/29//95
                        BECMG 5000=
201812201300 METAR COR LRBS 201300Z 29003KT 260V320 5000 BR OVC007 M02/M02
                        Q1028 R07/29//95 NOSIG=
201812201330 METAR COR LRBS 201330Z 28003KT 260V330 6000 OVC007 M02/M02
                        Q1028 R07/29//95 NOSIG=
201812201400 METAR LRBS 201400Z 28004KT 250V330 6000 OVC008 M02/M02 Q1028
                        R07/29//95 NOSIG=
201812201430 METAR LRBS 201430Z 24005KT 7000 OVC008 M02/M02 Q1028 R07/29//95
                        NOSIG=
201812201500 METAR LRBS 201500Z 27003KT 230V320 7000 OVC007 M02/M03 Q1028
                        R07/29//95 BECMG 5000 BR BKN005=
201812201530 METAR LRBS 201530Z 25005KT 6000 OVC006 M02/M03 Q1028 R07/29//95
                        BECMG 5000 BR BKN005=
201812201600 METAR COR LRBS 201600Z 26005KT 6000 OVC005 M03/M03 Q1028
                        R07/29//95 BECMG 5000 BR=
201812201630 METAR LRBS 201630Z 25004KT 210V300 5000 BR OVC005 M03/M03
                        Q1028 R07/29//95 NOSIG=
201812201700 METAR LRBS 201700Z 25006KT 5000 BR OVC005 M03/M03 Q1028 R07/29//95
                        NOSIG=
201812201730 METAR LRBS 201730Z 27007KT 250V300 3000 BR OVC004 M03/M03
                        Q1028 R07/29//95 NOSIG=
201812201800 METAR LRBS 201800Z 24008KT 3000 BR OVC003 M03/M03 Q1029 R07/29//95
                        NOSIG=
201812201830 METAR LRBS 201830Z 24008KT 3000 BR OVC003 M03/M03 Q1028 R07/29//95
                        NOSIG=
201812201900 METAR LRBS 201900Z 25009KT 230V300 2000 BR OVC002 M03/M03
                        Q1028 R07/29//95 NOSIG=
201812201930 METAR LRBS 201930Z 26005KT 230V310 2000 BR OVC002 M03/M03
                        Q1028 R07/29//95 NOSIG=
201812202000 METAR LRBS 202000Z 26006KT 230V300 2500 BR OVC003 M03/M03
                        Q1028 R07/29//95 NOSIG=
201812202030 METAR LRBS 202030Z 26007KT 240V300 3000 BR OVC003 M03/M03
                        Q1028 R07/29//95 NOSIG=
201812202100 METAR LRBS 202100Z 26007KT 220V290 2000 BR OVC002 M03/M03
                        Q1028 R07/29//95 NOSIG=
201812202130 METAR LRBS 202130Z 28007KT 250V320 2500 BR OVC002 M03/M03
                        Q1028 R07/29//95 NOSIG=
201812202200 METAR LRBS 202200Z 25010KT 2300 BR OVC003 M03/M03 Q1028 R07/29//95
                        NOSIG=
201812202230 METAR LRBS 202230Z 25010KT 2400 BR OVC003 M03/M03 Q1028 R07/29//95
                        NOSIG=
201812202300 METAR LRBS 202300Z 26010KT 1500 BR OVC002 M03/M03 Q1028 R07/29//95
                        NOSIG=
201812202330 METAR LRBS 202330Z 25010KT 1500 BR OVC002 M03/M03 Q1028 R07/29//95
                        NOSIG=
201812210000 METAR LRBS 210000Z 26010KT 240V290 1500 BR OVC002 M03/M03
                        Q1028 R07/29//95 NOSIG=
201812210030 METAR LRBS 210030Z 25009KT 1500 BR OVC002 M03/M03 Q1028 R07/29//95
                        NOSIG=
201812210100 METAR LRBS 210100Z 26007KT 230V290 1500 BR OVC002 M03/M03
                        Q1028 R07/29//95 NOSIG=
201812210130 METAR LRBS 210130Z 25009KT 1500 BR OVC002 M03/M03 Q1028 R07/29//95
                        NOSIG=
201812210200 METAR LRBS 210200Z 25010KT 1500 BR OVC002 M03/M04 Q1028 R07/29//95
                        NOSIG=
201812210230 METAR LRBS 210230Z 27009KT 240V320 2000 BR OVC002 M03/M04
                        Q1028 R07/29//95 NOSIG=
201812210300 METAR LRBS 210300Z 25010KT 2000 BR OVC002 M03/M04 Q1027 R07/29//95
                        TEMPO 1500 BR=
201812210330 METAR LRBS 210330Z 25009KT 2400 BR OVC002 M03/M04 Q1027 R07/29//95
                        NOSIG=
201812210400 METAR LRBS 210400Z 26010KT 3000 BR OVC002 M04/M04 Q1027 R07/CLRD//
                        NOSIG=
201812210430 METAR LRBS 210430Z 25011KT 5000 BR OVC004 M04/M04 Q1027 NOSIG=
201812210500 METAR LRBS 210500Z 25009KT 6000 OVC005 M04/M04 Q1027 NOSIG=
201812210530 METAR LRBS 210530Z 26009KT 5000 BR OVC004 M03/M04 Q1028 NOSIG=
201812210600 METAR LRBS 210600Z 26008KT 4000 BR OVC004 M03/M04 Q1027 NOSIG=
201812210630 METAR LRBS 210630Z 27009KT 240V300 4000 BR OVC004 M03/M03
                        Q1027 NOSIG=
201812210700 METAR LRBS 210700Z 26009KT 240V300 4000 BR OVC004 M03/M03
                        Q1027 NOSIG=
201812210730 METAR LRBS 210730Z 26009KT 240V300 3000 BR OVC003 M03/M03
                        Q1028 NOSIG=
201812210800 METAR LRBS 210800Z 26010KT 240V300 3000 BR OVC004 M03/M03
                        Q1028 NOSIG=
201812210830 METAR COR LRBS 210830Z 26008KT 230V310 3000 BR OVC003 M03/M03
                        Q1027 NOSIG=
201812210900 METAR COR LRBS 210900Z 26008KT 230V310 3000 BR OVC003 M03/M03
                        Q1027 NOSIG=
201812210930 METAR LRBS 210930Z 25009KT 3000 BR OVC003 M03/M03 Q1027 NOSIG=
201812211000 METAR LRBS 211000Z 25010KT 3000 BR OVC003 M03/M03 Q1027 NOSIG=
201812211030 METAR LRBS 211030Z 26012KT 3000 BR OVC003 M03/M03 Q1027 NOSIG=
201812211100 METAR LRBS 211100Z 26009KT 240V300 3000 BR OVC003 M02/M03
                        Q1026 NOSIG=
201812211130 METAR LRBS 211130Z 26011KT 3000 BR OVC003 M02/M03 Q1026 NOSIG=
201812211200 METAR LRBS 211200Z 26009KT 3000 BR OVC004 M02/M02 Q1026 NOSIG=
201812211230 METAR LRBS 211230Z 28009KT 240V320 3000 BR OVC004 M02/M02
                        Q1026 NOSIG=
201812211300 METAR LRBS 211300Z 26010KT 3000 BR OVC003 M02/M03 Q1026 NOSIG=
201812211330 METAR LRBS 211330Z 28006KT 240V320 2500 BR OVC003 M03/M03
                        Q1025 NOSIG=
201812211400 METAR LRBS 211400Z 26006KT 220V300 2500 BR OVC003 M03/M03
                        Q1025 NOSIG=
201812211430 METAR LRBS 211430Z 26009KT 240V300 2000 BR OVC003 M03/M03
                        Q1025 NOSIG=
201812211500 METAR LRBS 211500Z 25010KT 2000 BR OVC003 M03/M03 Q1026 NOSIG=
201812211530 METAR LRBS 211530Z 27007KT 240V300 2000 BR OVC003 M03/M03
                        Q1026 NOSIG=
201812211600 METAR LRBS 211600Z 27007KT 240V310 2000 BR OVC003 M03/M03
                        Q1025 NOSIG=
201812211630 METAR LRBS 211630Z 25009KT 2000 BR OVC002 M03/M03 Q1025 NOSIG=
201812211700 METAR LRBS 211700Z 26008KT 1500 BR OVC002 M03/M03 Q1025 NOSIG=
201812211730 METAR LRBS 211730Z 26008KT 0900 R07/1700D R25/2000D FZFG
                        OVC001 M02/M03 Q1025 TEMPO 0800 FZFG=
201812211800 METAR LRBS 211800Z 23009KT 1800 BR OVC002 M02/M03 Q1025 TEMPO
                        0800=
201812211830 METAR LRBS 211830Z 24008KT 1200 R07/2000D R25/P2000 BR OVC001
                        M02/M03 Q1025 NOSIG=
201812211900 METAR LRBS 211900Z 24009KT 0900 R07/1500D R25/1500N FZFG
                        OVC001 M02/M03 Q1024 TEMPO 0600 FZFG=
201812211930 METAR LRBS 211930Z 25009KT 0700 R07/1100 R25/1300D FZFG OVC001
                        M02/M03 Q1024 TEMPO 0350 FZFG=
201812212000 METAR LRBS 212000Z 24005KT 0500 R07/0800 R25/0700 FZFG VV001
                        M02/M03 Q1024 TEMPO 0350 FZFG VV001=
201812212030 METAR LRBS 212030Z 24009KT 0450 R07/0650N R25/0700N FZFG
                        VV001 M02/M03 Q1023 TEMPO 0350 FZFG=
201812212100 METAR LRBS 212100Z 24009KT 0500 R07/0900N R25/0750N FZFG
                        VV001 M03/M03 Q1023 TEMPO 0800 VV002=
201812212130 METAR LRBS 212130Z 25007KT 220V280 0500 R07/0800 R25/0800N
                        FZFG OVC001 M03/M03 Q1023 TEMPO 0800
                        VV002=
201812212200 METAR LRBS 212200Z 24006KT 0450 R07/0750D R25/0700N FZFG
                        OVC001 M03/M03 Q1023 NOSIG=
201812212230 METAR LRBS 212230Z 24006KT 0500 R07/0650N R25/0800 FZFG FEW001
                        OVC002 M03/M03 Q1023 R07/19//95 NOSIG=
201812212300 METAR LRBS 212300Z 24005KT 0450 R07/0650N R25/0650N FZFG
                        OVC001 M03/M03 Q1022 R07/19//95 NOSIG=
201812212330 METAR LRBS 212330Z 24005KT 0600 R07/0700N R25/0600 FZFG OVC001
                        M03/M03 Q1022 R07/19//95 NOSIG=
201812220000 METAR LRBS 220000Z 24006KT 0600 R07/1100 R25/1200 FZFG OVC001
                        M03/M03 Q1022 R07/19//95 NOSIG=
201812220030 METAR LRBS 220030Z 22006KT 1200 R07/1500 R25/1400 BR OVC001
                        M03/M03 Q1022 R07/19//95 NOSIG=
201812220100 METAR LRBS 220100Z 22007KT 1400 R07/P2000 R25/1800D BR OVC001
                        M03/M03 Q1021 R07/19//95 TEMPO 1500
                        BR=
201812220130 METAR LRBS 220130Z 22005KT 2500 BR FEW001 OVC002 M03/M03
                        Q1021 R07/19//95 NOSIG=
201812220200 METAR LRBS 220200Z 24006KT 2800 BR BKN002 OVC003 M03/M03
                        Q1021 R07/19//95 NOSIG=
201812220230 METAR LRBS 220230Z 23007KT 4000 BR BKN002 M03/M04 Q1020 R07/19//95
                        BECMG 5000 SCT003=
201812220300 METAR LRBS 220300Z 23005KT 5000 BR BKN002 M04/M04 Q1020 R07/19//95
                        NOSIG=
201812220330 METAR LRBS 220330Z 24006KT 5000 BR BKN002 M04/M04 Q1020 R07/19//95
                        NOSIG=
201812220400 METAR LRBS 220400Z 26005KT 5000 BR FEW002 M04/M04 Q1020 R07/19//95
                        NOSIG=
201812220430 METAR LRBS 220430Z 26005KT 6000 FEW003 M04/M04 Q1020 R07/19//95
                        NOSIG=
201812220500 METAR LRBS 220500Z 26005KT 240V310 7000 NSC M03/M04 Q1019
                        R07/19//95 NOSIG=
201812220530 METAR COR LRBS 220530Z 25008KT 5000 BKN140 M03/M04 Q1019
                        R07/19//95 BECMG 9999 NSW=
201812220600 METAR LRBS 220600Z 25008KT 6000 NSC M03/M04 Q1019 R07/19//95
                        NOSIG=
201812220630 METAR LRBS 220630Z 24009KT 6000 NSC M03/M03 Q1019 R07/19//95
                        NOSIG=
201812220700 METAR LRBS 220700Z 26007KT 230V300 6000 NSC M02/M03 Q1019
                        R07/19//95 NOSIG=
201812220730 METAR LRBS 220730Z 25008KT 6000 NSC M02/M02 Q1019 R07/19//95
                        NOSIG=
201812220800 METAR LRBS 220800Z 26009KT 6000 NSC M01/M02 Q1019 R07/19//95
                        NOSIG=
201812220830 METAR LRBS 220830Z AUTO 25010KT 6000 NCD M01/M01 Q1019 NOSIG=
201812220900 METAR COR LRBS 220900Z 25010KT 8000 NSC M01/M01 Q1019 R07/19//95
                        NOSIG=
201812220930 METAR COR LRBS 220930Z 25009KT 8000 NSC M00/M01 Q1018 R07/19//95
                        NOSIG=
201812221000 METAR LRBS 221000Z 26010KT CAVOK M00/M01 Q1018 R07/19//95
                        NOSIG=
201812221030 METAR LRBS 221030Z 25010KT 9000 NSC M00/M01 Q1018 R07/19//95
                        NOSIG=
201812221100 METAR LRBS 221100Z 25009KT 8000 NSC M00/M01 Q1017 R07/19//95
                        NOSIG=
201812221130 METAR LRBS 221130Z 25007KT 8000 NSC 01/M01 Q1017 R07/19//95
                        NOSIG=
201812221200 METAR LRBS 221200Z 25007KT CAVOK 02/M00 Q1017 R07/19//95
                        NOSIG=
201812221230 METAR COR LRBS 221230Z 26008KT CAVOK 02/00 Q1016 R07/19//95
                        NOSIG=
201812221300 METAR LRBS 221300Z 26008KT CAVOK 03/01 Q1017 R07/19//95 NOSIG=
201812221330 METAR LRBS 221330Z 25008KT CAVOK 03/01 Q1017 R07/19//95 NOSIG=
201812221400 METAR LRBS 221400Z 26008KT CAVOK 03/01 Q1016 R07/19//95 NOSIG=
201812221430 METAR LRBS 221430Z 25010KT 8000 NSC 02/01 Q1016 R07/19//95
                        NOSIG=
201812221500 METAR LRBS 221500Z 27008KT CAVOK 02/01 Q1016 R07/19//95 NOSIG=
201812221530 METAR LRBS 221530Z 25011KT CAVOK 02/01 Q1016 R07/19//95 NOSIG=
201812221600 METAR LRBS 221600Z 25010KT CAVOK 03/01 Q1016 R07/19//95 NOSIG=
201812221630 METAR LRBS 221630Z 27007KT 230V300 CAVOK 02/01 Q1016 R07/19//95
                        NOSIG=
201812221700 METAR LRBS 221700Z 26009KT CAVOK 03/01 Q1015 R07/19//95 NOSIG=
201812221730 METAR LRBS 221730Z 25010KT CAVOK 03/01 Q1015 R07/19//95 NOSIG=
201812221800 METAR LRBS 221800Z 25010KT CAVOK 03/01 Q1015 R07/19//95 NOSIG=
201812221830 METAR LRBS 221830Z 26012KT CAVOK 03/02 Q1015 R07/19//95 NOSIG=
201812221900 METAR LRBS 221900Z 25012KT CAVOK 03/02 Q1015 R07/19//95 NOSIG=
201812221930 METAR LRBS 221930Z 26013KT CAVOK 04/02 Q1015 R07/19//95 NOSIG=
201812222000 METAR LRBS 222000Z 26012KT CAVOK 04/02 Q1015 R07/19//95 NOSIG=
201812222030 METAR LRBS 222030Z 26011KT CAVOK 03/02 Q1015 R07/19//95 NOSIG=
201812222100 METAR LRBS 222100Z 26012KT 8000 -RA NSC 03/02 Q1015 R07/19//95
                        NOSIG=
201812222130 METAR LRBS 222130Z 26011KT 240V300 8000 -RA NSC 03/02 Q1014
                        R07/19//95 NOSIG=
201812222200 METAR LRBS 222200Z 26011KT 240V310 8000 -RA NSC 03/02 Q1014
                        R07/19//95 NOSIG=
201812222230 METAR LRBS 222230Z 27009KT 240V340 8000 NSC 04/03 Q1014 R07/19//95
                        NOSIG=
201812222300 METAR LRBS 222300Z 27009KT 240V310 CAVOK 04/03 Q1013 R07/19//95
                        NOSIG=
201812222330 METAR LRBS 222330Z 26012KT CAVOK 04/03 Q1013 R07/19//95 NOSIG=
201812230000 METAR LRBS 230000Z 26013KT CAVOK 04/03 Q1014 R07/19//95 NOSIG=
201812230030 METAR LRBS 230030Z 27010KT 240V310 CAVOK 04/03 Q1013 R07/19//95
                        NOSIG=
201812230100 METAR LRBS 230100Z 27010KT 240V310 CAVOK 04/03 Q1014 R07/19//95
                        NOSIG=
201812230130 METAR LRBS 230130Z 27009KT 240V310 CAVOK 04/04 Q1013 R07/19//95
                        NOSIG=
201812230200 METAR LRBS 230200Z 27008KT 240V310 CAVOK 04/04 Q1013 R07/19//95
                        NOSIG=
201812230230 METAR LRBS 230230Z 27009KT 250V310 CAVOK 04/04 Q1013 R07/19//95
                        NOSIG=
201812230300 METAR LRBS 230300Z 27008KT 240V310 CAVOK 04/04 Q1013 R07/19//95
                        NOSIG=
201812230330 METAR LRBS 230330Z 28008KT 250V310 CAVOK 05/04 Q1013 R07/19//95
                        NOSIG=
201812230400 METAR LRBS 230400Z 28008KT 240V320 CAVOK 05/04 Q1013 R07/19//95
                        NOSIG=
201812230430 METAR COR LRBS 230430Z 27008KT 240V310 CAVOK 04/04 Q1014
                        R07/19//95 NOSIG=
201812230500 METAR LRBS 230500Z 27008KT 240V310 CAVOK 04/04 Q1014 R07/19//95
                        NOSIG=
201812230530 METAR LRBS 230530Z 28007KT 240V320 CAVOK 04/04 Q1014 R07/19//95
                        NOSIG=
201812230600 METAR LRBS 230600Z 29006KT 230V340 CAVOK 05/04 Q1014 R07/19//95
                        NOSIG=
201812230630 METAR LRBS 230630Z 28006KT 240V320 CAVOK 05/04 Q1015 R07/19//95
                        NOSIG=
201812230700 METAR LRBS 230700Z 27006KT 240V310 CAVOK 05/04 Q1015 R07/19//95
                        NOSIG=
201812230730 METAR LRBS 230730Z 28005KT 240V340 CAVOK 05/04 Q1016 R07/19//95
                        NOSIG=
201812230800 METAR LRBS 230800Z 29004KT 250V330 CAVOK 06/04 Q1016 R07/19//95
                        NOSIG=
201812230830 METAR LRBS 230830Z 26006KT 230V310 CAVOK 07/04 Q1016 R07/19//95
                        NOSIG=
201812230900 METAR LRBS 230900Z 27007KT CAVOK 08/04 Q1017 R07/19//95 NOSIG=
201812230930 METAR LRBS 230930Z 29003KT 240V350 CAVOK 08/03 Q1017 R07/19//95
                        NOSIG=
201812231000 METAR LRBS 231000Z 28006KT 230V350 CAVOK 09/04 Q1017 R07/19//95
                        NOSIG=
201812231030 METAR LRBS 231030Z 27008KT 240V300 CAVOK 09/03 Q1017 R07/19//95
                        NOSIG=
201812231100 METAR LRBS 231100Z 27009KT 240V300 CAVOK 10/04 Q1017 R07/19//95
                        NOSIG=
201812231130 METAR LRBS 231130Z 27008KT 240V320 CAVOK 10/03 Q1017 R07/19//95
                        NOSIG=
201812231200 METAR LRBS 231200Z 27007KT 240V310 CAVOK 10/03 Q1017 R07/19//95
                        NOSIG=
201812231230 METAR LRBS 231230Z 26007KT 240V300 CAVOK 10/03 Q1018 R07/19//95
                        NOSIG=
201812231300 METAR LRBS 231300Z 27003KT CAVOK 09/03 Q1018 R07/19//95 NOSIG=
201812231330 METAR LRBS 231330Z 27004KT CAVOK 09/03 Q1018 R07/19//95 NOSIG=
201812231400 METAR LRBS 231400Z 27005KT CAVOK 10/04 Q1018 R07/19//95 NOSIG=
201812231430 METAR LRBS 231430Z 25004KT CAVOK 09/04 Q1018 R07/19//95 NOSIG=
201812231500 METAR LRBS 231500Z VRB02KT CAVOK 08/04 Q1018 R07/19//95 NOSIG=
201812231530 METAR LRBS 231530Z 27005KT CAVOK 07/04 Q1018 R07/19//95 NOSIG=
201812231600 METAR LRBS 231600Z 28004KT 9999 NCD 06/04 Q1018 R07/19//95
                        NOSIG=
201812231630 METAR LRBS 231630Z 27003KT CAVOK 06/04 Q1018 R07/19//95 NOSIG=
201812231700 METAR LRBS 231700Z 00000KT CAVOK 03/03 Q1019 R07/19//95 NOSIG=
201812231730 METAR LRBS 231730Z 00000KT CAVOK 05/04 Q1019 R07/19//95 NOSIG=
201812231800 METAR LRBS 231800Z 26001KT CAVOK 05/04 Q1019 R07/19//95 NOSIG=
201812231830 METAR LRBS 231830Z 32001KT CAVOK 04/03 Q1019 R07/19//95 NOSIG=
201812231900 METAR LRBS 231900Z 25002KT CAVOK 04/03 Q1019 R07/19//95 NOSIG=
201812231930 METAR LRBS 231930Z 27003KT CAVOK 03/03 Q1019 R07/19//95 NOSIG=
201812232000 METAR LRBS 232000Z 27004KT 7000 NSC 03/02 Q1019 R07/19//95
                        NOSIG=
201812232030 METAR LRBS 232030Z 26005KT 9000 NSC 02/02 Q1019 R07/19//95
                        NOSIG=
201812232100 METAR LRBS 232100Z 27005KT CAVOK 02/02 Q1019 R07/19//95 NOSIG=
201812232130 METAR LRBS 232130Z 27003KT 230V300 CAVOK 02/02 Q1019 R07/19//95
                        NOSIG=
201812232200 METAR LRBS 232200Z 28003KT CAVOK 02/02 Q1019 R07/19//95 NOSIG=
201812232230 METAR LRBS 232230Z 00000KT CAVOK 02/01 Q1018 R07/19//95 NOSIG=
201812232300 METAR LRBS 232300Z 27005KT CAVOK 02/01 Q1019 R07/19//95 NOSIG=
201812232330 METAR LRBS 232330Z 27004KT 260V320 CAVOK 02/01 Q1018 R07/19//95
                        NOSIG=
201812240000 METAR LRBS 240000Z 28004KT 250V340 CAVOK 01/01 Q1018 R07/19//95
                        NOSIG=
201812240030 METAR LRBS 240030Z 28004KT 250V320 CAVOK 02/02 Q1018 R07/19//95
                        NOSIG=
201812240100 METAR LRBS 240100Z 27005KT CAVOK 02/02 Q1018 R07/19//95 NOSIG=
201812240130 METAR LRBS 240130Z 28004KT 240V310 CAVOK 02/02 Q1018 R07/19//95
                        NOSIG=
201812240200 METAR LRBS 240200Z 27005KT CAVOK 02/02 Q1017 R07/19//95 NOSIG=
201812240230 METAR COR LRBS 240230Z 27003KT CAVOK 02/02 Q1016 R07/19//95
                        NOSIG=
201812240300 METAR LRBS 240300Z VRB02KT CAVOK 02/02 Q1016 R07/19//95 NOSIG=
201812240330 METAR LRBS 240330Z 25003KT CAVOK 02/02 Q1015 R07/19//95 NOSIG=
201812240400 METAR LRBS 240400Z 27003KT CAVOK 03/02 Q1015 R07/19//95 NOSIG=
201812240430 METAR LRBS 240430Z 24004KT CAVOK 03/02 Q1014 R07/19//95 NOSIG=
201812240500 METAR LRBS 240500Z 24004KT CAVOK 03/02 Q1014 R07/19//95 NOSIG=
201812240530 METAR LRBS 240530Z 24006KT CAVOK 03/03 Q1013 R07/19//95 NOSIG=
201812240600 METAR LRBS 240600Z 27005KT 240V300 CAVOK 03/03 Q1014 R07/19//95
                        NOSIG=
201812240630 METAR LRBS 240630Z VRB02KT CAVOK 03/03 Q1013 R07/19//95 NOSIG=
201812240700 METAR LRBS 240700Z VRB02KT CAVOK 03/03 Q1012 R07/19//95 NOSIG=
201812240730 METAR LRBS 240730Z 26004KT CAVOK 04/03 Q1011 R07/19//95 NOSIG=
201812240800 METAR LRBS 240800Z VRB01KT CAVOK 05/03 Q1011 R07/19//95 NOSIG=
201812240830 METAR LRBS 240830Z 19003KT 150V230 CAVOK 06/03 Q1010 R07/19//95
                        NOSIG=
201812240900 METAR LRBS 240900Z VRB02KT CAVOK 07/03 Q1009 R07/19//95 NOSIG=
201812240930 METAR LRBS 240930Z 23003KT 190V270 CAVOK 08/02 Q1008 R07/19//95
                        NOSIG=
201812241000 METAR LRBS 241000Z 24004KT 210V280 CAVOK 08/02 Q1007 R07/19//95
                        NOSIG=
201812241030 METAR LRBS 241030Z 26005KT 220V300 CAVOK 08/02 Q1006 R07/19//95
                        NOSIG=
201812241100 METAR LRBS 241100Z 29004KT 230V330 CAVOK 07/03 Q1005 R07/19//95
                        NOSIG=
201812241130 METAR LRBS 241130Z VRB02KT CAVOK 07/03 Q1004 R07/19//95 NOSIG=
201812241200 METAR LRBS 241200Z 29003KT 250V340 CAVOK 07/03 Q1004 R07/19//95
                        NOSIG=
201812241230 METAR LRBS 241230Z 27003KT 240V320 9999 -RA NSC 07/04 Q1004
                        R07/19//95 NOSIG=
201812241300 METAR LRBS 241300Z 26005KT 9000 -RA NSC 07/04 Q1003 R07/19//95
                        NOSIG=
201812241330 METAR LRBS 241330Z 28003KT 7000 -RA NSC 06/06 Q1003 R07/29//95
                        TEMPO 5000 -RA BR=
201812241400 METAR LRBS 241400Z 25003KT 6000 -RA BKN042 06/06 Q1003 R07/29//95
                        TEMPO 3000 -RA BR BKN015 OVC035=
201812241430 METAR LRBS 241430Z 27004KT 240V300 8000 BKN038 06/06 Q1003
                        R07/29//95 TEMPO 3000 -RA BR BKN015
                        OVC035=
201812241500 METAR LRBS 241500Z 27005KT 240V300 9000 BKN031 06/06 Q1002
                        R07/29//95 NOSIG=
201812241530 METAR LRBS 241530Z 27006KT 240V310 9000 FEW024 06/06 Q1002
                        R07/29//95 NOSIG=
201812241600 METAR LRBS 241600Z 27009KT 240V320 9999 SCT021 07/06 Q1003
                        R07/29//95 NOSIG=
201812241630 METAR LRBS 241630Z 27011KT 230V300 9999 SCT020 06/05 Q1003
                        R07/29//95 NOSIG=
201812241700 METAR LRBS 241700Z 28009KT 240V320 9999 FEW021 06/05 Q1004
                        R07/29//95=
201812241730 METAR LRBS 241730Z 28009KT 250V340 9999 FEW021 05/05 Q1004
                        R07/29//95 NOSIG=
201812241800 METAR LRBS 241800Z 28009KT 240V320 CAVOK 05/05 Q1005 R07/29//95
                        BECMG 07010KT=
201812241830 METAR COR LRBS 241830Z 28007KT 240V320 CAVOK 05/04 Q1006
                        R07/29//95 BECMG 07010KT=
201812241900 METAR COR LRBS 241900Z 28005KT 240V340 CAVOK 05/04 Q1007
                        R07/29//95 BECMG 07010KT=
201812241930 METAR LRBS 241930Z 27004KT CAVOK 05/04 Q1008 R07/29//95 BECMG
                        07010KT=
201812242000 METAR LRBS 242000Z VRB02KT CAVOK 05/04 Q1009 R07/29//95 BECMG
                        07010KT=
201812242030 METAR LRBS 242030Z 08005KT CAVOK 05/04 Q1011 R07/29//95 NOSIG=
201812242100 METAR LRBS 242100Z 13004KT 100V170 CAVOK 05/04 Q1011 R07/29//95
                        NOSIG=
201812242130 METAR COR LRBS 242130Z 16005KT 120V180 CAVOK 05/04 Q1011
                        R07/29//95 NOSIG=
201812242200 METAR LRBS 242200Z 19005KT 150V220 9999 FEW009 04/04 Q1012
                        R07/29//95 NOSIG=
201812242230 METAR LRBS 242230Z 19004KT 160V230 9999 FEW010 04/04 Q1012
                        R07/29//95 NOSIG=
201812242300 METAR LRBS 242300Z 20004KT 110V240 9999 FEW009 04/03 Q1013
                        R07/29//95 NOSIG=
201812242330 METAR LRBS 242330Z 21003KT 170V250 9999 FEW015 04/03 Q1013
                        R07/29//95 NOSIG=
201812250000 METAR LRBS 250000Z 19004KT 150V230 CAVOK 04/03 Q1014 R07/29//95
                        NOSIG=
201812250030 METAR LRBS 250030Z 18004KT 150V210 CAVOK 03/03 Q1015 R07/29//95
                        NOSIG=
201812250100 METAR LRBS 250100Z 20004KT 170V260 CAVOK 03/03 Q1015 R07/29//95
                        NOSIG=
201812250130 METAR LRBS 250130Z VRB01KT CAVOK 03/03 Q1015 R07/29//95 NOSIG=
201812250200 METAR LRBS 250200Z 36002KT 9999 FEW034 02/02 Q1015 R07/29//95
                        NOSIG=
201812250230 METAR LRBS 250230Z 36003KT CAVOK 02/02 Q1015 R07/29//95 NOSIG=
201812250300 METAR LRBS 250300Z 01003KT 350V050 CAVOK 02/01 Q1016 R07/29//95
                        NOSIG=
201812250330 METAR LRBS 250330Z VRB01KT CAVOK 01/01 Q1016 R07/29//95 NOSIG=
201812250400 METAR COR LRBS 250400Z 36004KT 320V050 CAVOK 02/01 Q1016
                        R07/19//95 NOSIG=
201812250430 METAR LRBS 250430Z VRB02KT CAVOK 01/M01 Q1017 R07/19//95
                        NOSIG=
201812250500 METAR LRBS 250500Z VRB02KT CAVOK 01/M01 Q1018 R07/19//95
                        NOSIG=
201812250530 METAR LRBS 250530Z VRB02KT CAVOK 01/M02 Q1018 R07/19//95
                        NOSIG=
201812250600 METAR LRBS 250600Z 26003KT 240V320 CAVOK 01/M02 Q1019 R07/19//95
                        NOSIG=
201812250630 METAR LRBS 250630Z VRB02KT CAVOK 01/M02 Q1019 R07/19//95
                        NOSIG=
201812250700 METAR LRBS 250700Z 29001KT CAVOK 01/M01 Q1020 R07/19//95
                        NOSIG=
201812250730 METAR LRBS 250730Z 25003KT CAVOK 01/M01 Q1020 R07/19//95
                        NOSIG=
201812250800 METAR LRBS 250800Z VRB02KT CAVOK 01/M01 Q1020 R07/19//95
                        NOSIG=
201812250830 METAR LRBS 250830Z VRB02KT CAVOK 02/M03 Q1020 R07/19//95
                        NOSIG=
201812250900 METAR LRBS 250900Z VRB02KT CAVOK 02/M03 Q1020 R07/19//95
                        NOSIG=
201812250930 METAR LRBS 250930Z 25004KT CAVOK 03/M04 Q1020 R07/19//95
                        NOSIG=
201812251000 METAR LRBS 251000Z 30005KT 250V010 CAVOK 04/M04 Q1020 R07/19//95
                        NOSIG=
201812251030 METAR LRBS 251030Z 33003KT CAVOK 04/M04 Q1020 R07/19//95
                        NOSIG=
201812251100 METAR LRBS 251100Z 28004KT 200V340 CAVOK 05/M04 Q1020 R07/19//95
                        NOSIG=
201812251130 METAR LRBS 251130Z 32005KT 240V020 CAVOK 05/M06 Q1020 R07/19//95
                        NOSIG=
201812251200 METAR LRBS 251200Z 32005KT 230V020 CAVOK 05/M07 Q1020 R07/19//95
                        NOSIG=
201812251230 METAR COR LRBS 251230Z 32005KT 260V020 CAVOK 05/M06 Q1020
                        R07/19//95 NOSIG=
201812251300 METAR LRBS 251300Z 30004KT 260V350 CAVOK 06/M07 Q1020 R07/19//95
                        NOSIG=
201812251330 METAR LRBS 251330Z 34004KT 300V030 CAVOK 05/M07 Q1020 R07/19//95
                        NOSIG=
201812251400 METAR LRBS 251400Z 33003KT 270V040 CAVOK 05/M06 Q1020 R07/19//95
                        NOSIG=
201812251430 METAR LRBS 251430Z 02003KT 340V060 CAVOK 04/M07 Q1021 R07/19//95
                        NOSIG=
201812251500 METAR LRBS 251500Z 03003KT 360V090 CAVOK 03/M07 Q1021 R07/19//95
                        NOSIG=
201812251530 METAR LRBS 251530Z 03003KT 360V070 CAVOK 02/M07 Q1021 R07/19//95
                        NOSIG=
201812251600 METAR LRBS 251600Z 04003KT 360V070 CAVOK 01/M07 Q1021 R07/19//95
                        NOSIG=
201812251630 METAR LRBS 251630Z 05003KT CAVOK 01/M06 Q1022 R07/19//95
                        NOSIG=
201812251700 METAR LRBS 251700Z VRB02KT CAVOK 01/M07 Q1022 R07/19//95
                        NOSIG=
201812251730 METAR LRBS 251730Z 17003KT 110V210 CAVOK 01/M08 Q1022 R07/19//95
                        NOSIG=
201812251800 METAR LRBS 251800Z VRB02KT CAVOK 00/M07 Q1022 R07/19//95
                        NOSIG=
201812251830 METAR LRBS 251830Z VRB01KT CAVOK 00/M07 Q1022 R07/19//95
                        NOSIG=
201812251900 METAR LRBS 251900Z VRB01KT CAVOK M00/M06 Q1022 R07/19//95
                        NOSIG=
201812251930 METAR LRBS 251930Z VRB02KT CAVOK M00/M06 Q1022 R07/19//95
                        NOSIG=
201812252000 METAR LRBS 252000Z VRB01KT CAVOK M00/M06 Q1023 R07/19//95
                        NOSIG=
201812252030 METAR LRBS 252030Z 31003KT CAVOK M01/M05 Q1023 R07/19//95
                        NOSIG=
201812252100 METAR LRBS 252100Z VRB01KT CAVOK M01/M06 Q1023 R07/19//95
                        NOSIG=
201812252130 METAR LRBS 252130Z 26003KT 230V300 CAVOK M02/M05 Q1024 R07/19//95
                        NOSIG=
201812252200 METAR LRBS 252200Z 28001KT CAVOK M02/M05 Q1023 R07/19//95
                        NOSIG=
201812252230 METAR LRBS 252230Z 28003KT CAVOK M02/M05 Q1024 R07/19//95
                        NOSIG=
201812252300 METAR LRBS 252300Z 21002KT CAVOK M02/M05 Q1024 R07/19//95
                        NOSIG=
201812252330 METAR LRBS 252330Z 27002KT CAVOK M02/M05 Q1024 R07/19//95
                        NOSIG=
201812260000 METAR LRBS 260000Z 27003KT CAVOK M02/M05 Q1024 R07/19//95
                        NOSIG=
201812260030 METAR LRBS 260030Z 27002KT CAVOK M03/M05 Q1024 R07/19//95
                        NOSIG=
201812260100 METAR LRBS 260100Z VRB01KT CAVOK M03/M04 Q1024 R07/19//95
                        NOSIG=
201812260130 METAR LRBS 260130Z 30004KT CAVOK M03/M04 Q1024 R07/19//95
                        NOSIG=
201812260200 METAR LRBS 260200Z 28004KT 250V320 CAVOK M03/M04 Q1024 R07/19//95
                        NOSIG=
201812260230 METAR LRBS 260230Z 27004KT CAVOK M04/M04 Q1024 R07/19//95
                        NOSIG=
201812260300 METAR LRBS 260300Z 28003KT 9000 NSC M04/M04 Q1024 R07/19//95
                        NOSIG=
201812260330 METAR LRBS 260330Z 27002KT CAVOK M04/M05 Q1024 R07/19//95
                        NOSIG=
201812260400 METAR LRBS 260400Z 29003KT 270V340 CAVOK M04/M05 Q1024 R07/19//95
                        NOSIG=
201812260430 METAR LRBS 260430Z 28003KT CAVOK M04/M05 Q1024 R07/19//95
                        NOSIG=
201812260500 METAR LRBS 260500Z 28004KT CAVOK M04/M06 Q1025 R07/19//95
                        NOSIG=
201812260530 METAR LRBS 260530Z 27003KT CAVOK M04/M06 Q1024 R07/19//95
                        NOSIG=
201812260600 METAR LRBS 260600Z 25003KT CAVOK M03/M06 Q1024 R07/19//95
                        NOSIG=
201812260630 METAR LRBS 260630Z 26003KT 220V300 CAVOK M03/M06 Q1025 R07/19//95
                        NOSIG=
201812260700 METAR LRBS 260700Z 27005KT 240V320 CAVOK M02/M06 Q1025 R07/19//95
                        NOSIG=
201812260730 METAR LRBS 260730Z 26008KT 240V310 CAVOK M01/M06 Q1025 R07/19//95
                        NOSIG=
201812260800 METAR LRBS 260800Z 26007KT CAVOK M00/M06 Q1025 R07/19//95
                        NOSIG=
201812260830 METAR LRBS 260830Z 27007KT 240V300 CAVOK M00/M05 Q1025 R07/19//95
                        NOSIG=
201812260900 METAR LRBS 260900Z 26008KT 230V300 CAVOK 02/M04 Q1025 R07/19//95
                        NOSIG=
201812260930 METAR LRBS 260930Z 25009KT CAVOK 02/M04 Q1024 R07/19//95
                        NOSIG=
201812261000 METAR LRBS 261000Z 27010KT 240V300 CAVOK 03/M04 Q1024 R07/19//95
                        NOSIG=
201812261030 METAR LRBS 261030Z 26011KT 230V300 CAVOK 03/M04 Q1023 R07/19//95
                        NOSIG=
201812261100 METAR LRBS 261100Z 27011KT CAVOK 04/M03 Q1023 R07/19//95
                        NOSIG=
201812261130 METAR LRBS 261130Z 26010KT CAVOK 03/M03 Q1023 R07/19//95
                        NOSIG=
201812261200 METAR LRBS 261200Z 26011KT 230V290 CAVOK 04/M02 Q1023 R07/19//95
                        NOSIG=
201812261230 METAR LRBS 261230Z 25013KT CAVOK 03/M02 Q1023 R07/CLRD//
                        NOSIG=
201812261300 METAR LRBS 261300Z 25012KT CAVOK 04/M02 Q1022 NOSIG=
201812261330 METAR LRBS 261330Z 26011KT CAVOK 04/M02 Q1022 NOSIG=
201812261400 METAR LRBS 261400Z 25010KT CAVOK 03/M02 Q1022 NOSIG=
201812261430 METAR LRBS 261430Z 26008KT CAVOK 03/M02 Q1022 NOSIG=
201812261500 METAR LRBS 261500Z 25007KT CAVOK 02/M02 Q1021 NOSIG=
201812261530 METAR LRBS 261530Z 26007KT CAVOK 02/M02 Q1021 NOSIG=
201812261600 METAR LRBS 261600Z 27005KT CAVOK 01/M01 Q1021 NOSIG=
201812261630 METAR LRBS 261630Z 26006KT CAVOK 01/M01 Q1021 NOSIG=
201812261700 METAR LRBS 261700Z 25006KT CAVOK 01/M01 Q1021 NOSIG=
201812261730 METAR LRBS 261730Z 27004KT 240V310 CAVOK 01/M01 Q1020 NOSIG=
201812261800 METAR LRBS 261800Z 27005KT 250V300 CAVOK 01/M00 Q1020 NOSIG=
201812261830 METAR LRBS 261830Z 27004KT 240V300 CAVOK 01/M00 Q1020 NOSIG=
201812261900 METAR LRBS 261900Z 27005KT 240V300 CAVOK 01/00 Q1020 NOSIG=
201812261930 METAR LRBS 261930Z 27004KT 250V310 CAVOK 01/01 Q1020 NOSIG=
201812262000 METAR LRBS 262000Z 25003KT CAVOK 01/01 Q1020 NOSIG=
201812262030 METAR LRBS 262030Z 27003KT 240V300 CAVOK 01/01 Q1020 NOSIG=
201812262100 METAR LRBS 262100Z 27005KT 240V300 CAVOK 02/01 Q1021 NOSIG=
201812262130 METAR LRBS 262130Z 28005KT 240V320 CAVOK 02/01 Q1021 NOSIG=
201812262200 METAR LRBS 262200Z 28004KT 250V310 CAVOK 01/01 Q1021 NOSIG=
201812262230 METAR LRBS 262230Z 26006KT CAVOK 01/01 Q1020 NOSIG=
201812262300 METAR LRBS 262300Z 30003KT 260V360 CAVOK 01/01 Q1021 NOSIG=
201812262330 METAR LRBS 262330Z 26003KT 240V300 CAVOK 01/01 Q1021 NOSIG=
201812270000 METAR LRBS 270000Z 27003KT 240V310 CAVOK 01/01 Q1021 NOSIG=
201812270030 METAR LRBS 270030Z 25004KT CAVOK 01/00 Q1021 NOSIG=
201812270100 METAR LRBS 270100Z 26004KT CAVOK 01/00 Q1021 NOSIG=
201812270130 METAR LRBS 270130Z 25003KT 230V290 CAVOK 01/00 Q1021 NOSIG=
201812270200 METAR LRBS 270200Z 27003KT 240V300 CAVOK 01/00 Q1021 NOSIG=
201812270230 METAR LRBS 270230Z 26003KT CAVOK 01/00 Q1021 NOSIG=
201812270300 METAR LRBS 270300Z 27004KT 240V300 CAVOK 00/00 Q1021 NOSIG=
201812270330 METAR LRBS 270330Z 28004KT CAVOK 00/00 Q1021 NOSIG=
201812270400 METAR LRBS 270400Z 27004KT 240V300 CAVOK 00/M00 Q1021 NOSIG=
201812270430 METAR LRBS 270430Z 27004KT 240V300 CAVOK M00/M00 Q1022 NOSIG=
201812270500 METAR LRBS 270500Z 27004KT 240V330 CAVOK M00/M00 Q1022 NOSIG=
201812270530 METAR LRBS 270530Z 27004KT 250V320 CAVOK M00/M01 Q1022 NOSIG=
201812270600 METAR LRBS 270600Z 29004KT CAVOK M01/M01 Q1023 NOSIG=
201812270630 METAR LRBS 270630Z 28003KT 240V340 CAVOK M01/M01 Q1023=
201812270700 METAR LRBS 270700Z 25005KT CAVOK M00/M00 Q1023 NOSIG=
201812270730 METAR LRBS 270730Z 25005KT CAVOK 01/M01 Q1023 NOSIG=
201812270800 METAR LRBS 270800Z 26006KT CAVOK 02/M01 Q1024 NOSIG=
201812270830 METAR COR LRBS 270830Z 26006KT CAVOK 03/M01 Q1024 NOSIG=
201812270900 METAR LRBS 270900Z 25004KT 230V290 CAVOK 04/M01 Q1024 NOSIG=
201812270930 METAR LRBS 270930Z 25004KT 230V290 CAVOK 06/M01 Q1023 NOSIG=
201812271000 METAR LRBS 271000Z 25006KT CAVOK 06/M01 Q1023 NOSIG=
201812271030 METAR LRBS 271030Z 25006KT 220V280 CAVOK 07/M02 Q1023 NOSIG=
201812271100 METAR LRBS 271100Z 24007KT CAVOK 07/M02 Q1023 NOSIG=
201812271130 METAR LRBS 271130Z 25008KT 220V300 CAVOK 07/M01 Q1023 NOSIG=
201812271200 METAR LRBS 271200Z 26008KT 240V300 CAVOK 07/M01 Q1023 NOSIG=
201812271230 METAR LRBS 271230Z 25008KT 230V290 CAVOK 06/00 Q1023 NOSIG=
201812271300 METAR LRBS 271300Z 25009KT CAVOK 06/00 Q1023 NOSIG=
201812271330 METAR LRBS 271330Z 25008KT CAVOK 06/01 Q1023 NOSIG=
201812271400 METAR LRBS 271400Z 25007KT CAVOK 06/01 Q1023 NOSIG=
201812271430 METAR LRBS 271430Z 25008KT CAVOK 04/01 Q1023 NOSIG=
201812271500 METAR LRBS 271500Z 25005KT 210V280 CAVOK 04/01 Q1023 NOSIG=
201812271530 METAR LRBS 271530Z 27006KT 240V300 CAVOK 03/01 Q1023 NOSIG=
201812271600 METAR LRBS 271600Z 27004KT CAVOK 03/01 Q1023 NOSIG=
201812271630 METAR LRBS 271630Z 26004KT CAVOK 02/01 Q1023 NOSIG=
201812271700 METAR LRBS 271700Z 27003KT CAVOK 02/01 Q1023 NOSIG=
201812271730 METAR LRBS 271730Z 27005KT CAVOK 02/01 Q1023 NOSIG=
201812271800 METAR LRBS 271800Z 25004KT CAVOK 02/01 Q1023 NOSIG=
201812271830 METAR LRBS 271830Z 27004KT 8000 NSC 02/01 Q1023 NOSIG=
201812271900 METAR LRBS 271900Z 28003KT 250V310 7000 NSC 01/01 Q1023 NOSIG=
201812271930 METAR LRBS 271930Z 26004KT 7000 NSC 01/01 Q1023 NOSIG=
201812272000 METAR LRBS 272000Z 27004KT 240V310 7000 NSC 01/01 Q1023 NOSIG=
201812272030 METAR LRBS 272030Z 25005KT CAVOK 01/01 Q1023 NOSIG=
201812272100 METAR LRBS 272100Z 26005KT 9000 NSC 01/01 Q1023 NOSIG=
201812272130 METAR LRBS 272130Z 26005KT 9000 NSC 01/01 Q1023 NOSIG=
201812272200 METAR LRBS 272200Z 27004KT 8000 NSC 01/01 Q1022 NOSIG=
201812272230 METAR LRBS 272230Z 26003KT 7000 NSC 01/01 Q1022 NOSIG=
201812272300 METAR LRBS 272300Z 27005KT 7000 NSC 01/01 Q1022 NOSIG=
201812272330 METAR LRBS 272330Z 27005KT 7000 NSC 01/00 Q1022 NOSIG=
201812280000 METAR LRBS 280000Z 27004KT 240V300 7000 NSC 01/00 Q1022 NOSIG=
201812280030 METAR LRBS 280030Z 27005KT 7000 NSC 00/00 Q1022 NOSIG=
201812280100 METAR LRBS 280100Z 26005KT 9999 8000 NSC 00/00 Q1022 NOSIG=
201812280130 METAR LRBS 280130Z 26006KT 240V300 8000 NSC 01/00 Q1021 NOSIG=
201812280200 METAR LRBS 280200Z 27004KT 240V310 8000 NSC 01/01 Q1021 NOSIG=
201812280230 METAR LRBS 280230Z 27007KT 8000 NSC 01/01 Q1021 NOSIG=
201812280300 METAR LRBS 280300Z 27007KT 240V300 9000 NSC 01/01 Q1021 NOSIG=
201812280330 METAR LRBS 280330Z 27005KT 240V300 8000 NSC 01/00 Q1020 NOSIG=
201812280400 METAR COR LRBS 280400Z 25003KT 8000 NSC 00/00 Q1020 NOSIG=
201812280430 METAR LRBS 280430Z 26005KT 7000 NSC 00/00 Q1020 NOSIG=
201812280500 METAR LRBS 280500Z 26005KT 7000 NSC 00/00 Q1021 NOSIG=
201812280530 METAR COR LRBS 280530Z 25005KT 7000 NSC 00/00 Q1021 NOSIG=
201812280600 METAR LRBS 280600Z 26006KT 7000 NSC 00/M00 Q1021 NOSIG=
201812280630 METAR LRBS 280630Z 26006KT 7000 NSC 01/00 Q1021 NOSIG=
201812280700 METAR LRBS 280700Z 26006KT 8000 NSC 01/01 Q1021 NOSIG=
201812280730 METAR LRBS 280730Z 26007KT 240V300 9000 NSC 01/01 Q1021 NOSIG=
201812280800 METAR LRBS 280800Z 26010KT 9000 NSC 03/01 Q1021 NOSIG=
201812280830 METAR LRBS 280830Z 26008KT CAVOK 03/01 Q1021 NOSIG=
201812280900 METAR LRBS 280900Z 26008KT CAVOK 04/01 Q1021 NOSIG=
201812280930 METAR LRBS 280930Z 26007KT 230V290 CAVOK 04/01 Q1020 NOSIG=
201812281000 METAR LRBS 281000Z 24006KT CAVOK 05/01 Q1020 NOSIG=
201812281030 METAR LRBS 281030Z 25006KT 200V270 CAVOK 05/02 Q1019 NOSIG=
201812281100 METAR LRBS 281100Z 25006KT 200V280 CAVOK 05/02 Q1019 NOSIG=
201812281130 METAR LRBS 281130Z 25006KT CAVOK 05/02 Q1019 NOSIG=
201812281200 METAR LRBS 281200Z 25006KT 220V280 CAVOK 05/02 Q1019 NOSIG=
201812281230 METAR LRBS 281230Z 26008KT CAVOK 05/02 Q1019 NOSIG=
201812281300 METAR LRBS 281300Z 25005KT 210V290 CAVOK 05/02 Q1019 NOSIG=
201812281330 METAR COR LRBS 281330Z 25003KT 210V290 CAVOK 05/02 Q1019
                        NOSIG=
201812281400 METAR LRBS 281400Z 25003KT 210V290 CAVOK 05/02 Q1019 NOSIG=
201812281430 METAR LRBS 281430Z 26004KT CAVOK 05/02 Q1019 NOSIG=
201812281500 METAR LRBS 281500Z 30003KT 230V350 CAVOK 05/02 Q1019 NOSIG=
201812281530 METAR LRBS 281530Z VRB02KT 9000 -RA BKN045 05/03 Q1019 NOSIG=
201812281600 METAR LRBS 281600Z VRB02KT 8000 -RA FEW036 BKN045 04/03 Q1019
                        R07/19//95 NOSIG=
201812281630 METAR LRBS 281630Z 28002KT 5000 -RA BR OVC039 04/04 Q1019
                        R07/29//95 TEMPO 3000 RA BR=
201812281700 METAR LRBS 281700Z 28002KT 3000 -RA BR OVC040 04/04 Q1019
                        R07/29//95 NOSIG=
201812281730 METAR LRBS 281730Z 24003KT 4000 -RA BR OVC045 04/04 Q1019
                        R07/29//95 NOSIG=
201812281800 METAR LRBS 281800Z 27002KT 3000 -RA BR OVC047 04/04 Q1019
                        R07/29//95 NOSIG=
201812281830 METAR LRBS 281830Z VRB02KT 3000 -RA BR OVC048 04/04 Q1019
                        R07/29//95 NOSIG=
201812281900 METAR LRBS 281900Z VRB01KT 3000 -RA BR NSC 04/04 Q1019 R07/29//95
                        BECMG 5000 BR=
201812281930 METAR COR LRBS 281930Z VRB02KT 3000 BR NSC 04/03 Q1018 R07/29//95
                        NOSIG=
201812282000 METAR LRBS 282000Z 29004KT 250V340 3000 BR SCT042 04/03 Q1019
                        R07/29//95 NOSIG=
201812282030 METAR LRBS 282030Z VRB02KT 3000 BR NSC 03/03 Q1018 R07/29//95
                        NOSIG=
201812282100 METAR LRBS 282100Z VRB02KT 2400 BR NSC 03/03 Q1018 R07/29//95
                        NOSIG=
201812282130 METAR LRBS 282130Z 28003KT 3000 BR NSC 03/03 Q1018 R07/29//95
                        NOSIG=
201812282200 METAR LRBS 282200Z 26003KT 2000 BR NSC 03/03 Q1018 R07/29//95
                        NOSIG=
201812282230 METAR LRBS 282230Z 28003KT 260V320 3000 BR NSC 03/03 Q1018
                        R07/29//95 NOSIG=
201812282300 METAR LRBS 282300Z 28003KT 3000 BR NSC 03/03 Q1018 R07/29//95
                        NOSIG=
201812282330 METAR COR LRBS 282330Z 27003KT 3000 BR NSC 03/03 Q1018 R07/29//95
                        NOSIG=
201812290000 METAR LRBS 290000Z 27003KT 3000 -RA BR SCT047 03/03 Q1018
                        R07/29//95 NOSIG=
201812290030 METAR LRBS 290030Z VRB02KT 3000 -RA BR BKN046 03/03 Q1018
                        R07/29//95 NOSIG=
201812290100 METAR LRBS 290100Z VRB01KT 3000 -RA BR SCT033 BKN042 04/04
                        Q1018 R07/29//95 NOSIG=
201812290130 METAR LRBS 290130Z VRB02KT 4000 -RA BR BKN039 OVC043 04/04
                        Q1018 R07/29//95 NOSIG=
201812290200 METAR LRBS 290200Z 29004KT 260V350 5000 -RA BR BKN041 04/04
                        Q1017 R07/29//95 NOSIG=
201812290230 METAR LRBS 290230Z 29004KT 250V010 5000 -RA BR BKN044 04/04
                        Q1017 R07/29//95 NOSIG=
201812290300 METAR LRBS 290300Z VRB03KT 4000 -RA BR BKN040 04/04 Q1017
                        R07/29//95 NOSIG=
201812290330 METAR LRBS 290330Z VRB01KT 4000 -RA BR SCT024 BKN031 05/05
                        Q1018 R07/29//95 NOSIG=
201812290400 METAR LRBS 290400Z VRB03KT 6000 -RA BKN030 05/05 Q1017 R07/29//95
                        NOSIG=
201812290430 METAR LRBS 290430Z 01005KT 330V060 CAVOK 05/05 Q1018 R07/29//95
                        NOSIG=
201812290500 METAR LRBS 290500Z 34003KT 280V040 CAVOK 05/05 Q1018 R07/29//95
                        NOSIG=
201812290530 METAR LRBS 290530Z 33003KT 280V020 CAVOK 04/04 Q1019 R07/29//95
                        NOSIG=
201812290600 METAR LRBS 290600Z VRB01KT 7000 NSC 04/04 Q1019 R07/29//95
                        TEMPO 5000 BR=
201812290630 METAR LRBS 290630Z VRB02KT 6000 NSC 04/04 Q1019 R07/29//95
                        TEMPO 5000 BR=
201812290700 METAR LRBS 290700Z VRB02KT 5000 BR NSC 04/04 Q1020 R07/29//95
                        NOSIG=
201812290730 METAR LRBS 290730Z 30003KT 260V360 6000 NSC 04/04 Q1020 R07/29//95
                        NOSIG=
201812290800 METAR LRBS 290800Z VRB02KT 6000 NSC 04/04 Q1020 R07/29//95
                        NOSIG=
201812290830 METAR LRBS 290830Z 29005KT 250V330 8000 NSC 05/05 Q1020 R07/29//95
                        NOSIG=
201812290900 METAR LRBS 290900Z 29005KT 230V340 CAVOK 06/06 Q1020 R07/29//95
                        NOSIG=
201812290930 METAR LRBS 290930Z 29004KT 240V350 CAVOK 07/07 Q1020 R07/29//95
                        NOSIG=
201812291000 METAR LRBS 291000Z 30005KT 250V350 9999 SCT010 08/07 Q1020
                        R07/29//95 NOSIG=
201812291030 METAR LRBS 291030Z 31003KT 240V040 9999 FEW013 08/06 Q1020
                        R07/29//95 NOSIG=
201812291100 METAR LRBS 291100Z 30004KT 240V020 9999 SCT015 08/06 Q1020
                        R07/29//95 NOSIG=
201812291130 METAR LRBS 291130Z 28006KT 250V330 9999 FEW014 08/06 Q1020
                        R07/29//95 NOSIG=
201812291200 METAR LRBS 291200Z 26005KT 220V310 9999 SCT019 08/05 Q1020
                        R07/29//95 NOSIG=
201812291230 METAR LRBS 291230Z 30003KT 230V350 9999 FEW019 SCT024 08/05
                        Q1020 R07/29//95 NOSIG=
201812291300 METAR LRBS 291300Z 29003KT 250V340 9999 FEW023 08/04 Q1021
                        R07/29//95 NOSIG=
201812291330 METAR LRBS 291330Z 28002KT CAVOK 08/05 Q1021 R07/29//95 NOSIG=
201812291400 METAR LRBS 291400Z VRB02KT CAVOK 08/04 Q1021 R07/29//95 NOSIG=
201812291430 METAR LRBS 291430Z 27002KT CAVOK 08/05 Q1021 R07/29//95 NOSIG=
201812291500 METAR COR LRBS 291500Z 28002KT CAVOK 07/05 Q1021 R07/19//95
                        NOSIG=
201812291530 METAR LRBS 291530Z 28002KT CAVOK 07/05 Q1022 R07/19//95 NOSIG=
201812291600 METAR LRBS 291600Z 28002KT CAVOK 07/06 Q1022 R07/19//95 NOSIG=
201812291630 METAR LRBS 291630Z 00000KT CAVOK 07/06 Q1022 R07/19//95 NOSIG=
201812291700 METAR LRBS 291700Z 00000KT 9000 NSC 07/06 Q1022 R07/19//95
                        NOSIG=
201812291730 METAR LRBS 291730Z 00000KT 9000 NSC 06/06 Q1022 R07/19//95
                        NOSIG=
201812291800 METAR LRBS 291800Z VRB01KT 8000 FEW047 06/06 Q1023 R07/19//95
                        NOSIG=
201812291830 METAR LRBS 291830Z 00000KT 6000 NSC 04/04 Q1023 R07/19//95
                        BECMG 5000 BR=
201812291900 METAR LRBS 291900Z VRB03KT 5000 BR NSC 04/04 Q1023 R07/19//95
                        BECMG 3000 BR=
201812291930 METAR LRBS 291930Z 06003KT 4500 BR NSC 03/03 Q1023 R07/19//95
                        BECMG 3000 BR=
201812292000 METAR LRBS 292000Z 07003KT 4000 MIFG BR FEW005 03/03 Q1023
                        R07/19//95 BECMG 3000 BR=
201812292030 METAR LRBS 292030Z 08004KT 5000 BR BKN005 02/02 Q1023 R07/19//95
                        NOSIG=
201812292100 METAR LRBS 292100Z 09004KT 7000 FEW004 BKN005 04/04 Q1023
                        R07/19//95 NOSIG=
201812292130 METAR LRBS 292130Z 11007KT 9000 BKN004 OVC008 04/04 Q1023
                        R07/19//95 NOSIG=
201812292200 METAR LRBS 292200Z 09007KT 9999 FEW007 OVC009 04/04 Q1023
                        R07/19//95 NOSIG=
201812292230 METAR LRBS 292230Z 12006KT 080V140 9999 BKN010 04/04 Q1023
                        R07/19//95 NOSIG=
201812292300 METAR LRBS 292300Z 12006KT 090V150 9999 BKN012 04/04 Q1023
                        R07/19//95 BECMG SCT015=
201812292330 METAR LRBS 292330Z 13005KT 100V170 9999 BKN014 04/04 Q1023
                        R07/19//95 BECMG SCT020=
201812300000 METAR LRBS 300000Z 11004KT 9999 SCT014 04/04 Q1023 R07/19//95
                        NOSIG=
201812300030 METAR LRBS 300030Z 13004KT 110V170 9999 BKN014 04/04 Q1023
                        R07/19//95 NOSIG=
201812300100 METAR LRBS 300100Z 13004KT 110V170 9999 FEW008 SCT013 04/04
                        Q1023 R07/19//95 NOSIG=
201812300130 METAR LRBS 300130Z 17006KT 130V200 8000 BKN006 04/04 Q1023
                        R07/19//95 NOSIG=
201812300200 METAR LRBS 300200Z 14004KT 080V180 9000 FEW006 BKN008 04/04
                        Q1022 R07/19//95 NOSIG=
201812300230 METAR LRBS 300230Z 13004KT 100V170 9000 SCT007 SCT014 03/03
                        Q1022 R07/19//95 TEMPO BKN005=
201812300300 METAR LRBS 300300Z 15003KT 130V190 9000 BKN007 03/03 Q1022
                        R07/19//95 NOSIG=
201812300330 METAR LRBS 300330Z 17004KT 120V200 8000 OVC007 03/03 Q1022
                        R07/19//95=
201812300400 METAR LRBS 300400Z VRB02KT 8000 SCT009 SCT030 03/03 Q1022
                        R07/19//95 NOSIG=
201812300430 METAR LRBS 300430Z 15004KT 8000 FEW008 SCT033 03/03 Q1022
                        R07/19//95 NOSIG=
201812300500 METAR LRBS 300500Z 13003KT 8000 FEW033 03/03 Q1022 R07/19//95
                        NOSIG=
201812300530 METAR LRBS 300530Z 14003KT CAVOK 03/03 Q1022 R07/19//95 NOSIG=
201812300600 METAR LRBS 300600Z 06003KT 6000 NSC 02/02 Q1023 R07/19//95
                        NOSIG=
201812300630 METAR LRBS 300630Z 09004KT 7000 NSC 02/02 Q1023 R07/19//95
                        NOSIG=
201812300700 METAR LRBS 300700Z 11004KT 090V170 8000 NSC 02/02 Q1023 R07/19//95
                        NOSIG=
201812300730 METAR LRBS 300730Z VRB02KT 9000 FEW010 02/02 Q1023 R07/19//95
                        NOSIG=
201812300800 METAR LRBS 300800Z 00000KT 9000 SCT009 02/02 Q1023 R07/19//95
                        NOSIG=
201812300830 METAR LRBS 300830Z VRB01KT 8000 SCT009 02/02 Q1023 R07/19//95
                        NOSIG=
201812300900 METAR LRBS 300900Z 00000KT 8000 FEW009 03/03 Q1023 R07/19//95
                        NOSIG=
201812300930 METAR LRBS 300930Z VRB01KT 7000 FEW010 03/03 Q1023 R07/19//95
                        NOSIG=
201812301000 METAR LRBS 301000Z 00000KT 7000 NSC 03/03 Q1023 R07/19//95
                        NOSIG=
201812301030 METAR LRBS 301030Z 00000KT 8000 NSC 03/03 Q1022 R07/19//95
                        NOSIG=
201812301100 METAR LRBS 301100Z 00000KT 8000 NSC 04/03 Q1022 R07/19//95
                        NOSIG=
201812301130 METAR LRBS 301130Z 00000KT 8000 NSC 04/03 Q1022 R07/19//95
                        NOSIG=
201812301200 METAR LRBS 301200Z VRB02KT 6000 FEW049 04/03 Q1022 R07/19//95
                        NOSIG=
201812301230 METAR LRBS 301230Z 07001KT 6000 NSC 04/03 Q1022 R07/19//95
                        NOSIG=
201812301300 METAR LRBS 301300Z 07002KT 6000 NSC 04/03 Q1022 R07/19//95
                        NOSIG=
201812301330 METAR LRBS 301330Z 00000KT 6000 SCT011 04/03 Q1022 R07/19//95
                        NOSIG=
201812301400 METAR LRBS 301400Z 08002KT 5000 BR BKN009 04/03 Q1022 R07/19//95
                        NOSIG=
201812301430 METAR LRBS 301430Z 00000KT 4500 BR OVC009 03/03 Q1022 R07/19//95
                        NOSIG=
201812301500 METAR LRBS 301500Z 00000KT 5000 BR BKN009 03/03 Q1022 R07/19//95
                        TEMPO 3000 BR=
201812301530 METAR LRBS 301530Z 25002KT 3400 BR SCT009 03/03 Q1022 R07/19//95
                        TEMPO 3000 BR=
201812301600 METAR COR LRBS 301600Z 25002KT 3400 BR FEW009 03/02 Q1023
                        R07/CLRD// TEMPO 3000 BR=
201812301630 METAR LRBS 301630Z 24003KT 3000 BR SCT006 03/02 Q1022 NOSIG=
201812301700 METAR LRBS 301700Z 24003KT 3000 BR BKN006 02/02 Q1022 NOSIG=
201812301730 METAR COR LRBS 301730Z 25003KT 3000 BR BKN005 02/02 Q1022
                        NOSIG=
201812301800 METAR LRBS 301800Z 23003KT 4000 BR BKN005 02/02 Q1022 NOSIG=
201812301830 METAR LRBS 301830Z 25002KT 3000 BR SCT005 02/02 Q1023 NOSIG=
201812301900 METAR LRBS 301900Z 25002KT 3000 BR NSC 02/02 Q1023 NOSIG=
201812301930 METAR LRBS 301930Z 24003KT 3000 BR NSC 02/02 Q1022 NOSIG=
201812302000 METAR COR LRBS 302000Z 24003KT 3000 BR SCT008 02/02 Q1022
                        NOSIG=
201812302030 METAR LRBS 302030Z 23003KT 3000 BR FEW008 02/02 Q1022 NOSIG=
201812302100 METAR LRBS 302100Z 25003KT 3000 BR NSC 02/02 Q1022 NOSIG=
201812302130 METAR LRBS 302130Z 25003KT 3000 BR NSC 02/02 Q1022 NOSIG=
201812302200 METAR LRBS 302200Z 25003KT 3000 BR NSC 02/02 Q1022 NOSIG=
201812302230 METAR LRBS 302230Z 23003KT 3000 BR NSC 02/02 Q1022 NOSIG=
201812302300 METAR LRBS 302300Z 22003KT 2000 BR NSC 02/02 Q1022 NOSIG=
201812302330 METAR COR LRBS 302330Z 22004KT 2000 BR BKN004 02/02 Q1022
                        NOSIG=
201812310000 METAR LRBS 310000Z 23004KT 1500 BR OVC003 02/02 Q1022=
201812310030 METAR LRBS 310030Z 23004KT 2000 BR OVC004 02/02 Q1022 NOSIG=
201812310100 METAR LRBS 310100Z 24004KT 2000 BR OVC003 02/02 Q1022 NOSIG=
201812310130 METAR COR LRBS 310130Z 24004KT 1500 BR OVC002 02/02 Q1022
                        NOSIG=
201812310200 METAR COR LRBS 310200Z 25004KT 1500 BR BKN002 02/02 Q1022
                        NOSIG=
201812310230 METAR COR LRBS 310230Z 23004KT 2000 BR OVC003 02/02 Q1021
                        TEMPO 0800 FG OVC001=
201812310300 METAR COR LRBS 310300Z 23004KT 2000 BR OVC003 02/02 Q1021
                        TEMPO 0800 FG OVC001=
201812310330 METAR LRBS 310330Z 24004KT 2000 BR OVC003 02/02 Q1021 NOSIG=
201812310400 METAR LRBS 310400Z 24003KT 2000 BR OVC002 02/02 Q1022 NOSIG=
201812310430 METAR LRBS 310430Z 25004KT 2000 BR OVC002 02/02 Q1022 NOSIG=
201812310500 METAR LRBS 310500Z 25004KT 1500 BR OVC002 02/02 Q1022 NOSIG=
201812310530 METAR LRBS 310530Z 24004KT 0800 R07/1200 R25/P2000 FG OVC002
                        02/02 Q1022 TEMPO 0600 FG=
201812310600 METAR LRBS 310600Z 23005KT 0600 R07/0750 R25/0800 FG VV001
                        02/02 Q1022 BECMG 0800 OVC002=
201812310630 METAR LRBS 310630Z 25003KT 220V280 0600 R07/0700N R25/0900
                        FG VV002 02/02 Q1022 BECMG 0800=
201812310700 METAR LRBS 310700Z 26003KT 210V300 0800 R07/0900 R25/1200D
                        FG BKN002 02/02 Q1023 BECMG 1500
                        BR BKN005=
201812310730 METAR LRBS 310730Z 29003KT 260V320 0800 R07/1500 R25/P2000
                        FG BKN002 02/02 Q1023 BECMG 3000
                        BR BKN005=
201812310800 METAR LRBS 310800Z 27003KT 1100 R07/1100 R25/P2000 BR OVC002
                        02/02 Q1023 BECMG 3000 BR BKN005=
201812310830 METAR LRBS 310830Z VRB02KT 1500 BR BKN004 02/02 Q1023 BECMG
                        3000 BKN005=
201812310900 METAR LRBS 310900Z VRB02KT 2500 BR BKN003 03/03 Q1023 BECMG
                        5000 NSC=
201812310930 METAR LRBS 310930Z 21003KT 160V270 3000 BR BKN004 03/03 Q1023
                        NOSIG=
201812311000 METAR LRBS 311000Z VRB02KT 4500 BR FEW006 04/04 Q1023 NOSIG=
201812311030 METAR LRBS 311030Z 22003KT 170V270 4000 BR NSC 04/04 Q1022
                        NOSIG=
201812311100 METAR LRBS 311100Z VRB02KT 4000 BR FEW008 05/05 Q1022 NOSIG=
201812311130 METAR LRBS 311130Z 23003KT 210V270 5000 BR NSC 05/05 Q1022
                        NOSIG=
201812311200 METAR LRBS 311200Z 23003KT 190V290 6000 NSC 06/05 Q1022 NOSIG=
201812311230 METAR LRBS 311230Z VRB02KT 8000 NSC 06/04 Q1022 NOSIG=
201812311300 METAR LRBS 311300Z VRB01KT 7000 NSC 06/04 Q1022 NOSIG=
201812311330 METAR LRBS 311330Z 00000KT 7000 NSC 06/04 Q1022 NOSIG=
201812311400 METAR LRBS 311400Z 29002KT 7000 NSC 06/04 Q1023 NOSIG=
201812311430 METAR LRBS 311430Z 29002KT 7000 NSC 05/05 Q1023 NOSIG=
201812311500 METAR LRBS 311500Z 30001KT 5000 BR NSC 05/05 Q1023 NOSIG=
201812311530 METAR LRBS 311530Z 00000KT 6000 NSC 05/05 Q1024 NOSIG=
201812311600 METAR COR LRBS 311600Z VRB02KT 5000 BR NSC 05/05 Q1024 NOSIG=
201812311630 METAR LRBS 311630Z 00000KT 6000 NSC 05/05 Q1024 NOSIG=
201812311700 METAR LRBS 311700Z 00000KT 5000 BR NSC 04/04 Q1024 NOSIG=
201812311730 METAR LRBS 311730Z 03002KT 5000 BR NSC 03/03 Q1025 NOSIG=
201812311800 METAR LRBS 311800Z 00000KT 5000 BR NSC 03/03 Q1025 NOSIG=
201812311830 METAR LRBS 311830Z 01002KT 3900 BR FEW012 03/03 Q1025 NOSIG=
201812311900 METAR COR LRBS 311900Z 04003KT 360V060 4200 BR BKN012 03/03
                        Q1025 BECMG 3000 BR BKN005=
201812311930 METAR LRBS 311930Z 05006KT 3800 BR BKN004 OVC012 03/03 Q1026
                        BECMG 3000 BR=
201812312000 METAR LRBS 312000Z 05005KT 3700 BR OVC003 03/03 Q1026 BECMG
                        3000 BR=
201812312030 METAR LRBS 312030Z 06007KT 3200 BR OVC003 03/03 Q1026 BECMG
                        3000 BR=
201812312100 METAR LRBS 312100Z 07006KT 3000 BR OVC002 02/02 Q1026 BECMG
                        1500 BR=
201812312130 METAR LRBS 312130Z 05004KT 010V070 1500 BR OVC002 02/02 Q1027
                        TEMPO 0800 FG=
201812312200 METAR LRBS 312200Z 02004KT 360V060 0750 R07/0650N R25/0700N
                        FG VV002 02/02 Q1027 TEMPO 0600 FG=
201812312230 METAR LRBS 312230Z 03004KT 0600 R07/0650N R25/0750N FG VV002
                        02/02 Q1027 TEMPO 0350 FG VV001=
201812312300 METAR LRBS 312300Z 04004KT 350V070 0600 R07/1000U R25/1300D
                        FG VV001 02/02 Q1027 NOSIG=
201812312330 METAR LRBS 312330Z 05005KT 360V080 0500 R07/0650N R25/0500
                        FG VV002 01/01 Q1027 TEMPO 0350 FG=