201812010000 METAR LRSB 010000Z 27001KT 8000 NSC M12/M14 Q1021 NOSIG=
201812010030 METAR LRSB 010030Z 00000KT 8000 NSC M12/M13 Q1021 NOSIG=
201812010100 METAR LRSB 010100Z 00000KT 8000 NSC M12/M13 Q1021 NOSIG=
201812010130 METAR LRSB 010130Z 00000KT 8000 NSC M12/M14 Q1020 NOSIG=
201812010200 METAR LRSB 010200Z 00000KT 8000 NSC M13/M14 Q1020 NOSIG=
201812010230 METAR LRSB 010230Z 00000KT 8000 NSC M12/M14 Q1020 NOSIG=
201812010300 METAR LRSB 010300Z 00000KT 8000 NSC M12/M13 Q1020 NOSIG=
201812010330 METAR LRSB 010330Z 00000KT 7000 NSC M12/M13 Q1020 NOSIG=
201812010400 METAR COR LRSB 010400Z 00000KT 7000 NSC M13/M14 Q1020 NOSIG=
201812010430 METAR LRSB 010430Z VRB01KT 8000 NSC M13/M14 Q1020 NOSIG=
201812010500 METAR LRSB 010500Z 36001KT 7000 NSC M13/M15 Q1020 NOSIG=
201812010530 METAR LRSB 010530Z 00000KT 7000 NSC M13/M14 Q1020 NOSIG=
201812010600 METAR LRSB 010600Z 11002KT 7000 NSC M13/M15 Q1020 NOSIG=
201812010630 METAR LRSB 010630Z 11002KT 6000 NSC M11/M13 Q1021=
201812010700 METAR LRSB 010700Z 11002KT CAVOK M11/M12 Q1021=
201812010730 METAR LRSB 010730Z 09002KT CAVOK M10/M12 Q1021=
201812010800 METAR LRSB 010800Z 09003KT 060V120 CAVOK M09/M11 Q1021=
201812010830 METAR LRSB 010830Z VRB02KT CAVOK M08/M10 Q1021=
201812010900 METAR LRSB 010900Z VRB01KT CAVOK M07/M10 Q1021=
201812010930 METAR LRSB 010930Z VRB02KT CAVOK M06/M10 Q1020=
201812011000 METAR LRSB 011000Z VRB02KT CAVOK M05/M10 Q1020=
201812011030 METAR LRSB 011030Z VRB02KT CAVOK M04/M10 Q1020=
201812011100 METAR LRSB 011100Z VRB02KT CAVOK M03/M10 Q1020=
201812011130 METAR LRSB 011130Z VRB02KT CAVOK M03/M10 Q1020=
201812011200 METAR LRSB 011200Z VRB02KT CAVOK M02/M10 Q1020=
201812011230 METAR LRSB 011230Z VRB02KT CAVOK M02/M10 Q1020=
201812011300 METAR LRSB 011300Z VRB01KT CAVOK M02/M09 Q1020=
201812011330 METAR LRSB 011330Z 00000KT CAVOK M02/M10 Q1020=
201812011400 METAR LRSB 011400Z 00000KT CAVOK M03/M09 Q1020=
201812011430 METAR LRSB 011430Z 00000KT CAVOK M03/M10 Q1020=
201812011500 METAR LRSB 011500Z VRB01KT CAVOK M05/M10 Q1021=
201812011530 METAR LRSB 011530Z 21002KT CAVOK M05/M09 Q1021=
201812011600 METAR LRSB 011600Z 24003KT CAVOK M06/M09 Q1021=
201812011630 METAR LRSB 011630Z 25005KT CAVOK M07/M09 Q1021=
201812011700 METAR LRSB 011700Z VRB01KT CAVOK M07/M09 Q1021=
201812011730 METAR LRSB 011730Z 00000KT CAVOK M07/M09 Q1022=
201812011800 METAR LRSB 011800Z 00000KT 9999 OVC033 M07/M09 Q1022=
201812011830 METAR COR LRSB 011830Z 15001KT 9999 BKN034 M06/M08 Q1022=
201812011900 METAR LRSB 011900Z 00000KT 9999 BKN035 M05/M08 Q1022=
201812011930 METAR LRSB 011930Z VRB01KT 9999 OVC035 M05/M08 Q1022=
201812012000 METAR LRSB 012000Z 04001KT 9999 BKN035 M05/M07 Q1023=
201812012030 METAR LRSB 012030Z VRB01KT 9999 BKN035 M05/M07 Q1023=
201812012100 METAR LRSB 012100Z 00000KT 9999 BKN030 M05/M08 Q1023=
201812012130 METAR LRSB 012130Z 00000KT 9999 OVC030 M05/M07 Q1023=
201812012200 METAR LRSB 012200Z 00000KT 9999 OVC032 M05/M07 Q1023=
201812012230 METAR LRSB 012230Z 00000KT 9999 OVC030 M04/M07 Q1022=
201812012300 METAR LRSB 012300Z 00000KT 9999 OVC030 M04/M08 Q1022=
201812012330 METAR LRSB 012330Z 02002KT 9999 OVC032 M05/M08 Q1022=
201812020000 METAR LRSB 020000Z AUTO 02001KT 9999 OVC031/// M05/M07 Q1022=
201812020030 METAR LRSB 020030Z AUTO VRB01KT 9999 OVC029/// M05/M07 Q1022=
201812020100 METAR COR LRSB 020100Z 00000KT 9000 OVC028 M05/M07 Q1022=
201812020130 METAR LRSB 020130Z 00000KT 9999 OVC030 M04/M07 Q1022=
201812020200 METAR LRSB 020200Z 00000KT 9999 OVC030 M04/M07 Q1022=
201812020230 METAR LRSB 020230Z 14001KT 9999 OVC030 M04/M07 Q1022=
201812020300 METAR LRSB 020300Z 14001KT 9999 OVC030 M04/M07 Q1022=
201812020330 METAR LRSB 020330Z 12003KT 9999 OVC028 M04/M07 Q1023=
201812020400 METAR LRSB 020400Z 11002KT 9999 OVC027 M04/M07 Q1023=
201812020430 METAR LRSB 020430Z 00000KT 9999 OVC028 M04/M08 Q1023=
201812020500 METAR LRSB 020500Z 15002KT 9999 OVC028 M04/M08 Q1023=
201812020530 METAR LRSB 020530Z 17002KT 9999 BKN025 M05/M08 Q1023=
201812020600 METAR LRSB 020600Z 13003KT 9999 FEW025 M05/M08 Q1023=
201812020630 METAR LRSB 020630Z 12003KT CAVOK M05/M08 Q1023=
201812020700 METAR LRSB 020700Z 14005KT CAVOK M04/M08 Q1023=
201812020730 METAR LRSB 020730Z 13005KT CAVOK M03/M08 Q1023=
201812020800 METAR LRSB 020800Z 11006KT CAVOK M03/M08 Q1023=
201812020830 METAR LRSB 020830Z 12006KT CAVOK M02/M07 Q1023=
201812020900 METAR LRSB 020900Z 13007KT CAVOK M01/M07 Q1022=
201812020930 METAR LRSB 020930Z 12006KT CAVOK 00/M07 Q1022=
201812021000 METAR LRSB 021000Z 12007KT 090V150 CAVOK 01/M06 Q1021=
201812021030 METAR LRSB 021030Z 10007KT CAVOK 02/M06 Q1021=
201812021100 METAR LRSB 021100Z 12007KT CAVOK 02/M05 Q1021=
201812021130 METAR LRSB 021130Z 10005KT 070V140 CAVOK 03/M05 Q1021=
201812021200 METAR LRSB 021200Z 12006KT CAVOK 03/M05 Q1020=
201812021230 METAR LRSB 021230Z 12006KT 080V140 CAVOK 03/M05 Q1020=
201812021300 METAR LRSB 021300Z 11005KT CAVOK 03/M05 Q1020=
201812021330 METAR LRSB 021330Z 12004KT 090V160 CAVOK 03/M05 Q1020=
201812021400 METAR LRSB 021400Z 13006KT CAVOK 02/M05 Q1020=
201812021430 METAR LRSB 021430Z 12004KT CAVOK 01/M05 Q1020=
201812021500 METAR LRSB 021500Z 12004KT CAVOK 00/M05 Q1020=
201812021530 METAR LRSB 021530Z 13003KT CAVOK M01/M06 Q1020=
201812021600 METAR LRSB 021600Z 14001KT CAVOK M01/M06 Q1020=
201812021630 METAR LRSB 021630Z 15003KT CAVOK M02/M06 Q1019=
201812021700 METAR LRSB 021700Z 11003KT CAVOK M02/M07 Q1019=
201812021730 METAR LRSB 021730Z 12002KT CAVOK M03/M06 Q1019=
201812021800 METAR LRSB 021800Z 22001KT CAVOK M05/M07 Q1019=
201812021830 METAR LRSB 021830Z 19002KT CAVOK M04/M05 Q1019=
201812021900 METAR LRSB 021900Z VRB01KT CAVOK M06/M07 Q1019=
201812021930 METAR LRSB 021930Z 15002KT CAVOK M06/M07 Q1019=
201812022000 METAR LRSB 022000Z VRB02KT CAVOK M06/M08 Q1019=
201812022030 METAR LRSB 022030Z 14003KT CAVOK M04/M07 Q1019=
201812022100 METAR LRSB 022100Z 11003KT CAVOK M04/M07 Q1019=
201812022130 METAR LRSB 022130Z 19003KT 120V210 CAVOK M07/M09 Q1019=
201812022200 METAR LRSB 022200Z 23002KT 6000 NSC M07/M08 Q1019=
201812022230 METAR LRSB 022230Z 20002KT 6000 NSC M06/M07 Q1018=
201812022300 METAR LRSB 022300Z 00000KT 6000 NSC M07/M08 Q1018=
201812022330 METAR LRSB 022330Z 15001KT 6000 NSC M07/M08 Q1018=
201812030000 METAR LRSB 030000Z 13002KT 6000 NSC M08/M09 Q1017=
201812030030 METAR LRSB 030030Z 16002KT 6000 NSC M06/M07 Q1017=
201812030100 METAR LRSB 030100Z 13002KT 8000 NSC M06/M07 Q1017=
201812030130 METAR LRSB 030130Z AUTO VRB01KT 8000 SCT072/// M07/M09 Q1016=
201812030200 METAR LRSB 030200Z AUTO VRB01KT 6000 NCD M09/M10 Q1016=
201812030230 METAR LRSB 030230Z 00000KT CAVOK M08/M09 Q1016=
201812030300 METAR LRSB 030300Z 23005KT CAVOK M08/M09 Q1016=
201812030330 METAR LRSB 030330Z 23003KT 8000 NSC M07/M09 Q1016=
201812030400 METAR LRSB 030400Z 16002KT 6000 NSC M07/M08 Q1016=
201812030430 METAR LRSB 030430Z VRB02KT 7000 NSC M08/M09 Q1016=
201812030500 METAR LRSB 030500Z 11002KT 8000 NSC M06/M08 Q1016=
201812030530 METAR LRSB 030530Z 16002KT CAVOK M08/M09 Q1016=
201812030600 METAR LRSB 030600Z VRB01KT CAVOK M08/M09 Q1016=
201812030630 METAR LRSB 030630Z 11002KT 7000 FEW230 M05/M07 Q1015 NOSIG=
201812030700 METAR LRSB 030700Z VRB02KT 8000 NSC M04/M07 Q1016 NOSIG=
201812030730 METAR LRSB 030730Z 15003KT 130V210 7000 NSC M04/M06 Q1015
                        NOSIG=
201812030800 METAR LRSB 030800Z VRB01KT 8000 SCT084 M03/M05 Q1016 NOSIG=
201812030830 METAR LRSB 030830Z VRB02KT 8000 SCT085 M02/M05 Q1016 NOSIG=
201812030900 METAR LRSB 030900Z 22003KT 190V250 9000 SCT088 M02/M04 Q1016
                        NOSIG=
201812030930 METAR LRSB 030930Z VRB02KT 9000 SCT084 M01/M04 Q1016 NOSIG=
201812031000 METAR LRSB 031000Z 17003KT 130V230 9999 BKN083 00/M03 Q1015
                        NOSIG=
201812031030 METAR LRSB 031030Z 13003KT 9999 BKN077 02/M02 Q1015 NOSIG=
201812031100 METAR LRSB 031100Z 11005KT 9999 BKN076 02/M03 Q1015 NOSIG=
201812031130 METAR LRSB 031130Z 09005KT 9999 BKN073 03/M03 Q1014 NOSIG=
201812031200 METAR LRSB 031200Z 11004KT 070V140 9999 BKN074 04/M03 Q1015
                        NOSIG=
201812031230 METAR LRSB 031230Z VRB02KT 9999 BKN072 05/M02 Q1014 NOSIG=
201812031300 METAR LRSB 031300Z 12003KT 080V160 9999 BKN073 05/M02 Q1014
                        NOSIG=
201812031330 METAR LRSB 031330Z 11006KT 9999 BKN074 05/M02 Q1014 NOSIG=
201812031400 METAR COR LRSB 031400Z 11004KT 9999 BKN069 05/M02 Q1014 NOSIG=
201812031430 METAR LRSB 031430Z 11004KT 9999 SCT069 04/M02 Q1014 NOSIG=
201812031500 METAR LRSB 031500Z VRB02KT 9999 FEW075 02/M02 Q1014 NOSIG=
201812031530 METAR LRSB 031530Z 23005KT CAVOK 00/M03 Q1014 NOSIG=
201812031600 METAR LRSB 031600Z 24002KT CAVOK M01/M03 Q1014 NOSIG=
201812031630 METAR LRSB 031630Z 00000KT 8000 NSC M00/M03 Q1014 NOSIG=
201812031700 METAR LRSB 031700Z 09003KT 7000 NSC M02/M04 Q1014 NOSIG=
201812031730 METAR LRSB 031730Z 00000KT CAVOK M02/M04 Q1014 NOSIG=
201812031800 METAR LRSB 031800Z VRB01KT CAVOK M01/M02 Q1014=
201812031830 METAR LRSB 031830Z 09002KT CAVOK M01/M03 Q1014=
201812031900 METAR LRSB 031900Z 08003KT CAVOK M01/M04 Q1014=
201812031930 METAR LRSB 031930Z VRB01KT 8000 NSC M03/M04 Q1014=
201812032000 METAR LRSB 032000Z 22001KT 8000 NSC M03/M04 Q1014=
201812032030 METAR LRSB 032030Z 13002KT 8000 NSC M02/M04 Q1014=
201812032100 METAR LRSB 032100Z 11003KT 9000 NSC M01/M03 Q1014=
201812032130 METAR LRSB 032130Z 11004KT CAVOK M01/M03 Q1014=
201812032200 METAR LRSB 032200Z 13002KT CAVOK M01/M03 Q1013=
201812032230 METAR LRSB 032230Z 11001KT CAVOK M01/M03 Q1013=
201812032300 METAR LRSB 032300Z 11004KT CAVOK M01/M03 Q1013=
201812032330 METAR LRSB 032330Z 09003KT CAVOK M02/M04 Q1013=
201812040000 METAR LRSB 040000Z 09002KT CAVOK M02/M04 Q1013=
201812040030 METAR LRSB 040030Z 20002KT 8000 NSC M03/M04 Q1013=
201812040100 METAR LRSB 040100Z 22002KT 8000 NSC M03/M04 Q1013=
201812040130 METAR LRSB 040130Z VRB02KT 8000 NSC M02/M03 Q1013=
201812040200 METAR LRSB 040200Z 12003KT 9000 NSC M02/M04 Q1013=
201812040230 METAR LRSB 040230Z 12004KT CAVOK M02/M04 Q1013=
201812040300 METAR LRSB 040300Z 15003KT CAVOK M02/M04 Q1012=
201812040330 METAR LRSB 040330Z 00000KT CAVOK M02/M04 Q1012=
201812040400 METAR LRSB 040400Z 13002KT CAVOK M02/M04 Q1012=
201812040430 METAR LRSB 040430Z 12002KT 9000 NSC M02/M04 Q1013=
201812040500 METAR LRSB 040500Z 00000KT 8000 FEW046 SCT080 M02/M03 Q1013=
201812040530 METAR LRSB 040530Z 00000KT 8000 FEW045 SCT078 M01/M03 Q1013=
201812040600 METAR LRSB 040600Z 23002KT 8000 BKN044 M01/M03 Q1013=
201812040630 METAR LRSB 040630Z 14002KT 8000 OVC045 M01/M02 Q1014=
201812040700 METAR LRSB 040700Z VRB01KT 9000 OVC042 M00/M02 Q1014=
201812040730 METAR LRSB 040730Z 10004KT 9000 BKN043 00/M02 Q1014=
201812040800 METAR LRSB 040800Z 10004KT 9999 OVC043 00/M02 Q1014=
201812040830 METAR LRSB 040830Z 12002KT 9000 -RA FEW026 OVC043 01/M02
                        Q1014=
201812040900 METAR LRSB 040900Z VRB02KT 8000 FEW031 BKN052 02/M01 Q1014=
201812040930 METAR LRSB 040930Z VRB02KT 9000 FEW024 BKN053 02/M01 Q1013=
201812041000 METAR LRSB 041000Z VRB02KT 9000 FEW026 BKN049 03/M01 Q1013=
201812041030 METAR LRSB 041030Z VRB02KT 9999 FEW026 SCT060 03/M01 Q1013=
201812041100 METAR LRSB 041100Z VRB02KT 9999 SCT053 SCT080 04/M00 Q1013=
201812041130 METAR LRSB 041130Z 11003KT 070V130 9999 -RA SCT033 BKN080
                        04/M01 Q1013=
201812041200 METAR LRSB 041200Z 10004KT 9999 -RA SCT026 SCT076 06/00 Q1013=
201812041230 METAR LRSB 041230Z 10003KT 9999 FEW031 SCT080 07/01 Q1013=
201812041300 METAR LRSB 041300Z 07002KT 9999 SCT026 07/00 Q1013=
201812041330 METAR LRSB 041330Z VRB01KT 9999 SCT026 07/01 Q1013=
201812041400 METAR LRSB 041400Z VRB01KT 9999 FEW024 06/01 Q1013=
201812041430 METAR LRSB 041430Z 22002KT 9999 BKN025 06/02 Q1013=
201812041500 METAR LRSB 041500Z 12001KT 9999 BKN028 04/01 Q1013=
201812041530 METAR LRSB 041530Z 10003KT 9999 BKN028 03/00 Q1013=
201812041600 METAR LRSB 041600Z 11003KT 9000 SCT029 SCT059 04/M01 Q1013=
201812041630 METAR LRSB 041630Z 08003KT 9000 BKN028 04/M01 Q1013=
201812041700 METAR LRSB 041700Z 09003KT 8000 -RA FEW029 BKN056 04/00 Q1014=
201812041730 METAR LRSB 041730Z 03003KT 8000 -RA FEW030 BKN054 03/00 Q1014
                        R27/19//95=
201812041800 METAR LRSB 041800Z 32002KT 7000 -RA SCT030 OVC054 03/00 Q1014
                        R27/19//95 TEMPO 5000 -RA BR=
201812041830 METAR LRSB 041830Z 00000KT 6000 -RA BKN035 OVC053 03/01 Q1014
                        R27/19//95 BECMG 5000 -RA BR=
201812041900 METAR LRSB 041900Z 00000KT 5000 -RA BR OVC036 03/01 Q1014
                        R27/19//95 NOSIG=
201812041930 METAR LRSB 041930Z 00000KT 5000 -RA BR OVC036 02/01 Q1014
                        R27/19//95 NOSIG=
201812042000 METAR COR LRSB 042000Z 00000KT 4500 -RA BR OVC033 03/02 Q1015
                        R27/19//95 NOSIG=
201812042030 METAR LRSB 042030Z 00000KT 4500 -RA BR OVC033 03/02 Q1015
                        R27/19//95 NOSIG=
201812042100 METAR LRSB 042100Z 00000KT 3000 -RA BR SCT023 OVC030 02/01
                        Q1015 R27/19//95 NOSIG=
201812042130 METAR LRSB 042130Z 00000KT 3000 -RA BR OVC022 03/02 Q1015
                        R27/19//95 NOSIG=
201812042200 METAR LRSB 042200Z 07003KT 2000 -RA BR BKN017 OVC023 03/02
                        Q1015 R27/19//95 TEMPO 1500 -RA BR=
201812042230 METAR COR LRSB 042230Z 00000KT 2000 -RA BR SCT013 BKN017
                        OVC023 03/02 Q1015 R27/19//95 TEMPO
                        1500 -RA BR=
201812042300 METAR LRSB 042300Z 09002KT 2000 -RA BR SCT013 BKN017 OVC023
                        03/02 Q1015 R27/29//95 TEMPO 1500
                        -RA BR=
201812042330 METAR LRSB 042330Z 32003KT 1500 RA BR SCT005 BKN016 OVC023
                        03/02 Q1015 R27/29//95 NOSIG=
201812050000 METAR LRSB 050000Z 24002KT 1500 RA BR FEW006 BKN010 OVC023
                        03/02 Q1016 R27/29//95 NOSIG=
201812050030 METAR LRSB 050030Z 31001KT 1000 R27/1400U -RA BR FEW003 BKN006
                        OVC023 03/02 Q1016 RERA R27/29//95
                        TEMPO 0800 FG=
201812050100 METAR LRSB 050100Z VRB01KT 1200 R27/1700U -RA BR FEW001 BKN005
                        OVC023 03/02 Q1016 R27/29//95 NOSIG=
201812050130 METAR LRSB 050130Z 35004KT 1200 R27/1800U -RA BR FEW002 SCT003
                        OVC023 03/02 Q1016 R27/29//95 NOSIG=
201812050200 METAR LRSB 050200Z 32004KT 1500 -RA BR FEW001 BKN012 OVC023
                        03/02 Q1016 R27/29//95 NOSIG=
201812050230 METAR LRSB 050230Z 23004KT 1500 -RA BR FEW001 SCT003 BKN012
                        03/02 Q1017 R27/29//95 NOSIG=
201812050300 METAR LRSB 050300Z 24005KT 1600 -RA BR FEW003 SCT009 BKN012
                        03/02 Q1017 R27/29//95 NOSIG=
201812050330 METAR LRSB 050330Z 26003KT 240V310 1800 -RA BR FEW006 SCT009
                        OVC012 03/03 Q1017 R27/29//95 NOSIG=
201812050400 METAR LRSB 050400Z 26004KT 2000 -RA BR SCT003 BKN012 OVC023
                        03/03 Q1017 R27/29//95 NOSIG=
201812050430 METAR LRSB 050430Z 24003KT 1800 -RA BR SCT003 BKN010 OVC023
                        03/03 Q1018 R27/29//95 NOSIG=
201812050500 METAR LRSB 050500Z 24003KT 210V300 2000 -RA BR SCT002 SCT006
                        BKN010 04/03 Q1018 R27/29//95 NOSIG=
201812050530 METAR LRSB 050530Z VRB02KT 2000 -RA BR SCT002 SCT006 BKN010
                        04/03 Q1018 R27/29//95 NOSIG=
201812050600 METAR LRSB 050600Z VRB02KT 2500 -RA BR SCT005 BKN010 OVC023
                        04/03 Q1019 R27/29//95 NOSIG=
201812050630 METAR LRSB 050630Z 13002KT 2500 -RA FEW005 SCT009 OVC023
                        04/03 Q1019 R27/29//95=
201812050700 METAR LRSB 050700Z 02003KT 3500 -RA BR FEW008 SCT012 OVC040
                        04/03 Q1020 R27/29//95=
201812050730 METAR LRSB 050730Z VRB02KT 3500 -RA BR FEW009 BKN012 OVC040
                        04/03 Q1020 R27/29//95=
201812050800 METAR LRSB 050800Z 29002KT 7000 -RA FEW011 BKN015 OVC050
                        04/03 Q1021 R27/29//95=
201812050830 METAR LRSB 050830Z 22004KT 7000 -RA SCT013 BKN028 OVC060
                        04/02 Q1021 R27/29//95=
201812050900 METAR LRSB 050900Z 22005KT 9999 -RA FEW011 SCT015 OVC050
                        03/02 Q1021 R27/29//95=
201812050930 METAR LRSB 050930Z 17004KT 8000 -RA SCT011 BKN015 OVC050
                        03/02 Q1021 R27/29//95=
201812051000 METAR LRSB 051000Z 10003KT 8000 -RA BKN011 OVC040 03/02 Q1021
                        R27/29//95=
201812051030 METAR LRSB 051030Z 08004KT 6000 -RA FEW007 BKN012 OVC030
                        03/01 Q1022 R27/29//95=
201812051100 METAR LRSB 051100Z 07005KT 6000 -RA SCT009 BKN012 OVC030
                        02/01 Q1022 R27/29//95=
201812051130 METAR LRSB 051130Z 10003KT 070V130 9999 -RA FEW012 SCT016
                        OVC040 03/01 Q1022 R27/29//95=
201812051200 METAR LRSB 051200Z VRB01KT 9999 -RA BKN022 OVC040 03/01 Q1022
                        R27/29//95=
201812051230 METAR LRSB 051230Z 17002KT 9999 OVC024 03/01 Q1022 R27/29//95=
201812051300 METAR LRSB 051300Z 17002KT 8000 -RA BKN022 OVC040 03/01 Q1022
                        R27/29//95=
201812051330 METAR LRSB 051330Z 18002KT 8000 -RA BKN020 OVC040 02/01 Q1023
                        R27/29//95=
201812051400 METAR LRSB 051400Z 13001KT 6000 -RA SCT010 BKN016 OVC040
                        02/01 Q1023 R27/29//95=
201812051430 METAR LRSB 051430Z 13003KT 7000 -RA FEW012 BKN019 OVC040
                        02/01 Q1023 R27/29//95=
201812051500 METAR LRSB 051500Z 11002KT 6000 BKN019 OVC040 02/01 Q1023
                        RERA R27/29//95=
201812051530 METAR LRSB 051530Z 12002KT 5000 -RA BR BKN020 OVC040 02/01
                        Q1023 R27/29//95=
201812051600 METAR LRSB 051600Z 06003KT 040V120 5000 -RA BR FEW007 SCT017
                        OVC040 02/01 Q1024 R27/29//95=
201812051630 METAR LRSB 051630Z 01004KT 5000 RASN BR FEW010 SCT020 OVC040
                        01/M00 Q1024 R27/29//95=
201812051700 METAR LRSB 051700Z VRB01KT 9999 -RA FEW010 OVC032 01/M00
                        Q1024 R27/29//95=
201812051730 METAR LRSB 051730Z 24004KT 9999 OVC031 01/M01 Q1025 R27/29//95=
201812051800 METAR LRSB 051800Z 24003KT 9999 OVC038 01/M00 Q1025 R27/29//95=
201812051830 METAR LRSB 051830Z 26004KT 9999 OVC041 01/M01 Q1025 R27/29//95=
201812051900 METAR LRSB 051900Z VRB02KT 9999 OVC042 01/M01 Q1025 R27/29//95=
201812051930 METAR LRSB 051930Z VRB02KT 9999 OVC043 01/M01 Q1026 R27/29//95=
201812052000 METAR LRSB 052000Z 22003KT 9999 OVC045 01/M01 Q1026 R27/29//95=
201812052030 METAR LRSB 052030Z 16002KT 9999 OVC047 00/M02 Q1026 R27/29//95=
201812052100 METAR LRSB 052100Z 14002KT 9999 SCT045 SCT057 00/M02 Q1025
                        R27/29//95=
201812052130 METAR LRSB 052130Z 11004KT 9999 OVC046 M00/M02 Q1026 R27/29//95=
201812052200 METAR LRSB 052200Z 11004KT 9999 OVC045 M00/M03 Q1026 R27/29//95=
201812052230 METAR LRSB 052230Z 10004KT 9999 FEW030 OVC046 M01/M03 Q1026
                        R27/29//95=
201812052300 METAR LRSB 052300Z 13003KT 9999 BKN049 M00/M03 Q1026 R27/29//95=
201812052330 METAR COR LRSB 052330Z 11003KT 090V150 9999 SCT049 M01/M03
                        Q1026 R27/29//95=
201812060000 METAR LRSB 060000Z 09003KT 9999 FEW038 BKN049 M01/M03 Q1026
                        R27/29//95=
201812060030 METAR LRSB 060030Z 09003KT 9999 FEW039 M02/M04 Q1026 R27/29//95=
201812060100 METAR LRSB 060100Z 12002KT 9999 BKN044 M01/M03 Q1026 R27/29//95=
201812060130 METAR LRSB 060130Z AUTO 14001KT 9999 BKN038/// M02/M04 Q1026=
201812060200 METAR LRSB 060200Z 22001KT 9999 BKN042 M03/M04 Q1026 R27/29//95=
201812060230 METAR LRSB 060230Z 00000KT 9999 SCT028 OVC037 M03/M04 Q1026
                        R27/29//95=
201812060300 METAR LRSB 060300Z 00000KT 9999 BKN027 OVC035 M03/M04 Q1026
                        R27/29//95=
201812060330 METAR LRSB 060330Z 11001KT 9999 SCT027 BKN038 M03/M04 Q1025
                        R27/29//95=
201812060400 METAR LRSB 060400Z 20001KT 9999 BKN039 M04/M04 Q1025 R27/29//95=
201812060430 METAR LRSB 060430Z 13002KT 9999 SCT039 M03/M04 Q1025 R27/29//95=
201812060500 METAR LRSB 060500Z VRB02KT CAVOK M04/M05 Q1025 R27/29//95=
201812060530 METAR LRSB 060530Z 07004KT CAVOK M03/M05 Q1025 R27/29//95=
201812060600 METAR LRSB 060600Z VRB02KT CAVOK M05/M06 Q1025 R27/35//95=
201812060630 METAR LRSB 060630Z 28002KT CAVOK M05/M06 Q1026 R27/35//95=
201812060700 METAR LRSB 060700Z 26003KT CAVOK M03/M04 Q1026 R27/35//95=
201812060730 METAR LRSB 060730Z VRB02KT CAVOK M02/M04 Q1026 R27/35//95=
201812060800 METAR LRSB 060800Z VRB02KT CAVOK M00/M03 Q1026 R27/35//95=
201812060830 METAR LRSB 060830Z 00000KT CAVOK 01/M03 Q1026 R27/35//95=
201812060900 METAR LRSB 060900Z 12003KT CAVOK 00/M04 Q1026 R27/CLRD//=
201812060930 METAR LRSB 060930Z 11004KT CAVOK 01/M05 Q1025=
201812061000 METAR LRSB 061000Z 09003KT 060V170 CAVOK 01/M04 Q1025=
201812061030 METAR LRSB 061030Z 11004KT 060V140 CAVOK 01/M04 Q1025=
201812061100 METAR LRSB 061100Z 11003KT 050V150 CAVOK 02/M04 Q1024=
201812061130 METAR LRSB 061130Z 14003KT 020V180 CAVOK 02/M05 Q1024=
201812061200 METAR LRSB 061200Z 09003KT 040V150 CAVOK 02/M04 Q1024=
201812061230 METAR LRSB 061230Z VRB02KT CAVOK 03/M05 Q1024=
201812061300 METAR LRSB 061300Z 13003KT 080V170 CAVOK 02/M04 Q1023=
201812061330 METAR LRSB 061330Z 09004KT 060V140 CAVOK 02/M04 Q1023=
201812061400 METAR LRSB 061400Z VRB01KT CAVOK 02/M04 Q1024=
201812061430 METAR LRSB 061430Z 00000KT 9999 FEW080 01/M05 Q1024=
201812061500 METAR LRSB 061500Z 26003KT 220V310 9999 FEW080 M01/M04 Q1024=
201812061530 METAR LRSB 061530Z 26004KT 9999 FEW084 M02/M04 Q1024=
201812061600 METAR LRSB 061600Z 26003KT CAVOK M03/M05 Q1024=
201812061630 METAR LRSB 061630Z 26004KT CAVOK M04/M05 Q1024=
201812061700 METAR LRSB 061700Z AUTO VRB01KT 7000 NCD M03/M04 Q1024=
201812061730 METAR LRSB 061730Z 18001KT CAVOK M04/M05 Q1024=
201812061800 METAR LRSB 061800Z 16001KT CAVOK M04/M05 Q1024=
201812061830 METAR LRSB 061830Z 06002KT CAVOK M04/M05 Q1024=
201812061900 METAR LRSB 061900Z 04001KT CAVOK M04/M06 Q1025=
201812061930 METAR LRSB 061930Z VRB01KT CAVOK M05/M06 Q1025=
201812062000 METAR LRSB 062000Z VRB01KT CAVOK M05/M06 Q1025=
201812062030 METAR LRSB 062030Z 00000KT CAVOK M06/M06 Q1025=
201812062100 METAR LRSB 062100Z 00000KT 7000 NSC M05/M06 Q1024=
201812062130 METAR LRSB 062130Z 15001KT 5000 BR NSC M06/M07 Q1024=
201812062200 METAR LRSB 062200Z 10005KT CAVOK M06/M07 Q1024=
201812062230 METAR LRSB 062230Z 12003KT CAVOK M05/M06 Q1024=
201812062300 METAR LRSB 062300Z 08001KT CAVOK M06/M07 Q1024=
201812062330 METAR LRSB 062330Z 21002KT CAVOK M06/M08 Q1024=
201812070000 METAR LRSB 070000Z VRB01KT CAVOK M07/M08 Q1023=
201812070030 METAR LRSB 070030Z 11002KT CAVOK M07/M08 Q1023=
201812070100 METAR LRSB 070100Z AUTO 08001KT 8000 SCT100/// M06/M06 Q1024=
201812070130 METAR LRSB 070130Z VRB02KT CAVOK M06/M07 Q1023=
201812070200 METAR LRSB 070200Z VRB01KT CAVOK M06/M07 Q1023=
201812070230 METAR LRSB 070230Z 16002KT CAVOK M05/M06 Q1023=
201812070300 METAR LRSB 070300Z AUTO VRB01KT 9999 BKN086/// M05/M06 Q1023=
201812070330 METAR LRSB 070330Z 18002KT 9999 OVC081 M04/M06 Q1023=
201812070400 METAR LRSB 070400Z 00000KT 9999 OVC080 M05/M06 Q1023=
201812070430 METAR LRSB 070430Z 09003KT 9999 FEW076 BKN086 M04/M06 Q1022=
201812070500 METAR LRSB 070500Z 13004KT 9999 BKN070 BKN088 M05/M06 Q1022=
201812070530 METAR LRSB 070530Z VRB02KT 9999 SCT067 BKN080 M05/M06 Q1022=
201812070600 METAR LRSB 070600Z VRB01KT 9999 OVC063 M04/M06 Q1022=
201812070630 METAR LRSB 070630Z 00000KT 9999 OVC062 M04/M05 Q1022 NOSIG=
201812070700 METAR LRSB 070700Z 18002KT 9999 BKN057 M04/M05 Q1022 NOSIG=
201812070730 METAR LRSB 070730Z VRB01KT 9999 SCT053 SCT073 M04/M05 Q1022
                        NOSIG=
201812070800 METAR LRSB 070800Z 11005KT 9999 SCT053 BKN070 M03/M04 Q1021
                        NOSIG=
201812070830 METAR COR LRSB 070830Z 11004KT 9999 SCT053 BKN070 M03/M05
                        Q1022 NOSIG=
201812070900 METAR LRSB 070900Z 12003KT 9999 SCT039 BKN073 M02/M04 Q1021
                        NOSIG=
201812070930 METAR LRSB 070930Z 15003KT 9999 SCT037 BKN073 M02/M04 Q1021
                        NOSIG=
201812071000 METAR LRSB 071000Z 13004KT 9999 SCT037 BKN073 M01/M04 Q1021
                        NOSIG=
201812071030 METAR LRSB 071030Z 11003KT 080V150 9999 BKN038 BKN073 M01/M04
                        Q1021 NOSIG=
201812071100 METAR LRSB 071100Z VRB01KT 9999 BKN040 BKN070 M00/M03 Q1020
                        NOSIG=
201812071130 METAR LRSB 071130Z VRB01KT 9999 SCT040 BKN066 00/M04 Q1020
                        NOSIG=
201812071200 METAR LRSB 071200Z VRB01KT 9999 -SN SCT034 SCT043 OVC066
                        00/M03 Q1020 NOSIG=
201812071230 METAR LRSB 071230Z 12004KT 9999 SCT033 SCT044 OVC062 00/M03
                        Q1020 NOSIG=
201812071300 METAR LRSB 071300Z 13003KT 100V180 9999 SCT033 SCT043 BKN060
                        01/M04 Q1019 NOSIG=
201812071330 METAR LRSB 071330Z 10003KT 090V150 9999 BKN032 SCT040 01/M04
                        Q1019 NOSIG=
201812071400 METAR LRSB 071400Z VRB02KT 9999 BKN032 01/M03 Q1019 NOSIG=
201812071430 METAR COR LRSB 071430Z 09003KT 9999 OVC032 01/M04 Q1019 NOSIG=
201812071500 METAR LRSB 071500Z 16003KT 9999 BKN030 SCT040 00/M03 Q1019
                        NOSIG=
201812071530 METAR LRSB 071530Z 12003KT 9999 BKN030 SCT046 00/M03 Q1019
                        NOSIG=
201812071600 METAR LRSB 071600Z 10004KT 9999 BKN040 SCT060 00/M03 Q1018
                        NOSIG=
201812071630 METAR LRSB 071630Z 09002KT 9999 BKN044 00/M03 Q1018 NOSIG=
201812071700 METAR LRSB 071700Z 17002KT 9999 FEW036 BKN043 00/M03 Q1018
                        NOSIG=
201812071730 METAR LRSB 071730Z VRB02KT 9999 FEW036 BKN043 00/M03 Q1018
                        NOSIG=
201812071800 METAR LRSB 071800Z VRB02KT 9999 SCT040 BKN050 00/M03 Q1018=
201812071830 METAR LRSB 071830Z 17005KT 9999 FEW026 SCT043 BKN053 00/M03
                        Q1017=
201812071900 METAR LRSB 071900Z 11004KT 9999 SCT044 BKN054 00/M03 Q1017=
201812071930 METAR LRSB 071930Z 13005KT 9999 SCT045 BKN054 00/M03 Q1016=
201812072000 METAR LRSB 072000Z 10003KT 060V120 9999 FEW036 BKN042 00/M03
                        Q1016=
201812072030 METAR LRSB 072030Z 14003KT 9999 FEW036 BKN040 00/M03 Q1016=
201812072100 METAR LRSB 072100Z 14003KT 9999 FEW037 BKN042 00/M03 Q1015=
201812072130 METAR LRSB 072130Z 13003KT 070V150 9999 BKN040 SCT052 00/M03
                        Q1015=
201812072200 METAR LRSB 072200Z 13003KT 9999 SCT040 BKN054 M00/M03 Q1015=
201812072230 METAR LRSB 072230Z 15003KT 9999 SCT040 BKN056 M00/M03 Q1014=
201812072300 METAR LRSB 072300Z 15003KT 9999 SCT041 BKN055 M01/M03 Q1014=
201812072330 METAR LRSB 072330Z 16003KT 9999 SCT040 BKN053 M00/M02 Q1013=
201812080000 METAR LRSB 080000Z 15004KT 9999 FEW040 BKN053 M00/M02 Q1013=
201812080030 METAR LRSB 080030Z 14004KT 9999 BKN050 M00/M02 Q1013=
201812080100 METAR LRSB 080100Z 13004KT 9999 BKN048 M00/M02 Q1012=
201812080130 METAR LRSB 080130Z 12004KT 9999 BKN048 M00/M02 Q1012=
201812080200 METAR LRSB 080200Z 16003KT 140V210 9999 SCT047 M01/M02 Q1011=
201812080230 METAR LRSB 080230Z 14002KT CAVOK M01/M02 Q1011=
201812080300 METAR LRSB 080300Z VRB01KT 8000 NSC M01/M03 Q1011=
201812080330 METAR LRSB 080330Z 24003KT 190V260 6000 NSC M01/M03 Q1011=
201812080400 METAR LRSB 080400Z VRB02KT 6000 NSC M02/M03 Q1011=
201812080430 METAR LRSB 080430Z 20003KT 5000 BR NSC M02/M03 Q1011=
201812080500 METAR LRSB 080500Z 15002KT 7000 FEW085 M01/M02 Q1011=
201812080530 METAR LRSB 080530Z 00000KT 7000 SCT085 M01/M03 Q1011=
201812080600 METAR LRSB 080600Z 13003KT 7000 FEW085 M01/M03 Q1011=
201812080630 METAR LRSB 080630Z 13004KT 8000 BKN066 M01/M02 Q1011=
201812080700 METAR LRSB 080700Z 12004KT 9999 BKN065 M00/M02 Q1011=
201812080730 METAR LRSB 080730Z 12003KT 9999 BKN064 M00/M02 Q1011=
201812080800 METAR LRSB 080800Z 20003KT 160V240 9999 OVC064 00/M02 Q1011=
201812080830 METAR LRSB 080830Z 21003KT 6000 FEW023 OVC066 01/M01 Q1011=
201812080900 METAR LRSB 080900Z 15004KT 130V190 8000 FEW023 OVC065 01/M01
                        Q1011=
201812080930 METAR LRSB 080930Z 12005KT 9000 FEW025 OVC061 02/M01 Q1010=
201812081000 METAR LRSB 081000Z 12006KT 9999 SCT062 BKN070 02/M01 Q1010=
201812081030 METAR LRSB 081030Z VRB02KT 9999 SCT065 OVC074 02/M01 Q1010=
201812081100 METAR LRSB 081100Z VRB02KT 9999 FEW043 SCT063 OVC076 02/M01
                        Q1009=
201812081130 METAR LRSB 081130Z VRB02KT 9000 -RA FEW033 SCT050 OVC076
                        02/M00 Q1009=
201812081200 METAR LRSB 081200Z VRB02KT 9999 -RA FEW024 OVC056 03/00 Q1009=
201812081230 METAR LRSB 081230Z 11004KT 8000 -RA FEW023 BKN046 02/00 Q1009=
201812081300 METAR LRSB 081300Z 12003KT 6000 -RA OVC044 02/01 Q1009 R27/29//95=
201812081330 METAR LRSB 081330Z 12002KT 6000 -RA OVC044 02/01 Q1009 R27/29//95=
201812081400 METAR LRSB 081400Z 14002KT 6000 -RA OVC046 02/01 Q1009 R27/29//95=
201812081430 METAR LRSB 081430Z 00000KT 5000 BR OVC046 02/01 Q1009 R27/29//95=
201812081500 METAR LRSB 081500Z 13002KT 5000 BR OVC044 02/01 Q1009 R27/29//95=
201812081530 METAR LRSB 081530Z VRB02KT 5000 BR BKN042 BKN053 02/01 Q1009
                        R27/29//95=
201812081600 METAR LRSB 081600Z VRB02KT 5000 BR OVC049 02/01 Q1009 R27/29//95=
201812081630 METAR LRSB 081630Z 13003KT 110V170 5000 -RA BR OVC052 02/01
                        Q1009 R27/29//95=
201812081700 METAR LRSB 081700Z 16002KT 5000 -RA BR SCT041 BKN060 02/01
                        Q1009 R27/29//95=
201812081730 METAR LRSB 081730Z VRB02KT 5000 -RA BR BKN044 BKN056 02/01
                        Q1009=
201812081800 METAR COR LRSB 081800Z 00000KT 5000 -RA BR BKN038 OVC050
                        02/01 Q1009 R27/29//95 NOSIG=
201812081830 METAR LRSB 081830Z VRB01KT 5000 -RA BR SCT015 BKN030 OVC046
                        02/01 Q1010 R27/29//95 NOSIG=
201812081900 METAR LRSB 081900Z 24002KT 2000 -RA BR BKN009 OVC028 02/01
                        Q1010 R27/29//95 TEMPO 1500 -RA BR=
201812081930 METAR LRSB 081930Z 23003KT 2000 -RA BR SCT008 SCT022 OVC028
                        02/01 Q1010 R27/29//95 TEMPO 1500
                        -RA BR=
201812082000 METAR LRSB 082000Z 00000KT 2000 -RA BR SCT010 SCT020 OVC028
                        02/01 Q1010 R27/29//95 TEMPO 1500
                        -RA BR=
201812082030 METAR LRSB 082030Z VRB02KT 1800 -RA BR SCT008 OVC024 02/01
                        Q1010 R27/29//95 TEMPO 1500 -RA BR=
201812082100 METAR LRSB 082100Z 13003KT 1600 -RA BR SCT008 BKN024 OVC050
                        02/01 Q1010 R27/29//95 TEMPO 1500
                        -RA BR=
201812082130 METAR LRSB 082130Z VRB01KT 1800 -RA BR SCT010 BKN021 OVC043
                        02/02 Q1010 R27/29//95 NOSIG=
201812082200 METAR LRSB 082200Z 12003KT 1600 BR FEW001 SCT010 BKN027 02/01
                        Q1010 R27/29//95 TEMPO 1500 BR=
201812082230 METAR LRSB 082230Z 05002KT 2000 BR FEW005 BKN025 02/02 Q1010
                        R27/29//95 NOSIG=
201812082300 METAR LRSB 082300Z 11003KT 2000 BR FEW006 SCT027 BKN034 02/02
                        Q1010 R27/29//95 TEMPO 1500 BR=
201812082330 METAR LRSB 082330Z VRB02KT 2000 BR FEW004 SCT006 BKN034 02/02
                        Q1010 R27/29//95 NOSIG=
201812090000 METAR LRSB 090000Z VRB01KT 3000 BR BKN006 BKN034 03/02 Q1010
                        R27/29//95 NOSIG=
201812090030 METAR LRSB 090030Z VRB02KT 3500 BR FEW005 SCT007 BKN033 02/02
                        Q1010 R27/29//95 NOSIG=
201812090100 METAR COR LRSB 090100Z 16003KT 3000 BR FEW005 SCT009 BKN033
                        03/02 Q1010 R27/29//95 NOSIG=
201812090130 METAR LRSB 090130Z 15003KT 3000 BR FEW007 SCT009 BKN040 03/02
                        Q1010 R27/29//95 NOSIG=
201812090200 METAR LRSB 090200Z 26003KT 4000 BR SCT011 OVC044 03/02 Q1010
                        R27/29//95 NOSIG=
201812090230 METAR LRSB 090230Z 24003KT 4500 BR SCT011 OVC044 02/02 Q1010
                        R27/29//95 NOSIG=
201812090300 METAR LRSB 090300Z 00000KT 4500 BR SCT011 OVC042 02/02 Q1010
                        R27/29//95 NOSIG=
201812090330 METAR LRSB 090330Z 17003KT 3500 BR SCT013 SCT036 BKN046 02/01
                        Q1010 R27/29//95 TEMPO 3000 BR=
201812090400 METAR LRSB 090400Z 15003KT 110V250 3500 BR SCT011 SCT040
                        BKN050 02/01 Q1010 R27/29//95 TEMPO
                        3000 BR=
201812090430 METAR LRSB 090430Z VRB01KT 3000 BR SCT007 SCT036 BKN050 02/01
                        Q1010 R27/29//95 NOSIG=
201812090500 METAR LRSB 090500Z VRB01KT 3000 BR FEW006 SCT010 BKN043 01/01
                        Q1010 R27/29//95 NOSIG=
201812090530 METAR LRSB 090530Z 22003KT 1000 0600W R27/1300U PRFG FEW004
                        SCT009 01/00 Q1010 R27/29//95 NOSIG=
201812090600 METAR LRSB 090600Z 25004KT 3000 BR SCT005 BKN010 01/00 Q1010
                        R27/29//95 NOSIG=
201812090630 METAR LRSB 090630Z 26001KT 2000 BR SCT008 BKN009 01/00 Q1010
                        R27/29//95=
201812090700 METAR LRSB 090700Z VRB01KT 3000 BR FEW008 SCT009 BKN020 02/01
                        Q1010 R27/29//95=
201812090730 METAR LRSB 090730Z 13002KT 3000 BR SCT009 BKN014 02/01 Q1010
                        R27/29//95=
201812090800 METAR LRSB 090800Z 12004KT 3000 BR FEW005 SCT010 BKN023 03/02
                        Q1010 R27/29//95=
201812090830 METAR LRSB 090830Z 12004KT 090V160 3000 BR SCT004 BKN010
                        03/02 Q1010 R27/29//95=
201812090900 METAR LRSB 090900Z VRB02KT 3000 BR SCT002 BKN003 03/02 Q1010
                        R27/29//95=
201812090930 METAR LRSB 090930Z VRB02KT 5000 BR FEW003 SCT005 OVC020 03/02
                        Q1009 R27/29//95=
201812091000 METAR LRSB 091000Z 12003KT 090V150 5000 BR SCT005 BKN020
                        04/03 Q1009 R27/29//95=
201812091030 METAR LRSB 091030Z VRB02KT 8000 FEW005 SCT023 06/04 Q1008
                        R27/29//95=
201812091100 METAR LRSB 091100Z 30003KT 260V330 8000 FEW006 SCT028 05/03
                        Q1008 R27/29//95=
201812091130 METAR LRSB 091130Z 29004KT 9999 FEW008 SCT026 05/03 Q1007
                        R27/29//95=
201812091200 METAR LRSB 091200Z 26004KT 9999 SCT030 05/02 Q1007 R27/CLRD//=
201812091230 METAR LRSB 091230Z 17003KT 130V220 CAVOK 05/03 Q1006=
201812091300 METAR LRSB 091300Z 12005KT CAVOK 06/03 Q1006=
201812091330 METAR LRSB 091330Z 12004KT 080V160 CAVOK 07/01 Q1006=
201812091400 METAR LRSB 091400Z 15003KT CAVOK 06/M00 Q1006=
201812091430 METAR LRSB 091430Z 25007KT CAVOK 03/02 Q1006=
201812091500 METAR LRSB 091500Z 30003KT CAVOK 03/01 Q1006=
201812091530 METAR LRSB 091530Z 22005KT 6000 NSC 01/00 Q1005=
201812091600 METAR LRSB 091600Z 22003KT 8000 NSC 02/00 Q1005=
201812091630 METAR LRSB 091630Z 16003KT 6000 NSC 01/M00 Q1004=
201812091700 METAR LRSB 091700Z 10002KT 8000 NSC M00/M02 Q1005=
201812091730 METAR LRSB 091730Z VRB01KT CAVOK M00/M01 Q1005=
201812091800 METAR LRSB 091800Z 17002KT 9999 FEW074 M01/M02 Q1005=
201812091830 METAR LRSB 091830Z 19003KT 9000 FEW071 M01/M02 Q1005=
201812091900 METAR LRSB 091900Z VRB03KT 9000 FEW071 M01/M02 Q1005=
201812091930 METAR LRSB 091930Z 28005KT 250V310 8000 NSC M02/M03 Q1005=
201812092000 METAR LRSB 092000Z 31003KT 9000 SCT071 M00/M01 Q1005=
201812092030 METAR LRSB 092030Z VRB02KT 9999 OVC068 M00/M01 Q1005=
201812092100 METAR LRSB 092100Z 11004KT 9999 OVC069 01/M00 Q1005=
201812092130 METAR LRSB 092130Z 09004KT 9999 OVC068 01/M00 Q1005=
201812092200 METAR LRSB 092200Z 06003KT 9999 OVC066 01/M00 Q1005=
201812092230 METAR LRSB 092230Z VRB02KT 9999 OVC066 01/M00 Q1005=
201812092300 METAR LRSB 092300Z VRB03KT 8000 BKN067 01/M00 Q1005=
201812092330 METAR COR LRSB 092330Z VRB02KT 8000 BKN069 00/M01 Q1005=
201812100000 METAR LRSB 100000Z 10002KT 8000 BKN070 00/M00 Q1005=
201812100030 METAR LRSB 100030Z 10003KT 9999 BKN068 01/M00 Q1005=
201812100100 METAR LRSB 100100Z AUTO 11003KT 6000 FEW057/// 01/M00 Q1006=
201812100130 METAR LRSB 100130Z AUTO VRB02KT 8000 FEW056/// BKN079///
                        01/M00 Q1005=
201812100200 METAR LRSB 100200Z 00000KT 9999 FEW070 01/M00 Q1005=
201812100230 METAR LRSB 100230Z 04003KT CAVOK 01/M00 Q1005=
201812100300 METAR LRSB 100300Z 11003KT 060V120 CAVOK 00/M01 Q1005=
201812100330 METAR LRSB 100330Z VRB02KT 9000 NSC M01/M02 Q1005=
201812100400 METAR LRSB 100400Z 23004KT 9000 FEW063 M01/M02 Q1005=
201812100430 METAR LRSB 100430Z VRB02KT 9000 BKN039 00/M01 Q1006=
201812100500 METAR LRSB 100500Z VRB01KT 8000 FEW033 BKN042 M00/M01 Q1005=
201812100530 METAR LRSB 100530Z VRB01KT 9000 SCT040 BKN051 00/M01 Q1005=
201812100600 METAR LRSB 100600Z VRB02KT 9000 FEW041 BKN061 00/M01 Q1005=
201812100630 METAR LRSB 100630Z VRB01KT 9000 FEW030 SCT063 00/M01 Q1006=
201812100700 METAR LRSB 100700Z VRB01KT 9000 SCT030 BKN064 01/M01 Q1006=
201812100730 METAR LRSB 100730Z VRB02KT 9999 FEW032 BKN066 01/M00 Q1006=
201812100800 METAR LRSB 100800Z 00000KT 9999 FEW036 BKN067 02/00 Q1006=
201812100830 METAR LRSB 100830Z VRB01KT 9999 FEW040 BKN068 02/01 Q1006=
201812100900 METAR LRSB 100900Z 00000KT 9999 FEW040 BKN068 04/01 Q1006=
201812100930 METAR LRSB 100930Z 00000KT 9999 FEW048 BKN070 04/01 Q1006=
201812101000 METAR LRSB 101000Z 00000KT 9999 SCT048 SCT068 05/02 Q1006=
201812101030 METAR LRSB 101030Z 00000KT 9999 BKN047 SCT068 05/02 Q1006=
201812101100 METAR LRSB 101100Z 32005KT 9999 SCT047 SCT070 07/03 Q1006=
201812101130 METAR LRSB 101130Z 01004KT 320V040 9999 BKN048 SCT070 07/03
                        Q1006=
201812101200 METAR LRSB 101200Z 30008KT 9999 FEW033 BKN070 07/03 Q1006=
201812101230 METAR LRSB 101230Z 30012KT 9999 FEW032 BKN066 07/03 Q1006=
201812101300 METAR LRSB 101300Z 30014KT 9999 FEW030 BKN068 07/02 Q1006=
201812101330 METAR LRSB 101330Z 29014KT 9999 FEW034 SCT070 07/02 Q1007=
201812101400 METAR LRSB 101400Z 28015KT 9999 BKN070 07/02 Q1007=
201812101430 METAR LRSB 101430Z 29013KT 9999 BKN070 06/01 Q1007=
201812101500 METAR LRSB 101500Z 28012KT 9999 SCT060 SCT068 06/01 Q1007=
201812101530 METAR LRSB 101530Z 29009KT 9999 SCT060 SCT067 06/01 Q1007=
201812101600 METAR LRSB 101600Z 29011KT 9999 BKN060 04/M01 Q1007=
201812101630 METAR LRSB 101630Z 29013KT 9999 BKN060 05/M00 Q1007=
201812101700 METAR LRSB 101700Z 29010KT 9999 OVC061 05/M00 Q1008=
201812101730 METAR LRSB 101730Z 28008KT 9999 OVC051 05/M00 Q1008=
201812101800 METAR LRSB 101800Z 28010KT 9999 OVC052 05/M00 Q1008=
201812101830 METAR LRSB 101830Z 29011KT 9999 BKN041 04/00 Q1008=
201812101900 METAR LRSB 101900Z 30013KT 260V320 9999 BKN031 BKN040 04/00
                        Q1009=
201812101930 METAR LRSB 101930Z 34009KT 9999 -RA FEW018 SCT023 BKN029
                        04/01 Q1009=
201812102000 METAR LRSB 102000Z 32007KT 9999 -RA SCT025 OVC032 03/01 Q1009=
201812102030 METAR LRSB 102030Z 31005KT 9999 -RA BKN025 OVC070 03/01 Q1009
                        R27/29//95=
201812102100 METAR LRSB 102100Z 36005KT 6000 -RA FEW010 SCT024 OVC070
                        03/01 Q1009 R27/29//95=
201812102130 METAR LRSB 102130Z 35009KT 9999 -RA FEW007 BKN022 OVC070
                        02/01 Q1010 R27/29//95=
201812102200 METAR LRSB 102200Z 33004KT 3000 RASN BR FEW005 SCT010 OVC030
                        01/M00 Q1010 R27/29//95=
201812102230 METAR LRSB 102230Z 25006KT 5000 RASN BR FEW010 SCT018 OVC030
                        00/M00 Q1009 R27/29//95=
201812102300 METAR LRSB 102300Z 23005KT 8000 -RASN FEW012 SCT019 BKN024
                        01/M00 Q1010 R27/29//95=
201812102330 METAR LRSB 102330Z VRB02KT 9999 SCT015 BKN019 01/00 Q1010
                        RESNRA R27/29//95=
201812110000 METAR LRSB 110000Z 28003KT 250V320 9999 SCT006 SCT016 01/00
                        Q1010 R27/29//95=
201812110030 METAR LRSB 110030Z AUTO 23004KT 9999 FEW029/// OVC037///
                        01/00 Q1010=
201812110100 METAR COR LRSB 110100Z VRB02KT 9999 FEW030 OVC040 01/M00
                        Q1010 R27/29//95=
201812110130 METAR LRSB 110130Z 27002KT 9999 FEW020 SCT026 BKN045 01/M00
                        Q1010 R27/29//95=
201812110200 METAR LRSB 110200Z 00000KT 9999 FEW013 SCT017 01/00 Q1010
                        R27/29//95=
201812110230 METAR LRSB 110230Z AUTO 24003KT 9999 FEW020/// BKN049///
                        01/M00 Q1010=
201812110300 METAR LRSB 110300Z VRB02KT 9999 SCT017 BKN059 01/M00 Q1010
                        R27/29//95=
201812110330 METAR LRSB 110330Z VRB01KT 9999 SCT017 BKN030 01/M00 Q1010
                        R27/29//95=
201812110400 METAR LRSB 110400Z VRB01KT 9999 FEW019 SCT024 BKN031 01/M00
                        Q1010 R27/29//95=
201812110430 METAR LRSB 110430Z VRB01KT 9999 FEW019 SCT024 01/M00 Q1010
                        RERA R27/29//95=
201812110500 METAR LRSB 110500Z 26002KT 9999 FEW023 BKN029 01/M00 Q1010
                        R27/29//95=
201812110530 METAR LRSB 110530Z VRB01KT 9999 OVC037 01/00 Q1011 R27/29//95=
201812110600 METAR LRSB 110600Z 23003KT 9999 -SN FEW024 BKN036 00/M00
                        Q1011 R27/29//95=
201812110630 METAR LRSB 110630Z 25004KT 6000 -SN BKN038 OVC086 01/M00
                        Q1011 R27/29//95=
201812110700 METAR LRSB 110700Z 30004KT 280V340 6000 -SN SCT016 BKN035
                        OVC070 01/M00 Q1011 R27/29//95 TEMPO
                        3000 SN BR=
201812110730 METAR LRSB 110730Z 27011KT 3000 -SN BR SCT010 BKN023 OVC060
                        01/M01 Q1012 R27/29//95 TEMPO 1500
                        SN BR=
201812110800 METAR LRSB 110800Z 30015KT 5000 -SN BR SCT009 SCT019 OVC036
                        01/M01 Q1012 R27/29//95 NOSIG=
201812110830 METAR LRSB 110830Z 31012KT 6000 -SN SCT012 BKN025 OVC035
                        01/M01 Q1012 R27/29//95 TEMPO 5000
                        -SN BR=
201812110900 METAR LRSB 110900Z 33005KT 290V360 5000 -SN BR SCT012 BKN028
                        OVC035 01/M01 Q1012 R27/29//95 NOSIG=
201812110930 METAR LRSB 110930Z 31008KT 3000 -SN BR SCT012 BKN025 OVC035
                        01/M01 Q1012 R27/29//95 NOSIG=
201812111000 METAR LRSB 111000Z 31006KT 2000 SN BR SCT009 OVC027 01/M00
                        Q1012 R27/29//95 NOSIG=
201812111030 METAR LRSB 111030Z 31008KT 4000 -SN BR SCT010 OVC028 01/M00
                        Q1012 RESN R27/29//95 NOSIG=
201812111100 METAR LRSB 111100Z 29008KT 5000 -SN BR SCT010 OVC024 01/M00
                        Q1012 R27/29//95 NOSIG=
201812111130 METAR LRSB 111130Z 30007KT 7000 -SN FEW015 BKN025 OVC032
                        01/M01 Q1012 R27/29//95 NOSIG=
201812111200 METAR LRSB 111200Z 32004KT 8000 -SN FEW015 BKN028 BKN038
                        02/M01 Q1012 R27/29//95 NOSIG=
201812111230 METAR COR LRSB 111230Z 33005KT 9999 FEW015 BKN026 BKN040
                        01/M01 Q1012 R27/29//95 NOSIG=
201812111300 METAR LRSB 111300Z 29006KT 9999 FEW011 SCT028 BKN040 01/M01
                        Q1013 R27/29//95 NOSIG=
201812111330 METAR LRSB 111330Z 30004KT 9999 FEW012 BKN036 01/M01 Q1013
                        R27/29//95 NOSIG=
201812111400 METAR LRSB 111400Z 28005KT 9999 FEW013 SCT036 BKN083 01/M02
                        Q1013 R27/29//95 NOSIG=
201812111430 METAR LRSB 111430Z VRB02KT 9999 FEW013 BKN039 BKN085 01/M02
                        Q1013 R27/29//95 NOSIG=
201812111500 METAR LRSB 111500Z 30003KT 270V330 9999 FEW013 BKN040 BKN085
                        01/M02 Q1014 R27/25//95 NOSIG=
201812111530 METAR LRSB 111530Z 30004KT 9999 FEW015 BKN045 00/M02 Q1014
                        R27/25//95 NOSIG=
201812111600 METAR LRSB 111600Z VRB02KT 9999 FEW020 SCT045 M00/M02 Q1014
                        R27/25//95 NOSIG=
201812111630 METAR LRSB 111630Z 27003KT 230V300 9999 FEW020 SCT045 M01/M02
                        Q1014 R27/25//95 NOSIG=
201812111700 METAR LRSB 111700Z 25003KT 9999 SCT045 M01/M03 Q1014 R27/25//95
                        NOSIG=
201812111730 METAR LRSB 111730Z 24004KT 9999 FEW045 M02/M04 Q1014 R27/19//95
                        NOSIG=
201812111800 METAR LRSB 111800Z 25003KT 9999 FEW046 M02/M04 Q1014 R27/19//95=
201812111830 METAR LRSB 111830Z 30005KT 9999 SCT043 M02/M04 Q1015 R27/19//95=
201812111900 METAR LRSB 111900Z 31006KT 9999 BKN040 M02/M04 Q1015 R27/19//95=
201812111930 METAR LRSB 111930Z 23005KT 7000 BKN040 M03/M04 Q1015 R27/19//95=
201812112000 METAR LRSB 112000Z 24004KT 8000 BKN040 M03/M04 Q1015 R27/19//95=
201812112030 METAR LRSB 112030Z VRB02KT 8000 SCT042 M03/M04 Q1015 R27/19//95=
201812112100 METAR LRSB 112100Z 23003KT 7000 SCT042 M04/M05 Q1015 R27/19//95=
201812112130 METAR LRSB 112130Z 25004KT 6000 FEW042 M05/M06 Q1015 R27/19//95=
201812112200 METAR LRSB 112200Z VRB02KT 9000 FEW042 M04/M05 Q1015 R27/19//95=
201812112230 METAR LRSB 112230Z 00000KT 7000 NSC M05/M06 Q1015 R27/CLRD//=
201812112300 METAR LRSB 112300Z 19002KT 7000 NSC M05/M07 Q1015=
201812112330 METAR LRSB 112330Z 00000KT 8000 NSC M06/M07 Q1015=
201812120000 METAR LRSB 120000Z 15002KT 8000 NSC M05/M07 Q1015=
201812120030 METAR LRSB 120030Z VRB01KT 9000 NSC M06/M07 Q1015=
201812120100 METAR LRSB 120100Z VRB01KT 9999 FEW060 M05/M06 Q1015=
201812120130 METAR LRSB 120130Z 30003KT 9999 SCT056 M05/M06 Q1015=
201812120200 METAR LRSB 120200Z VRB01KT 9999 BKN052 M04/M06 Q1015=
201812120230 METAR LRSB 120230Z 00000KT 9999 -SN SCT036 BKN052 M04/M06
                        Q1015=
201812120300 METAR LRSB 120300Z 13002KT 9999 SCT036 BKN055 M04/M05 Q1014=
201812120330 METAR LRSB 120330Z 07002KT 9999 FEW036 SCT058 M05/M06 Q1014=
201812120400 METAR LRSB 120400Z 01002KT 9999 SCT056 M05/M06 Q1014=
201812120430 METAR LRSB 120430Z 36001KT 9999 SCT056 M05/M06 Q1015=
201812120500 METAR LRSB 120500Z 00000KT 9999 FEW054 SCT063 M05/M06 Q1015=
201812120530 METAR LRSB 120530Z 00000KT 9999 BKN060 M05/M06 Q1015=
201812120600 METAR LRSB 120600Z 00000KT 9999 OVC060 M04/M05 Q1015=
201812120630 METAR LRSB 120630Z 00000KT 9999 OVC055 M04/M05 Q1015=
201812120700 METAR LRSB 120700Z 22001KT 9000 -SN SCT038 OVC048 M03/M05
                        Q1015=
201812120730 METAR LRSB 120730Z 10003KT 9999 -SN FEW042 OVC056 M02/M04
                        Q1015=
201812120800 METAR LRSB 120800Z 09002KT 9999 BKN058 M02/M04 Q1015 R27/490194=
201812120830 METAR LRSB 120830Z 08003KT 9999 SCT042 M01/M03 Q1015 R27/490194=
201812120900 METAR LRSB 120900Z 12004KT 9999 FEW042CB SCT072 M01/M03 Q1015
                        R27/CLRD//=
201812120930 METAR LRSB 120930Z VRB02KT 4000 -SHSN SCT040CB BKN073 M00/M03
                        Q1015=
201812121000 METAR LRSB 121000Z 16002KT 6000 -SHSN FEW028 SCT039CB OVC073
                        M00/M03 Q1015=
201812121030 METAR LRSB 121030Z VRB01KT 1500 SHSN BR FEW016 SCT036CB BKN070
                        M01/M02 Q1015=
201812121100 METAR LRSB 121100Z VRB01KT 5000 -SN BR BKN024 OVC070 M01/M02
                        Q1015=
201812121130 METAR LRSB 121130Z VRB01KT 1500 SN BR FEW007 BKN021 OVC068
                        M01/M02 Q1015=
201812121200 METAR LRSB 121200Z 00000KT 0900 R27/1000 SN FG FEW002 OVC023
                        M00/M01 Q1015 R27/590394=
201812121230 METAR LRSB 121230Z 00000KT 1700 -SN BR FEW002 OVC021 M00/M01
                        Q1015 RESN R27/590394=
201812121300 METAR LRSB 121300Z 11002KT 2000 -RASN BR SCT014 OVC022 M01/M02
                        Q1015 R27/590394=
201812121330 METAR LRSB 121330Z 12002KT 5000 BR SCT019 BKN070 M01/M02
                        Q1015 R27/690194=
201812121400 METAR LRSB 121400Z 16003KT 7000 BKN040 M01/M02 Q1015 R27/690194=
201812121430 METAR LRSB 121430Z 12002KT 5000 BR FEW014 SCT051 M01/M02
                        Q1016 R27/690194=
201812121500 METAR LRSB 121500Z 12003KT 5000 BR SCT024 SCT031 M01/M02
                        Q1016 R27/690193=
201812121530 METAR LRSB 121530Z 07003KT 5000 BR OVC024 M01/M02 Q1016 R27/690192=
201812121600 METAR LRSB 121600Z 11002KT 6000 SCT023 SCT035 BKN046 M01/M02
                        Q1016 R27/690193=
201812121630 METAR LRSB 121630Z VRB02KT 6000 FEW022 SCT037 BKN050 M02/M03
                        Q1016 R27/690193=
201812121700 METAR LRSB 121700Z 25002KT 6000 BKN024 BKN032 M02/M03 Q1016
                        R27/690193=
201812121730 METAR LRSB 121730Z VRB01KT 6000 BKN026 BKN033 M02/M03 Q1016
                        R27/690193=
201812121800 METAR LRSB 121800Z VRB02KT 7000 BKN025 BKN060 M01/M02 Q1017
                        R27/690193 NOSIG=
201812121830 METAR LRSB 121830Z VRB01KT 6000 -SN BKN027 OVC060 M01/M02
                        Q1017 R27/690193 NOSIG=
201812121900 METAR COR LRSB 121900Z 00000KT 6000 -SN SCT011 BKN028 OVC060
                        M01/M02 Q1017 R27/690193 NOSIG=
201812121930 METAR COR LRSB 121930Z VRB01KT 3500 -SN FEW003 BKN009 OVC028
                        M01/M02 Q1017 RESN R27/690193 NOSIG=
201812122000 METAR LRSB 122000Z VRB01KT 5000 -SN SCT007 BKN017 OVC028
                        M01/M02 Q1017 R27/690193 NOSIG=
201812122030 METAR LRSB 122030Z 00000KT 7000 -SN SCT006 BKN016 OVC028
                        M01/M02 Q1017 R27/650294 NOSIG=
201812122100 METAR LRSB 122100Z VRB02KT 7000 -SN FEW005 BKN016 OVC025
                        M01/M02 Q1017 R27/650294 NOSIG=
201812122130 METAR LRSB 122130Z VRB02KT 9999 BKN018 OVC028 M01/M02 Q1017
                        R27/650294 NOSIG=
201812122200 METAR LRSB 122200Z 24004KT 9999 BKN018 OVC028 M01/M02 Q1017
                        R27/650294 NOSIG=
201812122230 METAR COR LRSB 122230Z 00000KT 9000 FEW006 BKN021 BKN047
                        M01/M02 Q1018 R27/650294 NOSIG=
201812122300 METAR COR LRSB 122300Z 00000KT 9000 FEW006 BKN024 BKN043
                        M01/M02 Q1018 R27/29//95 NOSIG=
201812122330 METAR LRSB 122330Z 36004KT 7000 FEW004 BKN021 BKN046 M01/M02
                        Q1018 R27/29//95 NOSIG=
201812130000 METAR LRSB 130000Z 34002KT 5000 BR FEW003 SCT010 OVC024 M01/M02
                        Q1018 R27/29//95 NOSIG=
201812130030 METAR LRSB 130030Z VRB01KT 5000 BR FEW002 BKN009 OVC023 M01/M02
                        Q1018 R27/29//95 NOSIG=
201812130100 METAR LRSB 130100Z 00000KT 4000 BR FEW002 BKN009 BKN023 M01/M02
                        Q1018 R27/29//95 NOSIG=
201812130130 METAR LRSB 130130Z VRB01KT 5000 BR FEW007 BKN012 BKN024 M01/M02
                        Q1018 R27/29//95 NOSIG=
201812130200 METAR LRSB 130200Z 26001KT 5000 BR SCT014 SCT024 BKN036 M01/M02
                        Q1018 R27/29//95 NOSIG=
201812130230 METAR LRSB 130230Z VRB01KT 5000 BR SCT009 SCT020 BKN035 M01/M02
                        Q1018 R27/29//95 NOSIG=
201812130300 METAR LRSB 130300Z VRB01KT 5000 BR SCT010 SCT023 BKN037 M01/M02
                        Q1018 R27/29//95 NOSIG=
201812130330 METAR LRSB 130330Z 27003KT 250V310 7000 FEW012 BKN026 BKN042
                        M01/M02 Q1018 R27/29//95 NOSIG=
201812130400 METAR LRSB 130400Z 36004KT 300V060 9999 BKN023 BKN045 M00/M02
                        Q1018 R27/29//95 NOSIG=
201812130430 METAR LRSB 130430Z 03003KT 340V040 9999 BKN022 SCT028 M01/M02
                        Q1018 R27/29//95 NOSIG=
201812130500 METAR LRSB 130500Z 02003KT 9999 BKN023 SCT030 M01/M02 Q1018
                        R27/29//95 NOSIG=
201812130530 METAR LRSB 130530Z VRB02KT 9999 SCT021 BKN027 M01/M02 Q1018
                        R27/29//95 NOSIG=
201812130600 METAR LRSB 130600Z VRB01KT 9999 SCT023 OVC030 M01/M02 Q1018
                        R27/29//95 NOSIG=
201812130630 METAR LRSB 130630Z 13002KT 9000 BKN026 M01/M02 Q1018 R27/29//95=
201812130700 METAR LRSB 130700Z VRB01KT 9999 BKN030 M01/M02 Q1018 R27/29//95=
201812130730 METAR LRSB 130730Z 17002KT 9999 FEW036 BKN063 M01/M02 Q1018
                        R27/29//95=
201812130800 METAR LRSB 130800Z 12002KT 9000 BKN034 OVC065 M00/M02 Q1018
                        R27/29//95=
201812130830 METAR LRSB 130830Z VRB02KT 9000 FEW025 OVC032 00/M02 Q1018
                        R27/29//95=
201812130900 METAR LRSB 130900Z VRB01KT 9999 -SN SCT025 OVC032 00/M02
                        Q1018 R27/29//95=
201812130930 METAR LRSB 130930Z VRB01KT 9999 FEW019 OVC026 01/M02 Q1018
                        R27/19//95=
201812131000 METAR LRSB 131000Z 04003KT 9999 FEW023 BKN057 00/M02 Q1018
                        R27/19//95=
201812131030 METAR LRSB 131030Z 05003KT 010V080 9999 FEW026 SCT070 00/M02
                        Q1018 R27/19//95=
201812131100 METAR COR LRSB 131100Z 07002KT 9999 SCT034 00/M02 Q1018 R27/19//95=
201812131130 METAR LRSB 131130Z VRB01KT 9999 FEW036 01/M02 Q1018 R27/19//95=
201812131200 METAR LRSB 131200Z 18003KT 9999 FEW036 01/M02 Q1018 R27/19//95=
201812131230 METAR LRSB 131230Z 23004KT 9999 FEW030 01/M03 Q1018 R27/CLRD//=
201812131300 METAR LRSB 131300Z 23004KT 9999 FEW030 M00/M03 Q1018=
201812131330 METAR LRSB 131330Z VRB01KT 9999 SCT033 02/M02 Q1018=
201812131400 METAR LRSB 131400Z 28001KT 9999 FEW033 00/M02 Q1018=
201812131430 METAR LRSB 131430Z 00000KT 9999 FEW033 M02/M04 Q1018=
201812131500 METAR LRSB 131500Z 24005KT 9999 FEW017 SCT033 M04/M06 Q1018=
201812131530 METAR LRSB 131530Z VRB02KT 9999 FEW023 SCT033 M03/M05 Q1018=
201812131600 METAR LRSB 131600Z 00000KT 9999 BKN056 M03/M05 Q1018=
201812131630 METAR LRSB 131630Z 25004KT 9999 OVC055 M03/M05 Q1018=
201812131700 METAR LRSB 131700Z VRB02KT 9999 OVC053 M03/M04 Q1018=
201812131730 METAR LRSB 131730Z VRB01KT 9999 OVC053 M04/M05 Q1018=
201812131800 METAR LRSB 131800Z 24004KT 9999 OVC051 M03/M05 Q1018=
201812131830 METAR LRSB 131830Z 23003KT 9999 OVC050 M03/M05 Q1018=
201812131900 METAR LRSB 131900Z 00000KT 9999 OVC049 M03/M05 Q1019=
201812131930 METAR LRSB 131930Z 27003KT 9999 OVC049 M03/M05 Q1019=
201812132000 METAR LRSB 132000Z 29005KT 9999 BKN048 M04/M07 Q1019=
201812132030 METAR LRSB 132030Z 26007KT CAVOK M04/M08 Q1019=
201812132100 METAR LRSB 132100Z 24006KT CAVOK M06/M08 Q1019=
201812132130 METAR LRSB 132130Z 26006KT CAVOK M06/M09 Q1019=
201812132200 METAR LRSB 132200Z 26002KT CAVOK M05/M08 Q1019=
201812132230 METAR LRSB 132230Z 24003KT 180V280 9999 BKN024 M06/M09 Q1019=
201812132300 METAR LRSB 132300Z 24001KT 9999 OVC023 M06/M08 Q1019=
201812132330 METAR LRSB 132330Z 26001KT 9999 BKN022 M06/M08 Q1019=
201812140000 METAR LRSB 140000Z 24003KT 200V270 9999 BKN023 M07/M08 Q1020=
201812140030 METAR COR LRSB 140030Z VRB01KT 9999 BKN022 M06/M08 Q1020=
201812140100 METAR LRSB 140100Z AUTO 00000KT 9999 OVC022/// M06/M07 Q1020=
201812140130 METAR LRSB 140130Z 00000KT 9999 OVC023 M05/M07 Q1020=
201812140200 METAR LRSB 140200Z VRB01KT 9999 OVC024 M05/M07 Q1020=
201812140230 METAR LRSB 140230Z AUTO VRB01KT 9999 OVC024/// M05/M06 Q1020=
201812140300 METAR LRSB 140300Z AUTO 00000KT 9999 OVC022/// M04/M06 Q1019=
201812140330 METAR LRSB 140330Z 00000KT 9999 OVC023 M04/M06 Q1019=
201812140400 METAR LRSB 140400Z 00000KT 9999 OVC023 M04/M06 Q1020=
201812140430 METAR LRSB 140430Z VRB01KT 9999 OVC023 M04/M06 Q1020=
201812140500 METAR LRSB 140500Z VRB01KT 9999 OVC024 M04/M06 Q1020=
201812140530 METAR LRSB 140530Z VRB01KT 9999 OVC023 M04/M06 Q1019=
201812140600 METAR LRSB 140600Z VRB01KT 9999 OVC023 M03/M05 Q1019=
201812140630 METAR LRSB 140630Z VRB02KT 9999 OVC022 M03/M05 Q1019=
201812140700 METAR LRSB 140700Z VRB01KT 9999 OVC022 M03/M05 Q1020=
201812140730 METAR LRSB 140730Z VRB02KT 9999 BKN022 M03/M05 Q1020=
201812140800 METAR LRSB 140800Z 13002KT 9999 BKN022 M02/M05 Q1020=
201812140830 METAR LRSB 140830Z 11003KT 9999 SCT021 M02/M05 Q1020=
201812140900 METAR LRSB 140900Z 10004KT 9999 SCT023 M02/M05 Q1020=
201812140930 METAR LRSB 140930Z VRB02KT 9999 FEW025 M01/M05 Q1020=
201812141000 METAR LRSB 141000Z 14004KT 9999 FEW027 M00/M05 Q1020=
201812141030 METAR LRSB 141030Z 14005KT 9999 FEW026 M00/M05 Q1020=
201812141100 METAR LRSB 141100Z 12008KT 9999 SCT024 M00/M05 Q1020=
201812141130 METAR LRSB 141130Z 12006KT 9999 BKN022 M00/M04 Q1020=
201812141200 METAR LRSB 141200Z 10004KT 9999 BKN020 00/M04 Q1020=
201812141230 METAR LRSB 141230Z 12006KT 9999 BKN020 M00/M04 Q1020=
201812141300 METAR LRSB 141300Z 11006KT 9999 BKN021 M00/M04 Q1020=
201812141330 METAR LRSB 141330Z 11005KT 9999 BKN022 M00/M05 Q1020=
201812141400 METAR LRSB 141400Z 12004KT 9999 BKN022 SCT082 M00/M04 Q1020=
201812141430 METAR LRSB 141430Z 12003KT 9999 SCT022 SCT080 M01/M05 Q1020=
201812141500 METAR LRSB 141500Z 13002KT 9999 SCT022 BKN080 M01/M04 Q1020=
201812141530 METAR LRSB 141530Z 13003KT 9999 FEW022 BKN080 M01/M04 Q1020=
201812141600 METAR LRSB 141600Z 12002KT 9999 OVC076 M01/M04 Q1019=
201812141630 METAR LRSB 141630Z 11002KT 9999 OVC074 M01/M04 Q1019=
201812141700 METAR LRSB 141700Z 11002KT 9999 SCT052 OVC072 M01/M04 Q1019=
201812141730 METAR LRSB 141730Z 11004KT 090V150 9999 SCT050 M01/M04 Q1019=
201812141800 METAR LRSB 141800Z 10005KT 9999 SCT050 M01/M04 Q1019=
201812141830 METAR LRSB 141830Z 11009KT 9999 SCT047 M00/M04 Q1019=
201812141900 METAR LRSB 141900Z 12008KT 9999 SCT053 M00/M03 Q1019=
201812141930 METAR LRSB 141930Z 11009KT 9000 -SN SCT033 OVC083 M00/M03
                        Q1019=
201812142000 METAR LRSB 142000Z 11010KT 9000 -SN SCT030 OVC083 M01/M03
                        Q1019=
201812142030 METAR LRSB 142030Z 09011KT 4000 SN BR FEW013 SCT022 OVC060
                        M01/M02 Q1019=
201812142100 METAR LRSB 142100Z 09009KT 2500 -SN BR FEW010 BKN020 OVC050
                        M01/M02 Q1019 R27/590294=
201812142130 METAR LRSB 142130Z 09010KT 2500 -SN BR FEW016 BKN020 OVC050
                        M01/M02 Q1018 R27/590492=
201812142200 METAR LRSB 142200Z 09009KT 2500 -SN BR FEW020 SCT023 OVC050
                        M01/M02 Q1018 R27/590492=
201812142230 METAR LRSB 142230Z 09009KT 3600 -SN BR FEW013 BKN020 OVC050
                        M01/M02 Q1018 R27/590492=
201812142300 METAR LRSB 142300Z 09008KT 4000 -SN BR SCT012 BKN023 OVC050
                        M01/M02 Q1018 R27/590991=
201812142330 METAR LRSB 142330Z 10007KT 5000 -SN BR FEW007 SCT014 OVC050
                        M01/M02 Q1018 R27/590991=
201812150000 METAR COR LRSB 150000Z 12005KT 5000 -SN BR FEW007 SCT020
                        OVC050 M01/M02 Q1018 R27/590193=
201812150030 METAR LRSB 150030Z 12007KT 4000 -SN BR FEW018 SCT020 OVC040
                        M01/M02 Q1018 R27/590193=
201812150100 METAR LRSB 150100Z 11008KT 5000 -SN BR SCT030 OVC070 M01/M02
                        Q1018 R27/590193=
201812150130 METAR LRSB 150130Z 11006KT 5000 -SN BR SCT030 OVC070 M01/M02
                        Q1017 R27/590193=
201812150200 METAR LRSB 150200Z 11008KT 6000 -SN SCT030 OVC070 M01/M02
                        Q1017 R27/690293=
201812150230 METAR LRSB 150230Z 11010KT 8000 -SN SCT032 OVC070 M01/M02
                        Q1017 R27/690293=
201812150300 METAR LRSB 150300Z 11010KT 9999 -SN SCT035 OVC080 M01/M02
                        Q1017 R27/690293=
201812150330 METAR LRSB 150330Z 11011KT 9999 -SN SCT035 OVC070 M01/M02
                        Q1016 R27/690293=
201812150400 METAR LRSB 150400Z 12008KT 9999 -SN SCT033 OVC080 M01/M02
                        Q1016 R27/29//95=
201812150430 METAR LRSB 150430Z 11009KT 9999 -SN SCT038 OVC083 M00/M02
                        Q1017 R27/29//94=
201812150500 METAR LRSB 150500Z 12009KT 9999 -SN BKN045 OVC083 M01/M02
                        Q1017 R27/29//94=
201812150530 METAR LRSB 150530Z VRB05KT 9999 -SN BKN045 OVC083 M01/M02
                        Q1017 R27/29//94=
201812150600 METAR LRSB 150600Z VRB02KT 9999 -SN BKN041 OVC081 M01/M02
                        Q1017 R27/29//94=
201812150630 METAR COR LRSB 150630Z 14005KT 7000 -SN FEW013 BKN040 OVC080
                        M01/M02 Q1017 R27/29//94 NOSIG=
201812150700 METAR LRSB 150700Z 17003KT 9000 -SN SCT011 BKN040 OVC080
                        M01/M03 Q1018 R27/29//94 NOSIG=
201812150730 METAR COR LRSB 150730Z 13003KT 100V160 8000 -SN BKN011 OVC040
                        M01/M02 Q1018 R27/29//94 NOSIG=
201812150800 METAR LRSB 150800Z 13003KT 100V170 9999 -SN BKN011 OVC040
                        M00/M02 Q1018 R27/29//94 NOSIG=
201812150830 METAR LRSB 150830Z 11006KT 9999 BKN011 OVC045 M00/M02 Q1018
                        R27/29//94 NOSIG=
201812150900 METAR LRSB 150900Z 12004KT 090V150 9999 BKN010 OVC045 M00/M02
                        Q1017 R27/29//94 NOSIG=
201812150930 METAR COR LRSB 150930Z 12005KT 090V150 9999 SCT010 OVC046
                        M00/M02 Q1017 R27/29//94 NOSIG=
201812151000 METAR LRSB 151000Z 11003KT 070V160 9999 SCT009 OVC046 00/M02
                        Q1017 R27/29//94 NOSIG=
201812151030 METAR LRSB 151030Z VRB02KT 9999 BKN009 OVC050 00/M02 Q1017
                        R27/29//94 NOSIG=
201812151100 METAR LRSB 151100Z 13006KT 9999 SCT009 BKN050 OVC070 M00/M02
                        Q1017 R27/29//94 NOSIG=
201812151130 METAR LRSB 151130Z 12009KT 9999 SCT009 BKN050 OVC070 00/M02
                        Q1016 R27/29//94 NOSIG=
201812151200 METAR LRSB 151200Z 12007KT 9999 SCT011 SCT050 BKN073 00/M02
                        Q1016 R27/29//94 NOSIG=
201812151230 METAR LRSB 151230Z 10009KT 9999 FEW013 SCT050 BKN074 00/M02
                        Q1016 R27/29//94 NOSIG=
201812151300 METAR LRSB 151300Z 11003KT 070V140 9999 FEW015 SCT050 BKN080
                        01/M02 Q1016 R27/29//94 NOSIG=
201812151330 METAR COR LRSB 151330Z 28004KT 240V320 9999 FEW017 SCT053
                        BKN087 01/M02 Q1016 R27/CLRD// NOSIG=
201812151400 METAR LRSB 151400Z VRB01KT 9999 FEW017 SCT053 01/M02 Q1016
                        NOSIG=
201812151430 METAR LRSB 151430Z 22003KT 170V270 9999 FEW015 SCT050 BKN077
                        01/M02 Q1016 NOSIG=
201812151500 METAR LRSB 151500Z 19003KT 150V220 9999 FEW015 SCT053 BKN079
                        01/M02 Q1015 NOSIG=
201812151530 METAR LRSB 151530Z 22005KT 180V250 9999 FEW015 SCT035 BKN080
                        M01/M02 Q1015 NOSIG=
201812151600 METAR LRSB 151600Z 20003KT 130V240 9999 FEW012 SCT035 M01/M02
                        Q1015 NOSIG=
201812151630 METAR COR LRSB 151630Z VRB03KT 9999 -SN FEW011 SCT035 M00/M02
                        Q1015 NOSIG=
201812151700 METAR LRSB 151700Z 24004KT 8000 -SN SCT012 BKN035 M01/M02
                        Q1015 NOSIG=
201812151730 METAR LRSB 151730Z 25003KT 8000 -SN SCT010 BKN030 M01/M02
                        Q1015 NOSIG=
201812151800 METAR LRSB 151800Z 27003KT 8000 -SN FEW010 BKN035 M01/M02
                        Q1015 R2729//95 NOSIG=
201812151830 METAR LRSB 151830Z 30005KT 4400 -SN SCT010 OVC032 M00/M01
                        Q1015 R2729//95=
201812151900 METAR LRSB 151900Z 34003KT 5000 -SN FEW004 0VC034 M00/M01
                        Q1016 R2729//95=
201812151930 METAR LRSB 151930Z VRB02KT 5000 -SN SCT004 OVC020 M00/M01
                        Q1016 R2729//95=
201812152000 METAR COR LRSB 152000Z VRB02KT 5000 -SN SCT004 OVC020 M00/M01
                        Q1016 R27/29//95=
201812152030 METAR LRSB 152030Z 30003KT 5000 -SN SCT004 OVC020 M00/M01
                        Q1016 R27/29//95=
201812152100 METAR LRSB 152100Z 28004KT 5000 -SN SCT005 OVC020 M00/M01
                        Q1016 R27/29//95=
201812152130 METAR LRSB 152130Z 28003KT 5000 -SN SCT005 OVC020 M00/M01
                        Q1016 R27/29//95=
201812152200 METAR LRSB 152200Z VRB01KT 5000 -SN SCT005 OVC020 M00/M01
                        Q1016 R27/29//95=
201812152230 METAR LRSB 152230Z VRB02KT 5000 -SN BKN005 OVC020 M01/M01
                        Q1015 R27/29//95=
201812152300 METAR LRSB 152300Z 35002KT 5000 -SN SCT003 OVC020 M00/M01
                        Q1015 R27/29//95=
201812152330 METAR LRSB 152330Z VRB02KT 4000 -SN SCT004 OVC020 M01/M01
                        Q1015 R27/29//95=
201812160000 METAR LRSB 160000Z AUTO 00000KT 3700 -SHSN FEW008/// SCT009///
                        M01/M01 Q1015=
201812160030 METAR LRSB 160030Z 25002KT 4000 -SN SCT004 OVC020 M01/M01
                        Q1015 R27/29//95=
201812160100 METAR LRSB 160100Z 27002KT 4000 -SN SCT005 OVC020 M01/M02
                        Q1015 R27/29//95=
201812160130 METAR LRSB 160130Z 00000KT 4000 -SN SCT005 OVC020 M01/M01
                        Q1015 R27/29//95=
201812160200 METAR LRSB 160200Z 00000KT 4000 -SN SCT005 OVC020 M01/M01
                        Q1015 R27/29//95=
201812160230 METAR LRSB 160230Z 00000KT 4000 -SN SCT005 OVC020 M01/M01
                        Q1015 R27/29//95=
201812160300 METAR LRSB 160300Z 00000KT 4000 -SN SCT005 OVC020 M01/M01
                        Q1015 R27/29//95=
201812160330 METAR LRSB 160330Z 00000KT 4000 -SN SCT005 OVC020 M01/M01
                        Q1014 R27/29//95=
201812160400 METAR LRSB 160400Z 00000KT 3000 -SN BR SCR005 OVC020 M01/M01
                        Q1014 R27/29//95=
201812160430 METAR LRSB 160430Z 26003KT 4000 -SN SCT004 OVC020 M00/M01
                        Q1014 R27/690294=
201812160500 METAR LRSB 160500Z 27003KT 4000 -SN SCT005 OVC020 M00/M01
                        Q1014 R27/690194=
201812160530 METAR LRSB 160530Z 30003KT 4000 -SN SCT007 OVC020 M00/M01
                        Q1014 R27/690194=
201812160600 METAR COR LRSB 160600Z 33003KT 4000 -SN BKN004 OVC020 M00/M01
                        Q1014 R27/690193=
201812160630 METAR LRSB 160630Z 33005KT 3000 -SN BKN004 OVC020 M00/M01
                        Q1015 R27/690193=
201812160700 METAR LRSB 160700Z 29005KT 2500 -SN BR BKN004 OVC020 M00/M01
                        Q1015 R27/690193=
201812160730 METAR LRSB 160730Z 29005KT 2000 -SN BR BKN004 OVC020 M00/M01
                        Q1015 R27/690193=
201812160800 METAR LRSB 160800Z 29004KT 2000 -SN BR BKN005 OVC019 M00/M01
                        Q1015 R27/690193=
201812160830 METAR LRSB 160830Z 30005KT 2000 -SN BR BKN005 OVC018 M00/M01
                        Q1016 R27/690193=
201812160900 METAR LRSB 160900Z 31004KT 2000 -SN BR BKN005 OVC018 M00/M01
                        Q1016 R27/690193=
201812160930 METAR LRSB 160930Z 30004KT 1800 -SN BR SCT006 OVC019 00/M01
                        Q1016 R27/690193=
201812161000 METAR LRSB 161000Z VRB01KT 1800 -SN BR SCT006 OVC020 00/M01
                        Q1017 R27/690193=
201812161030 METAR LRSB 161030Z 17002KT 1700 -SN BR SCT004 OVC020 M00/M01
                        Q1017 R27/690193=
201812161100 METAR COR LRSB 161100Z VRB01KT 1000 R27/1000U SN BR BKN004
                        OVC018 00/M01 Q1016 R27/690194=
201812161130 METAR LRSB 161130Z 22002KT 1200 R27/1400D -SN BR BKN003 OVC018
                        00/M01 Q1017 RESN R27/690194=
201812161200 METAR LRSB 161200Z VRB01KT 1000 R27/1200D -SN BR BKN003 OVC020
                        00/M00 Q1017 R27/690194=
201812161230 METAR LRSB 161230Z 02002KT 1500 R27/1600D -SN BR BKN003 OVC020
                        M00/M01 Q1017 R27/690194=
201812161300 METAR LRSB 161300Z 36003KT 1000 R27/1300N -SN BR BKN003 OVC020
                        M00/M01 Q1017 R27/690194=
201812161330 METAR LRSB 161330Z 36002KT 1200 R27/1400N -SN BR BKN003 OVC019
                        M00/M01 Q1017 R27/690293=
201812161400 METAR LRSB 161400Z 01002KT 1000 R27/1300U -SN BR BKN003 OVC019
                        M00/M01 Q1017 R27/690293=
201812161430 METAR LRSB 161430Z VRB01KT 1800 -SN BR SCT003 OVC019 M00/M01
                        Q1017 R27/690293=
201812161500 METAR LRSB 161500Z 00000KT 2000 -SN BR SCT003 OVC018 M01/M01
                        Q1018 R27/690293=
201812161530 METAR LRSB 161530Z 00000KT 1800 -SN BR SCT003 OVC020 M01/M01
                        Q1018 R27/590393=
201812161600 METAR LRSB 161600Z 00000KT 2000 -SN BR SCT003 OVC020 M01/M01
                        Q1018 R27/590393=
201812161630 METAR LRSB 161630Z 00000KT 2200 -SN BR SCT003 OVC020 M01/M02
                        Q1018 R27/590393=
201812161700 METAR LRSB 161700Z 00000KT 3000 -SN BR FEW003 OVC018 M01/M02
                        Q1018 R27/590392=
201812161730 METAR LRSB 161730Z 02002KT 3000 -SN BR FEW003 SCT011 OVC017
                        M01/M02 Q1018 R27/590592=
201812161800 METAR LRSB 161800Z VRB01KT 2500 -SN BR FEW007 SCT015 OVC020
                        M01/M02 Q1018 R27/590392=
201812161830 METAR LRSB 161830Z 32001KT 2300 -SN BR FEW003 SCT012 OVC018
                        M01/M02 Q1019 R27/590392=
201812161900 METAR LRSB 161900Z 28003KT 2000 -SN BR BKN013 OVC017 M01/M02
                        Q1019 R27/590392=
201812161930 METAR LRSB 161930Z 29002KT 2000 -SN BR SCT008 OVC016 M01/M02
                        Q1019 R27/590591=
201812162000 METAR LRSB 162000Z 09002KT 2500 -SN BR FEW004 SCT007 OVC010
                        M01/M02 Q1019 R27/590293=
201812162030 METAR LRSB 162030Z 00000KT 3000 -SN BR FEW007 SCT011 OVC014
                        M01/M02 Q1019 R27/590293=
201812162100 METAR LRSB 162100Z 00000KT 2500 -SN BR FEW002 SCT006 OVC014
                        M01/M02 Q1019 R27/690293=
201812162130 METAR LRSB 162130Z 00000KT 2000 -SN BR FEW010 OVC013 M02/M02
                        Q1019 R27/690293=
201812162200 METAR LRSB 162200Z 00000KT 2000 -SN BR FEW010 OVC015 M02/M02
                        Q1019 R27/690293=
201812162230 METAR LRSB 162230Z 00000KT 3000 -SN BR FEW009 OVC015 M02/M02
                        Q1019 R27/690293=
201812162300 METAR LRSB 162300Z 00000KT 2000 -SN BR FEW007 OVC012 M02/M02
                        Q1019 R27/690293=
201812162330 METAR LRSB 162330Z 00000KT 3000 -SN BR FEW009 OVC016 M02/M02
                        Q1019 R27/690293=
201812170000 METAR LRSB 170000Z VRB02KT 3000 -SN BR FEW007 OVC016 M02/M02
                        Q1019 R27/590393=
201812170030 METAR LRSB 170030Z 36003KT 2000 -SN BR FEW006 OVC011 M02/M02
                        Q1019 R27/590393=
201812170100 METAR LRSB 170100Z 03002KT 3000 -SN BR FEW008 OVC012 M02/M03
                        Q1019 R27/590393=
201812170130 METAR LRSB 170130Z 34001KT 3000 -SN BR OVC017 M02/M03 Q1019
                        R27/590393=
201812170200 METAR LRSB 170200Z 00000KT 3000 -SN BR FEW014 OVC020 M02/M02
                        Q1019 R27/590393=
201812170230 METAR LRSB 170230Z 00000KT 2000 -SN BR FEW012 OVC020 M02/M03
                        Q1019 R27/590393=
201812170300 METAR LRSB 170300Z 00000KT 2000 -SN BR FEW012 OVC019 M02/M03
                        Q1018 R27/590393=
201812170330 METAR LRSB 170330Z 00000KT 3000 -SN BR FEW009 OVC025 M02/M03
                        Q1018 R27/590393=
201812170400 METAR LRSB 170400Z 00000KT 4000 -SN BR SCT018 BKN079 M02/M03
                        Q1018 R27/590393=
201812170430 METAR LRSB 170430Z 00000KT 4000 -RASN BR FEW009 SCT012 BKN017
                        M02/M03 Q1018 R27/690293=
201812170500 METAR LRSB 170500Z 00000KT 5000 -SN BR BKN003 OVC016 M02/M03
                        Q1018 R27/690293=
201812170530 METAR LRSB 170530Z 00000KT 5000 -SN BR OVC017 M02/M03 Q1018
                        R27/690293=
201812170600 METAR LRSB 170600Z 00000KT 3000 -SN BR FEW013 OVC018 M02/M03
                        Q1018 R27/690293=
201812170630 METAR LRSB 170630Z 00000KT 3500 -SN BR SCT003 OVC018 M02/M03
                        Q1018 R27/690294=
201812170700 METAR LRSB 170700Z 00000KT 3700 -SN FEW003 OVC018 M02/M03
                        Q1018 R27/690294=
201812170730 METAR LRSB 170730Z 00000KT 3500 -SN BR OVC018 M02/M02 Q1018
                        R27/690294=
201812170800 METAR LRSB 170800Z 00000KT 4000 BR FEW003 OVC017 M01/M02
                        Q1019 RESN R27/690294=
201812170830 METAR LRSB 170830Z 00000KT 3000 -SN BR FEW003 OVC011 M01/M02
                        Q1019 R27/690294=
201812170900 METAR COR LRSB 170900Z VRB01KT 2500 -SN BR FEW004 BKN011
                        OVC020 M01/M02 Q1019 R27/690294=
201812170930 METAR LRSB 170930Z 00000KT 2500 -SN BR FEW003 SCT018 OVC023
                        M00/M01 Q1019 R27/690294=
201812171000 METAR LRSB 171000Z 00000KT 2500 -SN BR FEW002 SCT016 OVC023
                        M00/M01 Q1019 R27/19//95=
201812171030 METAR LRSB 171030Z 00000KT 2000 -SN BR SCT004 BKN014 OVC023
                        M00/M01 Q1018 R27/19//95=
201812171100 METAR LRSB 171100Z 00000KT 3000 -RASN BR FEW003 SCT004 OVC020
                        M00/M02 Q1018 R27/19//95=
201812171130 METAR LRSB 171130Z 00000KT 3500 -RASN BR FEW004 BKN016 OVC020
                        00/M01 Q1018 R27/19//95=
201812171200 METAR LRSB 171200Z 25001KT 3500 -RA BR FEW008 BKN014 OVC026
                        M01/M02 Q1018 R27/19//95=
201812171230 METAR LRSB 171230Z 31002KT 6000 -SN SCT015 BKN020 M01/M02
                        Q1018 R27/19//95=
201812171300 METAR LRSB 171300Z 28002KT 3500 -SN BR SCT006 OVC023 M01/M02
                        Q1018 R27/19//95=
201812171330 METAR LRSB 171330Z 30002KT 3500 -SN BR FEW004 SCT007 OVC023
                        M01/M02 Q1019 R27/19//95=
201812171400 METAR LRSB 171400Z AUTO 32001KT 1700 R27/1800VP2000D -SHSN
                        FEW006/// BKN008/// M01/M02 Q1019=
201812171430 METAR LRSB 171430Z 00000KT 2000 -SN BR FEW002 BKN008 OVC023
                        M01/M02 Q1019 R27/29//94=
201812171500 METAR LRSB 171500Z 00000KT 2800 -SN BR FEW003 SCT004 OVC020
                        M01/M02 Q1019 R27/29//94=
201812171530 METAR LRSB 171530Z 28001KT 2500 -SN BR FEW003 SCT004 OVC020
                        M01/M02 Q1019 R27/29//94=
201812171600 METAR LRSB 171600Z 26002KT 2000 -SN BR FEW005 BKN007 OVC020
                        M01/M02 Q1020 R27/29//94=
201812171630 METAR LRSB 171630Z 25002KT 2000 SN BR FEW005 SCT008 OVC020
                        M01/M02 Q1020 R27/29//94=
201812171700 METAR LRSB 171700Z 28002KT 1700 SN BR FEW004 BKN008 OVC020
                        M01/M02 Q1020 R27/29//94=
201812171730 METAR LRSB 171730Z 28003KT 2200 -SN BR FEW005 BKN008 OVC020
                        M01/M02 Q1021 RESN R27/590194=
201812171800 METAR LRSB 171800Z 28002KT 1600 -SN BR BKN006 OVC020 M01/M02
                        Q1021 R27/590194=
201812171830 METAR LRSB 171830Z 26002KT 1800 -SN BR BKN005 OVC020 M01/M02
                        Q1021 R27/590194=
201812171900 METAR LRSB 171900Z 00000KT 1800 -SN BR BKN005 OVC018 M01/M02
                        Q1022 R27/590193=
201812171930 METAR LRSB 171930Z 00000KT 1600 SN BR BKN005 OVC018 M01/M02
                        Q1022 R27/590193=
201812172000 METAR LRSB 172000Z 00000KT 1800 -SN BR BKN006 OVC018 M01/M02
                        Q1022 RESN R27/590193=
201812172030 METAR LRSB 172030Z 00000KT 2000 -SN BR BKN008 OVC020 M01/M02
                        Q1022 R27/590193=
201812172100 METAR LRSB 172100Z 00000KT 2000 -SN BR BKN008 OVC023 M02/M02
                        Q1022 R27/590193=
201812172130 METAR LRSB 172130Z 00000KT 1600 -SN BR BKN008 OVC021 M02/M02
                        Q1022 R27/590193=
201812172200 METAR LRSB 172200Z 00000KT 1500 -SN BR BKN007 OVC020 M01/M02
                        Q1022 R27/590193=
201812172230 METAR LRSB 172230Z 00000KT 1500 -SN BR SCT007 OVC019 M01/M02
                        Q1022 R27/590193=
201812172300 METAR LRSB 172300Z 00000KT 1600 -SN BR SCT008 OVC023 M01/M02
                        Q1022 R27/590293=
201812172330 METAR LRSB 172330Z 00000KT 1600 -SN BR SCT008 OVC025 M01/M02
                        Q1022 R27/590293=
201812180000 METAR LRSB 180000Z 00000KT 1800 -SN BR SCT008 OVC025 M01/M02
                        Q1023 R27/590293=
201812180030 METAR LRSB 180030Z 06001KT 2000 -SN BR FEW007 OVC028 M02/M02
                        Q1023 R27/590293=
201812180100 METAR LRSB 180100Z 04001KT 2400 -SN BR SCT007 OVC028 M01/M02
                        Q1023 R27/590293=
201812180130 METAR LRSB 180130Z 00000KT 2400 -SN BR SCT007 OVC028 M02/M02
                        Q1023 R27/590293=
201812180200 METAR LRSB 180200Z 04001KT 2500 -SN BR FEW003 BKN007 OVC027
                        M01/M02 Q1023 R27/590293=
201812180230 METAR LRSB 180230Z 36002KT 2000 -SN BR BKN005 OVC025 M02/M02
                        Q1023 R27/590293=
201812180300 METAR LRSB 180300Z 36002KT 3000 -SN BR BKN006 OVC028 M02/M02
                        Q1023 R27/590293=
201812180330 METAR LRSB 180330Z 00000KT 3000 -SN BR BKN005 OVC027 M02/M02
                        Q1023 R27/590293=
201812180400 METAR LRSB 180400Z 00000KT 2500 -SN BR BKN005 OVC025 M02/M02
                        Q1024 R27/590293=
201812180430 METAR LRSB 180430Z 00000KT 2600 -SN BR BKN005 OVC025 M02/M02
                        Q1024 R27/29//95=
201812180500 METAR LRSB 180500Z 03001KT 3000 -SN BR FEW003 SCT008 OVC025
                        M02/M02 Q1024 R27/29//95=
201812180530 METAR LRSB 180530Z 21001KT 2500 -SN BR FEW005 SCT008 OVC025
                        M02/M03 Q1024 R27/29//95=
201812180600 METAR LRSB 180600Z 00000KT 2000 -SN BR FEW004 SCT008 OVC022
                        M02/M02 Q1024 R27/29//95=
201812180630 METAR LRSB 180630Z 00000KT 1800 -SN BR FEW004 SCT008 OVC024
                        M02/M02 Q1025 R27/29//95=
201812180700 METAR LRSB 180700Z 00000KT 1800 -SN BR FEW002 BKN004 OVC020
                        M01/M02 Q1025 R27/29//95 NOSIG=
201812180730 METAR COR LRSB 180730Z 02002KT 2000 BR BKN004 OVC020 M01/M02
                        Q1025 R27/29//95 NOSIG=
201812180800 METAR LRSB 180800Z 05002KT 2500 BKN004 OVC020 M01/M02 Q1025
                        R27/29//95 NOSIG=
201812180830 METAR LRSB 180830Z 05002KT 3000 BR SCT002 SCT006 OVC023 M01/M02
                        Q1026 R27/29//95 NOSIG=
201812180900 METAR LRSB 180900Z 05002KT 3000 BR FEW003 BKN006 OVC023 M01/M02
                        Q1026 R27/29//95 NOSIG=
201812180930 METAR LRSB 180930Z 04003KT 4000 BR FEW003 BKN007 OVC033 M01/M02
                        Q1025 R27/19//95 NOSIG=
201812181000 METAR LRSB 181000Z 02004KT 6000 SCT006 OVC040 M01/M02 Q1025
                        R27/19//95 NOSIG=
201812181030 METAR LRSB 181030Z 01004KT 7000 SCT006 OVC035 M01/M03 Q1025
                        R27/19//95 NOSIG=
201812181100 METAR LRSB 181100Z 35005KT 7000 SCT006 OVC038 M01/M03 Q1025
                        R27/19//95 NOSIG=
201812181130 METAR LRSB 181130Z 02003KT 7000 SCT010 SCT020 OVC033 M01/M03
                        Q1025 R27/19//95 NOSIG=
201812181200 METAR LRSB 181200Z 05003KT 7000 FEW006 SCT020 OVC036 M01/M03
                        Q1025 R27/19//95 NOSIG=
201812181230 METAR COR LRSB 181230Z 03003KT 8000 SCT007 SCT020 OVC036
                        M01/M03 Q1025 R27/19//95 NOSIG=
201812181300 METAR LRSB 181300Z VRB02KT 8000 BKN008 BKN023 OVC036 M01/M03
                        Q1025 R27/19//95 NOSIG=
201812181330 METAR LRSB 181330Z 03002KT 8000 BKN008 BKN020 OVC036 M01/M03
                        Q1025 R27/19//95 NOSIG=
201812181400 METAR LRSB 181400Z 01003KT 8000 BKN008 BKN019 OVC033 M01/M03
                        Q1025 R27/19//95 NOSIG=
201812181430 METAR LRSB 181430Z 01003KT 8000 SCT007 BKN019 OVC033 M01/M03
                        Q1025 R27/19//95 NOSIG=
201812181500 METAR LRSB 181500Z 01003KT 8000 SCT007 BKN019 OVC033 M01/M03
                        Q1025 R27/19//95 NOSIG=
201812181530 METAR LRSB 181530Z 01004KT 9000 FEW006 BKN015 OVC033 M01/M03
                        Q1026 R27/15//95 NOSIG=
201812181600 METAR LRSB 181600Z 36004KT 8000 FEW006 SCT008 OVC015 M01/M03
                        Q1026 R27/15//95 NOSIG=
201812181630 METAR LRSB 181630Z 36004KT 8000 FEW006 BKN008 OVC015 M02/M03
                        Q1026 R27/15//95 NOSIG=
201812181700 METAR LRSB 181700Z 35004KT 8000 BKN007 OVC015 M02/M03 Q1026
                        R27/15//95 NOSIG=
201812181730 METAR LRSB 181730Z 36003KT 7000 BKN006 OVC015 M02/M03 Q1026
                        R27/15//95 NOSIG=
201812181800 METAR LRSB 181800Z 01003KT 7000 BKN006 OVC016 M02/M03 Q1026
                        R27/15//95=
201812181830 METAR LRSB 181830Z 01003KT 6000 BKN005 OVC015 M02/M03 Q1026
                        R27/15//95=
201812181900 METAR COR LRSB 181900Z 02002KT 6000 -SN BKN005 OVC020 M02/M03
                        Q1026 R27/15//95=
201812181930 METAR LRSB 181930Z 36003KT 6000 -SN SCT006 BKN015 OVC020
                        M02/M03 Q1026 R27/15//95=
201812182000 METAR LRSB 182000Z 00000KT 6000 -SN SCT006 BKN013 OVC020
                        M02/M04 Q1026 R27/15//95=
201812182030 METAR LRSB 182030Z 36003KT 6000 -SN SCT006 BKN014 OVC022
                        M02/M04 Q1026 R27/15//95=
201812182100 METAR LRSB 182100Z 36003KT 5000 -SN BR FEW006 BKN014 OVC022
                        M02/M04 Q1026 R27/15//95=
201812182130 METAR LRSB 182130Z 35003KT 5000 BR FEW006 BKN014 OVC022 M02/M04
                        Q1027 R27/15//95=
201812182200 METAR LRSB 182200Z 36002KT 5000 BR BKN007 BKN015 OVC023 M02/M04
                        Q1026 R27/15//95=
201812182230 METAR LRSB 182230Z 35001KT 6000 BKN007 BKN015 OVC023 M02/M04
                        Q1026 R27/15//95=
201812182300 METAR LRSB 182300Z 00000KT 6000 SCT006 BKN013 OVC022 M02/M04
                        Q1026 R27/15//95=
201812182330 METAR LRSB 182330Z 36003KT 5000 BR SCT005 BKN013 OVC020 M02/M04
                        Q1026 R27/15//95=
201812190000 METAR LRSB 190000Z 35003KT 5000 BR BKN004 OVC012 M02/M04
                        Q1026 R27/15//95=
201812190030 METAR LRSB 190030Z 36002KT 5000 BR BKN004 OVC013 M03/M04
                        Q1026 R27/19//94=
201812190100 METAR LRSB 190100Z 36002KT 3500 BR FEW003 BKN007 OVC013 M03/M04
                        Q1026 R27/19//94=
201812190130 METAR LRSB 190130Z 01002KT 4000 BR BKN007 OVC014 M03/M04
                        Q1026 R27/19//94=
201812190200 METAR LRSB 190200Z 01002KT 3000 BR FEW004 BKN007 OVC015 M03/M04
                        Q1026 R27/19//94=
201812190230 METAR LRSB 190230Z 36003KT 4000 BR FEW004 BKN007 OVC015 M03/M04
                        Q1026 R27/19//94=
201812190300 METAR LRSB 190300Z VRB01KT 3000 BR BKN007 OVC014 M03/M04
                        Q1026 R27/19//94=
201812190330 METAR LRSB 190330Z 00000KT 3500 BR BKN007 OVC013 M03/M04
                        Q1026 R27/19//94=
201812190400 METAR LRSB 190400Z 00000KT 2500 BR BKN006 OVC012 M03/M04
                        Q1026 R27/19//94=
201812190430 METAR LRSB 190430Z 00000KT 1200 R27/P2000 BR SCT003 BKN006
                        OVC011 M03/M04 Q1026 R27/19//94=
201812190500 METAR LRSB 190500Z 00000KT 0400 R27/2000D FZFG BKN002 OVC005
                        M03/M03 Q1026 R27/19//94=
201812190530 METAR LRSB 190530Z 12001KT 0600 R27/1100D FZFG VV002 M03/M03
                        Q1027 R27/19//94=
201812190600 METAR LRSB 190600Z 00000KT 0400 R27/0500N FZFG VV001 M03/M03
                        Q1026 R27/19//95=
201812190630 METAR LRSB 190630Z 00000KT 0350 R27/0400N FZFG VV001 M03/M03
                        Q1027 R27/19//95=
201812190700 METAR LRSB 190700Z AUTO 02002KT 0300 R27/0400N FEW003///
                        M02/M03 Q1027=
201812190730 METAR COR LRSB 190730Z 36003KT 0400 R27/0600D FZFG OVC002
                        M02/M03 Q1027 R27/19//95=
201812190800 METAR LRSB 190800Z 35003KT 1400 R27/1500D BR FEW002 OVC003
                        M02/M03 Q1027 R27/19//95=
201812190830 METAR LRSB 190830Z 35002KT 1400 R27/1500N BR FEW002 OVC003
                        M02/M03 Q1028 R27/19//95=
201812190900 METAR LRSB 190900Z 34002KT 1600 BR OVC003 M02/M03 Q1028 R27/19//95=
201812190930 METAR LRSB 190930Z VRB02KT 1800 BR OVC004 M02/M03 Q1028 R27/19//95=
201812191000 METAR LRSB 191000Z 00000KT 1800 BR FEW003 OVC008 M02/M03
                        Q1027 R27/19//95=
201812191030 METAR LRSB 191030Z VRB01KT 2000 BR SCT005 OVC010 M01/M02
                        Q1027 R27/19//95=
201812191100 METAR LRSB 191100Z 00000KT 2000 BR FEW006 OVC010 01/M02 Q1027
                        R27/19//95=
201812191130 METAR LRSB 191130Z 29001KT 2000 BR FEW004 OVC020 M01/M03
                        Q1026 R27/19//95=
201812191200 METAR LRSB 191200Z 29001KT 2000 BR BKN006 OVC020 M01/M03
                        Q1026 R27/19//95=
201812191230 METAR LRSB 191230Z 03002KT 2000 BR BKN006 OVC020 M01/M03
                        Q1026 R27/19//95=
201812191300 METAR LRSB 191300Z 02002KT 2500 BR BKN006 OVC020 M01/M03
                        Q1026 R27/19//95=
201812191330 METAR LRSB 191330Z VRB01KT 3000 BR BKN006 OVC020 M01/M03
                        Q1026 R27/15//95=
201812191400 METAR LRSB 191400Z 03001KT 3000 BR BKN006 OVC020 M01/M03
                        Q1026 R27/15//95=
201812191430 METAR LRSB 191430Z 00000KT 2500 BR OVC007 M01/M03 Q1026 R27/15//95=
201812191500 METAR LRSB 191500Z 00000KT 3000 BR OVC007 M01/M03 Q1026 R27/15//95=
201812191530 METAR LRSB 191530Z 00000KT 3000 BR OVC007 M01/M03 Q1026 R27/15//95=
201812191600 METAR LRSB 191600Z 01002KT 3000 BR BKN007 OVC020 M02/M03
                        Q1026 R27/15//95=
201812191630 METAR LRSB 191630Z 01002KT 3000 BR BKN006 OVC020 M02/M03
                        Q1026 R27/15//95=
201812191700 METAR LRSB 191700Z 36001KT 3500 BR BKN006 OVC020 M01/M03
                        Q1026 R27/15//95=
201812191730 METAR LRSB 191730Z 32002KT 3500 BR BKN006 OVC020 M02/M03
                        Q1026 R27/15//95=
201812191800 METAR LRSB 191800Z 00000KT 3000 BR BKN005 OVC020 M02/M03
                        Q1026 R27/15//95 NOSIG=
201812191830 METAR LRSB 191830Z VRB01KT 2500 BR SCT005 OVC020 M02/M03
                        Q1026 R27/15//95 NOSIG=
201812191900 METAR LRSB 191900Z VRB01KT 2500 BR SCT005 OVC019 M02/M03
                        Q1026 R27/15//95 NOSIG=
201812191930 METAR LRSB 191930Z 10002KT 2500 BR SCT004 OVC018 M02/M03
                        Q1026 R27/15//95 NOSIG=
201812192000 METAR LRSB 192000Z 09002KT 2500 BR SCT004 OVC017 M01/M02
                        Q1025 R27/15//95 NOSIG=
201812192030 METAR LRSB 192030Z 08003KT 3000 BR SCT004 OVC017 M01/M02
                        Q1025 R27/15//95 NOSIG=
201812192100 METAR LRSB 192100Z VRB02KT 3000 BR SCT005 OVC015 M02/M03
                        Q1025 R27/15//95 NOSIG=
201812192130 METAR LRSB 192130Z 00000KT 3000 BR SCT005 OVC015 M02/M03
                        Q1025 R27/15//95 NOSIG=
201812192200 METAR LRSB 192200Z VRB01KT 3500 BR SCT005 OVC015 M02/M03
                        Q1025 R27/15//95 NOSIG=
201812192230 METAR LRSB 192230Z 02003KT 340V050 3500 BR SCT005 OVC015
                        M02/M03 Q1025 R27/15//95 NOSIG=
201812192300 METAR LRSB 192300Z VRB01KT 3500 BR SCT005 SCT009 OVC012 M02/M03
                        Q1025 R27/15//95 NOSIG=
201812192330 METAR LRSB 192330Z VRB01KT 3500 BR FEW004 SCT009 OVC012 M02/M03
                        Q1025 R27/15//95 NOSIG=
201812200000 METAR LRSB 200000Z 00000KT 3500 BR FEW004 SCT009 OVC012 M02/M03
                        Q1025 R27/15//95 NOSIG=
201812200030 METAR LRSB 200030Z 29002KT 3500 BR SCT009 OVC012 M02/M03
                        Q1025 R27/15//95 NOSIG=
201812200100 METAR LRSB 200100Z VRB01KT 3500 BR FEW006 SCT009 OVC012 M02/M03
                        Q1025 R27/15//95 NOSIG=
201812200130 METAR LRSB 200130Z 11001KT 3500 BR SCT005 SCT009 OVC012 M02/M03
                        Q1025 R27/15//95 NOSIG=
201812200200 METAR LRSB 200200Z VRB01KT 3500 BR SCT005 BKN009 OVC012 M02/M03
                        Q1024 R27/15//95 NOSIG=
201812200230 METAR LRSB 200230Z 26002KT 3500 BR FEW006 BKN009 OVC012 M02/M03
                        Q1024 R27/15//95 NOSIG=
201812200300 METAR LRSB 200300Z VRB02KT 3500 BR FEW006 SCT008 OVC012 M02/M03
                        Q1024 R27/15//95 NOSIG=
201812200330 METAR LRSB 200330Z VRB02KT 6000 FEW006 SCT008 OVC012 M02/M04
                        Q1024 R27/15//95 NOSIG=
201812200400 METAR LRSB 200400Z VRB01KT 7000 FEW007 BKN009 OVC012 M02/M04
                        Q1024 R27/15//95 NOSIG=
201812200430 METAR LRSB 200430Z VRB01KT 7000 FEW006 OVC009 M02/M03 Q1024
                        R27/15//95 NOSIG=
201812200500 METAR LRSB 200500Z 13004KT 5000 BR FEW006 OVC009 M02/M03
                        Q1024 R27/15//95 NOSIG=
201812200530 METAR LRSB 200530Z 12005KT 5000 BR FEW006 OVC009 M02/M03
                        Q1023 R27/15//95 NOSIG=
201812200600 METAR LRSB 200600Z 12003KT 4500 BR SCT006 OVC009 M02/M03
                        Q1024 R27/15//95 NOSIG=
201812200630 METAR LRSB 200630Z VRB01KT 4500 BR SCT006 OVC009 M02/M03
                        Q1024 R27/15//95=
201812200700 METAR LRSB 200700Z 25004KT 210V290 5000 BR SCT005 OVC010
                        M03/M04 Q1024 R27/15//95=
201812200730 METAR LRSB 200730Z 24003KT 5000 BR SCT005 OVC010 M03/M04
                        Q1024 R27/15//95=
201812200800 METAR LRSB 200800Z VRB02KT 5000 BR SCT005 OVC010 M02/M03
                        Q1024 R27/15//95=
201812200830 METAR LRSB 200830Z VRB02KT 4500 BR BKN005 OVC010 M02/M03
                        Q1024 R27/15//95=
201812200900 METAR LRSB 200900Z VRB02KT 4000 BR FEW003 SCT005 OVC010 M02/M03
                        Q1024 R27/15//95=
201812200930 METAR LRSB 200930Z 13005KT 3500 BR FEW003 SCT005 OVC011 M02/M03
                        Q1024 R27/15//95=
201812201000 METAR LRSB 201000Z VRB02KT 3500 BR FEW003 SCT005 OVC011 M01/M03
                        Q1023 R27/15//95=
201812201030 METAR LRSB 201030Z 23003KT 3000 BR FEW003 SCT005 OVC011 M02/M03
                        Q1023 R27/15//95=
201812201100 METAR LRSB 201100Z 26003KT 3000 BR BKN004 OVC010 M02/M03
                        Q1023 R27/15//95=
201812201130 METAR LRSB 201130Z 26003KT 2800 BR BKN004 OVC010 M02/M03
                        Q1023 R27/15//95=
201812201200 METAR LRSB 201200Z 27006KT 2000 BR BKN004 OVC010 M02/M03
                        Q1023 R27/15//95=
201812201230 METAR LRSB 201230Z 25005KT 2000 BR BKN004 OVC010 M02/M03
                        Q1023 R27/15//95=
201812201300 METAR LRSB 201300Z 21003KT 190V250 2000 BR BKN004 OVC011
                        M02/M03 Q1023 R27/15//95=
201812201330 METAR LRSB 201330Z VRB02KT 2200 BR BKN004 OVC011 M02/M03
                        Q1023 R27/15//95=
201812201400 METAR LRSB 201400Z VRB01KT 2200 BR BKN004 OVC011 M02/M03
                        Q1023 R27/15//95=
201812201430 METAR LRSB 201430Z VRB01KT 2000 BR BKN004 OVC010 M02/M03
                        Q1023 R27/CLRD//=
201812201500 METAR LRSB 201500Z VRB02KT 3000 BR BKN004 OVC010 M02/M03
                        Q1023=
201812201530 METAR LRSB 201530Z 31004KT 280V350 3000 BR BKN004 OVC010
                        M02/M03 Q1024=
201812201600 METAR LRSB 201600Z VRB02KT 3000 BR BKN003 OVC010 M02/M03
                        Q1024=
201812201630 METAR LRSB 201630Z VRB01KT 3000 BR SCT002 OVC010 M02/M03
                        Q1024=
201812201700 METAR LRSB 201700Z VRB01KT 3000 BR SCT002 OVC005 M02/M03
                        Q1024=
201812201730 METAR LRSB 201730Z 00000KT 2000 BR SCT002 OVC005 M02/M03
                        Q1024=
201812201800 METAR LRSB 201800Z VRB02KT 1000 R27/1000D BR SCT002 OVC005
                        M02/M03 Q1025=
201812201830 METAR LRSB 201830Z VRB02KT 0500 R27/0600N FZFG VV002 M03/M03
                        Q1024=
201812201900 METAR LRSB 201900Z VRB01KT 0500 R27/0650N FZFG VV001 M03/M03
                        Q1025=
201812201930 METAR LRSB 201930Z VRB02KT 0400 R27/0600N FZFG VV001 M03/M03
                        Q1025 R27/15//95=
201812202000 METAR LRSB 202000Z VRB01KT 0500 R27/0600N FZFG VV001 M03/M04
                        Q1025 R27/15//95=
201812202030 METAR LRSB 202030Z 18002KT 0400 R27/0600N FZFG VV001 M03/M04
                        Q1025 R27/15//95=
201812202100 METAR LRSB 202100Z 15002KT 0800 R27/1000U FZFG VV002 M03/M04
                        Q1025 R27/15//95=
201812202130 METAR LRSB 202130Z 14003KT 0400 R27/0550N FZFG OVC001 M03/M04
                        Q1025 R27/15//95=
201812202200 METAR LRSB 202200Z VRB02KT 0600 R27/0800U FZFG OVC002 M04/M04
                        Q1025 R27/15//95=
201812202230 METAR LRSB 202230Z 23003KT 0500 R27/0650N FZFG OVC001 M04/M05
                        Q1025 R27/15//95=
201812202300 METAR LRSB 202300Z VRB01KT 0300 R27/0325N FZFG OVC001 M05/M06
                        Q1025 R27/15//95=
201812202330 METAR LRSB 202330Z 00000KT 0250 R27/0325U FZFG OVC001 M05/M06
                        Q1025 R27/15//95=
201812210000 METAR LRSB 210000Z 20003KT 0350 R27/0550N FZFG OVC001 M05/M06
                        Q1025 R27/15//95=
201812210030 METAR LRSB 210030Z 12003KT 0350 R27/0400N FZFG OVC001 M04/M05
                        Q1026 R27/15//95=
201812210100 METAR LRSB 210100Z 11002KT 0350 R27/0400N FZFG VV001 M04/M04
                        Q1026 R27/15//95=
201812210130 METAR LRSB 210130Z AUTO VRB02KT 0400 R27/0500N FZFG NCD M06/M07
                        Q1026=
201812210200 METAR LRSB 210200Z AUTO 24005KT 2200 R27/1700VP2000D SG FEW001///
                        M06/M07 Q1026=
201812210230 METAR LRSB 210230Z AUTO 22004KT 0450 R27/0550N -SN FEW001///
                        M06/M06 Q1026=
201812210300 METAR LRSB 210300Z 23003KT 0350 R27/0400N -SN FZFG OVC003
                        M05/M06 Q1026 R27/15//95=
201812210330 METAR LRSB 210330Z 24002KT 0350 R27/0400N FZFG OVC001 M05/M05
                        Q1026 R27/490194=
201812210400 METAR LRSB 210400Z VRB02KT 0350 R27/0400N FZFG VV001 M04/M05
                        Q1026 R27/490194=
201812210430 METAR LRSB 210430Z 00000KT 0350 R27/0500N FZFG VV002 M04/M05
                        Q1026 R27/29//95=
201812210500 METAR LRSB 210500Z VRB02KT 0400 R27/0550U FZFG VV002 M04/M05
                        Q1026 R27/29//95=
201812210530 METAR LRSB 210530Z 12002KT 0800 R27/0800N FZFG VV002 M04/M05
                        Q1026 R27/29//95=
201812210600 METAR LRSB 210600Z 15003KT 1800 BR SCT002 OVC030 M04/M04
                        Q1026 R27/29//95=
201812210630 METAR LRSB 210630Z 12004KT 5000 BR OVC053 M04/M04 Q1026 R27/29//95=
201812210700 METAR LRSB 210700Z 12002KT 5000 BR SCT052 M04/M05 Q1026 R27/29//95=
201812210730 METAR LRSB 210730Z 17001KT 9999 SCT055 M04/M04 Q1026 R27/29//95=
201812210800 METAR LRSB 210800Z VRB02KT 9999 FEW052 M04/M05 Q1026 R27/29//95=
201812210830 METAR LRSB 210830Z 24004KT 6000 OVC049 M04/M04 Q1026 R27/29//95=
201812210900 METAR LRSB 210900Z 21002KT 3500 BR OVC047 M03/M04 Q1026 R27/29//95=
201812210930 METAR LRSB 210930Z VRB01KT 3500 BR OVC047 M03/M03 Q1026 R27/29//95=
201812211000 METAR LRSB 211000Z 20002KT 4000 BR OVC050 M02/M03 Q1025 R27/29//95=
201812211030 METAR LRSB 211030Z 13002KT 6000 OVC047 M02/M03 Q1025 R27/CLRD//=
201812211100 METAR LRSB 211100Z VRB02KT 6000 OVC046 M01/M02 Q1024=
201812211130 METAR LRSB 211130Z VRB02KT 6000 OVC046 M01/M02 Q1024=
201812211200 METAR LRSB 211200Z 10004KT 6000 SCT047 M01/M02 Q1023=
201812211230 METAR LRSB 211230Z VRB02KT 6000 SCT086 M01/M02 Q1024=
201812211300 METAR LRSB 211300Z VRB02KT 5000 BR SCT081 M01/M02 Q1023=
201812211330 METAR LRSB 211330Z 25004KT 5000 BR SCT068 M02/M03 Q1023=
201812211400 METAR LRSB 211400Z 00000KT 5000 BR BKN088 M01/M02 Q1023=
201812211430 METAR LRSB 211430Z 15002KT 4000 BR SCT067 BKN084 M02/M03
                        Q1023=
201812211500 METAR LRSB 211500Z 10002KT 4000 BR SCT049 BKN064 M02/M03
                        Q1023=
201812211530 METAR LRSB 211530Z VRB01KT 4000 BR BKN048 M01/M02 Q1023=
201812211600 METAR LRSB 211600Z VRB02KT 4000 BR OVC046 M01/M02 Q1023=
201812211630 METAR LRSB 211630Z 11002KT 4000 BR SCT046 BKN059 M02/M03
                        Q1023=
201812211700 METAR LRSB 211700Z AUTO 17003KT 3500 BR SCT042/// BKN054///
                        M02/M03 Q1023=
201812211730 METAR LRSB 211730Z VRB02KT 3000 BR SCT044 BKN054 M03/M04
                        Q1023=
201812211800 METAR LRSB 211800Z 10004KT 2700 BR SCT044 BKN055 M03/M04
                        Q1022=
201812211830 METAR LRSB 211830Z VRB02KT 1500 BR FEW044 SCT055 M04/M05
                        Q1022=
201812211900 METAR COR LRSB 211900Z VRB01KT 1000 0250SE R27/0800N BCFG
                        BR FEW055 M05/M06 Q1021=
201812211930 METAR LRSB 211930Z 24002KT 0150 R27/0200N FZFG NSC M07/M08
                        Q1021=
201812212000 METAR LRSB 212000Z 20003KT 160V220 0150 R27/0200N FZFG NSC
                        M06/M07 Q1021=
201812212030 METAR LRSB 212030Z 18003KT 120V260 0250 R27/0275N FZFG NSC
                        M06/M07 Q1021=
201812212100 METAR LRSB 212100Z VRB01KT 0250 R27/0275N FZFG NSC M07/M08
                        Q1020=
201812212130 METAR LRSB 212130Z VRB01KT 0300 R27/0350N FZFG NSC M06/M06
                        Q1020=
201812212200 METAR LRSB 212200Z VRB02KT 0300 R27/0375N FZFG NSC M04/M05
                        Q1020=
201812212230 METAR LRSB 212230Z VRB01KT 0400 R27/0500U FZFG NSC M04/M04
                        Q1019=
201812212300 METAR LRSB 212300Z 20003KT 170V230 0500 R27/0700D FZFG FEW002
                        M05/M06 Q1019=
201812212330 METAR LRSB 212330Z 22004KT 0650 R27/1000U FZFG FEW002 M05/M05
                        Q1019=
201812220000 METAR LRSB 220000Z 22003KT 1500 BR NSC M04/M05 Q1019=
201812220030 METAR LRSB 220030Z AUTO 16003KT 110V250 2400 SCT130/// M05/M05
                        Q1019=
201812220100 METAR LRSB 220100Z 09004KT 070V150 3000 BR FEW005 M04/M05
                        Q1018=
201812220130 METAR LRSB 220130Z AUTO VRB02KT 3500 BR FEW130/// M05/M06
                        Q1018=
201812220200 METAR LRSB 220200Z AUTO VRB02KT 2700 BR BKN049/// M05/M05
                        Q1017=
201812220230 METAR LRSB 220230Z VRB01KT 2000 BR SCT047 SCT057 M04/M05
                        Q1017=
201812220300 METAR LRSB 220300Z VRB02KT 4000 BR SCT044 SCT055 M03/M03
                        Q1017=
201812220330 METAR COR LRSB 220330Z VRB01KT 4000 BR BKN040 M02/M03 Q1017=
201812220400 METAR COR LRSB 220400Z VRB02KT 3500 BR SCT037 SCT050 M03/M04
                        Q1016=
201812220430 METAR COR LRSB 220430Z 10006KT 5000 BR SCT040 M01/M02 Q1016=
201812220500 METAR LRSB 220500Z 04005KT 020V080 5000 BR FEW040 SCT082
                        M01/M02 Q1017=
201812220530 METAR LRSB 220530Z VRB02KT 4500 BR FEW042 SCT082 M02/M03
                        Q1016=
201812220600 METAR LRSB 220600Z VRB02KT 7000 FEW040 M02/M03 Q1016=
201812220630 METAR LRSB 220630Z 10007KT 7000 FEW039 M01/M02 Q1016=
201812220700 METAR LRSB 220700Z 10003KT 8000 FEW037 M02/M02 Q1016=
201812220730 METAR LRSB 220730Z 13006KT 100V180 8000 FEW034 M00/M01 Q1016=
201812220800 METAR LRSB 220800Z 10005KT 9000 FEW032 SCT053 01/M01 Q1016=
201812220830 METAR LRSB 220830Z 04005KT 300V070 9999 SCT030 SCT050 05/03
                        Q1016=
201812220900 METAR LRSB 220900Z VRB02KT 9999 SCT031 SCT050 04/01 Q1016=
201812220930 METAR LRSB 220930Z 10005KT 080V150 9999 SCT030 BKN046 02/00
                        Q1016 R27/15//95=
201812221000 METAR LRSB 221000Z VRB04KT 9999 SCT028 BKN044 06/03 Q1016
                        R27/15//95=
201812221030 METAR LRSB 221030Z 25006KT 220V280 9999 FEW030 SCT046 07/03
                        Q1015 R27/15//95=
201812221100 METAR LRSB 221100Z 28008KT 9999 FEW028 SCT045 BKN072 07/03
                        Q1015 R27/15//95=
201812221130 METAR LRSB 221130Z 32006KT 280V360 9999 SCT026 BKN044 07/03
                        Q1015 R27/15//95=
201812221200 METAR LRSB 221200Z 28004KT 9999 SCT029 SCT045 BKN070 06/02
                        Q1015 R27/15//95=
201812221230 METAR LRSB 221230Z 29005KT 260V340 9999 SCT030 SCT043 BKN070
                        07/03 Q1014 R27/15//95=
201812221300 METAR LRSB 221300Z 28009KT 9999 SCT033 BKN046 07/03 Q1014
                        R27/15//95=
201812221330 METAR LRSB 221330Z 26009KT 220V290 9999 BKN031 BKN045 08/03
                        Q1015 R27/15//95=
201812221400 METAR LRSB 221400Z 28010KT 9999 BKN028 BKN043 07/03 Q1015
                        R27/15//95=
201812221430 METAR LRSB 221430Z 28009KT 9999 BKN030 BKN043 07/03 Q1014
                        R27/15//95=
201812221500 METAR LRSB 221500Z 30007KT 9999 BKN030 BKN044 07/03 Q1014
                        R27/15//95=
201812221530 METAR LRSB 221530Z 32006KT 290V350 9999 BKN032 BKN044 07/03
                        Q1014 R27/15//95=
201812221600 METAR LRSB 221600Z 33004KT 240V020 9999 -RA BKN030 OVC040
                        07/03 Q1014 R27/15//95=
201812221630 METAR LRSB 221630Z 02003KT 270V070 9999 FEW028 BKN040 BKN080
                        06/03 Q1014 R27/29//95=
201812221700 METAR COR LRSB 221700Z 01004KT 9999 SCT036 BKN050 05/02 Q1014
                        RERA R27/29//95=
201812221730 METAR LRSB 221730Z 34006KT 9999 BKN031 05/03 Q1015 REDZ R27/29//95=
201812221800 METAR LRSB 221800Z VRB02KT 9999 BKN027 04/02 Q1014 REUP R27/29//95=
201812221830 METAR LRSB 221830Z 34005KT 9999 BKN029 05/03 Q1014 R27/29//95=
201812221900 METAR LRSB 221900Z 32008KT 9999 SCT030 BKN038 06/03 Q1015
                        R27/29//95=
201812221930 METAR LRSB 221930Z 29005KT 230V320 9999 BKN032 05/03 Q1014
                        R27/29//95=
201812222000 METAR LRSB 222000Z 10005KT 9999 FEW038 SCT059 04/02 Q1014
                        R27/29//95=
201812222030 METAR LRSB 222030Z 23005KT 190V270 9999 SCT037 05/03 Q1014
                        R27/29//95=
201812222100 METAR LRSB 222100Z 28009KT 9999 SCT088 07/02 Q1014 R27/29//95=
201812222130 METAR LRSB 222130Z 29016KT 9999 BKN034 07/02 Q1014 R27/29//95=
201812222200 METAR LRSB 222200Z 30015KT 9999 BKN032 07/03 Q1014 R27/29//95=
201812222230 METAR LRSB 222230Z 29010KT 9999 BKN035 07/02 Q1014 R27/29//95=
201812222300 METAR LRSB 222300Z 30009KT 270V340 9999 SCT038 08/02 Q1013
                        R27/CLRD//=
201812222330 METAR LRSB 222330Z 29011KT 9999 SCT037 08/02 Q1013=
201812230000 METAR LRSB 230000Z 29016KT CAVOK 08/02 Q1013=
201812230030 METAR LRSB 230030Z 28015KT CAVOK 07/02 Q1013=
201812230100 METAR LRSB 230100Z 29024KT CAVOK 07/03 Q1013=
201812230130 METAR LRSB 230130Z AUTO 29021KT 9999 NCD 07/02 Q1013=
201812230200 METAR LRSB 230200Z 29026KT CAVOK 07/02 Q1013=
201812230230 METAR LRSB 230230Z 30021KT 9999 SCT030 07/02 Q1014=
201812230300 METAR LRSB 230300Z 30019G32KT 9999 BKN030 07/02 Q1014=
201812230330 METAR LRSB 230330Z 30017KT 9999 BKN033 07/02 Q1015=
201812230400 METAR LRSB 230400Z 29019KT 9999 OVC032 06/02 Q1015=
201812230430 METAR LRSB 230430Z 27024KT 9999 BKN031 06/01 Q1015=
201812230500 METAR LRSB 230500Z 27020KT 9999 SCT060 06/01 Q1016=
201812230530 METAR LRSB 230530Z 28018KT 9999 BKN051 06/01 Q1016=
201812230600 METAR LRSB 230600Z 27011KT 9999 BKN047 05/01 Q1017=
201812230630 METAR LRSB 230630Z 28014KT 9999 BKN046 06/01 Q1017=
201812230700 METAR LRSB 230700Z 28016KT 9999 BKN050 06/01 Q1017=
201812230730 METAR LRSB 230730Z 28012KT 9999 BKN035 06/02 Q1018=
201812230800 METAR LRSB 230800Z 28013KT 9999 BKN035 06/01 Q1018=
201812230830 METAR LRSB 230830Z 27017KT 9999 BKN040 06/02 Q1018=
201812230900 METAR LRSB 230900Z 27012KT 9999 BKN037 06/02 Q1018=
201812230930 METAR LRSB 230930Z 29013KT 9999 BKN035 06/02 Q1018=
201812231000 METAR LRSB 231000Z 28010KT 9999 -RA OVC037 06/02 Q1018 R27/19//95=
201812231030 METAR LRSB 231030Z 30012KT 9999 -RA OVC032 06/03 Q1018 R27/19//95=
201812231100 METAR LRSB 231100Z 31009KT 9999 -RA OVC034 06/03 Q1018 R27/29//95=
201812231130 METAR LRSB 231130Z 29011KT 9999 -RA OVC040 06/03 Q1018 R27/29//95=
201812231200 METAR LRSB 231200Z 29011KT 9999 OVC040 06/03 Q1018 R27/29//95=
201812231230 METAR LRSB 231230Z 29012KT 9999 BKN040 06/02 Q1018 R27/29//95=
201812231300 METAR LRSB 231300Z 29010KT 9999 BKN040 07/03 Q1018 R27/29//95=
201812231330 METAR LRSB 231330Z 28014KT 9999 BKN040 07/02 Q1018 R27/29//95=
201812231400 METAR LRSB 231400Z 29012KT 9999 BKN040 06/02 Q1019 R27/29//95=
201812231430 METAR LRSB 231430Z 29010KT 9999 BKN040 06/02 Q1019 R27/29//95=
201812231500 METAR LRSB 231500Z 29012KT 9999 BKN040 06/02 Q1019 R27/19//95=
201812231530 METAR LRSB 231530Z 28013KT 9999 BKN040 06/01 Q1019 R27/19//95=
201812231600 METAR LRSB 231600Z 28012KT 9999 BKN050 06/01 Q1019 R27/19//95=
201812231630 METAR LRSB 231630Z 29006KT 9999 SCT030 BKN060 05/01 Q1019
                        R27/19//95=
201812231700 METAR LRSB 231700Z 28010KT 9999 FEW035 BKN060 06/02 Q1019
                        R27/19//95=
201812231730 METAR LRSB 231730Z 29010KT 9999 FEW032 BKN060 06/01 Q1019
                        R27/19//95=
201812231800 METAR LRSB 231800Z 31007KT 9999 FEW032 BKN061 06/02 Q1019
                        R27/19//95=
201812231830 METAR LRSB 231830Z 29007KT 9999 FEW029 SCT050 BKN059 06/02
                        Q1019 R27/19//95=
201812231900 METAR LRSB 231900Z 30006KT 9999 FEW030 SCT053 BKN061 05/02
                        Q1019 R27/19//95=
201812231930 METAR LRSB 231930Z 31009KT 9999 FEW034 BKN062 05/02 Q1019
                        R27/19//95=
201812232000 METAR LRSB 232000Z 31009KT 9999 FEW037 SCT062 05/02 Q1019
                        R27/19//95=
201812232030 METAR LRSB 232030Z 29010KT 9999 FEW036 05/01 Q1019 R27/19//95=
201812232100 METAR LRSB 232100Z 22004KT 180V290 9999 FEW056 03/01 Q1018
                        R27/19//95=
201812232130 METAR LRSB 232130Z 19004KT 160V270 CAVOK 03/01 Q1018 R27/19//95=
201812232200 METAR LRSB 232200Z VRB01KT CAVOK 03/01 Q1018 R27/19//95=
201812232230 METAR LRSB 232230Z VRB02KT 9999 FEW085 03/01 Q1017 R27/19//95=
201812232300 METAR LRSB 232300Z VRB02KT CAVOK 02/01 Q1017 R27/CLRD//=
201812232330 METAR LRSB 232330Z 34004KT 310V010 9999 FEW080 02/00 Q1017=
201812240000 METAR LRSB 240000Z 19003KT 160V220 9000 FEW040 SCT080 01/M00
                        Q1017=
201812240030 METAR LRSB 240030Z 18003KT 160V220 9999 FEW040 SCT080 02/00
                        Q1017=
201812240100 METAR LRSB 240100Z VRB03KT 9999 BKN085 02/00 Q1016=
201812240130 METAR LRSB 240130Z 11004KT 9999 BKN078 02/00 Q1015=
201812240200 METAR LRSB 240200Z 09005KT 9999 BKN070 02/00 Q1014=
201812240230 METAR LRSB 240230Z 03003KT 360V070 9999 SCT070 SCT087 02/00
                        Q1013=
201812240300 METAR LRSB 240300Z 00000KT 9000 BKN072 01/M00 Q1012=
201812240330 METAR LRSB 240330Z 07002KT 9999 BKN069 02/00 Q1011=
201812240400 METAR LRSB 240400Z VRB02KT 9999 BKN065 01/00 Q1010=
201812240430 METAR LRSB 240430Z VRB01KT 9999 BKN065 01/00 Q1010=
201812240500 METAR LRSB 240500Z VRB01KT 9999 -RA FEW045 SCT057 OVC062
                        02/00 Q1009=
201812240530 METAR LRSB 240530Z VRB02KT 9999 FEW035 SCT045 BKN055 02/00
                        Q1008=
201812240600 METAR LRSB 240600Z VRB02KT 9999 SCT048 BKN056 02/00 Q1007=
201812240630 METAR LRSB 240630Z VRB03KT 9999 BKN044 SCT054 03/01 Q1006=
201812240700 METAR LRSB 240700Z 14003KT 9999 -RA BKN042 SCT054 04/01 Q1006=
201812240730 METAR LRSB 240730Z VRB02KT 9999 BKN042 03/01 Q1005 R27/19//95=
201812240800 METAR LRSB 240800Z 05003KT 9999 -RA BKN044 06/02 Q1004 R27/19//95=
201812240830 METAR LRSB 240830Z 26005KT 6000 -RA BKN042 03/02 Q1005 R27/29//95=
201812240900 METAR LRSB 240900Z VRB02KT 7000 -RA BKN040 04/02 Q1004 R27/29//95=
201812240930 METAR LRSB 240930Z VRB02KT 9999 -RA BKN045 04/02 Q1002 R27/29//95=
201812241000 METAR LRSB 241000Z 08003KT 360V130 9999 BKN045 05/03 Q1002
                        R27/29//95=
201812241030 METAR LRSB 241030Z VRB02KT 9999 -RA BKN042 05/03 Q1001 R27/29//95=
201812241100 METAR LRSB 241100Z VRB01KT 9999 -RA FEW038 BKN045 06/04 Q1001
                        R27/29//95=
201812241130 METAR LRSB 241130Z 03004KT 9999 -RA FEW035 BKN045 06/04 Q1001
                        R27/29//95=
201812241200 METAR LRSB 241200Z VRB02KT 8000 -RA FEW034 BKN045 06/04 Q1000
                        R27/29//95=
201812241230 METAR LRSB 241230Z 30018KT 9000 -RA FEW025 SCT033 BKN047
                        08/06 Q1001 R27/29//95=
201812241300 METAR LRSB 241300Z 29021KT 8000 -RA FEW025 BKN036 07/05 Q1002
                        R27/29//95=
201812241330 METAR LRSB 241330Z 30017KT 7000 RA FEW025 BKN036 07/04 Q1003
                        R27/29//95=
201812241400 METAR LRSB 241400Z 29018KT 9000 -RA SCT023 SCT033 05/03 Q1004
                        RERA R27/29//95=
201812241430 METAR LRSB 241430Z 35014KT 5000 RA BR SCT012 OVC033 02/01
                        Q1005 R27/29//95=
201812241500 METAR LRSB 241500Z 34012KT 4000 RA BR FEW005 SCT010 OVC030
                        02/01 Q1006 R27/29//95=
201812241530 METAR LRSB 241530Z 33012KT 7000 -RA FEW008 SCT012 OVC030
                        03/01 Q1007 RERA R27/29//95=
201812241600 METAR LRSB 241600Z 33008KT 8000 -RA SCT010 OVC029 03/01 Q1007
                        R27/29//95=
201812241630 METAR LRSB 241630Z 33006KT 7000 -RA SCT010 OVC027 03/01 Q1008
                        R27/29//95=
201812241700 METAR LRSB 241700Z 33011KT 7000 -RA SCT010 OVC025 03/01 Q1009
                        R27/29//95=
201812241730 METAR LRSB 241730Z 32011KT 9999 -RA FEW009 OVC025 03/01 Q1010
                        R27/29//95=
201812241800 METAR COR LRSB 241800Z 33010KT 9999 -RA FEW010 OVC025 03/02
                        Q1010 R27/29//95=
201812241830 METAR LRSB 241830Z 35014KT 9999 SCT012 OVC020 02/M01 Q1011
                        R27/29//95=
201812241900 METAR LRSB 241900Z 35012KT 9999 FEW010 OVC020 02/M01 Q1013
                        R27/29//95=
201812241930 METAR LRSB 241930Z 36012KT 9999 OVC025 01/M02 Q1014 R27/29//95=
201812242000 METAR LRSB 242000Z 34008KT 9999 OVC030 01/M03 Q1014 R27/29//95=
201812242030 METAR LRSB 242030Z 34007KT 9999 OVC040 01/M04 Q1015 R27/29//95=
201812242100 METAR LRSB 242100Z 35006KT 9999 OVC050 01/M04 Q1015 R27/29//95=
201812242130 METAR LRSB 242130Z 01006KT 340V040 9999 BKN030 00/M04 Q1016
                        R27/29//95=
201812242200 METAR LRSB 242200Z 35008KT 310V010 9999 FEW017 SCT030 00/M03
                        Q1016 R27/29//95=
201812242230 METAR LRSB 242230Z 32008KT 9999 BKN040 00/M03 Q1016 R27/19//95=
201812242300 METAR LRSB 242300Z 32006KT 9999 BKN040 M00/M03 Q1016 R27/19//95=
201812242330 METAR LRSB 242330Z 31008KT 9999 SCT042 M01/M05 Q1017 R27/19//95=
201812250000 METAR LRSB 250000Z AUTO 32005KT 9999 FEW078/// M01/M05 Q1018=
201812250030 METAR LRSB 250030Z 31010KT 9999 FEW050 M01/M06 Q1018 R27/19//95=
201812250100 METAR LRSB 250100Z 32010KT 9999 SCT070 M01/M06 Q1018 R27/19//95=
201812250130 METAR LRSB 250130Z 30006KT 9999 FEW070 M02/M06 Q1018 R27/19//95=
201812250200 METAR LRSB 250200Z 30006KT 9999 FEW040 M02/M05 Q1018 R27/19//95=
201812250230 METAR LRSB 250230Z 31007KT 9999 BKN040 M01/M05 Q1019 R27/19//95=
201812250300 METAR LRSB 250300Z 30007KT 9999 BKN040 M01/M06 Q1019 R27/19//95=
201812250330 METAR LRSB 250330Z 32008KT 9999 OVC040 M01/M06 Q1019 R27/CLRD//=
201812250400 METAR LRSB 250400Z 34006KT 9999 OVC040 M01/M05 Q1019=
201812250430 METAR LRSB 250430Z 30012KT 9999 OVC040 M01/M06 Q1020=
201812250500 METAR LRSB 250500Z 30010KT 9999 OVC035 M01/M06 Q1020=
201812250530 METAR LRSB 250530Z 30007KT 9999 BKN025 M01/M06 Q1020=
201812250600 METAR LRSB 250600Z 30006KT 9999 BKN040 M01/M06 Q1021=
201812250630 METAR LRSB 250630Z 30011KT 9999 OVC063 M01/M06 Q1020=
201812250700 METAR LRSB 250700Z 30013KT 9999 SCT042 M01/M06 Q1021=
201812250730 METAR LRSB 250730Z 30012KT 9999 SCT043 M02/M06 Q1021=
201812250800 METAR LRSB 250800Z 29012KT 9999 SCT062 M01/M06 Q1021=
201812250830 METAR LRSB 250830Z 29009KT 9999 BKN057 M01/M06 Q1021=
201812250900 METAR LRSB 250900Z 30009KT 9999 OVC056 M01/M06 Q1021=
201812250930 METAR LRSB 250930Z 30011KT 9999 OVC055 M01/M06 Q1022=
201812251000 METAR LRSB 251000Z 30009KT 9999 FEW036 BKN053 M01/M07 Q1021=
201812251030 METAR LRSB 251030Z 30009KT 9999 FEW036 BKN052 M00/M06 Q1021=
201812251100 METAR LRSB 251100Z 31008KT 9999 BKN042 M00/M07 Q1021=
201812251130 METAR LRSB 251130Z 32007KT 9999 BKN045 M00/M06 Q1021=
201812251200 METAR LRSB 251200Z 29012KT 9999 FEW033 BKN052 M00/M07 Q1021=
201812251230 METAR LRSB 251230Z 28012KT 9999 OVC056 M00/M07 Q1021=
201812251300 METAR LRSB 251300Z 29010KT 9999 OVC056 M00/M07 Q1022=
201812251330 METAR LRSB 251330Z 29012KT 9999 SCT038 OVC048 M00/M07 Q1022=
201812251400 METAR LRSB 251400Z 29012KT 9999 OVC049 M01/M07 Q1022=
201812251430 METAR LRSB 251430Z 30014KT 9999 OVC052 M01/M07 Q1022=
201812251500 METAR LRSB 251500Z 31012KT 9999 BKN035 OVC047 M01/M07 Q1022=
201812251530 METAR LRSB 251530Z 30012KT 9999 SCT033 BKN053 M01/M06 Q1023=
201812251600 METAR LRSB 251600Z 29011KT 9999 BKN046 BKN058 M01/M06 Q1023=
201812251630 METAR LRSB 251630Z 27010KT 9999 OVC051 M01/M06 Q1023=
201812251700 METAR LRSB 251700Z 27006KT 9999 SCT042 BKN053 M01/M06 Q1023=
201812251730 METAR LRSB 251730Z 30007KT 9999 BKN040 SCT050 M01/M07 Q1024=
201812251800 METAR LRSB 251800Z 31010KT 9999 -SN FEW033 BKN040 M02/M06
                        Q1024=
201812251830 METAR LRSB 251830Z 30007KT 9999 -SN FEW034 SCT040 BKN060
                        M02/M05 Q1024=
201812251900 METAR LRSB 251900Z 31003KT 9999 FEW034 SCT040 BKN060 M02/M05
                        Q1024=
201812251930 METAR LRSB 251930Z 15002KT 9999 SCT043 OVC060 M02/M05 Q1024=
201812252000 METAR LRSB 252000Z 22003KT 140V260 9999 SCT042 OVC058 M01/M06
                        Q1024=
201812252030 METAR LRSB 252030Z 27003KT 220V310 9999 SCT045 OVC060 M01/M06
                        Q1024=
201812252100 METAR LRSB 252100Z 28011KT 9999 FEW044 OVC060 M01/M06 Q1024=
201812252130 METAR LRSB 252130Z 29011KT 9999 OVC059 M01/M06 Q1024=
201812252200 METAR LRSB 252200Z 28012KT 9999 OVC056 M01/M06 Q1024=
201812252230 METAR LRSB 252230Z 29008KT 9999 FEW040 OVC052 M01/M07 Q1024=
201812252300 METAR LRSB 252300Z 28007KT 9999 SCT040 BKN052 M01/M07 Q1024=
201812252330 METAR LRSB 252330Z 29010KT 9999 BKN040 SCT050 M01/M07 Q1024=
201812260000 METAR LRSB 260000Z AUTO 29010KT 9999 OVC040/// M01/M07 Q1024=
201812260030 METAR LRSB 260030Z 29008KT 9999 BKN040 SCT050 M01/M07 Q1024=
201812260100 METAR LRSB 260100Z AUTO 30008KT 9999 OVC040/// M01/M07 Q1024=
201812260130 METAR COR LRSB 260130Z 33005KT 9999 OVC038 M01/M07 Q1024=
201812260200 METAR LRSB 260200Z 33002KT 9999 OVC038 M01/M07 Q1024=
201812260230 METAR COR LRSB 260230Z 30005KT 9999 OVC036 M00/M06 Q1024=
201812260300 METAR COR LRSB 260300Z VRB02KT 9999 OVC040 M01/M06 Q1023=
201812260330 METAR LRSB 260330Z 11003KT 9999 OVC040 M01/M05 Q1023=
201812260400 METAR LRSB 260400Z 16004KT 9999 OVC038 M01/M06 Q1024=
201812260430 METAR LRSB 260430Z 15003KT 120V180 9999 OVC036 M01/M06 Q1024=
201812260500 METAR LRSB 260500Z 14003KT 9999 OVC037 M01/M06 Q1023=
201812260530 METAR LRSB 260530Z 14003KT 9999 OVC035 M01/M05 Q1023=
201812260600 METAR LRSB 260600Z 15004KT 9999 OVC034 M01/M05 Q1023=
201812260630 METAR LRSB 260630Z VRB02KT 9999 -SN OVC036 M01/M05 Q1024=
201812260700 METAR LRSB 260700Z 15003KT 9999 -SN FEW028 OVC036 M01/M05
                        Q1024=
201812260730 METAR LRSB 260730Z 14002KT 9999 FEW027 OVC035 M01/M04 Q1024=
201812260800 METAR LRSB 260800Z 14002KT 9999 -SN FEW025 OVC032 M01/M04
                        Q1024=
201812260830 METAR LRSB 260830Z 12002KT 9999 SCT024 BKN030 M00/M04 Q1024=
201812260900 METAR LRSB 260900Z 12002KT 9999 SCT023 BKN029 M00/M04 Q1024=
201812260930 METAR LRSB 260930Z 12003KT 9999 FEW025 OVC032 00/M04 Q1024=
201812261000 METAR LRSB 261000Z VRB02KT 9999 FEW025 OVC031 00/M04 Q1023=
201812261030 METAR LRSB 261030Z VRB01KT 9999 FEW024 OVC030 01/M04 Q1023=
201812261100 METAR LRSB 261100Z 12003KT 9999 SCT024 OVC031 01/M03 Q1023=
201812261130 METAR LRSB 261130Z 12003KT 9999 FEW025 BKN031 OVC037 01/M03
                        Q1022=
201812261200 METAR LRSB 261200Z VRB02KT 9999 FEW026 BKN031 OVC037 01/M03
                        Q1022=
201812261230 METAR LRSB 261230Z 27008KT 240V310 9999 FEW028 SCT036 BKN052
                        02/M02 Q1022=
201812261300 METAR LRSB 261300Z 30012KT 9999 FEW030 SCT052 BKN060 02/M01
                        Q1022=
201812261330 METAR LRSB 261330Z 30011KT 9999 FEW028 BKN048 OVC058 02/M02
                        Q1022=
201812261400 METAR LRSB 261400Z 31009KT 9999 FEW028 BKN045 OVC054 02/M02
                        Q1022=
201812261430 METAR LRSB 261430Z 30011KT 9999 FEW027 BKN043 OVC050 01/M02
                        Q1022=
201812261500 METAR LRSB 261500Z 31010KT 9999 BKN043 BKN050 01/M02 Q1022=
201812261530 METAR LRSB 261530Z 30011KT 9999 BKN042 BKN052 01/M02 Q1022=
201812261600 METAR LRSB 261600Z 30012KT 9999 BKN041 BKN052 01/M02 Q1022=
201812261630 METAR LRSB 261630Z 29015KT 9999 BKN040 BKN050 01/M02 Q1022=
201812261700 METAR LRSB 261700Z 29015KT 9999 OVC036 01/M02 Q1022=
201812261730 METAR LRSB 261730Z 30012KT 9999 OVC036 01/M02 Q1022=
201812261800 METAR LRSB 261800Z 30011KT 9999 SCT037 BKN047 01/M02 Q1022=
201812261830 METAR LRSB 261830Z 30012KT 9999 OVC049 01/M02 Q1021=
201812261900 METAR LRSB 261900Z 29013KT 9999 OVC051 02/M03 Q1021=
201812261930 METAR LRSB 261930Z 29014KT 9999 OVC055 02/M03 Q1021=
201812262000 METAR LRSB 262000Z 29014KT 9999 OVC054 02/M03 Q1021=
201812262030 METAR LRSB 262030Z 29013KT 9999 BKN043 BKN054 02/M03 Q1021=
201812262100 METAR LRSB 262100Z 29014KT 9999 OVC043 02/M03 Q1021=
201812262130 METAR LRSB 262130Z 29017KT 9999 OVC041 02/M03 Q1021=
201812262200 METAR LRSB 262200Z 29013KT 9999 OVC041 02/M04 Q1021=
201812262230 METAR LRSB 262230Z 27010KT 9999 OVC042 02/M03 Q1021=
201812262300 METAR LRSB 262300Z 27009KT 9999 OVC046 02/M03 Q1021=
201812262330 METAR LRSB 262330Z 28008KT 9999 OVC043 02/M03 Q1022=
201812270000 METAR LRSB 270000Z 29006KT 9999 OVC040 02/M03 Q1022=
201812270030 METAR LRSB 270030Z 07003KT 010V100 9999 OVC036 01/M03 Q1022=
201812270100 METAR LRSB 270100Z 01004KT 9999 OVC032 02/M03 Q1022=
201812270130 METAR LRSB 270130Z AUTO 30008KT 9999 BKN027/// SCT045///
                        02/M03 Q1022=
201812270200 METAR COR LRSB 270200Z 32006KT 9999 OVC027 02/M02 Q1022=
201812270230 METAR LRSB 270230Z 32006KT 9999 OVC027 02/M02 Q1022=
201812270300 METAR LRSB 270300Z 31007KT 9999 BKN028 02/M02 Q1022=
201812270330 METAR LRSB 270330Z 31005KT 9999 SCT029 BKN038 02/M02 Q1022=
201812270400 METAR LRSB 270400Z 00000KT 9999 BKN027 01/M02 Q1023=
201812270430 METAR LRSB 270430Z VRB01KT 9999 OVC027 01/M02 Q1023=
201812270500 METAR LRSB 270500Z VRB02KT 9999 BKN024 01/M02 Q1023=
201812270530 METAR LRSB 270530Z VRB01KT 9999 FEW025 SCT033 BKN042 01/M02
                        Q1023=
201812270600 METAR LRSB 270600Z VRB02KT 9999 BKN026 01/M02 Q1024=
201812270630 METAR LRSB 270630Z AUTO 04001KT 9999 BKN025/// 01/M02 Q1024=
201812270700 METAR LRSB 270700Z 00000KT 9999 OVC025 01/M01 Q1024=
201812270730 METAR COR LRSB 270730Z VRB02KT 9999 OVC026 01/M01 Q1024=
201812270800 METAR LRSB 270800Z VRB01KT 9999 OVC026 02/M01 Q1024=
201812270830 METAR LRSB 270830Z 13002KT 9999 OVC028 02/M01 Q1024=
201812270900 METAR COR LRSB 270900Z VRB02KT 9999 OVC031 02/M01 Q1024=
201812270930 METAR COR LRSB 270930Z 31005KT 280V010 9999 OVC031 03/M02
                        Q1024=
201812271000 METAR LRSB 271000Z 14003KT 9999 OVC032 03/M01 Q1024=
201812271030 METAR LRSB 271030Z 15003KT 9999 OVC034 02/M01 Q1024=
201812271100 METAR LRSB 271100Z 11002KT 9999 OVC035 02/M02 Q1024=
201812271130 METAR LRSB 271130Z 14003KT 9999 OVC034 02/M01 Q1024=
201812271200 METAR LRSB 271200Z 15003KT 9999 OVC033 03/M01 Q1024=
201812271230 METAR LRSB 271230Z 14003KT 9999 OVC034 03/M01 Q1024=
201812271300 METAR LRSB 271300Z 18003KT 9999 OVC032 03/M01 Q1024=
201812271330 METAR LRSB 271330Z VRB02KT 9999 OVC033 03/M01 Q1024=
201812271400 METAR LRSB 271400Z 15003KT 9999 OVC036 02/M02 Q1024=
201812271430 METAR LRSB 271430Z VRB02KT 9999 BKN033 02/M02 Q1024=
201812271500 METAR LRSB 271500Z 06003KT 9999 BKN033 02/M02 Q1024=
201812271530 METAR LRSB 271530Z VRB01KT 9999 BKN035 02/M02 Q1024=
201812271600 METAR LRSB 271600Z 13003KT 9999 BKN036 02/M01 Q1024=
201812271630 METAR LRSB 271630Z 25003KT 9999 BKN036 02/M02 Q1023=
201812271700 METAR LRSB 271700Z VRB02KT 9999 SCT040 02/M02 Q1023=
201812271730 METAR LRSB 271730Z 13003KT 9999 FEW040 BKN084 01/M01 Q1023=
201812271800 METAR LRSB 271800Z 07003KT 9999 FEW055 OVC085 01/M02 Q1024=
201812271830 METAR LRSB 271830Z 00000KT 9999 SCT054 OVC080 01/M02 Q1023=
201812271900 METAR LRSB 271900Z 04002KT 9999 BKN054 OVC077 02/M02 Q1023=
201812271930 METAR LRSB 271930Z VRB01KT 9999 OVC052 01/M01 Q1023=
201812272000 METAR LRSB 272000Z VRB01KT 9999 FEW045 OVC052 01/M01 Q1023=
201812272030 METAR LRSB 272030Z 25002KT 9999 FEW045 BKN055 OVC070 01/M01
                        Q1023=
201812272100 METAR LRSB 272100Z 34002KT 9999 BKN056 OVC070 01/M01 Q1023=
201812272130 METAR LRSB 272130Z 34004KT 9999 SCT053 BKN074 01/M01 Q1023=
201812272200 METAR LRSB 272200Z VRB01KT 9999 BKN049 BKN072 01/M01 Q1023=
201812272230 METAR LRSB 272230Z 30002KT 8000 FEW047 BKN070 00/M02 Q1023=
201812272300 METAR LRSB 272300Z 22002KT 7000 BKN074 00/M01 Q1022=
201812272330 METAR LRSB 272330Z VRB01KT 8000 BKN074 00/M01 Q1022=
201812280000 METAR LRSB 280000Z 00000KT 8000 SCT076 M00/M01 Q1022=
201812280030 METAR LRSB 280030Z 00000KT 8000 SCT050 SCT072 M00/M02 Q1023=
201812280100 METAR LRSB 280100Z 23004KT 7000 BKN046 M00/M01 Q1022=
201812280130 METAR LRSB 280130Z 00000KT 7000 OVC045 00/M01 Q1022=
201812280200 METAR LRSB 280200Z 11003KT 7000 OVC044 00/M01 Q1022=
201812280230 METAR LRSB 280230Z 14004KT 7000 OVC045 01/M01 Q1022=
201812280300 METAR LRSB 280300Z VRB01KT 7000 FEW018 OVC043 01/M01 Q1022=
201812280330 METAR LRSB 280330Z 19002KT 7000 FEW016 BKN043 01/M01 Q1021=
201812280400 METAR LRSB 280400Z 00000KT 7000 FEW015 BKN034 OVC047 01/M01
                        Q1021=
201812280430 METAR LRSB 280430Z 00000KT 8000 FEW015 BKN033 OVC045 01/M01
                        Q1021=
201812280500 METAR LRSB 280500Z 15002KT 7000 FEW015 BKN030 OVC042 01/M01
                        Q1021=
201812280530 METAR LRSB 280530Z 10001KT 7000 BKN028 BKN038 01/M01 Q1021=
201812280600 METAR LRSB 280600Z 13003KT 090V160 8000 SCT028 BKN038 01/M01
                        Q1021=
201812280630 METAR LRSB 280630Z VRB01KT 7000 SCT027 BKN040 01/M01 Q1021=
201812280700 METAR LRSB 280700Z VRB01KT 7000 SCT029 BKN042 01/M01 Q1021=
201812280730 METAR LRSB 280730Z 00000KT 8000 SCT023 BKN042 01/M01 Q1021=
201812280800 METAR LRSB 280800Z VRB01KT 9000 SCT024 BKN040 02/M01 Q1021=
201812280830 METAR LRSB 280830Z 06002KT 9999 FEW026 BKN040 02/M01 Q1021=
201812280900 METAR LRSB 280900Z 07003KT 9000 -RA SCT025 BKN037 03/M00
                        Q1021=
201812280930 METAR LRSB 280930Z 01002KT 8000 -RA FEW014 SCT023 BKN036
                        02/M00 Q1021=
201812281000 METAR LRSB 281000Z VRB02KT 6000 -RA FEW010 BKN022 OVC036
                        03/00 Q1021=
201812281030 METAR LRSB 281030Z VRB01KT 4000 -RA BR BKN010 OVC034 02/00
                        Q1020 R27/19//95=
201812281100 METAR LRSB 281100Z 15002KT 4000 -RA BR SCT010 OVC034 02/00
                        Q1020 R27/19//95=
201812281130 METAR LRSB 281130Z 14002KT 5000 -RA BR SCT010 OVC033 02/00
                        Q1020 R27/19//95=
201812281200 METAR LRSB 281200Z 15002KT 5000 -RA BR SCT010 OVC032 02/01
                        Q1020 R27/29//95=
201812281230 METAR LRSB 281230Z VRB02KT 6000 -RA SCT010 OVC032 02/01 Q1019
                        R27/29//95=
201812281300 METAR LRSB 281300Z 15002KT 6000 -RA SCT009 OVC030 02/01 Q1019
                        R27/29//95=
201812281330 METAR LRSB 281330Z 11001KT 6000 -RA BKN009 OVC030 02/01 Q1019
                        R27/29//95=
201812281400 METAR LRSB 281400Z VRB02KT 6000 -RA BKN009 OVC030 02/01 Q1019
                        R27/29//95=
201812281430 METAR LRSB 281430Z 12002KT 5000 -RA BR BKN009 OVC032 02/01
                        Q1019 R27/29//95=
201812281500 METAR LRSB 281500Z 14004KT 4000 -RA BR SCT010 OVC034 02/01
                        Q1019 R27/29//95=
201812281530 METAR LRSB 281530Z VRB02KT 4000 -RA BR SCT009 OVC034 02/01
                        Q1019 R27/29//95=
201812281600 METAR LRSB 281600Z 13003KT 4000 BR SCT009 BKN036 02/01 Q1019
                        R27/29//95=
201812281630 METAR LRSB 281630Z 15002KT 3500 BR BKN011 BKN036 02/01 Q1019
                        R27/29//95=
201812281700 METAR LRSB 281700Z VRB02KT 4500 BR BKN010 BKN040 02/01 Q1019
                        R27/29//95=
201812281730 METAR LRSB 281730Z 08003KT 4500 BR SCT011 BKN050 02/01 Q1019
                        R27/29//95=
201812281800 METAR LRSB 281800Z VRB02KT 4000 -RA BKN010 OVC030 02/01 Q1019
                        R27/29//95=
201812281830 METAR LRSB 281830Z VRB01KT 4000 -RA BKN010 OVC030 02/01 Q1019
                        R27/29//95=
201812281900 METAR LRSB 281900Z VRB01KT 4000 -RA BKN009 OVC030 02/01 Q1019
                        R27/29//95=
201812281930 METAR LRSB 281930Z 02004KT 3000 -RA BKN008 OVC030 02/01 Q1019
                        R27/29//95=
201812282000 METAR LRSB 282000Z 13002KT 3000 -RA SCT003 OVC030 01/00 Q1019
                        R27/29//95=
201812282030 METAR LRSB 282030Z 12003KT 1600 SN BR FEW001 SCT009 OVC030
                        00/M00 Q1019 R27/29//95=
201812282100 METAR LRSB 282100Z 15003KT 1200 R27/1400U SNRA BR BKN007
                        OVC030 00/M00 Q1019 R27/690493=
201812282130 METAR LRSB 282130Z 11004KT 3000 -SNRA BR BKN008 OVC028 00/M00
                        Q1019 R27/690493=
201812282200 METAR LRSB 282200Z 10003KT 3000 -SNRA BR BKN007 OVC028 00/M00
                        Q1019 R27/690493=
201812282230 METAR LRSB 282230Z 09001KT 4000 -SNRA BR BKN007 OVC030 01/M00
                        Q1019 R27/690294=
201812282300 METAR COR LRSB 282300Z VRB01KT 5000 -SN RA BKN008 OVC030
                        01/00 Q1019 R27/690294=
201812282330 METAR LRSB 282330Z 28003KT 5000 -SNRA BR BKN008 OVC030 01/00
                        Q1019 R27/690294=
201812290000 METAR LRSB 290000Z 23003KT 4000 -SNRA BR BKN008 OVC030 01/M00
                        Q1019 R27/690294=
201812290030 METAR LRSB 290030Z 24002KT 4000 -SNRA BKN008 OVC030 01/00
                        Q1020 R27/29//95=
201812290100 METAR LRSB 290100Z 27003KT 4000 -SNRA BR BKN008 OVC028 01/00
                        Q1020 R27/29//95=
201812290130 METAR LRSB 290130Z 30006KT 4000 -SNRA SCT010 OVC028 01/00
                        Q1020 R27/29//95=
201812290200 METAR COR LRSB 290200Z 25003KT 6000 -SNRA BKN010 OVC020 01/M00
                        Q1020 R27/29//95=
201812290230 METAR LRSB 290230Z 23004KT 6000 -RASN BKN010 OVC020 01/M00
                        Q1019 R27/29//95=
201812290300 METAR LRSB 290300Z 00000KT 8000 BKN010 OVC020 01/M00 Q1019
                        R27/29//95=
201812290330 METAR LRSB 290330Z VRB01KT 9999 SCT010 OVC020 01/00 Q1019
                        R27/29//95=
201812290400 METAR LRSB 290400Z VRB02KT 9999 SCT015 OVC020 01/00 Q1019
                        R27/29//95=
201812290430 METAR LRSB 290430Z 11002KT 9999 SCT015 OVC022 01/M00 Q1020
                        R27/29//95=
201812290500 METAR LRSB 290500Z 22001KT 6000 SCT005 OVC020 01/00 Q1020
                        R27/29//95=
201812290530 METAR LRSB 290530Z VRB01KT 6000 -RA SCT006 OVC020 01/M00
                        Q1020 R27/29//95=
201812290600 METAR LRSB 290600Z AUTO VRB01KT 7000 -RA FEW006/// SCT014///
                        01/00 Q1021=
201812290630 METAR LRSB 290630Z 14002KT 3000 1000E BCFG FEW003 SCT014
                        OVC020 01/M00 Q1021 R27/29//95 NOSIG=
201812290700 METAR LRSB 290700Z 12002KT 5000 2000NE BCFG BR FEW003 SCT016
                        OVC023 01/00 Q1021 R27/29//95 NOSIG=
201812290730 METAR LRSB 290730Z 00000KT 5000 BR FEW002 BKN019 BKN030 01/00
                        Q1021 R27/29//95 NOSIG=
201812290800 METAR LRSB 290800Z 00000KT 4500 2000N BCFG BR FEW003 BKN020
                        BKN030 01/00 Q1021 R27/29//95 NOSIG=
201812290830 METAR LRSB 290830Z 05003KT 4000 BR SCT004 BKN022 OVC030 01/00
                        Q1022 R27/29//95 NOSIG=
201812290900 METAR LRSB 290900Z VRB02KT 3500 BR SCT003 OVC022 01/00 Q1022
                        R27/29//95 NOSIG=
201812290930 METAR LRSB 290930Z 17004KT 2000 BR SCT001 SCT006 OVC023 01/00
                        Q1022 R27/29//95 TEMPO 1500 BR=
201812291000 METAR LRSB 291000Z 16002KT 3000 -RA BR SCT003 BKN025 OVC033
                        01/00 Q1022 R27/29//95 NOSIG=
201812291030 METAR LRSB 291030Z 35003KT 310V010 3000 -RA BR FEW006 SCT025
                        OVC032 01/00 Q1022 R27/29//95 NOSIG=
201812291100 METAR LRSB 291100Z VRB02KT 3500 -RASN BR FEW006 SCT026 OVC033
                        01/01 Q1022 R27/29//95 NOSIG=
201812291130 METAR LRSB 291130Z VRB01KT 3500 -RA BR FEW006 BKN028 OVC035
                        01/00 Q1022 R27/29//95 NOSIG=
201812291200 METAR LRSB 291200Z VRB01KT 3000 -RA BR FEW010 BKN028 OVC035
                        01/01 Q1022 R27/29//95 NOSIG=
201812291230 METAR LRSB 291230Z 12001KT 2000 -RA BR FEW015 SCT030 OVC050
                        01/00 Q1022 R27/29//95 NOSIG=
201812291300 METAR LRSB 291300Z NIL=
201812291330 METAR LRSB 291330Z 12002KT 2500 -RA BR FEW002 SCT010 OVC031
                        01/01 Q1023 R27/29//95 NOSIG=
201812291400 METAR LRSB 291400Z VRB02KT 2500 BR SCT010 SCT028 BKN033 01/01
                        Q1023 R27/29//95 NOSIG=
201812291430 METAR LRSB 291430Z 20003KT 3000 SCT010 SCT026 BKN033 01/01
                        Q1023 R27/29//95 NOSIG=
201812291500 METAR LRSB 291500Z 00000KT 3500 BR FEW005 BKN023 BKN046 01/01
                        Q1023 R27/29//95 NOSIG=
201812291530 METAR LRSB 291530Z VRB01KT 4500 BR FEW008 BKN021 BKN046 01/01
                        Q1023 R27/29//95 NOSIG=
201812291600 METAR LRSB 291600Z 00000KT 4500 BR FEW010 BKN021 BKN046 01/01
                        Q1024 R27/29//95 NOSIG=
201812291630 METAR LRSB 291630Z VRB01KT 3500 BR BKN021 BKN046 01/00 Q1024
                        R27/29//95 NOSIG=
201812291700 METAR LRSB 291700Z 11001KT 4000 BR BKN023 BKN046 01/01 Q1024
                        R27/29//95 NOSIG=
201812291730 METAR LRSB 291730Z 00000KT 4000 BR SCT024 BKN046 01/01 Q1024
                        R27/29//95 NOSIG=
201812291800 METAR LRSB 291800Z 00000KT 4000 BR SCT025 BKN047 01/00 Q1024
                        R27/29//95=
201812291830 METAR LRSB 291830Z 00000KT 3000 BR FEW025 BKN047 01/00 Q1024
                        R27/29//95=
201812291900 METAR LRSB 291900Z 00000KT 3000 BR FEW027 BKN050 01/00 Q1024
                        R27/29//95=
201812291930 METAR LRSB 291930Z 00000KT 3000 BR BKN052 SCT072 01/00 Q1024
                        R27/29//95=
201812292000 METAR LRSB 292000Z 05002KT 3500 BR SCT050 BKN070 01/00 Q1024
                        R27/29//95=
201812292030 METAR LRSB 292030Z VRB01KT 1500 BR FEW050 BKN070 01/M00 Q1024
                        R27/29//95=
201812292100 METAR LRSB 292100Z 28002KT 2000 BR FEW026 BKN070 00/M00 Q1023
                        R27/29//95=
201812292130 METAR LRSB 292130Z 21003KT 180V250 2000 BR FEW028 BKN070
                        00/M00 Q1023 R27/29//95=
201812292200 METAR LRSB 292200Z VRB02KT 3000 BR FEW030 BKN070 01/00 Q1023
                        R27/29//95=
201812292230 METAR LRSB 292230Z VRB01KT 4000 BR FEW030 BKN070 01/00 Q1023
                        R27/29//95=
201812292300 METAR LRSB 292300Z 10003KT 3000 BR FEW030 BKN070 01/M00 Q1023
                        R27/29//95=
201812292330 METAR LRSB 292330Z AUTO 09003KT 3500 BR BKN031/// SCT041///
                        01/00 Q1023=
201812300000 METAR LRSB 300000Z 16002KT 4000 BR BKN029 SCT070 01/00 Q1023
                        R27/29//95=
201812300030 METAR LRSB 300030Z 19001KT 4000 BR BKN029 SCT050 01/00 Q1023
                        R27/29//95=
201812300100 METAR LRSB 300100Z 00000KT 4500 BR SCT033 BKN046 01/00 Q1023
                        R27/29//95=
201812300130 METAR LRSB 300130Z 00000KT 4000 BR BKN030 SCT043 01/M00 Q1023
                        R27/29//95=
201812300200 METAR LRSB 300200Z 22003KT 3000 BR BKN032 SCT042 00/M00 Q1022
                        R27/29//95=
201812300230 METAR LRSB 300230Z 23004KT 4000 BR SCT032 BKN042 00/M00 Q1022
                        R27/29//95=
201812300300 METAR COR LRSB 300300Z VRB01KT 5000 BR SCT032 BKN041 01/00
                        Q1022 R27/29//95=
201812300330 METAR LRSB 300330Z 00000KT 5000 BR SCT032 BKN041 01/M00 Q1021
                        R27/29//95=
201812300400 METAR COR LRSB 300400Z 11002KT 5000 BR SCT032 BKN040 01/M00
                        Q1021 R27/29//95=
201812300430 METAR LRSB 300430Z 09002KT 5000 BR FEW033 BKN043 01/M00 Q1021
                        R27/29//95=
201812300500 METAR LRSB 300500Z 09003KT 4500 BR FEW033 BKN044 01/M00 Q1022
                        R27/29//95=
201812300530 METAR LRSB 300530Z 11002KT 4500 BR FEW033 BKN044 01/M00 Q1022
                        R27/29//95=
201812300600 METAR LRSB 300600Z 06003KT 4500 BR BKN044 SCT059 01/M00 Q1022
                        R27/29//95=
201812300630 METAR COR LRSB 300630Z 00000KT 1400 R27/P2000 BR FEW046 SCT061
                        00/M00 Q1022 R27/29//95=
201812300700 METAR LRSB 300700Z 00000KT 1000 R27/P2000 BR FEW043 SCT060
                        BKN069 00/M00 Q1022 R27/29//95=
201812300730 METAR LRSB 300730Z 00000KT 1200 R27/2000D BR FEW058 BKN066
                        00/M00 Q1022 R27/29//95=
201812300800 METAR LRSB 300800Z 27001KT 1600 BR BKN065 01/00 Q1022 R27/29//95=
201812300830 METAR LRSB 300830Z 29001KT 2500 BR FEW042 BKN064 01/01 Q1022
                        R27/29//95=
201812300900 METAR LRSB 300900Z 00000KT 2000 BR FEW010 BKN064 02/01 Q1022
                        R27/29//95=
201812300930 METAR LRSB 300930Z 00000KT 2000 BR FEW010 SCT040 OVC065 02/01
                        Q1022 R27/29//95=
201812301000 METAR LRSB 301000Z 00000KT 4000 BR FEW014 SCT044 OVC066 02/01
                        Q1021 R27/19//95=
201812301030 METAR LRSB 301030Z 00000KT 5000 BR SCT045 OVC067 02/01 Q1021
                        R27/19//95=
201812301100 METAR LRSB 301100Z 00000KT 5000 BR SCT045 OVC065 02/01 Q1021
                        R27/19//95=
201812301130 METAR LRSB 301130Z 00000KT 7000 SCT945 OVC065 02/00 Q1021
                        R27/19//95=
201812301200 METAR LRSB 301200Z 00000KT 8000 SCT043 OVC063 03/01 Q1020
                        R27/19//95=
201812301230 METAR LRSB 301230Z 00000KT 9000 SCT042 BKN063 03/01 Q1021
                        R27/19//95=
201812301300 METAR LRSB 301300Z 00000KT 9000 SCT042 OVC062 03/01 Q1021
                        R27/19//95=
201812301330 METAR LRSB 301330Z 00000KT 8000 SCT040 BKN062 03/01 Q1021
                        R27/19//95=
201812301400 METAR LRSB 301400Z 09001KT 6000 FEW006 SCT040 BKN064 03/01
                        Q1020 R27/19//95=
201812301430 METAR LRSB 301430Z 00000KT 6000 FEW006 SCT038 BKN063 02/00
                        Q1021 R27/19//95=
201812301500 METAR LRSB 301500Z VRB01KT 6000 FEW008 SCT040 BKN066 02/00
                        Q1021 R27/19//95=
201812301530 METAR LRSB 301530Z 00000KT 8000 FEW010 BKN068 02/00 Q1021
                        R27/19//95=
201812301600 METAR LRSB 301600Z 22003KT 5000 BR FEW010 OVC068 01/M00 Q1021
                        R27/12//95=
201812301630 METAR LRSB 301630Z 23003KT 5000 BR OVC066 01/00 Q1021 R27/12//95=
201812301700 METAR LRSB 301700Z 24002KT 4500 BR OVC066 01/00 Q1021 R27/12//95=
201812301730 METAR LRSB 301730Z 24002KT 5000 BR OVC068 01/M00 Q1021 R27/12//95=
201812301800 METAR LRSB 301800Z VRB01KT 5000 BR FEW039 OVC070 01/M00 Q1021
                        R27/12//95 NOSIG=
201812301830 METAR LRSB 301830Z 00000KT 5000 BR OVC070 01/M00 Q1021 R27/12//95
                        NOSIG=
201812301900 METAR LRSB 301900Z 00000KT 4000 BR OVC071 01/M00 Q1021 R27/12//95
                        TEMPO 3000 BR=
201812301930 METAR LRSB 301930Z VRB01KT 4000 BR FEW047 OVC066 00/M00 Q1021
                        R27/12//95 TEMPO 3000 BR=
201812302000 METAR COR LRSB 302000Z 31001KT 3000 BR SCT047 OVC066 00/M00
                        Q1021 R27/12//95 NOSIG=
201812302030 METAR LRSB 302030Z 00000KT 2500 BR SCT050 OVC066 00/M01 Q1021
                        R27/12//95 NOSIG=
201812302100 METAR COR LRSB 302100Z 00000KT 2000 BR OVC050 00/M00 Q1021
                        R27/12//95 TEMPO 1500 BR=
201812302130 METAR LRSB 302130Z VRB01KT 2000 BR OVC046 00/M00 Q1021 R27/12//95
                        TEMPO 1500 BR=
201812302200 METAR LRSB 302200Z VRB01KT 2000 BR FEW001 SCT016 BKN043 00/M00
                        Q1021 R27/12//95 TEMPO 1500 BR=
201812302230 METAR LRSB 302230Z 00000KT 2000 BR FEW002 SCT007 BKN043 01/M00
                        Q1021 R27/12//95 NOSIG=
201812302300 METAR LRSB 302300Z 05001KT 2000 BR FEW001 SCT007 BKN043 01/00
                        Q1021 R27/12//95 NOSIG=
201812302330 METAR LRSB 302330Z 00000KT 2000 BR FEW003 BKN006 BKN043 01/00
                        Q1021 R27/12//95 NOSIG=
201812310000 METAR LRSB 310000Z 25002KT 2000 -DZ BR FEW005 BKN007 OVC033
                        00/M00 Q1021 R27/12//95 NOSIG=
201812310030 METAR COR LRSB 310030Z 18003KT 2000 -DZ BR SCT006 OVC032
                        00/M00 Q1021 R27/12//95 NOSIG=
201812310100 METAR LRSB 310100Z 20002KT 1800 -DZ BR SCT006 OVC028 01/M00
                        Q1021 R27/12//95 TEMPO 1500 -DZ BR=
201812310130 METAR LRSB 310130Z 16001KT 1800 -DZ BR SCT006 OVC024 01/M00
                        Q1021 R27/12//95 TEMPO 1500 -DZ BR=
201812310200 METAR LRSB 310200Z 00000KT 2000 -DZ BR SCT006 BKN020 01/M00
                        Q1020 R27/12//95 NOSIG=
201812310230 METAR LRSB 310230Z 00000KT 1500 -DZ BR FEW006 SCT020 OVC026
                        01/00 Q1020 R27/12//95 NOSIG=
201812310300 METAR LRSB 310300Z 00000KT 1400 R27/1800U BR FEW006 SCT020
                        OVC026 01/M00 Q1020 R27/12//95 NOSIG=
201812310330 METAR LRSB 310330Z 00000KT 1700 BR SCT022 OVC028 01/M00 Q1020
                        R27/12//95 NOSIG=
201812310400 METAR LRSB 310400Z 00000KT 1700 -DZ BR BKN021 OVC030 01/M00
                        Q1020 R27/12//95 NOSIG=
201812310430 METAR LRSB 310430Z 00000KT 1600 -RASN BR FEW012 BKN020 OVC030
                        00/M00 Q1020 R27/12//95 NOSIG=
201812310500 METAR LRSB 310500Z 00000KT 1700 -RASN BR FEW010 BKN020 OVC030
                        00/M00 Q1020 R27/12//95 NOSIG=
201812310530 METAR LRSB 310530Z 00000KT 2000 FEW010 OVC020 00/M00 Q1021
                        R27/12//95 NOSIG=
201812310600 METAR LRSB 310600Z 00000KT 2000 BR FEW010 OVC020 00/M00 Q1021
                        R27/12//95 NOSIG=
201812310630 METAR COR LRSB 310630Z 00000KT 2000 BR FEW010 OVC020 00/M00
                        Q1021 R27/12//95 NOSIG=
201812310700 METAR LRSB 310700Z VRB01KT 2000 BR FEW010 OVC020 OVC020 00/M00
                        Q1021 R27/12//95 NOSIG=
201812310730 METAR LRSB 310730Z 00000KT 2000 BR OVC020 01/M00 Q1022 R27/12//95=
201812310800 METAR LRSB 310800Z 00000KT 2000 BR SCT002 OVC020 01/00 Q1022
                        R27/12//95=
201812310830 METAR LRSB 310830Z 00000KT 2000 BR SCT003 OVC020 01/00 Q1022
                        R27/29//95=
201812310900 METAR LRSB 310900Z 00000KT 2000 BR BKN003 OVC020 01/01 Q1022
                        R27/29//95=
201812310930 METAR LRSB 310930Z 00000KT 2500 BR SCT003 OVC020 02/01 Q1022
                        R27/29//95=
201812311000 METAR LRSB 311000Z 33003KT 3000 BR OVC005 02/00 Q1022 R27/29//95=
201812311030 METAR LRSB 311030Z 36002KT 3000 BR OVC006 02/00 Q1021 R27/29//95=
201812311100 METAR LRSB 311100Z 34004KT 3000 BR SCT004 OVC018 02/01 Q1021
                        R27/29//95=
201812311130 METAR LRSB 311130Z 35005KT 3000 BR SCT006 OVC018 02/01 Q1021
                        R27/29//95=
201812311200 METAR LRSB 311200Z 36005KT 3000 BR SCT004 OVC018 02/01 Q1021
                        R27/29//95=
201812311230 METAR LRSB 311230Z 35004KT 3000 BR SCT005 OVC018 02/01 Q1022
                        R27/29//95=
201812311300 METAR LRSB 311300Z 35005KT 4000 BR SCT004 OVC018 02/00 Q1022
                        R27/29//95=
201812311330 METAR LRSB 311330Z 35005KT 5000 BR SCT010 SCT021 02/00 Q1022
                        R27/29//95=
201812311400 METAR LRSB 311400Z 35007KT 5000 SCT010 BKN021 02/00 Q1022
                        R27/29//95=
201812311430 METAR LRSB 311430Z 35007KT 5000 SCT010 OVC030 02/M00 Q1023
                        R27/29//95=
201812311500 METAR LRSB 311500Z 34004KT 5000 BR SCT025 OVC050 01/M00 Q1023
                        R27/29//95=
201812311530 METAR LRSB 311530Z 33002KT 6000 FEW012 SCT025 OVC055 01/M00
                        Q1023 R27/29//95=
201812311600 METAR LRSB 311600Z 36002KT 6000 FEW009 SCT016 BKN052 01/M00
                        Q1023 R27/CLRD//=
201812311630 METAR LRSB 311630Z 36004KT 6000 FEW008 SCT013 BKN045 01/M01
                        Q1024=
201812311700 METAR LRSB 311700Z 36003KT 6000 FEW008 SCT013 BKN042 01/M00
                        Q1024=
201812311730 METAR LRSB 311730Z 02005KT 6000 FEW008 BKN012 BKN040 01/M00
                        Q1024=
201812311800 METAR LRSB 311800Z 35005KT 5000 BR BKN011 OVC040 01/M00 Q1024=
201812311830 METAR LRSB 311830Z 35005KT 6000 BKN013 BKN040 01/M00 Q1025=
201812311900 METAR LRSB 311900Z 34003KT 6000 BKN012 BKN040 01/M01 Q1025=
201812311930 METAR LRSB 311930Z VRB02KT 6000 BKN012 BKN038 01/M01 Q1025=
201812312000 METAR LRSB 312000Z 29004KT 7000 SCT015 SCT040 01/M01 Q1025=
201812312030 METAR LRSB 312030Z 28002KT 8000 FEW010 SCT015 01/M01 Q1026=
201812312100 METAR LRSB 312100Z 30003KT 8000 FEW015 BKN062 00/M01 Q1026=
201812312130 METAR LRSB 312130Z 34002KT 9999 BKN062 01/M01 Q1026=
201812312200 METAR LRSB 312200Z 35002KT 9999 OVC063 01/M01 Q1026=
201812312230 METAR LRSB 312230Z 00000KT 9999 FEW012 OVC062 00/M01 Q1026=
201812312300 METAR LRSB 312300Z 06001KT 9000 FEW012 OVC062 00/M02 Q1026=
201812312330 METAR LRSB 312330Z 00000KT 7000 FEW012 OVC062 00/M02 Q1026=