201901010200 TAF LRBM 010200Z 0103/0112 VRB04KT 1500 BR BKN002
                      TEMPO 0103/0107 0600 FZFG VV001
                      BECMG 0107/0109 3000 BKN005
                      BECMG 0109/0111 9999 NSW BKN015=
201901010500 TAF LRBM 010500Z 0106/0115 VRB04KT 0300 FG OVC001
                      BECMG 0107/0109 0800 BKN002
                      BECMG 0109/0111 3000 BR BKN005
                      BECMG 0111/0112 9999 NSW BKN010=
201901010800 TAF LRBM 010800Z 0109/0118 VRB04KT 0800 FG BKN005
                      BECMG 0109/0111 3000 BR BKN010
                      BECMG 0111/0112 9999 NSW BKN030
                      BECMG 0116/0118 5000 -SN BR BKN015 BKN030=
201901011100 TAF LRBM 011100Z 0112/0121 VRB04KT 5000 BR BKN015
                      BECMG 0112/0114 9999 NSW BKN030
                      BECMG 0116/0118 5000 -SN BR BKN015 BKN030=
201901011400 TAF LRBM 011400Z 0115/0124 VRB04KT 9999 BKN040
                      BECMG 0118/0120 5000 -SN BR BKN015 BKN030=
201901011700 TAF LRBM 011700Z NIL=
201901012000 TAF LRBM 012000Z NIL=
201901012300 TAF LRBM 012300Z NIL=
201901020200 TAF LRBM 020200Z 0203/0212 10008KT 5000 BR BKN015
                      TEMPO 0203/0207 3000 -SN BR BKN005 OVC020=
201901020500 TAF LRBM 020500Z 0206/0215 09007KT 3000 SN BR BKN005 OVC020
                      TEMPO 0206/0208 1500 SN BKN002 OVC015
                      BECMG 0208/0210 28010KT 5000 -SN BKN010 OVC030
                       BECMG 0210/0212 BKN015 OVC035=
201901020800 TAF LRBM 020800Z 0209/0218 VRB04KT 5000 -SN BR SCT010 BKN030
                      TEMPO 0210/0215 1500 SN BKN005 FEW030CB=
201901021100 TAF LRBM 021100Z 0212/0221 VRB04KT 3000 SN BR BKN010 OVC035
                      TEMPO 0212/0216 1500 SN BKN005 FEW030CB OVC035
                       BECMG 0218/0220 9999 NSW BKN015 BKN030=
201901021400 TAF LRBM 021400Z 0215/0224 VRB04KT 3000 SN BR BKN010 OVC030
                      TEMPO 0215/0220 1500 SN BKN005 OVC025=
201901021700 TAF LRBM 021700Z NIL=
201901022000 TAF LRBM 022000Z NIL=
201901022300 TAF LRBM 022300Z NIL=
201901030200 TAF LRBM 030200Z 0303/0312 28008KT 8000 BKN015 OVC030
                      TEMPO 0303/0309 3000 -SN BR BKN010 OVC025
                       BECMG 0309/0311 BKN030=
201901030500 TAF LRBM 030500Z NIL=
201901030512 TAF AMD LRBM 030512Z 0305/0312 CNL=
201901030800 TAF LRBM 030800Z 0309/0318 29008KT 9999 SCT010 BKN025
                      TEMPO 0310/0316 5000 -SN BKN010 OVC020=
201901031100 TAF LRBM 031100Z 0312/0321 29008KT 9999 SCT010 BKN035
                      TEMPO 0312/0316 5000 -SHSN BKN010 SCT025CB
                       BKN030=
201901031400 TAF LRBM 031400Z 0315/0324 29006KT 9999 SCT025 BKN040
                      PROB40 TEMPO 0315/0317 5000 -SN BKN010 BKN030=
201901031700 TAF LRBM 031700Z 0318/0403 VRB04KT 9999 SCT030=
201901032000 TAF LRBM 032000Z 0321/0406 VRB04KT CAVOK=
201901032241 TAF AMD LRBM 032241Z 0322/0406 CNL=
201901032300 TAF LRBM 032300Z NIL=
201901040200 TAF LRBM 040200Z 0403/0412 VRB04KT CAVOK=
201901040500 TAF LRBM 040500Z 0406/0415 VRB04KT 9999 SCT005 BKN040
                      TEMPO 0406/0409 5000 BR BKN001=
201901040506 TAF AMD LRBM 040506Z 0405/0412 VRB04KT 9999 BKN001
                      BECMG 0405/0407 BKN005
                      BECMG 0407/0409 NSC=
201901040800 TAF LRBM 040800Z 0409/0418 VRB04KT 9999 BKN030=
201901041023 TAF AMD LRBM 041023Z 0410/0418 VRB04KT 9999 BKN010
                      BECMG 0410/0412 NSC=
201901041100 TAF LRBM 041100Z 0412/0421 VRB04KT 9999 BKN040
                      PROB30 TEMPO 0412/0415 5000 -SN BKN010 BKN030=
201901041400 TAF LRBM 041400Z 0415/0424 VRB04KT 9999 SCT040=
201901041612 TAF AMD LRBM 041612Z 0416/0424 CNL=
201901041700 TAF LRBM 041700Z NIL=
201901042000 TAF LRBM 042000Z NIL=
201901042300 TAF LRBM 042300Z NIL=
201901050200 TAF LRBM 050200Z NIL=
201901050500 TAF LRBM 050500Z NIL=
201901050800 TAF LRBM 050800Z NIL=
201901051100 TAF LRBM 051100Z NIL=
201901051400 TAF LRBM 051400Z NIL=
201901051700 TAF LRBM 051700Z NIL=
201901052000 TAF LRBM 052000Z NIL=
201901052300 TAF LRBM 052300Z NIL=
201901060200 TAF LRBM 060200Z NIL=
201901060500 TAF LRBM 060500Z NIL=
201901060800 TAF LRBM 060800Z NIL=
201901061100 TAF LRBM 061100Z NIL=
201901061400 TAF LRBM 061400Z NIL=
201901061700 TAF LRBM 061700Z 0618/0703 32008KT 9999 SCT055=
201901062000 TAF LRBM 062000Z 0621/0706 31008KT 9999 SCT055=
201901062300 TAF LRBM 062300Z NIL=
201901062313 TAF AMD LRBM 062313Z 0623/0706 CNL=
201901070200 TAF LRBM 070200Z 0703/0712 VRB04KT CAVOK=
201901070500 TAF LRBM 070500Z 0706/0715 VRB04KT CAVOK=
201901070800 TAF LRBM 070800Z 0709/0718 VRB04KT CAVOK=
201901071100 TAF LRBM 071100Z 0712/0721 VRB04KT CAVOK=
201901071400 TAF LRBM 071400Z 0715/0724 VRB04KT CAVOK
                      BECMG 0720/0722 5000 BR BKN015=
201901071535 TAF AMD LRBM 071535Z 0715/0724 CNL=
201901071700 TAF LRBM 071700Z NIL=
201901072000 TAF LRBM 072000Z NIL=
201901072300 TAF LRBM 072300Z NIL=
201901080200 TAF LRBM 080200Z 0803/0812 08005KT CAVOK
                      TEMPO 0803/0806 5000 BR=
201901080500 TAF LRBM 080500Z 0806/0815 VRB04KT 9999 BKN020
                      TEMPO 0806/0808 3000 BR BKN010
                      BECMG 0813/0815 5000 -SN BKN015 OVC025=
201901080800 TAF LRBM 080800Z 0809/0818 VRB04KT 9999 BKN035
                      TEMPO 0809/0811 5000 -SN BKN015 OVC030
                      BECMG 0813/0815 3000 SN BKN010 OVC025
                      TEMPO 0816/0818 1500 SN BKN005 OVC020=
201901081100 TAF LRBM 081100Z 0812/0821 VRB04KT 5000 BR BKN035
                      BECMG 0815/0817 3000 -SN BKN010 OVC025
                      TEMPO 0818/0821 1500 SN BKN005 OVC020=
201901081400 TAF LRBM 081400Z 0815/0824 VRB04KT 9999 BKN030
                      BECMG 0816/0818 5000 -SN BKN015 OVC025
                      TEMPO 0816/0820 1500 SN BKN005 OVC020=
201901081700 TAF LRBM 081700Z NIL=
201901082000 TAF LRBM 082000Z NIL=
201901082300 TAF LRBM 082300Z NIL=
201901090200 TAF LRBM 090200Z 0903/0912 10006KT 5000 -SN OVC025
                      TEMPO 0903/0907 1500 SN BKN005 OVC020=
201901090500 TAF LRBM 090500Z 0906/0915 10006KT 5000 -SN BR BKN010 OVC025
                      TEMPO 0906/0910 1500 SN BR BKN005 OVC020=
201901090800 TAF LRBM 090800Z 0909/0918 VRB04KT 5000 -SN BR BKN015 OVC030
                      TEMPO 0909/0912 8000 NSW SCT015 OVC035
                      TEMPO 0912/0917 1500 SN BR BKN005 OVC020=
201901091100 TAF LRBM 091100Z 0912/0921 09006KT 9999 SCT020 BKN035
                      BECMG 0912/0914 3000 -SN BR BKN010 OVC030
                       BECMG 0916/0918 5000 BR SCT015 BKN040=
201901091400 TAF LRBM 091400Z 0915/0924 VRB03KT 3000 -SG BR SCT010 OVC020
                      BECMG 0916/0918 5000 BR=
201901091700 TAF LRBM 091700Z NIL=
201901092000 TAF LRBM 092000Z NIL=
201901092300 TAF LRBM 092300Z NIL=
201901100200 TAF LRBM 100200Z 1003/1012 VRB04KT 5000 BR BKN015
                      TEMPO 1003/1006 1500 BR BKN005=
201901100500 TAF LRBM 100500Z 1006/1015 VRB04KT 3000 BR BKN010
                      TEMPO 1006/1008 0800 FZFG BKN001
                      BECMG 1008/1010 9999 NSW BKN025=
201901100800 TAF LRBM 100800Z 1009/1018 VRB04KT 2000 BR BKN005
                      PROB30 TEMPO 1009/1010 0600 FZFG BKN001
                      TEMPO 1010/1015 5000 SCT010
                      BECMG 1016/1018 1500 BR BKN003=
201901101100 TAF LRBM 101100Z 1012/1021 VRB04KT 3000 BR SCT005
                      PROB30 TEMPO 1012/1013 1500 BR BKN003
                      TEMPO 1013/1016 5000
                      BECMG 1016/1018 1500 BR BKN003
                      PROB30 TEMPO 1018/1021 0600 FZFG OVC001=
201901101400 TAF LRBM 101400Z 1015/1024 VRB04KT 3000 BR SCT005
                      BECMG 1016/1018 1500 BR BKN002
                      TEMPO 1018/1024 0600 FZFG OVC001=
201901101615 TAF AMD LRBM 101615Z 1016/1024 VRB04KT 0800 FZFG OVC001
                      BECMG 1016/1018 0350 FZFG
                      PROB30 TEMPO 1020/1024 1500 BR BKN003=
201901101700 TAF LRBM 101700Z 1018/1103 VRB04KT 0350 FZFG OVC001
                      PROB30 TEMPO 1021/1103 1000 BR BKN002=
201901102000 TAF LRBM 102000Z 1021/1106 VRB02KT 0350 FZFG VV001
                      PROB30 TEMPO 1022/1103 0800 BKN002=
201901102300 TAF LRBM 102300Z NIL=
201901110200 TAF LRBM 110200Z 1103/1112 VRB04KT 1500 BR SCT005
                      TEMPO 1103/1106 0800 FZFG OVC002
                      BECMG 1107/1109 5000=
201901110500 TAF LRBM 110500Z 1106/1115 VRB04KT 3000 -SN BR SCT010 OVC025
                      TEMPO 1106/1109 1500 SN BR BKN005 OVC020
                       BECMG 1110/1112 5000 SCT020 BKN035=
201901110800 TAF LRBM 110800Z 1109/1118 VRB04KT 3000 -SN BR BKN020 OVC025
                      TEMPO 1109/1112 1500 SN BR BKN010 OVC020
                       TEMPO 1116/1118 1500 SN BR BKN010 OVC020=
201901111100 TAF LRBM 111100Z 1112/1121 VRB04KT 5000 BR SCT015 BKN035
                      TEMPO 1112/1115 3000 -SN BR BKN010 OVC030
                       TEMPO 1117/1121 1500 SN BR BKN005 OVC020=
201901111400 TAF LRBM 111400Z 1115/1124 VRB04KT 5000 BR SCT015 BKN035
                      TEMPO 1115/1119 3000 -SN BR BKN010 OVC030=
201901111533 TAF AMD LRBM 111533Z 1115/1124 CNL=
201901111700 TAF LRBM 111700Z NIL=
201901112000 TAF LRBM 112000Z NIL=
201901112300 TAF LRBM 112300Z NIL=
201901120200 TAF LRBM 120200Z NIL=
201901120500 TAF LRBM 120500Z NIL=
201901120800 TAF LRBM 120800Z NIL=
201901121100 TAF LRBM 121100Z NIL=
201901121400 TAF LRBM 121400Z NIL=
201901121700 TAF LRBM 121700Z NIL=
201901122000 TAF LRBM 122000Z NIL=
201901122300 TAF LRBM 122300Z NIL=
201901130200 TAF LRBM 130200Z NIL=
201901130500 TAF LRBM 130500Z NIL=
201901130800 TAF LRBM 130800Z NIL=
201901131100 TAF LRBM 131100Z NIL=
201901131400 TAF LRBM 131400Z NIL=
201901131700 TAF LRBM 131700Z 1318/1403 VRB04KT 5000 BR BKN010 BKN035
                      TEMPO 1322/1403 3000 -SN BR BKN005 BKN025=
201901132000 TAF LRBM 132000Z 1321/1406 VRB04KT 3000 -SN BR BKN010 BKN035
                      TEMPO 1321/1323 1500 -FZDZ BR BKN005 OVC020
                       TEMPO 1400/1406 0800 +SN BKN002 BKN020=
201901132253 TAF AMD LRBM 132253Z 1322/1406 CNL=
201901132300 TAF LRBM 132300Z NIL=
201901140200 TAF LRBM 140200Z 1403/1412 07008KT 3000 -SN BR BKN010 BKN035
                      TEMPO 1403/1408 1500 SN BR BKN005 OVC030
                       TEMPO 1408/1412 RASN=
201901140500 TAF LRBM 140500Z 1406/1415 07008KT 1500 SN BR BKN005 OVC020
                      TEMPO 1406/1408 0600 +SN BKN002 OVC015
                      TEMPO 1408/1412 RASN=
201901140800 TAF LRBM 140800Z 1409/1418 VRB04KT 3000 SN BR BKN015 OVC030
                      TEMPO 1409/1412 1500 SN BR BKN005 OVC015
                       BECMG 1412/1414 30012KT 5000 -SNRA SCT015
                       BKN035=
201901141100 TAF LRBM 141100Z 1412/1421 VRB04KT 3000 SN BR BKN010 OVC025
                      TEMPO 1412/1414 1500 SHSN BKN005 SCT030CB
                       BECMG 1414/1416 32012KT 5000 -SN SCT015
                       BKN035=
201901141400 TAF LRBM 141400Z 1415/1424 VRB04KT 1500 -SN BR BKN010 OVC025
                      BECMG 1415/1417 32012KT 5000 SCT015 BKN040
                       BECMG 1418/1420 9999 NSW=
201901141606 TAF AMD LRBM 141606Z 1416/1424 CNL=
201901141700 TAF LRBM 141700Z NIL=
201901142000 TAF LRBM 142000Z NIL=
201901142300 TAF LRBM 142300Z NIL=
201901150200 TAF LRBM 150200Z 1503/1512 30006KT CAVOK=
201901150500 TAF LRBM 150500Z 1506/1515 VRB04KT CAVOK
                      BECMG 1513/1515 5000 -SN BKN015 BKN030=
201901150800 TAF LRBM 150800Z 1509/1518 VRB04KT 9999 BKN040
                      TEMPO 1514/1518 5000 -SN BKN015 BKN030=
201901151100 TAF LRBM 151100Z 1512/1521 VRB04KT 9999 SCT040
                      BECMG 1517/1519 5000 -SN BKN010 BKN030=
201901151400 TAF LRBM 151400Z 1515/1524 VRB04KT 9999 SCT040
                      BECMG 1517/1519 5000 -SN BKN010 BKN030
                      TEMPO 1520/1524 1500 SN BKN005 OVC020=
201901151700 TAF LRBM 151700Z NIL=
201901152000 TAF LRBM 152000Z NIL=
201901152300 TAF LRBM 152300Z NIL=
201901160200 TAF LRBM 160200Z 1603/1612 VRB04KT 5000 -SN BR BKN010 OVC035
                      TEMPO 1603/1607 31010KT 1500 -SN BR BKN005
                       OVC010=
201901160500 TAF LRBM 160500Z 1606/1615 09008KT 5000 -SN BR BKN010 OVC035
                      TEMPO 1606/1609 1500 -SN BR BKN005 OVC010=
201901160800 TAF LRBM 160800Z 1609/1618 VRB04KT 3000 -SN BR BKN010 OVC025
                      TEMPO 1609/1612 1000 SN BR BKN005 OVC010
                       BECMG 1616/1618 0800 FZFG OVC002=
201901161100 TAF LRBM 161100Z 1612/1621 VRB04KT 6000 BKN015 OVC025
                      TEMPO 1612/1614 3000 -SN BR BKN010 OVC020
                       BECMG 1616/1618 3000 BR BKN005=
201901161400 TAF LRBM 161400Z 1615/1624 VRB04KT 9999 SCT015 BKN025
                      PROB40 TEMPO 1615/1618 5000 -SN BKN010 OVC020
                       BECMG 1618/1620 3000 BR BKN005=
201901161700 TAF LRBM 161700Z NIL=
201901162000 TAF LRBM 162000Z NIL=
201901162300 TAF LRBM 162300Z NIL=
201901170200 TAF LRBM 170200Z NIL=
201901170500 TAF LRBM 170500Z NIL=
201901170800 TAF LRBM 170800Z NIL=
201901171010 TAF LRBM 171010Z 1710/1718 09006KT 9999 BKN045
                      TEMPO 1711/1718 5000 -RA BKN015 BKN040
                      PROB30 TEMPO 1715/1718 3000 -SHRA BKN010
                       SCT035CB BKN040=
201901171100 TAF LRBM 171100Z 1712/1721 10006KT 9999 SCT015 SCT045
                      TEMPO 1712/1718 5000 -RA BKN015 BKN040
                      PROB30 TEMPO 1715/1718 3000 -SHRA BKN010
                       SCT035CB BKN040
                      BECMG 1718/1720 3000 RA BKN010 BKN040=
201901171400 TAF LRBM 171400Z 1715/1724 07006KT 9999 BKN045
                      PROB30 TEMPO 1715/1718 5000 -RA BKN015 BKN040
                       BECMG 1718/1720 3000 RA BKN010 BKN040=
201901171700 TAF LRBM 171700Z 1718/1803 07006KT 9999 BKN040
                      TEMPO 1720/1801 5000 -RA BKN015 BKN035=
201901172000 TAF LRBM 172000Z 1721/1806 VRB04KT 9999 BKN040
                      TEMPO 1722/1802 5000 -RA BKN015 BKN035=
201901172300 TAF LRBM 172300Z NIL=
201901172315 TAF AMD LRBM 172315Z 1723/1806 CNL=
201901180200 TAF LRBM 180200Z 1803/1812 20012KT 9999 BKN040
                      TEMPO 1803/1807 5000 -RA BR BKN010 OVC030
                       PROB40 1803/1806 SN RASN
                      TEMPO 1807/1812 3000 RA BKN005 OVC020=
201901180500 TAF LRBM 180500Z 1806/1815 VRB04KT 9999 SCT010 OVC040
                      TEMPO 1807/1814 3000 RA BKN005 OVC030=
201901180800 TAF LRBM 180800Z 1809/1818 VRB04KT 8000 -RA SCT015 OVC045
                      TEMPO 1810/1814 3000 RA BR BKN010 OVC030=
201901181100 TAF LRBM 181100Z 1812/1821 VRB04KT 8000 -RA SCT010 OVC045
                      TEMPO 1812/1815 3000 RA BR BKN010 OVC030
                       BECMG 1819/1821 33010KT=
201901181400 TAF LRBM 181400Z 1815/1824 VRB04KT 8000 -RA SCT010 OVC025
                      TEMPO 1815/1820 3000 RA BR BKN010 OVC020=
201901181553 TAF AMD LRBM 181553Z 1815/1824 CNL=
201901181700 TAF LRBM 181700Z NIL=
201901182000 TAF LRBM 182000Z NIL=
201901182300 TAF LRBM 182300Z NIL=
201901190200 TAF LRBM 190200Z NIL=
201901190500 TAF LRBM 190500Z NIL=
201901190800 TAF LRBM 190800Z NIL=
201901191100 TAF LRBM 191100Z NIL=
201901191400 TAF LRBM 191400Z NIL=
201901191700 TAF LRBM 191700Z NIL=
201901192000 TAF LRBM 192000Z NIL=
201901192300 TAF LRBM 192300Z NIL=
201901200200 TAF LRBM 200200Z NIL=
201901200500 TAF LRBM 200500Z NIL=
201901200800 TAF LRBM 200800Z NIL=
201901201100 TAF LRBM 201100Z NIL=
201901201400 TAF LRBM 201400Z NIL=
201901201700 TAF LRBM 201700Z 2018/2103 VRB04KT 1500 -SN BR BKN002 OVC020
                      TEMPO 2018/2022 0600 -SN FZFG BKN001 OVC020=
201901202000 TAF LRBM 202000Z 2021/2106 28006KT 3000 -SN BR BKN010 OVC025
                      TEMPO 2021/2024 1500 -SN BR BKN005 OVC020=
201901202300 TAF LRBM 202300Z NIL=
201901210200 TAF LRBM 210200Z 2103/2112 28006KT 3000 BR BKN010 OVC025
                      PROB40 TEMPO 2103/2109 1500 -SN BR BKN005
                       OVC020=
201901210500 TAF LRBM 210500Z 2106/2115 29005KT 5000 BR BKN010 BKN030
                      PROB40 TEMPO 2106/2109 1500 -SN BR BKN005
                       OVC030
                      BECMG 2109/2111 9999 NSW BKN030=
201901210800 TAF LRBM 210800Z 2109/2118 29005KT 5000 BR BKN010 BKN030
                      TEMPO 2109/2110 1500 -SN BR BKN005 OVC015
                       BECMG 2110/2112 9999 NSW SCT020 BKN035=
201901211100 TAF LRBM 211100Z 2112/2121 29005KT 3000 BR BKN015 OVC025
                      TEMPO 2112/2115 7000 NSW SCT020 BKN030
                      BECMG 2118/2120 1500 BR BKN010 BKN025=
201901211400 TAF LRBM 211400Z 2115/2124 29005KT 3000 BR BKN015 OVC025
                      TEMPO 2115/2117 1500 -SN BR BKN010 OVC015
                       BECMG 2118/2120 1500 BR BKN010 OVC020=
201901211532 TAF AMD LRBM 211532Z 2115/2124 CNL=
201901211700 TAF LRBM 211700Z NIL=
201901212000 TAF LRBM 212000Z NIL=
201901212300 TAF LRBM 212300Z NIL=
201901220200 TAF LRBM 220200Z 2203/2212 VRB03KT 3000 BR BKN015 BKN030
                      TEMPO 2203/2205 1500 BR OVC010
                      BECMG 2208/2210 1500 SN BKN005 OVC020=
201901220500 TAF LRBM 220500Z 2206/2215 VRB03KT 3000 BR SCT015 BKN030
                      BECMG 2207/2209 1500 -SN BR BKN005 OVC020
                       PROB40
                      TEMPO 2209/2215 0600 SN BKN002 OVC015=
201901220800 TAF LRBM 220800Z 2209/2218 VRB03KT 1500 -SN BR BKN010 OVC025
                      TEMPO 2209/2215 0600 SN BKN005 OVC015=
201901221100 TAF LRBM 221100Z 2212/2221 VRB03KT 1500 -SN BR BKN010 OVC025
                      TEMPO 2212/2218 0600 -SN FZFG BKN002 OVC015=
201901221400 TAF LRBM 221400Z 2215/2224 VRB04KT 1500 -SN BR BKN010 OVC025
                      TEMPO 2215/2218 0600 SN FZFG BKN002 OVC015=
201901221700 TAF LRBM 221700Z NIL=
201901222000 TAF LRBM 222000Z NIL=
201901230200 TAF LRBM 230200Z 2303/2312 VRB04KT 3000 -SN BR BKN005 OVC020
                      TEMPO 2304/2310 1500 SN OVC002
                      PROB40 2305/2309 0600 +SN OVC001=
201901230500 TAF LRBM 230500Z 2306/2315 VRB04KT 1000 -FZRA BKN002 OVC015
                      BECMG 2307/2309 3000 -RA BR BKN005 OVC020=
201901230738 TAF AMD LRBM 230738Z 2307/2315 VRB04KT 0350 -SG FG BKN002 OVC015
                       BECMG 2308/2310 1000 BR BKN005 OVC020
                      BECMG 2310/2312 3000
                      TEMPO 2312/2315 5000 BKN010=
201901230800 TAF LRBM 230800Z 2309/2318 VRB04KT 1500 -SN BR BKN015
                      BECMG 2309/2311 3000 BR BKN025
                      TEMPO 2311/2315 7000 NSW=
201901231100 TAF LRBM 231100Z 2312/2321 VRB04KT 1500 -RA BR BKN010
                      TEMPO 2312/2314 0600 -RA FG OVC002
                      PROB30 TEMPO 2314/2317 3000 BR
                      BECMG 2317/2319 0600 FZFG OVC002=
201901231400 TAF LRBM 231400Z 2315/2324 VRB04KT 0800 FG BKN005
                      BECMG 2315/2317 0350 FZFG OVC001=
201901231700 TAF LRBM 231700Z NIL=
201901232000 TAF LRBM 232000Z NIL=
201901232300 TAF LRBM 232300Z NIL=
201901240200 TAF LRBM 240200Z NIL=
201901240500 TAF LRBM 240500Z NIL=
201901240800 TAF LRBM 240800Z NIL=
201901241026 TAF LRBM 241026Z 2410/2418 VRB04KT 3000 -RASN BKN005 OVC020
                      TEMPO 2410/2412 1500 -FZRA BKN002 OVC010=
201901241100 TAF LRBM 241100Z 2412/2421 VRB04KT 3000 -FZRA BR BKN010 OVC025
                       TEMPO 2412/2414 3000 -FZRA BKN005 OVC020
                       BECMG 2414/2416 1500 SN BR BKN002 OVC020
                       TEMPO 2416/2421 0600 +SN FZFG BKN001 OVC015=
201901241400 TAF LRBM 241400Z 2415/2424 VRB04KT 1500 -FZRA BR BKN010 OVC025
                       TEMPO 2416/2418 RASN BKN002 OVC020
                      BECMG 2418/2420 0600 +SN FZFG BKN001 OVC015=
201901241700 TAF LRBM 241700Z 2418/2503 VRB04KT 1000 -RA OVC025
                      PROB40 TEMPO 2418/2420 FZRA
                      BECMG 2422/2424 SN BKN010 OVC020=
201901242000 TAF LRBM 242000Z NIL=
201901242105 TAF LRBM 242105Z 2421/2506 VRB04KT 0600 -RA FG BKN010 OVC020
                      BECMG 2500/2502 0350 SN BKN005 OVC015=
201901242300 TAF LRBM 242300Z NIL=
201901250200 TAF LRBM 250200Z 2503/2512 VRB04KT 3000 -SN BR BKN010 OVC020
                      TEMPO 2503/2506 1500 SN BKN005 OVC020
                      BECMG 2509/2511 7000 NSW BKN015 OVC020=
201901250500 TAF LRBM 250500Z 2506/2515 VRB04KT 3000 -SN BR BKN010 OVC020
                      TEMPO 2506/2509 5000 -RASN BR BKN015 OVC030
                       PROB30
                      TEMPO 2506/2508 -FZRA BR
                      BECMG 2509/2511 7000 NSW SCT020 BKN040=
201901250800 TAF LRBM 250800Z 2509/2518 VRB04KT 3000 -SN BR BKN010 OVC025
                      BECMG 2510/2512 5000 BR BKN015 BKN030
                      BECMG 2514/2516 1500 BR BKN005 OVC020
                      PROB40 TEMPO 2516/2518 0600 FG OVC002=
201901251100 TAF LRBM 251100Z 2512/2521 28006KT 7000 BR SCT010 BKN035
                      BECMG 2512/2514 5000 BR BKN010 OVC030
                      TEMPO 2514/2517 1500 BR OVC005
                      BECMG 2517/2519 3000 -SN BR OVC005
                      TEMPO 2519/2521 1500 SN BR OVC002=
201901251400 TAF LRBM 251400Z 2515/2524 27006KT 5000 BR BKN010 BKN035
                      BECMG 2517/2519 3000 -SN BR OVC005
                      TEMPO 2519/2524 1500 SN BR OVC002=
201901251623 TAF AMD LRBM 251623Z 2516/2524 CNL=
201901251700 TAF LRBM 251700Z NIL=
201901252000 TAF LRBM 252000Z NIL=
201901252300 TAF LRBM 252300Z NIL=
201901260200 TAF LRBM 260200Z NIL=
201901260500 TAF LRBM 260500Z NIL=
201901260800 TAF LRBM 260800Z NIL=
201901261100 TAF LRBM 261100Z NIL=
201901261400 TAF LRBM 261400Z NIL=
201901261700 TAF LRBM 261700Z NIL=
201901262000 TAF LRBM 262000Z NIL=
201901262300 TAF LRBM 262300Z NIL=
201901270200 TAF LRBM 270200Z NIL=
201901270500 TAF LRBM 270500Z NIL=
201901270800 TAF LRBM 270800Z NIL=
201901271100 TAF LRBM 271100Z NIL=
201901271400 TAF LRBM 271400Z NIL=
201901271700 TAF LRBM 271700Z 2718/2803 09008KT 9999 SCT040=
201901272000 TAF LRBM 272000Z NIL=
201901272300 TAF LRBM 272300Z NIL=
201901280200 TAF LRBM 280200Z 2803/2812 09008KT CAVOK=
201901280500 TAF LRBM 280500Z 2806/2815 VRB04KT CAVOK=
201901280800 TAF LRBM 280800Z 2809/2818 VRB04KT CAVOK=
201901281100 TAF LRBM 281100Z 2812/2821 VRB04KT CAVOK
                      BECMG 2817/2819 22008KT 5000 -RA BKN010 OVC030
                       PROB30
                      TEMPO 2819/2821 -FZRA=
201901281400 TAF LRBM 281400Z 2815/2824 VRB04KT CAVOK
                      BECMG 2818/2820 5000 -RA BKN010 OVC030
                      TEMPO 2822/2824 3000 -FZRA BKN005 OVC020=
201901281700 TAF LRBM 281700Z NIL=
201901282000 TAF LRBM 282000Z NIL=
201901282300 TAF LRBM 282300Z NIL=
201901290200 TAF LRBM 290200Z 2903/2912 VRB04KT 5000 -RA SCT010 BKN030
                      BECMG 2903/2905 3000 BR BKN010
                      PROB30 TEMPO 2905/2907 0800 FG BKN002
                      BECMG 2908/2910 7000 NSW BKN040=
201901290500 TAF LRBM 290500Z 2906/2915 VRB04KT 3000 BR SCT015 BKN030
                      TEMPO 2906/2909 1500 -RA BR BKN010 BKN030
                       BECMG 2910/2912 9999 NSW=
201901290800 TAF LRBM 290800Z 2909/2918 VRB04KT 1500 BR BKN005
                      TEMPO 2911/2915 3000 BKN010=
201901291100 TAF LRBM 291100Z 2912/2921 26006KT 9999 SCT020
                      BECMG 2914/2916 3000 BR BKN005
                      TEMPO 2917/2921 0600 FZFG VV002=
201901291400 TAF LRBM 291400Z 2915/2924 VRB04KT 5000 BR BKN030
                      BECMG 2916/2918 1500 BR BKN005
                      TEMPO 2919/2924 0600 FZFG VV002=
201901291700 TAF LRBM 291700Z NIL=
201901292000 TAF LRBM 292000Z NIL=
201901292300 TAF LRBM 292300Z NIL=
201901300200 TAF LRBM 300200Z 3003/3012 VRB04KT 1500 BR OVC010
                      TEMPO 3003/3007 0600 FZFG VV001
                      BECMG 3009/3011 -SN BKN005 OVC020=
201901300500 TAF LRBM 300500Z 3006/3015 VRB04KT 0600 FZFG VV001
                      BECMG 3007/3009 1500 -RASN BR BKN005 OVC020
                       BECMG 3009/3011 9999 BKN020 OVC040
                      TEMPO 3011/3015 5000 -RASN BR BKN010 OVC020=
201901300544 TAF COR LRBM 300544Z 3006/3015 VRB04KT 0150 FZFG VV001
                      TEMPO 3006/3009 0600 -FZRADZ FZFG BKN002
                       OVC005
                      BECMG 3009/3011 0800 -RA FG BKN002 OVC005
                       TEMPO 3011/3015 1500 -RA BR BKN005 OVC015=
201901300800 TAF LRBM 300800Z 3009/3018 VRB04KT 0350 -RA FG BKN002 OVC005
                      BECMG 3009/3011 0800
                      PROB30 TEMPO 3011/3015 1500 -RA BR BKN005
                       OVC015
                      BECMG 3016/3018 0350 -RA FG OVC001=
201901301100 TAF LRBM 301100Z 3012/3021 VRB04KT 3000 BR SCT005 BKN035
                      TEMPO 3012/3016 1500 -RADZ BR BKN005 OVC030
                       BECMG 3016/3018 0600 -FZDZ=
201901301400 TAF LRBM 301400Z 3015/3024 VRB04KT 1200 -RA BR SCT005 BKN025
                      BECMG 3015/3016 0800 -RA FG BKN005 BKN025
                       BECMG 3016/3018 0600 -DZ FG
                      BECMG 3018/3020 -FZDZ FZFG OVC002
                      TEMPO 3021/3024 0300 -FZDZ=
201901301700 TAF LRBM 301700Z NIL=
201901302000 TAF LRBM 302000Z NIL=
201901302300 TAF LRBM 302300Z NIL=
201901310200 TAF LRBM 310200Z NIL=
201901310500 TAF LRBM 310500Z NIL=
201901310631 TAF LRBM 310631Z 3106/3115 VRB04KT 0600 -RA FG OVC002
                      BECMG 3111/3113 1500 BR BKN005=
201901310800 TAF LRBM 310800Z 3109/3118 VRB04KT 0200 SN FG OVC002
                      BECMG 3110/3112 0800 -SN FG
                      BECMG 3112/3114 1500 BR BKN005=
201901311100 TAF LRBM 311100Z 3112/3121 VRB04KT 2000 BR BKN010
                      TEMPO 3112/3115 5000 BR
                      BECMG 3116/3118 0600 FZFG OVC002=
201901311400 TAF LRBM 311400Z 3115/3124 VRB04KT 5000 BR BKN010
                      BECMG 3115/3117 1500 BR BKN005
                      BECMG 3117/3119 0600 FZFG OVC002=
201901311700 TAF LRBM 311700Z 3118/0103 VRB04KT 3000 BR BKN005 BKN025
                      TEMPO 0100/0103 1500 -SNRA BR BKN002 OVC005=
201901312000 TAF LRBM 312000Z 3121/0106 VRB04KT 3000 BR BKN005 OVC020
                      TEMPO 3121/3124 1500 BR BKN002 OVC005
                      TEMPO 0101/0104 1500 -SNRA BR
                      BECMG 0104/0106 5000 -RASN BR SCT005 BKN030=
201901312300 TAF LRBM 312300Z NIL=
201901312304 TAF AMD LRBM 312304Z 3123/0106 CNL=
