201901010000 METAR LRBM 010000Z AUTO 02001KT 1400 R09/1600U FG SCT001///
                        BKN003/// 00/M00 Q1028=
201901010030 METAR LRBM 010030Z AUTO 02002KT 1400 R09/1200V2000U SCT003///
                        BKN005/// BKN033/// 00/00 Q1029=
201901010100 METAR LRBM 010100Z AUTO 00000KT 1600 R09/1800N FEW003///
                        SCT015/// BKN085/// 01/00 Q1029=
201901010130 METAR LRBM 010130Z AUTO 11003KT 2200 R09/2000 FEW014/// SCT041///
                        00/00 Q1028=
201901010200 METAR LRBM 010200Z AUTO VRB01KT 1800 R09/1700VP2000D VV001
                        00/00 Q1028=
201901010230 METAR LRBM 010230Z AUTO 00000KT 1900 VV002 01/00 Q1028=
201901010300 METAR LRBM 010300Z AUTO 00000KT 1100 R09/1200N VV002 00/00
                        Q1028=
201901010330 METAR LRBM 010330Z AUTO 19002KT 0800 R09/0800V1100D VV001
                        00/M00 Q1028=
201901010400 METAR LRBM 010400Z AUTO 00000KT 0450 R09/0550N NCD 00/M00
                        Q1028=
201901010430 METAR LRBM 010430Z AUTO 00000KT 0600 R09/0700U NCD 00/00
                        Q1028=
201901010500 METAR LRBM 010500Z 00000KT 0300 R09/0750V1000U FG FEW001
                        BKN004 OVC031 01/00 Q1028 R09/19//95=
201901010530 METAR LRBM 010530Z 00000KT 0900 R09/1700U FG BKN001 OVC020
                        01/00 Q1028 R09/19//95=
201901010600 METAR LRBM 010600Z 09002KT 0900 R09/1200V1900U FG BKN001
                        OVC003 01/01 Q1027 R09/19//95=
201901010630 METAR LRBM 010630Z 06002KT 0900 R09/1800D FG BKN002 OVC030
                        01/01 Q1027 R09/19//95=
201901010700 METAR LRBM 010700Z 10002KT 0900 R09/1500VP2000D FG SCT003
                        BKN011 OVC037 01/01 Q1027 R09/19//95=
201901010730 METAR LRBM 010730Z 12001KT 0500 R09/1400N FG FEW003 SCT005
                        OVC013 01/01 Q1027 R09/19//95=
201901010800 METAR LRBM 010800Z 11002KT 0700 R09/0900V1400U FG FEW001
                        BKN004 OVC019 01/01 Q1027 R09/19//95=
201901010830 METAR LRBM 010830Z 09002KT 1500 BR FEW001 BKN004 OVC013 01/01
                        Q1027 R09/19//95=
201901010900 METAR LRBM 010900Z 11002KT 2000 BR OVC005 01/01 Q1027 R09/19//95=
201901010930 METAR LRBM 010930Z 10002KT 2500 BR BKN004 OVC029 01/01 Q1026
                        R09/19//95=
201901011000 METAR LRBM 011000Z 07003KT 3000 BR SCT003 BKN010 BKN040 01/01
                        Q1026 R09/19//95=
201901011030 METAR LRBM 011030Z VRB01KT 4000 BR BKN009 BKN028 02/01 Q1025
                        R09/19//95=
201901011100 METAR LRBM 011100Z 00000KT 5000 BR FEW004 SCT010 BKN013 02/01
                        Q1025 R09/19//95=
201901011130 METAR LRBM 011130Z 00000KT 7000 FEW005 BKN014 02/01 Q1024
                        R09/19//95=
201901011200 METAR LRBM 011200Z 10002KT 8000 FEW013 BKN050 02/01 Q1024
                        R09/19//95=
201901011230 METAR LRBM 011230Z 09003KT 9000 SCT026 BKN055 02/01 Q1023
                        R09/19//95=
201901011300 METAR LRBM 011300Z 08004KT 9999 FEW014 BKN050 02/01 Q1023
                        R09/19//95=
201901011330 METAR LRBM 011330Z 10004KT 9999 FEW015 BKN049 02/00 Q1022
                        R09/19//95=
201901011400 METAR LRBM 011400Z 09003KT 9999 FEW027 BKN043 02/00 Q1022
                        R09/19//95=
201901011430 METAR LRBM 011430Z 06003KT 9999 SCT033 SCT049 02/M00 Q1022
                        R09/19//95=
201901011500 METAR LRBM 011500Z 09003KT 9000 SCT031 SCT049 02/00 Q1021
                        R09/19//95=
201901011530 METAR LRBM 011530Z 06003KT 9999 SCT032 SCT055 02/00 Q1021
                        R09/19//95=
201901011600 METAR LRBM 011600Z 01002KT 9999 FEW024 SCT055 02/00 Q1021
                        R09/19//95=
201901011630 METAR LRBM 011630Z VRB01KT 9999 SCT055 01/00 Q1020 R09/19//95=
201901011700 METAR LRBM 011700Z 05002KT 9999 SCT030 01/00 Q1020 R09/19//95=
201901011730 METAR LRBM 011730Z AUTO VRB02KT 5000 -DZ VV011 01/M00 Q1020=
201901011800 METAR LRBM 011800Z AUTO 09003KT 5000 -RA FEW007/// SCT009///
                        BKN013/// 01/M00 Q1019=
201901011830 METAR LRBM 011830Z AUTO 09004KT 3200 -RASN VV007 00/M00 Q1019=
201901011900 METAR LRBM 011900Z AUTO 09004KT 2200 -PL FEW004/// BKN006///
                        BKN060/// 00/M00 Q1018=
201901011930 METAR LRBM 011930Z AUTO 10004KT 3000 -SN FEW003/// SCT005///
                        BKN007/// 00/M00 Q1018=
201901012000 METAR LRBM 012000Z AUTO 08006KT 2000 -SN VV004 00/M00 Q1017=
201901012030 METAR LRBM 012030Z AUTO 08006KT 2100 -SN VV004 00/M00 Q1017=
201901012100 METAR LRBM 012100Z AUTO 08006KT 2100 VV005 00/M00 Q1016=
201901012130 METAR LRBM 012130Z AUTO 08006KT 1800 VV004 00/M00 Q1015=
201901012200 METAR LRBM 012200Z AUTO 07004KT 2500 FEW002/// BKN005///
                        BKN012/// 00/M00 Q1015=
201901012230 METAR LRBM 012230Z AUTO 07005KT 2000 R09/1700VP2000U SCT004///
                        BKN006/// BKN023/// 00/M00 Q1014=
201901012300 METAR LRBM 012300Z AUTO 07006KT 3100 VV005 00/M00 Q1014=
201901012330 METAR LRBM 012330Z AUTO 09006KT 2400 VV005 00/M00 Q1013=
201901020000 METAR LRBM 020000Z AUTO 10004KT 3300 SCT002/// BKN005///
                        BKN023/// 00/M00 Q1013=
201901020030 METAR LRBM 020030Z AUTO 09005KT 3000 VV007 00/M00 Q1012=
201901020100 METAR LRBM 020100Z AUTO 08005KT 2900 SCT002/// BKN005///
                        BKN047/// 00/M00 Q1012=
201901020130 METAR LRBM 020130Z AUTO 09005KT 2900 SCT002/// BKN005///
                        BKN018/// 00/M00 Q1011=
201901020200 METAR LRBM 020200Z AUTO 09006KT 2800 SCT002/// BKN006///
                        BKN015/// 00/M00 Q1011=
201901020230 METAR LRBM 020230Z AUTO 08006KT 2700 SCT002/// BKN004///
                        00/M00 Q1010=
201901020300 METAR LRBM 020300Z AUTO 08006KT 3200 SCT002/// BKN008///
                        BKN037/// 00/M00 Q1010=
201901020330 METAR LRBM 020330Z AUTO 08006KT 1400 R09/1400VP2000D VV002
                        00/M00 Q1009=
201901020400 METAR LRBM 020400Z AUTO 08005KT 3200 SCT002/// BKN005///
                        00/M00 Q1009=
201901020430 METAR LRBM 020430Z AUTO 12004KT 080V140 3900 VV007 00/M00
                        Q1009=
201901020500 METAR LRBM 020500Z 09005KT 2000 SN BR BKN005 OVC020 00/M00
                        Q1008=
201901020530 METAR LRBM 020530Z 08004KT 4000 SN BR BKN007 OVC025 00/00
                        Q1008 R09/599292=
201901020600 METAR LRBM 020600Z 10003KT 1700 SN BR BKN003 OVC020 00/M00
                        Q1008 R09/599292=
201901020630 METAR LRBM 020630Z 01003KT 3000 SN BR BKN005 OVC023 00/00
                        Q1008 R09/599292=
201901020700 METAR LRBM 020700Z 18003KT 8000 SCT016 BKN033 00/M00 Q1009
                        RESN R09/599292=
201901020730 METAR LRBM 020730Z 07003KT 330V120 9000 BKN016 BKN035 00/M00
                        Q1009 R09/599292=
201901020800 METAR LRBM 020800Z 28001KT 5000 -SN BR SCT010 BKN025 00/00
                        Q1009 R09/599292=
201901020830 METAR LRBM 020830Z 00000KT 3700 -SN BR SCT012 BKN025 00/00
                        Q1009 R09/599292=
201901020900 METAR LRBM 020900Z 26003KT 6000 -SN SCT013 BKN026 00/00 Q1009
                        R09/599292=
201901020930 METAR LRBM 020930Z 25005KT 6000 -SN BKN012 BKN030 01/00 Q1009
                        R09/599292=
201901021000 METAR COR LRBM 021000Z 28002KT 4000 -SN BR BKN010 OVC027
                        01/00 Q1009 R09/599292=
201901021030 METAR LRBM 021030Z 27001KT 2000 -RASN BR BKN005 OVC025 00/M00
                        Q1009 R09/599292=
201901021100 METAR LRBM 021100Z 17002KT 1600 SN BR BKN003 OVC020 00/M00
                        Q1009 R09/599292=
201901021130 METAR LRBM 021130Z 00000KT 5000 -SN BR SCT009 BKN025 01/00
                        Q1009 R09/599292=
201901021200 METAR LRBM 021200Z 07002KT 3000 -SN BR SCT007 BKN011 OVC023
                        00/M00 Q1009 R09/599292=
201901021230 METAR LRBM 021230Z 00000KT 3000 -SN BR BKN007 OVC023 01/00
                        Q1009 R09/599292=
201901021300 METAR LRBM 021300Z 15003KT 110V170 6000 -SN SCT006 BKN014
                        OVC030 00/M00 Q1009 R09/599292=
201901021330 METAR LRBM 021330Z 20002KT 4000 -RASN BR BKN010 OVC030 01/00
                        Q1009 R09/599292=
201901021400 METAR LRBM 021400Z 23003KT 1700 SN BR BKN008 OVC025 00/M00
                        Q1010 R09/599292=
201901021430 METAR LRBM 021430Z 29004KT 1500 SN BR BKN004 OVC020 00/M00
                        Q1010 R09/599292=
201901021500 METAR LRBM 021500Z 28005KT 2000 SN BR BKN006 OVC022 00/M00
                        Q1010 R09/599292=
201901021530 METAR LRBM 021530Z 28005KT 2300 SN BR BKN007 OVC024 00/M00
                        Q1010 R09/599292=
201901021600 METAR LRBM 021600Z 28004KT 260V330 3000 SN BR BKN007 OVC023
                        00/M00 Q1011 R09/599292=
201901021630 METAR LRBM 021630Z 28005KT 3000 SN BR BKN008 OVC026 00/M00
                        Q1011 R09/599292=
201901021700 METAR LRBM 021700Z 28004KT 3500 SN BR BKN007 OVC026 00/M00
                        Q1011 R09/599292=
201901021730 METAR LRBM 021730Z AUTO 29006KT 4200 FEW001/// BKN006///
                        BKN035/// 00/00 Q1011=
201901021800 METAR LRBM 021800Z AUTO 29005KT 2800 SCT002/// BKN004///
                        BKN006/// 00/00 Q1011=
201901021830 METAR LRBM 021830Z AUTO 28007KT 3800 SCT002/// BKN004///
                        00/00 Q1011=
201901021900 METAR LRBM 021900Z AUTO 28008KT 9999 FEW003/// SCT006///
                        BKN008/// 00/00 Q1012=
201901021930 METAR LRBM 021930Z AUTO 28007KT 9999 FEW008/// SCT013///
                        BKN019/// 00/00 Q1012=
201901022000 METAR LRBM 022000Z AUTO 28008KT 9999 FEW017/// SCT160///
                        BKN240/// 00/00 Q1012=
201901022030 METAR LRBM 022030Z AUTO 29007KT 9999 FEW006/// SCT180///
                        M00/M00 Q1013 RESN=
201901022100 METAR LRBM 022100Z AUTO 28007KT 9999 FEW070/// SCT230///
                        M00/M01 Q1013=
201901022130 METAR LRBM 022130Z AUTO 28007KT 9999 FEW006/// SCT200///
                        M00/M01 Q1013=
201901022200 METAR LRBM 022200Z AUTO 28006KT 9999 FEW017/// SCT200///
                        M01/M01 Q1013=
201901022230 METAR LRBM 022230Z AUTO 27009KT 9999 FEW019/// SCT180///
                        M01/M02 Q1013=
201901022300 METAR LRBM 022300Z AUTO 27007KT 9999 FEW016/// SCT080///
                        BKN240/// M01/M02 Q1014=
201901022330 METAR LRBM 022330Z AUTO 27008KT 9999 FEW011/// SCT046///
                        BKN230/// M01/M02 Q1014=
201901030000 METAR LRBM 030000Z AUTO 28007KT 9000 FEW007/// SCT013///
                        BKN025/// M01/M02 Q1014=
201901030030 METAR LRBM 030030Z AUTO 28006KT 9999 FEW013/// SCT170///
                        BKN240/// M01/M03 Q1014=
201901030100 METAR LRBM 030100Z AUTO 28006KT 9999 FEW010/// SCT110///
                        BKN230/// M01/M03 Q1015=
201901030130 METAR LRBM 030130Z AUTO 28007KT 9999 FEW009/// SCT012///
                        BKN015/// M01/M03 Q1015=
201901030200 METAR LRBM 030200Z AUTO 27007KT 8000 -SN FEW009/// SCT012///
                        BKN015/// M01/M03 Q1015=
201901030230 METAR LRBM 030230Z AUTO 27006KT 9999 -SN FEW003/// BKN011///
                        BKN021/// M01/M03 Q1015=
201901030300 METAR LRBM 030300Z AUTO 27007KT 5000 VV011 M02/M03 Q1015=
201901030330 METAR LRBM 030330Z AUTO 28007KT 5000 -SN VV010 M02/M03 Q1015=
201901030400 METAR LRBM 030400Z AUTO 28006KT 250V330 9999 -SN FEW008///
                        SCT010/// BKN065/// M02/M03 Q1015=
201901030430 METAR LRBM 030430Z AUTO 27005KT 9000 FEW007/// SCT012///
                        BKN017/// M02/M03 Q1015=
201901030500 METAR LRBM 030500Z AUTO 28004KT 250V320 9000 -SN FEW008///
                        BKN012/// BKN080/// M02/M03 Q1016=
201901030530 METAR LRBM 030530Z AUTO 27004KT 9999 NCD M02/M04 Q1016=
201901030600 METAR LRBM 030600Z AUTO 28006KT 9999 SCT018/// BKN200///
                        M02/M04 Q1016=
201901030630 METAR LRBM 030630Z AUTO 29006KT 9999 FEW009/// SCT016///
                        BKN029/// M02/M04 Q1016=
201901030700 METAR LRBM 030700Z AUTO 30006KT 9000 FEW006/// BKN011///
                        BKN018/// M02/M04 Q1017=
201901030730 METAR LRBM 030730Z AUTO 28004KT 250V310 6000 SCT008/// BKN011///
                        BKN018/// M02/M04 Q1017=
201901030800 METAR LRBM 030800Z AUTO 30006KT 260V340 9999 FEW009/// SCT021///
                        M01/M04 Q1017=
201901030830 METAR LRBM 030830Z AUTO 26005KT 9999 FEW019/// SCT180///
                        M02/M04 Q1018=
201901030900 METAR LRBM 030900Z AUTO 26008KT 9999 FEW020/// SCT190///
                        M02/M05 Q1018=
201901030930 METAR LRBM 030930Z AUTO 28008KT 9999 FEW009/// SCT020///
                        BKN060/// M02/M04 Q1018=
201901031000 METAR COR LRBM 031000Z 28010KT 9999 -SHSN FEW007 SCT011 BKN023CB
                        M02/M05 Q1018 R09/599292=
201901031030 METAR LRBM 031030Z 28010KT 9999 -SHSN FEW009 SCT023CB M02/M04
                        Q1018 R09/590194=
201901031100 METAR LRBM 031100Z 29008KT 9999 VCSH FEW006 SCT025CB BKN030
                        M02/M05 Q1018 R09/590194=
201901031130 METAR COR LRBM 031130Z 29007KT 9999 FEW012 BKN040 M02/M05
                        Q1018 R09/590194=
201901031200 METAR LRBM 031200Z 29006KT 260V360 9999 FEW016 BKN041 M01/M05
                        Q1018 R09/590194=
201901031230 METAR LRBM 031230Z 29007KT 9999 FEW022 BKN041 M01/M05 Q1018
                        R09/590194=
201901031300 METAR LRBM 031300Z 30007KT 270V330 9999 FEW022 BKN041 M02/M05
                        Q1018 R09/590194=
201901031330 METAR LRBM 031330Z 29007KT 9999 FEW022 BKN043 M02/M06 Q1018
                        R09/590194=
201901031400 METAR LRBM 031400Z 29005KT 260V320 9999 FEW023 BKN046 M02/M06
                        Q1019 R09/910394=
201901031430 METAR LRBM 031430Z 30004KT 9999 FEW025 BKN050 M02/M06 Q1019
                        R09/910394=
201901031500 METAR LRBM 031500Z 26005KT 9999 FEW025 SCT053 M04/M07 Q1019
                        R09/910394=
201901031530 METAR LRBM 031530Z 26006KT 9999 FEW027 SCT055 M05/M08 Q1019
                        R09/910394=
201901031600 METAR LRBM 031600Z 27002KT 9999 FEW030 M05/M07 Q1019 R09/910394=
201901031630 METAR LRBM 031630Z 27003KT 9999 FEW032 M06/M07 Q1019 R09/910394=
201901031700 METAR LRBM 031700Z VRB01KT 9999 FEW037 M07/M08 Q1020 R09/910394=
201901031730 METAR LRBM 031730Z VRB01KT 9999 FEW040 M07/M08 Q1020 R09/910394=
201901031800 METAR LRBM 031800Z 31003KT 280V350 9999 FEW045 M06/M07 Q1020
                        R09/910394=
201901031830 METAR LRBM 031830Z 32004KT 280V340 CAVOK M06/M08 Q1020 R09/910394=
201901031900 METAR LRBM 031900Z 32004KT CAVOK M07/M08 Q1020 R09/910394=
201901031930 METAR LRBM 031930Z 03003KT 320V110 CAVOK M08/M10 Q1020 R09/910394=
201901032000 METAR LRBM 032000Z VRB01KT CAVOK M08/M09 Q1021 R09/910394=
201901032030 METAR LRBM 032030Z 05003KT 340V100 CAVOK M09/M10 Q1021 R09/910394=
201901032100 METAR LRBM 032100Z 08004KT CAVOK M09/M11 Q1021 R09/910394=
201901032130 METAR LRBM 032130Z 07003KT CAVOK M10/M11 Q1021 R09/910394=
201901032200 METAR LRBM 032200Z 08002KT CAVOK M11/M11 Q1022 R09/910394=
201901032230 METAR LRBM 032230Z AUTO 04002KT 8000 FEW065/// SCT230///
                        M11/M12 Q1022=
201901032300 METAR LRBM 032300Z AUTO 08002KT 030V100 9000 FEW075/// SCT210///
                        M11/M12 Q1022=
201901032330 METAR LRBM 032330Z AUTO 10003KT 9999 FEW075/// SCT190///
                        M12/M13 Q1022=
201901040000 METAR LRBM 040000Z AUTO 08004KT 6000 FEW085/// SCT210///
                        M12/M13 Q1022=
201901040030 METAR LRBM 040030Z AUTO 08003KT 7000 FEW025/// SCT200///
                        M12/M13 Q1022=
201901040100 METAR LRBM 040100Z AUTO 08003KT 7000 FEW047/// SCT220///
                        M14/M15 Q1022=
201901040130 METAR LRBM 040130Z AUTO 08002KT 9000 FEW036/// SCT190///
                        M12/M13 Q1022=
201901040200 METAR LRBM 040200Z AUTO 09004KT 6000 FEW075/// SCT220///
                        M14/M15 Q1022=
201901040230 METAR LRBM 040230Z AUTO VRB01KT 9000 FEW090/// SCT200///
                        M13/M14 Q1023=
201901040300 METAR LRBM 040300Z 09002KT CAVOK M14/M15 Q1023 R09/910394=
201901040330 METAR LRBM 040330Z 06003KT CAVOK M13/M14 Q1023 R09/910394=
201901040400 METAR LRBM 040400Z 08003KT 9999 SCT008 M12/M14 Q1023 R09/910394=
201901040430 METAR LRBM 040430Z 11001KT 9999 SCT002 OVC013 M12/M13 Q1023
                        R09/910394=
201901040500 METAR LRBM 040500Z 00000KT 8000 BKN001 M12/M13 Q1023 R09/910394=
201901040530 METAR LRBM 040530Z 00000KT 6000 SCT004 OVC040 M12/M13 Q1023
                        R09/910394=
201901040600 METAR LRBM 040600Z VRB01KT 9999 SCT030 BKN055 M11/M12 Q1024
                        R09/910394=
201901040630 METAR LRBM 040630Z 10002KT 9999 SCT050 M11/M12 Q1024 R09/910394=
201901040700 METAR LRBM 040700Z 00000KT CAVOK M11/M12 Q1025 R09/910394=
201901040730 METAR LRBM 040730Z 10001KT 9999 FEW027 M10/M11 Q1025 R09/910394=
201901040800 METAR LRBM 040800Z 00000KT 8000 SCT023 M09/M11 Q1025 R09/910394=
201901040830 METAR LRBM 040830Z 00000KT 8000 FEW030 M09/M10 Q1025 R09/910394=
201901040900 METAR LRBM 040900Z 00000KT 8000 SCT048 M09/M10 Q1025 R09/910394=
201901040930 METAR LRBM 040930Z VRB01KT 8000 BKN009 OVC050 M08/M09 Q1025
                        R09/910394=
201901041000 METAR LRBM 041000Z 08001KT 8000 BKN009 M08/M09 Q1025 R09/910394=
201901041030 METAR LRBM 041030Z 21001KT 9000 BKN008 M08/M09 Q1025 R09/910394=
201901041100 METAR LRBM 041100Z 00000KT 9999 FEW055 M06/M08 Q1025 R09/910394=
201901041130 METAR LRBM 041130Z VRB01KT 9999 FEW031 M07/M08 Q1025 R09/910394=
201901041200 METAR LRBM 041200Z AUTO 00000KT 9999 FEW075/// M06/M08 Q1025=
201901041230 METAR LRBM 041230Z 10002KT 9999 FEW030 M06/M08 Q1025 R09/910394=
201901041300 METAR LRBM 041300Z 08002KT 9999 FEW022 M06/M08 Q1025 R09/910394=
201901041330 METAR LRBM 041330Z 10002KT 9999 FEW022 M06/M08 Q1026 R09/910394=
201901041400 METAR LRBM 041400Z 12002KT 9999 FEW020 SCT033 M06/M08 Q1026
                        R09/910394=
201901041430 METAR LRBM 041430Z 09003KT 9999 -SN SCT026 M06/M07 Q1026
                        R09/910394=
201901041500 METAR LRBM 041500Z 08003KT 8000 -SN SCT022 M06/M07 Q1026
                        R09/910394=
201901041530 METAR LRBM 041530Z AUTO 07003KT 7000 -SHSN FEW010/// SCT024///
                        M06/M07 Q1026=
201901041600 METAR LRBM 041600Z AUTO 06003KT 7000 -SN FEW008/// SCT020///
                        BKN032/// M05/M07 Q1026=
201901041630 METAR LRBM 041630Z AUTO 07003KT 7000 FEW012/// BKN033///
                        M06/M07 Q1026=
201901041700 METAR LRBM 041700Z AUTO 09003KT 8000 FEW023/// SCT034///
                        M06/M08 Q1026=
201901041730 METAR LRBM 041730Z AUTO 08003KT 9000 SCT023/// BKN120///
                        M06/M07 Q1026 RESN=
201901041800 METAR LRBM 041800Z AUTO 08003KT 8000 SCT023/// BKN075///
                        M06/M07 Q1026 RESN=
201901041830 METAR LRBM 041830Z AUTO 07003KT 8000 SCT025/// BKN180///
                        M06/M07 Q1026=
201901041900 METAR LRBM 041900Z AUTO 05003KT 8000 SCT023/// BKN170///
                        M05/M07 Q1026=
201901041930 METAR LRBM 041930Z AUTO 06003KT 7000 SCT024/// BKN029///
                        M05/M07 Q1025=
201901042000 METAR LRBM 042000Z AUTO 06002KT 020V080 7000 FEW023/// BKN027///
                        M05/M07 Q1025=
201901042030 METAR LRBM 042030Z AUTO 05002KT 010V080 8000 BKN027/// M05/M07
                        Q1025=
201901042100 METAR LRBM 042100Z AUTO 00000KT 6000 BKN028/// BKN240///
                        M05/M07 Q1025=
201901042130 METAR LRBM 042130Z AUTO VRB01KT 6000 BKN028/// M05/M07 Q1025=
201901042200 METAR LRBM 042200Z AUTO 00000KT 6000 BKN029/// M05/M07 Q1025=
201901042230 METAR LRBM 042230Z AUTO 04001KT 6000 BKN030/// M05/M07 Q1025=
201901042300 METAR LRBM 042300Z AUTO VRB01KT 7000 BKN030/// BKN230///
                        M05/M07 Q1025=
201901042330 METAR LRBM 042330Z AUTO 07003KT 030V090 7000 BKN029/// M05/M07
                        Q1024=
201901050000 METAR LRBM 050000Z AUTO VRB02KT 7000 BKN028/// BKN075///
                        M05/M07 Q1024=
201901050030 METAR LRBM 050030Z AUTO 08004KT 050V110 6000 BKN030/// M06/M07
                        Q1024=
201901050100 METAR LRBM 050100Z AUTO VRB01KT 7000 BKN030/// BKN240///
                        M05/M07 Q1024=
201901050130 METAR LRBM 050130Z AUTO 07002KT 7000 SCT030/// BKN035///
                        M06/M07 Q1024=
201901050200 METAR LRBM 050200Z AUTO 08002KT 8000 SCT035/// BKN048///
                        M06/M07 Q1023 RESN=
201901050230 METAR LRBM 050230Z AUTO 06001KT 8000 FEW017/// SCT037///
                        BKN160/// M06/M07 Q1023=
201901050300 METAR LRBM 050300Z AUTO 00000KT 7000 FEW010/// SCT023///
                        BKN042/// M06/M07 Q1023=
201901050330 METAR LRBM 050330Z AUTO 00000KT 5000 FEW007/// SCT012///
                        BKN021/// M06/M07 Q1022=
201901050400 METAR LRBM 050400Z AUTO 05003KT 7000 FEW008/// SCT041///
                        BKN130/// M05/M07 Q1022=
201901050430 METAR LRBM 050430Z AUTO 03003KT 350V060 9999 SCT029/// BKN035///
                        M05/M07 Q1022=
201901050500 METAR LRBM 050500Z AUTO 12003KT 9999 FEW012/// SCT029///
                        BKN035/// M05/M07 Q1021=
201901050530 METAR LRBM 050530Z AUTO 08004KT 9000 FEW028/// SCT033///
                        BKN075/// M06/M07 Q1021=
201901050600 METAR LRBM 050600Z AUTO 07002KT 6000 FEW011/// SCT033///
                        BKN085/// M06/M07 Q1021=
201901050630 METAR LRBM 050630Z AUTO 06003KT 2200 VV008 M05/M07 Q1021=
201901050700 METAR LRBM 050700Z AUTO 08004KT 5000 -SN FEW005/// SCT010///
                        BKN014/// M05/M07 Q1021=
201901050730 METAR LRBM 050730Z AUTO 08005KT 7000 -SN FEW005/// SCT024///
                        BKN032/// M05/M06 Q1020=
201901050800 METAR LRBM 050800Z AUTO 08006KT 4400 -SN FEW007/// SCT012///
                        BKN019/// M05/M06 Q1020=
201901050830 METAR LRBM 050830Z AUTO 08008KT 3400 -SN SCT007/// BKN010///
                        BKN020/// M05/M06 Q1019=
201901050900 METAR LRBM 050900Z AUTO 08007KT 3000 -SN VV011 M05/M06 Q1019=
201901050930 METAR LRBM 050930Z AUTO 09006KT 2300 R09/1700VP2000U -SN
                        VV009 M05/M06 Q1018=
201901051000 METAR LRBM 051000Z AUTO 08006KT 2700 -SN SCT007/// BKN020///
                        BKN024/// M05/M06 Q1018=
201901051030 METAR LRBM 051030Z AUTO 08005KT 2400 R09/1600VP2000D -SN
                        VV012 M04/M06 Q1017=
201901051100 METAR LRBM 051100Z AUTO 08006KT 1600 R09/1600U -SN NCD M04/M06
                        Q1017=
201901051130 METAR LRBM 051130Z AUTO 08006KT 3400 -SN VV009 M04/M06 Q1016=
201901051200 METAR LRBM 051200Z AUTO 09006KT 1700 R09/1500VP2000D -SN
                        VV009 M05/M06 Q1016=
201901051230 METAR LRBM 051230Z AUTO 08007KT 2200 -SN NCD M04/M05 Q1015=
201901051300 METAR LRBM 051300Z AUTO 07007KT 3200 -SN VV009 M04/M06 Q1015=
201901051330 METAR LRBM 051330Z AUTO 07007KT 2500 -SN VV010 M04/M06 Q1015=
201901051400 METAR LRBM 051400Z AUTO 07007KT 3600 -SN VV011 M04/M06 Q1015=
201901051430 METAR LRBM 051430Z AUTO 07007KT 2100 -SN VV007 M05/M06 Q1014=
201901051500 METAR LRBM 051500Z AUTO 07007KT 2500 -SN VV008 M05/M06 Q1014=
201901051530 METAR LRBM 051530Z AUTO 07006KT 2400 -SN VV006 M05/M06 Q1014=
201901051600 METAR LRBM 051600Z AUTO 06005KT 2800 -SN VV008 M05/M06 Q1014=
201901051630 METAR LRBM 051630Z AUTO 07004KT 7000 -SN FEW006/// SCT009///
                        BKN036/// M05/M06 Q1014=
201901051700 METAR LRBM 051700Z AUTO 07003KT 9000 -SN FEW008/// SCT027///
                        BKN035/// M04/M06 Q1014=
201901051730 METAR LRBM 051730Z AUTO 05003KT 020V080 4100 -SN VV007 M05/M06
                        Q1014=
201901051800 METAR LRBM 051800Z AUTO 05003KT 2200 R09/1900VP2000U -SN
                        BKN003/// BKN006/// M05/M06 Q1014=
201901051830 METAR LRBM 051830Z AUTO 06003KT 030V090 3800 -SN VV008 M05/M06
                        Q1013=
201901051900 METAR LRBM 051900Z AUTO 06003KT 3900 -SN VV008 M05/M06 Q1013=
201901051930 METAR LRBM 051930Z AUTO 06003KT 3800 -SN VV007 M05/M06 Q1013=
201901052000 METAR LRBM 052000Z AUTO 07002KT 3400 -SN VV008 M05/M06 Q1013=
201901052030 METAR LRBM 052030Z AUTO 05002KT 3200 -SN VV008 M05/M06 Q1013=
201901052100 METAR LRBM 052100Z AUTO 04002KT 3200 -SN SCT006/// BKN009///
                        BKN023/// M05/M06 Q1013=
201901052130 METAR LRBM 052130Z AUTO VRB01KT 4500 -SN FEW005/// BKN009///
                        BKN070/// M05/M06 Q1013=
201901052200 METAR LRBM 052200Z AUTO 16001KT 9000 FEW014/// SCT026///
                        BKN120/// M05/M06 Q1013=
201901052230 METAR LRBM 052230Z AUTO 17002KT 7000 SCT021/// BKN065///
                        M05/M06 Q1013=
201901052300 METAR LRBM 052300Z AUTO VRB01KT 6000 SCT019/// BKN022///
                        M06/M06 Q1013=
201901052330 METAR LRBM 052330Z AUTO 00000KT 8000 BKN017/// M05/M06 Q1013=
201901060000 METAR LRBM 060000Z AUTO 00000KT 6000 SCT015/// BKN065///
                        M05/M06 Q1013=
201901060030 METAR LRBM 060030Z AUTO 00000KT 6000 FEW014/// SCT025///
                        M05/M06 Q1013=
201901060100 METAR LRBM 060100Z AUTO 27003KT 7000 -SHSN FEW013/// SCT017///
                        M05/M06 Q1013=
201901060130 METAR LRBM 060130Z AUTO 27003KT 6000 FEW012/// SCT016///
                        BKN065/// M05/M06 Q1013 RESN=
201901060200 METAR LRBM 060200Z AUTO 29004KT 6000 FEW009/// SCT016///
                        BKN050/// M05/M06 Q1013=
201901060230 METAR LRBM 060230Z AUTO 28005KT 9999 -SN FEW014/// SCT019///
                        M05/M06 Q1012=
201901060300 METAR LRBM 060300Z AUTO 29003KT 9000 SCT006/// BKN016///
                        M06/M06 Q1012 RESN=
201901060330 METAR LRBM 060330Z AUTO 28003KT 260V330 7000 -SHSN SCT006///
                        BKN008/// BKN036/// M05/M06 Q1012=
201901060400 METAR LRBM 060400Z AUTO 28005KT 9000 -SHSN BKN006/// BKN008///
                        M05/M06 Q1012=
201901060430 METAR LRBM 060430Z AUTO 27005KT 9000 -SHSN BKN005/// BKN007///
                        M05/M06 Q1012=
201901060500 METAR LRBM 060500Z AUTO 26005KT 7000 -SHSN NCD M05/M06 Q1012=
201901060530 METAR LRBM 060530Z AUTO 26005KT 5000 -SN NCD M05/M06 Q1013=
201901060600 METAR LRBM 060600Z AUTO 24007KT 6000 -SN BKN004/// BKN010///
                        M05/M06 Q1013=
201901060630 METAR LRBM 060630Z AUTO 25007KT 4700 -SN SCT003/// BKN005///
                        BKN011/// M05/M06 Q1013=
201901060700 METAR LRBM 060700Z AUTO 25006KT 3500 -SN BKN004/// BKN006///
                        M05/M06 Q1013=
201901060730 METAR LRBM 060730Z AUTO 25006KT 4700 -SN SCT003/// BKN005///
                        BKN014/// M05/M05 Q1014=
201901060800 METAR LRBM 060800Z AUTO 26007KT 5000 -SN BKN004/// BKN013///
                        M05/M05 Q1014=
201901060830 METAR LRBM 060830Z AUTO 27008KT 5000 -SN FEW005/// SCT018///
                        M05/M05 Q1014=
201901060900 METAR LRBM 060900Z AUTO 26007KT 5000 -SN FEW013/// SCT150///
                        M05/M05 Q1014=
201901060930 METAR LRBM 060930Z AUTO 26009KT 7000 FEW030/// SCT230///
                        ///// Q1014 RESN=
201901061000 METAR LRBM 061000Z AUTO 26010KT 6000 FEW014/// SCT180///
                        M04/M05 Q1014=
201901061030 METAR LRBM 061030Z AUTO 26010KT 7000 FEW006/// SCT160///
                        M04/M05 Q1014=
201901061100 METAR LRBM 061100Z AUTO 25009KT 6000 FEW014/// SCT230///
                        M04/M05 Q1014=
201901061130 METAR LRBM 061130Z AUTO VRB03KT 9999 FEW034/// SCT230///
                        M02/M06 Q1014=
201901061200 METAR LRBM 061200Z AUTO VRB04KT 9999 FEW110/// SCT230///
                        M02/M07 Q1014=
201901061230 METAR LRBM 061230Z AUTO 35006KT 310V040 9999 FEW035/// SCT240///
                        M02/M07 Q1014=
201901061300 METAR LRBM 061300Z AUTO 35005KT 300V030 9999 FEW040/// SCT200///
                        M03/M07 Q1014=
201901061330 METAR LRBM 061330Z AUTO 33005KT 300V360 9999 FEW017/// SCT220///
                        M03/M08 Q1015=
201901061400 METAR LRBM 061400Z AUTO 30007KT 9999 FEW037/// SCT220///
                        M03/M09 Q1015=
201901061430 METAR LRBM 061430Z AUTO 28003KT 230V030 9999 FEW044/// SCT180///
                        M04/M09 Q1016=
201901061500 METAR LRBM 061500Z AUTO 28005KT 9999 FEW035/// SCT210///
                        M04/M09 Q1016=
201901061530 METAR LRBM 061530Z AUTO 29006KT 9999 FEW065/// SCT230///
                        M04/M09 Q1016=
201901061600 METAR LRBM 061600Z AUTO 29006KT 9999 FEW065/// SCT210///
                        M04/M09 Q1017=
201901061630 METAR LRBM 061630Z AUTO 27005KT 9999 FEW075/// SCT230///
                        M04/M09 Q1017=
201901061700 METAR LRBM 061700Z AUTO 30005KT 260V340 9999 FEW075/// SCT210///
                        M05/M09 Q1017=
201901061730 METAR LRBM 061730Z AUTO 30005KT 260V330 9999 FEW024/// SCT190///
                        M04/M10 Q1018=
201901061800 METAR LRBM 061800Z 32005KT CAVOK M04/M10 Q1018 R09/910294=
201901061830 METAR LRBM 061830Z 29005KT 9999 FEW055 M05/M10 Q1018 R09/910294=
201901061900 METAR LRBM 061900Z 28007KT 9999 FEW050 M05/M10 Q1018 R09/910294=
201901061930 METAR LRBM 061930Z 28007KT 9999 FEW050 M06/M10 Q1019 R09/910294=
201901062000 METAR LRBM 062000Z 29008KT 9999 FEW055 M06/M10 Q1019 R09/910294=
201901062030 METAR LRBM 062030Z 29007KT 9999 FEW055 M06/M10 Q1019 R09/910294=
201901062100 METAR LRBM 062100Z 28008KT 9999 FEW055 M06/M10 Q1020 R09/910294=
201901062130 METAR LRBM 062130Z 28006KT CAVOK M07/M10 Q1020 R09/910294=
201901062200 METAR LRBM 062200Z 29007KT CAVOK M07/M10 Q1020 R09/910294=
201901062230 METAR LRBM 062230Z AUTO 29006KT 9999 FEW080/// SCT240///
                        M07/M10 Q1020=
201901062300 METAR LRBM 062300Z AUTO 26007KT 9999 FEW060/// SCT210///
                        M08/M10 Q1020=
201901062330 METAR LRBM 062330Z AUTO 27009KT 9999 FEW050/// SCT190///
                        M07/M10 Q1021=
201901070000 METAR LRBM 070000Z AUTO 29008KT 9999 FEW050/// SCT180///
                        BKN240/// M07/M10 Q1021=
201901070030 METAR LRBM 070030Z AUTO 09002KT 350V140 9999 FEW050/// SCT210///
                        M07/M10 Q1021=
201901070100 METAR LRBM 070100Z AUTO VRB03KT 9999 FEW039/// SCT200///
                        M08/M10 Q1022=
201901070130 METAR LRBM 070130Z AUTO VRB01KT 9999 FEW037/// SCT170///
                        M08/M10 Q1022=
201901070200 METAR LRBM 070200Z AUTO VRB01KT 9999 FEW070/// SCT180///
                        M08/M10 Q1022=
201901070230 METAR LRBM 070230Z AUTO 32002KT 270V010 9999 FEW036/// SCT230///
                        M08/M10 Q1022=
201901070300 METAR LRBM 070300Z VRB01KT CAVOK M08/M10 Q1022 R09/910294=
201901070330 METAR LRBM 070330Z VRB01KT CAVOK M08/M09 Q1023 R09/910294=
201901070400 METAR LRBM 070400Z VRB01KT CAVOK M08/M10 Q1023 R09/910294=
201901070430 METAR LRBM 070430Z VRB02KT CAVOK M08/M10 Q1023 R09/910294=
201901070500 METAR LRBM 070500Z 10003KT CAVOK M08/M10 Q1023 R09/910294=
201901070530 METAR LRBM 070530Z 05002KT CAVOK M09/M10 Q1024 R09/910294=
201901070600 METAR LRBM 070600Z 03001KT CAVOK M10/M12 Q1024 R09/910294=
201901070630 METAR LRBM 070630Z 02002KT CAVOK M11/M12 Q1025 R09/910294=
201901070700 METAR LRBM 070700Z VRB01KT CAVOK M10/M11 Q1025 R09/910294=
201901070730 METAR LRBM 070730Z 07001KT CAVOK M09/M11 Q1026 R09/910294=
201901070800 METAR LRBM 070800Z 06002KT CAVOK M09/M11 Q1026 R09/910294=
201901070830 METAR LRBM 070830Z 08004KT CAVOK M09/M10 Q1026 R09/910294=
201901070900 METAR LRBM 070900Z 09003KT CAVOK M07/M10 Q1026 R09/910294=
201901070930 METAR LRBM 070930Z 09002KT CAVOK M06/M10 Q1027 R09/910294=
201901071000 METAR LRBM 071000Z 07001KT CAVOK M06/M09 Q1027 R09/910294=
201901071030 METAR LRBM 071030Z 00000KT CAVOK M04/M09 Q1026 R09/910294=
201901071100 METAR LRBM 071100Z 17002KT CAVOK M05/M09 Q1026 R09/910294=
201901071130 METAR LRBM 071130Z 18002KT CAVOK M05/M09 Q1026 R09/910294=
201901071200 METAR LRBM 071200Z 21001KT CAVOK M05/M10 Q1026 R09/910294=
201901071230 METAR LRBM 071230Z 00000KT CAVOK M05/M09 Q1026 R09/910294=
201901071300 METAR LRBM 071300Z 00000KT CAVOK M04/M09 Q1026 R09/910294=
201901071330 METAR LRBM 071330Z 11001KT CAVOK M05/M09 Q1026 R09/910294=
201901071400 METAR LRBM 071400Z 08002KT CAVOK M06/M09 Q1026 R09/910294=
201901071430 METAR LRBM 071430Z 00000KT CAVOK M08/M10 Q1027 R09/910294=
201901071500 METAR LRBM 071500Z 07001KT CAVOK M08/M09 Q1027 R09/910294=
201901071530 METAR LRBM 071530Z AUTO 06001KT 5000 BR FEW050/// SCT230///
                        M09/M11 Q1027=
201901071600 METAR LRBM 071600Z AUTO 06003KT 5000 BR FEW060/// SCT240///
                        M11/M12 Q1027=
201901071630 METAR LRBM 071630Z AUTO 04001KT 4800 BR FEW037/// SCT180///
                        M10/M11 Q1027=
201901071700 METAR LRBM 071700Z AUTO 07002KT 5000 BR FEW060/// SCT230///
                        M12/M13 Q1027=
201901071730 METAR LRBM 071730Z AUTO 09003KT 6000 FEW022/// SCT190///
                        M11/M12 Q1027=
201901071800 METAR LRBM 071800Z AUTO 09002KT 5000 BR FEW070/// SCT200///
                        M12/M13 Q1027=
201901071830 METAR LRBM 071830Z AUTO 09002KT 5000 FEW065/// SCT180///
                        BKN240/// M12/M13 Q1027 RESN=
201901071900 METAR LRBM 071900Z AUTO 09002KT 6000 FEW065/// SCT210///
                        M13/M15 Q1027 RESN=
201901071930 METAR LRBM 071930Z AUTO 09004KT 9000 FEW075/// SCT220///
                        M13/M15 Q1027=
201901072000 METAR LRBM 072000Z AUTO 09006KT 5000 BR FEW055/// SCT180///
                        M14/M15 Q1027=
201901072030 METAR LRBM 072030Z AUTO 08006KT 5000 BR FEW095/// SCT200///
                        M13/M14 Q1027=
201901072100 METAR LRBM 072100Z AUTO 10002KT 060V200 4000 BR FEW075///
                        SCT190/// M15/M17 Q1027=
201901072130 METAR LRBM 072130Z AUTO VRB01KT 4700 BR FEW085/// SCT240///
                        M16/M17 Q1027=
201901072200 METAR LRBM 072200Z AUTO VRB03KT 6000 FEW060/// SCT200///
                        M15/M16 Q1026=
201901072230 METAR LRBM 072230Z AUTO 10005KT 7000 FEW041/// SCT200///
                        M14/M15 Q1026=
201901072300 METAR LRBM 072300Z AUTO 08005KT 010V100 5000 BR FEW075///
                        SCT230/// M16/M17 Q1026=
201901072330 METAR LRBM 072330Z AUTO 10004KT 070V180 6000 FEW090/// SCT220///
                        M16/M18 Q1026=
201901080000 METAR LRBM 080000Z AUTO VRB01KT 6000 FEW055/// SCT230///
                        M16/M18 Q1026=
201901080030 METAR LRBM 080030Z AUTO 10003KT 7000 FEW029/// SCT180///
                        BKN240/// M17/M18 Q1026=
201901080100 METAR LRBM 080100Z AUTO VRB01KT 7000 FEW060/// SCT200///
                        M17/M19 Q1026=
201901080130 METAR LRBM 080130Z AUTO VRB01KT 7000 FEW080/// SCT220///
                        M17/M19 Q1025=
201901080200 METAR LRBM 080200Z AUTO 10005KT 6000 FEW095/// SCT240///
                        M18/M20 Q1025=
201901080230 METAR LRBM 080230Z AUTO 00000KT 7000 FEW080/// SCT240///
                        M17/M19 Q1025=
201901080300 METAR LRBM 080300Z AUTO 00000KT 6000 FEW085/// SCT230///
                        M18/M20 Q1024=
201901080330 METAR LRBM 080330Z AUTO 00000KT 4300 BR FEW001/// SCT100///
                        BKN240/// M19/M21 Q1024=
201901080400 METAR LRBM 080400Z AUTO 08003KT 8000 FEW001/// SCT200///
                        M17/M19 Q1024=
201901080430 METAR LRBM 080430Z AUTO 26002KT 7000 FEW001/// SCT014///
                        BKN020/// M18/M20 Q1024=
201901080500 METAR LRBM 080500Z 00000KT 7000 BKN016 M16/M18 Q1023 R09/910294=
201901080530 METAR LRBM 080530Z 09001KT 9000 BKN015 M15/M17 Q1023 R09/910294=
201901080600 METAR LRBM 080600Z 00000KT 9999 SCT016 M14/M16 Q1023 R09/910294=
201901080630 METAR LRBM 080630Z 00000KT 9999 SCT016 M14/M15 Q1023 R09/910294=
201901080700 METAR LRBM 080700Z VRB01KT 9000 -SN BKN017 M13/M15 Q1023
                        R09/910294=
201901080730 METAR LRBM 080730Z 10002KT 8000 -SN SCT016 OVC040 M13/M14
                        Q1022 R09/910294=
201901080800 METAR LRBM 080800Z 09002KT 4500 -SN BR BKN015 OVC035 M12/M14
                        Q1021 R09/910294=
201901080830 METAR LRBM 080830Z 00000KT 3500 -SN BR BKN013 OVC033 M11/M12
                        Q1021 R09/910294=
201901080900 METAR LRBM 080900Z 12001KT 4000 -SN BR BKN015 OVC035 M10/M12
                        Q1020 R09/490594=
201901080930 METAR LRBM 080930Z 08001KT 4000 -SN BR BKN013 OVC028 M10/M11
                        Q1020 R09/490594=
201901081000 METAR LRBM 081000Z 00000KT 3500 -SN BR BKN014 OVC028 M10/M11
                        Q1019 R09/490594=
201901081030 METAR LRBM 081030Z 07002KT 3000 -SN BR SCT012 BKN019 OVC030
                        M09/M10 Q1019 R09/490594=
201901081100 METAR LRBM 081100Z 20003KT 2500 -SN BR SCT009 BKN015 OVC027
                        M10/M11 Q1018 R09/490594=
201901081130 METAR LRBM 081130Z 20001KT 3000 -SN BR BKN012 OVC026 M10/M11
                        Q1017 R09/490594=
201901081200 METAR LRBM 081200Z 00000KT 3500 -SN BR SCT010 BKN017 OVC028
                        M09/M10 Q1017 R09/490594=
201901081230 METAR LRBM 081230Z 09005KT 6000 -SN SCT016 BKN034 M08/M09
                        Q1016 R09/490594=
201901081300 METAR LRBM 081300Z 11004KT 7000 SCT018 SCT038 M07/M08 Q1016
                        R09/490594=
201901081330 METAR LRBM 081330Z 11004KT 9000 BKN042 M07/M08 Q1015 R09/490594=
201901081400 METAR LRBM 081400Z 13004KT 9999 BKN045 M07/M09 Q1015 R09/490594=
201901081430 METAR LRBM 081430Z 14004KT 8000 -SN BKN040 M07/M09 Q1015
                        R09/490594=
201901081500 METAR LRBM 081500Z 12005KT 8000 -SN SCT013 OVC037 M07/M09
                        Q1014 R09/490594=
201901081530 METAR LRBM 081530Z 10004KT 6000 -SN BKN011 OVC033 M07/M09
                        Q1014 R09/490594=
201901081600 METAR LRBM 081600Z 08004KT 6000 -SN BKN012 OVC032 M07/M08
                        Q1013 R09/490594=
201901081630 METAR LRBM 081630Z 09004KT 5000 -SN BR SCT011 OVC025 M07/M08
                        Q1013 R09/490594=
201901081700 METAR LRBM 081700Z 09006KT 4500 -SN BR BKN009 OVC025 M07/M08
                        Q1013 R09/490594=
201901081730 METAR LRBM 081730Z AUTO 09009KT 6000 -SN VV011 M07/M09 Q1012=
201901081800 METAR LRBM 081800Z AUTO 09011KT 5000 -SN VV012 M07/M09 Q1012=
201901081830 METAR LRBM 081830Z AUTO 09010KT 5000 -SN VV012 M07/M09 Q1012=
201901081900 METAR LRBM 081900Z AUTO 09009KT 5000 -SN VV012 M07/M09 Q1011=
201901081930 METAR LRBM 081930Z AUTO 09009KT 5000 -SN VV012 M07/M09 Q1011=
201901082000 METAR LRBM 082000Z AUTO 10010KT 4500 -SN VV011 M07/M09 Q1011=
201901082030 METAR LRBM 082030Z AUTO 10009KT 4800 -SN VV010 M07/M09 Q1011=
201901082100 METAR LRBM 082100Z AUTO 09009KT 4400 -SN VV009 M07/M09 Q1010=
201901082130 METAR LRBM 082130Z AUTO 09010KT 4200 -SN VV008 M07/M09 Q1010=
201901082200 METAR LRBM 082200Z AUTO 08009KT 4500 -SN VV010 M07/M09 Q1010=
201901082230 METAR LRBM 082230Z AUTO 08008KT 9999 -SN FEW007/// BKN032///
                        BKN170/// M07/M09 Q1009=
201901082300 METAR LRBM 082300Z AUTO 07006KT 9999 -SHSN FEW016/// BKN030///
                        M07/M09 Q1009=
201901082330 METAR LRBM 082330Z AUTO 07004KT 9999 -SHSN FEW014/// BKN030///
                        M07/M09 Q1009=
201901090000 METAR LRBM 090000Z AUTO 08007KT 7000 -SN FEW007/// SCT019///
                        BKN029/// M07/M10 Q1008=
201901090030 METAR LRBM 090030Z AUTO 09006KT 5000 -SN FEW006/// SCT012///
                        BKN024/// M07/M09 Q1008=
201901090100 METAR LRBM 090100Z AUTO 10007KT 5000 -SN FEW006/// SCT010///
                        BKN030/// M07/M09 Q1008=
201901090130 METAR LRBM 090130Z AUTO 09008KT 9999 -SN BKN027/// M07/M09
                        Q1008=
201901090200 METAR LRBM 090200Z AUTO 09005KT 5000 -SHSN FEW009/// SCT016///
                        BKN028/// M07/M08 Q1007=
201901090230 METAR LRBM 090230Z AUTO 09006KT 9000 -SN FEW008/// BKN029///
                        M07/M08 Q1007=
201901090300 METAR LRBM 090300Z AUTO 09008KT 9999 -SN FEW009/// BKN030///
                        M07/M09 Q1006=
201901090330 METAR LRBM 090330Z AUTO 09007KT 9999 -SN FEW018/// BKN030///
                        M07/M09 Q1006=
201901090400 METAR LRBM 090400Z AUTO 09005KT 5000 -SN VV012 M06/M09 Q1006=
201901090430 METAR LRBM 090430Z AUTO 10003KT 4900 VV010 M07/M08 Q1006=
201901090500 METAR LRBM 090500Z 07005KT 9999 -SN BKN011 OVC030 M06/M08
                        Q1006 R09/490594=
201901090530 METAR LRBM 090530Z 10005KT 9999 -SN BKN011 OVC030 M06/M08
                        Q1006 R09/490594=
201901090600 METAR COR LRBM 090600Z 11004KT 6000 -SN SCT011 OVC033 M06/M08
                        Q1006 R09/490594=
201901090630 METAR LRBM 090630Z 07004KT 5000 -SN BR SCT013 OVC026 M06/M08
                        Q1006 R09/490594=
201901090700 METAR LRBM 090700Z 08004KT 5000 -SN BR BKN016 OVC030 M06/M08
                        Q1006 R09/491093=
201901090730 METAR LRBM 090730Z 06004KT 4000 -SG BR BKN016 OVC030 M06/M07
                        Q1006 R09/491093=
201901090800 METAR LRBM 090800Z 07004KT 6000 -SG SCT014 OVC030 M05/M07
                        Q1006 R09/491093=
201901090830 METAR LRBM 090830Z 07004KT 6000 -SG BKN018 OVC030 M05/M07
                        Q1006 R09/491093=
201901090900 METAR LRBM 090900Z 07006KT 8000 -SG BKN018 OVC028 M05/M07
                        Q1006 R09/491093=
201901090930 METAR LRBM 090930Z 08004KT 050V110 9999 SCT020 BKN030 M04/M07
                        Q1006 R09/491093=
201901091000 METAR LRBM 091000Z 09004KT 9999 SCT020 BKN033 M04/M07 Q1006
                        R09/491093=
201901091030 METAR LRBM 091030Z 08005KT 9999 SCT020 BKN033 M04/M07 Q1006
                        R09/491093=
201901091100 METAR LRBM 091100Z 09006KT 9999 SCT020 BKN033 M04/M07 Q1006
                        R09/491093=
201901091130 METAR LRBM 091130Z 13004KT 100V180 9999 SCT020 BKN035 M04/M07
                        Q1006 R09/491093=
201901091200 METAR LRBM 091200Z 08004KT 5000 SG SCT018 BKN035 M04/M06
                        Q1006 R09/491093=
201901091230 METAR LRBM 091230Z 06005KT 3000 SG BKN018 BKN035 M03/M05
                        Q1006 R09/491093=
201901091300 METAR LRBM 091300Z 09004KT 2500 SG OVC016 M03/M05 Q1006 R09/491093=
201901091330 METAR LRBM 091330Z 09004KT 3000 SG FEW012 OVC018 M03/M04
                        Q1006 R09/491093=
201901091400 METAR COR LRBM 091400Z VRB02KT 3000 -SG BR FEW012 OVC020
                        M03/M04 Q1006 RESG R09/491093=
201901091430 METAR LRBM 091430Z 10003KT 1800 SG BR SCT009 OVC020 M03/M04
                        Q1006 R09/491093=
201901091500 METAR LRBM 091500Z VRB02KT 2500 -SG BR FEW010 OVC020 M03/M04
                        Q1006 RESG R09/491093=
201901091530 METAR LRBM 091530Z VRB02KT 3000 -SG BR FEW010 BKN020 M03/M04
                        Q1006 R09/491093=
201901091600 METAR LRBM 091600Z 07003KT 5000 -SG BR FEW005 BKN020 M03/M04
                        Q1007 R09/491093=
201901091630 METAR LRBM 091630Z 13002KT 4000 -SG BR FEW005 BKN020 M03/M04
                        Q1007 R09/491093=
201901091700 METAR COR LRBM 091700Z 12002KT 5000 -SG BR FEW005 BKN020
                        M03/M04 Q1007 R09/491093=
201901091730 METAR LRBM 091730Z AUTO 10003KT 6000 -SHSN FEW009/// SCT020///
                        BKN070/// M03/M04 Q1007=
201901091800 METAR LRBM 091800Z AUTO 11004KT 7000 FEW007/// SCT012///
                        BKN020/// M03/M04 Q1007=
201901091830 METAR LRBM 091830Z AUTO 12002KT 7000 SCT020/// M03/M04 Q1007=
201901091900 METAR LRBM 091900Z AUTO 11002KT 8000 SCT020/// BKN240///
                        M03/M04 Q1008=
201901091930 METAR LRBM 091930Z AUTO 10002KT 9000 SCT019/// M03/M04 Q1008=
201901092000 METAR LRBM 092000Z AUTO 12003KT 070V170 6000 SCT019/// BKN027///
                        M03/M04 Q1008=
201901092030 METAR LRBM 092030Z AUTO VRB01KT 6000 -SN SCT020/// M03/M04
                        Q1008=
201901092100 METAR LRBM 092100Z AUTO 08002KT 050V120 6000 SCT020/// BKN090///
                        M03/M04 Q1008=
201901092130 METAR LRBM 092130Z AUTO 19001KT 5000 SCT020/// BKN049///
                        M03/M04 Q1008=
201901092200 METAR LRBM 092200Z AUTO 18002KT 5000 FEW021/// SCT028///
                        BKN034/// M03/M04 Q1008=
201901092230 METAR LRBM 092230Z AUTO 00000KT 5000 FEW022/// BKN028///
                        M03/M04 Q1008=
201901092300 METAR LRBM 092300Z AUTO 02001KT 5000 SCT027/// BKN031///
                        BKN240/// M03/M04 Q1008=
201901092330 METAR LRBM 092330Z AUTO 06002KT 5000 SCT029/// BKN043///
                        M04/M05 Q1008=
201901100000 METAR LRBM 100000Z AUTO 00000KT 3600 SCT029/// BKN038///
                        M05/M06 Q1007=
201901100030 METAR LRBM 100030Z AUTO 06002KT 2800 FEW029/// SCT044///
                        BKN240/// M06/M07 Q1008=
201901100100 METAR LRBM 100100Z AUTO VRB01KT 2900 R09/1100VP2000D FEW030///
                        SCT200/// M07/M07 Q1008=
201901100130 METAR LRBM 100130Z AUTO 08003KT 3700 SCT027/// BKN055///
                        M07/M08 Q1008=
201901100200 METAR LRBM 100200Z AUTO 07003KT 5000 FEW032/// SCT210///
                        M08/M08 Q1008=
201901100230 METAR LRBM 100230Z AUTO 04002KT 5000 FEW027/// SCT200///
                        M08/M09 Q1008=
201901100300 METAR LRBM 100300Z AUTO 10004KT 4500 FEW024/// SCT190///
                        M08/M09 Q1008=
201901100330 METAR LRBM 100330Z AUTO 08003KT 3600 SCT001/// BKN003///
                        BKN200/// M07/M08 Q1008=
201901100400 METAR LRBM 100400Z AUTO 10004KT 1600 R09/1000VP2000D FEW039///
                        SCT200/// M08/M10 Q1008=
201901100430 METAR LRBM 100430Z AUTO 03002KT 4300 FEW001/// SCT003///
                        BKN007/// M08/M09 Q1008=
201901100500 METAR LRBM 100500Z AUTO 07001KT 3500 R09/0900VP2000U FEW035///
                        SCT180/// BKN240/// M09/M10 Q1008=
201901100530 METAR LRBM 100530Z AUTO 00000KT 5000 SCT001/// BKN003///
                        BKN160/// M09/M10 Q1009=
201901100600 METAR LRBM 100600Z AUTO 08002KT 2700 R09/0800VP2000U VV001
                        M09/M10 Q1009=
201901100630 METAR LRBM 100630Z AUTO 07003KT 2500 FEW001/// BKN009///
                        M09/M10 Q1009=
201901100700 METAR LRBM 100700Z AUTO 15002KT 120V190 3200 FEW008/// SCT060///
                        BKN220/// M09/M10 Q1010=
201901100730 METAR LRBM 100730Z AUTO 08002KT 3300 BKN000/// BKN009///
                        M08/M09 Q1010=
201901100800 METAR LRBM 100800Z AUTO VRB01KT 2500 FEW001/// BKN003///
                        M07/M08 Q1010=
201901100830 METAR LRBM 100830Z AUTO 06001KT 2700 FEW002/// SCT043///
                        BKN160/// M07/M08 Q1010=
201901100900 METAR LRBM 100900Z AUTO 00000KT 3200 FEW004/// SCT190///
                        M05/M06 Q1010=
201901100930 METAR LRBM 100930Z AUTO 00000KT 2900 R09/1900VP2000D FEW004///
                        SCT150/// M04/M05 Q1010=
201901101000 METAR LRBM 101000Z 13002KT 2500 BR FEW006 M04/M05 Q1010 R09/491093=
201901101030 METAR LRBM 101030Z 19003KT 2500 BR FEW004 M04/M05 Q1010 R09/491093=
201901101100 METAR LRBM 101100Z 00000KT 1500 BR FEW003 M04/M05 Q1010 R09/920394=
201901101130 METAR COR LRBM 101130Z 18002KT 2500 BR FEW003 M04/M05 Q1010
                        R09/920394=
201901101200 METAR COR LRBM 101200Z 22002KT 4000 BR FEW006 M03/M04 Q1010
                        R09/920394=
201901101230 METAR LRBM 101230Z 18002KT 3500 BR NSC M03/M04 Q1010 R09/920394=
201901101300 METAR LRBM 101300Z 18001KT 3500 BR FEW005 M03/M05 Q1009 R09/920394=
201901101330 METAR LRBM 101330Z 22002KT 4000 BR FEW005 M03/M05 Q1009 R09/920394=
201901101400 METAR LRBM 101400Z 27002KT 4000 BR FEW005 M03/M05 Q1010 R09/920394=
201901101430 METAR LRBM 101430Z 00000KT 3000 BR NSC M04/M06 Q1010 R09/920394=
201901101500 METAR LRBM 101500Z 27002KT 3000 BR NSC M06/M06 Q1010 R09/920394=
201901101530 METAR COR LRBM 101530Z 28002KT 1200 0700W R09/1300U BR BCFG
                        VV001 M06/M07 Q1010 R09/920394=
201901101600 METAR LRBM 101600Z 30002KT 0800 R09/1100U FZFG VV001 M06/M07
                        Q1010 R09/920394=
201901101630 METAR LRBM 101630Z 26002KT 0500 R09/0700N FZFG NSC M07/M08
                        Q1010 R09/920394=
201901101700 METAR LRBM 101700Z 29002KT 0900 R09/1300D FZFG NSC M08/M09
                        Q1010 R09/920394=
201901101730 METAR LRBM 101730Z 00000KT 0300 R09/0450N FZFG NSC M09/M10
                        Q1010 R09/920394=
201901101800 METAR LRBM 101800Z 28001KT 0350 R09/0375N FZFG FEW002 M10/M11
                        Q1010 R09/920394=
201901101830 METAR LRBM 101830Z 28001KT 0300 R09/0325N FZFG FEW002 M11/M12
                        Q1011 R09/920394=
201901101900 METAR LRBM 101900Z 26002KT 0300 R09/0375N FZFG VV001 M09/M11
                        Q1011 R09/920394=
201901101930 METAR LRBM 101930Z 28003KT 0400 R09/0450U FZFG VV001 M08/M09
                        Q1011 R09/920394=
201901102000 METAR LRBM 102000Z VRB01KT 0400 R09/0450N FZFG VV001 M08/M09
                        Q1011 R09/920394=
201901102030 METAR LRBM 102030Z VRB01KT 0250 R09/0350N FZFG VV001 M08/M09
                        Q1011 R09/920394=
201901102100 METAR LRBM 102100Z 10002KT 0300 R09/0350N FZFG VV001 M08/M09
                        Q1011 R09/920394=
201901102130 METAR LRBM 102130Z 09003KT 0300 R09/0350N FZFG VV001 M08/M09
                        Q1011 R09/920394=
201901102200 METAR LRBM 102200Z 09003KT 0350 R09/0400N FZFG VV001 M08/M09
                        Q1011 R09/920394=
201901102230 METAR LRBM 102230Z AUTO 08003KT 0350 R09/0375N FZFG VV001
                        M07/M08 Q1011=
201901102300 METAR LRBM 102300Z AUTO VRB01KT 0900 R09/1100N FZFG VV001
                        M07/M08 Q1011=
201901102330 METAR LRBM 102330Z AUTO 09002KT 3200 BKN002/// M07/M08 Q1011=
201901110000 METAR LRBM 110000Z AUTO 00000KT 3600 BKN002/// BKN005///
                        M07/M07 Q1012=
201901110030 METAR LRBM 110030Z AUTO 09002KT 3400 FEW002/// BKN004///
                        BKN008/// M06/M07 Q1012=
201901110100 METAR LRBM 110100Z AUTO 11003KT 3400 FEW002/// BKN007///
                        M06/M07 Q1012=
201901110130 METAR LRBM 110130Z AUTO 08002KT 3300 FEW003/// BKN005///
                        BKN007/// M06/M07 Q1012=
201901110200 METAR LRBM 110200Z AUTO 07002KT 3300 OVC002/// M06/M07 Q1012=
201901110230 METAR LRBM 110230Z AUTO VRB01KT 3200 BKN001/// BKN006///
                        M06/M07 Q1012=
201901110300 METAR LRBM 110300Z 00000KT 2000 -SN BR BKN006 OVC020 M05/M06
                        Q1012 R09/920394=
201901110330 METAR LRBM 110330Z 00000KT 2500 -SN BR BKN007 OVC022 M05/M06
                        Q1012 R09/920394=
201901110400 METAR LRBM 110400Z 18001KT 3000 -SN BR SCT010 OVC025 M05/M06
                        Q1012 R09/920394=
201901110430 METAR LRBM 110430Z 00000KT 3200 -SN BR SCT013 OVC030 M05/M06
                        Q1012 R09/920394=
201901110500 METAR LRBM 110500Z 00000KT 2500 -SN BR SCT011 OVC028 M05/M06
                        Q1013 R09/920394=
201901110530 METAR LRBM 110530Z 00000KT 2500 -SN BR SCT015 OVC030 M05/M06
                        Q1013 R09/920394=
201901110600 METAR LRBM 110600Z 00000KT 2000 -SN BR SCT015 OVC033 M05/M06
                        Q1013 R09/920394=
201901110630 METAR LRBM 110630Z 25001KT 2000 -SN BR SCT017 BKN035 M05/M06
                        Q1014 R09/920394=
201901110700 METAR LRBM 110700Z 28001KT 2000 -SN BR SCT018 BKN033 M05/M06
                        Q1014 R09/591594=
201901110730 METAR LRBM 110730Z 00000KT 2300 -SN BR SCT019 BKN033 M05/M05
                        Q1014 R09/591594=
201901110800 METAR LRBM 110800Z 24001KT 2000 -SN BR BKN017 OVC032 M05/M05
                        Q1014 R09/591594=
201901110830 METAR LRBM 110830Z 25002KT 3000 -SN BR SCT015 BKN033 M05/M06
                        Q1015 R09/591594=
201901110900 METAR LRBM 110900Z 27004KT 4000 -SN BR SCT013 BKN035 M05/M05
                        Q1015 R09/591594=
201901110930 METAR LRBM 110930Z 27004KT 5000 -SN BR FEW014 SCT038 M05/M06
                        Q1015 R09/591594=
201901111000 METAR LRBM 111000Z 27004KT 4500 -SN BR SCT012 BKN034 M05/M05
                        Q1015 R09/591594=
201901111030 METAR LRBM 111030Z 25003KT 4000 -SN BR SCT013 BKN035 M05/M05
                        Q1015 R09/591594=
201901111100 METAR LRBM 111100Z 25002KT 4000 -SN BR SCT015 BKN035 M04/M05
                        Q1015 R09/950594=
201901111130 METAR LRBM 111130Z 25002KT 5000 BR FEW015 SCT038 M04/M05
                        Q1015 R09/950594=
201901111200 METAR LRBM 111200Z 20002KT 5000 BR SCT014 SCT040 M04/M05
                        Q1015 R09/950594=
201901111230 METAR LRBM 111230Z 00000KT 5000 BR FEW015 SCT045 M04/M05
                        Q1015 R09/950594=
201901111300 METAR LRBM 111300Z 00000KT 5000 BR FEW015 SCT050 M04/M05
                        Q1015 R09/950594=
201901111330 METAR LRBM 111330Z 26003KT 4500 -SN BR FEW015 BKN047 M04/M05
                        Q1015 R09/950594=
201901111400 METAR LRBM 111400Z 26003KT 4000 -SN BR SCT011 BKN040 M04/M05
                        Q1016 R09/950594=
201901111430 METAR LRBM 111430Z 27004KT 3500 -SN BR BKN009 BKN035 M04/M05
                        Q1016 R09/950594=
201901111500 METAR LRBM 111500Z 26003KT 3000 -SN BR BKN010 OVC030 M04/M05
                        Q1016 R09/950594=
201901111530 METAR LRBM 111530Z AUTO 27006KT 4700 FEW009/// BKN011///
                        M04/M05 Q1016=
201901111600 METAR LRBM 111600Z AUTO 29005KT 4900 BKN013/// BKN050///
                        M04/M05 Q1017=
201901111630 METAR LRBM 111630Z AUTO 29005KT 5000 BKN013/// M04/M05 Q1017=
201901111700 METAR LRBM 111700Z AUTO 29005KT 5000 FEW004/// BKN015///
                        M04/M05 Q1017=
201901111730 METAR LRBM 111730Z AUTO 29005KT 5000 FEW006/// SCT011///
                        BKN019/// M04/M06 Q1017=
201901111800 METAR LRBM 111800Z AUTO 29005KT 5000 FEW008/// SCT013///
                        BKN019/// M04/M06 Q1017=
201901111830 METAR LRBM 111830Z AUTO 29004KT 5000 FEW013/// SCT016///
                        M04/M06 Q1017=
201901111900 METAR LRBM 111900Z AUTO 28004KT 250V310 5000 FEW012/// SCT015///
                        BKN065/// M04/M06 Q1018=
201901111930 METAR LRBM 111930Z AUTO 27003KT 5000 -SN FEW010/// SCT015///
                        BKN040/// M04/M06 Q1018=
201901112000 METAR LRBM 112000Z AUTO 30001KT 5000 -SN FEW010/// SCT023///
                        M04/M06 Q1018=
201901112030 METAR LRBM 112030Z AUTO 18001KT 5000 -SHSN FEW016/// SCT055///
                        M04/M06 Q1017=
201901112100 METAR LRBM 112100Z AUTO 22001KT 4600 -SHSN FEW012/// SCT016///
                        BKN075/// M05/M06 Q1018=
201901112130 METAR LRBM 112130Z AUTO 27003KT 5000 FEW013/// SCT017///
                        BKN210/// M04/M06 Q1018 RESN=
201901112200 METAR LRBM 112200Z AUTO 29005KT 6000 FEW013/// SCT033///
                        BKN240/// M05/M07 Q1018=
201901112230 METAR LRBM 112230Z AUTO 31001KT 6000 BKN033/// M05/M07 Q1018=
201901112300 METAR LRBM 112300Z AUTO 02002KT 5000 BR BKN034/// M05/M07
                        Q1017=
201901112330 METAR LRBM 112330Z AUTO 36002KT 320V040 6000 SCT036/// BKN180///
                        M05/M07 Q1017=
201901120000 METAR LRBM 120000Z AUTO 06003KT 6000 FEW037/// BKN043///
                        M05/M07 Q1017=
201901120030 METAR LRBM 120030Z AUTO 05002KT 6000 SCT041/// BKN180///
                        M05/M07 Q1017=
201901120100 METAR LRBM 120100Z AUTO 06003KT 030V090 6000 SCT044/// BKN190///
                        M05/M07 Q1016=
201901120130 METAR LRBM 120130Z AUTO 11004KT 5000 BR FEW029/// SCT170///
                        BKN240/// M05/M07 Q1016=
201901120200 METAR LRBM 120200Z AUTO 08003KT 5000 BR FEW025/// SCT055///
                        BKN230/// M06/M07 Q1016=
201901120230 METAR LRBM 120230Z AUTO 07005KT 5000 BR FEW046/// SCT100///
                        M05/M07 Q1016=
201901120300 METAR LRBM 120300Z AUTO 05004KT 5000 BR FEW021/// SCT170///
                        M05/M07 Q1016=
201901120330 METAR LRBM 120330Z AUTO 05003KT 020V080 5000 BR FEW017///
                        SCT190/// M06/M07 Q1015=
201901120400 METAR LRBM 120400Z AUTO 09005KT 6000 FEW026/// SCT130///
                        BKN240/// M05/M07 Q1015=
201901120430 METAR LRBM 120430Z AUTO 09004KT 6000 FEW026/// SCT210///
                        M06/M07 Q1015=
201901120500 METAR LRBM 120500Z AUTO 09004KT 070V140 6000 FEW025/// SCT036///
                        BKN080/// M05/M07 Q1015=
201901120530 METAR LRBM 120530Z AUTO 07004KT 7000 BKN032/// M05/M07 Q1015=
201901120600 METAR LRBM 120600Z AUTO 06004KT 7000 FEW023/// SCT029///
                        BKN080/// M05/M07 Q1015=
201901120630 METAR LRBM 120630Z AUTO 09004KT 6000 -SN FEW013/// BKN030///
                        M05/M07 Q1015=
201901120700 METAR LRBM 120700Z AUTO 05003KT 4000 -SN VV012 M05/M06 Q1015=
201901120730 METAR LRBM 120730Z AUTO 06005KT 3600 -SN FEW011/// BKN017///
                        BKN022/// M04/M06 Q1015=
201901120800 METAR LRBM 120800Z AUTO 06004KT 3000 -SN FEW008/// SCT014///
                        BKN017/// M04/M05 Q1015=
201901120830 METAR LRBM 120830Z AUTO 08005KT 3100 -SN FEW011/// BKN016///
                        BKN019/// M04/M05 Q1015=
201901120900 METAR LRBM 120900Z AUTO 10005KT 4600 -SN FEW004/// SCT008///
                        BKN017/// M04/M05 Q1015=
201901120930 METAR LRBM 120930Z AUTO 09006KT 5000 -SN SCT016/// M04/M05
                        Q1015=
201901121000 METAR LRBM 121000Z AUTO 09005KT 5000 -SN FEW003/// SCT017///
                        M04/M05 Q1015=
201901121030 METAR LRBM 121030Z AUTO 09004KT 5000 -SN FEW007/// SCT009///
                        BKN017/// M04/M05 Q1015=
201901121100 METAR LRBM 121100Z AUTO 10003KT 5000 FEW003/// SCT006///
                        BKN017/// M04/M05 Q1015=
201901121130 METAR LRBM 121130Z AUTO 08003KT 3800 FEW004/// SCT009///
                        BKN016/// M03/M05 Q1015=
201901121200 METAR LRBM 121200Z AUTO 10003KT 3300 BKN007/// BKN017///
                        M03/M05 Q1015=
201901121230 METAR LRBM 121230Z AUTO 09003KT 3400 FEW006/// SCT008///
                        BKN017/// M03/M04 Q1014=
201901121300 METAR LRBM 121300Z AUTO 11002KT 3400 FEW003/// SCT008///
                        BKN011/// M03/M04 Q1014=
201901121330 METAR LRBM 121330Z AUTO 10003KT 5000 FEW005/// SCT018///
                        M03/M04 Q1015=
201901121400 METAR LRBM 121400Z AUTO 11003KT 5000 SCT016/// M03/M05 Q1015=
201901121430 METAR LRBM 121430Z AUTO 06002KT 4600 SCT015/// M03/M04 Q1014=
201901121500 METAR LRBM 121500Z AUTO 08003KT 4600 BKN013/// M03/M05 Q1014
                        RESN=
201901121530 METAR LRBM 121530Z AUTO 00000KT 5000 SCT014/// M03/M04 Q1014=
201901121600 METAR LRBM 121600Z AUTO 08001KT 5000 BR BKN013/// BKN240///
                        M04/M05 Q1014=
201901121630 METAR LRBM 121630Z AUTO 00000KT 4700 BKN013/// BKN036///
                        M03/M04 Q1014=
201901121700 METAR LRBM 121700Z AUTO 00000KT 3900 BKN011/// M03/M04 Q1015=
201901121730 METAR LRBM 121730Z AUTO 05002KT 3600 FEW006/// BKN011///
                        BKN023/// M03/M04 Q1015=
201901121800 METAR LRBM 121800Z AUTO 08002KT 3300 FEW006/// BKN009///
                        BKN070/// M03/M04 Q1015=
201901121830 METAR LRBM 121830Z AUTO 09003KT 2700 FEW006/// BKN008///
                        BKN011/// M03/M04 Q1014=
201901121900 METAR LRBM 121900Z AUTO 09003KT 2500 BR FEW002/// BKN006///
                        BKN008/// M03/M04 Q1015=
201901121930 METAR LRBM 121930Z AUTO 10005KT 2700 SCT002/// BKN004///
                        BKN008/// M03/M04 Q1014=
201901122000 METAR LRBM 122000Z AUTO 09003KT 2800 SCT002/// BKN005///
                        BKN007/// M03/M04 Q1014=
201901122030 METAR LRBM 122030Z AUTO 09003KT 2700 -SHSN FEW002/// BKN009///
                        M03/M04 Q1014=
201901122100 METAR LRBM 122100Z AUTO 08003KT 2500 -SHSN FEW002/// BKN010///
                        M03/M04 Q1014=
201901122130 METAR LRBM 122130Z AUTO 07004KT 5000 -SHSN SCT009/// OVC011///
                        M03/M04 Q1013=
201901122200 METAR LRBM 122200Z AUTO 06005KT 5000 BKN009/// M03/M04 Q1013
                        RESN=
201901122230 METAR LRBM 122230Z AUTO 08005KT 8000 BKN009/// BKN011///
                        M03/M04 Q1013=
201901122300 METAR LRBM 122300Z AUTO 08006KT 9000 -SN FEW010/// SCT014///
                        BKN017/// M03/M04 Q1012=
201901122330 METAR LRBM 122330Z AUTO 09006KT 8000 -SHSN FEW015/// BKN018///
                        M03/M04 Q1012=
201901130000 METAR LRBM 130000Z AUTO 08005KT 7000 FEW019/// SCT032///
                        BKN240/// M03/M04 Q1012=
201901130030 METAR LRBM 130030Z AUTO 08005KT 7000 -SHSN FEW020/// SCT034///
                        BKN180/// M03/M04 Q1012=
201901130100 METAR LRBM 130100Z AUTO 07006KT 9000 FEW012/// SCT038///
                        BKN044/// M03/M05 Q1012=
201901130130 METAR LRBM 130130Z AUTO 08006KT 9999 FEW022/// SCT034///
                        BKN060/// M03/M05 Q1012=
201901130200 METAR LRBM 130200Z AUTO 08006KT 9999 SCT031/// BKN041///
                        M03/M05 Q1011=
201901130230 METAR LRBM 130230Z AUTO 06004KT 9999 BKN031/// M02/M05 Q1011=
201901130300 METAR LRBM 130300Z AUTO 07006KT 9999 BKN030/// BKN170///
                        M02/M05 Q1011=
201901130330 METAR LRBM 130330Z AUTO 07007KT 9999 FEW008/// BKN029///
                        BKN090/// M02/M05 Q1010=
201901130400 METAR LRBM 130400Z AUTO 08007KT 9999 FEW009/// BKN029///
                        M02/M05 Q1010=
201901130430 METAR LRBM 130430Z AUTO 08009KT 9999 BKN025/// M02/M05 Q1010=
201901130500 METAR LRBM 130500Z AUTO 08008KT 9999 FEW013/// BKN024///
                        M02/M05 Q1010=
201901130530 METAR LRBM 130530Z AUTO 09007KT 4700 VV012 M03/M05 Q1010=
201901130600 METAR LRBM 130600Z AUTO 09007KT 5000 -SN VV011 M03/M05 Q1010=
201901130630 METAR LRBM 130630Z AUTO 09006KT 1600 R09/1600VP2000D -SN
                        VV007 M03/M04 Q1010=
201901130700 METAR LRBM 130700Z AUTO 08005KT 3000 FEW006/// SCT008///
                        BKN011/// M03/M04 Q1010=
201901130730 METAR LRBM 130730Z AUTO 08005KT 1400 R09/1200V2000D VV007
                        M03/M04 Q1009=
201901130800 METAR LRBM 130800Z AUTO 08005KT 6000 -SN FEW006/// SCT010///
                        BKN021/// M03/M04 Q1009=
201901130830 METAR LRBM 130830Z AUTO 08005KT 8000 FEW012/// SCT016///
                        BKN028/// M02/M03 Q1009 RESN=
201901130900 METAR LRBM 130900Z AUTO 08005KT 9999 -SHSN FEW010/// SCT023///
                        BKN035/// M02/M03 Q1009=
201901130930 METAR LRBM 130930Z AUTO 08007KT 4600 -RASN VV010 M02/M03
                        Q1009=
201901131000 METAR LRBM 131000Z AUTO 09006KT 4600 -SN SCT005/// BKN014///
                        BKN029/// M02/M03 Q1008=
201901131030 METAR LRBM 131030Z AUTO 09005KT 5000 -SN FEW005/// SCT009///
                        BKN019/// M02/M03 Q1008=
201901131100 METAR LRBM 131100Z AUTO 09005KT 5000 -SN FEW009/// SCT012///
                        BKN019/// M02/M03 Q1007=
201901131130 METAR LRBM 131130Z AUTO 08004KT 4700 -SN VV012 M02/M03 Q1007=
201901131200 METAR LRBM 131200Z AUTO 09005KT 4700 -SN VV013 M02/M03 Q1007=
201901131230 METAR LRBM 131230Z AUTO 09005KT 2800 -SN VV011 M02/M03 Q1006=
201901131300 METAR LRBM 131300Z AUTO 08005KT 6000 -RASN FEW005/// SCT011///
                        BKN022/// M02/M03 Q1006=
201901131330 METAR LRBM 131330Z AUTO 08004KT 7000 -SN FEW009/// SCT021///
                        M02/M03 Q1006=
201901131400 METAR LRBM 131400Z AUTO 08003KT 5000 -SHRA FEW006/// SCT017///
                        BKN021/// M02/M03 Q1006=
201901131430 METAR LRBM 131430Z AUTO 08003KT 1900 SCT006/// BKN010///
                        BKN019/// M02/M03 Q1006=
201901131500 METAR LRBM 131500Z AUTO 08004KT 2400 FEW006/// BKN011///
                        BKN150/// M02/M03 Q1005=
201901131530 METAR LRBM 131530Z AUTO 10004KT 2600 FEW005/// SCT008///
                        BKN010/// M02/M03 Q1005=
201901131600 METAR LRBM 131600Z AUTO 10004KT 3000 FEW003/// SCT009///
                        BKN011/// M02/M03 Q1005=
201901131630 METAR LRBM 131630Z AUTO 08004KT 3600 FEW006/// SCT010///
                        BKN015/// M02/M03 Q1004=
201901131700 METAR LRBM 131700Z AUTO 08004KT 2600 FEW007/// BKN013///
                        M02/M02 Q1004=
201901131730 METAR LRBM 131730Z AUTO 09005KT 2700 -RASN BKN012/// M02/M02
                        Q1003=
201901131800 METAR LRBM 131800Z 09006KT 2000 -FZDZ BR FEW004 BKN012 OVC030
                        M02/M02 Q1003=
201901131830 METAR LRBM 131830Z 09006KT 2000 -FZDZ BR FEW003 BKN011 OVC030
                        M02/M02 Q1003 R09/590494=
201901131900 METAR LRBM 131900Z 09008KT 2000 -FZDZ BR FEW003 BKN011 OVC030
                        M02/M02 Q1002 R09/590494=
201901131930 METAR LRBM 131930Z 07006KT 2000 -FZDZ BR SCT003 BKN012 OVC030
                        M01/M02 Q1002 R09/590494=
201901132000 METAR LRBM 132000Z 08006KT 2000 -FZDZ BR FEW010 BKN013 OVC030
                        M01/M02 Q1001 R09/590494=
201901132030 METAR COR LRBM 132030Z 08005KT 2000 -SNRA BR SCT009 BKN011
                        OVC030 M01/M02 Q1001 R09/590494=
201901132100 METAR LRBM 132100Z 09006KT 2000 -SNRA BR FEW007 BKN010 BKN013
                        M01/M02 Q1000 R09/590494=
201901132130 METAR LRBM 132130Z 09006KT 2000 -SNRA BR OVC009 M01/M02 Q1000
                        R09/590494=
201901132200 METAR LRBM 132200Z 08006KT 4000 -SNRA BR FEW004 BKN020 M01/M02
                        Q0999 R09/590494=
201901132230 METAR LRBM 132230Z AUTO 08005KT 3500 VV009 M01/M02 Q0999=
201901132300 METAR LRBM 132300Z AUTO 06004KT 3100 VV007 M01/M02 Q0998=
201901132330 METAR LRBM 132330Z AUTO 06004KT 020V080 2800 SCT005/// BKN009///
                        BKN011/// M01/M02 Q0998=
201901140000 METAR LRBM 140000Z AUTO 07005KT 2500 FEW004/// BKN008///
                        BKN011/// M01/M02 Q0997=
201901140030 METAR LRBM 140030Z AUTO 08006KT 2400 FEW004/// SCT006///
                        BKN008/// M01/M01 Q0996=
201901140100 METAR LRBM 140100Z AUTO 08007KT 2400 VV006 M01/M01 Q0996=
201901140130 METAR LRBM 140130Z AUTO 07008KT 2300 R09/2000 -SN VV006 M01/M01
                        Q0995=
201901140200 METAR LRBM 140200Z AUTO 07007KT 2000 -SN VV006 M00/M01 Q0994=
201901140230 METAR LRBM 140230Z AUTO 07006KT 1500 R09/1700D VV005 M01/M01
                        Q0993=
201901140300 METAR LRBM 140300Z 08007KT 2500 -SN BR OVC006 M00/M01 Q0993
                        R09/590494=
201901140330 METAR LRBM 140330Z 09007KT 2000 -SN BR OVC005 M00/M01 Q0993
                        R09/590494=
201901140400 METAR LRBM 140400Z 09005KT 2000 -SN BR OVC006 M00/M00 Q0992
                        R09/599093=
201901140430 METAR LRBM 140430Z 09006KT 1700 -SN BR OVC005 M00/M00 Q0992
                        R09/599093=
201901140500 METAR LRBM 140500Z 06005KT 1200 R09/1200 -SN BR OVC004 M00/M00
                        Q0992 R09/599093=
201901140530 METAR LRBM 140530Z 06004KT 1300 R09/1400 -SN BR OVC005 M00/M00
                        Q0992 R09/599093=
201901140600 METAR LRBM 140600Z 06004KT 1000 R09/1000 SN BR OVC004 M00/M00
                        Q0992 R09/599093=
201901140630 METAR LRBM 140630Z 05003KT 1500 SN BR OVC006 M00/M00 Q0992
                        R09/599093=
201901140700 METAR LRBM 140700Z 06003KT 2000 -SN BR OVC008 M00/M00 Q0992
                        R09/599093=
201901140730 METAR LRBM 140730Z 05003KT 1000 R09/1000 SN BR OVC007 00/M00
                        Q0992 R09/599093=
201901140800 METAR LRBM 140800Z 06003KT 1500 SN BR OVC008 00/M00 Q0993
                        R09/599492=
201901140830 METAR LRBM 140830Z 06003KT 3000 -SN BR BKN009 BKN025 00/00
                        Q0993 RESN R09/599492=
201901140900 METAR LRBM 140900Z 08004KT 6000 -SNRA BKN010 BKN024 00/00
                        Q0993 R09/599492=
201901140930 METAR LRBM 140930Z 06004KT 7000 -SNRA BKN014 OVC030 00/00
                        Q0993 R09/599492=
201901141000 METAR COR LRBM 141000Z 07003KT 2000 SN BR BKN008 OVC020 00/00
                        Q0993 R09/599492=
201901141030 METAR LRBM 141030Z 05002KT 3000 -SN BR BKN012 OVC024 01/01
                        Q0993 RESN R09/599492=
201901141100 METAR LRBM 141100Z 06003KT 020V080 3500 -SN BR BKN014 OVC028
                        01/01 Q0993 R09/599492=
201901141130 METAR LRBM 141130Z 08003KT 1300 R09/1300 SN BR BKN007 OVC030
                        00/00 Q0993 R09/599492=
201901141200 METAR LRBM 141200Z 07003KT 1000 R09/1000 SN BR OVC005 00/00
                        Q0993 R09/599492=
201901141230 METAR LRBM 141230Z 34002KT 0600 R09/0600 +SN FG OVC003 00/00
                        Q0994 R09/599492=
201901141300 METAR LRBM 141300Z 07003KT 020V090 1500 SN BR OVC007 00/00
                        Q0994 R09/599492=
201901141330 METAR LRBM 141330Z 00000KT 2300 -SN BR OVC009 00/00 Q0994
                        RESN R09/599492=
201901141400 METAR LRBM 141400Z VRB01KT 1800 -SN BR OVC010 00/00 Q0994
                        R09/599492=
201901141430 METAR LRBM 141430Z 00000KT 1100 R09/1200 SN BR OVC008 00/00
                        Q0995 R09/599592=
201901141500 METAR LRBM 141500Z VRB01KT 1500 SN BR OVC011 00/00 Q0995
                        R09/599592=
201901141530 METAR LRBM 141530Z AUTO VRB01KT 1700 R09/1600VP2000U FEW002///
                        SCT006/// BKN013/// M00/M00 Q0995=
201901141600 METAR LRBM 141600Z AUTO 00000KT 2700 FEW001/// BKN006///
                        BKN009/// 00/00 Q0996=
201901141630 METAR LRBM 141630Z AUTO VRB01KT 2300 SCT006/// BKN008///
                        BKN035/// M00/M00 Q0996=
201901141700 METAR LRBM 141700Z AUTO 21004KT 2300 R09/1900VP2000U FEW001///
                        BKN004/// BKN011/// 00/00 Q0997=
201901141730 METAR LRBM 141730Z AUTO 27005KT 7000 FEW021/// SCT200///
                        00/00 Q0997=
201901141800 METAR LRBM 141800Z AUTO 26006KT 9999 FEW025/// SCT220///
                        00/00 Q0997=
201901141830 METAR LRBM 141830Z AUTO 27008KT 9000 FEW021/// SCT200///
                        00/00 Q0998=
201901141900 METAR LRBM 141900Z AUTO 29009KT 9000 FEW050/// SCT190///
                        00/00 Q0998=
201901141930 METAR LRBM 141930Z AUTO 29008KT 9000 -SN FEW014/// SCT170///
                        BKN240/// 00/M00 Q0999=
201901142000 METAR LRBM 142000Z AUTO 28009KT 9999 -SN FEW008/// SCT025///
                        BKN180/// 00/M00 Q1000=
201901142030 METAR LRBM 142030Z AUTO 29008KT 9999 -SN FEW008/// SCT015///
                        BKN022/// 00/M01 Q1000=
201901142100 METAR LRBM 142100Z AUTO 29009KT 9999 -SN FEW008/// SCT016///
                        BKN033/// M00/M02 Q1000=
201901142130 METAR LRBM 142130Z AUTO 29006KT 9999 -SN FEW015/// SCT190///
                        M00/M02 Q1001=
201901142200 METAR LRBM 142200Z AUTO 29006KT 260V320 9999 FEW085/// SCT200///
                        M00/M02 Q1001 RESN=
201901142230 METAR LRBM 142230Z AUTO 30007KT 9999 FEW090/// SCT230///
                        M00/M03 Q1001=
201901142300 METAR LRBM 142300Z AUTO 28011KT 9999 FEW080/// SCT240///
                        M01/M04 Q1002=
201901142330 METAR LRBM 142330Z AUTO 29006KT 260V320 9999 FEW080/// M01/M05
                        Q1003=
201901150000 METAR LRBM 150000Z AUTO 30006KT 270V330 9999 FEW090/// SCT230///
                        M01/M05 Q1003=
201901150030 METAR LRBM 150030Z AUTO 26008KT 9999 FEW090/// SCT230///
                        M02/M06 Q1004=
201901150100 METAR LRBM 150100Z AUTO 29006KT 9999 FEW100/// SCT210///
                        M02/M06 Q1005=
201901150130 METAR LRBM 150130Z AUTO 28005KT 9999 FEW120/// SCT230///
                        M03/M06 Q1005=
201901150200 METAR LRBM 150200Z AUTO 30004KT 9999 FEW080/// SCT240///
                        M03/M06 Q1005=
201901150230 METAR LRBM 150230Z AUTO 29005KT 9999 FEW090/// SCT240///
                        M04/M07 Q1006=
201901150300 METAR LRBM 150300Z AUTO 28005KT 9999 FEW080/// SCT220///
                        M05/M07 Q1006=
201901150330 METAR LRBM 150330Z AUTO 32002KT 280V020 9999 FEW080/// SCT230///
                        M06/M08 Q1007=
201901150400 METAR LRBM 150400Z AUTO VRB01KT 9999 FEW110/// SCT220///
                        M08/M09 Q1007=
201901150430 METAR LRBM 150430Z AUTO VRB01KT 9999 SCT045/// BKN180///
                        M08/M09 Q1008=
201901150500 METAR LRBM 150500Z 36002KT CAVOK M09/M10 Q1008=
201901150530 METAR LRBM 150530Z 07002KT 9999 BKN050 M08/M09 Q1008=
201901150600 METAR LRBM 150600Z 09003KT 9999 SCT043 M09/M10 Q1009=
201901150630 METAR LRBM 150630Z 10002KT 9999 FEW045 M09/M09 Q1009=
201901150700 METAR COR LRBM 150700Z 04003KT 010V070 9999 BKN043 M07/M08
                        Q1010=
201901150730 METAR LRBM 150730Z 09003KT 9999 BKN043 M07/M08 Q1010 R09/599592=
201901150800 METAR LRBM 150800Z 08004KT 9999 BKN043 M07/M08 Q1010 R09/599592=
201901150830 METAR LRBM 150830Z 08003KT 030V110 9999 BKN040 M05/M07 Q1011
                        R09/599592=
201901150900 METAR LRBM 150900Z 07003KT 9999 SCT050 M04/M07 Q1011 R09/599592=
201901150930 METAR LRBM 150930Z 08003KT 9999 -SN FEW014 BKN046 M04/M07
                        Q1011 R09/599592=
201901151000 METAR LRBM 151000Z 08002KT 9999 -SN SCT018 BKN040 M03/M07
                        Q1011 R09/599592=
201901151030 METAR LRBM 151030Z 17003KT 9999 FEW023 M03/M07 Q1011 R09/599592=
201901151100 METAR LRBM 151100Z 14003KT 9999 FEW043 M03/M06 Q1011 R09/599592=
201901151130 METAR LRBM 151130Z 12003KT CAVOK M02/M06 Q1011 R09/15//94=
201901151200 METAR LRBM 151200Z 14004KT 110V170 CAVOK M02/M06 Q1011 R09/15//94=
201901151230 METAR LRBM 151230Z 07003KT CAVOK M02/M07 Q1011 R09/15//94=
201901151300 METAR LRBM 151300Z 07004KT CAVOK M02/M07 Q1010 R09/19//94=
201901151330 METAR LRBM 151330Z 10002KT 9999 SCT050 M02/M07 Q1011 R09/19//94=
201901151400 METAR LRBM 151400Z 15002KT 9999 SCT050 M03/M06 Q1011 R09/19//94=
201901151430 METAR LRBM 151430Z 11002KT CAVOK M03/M06 Q1011 R09/19//94=
201901151500 METAR LRBM 151500Z 09004KT CAVOK M04/M06 Q1011 R09/19//94=
201901151530 METAR LRBM 151530Z 09004KT CAVOK M04/M06 Q1011 R09/19//94=
201901151600 METAR LRBM 151600Z 10006KT CAVOK M04/M06 Q1011 R09/19//94=
201901151630 METAR LRBM 151630Z 08005KT CAVOK M04/M06 Q1011 R09/19//94=
201901151700 METAR LRBM 151700Z 07004KT 030V090 CAVOK M03/M06 Q1011 R09/19//94=
201901151730 METAR LRBM 151730Z AUTO 06004KT 9000 FEW011/// SCT037///
                        M03/M05 Q1011=
201901151800 METAR LRBM 151800Z AUTO 06004KT 4700 -SN SCT008/// BKN016///
                        BKN022/// M03/M05 Q1011=
201901151830 METAR LRBM 151830Z AUTO 05004KT 3400 VV008 M03/M05 Q1010=
201901151900 METAR LRBM 151900Z AUTO 05005KT 2900 VV008 M03/M04 Q1010=
201901151930 METAR LRBM 151930Z AUTO 07005KT 3800 -SN VV009 M03/M04 Q1010=
201901152000 METAR LRBM 152000Z AUTO 06007KT 5000 FEW003/// SCT008///
                        BKN016/// M03/M04 Q1010=
201901152030 METAR LRBM 152030Z AUTO 06004KT 9999 -SN FEW006/// BKN015///
                        M03/M04 Q1010=
201901152100 METAR LRBM 152100Z AUTO 05003KT 020V090 9999 -SHSN SCT015///
                        BKN033/// M03/M04 Q1010=
201901152130 METAR LRBM 152130Z AUTO 05004KT 330V080 9999 -SHSN SCT014///
                        BKN017/// M03/M04 Q1010=
201901152200 METAR LRBM 152200Z AUTO 07005KT 9999 -SN FEW011/// BKN017///
                        M03/M04 Q1010=
201901152230 METAR LRBM 152230Z AUTO 06004KT 9999 -SN FEW003/// BKN016///
                        M03/M04 Q1010=
201901152300 METAR LRBM 152300Z AUTO 07005KT 6000 -SN FEW003/// SCT009///
                        BKN018/// M03/M04 Q1009=
201901152330 METAR LRBM 152330Z AUTO 06004KT 2900 -SN VV008 M03/M04 Q1009=
201901160000 METAR LRBM 160000Z AUTO 06004KT 2100 R09/1800VP2000U -SN
                        SCT006/// BKN008/// M03/M03 Q1009=
201901160030 METAR LRBM 160030Z AUTO 05004KT 2500 -SN SCT006/// BKN008///
                        BKN011/// M03/M03 Q1009=
201901160100 METAR LRBM 160100Z AUTO 06004KT 2500 -SN FEW006/// BKN008///
                        BKN032/// M03/M03 Q1009=
201901160130 METAR LRBM 160130Z AUTO 06005KT 2000 -SN SCT006/// BKN008///
                        BKN011/// M03/M03 Q1008=
201901160200 METAR LRBM 160200Z AUTO 04004KT 350V060 1800 R09/2000U SN
                        VV005 M02/M03 Q1008=
201901160230 METAR LRBM 160230Z AUTO 06005KT 2200 R09/1800VP2000D -SN
                        SCT006/// BKN008/// BKN010/// M02/M03
                        Q1008=
201901160300 METAR LRBM 160300Z AUTO 06004KT 2100 R09/2000 -SN FEW005///
                        BKN007/// BKN190/// M02/M03 Q1008=
201901160330 METAR LRBM 160330Z AUTO 05004KT 2200 R09/1800VP2000D -SN
                        FEW006/// BKN008/// BKN010/// M02/M03
                        Q1007=
201901160400 METAR LRBM 160400Z AUTO 06004KT 3900 -PL FEW005/// BKN009///
                        M02/M03 Q1007=
201901160430 METAR LRBM 160430Z AUTO 06005KT 8000 -SN SCT009/// BKN011///
                        M02/M02 Q1008=
201901160500 METAR LRBM 160500Z 08008KT 9999 -SG SCT004 OVC008 M01/M02
                        Q1008 R09/19//94=
201901160530 METAR LRBM 160530Z 08006KT 4000 SG BR SCT004 OVC008 M01/M02
                        Q1008 R09/599093=
201901160600 METAR LRBM 160600Z 09005KT 1500 SG BR BKN004 OVC008 M01/M01
                        Q1008 R09/599093=
201901160630 METAR LRBM 160630Z 05003KT 020V090 1500 SG BR BKN004 OVC008
                        M01/M01 Q1009 R09/599093=
201901160700 METAR LRBM 160700Z 11003KT 4000 -SG BR SCT006 OVC013 M01/M01
                        Q1009 RESG R09/599093=
201901160730 METAR LRBM 160730Z 14004KT 1500 SG BR SCT006 OVC015 M00/M01
                        Q1009 R09/599093=
201901160800 METAR LRBM 160800Z 11003KT 1200 R09/P2000 SN BR SCT006 OVC013
                        M00/M01 Q1010 RESG R09/599093=
201901160830 METAR LRBM 160830Z VRB02KT 1000 R09/1700N SN BR SCT004 OVC013
                        M00/M01 Q1010 R09/599093=
201901160900 METAR COR LRBM 160900Z 16004KT 140V200 1500 SG BR SCT005
                        OVC012 M00/M01 Q1010 RESN R09/599093=
201901160930 METAR LRBM 160930Z 23002KT 1200 R09/1700U SN BR BKN006 OVC012
                        00/M00 Q1011 R09/599093=
201901161000 METAR LRBM 161000Z 19001KT 1200 R09/1800N SN BR SCT006 OVC012
                        01/00 Q1011 R09/599093=
201901161030 METAR LRBM 161030Z 17002KT 3000 -SN BR SCT006 OVC015 01/00
                        Q1011 RESN R09/599093=
201901161100 METAR LRBM 161100Z 20003KT 6000 FEW003 BKN010 OVC018 01/00
                        Q1011 R09/599093=
201901161130 METAR LRBM 161130Z 26003KT 8000 FEW003 SCT010 BKN020 01/01
                        Q1011 R09/599093=
201901161200 METAR COR LRBM 161200Z VRB02KT 9999 -RA FEW012 OVC018 01/01
                        Q1011 R09/599093=
201901161230 METAR LRBM 161230Z VRB02KT 9999 -RA FEW014 OVC020 02/01 Q1011
                        R09/599093=
201901161300 METAR LRBM 161300Z 30003KT 270V010 9999 -RA FEW014 OVC020
                        02/01 Q1012 R09/599093=
201901161330 METAR LRBM 161330Z VRB01KT 9999 FEW016 BKN022 01/01 Q1012
                        R09/599093=
201901161400 METAR LRBM 161400Z VRB01KT 9999 -RA FEW014 BKN022 01/01 Q1012
                        R09/599093=
201901161430 METAR LRBM 161430Z VRB02KT 9999 FEW014 BKN022 02/01 Q1012
                        R09/599093=
201901161500 METAR LRBM 161500Z VRB01KT 9999 FEW014 BKN022 01/00 Q1013
                        R09/599093=
201901161530 METAR LRBM 161530Z 08002KT 9999 SCT016 BKN020 01/00 Q1013
                        R09/599093=
201901161600 METAR LRBM 161600Z VRB02KT 9999 FEW014 BKN020 01/00 Q1013
                        R09/599093=
201901161630 METAR LRBM 161630Z 08003KT 9999 FEW012 BKN018 01/00 Q1014
                        R09/599093=
201901161700 METAR LRBM 161700Z 06003KT 8000 FEW010 BKN018 01/00 Q1014
                        R09/599093=
201901161730 METAR LRBM 161730Z AUTO 07003KT 6000 SCT017/// BKN095///
                        01/00 Q1014=
201901161800 METAR LRBM 161800Z AUTO 08003KT 5000 SCT017/// BKN060///
                        01/M00 Q1014=
201901161830 METAR LRBM 161830Z AUTO 09003KT 5000 SCT017/// BKN240///
                        01/00 Q1014=
201901161900 METAR LRBM 161900Z AUTO 06004KT 6000 SCT017/// BKN170///
                        01/00 Q1014=
201901161930 METAR LRBM 161930Z AUTO 06004KT 6000 BKN016/// 01/00 Q1015=
201901162000 METAR LRBM 162000Z AUTO 07003KT 6000 NCD 01/00 Q1015=
201901162030 METAR LRBM 162030Z AUTO 06005KT 6000 FEW017/// BKN021///
                        BKN090/// 01/00 Q1015=
201901162100 METAR LRBM 162100Z AUTO 10005KT 7000 SCT022/// BKN047///
                        01/00 Q1015=
201901162130 METAR LRBM 162130Z AUTO 05005KT 9999 SCT025/// BKN031///
                        01/01 Q1015=
201901162200 METAR LRBM 162200Z AUTO 06005KT 9000 SCT025/// BKN046///
                        01/00 Q1015=
201901162230 METAR LRBM 162230Z AUTO 09006KT 8000 SCT026/// BKN031///
                        BKN180/// 01/00 Q1015=
201901162300 METAR LRBM 162300Z AUTO 07006KT 9999 BKN029/// 02/01 Q1015=
201901162330 METAR LRBM 162330Z AUTO 07004KT 8000 FEW014/// BKN029///
                        01/00 Q1015=
201901170000 METAR LRBM 170000Z AUTO 06005KT 9999 FEW007/// SCT023///
                        BKN029/// 02/01 Q1015=
201901170030 METAR LRBM 170030Z AUTO 06004KT 9999 SCT029/// BKN033///
                        02/01 Q1015 RERA=
201901170100 METAR LRBM 170100Z AUTO 05005KT 9999 FEW028/// BKN033///
                        BKN230/// 02/01 Q1015=
201901170130 METAR LRBM 170130Z AUTO 05005KT 9999 FEW033/// SCT210///
                        02/01 Q1015=
201901170200 METAR LRBM 170200Z AUTO 05005KT 9999 FEW080/// SCT220///
                        02/00 Q1015=
201901170230 METAR LRBM 170230Z AUTO 05005KT 9999 FEW075/// SCT230///
                        02/00 Q1015=
201901170300 METAR LRBM 170300Z AUTO 06005KT 9999 FEW049/// SCT160///
                        BKN240/// 01/00 Q1014=
201901170330 METAR LRBM 170330Z AUTO 05005KT 9999 SCT050/// BKN190///
                        02/00 Q1014=
201901170400 METAR LRBM 170400Z AUTO 08006KT 9999 SCT046/// BKN140///
                        02/00 Q1014=
201901170430 METAR LRBM 170430Z AUTO 08007KT 9999 SCT040/// BKN120///
                        02/00 Q1014=
201901170500 METAR LRBM 170500Z AUTO 07005KT 9999 BKN039/// 02/00 Q1014=
201901170530 METAR LRBM 170530Z AUTO 07005KT 9999 BKN038/// BKN240///
                        02/00 Q1014=
201901170600 METAR LRBM 170600Z AUTO 08004KT 9999 BKN038/// 01/00 Q1014=
201901170630 METAR LRBM 170630Z AUTO 07005KT 9999 SCT038/// BKN120///
                        02/00 Q1014=
201901170700 METAR LRBM 170700Z AUTO 07006KT 9999 SCT041/// BKN090///
                        02/01 Q1014=
201901170730 METAR LRBM 170730Z AUTO 07004KT 9999 SCT042/// BKN070///
                        02/00 Q1014=
201901170800 METAR LRBM 170800Z AUTO 06004KT 9999 SCT043/// BKN150///
                        02/01 Q1014=
201901170830 METAR LRBM 170830Z AUTO 07005KT 9999 SCT043/// BKN060///
                        BKN240/// 02/01 Q1015=
201901170900 METAR LRBM 170900Z AUTO 07005KT 9999 SCT043/// BKN120///
                        02/01 Q1015=
201901170930 METAR LRBM 170930Z AUTO 07004KT 9999 BKN043/// BKN200///
                        03/01 Q1015=
201901171000 METAR LRBM 171000Z 07005KT 9999 BKN045 03/01 Q1014 R09/599093=
201901171030 METAR LRBM 171030Z 07005KT 9999 BKN047 03/01 Q1014 R09/599093=
201901171100 METAR LRBM 171100Z 08005KT 9999 BKN055 02/00 Q1014 R09/19//95=
201901171130 METAR LRBM 171130Z 08004KT 9999 BKN055 02/01 Q1013 R09/19//95=
201901171200 METAR LRBM 171200Z 08004KT 9999 BKN050 02/01 Q1013 R09/19//95=
201901171230 METAR LRBM 171230Z 07004KT 9999 BKN047 02/00 Q1013 R09/19//95=
201901171300 METAR LRBM 171300Z 07004KT 9999 BKN043 03/01 Q1013 R09/19//95=
201901171330 METAR LRBM 171330Z 06005KT 9999 BKN043 03/01 Q1013 R09/19//95=
201901171400 METAR LRBM 171400Z 06005KT 9999 BKN042 03/00 Q1013 R09/19//95=
201901171430 METAR LRBM 171430Z 06005KT 9999 BKN040 03/01 Q1013 R09/19//95=
201901171500 METAR LRBM 171500Z 06004KT 9999 BKN038 03/00 Q1013 R09/19//95=
201901171530 METAR LRBM 171530Z 06005KT 9999 BKN038 03/00 Q1013 R09/19//95=
201901171600 METAR LRBM 171600Z 06006KT 9999 BKN039 03/00 Q1013 R09/19//95=
201901171630 METAR LRBM 171630Z 06004KT 9999 BKN038 03/00 Q1013 R09/19//95=
201901171700 METAR LRBM 171700Z 06005KT 9999 BKN038 03/00 Q1013 R09/19//95=
201901171730 METAR LRBM 171730Z 07005KT 9999 BKN040 03/00 Q1013 R09/19//95=
201901171800 METAR LRBM 171800Z 06005KT 9999 BKN040 03/00 Q1013 R09/19//95=
201901171830 METAR LRBM 171830Z 06005KT 9999 BKN040 03/00 Q1013 R09/19//95=
201901171900 METAR LRBM 171900Z 04004KT 010V070 9999 BKN040 03/00 Q1013
                        R09/19//95=
201901171930 METAR LRBM 171930Z 02003KT 360V060 9999 BKN038 03/00 Q1013
                        R09/19//95=
201901172000 METAR LRBM 172000Z 04003KT 350V110 9999 SCT040 03/00 Q1013
                        R09/19//95=
201901172030 METAR LRBM 172030Z VRB01KT 9999 SCT038 03/00 Q1013 R09/19//95=
201901172100 METAR LRBM 172100Z 07004KT 040V120 9999 SCT040 03/00 Q1013
                        R09/19//95=
201901172130 METAR LRBM 172130Z VRB02KT 9999 SCT042 03/00 Q1013 R09/19//95=
201901172200 METAR LRBM 172200Z 07003KT 360V140 9999 -RA SCT040 03/00
                        Q1013 R09/19//95=
201901172230 METAR LRBM 172230Z AUTO 04005KT 010V070 9999 FEW017/// BKN049///
                        03/01 Q1012=
201901172300 METAR LRBM 172300Z AUTO 05005KT 030V090 9999 SCT050/// BKN180///
                        04/01 Q1012=
201901172330 METAR LRBM 172330Z AUTO 07005KT 040V100 9999 FEW003/// BKN050///
                        03/01 Q1012=
201901180000 METAR LRBM 180000Z AUTO 02004KT 9999 FEW037/// SCT110///
                        BKN240/// 03/01 Q1012=
201901180030 METAR LRBM 180030Z AUTO 04003KT 9999 FEW009/// SCT048///
                        BKN075/// 03/01 Q1012=
201901180100 METAR LRBM 180100Z AUTO 05003KT 360V080 9999 FEW008/// SCT044///
                        BKN050/// 04/01 Q1012=
201901180130 METAR LRBM 180130Z AUTO 04004KT 350V100 9999 FEW014/// SCT040///
                        BKN075/// 03/01 Q1012=
201901180200 METAR LRBM 180200Z AUTO 08007KT 9999 FEW004/// SCT034///
                        BKN039/// 02/01 Q1011=
201901180230 METAR LRBM 180230Z AUTO 05005KT 020V080 9999 SCT032/// BKN040///
                        03/01 Q1011=
201901180300 METAR LRBM 180300Z 05004KT 340V070 9999 SCT033 BKN043 03/01
                        Q1011 R09/29//95=
201901180330 METAR LRBM 180330Z 03004KT 9999 -RA FEW012 OVC033 03/01 Q1011
                        R09/29//95=
201901180400 METAR LRBM 180400Z 03005KT 350V060 9999 -RA FEW005 OVC030
                        03/01 Q1011 R09/29//95=
201901180430 METAR COR LRBM 180430Z 02003KT 350V060 9999 -RA FEW007 OVC033
                        03/02 Q1011 R09/29//95=
201901180500 METAR LRBM 180500Z 05005KT 020V080 9999 FEW007 OVC040 03/01
                        Q1011 R09/29//95=
201901180530 METAR LRBM 180530Z 04002KT 9999 BKN033 03/01 Q1011 R09/29//95=
201901180600 METAR LRBM 180600Z 03004KT 9999 BKN033 03/01 Q1011 R09/29//95=
201901180630 METAR LRBM 180630Z 03004KT 360V070 9999 -RA FEW012 BKN030
                        03/01 Q1011 R09/29//95=
201901180700 METAR LRBM 180700Z 04004KT 010V080 9999 -RA SCT015 BKN030
                        03/02 Q1011 R09/29//95=
201901180730 METAR LRBM 180730Z 03003KT 9999 -RA SCT026 BKN047 03/01 Q1012
                        R09/29//95=
201901180800 METAR LRBM 180800Z 06003KT 340V090 9999 -RA SCT025 BKN046
                        02/01 Q1012 R09/29//95=
201901180830 METAR LRBM 180830Z 05002KT 9999 -RA FEW014 SCT025 BKN036
                        02/01 Q1012 R09/29//95=
201901180900 METAR LRBM 180900Z 03002KT 9999 -RA BKN029 02/01 Q1013 R09/29//95=
201901180930 METAR LRBM 180930Z 07003KT 9999 -RA BKN029 02/01 Q1013 R09/29//95=
201901181000 METAR LRBM 181000Z 06002KT 9999 -RA FEW007 BKN027 02/01 Q1013
                        R09/29//95=
201901181030 METAR LRBM 181030Z 05001KT 9999 -RA BKN026 02/01 Q1012 R09/29//95=
201901181100 METAR LRBM 181100Z VRB01KT 9999 -RA FEW010 SCT022 BKN060
                        03/02 Q1013 R09/29//95=
201901181130 METAR LRBM 181130Z VRB01KT 7000 -RA SCT019 BKN055 03/02 Q1012
                        R09/29//95=
201901181200 METAR LRBM 181200Z 00000KT 8000 -RA SCT009 BKN020 03/02 Q1013
                        R09/29//95=
201901181230 METAR LRBM 181230Z VRB01KT 6000 -RA SCT014 BKN040 02/01 Q1013
                        R09/29//95=
201901181300 METAR LRBM 181300Z 00000KT 8000 -RA BKN013 BKN040 02/02 Q1013
                        R09/29//95=
201901181330 METAR LRBM 181330Z 32002KT 8000 -RA BKN020 03/02 Q1013 R09/29//95=
201901181400 METAR LRBM 181400Z 32002KT 8000 -RA BKN016 03/02 Q1013 R09/29//95=
201901181430 METAR LRBM 181430Z 15002KT 3000 -RA BR BKN011 OVC028 02/01
                        Q1014 R09/29//95=
201901181500 METAR LRBM 181500Z 04003KT 020V080 1400 R09/0900V2000U -RA
                        BR FEW006 BKN010 BKN013 02/01 Q1014
                        R09/29//95=
201901181530 METAR LRBM 181530Z AUTO 00000KT 0900 R09/1000U -RA FEW003///
                        SCT009/// BKN012/// 02/01 Q1014=
201901181600 METAR LRBM 181600Z AUTO VRB01KT 1500 R09/0800VP2000U -RA
                        FEW002/// SCT009/// BKN012/// 02/01
                        Q1014=
201901181630 METAR LRBM 181630Z AUTO 00000KT 3400 -RA FEW001/// SCT009///
                        BKN012/// 01/01 Q1015=
201901181700 METAR LRBM 181700Z AUTO 00000KT 2700 R09/1200VP2000D -RA
                        FEW001/// BKN008/// BKN032/// 01/01
                        Q1015=
201901181730 METAR LRBM 181730Z AUTO 10002KT 3200 FEW008/// SCT015///
                        BKN039/// 01/01 Q1015=
201901181800 METAR LRBM 181800Z AUTO 00000KT 4000 R09/1800VP2000U FEW009///
                        BKN011/// BKN019/// 01/01 Q1015=
201901181830 METAR LRBM 181830Z AUTO 05001KT 1800 R09/1300VP2000D -RA
                        FEW003/// BKN010/// BKN013/// 01/00
                        Q1016=
201901181900 METAR LRBM 181900Z AUTO 17002KT 110V260 6000 SCT003/// BKN009///
                        01/01 Q1016=
201901181930 METAR LRBM 181930Z AUTO 24004KT 4800 SCT002/// BKN006///
                        BKN008/// 01/00 Q1016=
201901182000 METAR LRBM 182000Z AUTO 27008KT 6000 BKN002/// BKN004///
                        00/M00 Q1017=
201901182030 METAR LRBM 182030Z AUTO 28006KT 6000 SCT003/// BKN015///
                        BKN230/// 00/M00 Q1017=
201901182100 METAR LRBM 182100Z AUTO 26005KT 9999 FEW012/// SCT150///
                        00/M00 Q1017=
201901182130 METAR LRBM 182130Z AUTO VRB01KT 9999 FEW043/// BKN190///
                        00/M01 Q1017=
201901182200 METAR LRBM 182200Z AUTO 29004KT 250V060 9000 FEW020/// SCT190///
                        00/M01 Q1018=
201901182230 METAR LRBM 182230Z AUTO 27009KT 9999 FEW005/// SCT200///
                        M00/M01 Q1018=
201901182300 METAR LRBM 182300Z AUTO 28004KT 250V310 9999 FEW046/// SCT210///
                        M01/M02 Q1018=
201901182330 METAR LRBM 182330Z AUTO 28009KT 9000 FEW003/// SCT140///
                        BKN240/// M01/M02 Q1019=
201901190000 METAR LRBM 190000Z AUTO 28007KT 6000 SCT003/// BKN170///
                        M01/M02 Q1019=
201901190030 METAR LRBM 190030Z AUTO VRB01KT 6000 FEW004/// SCT150///
                        BKN240/// M02/M03 Q1019=
201901190100 METAR LRBM 190100Z AUTO 24003KT 220V320 5000 BR BKN003///
                        M02/M03 Q1020=
201901190130 METAR LRBM 190130Z AUTO 28003KT 4800 BR BKN002/// BKN004///
                        M01/M02 Q1020=
201901190200 METAR LRBM 190200Z AUTO 34002KT 270V040 5000 BR FEW002///
                        BKN004/// M01/M02 Q1020=
201901190230 METAR LRBM 190230Z AUTO 25002KT 4200 BR SCT002/// BKN004///
                        M01/M02 Q1020=
201901190300 METAR LRBM 190300Z AUTO 27002KT 5000 BR SCT002/// BKN004///
                        BKN029/// M01/M02 Q1020=
201901190330 METAR LRBM 190330Z AUTO 00000KT 5000 BR BKN003/// BKN005///
                        M01/M02 Q1020=
201901190400 METAR LRBM 190400Z AUTO 18002KT 7000 SCT002/// BKN005///
                        BKN008/// M01/M02 Q1020=
201901190430 METAR LRBM 190430Z AUTO 00000KT 5000 FEW006/// BKN008///
                        M01/M02 Q1020=
201901190500 METAR LRBM 190500Z AUTO VRB01KT 6000 BKN007/// BKN009///
                        M01/M02 Q1021=
201901190530 METAR LRBM 190530Z AUTO 03002KT 010V070 9999 FEW007/// BKN009///
                        M01/M02 Q1021=
201901190600 METAR LRBM 190600Z AUTO 06002KT 020V080 9999 SCT008/// BKN010///
                        M01/M02 Q1021=
201901190630 METAR LRBM 190630Z AUTO 08002KT 9999 BKN009/// BKN011///
                        M01/M03 Q1021=
201901190700 METAR LRBM 190700Z AUTO 06003KT 360V090 9999 BKN010/// BKN029///
                        M01/M03 Q1021=
201901190730 METAR LRBM 190730Z AUTO 04003KT 360V060 9999 SCT011/// BKN014///
                        M01/M03 Q1021=
201901190800 METAR LRBM 190800Z AUTO 04002KT 020V100 9999 BKN015/// M00/M03
                        Q1021=
201901190830 METAR LRBM 190830Z AUTO 12003KT 9999 SCT015/// BKN037///
                        M01/M03 Q1022=
201901190900 METAR LRBM 190900Z AUTO 05003KT 020V080 9999 BKN016/// 00/M03
                        Q1022=
201901190930 METAR LRBM 190930Z AUTO 06003KT 020V090 9999 BKN016/// 01/M03
                        Q1022=
201901191000 METAR LRBM 191000Z AUTO 08005KT 9999 BKN016/// BKN110///
                        01/M03 Q1022=
201901191030 METAR LRBM 191030Z AUTO 11004KT 9999 BKN016/// 01/M03 Q1022=
201901191100 METAR LRBM 191100Z AUTO 09003KT 050V120 9999 SCT017/// BKN020///
                        BKN240/// 01/M03 Q1021=
201901191130 METAR LRBM 191130Z AUTO 09003KT 9999 FEW010/// SCT220///
                        01/M02 Q1021=
201901191200 METAR LRBM 191200Z AUTO 08004KT 9999 FEW060/// SCT240///
                        02/M02 Q1021=
201901191230 METAR LRBM 191230Z AUTO 08004KT 9999 FEW036/// SCT230///
                        02/M02 Q1020=
201901191300 METAR LRBM 191300Z AUTO 08003KT 9999 FEW024/// SCT220///
                        02/M02 Q1020=
201901191330 METAR LRBM 191330Z AUTO 10003KT 9999 FEW027/// SCT180///
                        02/M02 Q1020=
201901191400 METAR LRBM 191400Z AUTO 14002KT 090V190 9999 FEW050/// SCT210///
                        02/M02 Q1020=
201901191430 METAR LRBM 191430Z AUTO 22001KT 9999 FEW015/// SCT210///
                        02/M02 Q1020=
201901191500 METAR LRBM 191500Z AUTO 22001KT 9999 FEW015/// SCT200///
                        00/M02 Q1020=
201901191530 METAR LRBM 191530Z AUTO 00000KT 9999 FEW015/// SCT190///
                        M01/M02 Q1020=
201901191600 METAR LRBM 191600Z AUTO 36002KT 6000 FEW014/// SCT210///
                        M01/M02 Q1020=
201901191630 METAR LRBM 191630Z AUTO 00000KT 9999 FEW050/// SCT210///
                        M01/M02 Q1020=
201901191700 METAR LRBM 191700Z AUTO 06001KT 9999 FEW055/// SCT240///
                        M00/M02 Q1019=
201901191730 METAR LRBM 191730Z AUTO 17001KT 9999 FEW085/// SCT220///
                        M01/M03 Q1019=
201901191800 METAR LRBM 191800Z AUTO 00000KT 6000 FEW029/// SCT220///
                        M02/M03 Q1019=
201901191830 METAR LRBM 191830Z AUTO 00000KT 9999 SCT032/// BKN200///
                        M01/M02 Q1019=
201901191900 METAR LRBM 191900Z AUTO VRB01KT 7000 SCT029/// BKN033///
                        M01/M02 Q1020=
201901191930 METAR LRBM 191930Z AUTO VRB01KT 6000 BKN029/// BKN240///
                        M01/M02 Q1019=
201901192000 METAR LRBM 192000Z AUTO 06004KT 9999 BKN030/// BKN220///
                        01/M02 Q1019=
201901192030 METAR LRBM 192030Z AUTO 08003KT 9999 SCT029/// BKN190///
                        01/M02 Q1019=
201901192100 METAR LRBM 192100Z AUTO 08005KT 9999 SCT026/// BKN150///
                        00/M02 Q1019=
201901192130 METAR LRBM 192130Z AUTO 07004KT 9999 NCD 00/M01 Q1019=
201901192200 METAR LRBM 192200Z AUTO 07004KT 9999 NCD ///// Q1019=
201901192230 METAR LRBM 192230Z AUTO 06003KT 9999 -RA NCD 01/M01 Q1019=
201901192300 METAR LRBM 192300Z AUTO 07004KT 040V100 9999 -SHRA FEW012///
                        SCT020/// BKN033/// 01/M01 Q1019=
201901192330 METAR LRBM 192330Z AUTO 07003KT 9999 -SHRA FEW009/// SCT018///
                        BKN021/// 01/M01 Q1019=
201901200000 METAR LRBM 200000Z AUTO 06003KT 9999 -RA FEW009/// SCT013///
                        BKN024/// 01/M00 Q1018=
201901200030 METAR LRBM 200030Z AUTO 06002KT 9999 -RA FEW007/// SCT013///
                        BKN023/// 01/M00 Q1018=
201901200100 METAR LRBM 200100Z AUTO 07003KT 9999 -RA FEW007/// SCT017///
                        BKN034/// 01/M00 Q1018=
201901200130 METAR LRBM 200130Z AUTO 07002KT 9999 -RA FEW007/// SCT012///
                        BKN018/// 01/M00 Q1018=
201901200200 METAR LRBM 200200Z AUTO 06003KT 030V090 9999 -RA FEW007///
                        SCT013/// BKN020/// 01/00 Q1017=
201901200230 METAR LRBM 200230Z AUTO 06003KT 9999 -RA FEW006/// SCT014///
                        BKN020/// 01/00 Q1017=
201901200300 METAR LRBM 200300Z AUTO 05003KT 9999 -RA FEW007/// BKN020///
                        BKN080/// 01/00 Q1017=
201901200330 METAR LRBM 200330Z AUTO 07002KT 7000 DZ FEW007/// SCT015///
                        BKN022/// 01/M00 Q1017=
201901200400 METAR LRBM 200400Z AUTO 06003KT 7000 -RA SCT010/// BKN021///
                        BKN049/// 01/M00 Q1016=
201901200430 METAR LRBM 200430Z AUTO 06002KT 8000 DZ FEW007/// SCT012///
                        BKN021/// 01/00 Q1016=
201901200500 METAR LRBM 200500Z AUTO 07003KT 8000 -RA FEW007/// SCT011///
                        BKN021/// 01/00 Q1016=
201901200530 METAR LRBM 200530Z AUTO 07002KT 7000 -RA FEW007/// SCT011///
                        BKN021/// 01/M00 Q1016=
201901200600 METAR LRBM 200600Z AUTO 06003KT 6000 DZ FEW008/// SCT011///
                        BKN022/// 01/00 Q1016=
201901200630 METAR LRBM 200630Z AUTO 05003KT 6000 FEW007/// SCT012///
                        BKN021/// 01/00 Q1016=
201901200700 METAR LRBM 200700Z AUTO 07004KT 8000 FEW007/// SCT014///
                        BKN020/// 02/01 Q1016=
201901200730 METAR LRBM 200730Z AUTO 04004KT 9999 FEW007/// SCT012///
                        BKN020/// 02/00 Q1015=
201901200800 METAR LRBM 200800Z AUTO 06003KT 9999 FEW009/// SCT021///
                        BKN140/// 02/00 Q1016=
201901200830 METAR LRBM 200830Z AUTO 06004KT 9999 FEW008/// SCT020///
                        BKN044/// 02/00 Q1016=
201901200900 METAR LRBM 200900Z AUTO 07005KT 9999 FEW008/// SCT013///
                        BKN020/// 02/00 Q1016=
201901200930 METAR LRBM 200930Z AUTO 08005KT 9999 -RA FEW008/// BKN017///
                        BKN020/// 02/00 Q1016=
201901201000 METAR LRBM 201000Z AUTO 07005KT 9999 VV012 02/00 Q1015=
201901201030 METAR LRBM 201030Z AUTO 09005KT 9999 SCT009/// BKN016///
                        BKN023/// 02/00 Q1015=
201901201100 METAR LRBM 201100Z AUTO 06002KT 9999 FEW006/// SCT013///
                        BKN018/// 02/01 Q1015=
201901201130 METAR LRBM 201130Z AUTO 07003KT 9999 FEW015/// SCT024///
                        02/01 Q1015=
201901201200 METAR LRBM 201200Z AUTO 09003KT 9999 FEW008/// SCT016///
                        BKN029/// 02/00 Q1014=
201901201230 METAR LRBM 201230Z AUTO 06002KT 8000 -RA FEW007/// BKN013///
                        BKN029/// 02/01 Q1014=
201901201300 METAR LRBM 201300Z AUTO 08002KT 7000 FEW007/// SCT011///
                        BKN014/// 02/00 Q1014=
201901201330 METAR LRBM 201330Z AUTO 07001KT 8000 FEW008/// SCT013///
                        BKN019/// 02/01 Q1014=
201901201400 METAR LRBM 201400Z AUTO 00000KT 5000 SCT008/// BKN013///
                        BKN019/// 02/01 Q1014=
201901201430 METAR LRBM 201430Z AUTO 00000KT 5000 FEW008/// SCT014///
                        BKN028/// 01/00 Q1014=
201901201500 METAR LRBM 201500Z AUTO 26002KT 1000 R09/0800V1400U FEW008///
                        SCT017/// BKN050/// 01/M00 Q1014=
201901201530 METAR LRBM 201530Z AUTO 00000KT 1500 R09/1300VP2000D FEW008///
                        SCT018/// BKN080/// 00/M00 Q1014=
201901201600 METAR LRBM 201600Z AUTO 25001KT 1100 R09/1000V1500D -PL FEW004///
                        SCT012/// BKN065/// 00/M00 Q1014=
201901201630 METAR LRBM 201630Z AUTO 24001KT 1400 R09/1500N -PL FEW002///
                        SCT005/// BKN008/// 00/M00 Q1014=
201901201700 METAR LRBM 201700Z AUTO 27002KT 1700 R09/1900D BKN003///
                        BKN006/// 00/M00 Q1014=
201901201730 METAR LRBM 201730Z AUTO 27002KT 1100 R09/1300D SCT003///
                        BKN005/// BKN023/// 00/M00 Q1014=
201901201800 METAR LRBM 201800Z 26003KT 0700 R09/1400U -SN FG SCT003 BKN006
                        BKN065 00/M00 Q1015 R09/29//95=
201901201830 METAR LRBM 201830Z 26003KT 0900 R09/1700U -SN FG FEW003 BKN005
                        BKN060 00/M00 Q1015 R09/29//95=
201901201900 METAR LRBM 201900Z 28006KT 2500 -SN BR BKN004 BKN037 00/M00
                        Q1015 R09/29//95=
201901201930 METAR LRBM 201930Z 28006KT 3000 -SN BR SCT005 BKN010 00/M00
                        Q1015 R09/29//95=
201901202000 METAR LRBM 202000Z 28006KT 2500 -SN BR FEW002 BKN013 BKN024
                        M00/M01 Q1015 R09/290294=
201901202030 METAR LRBM 202030Z 29004KT 1500 -SN BR VV007 M00/M01 Q1016
                        R09/290294=
201901202100 METAR LRBM 202100Z 29005KT 2500 -SN BR FEW001 SCT007 BKN011
                        M00/M01 Q1016 R09/690294=
201901202130 METAR LRBM 202130Z 29005KT 3500 -SN BR FEW006 SCT009 BKN011
                        M00/M01 Q1016 R09/690294=
201901202200 METAR LRBM 202200Z 30004KT 3100 -SN BR FEW006 SCT008 BKN011
                        M00/M01 Q1016 R09/690294=
201901202230 METAR LRBM 202230Z AUTO 29004KT 3500 FEW004/// SCT007///
                        BKN011/// M00/M01 Q1016=
201901202300 METAR LRBM 202300Z AUTO 29004KT 3500 FEW003/// SCT008///
                        BKN012/// M00/M01 Q1016=
201901202330 METAR LRBM 202330Z AUTO 30005KT 3500 FEW006/// SCT010///
                        BKN013/// M01/M01 Q1016=
201901210000 METAR LRBM 210000Z AUTO 30005KT 4100 FEW006/// BKN013///
                        M01/M01 Q1017=
201901210030 METAR LRBM 210030Z AUTO 29005KT 4300 SCT005/// BKN007///
                        BKN036/// M01/M02 Q1017=
201901210100 METAR LRBM 210100Z AUTO 29006KT 4300 FEW003/// SCT007///
                        BKN009/// M01/M02 Q1017=
201901210130 METAR LRBM 210130Z AUTO 29005KT 4000 FEW004/// SCT006///
                        BKN010/// M01/M02 Q1017=
201901210200 METAR LRBM 210200Z AUTO 29005KT 3800 SCT004/// BKN006///
                        BKN008/// M01/M02 Q1017=
201901210230 METAR LRBM 210230Z AUTO 29004KT 4300 FEW005/// BKN009///
                        BKN039/// M01/M02 Q1017=
201901210300 METAR LRBM 210300Z 30004KT 4000 -SN BR SCT007 OVC012 M01/M02
                        Q1018 R09/591093=
201901210330 METAR LRBM 210330Z 29004KT 4000 -SN BR FEW003 SCT006 BKN008
                        M01/M02 Q1018 R09/591093=
201901210400 METAR LRBM 210400Z 29005KT 5000 -SG BR FEW003 BKN007 M02/M02
                        Q1018 R09/591093=
201901210430 METAR LRBM 210430Z 29005KT 4000 -SG BR FEW005 OVC007 M02/M02
                        Q1018 R09/591093=
201901210500 METAR LRBM 210500Z 29005KT 2500 -SG BR BKN005 OVC007 M02/M02
                        Q1019 R09/591093=
201901210530 METAR LRBM 210530Z 28005KT 2500 -SG BR SCT005 OVC007 M02/M03
                        Q1019 R09/591093=
201901210600 METAR LRBM 210600Z 29005KT 2200 -SG BR SCT005 OVC008 M02/M03
                        Q1019 R09/591093=
201901210630 METAR LRBM 210630Z 28005KT 2200 BR FEW002 BKN005 OVC008 M02/M03
                        Q1019 R09/591093=
201901210700 METAR LRBM 210700Z 29005KT 1800 BR FEW002 BKN005 OVC007 M02/M03
                        Q1020 R09/591093=
201901210730 METAR LRBM 210730Z 28004KT 1800 BR FEW002 SCT006 OVC008 M02/M03
                        Q1020 R09/591093=
201901210800 METAR LRBM 210800Z 29003KT 260V320 1800 -SG BR SCT006 OVC009
                        M02/M03 Q1020 R09/591093=
201901210830 METAR LRBM 210830Z 28003KT 250V310 2000 -SG BR SCT005 OVC008
                        M02/M03 Q1021 R09/591093=
201901210900 METAR LRBM 210900Z 27002KT 2000 -SG BR SCT005 OVC008 M02/M02
                        Q1021 R09/591093=
201901210930 METAR LRBM 210930Z 27003KT 2000 -SG BR SCT005 OVC007 M02/M03
                        Q1021 R09/591093=
201901211000 METAR LRBM 211000Z 27004KT 3000 -SG BR SCT006 OVC008 M02/M03
                        Q1021 R09/591093=
201901211030 METAR LRBM 211030Z 28004KT 3000 -SG BR FEW009 OVC015 M02/M03
                        Q1021 R09/591093=
201901211100 METAR LRBM 211100Z 28004KT 3000 -SG BR FEW010 OVC031 M02/M03
                        Q1021 R09/591093=
201901211130 METAR LRBM 211130Z 27005KT 3000 -SN BR SCT013 OVC027 M02/M03
                        Q1021 R09/591093=
201901211200 METAR LRBM 211200Z 27005KT 3000 -SN BR OVC013 M02/M03 Q1021
                        R09/591093=
201901211230 METAR LRBM 211230Z 27003KT 3000 -SN BR OVC013 M02/M03 Q1021
                        R09/591093=
201901211300 METAR LRBM 211300Z 25002KT 3000 -SN BR OVC013 M02/M03 Q1021
                        R09/591093=
201901211330 METAR LRBM 211330Z 00000KT 3000 -SN BR OVC012 M02/M03 Q1021
                        R09/591093=
201901211400 METAR LRBM 211400Z 10002KT 3000 -SN BR OVC012 M02/M03 Q1021
                        R09/591093=
201901211430 METAR LRBM 211430Z 09001KT 3500 -SN BR SCT012 OVC040 M02/M03
                        Q1021 R09/591093=
201901211500 METAR LRBM 211500Z 21002KT 3000 -SN BR SCT014 OVC040 M02/M03
                        Q1021 R09/290195=
201901211530 METAR LRBM 211530Z AUTO 19002KT 3800 -SHSN BKN012/// M02/M03
                        Q1021=
201901211600 METAR LRBM 211600Z AUTO 00000KT 4500 BKN011/// BKN240///
                        M02/M03 Q1021 RESN=
201901211630 METAR LRBM 211630Z AUTO 19001KT 4600 BKN010/// M02/M03 Q1021
                        RESN=
201901211700 METAR LRBM 211700Z AUTO 19001KT 4100 BR FEW009/// SCT011///
                        BKN170/// M02/M03 Q1021=
201901211730 METAR LRBM 211730Z AUTO 00000KT 4000 BR BKN010/// BKN160///
                        M02/M03 Q1021=
201901211800 METAR LRBM 211800Z AUTO 26003KT 2600 BR FEW010/// SCT014///
                        BKN190/// M03/M04 Q1021=
201901211830 METAR LRBM 211830Z AUTO 00000KT 2500 BR FEW013/// SCT075///
                        BKN190/// M03/M04 Q1021=
201901211900 METAR LRBM 211900Z AUTO 25001KT 2800 BR FEW014/// SCT080///
                        BKN220/// M03/M04 Q1020=
201901211930 METAR LRBM 211930Z AUTO 20001KT 2800 BR FEW012/// SCT055///
                        BKN170/// M03/M04 Q1021=
201901212000 METAR LRBM 212000Z AUTO 00000KT 3000 BR FEW007/// SCT055///
                        BKN180/// M03/M04 Q1021=
201901212030 METAR LRBM 212030Z AUTO 04002KT 2400 FEW012/// SCT055///
                        BKN220/// M03/M03 Q1020=
201901212100 METAR LRBM 212100Z AUTO 09002KT 2800 -SHSN FEW010/// SCT055///
                        BKN220/// M02/M03 Q1020=
201901212130 METAR LRBM 212130Z AUTO VRB01KT 2600 -SHSN FEW013/// SCT055///
                        BKN160/// M02/M03 Q1020=
201901212200 METAR LRBM 212200Z AUTO 26002KT 2500 -SHSN FEW019/// SCT055///
                        BKN240/// M03/M04 Q1020=
201901212230 METAR LRBM 212230Z AUTO 00000KT 2500 -SHSN FEW018/// SCT095///
                        M03/M04 Q1020=
201901212300 METAR LRBM 212300Z AUTO 22001KT 2400 -SHSN FEW016/// SCT055///
                        BKN240/// M03/M04 Q1020=
201901212330 METAR LRBM 212330Z AUTO 22003KT 2400 -SHSN FEW002/// SCT025///
                        BKN200/// M03/M04 Q1020=
201901220000 METAR LRBM 220000Z AUTO VRB01KT 2600 FEW002/// SCT020///
                        BKN170/// M03/M03 Q1020 RESN=
201901220030 METAR LRBM 220030Z AUTO 01002KT 2700 FEW017/// SCT060///
                        M02/M03 Q1019 RESN=
201901220100 METAR LRBM 220100Z AUTO 05002KT 2900 BR FEW019/// SCT022///
                        M02/M03 Q1019=
201901220130 METAR LRBM 220130Z AUTO 10003KT 070V160 3100 BR FEW020///
                        SCT030/// BKN240/// M02/M03 Q1019=
201901220200 METAR LRBM 220200Z AUTO 08003KT 3300 BR FEW019/// SCT034///
                        BKN200/// M02/M03 Q1018=
201901220230 METAR LRBM 220230Z AUTO 10003KT 2900 BR SCT028/// BKN033///
                        M02/M03 Q1018=
201901220300 METAR LRBM 220300Z AUTO 10002KT 2700 BR FEW016/// SCT030///
                        BKN190/// M02/M03 Q1018=
201901220330 METAR LRBM 220330Z AUTO 09004KT 2300 BR FEW012/// SCT047///
                        BKN230/// M03/M03 Q1018=
201901220400 METAR LRBM 220400Z AUTO 09003KT 2700 BR BKN031/// M03/M03
                        Q1017=
201901220430 METAR LRBM 220430Z AUTO 09003KT 2700 BR FEW023/// SCT031///
                        BKN170/// M03/M03 Q1017=
201901220500 METAR LRBM 220500Z 14004KT 2500 BR FEW015 BKN030 M03/M03
                        Q1017 R09/290195=
201901220530 METAR LRBM 220530Z 14004KT 1500 BR FEW018 SCT030 M03/M03
                        Q1017 R09/39//94=
201901220600 METAR LRBM 220600Z 04002KT 1500 BR SCT021 SCT035 M02/M03
                        Q1017 R09/39//94=
201901220630 METAR LRBM 220630Z 08003KT 070V130 1700 BR SCT021 SCT035
                        M02/M03 Q1017 R09/39//94=
201901220700 METAR LRBM 220700Z 16002KT 110V200 1400 R09/1600D BR BKN021
                        M03/M03 Q1017 R09/39//94=
201901220730 METAR LRBM 220730Z 00000KT 0900 R09/1200N -SN FZFG FEW008
                        SCT013 BKN021 M02/M03 Q1016 R09/39//94=
201901220800 METAR LRBM 220800Z 00000KT 1200 R09/1500N -SN BR FEW005 SCT011
                        BKN014 M01/M02 Q1016 R09/39//94=
201901220830 METAR LRBM 220830Z 00000KT 1200 R09/1300D -SN BR FEW007 BKN010
                        BKN025 M00/M01 Q1016 R09/39//94=
201901220900 METAR LRBM 220900Z 00000KT 1200 R09/1200N -SN BR FEW006 SCT009
                        BKN020 M00/M01 Q1016 R09/39//94=
201901220930 METAR LRBM 220930Z 00000KT 2100 BR FEW007 SCT025 00/M01 Q1016
                        R09/39//94=
201901221000 METAR LRBM 221000Z 19002KT 1800 -SN BR FEW008 SCT027 BKN055
                        M00/M01 Q1015 R09/39//94=
201901221030 METAR LRBM 221030Z 24001KT 2300 -SN BR FEW006 SCT027 BKN045
                        00/M01 Q1015 R09/39//94=
201901221100 METAR LRBM 221100Z 24001KT 1100 R09/1200N -SN BR FEW007 SCT010
                        BKN013 M00/M01 Q1014 R09/39//94=
201901221130 METAR LRBM 221130Z 00000KT 1300 R09/1400U -SN BR FEW006 SCT010
                        BKN017 01/M01 Q1014 R09/39//94=
201901221200 METAR LRBM 221200Z 00000KT 1100 R09/1200N -SN BR FEW006 SCT012
                        BKN040 00/M01 Q1013 R09/39//94=
201901221230 METAR LRBM 221230Z 08003KT 2000 -SN BR FEW009 SCT012 BKN040
                        00/M01 Q1013 R09/39//94=
201901221300 METAR LRBM 221300Z 08004KT 2000 -SN BR FEW007 SCT020 BKN040
                        00/M01 Q1013 R09/39//94=
201901221330 METAR LRBM 221330Z 07004KT 2900 -SN BR FEW006 SCT012 BKN027
                        00/M00 Q1012 R09/39//95=
201901221400 METAR LRBM 221400Z 08004KT 1400 R09/1900D SN BR FEW006 SCT009
                        BKN020 00/M01 Q1012 R09/29//95=
201901221430 METAR LRBM 221430Z 07004KT 1800 SN BR FEW007 SCT009 BKN014
                        00/M01 Q1011 R09/29//95=
201901221500 METAR LRBM 221500Z 07004KT 1800 SN BR FEW006 SCT009 BKN012
                        00/M00 Q1011 R09/29//95=
201901221530 METAR LRBM 221530Z 08004KT 1800 SN BR VV008 00/M01 Q1011
                        R09/29//95=
201901221600 METAR LRBM 221600Z 05002KT 2000 -SN BR SCT006 BKN010 BKN027
                        00/M00 Q1011 R09/29//95=
201901221630 METAR LRBM 221630Z 05002KT 2000 -SN BR FEW007 BKN009 BKN030
                        00/M00 Q1010 R09/29//95=
201901221700 METAR LRBM 221700Z 06002KT 2000 -SN BR FEW006 SCT009 BKN011
                        00/M00 Q1010 R09/29//95=
201901221730 METAR LRBM 221730Z AUTO 06002KT 2600 -SN FEW006/// SCT009///
                        BKN011/// 00/M00 Q1010=
201901221800 METAR LRBM 221800Z AUTO 05003KT 2900 FEW006/// BKN008///
                        BKN025/// 00/M00 Q1009=
201901221830 METAR LRBM 221830Z AUTO 05002KT 3800 FEW006/// SCT009///
                        BKN012/// 00/M00 Q1009=
201901221900 METAR LRBM 221900Z AUTO 06002KT 3500 FEW006/// SCT010///
                        BKN013/// 00/M00 Q1008=
201901221930 METAR LRBM 221930Z AUTO 05003KT 020V090 6000 FEW008/// BKN010///
                        BKN027/// 00/M00 Q1008=
201901222000 METAR LRBM 222000Z AUTO 05003KT 8000 FEW008/// SCT010///
                        BKN013/// 00/M00 Q1008=
201901222030 METAR LRBM 222030Z AUTO 07003KT 6000 VV011 00/M00 Q1007=
201901222100 METAR LRBM 222100Z AUTO 08003KT 6000 FEW006/// SCT011///
                        BKN014/// 00/M00 Q1007=
201901222130 METAR LRBM 222130Z AUTO 00000KT 4000 FEW007/// SCT010///
                        BKN014/// 00/M00 Q1007=
201901222200 METAR LRBM 222200Z AUTO 00000KT 3200 FEW008/// BKN029///
                        BKN240/// 00/M01 Q1006=
201901222230 METAR LRBM 222230Z AUTO 00000KT 1100 R09/1000V1600D VV001
                        M00/M01 Q1006=
201901222300 METAR LRBM 222300Z AUTO 25003KT 0500 R09/0600V0750N VV001
                        M00/M01 Q1006=
201901222330 METAR LRBM 222330Z AUTO 00000KT 0750 R09/0800V1100U -SHSN
                        VV001 M00/M01 Q1005=
201901230000 METAR LRBM 230000Z AUTO 30002KT 240V330 0500 R09/0600N VV001
                        M00/M01 Q1005=
201901230030 METAR LRBM 230030Z AUTO 31001KT 1000 R09/0800V1600U VV001
                        M00/M01 Q1004=
201901230100 METAR LRBM 230100Z AUTO 32001KT 2100 -SN FEW002/// SCT024///
                        BKN040/// M00/M01 Q1004=
201901230130 METAR LRBM 230130Z AUTO 29002KT 3000 -SN FEW001/// SCT013///
                        BKN025/// M00/M01 Q1003=
201901230200 METAR LRBM 230200Z AUTO 26003KT 1300 R09/1200V2000D -SN VV001
                        M00/M01 Q1003=
201901230230 METAR LRBM 230230Z AUTO VRB01KT 0600 R09/0700N -SN FEW001///
                        SCT004/// BKN007/// M01/M01 Q1003=
201901230300 METAR LRBM 230300Z AUTO 00000KT 0800 R09/1000N -SN FEW002///
                        BKN004/// BKN200/// M01/M01 Q1003=
201901230330 METAR LRBM 230330Z AUTO 00000KT 1000 R09/1200N -SN FEW003///
                        SCT016/// BKN170/// M01/M01 Q1003=
201901230400 METAR LRBM 230400Z AUTO 00000KT 1500 R09/1600N -SN FEW010///
                        SCT170/// M00/M01 Q1002=
201901230430 METAR LRBM 230430Z AUTO VRB01KT 1500 R09/1700D -RA FEW002///
                        SCT041/// BKN190/// M00/M00 Q1002=
201901230500 METAR LRBM 230500Z 28001KT 1200 R09/1500D -FZRA BCFG BKN002
                        OVC012 M00/M00 Q1002 R09/29//95=
201901230530 METAR LRBM 230530Z 24001KT 0600 R09/1500D -FZRA FZFG BKN002
                        OVC012 M00/M00 Q1002 R09/29//95=
201901230600 METAR LRBM 230600Z 31001KT 0700 R09/1500N -FZRA FZFG BKN002
                        OVC012 M00/M00 Q1002 R09/590593=
201901230630 METAR LRBM 230630Z 23002KT 0700 R09/1100N -FZRA FZFG SCT002
                        OVC010 M00/M00 Q1002 R09/590593=
201901230700 METAR LRBM 230700Z 00000KT 0500 R09/0800N -SG FZFG BKN002
                        M00/M00 Q1002 R09/590593=
201901230730 METAR LRBM 230730Z 00000KT 0450 R09/0600N -SG FG BKN002 BKN005
                        00/M00 Q1002 R09/590593=
201901230800 METAR LRBM 230800Z 00000KT 0800 R09/1100N -SN FG BKN003 00/00
                        Q1002 R09/590593=
201901230830 METAR LRBM 230830Z 00000KT 1200 R09/1200D -RASN BR BKN003
                        OVC013 00/00 Q1002 R09/590593=
201901230900 METAR LRBM 230900Z 08003KT 040V100 1000 R09/1300N -RASN BR
                        BKN003 OVC013 00/00 Q1002 R09/590593=
201901230930 METAR LRBM 230930Z 07002KT 0800 R09/1200N -RA FG BKN003 OVC013
                        01/00 Q1002 R09/590593=
201901231000 METAR LRBM 231000Z 10003KT 1000 R09/1200N -DZ BR BKN004 OVC013
                        01/00 Q1002 R09/590593=
201901231030 METAR LRBM 231030Z 00000KT 3500 1200W R09/1300D BCFG SCT005
                        OVC016 01/01 Q1001 R09/590593=
201901231100 METAR LRBM 231100Z 17004KT 1200 R09/1700U -RA BCFG SCT005
                        OVC016 01/00 Q1002 R09/19//95=
201901231130 METAR LRBM 231130Z VRB01KT 0650 R09/0900D -RA FG FEW001 BKN003
                        OVC012 01/00 Q1001 R09/19//95=
201901231200 METAR LRBM 231200Z 20001KT 0400 R09/0800N -RA FG FEW001 BKN003
                        OVC012 01/00 Q1001 R09/19//95=
201901231230 METAR LRBM 231230Z 20002KT 1200 0300W R09/0900U BCFG BKN003
                        OVC014 00/M00 Q1001 R09/19//95=
201901231300 METAR LRBM 231300Z 20001KT 0300 R09/0800N -DZ FG BKN003 OVC014
                        01/00 Q1001 R09/19//95=
201901231330 METAR LRBM 231330Z 25002KT 0400 R09/1000U -DZ FG BKN003 OVC014
                        00/M00 Q1001 R09/19//95=
201901231400 METAR LRBM 231400Z 00000KT 0800 R09/1600D FG BKN003 OVC016
                        01/00 Q1001 R09/19//95=
201901231430 METAR LRBM 231430Z 20002KT 0800 R09/1300D FG SCT003 OVC016
                        00/M00 Q1001 R09/19//95=
201901231500 METAR LRBM 231500Z 00000KT 0500 R09/1100U FG SCT002 OVC014
                        00/M00 Q1001 R09/19//95=
201901231530 METAR LRBM 231530Z 00000KT 0900 R09/1400U FG SCT002 OVC016
                        00/M00 Q1002 R09/19//95=
201901231600 METAR LRBM 231600Z 09006KT 1500 BR FEW002 BKN018 00/00 Q1002
                        R09/19//95=
201901231630 METAR LRBM 231630Z 12005KT 2200 BR BKN018 OVC030 01/00 Q1002
                        R09/19//95=
201901231700 METAR LRBM 231700Z 11003KT 060V150 0900 R09/1500D FG BKN018
                        OVC030 01/00 Q1002 R09/19//95=
201901231730 METAR LRBM 231730Z AUTO 09002KT 070V140 2000 FEW001/// SCT044///
                        BKN140/// 01/00 Q1002=
201901231800 METAR LRBM 231800Z AUTO 05004KT 2200 R09/1700VP2000U FEW036///
                        SCT044/// BKN190/// 01/00 Q1002=
201901231830 METAR LRBM 231830Z AUTO 05004KT 4600 SCT040/// BKN110///
                        01/00 Q1001=
201901231900 METAR LRBM 231900Z AUTO 00000KT 6000 SCT041/// BKN050///
                        01/01 Q1001=
201901231930 METAR LRBM 231930Z AUTO VRB01KT 9000 FEW042/// SCT048///
                        BKN170/// 01/00 Q1001=
201901232000 METAR LRBM 232000Z AUTO 31002KT 250V050 1600 R09/1600VP2000U
                        FEW001/// SCT003/// BKN120/// 00/M00
                        Q1001=
201901232030 METAR LRBM 232030Z AUTO 00000KT 0900 R09/0800V1400D SCT001///
                        BKN043/// 00/M00 Q1002=
201901232100 METAR LRBM 232100Z AUTO 08002KT 0400 R09/0450N FZFG FEW001///
                        SCT036/// BKN230/// M00/M01 Q1002=
201901232130 METAR LRBM 232130Z AUTO VRB01KT 2800 FEW005/// SCT050///
                        BKN240/// 00/M00 Q1001=
201901232200 METAR LRBM 232200Z AUTO 18005KT 0300 R09/0300V0500N FZFG
                        FEW001/// SCT100/// BKN240/// M01/M02
                        Q1002=
201901232230 METAR LRBM 232230Z AUTO VRB02KT 0350 R09/0400N FZFG VV001
                        M02/M02 Q1002=
201901232300 METAR LRBM 232300Z AUTO 23003KT 0250 R09/0275N FZFG VV001
                        M02/M02 Q1002=
201901232330 METAR LRBM 232330Z AUTO 17001KT 0250 R09/0300N VV001 M02/M03
                        Q1001=
201901240000 METAR LRBM 240000Z AUTO VRB01KT 0250 R09/0300N VV001 M02/M03
                        Q1001=
201901240030 METAR LRBM 240030Z AUTO 24002KT 0300 R09/0325N VV001 M03/M03
                        Q1002=
201901240100 METAR LRBM 240100Z AUTO 16001KT 0300 R09/0325N VV001 M03/M04
                        Q1001=
201901240130 METAR LRBM 240130Z AUTO 19002KT 170V240 0300 R09/0350N VV001
                        M04/M04 Q1001=
201901240200 METAR LRBM 240200Z AUTO VRB01KT 0500 R09/0550N VV001 M04/M04
                        Q1001=
201901240230 METAR LRBM 240230Z AUTO 21004KT 0800 R09/1000U VV002 M04/M04
                        Q1001=
201901240300 METAR LRBM 240300Z AUTO 24002KT 0600 R09/0700N VV001 M04/M05
                        Q1000=
201901240330 METAR LRBM 240330Z AUTO 00000KT 0900 R09/1100N VV002 M04/M05
                        Q1000=
201901240400 METAR LRBM 240400Z AUTO 00000KT 1000 R09/0900V1400U VV001
                        M04/M04 Q1000=
201901240430 METAR LRBM 240430Z AUTO VRB01KT 0750 R09/0600V1000N NCD M03/M04
                        Q1000=
201901240500 METAR LRBM 240500Z AUTO 08002KT 0600 R09/0700N VV001 M03/M04
                        Q1000=
201901240530 METAR LRBM 240530Z AUTO VRB01KT 0650 R09/0750N VV001 M03/M03
                        Q1000=
201901240600 METAR LRBM 240600Z AUTO 25002KT 0900 R09/1100N BKN003///
                        BKN005/// M03/M03 Q1000=
201901240630 METAR LRBM 240630Z AUTO 02002KT 2200 FEW004/// SCT120///
                        BKN240/// M03/M03 Q1000=
201901240700 METAR LRBM 240700Z AUTO 07002KT 030V100 2400 FEW027/// SCT180///
                        BKN240/// M02/M02 Q1000=
201901240730 METAR LRBM 240730Z AUTO VRB01KT 3300 FEW010/// SCT060///
                        BKN240/// M01/M02 Q1000=
201901240800 METAR LRBM 240800Z AUTO 19001KT 2900 FEW001/// SCT011///
                        BKN018/// M01/M02 Q1000=
201901240830 METAR LRBM 240830Z AUTO 25002KT 2600 FEW008/// SCT012///
                        BKN021/// M01/M02 Q1000=
201901240900 METAR LRBM 240900Z AUTO 26002KT 2800 -RA BKN001/// BKN015///
                        M01/M02 Q1000=
201901240930 METAR LRBM 240930Z AUTO 21002KT 2300 -RA FEW002/// SCT014///
                        BKN160/// M01/M01 Q1000=
201901241000 METAR COR LRBM 241000Z 25001KT 2000 -FZRA BR BKN003 M01/M01
                        Q1000 R09/29//95=
201901241030 METAR LRBM 241030Z 26003KT 3000 -FZRA BR SCT008 BKN017 M01/M01
                        Q1000 R09/29//95=
201901241100 METAR LRBM 241100Z 23003KT 2000 -FZRA BR FEW006 SCT017 BKN045
                        M01/M01 Q1000 R09/29//95=
201901241130 METAR LRBM 241130Z 00000KT 2000 -FZRA BR FEW009 BKN011 BKN027
                        M00/M01 Q1001 R09/29//95=
201901241200 METAR LRBM 241200Z VRB01KT 2000 -FZRA BR FEW007 BKN011 BKN033
                        M00/M00 Q1000 R09/29//95=
201901241230 METAR LRBM 241230Z 16002KT 2000 -FZRA BR SCT009 BKN012 BKN038
                        M00/M00 Q1000 R09/29//95=
201901241300 METAR LRBM 241300Z 00000KT 2000 -FZRA BR BKN010 BKN030 M00/M00
                        Q1000 R09/29//95=
201901241330 METAR LRBM 241330Z 27002KT 1500 -FZRA BR SCT013 BKN025 M00/M00
                        Q1000 R09/29//95=
201901241400 METAR LRBM 241400Z 30002KT 1400 R09/1700N -FZRA BR FEW007
                        SCT013 BKN025 M00/M00 Q1001 R09/29//95=
201901241430 METAR LRBM 241430Z VRB01KT 1500 -FZRA BR FEW009 SCT012 BKN015
                        00/M00 Q1001 R09/29//95=
201901241500 METAR LRBM 241500Z 00000KT 1400 R09/1900N -FZRA BR FEW007
                        BKN012 BKN050 00/M00 Q1001 R09/29//95=
201901241530 METAR LRBM 241530Z 27002KT 1100 R09/1700N -FZRA BR FEW007
                        BKN013 OVC034 00/00 Q1001 R09/29//95=
201901241600 METAR LRBM 241600Z 10003KT 1200 R09/2000U -FZRA BR FEW007
                        BKN013 OVC033 00/00 Q1001 R09/29//95=
201901241630 METAR LRBM 241630Z VRB01KT 2000 -RA BR FEW008 SCT014 OVC031
                        01/01 Q1001 R09/29//95=
201901241700 METAR LRBM 241700Z 24003KT 1200 R09/2000U -RA BR FEW001 SCT025
                        OVC033 00/00 Q1001 R09/29//95=
201901241730 METAR LRBM 241730Z 27003KT 1100 R09/1700D -RA BR VV012 00/00
                        Q1002 R09/29//95=
201901241800 METAR LRBM 241800Z 00000KT 1100 R09/1800U -RA BR FEW004 BKN011
                        OVC035 00/00 Q1002 R09/29//95=
201901241830 METAR LRBM 241830Z 01002KT 1200 R09/1100V1800D -RA BR FEW008
                        SCT013 OVC030 00/00 Q1003 R09/29//95=
201901241900 METAR LRBM 241900Z 16002KT 1100 R09/1200VP2000D -RA BR SCT008
                        OVC030 00/00 Q1003 R09/29//95=
201901241930 METAR LRBM 241930Z 00000KT 0800 R09/0750V1500D -RA FG SCT002
                        BKN010 OVC025 00/00 Q1003 R09/29//95=
201901242000 METAR LRBM 242000Z 00000KT 0800 R09/1300U -RA FG FEW002 BKN008
                        OVC020 00/00 Q1004 R09/29//95=
201901242030 METAR LRBM 242030Z 00000KT 0800 R09/1100V1500D RA FG SCT008
                        BKN010 OVC020 00/00 Q1004 R09/29//95=
201901242100 METAR LRBM 242100Z VRB01KT 1200 R09/1200V1600D RA BR FEW006
                        BKN011 OVC023 00/00 Q1004 R09/29//95=
201901242130 METAR LRBM 242130Z 26002KT 0700 R09/1200D -RA FG FEW007 BKN011
                        OVC023 00/00 Q1004 R09/29//95=
201901242200 METAR LRBM 242200Z 23003KT 170V280 0900 R09/1000D RA FG SCT009
                        BKN012 OVC023 00/00 Q1004 R09/29//95=
201901242230 METAR LRBM 242230Z AUTO 28002KT 1000 R09/1200U FEW004///
                        BKN009/// BKN023/// 00/00 Q1005=
201901242300 METAR LRBM 242300Z AUTO 27003KT 0900 R09/1000D RA FEW003///
                        BKN006/// BKN015/// 00/00 Q1005=
201901242330 METAR LRBM 242330Z AUTO 25003KT 0800 R09/0700V1300D FEW003///
                        SCT006/// BKN009/// 00/00 Q1005=
201901250000 METAR LRBM 250000Z AUTO 29003KT 260V320 1100 R09/1200N BKN002///
                        BKN005/// 01/01 Q1005=
201901250030 METAR LRBM 250030Z AUTO 28005KT 0900 R09/1100U VV002 00/00
                        Q1005=
201901250100 METAR LRBM 250100Z AUTO 29004KT 260V320 1700 R09/1900U VV002
                        00/00 Q1005=
201901250130 METAR LRBM 250130Z AUTO 27005KT 1600 R09/1700U SCT001///
                        BKN011/// 00/00 Q1006=
201901250200 METAR LRBM 250200Z AUTO 28006KT 2500 BKN010/// 00/00 Q1006=
201901250230 METAR LRBM 250230Z AUTO 28006KT 4800 BKN011/// 00/00 Q1006=
201901250300 METAR LRBM 250300Z 28006KT 3000 -RASN BR BKN012 00/00 Q1006
                        R09/29//95=
201901250330 METAR LRBM 250330Z 27006KT 2800 -SN BR FEW007 BKN013 00/00
                        Q1006 R09/29//95=
201901250400 METAR LRBM 250400Z 28007KT 2500 -SN BR FEW006 SCT008 BKN015
                        00/00 Q1006 R09/29//95=
201901250430 METAR LRBM 250430Z 29004KT 260V320 3300 -SN BR SCT001 BKN017
                        BKN031 00/00 Q1006 R09/29//95=
201901250500 METAR LRBM 250500Z 29003KT 2500 -SN BR FEW001 SCT009 BKN017
                        00/00 Q1007 R09/29//95=
201901250530 METAR LRBM 250530Z 28005KT 2500 -SN BR FEW001 SCT007 BKN015
                        00/00 Q1008 R09/590294=
201901250600 METAR LRBM 250600Z 28005KT 2500 -SN BR FEW005 SCT009 BKN018
                        00/00 Q1008 R09/590294=
201901250630 METAR LRBM 250630Z 29005KT 270V330 2500 -SN BR FEW004 BKN009
                        00/00 Q1008 R09/590294=
201901250700 METAR LRBM 250700Z 31003KT 260V350 2500 -SN BR FEW004 BKN011
                        BKN022 00/00 Q1008 R09/590294=
201901250730 METAR LRBM 250730Z 28003KT 250V310 3000 -SN BR SCT009 BKN011
                        BKN023 00/00 Q1008 R09/590294=
201901250800 METAR LRBM 250800Z 29004KT 3200 -SN BR FEW002 BKN009 BKN012
                        00/00 Q1008 R09/590294=
201901250830 METAR LRBM 250830Z 26004KT 2500 -SN BR FEW002 BKN007 OVC011
                        00/00 Q1008 R09/590294=
201901250900 METAR LRBM 250900Z 30004KT 280V340 3500 BR BKN007 BKN015
                        00/00 Q1009 R09/29//95=
201901250930 METAR LRBM 250930Z 27005KT 4000 BR FEW008 BKN015 00/00 Q1009
                        R09/29//95=
201901251000 METAR LRBM 251000Z 28005KT 4000 BR SCT012 BKN016 00/00 Q1009
                        R09/29//95=
201901251030 METAR LRBM 251030Z 30003KT 260V350 5000 BR SCT011 BKN016
                        01/00 Q1008 R09/29//95=
201901251100 METAR LRBM 251100Z 26004KT 6000 FEW006 SCT022 BKN038 00/M00
                        Q1009 R09/29//95=
201901251130 METAR LRBM 251130Z 26004KT 6000 SCT005 BKN007 BKN021 00/M00
                        Q1008 R09/29//95=
201901251200 METAR LRBM 251200Z 28005KT 250V310 6000 BKN006 01/M01 Q1009
                        R09/29//95=
201901251230 METAR LRBM 251230Z 29006KT 5000 BR FEW005 BKN007 01/M00 Q1008
                        R09/29//95=
201901251300 METAR LRBM 251300Z 28005KT 4300 BR SCT007 BKN035 01/M00 Q1008
                        R09/29//95=
201901251330 METAR LRBM 251330Z 27006KT 4100 BR SCT004 BKN009 BKN035 00/M00
                        Q1008 R09/29//95=
201901251400 METAR LRBM 251400Z 27006KT 4200 BR SCT004 BKN010 01/M00 Q1008
                        R09/29//95=
201901251430 METAR LRBM 251430Z 28004KT 3900 BR BKN004 00/M00 Q1008 R09/29//95=
201901251500 METAR LRBM 251500Z 29003KT 3400 BR BKN004 00/M00 Q1008 R09/29//95=
201901251530 METAR LRBM 251530Z AUTO 23003KT 4800 BR BKN004/// 00/M00
                        Q1008=
201901251600 METAR LRBM 251600Z AUTO 33002KT 300V360 4900 BKN004/// OVC006///
                        00/M00 Q1008=
201901251630 METAR LRBM 251630Z AUTO VRB01KT 3900 BR BKN003/// BKN005///
                        00/M00 Q1008=
201901251700 METAR LRBM 251700Z AUTO 13001KT 3400 BKN002/// 00/M00 Q1008=
201901251730 METAR LRBM 251730Z AUTO 27003KT 3500 BR BKN002/// 00/M00
                        Q1008=
201901251800 METAR LRBM 251800Z AUTO 28005KT 3100 BKN002/// BKN004///
                        M00/M01 Q1008=
201901251830 METAR LRBM 251830Z AUTO 28006KT 1500 R09/1600D VV002 M00/M01
                        Q1008=
201901251900 METAR LRBM 251900Z AUTO 28005KT 1100 R09/1200D FZFG VV002
                        M00/M01 Q1008=
201901251930 METAR LRBM 251930Z AUTO 28006KT 0800 R09/1000N VV002 M01/M01
                        Q1008=
201901252000 METAR LRBM 252000Z AUTO 28006KT 1100 R09/1200U VV002 M01/M01
                        Q1008=
201901252030 METAR LRBM 252030Z AUTO 28006KT 0800 R09/1000D UP VV002 M01/M01
                        Q1008=
201901252100 METAR LRBM 252100Z AUTO 28006KT 1400 R09/1100V2000U BKN001///
                        M01/M01 Q1008=
201901252130 METAR LRBM 252130Z AUTO 28007KT 2300 BKN001/// BKN003///
                        M01/M01 Q1007=
201901252200 METAR LRBM 252200Z AUTO 27008KT 2700 -FZDZ OVC002/// M01/M01
                        Q1007=
201901252230 METAR LRBM 252230Z AUTO 28008KT 3300 BKN002/// M02/M02 Q1007
                        REFZRA=
201901252300 METAR LRBM 252300Z AUTO 27006KT 3400 BKN002/// M02/M02 Q1007
                        REFZRA=
201901252330 METAR LRBM 252330Z AUTO 27006KT 3700 BKN003/// M02/M02 Q1007=
201901260000 METAR LRBM 260000Z AUTO 27006KT 4300 BKN003/// M02/M02 Q1007=
201901260030 METAR LRBM 260030Z AUTO 27008KT 4400 BKN003/// BKN005///
                        M02/M03 Q1007=
201901260100 METAR LRBM 260100Z AUTO 28007KT 4800 BKN004/// M02/M03 Q1007=
201901260130 METAR LRBM 260130Z AUTO 28006KT 4900 -FZRA BKN004/// M02/M03
                        Q1007=
201901260200 METAR LRBM 260200Z AUTO 28006KT 5000 -FZRA BKN004/// BKN006///
                        M02/M03 Q1006=
201901260230 METAR LRBM 260230Z AUTO 28006KT 5000 -FZRA BKN005/// M02/M03
                        Q1006=
201901260300 METAR LRBM 260300Z AUTO 28005KT 5000 -FZDZ SCT005/// BKN007///
                        M02/M03 Q1006=
201901260330 METAR LRBM 260330Z AUTO 27006KT 5000 -FZDZ SCT004/// BKN006///
                        M02/M03 Q1006=
201901260400 METAR LRBM 260400Z AUTO 28006KT 6000 -FZDZ BKN006/// M02/M03
                        Q1006=
201901260430 METAR LRBM 260430Z AUTO 28006KT 5000 BKN005/// M02/M03 Q1006=
201901260500 METAR LRBM 260500Z AUTO 28006KT 5000 BKN005/// M02/M03 Q1006=
201901260530 METAR LRBM 260530Z AUTO 27006KT 5000 BKN005/// M02/M03 Q1006=
201901260600 METAR LRBM 260600Z AUTO 27007KT 6000 BKN006/// BKN008///
                        M02/M04 Q1006=
201901260630 METAR LRBM 260630Z AUTO 28006KT 4700 -SN OVC007/// M03/M04
                        Q1007=
201901260700 METAR LRBM 260700Z AUTO 28006KT 260V320 3600 BKN007/// BKN009///
                        M03/M04 Q1007=
201901260730 METAR LRBM 260730Z AUTO 28007KT 2200 VV009 M03/M04 Q1007=
201901260800 METAR LRBM 260800Z AUTO 28005KT 2500 -SN SCT003/// BKN010///
                        M03/M04 Q1006=
201901260830 METAR LRBM 260830Z AUTO 27006KT 2500 -SN SCT008/// BKN011///
                        BKN019/// M03/M04 Q1007=
201901260900 METAR LRBM 260900Z AUTO 27004KT 3700 -SN FEW003/// SCT011///
                        BKN024/// M03/M04 Q1007=
201901260930 METAR LRBM 260930Z AUTO 27006KT 4000 FEW004/// BKN011///
                        BKN034/// M03/M04 Q1007=
201901261000 METAR LRBM 261000Z AUTO 27007KT 5000 -SHSN FEW004/// SCT012///
                        BKN018/// M03/M04 Q1007=
201901261030 METAR LRBM 261030Z AUTO 27007KT 3500 -SHSN FEW004/// BKN012///
                        BKN046/// M03/M04 Q1006=
201901261100 METAR LRBM 261100Z AUTO 27007KT 2000 R09/2000U -SN NCD M03/M04
                        Q1006=
201901261130 METAR LRBM 261130Z AUTO 27008KT 1600 R09/1200V2000D -SN VV008
                        M03/M04 Q1006=
201901261200 METAR LRBM 261200Z AUTO 28008KT 1400 R09/1400U -SN VV007
                        M03/M04 Q1006=
201901261230 METAR LRBM 261230Z AUTO 28006KT 1400 R09/1400N -SN VV007
                        M03/M04 Q1006=
201901261300 METAR LRBM 261300Z AUTO 27006KT 1200 R09/1100V1900U -SN NCD
                        M03/M04 Q1007=
201901261330 METAR LRBM 261330Z AUTO 28005KT 2500 R09/1800VP2000U -SN
                        FEW007/// SCT009/// BKN012/// M03/M04
                        Q1007=
201901261400 METAR LRBM 261400Z AUTO 27005KT 7000 SCT018/// M03/M04 Q1007=
201901261430 METAR LRBM 261430Z AUTO 28005KT 7000 FEW015/// SCT018///
                        M03/M04 Q1007=
201901261500 METAR LRBM 261500Z AUTO 27005KT 6000 BKN013/// M03/M04 Q1007=
201901261530 METAR LRBM 261530Z AUTO 29006KT 7000 BKN013/// BKN038///
                        M03/M05 Q1007=
201901261600 METAR LRBM 261600Z AUTO 29006KT 9000 BKN013/// BKN050///
                        M03/M05 Q1007=
201901261630 METAR LRBM 261630Z AUTO 30005KT 270V330 9999 FEW014/// SCT036///
                        BKN200/// M03/M05 Q1007=
201901261700 METAR LRBM 261700Z AUTO 28003KT 250V310 8000 SCT036/// BKN150///
                        M03/M05 Q1008=
201901261730 METAR LRBM 261730Z AUTO 28004KT 9000 SCT037/// BKN048///
                        M03/M06 Q1008=
201901261800 METAR LRBM 261800Z AUTO 32003KT 9999 SCT036/// BKN160///
                        M03/M05 Q1008=
201901261830 METAR LRBM 261830Z AUTO 32003KT 9999 SCT032/// BKN090///
                        M03/M06 Q1008=
201901261900 METAR LRBM 261900Z AUTO 33002KT 9999 FEW022/// BKN034///
                        M03/M06 Q1008=
201901261930 METAR LRBM 261930Z AUTO 04002KT 9000 SCT032/// BKN047///
                        M03/M05 Q1008=
201901262000 METAR LRBM 262000Z AUTO 02002KT 350V060 8000 BKN029/// BKN240///
                        M03/M05 Q1008=
201901262030 METAR LRBM 262030Z AUTO VRB01KT 9000 SCT025/// BKN031///
                        M03/M05 Q1008=
201901262100 METAR LRBM 262100Z AUTO VRB01KT 8000 BKN022/// M03/M05 Q1008=
201901262130 METAR LRBM 262130Z AUTO 14002KT 7000 SCT021/// M03/M05 Q1008=
201901262200 METAR LRBM 262200Z AUTO 07002KT 050V110 7000 SCT020/// M03/M05
                        Q1009=
201901262230 METAR LRBM 262230Z AUTO 09002KT 060V120 7000 SCT019/// M03/M05
                        Q1008=
201901262300 METAR LRBM 262300Z AUTO 05001KT 6000 SCT019/// BKN048///
                        M03/M05 Q1008=
201901262330 METAR LRBM 262330Z AUTO 05002KT 6000 SCT018/// BKN070///
                        M03/M05 Q1009=
201901270000 METAR LRBM 270000Z AUTO 11002KT 6000 FEW018/// SCT055///
                        M03/M05 Q1009=
201901270030 METAR LRBM 270030Z AUTO 08003KT 6000 FEW017/// SCT038///
                        M03/M05 Q1009=
201901270100 METAR LRBM 270100Z AUTO 08003KT 5000 UP FEW017/// SCT040///
                        M03/M05 Q1009=
201901270130 METAR LRBM 270130Z AUTO 05001KT 5000 BR FEW017/// SCT060///
                        M03/M04 Q1009=
201901270200 METAR LRBM 270200Z AUTO 11002KT 5000 BR SCT017/// M03/M04
                        Q1009=
201901270230 METAR LRBM 270230Z AUTO 09003KT 5000 BR FEW018/// M03/M05
                        Q1009=
201901270300 METAR LRBM 270300Z AUTO 07003KT 5000 FEW018/// M03/M05 Q1009=
201901270330 METAR LRBM 270330Z AUTO 08004KT 5000 FEW018/// M03/M04 Q1008=
201901270400 METAR LRBM 270400Z AUTO 07004KT 6000 FEW017/// SCT036///
                        M03/M05 Q1008=
201901270430 METAR LRBM 270430Z AUTO 06003KT 6000 SCT016/// M02/M04 Q1008=
201901270500 METAR LRBM 270500Z AUTO 07004KT 6000 SCT014/// M02/M05 Q1008=
201901270530 METAR LRBM 270530Z AUTO 08006KT 7000 BKN013/// M02/M04 Q1008=
201901270600 METAR LRBM 270600Z AUTO 09007KT 7000 BKN014/// M02/M04 Q1008=
201901270630 METAR LRBM 270630Z AUTO 11005KT 6000 SCT014/// M02/M04 Q1008=
201901270700 METAR LRBM 270700Z AUTO 11005KT 5000 BR BKN010/// BKN016///
                        M02/M04 Q1008=
201901270730 METAR LRBM 270730Z AUTO 10006KT 4200 BR FEW009/// BKN011///
                        BKN040/// M02/M04 Q1008=
201901270800 METAR LRBM 270800Z AUTO 08006KT 5000 BR FEW004/// SCT022///
                        M02/M04 Q1008=
201901270830 METAR LRBM 270830Z AUTO 08006KT 6000 FEW017/// SCT020///
                        M02/M04 Q1008=
201901270900 METAR LRBM 270900Z AUTO 08007KT 8000 SCT016/// M01/M04 Q1008=
201901270930 METAR LRBM 270930Z AUTO 08008KT 9000 SCT017/// M01/M04 Q1008=
201901271000 METAR LRBM 271000Z AUTO 08006KT 5000 BR FEW007/// BKN018///
                        BKN075/// M01/M03 Q1008=
201901271030 METAR LRBM 271030Z AUTO 08005KT 4600 BR FEW008/// BKN018///
                        BKN027/// M01/M03 Q1008=
201901271100 METAR LRBM 271100Z AUTO 09007KT 2700 -SN VV008 M01/M02 Q1007=
201901271130 METAR LRBM 271130Z AUTO 09006KT 3700 -SN FEW007/// SCT012///
                        BKN032/// M01/M02 Q1007=
201901271200 METAR LRBM 271200Z AUTO 08006KT 7000 FEW008/// SCT032///
                        BKN240/// M01/M02 Q1007=
201901271230 METAR LRBM 271230Z AUTO 08004KT 7000 FEW009/// SCT031///
                        BKN240/// M00/M02 Q1007=
201901271300 METAR LRBM 271300Z AUTO 08004KT 9999 BKN029/// M00/M02 Q1006
                        REUP=
201901271330 METAR LRBM 271330Z AUTO 08004KT 9999 BKN028/// BKN055///
                        00/M03 Q1006=
201901271400 METAR LRBM 271400Z AUTO 08004KT 9999 BKN028/// BKN140///
                        00/M02 Q1006=
201901271430 METAR LRBM 271430Z AUTO 09004KT 9999 BKN029/// BKN200///
                        M00/M02 Q1006=
201901271500 METAR LRBM 271500Z AUTO 10003KT 9999 FEW030/// BKN037///
                        00/M02 Q1006=
201901271530 METAR LRBM 271530Z AUTO 09002KT 9999 SCT036/// BKN042///
                        00/M02 Q1006=
201901271600 METAR LRBM 271600Z AUTO 10003KT 9999 BKN036/// BKN240///
                        00/M03 Q1006=
201901271630 METAR LRBM 271630Z AUTO 09004KT 9999 SCT036/// BKN044///
                        M00/M03 Q1006=
201901271700 METAR LRBM 271700Z AUTO 06004KT 9000 FEW028/// SCT039///
                        BKN220/// M01/M03 Q1006=
201901271730 METAR LRBM 271730Z AUTO 08002KT 8000 FEW016/// SCT230///
                        M01/M03 Q1006=
201901271800 METAR LRBM 271800Z 07004KT 9999 FEW017 M02/M03 Q1005 R09/790292=
201901271830 METAR LRBM 271830Z 06005KT CAVOK M02/M03 Q1005 R09/790292=
201901271900 METAR LRBM 271900Z 06006KT CAVOK M01/M03 Q1005 R09/790292=
201901271930 METAR LRBM 271930Z 06006KT 9999 FEW019 M01/M03 Q1005 R09/790292=
201901272000 METAR LRBM 272000Z 07006KT CAVOK M01/M04 Q1004 R09/790292=
201901272030 METAR LRBM 272030Z 07006KT CAVOK M01/M04 Q1004 R09/790292=
201901272100 METAR LRBM 272100Z 07005KT CAVOK M01/M04 Q1004 R09/790292=
201901272130 METAR LRBM 272130Z 08007KT CAVOK M01/M04 Q1004 R09/790292=
201901272200 METAR LRBM 272200Z 07007KT CAVOK M01/M04 Q1004 R09/790292=
201901272230 METAR LRBM 272230Z AUTO 07005KT 9999 FEW080/// SCT190///
                        M00/M03 Q1004=
201901272300 METAR LRBM 272300Z AUTO 07006KT 9999 FEW080/// SCT190///
                        M00/M03 Q1003=
201901272330 METAR LRBM 272330Z AUTO 07006KT 9999 FEW095/// SCT230///
                        00/M03 Q1003=
201901280000 METAR LRBM 280000Z AUTO 07006KT 9999 FEW085/// SCT230///
                        00/M03 Q1003=
201901280030 METAR LRBM 280030Z AUTO 07005KT 9999 FEW085/// SCT180///
                        01/M02 Q1003=
201901280100 METAR LRBM 280100Z AUTO 07004KT 9999 FEW100/// SCT240///
                        01/M02 Q1003=
201901280130 METAR LRBM 280130Z AUTO 06004KT 9999 FEW085/// SCT210///
                        01/M02 Q1002=
201901280200 METAR LRBM 280200Z AUTO 06006KT 9999 FEW090/// SCT220///
                        01/M02 Q1002=
201901280230 METAR LRBM 280230Z AUTO 07004KT 9999 FEW100/// SCT240///
                        01/M02 Q1002=
201901280300 METAR LRBM 280300Z 08005KT CAVOK M00/M03 Q1002 R09/790292=
201901280330 METAR LRBM 280330Z 09004KT 040V110 CAVOK M01/M03 Q1002 R09/32//94=
201901280400 METAR LRBM 280400Z VRB01KT CAVOK M01/M03 Q1002 R09/32//94=
201901280430 METAR LRBM 280430Z VRB02KT CAVOK M01/M02 Q1001 R09/32//94=
201901280500 METAR LRBM 280500Z VRB01KT CAVOK M01/M03 Q1001 R09/32//94=
201901280530 METAR LRBM 280530Z 07006KT CAVOK M01/M03 Q1001 R09/32//94=
201901280600 METAR LRBM 280600Z 08003KT CAVOK M01/M03 Q1001 R09/32//94=
201901280630 METAR LRBM 280630Z VRB01KT CAVOK M01/M02 Q1001 R09/32//94=
201901280700 METAR LRBM 280700Z VRB01KT CAVOK 00/M02 Q1000 R09/32//94=
201901280730 METAR LRBM 280730Z 00000KT CAVOK 00/M03 Q1000 R09/32//94=
201901280800 METAR LRBM 280800Z 10003KT 050V150 CAVOK 01/M02 Q1000 R09/32//94=
201901280830 METAR LRBM 280830Z 13006KT CAVOK 01/M02 Q1000 R09/32//94=
201901280900 METAR LRBM 280900Z VRB01KT CAVOK M00/M03 Q1000 R09/32//94=
201901280930 METAR LRBM 280930Z 05003KT CAVOK 02/M02 Q1000 R09/32//94=
201901281000 METAR LRBM 281000Z 18002KT CAVOK 00/M03 Q1000 R09/910394=
201901281030 METAR LRBM 281030Z 07003KT CAVOK 02/M02 Q0999 R09/910394=
201901281100 METAR LRBM 281100Z 17003KT 090V210 CAVOK 03/M02 Q0999 R09/910394=
201901281130 METAR LRBM 281130Z 07003KT CAVOK 04/M02 Q0999 R09/910394=
201901281200 METAR LRBM 281200Z 09006KT CAVOK 05/M01 Q0999 R09/910394=
201901281230 METAR LRBM 281230Z 10005KT CAVOK 04/M01 Q0999 R09/910394=
201901281300 METAR LRBM 281300Z 07004KT CAVOK 05/M01 Q0998 R09/910394=
201901281330 METAR LRBM 281330Z 07006KT CAVOK 06/M01 Q0998 R09/910394=
201901281400 METAR LRBM 281400Z 07005KT CAVOK 05/M01 Q0998 R09/910394=
201901281430 METAR LRBM 281430Z 09002KT CAVOK 05/M00 Q0998 R09/910394=
201901281500 METAR LRBM 281500Z 11004KT CAVOK 03/M00 Q0998 R09/910394=
201901281530 METAR LRBM 281530Z AUTO 07005KT 9999 FEW016/// SCT200///
                        03/M00 Q0998=
201901281600 METAR LRBM 281600Z AUTO 07002KT 9999 FEW022/// SCT240///
                        02/M01 Q0998=
201901281630 METAR LRBM 281630Z AUTO VRB01KT 9999 FEW018/// SCT200///
                        02/M01 Q0998=
201901281700 METAR LRBM 281700Z AUTO 06004KT 9999 FEW020/// SCT220///
                        04/M01 Q0998=
201901281730 METAR LRBM 281730Z AUTO 06004KT 030V100 9999 FEW023/// SCT230///
                        04/M01 Q0998=
201901281800 METAR LRBM 281800Z AUTO 07005KT 9999 FEW050/// SCT230///
                        04/M01 Q0998=
201901281830 METAR LRBM 281830Z AUTO 18003KT 150V220 9999 FEW026/// SCT190///
                        02/M01 Q0998=
201901281900 METAR LRBM 281900Z AUTO VRB01KT 9999 FEW020/// SCT190///
                        02/M01 Q0999=
201901281930 METAR LRBM 281930Z AUTO 08004KT 9999 FEW018/// SCT180///
                        BKN240/// 02/M01 Q0999=
201901282000 METAR LRBM 282000Z AUTO 06005KT 9999 FEW008/// SCT011///
                        BKN015/// 02/00 Q0999=
201901282030 METAR LRBM 282030Z AUTO 06004KT 8000 SCT010/// BKN016///
                        BKN039/// 02/01 Q1000=
201901282100 METAR LRBM 282100Z AUTO 05004KT 020V080 7000 FEW015/// SCT018///
                        BKN022/// 02/01 Q1000=
201901282130 METAR LRBM 282130Z AUTO 05004KT 9999 FEW010/// SCT021///
                        BKN027/// 03/02 Q1000=
201901282200 METAR LRBM 282200Z AUTO 06006KT 9999 FEW008/// BKN038///
                        BKN220/// 04/02 Q1000=
201901282230 METAR LRBM 282230Z AUTO 05006KT 9999 BKN039/// 04/02 Q1000=
201901282300 METAR LRBM 282300Z AUTO 04007KT 9999 FEW022/// SCT038///
                        BKN065/// 04/01 Q1000=
201901282330 METAR LRBM 282330Z AUTO VRB01KT 9999 SCT035/// BKN048///
                        03/01 Q1000=
201901290000 METAR LRBM 290000Z AUTO 11007KT 9999 SCT035/// BKN180///
                        03/01 Q1000=
201901290030 METAR LRBM 290030Z AUTO 12002KT 090V150 9999 BKN034/// BKN240///
                        02/01 Q1001=
201901290100 METAR LRBM 290100Z AUTO 04003KT 9999 BKN032/// 03/01 Q1001=
201901290130 METAR LRBM 290130Z AUTO VRB01KT 9999 BKN030/// BKN180///
                        02/01 Q1001=
201901290200 METAR LRBM 290200Z AUTO 21003KT 6000 BKN030/// BKN240///
                        01/00 Q1001=
201901290230 METAR LRBM 290230Z AUTO 30002KT 6000 FEW008/// BKN030///
                        BKN080/// 01/00 Q1001=
201901290300 METAR LRBM 290300Z AUTO 34002KT 4500 FEW005/// SCT018///
                        BKN029/// 02/01 Q1001=
201901290330 METAR LRBM 290330Z AUTO VRB01KT 5000 FEW008/// BKN028///
                        BKN110/// 01/01 Q1002=
201901290400 METAR LRBM 290400Z AUTO 18002KT 100V210 2900 FEW008/// SCT025///
                        BKN029/// 01/00 Q1002=
201901290430 METAR LRBM 290430Z AUTO VRB01KT 3000 VV011 01/00 Q1002=
201901290500 METAR LRBM 290500Z 11002KT 3000 -RA BR FEW007 SCT012 BKN018
                        01/00 Q1003 R09/910394=
201901290530 METAR LRBM 290530Z 00000KT 2500 -RA BR FEW005 SCT010 OVC015
                        01/00 Q1003 R09/910394=
201901290600 METAR LRBM 290600Z 19002KT 1500 -RA BR FEW009 SCT025 OVC036
                        01/00 Q1004 R09/910394=
201901290630 METAR COR LRBM 290630Z 00000KT 1100 R09/1600U BR OVC023 01/01
                        Q1004 R09/29//95=
201901290700 METAR LRBM 290700Z 00000KT 1600 BR FEW003 SCT013 OVC023 01/00
                        Q1005 R09/29//95=
201901290730 METAR LRBM 290730Z 00000KT 2000 BR BKN005 OVC021 01/01 Q1005
                        R09/29//95=
201901290800 METAR LRBM 290800Z 18002KT 1400 R09/0900VP2000U BR SCT007
                        OVC043 01/00 Q1005 R09/29//95=
201901290830 METAR LRBM 290830Z VRB01KT 1400 R09/1400D BR FEW008 SCT016
                        OVC049 01/01 Q1006 R09/29//95=
201901290900 METAR LRBM 290900Z 00000KT 1700 BR SCT015 OVC028 01/01 Q1006
                        R09/29//95=
201901290930 METAR LRBM 290930Z 08002KT 2000 BR SCT013 OVC030 02/01 Q1006
                        R09/29//95=
201901291000 METAR LRBM 291000Z 30004KT 3000 BR OVC015 02/01 Q1006 R09/29//95=
201901291030 METAR LRBM 291030Z 29005KT 5000 BR FEW014 BKN023 02/01 Q1006
                        R09/29//95=
201901291100 METAR LRBM 291100Z 28005KT 9000 SCT021 02/00 Q1006 R09/29//95=
201901291130 METAR LRBM 291130Z 26005KT 9000 SCT020 BKN035 02/M00 Q1007
                        R09/29//95=
201901291200 METAR LRBM 291200Z 29003KT 7000 SCT026 BKN039 02/00 Q1006
                        R09/29//95=
201901291230 METAR LRBM 291230Z VRB01KT 7000 BKN028 02/00 Q1006 R09/29//95=
201901291300 METAR LRBM 291300Z 26004KT 7000 BKN030 02/00 Q1007 R09/29//95=
201901291330 METAR LRBM 291330Z 29004KT 6000 SCT021 BKN049 02/00 Q1007
                        R09/29//95=
201901291400 METAR LRBM 291400Z 32003KT 290V360 7000 SCT023 BKN038 02/00
                        Q1007 R09/29//95=
201901291430 METAR LRBM 291430Z 25003KT 6000 SCT024 01/M00 Q1007 R09/29//95=
201901291500 METAR LRBM 291500Z 28002KT 3000 BR SCT026 BKN039 01/M00 Q1007
                        R09/29//95=
201901291530 METAR LRBM 291530Z 00000KT 3000 BR SCT023 01/00 Q1007 R09/29//95=
201901291600 METAR LRBM 291600Z 29003KT 250V310 4000 BR FEW009 BKN040
                        01/M00 Q1007 R09/29//95=
201901291630 METAR LRBM 291630Z 25002KT 2000 BR FEW022 SCT037 BKN045 01/M00
                        Q1007 R09/29//95=
201901291700 METAR LRBM 291700Z 23002KT 2000 BR BKN036 00/M00 Q1007 R09/29//95=
201901291730 METAR LRBM 291730Z AUTO 27002KT 2400 BR FEW029/// SCT038///
                        BKN070/// 00/M00 Q1007=
201901291800 METAR LRBM 291800Z AUTO VRB01KT 3100 BR SCT038/// BKN050///
                        01/M00 Q1007=
201901291830 METAR LRBM 291830Z AUTO 30001KT 2800 BR FEW019/// BKN041///
                        BKN190/// 01/M00 Q1007=
201901291900 METAR LRBM 291900Z AUTO 00000KT 2900 BR FEW036/// SCT046///
                        BKN120/// 00/M00 Q1007=
201901291930 METAR LRBM 291930Z AUTO 07002KT 2400 BR SCT029/// BKN036///
                        00/M00 Q1007=
201901292000 METAR LRBM 292000Z AUTO 08001KT 2500 BR BKN028/// BKN240///
                        00/M00 Q1007=
201901292030 METAR LRBM 292030Z AUTO 00000KT 2500 BR BKN026/// 01/M00
                        Q1007=
201901292100 METAR LRBM 292100Z AUTO 28001KT 1900 BR BKN027/// BKN240///
                        00/M00 Q1007=
201901292130 METAR LRBM 292130Z AUTO 30001KT 2400 BR FEW005/// BKN028///
                        00/M00 Q1007=
201901292200 METAR LRBM 292200Z AUTO 02002KT 300V060 2200 BR FEW004///
                        BKN029/// BKN150/// 00/M00 Q1006=
201901292230 METAR LRBM 292230Z AUTO 09002KT 2700 BR FEW005/// SCT031///
                        BKN040/// 01/M00 Q1006=
201901292300 METAR LRBM 292300Z AUTO 25003KT 200V260 2200 R09/1900VP2000U
                        BR FEW004/// BKN031/// BKN240///
                        00/M00 Q1006=
201901292330 METAR LRBM 292330Z AUTO VRB01KT 2800 BR BKN004/// BKN035///
                        00/M00 Q1005=
201901300000 METAR LRBM 300000Z AUTO 16002KT 2400 BR FEW003/// SCT085///
                        BKN220/// 00/M00 Q1005=
201901300030 METAR LRBM 300030Z AUTO 00000KT 2600 BR FEW010/// SCT085///
                        BKN240/// 00/M00 Q1005=
201901300100 METAR LRBM 300100Z AUTO 00000KT 2100 FEW003/// SCT170///
                        BKN240/// 00/M00 Q1005=
201901300130 METAR LRBM 300130Z AUTO 09003KT 1800 R09/2000D FEW004///
                        SCT150/// BKN240/// 00/M01 Q1004=
201901300200 METAR LRBM 300200Z AUTO 00000KT 1500 R09/1600U FZFG FEW014///
                        SCT150/// BKN240/// M00/M01 Q1004=
201901300230 METAR LRBM 300230Z AUTO 00000KT 0900 R09/0800V1200D FZFG
                        FEW003/// SCT011/// BKN110/// M00/M01
                        Q1004=
201901300300 METAR LRBM 300300Z AUTO 01001KT 1300 R09/1000V2000D FZFG
                        BKN003/// BKN033/// M00/M01 Q1003=
201901300330 METAR LRBM 300330Z AUTO 18002KT 0400 R09/0450N FZFG BKN002///
                        BKN085/// M01/M01 Q1003=
201901300400 METAR LRBM 300400Z AUTO 25002KT 0300 R09/0375N FZFG VV002
                        M01/M01 Q1003=
201901300430 METAR LRBM 300430Z AUTO 00000KT 0350 R09/0400N FZFG VV001
                        M01/M01 Q1003=
201901300500 METAR LRBM 300500Z 24001KT 0150 R09/0350N FZFG VV001 M01/M01
                        Q1003 R09/29//95=
201901300530 METAR LRBM 300530Z 11001KT 0150 R09/0400N FZFG VV001 M01/M01
                        Q1003 R09/29//95=
201901300600 METAR LRBM 300600Z 09005KT 0150 R09/0350N FZFG VV001 M01/M01
                        Q1003 R09/19//95=
201901300630 METAR LRBM 300630Z 11005KT 0150 R09/0375N FZFG VV001 M00/M01
                        Q1003 R09/19//95=
201901300700 METAR LRBM 300700Z 09004KT 0150 R09/0300N FZFG VV001 M00/M00
                        Q1003 R09/19//95=
201901300730 METAR LRBM 300730Z 13003KT 0150 R09/0450N FG VV001 00/00
                        Q1003 R09/19//95=
201901300800 METAR LRBM 300800Z 09006KT 0400 R09/0800U -RA FG BKN002 00/00
                        Q1002 R09/19//95=
201901300830 METAR LRBM 300830Z 11005KT 1200 R09/1800U -RA BCFG SCT003
                        BKN038 01/01 Q1002 R09/19//95=
201901300900 METAR LRBM 300900Z 08005KT 4000 1200W R09/P2000 -RA BCFG
                        FEW003 BKN038 01/01 Q1002 R09/19//95=
201901300930 METAR LRBM 300930Z 19004KT 160V250 1500 BCFG FEW004 BKN038
                        01/00 Q1002 R09/19//95=
201901301000 METAR LRBM 301000Z 27005KT 1500 BCFG BKN003 BKN036 01/00
                        Q1002 R09/19//95=
201901301030 METAR LRBM 301030Z 26004KT 1800 BR SCT003 BKN036 01/00 Q1002
                        R09/19//95=
201901301100 METAR LRBM 301100Z 30004KT 2000 BR FEW004 BKN033 01/00 Q1002
                        R09/19//95=
201901301130 METAR LRBM 301130Z 26003KT 2000 -RA BR FEW004 BKN033 01/00
                        Q1002 R09/19//95=
201901301200 METAR LRBM 301200Z 23004KT 2000 -RA BR FEW008 BKN038 01/00
                        Q1001 R09/19//95=
201901301230 METAR LRBM 301230Z 25003KT 1500 -RA BR FEW008 BKN028 01/M00
                        Q1001 R09/19//95=
201901301300 METAR LRBM 301300Z 27002KT 1500 -RA BR FEW008 SCT012 BKN028
                        01/00 Q1002 R09/19//95=
201901301330 METAR LRBM 301330Z 00000KT 1200 R09/1500U -RA BR FEW007 SCT012
                        BKN028 01/00 Q1001 R09/19//95=
201901301400 METAR LRBM 301400Z 10002KT 1000 R09/1300D -RA BR SCT003 BKN023
                        01/00 Q1002 R09/19//95=
201901301430 METAR LRBM 301430Z 06002KT 0900 R09/1200N -RA FG SCT002 BKN014
                        01/01 Q1001 R09/19//95=
201901301500 METAR LRBM 301500Z 00000KT 0800 R09/1200D -RA FG SCT002 BKN014
                        01/00 Q1002 R09/19//95=
201901301530 METAR LRBM 301530Z 29002KT 0500 R09/1300N -RA FG FEW002 SCT004
                        BKN012 01/00 Q1002 R09/29//95=
201901301600 METAR LRBM 301600Z VRB02KT 0900 R09/2000N -RA FG FEW002 SCT005
                        BKN014 01/00 Q1002 R09/29//95=
201901301630 METAR LRBM 301630Z VRB02KT 1000 R09/P2000 -RA BR FEW003 OVC007
                        01/00 Q1002 R09/29//95=
201901301700 METAR LRBM 301700Z 26003KT 0800 R09/1400D -RA FG OVC007 01/M00
                        Q1002 R09/29//95=
201901301730 METAR LRBM 301730Z AUTO 31002KT 270V350 1500 R09/1700U -RA
                        BKN007/// 01/00 Q1002=
201901301800 METAR LRBM 301800Z AUTO 25003KT 1300 R09/1200V1900D -RA FEW001///
                        SCT005/// BKN007/// 00/M00 Q1002=
201901301830 METAR LRBM 301830Z AUTO 27002KT 1600 R09/1800N BKN002///
                        BKN008/// 00/M00 Q1003=
201901301900 METAR LRBM 301900Z AUTO 26002KT 1600 R09/1800D -RA BKN002///
                        BKN140/// 00/M00 Q1003=
201901301930 METAR LRBM 301930Z AUTO 35001KT 1700 R09/1900N FEW003///
                        BKN007/// BKN170/// 00/M00 Q1003=
201901302000 METAR LRBM 302000Z AUTO 04001KT 1400 R09/1500N FEW002///
                        BKN007/// BKN039/// 00/M00 Q1003=
201901302030 METAR LRBM 302030Z AUTO 00000KT 1200 R09/1300N -RA BKN006///
                        BKN070/// 00/M00 Q1003=
201901302100 METAR LRBM 302100Z AUTO 23001KT 0900 R09/1100U -DZ FEW002///
                        BKN007/// 00/M00 Q1003=
201901302130 METAR LRBM 302130Z AUTO VRB01KT 1100 R09/1000V1500N BKN006///
                        BKN037/// 00/M00 Q1003=
201901302200 METAR LRBM 302200Z AUTO 17002KT 1000 R09/1200U SCT002///
                        BKN005/// BKN021/// 00/M00 Q1003=
201901302230 METAR LRBM 302230Z AUTO VRB01KT 0900 R09/0800V1200U -SHRA
                        SCT001/// BKN004/// 00/M00 Q1003=
201901302300 METAR LRBM 302300Z AUTO 24003KT 0800 R09/0900U SCT001///
                        BKN003/// BKN024/// 00/M00 Q1003=
201901302330 METAR LRBM 302330Z AUTO VRB01KT 2200 FEW002/// BKN005///
                        BKN007/// ///// Q1003=
201901310000 METAR LRBM 310000Z AUTO 31002KT 280V340 2900 SCT006/// BKN008///
                        01/00 Q1003=
201901310030 METAR LRBM 310030Z AUTO 30002KT 260V330 2800 SCT004/// BKN006///
                        00/M00 Q1003=
201901310100 METAR LRBM 310100Z AUTO VRB01KT 2800 BKN004/// 00/M00 Q1003=
201901310130 METAR LRBM 310130Z AUTO 28004KT 2700 BKN003/// BKN005///
                        00/M00 Q1003=
201901310200 METAR LRBM 310200Z AUTO 28003KT 2500 BKN003/// BKN005///
                        00/M00 Q1003=
201901310230 METAR LRBM 310230Z AUTO 29002KT 260V320 2000 BKN002/// 00/M00
                        Q1002=
201901310300 METAR LRBM 310300Z AUTO 26003KT 1900 BKN001/// BKN003///
                        00/M00 Q1002=
201901310330 METAR LRBM 310330Z AUTO 29002KT 260V350 1200 R09/1400D VV002
                        00/M00 Q1002=
201901310400 METAR LRBM 310400Z AUTO 25003KT 0750 R09/0750V1100D VV002
                        00/M00 Q1002=
201901310430 METAR LRBM 310430Z AUTO 27003KT 0550 R09/0650N -RA BKN002///
                        BKN004/// 00/M00 Q1002=
201901310500 METAR LRBM 310500Z AUTO 28003KT 0800 R09/0800V1200U RA VV001
                        00/M00 Q1002=
201901310530 METAR LRBM 310530Z AUTO 28004KT 1500 R09/1700N -SN VV001
                        00/M00 Q1002=
201901310600 METAR LRBM 310600Z AUTO 27005KT 0900 R09/1100N -SN VV002
                        00/M00 Q1002=
201901310630 METAR LRBM 310630Z AUTO 27004KT 0900 R09/1100D -SN VV002
                        M00/M00 Q1002=
201901310700 METAR LRBM 310700Z AUTO 25004KT 0600 R09/0800V1100N -SN VV002
                        00/M00 Q1002=
201901310730 METAR LRBM 310730Z AUTO 26002KT 0550 R09/0700N -SN BKN002///
                        00/M00 Q1003=
201901310800 METAR LRBM 310800Z 24003KT 0200 R09/0650N SN FG OVC002 00/M00
                        Q1003 R09/593093=
201901310830 METAR LRBM 310830Z VRB02KT 0300 R09/0700N SN FG OVC002 00/00
                        Q1003 R09/593093=
201901310900 METAR LRBM 310900Z VRB01KT 0500 R09/0700N -SN FG BKN002 BKN006
                        00/00 Q1003 RESN R09/593093=
201901310930 METAR LRBM 310930Z VRB01KT 0500 R09/0700N -SN FG SCT001 OVC003
                        01/01 Q1003 R09/599992=
201901311000 METAR LRBM 311000Z 00000KT 1000 R09/1200N BR BKN004 01/01
                        Q1003 R09/599992=
201901311030 METAR COR LRBM 311030Z 17002KT 1500 BR BKN007 01/00 Q1003
                        R09/599992=
201901311100 METAR LRBM 311100Z 19001KT 2200 BR BKN008 01/01 Q1003 R09/599992=
201901311130 METAR LRBM 311130Z 23002KT 3000 BR BKN010 01/00 Q1003 R09/597092=
201901311200 METAR LRBM 311200Z 24003KT 3000 BR BKN010 01/00 Q1003 R09/597092=
201901311230 METAR LRBM 311230Z 00000KT 4000 BR BKN012 01/00 Q1003 R09/597092=
201901311300 METAR LRBM 311300Z 00000KT 4000 BR BKN013 01/00 Q1003 R09/597092=
201901311330 METAR LRBM 311330Z 10002KT 4300 BR SCT006 BKN011 01/00 Q1003
                        R09/597092=
201901311400 METAR LRBM 311400Z 18003KT 4500 BR BKN013 SCT035 01/M00 Q1003
                        R09/22//94=
201901311430 METAR LRBM 311430Z 23001KT 5000 BR BKN010 BKN035 01/00 Q1004
                        R09/22//94=
201901311500 METAR LRBM 311500Z 00000KT 5000 BR BKN009 BKN032 01/00 Q1004
                        R09/19//95=
201901311530 METAR LRBM 311530Z 00000KT 4500 BR BKN008 OVC028 01/00 Q1004
                        R09/19//95=
201901311600 METAR LRBM 311600Z 03001KT 4000 BR BKN007 OVC030 01/00 Q1004
                        R09/19//95=
201901311630 METAR LRBM 311630Z 09002KT 4000 BR BKN006 OVC026 01/M00 Q1004
                        R09/19//95=
201901311700 METAR LRBM 311700Z 10003KT 3500 BR BKN005 OVC025 01/M00 Q1004
                        R09/19//95=
201901311730 METAR LRBM 311730Z 08002KT 3500 BR BKN006 OVC025 01/00 Q1004
                        R09/19//95=
201901311800 METAR LRBM 311800Z VRB01KT 2400 BR BKN005 OVC024 01/00 Q1005
                        R09/19//95=
201901311830 METAR LRBM 311830Z VRB01KT 2200 BR BKN005 OVC023 01/00 Q1005
                        R09/19//95=
201901311900 METAR LRBM 311900Z 00000KT 2200 BR BKN005 OVC022 01/00 Q1005
                        R09/19//95=
201901311930 METAR LRBM 311930Z 13002KT 2800 BR BKN005 OVC023 01/00 Q1006
                        R09/19//95=
201901312000 METAR LRBM 312000Z 09004KT 060V130 2200 BR BKN004 OVC020
                        01/00 Q1006 R09/19//95=
201901312030 METAR LRBM 312030Z 09003KT 060V120 2600 BR BKN005 OVC022
                        01/00 Q1006 R09/19//95=
201901312100 METAR LRBM 312100Z 15003KT 120V190 1500 BR OVC003 01/00 Q1007
                        R09/19//95=
201901312130 METAR LRBM 312130Z 16003KT 1000 R09/1000 BR OVC003 00/M00
                        Q1007 R09/19//95=
201901312200 METAR LRBM 312200Z 10003KT 1000 R09/1000 BR OVC003 00/M00
                        Q1007 R09/19//95=
201901312230 METAR LRBM 312230Z AUTO 15002KT 1300 R09/1300V1700N VV002
                        00/M00 Q1008=
201901312300 METAR LRBM 312300Z AUTO 10003KT 1500 R09/1200V2000U VV002
                        00/M00 Q1008=
201901312330 METAR LRBM 312330Z AUTO 11002KT 090V150 1400 R09/1500U VV002
                        00/00 Q1008=
