201902010200 TAF LRBM 010200Z 0103/0112 VRB04KT 3000 BR BKN002 OVC005
                      TEMPO 0103/0106 1500 -RASN BR SCT005 BKN030
                       BECMG 0107/0109 5000 SCT005 BKN030
                      BECMG 0109/0111 8000 NSW=
201902010433 TAF AMD LRBM 010433Z 0104/0112 VRB04KT 5000 BR SCT015 BKN030
                      TEMPO 0104/0106 3000 -RA BR
                      BECMG 0107/0109 9999 NSW=
201902010500 TAF LRBM 010500Z 0106/0115 VRB04KT 5000 BR SCT015 BKN035
                      TEMPO 0106/0107 3000 -SNRA -RA BKN010 OVC030
                       BECMG 0108/0110 12010KT 9999 NSW=
201902010800 TAF LRBM 010800Z 0109/0118 12008KT 9999 BKN035
                      TEMPO 0111/0116 5000 -RA BR BKN015 OVC040=
201902011100 TAF LRBM 011100Z 0112/0121 12008KT 9999 BKN035
                      TEMPO 0112/0117 5000 -RA BR BKN015 OVC040=
201902011400 TAF LRBM 011400Z 0115/0124 10008KT 9999 BKN035
                      TEMPO 0115/0117 5000 -RA BR BKN015 OVC040=
201902011700 TAF LRBM 011700Z NIL=
201902012000 TAF LRBM 012000Z NIL=
201902012300 TAF LRBM 012300Z NIL=
201902020200 TAF LRBM 020200Z NIL=
201902020500 TAF LRBM 020500Z NIL=
201902020800 TAF LRBM 020800Z NIL=
201902021100 TAF LRBM 021100Z NIL=
201902021400 TAF LRBM 021400Z NIL=
201902021700 TAF LRBM 021700Z NIL=
201902022000 TAF LRBM 022000Z NIL=
201902022300 TAF LRBM 022300Z NIL=
201902030200 TAF LRBM 030200Z NIL=
201902030500 TAF LRBM 030500Z NIL=
201902030800 TAF LRBM 030800Z NIL=
201902031100 TAF LRBM 031100Z NIL=
201902031400 TAF LRBM 031400Z NIL=
201902031700 TAF LRBM 031700Z 0318/0403 09008KT CAVOK
                      TEMPO 0321/0324 5000 -SHRA SCT030CB BKN040
                       BECMG 0401/0403 3000 BKN010 BKN025=
201902032000 TAF LRBM 032000Z 0321/0406 VRB04KT 9999 SCT035
                      BECMG 0402/0404 3000 BR BKN010 BKN025=
201902032300 TAF LRBM 032300Z NIL=
201902032304 TAF AMD LRBM 032304Z 0323/0406 CNL=
201902040200 TAF LRBM 040200Z 0403/0412 09008KT CAVOK
                      PROB30 TEMPO 0403/0406 3000 BR BKN010
                      BECMG 0406/0408 5000 BR BKN010 BKN025=
201902040500 TAF LRBM 040500Z 0406/0415 VRB04KT CAVOK=
201902040800 TAF LRBM 040800Z 0409/0418 VRB04KT 9999 BKN020=
201902041100 TAF LRBM 041100Z 0412/0421 27012KT 9999 BKN025
                      BECMG 0416/0418 VRB04KT BKN015=
201902041400 TAF LRBM 041400Z 0415/0424 27008KT CAVOK
                      BECMG 0416/0418 BKN015=
201902041540 TAF AMD LRBM 041540Z 0415/0424 CNL=
201902041700 TAF LRBM 041700Z NIL=
201902042000 TAF LRBM 042000Z NIL=
201902042300 TAF LRBM 042300Z NIL=
201902050200 TAF LRBM 050200Z 0503/0512 VRB04KT 7000 BKN010
                      TEMPO 0503/0506 3000 BR BKN005
                      BECMG 0506/0508 5000 -RA BR=
201902050500 TAF LRBM 050500Z 0506/0515 VRB04KT 9999 BKN015
                      TEMPO 0506/0508 5000 BR OVC005
                      TEMPO 0508/0512 3000 RA BKN010 OVC025=
201902050800 TAF LRBM 050800Z 0509/0518 VRB04KT 9999 -RA BKN015 OVC030
                      TEMPO 0509/0512 3000 RA BKN010 OVC025=
201902051100 TAF LRBM 051100Z 0512/0521 VRB04KT 9999 BKN025
                      TEMPO 0512/0516 3000 RA BKN005 OVC020=
201902051400 TAF LRBM 051400Z 0515/0524 VRB04KT 9999 BKN030
                      TEMPO 0515/0519 3000 RA BKN005 OVC020=
201902051700 TAF LRBM 051700Z NIL=
201902052000 TAF LRBM 052000Z NIL=
201902052300 TAF LRBM 052300Z NIL=
201902060200 TAF LRBM 060200Z 0603/0612 VRB04KT 5000 BR BKN010
                      TEMPO 0603/0606 1500 BR BKN005
                      BECMG 0608/0610 9999 NSW BKN015=
201902060500 TAF LRBM 060500Z 0606/0615 VRB04KT 1500 BR OVC002
                      TEMPO 0606/0608 0600 -DZ FG VV001
                      BECMG 0608/0609 3000 NSC
                      BECMG 0609/0611 CAVOK=
201902060800 TAF LRBM 060800Z 0609/0618 25006KT 0600 FG OVC002
                      TEMPO 0609/0610 0300 FG OVC001
                      BECMG 0610/0612 3000 BR BKN010
                      BECMG 0612/0613 7000 NSW SCT020=
201902061100 TAF LRBM 061100Z 0612/0621 25006KT 1500 BR BKN005
                      TEMPO 0612/0614 5000 SCT020
                      BECMG 0615/0617 0800 FG BKN002
                      TEMPO 0617/0621 0350 FG OVC001=
201902061400 TAF LRBM 061400Z 0615/0624 09007KT 7000 SCT020
                      BECMG 0616/0618 3000 BR BKN010
                      BECMG 0618/0620 0800 FG BKN002
                      TEMPO 0620/0624 0350 FG VV001=
201902061700 TAF LRBM 061700Z NIL=
201902062000 TAF LRBM 062000Z NIL=
201902062300 TAF LRBM 062300Z NIL=
201902070200 TAF LRBM 070200Z NIL=
201902070500 TAF LRBM 070500Z NIL=
201902070800 TAF LRBM 070800Z 0709/0718 VRB04KT 9999 SCT035=
201902071100 TAF LRBM 071100Z 0712/0721 VRB04KT 9999 BKN040
                      TEMPO 0718/0721 5000 BR=
201902071400 TAF LRBM 071400Z 0715/0724 VRB04KT CAVOK
                      TEMPO 0718/0721 5000 BR
                      BECMG 0721/0723 3000 BR=
201902071700 TAF LRBM 071700Z 0718/0803 VRB04KT CAVOK
                      BECMG 0719/0721 5000 BR
                      BECMG 0721/0723 3000 BR
                      BECMG 0723/0801 0800 FZFG BKN002
                      TEMPO 0801/0803 0350 FZFG VV001=
201902072000 TAF LRBM 072000Z 0721/0806 VRB03KT CAVOK
                      BECMG 0721/0723 5000 BR
                      BECMG 0723/0801 1500 BR
                      TEMPO 0801/0803 0600 FZFG BKN002
                      PROB30 TEMPO 0803/0806 0350 FZFG VV001=
201902072300 TAF LRBM 072300Z NIL=
201902072303 TAF AMD LRBM 072303Z 0723/0806 CNL=
201902080200 TAF LRBM 080200Z 0803/0812 VRB04KT 9999 BKN035
                      TEMPO 0803/0806 3000 BR BKN010=
201902080500 TAF LRBM 080500Z 0806/0815 VRB04KT 9999 BKN035
                      TEMPO 0806/0808 5000 BR=
201902080800 TAF LRBM 080800Z 0809/0818 VRB04KT 9999 BKN035=
201902081100 TAF LRBM 081100Z 0812/0821 VRB04KT 9999 BKN035=
201902081400 TAF LRBM 081400Z 0815/0824 VRB04KT 9999 BKN040=
201902081533 TAF AMD LRBM 081533Z 0815/0824 CNL=
201902081700 TAF LRBM 081700Z NIL=
201902082000 TAF LRBM 082000Z NIL=
201902082300 TAF LRBM 082300Z NIL=
201902090200 TAF LRBM 090200Z NIL=
201902090500 TAF LRBM 090500Z NIL=
201902090800 TAF LRBM 090800Z NIL=
201902091100 TAF LRBM 091100Z NIL=
201902091400 TAF LRBM 091400Z NIL=
201902091700 TAF LRBM 091700Z NIL=
201902092000 TAF LRBM 092000Z NIL=
201902092300 TAF LRBM 092300Z NIL=
201902100200 TAF LRBM 100200Z NIL=
201902100500 TAF LRBM 100500Z NIL=
201902100800 TAF LRBM 100800Z NIL=
201902101100 TAF LRBM 101100Z NIL=
201902101400 TAF LRBM 101400Z NIL=
201902101700 TAF LRBM 101700Z 1018/1103 10008KT CAVOK=
201902102000 TAF LRBM 102000Z 1021/1106 10008KT CAVOK
                      BECMG 1021/1023 3000 BR BKN010=
201902102300 TAF LRBM 102300Z NIL=
201902102304 TAF AMD LRBM 102304Z 1023/1106 CNL=
201902110200 TAF LRBM 110200Z 1103/1112 08008KT 9999 BKN035
                      BECMG 1104/1106 5000 -RA BR BKN010 OVC025
                       TEMPO 1108/1112 1500 RA BKN005 OVC015=
201902110500 TAF LRBM 110500Z 1106/1115 09006KT 9999 -RA SCT015 BKN035
                      TEMPO 1112/1115 5000 RA BKN015 OVC030=
201902110800 TAF LRBM 110800Z 1109/1118 09006KT 9999 BKN035
                      BECMG 1111/1113 5000 RA
                      TEMPO 1114/1118 3000 RA BKN010 OVC030=
201902111100 TAF LRBM 111100Z 1112/1121 VRB04KT 9999 -RA BKN030
                      TEMPO 1113/1117 5000 RA BKN010 OVC025=
201902111400 TAF LRBM 111400Z 1115/1124 VRB04KT 9999 -RA SCT025 BKN030
                      PROB40 TEMPO 1115/1118 5000 RA BKN010 OVC030
                       BECMG 1120/1122 32010KT=
201902111700 TAF LRBM 111700Z NIL=
201902111705 TAF AMD LRBM 111705Z 1117/1124 CNL=
201902112000 TAF LRBM 112000Z NIL=
201902112300 TAF LRBM 112300Z NIL=
201902120200 TAF LRBM 120200Z 1203/1212 32010KT 9999 BKN035
                      TEMPO 1210/1212 5000 -SNRA=
201902120500 TAF LRBM 120500Z 1206/1215 31010KT 9999 SCT040
                      TEMPO 1210/1215 5000 -RASN=
201902120800 TAF LRBM 120800Z 1209/1218 31010KT 9999 SCT035
                      TEMPO 1211/1215 5000 -RASN=
201902121100 TAF LRBM 121100Z 1212/1221 31012KT 9999 SCT020 BKN040
                      PROB30 TEMPO 1212/1215 5000 -RASN=
201902121400 TAF LRBM 121400Z 1215/1224 31012KT 9999 SCT040=
201902121700 TAF LRBM 121700Z NIL=
201902122000 TAF LRBM 122000Z NIL=
201902122300 TAF LRBM 122300Z NIL=
201902130200 TAF LRBM 130200Z 1303/1312 VRB04KT 9999 SCT045=
201902130500 TAF LRBM 130500Z 1306/1315 VRB04KT CAVOK=
201902130800 TAF LRBM 130800Z 1309/1318 VRB04KT CAVOK=
201902131100 TAF LRBM 131100Z 1312/1321 27008KT CAVOK=
201902131400 TAF LRBM 131400Z 1315/1324 27008KT CAVOK=
201902131700 TAF LRBM 131700Z NIL=
201902132000 TAF LRBM 132000Z NIL=
201902132300 TAF LRBM 132300Z NIL=
201902140200 TAF LRBM 140200Z NIL=
201902140500 TAF LRBM 140500Z 1406/1415 VRB04KT 9999 BKN010 BKN030
                      BECMG 1410/1412 BKN035=
201902140800 TAF LRBM 140800Z 1409/1418 28006KT 9999 BKN010 BKN045
                      BECMG 1410/1412 BKN035=
201902141100 TAF LRBM 141100Z 1412/1421 28008KT 7000 BKN010 OVC030
                      BECMG 1416/1418 5000 BR OVC005=
201902141327 TAF AMD LRBM 141327Z 1413/1421 28008KT 7000 SCT030
                      BECMG 1416/1418 5000 BR BKN010=
201902141400 TAF LRBM 141400Z 1415/1424 28008KT 9999 SCT030
                      BECMG 1418/1420 5000 BR BKN010=
201902141700 TAF LRBM 141700Z 1418/1503 28008KT 7000 SCT030
                      BECMG 1418/1420 5000 BR
                      TEMPO 1421/1503 3000 BR BKN010 BKN030=
201902142000 TAF LRBM 142000Z 1421/1506 28008KT 5000 BR SCT030
                      TEMPO 1422/1503 1500 BR BKN010 BKN030=
201902142300 TAF LRBM 142300Z NIL=
201902150200 TAF LRBM 150200Z 1503/1512 VRB04KT 3000 BR BKN010
                      TEMPO 1503/1507 1500 BR OVC005
                      BECMG 1507/1509 9999 BKN030=
201902150424 TAF AMD LRBM 150424Z 1504/1512 VRB04KT 9999 BKN035
                      TEMPO 1504/1506 5000 BR BKN015=
201902150500 TAF LRBM 150500Z 1506/1515 VRB04KT 5000 BR BKN040
                      TEMPO 1506/1508 1500 BR
                      BECMG 1508/1510 9999 NSW=
201902150800 TAF LRBM 150800Z 1509/1518 VRB04KT CAVOK=
201902151100 TAF LRBM 151100Z 1512/1521 VRB04KT CAVOK=
201902151400 TAF LRBM 151400Z 1515/1524 VRB04KT CAVOK=
201902151618 TAF AMD LRBM 151618Z 1516/1524 CNL=
201902151700 TAF LRBM 151700Z NIL=
201902152000 TAF LRBM 152000Z NIL=
201902152300 TAF LRBM 152300Z NIL=
201902160200 TAF LRBM 160200Z 1603/1612 VRB04KT CAVOK
                      TEMPO 1603/1606 3000 BR=
201902160431 TAF AMD LRBM 160431Z 1604/1612 CNL=
201902160500 TAF LRBM 160500Z NIL=
201902160521 TAF AMD LRBM 160521Z 1605/1612 CNL=
201902160800 TAF LRBM 160800Z NIL=
201902161100 TAF LRBM 161100Z NIL=
201902161400 TAF LRBM 161400Z NIL=
201902161700 TAF LRBM 161700Z NIL=
201902162000 TAF LRBM 162000Z NIL=
201902162300 TAF LRBM 162300Z NIL=
201902170200 TAF LRBM 170200Z NIL=
201902170500 TAF LRBM 170500Z NIL=
201902170800 TAF LRBM 170800Z NIL=
201902171100 TAF LRBM 171100Z NIL=
201902171400 TAF LRBM 171400Z NIL=
201902171700 TAF LRBM 171700Z 1718/1803 VRB04KT CAVOK=
201902172000 TAF LRBM 172000Z 1721/1806 VRB04KT CAVOK=
201902172232 TAF AMD LRBM 172232Z 1722/1806 CNL=
201902172300 TAF LRBM 172300Z NIL=
201902180200 TAF LRBM 180200Z 1803/1812 VRB04KT CAVOK
                      TEMPO 1803/1806 3000 BR=
201902180500 TAF LRBM 180500Z 1806/1815 08006KT 5000 BR NSC
                      BECMG 1806/1808 CAVOK=
201902180800 TAF LRBM 180800Z 1809/1818 13005KT CAVOK=
201902181100 TAF LRBM 181100Z 1812/1821 VRB04KT CAVOK
                      BECMG 1817/1819 5000 BR
                      BECMG 1819/1821 1500 BR=
201902181400 TAF LRBM 181400Z 1815/1824 VRB03KT CAVOK
                      BECMG 1817/1819 5000 BR
                      BECMG 1819/1821 3000 BR=
201902181700 TAF LRBM 181700Z NIL=
201902182000 TAF LRBM 182000Z NIL=
201902182300 TAF LRBM 182300Z NIL=
201902190200 TAF LRBM 190200Z 1903/1912 VRB04KT CAVOK
                      TEMPO 1905/1907 3000 BR=
201902190500 TAF LRBM 190500Z 1906/1915 09006KT CAVOK
                      TEMPO 1906/1907 5000 BR=
201902190800 TAF LRBM 190800Z 1909/1918 09006KT CAVOK=
201902191100 TAF LRBM 191100Z 1912/1921 12006KT CAVOK=
201902191400 TAF LRBM 191400Z 1915/1924 12006KT CAVOK
                      BECMG 1922/1924 3000 BR=
201902191700 TAF LRBM 191700Z NIL=
201902192000 TAF LRBM 192000Z NIL=
201902192300 TAF LRBM 192300Z NIL=
201902200200 TAF LRBM 200200Z 2003/2012 VRB04KT 5000 BR NSC
                      TEMPO 2003/2006 1500 BR
                      BECMG 2007/2009 9999 NSW=
201902200500 TAF LRBM 200500Z 2006/2015 VRB04KT 9999 SCT040=
201902200800 TAF LRBM 200800Z 2009/2018 VRB04KT 9999 SCT035=
201902201100 TAF LRBM 201100Z 2012/2021 VRB04KT CAVOK=
201902201400 TAF LRBM 201400Z 2015/2024 28010KT CAVOK
                      TEMPO 2015/2017 SCT035CB
                      BECMG 2017/2019 VRB04KT=
201902201700 TAF LRBM 201700Z NIL=
201902202000 TAF LRBM 202000Z NIL=
201902202300 TAF LRBM 202300Z NIL=
201902210200 TAF LRBM 210200Z NIL=
201902210500 TAF LRBM 210500Z 2106/2115 VRB04KT CAVOK=
201902210800 TAF LRBM 210800Z 2109/2118 VRB04KT 9999 SCT030=
201902211100 TAF LRBM 211100Z 2112/2121 27006KT 9999 BKN040=
201902211400 TAF LRBM 211400Z 2115/2124 27006KT 9999 BKN040
                      BECMG 2121/2123 3000 -RA BR BKN010 OVC030=
201902211700 TAF LRBM 211700Z 2118/2203 VRB04KT 9999 BKN040
                      BECMG 2121/2123 5000 -RA BR BKN010 OVC030
                       BECMG 2123/2201 3000 SN BKN005 OVC020=
201902212000 TAF LRBM 212000Z 2121/2206 VRB04KT 9999 SCT045
                      BECMG 2122/2124 5000 -RA BR BKN015 OVC030
                       BECMG 2200/2202 3000 SN BKN010 OVC020
                      TEMPO 2202/2206 1500 SN BKN005 OVC020=
201902212234 TAF AMD LRBM 212234Z 2122/2206 CNL=
201902212300 TAF LRBM 212300Z NIL=
201902220200 TAF LRBM 220200Z 2203/2212 VRB04KT 5000 -RASN BR BKN010 OVC030
                       TEMPO 2203/2207 1500 SN BKN005 OVC020
                      BECMG 2210/2212 04010KT=
201902220500 TAF LRBM 220500Z 2206/2215 VRB04KT 5000 BR BKN015 OVC030
                      TEMPO 2206/2209 3000 -SN BR BKN005 OVC020
                       BECMG 2210/2212 04010KT
                      BECMG 2212/2214 9999 NSW SCT025=
201902220800 TAF LRBM 220800Z 2209/2218 VRB04KT 5000 BR BKN015 OVC025
                      BECMG 2210/2212 04010KT 9999 NSW SCT025=
201902221100 TAF LRBM 221100Z 2212/2221 27012KT 5000 -RA BR BKN010 BKN045
                      BECMG 2212/2214 04008KT 9999 NSW SCT045=
201902221400 TAF LRBM 221400Z 2215/2224 02010KT 9999 SCT045
                      TEMPO 2215/2217 02010G20KT
                      BECMG 2220/2222 VRB05KT=
201902221700 TAF LRBM 221700Z NIL=
201902222000 TAF LRBM 222000Z NIL=
201902222300 TAF LRBM 222300Z NIL=
201902230200 TAF LRBM 230200Z NIL=
201902230500 TAF LRBM 230500Z NIL=
201902230800 TAF LRBM 230800Z NIL=
201902231100 TAF LRBM 231100Z NIL=
201902231400 TAF LRBM 231400Z NIL=
201902231700 TAF LRBM 231700Z NIL=
201902232000 TAF LRBM 232000Z NIL=
201902232300 TAF LRBM 232300Z NIL=
201902240200 TAF LRBM 240200Z 2403/2412 VRB04KT CAVOK=
201902240500 TAF LRBM 240500Z NIL=
201902240800 TAF LRBM 240800Z NIL=
201902241100 TAF LRBM 241100Z NIL=
201902241400 TAF LRBM 241400Z NIL=
201902241700 TAF LRBM 241700Z 2418/2503 28006KT 9999 BKN045=
201902242000 TAF LRBM 242000Z 2421/2506 VRB04KT 9999 BKN040=
201902242300 TAF LRBM 242300Z NIL=
201902242306 TAF AMD LRBM 242306Z 2423/2506 CNL=
201902250200 TAF LRBM 250200Z 2503/2512 VRB04KT 9999 BKN040=
201902250500 TAF LRBM 250500Z 2506/2515 VRB04KT 9999 SCT040=
201902250800 TAF LRBM 250800Z 2509/2518 VRB04KT 9999 SCT040=
201902251100 TAF LRBM 251100Z 2512/2521 25006KT CAVOK=
201902251400 TAF LRBM 251400Z 2515/2524 28006KT CAVOK=
201902251637 TAF AMD LRBM 251637Z 2516/2524 CNL=
201902251700 TAF LRBM 251700Z NIL=
201902252000 TAF LRBM 252000Z NIL=
201902252300 TAF LRBM 252300Z NIL=
201902260200 TAF LRBM 260200Z 2603/2612 VRB04KT CAVOK=
201902260500 TAF LRBM 260500Z 2606/2615 VRB04KT CAVOK
                      TEMPO 2606/2608 5000 BR
                      BECMG 2610/2612 31010KT=
201902260800 TAF LRBM 260800Z 2609/2618 VRB04KT CAVOK
                      BECMG 2610/2612 31010KT=
201902261100 TAF LRBM 261100Z 2612/2621 30010KT 9999 BKN058=
201902261400 TAF LRBM 261400Z 2615/2624 27012KT CAVOK=
201902261700 TAF LRBM 261700Z NIL=
201902262000 TAF LRBM 262000Z NIL=
201902262300 TAF LRBM 262300Z NIL=
201902270200 TAF LRBM 270200Z 2703/2712 35008KT CAVOK=
201902270500 TAF LRBM 270500Z 2706/2715 35008KT CAVOK=
201902270800 TAF LRBM 270800Z 2709/2718 28012KT 9999 BKN050
                      BECMG 2715/2717 VRB04KT=
201902271100 TAF LRBM 271100Z 2712/2721 32008KT 9999 BKN040=
201902271400 TAF LRBM 271400Z 2715/2724 28010KT 9999 BKN050
                      BECMG 2718/2720 VRB04KT=
201902271700 TAF LRBM 271700Z NIL=
201902272000 TAF LRBM 272000Z NIL=
201902272300 TAF LRBM 272300Z NIL=
201902280200 TAF LRBM 280200Z 2803/2812 VRB04KT CAVOK=
201902280500 TAF LRBM 280500Z NIL=
201902280800 TAF LRBM 280800Z 2809/2818 VRB04KT CAVOK=
201902281100 TAF LRBM 281100Z 2812/2821 VRB04KT CAVOK=
201902281400 TAF LRBM 281400Z 2815/2824 30006KT CAVOK=
201902281700 TAF LRBM 281700Z 2818/0103 VRB04KT CAVOK=
201902282000 TAF LRBM 282000Z 2821/0106 VRB04KT CAVOK=
201902282300 TAF LRBM 282300Z NIL=
201902282308 TAF AMD LRBM 282308Z 2823/0106 CNL=
