201902010000 METAR LRBM 010000Z AUTO 20004KT 1100 R09/1200U FG VV002 00/00
                        Q1008=
201902010030 METAR LRBM 010030Z AUTO 20001KT 1100 R09/1200N VV002 00/00
                        Q1009=
201902010100 METAR LRBM 010100Z AUTO 04003KT 1000 R09/1200N FG VV002 00/00
                        Q1009=
201902010130 METAR LRBM 010130Z AUTO 06003KT 3100 BKN003/// BKN005///
                        00/00 Q1009=
201902010200 METAR LRBM 010200Z AUTO 07003KT 5000 FEW003/// BKN005///
                        00/00 Q1009=
201902010230 METAR LRBM 010230Z AUTO 06003KT 5000 BR FEW005/// SCT015///
                        BKN038/// 01/00 Q1009=
201902010300 METAR LRBM 010300Z 07005KT 6000 SCT014 OVC033 01/01 Q1009
                        R09/19//95=
201902010330 METAR LRBM 010330Z 08005KT 6000 FEW016 SCT029 OVC055 01/01
                        Q1009 R09/19//95=
201902010400 METAR LRBM 010400Z 06003KT 6000 FEW029 SCT037 01/00 Q1009
                        R09/19//95=
201902010430 METAR LRBM 010430Z 17004KT 100V210 5000 -RA BR FEW015 SCT035
                        OVC055 01/00 Q1009 R09/19//95=
201902010500 METAR LRBM 010500Z 34001KT 4000 -SNRA BR FEW009 SCT021 OVC030
                        00/M00 Q1010 R09/19//95=
201902010530 METAR LRBM 010530Z 05004KT 3000 BR FEW008 SCT021 OVC030 01/00
                        Q1010 R09/19//95=
201902010600 METAR LRBM 010600Z 06005KT 4000 BR FEW008 SCT019 BKN065 01/00
                        Q1010 R09/19//95=
201902010630 METAR LRBM 010630Z 05006KT 9999 SCT021 01/01 Q1010 R09/19//95=
201902010700 METAR LRBM 010700Z 10003KT 9999 BKN030 02/00 Q1011 R09/19//95=
201902010730 METAR LRBM 010730Z 12002KT 8000 BKN016 02/00 Q1011 R09/19//95=
201902010800 METAR COR LRBM 010800Z 10005KT 9000 SCT016 BKN050 02/01 Q1011
                        R09/19//95=
201902010830 METAR LRBM 010830Z 10005KT 9999 BKN019 02/01 Q1011 R09/19//95=
201902010900 METAR LRBM 010900Z 09009KT 9999 SCT018 BKN050 03/00 Q1011
                        R09/19//95=
201902010930 METAR COR LRBM 010930Z 13003KT 9999 BKN018 04/01 Q1012 R09/19//95=
201902011000 METAR LRBM 011000Z 09006KT 9999 BKN026 03/00 Q1012 R09/19//95=
201902011030 METAR LRBM 011030Z 10007KT 9999 SCT026 04/00 Q1012 R09/19//95=
201902011100 METAR LRBM 011100Z 09007KT 9999 SCT026 03/00 Q1011 R09/19//95=
201902011130 METAR LRBM 011130Z 09009KT 9999 FEW032 04/00 Q1011 R09/19//95=
201902011200 METAR LRBM 011200Z 09009KT CAVOK 04/00 Q1011 R09/19//95=
201902011230 METAR LRBM 011230Z 09008KT CAVOK 04/00 Q1011 R09/19//95=
201902011300 METAR LRBM 011300Z 09006KT 9999 SCT030 04/00 Q1011 R09/19//95=
201902011330 METAR LRBM 011330Z 08009KT 9999 FEW030 05/00 Q1011 R09/19//95=
201902011400 METAR LRBM 011400Z 08010KT 9999 FEW042 05/00 Q1011 R09/19//95=
201902011430 METAR LRBM 011430Z 08009KT CAVOK 04/00 Q1011 R09/19//95=
201902011500 METAR LRBM 011500Z 08007KT CAVOK 04/M00 Q1011 R09/19//95=
201902011530 METAR LRBM 011530Z AUTO 08007KT 9999 FEW022/// SCT180///
                        BKN240/// 04/M00 Q1011=
201902011600 METAR LRBM 011600Z AUTO 08007KT 9999 FEW060/// SCT180///
                        BKN240/// 04/M00 Q1011=
201902011630 METAR LRBM 011630Z AUTO 08006KT 9999 FEW060/// SCT200///
                        03/M00 Q1011=
201902011700 METAR LRBM 011700Z AUTO 08008KT 9999 FEW028/// SCT180///
                        04/M01 Q1010=
201902011730 METAR LRBM 011730Z AUTO 07008KT 9999 FEW065/// SCT230///
                        05/M01 Q1011=
201902011800 METAR LRBM 011800Z AUTO 07009KT 9999 FEW065/// SCT210///
                        06/M01 Q1010=
201902011830 METAR LRBM 011830Z AUTO 08008KT 9999 FEW060/// SCT220///
                        04/M01 Q1010=
201902011900 METAR LRBM 011900Z AUTO 06006KT 9999 FEW075/// SCT240///
                        06/M01 Q1011=
201902011930 METAR LRBM 011930Z AUTO 06006KT 9999 FEW032/// SCT220///
                        05/M01 Q1011=
201902012000 METAR LRBM 012000Z AUTO 05006KT 9999 FEW065/// SCT230///
                        05/M01 Q1010=
201902012030 METAR LRBM 012030Z AUTO 05006KT 9999 FEW075/// SCT230///
                        05/M01 Q1011=
201902012100 METAR LRBM 012100Z AUTO 05006KT 9999 FEW070/// SCT230///
                        05/M01 Q1010=
201902012130 METAR LRBM 012130Z AUTO 05008KT 9999 FEW043/// SCT240///
                        05/M01 Q1010=
201902012200 METAR LRBM 012200Z AUTO 05007KT 9999 FEW035/// SCT230///
                        05/M01 Q1010=
201902012230 METAR LRBM 012230Z AUTO 05006KT 9999 FEW065/// SCT210///
                        06/M01 Q1010=
201902012300 METAR LRBM 012300Z AUTO 06005KT 9999 FEW042/// SCT230///
                        05/M01 Q1010=
201902012330 METAR LRBM 012330Z AUTO 05006KT 9999 FEW024/// SCT200///
                        06/M01 Q1009=
201902020000 METAR LRBM 020000Z AUTO 06005KT 9999 FEW031/// SCT230///
                        06/M01 Q1009=
201902020030 METAR LRBM 020030Z AUTO 05006KT 9999 FEW045/// SCT230///
                        07/M01 Q1009=
201902020100 METAR LRBM 020100Z AUTO 06006KT 9999 FEW012/// SCT120///
                        06/M01 Q1009=
201902020130 METAR LRBM 020130Z AUTO 06004KT 9999 FEW013/// SCT044///
                        BKN120/// 05/M01 Q1009=
201902020200 METAR LRBM 020200Z AUTO 05007KT 9999 FEW007/// SCT021///
                        BKN039/// 06/M00 Q1009=
201902020230 METAR LRBM 020230Z AUTO 05006KT 9999 FEW010/// SCT140///
                        BKN200/// 06/M00 Q1009=
201902020300 METAR LRBM 020300Z AUTO 08007KT 9999 FEW027/// SCT200///
                        06/M01 Q1009=
201902020330 METAR LRBM 020330Z AUTO 07006KT 9999 FEW020/// SCT200///
                        05/00 Q1009=
201902020400 METAR LRBM 020400Z AUTO 06006KT 9999 FEW015/// SCT180///
                        06/00 Q1009=
201902020430 METAR LRBM 020430Z AUTO 07006KT 9999 FEW060/// SCT210///
                        05/00 Q1009=
201902020500 METAR LRBM 020500Z AUTO 07006KT 9999 FEW011/// SCT042///
                        BKN230/// 05/01 Q1009=
201902020530 METAR LRBM 020530Z AUTO 06006KT 9999 FEW009/// SCT032///
                        BKN085/// 05/01 Q1009=
201902020600 METAR LRBM 020600Z AUTO 06007KT 9999 FEW016/// SCT220///
                        06/01 Q1009=
201902020630 METAR LRBM 020630Z AUTO 07006KT 040V110 9999 FEW065/// SCT230///
                        ///// Q1009=
201902020700 METAR LRBM 020700Z AUTO 07006KT 9999 FEW065/// SCT220///
                        06/01 Q1009=
201902020730 METAR LRBM 020730Z AUTO 06006KT 9999 FEW015/// SCT190///
                        06/01 Q1009=
201902020800 METAR LRBM 020800Z AUTO 06006KT 9999 FEW013/// SCT230///
                        06/01 Q1009=
201902020830 METAR LRBM 020830Z AUTO 07006KT 9999 FEW024/// SCT190///
                        06/01 Q1009=
201902020900 METAR LRBM 020900Z AUTO 06007KT 9999 FEW024/// SCT210///
                        07/01 Q1009=
201902020930 METAR LRBM 020930Z AUTO 07005KT 9999 FEW029/// SCT210///
                        07/01 Q1009=
201902021000 METAR LRBM 021000Z AUTO 07006KT 9999 FEW025/// SCT210///
                        06/01 Q1009=
201902021030 METAR LRBM 021030Z AUTO 07006KT 9999 FEW014/// SCT200///
                        07/01 Q1009=
201902021100 METAR LRBM 021100Z AUTO 08006KT 9999 FEW022/// SCT220///
                        07/01 Q1008=
201902021130 METAR LRBM 021130Z AUTO 07005KT 9999 FEW032/// SCT220///
                        08/01 Q1009=
201902021200 METAR LRBM 021200Z AUTO 08007KT 9999 FEW017/// SCT200///
                        08/01 Q1008=
201902021230 METAR LRBM 021230Z AUTO 09009KT 9999 FEW016/// SCT210///
                        06/00 Q1008=
201902021300 METAR LRBM 021300Z AUTO 08007KT 9999 FEW048/// SCT230///
                        08/01 Q1008=
201902021330 METAR LRBM 021330Z AUTO 06005KT 030V090 9999 FEW017/// SCT200///
                        09/01 Q1008=
201902021400 METAR LRBM 021400Z AUTO 06006KT 9999 FEW026/// SCT210///
                        09/01 Q1008=
201902021430 METAR LRBM 021430Z AUTO 06005KT 9999 FEW029/// SCT240///
                        09/01 Q1008=
201902021500 METAR LRBM 021500Z AUTO 06006KT 9999 FEW040/// SCT230///
                        07/01 Q1008=
201902021530 METAR LRBM 021530Z AUTO 06005KT 030V090 9999 FEW015/// SCT230///
                        07/01 Q1008=
201902021600 METAR LRBM 021600Z AUTO 06006KT 9999 FEW060/// SCT240///
                        08/01 Q1008=
201902021630 METAR LRBM 021630Z AUTO 04006KT 9999 FEW038/// SCT230///
                        09/01 Q1009=
201902021700 METAR LRBM 021700Z AUTO 06006KT 9999 FEW033/// SCT220///
                        07/01 Q1009=
201902021730 METAR LRBM 021730Z AUTO 06005KT 030V090 9999 FEW026/// SCT240///
                        08/01 Q1009=
201902021800 METAR LRBM 021800Z AUTO 06005KT 9999 FEW031/// SCT230///
                        08/01 Q1009=
201902021830 METAR LRBM 021830Z AUTO 05006KT 020V080 9999 FEW060/// SCT230///
                        09/01 Q1008=
201902021900 METAR LRBM 021900Z AUTO 06005KT 9999 FEW032/// SCT240///
                        07/01 Q1009=
201902021930 METAR LRBM 021930Z AUTO 06006KT 9999 FEW027/// SCT230///
                        08/01 Q1009=
201902022000 METAR LRBM 022000Z AUTO 06006KT 9999 FEW120/// SCT240///
                        07/01 Q1009=
201902022030 METAR LRBM 022030Z AUTO 07006KT 030V090 9999 FEW070/// SCT240///
                        08/01 Q1009=
201902022100 METAR LRBM 022100Z AUTO 06006KT 9999 FEW055/// BKN200///
                        07/01 Q1009=
201902022130 METAR LRBM 022130Z AUTO 06007KT 9999 FEW032/// SCT210///
                        08/02 Q1009=
201902022200 METAR LRBM 022200Z AUTO 06006KT 9999 FEW070/// SCT230///
                        07/01 Q1009=
201902022230 METAR LRBM 022230Z AUTO 06006KT 030V090 9999 FEW037/// SCT240///
                        07/01 Q1009=
201902022300 METAR LRBM 022300Z AUTO 04005KT 020V080 9999 FEW055/// SCT230///
                        08/02 Q1010=
201902022330 METAR LRBM 022330Z AUTO 04006KT 020V100 9999 FEW022/// SCT230///
                        09/02 Q1009=
201902030000 METAR LRBM 030000Z AUTO 05007KT 020V090 9999 FEW120/// SCT230///
                        08/01 Q1009=
201902030030 METAR LRBM 030030Z AUTO 06006KT 9999 FEW100/// SCT240///
                        07/01 Q1009=
201902030100 METAR LRBM 030100Z AUTO 07007KT 9999 FEW120/// SCT230///
                        06/01 Q1009=
201902030130 METAR LRBM 030130Z AUTO 06004KT 030V100 9999 FEW060/// SCT210///
                        06/01 Q1009=
201902030200 METAR LRBM 030200Z AUTO 07004KT 9999 FEW070/// SCT230///
                        05/01 Q1009=
201902030230 METAR LRBM 030230Z AUTO 07006KT 9999 FEW026/// SCT190///
                        06/01 Q1008=
201902030300 METAR LRBM 030300Z AUTO 07006KT 9999 FEW100/// SCT230///
                        05/01 Q1009=
201902030330 METAR LRBM 030330Z AUTO 08009KT 9999 FEW095/// SCT220///
                        05/01 Q1009=
201902030400 METAR LRBM 030400Z AUTO 05007KT 9999 FEW120/// SCT220///
                        07/01 Q1009=
201902030430 METAR LRBM 030430Z AUTO 08006KT 9999 FEW080/// SCT220///
                        06/01 Q1009=
201902030500 METAR LRBM 030500Z AUTO 07006KT 9999 FEW100/// SCT220///
                        06/01 Q1009=
201902030530 METAR LRBM 030530Z AUTO 07007KT 9999 FEW042/// SCT210///
                        06/01 Q1009=
201902030600 METAR LRBM 030600Z AUTO 06007KT 9999 FEW100/// SCT230///
                        07/01 Q1009=
201902030630 METAR LRBM 030630Z AUTO 08007KT 9999 FEW085/// SCT240///
                        06/01 Q1009=
201902030700 METAR LRBM 030700Z AUTO 07005KT 9999 FEW070/// SCT220///
                        06/01 Q1009=
201902030730 METAR LRBM 030730Z AUTO 08004KT 9999 FEW100/// SCT240///
                        05/00 Q1010=
201902030800 METAR LRBM 030800Z AUTO 07005KT 040V100 9999 FEW040/// SCT220///
                        08/01 Q1010=
201902030830 METAR LRBM 030830Z AUTO 09004KT 9999 FEW042/// SCT200///
                        06/01 Q1010=
201902030900 METAR LRBM 030900Z AUTO 10006KT 9999 FEW065/// SCT230///
                        08/01 Q1010=
201902030930 METAR LRBM 030930Z AUTO 10006KT 9999 FEW043/// SCT230///
                        06/01 Q1010=
201902031000 METAR LRBM 031000Z AUTO 09005KT 9999 FEW019/// SCT240///
                        08/01 Q1010=
201902031030 METAR LRBM 031030Z AUTO 08005KT 9999 FEW024/// SCT220///
                        09/02 Q1010=
201902031100 METAR LRBM 031100Z AUTO 10005KT 9999 FEW032/// SCT210///
                        11/02 Q1009=
201902031130 METAR LRBM 031130Z AUTO 09009KT 9999 FEW017/// SCT200///
                        11/02 Q1009=
201902031200 METAR LRBM 031200Z AUTO 09010KT 9999 FEW016/// SCT190///
                        10/01 Q1009=
201902031230 METAR LRBM 031230Z AUTO 08009KT 9999 FEW018/// SCT230///
                        11/01 Q1009=
201902031300 METAR LRBM 031300Z AUTO 08007KT 9999 FEW021/// SCT210///
                        12/01 Q1009=
201902031330 METAR LRBM 031330Z AUTO 07007KT 9999 FEW023/// SCT210///
                        14/00 Q1008=
201902031400 METAR LRBM 031400Z AUTO 06006KT 9999 FEW017/// SCT210///
                        13/00 Q1008=
201902031430 METAR LRBM 031430Z AUTO 05005KT 350V100 9999 FEW013/// SCT200///
                        11/01 Q1009=
201902031500 METAR LRBM 031500Z AUTO 05006KT 020V080 9999 FEW022/// SCT240///
                        11/00 Q1008=
201902031530 METAR LRBM 031530Z AUTO 09005KT 060V160 9999 FEW038/// SCT230///
                        07/00 Q1008=
201902031600 METAR LRBM 031600Z AUTO 06006KT 9999 FEW018/// SCT220///
                        08/00 Q1008=
201902031630 METAR LRBM 031630Z AUTO 06005KT 9999 FEW021/// SCT230///
                        10/00 Q1008=
201902031700 METAR LRBM 031700Z AUTO 07007KT 9999 FEW018/// SCT210///
                        11/00 Q1009=
201902031730 METAR LRBM 031730Z AUTO 05005KT 020V080 9999 FEW027/// SCT220///
                        10/00 Q1009=
201902031800 METAR LRBM 031800Z 06006KT 9999 FEW020 08/00 Q1010 R09/19//95=
201902031830 METAR LRBM 031830Z 07006KT 030V090 9999 FEW023 SCT037 07/01
                        Q1010 R09/19//95=
201902031900 METAR LRBM 031900Z 06005KT 030V100 9999 FEW021 08/01 Q1010
                        R09/19//95=
201902031930 METAR LRBM 031930Z 06004KT 030V090 9999 SCT037 09/00 Q1011
                        R09/CLRD//=
201902032000 METAR LRBM 032000Z 21007KT 100V230 9999 SCT036 06/00 Q1012=
201902032030 METAR LRBM 032030Z 06004KT 010V110 9999 FEW022 SCT036 06/01
                        Q1013=
201902032100 METAR LRBM 032100Z 05003KT 020V080 9999 FEW023 SCT036 06/01
                        Q1014=
201902032130 METAR LRBM 032130Z 05005KT 9999 SCT040 05/01 Q1014=
201902032200 METAR LRBM 032200Z 04004KT 9999 FEW019 SCT040 06/01 Q1014=
201902032230 METAR LRBM 032230Z AUTO 04004KT 010V090 9999 FEW027/// SCT210///
                        07/01 Q1015=
201902032300 METAR LRBM 032300Z AUTO 06004KT 020V080 9999 FEW026/// SCT190///
                        07/01 Q1015=
201902032330 METAR LRBM 032330Z AUTO 04004KT 010V070 9999 FEW036/// SCT210///
                        06/01 Q1015=
201902040000 METAR LRBM 040000Z AUTO 06004KT 020V090 9999 FEW027/// SCT210///
                        06/01 Q1016=
201902040030 METAR LRBM 040030Z AUTO VRB03KT 9999 FEW032/// SCT200///
                        05/01 Q1016=
201902040100 METAR LRBM 040100Z AUTO 34005KT 9999 FEW021/// SCT210///
                        05/01 Q1017=
201902040130 METAR LRBM 040130Z AUTO VRB04KT 9999 FEW021/// SCT230///
                        04/01 Q1017=
201902040200 METAR LRBM 040200Z AUTO VRB01KT 9999 FEW030/// SCT190///
                        03/01 Q1018=
201902040230 METAR LRBM 040230Z AUTO 36002KT 9999 FEW017/// SCT220///
                        03/00 Q1018=
201902040300 METAR LRBM 040300Z VRB02KT CAVOK 03/01 Q1018=
201902040330 METAR LRBM 040330Z VRB04KT CAVOK 04/02 Q1019=
201902040400 METAR LRBM 040400Z 08004KT CAVOK 04/02 Q1019=
201902040430 METAR LRBM 040430Z 09004KT CAVOK 02/01 Q1020=
201902040500 METAR LRBM 040500Z 36003KT 320V020 CAVOK 03/02 Q1020=
201902040530 METAR LRBM 040530Z 07004KT 020V110 CAVOK 02/01 Q1021=
201902040600 METAR LRBM 040600Z 06003KT 030V090 9999 FEW030 02/01 Q1021=
201902040630 METAR LRBM 040630Z 08003KT 9999 BKN023 02/01 Q1022=
201902040700 METAR LRBM 040700Z VRB01KT 9999 FEW018 BKN026 03/01 Q1022=
201902040730 METAR LRBM 040730Z VRB02KT 9999 FEW016 BKN026 03/02 Q1023=
201902040800 METAR LRBM 040800Z VRB01KT 9999 FEW014 BKN024 04/02 Q1023=
201902040830 METAR LRBM 040830Z 27009KT 9999 FEW006 BKN024 03/02 Q1023=
201902040900 METAR LRBM 040900Z 27010KT 9999 FEW006 SCT016 BKN024 04/02
                        Q1024=
201902040930 METAR LRBM 040930Z 28010KT 9999 SCT004 BKN024 04/02 Q1024=
201902041000 METAR LRBM 041000Z 28012KT 9999 FEW004 BKN024 04/02 Q1024=
201902041030 METAR LRBM 041030Z 27012KT 9999 BKN024 04/02 Q1024=
201902041100 METAR LRBM 041100Z 27012KT 9999 BKN026 04/02 Q1025=
201902041130 METAR LRBM 041130Z 26011KT 9999 SCT026 04/02 Q1025=
201902041200 METAR LRBM 041200Z 28011KT 9999 FEW004 SCT024 04/02 Q1025=
201902041230 METAR LRBM 041230Z 28012KT 9999 FEW003 04/02 Q1026=
201902041300 METAR LRBM 041300Z 27011KT 9999 FEW003 04/02 Q1026=
201902041330 METAR LRBM 041330Z 27007KT 9999 FEW003 04/02 Q1026=
201902041400 METAR LRBM 041400Z 27009KT 9999 FEW003 04/02 Q1026=
201902041430 METAR LRBM 041430Z 29006KT 9999 FEW002 05/02 Q1026=
201902041500 METAR LRBM 041500Z 28003KT 9999 FEW002 05/02 Q1026=
201902041530 METAR LRBM 041530Z AUTO 29003KT 9999 FEW035/// SCT230///
                        05/02 Q1027=
201902041600 METAR LRBM 041600Z AUTO 28002KT 9999 FEW021/// SCT210///
                        04/01 Q1027=
201902041630 METAR LRBM 041630Z AUTO 16002KT 9999 FEW021/// BKN190///
                        02/01 Q1027=
201902041700 METAR LRBM 041700Z AUTO 08003KT 9999 FEW022/// SCT170///
                        02/01 Q1028=
201902041730 METAR LRBM 041730Z AUTO 06003KT 7000 FEW025/// SCT190///
                        02/00 Q1028=
201902041800 METAR LRBM 041800Z AUTO 05002KT 4400 R09/1900VP2000D BR FEW019///
                        BKN190/// 01/M00 Q1028=
201902041830 METAR LRBM 041830Z AUTO 05002KT 5000 BR FEW022/// SCT170///
                        01/M00 Q1028=
201902041900 METAR LRBM 041900Z AUTO 04002KT 350V060 5000 BR FEW015///
                        SCT170/// BKN240/// 00/M00 Q1028=
201902041930 METAR LRBM 041930Z AUTO 02002KT 350V050 8000 FEW026/// SCT230///
                        01/M00 Q1028=
201902042000 METAR LRBM 042000Z AUTO 01003KT 7000 FEW040/// SCT220///
                        01/M00 Q1028=
201902042030 METAR LRBM 042030Z AUTO 03001KT 7000 FEW026/// SCT130///
                        BKN220/// 01/M00 Q1028=
201902042100 METAR LRBM 042100Z AUTO 00000KT 6000 FEW021/// SCT180///
                        BKN240/// 01/M00 Q1028=
201902042130 METAR LRBM 042130Z AUTO 00000KT 6000 FEW015/// SCT160///
                        01/M00 Q1028=
201902042200 METAR LRBM 042200Z AUTO 28001KT 4400 BKN014/// 00/M01 Q1028=
201902042230 METAR LRBM 042230Z AUTO 06002KT 5000 SCT014/// BKN042///
                        01/M00 Q1028=
201902042300 METAR LRBM 042300Z AUTO 09004KT 9999 BKN013/// BKN031///
                        01/M00 Q1029=
201902042330 METAR LRBM 042330Z AUTO 05003KT 9999 BKN012/// 01/00 Q1028=
201902050000 METAR LRBM 050000Z AUTO 06002KT 9999 BKN012/// 01/00 Q1028=
201902050030 METAR LRBM 050030Z AUTO 08002KT 9999 SCT012/// BKN100///
                        01/M00 Q1028=
201902050100 METAR LRBM 050100Z AUTO VRB01KT 9999 FEW013/// SCT230///
                        01/M00 Q1028=
201902050130 METAR LRBM 050130Z AUTO 06002KT 9999 BKN012/// 01/00 Q1028=
201902050200 METAR LRBM 050200Z AUTO 04002KT 6000 BKN010/// BKN013///
                        01/00 Q1028=
201902050230 METAR LRBM 050230Z AUTO 08002KT 040V110 9999 BKN010/// 01/00
                        Q1027=
201902050300 METAR LRBM 050300Z AUTO 09003KT 9999 BKN010/// 01/00 Q1027=
201902050330 METAR LRBM 050330Z AUTO 08003KT 9999 BKN010/// 01/00 Q1027=
201902050400 METAR LRBM 050400Z AUTO 06003KT 7000 BKN010/// 01/00 Q1027=
201902050430 METAR LRBM 050430Z AUTO 04001KT 9000 BKN010/// 01/00 Q1027=
201902050500 METAR LRBM 050500Z VRB01KT 9999 BKN010 01/00 Q1027=
201902050530 METAR LRBM 050530Z VRB01KT 9999 FEW003 BKN010 01/00 Q1027=
201902050600 METAR LRBM 050600Z 05002KT 9999 SCT009 01/00 Q1027=
201902050630 METAR LRBM 050630Z 04003KT 9999 FEW008 SCT060 02/01 Q1027=
201902050700 METAR LRBM 050700Z 05002KT 9999 FEW013 03/01 Q1027=
201902050730 METAR LRBM 050730Z 15002KT 8000 SCT025 02/01 Q1027=
201902050800 METAR LRBM 050800Z 25003KT 8000 SCT025 SCT060 02/01 Q1027=
201902050830 METAR LRBM 050830Z 24003KT 6000 SCT025 SCT055 02/01 Q1027=
201902050900 METAR LRBM 050900Z 00000KT 6000 SCT020 BKN055 03/01 Q1027=
201902050930 METAR LRBM 050930Z 19004KT 5000 -RA BR FEW008 SCT018 03/01
                        Q1027=
201902051000 METAR LRBM 051000Z 25001KT 5000 BR FEW008 03/01 Q1027=
201902051030 METAR LRBM 051030Z 00000KT 7000 FEW025 05/02 Q1027=
201902051100 METAR LRBM 051100Z VRB01KT 8000 FEW030 05/02 Q1026=
201902051130 METAR LRBM 051130Z 20004KT 7000 SCT035 04/02 Q1026=
201902051200 METAR LRBM 051200Z 23003KT 7000 BKN028 04/01 Q1026=
201902051230 METAR LRBM 051230Z 27002KT 6000 -RA FEW008 SCT013 BKN028
                        04/02 Q1026=
201902051300 METAR LRBM 051300Z 23002KT 6000 -RA FEW008 SCT013 BKN032
                        04/02 Q1026 R09/19//95=
201902051330 METAR LRBM 051330Z 21002KT 6000 -RA SCT008 BKN014 BKN032
                        04/02 Q1026 R09/19//95=
201902051400 METAR LRBM 051400Z 22002KT 5000 -RA BR FEW007 SCT014 BKN032
                        04/02 Q1026 R09/19//95=
201902051430 METAR LRBM 051430Z 16002KT 4900 -RA BR FEW006 SCT014 BKN032
                        04/02 Q1026 R09/19//95=
201902051500 METAR LRBM 051500Z 09002KT 4000 BR SCT005 BKN010 BKN034 04/02
                        Q1026 R09/19//95=
201902051530 METAR LRBM 051530Z VRB01KT 3700 -RA BR SCT004 BKN007 04/02
                        Q1026 R09/19//95=
201902051600 METAR LRBM 051600Z 04002KT 3500 -RA BR BKN004 BKN007 04/03
                        Q1026 R09/19//95=
201902051630 METAR LRBM 051630Z VRB01KT 3500 BR BKN003 04/03 Q1026 R09/19//95=
201902051700 METAR LRBM 051700Z 00000KT 2500 BR BKN003 03/03 Q1025 R09/19//95=
201902051730 METAR LRBM 051730Z AUTO 00000KT 2600 BKN002/// BKN043///
                        03/02 Q1025 REDZ=
201902051800 METAR LRBM 051800Z AUTO VRB01KT 2000 R09/0750VP2000D BCFG
                        BKN001/// 03/02 Q1025=
201902051830 METAR LRBM 051830Z AUTO 16002KT 0700 R09/0800N FG VV002 03/02
                        Q1025=
201902051900 METAR LRBM 051900Z AUTO 18004KT 2500 -SHRA BKN001/// BKN038///
                        02/02 Q1025=
201902051930 METAR LRBM 051930Z AUTO 00000KT 2300 BKN002/// BKN029///
                        03/02 Q1026 REDZ=
201902052000 METAR LRBM 052000Z AUTO 00000KT 1300 R09/1200V2000D FG BKN001///
                        BKN027/// 03/02 Q1026=
201902052030 METAR LRBM 052030Z AUTO 28001KT 0450 R09/0500N FEW001///
                        BKN003/// BKN005/// 03/02 Q1026=
201902052100 METAR LRBM 052100Z AUTO VRB01KT 2600 R09/1600VP2000D BKN004///
                        BKN006/// 03/02 Q1026=
201902052130 METAR LRBM 052130Z AUTO VRB01KT 3600 BKN004/// 03/02 Q1025=
201902052200 METAR LRBM 052200Z AUTO 28005KT 6000 SCT005/// BKN007///
                        03/02 Q1025=
201902052230 METAR LRBM 052230Z AUTO 26004KT 7000 FEW006/// BKN008///
                        BKN039/// 03/02 Q1025=
201902052300 METAR LRBM 052300Z AUTO 25004KT 4300 BR FEW003/// SCT005///
                        BKN010/// 02/02 Q1025=
201902052330 METAR LRBM 052330Z AUTO 22003KT 3500 BR SCT002/// BKN004///
                        02/02 Q1025=
201902060000 METAR LRBM 060000Z AUTO 26002KT 230V320 2800 BR FEW003///
                        BKN006/// 02/02 Q1025=
201902060030 METAR LRBM 060030Z AUTO 24003KT 3500 BKN006/// BKN008///
                        02/02 Q1025=
201902060100 METAR LRBM 060100Z AUTO 27003KT 3700 BR BKN007/// BKN050///
                        02/02 Q1025=
201902060130 METAR LRBM 060130Z AUTO 29004KT 5000 BR BKN007/// BKN038///
                        02/02 Q1025=
201902060200 METAR LRBM 060200Z AUTO 29004KT 5000 BR SCT006/// BKN008///
                        BKN039/// 02/01 Q1025=
201902060230 METAR LRBM 060230Z AUTO 28005KT 4300 BR BKN005/// BKN007///
                        02/01 Q1025=
201902060300 METAR LRBM 060300Z AUTO 27005KT 5000 BR BKN006/// BKN008///
                        02/01 Q1025=
201902060330 METAR LRBM 060330Z AUTO 28003KT 260V330 3800 BR FEW002///
                        BKN005/// BKN011/// 01/01 Q1025=
201902060400 METAR LRBM 060400Z AUTO 28004KT 3800 BR SCT003/// BKN005///
                        01/01 Q1024=
201902060430 METAR LRBM 060430Z AUTO 28005KT 2100 R09/1600VP2000D VV002
                        01/01 Q1024=
201902060500 METAR COR LRBM 060500Z 27006KT 0500 R09/0500 -DZ FG OVC002
                        01/01 Q1024 R09/19//95=
201902060530 METAR COR LRBM 060530Z 28006KT 0700 R09/0700 -DZ FG OVC002
                        01/00 Q1025 R09/19//95=
201902060600 METAR LRBM 060600Z 27005KT 0500 R09/0500 -DZ FG OVC002 01/00
                        Q1025 R09/19//95=
201902060630 METAR LRBM 060630Z 27005KT 0400 R09/0400 FG OVC001 00/00
                        Q1025 R09/19//95=
201902060700 METAR LRBM 060700Z 27006KT 0400 R09/0400N FG OVC001 00/00
                        Q1025 R09/19//95=
201902060730 METAR LRBM 060730Z 26006KT 0250 R09/0300 FG OVC001 00/00
                        Q1025 R09/19//95=
201902060800 METAR LRBM 060800Z 25005KT 0300 R09/0350N FG OVC001 00/00
                        Q1025 R09/19//95=
201902060830 METAR LRBM 060830Z 26007KT 0300 R09/0400 FG OVC001 00/00
                        Q1025 R09/19//95=
201902060900 METAR LRBM 060900Z 27006KT 0250 R09/0300 OVC001 00/00 Q1025
                        R09/19//95=
201902060930 METAR LRBM 060930Z 26007KT 0300 R09/0400 FG OVC001 00/00
                        Q1026 R09/19//95=
201902061000 METAR LRBM 061000Z 27006KT 0400 R09/0500N FZFG OVC002 M00/M00
                        Q1025 R09/19//95=
201902061030 METAR LRBM 061030Z 27007KT 0500 R09/0600 FZFG OVC002 M00/M00
                        Q1025 R09/19//95=
201902061100 METAR LRBM 061100Z 26006KT 0800 R09/0900 FG BKN003 00/00
                        Q1025 R09/19//95=
201902061130 METAR LRBM 061130Z 28003KT 250V330 1500 BR BKN004 01/01 Q1025
                        R09/19//95=
201902061200 METAR LRBM 061200Z 11003KT 070V170 3000 BR SCT010 SCT040
                        02/02 Q1025 R09/19//95=
201902061230 METAR COR LRBM 061230Z 10006KT 5000 BR SCT014 SCT042 01/01
                        Q1025 R09/CLRD95=
201902061300 METAR LRBM 061300Z 09006KT 7000 FEW016 SCT050 02/02 Q1025=
201902061330 METAR LRBM 061330Z 09008KT 7000 FEW017 02/02 Q1024=
201902061400 METAR LRBM 061400Z 09008KT 9000 FEW018 02/02 Q1024=
201902061430 METAR LRBM 061430Z 08005KT CAVOK 02/02 Q1024=
201902061500 METAR LRBM 061500Z 10006KT CAVOK 02/01 Q1024=
201902061530 METAR LRBM 061530Z 10005KT CAVOK 01/01 Q1024=
201902061600 METAR LRBM 061600Z AUTO 10005KT 7000 FEW015/// SCT170///
                        01/00 Q1024=
201902061630 METAR LRBM 061630Z 10005KT CAVOK 01/00 Q1024=
201902061700 METAR LRBM 061700Z 08005KT CAVOK 00/M00 Q1024=
201902061730 METAR LRBM 061730Z AUTO 08007KT 4900 BR FEW020/// SCT160///
                        00/M00 Q1025=
201902061800 METAR LRBM 061800Z AUTO 03003KT 360V060 4200 BR FEW016///
                        SCT190/// M00/M00 Q1025=
201902061830 METAR LRBM 061830Z AUTO 02002KT 350V070 6000 FEW024/// SCT200///
                        00/M00 Q1025=
201902061900 METAR LRBM 061900Z AUTO 06002KT 4100 BR FEW015/// SCT180///
                        M00/M01 Q1025=
201902061930 METAR LRBM 061930Z AUTO 07006KT 5000 BR FEW018/// SCT170///
                        BKN240/// M00/M01 Q1025=
201902062000 METAR LRBM 062000Z AUTO 08002KT 050V110 5000 BR FEW014///
                        SCT180/// BKN240/// M01/M01 Q1026=
201902062030 METAR LRBM 062030Z AUTO 08003KT 6000 FEW017/// SCT200///
                        M01/M01 Q1026=
201902062100 METAR LRBM 062100Z AUTO 07003KT 5000 BR FEW025/// SCT190///
                        M01/M01 Q1026=
201902062130 METAR LRBM 062130Z AUTO 08004KT 7000 FEW019/// SCT190///
                        M01/M01 Q1026=
201902062200 METAR LRBM 062200Z AUTO 11004KT 7000 FEW007/// SCT170///
                        BKN230/// M02/M02 Q1026=
201902062230 METAR LRBM 062230Z AUTO VRB01KT 2800 R09/1100VP2000D FZFG
                        BKN001/// BKN240/// M03/M04 Q1026=
201902062300 METAR LRBM 062300Z AUTO VRB01KT 3600 R09/1100VP2000D BKN001///
                        M04/M04 Q1026=
201902062330 METAR LRBM 062330Z AUTO 20003KT 0450 R09/0550N VV001 M04/M05
                        Q1025=
201902070000 METAR LRBM 070000Z AUTO 18002KT 0400 R09/0450N VV001 M04/M05
                        Q1025=
201902070030 METAR LRBM 070030Z AUTO VRB01KT 0550 R09/0700N VV001 M04/M05
                        Q1025=
201902070100 METAR LRBM 070100Z AUTO 04001KT 0800 R09/1000N BKN001///
                        BKN003/// M05/M05 Q1025=
201902070130 METAR LRBM 070130Z AUTO 07003KT 6000 FEW034/// SCT180///
                        M04/M04 Q1025=
201902070200 METAR LRBM 070200Z AUTO VRB01KT 9000 FEW090/// SCT230///
                        M04/M04 Q1025=
201902070230 METAR LRBM 070230Z AUTO 09006KT 9999 SCT034/// BKN110///
                        M02/M03 Q1025=
201902070300 METAR LRBM 070300Z AUTO 06003KT 9999 SCT035/// BKN190///
                        M03/M03 Q1024=
201902070330 METAR LRBM 070330Z AUTO 09006KT 9999 SCT039/// BKN210///
                        M03/M03 Q1025=
201902070400 METAR LRBM 070400Z AUTO 08003KT 040V110 9999 FEW090/// SCT210///
                        M03/M03 Q1025=
201902070430 METAR LRBM 070430Z AUTO 12002KT 080V140 9999 FEW100/// SCT230///
                        M04/M05 Q1025=
201902070500 METAR LRBM 070500Z AUTO 08005KT 7000 FEW090/// SCT220///
                        M03/M04 Q1025=
201902070530 METAR LRBM 070530Z AUTO 07004KT 9999 FEW037/// SCT170///
                        M03/M04 Q1025=
201902070600 METAR LRBM 070600Z AUTO 05004KT 9999 BKN037/// BKN230///
                        M02/M03 Q1025=
201902070630 METAR LRBM 070630Z AUTO 10006KT 9999 BKN037/// M01/M03 Q1025=
201902070700 METAR LRBM 070700Z AUTO 10005KT 9999 BKN037/// BKN120///
                        M01/M02 Q1025=
201902070730 METAR LRBM 070730Z AUTO 09004KT 9999 FEW038/// SCT200///
                        00/M02 Q1025=
201902070800 METAR LRBM 070800Z AUTO 19002KT 9999 FEW055/// SCT240///
                        M00/M02 Q1025=
201902070830 METAR LRBM 070830Z 08002KT CAVOK 00/M01 Q1025=
201902070900 METAR LRBM 070900Z 08002KT 9999 FEW045 02/M01 Q1025=
201902070930 METAR LRBM 070930Z 09002KT 9999 SCT045 03/M01 Q1025=
201902071000 METAR LRBM 071000Z 08004KT 9999 BKN045 04/M01 Q1025=
201902071030 METAR LRBM 071030Z 08005KT 9999 BKN050 04/M02 Q1024=
201902071100 METAR LRBM 071100Z 10004KT 9999 BKN050 05/M01 Q1024=
201902071130 METAR LRBM 071130Z 11003KT 070V160 9999 FEW040 BKN050 05/M01
                        Q1024=
201902071200 METAR LRBM 071200Z 08004KT 9999 BKN048 05/M01 Q1024=
201902071230 METAR LRBM 071230Z 09004KT 9999 FEW043 05/M01 Q1023=
201902071300 METAR LRBM 071300Z 12004KT 090V150 9999 FEW043 05/M02 Q1023=
201902071330 METAR LRBM 071330Z 14003KT 9999 FEW045 05/M02 Q1023=
201902071400 METAR LRBM 071400Z 12004KT CAVOK 06/M01 Q1023=
201902071430 METAR LRBM 071430Z 11003KT 080V160 CAVOK 05/M02 Q1023=
201902071500 METAR LRBM 071500Z 14003KT CAVOK 05/M03 Q1023=
201902071530 METAR LRBM 071530Z 13002KT CAVOK 04/M02 Q1023=
201902071600 METAR LRBM 071600Z 01003KT CAVOK 02/M02 Q1022=
201902071630 METAR LRBM 071630Z 01003KT CAVOK 01/M02 Q1023=
201902071700 METAR LRBM 071700Z 01004KT CAVOK 01/M03 Q1022=
201902071730 METAR LRBM 071730Z 02003KT CAVOK 01/M03 Q1022=
201902071800 METAR LRBM 071800Z VRB01KT CAVOK 01/M03 Q1022=
201902071830 METAR LRBM 071830Z VRB02KT CAVOK 01/M03 Q1022=
201902071900 METAR LRBM 071900Z VRB01KT CAVOK 00/M03 Q1022=
201902071930 METAR LRBM 071930Z VRB01KT CAVOK M00/M03 Q1022=
201902072000 METAR LRBM 072000Z 00000KT CAVOK M00/M03 Q1022=
201902072030 METAR LRBM 072030Z 00000KT CAVOK M01/M03 Q1022=
201902072100 METAR LRBM 072100Z 00000KT CAVOK M01/M03 Q1022=
201902072130 METAR LRBM 072130Z 01002KT CAVOK M02/M03 Q1022=
201902072200 METAR LRBM 072200Z 36001KT CAVOK M02/M03 Q1022=
201902072230 METAR LRBM 072230Z AUTO 08002KT 040V110 9000 FEW024/// SCT190///
                        M02/M03 Q1022=
201902072300 METAR LRBM 072300Z AUTO 10001KT 8000 BKN039/// BKN240///
                        M02/M03 Q1022=
201902072330 METAR LRBM 072330Z AUTO 09001KT 9999 BKN038/// M01/M02 Q1022=
201902080000 METAR LRBM 080000Z AUTO 26001KT 6000 BKN037/// BKN100///
                        M02/M03 Q1022=
201902080030 METAR LRBM 080030Z AUTO 15001KT 7000 BKN036/// BKN210///
                        M01/M03 Q1022=
201902080100 METAR LRBM 080100Z AUTO 13001KT 8000 BKN036/// BKN190///
                        M02/M03 Q1022=
201902080130 METAR LRBM 080130Z AUTO 00000KT 9999 BKN037/// M01/M03 Q1021=
201902080200 METAR LRBM 080200Z AUTO 00000KT 9999 BKN036/// BKN220///
                        M01/M03 Q1021=
201902080230 METAR LRBM 080230Z AUTO 00000KT 8000 BKN036/// BKN240///
                        M02/M03 Q1021=
201902080300 METAR LRBM 080300Z 00000KT 9999 BKN036 M02/M03 Q1021=
201902080330 METAR LRBM 080330Z VRB01KT 9999 BKN036 M01/M03 Q1021=
201902080400 METAR LRBM 080400Z 12001KT 9999 BKN036 M01/M02 Q1021=
201902080430 METAR LRBM 080430Z 00000KT 9999 BKN037 M01/M03 Q1021=
201902080500 METAR LRBM 080500Z 00000KT 9999 BKN037 M01/M03 Q1021=
201902080530 METAR LRBM 080530Z 16001KT 9999 BKN037 M01/M03 Q1021=
201902080600 METAR LRBM 080600Z VRB01KT 9999 BKN037 M01/M03 Q1021=
201902080630 METAR LRBM 080630Z 00000KT 9999 BKN037 M01/M02 Q1022=
201902080700 METAR LRBM 080700Z 00000KT 9999 BKN036 M01/M02 Q1022=
201902080730 METAR LRBM 080730Z 20002KT 9999 BKN037 M01/M02 Q1022=
201902080800 METAR LRBM 080800Z 19002KT 9999 BKN038 M01/M02 Q1022=
201902080830 METAR LRBM 080830Z 00000KT 9999 BKN037 M00/M02 Q1022=
201902080900 METAR LRBM 080900Z VRB01KT 9999 BKN037 M00/M02 Q1022=
201902080930 METAR LRBM 080930Z 23002KT 9999 BKN035 00/M02 Q1022=
201902081000 METAR LRBM 081000Z 25003KT 9999 BKN036 01/M02 Q1022=
201902081030 METAR LRBM 081030Z 26005KT 9999 BKN037 01/M02 Q1022=
201902081100 METAR LRBM 081100Z 28005KT 240V310 9999 BKN035 01/M01 Q1022=
201902081130 METAR LRBM 081130Z 27006KT 9999 BKN034 02/M00 Q1022=
201902081200 METAR LRBM 081200Z 27008KT 9999 BKN033 03/M01 Q1022=
201902081230 METAR LRBM 081230Z 28007KT 9999 BKN034 04/M02 Q1022=
201902081300 METAR LRBM 081300Z 28008KT 9999 BKN036 04/M03 Q1022=
201902081330 METAR LRBM 081330Z 28008KT 9999 BKN039 04/M04 Q1022=
201902081400 METAR LRBM 081400Z 27007KT 9999 BKN039 04/M03 Q1022=
201902081430 METAR LRBM 081430Z 27008KT 9999 BKN039 03/M03 Q1022=
201902081500 METAR LRBM 081500Z 27006KT 9999 BKN038 03/M02 Q1021=
201902081530 METAR LRBM 081530Z AUTO 28006KT 9999 BKN038/// 03/M03 Q1021=
201902081600 METAR LRBM 081600Z AUTO 29007KT 9999 BKN038/// BKN240///
                        03/M03 Q1022=
201902081630 METAR LRBM 081630Z AUTO 28005KT 9999 BKN038/// BKN240///
                        03/M03 Q1022=
201902081700 METAR LRBM 081700Z AUTO 28005KT 9999 BKN038/// BKN240///
                        02/M03 Q1022=
201902081730 METAR LRBM 081730Z AUTO 29004KT 9999 BKN037/// 03/M04 Q1022=
201902081800 METAR LRBM 081800Z AUTO 30002KT 270V330 9999 SCT037/// BKN150///
                        ///// Q1022=
201902081830 METAR LRBM 081830Z AUTO 26004KT 9999 SCT037/// BKN065///
                        01/M02 Q1022=
201902081900 METAR LRBM 081900Z AUTO 03002KT 9999 SCT037/// BKN070///
                        01/M02 Q1022=
201902081930 METAR LRBM 081930Z AUTO 32002KT 280V360 9999 BKN037/// BKN220///
                        01/M02 Q1022=
201902082000 METAR LRBM 082000Z AUTO 09002KT 8000 SCT037/// BKN047///
                        BKN240/// 01/M02 Q1022=
201902082030 METAR LRBM 082030Z AUTO 05002KT 9999 BKN037/// 01/M01 Q1022=
201902082100 METAR LRBM 082100Z AUTO 06002KT 7000 SCT037/// BKN150///
                        01/M02 Q1023=
201902082130 METAR LRBM 082130Z AUTO 09003KT 9000 SCT037/// BKN043///
                        01/M02 Q1023=
201902082200 METAR LRBM 082200Z AUTO 08003KT 9000 SCT037/// BKN055///
                        BKN240/// 01/M02 Q1022=
201902082230 METAR LRBM 082230Z AUTO 08003KT 9999 BKN037/// BKN220///
                        01/M02 Q1022=
201902082300 METAR LRBM 082300Z AUTO 07002KT 9999 BKN037/// 01/M02 Q1022=
201902082330 METAR LRBM 082330Z AUTO 05002KT 9999 BKN037/// BKN110///
                        01/M02 Q1022=
201902090000 METAR LRBM 090000Z AUTO 36001KT 9000 BKN036/// 01/M02 Q1023=
201902090030 METAR LRBM 090030Z AUTO 04001KT 9000 BKN036/// BKN170///
                        01/M01 Q1023=
201902090100 METAR LRBM 090100Z AUTO 36002KT 9999 BKN036/// BKN230///
                        01/M02 Q1023=
201902090130 METAR LRBM 090130Z AUTO 02002KT 9999 BKN036/// BKN240///
                        01/M02 Q1022=
201902090200 METAR LRBM 090200Z AUTO 04001KT 9999 BKN036/// BKN240///
                        01/M02 Q1022=
201902090230 METAR LRBM 090230Z AUTO 09003KT 9999 BKN036/// BKN240///
                        01/M02 Q1022=
201902090300 METAR LRBM 090300Z AUTO 10004KT 9000 BKN036/// BKN240///
                        01/M02 Q1022=
201902090330 METAR LRBM 090330Z AUTO 08004KT 9999 BKN035/// BKN240///
                        00/M02 Q1022=
201902090400 METAR LRBM 090400Z AUTO 07003KT 9999 BKN036/// 01/M02 Q1022=
201902090430 METAR LRBM 090430Z AUTO 07003KT 9999 BKN035/// BKN190///
                        01/M02 Q1021=
201902090500 METAR LRBM 090500Z AUTO 06002KT 020V090 9999 SCT035/// BKN070///
                        00/M02 Q1021=
201902090530 METAR LRBM 090530Z AUTO 04002KT 9999 BKN035/// BKN240///
                        01/M02 Q1021=
201902090600 METAR LRBM 090600Z AUTO 01002KT 340V070 9999 BKN035/// 01/M02
                        Q1022=
201902090630 METAR LRBM 090630Z AUTO 07003KT 040V100 9999 BKN035/// BKN240///
                        01/M02 Q1022=
201902090700 METAR LRBM 090700Z AUTO VRB01KT 9000 BKN035/// BKN210///
                        01/M02 Q1022=
201902090730 METAR LRBM 090730Z AUTO 09003KT 9999 BKN036/// BKN240///
                        01/M02 Q1022=
201902090800 METAR LRBM 090800Z AUTO 06002KT 020V080 9999 BKN036/// BKN200///
                        02/M03 Q1022=
201902090830 METAR LRBM 090830Z AUTO 09003KT 9999 SCT036/// BKN055///
                        BKN240/// 03/M03 Q1022=
201902090900 METAR LRBM 090900Z AUTO 09004KT 9999 SCT037/// BKN045///
                        03/M03 Q1022=
201902090930 METAR LRBM 090930Z AUTO 09004KT 9999 BKN037/// 03/M04 Q1022=
201902091000 METAR LRBM 091000Z AUTO 08003KT 9999 BKN037/// BKN240///
                        03/M04 Q1022=
201902091030 METAR LRBM 091030Z AUTO VRB01KT 9999 BKN037/// BKN240///
                        03/M05 Q1022=
201902091100 METAR LRBM 091100Z AUTO 11002KT 9999 SCT037/// BKN170///
                        03/M05 Q1022=
201902091130 METAR LRBM 091130Z AUTO 18003KT 150V210 9999 BKN037/// 03/M05
                        Q1021=
201902091200 METAR LRBM 091200Z AUTO 18003KT 150V210 9999 BKN037/// BKN240///
                        ///// Q1021=
201902091230 METAR LRBM 091230Z AUTO 27003KT 220V320 9999 BKN036/// BKN230///
                        03/M05 Q1021=
201902091300 METAR LRBM 091300Z AUTO 23002KT 9999 SCT036/// BKN100///
                        03/M03 Q1021=
201902091330 METAR LRBM 091330Z AUTO 22003KT 9999 BKN035/// 03/M04 Q1021=
201902091400 METAR LRBM 091400Z AUTO 24004KT 9999 SCT035/// BKN130///
                        03/M04 Q1021=
201902091430 METAR LRBM 091430Z AUTO 22003KT 9999 BKN036/// 03/M04 Q1021=
201902091500 METAR LRBM 091500Z AUTO 17002KT 160V230 9999 SCT035/// BKN085///
                        03/M05 Q1021=
201902091530 METAR LRBM 091530Z AUTO VRB01KT 9999 SCT035/// BKN070///
                        03/M05 Q1021=
201902091600 METAR LRBM 091600Z AUTO 23004KT 170V270 9999 BKN033/// BKN240///
                        03/M04 Q1021=
201902091630 METAR LRBM 091630Z AUTO 00000KT 9999 FEW014/// SCT037///
                        BKN090/// 02/M03 Q1021=
201902091700 METAR LRBM 091700Z AUTO 05002KT 9999 SCT033/// BKN065///
                        02/M03 Q1021=
201902091730 METAR LRBM 091730Z AUTO 06004KT 9999 SCT032/// BKN042///
                        BKN240/// 02/M03 Q1021=
201902091800 METAR LRBM 091800Z AUTO 06004KT 9999 SCT032/// BKN150///
                        02/M03 Q1021=
201902091830 METAR LRBM 091830Z AUTO 02001KT 9999 SCT032/// BKN075///
                        02/M04 Q1022=
201902091900 METAR LRBM 091900Z AUTO 03002KT 350V080 9999 SCT032/// BKN080///
                        01/M03 Q1022=
201902091930 METAR LRBM 091930Z AUTO 00000KT 9999 SCT031/// BKN043///
                        ///// Q1022=
201902092000 METAR LRBM 092000Z AUTO 07002KT 9999 SCT031/// BKN050///
                        01/M02 Q1022=
201902092030 METAR LRBM 092030Z AUTO 00000KT 9999 SCT032/// BKN230///
                        01/M02 Q1022=
201902092100 METAR LRBM 092100Z AUTO 11003KT 9999 SCT032/// BKN060///
                        01/M02 Q1022=
201902092130 METAR LRBM 092130Z AUTO 10002KT 9000 SCT032/// BKN038///
                        BKN220/// 01/M02 Q1022=
201902092200 METAR LRBM 092200Z AUTO 07003KT 9000 FEW018/// SCT033///
                        BKN048/// 01/M03 Q1022=
201902092230 METAR LRBM 092230Z AUTO 08003KT 7000 SCT032/// BKN040///
                        BKN240/// 01/M02 Q1022=
201902092300 METAR LRBM 092300Z AUTO 06003KT 9000 FEW025/// SCT034///
                        BKN065/// 01/M02 Q1022=
201902092330 METAR LRBM 092330Z AUTO 08003KT 050V110 9999 FEW016/// SCT034///
                        BKN043/// 01/M02 Q1022=
201902100000 METAR LRBM 100000Z AUTO 11004KT 080V160 9999 SCT034/// BKN042///
                        01/M02 Q1022=
201902100030 METAR LRBM 100030Z AUTO 14003KT 9999 SCT034/// BKN050///
                        01/M03 Q1022=
201902100100 METAR LRBM 100100Z AUTO 08002KT 9999 BKN034/// BKN240///
                        00/M02 Q1022=
201902100130 METAR LRBM 100130Z AUTO 00000KT 9999 BKN033/// 00/M02 Q1022=
201902100200 METAR LRBM 100200Z AUTO 08002KT 9000 SCT033/// BKN055///
                        00/M02 Q1022=
201902100230 METAR LRBM 100230Z AUTO 13001KT 9000 SCT033/// BKN140///
                        M00/M02 Q1022=
201902100300 METAR LRBM 100300Z AUTO 00000KT 9999 SCT033/// BKN200///
                        M00/M02 Q1022=
201902100330 METAR LRBM 100330Z AUTO 18001KT 7000 FEW033/// SCT050///
                        BKN240/// M01/M02 Q1022=
201902100400 METAR LRBM 100400Z AUTO VRB01KT 7000 FEW026/// SCT043///
                        BKN200/// M01/M02 Q1022=
201902100430 METAR LRBM 100430Z AUTO 00000KT 7000 FEW027/// SCT050///
                        BKN220/// M01/M03 Q1022=
201902100500 METAR LRBM 100500Z AUTO VRB01KT 7000 SCT032/// BKN047///
                        M01/M03 Q1022=
201902100530 METAR LRBM 100530Z AUTO 00000KT 6000 FEW031/// SCT120///
                        BKN240/// M02/M03 Q1022=
201902100600 METAR LRBM 100600Z AUTO 00000KT 5000 SCT031/// BKN160///
                        M02/M03 Q1022=
201902100630 METAR LRBM 100630Z AUTO 09004KT 5000 FEW029/// SCT038///
                        BKN200/// M01/M02 Q1022=
201902100700 METAR LRBM 100700Z AUTO 10003KT 8000 SCT029/// BKN037///
                        M00/M02 Q1022=
201902100730 METAR LRBM 100730Z AUTO 08002KT 030V100 9999 BKN029/// 00/M02
                        Q1022=
201902100800 METAR LRBM 100800Z AUTO 11003KT 8000 SCT029/// BKN180///
                        01/M02 Q1022=
201902100830 METAR LRBM 100830Z AUTO 10005KT 9999 FEW029/// SCT180///
                        02/M02 Q1022=
201902100900 METAR LRBM 100900Z AUTO 11004KT 9999 FEW021/// SCT200///
                        03/M02 Q1022=
201902100930 METAR LRBM 100930Z AUTO 11005KT 080V140 9999 FEW024/// SCT200///
                        03/M02 Q1022=
201902101000 METAR LRBM 101000Z AUTO 10008KT 9999 FEW020/// SCT190///
                        04/M03 Q1021=
201902101030 METAR LRBM 101030Z AUTO 11009KT 9999 FEW016/// SCT170///
                        BKN240/// 04/M01 Q1021=
201902101100 METAR LRBM 101100Z AUTO 10009KT 9999 FEW028/// SCT220///
                        04/M03 Q1020=
201902101130 METAR LRBM 101130Z AUTO 11009KT 9999 FEW043/// SCT210///
                        05/M02 Q1019=
201902101200 METAR LRBM 101200Z AUTO 12008KT 090V150 9999 FEW031/// SCT200///
                        05/M02 Q1018=
201902101230 METAR LRBM 101230Z AUTO 12007KT 9999 FEW024/// SCT220///
                        06/M02 Q1018=
201902101300 METAR LRBM 101300Z AUTO 12006KT 9999 FEW017/// SCT240///
                        06/M02 Q1017=
201902101330 METAR LRBM 101330Z AUTO 12005KT 9999 FEW019/// SCT170///
                        BKN240/// 06/M03 Q1017=
201902101400 METAR LRBM 101400Z AUTO 13004KT 9999 FEW026/// SCT230///
                        06/M02 Q1017=
201902101430 METAR LRBM 101430Z AUTO 15003KT 110V170 9999 FEW017/// SCT200///
                        06/M02 Q1016=
201902101500 METAR LRBM 101500Z AUTO 19002KT 9999 FEW017/// SCT210///
                        05/M01 Q1016=
201902101530 METAR LRBM 101530Z AUTO 12003KT 090V150 9999 FEW014/// SCT180///
                        04/M02 Q1016=
201902101600 METAR LRBM 101600Z AUTO 11004KT 9999 FEW017/// SCT190///
                        04/M02 Q1016=
201902101630 METAR LRBM 101630Z AUTO 06004KT 9999 FEW019/// SCT200///
                        03/M03 Q1016=
201902101700 METAR LRBM 101700Z AUTO 05006KT 9999 FEW014/// SCT190///
                        03/M02 Q1015=
201902101730 METAR LRBM 101730Z AUTO 06005KT 9999 FEW018/// SCT230///
                        03/M02 Q1015=
201902101800 METAR LRBM 101800Z 08005KT CAVOK 02/M02 Q1014=
201902101830 METAR LRBM 101830Z 09006KT CAVOK 02/M02 Q1014=
201902101900 METAR LRBM 101900Z 06004KT CAVOK 02/M02 Q1014=
201902101930 METAR LRBM 101930Z 08007KT 040V100 CAVOK 02/M02 Q1013=
201902102000 METAR LRBM 102000Z 09005KT CAVOK 01/M02 Q1013=
201902102030 METAR LRBM 102030Z 07009KT CAVOK 04/M03 Q1012=
201902102100 METAR LRBM 102100Z 07006KT 9999 FEW035 05/M03 Q1012=
201902102130 METAR LRBM 102130Z 07006KT 9999 FEW040 04/M02 Q1011=
201902102200 METAR LRBM 102200Z 09006KT 9999 FEW033 04/M02 Q1011=
201902102230 METAR LRBM 102230Z AUTO 08007KT 9999 FEW021/// SCT180///
                        04/M02 Q1010=
201902102300 METAR LRBM 102300Z AUTO 07004KT 9999 FEW031/// SCT180///
                        04/M02 Q1010=
201902102330 METAR LRBM 102330Z AUTO 07005KT 9999 FEW032/// SCT150///
                        BKN240/// 04/M01 Q1010=
201902110000 METAR LRBM 110000Z AUTO 07006KT 9999 -SHRA FEW016/// SCT055///
                        BKN240/// 04/M02 Q1009=
201902110030 METAR LRBM 110030Z AUTO 08003KT 9999 FEW037/// SCT160///
                        04/M02 Q1009 REDZ=
201902110100 METAR LRBM 110100Z AUTO 08005KT 9999 FEW018/// SCT200///
                        04/M01 Q1009=
201902110130 METAR LRBM 110130Z AUTO 06006KT 9999 FEW015/// SCT160///
                        BKN240/// 04/M01 Q1008 RERA=
201902110200 METAR LRBM 110200Z AUTO 08009KT 9999 FEW028/// SCT170///
                        BKN240/// 05/M02 Q1007 RERA=
201902110230 METAR LRBM 110230Z AUTO 09008KT 9999 FEW036/// SCT140///
                        BKN240/// 05/M01 Q1007 REDZ=
201902110300 METAR LRBM 110300Z 08009KT 9999 BKN050 05/M01 Q1007=
201902110330 METAR LRBM 110330Z 09007KT 9999 BKN050 04/00 Q1006=
201902110400 METAR LRBM 110400Z 10005KT 9999 BKN046 05/M00 Q1006=
201902110430 METAR LRBM 110430Z 08003KT 040V100 9999 -RA FEW018 BKN042
                        04/01 Q1006=
201902110500 METAR LRBM 110500Z 07006KT 9999 -RA FEW018 BKN037 03/01 Q1006
                        R09/29//95=
201902110530 METAR LRBM 110530Z 06006KT 9999 -RA BKN035 04/01 Q1006 R09/29//95=
201902110600 METAR LRBM 110600Z 06006KT 9999 -RA BKN036 04/01 Q1006 R09/29//95=
201902110630 METAR LRBM 110630Z 06005KT 9999 BKN036 04/01 Q1006 R09/29//95=
201902110700 METAR LRBM 110700Z 07006KT 9999 BKN036 04/01 Q1006 R09/29//95=
201902110730 METAR LRBM 110730Z 08004KT 9999 BKN036 04/02 Q1006 R09/29//95=
201902110800 METAR LRBM 110800Z 09006KT 9999 BKN036 05/02 Q1006 R09/29//95=
201902110830 METAR LRBM 110830Z 10005KT 9999 BKN036 05/01 Q1005 R09/29//95=
201902110900 METAR LRBM 110900Z 08005KT 9999 BKN034 05/01 Q1005 R09/29//95=
201902110930 METAR LRBM 110930Z 07003KT 9999 BKN034 05/01 Q1005 R09/29//95=
201902111000 METAR LRBM 111000Z VRB02KT 9999 -RA BKN034 05/01 Q1005 R09/29//95=
201902111030 METAR LRBM 111030Z VRB01KT 9999 -RA BKN030 05/02 Q1005 R09/29//95=
201902111100 METAR LRBM 111100Z VRB01KT 9999 -RA BKN028 05/02 Q1005 R09/29//95=
201902111130 METAR LRBM 111130Z VRB01KT 9999 BKN028 05/03 Q1005 R09/29//95=
201902111200 METAR LRBM 111200Z 00000KT 9999 -RA FEW024 BKN030 05/02 Q1004
                        R09/29//95=
201902111230 METAR LRBM 111230Z 00000KT 9999 -RA FEW024 BKN030 05/03 Q1004
                        R09/29//95=
201902111300 METAR LRBM 111300Z 00000KT 9999 -RA FEW025 BKN030 05/02 Q1004
                        R09/29//95=
201902111330 METAR LRBM 111330Z 35001KT 9999 -RA SCT023 OVC032 04/02 Q1004
                        R09/29//95=
201902111400 METAR LRBM 111400Z 36004KT 9999 -RA SCT024 OVC032 04/02 Q1005
                        R09/29//95=
201902111430 METAR LRBM 111430Z 36003KT 320V050 8000 -RA FEW006 SCT020
                        OVC030 04/03 Q1005 R09/29//95=
201902111500 METAR LRBM 111500Z VRB02KT 6000 -RA FEW005 BKN020 OVC030
                        04/02 Q1006 R09/29//95=
201902111530 METAR LRBM 111530Z AUTO 35003KT 320V030 5000 RA VV011 03/02
                        Q1006=
201902111600 METAR LRBM 111600Z AUTO 36004KT 7000 -RA SCT008/// BKN010///
                        BKN039/// 03/02 Q1006=
201902111630 METAR LRBM 111630Z AUTO 02003KT 350V060 8000 FEW006/// SCT010///
                        BKN022/// 03/01 Q1006=
201902111700 METAR LRBM 111700Z AUTO 01003KT 8000 FEW006/// SCT010///
                        BKN021/// 03/01 Q1007=
201902111730 METAR LRBM 111730Z AUTO 02002KT 6000 SCT006/// BKN018///
                        BKN060/// 02/01 Q1007=
201902111800 METAR LRBM 111800Z AUTO VRB01KT 6000 FEW008/// SCT020///
                        BKN065/// 03/02 Q1007=
201902111830 METAR LRBM 111830Z AUTO 01002KT 8000 FEW004/// SCT017///
                        BKN020/// 03/02 Q1007=
201902111900 METAR LRBM 111900Z AUTO VRB01KT 8000 DZ FEW006/// SCT017///
                        BKN085/// 03/01 Q1007=
201902111930 METAR LRBM 111930Z AUTO 31002KT 5000 FEW016/// SCT032///
                        BKN240/// 03/02 Q1007 REDZ=
201902112000 METAR LRBM 112000Z AUTO 28004KT 4000 FEW015/// SCT028///
                        BKN050/// 03/02 Q1007 REDZ=
201902112030 METAR LRBM 112030Z AUTO 28007KT 5000 BR SCT005/// BKN025///
                        BKN080/// 03/02 Q1007=
201902112100 METAR LRBM 112100Z AUTO 27007KT 3900 SCT001/// BKN004///
                        BKN085/// 03/02 Q1007=
201902112130 METAR LRBM 112130Z AUTO 27011KT 5000 FEW002/// SCT190///
                        03/02 Q1007=
201902112200 METAR LRBM 112200Z AUTO 27010KT 9000 FEW021/// SCT190///
                        03/02 Q1007=
201902112230 METAR LRBM 112230Z AUTO 28010KT 9999 FEW028/// SCT200///
                        04/02 Q1007=
201902112300 METAR LRBM 112300Z AUTO 28010KT 9999 FEW030/// SCT200///
                        04/02 Q1007=
201902112330 METAR LRBM 112330Z AUTO 27009KT 9999 FEW023/// SCT210///
                        04/01 Q1008=
201902120000 METAR LRBM 120000Z AUTO 28010KT 9999 FEW020/// SCT210///
                        04/01 Q1008=
201902120030 METAR LRBM 120030Z AUTO 27009KT 9999 FEW028/// SCT230///
                        03/01 Q1008=
201902120100 METAR LRBM 120100Z AUTO 28009KT 9999 UP FEW029/// SCT220///
                        03/01 Q1008=
201902120130 METAR LRBM 120130Z AUTO 28008KT 9999 FEW026/// SCT190///
                        03/00 Q1008 REUP=
201902120200 METAR LRBM 120200Z AUTO 28007KT 9999 FEW035/// SCT210///
                        03/00 Q1009=
201902120230 METAR LRBM 120230Z AUTO 28007KT 9999 FEW025/// SCT210///
                        03/00 Q1009=
201902120300 METAR LRBM 120300Z AUTO 28005KT 9999 -SHRA FEW018/// SCT230///
                        03/M00 Q1009=
201902120330 METAR LRBM 120330Z AUTO 27008KT 9999 FEW029/// SCT210///
                        03/M00 Q1009 REDZ=
201902120400 METAR LRBM 120400Z AUTO 28006KT 9999 FEW029/// SCT210///
                        03/M00 Q1009=
201902120430 METAR LRBM 120430Z AUTO 28005KT 9999 FEW016/// SCT240///
                        03/M00 Q1009=
201902120500 METAR LRBM 120500Z 28008KT 9999 FEW040 03/M00 Q1010 R99/29//95=
201902120530 METAR LRBM 120530Z 29006KT 9999 SCT040 02/M00 Q1010 R09/19//95=
201902120600 METAR LRBM 120600Z 29007KT 9999 SCT040 03/M01 Q1010 R09/19//95=
201902120630 METAR LRBM 120630Z 28009KT 9999 BKN038 03/M01 Q1011 R09/19//95=
201902120700 METAR LRBM 120700Z 29010KT 9999 BKN040 03/M01 Q1011 R09/19//95=
201902120730 METAR LRBM 120730Z 28009KT 9999 BKN038 03/M01 Q1011 R09/19//95=
201902120800 METAR LRBM 120800Z 29009KT 9999 BKN038 03/M01 Q1012 R09/19//95=
201902120830 METAR LRBM 120830Z 29010KT 9999 SCT040 04/M00 Q1012 R09/19//95=
201902120900 METAR LRBM 120900Z 28014KT 9999 BKN040 05/M00 Q1012 R09/19//95=
201902120930 METAR LRBM 120930Z 29012KT 9999 BKN040 04/M00 Q1012 R09/CLRD//=
201902121000 METAR LRBM 121000Z 28012KT 9999 FEW019 BKN038 04/00 Q1013=
201902121030 METAR LRBM 121030Z 28016KT 9999 SCT021 BKN037 03/M01 Q1013=
201902121100 METAR LRBM 121100Z 29012KT 9999 FEW023 BKN040 03/M02 Q1013=
201902121130 METAR LRBM 121130Z 31012KT 280V340 9999 -SN BKN040 03/M02
                        Q1013=
201902121200 METAR LRBM 121200Z 30010KT 9999 VCSH SCT037CB BKN043 03/M03
                        Q1013=
201902121230 METAR COR LRBM 121230Z 29010KT 9999 FEW037TCU SCT043 04/M04
                        Q1014=
201902121300 METAR LRBM 121300Z 29012KT 9999 FEW038TCU SCT043 04/M05 Q1014=
201902121330 METAR LRBM 121330Z 29010KT 260V320 9999 BKN043 04/M05 Q1015=
201902121400 METAR LRBM 121400Z 31012KT 9999 BKN045 04/M06 Q1015=
201902121430 METAR LRBM 121430Z 31013KT 280V340 9999 SCT048 04/M08 Q1016=
201902121500 METAR LRBM 121500Z 30007KT 9999 FEW048 04/M08 Q1016=
201902121530 METAR LRBM 121530Z 31007KT 270V330 9999 SCT045 03/M08 Q1017=
201902121600 METAR LRBM 121600Z 33007KT 310V010 9999 BKN045 03/M08 Q1018=
201902121630 METAR LRBM 121630Z 30006KT 260V330 9999 FEW048 03/M08 Q1018=
201902121700 METAR LRBM 121700Z 27008KT 9999 FEW050 02/M06 Q1019=
201902121730 METAR LRBM 121730Z AUTO 28010KT 9999 FEW055/// SCT190///
                        01/M04 Q1020=
201902121800 METAR LRBM 121800Z AUTO 27009KT 9999 FEW050/// SCT180///
                        BKN240/// 01/M04 Q1020=
201902121830 METAR LRBM 121830Z AUTO 28009KT 9999 FEW045/// SCT210///
                        00/M04 Q1020=
201902121900 METAR LRBM 121900Z AUTO 28011KT 9999 FEW075/// SCT230///
                        M00/M04 Q1021=
201902121930 METAR LRBM 121930Z AUTO 27011KT 9999 FEW055/// SCT230///
                        M00/M04 Q1021=
201902122000 METAR LRBM 122000Z AUTO 27011KT 9999 FEW055/// SCT230///
                        M00/M04 Q1022=
201902122030 METAR LRBM 122030Z AUTO 28013KT 9999 FEW090/// SCT230///
                        M00/M03 Q1022=
201902122100 METAR LRBM 122100Z AUTO 28009KT 9999 FEW085/// SCT230///
                        M01/M03 Q1023=
201902122130 METAR LRBM 122130Z AUTO 19002KT 130V290 9999 FEW070/// SCT210///
                        M01/M03 Q1023=
201902122200 METAR LRBM 122200Z AUTO 28004KT 9999 FEW090/// SCT220///
                        M01/M03 Q1024=
201902122230 METAR LRBM 122230Z AUTO 26006KT 9999 FEW100/// SCT230///
                        M02/M03 Q1024=
201902122300 METAR LRBM 122300Z AUTO 28008KT 9999 FEW100/// SCT200///
                        M01/M03 Q1024=
201902122330 METAR LRBM 122330Z AUTO 28007KT 9999 FEW070/// SCT210///
                        M01/M03 Q1025=
201902130000 METAR LRBM 130000Z AUTO 28007KT 9999 FEW060/// SCT200///
                        ///// Q1025=
201902130030 METAR LRBM 130030Z AUTO 29004KT 250V320 9999 FEW100/// SCT230///
                        M01/M03 Q1026=
201902130100 METAR LRBM 130100Z AUTO 28005KT 9999 FEW012/// SCT200///
                        M01/M03 Q1026=
201902130130 METAR LRBM 130130Z AUTO 26005KT 9999 -SN FEW014/// SCT080///
                        BKN240/// M01/M03 Q1026=
201902130200 METAR LRBM 130200Z AUTO VRB01KT 8000 -SN FEW010/// SCT030///
                        BKN130/// M02/M03 Q1027=
201902130230 METAR LRBM 130230Z AUTO 19002KT 160V240 9999 FEW020/// SCT100///
                        BKN240/// M01/M03 Q1027 RESN=
201902130300 METAR LRBM 130300Z AUTO 10003KT 050V130 9999 FEW050/// SCT190///
                        M02/M04 Q1027 RESN=
201902130330 METAR LRBM 130330Z AUTO 00000KT 9999 SCT040/// BKN120///
                        M02/M03 Q1028=
201902130400 METAR LRBM 130400Z AUTO 00000KT 9999 FEW033/// SCT240///
                        M02/M04 Q1028=
201902130430 METAR LRBM 130430Z AUTO 32002KT 9999 FEW060/// SCT210///
                        M03/M04 Q1029=
201902130500 METAR LRBM 130500Z VRB02KT 9999 FEW004 SCT036 M03/M04 Q1029=
201902130530 METAR LRBM 130530Z VRB02KT 9999 FEW010 M03/M04 Q1029=
201902130600 METAR LRBM 130600Z 00000KT 9999 BKN008 M03/M04 Q1030=
201902130630 METAR LRBM 130630Z 32002KT 9999 BKN008 M02/M03 Q1031=
201902130700 METAR LRBM 130700Z 30001KT 9999 FEW008 M02/M03 Q1031=
201902130730 METAR LRBM 130730Z 28004KT 9999 FEW008 M01/M03 Q1031=
201902130800 METAR LRBM 130800Z VRB02KT 9999 FEW010 00/M03 Q1031=
201902130830 METAR LRBM 130830Z 08003KT 020V120 9999 SCT010 M00/M03 Q1031=
201902130900 METAR LRBM 130900Z 07003KT 030V110 9999 FEW012 00/M03 Q1032=
201902130930 METAR LRBM 130930Z VRB02KT 9999 FEW014 01/M03 Q1032=
201902131000 METAR LRBM 131000Z 15002KT 9999 FEW014 01/M03 Q1032=
201902131030 METAR LRBM 131030Z 22003KT 150V270 CAVOK 02/M03 Q1032=
201902131100 METAR LRBM 131100Z 27010KT CAVOK 02/M05 Q1032=
201902131130 METAR LRBM 131130Z 26011KT 9999 FEW025 02/M05 Q1033=
201902131200 METAR LRBM 131200Z 27010KT 9999 FEW030 03/M04 Q1032=
201902131230 METAR LRBM 131230Z 27010KT CAVOK 03/M05 Q1032=
201902131300 METAR LRBM 131300Z 27008KT CAVOK 03/M05 Q1032=
201902131330 METAR LRBM 131330Z 26008KT CAVOK 03/M04 Q1032=
201902131400 METAR LRBM 131400Z 26006KT 240V300 CAVOK 03/M05 Q1032=
201902131430 METAR LRBM 131430Z 25006KT CAVOK 03/M04 Q1032=
201902131500 METAR LRBM 131500Z 24004KT CAVOK 03/M04 Q1032=
201902131530 METAR LRBM 131530Z 23004KT 9999 BKN058 02/M03 Q1032=
201902131600 METAR LRBM 131600Z 30002KT 9999 BKN056 03/M04 Q1032=
201902131630 METAR LRBM 131630Z 29001KT 9999 SCT056 02/M04 Q1032=
201902131700 METAR LRBM 131700Z 00000KT 9999 SCT056 01/M03 Q1032=
201902131730 METAR LRBM 131730Z AUTO 03002KT 350V070 9999 FEW017/// SCT085///
                        BKN230/// 01/M03 Q1032=
201902131800 METAR LRBM 131800Z AUTO 00000KT 9999 FEW017/// SCT110///
                        01/M03 Q1032=
201902131830 METAR LRBM 131830Z AUTO VRB01KT 9999 FEW036/// SCT160///
                        01/M03 Q1032=
201902131900 METAR LRBM 131900Z AUTO 13002KT 070V190 9999 FEW017/// SCT180///
                        01/M03 Q1032=
201902131930 METAR LRBM 131930Z AUTO 07002KT 030V090 9999 FEW018/// SCT120///
                        BKN240/// 01/M03 Q1032=
201902132000 METAR LRBM 132000Z AUTO 04003KT 020V080 9999 FEW020/// SCT170///
                        01/M03 Q1032=
201902132030 METAR LRBM 132030Z AUTO 06002KT 9999 FEW031/// SCT150///
                        BKN230/// 01/M03 Q1032=
201902132100 METAR LRBM 132100Z AUTO 05003KT 9999 FEW027/// SCT055///
                        BKN230/// 01/M03 Q1033=
201902132130 METAR LRBM 132130Z AUTO 11004KT 9999 FEW033/// SCT039///
                        BKN070/// 01/M03 Q1032=
201902132200 METAR LRBM 132200Z AUTO 05002KT 340V080 9999 SCT028/// BKN043///
                        01/M02 Q1032=
201902132230 METAR LRBM 132230Z AUTO 10002KT 9999 FEW027/// BKN033///
                        01/M02 Q1032=
201902132300 METAR LRBM 132300Z AUTO 05002KT 9999 FEW029/// SCT047///
                        BKN130/// 01/M02 Q1032=
201902132330 METAR LRBM 132330Z AUTO 00000KT 9999 SCT024/// BKN036///
                        01/M02 Q1032=
201902140000 METAR LRBM 140000Z AUTO VRB01KT 9999 SCT023/// BKN085///
                        01/M02 Q1032=
201902140030 METAR LRBM 140030Z AUTO 35002KT 9999 FEW008/// SCT022///
                        01/M02 Q1032=
201902140100 METAR LRBM 140100Z AUTO 07003KT 9999 FEW009/// SCT040///
                        01/M01 Q1032=
201902140130 METAR LRBM 140130Z AUTO 06003KT 010V090 9000 FEW008/// SCT018///
                        BKN050/// ///// Q1031=
201902140200 METAR LRBM 140200Z AUTO 06003KT 9999 FEW008/// SCT042///
                        01/M01 Q1031 REDZ=
201902140230 METAR LRBM 140230Z AUTO 02001KT 9999 SCT017/// 01/M01 Q1031=
201902140300 METAR LRBM 140300Z AUTO 33001KT 8000 -SHRA FEW005/// SCT017///
                        BKN100/// 01/M01 Q1031=
201902140330 METAR LRBM 140330Z AUTO 30003KT 250V330 8000 FEW013/// SCT016///
                        01/M01 Q1031 REDZ=
201902140400 METAR LRBM 140400Z AUTO 28002KT 9999 BKN014/// 01/M01 Q1031=
201902140430 METAR LRBM 140430Z AUTO 27003KT 9000 BKN013/// BKN039///
                        01/M01 Q1031=
201902140500 METAR LRBM 140500Z AUTO 25004KT 9000 BKN011/// BKN037///
                        01/M01 Q1031 REUP=
201902140530 METAR LRBM 140530Z AUTO 28006KT 9000 BKN010/// BKN024///
                        01/M01 Q1032 REUP=
201902140600 METAR LRBM 140600Z AUTO 18002KT 140V240 8000 BKN011/// BKN055///
                        01/M01 Q1032=
201902140630 METAR LRBM 140630Z AUTO 27002KT 210V340 8000 BKN010/// BKN035///
                        01/M00 Q1032=
201902140700 METAR LRBM 140700Z AUTO 27005KT 8000 SCT010/// BKN013///
                        BKN075/// 01/M00 Q1032=
201902140730 METAR LRBM 140730Z AUTO 27006KT 7000 BKN011/// BKN050///
                        01/M00 Q1032=
201902140800 METAR LRBM 140800Z AUTO 28005KT 8000 BKN011/// BKN025///
                        01/M00 Q1032=
201902140830 METAR LRBM 140830Z AUTO 28005KT 250V320 7000 FEW009/// BKN011///
                        02/M00 Q1032=
201902140900 METAR LRBM 140900Z AUTO 28006KT 250V310 7000 SCT008/// BKN010///
                        BKN055/// 02/M00 Q1032=
201902140930 METAR LRBM 140930Z AUTO 28006KT 7000 BKN008/// BKN024///
                        02/M00 Q1032=
201902141000 METAR LRBM 141000Z 28007KT 6000 OVC009 02/M00 Q1032=
201902141030 METAR LRBM 141030Z 28007KT 6000 OVC009 02/00 Q1032=
201902141100 METAR LRBM 141100Z 27009KT 5000 BR SCT010 OVC030 02/00 Q1031=
201902141130 METAR LRBM 141130Z 27010KT 6000 BKN011 OVC039 02/00 Q1031=
201902141200 METAR LRBM 141200Z 28009KT 6000 SCT009 BKN035 03/00 Q1031=
201902141230 METAR LRBM 141230Z 28009KT 6000 FEW011 SCT060 03/00 Q1030=
201902141300 METAR LRBM 141300Z 28009KT 7000 SCT030 03/00 Q1031=
201902141330 METAR LRBM 141330Z 27009KT 8000 FEW030 03/00 Q1030=
201902141400 METAR LRBM 141400Z 27008KT 9000 FEW022 03/00 Q1030=
201902141430 METAR LRBM 141430Z 26008KT 9000 FEW020 03/00 Q1030=
201902141500 METAR LRBM 141500Z 25008KT 9000 FEW020 03/00 Q1030=
201902141530 METAR LRBM 141530Z 24008KT 8000 FEW020 02/00 Q1030=
201902141600 METAR LRBM 141600Z 24008KT 7000 FEW030 02/00 Q1030=
201902141630 METAR LRBM 141630Z 24009KT 8000 FEW030 02/M00 Q1030=
201902141700 METAR LRBM 141700Z 26008KT 8000 FEW030 01/M01 Q1030=
201902141730 METAR LRBM 141730Z 27006KT 7000 FEW030 01/M00 Q1030=
201902141800 METAR LRBM 141800Z 31004KT 280V010 7000 FEW030 01/M01 Q1030=
201902141830 METAR LRBM 141830Z 03002KT 7000 FEW043 01/M01 Q1030=
201902141900 METAR LRBM 141900Z 10003KT 6000 FEW040 01/M01 Q1031=
201902141930 METAR LRBM 141930Z 08003KT 6000 FEW025 00/M01 Q1030=
201902142000 METAR LRBM 142000Z 08003KT 040V120 5000 BR FEW020 00/M01
                        Q1030=
201902142030 METAR LRBM 142030Z 00000KT 5000 BR FEW020 00/M01 Q1030=
201902142100 METAR LRBM 142100Z 09001KT 5000 BR FEW020 00/M01 Q1030=
201902142130 METAR LRBM 142130Z 29001KT 5000 BR FEW015 00/M01 Q1031=
201902142200 METAR LRBM 142200Z 32001KT 4000 BR FEW013 00/M01 Q1031=
201902142230 METAR LRBM 142230Z AUTO VRB01KT 3600 FEW012/// SCT090///
                        BKN240/// 00/M01 Q1031=
201902142300 METAR LRBM 142300Z AUTO 01002KT 330V040 4300 BR FEW015///
                        SCT170/// BKN240/// 00/M01 Q1031=
201902142330 METAR LRBM 142330Z AUTO 07001KT 4300 BR FEW026/// SCT090///
                        BKN220/// 00/M01 Q1031=
201902150000 METAR LRBM 150000Z AUTO 16002KT 2900 BR FEW032/// SCT075///
                        BKN240/// M00/M01 Q1031=
201902150030 METAR LRBM 150030Z AUTO 00000KT 3200 BR FEW018/// SCT130///
                        BKN230/// M00/M01 Q1031=
201902150100 METAR LRBM 150100Z AUTO 02002KT 340V070 3200 BR FEW015///
                        SCT160/// BKN240/// M00/M01 Q1031=
201902150130 METAR LRBM 150130Z AUTO 05002KT 4600 BR FEW016/// SCT140///
                        BKN230/// M00/M01 Q1030=
201902150200 METAR LRBM 150200Z AUTO 06002KT 360V100 3600 FEW020/// SCT095///
                        BKN210/// M00/M01 Q1030=
201902150230 METAR LRBM 150230Z AUTO 29002KT 190V340 5000 FEW024/// SCT130///
                        BKN230/// 00/M01 Q1030=
201902150300 METAR LRBM 150300Z 19002KT 6000 FEW002 BKN043 M00/M01 Q1030=
201902150330 METAR LRBM 150330Z 08001KT 7000 FEW016 BKN040 M00/M01 Q1030=
201902150400 METAR LRBM 150400Z 13002KT 8000 BKN040 00/M01 Q1031=
201902150430 METAR LRBM 150430Z 32002KT 7000 BKN040 M00/M01 Q1030=
201902150500 METAR LRBM 150500Z 13002KT 7000 BKN040 M00/M01 Q1031=
201902150530 METAR LRBM 150530Z 08003KT 4000 BR OVC043 M00/M01 Q1031=
201902150600 METAR LRBM 150600Z VRB01KT 2500 BR BKN045 M00/M01 Q1031=
201902150630 METAR LRBM 150630Z 09002KT 2800 BR SCT053 M00/M01 Q1032=
201902150700 METAR LRBM 150700Z 06004KT 4400 BR SCT055 01/M00 Q1032=
201902150730 METAR LRBM 150730Z VRB02KT 5000 BR FEW003 02/00 Q1032=
201902150800 METAR LRBM 150800Z VRB01KT 6000 NSC 03/00 Q1032=
201902150830 METAR LRBM 150830Z VRB01KT 6000 FEW050 03/00 Q1032=
201902150900 METAR LRBM 150900Z 26002KT 7000 FEW050 04/01 Q1032=
201902150930 METAR LRBM 150930Z 23003KT 180V310 8000 FEW048 06/02 Q1033=
201902151000 METAR LRBM 151000Z 22003KT 200V260 9999 SCT050 06/01 Q1033=
201902151030 METAR LRBM 151030Z VRB01KT 9999 SCT055 07/00 Q1032=
201902151100 METAR LRBM 151100Z 23002KT CAVOK 08/M02 Q1032=
201902151130 METAR LRBM 151130Z 18002KT CAVOK 09/M03 Q1032=
201902151200 METAR LRBM 151200Z 15005KT 100V200 CAVOK 09/M03 Q1032=
201902151230 METAR LRBM 151230Z 16005KT CAVOK 09/M03 Q1032=
201902151300 METAR LRBM 151300Z VRB03KT CAVOK 09/M03 Q1032=
201902151330 METAR LRBM 151330Z 24006KT CAVOK 09/M02 Q1032=
201902151400 METAR LRBM 151400Z 23005KT 200V260 CAVOK 09/M03 Q1031=
201902151430 METAR LRBM 151430Z 22004KT CAVOK 08/M03 Q1031=
201902151500 METAR LRBM 151500Z 24003KT CAVOK 08/M02 Q1031=
201902151530 METAR LRBM 151530Z AUTO 23004KT 9999 FEW028/// SCT230///
                        06/M00 Q1031=
201902151600 METAR LRBM 151600Z AUTO 28003KT 9999 FEW029/// SCT240///
                        06/M01 Q1031=
201902151630 METAR LRBM 151630Z AUTO 03003KT 9999 FEW024/// SCT200///
                        03/M01 Q1032=
201902151700 METAR LRBM 151700Z AUTO VRB01KT 9999 FEW025/// SCT190///
                        03/M02 Q1032=
201902151730 METAR LRBM 151730Z AUTO 36004KT 9999 FEW020/// SCT210///
                        03/M02 Q1032=
201902151800 METAR LRBM 151800Z AUTO 01003KT 340V040 9999 FEW034/// SCT230///
                        03/M02 Q1032=
201902151830 METAR LRBM 151830Z AUTO VRB01KT 9999 FEW050/// SCT220///
                        02/M02 Q1032=
201902151900 METAR LRBM 151900Z AUTO 03002KT 9999 FEW049/// SCT230///
                        02/M02 Q1032=
201902151930 METAR LRBM 151930Z AUTO 02002KT 9999 FEW022/// SCT230///
                        01/M02 Q1032=
201902152000 METAR LRBM 152000Z AUTO 03002KT 350V070 9999 FEW032/// SCT210///
                        01/M02 Q1032=
201902152030 METAR LRBM 152030Z AUTO 00000KT 9999 FEW024/// SCT200///
                        M00/M03 Q1032=
201902152100 METAR LRBM 152100Z AUTO 00000KT 9999 FEW045/// SCT200///
                        M00/M02 Q1032=
201902152130 METAR LRBM 152130Z AUTO 05004KT 9999 FEW041/// SCT220///
                        01/M02 Q1032=
201902152200 METAR LRBM 152200Z AUTO 07004KT 050V110 9999 FEW037/// BKN210///
                        M00/M03 Q1032=
201902152230 METAR LRBM 152230Z AUTO VRB01KT 9999 FEW065/// SCT200///
                        M01/M03 Q1032=
201902152300 METAR LRBM 152300Z AUTO 09003KT 9999 FEW031/// SCT230///
                        M00/M03 Q1032=
201902152330 METAR LRBM 152330Z AUTO VRB01KT 7000 FEW033/// SCT220///
                        M01/M03 Q1032=
201902160000 METAR LRBM 160000Z AUTO VRB01KT 6000 FEW048/// SCT230///
                        M02/M03 Q1032=
201902160030 METAR LRBM 160030Z AUTO 08004KT 9000 FEW037/// SCT230///
                        M02/M03 Q1032=
201902160100 METAR LRBM 160100Z AUTO 09003KT 5000 FEW026/// SCT180///
                        M02/M04 Q1032=
201902160130 METAR LRBM 160130Z AUTO 07004KT 030V110 9999 FEW060/// SCT240///
                        M02/M03 Q1032=
201902160200 METAR LRBM 160200Z AUTO 09004KT 4700 FEW085/// SCT230///
                        M02/M03 Q1031=
201902160230 METAR LRBM 160230Z AUTO 14003KT 110V170 6000 FEW031/// SCT220///
                        M02/M04 Q1031=
201902160300 METAR LRBM 160300Z AUTO 09003KT 6000 BKN039/// M02/M03 Q1032=
201902160330 METAR LRBM 160330Z AUTO 08004KT 6000 BKN037/// BKN130///
                        M01/M02 Q1031=
201902160400 METAR LRBM 160400Z AUTO VRB01KT 6000 BKN036/// BKN220///
                        M01/M02 Q1032=
201902160430 METAR LRBM 160430Z AUTO 11002KT 6000 BKN036/// BKN150///
                        M01/M02 Q1031=
201902160500 METAR LRBM 160500Z AUTO 10002KT 5000 BR BKN036/// BKN240///
                        M01/M02 Q1031=
201902160530 METAR LRBM 160530Z AUTO VRB01KT 9999 BKN037/// BKN240///
                        M01/M02 Q1032=
201902160600 METAR LRBM 160600Z AUTO VRB01KT 9999 BKN037/// BKN240///
                        M01/M03 Q1032=
201902160630 METAR LRBM 160630Z AUTO 12001KT 6000 BKN037/// BKN240///
                        M00/M02 Q1032=
201902160700 METAR LRBM 160700Z AUTO 00000KT 9999 BKN037/// BKN230///
                        M00/M02 Q1032=
201902160730 METAR LRBM 160730Z AUTO 18002KT 140V220 9999 BKN036/// BKN240///
                        M00/M02 Q1032=
201902160800 METAR LRBM 160800Z AUTO VRB01KT 9999 BKN036/// BKN240///
                        01/M02 Q1032=
201902160830 METAR LRBM 160830Z AUTO 00000KT 9999 BKN035/// BKN240///
                        01/M02 Q1032=
201902160900 METAR LRBM 160900Z AUTO 00000KT 9999 BKN034/// BKN180///
                        02/M02 Q1032=
201902160930 METAR LRBM 160930Z AUTO 00000KT 9999 BKN034/// BKN200///
                        03/M01 Q1032=
201902161000 METAR LRBM 161000Z AUTO 18002KT 150V220 9999 BKN033/// BKN240///
                        03/M01 Q1032=
201902161030 METAR LRBM 161030Z AUTO VRB01KT 9999 SCT033/// BKN044///
                        03/M01 Q1032=
201902161100 METAR LRBM 161100Z AUTO 23002KT 200V270 9999 SCT032/// BKN055///
                        04/M02 Q1032=
201902161130 METAR LRBM 161130Z AUTO 22001KT 9999 SCT032/// BKN050///
                        BKN240/// 04/M02 Q1032=
201902161200 METAR LRBM 161200Z AUTO 22002KT 200V260 9999 FEW024/// SCT034///
                        BKN042/// 04/M01 Q1031=
201902161230 METAR LRBM 161230Z AUTO VRB01KT 9999 FEW030/// SCT037///
                        BKN110/// 05/M01 Q1031=
201902161300 METAR LRBM 161300Z AUTO 19002KT 150V230 9999 SCT036/// BKN095///
                        05/M00 Q1031=
201902161330 METAR LRBM 161330Z AUTO 18003KT 140V260 9999 FEW039/// SCT160///
                        BKN240/// 06/M00 Q1031=
201902161400 METAR LRBM 161400Z AUTO 19002KT 110V230 9999 FEW017/// SCT140///
                        BKN210/// 07/M00 Q1031=
201902161430 METAR LRBM 161430Z AUTO 22002KT 9999 FEW018/// SCT180///
                        06/00 Q1030=
201902161500 METAR LRBM 161500Z AUTO 17001KT 9999 FEW016/// SCT190///
                        06/00 Q1030=
201902161530 METAR LRBM 161530Z AUTO 09003KT 9999 FEW017/// SCT180///
                        05/00 Q1030=
201902161600 METAR LRBM 161600Z AUTO 08004KT 9999 FEW017/// SCT200///
                        03/M00 Q1030=
201902161630 METAR LRBM 161630Z AUTO 04002KT 6000 FEW022/// SCT220///
                        02/M01 Q1031=
201902161700 METAR LRBM 161700Z AUTO 04002KT 6000 FEW016/// SCT160///
                        BKN240/// 02/M00 Q1031=
201902161730 METAR LRBM 161730Z AUTO 02003KT 8000 FEW025/// SCT190///
                        02/M01 Q1031=
201902161800 METAR LRBM 161800Z AUTO 02003KT 360V060 8000 FEW036/// SCT200///
                        02/M00 Q1031=
201902161830 METAR LRBM 161830Z AUTO 04003KT 9000 FEW026/// SCT180///
                        BKN240/// 01/M01 Q1031=
201902161900 METAR LRBM 161900Z AUTO 06003KT 030V090 9000 FEW024/// SCT180///
                        BKN240/// 01/M01 Q1031=
201902161930 METAR LRBM 161930Z AUTO 07003KT 9999 FEW027/// SCT210///
                        01/M01 Q1031=
201902162000 METAR LRBM 162000Z AUTO 06004KT 9000 FEW021/// SCT180///
                        01/M01 Q1031=
201902162030 METAR LRBM 162030Z AUTO 07003KT 9000 FEW022/// SCT190///
                        00/M02 Q1031=
201902162100 METAR LRBM 162100Z AUTO 11004KT 8000 FEW020/// SCT200///
                        M01/M02 Q1031=
201902162130 METAR LRBM 162130Z AUTO 08004KT 9000 FEW025/// SCT220///
                        01/M01 Q1031=
201902162200 METAR LRBM 162200Z AUTO 08005KT 6000 FEW045/// SCT210///
                        M00/M01 Q1031=
201902162230 METAR LRBM 162230Z AUTO 09004KT 9000 FEW019/// SCT210///
                        00/M01 Q1031=
201902162300 METAR LRBM 162300Z AUTO 07006KT 9999 FEW022/// SCT170///
                        BKN240/// 01/M01 Q1031=
201902162330 METAR LRBM 162330Z AUTO 07004KT 9000 FEW065/// SCT210///
                        00/M02 Q1031=
201902170000 METAR LRBM 170000Z AUTO 07005KT 9999 FEW027/// SCT230///
                        00/M01 Q1031=
201902170030 METAR LRBM 170030Z AUTO 08003KT 050V110 9999 FEW065/// SCT240///
                        M00/M02 Q1030=
201902170100 METAR LRBM 170100Z AUTO 09006KT 9000 FEW070/// SCT210///
                        M01/M02 Q1030=
201902170130 METAR LRBM 170130Z AUTO 05005KT 9999 FEW075/// SCT200///
                        00/M01 Q1030=
201902170200 METAR LRBM 170200Z AUTO 10005KT 9999 FEW049/// SCT210///
                        M01/M02 Q1030=
201902170230 METAR LRBM 170230Z AUTO 08005KT 6000 FEW080/// SCT240///
                        M01/M03 Q1030=
201902170300 METAR LRBM 170300Z AUTO 10005KT 6000 FEW070/// SCT200///
                        M02/M03 Q1030=
201902170330 METAR LRBM 170330Z AUTO 09005KT 5000 BR FEW021/// SCT180///
                        BKN240/// M02/M03 Q1030=
201902170400 METAR LRBM 170400Z AUTO 09004KT 040V110 8000 FEW048/// SCT180///
                        BKN240/// M01/M02 Q1029=
201902170430 METAR LRBM 170430Z AUTO 07004KT 9000 FEW065/// SCT240///
                        M01/M02 Q1029=
201902170500 METAR LRBM 170500Z AUTO 10006KT 7000 FEW070/// SCT240///
                        M02/M03 Q1030=
201902170530 METAR LRBM 170530Z AUTO 08005KT 8000 FEW044/// SCT220///
                        M01/M02 Q1030=
201902170600 METAR LRBM 170600Z AUTO 09005KT 4700 BR FEW075/// SCT210///
                        M02/M03 Q1030=
201902170630 METAR LRBM 170630Z AUTO 08004KT 3600 BR FEW043/// SCT210///
                        M02/M03 Q1030=
201902170700 METAR LRBM 170700Z AUTO 08003KT 6000 FEW041/// SCT200///
                        00/M01 Q1030=
201902170730 METAR LRBM 170730Z AUTO 09004KT 6000 FEW033/// SCT180///
                        01/M00 Q1030=
201902170800 METAR LRBM 170800Z AUTO 09004KT 8000 FEW024/// SCT170///
                        02/M01 Q1030=
201902170830 METAR LRBM 170830Z AUTO 13003KT 9000 FEW030/// SCT190///
                        03/M00 Q1030=
201902170900 METAR LRBM 170900Z AUTO 13004KT 9999 FEW018/// BKN190///
                        04/M00 Q1030=
201902170930 METAR LRBM 170930Z AUTO 13004KT 090V150 9999 FEW023/// SCT210///
                        05/M00 Q1030=
201902171000 METAR LRBM 171000Z AUTO 18002KT 150V220 9999 FEW016/// SCT190///
                        06/01 Q1030=
201902171030 METAR LRBM 171030Z AUTO 21003KT 160V250 9999 FEW016/// SCT170///
                        07/01 Q1030=
201902171100 METAR LRBM 171100Z AUTO VRB02KT 9999 FEW022/// SCT200///
                        07/01 Q1029=
201902171130 METAR LRBM 171130Z AUTO 23002KT 170V320 9999 FEW016/// SCT170///
                        BKN240/// 08/01 Q1029=
201902171200 METAR LRBM 171200Z AUTO 23003KT 170V270 9999 FEW014/// SCT170///
                        BKN240/// 08/01 Q1028=
201902171230 METAR LRBM 171230Z AUTO 22004KT 190V270 9999 FEW013/// SCT150///
                        08/01 Q1028=
201902171300 METAR LRBM 171300Z AUTO 17003KT 120V210 9999 FEW014/// SCT190///
                        09/01 Q1028=
201902171330 METAR LRBM 171330Z AUTO 19003KT 9999 FEW018/// SCT190///
                        09/01 Q1027=
201902171400 METAR LRBM 171400Z AUTO 23002KT 170V280 9999 FEW021/// SCT180///
                        BKN240/// 10/01 Q1027=
201902171430 METAR LRBM 171430Z AUTO 23004KT 9999 FEW020/// SCT190///
                        09/02 Q1027=
201902171500 METAR LRBM 171500Z AUTO 23003KT 9999 FEW016/// SCT160///
                        BKN240/// 09/02 Q1027=
201902171530 METAR LRBM 171530Z AUTO 20002KT 170V230 9999 FEW017/// SCT150///
                        08/02 Q1027=
201902171600 METAR LRBM 171600Z AUTO 17003KT 9999 FEW033/// SCT200///
                        06/01 Q1027=
201902171630 METAR LRBM 171630Z AUTO 03002KT 8000 FEW015/// SCT210///
                        04/01 Q1027=
201902171700 METAR LRBM 171700Z AUTO 02003KT 9000 FEW022/// SCT190///
                        04/01 Q1027=
201902171730 METAR LRBM 171730Z AUTO 03002KT 9999 FEW021/// SCT190///
                        03/00 Q1027=
201902171800 METAR LRBM 171800Z 02003KT 350V060 CAVOK 04/00 Q1027=
201902171830 METAR LRBM 171830Z 03003KT 360V070 CAVOK 03/00 Q1027=
201902171900 METAR LRBM 171900Z 03002KT CAVOK 03/00 Q1027=
201902171930 METAR LRBM 171930Z VRB01KT CAVOK 02/M00 Q1027=
201902172000 METAR LRBM 172000Z 11003KT CAVOK 01/M00 Q1027=
201902172030 METAR LRBM 172030Z 05004KT CAVOK 02/M00 Q1027=
201902172100 METAR LRBM 172100Z 07003KT CAVOK 02/M00 Q1027=
201902172130 METAR LRBM 172130Z 05004KT CAVOK 02/M00 Q1027=
201902172200 METAR LRBM 172200Z 06005KT CAVOK 02/M00 Q1027=
201902172230 METAR LRBM 172230Z AUTO 09002KT 060V120 9999 FEW060/// SCT200///
                        01/M01 Q1027=
201902172300 METAR LRBM 172300Z AUTO 08004KT 9999 FEW046/// SCT220///
                        01/M01 Q1027=
201902172330 METAR LRBM 172330Z AUTO 08002KT 9999 FEW031/// SCT200///
                        01/M01 Q1027=
201902180000 METAR LRBM 180000Z AUTO 09006KT 8000 FEW075/// SCT240///
                        00/M01 Q1027=
201902180030 METAR LRBM 180030Z AUTO 09005KT 6000 FEW070/// SCT230///
                        M00/M01 Q1027=
201902180100 METAR LRBM 180100Z AUTO 08006KT 5000 BR FEW046/// SCT230///
                        M00/M01 Q1027=
201902180130 METAR LRBM 180130Z AUTO 09006KT 6000 FEW085/// SCT230///
                        M01/M02 Q1027=
201902180200 METAR LRBM 180200Z AUTO 08005KT 7000 FEW085/// SCT240///
                        00/M01 Q1027=
201902180230 METAR LRBM 180230Z AUTO 08006KT 6000 FEW027/// SCT200///
                        M00/M02 Q1026=
201902180300 METAR LRBM 180300Z 10006KT 6000 NSC M01/M02 Q1026=
201902180330 METAR LRBM 180330Z 09005KT 6000 NSC M01/M02 Q1026=
201902180400 METAR LRBM 180400Z 07006KT 7000 NSC M01/M01 Q1026=
201902180430 METAR LRBM 180430Z 09005KT 7000 NSC M01/M03 Q1026=
201902180500 METAR LRBM 180500Z 07006KT 7000 NSC 00/M01 Q1026=
201902180530 METAR LRBM 180530Z 09006KT 8000 NSC M01/M02 Q1026=
201902180600 METAR LRBM 180600Z 08006KT 9000 NSC M01/M03 Q1027=
201902180630 METAR LRBM 180630Z 09006KT 9000 NSC M00/M01 Q1027=
201902180700 METAR LRBM 180700Z 10004KT 8000 NSC M00/M01 Q1027=
201902180730 METAR LRBM 180730Z 10003KT 6000 NSC 01/M01 Q1027=
201902180800 METAR LRBM 180800Z 15002KT 7000 NSC 02/M00 Q1027=
201902180830 METAR LRBM 180830Z 17003KT CAVOK 03/01 Q1027=
201902180900 METAR LRBM 180900Z VRB01KT CAVOK 06/01 Q1027=
201902180930 METAR LRBM 180930Z 20003KT CAVOK 04/01 Q1027=
201902181000 METAR LRBM 181000Z 18002KT CAVOK 07/02 Q1027=
201902181030 METAR LRBM 181030Z 16004KT 110V200 CAVOK 08/02 Q1026=
201902181100 METAR LRBM 181100Z 17003KT 120V230 CAVOK 09/02 Q1026=
201902181130 METAR LRBM 181130Z 13004KT 090V190 CAVOK 09/02 Q1025=
201902181200 METAR LRBM 181200Z 13004KT CAVOK 10/02 Q1025=
201902181230 METAR LRBM 181230Z 20004KT 160V230 CAVOK 10/02 Q1024=
201902181300 METAR LRBM 181300Z 18003KT 140V240 CAVOK 10/03 Q1024=
201902181330 METAR LRBM 181330Z 22002KT CAVOK 11/01 Q1024=
201902181400 METAR LRBM 181400Z 22003KT 200V260 CAVOK 10/02 Q1024=
201902181430 METAR LRBM 181430Z 22002KT CAVOK 10/02 Q1024=
201902181500 METAR LRBM 181500Z 24001KT CAVOK 10/02 Q1024=
201902181530 METAR LRBM 181530Z AUTO 00000KT 9999 FEW017/// BKN190///
                        10/01 Q1024=
201902181600 METAR LRBM 181600Z AUTO 01003KT 8000 FEW019/// SCT180///
                        BKN240/// 07/01 Q1024=
201902181630 METAR LRBM 181630Z AUTO 03003KT 9000 FEW018/// BKN190///
                        05/01 Q1024=
201902181700 METAR LRBM 181700Z AUTO 02004KT 350V050 9999 FEW027/// SCT200///
                        05/01 Q1024=
201902181730 METAR LRBM 181730Z AUTO 01003KT 320V040 9999 FEW022/// SCT210///
                        05/01 Q1024=
201902181800 METAR LRBM 181800Z AUTO 03003KT 9999 FEW024/// SCT190///
                        04/01 Q1023=
201902181830 METAR LRBM 181830Z AUTO 04002KT 9999 FEW018/// SCT210///
                        04/01 Q1023=
201902181900 METAR LRBM 181900Z AUTO 07002KT 8000 FEW016/// SCT180///
                        02/00 Q1024=
201902181930 METAR LRBM 181930Z AUTO 06004KT 9000 FEW016/// SCT180///
                        BKN240/// 03/01 Q1024=
201902182000 METAR LRBM 182000Z AUTO 06003KT 9000 FEW021/// SCT210///
                        03/00 Q1024=
201902182030 METAR LRBM 182030Z AUTO 07003KT 9000 FEW017/// SCT220///
                        02/00 Q1024=
201902182100 METAR LRBM 182100Z AUTO 07006KT 7000 FEW033/// SCT190///
                        02/M00 Q1024=
201902182130 METAR LRBM 182130Z AUTO 08003KT 8000 FEW070/// SCT200///
                        02/M00 Q1024=
201902182200 METAR LRBM 182200Z AUTO 05003KT 8000 FEW034/// SCT210///
                        02/M00 Q1024=
201902182230 METAR LRBM 182230Z AUTO 09004KT 8000 FEW021/// SCT180///
                        02/M00 Q1024=
201902182300 METAR LRBM 182300Z AUTO 07002KT 040V110 9000 FEW060/// SCT220///
                        02/M00 Q1024=
201902182330 METAR LRBM 182330Z AUTO 07003KT 040V120 9000 FEW085/// SCT210///
                        02/M00 Q1024=
201902190000 METAR LRBM 190000Z AUTO 05003KT 9000 FEW024/// SCT210///
                        02/M00 Q1023=
201902190030 METAR LRBM 190030Z AUTO 07004KT 9000 FEW050/// SCT200///
                        01/M01 Q1023=
201902190100 METAR LRBM 190100Z AUTO 04004KT 020V080 9000 FEW075/// SCT200///
                        02/M00 Q1023=
201902190130 METAR LRBM 190130Z AUTO 10004KT 8000 FEW020/// SCT190///
                        01/M01 Q1023=
201902190200 METAR LRBM 190200Z AUTO 08007KT 7000 FEW024/// SCT190///
                        01/M01 Q1023=
201902190230 METAR LRBM 190230Z AUTO 10006KT 7000 FEW021/// SCT170///
                        01/M01 Q1023=
201902190300 METAR LRBM 190300Z AUTO 08007KT 6000 FEW019/// SCT230///
                        01/M01 Q1022=
201902190330 METAR LRBM 190330Z AUTO 09006KT 6000 FEW021/// SCT210///
                        M00/M02 Q1022=
201902190400 METAR LRBM 190400Z AUTO 08007KT 7000 FEW044/// SCT220///
                        00/M01 Q1022=
201902190430 METAR LRBM 190430Z AUTO 09004KT 4600 FEW021/// SCT170///
                        BKN240/// M01/M02 Q1022=
201902190500 METAR LRBM 190500Z 09007KT 6000 MIFG NSC M01/M02 Q1022=
201902190530 METAR LRBM 190530Z 09007KT 6000 NSC 01/M01 Q1022=
201902190600 METAR LRBM 190600Z 09004KT 6000 NSC M02/M03 Q1023=
201902190630 METAR LRBM 190630Z 08004KT 6000 NSC M00/M02 Q1023=
201902190700 METAR LRBM 190700Z 08005KT 7000 NSC 02/M00 Q1023=
201902190730 METAR LRBM 190730Z 12004KT 7000 NSC 03/01 Q1022=
201902190800 METAR LRBM 190800Z 10004KT 7000 NSC 04/01 Q1022=
201902190830 METAR LRBM 190830Z 11004KT 080V140 8000 NSC 06/01 Q1022=
201902190900 METAR LRBM 190900Z 18003KT 140V210 CAVOK 06/02 Q1022=
201902190930 METAR LRBM 190930Z 17003KT 140V220 CAVOK 07/03 Q1022=
201902191000 METAR LRBM 191000Z 15004KT 080V230 CAVOK 09/02 Q1022=
201902191030 METAR LRBM 191030Z 11003KT 060V150 CAVOK 10/02 Q1022=
201902191100 METAR LRBM 191100Z 11005KT 070V170 CAVOK 10/02 Q1021=
201902191130 METAR LRBM 191130Z 13005KT 070V160 CAVOK 11/01 Q1021=
201902191200 METAR LRBM 191200Z 14005KT CAVOK 11/02 Q1020=
201902191230 METAR LRBM 191230Z 14004KT 090V180 CAVOK 12/02 Q1020=
201902191300 METAR LRBM 191300Z 13005KT 100V190 CAVOK 12/01 Q1020=
201902191330 METAR LRBM 191330Z 15003KT 110V190 CAVOK 12/01 Q1020=
201902191400 METAR LRBM 191400Z VRB02KT CAVOK 13/01 Q1019=
201902191430 METAR LRBM 191430Z 13003KT 110V170 CAVOK 13/00 Q1019=
201902191500 METAR LRBM 191500Z 17004KT CAVOK 12/02 Q1019=
201902191530 METAR LRBM 191530Z 17003KT CAVOK 11/00 Q1019=
201902191600 METAR LRBM 191600Z 02002KT CAVOK 08/01 Q1019=
201902191630 METAR LRBM 191630Z 04002KT CAVOK 06/01 Q1019=
201902191700 METAR LRBM 191700Z 02003KT 310V050 CAVOK 05/00 Q1019=
201902191730 METAR LRBM 191730Z AUTO 04003KT 350V090 9999 FEW022/// BKN200///
                        05/00 Q1019=
201902191800 METAR LRBM 191800Z AUTO 03003KT 010V070 9999 FEW020/// SCT220///
                        05/M00 Q1019=
201902191830 METAR LRBM 191830Z AUTO 04003KT 010V070 9999 FEW024/// SCT220///
                        05/00 Q1018=
201902191900 METAR LRBM 191900Z AUTO 03003KT 9999 FEW040/// SCT230///
                        04/00 Q1018=
201902191930 METAR LRBM 191930Z AUTO 06003KT 9999 FEW022/// SCT230///
                        04/M00 Q1019=
201902192000 METAR LRBM 192000Z AUTO 06004KT 9999 FEW021/// SCT190///
                        04/M00 Q1019=
201902192030 METAR LRBM 192030Z AUTO 06004KT 010V120 9999 FEW018/// SCT230///
                        03/M00 Q1019=
201902192100 METAR LRBM 192100Z AUTO 07002KT 040V100 9999 FEW028/// SCT210///
                        03/M01 Q1018=
201902192130 METAR LRBM 192130Z AUTO 07002KT 030V100 9999 FEW020/// SCT230///
                        02/M01 Q1018=
201902192200 METAR LRBM 192200Z AUTO 08003KT 9999 FEW030/// SCT200///
                        01/M02 Q1018=
201902192230 METAR LRBM 192230Z AUTO 08003KT 9999 FEW038/// SCT220///
                        03/M01 Q1018=
201902192300 METAR LRBM 192300Z AUTO 09007KT 9999 FEW070/// SCT200///
                        02/M01 Q1018=
201902192330 METAR LRBM 192330Z AUTO 09006KT 050V130 9999 FEW070/// SCT240///
                        01/M01 Q1018=
201902200000 METAR LRBM 200000Z AUTO 09007KT 9999 FEW029/// SCT190///
                        02/M01 Q1018=
201902200030 METAR LRBM 200030Z AUTO 09006KT 040V120 9999 FEW065/// SCT220///
                        02/M02 Q1018=
201902200100 METAR LRBM 200100Z AUTO 09005KT 9999 FEW028/// SCT220///
                        M00/M02 Q1018=
201902200130 METAR LRBM 200130Z AUTO 13001KT 8000 FEW048/// SCT200///
                        M01/M03 Q1018=
201902200200 METAR LRBM 200200Z AUTO 10004KT 9999 FEW025/// SCT220///
                        M01/M02 Q1018=
201902200230 METAR LRBM 200230Z AUTO 09004KT 8000 FEW028/// SCT200///
                        M00/M02 Q1018=
201902200300 METAR LRBM 200300Z AUTO 10005KT 040V120 6000 FEW023/// SCT200///
                        M01/M03 Q1018=
201902200330 METAR LRBM 200330Z AUTO 09002KT 6000 FEW037/// SCT200///
                        M02/M03 Q1018=
201902200400 METAR LRBM 200400Z AUTO 11004KT 6000 FEW040/// SCT220///
                        M02/M03 Q1018=
201902200430 METAR LRBM 200430Z AUTO 12003KT 100V220 7000 FEW060/// SCT220///
                        M02/M03 Q1018=
201902200500 METAR LRBM 200500Z 12003KT 090V160 CAVOK M01/M03 Q1018=
201902200530 METAR LRBM 200530Z VRB01KT CAVOK M02/M03 Q1018=
201902200600 METAR LRBM 200600Z VRB01KT 9999 FEW045 M01/M02 Q1018=
201902200630 METAR LRBM 200630Z 10004KT 9999 FEW038 M00/M01 Q1019=
201902200700 METAR LRBM 200700Z 10002KT 9999 FEW035 00/M01 Q1019=
201902200730 METAR LRBM 200730Z 14001KT 9999 FEW034 01/M01 Q1019=
201902200800 METAR LRBM 200800Z 22003KT 8000 FEW035 01/M01 Q1019=
201902200830 METAR LRBM 200830Z 23002KT 6000 FEW034 01/M00 Q1019=
201902200900 METAR LRBM 200900Z 00000KT 6000 FEW033 02/M00 Q1020=
201902200930 METAR LRBM 200930Z 21002KT 6000 SCT032 02/M00 Q1020=
201902201000 METAR LRBM 201000Z 16003KT 6000 FEW033 02/00 Q1020=
201902201030 METAR LRBM 201030Z 17002KT 8000 FEW040 04/01 Q1019=
201902201100 METAR LRBM 201100Z 23003KT 130V280 8000 FEW045 05/02 Q1020=
201902201130 METAR LRBM 201130Z 26006KT 8000 FEW047 06/03 Q1019=
201902201200 METAR LRBM 201200Z 28006KT 9000 NSC 07/03 Q1019=
201902201230 METAR LRBM 201230Z 28009KT 6000 NSC 07/03 Q1020=
201902201300 METAR LRBM 201300Z 27010KT 6000 NSC 07/03 Q1020=
201902201330 METAR LRBM 201330Z 27009KT 6000 NSC 08/04 Q1020=
201902201400 METAR LRBM 201400Z 28011KT 8000 FEW028 07/02 Q1020=
201902201430 METAR LRBM 201430Z 28006KT 7000 FEW029 07/03 Q1020=
201902201500 METAR LRBM 201500Z 28005KT 8000 FEW035 07/02 Q1020=
201902201530 METAR LRBM 201530Z 28004KT 9999 FEW035 07/01 Q1020=
201902201600 METAR LRBM 201600Z 28006KT 9999 FEW030 06/02 Q1021=
201902201630 METAR LRBM 201630Z 30003KT 270V330 9999 FEW025 06/02 Q1021=
201902201700 METAR LRBM 201700Z 30002KT 9999 FEW028 05/02 Q1021=
201902201730 METAR LRBM 201730Z AUTO 35002KT 9000 FEW022/// SCT180///
                        BKN240/// 05/01 Q1021=
201902201800 METAR LRBM 201800Z AUTO 03002KT 350V060 8000 FEW021/// SCT150///
                        04/01 Q1021=
201902201830 METAR LRBM 201830Z AUTO 07002KT 020V100 9000 FEW018/// SCT170///
                        04/01 Q1022=
201902201900 METAR LRBM 201900Z AUTO 01002KT 340V040 6000 FEW015/// SCT170///
                        04/01 Q1022=
201902201930 METAR LRBM 201930Z AUTO 04002KT 8000 FEW016/// SCT170///
                        BKN240/// 03/00 Q1022=
201902202000 METAR LRBM 202000Z AUTO 05002KT 9000 FEW021/// SCT180///
                        BKN240/// 02/M00 Q1022=
201902202030 METAR LRBM 202030Z AUTO 01002KT 6000 FEW021/// SCT180///
                        BKN240/// 01/M00 Q1022=
201902202100 METAR LRBM 202100Z AUTO 05002KT 9999 FEW024/// SCT170///
                        01/M01 Q1023=
201902202130 METAR LRBM 202130Z AUTO 02003KT 9999 FEW014/// SCT220///
                        01/M01 Q1023=
201902202200 METAR LRBM 202200Z AUTO 05002KT 010V080 9999 FEW013/// SCT210///
                        01/M01 Q1023=
201902202230 METAR LRBM 202230Z AUTO 03003KT 9999 FEW024/// SCT180///
                        BKN240/// 01/M01 Q1023=
201902202300 METAR LRBM 202300Z AUTO 08003KT 060V130 9999 FEW027/// SCT180///
                        BKN240/// 01/M01 Q1023=
201902202330 METAR LRBM 202330Z AUTO 29002KT 260V070 9000 FEW026/// SCT180///
                        00/M01 Q1024=
201902210000 METAR LRBM 210000Z AUTO VRB01KT 7000 FEW046/// BKN190///
                        00/M01 Q1024=
201902210030 METAR LRBM 210030Z AUTO 00000KT 7000 FEW027/// SCT190///
                        00/M01 Q1024=
201902210100 METAR LRBM 210100Z AUTO 09002KT 8000 FEW036/// SCT190///
                        00/M01 Q1024=
201902210130 METAR LRBM 210130Z AUTO 13002KT 070V170 7000 FEW065/// SCT170///
                        BKN240/// 00/M01 Q1024=
201902210200 METAR LRBM 210200Z AUTO 08003KT 6000 FEW025/// SCT140///
                        BKN220/// 01/M01 Q1024=
201902210230 METAR LRBM 210230Z AUTO 09002KT 5000 BR FEW025/// SCT120///
                        BKN240/// 00/M01 Q1024=
201902210300 METAR LRBM 210300Z AUTO 03002KT 6000 FEW028/// SCT095///
                        BKN170/// 01/M01 Q1024=
201902210330 METAR LRBM 210330Z AUTO 10002KT 070V160 9000 FEW028/// SCT110///
                        BKN230/// 01/M00 Q1024=
201902210400 METAR LRBM 210400Z AUTO 00000KT 6000 FEW018/// SCT150///
                        BKN240/// 00/M01 Q1024=
201902210430 METAR LRBM 210430Z AUTO 03002KT 340V090 4800 BR FEW022///
                        SCT190/// M01/M02 Q1025=
201902210500 METAR LRBM 210500Z AUTO 01002KT 5000 BR FEW060/// SCT170///
                        BKN240/// M01/M01 Q1025=
201902210530 METAR LRBM 210530Z AUTO VRB01KT 5000 BR FEW047/// SCT140///
                        BKN240/// M01/M01 Q1025=
201902210600 METAR LRBM 210600Z AUTO 09001KT 8000 FEW055/// SCT170///
                        BKN240/// 00/M01 Q1025=
201902210630 METAR LRBM 210630Z AUTO 08003KT 4400 FEW029/// SCT150///
                        BKN230/// 00/M01 Q1025=
201902210700 METAR LRBM 210700Z AUTO 09002KT 6000 FEW027/// SCT150///
                        BKN240/// 01/M00 Q1026=
201902210730 METAR LRBM 210730Z AUTO 08004KT 6000 FEW065/// SCT190///
                        02/00 Q1025=
201902210800 METAR LRBM 210800Z AUTO VRB01KT 9999 FEW028/// SCT200///
                        03/M00 Q1026=
201902210830 METAR LRBM 210830Z AUTO 00000KT 9999 FEW033/// SCT180///
                        BKN240/// 03/M00 Q1026=
201902210900 METAR LRBM 210900Z AUTO VRB01KT 9999 FEW021/// SCT170///
                        04/M00 Q1026=
201902210930 METAR LRBM 210930Z AUTO 25005KT 9999 FEW020/// SCT200///
                        05/M01 Q1026=
201902211000 METAR LRBM 211000Z 26007KT 9999 BKN040 05/M01 Q1026=
201902211030 METAR LRBM 211030Z 27007KT 9999 BKN042 05/M01 Q1026=
201902211100 METAR LRBM 211100Z 28005KT 260V320 9999 BKN045 06/M00 Q1026=
201902211130 METAR LRBM 211130Z 30006KT 260V340 9999 SCT050 07/M02 Q1025=
201902211200 METAR LRBM 211200Z 28005KT 250V310 9999 SCT050 07/M01 Q1025=
201902211230 METAR LRBM 211230Z 30005KT 260V330 9999 SCT050 07/M01 Q1025=
201902211300 METAR LRBM 211300Z 28004KT 9999 BKN050 07/M00 Q1025=
201902211330 METAR LRBM 211330Z 28004KT 250V330 9999 BKN048 08/M00 Q1025=
201902211400 METAR LRBM 211400Z 21002KT 9999 SCT050 08/01 Q1025=
201902211430 METAR LRBM 211430Z 16003KT 9999 SCT050 07/01 Q1024=
201902211500 METAR LRBM 211500Z 00000KT 9999 BKN048 07/01 Q1024=
201902211530 METAR LRBM 211530Z 10003KT 9999 SCT045 06/01 Q1024=
201902211600 METAR LRBM 211600Z 08003KT 9999 BKN045 06/01 Q1024=
201902211630 METAR LRBM 211630Z 08002KT 9999 BKN045 06/01 Q1024=
201902211700 METAR LRBM 211700Z 05004KT 9999 BKN042 05/M00 Q1024=
201902211730 METAR LRBM 211730Z 05003KT 010V080 9999 BKN042 05/M00 Q1024=
201902211800 METAR LRBM 211800Z 04003KT 9999 SCT045 05/M00 Q1023=
201902211830 METAR LRBM 211830Z 04004KT 020V080 9999 FEW045 04/M00 Q1023=
201902211900 METAR LRBM 211900Z 04003KT 010V070 9999 FEW045 04/M01 Q1023=
201902211930 METAR LRBM 211930Z 03003KT 9999 FEW049 04/M01 Q1023=
201902212000 METAR LRBM 212000Z 04003KT 9999 SCT047 05/M01 Q1022=
201902212030 METAR LRBM 212030Z 06002KT 9999 FEW050 04/M00 Q1022=
201902212100 METAR LRBM 212100Z 04003KT CAVOK 04/M00 Q1022=
201902212130 METAR LRBM 212130Z 07003KT CAVOK 04/M01 Q1022=
201902212200 METAR LRBM 212200Z 06003KT 020V080 CAVOK 04/M00 Q1021=
201902212230 METAR LRBM 212230Z AUTO 08003KT 040V110 9999 FEW033/// SCT150///
                        BKN240/// 04/M00 Q1021=
201902212300 METAR LRBM 212300Z AUTO 06003KT 9999 FEW046/// SCT080///
                        BKN240/// 04/M00 Q1021=
201902212330 METAR LRBM 212330Z AUTO 02003KT 350V050 9999 FEW042/// SCT200///
                        04/M01 Q1020=
201902220000 METAR LRBM 220000Z AUTO 36003KT 340V060 9999 FEW007/// SCT042///
                        05/M01 Q1020=
201902220030 METAR LRBM 220030Z AUTO 25006KT 210V320 9999 FEW003/// SCT016///
                        BKN023/// 05/00 Q1020=
201902220100 METAR LRBM 220100Z AUTO 14003KT 080V240 8000 RA FEW005///
                        SCT007/// BKN014/// 04/01 Q1020=
201902220130 METAR LRBM 220130Z AUTO 05005KT 5000 RA FEW004/// BKN012///
                        BKN020/// 03/01 Q1020=
201902220200 METAR LRBM 220200Z AUTO 04004KT 6000 FEW006/// BKN010///
                        BKN019/// 02/01 Q1019=
201902220230 METAR LRBM 220230Z AUTO 08005KT 6000 -RA FEW006/// BKN008///
                        BKN027/// 02/01 Q1019=
201902220300 METAR LRBM 220300Z 07005KT 5000 -RA BR BKN016 01/00 Q1019=
201902220330 METAR LRBM 220330Z 06003KT 5000 -RA BR OVC014 01/00 Q1018=
201902220400 METAR COR LRBM 220400Z 06004KT 5000 -RA BR OVC010 01/00 Q1018=
201902220430 METAR LRBM 220430Z 08003KT 6000 BKN013 OVC028 01/00 Q1018
                        R09/29//95=
201902220500 METAR LRBM 220500Z 04003KT 6000 -RA BKN012 OVC027 01/00 Q1017
                        R09/29//95=
201902220530 METAR LRBM 220530Z 01001KT 5000 -RA BR BKN010 OVC028 01/01
                        Q1018 R09/29//95=
201902220600 METAR LRBM 220600Z 00000KT 5000 -RA BR SCT009 OVC018 02/01
                        Q1018 R09/29//95=
201902220630 METAR LRBM 220630Z 02001KT 4000 -RA BR SCT023 OVC027 02/01
                        Q1018 R09/29//95=
201902220700 METAR LRBM 220700Z 04001KT 5000 -RA BR FEW006 OVC022 02/01
                        Q1018 R09/29//95=
201902220730 METAR LRBM 220730Z 00000KT 5000 -RA BR FEW006 SCT050 02/01
                        Q1018 R09/29//95=
201902220800 METAR LRBM 220800Z 00000KT 6000 FEW003 SCT010 BKN023 02/01
                        Q1017 R09/29//95=
201902220830 METAR LRBM 220830Z 00000KT 4000 -RA BR OVC007 02/01 Q1018
                        R09/29//95=
201902220900 METAR LRBM 220900Z 25002KT 4000 -RA BR OVC010 02/01 Q1018
                        R09/29//95=
201902220930 METAR LRBM 220930Z 24004KT 2000 -RA BR BKN004 OVC015 03/02
                        Q1018 R09/29//95=
201902221000 METAR LRBM 221000Z 24004KT 220V280 2000 -RA BR OVC003 03/02
                        Q1018 R09/29//95=
201902221030 METAR LRBM 221030Z 24004KT 220V280 2000 -RA BR OVC003 03/02
                        Q1018 R09/29//95=
201902221100 METAR LRBM 221100Z 27008KT 4000 -RA BR SCT005 BKN012 OVC050
                        03/02 Q1017 R09/29//95=
201902221130 METAR LRBM 221130Z 03004KT 320V110 9999 -RA BR SCT014 BKN043
                        04/02 Q1018 R09/29//95=
201902221200 METAR LRBM 221200Z 08003KT 030V150 9999 FEW013 SCT040 04/02
                        Q1018 R09/29//95=
201902221230 METAR LRBM 221230Z 02009KT 350V050 9999 FEW031 SCT037 05/M04
                        Q1018 R09/29//95=
201902221300 METAR LRBM 221300Z 01011KT 330V040 9999 FEW030 05/M07 Q1019
                        R09/29//95=
201902221330 METAR COR LRBM 221330Z 01011G21KT 330V060 9999 FEW030 05/M11
                        Q1019 R09/29//95=
201902221400 METAR LRBM 221400Z 02010KT 340V070 9999 FEW050 04/M08 Q1020
                        R09/29//95=
201902221430 METAR LRBM 221430Z 04010KT 350V070 9999 FEW050 03/M10 Q1021
                        R09/29//95=
201902221500 METAR LRBM 221500Z 02007KT 360V060 CAVOK 02/M11 Q1022 R09/29//95=
201902221530 METAR LRBM 221530Z AUTO 02008KT 350V060 9999 FEW085/// SCT240///
                        01/M12 Q1023=
201902221600 METAR LRBM 221600Z AUTO 36009KT 320V030 9999 FEW075/// SCT200///
                        00/M13 Q1024=
201902221630 METAR LRBM 221630Z AUTO 03008KT 340V070 9999 FEW120/// SCT230///
                        M01/M14 Q1025=
201902221700 METAR LRBM 221700Z AUTO 02007KT 340V080 9999 FEW085/// SCT240///
                        M01/M15 Q1026=
201902221730 METAR LRBM 221730Z AUTO 36007KT 320V060 9999 FEW110/// SCT220///
                        M02/M15 Q1027=
201902221800 METAR LRBM 221800Z AUTO 01011KT 340V040 9999 FEW085/// SCT190///
                        M02/M17 Q1028=
201902221830 METAR LRBM 221830Z AUTO 05009KT 9999 FEW090/// SCT220///
                        M03/M16 Q1029=
201902221900 METAR LRBM 221900Z AUTO 03009KT 350V070 9999 FEW075/// SCT210///
                        M03/M16 Q1030=
201902221930 METAR LRBM 221930Z AUTO 03008KT 340V070 9999 FEW070/// SCT220///
                        M03/M16 Q1030=
201902222000 METAR LRBM 222000Z AUTO 02005KT 340V050 9999 FEW065/// SCT240///
                        ///// Q1030=
201902222030 METAR LRBM 222030Z AUTO 02007KT 330V070 9999 FEW085/// SCT240///
                        M03/M15 Q1031=
201902222100 METAR LRBM 222100Z AUTO 36008KT 330V040 9999 FEW065/// SCT220///
                        M03/M15 Q1031=
201902222130 METAR LRBM 222130Z AUTO 02007KT 340V050 9999 FEW085/// SCT240///
                        M03/M14 Q1032=
201902222200 METAR LRBM 222200Z AUTO VRB05KT 9999 FEW060/// SCT200///
                        M03/M14 Q1032=
201902222230 METAR LRBM 222230Z AUTO VRB03KT 9999 FEW060/// SCT230///
                        M03/M14 Q1032=
201902222300 METAR LRBM 222300Z AUTO 01005KT 320V050 9999 FEW075/// SCT190///
                        M03/M14 Q1033=
201902222330 METAR LRBM 222330Z AUTO 02008KT 350V050 9999 FEW055/// SCT220///
                        M03/M15 Q1033=
201902230000 METAR LRBM 230000Z AUTO 05006KT 010V080 9999 FEW110/// SCT230///
                        M04/M15 Q1034=
201902230030 METAR LRBM 230030Z AUTO VRB01KT 9999 FEW095/// SCT240///
                        M04/M14 Q1034=
201902230100 METAR LRBM 230100Z AUTO 30002KT 260V340 9999 FEW080/// SCT220///
                        M04/M14 Q1034=
201902230130 METAR LRBM 230130Z AUTO 01002KT 330V080 9999 FEW080/// SCT240///
                        M05/M14 Q1035=
201902230200 METAR LRBM 230200Z AUTO 02003KT 330V050 9999 FEW060/// M04/M15
                        Q1035=
201902230230 METAR LRBM 230230Z AUTO 28004KT 9999 FEW085/// SCT240///
                        M05/M14 Q1035=
201902230300 METAR LRBM 230300Z AUTO 31005KT 280V340 9999 FEW090/// SCT240///
                        M05/M14 Q1035=
201902230330 METAR LRBM 230330Z AUTO 34004KT 300V020 9999 FEW095/// SCT240///
                        ///// Q1035=
201902230400 METAR LRBM 230400Z AUTO 34004KT 9999 FEW070/// SCT200///
                        M05/M13 Q1036=
201902230430 METAR LRBM 230430Z AUTO 32004KT 280V360 9999 FEW075/// SCT230///
                        M06/M13 Q1036=
201902230500 METAR LRBM 230500Z AUTO 35005KT 9999 FEW041/// SCT240///
                        M06/M13 Q1036=
201902230530 METAR LRBM 230530Z AUTO 26003KT 240V330 9999 FEW095/// SCT230///
                        M07/M12 Q1037=
201902230600 METAR LRBM 230600Z AUTO VRB01KT 9999 FEW075/// SCT210///
                        M06/M11 Q1037=
201902230630 METAR LRBM 230630Z AUTO VRB02KT 9999 FEW026/// SCT230///
                        M05/M12 Q1037=
201902230700 METAR LRBM 230700Z AUTO 25003KT 220V280 9999 FEW027/// SCT230///
                        M04/M13 Q1038=
201902230730 METAR LRBM 230730Z AUTO 23003KT 160V280 9999 FEW031/// SCT240///
                        M03/M14 Q1038=
201902230800 METAR LRBM 230800Z AUTO 22004KT 170V280 9999 FEW050/// SCT210///
                        M02/M13 Q1038=
201902230830 METAR LRBM 230830Z AUTO 18004KT 140V300 9999 FEW017/// SCT210///
                        M02/M14 Q1038=
201902230900 METAR LRBM 230900Z AUTO 22004KT 150V290 9999 FEW047/// SCT190///
                        M02/M12 Q1038=
201902230930 METAR LRBM 230930Z AUTO 23006KT 190V260 9999 FEW019/// SCT190///
                        M02/M12 Q1038=
201902231000 METAR LRBM 231000Z AUTO 25007KT 9999 FEW028/// SCT230///
                        M01/M12 Q1038=
201902231030 METAR LRBM 231030Z AUTO 22008KT 9999 FEW080/// SCT210///
                        M01/M13 Q1038=
201902231100 METAR LRBM 231100Z AUTO 22008KT 190V260 9999 FEW035/// SCT220///
                        M01/M12 Q1038=
201902231130 METAR LRBM 231130Z AUTO 22010KT 9999 FEW080/// SCT220///
                        00/M10 Q1038=
201902231200 METAR LRBM 231200Z AUTO 23011KT 9999 FEW029/// SCT210///
                        01/M12 Q1038=
201902231230 METAR LRBM 231230Z AUTO 25009KT 9999 FEW032/// SCT230///
                        01/M11 Q1038=
201902231300 METAR LRBM 231300Z AUTO 25011KT 9999 FEW100/// SCT240///
                        01/M10 Q1037=
201902231330 METAR LRBM 231330Z AUTO 29009KT 9999 FEW028/// SCT240///
                        01/M13 Q1037=
201902231400 METAR LRBM 231400Z AUTO 29010KT 250V320 9999 FEW120/// SCT230///
                        02/M12 Q1037=
201902231430 METAR LRBM 231430Z AUTO 10006KT 050V140 9999 FEW085/// SCT230///
                        02/M13 Q1037=
201902231500 METAR LRBM 231500Z AUTO 08006KT 040V130 9999 FEW060/// SCT220///
                        02/M12 Q1037=
201902231530 METAR LRBM 231530Z AUTO 09004KT 9999 FEW032/// SCT200///
                        01/M11 Q1038=
201902231600 METAR LRBM 231600Z AUTO 00000KT 9999 FEW080/// SCT210///
                        01/M12 Q1038=
201902231630 METAR LRBM 231630Z AUTO 34002KT 9999 FEW029/// SCT200///
                        M00/M11 Q1038=
201902231700 METAR LRBM 231700Z AUTO 11003KT 060V140 9999 FEW085/// SCT220///
                        M01/M11 Q1038=
201902231730 METAR LRBM 231730Z AUTO 04002KT 360V070 9999 FEW065/// SCT240///
                        M01/M09 Q1038=
201902231800 METAR LRBM 231800Z AUTO 00000KT 9999 FEW100/// SCT200///
                        M02/M10 Q1038=
201902231830 METAR LRBM 231830Z AUTO 02002KT 330V080 9999 FEW090/// SCT240///
                        M01/M12 Q1038=
201902231900 METAR LRBM 231900Z AUTO 09003KT 9999 FEW090/// SCT240///
                        M03/M10 Q1038=
201902231930 METAR LRBM 231930Z AUTO 06004KT 9999 FEW036/// SCT230///
                        M02/M12 Q1038=
201902232000 METAR LRBM 232000Z AUTO 08004KT 9999 FEW100/// SCT240///
                        M04/M11 Q1039=
201902232030 METAR LRBM 232030Z AUTO 08003KT 9999 FEW060/// SCT200///
                        M04/M11 Q1039=
201902232100 METAR LRBM 232100Z AUTO 07003KT 050V110 9999 FEW070/// SCT200///
                        M03/M11 Q1039=
201902232130 METAR LRBM 232130Z AUTO 06005KT 030V090 9999 FEW095/// SCT210///
                        M03/M11 Q1039=
201902232200 METAR LRBM 232200Z AUTO 09003KT 050V140 9999 FEW070/// SCT210///
                        M03/M10 Q1039=
201902232230 METAR LRBM 232230Z AUTO 08003KT 040V110 9999 FEW085/// SCT230///
                        M04/M09 Q1040=
201902232300 METAR LRBM 232300Z AUTO 07004KT 9999 FEW050/// SCT240///
                        M04/M12 Q1040=
201902232330 METAR LRBM 232330Z AUTO 11003KT 9999 FEW100/// SCT230///
                        M05/M11 Q1039=
201902240000 METAR LRBM 240000Z AUTO 11004KT 9999 FEW100/// SCT240///
                        M04/M11 Q1039=
201902240030 METAR LRBM 240030Z AUTO 06001KT 9999 FEW075/// SCT180///
                        M05/M10 Q1039=
201902240100 METAR LRBM 240100Z AUTO 08002KT 9999 FEW100/// SCT200///
                        M04/M10 Q1039=
201902240130 METAR LRBM 240130Z AUTO 05003KT 9999 FEW065/// SCT220///
                        ///// Q1039=
201902240200 METAR LRBM 240200Z AUTO 05002KT 020V090 9999 FEW090/// SCT220///
                        M05/M09 Q1039=
201902240230 METAR LRBM 240230Z AUTO VRB01KT 9999 FEW055/// SCT230///
                        M05/M09 Q1039=
201902240300 METAR LRBM 240300Z AUTO 07002KT 030V100 9999 FEW090/// SCT200///
                        M05/M09 Q1038=
201902240330 METAR LRBM 240330Z AUTO 08002KT 9999 FEW080/// SCT240///
                        M05/M09 Q1038=
201902240400 METAR LRBM 240400Z AUTO VRB01KT 9999 FEW095/// SCT200///
                        M05/M09 Q1038=
201902240430 METAR LRBM 240430Z AUTO 08001KT 9999 FEW080/// SCT240///
                        M04/M09 Q1038=
201902240500 METAR LRBM 240500Z AUTO 00000KT 9999 FEW070/// SCT220///
                        M04/M09 Q1038=
201902240530 METAR LRBM 240530Z AUTO 00000KT 9999 FEW075/// SCT220///
                        M04/M09 Q1038=
201902240600 METAR LRBM 240600Z AUTO 00000KT 9999 FEW070/// SCT220///
                        M04/M09 Q1038=
201902240630 METAR LRBM 240630Z AUTO 10003KT 9999 FEW095/// SCT220///
                        M04/M09 Q1038=
201902240700 METAR LRBM 240700Z AUTO 12002KT 080V160 9999 FEW075/// SCT200///
                        M03/M10 Q1038=
201902240730 METAR LRBM 240730Z AUTO 00000KT 9999 FEW070/// SCT170///
                        M03/M10 Q1038=
201902240800 METAR LRBM 240800Z AUTO VRB01KT 9999 FEW065/// SCT200///
                        M03/M10 Q1038=
201902240830 METAR LRBM 240830Z AUTO 12003KT 070V160 9999 FEW065/// SCT220///
                        M02/M11 Q1038=
201902240900 METAR LRBM 240900Z AUTO 17003KT 9999 FEW011/// SCT160///
                        ///// Q1038=
201902240930 METAR LRBM 240930Z AUTO 24002KT 210V270 9999 FEW060/// SCT170///
                        M02/M11 Q1039=
201902241000 METAR LRBM 241000Z AUTO 25002KT 170V280 9999 FEW090/// SCT240///
                        M01/M10 Q1039=
201902241030 METAR LRBM 241030Z AUTO 23002KT 190V260 9999 FEW065/// SCT230///
                        M02/M11 Q1038=
201902241100 METAR LRBM 241100Z AUTO 18002KT 130V240 9999 FEW055/// SCT230///
                        M01/M11 Q1038=
201902241130 METAR LRBM 241130Z AUTO 24002KT 200V310 9999 FEW050/// SCT190///
                        M01/M11 Q1038=
201902241200 METAR LRBM 241200Z AUTO 20003KT 140V260 9999 SCT050/// BKN180///
                        M01/M10 Q1038=
201902241230 METAR LRBM 241230Z AUTO 26002KT 220V280 9999 SCT050/// BKN190///
                        M01/M12 Q1037=
201902241300 METAR LRBM 241300Z AUTO 28004KT 240V340 9999 SCT048/// BKN140///
                        M01/M11 Q1037=
201902241330 METAR LRBM 241330Z AUTO 27004KT 240V300 9999 SCT049/// BKN140///
                        M01/M11 Q1037=
201902241400 METAR LRBM 241400Z AUTO 26005KT 9999 SCT048/// BKN240///
                        M00/M10 Q1037=
201902241430 METAR LRBM 241430Z AUTO 28005KT 9999 FEW047/// SCT240///
                        M01/M11 Q1036=
201902241500 METAR LRBM 241500Z AUTO 28006KT 9999 SCT050/// M01/M11 Q1036=
201902241530 METAR LRBM 241530Z AUTO 28007KT 9999 SCT045/// BKN190///
                        M01/M10 Q1036=
201902241600 METAR LRBM 241600Z AUTO 27008KT 9999 SCT047/// BKN170///
                        M01/M09 Q1036=
201902241630 METAR LRBM 241630Z AUTO 27006KT 9999 SCT045/// BKN160///
                        M01/M08 Q1036=
201902241700 METAR LRBM 241700Z AUTO 27007KT 9999 BKN045/// M01/M08 Q1036=
201902241730 METAR LRBM 241730Z AUTO 27005KT 9999 SCT043/// BKN140///
                        M01/M08 Q1036=
201902241800 METAR LRBM 241800Z 28005KT 9999 BKN043 M01/M08 Q1036=
201902241830 METAR LRBM 241830Z 28002KT 9999 BKN043 M01/M08 Q1036=
201902241900 METAR LRBM 241900Z VRB01KT 9999 BKN043 M01/M08 Q1036=
201902241930 METAR LRBM 241930Z 11002KT 9999 BKN041 M01/M07 Q1036=
201902242000 METAR LRBM 242000Z 10002KT 9999 BKN042 M01/M07 Q1036=
201902242030 METAR LRBM 242030Z 00000KT 9999 BKN041 M01/M07 Q1036=
201902242100 METAR LRBM 242100Z 08003KT 9999 BKN042 M01/M07 Q1036=
201902242130 METAR LRBM 242130Z 09004KT 9999 BKN043 M01/M06 Q1036=
201902242200 METAR LRBM 242200Z 12004KT 9999 BKN043 M01/M07 Q1036=
201902242230 METAR LRBM 242230Z AUTO 10003KT 9999 BKN042/// BKN200///
                        M01/M08 Q1036=
201902242300 METAR LRBM 242300Z AUTO 00000KT 9999 BKN041/// BKN200///
                        M01/M07 Q1036=
201902242330 METAR LRBM 242330Z AUTO 00000KT 9999 BKN039/// BKN240///
                        M01/M07 Q1036=
201902250000 METAR LRBM 250000Z AUTO 29001KT 9999 BKN039/// BKN240///
                        M01/M08 Q1036=
201902250030 METAR LRBM 250030Z AUTO 00000KT 9999 BKN040/// BKN240///
                        M01/M08 Q1036=
201902250100 METAR LRBM 250100Z AUTO 00000KT 9999 BKN040/// M02/M07 Q1036=
201902250130 METAR LRBM 250130Z AUTO 07001KT 9999 BKN040/// BKN240///
                        M02/M06 Q1036=
201902250200 METAR LRBM 250200Z AUTO 06002KT 9999 BKN038/// M02/M07 Q1036=
201902250230 METAR LRBM 250230Z AUTO 08001KT 9999 SCT038/// BKN070///
                        M02/M06 Q1036=
201902250300 METAR LRBM 250300Z 08002KT 9999 SCT040 M02/M06 Q1036=
201902250330 METAR LRBM 250330Z 03002KT 9999 SCT040 M02/M07 Q1036=
201902250400 METAR LRBM 250400Z 06003KT 9999 SCT042 M02/M07 Q1035=
201902250430 METAR LRBM 250430Z 02002KT 9999 SCT042 M02/M07 Q1036=
201902250500 METAR LRBM 250500Z 05003KT 9999 FEW043 M03/M07 Q1035=
201902250530 METAR LRBM 250530Z 00000KT 9999 FEW040 M02/M06 Q1036=
201902250600 METAR LRBM 250600Z 08002KT 9999 FEW045 M02/M06 Q1036=
201902250630 METAR LRBM 250630Z 04003KT 9999 FEW045 M01/M07 Q1036=
201902250700 METAR LRBM 250700Z 09003KT 9999 FEW050 M01/M06 Q1036=
201902250730 METAR LRBM 250730Z 08002KT 9999 FEW050 M01/M07 Q1036=
201902250800 METAR LRBM 250800Z 11004KT 9999 FEW050 00/M07 Q1035=
201902250830 METAR LRBM 250830Z 05002KT CAVOK 01/M09 Q1036=
201902250900 METAR LRBM 250900Z 21004KT 160V240 CAVOK 01/M10 Q1036=
201902250930 METAR LRBM 250930Z VRB03KT CAVOK 02/M10 Q1036=
201902251000 METAR LRBM 251000Z 24002KT CAVOK 02/M10 Q1036=
201902251030 METAR LRBM 251030Z 23004KT 110V270 CAVOK 03/M09 Q1036=
201902251100 METAR LRBM 251100Z 25005KT 200V310 CAVOK 03/M07 Q1035=
201902251130 METAR LRBM 251130Z 24005KT CAVOK 04/M08 Q1035=
201902251200 METAR LRBM 251200Z 27006KT 250V310 CAVOK 04/M08 Q1034=
201902251230 METAR LRBM 251230Z 28008KT CAVOK 04/M08 Q1034=
201902251300 METAR COR LRBM 251300Z 28008KT CAVOK 04/M08 Q1034=
201902251330 METAR LRBM 251330Z 29009KT CAVOK 05/M07 Q1033=
201902251400 METAR LRBM 251400Z 27009KT CAVOK 04/M07 Q1033=
201902251430 METAR LRBM 251430Z 27009KT 9999 FEW043 04/M07 Q1033=
201902251500 METAR LRBM 251500Z 28006KT 260V330 9999 SCT040 04/M08 Q1032=
201902251530 METAR LRBM 251530Z AUTO 28004KT 9999 SCT043/// BKN170///
                        04/M08 Q1032=
201902251600 METAR LRBM 251600Z AUTO 30002KT 270V330 9999 FEW024/// SCT200///
                        03/M08 Q1032=
201902251630 METAR LRBM 251630Z AUTO 00000KT 9999 FEW033/// BKN200///
                        02/M08 Q1032=
201902251700 METAR LRBM 251700Z AUTO 05002KT 340V080 8000 FEW021/// SCT200///
                        M00/M06 Q1032=
201902251730 METAR LRBM 251730Z AUTO 01003KT 9999 FEW030/// SCT210///
                        00/M07 Q1032=
201902251800 METAR LRBM 251800Z AUTO 02002KT 350V050 9999 FEW044/// SCT210///
                        01/M07 Q1032=
201902251830 METAR LRBM 251830Z AUTO VRB01KT 9999 FEW030/// SCT220///
                        00/M07 Q1032=
201902251900 METAR LRBM 251900Z AUTO 01002KT 340V040 9999 FEW036/// SCT200///
                        M01/M07 Q1032=
201902251930 METAR LRBM 251930Z AUTO 00000KT 9999 FEW025/// SCT240///
                        M01/M06 Q1032=
201902252000 METAR LRBM 252000Z AUTO 00000KT 8000 FEW060/// SCT180///
                        M01/M06 Q1031=
201902252030 METAR LRBM 252030Z AUTO 04002KT 9999 FEW044/// SCT200///
                        M00/M06 Q1031=
201902252100 METAR LRBM 252100Z AUTO 05003KT 9999 FEW060/// SCT190///
                        M01/M06 Q1031=
201902252130 METAR LRBM 252130Z AUTO 07004KT 9999 FEW055/// SCT240///
                        M01/M06 Q1031=
201902252200 METAR LRBM 252200Z AUTO 06002KT 020V080 9999 FEW021/// SCT210///
                        M02/M06 Q1030=
201902252230 METAR LRBM 252230Z AUTO 06003KT 010V080 9999 FEW032/// SCT220///
                        M02/M06 Q1030=
201902252300 METAR LRBM 252300Z AUTO 07005KT 9999 FEW039/// SCT200///
                        M01/M06 Q1030=
201902252330 METAR LRBM 252330Z AUTO 09004KT 7000 FEW027/// SCT190///
                        M03/M06 Q1030=
201902260000 METAR LRBM 260000Z AUTO 08005KT 9999 FEW032/// SCT180///
                        M03/M06 Q1029=
201902260030 METAR LRBM 260030Z AUTO 08003KT 9999 FEW033/// SCT210///
                        M03/M06 Q1029=
201902260100 METAR LRBM 260100Z AUTO 07003KT 9999 FEW022/// SCT240///
                        M03/M06 Q1029=
201902260130 METAR LRBM 260130Z AUTO 09004KT 8000 FEW042/// SCT200///
                        M03/M06 Q1028=
201902260200 METAR LRBM 260200Z AUTO 04003KT 9999 FEW021/// SCT210///
                        M03/M06 Q1028=
201902260230 METAR LRBM 260230Z AUTO VRB01KT 9999 FEW065/// SCT220///
                        M04/M06 Q1028=
201902260300 METAR LRBM 260300Z AUTO 09002KT 9000 FEW023/// SCT220///
                        M04/M06 Q1027=
201902260330 METAR LRBM 260330Z AUTO 08002KT 030V110 9000 FEW023/// SCT180///
                        M04/M06 Q1027=
201902260400 METAR LRBM 260400Z AUTO 08002KT 040V100 8000 FEW050/// SCT200///
                        M04/M06 Q1027=
201902260430 METAR LRBM 260430Z AUTO VRB01KT 7000 FEW029/// SCT210///
                        M05/M06 Q1026=
201902260500 METAR LRBM 260500Z 00000KT CAVOK M04/M06 Q1026=
201902260530 METAR LRBM 260530Z VRB01KT CAVOK M04/M06 Q1026=
201902260600 METAR LRBM 260600Z 09002KT 8000 NSC M04/M06 Q1025=
201902260630 METAR LRBM 260630Z 00000KT 8000 NSC M03/M06 Q1025=
201902260700 METAR LRBM 260700Z 17002KT 8000 NSC M03/M06 Q1025=
201902260730 METAR LRBM 260730Z VRB01KT 8000 NSC M02/M05 Q1024=
201902260800 METAR LRBM 260800Z VRB01KT 8000 NSC M02/M05 Q1025=
201902260830 METAR LRBM 260830Z 25004KT 220V280 8000 NSC M01/M04 Q1024=
201902260900 METAR LRBM 260900Z 27005KT CAVOK 01/M04 Q1023=
201902260930 METAR LRBM 260930Z 25004KT CAVOK 02/M03 Q1023=
201902261000 METAR LRBM 261000Z 27009KT CAVOK 03/M05 Q1023=
201902261030 METAR LRBM 261030Z 27011KT 9999 SCT060 03/M04 Q1022=
201902261100 METAR LRBM 261100Z 28008KT 9999 BKN058 03/M04 Q1022=
201902261130 METAR LRBM 261130Z 29007KT 270V330 CAVOK 04/M03 Q1021=
201902261200 METAR LRBM 261200Z 27009KT 250V310 CAVOK 04/M03 Q1021=
201902261230 METAR LRBM 261230Z 26012KT CAVOK 05/M03 Q1020=
201902261300 METAR LRBM 261300Z 26013KT CAVOK 05/M03 Q1020=
201902261330 METAR LRBM 261330Z 27011KT CAVOK 05/M02 Q1019=
201902261400 METAR LRBM 261400Z 27012KT CAVOK 06/M03 Q1019=
201902261430 METAR LRBM 261430Z 26010KT CAVOK 06/M02 Q1019=
201902261500 METAR LRBM 261500Z 26007KT CAVOK 05/M02 Q1019=
201902261530 METAR LRBM 261530Z 26006KT CAVOK 04/M02 Q1019=
201902261600 METAR LRBM 261600Z 26006KT CAVOK 04/M02 Q1019=
201902261630 METAR LRBM 261630Z 24004KT CAVOK 03/M02 Q1019=
201902261700 METAR LRBM 261700Z 26005KT 230V340 CAVOK 02/M02 Q1019=
201902261730 METAR LRBM 261730Z AUTO 33003KT 290V350 8000 FEW014/// SCT150///
                        BKN240/// 02/M02 Q1019=
201902261800 METAR LRBM 261800Z AUTO 31005KT 9999 FEW013/// SCT170///
                        BKN240/// 04/M02 Q1019=
201902261830 METAR LRBM 261830Z AUTO 30006KT 9999 FEW017/// SCT110///
                        BKN240/// 04/M02 Q1019=
201902261900 METAR LRBM 261900Z AUTO 29008KT 9999 FEW014/// SCT180///
                        03/M02 Q1019=
201902261930 METAR LRBM 261930Z AUTO 29007KT 9999 FEW014/// SCT170///
                        04/M02 Q1019=
201902262000 METAR LRBM 262000Z AUTO 29008KT 9000 FEW016/// SCT190///
                        04/M02 Q1019=
201902262030 METAR LRBM 262030Z AUTO 30008KT 9000 -SHRA FEW009/// SCT095///
                        BKN230/// 04/M01 Q1019=
201902262100 METAR LRBM 262100Z AUTO 30008KT 9999 FEW018/// SCT190///
                        04/M02 Q1019 REDZ=
201902262130 METAR LRBM 262130Z AUTO 29006KT 9999 FEW016/// SCT190///
                        05/M02 Q1019=
201902262200 METAR LRBM 262200Z AUTO 29006KT 9999 FEW025/// BKN190///
                        04/M01 Q1019=
201902262230 METAR LRBM 262230Z AUTO 32004KT 290V080 9999 FEW020/// SCT130///
                        BKN240/// 06/M02 Q1019=
201902262300 METAR LRBM 262300Z AUTO VRB01KT 9999 FEW023/// SCT080///
                        04/M01 Q1019=
201902262330 METAR LRBM 262330Z AUTO 32002KT 270V340 9999 FEW020/// SCT190///
                        04/M01 Q1020=
201902270000 METAR LRBM 270000Z AUTO 08003KT 9999 FEW025/// SCT070///
                        BKN230/// 03/M01 Q1020=
201902270030 METAR LRBM 270030Z AUTO 05003KT 9999 SCT047/// BKN160///
                        03/M01 Q1020=
201902270100 METAR LRBM 270100Z AUTO 36001KT 9999 FEW033/// SCT180///
                        02/M01 Q1020=
201902270130 METAR LRBM 270130Z AUTO 32002KT 270V350 9999 FEW018/// SCT180///
                        BKN240/// 03/M01 Q1020=
201902270200 METAR LRBM 270200Z AUTO 35003KT 300V020 9999 FEW020/// SCT200///
                        03/M01 Q1020=
201902270230 METAR LRBM 270230Z AUTO 36002KT 280V040 9999 FEW027/// SCT200///
                        03/M01 Q1020=
201902270300 METAR LRBM 270300Z AUTO 01003KT 9999 FEW032/// SCT220///
                        02/M01 Q1021=
201902270330 METAR LRBM 270330Z AUTO 31002KT 250V350 9999 FEW030/// BKN190///
                        03/M01 Q1021=
201902270400 METAR LRBM 270400Z AUTO 34002KT 310V010 9999 FEW032/// SCT150///
                        02/M01 Q1021=
201902270430 METAR LRBM 270430Z AUTO 35002KT 9999 FEW055/// SCT230///
                        03/M02 Q1021=
201902270500 METAR LRBM 270500Z 22001KT 9999 BKN048 01/M01 Q1021=
201902270530 METAR LRBM 270530Z 34001KT 9999 BKN050 02/M02 Q1021=
201902270600 METAR LRBM 270600Z 29003KT 9999 BKN048 02/M02 Q1022=
201902270630 METAR LRBM 270630Z 36003KT 310V020 9999 BKN050 03/M01 Q1022=
201902270700 METAR LRBM 270700Z 28004KT 270V330 9999 BKN052 04/M02 Q1022=
201902270730 METAR LRBM 270730Z 26008KT 9999 BKN055 04/M01 Q1022=
201902270800 METAR LRBM 270800Z 27008KT 9999 BKN055 05/00 Q1022=
201902270830 METAR LRBM 270830Z 28008KT 9999 BKN050 06/00 Q1022=
201902270900 METAR LRBM 270900Z 29008KT 260V320 9999 BKN047 07/M01 Q1022=
201902270930 METAR LRBM 270930Z 28007KT 9999 FEW036 SCT045 08/M00 Q1023=
201902271000 METAR LRBM 271000Z VRB06KT 9999 SCT038 08/M01 Q1022=
201902271030 METAR LRBM 271030Z 32008KT 300V360 9999 BKN040 09/M02 Q1022=
201902271100 METAR LRBM 271100Z 32006KT 270V350 9999 BKN044 08/M03 Q1022=
201902271130 METAR LRBM 271130Z 30006KT 280V340 9999 BKN048 09/M03 Q1022=
201902271200 METAR LRBM 271200Z 29006KT 270V330 9999 BKN048 09/M03 Q1022=
201902271230 METAR LRBM 271230Z 31008KT 280V340 9999 BKN048 09/M03 Q1021=
201902271300 METAR LRBM 271300Z 30008KT 260V340 9999 BKN048 09/M03 Q1021=
201902271330 METAR LRBM 271330Z 28010KT 9999 FEW036 BKN052 09/M02 Q1021=
201902271400 METAR LRBM 271400Z 28011KT 9999 BKN050 08/M02 Q1021=
201902271430 METAR LRBM 271430Z 28010KT 9999 BKN050 08/M02 Q1021=
201902271500 METAR LRBM 271500Z 33006KT 290V020 9999 SCT053 08/M03 Q1021=
201902271530 METAR LRBM 271530Z 31006KT 270V340 9999 FEW055 08/M04 Q1021=
201902271600 METAR LRBM 271600Z 31005KT 280V340 9999 FEW055 07/M03 Q1021=
201902271630 METAR LRBM 271630Z 31004KT 270V340 CAVOK 07/M03 Q1021=
201902271700 METAR LRBM 271700Z VRB02KT CAVOK 05/M03 Q1021=
201902271730 METAR LRBM 271730Z AUTO 35003KT 300V100 9999 FEW019/// SCT230///
                        02/M03 Q1021=
201902271800 METAR LRBM 271800Z AUTO 31002KT 280V010 9999 FEW016/// SCT220///
                        02/M03 Q1021=
201902271830 METAR LRBM 271830Z AUTO 11002KT 040V140 9999 FEW017/// SCT200///
                        02/M03 Q1020=
201902271900 METAR LRBM 271900Z AUTO 02003KT 360V060 9999 FEW018/// SCT200///
                        02/M03 Q1020=
201902271930 METAR LRBM 271930Z AUTO 05003KT 9999 FEW016/// SCT210///
                        01/M03 Q1020=
201902272000 METAR LRBM 272000Z AUTO VRB01KT 9999 FEW028/// SCT230///
                        00/M03 Q1020=
201902272030 METAR LRBM 272030Z AUTO 05003KT 9999 FEW016/// SCT210///
                        M00/M03 Q1020=
201902272100 METAR LRBM 272100Z AUTO 03003KT 9999 FEW020/// SCT200///
                        M01/M03 Q1019=
201902272130 METAR LRBM 272130Z AUTO 16003KT 020V180 9999 FEW046/// SCT220///
                        M01/M03 Q1019=
201902272200 METAR LRBM 272200Z AUTO 02003KT 9999 FEW038/// SCT200///
                        M01/M03 Q1019=
201902272230 METAR LRBM 272230Z AUTO 05002KT 010V070 9999 FEW019/// SCT240///
                        M02/M03 Q1019=
201902272300 METAR LRBM 272300Z AUTO 06005KT 9999 FEW055/// SCT230///
                        M00/M02 Q1019=
201902272330 METAR LRBM 272330Z AUTO 07005KT 9999 FEW060/// SCT240///
                        M00/M02 Q1018=
201902280000 METAR LRBM 280000Z AUTO 06002KT 9999 FEW065/// SCT240///
                        M01/M03 Q1018=
201902280030 METAR LRBM 280030Z AUTO VRB01KT 9999 FEW029/// SCT220///
                        M01/M03 Q1018=
201902280100 METAR LRBM 280100Z AUTO 07003KT 9999 FEW065/// SCT220///
                        M01/M03 Q1018=
201902280130 METAR LRBM 280130Z AUTO 11003KT 9999 FEW019/// SCT190///
                        M00/M02 Q1017=
201902280200 METAR LRBM 280200Z AUTO 09005KT 9999 FEW030/// SCT190///
                        M01/M03 Q1017=
201902280230 METAR LRBM 280230Z AUTO 11004KT 9999 FEW028/// SCT240///
                        M02/M04 Q1017=
201902280300 METAR LRBM 280300Z AUTO 09005KT 9999 FEW037/// SCT230///
                        M02/M03 Q1016=
201902280330 METAR LRBM 280330Z AUTO 05003KT 9999 FEW070/// SCT210///
                        M02/M03 Q1016=
201902280400 METAR LRBM 280400Z AUTO 06005KT 020V090 9999 FEW060/// SCT240///
                        M00/M02 Q1016=
201902280430 METAR LRBM 280430Z AUTO 04003KT 320V070 9999 FEW120/// SCT220///
                        M01/M03 Q1015=
201902280500 METAR LRBM 280500Z AUTO 14003KT 110V210 9999 FEW075/// SCT220///
                        M03/M05 Q1015=
201902280530 METAR LRBM 280530Z AUTO 09003KT 9999 FEW039/// SCT240///
                        M02/M03 Q1015=
201902280600 METAR LRBM 280600Z AUTO 06004KT 9999 FEW028/// SCT240///
                        M01/M03 Q1015=
201902280630 METAR LRBM 280630Z AUTO 09004KT 9999 FEW032/// SCT200///
                        00/M02 Q1015=
201902280700 METAR LRBM 280700Z AUTO 08004KT 9999 FEW065/// SCT200///
                        02/M01 Q1014=
201902280730 METAR LRBM 280730Z AUTO 10005KT 9999 FEW023/// SCT220///
                        03/M00 Q1014=
201902280800 METAR LRBM 280800Z AUTO 10004KT 9999 FEW044/// SCT200///
                        05/00 Q1014=
201902280830 METAR LRBM 280830Z AUTO 12005KT 090V160 9999 FEW028/// SCT210///
                        06/M00 Q1013=
201902280900 METAR LRBM 280900Z AUTO 12006KT 9999 FEW013/// SCT190///
                        06/M00 Q1012=
201902280930 METAR LRBM 280930Z AUTO 11005KT 080V140 9999 FEW023/// SCT200///
                        08/M00 Q1012=
201902281000 METAR LRBM 281000Z 15004KT 090V200 CAVOK 09/M00 Q1011=
201902281030 METAR LRBM 281030Z 17004KT 130V270 CAVOK 09/M01 Q1011=
201902281100 METAR LRBM 281100Z VRB02KT CAVOK 10/M01 Q1010=
201902281130 METAR LRBM 281130Z 03005KT 300V090 CAVOK 10/M01 Q1009=
201902281200 METAR LRBM 281200Z 15003KT 090V240 CAVOK 11/M01 Q1008=
201902281230 METAR LRBM 281230Z VRB02KT CAVOK 11/M01 Q1008=
201902281300 METAR LRBM 281300Z VRB02KT CAVOK 12/M01 Q1007=
201902281330 METAR LRBM 281330Z 26006KT 230V290 CAVOK 12/M00 Q1006=
201902281400 METAR LRBM 281400Z 29009KT CAVOK 13/01 Q1006=
201902281430 METAR LRBM 281430Z 28005KT 250V340 CAVOK 13/01 Q1005=
201902281500 METAR LRBM 281500Z VRB01KT CAVOK 13/01 Q1004=
201902281530 METAR LRBM 281530Z 11004KT CAVOK 11/02 Q1004=
201902281600 METAR LRBM 281600Z 07005KT CAVOK 10/01 Q1004=
201902281630 METAR LRBM 281630Z 04005KT CAVOK 09/01 Q1004=
201902281700 METAR LRBM 281700Z 02003KT CAVOK 08/01 Q1004=
201902281730 METAR LRBM 281730Z 03002KT 320V090 CAVOK 07/00 Q1004=
201902281800 METAR LRBM 281800Z VRB04KT CAVOK 05/00 Q1004=
201902281830 METAR LRBM 281830Z 06002KT CAVOK 05/01 Q1004=
201902281900 METAR LRBM 281900Z 02003KT CAVOK 05/00 Q1004=
201902281930 METAR LRBM 281930Z 05001KT CAVOK 04/00 Q1005=
201902282000 METAR LRBM 282000Z 24001KT CAVOK 03/00 Q1005=
201902282030 METAR LRBM 282030Z 00000KT CAVOK 03/00 Q1005=
201902282100 METAR LRBM 282100Z 00000KT CAVOK 02/M00 Q1005=
201902282130 METAR LRBM 282130Z 24006KT 170V300 CAVOK 03/M00 Q1005=
201902282200 METAR LRBM 282200Z VRB02KT CAVOK 02/M00 Q1005=
201902282230 METAR LRBM 282230Z AUTO 15002KT 100V200 8000 FEW025/// SCT200///
                        01/M00 Q1005=
201902282300 METAR LRBM 282300Z AUTO VRB02KT 8000 FEW018/// SCT180///
                        02/M01 Q1005=
201902282330 METAR LRBM 282330Z AUTO VRB03KT 9000 FEW021/// SCT170///
                        02/00 Q1005=
