201903010000 METAR LRBM 010000Z AUTO 31010KT 290V020 9999 FEW015/// SCT190///
                        11/M01 Q1005=
201903010030 METAR LRBM 010030Z AUTO 31010KT 290V010 9999 FEW026/// SCT230///
                        10/M01 Q1005=
201903010100 METAR LRBM 010100Z AUTO 32013KT 260V360 9999 FEW019/// SCT210///
                        10/M01 Q1005=
201903010130 METAR LRBM 010130Z AUTO 31013KT 280V350 9999 FEW021/// SCT180///
                        10/M02 Q1005=
201903010200 METAR LRBM 010200Z AUTO 28009KT 9999 FEW022/// SCT200///
                        07/M01 Q1005=
201903010230 METAR LRBM 010230Z AUTO 27010KT 9999 FEW017/// SCT200///
                        04/M01 Q1005=
201903010300 METAR LRBM 010300Z 27010KT CAVOK 03/M01 Q1006=
201903010330 METAR LRBM 010330Z 28009KT CAVOK 03/M01 Q1006=
201903010400 METAR LRBM 010400Z 27008KT CAVOK 02/M01 Q1006=
201903010430 METAR LRBM 010430Z 25008KT CAVOK 02/M01 Q1006=
201903010500 METAR LRBM 010500Z 22005KT CAVOK 02/M01 Q1007=
201903010530 METAR LRBM 010530Z 24004KT CAVOK 02/M01 Q1007=
201903010600 METAR LRBM 010600Z 27003KT 230V330 CAVOK 03/M01 Q1007=
201903010630 METAR LRBM 010630Z 28004KT 260V360 CAVOK 04/M01 Q1007=
201903010700 METAR LRBM 010700Z 29004KT 260V020 CAVOK 05/M00 Q1007=
201903010730 METAR LRBM 010730Z 27007KT CAVOK 06/M00 Q1007=
201903010800 METAR LRBM 010800Z 26008KT CAVOK 08/M00 Q1007=
201903010830 METAR LRBM 010830Z 27009KT CAVOK 09/M02 Q1007=
201903010900 METAR LRBM 010900Z 28011KT 260V320 CAVOK 10/M05 Q1007=
201903010930 METAR LRBM 010930Z 30010KT 260V340 CAVOK 10/M06 Q1007=
201903011000 METAR LRBM 011000Z 30010KT 260V320 CAVOK 10/M05 Q1007=
201903011030 METAR LRBM 011030Z 27015KT CAVOK 10/M04 Q1007=
201903011100 METAR LRBM 011100Z 27011KT CAVOK 10/M04 Q1007=
201903011130 METAR LRBM 011130Z 27012KT CAVOK 10/M02 Q1007=
201903011200 METAR LRBM 011200Z 27014KT CAVOK 09/M03 Q1007=
201903011230 METAR LRBM 011230Z 28010KT 250V310 CAVOK 09/M02 Q1007=
201903011300 METAR LRBM 011300Z 27010KT CAVOK 09/M02 Q1007=
201903011330 METAR LRBM 011330Z 28008KT CAVOK 09/M02 Q1007=
201903011400 METAR LRBM 011400Z 28007KT CAVOK 09/M02 Q1007=
201903011430 METAR LRBM 011430Z 28006KT CAVOK 09/M01 Q1007=
201903011500 METAR LRBM 011500Z 28005KT CAVOK 09/M01 Q1007=
201903011530 METAR LRBM 011530Z AUTO 25003KT 9999 FEW024/// SCT160///
                        BKN240/// 08/M00 Q1006=
201903011600 METAR LRBM 011600Z AUTO 25003KT 9999 FEW014/// SCT180///
                        BKN240/// 08/00 Q1006=
201903011630 METAR LRBM 011630Z AUTO 00000KT 9999 FEW015/// SCT190///
                        07/M00 Q1006=
201903011700 METAR LRBM 011700Z AUTO 04002KT 9999 FEW015/// SCT170///
                        07/M00 Q1006=
201903011730 METAR LRBM 011730Z AUTO 02003KT 7000 FEW014/// SCT160///
                        BKN240/// 07/M00 Q1006=
201903011800 METAR LRBM 011800Z AUTO 06002KT 360V100 9999 FEW012/// SCT150///
                        BKN240/// 06/00 Q1006=
201903011830 METAR LRBM 011830Z AUTO 10005KT 9999 FEW017/// SCT170///
                        BKN240/// 06/01 Q1006=
201903011900 METAR LRBM 011900Z AUTO 01003KT 340V050 9999 FEW016/// SCT190///
                        06/00 Q1006=
201903011930 METAR LRBM 011930Z AUTO 03003KT 9999 -SHRA FEW016/// SCT190///
                        06/01 Q1006=
201903012000 METAR LRBM 012000Z AUTO 02002KT 8000 -SHRA FEW014/// SCT190///
                        06/01 Q1006=
201903012030 METAR LRBM 012030Z AUTO 35004KT 9000 -SHRA FEW007/// SCT016///
                        BKN034/// 06/02 Q1006=
201903012100 METAR LRBM 012100Z AUTO 28003KT 250V310 7000 -RA FEW008///
                        SCT014/// BKN020/// 05/02 Q1006=
201903012130 METAR LRBM 012130Z AUTO 34003KT 270V050 6000 FEW007/// SCT015///
                        BKN041/// 05/03 Q1007=
201903012200 METAR LRBM 012200Z AUTO 31003KT 260V350 9999 -SHRA FEW006///
                        SCT039/// BKN085/// 05/02 Q1007=
201903012230 METAR LRBM 012230Z AUTO 28004KT 240V340 8000 FEW020/// SCT200///
                        04/02 Q1007 RERA=
201903012300 METAR LRBM 012300Z AUTO 29005KT 8000 FEW018/// SCT180///
                        BKN240/// 04/02 Q1007=
201903012330 METAR LRBM 012330Z AUTO 29003KT 6000 FEW020/// SCT220///
                        03/02 Q1008=
201903020000 METAR LRBM 020000Z AUTO 28006KT 240V310 5000 FEW028/// SCT200///
                        03/02 Q1008=
201903020030 METAR LRBM 020030Z AUTO 31005KT 280V340 5000 FEW017/// SCT190///
                        03/02 Q1008=
201903020100 METAR LRBM 020100Z AUTO 33002KT 270V020 5000 FEW017/// SCT180///
                        02/01 Q1008=
201903020130 METAR LRBM 020130Z AUTO 29005KT 260V360 3400 FEW005/// BKN190///
                        02/01 Q1009=
201903020200 METAR LRBM 020200Z AUTO 29003KT 260V350 4400 BR FEW017///
                        SCT200/// 01/00 Q1009=
201903020230 METAR LRBM 020230Z AUTO 27007KT 6000 FEW037/// SCT200///
                        00/M01 Q1009=
201903020300 METAR LRBM 020300Z AUTO 27009KT 6000 FEW022/// SCT190///
                        00/M01 Q1010=
201903020330 METAR LRBM 020330Z AUTO VRB02KT 7000 FEW023/// SCT220///
                        M01/M02 Q1010=
201903020400 METAR LRBM 020400Z AUTO 30006KT 9999 FEW039/// SCT220///
                        00/M04 Q1010=
201903020430 METAR LRBM 020430Z AUTO 30004KT 240V340 9999 FEW080/// SCT240///
                        00/M04 Q1010=
201903020500 METAR LRBM 020500Z AUTO 24005KT 210V270 9999 FEW070/// SCT240///
                        M00/M05 Q1011=
201903020530 METAR LRBM 020530Z AUTO 28007KT 260V330 9999 FEW085/// SCT240///
                        M01/M04 Q1011=
201903020600 METAR LRBM 020600Z AUTO 29005KT 9999 FEW065/// SCT200///
                        M00/M04 Q1011=
201903020630 METAR LRBM 020630Z AUTO 26008KT 9999 FEW100/// SCT210///
                        00/M03 Q1012=
201903020700 METAR LRBM 020700Z AUTO 28008KT 260V320 9999 FEW041/// SCT220///
                        01/M03 Q1012=
201903020730 METAR LRBM 020730Z AUTO 27011KT 9999 FEW080/// SCT230///
                        01/M02 Q1012=
201903020800 METAR LRBM 020800Z AUTO 26010KT 9999 FEW060/// SCT240///
                        03/M03 Q1013=
201903020830 METAR LRBM 020830Z AUTO 25011KT 9999 FEW038/// SCT230///
                        04/M02 Q1013=
201903020900 METAR LRBM 020900Z AUTO 26011KT 9999 FEW035/// SCT240///
                        04/M04 Q1013=
201903020930 METAR LRBM 020930Z AUTO 27011KT 9999 FEW028/// SCT230///
                        05/M03 Q1013=
201903021000 METAR LRBM 021000Z AUTO 27010KT 240V300 9999 FEW032/// SCT190///
                        05/M05 Q1013=
201903021030 METAR LRBM 021030Z AUTO 26012KT 9999 FEW033/// SCT230///
                        06/M05 Q1013=
201903021100 METAR LRBM 021100Z AUTO 28010KT 9999 FEW017/// SCT190///
                        05/M07 Q1013=
201903021130 METAR LRBM 021130Z AUTO 27012KT 9999 FEW014/// SCT220///
                        06/M06 Q1013=
201903021200 METAR LRBM 021200Z AUTO 26012KT 9999 FEW014/// SCT210///
                        06/M07 Q1013=
201903021230 METAR LRBM 021230Z AUTO 26013KT 240V300 9999 FEW020/// SCT190///
                        ///// Q1013=
201903021300 METAR LRBM 021300Z AUTO 27013KT 9999 FEW020/// SCT200///
                        06/M08 Q1013=
201903021330 METAR LRBM 021330Z AUTO 28010KT 9999 FEW015/// SCT230///
                        06/M07 Q1013=
201903021400 METAR LRBM 021400Z AUTO 27009KT 9999 FEW021/// SCT230///
                        06/M06 Q1013=
201903021430 METAR LRBM 021430Z AUTO 27011KT 9999 FEW014/// SCT190///
                        06/M07 Q1014=
201903021500 METAR LRBM 021500Z AUTO 27008KT 9999 FEW019/// SCT240///
                        06/M07 Q1014=
201903021530 METAR LRBM 021530Z AUTO 27006KT 9999 FEW021/// SCT210///
                        05/M07 Q1014=
201903021600 METAR LRBM 021600Z AUTO 26006KT 9999 FEW046/// SCT240///
                        03/M05 Q1014=
201903021630 METAR LRBM 021630Z AUTO 29004KT 270V330 9999 FEW065/// SCT220///
                        03/M06 Q1015=
201903021700 METAR LRBM 021700Z AUTO 28003KT 9999 FEW018/// SCT230///
                        03/M06 Q1015=
201903021730 METAR LRBM 021730Z AUTO 30002KT 270V360 9999 FEW021/// SCT240///
                        01/M06 Q1015=
201903021800 METAR LRBM 021800Z AUTO 34002KT 310V030 9000 FEW026/// SCT200///
                        00/M05 Q1015=
201903021830 METAR LRBM 021830Z AUTO 36003KT 8000 FEW024/// SCT220///
                        M01/M06 Q1016=
201903021900 METAR LRBM 021900Z AUTO 04002KT 010V070 7000 FEW023/// SCT180///
                        M01/M06 Q1016=
201903021930 METAR LRBM 021930Z AUTO 07002KT 9999 FEW025/// SCT220///
                        M02/M06 Q1016=
201903022000 METAR LRBM 022000Z AUTO 08002KT 9999 FEW080/// SCT220///
                        M02/M06 Q1016=
201903022030 METAR LRBM 022030Z AUTO 03004KT 9999 FEW095/// SCT230///
                        M02/M06 Q1016=
201903022100 METAR LRBM 022100Z AUTO 36002KT 340V100 9999 FEW075/// SCT190///
                        M02/M06 Q1017=
201903022130 METAR LRBM 022130Z AUTO 08003KT 010V110 9999 FEW065/// SCT200///
                        M03/M07 Q1017=
201903022200 METAR LRBM 022200Z AUTO 06003KT 9999 FEW100/// SCT240///
                        M03/M06 Q1017=
201903022230 METAR LRBM 022230Z AUTO 06002KT 020V110 9999 FEW080/// SCT240///
                        M03/M07 Q1017=
201903022300 METAR LRBM 022300Z AUTO 09005KT 9999 FEW075/// SCT220///
                        M04/M07 Q1017=
201903022330 METAR LRBM 022330Z AUTO 08005KT 9999 FEW095/// SCT220///
                        M04/M07 Q1017=
201903030000 METAR LRBM 030000Z AUTO 06004KT 9999 FEW070/// SCT200///
                        M03/M07 Q1017=
201903030030 METAR LRBM 030030Z AUTO 08002KT 060V180 9999 FEW060/// SCT190///
                        M04/M07 Q1018=
201903030100 METAR LRBM 030100Z AUTO 09004KT 9999 FEW020/// SCT190///
                        M05/M07 Q1018=
201903030130 METAR LRBM 030130Z AUTO 09003KT 9999 FEW065/// SCT230///
                        M05/M07 Q1018=
201903030200 METAR LRBM 030200Z AUTO 13002KT 090V190 9999 FEW095/// SCT240///
                        M05/M07 Q1018=
201903030230 METAR LRBM 030230Z AUTO 06005KT 9999 FEW085/// SCT240///
                        M04/M07 Q1018=
201903030300 METAR LRBM 030300Z AUTO 09005KT 9999 FEW065/// SCT230///
                        M04/M07 Q1018=
201903030330 METAR LRBM 030330Z AUTO 08005KT 9999 FEW075/// SCT190///
                        M04/M07 Q1018=
201903030400 METAR LRBM 030400Z AUTO 11004KT 9999 FEW070/// SCT160///
                        BKN230/// M04/M07 Q1018=
201903030430 METAR LRBM 030430Z AUTO 09005KT 9999 FEW070/// SCT190///
                        M03/M07 Q1018=
201903030500 METAR LRBM 030500Z AUTO 10006KT 9999 FEW070/// SCT170///
                        M03/M06 Q1018=
201903030530 METAR LRBM 030530Z AUTO 08005KT 9999 FEW070/// BKN190///
                        M03/M06 Q1018=
201903030600 METAR LRBM 030600Z AUTO 08006KT 9999 FEW065/// SCT190///
                        M01/M06 Q1018=
201903030630 METAR LRBM 030630Z AUTO 10005KT 9999 FEW055/// SCT200///
                        M01/M05 Q1018=
201903030700 METAR LRBM 030700Z AUTO 11004KT 9999 FEW065/// SCT160///
                        BKN240/// M01/M05 Q1018=
201903030730 METAR LRBM 030730Z AUTO 09004KT 9999 FEW065/// SCT200///
                        00/M04 Q1019=
201903030800 METAR LRBM 030800Z AUTO 10005KT 9999 FEW065/// SCT220///
                        01/M05 Q1019=
201903030830 METAR LRBM 030830Z AUTO 10004KT 9999 FEW060/// SCT200///
                        03/M04 Q1019=
201903030900 METAR LRBM 030900Z AUTO 13003KT 080V200 9999 FEW060/// SCT200///
                        05/M06 Q1019=
201903030930 METAR LRBM 030930Z AUTO 12004KT 080V170 9999 FEW043/// SCT200///
                        05/M10 Q1019=
201903031000 METAR LRBM 031000Z AUTO 13003KT 080V190 9999 FEW019/// SCT210///
                        06/M07 Q1019=
201903031030 METAR LRBM 031030Z AUTO 13003KT 080V200 9999 FEW024/// SCT210///
                        07/M07 Q1019=
201903031100 METAR LRBM 031100Z AUTO VRB02KT 9999 FEW016/// SCT220///
                        07/M07 Q1018=
201903031130 METAR LRBM 031130Z AUTO 27004KT 230V320 9999 FEW027/// SCT210///
                        08/M06 Q1018=
201903031200 METAR LRBM 031200Z AUTO 07005KT 040V120 9999 FEW016/// SCT220///
                        08/M06 Q1018=
201903031230 METAR LRBM 031230Z AUTO VRB05KT 9999 FEW016/// SCT180///
                        08/M06 Q1017=
201903031300 METAR LRBM 031300Z AUTO 14003KT 080V180 9999 FEW014/// SCT210///
                        08/M06 Q1017=
201903031330 METAR LRBM 031330Z AUTO 32002KT 260V020 9999 FEW019/// SCT230///
                        08/M06 Q1017=
201903031400 METAR LRBM 031400Z AUTO VRB03KT 9999 FEW014/// SCT190///
                        ///// Q1017=
201903031430 METAR LRBM 031430Z AUTO 19003KT 160V240 9999 FEW014/// SCT210///
                        09/M05 Q1017=
201903031500 METAR LRBM 031500Z AUTO VRB01KT 9999 FEW021/// SCT230///
                        08/M05 Q1016=
201903031530 METAR LRBM 031530Z AUTO VRB01KT 9999 FEW015/// SCT190///
                        08/M04 Q1016=
201903031600 METAR LRBM 031600Z AUTO 29002KT 9999 FEW019/// SCT120///
                        BKN240/// 08/M05 Q1016=
201903031630 METAR LRBM 031630Z AUTO 31002KT 280V350 9999 FEW027/// SCT170///
                        BKN240/// 07/M04 Q1017=
201903031700 METAR LRBM 031700Z AUTO VRB01KT 9999 FEW041/// SCT150///
                        07/M04 Q1016=
201903031730 METAR LRBM 031730Z AUTO 05001KT 9999 FEW026/// SCT130///
                        BKN240/// 06/M02 Q1016=
201903031800 METAR LRBM 031800Z 03002KT 9999 FEW039 SCT047 06/M02 Q1016=
201903031830 METAR LRBM 031830Z 06002KT 9999 SCT037 06/M02 Q1016=
201903031900 METAR LRBM 031900Z 09004KT 050V110 9999 SCT033 BKN042 05/M01
                        Q1016=
201903031930 METAR LRBM 031930Z 07004KT 9999 SCT033 BKN042 06/M01 Q1016=
201903032000 METAR LRBM 032000Z 06004KT 9999 -RA FEW010 SCT033 BKN041
                        05/M01 Q1016=
201903032030 METAR LRBM 032030Z 04004KT 9999 -RA FEW009 SCT020 BKN032
                        05/M00 Q1016=
201903032100 METAR LRBM 032100Z 04004KT 9999 -RA FEW008 BKN030 05/01 Q1015
                        R09/19//95=
201903032130 METAR LRBM 032130Z 03004KT 350V070 9999 BKN027 05/02 Q1015
                        R09/19//95=
201903032200 METAR LRBM 032200Z 05006KT 9999 BKN029 05/01 Q1015 R09/19//95=
201903032230 METAR LRBM 032230Z AUTO 05005KT 9999 BKN030/// BKN240///
                        05/01 Q1015=
201903032300 METAR LRBM 032300Z AUTO 04004KT 010V070 9999 BKN031/// 05/01
                        Q1015=
201903032330 METAR LRBM 032330Z AUTO 04006KT 9999 FEW009/// SCT042///
                        BKN170/// 05/01 Q1015=
201903040000 METAR LRBM 040000Z AUTO 05004KT 9999 SCT042/// BKN180///
                        05/01 Q1014=
201903040030 METAR LRBM 040030Z AUTO 06005KT 020V080 9999 FEW055/// SCT160///
                        BKN240/// 05/01 Q1014=
201903040100 METAR LRBM 040100Z AUTO 06005KT 030V090 9999 FEW047/// SCT090///
                        BKN240/// 05/01 Q1014=
201903040130 METAR LRBM 040130Z AUTO 06005KT 9999 FEW050/// SCT190///
                        05/01 Q1014=
201903040200 METAR LRBM 040200Z AUTO 06005KT 9999 FEW033/// SCT160///
                        BKN240/// 05/01 Q1013=
201903040230 METAR LRBM 040230Z AUTO 06005KT 020V080 9999 FEW050/// SCT170///
                        BKN240/// 05/01 Q1013=
201903040300 METAR LRBM 040300Z 06004KT 030V090 9999 FEW043 BKN055 05/01
                        Q1013 R09/CLRD//=
201903040330 METAR LRBM 040330Z 06005KT 9999 FEW045 BKN060 05/01 Q1013=
201903040400 METAR LRBM 040400Z 07005KT 9999 FEW045 SCT060 05/01 Q1013=
201903040430 METAR LRBM 040430Z 07007KT 9999 BKN058 05/01 Q1012=
201903040500 METAR LRBM 040500Z 06006KT 9999 BKN060 04/01 Q1012=
201903040530 METAR LRBM 040530Z 06005KT 9999 SCT060 04/01 Q1012=
201903040600 METAR LRBM 040600Z 06005KT 9999 FEW060 05/01 Q1012=
201903040630 METAR LRBM 040630Z 06006KT 9999 FEW060 05/01 Q1012=
201903040700 METAR LRBM 040700Z 07005KT CAVOK 06/01 Q1012=
201903040730 METAR LRBM 040730Z 09005KT CAVOK 07/02 Q1012=
201903040800 METAR LRBM 040800Z 09007KT CAVOK 08/01 Q1011=
201903040830 METAR LRBM 040830Z 11007KT CAVOK 09/M00 Q1011=
201903040900 METAR LRBM 040900Z 11007KT 080V140 CAVOK 10/M00 Q1011=
201903040930 METAR LRBM 040930Z 10007KT 080V140 CAVOK 11/01 Q1011=
201903041000 METAR LRBM 041000Z 14008KT CAVOK 12/M00 Q1010=
201903041030 METAR LRBM 041030Z 12006KT 090V150 CAVOK 13/M00 Q1009=
201903041100 METAR LRBM 041100Z 10006KT CAVOK 13/00 Q1009=
201903041130 METAR LRBM 041130Z 10005KT 070V150 CAVOK 14/00 Q1009=
201903041200 METAR LRBM 041200Z 09006KT 050V180 CAVOK 14/00 Q1008=
201903041230 METAR LRBM 041230Z 13004KT 080V170 CAVOK 15/M01 Q1007=
201903041300 METAR LRBM 041300Z 08005KT 050V110 CAVOK 15/M00 Q1007=
201903041330 METAR LRBM 041330Z 12006KT 090V150 CAVOK 15/00 Q1007=
201903041400 METAR LRBM 041400Z 11006KT CAVOK 15/01 Q1006=
201903041430 METAR LRBM 041430Z 11006KT CAVOK 15/M00 Q1006=
201903041500 METAR LRBM 041500Z 10008KT CAVOK 14/01 Q1006=
201903041530 METAR LRBM 041530Z 09007KT CAVOK 12/02 Q1006=
201903041600 METAR LRBM 041600Z 08006KT CAVOK 13/01 Q1005=
201903041630 METAR LRBM 041630Z 08007KT CAVOK 13/01 Q1005=
201903041700 METAR LRBM 041700Z 06005KT CAVOK 12/01 Q1005=
201903041730 METAR LRBM 041730Z AUTO 06006KT 9999 FEW013/// SCT180///
                        10/01 Q1005=
201903041800 METAR LRBM 041800Z AUTO 06005KT 9999 FEW019/// SCT190///
                        09/01 Q1005=
201903041830 METAR LRBM 041830Z AUTO 04003KT 360V070 9999 FEW033/// SCT230///
                        08/00 Q1005=
201903041900 METAR LRBM 041900Z AUTO 02002KT 9999 FEW023/// SCT180///
                        07/00 Q1005=
201903041930 METAR LRBM 041930Z AUTO 04003KT 9999 FEW050/// SCT200///
                        07/00 Q1004=
201903042000 METAR LRBM 042000Z AUTO 06005KT 9999 FEW031/// SCT220///
                        07/01 Q1004=
201903042030 METAR LRBM 042030Z AUTO VRB01KT 9999 FEW100/// SCT220///
                        07/00 Q1004=
201903042100 METAR LRBM 042100Z AUTO 03003KT 360V080 9999 FEW028/// SCT210///
                        07/00 Q1003=
201903042130 METAR LRBM 042130Z AUTO 05004KT 360V080 9999 FEW047/// SCT210///
                        07/01 Q1003=
201903042200 METAR LRBM 042200Z AUTO 06007KT 9999 FEW075/// SCT220///
                        08/00 Q1002=
201903042230 METAR LRBM 042230Z AUTO 06005KT 9999 FEW085/// SCT240///
                        08/00 Q1002=
201903042300 METAR LRBM 042300Z AUTO 10003KT 060V160 9999 FEW095/// SCT210///
                        07/01 Q1002=
201903042330 METAR LRBM 042330Z AUTO 04003KT 9999 FEW070/// SCT170///
                        BKN230/// 06/01 Q1002=
201903050000 METAR LRBM 050000Z AUTO 04003KT 360V100 9999 FEW047/// SCT180///
                        BKN240/// 07/01 Q1002=
201903050030 METAR LRBM 050030Z AUTO 08003KT 9999 FEW055/// SCT160///
                        07/01 Q1002=
201903050100 METAR LRBM 050100Z AUTO 01002KT 350V050 9999 FEW060/// SCT170///
                        BKN240/// 07/01 Q1002=
201903050130 METAR LRBM 050130Z AUTO 04003KT 010V080 9999 FEW028/// SCT150///
                        BKN220/// 07/01 Q1002=
201903050200 METAR LRBM 050200Z AUTO 04002KT 360V100 9999 FEW025/// SCT210///
                        07/01 Q1002=
201903050230 METAR LRBM 050230Z AUTO 24015KT 9999 -DZ FEW017/// SCT190///
                        ///// Q1003=
201903050300 METAR LRBM 050300Z AUTO 23008KT 9999 FEW020/// SCT100///
                        BKN240/// 09/02 Q1003 REDZ=
201903050330 METAR LRBM 050330Z AUTO 22008KT 9999 FEW050/// SCT090///
                        BKN240/// 09/02 Q1003 REDZ=
201903050400 METAR LRBM 050400Z AUTO 21007KT 9999 SCT050/// BKN220///
                        08/02 Q1003=
201903050430 METAR LRBM 050430Z AUTO 20009KT 9999 SCT050/// BKN160///
                        08/02 Q1004=
201903050500 METAR LRBM 050500Z 21012KT 9999 FEW015 BKN038 08/03 Q1004=
201903050530 METAR LRBM 050530Z 15005KT 110V200 9999 FEW017 OVC042 08/02
                        Q1004=
201903050600 METAR LRBM 050600Z 22005KT 160V250 9999 FEW017 OVC038 08/02
                        Q1005=
201903050630 METAR COR LRBM 050630Z 23009KT 190V260 9999 FEW017 BKN042
                        09/03 Q1005 R09/19//95=
201903050700 METAR LRBM 050700Z 20008KT 9999 FEW034 BKN049 07/03 Q1006
                        R09/19//95=
201903050730 METAR LRBM 050730Z 27005KT 220V360 9999 FEW034 BKN049 09/02
                        Q1006 R09/19//95=
201903050800 METAR LRBM 050800Z 25014KT 9999 FEW034 BKN048 09/02 Q1006
                        R09/19//95=
201903050830 METAR LRBM 050830Z 25013KT 9999 SCT034 BKN048 09/01 Q1007
                        R09/19//95=
201903050900 METAR LRBM 050900Z 25013KT 9999 SCT034 BKN048 09/01 Q1007
                        R09/19//95=
201903050930 METAR LRBM 050930Z 25013KT 9999 SCT036 SCT048 09/01 Q1007
                        R09/CLRD//=
201903051000 METAR LRBM 051000Z 26016KT 9999 SCT036 10/01 Q1008=
201903051030 METAR LRBM 051030Z 24016KT 9999 SCT038 11/M00 Q1007=
201903051100 METAR LRBM 051100Z 25014KT 9999 SCT040 12/M00 Q1007=
201903051130 METAR LRBM 051130Z 24015KT 9999 SCT042 12/M01 Q1007=
201903051200 METAR LRBM 051200Z 26014KT 9999 BKN044 13/M00 Q1007=
201903051230 METAR LRBM 051230Z 27012KT 9999 SCT046 14/M03 Q1007=
201903051300 METAR LRBM 051300Z 25017KT 9999 FEW046 14/M06 Q1007=
201903051330 METAR LRBM 051330Z 26019KT 9999 FEW048 14/M06 Q1007=
201903051400 METAR LRBM 051400Z 24022KT 9999 SCT048 13/M03 Q1007=
201903051430 METAR LRBM 051430Z 24018KT 9999 SCT048 13/M02 Q1007=
201903051500 METAR LRBM 051500Z 25017KT 9999 SCT048 13/M02 Q1008=
201903051530 METAR LRBM 051530Z 24018KT 9999 BKN048 12/M03 Q1008=
201903051600 METAR LRBM 051600Z 24015KT 9999 SCT048 12/M03 Q1008=
201903051630 METAR LRBM 051630Z 25010KT 9999 SCT050 10/M02 Q1009=
201903051700 METAR LRBM 051700Z 25009KT 9999 FEW050 09/M04 Q1009=
201903051730 METAR LRBM 051730Z AUTO 33003KT 9999 FEW019/// SCT210///
                        09/M04 Q1010=
201903051800 METAR LRBM 051800Z AUTO 30005KT 270V340 9999 FEW021/// SCT230///
                        09/M05 Q1010=
201903051830 METAR LRBM 051830Z AUTO 29004KT 9999 FEW050/// SCT220///
                        09/M06 Q1010=
201903051900 METAR LRBM 051900Z AUTO 34002KT 9999 FEW048/// SCT230///
                        05/M04 Q1011=
201903051930 METAR LRBM 051930Z AUTO 10002KT 9999 FEW015/// SCT230///
                        04/M04 Q1011=
201903052000 METAR LRBM 052000Z AUTO VRB01KT 9999 FEW065/// SCT210///
                        04/M04 Q1011=
201903052030 METAR LRBM 052030Z AUTO 02001KT 9999 FEW044/// 03/M04 Q1012=
201903052100 METAR LRBM 052100Z AUTO 01003KT 330V070 9999 FEW095/// SCT220///
                        02/M03 Q1012=
201903052130 METAR LRBM 052130Z AUTO 05004KT 9000 FEW017/// SCT230///
                        ///// Q1012=
201903052200 METAR LRBM 052200Z AUTO 05005KT 310V080 9999 FEW050/// SCT200///
                        02/M03 Q1012=
201903052230 METAR LRBM 052230Z AUTO 06004KT 020V120 9999 FEW085/// SCT240///
                        02/M03 Q1012=
201903052300 METAR LRBM 052300Z AUTO 03003KT 350V060 9999 FEW100/// SCT190///
                        02/M03 Q1013=
201903052330 METAR LRBM 052330Z AUTO 04003KT 010V070 9999 FEW095/// SCT230///
                        03/M03 Q1013=
201903060000 METAR LRBM 060000Z AUTO 09004KT 9999 FEW070/// SCT230///
                        04/M01 Q1013=
201903060030 METAR LRBM 060030Z AUTO 08007KT 9999 -SHRA FEW013/// SCT190///
                        03/M01 Q1013=
201903060100 METAR LRBM 060100Z AUTO 07006KT 040V100 9999 FEW027/// SCT150///
                        05/M02 Q1012 REDZ=
201903060130 METAR LRBM 060130Z AUTO 04005KT 350V090 9999 -SHRA FEW007///
                        BKN026/// BKN220/// 04/M00 Q1012=
201903060200 METAR LRBM 060200Z AUTO VRB03KT 9999 -SHRA FEW003/// SCT023///
                        BKN028/// 05/01 Q1013=
201903060230 METAR LRBM 060230Z AUTO 27012KT 250V310 9999 RA FEW007///
                        SCT012/// BKN024/// 05/02 Q1014=
201903060300 METAR LRBM 060300Z AUTO 27012KT 9999 RA FEW004/// SCT016///
                        BKN021/// 04/02 Q1014=
201903060330 METAR LRBM 060330Z AUTO 29006KT 9999 RA FEW006/// SCT013///
                        BKN019/// 03/02 Q1014=
201903060400 METAR LRBM 060400Z AUTO VRB01KT 9999 -RA FEW009/// BKN011///
                        BKN020/// 03/02 Q1014=
201903060430 METAR LRBM 060430Z AUTO 28002KT 220V320 9000 RA FEW007///
                        BKN010/// BKN039/// 03/02 Q1015=
201903060500 METAR LRBM 060500Z 07003KT 030V110 9999 -RA FEW005 SCT013
                        BKN021 02/01 Q1015 R09/19//95=
201903060530 METAR LRBM 060530Z 07004KT 9999 FEW008 BKN018 02/01 Q1015
                        R09/19//95=
201903060600 METAR LRBM 060600Z 09005KT 9999 SCT007 BKN020 02/01 Q1016
                        R09/19//95=
201903060630 METAR COR LRBM 060630Z 09005KT 9999 BKN007 BKN023 02/01 Q1016
                        R09/19//95=
201903060700 METAR LRBM 060700Z 09004KT 9999 BKN008 BKN023 03/01 Q1017
                        R09/19//95=
201903060730 METAR LRBM 060730Z 10003KT 9999 BKN010 BKN026 03/02 Q1017
                        R09/19//95=
201903060800 METAR LRBM 060800Z 11003KT 9999 BKN010 BKN026 04/02 Q1018
                        R09/19//95=
201903060830 METAR LRBM 060830Z 16002KT 100V250 9999 SCT010 BKN026 05/03
                        Q1018 R09/19//95=
201903060900 METAR LRBM 060900Z VRB02KT 9999 SCT012 BKN026 06/03 Q1018
                        R09/19//95=
201903060930 METAR LRBM 060930Z 24005KT 220V280 9999 FEW013 BKN026 07/03
                        Q1019 R09/19//95=
201903061000 METAR LRBM 061000Z 25006KT 9999 FEW014 BKN030 07/03 Q1019
                        R09/19//95=
201903061030 METAR LRBM 061030Z 26005KT 220V310 9999 BKN026 08/03 Q1019
                        R09/19//95=
201903061100 METAR LRBM 061100Z 31005KT 260V010 9999 BKN026 08/01 Q1019
                        R09/10CLRD//=
201903061130 METAR LRBM 061130Z 33006KT 280V010 9999 BKN026 09/M00 Q1019=
201903061200 METAR LRBM 061200Z 32005KT 280V340 9999 BKN028 09/00 Q1019=
201903061230 METAR LRBM 061230Z 28008KT 9999 BKN033 09/00 Q1019=
201903061300 METAR LRBM 061300Z 31008KT 9999 BKN036 09/M00 Q1019=
201903061330 METAR LRBM 061330Z 27007KT 240V310 9999 SCT042 09/00 Q1019=
201903061400 METAR LRBM 061400Z 27008KT 240V310 9999 SCT043 10/M00 Q1019=
201903061430 METAR LRBM 061430Z 27006KT 9999 SCT043 10/M00 Q1019=
201903061500 METAR LRBM 061500Z 26008KT 9999 SCT043 09/M00 Q1019=
201903061530 METAR LRBM 061530Z 25006KT 9999 SCT043 09/M01 Q1020=
201903061600 METAR LRBM 061600Z 25004KT 9999 FEW043 08/M00 Q1020=
201903061630 METAR LRBM 061630Z 34002KT 310V020 CAVOK 08/M01 Q1020=
201903061700 METAR LRBM 061700Z 03003KT CAVOK 06/M01 Q1020=
201903061730 METAR LRBM 061730Z AUTO 06003KT 9999 FEW038/// SCT220///
                        04/M01 Q1021=
201903061800 METAR LRBM 061800Z AUTO 02003KT 9999 FEW021/// SCT220///
                        04/M01 Q1020=
201903061830 METAR LRBM 061830Z AUTO 03003KT 340V070 9999 FEW032/// SCT240///
                        04/M01 Q1020=
201903061900 METAR LRBM 061900Z AUTO 07003KT 020V090 9999 FEW120/// SCT230///
                        03/M01 Q1021=
201903061930 METAR LRBM 061930Z AUTO 06001KT 9999 FEW065/// SCT230///
                        02/M02 Q1020=
201903062000 METAR LRBM 062000Z AUTO 07003KT 040V100 9999 FEW085/// SCT240///
                        03/M01 Q1020=
201903062030 METAR LRBM 062030Z AUTO 06004KT 9999 FEW085/// SCT240///
                        02/M01 Q1021=
201903062100 METAR LRBM 062100Z AUTO 07007KT 9999 FEW090/// SCT240///
                        02/M01 Q1021=
201903062130 METAR LRBM 062130Z AUTO 08008KT 9999 FEW065/// SCT230///
                        02/M01 Q1020=
201903062200 METAR LRBM 062200Z AUTO 07006KT 9999 FEW100/// SCT240///
                        03/M02 Q1020=
201903062230 METAR LRBM 062230Z AUTO 07006KT 9999 FEW095/// SCT200///
                        02/M02 Q1020=
201903062300 METAR LRBM 062300Z AUTO 07006KT 9999 FEW100/// SCT210///
                        02/M02 Q1020=
201903062330 METAR LRBM 062330Z AUTO 08005KT 9999 FEW032/// SCT230///
                        02/M02 Q1020=
201903070000 METAR LRBM 070000Z AUTO 08007KT 9999 FEW080/// SCT220///
                        02/M02 Q1020=
201903070030 METAR LRBM 070030Z AUTO 08010KT 9999 FEW100/// SCT240///
                        05/M02 Q1019=
201903070100 METAR LRBM 070100Z AUTO 08010KT 9999 FEW110/// SCT240///
                        05/M02 Q1019=
201903070130 METAR LRBM 070130Z AUTO 08010KT 9999 FEW075/// SCT230///
                        06/M02 Q1018=
201903070200 METAR LRBM 070200Z AUTO 08009KT 9999 FEW023/// SCT230///
                        05/M02 Q1018=
201903070230 METAR LRBM 070230Z AUTO 09009KT 9999 FEW085/// SCT230///
                        05/M01 Q1018=
201903070300 METAR LRBM 070300Z AUTO 09009KT 9999 FEW055/// SCT230///
                        04/M01 Q1018=
201903070330 METAR LRBM 070330Z AUTO 08008KT 9999 FEW080/// SCT230///
                        06/M02 Q1018=
201903070400 METAR LRBM 070400Z AUTO 08009KT 9999 FEW028/// SCT220///
                        05/M01 Q1017=
201903070430 METAR LRBM 070430Z AUTO 08009KT 9999 FEW035/// SCT240///
                        05/M02 Q1017=
201903070500 METAR LRBM 070500Z 08009KT CAVOK 05/M02 Q1017=
201903070530 METAR LRBM 070530Z 08009KT CAVOK 05/M02 Q1017=
201903070600 METAR LRBM 070600Z 09010KT CAVOK 06/M01 Q1017=
201903070630 METAR LRBM 070630Z 09010KT CAVOK 07/M01 Q1017=
201903070700 METAR LRBM 070700Z 09010KT CAVOK 07/M01 Q1017=
201903070730 METAR LRBM 070730Z 09009KT CAVOK 08/M01 Q1017=
201903070800 METAR LRBM 070800Z 09010KT CAVOK 08/M02 Q1017=
201903070830 METAR LRBM 070830Z 09011KT CAVOK 08/M02 Q1016=
201903070900 METAR LRBM 070900Z 10010KT CAVOK 08/M03 Q1016=
201903070930 METAR LRBM 070930Z 10010KT CAVOK 09/M03 Q1016=
201903071000 METAR LRBM 071000Z 10012KT CAVOK 09/M04 Q1016=
201903071030 METAR LRBM 071030Z 10009KT CAVOK 09/M03 Q1016=
201903071100 METAR LRBM 071100Z 10010KT 9999 BKN060 10/M03 Q1015=
201903071130 METAR LRBM 071130Z 10010KT 9999 BKN060 10/M02 Q1015=
201903071200 METAR LRBM 071200Z 09010KT CAVOK 10/M01 Q1015=
201903071230 METAR LRBM 071230Z 07009KT CAVOK 11/M02 Q1014=
201903071300 METAR LRBM 071300Z 07008KT CAVOK 12/M01 Q1014=
201903071330 METAR LRBM 071330Z 07009KT CAVOK 12/M02 Q1013=
201903071400 METAR LRBM 071400Z 08009KT CAVOK 13/M01 Q1013=
201903071430 METAR LRBM 071430Z 08009KT CAVOK 13/M01 Q1013=
201903071500 METAR LRBM 071500Z 07008KT CAVOK 13/M01 Q1012=
201903071530 METAR LRBM 071530Z 06007KT CAVOK 13/M01 Q1012=
201903071600 METAR LRBM 071600Z 05007KT CAVOK 12/M01 Q1012=
201903071630 METAR LRBM 071630Z 05006KT CAVOK 12/M01 Q1013=
201903071700 METAR LRBM 071700Z 05007KT CAVOK 12/M01 Q1012=
201903071730 METAR LRBM 071730Z AUTO 04008KT 9999 FEW018/// SCT200///
                        12/M01 Q1013=
201903071800 METAR LRBM 071800Z AUTO 04007KT 9999 FEW030/// SCT210///
                        12/M01 Q1013=
201903071830 METAR LRBM 071830Z AUTO 04007KT 9999 FEW038/// SCT210///
                        11/M01 Q1012=
201903071900 METAR LRBM 071900Z AUTO 05005KT 020V090 9999 FEW016/// SCT230///
                        09/M01 Q1012=
201903071930 METAR LRBM 071930Z AUTO 04005KT 010V070 9999 FEW048/// SCT240///
                        11/M01 Q1012=
201903072000 METAR LRBM 072000Z AUTO 05006KT 360V070 9999 FEW027/// SCT200///
                        12/M01 Q1012=
201903072030 METAR LRBM 072030Z AUTO 04008KT 020V080 9999 FEW016/// SCT180///
                        11/M01 Q1012=
201903072100 METAR LRBM 072100Z AUTO 06006KT 9999 FEW021/// SCT210///
                        10/00 Q1013=
201903072130 METAR LRBM 072130Z AUTO 05006KT 9999 FEW024/// SCT200///
                        10/M01 Q1012=
201903072200 METAR LRBM 072200Z AUTO 06005KT 010V100 9999 FEW019/// SCT230///
                        09/M00 Q1013=
201903072230 METAR LRBM 072230Z AUTO 05004KT 020V080 9999 FEW040/// SCT220///
                        09/00 Q1012=
201903072300 METAR LRBM 072300Z AUTO 06006KT 9999 FEW044/// SCT220///
                        09/00 Q1013=
201903072330 METAR LRBM 072330Z AUTO 06003KT 360V100 9999 FEW027/// SCT230///
                        10/01 Q1013=
201903080000 METAR LRBM 080000Z AUTO 09007KT 9999 FEW029/// SCT210///
                        09/02 Q1013=
201903080030 METAR LRBM 080030Z AUTO 09007KT 9999 FEW018/// SCT210///
                        09/01 Q1013=
201903080100 METAR LRBM 080100Z AUTO 09006KT 9999 FEW017/// SCT200///
                        08/02 Q1013=
201903080130 METAR LRBM 080130Z AUTO 09005KT 9999 FEW016/// SCT180///
                        09/02 Q1013=
201903080200 METAR LRBM 080200Z AUTO 07004KT 9999 FEW018/// SCT220///
                        08/02 Q1013=
201903080230 METAR LRBM 080230Z AUTO 06004KT 9999 FEW024/// SCT190///
                        09/01 Q1014=
201903080300 METAR LRBM 080300Z AUTO 06004KT 9999 NCD 10/01 Q1014=
201903080330 METAR LRBM 080330Z AUTO 04002KT 350V080 9999 NCD 09/01 Q1014=
201903080400 METAR LRBM 080400Z AUTO 05004KT 9999 FEW021/// SCT220///
                        09/02 Q1014=
201903080430 METAR LRBM 080430Z AUTO 06003KT 9999 FEW019/// SCT190///
                        09/02 Q1014=
201903080500 METAR LRBM 080500Z 04003KT 360V090 CAVOK 10/02 Q1014=
201903080530 METAR LRBM 080530Z 01003KT 340V070 9999 SCT058 09/03 Q1014=
201903080600 METAR LRBM 080600Z 03002KT 9999 -RA SCT055 09/05 Q1015=
201903080630 METAR LRBM 080630Z 01003KT 320V090 9999 -RA BKN055 09/05
                        Q1015=
201903080700 METAR LRBM 080700Z 35001KT 9999 -RA BKN058 10/06 Q1015 R09/19//95=
201903080730 METAR LRBM 080730Z 07004KT 9999 BKN058 10/06 Q1015 R09/19//95=
201903080800 METAR LRBM 080800Z 04003KT 010V070 CAVOK 10/06 Q1015 R09/19//95=
201903080830 METAR LRBM 080830Z 04002KT 350V100 CAVOK 10/06 Q1015=
201903080900 METAR LRBM 080900Z 04001KT CAVOK 11/06 Q1015=
201903080930 METAR LRBM 080930Z 05002KT 330V090 CAVOK 12/07 Q1015=
201903081000 METAR LRBM 081000Z 05003KT CAVOK 13/05 Q1015=
201903081030 METAR LRBM 081030Z 07003KT 030V100 CAVOK 13/06 Q1015=
201903081100 METAR LRBM 081100Z 06003KT 030V090 CAVOK 13/05 Q1015=
201903081130 METAR LRBM 081130Z 04003KT 360V080 CAVOK 14/05 Q1015=
201903081200 METAR LRBM 081200Z 04001KT CAVOK 14/04 Q1015=
201903081230 METAR LRBM 081230Z 00000KT 9999 FEW058 13/07 Q1015=
201903081300 METAR LRBM 081300Z VRB01KT 9999 -RA FEW030 NKN048 12/08 Q1016=
201903081330 METAR LRBM 081330Z 36004KT 310V040 9999 SCT026 BKN050 12/07
                        Q1016 R09/19//95=
201903081400 METAR LRBM 081400Z 02003KT 340V060 9999 -RA FEW008 BKN023
                        BKN048 10/08 Q1016 R09/19//95=
201903081430 METAR LRBM 081430Z 02002KT 350V050 8000 -RA FEW010 BKN027
                        BKN050 10/08 Q1016 R09/19//95=
201903081500 METAR LRBM 081500Z 04006KT 9999 -RA FEW010 SCT031 BKN055
                        09/08 Q1016 R09/19//95=
201903081530 METAR COR LRBM 081530Z 06003KT 9999 -RA SCT033 BKN055 09/08
                        Q1017 R09/29//95=
201903081600 METAR LRBM 081600Z 06004KT 9999 FEW036 BKN055 09/07 Q1017
                        R09/29//95=
201903081630 METAR LRBM 081630Z 07005KT 9999 FEW040 BKN058 09/07 Q1017
                        R09/29//95=
201903081700 METAR LRBM 081700Z 07005KT 9999 FEW046 SCT060 08/07 Q1017
                        R09/29//95=
201903081730 METAR LRBM 081730Z AUTO 04004KT 9999 FEW016/// SCT220///
                        08/07 Q1017=
201903081800 METAR LRBM 081800Z AUTO 02003KT 350V080 9999 FEW023/// SCT230///
                        08/06 Q1017=
201903081830 METAR LRBM 081830Z AUTO 05002KT 360V080 9999 FEW017/// SCT230///
                        08/06 Q1017=
201903081900 METAR LRBM 081900Z AUTO 06003KT 6000 FEW055/// SCT210///
                        07/05 Q1018=
201903081930 METAR LRBM 081930Z AUTO 04003KT 9000 FEW025/// SCT220///
                        06/05 Q1018=
201903082000 METAR LRBM 082000Z AUTO 01005KT 340V040 9999 FEW030/// 07/05
                        Q1018=
201903082030 METAR LRBM 082030Z AUTO 05003KT 020V080 9000 FEW060/// SCT200///
                        06/05 Q1018=
201903082100 METAR LRBM 082100Z AUTO 06003KT 9999 FEW085/// SCT200///
                        07/05 Q1019=
201903082130 METAR LRBM 082130Z AUTO 06002KT 020V090 9999 FEW070/// SCT230///
                        06/04 Q1019=
201903082200 METAR LRBM 082200Z AUTO 06005KT 5000 FEW070/// SCT190///
                        06/04 Q1019=
201903082230 METAR LRBM 082230Z AUTO 03003KT 9999 FEW085/// SCT230///
                        06/04 Q1019=
201903082300 METAR LRBM 082300Z AUTO 06005KT 7000 FEW075/// SCT220///
                        05/03 Q1019=
201903082330 METAR LRBM 082330Z AUTO 05002KT 020V090 9999 FEW100/// SCT230///
                        06/03 Q1019=
201903090000 METAR LRBM 090000Z AUTO 05002KT 350V110 9999 FEW065/// SCT190///
                        05/03 Q1019=
201903090030 METAR LRBM 090030Z AUTO 05004KT 360V070 9999 FEW075/// SCT220///
                        05/03 Q1020=
201903090100 METAR LRBM 090100Z AUTO 05002KT 020V080 9999 FEW055/// SCT220///
                        05/03 Q1019=
201903090130 METAR LRBM 090130Z AUTO 10005KT 7000 FEW041/// SCT240///
                        05/03 Q1020=
201903090200 METAR LRBM 090200Z AUTO VRB02KT 9999 FEW028/// SCT210///
                        04/03 Q1020=
201903090230 METAR LRBM 090230Z AUTO 04002KT 320V110 9999 FEW055/// SCT230///
                        05/03 Q1020=
201903090300 METAR LRBM 090300Z AUTO 07003KT 020V090 9999 FEW017/// SCT220///
                        05/03 Q1020=
201903090330 METAR LRBM 090330Z AUTO 07003KT 360V100 9999 FEW060/// SCT190///
                        05/03 Q1020=
201903090400 METAR LRBM 090400Z AUTO 11004KT 090V160 9999 FEW065/// BKN190///
                        04/03 Q1020=
201903090430 METAR LRBM 090430Z AUTO 09005KT 060V120 9999 FEW065/// SCT200///
                        05/03 Q1020=
201903090500 METAR LRBM 090500Z AUTO 08006KT 9999 FEW065/// SCT210///
                        04/02 Q1020=
201903090530 METAR LRBM 090530Z AUTO 09005KT 9999 FEW120/// SCT230///
                        05/03 Q1020=
201903090600 METAR LRBM 090600Z AUTO 06004KT 9999 FEW100/// SCT240///
                        05/04 Q1020=
201903090630 METAR LRBM 090630Z AUTO 08003KT 9999 FEW090/// SCT230///
                        06/04 Q1020=
201903090700 METAR LRBM 090700Z AUTO 10006KT 9999 FEW010/// SCT120///
                        06/04 Q1020=
201903090730 METAR LRBM 090730Z AUTO 07005KT 9999 FEW007/// SCT017///
                        BKN050/// 06/05 Q1020=
201903090800 METAR LRBM 090800Z AUTO 09005KT 9999 SCT050/// BKN110///
                        07/05 Q1020=
201903090830 METAR LRBM 090830Z AUTO 06003KT 9999 SCT049/// BKN210///
                        07/05 Q1020=
201903090900 METAR LRBM 090900Z AUTO 07005KT 9999 SCT046/// BKN180///
                        08/05 Q1020=
201903090930 METAR LRBM 090930Z AUTO 06003KT 020V080 9999 FEW034/// SCT049///
                        BKN240/// 09/05 Q1020=
201903091000 METAR LRBM 091000Z AUTO 03002KT 350V070 9999 SCT048/// BKN230///
                        ///// Q1020=
201903091030 METAR LRBM 091030Z AUTO 06004KT 9999 FEW010/// SCT060///
                        BKN240/// 10/05 Q1019=
201903091100 METAR LRBM 091100Z AUTO 10006KT 070V150 9999 FEW041/// SCT180///
                        10/06 Q1019=
201903091130 METAR LRBM 091130Z AUTO 13006KT 090V170 9999 FEW036/// SCT190///
                        11/07 Q1018=
201903091200 METAR LRBM 091200Z AUTO 10007KT 9999 FEW047/// SCT180///
                        12/06 Q1018=
201903091230 METAR LRBM 091230Z AUTO 10007KT 9999 FEW037/// SCT200///
                        12/06 Q1017=
201903091300 METAR LRBM 091300Z AUTO 09006KT 9999 FEW027/// SCT220///
                        12/06 Q1016=
201903091330 METAR LRBM 091330Z AUTO 09003KT 040V120 9999 FEW014/// SCT190///
                        13/06 Q1016=
201903091400 METAR LRBM 091400Z AUTO 06004KT 030V120 9999 FEW017/// SCT220///
                        13/05 Q1016=
201903091430 METAR LRBM 091430Z AUTO VRB02KT 9999 FEW016/// SCT190///
                        13/04 Q1015=
201903091500 METAR LRBM 091500Z AUTO 28008KT 9999 FEW055/// SCT220///
                        13/01 Q1015=
201903091530 METAR LRBM 091530Z AUTO 27006KT 240V330 9999 FEW018/// SCT220///
                        12/01 Q1015=
201903091600 METAR LRBM 091600Z AUTO 24008KT 9999 FEW085/// SCT220///
                        12/00 Q1015=
201903091630 METAR LRBM 091630Z AUTO 25009KT 9999 FEW024/// SCT240///
                        12/M01 Q1015=
201903091700 METAR LRBM 091700Z AUTO 28007KT 250V320 9999 FEW033/// SCT230///
                        12/M02 Q1016=
201903091730 METAR LRBM 091730Z AUTO 25009KT 230V290 9999 FEW034/// SCT220///
                        12/M02 Q1015=
201903091800 METAR LRBM 091800Z AUTO 25011KT 9999 FEW013/// SCT170///
                        BKN240/// 12/00 Q1015=
201903091830 METAR LRBM 091830Z AUTO 30003KT 280V350 9999 FEW013/// SCT160///
                        BKN240/// 11/M00 Q1015=
201903091900 METAR LRBM 091900Z AUTO 09003KT 9999 FEW014/// SCT060///
                        BKN230/// 10/02 Q1015=
201903091930 METAR LRBM 091930Z AUTO VRB01KT 9999 FEW034/// SCT065///
                        10/02 Q1014=
201903092000 METAR LRBM 092000Z AUTO 06003KT 9999 FEW019/// SCT150///
                        09/02 Q1014=
201903092030 METAR LRBM 092030Z AUTO 06002KT 040V100 9999 FEW007/// SCT050///
                        BKN200/// 08/03 Q1014=
201903092100 METAR LRBM 092100Z AUTO 06002KT 9999 SCT049/// BKN240///
                        08/04 Q1013=
201903092130 METAR LRBM 092130Z AUTO VRB01KT 9999 FEW032/// SCT190///
                        08/03 Q1014=
201903092200 METAR LRBM 092200Z AUTO 28005KT 9999 FEW070/// SCT230///
                        10/03 Q1014=
201903092230 METAR LRBM 092230Z AUTO 09005KT 340V120 9999 FEW050/// SCT230///
                        08/04 Q1013=
201903092300 METAR LRBM 092300Z AUTO 06004KT 9999 FEW041/// SCT210///
                        07/04 Q1012=
201903092330 METAR LRBM 092330Z AUTO 03003KT 9999 FEW033/// SCT230///
                        08/04 Q1013=
201903100000 METAR LRBM 100000Z AUTO 04002KT 360V140 9999 FEW036/// SCT240///
                        08/04 Q1012=
201903100030 METAR LRBM 100030Z AUTO 06002KT 030V100 9999 FEW020/// SCT220///
                        07/04 Q1011=
201903100100 METAR LRBM 100100Z AUTO 04002KT 340V120 9999 FEW006/// SCT040///
                        BKN095/// 07/04 Q1011=
201903100130 METAR LRBM 100130Z AUTO 28012KT 9000 RA FEW007/// SCT011///
                        BKN017/// 07/05 Q1011=
201903100200 METAR LRBM 100200Z AUTO 26016KT 9999 FEW008/// SCT010///
                        BKN024/// 07/05 Q1012=
201903100230 METAR LRBM 100230Z AUTO 02002KT 300V100 9999 FEW008/// SCT026///
                        BKN170/// 06/05 Q1011=
201903100300 METAR LRBM 100300Z AUTO 12003KT 9999 FEW046/// SCT150///
                        BKN230/// 06/05 Q1011 RERA=
201903100330 METAR LRBM 100330Z AUTO 10002KT 040V170 9999 SCT041/// BKN160///
                        06/05 Q1011=
201903100400 METAR LRBM 100400Z AUTO 03002KT 320V110 9999 FEW011/// BKN043///
                        06/05 Q1011=
201903100430 METAR LRBM 100430Z AUTO 20007KT 9999 FEW027/// SCT041///
                        BKN180/// 06/04 Q1011=
201903100500 METAR LRBM 100500Z 26016KT 9999 FEW012 SCT027 08/04 Q1012
                        R09/29//95=
201903100530 METAR LRBM 100530Z 32010KT 270V350 9999 BKN030 08/04 Q1012
                        R09/19//95=
201903100600 METAR LRBM 100600Z 31006KT 280V010 9999 FEW029 07/04 Q1013
                        R09/19//95=
201903100630 METAR LRBM 100630Z 30006KT 9999 FEW030 08/04 Q1014 R09/19//95=
201903100700 METAR LRBM 100700Z 29005KT 260V340 9999 FEW030 08/04 Q1014
                        R09/19//95=
201903100730 METAR LRBM 100730Z 28008KT 250V320 9999 FEW030 09/04 Q1014
                        R09/19//95=
201903100800 METAR LRBM 100800Z 27011KT 9999 FEW030 10/02 Q1014 R09/19//95=
201903100830 METAR LRBM 100830Z 26013KT 9999 FEW034 10/02 Q1014 R09/19//95=
201903100900 METAR LRBM 100900Z 25014KT 9999 FEW037 11/M00 Q1014 R09/19//95=
201903100930 METAR LRBM 100930Z 26011KT 220V290 9999 FEW040 11/01 Q1014
                        R09/19//95=
201903101000 METAR LRBM 101000Z 25015KT 9999 FEW040 11/M01 Q1014 R09/19//95=
201903101030 METAR LRBM 101030Z 26014KT 9999 FEW043 10/M02 Q1014 R09/19//95=
201903101100 METAR LRBM 101100Z 25009KT CAVOK 11/M01 Q1013 R09/CLRD//=
201903101130 METAR LRBM 101130Z 23010KT CAVOK 11/M02 Q1013=
201903101200 METAR LRBM 101200Z 24005KT 9999 FEW040 11/M01 Q1013=
201903101230 METAR LRBM 101230Z 24015G25KT 9999 -RA BKN024 09/02 Q1013=
201903101300 METAR LRBM 101300Z 28009KT 6000 -RA FEW005 BKN019 BKN055
                        07/04 Q1014 R09/19//95=
201903101330 METAR LRBM 101330Z 30006KT 270V340 9999 -RA FEW010 SCT018
                        BKN021 07/04 Q1014 R09/29//94=
201903101400 METAR LRBM 101400Z VRB01KT 9999 -RA SCT024 BKN029 07/04 Q1013
                        R09/29//94=
201903101430 METAR LRBM 101430Z 05004KT 9999 BKN030 07/05 Q1012 R09/29//94=
201903101500 METAR LRBM 101500Z 04004KT 9999 SCT025 BKN050 07/05 Q1011
                        R09/29//94=
201903101530 METAR LRBM 101530Z 07007KT 9999 OVC050 07/05 Q1010 R09/29//94=
201903101600 METAR LRBM 101600Z 09008KT 9999 OVC050 07/05 Q1010 R09/29//94=
201903101630 METAR COR LRBM 101630Z 07007KT 6000 -RA FEW006 BKN027 OVC050
                        07/05 Q1009 R09/29//94=
201903101700 METAR LRBM 101700Z 08010KT 9999 -RA FEW007 SCT031 BKN049
                        07/05 Q1009 R09/29//94=
201903101730 METAR LRBM 101730Z AUTO 06007KT 9999 FEW006/// SCT033///
                        BKN045/// 07/05 Q1009=
201903101800 METAR LRBM 101800Z AUTO 07009KT 9999 FEW008/// SCT043///
                        BKN065/// 07/05 Q1008=
201903101830 METAR LRBM 101830Z AUTO 08007KT 9999 FEW012/// SCT041///
                        BKN065/// 07/05 Q1008=
201903101900 METAR LRBM 101900Z AUTO 05005KT 360V080 9000 FEW016/// SCT020///
                        BKN024/// 07/05 Q1008=
201903101930 METAR LRBM 101930Z AUTO 05006KT 020V080 9999 FEW008/// SCT011///
                        BKN014/// 07/05 Q1007=
201903102000 METAR LRBM 102000Z AUTO 05005KT 360V090 9999 FEW010/// SCT014///
                        BKN049/// 07/06 Q1007=
201903102030 METAR LRBM 102030Z AUTO 05006KT 020V080 9999 -SHRA FEW005///
                        SCT015/// BKN045/// 08/06 Q1006=
201903102100 METAR LRBM 102100Z AUTO 04004KT 010V080 9999 FEW029/// SCT190///
                        07/06 Q1006 RERA=
201903102130 METAR LRBM 102130Z AUTO 06005KT 9999 FEW002/// SCT060///
                        BKN240/// 07/06 Q1005=
201903102200 METAR LRBM 102200Z AUTO 07006KT 9999 FEW039/// SCT170///
                        07/06 Q1005=
201903102230 METAR LRBM 102230Z AUTO 07006KT 040V130 9999 -SHRA FEW005///
                        SCT080/// BKN230/// 08/06 Q1005=
201903102300 METAR LRBM 102300Z AUTO VRB03KT 9999 FEW027/// SCT047///
                        BKN170/// 09/06 Q1005=
201903102330 METAR LRBM 102330Z AUTO VRB07KT 9999 FEW033/// SCT170///
                        10/06 Q1005=
201903110000 METAR LRBM 110000Z AUTO 26011KT 9999 FEW047/// SCT200///
                        11/05 Q1005=
201903110030 METAR LRBM 110030Z AUTO 25014KT 9999 FEW031/// SCT230///
                        11/05 Q1005=
201903110100 METAR LRBM 110100Z AUTO 24016KT 9999 FEW026/// SCT220///
                        11/05 Q1005=
201903110130 METAR LRBM 110130Z AUTO 25015KT 9999 FEW015/// SCT230///
                        11/05 Q1005=
201903110200 METAR LRBM 110200Z AUTO 24016KT 9999 FEW013/// SCT200///
                        11/04 Q1005=
201903110230 METAR LRBM 110230Z AUTO 24015KT 9999 FEW019/// SCT210///
                        11/05 Q1006=
201903110300 METAR LRBM 110300Z AUTO 24016KT 9999 FEW022/// SCT230///
                        11/03 Q1006=
201903110330 METAR LRBM 110330Z AUTO 24017KT 9999 FEW024/// SCT180///
                        10/02 Q1006=
201903110400 METAR LRBM 110400Z AUTO 24015KT 9999 FEW042/// SCT220///
                        09/01 Q1006=
201903110430 METAR LRBM 110430Z AUTO 25015KT 9999 FEW100/// SCT240///
                        09/M02 Q1007=
201903110500 METAR COR LRBM 110500Z 26016KT CAVOK 09/M01 Q1007 R09/CLRD//=
201903110530 METAR LRBM 110530Z 26018KT CAVOK 09/M01 Q1008=
201903110600 METAR LRBM 110600Z 27016KT 9999 FEW042 09/M01 Q1009=
201903110630 METAR LRBM 110630Z 28011KT 260V320 9999 FEW042 09/M01 Q1009=
201903110700 METAR LRBM 110700Z 29009KT 9999 FEW043 08/00 Q1010=
201903110730 METAR LRBM 110730Z 27013KT 9999 SCT055 08/M02 Q1011=
201903110800 METAR LRBM 110800Z 27012KT 9999 SCT055 08/M01 Q1011=
201903110830 METAR LRBM 110830Z 27011KT 9999 FEW060 08/M02 Q1011=
201903110900 METAR LRBM 110900Z 28010KT 260V320 9999 FEW060 09/M01 Q1011=
201903110930 METAR COR LRBM 110930Z 29011KT CAVOK 09/M02 Q1011=
201903111000 METAR LRBM 111000Z 27010KT CAVOK 09/M02 Q1011=
201903111030 METAR LRBM 111030Z 29008KT 260V320 9999 FEW043 09/M04 Q1011=
201903111100 METAR LRBM 111100Z 26010KT 9999 SCT055 10/M02 Q1011=
201903111130 METAR LRBM 111130Z 28008KT 250V310 9999 SCT050 10/M03 Q1011=
201903111200 METAR COR LRBM 111200Z 27008KT 250V310 9999 SCT040 10/M03
                        Q1010=
201903111230 METAR LRBM 111230Z 29008KT 260V320 9999 FEW020 SCT033 09/M02
                        Q1010=
201903111300 METAR LRBM 111300Z 31008KT 280V340 9999 SCT035 10/M04 Q1010=
201903111330 METAR LRBM 111330Z 34006KT 300V010 9999 SCT035 09/M03 Q1010=
201903111400 METAR LRBM 111400Z 32007KT 9999 FEW042 09/M01 Q1011=
201903111430 METAR LRBM 111430Z 01006KT 340V070 9999 FEW050 09/M01 Q1010=
201903111500 METAR LRBM 111500Z 36003KT 280V080 9999 FEW050 09/M02 Q1010=
201903111530 METAR LRBM 111530Z 26006KT 9999 FEW050 09/M01 Q1010=
201903111600 METAR LRBM 111600Z 27003KT CAVOK 07/00 Q1011=
201903111630 METAR LRBM 111630Z 25002KT CAVOK 07/M00 Q1011=
201903111700 METAR LRBM 111700Z 20001KT CAVOK 06/00 Q1012=
201903111730 METAR LRBM 111730Z AUTO 36003KT 7000 FEW018/// SCT230///
                        05/M00 Q1012=
201903111800 METAR LRBM 111800Z AUTO 04003KT 9999 FEW022/// SCT220///
                        05/00 Q1012=
201903111830 METAR LRBM 111830Z AUTO 05002KT 010V080 9999 FEW075/// SCT210///
                        04/M01 Q1012=
201903111900 METAR LRBM 111900Z AUTO 04002KT 020V080 9999 FEW065/// SCT240///
                        04/M01 Q1012=
201903111930 METAR LRBM 111930Z AUTO 05004KT 9999 FEW055/// SCT220///
                        03/M01 Q1013=
201903112000 METAR LRBM 112000Z AUTO 03004KT 350V080 9999 FEW080/// SCT220///
                        04/M01 Q1012=
201903112030 METAR LRBM 112030Z AUTO 03002KT 010V080 9999 FEW065/// SCT210///
                        02/M01 Q1013=
201903112100 METAR LRBM 112100Z AUTO 03003KT 340V060 9999 FEW085/// SCT240///
                        02/M01 Q1013=
201903112130 METAR LRBM 112130Z AUTO 05003KT 9999 FEW085/// SCT200///
                        02/M01 Q1012=
201903112200 METAR LRBM 112200Z AUTO 05003KT 340V100 9999 FEW085/// SCT230///
                        02/M02 Q1012=
201903112230 METAR LRBM 112230Z AUTO VRB01KT 9999 FEW080/// SCT220///
                        01/M02 Q1012=
201903112300 METAR LRBM 112300Z AUTO 05002KT 020V140 9999 FEW080/// SCT220///
                        00/M02 Q1012=
201903112330 METAR LRBM 112330Z AUTO 07002KT 9999 FEW080/// SCT240///
                        00/M02 Q1012=
201903120000 METAR LRBM 120000Z AUTO 08004KT 050V110 9999 FEW110/// SCT210///
                        00/M02 Q1013=
201903120030 METAR LRBM 120030Z AUTO 05003KT 010V080 9999 FEW110/// SCT220///
                        M00/M02 Q1013=
201903120100 METAR LRBM 120100Z AUTO 05002KT 010V080 9999 FEW120/// SCT220///
                        M00/M02 Q1013=
201903120130 METAR LRBM 120130Z AUTO VRB01KT 9999 FEW080/// SCT200///
                        M01/M02 Q1013=
201903120200 METAR LRBM 120200Z AUTO 03002KT 9999 FEW085/// M01/M02 Q1013=
201903120230 METAR LRBM 120230Z AUTO 05001KT 9999 FEW130/// SCT220///
                        M01/M02 Q1014=
201903120300 METAR LRBM 120300Z AUTO 07002KT 9999 FEW065/// SCT190///
                        M01/M02 Q1014=
201903120330 METAR LRBM 120330Z AUTO 04002KT 020V110 9999 FEW080/// SCT240///
                        M01/M02 Q1015=
201903120400 METAR LRBM 120400Z AUTO 01001KT 9999 FEW050/// SCT140///
                        BKN240/// M01/M02 Q1015=
201903120430 METAR LRBM 120430Z AUTO 03002KT 350V050 9999 FEW060/// SCT210///
                        M01/M03 Q1015=
201903120500 METAR LRBM 120500Z VRB01KT CAVOK M01/M02 Q1016=
201903120530 METAR LRBM 120530Z 01002KT 9999 FEW020 M01/M02 Q1016=
201903120600 METAR LRBM 120600Z 00000KT CAVOK M01/M02 Q1016=
201903120630 METAR LRBM 120630Z VRB01KT CAVOK M01/M02 Q1016=
201903120700 METAR LRBM 120700Z 27007KT 9999 FEW033 01/M01 Q1016=
201903120730 METAR LRBM 120730Z 26009KT 9999 FEW033 02/M01 Q1017=
201903120800 METAR LRBM 120800Z 27009KT 9999 FEW033 03/M01 Q1017=
201903120830 METAR LRBM 120830Z 27010KT 9999 FEW035 04/M01 Q1017=
201903120900 METAR LRBM 120900Z 27013KT 9999 FEW035 05/M01 Q1017=
201903120930 METAR LRBM 120930Z 27015KT 9999 SCT035 06/M02 Q1017=
201903121000 METAR LRBM 121000Z 26012KT 9999 BKN035 06/M02 Q1017=
201903121030 METAR LRBM 121030Z 26012KT 9999 BKN037 06/M02 Q1017=
201903121100 METAR LRBM 121100Z 27011KT 9999 BKN038 06/M03 Q1018=
201903121130 METAR LRBM 121130Z 27011KT 9999 BKN040 06/M03 Q1018=
201903121200 METAR LRBM 121200Z 27013KT 9999 BKN042 06/M02 Q1018=
201903121230 METAR LRBM 121230Z 27011KT 9999 VCSH FEW040CB SCT042 07/M02
                        Q1018=
201903121300 METAR LRBM 121300Z 28013KT 250V310 9999 VCSH FEW038CB SCT042
                        07/M02 Q1018=
201903121330 METAR LRBM 121330Z 36010KT 320V030 9999 -SHRA SCT007 BKN035CB
                        05/M02 Q1019=
201903121400 METAR LRBM 121400Z 07002KT 9999 FEW037CB SCT043 05/01 Q1018=
201903121430 METAR LRBM 121430Z VRB01KT 9999 SCT045 07/M00 Q1018=
201903121500 METAR LRBM 121500Z 24009KT 210V280 9999 FEW042TCU 07/M01
                        Q1018=
201903121530 METAR LRBM 121530Z 28011KT 9999 FEW042 07/M07 Q1018=
201903121600 METAR LRBM 121600Z 28008KT 260V320 9999 FEW042 06/M05 Q1018=
201903121630 METAR LRBM 121630Z 29005KT 9999 FEW050 06/M07 Q1018=
201903121700 METAR LRBM 121700Z 28005KT 9999 FEW055 04/M05 Q1019=
201903121730 METAR LRBM 121730Z AUTO 30003KT 9999 FEW060/// SCT200///
                        03/M04 Q1019=
201903121800 METAR LRBM 121800Z AUTO 35002KT 9999 FEW110/// SCT240///
                        02/M05 Q1019=
201903121830 METAR LRBM 121830Z AUTO 35002KT 280V030 9999 FEW090/// SCT200///
                        01/M05 Q1019=
201903121900 METAR LRBM 121900Z AUTO VRB01KT 9999 FEW080/// SCT240///
                        ///// Q1019=
201903121930 METAR LRBM 121930Z AUTO VRB01KT 9999 FEW075/// SCT210///
                        01/M05 Q1020=
201903122000 METAR LRBM 122000Z AUTO VRB02KT 9999 FEW100/// SCT220///
                        M00/M05 Q1020=
201903122030 METAR LRBM 122030Z AUTO 36003KT 9999 FEW120/// SCT240///
                        M01/M05 Q1020=
201903122100 METAR LRBM 122100Z AUTO 04002KT 360V070 9999 FEW060/// SCT210///
                        M02/M05 Q1020=
201903122130 METAR LRBM 122130Z AUTO 08002KT 040V120 9999 FEW095/// SCT230///
                        M02/M06 Q1020=
201903122200 METAR LRBM 122200Z AUTO 05005KT 9999 FEW100/// SCT200///
                        M01/M06 Q1020=
201903122230 METAR LRBM 122230Z AUTO 08003KT 9999 FEW080/// SCT220///
                        M02/M06 Q1020=
201903122300 METAR LRBM 122300Z AUTO 06003KT 030V090 9999 FEW070/// SCT190///
                        M02/M06 Q1019=
201903122330 METAR LRBM 122330Z AUTO 07002KT 9999 FEW080/// SCT230///
                        M03/M06 Q1019=
201903130000 METAR LRBM 130000Z AUTO 05003KT 9999 FEW100/// SCT240///
                        M02/M06 Q1020=
201903130030 METAR LRBM 130030Z AUTO 04003KT 020V080 9999 FEW065/// SCT240///
                        M02/M06 Q1019=
201903130100 METAR LRBM 130100Z AUTO 07003KT 9999 FEW110/// SCT220///
                        M03/M06 Q1019=
201903130130 METAR LRBM 130130Z AUTO 07004KT 9999 FEW090/// SCT240///
                        M03/M06 Q1019=
201903130200 METAR LRBM 130200Z AUTO 05002KT 9999 FEW090/// SCT240///
                        M02/M06 Q1019=
201903130230 METAR LRBM 130230Z AUTO 10004KT 9999 FEW075/// SCT240///
                        M02/M06 Q1019=
201903130300 METAR LRBM 130300Z AUTO 09007KT 9999 FEW085/// SCT240///
                        M02/M06 Q1019=
201903130330 METAR LRBM 130330Z AUTO 10008KT 9999 FEW090/// SCT240///
                        M02/M06 Q1019=
201903130400 METAR LRBM 130400Z AUTO 09007KT 9999 FEW085/// SCT230///
                        M02/M06 Q1019=
201903130430 METAR LRBM 130430Z AUTO 06006KT 9999 FEW095/// SCT230///
                        M02/M07 Q1018=
201903130500 METAR LRBM 130500Z 07005KT CAVOK M02/M07 Q1018=
201903130530 METAR LRBM 130530Z 09007KT CAVOK M01/M06 Q1018=
201903130600 METAR LRBM 130600Z 09007KT CAVOK M01/M05 Q1018=
201903130630 METAR LRBM 130630Z 10006KT CAVOK 01/M05 Q1019=
201903130700 METAR LRBM 130700Z 11005KT CAVOK 03/M05 Q1019=
201903130730 METAR LRBM 130730Z 11005KT CAVOK 04/M06 Q1019=
201903130800 METAR LRBM 130800Z 11006KT 080V140 CAVOK 05/M07 Q1019=
201903130830 METAR LRBM 130830Z 11006KT 070V140 CAVOK 05/M07 Q1019=
201903130900 METAR LRBM 130900Z 12005KT 050V160 CAVOK 06/M06 Q1019=
201903130930 METAR LRBM 130930Z 12004KT 070V170 CAVOK 07/M05 Q1018=
201903131000 METAR LRBM 131000Z 07004KT 360V110 CAVOK 08/M05 Q1018=
201903131030 METAR LRBM 131030Z VRB02KT CAVOK 08/M05 Q1018=
201903131100 METAR LRBM 131100Z 13004KT 020V180 CAVOK 09/M06 Q1017=
201903131130 METAR LRBM 131130Z VRB04KT CAVOK 09/M05 Q1017=
201903131200 METAR LRBM 131200Z 23004KT 190V260 CAVOK 08/M06 Q1017=
201903131230 METAR LRBM 131230Z 21004KT 130V260 CAVOK 09/M06 Q1016=
201903131300 METAR LRBM 131300Z VRB02KT CAVOK 09/M06 Q1016=
201903131330 METAR LRBM 131330Z 01003KT 330V060 CAVOK 09/M06 Q1015=
201903131400 METAR LRBM 131400Z 08003KT CAVOK 09/M06 Q1015=
201903131430 METAR LRBM 131430Z 13001KT CAVOK 09/M06 Q1015=
201903131500 METAR LRBM 131500Z 00000KT CAVOK 09/M06 Q1015=
201903131530 METAR LRBM 131530Z 00000KT CAVOK 09/M06 Q1014=
201903131600 METAR LRBM 131600Z 07002KT CAVOK 08/M04 Q1014=
201903131630 METAR LRBM 131630Z 07002KT CAVOK 08/M04 Q1014=
201903131700 METAR LRBM 131700Z 08002KT CAVOK 07/M03 Q1014=
201903131730 METAR LRBM 131730Z AUTO 04002KT 9999 FEW031/// SCT200///
                        06/M02 Q1014=
201903131800 METAR LRBM 131800Z AUTO 02003KT 9999 FEW024/// SCT210///
                        06/M04 Q1014=
201903131830 METAR LRBM 131830Z AUTO 02002KT 360V060 9999 FEW070/// SCT230///
                        05/M04 Q1014=
201903131900 METAR LRBM 131900Z AUTO 02003KT 340V070 9999 FEW070/// SCT220///
                        05/M04 Q1014=
201903131930 METAR LRBM 131930Z AUTO 36004KT 9999 FEW043/// SCT220///
                        05/M04 Q1014=
201903132000 METAR LRBM 132000Z AUTO 01003KT 350V050 9999 FEW090/// SCT240///
                        05/M04 Q1014=
201903132030 METAR LRBM 132030Z AUTO 02002KT 9999 FEW026/// SCT220///
                        05/M05 Q1014=
201903132100 METAR LRBM 132100Z AUTO VRB01KT 9999 FEW050/// SCT210///
                        05/M03 Q1014=
201903132130 METAR LRBM 132130Z AUTO 05002KT 9999 FEW090/// SCT220///
                        05/M05 Q1013=
201903132200 METAR LRBM 132200Z AUTO 08002KT 040V100 9999 FEW065/// SCT220///
                        04/M03 Q1013=
201903132230 METAR LRBM 132230Z AUTO 06001KT 9999 FEW100/// SCT200///
                        04/M04 Q1013=
201903132300 METAR LRBM 132300Z AUTO VRB02KT 9999 FEW075/// SCT240///
                        05/M05 Q1013=
201903132330 METAR LRBM 132330Z AUTO 06005KT 9999 FEW100/// SCT220///
                        05/M04 Q1013=
201903140000 METAR LRBM 140000Z AUTO 02002KT 350V090 9999 FEW070/// SCT230///
                        04/M04 Q1013=
201903140030 METAR LRBM 140030Z AUTO VRB03KT 9999 FEW090/// SCT240///
                        03/M03 Q1013=
201903140100 METAR LRBM 140100Z AUTO 05003KT 020V080 9999 FEW065/// SCT200///
                        03/M03 Q1012=
201903140130 METAR LRBM 140130Z AUTO 05002KT 030V100 9999 FEW070/// SCT230///
                        03/M04 Q1012=
201903140200 METAR LRBM 140200Z AUTO 07004KT 040V100 9999 FEW095/// SCT210///
                        03/M03 Q1011=
201903140230 METAR LRBM 140230Z AUTO 07004KT 9999 FEW050/// SCT210///
                        03/M03 Q1011=
201903140300 METAR LRBM 140300Z AUTO VRB01KT 9999 FEW050/// SCT210///
                        03/M04 Q1011=
201903140330 METAR LRBM 140330Z AUTO 19004KT 9999 FEW070/// BKN190///
                        02/M02 Q1012=
201903140400 METAR LRBM 140400Z AUTO 12002KT 030V160 9999 FEW037/// SCT190///
                        02/M02 Q1012=
201903140430 METAR LRBM 140430Z AUTO 09002KT 030V140 9999 FEW021/// SCT190///
                        02/M02 Q1012=
201903140500 METAR LRBM 140500Z 08003KT 9999 SCT060 01/M01 Q1012=
201903140530 METAR LRBM 140530Z 11003KT 9999 SCT060 02/M02 Q1012=
201903140600 METAR LRBM 140600Z 06003KT 310V120 9999 FEW045 SCT060 03/M02
                        Q1012=
201903140630 METAR LRBM 140630Z 09004KT 9999 FEW042 SCT060 04/M02 Q1012=
201903140700 METAR LRBM 140700Z 09002KT 9999 FEW043 05/M02 Q1012=
201903140730 METAR LRBM 140730Z 09004KT 060V120 9999 FEW045 06/M02 Q1012=
201903140800 METAR LRBM 140800Z 11005KT 9999 SCT045 06/M03 Q1012=
201903140830 METAR LRBM 140830Z 09002KT 020V140 9999 BKN043 06/M03 Q1012=
201903140900 METAR LRBM 140900Z 06002KT 020V090 9999 BKN038 07/M03 Q1012=
201903140930 METAR LRBM 140930Z 17003KT 120V280 9999 SCT038 08/M02 Q1011=
201903141000 METAR LRBM 141000Z 18004KT 090V210 9999 SCT042 08/M02 Q1011=
201903141030 METAR LRBM 141030Z 06002KT 9999 BKN043 08/M02 Q1011=
201903141100 METAR LRBM 141100Z 06003KT 020V100 9999 FEW026 BKN043 08/M01
                        Q1011=
201903141130 METAR LRBM 141130Z 07004KT 030V130 9999 FEW028 SCT043 09/M02
                        Q1010=
201903141200 METAR LRBM 141200Z VRB04KT 9999 FEW030 BKN046 09/M03 Q1010=
201903141230 METAR LRBM 141230Z VRB01KT 9999 FEW030 BKN048 09/M03 Q1010=
201903141300 METAR LRBM 141300Z 14002KT 070V240 9999 FEW033 BKN048 09/M03
                        Q1009=
201903141330 METAR LRBM 141330Z VRB01KT 9999 FEW034 BKN048 09/M04 Q1009=
201903141400 METAR LRBM 141400Z 27002KT 9999 FEW034 BKN048 09/M03 Q1009=
201903141430 METAR LRBM 141430Z 18002KT 140V240 9999 FEW0034 BKN048 09/M03
                        Q1009=
201903141500 METAR LRBM 141500Z 11002KT 9999 OVC050 09/M01 Q1009=
201903141530 METAR LRBM 141530Z 13002KT 9999 BKN055 09/M03 Q1008=
201903141600 METAR LRBM 141600Z 15002KT 9999 FEW028 BKN055 08/M01 Q1008=
201903141630 METAR LRBM 141630Z 15003KT 9999 FEW030 BKN055 08/M02 Q1008=
201903141700 METAR LRBM 141700Z 13003KT 9999 FEW032 BKN058 08/M01 Q1008=
201903141730 METAR LRBM 141730Z AUTO 34006KT 9999 FEW016/// SCT140///
                        07/00 Q1008=
201903141800 METAR LRBM 141800Z AUTO 02004KT 330V050 9999 FEW017/// SCT060///
                        BKN230/// 06/01 Q1008=
201903141830 METAR LRBM 141830Z AUTO 03005KT 340V050 9999 FEW021/// SCT190///
                        06/01 Q1008=
201903141900 METAR LRBM 141900Z AUTO 02005KT 350V050 9999 FEW027/// SCT200///
                        06/01 Q1008=
201903141930 METAR LRBM 141930Z AUTO 03003KT 9999 FEW033/// SCT140///
                        06/01 Q1008=
201903142000 METAR LRBM 142000Z AUTO 02004KT 9999 FEW048/// SCT160///
                        BKN240/// 05/01 Q1008=
201903142030 METAR LRBM 142030Z AUTO 03002KT 350V080 9999 FEW050/// SCT150///
                        05/02 Q1007=
201903142100 METAR LRBM 142100Z AUTO 36003KT 9999 SCT050/// BKN230///
                        06/01 Q1007=
201903142130 METAR LRBM 142130Z AUTO 04003KT 9999 FEW050/// SCT150///
                        05/01 Q1007=
201903142200 METAR LRBM 142200Z AUTO 04002KT 350V080 9999 FEW028/// SCT180///
                        BKN240/// 05/01 Q1007=
201903142230 METAR LRBM 142230Z AUTO 04002KT 360V070 9999 FEW024/// SCT150///
                        BKN240/// 05/01 Q1007=
201903142300 METAR LRBM 142300Z AUTO 04003KT 9999 FEW050/// SCT170///
                        BKN240/// 05/01 Q1007=
201903142330 METAR LRBM 142330Z AUTO 08003KT 9999 FEW050/// SCT180///
                        05/02 Q1007=
201903150000 METAR LRBM 150000Z AUTO VRB01KT 9999 FEW039/// SCT150///
                        BKN240/// 04/01 Q1007=
201903150030 METAR LRBM 150030Z AUTO 03002KT 9999 FEW027/// SCT130///
                        BKN240/// 04/01 Q1007=
201903150100 METAR LRBM 150100Z AUTO 06003KT 9999 FEW050/// SCT170///
                        04/01 Q1007=
201903150130 METAR LRBM 150130Z AUTO 04003KT 9999 FEW050/// SCT130///
                        05/01 Q1007=
201903150200 METAR LRBM 150200Z AUTO 06003KT 9999 FEW025/// SCT085///
                        BKN240/// ///// Q1006=
201903150230 METAR LRBM 150230Z AUTO 04003KT 9999 FEW050/// SCT170///
                        05/00 Q1006=
201903150300 METAR LRBM 150300Z AUTO 07002KT 030V100 9999 FEW046/// SCT200///
                        04/00 Q1006=
201903150330 METAR LRBM 150330Z AUTO 07004KT 9999 FEW075/// SCT210///
                        04/00 Q1006=
201903150400 METAR LRBM 150400Z AUTO 06004KT 9999 FEW016/// SCT220///
                        04/M00 Q1006=
201903150430 METAR LRBM 150430Z AUTO 06004KT 9999 FEW033/// SCT240///
                        04/M00 Q1006=
201903150500 METAR LRBM 150500Z 06003KT 9999 FEW030 04/M00 Q1006=
201903150530 METAR LRBM 150530Z 04002KT 9999 FEW050 04/M01 Q1006=
201903150600 METAR LRBM 150600Z 00000KT 9999 FEW043 05/00 Q1007=
201903150630 METAR LRBM 150630Z 07003KT 9999 SCT040 06/M00 Q1007=
201903150700 METAR LRBM 150700Z 09006KT 9999 FEW040 06/01 Q1007=
201903150730 METAR LRBM 150730Z 09007KT 9999 SCT043 06/M00 Q1007=
201903150800 METAR LRBM 150800Z 09006KT 9999 SCT043 06/00 Q1007=
201903150830 METAR LRBM 150830Z 09005KT 9999 -RA SCT050 07/00 Q1007=
201903150900 METAR LRBM 150900Z 07006KT 9999 SCT050 07/M00 Q1007=
201903150930 METAR LRBM 150930Z 08007KT 9999 SCT050 07/01 Q1007=
201903151000 METAR LRBM 151000Z 09008KT 9999 -RA FEW020 SCT043 07/01 Q1007=
201903151030 METAR LRBM 151030Z 14003KT 9999 FEW020 SCT040 08/M00 Q1007=
201903151100 METAR LRBM 151100Z 18002KT 9999 -RA FEW020 SCT040 08/01 Q1006=
201903151130 METAR LRBM 151130Z 16003KT 9999 -RA FEW023 SCT060 08/00 Q1006=
201903151200 METAR LRBM 151200Z 28007KT 250V040 9999 -RA SCT020 BKN045
                        07/02 Q1007=
201903151230 METAR LRBM 151230Z 32005KT 9999 -RA SCT008 BKN027 06/03 Q1007
                        R09/29//95=
201903151300 METAR LRBM 151300Z 07002KT 9999 -RA SCT011 BKN027 06/04 Q1007
                        R09/29//95=
201903151330 METAR LRBM 151330Z 05004KT 9999 -RA SCT015 BKN030 06/04 Q1007
                        R09/29//95=
201903151400 METAR LRBM 151400Z 04004KT 360V070 9999 -RA SCT020 BKN036
                        06/04 Q1007 R09/29//95=
201903151430 METAR LRBM 151430Z 09005KT 9999 -RA BKN030 06/03 Q1007 R09/29//95=
201903151500 METAR LRBM 151500Z 07005KT 9999 FEW011 SCT028 BKN055 06/04
                        Q1007 R09/29//95=
201903151530 METAR LRBM 151530Z 08005KT 9999 -RA FEW009 BKN033 05/04 Q1007
                        R09/29//95=
201903151600 METAR LRBM 151600Z 07005KT 9999 FEW021 BKN043 05/03 Q1007
                        R09/29//95=
201903151630 METAR LRBM 151630Z 07004KT 9999 FEW024 SCT055 05/03 Q1008
                        R09/29//95=
201903151700 METAR LRBM 151700Z 06005KT 9999 SCT035 BKN055 05/03 Q1008
                        R09/29//95=
201903151730 METAR LRBM 151730Z AUTO 05005KT 9999 FEW010/// SCT085///
                        BKN240/// 05/03 Q1008=
201903151800 METAR LRBM 151800Z AUTO 05004KT 9999 FEW013/// SCT055///
                        BKN240/// 05/03 Q1008=
201903151830 METAR LRBM 151830Z AUTO 07006KT 030V100 7000 SHRA FEW006///
                        SCT015/// BKN020/// 05/03 Q1008=
201903151900 METAR LRBM 151900Z AUTO 07004KT 9999 FEW008/// SCT210///
                        05/03 Q1008 RERA=
201903151930 METAR LRBM 151930Z AUTO 05004KT 020V080 9999 FEW029/// SCT200///
                        05/03 Q1008 RERA=
201903152000 METAR LRBM 152000Z AUTO 05005KT 030V110 9999 FEW033/// SCT210///
                        05/03 Q1008=
201903152030 METAR LRBM 152030Z AUTO 05004KT 020V080 9999 FEW027/// SCT200///
                        04/03 Q1008=
201903152100 METAR LRBM 152100Z AUTO 05004KT 9999 FEW070/// SCT210///
                        04/02 Q1008=
201903152130 METAR LRBM 152130Z AUTO 06004KT 020V080 9999 FEW027/// SCT160///
                        BKN240/// 04/02 Q1008=
201903152200 METAR LRBM 152200Z AUTO 02002KT 350V060 9999 FEW027/// SCT180///
                        04/02 Q1008=
201903152230 METAR LRBM 152230Z AUTO 02002KT 350V050 9999 FEW035/// SCT200///
                        04/02 Q1008=
201903152300 METAR LRBM 152300Z AUTO 03004KT 330V080 9999 FEW021/// SCT100///
                        BKN240/// 05/02 Q1008=
201903152330 METAR LRBM 152330Z AUTO 05002KT 360V130 9999 FEW020/// SCT065///
                        BKN230/// 04/02 Q1008=
201903160000 METAR LRBM 160000Z AUTO 02002KT 9999 FEW050/// SCT180///
                        04/02 Q1007=
201903160030 METAR LRBM 160030Z AUTO 06003KT 020V130 9999 FEW008/// SCT020///
                        BKN036/// 04/03 Q1007=
201903160100 METAR LRBM 160100Z AUTO 05003KT 9999 FEW007/// SCT016///
                        BKN028/// 04/03 Q1007=
201903160130 METAR LRBM 160130Z AUTO 04003KT 010V070 9999 FEW006/// SCT017///
                        BKN027/// 04/03 Q1006=
201903160200 METAR LRBM 160200Z AUTO 06004KT 030V090 9999 FEW006/// SCT016///
                        BKN023/// 04/03 Q1006=
201903160230 METAR LRBM 160230Z AUTO 07005KT 040V100 6000 FEW010/// SCT016///
                        BKN019/// 04/03 Q1006=
201903160300 METAR LRBM 160300Z AUTO 08006KT 6000 SCT007/// BKN009///
                        BKN017/// 04/03 Q1005=
201903160330 METAR LRBM 160330Z AUTO 08005KT 6000 FEW006/// SCT008///
                        BKN016/// ///// Q1005=
201903160400 METAR LRBM 160400Z AUTO 10007KT 8000 FEW005/// BKN012///
                        BKN016/// 04/03 Q1004=
201903160430 METAR LRBM 160430Z AUTO 07006KT 050V110 3700 FEW005/// BKN013///
                        BKN017/// 04/03 Q1004=
201903160500 METAR LRBM 160500Z 04007KT 360V080 3900 RA FEW007 BKN013
                        OVC020 04/03 Q1004 R09/29//95=
201903160530 METAR LRBM 160530Z 05005KT 350V090 6000 RA FEW008 SCT013
                        OVC019 04/03 Q1005 R09/29//95=
201903160600 METAR LRBM 160600Z 08012KT 9999 RA FEW004 SCT014 OVC020 03/02
                        Q1005 RERA R09/29//95=
201903160630 METAR LRBM 160630Z 10014KT 9999 -RA FEW003 BKN014 BKN026
                        03/02 Q1004 R09/29//95=
201903160700 METAR LRBM 160700Z 06006KT 9999 -RA BKN013 OVC028 04/02 Q1005
                        R09/29//95=
201903160730 METAR LRBM 160730Z 07005KT 030V090 9999 -RA FEW002 BKN013
                        BKN023 04/03 Q1004 R09/29//95=
201903160800 METAR LRBM 160800Z 11006KT 020V170 9999 FEW013 SCT024 BKN031
                        04/03 Q1004 R09/29//95=
201903160830 METAR LRBM 160830Z 21005KT 160V330 9999 -RA FEW014 SCT025
                        BKN033 05/04 Q1004 R09/29//95=
201903160900 METAR LRBM 160900Z 26022KT 9999 FEW015 FEW020CB BKN037 08/05
                        Q1005 R09/29//95=
201903160930 METAR LRBM 160930Z 27019KT 9999 FEW015 FEW025CB BKN036 08/05
                        Q1006 R09/29//95=
201903161000 METAR LRBM 161000Z 26018KT 9999 FEW019 FEW025CB BKN038 08/05
                        Q1006 R09/29//95=
201903161030 METAR LRBM 161030Z 27016KT 9999 SCT028 BKN036 09/04 Q1007
                        R09/19//95=
201903161100 METAR LRBM 161100Z 27015KT 9999 SCT028 BKB036 09/03 Q1007
                        R09/19//95=
201903161130 METAR LRBM 161130Z 26014KT 9999 BKN028 BKN036 09/03 Q1007
                        R09/19//95=
201903161200 METAR LRBM 161200Z 26011KT 9999 BKN028 BKN036 09/03 Q1007
                        R09/19//95=
201903161230 METAR LRBM 161230Z 26007KT 9999 -RA SCT028 OVC038 08/04 Q1008
                        R09/19//95=
201903161300 METAR LRBM 161300Z 34003KT 310V010 9999 -RA SCT028 BKN038
                        08/04 Q1008 R09/19//95=
201903161330 METAR LRBM 161330Z 30003KT 250V340 9999 FEW030 BKN042 09/02
                        Q1008 R09/19//95=
201903161400 METAR LRBM 161400Z 28005KT 250V320 9999 FEEW032 BKN043 09/03
                        Q1008 R09/19//95=
201903161430 METAR LRBM 161430Z 27008KT 9999 BKN045 10/02 Q1008 R09/19//95=
201903161500 METAR LRBM 161500Z 27005KT 9999 BKN045 10/02 Q1008 R09/19//95=
201903161530 METAR LRBM 161530Z 24007KT 9999 BKN045 09/03 Q1008 R09/19//95=
201903161600 METAR LRBM 161600Z 26007KT 9999 FEW032 BKN048 09/02 Q1009
                        R09/19//95=
201903161630 METAR LRBM 161630Z 24009KT 9999 FEW032 BKN050 09/03 Q1009
                        R09/19//95=
201903161700 METAR LRBM 161700Z 26007KT 9999 FEW025 BKN055 08/02 Q1010
                        R09/19//95=
201903161730 METAR LRBM 161730Z AUTO 28006KT 250V310 9999 FEW017/// BKN190///
                        08/02 Q1010=
201903161800 METAR LRBM 161800Z AUTO 31004KT 9999 FEW018/// SCT240///
                        08/02 Q1010=
201903161830 METAR LRBM 161830Z AUTO 30005KT 270V330 9999 FEW035/// SCT230///
                        ///// Q1011=
201903161900 METAR LRBM 161900Z AUTO VRB01KT 9999 FEW014/// SCT170///
                        07/01 Q1011=
201903161930 METAR LRBM 161930Z AUTO VRB01KT 9999 FEW019/// SCT220///
                        05/01 Q1012=
201903162000 METAR LRBM 162000Z AUTO 06004KT 9999 FEW015/// SCT200///
                        04/01 Q1012=
201903162030 METAR LRBM 162030Z AUTO 06003KT 9999 FEW016/// SCT210///
                        04/01 Q1012=
201903162100 METAR LRBM 162100Z AUTO 07004KT 9999 FEW037/// SCT240///
                        04/01 Q1012=
201903162130 METAR LRBM 162130Z AUTO 05004KT 9999 FEW023/// SCT210///
                        04/01 Q1012=
201903162200 METAR LRBM 162200Z AUTO 07004KT 9999 FEW050/// SCT230///
                        04/01 Q1013=
201903162230 METAR LRBM 162230Z AUTO VRB01KT 9999 FEW024/// SCT190///
                        04/01 Q1013=
201903162300 METAR LRBM 162300Z AUTO 07003KT 9999 FEW029/// SCT220///
                        04/02 Q1013=
201903162330 METAR LRBM 162330Z AUTO 04002KT 9999 FEW029/// SCT200///
                        04/02 Q1013=
201903170000 METAR LRBM 170000Z AUTO 08003KT 9999 FEW042/// SCT230///
                        04/02 Q1013=
201903170030 METAR LRBM 170030Z AUTO 04002KT 020V080 9999 FEW015/// SCT220///
                        04/02 Q1013=
201903170100 METAR LRBM 170100Z AUTO 03002KT 010V070 9999 FEW023/// SCT031///
                        BKN140/// 05/02 Q1013=
201903170130 METAR LRBM 170130Z AUTO 04003KT 9999 FEW008/// SCT019///
                        BKN028/// 05/02 Q1013=
201903170200 METAR LRBM 170200Z AUTO 03003KT 320V060 9999 FEW007/// SCT012///
                        BKN034/// 05/03 Q1013=
201903170230 METAR LRBM 170230Z AUTO 10003KT 9999 FEW005/// SCT013///
                        BKN026/// 05/03 Q1013=
201903170300 METAR LRBM 170300Z AUTO 09005KT 9999 FEW006/// BKN017///
                        BKN047/// 05/03 Q1013=
201903170330 METAR LRBM 170330Z AUTO 05003KT 9999 FEW005/// SCT020///
                        BKN050/// 05/03 Q1013=
201903170400 METAR LRBM 170400Z AUTO 05004KT 9999 SCT021/// BKN140///
                        05/03 Q1013=
201903170430 METAR LRBM 170430Z AUTO 06004KT 9999 SCT019/// BKN024///
                        05/03 Q1014=
201903170500 METAR LRBM 170500Z AUTO 06003KT 9999 FEW019/// SCT027///
                        BKN048/// 05/03 Q1014=
201903170530 METAR LRBM 170530Z AUTO 04005KT 9999 SCT032/// BKN045///
                        06/03 Q1014=
201903170600 METAR LRBM 170600Z AUTO 05004KT 9999 SCT036/// BKN140///
                        06/03 Q1014=
201903170630 METAR LRBM 170630Z AUTO 06005KT 030V090 9999 SCT039/// BKN170///
                        06/03 Q1014=
201903170700 METAR LRBM 170700Z AUTO 08005KT 9999 FEW035/// SCT040///
                        BKN160/// 06/03 Q1014=
201903170730 METAR LRBM 170730Z AUTO 07005KT 9999 SCT039/// BKN095///
                        BKN240/// 06/04 Q1015=
201903170800 METAR LRBM 170800Z AUTO 08008KT 9999 FEW028/// SCT042///
                        BKN170/// 08/04 Q1015=
201903170830 METAR LRBM 170830Z AUTO 08011KT 9999 FEW042/// SCT180///
                        08/05 Q1015=
201903170900 METAR LRBM 170900Z AUTO 08011KT 9999 FEW050/// SCT170///
                        09/05 Q1015=
201903170930 METAR LRBM 170930Z AUTO 08012KT 9999 FEW024/// SCT190///
                        10/05 Q1014=
201903171000 METAR LRBM 171000Z AUTO 08010KT 040V100 9999 FEW024/// SCT180///
                        BKN240/// 11/06 Q1014=
201903171030 METAR LRBM 171030Z AUTO 09010KT 9999 FEW027/// SCT180///
                        12/06 Q1014=
201903171100 METAR LRBM 171100Z AUTO 10009KT 9999 FEW028/// SCT200///
                        13/06 Q1014=
201903171130 METAR LRBM 171130Z AUTO 10009KT 9999 FEW016/// SCT180///
                        13/06 Q1013=
201903171200 METAR LRBM 171200Z AUTO 09010KT 070V130 9999 FEW021/// SCT210///
                        14/06 Q1013=
201903171230 METAR LRBM 171230Z AUTO 09009KT 9999 FEW019/// SCT220///
                        ///// Q1013=
201903171300 METAR LRBM 171300Z AUTO 08010KT 9999 FEW018/// SCT190///
                        15/07 Q1013=
201903171330 METAR LRBM 171330Z AUTO 09011KT 9999 FEW019/// SCT220///
                        15/07 Q1012=
201903171400 METAR LRBM 171400Z AUTO 09011KT 9999 FEW014/// SCT140///
                        BKN240/// 15/07 Q1012=
201903171430 METAR LRBM 171430Z AUTO 10009KT 9999 FEW014/// SCT180///
                        BKN240/// 15/07 Q1012=
201903171500 METAR LRBM 171500Z AUTO 09010KT 9999 FEW013/// SCT170///
                        BKN240/// 15/07 Q1012=
201903171530 METAR LRBM 171530Z AUTO 09009KT 9999 FEW013/// SCT170///
                        BKN240/// 14/07 Q1012=
201903171600 METAR LRBM 171600Z AUTO 09007KT 9999 FEW016/// SCT200///
                        12/07 Q1012=
201903171630 METAR LRBM 171630Z AUTO 08007KT 9999 FEW015/// SCT210///
                        12/06 Q1012=
201903171700 METAR LRBM 171700Z AUTO 07004KT 9999 FEW028/// SCT220///
                        11/06 Q1012=
201903171730 METAR LRBM 171730Z AUTO 07006KT 9999 FEW019/// BKN190///
                        10/06 Q1012=
201903171800 METAR LRBM 171800Z AUTO 08006KT 9999 FEW023/// SCT230///
                        10/05 Q1012=
201903171830 METAR LRBM 171830Z AUTO 06005KT 9999 FEW019/// SCT220///
                        09/05 Q1011=
201903171900 METAR LRBM 171900Z AUTO 06005KT 9999 FEW017/// SCT200///
                        10/05 Q1011=
201903171930 METAR LRBM 171930Z AUTO 07008KT 9999 FEW017/// SCT230///
                        09/05 Q1011=
201903172000 METAR LRBM 172000Z AUTO 06005KT 9999 FEW016/// SCT220///
                        09/05 Q1012=
201903172030 METAR LRBM 172030Z AUTO 08003KT 9999 FEW030/// SCT230///
                        08/05 Q1011=
201903172100 METAR LRBM 172100Z AUTO 00000KT 9999 FEW029/// SCT190///
                        08/04 Q1011=
201903172130 METAR LRBM 172130Z AUTO 08005KT 9999 FEW028/// SCT240///
                        08/04 Q1011=
201903172200 METAR LRBM 172200Z AUTO 08006KT 9999 FEW035/// SCT210///
                        08/04 Q1011=
201903172230 METAR LRBM 172230Z AUTO 08008KT 9999 FEW028/// SCT220///
                        08/04 Q1010=
201903172300 METAR LRBM 172300Z AUTO 09009KT 9999 FEW024/// SCT210///
                        08/04 Q1010=
201903172330 METAR LRBM 172330Z AUTO 11008KT 9999 FEW017/// SCT190///
                        08/04 Q1010=
201903180000 METAR LRBM 180000Z AUTO 15006KT 9999 FEW025/// SCT220///
                        07/03 Q1010=
201903180030 METAR LRBM 180030Z AUTO 36005KT 9999 FEW016/// SCT200///
                        06/03 Q1010=
201903180100 METAR LRBM 180100Z AUTO 05004KT 020V080 9999 FEW021/// SCT220///
                        06/03 Q1010=
201903180130 METAR LRBM 180130Z AUTO 05005KT 9999 FEW031/// SCT230///
                        08/03 Q1009=
201903180200 METAR LRBM 180200Z AUTO 07007KT 9999 FEW013/// SCT210///
                        09/03 Q1009=
201903180230 METAR LRBM 180230Z AUTO 08005KT 9999 FEW028/// SCT220///
                        08/03 Q1009=
201903180300 METAR LRBM 180300Z AUTO 10007KT 9999 FEW020/// SCT200///
                        06/02 Q1010=
201903180330 METAR LRBM 180330Z AUTO 08005KT 9999 FEW032/// SCT230///
                        05/02 Q1010=
201903180400 METAR LRBM 180400Z AUTO 36003KT 330V030 9999 FEW017/// SCT210///
                        04/02 Q1010=
201903180430 METAR LRBM 180430Z AUTO VRB01KT 9999 FEW022/// SCT230///
                        04/02 Q1010=
201903180500 METAR LRBM 180500Z 04003KT 010V090 CAVOK 04/02 Q1011 R09/10CLRD//=
201903180530 METAR LRBM 180530Z 04003KT CAVOK 06/03 Q1011=
201903180600 METAR LRBM 180600Z 04003KT 360V080 CAVOK 08/04 Q1011=
201903180630 METAR LRBM 180630Z 07003KT 030V100 CAVOK 11/04 Q1012=
201903180700 METAR LRBM 180700Z 08003KT CAVOK 13/04 Q1012=
201903180730 METAR LRBM 180730Z 10003KT CAVOK 14/03 Q1012=
201903180800 METAR LRBM 180800Z AUTO 19002KT 120V240 9999 FEW013/// SCT210///
                        14/04 Q1012=
201903180830 METAR LRBM 180830Z 20002KT CAVOK 15/05 Q1012=
201903180900 METAR LRBM 180900Z 11006KT 070V130 CAVOK 15/05 Q1012=
201903180930 METAR LRBM 180930Z 13008KT CAVOK 16/06 Q1012=
201903181000 METAR LRBM 181000Z 17005KT 100V250 9999 FEW047 17/06 Q1012=
201903181030 METAR LRBM 181030Z 19004KT 160V290 9999 FEW047 16/05 Q1012=
201903181100 METAR LRBM 181100Z 27007KT 9999 BKN047 16/07 Q1012=
201903181130 METAR LRBM 181130Z 29009KT 270V330 9999 SCT047 15/07 Q1012=
201903181200 METAR LRBM 181200Z 29011KT 9999 FEW048 15/07 Q1012=
201903181230 METAR LRBM 181230Z 28009KT 260V320 9999 SCT048 15/07 Q1012=
201903181300 METAR LRBM 181300Z 28010KT 9999 FEW050 15/07 Q1012=
201903181330 METAR LRBM 181330Z 28009KT 9999 FEW050 15/06 Q1012=
201903181400 METAR LRBM 181400Z 29007KT CAVOK 15/05 Q1012=
201903181430 METAR LRBM 181430Z 27007KT CAVOK 15/06 Q1012=
201903181500 METAR LRBM 181500Z 27008KT CAVOK 15/06 Q1012=
201903181530 METAR COR LRBM 181530Z 28007KT CAVOK 15/06 Q1013=
201903181600 METAR COR LRBM 181600Z 28006KT 250V310 CAVOK 14/05 Q1013=
201903181630 METAR LRBM 181630Z 31003KT 280V360 CAVOK 14/05 Q1013=
201903181700 METAR LRBM 181700Z 35001KT CAVOK 13/05 Q1013=
201903181730 METAR LRBM 181730Z AUTO 03003KT 360V070 9999 FEW041/// SCT230///
                        11/06 Q1014=
201903181800 METAR LRBM 181800Z AUTO 06002KT 9999 FEW024/// SCT230///
                        10/05 Q1014=
201903181830 METAR LRBM 181830Z AUTO 26007KT 9999 FEW060/// SCT240///
                        10/06 Q1015=
201903181900 METAR LRBM 181900Z AUTO 31003KT 270V350 9999 FEW020/// SCT220///
                        09/06 Q1015=
201903181930 METAR LRBM 181930Z AUTO 28003KT 9999 FEW024/// SCT210///
                        09/05 Q1015=
201903182000 METAR LRBM 182000Z AUTO 05002KT 9999 FEW022/// SCT200///
                        07/05 Q1015=
201903182030 METAR LRBM 182030Z AUTO 28010KT 9999 FEW033/// SCT180///
                        BKN240/// 08/05 Q1015=
201903182200 METAR LRBM 182200Z AUTO 28007KT 260V320 9999 FEW024/// SCT200///
                        06/03 Q1017=
201903182230 METAR LRBM 182230Z AUTO 28007KT 240V300 9999 FEW022/// SCT200///
                        06/03 Q1017=
201903182300 METAR LRBM 182300Z AUTO 28006KT 250V330 9999 FEW023/// SCT200///
                        06/03 Q1017=
201903182330 METAR LRBM 182330Z AUTO 26007KT 9999 FEW019/// SCT190///
                        06/03 Q1018=
201903190000 METAR LRBM 190000Z AUTO 27005KT 240V310 9999 FEW040/// SCT230///
                        06/03 Q1018=
201903190030 METAR LRBM 190030Z AUTO 30002KT 260V350 9999 FEW026/// SCT210///
                        06/03 Q1018=
201903190100 METAR LRBM 190100Z AUTO 29005KT 9999 BKN015/// 06/03 Q1018=
201903190130 METAR LRBM 190130Z AUTO 29004KT 9999 FEW016/// SCT190///
                        06/03 Q1018=
201903190200 METAR LRBM 190200Z AUTO 28004KT 9999 SCT015/// BKN075///
                        06/03 Q1018=
201903190230 METAR LRBM 190230Z AUTO 30003KT 250V330 9999 FEW015/// SCT210///
                        06/03 Q1018=
201903190300 METAR LRBM 190300Z AUTO VRB01KT 9999 FEW029/// SCT230///
                        06/03 Q1018=
201903190330 METAR LRBM 190330Z AUTO 26006KT 9999 BKN014/// 06/03 Q1019=
201903190400 METAR LRBM 190400Z AUTO 29005KT 9999 BKN014/// 06/03 Q1019=
201903190430 METAR LRBM 190430Z AUTO 29004KT 9999 BKN013/// BKN025///
                        06/03 Q1019=
201903190500 METAR LRBM 190500Z 27004KT 9999 SCT033 06/03 Q1019=
201903190530 METAR LRBM 190530Z 15002KT 9999 SCT035 06/04 Q1019=
201903190600 METAR LRBM 190600Z 25003KT 9999 SCT017 SCT034 06/04 Q1020=
201903190630 METAR LRBM 190630Z 25005KT 9999 SCT016 SCT033 06/04 Q1020=
201903190700 METAR LRBM 190700Z 29005KT 9999 SCT014 SCT030 06/04 Q1020=
201903190730 METAR LRBM 190730Z 28006KT 250V310 9999 SCT013 BKN030 06/04
                        Q1020=
201903190800 METAR LRBM 190800Z 26004KT 9999 SCT013 BKN030 06/04 Q1021=
201903190830 METAR LRBM 190830Z 28003KT 260V320 9999 BKN013 BKN028 07/04
                        Q1021=
201903190900 METAR LRBM 190900Z 23003KT 160V330 9999 SCT015 BKN033 07/04
                        Q1021=
201903190930 METAR LRBM 190930Z 26005KT 210V280 9999 SCT015 BKN032 07/04
                        Q1021=
201903191000 METAR LRBM 191000Z 26006KT 240V300 9999 SCT016 BKN035 08/05
                        Q1021=
201903191030 METAR LRBM 191030Z 26006KT 9999 BKN016 BKN040 08/05 Q1021=
201903191100 METAR LRBM 191100Z 26006KT 9999 SCT017 SCT045 09/05 Q1020=
201903191130 METAR LRBM 191130Z 26004KT 220V320 9999 FEW017 SCT045 10/06
                        Q1020=
201903191200 METAR LRBM 191200Z 27006KT 240V300 9999 FEW020 10/06 Q1020=
201903191230 METAR LRBM 191230Z VRB04KT 9999 FEW023 11/06 Q1020=
201903191300 METAR LRBM 191300Z 18003KT 140V210 9999 FEW023 FEW025TCU
                        11/06 Q1020=
201903191330 METAR LRBM 191330Z 24006KT 210V270 9999 FEW023 FEW025TCU
                        11/05 Q1020=
201903191400 METAR LRBM 191400Z 23007KT 9999 FEW024 FEW027CB 12/06 Q1020=
201903191430 METAR LRBM 191430Z 21008KT 9999 SCT028 12/06 Q1020=
201903191500 METAR LRBM 191500Z 07007KT 020V090 9999 SCT027 FEW030TCU
                        11/06 Q1020=
201903191530 METAR LRBM 191530Z 06004KT 9999 SCT030 FEW033CB 11/05 Q1021=
201903191600 METAR LRBM 191600Z 08003KT 9999 FEW032 FEW035CB 11/06 Q1021=
201903191630 METAR LRBM 191630Z 11003KT 9999 SCT035 10/06 Q1021=
201903191700 METAR LRBM 191700Z 10003KT 9999 SCT036 10/06 Q1021=
201903191730 METAR LRBM 191730Z AUTO 00000KT 9999 FEW022/// SCT190///
                        10/06 Q1022=
201903191800 METAR LRBM 191800Z AUTO 27001KT 7000 FEW026/// SCT180///
                        BKN240/// 09/06 Q1022=
201903191830 METAR LRBM 191830Z AUTO 29001KT 5000 FEW015/// SCT095///
                        BKN230/// 09/06 Q1022=
201903191900 METAR LRBM 191900Z AUTO VRB01KT 6000 FEW017/// SCT180///
                        09/06 Q1023=
201903191930 METAR LRBM 191930Z AUTO VRB02KT 9999 FEW021/// BKN190///
                        09/06 Q1023=
201903192000 METAR LRBM 192000Z AUTO 18002KT 140V220 9999 FEW016/// SCT210///
                        08/06 Q1023=
201903192030 METAR LRBM 192030Z AUTO 26003KT 9999 -SHRA FEW022/// SCT210///
                        08/05 Q1023=
201903192100 METAR LRBM 192100Z AUTO 28003KT 250V320 9999 FEW021/// SCT190///
                        08/03 Q1024 REDZ=
201903192130 METAR LRBM 192130Z AUTO VRB01KT 9999 FEW026/// BKN190///
                        08/04 Q1024 REDZ=
201903192200 METAR LRBM 192200Z AUTO 27004KT 250V320 9999 FEW022/// SCT200///
                        07/04 Q1024=
201903192230 METAR LRBM 192230Z AUTO VRB01KT 9999 FEW035/// SCT210///
                        07/03 Q1024=
201903192300 METAR LRBM 192300Z AUTO 26005KT 9999 FEW022/// SCT180///
                        07/03 Q1024=
201903192330 METAR LRBM 192330Z AUTO 27003KT 240V320 9999 FEW041/// SCT230///
                        07/03 Q1025=
201903200000 METAR LRBM 200000Z AUTO 27003KT 9999 FEW038/// SCT160///
                        BKN240/// 07/03 Q1025=
201903200030 METAR LRBM 200030Z AUTO 26005KT 9999 FEW016/// SCT160///
                        06/03 Q1025=
201903200100 METAR LRBM 200100Z AUTO 27004KT 9999 SCT055/// BKN180///
                        06/03 Q1025=
201903200130 METAR LRBM 200130Z AUTO 28003KT 9999 FEW055/// SCT130///
                        BKN230/// 06/03 Q1025=
201903200200 METAR LRBM 200200Z AUTO 29002KT 260V330 9999 SCT055/// BKN190///
                        06/03 Q1025=
201903200230 METAR LRBM 200230Z AUTO 28002KT 260V320 9999 FEW060/// SCT150///
                        BKN230/// 06/03 Q1026=
201903200300 METAR LRBM 200300Z AUTO 27003KT 9999 FEW060/// SCT170///
                        05/03 Q1026=
201903200330 METAR LRBM 200330Z AUTO 28003KT 9999 FEW080/// SCT180///
                        BKN240/// 05/02 Q1026=
201903200400 METAR LRBM 200400Z AUTO 31003KT 270V360 9999 FEW080/// SCT200///
                        05/02 Q1026=
201903200430 METAR LRBM 200430Z AUTO 28004KT 9999 FEW090/// SCT220///
                        05/02 Q1026=
201903200500 METAR LRBM 200500Z 24003KT CAVOK 04/02 Q1027=
201903200530 METAR LRBM 200530Z 29003KT 260V320 CAVOK 05/01 Q1027=
201903200600 METAR LRBM 200600Z 29003KT 260V320 CAVOK 05/01 Q1027=
201903200630 METAR LRBM 200630Z 27004KT CAVOK 05/01 Q1028=
201903200700 METAR LRBM 200700Z 27006KT CAVOK 06/01 Q1028=
201903200730 METAR LRBM 200730Z 26004KT 230V290 9999 FEW028 06/01 Q1028=
201903200800 METAR LRBM 200800Z 24003KT 210V270 9999 FEW030 07/02 Q1029=
201903200830 METAR LRBM 200830Z 18003KT 120V230 9999 FEW032 08/02 Q1029=
201903200900 METAR LRBM 200900Z 25004KT 200V300 9999 FEW032 08/02 Q1029=
201903200930 METAR COR LRBM 200930Z 26006KT 220V310 9999 FEW034 09/03
                        Q1029=
201903201000 METAR LRBM 201000Z 25006KT 220V290 9999 FEW034 10/03 Q1029=
201903201030 METAR LRBM 201030Z 27006KT 240V310 9999 FEW036 11/03 Q1029=
201903201100 METAR LRBM 201100Z 29006KT 240V320 9999 SCT040 11/02 Q1029=
201903201130 METAR LRBM 201130Z 24003KT 9999 BKN043 11/02 Q1029=
201903201200 METAR LRBM 201200Z 29004KT 240V040 9999 BKN043 12/02 Q1029=
201903201230 METAR LRBM 201230Z 27005KT 240V320 9999 BKN045 12/01 Q1029=
201903201300 METAR LRBM 201300Z 31006KT 9999 BKN045 11/01 Q1029=
201903201330 METAR LRBM 201330Z 32004KT 290V350 9999 BKN048 12/01 Q1029=
201903201400 METAR LRBM 201400Z 29003KT 240V040 9999 BKN052 12/M00 Q1029=
201903201430 METAR LRBM 201430Z 28006KT 240V310 9999 BKN053 12/M00 Q1029=
201903201500 METAR LRBM 201500Z 27004KT 240V330 9999 BKN055 12/00 Q1029=
201903201530 METAR LRBM 201530Z 25005KT 200V330 9999 SCT058 13/02 Q1029=
201903201600 METAR LRBM 201600Z 09009KT 9999 SCT058 11/02 Q1029=
201903201630 METAR LRBM 201630Z 10006KT 9999 SCT058 10/02 Q1029=
201903201700 METAR LRBM 201700Z 10004KT 9999 FEW060 10/02 Q1030=
201903201730 METAR LRBM 201730Z AUTO 04003KT 350V070 9999 FEW038/// SCT190///
                        09/01 Q1030=
201903201800 METAR LRBM 201800Z AUTO 06003KT 030V090 9999 FEW038/// SCT190///
                        09/01 Q1030=
201903201830 METAR LRBM 201830Z AUTO 06003KT 340V120 9999 FEW045/// SCT200///
                        07/01 Q1031=
201903201900 METAR LRBM 201900Z AUTO 01003KT 350V050 9999 FEW070/// SCT230///
                        07/00 Q1031=
201903201930 METAR LRBM 201930Z AUTO 32002KT 280V010 9999 FEW045/// SCT210///
                        07/M00 Q1031=
201903202000 METAR LRBM 202000Z AUTO 35003KT 9999 FEW021/// SCT190///
                        06/M00 Q1032=
201903202030 METAR LRBM 202030Z AUTO 36002KT 330V030 9999 FEW033/// SCT210///
                        05/00 Q1032=
201903202100 METAR LRBM 202100Z AUTO 36002KT 320V030 9999 FEW060/// SCT210///
                        05/00 Q1032=
201903202130 METAR LRBM 202130Z AUTO 33002KT 9999 FEW022/// SCT220///
                        04/00 Q1032=
201903202200 METAR LRBM 202200Z AUTO 34002KT 9999 FEW024/// SCT200///
                        04/M00 Q1032=
201903202230 METAR LRBM 202230Z AUTO 35003KT 9999 FEW041/// SCT220///
                        03/M00 Q1033=
201903202300 METAR LRBM 202300Z AUTO 35004KT 330V030 9999 FEW037/// SCT220///
                        04/M01 Q1033=
201903202330 METAR LRBM 202330Z AUTO 00000KT 9999 FEW043/// SCT180///
                        BKN240/// 02/M00 Q1033=
201903210000 METAR LRBM 210000Z AUTO VRB01KT 9999 FEW018/// SCT210///
                        02/M01 Q1033=
201903210030 METAR LRBM 210030Z AUTO VRB01KT 9999 FEW038/// SCT200///
                        01/M01 Q1033=
201903210100 METAR LRBM 210100Z AUTO 00000KT 9999 FEW024/// SCT160///
                        BKN240/// 01/M00 Q1033=
201903210130 METAR LRBM 210130Z AUTO 06003KT 9999 FEW020/// SCT180///
                        01/M01 Q1033=
201903210200 METAR LRBM 210200Z AUTO 03003KT 9999 FEW046/// SCT240///
                        01/M01 Q1033=
201903210230 METAR LRBM 210230Z AUTO 00000KT 9999 FEW015/// SCT180///
                        BKN240/// 00/M01 Q1033=
201903210300 METAR LRBM 210300Z AUTO 27003KT 9999 FEW022/// SCT230///
                        00/M01 Q1033=
201903210330 METAR LRBM 210330Z AUTO VRB01KT 9000 FEW017/// SCT200///
                        M00/M02 Q1033=
201903210400 METAR LRBM 210400Z AUTO VRB01KT 9000 FEW055/// SCT240///
                        M01/M02 Q1033=
201903210430 METAR LRBM 210430Z AUTO 02001KT 8000 FEW085/// SCT200///
                        M01/M02 Q1034=
201903210500 METAR LRBM 210500Z VRB01KT CAVOK M00/M02 Q1034=
201903210530 METAR LRBM 210530Z 13004KT CAVOK 00/M01 Q1034=
201903210600 METAR LRBM 210600Z 00000KT CAVOK 02/M00 Q1034=
201903210630 METAR LRBM 210630Z VRB01KT CAVOK 02/01 Q1034=
201903210700 METAR LRBM 210700Z VRB01KT CAVOK 03/M00 Q1034=
201903210730 METAR LRBM 210730Z 21003KT 170V260 CAVOK 04/M01 Q1035=
201903210800 METAR LRBM 210800Z 23004KT CAVOK 05/M01 Q1035=
201903210830 METAR LRBM 210830Z 23004KT 190V260 CAVOK 06/M00 Q1035=
201903210900 METAR LRBM 210900Z 25004KT 210V290 CAVOK 06/00 Q1034=
201903210930 METAR LRBM 210930Z 25005KT 210V290 CAVOK 08/01 Q1034=
201903211000 METAR LRBM 211000Z 27006KT 250V310 CAVOK 08/01 Q1034=
201903211030 METAR LRBM 211030Z 27008KT CAVOK 09/00 Q1034=
201903211100 METAR LRBM 211100Z 28008KT 250V310 CAVOK 09/M00 Q1034=
201903211130 METAR LRBM 211130Z 28010KT CAVOK 10/M00 Q1033=
201903211200 METAR LRBM 211200Z 27009KT 230V310 CAVOK 10/M02 Q1033=
201903211230 METAR LRBM 211230Z 27010KT CAVOK 10/M01 Q1033=
201903211300 METAR LRBM 211300Z 26009KT CAVOK 11/M02 Q1032=
201903211330 METAR LRBM 211330Z 25009KT CAVOK 11/M02 Q1032=
201903211400 METAR LRBM 211400Z 26010KT CAVOK 11/M02 Q1032=
201903211430 METAR LRBM 211430Z 27010KT CAVOK 11/M03 Q1032=
201903211500 METAR LRBM 211500Z 26010KT CAVOK 11/M02 Q1032=
201903211530 METAR LRBM 211530Z 27009KT CAVOK 11/M02 Q1032=
201903211600 METAR LRBM 211600Z 28008KT CAVOK 11/M02 Q1032=
201903211630 METAR LRBM 211630Z 28007KT CAVOK 10/M03 Q1032=
201903211700 METAR LRBM 211700Z 28005KT CAVOK 09/M02 Q1032=
201903211730 METAR LRBM 211730Z AUTO 31003KT 280V350 9999 FEW040/// SCT200///
                        08/M02 Q1032=
201903211800 METAR LRBM 211800Z AUTO 35002KT 9000 FEW014/// SCT230///
                        06/M01 Q1032=
201903211830 METAR LRBM 211830Z AUTO 06002KT 010V090 7000 FEW020/// SCT200///
                        05/M01 Q1032=
201903211900 METAR LRBM 211900Z AUTO 07003KT 8000 FEW022/// SCT240///
                        05/M01 Q1032=
201903211930 METAR LRBM 211930Z AUTO 07003KT 040V100 8000 FEW048/// SCT200///
                        05/M01 Q1032=
201903212000 METAR LRBM 212000Z AUTO 06004KT 9999 FEW025/// SCT210///
                        05/M01 Q1032=
201903212030 METAR LRBM 212030Z AUTO VRB02KT 9999 FEW055/// SCT160///
                        BKN240/// 04/M01 Q1032=
201903212100 METAR LRBM 212100Z AUTO 09003KT 9999 FEW030/// SCT055///
                        BKN150/// 05/M00 Q1032=
201903212130 METAR LRBM 212130Z AUTO 08005KT 9999 FEW055/// SCT070///
                        BKN180/// 05/M00 Q1032=
201903212200 METAR LRBM 212200Z AUTO 08003KT 050V110 9999 FEW040/// SCT060///
                        BKN210/// 05/00 Q1032=
201903212230 METAR LRBM 212230Z AUTO 00000KT 9000 FEW020/// SCT100///
                        BKN190/// 04/01 Q1032=
201903212300 METAR LRBM 212300Z AUTO 10002KT 9000 FEW029/// SCT140///
                        BKN210/// 03/00 Q1032=
201903212330 METAR LRBM 212330Z AUTO 11002KT 9000 FEW041/// SCT055///
                        BKN180/// 03/00 Q1032=
201903220000 METAR LRBM 220000Z AUTO 07002KT 8000 FEW018/// SCT180///
                        03/M00 Q1032=
201903220030 METAR LRBM 220030Z AUTO VRB01KT 9999 FEW042/// SCT210///
                        03/M01 Q1032=
201903220100 METAR LRBM 220100Z AUTO VRB01KT 9999 FEW043/// SCT220///
                        02/M01 Q1032=
201903220130 METAR LRBM 220130Z AUTO 09004KT 9999 FEW048/// SCT220///
                        02/M01 Q1032=
201903220200 METAR LRBM 220200Z AUTO 11003KT 9000 FEW048/// SCT210///
                        02/M01 Q1032=
201903220230 METAR LRBM 220230Z AUTO 09004KT 050V110 8000 FEW046/// SCT200///
                        02/M00 Q1032=
201903220300 METAR LRBM 220300Z AUTO 09004KT 9999 FEW018/// SCT190///
                        01/M01 Q1031=
201903220330 METAR LRBM 220330Z AUTO 07003KT 9999 FEW044/// SCT230///
                        02/M02 Q1031=
201903220400 METAR LRBM 220400Z AUTO 08003KT 9999 FEW055/// SCT210///
                        00/M02 Q1032=
201903220430 METAR LRBM 220430Z AUTO 08003KT 9999 FEW050/// SCT200///
                        01/M02 Q1032=
201903220500 METAR LRBM 220500Z VRB01KT CAVOK 01/M02 Q1032=
201903220530 METAR LRBM 220530Z 09005KT CAVOK 02/M01 Q1032=
201903220600 METAR LRBM 220600Z 12003KT CAVOK 03/00 Q1032=
201903220630 METAR LRBM 220630Z 00000KT CAVOK 06/M01 Q1032=
201903220700 METAR LRBM 220700Z 22003KT CAVOK 06/00 Q1032=
201903220730 METAR LRBM 220730Z 23002KT CAVOK 06/M01 Q1032=
201903220800 METAR LRBM 220800Z 26003KT 210V310 CAVOK 07/M02 Q1032=
201903220830 METAR LRBM 220830Z 25004KT 200V300 CAVOK 08/M01 Q1032=
201903220900 METAR LRBM 220900Z 23005KT 200V260 CAVOK 09/M00 Q1031=
201903220930 METAR LRBM 220930Z 28006KT 240V320 9999 FEW035 10/00 Q1031=
201903221000 METAR LRBM 221000Z 27011KT 9999 FEW033 12/02 Q1031=
201903221030 METAR LRBM 221030Z 26014KT 9999 FEW033 12/02 Q1030=
201903221100 METAR LRBM 221100Z 27013KT 9999 FEW035 12/02 Q1030=
201903221130 METAR LRBM 221130Z 27012KT 9999 FEW036 14/03 Q1030=
201903221200 METAR LRBM 221200Z 27012KT 9999 FEW040 14/03 Q1029=
201903221230 METAR LRBM 221230Z 27013KT 9999 FEW040 13/03 Q1029=
201903221300 METAR LRBM 221300Z 26014KT 9999 FEW043 14/04 Q1029=
201903221330 METAR LRBM 221330Z 26014KT 9999 FEW043 14/04 Q1029=
201903221400 METAR LRBM 221400Z 26013KT 9999 FEW047 15/04 Q1028=
201903221430 METAR LRBM 221430Z 27012KT 9999 FEW050 15/04 Q1028=
201903221500 METAR LRBM 221500Z 28011KT CAVOK 14/04 Q1028=
201903221530 METAR LRBM 221530Z 27011KT CAVOK 14/04 Q1028=
201903221600 METAR LRBM 221600Z 28009KT CAVOK 14/04 Q1027=
201903221630 METAR LRBM 221630Z 28007KT CAVOK 13/04 Q1028=
201903221700 METAR LRBM 221700Z 27007KT CAVOK 12/05 Q1028=
201903221730 METAR LRBM 221730Z AUTO 29007KT 9999 FEW024/// SCT190///
                        12/05 Q1028=
201903221800 METAR LRBM 221800Z AUTO 32003KT 270V350 9999 FEW035/// SCT200///
                        10/04 Q1028=
201903221830 METAR LRBM 221830Z AUTO 35004KT 320V020 9999 FEW036/// SCT200///
                        10/04 Q1028=
201903221900 METAR LRBM 221900Z AUTO 33002KT 250V060 9999 FEW050/// SCT230///
                        10/04 Q1028=
201903221930 METAR LRBM 221930Z AUTO VRB02KT 9999 FEW029/// SCT220///
                        08/03 Q1028=
201903222000 METAR LRBM 222000Z AUTO 31002KT 280V360 9999 FEW055/// SCT240///
                        08/03 Q1028=
201903222030 METAR LRBM 222030Z AUTO 32004KT 9999 FEW050/// SCT200///
                        08/04 Q1028=
201903222100 METAR LRBM 222100Z AUTO 06003KT 9999 FEW013/// SCT170///
                        BKN240/// 05/02 Q1028=
201903222130 METAR LRBM 222130Z AUTO VRB01KT 9999 FEW014/// SCT180///
                        04/01 Q1028=
201903222200 METAR LRBM 222200Z AUTO 00000KT 9999 FEW034/// SCT240///
                        04/02 Q1028=
201903222230 METAR LRBM 222230Z AUTO 08003KT 9999 FEW049/// SCT240///
                        04/02 Q1028=
201903222300 METAR LRBM 222300Z AUTO 08002KT 020V160 9999 FEW070/// SCT230///
                        04/02 Q1028=
201903222330 METAR LRBM 222330Z AUTO 00000KT 9999 FEW065/// SCT200///
                        04/02 Q1028=
201903230000 METAR LRBM 230000Z AUTO 00000KT 9999 FEW039/// SCT190///
                        02/01 Q1028=
201903230030 METAR LRBM 230030Z AUTO 01002KT 9999 FEW046/// SCT190///
                        03/01 Q1028=
201903230100 METAR LRBM 230100Z AUTO 02002KT 9999 FEW070/// SCT210///
                        03/01 Q1028=
201903230130 METAR LRBM 230130Z AUTO VRB01KT 9999 FEW020/// SCT230///
                        02/01 Q1027=
201903230200 METAR LRBM 230200Z AUTO 00000KT 9999 FEW060/// SCT240///
                        02/00 Q1027=
201903230230 METAR LRBM 230230Z AUTO 02002KT 8000 FEW040/// SCT180///
                        BKN240/// 01/M00 Q1027=
201903230300 METAR LRBM 230300Z AUTO VRB01KT 6000 FEW020/// SCT200///
                        ///// Q1027=
201903230330 METAR LRBM 230330Z AUTO VRB01KT 6000 FEW055/// SCT230///
                        01/M00 Q1027=
201903230400 METAR LRBM 230400Z AUTO VRB01KT 7000 FEW039/// SCT230///
                        00/M01 Q1027=
201903230430 METAR LRBM 230430Z AUTO 07002KT 4200 FEW031/// SCT230///
                        01/M00 Q1027=
201903230500 METAR LRBM 230500Z VRB01KT 4500 BR NSC 00/M01 Q1027=
201903230530 METAR LRBM 230530Z VRB02KT 4700 2000W BR NSC 01/M00 Q1027=
201903230600 METAR LRBM 230600Z VRB02KT 4500 BR NSC 02/01 Q1027=
201903230630 METAR LRBM 230630Z 00000KT 5000 BR NSC 04/02 Q1027=
201903230700 METAR LRBM 230700Z VRB02KT 6000 NSC 05/03 Q1027=
201903230730 METAR LRBM 230730Z VRB02KT 8000 NSC 06/04 Q1027=
201903230800 METAR LRBM 230800Z VRB02KT CAVOK 07/04 Q1027=
201903230830 METAR LRBM 230830Z VRB02KT CAVOK 09/03 Q1027=
201903230900 METAR LRBM 230900Z 25004KT 210V270 CAVOK 10/04 Q1027=
201903230930 METAR LRBM 230930Z 23004KT 180V280 CAVOK 11/03 Q1027=
201903231000 METAR LRBM 231000Z 14003KT 070V240 CAVOK 13/03 Q1026=
201903231030 METAR LRBM 231030Z VRB02KT CAVOK 14/02 Q1026=
201903231100 METAR LRBM 231100Z 24008KT 210V270 CAVOK 15/00 Q1026=
201903231130 METAR LRBM 231130Z 23008KT CAVOK 15/M01 Q1025=
201903231200 METAR LRBM 231200Z 21010KT 180V240 CAVOK 16/M04 Q1025=
201903231230 METAR LRBM 231230Z 23012KT CAVOK 16/M08 Q1024=
201903231300 METAR LRBM 231300Z 24005KT 160V310 CAVOK 18/M07 Q1024=
201903231330 METAR LRBM 231330Z 32007KT 250V360 CAVOK 18/M10 Q1024=
201903231400 METAR LRBM 231400Z 31009KT CAVOK 18/M10 Q1023=
201903231430 METAR LRBM 231430Z 30010KT 270V330 CAVOK 17/M06 Q1023=
201903231500 METAR LRBM 231500Z 28011KT CAVOK 16/M06 Q1023=
201903231530 METAR COR LRBM 231530Z 27009KT CAVOK 16/M05 Q1023=
201903231600 METAR LRBM 231600Z 27008KT CAVOK 15/M04 Q1023=
201903231630 METAR LRBM 231630Z 28005KT CAVOK 14/M04 Q1023=
201903231700 METAR LRBM 231700Z 29005KT CAVOK 13/M05 Q1023=
201903231730 METAR LRBM 231730Z AUTO 34005KT 6000 FEW022/// SCT210///
                        11/M03 Q1023=
201903231800 METAR LRBM 231800Z AUTO 34005KT 9999 FEW030/// SCT210///
                        10/M05 Q1024=
201903231830 METAR LRBM 231830Z AUTO 34005KT 9999 FEW017/// SCT190///
                        10/M05 Q1024=
201903231900 METAR LRBM 231900Z AUTO 03003KT 330V110 9999 FEW015/// SCT200///
                        09/M05 Q1024=
201903231930 METAR LRBM 231930Z AUTO 07002KT 010V110 9999 FEW020/// SCT190///
                        05/M03 Q1024=
201903232000 METAR LRBM 232000Z AUTO 08003KT 9999 FEW027/// SCT220///
                        05/M03 Q1024=
201903232030 METAR LRBM 232030Z AUTO 06003KT 9999 FEW095/// SCT240///
                        05/M04 Q1024=
201903232100 METAR LRBM 232100Z AUTO 05005KT 9999 FEW026/// SCT220///
                        06/M05 Q1024=
201903232130 METAR LRBM 232130Z AUTO 05002KT 030V100 9999 FEW026/// SCT220///
                        04/M05 Q1024=
201903232200 METAR LRBM 232200Z AUTO 09004KT 9999 FEW030/// SCT200///
                        03/M04 Q1024=
201903232230 METAR LRBM 232230Z AUTO 08005KT 9999 FEW015/// SCT200///
                        04/M04 Q1024=
201903232300 METAR LRBM 232300Z AUTO 07003KT 010V110 9999 FEW038/// SCT190///
                        03/M05 Q1024=
201903232330 METAR LRBM 232330Z AUTO 07004KT 9999 FEW038/// SCT220///
                        04/M05 Q1024=
201903240000 METAR LRBM 240000Z AUTO 08006KT 9999 FEW070/// SCT210///
                        03/M05 Q1024=
201903240030 METAR LRBM 240030Z AUTO 08004KT 040V100 9999 FEW070/// SCT210///
                        02/M04 Q1024=
201903240100 METAR LRBM 240100Z AUTO 10003KT 9999 FEW026/// SCT210///
                        01/M03 Q1023=
201903240130 METAR LRBM 240130Z AUTO 09006KT 9999 FEW055/// 02/M04 Q1023=
201903240200 METAR LRBM 240200Z AUTO 09005KT 9999 FEW085/// SCT240///
                        02/M04 Q1023=
201903240230 METAR LRBM 240230Z AUTO 09005KT 9999 FEW100/// SCT220///
                        01/M04 Q1023=
201903240300 METAR LRBM 240300Z AUTO 09004KT 9999 FEW095/// SCT230///
                        00/M04 Q1023=
201903240330 METAR LRBM 240330Z AUTO 09002KT 030V130 9999 FEW080/// SCT220///
                        M01/M04 Q1023=
201903240400 METAR LRBM 240400Z AUTO 09006KT 9999 FEW070/// SCT240///
                        M00/M03 Q1023=
201903240430 METAR LRBM 240430Z AUTO 09006KT 9999 FEW037/// SCT190///
                        00/M04 Q1023=
201903240500 METAR LRBM 240500Z AUTO 10002KT 060V130 9999 FEW095/// SCT220///
                        00/M03 Q1023=
201903240530 METAR LRBM 240530Z AUTO 09002KT 070V130 9999 FEW065/// SCT230///
                        02/M02 Q1023=
201903240600 METAR LRBM 240600Z AUTO 09005KT 9999 FEW120/// SCT240///
                        04/M02 Q1023=
201903240630 METAR LRBM 240630Z AUTO 10004KT 9999 FEW065/// SCT210///
                        06/M03 Q1023=
201903240700 METAR LRBM 240700Z AUTO 15002KT 100V200 9999 FEW090/// SCT230///
                        08/M01 Q1023=
201903240730 METAR LRBM 240730Z AUTO 18003KT 9999 FEW024/// SCT240///
                        09/M03 Q1023=
201903240800 METAR LRBM 240800Z AUTO 20002KT 140V270 9999 FEW018/// SCT190///
                        11/M03 Q1023=
201903240830 METAR LRBM 240830Z AUTO 17003KT 130V240 9999 FEW017/// SCT200///
                        12/M02 Q1022=
201903240900 METAR LRBM 240900Z AUTO 14004KT 100V240 9999 FEW045/// SCT230///
                        13/M02 Q1022=
201903240930 METAR LRBM 240930Z AUTO VRB03KT 9999 FEW029/// SCT220///
                        14/M04 Q1022=
201903241000 METAR LRBM 241000Z AUTO 22003KT 150V290 9999 FEW035/// SCT230///
                        15/M03 Q1021=
201903241030 METAR LRBM 241030Z AUTO 26005KT 230V290 9999 FEW019/// SCT220///
                        16/M03 Q1021=
201903241100 METAR LRBM 241100Z AUTO 27008KT 9999 FEW013/// BKN190///
                        16/M02 Q1021=
201903241130 METAR LRBM 241130Z AUTO 29010KT 250V320 9999 FEW026/// SCT210///
                        17/01 Q1020=
201903241200 METAR LRBM 241200Z AUTO 27010KT 250V310 9999 FEW011/// SCT160///
                        BKN240/// 17/02 Q1020=
201903241230 METAR LRBM 241230Z AUTO 27012KT 9999 FEW016/// SCT180///
                        BKN240/// 18/03 Q1019=
201903241300 METAR LRBM 241300Z AUTO 27013KT 9999 FEW019/// SCT180///
                        BKN240/// 17/02 Q1019=
201903241330 METAR LRBM 241330Z AUTO 28011KT 9999 FEW014/// SCT200///
                        18/03 Q1019=
201903241400 METAR LRBM 241400Z AUTO 27011KT 9999 FEW012/// SCT170///
                        BKN240/// 18/04 Q1018=
201903241430 METAR LRBM 241430Z AUTO 27011KT 9999 FEW020/// SCT210///
                        18/04 Q1018=
201903241500 METAR LRBM 241500Z AUTO 27009KT 9999 FEW014/// SCT190///
                        17/03 Q1018=
201903241530 METAR LRBM 241530Z AUTO 28005KT 260V320 9999 FEW013/// SCT190///
                        17/04 Q1018=
201903241600 METAR LRBM 241600Z AUTO 29003KT 260V320 9999 FEW016/// SCT170///
                        BKN240/// 17/04 Q1017=
201903241630 METAR LRBM 241630Z AUTO 29002KT 9999 FEW018/// SCT170///
                        16/04 Q1017=
201903241700 METAR LRBM 241700Z AUTO 36002KT 9999 FEW014/// SCT170///
                        BKN240/// 15/04 Q1017=
201903241730 METAR LRBM 241730Z AUTO 03003KT 9999 FEW016/// SCT220///
                        13/04 Q1017=
201903241800 METAR LRBM 241800Z AUTO 01003KT 330V040 9999 FEW014/// SCT230///
                        13/04 Q1017=
201903241830 METAR LRBM 241830Z AUTO 05002KT 360V100 9999 FEW022/// SCT200///
                        13/04 Q1017=
201903241900 METAR LRBM 241900Z AUTO 05004KT 9999 FEW021/// SCT210///
                        12/04 Q1017=
201903241930 METAR LRBM 241930Z AUTO 06004KT 9999 FEW020/// SCT220///
                        12/04 Q1016=
201903242000 METAR LRBM 242000Z AUTO 06005KT 9999 FEW015/// SCT190///
                        11/04 Q1016=
201903242030 METAR LRBM 242030Z AUTO 05006KT 9999 FEW031/// SCT180///
                        11/04 Q1016=
201903242100 METAR LRBM 242100Z AUTO 12004KT 040V200 9999 FEW032/// SCT180///
                        10/05 Q1015=
201903242130 METAR LRBM 242130Z AUTO 09003KT 9999 FEW036/// SCT210///
                        09/04 Q1015=
201903242200 METAR LRBM 242200Z AUTO 08004KT 9999 FEW015/// SCT240///
                        08/04 Q1015=
201903242230 METAR LRBM 242230Z AUTO 06002KT 9999 FEW032/// SCT200///
                        09/04 Q1015=
201903242300 METAR LRBM 242300Z AUTO 07003KT 9999 FEW017/// SCT200///
                        10/05 Q1014=
201903242330 METAR LRBM 242330Z AUTO 06003KT 9999 FEW019/// SCT220///
                        10/04 Q1014=
201903250000 METAR LRBM 250000Z AUTO 04002KT 9999 FEW015/// SCT190///
                        10/04 Q1013=
201903250030 METAR LRBM 250030Z AUTO VRB01KT 9999 FEW017/// SCT190///
                        10/04 Q1013=
201903250100 METAR LRBM 250100Z AUTO 08003KT 330V140 9999 FEW017/// SCT190///
                        09/05 Q1013=
201903250130 METAR LRBM 250130Z AUTO 10004KT 070V140 9999 FEW025/// SCT220///
                        10/05 Q1012=
201903250200 METAR LRBM 250200Z AUTO 06004KT 020V140 9999 FEW036/// SCT230///
                        11/04 Q1012=
201903250230 METAR LRBM 250230Z AUTO 08002KT 010V170 9999 FEW033/// SCT200///
                        09/04 Q1011=
201903250300 METAR LRBM 250300Z AUTO 05003KT 9999 FEW040/// SCT220///
                        08/04 Q1011=
201903250330 METAR LRBM 250330Z AUTO 03003KT 9999 FEW041/// SCT210///
                        09/04 Q1011=
201903250400 METAR LRBM 250400Z AUTO 04002KT 010V070 9999 FEW060/// SCT180///
                        09/05 Q1010=
201903250430 METAR LRBM 250430Z AUTO 11003KT 020V190 9999 -SHRA FEW009///
                        SCT065/// BKN240/// 09/05 Q1011=
201903250500 METAR LRBM 250500Z 08003KT 340V150 9999 -SHRA BKN024 SCT045CB
                        08/06 Q1011 R09/29//95=
201903250530 METAR LRBM 250530Z 04004KT 9999 BKN033 FEW050CB 08/06 Q1011
                        R09/29//95=
201903250600 METAR LRBM 250600Z 05004KT 020V080 9999 FEW028 08/06 Q1011
                        R09/29//95=
201903250630 METAR LRBM 250630Z 07004KT 040V100 9999 FEW037 09/07 Q1010
                        R09/29//95=
201903250700 METAR LRBM 250700Z 09003KT 050V130 9999 FEW035 11/07 Q1011
                        R09/29//95=
201903250730 METAR LRBM 250730Z 19002KT CAVOK 11/06 Q1010 R09/29//95=
201903250800 METAR LRBM 250800Z 26005KT 220V300 CAVOK 11/07 Q1010 R09/29//95=
201903250830 METAR LRBM 250830Z 29004KT 260V320 CAVOK 11/06 Q1010 R09/29//95=
201903250900 METAR LRBM 250900Z 30009KT CAVOK 11/06 Q1011 R09/19//95=
201903250930 METAR LRBM 250930Z 28007KT 260V330 CAVOK 11/05 Q1010 R09/19//95=
201903251000 METAR LRBM 251000Z 28006KT 230V320 CAVOK 12/05 Q1010 R09/19//95=
201903251030 METAR LRBM 251030Z 27008KT 240V310 9999 FEW033 13/05 Q1010
                        R09/19//95=
201903251100 METAR LRBM 251100Z 27009KT 240V300 9999 FEW033 13/04 Q1010
                        R09/19//95=
201903251130 METAR LRBM 251130Z 26011KT 9999 SCT033 13/04 Q1010 R09/CLRD//=
201903251200 METAR LRBM 251200Z 26013KT 9999 SCT043 13/04 Q1010=
201903251230 METAR LRBM 251230Z 26014KT 9999 SCT040 14/03 Q1009=
201903251300 METAR LRBM 251300Z 26010KT 9999 SCT040 13/03 Q1009=
201903251330 METAR LRBM 251330Z 27012KT 9999 FEW046 15/01 Q1009=
201903251400 METAR LRBM 251400Z 28007KT 250V330 9999 FEW046 14/00 Q1009=
201903251430 METAR LRBM 251430Z 28006KT 250V320 9999 FEW046 15/00 Q1008=
201903251500 METAR LRBM 251500Z 27006KT 250V310 9999 SCT046 14/01 Q1008=
201903251530 METAR LRBM 251530Z 22004KT 9999 -SHRA FEW043CB BKN046 13/03
                        Q1008=
201903251600 METAR LRBM 251600Z 25012KT 9999 -SHRA SCT030 FEW033CB BKN055
                        10/05 Q1009 R09/19//95=
201903251630 METAR LRBM 251630Z 34003KT 280V020 9999 -SHRA SCT040CB BKN043
                        09/06 Q1009 R09/19//95=
201903251700 METAR LRBM 251700Z 02005KT 360V070 9999 FEW043CB BKN050 09/05
                        Q1009 R09/19//95=
201903251730 METAR LRBM 251730Z AUTO 04004KT 350V080 9999 FEW028/// SCT240///
                        09/05 Q1009 RERA=
201903251800 METAR LRBM 251800Z AUTO 02003KT 350V050 9999 -DZ FEW010///
                        SCT065/// BKN230/// 09/05 Q1009=
201903251830 METAR LRBM 251830Z AUTO 01001KT 9999 FEW010/// SCT170///
                        ///// Q1009 RERA=
201903251900 METAR LRBM 251900Z AUTO 01002KT 340V070 9999 FEW026/// SCT210///
                        08/06 Q1009 RERA=
201903251930 METAR LRBM 251930Z AUTO 08005KT 9000 FEW014/// SCT190///
                        08/06 Q1009=
201903252000 METAR LRBM 252000Z AUTO 06002KT 9999 FEW018/// SCT210///
                        07/05 Q1009=
201903252030 METAR LRBM 252030Z AUTO 05004KT 9999 FEW020/// SCT220///
                        07/04 Q1010=
201903252100 METAR LRBM 252100Z AUTO 30006KT 270V340 9999 FEW027/// SCT046///
                        BKN180/// 07/05 Q1010=
201903252130 METAR LRBM 252130Z AUTO 35007KT 310V030 9999 FEW030/// SCT210///
                        08/04 Q1010=
201903252200 METAR LRBM 252200Z AUTO 26007KT 230V290 9999 SCT031/// BKN075///
                        08/04 Q1011=
201903252230 METAR LRBM 252230Z AUTO 27010KT 9999 FEW038/// SCT043///
                        BKN170/// 07/04 Q1011=
201903252300 METAR LRBM 252300Z AUTO 28011KT 9999 FEW022/// SCT180///
                        06/03 Q1011=
201903252330 METAR LRBM 252330Z AUTO 29006KT 9999 FEW023/// SCT180///
                        06/03 Q1012=
201903260000 METAR LRBM 260000Z AUTO 29008KT 260V320 9999 FEW015/// SCT200///
                        07/02 Q1013=
201903260030 METAR LRBM 260030Z AUTO VRB02KT 9999 FEW038/// SCT049///
                        BKN230/// 07/02 Q1013=
201903260100 METAR LRBM 260100Z AUTO 29006KT 250V350 9999 FEW032/// SCT050///
                        BKN240/// 07/01 Q1013=
201903260130 METAR LRBM 260130Z AUTO 28008KT 9999 FEW050/// SCT200///
                        06/01 Q1013=
201903260200 METAR LRBM 260200Z AUTO 28010KT 9999 FEW060/// SCT220///
                        05/02 Q1013=
201903260230 METAR LRBM 260230Z AUTO 29009KT 9999 FEW024/// SCT210///
                        05/01 Q1013=
201903260300 METAR LRBM 260300Z AUTO 28007KT 9999 FEW060/// SCT200///
                        05/02 Q1014=
201903260330 METAR LRBM 260330Z AUTO 28008KT 9999 FEW060/// SCT210///
                        04/02 Q1014=
201903260400 METAR LRBM 260400Z AUTO 27009KT 9999 FEW050/// SCT230///
                        04/02 Q1015=
201903260430 METAR LRBM 260430Z AUTO 27007KT 9999 FEW036/// SCT190///
                        04/01 Q1015=
201903260500 METAR LRBM 260500Z 28006KT 9999 SCT040 04/01 Q1016=
201903260530 METAR LRBM 260530Z 29006KT 9999 FEW040 04/01 Q1016=
201903260600 METAR LRBM 260600Z 28008KT 9999 FEW040 04/01 Q1016=
201903260630 METAR LRBM 260630Z 28009KT 9999 FEW045 05/01 Q1017=
201903260700 METAR LRBM 260700Z 28010KT 9999 FEW045 05/02 Q1017=
201903260730 METAR LRBM 260730Z 27011KT CAVOK 07/02 Q1017=
201903260800 METAR LRBM 260800Z 29007KT 250V340 9999 FEW030 08/00 Q1018=
201903260830 METAR LRBM 260830Z 33008KT 280V010 9999 FEW030 09/M02 Q1018=
201903260900 METAR LRBM 260900Z 33008KT 280V030 9999 FEW030 FEW033TCU
                        08/M03 Q1018=
201903260930 METAR LRBM 260930Z 36009KT 9999 FEW032 FEW035TCU 10/M03 Q1018=
201903261000 METAR LRBM 261000Z 31006KT 280V340 9999 SCT035 10/M05 Q1018=
201903261030 METAR LRBM 261030Z 35007KT 300V020 9999 SCT036 10/M05 Q1018=
201903261100 METAR LRBM 261100Z 27012KT 9999 SCT036 10/M04 Q1018=
201903261130 METAR LRBM 261130Z 29008KT 270V330 9999 SCT038 10/M03 Q1018=
201903261200 METAR LRBM 261200Z 27013KT 9999 SCT038 11/M03 Q1018=
201903261230 METAR LRBM 261230Z 28013KT 260V320 9999 SCT040 10/M05 Q1018=
201903261300 METAR LRBM 261300Z 28014KT 9999 SCT040 10/M04 Q1018=
201903261330 METAR LRBM 261330Z 28013KT 9999 SCT042 09/M04 Q1018=
201903261400 METAR LRBM 261400Z 28013KT 9999 SCT044 09/M04 Q1018=
201903261430 METAR LRBM 261430Z 29010KT 260V320 9999 SCT046 09/M05 Q1018=
201903261500 METAR LRBM 261500Z 28009KT 260V320 9999 SCT048 09/M05 Q1018=
201903261530 METAR COR LRBM 261530Z 26013KT 9999 FEW048 09/M04 Q1019=
201903261600 METAR LRBM 261600Z 28009KT 9999 FEW048 08/M05 Q1019=
201903261630 METAR LRBM 261630Z 27007KT 9999 FEW050 07/M04 Q1019=
201903261700 METAR LRBM 261700Z 28004KT 9999 FEW055 06/M04 Q1019=
201903261730 METAR LRBM 261730Z AUTO 26002KT 220V300 9999 FEW020/// SCT190///
                        05/M04 Q1019=
201903261800 METAR LRBM 261800Z AUTO 36002KT 9999 FEW029/// BKN190///
                        04/M02 Q1019=
201903261830 METAR LRBM 261830Z AUTO 03003KT 360V060 9999 FEW020/// SCT180///
                        BKN240/// 04/M02 Q1019=
201903261900 METAR LRBM 261900Z AUTO 02003KT 350V050 9999 FEW033/// SCT220///
                        03/M04 Q1019=
201903261930 METAR LRBM 261930Z AUTO 04002KT 340V080 9999 FEW065/// SCT220///
                        02/M04 Q1019=
201903262000 METAR LRBM 262000Z AUTO 05005KT 9999 FEW030/// SCT210///
                        03/M04 Q1019=
201903262030 METAR LRBM 262030Z AUTO 03003KT 9999 FEW065/// SCT210///
                        03/M04 Q1019=
201903262100 METAR LRBM 262100Z AUTO 02002KT 9999 FEW070/// SCT200///
                        03/M04 Q1019=
201903262130 METAR LRBM 262130Z AUTO 03002KT 360V080 9000 FEW046/// SCT210///
                        04/M04 Q1019=
201903262200 METAR LRBM 262200Z AUTO 07004KT 020V090 9999 FEW080/// BKN200///
                        03/M03 Q1019=
201903262230 METAR LRBM 262230Z AUTO 31002KT 260V010 9999 FEW075/// SCT220///
                        03/M02 Q1019=
201903262300 METAR LRBM 262300Z AUTO 32005KT 270V040 9999 FEW035/// SCT190///
                        02/M02 Q1020=
201903262330 METAR LRBM 262330Z AUTO 23003KT 160V310 9999 FEW090/// SCT240///
                        02/M02 Q1019=
201903270000 METAR LRBM 270000Z AUTO 33003KT 9999 FEW095/// SCT220///
                        02/M02 Q1019=
201903270030 METAR LRBM 270030Z AUTO 26004KT 9999 FEW032/// SCT190///
                        02/M01 Q1020=
201903270100 METAR LRBM 270100Z AUTO 28004KT 9999 FEW075/// SCT230///
                        03/M01 Q1020=
201903270130 METAR LRBM 270130Z AUTO 28005KT 9999 FEW080/// SCT240///
                        03/M01 Q1020=
201903270200 METAR LRBM 270200Z AUTO 30004KT 250V350 9999 FEW090/// SCT200///
                        04/M01 Q1020=
201903270230 METAR LRBM 270230Z AUTO 31008KT 280V340 9999 FEW090/// SCT200///
                        05/M04 Q1020=
201903270300 METAR LRBM 270300Z AUTO 31011KT 280V340 9999 FEW085/// SCT200///
                        04/M03 Q1021=
201903270330 METAR LRBM 270330Z AUTO 30006KT 9999 FEW080/// SCT230///
                        03/M02 Q1022=
201903270400 METAR LRBM 270400Z AUTO 29006KT 9999 FEW070/// SCT230///
                        02/M03 Q1022=
201903270430 METAR LRBM 270430Z AUTO 29006KT 9999 FEW065/// SCT220///
                        02/M03 Q1023=
201903270500 METAR LRBM 270500Z 29006KT CAVOK 02/M04 Q1023=
201903270530 METAR LRBM 270530Z 33004KT 300V360 CAVOK 03/M05 Q1024=
201903270600 METAR LRBM 270600Z 32008KT 280V030 CAVOK 03/M06 Q1024=
201903270630 METAR LRBM 270630Z 33007KT 290V020 9999 FEW038 04/M06 Q1024=
201903270700 METAR LRBM 270700Z 31008KT 260V340 9999 FEW040 04/M05 Q1025=
201903270730 METAR LRBM 270730Z 30010KT 260V340 9999 SCT040 04/M06 Q1025=
201903270800 METAR LRBM 270800Z 33007KT 9999 SCT042 05/M07 Q1025=
201903270830 METAR LRBM 270830Z 30010KT 260V330 9999 SCT042 05/M06 Q1025=
201903270900 METAR LRBM 270900Z 28008KT 9999 FEW044 06/M05 Q1026=
201903270930 METAR LRBM 270930Z 30007KT 260V330 9999 FEW046 06/M05 Q1026=
201903271000 METAR LRBM 271000Z VRB04KT 9999 FEW048 06/M08 Q1026=
201903271030 METAR LRBM 271030Z VRB07KT 9999 FEW048 07/M08 Q1026=
201903271100 METAR LRBM 271100Z 32008KT 270V360 9999 FEW048 07/M08 Q1026=
201903271130 METAR LRBM 271130Z 28009KT 240V320 9999 FEW050 08/M08 Q1026=
201903271200 METAR LRBM 271200Z 28009KT 250V310 CAVOK 08/M06 Q1026=
201903271230 METAR LRBM 271230Z 27010KT 250V310 CAVOK 09/M08 Q1026=
201903271300 METAR LRBM 271300Z 31009KT 280V340 CAVOK 09/M09 Q1026=
201903271330 METAR LRBM 271330Z 30009KT 270V340 CAVOK 09/M12 Q1026=
201903271400 METAR LRBM 271400Z 29008KT 260V330 CAVOK 09/M10 Q1026=
201903271430 METAR LRBM 271430Z 29011KT CAVOK 09/M10 Q1026=
201903271500 METAR LRBM 271500Z 27008KT CAVOK 09/M10 Q1026=
201903271530 METAR LRBM 271530Z 28011KT 250V320 CAVOK 09/M11 Q1026=
201903271600 METAR LRBM 271600Z 27010KT CAVOK 09/M11 Q1026=
201903271630 METAR LRBM 271630Z 28007KT CAVOK 08/M11 Q1026=
201903271700 METAR LRBM 271700Z 29004KT CAVOK 07/M10 Q1027=
201903271730 METAR LRBM 271730Z AUTO 28004KT 260V330 9999 FEW090/// SCT190///
                        04/M06 Q1027=
201903271800 METAR LRBM 271800Z AUTO 35002KT 310V010 9999 FEW085/// SCT220///
                        04/M10 Q1027=
201903271830 METAR LRBM 271830Z AUTO 35003KT 9999 FEW060/// SCT220///
                        02/M08 Q1028=
201903271900 METAR LRBM 271900Z AUTO 35004KT 9999 FEW075/// SCT230///
                        03/M10 Q1028=
201903271930 METAR LRBM 271930Z AUTO 36005KT 9999 FEW090/// SCT230///
                        03/M10 Q1028=
201903272000 METAR LRBM 272000Z AUTO 36004KT 340V050 9999 FEW075/// SCT200///
                        03/M09 Q1029=
201903272030 METAR LRBM 272030Z AUTO 35002KT 290V040 9999 FEW090/// SCT200///
                        02/M09 Q1029=
201903272100 METAR LRBM 272100Z AUTO 35002KT 300V030 9999 FEW090/// SCT240///
                        00/M08 Q1029=
201903272130 METAR LRBM 272130Z AUTO 03003KT 340V060 9999 FEW060/// SCT220///
                        01/M10 Q1029=
201903272200 METAR LRBM 272200Z AUTO 01003KT 260V050 9999 FEW080/// SCT230///
                        00/M09 Q1029=
201903272230 METAR LRBM 272230Z AUTO 29003KT 270V340 9999 FEW075/// SCT230///
                        M01/M08 Q1029=
201903272300 METAR LRBM 272300Z AUTO VRB01KT 9999 FEW065/// SCT200///
                        M02/M08 Q1030=
201903272330 METAR LRBM 272330Z AUTO 06003KT 030V090 9999 FEW080/// SCT200///
                        M03/M07 Q1030=
201903280000 METAR LRBM 280000Z AUTO 07003KT 040V100 9999 FEW100/// SCT230///
                        M03/M07 Q1030=
201903280030 METAR LRBM 280030Z AUTO VRB01KT 9999 FEW080/// SCT230///
                        M02/M07 Q1030=
201903280100 METAR LRBM 280100Z AUTO 16002KT 100V200 9999 FEW090/// SCT240///
                        M03/M07 Q1030=
201903280130 METAR LRBM 280130Z AUTO 10003KT 9999 FEW090/// SCT210///
                        M03/M07 Q1030=
201903280200 METAR LRBM 280200Z AUTO 06003KT 9999 FEW080/// SCT240///
                        M03/M07 Q1030=
201903280230 METAR LRBM 280230Z AUTO 09003KT 9999 FEW050/// SCT190///
                        M03/M07 Q1030=
201903280300 METAR LRBM 280300Z AUTO 08003KT 9999 FEW090/// SCT220///
                        M03/M07 Q1030=
201903280330 METAR LRBM 280330Z AUTO 09003KT 9999 FEW075/// SCT180///
                        M03/M07 Q1030=
201903280400 METAR LRBM 280400Z AUTO 08003KT 9999 FEW080/// SCT230///
                        M04/M06 Q1030=
201903280430 METAR LRBM 280430Z AUTO 08002KT 9999 FEW075/// SCT220///
                        M03/M07 Q1030=
201903280500 METAR LRBM 280500Z 00000KT CAVOK M04/M06 Q1030=
201903280530 METAR LRBM 280530Z 10004KT CAVOK M02/M05 Q1030=
201903280600 METAR LRBM 280600Z 09003KT CAVOK 01/M06 Q1030=
201903280630 METAR LRBM 280630Z 17004KT CAVOK 01/M04 Q1030=
201903280700 METAR LRBM 280700Z 18003KT 150V230 CAVOK 02/M04 Q1030=
201903280730 METAR LRBM 280730Z 19002KT CAVOK 04/M06 Q1031=
201903280800 METAR LRBM 280800Z 21003KT CAVOK 05/M07 Q1030=
201903280830 METAR LRBM 280830Z 20003KT CAVOK 07/M06 Q1030=
201903280900 METAR LRBM 280900Z 26008KT CAVOK 08/M06 Q1030=
201903280930 METAR LRBM 280930Z 27009KT CAVOK 09/M05 Q1030=
201903281000 METAR LRBM 281000Z 25010KT CAVOK 09/M04 Q1029=
201903281030 METAR LRBM 281030Z 27012KT CAVOK 10/M03 Q1029=
201903281100 METAR LRBM 281100Z 27014KT CAVOK 10/M02 Q1029=
201903281130 METAR LRBM 281130Z 27013KT 250V310 CAVOK 10/M03 Q1029=
201903281200 METAR LRBM 281200Z 27013KT CAVOK 10/M02 Q1029=
201903281230 METAR COR LRBM 281230Z 27011KT CAVOK 11/M02 Q1029=
201903281300 METAR LRBM 281300Z 27010KT CAVOK 12/M02 Q1028=
201903281330 METAR LRBM 281330Z 33008KT CAVOK 11/M03 Q1028=
201903281400 METAR LRBM 281400Z 28010KT CAVOK 11/M03 Q1028=
201903281430 METAR LRBM 281430Z 30009KT 260V340 CAVOK 11/M03 Q1028=
201903281500 METAR LRBM 281500Z 30007KT 270V340 CAVOK 11/M03 Q1028=
201903281530 METAR LRBM 281530Z 31007KT 260V350 CAVOK 11/M03 Q1028=
201903281600 METAR LRBM 281600Z 29007KT CAVOK 10/M04 Q1028=
201903281630 METAR LRBM 281630Z 29006KT CAVOK 10/M03 Q1028=
201903281700 METAR LRBM 281700Z 30005KT CAVOK 09/M03 Q1028=
201903281730 METAR LRBM 281730Z AUTO 28003KT 250V320 9999 FEW060/// SCT210///
                        08/M03 Q1029=
201903281800 METAR LRBM 281800Z AUTO 34002KT 9999 FEW039/// SCT210///
                        07/M02 Q1029=
201903281830 METAR LRBM 281830Z AUTO VRB01KT 9999 FEW065/// SCT200///
                        05/M02 Q1029=
201903281900 METAR LRBM 281900Z AUTO 32003KT 290V350 9999 FEW035/// SCT200///
                        05/M02 Q1029=
201903281930 METAR LRBM 281930Z AUTO VRB02KT 9999 FEW049/// SCT240///
                        03/M02 Q1029=
201903282000 METAR LRBM 282000Z AUTO 33002KT 290V010 9999 FEW080/// SCT200///
                        03/M02 Q1029=
201903282030 METAR LRBM 282030Z AUTO 36003KT 330V040 9999 FEW065/// SCT220///
                        04/M02 Q1030=
201903282100 METAR LRBM 282100Z AUTO 04003KT 9999 FEW046/// SCT220///
                        02/M02 Q1030=
201903282130 METAR LRBM 282130Z AUTO VRB01KT 9999 FEW075/// SCT200///
                        03/M02 Q1030=
201903282200 METAR LRBM 282200Z AUTO 08004KT 9999 FEW120/// SCT220///
                        01/M02 Q1030=
201903282230 METAR LRBM 282230Z AUTO 06004KT 020V130 9999 FEW080/// SCT200///
                        02/M02 Q1030=
201903282300 METAR LRBM 282300Z AUTO 28002KT 250V310 9999 FEW020/// SCT210///
                        01/M02 Q1030=
201903282330 METAR LRBM 282330Z AUTO VRB01KT 9999 FEW023/// SCT220///
                        01/M02 Q1030=
201903290000 METAR LRBM 290000Z AUTO 07003KT 9999 FEW050/// SCT200///
                        M00/M02 Q1030=
201903290030 METAR LRBM 290030Z AUTO 09004KT 050V130 9999 FEW065/// SCT190///
                        M01/M03 Q1030=
201903290100 METAR LRBM 290100Z AUTO 08002KT 020V170 9999 FEW024/// SCT220///
                        M00/M03 Q1030=
201903290130 METAR LRBM 290130Z AUTO 07003KT 9999 FEW032/// SCT220///
                        M01/M03 Q1030=
201903290200 METAR LRBM 290200Z AUTO 06002KT 9999 FEW080/// SCT230///
                        M01/M03 Q1030=
201903290230 METAR LRBM 290230Z AUTO VRB01KT 9999 FEW055/// SCT230///
                        M01/M03 Q1030=
201903290300 METAR LRBM 290300Z AUTO 09001KT 9999 FEW037/// SCT220///
                        M01/M03 Q1030=
201903290330 METAR LRBM 290330Z AUTO VRB01KT 9999 FEW070/// SCT210///
                        M02/M03 Q1031=
201903290400 METAR LRBM 290400Z AUTO 00000KT 9999 FEW034/// SCT220///
                        M02/M03 Q1031=
201903290430 METAR LRBM 290430Z AUTO 07002KT 040V120 9999 FEW060/// SCT200///
                        M02/M03 Q1031=
201903290500 METAR LRBM 290500Z VRB01KT CAVOK M02/M03 Q1031=
201903290530 METAR LRBM 290530Z 11002KT CAVOK 00/M02 Q1031=
201903290600 METAR LRBM 290600Z 16004KT CAVOK 01/M01 Q1031=
201903290630 METAR LRBM 290630Z 18002KT CAVOK 02/M01 Q1031=
201903290700 METAR LRBM 290700Z 24002KT CAVOK 03/M01 Q1031=
201903290730 METAR LRBM 290730Z VRB02KT CAVOK 05/M00 Q1031=
201903290800 METAR LRBM 290800Z 23003KT 200V290 CAVOK 07/00 Q1031=
201903290830 METAR LRBM 290830Z 25006KT 200V280 CAVOK 08/01 Q1030=
201903290900 METAR LRBM 290900Z 27009KT CAVOK 11/M01 Q1030=
201903290930 METAR LRBM 290930Z 27010KT 9999 FEW032 11/M01 Q1030=
201903291000 METAR LRBM 291000Z 26011KT 9999 FEW033 11/M00 Q1029=
201903291030 METAR LRBM 291030Z 26011KT 230V290 9999 FEW033 12/M00 Q1029=
201903291100 METAR LRBM 291100Z 26013KT 9999 FEW035 12/00 Q1029=
201903291130 METAR LRBM 291130Z 26012KT 9999 FEW037 13/M00 Q1029=
201903291200 METAR LRBM 291200Z 26011KT 9999 FEW037 13/M01 Q1028=
201903291230 METAR LRBM 291230Z 26012KT 9999 FEW038 14/M01 Q1028=
201903291300 METAR LRBM 291300Z 27013KT 9999 FEW040 14/M01 Q1027=
201903291330 METAR LRBM 291330Z 28011KT 9999 FEW040 14/M00 Q1027=
201903291400 METAR LRBM 291400Z 27013KT 9999 FEW045 14/M00 Q1027=
201903291430 METAR LRBM 291430Z 27011KT CAVOK 14/M00 Q1027=
201903291500 METAR LRBM 291500Z 26012KT CAVOK 14/M01 Q1027=
201903291530 METAR LRBM 291530Z 26013KT CAVOK 14/M01 Q1026=
201903291600 METAR LRBM 291600Z 27010KT CAVOK 14/M01 Q1026=
201903291630 METAR LRBM 291630Z 27008KT CAVOK 13/M00 Q1026=
201903291700 METAR LRBM 291700Z 27004KT CAVOK 12/M00 Q1026=
201903291730 METAR LRBM 291730Z AUTO 28002KT 9999 FEW012/// SCT150///
                        BKN240/// 10/M01 Q1026=
201903291800 METAR LRBM 291800Z AUTO 36001KT 6000 FEW024/// SCT210///
                        08/01 Q1026=
201903291830 METAR LRBM 291830Z AUTO 17002KT 090V200 9999 FEW020/// SCT210///
                        07/00 Q1026=
201903291900 METAR LRBM 291900Z AUTO 35002KT 320V020 8000 FEW025/// SCT210///
                        07/00 Q1027=
201903291930 METAR LRBM 291930Z AUTO 02003KT 8000 FEW016/// SCT170///
                        BKN240/// 06/00 Q1026=
201903292000 METAR LRBM 292000Z AUTO 07004KT 040V100 9999 FEW019/// SCT190///
                        06/M00 Q1026=
201903292030 METAR LRBM 292030Z AUTO 05002KT 9999 FEW020/// SCT200///
                        05/M00 Q1026=
201903292100 METAR LRBM 292100Z AUTO 06003KT 010V090 9999 FEW055/// SCT200///
                        05/M00 Q1026=
201903292130 METAR LRBM 292130Z AUTO 04002KT 010V070 9999 FEW032/// SCT190///
                        04/00 Q1026=
201903292200 METAR LRBM 292200Z AUTO 06002KT 030V100 9999 FEW021/// SCT200///
                        04/M00 Q1026=
201903292230 METAR LRBM 292230Z AUTO 03002KT 360V060 9999 FEW030/// SCT210///
                        04/M01 Q1026=
201903292300 METAR LRBM 292300Z AUTO 31002KT 260V320 9999 FEW022/// SCT200///
                        02/M01 Q1026=
201903292330 METAR LRBM 292330Z AUTO 34002KT 310V010 9999 FEW047/// SCT230///
                        03/M00 Q1026=
201903300000 METAR LRBM 300000Z AUTO 01002KT 340V040 9999 FEW029/// SCT210///
                        03/M01 Q1026=
201903300030 METAR LRBM 300030Z AUTO 24002KT 210V020 9999 FEW014/// SCT220///
                        01/M02 Q1026=
201903300100 METAR LRBM 300100Z AUTO 08002KT 060V170 9999 FEW034/// SCT200///
                        01/M01 Q1026=
201903300130 METAR LRBM 300130Z AUTO 08001KT 9999 FEW022/// SCT210///
                        01/M01 Q1026=
201903300200 METAR LRBM 300200Z AUTO 10003KT 9999 FEW070/// SCT230///
                        01/M01 Q1026=
201903300230 METAR LRBM 300230Z AUTO 05004KT 9999 FEW050/// SCT210///
                        02/M01 Q1026=
201903300300 METAR LRBM 300300Z AUTO 14002KT 110V170 9999 FEW023/// SCT200///
                        M00/M02 Q1026=
201903300330 METAR LRBM 300330Z AUTO 05003KT 9999 FEW027/// SCT200///
                        00/M01 Q1026=
201903300400 METAR LRBM 300400Z AUTO 09004KT 9999 FEW016/// SCT210///
                        01/M01 Q1026=
201903300430 METAR LRBM 300430Z AUTO 10004KT 9999 FEW070/// SCT220///
                        M01/M03 Q1026=
201903300500 METAR LRBM 300500Z AUTO 08005KT 9999 FEW100/// SCT220///
                        00/M01 Q1026=
201903300530 METAR LRBM 300530Z AUTO 09005KT 9999 FEW030/// SCT210///
                        02/00 Q1026=
201903300600 METAR LRBM 300600Z AUTO 10004KT 9999 FEW029/// SCT200///
                        04/00 Q1026=
201903300630 METAR LRBM 300630Z AUTO 09002KT 040V120 9999 FEW021/// SCT170///
                        06/01 Q1026=
201903300700 METAR LRBM 300700Z AUTO VRB01KT 9999 FEW020/// SCT190///
                        08/01 Q1026=
201903300730 METAR LRBM 300730Z AUTO VRB01KT 9999 FEW014/// SCT200///
                        09/01 Q1026=
201903300800 METAR LRBM 300800Z AUTO VRB01KT 9999 FEW020/// SCT190///
                        10/M00 Q1026=
201903300830 METAR LRBM 300830Z AUTO 23002KT 9999 FEW016/// SCT180///
                        BKN240/// 11/00 Q1026=
201903300900 METAR LRBM 300900Z AUTO VRB03KT 9999 FEW022/// SCT230///
                        12/01 Q1026=
201903300930 METAR LRBM 300930Z AUTO VRB03KT 9999 FEW014/// SCT220///
                        13/02 Q1026=
201903301000 METAR LRBM 301000Z AUTO 22004KT 170V250 9999 FEW017/// SCT180///
                        13/M00 Q1025=
201903301030 METAR LRBM 301030Z AUTO 19004KT 140V260 9999 FEW016/// SCT200///
                        14/M00 Q1025=
201903301100 METAR LRBM 301100Z AUTO VRB03KT 9999 FEW016/// SCT180///
                        15/M01 Q1025=
201903301130 METAR LRBM 301130Z AUTO 25003KT 200V330 9999 FEW011/// SCT100///
                        BKN240/// 15/M01 Q1024=
201903301200 METAR LRBM 301200Z AUTO 28003KT 9999 FEW014/// SCT140///
                        BKN240/// 16/M01 Q1024=
201903301230 METAR LRBM 301230Z AUTO VRB03KT 9999 FEW013/// SCT160///
                        BKN240/// 17/00 Q1023=
201903301300 METAR LRBM 301300Z AUTO 23008KT 9999 FEW014/// SCT150///
                        BKN240/// 17/00 Q1023=
201903301330 METAR LRBM 301330Z AUTO 27006KT 240V330 9999 FEW013/// SCT200///
                        17/M00 Q1023=
201903301400 METAR LRBM 301400Z AUTO 25007KT 9999 FEW017/// SCT170///
                        BKN240/// 17/00 Q1022=
201903301430 METAR LRBM 301430Z AUTO 27008KT 9999 FEW019/// SCT190///
                        17/00 Q1022=
201903301500 METAR LRBM 301500Z AUTO 27008KT 9999 FEW013/// SCT150///
                        BKN230/// 17/00 Q1022=
201903301530 METAR LRBM 301530Z AUTO 28007KT 9999 FEW015/// SCT160///
                        17/00 Q1022=
201903301600 METAR LRBM 301600Z AUTO 28005KT 9999 FEW020/// BKN190///
                        16/M00 Q1022=
201903301630 METAR LRBM 301630Z AUTO 28004KT 9999 FEW014/// SCT180///
                        BKN240/// 15/01 Q1022=
201903301700 METAR LRBM 301700Z AUTO 30003KT 9999 FEW014/// SCT180///
                        14/00 Q1021=
201903301730 METAR LRBM 301730Z AUTO 36004KT 7000 FEW013/// SCT130///
                        BKN230/// 12/01 Q1022=
201903301800 METAR LRBM 301800Z AUTO 36003KT 9999 FEW017/// SCT170///
                        BKN240/// 11/01 Q1022=
201903301830 METAR LRBM 301830Z AUTO 01004KT 9999 FEW013/// SCT110///
                        BKN240/// 11/01 Q1022=
201903301900 METAR LRBM 301900Z AUTO 33002KT 300V020 9999 FEW020/// SCT170///
                        BKN240/// 10/02 Q1022=
201903301930 METAR LRBM 301930Z AUTO 35003KT 9999 FEW016/// SCT160///
                        09/01 Q1022=
201903302000 METAR LRBM 302000Z AUTO 35002KT 9999 FEW017/// SCT190///
                        08/02 Q1022=
201903302030 METAR LRBM 302030Z AUTO 12002KT 040V170 9999 FEW014/// SCT200///
                        07/01 Q1022=
201903302100 METAR LRBM 302100Z AUTO 05003KT 9999 FEW048/// SCT220///
                        07/01 Q1021=
201903302130 METAR LRBM 302130Z AUTO 07004KT 9999 FEW015/// SCT200///
                        06/01 Q1021=
201903302200 METAR LRBM 302200Z AUTO 09005KT 9999 FEW018/// SCT190///
                        05/01 Q1022=
201903302230 METAR LRBM 302230Z AUTO 07003KT 9999 FEW015/// SCT220///
                        05/01 Q1021=
201903302300 METAR LRBM 302300Z AUTO 09005KT 9999 FEW031/// SCT180///
                        BKN240/// 05/01 Q1021=
201903302330 METAR LRBM 302330Z AUTO 06005KT 9999 FEW020/// BKN210///
                        06/01 Q1021=
201903310000 METAR LRBM 310000Z AUTO 09005KT 9999 FEW016/// SCT190///
                        05/01 Q1021=
201903310030 METAR LRBM 310030Z AUTO 08004KT 9999 FEW023/// SCT170///
                        BKN240/// 05/01 Q1021=
201903310100 METAR LRBM 310100Z AUTO 09004KT 9999 FEW019/// SCT210///
                        04/01 Q1020=
201903310130 METAR LRBM 310130Z AUTO VRB01KT 9999 FEW021/// SCT220///
                        03/00 Q1020=
201903310200 METAR LRBM 310200Z AUTO 07004KT 9999 FEW022/// SCT230///
                        03/00 Q1020=
201903310230 METAR LRBM 310230Z AUTO VRB02KT 8000 FEW024/// SCT220///
                        02/M00 Q1020=
201903310300 METAR LRBM 310300Z AUTO 00000KT 8000 FEW048/// SCT230///
                        01/M00 Q1020=
201903310330 METAR LRBM 310330Z AUTO 08004KT 7000 FEW017/// SCT190///
                        01/M00 Q1020=
201903310400 METAR LRBM 310400Z AUTO 10004KT 8000 FEW020/// SCT190///
                        01/M01 Q1020=
201903310430 METAR LRBM 310430Z AUTO 08003KT 9999 FEW031/// SCT200///
                        01/M00 Q1020=
201903310500 METAR LRBM 310500Z AUTO 08004KT 9999 FEW060/// SCT220///
                        03/00 Q1020=
201903310530 METAR LRBM 310530Z AUTO 12003KT 080V140 9999 FEW044/// SCT210///
                        04/01 Q1020=
201903310600 METAR LRBM 310600Z AUTO 10002KT 9999 FEW044/// SCT200///
                        05/01 Q1020=
201903310630 METAR LRBM 310630Z AUTO VRB01KT 9999 FEW025/// SCT180///
                        BKN240/// 07/02 Q1020=
201903310700 METAR LRBM 310700Z AUTO 09003KT 9999 FEW025/// SCT200///
                        09/02 Q1020=
201903310730 METAR LRBM 310730Z AUTO 18004KT 150V210 9999 FEW027/// BKN190///
                        10/03 Q1020=
201903310800 METAR LRBM 310800Z AUTO 19003KT 150V230 9999 FEW018/// SCT180///
                        BKN240/// 12/03 Q1020=
201903310830 METAR LRBM 310830Z AUTO 18003KT 130V220 9999 FEW021/// SCT200///
                        14/02 Q1020=
201903310900 METAR LRBM 310900Z AUTO 20003KT 130V290 9999 FEW013/// SCT200///
                        15/02 Q1019=
201903310930 METAR LRBM 310930Z AUTO 20002KT 120V290 9999 FEW032/// BKN190///
                        16/01 Q1019=
201903311000 METAR LRBM 311000Z AUTO 21004KT 170V260 9999 FEW015/// SCT180///
                        BKN240/// 17/02 Q1019=
201903311030 METAR LRBM 311030Z AUTO 26005KT 220V290 9999 FEW019/// SCT160///
                        BKN240/// 17/01 Q1018=
201903311100 METAR LRBM 311100Z AUTO 25005KT 230V320 9999 FEW011/// SCT150///
                        BKN240/// 18/01 Q1018=
201903311130 METAR LRBM 311130Z AUTO 27006KT 250V330 9999 FEW014/// SCT170///
                        BKN240/// 18/01 Q1018=
201903311200 METAR LRBM 311200Z AUTO 27008KT 250V310 9999 FEW019/// SCT180///
                        19/M01 Q1017=
201903311230 METAR LRBM 311230Z AUTO 26008KT 9999 FEW011/// SCT160///
                        BKN240/// 19/M01 Q1017=
201903311300 METAR LRBM 311300Z AUTO 27007KT 240V300 9999 FEW017/// SCT190///
                        19/M02 Q1017=
201903311330 METAR LRBM 311330Z AUTO 27008KT 9999 FEW018/// SCT190///
                        19/M01 Q1016=
201903311400 METAR LRBM 311400Z AUTO 27010KT 9999 FEW014/// SCT190///
                        19/M01 Q1016=
201903311430 METAR LRBM 311430Z AUTO 27009KT 9999 FEW013/// SCT200///
                        19/M01 Q1016=
201903311500 METAR LRBM 311500Z AUTO 26009KT 9999 FEW011/// SCT170///
                        BKN240/// 19/M01 Q1016=
201903311530 METAR LRBM 311530Z AUTO 27009KT 9999 FEW014/// SCT170///
                        19/M02 Q1015=
201903311600 METAR LRBM 311600Z AUTO 27008KT 9999 FEW016/// SCT190///
                        18/M01 Q1015=
201903311630 METAR LRBM 311630Z AUTO 27006KT 9999 FEW014/// SCT200///
                        17/M01 Q1015=
201903311700 METAR COR LRBM 311700Z 28005KT CAVOK 16/M02 Q1015=
201903311730 METAR LRBM 311730Z 33003KT 280V350 CAVOK 14/M01 Q1016=
201903311800 METAR LRBM 311800Z 36003KT CAVOK 11/01 Q1016=
201903311830 METAR LRBM 311830Z 02003KT CAVOK 11/01 Q1016=
201903311900 METAR LRBM 311900Z 02004KT CAVOK 11/01 Q1016=
201903311930 METAR LRBM 311930Z 02003KT 340V050 CAVOK 11/01 Q1016=
201903312000 METAR LRBM 312000Z VRB01KT CAVOK 10/01 Q1016=
201903312030 METAR LRBM 312030Z 08002KT CAVOK 08/01 Q1016=
201903312100 METAR LRBM 312100Z 06002KT CAVOK 08/01 Q1016=
201903312130 METAR LRBM 312130Z AUTO 09003KT 9999 FEW018/// SCT190///
                        07/01 Q1016=
201903312200 METAR LRBM 312200Z AUTO 07003KT 020V110 9999 FEW029/// SCT210///
                        07/01 Q1016=
201903312230 METAR LRBM 312230Z AUTO 09002KT 050V130 9999 FEW025/// SCT220///
                        06/01 Q1016=
201903312300 METAR LRBM 312300Z AUTO 02001KT 9999 FEW060/// SCT230///
                        05/01 Q1016=
201903312330 METAR LRBM 312330Z AUTO VRB01KT 9999 FEW100/// SCT220///
                        05/00 Q1016=
