201904010000 METAR LRBM 010000Z AUTO 10002KT 9999 FEW039/// SCT210///
                        04/01 Q1016=
201904010030 METAR LRBM 010030Z AUTO 08003KT 9999 FEW065/// SCT210///
                        05/01 Q1016=
201904010100 METAR LRBM 010100Z AUTO 08002KT 9999 FEW085/// SCT210///
                        04/01 Q1016=
201904010130 METAR LRBM 010130Z AUTO VRB01KT 9999 FEW032/// SCT200///
                        04/00 Q1016=
201904010200 METAR LRBM 010200Z 07002KT CAVOK 03/00 Q1016=
201904010230 METAR LRBM 010230Z VRB02KT CAVOK 03/00 Q1017=
201904010300 METAR LRBM 010300Z VRB02KT CAVOK 03/00 Q1017=
201904010330 METAR LRBM 010330Z VRB01KT CAVOK 02/00 Q1017=
201904010400 METAR LRBM 010400Z VRB02KT CAVOK 02/M00 Q1017=
201904010430 METAR LRBM 010430Z VRB01KT CAVOK 02/00 Q1017=
201904010500 METAR LRBM 010500Z VRB01KT CAVOK 03/00 Q1018=
201904010530 METAR LRBM 010530Z VRB01KT CAVOK 04/01 Q1018=
201904010600 METAR LRBM 010600Z 18002KT CAVOK 05/01 Q1018=
201904010630 METAR LRBM 010630Z 00000KT CAVOK 07/01 Q1018=
201904010700 METAR LRBM 010700Z VRB02KT CAVOK 08/02 Q1018=
201904010730 METAR LRBM 010730Z VRB02KT CAVOK 10/03 Q1019=
201904010800 METAR LRBM 010800Z 25003KT 210V300 CAVOK 12/02 Q1019=
201904010830 METAR LRBM 010830Z 25004KT CAVOK 14/03 Q1019=
201904010900 METAR LRBM 010900Z 25005KT CAVOK 16/02 Q1018=
201904010930 METAR LRBM 010930Z 27007KT CAVOK 17/02 Q1018=
201904011000 METAR LRBM 011000Z 26007KT CAVOK 18/01 Q1018=
201904011030 METAR LRBM 011030Z 27006KT 230V330 CAVOK 19/01 Q1018=
201904011100 METAR LRBM 011100Z 28005KT 240V340 CAVOK 19/00 Q1017=
201904011130 METAR LRBM 011130Z 26009KT 9999 FEW050 20/02 Q1017=
201904011200 METAR LRBM 011200Z 26010KT 9999 FEW050 20/03 Q1017=
201904011230 METAR LRBM 011230Z 27007KT 240V310 9999 FEW045 20/01 Q1016=
201904011300 METAR LRBM 011300Z 36006KT 330V040 9999 FEW050 21/01 Q1016=
201904011330 METAR LRBM 011330Z 36005KT 280V060 9999 FEW050 21/01 Q1016=
201904011400 METAR LRBM 011400Z 33007KT 280V030 CAVOK 21/02 Q1016=
201904011430 METAR LRBM 011430Z 01007KT 330V050 CAVOK 20/02 Q1015=
201904011500 METAR LRBM 011500Z 02006KT 330V050 CAVOK 19/01 Q1016=
201904011530 METAR LRBM 011530Z 35005KT 320V040 CAVOK 19/01 Q1016=
201904011600 METAR LRBM 011600Z 01006KT 320V040 CAVOK 18/01 Q1016=
201904011630 METAR LRBM 011630Z 02007KT 340V050 CAVOK 17/00 Q1016=
201904011700 METAR LRBM 011700Z 02006KT 340V060 CAVOK 16/M00 Q1016=
201904011730 METAR LRBM 011730Z 04006KT 360V080 CAVOK 15/M01 Q1017=
201904011800 METAR LRBM 011800Z 04007KT CAVOK 14/M01 Q1017=
201904011830 METAR LRBM 011830Z 03008KT CAVOK 13/M01 Q1017=
201904011900 METAR LRBM 011900Z 03007KT 360V060 CAVOK 12/M01 Q1018=
201904011930 METAR LRBM 011930Z 03007KT 360V060 CAVOK 12/M01 Q1018=
201904012000 METAR LRBM 012000Z 04007KT 020V080 CAVOK 11/M02 Q1018=
201904012030 METAR LRBM 012030Z 03006KT CAVOK 11/M02 Q1019=
201904012100 METAR LRBM 012100Z 02007KT CAVOK 11/M03 Q1019=
201904012130 METAR LRBM 012130Z AUTO 05004KT 350V120 9999 FEW027/// SCT220///
                        10/M03 Q1019=
201904012200 METAR LRBM 012200Z AUTO 10003KT 9999 FEW018/// SCT200///
                        10/M01 Q1020=
201904012230 METAR LRBM 012230Z AUTO 06004KT 020V090 9999 FEW055/// SCT230///
                        10/M03 Q1020=
201904012300 METAR LRBM 012300Z AUTO 07003KT 9999 FEW035/// SCT230///
                        10/M03 Q1020=
201904012330 METAR LRBM 012330Z AUTO 07003KT 9999 FEW038/// SCT210///
                        09/M02 Q1020=
201904020000 METAR LRBM 020000Z AUTO 06003KT 9999 FEW021/// SCT200///
                        09/M01 Q1020=
201904020030 METAR LRBM 020030Z AUTO 09004KT 9999 FEW055/// SCT210///
                        08/M01 Q1020=
201904020100 METAR LRBM 020100Z AUTO 07005KT 9999 FEW070/// SCT230///
                        09/M03 Q1020=
201904020130 METAR LRBM 020130Z AUTO 07003KT 9999 FEW030/// SCT230///
                        08/M03 Q1020=
201904020200 METAR LRBM 020200Z 06004KT CAVOK 08/M04 Q1020=
201904020230 METAR LRBM 020230Z 12004KT CAVOK 07/M03 Q1020=
201904020300 METAR LRBM 020300Z 06004KT CAVOK 07/M02 Q1020=
201904020330 METAR LRBM 020330Z 05003KT CAVOK 06/M02 Q1020=
201904020400 METAR LRBM 020400Z 08005KT CAVOK 05/M02 Q1020=
201904020430 METAR LRBM 020430Z 06004KT CAVOK 05/M02 Q1021=
201904020500 METAR LRBM 020500Z 06005KT CAVOK 06/M02 Q1021=
201904020530 METAR LRBM 020530Z 06005KT CAVOK 08/M03 Q1021=
201904020600 METAR LRBM 020600Z 09006KT 9999 FEW030 10/M01 Q1021=
201904020630 METAR LRBM 020630Z 10010KT CAVOK 10/M03 Q1021=
201904020700 METAR LRBM 020700Z 09010KT CAVOK 11/M03 Q1021=
201904020730 METAR LRBM 020730Z 11010KT CAVOK 11/M03 Q1021=
201904020800 METAR LRBM 020800Z 12010KT CAVOK 11/M03 Q1021=
201904020830 METAR LRBM 020830Z 11011KT CAVOK 12/M03 Q1021=
201904020900 METAR LRBM 020900Z 10013KT CAVOK 12/M03 Q1021=
201904020930 METAR COR LRBM 020930Z 09013KT CAVOK 12/M03 Q1021=
201904021000 METAR LRBM 021000Z 09013KT CAVOK 13/M03 Q1021=
201904021030 METAR LRBM 021030Z 09012KT 9999 SCT060 13/M03 Q1021=
201904021100 METAR LRBM 021100Z 10011KT 9999 FEW060 14/M03 Q1021=
201904021130 METAR LRBM 021130Z 10011KT CAVOK 14/M02 Q1020=
201904021200 METAR LRBM 021200Z 11010KT 9999 FEW058 14/M03 Q1020=
201904021230 METAR LRBM 021230Z 13010KT 110V170 CAVOK 15/M03 Q1020=
201904021300 METAR LRBM 021300Z 13009KT 100V160 CAVOK 15/M03 Q1020=
201904021330 METAR LRBM 021330Z 11009KT 080V150 CAVOK 15/M02 Q1019=
201904021400 METAR LRBM 021400Z 11009KT 080V140 CAVOK 15/M02 Q1019=
201904021430 METAR LRBM 021430Z 11010KT CAVOK 15/M02 Q1019=
201904021500 METAR LRBM 021500Z 11009KT CAVOK 15/M02 Q1019=
201904021530 METAR LRBM 021530Z 10011KT CAVOK 14/M03 Q1019=
201904021600 METAR LRBM 021600Z 10008KT CAVOK 14/M03 Q1019=
201904021630 METAR LRBM 021630Z 10009KT CAVOK 13/M03 Q1019=
201904021700 METAR LRBM 021700Z 09009KT CAVOK 11/M02 Q1019=
201904021730 METAR LRBM 021730Z 08007KT CAVOK 11/M03 Q1019=
201904021800 METAR LRBM 021800Z 07007KT CAVOK 11/M04 Q1019=
201904021830 METAR LRBM 021830Z 07007KT CAVOK 11/M05 Q1019=
201904021900 METAR LRBM 021900Z 08006KT CAVOK 10/M04 Q1019=
201904021930 METAR LRBM 021930Z 07008KT CAVOK 11/M05 Q1019=
201904022000 METAR LRBM 022000Z 08009KT CAVOK 11/M05 Q1019=
201904022030 METAR LRBM 022030Z 08009KT CAVOK 10/M05 Q1019=
201904022100 METAR LRBM 022100Z 08010KT CAVOK 10/M05 Q1019=
201904022130 METAR LRBM 022130Z AUTO 08009KT 9999 FEW085/// SCT220///
                        10/M06 Q1020=
201904022200 METAR LRBM 022200Z AUTO 08007KT 9999 FEW085/// SCT220///
                        08/M05 Q1019=
201904022230 METAR LRBM 022230Z AUTO 08008KT 9999 FEW036/// SCT230///
                        09/M06 Q1019=
201904022300 METAR LRBM 022300Z AUTO 08008KT 9999 FEW080/// SCT230///
                        10/M06 Q1019=
201904022330 METAR LRBM 022330Z AUTO 08008KT 9999 FEW034/// SCT230///
                        09/M06 Q1019=
201904030000 METAR LRBM 030000Z AUTO 08008KT 9999 FEW080/// SCT200///
                        09/M06 Q1019=
201904030030 METAR LRBM 030030Z AUTO 08006KT 9999 FEW085/// SCT190///
                        08/M05 Q1019=
201904030100 METAR LRBM 030100Z AUTO 07006KT 9999 FEW085/// SCT230///
                        07/M04 Q1019=
201904030130 METAR LRBM 030130Z AUTO 08006KT 9999 FEW090/// SCT220///
                        07/M04 Q1019=
201904030200 METAR LRBM 030200Z 09006KT CAVOK 07/M04 Q1019=
201904030230 METAR LRBM 030230Z 09009KT CAVOK 08/M05 Q1019=
201904030300 METAR LRBM 030300Z 09008KT CAVOK 07/M05 Q1018=
201904030330 METAR LRBM 030330Z 08007KT CAVOK 07/M05 Q1018=
201904030400 METAR LRBM 030400Z 09008KT CAVOK 06/M05 Q1018=
201904030430 METAR LRBM 030430Z 09008KT CAVOK 06/M06 Q1018=
201904030500 METAR LRBM 030500Z 08006KT CAVOK 07/M05 Q1018=
201904030530 METAR LRBM 030530Z 09007KT CAVOK 09/M04 Q1018=
201904030600 METAR LRBM 030600Z 10009KT CAVOK 10/M07 Q1018=
201904030630 METAR LRBM 030630Z 11011KT CAVOK 11/M07 Q1018=
201904030700 METAR LRBM 030700Z 11011KT CAVOK 11/M07 Q1018=
201904030730 METAR LRBM 030730Z 11011KT CAVOK 12/M07 Q1018=
201904030800 METAR LRBM 030800Z 10013KT CAVOK 12/M07 Q1018=
201904030830 METAR LRBM 030830Z 12011KT CAVOK 13/M06 Q1017=
201904030900 METAR LRBM 030900Z 12010KT CAVOK 14/M06 Q1017=
201904030930 METAR LRBM 030930Z 12009KT 080V150 CAVOK 15/M05 Q1017=
201904031000 METAR LRBM 031000Z 12009KT 080V140 CAVOK 15/M05 Q1016=
201904031030 METAR LRBM 031030Z 10008KT CAVOK 16/M04 Q1016=
201904031100 METAR LRBM 031100Z 14006KT 090V180 CAVOK 16/M03 Q1015=
201904031130 METAR LRBM 031130Z 08008KT 040V120 CAVOK 17/M03 Q1015=
201904031200 METAR LRBM 031200Z 12009KT 090V150 CAVOK 17/M03 Q1015=
201904031230 METAR LRBM 031230Z 12006KT 080V170 CAVOK 18/M03 Q1014=
201904031300 METAR LRBM 031300Z 10008KT CAVOK 17/M03 Q1014=
201904031330 METAR LRBM 031330Z 10007KT 070V140 CAVOK 18/M02 Q1013=
201904031400 METAR LRBM 031400Z 08007KT CAVOK 18/M02 Q1013=
201904031430 METAR LRBM 031430Z 08008KT 060V120 CAVOK 18/M02 Q1013=
201904031500 METAR LRBM 031500Z 10007KT 080V140 CAVOK 18/M01 Q1013=
201904031530 METAR LRBM 031530Z 10007KT CAVOK 17/M01 Q1013=
201904031600 METAR LRBM 031600Z 11005KT CAVOK 17/M01 Q1012=
201904031630 METAR LRBM 031630Z 13004KT CAVOK 16/M02 Q1012=
201904031700 METAR LRBM 031700Z 10005KT CAVOK 14/M00 Q1012=
201904031730 METAR LRBM 031730Z 09005KT CAVOK 13/M00 Q1013=
201904031800 METAR LRBM 031800Z 07004KT CAVOK 11/01 Q1013=
201904031830 METAR LRBM 031830Z 06004KT CAVOK 11/01 Q1013=
201904031900 METAR LRBM 031900Z 06005KT CAVOK 12/M01 Q1013=
201904031930 METAR LRBM 031930Z 06005KT CAVOK 12/M01 Q1013=
201904032000 METAR LRBM 032000Z 06005KT CAVOK 12/M02 Q1013=
201904032030 METAR LRBM 032030Z 08009KT CAVOK 12/M01 Q1013=
201904032100 METAR LRBM 032100Z 08010KT CAVOK 13/M03 Q1013=
201904032130 METAR LRBM 032130Z AUTO 08010KT 9999 FEW017/// SCT230///
                        13/M04 Q1014=
201904032200 METAR LRBM 032200Z AUTO 08009KT 9999 FEW032/// SCT210///
                        ///// Q1014=
201904032230 METAR LRBM 032230Z AUTO 08009KT 9999 FEW040/// SCT230///
                        12/M05 Q1014=
201904032300 METAR LRBM 032300Z AUTO 08011KT 9999 FEW037/// SCT230///
                        12/M05 Q1014=
201904032330 METAR LRBM 032330Z AUTO 09011KT 9999 FEW055/// SCT240///
                        12/M05 Q1014=
201904040000 METAR LRBM 040000Z AUTO 10010KT 9999 FEW037/// SCT240///
                        11/M05 Q1014=
201904040030 METAR LRBM 040030Z AUTO 09009KT 9999 FEW034/// BKN200///
                        10/M04 Q1014=
201904040100 METAR LRBM 040100Z AUTO 09009KT 9999 FEW048/// SCT220///
                        11/M05 Q1014=
201904040130 METAR LRBM 040130Z AUTO 09009KT 9999 FEW042/// SCT210///
                        10/M05 Q1014=
201904040200 METAR LRBM 040200Z 10008KT CAVOK 10/M05 Q1014=
201904040230 METAR LRBM 040230Z 10009KT CAVOK 10/M06 Q1014=
201904040300 METAR LRBM 040300Z 10008KT CAVOK 09/M04 Q1014=
201904040330 METAR LRBM 040330Z 09009KT 9999 FEW058 10/M05 Q1014=
201904040400 METAR LRBM 040400Z 10009KT CAVOK 10/M06 Q1014=
201904040430 METAR LRBM 040430Z 10008KT CAVOK 09/M05 Q1014=
201904040500 METAR LRBM 040500Z 09005KT CAVOK 08/M04 Q1014=
201904040530 METAR LRBM 040530Z 11006KT CAVOK 10/M05 Q1014=
201904040600 METAR LRBM 040600Z 11006KT CAVOK 11/M05 Q1014=
201904040630 METAR LRBM 040630Z 11006KT CAVOK 11/M06 Q1014=
201904040700 METAR LRBM 040700Z 11006KT 080V150 CAVOK 12/M04 Q1014=
201904040730 METAR LRBM 040730Z 12006KT 090V160 CAVOK 13/M05 Q1014=
201904040800 METAR LRBM 040800Z 13007KT CAVOK 13/M05 Q1014=
201904040830 METAR LRBM 040830Z 15007KT CAVOK 14/M04 Q1014=
201904040900 METAR LRBM 040900Z 16006KT 110V200 CAVOK 14/M05 Q1013=
201904040930 METAR LRBM 040930Z 12006KT 060V150 CAVOK 15/M04 Q1013=
201904041000 METAR LRBM 041000Z 12006KT 090V160 CAVOK 16/M04 Q1013=
201904041030 METAR LRBM 041030Z 09006KT 060V160 CAVOK 16/M04 Q1012=
201904041100 METAR LRBM 041100Z 11005KT 060V170 CAVOK 17/M03 Q1012=
201904041130 METAR LRBM 041130Z 08007KT CAVOK 17/M04 Q1012=
201904041200 METAR LRBM 041200Z 11009KT CAVOK 18/M03 Q1011=
201904041230 METAR LRBM 041230Z 09008KT 070V140 CAVOK 18/M02 Q1011=
201904041300 METAR COR LRBM 041300Z 08008KT 040V110 CAVOK 18/M03 Q1010=
201904041330 METAR LRBM 041330Z 12006KT CAVOK 18/M02 Q1010=
201904041400 METAR LRBM 041400Z 12005KT 090V160 CAVOK 19/M02 Q1010=
201904041430 METAR LRBM 041430Z 13007KT CAVOK 19/M02 Q1009=
201904041500 METAR LRBM 041500Z 12006KT 090V160 CAVOK 19/M01 Q1009=
201904041530 METAR LRBM 041530Z 12005KT 090V150 CAVOK 18/M03 Q1009=
201904041600 METAR LRBM 041600Z 13004KT CAVOK 18/M01 Q1009=
201904041630 METAR LRBM 041630Z 12004KT CAVOK 16/M01 Q1009=
201904041700 METAR LRBM 041700Z 11004KT CAVOK 15/M01 Q1009=
201904041730 METAR LRBM 041730Z 07004KT CAVOK 13/M01 Q1009=
201904041800 METAR LRBM 041800Z 06004KT 030V090 CAVOK 12/M00 Q1009=
201904041830 METAR LRBM 041830Z 05005KT CAVOK 14/M02 Q1009=
201904041900 METAR LRBM 041900Z 05005KT 9999 FEW050 15/M02 Q1009=
201904041930 METAR LRBM 041930Z 04006KT 9999 SCT044 15/M02 Q1009=
201904042000 METAR LRBM 042000Z 05005KT CAVOK 15/M02 Q1009=
201904042030 METAR LRBM 042030Z 05005KT CAVOK 13/M01 Q1009=
201904042100 METAR LRBM 042100Z 06005KT CAVOK 14/01 Q1010=
201904042130 METAR LRBM 042130Z AUTO 07005KT 9999 FEW013/// SCT170///
                        BKN240/// 13/M00 Q1010=
201904042200 METAR LRBM 042200Z AUTO 09008KT 9999 FEW055/// SCT210///
                        13/00 Q1010=
201904042230 METAR LRBM 042230Z AUTO 09007KT 9999 FEW020/// SCT210///
                        12/M00 Q1011=
201904042300 METAR LRBM 042300Z AUTO 08006KT 9999 FEW035/// SCT230///
                        11/M00 Q1011=
201904042330 METAR LRBM 042330Z AUTO 08008KT 9999 FEW050/// 12/M01 Q1011=
201904050000 METAR LRBM 050000Z AUTO 07007KT 9999 FEW044/// SCT230///
                        11/M01 Q1011=
201904050030 METAR LRBM 050030Z AUTO 05005KT 9999 FEW050/// SCT210///
                        10/M01 Q1011=
201904050100 METAR LRBM 050100Z AUTO 06004KT 9999 FEW095/// SCT220///
                        10/M01 Q1011=
201904050130 METAR LRBM 050130Z AUTO 06006KT 9999 FEW070/// SCT220///
                        10/M01 Q1011=
201904050200 METAR LRBM 050200Z 07005KT CAVOK 09/M00 Q1011=
201904050230 METAR LRBM 050230Z 07005KT 9999 FEW060 09/M00 Q1011=
201904050300 METAR LRBM 050300Z 06005KT CAVOK 09/M01 Q1011=
201904050330 METAR LRBM 050330Z 07004KT CAVOK 08/00 Q1011=
201904050400 METAR LRBM 050400Z 06005KT CAVOK 09/M01 Q1011=
201904050430 METAR LRBM 050430Z 06005KT CAVOK 09/M00 Q1011=
201904050500 METAR LRBM 050500Z 07005KT CAVOK 10/M00 Q1011=
201904050530 METAR LRBM 050530Z 08005KT CAVOK 11/M00 Q1011=
201904050600 METAR LRBM 050600Z 10004KT CAVOK 12/01 Q1011=
201904050630 METAR LRBM 050630Z 11005KT 080V140 CAVOK 13/00 Q1011=
201904050700 METAR LRBM 050700Z 10008KT CAVOK 14/M01 Q1011=
201904050730 METAR LRBM 050730Z 11010KT CAVOK 15/M01 Q1011=
201904050800 METAR LRBM 050800Z 12010KT CAVOK 16/M01 Q1011=
201904050830 METAR LRBM 050830Z 12008KT CAVOK 17/M00 Q1010=
201904050900 METAR LRBM 050900Z 12008KT CAVOK 17/00 Q1010=
201904050930 METAR LRBM 050930Z 12010KT CAVOK 18/M00 Q1010=
201904051000 METAR LRBM 051000Z 15007KT CAVOK 19/00 Q1010=
201904051030 METAR LRBM 051030Z 11006KT 090V150 CAVOK 20/M00 Q1009=
201904051100 METAR LRBM 051100Z 10009KT CAVOK 20/M01 Q1009=
201904051130 METAR LRBM 051130Z 14007KT 080V190 CAVOK 21/M00 Q1009=
201904051200 METAR LRBM 051200Z 11007KT CAVOK 21/M01 Q1009=
201904051230 METAR LRBM 051230Z 12009KT 090V160 9999 FEW047 21/M01 Q1008=
201904051300 METAR LRBM 051300Z 10007KT 080V160 9999 FEW047 21/M01 Q1008=
201904051330 METAR LRBM 051330Z 09007KT 9999 FEW047 21/M00 Q1007=
201904051400 METAR LRBM 051400Z 13008KT 090V160 9999 FEW047 21/M02 Q1007=
201904051430 METAR LRBM 051430Z AUTO 14009KT 090V170 9999 FEW012/// SCT220///
                        21/M01 Q1007=
201904051500 METAR LRBM 051500Z AUTO 14009KT 9999 FEW026/// SCT210///
                        21/M02 Q1007=
201904051530 METAR LRBM 051530Z AUTO 12007KT 9999 FEW031/// SCT220///
                        21/M02 Q1006=
201904051600 METAR LRBM 051600Z AUTO 12006KT 9999 FEW016/// SCT220///
                        20/M01 Q1006=
201904051630 METAR LRBM 051630Z AUTO 09006KT 9999 FEW023/// SCT220///
                        18/01 Q1007=
201904051700 METAR LRBM 051700Z AUTO 07005KT 9999 FEW015/// SCT180///
                        17/M00 Q1007=
201904051730 METAR LRBM 051730Z AUTO 07004KT 9999 FEW014/// SCT160///
                        BKN240/// 16/M00 Q1007=
201904051800 METAR LRBM 051800Z AUTO 06004KT 9999 FEW013/// SCT220///
                        16/00 Q1007=
201904051830 METAR LRBM 051830Z AUTO 06005KT 9999 FEW014/// SCT160///
                        15/M00 Q1007=
201904051900 METAR LRBM 051900Z AUTO 10006KT 9999 FEW020/// SCT220///
                        13/01 Q1007=
201904051930 METAR LRBM 051930Z AUTO 06004KT 9999 FEW019/// SCT200///
                        13/00 Q1007=
201904052000 METAR LRBM 052000Z AUTO 06006KT 9999 FEW022/// SCT210///
                        15/M00 Q1008=
201904052030 METAR LRBM 052030Z AUTO 08009KT 9999 FEW017/// SCT220///
                        16/M00 Q1008=
201904052100 METAR LRBM 052100Z AUTO 08008KT 9999 FEW017/// SCT210///
                        14/00 Q1009=
201904052130 METAR LRBM 052130Z AUTO 08007KT 9999 FEW034/// SCT200///
                        15/00 Q1009=
201904052200 METAR LRBM 052200Z AUTO 09010KT 9999 FEW030/// SCT220///
                        14/01 Q1009=
201904052230 METAR LRBM 052230Z AUTO 08009KT 9999 FEW018/// SCT210///
                        15/01 Q1009=
201904052300 METAR LRBM 052300Z AUTO 09006KT 9999 FEW035/// SCT230///
                        14/02 Q1010=
201904052330 METAR LRBM 052330Z AUTO 10008KT 9999 FEW034/// SCT230///
                        14/02 Q1010=
201904060000 METAR LRBM 060000Z AUTO 07006KT 9999 FEW019/// SCT240///
                        14/01 Q1010=
201904060030 METAR LRBM 060030Z AUTO 09008KT 9999 FEW026/// SCT210///
                        13/02 Q1010=
201904060100 METAR LRBM 060100Z AUTO 08005KT 9999 FEW035/// SCT230///
                        12/02 Q1010=
201904060130 METAR LRBM 060130Z AUTO 11003KT 9999 FEW025/// SCT200///
                        11/01 Q1010=
201904060200 METAR LRBM 060200Z AUTO 08004KT 9999 FEW055/// SCT230///
                        10/02 Q1009=
201904060230 METAR LRBM 060230Z AUTO 07005KT 9999 FEW026/// SCT210///
                        10/03 Q1009=
201904060300 METAR LRBM 060300Z AUTO 10005KT 9999 FEW021/// SCT210///
                        12/01 Q1009=
201904060330 METAR LRBM 060330Z AUTO 09005KT 9999 FEW050/// SCT220///
                        11/02 Q1009=
201904060400 METAR LRBM 060400Z AUTO 08007KT 9999 FEW060/// SCT230///
                        12/02 Q1009=
201904060430 METAR LRBM 060430Z AUTO 11006KT 9999 FEW027/// SCT210///
                        12/02 Q1009=
201904060500 METAR LRBM 060500Z AUTO 09005KT 9999 FEW030/// SCT230///
                        11/03 Q1009=
201904060530 METAR LRBM 060530Z AUTO 12006KT 090V150 9999 FEW019/// SCT210///
                        13/01 Q1009=
201904060600 METAR LRBM 060600Z AUTO 11003KT 080V170 9999 FEW015/// SCT230///
                        14/03 Q1009=
201904060630 METAR LRBM 060630Z AUTO 10009KT 9999 FEW020/// SCT200///
                        15/01 Q1009=
201904060700 METAR LRBM 060700Z AUTO 10009KT 9999 FEW055/// BKN190///
                        ///// Q1009=
201904060730 METAR LRBM 060730Z AUTO 10011KT 9999 FEW050/// SCT210///
                        16/02 Q1009=
201904060800 METAR LRBM 060800Z AUTO 10011KT 9999 FEW030/// SCT190///
                        16/02 Q1009=
201904060830 METAR LRBM 060830Z AUTO 12008KT 9999 FEW044/// SCT230///
                        17/02 Q1009=
201904060900 METAR LRBM 060900Z AUTO 09008KT 9999 FEW031/// SCT220///
                        17/02 Q1009=
201904060930 METAR LRBM 060930Z AUTO 10009KT 9999 FEW026/// SCT240///
                        17/01 Q1009=
201904061000 METAR LRBM 061000Z AUTO 10007KT 9999 FEW035/// SCT210///
                        17/01 Q1009=
201904061030 METAR LRBM 061030Z AUTO 11008KT 9999 FEW015/// SCT190///
                        18/01 Q1009=
201904061100 METAR LRBM 061100Z AUTO 10004KT 040V160 9999 FEW018/// SCT240///
                        19/01 Q1009=
201904061130 METAR LRBM 061130Z AUTO 07004KT 350V160 9999 FEW016/// SCT210///
                        20/01 Q1009=
201904061200 METAR LRBM 061200Z AUTO 18008KT 9999 FEW021/// BKN180///
                        20/01 Q1008=
201904061230 METAR LRBM 061230Z AUTO VRB04KT 9999 FEW012/// SCT170///
                        20/01 Q1008=
201904061300 METAR LRBM 061300Z AUTO 24008KT 200V290 9999 FEW010/// SCT180///
                        BKN240/// 20/01 Q1007=
201904061330 METAR LRBM 061330Z AUTO 28013KT 9999 FEW015/// SCT140///
                        BKN240/// 19/04 Q1007=
201904061400 METAR LRBM 061400Z AUTO 28012KT 9999 FEW009/// SCT085///
                        BKN240/// 18/04 Q1007=
201904061430 METAR LRBM 061430Z AUTO 28014KT 9999 FEW013/// SCT180///
                        BKN240/// 16/05 Q1007=
201904061500 METAR LRBM 061500Z AUTO 28013KT 9999 FEW016/// SCT210///
                        16/05 Q1007=
201904061530 METAR LRBM 061530Z AUTO 27013KT 9999 FEW014/// SCT220///
                        16/05 Q1007=
201904061600 METAR LRBM 061600Z AUTO 28011KT 9999 FEW014/// BKN200///
                        15/05 Q1007=
201904061630 METAR LRBM 061630Z AUTO 27012KT 9999 FEW015/// SCT200///
                        15/05 Q1007=
201904061700 METAR LRBM 061700Z AUTO 28009KT 9999 FEW029/// SCT190///
                        15/04 Q1007=
201904061730 METAR LRBM 061730Z AUTO 28009KT 9999 FEW023/// SCT220///
                        14/05 Q1007=
201904061800 METAR LRBM 061800Z AUTO 27010KT 9999 FEW026/// SCT240///
                        13/06 Q1008=
201904061830 METAR LRBM 061830Z AUTO 28011KT 9999 FEW028/// SCT200///
                        13/07 Q1008=
201904061900 METAR LRBM 061900Z AUTO 28012KT 9999 FEW016/// BKN190///
                        12/07 Q1008=
201904061930 METAR LRBM 061930Z AUTO 28010KT 9999 FEW032/// SCT230///
                        12/08 Q1009=
201904062000 METAR LRBM 062000Z AUTO 29006KT 9999 FEW028/// SCT220///
                        12/06 Q1009=
201904062030 METAR LRBM 062030Z AUTO 32002KT 290V350 9999 FEW034/// SCT240///
                        12/06 Q1009=
201904062100 METAR LRBM 062100Z AUTO 31003KT 9999 FEW036/// SCT220///
                        13/06 Q1009=
201904062130 METAR LRBM 062130Z AUTO 09008KT 9999 FEW025/// SCT200///
                        11/08 Q1009=
201904062200 METAR LRBM 062200Z AUTO 08004KT 050V110 9999 FEW018/// SCT190///
                        11/08 Q1009=
201904062230 METAR LRBM 062230Z AUTO 10005KT 9999 FEW017/// SCT190///
                        ///// Q1009=
201904062300 METAR LRBM 062300Z AUTO 08005KT 9999 FEW019/// SCT190///
                        11/07 Q1009=
201904062330 METAR LRBM 062330Z AUTO 10006KT 9999 FEW016/// SCT230///
                        11/07 Q1009=
201904070000 METAR LRBM 070000Z AUTO 09006KT 9999 FEW035/// SCT230///
                        10/07 Q1009=
201904070030 METAR LRBM 070030Z AUTO 09006KT 9999 FEW024/// SCT180///
                        10/07 Q1009=
201904070100 METAR LRBM 070100Z AUTO 09004KT 9999 FEW085/// SCT230///
                        10/07 Q1009=
201904070130 METAR LRBM 070130Z AUTO 05003KT 9999 FEW019/// SCT200///
                        10/06 Q1009=
201904070200 METAR LRBM 070200Z AUTO 06002KT 9999 FEW017/// SCT210///
                        08/06 Q1009=
201904070230 METAR LRBM 070230Z AUTO 09002KT 9999 FEW042/// SCT230///
                        08/05 Q1009=
201904070300 METAR LRBM 070300Z AUTO 07003KT 9999 FEW049/// SCT210///
                        07/05 Q1009=
201904070330 METAR LRBM 070330Z AUTO 03003KT 9999 FEW065/// SCT240///
                        06/04 Q1009=
201904070400 METAR LRBM 070400Z AUTO 03003KT 360V060 9999 FEW034/// SCT200///
                        07/03 Q1009=
201904070430 METAR LRBM 070430Z AUTO 06003KT 030V090 9999 FEW031/// SCT230///
                        07/03 Q1009=
201904070500 METAR LRBM 070500Z AUTO 04002KT 010V090 9999 FEW065/// SCT230///
                        09/03 Q1009=
201904070530 METAR LRBM 070530Z AUTO 04002KT 9999 FEW025/// SCT220///
                        10/03 Q1010=
201904070600 METAR LRBM 070600Z AUTO 07004KT 9999 FEW044/// SCT240///
                        12/03 Q1010=
201904070630 METAR LRBM 070630Z AUTO 08003KT 040V100 9999 FEW024/// SCT200///
                        13/02 Q1010=
201904070700 METAR LRBM 070700Z AUTO 10005KT 070V130 9999 FEW022/// SCT200///
                        15/02 Q1009=
201904070730 METAR LRBM 070730Z AUTO 12005KT 060V150 9999 FEW017/// SCT230///
                        15/01 Q1009=
201904070800 METAR LRBM 070800Z AUTO 10004KT 060V150 9999 FEW020/// SCT190///
                        17/01 Q1009=
201904070830 METAR LRBM 070830Z AUTO 15005KT 110V180 9999 FEW017/// BKN190///
                        17/01 Q1009=
201904070900 METAR LRBM 070900Z AUTO 15004KT 090V260 9999 FEW013/// SCT190///
                        18/02 Q1009=
201904070930 METAR LRBM 070930Z AUTO 15004KT 090V200 9999 FEW010/// SCT170///
                        BKN240/// 18/01 Q1009=
201904071000 METAR LRBM 071000Z AUTO 21004KT 160V280 9999 FEW013/// SCT180///
                        BKN240/// 19/02 Q1009=
201904071030 METAR LRBM 071030Z AUTO 26004KT 230V300 9999 FEW013/// SCT190///
                        19/02 Q1009=
201904071100 METAR LRBM 071100Z AUTO 25003KT 140V310 9999 FEW032/// SCT230///
                        20/02 Q1009=
201904071130 METAR LRBM 071130Z AUTO 36005KT 300V090 9999 FEW015/// SCT220///
                        20/02 Q1008=
201904071200 METAR LRBM 071200Z AUTO 02003KT 9999 FEW015/// SCT210///
                        20/02 Q1008=
201904071230 METAR LRBM 071230Z AUTO 26004KT 190V310 9999 FEW010/// SCT170///
                        BKN240/// 21/02 Q1008=
201904071300 METAR LRBM 071300Z AUTO 23004KT 150V300 9999 FEW012/// SCT160///
                        BKN240/// 21/02 Q1007=
201904071330 METAR LRBM 071330Z AUTO VRB02KT 9999 FEW010/// SCT180///
                        22/01 Q1007=
201904071400 METAR LRBM 071400Z AUTO 26004KT 230V290 9999 FEW017/// SCT170///
                        21/01 Q1007=
201904071430 METAR LRBM 071430Z AUTO 28002KT 230V310 9999 FEW011/// SCT160///
                        BKN240/// 21/02 Q1007=
201904071500 METAR LRBM 071500Z AUTO 05003KT 340V130 9999 FEW016/// SCT160///
                        BKN240/// 22/01 Q1006=
201904071530 METAR LRBM 071530Z AUTO 03002KT 320V100 9999 FEW014/// SCT190///
                        22/01 Q1006=
201904071600 METAR LRBM 071600Z AUTO 00000KT 9999 FEW021/// SCT180///
                        22/02 Q1006=
201904071630 METAR LRBM 071630Z AUTO VRB01KT 9999 FEW024/// SCT230///
                        21/01 Q1006=
201904071700 METAR LRBM 071700Z 30002KT CAVOK 19/02 Q1006=
201904071730 METAR LRBM 071730Z 33003KT CAVOK 17/03 Q1006=
201904071800 METAR LRBM 071800Z 02004KT CAVOK 16/03 Q1006=
201904071830 METAR LRBM 071830Z 33004KT 290V010 CAVOK 15/04 Q1006=
201904071900 METAR LRBM 071900Z 01003KT CAVOK 14/04 Q1006=
201904071930 METAR LRBM 071930Z 05002KT CAVOK 13/04 Q1007=
201904072000 METAR LRBM 072000Z 06005KT CAVOK 14/04 Q1007=
201904072030 METAR LRBM 072030Z 05005KT CAVOK 13/03 Q1007=
201904072100 METAR LRBM 072100Z 05005KT CAVOK 14/03 Q1007=
201904072130 METAR LRBM 072130Z AUTO 05006KT 9999 FEW023/// SCT230///
                        15/03 Q1007=
201904072200 METAR LRBM 072200Z AUTO 05006KT 9999 FEW095/// SCT230///
                        15/03 Q1007=
201904072230 METAR LRBM 072230Z AUTO 05005KT 9999 FEW022/// SCT220///
                        14/03 Q1007=
201904072300 METAR LRBM 072300Z AUTO 06004KT 9999 FEW018/// SCT095///
                        BKN230/// 12/04 Q1007=
201904072330 METAR LRBM 072330Z AUTO 08005KT 9999 FEW016/// SCT210///
                        10/04 Q1008=
201904080000 METAR LRBM 080000Z AUTO 06004KT 9999 FEW100/// SCT230///
                        11/04 Q1007=
201904080030 METAR LRBM 080030Z AUTO 06005KT 9999 FEW080/// SCT210///
                        11/04 Q1007=
201904080100 METAR LRBM 080100Z AUTO 05005KT 9999 FEW036/// SCT200///
                        11/04 Q1007=
201904080130 METAR LRBM 080130Z AUTO VRB01KT 9999 FEW037/// SCT230///
                        10/03 Q1007=
201904080200 METAR LRBM 080200Z 35001KT CAVOK 10/03 Q1006=
201904080230 METAR COR LRBM 080230Z 00000KT CAVOK 09/03 Q1006=
201904080300 METAR LRBM 080300Z 11003KT 070V160 CAVOK 09/03 Q1006=
201904080330 METAR LRBM 080330Z VRB01KT CAVOK 09/03 Q1006=
201904080400 METAR LRBM 080400Z 30002KT 260V350 CAVOK 07/03 Q1006=
201904080430 METAR LRBM 080430Z 00000KT CAVOK 07/03 Q1006=
201904080500 METAR LRBM 080500Z 00000KT CAVOK 07/04 Q1006=
201904080530 METAR LRBM 080530Z 00000KT CAVOK 10/05 Q1006=
201904080600 METAR LRBM 080600Z 24004KT CAVOK 10/05 Q1006=
201904080630 METAR LRBM 080630Z 00000KT CAVOK 11/05 Q1006=
201904080700 METAR LRBM 080700Z VRB02KT CAVOK 13/05 Q1006=
201904080730 METAR LRBM 080730Z 20003KT 160V240 CAVOK 14/05 Q1006=
201904080800 METAR LRBM 080800Z 21003KT 150V310 CAVOK 15/05 Q1006=
201904080830 METAR LRBM 080830Z 23003KT CAVOK 16/05 Q1005=
201904080900 METAR LRBM 080900Z VRB02KT CAVOK 18/05 Q1005=
201904080930 METAR LRBM 080930Z 21002KT 140V250 CAVOK 19/03 Q1005=
201904081000 METAR LRBM 081000Z 16005KT 9999 FEW045 19/03 Q1004=
201904081030 METAR LRBM 081030Z 15004KT 100V210 9999 FEW047 20/03 Q1004=
201904081100 METAR LRBM 081100Z 11004KT 060V160 9999 FEW047 21/03 Q1004=
201904081130 METAR LRBM 081130Z 07003KT 020V110 9999 FEW048 21/03 Q1004=
201904081200 METAR LRBM 081200Z VRB01KT 9999 FEW050 21/03 Q1004=
201904081230 METAR LRBM 081230Z 11008KT 080V140 9999 FEW050TCU 20/04 Q1003=
201904081300 METAR LRBM 081300Z 11002KT 9999 FEW050TCU 21/03 Q1003=
201904081330 METAR LRBM 081330Z 11006KT 070V170 9999 FEW053 21/03 Q1003=
201904081400 METAR LRBM 081400Z 08005KT 050V110 9999 FEW053 21/03 Q1003=
201904081430 METAR LRBM 081430Z 11007KT 050V140 9999 FEW055 21/03 Q1003=
201904081500 METAR LRBM 081500Z 06007KT 9999 FEW055 20/03 Q1003=
201904081530 METAR LRBM 081530Z 08006KT CAVOK 20/04 Q1003=
201904081600 METAR LRBM 081600Z 03003KT 350V090 CAVOK 20/03 Q1003=
201904081630 METAR LRBM 081630Z 17003KT 130V200 CAVOK 19/05 Q1003=
201904081700 METAR LRBM 081700Z VRB01KT CAVOK 17/06 Q1003=
201904081730 METAR LRBM 081730Z 07002KT CAVOK 16/06 Q1003=
201904081800 METAR LRBM 081800Z 06002KT CAVOK 15/07 Q1003=
201904081830 METAR LRBM 081830Z 03003KT CAVOK 15/06 Q1003=
201904081900 METAR LRBM 081900Z 06004KT CAVOK 16/06 Q1003=
201904081930 METAR LRBM 081930Z 08004KT CAVOK 14/06 Q1003=
201904082000 METAR LRBM 082000Z 07004KT CAVOK 15/06 Q1004=
201904082030 METAR LRBM 082030Z 07005KT CAVOK 16/06 Q1004=
201904082100 METAR LRBM 082100Z 05004KT CAVOK 15/06 Q1004=
201904082130 METAR LRBM 082130Z AUTO 06004KT 9999 FEW040/// SCT230///
                        13/07 Q1004=
201904082200 METAR LRBM 082200Z AUTO VRB01KT 9999 FEW013/// SCT230///
                        14/06 Q1004=
201904082230 METAR LRBM 082230Z AUTO 08005KT 9999 FEW028/// SCT220///
                        13/06 Q1004=
201904082300 METAR LRBM 082300Z AUTO 08005KT 9999 FEW050/// SCT220///
                        12/06 Q1004=
201904082330 METAR LRBM 082330Z AUTO 06002KT 9999 FEW090/// SCT240///
                        11/06 Q1004=
201904090000 METAR LRBM 090000Z AUTO 10006KT 9999 FEW033/// SCT220///
                        12/06 Q1004=
201904090030 METAR LRBM 090030Z AUTO 06003KT 030V090 9999 FEW031/// SCT240///
                        10/06 Q1004=
201904090100 METAR LRBM 090100Z AUTO 04002KT 9999 FEW065/// SCT220///
                        11/06 Q1004=
201904090130 METAR LRBM 090130Z AUTO 03002KT 9999 FEW080/// SCT230///
                        10/06 Q1004=
201904090200 METAR LRBM 090200Z 02002KT CAVOK 11/06 Q1004=
201904090230 METAR LRBM 090230Z 06001KT CAVOK 10/06 Q1004=
201904090300 METAR LRBM 090300Z 08005KT 050V110 CAVOK 09/06 Q1004=
201904090330 METAR LRBM 090330Z 08003KT CAVOK 10/06 Q1004=
201904090400 METAR LRBM 090400Z 08003KT CAVOK 10/06 Q1004=
201904090430 METAR LRBM 090430Z 10003KT CAVOK 10/06 Q1004=
201904090500 METAR LRBM 090500Z 00000KT CAVOK 11/07 Q1004=
201904090530 METAR LRBM 090530Z 10003KT CAVOK 13/08 Q1005=
201904090600 METAR LRBM 090600Z VRB01KT CAVOK 13/08 Q1005=
201904090630 METAR LRBM 090630Z 21003KT CAVOK 12/07 Q1005=
201904090700 METAR LRBM 090700Z 19002KT CAVOK 14/08 Q1005=
201904090730 METAR LRBM 090730Z 28002KT CAVOK 16/07 Q1004=
201904090800 METAR LRBM 090800Z 11003KT 9999 FEW045 17/07 Q1004=
201904090830 METAR LRBM 090830Z 14003KT 9999 FEW045 18/07 Q1004=
201904090900 METAR LRBM 090900Z 13003KT 9999 FEW040 18/07 Q1004=
201904090930 METAR LRBM 090930Z VRB01KT 9999 FEW040 19/06 Q1004=
201904091000 METAR LRBM 091000Z VRB02KT 9999 FEW042 20/06 Q1004=
201904091030 METAR LRBM 091030Z VRB02KT 9999 FEW042 20/06 Q1003=
201904091100 METAR LRBM 091100Z 16004KT 110V240 9999 FEW044CB 21/06 Q1003=
201904091130 METAR LRBM 091130Z 24004KT 150V300 9999 FEW044CB SCT047 21/05
                        Q1003=
201904091200 METAR LRBM 091200Z VRB03KT 9999 FEW042CB SCT047 22/07 Q1003=
201904091230 METAR LRBM 091230Z 01006KT 340V050 9999 SCT042CB SCT047 20/09
                        Q1003=
201904091300 METAR LRBM 091300Z 34005KT 300V020 9999 SCT042CB 21/07 Q1003=
201904091330 METAR LRBM 091330Z 29006KT 260V320 9999 FEW044CB 22/06 Q1003=
201904091400 METAR LRBM 091400Z 30004KT 220V020 9999 SCT046CB 22/05 Q1003=
201904091430 METAR LRBM 091430Z 11008KT 080V140 9999 SCT046CB SCT048 21/07
                        Q1003=
201904091500 METAR LRBM 091500Z 05009KT 020V080 9999 -SHRA SCT044CB 18/10
                        Q1003=
201904091530 METAR LRBM 091530Z 03005KT 350V060 9999 SCT046CB 17/11 Q1003=
201904091600 METAR LRBM 091600Z 36004KT 330V040 9999 FEW046CB 17/12 Q1003=
201904091630 METAR LRBM 091630Z 04006KT 9999 FEW046CB 17/11 Q1003=
201904091700 METAR LRBM 091700Z VRB02KT 9999 FEW053 16/12 Q1003=
201904091730 METAR LRBM 091730Z 03003KT 9999 FEW055 15/11 Q1004=
201904091800 METAR LRBM 091800Z 04003KT 340V070 9999 FEW050 15/10 Q1004=
201904091830 METAR LRBM 091830Z VRB02KT 9999 FEW050 15/09 Q1004=
201904091900 METAR LRBM 091900Z 35001KT 9999 FEW050 14/09 Q1004=
201904091930 METAR LRBM 091930Z 10004KT 9999 FEW050 12/09 Q1005=
201904092000 METAR LRBM 092000Z 07005KT 9999 FEW050 13/08 Q1005=
201904092030 METAR LRBM 092030Z 07004KT 030V090 CAVOK 12/08 Q1005=
201904092100 METAR LRBM 092100Z 06004KT CAVOK 13/08 Q1005=
201904092130 METAR LRBM 092130Z AUTO 07003KT 040V100 9999 FEW060/// SCT230///
                        12/08 Q1005=
201904092200 METAR LRBM 092200Z AUTO 03003KT 010V080 9999 FEW026/// SCT230///
                        12/08 Q1005=
201904092230 METAR LRBM 092230Z AUTO 01002KT 9999 FEW065/// SCT230///
                        12/08 Q1005=
201904092300 METAR LRBM 092300Z AUTO 03001KT 9999 FEW065/// SCT240///
                        ///// Q1005=
201904092330 METAR LRBM 092330Z AUTO VRB01KT 9999 FEW130/// SCT240///
                        12/07 Q1005=
201904100000 METAR LRBM 100000Z AUTO 00000KT 9999 FEW110/// SCT210///
                        12/07 Q1005=
201904100030 METAR LRBM 100030Z AUTO 00000KT 9999 FEW065/// SCT240///
                        11/07 Q1005=
201904100100 METAR LRBM 100100Z AUTO 08005KT 9999 FEW080/// SCT200///
                        12/08 Q1006=
201904100130 METAR LRBM 100130Z AUTO 08005KT 050V120 9999 FEW080/// SCT220///
                        13/07 Q1006=
201904100200 METAR LRBM 100200Z 05003KT 9999 FEW040 13/08 Q1006=
201904100230 METAR LRBM 100230Z 07004KT 040V110 9999 FEW035 12/08 Q1006=
201904100300 METAR LRBM 100300Z 07005KT 9999 FEW033 12/08 Q1006=
201904100330 METAR LRBM 100330Z 07004KT 9999 FEW033 12/09 Q1006=
201904100400 METAR LRBM 100400Z 00000KT 9999 FEW033 FEW035TCU 12/09 Q1006=
201904100430 METAR LRBM 100430Z 05003KT 9999 -SHRA FEW033 FEW035CB 12/09
                        Q1006 R09/19//9=
201904100500 METAR LRBM 100500Z 07002KT 9999 -SHRA FEW033 FEW037CB 11/10
                        Q1007 R09/29//9=
201904100530 METAR COR LRBM 100530Z 02004KT 360V060 9999 -RA FEW010 SCT030
                        12/10 Q1007 R09/29//95=
201904100600 METAR LRBM 100600Z VRB02KT 9999 -RA FEW012 BKN032 12/10 Q1007
                        R09/29//95=
201904100630 METAR LRBM 100630Z VRB01KT 9999 -RA SCT035 12/11 Q1007 R09/29//95=
201904100700 METAR LRBM 100700Z 25003KT 110V280 9999 SCT037 12/11 Q1007
                        R09/29//95=
201904100730 METAR LRBM 100730Z 31004KT 9999 SCT040 13/10 Q1007 R09/29//95=
201904100800 METAR LRBM 100800Z 29003KT 250V320 9999 SCT040 13/11 Q1007
                        R09/29//95=
201904100830 METAR LRBM 100830Z 25003KT 230V290 9999 FEW042 14/10 Q1007
                        R09/29//95=
201904100900 METAR LRBM 100900Z 27005KT 9999 FEW043 15/10 Q1007 R09/29//95=
201904100930 METAR LRBM 100930Z 26005KT 9999 FEW045 15/11 Q1007 R09/19//95=
201904101000 METAR LRBM 101000Z 27006KT 9999 FEW045 16/11 Q1007 R09/19//95=
201904101030 METAR LRBM 101030Z 27006KT 9999 FEW045 16/12 Q1007 R09/19//95=
201904101100 METAR LRBM 101100Z 27006KT 9999 FEW045 18/11 Q1006 R09/19//95=
201904101130 METAR LRBM 101130Z 26005KT 220V280 9999 FEW045 20/07 Q1006
                        R09/CLRD//=
201904101200 METAR LRBM 101200Z 26004KT 160V330 9999 FEW050 21/07 Q1006=
201904101230 METAR LRBM 101230Z 18003KT 120V240 9999 FEW050 22/05 Q1005=
201904101300 METAR LRBM 101300Z VRB04KT 9999 SCT050 22/06 Q1005=
201904101330 METAR LRBM 101330Z 21006KT 190V250 9999 SCT045 22/05 Q1005=
201904101400 METAR LRBM 101400Z 08004KT 050V110 9999 SCT045 21/06 Q1005=
201904101430 METAR LRBM 101430Z 02004KT 350V060 9999 SCT045 20/07 Q1006=
201904101500 METAR LRBM 101500Z 34007KT 9999 VCSH FEW047CB SCT050 17/10
                        Q1006=
201904101530 METAR LRBM 101530Z 01006KT 9999 VCSH FEW050CB SCT055 16/11
                        Q1006=
201904101600 METAR LRBM 101600Z 35007KT 9999 SCT055 16/11 Q1006=
201904101630 METAR LRBM 101630Z 35005KT 320V030 9999 SCT055 16/10 Q1006=
201904101700 METAR LRBM 101700Z 36004KT 330V030 9999 BKN050 17/09 Q1005=
201904101730 METAR LRBM 101730Z 34002KT 9999 SCT050 16/09 Q1006=
201904101800 METAR LRBM 101800Z 06004KT 9999 SCT055 16/08 Q1006=
201904101830 METAR LRBM 101830Z 01003KT 9999 SCT055 14/09 Q1007=
201904101900 METAR LRBM 101900Z 07005KT CAVOK 14/08 Q1007=
201904101930 METAR LRBM 101930Z 07005KT CAVOK 15/08 Q1007=
201904102000 METAR LRBM 102000Z 06005KT 020V080 CAVOK 15/07 Q1007=
201904102030 METAR LRBM 102030Z 06004KT 020V090 CAVOK 16/07 Q1007=
201904102100 METAR LRBM 102100Z 05007KT CAVOK 16/06 Q1007=
201904102130 METAR LRBM 102130Z AUTO 02002KT 250V060 9999 FEW017/// SCT170///
                        BKN240/// 14/07 Q1008=
201904102200 METAR LRBM 102200Z AUTO 23001KT 9999 NCD 12/07 Q1008=
201904102230 METAR LRBM 102230Z AUTO 05003KT 9999 NCD 13/07 Q1008=
201904102300 METAR LRBM 102300Z AUTO 00000KT 9999 NCD 11/07 Q1008=
201904102330 METAR LRBM 102330Z AUTO 05005KT 020V080 9999 NCD 14/06 Q1007=
201904110000 METAR LRBM 110000Z AUTO 09003KT 9999 NCD 12/06 Q1007=
201904110030 METAR LRBM 110030Z AUTO 07003KT 9999 NCD 13/06 Q1007=
201904110100 METAR LRBM 110100Z AUTO 06002KT 030V100 9999 FEW018/// SCT200///
                        12/07 Q1007=
201904110130 METAR LRBM 110130Z AUTO 07002KT 030V100 9999 FEW024/// SCT190///
                        11/07 Q1007=
201904110200 METAR LRBM 110200Z 08005KT CAVOK 11/07 Q1007=
201904110230 METAR LRBM 110230Z 08004KT CAVOK 10/07 Q1007=
201904110300 METAR LRBM 110300Z 24002KT 200V270 CAVOK 10/07 Q1007=
201904110330 METAR LRBM 110330Z VRB01KT CAVOK 09/06 Q1007=
201904110400 METAR LRBM 110400Z 00000KT CAVOK 08/07 Q1007=
201904110430 METAR LRBM 110430Z 00000KT CAVOK 08/06 Q1007=
201904110500 METAR LRBM 110500Z 02002KT 330V080 CAVOK 09/07 Q1007=
201904110530 METAR LRBM 110530Z 24002KT CAVOK 11/08 Q1007=
201904110600 METAR LRBM 110600Z 25003KT 220V280 CAVOK 11/08 Q1008=
201904110630 METAR LRBM 110630Z 27006KT CAVOK 12/08 Q1008=
201904110700 METAR LRBM 110700Z 26006KT CAVOK 12/08 Q1008=
201904110730 METAR LRBM 110730Z 28007KT 260V320 CAVOK 13/08 Q1008=
201904110800 METAR LRBM 110800Z 27006KT CAVOK 14/09 Q1008=
201904110830 METAR LRBM 110830Z 26004KT CAVOK 16/09 Q1008=
201904110900 METAR LRBM 110900Z 26005KT CAVOK 17/08 Q1008=
201904110930 METAR LRBM 110930Z 24003KT 210V280 CAVOK 17/08 Q1007=
201904111000 METAR LRBM 111000Z VRB01KT CAVOK 18/08 Q1007=
201904111030 METAR LRBM 111030Z 08005KT 030V110 9999 FEW030 19/07 Q1007=
201904111100 METAR LRBM 111100Z 08012KT 9999 FEW030 FEW033TCU 19/06 Q1007=
201904111130 METAR LRBM 111130Z 06009KT 030V090 9999 FEW032 FEW035TCU
                        19/06 Q1007=
201904111200 METAR LRBM 111200Z 09009KT 050V110 9999 SCT035 19/07 Q1007=
201904111230 METAR LRBM 111230Z 08010KT 050V110 9999 SCT035 19/05 Q1007=
201904111300 METAR LRBM 111300Z 08011KT 9999 SCT037 19/06 Q1007=
201904111330 METAR LRBM 111330Z 05008KT 9999 SCT037 19/06 Q1007=
201904111400 METAR LRBM 111400Z 08012KT 9999 SCT038 19/06 Q1007=
201904111430 METAR COR LRBM 111430Z 08012KT 9999 SCT040 19/06 Q1008=
201904111500 METAR LRBM 111500Z 10014KT 9999 FEW038 FEW040TCU 16/07 Q1008=
201904111530 METAR LRBM 111530Z 10011KT 9999 FEW038 FEW040CB 16/07 Q1008=
201904111600 METAR LRBM 111600Z 10010KT 9999 -SHRA FEW035 FEW038CB 14/09
                        Q1008 R09/19//95=
201904111630 METAR LRBM 111630Z 10009KT 9999 -SHRA BKN032 SCT035CB 13/09
                        Q1009 R09/29//95=
201904111700 METAR LRBM 111700Z 09007KT 9999 -SHRA SCT033 SCT037CB 13/09
                        Q1009 R09/29//95=
201904111730 METAR LRBM 111730Z 08007KT 9999 -SHRA SCT030 FEW033CB 13/08
                        Q1009 R09/29//95=
201904111800 METAR LRBM 111800Z 05004KT 010V080 9999 SCT032 FEW036CB 13/08
                        Q1010 R09/29//95=
201904111830 METAR LRBM 111830Z 03005KT 9999 FEW032 FEW036CB 13/06 Q1010
                        R09/29//95=
201904111900 METAR LRBM 111900Z 02006KT 350V060 9999 SCT035 13/05 Q1010
                        R09/29//95=
201904111930 METAR LRBM 111930Z 02003KT 330V070 9999 SCT035 12/04 Q1010
                        R09/29//95=
201904112000 METAR LRBM 112000Z 11003KT 030V200 9999 FEW040 12/04 Q1010
                        R09/29//95=
201904112030 METAR LRBM 112030Z VRB01KT 9999 -SHRA FEW040 FEW043CB 11/06
                        Q1010 R09/29//95=
201904112100 METAR LRBM 112100Z VRB01KT 9999 -SHRA FEW040 FEW043CB 11/07
                        Q1010 R09/29//95=
201904112130 METAR LRBM 112130Z AUTO VRB01KT 9999 FEW023/// SCT120///
                        12/05 Q1010 RERA=
201904112200 METAR LRBM 112200Z AUTO 04002KT 020V090 9999 FEW050/// SCT180///
                        12/04 Q1010=
201904112230 METAR LRBM 112230Z AUTO 04003KT 360V080 9999 -SHRA FEW017///
                        SCT180/// 12/03 Q1010=
201904112300 METAR LRBM 112300Z AUTO 07002KT 360V130 9999 FEW018/// SCT160///
                        BKN240/// 11/04 Q1010=
201904112330 METAR LRBM 112330Z AUTO 05003KT 010V080 9999 -SHRA FEW013///
                        SCT050/// BKN170/// 11/04 Q1010=
201904120000 METAR LRBM 120000Z AUTO 03003KT 350V070 9999 -RA FEW012///
                        SCT065/// BKN230/// 11/04 Q1011=
201904120030 METAR LRBM 120030Z AUTO VRB01KT 9999 FEW019/// SCT190///
                        11/04 Q1011 RERA=
201904120100 METAR LRBM 120100Z AUTO VRB01KT 9999 FEW041/// SCT110///
                        BKN240/// 11/04 Q1011=
201904120130 METAR LRBM 120130Z AUTO 26003KT 9999 FEW043/// SCT180///
                        10/07 Q1011=
201904120200 METAR LRBM 120200Z 26002KT 9999 BKN047 10/07 Q1011 R09/19//95=
201904120230 METAR LRBM 120230Z 26001KT 9999 BKN044 09/07 Q1011 R09/19//95=
201904120300 METAR LRBM 120300Z 21001KT 9999 BKN041 09/07 Q1011 R09/19//95=
201904120330 METAR LRBM 120330Z 00000KT 9999 BKN040 09/07 Q1011 R09/19//95=
201904120400 METAR LRBM 120400Z 08003KT 040V100 9999 SCT042 BKN050 10/07
                        Q1011 R09/19//95=
201904120430 METAR LRBM 120430Z 08004KT 050V110 9999 SCT042 BKN050 11/06
                        Q1011 R09/19//95=
201904120500 METAR LRBM 120500Z 09003KT 9999 FEW042 BKN050 11/06 Q1011
                        R09/19//95=
201904120530 METAR LRBM 120530Z 28003KT 260V350 9999 FEW042CB BKN045 10/07
                        Q1012 R09/19//95=
201904120600 METAR LRBM 120600Z 25003KT 9999 VCSH FEW040CB BKN043 10/07
                        Q1012 R09/19//95=
201904120630 METAR LRBM 120630Z 26001KT 9999 -RA SCT036 BKN045 10/07 Q1012
                        R09/19//95=
201904120700 METAR LRBM 120700Z 24002KT 9999 -RA FEW036 BKN047 10/08 Q1012
                        R09/19//95=
201904120730 METAR LRBM 120730Z 27003KT 9999 -RA FEW042 BKN050 10/08 Q1013
                        R09/19//95=
201904120800 METAR LRBM 120800Z VRB02KT 9999 BKN050 11/07 Q1013 R09/19//95=
201904120830 METAR LRBM 120830Z 20003KT 160V250 9999 -RA BKN053 12/07
                        Q1013 R09/19//95=
201904120900 METAR LRBM 120900Z VRB02KT 9999 FEW033 SCT055 13/07 Q1013
                        R09/19//95=
201904120930 METAR LRBM 120930Z VRB04KT 9999 FEW030 15/04 Q1012 R09/19//95=
201904121000 METAR LRBM 121000Z 09009KT 9999 FEW030 SCT048 15/04 Q1012
                        R09/19//95=
201904121030 METAR LRBM 121030Z 10007KT 9999 FEW032 BKN046 15/04 Q1012
                        R09/19//95=
201904121100 METAR LRBM 121100Z 15006KT 9999 FEW036 BKN050 15/05 Q1012
                        R09/19//95=
201904121130 METAR LRBM 121130Z 16004KT 090V200 9999 FEW040 BKN053 15/06
                        Q1012 R09/19//95=
201904121200 METAR LRBM 121200Z 03003KT 320V110 9999 FEW042 SCT059 16/04
                        Q1011 R09/CLRD//=
201904121230 METAR LRBM 121230Z 09003KT 340V140 9999 FEW044 16/03 Q1011=
201904121300 METAR LRBM 121300Z 13003KT 060V190 9999 SCT044 16/04 Q1011=
201904121330 METAR LRBM 121330Z 11005KT 080V140 9999 FEW046 16/04 Q1011=
201904121400 METAR LRBM 121400Z 03004KT 350V070 9999 FEW046 SCT052 16/04
                        Q1011=
201904121430 METAR LRBM 121430Z AUTO 04003KT 350V080 9999 FEW023/// SCT200///
                        16/04 Q1011=
201904121500 METAR LRBM 121500Z AUTO 05003KT 010V080 9999 FEW014/// SCT180///
                        16/04 Q1011=
201904121530 METAR LRBM 121530Z AUTO 01004KT 340V060 9999 FEW021/// SCT210///
                        15/03 Q1010=
201904121600 METAR LRBM 121600Z AUTO 02003KT 330V050 9999 FEW014/// SCT210///
                        15/03 Q1010=
201904121630 METAR LRBM 121630Z AUTO 03004KT 340V070 9999 FEW014/// SCT190///
                        14/03 Q1010=
201904121700 METAR LRBM 121700Z AUTO 01004KT 340V050 9999 FEW022/// SCT210///
                        14/02 Q1011=
201904121730 METAR LRBM 121730Z AUTO 04004KT 360V070 9999 FEW034/// SCT240///
                        14/02 Q1011=
201904121800 METAR LRBM 121800Z AUTO 04005KT 360V060 9999 FEW033/// SCT220///
                        14/03 Q1011=
201904121830 METAR LRBM 121830Z AUTO 04006KT 010V070 9999 FEW043/// SCT220///
                        13/03 Q1012=
201904121900 METAR LRBM 121900Z AUTO 06005KT 020V090 9999 FEW049/// SCT220///
                        13/03 Q1012=
201904121930 METAR LRBM 121930Z AUTO 06005KT 9999 FEW013/// SCT230///
                        13/03 Q1012=
201904122000 METAR LRBM 122000Z AUTO 09003KT 040V130 9999 FEW035/// SCT150///
                        BKN240/// 13/03 Q1013=
201904122030 METAR LRBM 122030Z AUTO 08004KT 050V110 9999 FEW013/// SCT130///
                        12/04 Q1013=
201904122100 METAR LRBM 122100Z AUTO 07004KT 9999 FEW029/// SCT050///
                        BKN230/// 12/03 Q1013=
201904122130 METAR LRBM 122130Z AUTO 10006KT 9999 SCT049/// BKN240///
                        12/03 Q1013=
201904122200 METAR LRBM 122200Z AUTO 08005KT 9999 FEW014/// SCT055///
                        BKN180/// 12/03 Q1013=
201904122230 METAR LRBM 122230Z AUTO 07004KT 020V090 9999 FEW055/// SCT230///
                        11/02 Q1013=
201904122300 METAR LRBM 122300Z AUTO 07004KT 9999 FEW044/// SCT240///
                        11/02 Q1013=
201904122330 METAR LRBM 122330Z AUTO 08005KT 9999 FEW019/// SCT210///
                        11/02 Q1013=
201904130000 METAR LRBM 130000Z AUTO 07004KT 9999 FEW037/// SCT220///
                        11/03 Q1013=
201904130030 METAR LRBM 130030Z AUTO VRB01KT 9999 FEW028/// SCT230///
                        10/04 Q1013=
201904130100 METAR LRBM 130100Z AUTO VRB01KT 9999 FEW085/// SCT230///
                        09/04 Q1014=
201904130130 METAR LRBM 130130Z AUTO 00000KT 9999 FEW021/// SCT170///
                        09/04 Q1014=
201904130200 METAR LRBM 130200Z AUTO 01002KT 9999 FEW050/// SCT190///
                        09/04 Q1014=
201904130230 METAR LRBM 130230Z AUTO 00000KT 9999 FEW015/// SCT200///
                        08/04 Q1014=
201904130300 METAR LRBM 130300Z AUTO 06002KT 320V100 9999 FEW039/// SCT210///
                        08/04 Q1014=
201904130330 METAR LRBM 130330Z AUTO 35001KT 9999 FEW046/// SCT220///
                        08/04 Q1014=
201904130400 METAR LRBM 130400Z AUTO 07001KT 9999 FEW022/// SCT230///
                        08/04 Q1014=
201904130430 METAR LRBM 130430Z AUTO 00000KT 9999 FEW050/// SCT180///
                        08/04 Q1014=
201904130500 METAR LRBM 130500Z AUTO VRB02KT 9999 FEW050/// SCT230///
                        08/05 Q1014=
201904130530 METAR LRBM 130530Z AUTO 26003KT 9999 FEW022/// SCT230///
                        09/06 Q1014=
201904130600 METAR LRBM 130600Z AUTO 25003KT 9999 FEW037/// SCT075///
                        BKN240/// 09/07 Q1014=
201904130630 METAR LRBM 130630Z AUTO 27003KT 9999 FEW047/// SCT150///
                        BKN240/// 10/06 Q1014=
201904130700 METAR LRBM 130700Z AUTO 24003KT 200V270 9999 FEW015/// SCT220///
                        11/06 Q1014=
201904130730 METAR LRBM 130730Z AUTO 25002KT 170V340 9999 FEW013/// SCT190///
                        12/04 Q1014=
201904130800 METAR LRBM 130800Z AUTO 22003KT 180V260 9999 FEW038/// SCT210///
                        13/05 Q1014=
201904130830 METAR LRBM 130830Z AUTO 24004KT 190V310 9999 FEW055/// SCT240///
                        14/04 Q1014=
201904130900 METAR LRBM 130900Z AUTO 28003KT 240V020 9999 FEW014/// SCT200///
                        15/04 Q1014=
201904130930 METAR LRBM 130930Z AUTO 25004KT 190V300 9999 FEW025/// SCT230///
                        16/03 Q1014=
201904131000 METAR LRBM 131000Z AUTO 28007KT 240V310 9999 FEW013/// SCT170///
                        BKN240/// 16/04 Q1014=
201904131030 METAR LRBM 131030Z AUTO 30005KT 240V360 9999 FEW036/// BKN190///
                        16/03 Q1013=
201904131100 METAR LRBM 131100Z AUTO 25008KT 9999 FEW016/// SCT200///
                        16/02 Q1013=
201904131130 METAR LRBM 131130Z AUTO 26007KT 210V310 9999 FEW032/// SCT210///
                        16/02 Q1013=
201904131200 METAR LRBM 131200Z AUTO 26007KT 240V300 9999 FEW018/// SCT200///
                        17/03 Q1013=
201904131230 METAR LRBM 131230Z AUTO 29008KT 250V320 9999 FEW013/// SCT180///
                        BKN240/// 17/03 Q1013=
201904131300 METAR LRBM 131300Z AUTO 28007KT 230V320 9999 FEW013/// SCT170///
                        17/03 Q1013=
201904131330 METAR LRBM 131330Z AUTO 28007KT 250V310 9999 FEW015/// SCT190///
                        17/03 Q1013=
201904131400 METAR LRBM 131400Z AUTO 28007KT 9999 FEW017/// SCT210///
                        17/03 Q1013=
201904131430 METAR LRBM 131430Z AUTO 28006KT 9999 FEW016/// SCT200///
                        17/02 Q1012=
201904131500 METAR LRBM 131500Z AUTO 28006KT 240V300 9999 FEW021/// SCT220///
                        17/02 Q1012=
201904131530 METAR LRBM 131530Z AUTO 26006KT 9999 FEW015/// SCT190///
                        17/02 Q1012=
201904131600 METAR LRBM 131600Z AUTO 28005KT 9999 FEW014/// SCT220///
                        17/02 Q1012=
201904131630 METAR LRBM 131630Z AUTO 30003KT 260V050 9999 FEW023/// SCT200///
                        17/03 Q1012=
201904131700 METAR LRBM 131700Z AUTO 02006KT 340V070 9999 FEW018/// SCT200///
                        16/02 Q1012=
201904131730 METAR LRBM 131730Z AUTO 03008KT 360V070 9999 FEW029/// SCT190///
                        15/02 Q1013=
201904131800 METAR LRBM 131800Z AUTO 06004KT 350V110 9999 FEW039/// SCT210///
                        14/02 Q1013=
201904131830 METAR LRBM 131830Z AUTO 02005KT 330V050 9999 FEW032/// SCT180///
                        BKN240/// 13/02 Q1014=
201904131900 METAR LRBM 131900Z AUTO VRB03KT 9999 FEW027/// SCT200///
                        13/02 Q1014=
201904131930 METAR LRBM 131930Z AUTO 30004KT 9999 FEW065/// SCT230///
                        12/07 Q1015=
201904132000 METAR LRBM 132000Z AUTO 06002KT 020V090 9999 FEW060/// SCT170///
                        BKN240/// 12/03 Q1015=
201904132030 METAR LRBM 132030Z AUTO 07004KT 9999 FEW031/// SCT220///
                        12/02 Q1015=
201904132100 METAR LRBM 132100Z AUTO 05004KT 9999 FEW050/// SCT190///
                        11/02 Q1015=
201904132130 METAR LRBM 132130Z AUTO 05003KT 9999 FEW039/// SCT240///
                        10/02 Q1015=
201904132200 METAR LRBM 132200Z AUTO 05004KT 9999 FEW100/// SCT230///
                        10/02 Q1015=
201904132230 METAR LRBM 132230Z AUTO 06004KT 9999 FEW034/// SCT240///
                        10/03 Q1015=
201904132300 METAR LRBM 132300Z AUTO 05004KT 9999 FEW095/// SCT210///
                        10/02 Q1015=
201904132330 METAR LRBM 132330Z AUTO 08002KT 050V110 9999 FEW110/// SCT230///
                        09/03 Q1015=
201904140000 METAR LRBM 140000Z AUTO 06002KT 9999 FEW048/// SCT200///
                        10/02 Q1015=
201904140030 METAR LRBM 140030Z AUTO 00000KT 9999 FEW046/// SCT200///
                        09/03 Q1015=
201904140100 METAR LRBM 140100Z AUTO 35002KT 9999 SCT047/// BKN190///
                        09/03 Q1015=
201904140130 METAR LRBM 140130Z AUTO VRB01KT 9999 SCT049/// BKN150///
                        08/04 Q1015=
201904140200 METAR LRBM 140200Z AUTO 04002KT 360V100 9999 FEW042/// SCT180///
                        BKN240/// 07/03 Q1015=
201904140230 METAR LRBM 140230Z AUTO 07003KT 030V090 9999 FEW049/// SCT160///
                        BKN240/// 06/02 Q1015=
201904140300 METAR LRBM 140300Z AUTO 07002KT 9999 FEW090/// SCT240///
                        05/02 Q1015=
201904140330 METAR LRBM 140330Z AUTO 08004KT 9999 FEW050/// SCT230///
                        ///// Q1015=
201904140400 METAR LRBM 140400Z AUTO 06004KT 9999 FEW090/// SCT240///
                        05/01 Q1015=
201904140430 METAR LRBM 140430Z AUTO 05003KT 030V100 9999 FEW075/// SCT210///
                        06/02 Q1015=
201904140500 METAR LRBM 140500Z AUTO 05003KT 020V080 9999 FEW085/// SCT200///
                        07/03 Q1015=
201904140530 METAR LRBM 140530Z AUTO 05003KT 9999 FEW085/// SCT230///
                        09/02 Q1015=
201904140600 METAR LRBM 140600Z AUTO 05003KT 020V080 9999 FEW085/// SCT240///
                        11/M00 Q1015=
201904140630 METAR LRBM 140630Z AUTO 06003KT 360V110 9999 FEW060/// SCT220///
                        12/M01 Q1015=
201904140700 METAR LRBM 140700Z AUTO 01007KT 340V060 9999 FEW085/// SCT230///
                        12/M01 Q1015=
201904140730 METAR LRBM 140730Z AUTO 08005KT 020V120 9999 FEW075/// SCT240///
                        13/M00 Q1015=
201904140800 METAR LRBM 140800Z AUTO 05007KT 020V090 9999 FEW060/// SCT210///
                        13/M01 Q1015=
201904140830 METAR LRBM 140830Z AUTO 06008KT 020V090 9999 FEW027/// BKN200///
                        14/M00 Q1015=
201904140900 METAR LRBM 140900Z AUTO 07009KT 010V090 9999 FEW060/// SCT190///
                        15/M00 Q1015=
201904140930 METAR LRBM 140930Z AUTO 07010KT 9999 FEW023/// SCT200///
                        15/M02 Q1015=
201904141000 METAR LRBM 141000Z AUTO 06010KT 9999 FEW039/// SCT170///
                        14/M02 Q1015=
201904141030 METAR LRBM 141030Z AUTO 09010KT 050V110 9999 FEW014/// SCT200///
                        15/M01 Q1015=
201904141100 METAR LRBM 141100Z AUTO 08010KT 030V100 9999 FEW015/// SCT180///
                        15/M02 Q1015=
201904141130 METAR LRBM 141130Z AUTO 08009KT 9999 FEW050/// SCT230///
                        16/M03 Q1015=
201904141200 METAR LRBM 141200Z AUTO 07010KT 9999 FEW025/// SCT210///
                        15/M05 Q1015=
201904141230 METAR LRBM 141230Z AUTO 08010KT 9999 FEW032/// SCT200///
                        14/M04 Q1015=
201904141300 METAR LRBM 141300Z AUTO 07010KT 9999 FEW014/// SCT200///
                        14/M05 Q1015=
201904141330 METAR LRBM 141330Z AUTO 08009KT 9999 FEW017/// SCT220///
                        14/M04 Q1015=
201904141400 METAR LRBM 141400Z AUTO 09010KT 9999 FEW026/// SCT230///
                        13/M03 Q1015=
201904141430 METAR LRBM 141430Z AUTO 08012KT 9999 FEW032/// SCT190///
                        13/M03 Q1015=
201904141500 METAR LRBM 141500Z AUTO 08011KT 9999 FEW075/// SCT220///
                        13/M04 Q1015=
201904141530 METAR LRBM 141530Z AUTO 09011KT 9999 FEW040/// SCT220///
                        13/M03 Q1015=
201904141600 METAR LRBM 141600Z AUTO 09010KT 9999 FEW043/// SCT230///
                        13/M02 Q1015=
201904141630 METAR LRBM 141630Z AUTO 08009KT 9999 FEW095/// SCT230///
                        13/M03 Q1015=
201904141700 METAR LRBM 141700Z 08010KT CAVOK 13/M03 Q1015=
201904141730 METAR LRBM 141730Z 08009KT 9999 FEW058 12/M02 Q1016=
201904141800 METAR LRBM 141800Z 08008KT 9999 FEW058 12/M02 Q1016=
201904141830 METAR LRBM 141830Z 08009KT CAVOK 12/M03 Q1016=
201904141900 METAR LRBM 141900Z 08010KT CAVOK 11/M03 Q1017=
201904141930 METAR LRBM 141930Z 08010KT CAVOK 11/M02 Q1017=
201904142000 METAR LRBM 142000Z 08008KT CAVOK 11/M03 Q1017=
201904142030 METAR LRBM 142030Z 07008KT CAVOK 10/M03 Q1017=
201904142100 METAR LRBM 142100Z 06005KT 030V090 CAVOK 10/M03 Q1017=
201904142130 METAR LRBM 142130Z AUTO 04004KT 9999 FEW120/// SCT220///
                        10/M03 Q1018=
201904142200 METAR LRBM 142200Z AUTO 04005KT 9999 FEW120/// SCT230///
                        09/M03 Q1018=
201904142230 METAR LRBM 142230Z AUTO 04003KT 9999 FEW080/// SCT240///
                        08/M01 Q1018=
201904142300 METAR LRBM 142300Z AUTO 05004KT 9999 FEW075/// SCT220///
                        08/M02 Q1018=
201904142330 METAR LRBM 142330Z AUTO 01002KT 340V040 9999 FEW070/// SCT220///
                        07/M01 Q1018=
201904150000 METAR LRBM 150000Z AUTO 06002KT 350V100 9999 FEW085/// SCT220///
                        06/M01 Q1018=
201904150030 METAR LRBM 150030Z AUTO 08003KT 9999 FEW090/// SCT240///
                        06/00 Q1018=
201904150100 METAR LRBM 150100Z AUTO 01003KT 9999 FEW120/// SCT230///
                        06/M00 Q1018=
201904150130 METAR LRBM 150130Z AUTO 03002KT 360V080 9999 FEW110/// SCT220///
                        05/M00 Q1018=
201904150200 METAR LRBM 150200Z 05002KT CAVOK 05/M00 Q1018=
201904150230 METAR LRBM 150230Z 03002KT CAVOK 04/M00 Q1018=
201904150300 METAR LRBM 150300Z 05002KT CAVOK 04/M01 Q1018=
201904150330 METAR LRBM 150330Z 03002KT CAVOK 04/M01 Q1018=
201904150400 METAR LRBM 150400Z 06002KT CAVOK 03/M01 Q1018=
201904150430 METAR LRBM 150430Z 06002KT CAVOK 04/M01 Q1019=
201904150500 METAR LRBM 150500Z VRB01KT CAVOK 07/M01 Q1019=
201904150530 METAR LRBM 150530Z 19001KT CAVOK 07/M00 Q1019=
201904150600 METAR LRBM 150600Z 09002KT CAVOK 10/M01 Q1019=
201904150630 METAR LRBM 150630Z 01002KT CAVOK 11/M04 Q1019=
201904150700 METAR LRBM 150700Z 09005KT 050V130 CAVOK 12/M05 Q1019=
201904150730 METAR LRBM 150730Z 09005KT 050V120 CAVOK 12/M05 Q1019=
201904150800 METAR LRBM 150800Z VRB04KT CAVOK 13/M05 Q1019=
201904150830 METAR COR LRBM 150830Z 12006KT 060V160 CAVOK 13/M05 Q1019=
201904150900 METAR LRBM 150900Z 11007KT 080V150 CAVOK 13/M06 Q1019=
201904150930 METAR LRBM 150930Z 15007KT 120V180 CAVOK 14/M06 Q1018=
201904151000 METAR LRBM 151000Z 05008KT 010V080 CAVOK 15/M07 Q1018=
201904151030 METAR LRBM 151030Z 27008KT CAVOK 15/M04 Q1018=
201904151100 METAR LRBM 151100Z 33007KT 300V360 9999 FEW037 15/M06 Q1018=
201904151130 METAR LRBM 151130Z 25007KT 220V280 9999 FEW037 16/M05 Q1018=
201904151200 METAR LRBM 151200Z 31006KT 270V340 9999 FEW037 15/M06 Q1017=
201904151230 METAR LRBM 151230Z 23006KT 200V260 9999 FEW037 16/M07 Q1017=
201904151300 METAR LRBM 151300Z 25008KT 9999 FEW042 16/M07 Q1017=
201904151330 METAR LRBM 151330Z 17005KT 140V200 9999 FEW045 16/M07 Q1017=
201904151400 METAR LRBM 151400Z 23006KT 190V250 9999 FEW050 17/M08 Q1017=
201904151430 METAR COR LRBM 151430Z VRB03KT CAVOK 17/M07 Q1016=
201904151500 METAR COR LRBM 151500Z 03005KT 340V080 CAVOK 16/M07 Q1017=
201904151530 METAR LRBM 151530Z 04006KT 350V070 CAVOK 16/M06 Q1017=
201904151600 METAR LRBM 151600Z 02008KT 330V060 CAVOK 15/M06 Q1017=
201904151630 METAR LRBM 151630Z 02006KT 350V060 CAVOK 15/M05 Q1017=
201904151700 METAR LRBM 151700Z 03005KT 360V070 CAVOK 13/M05 Q1017=
201904151730 METAR LRBM 151730Z 04007KT 010V080 CAVOK 12/M08 Q1017=
201904151800 METAR LRBM 151800Z 04007KT 360V070 CAVOK 12/M08 Q1018=
201904151830 METAR LRBM 151830Z 04006KT CAVOK 11/M08 Q1018=
201904151900 METAR LRBM 151900Z 05006KT 020V080 CAVOK 11/M08 Q1018=
201904151930 METAR LRBM 151930Z 05006KT 010V070 CAVOK 10/M07 Q1019=
201904152000 METAR LRBM 152000Z 05006KT CAVOK 10/M07 Q1019=
201904152030 METAR LRBM 152030Z AUTO 05003KT 010V080 9999 FEW095/// SCT240///
                        08/M06 Q1019=
201904152100 METAR LRBM 152100Z AUTO VRB01KT 9999 FEW025/// SCT210///
                        06/M06 Q1019=
201904152130 METAR LRBM 152130Z AUTO VRB01KT 9999 FEW022/// SCT220///
                        06/M05 Q1020=
201904152200 METAR LRBM 152200Z AUTO 06002KT 9999 FEW041/// SCT210///
                        04/M04 Q1020=
201904152230 METAR LRBM 152230Z AUTO 04003KT 9999 FEW085/// SCT210///
                        03/M03 Q1020=
201904152300 METAR LRBM 152300Z AUTO 06002KT 9999 FEW080/// SCT210///
                        03/M04 Q1020=
201904152330 METAR LRBM 152330Z AUTO 19003KT 150V210 9999 FEW100/// SCT220///
                        03/M04 Q1020=
201904160000 METAR LRBM 160000Z AUTO 00000KT 9999 FEW070/// SCT210///
                        02/M04 Q1020=
201904160030 METAR LRBM 160030Z AUTO 07002KT 020V110 9999 FEW075/// SCT240///
                        01/M04 Q1020=
201904160100 METAR LRBM 160100Z AUTO 08003KT 9999 FEW033/// SCT240///
                        01/M03 Q1020=
201904160130 METAR LRBM 160130Z AUTO 07003KT 9999 FEW080/// SCT240///
                        01/M04 Q1020=
201904160200 METAR LRBM 160200Z 08001KT CAVOK 00/M04 Q1020=
201904160230 METAR LRBM 160230Z 00000KT CAVOK M01/M04 Q1020=
201904160300 METAR LRBM 160300Z 01002KT CAVOK M00/M04 Q1020=
201904160330 METAR LRBM 160330Z 10003KT CAVOK M01/M05 Q1020=
201904160400 METAR LRBM 160400Z VRB01KT CAVOK M00/M04 Q1020=
201904160430 METAR LRBM 160430Z 27002KT CAVOK M01/M03 Q1021=
201904160500 METAR LRBM 160500Z 00000KT CAVOK 01/M03 Q1021=
201904160530 METAR LRBM 160530Z 25003KT 190V270 CAVOK 02/M02 Q1021=
201904160600 METAR LRBM 160600Z VRB02KT CAVOK 03/M02 Q1020=
201904160630 METAR LRBM 160630Z VRB02KT CAVOK 05/M02 Q1020=
201904160700 METAR LRBM 160700Z 23003KT 150V300 CAVOK 07/M03 Q1020=
201904160730 METAR LRBM 160730Z 26005KT CAVOK 09/M02 Q1020=
201904160800 METAR LRBM 160800Z 26006KT CAVOK 09/M04 Q1020=
201904160830 METAR LRBM 160830Z 26008KT 220V290 CAVOK 11/M06 Q1019=
201904160900 METAR LRBM 160900Z 25007KT 220V280 CAVOK 11/M06 Q1019=
201904160930 METAR LRBM 160930Z 26007KT 230V310 CAVOK 13/M07 Q1019=
201904161000 METAR LRBM 161000Z 27013KT CAVOK 14/M07 Q1018=
201904161030 METAR LRBM 161030Z 28013KT CAVOK 14/M08 Q1018=
201904161100 METAR LRBM 161100Z 31010KT CAVOK 14/M08 Q1018=
201904161130 METAR LRBM 161130Z 32009KT 290V360 CAVOK 14/M08 Q1017=
201904161200 METAR LRBM 161200Z 28009KT 270V330 CAVOK 15/M07 Q1017=
201904161230 METAR LRBM 161230Z 29012G22KT 250V320 CAVOK 15/M08 Q1017=
201904161300 METAR LRBM 161300Z 27013KT 250V320 CAVOK 15/M08 Q1016=
201904161330 METAR LRBM 161330Z 26013KT CAVOK 15/M10 Q1016=
201904161400 METAR LRBM 161400Z 28012KT 260V320 CAVOK 15/M09 Q1016=
201904161430 METAR LRBM 161430Z 27011KT 9999 FEW060 16/M09 Q1016=
201904161500 METAR LRBM 161500Z 27010KT 9999 SCT060 15/M09 Q1016=
201904161530 METAR LRBM 161530Z 27011KT 9999 SCT060 15/M10 Q1016=
201904161600 METAR LRBM 161600Z 29008KT 260V320 9999 SCT055 15/M09 Q1016=
201904161630 METAR LRBM 161630Z 30005KT 280V340 9999 FEW036 SCT055 14/M08
                        Q1016=
201904161700 METAR LRBM 161700Z 35012G22KT 320V030 9999 SCT055 13/M03
                        Q1016=
201904161730 METAR LRBM 161730Z 36011KT 9999 SCT046 11/00 Q1017=
201904161800 METAR LRBM 161800Z 36011KT 320V030 9999 SCT040 10/01 Q1017=
201904161830 METAR LRBM 161830Z 02007KT 350V050 9999 -RA FEW007 SCT040
                        09/03 Q1018=
201904161900 METAR LRBM 161900Z VRB03KT 9999 FEW006 BKN047 09/02 Q1018
                        R09/19//95=
201904161930 METAR LRBM 161930Z 29005KT 260V330 9999 FEW046 08/02 Q1018
                        R09/19//95=
201904162000 METAR LRBM 162000Z 28007KT CAVOK 07/02 Q1018 R09/CLRD//=
201904162030 METAR LRBM 162030Z AUTO 30007KT 9999 FEW070/// SCT200///
                        07/02 Q1018=
201904162100 METAR LRBM 162100Z AUTO 27009KT 9999 FEW110/// SCT230///
                        06/02 Q1018=
201904162130 METAR LRBM 162130Z AUTO 28006KT 9999 FEW075/// SCT220///
                        05/02 Q1018=
201904162200 METAR LRBM 162200Z AUTO 33003KT 300V020 9999 FEW090/// SCT240///
                        06/02 Q1018=
201904162230 METAR LRBM 162230Z AUTO 28004KT 9999 FEW100/// SCT210///
                        05/02 Q1018=
201904162300 METAR LRBM 162300Z AUTO 28002KT 9999 FEW060/// SCT240///
                        05/02 Q1018=
201904162330 METAR LRBM 162330Z AUTO 28004KT 9999 FEW065/// SCT200///
                        05/02 Q1017=
201904170000 METAR LRBM 170000Z AUTO 29003KT 9999 FEW080/// SCT230///
                        04/02 Q1018=
201904170030 METAR LRBM 170030Z AUTO VRB02KT 9999 FEW060/// SCT200///
                        04/02 Q1018=
201904170100 METAR LRBM 170100Z AUTO VRB01KT 9999 FEW100/// SCT230///
                        04/01 Q1018=
201904170130 METAR LRBM 170130Z AUTO 30002KT 270V340 9999 FEW014/// SCT230///
                        03/01 Q1017=
201904170200 METAR LRBM 170200Z 00000KT CAVOK 03/01 Q1018=
201904170230 METAR LRBM 170230Z 30002KT CAVOK 04/01 Q1017=
201904170300 METAR LRBM 170300Z 30003KT 260V340 CAVOK 04/01 Q1017=
201904170330 METAR LRBM 170330Z 26002KT CAVOK 04/01 Q1018=
201904170400 METAR LRBM 170400Z 25002KT 9999 -RA FEW040 04/02 Q1018=
201904170430 METAR LRBM 170430Z 23003KT 9999 -RA FEW038 04/02 Q1018=
201904170500 METAR LRBM 170500Z 26004KT 9999 -RA FEW040 04/02 Q1018=
201904170530 METAR LRBM 170530Z 26002KT 9999 FEW045 04/02 Q1018=
201904170600 METAR LRBM 170600Z 22002KT 9999 FEW045 05/02 Q1018=
201904170630 METAR LRBM 170630Z 27003KT 9999 FEW040 05/02 Q1019=
201904170700 METAR LRBM 170700Z 22003KT 190V260 9999 FEW035 05/02 Q1019=
201904170730 METAR LRBM 170730Z 27005KT 200V320 9999 FEW037 07/03 Q1019=
201904170800 METAR LRBM 170800Z 26004KT 180V350 9999 FEW040 08/04 Q1019=
201904170830 METAR LRBM 170830Z 27005KT 230V320 9999 FEW040 08/04 Q1019=
201904170900 METAR LRBM 170900Z 28007KT 260V330 9999 FEW040 10/04 Q1019=
201904170930 METAR LRBM 170930Z 27007KT 240V300 9999 FEW040 12/06 Q1019=
201904171000 METAR LRBM 171000Z 30006KT 260V330 9999 SCT040 13/04 Q1019=
201904171030 METAR LRBM 171030Z 25006KT 9999 BKN040 13/04 Q1019=
201904171100 METAR LRBM 171100Z 29004KT 230V330 9999 SCT042 14/04 Q1019=
201904171130 METAR LRBM 171130Z 25005KT 200V300 9999 BKN042 15/04 Q1018=
201904171200 METAR LRBM 171200Z VRB04KT 9999 FEW036 BKN042 15/02 Q1019=
201904171230 METAR LRBM 171230Z 08003KT 040V110 9999 FEW038 BKN044 15/02
                        Q1019=
201904171300 METAR LRBM 171300Z 10006KT 020V110 9999 BKN044 15/03 Q1019=
201904171330 METAR LRBM 171330Z 10006KT 060V120 9999 BKN044 BKN057 15/04
                        Q1019=
201904171400 METAR LRBM 171400Z 12006KT 080V140 9999 BKN047 15/04 Q1019=
201904171430 METAR LRBM 171430Z 14006KT 9999 BKN047 15/03 Q1019=
201904171500 METAR LRBM 171500Z 12005KT 060V160 9999 BKN047 15/03 Q1020=
201904171530 METAR LRBM 171530Z 05006KT 360V070 9999 BKN047 15/02 Q1020=
201904171600 METAR LRBM 171600Z 08009KT 9999 SCT047 SCT055 14/03 Q1020=
201904171630 METAR LRBM 171630Z 06007KT 9999 FEW047 BKN057 14/03 Q1021=
201904171700 METAR LRBM 171700Z 07011KT 9999 FEW045 BKN055 13/03 Q1021=
201904171730 METAR LRBM 171730Z 03004KT 340V080 9999 FEW049 SCT060 13/03
                        Q1021=
201904171800 METAR LRBM 171800Z 05005KT 020V080 9999 FEW052 12/03 Q1022=
201904171830 METAR LRBM 171830Z 05005KT 360V080 9999 FEW052 12/03 Q1022=
201904171900 METAR LRBM 171900Z 06006KT 9999 SCT050 12/03 Q1023=
201904171930 METAR LRBM 171930Z 06004KT 9999 BKN053 12/03 Q1023=
201904172000 METAR LRBM 172000Z VRB02KT 9999 FEW055 10/03 Q1023=
201904172030 METAR LRBM 172030Z 04005KT 9999 FEW058 10/03 Q1023=
201904172100 METAR LRBM 172100Z VRB01KT CAVOK 09/03 Q1024=
201904172130 METAR LRBM 172130Z AUTO 03002KT 340V110 9999 FEW047/// SCT230///
                        07/03 Q1024=
201904172200 METAR LRBM 172200Z AUTO VRB01KT 9999 FEW015/// SCT240///
                        07/03 Q1024=
201904172230 METAR LRBM 172230Z AUTO 06005KT 9999 FEW070/// SCT240///
                        07/03 Q1024=
201904172300 METAR LRBM 172300Z AUTO 03004KT 9999 FEW035/// SCT240///
                        06/03 Q1024=
201904172330 METAR LRBM 172330Z AUTO 03002KT 350V050 9999 FEW060/// SCT210///
                        06/03 Q1025=
201904180000 METAR LRBM 180000Z AUTO VRB02KT 9999 FEW050/// SCT240///
                        07/03 Q1025=
201904180030 METAR LRBM 180030Z AUTO VRB01KT 9999 FEW065/// SCT220///
                        06/03 Q1025=
201904180100 METAR LRBM 180100Z AUTO VRB01KT 9999 FEW060/// SCT210///
                        06/04 Q1025=
201904180130 METAR LRBM 180130Z AUTO VRB02KT 9999 FEW055/// SCT240///
                        05/03 Q1025=
201904180200 METAR LRBM 180200Z 16001KT CAVOK 05/02 Q1025=
201904180230 METAR LRBM 180230Z 11003KT 040V170 CAVOK 04/03 Q1025=
201904180300 METAR LRBM 180300Z 27001KT CAVOK 04/02 Q1025=
201904180330 METAR LRBM 180330Z VRB01KT CAVOK 03/02 Q1026=
201904180400 METAR LRBM 180400Z 08002KT CAVOK 03/02 Q1026=
201904180430 METAR LRBM 180430Z 31002KT CAVOK 04/03 Q1026=
201904180500 METAR LRBM 180500Z 25001KT CAVOK 05/03 Q1026=
201904180530 METAR LRBM 180530Z 00000KT CAVOK 08/04 Q1026=
201904180600 METAR LRBM 180600Z 16001KT CAVOK 07/04 Q1027=
201904180630 METAR LRBM 180630Z VRB01KT CAVOK 10/04 Q1027=
201904180700 METAR LRBM 180700Z 22003KT 150V270 9999 FEW033 12/04 Q1027=
201904180730 METAR LRBM 180730Z 27004KT 230V310 9999 FEW034 12/04 Q1027=
201904180800 METAR LRBM 180800Z 25005KT 220V280 9999 FEW035 14/04 Q1027=
201904180830 METAR LRBM 180830Z 24004KT 210V290 9999 FEW037 15/04 Q1027=
201904180900 METAR LRBM 180900Z 29004KT 240V320 9999 FEW038 16/05 Q1027=
201904180930 METAR LRBM 180930Z 02008KT 330V060 9999 FEW038 17/03 Q1027=
201904181000 METAR LRBM 181000Z 04007KT 010V070 9999 FEW040 17/02 Q1027=
201904181030 METAR LRBM 181030Z 08010KT 040V120 9999 SCT042 18/02 Q1027=
201904181100 METAR LRBM 181100Z 04007KT 330V100 9999 BKN042 18/02 Q1027=
201904181130 METAR LRBM 181130Z 06008KT 9999 BKN042 17/01 Q1027=
201904181200 METAR LRBM 181200Z 07007KT 9999 BKN042 17/01 Q1027=
201904181230 METAR LRBM 181230Z 08008KT 9999 BKN045 17/02 Q1027=
201904181300 METAR LRBM 181300Z 07008KT 9999 BKN048 16/02 Q1027=
201904181330 METAR LRBM 181330Z 08010KT 9999 SCT050 17/01 Q1027=
201904181400 METAR LRBM 181400Z 10007KT 9999 SCT050 17/01 Q1027=
201904181430 METAR LRBM 181430Z 11007KT 9999 SCT050 18/00 Q1027=
201904181500 METAR LRBM 181500Z 06003KT 020V170 9999 BKN052 17/00 Q1027=
201904181530 METAR LRBM 181530Z 05005KT 010V080 9999 FEW055 16/M00 Q1027=
201904181600 METAR LRBM 181600Z 08004KT CAVOK 16/00 Q1027=
201904181630 METAR LRBM 181630Z 05003KT 010V080 CAVOK 16/M00 Q1027=
201904181700 METAR LRBM 181700Z 05002KT CAVOK 15/M00 Q1027=
201904181730 METAR LRBM 181730Z 02003KT CAVOK 12/01 Q1027=
201904181800 METAR LRBM 181800Z 03003KT CAVOK 11/01 Q1028=
201904181830 METAR LRBM 181830Z 03004KT CAVOK 11/01 Q1028=
201904181900 METAR LRBM 181900Z 36003KT CAVOK 10/01 Q1028=
201904181930 METAR LRBM 181930Z 01003KT CAVOK 10/01 Q1028=
201904182000 METAR LRBM 182000Z 36004KT 330V040 CAVOK 09/01 Q1028=
201904182030 METAR LRBM 182030Z VRB01KT CAVOK 08/01 Q1028=
201904182100 METAR LRBM 182100Z VRB02KT CAVOK 08/01 Q1028=
201904182130 METAR LRBM 182130Z AUTO 09003KT 050V120 9999 FEW085/// SCT210///
                        06/01 Q1028=
201904182200 METAR LRBM 182200Z AUTO 26003KT 240V300 9999 FEW033/// SCT240///
                        ///// Q1028=
201904182230 METAR LRBM 182230Z AUTO VRB01KT 9999 FEW023/// SCT230///
                        06/01 Q1028=
201904182300 METAR LRBM 182300Z AUTO 00000KT 9999 FEW035/// SCT220///
                        05/01 Q1028=
201904182330 METAR LRBM 182330Z AUTO 00000KT 9999 FEW070/// SCT240///
                        04/01 Q1028=
201904190000 METAR LRBM 190000Z AUTO 00000KT 9999 FEW022/// SCT190///
                        03/01 Q1028=
201904190030 METAR LRBM 190030Z AUTO VRB01KT 9999 FEW080/// SCT240///
                        03/01 Q1028=
201904190100 METAR LRBM 190100Z AUTO 08004KT 9999 FEW022/// SCT180///
                        03/01 Q1028=
201904190130 METAR LRBM 190130Z AUTO VRB01KT 9999 FEW075/// SCT230///
                        03/00 Q1027=
201904190200 METAR LRBM 190200Z 00000KT CAVOK 03/01 Q1027=
201904190230 METAR LRBM 190230Z 08003KT CAVOK 03/01 Q1027=
201904190300 METAR LRBM 190300Z 08002KT CAVOK 03/01 Q1027=
201904190330 METAR LRBM 190330Z 08002KT CAVOK 02/00 Q1027=
201904190400 METAR LRBM 190400Z VRB01KT CAVOK 02/00 Q1027=
201904190430 METAR LRBM 190430Z VRB02KT CAVOK 03/02 Q1027=
201904190500 METAR LRBM 190500Z 09003KT 050V110 CAVOK 04/02 Q1027=
201904190530 METAR LRBM 190530Z 00000KT CAVOK 06/02 Q1027=
201904190600 METAR LRBM 190600Z 18003KT 150V210 CAVOK 07/02 Q1027=
201904190630 METAR LRBM 190630Z 24003KT 170V330 CAVOK 08/02 Q1026=
201904190700 METAR LRBM 190700Z 26006KT CAVOK 09/03 Q1026=
201904190730 METAR LRBM 190730Z 26006KT CAVOK 11/04 Q1026=
201904190800 METAR LRBM 190800Z 27012KT CAVOK 14/04 Q1025=
201904190830 METAR LRBM 190830Z 28015KT CAVOK 15/03 Q1025=
201904190900 METAR LRBM 190900Z 28013KT 260V320 CAVOK 17/00 Q1025=
201904190930 METAR LRBM 190930Z 34006KT 290V020 CAVOK 18/M00 Q1025=
201904191000 METAR LRBM 191000Z 04010KT CAVOK 19/M08 Q1025=
201904191030 METAR LRBM 191030Z 36007KT 310V060 CAVOK 19/M07 Q1025=
201904191100 METAR LRBM 191100Z 06008KT 360V090 CAVOK 20/M10 Q1025=
201904191130 METAR LRBM 191130Z 06004KT 010V110 CAVOK 19/M11 Q1025=
201904191200 METAR LRBM 191200Z 02008KT 340V050 CAVOK 20/M09 Q1025=
201904191230 METAR LRBM 191230Z 05007KT 310V110 CAVOK 20/M08 Q1025=
201904191300 METAR LRBM 191300Z 34008KT 300V030 9999 FEW050 19/M09 Q1024=
201904191330 METAR LRBM 191330Z 36008KT 310V050 9999 FEW050 20/M08 Q1025=
201904191400 METAR LRBM 191400Z 03006KT 350V060 9999 FEW050 19/M09 Q1025=
201904191430 METAR LRBM 191430Z AUTO 02008KT 320V090 9999 FEW019/// SCT190///
                        19/M08 Q1025=
201904191500 METAR LRBM 191500Z AUTO 35007KT 330V040 9999 FEW018/// SCT210///
                        19/M09 Q1025=
201904191530 METAR LRBM 191530Z AUTO 04007KT 340V070 9999 FEW011/// SCT160///
                        BKN240/// 18/M09 Q1025=
201904191600 METAR LRBM 191600Z AUTO 05009KT 020V080 9999 FEW029/// SCT220///
                        18/M09 Q1026=
201904191630 METAR LRBM 191630Z AUTO 04009KT 010V070 9999 FEW017/// SCT180///
                        17/M08 Q1026=
201904191700 METAR LRBM 191700Z AUTO 04009KT 9999 FEW028/// SCT220///
                        16/M08 Q1026=
201904191730 METAR LRBM 191730Z AUTO 05007KT 9999 FEW014/// SCT220///
                        15/M07 Q1027=
201904191800 METAR LRBM 191800Z AUTO 05005KT 020V080 9999 FEW014/// SCT220///
                        14/M06 Q1027=
201904191830 METAR LRBM 191830Z AUTO 03004KT 9999 FEW032/// SCT210///
                        13/M06 Q1027=
201904191900 METAR LRBM 191900Z AUTO 05005KT 9999 FEW034/// SCT240///
                        11/M05 Q1028=
201904191930 METAR LRBM 191930Z AUTO 03003KT 350V060 9999 FEW014/// SCT240///
                        10/M04 Q1028=
201904192000 METAR LRBM 192000Z AUTO 01003KT 340V040 9999 FEW017/// SCT210///
                        09/M04 Q1028=
201904192030 METAR LRBM 192030Z AUTO 03004KT 9999 FEW016/// SCT240///
                        09/M05 Q1028=
201904192100 METAR LRBM 192100Z AUTO 01004KT 340V060 9999 FEW024/// SCT210///
                        09/M05 Q1028=
201904192130 METAR LRBM 192130Z AUTO 02005KT 350V070 9999 FEW014/// SCT230///
                        10/M06 Q1028=
201904192200 METAR LRBM 192200Z AUTO VRB02KT 9999 FEW016/// 09/M05 Q1028=
201904192230 METAR LRBM 192230Z AUTO 34005KT 9999 FEW038/// SCT230///
                        09/M05 Q1028=
201904192300 METAR LRBM 192300Z AUTO 33004KT 280V350 9999 FEW019/// SCT200///
                        08/M04 Q1028=
201904192330 METAR LRBM 192330Z AUTO 10003KT 030V130 9999 FEW027/// SCT200///
                        05/M03 Q1028=
201904200000 METAR LRBM 200000Z AUTO 08004KT 350V120 9999 FEW055/// SCT230///
                        06/M03 Q1028=
201904200030 METAR LRBM 200030Z AUTO 05006KT 9999 FEW085/// SCT230///
                        06/M04 Q1028=
201904200100 METAR LRBM 200100Z AUTO VRB01KT 9999 FEW050/// SCT240///
                        05/M04 Q1028=
201904200130 METAR LRBM 200130Z AUTO 07004KT 030V100 9999 FEW060/// SCT220///
                        05/M03 Q1028=
201904200200 METAR LRBM 200200Z AUTO 06005KT 9999 FEW075/// SCT210///
                        03/M03 Q1028=
201904200230 METAR LRBM 200230Z AUTO 10002KT 060V140 9999 FEW048/// SCT230///
                        02/M03 Q1028=
201904200300 METAR LRBM 200300Z AUTO 09003KT 060V130 9999 FEW080/// SCT220///
                        01/M02 Q1028=
201904200330 METAR LRBM 200330Z AUTO 06004KT 9999 FEW037/// SCT240///
                        04/M03 Q1028=
201904200400 METAR LRBM 200400Z AUTO 06003KT 9999 FEW085/// SCT230///
                        02/M03 Q1028=
201904200430 METAR LRBM 200430Z AUTO 07003KT 9999 FEW040/// SCT230///
                        05/M02 Q1028=
201904200500 METAR LRBM 200500Z AUTO 09002KT 9999 FEW090/// SCT240///
                        07/M02 Q1029=
201904200530 METAR LRBM 200530Z AUTO 02002KT 350V060 9999 FEW023/// SCT210///
                        09/M02 Q1028=
201904200600 METAR LRBM 200600Z AUTO VRB02KT 9999 FEW037/// SCT210///
                        11/M01 Q1029=
201904200630 METAR LRBM 200630Z AUTO 18003KT 160V230 9999 FEW019/// SCT210///
                        10/00 Q1029=
201904200700 METAR LRBM 200700Z AUTO 21002KT 140V290 9999 FEW013/// SCT190///
                        12/M01 Q1029=
201904200730 METAR LRBM 200730Z AUTO 21003KT 160V270 9999 FEW018/// SCT210///
                        13/M01 Q1029=
201904200800 METAR LRBM 200800Z AUTO 24004KT 200V270 9999 FEW012/// SCT170///
                        13/M01 Q1028=
201904200830 METAR LRBM 200830Z AUTO 26005KT 210V300 9999 FEW013/// SCT190///
                        14/M02 Q1028=
201904200900 METAR LRBM 200900Z AUTO 24003KT 170V280 9999 FEW014/// BKN190///
                        15/M03 Q1028=
201904200930 METAR LRBM 200930Z AUTO 23009KT 9999 FEW013/// SCT190///
                        17/M04 Q1027=
201904201000 METAR LRBM 201000Z AUTO 25012KT 9999 FEW012/// SCT170///
                        BKN240/// 17/M04 Q1027=
201904201030 METAR LRBM 201030Z AUTO 25009KT 9999 FEW012/// SCT190///
                        17/M05 Q1027=
201904201100 METAR LRBM 201100Z AUTO 27006KT 210V280 9999 FEW013/// SCT150///
                        17/M05 Q1027=
201904201130 METAR LRBM 201130Z AUTO 24008KT 9999 FEW014/// SCT170///
                        18/M04 Q1026=
201904201200 METAR LRBM 201200Z AUTO 26010KT 220V300 9999 FEW015/// SCT160///
                        BKN240/// 18/M05 Q1026=
201904201230 METAR LRBM 201230Z AUTO 26009KT 230V290 9999 FEW011/// SCT180///
                        BKN240/// 19/M04 Q1026=
201904201300 METAR LRBM 201300Z AUTO 22012KT 200V260 9999 FEW012/// SCT170///
                        BKN240/// 19/M05 Q1025=
201904201330 METAR LRBM 201330Z AUTO 22010KT 9999 FEW016/// SCT180///
                        BKN240/// 18/M06 Q1025=
201904201400 METAR LRBM 201400Z AUTO 24009KT 210V270 9999 FEW012/// SCT150///
                        BKN240/// 19/M05 Q1025=
201904201430 METAR LRBM 201430Z AUTO 19010KT 9999 FEW013/// SCT170///
                        BKN230/// 19/M05 Q1025=
201904201500 METAR LRBM 201500Z AUTO 29008KT 260V330 9999 FEW010/// SCT180///
                        19/M05 Q1024=
201904201530 METAR LRBM 201530Z AUTO 29010KT 9999 NCD 19/M06 Q1024=
201904201600 METAR LRBM 201600Z AUTO 28011KT 9999 NCD 18/M05 Q1024=
201904201630 METAR LRBM 201630Z AUTO 28007KT 9999 NCD 17/M05 Q1024=
201904201700 METAR LRBM 201700Z AUTO 29003KT 9999 FEW013/// SCT170///
                        BKN240/// 16/M03 Q1024=
201904201730 METAR LRBM 201730Z AUTO VRB01KT 9999 FEW024/// SCT190///
                        14/M03 Q1024=
201904201800 METAR LRBM 201800Z AUTO 01003KT 9999 FEW012/// SCT190///
                        11/M01 Q1024=
201904201830 METAR LRBM 201830Z AUTO 07004KT 350V140 9999 FEW014/// SCT220///
                        11/M02 Q1024=
201904201900 METAR LRBM 201900Z AUTO 04006KT 010V080 9999 FEW025/// SCT200///
                        11/M01 Q1024=
201904201930 METAR LRBM 201930Z AUTO 03002KT 350V090 9999 FEW016/// SCT200///
                        12/M02 Q1024=
201904202000 METAR LRBM 202000Z AUTO 02003KT 350V050 9999 FEW011/// SCT190///
                        11/M02 Q1024=
201904202030 METAR LRBM 202030Z AUTO 05002KT 360V070 9999 FEW017/// SCT200///
                        11/M01 Q1024=
201904202100 METAR LRBM 202100Z AUTO 03002KT 340V060 9999 FEW016/// SCT190///
                        10/M01 Q1024=
201904202130 METAR LRBM 202130Z AUTO 06003KT 9999 FEW023/// SCT190///
                        09/M01 Q1024=
201904202200 METAR LRBM 202200Z AUTO 07004KT 9999 FEW019/// SCT190///
                        10/M01 Q1024=
201904202230 METAR LRBM 202230Z AUTO 07004KT 9999 FEW024/// SCT200///
                        09/M01 Q1024=
201904202300 METAR LRBM 202300Z AUTO 06002KT 020V080 9999 FEW048/// SCT240///
                        09/M01 Q1024=
201904202330 METAR LRBM 202330Z AUTO 07003KT 9999 FEW016/// SCT200///
                        ///// Q1023=
201904210000 METAR LRBM 210000Z AUTO 06003KT 9999 FEW035/// SCT220///
                        09/M01 Q1023=
201904210030 METAR LRBM 210030Z AUTO 06004KT 030V090 9999 FEW014/// SCT220///
                        09/M02 Q1023=
201904210100 METAR LRBM 210100Z AUTO 09004KT 9999 FEW019/// SCT240///
                        09/M01 Q1023=
201904210130 METAR LRBM 210130Z AUTO 06003KT 9999 FEW014/// SCT220///
                        08/M00 Q1023=
201904210200 METAR LRBM 210200Z AUTO VRB01KT 9999 FEW050/// SCT220///
                        07/00 Q1023=
201904210230 METAR LRBM 210230Z AUTO VRB01KT 9999 FEW023/// SCT210///
                        07/01 Q1023=
201904210300 METAR LRBM 210300Z AUTO 19003KT 140V290 9999 FEW014/// SCT190///
                        06/02 Q1022=
201904210330 METAR LRBM 210330Z AUTO 10003KT 020V170 9999 FEW016/// SCT240///
                        06/01 Q1022=
201904210400 METAR LRBM 210400Z AUTO 09005KT 9999 FEW070/// SCT210///
                        07/00 Q1022=
201904210430 METAR LRBM 210430Z AUTO 06004KT 9999 FEW085/// SCT210///
                        08/M00 Q1022=
201904210500 METAR LRBM 210500Z AUTO 09003KT 050V110 9999 FEW018/// SCT210///
                        10/01 Q1022=
201904210530 METAR LRBM 210530Z AUTO 09004KT 9999 FEW019/// SCT200///
                        10/01 Q1022=
201904210600 METAR LRBM 210600Z AUTO 08005KT 9999 FEW031/// SCT230///
                        11/M00 Q1022=
201904210630 METAR LRBM 210630Z AUTO 09004KT 9999 FEW021/// SCT240///
                        12/02 Q1022=
201904210700 METAR LRBM 210700Z AUTO 13005KT 9999 FEW015/// SCT180///
                        15/M01 Q1021=
201904210730 METAR LRBM 210730Z AUTO 14006KT 110V170 9999 FEW024/// SCT190///
                        15/01 Q1021=
201904210800 METAR LRBM 210800Z AUTO 13005KT 9999 FEW023/// SCT230///
                        16/M01 Q1021=
201904210830 METAR LRBM 210830Z AUTO 15004KT 090V240 9999 FEW014/// SCT170///
                        16/M04 Q1021=
201904210900 METAR LRBM 210900Z AUTO VRB04KT 9999 FEW014/// SCT190///
                        17/M02 Q1021=
201904210930 METAR LRBM 210930Z AUTO 19006KT 9999 FEW013/// SCT210///
                        18/M02 Q1020=
201904211000 METAR LRBM 211000Z AUTO 20005KT 150V260 9999 FEW013/// SCT210///
                        18/M03 Q1020=
201904211030 METAR LRBM 211030Z AUTO 25005KT 200V330 9999 FEW012/// SCT180///
                        18/M02 Q1020=
201904211100 METAR LRBM 211100Z AUTO 20006KT 160V250 9999 FEW014/// SCT190///
                        19/M02 Q1019=
201904211130 METAR LRBM 211130Z AUTO 27006KT 250V310 9999 FEW015/// SCT200///
                        18/M02 Q1019=
201904211200 METAR LRBM 211200Z AUTO 27006KT 9999 FEW014/// SCT190///
                        18/M01 Q1019=
201904211230 METAR LRBM 211230Z AUTO VRB05KT 9999 FEW013/// SCT190///
                        20/M02 Q1019=
201904211300 METAR LRBM 211300Z AUTO 23006KT 210V270 9999 FEW013/// SCT160///
                        BKN230/// 19/M01 Q1019=
201904211330 METAR LRBM 211330Z AUTO 31007KT 270V340 9999 FEW018/// SCT170///
                        BKN240/// 19/M01 Q1018=
201904211400 METAR LRBM 211400Z AUTO 31008KT 260V340 9999 FEW012/// BKN190///
                        19/M04 Q1018=
201904211430 METAR LRBM 211430Z AUTO 25011KT 9999 FEW016/// SCT200///
                        18/M04 Q1018=
201904211500 METAR LRBM 211500Z AUTO 27008KT 9999 NCD 19/M02 Q1018=
201904211530 METAR LRBM 211530Z AUTO 32004KT 290V020 9999 NCD 18/M02 Q1018=
201904211600 METAR LRBM 211600Z AUTO 31006KT 270V340 9999 FEW012/// SCT180///
                        19/M03 Q1018=
201904211630 METAR LRBM 211630Z AUTO 30004KT 9999 FEW028/// SCT200///
                        18/M03 Q1018=
201904211700 METAR LRBM 211700Z 34003KT 290V030 CAVOK 17/M01 Q1018=
201904211730 METAR LRBM 211730Z 35003KT 320V020 CAVOK 16/M01 Q1018=
201904211800 METAR LRBM 211800Z 36003KT 320V030 CAVOK 15/M01 Q1018=
201904211830 METAR LRBM 211830Z 02003KT 340V040 CAVOK 14/M00 Q1018=
201904211900 METAR LRBM 211900Z 07006KT 040V110 CAVOK 12/01 Q1018=
201904211930 METAR LRBM 211930Z 05003KT CAVOK 13/00 Q1018=
201904212000 METAR LRBM 212000Z VRB01KT CAVOK 13/01 Q1018=
201904212030 METAR LRBM 212030Z 07005KT CAVOK 13/01 Q1018=
201904212100 METAR LRBM 212100Z 05003KT 010V100 CAVOK 13/03 Q1018=
201904212130 METAR LRBM 212130Z AUTO 06002KT 040V110 9999 -SHRA FEW010///
                        SCT100/// BKN220/// 12/04 Q1019=
201904212200 METAR LRBM 212200Z AUTO 07004KT 040V120 9999 FEW011/// SCT190///
                        10/06 Q1018 RERA=
201904212230 METAR LRBM 212230Z AUTO 05005KT 9999 FEW018/// SCT210///
                        11/05 Q1019=
201904212300 METAR LRBM 212300Z AUTO 06005KT 9999 FEW013/// SCT230///
                        10/06 Q1018=
201904212330 METAR LRBM 212330Z AUTO 07007KT 030V090 9999 -RA FEW011///
                        SCT170/// BKN240/// 10/05 Q1018=
201904220000 METAR LRBM 220000Z AUTO 07006KT 9999 FEW014/// SCT210///
                        10/05 Q1018 RERA=
201904220030 METAR LRBM 220030Z AUTO 07006KT 9999 FEW035/// SCT240///
                        09/05 Q1018=
201904220100 METAR LRBM 220100Z AUTO 07006KT 9999 FEW037/// SCT220///
                        10/04 Q1017=
201904220130 METAR LRBM 220130Z AUTO 06005KT 030V100 9999 FEW026/// SCT230///
                        10/04 Q1018=
201904220200 METAR LRBM 220200Z 08007KT 030V110 9999 FEW025 BKN050 11/04
                        Q1017=
201904220230 METAR LRBM 220230Z 04005KT 9999 -RA BKN047 11/04 Q1017=
201904220300 METAR LRBM 220300Z 22002KT 190V350 9999 -RA SCT028 BKN047
                        09/05 Q1017=
201904220330 METAR LRBM 220330Z 05004KT 010V110 9999 SCT030 BKN047 10/06
                        Q1018=
201904220400 METAR LRBM 220400Z 06005KT 030V090 9999 FEW015 SCT045 10/05
                        Q1018=
201904220430 METAR LRBM 220430Z 07004KT 040V110 9999 FEW017 SCT045 09/05
                        Q1018=
201904220500 METAR LRBM 220500Z 06004KT 9999 SCT043 11/05 Q1018=
201904220530 METAR LRBM 220530Z 08006KT 9999 SCT036 12/05 Q1018=
201904220600 METAR LRBM 220600Z 09008KT 9999 SCT028 SCT043CB 12/05 Q1018=
201904220630 METAR LRBM 220630Z 10009KT 9999 FEW028 FEW043CB 13/05 Q1018=
201904220700 METAR LRBM 220700Z 09009KT 9999 FEW028 FEW043CB 14/05 Q1018=
201904220730 METAR LRBM 220730Z 12007KT 090V150 9999 VCSH FEW028 SCT043CB
                        14/05 Q1018=
201904220800 METAR LRBM 220800Z 15007KT 9999 VCSH SCT040CB 14/05 Q1018=
201904220830 METAR LRBM 220830Z 14006KT 9999 VCSH SCT037CB 13/05 Q1018=
201904220900 METAR LRBM 220900Z 14006KT 110V170 9999 VCSH SCT026 SCT037CB
                        13/05 Q1018=
201904220930 METAR LRBM 220930Z 12009KT 9999 -SHRA FEW010 SCT026 BKN037CB
                        12/07 Q1019=
201904221000 METAR LRBM 221000Z 19004KT 150V220 9999 -SHRA SCT026 BKN038CB
                        11/08 Q1019 R09/29//95=
201904221030 METAR LRBM 221030Z 11005KT 9999 -SHRA SCT026 SCT035CB 11/08
                        Q1019 R09/29//95=
201904221100 METAR LRBM 221100Z 09007KT 9999 -SHRA SCT028 SCT033CB 11/08
                        Q1019 R09/29//95=
201904221130 METAR LRBM 221130Z 09006KT 9999 -SHRA SCT028 SCT033CB 10/08
                        Q1020 R09/29//95=
201904221200 METAR LRBM 221200Z 07007KT 9999 SCT030 FEW035CB 10/08 Q1019
                        R09/29//95=
201904221230 METAR LRBM 221230Z 08009KT 9999 FEW034 FEW037CB 11/08 Q1019
                        R09/29//95=
201904221300 METAR LRBM 221300Z 08014KT 9999 FEW038 12/07 Q1019 R09/29//95=
201904221330 METAR LRBM 221330Z 09016KT 9999 FEW038 13/07 Q1019 R09/29//95=
201904221400 METAR LRBM 221400Z 09016KT 9999 FEW040 14/07 Q1019 R09/29//95=
201904221430 METAR LRBM 221430Z 09017KT 9999 FEW040 13/06 Q1019 R09/29//95=
201904221500 METAR LRBM 221500Z 10016KT 9999 FEW040 13/05 Q1019 R09/29//95=
201904221530 METAR LRBM 221530Z 10016KT 9999 FEW033 FEW037TCU 12/05 Q1019
                        R09/CLRD//=
201904221600 METAR LRBM 221600Z 10013KT 9999 FEW035 FEW039CB 12/06 Q1019=
201904221630 METAR LRBM 221630Z 10012KT 9999 FEW035 FEW039CB 12/06 Q1020=
201904221700 METAR LRBM 221700Z 10016KT 9999 FEW037 FEW040CB 11/06 Q1020=
201904221730 METAR LRBM 221730Z 10016KT 9999 SCT043 11/05 Q1020=
201904221800 METAR LRBM 221800Z 10015KT 9999 SCT045 11/05 Q1020=
201904221830 METAR LRBM 221830Z 10011KT 9999 SCT045 11/04 Q1021=
201904221900 METAR LRBM 221900Z 10010KT 9999 -SHRA SCT033 FEW035CB 10/05
                        Q1021 R09/29//95=
201904221930 METAR LRBM 221930Z 10013KT 9999 -SHRA SCT030 FEW033CB 10/04
                        Q1021 R09/29//95=
201904222000 METAR LRBM 222000Z 09013KT 9999 FEW035 FEW040CB 10/04 Q1021
                        R09/29//95=
201904222030 METAR LRBM 222030Z 09011KT 9999 FEW040 10/04 Q1021 R09/29//95=
201904222100 METAR LRBM 222100Z 09010KT 9999 FEW040 10/03 Q1021 R09/29//95=
201904222130 METAR LRBM 222130Z AUTO 10015KT 9999 -SHRA FEW014/// SCT160///
                        10/02 Q1021=
201904222200 METAR LRBM 222200Z AUTO 10012KT 9999 FEW039/// SCT240///
                        10/02 Q1021 RERA=
201904222230 METAR LRBM 222230Z AUTO 10011KT 9999 FEW013/// SCT230///
                        10/02 Q1021=
201904222300 METAR LRBM 222300Z AUTO 10011KT 9999 FEW060/// SCT230///
                        10/02 Q1021=
201904222330 METAR LRBM 222330Z AUTO 09011KT 9999 -RA FEW006/// SCT036///
                        BKN180/// 10/02 Q1021=
201904230000 METAR LRBM 230000Z AUTO 08012KT 9999 FEW008/// SCT200///
                        10/02 Q1021 RERA=
201904230030 METAR LRBM 230030Z AUTO 08010KT 9999 -SHRA FEW010/// SCT020///
                        BKN170/// 10/02 Q1021=
201904230100 METAR LRBM 230100Z AUTO 08012KT 9999 FEW019/// SCT190///
                        11/02 Q1021 RERA=
201904230130 METAR LRBM 230130Z AUTO 09013KT 9999 FEW017/// SCT240///
                        10/01 Q1021 REDZ=
201904230200 METAR LRBM 230200Z 09016KT 9999 FEW055 10/01 Q1021=
201904230230 METAR LRBM 230230Z 09014KT 9999 FEW055 10/00 Q1021=
201904230300 METAR LRBM 230300Z 09013KT CAVOK 10/00 Q1021=
201904230330 METAR LRBM 230330Z 09013KT CAVOK 10/00 Q1021=
201904230400 METAR LRBM 230400Z 09014KT CAVOK 10/00 Q1021=
201904230430 METAR LRBM 230430Z 09014KT CAVOK 10/M00 Q1021=
201904230500 METAR LRBM 230500Z 10013KT CAVOK 11/M00 Q1021=
201904230530 METAR LRBM 230530Z 10015KT CAVOK 12/M00 Q1021=
201904230600 METAR LRBM 230600Z 10015KT CAVOK 13/M01 Q1021=
201904230630 METAR LRBM 230630Z 10016KT CAVOK 13/M01 Q1021=
201904230700 METAR LRBM 230700Z 10015KT CAVOK 14/M02 Q1021=
201904230730 METAR LRBM 230730Z 10016KT CAVOK 15/M02 Q1021=
201904230800 METAR LRBM 230800Z 10017KT CAVOK 15/M03 Q1021=
201904230830 METAR LRBM 230830Z 12013KT CAVOK 16/M02 Q1021=
201904230900 METAR LRBM 230900Z 10016KT CAVOK 17/M01 Q1021=
201904230930 METAR LRBM 230930Z 11015KT CAVOK 17/M03 Q1021=
201904231000 METAR LRBM 231000Z 12011KT CAVOK 17/M01 Q1021=
201904231030 METAR LRBM 231030Z 11012KT CAVOK 17/M01 Q1021=
201904231100 METAR LRBM 231100Z 12012KT CAVOK 17/M01 Q1021=
201904231130 METAR LRBM 231130Z 11014KT CAVOK 17/M01 Q1021=
201904231200 METAR LRBM 231200Z 11012KT 090V150 CAVOK 17/M02 Q1021=
201904231230 METAR LRBM 231230Z 14011KT 100V160 CAVOK 17/M02 Q1021=
201904231300 METAR LRBM 231300Z 13010KT CAVOK 16/M02 Q1021=
201904231330 METAR LRBM 231330Z 13006KT CAVOK 16/M01 Q1020=
201904231400 METAR LRBM 231400Z 11009KT CAVOK 16/M02 Q1020=
201904231430 METAR LRBM 231430Z 10009KT CAVOK 16/M01 Q1020=
201904231500 METAR LRBM 231500Z 10014KT CAVOK 16/M01 Q1019=
201904231530 METAR LRBM 231530Z 11013KT CAVOK 16/M01 Q1019=
201904231600 METAR LRBM 231600Z 11012KT CAVOK 16/M01 Q1019=
201904231630 METAR LRBM 231630Z 10015KT CAVOK 16/M00 Q1019=
201904231700 METAR LRBM 231700Z 10012KT CAVOK 16/M01 Q1019=
201904231730 METAR LRBM 231730Z 11010KT CAVOK 15/M01 Q1019=
201904231800 METAR LRBM 231800Z 12008KT CAVOK 15/M01 Q1019=
201904231830 METAR LRBM 231830Z 12008KT CAVOK 15/M02 Q1020=
201904231900 METAR LRBM 231900Z 12008KT CAVOK 15/M02 Q1020=
201904231930 METAR LRBM 231930Z 11007KT 080V140 9999 -RA NSC 15/M02 Q1020=
201904232000 METAR LRBM 232000Z 13010KT 9999 -RA NSC 14/M01 Q1020=
201904232030 METAR LRBM 232030Z 10011KT 9999 -RA NSC 13/02 Q1021=
201904232100 METAR LRBM 232100Z 08011KT 9999 -RA NSC 13/02 Q1021=
201904232130 METAR LRBM 232130Z AUTO 06008KT 9999 FEW019/// SCT220///
                        13/02 Q1021=
201904232200 METAR LRBM 232200Z AUTO 09011KT 9999 FEW013/// SCT210///
                        13/01 Q1021=
201904232230 METAR LRBM 232230Z AUTO 10011KT 9999 FEW040/// SCT220///
                        13/00 Q1021=
201904232300 METAR LRBM 232300Z AUTO 10012KT 9999 FEW024/// SCT230///
                        13/01 Q1021=
201904232330 METAR LRBM 232330Z AUTO 09012KT 9999 FEW008/// SCT085///
                        BKN210/// 12/02 Q1021=
201904240000 METAR LRBM 240000Z AUTO 08011KT 9999 FEW008/// SCT014///
                        BKN032/// 11/05 Q1021=
201904240030 METAR LRBM 240030Z AUTO 07010KT 9999 FEW029/// SCT200///
                        12/03 Q1021=
201904240100 METAR LRBM 240100Z AUTO 09010KT 9999 FEW060/// SCT220///
                        11/04 Q1021=
201904240130 METAR LRBM 240130Z AUTO 08011KT 9999 FEW028/// SCT230///
                        12/03 Q1021=
201904240200 METAR LRBM 240200Z 09010KT 9999 FEW033 12/03 Q1021=
201904240230 METAR LRBM 240230Z 08010KT 9999 FEW034 12/03 Q1021=
201904240300 METAR LRBM 240300Z 09009KT 9999 FEW037 12/03 Q1021=
201904240330 METAR LRBM 240330Z 09009KT 9999 FEW037 12/03 Q1021=
201904240400 METAR LRBM 240400Z 09010KT 9999 FEW035 SCT190 12/03 Q1021=
201904240430 METAR COR LRBM 240430Z 09008KT 9999 FEW040 12/03 Q1022=
201904240500 METAR LRBM 240500Z 09008KT 9999 FEW043 12/03 Q1022=
201904240530 METAR LRBM 240530Z 10008KT 9999 FEW045 13/03 Q1022=
201904240600 METAR LRBM 240600Z 10008KT 9999 FEW043 13/03 Q1023=
201904240630 METAR LRBM 240630Z 09009KT 9999 FEW040 13/03 Q1023=
201904240700 METAR LRBM 240700Z 09010KT 9999 FEW040 13/03 Q1023=
201904240730 METAR LRBM 240730Z 10010KT 9999 FEW040 13/03 Q1023=
201904240800 METAR LRBM 240800Z 10009KT 9999 SCT043 14/03 Q1023=
201904240830 METAR LRBM 240830Z 11011KT 9999 SCT043 15/02 Q1023=
201904240900 METAR LRBM 240900Z 10013KT 9999 FEW050 16/02 Q1023=
201904240930 METAR LRBM 240930Z 11010KT CAVOK 17/02 Q1023=
201904241000 METAR LRBM 241000Z 11010KT 080V140 CAVOK 17/02 Q1023=
201904241030 METAR LRBM 241030Z 09010KT CAVOK 17/03 Q1022=
201904241100 METAR LRBM 241100Z 10009KT 080V140 CAVOK 18/03 Q1022=
201904241130 METAR LRBM 241130Z 11009KT CAVOK 19/04 Q1022=
201904241200 METAR LRBM 241200Z 11009KT 080V140 CAVOK 20/04 Q1021=
201904241230 METAR LRBM 241230Z 09010KT CAVOK 20/04 Q1021=
201904241300 METAR LRBM 241300Z 10009KT 070V130 CAVOK 21/04 Q1020=
201904241330 METAR LRBM 241330Z 09010KT CAVOK 22/05 Q1020=
201904241400 METAR LRBM 241400Z 12007KT CAVOK 22/04 Q1020=
201904241430 METAR LRBM 241430Z 11006KT 080V140 CAVOK 22/05 Q1020=
201904241500 METAR LRBM 241500Z 10006KT 060V120 CAVOK 22/05 Q1020=
201904241530 METAR LRBM 241530Z 12005KT CAVOK 22/06 Q1019=
201904241600 METAR LRBM 241600Z 11006KT CAVOK 21/06 Q1019=
201904241630 METAR LRBM 241630Z 11006KT CAVOK 20/06 Q1019=
201904241700 METAR LRBM 241700Z 11005KT CAVOK 19/07 Q1019=
201904241730 METAR LRBM 241730Z 09005KT CAVOK 18/07 Q1019=
201904241800 METAR LRBM 241800Z 05004KT CAVOK 16/07 Q1020=
201904241830 METAR LRBM 241830Z 05005KT CAVOK 18/06 Q1020=
201904241900 METAR LRBM 241900Z 04005KT CAVOK 18/06 Q1020=
201904241930 METAR LRBM 241930Z 05006KT CAVOK 18/06 Q1020=
201904242000 METAR LRBM 242000Z 06005KT CAVOK 17/06 Q1020=
201904242030 METAR LRBM 242030Z 05006KT 9999 FEW060 17/06 Q1020=
201904242100 METAR LRBM 242100Z 08008KT 9999 FEW058 18/06 Q1020=
201904242130 METAR LRBM 242130Z AUTO 08009KT 9999 FEW015/// SCT200///
                        18/06 Q1020=
201904242200 METAR LRBM 242200Z AUTO 08009KT 9999 FEW012/// SCT170///
                        18/05 Q1021=
201904242230 METAR LRBM 242230Z AUTO 08008KT 9999 FEW016/// SCT200///
                        16/05 Q1021=
201904242300 METAR LRBM 242300Z AUTO 08008KT 9999 FEW013/// SCT220///
                        17/05 Q1021=
201904242330 METAR LRBM 242330Z AUTO 08007KT 9999 FEW018/// SCT200///
                        16/05 Q1021=
201904250000 METAR LRBM 250000Z AUTO 08007KT 9999 FEW023/// SCT190///
                        15/05 Q1021=
201904250030 METAR LRBM 250030Z AUTO 07005KT 9999 FEW034/// SCT230///
                        15/05 Q1021=
201904250100 METAR LRBM 250100Z AUTO 08006KT 9999 FEW044/// SCT240///
                        14/05 Q1021=
201904250130 METAR LRBM 250130Z AUTO 07005KT 020V090 9999 FEW036/// SCT240///
                        13/06 Q1021=
201904250200 METAR LRBM 250200Z 06005KT CAVOK 14/06 Q1021=
201904250230 METAR LRBM 250230Z 07003KT CAVOK 14/06 Q1021=
201904250300 METAR LRBM 250300Z 07004KT CAVOK 12/06 Q1021=
201904250330 METAR LRBM 250330Z 07005KT CAVOK 13/06 Q1021=
201904250400 METAR LRBM 250400Z 08004KT CAVOK 12/06 Q1021=
201904250430 METAR LRBM 250430Z 07004KT CAVOK 12/07 Q1022=
201904250500 METAR LRBM 250500Z 06004KT CAVOK 14/06 Q1022=
201904250530 METAR LRBM 250530Z 08004KT CAVOK 15/07 Q1022=
201904250600 METAR LRBM 250600Z 08004KT CAVOK 15/07 Q1022=
201904250630 METAR LRBM 250630Z 11005KT 070V160 CAVOK 17/06 Q1022=
201904250700 METAR LRBM 250700Z 13004KT 090V160 CAVOK 18/06 Q1022=
201904250730 METAR LRBM 250730Z 12007KT CAVOK 19/06 Q1022=
201904250800 METAR LRBM 250800Z 13007KT CAVOK 20/06 Q1022=
201904250830 METAR LRBM 250830Z 09007KT CAVOK 20/06 Q1022=
201904250900 METAR LRBM 250900Z 15006KT CAVOK 20/06 Q1022=
201904250930 METAR LRBM 250930Z 11006KT 080V160 CAVOK 22/07 Q1021=
201904251000 METAR LRBM 251000Z 13004KT 050V190 CAVOK 22/06 Q1021=
201904251030 METAR LRBM 251030Z 09004KT 050V150 CAVOK 22/06 Q1021=
201904251100 METAR LRBM 251100Z 07005KT 020V110 CAVOK 23/06 Q1020=
201904251130 METAR LRBM 251130Z VRB03KT CAVOK 24/06 Q1020=
201904251200 METAR LRBM 251200Z 23004KT 150V290 CAVOK 24/06 Q1020=
201904251230 METAR LRBM 251230Z AUTO 07004KT 9999 FEW012/// SCT170///
                        BKN240/// 24/06 Q1020=
201904251300 METAR LRBM 251300Z 11005KT 050V160 CAVOK 25/06 Q1019=
201904251330 METAR LRBM 251330Z 15003KT 100V230 CAVOK 25/06 Q1019=
201904251400 METAR LRBM 251400Z 25004KT 190V300 9999 FEW040 25/06 Q1019=
201904251430 METAR LRBM 251430Z VRB05KT 9999 FEW040 26/06 Q1019=
201904251500 METAR LRBM 251500Z 21007KT 180V240 9999 FEW043 25/07 Q1018=
201904251530 METAR LRBM 251530Z 25005KT 210V270 9999 FEW045 25/07 Q1018=
201904251600 METAR LRBM 251600Z 26002KT 9999 FEW050 25/07 Q1018=
201904251630 METAR LRBM 251630Z 27001KT CAVOK 24/08 Q1018=
201904251700 METAR LRBM 251700Z 36003KT CAVOK 22/09 Q1018=
201904251730 METAR LRBM 251730Z 04003KT CAVOK 20/10 Q1018=
201904251800 METAR LRBM 251800Z 03003KT 350V060 CAVOK 18/10 Q1018=
201904251830 METAR LRBM 251830Z 02004KT 340V060 CAVOK 19/09 Q1018=
201904251900 METAR LRBM 251900Z 02003KT 350V050 CAVOK 18/09 Q1018=
201904251930 METAR LRBM 251930Z 34003KT 300V060 CAVOK 18/09 Q1018=
201904252000 METAR LRBM 252000Z 01003KT 340V050 CAVOK 17/09 Q1018=
201904252030 METAR LRBM 252030Z 06002KT CAVOK 15/09 Q1018=
201904252100 METAR LRBM 252100Z 09004KT 050V110 CAVOK 14/09 Q1018=
201904252130 METAR LRBM 252130Z AUTO 07004KT 9999 FEW012/// SCT180///
                        BKN240/// 14/09 Q1018=
201904252200 METAR LRBM 252200Z AUTO 06004KT 9999 FEW012/// SCT190///
                        15/09 Q1018=
201904252230 METAR LRBM 252230Z AUTO 08003KT 9999 FEW016/// SCT180///
                        14/09 Q1018=
201904252300 METAR LRBM 252300Z AUTO 09003KT 030V120 9999 FEW015/// SCT210///
                        14/09 Q1018=
201904252330 METAR LRBM 252330Z AUTO 07006KT 9999 FEW016/// SCT200///
                        14/09 Q1018=
201904260000 METAR LRBM 260000Z AUTO 07003KT 9999 FEW015/// SCT200///
                        14/09 Q1018=
201904260030 METAR LRBM 260030Z AUTO 08005KT 9999 FEW019/// SCT220///
                        14/09 Q1018=
201904260100 METAR LRBM 260100Z AUTO 08006KT 9999 FEW018/// SCT220///
                        13/08 Q1018=
201904260130 METAR LRBM 260130Z AUTO 07003KT 9999 FEW023/// SCT200///
                        12/09 Q1018=
201904260200 METAR LRBM 260200Z 10005KT CAVOK 13/09 Q1018=
201904260230 METAR LRBM 260230Z 09006KT CAVOK 11/08 Q1018=
201904260300 METAR LRBM 260300Z 09007KT CAVOK 11/08 Q1018=
201904260330 METAR LRBM 260330Z 09007KT CAVOK 12/09 Q1018=
201904260400 METAR LRBM 260400Z 09006KT CAVOK 13/09 Q1018=
201904260430 METAR LRBM 260430Z 07005KT CAVOK 12/09 Q1018=
201904260500 METAR LRBM 260500Z 06004KT CAVOK 15/09 Q1018=
201904260530 METAR LRBM 260530Z 09005KT CAVOK 16/10 Q1018=
201904260600 METAR LRBM 260600Z 11004KT CAVOK 17/10 Q1018=
201904260630 METAR LRBM 260630Z 09004KT CAVOK 19/10 Q1018=
201904260700 METAR LRBM 260700Z 11004KT 080V150 CAVOK 20/10 Q1018=
201904260730 METAR LRBM 260730Z 12004KT 080V160 CAVOK 22/10 Q1018=
201904260800 METAR LRBM 260800Z 14005KT 060V170 CAVOK 22/10 Q1018=
201904260830 METAR LRBM 260830Z 14006KT 090V170 CAVOK 23/09 Q1018=
201904260900 METAR LRBM 260900Z VRB05KT CAVOK 24/09 Q1018=
201904260930 METAR LRBM 260930Z 14006KT 120V190 CAVOK 25/08 Q1017=
201904261000 METAR LRBM 261000Z 14006KT 120V190 CAVOK 25/08 Q1017=
201904261030 METAR LRBM 261030Z 11006KT 080V170 CAVOK 26/08 Q1017=
201904261100 METAR LRBM 261100Z 16007KT 110V190 CAVOK 27/07 Q1016=
201904261130 METAR LRBM 261130Z 17005KT 140V230 CAVOK 27/07 Q1016=
201904261200 METAR LRBM 261200Z 18004KT CAVOK 26/07 Q1016=
201904261230 METAR LRBM 261230Z 11005KT 030V160 CAVOK 27/07 Q1015=
201904261300 METAR LRBM 261300Z 15004KT 070V220 9999 FEW045CB 28/06 Q1015=
201904261330 METAR LRBM 261330Z 15007KT 110V190 9999 FEW045CB 28/08 Q1015=
201904261400 METAR LRBM 261400Z 18008KT 9999 FEW045CB 28/07 Q1014=
201904261430 METAR LRBM 261430Z AUTO 14004KT 080V220 9999 FEW019/// SCT170///
                        BKN240/// 28/07 Q1014=
201904261500 METAR LRBM 261500Z AUTO 17008KT 9999 FEW016/// BKN200///
                        27/08 Q1014=
201904261530 METAR LRBM 261530Z AUTO 16009KT 9999 FEW022/// BKN190///
                        25/08 Q1014=
201904261600 METAR LRBM 261600Z AUTO 15008KT 9999 NCD 25/07 Q1014=
201904261630 METAR LRBM 261630Z AUTO 11004KT 9999 NCD 24/08 Q1014=
201904261700 METAR LRBM 261700Z AUTO 06002KT 9999 FEW019/// SCT220///
                        23/09 Q1014=
201904261730 METAR LRBM 261730Z AUTO 02002KT 330V110 9999 FEW019/// SCT200///
                        21/10 Q1014=
201904261800 METAR LRBM 261800Z AUTO 03003KT 9999 FEW014/// SCT150///
                        BKN240/// 20/10 Q1014=
201904261830 METAR LRBM 261830Z AUTO 02003KT 330V060 9999 FEW018/// SCT200///
                        19/09 Q1014=
201904261900 METAR LRBM 261900Z AUTO 03003KT 360V090 9999 FEW012/// SCT170///
                        19/09 Q1014=
201904261930 METAR LRBM 261930Z AUTO 01003KT 340V060 9999 FEW011/// SCT220///
                        18/09 Q1014=
201904262000 METAR LRBM 262000Z AUTO 09004KT 050V140 9999 FEW015/// SCT200///
                        18/08 Q1014=
201904262030 METAR LRBM 262030Z AUTO 08005KT 9999 FEW020/// BKN200///
                        17/09 Q1014=
201904262100 METAR LRBM 262100Z AUTO 08002KT 050V110 9999 FEW043/// SCT200///
                        16/08 Q1013=
201904262130 METAR LRBM 262130Z AUTO 10003KT 360V120 9999 FEW014/// SCT210///
                        16/08 Q1013=
201904262200 METAR LRBM 262200Z AUTO 09005KT 9999 FEW014/// SCT200///
                        15/08 Q1014=
201904262230 METAR LRBM 262230Z AUTO 08003KT 050V110 9999 FEW015/// SCT240///
                        15/08 Q1013=
201904262300 METAR LRBM 262300Z AUTO 05003KT 9999 FEW024/// SCT230///
                        16/08 Q1013=
201904262330 METAR LRBM 262330Z AUTO 07004KT 9999 FEW013/// SCT210///
                        15/08 Q1013=
201904270000 METAR LRBM 270000Z AUTO 07005KT 9999 FEW038/// SCT220///
                        16/08 Q1013=
201904270030 METAR LRBM 270030Z AUTO 00000KT 9999 FEW015/// SCT220///
                        16/08 Q1012=
201904270100 METAR LRBM 270100Z AUTO VRB01KT 9999 FEW038/// SCT210///
                        16/08 Q1012=
201904270130 METAR LRBM 270130Z AUTO 27009KT 9999 FEW015/// SCT190///
                        15/09 Q1013=
201904270200 METAR LRBM 270200Z AUTO 09005KT 9999 FEW018/// BKN200///
                        14/09 Q1013=
201904270230 METAR LRBM 270230Z AUTO 08003KT 020V110 9999 FEW015/// SCT200///
                        15/08 Q1013=
201904270300 METAR LRBM 270300Z AUTO 09006KT 9999 FEW020/// SCT200///
                        15/09 Q1012=
201904270330 METAR LRBM 270330Z AUTO 07004KT 020V100 9999 FEW014/// SCT230///
                        15/09 Q1012=
201904270400 METAR LRBM 270400Z AUTO 07004KT 9999 FEW033/// SCT210///
                        14/09 Q1012=
201904270430 METAR LRBM 270430Z AUTO 06002KT 9999 FEW017/// SCT230///
                        15/10 Q1012=
201904270500 METAR LRBM 270500Z AUTO 00000KT 9999 FEW015/// SCT230///
                        16/10 Q1012=
201904270530 METAR LRBM 270530Z AUTO 14003KT 100V210 9999 FEW015/// SCT210///
                        18/10 Q1012=
201904270600 METAR LRBM 270600Z AUTO 14003KT 100V170 9999 FEW015/// SCT210///
                        18/10 Q1012=
201904270630 METAR LRBM 270630Z AUTO 16003KT 9999 FEW012/// SCT200///
                        17/10 Q1013=
201904270700 METAR LRBM 270700Z AUTO 10004KT 9999 FEW016/// SCT230///
                        18/10 Q1012=
201904270730 METAR LRBM 270730Z AUTO 14003KT 060V230 9999 FEW013/// SCT210///
                        20/09 Q1012=
201904270800 METAR LRBM 270800Z AUTO 25006KT 9999 FEW011/// SCT130///
                        BKN230/// 19/10 Q1013=
201904270830 METAR LRBM 270830Z AUTO 27006KT 9999 FEW011/// SCT170///
                        BKN240/// 21/10 Q1013=
201904270900 METAR LRBM 270900Z AUTO 27007KT 240V320 9999 FEW012/// SCT170///
                        21/10 Q1012=
201904270930 METAR LRBM 270930Z AUTO 29007KT 250V360 9999 FEW020/// SCT220///
                        21/10 Q1012=
201904271000 METAR LRBM 271000Z AUTO 27007KT 230V310 9999 FEW013/// SCT210///
                        22/11 Q1012=
201904271030 METAR LRBM 271030Z AUTO 24005KT 210V270 9999 FEW013/// SCT200///
                        22/10 Q1011=
201904271100 METAR LRBM 271100Z AUTO 24006KT 9999 FEW011/// SCT220///
                        22/09 Q1011=
201904271130 METAR LRBM 271130Z AUTO 25005KT 230V290 9999 FEW010/// SCT150///
                        BKN240/// 23/10 Q1011=
201904271200 METAR LRBM 271200Z AUTO 25005KT 200V280 9999 NCD 23/10 Q1011=
201904271230 METAR LRBM 271230Z AUTO 26008KT 9999 NCD 23/11 Q1010=
201904271300 METAR LRBM 271300Z AUTO 29007KT 260V340 9999 NCD 23/11 Q1010=
201904271330 METAR LRBM 271330Z AUTO 28008KT 9999 FEW012/// SCT090///
                        BKN230/// 22/11 Q1009=
201904271400 METAR LRBM 271400Z AUTO 27009KT 9999 NCD 22/10 Q1009=
201904271430 METAR LRBM 271430Z AUTO 28006KT 9999 NCD 22/10 Q1009=
201904271500 METAR LRBM 271500Z AUTO 26008KT 9999 NCD 21/13 Q1009=
201904271530 METAR LRBM 271530Z AUTO 30005KT 9999 FEW011/// SCT050///
                        BKN240/// 20/13 Q1008=
201904271600 METAR LRBM 271600Z AUTO 20004KT 9999 FEW009/// SCT034///
                        BKN140/// 19/14 Q1009=
201904271630 METAR LRBM 271630Z AUTO 20007KT 180V240 9999 FEW007/// SCT013///
                        BKN038/// 18/14 Q1009=
201904271700 METAR COR LRBM 271700Z 23010KT 9999 -SHRA SCT022CB BKN025
                        17/15 Q1010=
201904271730 METAR LRBM 271730Z 23009KT 9999 SCT025CB BKN030 15/13 Q1010
                        R09/29//95=
201904271800 METAR LRBM 271800Z VRB03KT 9999 FEW030CB SCT035 15/13 Q1010
                        R09/29//95=
201904271830 METAR LRBM 271830Z 12004KT 070V180 9999 -SHRA SCT028CB BKN037
                        15/13 Q1011 R09/29//95=
201904271900 METAR LRBM 271900Z 11005KT 8000 SHRA SCT012 SCT026CB BKN030
                        15/13 Q1011 R09/29//95=
201904271930 METAR LRBM 271930Z 10006KT 9000 SHRA SCT011 SCT025CB BKN030
                        14/13 Q1011 R09/29//95=
201904272000 METAR LRBM 272000Z 09007KT 9000 SHRA SCT013 SCT026CB BKN033
                        14/13 Q1011 R09/29//95=
201904272030 METAR LRBM 272030Z 09005KT 9000 SHRA SCT013 SCT026CB BKN036
                        14/12 Q1011 R09/29//95=
201904272100 METAR LRBM 272100Z 08006KT 9999 -SHRA FEW014 SCT023CB BKN030
                        14/12 Q1011 R09/29//95=
201904272130 METAR LRBM 272130Z AUTO 05003KT 8000 SCT010/// BKN025///
                        BKN065/// 13/12 Q1011=
201904272200 METAR LRBM 272200Z AUTO 06005KT 9999 FEW008/// SCT017///
                        BKN047/// 13/12 Q1011=
201904272230 METAR LRBM 272230Z AUTO 05003KT 9999 FEW015/// SCT080///
                        BKN240/// 13/12 Q1011=
201904272300 METAR LRBM 272300Z AUTO 00000KT 9999 FEW025/// SCT039///
                        BKN200/// 13/12 Q1011 REDZ=
201904272330 METAR LRBM 272330Z AUTO 27005KT 240V330 9999 -SHRA SCT002///
                        BKN008/// BKN030/// 13/12 Q1011=
201904280000 METAR LRBM 280000Z AUTO 28004KT 250V310 4500 SHRA SCT002///
                        BKN006/// BKN033/// 12/11 Q1011=
201904280030 METAR LRBM 280030Z AUTO 28006KT 3900 -RA FEW004/// SCT009///
                        BKN014/// 12/11 Q1011=
201904280100 METAR LRBM 280100Z AUTO 30004KT 270V330 4200 DZ FEW004///
                        SCT010/// BKN013/// 12/11 Q1010=
201904280130 METAR LRBM 280130Z AUTO 32003KT 290V350 6000 -DZ FEW002///
                        SCT011/// BKN020/// 11/10 Q1010=
201904280200 METAR LRBM 280200Z AUTO 36002KT 330V040 9000 -SHRA FEW015///
                        SCT085/// 11/10 Q1010=
201904280230 METAR LRBM 280230Z AUTO 03001KT 9000 -SHRA FEW008/// SCT019///
                        BKN060/// 11/10 Q1010=
201904280300 METAR LRBM 280300Z AUTO 04001KT 9000 -RA FEW008/// SCT016///
                        BKN039/// 11/10 Q1010=
201904280330 METAR LRBM 280330Z AUTO 09001KT 7000 -RA FEW008/// SCT012///
                        BKN017/// 11/10 Q1010=
201904280400 METAR LRBM 280400Z AUTO VRB01KT 5000 FEW008/// SCT012///
                        BKN018/// 11/10 Q1010=
201904280430 METAR LRBM 280430Z AUTO 08003KT 7000 FEW003/// BKN012///
                        BKN029/// 11/10 Q1010=
201904280500 METAR LRBM 280500Z AUTO 11003KT 7000 FEW006/// SCT011///
                        BKN017/// 11/10 Q1010=
201904280530 METAR LRBM 280530Z AUTO 08003KT 7000 FEW004/// SCT011///
                        BKN018/// 12/11 Q1011=
201904280600 METAR LRBM 280600Z AUTO 09003KT 9000 FEW004/// BKN011///
                        BKN029/// 12/10 Q1010=
201904280630 METAR LRBM 280630Z AUTO 13003KT 9999 FEW005/// SCT007///
                        BKN010/// 12/10 Q1011=
201904280700 METAR LRBM 280700Z AUTO 16003KT 120V180 9000 FEW005/// SCT011///
                        BKN023/// 12/10 Q1011=
201904280730 METAR LRBM 280730Z AUTO 26004KT 140V310 9999 FEW006/// SCT014///
                        BKN023/// 11/10 Q1011=
201904280800 METAR LRBM 280800Z AUTO 33003KT 300V360 9999 FEW005/// SCT013///
                        BKN025/// 11/09 Q1011=
201904280830 METAR LRBM 280830Z AUTO 32002KT 280V020 9999 FEW008/// SCT013///
                        BKN018/// 12/09 Q1011=
201904280900 METAR LRBM 280900Z AUTO 33002KT 290V010 9999 FEW008/// SCT012///
                        BKN017/// ///// Q1011=
201904280930 METAR LRBM 280930Z AUTO VRB01KT 9999 FEW008/// SCT010///
                        BKN018/// 12/10 Q1011=
201904281000 METAR LRBM 281000Z AUTO 04002KT 350V070 9999 FEW006/// SCT018///
                        BKN031/// 12/10 Q1011=
201904281030 METAR LRBM 281030Z AUTO 04002KT 330V090 9999 FEW010/// SCT055///
                        BKN200/// 12/10 Q1011=
201904281100 METAR LRBM 281100Z AUTO 10002KT 050V150 9999 FEW010/// SCT031///
                        BKN180/// 13/10 Q1011=
201904281130 METAR LRBM 281130Z AUTO 22001KT 9999 FEW013/// SCT024///
                        BKN090/// 13/10 Q1011=
201904281200 METAR LRBM 281200Z AUTO 29005KT 9999 FEW011/// SCT027///
                        BKN160/// 13/10 Q1011=
201904281230 METAR LRBM 281230Z AUTO 30005KT 270V360 9999 FEW009/// SCT030///
                        BKN130/// 14/10 Q1011=
201904281300 METAR LRBM 281300Z AUTO 30005KT 260V360 9999 FEW017/// SCT140///
                        14/09 Q1011=
201904281330 METAR LRBM 281330Z AUTO 29005KT 260V020 9999 FEW026/// SCT180///
                        BKN240/// 14/10 Q1011=
201904281400 METAR LRBM 281400Z AUTO 28006KT 9999 FEW017/// SCT210///
                        14/10 Q1011=
201904281430 METAR LRBM 281430Z AUTO 28006KT 9999 FEW022/// SCT200///
                        14/10 Q1011=
201904281500 METAR LRBM 281500Z AUTO 26006KT 9999 FEW036/// SCT065///
                        BKN240/// 13/09 Q1011=
201904281530 METAR LRBM 281530Z AUTO 29005KT 9999 FEW023/// SCT090///
                        BKN240/// 13/10 Q1011=
201904281600 METAR LRBM 281600Z AUTO 29003KT 9999 FEW022/// SCT055///
                        BKN230/// 13/10 Q1010=
201904281630 METAR LRBM 281630Z AUTO 27004KT 9999 FEW014/// SCT170///
                        13/10 Q1010=
201904281700 METAR LRBM 281700Z AUTO 27005KT 9999 FEW020/// SCT220///
                        13/10 Q1010=
201904281730 METAR LRBM 281730Z AUTO 27004KT 9999 FEW029/// SCT035///
                        BKN170/// 13/11 Q1011=
201904281800 METAR LRBM 281800Z AUTO 30003KT 260V320 9999 FEW022/// SCT035///
                        BKN160/// 12/10 Q1011=
201904281830 METAR LRBM 281830Z AUTO 29002KT 250V330 9999 FEW028/// SCT045///
                        BKN200/// 12/10 Q1011=
201904281900 METAR LRBM 281900Z AUTO 27003KT 9999 FEW026/// SCT050///
                        BKN240/// 12/10 Q1011=
201904281930 METAR LRBM 281930Z AUTO 26003KT 9000 FEW019/// SCT050///
                        BKN240/// 12/10 Q1011=
201904282000 METAR LRBM 282000Z AUTO 00000KT 9000 FEW027/// SCT180///
                        12/10 Q1011=
201904282030 METAR LRBM 282030Z AUTO 20002KT 6000 FEW019/// SCT060///
                        BKN210/// 12/10 Q1011=
201904282100 METAR LRBM 282100Z AUTO 19002KT 6000 FEW021/// SCT075///
                        12/10 Q1012=
201904282130 METAR LRBM 282130Z AUTO 33002KT 8000 FEW023/// SCT038///
                        BKN120/// 12/10 Q1012=
201904282200 METAR LRBM 282200Z AUTO 00000KT 7000 FEW033/// SCT180///
                        BKN240/// 12/10 Q1011=
201904282230 METAR LRBM 282230Z AUTO 16001KT 6000 FEW006/// SCT033///
                        BKN055/// 12/10 Q1011=
201904282300 METAR LRBM 282300Z AUTO 19003KT 9999 -DZ FEW010/// SCT055///
                        BKN190/// 11/10 Q1011=
201904282330 METAR LRBM 282330Z AUTO 21002KT 170V230 9000 FEW010/// BKN013///
                        BKN060/// 11/10 Q1011 REDZ=
201904290000 METAR LRBM 290000Z AUTO 20002KT 160V230 9999 FEW014/// SCT026///
                        BKN110/// 11/10 Q1011 REDZ=
201904290030 METAR LRBM 290030Z AUTO 26002KT 9999 -DZ FEW008/// BKN027///
                        BKN160/// 11/09 Q1011=
201904290100 METAR LRBM 290100Z AUTO 27002KT 240V320 9999 FEW008/// BKN027///
                        11/09 Q1011 REDZ=
201904290130 METAR LRBM 290130Z AUTO VRB01KT 9999 BKN026/// BKN170///
                        11/09 Q1011=
201904290200 METAR LRBM 290200Z AUTO 13002KT 9999 SCT027/// BKN032///
                        BKN230/// 11/09 Q1011=
201904290230 METAR LRBM 290230Z AUTO 13002KT 9999 FEW007/// SCT031///
                        BKN050/// 11/09 Q1011=
201904290300 METAR LRBM 290300Z AUTO 14003KT 9999 FEW030/// SCT047///
                        BKN230/// 11/09 Q1011=
201904290330 METAR LRBM 290330Z AUTO 11003KT 9999 FEW022/// SCT075///
                        BKN210/// 10/09 Q1011=
201904290400 METAR LRBM 290400Z AUTO 09004KT 9999 FEW017/// BKN027///
                        11/09 Q1011=
201904290430 METAR LRBM 290430Z AUTO 10004KT 9999 FEW015/// SCT021///
                        BKN030/// 11/09 Q1011=
201904290500 METAR LRBM 290500Z AUTO 14002KT 100V180 9999 BKN014/// BKN130///
                        11/09 Q1012=
201904290530 METAR LRBM 290530Z AUTO 19006KT 9999 FEW010/// BKN013///
                        BKN021/// 11/09 Q1012=
201904290600 METAR LRBM 290600Z AUTO 21005KT 9999 FEW010/// BKN025///
                        11/09 Q1012=
201904290630 METAR LRBM 290630Z AUTO 20005KT 9999 FEW009/// SCT015///
                        BKN025/// 11/09 Q1012=
201904290700 METAR LRBM 290700Z AUTO 20005KT 9999 FEW014/// SCT025///
                        BKN029/// 12/08 Q1012=
201904290730 METAR LRBM 290730Z AUTO 20005KT 9999 FEW014/// SCT018///
                        BKN030/// 12/08 Q1012=
201904290800 METAR LRBM 290800Z AUTO 21006KT 9999 FEW014/// SCT020///
                        BKN026/// 12/09 Q1012=
201904290830 METAR LRBM 290830Z AUTO 24004KT 160V280 9999 FEW027/// SCT031///
                        BKN150/// 13/08 Q1012=
201904290900 METAR LRBM 290900Z AUTO 25005KT 190V290 9999 FEW016/// SCT024///
                        BKN032/// 13/09 Q1012 REUP=
201904290930 METAR LRBM 290930Z AUTO 25007KT 9999 FEW020/// SCT031///
                        BKN160/// 13/08 Q1012 REUP=
201904291000 METAR LRBM 291000Z AUTO 26006KT 180V310 9999 FEW019/// SCT032///
                        BKN160/// 14/09 Q1012=
201904291030 METAR LRBM 291030Z AUTO 26006KT 220V300 9999 FEW022/// SCT029///
                        BKN140/// 14/08 Q1012=
201904291100 METAR LRBM 291100Z AUTO 27007KT 9999 FEW030/// SCT230///
                        15/09 Q1012=
201904291130 METAR LRBM 291130Z AUTO 27007KT 9999 FEW030/// SCT240///
                        15/09 Q1012=
201904291200 METAR LRBM 291200Z AUTO 27007KT 9999 FEW015/// SCT180///
                        BKN240/// 15/09 Q1011=
201904291230 METAR LRBM 291230Z AUTO 28005KT 250V330 9999 FEW019/// SCT190///
                        16/09 Q1011=
201904291300 METAR LRBM 291300Z 28005KT 240V320 9999 FEW030TCU BKN033
                        16/07 Q1011=
201904291330 METAR LRBM 291330Z 26006KT 9999 FEW033CB SCT036 16/08 Q1011=
201904291400 METAR LRBM 291400Z 21003KT 160V250 9999 VCSH FEW033CB SCT035
                        16/07 Q1011=
201904291430 METAR COR LRBM 291430Z 15007KT 9999 -SHRA FEW030 SCT035CB
                        14/09 Q1011=
201904291500 METAR LRBM 291500Z 17004KT 140V220 9999 4000W -SHRA FEW025
                        SCT033CB BKN050 14/10 Q1011=
201904291530 METAR LRBM 291530Z 31004KT 270V340 9999 -SHRA FEW033CB BKN050
                        13/10 Q1011 R09/29//95=
201904291600 METAR LRBM 291600Z 36003KT 320V040 9999 FEW030CB SCT052 13/10
                        Q1011 R09/29//95=
201904291630 METAR LRBM 291630Z 36003KT 330V050 9999 FEW034 13/10 Q1011
                        R09/29//95=
201904291700 METAR LRBM 291700Z VRB02KT 9999 FEW034 12/10 Q1011 R09/19//95=
201904291730 METAR LRBM 291730Z VRB01KT 9999 FEW058 12/10 Q1011 R09/19//95=
201904291800 METAR LRBM 291800Z 34003KT CAVOK 11/10 Q1011 R09/19//95=
201904291830 METAR LRBM 291830Z 01003KT 340V050 CAVOK 11/09 Q1011 R09/CLRD//=
201904291900 METAR LRBM 291900Z 01003KT 350V050 CAVOK 10/09 Q1011=
201904291930 METAR LRBM 291930Z 02003KT 340V070 CAVOK 10/08 Q1011=
201904292000 METAR LRBM 292000Z 01004KT 330V040 CAVOK 09/08 Q1011=
201904292030 METAR LRBM 292030Z VRB02KT CAVOK 09/07 Q1011=
201904292100 METAR LRBM 292100Z 01002KT CAVOK 09/07 Q1011=
201904292130 METAR LRBM 292130Z AUTO 00000KT 9999 FEW021/// SCT230///
                        08/07 Q1011=
201904292200 METAR LRBM 292200Z AUTO 04003KT 350V060 9999 FEW001/// SCT180///
                        08/06 Q1011=
201904292230 METAR LRBM 292230Z AUTO 02003KT 320V070 9999 FEW019/// SCT190///
                        08/06 Q1011=
201904292300 METAR LRBM 292300Z AUTO VRB01KT 9999 FEW037/// SCT220///
                        08/06 Q1010=
201904292330 METAR LRBM 292330Z AUTO 05005KT 9999 FEW001/// SCT200///
                        07/06 Q1010=
201904300000 METAR LRBM 300000Z AUTO 04004KT 9999 FEW042/// SCT230///
                        08/06 Q1010=
201904300030 METAR LRBM 300030Z AUTO 04002KT 340V120 9999 FEW001/// SCT200///
                        07/06 Q1010=
201904300100 METAR LRBM 300100Z AUTO 04003KT 360V070 9999 FEW001/// SCT200///
                        07/06 Q1010=
201904300130 METAR LRBM 300130Z AUTO 11004KT 060V140 9999 FEW014/// SCT210///
                        07/06 Q1009=
201904300200 METAR LRBM 300200Z 07002KT 9999 FEW043 06/05 Q1009=
201904300230 METAR LRBM 300230Z 03002KT 9999 FEW043 07/06 Q1009=
201904300300 METAR LRBM 300300Z 30002KT 200V010 9999 FEW046 07/06 Q1009=
201904300330 METAR LRBM 300330Z 27002KT 220V320 9999 FEW048 07/06 Q1009=
201904300400 METAR LRBM 300400Z 00000KT 9999 FEW048 07/06 Q1009=
201904300430 METAR LRBM 300430Z 09002KT 070V140 9999 FEW048 08/07 Q1009=
201904300500 METAR LRBM 300500Z 00000KT 9999 SCT048 09/08 Q1009=
201904300530 METAR LRBM 300530Z 00000KT 9999 SCT048 10/08 Q1009=
201904300600 METAR LRBM 300600Z 23003KT 200V260 9999 BKN048 09/08 Q1009=
201904300630 METAR LRBM 300630Z 24003KT 210V270 9999 -RA BKN048 09/08
                        Q1009=
201904300700 METAR LRBM 300700Z 26002KT 200V320 9999 BKN050 10/08 Q1009=
201904300730 METAR LRBM 300730Z 07002KT 020V110 9999 BKN050 11/08 Q1009=
201904300800 METAR LRBM 300800Z 11002KT 070V140 9999 BKN048 11/09 Q1009=
201904300830 METAR LRBM 300830Z 10005KT 9999 -RA FEW035 BKN048 11/09 Q1008=
201904300900 METAR LRBM 300900Z 08002KT 050V120 9999 FEW035 BKN048 12/09
                        Q1008=
201904300930 METAR LRBM 300930Z 27003KT 9999 FEW035 BKN050 13/10 Q1008=
201904301000 METAR LRBM 301000Z 26005KT 9999 FEW035 SCT053 14/10 Q1007=
201904301030 METAR LRBM 301030Z 27005KT 9999 FEW036 SCT055 14/10 Q1007=
201904301100 METAR LRBM 301100Z 27006KT 9999 FEW036 SCT055 15/11 Q1007=
201904301130 METAR LRBM 301130Z 27007KT 9999 -RA FEW036 BKN053 14/11 Q1006=
201904301200 METAR LRBM 301200Z 27008KT 9999 FEW036 BKN053 15/10 Q1006=
201904301230 METAR LRBM 301230Z 27008KT 9999 FEW036 BKN053 15/11 Q1006=
201904301300 METAR LRBM 301300Z 27008KT 9999 FEW036CB FEW038 SCT053 15/11
                        Q1005=
201904301330 METAR LRBM 301330Z 28009KT 9999 TS FEW036CB FEW040 15/10
                        Q1005=
201904301400 METAR LRBM 301400Z 27010KT 9999 FEW036CB FEW043 16/11 Q1005
                        RETS=
201904301430 METAR LRBM 301430Z AUTO 26009KT 9999 FEW030/// SCT210///
                        17/08 Q1004=
201904301500 METAR LRBM 301500Z AUTO 26008KT 9999 FEW015/// SCT210///
                        16/10 Q1004=
201904301530 METAR LRBM 301530Z AUTO 25008KT 9999 FEW017/// SCT200///
                        16/09 Q1004=
201904301600 METAR LRBM 301600Z AUTO 27007KT 9999 FEW013/// SCT230///
                        15/09 Q1004=
201904301630 METAR LRBM 301630Z AUTO 11010KT 080V140 9999 FEW030/// SCT050///
                        BKN190/// 15/08 Q1005=
201904301700 METAR LRBM 301700Z AUTO 07006KT 9999 FEW004/// SCT028///
                        BKN050/// 12/10 Q1005=
201904301730 METAR LRBM 301730Z AUTO 08005KT 7000 FEW017/// SCT022///
                        BKN027/// 11/10 Q1005=
201904301800 METAR LRBM 301800Z AUTO 11002KT 080V150 9999 FEW008/// SCT013///
                        BKN023/// 11/10 Q1005=
201904301830 METAR LRBM 301830Z AUTO 20003KT 9000 FEW008/// SCT012///
                        BKN020/// 11/10 Q1005=
201904301900 METAR LRBM 301900Z AUTO 01002KT 330V080 9999 FEW008/// SCT018///
                        BKN075/// 11/10 Q1004=
201904301930 METAR LRBM 301930Z AUTO 00000KT 9999 FEW013/// SCT130///
                        BKN230/// 11/10 Q1004=
201904302000 METAR LRBM 302000Z AUTO VRB01KT 9999 FEW006/// SCT014///
                        BKN022/// 11/10 Q1004=
201904302030 METAR LRBM 302030Z AUTO 15001KT 4800 FEW007/// SCT011///
                        BKN019/// 11/10 Q1004=
201904302100 METAR LRBM 302100Z AUTO 21001KT 5000 FEW008/// SCT011///
                        BKN022/// 11/10 Q1003=
201904302130 METAR LRBM 302130Z AUTO 26002KT 240V300 5000 FEW007/// SCT009///
                        BKN012/// 11/10 Q1003=
201904302200 METAR LRBM 302200Z AUTO 31002KT 270V360 5000 FEW001/// SCT004///
                        BKN021/// 10/10 Q1003=
201904302230 METAR LRBM 302230Z AUTO 08002KT 290V100 6000 FEW001/// BKN006///
                        BKN032/// 10/10 Q1002=
201904302300 METAR LRBM 302300Z AUTO 24001KT 9000 SCT005/// BKN007///
                        BKN030/// 10/10 Q1002=
201904302330 METAR LRBM 302330Z AUTO 26002KT 9000 SCT005/// BKN008///
                        10/10 Q1002=
