201905010000 METAR LRBM 010000Z AUTO 26004KT 7000 FEW003/// SCT009///
                        BKN013/// 10/10 Q1001=
201905010030 METAR LRBM 010030Z AUTO 01003KT 290V070 9000 FEW001/// SCT012///
                        BKN020/// 10/10 Q1001=
201905010100 METAR LRBM 010100Z AUTO 28003KT 9999 SCT001/// BKN003///
                        BKN005/// 10/10 Q1001=
201905010130 METAR LRBM 010130Z AUTO 30003KT 270V350 9999 FEW001/// SCT003///
                        BKN020/// 10/10 Q1001=
201905010200 METAR LRBM 010200Z AUTO 32002KT 9999 FEW001/// SCT016///
                        BKN026/// 10/10 Q1001=
201905010230 METAR LRBM 010230Z AUTO 32002KT 9999 FEW009/// SCT018///
                        BKN023/// 10/09 Q1001=
201905010300 METAR LRBM 010300Z AUTO 33001KT 9999 -RA FEW009/// SCT015///
                        BKN022/// 10/09 Q1001=
201905010330 METAR LRBM 010330Z AUTO 31003KT 270V350 9999 -RA FEW008///
                        SCT013/// BKN019/// 10/09 Q1001=
201905010400 METAR LRBM 010400Z AUTO 32002KT 270V360 9999 -RA FEW004///
                        SCT016/// BKN027/// 10/09 Q1001=
201905010430 METAR LRBM 010430Z AUTO 30002KT 250V350 9999 -RA FEW002///
                        SCT006/// BKN015/// 10/09 Q1001=
201905010500 METAR LRBM 010500Z AUTO 28005KT 9999 -RA SCT002/// BKN004///
                        BKN035/// 10/10 Q1001=
201905010530 METAR LRBM 010530Z AUTO 28007KT 9999 -DZ FEW003/// SCT021///
                        BKN036/// 11/10 Q1001=
201905010600 METAR LRBM 010600Z AUTO 28008KT 9999 -DZ FEW007/// SCT011///
                        BKN019/// 11/10 Q1001=
201905010630 METAR LRBM 010630Z AUTO 27008KT 9999 -DZ SCT006/// BKN019///
                        BKN029/// 11/10 Q1002=
201905010700 METAR LRBM 010700Z AUTO 28008KT 9999 FEW034/// SCT240///
                        12/10 Q1002=
201905010730 METAR LRBM 010730Z AUTO 29007KT 270V330 9999 FEW012/// SCT160///
                        BKN240/// 13/10 Q1002=
201905010800 METAR LRBM 010800Z AUTO 28009KT 9999 FEW029/// SCT170///
                        13/10 Q1002=
201905010830 METAR LRBM 010830Z AUTO 28007KT 9000 FEW006/// SCT023///
                        BKN041/// 12/10 Q1003=
201905010900 METAR LRBM 010900Z AUTO 30005KT 260V360 9999 FEW009/// SCT033///
                        BKN085/// 13/10 Q1003=
201905010930 METAR LRBM 010930Z AUTO 29008KT 9999 FEW010/// SCT044///
                        BKN230/// 13/09 Q1003=
201905011000 METAR LRBM 011000Z AUTO 30008KT 270V340 9999 FEW026/// SCT190///
                        13/09 Q1003=
201905011030 METAR LRBM 011030Z AUTO 30006KT 260V340 9999 FEW031/// SCT150///
                        14/09 Q1003=
201905011100 METAR LRBM 011100Z AUTO 30009KT 270V330 9999 FEW060/// SCT200///
                        14/08 Q1004=
201905011130 METAR LRBM 011130Z AUTO 29009KT 9999 FEW022/// SCT190///
                        14/08 Q1004=
201905011200 METAR LRBM 011200Z AUTO 29009KT 250V330 9999 FEW034/// SCT180///
                        BKN240/// 14/08 Q1004=
201905011230 METAR LRBM 011230Z AUTO 29007KT 260V330 9999 FEW020/// SCT210///
                        14/08 Q1004=
201905011300 METAR LRBM 011300Z 29008KT 260V350 9999 SCT032 14/08 Q1004
                        RETS=
201905011330 METAR LRBM 011330Z 31006KT 270V030 9999 SCT033 15/08 Q1004
                        RETS=
201905011400 METAR LRBM 011400Z 32007KT 290V010 9999 FEW038 16/07 Q1005=
201905011430 METAR LRBM 011430Z 30007KT 270V340 9999 FEW040 17/06 Q1005=
201905011500 METAR LRBM 011500Z 31006KT 260V360 9999 FEW040 17/05 Q1005=
201905011530 METAR LRBM 011530Z 28007KT 9999 FEW046 17/06 Q1005=
201905011600 METAR LRBM 011600Z 26005KT 9999 FEW043CB 16/08 Q1005=
201905011630 METAR LRBM 011630Z 25006KT 9999 FEW043CB 15/08 Q1005=
201905011700 METAR LRBM 011700Z 28004KT 250V310 9999 FEW040CB 14/09 Q1005=
201905011730 METAR LRBM 011730Z 32002KT 280V350 9999 FEW050 13/09 Q1006=
201905011800 METAR LRBM 011800Z 05002KT CAVOK 12/09 Q1006=
201905011830 METAR LRBM 011830Z VRB03KT CAVOK 10/09 Q1006=
201905011900 METAR LRBM 011900Z 00000KT CAVOK 10/08 Q1007=
201905011930 METAR LRBM 011930Z 09004KT 040V110 CAVOK 09/07 Q1007=
201905012000 METAR LRBM 012000Z 07003KT CAVOK 09/07 Q1007=
201905012030 METAR LRBM 012030Z 06001KT CAVOK 08/07 Q1007=
201905012100 METAR LRBM 012100Z 05002KT CAVOK 08/07 Q1007=
201905012130 METAR LRBM 012130Z AUTO 04004KT 8000 FEW085/// SCT230///
                        08/07 Q1007=
201905012200 METAR LRBM 012200Z AUTO 04003KT 9999 FEW090/// SCT230///
                        07/06 Q1007=
201905012230 METAR LRBM 012230Z AUTO 06002KT 030V090 9999 FEW100/// SCT240///
                        07/06 Q1007=
201905012300 METAR LRBM 012300Z AUTO 03004KT 9999 FEW080/// SCT240///
                        07/06 Q1007=
201905012330 METAR LRBM 012330Z AUTO 05002KT 020V090 9999 FEW095/// SCT210///
                        07/06 Q1007=
201905020000 METAR LRBM 020000Z AUTO 04001KT 9999 FEW065/// SCT190///
                        06/05 Q1007=
201905020030 METAR LRBM 020030Z AUTO 04003KT 9999 FEW045/// SCT190///
                        06/05 Q1007=
201905020100 METAR LRBM 020100Z AUTO 06003KT 9999 FEW022/// SCT200///
                        06/05 Q1007=
201905020130 METAR LRBM 020130Z AUTO 04006KT 9999 FEW016/// SCT200///
                        07/05 Q1007=
201905020200 METAR LRBM 020200Z 08004KT CAVOK 06/04 Q1007=
201905020230 METAR LRBM 020230Z 08002KT CAVOK 05/04 Q1007=
201905020300 METAR LRBM 020300Z 09004KT CAVOK 05/04 Q1007=
201905020330 METAR LRBM 020330Z 09003KT CAVOK 05/04 Q1007=
201905020400 METAR LRBM 020400Z 09003KT CAVOK 06/05 Q1008=
201905020430 METAR LRBM 020430Z 07004KT CAVOK 07/05 Q1008=
201905020500 METAR LRBM 020500Z VRB02KT CAVOK 08/06 Q1008=
201905020530 METAR LRBM 020530Z 11002KT 080V140 CAVOK 09/07 Q1008=
201905020600 METAR LRBM 020600Z 16003KT 120V180 CAVOK 09/07 Q1008=
201905020630 METAR LRBM 020630Z VRB01KT CAVOK 10/07 Q1009=
201905020700 METAR LRBM 020700Z 22003KT 180V260 CAVOK 11/08 Q1009=
201905020730 METAR LRBM 020730Z 25003KT CAVOK 11/08 Q1009=
201905020800 METAR LRBM 020800Z 23002KT 160V290 CAVOK 11/08 Q1009=
201905020830 METAR LRBM 020830Z VRB01KT CAVOK 12/08 Q1009=
201905020900 METAR LRBM 020900Z 09002KT 040V170 9999 FEW038 13/07 Q1009=
201905020930 METAR LRBM 020930Z 17002KT 9999 FEW040 15/08 Q1009=
201905021000 METAR LRBM 021000Z VRB03KT 9999 SCT043 15/06 Q1009=
201905021030 METAR LRBM 021030Z VRB02KT 9999 FEW043 16/07 Q1009=
201905021100 METAR LRBM 021100Z VRB03KT 9999 FEW040 FEW043TCU 17/08 Q1008=
201905021130 METAR LRBM 021130Z 11003KT 060V230 9999 FEW040 FEW043TCU
                        17/08 Q1008=
201905021200 METAR LRBM 021200Z VRB02KT 9999 FEW042 FEW045CB 18/08 Q1008=
201905021230 METAR LRBM 021230Z 25002KT 9999 FEW042 FEW045CB 17/07 Q1008=
201905021300 METAR LRBM 021300Z 19003KT 150V210 9999 FEW040 FEW043CB 18/07
                        Q1008=
201905021330 METAR LRBM 021330Z 13002KT 9999 SCT042 18/08 Q1007=
201905021400 METAR LRBM 021400Z 15003KT 120V200 9999 FEW042 FEW044TCU
                        18/07 Q1007=
201905021430 METAR LRBM 021430Z 10004KT 9999 FEW043 FEW045CB 18/09 Q1007=
201905021500 METAR LRBM 021500Z 09004KT 9999 FEW043 FEW046CB 18/08 Q1007=
201905021530 METAR LRBM 021530Z 10004KT 9999 FEW043 FEW046CB 17/09 Q1006=
201905021600 METAR LRBM 021600Z VRB02KT 9999 FEW044 FEW047CB 17/09 Q1006=
201905021630 METAR LRBM 021630Z 26008KT 9999 FEW044 FEW047CB 16/09 Q1007=
201905021700 METAR LRBM 021700Z 29005KT 260V330 9999 FEW044 FEW047CB 16/08
                        Q1007=
201905021730 METAR LRBM 021730Z VRB02KT 9999 FEW044 FEW048CB 15/09 Q1007=
201905021800 METAR LRBM 021800Z 17006KT 9999 SCT047 14/09 Q1007=
201905021830 METAR LRBM 021830Z 17003KT 9999 SCT050 13/08 Q1008=
201905021900 METAR LRBM 021900Z 01004KT 9999 SCT050 13/09 Q1008=
201905021930 METAR LRBM 021930Z 01003KT 320V060 9999 FEW055 13/09 Q1008=
201905022000 METAR LRBM 022000Z 05004KT 9999 FEW055 12/09 Q1008=
201905022030 METAR LRBM 022030Z 04003KT 010V080 CAVOK 12/09 Q1008=
201905022100 METAR LRBM 022100Z 08006KT CAVOK 11/09 Q1008=
201905022130 METAR LRBM 022130Z AUTO 07004KT 9999 FEW110/// SCT230///
                        11/09 Q1008=
201905022200 METAR LRBM 022200Z AUTO 06004KT 9999 FEW024/// SCT240///
                        11/09 Q1008=
201905022230 METAR LRBM 022230Z AUTO 05004KT 020V080 9999 FEW031/// SCT210///
                        12/09 Q1008=
201905022300 METAR LRBM 022300Z AUTO 05003KT 9999 FEW070/// SCT210///
                        12/09 Q1008=
201905022330 METAR LRBM 022330Z AUTO 09005KT 9999 FEW042/// SCT190///
                        11/09 Q1008=
201905030000 METAR LRBM 030000Z AUTO 08006KT 9999 FEW016/// SCT220///
                        11/09 Q1008=
201905030030 METAR LRBM 030030Z AUTO 08007KT 9999 FEW070/// BKN190///
                        12/09 Q1008=
201905030100 METAR LRBM 030100Z AUTO 07007KT 9999 FEW028/// SCT210///
                        11/09 Q1008=
201905030130 METAR LRBM 030130Z AUTO 09006KT 9999 FEW075/// SCT220///
                        11/09 Q1008=
201905030200 METAR LRBM 030200Z 07005KT 9999 FEW053 11/09 Q1008=
201905030230 METAR LRBM 030230Z 07007KT 9999 SCT045 11/08 Q1008=
201905030300 METAR LRBM 030300Z 07005KT 9999 BKN050 11/08 Q1008=
201905030330 METAR LRBM 030330Z 07006KT 020V100 9999 SCT053 11/08 Q1008=
201905030400 METAR LRBM 030400Z 07006KT 9999 FEW055 11/09 Q1008=
201905030430 METAR LRBM 030430Z 07006KT 9999 FEW055 12/09 Q1008=
201905030500 METAR LRBM 030500Z 08007KT CAVOK 14/09 Q1008=
201905030530 METAR LRBM 030530Z 09007KT CAVOK 15/09 Q1008=
201905030600 METAR LRBM 030600Z 09007KT CAVOK 15/09 Q1009=
201905030630 METAR LRBM 030630Z 11008KT CAVOK 16/10 Q1009=
201905030700 METAR LRBM 030700Z 11007KT 9999 FEW053 16/09 Q1009=
201905030730 METAR LRBM 030730Z 09007KT 9999 FEW043 17/09 Q1009=
201905030800 METAR LRBM 030800Z 10006KT 050V160 9999 FEW043 18/09 Q1009=
201905030830 METAR LRBM 030830Z 11005KT 040V140 9999 FEW043 18/08 Q1008=
201905030900 METAR LRBM 030900Z VRB04KT 9999 SCT043 20/07 Q1008=
201905030930 METAR LRBM 030930Z 20011KT 160V220 9999 FEW043 21/07 Q1008=
201905031000 METAR LRBM 031000Z 20011KT 9999 SCT045 21/06 Q1008=
201905031030 METAR LRBM 031030Z 20011KT 9999 FEW045 21/05 Q1007=
201905031100 METAR LRBM 031100Z 20013KT 9999 FEW045 22/07 Q1007=
201905031130 METAR LRBM 031130Z 19013KT 9999 FEW043 FEW045CB 21/06 Q1007=
201905031200 METAR LRBM 031200Z 21014KT 9999 FEW043 FEW045TCU 22/06 Q1007=
201905031230 METAR LRBM 031230Z 20013KT 9999 FEW043 FEW045CB 20/06 Q1007=
201905031300 METAR LRBM 031300Z 22016KT 9999 FEW043 FEW045CB 20/07 Q1007=
201905031330 METAR LRBM 031330Z 22014KT 9999 FEW045 FEW047CB 20/08 Q1006=
201905031400 METAR LRBM 031400Z 23015KT 9999 FEW047TCU 20/08 Q1006=
201905031430 METAR LRBM 031430Z AUTO 22011KT 9999 FEW017/// SCT160///
                        BKN240/// 20/08 Q1006=
201905031500 METAR LRBM 031500Z AUTO 22010KT 9999 FEW023/// SCT180///
                        19/08 Q1006=
201905031530 METAR LRBM 031530Z AUTO 24009KT 9999 FEW021/// SCT210///
                        19/08 Q1006=
201905031600 METAR LRBM 031600Z AUTO 21006KT 9999 FEW036/// SCT220///
                        19/08 Q1006=
201905031630 METAR LRBM 031630Z AUTO 19005KT 9999 VCTS FEW013/// SCT190///
                        18/10 Q1006=
201905031700 METAR LRBM 031700Z AUTO 26015KT 9999 VCTS FEW017/// SCT180///
                        BKN240/// 16/08 Q1007=
201905031730 METAR LRBM 031730Z AUTO 28009KT 240V300 9999 FEW007/// SCT020///
                        BKN055/// 14/09 Q1007=
201905031800 METAR LRBM 031800Z AUTO 27009KT 9999 FEW009/// SCT011///
                        BKN025/// 13/09 Q1009=
201905031830 METAR LRBM 031830Z AUTO 06006KT 9999 FEW006/// SCT013///
                        BKN024/// 12/10 Q1008=
201905031900 METAR LRBM 031900Z AUTO 05004KT 010V080 9999 FEW012/// SCT170///
                        12/10 Q1009=
201905031930 METAR LRBM 031930Z AUTO 01004KT 340V050 9999 FEW021/// SCT210///
                        12/10 Q1009=
201905032000 METAR LRBM 032000Z AUTO 03003KT 010V070 9999 FEW065/// SCT220///
                        12/10 Q1009=
201905032030 METAR LRBM 032030Z AUTO 04002KT 340V080 9999 FEW040/// SCT210///
                        ///// Q1009=
201905032100 METAR LRBM 032100Z AUTO 04003KT 010V070 9999 FEW049/// SCT190///
                        11/10 Q1009=
201905032130 METAR LRBM 032130Z AUTO 05003KT 9999 FEW030/// SCT200///
                        11/10 Q1009=
201905032200 METAR LRBM 032200Z AUTO 06002KT 360V130 9999 FEW039/// SCT045///
                        BKN240/// 12/10 Q1009=
201905032230 METAR LRBM 032230Z AUTO 04004KT 010V070 9999 FEW027/// SCT041///
                        BKN120/// 12/10 Q1009=
201905032300 METAR LRBM 032300Z AUTO 05002KT 9999 FEW027/// SCT050///
                        BKN240/// 12/10 Q1009=
201905032330 METAR LRBM 032330Z AUTO 02002KT 9999 BKN027/// 12/10 Q1009=
201905040000 METAR LRBM 040000Z AUTO 06003KT 9999 FEW012/// SCT026///
                        BKN095/// 12/10 Q1009=
201905040030 METAR LRBM 040030Z AUTO 04002KT 9999 FEW022/// SCT055///
                        BKN240/// 12/10 Q1009=
201905040100 METAR LRBM 040100Z AUTO 06002KT 010V100 9999 FEW018/// SCT120///
                        BKN230/// 11/10 Q1009=
201905040130 METAR LRBM 040130Z AUTO 04001KT 9999 FEW018/// SCT050///
                        11/10 Q1009=
201905040200 METAR LRBM 040200Z AUTO 06002KT 020V080 9999 SCT017/// BKN020///
                        11/10 Q1009=
201905040230 METAR LRBM 040230Z AUTO 05003KT 9999 FEW017/// SCT130///
                        11/10 Q1009=
201905040300 METAR LRBM 040300Z AUTO 03002KT 9999 SCT016/// BKN180///
                        11/09 Q1009=
201905040330 METAR LRBM 040330Z AUTO 01002KT 9999 BKN017/// BKN200///
                        11/10 Q1009=
201905040400 METAR LRBM 040400Z AUTO VRB01KT 9999 BKN017/// BKN160///
                        11/10 Q1009=
201905040430 METAR LRBM 040430Z AUTO 06002KT 010V090 9999 SCT018/// BKN050///
                        12/10 Q1009=
201905040500 METAR LRBM 040500Z AUTO 08003KT 050V110 9999 FEW037/// SCT230///
                        13/10 Q1009=
201905040530 METAR LRBM 040530Z AUTO 10004KT 9999 FEW031/// SCT210///
                        13/10 Q1009=
201905040600 METAR LRBM 040600Z AUTO 10003KT 060V150 9999 FEW038/// SCT220///
                        13/09 Q1009=
201905040630 METAR LRBM 040630Z AUTO 10002KT 040V140 9999 FEW015/// SCT210///
                        14/10 Q1009=
201905040700 METAR LRBM 040700Z AUTO 09003KT 010V140 9999 FEW016/// SCT200///
                        15/09 Q1009=
201905040730 METAR LRBM 040730Z AUTO 09004KT 050V120 9999 FEW016/// SCT180///
                        BKN240/// 15/09 Q1009=
201905040800 METAR LRBM 040800Z AUTO 12004KT 050V180 9999 FEW022/// SCT220///
                        16/10 Q1009=
201905040830 METAR LRBM 040830Z AUTO 10004KT 030V150 9999 FEW015/// SCT180///
                        17/10 Q1008=
201905040900 METAR LRBM 040900Z AUTO 12005KT 080V140 9999 FEW027/// SCT190///
                        17/10 Q1008=
201905040930 METAR LRBM 040930Z AUTO 07005KT 040V110 9999 FEW030/// SCT200///
                        17/10 Q1008=
201905041000 METAR LRBM 041000Z AUTO 10005KT 040V140 9999 FEW032/// SCT190///
                        19/10 Q1007=
201905041030 METAR LRBM 041030Z AUTO 13005KT 9999 FEW025/// SCT220///
                        18/10 Q1007=
201905041100 METAR LRBM 041100Z AUTO 13002KT 080V170 9999 VCTS FEW022///
                        SCT200/// 18/09 Q1006=
201905041130 METAR LRBM 041130Z AUTO 15014KT 9999 TS FEW006/// SCT037///
                        BKN085/// 12/10 Q1008=
201905041200 METAR LRBM 041200Z AUTO 06007KT 9999 VCTS SCT004/// BKN019///
                        BKN037/// 12/11 Q1007=
201905041230 METAR LRBM 041230Z AUTO 04007KT 010V070 9999 FEW009/// SCT200///
                        14/12 Q1006=
201905041300 METAR LRBM 041300Z AUTO 01005KT 310V060 9999 FEW023/// SCT210///
                        16/12 Q1006 RERA=
201905041330 METAR LRBM 041330Z AUTO 06004KT 010V090 9999 FEW015/// SCT210///
                        16/12 Q1006=
201905041400 METAR LRBM 041400Z AUTO 08005KT 020V140 9999 FEW003/// SCT022///
                        BKN060/// 15/12 Q1005=
201905041430 METAR LRBM 041430Z AUTO 07006KT 030V100 9999 FEW007/// SCT190///
                        15/11 Q1005 RERA=
201905041500 METAR LRBM 041500Z AUTO 03002KT 350V050 9999 FEW036/// SCT190///
                        15/11 Q1005 RERA=
201905041530 METAR LRBM 041530Z AUTO 32003KT 280V010 9999 FEW037/// SCT200///
                        15/11 Q1005=
201905041600 METAR LRBM 041600Z AUTO 02006KT 320V050 9999 FEW050/// SCT210///
                        15/10 Q1005=
201905041630 METAR LRBM 041630Z AUTO 34004KT 270V070 9999 FEW028/// SCT210///
                        15/10 Q1005=
201905041700 METAR LRBM 041700Z AUTO 28004KT 260V340 9999 FEW022/// SCT210///
                        15/11 Q1005=
201905041730 METAR LRBM 041730Z AUTO VRB01KT 9999 -SHRA FEW014/// SCT200///
                        14/11 Q1005=
201905041800 METAR LRBM 041800Z AUTO 36004KT 310V040 9999 FEW017/// SCT230///
                        13/11 Q1005=
201905041830 METAR LRBM 041830Z AUTO 05005KT 350V070 9999 FEW020/// SCT180///
                        13/10 Q1005=
201905041900 METAR LRBM 041900Z AUTO 03003KT 9999 FEW027/// SCT210///
                        13/09 Q1005=
201905041930 METAR LRBM 041930Z AUTO 05003KT 9999 NCD 13/10 Q1004=
201905042000 METAR LRBM 042000Z AUTO 06006KT 9999 NCD 13/09 Q1004=
201905042030 METAR LRBM 042030Z AUTO 08006KT 9999 NCD 13/09 Q1004=
201905042100 METAR LRBM 042100Z AUTO 07006KT 9999 FEW017/// SCT200///
                        13/09 Q1004=
201905042130 METAR LRBM 042130Z AUTO 30006KT 260V330 9999 FEW018/// BKN190///
                        12/10 Q1004=
201905042200 METAR LRBM 042200Z AUTO 10005KT 9999 FEW014/// SCT200///
                        12/10 Q1004=
201905042230 METAR LRBM 042230Z AUTO 06005KT 9999 FEW027/// SCT210///
                        12/10 Q1003=
201905042300 METAR LRBM 042300Z AUTO 08006KT 9999 FEW026/// SCT200///
                        13/09 Q1003=
201905042330 METAR LRBM 042330Z AUTO 16002KT 110V200 9999 -RA FEW009///
                        SCT034/// BKN120/// 12/10 Q1004=
201905050000 METAR LRBM 050000Z AUTO 03004KT 350V060 9999 -RA FEW005///
                        SCT024/// BKN075/// 12/10 Q1004=
201905050030 METAR LRBM 050030Z AUTO 04003KT 340V080 9999 -RA FEW007///
                        SCT014/// BKN030/// 12/10 Q1003=
201905050100 METAR LRBM 050100Z AUTO VRB03KT 9999 -RA FEW007/// SCT014///
                        BKN065/// 12/10 Q1004=
201905050130 METAR LRBM 050130Z AUTO 30002KT 270V340 9999 -RA FEW009///
                        SCT034/// BKN170/// 12/10 Q1003=
201905050200 METAR LRBM 050200Z AUTO 36003KT 340V050 9999 FEW006/// SCT014///
                        BKN030/// 12/10 Q1003=
201905050230 METAR LRBM 050230Z AUTO 36002KT 330V030 9999 -RA FEW009///
                        SCT013/// BKN021/// ///// Q1003=
201905050300 METAR LRBM 050300Z AUTO 02002KT 9999 -RA FEW006/// SCT013///
                        BKN022/// 12/10 Q1003=
201905050330 METAR LRBM 050330Z AUTO VRB01KT 9999 -RA FEW007/// SCT013///
                        BKN022/// 12/11 Q1003=
201905050400 METAR LRBM 050400Z AUTO 03002KT 330V080 9999 -RA FEW008///
                        SCT021/// BKN110/// 12/11 Q1003=
201905050430 METAR LRBM 050430Z AUTO VRB01KT 9999 -RA FEW007/// SCT011///
                        BKN021/// 12/11 Q1003=
201905050500 METAR LRBM 050500Z AUTO 27005KT 5000 -RA FEW001/// SCT012///
                        BKN027/// 12/11 Q1003=
201905050530 METAR LRBM 050530Z AUTO 28003KT 7000 -RA FEW001/// SCT011///
                        BKN027/// 12/11 Q1003=
201905050600 METAR LRBM 050600Z AUTO 26003KT 9000 -RA FEW001/// SCT011///
                        BKN029/// 12/11 Q1002=
201905050630 METAR LRBM 050630Z AUTO 25004KT 8000 FEW011/// SCT060///
                        BKN160/// 12/11 Q1002=
201905050700 METAR LRBM 050700Z AUTO 03002KT 340V060 8000 FEW002/// SCT024///
                        BKN080/// 12/12 Q1002=
201905050730 METAR LRBM 050730Z AUTO 15002KT 100V180 9999 FEW003/// SCT005///
                        BKN041/// 13/12 Q1003=
201905050800 METAR LRBM 050800Z AUTO 00000KT 9999 FEW002/// SCT021///
                        BKN065/// 13/12 Q1003=
201905050830 METAR LRBM 050830Z AUTO 26002KT 9999 SCT005/// BKN030///
                        BKN085/// 13/12 Q1003=
201905050900 METAR LRBM 050900Z AUTO 20001KT 9999 SCT004/// BKN006///
                        BKN070/// 13/12 Q1003=
201905050930 METAR LRBM 050930Z AUTO 00000KT 9999 BKN004/// BKN065///
                        13/12 Q1003=
201905051000 METAR LRBM 051000Z AUTO 26002KT 230V290 9999 BKN004/// BKN070///
                        13/12 Q1003=
201905051030 METAR LRBM 051030Z AUTO 26004KT 9999 SCT004/// BKN055///
                        BKN240/// 13/12 Q1003=
201905051100 METAR LRBM 051100Z AUTO 28003KT 250V340 9999 FEW004/// SCT031///
                        BKN160/// 14/12 Q1003=
201905051130 METAR LRBM 051130Z AUTO VRB01KT 9999 FEW013/// SCT070///
                        BKN240/// 14/13 Q1003=
201905051200 METAR LRBM 051200Z AUTO 27004KT 9999 FEW011/// SCT028///
                        BKN160/// 14/13 Q1003=
201905051230 METAR LRBM 051230Z AUTO 27003KT 7000 FEW003/// SCT012///
                        BKN025/// 14/13 Q1004=
201905051300 METAR LRBM 051300Z AUTO 34002KT 300V030 9999 FEW007/// SCT013///
                        BKN023/// 15/13 Q1003=
201905051330 METAR LRBM 051330Z AUTO 05004KT 9999 FEW008/// SCT012///
                        BKN026/// 14/12 Q1003=
201905051400 METAR LRBM 051400Z AUTO 06003KT 020V100 5000 FEW006/// SCT015///
                        BKN025/// 14/12 Q1003=
201905051430 METAR LRBM 051430Z AUTO 36002KT 320V060 9999 FEW010/// SCT019///
                        BKN029/// 14/13 Q1003=
201905051500 METAR LRBM 051500Z AUTO VRB01KT 7000 +SHRA FEW008/// SCT025///
                        BKN038/// 14/13 Q1003=
201905051530 METAR LRBM 051530Z AUTO 29004KT 8000 SHRA FEW007/// SCT012///
                        BKN028/// 14/13 Q1003=
201905051600 METAR LRBM 051600Z AUTO 30003KT 6000 -RA FEW007/// SCT015///
                        BKN030/// 14/13 Q1003=
201905051630 METAR LRBM 051630Z AUTO 29002KT 240V020 9999 FEW012/// SCT043///
                        BKN210/// 14/13 Q1003 RERA=
201905051700 METAR LRBM 051700Z VRB01KT 5000 SHRA FEW010 SCT027CB BKN030
                        14/12 Q1003 R09/29//95=
201905051730 METAR LRBM 051730Z VRB01KT 6000 -SHRA FEW004 SCT025 FEW030CB
                        13/12 Q1003 RESHRA R09/29//95=
201905051800 METAR LRBM 051800Z VRB02KT 7000 FEW004 BKN030 13/12 Q1004
                        R09/29//95=
201905051830 METAR LRBM 051830Z 04002KT 7000 FEW005 BKN030 13/12 Q1004
                        R09/29//95=
201905051900 METAR LRBM 051900Z VRB01KT 7000 FEW005 SCT025 BKN032 13/12
                        Q1004 R09/29//95=
201905051930 METAR LRBM 051930Z VRB01KT 6000 FEW001 SCT003 BKN030 13/12
                        Q1004 R09/29//95=
201905052000 METAR COR LRBM 052000Z 00000KT 4000 BR SCT001 SCT004 13/12
                        Q1004 R09/29//95=
201905052030 METAR LRBM 052030Z 27006KT 0600 R09/1300D FG VV002 13/12
                        Q1004 R09/29//95=
201905052100 METAR LRBM 052100Z 27006KT 0400 R09/1000N FG VV001 12/11
                        Q1004 R09/29//95=
201905052130 METAR LRBM 052130Z AUTO 28006KT 1200 R09/1300D FG VV002 11/11
                        Q1004=
201905052200 METAR LRBM 052200Z AUTO 27009KT 1200 R09/1300N FG VV002 11/11
                        Q1004=
201905052230 METAR LRBM 052230Z AUTO 28006KT 1600 R09/1700N FG VV002 11/10
                        Q1004=
201905052300 METAR LRBM 052300Z AUTO 28006KT 1900 FG VV002 10/10 Q1003=
201905052330 METAR LRBM 052330Z AUTO 28005KT 2900 BKN001/// 10/10 Q1003=
201905060000 METAR LRBM 060000Z AUTO 28005KT 4700 -SHRA BKN001/// BKN003///
                        10/10 Q1003=
201905060030 METAR LRBM 060030Z AUTO 28005KT 5000 -SHRA SCT001/// BKN003///
                        10/10 Q1003=
201905060100 METAR LRBM 060100Z AUTO 28005KT 6000 -RA FEW001/// BKN003///
                        BKN085/// 10/10 Q1002=
201905060130 METAR LRBM 060130Z AUTO 28006KT 7000 -RA SCT002/// BKN004///
                        BKN029/// 10/10 Q1002=
201905060200 METAR LRBM 060200Z 27006KT 9000 -RA BKN004 OVC040 10/10 Q1002
                        R09/29//95=
201905060230 METAR LRBM 060230Z 28005KT 9999 RA SCT002 BKN004 OVC060 10/10
                        Q1002 R09/29//95=
201905060300 METAR LRBM 060300Z 27007KT 8000 RA FEW002 BKN004 OVC043 10/09
                        Q1002 R09/29//95=
201905060330 METAR LRBM 060330Z 26007KT 9999 -RA SCT003 BKN005 OVC040
                        09/09 Q1002 R09/29//95=
201905060400 METAR LRBM 060400Z 25006KT 9000 -RA BKN004 BKN006 09/09 Q1002
                        R09/29//95=
201905060430 METAR LRBM 060430Z 26006KT 8000 -RA FEW002 BKN004 OVC025
                        09/09 Q1002 R09/29//95=
201905060500 METAR LRBM 060500Z 26004KT 8000 -RA FEW001 OVC005 09/09 Q1002
                        R09/29//95=
201905060530 METAR LRBM 060530Z 27003KT 7000 -RA FEW002 SCT004 BKN006
                        09/09 Q1003 R09/29//95=
201905060600 METAR LRBM 060600Z 26004KT 5000 -RA BR FEW002 SCT007 BKN009
                        09/09 Q1003 R09/29//95=
201905060630 METAR LRBM 060630Z 30003KT 5000 -RA BR FEW002 SCT005 BKN009
                        09/09 Q1003 R09/29//95=
201905060700 METAR LRBM 060700Z 28003KT 9999 -RA SCT002 BKN005 BKN022
                        09/09 Q1003 R09/29//95=
201905060730 METAR LRBM 060730Z 27003KT 7000 -RA FEW003 SCT005 BKN007
                        09/09 Q1003 R09/29//95=
201905060800 METAR COR LRBM 060800Z 19005KT 150V210 7000 RA FEW002 BKN005
                        09/09 Q1004 R09/29//95=
201905060830 METAR LRBM 060830Z 19006KT 9999 -RA FEW003 BKN006 OVC060
                        09/08 Q1004 R09/29//95=
201905060900 METAR LRBM 060900Z 16005KT 9999 -RA FEW004 BKN006 BKN055
                        10/09 Q1004 R09/29//95=
201905060930 METAR LRBM 060930Z 18004KT 9999 SCT007 BKN011 10/09 Q1005
                        R09/29//95=
201905061000 METAR LRBM 061000Z 09002KT 9999 SCT015 BKN050 11/09 Q1005
                        R09/29//95=
201905061030 METAR LRBM 061030Z 21007KT 9999 SCT016 BKN045 11/09 Q1005
                        R09/29//95=
201905061100 METAR LRBM 061100Z 23007KT 200V260 9999 SCT018 SCT034 12/09
                        Q1005 R09/29//95=
201905061130 METAR LRBM 061130Z 22007KT 9999 SCT019 BKN037 11/08 Q1005
                        R09/29//95=
201905061200 METAR LRBM 061200Z 23008KT 9999 FEW020 SCT040 11/08 Q1005
                        R09/29//95=
201905061230 METAR LRBM 061230Z 26007KT 9999 FEW022 SCT043 11/08 Q1005
                        R09/29//95=
201905061300 METAR LRBM 061300Z 29006KT 260V320 9999 SCT023 SCT043 11/08
                        Q1005 R09/29//95=
201905061330 METAR LRBM 061330Z 28006KT 9999 SCT023 SCT040 10/08 Q1006
                        R09/CLRD//=
201905061400 METAR LRBM 061400Z 27008KT 9999 SCT024 SCT040 10/08 Q1006=
201905061430 METAR LRBM 061430Z 28006KT 9999 SCT020 SCT035 10/07 Q1006=
201905061500 METAR LRBM 061500Z 28007KT 250V320 9999 SCT020 SCT037 10/07
                        Q1006=
201905061530 METAR LRBM 061530Z 27008KT 9999 SCT015 BKN033 10/07 Q1006=
201905061600 METAR LRBM 061600Z 26009KT 9999 SCT016 BKN033 09/07 Q1006=
201905061630 METAR LRBM 061630Z 26009KT 9999 SCT015 SCT033 09/07 Q1006=
201905061700 METAR LRBM 061700Z 27008KT 9999 SCT016 BKN032 09/07 Q1006=
201905061730 METAR LRBM 061730Z 26009KT 9999 SCT013 BKN030 08/07 Q1006=
201905061800 METAR LRBM 061800Z 26009KT 9999 BKN012 BKN030 08/07 Q1007=
201905061830 METAR LRBM 061830Z 26010KT 9999 BKN010 BKN028 08/07 Q1007=
201905061900 METAR LRBM 061900Z 26008KT 9000 BKN008 OVC025 08/07 Q1007=
201905061930 METAR LRBM 061930Z 27008KT 5000 -RA BR BKN006 OVC022 07/06
                        Q1007 R09/19//95=
201905062000 METAR LRBM 062000Z 26008KT 4500 -RA BR BKN006 OVC020 07/06
                        Q1007 R09/19//95=
201905062030 METAR LRBM 062030Z 27007KT 4000 -RA BR BKN008 OVC023 07/06
                        Q1007 R09/19//95=
201905062100 METAR LRBM 062100Z 27006KT 6000 -RA BKN010 BKN030 07/06 Q1007
                        R09/19//95=
201905062130 METAR LRBM 062130Z AUTO 27007KT 9999 FEW003/// SCT005///
                        BKN007/// 07/06 Q1007=
201905062200 METAR LRBM 062200Z AUTO 27008KT 9999 FEW004/// SCT007///
                        BKN010/// 07/06 Q1007=
201905062230 METAR LRBM 062230Z AUTO 27008KT 9999 FEW009/// BKN036///
                        BKN150/// 07/06 Q1007=
201905062300 METAR LRBM 062300Z AUTO 28006KT 9999 FEW013/// SCT043///
                        BKN150/// 07/05 Q1007=
201905062330 METAR LRBM 062330Z AUTO 27007KT 9999 FEW012/// SCT044///
                        BKN080/// 07/05 Q1006=
201905070000 METAR LRBM 070000Z AUTO 28007KT 9999 -RA FEW012/// SCT023///
                        BKN036/// 07/05 Q1006=
201905070030 METAR LRBM 070030Z AUTO 28008KT 9999 FEW009/// SCT025///
                        BKN032/// 07/05 Q1006=
201905070100 METAR LRBM 070100Z AUTO 28007KT 9999 FEW015/// SCT022///
                        BKN030/// 06/05 Q1007=
201905070130 METAR LRBM 070130Z AUTO 29007KT 9999 RA FEW012/// SCT021///
                        BKN025/// 06/05 Q1007=
201905070200 METAR LRBM 070200Z 28008KT 9999 -RA FEW010 SCT017 BKN022
                        06/05 Q1007 R09/29//95=
201905070230 METAR LRBM 070230Z 28008KT 260V320 9999 -RA FEW007 SCT018
                        BKN025 06/05 Q1007 R09/29//95=
201905070300 METAR LRBM 070300Z 28006KT 9999 -RA FEW007 SCT016 BKN028
                        06/05 Q1008 R09/29//95=
201905070330 METAR LRBM 070330Z 28006KT 9999 -RA FEW008 SCT013 BKN017
                        06/05 Q1008 R09/29//95=
201905070400 METAR LRBM 070400Z 28006KT 9999 -RA FEW005 SCT013 BKN017
                        06/05 Q1008 R09/29//95=
201905070430 METAR LRBM 070430Z 28005KT 260V320 9999 -RA FEW006 SCT015
                        BKN017 06/04 Q1009 R09/29//95=
201905070500 METAR LRBM 070500Z 29004KT 260V340 9999 -RA FEW006 SCT012
                        BKN016 05/04 Q1009 R09/29//95=
201905070530 METAR LRBM 070530Z 29005KT 9999 -RA FEW007 SCT012 BKN017
                        05/03 Q1010 R09/29//95=
201905070600 METAR LRBM 070600Z 29007KT 260V320 9999 -RA FEW007 SCT011
                        BKN018 05/03 Q1010 R09/29//95=
201905070630 METAR LRBM 070630Z 29005KT 240V340 9999 -RA FEW007 BKN011
                        05/03 Q1010 R09/29//95=
201905070700 METAR LRBM 070700Z 30007KT 270V330 9999 -RA FEW008 BKN011
                        05/03 Q1010 R09/29//95=
201905070730 METAR LRBM 070730Z 29006KT 250V320 9999 -RA SCT008 BKN013
                        OVC021 05/04 Q1011 R09/29//95=
201905070800 METAR LRBM 070800Z 29007KT 9999 -RA FEW005 SCT012 OVC020
                        06/04 Q1011 R09/29//95=
201905070830 METAR LRBM 070830Z 29007KT 260V320 9999 -RA FEW006 SCT011
                        BKN018 06/04 Q1011 R09/29//95=
201905070900 METAR LRBM 070900Z 29007KT 9999 -RA FEW007 SCT012 BKN015
                        06/04 Q1011 R09/29//95=
201905070930 METAR LRBM 070930Z 28008KT 9999 -RA FEW007 SCT013 BKN016
                        06/04 Q1011 R09/29//95=
201905071000 METAR LRBM 071000Z 28010KT 9999 -RA FEW007 SCT010 BKN018
                        06/05 Q1012 R09/29//95=
201905071030 METAR LRBM 071030Z 28009KT 9999 -RA FEW006 BKN018 07/05 Q1012
                        R09/29//95=
201905071100 METAR LRBM 071100Z 29010KT 9999 -RA FEW007 SCT013 BKN018
                        07/07 Q1012 R09/29//95=
201905071130 METAR LRBM 071130Z 29010KT 9999 -RA FEW007 SCT013 BKN018
                        07/07 Q1012 R09/29//95=
201905071200 METAR LRBM 071200Z 29010KT 9999 -RA SCT007 BKN018 BKN022
                        07/07 Q1013 R09/29//95=
201905071230 METAR LRBM 071230Z 31009KT 280V350 9999 -RA SCT016 OVC030
                        07/06 Q1013 R09/29//95=
201905071300 METAR LRBM 071300Z 30009KT 9999 -RA SCT008 BKN013 BKN027
                        07/06 Q1013 R09/29//95=
201905071330 METAR LRBM 071330Z 30008KT 270V340 9999 -RA FEW006 BKN018
                        OVC050 07/06 Q1013 R09/29//95=
201905071400 METAR COR LRBM 071400Z 29005KT 260V320 9999 -RA BKN017 OVC050
                        07/04 Q1014 R09/29//95=
201905071430 METAR LRBM 071430Z 29006KT 240V340 9999 SCT014 BKN018 OVC050
                        07/06 Q1014 R09/29//95=
201905071500 METAR LRBM 071500Z 32004KT 290V010 9999 -RA SCT013 BKN018
                        OVC050 08/06 Q1014 R09/29//95=
201905071530 METAR LRBM 071530Z 32006KT 280V030 9999 -RA BKN018 OVC050
                        07/06 Q1014 R09/29//95=
201905071600 METAR LRBM 071600Z 29005KT 9999 -RA SCT009 BKN018 BKN038
                        07/06 Q1014 R09/29//95=
201905071630 METAR LRBM 071630Z 31003KT 9999 SCT014 BKN039 08/05 Q1015
                        R09/29//95=
201905071700 METAR LRBM 071700Z VRB03KT 9999 SCT040 08/04 Q1015 R09/29//95=
201905071730 METAR LRBM 071730Z 09004KT 060V120 9999 FEW040 08/04 Q1015
                        R09/29//95=
201905071800 METAR LRBM 071800Z VRB02KT 9999 FEW040 08/05 Q1015 R09/29//95=
201905071830 METAR LRBM 071830Z 27002KT 9999 FEW060 07/06 Q1016 R09/29//95=
201905071900 METAR LRBM 071900Z 31004KT 280V350 9999 FEW040 08/05 Q1016
                        R09/29//95=
201905071930 METAR LRBM 071930Z 35004KT 320V040 9999 -RA SCT017 BKN026
                        07/04 Q1016 R09/29//95=
201905072000 METAR LRBM 072000Z 32002KT 9999 -RA SCT021 07/06 Q1016 R09/29//95=
201905072030 METAR LRBM 072030Z 27003KT 9999 -RA SCT048 06/06 Q1016 R09/29//95=
201905072100 METAR LRBM 072100Z VRB01KT 9999 FEW045 06/04 Q1016 R09/29//95=
201905072130 METAR LRBM 072130Z AUTO VRB01KT 9999 FEW014/// SCT180///
                        ///// Q1016=
201905072200 METAR LRBM 072200Z AUTO 36002KT 330V030 9999 FEW050/// SCT180///
                        06/05 Q1016 REUP=
201905072230 METAR LRBM 072230Z AUTO 28003KT 250V350 9999 FEW042/// SCT100///
                        BKN240/// 07/05 Q1016=
201905072300 METAR LRBM 072300Z AUTO 25002KT 220V280 9999 FEW049/// SCT170///
                        07/05 Q1016=
201905072330 METAR LRBM 072330Z AUTO VRB01KT 9999 FEW043/// SCT150///
                        07/05 Q1016=
201905080000 METAR LRBM 080000Z AUTO 21003KT 9999 FEW050/// SCT220///
                        06/05 Q1016=
201905080030 METAR LRBM 080030Z AUTO 34002KT 300V360 9999 FEW015/// SCT240///
                        06/05 Q1016=
201905080100 METAR LRBM 080100Z AUTO 00000KT 9999 FEW034/// SCT220///
                        06/05 Q1016=
201905080130 METAR LRBM 080130Z AUTO 03002KT 9999 FEW025/// SCT220///
                        06/05 Q1016=
201905080200 METAR LRBM 080200Z VRB01KT 9999 SCT045 06/05 Q1016 R09/19//95=
201905080230 METAR LRBM 080230Z VRB02KT 9999 VCFG SCT045 06/05 Q1016 R09/19//95=
201905080300 METAR LRBM 080300Z 07003KT 9999 VCFG SCT053 06/05 Q1016 R09/19//95=
201905080330 METAR LRBM 080330Z 05002KT 9999 VCFG BKN058 06/05 Q1017 R09/19//95=
201905080400 METAR LRBM 080400Z 00000KT 9999 FEW058 06/05 Q1017 R09/19//95=
201905080430 METAR LRBM 080430Z 00000KT 9999 FEW052 06/05 Q1017 R09/19//95=
201905080500 METAR LRBM 080500Z 06002KT 9999 FEW060 07/05 Q1016 R09/19//95=
201905080530 METAR LRBM 080530Z VRB01KT 9999 FEW003 07/05 Q1017 R09/19//95=
201905080600 METAR LRBM 080600Z VRB02KT 9999 SCT006 08/06 Q1017 R09/19//95=
201905080630 METAR LRBM 080630Z VRB02KT 9999 SCT007 08/05 Q1017 R09/19//95=
201905080700 METAR LRBM 080700Z 28001KT 9999 FEW008 08/05 Q1017 R09/19//95=
201905080730 METAR LRBM 080730Z VRB01KT 9999 FEW011 09/06 Q1017 R09/19//95=
201905080800 METAR LRBM 080800Z 25003KT 210V300 9999 FEW020 10/06 Q1017
                        R09/19//95=
201905080830 METAR LRBM 080830Z 27003KT 220V330 9999 FEW025 11/07 Q1017
                        R09/19//95=
201905080900 METAR LRBM 080900Z 27005KT 220V340 9999 SCT032 12/07 Q1017
                        R09/CLRD//=
201905080930 METAR LRBM 080930Z VRB02KT 9999 SCT032 12/06 Q1017=
201905081000 METAR LRBM 081000Z 27003KT 220V300 9999 FEW034 SCT046 12/05
                        Q1017=
201905081030 METAR LRBM 081030Z 13004KT 100V180 9999 FEW038 BKN048 12/05
                        Q1016=
201905081100 METAR LRBM 081100Z 11004KT 080V140 9999 FEW032 BKN048 12/04
                        Q1016=
201905081130 METAR LRBM 081130Z 10004KT 9999 SCT032 BKN048 13/06 Q1016=
201905081200 METAR LRBM 081200Z 10003KT 9999 FEW032 BKN048 13/06 Q1016=
201905081230 METAR LRBM 081230Z 00000KT 9999 SCT036 BKN048 13/04 Q1016=
201905081300 METAR LRBM 081300Z 27002KT 210V010 9999 SCT038 BKN050 12/07
                        Q1016=
201905081330 METAR LRBM 081330Z 01002KT 9999 SCT038 BKN050 12/07 Q1016=
201905081400 METAR LRBM 081400Z 00000KT 9999 SCT040 BKN053 13/06 Q1016=
201905081430 METAR LRBM 081430Z 27001KT 9999 FEW040 BKN053 13/06 Q1016=
201905081500 METAR LRBM 081500Z 00000KT 9999 FEW043 BKN055 13/04 Q1015=
201905081530 METAR LRBM 081530Z 00000KT 9999 FEW043 SCT055 13/04 Q1015=
201905081600 METAR LRBM 081600Z 00000KT 9999 FEW043 13/04 Q1015=
201905081630 METAR LRBM 081630Z 24002KT 9999 FEW045 13/06 Q1015=
201905081700 METAR LRBM 081700Z 00000KT 9999 FEW046 12/07 Q1015=
201905081730 METAR LRBM 081730Z 36002KT 340V040 CAVOK 11/07 Q1015=
201905081800 METAR LRBM 081800Z 01002KT 340V040 CAVOK 09/06 Q1015=
201905081830 METAR LRBM 081830Z 01004KT CAVOK 09/08 Q1015=
201905081900 METAR LRBM 081900Z 02003KT CAVOK 09/09 Q1015=
201905081930 METAR LRBM 081930Z 03002KT 360V070 CAVOK 08/07 Q1015=
201905082000 METAR LRBM 082000Z 10004KT CAVOK 07/07 Q1014=
201905082030 METAR LRBM 082030Z 06003KT CAVOK 07/07 Q1014=
201905082100 METAR LRBM 082100Z 00000KT CAVOK 07/06 Q1014=
201905082130 METAR LRBM 082130Z AUTO 09001KT 9999 FEW022/// SCT230///
                        05/04 Q1014=
201905082200 METAR LRBM 082200Z AUTO 06002KT 9999 FEW050/// SCT240///
                        05/04 Q1014=
201905082230 METAR LRBM 082230Z AUTO 05002KT 010V090 9999 FEW034/// SCT230///
                        05/03 Q1014=
201905082300 METAR LRBM 082300Z AUTO 07001KT 9999 FEW024/// SCT190///
                        05/03 Q1014=
201905082330 METAR LRBM 082330Z AUTO 07004KT 9999 FEW100/// SCT240///
                        05/03 Q1014=
201905090000 METAR LRBM 090000Z AUTO 06004KT 030V100 9999 FEW046/// SCT230///
                        06/03 Q1013=
201905090030 METAR LRBM 090030Z AUTO 06005KT 030V090 9999 FEW090/// SCT230///
                        06/03 Q1013=
201905090100 METAR LRBM 090100Z AUTO 08006KT 9999 FEW090/// SCT230///
                        05/03 Q1013=
201905090130 METAR LRBM 090130Z AUTO 08008KT 9999 FEW095/// SCT240///
                        05/03 Q1013=
201905090200 METAR LRBM 090200Z 08007KT CAVOK 05/03 Q1012=
201905090230 METAR LRBM 090230Z 08005KT CAVOK 05/03 Q1012=
201905090300 METAR LRBM 090300Z 08006KT CAVOK 05/03 Q1012=
201905090330 METAR COR LRBM 090330Z 11006KT CAVOK 05/03 Q1012=
201905090400 METAR LRBM 090400Z 09006KT CAVOK 06/03 Q1012=
201905090430 METAR LRBM 090430Z 08005KT CAVOK 07/03 Q1011=
201905090500 METAR LRBM 090500Z 07005KT CAVOK 09/04 Q1011=
201905090530 METAR COR LRBM 090530Z 10005KT CAVOK 11/05 Q1011=
201905090600 METAR LRBM 090600Z 11007KT CAVOK 12/04 Q1011=
201905090630 METAR LRBM 090630Z 10011KT CAVOK 12/04 Q1011=
201905090700 METAR LRBM 090700Z 11009KT 070V130 CAVOK 13/04 Q1011=
201905090730 METAR COR LRBM 090730Z 11008KT 080V140 CAVOK 14/04 Q1010=
201905090800 METAR LRBM 090800Z 10008KT CAVOK 14/04 Q1010=
201905090830 METAR LRBM 090830Z 11007KT 080V160 CAVOK 14/04 Q1010=
201905090900 METAR LRBM 090900Z 12006KT 090V150 CAVOK 15/04 Q1010=
201905090930 METAR LRBM 090930Z 11006KT CAVOK 15/03 Q1009=
201905091000 METAR LRBM 091000Z 12005KT 060V150 CAVOK 15/03 Q1009=
201905091030 METAR LRBM 091030Z 12005KT 080V180 CAVOK 16/03 Q1009=
201905091100 METAR LRBM 091100Z 11007KT 070V140 9999 FEW033 16/03 Q1009=
201905091130 METAR LRBM 091130Z 11004KT 040V160 9999 FEW037 17/04 Q1008=
201905091200 METAR LRBM 091200Z 11005KT 070V160 9999 FEW046 16/02 Q1008=
201905091230 METAR LRBM 091230Z 15003KT 9999 FEW046 17/03 Q1007=
201905091300 METAR LRBM 091300Z 13003KT CAVOK 16/03 Q1007=
201905091330 METAR LRBM 091330Z 19003KT CAVOK 16/04 Q1007=
201905091400 METAR LRBM 091400Z 10004KT CAVOK 16/05 Q1007=
201905091430 METAR LRBM 091430Z 18002KT CAVOK 16/04 Q1006=
201905091500 METAR LRBM 091500Z 24004KT CAVOK 15/06 Q1006=
201905091530 METAR LRBM 091530Z 27003KT CAVOK 15/06 Q1006=
201905091600 METAR LRBM 091600Z VRB01KT CAVOK 15/07 Q1006=
201905091630 METAR LRBM 091630Z 29004KT CAVOK 14/06 Q1006=
201905091700 METAR LRBM 091700Z 29006KT 260V320 CAVOK 13/08 Q1006=
201905091730 METAR LRBM 091730Z 28007KT 9999 -RA BKN060 12/08 Q1006=
201905091800 METAR LRBM 091800Z 29006KT 9999 -RA SCT055 12/08 Q1006=
201905091830 METAR LRBM 091830Z 29007KT 9999 -RA SCT050 11/08 Q1006=
201905091900 METAR LRBM 091900Z 29005KT 260V330 9999 -RA BKN024 11/08
                        Q1006 R09/19//95=
201905091930 METAR LRBM 091930Z 29004KT 260V320 9999 -RA SCT022 OVC060
                        11/08 Q1006 R09/19//95=
201905092000 METAR LRBM 092000Z 00000KT 9999 -RA SCT022 OVC050 10/08 Q1006
                        R09/19//95=
201905092030 METAR LRBM 092030Z 24003KT 9999 -RA SCT014 BKN023 10/08 Q1006
                        R09/19//95=
201905092100 METAR LRBM 092100Z 29002KT 9999 -RA SCT015 BKN020 10/09 Q1006
                        R09/19//95=
201905092130 METAR LRBM 092130Z AUTO VRB01KT 8000 -RA FEW009/// SCT012///
                        BKN020/// 10/09 Q1006=
201905092200 METAR LRBM 092200Z AUTO 27001KT 6000 FEW008/// BKN010///
                        BKN049/// 10/09 Q1006=
201905092230 METAR LRBM 092230Z AUTO 28001KT 6000 FEW006/// SCT008///
                        BKN032/// 10/09 Q1006=
201905092300 METAR LRBM 092300Z AUTO 00000KT 7000 FEW006/// SCT012///
                        BKN033/// 10/09 Q1006=
201905092330 METAR LRBM 092330Z AUTO 00000KT 7000 FEW006/// BKN013///
                        BKN050/// 10/09 Q1006=
201905100000 METAR LRBM 100000Z AUTO 00000KT 8000 FEW007/// SCT012///
                        BKN025/// 10/09 Q1006=
201905100030 METAR LRBM 100030Z AUTO 00000KT 5000 FEW002/// SCT014///
                        BKN025/// 10/09 Q1006=
201905100100 METAR LRBM 100100Z AUTO 00000KT 5000 FEW003/// SCT018///
                        BKN043/// ///// Q1006=
201905100130 METAR LRBM 100130Z AUTO 00000KT 5000 FEW004/// SCT015///
                        BKN024/// 10/09 Q1006=
201905100200 METAR LRBM 100200Z 00000KT 6000 -RA FEW004 SCT015 BKN032
                        10/09 Q1006 R09/29//95=
201905100230 METAR LRBM 100230Z 00000KT 5000 -RA BR FEW004 SCT006 BKN018
                        09/09 Q1006 R09/29//95=
201905100300 METAR LRBM 100300Z 00000KT 5000 -RA BR SCT004 BKN030 09/09
                        Q1006 R09/29//95=
201905100330 METAR LRBM 100330Z 00000KT 5000 -RA BR FEW004 BKN007 BKN034
                        09/09 Q1006 R09/29//95=
201905100400 METAR LRBM 100400Z 00000KT 5000 -RA BR BKN005 BKN038 10/09
                        Q1006 R09/29//95=
201905100430 METAR LRBM 100430Z 00000KT 4000 -RA BR FEW002 BKN005 BKN042
                        10/09 Q1007 R09/29//95=
201905100500 METAR LRBM 100500Z 00000KT 4000 -RA BR FEW003 BKN005 10/09
                        Q1007 R09/29//95=
201905100530 METAR LRBM 100530Z 00000KT 6000 -RA FEW003 BKN005 11/10 Q1007
                        R09/29//95=
201905100600 METAR LRBM 100600Z 00000KT 8000 -RA SCT006 11/09 Q1007 R09/29//95=
201905100630 METAR LRBM 100630Z VRB01KT 9999 SCT007 11/10 Q1007 R09/29//95=
201905100700 METAR LRBM 100700Z VRB01KT 9999 BKN010 12/09 Q1007 R09/29//95=
201905100730 METAR LRBM 100730Z 22004KT 170V250 9999 BKN012 12/09 Q1007
                        R09/29//95=
201905100800 METAR LRBM 100800Z 24003KT 200V320 9999 SCT014 13/09 Q1008
                        R09/29//95=
201905100830 METAR COR LRBM 100830Z 26004KT 230V300 9999 -RA SCT016 SCT055
                        13/09 Q1008 R09/29//95=
201905100900 METAR COR LRBM 100900Z 28006KT 9999 -RA FEW012 SCT018 BKN053
                        13/10 Q1008 R09/29//95=
201905100930 METAR LRBM 100930Z 28005KT 260V320 9999 -RA SCT014 BKN050
                        13/09 Q1008 R09/29//95=
201905101000 METAR LRBM 101000Z 28007KT 240V330 9999 -RA SCT017 SCT050
                        14/09 Q1008 R09/29//95=
201905101030 METAR LRBM 101030Z 26010KT 9999 -RA SCT017 SCT035 13/10 Q1008
                        R09/19//95=
201905101100 METAR LRBM 101100Z 28008KT 260V320 9999 FEW017 FEW022CB 14/10
                        Q1009 R09/19//95=
201905101130 METAR LRBM 101130Z 26010KT 9999 FEW017 FEW022CB 14/10 Q1009
                        R09/19//95=
201905101200 METAR LRBM 101200Z 27010KT 9999 SCT017 FEW022CB 14/09 Q1009
                        R09/19//95=
201905101230 METAR LRBM 101230Z 27008KT 250V310 9999 FEW019 FEW023TCU
                        14/10 Q1009 R09/19//95=
201905101300 METAR LRBM 101300Z 26009KT 9999 FEW019 FEW023CB 14/10 Q1009
                        R09/19//95=
201905101330 METAR LRBM 101330Z 28006KT 250V320 9999 FEW021 FEW024CB 14/09
                        Q1009 R09/19//95=
201905101400 METAR LRBM 101400Z 26007KT 220V290 9999 SCT021 14/10 Q1009
                        R09/19//95=
201905101430 METAR LRBM 101430Z AUTO 26007KT 9999 FEW021/// SCT200///
                        15/09 Q1009=
201905101500 METAR LRBM 101500Z AUTO 29005KT 260V320 9999 FEW022/// SCT150///
                        BKN240/// 15/09 Q1009 RERA=
201905101530 METAR LRBM 101530Z AUTO 28005KT 260V320 9999 FEW024/// SCT050///
                        BKN220/// 15/10 Q1009=
201905101600 METAR LRBM 101600Z AUTO 28004KT 230V350 9999 FEW020/// SCT100///
                        BKN240/// 15/10 Q1009=
201905101630 METAR LRBM 101630Z AUTO 27006KT 9999 FEW027/// SCT220///
                        15/10 Q1009=
201905101700 METAR LRBM 101700Z AUTO 27004KT 9999 FEW024/// SCT210///
                        14/09 Q1010=
201905101730 METAR LRBM 101730Z AUTO 28004KT 9999 FEW036/// SCT230///
                        14/09 Q1010=
201905101800 METAR LRBM 101800Z AUTO 30003KT 9999 FEW033/// SCT220///
                        13/10 Q1010=
201905101830 METAR LRBM 101830Z AUTO 35003KT 9999 FEW027/// SCT220///
                        12/10 Q1010=
201905101900 METAR LRBM 101900Z AUTO 36004KT 9999 FEW018/// SCT210///
                        12/09 Q1011=
201905101930 METAR LRBM 101930Z AUTO 03002KT 360V070 9999 FEW041/// SCT240///
                        12/09 Q1011=
201905102000 METAR LRBM 102000Z AUTO 04002KT 360V100 9999 FEW015/// SCT240///
                        12/09 Q1011=
201905102030 METAR LRBM 102030Z AUTO 33005KT 280V020 9999 FEW075/// SCT190///
                        11/09 Q1011=
201905102100 METAR LRBM 102100Z AUTO 34003KT 320V020 9999 FEW055/// SCT210///
                        11/09 Q1011=
201905102130 METAR LRBM 102130Z AUTO 03002KT 360V060 9999 FEW038/// SCT160///
                        BKN240/// 11/09 Q1011=
201905102200 METAR LRBM 102200Z AUTO 05004KT 9999 FEW055/// SCT150///
                        BKN240/// 11/09 Q1011=
201905102230 METAR LRBM 102230Z AUTO 08001KT 9999 FEW055/// SCT180///
                        BKN240/// 11/09 Q1012=
201905102300 METAR LRBM 102300Z AUTO 00000KT 9999 FEW025/// SCT170///
                        11/09 Q1012=
201905102330 METAR LRBM 102330Z AUTO 33002KT 300V360 9999 FEW025/// SCT100///
                        BKN240/// 10/09 Q1012=
201905110000 METAR LRBM 110000Z AUTO 03003KT 9999 FEW022/// SCT190///
                        10/09 Q1012=
201905110030 METAR LRBM 110030Z AUTO VRB01KT 9999 FEW024/// SCT050///
                        BKN240/// 10/09 Q1012=
201905110100 METAR LRBM 110100Z AUTO 09002KT 9999 FEW041/// SCT170///
                        BKN240/// 10/09 Q1012=
201905110130 METAR LRBM 110130Z AUTO VRB01KT 9999 FEW030/// SCT180///
                        10/09 Q1012=
201905110200 METAR LRBM 110200Z AUTO 05003KT 9999 FEW021/// SCT200///
                        10/09 Q1012=
201905110230 METAR LRBM 110230Z AUTO 08004KT 7000 FEW020/// SCT180///
                        10/09 Q1012=
201905110300 METAR LRBM 110300Z AUTO 11001KT 9999 FEW018/// SCT100///
                        BKN200/// 10/09 Q1012=
201905110330 METAR LRBM 110330Z AUTO 07002KT 030V110 8000 FEW027/// SCT160///
                        BKN240/// 10/09 Q1012=
201905110400 METAR LRBM 110400Z AUTO 09001KT 9999 FEW025/// SCT140///
                        BKN240/// 09/08 Q1013=
201905110430 METAR LRBM 110430Z AUTO 00000KT 9999 FEW031/// SCT180///
                        BKN240/// 10/09 Q1013=
201905110500 METAR LRBM 110500Z AUTO VRB01KT 9999 FEW024/// SCT170///
                        BKN240/// 11/09 Q1013=
201905110530 METAR LRBM 110530Z AUTO 00000KT 9999 FEW003/// SCT090///
                        BKN230/// 12/10 Q1013=
201905110600 METAR LRBM 110600Z AUTO 18003KT 9999 FEW005/// SCT055///
                        BKN200/// 13/10 Q1013=
201905110630 METAR LRBM 110630Z AUTO 22002KT 180V260 9999 FEW019/// SCT190///
                        13/10 Q1014=
201905110700 METAR LRBM 110700Z AUTO 23002KT 170V290 9999 FEW013/// SCT160///
                        14/10 Q1014=
201905110730 METAR LRBM 110730Z AUTO 27004KT 240V310 9999 FEW013/// SCT030///
                        BKN180/// 14/10 Q1014=
201905110800 METAR LRBM 110800Z AUTO 27004KT 240V300 9999 FEW013/// SCT180///
                        15/11 Q1014=
201905110830 METAR LRBM 110830Z AUTO VRB04KT 9999 FEW014/// SCT190///
                        16/11 Q1014=
201905110900 METAR LRBM 110900Z AUTO 27006KT 9999 FEW016/// SCT021///
                        BKN190/// 16/11 Q1013=
201905110930 METAR LRBM 110930Z AUTO 25006KT 210V290 9999 FEW019/// SCT200///
                        16/11 Q1013=
201905111000 METAR LRBM 111000Z AUTO 28006KT 250V330 9999 FEW019/// SCT210///
                        17/11 Q1013=
201905111030 METAR LRBM 111030Z AUTO 27008KT 240V310 9999 FEW025/// SCT190///
                        17/10 Q1013=
201905111100 METAR LRBM 111100Z AUTO 27010KT 240V300 9999 FEW031/// SCT210///
                        18/09 Q1013=
201905111130 METAR LRBM 111130Z AUTO 29008KT 250V310 9999 FEW031/// SCT220///
                        18/09 Q1013=
201905111200 METAR LRBM 111200Z AUTO 27010KT 9999 FEW014/// SCT170///
                        18/10 Q1013=
201905111230 METAR LRBM 111230Z AUTO 26010KT 230V300 9999 FEW028/// SCT230///
                        19/07 Q1013=
201905111300 METAR LRBM 111300Z AUTO 27008KT 240V310 9999 FEW019/// SCT200///
                        19/08 Q1013=
201905111330 METAR LRBM 111330Z AUTO 26010KT 9999 FEW018/// SCT200///
                        19/08 Q1013=
201905111400 METAR LRBM 111400Z AUTO 25009KT 9999 FEW018/// SCT200///
                        19/09 Q1013=
201905111430 METAR LRBM 111430Z AUTO 27009KT 9999 FEW021/// SCT210///
                        19/09 Q1013=
201905111500 METAR LRBM 111500Z AUTO 26008KT 9999 FEW033/// SCT240///
                        20/08 Q1013=
201905111530 METAR LRBM 111530Z AUTO 28007KT 250V310 9999 FEW015/// SCT190///
                        18/09 Q1013=
201905111600 METAR LRBM 111600Z AUTO 28005KT 9999 FEW018/// SCT230///
                        18/09 Q1014=
201905111630 METAR LRBM 111630Z AUTO 29004KT 9999 FEW041/// SCT220///
                        18/10 Q1014=
201905111700 METAR LRBM 111700Z AUTO 31003KT 280V340 9999 FEW018/// SCT230///
                        17/09 Q1014=
201905111730 METAR LRBM 111730Z AUTO 33002KT 300V010 9999 FEW016/// SCT190///
                        16/10 Q1014=
201905111800 METAR LRBM 111800Z AUTO 01003KT 340V050 9999 FEW028/// SCT190///
                        15/10 Q1015=
201905111830 METAR LRBM 111830Z AUTO 05003KT 9999 FEW028/// SCT200///
                        14/10 Q1015=
201905111900 METAR LRBM 111900Z AUTO 06002KT 9999 FEW029/// SCT190///
                        13/10 Q1015=
201905111930 METAR LRBM 111930Z AUTO 05004KT 9999 FEW032/// SCT240///
                        14/09 Q1016=
201905112000 METAR LRBM 112000Z AUTO 06003KT 010V080 9999 FEW016/// SCT200///
                        13/09 Q1016=
201905112030 METAR LRBM 112030Z AUTO 00000KT 9999 FEW032/// SCT210///
                        12/09 Q1016=
201905112100 METAR LRBM 112100Z AUTO 11005KT 9999 FEW030/// SCT230///
                        12/09 Q1016=
201905112130 METAR LRBM 112130Z AUTO 07006KT 9999 FEW036/// SCT210///
                        11/09 Q1016=
201905112200 METAR LRBM 112200Z AUTO 05002KT 9999 FEW042/// SCT200///
                        11/08 Q1016=
201905112230 METAR LRBM 112230Z AUTO 03004KT 9999 FEW016/// SCT220///
                        ///// Q1016=
201905112300 METAR LRBM 112300Z AUTO 00000KT 9999 FEW044/// SCT220///
                        10/08 Q1016=
201905112330 METAR LRBM 112330Z AUTO 05002KT 010V080 9999 FEW075/// SCT240///
                        09/08 Q1016=
201905120000 METAR LRBM 120000Z AUTO VRB01KT 9999 FEW015/// SCT240///
                        10/07 Q1016=
201905120030 METAR LRBM 120030Z AUTO 07002KT 040V110 9999 FEW085/// SCT220///
                        09/07 Q1016=
201905120100 METAR LRBM 120100Z AUTO 07003KT 9999 FEW046/// SCT230///
                        09/07 Q1016=
201905120130 METAR LRBM 120130Z AUTO 06002KT 9999 FEW049/// SCT200///
                        09/07 Q1016=
201905120200 METAR LRBM 120200Z AUTO 13001KT 9000 FEW027/// SCT210///
                        09/07 Q1016=
201905120230 METAR LRBM 120230Z AUTO 14002KT 100V170 6000 FEW110/// SCT230///
                        09/07 Q1016=
201905120300 METAR LRBM 120300Z AUTO 08005KT 9999 FEW075/// SCT200///
                        09/07 Q1017=
201905120330 METAR LRBM 120330Z AUTO 05004KT 9999 FEW100/// SCT240///
                        09/07 Q1017=
201905120400 METAR LRBM 120400Z AUTO 07003KT 9999 FEW090/// SCT220///
                        10/08 Q1017=
201905120430 METAR LRBM 120430Z AUTO 12003KT 080V180 9999 FEW085/// SCT210///
                        11/08 Q1017=
201905120500 METAR LRBM 120500Z AUTO 13003KT 9999 FEW095/// SCT220///
                        12/08 Q1017=
201905120530 METAR LRBM 120530Z AUTO 12004KT 100V160 9999 FEW090/// SCT220///
                        13/09 Q1018=
201905120600 METAR LRBM 120600Z AUTO 11003KT 080V140 9999 FEW028/// SCT230///
                        15/09 Q1018=
201905120630 METAR LRBM 120630Z AUTO 10003KT 060V140 9999 FEW028/// SCT240///
                        16/10 Q1018=
201905120700 METAR LRBM 120700Z AUTO 13004KT 060V170 9999 FEW034/// SCT240///
                        17/10 Q1018=
201905120730 METAR LRBM 120730Z AUTO 12004KT 070V160 9999 FEW025/// SCT230///
                        18/09 Q1017=
201905120800 METAR LRBM 120800Z 12005KT 060V160 9999 FEW032 19/09 Q1017=
201905120830 METAR LRBM 120830Z 13007KT 9999 FEW034 20/09 Q1017=
201905120900 METAR LRBM 120900Z 10005KT 050V180 9999 FEW036 21/09 Q1017=
201905120930 METAR LRBM 120930Z 14007KT 090V170 9999 FEW038 21/08 Q1017=
201905121000 METAR LRBM 121000Z 13007KT 9999 FEW040 21/09 Q1017=
201905121030 METAR LRBM 121030Z 15005KT 080V210 9999 FEW040 21/09 Q1017=
201905121100 METAR LRBM 121100Z 09005KT 020V130 9999 FEW042 22/06 Q1017=
201905121130 METAR LRBM 121130Z 08005KT 030V120 9999 FEW042 22/07 Q1017=
201905121200 METAR LRBM 121200Z 04004KT 320V130 9999 FEW044 23/06 Q1017=
201905121230 METAR LRBM 121230Z 14007KT 9999 FEW044 23/05 Q1017=
201905121300 METAR LRBM 121300Z 10007KT 080V140 9999 FEW044 23/05 Q1016=
201905121330 METAR LRBM 121330Z VRB04KT 9999 FEW044 24/04 Q1016=
201905121400 METAR LRBM 121400Z AUTO 15004KT 070V190 9999 FEW015/// SCT190///
                        24/03 Q1016=
201905121430 METAR LRBM 121430Z AUTO 15005KT 080V190 9999 FEW016/// SCT190///
                        24/04 Q1016=
201905121500 METAR LRBM 121500Z AUTO 11003KT 050V170 9999 FEW022/// SCT230///
                        24/05 Q1016=
201905121530 METAR LRBM 121530Z AUTO 13004KT 100V160 9999 FEW015/// SCT170///
                        BKN240/// 23/05 Q1016=
201905121600 METAR LRBM 121600Z AUTO 17002KT 140V200 9999 FEW030/// SCT180///
                        23/06 Q1016=
201905121630 METAR LRBM 121630Z AUTO 36002KT 9999 FEW012/// SCT230///
                        24/06 Q1016=
201905121700 METAR LRBM 121700Z VRB02KT 9999 FEW044CB 22/10 Q1017=
201905121730 METAR LRBM 121730Z 05005KT 020V090 9999 FEW044CB 20/08 Q1017=
201905121800 METAR LRBM 121800Z 02002KT 9999 FEW050 19/08 Q1017=
201905121830 METAR LRBM 121830Z VRB02KT 9999 FEW052 17/09 Q1017=
201905121900 METAR LRBM 121900Z VRB02KT 9999 FEW055 15/09 Q1018=
201905121930 METAR LRBM 121930Z 04004KT 9999 FEW058 17/08 Q1018=
201905122000 METAR LRBM 122000Z VRB02KT CAVOK 15/09 Q1018=
201905122030 METAR LRBM 122030Z 05004KT CAVOK 14/08 Q1018=
201905122100 METAR LRBM 122100Z 06005KT CAVOK 14/09 Q1018=
201905122130 METAR LRBM 122130Z AUTO 07005KT 9999 FEW042/// SCT210///
                        14/09 Q1018=
201905122200 METAR LRBM 122200Z AUTO 06004KT 9999 FEW075/// SCT230///
                        15/08 Q1019=
201905122230 METAR LRBM 122230Z AUTO 06005KT 9999 FEW040/// SCT230///
                        14/08 Q1019=
201905122300 METAR LRBM 122300Z AUTO 06003KT 9999 FEW110/// SCT240///
                        14/08 Q1019=
201905122330 METAR LRBM 122330Z AUTO 00000KT 9999 FEW065/// SCT220///
                        13/09 Q1019=
201905130000 METAR LRBM 130000Z AUTO 06005KT 9999 FEW060/// SCT230///
                        15/08 Q1019=
201905130030 METAR LRBM 130030Z AUTO 04002KT 010V070 9999 FEW060/// SCT230///
                        15/08 Q1019=
201905130100 METAR LRBM 130100Z AUTO VRB01KT 9999 FEW070/// SCT230///
                        14/09 Q1019=
201905130130 METAR LRBM 130130Z AUTO 36001KT 9999 FEW046/// SCT230///
                        14/09 Q1019=
201905130200 METAR LRBM 130200Z 00000KT CAVOK 14/09 Q1019=
201905130230 METAR LRBM 130230Z 08004KT CAVOK 13/09 Q1019=
201905130300 METAR LRBM 130300Z 09006KT CAVOK 13/08 Q1019=
201905130330 METAR LRBM 130330Z 07004KT CAVOK 13/08 Q1020=
201905130400 METAR LRBM 130400Z 07002KT 020V090 CAVOK 13/09 Q1020=
201905130430 METAR LRBM 130430Z 06003KT CAVOK 15/09 Q1020=
201905130500 METAR LRBM 130500Z 06004KT 030V090 CAVOK 17/09 Q1020=
201905130530 METAR LRBM 130530Z 27004KT CAVOK 16/11 Q1020=
201905130600 METAR LRBM 130600Z 24004KT CAVOK 17/12 Q1021=
201905130630 METAR LRBM 130630Z 26002KT 230V300 CAVOK 18/12 Q1021=
201905130700 METAR LRBM 130700Z 22003KT 180V250 CAVOK 19/11 Q1020=
201905130730 METAR LRBM 130730Z 21002KT 150V260 CAVOK 21/10 Q1020=
201905130800 METAR LRBM 130800Z 17004KT 150V220 9999 FEW036 22/07 Q1020=
201905130830 METAR LRBM 130830Z 06003KT 020V130 9999 SCT036 22/08 Q1020=
201905130900 METAR LRBM 130900Z 14003KT 110V180 9999 BKN040 22/06 Q1020=
201905130930 METAR LRBM 130930Z 00000KT 9999 BKN043 23/06 Q1020=
201905131000 METAR LRBM 131000Z 02002KT 9999 FEW040TCU SCT045 23/06 Q1020=
201905131030 METAR LRBM 131030Z 08003KT 030V110 9999 FEW042CB SCT045 23/06
                        Q1020=
201905131100 METAR LRBM 131100Z 02003KT 310V080 9999 FEW043CB SCT046 24/07
                        Q1020=
201905131130 METAR LRBM 131130Z 09005KT 060V150 9999 SCT046 24/05 Q1020=
201905131200 METAR LRBM 131200Z VRB04KT 9999 SCT045 24/05 Q1019=
201905131230 METAR LRBM 131230Z 09005KT 030V160 9999 SCT045 25/05 Q1019=
201905131300 METAR LRBM 131300Z 15005KT 9999 SCT045 24/07 Q1019=
201905131330 METAR LRBM 131330Z 21004KT 140V250 9999 SCT047 24/05 Q1018=
201905131400 METAR LRBM 131400Z 19004KT 150V230 9999 FEW044TCU SCT047
                        24/07 Q1018=
201905131430 METAR LRBM 131430Z 22004KT 9999 FEW040TCU SCT045 23/07 Q1018=
201905131500 METAR LRBM 131500Z 20002KT 9999 FEW040TCU SCT045 24/08 Q1018=
201905131530 METAR LRBM 131530Z 29003KT 240V360 9999 FEW042CB SCT046 24/07
                        Q1018=
201905131600 METAR LRBM 131600Z 05008KT 010V090 9999 SCT040 SCT043CB 20/09
                        Q1018=
201905131630 METAR LRBM 131630Z 01004KT 320V090 9999 SCT040 SCT044CB 20/09
                        Q1018=
201905131700 METAR LRBM 131700Z 02004KT 350V070 9999 FEW042 FEW046CB 20/08
                        Q1018=
201905131730 METAR LRBM 131730Z 04003KT 320V100 9999 FEW042 FEW046CB 20/08
                        Q1018=
201905131800 METAR LRBM 131800Z 15004KT 120V210 9999 FEW042 FEW045CB 18/09
                        Q1018=
201905131830 METAR LRBM 131830Z VRB02KT 9999 FEW045 17/11 Q1019=
201905131900 METAR LRBM 131900Z VRB01KT 9999 FEW045 16/11 Q1019=
201905131930 METAR LRBM 131930Z 29002KT 9999 FEW047 15/11 Q1019=
201905132000 METAR LRBM 132000Z VRB01KT CAVOK 14/11 Q1019=
201905132030 METAR LRBM 132030Z VRB01KT CAVOK 14/11 Q1019=
201905132100 METAR LRBM 132100Z 29003KT 260V320 CAVOK 15/11 Q1019=
201905132130 METAR LRBM 132130Z AUTO 25003KT 9999 FEW039/// SCT240///
                        14/11 Q1019=
201905132200 METAR LRBM 132200Z AUTO 27003KT 220V300 9999 FEW065/// SCT230///
                        14/11 Q1019=
201905132230 METAR LRBM 132230Z AUTO 18002KT 9999 FEW016/// SCT210///
                        13/11 Q1019=
201905132300 METAR LRBM 132300Z AUTO 12001KT 9999 FEW027/// SCT230///
                        12/10 Q1019=
201905132330 METAR LRBM 132330Z AUTO 13002KT 9999 FEW024/// SCT220///
                        12/10 Q1019=
201905140000 METAR LRBM 140000Z AUTO 09002KT 9999 FEW032/// SCT230///
                        11/10 Q1019=
201905140030 METAR LRBM 140030Z AUTO 12002KT 090V160 9999 FEW080/// SCT240///
                        11/09 Q1018=
201905140100 METAR LRBM 140100Z AUTO 10003KT 060V120 9999 FEW085/// SCT220///
                        11/09 Q1018=
201905140130 METAR LRBM 140130Z AUTO 12003KT 090V150 9999 FEW065/// SCT200///
                        11/09 Q1018=
201905140200 METAR LRBM 140200Z VRB02KT 9999 FEW060 10/08 Q1018=
201905140230 METAR LRBM 140230Z 09002KT CAVOK 10/08 Q1017=
201905140300 METAR LRBM 140300Z VRB01KT CAVOK 09/08 Q1017=
201905140330 METAR LRBM 140330Z 06001KT 9999 FEW047 09/08 Q1017=
201905140400 METAR LRBM 140400Z 00000KT 9999 SCT053 10/09 Q1017=
201905140430 METAR LRBM 140430Z VRB02KT 9999 SCT053 11/09 Q1017=
201905140500 METAR LRBM 140500Z 00000KT 9999 FEW055 11/09 Q1017=
201905140530 METAR LRBM 140530Z 15001KT 9999 FEW060 12/09 Q1017=
201905140600 METAR LRBM 140600Z 17003KT 9999 SCT055 12/10 Q1017=
201905140630 METAR LRBM 140630Z VRB02KT 9999 BKN058 12/10 Q1017=
201905140700 METAR LRBM 140700Z 17005KT 9999 BKN055 12/10 Q1018=
201905140730 METAR LRBM 140730Z 35004KT 330V030 9999 -RA FEW044CB SCT050
                        12/10 Q1017 R09/19//95=
201905140800 METAR LRBM 140800Z 18003KT 130V220 9000 -SHRA FEW046CB BKN050
                        13/11 Q1018 R09/19//95=
201905140830 METAR LRBM 140830Z 03005KT 010V070 7000 SHRA FEW010 SCT037CB
                        BKN040 13/11 Q1018 R09/19//95=
201905140900 METAR LRBM 140900Z VRB03KT 9999 -RA FEW043CB SCT048 14/12
                        Q1017 RESHRA R09/19//95=
201905140930 METAR LRBM 140930Z 26001KT 9999 -RA BKN050 14/12 Q1017 R09/29//95=
201905141000 METAR LRBM 141000Z 27004KT 250V310 9999 -RA FEW003 BKN048
                        14/12 Q1016 R09/29//95=
201905141030 METAR LRBM 141030Z 27003KT 220V330 9999 -RA FEW007 SCT016
                        BKN050 14/12 Q1016 R09/29//95=
201905141100 METAR LRBM 141100Z 25005KT 7000 -RA FEW007 SCT015 BKN050
                        14/12 Q1016 R09/29//95=
201905141130 METAR LRBM 141130Z 29003KT 260V320 9000 -RA FEW003 SCT013
                        BKN048 14/12 Q1016 R09/29//95=
201905141200 METAR LRBM 141200Z 25002KT 210V330 9999 -RA FEW005 SCT017
                        BKN048 14/13 Q1016 R09/29//95=
201905141230 METAR LRBM 141230Z 16003KT 9999 -RA SCT005 SCT018 BKN048
                        14/13 Q1015 R09/29//95=
201905141300 METAR LRBM 141300Z 00000KT 9999 -RA FEW004 SCT006 BKN009
                        14/13 Q1015 R09/29//95=
201905141330 METAR LRBM 141330Z 00000KT 9000 -RA FEW004 SCT006 BKN010
                        14/13 Q1015 R09/29//95=
201905141400 METAR LRBM 141400Z 00000KT 7000 -RA SCT004 SCT028 BKN045
                        14/13 Q1015 R09/29//95=
201905141430 METAR LRBM 141430Z 06004KT 9999 -RA FEW002 SCT007 BKN033
                        15/14 Q1015 R09/29//95=
201905141500 METAR LRBM 141500Z 10005KT 9999 -RA SCT006 BKN033 15/13 Q1015
                        R09/29//95=
201905141530 METAR LRBM 141530Z 08003KT 9999 -RA FEW008 SCT014 BKN028
                        15/13 Q1015 R09/29//95=
201905141600 METAR LRBM 141600Z 10004KT 9999 -RA FEW008 SCT016 BKN031
                        14/12 Q1015 R09/29//95=
201905141630 METAR LRBM 141630Z 07005KT 9999 -RA FEW010 SCT018 BKN024
                        14/12 Q1015 R09/29//95=
201905141700 METAR LRBM 141700Z 05005KT 9999 -RA FEW012 SCT020 BKN033
                        13/12 Q1015 R09/29//95=
201905141730 METAR LRBM 141730Z 06007KT 9999 -RA FEW009 SCT018 BKN028
                        14/12 Q1015 R09/29//95=
201905141800 METAR LRBM 141800Z 04006KT 9999 -RA FEW009 SCT033 14/11 Q1015
                        R09/29//95=
201905141830 METAR COR LRBM 141830Z 03004KT 9999 SCT038 13/11 Q1015 R09/29//95=
201905141900 METAR LRBM 141900Z 04002KT 360V080 9999 FEW043 13/11 Q1014
                        R09/29//95=
201905141930 METAR COR LRBM 141930Z 05004KT 9999 FEW046 13/11 Q1014 R09/29//95=
201905142000 METAR LRBM 142000Z 04003KT 9999 FEW053 13/11 Q1014 R09/29//95=
201905142030 METAR LRBM 142030Z 00000KT 9999 FEW058 13/11 Q1014 R09/29//95=
201905142100 METAR LRBM 142100Z 32002KT 270V350 9999 FEW058 13/11 Q1014
                        R09/29//95=
201905142130 METAR LRBM 142130Z AUTO VRB01KT 9999 FEW046/// SCT180///
                        BKN240/// 13/11 Q1014=
201905142200 METAR LRBM 142200Z AUTO 35002KT 320V040 9999 FEW075/// SCT240///
                        12/11 Q1014=
201905142230 METAR LRBM 142230Z AUTO 02001KT 9999 FEW027/// SCT240///
                        12/11 Q1013=
201905142300 METAR LRBM 142300Z AUTO 00000KT 9999 FEW050/// SCT200///
                        12/11 Q1013=
201905142330 METAR LRBM 142330Z AUTO 07003KT 9999 FEW036/// SCT160///
                        12/11 Q1013=
201905150000 METAR LRBM 150000Z AUTO 36003KT 9999 FEW065/// SCT240///
                        12/11 Q1013=
201905150030 METAR LRBM 150030Z AUTO 18002KT 9999 FEW036/// SCT210///
                        12/11 Q1012=
201905150100 METAR LRBM 150100Z AUTO VRB01KT 9999 FEW030/// SCT190///
                        12/11 Q1012=
201905150130 METAR LRBM 150130Z AUTO VRB01KT 9999 FEW035/// SCT220///
                        12/11 Q1012=
201905150200 METAR LRBM 150200Z 03002KT 9999 FEW045 12/11 Q1012 R09/29//95=
201905150230 METAR LRBM 150230Z VRB01KT 9999 FEW048 12/11 Q1012 R09/29//95=
201905150300 METAR LRBM 150300Z 01002KT 9999 FEW040 11/10 Q1011 R09/CLRD//=
201905150330 METAR LRBM 150330Z 04003KT 010V090 9999 FEW040 11/10 Q1012=
201905150400 METAR LRBM 150400Z 01002KT 9999 FEW046 12/11 Q1011=
201905150430 METAR LRBM 150430Z 07004KT 030V090 9999 FEW050 14/10 Q1011=
201905150500 METAR LRBM 150500Z 12002KT CAVOK 14/11 Q1011=
201905150530 METAR LRBM 150530Z 12003KT 070V140 CAVOK 15/12 Q1011=
201905150600 METAR LRBM 150600Z 13003KT 080V150 CAVOK 14/12 Q1011=
201905150630 METAR LRBM 150630Z 08003KT 040V110 CAVOK 15/12 Q1011=
201905150700 METAR LRBM 150700Z VRB01KT 9999 FEW030 17/12 Q1011=
201905150730 METAR COR LRBM 150730Z 15003KT 100V200 9999 FEW030 18/12
                        Q1011=
201905150800 METAR LRBM 150800Z 12003KT 020V180 9999 FEW032 19/11 Q1011=
201905150830 METAR LRBM 150830Z 14006KT 110V170 9999 FEW032 20/11 Q1011=
201905150900 METAR LRBM 150900Z 16006KT 120V210 9999 FEW032 FEW035TCU
                        20/11 Q1011=
201905150930 METAR LRBM 150930Z 20002KT 9999 FEW032 FEW035TCU 20/11 Q1011=
201905151000 METAR LRBM 151000Z 20005KT 140V260 9999 SCT035 20/11 Q1011=
201905151030 METAR LRBM 151030Z 18004KT 9999 FEW032 SCT046 20/11 Q1011=
201905151100 METAR LRBM 151100Z 18002KT 9999 FEW030 SCT046 20/11 Q1011=
201905151130 METAR LRBM 151130Z 28005KT 9999 FEW033CB SCT043 19/12 Q1011=
201905151200 METAR LRBM 151200Z 28011KT 9999 FEW030CB SCT040 17/13 Q1011=
201905151230 METAR LRBM 151230Z 28013KT 270V330 9999 TS FEW020CB SCT026
                        16/13 Q1010=
201905151300 METAR LRBM 151300Z 29011KT 250V310 8000 -TSRA FEW020 FEW026CB
                        SCT030 14/13 Q1011 R09/29//95=
201905151330 METAR LRBM 151330Z 29013KT 9999 FEW013 FEW030CB BKN023 13/12
                        Q1012 RETSRA R09/29//95=
201905151400 METAR LRBM 151400Z 29011KT 9999 BKN026 FEW030CB 13/11 Q1012
                        R09/29//95=
201905151430 METAR LRBM 151430Z 28008KT 250V310 9999 BKN011 13/11 Q1013
                        R09/29//95=
201905151500 METAR LRBM 151500Z 30007KT 260V340 9999 BKN011 13/11 Q1012
                        R09/29//95=
201905151530 METAR LRBM 151530Z 29010KT 9999 BKN011 13/11 Q1013 R09/19//95=
201905151600 METAR LRBM 151600Z 29009KT 270V330 9999 FEW010 BKN016 13/11
                        Q1013 R09/19//95=
201905151630 METAR LRBM 151630Z 29007KT 9999 SCT008 BKN011 12/10 Q1013
                        R09/19//95=
201905151700 METAR LRBM 151700Z 29007KT 9999 FEW010 BKN016 12/10 Q1014
                        R09/19//95=
201905151730 METAR LRBM 151730Z 29005KT 9999 FEW010 BKN015 12/10 Q1014
                        R09/19//95=
201905151800 METAR LRBM 151800Z 27006KT 9999 SCT009 BKN015 12/10 Q1014
                        R09/19//95=
201905151830 METAR LRBM 151830Z 27005KT 240V300 9999 SCT009 BKN015 12/10
                        Q1014 R09/19//95=
201905151900 METAR LRBM 151900Z 30003KT 280V340 9999 FEW010 SCT014 BKN020
                        12/10 Q1014 R09/19//95=
201905151930 METAR LRBM 151930Z 28005KT 260V320 9999 SCT015 BKN023 12/10
                        Q1014 R09/19//95=
201905152000 METAR LRBM 152000Z 29005KT 9999 SCT020 BKN039 12/10 Q1014
                        R09/19//95=
201905152030 METAR LRBM 152030Z 29002KT 250V340 9999 SCT015 BKN025 12/10
                        Q1015 R09/19//95=
201905152100 METAR LRBM 152100Z 30005KT 9999 BKN016 12/10 Q1015 R09/19//95=
201905152130 METAR LRBM 152130Z AUTO 30004KT 9999 BKN018/// 12/10 Q1015=
201905152200 METAR LRBM 152200Z AUTO 28005KT 9999 BKN017/// 12/10 Q1015=
201905152230 METAR LRBM 152230Z AUTO 28006KT 9999 BKN017/// 12/09 Q1015=
201905152300 METAR LRBM 152300Z AUTO 29005KT 9999 -DZ BKN016/// 12/09
                        Q1015=
201905152330 METAR LRBM 152330Z AUTO 28006KT 9999 FEW013/// BKN016///
                        11/09 Q1015 RERA=
201905160000 METAR LRBM 160000Z AUTO 28006KT 9999 SCT013/// BKN016///
                        11/09 Q1015 REDZ=
201905160030 METAR LRBM 160030Z AUTO 29007KT 260V330 9999 BKN012/// OVC015///
                        11/09 Q1015=
201905160100 METAR LRBM 160100Z AUTO 28006KT 9999 FEW013/// BKN023///
                        BKN240/// 11/09 Q1015=
201905160130 METAR LRBM 160130Z AUTO 28006KT 9999 SCT019/// BKN022///
                        BKN220/// 11/09 Q1014=
201905160200 METAR LRBM 160200Z 27007KT 9999 FEW004 BKN019 11/09 Q1014
                        R09/CLRD//=
201905160230 METAR COR LRBM 160230Z 28006KT 250V310 9999 FEW004 BKN018
                        11/09 Q1014=
201905160300 METAR LRBM 160300Z 28006KT 250V310 9999 FEW004 BKN017 11/09
                        Q1014=
201905160330 METAR LRBM 160330Z 27004KT 250V310 9999 FEW004 SCT010 BKN014
                        11/09 Q1014=
201905160400 METAR LRBM 160400Z 29006KT 9999 FEW005 SCT007 OVC009 11/09
                        Q1014=
201905160430 METAR LRBM 160430Z 28005KT 260V320 9999 FEW007 BKN009 OVC011
                        11/09 Q1014=
201905160500 METAR LRBM 160500Z 28006KT 9999 FEW005 BKN008 OVC010 11/09
                        Q1014=
201905160530 METAR LRBM 160530Z 28006KT 9999 SCT005 BKN007 OVC010 11/09
                        Q1014=
201905160600 METAR LRBM 160600Z 28007KT 9999 BKN004 OVC006 11/10 Q1015=
201905160630 METAR LRBM 160630Z 27007KT 9999 SCT004 OVC006 11/10 Q1014=
201905160700 METAR LRBM 160700Z 27008KT 9999 SCT005 OVC007 12/10 Q1014=
201905160730 METAR LRBM 160730Z 27009KT 9999 SCT005 OVC008 12/10 Q1014=
201905160800 METAR LRBM 160800Z 27009KT 9999 FEW005 BKN009 12/11 Q1014=
201905160830 METAR LRBM 160830Z 26010KT 9999 FEW005 BKN007 BKN028 13/11
                        Q1014=
201905160900 METAR LRBM 160900Z 27008KT 9999 SCT007 BKN010 14/12 Q1014=
201905160930 METAR LRBM 160930Z 27008KT 9999 FEW009 SCT012 BKN016 14/11
                        Q1013=
201905161000 METAR LRBM 161000Z 27007KT 9999 FEW009 SCT011 BKN014 14/11
                        Q1013=
201905161030 METAR LRBM 161030Z 27005KT 9999 SCT010 BKN013 14/11 Q1013=
201905161100 METAR LRBM 161100Z 26004KT 210V280 9999 SCT010 OVC014 14/11
                        Q1013=
201905161130 METAR LRBM 161130Z 27005KT 9999 SCT010 OVC013 14/11 Q1013=
201905161200 METAR LRBM 161200Z 28004KT 240V330 9999 BKN011 OVC014 14/11
                        Q1013=
201905161230 METAR LRBM 161230Z 26004KT 9999 -RA SCT012 BKN015 14/11 Q1013
                        R09/19//95=
201905161300 METAR LRBM 161300Z 28003KT 9999 -RA SCT012 OVC016 14/11 Q1013
                        R09/19//95=
201905161330 METAR LRBM 161330Z 27005KT 9999 -RA SCT011 OVC015 15/12 Q1012
                        R09/19//95=
201905161400 METAR LRBM 161400Z 26006KT 9999 -RA SCT012 OVC016 14/12 Q1012
                        R09/19//95=
201905161430 METAR LRBM 161430Z 26005KT 9999 -RA FEW012 OVC016 14/12 Q1012
                        R09/19//95=
201905161500 METAR LRBM 161500Z 27005KT 9999 -RA FEW008 BKN017 14/12 Q1012
                        R09/19//95=
201905161530 METAR LRBM 161530Z 27005KT 9999 -RA FEW007 BKN016 14/12 Q1012
                        R09/19//95=
201905161600 METAR LRBM 161600Z 26004KT 9999 -RA FEW006 BKN018 14/12 Q1012
                        R09/19//95=
201905161630 METAR LRBM 161630Z 27003KT 9999 FEW007 BKN020 14/13 Q1012
                        R09/19//95=
201905161700 METAR LRBM 161700Z 23002KT 9999 FEW006 BKN018 14/13 Q1012
                        R09/19//95=
201905161730 METAR LRBM 161730Z 24001KT 9999 FEW006 SCT012 BKN018 14/12
                        Q1012 R09/19//95=
201905161800 METAR LRBM 161800Z VRB01KT 9999 -DZ FEW006 BKN012 BKN018
                        14/13 Q1012 R09/19//95=
201905161830 METAR LRBM 161830Z 10001KT 9999 FEW004 SCT013 BKN016 14/13
                        Q1012 R09/19//95=
201905161900 METAR LRBM 161900Z 12002KT 9999 FEW004 BKN015 14/13 Q1013
                        R09/19//95=
201905161930 METAR LRBM 161930Z VRB02KT 9999 FEW006 BKN015 14/12 Q1012
                        R09/19//95=
201905162000 METAR LRBM 162000Z 06002KT 9999 FEW005 BKN016 14/13 Q1012
                        R09/19//95=
201905162030 METAR LRBM 162030Z 00000KT 9999 FEW005 SCT016 BKN020 14/12
                        Q1012 R09/19//95=
201905162100 METAR LRBM 162100Z VRB01KT 9999 FEW005 SCT013 BKN020 14/12
                        Q1012 R09/19//95=
201905162130 METAR LRBM 162130Z AUTO 11002KT 8000 BKN015/// 13/12 Q1013=
201905162200 METAR LRBM 162200Z AUTO 00000KT 9999 SCT016/// BKN029///
                        13/12 Q1012=
201905162230 METAR LRBM 162230Z AUTO 00000KT 9000 FEW016/// BKN019///
                        BKN220/// 13/12 Q1012=
201905162300 METAR LRBM 162300Z AUTO 00000KT 8000 SCT018/// BKN021///
                        13/12 Q1012=
201905162330 METAR LRBM 162330Z AUTO VRB01KT 7000 FEW019/// SCT022///
                        BKN240/// 13/12 Q1012=
201905170000 METAR LRBM 170000Z AUTO 08001KT 9000 BKN023/// 13/12 Q1012=
201905170030 METAR LRBM 170030Z AUTO 08001KT 7000 FEW023/// SCT027///
                        BKN120/// 13/12 Q1012=
201905170100 METAR LRBM 170100Z AUTO 00000KT 5000 FEW002/// SCT024///
                        BKN042/// 13/12 Q1012=
201905170130 METAR LRBM 170130Z AUTO 10002KT 4800 SCT002/// BKN005///
                        BKN080/// 13/12 Q1012=
201905170200 METAR LRBM 170200Z 08002KT 9999 -RA FEW007 SCT023 13/12 Q1012
                        R09/19//95=
201905170230 METAR LRBM 170230Z 00000KT 9999 SCT020 13/12 Q1012 R09/19//95=
201905170300 METAR LRBM 170300Z VRB01KT 7000 SCT020 13/12 Q1012 R09/19//95=
201905170330 METAR LRBM 170330Z 28002KT 9999 -RA FEW001 SCT016 BKN042
                        12/11 Q1012 R09/19//95=
201905170400 METAR LRBM 170400Z 03001KT 9999 FEW016 SCT023 13/12 Q1012
                        R09/19//95=
201905170430 METAR LRBM 170430Z 13002KT 9999 FEW016 SCT023 13/12 Q1013
                        R09/19//95=
201905170500 METAR LRBM 170500Z 17003KT 9999 FEW003 SCT024 13/12 Q1013
                        R09/19//95=
201905170530 METAR LRBM 170530Z 18003KT 9999 FEW003 SCT021 BKN055 13/12
                        Q1013 R09/19//95=
201905170600 METAR LRBM 170600Z VRB01KT 9999 FEW016 SCT023 BKN050 14/12
                        Q1013 R09/19//95=
201905170630 METAR LRBM 170630Z VRB01KT 9999 FEW006 BKN024 14/12 Q1014
                        R09/19//95=
201905170700 METAR LRBM 170700Z 09002KT 9999 FEW008 SCT024 15/12 Q1014
                        R09/19//95=
201905170730 METAR LRBM 170730Z 09004KT 050V150 9999 SCT020 16/12 Q1014
                        R09/19//95=
201905170800 METAR LRBM 170800Z 09004KT 020V140 9999 FEW016 SCT024 17/12
                        Q1014 R09/19//95=
201905170830 METAR LRBM 170830Z 08005KT 9999 BKN025 17/12 Q1013 R09/19//95=
201905170900 METAR LRBM 170900Z 11004KT 050V210 9999 BKN028 18/12 Q1013
                        R09/19//95=
201905170930 METAR LRBM 170930Z 15004KT 100V200 9999 SCT028 19/12 Q1013
                        R09/19//95=
201905171000 METAR LRBM 171000Z 16005KT 100V220 9999 SCT030 20/13 Q1013
                        R09/19//95=
201905171030 METAR LRBM 171030Z 08003KT 9999 SCT030 20/12 Q1013 R09/19//95=
201905171100 METAR LRBM 171100Z 24004KT 200V320 9999 SCT030 20/11 Q1012
                        R09/19//95=
201905171130 METAR LRBM 171130Z 22005KT 170V260 9999 SCT033 21/12 Q1012
                        R09/CLRD//=
201905171200 METAR LRBM 171200Z 20005KT 170V270 9999 SCT033 21/11 Q1012=
201905171230 METAR LRBM 171230Z 25005KT 210V280 9999 SCT036 22/12 Q1012=
201905171300 METAR LRBM 171300Z 27003KT 230V300 9999 SCT036 22/11 Q1012=
201905171330 METAR LRBM 171330Z 27003KT 230V300 9999 SCT036 22/11 Q1012=
201905171400 METAR LRBM 171400Z 28005KT 260V330 9999 FEW040 21/12 Q1012=
201905171430 METAR LRBM 171430Z AUTO 29006KT 260V320 9999 FEW020/// SCT190///
                        21/12 Q1011=
201905171500 METAR LRBM 171500Z AUTO 28008KT 9999 FEW009/// SCT160///
                        21/13 Q1011=
201905171530 METAR LRBM 171530Z AUTO 29005KT 9999 FEW010/// SCT170///
                        BKN240/// 21/12 Q1011=
201905171600 METAR LRBM 171600Z AUTO 27008KT 9999 FEW010/// SCT150///
                        20/13 Q1011=
201905171630 METAR LRBM 171630Z AUTO 27008KT 9999 VCTS FEW035/// SCT190///
                        19/12 Q1012=
201905171700 METAR LRBM 171700Z AUTO 25012KT 220V280 9999 FEW018/// SCT180///
                        19/12 Q1012=
201905171730 METAR LRBM 171730Z AUTO 26008KT 9999 FEW033/// SCT220///
                        18/12 Q1012=
201905171800 METAR LRBM 171800Z AUTO 28003KT 9999 FEW036/// SCT220///
                        17/13 Q1012=
201905171830 METAR LRBM 171830Z AUTO 20004KT 9999 FEW014/// SCT200///
                        16/14 Q1012=
201905171900 METAR LRBM 171900Z AUTO 09003KT 050V130 9999 FEW017/// SCT210///
                        15/13 Q1012=
201905171930 METAR LRBM 171930Z AUTO 09004KT 9999 FEW029/// SCT210///
                        15/14 Q1012=
201905172000 METAR LRBM 172000Z AUTO VRB01KT 9999 FEW017/// SCT240///
                        16/14 Q1013=
201905172030 METAR LRBM 172030Z AUTO 09007KT 9999 FEW009/// SCT022///
                        BKN031/// 16/14 Q1014=
201905172100 METAR LRBM 172100Z AUTO 06004KT 010V090 9999 RA SCT015///
                        BKN023/// BKN046/// 15/14 Q1014=
201905172130 METAR LRBM 172130Z AUTO 04004KT 9999 FEW007/// SCT050///
                        BKN240/// 15/14 Q1013=
201905172200 METAR LRBM 172200Z AUTO 01003KT 320V070 9999 FEW009/// SCT170///
                        15/13 Q1013=
201905172230 METAR LRBM 172230Z AUTO 36002KT 330V040 9999 FEW037/// SCT200///
                        15/13 Q1013=
201905172300 METAR LRBM 172300Z AUTO 04005KT 010V070 9999 FEW042/// SCT230///
                        15/13 Q1012=
201905172330 METAR LRBM 172330Z AUTO 02003KT 350V050 9999 FEW032/// SCT210///
                        15/13 Q1012=
201905180000 METAR LRBM 180000Z AUTO 03001KT 9999 FEW041/// SCT230///
                        15/13 Q1012=
201905180030 METAR LRBM 180030Z AUTO 08006KT 9999 FEW042/// SCT230///
                        15/13 Q1012=
201905180100 METAR LRBM 180100Z AUTO 10002KT 9999 FEW060/// SCT220///
                        14/12 Q1012=
201905180130 METAR LRBM 180130Z AUTO 05005KT 010V080 9999 FEW025/// SCT220///
                        14/12 Q1012=
201905180200 METAR LRBM 180200Z AUTO 04002KT 010V100 9999 FEW080/// SCT210///
                        13/12 Q1012=
201905180230 METAR LRBM 180230Z AUTO 02004KT 360V080 9999 FEW033/// SCT210///
                        13/11 Q1011=
201905180300 METAR LRBM 180300Z AUTO 36002KT 340V050 9999 FEW070/// SCT230///
                        13/11 Q1011=
201905180330 METAR LRBM 180330Z AUTO 02004KT 340V060 9999 FEW100/// SCT230///
                        13/11 Q1012=
201905180400 METAR LRBM 180400Z AUTO 06003KT 9999 FEW026/// SCT210///
                        13/11 Q1012=
201905180430 METAR LRBM 180430Z AUTO 04003KT 360V080 9999 FEW070/// SCT230///
                        13/11 Q1011=
201905180500 METAR LRBM 180500Z AUTO 05003KT 010V100 9999 FEW075/// SCT230///
                        14/11 Q1011=
201905180530 METAR LRBM 180530Z AUTO 08004KT 9999 FEW100/// SCT230///
                        14/12 Q1012=
201905180600 METAR LRBM 180600Z AUTO 10003KT 070V130 9999 FEW085/// SCT240///
                        14/12 Q1012=
201905180630 METAR LRBM 180630Z AUTO 12003KT 090V150 9999 FEW095/// SCT240///
                        15/13 Q1012=
201905180700 METAR LRBM 180700Z 10003KT 040V150 9999 SCT050 16/12 Q1012=
201905180730 METAR LRBM 180730Z 10004KT 040V150 9999 FEW050 17/12 Q1012=
201905180800 METAR LRBM 180800Z 16002KT 9999 FEW023 18/13 Q1012=
201905180830 METAR LRBM 180830Z 09003KT 050V120 9999 FEW023 18/13 Q1011=
201905180900 METAR COR LRBM 180900Z 12004KT 070V170 9999 FEW026 20/13
                        Q1011=
201905180930 METAR LRBM 180930Z 17003KT 100V260 9999 FEW028 21/13 Q1011=
201905181000 METAR LRBM 181000Z 18004KT 140V200 9999 FEW028 21/13 Q1010=
201905181030 METAR COR LRBM 181030Z 13005KT 100V170 9999 FEW032 SCT210
                        22/13 Q1010=
201905181100 METAR LRBM 181100Z 15006KT 9999 FEW032 22/15 Q1010=
201905181130 METAR LRBM 181130Z 17003KT 090V210 9999 SCT035 23/13 Q1010=
201905181200 METAR LRBM 181200Z 13006KT 070V180 9999 SCT035 24/12 Q1009=
201905181230 METAR LRBM 181230Z 15006KT 9999 SCT038 24/11 Q1009=
201905181300 METAR LRBM 181300Z 13004KT 100V170 9999 SCT038 24/09 Q1009=
201905181330 METAR LRBM 181330Z 13005KT 090V170 9999 SCT040 24/10 Q1008=
201905181400 METAR LRBM 181400Z 10005KT 9999 SCT043 25/10 Q1008=
201905181430 METAR LRBM 181430Z 14005KT 110V170 9999 SCT045 25/12 Q1007=
201905181500 METAR LRBM 181500Z 16004KT 9999 SCT048 24/12 Q1007=
201905181530 METAR LRBM 181530Z 17003KT 9999 SCT048 24/10 Q1007=
201905181600 METAR LRBM 181600Z VRB02KT 9999 SCT048 25/12 Q1007=
201905181630 METAR LRBM 181630Z 20003KT 160V250 9999 SCT048 24/11 Q1007=
201905181700 METAR LRBM 181700Z 19002KT 160V250 9999 FEW046TCU 24/14 Q1007=
201905181730 METAR LRBM 181730Z 11004KT 9999 FEW050 20/13 Q1008=
201905181800 METAR LRBM 181800Z 21010KT 9999 FEW053 18/13 Q1008=
201905181830 METAR LRBM 181830Z 25002KT 190V320 CAVOK 18/13 Q1009=
201905181900 METAR LRBM 181900Z 05004KT CAVOK 17/12 Q1009=
201905181930 METAR LRBM 181930Z AUTO 04006KT 9999 FEW070/// SCT240///
                        16/13 Q1009=
201905182000 METAR LRBM 182000Z AUTO 03002KT 9999 FEW095/// SCT200///
                        16/12 Q1008=
201905182030 METAR LRBM 182030Z AUTO 06004KT 9999 FEW090/// SCT230///
                        15/13 Q1008=
201905182100 METAR LRBM 182100Z AUTO 05002KT 020V080 9999 FEW075/// SCT240///
                        15/13 Q1008=
201905182130 METAR LRBM 182130Z AUTO VRB01KT 9999 FEW100/// SCT220///
                        15/12 Q1008=
201905182200 METAR LRBM 182200Z AUTO VRB01KT 9999 FEW075/// SCT220///
                        14/12 Q1009=
201905182230 METAR LRBM 182230Z AUTO VRB01KT 9999 FEW080/// SCT230///
                        13/11 Q1009=
201905182300 METAR LRBM 182300Z AUTO 04004KT 9999 FEW075/// SCT220///
                        14/12 Q1008=
201905182330 METAR LRBM 182330Z AUTO 03002KT 010V070 9999 FEW034/// SCT210///
                        14/12 Q1008=
201905190000 METAR LRBM 190000Z AUTO VRB01KT 9999 FEW070/// SCT230///
                        13/11 Q1008=
201905190030 METAR LRBM 190030Z AUTO 09005KT 9999 FEW085/// SCT200///
                        13/11 Q1008=
201905190100 METAR LRBM 190100Z AUTO 09005KT 9999 FEW085/// SCT240///
                        13/11 Q1008=
201905190130 METAR LRBM 190130Z AUTO 08004KT 9999 FEW060/// SCT200///
                        12/11 Q1008=
201905190200 METAR LRBM 190200Z AUTO 08004KT 9999 FEW085/// SCT230///
                        12/11 Q1008=
201905190230 METAR LRBM 190230Z AUTO 08006KT 050V110 9999 FEW095/// SCT240///
                        13/11 Q1008=
201905190300 METAR LRBM 190300Z AUTO 08006KT 9999 FEW085/// SCT240///
                        13/11 Q1008=
201905190330 METAR LRBM 190330Z AUTO 07006KT 9999 FEW085/// SCT240///
                        13/11 Q1008=
201905190400 METAR LRBM 190400Z AUTO 09006KT 9999 FEW075/// SCT240///
                        14/11 Q1008=
201905190430 METAR LRBM 190430Z AUTO 14004KT 100V160 9999 FEW075/// SCT200///
                        15/12 Q1008=
201905190500 METAR LRBM 190500Z AUTO 18005KT 9999 FEW075/// SCT240///
                        15/12 Q1009=
201905190530 METAR LRBM 190530Z VRB01KT CAVOK 17/13 Q1009=
201905190600 METAR LRBM 190600Z 00000KT CAVOK 17/14 Q1009=
201905190630 METAR COR LRBM 190630Z 06003KT 020V110 CAVOK 19/13 Q1009=
201905190700 METAR LRBM 190700Z 09004KT 050V120 9999 FEW023 20/13 Q1009=
201905190730 METAR COR LRBM 190730Z 09005KT 060V120 9999 FEW025 21/14
                        Q1009=
201905190800 METAR LRBM 190800Z 10004KT 040V140 9999 FEW026 22/14 Q1009=
201905190830 METAR LRBM 190830Z 12004KT 090V160 9999 FEW030 23/13 Q1008=
201905190900 METAR LRBM 190900Z 13005KT 100V160 9999 FEW030 24/14 Q1008=
201905190930 METAR LRBM 190930Z 13004KT 070V180 9999 SCT033 24/13 Q1008=
201905191000 METAR LRBM 191000Z AUTO 14005KT 090V190 9999 FEW014/// SCT180///
                        25/14 Q1008=
201905191030 METAR LRBM 191030Z 11006KT 070V160 9999 BKN038 25/15 Q1008=
201905191100 METAR LRBM 191100Z 15004KT 040V210 9999 BKN040 25/14 Q1008=
201905191130 METAR LRBM 191130Z 13007KT 090V170 9999 BKN043 26/13 Q1007=
201905191200 METAR LRBM 191200Z 11005KT 070V130 9999 FEW040TCU SCT043
                        26/13 Q1007=
201905191230 METAR LRBM 191230Z 14004KT 100V170 9999 FEW036CB SCT043 25/13
                        Q1007=
201905191300 METAR LRBM 191300Z 18004KT 150V220 9999 FEW033CB SCT040 25/14
                        Q1007=
201905191330 METAR LRBM 191330Z 11006KT 080V150 9999 FEW033CB 26/10 Q1007=
201905191400 METAR LRBM 191400Z 12004KT 090V160 9999 FEW040 27/11 Q1007=
201905191430 METAR LRBM 191430Z 14004KT 100V170 9999 FEW043 27/12 Q1006=
201905191500 METAR LRBM 191500Z 10003KT 070V150 9999 FEW043 27/11 Q1006=
201905191530 METAR COR LRBM 191530Z 11005KT 080V140 9999 FEW046 27/12
                        Q1006=
201905191600 METAR LRBM 191600Z 13004KT 110V180 9999 FEW046 27/11 Q1006=
201905191630 METAR LRBM 191630Z 13004KT 110V180 9999 FEW046 27/11 Q1006=
201905191700 METAR LRBM 191700Z 10005KT CAVOK 24/13 Q1006=
201905191730 METAR LRBM 191730Z 02003KT CAVOK 23/14 Q1006=
201905191800 METAR LRBM 191800Z 02002KT CAVOK 21/14 Q1005=
201905191830 METAR LRBM 191830Z 36002KT CAVOK 20/14 Q1005=
201905191900 METAR LRBM 191900Z 36002KT 320V030 CAVOK 19/14 Q1005=
201905191930 METAR LRBM 191930Z 04002KT 350V080 CAVOK 18/12 Q1005=
201905192000 METAR COR LRBM 192000Z 05003KT CAVOK 19/12 Q1005=
201905192030 METAR COR LRBM 192030Z 08005KT CAVOK 20/11 Q1005=
201905192100 METAR LRBM 192100Z 08007KT CAVOK 19/11 Q1005=
201905192130 METAR LRBM 192130Z AUTO 06006KT 9999 FEW017/// SCT220///
                        20/11 Q1005=
201905192200 METAR LRBM 192200Z AUTO 06005KT 9999 FEW019/// SCT210///
                        20/11 Q1005=
201905192230 METAR LRBM 192230Z AUTO 06004KT 9999 FEW035/// SCT220///
                        20/11 Q1005=
201905192300 METAR LRBM 192300Z AUTO 07005KT 9999 FEW037/// SCT230///
                        21/11 Q1005=
201905192330 METAR LRBM 192330Z AUTO 09008KT 9999 FEW015/// SCT240///
                        21/13 Q1004=
201905200000 METAR LRBM 200000Z AUTO 08010KT 9999 FEW024/// SCT210///
                        22/12 Q1004=
201905200030 METAR LRBM 200030Z AUTO 11006KT 9999 FEW011/// SCT200///
                        21/12 Q1004=
201905200100 METAR LRBM 200100Z AUTO 22016KT 9999 FEW022/// SCT200///
                        19/12 Q1007=
201905200130 METAR LRBM 200130Z AUTO 25011KT 9999 FEW024/// SCT210///
                        17/11 Q1008=
201905200200 METAR LRBM 200200Z 24005KT 9999 -SHRA FEW038CB BKN042 17/11
                        Q1008=
201905200230 METAR LRBM 200230Z 11003KT 050V190 9999 BKN043 17/11 Q1008=
201905200300 METAR LRBM 200300Z 09005KT 050V130 9999 BKN047 17/12 Q1007=
201905200330 METAR LRBM 200330Z 10003KT 9999 FEW047CB SCT053 16/12 Q1007=
201905200400 METAR LRBM 200400Z 06005KT 9999 FEW047CB SCT055 17/11 Q1007=
201905200430 METAR LRBM 200430Z 09004KT 050V110 9999 FEW045CB 18/11 Q1007=
201905200500 METAR LRBM 200500Z 06006KT 030V090 9999 FEW047CB 19/11 Q1006=
201905200530 METAR LRBM 200530Z 11004KT 070V130 9999 FEW047CB 20/12 Q1006=
201905200600 METAR LRBM 200600Z 14005KT 110V170 9999 SCT053 19/13 Q1006=
201905200630 METAR LRBM 200630Z VRB02KT 9999 BKN055 19/13 Q1007=
201905200700 METAR LRBM 200700Z 29007KT 260V320 9999 BKN055 17/12 Q1007=
201905200730 METAR LRBM 200730Z 28006KT 9999 BKN057 17/13 Q1007=
201905200800 METAR LRBM 200800Z 26007KT 9999 BKN055 17/13 Q1008=
201905200830 METAR LRBM 200830Z 27007KT 9999 BKN053 17/13 Q1008=
201905200900 METAR LRBM 200900Z 26008KT 9999 BKN053 17/13 Q1008=
201905200930 METAR LRBM 200930Z 26009KT 9999 BKN053 17/13 Q1009=
201905201000 METAR LRBM 201000Z 29006KT 9999 FEW043 18/13 Q1008=
201905201030 METAR LRBM 201030Z 24011KT 9999 FEW040 18/13 Q1008=
201905201100 METAR LRBM 201100Z 31007KT 270V340 9999 VCTS FEW043CB SCT060
                        17/13 Q1008=
201905201130 METAR LRBM 201130Z 25011KT 9999 TS FEW043CB BKN056 17/14
                        Q1009=
201905201200 METAR LRBM 201200Z 26005KT 230V290 6000 TSRA SCT040CB OVC060
                        16/14 Q1009=
201905201230 METAR LRBM 201230Z 26005KT 220V300 9999 -SHRA FEW033CB BKN060
                        15/14 Q1009=
201905201300 METAR LRBM 201300Z 01002KT 330V060 9999 -RA SCT024 BKN055
                        16/15 Q1009=
201905201330 METAR LRBM 201330Z 05004KT 350V090 9999 -RA FEW007 BKN033
                        16/15 Q1009=
201905201400 METAR LRBM 201400Z VRB01KT 9999 -RA FEW013 BKN050 16/15 Q1008=
201905201430 METAR LRBM 201430Z 05004KT 9999 FEW040 BKN055 17/15 Q1008=
201905201500 METAR LRBM 201500Z 08006KT 9999 -SHRA FEW043CB BKN060 16/14
                        Q1007=
201905201530 METAR LRBM 201530Z 15005KT 9999 -SHRA FEW043CB BKN050 16/14
                        Q1009=
201905201600 METAR LRBM 201600Z 07008KT 9999 -SHRA FEW040CB BKN055 15/14
                        Q1008 R09/29//95=
201905201630 METAR LRBM 201630Z 09005KT 9999 FEW050CB SCT060 15/14 Q1008
                        R09/29//95=
201905201700 METAR LRBM 201700Z 03003KT 9999 FEW030 15/13 Q1007 R09/29//95=
201905201730 METAR LRBM 201730Z 07005KT 9999 FEW050 15/13 Q1007 R09/29//95=
201905201800 METAR LRBM 201800Z 11004KT 9999 FEW050 15/13 Q1007 R09/29//95=
201905201830 METAR LRBM 201830Z 05004KT 9999 FEW040 14/13 Q1007 R09/29//95=
201905201900 METAR LRBM 201900Z VRB01KT CAVOK 14/12 Q1007 R09/29//95=
201905201930 METAR LRBM 201930Z 06002KT CAVOK 13/12 Q1007 R09/29//95=
201905202000 METAR LRBM 202000Z 01003KT CAVOK 13/12 Q1007 R09/29//95=
201905202030 METAR LRBM 202030Z 03002KT CAVOK 13/12 Q1007 R09/19//95=
201905202100 METAR LRBM 202100Z 00000KT CAVOK 13/12 Q1007 R09/19//95=
201905202130 METAR LRBM 202130Z AUTO 02002KT 360V080 9999 FEW044/// SCT210///
                        13/12 Q1007=
201905202200 METAR LRBM 202200Z AUTO 08005KT 9999 FEW095/// SCT240///
                        13/12 Q1007=
201905202230 METAR LRBM 202230Z AUTO 05005KT 9999 FEW016/// SCT210///
                        13/12 Q1007=
201905202300 METAR LRBM 202300Z AUTO 06004KT 9999 FEW008/// SCT031///
                        BKN190/// 13/12 Q1007=
201905202330 METAR LRBM 202330Z AUTO 07003KT 030V100 9999 FEW008/// SCT011///
                        BKN023/// 13/12 Q1007=
201905210000 METAR LRBM 210000Z AUTO 13002KT 100V160 9999 FEW006/// BKN012///
                        BKN020/// 13/12 Q1006=
201905210030 METAR LRBM 210030Z AUTO 31002KT 280V060 7000 FEW002/// SCT005///
                        BKN008/// 13/12 Q1006=
201905210100 METAR LRBM 210100Z AUTO 28002KT 250V320 9999 FEW002/// BKN011///
                        BKN160/// 13/12 Q1006=
201905210130 METAR LRBM 210130Z AUTO 33003KT 300V360 8000 FEW009/// BKN011///
                        BKN070/// 13/12 Q1006=
201905210200 METAR LRBM 210200Z 29002KT 230V340 8000 RA FEW007 BKN010
                        OVC013 13/12 Q1006 R09/29//95=
201905210230 METAR LRBM 210230Z 22005KT 9999 -RA FEW006 BKN010 BKN014
                        13/12 Q1007 RERA R09/29//95=
201905210300 METAR LRBM 210300Z 24006KT 9999 -RA FEW006 SCT017 BKN022
                        13/12 Q1007 R09/29//95=
201905210330 METAR LRBM 210330Z 25004KT 9999 -RA FEW007 SCT013 BKN023
                        13/12 Q1007 R09/29//95=
201905210400 METAR LRBM 210400Z 20005KT 9999 -RA FEW005 BKN007 BKN011
                        13/12 Q1007 R09/29//95=
201905210430 METAR LRBM 210430Z 21005KT 9999 -RA FEW005 SCT008 BKN010
                        13/12 Q1008 R09/29//95=
201905210500 METAR LRBM 210500Z 20004KT 160V220 9999 -RA FEW005 SCT009
                        BKN011 13/12 Q1008 R09/29//95=
201905210530 METAR LRBM 210530Z 19004KT 9000 -RA FEW005 SCT009 BKN011
                        12/11 Q1008 R09/29//95=
201905210600 METAR LRBM 210600Z 18005KT 7000 RA FEW004 SCT009 BKN011 12/11
                        Q1008 R09/29//95=
201905210630 METAR LRBM 210630Z 20006KT 9999 -RA FEW004 SCT007 BKN012
                        12/11 Q1008 RERA R09/29//95=
201905210700 METAR LRBM 210700Z 22007KT 9999 -RA FEW005 BKN007 BKN010
                        13/11 Q1009 R09/29//95=
201905210730 METAR COR LRBM 210730Z 23005KT 190V270 9999 -RA FEW005 BKN008
                        13/12 Q1009 R09/29//95=
201905210800 METAR LRBM 210800Z 21004KT 9999 -RA SCT006 SCT008 OVC38 13/12
                        Q1009 R09/29//95=
201905210830 METAR COR LRBM 210830Z 18006KT 9999 -RA SCT007 SCT011 BKN040
                        13/11 Q1010 R09/29//95=
201905210900 METAR LRBM 210900Z 17004KT 130V210 9999 -RA FEW007 SCT012
                        BKN018 13/12 Q1010 R09/29//95=
201905210930 METAR COR LRBM 210930Z 12003KT 080V160 9999 -RA FEW008 SCT014
                        BKN024 13/12 Q1010 R09/29//95=
201905211000 METAR LRBM 211000Z 09006KT 9999 -RA FEW008 SCT013 BKN026
                        14/12 Q1010 R09/29//95=
201905211030 METAR LRBM 211030Z 09007KT 9999 SCT009 SCT016 14/12 Q1010
                        R09/29//95=
201905211100 METAR LRBM 211100Z 09007KT 9999 FEW014 BKN018 15/12 Q1010
                        R09/19//95=
201905211130 METAR LRBM 211130Z 10007KT 9999 FEW016 SCT022 16/12 Q1010
                        R09/19//95=
201905211200 METAR LRBM 211200Z 10008KT 9999 FEW019 SCT025 16/12 Q1010
                        R09/19//95=
201905211230 METAR LRBM 211230Z 11008KT 9999 FEW026TCU BKN028 16/11 Q1010
                        R09/19//95=
201905211300 METAR LRBM 211300Z 12007KT 9999 BKN028 17/11 Q1009 R09/19//95=
201905211330 METAR LRBM 211330Z 11008KT 9999 FEW030CB BKN032 17/11 Q1009
                        R09/19//95=
201905211400 METAR LRBM 211400Z 10007KT 9999 VCSH FEW030CB BKN032 17/12
                        Q1009 R09/19//95=
201905211430 METAR LRBM 211430Z 11006KT 9999 -SHRA SCT032CB SCT036 17/11
                        Q1009 R09/19//95=
201905211500 METAR LRBM 211500Z 16005KT 110V220 9999 VCSH SCT030CB 16/12
                        Q1009 R09/19//95=
201905211530 METAR LRBM 211530Z 10006KT 9999 FEW030CB SCT055 16/13 Q1009
                        R09/19//95=
201905211600 METAR LRBM 211600Z 09008KT 9999 FEW028 BKN057 16/12 Q1009
                        R09/19//95=
201905211630 METAR LRBM 211630Z 10008KT 9999 FEW038 BKN060 15/11 Q1009
                        R09/19//95=
201905211700 METAR LRBM 211700Z 10005KT 9999 BKN045 15/12 Q1010 R09/19//95=
201905211730 METAR LRBM 211730Z 08007KT 9999 BKN048 15/10 Q1010 R09/19//95=
201905211800 METAR LRBM 211800Z 08007KT 9999 SCT048 14/10 Q1010 R09/19//95=
201905211830 METAR LRBM 211830Z 08007KT 9999 VCTS FEW040CB SCT053 14/10
                        Q1010 R09/19//95=
201905211900 METAR LRBM 211900Z 07006KT 9999 VCTS FEW040CB SCT050 14/10
                        Q1010 R09/19//95=
201905211930 METAR LRBM 211930Z 31007KT 270V050 9999 FEW022 FEW035CB BKN048
                        14/10 Q1011 R09/19//95=
201905212000 METAR LRBM 212000Z 05005KT 9999 VCTS FEW022 FEW038CB BKN050
                        14/10 Q1010 R09/19//95=
201905212030 METAR LRBM 212030Z 32005KT 270V060 9999 -SHRA FEW018 SCT035CB
                        BKN045 14/10 Q1011 R09/19//95=
201905212100 METAR LRBM 212100Z 04004KT 320V090 9999 -SHRA FEW023 SCT035CB
                        BKN043 13/11 Q1011 R09/19//95=
201905212130 METAR LRBM 212130Z AUTO 05006KT 9999 -RA FEW006/// SCT016///
                        BKN039/// 13/11 Q1011=
201905212200 METAR LRBM 212200Z AUTO 07006KT 9999 FEW010/// SCT190///
                        13/11 Q1011=
201905212230 METAR LRBM 212230Z AUTO 07005KT 9999 FEW015/// BKN200///
                        13/11 Q1010=
201905212300 METAR LRBM 212300Z AUTO 06004KT 9999 FEW090/// SCT230///
                        12/11 Q1010=
201905212330 METAR LRBM 212330Z AUTO 08003KT 9999 FEW080/// SCT220///
                        ///// Q1010=
201905220000 METAR LRBM 220000Z AUTO 02003KT 350V070 9999 FEW090/// SCT230///
                        12/10 Q1010=
201905220030 METAR LRBM 220030Z AUTO 05003KT 020V080 9999 FEW085/// SCT230///
                        11/10 Q1010=
201905220100 METAR LRBM 220100Z AUTO 06004KT 9999 FEW045/// SCT210///
                        11/10 Q1010=
201905220130 METAR LRBM 220130Z AUTO 05003KT 9999 FEW045/// SCT160///
                        11/10 Q1010=
201905220200 METAR LRBM 220200Z 04002KT CAVOK 11/10 Q1010 R09/19//95=
201905220230 METAR COR LRBM 220230Z 07002KT CAVOK 11/10 Q1010 R09/19//95=
201905220300 METAR LRBM 220300Z 07003KT CAVOK 11/10 Q1010 R09/19//95=
201905220330 METAR LRBM 220330Z VRB01KT 9999 SCT050 12/11 Q1010 R09/19//95=
201905220400 METAR LRBM 220400Z 05004KT 9999 SCT035 BKN055 12/11 Q1010
                        R09/19//95=
201905220430 METAR LRBM 220430Z 08004KT 9999 SCT032 BKN042 13/11 Q1010
                        R09/19//95=
201905220500 METAR LRBM 220500Z 06005KT 9999 FEW030 SCT046 13/11 Q1010
                        R09/19//95=
201905220530 METAR LRBM 220530Z 06004KT 9999 BKN046 13/11 Q1010 R09/19//95=
201905220600 METAR LRBM 220600Z 05004KT 9999 BKN040 13/11 Q1010 R09/19//95=
201905220630 METAR LRBM 220630Z 06003KT 9999 FEW031 BKN044 13/11 Q1010
                        R09/19//95=
201905220700 METAR LRBM 220700Z 05004KT 9999 SCT036 14/11 Q1010 R09/19//95=
201905220730 METAR LRBM 220730Z 05004KT 010V080 9999 FEW036 14/11 Q1010
                        R09/19//95=
201905220800 METAR LRBM 220800Z 09006KT 9999 FEW036 15/11 Q1010 R09/19//95=
201905220830 METAR LRBM 220830Z 09006KT 9999 SCT030 BKN038 15/11 Q1011
                        R09/19//95=
201905220900 METAR LRBM 220900Z 09005KT 9999 SCT031 BKN050 15/11 Q1011
                        R09/19//95=
201905220930 METAR LRBM 220930Z 10006KT 9999 -RA SCT038 BKN055 16/11 Q1011
                        R09/CLRD//=
201905221000 METAR LRBM 221000Z 09008KT 9999 FEW038 BKN053 16/12 Q1011=
201905221030 METAR LRBM 221030Z 09007KT 9999 SCT038 BKN050 17/12 Q1011=
201905221100 METAR LRBM 221100Z 10006KT 9999 BKN038 BKN050 17/12 Q1011=
201905221130 METAR LRBM 221130Z 18006KT 150V210 9999 -RA BKN037 18/12
                        Q1010=
201905221200 METAR LRBM 221200Z 18007KT 150V210 9999 SCT037 SCT053 19/12
                        Q1010=
201905221230 METAR LRBM 221230Z 20009KT 170V240 9999 BKN038 20/12 Q1009=
201905221300 METAR LRBM 221300Z 21009KT 9999 BKN040 20/12 Q1009=
201905221330 METAR LRBM 221330Z 21012KT 9999 FEW036CB BKN042 20/10 Q1009=
201905221400 METAR LRBM 221400Z 21010KT 9999 FEW036CB VCSH BKN042 19/11
                        Q1009=
201905221430 METAR LRBM 221430Z 28006KT 250V320 9000 -SHRA SCT027CB BKN045
                        14/12 Q1010 R09/19//95=
201905221500 METAR LRBM 221500Z 01003KT 330V070 9999 -SHRA FEW033CB BKN045
                        14/12 Q1010 R09/19//95=
201905221530 METAR LRBM 221530Z 10004KT 080V140 9999 -RA FEW012 FEW033CB
                        SCT045 14/12 Q1010 R09/19//95=
201905221600 METAR LRBM 221600Z 05005KT 010V080 9999 FEW017 SCT045 14/12
                        Q1010 R09/19//95=
201905221630 METAR LRBM 221630Z 07003KT 9999 FEW016 FEW030CB SCT048 15/12
                        Q1010 R09/19//95=
201905221700 METAR COR LRBM 221700Z 10005KT 9999 FEW018 FEW030CB SCT043
                        15/12 Q1010 R09/19//95=
201905221730 METAR LRBM 221730Z 05003KT 9999 -SHRA FEW023 SCT028CB BKN038
                        14/12 Q1009 R09/19//95=
201905221800 METAR LRBM 221800Z 07005KT 9999 FEW014 FEW027CB BKN033 14/12
                        Q1009 R09/19//95=
201905221830 METAR LRBM 221830Z 11004KT 080V140 6000 -SHRA FEW013 SCT027CB
                        BKN033 14/12 Q1010 R09/19//95=
201905221900 METAR LRBM 221900Z 09003KT 7000 -SHRA SCT013 FEW030CB BKN036
                        14/13 Q1010 R09/19//95=
201905221930 METAR LRBM 221930Z 09005KT 9999 FEW012 SCT019 BKN030 14/13
                        Q1010 R09/29//95=
201905222000 METAR LRBM 222000Z 11004KT 9999 -RA SCT010 SCT019 BKN027
                        14/13 Q1010 R09/29//95=
201905222030 METAR LRBM 222030Z 10005KT 090V150 9999 -RA BKN013 BKN030
                        14/13 Q1010 R09/29//95=
201905222100 METAR LRBM 222100Z 12004KT 9999 FEW007 SCT016 BKN038 14/13
                        Q1010 R09/29//95=
201905222130 METAR LRBM 222130Z AUTO 11004KT 9999 FEW014/// SCT020///
                        BKN024/// 14/13 Q1010 RERA=
201905222200 METAR LRBM 222200Z AUTO 10004KT 9999 -RA FEW015/// SCT025///
                        BKN180/// 14/13 Q1010=
201905222230 METAR LRBM 222230Z AUTO 17004KT 9999 SHRA FEW003/// SCT016///
                        BKN023/// 14/13 Q1010=
201905222300 METAR LRBM 222300Z AUTO 18003KT 150V250 8000 SHRA FEW004///
                        SCT013/// BKN019/// 14/13 Q1010=
201905222330 METAR LRBM 222330Z AUTO VRB01KT 8000 SHRA FEW004/// SCT010///
                        BKN015/// 14/13 Q1010=
201905230000 METAR LRBM 230000Z AUTO VRB01KT 9999 FEW010/// SCT039///
                        BKN190/// 14/13 Q1010 RERA=
201905230030 METAR LRBM 230030Z AUTO 09002KT 060V160 9999 FEW019/// SCT027///
                        BKN180/// 14/13 Q1010 REDZ=
201905230100 METAR LRBM 230100Z AUTO 12002KT 9999 FEW012/// SCT023///
                        BKN055/// 14/13 Q1010 RERA=
201905230130 METAR LRBM 230130Z AUTO 10003KT 9999 FEW011/// SCT024///
                        BKN230/// 14/13 Q1010 RERA=
201905230200 METAR LRBM 230200Z 10002KT 9999 FEW011 SCT016 BKN020 14/13
                        Q1010 R09/29//95=
201905230230 METAR LRBM 230230Z 13002KT 9999 4000SE FEW007 BKN014 BKN020
                        14/13 Q1010 R09/29//95=
201905230300 METAR LRBM 230300Z VRB02KT 9999 FEW007 SCT015 BKN023 13/12
                        Q1010 R09/29//95=
201905230330 METAR LRBM 230330Z 07001KT 9999 FEW012 SCT017 BKN023 13/12
                        Q1010 R09/29//95=
201905230400 METAR LRBM 230400Z 11003KT 9999 -SHRA FEW014 FEW022CB BKN025
                        13/13 Q1010 R09/29//95=
201905230430 METAR LRBM 230430Z 10003KT 9999 FEW012 FEW024CB BKN026 14/13
                        Q1010 R09/29//95=
201905230500 METAR LRBM 230500Z VRB02KT 9999 FEW007 SCT014 BKN020 14/13
                        Q1010 R09/29//95=
201905230530 METAR LRBM 230530Z VRB01KT 9999 BKN012 BKN019 14/13 Q1011
                        R09/29//95=
201905230600 METAR LRBM 230600Z 22003KT 160V270 9999 SCT012 BKN018 FEW020CB
                        14/13 Q1011 R09/29//95=
201905230630 METAR LRBM 230630Z 24006KT 9999 BKN012 OVC019 14/12 Q1011
                        R09/29//95=
201905230700 METAR LRBM 230700Z 27003KT 9999 FEW010 OVC027 14/12 Q1011
                        R09/29//95=
201905230730 METAR LRBM 230730Z VRB01KT 9999 FEW008 BKN020 14/11 Q1011
                        R09/29//95=
201905230800 METAR LRBM 230800Z 00000KT 9999 FEW010 BKN019 15/12 Q1011
                        R09/29//95=
201905230830 METAR LRBM 230830Z 34001KT 9999 FEW011 BKN016 15/11 Q1012
                        R09/29//95=
201905230900 METAR LRBM 230900Z VRB01KT 9999 BKN014 OVC020 15/12 Q1012
                        R09/29//95=
201905230930 METAR COR LRBM 230930Z VRB02KT 9999 BKN014 OVC023 15/12 Q1012
                        R09/29//95=
201905231000 METAR LRBM 231000Z VRB01KT 9999 -RA SCT017 BKN026 15/12 Q1012
                        R09/29//95=
201905231030 METAR LRBM 231030Z 28004KT 9999 FEW018 BKN026 15/12 Q1012
                        R09/29//95=
201905231100 METAR LRBM 231100Z 29002KT 9999 FEW019 BKN030 15/12 Q1012
                        R09/29//95=
201905231130 METAR LRBM 231130Z 25004KT 9999 BKN030 16/12 Q1012 R09/29//95=
201905231200 METAR LRBM 231200Z 23006KT 200V270 9999 BKN030 16/12 Q1012
                        R09/29//95=
201905231230 METAR LRBM 231230Z 29003KT 9999 SCT027 BKN044 15/12 Q1012
                        R09/29//95=
201905231300 METAR LRBM 231300Z 25002KT 9999 SCT026 BKN036 16/12 Q1012
                        R09/29//95=
201905231330 METAR LRBM 231330Z 27002KT 9999 BKN031 16/12 Q1012 R09/29//95=
201905231400 METAR LRBM 231400Z 27005KT 9999 BKN030 15/12 Q1012 R09/29//95=
201905231430 METAR LRBM 231430Z 32003KT 9999 BKN030 16/12 Q1012 R09/29//95=
201905231500 METAR COR LRBM 231500Z VRB01KT 9999 SCT027 BKN043 15/12 Q1012
                        R09/CLRD//=
201905231530 METAR LRBM 231530Z VRB01KT 9999 BKN033 16/12 Q1012=
201905231600 METAR LRBM 231600Z 00000KT 9999 SCT030 BKN050 16/12 Q1012=
201905231630 METAR LRBM 231630Z 03002KT 9999 SCT026 BKN060 15/12 Q1012=
201905231700 METAR LRBM 231700Z 35002KT 9999 SCT027 BKN060 15/12 Q1012=
201905231730 METAR LRBM 231730Z AUTO 04002KT 9999 FEW025/// SCT031///
                        BKN075/// 15/12 Q1012=
201905231800 METAR LRBM 231800Z 01001KT 9999 BKN030 15/13 Q1012=
201905231830 METAR LRBM 231830Z 02002KT 9999 FEW019 BKN030 14/12 Q1012=
201905231900 METAR LRBM 231900Z 02002KT 9999 FEW019 BKN030 14/12 Q1012=
201905231930 METAR LRBM 231930Z 05001KT 9999 BKN030 14/12 Q1012=
201905232000 METAR LRBM 232000Z 07002KT 9999 -RA SCT021 BKN032 14/12 Q1013=
201905232030 METAR LRBM 232030Z 05004KT 9999 -RA SCT023 BKN033 14/12 Q1012=
201905232100 METAR LRBM 232100Z 06003KT 9999 -RA BKN030 14/13 Q1012=
201905232130 METAR LRBM 232130Z AUTO 00000KT 9999 FEW023/// SCT050///
                        BKN240/// 14/12 Q1012=
201905232200 METAR LRBM 232200Z AUTO 00000KT 9999 FEW026/// SCT046///
                        BKN230/// 14/12 Q1012=
201905232230 METAR LRBM 232230Z AUTO 00000KT 9999 FEW024/// SCT044///
                        BKN240/// 14/12 Q1012=
201905232300 METAR LRBM 232300Z AUTO 00000KT 9999 SCT024/// BKN065///
                        13/12 Q1012=
201905232330 METAR LRBM 232330Z AUTO VRB01KT 9999 FEW013/// SCT025///
                        BKN240/// 13/12 Q1012=
201905240000 METAR LRBM 240000Z AUTO 05002KT 9999 SCT013/// BKN023///
                        13/12 Q1012=
201905240030 METAR LRBM 240030Z AUTO 05001KT 9999 SCT013/// BKN170///
                        13/12 Q1012=
201905240100 METAR LRBM 240100Z AUTO 06001KT 9999 FEW013/// BKN016///
                        13/12 Q1012=
201905240130 METAR LRBM 240130Z AUTO VRB01KT 9999 FEW018/// SCT021///
                        BKN029/// 13/12 Q1011=
201905240200 METAR LRBM 240200Z 10002KT 9999 SCT013 BKN027 13/12 Q1011=
201905240230 METAR LRBM 240230Z 03002KT 9999 FEW013 SCT028 BKN040 13/12
                        Q1011=
201905240300 METAR LRBM 240300Z VRB02KT 9999 SCT015 BKN030 13/12 Q1011=
201905240330 METAR LRBM 240330Z 08002KT 9999 FEW024 BKN042 13/12 Q1012=
201905240400 METAR LRBM 240400Z 06002KT 9999 FEW024 BKN048 13/12 Q1011=
201905240430 METAR LRBM 240430Z VRB01KT 9999 FEW010 BKN052 14/12 Q1012=
201905240500 METAR LRBM 240500Z 08001KT 9999 FEW010 SCT058 14/12 Q1012=
201905240530 METAR LRBM 240530Z 09002KT 9999 VCFG FEW005 14/12 Q1012=
201905240600 METAR LRBM 240600Z VRB01KT 9999 FEW007 15/12 Q1012=
201905240630 METAR LRBM 240630Z 28002KT 9999 FEW009 15/12 Q1012=
201905240700 METAR LRBM 240700Z VRB01KT 9999 FEW014 15/12 Q1012=
201905240730 METAR LRBM 240730Z 22004KT 9999 SCT016 16/12 Q1012=
201905240800 METAR LRBM 240800Z 25004KT 210V290 9999 SCT018 16/12 Q1012=
201905240830 METAR LRBM 240830Z 25004KT 210V310 9999 BKN020 17/13 Q1011=
201905240900 METAR LRBM 240900Z 27007KT 9999 SCT023 FEW027CB 18/12 Q1011=
201905240930 METAR LRBM 240930Z 29006KT 9999 SCT024 FEW028CB 18/12 Q1011=
201905241000 METAR LRBM 241000Z 24005KT 190V270 9999 VCSH SCT027 FEW030CB
                        19/12 Q1011=
201905241030 METAR LRBM 241030Z 01008KT 330V050 9999 VCSH BKN027 FEW030CB
                        18/10 Q1011=
201905241100 METAR LRBM 241100Z 02007KT 330V070 9999 VCSH SCT030 FEW033CB
                        16/12 Q1011=
201905241130 METAR LRBM 241130Z 30007KT 270V330 9999 VCSH FEW033 FEW035CB
                        19/10 Q1010=
201905241200 METAR LRBM 241200Z 30006KT 260V350 9999 FEW035 FEW037CB 20/13
                        Q1010=
201905241230 METAR LRBM 241230Z 31006KT 270V340 9999 FEW035 FEW037CB 20/12
                        Q1010=
201905241300 METAR LRBM 241300Z 27009KT 9999 FEW037 FEW039CB 20/12 Q1010=
201905241330 METAR LRBM 241330Z 30006KT 270V330 9999 VCSH FEW037 FEW039CB
                        20/12 Q1009=
201905241400 METAR LRBM 241400Z 28007KT 250V330 9999 VCSH FEW040 FEW043CB
                        21/12 Q1009=
201905241430 METAR LRBM 241430Z 07006KT 040V100 9999 VCSH FEW040 SCT043CB
                        21/12 Q1009 RETS=
201905241500 METAR LRBM 241500Z 08007KT 9000 SHRA FEW036 BKN040CB 17/13
                        Q1010 R09/29//95=
201905241530 METAR LRBM 241530Z 04006KT 020V080 9000 SHRA SCT033 BKN040CB
                        16/14 Q1009 R09/29//95=
201905241600 METAR COR LRBM 241600Z 08006KT 9999 4000SW VCTS VCSH FEW033
                        SCT040CB 16/14 Q1009 RESHRA R09/29//95=
201905241630 METAR LRBM 241630Z 18005KT 9999 VCSH FEW035 FEW040CB 16/14
                        Q1010 R09/29//95=
201905241700 METAR LRBM 241700Z VRB01KT 9999 FEW040CB SCT050 16/14 Q1010
                        R09/29//95=
201905241730 METAR COR LRBM 241730Z 00000KT 9999 FEW017 FEW040CB 16/14
                        Q1010 R09/29//95=
201905241800 METAR LRBM 241800Z AUTO 05003KT 9999 FEW037/// SCT230///
                        15/14 Q1010=
201905241830 METAR LRBM 241830Z AUTO 10003KT 9999 FEW065/// SCT240///
                        14/13 Q1010=
201905241900 METAR LRBM 241900Z AUTO VRB01KT 9999 FEW014/// SCT200///
                        14/13 Q1010=
201905241930 METAR LRBM 241930Z AUTO 35003KT 9999 FEW065/// SCT200///
                        14/13 Q1011=
201905242000 METAR LRBM 242000Z AUTO 01003KT 340V060 9999 FEW085/// SCT210///
                        14/13 Q1010=
201905242030 METAR LRBM 242030Z AUTO 01002KT 9999 FEW050/// SCT230///
                        14/12 Q1010=
201905242100 METAR LRBM 242100Z AUTO 35002KT 9999 FEW031/// SCT190///
                        13/12 Q1010=
201905242130 METAR LRBM 242130Z AUTO 00000KT 9999 FEW047/// SCT240///
                        13/12 Q1010=
201905242200 METAR LRBM 242200Z AUTO 00000KT 9999 FEW011/// SCT160///
                        BKN240/// 13/12 Q1010=
201905242230 METAR LRBM 242230Z AUTO 08002KT 9999 BKN001/// BKN013///
                        13/12 Q1010=
201905242300 METAR LRBM 242300Z AUTO 02002KT 350V080 9999 FEW001/// BKN013///
                        BKN065/// 13/12 Q1010=
201905242330 METAR LRBM 242330Z AUTO 08002KT 7000 FEW003/// BKN013///
                        BKN055/// 13/12 Q1010=
201905250000 METAR LRBM 250000Z AUTO VRB01KT 9999 SCT009/// BKN011///
                        BKN023/// 14/12 Q1010=
201905250030 METAR LRBM 250030Z AUTO 10002KT 040V140 9999 SCT008/// BKN010///
                        14/12 Q1010=
201905250100 METAR LRBM 250100Z AUTO 05002KT 9999 SCT004/// BKN006///
                        BKN008/// 13/12 Q1011=
201905250130 METAR LRBM 250130Z AUTO 09003KT 9999 FEW007/// BKN009///
                        13/12 Q1011=
201905250200 METAR LRBM 250200Z AUTO 07002KT 040V100 9999 NCD 14/12 Q1011=
201905250230 METAR LRBM 250230Z AUTO 07002KT 9999 NCD 14/13 Q1011=
201905250300 METAR LRBM 250300Z AUTO 27002KT 210V310 9999 FEW004/// BKN010///
                        ///// Q1011=
201905250330 METAR LRBM 250330Z AUTO 28002KT 250V320 9999 FEW003/// SCT006///
                        BKN010/// 14/12 Q1011=
201905250400 METAR LRBM 250400Z AUTO 29004KT 1800 R09/2000D BKN001///
                        BKN004/// 14/13 Q1011=
201905250430 METAR LRBM 250430Z AUTO 28005KT 1700 R09/1700D FEW001///
                        BKN003/// BKN005/// 13/13 Q1011=
201905250500 METAR LRBM 250500Z AUTO 27006KT 6000 FEW003/// BKN005///
                        BKN011/// 14/13 Q1011=
201905250530 METAR LRBM 250530Z AUTO 27007KT 6000 SCT003/// BKN006///
                        BKN013/// 14/12 Q1012=
201905250600 METAR LRBM 250600Z AUTO 27007KT 6000 SCT003/// BKN008///
                        BKN010/// 14/13 Q1012=
201905250630 METAR LRBM 250630Z AUTO 28006KT 8000 SCT004/// BKN006///
                        14/13 Q1012=
201905250700 METAR LRBM 250700Z AUTO 27006KT 250V320 9999 SCT005/// BKN007///
                        BKN010/// 15/13 Q1012=
201905250730 METAR LRBM 250730Z AUTO 27006KT 240V310 9999 FEW007/// SCT009///
                        BKN011/// 16/13 Q1012=
201905250800 METAR LRBM 250800Z AUTO 27008KT 9999 FEW008/// SCT018///
                        BKN220/// 16/13 Q1013=
201905250830 METAR LRBM 250830Z AUTO 27008KT 9999 FEW010/// SCT160///
                        BKN240/// 17/13 Q1012=
201905250900 METAR LRBM 250900Z AUTO 26007KT 230V310 9999 FEW012/// SCT150///
                        17/14 Q1012=
201905250930 METAR LRBM 250930Z AUTO 26008KT 9999 FEW017/// SCT220///
                        18/14 Q1012=
201905251000 METAR LRBM 251000Z AUTO 27009KT 9999 FEW018/// SCT210///
                        19/15 Q1012=
201905251030 METAR LRBM 251030Z AUTO 28009KT 250V320 9999 FEW020/// SCT190///
                        20/13 Q1013=
201905251100 METAR LRBM 251100Z AUTO 28009KT 9999 FEW017/// SCT240///
                        20/14 Q1012=
201905251130 METAR LRBM 251130Z AUTO 26011KT 9999 FEW025/// BKN200///
                        21/13 Q1012=
201905251200 METAR LRBM 251200Z AUTO 28008KT 250V320 9999 FEW020/// SCT210///
                        21/13 Q1012=
201905251230 METAR LRBM 251230Z AUTO 28008KT 250V330 9999 FEW018/// SCT200///
                        21/12 Q1012=
201905251300 METAR LRBM 251300Z AUTO 28007KT 250V320 9999 FEW100/// SCT230///
                        22/13 Q1012=
201905251330 METAR LRBM 251330Z AUTO 27008KT 9999 FEW038/// SCT230///
                        22/13 Q1012=
201905251400 METAR LRBM 251400Z AUTO 27009KT 9999 FEW018/// SCT190///
                        22/13 Q1012=
201905251430 METAR LRBM 251430Z AUTO 27008KT 9999 FEW014/// SCT220///
                        22/12 Q1012=
201905251500 METAR LRBM 251500Z AUTO 27006KT 9999 FEW039/// SCT230///
                        21/13 Q1012=
201905251530 METAR LRBM 251530Z AUTO 28007KT 260V320 9999 FEW060/// SCT230///
                        22/13 Q1012=
201905251600 METAR LRBM 251600Z AUTO 27007KT 9999 FEW090/// SCT240///
                        21/12 Q1012=
201905251630 METAR LRBM 251630Z AUTO 27006KT 9999 FEW028/// SCT190///
                        21/12 Q1012=
201905251700 METAR LRBM 251700Z AUTO 29003KT 9999 FEW031/// SCT210///
                        20/13 Q1012=
201905251730 METAR LRBM 251730Z AUTO VRB01KT 9999 FEW016/// SCT220///
                        20/14 Q1012=
201905251800 METAR LRBM 251800Z AUTO 02002KT 350V050 9999 FEW031/// SCT220///
                        18/14 Q1013=
201905251830 METAR LRBM 251830Z AUTO 03002KT 320V060 9999 FEW015/// SCT180///
                        16/14 Q1013=
201905251900 METAR LRBM 251900Z AUTO 01003KT 340V040 9999 FEW026/// SCT230///
                        16/13 Q1013=
201905251930 METAR LRBM 251930Z AUTO 02002KT 350V060 9999 FEW030/// SCT210///
                        15/13 Q1014=
201905252000 METAR LRBM 252000Z AUTO 04004KT 010V080 9999 FEW014/// SCT170///
                        15/13 Q1014=
201905252030 METAR LRBM 252030Z AUTO 02003KT 350V060 9999 FEW050/// SCT200///
                        16/12 Q1014=
201905252100 METAR LRBM 252100Z AUTO VRB01KT 9999 FEW024/// SCT230///
                        14/12 Q1014=
201905252130 METAR LRBM 252130Z AUTO 04002KT 9999 FEW037/// SCT210///
                        14/12 Q1014=
201905252200 METAR LRBM 252200Z AUTO 04002KT 360V070 9999 FEW031/// SCT230///
                        14/12 Q1014=
201905252230 METAR LRBM 252230Z AUTO 09002KT 9999 FEW080/// SCT200///
                        13/12 Q1015=
201905252300 METAR LRBM 252300Z AUTO VRB01KT 9999 FEW037/// SCT240///
                        13/12 Q1015=
201905252330 METAR LRBM 252330Z AUTO 09002KT 9999 FEW043/// SCT220///
                        12/11 Q1015=
201905260000 METAR LRBM 260000Z AUTO 06002KT 9999 FEW050/// SCT230///
                        13/11 Q1015=
201905260030 METAR LRBM 260030Z AUTO 06005KT 020V100 9999 FEW020/// SCT230///
                        12/11 Q1015=
201905260100 METAR LRBM 260100Z AUTO 04002KT 010V070 9999 FEW028/// SCT210///
                        12/11 Q1015=
201905260130 METAR LRBM 260130Z AUTO VRB01KT 9999 FEW024/// SCT240///
                        12/10 Q1015=
201905260200 METAR LRBM 260200Z AUTO 08003KT 9999 FEW055/// SCT220///
                        11/10 Q1015=
201905260230 METAR LRBM 260230Z AUTO 09003KT 050V120 9999 FEW017/// SCT230///
                        12/10 Q1015=
201905260300 METAR LRBM 260300Z AUTO VRB01KT 9999 FEW030/// SCT210///
                        11/10 Q1016=
201905260330 METAR LRBM 260330Z AUTO 07003KT 9999 FEW042/// SCT220///
                        12/11 Q1016=
201905260400 METAR LRBM 260400Z AUTO VRB01KT 9999 FEW050/// SCT210///
                        13/11 Q1016=
201905260430 METAR LRBM 260430Z AUTO 06002KT 030V090 9999 FEW046/// SCT230///
                        15/12 Q1016=
201905260500 METAR LRBM 260500Z AUTO 09004KT 9999 FEW032/// SCT220///
                        16/12 Q1016=
201905260530 METAR LRBM 260530Z AUTO 10002KT 080V140 9999 FEW029/// SCT240///
                        16/13 Q1016=
201905260600 METAR LRBM 260600Z AUTO 11003KT 070V150 9999 FEW024/// SCT190///
                        17/13 Q1016=
201905260630 METAR LRBM 260630Z AUTO 16004KT 120V210 9999 FEW021/// SCT190///
                        18/13 Q1016=
201905260700 METAR LRBM 260700Z AUTO 17003KT 080V220 9999 FEW023/// SCT220///
                        19/13 Q1016=
201905260730 METAR LRBM 260730Z AUTO 15002KT 100V230 9999 FEW017/// SCT220///
                        20/14 Q1016=
201905260800 METAR LRBM 260800Z AUTO VRB02KT 9999 FEW032/// SCT210///
                        20/14 Q1016=
201905260830 METAR LRBM 260830Z AUTO 21003KT 140V270 9999 FEW014/// SCT180///
                        21/13 Q1016=
201905260900 METAR LRBM 260900Z AUTO 22003KT 170V310 9999 FEW025/// SCT200///
                        22/13 Q1016=
201905260930 METAR LRBM 260930Z AUTO 20004KT 160V230 9999 FEW031/// SCT210///
                        22/13 Q1016=
201905261000 METAR LRBM 261000Z AUTO VRB05KT 9999 FEW015/// SCT200///
                        23/12 Q1016=
201905261030 METAR LRBM 261030Z AUTO 27005KT 170V330 9999 FEW018/// SCT240///
                        23/12 Q1016=
201905261100 METAR LRBM 261100Z AUTO 25003KT 190V300 9999 FEW019/// BKN190///
                        23/13 Q1016=
201905261130 METAR LRBM 261130Z AUTO 22005KT 170V290 9999 FEW022/// SCT210///
                        23/13 Q1015=
201905261200 METAR LRBM 261200Z AUTO 20005KT 160V230 9999 FEW011/// SCT210///
                        24/12 Q1015=
201905261230 METAR LRBM 261230Z AUTO 22004KT 150V280 9999 FEW039/// SCT210///
                        24/11 Q1015=
201905261300 METAR LRBM 261300Z AUTO 08003KT 040V150 9999 FEW027/// SCT200///
                        24/11 Q1015=
201905261330 METAR LRBM 261330Z AUTO VRB03KT 9999 FEW015/// SCT210///
                        24/11 Q1015=
201905261400 METAR LRBM 261400Z AUTO 23003KT 140V290 9999 FEW014/// SCT230///
                        25/11 Q1014=
201905261430 METAR LRBM 261430Z AUTO 04003KT 010V080 9999 FEW024/// SCT220///
                        25/09 Q1014=
201905261500 METAR LRBM 261500Z AUTO 24004KT 210V280 9999 FEW035/// SCT230///
                        25/11 Q1014=
201905261530 METAR LRBM 261530Z AUTO 30003KT 270V340 9999 FEW023/// SCT220///
                        24/12 Q1014=
201905261600 METAR LRBM 261600Z AUTO 35003KT 290V020 9999 FEW033/// SCT220///
                        24/12 Q1014=
201905261630 METAR LRBM 261630Z AUTO 03003KT 350V060 9999 FEW017/// SCT190///
                        24/13 Q1015=
201905261700 METAR COR LRBM 261700Z VRB02KT CAVOK 24/13 Q1014=
201905261730 METAR LRBM 261730Z 35003KT 330V030 CAVOK 22/14 Q1015=
201905261800 METAR LRBM 261800Z 36003KT 320V040 CAVOK 20/14 Q1015=
201905261830 METAR LRBM 261830Z 01003KT 300V050 CAVOK 19/13 Q1015=
201905261900 METAR LRBM 261900Z 01004KT 330V050 CAVOK 19/13 Q1015=
201905261930 METAR LRBM 261930Z 02004KT 350V070 CAVOK 18/13 Q1015=
201905262000 METAR LRBM 262000Z 04003KT 360V080 CAVOK 18/12 Q1015=
201905262030 METAR LRBM 262030Z 06003KT CAVOK 17/12 Q1015=
201905262100 METAR LRBM 262100Z VRB02KT CAVOK 16/12 Q1015=
201905262130 METAR LRBM 262130Z AUTO 05004KT 9999 FEW036/// SCT200///
                        16/12 Q1015=
201905262200 METAR LRBM 262200Z AUTO 05004KT 9999 FEW065/// SCT240///
                        15/12 Q1016=
201905262230 METAR LRBM 262230Z AUTO 08003KT 9999 FEW018/// SCT190///
                        15/12 Q1015=
201905262300 METAR LRBM 262300Z AUTO 09003KT 9999 FEW020/// SCT210///
                        14/12 Q1015=
201905262330 METAR LRBM 262330Z AUTO 05003KT 9999 FEW100/// SCT230///
                        15/12 Q1015=
201905270000 METAR LRBM 270000Z AUTO 07003KT 9999 FEW075/// SCT240///
                        14/12 Q1015=
201905270030 METAR LRBM 270030Z AUTO 09003KT 9999 FEW080/// SCT230///
                        14/12 Q1015=
201905270100 METAR LRBM 270100Z AUTO 07004KT 9999 FEW085/// SCT220///
                        15/12 Q1015=
201905270130 METAR LRBM 270130Z AUTO 08005KT 9999 FEW070/// SCT230///
                        14/12 Q1015=
201905270200 METAR LRBM 270200Z 07005KT CAVOK 14/11 Q1015=
201905270230 METAR LRBM 270230Z 10005KT CAVOK 14/11 Q1015=
201905270300 METAR LRBM 270300Z 08006KT CAVOK 14/11 Q1015=
201905270330 METAR LRBM 270330Z 07007KT CAVOK 15/11 Q1015=
201905270400 METAR LRBM 270400Z 08007KT CAVOK 16/13 Q1015=
201905270430 METAR LRBM 270430Z 09005KT CAVOK 16/12 Q1015=
201905270500 METAR LRBM 270500Z 10005KT CAVOK 18/13 Q1015=
201905270530 METAR LRBM 270530Z 10005KT CAVOK 19/13 Q1015=
201905270600 METAR LRBM 270600Z 17003KT CAVOK 20/15 Q1015=
201905270630 METAR LRBM 270630Z 15004KT 110V200 CAVOK 21/13 Q1015=
201905270700 METAR LRBM 270700Z 15004KT 110V180 CAVOK 23/13 Q1015=
201905270730 METAR LRBM 270730Z 13005KT 100V160 CAVOK 23/13 Q1015=
201905270800 METAR LRBM 270800Z 12006KT 080V150 CAVOK 23/13 Q1014=
201905270830 METAR LRBM 270830Z 12004KT 090V160 9999 FEW042 24/13 Q1014=
201905270900 METAR LRBM 270900Z 15004KT 100V180 9999 FEW043 24/14 Q1014=
201905270930 METAR LRBM 270930Z 17005KT 9999 FEW043 24/13 Q1015=
201905271000 METAR LRBM 271000Z 17005KT 9999 FEW043 24/14 Q1015=
201905271030 METAR LRBM 271030Z 18005KT 160V220 9999 FEW050 24/14 Q1015=
201905271100 METAR LRBM 271100Z 18005KT 160V220 9999 FEW050 24/14 Q1015=
201905271130 METAR LRBM 271130Z 11002KT CAVOK 24/14 Q1014=
201905271200 METAR LRBM 271200Z VRB01KT CAVOK 25/15 Q1014=
201905271230 METAR LRBM 271230Z VRB01KT CAVOK 25/14 Q1014=
201905271300 METAR LRBM 271300Z 27003KT CAVOK 24/14 Q1014=
201905271330 METAR LRBM 271330Z 28002KT CAVOK 24/14 Q1014=
201905271400 METAR LRBM 271400Z 30003KT CAVOK 23/15 Q1014=
201905271430 METAR LRBM 271430Z 30003KT CAVOK 23/15 Q1014=
201905271500 METAR LRBM 271500Z 28005KT 9999 FEW043 23/15 Q1014=
201905271530 METAR LRBM 271530Z 28003KT 9999 FEW043 22/16 Q1013=
201905271600 METAR LRBM 271600Z 36002KT CAVOK 22/16 Q1013=
201905271630 METAR LRBM 271630Z 00000KT CAVOK 22/17 Q1013=
201905271700 METAR LRBM 271700Z 00000KT 9999 -RA SCT055 21/16 Q1013=
201905271730 METAR LRBM 271730Z 03002KT 9999 -RA SCT050 20/16 Q1013 R09/19//95=
201905271800 METAR LRBM 271800Z 02003KT CAVOK 20/16 Q1013 R09/CLRD//=
201905271830 METAR LRBM 271830Z 01002KT CAVOK 20/16 Q1013=
201905271900 METAR LRBM 271900Z 05004KT 9999 -RA SCT060 19/16 Q1013 R09/19//95=
201905271930 METAR LRBM 271930Z 35002KT 9999 FEW060 19/16 Q1012 R09/19//95=
201905272000 METAR LRBM 272000Z VRB01KT CAVOK 19/16 Q1012 R09/19//95=
201905272030 METAR LRBM 272030Z 00000KT CAVOK 18/15 Q1012 R09/19//95=
201905272100 METAR LRBM 272100Z 08004KT CAVOK 18/15 Q1012 R09/19//95=
201905272130 METAR LRBM 272130Z AUTO 05005KT 9999 FEW032/// SCT200///
                        19/15 Q1012=
201905272200 METAR LRBM 272200Z AUTO 06004KT 040V100 9999 FEW008/// SCT019///
                        BKN032/// 18/16 Q1013=
201905272230 METAR LRBM 272230Z AUTO 06004KT 030V110 9999 FEW007/// SCT010///
                        BKN021/// 17/16 Q1013=
201905272300 METAR LRBM 272300Z AUTO 05004KT 9999 SCT010/// BKN022///
                        BKN041/// 18/16 Q1013=
201905272330 METAR LRBM 272330Z AUTO 06004KT 9999 FEW008/// SCT012///
                        BKN021/// 17/16 Q1013=
201905280000 METAR LRBM 280000Z AUTO 06007KT 6000 FEW007/// SCT017///
                        BKN024/// 17/15 Q1012=
201905280030 METAR LRBM 280030Z AUTO 03007KT 360V070 9999 FEW006/// SCT065///
                        BKN230/// 17/15 Q1011=
201905280100 METAR LRBM 280100Z AUTO 05006KT 020V090 9999 FEW014/// SCT200///
                        17/15 Q1011 RERA=
201905280130 METAR LRBM 280130Z AUTO 05005KT 9999 FEW017/// SCT210///
                        18/14 Q1011=
201905280200 METAR LRBM 280200Z 06005KT 9999 BKN040 18/14 Q1011 R09/19//95=
201905280230 METAR LRBM 280230Z 07004KT 9999 BKN044 17/15 Q1010 R09/19//95=
201905280300 METAR LRBM 280300Z 06004KT 9999 SCT053 17/15 Q1010 R09/19//95=
201905280330 METAR LRBM 280330Z 07004KT 9999 FEW055 17/15 Q1010 R09/19//95=
201905280400 METAR LRBM 280400Z VRB02KT 9999 FEW060 17/15 Q1010 R09/19//95=
201905280430 METAR LRBM 280430Z 09002KT 9999 SCT060 19/16 Q1010 R09/19//95=
201905280500 METAR LRBM 280500Z 10004KT 9999 BKN058 19/16 Q1010 R09/19//95=
201905280530 METAR LRBM 280530Z 08003KT 9999 SCT058 19/16 Q1010 R09/19//95=
201905280600 METAR LRBM 280600Z 08003KT 050V110 9999 FEW058 19/16 Q1010
                        R09/19//95=
201905280630 METAR LRBM 280630Z 00000KT 9999 -RA FEW056 20/17 Q1010 R09/19//95=
201905280700 METAR LRBM 280700Z 26003KT 230V290 9999 FEW058 20/17 Q1011
                        R09/19//95=
201905280730 METAR LRBM 280730Z 26005KT CAVOK 19/16 Q1010 R09/19//95=
201905280800 METAR LRBM 280800Z 23003KT 200V270 9999 FEW023 21/16 Q1010
                        R09/19//95=
201905280830 METAR LRBM 280830Z VRB02KT 9999 -SHRA FEW025 FEW050CB 21/16
                        Q1010 R09/19//95=
201905280900 METAR LRBM 280900Z VRB02KT 9999 FEW025 22/15 Q1009 R09/19//95=
201905280930 METAR LRBM 280930Z 24004KT 190V290 9999 FEW036 23/16 Q1009
                        R09/19//95=
201905281000 METAR LRBM 281000Z 25006KT 220V280 9999 FEW036 23/17 Q1009
                        R09/CLRD//=
201905281030 METAR LRBM 281030Z 27006KT 240V310 9999 SCT036 23/16 Q1009=
201905281100 METAR LRBM 281100Z 28010KT 9999 BKN038 22/17 Q1009=
201905281130 METAR LRBM 281130Z 28010KT 9999 FEW036TCU BKN038 21/16 Q1008=
201905281200 METAR LRBM 281200Z 27008KT 9999 FEW036CB BKN040 21/17 Q1008=
201905281230 METAR LRBM 281230Z 27005KT 9999 -SHRA SCT036CB SCT040 20/18
                        Q1007=
201905281300 METAR LRBM 281300Z 31005KT 270V360 9999 -SHRA VCTS BKN036CB
                        20/18 Q1006=
201905281330 METAR LRBM 281330Z 28016KT 9999 -TSRA BKN030CB 19/16 Q1005
                        R09/29//95=
201905281400 METAR LRBM 281400Z 14004KT 060V230 9999 VCTS FEW012 FEW030CB
                        BKN038 16/15 Q1006 RERA R09/29//95=
201905281430 METAR LRBM 281430Z 04005KT 350V090 9999 VCTS SCT030CB SCT040
                        17/16 Q1006 R09/29//95=
201905281500 METAR LRBM 281500Z 21016KT 180V280 9999 TSRA FEW012 BKN026CB
                        16/15 Q1007 R09/29//95=
201905281530 METAR LRBM 281530Z 29010KT 9999 VCTS FEW013 SCT026CB SCT043
                        17/16 Q1006 RERA R09/29//95=
201905281600 METAR LRBM 281600Z 35007KT 310V060 9999 VCSH FEW030CB SCT043
                        17/16 Q1006 RETS R09/29//95=
201905281630 METAR COR LRBM 281630Z 34003KT 270V020 9999 VCTS SCT028CB
                        SCT043 17/16 Q1006 R09/29//95=
201905281700 METAR LRBM 281700Z 29008KT 260V320 9999 -TSRA FEW009 BKN032CB
                        17/15 Q1007 R09/29//95=
201905281730 METAR LRBM 281730Z 06003KT 350V090 6000 TSRA FEW007 BKN033CB
                        16/15 Q1008 R09/29//95=
201905281800 METAR LRBM 281800Z 06008KT 9999 -TSRA FEW005 SCT015 BKN038CB
                        16/15 Q1008 RERA R09/29//95=
201905281830 METAR LRBM 281830Z 08004KT 9999 FEW006 SCT040CB 16/15 Q1009
                        R09/29//95=
201905281900 METAR LRBM 281900Z 10002KT 9999 FEW015 FEW040CB SCT043 16/15
                        Q1008 R09/29//95=
201905281930 METAR LRBM 281930Z 09004KT 040V150 9999 FEW007 FEW043CB BKN043
                        16/14 Q1009 R09/29//95=
201905282000 METAR LRBM 282000Z 07006KT 9999 -RA FEW007 SCT045 16/15 Q1010
                        R09/29//95=
201905282030 METAR LRBM 282030Z 07003KT 050V110 9999 -RA FEW007 SCT045
                        16/15 Q1009 R09/29//95=
201905282100 METAR LRBM 282100Z 04003KT 340V110 9999 FEW011 SCT048 16/14
                        Q1008 R09/29//95=
201905282130 METAR LRBM 282130Z AUTO 04005KT 360V070 9999 FEW075/// SCT240///
                        16/14 Q1008 RERA=
201905282200 METAR LRBM 282200Z AUTO 10004KT 9999 FEW027/// SCT210///
                        15/14 Q1008 RERA=
201905282230 METAR LRBM 282230Z AUTO 04004KT 9999 FEW015/// SCT200///
                        15/14 Q1008=
201905282300 METAR LRBM 282300Z AUTO 09004KT 9999 FEW016/// SCT220///
                        15/13 Q1009=
201905282330 METAR LRBM 282330Z AUTO 06003KT 9999 FEW037/// SCT220///
                        15/14 Q1009=
201905290000 METAR LRBM 290000Z AUTO 06003KT 9999 FEW020/// SCT210///
                        15/13 Q1008=
201905290030 METAR LRBM 290030Z AUTO 09005KT 9999 FEW044/// SCT150///
                        BKN240/// 15/13 Q1009=
201905290100 METAR LRBM 290100Z AUTO VRB01KT 9999 FEW022/// SCT045///
                        BKN190/// 15/13 Q1009=
201905290130 METAR LRBM 290130Z AUTO VRB01KT 9999 FEW022/// SCT090///
                        BKN240/// 15/13 Q1009=
201905290200 METAR LRBM 290200Z 05002KT 9999 FEW042 14/13 Q1009 R09/29//95=
201905290230 METAR LRBM 290230Z 07002KT 9999 SCT043 15/13 Q1009 R09/19//95=
201905290300 METAR LRBM 290300Z VRB01KT 9999 SCT050 14/13 Q1009 R09/19//95=
201905290330 METAR LRBM 290330Z 02002KT 9999 FEW041 15/13 Q1010 R09/19//95=
201905290400 METAR LRBM 290400Z 02002KT 9999 FEW043 15/14 Q1010 R09/19//95=
201905290430 METAR LRBM 290430Z 10002KT 9999 FEW041 16/14 Q1010 R09/19//95=
201905290500 METAR LRBM 290500Z 06004KT 9999 FEW050 17/14 Q1010 R09/19//95=
201905290530 METAR LRBM 290530Z VRB01KT CAVOK 18/14 Q1010 R09/19//95=
201905290600 METAR LRBM 290600Z VRB01KT CAVOK 18/15 Q1010 R09/19//95=
201905290630 METAR LRBM 290630Z 11003KT 9999 FEW028 19/14 Q1011 R09/19//95=
201905290700 METAR LRBM 290700Z 07004KT 020V110 9999 FEW044 20/14 Q1011
                        R09/19//95=
201905290730 METAR LRBM 290730Z 14003KT 9999 FEW040 20/14 Q1011 R09/19//95=
201905290800 METAR LRBM 290800Z VRB02KT 9999 FEW034 21/14 Q1011 R09/19//95=
201905290830 METAR LRBM 290830Z 20002KT 9999 FEW040 22/13 Q1011 R09/19//95=
201905290900 METAR LRBM 290900Z VRB01KT 9999 SCT040 22/13 Q1011 R09/19//95=
201905290930 METAR LRBM 290930Z 21003KT 9999 SCT040 23/11 Q1011 R09/CLRD//=
201905291000 METAR LRBM 291000Z VRB04KT 9999 SCT040 23/13 Q1011=
201905291030 METAR LRBM 291030Z 26005KT 180V290 9999 FEW040 FEW042CB 23/13
                        Q1011=
201905291100 METAR LRBM 291100Z 26006KT 240V300 9999 FEW040CB 24/13 Q1011=
201905291130 METAR LRBM 291130Z 26006KT 220V310 9999 VCSH FEW040 FEW042CB
                        23/13 Q1011=
201905291200 METAR LRBM 291200Z 26011KT 9999 FEW040 FEW042CB 23/14 Q1011=
201905291230 METAR LRBM 291230Z 28008KT 250V310 9999 FEW040 FEW044CB 23/13
                        Q1011=
201905291300 METAR LRBM 291300Z 25009KT 9999 FEW040 FEW044CB 24/15 Q1011=
201905291330 METAR LRBM 291330Z 26007KT 9999 FEW042 FEW044CB 22/15 Q1011=
201905291400 METAR LRBM 291400Z 25006KT 9999 FEW044CB 23/15 Q1011=
201905291430 METAR LRBM 291430Z 26005KT 9999 FEW044TCU 24/13 Q1011=
201905291500 METAR LRBM 291500Z 26006KT 230V290 9999 FEW044CB 24/14 Q1011=
201905291530 METAR LRBM 291530Z 25007KT 9999 FEW044 23/15 Q1011=
201905291600 METAR LRBM 291600Z 26005KT 9999 FEW044CB 23/15 Q1011=
201905291630 METAR LRBM 291630Z 25003KT 9999 FEW044CB 22/16 Q1011=
201905291700 METAR LRBM 291700Z 26003KT 9999 FEW044CB 22/17 Q1011=
201905291730 METAR LRBM 291730Z 27003KT CAVOK 21/17 Q1011=
201905291800 METAR LRBM 291800Z 26004KT 9999 FEW055 21/17 Q1012=
201905291830 METAR LRBM 291830Z 29002KT 9999 FEW055 21/17 Q1012=
201905291900 METAR LRBM 291900Z 01003KT 9999 FEW057 20/16 Q1013=
201905291930 METAR LRBM 291930Z 36001KT 9999 FEW057 19/16 Q1013=
201905292000 METAR LRBM 292000Z VRB01KT 9999 FEW059 18/16 Q1013=
201905292030 METAR LRBM 292030Z VRB02KT 9999 FEW060 18/16 Q1013=
201905292100 METAR LRBM 292100Z 28007KT 9999 FEW058 18/15 Q1013=
201905292130 METAR LRBM 292130Z 27007KT 9999 FEW010 SCT055 17/15 Q1013=
201905292200 METAR COR LRBM 292200Z 26006KT 9999 FEW025 SCT055 16/15 Q1014=
201905292230 METAR LRBM 292230Z AUTO 24006KT 9999 FEW008/// SCT055///
                        BKN200/// 16/15 Q1014=
201905292300 METAR LRBM 292300Z AUTO 29004KT 250V330 9999 FEW009/// BKN012///
                        BKN075/// 16/14 Q1014=
201905292330 METAR LRBM 292330Z AUTO 27007KT 250V310 9999 SCT013/// BKN020///
                        16/14 Q1014=
201905300000 METAR LRBM 300000Z AUTO 35004KT 310V050 9999 SCT011/// BKN016///
                        16/14 Q1014=
201905300030 METAR LRBM 300030Z AUTO 25005KT 9999 SCT010/// BKN013///
                        BKN230/// 16/14 Q1014 REDZ=
201905300100 METAR LRBM 300100Z AUTO 25006KT 9999 SHRA VCTS FEW009///
                        BKN013/// BKN140/// 15/14 Q1014=
201905300130 METAR LRBM 300130Z AUTO 30002KT 260V030 7000 SHRA FEW006///
                        BKN011/// BKN014/// 15/14 Q1015=
201905300200 METAR LRBM 300200Z 35004KT 310V030 9999 -SHRA VCTS SCT006
                        SCT036CB 15/14 Q1015 R09/29//95=
201905300230 METAR LRBM 300230Z 04003KT 9999 -SHRA FEW007 SCT030CB 15/14
                        Q1015 R09/29//95=
201905300300 METAR LRBM 300300Z 15004KT 9999 -SHRA FEW007 SCT017 SCT033CB
                        15/14 Q1015 R09/29//95=
201905300330 METAR LRBM 300330Z 26004KT 220V280 9999 -SHRA FEW002 FEW033CB
                        15/14 Q1016 R09/29//95=
201905300400 METAR LRBM 300400Z 28005KT 9999 -RA FEW002 BKN007 BKN032
                        15/14 Q1016 R09/29//95=
201905300430 METAR LRBM 300430Z 27005KT 9999 -RA SCT002 BKN006 BKN036
                        15/14 Q1016 R09/29//95=
201905300500 METAR LRBM 300500Z 29003KT 260V330 9999 FEW002 0VC005 15/14
                        Q1016 R09/29//95=
201905300530 METAR LRBM 300530Z 21001KT 9999 SCT003 OVC005 15/14 Q1017
                        R09/29//95=
201905300600 METAR LRBM 300600Z 23003KT 150V270 9999 -DZ FEW003 BKN005
                        BKN034 15/14 Q1017 R09/19//95=
201905300630 METAR LRBM 300630Z 23002KT 9999 BKN004 BKN034 16/14 Q1017
                        R09/19//95=
201905300700 METAR LRBM 300700Z 23002KT 200V270 9999 SCT005 BKN007 BKN032
                        16/14 Q1017 R09/19//95=
201905300730 METAR LRBM 300730Z 25003KT 210V340 9999 FEW006 BKN008 BKN029
                        16/14 Q1018 R09/19//95=
201905300800 METAR LRBM 300800Z 27004KT 9999 FEW007 BKN013 FEW029TCU 17/15
                        Q1018 R09/19//95=
201905300830 METAR LRBM 300830Z 29006KT 250V320 9999 FEW009 SCT034 17/15
                        Q1018 R09/19//95=
201905300900 METAR LRBM 300900Z 28007KT 250V320 9999 FEW009 FEW029TCU
                        SCT032 18/14 Q1018 R09/19//95=
201905300930 METAR LRBM 300930Z 29006KT 260V330 9999 BKN032 19/15 Q1018
                        R09/19//95=
201905301000 METAR LRBM 301000Z 27009KT 9999 FEW030TCU BKN032 19/15 Q1018
                        R09/19//95=
201905301030 METAR LRBM 301030Z 27010KT 9999 FEW030TCU BKN032 19/15 Q1018
                        R09/19//95=
201905301100 METAR LRBM 301100Z 27011KT 9999 FEW030TCU BKN032 20/15 Q1018
                        R09/19//95=
201905301130 METAR LRBM 301130Z 26012KT 9999 FEW030TCU BKN032 20/16 Q1018
                        R09/19//95=
201905301200 METAR LRBM 301200Z 26010KT 9999 VCSH FEW030CB BKN032 19/15
                        Q1018 R09/19//95=
201905301230 METAR LRBM 301230Z 26009KT 9999 -RA SCT022 BKN040 18/16 Q1018
                        R09/19//95=
201905301300 METAR LRBM 301300Z 27008KT 9999 -RA SCT023 18/16 Q1019 R09/19//95=
201905301330 METAR LRBM 301330Z 29004KT 9999 -RA SCT023 18/16 Q1019 R09/19//95=
201905301400 METAR LRBM 301400Z 28005KT 250V310 9999 FEW013 SCT023 19/16
                        Q1019 R09/19//95=
201905301430 METAR LRBM 301430Z 28006KT 9999 SCT023 19/15 Q1018 R09/19//95=
201905301500 METAR LRBM 301500Z 31004KT 260V360 9999 SCT023 20/16 Q1019
                        R09/19//95=
201905301530 METAR LRBM 301530Z 27005KT 250V310 9999 SCT023 20/15 Q1019
                        R09/19//95=
201905301600 METAR LRBM 301600Z 27003KT 9999 SCT023 20/16 Q1018 R09/19//95=
201905301630 METAR LRBM 301630Z 27006KT 9999 SCT028 20/15 Q1019 R09/19//95=
201905301700 METAR LRBM 301700Z 29005KT 260V320 9999 FEW023 SCT060 19/15
                        Q1019 R09/19//95=
201905301730 METAR LRBM 301730Z 28006KT 9999 FEW026 SCT060 19/15 Q1019
                        R09/19//95=
201905301800 METAR LRBM 301800Z 28005KT 9999 FEW022 SCT060 18/15 Q1019
                        R09/19//95=
201905301830 METAR LRBM 301830Z 28004KT 9999 -RA FEW022 SCT050 18/15 Q1020
                        R09/19//95=
201905301900 METAR LRBM 301900Z 29006KT 9999 FEW023 SCT050 17/15 Q1020
                        R09/19//95=
201905301930 METAR LRBM 301930Z 27007KT 9999 -RA FEW020 SCT046 17/15 Q1020
                        R09/19//95=
201905302000 METAR LRBM 302000Z 27008KT 9999 FEW023 SCT060 16/14 Q1020
                        R09/19//95=
201905302030 METAR LRBM 302030Z 28007KT 9999 -RA FEW020 SCT050 16/14 Q1020
                        R09/19//95=
201905302100 METAR LRBM 302100Z 27008KT 9999 -RA BKN033 15/14 Q1020 R09/19//95=
201905302130 METAR LRBM 302130Z AUTO 27007KT 9999 BKN005/// BKN047///
                        15/14 Q1020=
201905302200 METAR LRBM 302200Z AUTO 27006KT 9999 BKN004/// BKN041///
                        15/14 Q1020=
201905302230 METAR LRBM 302230Z AUTO 27008KT 9999 SCT003/// BKN005///
                        15/14 Q1020=
201905302300 METAR LRBM 302300Z AUTO 27009KT 9999 BKN004/// BKN046///
                        14/13 Q1021=
201905302330 METAR LRBM 302330Z AUTO 29005KT 9999 BKN004/// 14/13 Q1021=
201905310000 METAR LRBM 310000Z AUTO 27006KT 9999 SCT004/// BKN006///
                        BKN080/// 14/13 Q1021=
201905310030 METAR LRBM 310030Z AUTO 27005KT 9000 BKN003/// BKN027///
                        14/13 Q1021=
201905310100 METAR LRBM 310100Z AUTO 28006KT 7000 FEW002/// BKN004///
                        BKN030/// 14/13 Q1020=
201905310130 METAR LRBM 310130Z AUTO 27005KT 6000 SCT002/// BKN004///
                        BKN065/// 14/13 Q1020=
201905310200 METAR LRBM 310200Z 26005KT 7000 FEW002 BKN004 BKN046 13/13
                        Q1020 R09/CLRD//=
201905310230 METAR LRBM 310230Z 27005KT 9000 SCT004 OVC006 14/13 Q1020=
201905310300 METAR LRBM 310300Z 26006KT 5000 BR BKN002 OVC007 13/12 Q1021=
201905310330 METAR LRBM 310330Z 26006KT 3000 BR OVC002 13/12 Q1021=
201905310400 METAR LRBM 310400Z 27004KT 2000 BR OVC002 13/12 Q1021=
201905310430 METAR LRBM 310430Z 28004KT 1500 BR SCT001 OVC003 13/12 Q1021=
201905310500 METAR LRBM 310500Z 28004KT 2000 BR SCT001 OVC003 13/12 Q1021=
201905310530 METAR LRBM 310530Z 27004KT 250V310 5000 BR FEW002 SCT005
                        BKN007 14/13 Q1021=
201905310600 METAR LRBM 310600Z 28004KT 250V320 9999 FEW003 SCT006 BKN009
                        14/13 Q1021=
201905310630 METAR LRBM 310630Z 26004KT 9999 FEW006 SCT016 15/13 Q1021=
201905310700 METAR LRBM 310700Z 23004KT 180V270 9999 SCT008 SCT032 15/13
                        Q1021=
201905310730 METAR LRBM 310730Z 25005KT 220V290 9999 SCT009 BKN035 16/13
                        Q1021=
201905310800 METAR LRBM 310800Z 26005KT 9999 BKN010 BKN035 16/13 Q1021=
201905310830 METAR LRBM 310830Z 26004KT 220V310 9999 FEW010 SCT013 BKN035
                        17/13 Q1021=
201905310900 METAR LRBM 310900Z 18004KT 140V240 9999 SCT010 SCT013 BKN033
                        17/14 Q1021=
201905310930 METAR LRBM 310930Z 20005KT 170V230 9999 SCT011 BKN015 BKN033
                        17/14 Q1021=
201905311000 METAR LRBM 311000Z 19004KT 160V230 9999 FEW011 SCT014 BKN038
                        17/14 Q1021=
201905311030 METAR LRBM 311030Z 23004KT 160V250 9999 SCT012 SCT015 BKN036
                        17/14 Q1021=
201905311100 METAR LRBM 311100Z 27005KT 240V310 9999 SCT014 BKN033 18/14
                        Q1021=
201905311130 METAR LRBM 311130Z 25007KT 9999 FEW018 BKN033 19/14 Q1020=
201905311200 METAR LRBM 311200Z 25007KT 9999 BKN035 19/15 Q1020=
201905311230 METAR LRBM 311230Z 24008KT 9999 BKN038 20/16 Q1020=
201905311300 METAR LRBM 311300Z 25010KT 9999 SCT038 21/16 Q1019=
201905311330 METAR LRBM 311330Z 26011KT 9999 SCT038 21/16 Q1019=
201905311400 METAR LRBM 311400Z 26011KT 9999 SCT038 21/16 Q1019=
201905311430 METAR LRBM 311430Z AUTO 27012KT 9999 FEW016/// SCT190///
                        22/16 Q1018=
201905311500 METAR LRBM 311500Z AUTO 27011KT 9999 FEW013/// SCT170///
                        BKN240/// 21/16 Q1019=
201905311530 METAR LRBM 311530Z AUTO 29006KT 260V340 9999 FEW015/// SCT170///
                        21/16 Q1018=
201905311600 METAR LRBM 311600Z AUTO 04007KT 9999 FEW017/// SCT044///
                        BKN180/// 20/15 Q1019=
201905311630 METAR LRBM 311630Z AUTO 05003KT 350V100 9999 FEW006/// SCT075///
                        20/14 Q1019=
201905311700 METAR LRBM 311700Z AUTO VRB01KT 9999 -SHRA FEW012/// SCT190///
                        19/15 Q1018=
201905311730 METAR LRBM 311730Z AUTO VRB01KT 9999 FEW013/// SCT170///
                        20/15 Q1018 REDZ=
201905311800 METAR LRBM 311800Z AUTO VRB01KT 9999 FEW016/// SCT170///
                        19/15 Q1018=
201905311830 METAR LRBM 311830Z AUTO 10001KT 9999 FEW018/// SCT180///
                        17/15 Q1019=
201905311900 METAR LRBM 311900Z AUTO 06003KT 030V120 9999 FEW017/// SCT200///
                        17/15 Q1019=
201905311930 METAR LRBM 311930Z AUTO 08004KT 9999 FEW028/// SCT190///
                        17/15 Q1019=
201905312000 METAR LRBM 312000Z AUTO 09004KT 9999 FEW024/// SCT220///
                        16/15 Q1019=
201905312030 METAR LRBM 312030Z AUTO 00000KT 9999 FEW024/// SCT210///
                        16/14 Q1019=
201905312100 METAR LRBM 312100Z AUTO 00000KT 8000 FEW016/// SCT210///
                        15/13 Q1019=
201905312130 METAR LRBM 312130Z AUTO 05003KT 020V080 9999 FEW041/// SCT200///
                        16/13 Q1019=
201905312200 METAR LRBM 312200Z AUTO 09001KT 9999 FEW014/// SCT200///
                        15/13 Q1019=
201905312230 METAR LRBM 312230Z AUTO 33003KT 290V360 9999 FEW016/// SCT180///
                        15/12 Q1019=
201905312300 METAR LRBM 312300Z AUTO 14002KT 090V220 7000 FEW021/// BKN190///
                        14/12 Q1019=
201905312330 METAR LRBM 312330Z AUTO 06003KT 350V100 9000 FEW014/// SCT180///
                        14/12 Q1019=
