201907010200 TAF LRBM 010200Z 0103/0112 VRB04KT CAVOK=
201907010500 TAF LRBM 010500Z 0106/0115 VRB04KT CAVOK
                      TEMPO 0110/0115 24010KT=
201907010800 TAF LRBM 010800Z 0109/0118 VRB04KT CAVOK
                      TEMPO 0110/0115 24010KT=
201907011100 TAF LRBM 011100Z 0112/0121 VRB04KT CAVOK
                      PROB40 TEMPO 0112/0115 24010KT=
201907011400 TAF LRBM 011400Z 0115/0124 VRB04KT CAVOK=
201907011700 TAF LRBM 011700Z 0118/0203 VRB04KT CAVOK=
201907012000 TAF LRBM 012000Z 0121/0206 VRB04KT CAVOK=
201907012300 TAF LRBM 012300Z 0200/0209 VRB04KT CAVOK=
201907020200 TAF LRBM 020200Z 0203/0212 09007KT CAVOK
                      BECMG 0210/0212 23010KT SCT040CB=
201907020500 TAF LRBM 020500Z 0206/0215 VRB04KT CAVOK
                      BECMG 0208/0210 25010KT
                      BECMG 0212/0214 31012KT SCT040CB=
201907020800 TAF LRBM 020800Z 0209/0218 VRB04KT CAVOK
                      BECMG 0209/0211 25010KT
                      BECMG 0212/0214 31012KT
                      TEMPO 0212/0216 SCT040CB=
201907021100 TAF LRBM 021100Z 0212/0221 25008KT CAVOK
                      BECMG 0212/0214 31012KT
                      TEMPO 0212/0216 SCT040CB
                      BECMG 0217/0219 VRB04KT=
201907021400 TAF LRBM 021400Z 0215/0224 29008KT CAVOK=
201907021700 TAF LRBM 021700Z 0218/0303 30008KT CAVOK
                      TEMPO 0218/0222 FEW045CB=
201907022000 TAF LRBM 022000Z NIL=
201907022300 TAF LRBM 022300Z 0300/0309 33008KT CAVOK
                      PROB40 TEMPO 0300/0304 -TSRA SCT045CB=
201907030200 TAF LRBM 030200Z 0303/0312 VRB04KT CAVOK
                      PROB40 TEMPO 0304/0312 30010KT SCT045CB=
201907030500 TAF LRBM 030500Z 0306/0315 VRB04KT CAVOK
                      PROB40 TEMPO 0310/0314 33015G25KT SCT030CB=
201907030800 TAF LRBM 030800Z 0309/0318 VRB04KT CAVOK
                      PROB40 TEMPO 0310/0314 33015G25KT SCT030CB=
201907031100 TAF LRBM 031100Z 0312/0321 29010KT CAVOK
                      BECMG 0314/0316 33015G25KT=
201907031248 TAF COR LRBM 031248Z 0312/0321 29010KT CAVOK
                      TEMPO 0314/0316 33015G25KT=
201907031400 TAF LRBM 031400Z 0315/0324 27014KT CAVOK
                      BECMG 0317/0319 VRB04KT=
201907031700 TAF LRBM 031700Z 0318/0403 27010KT CAVOK
                      BECMG 0318/0320 VRB04KT=
201907032000 TAF LRBM 032000Z 0321/0406 VRB04KT CAVOK=
201907032300 TAF LRBM 032300Z 0400/0409 VRB04KT CAVOK=
201907040200 TAF LRBM 040200Z 0403/0412 VRB04KT 9999 SCT040
                      BECMG 0409/0411 29010KT=
201907040500 TAF LRBM 040500Z 0406/0415 VRB04KT CAVOK
                      BECMG 0409/0411 28012KT=
201907040800 TAF LRBM 040800Z 0409/0418 VRB04KT CAVOK
                      BECMG 0410/0412 28014KT
                      BECMG 0416/0418 31004KT=
201907041100 TAF LRBM 041100Z 0412/0421 27007KT CAVOK=
201907041400 TAF LRBM 041400Z 0415/0424 29006KT CAVOK=
201907041700 TAF LRBM 041700Z 0418/0503 30006KT CAVOK=
201907042000 TAF LRBM 042000Z 0421/0506 30006KT CAVOK=
201907042300 TAF LRBM 042300Z 0500/0509 VRB04KT CAVOK=
201907050200 TAF LRBM 050200Z 0503/0512 VRB04KT CAVOK
                      BECMG 0509/0511 27010KT=
201907050500 TAF LRBM 050500Z 0506/0515 VRB04KT CAVOK
                      BECMG 0508/0510 27010KT=
201907050800 TAF LRBM 050800Z 0509/0518 VRB04KT CAVOK
                      BECMG 0509/0511 27010KT=
201907051100 TAF LRBM 051100Z 0512/0521 26012KT CAVOK
                      BECMG 0517/0519 VRB04KT=
201907051400 TAF LRBM 051400Z NIL=
201907051700 TAF LRBM 051700Z NIL=
201907052000 TAF LRBM 052000Z NIL=
201907052300 TAF LRBM 052300Z NIL=
201907060200 TAF LRBM 060200Z NIL=
201907060416 TAF LRBM 060416Z 0604/0612 VRB04KT CAVOK=
201907060500 TAF LRBM 060500Z 0606/0615 VRB04KT CAVOK=
201907060800 TAF LRBM 060800Z 0609/0618 VRB04KT CAVOK
                      BECMG 0612/0614 27010KT=
201907061100 TAF LRBM 061100Z 0612/0621 27008KT CAVOK=
201907061400 TAF LRBM 061400Z NIL=
201907061409 TAF AMD LRBM 061409Z 0614/0621 CNL=
201907061700 TAF LRBM 061700Z NIL=
201907062000 TAF LRBM 062000Z NIL=
201907062300 TAF LRBM 062300Z NIL=
201907070200 TAF LRBM 070200Z NIL=
201907070500 TAF LRBM 070500Z NIL=
201907070800 TAF LRBM 070800Z NIL=
201907071100 TAF LRBM 071100Z NIL=
201907071400 TAF LRBM 071400Z NIL=
201907071635 TAF LRBM 071635Z 0716/0724 VRB04KT CAVOK
                      TEMPO 0718/0722 VRB15KT 5000 TSRA SCT040CB=
201907071700 TAF LRBM 071700Z 0718/0803 VRB04KT CAVOK
                      TEMPO 0718/0722 VRB18KT 3000 TSRA SCT010
                       BKN030CB
                      PROB30 TEMPO 0718/0721 1500 +TSRAGR=
201907072000 TAF LRBM 072000Z 0721/0806 VRB04KT 9999 SCT040CB
                      BECMG 0721/0723 NSC=
201907072300 TAF LRBM 072300Z 0800/0809 31006KT CAVOK=
201907080200 TAF LRBM 080200Z 0803/0812 29008KT CAVOK
                      TEMPO 0803/0805 5000 BR BKN003=
201907080500 TAF LRBM 080500Z 0806/0815 30010KT 9999 SCT035
                      TEMPO 0806/0808 BKN005=
201907080800 TAF LRBM 080800Z 0809/0818 30012KT 9999 SCT035=
201907081100 TAF LRBM 081100Z 0812/0821 28012KT 9999 SCT040
                      PROB30 TEMPO 0814/0818 SCT040CB
                      BECMG 0818/0820 VRB03KT=
201907081400 TAF LRBM 081400Z 0815/0824 28012KT 9999 SCT040
                      PROB30 TEMPO 0815/0818 SCT040CB
                      BECMG 0818/0820 VRB03KT=
201907081700 TAF LRBM 081700Z 0818/0903 VRB04KT CAVOK=
201907082000 TAF LRBM 082000Z 0821/0906 VRB04KT CAVOK=
201907082300 TAF LRBM 082300Z 0900/0909 VRB04KT CAVOK
                      BECMG 0907/0909 29010KT=
201907090200 TAF LRBM 090200Z 0903/0912 VRB04KT CAVOK
                      TEMPO 0903/0906 3000 BR=
201907090500 TAF LRBM 090500Z 0906/0915 VRB04KT CAVOK
                      BECMG 0908/0910 28010KT
                      PROB30 TEMPO 0911/0915 FEW040CB=
201907090800 TAF LRBM 090800Z 0909/0918 27010KT CAVOK
                      TEMPO 0912/0918 FEW040CB
                      PROB30 TEMPO 0914/0918 VRB18KT -TSRA=
201907091100 TAF LRBM 091100Z 0912/0921 27010KT 9999 SCT040
                      TEMPO 0912/0918 FEW030CB BKN040
                      PROB30 TEMPO 0914/0918 VRB18KT -TSRA
                      BECMG 0918/0920 VRB04KT=
201907091400 TAF LRBM 091400Z 0915/0924 VRB04KT 9999 SCT040
                      TEMPO 0915/0917 27010KT=
201907091700 TAF LRBM 091700Z 0918/1003 VRB04KT CAVOK=
201907092000 TAF LRBM 092000Z 0921/1006 VRB04KT CAVOK
                      TEMPO 0921/0923 SCT040CB=
201907092300 TAF LRBM 092300Z 1000/1009 VRB04KT CAVOK
                      TEMPO 1000/1003 VRB15KT 5000 -TSRA SCT040CB=
201907100200 TAF LRBM 100200Z 1003/1012 VRB04KT CAVOK
                      BECMG 1008/1010 30010KT=
201907100500 TAF LRBM 100500Z 1006/1015 VRB04KT CAVOK=
201907100800 TAF LRBM 100800Z 1009/1018 27008KT CAVOK=
201907101100 TAF LRBM 101100Z 1012/1021 VRB04KT CAVOK
                      TEMPO 1012/1015 SCT035CB=
201907101400 TAF LRBM 101400Z 1015/1024 VRB04KT CAVOK=
201907101700 TAF LRBM 101700Z 1018/1103 VRB04KT 9999 FEW040CB
                      BECMG 1020/1022 NSC=
201907102000 TAF LRBM 102000Z 1021/1106 VRB04KT 9999 FEW040CB
                      BECMG 1021/1023 NSC=
201907102300 TAF LRBM 102300Z 1100/1109 VRB04KT CAVOK
                      BECMG 1107/1109 SCT040CB=
201907110200 TAF LRBM 110200Z 1103/1112 VRB04KT 9999 SCT040
                      TEMPO 1108/1112 5000 -SHRA SCT040CB
                      PROB30 TEMPO 1109/1112 TSRA=
201907110500 TAF LRBM 110500Z 1106/1115 VRB04KT CAVOK
                      TEMPO 1109/1115 30015G25KT 5000 TSRA SCT040CB=
201907110800 TAF LRBM 110800Z 1109/1118 VRB04KT CAVOK
                      TEMPO 1109/1116 30015G25KT 5000 TSRA SCT040CB=
201907111100 TAF LRBM 111100Z 1112/1121 30008KT 9999 SCT040CB
                      TEMPO 1112/1117 30015G25KT 5000 TSRA
                      BECMG 1117/1119 NSC=
201907111400 TAF LRBM 111400Z 1115/1124 VRB04KT 9999 SCT035
                      TEMPO 1115/1118 32015G25KT 5000 TSRA SCT040CB=
201907111700 TAF LRBM 111700Z 1118/1203 VRB04KT 9999 FEW040CB
                      BECMG 1118/1120 NSC=
201907112000 TAF LRBM 112000Z 1121/1206 VRB04KT CAVOK=
201907112300 TAF LRBM 112300Z 1200/1209 VRB04KT CAVOK=
201907120200 TAF LRBM 120200Z 1203/1212 VRB04KT CAVOK
                      TEMPO 1203/1205 3000 BR=
201907120500 TAF LRBM 120500Z 1206/1215 VRB04KT CAVOK=
201907120800 TAF LRBM 120800Z 1209/1218 VRB04KT CAVOK=
201907121100 TAF LRBM 121100Z 1212/1221 28006KT 9999 SCT040
                      PROB40 TEMPO 1212/1218 SCT040CB=
201907121400 TAF LRBM 121400Z 1215/1224 28006KT 9999 SCT045=
201907121700 TAF LRBM 121700Z NIL=
201907122000 TAF LRBM 122000Z NIL=
201907122300 TAF LRBM 122300Z NIL=
201907130200 TAF LRBM 130200Z NIL=
201907130500 TAF LRBM 130500Z NIL=
201907130533 TAF LRBM 130533Z 1306/1315 VRB04KT 9999 BKN045
                      BECMG 1309/1311 24010KT
                      TEMPO 1311/1315 FEW030CB BKN045=
201907130800 TAF LRBM 130800Z 1309/1318 VRB04KT 9999 BKN045
                      TEMPO 1309/1311 FEW035CB BKN050
                      PROB40 TEMPO 1314/1318 5000 -TSRA SCT030CB
                       BKN040=
201907131100 TAF LRBM 131100Z 1312/1321 VRB04KT 9999 BKN050
                      PROB40 TEMPO 1314/1318 5000 -TSRA SCT030CB
                       BKN045=
201907131400 TAF LRBM 131400Z NIL=
201907131700 TAF LRBM 131700Z NIL=
201907132000 TAF LRBM 132000Z NIL=
201907132300 TAF LRBM 132300Z NIL=
201907140200 TAF LRBM 140200Z NIL=
201907140500 TAF LRBM 140500Z NIL=
201907140800 TAF LRBM 140800Z NIL=
201907141100 TAF LRBM 141100Z NIL=
201907141400 TAF LRBM 141400Z NIL=
201907141700 TAF LRBM 141700Z 1418/1503 VRB04KT 9999 BKN055
                      BECMG 1422/1424 3000 BR BKN005
                      PROB40 TEMPO 1500/1503 0800 FG BKN001=
201907142000 TAF LRBM 142000Z 1421/1506 VRB04KT CAVOK
                      BECMG 1422/1424 3000 BR BKN005
                      PROB40 TEMPO 1500/1503 0800 FG BKN001=
201907142300 TAF LRBM 142300Z 1500/1509 VRB04KT CAVOK
                      TEMPO 1500/1504 3000 BR=
201907150200 TAF LRBM 150200Z 1503/1512 VRB04KT CAVOK
                      TEMPO 1509/1512 VRB18KT -TSRA SCT040CB=
201907150500 TAF LRBM 150500Z 1506/1515 VRB04KT CAVOK
                      TEMPO 1506/1507 BKN010
                      TEMPO 1509/1513 VRB18KT 5000 -TSRA BKN015
                       SCT040CB=
201907150800 TAF LRBM 150800Z 1509/1518 VRB04KT 9999 BKN035
                      TEMPO 1509/1510 BKN010
                      TEMPO 1510/1514 VRB18KT 5000 -TSRA BKN010
                       SCT030CB=
201907151100 TAF LRBM 151100Z 1512/1521 02006KT 9999 SCT035
                      TEMPO 1512/1515 VRB18KT 5000 -TSRA SCT010
                       SCT030CB=
201907151400 TAF LRBM 151400Z 1515/1524 VRB04KT 9999 SCT045
                      TEMPO 1515/1517 5000 -TSRA SCT010 SCT040CB=
201907151700 TAF LRBM 151700Z 1518/1603 VRB04KT CAVOK=
201907152000 TAF LRBM 152000Z 1521/1606 VRB03KT CAVOK=
201907152300 TAF LRBM 152300Z 1600/1609 VRB04KT CAVOK=
201907160200 TAF LRBM 160200Z 1603/1612 VRB04KT CAVOK=
201907160500 TAF LRBM 160500Z 1606/1615 VRB04KT CAVOK
                      TEMPO 1609/1614 23010KT=
201907160800 TAF LRBM 160800Z 1609/1618 23010KT 9999 SCT040
                      BECMG 1615/1617 VRB04KT=
201907161100 TAF LRBM 161100Z 1612/1621 23010KT 9999 SCT040
                      BECMG 1615/1617 VRB04KT=
201907161400 TAF LRBM 161400Z 1615/1624 26010KT 9999 SCT045
                      BECMG 1615/1617 VRB04KT=
201907161700 TAF LRBM 161700Z 1618/1703 28006KT CAVOK=
201907162000 TAF LRBM 162000Z 1621/1706 VRB04KT CAVOK=
201907162300 TAF LRBM 162300Z 1700/1709 VRB04KT CAVOK=
201907170200 TAF LRBM 170200Z 1703/1712 VRB04KT CAVOK
                      BECMG 1708/1710 28010KT=
201907170500 TAF LRBM 170500Z 1706/1715 VRB04KT CAVOK
                      BECMG 1708/1710 29010KT=
201907170800 TAF LRBM 170800Z 1709/1718 VRB04KT CAVOK
                      BECMG 1709/1711 29012KT=
201907171100 TAF LRBM 171100Z 1712/1721 27012KT CAVOK
                      BECMG 1717/1719 VRB04KT=
201907171400 TAF LRBM 171400Z 1715/1724 29007KT CAVOK=
201907171700 TAF LRBM 171700Z 1718/1803 31005KT CAVOK=
201907172000 TAF LRBM 172000Z 1721/1806 VRB04KT CAVOK=
201907172300 TAF LRBM 172300Z 1800/1809 VRB04KT CAVOK=
201907180200 TAF LRBM 180200Z 1803/1812 VRB04KT CAVOK=
201907180500 TAF LRBM 180500Z 1806/1815 VRB04KT CAVOK=
201907180800 TAF LRBM 180800Z 1809/1818 VRB04KT CAVOK=
201907181100 TAF LRBM 181100Z 1812/1821 25008KT CAVOK=
201907181400 TAF LRBM 181400Z 1815/1824 VRB04KT CAVOK=
201907181700 TAF LRBM 181700Z 1818/1903 VRB04KT CAVOK=
201907182000 TAF LRBM 182000Z 1821/1906 VRB04KT CAVOK=
201907182300 TAF LRBM 182300Z 1900/1909 VRB04KT CAVOK=
201907190200 TAF LRBM 190200Z 1903/1912 VRB04KT CAVOK
                      BECMG 1909/1911 27010KT=
201907190417 TAF AMD LRBM 190417Z 1904/1912 VRB04KT CAVOK
                      TEMPO 1904/1906 5000 -TSRA SCT030CB
                      BECMG 1909/1911 27010KT=
201907190500 TAF LRBM 190500Z 1906/1915 VRB04KT CAVOK
                      TEMPO 1913/1915 SCT040CB
                      PROB30 TEMPO 1913/1915 TSRA=
201907190800 TAF LRBM 190800Z 1909/1918 VRB04KT CAVOK
                      TEMPO 1913/1916 SCT040CB
                      PROB30 TEMPO 1913/1915 TSRA=
201907191100 TAF LRBM 191100Z 1912/1921 VRB04KT CAVOK
                      TEMPO 1912/1916 SCT040CB
                      PROB30 TEMPO 1913/1915 TSRA=
201907191400 TAF LRBM 191400Z 1915/1924 26006KT CAVOK=
201907191635 TAF AMD LRBM 191635Z 1916/1924 CNL=
201907191700 TAF LRBM 191700Z NIL=
201907192000 TAF LRBM 192000Z NIL=
201907192300 TAF LRBM 192300Z NIL=
201907200200 TAF LRBM 200200Z 2003/2012 VRB04KT CAVOK=
201907200500 TAF LRBM 200500Z 2006/2015 VRB04KT 9999 FEW040
                      TEMPO 2009/2015 SCT040CB
                      PROB30 TEMPO 2012/2015 5000 -TSRA=
201907200818 TAF COR LRBM 200818Z 2009/2018 VRB04KT 9999 SCT045CB
                      TEMPO 2009/2016 5000 -SHRA
                      PROB30 TEMPO 2011/2016 3000 TSRA BKN010 BKN040CB=
201907201100 TAF LRBM 201100Z 2012/2021 VRB04KT 9999 SCT045CB
                      TEMPO 2012/2016 3000 TSRA BKN010 BKN040CB
                       BECMG 2016/2018 SCT045=
201907201400 TAF LRBM 201400Z 2015/2024 VRB04KT 9999 FEW030=
201907201700 TAF LRBM 201700Z NIL=
201907202000 TAF LRBM 202000Z NIL=
201907202300 TAF LRBM 202300Z NIL=
201907210200 TAF LRBM 210200Z NIL=
201907210500 TAF LRBM 210500Z NIL=
201907210800 TAF LRBM 210800Z NIL=
201907211100 TAF LRBM 211100Z NIL=
201907211400 TAF LRBM 211400Z NIL=
201907211700 TAF LRBM 211700Z 2118/2203 VRB04KT CAVOK
                      TEMPO 2119/2123 VRB25G35KT 3000 TSRA SQ BKN010
                       BKN040CB=
201907212000 TAF LRBM 212000Z 2121/2206 VRB04KT 9999 SCT045CB
                      TEMPO 2121/2123 VRB20G30KT 5000 -TSRA
                      BECMG 2123/2201 SCT015 SCT030=
201907212300 TAF LRBM 212300Z NIL=
201907220200 TAF LRBM 220200Z 2203/2212 VRB04KT 9999 FEW030CB BKN040
                      BECMG 2203/2205 NSC
                      PROB30 TEMPO 2203/2205 3000 BR
                      BECMG 2208/2210 29010KT
                      TEMPO 2210/2212 SCT045CB=
201907220500 TAF LRBM 220500Z 2206/2215 VRB04KT CAVOK=
201907220800 TAF LRBM 220800Z 2209/2218 VRB04KT CAVOK=
201907221100 TAF LRBM 221100Z 2212/2221 27012KT CAVOK
                      BECMG 2215/2217 VRB04KT=
201907221400 TAF LRBM 221400Z 2215/2224 27012KT CAVOK
                      BECMG 2216/2218 VRB04KT=
201907221700 TAF LRBM 221700Z 2218/2303 VRB04KT CAVOK=
201907222000 TAF LRBM 222000Z 2221/2306 VRB04KT CAVOK=
201907222300 TAF LRBM 222300Z 2300/2309 VRB04KT CAVOK
                      BECMG 2307/2309 30010KT=
201907230200 TAF LRBM 230200Z 2303/2312 VRB04KT CAVOK
                      BECMG 2307/2309 32010KT
                      PROB30 TEMPO 2308/2312 5000 -SHRA FEW040CB=
201907230500 TAF LRBM 230500Z 2306/2315 VRB04KT CAVOK
                      BECMG 2306/2308 34010KT
                      PROB40 TEMPO 2309/2314 5000 -TSRA SCT040CB=
201907230800 TAF LRBM 230800Z 2309/2318 VRB04KT CAVOK
                      PROB30 TEMPO 2309/2314 5000 -TSRA SCT040CB=
201907231100 TAF LRBM 231100Z 2312/2321 VRB04KT CAVOK
                      TEMPO 2312/2316 5000 -SHRA BKN010 BKN030CB
                       PROB30 2312/2314 TSRA=
201907231400 TAF LRBM 231400Z 2315/2324 VRB04KT CAVOK=
201907231700 TAF LRBM 231700Z 2318/2403 VRB04KT CAVOK=
201907232000 TAF LRBM 232000Z NIL=
201907232210 TAF LRBM 232210Z 2322/2406 VRB04KT CAVOK=
201907232300 TAF LRBM 232300Z 2400/2409 VRB04KT CAVOK=
201907240200 TAF LRBM 240200Z 2403/2412 VRB04KT CAVOK=
201907240406 TAF AMD LRBM 240406Z 2404/2412 VRB04KT 0600 FG BKN002
                      BECMG 2404/2406 3000 BR SCT010
                      BECMG 2406/2408 CAVOK=
201907240500 TAF LRBM 240500Z 2406/2415 VRB04KT 0800 FG BKN001
                      BECMG 2406/2407 3000 BR SCT010
                      BECMG 2407/2409 CAVOK
                      PROB30 TEMPO 2411/2415 SCT040CB=
201907240800 TAF LRBM 240800Z 2409/2418 VRB04KT CAVOK
                      PROB30 TEMPO 2411/2416 SCT040CB=
201907241100 TAF LRBM 241100Z 2412/2421 30007KT 9999 SCT040
                      PROB40 TEMPO 2412/2416 SCT040CB=
201907241400 TAF LRBM 241400Z 2415/2424 28010KT CAVOK
                      BECMG 2416/2418 VRB04KT=
201907241700 TAF LRBM 241700Z 2418/2503 28006KT CAVOK=
201907242000 TAF LRBM 242000Z 2421/2506 VRB04KT CAVOK=
201907242300 TAF LRBM 242300Z 2500/2509 VRB04KT CAVOK=
201907250200 TAF LRBM 250200Z 2503/2512 VRB04KT CAVOK=
201907250500 TAF LRBM 250500Z 2506/2515 VRB04KT CAVOK=
201907250800 TAF LRBM 250800Z 2509/2518 VRB04KT 9999 SCT035=
201907251100 TAF LRBM 251100Z 2512/2521 VRB04KT 9999 SCT045=
201907251400 TAF LRBM 251400Z 2515/2524 VRB04KT 9999 SCT045=
201907251700 TAF LRBM 251700Z 2518/2603 VRB04KT CAVOK=
201907252000 TAF LRBM 252000Z 2521/2606 VRB04KT CAVOK=
201907252300 TAF LRBM 252300Z 2600/2609 VRB04KT CAVOK=
201907260200 TAF LRBM 260200Z 2603/2612 VRB04KT CAVOK=
201907260500 TAF LRBM 260500Z 2606/2615 VRB04KT CAVOK=
201907260800 TAF LRBM 260800Z 2609/2618 VRB04KT CAVOK=
201907261100 TAF LRBM 261100Z 2612/2621 24006KT CAVOK
                      TEMPO 2612/2616 SCT040CB=
201907261400 TAF LRBM 261400Z 2615/2624 24006KT CAVOK
                      TEMPO 2615/2617 SCT040CB=
201907261700 TAF LRBM 261700Z NIL=
201907262000 TAF LRBM 262000Z NIL=
201907262300 TAF LRBM 262300Z NIL=
201907270200 TAF LRBM 270200Z 2703/2712 VRB04KT CAVOK
                      TEMPO 2706/2710 5000 -TSRA SCT040CB=
201907270500 TAF LRBM 270500Z 2706/2715 VRB04KT CAVOK
                      TEMPO 2708/2713 VRB15KT 5000 -TSRA SCT040CB=
201907270800 TAF LRBM 270800Z 2709/2718 VRB04KT CAVOK
                      TEMPO 2710/2714 VRB15KT 5000 -TSRA SCT040CB=
201907271100 TAF LRBM 271100Z 2712/2721 VRB04KT 9999 SCT040
                      TEMPO 2712/2717 VRB15KT 5000 -TSRA SCT040CB=
201907271400 TAF LRBM 271400Z NIL=
201907271700 TAF LRBM 271700Z NIL=
201907272000 TAF LRBM 272000Z NIL=
201907272300 TAF LRBM 272300Z NIL=
201907280200 TAF LRBM 280200Z NIL=
201907280500 TAF LRBM 280500Z NIL=
201907280800 TAF LRBM 280800Z NIL=
201907281100 TAF LRBM 281100Z NIL=
201907281400 TAF LRBM 281400Z 2815/2824 09010KT 9999 SCT040
                      TEMPO 2817/2821 VRB15G25KT 5000 TSRA SCT040CB=
201907281700 TAF LRBM 281700Z NIL=
201907281917 TAF AMD LRBM 281917Z 2819/2903 VRB04KT 9999 SCT040
                      TEMPO 2819/2822 VRB15G25KT 5000 TSRA SCT040CB=
201907282000 TAF LRBM 282000Z 2821/2906 VRB04KT 9999 SCT040
                      TEMPO 2821/2824 SCT040CB=
201907282300 TAF LRBM 282300Z 2900/2909 VRB04KT 9999 SCT040=
201907290200 TAF LRBM 290200Z 2903/2912 VRB04KT CAVOK
                      TEMPO 2909/2912 SCT030CB=
201907290305 TAF AMD LRBM 290305Z 2903/2912 VRB04KT 3000 BR BKN005 BKN040
                      TEMPO 2903/2905 1500 BR BKN002 BKN030
                      BECMG 2905/2907 9999 NSW BKN035
                      TEMPO 2909/2912 SCT030CB=
201907290500 TAF LRBM 290500Z 2906/2915 VRB04KT 9999 BKN030
                      PROB40 TEMPO 2910/2912 SCT030CB=
201907290800 TAF LRBM 290800Z 2909/2918 VRB04KT 9999 SCT030
                      PROB40 TEMPO 2910/2916 SCT030CB=
201907291100 TAF LRBM 291100Z 2912/2921 VRB04KT 9999 SCT030
                      PROB40 TEMPO 2912/2917 SCT030CB=
201907291400 TAF LRBM 291400Z 2915/2924 VRB04KT 9999 SCT040
                      PROB40 TEMPO 2915/2917 -TSRA SCT040CB=
201907291700 TAF LRBM 291700Z 2918/3003 VRB04KT 9999 SCT040
                      TEMPO 2918/2920 SCT040 FEW050CB
                      BECMG 2922/2924 5000 BR BKN015
                      TEMPO 3000/3003 3000 BR BKN010=
201907292000 TAF LRBM 292000Z 2921/3006 VRB04KT CAVOK
                      BECMG 2922/2924 5000 BR BKN015
                      BECMG 3000/3002 3000 BR BKN010
                      TEMPO 3002/3006 1500 BR OVC005=
201907292300 TAF LRBM 292300Z 3000/3009 VRB04KT CAVOK
                      BECMG 3000/3002 3000 BR BKN010
                      TEMPO 3002/3004 1500 BR OVC005
                      BECMG 3005/3007 9999 NSW SCT020=
201907300200 TAF LRBM 300200Z 3003/3012 VRB04KT 5000 BR SCT015
                      TEMPO 3003/3005 1500 BR BKN005
                      PROB30 TEMPO 3003/3005 0800 FG BKN001
                      BECMG 3005/3007 9999 NSW
                      TEMPO 3009/3012 32010KT -TSRA SCT040CB=
201907300500 TAF LRBM 300500Z 3006/3015 VRB03KT CAVOK
                      BECMG 3010/3012 29010KT
                      PROB30 TEMPO 3013/3015 VRB15G25KT 5000 -TSRA
                       SCT040CB=
201907300800 TAF LRBM 300800Z 3009/3018 VRB03KT CAVOK
                      BECMG 3010/3012 29010KT
                      PROB30 TEMPO 3013/3017 VRB15G25KT 5000 -TSRA
                       SCT040CB=
201907301100 TAF LRBM 301100Z 3012/3021 29008KT CAVOK
                      PROB40 TEMPO 3013/3017 VRB15G25KT 5000 -TSRA
                       SCT040CB=
201907301400 TAF LRBM 301400Z 3015/3024 28008KT CAVOK
                      PROB40 TEMPO 3016/3021 VRB15G25KT 5000 -TSRA
                       SCT040CB=
201907301700 TAF LRBM 301700Z 3018/3103 28008KT CAVOK
                      PROB40 TEMPO 3019/3023 VRB15G25KT 5000 TSRA
                       SCT040CB
                      BECMG 3023/3101 3000 BR=
201907302000 TAF LRBM 302000Z 3021/3106 VRB04KT CAVOK
                      PROB30 TEMPO 3022/3023 SCT040CB
                      BECMG 3023/3101 3000 BR
                      PROB40 TEMPO 3102/3104 0600 FG BKN001=
201907302300 TAF LRBM 302300Z 3100/3109 VRB04KT 9999 SCT045CB
                      TEMPO 3100/3101 5000 -TSRA
                      BECMG 3101/3103 3000 BR NSC
                      PROB40 TEMPO 3102/3104 0600 FG BKN001
                      BECMG 3106/3108 9999 NSW=
201907310200 TAF LRBM 310200Z 3103/3112 VRB04KT 9999 BKN030
                      PROB40 TEMPO 3103/3106 5000 BR BKN005
                      BECMG 3109/3111 31010KT FEW040CB=
201907310500 TAF LRBM 310500Z 3106/3115 VRB04KT CAVOK
                      PROB30 TEMPO 3112/3115 VRB20KT 5000 TSRA
                       SCT040CB=
201907310800 TAF LRBM 310800Z 3109/3118 VRB04KT CAVOK
                      PROB40 TEMPO 3112/3115 VRB20KT 5000 TSRA
                       SCT040CB=
201907311100 TAF LRBM 311100Z 3112/3121 30010KT CAVOK
                      TEMPO 3112/3116 SCT040CB
                      PROB40 TEMPO 3112/3115 VRB20KT 5000 TSRA
                       BECMG 3116/3118 VRB04KT=
201907311400 TAF LRBM 311400Z 3115/3124 28008KT CAVOK
                      TEMPO 3115/3118 VRB20KT 3000 TSRA BKN015
                       BKN040CB=
201907311700 TAF LRBM 311700Z 3118/0103 VRB03KT CAVOK
                      PROB40 TEMPO 3123/0103 3000 BR BKN010=
201907312000 TAF LRBM 312000Z 3121/0106 VRB03KT CAVOK
                      PROB30 TEMPO 0100/0105 3000 BR BKN010=
201907312300 TAF LRBM 312300Z 0100/0109 VRB03KT CAVOK=
