201907010000 METAR LRBM 010000Z AUTO 06003KT 9999 FEW033/// SCT230///
                        18/15 Q1021=
201907010030 METAR LRBM 010030Z AUTO 08003KT 9999 FEW047/// SCT240///
                        18/15 Q1020=
201907010100 METAR LRBM 010100Z AUTO 08004KT 9999 FEW012/// SCT240///
                        17/15 Q1020=
201907010130 METAR LRBM 010130Z AUTO 08004KT 9999 FEW025/// SCT220///
                        18/15 Q1020=
201907010200 METAR LRBM 010200Z 09005KT CAVOK 17/15 Q1020=
201907010230 METAR LRBM 010230Z 07005KT CAVOK 18/15 Q1020=
201907010300 METAR LRBM 010300Z 07003KT CAVOK 18/15 Q1020=
201907010330 METAR LRBM 010330Z 09005KT CAVOK 18/15 Q1020=
201907010400 METAR LRBM 010400Z 09005KT CAVOK 19/15 Q1020=
201907010430 METAR LRBM 010430Z 06003KT CAVOK 20/15 Q1020=
201907010500 METAR LRBM 010500Z 14003KT CAVOK 21/16 Q1020=
201907010530 METAR LRBM 010530Z 16003KT CAVOK 22/16 Q1020=
201907010600 METAR LRBM 010600Z 15002KT CAVOK 23/17 Q1020=
201907010630 METAR LRBM 010630Z 13003KT 080V200 CAVOK 24/16 Q1020=
201907010700 METAR LRBM 010700Z 15004KT 120V180 CAVOK 25/16 Q1020=
201907010730 METAR LRBM 010730Z 13004KT 070V170 CAVOK 26/15 Q1020=
201907010800 METAR LRBM 010800Z 14004KT 070V220 CAVOK 27/16 Q1020=
201907010830 METAR LRBM 010830Z VRB03KT CAVOK 28/15 Q1020=
201907010900 METAR LRBM 010900Z 11004KT 080V170 CAVOK 28/16 Q1019=
201907010930 METAR LRBM 010930Z 22004KT 160V270 CAVOK 28/14 Q1019=
201907011000 METAR LRBM 011000Z VRB03KT CAVOK 29/15 Q1019=
201907011030 METAR LRBM 011030Z 23004KT 160V290 CAVOK 29/15 Q1019=
201907011100 METAR LRBM 011100Z 19005KT 120V220 CAVOK 30/15 Q1019=
201907011130 METAR LRBM 011130Z VRB03KT CAVOK 30/15 Q1018=
201907011200 METAR LRBM 011200Z VRB03KT CAVOK 31/16 Q1018=
201907011230 METAR LRBM 011230Z 17004KT 130V270 CAVOK 31/16 Q1018=
201907011300 METAR LRBM 011300Z 15006KT 120V180 CAVOK 32/16 Q1017=
201907011330 METAR LRBM 011330Z 11003KT 060V170 CAVOK 32/15 Q1017=
201907011400 METAR COR LRBM 011400Z 20004KT 140V250 CAVOK 32/13 Q1017=
201907011430 METAR LRBM 011430Z 14003KT 090V220 CAVOK 32/14 Q1016=
201907011500 METAR LRBM 011500Z 19003KT 130V250 CAVOK 33/15 Q1016=
201907011530 METAR LRBM 011530Z 18003KT CAVOK 32/14 Q1016=
201907011600 METAR LRBM 011600Z 16004KT CAVOK 32/15 Q1015=
201907011630 METAR LRBM 011630Z 12004KT CAVOK 32/16 Q1015=
201907011700 METAR LRBM 011700Z 15002KT CAVOK 31/17 Q1015=
201907011730 METAR LRBM 011730Z 00000KT CAVOK 30/19 Q1015=
201907011800 METAR LRBM 011800Z 36002KT CAVOK 27/20 Q1015=
201907011830 METAR LRBM 011830Z 02003KT 360V060 CAVOK 26/18 Q1016=
201907011900 METAR LRBM 011900Z 02004KT CAVOK 25/18 Q1016=
201907011930 METAR LRBM 011930Z 03004KT CAVOK 24/17 Q1016=
201907012000 METAR LRBM 012000Z 02003KT CAVOK 24/17 Q1016=
201907012030 METAR LRBM 012030Z 03003KT 330V090 CAVOK 23/17 Q1016=
201907012100 METAR LRBM 012100Z 04003KT 360V090 CAVOK 23/17 Q1016=
201907012130 METAR LRBM 012130Z AUTO 04003KT 360V080 9999 FEW010/// SCT220///
                        23/17 Q1016=
201907012200 METAR LRBM 012200Z AUTO 04002KT 010V080 9999 FEW012/// SCT210///
                        23/17 Q1016=
201907012230 METAR LRBM 012230Z AUTO 07003KT 9999 FEW013/// SCT210///
                        22/17 Q1016=
201907012300 METAR LRBM 012300Z AUTO 06005KT 9999 FEW016/// SCT230///
                        22/17 Q1016=
201907012330 METAR LRBM 012330Z AUTO 06001KT 9999 FEW013/// SCT220///
                        21/17 Q1015=
201907020000 METAR LRBM 020000Z AUTO 11003KT 9999 FEW011/// SCT210///
                        21/17 Q1015=
201907020030 METAR LRBM 020030Z AUTO VRB01KT 9999 FEW037/// SCT220///
                        21/17 Q1015=
201907020100 METAR LRBM 020100Z AUTO 06004KT 8000 FEW060/// SCT220///
                        21/17 Q1015=
201907020130 METAR LRBM 020130Z AUTO 07007KT 040V100 9999 FEW014/// SCT240///
                        21/17 Q1015=
201907020200 METAR LRBM 020200Z 09007KT CAVOK 21/17 Q1015=
201907020230 METAR LRBM 020230Z 09007KT CAVOK 20/17 Q1014=
201907020300 METAR LRBM 020300Z 07005KT 040V120 CAVOK 21/17 Q1014=
201907020330 METAR LRBM 020330Z 06004KT CAVOK 21/17 Q1014=
201907020400 METAR LRBM 020400Z 08004KT 050V110 CAVOK 22/17 Q1014=
201907020430 METAR LRBM 020430Z 11004KT CAVOK 22/18 Q1014=
201907020500 METAR LRBM 020500Z 08003KT 040V110 CAVOK 23/17 Q1014=
201907020530 METAR LRBM 020530Z 09004KT CAVOK 25/17 Q1014=
201907020600 METAR LRBM 020600Z 09003KT 020V140 CAVOK 26/18 Q1014=
201907020630 METAR LRBM 020630Z 11004KT CAVOK 27/18 Q1014=
201907020700 METAR LRBM 020700Z 13004KT 080V170 CAVOK 28/17 Q1014=
201907020730 METAR LRBM 020730Z 15005KT 110V200 CAVOK 29/17 Q1014=
201907020800 METAR LRBM 020800Z 13003KT 040V190 CAVOK 29/16 Q1014=
201907020830 METAR LRBM 020830Z 22004KT 170V280 CAVOK 29/17 Q1014=
201907020900 METAR LRBM 020900Z 24003KT 190V350 CAVOK 29/17 Q1014=
201907020930 METAR LRBM 020930Z VRB02KT 9999 FEW040 30/18 Q1014=
201907021000 METAR LRBM 021000Z 14003KT 070V230 9999 FEW040 31/18 Q1013=
201907021030 METAR LRBM 021030Z VRB03KT 9999 FEW042TCU 32/18 Q1013=
201907021100 METAR LRBM 021100Z 25005KT 190V300 9999 FEW044 32/19 Q1013=
201907021130 METAR LRBM 021130Z 28008KT 260V330 9999 FEW046 32/17 Q1013=
201907021200 METAR LRBM 021200Z 27008KT 230V300 9999 FEW046 32/17 Q1013=
201907021230 METAR LRBM 021230Z 26010KT 9999 FEW046 33/16 Q1013=
201907021300 METAR LRBM 021300Z 26007KT 220V300 9999 FEW046 FEW048TCU
                        33/18 Q1012=
201907021330 METAR LRBM 021330Z 28008KT 9999 FEW046 32/18 Q1012=
201907021400 METAR LRBM 021400Z 25008KT 9999 FEW048 33/17 Q1012=
201907021430 METAR LRBM 021430Z 29008KT 260V330 9999 FEW048 32/18 Q1012=
201907021500 METAR LRBM 021500Z 28008KT 250V320 9999 FEW048 32/17 Q1012=
201907021530 METAR LRBM 021530Z 28007KT 9999 FEW048 32/18 Q1012=
201907021600 METAR LRBM 021600Z 28008KT 9999 FEW050 31/18 Q1012=
201907021630 METAR LRBM 021630Z 29007KT 260V330 9999 FEW047CB 31/17 Q1012=
201907021700 METAR LRBM 021700Z 29006KT 270V330 9999 FEW047CB 30/16 Q1012=
201907021730 METAR LRBM 021730Z 29003KT 270V330 9999 FEW047CB 29/17 Q1012=
201907021800 METAR LRBM 021800Z VRB01KT 9999 FEW047CB 28/18 Q1013=
201907021830 METAR LRBM 021830Z 36004KT CAVOK 27/17 Q1013=
201907021900 METAR LRBM 021900Z 36004KT 320V030 CAVOK 25/17 Q1013=
201907021930 METAR LRBM 021930Z 01003KT CAVOK 24/17 Q1013=
201907022000 METAR LRBM 022000Z 33003KT 290V360 CAVOK 23/17 Q1013=
201907022030 METAR LRBM 022030Z VRB02KT CAVOK 23/17 Q1013=
201907022100 METAR LRBM 022100Z 34003KT CAVOK 23/17 Q1013=
201907022130 METAR LRBM 022130Z AUTO VRB01KT 9999 FEW011/// SCT210///
                        22/17 Q1014=
201907022200 METAR LRBM 022200Z AUTO 26002KT 9999 FEW014/// SCT220///
                        22/17 Q1013=
201907022230 METAR LRBM 022230Z AUTO 00000KT 9999 FEW016/// SCT240///
                        22/18 Q1013=
201907022300 METAR LRBM 022300Z AUTO 30003KT 260V320 9999 VCTS FEW027///
                        SCT210/// ///// Q1014=
201907022330 METAR LRBM 022330Z AUTO 07005KT 030V110 9999 TSRA FEW008///
                        SCT130/// BKN230/// 21/18 Q1013=
201907030000 METAR LRBM 030000Z AUTO 26003KT 230V310 9999 RA FEW009///
                        SCT045/// BKN220/// 20/19 Q1014=
201907030030 METAR LRBM 030030Z AUTO VRB03KT 9999 FEW016/// SCT190///
                        20/18 Q1013=
201907030100 METAR LRBM 030100Z AUTO 03003KT 8000 FEW017/// SCT190///
                        20/18 Q1013=
201907030130 METAR LRBM 030130Z AUTO VRB01KT 9999 FEW039/// SCT210///
                        19/18 Q1013=
201907030200 METAR LRBM 030200Z 00000KT 9999 FEW042 19/18 Q1013 R09/19//95=
201907030230 METAR LRBM 030230Z 36002KT 310V050 9999 FEW043 19/18 Q1014
                        R09/19//95=
201907030300 METAR LRBM 030300Z 02002KT 9999 FEW043 19/18 Q1014 R09/19//95=
201907030330 METAR LRBM 030330Z 34002KT 9999 FEW046 19/18 Q1014 R09/19//95=
201907030400 METAR LRBM 030400Z 25003KT 9999 FEW046 19/18 Q1014 R09/19//95=
201907030430 METAR LRBM 030430Z 24003KT 210V280 CAVOK 20/18 Q1014 R09/19//95=
201907030500 METAR LRBM 030500Z 30003KT 270V010 CAVOK 20/18 Q1014 R09/19//95=
201907030530 METAR LRBM 030530Z 27007KT CAVOK 21/18 Q1015 R09/19//95=
201907030600 METAR LRBM 030600Z 27005KT 240V320 9999 FEW016 21/18 Q1015
                        R09/CLRD//=
201907030630 METAR LRBM 030630Z 25005KT 220V280 9999 FEW020 22/18 Q1015=
201907030700 METAR LRBM 030700Z 27007KT 9999 FEW020 23/17 Q1015=
201907030730 METAR LRBM 030730Z 28005KT 220V310 9999 FEW023 24/17 Q1015=
201907030800 METAR LRBM 030800Z 28007KT 250V310 9999 FEW026 25/17 Q1014=
201907030830 METAR LRBM 030830Z 28008KT 9999 FEW028 26/17 Q1014=
201907030900 METAR LRBM 030900Z 28012KT 9999 FEW028 26/14 Q1014=
201907030930 METAR LRBM 030930Z 28009KT 250V310 9999 FEW030 27/13 Q1015=
201907031000 METAR LRBM 031000Z 27013KT 9999 FEW032 27/11 Q1015=
201907031030 METAR LRBM 031030Z 28011KT 9999 FEW033 28/09 Q1015=
201907031100 METAR LRBM 031100Z 29010KT 260V320 9999 FEW033 27/10 Q1016=
201907031130 METAR LRBM 031130Z 26013KT 9999 FEW035 28/07 Q1016=
201907031200 METAR LRBM 031200Z 26014KT 9999 FEW036 28/08 Q1016=
201907031230 METAR LRBM 031230Z 27013KT 9999 FEW037 28/08 Q1016=
201907031300 METAR LRBM 031300Z 26013KT 9999 FEW038 28/08 Q1016=
201907031330 METAR LRBM 031330Z 27013KT 9999 FEW040 28/07 Q1016=
201907031400 METAR LRBM 031400Z 27013KT 9999 FEW043 27/07 Q1016=
201907031430 METAR LRBM 031430Z 27011KT 9999 FEW045 27/06 Q1016=
201907031500 METAR LRBM 031500Z 27012KT 9999 FEW050 27/07 Q1016=
201907031530 METAR LRBM 031530Z 26014KT CAVOK 27/07 Q1016=
201907031600 METAR LRBM 031600Z 27011KT CAVOK 26/07 Q1016=
201907031630 METAR LRBM 031630Z 27012KT CAVOK 26/07 Q1016=
201907031700 METAR LRBM 031700Z 27009KT CAVOK 25/09 Q1016=
201907031730 METAR LRBM 031730Z 27006KT CAVOK 24/10 Q1016=
201907031800 METAR LRBM 031800Z 29003KT CAVOK 23/11 Q1016=
201907031830 METAR LRBM 031830Z VRB01KT CAVOK 21/13 Q1017=
201907031900 METAR LRBM 031900Z 34003KT 320V040 CAVOK 19/12 Q1017=
201907031930 METAR LRBM 031930Z 35003KT CAVOK 18/12 Q1017=
201907032000 METAR LRBM 032000Z 35004KT CAVOK 18/11 Q1017=
201907032030 METAR LRBM 032030Z 08002KT CAVOK 17/11 Q1017=
201907032100 METAR LRBM 032100Z 03003KT 360V060 CAVOK 17/11 Q1018=
201907032130 METAR LRBM 032130Z AUTO 08002KT 9999 FEW016/// SCT220///
                        16/11 Q1018=
201907032200 METAR LRBM 032200Z AUTO 08002KT 9999 FEW015/// SCT210///
                        15/11 Q1018=
201907032230 METAR LRBM 032230Z AUTO 07003KT 9999 FEW014/// BKN200///
                        14/10 Q1018=
201907032300 METAR LRBM 032300Z AUTO 04004KT 9999 FEW070/// SCT230///
                        15/10 Q1018=
201907032330 METAR LRBM 032330Z AUTO 03003KT 9999 FEW047/// SCT220///
                        15/10 Q1018=
201907040000 METAR LRBM 040000Z AUTO 04002KT 9999 FEW075/// SCT230///
                        15/10 Q1018=
201907040030 METAR LRBM 040030Z AUTO 07003KT 9999 FEW018/// SCT220///
                        14/10 Q1018=
201907040100 METAR LRBM 040100Z AUTO 06002KT 9999 FEW038/// SCT200///
                        ///// Q1018=
201907040130 METAR LRBM 040130Z AUTO 06003KT 9999 FEW014/// SCT200///
                        15/10 Q1018=
201907040200 METAR LRBM 040200Z 05003KT 9999 SCT040 14/10 Q1018=
201907040230 METAR LRBM 040230Z 27002KT 9999 SCT042 13/11 Q1019=
201907040300 METAR LRBM 040300Z 06004KT 9999 SCT043 13/10 Q1019=
201907040330 METAR LRBM 040330Z VRB01KT 9999 SCT043 14/10 Q1019=
201907040400 METAR LRBM 040400Z VRB01KT 9999 FEW043 15/11 Q1019=
201907040430 METAR LRBM 040430Z 05003KT 350V090 9999 FEW043 17/11 Q1019=
201907040500 METAR LRBM 040500Z 13003KT 9999 FEW043 17/11 Q1019=
201907040530 METAR LRBM 040530Z 16003KT 110V200 9999 FEW043 18/12 Q1019=
201907040600 METAR LRBM 040600Z VRB01KT 9999 FEW043 20/11 Q1019=
201907040630 METAR LRBM 040630Z 28002KT 9999 FEW045 20/11 Q1019=
201907040700 METAR LRBM 040700Z 19002KT 9999 FEW045 21/12 Q1019=
201907040730 METAR LRBM 040730Z 23004KT 200V300 9999 FEW045 22/12 Q1019=
201907040800 METAR LRBM 040800Z VRB03KT 9999 FEW045 23/12 Q1019=
201907040830 METAR LRBM 040830Z 29004KT 260V020 9999 FEW045 23/12 Q1019=
201907040900 METAR LRBM 040900Z 29005KT 240V360 9999 FEW045 24/12 Q1019=
201907040930 METAR LRBM 040930Z VRB04KT 9999 FEW045 25/11 Q1019=
201907041000 METAR LRBM 041000Z 27008KT 9999 FEW046 25/12 Q1019=
201907041030 METAR LRBM 041030Z 30007KT 270V330 9999 FEW046 26/11 Q1019=
201907041100 METAR LRBM 041100Z 25008KT 9999 FEW046 26/09 Q1019=
201907041130 METAR LRBM 041130Z 29008KT 9999 FEW046 26/11 Q1018=
201907041200 METAR LRBM 041200Z 29007KT 270V330 9999 FEW046 26/10 Q1018=
201907041230 METAR LRBM 041230Z 29008KT 260V320 9999 FEW046 26/09 Q1018=
201907041300 METAR LRBM 041300Z 27010KT 9999 FEW055 26/08 Q1018=
201907041330 METAR LRBM 041330Z 30007KT 9999 FEW055 26/09 Q1018=
201907041400 METAR LRBM 041400Z 27009KT CAVOK 26/08 Q1018=
201907041430 METAR LRBM 041430Z 29007KT CAVOK 25/09 Q1018=
201907041500 METAR LRBM 041500Z 29006KT 260V340 CAVOK 25/10 Q1018=
201907041530 METAR LRBM 041530Z 29006KT 260V330 CAVOK 25/09 Q1018=
201907041600 METAR LRBM 041600Z 28007KT 260V320 CAVOK 25/09 Q1018=
201907041630 METAR LRBM 041630Z 30005KT 270V330 CAVOK 25/09 Q1018=
201907041700 METAR LRBM 041700Z 30004KT CAVOK 24/09 Q1018=
201907041730 METAR LRBM 041730Z 30003KT CAVOK 24/09 Q1018=
201907041800 METAR LRBM 041800Z 29003KT CAVOK 23/09 Q1018=
201907041830 METAR LRBM 041830Z 35004KT CAVOK 20/11 Q1018=
201907041900 METAR LRBM 041900Z 36003KT CAVOK 19/10 Q1018=
201907041930 METAR LRBM 041930Z 36003KT CAVOK 18/10 Q1019=
201907042000 METAR LRBM 042000Z 01004KT CAVOK 18/09 Q1019=
201907042030 METAR LRBM 042030Z 01004KT CAVOK 17/09 Q1019=
201907042100 METAR LRBM 042100Z 36003KT CAVOK 17/08 Q1019=
201907042130 METAR LRBM 042130Z AUTO 04003KT 360V060 9999 FEW023/// SCT210///
                        16/08 Q1019=
201907042200 METAR LRBM 042200Z AUTO 03003KT 9999 FEW020/// SCT210///
                        15/08 Q1018=
201907042230 METAR LRBM 042230Z AUTO 05003KT 010V080 9999 FEW016/// SCT230///
                        14/08 Q1018=
201907042300 METAR LRBM 042300Z AUTO 08003KT 9999 FEW031/// SCT210///
                        14/08 Q1018=
201907042330 METAR LRBM 042330Z AUTO 04003KT 350V090 9999 FEW015/// SCT210///
                        13/08 Q1018=
201907050000 METAR LRBM 050000Z AUTO 05004KT 9999 FEW070/// SCT220///
                        15/07 Q1018=
201907050030 METAR LRBM 050030Z AUTO 10004KT 9999 FEW060/// SCT220///
                        12/08 Q1018=
201907050100 METAR LRBM 050100Z AUTO 08004KT 040V110 9999 FEW065/// SCT230///
                        13/08 Q1018=
201907050130 METAR LRBM 050130Z AUTO 09003KT 9999 FEW060/// SCT210///
                        12/07 Q1018=
201907050200 METAR LRBM 050200Z 10005KT CAVOK 12/07 Q1018=
201907050230 METAR LRBM 050230Z 07005KT CAVOK 12/08 Q1018=
201907050300 METAR LRBM 050300Z 06004KT 020V090 CAVOK 13/07 Q1018=
201907050330 METAR LRBM 050330Z 07004KT 040V120 CAVOK 14/07 Q1018=
201907050400 METAR LRBM 050400Z 07005KT CAVOK 15/08 Q1018=
201907050430 METAR LRBM 050430Z 09006KT CAVOK 15/08 Q1018=
201907050500 METAR LRBM 050500Z 10005KT CAVOK 17/08 Q1017=
201907050530 METAR LRBM 050530Z 10005KT CAVOK 19/08 Q1017=
201907050600 METAR LRBM 050600Z 10004KT CAVOK 20/10 Q1017=
201907050630 METAR LRBM 050630Z 14004KT 100V180 CAVOK 21/10 Q1017=
201907050700 METAR LRBM 050700Z 12006KT 100V170 CAVOK 22/09 Q1017=
201907050730 METAR LRBM 050730Z VRB03KT CAVOK 23/09 Q1017=
201907050800 METAR LRBM 050800Z 18003KT 120V260 CAVOK 24/09 Q1016=
201907050830 METAR LRBM 050830Z 19004KT 120V270 CAVOK 24/09 Q1016=
201907050900 METAR LRBM 050900Z 21004KT 140V290 9999 FEW044 25/09 Q1016=
201907050930 METAR LRBM 050930Z 22006KT 150V260 9999 FEW047 26/09 Q1016=
201907051000 METAR LRBM 051000Z VRB05KT 9999 SCT048 26/10 Q1015=
201907051030 METAR LRBM 051030Z VRB03KT 9999 SCT048 26/09 Q1015=
201907051100 METAR LRBM 051100Z 23007KT 190V280 9999 FEW052 27/07 Q1015=
201907051130 METAR LRBM 051130Z 26010KT 9999 FEW052 27/07 Q1014=
201907051200 METAR LRBM 051200Z 24010KT 210V290 9999 FEW054 28/06 Q1014=
201907051230 METAR LRBM 051230Z 27013KT 250V310 9999 FEW054 28/08 Q1014=
201907051300 METAR LRBM 051300Z 26011KT 9999 FEW055 27/07 Q1014=
201907051330 METAR LRBM 051330Z 29008KT 260V320 9999 FEW055 27/07 Q1014=
201907051400 METAR LRBM 051400Z 29007KT 250V320 9999 FEW055 27/07 Q1013=
201907051430 METAR LRBM 051430Z 28005KT 240V350 9999 FEW055 28/08 Q1013=
201907051500 METAR LRBM 051500Z 27007KT 240V300 9999 FEW055 28/08 Q1013=
201907051530 METAR LRBM 051530Z AUTO 27006KT 9999 FEW012/// SCT200///
                        26/09 Q1012=
201907051600 METAR LRBM 051600Z AUTO VRB02KT 9999 FEW020/// SCT230///
                        26/10 Q1012=
201907051630 METAR LRBM 051630Z AUTO 21002KT 140V250 9999 FEW009/// SCT160///
                        26/09 Q1012=
201907051700 METAR LRBM 051700Z AUTO 15002KT 9999 FEW015/// SCT160///
                        BKN240/// 26/12 Q1011=
201907051730 METAR LRBM 051730Z AUTO 20004KT 9999 FEW014/// SCT170///
                        26/12 Q1011=
201907051800 METAR LRBM 051800Z AUTO 14002KT 9999 FEW013/// SCT160///
                        24/14 Q1011=
201907051830 METAR LRBM 051830Z AUTO VRB02KT 9999 FEW012/// SCT190///
                        23/15 Q1011=
201907051900 METAR LRBM 051900Z AUTO 02002KT 340V040 9999 FEW016/// SCT190///
                        23/14 Q1011=
201907051930 METAR LRBM 051930Z AUTO VRB01KT 9999 NCD 22/14 Q1011=
201907052000 METAR LRBM 052000Z AUTO 35002KT 290V030 9999 NCD 22/13 Q1011=
201907052030 METAR LRBM 052030Z AUTO VRB03KT 9999 FEW026/// SCT200///
                        23/13 Q1011=
201907052100 METAR LRBM 052100Z AUTO 01002KT 320V050 9999 FEW013/// SCT180///
                        BKN240/// 21/13 Q1011=
201907052130 METAR LRBM 052130Z AUTO 08002KT 9999 FEW020/// SCT210///
                        19/14 Q1012=
201907052200 METAR LRBM 052200Z AUTO 09003KT 060V120 9999 FEW010/// SCT190///
                        18/14 Q1012=
201907052230 METAR LRBM 052230Z AUTO 31002KT 240V350 9999 FEW014/// SCT210///
                        18/13 Q1012=
201907052300 METAR LRBM 052300Z AUTO 03003KT 360V060 9999 FEW013/// SCT220///
                        17/13 Q1012=
201907052330 METAR LRBM 052330Z AUTO 03002KT 350V050 9999 FEW028/// SCT230///
                        16/13 Q1013=
201907060000 METAR LRBM 060000Z AUTO 25004KT 9999 FEW034/// SCT240///
                        16/12 Q1013=
201907060030 METAR LRBM 060030Z AUTO 29004KT 250V340 9999 FEW015/// SCT210///
                        16/13 Q1013=
201907060100 METAR LRBM 060100Z AUTO VRB04KT 9999 FEW050/// SCT240///
                        16/13 Q1013=
201907060130 METAR LRBM 060130Z AUTO 30003KT 9999 FEW026/// SCT200///
                        16/14 Q1013=
201907060200 METAR LRBM 060200Z AUTO 28003KT 9999 FEW017/// SCT240///
                        16/13 Q1013=
201907060230 METAR LRBM 060230Z AUTO 30003KT 260V020 9999 FEW013/// SCT200///
                        16/13 Q1014=
201907060300 METAR LRBM 060300Z AUTO 35002KT 310V030 9999 FEW016/// SCT210///
                        15/13 Q1014=
201907060330 METAR LRBM 060330Z AUTO 31002KT 260V350 9999 FEW021/// SCT230///
                        15/13 Q1014=
201907060400 METAR LRBM 060400Z AUTO 00000KT 9999 FEW060/// SCT210///
                        16/12 Q1014=
201907060430 METAR LRBM 060430Z AUTO 35002KT 300V040 9999 FEW024/// SCT220///
                        17/12 Q1014=
201907060500 METAR LRBM 060500Z 09002KT CAVOK 18/12 Q1014=
201907060530 METAR LRBM 060530Z VRB03KT CAVOK 19/13 Q1014=
201907060600 METAR LRBM 060600Z VRB01KT CAVOK 20/13 Q1014=
201907060630 METAR LRBM 060630Z VRB03KT CAVOK 21/13 Q1014=
201907060700 METAR LRBM 060700Z 24007KT 200V280 CAVOK 22/12 Q1014=
201907060730 METAR LRBM 060730Z 27007KT 240V300 CAVOK 23/09 Q1014=
201907060800 METAR LRBM 060800Z 24007KT 200V270 CAVOK 23/10 Q1014=
201907060830 METAR LRBM 060830Z 28004KT 240V040 9999 FEW033 24/10 Q1014=
201907060900 METAR LRBM 060900Z 27006KT 9999 FEW035 25/09 Q1014=
201907060930 METAR LRBM 060930Z 26008KT 220V290 9999 FEW036 25/09 Q1014=
201907061000 METAR LRBM 061000Z 30006KT 270V360 9999 FEW038 25/09 Q1014=
201907061030 METAR LRBM 061030Z 26007KT 9999 FEW038 25/09 Q1014=
201907061100 METAR LRBM 061100Z 33006KT 280V020 9999 FEW040 25/10 Q1014=
201907061130 METAR LRBM 061130Z VRB05KT 9999 FEW040 26/09 Q1013=
201907061200 METAR LRBM 061200Z 23004KT 160V270 9999 SCT042 26/09 Q1013=
201907061230 METAR LRBM 061230Z 24005KT 190V280 9999 SCT043 26/08 Q1013=
201907061300 METAR LRBM 061300Z VRB04KT 9999 SCT043 27/08 Q1012=
201907061330 METAR LRBM 061330Z AUTO 28007KT 220V310 9999 FEW013/// SCT200///
                        28/09 Q1012=
201907061400 METAR LRBM 061400Z AUTO 30004KT 260V010 9999 FEW009/// SCT180///
                        27/09 Q1012=
201907061430 METAR LRBM 061430Z AUTO 26006KT 220V300 9999 FEW011/// SCT140///
                        28/08 Q1012=
201907061500 METAR LRBM 061500Z AUTO 27005KT 250V310 9999 FEW014/// SCT130///
                        27/08 Q1012=
201907061530 METAR LRBM 061530Z AUTO 21007KT 190V250 9999 FEW009/// SCT190///
                        27/08 Q1011=
201907061600 METAR LRBM 061600Z AUTO 22006KT 9999 FEW012/// SCT210///
                        28/09 Q1011=
201907061630 METAR LRBM 061630Z AUTO 22003KT 180V260 9999 FEW020/// SCT220///
                        27/09 Q1011=
201907061700 METAR LRBM 061700Z AUTO 15003KT 9999 FEW018/// SCT200///
                        27/11 Q1011=
201907061730 METAR LRBM 061730Z AUTO 10003KT 9999 FEW014/// SCT160///
                        25/14 Q1011=
201907061800 METAR LRBM 061800Z AUTO 02002KT 9999 FEW012/// SCT170///
                        BKN240/// 23/15 Q1011=
201907061830 METAR LRBM 061830Z AUTO 04004KT 9999 FEW029/// SCT200///
                        22/13 Q1011=
201907061900 METAR LRBM 061900Z AUTO 02004KT 340V070 9999 FEW020/// SCT210///
                        21/13 Q1011=
201907061930 METAR LRBM 061930Z AUTO 02002KT 340V080 9999 FEW010/// BKN190///
                        21/13 Q1011=
201907062000 METAR LRBM 062000Z AUTO 07004KT 030V090 9999 FEW012/// SCT220///
                        21/12 Q1011=
201907062030 METAR LRBM 062030Z AUTO 03003KT 350V060 9999 FEW014/// SCT190///
                        21/12 Q1011=
201907062100 METAR LRBM 062100Z AUTO 04003KT 020V080 9999 FEW014/// SCT200///
                        21/12 Q1011=
201907062130 METAR LRBM 062130Z AUTO 01003KT 350V050 9999 FEW060/// SCT210///
                        21/12 Q1011=
201907062200 METAR LRBM 062200Z AUTO 04004KT 9999 FEW065/// SCT240///
                        21/12 Q1011=
201907062230 METAR LRBM 062230Z AUTO 06004KT 9999 FEW050/// SCT220///
                        22/12 Q1011=
201907062300 METAR LRBM 062300Z AUTO 06004KT 9999 FEW033/// SCT220///
                        21/12 Q1011=
201907062330 METAR LRBM 062330Z AUTO 06004KT 9999 FEW070/// SCT240///
                        22/12 Q1011=
201907070000 METAR LRBM 070000Z AUTO 05005KT 9999 FEW041/// SCT230///
                        21/11 Q1011=
201907070030 METAR LRBM 070030Z AUTO 07005KT 030V090 9999 FEW015/// SCT230///
                        21/12 Q1010=
201907070100 METAR LRBM 070100Z AUTO 06004KT 9999 FEW100/// SCT230///
                        21/11 Q1010=
201907070130 METAR LRBM 070130Z AUTO 07005KT 9999 FEW060/// SCT230///
                        21/12 Q1010=
201907070200 METAR LRBM 070200Z AUTO 07005KT 9999 FEW090/// SCT240///
                        20/12 Q1009=
201907070230 METAR LRBM 070230Z AUTO 06005KT 9999 FEW075/// SCT240///
                        20/12 Q1009=
201907070300 METAR LRBM 070300Z AUTO 07006KT 9999 VCTS FEW060/// SCT240///
                        20/12 Q1009=
201907070330 METAR LRBM 070330Z AUTO 06003KT 360V090 9999 FEW044/// SCT220///
                        20/12 Q1009=
201907070400 METAR LRBM 070400Z AUTO 06005KT 9999 FEW090/// SCT220///
                        20/13 Q1009=
201907070430 METAR LRBM 070430Z AUTO 07005KT 9999 FEW090/// SCT220///
                        21/14 Q1009=
201907070500 METAR LRBM 070500Z AUTO 07005KT 9999 FEW021/// SCT230///
                        21/14 Q1008=
201907070530 METAR LRBM 070530Z AUTO 04003KT 9999 FEW031/// SCT190///
                        22/14 Q1009=
201907070600 METAR LRBM 070600Z AUTO 04006KT 010V080 9999 -SHRA FEW005///
                        SCT150/// BKN240/// 19/16 Q1009=
201907070630 METAR LRBM 070630Z AUTO 04006KT 350V070 9999 FEW095/// SCT190///
                        20/16 Q1008 RERA=
201907070700 METAR LRBM 070700Z AUTO 05005KT 020V080 9999 FEW080/// SCT220///
                        21/16 Q1008=
201907070730 METAR LRBM 070730Z AUTO 06008KT 9999 -RA FEW014/// SCT210///
                        20/16 Q1008=
201907070800 METAR LRBM 070800Z AUTO 07004KT 030V090 9999 -SHRA FEW014///
                        SCT200/// 21/16 Q1008=
201907070830 METAR LRBM 070830Z AUTO 07005KT 9999 FEW024/// SCT190///
                        23/16 Q1008 RERA=
201907070900 METAR LRBM 070900Z AUTO 10005KT 080V140 9999 FEW065/// SCT230///
                        24/16 Q1008 REDZ=
201907070930 METAR LRBM 070930Z AUTO 10008KT 070V140 9999 FEW024/// SCT210///
                        25/15 Q1007=
201907071000 METAR LRBM 071000Z AUTO 17005KT 120V230 9999 FEW014/// SCT200///
                        26/14 Q1008=
201907071030 METAR LRBM 071030Z AUTO 16005KT 120V200 9999 FEW012/// SCT220///
                        26/14 Q1008=
201907071100 METAR LRBM 071100Z AUTO 16004KT 9999 FEW028/// SCT210///
                        25/15 Q1008=
201907071130 METAR LRBM 071130Z AUTO 20005KT 160V220 9999 FEW012/// SCT230///
                        26/14 Q1008=
201907071200 METAR LRBM 071200Z AUTO 18002KT 110V270 9999 FEW016/// SCT230///
                        26/14 Q1008=
201907071230 METAR LRBM 071230Z AUTO 18003KT 130V260 9999 -RA FEW009///
                        SCT210/// 25/15 Q1007=
201907071300 METAR LRBM 071300Z AUTO VRB01KT 9999 -SHRA FEW009/// SCT170///
                        26/15 Q1007=
201907071330 METAR LRBM 071330Z AUTO VRB03KT 9999 FEW015/// SCT190///
                        27/14 Q1007 RERA=
201907071400 METAR LRBM 071400Z AUTO 13003KT 9999 FEW015/// SCT190///
                        27/14 Q1006=
201907071430 METAR LRBM 071430Z AUTO 20004KT 140V230 9999 FEW020/// SCT190///
                        28/14 Q1006=
201907071500 METAR LRBM 071500Z AUTO 23005KT 190V260 9999 FEW013/// SCT180///
                        27/15 Q1006=
201907071530 METAR LRBM 071530Z AUTO 23006KT 9999 FEW016/// SCT180///
                        27/15 Q1006=
201907071600 METAR LRBM 071600Z AUTO 24003KT 210V270 9999 FEW014/// SCT190///
                        27/15 Q1006=
201907071630 METAR LRBM 071630Z AUTO 19002KT 170V320 9999 FEW013/// SCT210///
                        26/17 Q1005=
201907071700 METAR LRBM 071700Z 18005KT 9999 FEW048 26/16 Q1005=
201907071730 METAR LRBM 071730Z 11006KT 9999 FEW048 24/17 Q1005=
201907071800 METAR LRBM 071800Z 08004KT 9999 FEW023 FEW048CB 24/17 Q1005=
201907071830 METAR LRBM 071830Z 35010G21KT 330V050 9999 FEW023 SCT046CB
                        23/14 Q1006=
201907071900 METAR COR LRBM 071900Z 35008G18KT 290V030 9999 -TSRA FEW020
                        BKN036CB 19/15 Q1006 R09/29//95=
201907071930 METAR LRBM 071930Z 08007KT 7000 TSRA SCT021 BKN038CB 17/16
                        Q1007 R09/29//95=
201907072000 METAR LRBM 072000Z 08011KT 9999 -SHRA FEW015 SCT040CB 18/16
                        Q1007 RETS R09/29//95=
201907072030 METAR LRBM 072030Z 08007KT 9999 FEW021 FEW043CB 18/16 Q1006
                        R09/29//95=
201907072100 METAR LRBM 072100Z 07003KT 030V100 9999 FEW024 SCT055 18/16
                        Q1006 R09/29//95=
201907072130 METAR LRBM 072130Z AUTO 08004KT 040V100 9999 FEW032/// SCT200///
                        18/16 Q1007=
201907072200 METAR LRBM 072200Z AUTO 10004KT 030V120 9999 FEW023/// SCT240///
                        18/16 Q1007=
201907072230 METAR LRBM 072230Z AUTO 29003KT 9999 FEW016/// SCT230///
                        17/16 Q1007=
201907072300 METAR LRBM 072300Z AUTO 31003KT 280V360 9999 FEW030/// SCT190///
                        17/16 Q1007=
201907072330 METAR LRBM 072330Z AUTO 31003KT 280V010 9999 FEW034/// SCT220///
                        17/16 Q1007=
201907080000 METAR LRBM 080000Z AUTO 27003KT 9999 FEW026/// SCT190///
                        17/16 Q1007=
201907080030 METAR LRBM 080030Z AUTO 29004KT 9999 FEW024/// SCT190///
                        17/16 Q1007=
201907080100 METAR LRBM 080100Z AUTO 28005KT 9999 FEW004/// SCT150///
                        BKN240/// 17/16 Q1007=
201907080130 METAR LRBM 080130Z AUTO 29006KT 260V360 9999 FEW002/// SCT004///
                        BKN070/// 17/16 Q1008=
201907080200 METAR COR LRBM 080200Z 26007KT 8000 FEW001 BKN003 17/16 Q1008
                        R09/19//95=
201907080230 METAR LRBM 080230Z 26006KT 8000 BKN002 BKN004 16/16 Q1008
                        R09/19//95=
201907080300 METAR LRBM 080300Z 26008KT 9999 BKN003 16/16 Q1008 R09/19//95=
201907080330 METAR LRBM 080330Z 27006KT 9999 SCT003 BKN005 16/15 Q1008
                        R09/19//95=
201907080400 METAR LRBM 080400Z 27008KT 9999 -RA SCT004 BKN007 17/15 Q1009
                        R09/19//95=
201907080430 METAR LRBM 080430Z 27006KT 9999 SCT006 BKN008 BKN039 17/15
                        Q1009 R09/19//95=
201907080500 METAR LRBM 080500Z 27007KT 9999 SCT003 SCT007 17/15 Q1010
                        R09/19//95=
201907080530 METAR LRBM 080530Z 27008KT 9999 BKN005 BKN007 17/15 Q1010
                        R09/19//95=
201907080600 METAR LRBM 080600Z 26009KT 9999 BKN005 BKN007 17/15 Q1010
                        R09/19//95=
201907080630 METAR LRBM 080630Z 26009KT 9999 SCT007 BKN012 19/16 Q1010
                        R09/19//95=
201907080700 METAR LRBM 080700Z 27012KT 9999 FEW009 BKN012 18/15 Q1011
                        R09/19//95=
201907080730 METAR LRBM 080730Z 27012KT 9999 SCT012 BKN036 19/15 Q1011
                        R09/19//95=
201907080800 METAR LRBM 080800Z 28011KT 9999 SCT014 BKN038 19/13 Q1012
                        R09/CLRD//=
201907080830 METAR LRBM 080830Z 28013KT 9999 FEW035CB SCT042 20/12 Q1012=
201907080900 METAR LRBM 080900Z 28012KT 9999 FEW040 20/11 Q1012=
201907080930 METAR LRBM 080930Z 28011KT 9999 FEW040 21/08 Q1012=
201907081000 METAR LRBM 081000Z 27011KT 250V310 9999 FEW040 22/09 Q1012=
201907081030 METAR LRBM 081030Z 28012KT 9999 FEW040 21/05 Q1012=
201907081100 METAR LRBM 081100Z 27014KT 230V290 9999 FEW042 21/06 Q1013=
201907081130 METAR LRBM 081130Z 28011KT 250V330 9999 FEW043 22/07 Q1013=
201907081200 METAR LRBM 081200Z 27013KT 9999 SCT044 22/07 Q1013=
201907081230 METAR LRBM 081230Z 28010KT 240V330 9999 SCT045 21/06 Q1013=
201907081300 METAR LRBM 081300Z 27012KT 240V300 9999 SCT045 22/05 Q1013=
201907081330 METAR LRBM 081330Z 27013KT 9999 SCT046 22/06 Q1013=
201907081400 METAR LRBM 081400Z 28010KT 9999 SCT046 22/06 Q1013=
201907081430 METAR LRBM 081430Z 28010KT 9999 FEW047 22/05 Q1013=
201907081500 METAR LRBM 081500Z 29007KT 260V320 9999 FEW047 22/06 Q1013=
201907081530 METAR LRBM 081530Z 29007KT 260V320 9999 FEW050 22/05 Q1013=
201907081600 METAR LRBM 081600Z 30004KT 260V330 9999 FEW050 22/07 Q1013=
201907081630 METAR LRBM 081630Z 27004KT 240V300 9999 FEW050 22/06 Q1013=
201907081700 METAR LRBM 081700Z 26004KT 9999 FEW055 21/08 Q1013=
201907081730 METAR LRBM 081730Z VRB01KT 9999 FEW055 20/09 Q1013=
201907081800 METAR LRBM 081800Z 01002KT CAVOK 19/10 Q1013=
201907081830 METAR LRBM 081830Z 00000KT CAVOK 17/12 Q1013=
201907081900 METAR LRBM 081900Z 07002KT CAVOK 17/11 Q1013=
201907081930 METAR LRBM 081930Z 05002KT CAVOK 16/11 Q1013=
201907082000 METAR LRBM 082000Z 02002KT CAVOK 16/10 Q1013=
201907082030 METAR LRBM 082030Z 03003KT CAVOK 15/09 Q1013=
201907082100 METAR LRBM 082100Z 01003KT 350V050 CAVOK 15/09 Q1013=
201907082130 METAR LRBM 082130Z AUTO 06003KT 020V080 9999 FEW090/// SCT210///
                        14/09 Q1013=
201907082200 METAR LRBM 082200Z AUTO 03003KT 9999 FEW075/// SCT230///
                        14/09 Q1013=
201907082230 METAR LRBM 082230Z AUTO 04002KT 350V070 9999 FEW015/// SCT220///
                        13/09 Q1013=
201907082300 METAR LRBM 082300Z AUTO 03003KT 360V070 9999 NCD 13/09 Q1013=
201907082330 METAR LRBM 082330Z AUTO 03002KT 360V060 9999 NCD 13/09 Q1013=
201907090000 METAR LRBM 090000Z AUTO 06002KT 010V090 9999 FEW075/// SCT230///
                        12/09 Q1013=
201907090030 METAR LRBM 090030Z AUTO 03003KT 350V070 9999 FEW041/// SCT210///
                        12/08 Q1013=
201907090100 METAR LRBM 090100Z AUTO VRB02KT 9999 NCD 12/09 Q1013=
201907090130 METAR LRBM 090130Z AUTO VRB01KT 9999 NCD 12/09 Q1013=
201907090200 METAR LRBM 090200Z 00000KT 9999 FEW055 12/09 Q1014=
201907090230 METAR LRBM 090230Z 00000KT 9999 FEW060 11/09 Q1014=
201907090300 METAR LRBM 090300Z VRB02KT CAVOK 11/09 Q1014=
201907090330 METAR LRBM 090330Z VRB01KT 9999 FEW055 11/09 Q1014=
201907090400 METAR LRBM 090400Z VRB01KT CAVOK 12/10 Q1014=
201907090430 METAR LRBM 090430Z 24003KT CAVOK 13/10 Q1015=
201907090500 METAR LRBM 090500Z 27003KT CAVOK 13/10 Q1015=
201907090530 METAR LRBM 090530Z 27003KT 230V310 CAVOK 14/10 Q1015=
201907090600 METAR LRBM 090600Z 26004KT 230V320 CAVOK 15/11 Q1015=
201907090630 METAR LRBM 090630Z 26006KT 220V290 CAVOK 16/10 Q1015=
201907090700 METAR LRBM 090700Z 27007KT 240V300 CAVOK 18/09 Q1015=
201907090730 METAR LRBM 090730Z 27008KT 230V300 9999 FEW036 19/08 Q1015=
201907090800 METAR LRBM 090800Z 26008KT 9999 FEW040 19/07 Q1015=
201907090830 METAR LRBM 090830Z 26009KT 9999 FEW042 20/04 Q1015=
201907090900 METAR LRBM 090900Z 26008KT 230V320 9999 FEW042 21/05 Q1015=
201907090930 METAR LRBM 090930Z 27007KT 240V320 9999 FEW044 21/06 Q1015=
201907091000 METAR LRBM 091000Z 31007KT 220V360 9999 SCT040 21/06 Q1015=
201907091030 METAR LRBM 091030Z 29008KT 9999 SCT042 22/06 Q1014=
201907091100 METAR LRBM 091100Z 30006KT 260V350 9999 BKN044 21/06 Q1014=
201907091130 METAR LRBM 091130Z 26008KT 9999 SCT044 22/05 Q1014=
201907091200 METAR LRBM 091200Z 27008KT 240V320 9999 SCT044 21/05 Q1014=
201907091230 METAR LRBM 091230Z 27009KT 250V310 9999 SCT044 21/05 Q1014=
201907091300 METAR LRBM 091300Z 30007KT 270V330 9999 BKN045 21/06 Q1014=
201907091330 METAR LRBM 091330Z 27007KT 9999 SCT045 21/06 Q1014=
201907091400 METAR LRBM 091400Z 26006KT 9999 BKN048 21/06 Q1013=
201907091430 METAR LRBM 091430Z 26004KT 220V320 9999 BKN050 21/06 Q1013=
201907091500 METAR LRBM 091500Z 30004KT 260V010 9999 SCT050 22/06 Q1013=
201907091530 METAR LRBM 091530Z 24005KT 190V290 9999 FEW053 22/05 Q1013=
201907091600 METAR LRBM 091600Z 26004KT 9999 FEW055 21/06 Q1013=
201907091630 METAR LRBM 091630Z 25004KT 220V290 9999 FEW055 21/06 Q1013=
201907091700 METAR LRBM 091700Z 29002KT CAVOK 22/07 Q1012=
201907091730 METAR LRBM 091730Z 22002KT CAVOK 21/08 Q1012=
201907091800 METAR LRBM 091800Z 02002KT CAVOK 18/11 Q1012=
201907091830 METAR LRBM 091830Z 01002KT 9999 FEW045CB 17/10 Q1012=
201907091900 METAR LRBM 091900Z 36007KT 330V030 9999 FEW043CB SCT045 18/08
                        Q1013=
201907091930 METAR LRBM 091930Z 01007KT 330V080 9999 SCT042CB SCT045 17/09
                        Q1013 R09/19//95=
201907092000 METAR LRBM 092000Z 04005KT 360V070 9999 FEW040CB SCT042 17/08
                        Q1013 R09/19//95=
201907092030 METAR LRBM 092030Z 36003KT 330V050 9999 -RA BKN042 17/08
                        Q1013 R09/19//95=
201907092100 METAR LRBM 092100Z 00000KT 9999 SCT045 15/10 Q1013 R09/19//95=
201907092130 METAR LRBM 092130Z AUTO 34010G20KT 9999 -SHRA FEW050/// SCT190///
                        16/09 Q1013=
201907092200 METAR LRBM 092200Z AUTO 04009KT 9999 SHRA FEW005/// SCT013///
                        BKN075/// 14/11 Q1013=
201907092230 METAR LRBM 092230Z AUTO 02004KT 310V070 9999 -SHRA FEW005///
                        SCT180/// 14/11 Q1012=
201907092300 METAR LRBM 092300Z AUTO 04005KT 350V070 9999 FEW046/// SCT120///
                        BKN240/// 13/11 Q1012 RERA=
201907092330 METAR LRBM 092330Z AUTO 30008KT 270V360 7000 +SHRA VCTS VV011
                        13/11 Q1013=
201907100000 METAR LRBM 100000Z AUTO 02003KT 270V070 9999 SHRA FEW008///
                        SCT016/// BKN029/// 13/11 Q1013=
201907100030 METAR LRBM 100030Z AUTO 10006KT 9999 -RA FEW010/// SCT095///
                        BKN190/// 13/11 Q1012=
201907100100 METAR LRBM 100100Z AUTO 09003KT 9999 FEW075/// SCT230///
                        13/11 Q1012 RERA=
201907100130 METAR LRBM 100130Z AUTO 06004KT 9999 FEW110/// SCT200///
                        13/11 Q1012=
201907100200 METAR LRBM 100200Z 05003KT 010V080 CAVOK 12/11 Q1012 R09/19//95=
201907100230 METAR LRBM 100230Z 29003KT CAVOK 12/11 Q1013 R09/19//95=
201907100300 METAR LRBM 100300Z 33002KT 280V010 CAVOK 12/10 Q1013 R09/19//95=
201907100330 METAR LRBM 100330Z 34002KT 290V010 CAVOK 11/10 Q1013 R09/19//95=
201907100400 METAR LRBM 100400Z 36004KT CAVOK 12/10 Q1013 R09/19//95=
201907100430 METAR LRBM 100430Z 00000KT 9999 FEW001 13/11 Q1013 R09/19//95=
201907100500 METAR LRBM 100500Z 00000KT 9999 FEW012 14/11 Q1013 R09/19//95=
201907100530 METAR LRBM 100530Z 00000KT 9999 SCT013 14/11 Q1013 R09/19//95=
201907100600 METAR LRBM 100600Z 23004KT 9999 SCT013 14/12 Q1013 R09/19//95=
201907100630 METAR LRBM 100630Z 28005KT 250V350 9999 SCT012 15/12 Q1013
                        R09/19//95=
201907100700 METAR LRBM 100700Z 27008KT 9999 FEW011 SCT023 15/12 Q1013
                        R09/19//95=
201907100730 METAR LRBM 100730Z 28007KT 250V310 9999 FEW016 SCT023 16/12
                        Q1013 R09/CLRD//=
201907100800 METAR LRBM 100800Z 27009KT 9999 SCT026 17/12 Q1013=
201907100830 METAR LRBM 100830Z 26009KT 9999 SCT028 19/12 Q1012=
201907100900 METAR LRBM 100900Z 26010KT 9999 SCT028 20/11 Q1012=
201907100930 METAR LRBM 100930Z 25013KT 9999 SCT032 20/10 Q1012=
201907101000 METAR LRBM 101000Z 28007KT 9999 VCTS VCSH FEW034CB BKN036
                        19/10 Q1013=
201907101030 METAR LRBM 101030Z 36007KT 310V050 9999 VCSH SCT034CB SCT036
                        16/11 Q1013=
201907101100 METAR LRBM 101100Z 35006KT 290V040 9999 FEW036CB SCT038 17/10
                        Q1013=
201907101130 METAR LRBM 101130Z 36005KT 320V030 9999 FEW038 FEW040CB 17/10
                        Q1013=
201907101200 METAR LRBM 101200Z 36004KT 290V060 9999 FEW040 FEW042CB 18/09
                        Q1012=
201907101230 METAR LRBM 101230Z 31009KT 280V360 9999 FEW040 FEW042CB 20/07
                        Q1012=
201907101300 METAR LRBM 101300Z 35006KT 320V050 9999 FEW042 FEW044CB 19/07
                        Q1012=
201907101330 METAR LRBM 101330Z 03003KT 320V070 9999 FEW042 SCT060 20/08
                        Q1012=
201907101400 METAR LRBM 101400Z 33005KT 260V010 9999 FEW042 20/07 Q1012=
201907101430 METAR LRBM 101430Z 28006KT 250V350 9999 FEW044 20/07 Q1012=
201907101500 METAR LRBM 101500Z 30004KT 250V340 9999 FEW044 21/08 Q1012=
201907101530 METAR LRBM 101530Z 25012KT 9999 FEW046 21/10 Q1012=
201907101600 METAR LRBM 101600Z 27010KT 9999 FEW042TCU 21/10 Q1012=
201907101630 METAR LRBM 101630Z 29005KT 250V310 9999 FEW042CB 19/09 Q1012=
201907101700 METAR LRBM 101700Z 33007KT 290V010 9999 VCSH FEW044CB 19/08
                        Q1012=
201907101730 METAR LRBM 101730Z 36005KT 320V050 9999 FEW044CB 17/09 Q1012=
201907101800 METAR LRBM 101800Z 01004KT 320V050 9999 FEW044CB 16/10 Q1012=
201907101830 METAR LRBM 101830Z 01004KT 300V080 9999 FEW058 15/10 Q1012=
201907101900 METAR LRBM 101900Z 01004KT 330V060 9999 FEW045 15/10 Q1013=
201907101930 METAR LRBM 101930Z 02004KT 300V060 9999 FEW042 FEW044CB 14/10
                        Q1013=
201907102000 METAR LRBM 102000Z 03004KT 350V060 9999 FEW045CB SCT056 13/10
                        Q1013=
201907102030 METAR LRBM 102030Z 35003KT 270V080 9999 FEW045CB SCT056 14/10
                        Q1013=
201907102100 METAR LRBM 102100Z VRB02KT 9999 FEW058 14/10 Q1013=
201907102130 METAR LRBM 102130Z AUTO 02003KT 350V050 9999 FEW036/// SCT210///
                        13/10 Q1013=
201907102200 METAR LRBM 102200Z AUTO 36004KT 330V040 9999 FEW065/// SCT210///
                        13/10 Q1013=
201907102230 METAR LRBM 102230Z AUTO 05003KT 9999 FEW046/// SCT220///
                        13/10 Q1013=
201907102300 METAR LRBM 102300Z AUTO VRB01KT 9999 FEW070/// SCT210///
                        13/10 Q1013=
201907102330 METAR LRBM 102330Z AUTO VRB01KT 9999 FEW031/// SCT230///
                        13/11 Q1013=
201907110000 METAR LRBM 110000Z AUTO VRB02KT 9999 FEW060/// SCT240///
                        13/11 Q1013=
201907110030 METAR LRBM 110030Z AUTO 07003KT 9999 FEW035/// SCT240///
                        13/11 Q1013=
201907110100 METAR LRBM 110100Z AUTO 07003KT 9999 FEW040/// SCT210///
                        12/11 Q1012=
201907110130 METAR LRBM 110130Z AUTO 07003KT 9999 FEW100/// SCT230///
                        12/11 Q1012=
201907110200 METAR LRBM 110200Z 06003KT 9999 BKN060 12/10 Q1012=
201907110230 METAR LRBM 110230Z 04001KT CAVOK 12/10 Q1012=
201907110300 METAR LRBM 110300Z 00000KT CAVOK 11/10 Q1012=
201907110330 METAR LRBM 110330Z 00000KT CAVOK 12/11 Q1012=
201907110400 METAR LRBM 110400Z 00000KT CAVOK 14/11 Q1012=
201907110430 METAR LRBM 110430Z 08004KT CAVOK 14/10 Q1012=
201907110500 METAR LRBM 110500Z 09004KT CAVOK 15/11 Q1012=
201907110530 METAR LRBM 110530Z 14003KT 080V170 CAVOK 15/11 Q1012=
201907110600 METAR LRBM 110600Z 15003KT 120V190 CAVOK 15/10 Q1012=
201907110630 METAR LRBM 110630Z VRB01KT 9999 FEW035 17/10 Q1012=
201907110700 METAR LRBM 110700Z VRB03KT 9999 FEW032 18/11 Q1012=
201907110730 METAR LRBM 110730Z 24003KT 180V300 9999 FEW035 18/11 Q1012=
201907110800 METAR LRBM 110800Z 25005KT 200V310 9999 FEW036TCU 18/10 Q1012=
201907110830 METAR LRBM 110830Z 25007KT 220V290 9999 FEW036CB 19/09 Q1012=
201907110900 METAR LRBM 110900Z 26007KT 240V300 9999 FEW036CB SCT037 19/10
                        Q1012=
201907110930 METAR LRBM 110930Z 25007KT 230V310 9999 SCT037 20/09 Q1012=
201907111000 METAR LRBM 111000Z 28008KT 9999 FEW035CB SCT037 20/08 Q1012=
201907111030 METAR LRBM 111030Z 29008KT 260V320 9999 VCSH FEW033CB SCT036
                        20/08 Q1011=
201907111100 METAR LRBM 111100Z 32009KT 300V360 9999 -SHRA VCTS FEW036CB
                        SCT040 16/09 Q1012 R09/19//95=
201907111130 METAR LRBM 111130Z 35007KT 300V010 9999 VCSH FEW036CB BKN038
                        15/11 Q1012 R09/19//95=
201907111200 METAR LRBM 111200Z 36007KT 320V050 9999 VCSH FEW038CB BKN040
                        16/11 Q1012 R09/19//95=
201907111230 METAR LRBM 111230Z 28006KT 250V310 9999 -SHRA FEW038CB BKN042
                        16/10 Q1012 R09/19//95=
201907111300 METAR LRBM 111300Z 03003KT 340V060 9999 FEW038CB BKN043 16/12
                        Q1012 R09/19//95=
201907111330 METAR LRBM 111330Z 06003KT 010V100 9999 FEW038 SCT046 16/12
                        Q1012 R09/19//95=
201907111400 METAR LRBM 111400Z 33003KT 270V030 9999 FEW040 SCT048 18/11
                        Q1011 R09/19//95=
201907111430 METAR LRBM 111430Z 24002KT 9999 FEW040 19/10 Q1011 R09/19//95=
201907111500 METAR LRBM 111500Z VRB03KT 9999 FEW040 20/10 Q1011 R09/19//95=
201907111530 METAR LRBM 111530Z 23005KT 190V290 9999 FEW043 19/08 Q1011
                        R09/19//95=
201907111600 METAR LRBM 111600Z 25007KT 9999 SCT045 19/09 Q1011 R09/19//95=
201907111630 METAR LRBM 111630Z 26005KT 9999 SCT045 18/09 Q1011 R09/19//95=
201907111700 METAR LRBM 111700Z 26004KT 9999 VCSH FEW038CB SCT045 17/11
                        Q1011 R09/19//95=
201907111730 METAR LRBM 111730Z 26003KT 9999 VCSH FEW038CB 17/11 Q1011
                        R09/19//95=
201907111800 METAR LRBM 111800Z 27005KT 9999 -SHRA FEW040CB SCT045 17/10
                        Q1012 R09/19//95=
201907111830 METAR LRBM 111830Z 28005KT 260V320 9999 -SHRA FEW038CB SCT045
                        15/12 Q1012 R09/29//95=
201907111900 METAR LRBM 111900Z 34003KT 300V020 9999 FEW038CB SCT045 14/12
                        Q1012 R09/29//95=
201907111930 METAR LRBM 111930Z 36002KT 9999 FEW045 13/11 Q1012 R09/29//95=
201907112000 METAR LRBM 112000Z 12002KT 9999 FEW048 13/11 Q1013 R09/29//95=
201907112030 METAR LRBM 112030Z 00000KT 9999 FEW060 13/11 Q1013 R09/29//95=
201907112100 METAR LRBM 112100Z 00000KT CAVOK 12/11 Q1013 R09/29//95=
201907112130 METAR LRBM 112130Z AUTO 36003KT 9999 FEW040/// SCT200///
                        ///// Q1013=
201907112200 METAR LRBM 112200Z AUTO VRB01KT 9999 FEW045/// SCT200///
                        11/10 Q1013=
201907112230 METAR LRBM 112230Z AUTO 00000KT 9999 FEW080/// SCT220///
                        11/10 Q1013=
201907112300 METAR LRBM 112300Z AUTO 06003KT 9999 FEW035/// SCT180///
                        11/10 Q1013=
201907112330 METAR LRBM 112330Z AUTO 04002KT 9999 FEW036/// SCT160///
                        10/09 Q1013=
201907120000 METAR LRBM 120000Z AUTO VRB02KT 9999 FEW065/// SCT210///
                        10/09 Q1013=
201907120030 METAR LRBM 120030Z AUTO 01003KT 9999 FEW075/// SCT220///
                        10/09 Q1013=
201907120100 METAR LRBM 120100Z AUTO VRB02KT 9999 FEW070/// SCT230///
                        10/09 Q1013=
201907120130 METAR LRBM 120130Z AUTO VRB01KT 9999 FEW100/// SCT230///
                        10/09 Q1013=
201907120200 METAR LRBM 120200Z 00000KT 9999 2000SE BCFG NSC 09/08 Q1013
                        R09/CLRD//=
201907120230 METAR LRBM 120230Z 09003KT 9999 1200SE R09/P2000 BCFG FEW008
                        09/08 Q1013=
201907120300 METAR LRBM 120300Z 08001KT 9999 1500SE BCFG FEW008 08/08
                        Q1013=
201907120330 METAR LRBM 120330Z 12003KT 090V190 9999 0900SW R09/P2000
                        PRFG FEW004 09/08 Q1013=
201907120400 METAR LRBM 120400Z 00000KT 9999 1500SE BCFG FEW002 10/09
                        Q1014=
201907120430 METAR LRBM 120430Z VRB01KT 9999 2000W BCFG FEW002 10/09 Q1014=
201907120500 METAR LRBM 120500Z 00000KT 9999 FEW002 11/10 Q1014=
201907120530 METAR LRBM 120530Z VRB01KT 9999 FEW004 13/11 Q1014=
201907120600 METAR LRBM 120600Z 14003KT 9999 FEW007 14/11 Q1014=
201907120630 METAR LRBM 120630Z 14005KT 090V170 9999 BKN010 15/11 Q1014=
201907120700 METAR LRBM 120700Z 16004KT 110V210 9999 BKN012 15/11 Q1014=
201907120730 METAR LRBM 120730Z 19004KT 160V220 9999 BKN015 16/11 Q1014=
201907120800 METAR LRBM 120800Z VRB03KT 9999 FEW014 SCT018 17/11 Q1014=
201907120830 METAR LRBM 120830Z 14004KT 080V180 9999 SCT023 17/11 Q1014=
201907120900 METAR LRBM 120900Z VRB03KT 9999 SCT027 18/11 Q1014=
201907120930 METAR LRBM 120930Z VRB04KT 9999 SCT031 FEW033TCU 19/11 Q1014=
201907121000 METAR LRBM 121000Z 27006KT 240V300 9999 SCT033 FEW035TCU
                        20/09 Q1014=
201907121030 METAR LRBM 121030Z 28006KT 240V310 9999 SCT036 FEW038TCU
                        20/09 Q1013=
201907121100 METAR LRBM 121100Z 28006KT 250V040 9999 BKN040 21/10 Q1013=
201907121130 METAR LRBM 121130Z 25007KT 220V280 9999 BKN042 22/09 Q1013=
201907121200 METAR LRBM 121200Z VRB04KT 9999 BKN042 22/08 Q1013=
201907121230 METAR LRBM 121230Z 27007KT 9999 BKN042 22/08 Q1013=
201907121300 METAR LRBM 121300Z 27009KT 9999 BKN045 22/08 Q1013=
201907121330 METAR LRBM 121330Z 27007KT 240V310 9999 SCT047 23/07 Q1012=
201907121400 METAR LRBM 121400Z 27006KT 230V310 9999 SCT047 23/07 Q1012=
201907121430 METAR LRBM 121430Z AUTO 28007KT 260V320 9999 FEW029/// SCT180///
                        23/07 Q1012=
201907121500 METAR LRBM 121500Z AUTO 31006KT 270V360 9999 FEW021/// SCT210///
                        22/07 Q1012=
201907121530 METAR LRBM 121530Z AUTO 29007KT 260V340 9999 FEW013/// SCT220///
                        22/06 Q1012=
201907121600 METAR LRBM 121600Z AUTO 27005KT 9999 FEW015/// SCT230///
                        22/06 Q1012=
201907121630 METAR LRBM 121630Z AUTO 30005KT 9999 FEW019/// SCT200///
                        22/07 Q1012=
201907121700 METAR LRBM 121700Z AUTO 28004KT 9999 FEW013/// SCT230///
                        22/07 Q1012=
201907121730 METAR LRBM 121730Z AUTO 29003KT 9999 FEW021/// SCT210///
                        20/08 Q1012=
201907121800 METAR LRBM 121800Z AUTO 35004KT 9999 FEW026/// SCT200///
                        19/09 Q1012=
201907121830 METAR LRBM 121830Z AUTO 02003KT 330V050 9999 FEW019/// SCT200///
                        17/10 Q1012=
201907121900 METAR LRBM 121900Z AUTO 02004KT 340V070 9999 FEW028/// SCT230///
                        17/10 Q1012=
201907121930 METAR LRBM 121930Z AUTO 02004KT 330V060 9999 FEW032/// SCT230///
                        16/10 Q1012=
201907122000 METAR LRBM 122000Z AUTO VRB03KT 9999 FEW021/// SCT190///
                        16/09 Q1012=
201907122030 METAR LRBM 122030Z AUTO 05004KT 9999 FEW017/// SCT190///
                        16/10 Q1012=
201907122100 METAR LRBM 122100Z AUTO 07006KT 020V090 9999 FEW022/// SCT220///
                        16/09 Q1012=
201907122130 METAR LRBM 122130Z AUTO 05006KT 9999 FEW042/// SCT200///
                        15/09 Q1012=
201907122200 METAR LRBM 122200Z AUTO 03003KT 360V070 9999 FEW075/// SCT230///
                        15/09 Q1012=
201907122230 METAR LRBM 122230Z AUTO 05005KT 9999 FEW020/// SCT240///
                        14/09 Q1012=
201907122300 METAR LRBM 122300Z AUTO 06002KT 9999 FEW055/// SCT230///
                        14/09 Q1012=
201907122330 METAR LRBM 122330Z AUTO 08002KT 9999 FEW055/// SCT240///
                        13/09 Q1012=
201907130000 METAR LRBM 130000Z AUTO 03003KT 9999 FEW060/// SCT240///
                        13/09 Q1012=
201907130030 METAR LRBM 130030Z AUTO 08002KT 9999 FEW060/// SCT220///
                        12/09 Q1012=
201907130100 METAR LRBM 130100Z AUTO VRB01KT 9999 FEW050/// SCT200///
                        13/10 Q1012=
201907130130 METAR LRBM 130130Z AUTO 06006KT 9999 FEW037/// SCT220///
                        13/09 Q1012=
201907130200 METAR LRBM 130200Z AUTO 06006KT 9999 FEW028/// SCT190///
                        14/09 Q1012=
201907130230 METAR LRBM 130230Z AUTO 06005KT 9999 FEW038/// SCT200///
                        14/10 Q1012=
201907130300 METAR LRBM 130300Z AUTO 06003KT 9999 FEW013/// SCT120///
                        BKN240/// 14/10 Q1012=
201907130330 METAR LRBM 130330Z AUTO 07005KT 9999 FEW045/// SCT150///
                        BKN240/// 14/10 Q1012=
201907130400 METAR LRBM 130400Z AUTO 07005KT 9999 FEW007/// SCT020///
                        BKN037/// 14/11 Q1012=
201907130430 METAR LRBM 130430Z AUTO 06004KT 030V090 9999 FEW007/// SCT027///
                        BKN055/// 14/11 Q1012=
201907130500 METAR COR LRBM 130500Z 06005KT 020V090 9999 -RA BKN045 14/12
                        Q1012 R09/19//95=
201907130530 METAR LRBM 130530Z 07005KT 9999 -RA BKN045 14/12 Q1012 R09/19//95=
201907130600 METAR LRBM 130600Z 06004KT 9999 -RA BKN045 14/12 Q1012 R09/19//95=
201907130630 METAR LRBM 130630Z 06004KT 9999 BKN045 15/12 Q1012 R09/19//95=
201907130700 METAR LRBM 130700Z 04004KT 010V080 9999 BKN048 16/12 Q1012
                        R09/19//95=
201907130730 METAR LRBM 130730Z 00000KT 9999 BKN048 16/13 Q1012 R09/19//95=
201907130800 METAR LRBM 130800Z 16003KT 9999 -RA BKN048 16/13 Q1012 R09/19//95=
201907130830 METAR LRBM 130830Z 15005KT 9999 -RA FEW038 BKN048 16/13 Q1012
                        R09/19//95=
201907130900 METAR LRBM 130900Z VRB03KT 9999 FEW040 BKN050 17/13 Q1012
                        R09/19//95=
201907130930 METAR LRBM 130930Z 00000KT 9999 FEW040 BKN050 17/14 Q1012
                        R09/19//95=
201907131000 METAR LRBM 131000Z VRB03KT 9999 FEW040 BKN053 17/13 Q1012
                        R09/19//95=
201907131030 METAR LRBM 131030Z VRB03KT 9999 FEW040 SCT053 18/13 Q1011
                        R09/19//95=
201907131100 METAR LRBM 131100Z VRB03KT 9999 FEW040 BKN053 18/13 Q1011
                        R09/19//95=
201907131130 METAR LRBM 131130Z 05003KT 360V110 9999 FEW043 BKN055 19/13
                        Q1011 R09/19//95=
201907131200 METAR LRBM 131200Z 08004KT 050V110 9999 FEW043 SCT058 20/11
                        Q1011 R09/CLRD//=
201907131230 METAR LRBM 131230Z VRB03KT 9999 FEW043 22/10 Q1010=
201907131300 METAR LRBM 131300Z 11004KT 060V200 9999 FEW043 22/10 Q1010=
201907131330 METAR LRBM 131330Z AUTO VRB03KT 9999 FEW033/// SCT220///
                        23/11 Q1009=
201907131400 METAR LRBM 131400Z AUTO 20005KT 160V220 9999 FEW015/// SCT190///
                        22/11 Q1009=
201907131430 METAR LRBM 131430Z AUTO 10003KT 070V170 9999 FEW021/// SCT220///
                        22/11 Q1009=
201907131500 METAR LRBM 131500Z AUTO 16003KT 110V210 9999 FEW019/// SCT210///
                        22/11 Q1009=
201907131530 METAR LRBM 131530Z AUTO 18003KT 140V200 9999 FEW029/// SCT210///
                        21/12 Q1009=
201907131600 METAR LRBM 131600Z AUTO 25003KT 9999 FEW017/// SCT200///
                        21/12 Q1009=
201907131630 METAR LRBM 131630Z AUTO VRB02KT 9999 FEW022/// SCT200///
                        21/13 Q1009=
201907131700 METAR LRBM 131700Z AUTO 35003KT 330V030 9999 FEW015/// SCT220///
                        21/13 Q1009=
201907131730 METAR LRBM 131730Z AUTO 03001KT 9999 FEW026/// SCT210///
                        20/13 Q1009=
201907131800 METAR LRBM 131800Z AUTO 25007KT 9999 -RA FEW005/// SCT024///
                        BKN150/// 18/14 Q1010=
201907131830 METAR LRBM 131830Z AUTO VRB02KT 9999 -RA FEW006/// SCT013///
                        BKN037/// 17/15 Q1010=
201907131900 METAR LRBM 131900Z AUTO VRB02KT 9999 FEW010/// SCT140///
                        BKN240/// 17/15 Q1010 RERA=
201907131930 METAR LRBM 131930Z AUTO VRB01KT 9999 SHRA FEW008/// SCT050///
                        BKN170/// 16/15 Q1010=
201907132000 METAR LRBM 132000Z AUTO VRB02KT 9999 -SHRA FEW011/// SCT180///
                        BKN240/// 16/15 Q1010=
201907132030 METAR LRBM 132030Z AUTO 00000KT 9999 FEW018/// SCT200///
                        16/14 Q1010 RERA=
201907132100 METAR LRBM 132100Z AUTO 00000KT 9999 FEW029/// SCT210///
                        16/14 Q1010=
201907132130 METAR LRBM 132130Z AUTO 00000KT 9999 FEW013/// SCT230///
                        16/15 Q1010=
201907132200 METAR LRBM 132200Z AUTO 03001KT 9999 FEW021/// SCT200///
                        15/14 Q1010=
201907132230 METAR LRBM 132230Z AUTO VRB02KT 9999 FEW032/// SCT240///
                        15/14 Q1010=
201907132300 METAR LRBM 132300Z AUTO 02003KT 9999 FEW065/// SCT230///
                        15/14 Q1010=
201907132330 METAR LRBM 132330Z AUTO 02002KT 9999 FEW085/// SCT240///
                        15/14 Q1009=
201907140000 METAR LRBM 140000Z AUTO 05003KT 9999 FEW022/// SCT220///
                        15/14 Q1009=
201907140030 METAR LRBM 140030Z AUTO 10001KT 9000 FEW020/// SCT200///
                        15/14 Q1009=
201907140100 METAR LRBM 140100Z AUTO 26004KT 9999 FEW002/// SCT042///
                        BKN230/// 15/14 Q1009=
201907140130 METAR LRBM 140130Z AUTO 27003KT 8000 FEW006/// BKN009///
                        BKN210/// 15/14 Q1009=
201907140200 METAR LRBM 140200Z AUTO 26003KT 9999 FEW008/// SCT170///
                        BKN240/// 15/14 Q1009=
201907140230 METAR LRBM 140230Z AUTO 00000KT 7000 FEW022/// SCT200///
                        15/14 Q1009=
201907140300 METAR LRBM 140300Z AUTO 00000KT 9000 SCT001/// BKN120///
                        15/14 Q1009=
201907140330 METAR LRBM 140330Z AUTO 00000KT 8000 BKN002/// 15/14 Q1009=
201907140400 METAR LRBM 140400Z AUTO 00000KT 9999 FEW001/// BKN003///
                        15/14 Q1009=
201907140430 METAR LRBM 140430Z AUTO 10003KT 070V150 9000 SCT002/// BKN004///
                        BKN035/// 15/14 Q1009=
201907140500 METAR LRBM 140500Z AUTO 15002KT 9999 FEW002/// BKN005///
                        BKN041/// 15/14 Q1009=
201907140530 METAR LRBM 140530Z AUTO VRB02KT 9999 FEW007/// BKN009///
                        BKN040/// 15/14 Q1009=
201907140600 METAR LRBM 140600Z AUTO 12002KT 9999 -RA FEW003/// BKN008///
                        BKN055/// 15/14 Q1009=
201907140630 METAR LRBM 140630Z AUTO VRB01KT 9999 FEW003/// SCT005///
                        BKN008/// 16/14 Q1009=
201907140700 METAR LRBM 140700Z AUTO VRB02KT 9999 FEW004/// BKN008///
                        BKN049/// 16/14 Q1009=
201907140730 METAR LRBM 140730Z AUTO 26003KT 9999 FEW005/// BKN009///
                        BKN011/// 16/14 Q1010=
201907140800 METAR LRBM 140800Z AUTO 26003KT 230V330 9999 FEW006/// SCT008///
                        BKN010/// 17/14 Q1010=
201907140830 METAR LRBM 140830Z AUTO 26004KT 240V300 9999 FEW006/// BKN008///
                        BKN055/// 17/14 Q1010=
201907140900 METAR LRBM 140900Z AUTO 27005KT 230V300 9999 FEW007/// SCT120///
                        BKN220/// 18/15 Q1009=
201907140930 METAR LRBM 140930Z AUTO 26007KT 9999 FEW010/// SCT170///
                        20/14 Q1009=
201907141000 METAR LRBM 141000Z AUTO 27008KT 240V310 9999 FEW019/// SCT190///
                        20/14 Q1009=
201907141030 METAR LRBM 141030Z AUTO 27008KT 230V310 9999 FEW026/// SCT240///
                        21/15 Q1009=
201907141100 METAR LRBM 141100Z AUTO VRB07KT 9999 FEW016/// SCT220///
                        22/13 Q1009=
201907141130 METAR LRBM 141130Z AUTO 24009KT 9999 FEW013/// SCT210///
                        23/14 Q1008=
201907141200 METAR LRBM 141200Z AUTO 26008KT 220V290 9999 FEW026/// SCT180///
                        22/14 Q1008=
201907141230 METAR LRBM 141230Z AUTO VRB03KT 9999 FEW017/// SCT220///
                        23/12 Q1008=
201907141300 METAR LRBM 141300Z AUTO 27008KT 230V310 9999 FEW016/// SCT170///
                        24/12 Q1007=
201907141330 METAR LRBM 141330Z AUTO VRB05KT 9999 FEW014/// SCT200///
                        23/11 Q1008=
201907141400 METAR LRBM 141400Z AUTO 06006KT 9999 FEW045/// SCT230///
                        22/11 Q1008=
201907141430 METAR LRBM 141430Z AUTO 07007KT 040V100 9999 -RA FEW033///
                        SCT170/// 20/13 Q1008=
201907141500 METAR LRBM 141500Z AUTO 10005KT 4200 +SHRA FEW003/// SCT011///
                        BKN033/// 17/15 Q1008=
201907141530 METAR LRBM 141530Z AUTO 33004KT 280V050 3000 R09/1700VP2000D
                        +TSRA VV011 16/14 Q1009=
201907141600 METAR LRBM 141600Z AUTO VRB01KT 9999 -SHRA VCTS FEW005///
                        SCT012/// BKN070/// 16/15 Q1009=
201907141630 METAR LRBM 141630Z AUTO 03002KT 9999 FEW021/// SCT220///
                        17/15 Q1009 RERA=
201907141700 METAR LRBM 141700Z VRB01KT 9999 BKN045 17/15 Q1009 R09/29//95=
201907141730 METAR LRBM 141730Z VRB01KT 9999 BKN045 17/16 Q1009 R09/29//95=
201907141800 METAR LRBM 141800Z VRB02KT 9999 BKN045 17/15 Q1009 R09/29//95=
201907141830 METAR LRBM 141830Z 09003KT 9999 FEW037 BKN045 16/15 Q1009
                        R09/29//95=
201907141900 METAR LRBM 141900Z 01003KT 330V050 9999 SCT050 16/15 Q1009
                        R09/29//95=
201907141930 METAR LRBM 141930Z VRB01KT 9999 FEW055 16/15 Q1010 R09/19//95=
201907142000 METAR LRBM 142000Z VRB02KT CAVOK 15/14 Q1010 R09/19//95=
201907142030 METAR LRBM 142030Z VRB01KT CAVOK 15/14 Q1010 R09/19//95=
201907142100 METAR LRBM 142100Z 35004KT 320V020 CAVOK 14/13 Q1010 R09/19//95=
201907142130 METAR LRBM 142130Z AUTO VRB02KT 9999 FEW090/// SCT240///
                        14/13 Q1010=
201907142200 METAR LRBM 142200Z AUTO VRB01KT 9999 FEW085/// SCT190///
                        14/12 Q1010=
201907142230 METAR LRBM 142230Z AUTO 05003KT 9999 FEW080/// SCT180///
                        14/12 Q1010=
201907142300 METAR LRBM 142300Z AUTO 03002KT 9999 FEW060/// SCT220///
                        14/12 Q1010=
201907142330 METAR LRBM 142330Z AUTO VRB01KT 9999 FEW100/// SCT230///
                        14/13 Q1010=
201907150000 METAR LRBM 150000Z AUTO VRB01KT 9999 FEW060/// SCT240///
                        14/12 Q1010=
201907150030 METAR LRBM 150030Z AUTO VRB02KT 9999 FEW060/// SCT200///
                        14/12 Q1010=
201907150100 METAR LRBM 150100Z AUTO 06002KT 9999 FEW055/// SCT230///
                        14/13 Q1009=
201907150130 METAR LRBM 150130Z AUTO VRB01KT 9999 FEW110/// SCT220///
                        ///// Q1009=
201907150200 METAR LRBM 150200Z 00000KT CAVOK 13/12 Q1010=
201907150230 METAR LRBM 150230Z 00000KT 9999 BCFG FEW001 13/12 Q1010=
201907150300 METAR LRBM 150300Z 08001KT 9999 FEW001 13/12 Q1010=
201907150330 METAR LRBM 150330Z 00000KT 9999 FEW002 SCT008 13/12 Q1010=
201907150400 METAR LRBM 150400Z 00000KT 9999 BCFG FEW002 SCT007 14/13
                        Q1010=
201907150430 METAR LRBM 150430Z 00000KT 9999 BCFG FEW003 SCT008 14/13
                        Q1010=
201907150500 METAR LRBM 150500Z 00000KT 9999 BCFG FEW005 14/13 Q1010=
201907150530 METAR LRBM 150530Z VRB03KT 9999 FEW007 SCT023 15/13 Q1010=
201907150600 METAR LRBM 150600Z 00000KT 9999 FEW004 BKN006 16/13 Q1010=
201907150630 METAR LRBM 150630Z 26003KT 210V300 9999 SCT005 BKN007 16/14
                        Q1010=
201907150700 METAR LRBM 150700Z VRB03KT 9999 SCT006 BKN008 16/14 Q1011=
201907150730 METAR LRBM 150730Z VRB03KT 9999 SCT008 BKN010 17/14 Q1011=
201907150800 METAR LRBM 150800Z VRB03KT 9999 FEW009 SCT012 BKN023 17/14
                        Q1011=
201907150830 METAR LRBM 150830Z 17003KT 050V210 9999 FEW012 BKN025 19/15
                        Q1011=
201907150900 METAR LRBM 150900Z 20003KT 130V270 9999 FEW026 FEW030CB 19/14
                        Q1011=
201907150930 METAR LRBM 150930Z 26005KT 220V320 9999 FEW030CB SCT032 21/13
                        Q1010=
201907151000 METAR LRBM 151000Z 28005KT 250V330 9999 VCSH SCT032CB SCT036
                        21/13 Q1010=
201907151030 METAR LRBM 151030Z 03007KT 360V060 9999 TS VCSH SCT032CB
                        SCT036 20/13 Q1011=
201907151100 METAR LRBM 151100Z 01006KT 330V060 9999 VCSH SCT036CB SCT040
                        18/13 Q1011 RETS=
201907151130 METAR LRBM 151130Z 35008KT 320V030 9999 VCSH FEW038CB SCT042
                        18/14 Q1010=
201907151200 METAR LRBM 151200Z 36003KT 280V040 9999 -RA FEW040CB SCT042
                        18/15 Q1010=
201907151230 METAR LRBM 151230Z 05003KT 360V090 9999 FEW042 FEW044CB 20/13
                        Q1010=
201907151300 METAR LRBM 151300Z 06003KT 340V100 9999 VCTS VCSH FEW044
                        FEW046CB 21/14 Q1010=
201907151330 METAR LRBM 151330Z 03005KT 300V080 9999 TS VCSH FEW044 FEW046CB
                        21/15 Q1010=
201907151400 METAR LRBM 151400Z 28004KT 250V350 9999 TS VCSH FEW044 SCT048CB
                        19/14 Q1011=
201907151430 METAR COR LRBM 151430Z 04003KT 360V070 9999 -SHRA VCTS FEW044
                        FEW048CB 18/14 Q1011 RETS=
201907151500 METAR LRBM 151500Z 06003KT 030V090 9999 FEW046 FEW048CB 19/14
                        Q1011=
201907151530 METAR LRBM 151530Z 11004KT 070V140 9999 FEW048 FEW050TCU
                        21/14 Q1011=
201907151600 METAR LRBM 151600Z 12003KT 9999 FEW048 FEW050CB 20/15 Q1011=
201907151630 METAR LRBM 151630Z VRB02KT 9999 FEW050 20/14 Q1011=
201907151700 METAR LRBM 151700Z 09003KT 030V130 9999 FEW048TCU 20/15 Q1011=
201907151730 METAR LRBM 151730Z VRB01KT 9999 FEW048TCU 20/15 Q1011=
201907151800 METAR LRBM 151800Z VRB02KT 9999 FEW048TCU 19/14 Q1011=
201907151830 METAR LRBM 151830Z 06004KT 9999 FEW055 17/14 Q1011=
201907151900 METAR LRBM 151900Z VRB01KT 9999 FEW057 17/14 Q1012=
201907151930 METAR LRBM 151930Z VRB01KT CAVOK 16/14 Q1012=
201907152000 METAR LRBM 152000Z VRB01KT CAVOK 16/14 Q1012=
201907152030 METAR LRBM 152030Z 02003KT CAVOK 15/13 Q1012=
201907152100 METAR LRBM 152100Z VRB02KT CAVOK 15/13 Q1012=
201907152130 METAR LRBM 152130Z AUTO VRB01KT 9999 FEW031/// SCT220///
                        15/13 Q1013=
201907152200 METAR LRBM 152200Z AUTO VRB02KT 9999 FEW014/// SCT190///
                        15/13 Q1013=
201907152230 METAR LRBM 152230Z AUTO 04003KT 360V060 9999 FEW017/// SCT200///
                        14/12 Q1013=
201907152300 METAR LRBM 152300Z AUTO 08004KT 9999 FEW055/// SCT240///
                        13/12 Q1013=
201907152330 METAR LRBM 152330Z AUTO 05005KT 9999 FEW037/// SCT230///
                        14/11 Q1013=
201907160000 METAR LRBM 160000Z AUTO 05005KT 9999 FEW039/// SCT200///
                        14/11 Q1013=
201907160030 METAR LRBM 160030Z AUTO 04003KT 350V070 9999 FEW026/// SCT230///
                        13/11 Q1013=
201907160100 METAR LRBM 160100Z AUTO 02004KT 9999 FEW047/// SCT210///
                        13/11 Q1012=
201907160130 METAR LRBM 160130Z AUTO 04002KT 9999 FEW035/// SCT240///
                        13/10 Q1012=
201907160200 METAR LRBM 160200Z 00000KT CAVOK 12/10 Q1012=
201907160230 METAR LRBM 160230Z VRB01KT CAVOK 12/10 Q1012=
201907160300 METAR LRBM 160300Z 07002KT CAVOK 11/10 Q1012=
201907160330 METAR LRBM 160330Z 04003KT 340V110 CAVOK 12/10 Q1012=
201907160400 METAR LRBM 160400Z VRB02KT 9999 4000W BCFG NSC 13/11 Q1013=
201907160430 METAR LRBM 160430Z VRB02KT 9999 4500SW BCFG NSC 15/11 Q1013=
201907160500 METAR LRBM 160500Z 00000KT 9999 4500SW BCFG NSC 15/11 Q1013=
201907160530 METAR LRBM 160530Z VRB02KT 9999 FEW001 16/12 Q1013=
201907160600 METAR LRBM 160600Z VRB01KT CAVOK 16/12 Q1013=
201907160630 METAR LRBM 160630Z VRB02KT 9999 FEW036 17/12 Q1013=
201907160700 METAR LRBM 160700Z VRB02KT 9999 FEW036TCU 18/12 Q1013=
201907160730 METAR LRBM 160730Z 26003KT 230V340 9999 FEW036TCU 19/13 Q1013=
201907160800 METAR LRBM 160800Z 22004KT 170V280 9999 FEW036 20/14 Q1012=
201907160830 METAR LRBM 160830Z 24004KT 190V320 9999 FEW038TCU 21/14 Q1012=
201907160900 METAR LRBM 160900Z 26005KT 200V320 9999 FEW038TCU 22/14 Q1012=
201907160930 METAR LRBM 160930Z 24006KT 9999 FEW040TCU 23/13 Q1012=
201907161000 METAR LRBM 161000Z 26007KT 9999 FEW040TCU 23/10 Q1012=
201907161030 METAR LRBM 161030Z 25009KT 230V300 9999 FEW040TCU 24/10 Q1012=
201907161100 METAR LRBM 161100Z 25009KT 220V280 9999 SCT042 24/09 Q1011=
201907161130 METAR LRBM 161130Z 25009KT 220V290 9999 SCT043 25/10 Q1011=
201907161200 METAR LRBM 161200Z 24009KT 9999 SCT045 25/10 Q1011=
201907161230 METAR LRBM 161230Z 24009KT 9999 SCT045 25/07 Q1011=
201907161300 METAR LRBM 161300Z 26009KT 230V290 9999 SCT045 25/08 Q1011=
201907161330 METAR LRBM 161330Z 26009KT 230V300 9999 SCT045 25/08 Q1011=
201907161400 METAR LRBM 161400Z 26010KT 9999 SCT048 25/08 Q1011=
201907161430 METAR LRBM 161430Z 29006KT 9999 SCT048 25/08 Q1011=
201907161500 METAR LRBM 161500Z 27008KT 9999 FEW050 25/07 Q1010=
201907161530 METAR LRBM 161530Z 27007KT 9999 FEW050 25/07 Q1010=
201907161600 METAR LRBM 161600Z 28007KT 9999 FEW053 25/07 Q1010=
201907161630 METAR LRBM 161630Z 27007KT CAVOK 25/07 Q1010=
201907161700 METAR LRBM 161700Z 28006KT CAVOK 24/07 Q1010=
201907161730 METAR LRBM 161730Z 30003KT CAVOK 24/09 Q1010=
201907161800 METAR LRBM 161800Z 35004KT CAVOK 21/10 Q1010=
201907161830 METAR LRBM 161830Z 01003KT 340V040 CAVOK 18/10 Q1011=
201907161900 METAR LRBM 161900Z 03004KT 350V060 CAVOK 18/10 Q1011=
201907161930 METAR LRBM 161930Z 02004KT 340V080 CAVOK 18/09 Q1011=
201907162000 METAR LRBM 162000Z 01004KT 320V040 CAVOK 17/08 Q1011=
201907162030 METAR LRBM 162030Z VRB03KT CAVOK 15/09 Q1011=
201907162100 METAR LRBM 162100Z 06004KT 030V090 CAVOK 16/08 Q1011=
201907162130 METAR LRBM 162130Z AUTO 05002KT 9999 FEW033/// SCT230///
                        14/08 Q1011=
201907162200 METAR LRBM 162200Z AUTO 05003KT 9999 FEW050/// SCT230///
                        15/08 Q1011=
201907162230 METAR LRBM 162230Z AUTO 05003KT 9999 FEW015/// SCT230///
                        15/08 Q1011=
201907162300 METAR LRBM 162300Z AUTO 06005KT 020V080 9999 FEW034/// SCT220///
                        15/08 Q1011=
201907162330 METAR LRBM 162330Z AUTO 08004KT 9999 FEW017/// SCT230///
                        15/09 Q1011=
201907170000 METAR LRBM 170000Z AUTO 07005KT 9999 -RA FEW075/// SCT200///
                        15/08 Q1011=
201907170030 METAR LRBM 170030Z AUTO 05003KT 340V100 9999 -SHRA FEW005///
                        SCT160/// 16/09 Q1011=
201907170100 METAR LRBM 170100Z AUTO 35005KT 270V070 9999 -SHRA FEW023///
                        SCT190/// 15/10 Q1011=
201907170130 METAR LRBM 170130Z AUTO 08005KT 040V110 9999 FEW030/// SCT230///
                        14/11 Q1011 RERA=
201907170200 METAR LRBM 170200Z 04004KT 300V090 9999 FEW055 14/11 Q1010
                        R09/19//95=
201907170230 METAR LRBM 170230Z 09003KT 030V150 CAVOK 14/12 Q1011 R09/19//95=
201907170300 METAR LRBM 170300Z 02003KT 320V080 CAVOK 14/11 Q1011 R09/19//95=
201907170330 METAR LRBM 170330Z 06004KT 020V080 CAVOK 14/12 Q1010 R09/19//95=
201907170400 METAR LRBM 170400Z 11005KT CAVOK 14/12 Q1010 R09/19//95=
201907170430 METAR LRBM 170430Z VRB01KT CAVOK 15/12 Q1011 R09/CLRD//=
201907170500 METAR LRBM 170500Z VRB01KT CAVOK 17/13 Q1011=
201907170530 METAR LRBM 170530Z 10005KT 9999 FEW056 17/12 Q1010=
201907170600 METAR LRBM 170600Z 18004KT 130V220 CAVOK 18/11 Q1011=
201907170630 METAR LRBM 170630Z 16004KT 130V190 CAVOK 18/11 Q1011=
201907170700 METAR LRBM 170700Z 18004KT 120V220 CAVOK 19/11 Q1011=
201907170730 METAR LRBM 170730Z VRB03KT CAVOK 19/11 Q1011=
201907170800 METAR LRBM 170800Z 29003KT 240V040 CAVOK 20/11 Q1011=
201907170830 METAR LRBM 170830Z 26006KT 220V300 CAVOK 21/12 Q1011=
201907170900 METAR LRBM 170900Z 26006KT 230V310 9999 FEW042 21/12 Q1011=
201907170930 METAR LRBM 170930Z 28008KT 250V320 9999 FEW045 21/13 Q1011=
201907171000 METAR LRBM 171000Z 27009KT 9999 FEW045TCU 22/13 Q1011=
201907171030 METAR LRBM 171030Z 27008KT 250V340 9999 FEW045TCU 23/13 Q1010=
201907171100 METAR LRBM 171100Z 27011KT 240V300 9999 SCT043 23/11 Q1010=
201907171130 METAR LRBM 171130Z 27009KT 9999 FEW043TCU SCT045 23/11 Q1010=
201907171200 METAR LRBM 171200Z 31007KT 280V340 9999 SCT045 24/10 Q1010=
201907171230 METAR LRBM 171230Z 29007KT 240V330 9999 SCT045 24/09 Q1010=
201907171300 METAR LRBM 171300Z 27010KT 260V320 9999 SCT045 24/09 Q1010=
201907171330 METAR LRBM 171330Z 28006KT 250V330 9999 SCT045 24/07 Q1010=
201907171400 METAR LRBM 171400Z 28009KT 250V320 9999 SCT045 24/08 Q1010=
201907171430 METAR LRBM 171430Z 29008KT 9999 FEW045 24/06 Q1010=
201907171500 METAR LRBM 171500Z 28010KT 260V330 9999 FEW045 24/07 Q1010=
201907171530 METAR LRBM 171530Z 28009KT 9999 FEW045 24/08 Q1010=
201907171600 METAR LRBM 171600Z 29007KT 260V320 9999 FEW045 24/08 Q1010=
201907171630 METAR LRBM 171630Z 29007KT 9999 FEW045 24/07 Q1010=
201907171700 METAR LRBM 171700Z 28008KT CAVOK 23/07 Q1010=
201907171730 METAR LRBM 171730Z 29004KT CAVOK 23/08 Q1011=
201907171800 METAR LRBM 171800Z VRB02KT CAVOK 20/10 Q1011=
201907171830 METAR LRBM 171830Z VRB02KT CAVOK 19/11 Q1011=
201907171900 METAR LRBM 171900Z 35002KT CAVOK 18/10 Q1012=
201907171930 METAR LRBM 171930Z 01003KT 340V050 CAVOK 18/10 Q1012=
201907172000 METAR LRBM 172000Z 01005KT CAVOK 18/09 Q1012=
201907172030 METAR LRBM 172030Z 36003KT CAVOK 17/10 Q1012=
201907172100 METAR LRBM 172100Z 36003KT CAVOK 17/09 Q1012=
201907172130 METAR LRBM 172130Z AUTO VRB02KT 9999 FEW018/// SCT190///
                        16/11 Q1012=
201907172200 METAR LRBM 172200Z AUTO VRB01KT 9999 FEW021/// SCT230///
                        15/11 Q1012=
201907172230 METAR LRBM 172230Z AUTO 00000KT 9999 FEW026/// SCT210///
                        14/11 Q1012=
201907172300 METAR LRBM 172300Z AUTO VRB02KT 9999 FEW019/// SCT210///
                        14/10 Q1012=
201907172330 METAR LRBM 172330Z AUTO 00000KT 9999 FEW090/// SCT240///
                        14/10 Q1012=
201907180000 METAR LRBM 180000Z AUTO 10003KT 9999 FEW080/// SCT210///
                        13/10 Q1012=
201907180030 METAR LRBM 180030Z AUTO 09004KT 9999 FEW043/// SCT210///
                        13/10 Q1012=
201907180100 METAR LRBM 180100Z AUTO 09004KT 9999 FEW060/// SCT230///
                        13/10 Q1012=
201907180130 METAR LRBM 180130Z AUTO 09003KT 9999 FEW060/// SCT240///
                        13/10 Q1013=
201907180200 METAR LRBM 180200Z 00000KT CAVOK 12/10 Q1013=
201907180230 METAR LRBM 180230Z 09001KT 9999 FEW060 12/10 Q1013=
201907180300 METAR LRBM 180300Z 00000KT 9999 FEW060 12/10 Q1013=
201907180330 METAR LRBM 180330Z 10004KT 9999 FEW060 13/10 Q1013=
201907180400 METAR LRBM 180400Z 10004KT CAVOK 13/10 Q1013=
201907180430 METAR LRBM 180430Z 09003KT CAVOK 14/11 Q1013=
201907180500 METAR LRBM 180500Z 09003KT CAVOK 14/10 Q1013=
201907180530 METAR LRBM 180530Z 11003KT 080V140 CAVOK 16/10 Q1013=
201907180600 METAR LRBM 180600Z 13003KT 100V170 CAVOK 16/11 Q1013=
201907180630 METAR LRBM 180630Z 17003KT 130V200 CAVOK 18/11 Q1014=
201907180700 METAR LRBM 180700Z VRB03KT CAVOK 20/10 Q1013=
201907180730 METAR LRBM 180730Z 18003KT 150V260 CAVOK 20/10 Q1013=
201907180800 METAR LRBM 180800Z 21004KT 140V270 CAVOK 21/10 Q1014=
201907180830 METAR LRBM 180830Z 26006KT 220V300 CAVOK 22/09 Q1013=
201907180900 METAR LRBM 180900Z 24005KT 170V280 CAVOK 23/08 Q1013=
201907180930 METAR LRBM 180930Z 23006KT 9999 FEW042 23/08 Q1013=
201907181000 METAR LRBM 181000Z 25006KT 210V280 9999 FEW044 24/06 Q1013=
201907181030 METAR LRBM 181030Z 22007KT 9999 FEW045 24/07 Q1013=
201907181100 METAR LRBM 181100Z 25008KT 220V280 9999 FEW046 24/07 Q1013=
201907181130 METAR LRBM 181130Z 25009KT 9999 FEW046 25/07 Q1013=
201907181200 METAR LRBM 181200Z 24010KT 210V270 9999 SCT048 25/08 Q1013=
201907181230 METAR LRBM 181230Z 27008KT 230V320 9999 FEW048 25/08 Q1013=
201907181300 METAR LRBM 181300Z 26010KT 9999 FEW048 25/08 Q1013=
201907181330 METAR LRBM 181330Z 28008KT 260V320 9999 FEW048 25/07 Q1013=
201907181400 METAR LRBM 181400Z 29006KT 260V320 9999 FEW048 24/07 Q1013=
201907181430 METAR LRBM 181430Z 29006KT 260V320 9999 FEW050 26/07 Q1013=
201907181500 METAR LRBM 181500Z 27007KT 250V310 9999 FEW050 25/07 Q1013=
201907181530 METAR LRBM 181530Z 32003KT 270V050 9999 FEW050 25/08 Q1013=
201907181600 METAR LRBM 181600Z 32003KT 280V360 9999 FEW052 24/09 Q1013=
201907181630 METAR LRBM 181630Z 34004KT 290V010 CAVOK 24/08 Q1013=
201907181700 METAR LRBM 181700Z 36003KT 300V040 CAVOK 23/09 Q1013=
201907181730 METAR LRBM 181730Z VRB02KT CAVOK 22/10 Q1014=
201907181800 METAR COR LRBM 181800Z 00000KT CAVOK 21/12 Q1014=
201907181830 METAR LRBM 181830Z VRB01KT CAVOK 20/12 Q1014=
201907181900 METAR LRBM 181900Z 03003KT CAVOK 20/11 Q1014=
201907181930 METAR LRBM 181930Z 00000KT 9999 FEW054 19/11 Q1014=
201907182000 METAR LRBM 182000Z 00000KT 9999 SCT056 19/11 Q1015=
201907182030 METAR LRBM 182030Z VRB02KT 9999 SCT056 19/11 Q1015=
201907182100 METAR LRBM 182100Z VRB02KT 9999 FEW058 19/11 Q1015=
201907182130 METAR LRBM 182130Z AUTO VRB02KT 9999 FEW050/// SCT230///
                        18/11 Q1015=
201907182200 METAR LRBM 182200Z AUTO 02003KT 9999 FEW036/// SCT200///
                        18/11 Q1015=
201907182230 METAR LRBM 182230Z AUTO 02003KT 350V080 9999 FEW047/// SCT210///
                        18/09 Q1015=
201907182300 METAR LRBM 182300Z AUTO 09003KT 9999 FEW070/// SCT200///
                        16/10 Q1015=
201907182330 METAR LRBM 182330Z AUTO 04004KT 9999 FEW050/// SCT240///
                        16/10 Q1015=
201907190000 METAR LRBM 190000Z AUTO VRB02KT 9999 FEW018/// SCT220///
                        16/10 Q1016=
201907190030 METAR LRBM 190030Z AUTO 07003KT 9999 FEW085/// SCT210///
                        15/10 Q1016=
201907190100 METAR LRBM 190100Z AUTO 05004KT 9999 FEW110/// SCT240///
                        16/09 Q1016=
201907190130 METAR LRBM 190130Z AUTO 06001KT 9999 FEW060/// SCT210///
                        16/10 Q1016=
201907190200 METAR LRBM 190200Z VRB01KT CAVOK 15/10 Q1016=
201907190230 METAR LRBM 190230Z VRB01KT CAVOK 15/10 Q1016=
201907190300 METAR LRBM 190300Z 07003KT 040V100 CAVOK 14/10 Q1016=
201907190330 METAR LRBM 190330Z 05003KT CAVOK 15/10 Q1017=
201907190400 METAR LRBM 190400Z 04004KT 9999 VCSH FEW050CB 15/10 Q1017=
201907190430 METAR LRBM 190430Z VRB02KT 9999 FEW045 17/10 Q1017=
201907190500 METAR LRBM 190500Z 07002KT 9999 FEW045 19/11 Q1017=
201907190530 METAR LRBM 190530Z 08005KT CAVOK 20/11 Q1017=
201907190600 METAR LRBM 190600Z 15005KT 130V190 CAVOK 19/12 Q1017=
201907190630 METAR LRBM 190630Z VRB02KT CAVOK 21/11 Q1017=
201907190700 METAR LRBM 190700Z 15003KT 100V200 9999 FEW040 22/11 Q1017=
201907190730 METAR LRBM 190730Z 11004KT 050V160 9999 FEW040 23/12 Q1017=
201907190800 METAR LRBM 190800Z 16003KT 070V200 9999 FEW040 23/12 Q1017=
201907190830 METAR LRBM 190830Z VRB01KT 9999 FEW040TCU 24/12 Q1017=
201907190930 METAR LRBM 190930Z 23003KT 9999 FEW040TCU 25/11 Q1017=
201907191000 METAR LRBM 191000Z VRB04KT 9999 FEW040TCU 25/11 Q1017=
201907191030 METAR LRBM 191030Z VRB03KT 9999 FEW040TCU 26/11 Q1017=
201907191100 METAR LRBM 191100Z 26005KT 230V320 9999 FEW040TCU SCT042
                        26/10 Q1017=
201907191130 METAR LRBM 191130Z 23005KT 140V310 9999 FEW040TCU SCT042
                        27/12 Q1017=
201907191200 METAR LRBM 191200Z 22004KT 150V260 9999 FEW040TCU SCT042
                        26/11 Q1017=
201907191230 METAR LRBM 191230Z 21007KT 9999 FEW040TCU SCT042 26/11 Q1016=
201907191300 METAR LRBM 191300Z 25005KT 210V290 9999 FEW040TCU SCT042
                        27/10 Q1016=
201907191330 METAR LRBM 191330Z 27008KT 9999 FEW040TCU SCT042 27/09 Q1016=
201907191400 METAR LRBM 191400Z 23006KT 210V270 9999 FEW040TCU SCT042
                        27/09 Q1016=
201907191430 METAR LRBM 191430Z AUTO 26005KT 240V300 9999 FEW019/// SCT210///
                        28/09 Q1016=
201907191500 METAR LRBM 191500Z AUTO 27005KT 230V310 9999 FEW014/// SCT180///
                        28/08 Q1016=
201907191530 METAR LRBM 191530Z AUTO 26007KT 9999 FEW016/// SCT180///
                        BKN240/// 27/08 Q1016=
201907191600 METAR LRBM 191600Z AUTO 28006KT 9999 FEW013/// SCT180///
                        27/08 Q1016=
201907191630 METAR LRBM 191630Z AUTO 27006KT 9999 FEW017/// SCT190///
                        27/09 Q1016=
201907191700 METAR LRBM 191700Z AUTO 30003KT 270V330 9999 FEW012/// SCT170///
                        BKN240/// 26/10 Q1016=
201907191730 METAR LRBM 191730Z AUTO 35004KT 9999 FEW017/// SCT210///
                        24/11 Q1016=
201907191800 METAR LRBM 191800Z AUTO 36004KT 340V060 9999 FEW014/// SCT220///
                        23/11 Q1016=
201907191830 METAR LRBM 191830Z AUTO 04004KT 340V070 9999 FEW014/// SCT220///
                        21/12 Q1017=
201907191900 METAR LRBM 191900Z AUTO 02003KT 330V050 9999 FEW020/// SCT160///
                        21/11 Q1017=
201907191930 METAR LRBM 191930Z AUTO VRB02KT 9999 FEW013/// SCT200///
                        20/11 Q1017=
201907192000 METAR LRBM 192000Z AUTO 06005KT 9999 FEW029/// SCT190///
                        19/12 Q1017=
201907192030 METAR LRBM 192030Z AUTO 04004KT 330V080 9999 FEW015/// SCT240///
                        18/12 Q1017=
201907192100 METAR LRBM 192100Z AUTO 02003KT 330V070 9999 FEW025/// SCT190///
                        18/11 Q1018=
201907192130 METAR LRBM 192130Z AUTO 05004KT 020V080 9999 FEW017/// SCT230///
                        18/11 Q1018=
201907192200 METAR LRBM 192200Z AUTO 02004KT 9999 FEW085/// SCT230///
                        18/11 Q1018=
201907192230 METAR LRBM 192230Z AUTO 05004KT 9999 FEW016/// SCT220///
                        17/11 Q1018=
201907192300 METAR LRBM 192300Z AUTO VRB02KT 9999 FEW023/// SCT210///
                        16/11 Q1018=
201907192330 METAR LRBM 192330Z AUTO 10004KT 9999 FEW055/// SCT230///
                        16/11 Q1018=
201907200000 METAR LRBM 200000Z AUTO 09005KT 9999 FEW120/// SCT210///
                        16/11 Q1018=
201907200030 METAR LRBM 200030Z AUTO 08005KT 9999 FEW085/// SCT230///
                        16/11 Q1018=
201907200100 METAR LRBM 200100Z AUTO 06005KT 9999 FEW021/// SCT190///
                        16/11 Q1018=
201907200130 METAR LRBM 200130Z AUTO 09003KT 9999 FEW017/// SCT230///
                        14/11 Q1018=
201907200200 METAR LRBM 200200Z AUTO 08006KT 9999 FEW018/// SCT200///
                        14/11 Q1018=
201907200230 METAR LRBM 200230Z AUTO 08005KT 9999 FEW018/// SCT210///
                        13/11 Q1019=
201907200300 METAR LRBM 200300Z AUTO 09006KT 9999 FEW080/// SCT230///
                        15/11 Q1019=
201907200330 METAR LRBM 200330Z AUTO 09005KT 9999 FEW029/// SCT200///
                        15/12 Q1019=
201907200400 METAR LRBM 200400Z AUTO 06003KT 9999 FEW075/// SCT230///
                        17/12 Q1019=
201907200430 METAR LRBM 200430Z AUTO 10005KT 9999 FEW037/// SCT200///
                        18/12 Q1019=
201907200500 METAR LRBM 200500Z 09004KT CAVOK 18/13 Q1019=
201907200530 METAR LRBM 200530Z 11003KT 080V140 CAVOK 20/13 Q1019=
201907200600 METAR LRBM 200600Z 15003KT CAVOK 20/13 Q1020=
201907200630 METAR LRBM 200630Z 18003KT CAVOK 20/12 Q1020=
201907200700 METAR LRBM 200700Z 29006KT 9999 FEW055 19/14 Q1020=
201907200730 METAR LRBM 200730Z VRB03KT 9999 -SHRA FEW050CB FEW055 20/13
                        Q1020=
201907200800 METAR LRBM 200800Z 00000KT 9999 -SHRA FEW050CB SCT055 20/15
                        Q1020 R09/19//95=
201907200830 METAR LRBM 200830Z 08003KT 9999 -SHRA FEW048CB BKN055 19/17
                        Q1020 R09/19//95=
201907200900 METAR LRBM 200900Z 07003KT 020V190 9999 FEW048CB BKN058 21/17
                        Q1020 R09/19//95=
201907200930 METAR LRBM 200930Z 14004KT 9999 FEW050CB SCT058 20/17 Q1021
                        R09/19//95=
201907201000 METAR LRBM 201000Z 22004KT 9999 -SHRA FEW048CB SCT058 20/16
                        Q1021 R09/19//95=
201907201030 METAR LRBM 201030Z 29004KT 9999 -SHRA FEW048CB SCT060 19/16
                        Q1021 R09/19//95=
201907201100 METAR LRBM 201100Z 26003KT 230V300 9999 -SHRA FEW045CB 18/17
                        Q1022 R09/19//95=
201907201130 METAR LRBM 201130Z 07004KT 010V100 9999 -SHRA FEW045CB 19/17
                        Q1021 R09/19//95=
201907201200 METAR LRBM 201200Z 07004KT 9999 -RA SCT046 19/17 Q1021 R09/19//95=
201907201230 METAR LRBM 201230Z 07007KT 9999 FEW048 20/17 Q1020 R09/19//95=
201907201300 METAR LRBM 201300Z 08007KT 9999 FEW050 22/17 Q1020 R09/19//95=
201907201330 METAR LRBM 201330Z AUTO 11006KT 090V150 9999 FEW017/// SCT210///
                        23/17 Q1019=
201907201400 METAR LRBM 201400Z AUTO 13005KT 090V160 9999 FEW031/// SCT230///
                        24/16 Q1019=
201907201430 METAR LRBM 201430Z AUTO 15004KT 130V190 9999 FEW017/// SCT210///
                        25/17 Q1019=
201907201500 METAR LRBM 201500Z AUTO 16003KT 130V200 9999 FEW013/// SCT200///
                        25/17 Q1019=
201907201530 METAR LRBM 201530Z AUTO VRB02KT 9999 FEW018/// BKN190///
                        25/17 Q1019=
201907201600 METAR LRBM 201600Z AUTO 16003KT 9999 FEW017/// SCT210///
                        25/16 Q1019=
201907201630 METAR LRBM 201630Z AUTO 16002KT 9999 FEW031/// SCT220///
                        24/17 Q1019=
201907201700 METAR LRBM 201700Z AUTO 00000KT 9999 FEW033/// SCT230///
                        24/18 Q1019=
201907201730 METAR LRBM 201730Z AUTO 35002KT 9999 FEW030/// SCT220///
                        23/18 Q1019=
201907201800 METAR LRBM 201800Z AUTO 01003KT 9999 FEW014/// SCT200///
                        21/18 Q1019=
201907201830 METAR LRBM 201830Z AUTO 01003KT 340V060 9999 FEW015/// SCT180///
                        21/17 Q1019=
201907201900 METAR LRBM 201900Z AUTO 36004KT 330V040 9999 FEW040/// SCT210///
                        20/17 Q1019=
201907201930 METAR LRBM 201930Z AUTO 01004KT 340V040 9999 FEW018/// SCT190///
                        20/16 Q1020=
201907202000 METAR LRBM 202000Z AUTO 02003KT 350V050 9999 FEW018/// SCT180///
                        20/16 Q1020=
201907202030 METAR LRBM 202030Z AUTO 00000KT 9999 FEW020/// SCT230///
                        18/15 Q1020=
201907202100 METAR LRBM 202100Z AUTO VRB02KT 9999 FEW016/// SCT210///
                        17/14 Q1020=
201907202130 METAR LRBM 202130Z AUTO 06003KT 010V080 9999 FEW065/// SCT230///
                        18/14 Q1020=
201907202200 METAR LRBM 202200Z AUTO 06003KT 350V100 9999 FEW035/// SCT210///
                        18/14 Q1020=
201907202230 METAR LRBM 202230Z AUTO VRB01KT 9999 FEW120/// SCT220///
                        17/14 Q1020=
201907202300 METAR LRBM 202300Z AUTO 07006KT 9999 FEW022/// SCT220///
                        17/14 Q1020=
201907202330 METAR LRBM 202330Z AUTO 09008KT 9999 FEW017/// SCT210///
                        18/14 Q1020=
201907210000 METAR LRBM 210000Z AUTO 08004KT 9999 FEW024/// SCT200///
                        17/14 Q1020=
201907210030 METAR LRBM 210030Z AUTO 06005KT 030V090 9999 FEW022/// SCT230///
                        18/14 Q1020=
201907210100 METAR LRBM 210100Z AUTO 07006KT 9999 FEW028/// SCT200///
                        18/14 Q1019=
201907210130 METAR LRBM 210130Z AUTO 09007KT 9999 FEW075/// SCT230///
                        18/14 Q1020=
201907210200 METAR LRBM 210200Z AUTO 08008KT 9999 FEW070/// SCT230///
                        18/14 Q1019=
201907210230 METAR LRBM 210230Z AUTO VRB01KT 9999 FEW045/// SCT200///
                        18/14 Q1019=
201907210300 METAR LRBM 210300Z AUTO VRB01KT 9999 FEW013/// SCT200///
                        17/15 Q1020=
201907210330 METAR LRBM 210330Z AUTO 09006KT 9999 FEW080/// SCT230///
                        17/15 Q1020=
201907210400 METAR LRBM 210400Z AUTO 06005KT 9999 FEW049/// SCT210///
                        17/15 Q1020=
201907210430 METAR LRBM 210430Z AUTO 11007KT 060V120 9999 FEW075/// SCT230///
                        19/15 Q1020=
201907210500 METAR LRBM 210500Z AUTO 08005KT 030V110 9999 FEW080/// SCT240///
                        19/15 Q1020=
201907210530 METAR LRBM 210530Z AUTO 06003KT 340V080 9999 FEW041/// SCT200///
                        20/15 Q1021=
201907210600 METAR LRBM 210600Z AUTO 06004KT 360V100 9999 FEW013/// SCT170///
                        21/15 Q1021=
201907210630 METAR LRBM 210630Z AUTO 05004KT 9999 FEW012/// SCT170///
                        21/15 Q1020=
201907210700 METAR LRBM 210700Z AUTO 05005KT 010V080 9999 FEW007/// SCT016///
                        BKN055/// 19/16 Q1020=
201907210730 METAR LRBM 210730Z AUTO 07005KT 9999 FEW013/// SCT240///
                        21/17 Q1020=
201907210800 METAR LRBM 210800Z AUTO 10007KT 9999 FEW036/// SCT170///
                        23/16 Q1020=
201907210830 METAR LRBM 210830Z AUTO /////KT //// R09////// FEW015///
                        SCT230/// ///// Q1021=
201907210900 METAR LRBM 210900Z AUTO /////KT //// R09////// FEW029///
                        SCT200/// ///// Q1021=
201907210930 METAR LRBM 210930Z AUTO /////KT //// R09////// FEW029///
                        SCT220/// ///// Q1020=
201907211000 METAR LRBM 211000Z AUTO /////KT //// R09////// FEW016///
                        SCT200/// ///// Q1020=
201907211030 METAR LRBM 211030Z AUTO /////KT //// R09////// NCD /////
                        Q1020=
201907211100 METAR LRBM 211100Z AUTO /////KT //// R09////// NCD /////
                        Q1020=
201907211130 METAR LRBM 211130Z AUTO /////KT //// R09////// FEW011///
                        SCT170/// ///// Q1020=
201907211200 METAR LRBM 211200Z AUTO /////KT //// R09////// FEW011///
                        SCT180/// ///// Q1020=
201907211230 METAR LRBM 211230Z AUTO /////KT //// R09////// FEW020///
                        SCT180/// ///// Q1019=
201907211300 METAR LRBM 211300Z AUTO /////KT //// R09////// FEW017///
                        BKN180/// ///// Q1019=
201907211330 METAR LRBM 211330Z AUTO /////KT //// R09////// FEW015///
                        BKN190/// ///// Q1018=
201907211400 METAR LRBM 211400Z AUTO /////KT //// R09////// FEW015///
                        SCT170/// ///// Q1018=
201907211430 METAR LRBM 211430Z AUTO /////KT //// R09////// FEW011///
                        SCT200/// ///// Q1019=
201907211500 METAR LRBM 211500Z AUTO /////KT //// R09////// FEW015///
                        SCT200/// ///// Q1018=
201907211530 METAR LRBM 211530Z AUTO /////KT //// R09////// NCD /////
                        Q1018=
201907211600 METAR LRBM 211600Z AUTO /////KT //// R09////// NCD /////
                        Q1018=
201907211630 METAR LRBM 211630Z AUTO /////KT //// R09////// NCD /////
                        Q1018=
201907211700 METAR COR LRBM 211700Z /////KT CAVOK 27/21 Q1018=
201907211730 METAR COR LRBM 211730Z /////KT CAVOK 26/21 Q1018=
201907211800 METAR LRBM 211800Z 02003KT 350V050 CAVOK 25/18 Q1019=
201907211830 METAR LRBM 211830Z 02003KT 360V060 CAVOK 24/18 Q1019=
201907211900 METAR LRBM 211900Z 02003KT 360V060 9999 FEW058 24/17 Q1019=
201907211930 METAR LRBM 211930Z VRB02KT 9999 FEW048CB SCT056 23/17 Q1019=
201907212000 METAR LRBM 212000Z 31004KT 250V050 9999 FEW048CB SCT058 24/17
                        Q1020=
201907212030 METAR LRBM 212030Z 02007KT 330V070 9999 FEW048CB 24/16 Q1019
                        WS R09=
201907212100 METAR LRBM 212100Z 03005KT 340V070 9999 -RA NSC 24/16 Q1019
                        WS R09=
201907212130 METAR LRBM 212130Z AUTO 27006KT 240V330 9999 FEW012/// SCT170///
                        23/16 Q1020=
201907212200 METAR LRBM 212200Z AUTO 18003KT 100V210 9999 FEW017/// SCT180///
                        22/16 Q1020=
201907212230 METAR LRBM 212230Z AUTO 04003KT 010V070 9999 FEW015/// SCT200///
                        23/15 Q1020=
201907212300 METAR LRBM 212300Z AUTO 36004KT 9999 -RA VCTS FEW006/// SCT035///
                        BKN200/// 22/15 Q1020=
201907212330 METAR LRBM 212330Z AUTO 05008KT 9999 TSRA FEW008/// SCT090///
                        BKN240/// 20/16 Q1020=
201907220000 METAR LRBM 220000Z AUTO 02004KT 300V070 9999 FEW016/// SCT190///
                        20/16 Q1020 RERA=
201907220030 METAR LRBM 220030Z AUTO VRB05KT 5000 R09/0900VP2000U +TSRA
                        VV007 17/16 Q1020=
201907220100 METAR LRBM 220100Z AUTO 04003KT 360V080 9000 +TSRA FEW006///
                        SCT010/// BKN019/// 18/17 Q1020=
201907220130 METAR LRBM 220130Z AUTO 05004KT 020V080 9999 -RA VCTS FEW012///
                        SCT130/// BKN240/// 18/17 Q1020=
201907220200 METAR LRBM 220200Z 09003KT 050V120 9999 -RA VCTS FEW038CB
                        BKN040 18/17 Q1020 R09/29//95=
201907220230 METAR LRBM 220230Z 00000KT 9999 SCT042 17/17 Q1020 R09/29//95=
201907220300 METAR LRBM 220300Z 01002KT 9999 FEW001 17/17 Q1020 R09/29//95=
201907220330 METAR LRBM 220330Z 00000KT 7000 FEW002 17/17 Q1020 R09/29//95=
201907220400 METAR COR LRBM 220400Z 31002KT 7000 FEW002 17/17 Q1020 R09/29//95=
201907220430 METAR LRBM 220430Z 34002KT 7000 FEW001 18/17 Q1021 R09/29//95=
201907220500 METAR LRBM 220500Z 26003KT 9999 FEW002 18/17 Q1021 R09/19//95=
201907220530 METAR LRBM 220530Z 28005KT 9999 FEW003 SCT006 19/17 Q1021
                        R09/19//95=
201907220600 METAR COR LRBM 220600Z 26006KT 9999 FEW004 SCT008 20/18 Q1021
                        R09/19//95=
201907220630 METAR LRBM 220630Z 25005KT 9999 FEW005 SCT007 20/18 Q1021
                        R09/19//95=
201907220700 METAR LRBM 220700Z 26005KT 220V290 9999 FEW006 SCT010 20/18
                        Q1021 R09/CLRD//=
201907220730 METAR LRBM 220730Z 22002KT 9999 FEW007 SCT012 21/17 Q1021=
201907220800 METAR LRBM 220800Z 22003KT 150V280 9999 FEW010 SCT014 22/18
                        Q1021=
201907220830 METAR LRBM 220830Z VRB05KT 9999 SCT015 22/18 Q1021=
201907220900 METAR LRBM 220900Z 28005KT 250V320 9999 FEW020 FEW038TCU
                        22/18 Q1021=
201907220930 METAR LRBM 220930Z 27008KT 240V300 9999 FEW022 FEW038TCU
                        23/19 Q1021=
201907221000 METAR LRBM 221000Z 27011KT 9999 FEW038TCU 24/18 Q1021=
201907221030 METAR LRBM 221030Z 27011KT 9999 FEW038TCU 25/18 Q1020=
201907221100 METAR LRBM 221100Z 27012KT 9999 FEW038TCU 25/18 Q1020=
201907221130 METAR LRBM 221130Z 26011KT 9999 FEW038TCU 26/18 Q1020=
201907221200 METAR LRBM 221200Z 27012KT 9999 FEW038TCU 26/17 Q1020=
201907221230 METAR LRBM 221230Z 27012KT 9999 FEW040TCU 26/16 Q1020=
201907221300 METAR LRBM 221300Z 28011KT 250V320 9999 FEW042TCU 27/16 Q1019=
201907221330 METAR LRBM 221330Z 27011KT 9999 FEW043 27/16 Q1019=
201907221400 METAR LRBM 221400Z 27011KT 9999 FEW043 27/16 Q1019=
201907221430 METAR LRBM 221430Z 27010KT 250V310 9999 FEW043 27/16 Q1019=
201907221500 METAR LRBM 221500Z 27011KT 9999 FEW045 27/16 Q1019=
201907221530 METAR LRBM 221530Z 27010KT 240V310 9999 FEW045 27/16 Q1019=
201907221600 METAR LRBM 221600Z 28009KT 9999 FEW045 27/15 Q1019=
201907221630 METAR LRBM 221630Z 28008KT 250V310 9999 FEW048 26/16 Q1019=
201907221700 METAR LRBM 221700Z 30005KT 260V320 9999 FEW048 26/14 Q1019=
201907221730 METAR LRBM 221730Z 30004KT 9999 FEW048 25/14 Q1019=
201907221800 METAR LRBM 221800Z 36003KT 340V040 9999 FEW050 23/15 Q1019=
201907221830 METAR LRBM 221830Z 33003KT 290V360 CAVOK 22/15 Q1019=
201907221900 METAR LRBM 221900Z 30005KT 260V340 CAVOK 21/15 Q1020=
201907221930 METAR LRBM 221930Z VRB03KT CAVOK 21/15 Q1020=
201907222000 METAR LRBM 222000Z 00000KT CAVOK 20/15 Q1019=
201907222030 METAR LRBM 222030Z 32002KT 260V020 CAVOK 19/15 Q1020=
201907222100 METAR LRBM 222100Z 36003KT 320V050 CAVOK 19/15 Q1020=
201907222130 METAR LRBM 222130Z AUTO VRB01KT 9999 FEW017/// SCT220///
                        19/15 Q1020=
201907222200 METAR LRBM 222200Z AUTO 35004KT 310V030 9999 FEW015/// SCT200///
                        19/15 Q1020=
201907222230 METAR LRBM 222230Z AUTO 01003KT 320V040 9999 FEW029/// SCT230///
                        19/14 Q1020=
201907222300 METAR LRBM 222300Z AUTO VRB01KT 9999 FEW043/// SCT230///
                        18/14 Q1019=
201907222330 METAR LRBM 222330Z AUTO 08002KT 010V100 9999 FEW026/// SCT210///
                        18/15 Q1019=
201907230000 METAR LRBM 230000Z AUTO 05002KT 010V070 9999 FEW095/// SCT230///
                        17/15 Q1019=
201907230030 METAR LRBM 230030Z AUTO 36003KT 320V020 9999 FEW027/// SCT200///
                        17/14 Q1019=
201907230100 METAR LRBM 230100Z AUTO 00000KT 9999 FEW035/// SCT240///
                        17/14 Q1019=
201907230130 METAR LRBM 230130Z AUTO 10002KT 050V120 9999 FEW030/// SCT190///
                        16/14 Q1019=
201907230200 METAR LRBM 230200Z VRB01KT 9999 FEW052 16/14 Q1019=
201907230230 METAR LRBM 230230Z VRB01KT CAVOK 16/14 Q1019=
201907230300 METAR LRBM 230300Z 35002KT CAVOK 16/14 Q1019=
201907230330 METAR LRBM 230330Z VRB01KT CAVOK 16/14 Q1019=
201907230400 METAR LRBM 230400Z 07003KT CAVOK 16/15 Q1019=
201907230430 METAR LRBM 230430Z VRB01KT CAVOK 17/15 Q1018=
201907230500 METAR LRBM 230500Z VRB01KT CAVOK 18/16 Q1018=
201907230530 METAR LRBM 230530Z 19001KT CAVOK 18/16 Q1018=
201907230600 METAR LRBM 230600Z VRB01KT CAVOK 19/16 Q1018=
201907230630 METAR LRBM 230630Z VRB01KT CAVOK 20/16 Q1018=
201907230700 METAR LRBM 230700Z VRB02KT CAVOK 21/15 Q1018=
201907230730 METAR LRBM 230730Z 25004KT 9999 FEW042 21/16 Q1018=
201907230800 METAR LRBM 230800Z 27005KT 250V310 9999 FEW042 21/17 Q1018=
201907230830 METAR LRBM 230830Z 28004KT 250V310 9999 FEW038 21/17 Q1018=
201907230900 METAR LRBM 230900Z 27003KT 230V300 9999 -RA SCT060 22/17
                        Q1018=
201907230930 METAR LRBM 230930Z 27003KT 250V330 9999 -RA SCT056 22/16
                        Q1018=
201907231000 METAR LRBM 231000Z 29005KT 260V320 9999 -RA SCT054 21/16
                        Q1018 R09/19//95=
201907231030 METAR LRBM 231030Z 28008KT 9999 -RA BKN050 19/16 Q1019 R09/19//95=
201907231100 METAR LRBM 231100Z 28007KT 9999 -RA FEW015 BKN048 19/16 Q1019
                        R09/19//95=
201907231130 METAR LRBM 231130Z 27006KT 9999 -RA BKN048 18/16 Q1019 R09/19//95=
201907231200 METAR LRBM 231200Z 27002KT 9999 -RA SCT048 19/16 Q1018 R09/19//95=
201907231230 METAR LRBM 231230Z 08002KT 9999 FEW050 21/15 Q1018 R09/19//95=
201907231300 METAR LRBM 231300Z 06002KT 9999 FEW040 22/14 Q1017 R09/19//95=
201907231330 METAR LRBM 231330Z VRB04KT 9999 FEW038TCU SCT040 22/15 Q1017
                        R09/19//95=
201907231400 METAR LRBM 231400Z 27004KT 220V360 9999 SCT040 23/14 Q1017
                        R09/19//95=
201907231430 METAR LRBM 231430Z 26008KT 220V290 9999 FEW038TCU SCT040
                        23/15 Q1017 R09/19//95=
201907231500 METAR LRBM 231500Z 29008KT 260V330 9999 SCT038TCU SCT040
                        22/15 Q1017 R09/19//95=
201907231530 METAR LRBM 231530Z 29006KT 260V330 9999 VCSH SCT038CB SCT040
                        22/15 Q1017 R09/CLRD//=
201907231600 METAR LRBM 231600Z 30005KT 270V350 9999 -RA FEW038 SCT050
                        21/15 Q1017=
201907231630 METAR LRBM 231630Z 30005KT 270V340 9999 VCSH FEW040CB SCT048
                        21/15 Q1017=
201907231700 METAR LRBM 231700Z 36003KT 300V060 9999 SCT050 20/15 Q1017=
201907231730 METAR LRBM 231730Z 07002KT 9999 SCT055 21/15 Q1017=
201907231800 METAR LRBM 231800Z 00000KT 9999 SCT060 20/15 Q1017=
201907231830 METAR LRBM 231830Z 27002KT 220V320 CAVOK 20/15 Q1017=
201907231900 METAR LRBM 231900Z 26003KT CAVOK 19/16 Q1017=
201907231930 METAR LRBM 231930Z 28003KT CAVOK 19/16 Q1017=
201907232000 METAR LRBM 232000Z 35002KT CAVOK 18/15 Q1017=
201907232030 METAR LRBM 232030Z 01002KT CAVOK 17/15 Q1017=
201907232100 METAR LRBM 232100Z VRB01KT CAVOK 17/15 Q1017=
201907232130 METAR LRBM 232130Z 06003KT CAVOK 16/14 Q1018=
201907232200 METAR LRBM 232200Z 01003KT 340V040 CAVOK 16/14 Q1018=
201907232230 METAR LRBM 232230Z 35002KT CAVOK 16/14 Q1018=
201907232300 METAR LRBM 232300Z 34002KT CAVOK 16/13 Q1018=
201907232330 METAR LRBM 232330Z VRB01KT CAVOK 15/13 Q1018=
201907240000 METAR LRBM 240000Z 04001KT CAVOK 15/13 Q1018=
201907240030 METAR LRBM 240030Z 03002KT CAVOK 14/13 Q1017=
201907240100 METAR LRBM 240100Z VRB01KT CAVOK 14/13 Q1017=
201907240130 METAR LRBM 240130Z 02003KT CAVOK 14/12 Q1017=
201907240200 METAR LRBM 240200Z 07001KT CAVOK 13/12 Q1017=
201907240230 METAR LRBM 240230Z 07002KT 9999 4500SW BCFG NSC 13/12 Q1017=
201907240300 METAR LRBM 240300Z 00000KT 9999 4000SW BCFG FEW002 13/12
                        Q1018=
201907240330 METAR LRBM 240330Z 08002KT 9999 3000SW BCFG FEW002 13/12
                        Q1018=
201907240400 METAR LRBM 240400Z 08004KT 0800 R09/0550VP2000U FG SCT002
                        14/13 Q1018=
201907240430 METAR LRBM 240430Z 15002KT 1100 R09/1200VP2000U BCFG BR FEW001
                        15/14 Q1018=
201907240500 METAR LRBM 240500Z 13002KT 0400 R09/1000V1400U FG FEW001
                        15/14 Q1018=
201907240530 METAR LRBM 240530Z 14003KT 0800 R09/1300VP2000U FG SCT002
                        15/14 Q1018=
201907240600 METAR LRBM 240600Z 10003KT 1100 R09/1700VP2000U BR SCT001
                        15/14 Q1018=
201907240630 METAR LRBM 240630Z VRB02KT 3500 BR SCT001 16/15 Q1018=
201907240700 METAR LRBM 240700Z 21003KT 5000 BR SCT002 17/15 Q1018=
201907240730 METAR LRBM 240730Z 20004KT 9999 FEW003 18/15 Q1018=
201907240800 METAR LRBM 240800Z 23003KT 9999 FEW023 20/15 Q1018=
201907240830 METAR LRBM 240830Z 22003KT 9999 FEW023 21/15 Q1018=
201907240900 METAR LRBM 240900Z 25004KT 9999 FEW023 22/13 Q1017=
201907240930 METAR LRBM 240930Z 23004KT 9999 FEW029 23/13 Q1017=
201907241000 METAR LRBM 241000Z 28005KT 240V320 9999 FEW036 24/14 Q1017=
201907241030 METAR LRBM 241030Z 25005KT 210V350 9999 FEW042 24/13 Q1017=
201907241100 METAR LRBM 241100Z VRB05KT 9999 FEW044 FEW046TCU 25/13 Q1017=
201907241130 METAR LRBM 241130Z 25008KT 220V280 9999 FEW045 FEW047TCU
                        25/13 Q1017=
201907241200 METAR LRBM 241200Z 26009KT 230V300 9999 SCT045 26/14 Q1017=
201907241230 METAR LRBM 241230Z 28008KT 240V300 9999 SCT045 FEW047TCU
                        26/13 Q1017=
201907241300 METAR LRBM 241300Z 26011KT 9999 FEW047 FEW049TCU 26/12 Q1017=
201907241330 METAR LRBM 241330Z 27011KT 9999 SCT047 26/11 Q1016=
201907241400 METAR LRBM 241400Z 28010KT 260V320 9999 FEW047 26/11 Q1016=
201907241430 METAR LRBM 241430Z 30009KT 9999 FEW050 25/13 Q1017=
201907241500 METAR LRBM 241500Z 32006KT 280V360 9999 FEW052 25/14 Q1017=
201907241530 METAR LRBM 241530Z 32007KT 290V020 9999 FEW052 24/13 Q1017=
201907241600 METAR LRBM 241600Z 29006KT 260V320 CAVOK 24/14 Q1016=
201907241630 METAR LRBM 241630Z 28007KT CAVOK 24/14 Q1016=
201907241700 METAR LRBM 241700Z 29004KT CAVOK 24/14 Q1017=
201907241730 METAR LRBM 241730Z 28005KT CAVOK 23/14 Q1017=
201907241800 METAR LRBM 241800Z 30003KT CAVOK 22/15 Q1017=
201907241830 METAR LRBM 241830Z 33003KT CAVOK 21/15 Q1017=
201907241900 METAR LRBM 241900Z 31003KT 9999 FEW060 21/15 Q1017=
201907241930 METAR LRBM 241930Z VRB01KT 9999 SCT055 20/16 Q1017=
201907242000 METAR LRBM 242000Z 00000KT 9999 FEW058 20/16 Q1018=
201907242030 METAR LRBM 242030Z VRB01KT CAVOK 19/15 Q1018=
201907242100 METAR LRBM 242100Z 01003KT 320V040 CAVOK 20/14 Q1018=
201907242130 METAR LRBM 242130Z AUTO 08003KT 9999 FEW100/// SCT240///
                        19/15 Q1018=
201907242200 METAR LRBM 242200Z AUTO 06003KT 9999 FEW039/// SCT240///
                        18/15 Q1018=
201907242230 METAR LRBM 242230Z AUTO 01002KT 350V060 9999 FEW055/// SCT210///
                        18/15 Q1018=
201907242300 METAR LRBM 242300Z AUTO 04002KT 350V070 9999 FEW017/// SCT210///
                        18/15 Q1018=
201907242330 METAR LRBM 242330Z AUTO 05002KT 9999 FEW013/// SCT230///
                        17/15 Q1018=
201907250000 METAR LRBM 250000Z AUTO VRB02KT 9999 FEW085/// SCT230///
                        17/15 Q1018=
201907250030 METAR LRBM 250030Z AUTO VRB01KT 9999 FEW050/// SCT210///
                        16/14 Q1018=
201907250100 METAR LRBM 250100Z AUTO 32001KT 9999 FEW070/// SCT210///
                        16/14 Q1018=
201907250130 METAR LRBM 250130Z AUTO VRB01KT 9999 FEW075/// SCT200///
                        15/14 Q1018=
201907250200 METAR LRBM 250200Z 07002KT CAVOK 15/14 Q1018=
201907250230 METAR LRBM 250230Z 05003KT CAVOK 15/13 Q1018=
201907250300 METAR LRBM 250300Z 04004KT CAVOK 16/13 Q1018=
201907250330 METAR LRBM 250330Z 10003KT CAVOK 15/13 Q1019=
201907250400 METAR LRBM 250400Z 06003KT 030V090 CAVOK 16/13 Q1019=
201907250430 METAR LRBM 250430Z 04003KT 350V070 CAVOK 17/14 Q1019=
201907250500 METAR LRBM 250500Z 00000KT CAVOK 19/14 Q1019=
201907250530 METAR LRBM 250530Z 27004KT CAVOK 18/15 Q1019=
201907250600 METAR LRBM 250600Z 28002KT 220V320 CAVOK 20/15 Q1019=
201907250630 METAR LRBM 250630Z 25002KT 150V310 CAVOK 21/15 Q1019=
201907250700 METAR LRBM 250700Z 27003KT 200V320 9999 FEW023 22/15 Q1019=
201907250730 METAR LRBM 250730Z 23003KT 180V300 9999 FEW028 23/16 Q1019=
201907250800 METAR LRBM 250800Z 26004KT 220V310 9999 FEW033 24/16 Q1019=
201907250830 METAR LRBM 250830Z 24004KT 210V300 9999 FEW036 24/14 Q1019=
201907250900 METAR LRBM 250900Z 22005KT 200V260 9999 SCT040 25/13 Q1019=
201907250930 METAR LRBM 250930Z 22005KT 170V260 9999 SCT045 26/14 Q1018=
201907251000 METAR LRBM 251000Z VRB04KT 9999 SCT045 27/14 Q1018=
201907251030 METAR LRBM 251030Z 24004KT 180V350 9999 SCT045 27/13 Q1018=
201907251100 METAR LRBM 251100Z 24003KT 9999 SCT045 27/12 Q1018=
201907251130 METAR LRBM 251130Z 25005KT 210V280 9999 SCT045 27/11 Q1018=
201907251200 METAR LRBM 251200Z 26005KT 220V300 9999 SCT045 27/13 Q1018=
201907251230 METAR LRBM 251230Z VRB04KT 9999 SCT045 28/12 Q1017=
201907251300 METAR LRBM 251300Z VRB03KT 9999 SCT045 28/12 Q1017=
201907251330 METAR LRBM 251330Z 28006KT 240V330 9999 SCT045 28/13 Q1017=
201907251400 METAR LRBM 251400Z 27006KT 230V340 9999 FEW050 28/13 Q1017=
201907251430 METAR LRBM 251430Z 27007KT 9999 FEW050 29/13 Q1017=
201907251500 METAR LRBM 251500Z 26009KT 9999 FEW053 28/12 Q1016=
201907251530 METAR LRBM 251530Z 26007KT CAVOK 28/13 Q1016=
201907251600 METAR LRBM 251600Z 26007KT CAVOK 28/13 Q1016=
201907251630 METAR LRBM 251630Z 27007KT CAVOK 27/12 Q1016=
201907251700 METAR LRBM 251700Z 28005KT CAVOK 27/13 Q1016=
201907251730 METAR LRBM 251730Z 35002KT CAVOK 26/14 Q1016=
201907251800 METAR LRBM 251800Z 01002KT CAVOK 23/15 Q1016=
201907251830 METAR LRBM 251830Z 31003KT CAVOK 22/14 Q1016=
201907251900 METAR LRBM 251900Z 36004KT CAVOK 22/14 Q1016=
201907251930 METAR LRBM 251930Z 02004KT CAVOK 21/14 Q1017=
201907252000 METAR LRBM 252000Z 09002KT CAVOK 20/13 Q1016=
201907252030 METAR COR LRBM 252030Z 00000KT CAVOK 19/13 Q1016=
201907252100 METAR LRBM 252100Z 03003KT CAVOK 19/13 Q1016=
201907252130 METAR LRBM 252130Z AUTO VRB01KT 9999 FEW013/// SCT240///
                        18/13 Q1016=
201907252200 METAR LRBM 252200Z AUTO 05003KT 010V080 9999 FEW013/// SCT220///
                        18/13 Q1016=
201907252230 METAR LRBM 252230Z AUTO 05003KT 9999 FEW060/// SCT240///
                        18/13 Q1016=
201907252300 METAR LRBM 252300Z AUTO 07003KT 9999 FEW012/// SCT240///
                        17/13 Q1016=
201907252330 METAR LRBM 252330Z AUTO 06003KT 9999 FEW028/// SCT240///
                        17/13 Q1016=
201907260000 METAR LRBM 260000Z AUTO 08003KT 060V120 9999 FEW130/// SCT240///
                        17/13 Q1015=
201907260030 METAR LRBM 260030Z AUTO 07005KT 9999 FEW035/// SCT220///
                        16/13 Q1015=
201907260100 METAR LRBM 260100Z AUTO 09004KT 070V130 9999 FEW020/// SCT230///
                        16/13 Q1015=
201907260130 METAR LRBM 260130Z AUTO 08005KT 9999 FEW022/// SCT230///
                        16/13 Q1015=
201907260200 METAR LRBM 260200Z 08003KT CAVOK 16/13 Q1015=
201907260230 METAR LRBM 260230Z 07002KT CAVOK 15/13 Q1015=
201907260300 METAR LRBM 260300Z 09006KT CAVOK 15/13 Q1015=
201907260330 METAR LRBM 260330Z 07004KT CAVOK 15/13 Q1015=
201907260400 METAR LRBM 260400Z 08005KT CAVOK 17/13 Q1015=
201907260430 METAR LRBM 260430Z 06005KT CAVOK 18/13 Q1014=
201907260500 METAR LRBM 260500Z 06003KT 040V100 CAVOK 20/14 Q1014=
201907260530 METAR LRBM 260530Z 11003KT CAVOK 21/14 Q1014=
201907260600 METAR LRBM 260600Z 14002KT CAVOK 21/15 Q1014=
201907260630 METAR LRBM 260630Z 13002KT CAVOK 21/16 Q1014=
201907260700 METAR LRBM 260700Z 11003KT 060V170 CAVOK 23/15 Q1014=
201907260730 METAR LRBM 260730Z 09002KT 9999 FEW045 24/15 Q1014=
201907260800 METAR LRBM 260800Z 13003KT 060V190 CAVOK 25/14 Q1013=
201907260830 METAR LRBM 260830Z 14003KT 080V200 9999 FEW047 26/16 Q1013=
201907260900 METAR LRBM 260900Z VRB03KT 9999 FEW045 26/16 Q1013=
201907260930 METAR LRBM 260930Z 22003KT 100V270 9999 FEW045 27/15 Q1013=
201907261000 METAR LRBM 261000Z 22004KT 170V270 9999 FEW045 27/13 Q1013=
201907261030 METAR LRBM 261030Z VRB04KT 9999 FEW045TCU 28/13 Q1012=
201907261100 METAR LRBM 261100Z 19004KT 160V240 9999 FEW045TCU 28/12 Q1012=
201907261130 METAR LRBM 261130Z VRB03KT 9999 FEW045 28/12 Q1012=
201907261200 METAR LRBM 261200Z 23005KT 190V260 9999 FEW045 28/13 Q1011=
201907261230 METAR LRBM 261230Z 22003KT 140V300 9999 FEW045 29/13 Q1011=
201907261300 METAR LRBM 261300Z 25004KT 190V280 9999 FEW045 29/14 Q1011=
201907261330 METAR LRBM 261330Z VRB03KT 9999 FEW043TCU SCT045 29/13 Q1010=
201907261400 METAR LRBM 261400Z 23004KT 200V260 9999 FEW043TCU SCT045
                        29/13 Q1010=
201907261430 METAR LRBM 261430Z AUTO 21003KT 170V330 9999 FEW022/// SCT230///
                        30/14 Q1010=
201907261500 METAR LRBM 261500Z AUTO 28004KT 230V020 9999 FEW012/// SCT210///
                        30/13 Q1010=
201907261530 METAR LRBM 261530Z AUTO 23003KT 200V260 9999 FEW025/// SCT240///
                        30/13 Q1010=
201907261600 METAR LRBM 261600Z AUTO 25004KT 210V270 9999 FEW011/// SCT220///
                        29/13 Q1009=
201907261630 METAR LRBM 261630Z AUTO 27003KT 250V310 9999 FEW013/// SCT220///
                        28/14 Q1009=
201907261700 METAR LRBM 261700Z AUTO 07002KT 9999 FEW009/// SCT190///
                        26/16 Q1009=
201907261730 METAR LRBM 261730Z AUTO 36003KT 320V040 9999 FEW027/// SCT220///
                        25/16 Q1009=
201907261800 METAR LRBM 261800Z AUTO 36003KT 270V060 9999 FEW095/// SCT240///
                        25/15 Q1009=
201907261830 METAR LRBM 261830Z AUTO 02003KT 340V050 9999 FEW014/// SCT190///
                        24/15 Q1009=
201907261900 METAR LRBM 261900Z AUTO 02002KT 340V060 9999 FEW034/// SCT210///
                        24/15 Q1010=
201907261930 METAR LRBM 261930Z AUTO 29006KT 260V020 9999 FEW012/// SCT180///
                        22/17 Q1010=
201907262000 METAR LRBM 262000Z AUTO 28013KT 9999 FEW007/// SCT060///
                        BKN230/// 21/17 Q1010=
201907262030 METAR LRBM 262030Z AUTO 28006KT 9999 FEW008/// SCT190///
                        21/17 Q1010=
201907262100 METAR LRBM 262100Z AUTO 28005KT 9999 FEW008/// SCT180///
                        20/17 Q1010=
201907262130 METAR LRBM 262130Z AUTO 23004KT 180V250 9999 FEW060/// SCT230///
                        20/17 Q1010=
201907262200 METAR LRBM 262200Z AUTO 22003KT 080V250 9999 FEW130/// SCT240///
                        19/17 Q1010=
201907262230 METAR LRBM 262230Z AUTO VRB01KT 9999 FEW110/// SCT210///
                        19/17 Q1010=
201907262300 METAR LRBM 262300Z AUTO 00000KT 9999 FEW075/// SCT230///
                        19/17 Q1010=
201907262330 METAR LRBM 262330Z AUTO 34003KT 9999 FEW075/// SCT240///
                        19/17 Q1010=
201907270000 METAR LRBM 270000Z AUTO 06004KT 360V100 9999 FEW085/// SCT240///
                        19/17 Q1009=
201907270030 METAR LRBM 270030Z AUTO 11003KT 090V170 9999 FEW090/// SCT230///
                        18/16 Q1009=
201907270100 METAR LRBM 270100Z AUTO 00000KT 9999 FEW065/// SCT190///
                        18/16 Q1009=
201907270130 METAR LRBM 270130Z AUTO 04003KT 360V060 9999 FEW060/// SCT210///
                        17/16 Q1009=
201907270200 METAR LRBM 270200Z AUTO 04002KT 340V140 9999 FEW065/// BKN200///
                        17/15 Q1009=
201907270230 METAR LRBM 270230Z AUTO 06004KT 9999 FEW010/// SCT220///
                        17/15 Q1008=
201907270300 METAR LRBM 270300Z AUTO VRB01KT 9999 FEW018/// SCT220///
                        18/14 Q1008=
201907270330 METAR LRBM 270330Z AUTO 18003KT 140V200 9999 FEW012/// SCT200///
                        17/14 Q1008=
201907270400 METAR LRBM 270400Z AUTO 04003KT 340V080 9999 FEW012/// SCT220///
                        17/15 Q1008=
201907270430 METAR LRBM 270430Z AUTO 08004KT 9999 FEW013/// SCT220///
                        19/15 Q1008=
201907270500 METAR LRBM 270500Z 06003KT 030V100 CAVOK 20/14 Q1008=
201907270530 METAR LRBM 270530Z 08004KT 040V110 CAVOK 21/15 Q1008=
201907270600 METAR LRBM 270600Z 10003KT 060V130 CAVOK 22/16 Q1009=
201907270630 METAR LRBM 270630Z VRB02KT 9999 FEW060 24/16 Q1009=
201907270700 METAR LRBM 270700Z VRB02KT 9999 FEW060 25/16 Q1009=
201907270730 METAR LRBM 270730Z 09003KT 010V140 9999 FEW058 25/17 Q1008=
201907270800 METAR LRBM 270800Z 14004KT 100V180 CAVOK 26/17 Q1008=
201907270830 METAR LRBM 270830Z 13004KT CAVOK 26/16 Q1008=
201907270900 METAR LRBM 270900Z 13006KT 090V170 CAVOK 27/14 Q1008=
201907270930 METAR LRBM 270930Z 11005KT 070V150 CAVOK 28/16 Q1008=
201907271000 METAR LRBM 271000Z 10006KT 070V130 9999 FEW045 28/16 Q1008=
201907271030 METAR COR LRBM 271030Z VRB04KT 9999 FEW045 29/14 Q1008=
201907271100 METAR LRBM 271100Z 09004KT 010V160 9999 FEW045 FEW047TCU
                        30/14 Q1007=
201907271130 METAR LRBM 271130Z VRB03KT 9999 FEW045 FEW047TCU 30/15 Q1007=
201907271200 METAR LRBM 271200Z 12004KT 070V190 9999 FEW046 FEW048TCU
                        31/14 Q1007=
201907271230 METAR LRBM 271230Z VRB04KT 9999 SCT047 31/14 Q1007=
201907271300 METAR LRBM 271300Z 12005KT 070V170 9999 FEW047 FEW049CB 31/15
                        Q1006=
201907271330 METAR LRBM 271330Z AUTO 11006KT 090V150 9999 FEW013/// SCT210///
                        30/16 Q1006=
201907271400 METAR LRBM 271400Z AUTO 13005KT 9999 FEW008/// SCT180///
                        BKN240/// 29/16 Q1006=
201907271430 METAR LRBM 271430Z AUTO 21008KT 9999 FEW007/// SCT070///
                        BKN240/// 27/18 Q1006=
201907271500 METAR LRBM 271500Z AUTO 30004KT 250V350 9999 FEW008/// SCT048///
                        BKN230/// 25/20 Q1006=
201907271530 METAR LRBM 271530Z AUTO 36003KT 340V040 9999 FEW010/// SCT040///
                        BKN240/// 24/21 Q1006=
201907271600 METAR LRBM 271600Z AUTO 35004KT 310V020 9999 FEW029/// SCT220///
                        24/20 Q1006 RERA=
201907271630 METAR LRBM 271630Z AUTO 28003KT 260V320 9999 -SHRA FEW007///
                        SCT160/// BKN240/// 24/20 Q1006=
201907271700 METAR LRBM 271700Z AUTO 36003KT 330V070 9999 FEW011/// SCT200///
                        23/19 Q1006=
201907271730 METAR LRBM 271730Z AUTO 26011KT 9999 FEW043/// SCT230///
                        22/19 Q1006=
201907271800 METAR LRBM 271800Z AUTO VRB04KT 9999 FEW005/// SCT036///
                        BKN200/// 21/18 Q1006=
201907271830 METAR LRBM 271830Z AUTO 35004KT 320V050 9999 FEW016/// SCT220///
                        22/18 Q1006=
201907271900 METAR LRBM 271900Z AUTO 05006KT 9999 FEW021/// SCT210///
                        24/17 Q1006=
201907271930 METAR LRBM 271930Z AUTO 15004KT 9999 FEW110/// SCT210///
                        21/18 Q1006=
201907272000 METAR LRBM 272000Z AUTO 30002KT 280V340 9999 FEW015/// SCT220///
                        21/18 Q1006=
201907272030 METAR LRBM 272030Z AUTO 32003KT 290V350 9999 FEW014/// SCT230///
                        21/18 Q1006=
201907272100 METAR LRBM 272100Z AUTO 03002KT 9999 FEW014/// SCT230///
                        21/19 Q1006=
201907272130 METAR LRBM 272130Z AUTO 29004KT 250V010 9999 FEW011/// SCT190///
                        21/19 Q1006=
201907272200 METAR LRBM 272200Z AUTO 28005KT 260V330 9999 VCTS FEW010///
                        SCT200/// 20/19 Q1006=
201907272230 METAR LRBM 272230Z AUTO VRB01KT 9999 FEW017/// SCT240///
                        21/18 Q1006=
201907272300 METAR LRBM 272300Z AUTO 11002KT 9999 FEW060/// SCT230///
                        21/18 Q1006=
201907272330 METAR LRBM 272330Z AUTO VRB01KT 9999 FEW075/// SCT200///
                        20/18 Q1006=
201907280000 METAR LRBM 280000Z AUTO 17001KT 9999 FEW085/// SCT230///
                        19/18 Q1006=
201907280030 METAR LRBM 280030Z AUTO VRB01KT 9999 FEW021/// SCT230///
                        19/17 Q1006=
201907280100 METAR LRBM 280100Z AUTO 08004KT 9999 FEW080/// SCT240///
                        20/18 Q1006=
201907280130 METAR LRBM 280130Z AUTO 09003KT 030V150 9999 FEW060/// SCT230///
                        20/17 Q1006=
201907280200 METAR LRBM 280200Z AUTO VRB01KT 9999 FEW013/// SCT210///
                        21/17 Q1006=
201907280230 METAR LRBM 280230Z AUTO 18003KT 150V260 9000 FEW023/// SCT230///
                        19/17 Q1007=
201907280300 METAR LRBM 280300Z AUTO VRB01KT 9999 FEW027/// SCT230///
                        20/18 Q1007=
201907280330 METAR LRBM 280330Z AUTO 29008KT 9999 VCTS FEW044/// SCT180///
                        21/18 Q1008=
201907280400 METAR LRBM 280400Z AUTO 30007KT 250V350 9999 TS FEW005///
                        SCT018/// BKN065/// 20/18 Q1009=
201907280430 METAR LRBM 280430Z AUTO 01004KT 330V080 9999 VCTS FEW006///
                        SCT031/// BKN210/// 20/18 Q1009=
201907280500 METAR LRBM 280500Z AUTO 07009KT 9999 FEW021/// SCT240///
                        20/18 Q1008=
201907280530 METAR LRBM 280530Z AUTO 08009KT 9999 FEW026/// SCT220///
                        22/19 Q1007=
201907280600 METAR LRBM 280600Z AUTO 06006KT 9999 FEW021/// SCT210///
                        23/19 Q1007=
201907280630 METAR LRBM 280630Z AUTO 05005KT 020V080 9999 FEW013/// SCT200///
                        23/18 Q1007=
201907280700 METAR LRBM 280700Z AUTO 06005KT 030V100 9999 FEW038/// SCT240///
                        24/19 Q1007=
201907280730 METAR LRBM 280730Z AUTO 05005KT 9999 FEW017/// SCT190///
                        25/19 Q1007=
201907280800 METAR LRBM 280800Z AUTO 04004KT 350V070 9999 FEW020/// SCT210///
                        27/19 Q1007=
201907280830 METAR LRBM 280830Z AUTO 10012KT 9999 FEW010/// SCT180///
                        29/18 Q1006=
201907280900 METAR LRBM 280900Z AUTO 10011KT 9999 FEW013/// SCT210///
                        30/18 Q1006=
201907280930 METAR LRBM 280930Z AUTO 09010KT 070V130 9999 FEW021/// SCT200///
                        30/18 Q1006=
201907281000 METAR LRBM 281000Z AUTO 09010KT 9999 FEW018/// BKN190///
                        31/18 Q1006=
201907281030 METAR LRBM 281030Z AUTO 10011KT 9999 FEW011/// SCT180///
                        32/16 Q1006=
201907281100 METAR LRBM 281100Z AUTO 09009KT 9999 FEW016/// SCT170///
                        32/16 Q1005=
201907281130 METAR LRBM 281130Z AUTO 09010KT 060V120 9999 FEW009/// SCT160///
                        BKN230/// 33/16 Q1005=
201907281200 METAR LRBM 281200Z AUTO 09009KT 9999 FEW012/// SCT180///
                        33/15 Q1005=
201907281230 METAR LRBM 281230Z AUTO 10011KT 9999 FEW010/// SCT180///
                        33/15 Q1004=
201907281300 METAR LRBM 281300Z AUTO 09009KT 050V120 9999 FEW008/// SCT160///
                        34/17 Q1004=
201907281330 METAR LRBM 281330Z AUTO 09010KT 9999 FEW016/// SCT200///
                        34/15 Q1004=
201907281400 METAR LRBM 281400Z AUTO 09009KT 9999 FEW013/// SCT190///
                        33/16 Q1003=
201907281430 METAR LRBM 281430Z AUTO 09012KT 9999 FEW012/// SCT200///
                        33/15 Q1003=
201907281500 METAR LRBM 281500Z AUTO 09011KT 9999 FEW016/// SCT220///
                        33/16 Q1003=
201907281530 METAR LRBM 281530Z AUTO 10012KT 9999 FEW012/// SCT200///
                        32/16 Q1003=
201907281600 METAR LRBM 281600Z AUTO 06006KT 9999 FEW015/// SCT210///
                        31/15 Q1003=
201907281630 METAR LRBM 281630Z AUTO 04005KT 360V060 9999 FEW014/// SCT180///
                        BKN240/// 30/14 Q1003=
201907281700 METAR LRBM 281700Z 04004KT 010V080 CAVOK 29/14 Q1003=
201907281730 METAR LRBM 281730Z 27014KT CAVOK 27/17 Q1004=
201907281800 METAR LRBM 281800Z 28013KT 9999 SCT058 24/18 Q1005=
201907281830 METAR LRBM 281830Z 29008KT 270V330 9999 SCT058 24/17 Q1005=
201907281900 METAR LRBM 281900Z 33006KT 280V010 9999 FEW055TCU 24/17 Q1005=
201907281930 METAR LRBM 281930Z 26004KT 210V300 9999 FEW056 24/17 Q1004=
201907282000 METAR LRBM 282000Z 27005KT 9999 FEW058 22/17 Q1004=
201907282030 METAR LRBM 282030Z 05002KT 350V080 CAVOK 21/17 Q1004=
201907282100 METAR LRBM 282100Z AUTO 08006KT 9999 FEW020/// SCT180///
                        21/18 Q1004=
201907282130 METAR LRBM 282130Z AUTO 08005KT 050V110 9999 FEW022/// SCT210///
                        21/18 Q1004=
201907282200 METAR LRBM 282200Z AUTO 09005KT 9999 FEW033/// SCT220///
                        20/17 Q1004=
201907282230 METAR LRBM 282230Z AUTO 08006KT 9999 FEW060/// SCT240///
                        20/17 Q1004=
201907282300 METAR LRBM 282300Z AUTO 31002KT 270V350 9999 FEW070/// SCT230///
                        20/17 Q1004=
201907282330 METAR LRBM 282330Z AUTO 30005KT 260V340 9999 FEW033/// SCT220///
                        19/17 Q1005=
201907290000 METAR LRBM 290000Z AUTO 30004KT 270V340 9999 FEW016/// SCT210///
                        20/17 Q1005=
201907290030 METAR LRBM 290030Z AUTO 30004KT 240V010 9999 FEW027/// SCT200///
                        19/17 Q1005=
201907290100 METAR LRBM 290100Z AUTO 32002KT 280V360 9999 FEW014/// SCT190///
                        19/17 Q1005=
201907290130 METAR LRBM 290130Z AUTO 32002KT 270V020 9999 FEW016/// SCT210///
                        18/17 Q1005=
201907290200 METAR COR LRBM 290200Z 30002KT CAVOK 18/17 Q1005=
201907290230 METAR LRBM 290230Z 00000KT 9999 3500SW VCFG BR FEW002 18/17
                        Q1005=
201907290300 METAR COR LRBM 290300Z VRB01KT 3000 BR BKN002 BKN047 18/17
                        Q1005=
201907290330 METAR LRBM 290330Z 06003KT 4000 VCFG BR SCT001 18/16 Q1005=
201907290400 METAR LRBM 290400Z 08006KT 040V100 9999 3500SW VCFG FEW016
                        18/16 Q1005=
201907290430 METAR LRBM 290430Z 08004KT 9999 4000SW VCFG FEW018 19/17
                        Q1005=
201907290500 METAR LRBM 290500Z 11004KT 5000 BR SCT015 19/17 Q1005=
201907290530 METAR LRBM 290530Z 14004KT 5000 BR FEW002 SCT004 19/18 Q1005=
201907290600 METAR LRBM 290600Z 11002KT 5000 BR FEW002 BKN006 19/18 Q1005=
201907290630 METAR LRBM 290630Z 16003KT 9999 FEW005 20/18 Q1005=
201907290700 METAR LRBM 290700Z VRB01KT 9999 FEW016 22/18 Q1005=
201907290730 METAR LRBM 290730Z VRB01KT 9999 FEW016 24/18 Q1005=
201907290800 METAR LRBM 290800Z 19004KT 150V240 9999 FEW020 25/18 Q1005=
201907290830 METAR LRBM 290830Z 20004KT 170V260 9999 FEW020 24/18 Q1005=
201907290900 METAR LRBM 290900Z 17003KT 9999 FEW023 25/18 Q1005=
201907290930 METAR LRBM 290930Z 23003KT 9999 FEW028 25/17 Q1005=
201907291000 METAR LRBM 291000Z 22003KT 160V300 9999 FEW028 26/18 Q1005=
201907291030 METAR LRBM 291030Z VRB03KT 9999 FEW032 26/18 Q1005=
201907291100 METAR LRBM 291100Z VRB02KT 9999 FEW034 26/17 Q1005=
201907291130 METAR LRBM 291130Z 27006KT 220V320 9999 FEW037 27/18 Q1005=
201907291200 METAR LRBM 291200Z 26004KT 170V340 9999 FEW037 27/17 Q1005=
201907291230 METAR LRBM 291230Z VRB06KT 9999 FEW040 28/16 Q1005=
201907291300 METAR LRBM 291300Z 27006KT 250V310 9999 FEW040 28/17 Q1005=
201907291330 METAR LRBM 291330Z 26007KT 9999 FEW042 28/17 Q1004=
201907291400 METAR LRBM 291400Z 26006KT 190V320 9999 FEW040TCU 28/16 Q1004=
201907291430 METAR LRBM 291430Z 25006KT 230V300 9999 FEW040TCU 28/17 Q1004=
201907291500 METAR LRBM 291500Z 28007KT 250V310 9999 FEW039 28/17 Q1005=
201907291530 METAR LRBM 291530Z 27008KT 9999 VCTS FEW039CB 27/18 Q1005=
201907291600 METAR LRBM 291600Z 27007KT 9999 TS VCSH SCT037CB 27/17 Q1005=
201907291630 METAR LRBM 291630Z 32003KT 270V020 9999 -TSRA SCT037CB 25/20
                        Q1005 R09/29//95=
201907291700 METAR LRBM 291700Z 02004KT 330V060 9999 FEW060 23/21 Q1005
                        RETS R09/29//95=
201907291730 METAR LRBM 291730Z 02005KT 340V070 CAVOK 23/20 Q1005 R09/19//95=
201907291800 METAR LRBM 291800Z 02004KT 300V060 CAVOK 23/20 Q1005 R09/19//95=
201907291830 METAR LRBM 291830Z 04004KT 350V070 CAVOK 22/20 Q1006 R09/19//95=
201907291900 METAR LRBM 291900Z 01004KT 330V050 CAVOK 22/19 Q1006 R09/19//95=
201907291930 METAR LRBM 291930Z 36004KT 320V030 CAVOK 21/19 Q1006 R09/19//95=
201907292000 METAR LRBM 292000Z 36003KT 330V040 CAVOK 21/19 Q1007 R09/19//95=
201907292030 METAR LRBM 292030Z 02002KT CAVOK 21/19 Q1007 R09/19//95=
201907292100 METAR LRBM 292100Z 02003KT 330V050 CAVOK 20/18 Q1007 R09/19//95=
201907292130 METAR LRBM 292130Z AUTO 36002KT 290V040 9999 FEW041/// SCT230///
                        20/18 Q1007=
201907292200 METAR LRBM 292200Z AUTO VRB01KT 9999 FEW019/// SCT210///
                        20/18 Q1007=
201907292230 METAR LRBM 292230Z AUTO VRB01KT 9999 FEW024/// SCT210///
                        19/18 Q1007=
201907292300 METAR LRBM 292300Z AUTO VRB01KT 9999 FEW075/// SCT210///
                        19/18 Q1007=
201907292330 METAR LRBM 292330Z AUTO 02001KT 9000 FEW070/// SCT210///
                        18/17 Q1007=
201907300000 METAR LRBM 300000Z AUTO VRB01KT 9000 FEW017/// SCT230///
                        18/17 Q1007=
201907300030 METAR LRBM 300030Z AUTO 06003KT 9999 FEW017/// SCT220///
                        18/17 Q1007=
201907300100 METAR LRBM 300100Z AUTO VRB01KT 9999 FEW035/// SCT230///
                        18/17 Q1007=
201907300130 METAR LRBM 300130Z AUTO 00000KT 8000 FEW018/// SCT210///
                        18/17 Q1007=
201907300200 METAR LRBM 300200Z 10002KT 9999 VCFG FEW050 18/17 Q1007 R09/CLRD//=
201907300230 METAR LRBM 300230Z 07002KT 9999 MIFG VCFG NSC 18/17 Q1007=
201907300300 METAR LRBM 300300Z 00000KT 9999 MIFG VCFG NSC 17/16 Q1007=
201907300330 METAR LRBM 300330Z 03003KT 9999 BCFG FEW030 17/17 Q1007=
201907300400 METAR LRBM 300400Z VRB02KT 7000 BCFG FEW032 18/17 Q1008=
201907300430 METAR LRBM 300430Z VRB01KT 7000 BCFG SCT035 18/17 Q1008=
201907300500 METAR LRBM 300500Z 14003KT 100V170 6000 FEW003 19/18 Q1008=
201907300530 METAR LRBM 300530Z 10003KT 070V130 7000 FEW002 SCT036 20/18
                        Q1008=
201907300600 METAR LRBM 300600Z 10004KT 9000 FEW035 SCT042 20/18 Q1009=
201907300630 METAR LRBM 300630Z 08003KT 9999 FEW003 BKN042 20/18 Q1009=
201907300700 METAR LRBM 300700Z 09003KT 050V130 9999 SCT055 22/18 Q1009=
201907300730 METAR LRBM 300730Z VRB02KT CAVOK 23/17 Q1009=
201907300800 METAR LRBM 300800Z 17003KT 110V200 CAVOK 24/18 Q1009=
201907300830 METAR LRBM 300830Z VRB03KT 9999 FEW034 25/18 Q1009=
201907300900 METAR LRBM 300900Z VRB03KT 9999 FEW034 26/19 Q1009=
201907300930 METAR LRBM 300930Z 27006KT 9999 FEW036 26/19 Q1009=
201907301000 METAR LRBM 301000Z 26006KT 210V290 9999 SCT040 27/19 Q1008=
201907301030 METAR LRBM 301030Z 27009KT 9999 SCT040 28/19 Q1008=
201907301100 METAR LRBM 301100Z 29007KT 270V360 9999 SCT040 28/19 Q1008=
201907301130 METAR LRBM 301130Z 28006KT 250V310 9999 SCT040 29/19 Q1008=
201907301200 METAR LRBM 301200Z 27009KT 250V310 9999 FEW036TCU 29/19 Q1008=
201907301230 METAR LRBM 301230Z 27008KT 240V310 9999 FEW040TCU 29/19 Q1008=
201907301300 METAR LRBM 301300Z 26010KT 9999 FEW040TCU 30/19 Q1007=
201907301330 METAR LRBM 301330Z 29008KT 260V320 9999 FEW040TCU 30/18 Q1007=
201907301400 METAR LRBM 301400Z 28008KT 9999 FEW040TCU 29/18 Q1007=
201907301430 METAR LRBM 301430Z 28008KT 260V320 9999 FEW040TCU 30/18 Q1007=
201907301500 METAR LRBM 301500Z 28009KT 250V320 9999 FEW040 29/18 Q1007=
201907301530 METAR LRBM 301530Z 28009KT 9999 FEW040 29/18 Q1007=
201907301600 METAR LRBM 301600Z 28009KT 9999 FEW043 29/17 Q1007=
201907301630 METAR LRBM 301630Z 28008KT 9999 FEW045 28/18 Q1007=
201907301700 METAR LRBM 301700Z 28006KT CAVOK 28/18 Q1007=
201907301730 METAR LRBM 301730Z 29004KT CAVOK 27/18 Q1007=
201907301800 METAR LRBM 301800Z VRB01KT CAVOK 26/18 Q1008=
201907301830 METAR LRBM 301830Z 36002KT CAVOK 24/19 Q1008=
201907301900 METAR LRBM 301900Z VRB01KT CAVOK 23/19 Q1008=
201907301930 METAR LRBM 301930Z 02002KT CAVOK 23/19 Q1008=
201907302000 METAR LRBM 302000Z 02002KT CAVOK 22/19 Q1008=
201907302030 METAR LRBM 302030Z VRB01KT CAVOK 22/18 Q1009=
201907302100 METAR LRBM 302100Z 04002KT CAVOK 22/19 Q1009=
201907302130 METAR LRBM 302130Z AUTO 06004KT 9999 FEW014/// BKN190///
                        22/18 Q1009=
201907302200 METAR LRBM 302200Z AUTO 04002KT 350V090 9999 FEW013/// SCT070///
                        BKN210/// 22/19 Q1009=
201907302230 METAR LRBM 302230Z AUTO 06003KT 9999 FEW019/// SCT090///
                        BKN240/// 22/19 Q1009=
201907302300 METAR LRBM 302300Z AUTO 03004KT 350V070 9999 VCTS FEW020///
                        SCT048/// BKN190/// 22/20 Q1009=
201907302330 METAR LRBM 302330Z AUTO 06003KT 290V090 9999 VCTS FEW006///
                        SCT032/// BKN240/// 22/20 Q1009=
201907310000 METAR LRBM 310000Z AUTO 02003KT 360V060 9999 FEW015/// SCT210///
                        21/19 Q1009=
201907310030 METAR LRBM 310030Z AUTO 05005KT 9999 SCT029/// BKN120///
                        21/19 Q1009=
201907310100 METAR LRBM 310100Z AUTO 06005KT 9999 FEW008/// BKN030///
                        21/19 Q1009=
201907310130 METAR LRBM 310130Z AUTO 05004KT 9999 SCT027/// BKN041///
                        21/19 Q1009=
201907310200 METAR LRBM 310200Z 05003KT 9999 SCT027 BKN039 21/19 Q1009
                        R09/19//95=
201907310230 METAR LRBM 310230Z 07002KT 040V120 9999 SCT026 BKN040 20/19
                        Q1009 R09/19//95=
201907310300 METAR LRBM 310300Z 01002KT 350V060 9999 SCT026 BKN040 21/19
                        Q1009 R09/19//95=
201907310330 METAR LRBM 310330Z 00000KT 9999 BKN026 21/19 Q1010 R09/19//95=
201907310400 METAR LRBM 310400Z 08003KT 9999 SCT025 21/20 Q1010 R09/19//95=
201907310430 METAR LRBM 310430Z 05002KT 9999 FEW025 22/20 Q1010 R09/19//95=
201907310500 METAR LRBM 310500Z 11002KT 070V140 CAVOK 22/20 Q1010 R09/19//95=
201907310530 METAR LRBM 310530Z 06002KT 030V110 CAVOK 23/20 Q1010 R09/19//95=
201907310600 METAR LRBM 310600Z 14003KT 090V180 CAVOK 24/20 Q1010 R09/19//95=
201907310630 METAR LRBM 310630Z 00000KT 9999 FEW017 25/20 Q1010 R09/19//95=
201907310700 METAR LRBM 310700Z 00000KT 9999 FEW023 25/20 Q1011 R09/CLRD//=
201907310730 METAR LRBM 310730Z 20003KT 9999 FEW023 26/20 Q1011=
201907310800 METAR LRBM 310800Z 19003KT 120V280 9999 FEW026 27/20 Q1011=
201907310830 METAR LRBM 310830Z 25004KT 190V290 9999 SCT028 27/20 Q1011=
201907310900 METAR LRBM 310900Z 26005KT 210V320 9999 SCT030 27/20 Q1011=
201907310930 METAR LRBM 310930Z 24010KT 9999 SCT033 28/20 Q1011=
201907311000 METAR LRBM 311000Z 26008KT 230V320 9999 FEW031 FEW033CB 29/19
                        Q1010=
201907311030 METAR LRBM 311030Z 27010KT 9999 FEW036 FEW038CB 29/19 Q1010=
201907311100 METAR LRBM 311100Z 27011KT 240V300 9999 FEW038 FEW040CB 30/18
                        Q1010=
201907311130 METAR LRBM 311130Z 31006KT 260V010 9999 FEW038 FEW040CB 30/18
                        Q1010=
201907311200 METAR LRBM 311200Z 31007KT 280V010 9999 FEW040 FEW042CB 31/15
                        Q1010=
201907311230 METAR LRBM 311230Z 29007KT 260V330 9999 FEW042 31/14 Q1010=
201907311300 METAR LRBM 311300Z 27010KT 9999 FEW044 31/14 Q1010=
201907311330 METAR LRBM 311330Z 28008KT 9999 FEW046 31/15 Q1010=
201907311400 METAR LRBM 311400Z 27010KT 9999 FEW044TCU 30/18 Q1010=
201907311430 METAR LRBM 311430Z 28008KT 9999 FEW047 29/17 Q1010=
201907311500 METAR LRBM 311500Z 27009KT 9999 FEW044CB 30/16 Q1010=
201907311530 METAR LRBM 311530Z 28009KT 9999 FEW046CB 29/18 Q1010=
201907311600 METAR LRBM 311600Z 28006KT 260V320 9999 FEW046CB 26/19 Q1010
                        R09/19//95=
201907311630 METAR LRBM 311630Z 33004KT 280V050 CAVOK 27/18 Q1010 R09/19//95=
201907311700 METAR LRBM 311700Z 29003KT 250V040 CAVOK 26/18 Q1010 R09/CLRD//=
201907311730 METAR LRBM 311730Z 27003KT 250V310 CAVOK 26/18 Q1010=
201907311800 METAR LRBM 311800Z 36001KT CAVOK 25/18 Q1011=
201907311830 METAR LRBM 311830Z 34003KT CAVOK 24/19 Q1011=
201907311900 METAR LRBM 311900Z VRB02KT CAVOK 23/19 Q1012=
201907311930 METAR LRBM 311930Z 30003KT CAVOK 23/18 Q1012=
201907312000 METAR LRBM 312000Z 02003KT CAVOK 22/18 Q1012=
201907312030 METAR LRBM 312030Z 01002KT CAVOK 22/18 Q1012=
201907312100 METAR LRBM 312100Z 07003KT 020V120 CAVOK 21/18 Q1012=
201907312130 METAR LRBM 312130Z AUTO 08002KT 050V110 9999 NCD 21/18 Q1012=
201907312200 METAR LRBM 312200Z AUTO 34002KT 280V040 9999 FEW014/// SCT190///
                        21/18 Q1012=
201907312230 METAR LRBM 312230Z AUTO 02002KT 9999 FEW019/// SCT170///
                        BKN240/// 20/18 Q1012=
201907312300 METAR LRBM 312300Z AUTO 34003KT 9999 FEW022/// SCT230///
                        21/18 Q1013=
201907312330 METAR LRBM 312330Z AUTO 01002KT 300V070 9999 FEW013/// SCT210///
                        21/18 Q1013=
