201909010000 METAR LRBM 010000Z AUTO 06005KT 9999 FEW021/// SCT210///
                        22/13 Q1017=
201909010030 METAR LRBM 010030Z AUTO 05006KT 020V090 9000 FEW018/// BKN190///
                        23/13 Q1017=
201909010100 METAR LRBM 010100Z AUTO 05006KT 9999 FEW011/// SCT190///
                        22/12 Q1017=
201909010130 METAR LRBM 010130Z AUTO 06006KT 9999 FEW017/// SCT190///
                        22/12 Q1017=
201909010200 METAR LRBM 010200Z AUTO 05006KT 020V080 9999 FEW018/// SCT190///
                        22/12 Q1016=
201909010230 METAR LRBM 010230Z AUTO 06006KT 020V090 9999 FEW014/// SCT200///
                        22/12 Q1016=
201909010300 METAR LRBM 010300Z AUTO 06005KT 020V090 9999 FEW020/// SCT200///
                        21/12 Q1016=
201909010330 METAR LRBM 010330Z AUTO 05004KT 020V090 9999 FEW012/// SCT180///
                        21/12 Q1016=
201909010400 METAR LRBM 010400Z AUTO 08004KT 040V100 9999 FEW015/// SCT190///
                        19/12 Q1016=
201909010430 METAR LRBM 010430Z AUTO VRB01KT 9999 FEW017/// SCT230///
                        19/13 Q1016=
201909010500 METAR LRBM 010500Z AUTO 00000KT 9999 FEW015/// SCT180///
                        21/13 Q1016=
201909010530 METAR LRBM 010530Z AUTO 07003KT 040V110 9999 FEW014/// SCT200///
                        23/13 Q1016=
201909010600 METAR LRBM 010600Z AUTO 10005KT 9999 FEW018/// SCT220///
                        24/13 Q1016=
201909010630 METAR LRBM 010630Z AUTO 11005KT 090V170 9999 FEW010/// SCT190///
                        25/14 Q1016=
201909010700 METAR LRBM 010700Z AUTO 12003KT 080V150 9999 FEW009/// SCT210///
                        25/15 Q1016=
201909010730 METAR LRBM 010730Z AUTO 12004KT 090V170 9999 NCD 27/14 Q1016=
201909010800 METAR LRBM 010800Z AUTO 14006KT 9999 NCD 28/10 Q1016=
201909010830 METAR LRBM 010830Z AUTO 11005KT 080V170 9999 FEW013/// SCT170///
                        BKN240/// 29/11 Q1016=
201909010900 METAR LRBM 010900Z AUTO 10005KT 030V140 9999 FEW013/// SCT170///
                        BKN240/// 29/11 Q1016=
201909010930 METAR LRBM 010930Z AUTO 14005KT 080V220 9999 FEW018/// SCT190///
                        30/10 Q1016=
201909011000 METAR LRBM 011000Z AUTO VRB05KT 9999 FEW011/// SCT190///
                        29/10 Q1015=
201909011030 METAR LRBM 011030Z AUTO 09005KT 040V130 9999 FEW009/// SCT180///
                        30/10 Q1015=
201909011100 METAR LRBM 011100Z AUTO VRB04KT 9999 FEW011/// SCT170///
                        BKN240/// 31/09 Q1015=
201909011130 METAR LRBM 011130Z AUTO 24007KT 200V270 9999 FEW012/// SCT180///
                        31/09 Q1015=
201909011200 METAR LRBM 011200Z AUTO 26005KT 220V290 9999 FEW017/// SCT190///
                        31/09 Q1014=
201909011230 METAR LRBM 011230Z AUTO VRB03KT 9999 FEW011/// SCT210///
                        32/10 Q1014=
201909011300 METAR LRBM 011300Z AUTO 26004KT 210V330 9999 FEW008/// SCT180///
                        BKN240/// 32/09 Q1014=
201909011330 METAR LRBM 011330Z AUTO VRB03KT 9999 FEW009/// SCT220///
                        32/09 Q1013=
201909011400 METAR LRBM 011400Z AUTO VRB03KT 9999 FEW009/// SCT140///
                        BKN240/// 32/09 Q1013=
201909011430 METAR LRBM 011430Z AUTO VRB03KT 9999 NCD 33/10 Q1013=
201909011500 METAR LRBM 011500Z AUTO VRB03KT 9999 NCD 32/09 Q1013=
201909011530 METAR LRBM 011530Z AUTO 15003KT 110V250 9999 FEW027/// SCT180///
                        31/10 Q1013=
201909011600 METAR LRBM 011600Z AUTO VRB01KT 9999 FEW024/// SCT240///
                        30/13 Q1013=
201909011630 METAR LRBM 011630Z AUTO VRB01KT 9999 FEW019/// BKN200///
                        27/15 Q1013=
201909011700 METAR LRBM 011700Z 03003KT 010V070 CAVOK 25/14 Q1013=
201909011730 METAR LRBM 011730Z 02004KT 330V050 CAVOK 25/13 Q1013=
201909011800 METAR LRBM 011800Z 03004KT CAVOK 24/13 Q1013=
201909011830 METAR LRBM 011830Z 02004KT 350V060 CAVOK 24/13 Q1013=
201909011900 METAR LRBM 011900Z 05002KT CAVOK 22/13 Q1014=
201909011930 METAR LRBM 011930Z 07002KT CAVOK 21/14 Q1014=
201909012000 METAR LRBM 012000Z VRB02KT CAVOK 20/13 Q1014=
201909012030 METAR LRBM 012030Z 04003KT CAVOK 21/13 Q1014=
201909012100 METAR LRBM 012100Z VRB02KT CAVOK 20/14 Q1014=
201909012130 METAR LRBM 012130Z AUTO 09003KT 9999 FEW014/// SCT210///
                        20/14 Q1014=
201909012200 METAR LRBM 012200Z AUTO 08002KT 020V130 9999 FEW031/// SCT200///
                        20/13 Q1014=
201909012230 METAR LRBM 012230Z AUTO 08006KT 9999 FEW010/// SCT230///
                        20/13 Q1015=
201909012300 METAR LRBM 012300Z AUTO 08006KT 9999 FEW015/// SCT210///
                        19/13 Q1014=
201909012330 METAR LRBM 012330Z AUTO 11004KT 9999 NCD 19/13 Q1014=
201909020000 METAR LRBM 020000Z AUTO 06004KT 9999 NCD 19/13 Q1014=
201909020030 METAR LRBM 020030Z AUTO 08005KT 9999 NCD 19/13 Q1014=
201909020100 METAR LRBM 020100Z AUTO 09007KT 9999 NCD 19/13 Q1014=
201909020130 METAR LRBM 020130Z AUTO 12004KT 050V140 9999 NCD 19/13 Q1014=
201909020200 METAR LRBM 020200Z 06004KT CAVOK 17/13 Q1015=
201909020230 METAR LRBM 020230Z 06005KT CAVOK 17/13 Q1015=
201909020300 METAR LRBM 020300Z 07005KT CAVOK 19/13 Q1015=
201909020330 METAR LRBM 020330Z 06005KT CAVOK 18/12 Q1015=
201909020400 METAR LRBM 020400Z 08005KT CAVOK 16/13 Q1015=
201909020430 METAR LRBM 020430Z 06004KT CAVOK 18/13 Q1015=
201909020500 METAR LRBM 020500Z 11002KT CAVOK 17/14 Q1015=
201909020530 METAR LRBM 020530Z 07004KT CAVOK 20/13 Q1015=
201909020600 METAR LRBM 020600Z 09004KT CAVOK 21/13 Q1016=
201909020630 METAR LRBM 020630Z 09005KT CAVOK 23/13 Q1016=
201909020700 METAR LRBM 020700Z AUTO 10004KT 9999 NCD 24/13 Q1016=
201909020730 METAR LRBM 020730Z 11003KT CAVOK 25/12 Q1016=
201909020800 METAR LRBM 020800Z 13003KT CAVOK 27/12 Q1016=
201909020830 METAR LRBM 020830Z VRB03KT CAVOK 28/12 Q1016=
201909020900 METAR LRBM 020900Z VRB03KT CAVOK 28/10 Q1015=
201909020930 METAR LRBM 020930Z VRB03KT CAVOK 29/11 Q1015=
201909021000 METAR LRBM 021000Z 10004KT 040V200 9999 FEW045 30/11 Q1015=
201909021030 METAR LRBM 021030Z VRB03KT 9999 FEW043 30/11 Q1015=
201909021100 METAR COR LRBM 021100Z VRB02KT 9999 FEW044 30/11 Q1015=
201909021130 METAR LRBM 021130Z 29004KT 200V010 9999 FEW046 31/11 Q1014=
201909021200 METAR LRBM 021200Z 23004KT 150V310 9999 FEW044 FEW046TCU
                        31/10 Q1014=
201909021230 METAR LRBM 021230Z 24004KT 170V290 9999 FEW045 FEW047TCU
                        32/10 Q1014=
201909021300 METAR LRBM 021300Z VRB03KT 9999 FEW045 FEW047TCU 32/09 Q1014=
201909021330 METAR LRBM 021330Z 35002KT 9999 FEW046 FEW048CB 32/08 Q1014=
201909021400 METAR LRBM 021400Z VRB03KT 9999 FEW046 FEW048CB 33/06 Q1013=
201909021430 METAR LRBM 021430Z 12003KT 080V220 9999 FEW050 33/07 Q1013=
201909021500 METAR LRBM 021500Z 10002KT 9999 FEW050 31/09 Q1013=
201909021530 METAR LRBM 021530Z VRB02KT 9999 FEW048 FEW050CB 31/11 Q1013=
201909021600 METAR LRBM 021600Z 34003KT 9999 FEW050 FEW053CB 27/12 Q1013=
201909021630 METAR LRBM 021630Z 01004KT 320V040 9999 FEW050 FEW053CB 27/12
                        Q1013=
201909021700 METAR LRBM 021700Z 01004KT 340V060 9999 FEW055 26/12 Q1013=
201909021730 METAR LRBM 021730Z VRB03KT CAVOK 25/12 Q1013=
201909021800 METAR LRBM 021800Z VRB02KT CAVOK 24/13 Q1014=
201909021830 METAR LRBM 021830Z VRB02KT CAVOK 23/13 Q1014=
201909021900 METAR LRBM 021900Z 03003KT CAVOK 22/12 Q1014=
201909021930 METAR LRBM 021930Z 05005KT CAVOK 22/12 Q1014=
201909022000 METAR LRBM 022000Z 05002KT CAVOK 22/12 Q1014=
201909022030 METAR LRBM 022030Z 03003KT 360V060 CAVOK 21/12 Q1015=
201909022100 METAR LRBM 022100Z 04003KT CAVOK 21/12 Q1015=
201909022130 METAR LRBM 022130Z AUTO 05003KT 9999 FEW016/// SCT190///
                        21/12 Q1015=
201909022200 METAR LRBM 022200Z AUTO VRB03KT 9999 FEW019/// SCT190///
                        19/14 Q1015=
201909022230 METAR LRBM 022230Z AUTO 01005KT 340V040 9999 FEW025/// SCT220///
                        20/13 Q1015=
201909022300 METAR LRBM 022300Z AUTO 02004KT 9999 FEW020/// SCT210///
                        21/13 Q1015=
201909022330 METAR LRBM 022330Z AUTO 04006KT 9999 FEW012/// SCT190///
                        22/12 Q1015=
201909030000 METAR LRBM 030000Z AUTO 09009KT 9999 FEW020/// SCT200///
                        21/13 Q1015=
201909030030 METAR LRBM 030030Z AUTO VRB04KT 9999 FEW012/// SCT190///
                        20/13 Q1015=
201909030100 METAR LRBM 030100Z AUTO 26001KT 9000 FEW011/// SCT190///
                        20/14 Q1015=
201909030130 METAR LRBM 030130Z AUTO 05002KT 010V100 9999 FEW017/// SCT170///
                        20/14 Q1015=
201909030200 METAR LRBM 030200Z 09008KT CAVOK 21/13 Q1015=
201909030230 METAR LRBM 030230Z VRB03KT CAVOK 20/13 Q1015=
201909030300 METAR LRBM 030300Z 24004KT CAVOK 19/15 Q1015=
201909030330 METAR LRBM 030330Z 27004KT 9999 FEW060 19/15 Q1015=
201909030400 METAR LRBM 030400Z 28003KT 250V310 9999 SCT058 19/14 Q1015=
201909030430 METAR LRBM 030430Z 27003KT 240V320 9999 SCT058 19/15 Q1016=
201909030500 METAR LRBM 030500Z 27006KT 9999 SCT055 18/15 Q1016=
201909030530 METAR LRBM 030530Z 26005KT 9999 FEW052 19/16 Q1016=
201909030600 METAR LRBM 030600Z 26002KT 210V320 9999 FEW055 20/16 Q1016=
201909030630 METAR LRBM 030630Z 14002KT 040V180 9999 FEW058 21/16 Q1016=
201909030700 METAR LRBM 030700Z VRB03KT 9999 FEW058 22/16 Q1016=
201909030730 METAR LRBM 030730Z 11002KT 060V190 CAVOK 23/15 Q1016=
201909030800 METAR LRBM 030800Z 15003KT 050V200 CAVOK 25/14 Q1016=
201909030830 METAR LRBM 030830Z 18002KT 080V250 CAVOK 26/13 Q1016=
201909030900 METAR LRBM 030900Z VRB03KT CAVOK 26/13 Q1016=
201909030930 METAR LRBM 030930Z 13004KT 050V210 CAVOK 27/10 Q1016=
201909031000 METAR LRBM 031000Z 19003KT 150V300 9999 FEW060 28/11 Q1016=
201909031030 METAR LRBM 031030Z 25006KT 220V290 9999 FEW060 28/12 Q1016=
201909031100 METAR LRBM 031100Z 28009KT 260V320 9999 FEW060 27/14 Q1016=
201909031130 METAR LRBM 031130Z 29010KT 270V330 9999 FEW060 28/13 Q1016=
201909031200 METAR LRBM 031200Z 29010KT 260V320 9999 FEW060 26/14 Q1016=
201909031230 METAR LRBM 031230Z 29009KT CAVOK 27/14 Q1016=
201909031300 METAR LRBM 031300Z 28012KT CAVOK 26/14 Q1016=
201909031330 METAR LRBM 031330Z 28011KT 9999 SCT060 24/14 Q1016=
201909031400 METAR LRBM 031400Z 27011KT 9999 SCT060 24/14 Q1017=
201909031430 METAR LRBM 031430Z 27011KT 9999 BKN057 23/14 Q1017=
201909031500 METAR LRBM 031500Z 27011KT 9999 SCT060 22/14 Q1017=
201909031530 METAR LRBM 031530Z 27014KT 9999 FEW060 21/14 Q1017=
201909031600 METAR LRBM 031600Z 27013KT CAVOK 20/14 Q1017=
201909031630 METAR LRBM 031630Z 27011KT 9999 FEW060 19/14 Q1018=
201909031700 METAR LRBM 031700Z 27007KT 9999 SCT060 19/14 Q1018=
201909031730 METAR LRBM 031730Z 26009KT 9999 SCT055 18/14 Q1018=
201909031800 METAR LRBM 031800Z 28013KT 9999 -RA SCT050 18/13 Q1019=
201909031830 METAR LRBM 031830Z 27013KT 9999 -RA SCT050 17/14 Q1019=
201909031900 METAR LRBM 031900Z 27012KT 9999 SCT055 16/13 Q1019=
201909031930 METAR LRBM 031930Z 27009KT 9999 FEW012 SCT050 16/13 Q1019=
201909032000 METAR LRBM 032000Z 26009KT 9999 -RA SCT007 SCT012 16/14 Q1020=
201909032030 METAR LRBM 032030Z 27007KT 9999 SCT005 BKN007 15/14 Q1019=
201909032100 METAR LRBM 032100Z 27008KT 9999 FEW004 BKN006 15/14 Q1020=
201909032130 METAR LRBM 032130Z AUTO 26007KT 9999 BKN004/// BKN026///
                        15/14 Q1020=
201909032200 METAR LRBM 032200Z AUTO 26008KT 9999 NCD 15/14 Q1020=
201909032230 METAR LRBM 032230Z AUTO 26008KT 9999 NCD 15/13 Q1020=
201909032300 METAR LRBM 032300Z AUTO 26007KT 9999 BKN005/// BKN042///
                        15/13 Q1020=
201909032330 METAR LRBM 032330Z AUTO 27006KT 9999 BKN005/// 15/13 Q1020=
201909040000 METAR LRBM 040000Z AUTO 26006KT 9999 BKN006/// BKN035///
                        15/13 Q1020=
201909040030 METAR LRBM 040030Z AUTO 26005KT 9999 BKN006/// 15/13 Q1020=
201909040100 METAR LRBM 040100Z AUTO 28004KT 250V320 9999 FEW004/// SCT006///
                        BKN009/// 15/13 Q1020=
201909040130 METAR LRBM 040130Z AUTO 29004KT 260V320 9999 FEW005/// BKN007///
                        BKN060/// ///// Q1020=
201909040200 METAR LRBM 040200Z 28004KT 260V320 9999 FEW003 BKN006 14/13
                        Q1020=
201909040230 METAR LRBM 040230Z 28004KT 260V320 6000 SCT002 BKN004 14/13
                        Q1020=
201909040300 METAR LRBM 040300Z 26004KT 4500 -DZ SCT002 BKN004 14/13 Q1020=
201909040330 METAR LRBM 040330Z 27005KT 2500 -DZ BR SCT001 BKN003 14/13
                        Q1020=
201909040400 METAR LRBM 040400Z 29006KT 2000 -DZ BR FEW001 BKN003 OVC006
                        13/12 Q1020=
201909040430 METAR LRBM 040430Z 27005KT 3000 BR BKN002 OVC007 13/12 Q1020=
201909040500 METAR LRBM 040500Z 28006KT 3500 BR BKN002 OVC007 13/12 Q1020=
201909040530 METAR LRBM 040530Z 28004KT 4000 BR SCT002 OVC003 14/13 Q1020=
201909040600 METAR LRBM 040600Z 27004KT 6000 SCT003 OVC004 14/12 Q1020=
201909040630 METAR LRBM 040630Z 26004KT 220V280 7000 SCT003 OVC005 14/13
                        Q1021=
201909040700 METAR COR LRBM 040700Z VRB02KT 8000 BKN004 OVC006 15/13 Q1021=
201909040730 METAR LRBM 040730Z 22003KT 180V270 8000 SCT004 OVC006 15/13
                        Q1020=
201909040800 METAR LRBM 040800Z 26003KT 230V300 9999 SCT006 OVC009 15/13
                        Q1020=
201909040830 METAR LRBM 040830Z 26004KT 230V300 9999 FEW006 OVC009 16/13
                        Q1021=
201909040900 METAR LRBM 040900Z 27005KT 230V320 9999 BKN010 16/13 Q1020=
201909040930 METAR LRBM 040930Z VRB04KT 9999 BKN014 17/13 Q1020=
201909041000 METAR LRBM 041000Z 20004KT 160V240 9999 FEW016 BKN020 18/13
                        Q1020=
201909041030 METAR LRBM 041030Z 26005KT 210V290 9999 BKN026 19/13 Q1020=
201909041100 METAR LRBM 041100Z 19004KT 140V240 9999 BKN030 20/13 Q1019=
201909041130 METAR LRBM 041130Z VRB03KT 9999 BKN030 22/14 Q1019=
201909041200 METAR LRBM 041200Z 24003KT 140V310 9999 BKN030 21/13 Q1019=
201909041230 METAR LRBM 041230Z 21005KT 100V270 9999 FEW030TCU SCT033
                        22/12 Q1018=
201909041300 METAR LRBM 041300Z VRB05KT 9999 BKN036 22/12 Q1018=
201909041330 METAR LRBM 041330Z 26005KT 210V290 9999 BKN042 23/12 Q1018=
201909041400 METAR LRBM 041400Z 27006KT 240V310 9999 BKN045 23/12 Q1017=
201909041430 METAR LRBM 041430Z 26007KT 220V290 9999 BKN045 23/12 Q1017=
201909041500 METAR LRBM 041500Z 24007KT 9999 BKN045 24/11 Q1017=
201909041530 METAR LRBM 041530Z 27008KT 9999 SCT047 23/11 Q1017=
201909041600 METAR LRBM 041600Z 26006KT 9999 SCT048 23/11 Q1017=
201909041630 METAR LRBM 041630Z 27004KT 250V320 9999 SCT050 22/11 Q1017=
201909041700 METAR LRBM 041700Z 35003KT 9999 SCT055 21/12 Q1017=
201909041730 METAR LRBM 041730Z 01002KT 350V060 9999 FEW058 19/13 Q1017=
201909041800 METAR LRBM 041800Z 36004KT 330V050 CAVOK 18/12 Q1017=
201909041830 METAR LRBM 041830Z 02004KT 330V060 CAVOK 18/11 Q1017=
201909041900 METAR LRBM 041900Z 01003KT 340V060 CAVOK 18/11 Q1017=
201909041930 METAR LRBM 041930Z 06002KT 020V080 CAVOK 16/11 Q1017=
201909042000 METAR LRBM 042000Z 06005KT CAVOK 16/11 Q1017=
201909042030 METAR LRBM 042030Z 06004KT CAVOK 16/10 Q1017=
201909042100 METAR LRBM 042100Z 07005KT CAVOK 15/11 Q1017=
201909042130 METAR LRBM 042130Z AUTO 06005KT 020V090 9999 FEW100/// SCT220///
                        16/10 Q1017=
201909042200 METAR LRBM 042200Z AUTO 05003KT 9999 FEW042/// SCT200///
                        17/10 Q1017=
201909042230 METAR LRBM 042230Z AUTO 07004KT 9999 FEW019/// SCT190///
                        16/10 Q1017=
201909042300 METAR LRBM 042300Z AUTO 06004KT 9999 FEW016/// SCT210///
                        16/10 Q1017=
201909042330 METAR LRBM 042330Z AUTO 06002KT 030V100 9999 FEW013/// SCT210///
                        15/10 Q1017=
201909050000 METAR LRBM 050000Z AUTO 09005KT 050V110 9999 FEW022/// SCT230///
                        14/10 Q1017=
201909050030 METAR LRBM 050030Z AUTO 04003KT 9999 FEW019/// SCT230///
                        14/09 Q1017=
201909050100 METAR LRBM 050100Z AUTO 00000KT 9999 FEW033/// SCT240///
                        14/09 Q1017=
201909050130 METAR LRBM 050130Z AUTO 06005KT 9999 FEW043/// SCT200///
                        14/09 Q1017=
201909050200 METAR LRBM 050200Z 04002KT CAVOK 14/09 Q1016=
201909050230 METAR LRBM 050230Z 14002KT CAVOK 12/09 Q1016=
201909050300 METAR LRBM 050300Z 07004KT CAVOK 12/09 Q1016=
201909050330 METAR LRBM 050330Z 07004KT 020V110 CAVOK 12/09 Q1016=
201909050400 METAR LRBM 050400Z 07005KT 040V100 CAVOK 12/09 Q1016=
201909050430 METAR LRBM 050430Z 06003KT 030V090 CAVOK 13/09 Q1016=
201909050500 METAR LRBM 050500Z 07005KT CAVOK 14/09 Q1016=
201909050530 METAR LRBM 050530Z 10005KT 070V130 CAVOK 15/10 Q1016=
201909050600 METAR LRBM 050600Z 11004KT CAVOK 17/10 Q1016=
201909050630 METAR LRBM 050630Z 13003KT 060V160 CAVOK 18/11 Q1016=
201909050700 METAR LRBM 050700Z 14003KT CAVOK 18/11 Q1016=
201909050730 METAR LRBM 050730Z 11004KT 080V170 CAVOK 21/10 Q1016=
201909050800 METAR LRBM 050800Z 14006KT 080V200 9999 FEW040 22/10 Q1016=
201909050830 METAR LRBM 050830Z 14005KT 090V180 9999 FEW040 22/10 Q1016=
201909050900 METAR LRBM 050900Z 10005KT 030V160 9999 FEW042 23/11 Q1016=
201909050930 METAR LRBM 050930Z 12004KT 070V210 9999 FEW043 24/10 Q1016=
201909051000 METAR LRBM 051000Z VRB04KT 9999 SCT045 24/10 Q1015=
201909051030 METAR LRBM 051030Z 14003KT 9999 SCT045 25/09 Q1015=
201909051100 METAR LRBM 051100Z 20004KT 160V280 9999 SCT045 25/08 Q1015=
201909051130 METAR LRBM 051130Z 15006KT 080V190 9999 SCT045 26/08 Q1014=
201909051200 METAR COR LRBM 051200Z 11005KT 9999 SCT045 26/07 Q1014=
201909051230 METAR LRBM 051230Z 27006KT 210V330 9999 SCT045 26/08 Q1014=
201909051300 METAR LRBM 051300Z VRB04KT 9999 SCT050 26/07 Q1014=
201909051330 METAR LRBM 051330Z 24005KT 170V270 9999 SCT055 27/07 Q1014=
201909051400 METAR LRBM 051400Z VRB03KT CAVOK 26/07 Q1014=
201909051430 METAR LRBM 051430Z 25003KT CAVOK 27/07 Q1014=
201909051500 METAR LRBM 051500Z 21004KT CAVOK 27/07 Q1014=
201909051530 METAR LRBM 051530Z 24007KT CAVOK 26/07 Q1014=
201909051600 METAR LRBM 051600Z 29005KT 260V340 CAVOK 25/08 Q1014=
201909051630 METAR LRBM 051630Z 28005KT CAVOK 24/09 Q1014=
201909051700 METAR LRBM 051700Z 01003KT CAVOK 23/09 Q1014=
201909051730 METAR LRBM 051730Z 01003KT CAVOK 21/10 Q1014=
201909051800 METAR LRBM 051800Z VRB02KT CAVOK 20/11 Q1014=
201909051830 METAR LRBM 051830Z VRB01KT CAVOK 18/11 Q1015=
201909051900 METAR LRBM 051900Z AUTO VRB01KT 9999 FEW013/// SCT190///
                        ///// Q1015=
201909051930 METAR LRBM 051930Z VRB02KT CAVOK 18/11 Q1015=
201909052000 METAR LRBM 052000Z 05003KT CAVOK 17/10 Q1015=
201909052030 METAR LRBM 052030Z 01002KT CAVOK 16/10 Q1015=
201909052100 METAR LRBM 052100Z VRB01KT CAVOK 15/10 Q1015=
201909052130 METAR LRBM 052130Z AUTO 01002KT 9999 FEW044/// SCT240///
                        15/10 Q1015=
201909052200 METAR LRBM 052200Z AUTO VRB01KT 9999 FEW024/// SCT240///
                        14/11 Q1016=
201909052230 METAR LRBM 052230Z AUTO 00000KT 9999 FEW014/// SCT190///
                        13/10 Q1016=
201909052300 METAR LRBM 052300Z AUTO 09002KT 020V130 9999 FEW014/// SCT240///
                        14/09 Q1016=
201909052330 METAR LRBM 052330Z AUTO VRB01KT 9999 FEW075/// SCT220///
                        13/09 Q1016=
201909060000 METAR LRBM 060000Z AUTO 08004KT 9999 FEW030/// SCT200///
                        13/10 Q1016=
201909060030 METAR LRBM 060030Z AUTO 09004KT 9999 FEW017/// SCT220///
                        12/10 Q1016=
201909060100 METAR LRBM 060100Z AUTO 09003KT 9999 FEW015/// SCT240///
                        12/09 Q1016=
201909060130 METAR LRBM 060130Z AUTO 10004KT 9999 FEW023/// SCT230///
                        12/10 Q1017=
201909060200 METAR LRBM 060200Z AUTO 08002KT 9999 FEW026/// SCT220///
                        11/09 Q1017=
201909060230 METAR COR LRBM 060230Z 15002KT CAVOK 11/10 Q1017=
201909060300 METAR LRBM 060300Z 09002KT CAVOK 11/09 Q1017=
201909060330 METAR LRBM 060330Z VRB01KT CAVOK 11/09 Q1017=
201909060400 METAR LRBM 060400Z 07001KT CAVOK 10/09 Q1018=
201909060430 METAR LRBM 060430Z 00000KT CAVOK 11/09 Q1018=
201909060500 METAR LRBM 060500Z 00000KT CAVOK 12/10 Q1018=
201909060530 METAR LRBM 060530Z 16002KT CAVOK 13/11 Q1018=
201909060600 METAR LRBM 060600Z 19002KT CAVOK 15/11 Q1018=
201909060630 METAR LRBM 060630Z VRB01KT CAVOK 17/11 Q1018=
201909060700 METAR LRBM 060700Z 24002KT CAVOK 18/11 Q1019=
201909060730 METAR LRBM 060730Z 24002KT CAVOK 19/11 Q1019=
201909060800 METAR LRBM 060800Z 27004KT 210V360 9999 FEW040 20/11 Q1019=
201909060830 METAR LRBM 060830Z 26005KT 230V330 9999 FEW043 22/10 Q1019=
201909060900 METAR LRBM 060900Z 25006KT 210V290 9999 FEW045 23/11 Q1019=
201909060930 METAR LRBM 060930Z 26005KT 220V320 9999 FEW045 24/10 Q1019=
201909061000 METAR LRBM 061000Z 21005KT 170V280 9999 FEW045 25/10 Q1018=
201909061030 METAR LRBM 061030Z 21004KT 160V280 9999 SCT045 26/10 Q1018=
201909061100 METAR LRBM 061100Z 19005KT 160V320 9999 SCT045 27/09 Q1018=
201909061130 METAR LRBM 061130Z VRB04KT 9999 BKN045 27/08 Q1018=
201909061200 METAR LRBM 061200Z 36004KT 320V020 9999 BKN043 26/09 Q1018=
201909061230 METAR LRBM 061230Z 28005KT 240V330 9999 SCT045 27/09 Q1018=
201909061300 METAR LRBM 061300Z 17006KT 9999 SCT045 28/09 Q1017=
201909061330 METAR LRBM 061330Z 13004KT 090V240 9999 SCT045 28/08 Q1017=
201909061400 METAR LRBM 061400Z VRB04KT 9999 SCT045 28/08 Q1017=
201909061430 METAR LRBM 061430Z AUTO 34002KT 300V030 9999 FEW010/// SCT180///
                        BKN240/// 27/09 Q1017=
201909061500 METAR LRBM 061500Z AUTO 05003KT 360V090 9999 FEW010/// SCT190///
                        27/09 Q1017=
201909061530 METAR LRBM 061530Z AUTO 02002KT 320V070 9999 FEW014/// SCT190///
                        27/10 Q1017=
201909061600 METAR LRBM 061600Z AUTO 02003KT 350V050 9999 FEW011/// SCT210///
                        25/11 Q1017=
201909061630 METAR LRBM 061630Z AUTO 02003KT 350V060 9999 FEW010/// SCT200///
                        25/10 Q1017=
201909061700 METAR LRBM 061700Z AUTO 03004KT 350V080 9999 FEW023/// SCT200///
                        24/08 Q1017=
201909061730 METAR LRBM 061730Z AUTO 01004KT 330V050 9999 FEW013/// SCT180///
                        23/07 Q1017=
201909061800 METAR LRBM 061800Z AUTO 08005KT 030V120 9999 FEW014/// SCT200///
                        21/10 Q1018=
201909061830 METAR LRBM 061830Z AUTO 05005KT 9999 FEW017/// SCT180///
                        21/08 Q1018=
201909061900 METAR LRBM 061900Z AUTO 05004KT 9999 FEW010/// SCT220///
                        20/09 Q1018=
201909061930 METAR LRBM 061930Z AUTO 05003KT 020V080 9999 FEW013/// SCT200///
                        20/09 Q1018=
201909062000 METAR LRBM 062000Z AUTO 06004KT 9999 FEW012/// SCT200///
                        19/09 Q1018=
201909062030 METAR LRBM 062030Z AUTO 06005KT 9999 FEW017/// SCT200///
                        19/09 Q1019=
201909062100 METAR LRBM 062100Z AUTO 06005KT 9999 FEW024/// SCT190///
                        ///// Q1019=
201909062130 METAR LRBM 062130Z AUTO 06005KT 9999 FEW017/// SCT210///
                        19/09 Q1018=
201909062200 METAR LRBM 062200Z AUTO 08004KT 9999 FEW019/// SCT200///
                        18/09 Q1019=
201909062230 METAR LRBM 062230Z AUTO 10006KT 9999 FEW014/// SCT200///
                        17/09 Q1019=
201909062300 METAR LRBM 062300Z AUTO 09006KT 9999 FEW019/// SCT200///
                        17/09 Q1019=
201909062330 METAR LRBM 062330Z AUTO 06005KT 9999 FEW015/// SCT200///
                        18/09 Q1019=
201909070000 METAR LRBM 070000Z AUTO 06006KT 9999 FEW013/// SCT180///
                        BKN240/// 18/09 Q1018=
201909070030 METAR LRBM 070030Z AUTO VRB01KT 9999 FEW034/// SCT210///
                        15/10 Q1018=
201909070100 METAR LRBM 070100Z AUTO 08003KT 9999 FEW026/// SCT210///
                        15/09 Q1019=
201909070130 METAR LRBM 070130Z AUTO 09004KT 9999 FEW034/// SCT200///
                        15/10 Q1019=
201909070200 METAR LRBM 070200Z AUTO 07005KT 9999 FEW015/// SCT220///
                        17/09 Q1018=
201909070230 METAR LRBM 070230Z AUTO 07004KT 9999 FEW016/// SCT220///
                        17/09 Q1019=
201909070300 METAR LRBM 070300Z AUTO 07004KT 9999 FEW014/// SCT220///
                        17/09 Q1019=
201909070330 METAR LRBM 070330Z AUTO 07005KT 9999 FEW023/// SCT220///
                        17/09 Q1019=
201909070400 METAR LRBM 070400Z AUTO 06005KT 9999 FEW015/// SCT210///
                        17/09 Q1019=
201909070430 METAR LRBM 070430Z AUTO 07004KT 9999 FEW024/// SCT210///
                        17/09 Q1019=
201909070500 METAR LRBM 070500Z 06005KT 030V090 CAVOK 18/09 Q1019=
201909070530 METAR LRBM 070530Z 07004KT CAVOK 19/09 Q1019=
201909070600 METAR LRBM 070600Z 08005KT 050V110 CAVOK 22/09 Q1019=
201909070630 METAR LRBM 070630Z 09008KT CAVOK 23/08 Q1019=
201909070700 METAR LRBM 070700Z 09009KT CAVOK 23/09 Q1019=
201909070730 METAR LRBM 070730Z 11009KT CAVOK 24/07 Q1019=
201909070800 METAR LRBM 070800Z 10009KT CAVOK 25/07 Q1019=
201909070830 METAR LRBM 070830Z 10009KT CAVOK 24/07 Q1019=
201909070900 METAR LRBM 070900Z 09009KT 070V130 CAVOK 25/07 Q1019=
201909070930 METAR LRBM 070930Z 10011KT CAVOK 26/07 Q1019=
201909071000 METAR LRBM 071000Z 11008KT CAVOK 26/07 Q1019=
201909071030 METAR LRBM 071030Z 09009KT 050V110 CAVOK 26/07 Q1018=
201909071100 METAR LRBM 071100Z 10005KT 060V170 CAVOK 27/07 Q1018=
201909071130 METAR LRBM 071130Z 13006KT 9999 FEW045 27/07 Q1018=
201909071200 METAR LRBM 071200Z 10008KT 9999 FEW045 27/07 Q1017=
201909071230 METAR LRBM 071230Z 10006KT 060V170 9999 FEW046 27/07 Q1017=
201909071300 METAR LRBM 071300Z 10008KT 9999 FEW046 27/08 Q1017=
201909071330 METAR LRBM 071330Z AUTO 10008KT 9999 FEW011/// SCT190///
                        27/08 Q1017=
201909071400 METAR LRBM 071400Z AUTO 09007KT 9999 FEW017/// SCT200///
                        27/09 Q1016=
201909071430 METAR LRBM 071430Z AUTO 10006KT 080V140 9999 FEW012/// SCT180///
                        BKN240/// 27/08 Q1016=
201909071500 METAR LRBM 071500Z AUTO 10006KT 9999 FEW013/// SCT210///
                        28/08 Q1016=
201909071530 METAR LRBM 071530Z AUTO 11005KT 9999 FEW010/// SCT170///
                        27/08 Q1016=
201909071600 METAR LRBM 071600Z AUTO 09005KT 9999 FEW012/// SCT230///
                        26/09 Q1016=
201909071630 METAR LRBM 071630Z AUTO 08004KT 9999 FEW013/// SCT200///
                        25/10 Q1016=
201909071700 METAR LRBM 071700Z AUTO 04003KT 9999 FEW016/// SCT240///
                        23/11 Q1016=
201909071730 METAR LRBM 071730Z AUTO 04005KT 010V070 9999 FEW013/// SCT220///
                        24/09 Q1016=
201909071800 METAR LRBM 071800Z AUTO 04004KT 010V070 9999 FEW012/// SCT190///
                        23/09 Q1016=
201909071830 METAR LRBM 071830Z AUTO 06004KT 9999 FEW014/// SCT230///
                        21/10 Q1016=
201909071900 METAR LRBM 071900Z AUTO 08006KT 9999 FEW020/// SCT200///
                        21/10 Q1016=
201909071930 METAR LRBM 071930Z AUTO 08006KT 9999 FEW018/// SCT160///
                        BKN240/// 20/11 Q1016=
201909072000 METAR LRBM 072000Z AUTO 07006KT 9999 FEW014/// SCT170///
                        20/11 Q1016=
201909072030 METAR LRBM 072030Z AUTO 08005KT 9999 FEW016/// SCT210///
                        18/11 Q1016=
201909072100 METAR LRBM 072100Z AUTO 08009KT 9999 FEW011/// SCT190///
                        23/10 Q1016=
201909072130 METAR LRBM 072130Z AUTO 08006KT 9999 FEW010/// SCT190///
                        21/11 Q1017=
201909072200 METAR LRBM 072200Z AUTO 08008KT 9999 FEW013/// SCT220///
                        23/10 Q1017=
201909072230 METAR LRBM 072230Z AUTO 08010KT 9999 FEW026/// SCT220///
                        23/11 Q1017=
201909072300 METAR LRBM 072300Z AUTO 09009KT 9999 FEW029/// SCT240///
                        22/11 Q1017=
201909072330 METAR LRBM 072330Z AUTO 09009KT 9999 FEW013/// SCT220///
                        22/11 Q1017=
201909080000 METAR LRBM 080000Z AUTO 10006KT 9999 -RA FEW012/// SCT180///
                        BKN240/// 21/12 Q1017=
201909080030 METAR LRBM 080030Z AUTO 17002KT 100V210 9999 FEW020/// SCT170///
                        21/12 Q1018 RERA=
201909080100 METAR LRBM 080100Z AUTO VRB01KT 9999 FEW016/// SCT220///
                        20/12 Q1018 RERA=
201909080130 METAR LRBM 080130Z AUTO 28007KT 9999 FEW013/// SCT190///
                        19/13 Q1018=
201909080200 METAR LRBM 080200Z AUTO 29006KT 250V320 9999 FEW038/// SCT240///
                        19/13 Q1018=
201909080230 METAR LRBM 080230Z AUTO 06002KT 010V140 9999 -RA FEW013///
                        SCT170/// BKN240/// 19/13 Q1018=
201909080300 METAR LRBM 080300Z AUTO 10002KT 080V140 9999 -SHRA FEW008///
                        SCT060/// BKN190/// 18/14 Q1018=
201909080330 METAR LRBM 080330Z AUTO 05005KT 9999 -SHRA FEW006/// SCT014///
                        BKN095/// 17/14 Q1018=
201909080400 METAR LRBM 080400Z AUTO VRB01KT 9999 -SHRA FEW004/// SCT026///
                        BKN080/// 17/14 Q1018=
201909080430 METAR LRBM 080430Z AUTO 09004KT 9999 -SHRA FEW009/// SCT036///
                        BKN160/// 17/15 Q1018=
201909080500 METAR LRBM 080500Z AUTO 06005KT 030V090 9999 -RA NCD 17/15
                        Q1018=
201909080530 METAR LRBM 080530Z AUTO 06006KT 9999 NCD 18/15 Q1018 RERA=
201909080600 METAR LRBM 080600Z AUTO 05004KT 010V070 9999 NCD 19/14 Q1018=
201909080630 METAR LRBM 080630Z AUTO 10005KT 030V140 9999 NCD 19/15 Q1018=
201909080700 METAR LRBM 080700Z AUTO 07004KT 9999 FEW016/// SCT180///
                        BKN240/// 19/15 Q1018=
201909080730 METAR LRBM 080730Z AUTO 08004KT 9999 FEW013/// SCT180///
                        BKN240/// 21/15 Q1018=
201909080800 METAR LRBM 080800Z AUTO 10004KT 9999 FEW011/// SCT210///
                        21/16 Q1018=
201909080830 METAR LRBM 080830Z AUTO 07006KT 9999 FEW017/// SCT200///
                        22/14 Q1018=
201909080900 METAR LRBM 080900Z AUTO 08009KT 9999 FEW014/// SCT210///
                        24/12 Q1018=
201909080930 METAR LRBM 080930Z AUTO 09009KT 9999 FEW010/// SCT190///
                        25/11 Q1018=
201909081000 METAR LRBM 081000Z AUTO 10009KT 9999 FEW021/// SCT160///
                        BKN240/// 27/11 Q1018=
201909081030 METAR LRBM 081030Z AUTO 12007KT 080V160 9999 FEW022/// SCT200///
                        27/11 Q1018=
201909081100 METAR LRBM 081100Z AUTO 16005KT 9999 FEW016/// SCT230///
                        28/10 Q1018=
201909081130 METAR LRBM 081130Z AUTO VRB01KT 9999 FEW015/// SCT180///
                        27/10 Q1018=
201909081200 METAR LRBM 081200Z AUTO 25004KT 210V280 9999 FEW010/// SCT180///
                        BKN240/// 27/11 Q1018=
201909081230 METAR LRBM 081230Z AUTO 25009KT 9999 FEW017/// BKN190///
                        26/13 Q1018=
201909081300 METAR LRBM 081300Z AUTO 26006KT 9999 FEW019/// SCT200///
                        25/14 Q1018=
201909081330 METAR LRBM 081330Z AUTO 29007KT 9999 -RA FEW010/// SCT095///
                        BKN200/// 23/13 Q1018=
201909081400 METAR LRBM 081400Z AUTO VRB01KT 9999 RA FEW014/// SCT210///
                        24/13 Q1018=
201909081430 METAR LRBM 081430Z AUTO VRB01KT 9999 -SHRA FEW010/// SCT150///
                        BKN240/// 24/13 Q1018=
201909081500 METAR LRBM 081500Z AUTO VRB01KT 9999 SHRA NCD 22/16 Q1018=
201909081530 METAR LRBM 081530Z AUTO 33003KT 250V020 9999 -SHRA NCD 21/16
                        Q1018=
201909081600 METAR LRBM 081600Z AUTO 07004KT 030V090 9999 FEW016/// SCT200///
                        21/15 Q1018 RERA=
201909081630 METAR LRBM 081630Z AUTO 13005KT 070V160 9999 FEW014/// SCT190///
                        21/16 Q1018 RERA=
201909081700 METAR LRBM 081700Z 09003KT 9999 SCT060 20/16 Q1018=
201909081730 METAR LRBM 081730Z 05003KT 9999 SCT060 20/15 Q1018=
201909081800 METAR LRBM 081800Z 06007KT 9999 FEW060 21/14 Q1018=
201909081830 METAR LRBM 081830Z 06006KT CAVOK 21/14 Q1018=
201909081900 METAR LRBM 081900Z 06006KT CAVOK 21/14 Q1018=
201909081930 METAR LRBM 081930Z 08004KT CAVOK 18/14 Q1018=
201909082000 METAR LRBM 082000Z 09006KT CAVOK 18/13 Q1018=
201909082030 METAR LRBM 082030Z 07008KT CAVOK 23/08 Q1018=
201909082100 METAR LRBM 082100Z 07008KT CAVOK 23/08 Q1018=
201909082130 METAR LRBM 082130Z AUTO 08008KT 9999 NCD 22/09 Q1018=
201909082200 METAR LRBM 082200Z AUTO 08009KT 9999 FEW033/// SCT220///
                        22/09 Q1018=
201909082230 METAR LRBM 082230Z AUTO 08010KT 9999 FEW021/// SCT210///
                        22/09 Q1018=
201909082300 METAR LRBM 082300Z AUTO 07009KT 9999 FEW013/// SCT190///
                        23/09 Q1018=
201909082330 METAR LRBM 082330Z AUTO 08009KT 9999 FEW015/// SCT210///
                        22/09 Q1018=
201909090000 METAR LRBM 090000Z AUTO 08008KT 9999 FEW025/// SCT210///
                        21/09 Q1018=
201909090030 METAR LRBM 090030Z AUTO 09012KT 9999 FEW025/// SCT220///
                        21/08 Q1018=
201909090100 METAR LRBM 090100Z AUTO 08009KT 9999 FEW014/// SCT220///
                        20/09 Q1018=
201909090130 METAR LRBM 090130Z AUTO 07009KT 9999 FEW033/// SCT240///
                        21/08 Q1017=
201909090200 METAR LRBM 090200Z 07012KT CAVOK 22/08 Q1017=
201909090230 METAR LRBM 090230Z 08013KT CAVOK 21/08 Q1017=
201909090300 METAR LRBM 090300Z 08012KT CAVOK 21/08 Q1017=
201909090330 METAR LRBM 090330Z 09012KT CAVOK 21/08 Q1017=
201909090400 METAR LRBM 090400Z 09009KT CAVOK 19/09 Q1017=
201909090430 METAR LRBM 090430Z 09010KT CAVOK 19/09 Q1017=
201909090500 METAR LRBM 090500Z 09010KT CAVOK 20/08 Q1017=
201909090530 METAR LRBM 090530Z 09013KT CAVOK 22/07 Q1017=
201909090600 METAR LRBM 090600Z 10015KT CAVOK 23/06 Q1017=
201909090630 METAR LRBM 090630Z 10016KT CAVOK 23/06 Q1017=
201909090700 METAR LRBM 090700Z 10018KT CAVOK 23/06 Q1017=
201909090730 METAR LRBM 090730Z 11015KT CAVOK 24/06 Q1017=
201909090800 METAR LRBM 090800Z 11015KT CAVOK 24/05 Q1016=
201909090830 METAR LRBM 090830Z 11015KT CAVOK 24/05 Q1016=
201909090900 METAR LRBM 090900Z 11015KT CAVOK 25/06 Q1016=
201909090930 METAR LRBM 090930Z 09016KT CAVOK 26/05 Q1015=
201909091000 METAR LRBM 091000Z 11015KT CAVOK 27/04 Q1015=
201909091030 METAR LRBM 091030Z 10015KT CAVOK 26/04 Q1015=
201909091100 METAR LRBM 091100Z 10016KT CAVOK 27/03 Q1014=
201909091130 METAR LRBM 091130Z 11013KT CAVOK 27/04 Q1014=
201909091200 METAR LRBM 091200Z 10016KT CAVOK 27/03 Q1014=
201909091230 METAR LRBM 091230Z 11012KT CAVOK 27/03 Q1013=
201909091300 METAR LRBM 091300Z 11014KT CAVOK 27/04 Q1013=
201909091330 METAR LRBM 091330Z 11012KT CAVOK 28/04 Q1012=
201909091400 METAR LRBM 091400Z 11013KT CAVOK 28/04 Q1012=
201909091430 METAR LRBM 091430Z 11014KT CAVOK 27/04 Q1012=
201909091500 METAR LRBM 091500Z 11012KT CAVOK 26/04 Q1012=
201909091530 METAR LRBM 091530Z 11011KT CAVOK 26/05 Q1012=
201909091600 METAR LRBM 091600Z 11010KT CAVOK 26/05 Q1012=
201909091630 METAR LRBM 091630Z 10011KT CAVOK 26/05 Q1012=
201909091700 METAR LRBM 091700Z 10011KT 9999 -SHRA FEW058CB 24/07 Q1012=
201909091730 METAR COR LRBM 091730Z 11007KT 9999 SCT055 25/06 Q1013=
201909091800 METAR LRBM 091800Z 13005KT 090V180 9999 SCT060 25/06 Q1014=
201909091830 METAR LRBM 091830Z 28014KT 9999 FEW060 18/13 Q1016=
201909091900 METAR LRBM 091900Z 28013KT 9999 SCT058 17/12 Q1018=
201909091930 METAR LRBM 091930Z 28008KT 9999 FEW056 16/11 Q1018=
201909092000 METAR LRBM 092000Z 27003KT 240V310 9999 FEW060 16/11 Q1018=
201909092030 METAR LRBM 092030Z 22001KT CAVOK 15/11 Q1018=
201909092100 METAR LRBM 092100Z 00000KT CAVOK 15/11 Q1018=
201909092130 METAR LRBM 092130Z AUTO 00000KT 9999 FEW050/// SCT240///
                        15/11 Q1018=
201909092200 METAR LRBM 092200Z AUTO 09006KT 9999 FEW014/// SCT200///
                        15/11 Q1018 RERA=
201909092230 METAR LRBM 092230Z AUTO 08002KT 040V110 9999 -SHRA FEW006///
                        SCT030/// BKN200/// 16/12 Q1018=
201909092300 METAR LRBM 092300Z AUTO VRB01KT 9999 -SHRA FEW007/// SCT021///
                        BKN070/// 15/13 Q1018=
201909092330 METAR LRBM 092330Z AUTO 07006KT 9999 SHRA FEW007/// SCT010///
                        BKN025/// 15/13 Q1018=
201909100000 METAR LRBM 100000Z AUTO 05004KT 9999 -RA FEW007/// SCT014///
                        BKN050/// 15/13 Q1018=
201909100030 METAR LRBM 100030Z AUTO VRB01KT 9999 -SHRA FEW012/// SCT230///
                        15/13 Q1018=
201909100100 METAR LRBM 100100Z AUTO 07004KT 9999 FEW015/// SCT200///
                        15/14 Q1018 RERA=
201909100130 METAR LRBM 100130Z AUTO 08002KT 340V110 9999 FEW070/// SCT210///
                        15/14 Q1018 REDZ=
201909100200 METAR LRBM 100200Z 29003KT 260V340 9999 BKN058 15/14 Q1018=
201909100230 METAR LRBM 100230Z 29002KT 9999 -RA BKN058 15/14 Q1018 R09/19//95=
201909100300 METAR LRBM 100300Z 25002KT 9999 SCT060 15/13 Q1019 R09/19//95=
201909100330 METAR LRBM 100330Z VRB02KT 9999 -SHRA FEW053CB BKN058 15/14
                        Q1019 R09/19//95=
201909100400 METAR LRBM 100400Z VRB01KT 9999 FEW060 15/14 Q1019 R09/19//95=
201909100430 METAR LRBM 100430Z /////KT 9999 SCT060 ///// Q1019 R09/19//95=
201909100500 METAR LRBM 100500Z /////KT 9999 FEW060 ///// Q1019 R09/19//95=
201909100530 METAR LRBM 100530Z /////KT 9999 FEW003 ///// Q1020 R09/19//95=
201909100600 METAR LRBM 100600Z 26004KT 9999 FEW004 15/13 Q1020 R09/19//95=
201909100630 METAR LRBM 100630Z 23003KT 200V280 9999 FEW006 16/14 Q1020
                        R09/19//95=
201909100700 METAR LRBM 100700Z VRB02KT 9999 FEW008 17/13 Q1020 R09/19//95=
201909100730 METAR LRBM 100730Z 16003KT 120V230 CAVOK 19/13 Q1020 R09/19//95=
201909100800 METAR LRBM 100800Z VRB03KT 9999 FEW022 20/13 Q1020 R09/CLRD//=
201909100830 METAR LRBM 100830Z 22004KT 150V260 9999 FEW024 20/12 Q1020=
201909100900 METAR LRBM 100900Z 27006KT 9999 FEW030 21/10 Q1021=
201909100930 METAR LRBM 100930Z 25006KT 220V310 9999 FEW036 22/09 Q1020=
201909101000 METAR LRBM 101000Z 23005KT 180V280 9999 FEW038 22/09 Q1020=
201909101030 METAR LRBM 101030Z 24006KT 210V270 9999 FEW040 23/09 Q1020=
201909101100 METAR LRBM 101100Z 27004KT 230V310 9999 FEW040 22/09 Q1020=
201909101130 METAR LRBM 101130Z 25006KT 180V300 9999 FEW042 23/09 Q1020=
201909101200 METAR LRBM 101200Z 26006KT 180V310 9999 FEW042 24/09 Q1020=
201909101230 METAR LRBM 101230Z 26006KT 230V310 9999 FEW042 24/10 Q1020=
201909101300 METAR LRBM 101300Z 28008KT 250V320 9999 FEW042 24/10 Q1020=
201909101330 METAR LRBM 101330Z 26010KT 9999 FEW044 24/10 Q1020=
201909101400 METAR LRBM 101400Z 26010KT 9999 FEW045 24/09 Q1019=
201909101430 METAR LRBM 101430Z 27008KT 9999 FEW045 23/09 Q1019=
201909101500 METAR LRBM 101500Z 27009KT 9999 FEW045 24/09 Q1019=
201909101530 METAR LRBM 101530Z 28006KT CAVOK 24/10 Q1019=
201909101600 METAR LRBM 101600Z 28004KT CAVOK 23/10 Q1019=
201909101630 METAR LRBM 101630Z 29004KT 260V320 CAVOK 22/10 Q1019=
201909101700 METAR LRBM 101700Z 34003KT CAVOK 20/11 Q1020=
201909101730 METAR LRBM 101730Z 32002KT CAVOK 20/11 Q1020=
201909101800 METAR LRBM 101800Z 34003KT CAVOK 19/11 Q1020=
201909101830 METAR LRBM 101830Z VRB01KT CAVOK 17/11 Q1020=
201909101900 METAR LRBM 101900Z 00000KT CAVOK 16/11 Q1020=
201909101930 METAR LRBM 101930Z VRB01KT CAVOK 16/11 Q1021=
201909102000 METAR LRBM 102000Z 08002KT CAVOK 14/11 Q1021=
201909102030 METAR LRBM 102030Z 06003KT 330V110 CAVOK 15/11 Q1021=
201909102100 METAR LRBM 102100Z 04003KT 350V080 CAVOK 14/11 Q1021=
201909102130 METAR LRBM 102130Z AUTO 06003KT 9999 FEW070/// SCT230///
                        14/11 Q1021=
201909102200 METAR LRBM 102200Z AUTO 07003KT 040V100 9999 FEW014/// SCT220///
                        14/10 Q1021=
201909102230 METAR LRBM 102230Z AUTO 03004KT 9999 FEW026/// SCT190///
                        15/11 Q1021=
201909102300 METAR LRBM 102300Z AUTO 07003KT 010V100 9999 FEW090/// SCT220///
                        14/11 Q1021=
201909102330 METAR LRBM 102330Z AUTO 09004KT 9999 FEW100/// SCT230///
                        14/11 Q1022=
201909110000 METAR LRBM 110000Z AUTO 10002KT 070V130 9999 FEW060/// SCT240///
                        13/11 Q1022=
201909110030 METAR LRBM 110030Z AUTO 00000KT 9999 FEW065/// SCT210///
                        12/10 Q1022=
201909110100 METAR LRBM 110100Z AUTO 07002KT 010V100 9999 FEW013/// SCT240///
                        12/10 Q1022=
201909110130 METAR LRBM 110130Z AUTO VRB01KT 9999 FEW090/// SCT230///
                        ///// Q1022=
201909110200 METAR LRBM 110200Z 08005KT CAVOK 14/11 Q1022=
201909110230 METAR LRBM 110230Z 10005KT CAVOK 13/11 Q1022=
201909110300 METAR LRBM 110300Z 10004KT CAVOK 12/10 Q1022=
201909110330 METAR LRBM 110330Z 11004KT CAVOK 11/10 Q1022=
201909110400 METAR LRBM 110400Z 11003KT CAVOK 12/10 Q1022=
201909110430 METAR LRBM 110430Z 10003KT 070V130 CAVOK 13/11 Q1022=
201909110500 METAR LRBM 110500Z 09003KT CAVOK 13/11 Q1023=
201909110530 METAR LRBM 110530Z 15004KT CAVOK 14/11 Q1023=
201909110600 METAR LRBM 110600Z 15003KT CAVOK 15/12 Q1023=
201909110630 METAR LRBM 110630Z VRB02KT CAVOK 18/12 Q1023=
201909110700 METAR LRBM 110700Z 12003KT 080V150 CAVOK 20/12 Q1023=
201909110730 METAR LRBM 110730Z 13003KT 070V180 CAVOK 21/12 Q1023=
201909110800 METAR LRBM 110800Z 11003KT 020V180 CAVOK 24/12 Q1023=
201909110830 METAR LRBM 110830Z 13005KT 090V190 CAVOK 25/08 Q1023=
201909110900 METAR LRBM 110900Z 10007KT CAVOK 25/08 Q1023=
201909110930 METAR LRBM 110930Z 09005KT 050V150 CAVOK 26/08 Q1023=
201909111000 METAR LRBM 111000Z VRB03KT 9999 FEW042 27/07 Q1023=
201909111030 METAR LRBM 111030Z 09005KT 030V130 9999 FEW042 27/07 Q1023=
201909111100 METAR LRBM 111100Z VRB04KT 9999 FEW042 28/07 Q1022=
201909111130 METAR LRBM 111130Z 14006KT 100V170 9999 FEW045 29/07 Q1022=
201909111200 METAR LRBM 111200Z VRB03KT 9999 FEW045 28/07 Q1022=
201909111230 METAR LRBM 111230Z 13004KT 010V180 9999 FEW045 29/07 Q1022=
201909111300 METAR LRBM 111300Z 19005KT 140V250 9999 FEW047 29/06 Q1022=
201909111330 METAR LRBM 111330Z VRB02KT 9999 FEW047 29/06 Q1022=
201909111400 METAR LRBM 111400Z VRB03KT 9999 FEW047 30/06 Q1021=
201909111430 METAR LRBM 111430Z 18004KT 120V230 9999 FEW047 29/05 Q1021=
201909111500 METAR LRBM 111500Z 21005KT 190V250 9999 FEW047 29/06 Q1022=
201909111530 METAR LRBM 111530Z 26002KT 9999 FEW047 28/07 Q1021=
201909111600 METAR LRBM 111600Z 00000KT CAVOK 26/09 Q1022=
201909111630 METAR LRBM 111630Z 02003KT CAVOK 23/11 Q1022=
201909111700 METAR LRBM 111700Z 04003KT 350V080 CAVOK 22/10 Q1022=
201909111730 METAR LRBM 111730Z 03004KT 360V070 CAVOK 22/10 Q1022=
201909111800 METAR LRBM 111800Z 04004KT CAVOK 21/11 Q1023=
201909111830 METAR LRBM 111830Z 02003KT 350V060 CAVOK 20/11 Q1023=
201909111900 METAR LRBM 111900Z 01003KT 280V040 CAVOK 20/11 Q1023=
201909111930 METAR LRBM 111930Z 02003KT 350V070 CAVOK 19/11 Q1023=
201909112000 METAR LRBM 112000Z 06003KT 360V110 CAVOK 18/11 Q1024=
201909112030 METAR LRBM 112030Z VRB01KT CAVOK 18/11 Q1024=
201909112100 METAR LRBM 112100Z 06003KT CAVOK 18/11 Q1024=
201909112130 METAR LRBM 112130Z AUTO 07004KT 9999 FEW013/// SCT210///
                        17/10 Q1024=
201909112200 METAR LRBM 112200Z AUTO 05003KT 9999 FEW015/// SCT220///
                        16/11 Q1024=
201909112230 METAR LRBM 112230Z AUTO 10007KT 9999 FEW015/// SCT230///
                        17/10 Q1025=
201909112300 METAR LRBM 112300Z AUTO 06004KT 9999 FEW014/// SCT240///
                        15/10 Q1024=
201909112330 METAR LRBM 112330Z AUTO 35001KT 9999 FEW025/// SCT230///
                        16/10 Q1024=
201909120000 METAR LRBM 120000Z AUTO VRB01KT 9999 FEW022/// SCT240///
                        15/09 Q1024=
201909120030 METAR LRBM 120030Z AUTO 00000KT 9999 FEW015/// SCT220///
                        15/09 Q1024=
201909120100 METAR LRBM 120100Z AUTO 02002KT 350V070 9999 FEW049/// SCT240///
                        16/09 Q1024=
201909120130 METAR LRBM 120130Z AUTO 00000KT 9999 FEW018/// SCT230///
                        15/09 Q1025=
201909120200 METAR LRBM 120200Z VRB01KT CAVOK 14/09 Q1025=
201909120230 METAR LRBM 120230Z 18003KT 150V220 CAVOK 13/09 Q1025=
201909120300 METAR LRBM 120300Z 13003KT 100V170 CAVOK 12/09 Q1025=
201909120330 METAR LRBM 120330Z 17004KT CAVOK 12/09 Q1025=
201909120400 METAR LRBM 120400Z 00000KT CAVOK 11/09 Q1025=
201909120430 METAR LRBM 120430Z 08005KT CAVOK 14/09 Q1025=
201909120500 METAR LRBM 120500Z 09007KT CAVOK 15/09 Q1025=
201909120530 METAR LRBM 120530Z 09007KT CAVOK 17/09 Q1026=
201909120600 METAR LRBM 120600Z 15005KT CAVOK 17/10 Q1026=
201909120630 METAR LRBM 120630Z 12003KT 090V150 CAVOK 19/10 Q1026=
201909120700 METAR LRBM 120700Z 16004KT CAVOK 21/10 Q1026=
201909120730 METAR LRBM 120730Z 16003KT 120V190 CAVOK 22/11 Q1026=
201909120800 METAR LRBM 120800Z 14003KT 090V190 CAVOK 24/10 Q1027=
201909120830 METAR LRBM 120830Z 13004KT 070V180 CAVOK 26/07 Q1027=
201909120900 METAR LRBM 120900Z 08004KT 040V110 CAVOK 25/07 Q1027=
201909120930 METAR LRBM 120930Z 36003KT 330V040 CAVOK 26/07 Q1027=
201909121000 METAR LRBM 121000Z 22005KT 170V260 9999 FEW045 27/06 Q1026=
201909121030 METAR LRBM 121030Z 19003KT 140V280 9999 FEW045 27/07 Q1026=
201909121100 METAR LRBM 121100Z VRB03KT 9999 FEW047 27/06 Q1026=
201909121130 METAR LRBM 121130Z 27005KT 220V300 9999 FEW047 27/07 Q1026=
201909121200 METAR LRBM 121200Z VRB02KT 9999 FEW047 28/07 Q1026=
201909121230 METAR LRBM 121230Z VRB03KT 9999 FEW047 29/07 Q1025=
201909121300 METAR LRBM 121300Z 24007KT 200V290 9999 FEW047 29/07 Q1025=
201909121330 METAR LRBM 121330Z 22006KT 9999 FEW050 29/05 Q1025=
201909121400 METAR LRBM 121400Z 27005KT 220V340 9999 FEW050 29/05 Q1025=
201909121430 METAR LRBM 121430Z 23006KT 210V270 9999 FEW050 29/04 Q1025=
201909121500 METAR LRBM 121500Z 26005KT 230V290 9999 FEW052 29/04 Q1025=
201909121530 METAR LRBM 121530Z 27006KT 9999 FEW055 28/04 Q1025=
201909121600 METAR LRBM 121600Z 29004KT CAVOK 27/06 Q1025=
201909121630 METAR LRBM 121630Z 34003KT 300V020 CAVOK 25/07 Q1025=
201909121700 METAR LRBM 121700Z 36004KT 320V030 CAVOK 23/08 Q1025=
201909121730 METAR LRBM 121730Z VRB03KT CAVOK 22/09 Q1025=
201909121800 METAR LRBM 121800Z 10003KT 040V170 CAVOK 20/10 Q1026=
201909121830 METAR LRBM 121830Z VRB01KT CAVOK 19/10 Q1026=
201909121900 METAR LRBM 121900Z 01002KT CAVOK 18/11 Q1026=
201909121930 METAR LRBM 121930Z 00000KT CAVOK 17/11 Q1026=
201909122000 METAR LRBM 122000Z 04002KT CAVOK 17/11 Q1026=
201909122030 METAR LRBM 122030Z 07003KT CAVOK 17/11 Q1026=
201909122100 METAR LRBM 122100Z 06002KT CAVOK 15/11 Q1027=
201909122130 METAR LRBM 122130Z AUTO 06002KT 020V090 9999 FEW015/// SCT230///
                        15/11 Q1027=
201909122200 METAR LRBM 122200Z AUTO 08003KT 9999 FEW015/// SCT210///
                        15/11 Q1027=
201909122230 METAR LRBM 122230Z AUTO 10002KT 9999 FEW100/// SCT220///
                        15/11 Q1027=
201909122300 METAR LRBM 122300Z AUTO 08004KT 9999 FEW060/// SCT200///
                        14/11 Q1027=
201909122330 METAR LRBM 122330Z AUTO 10003KT 9999 FEW019/// SCT210///
                        14/11 Q1027=
201909130000 METAR LRBM 130000Z AUTO 07002KT 9999 FEW041/// SCT210///
                        13/10 Q1027=
201909130030 METAR LRBM 130030Z AUTO VRB01KT 9999 FEW065/// SCT230///
                        12/10 Q1027=
201909130100 METAR LRBM 130100Z AUTO 12002KT 080V180 9999 FEW026/// SCT230///
                        12/10 Q1027=
201909130130 METAR LRBM 130130Z AUTO VRB01KT 9999 FEW019/// SCT230///
                        13/10 Q1027=
201909130200 METAR LRBM 130200Z VRB01KT CAVOK 12/10 Q1027=
201909130230 METAR LRBM 130230Z 00000KT CAVOK 11/09 Q1027=
201909130300 METAR LRBM 130300Z 10005KT CAVOK 12/10 Q1027=
201909130330 METAR LRBM 130330Z VRB01KT CAVOK 11/09 Q1027=
201909130400 METAR LRBM 130400Z 09005KT CAVOK 11/09 Q1028=
201909130430 METAR LRBM 130430Z 09004KT CAVOK 12/10 Q1028=
201909130500 METAR LRBM 130500Z VRB01KT CAVOK 12/10 Q1028=
201909130530 METAR LRBM 130530Z 15003KT CAVOK 13/11 Q1028=
201909130600 METAR LRBM 130600Z 15003KT CAVOK 15/11 Q1028=
201909130630 METAR LRBM 130630Z VRB02KT CAVOK 17/11 Q1028=
201909130700 METAR LRBM 130700Z VRB03KT CAVOK 18/12 Q1028=
201909130730 METAR LRBM 130730Z VRB02KT CAVOK 20/12 Q1028=
201909130800 METAR LRBM 130800Z VRB02KT CAVOK 22/12 Q1028=
201909130830 METAR LRBM 130830Z VRB02KT CAVOK 23/11 Q1028=
201909130900 METAR LRBM 130900Z VRB03KT CAVOK 24/11 Q1028=
201909130930 METAR LRBM 130930Z VRB03KT CAVOK 25/12 Q1028=
201909131000 METAR LRBM 131000Z VRB03KT 9999 FEW045 26/12 Q1027=
201909131030 METAR LRBM 131030Z 26006KT 220V330 9999 FEW047 26/10 Q1027=
201909131100 METAR LRBM 131100Z 27005KT 210V340 9999 FEW047 26/11 Q1027=
201909131130 METAR LRBM 131130Z 28006KT 9999 FEW047 27/10 Q1026=
201909131200 METAR LRBM 131200Z 29007KT 260V320 9999 SCT047 27/09 Q1026=
201909131230 METAR LRBM 131230Z 29006KT 250V010 9999 FEW047 27/08 Q1026=
201909131300 METAR LRBM 131300Z 31008KT 280V350 9999 FEW047 27/08 Q1026=
201909131330 METAR LRBM 131330Z 28009KT 260V320 9999 FEW050 27/08 Q1026=
201909131400 METAR LRBM 131400Z 28010KT CAVOK 27/08 Q1026=
201909131430 METAR LRBM 131430Z AUTO 27011KT 250V310 9999 FEW011/// SCT200///
                        27/07 Q1026=
201909131500 METAR LRBM 131500Z AUTO 30006KT 270V340 9999 FEW014/// SCT210///
                        27/08 Q1026=
201909131530 METAR LRBM 131530Z AUTO 28007KT 250V310 9999 FEW010/// SCT210///
                        26/08 Q1025=
201909131600 METAR LRBM 131600Z AUTO 29005KT 9999 FEW014/// SCT230///
                        25/08 Q1025=
201909131630 METAR LRBM 131630Z AUTO 30004KT 9999 FEW014/// SCT230///
                        24/08 Q1025=
201909131700 METAR LRBM 131700Z AUTO 35003KT 9999 FEW022/// SCT220///
                        22/09 Q1026=
201909131730 METAR LRBM 131730Z AUTO 35003KT 320V020 9999 FEW010/// SCT230///
                        21/10 Q1026=
201909131800 METAR LRBM 131800Z AUTO 34003KT 9999 FEW016/// SCT240///
                        20/10 Q1026=
201909131830 METAR LRBM 131830Z AUTO 33004KT 300V360 9999 FEW031/// SCT220///
                        20/10 Q1026=
201909131900 METAR LRBM 131900Z AUTO 35003KT 310V020 9999 FEW018/// SCT230///
                        18/10 Q1026=
201909131930 METAR LRBM 131930Z AUTO VRB01KT 9999 FEW011/// SCT230///
                        18/10 Q1027=
201909132000 METAR LRBM 132000Z AUTO 03003KT 010V070 9999 FEW013/// SCT230///
                        15/11 Q1027=
201909132030 METAR LRBM 132030Z AUTO 03003KT 9999 FEW012/// SCT220///
                        16/10 Q1027=
201909132100 METAR LRBM 132100Z AUTO 04002KT 9999 FEW015/// SCT210///
                        15/10 Q1027=
201909132130 METAR LRBM 132130Z AUTO VRB01KT 9999 FEW075/// SCT220///
                        15/10 Q1027=
201909132200 METAR LRBM 132200Z AUTO 00000KT 9999 FEW016/// SCT240///
                        15/10 Q1027=
201909132230 METAR LRBM 132230Z AUTO 09005KT 9999 FEW019/// SCT230///
                        14/10 Q1027=
201909132300 METAR LRBM 132300Z AUTO 10004KT 9999 FEW045/// SCT240///
                        14/10 Q1027=
201909132330 METAR LRBM 132330Z AUTO 11003KT 9999 FEW070/// SCT210///
                        13/10 Q1027=
201909140000 METAR LRBM 140000Z AUTO 05001KT 9999 FEW042/// SCT200///
                        12/10 Q1027=
201909140030 METAR LRBM 140030Z AUTO 09001KT 9999 FEW070/// SCT230///
                        12/10 Q1027=
201909140100 METAR LRBM 140100Z AUTO 27002KT 240V300 9999 FEW015/// SCT220///
                        11/10 Q1026=
201909140130 METAR LRBM 140130Z AUTO 00000KT 9999 FEW080/// SCT220///
                        11/10 Q1026=
201909140200 METAR LRBM 140200Z AUTO 09005KT 9999 FEW130/// SCT220///
                        13/10 Q1026=
201909140230 METAR LRBM 140230Z AUTO VRB01KT 9999 FEW065/// SCT200///
                        13/10 Q1026=
201909140300 METAR LRBM 140300Z AUTO 00000KT 9999 FEW014/// SCT240///
                        13/11 Q1026=
201909140330 METAR LRBM 140330Z AUTO 00000KT 9999 FEW065/// SCT230///
                        13/11 Q1027=
201909140400 METAR LRBM 140400Z AUTO 20002KT 9999 FEW080/// SCT220///
                        13/10 Q1027=
201909140430 METAR LRBM 140430Z AUTO 00000KT 9999 FEW038/// SCT240///
                        13/11 Q1027=
201909140500 METAR LRBM 140500Z 10004KT CAVOK 13/11 Q1027=
201909140530 METAR LRBM 140530Z 09002KT 9999 VCFG NSC 14/11 Q1027=
201909140600 METAR LRBM 140600Z 25002KT CAVOK 15/11 Q1027=
201909140630 METAR LRBM 140630Z 26004KT 220V290 CAVOK 16/11 Q1027=
201909140700 METAR LRBM 140700Z 26005KT 220V290 CAVOK 17/11 Q1027=
201909140730 METAR LRBM 140730Z 26004KT 220V300 9999 FEW040 19/12 Q1027=
201909140800 METAR LRBM 140800Z 27009KT 9999 FEW040 20/12 Q1027=
201909140830 METAR LRBM 140830Z 27013KT 9999 FEW040 22/12 Q1027=
201909140900 METAR LRBM 140900Z 27011KT 9999 FEW043 22/12 Q1027=
201909140930 METAR LRBM 140930Z 27009KT 9999 FEW043 23/12 Q1027=
201909141000 METAR LRBM 141000Z 29008KT 260V350 9999 FEW045 23/11 Q1027=
201909141030 METAR LRBM 141030Z 29007KT 270V350 9999 FEW045 24/10 Q1027=
201909141100 METAR LRBM 141100Z 27011KT 230V300 9999 FEW045 24/10 Q1026=
201909141130 METAR LRBM 141130Z 27011KT 240V320 9999 FEW045 24/10 Q1026=
201909141200 METAR LRBM 141200Z 26013KT 240V310 9999 FEW045 25/09 Q1026=
201909141230 METAR LRBM 141230Z 27012KT 9999 SCT045 25/08 Q1026=
201909141300 METAR LRBM 141300Z 27012KT 9999 SCT045 25/07 Q1026=
201909141330 METAR LRBM 141330Z AUTO 27014KT 250V310 9999 FEW013/// SCT230///
                        25/08 Q1026=
201909141400 METAR LRBM 141400Z AUTO 27014KT 9999 FEW011/// SCT210///
                        24/07 Q1026=
201909141430 METAR LRBM 141430Z AUTO 28012KT 260V320 9999 FEW014/// SCT220///
                        24/06 Q1026=
201909141500 METAR LRBM 141500Z AUTO 28010KT 9999 FEW014/// SCT230///
                        23/04 Q1026=
201909141530 METAR LRBM 141530Z AUTO 28010KT 250V310 9999 FEW033/// SCT200///
                        23/03 Q1026=
201909141600 METAR LRBM 141600Z AUTO 28009KT 9999 FEW060/// SCT230///
                        22/05 Q1026=
201909141630 METAR LRBM 141630Z AUTO 29005KT 9999 FEW130/// SCT220///
                        21/05 Q1026=
201909141700 METAR LRBM 141700Z AUTO 31003KT 280V340 9999 FEW110/// SCT240///
                        20/05 Q1026=
201909141730 METAR LRBM 141730Z AUTO 35003KT 9999 FEW065/// SCT200///
                        18/06 Q1026=
201909141800 METAR LRBM 141800Z AUTO 31003KT 280V350 9999 FEW080/// SCT230///
                        16/07 Q1027=
201909141830 METAR LRBM 141830Z AUTO VRB02KT 9999 FEW085/// SCT230///
                        15/06 Q1027=
201909141900 METAR LRBM 141900Z AUTO VRB01KT 9999 FEW100/// SCT240///
                        14/07 Q1027=
201909141930 METAR LRBM 141930Z AUTO 00000KT 9999 FEW090/// SCT230///
                        12/07 Q1028=
201909142000 METAR LRBM 142000Z AUTO 30002KT 9999 FEW050/// SCT190///
                        11/07 Q1028=
201909142030 METAR LRBM 142030Z AUTO 33004KT 300V360 9999 FEW080/// SCT240///
                        12/06 Q1028=
201909142100 METAR LRBM 142100Z AUTO 32003KT 280V020 9999 FEW095/// SCT220///
                        12/06 Q1028=
201909142130 METAR LRBM 142130Z AUTO 09004KT 9999 FEW080/// SCT220///
                        10/06 Q1028=
201909142200 METAR LRBM 142200Z AUTO 04001KT 9999 FEW080/// SCT200///
                        10/06 Q1028=
201909142230 METAR LRBM 142230Z AUTO VRB01KT 9999 FEW100/// SCT190///
                        09/06 Q1028=
201909142300 METAR LRBM 142300Z AUTO 03002KT 9999 FEW070/// SCT220///
                        09/06 Q1028=
201909142330 METAR LRBM 142330Z AUTO 02002KT 350V050 9999 FEW080/// SCT230///
                        08/06 Q1028=
201909150000 METAR LRBM 150000Z AUTO VRB01KT 9999 FEW090/// SCT210///
                        08/05 Q1028=
201909150030 METAR LRBM 150030Z AUTO 06003KT 030V100 9999 FEW095/// SCT210///
                        08/06 Q1028=
201909150100 METAR LRBM 150100Z AUTO 09003KT 9999 FEW095/// SCT230///
                        08/06 Q1028=
201909150130 METAR LRBM 150130Z AUTO 05003KT 010V080 9999 FEW070/// SCT220///
                        07/05 Q1028=
201909150200 METAR LRBM 150200Z AUTO 08002KT 9999 FEW070/// SCT210///
                        07/06 Q1028=
201909150230 METAR LRBM 150230Z AUTO 08003KT 9999 FEW080/// SCT190///
                        07/06 Q1028=
201909150300 METAR LRBM 150300Z AUTO 09002KT 060V130 9999 FEW090/// SCT190///
                        07/06 Q1028=
201909150330 METAR LRBM 150330Z AUTO 11003KT 070V150 9999 FEW075/// SCT220///
                        07/06 Q1028=
201909150400 METAR LRBM 150400Z AUTO 09004KT 9999 FEW095/// SCT240///
                        06/05 Q1028=
201909150430 METAR LRBM 150430Z AUTO 06004KT 9999 FEW090/// SCT240///
                        07/05 Q1028=
201909150500 METAR LRBM 150500Z AUTO 00000KT 9999 FEW095/// SCT230///
                        08/06 Q1028=
201909150530 METAR LRBM 150530Z AUTO VRB01KT 9999 FEW095/// SCT230///
                        10/07 Q1028=
201909150600 METAR LRBM 150600Z AUTO 17003KT 9999 FEW100/// SCT200///
                        11/08 Q1028=
201909150630 METAR LRBM 150630Z AUTO 22003KT 170V260 9999 FEW080/// SCT220///
                        11/07 Q1028=
201909150700 METAR LRBM 150700Z AUTO 19002KT 120V270 9999 FEW090/// SCT200///
                        13/08 Q1028=
201909150730 METAR LRBM 150730Z AUTO VRB01KT 9999 FEW090/// SCT200///
                        15/08 Q1028=
201909150800 METAR LRBM 150800Z AUTO VRB02KT 9999 FEW110/// SCT190///
                        17/07 Q1028=
201909150830 METAR LRBM 150830Z AUTO 15004KT 090V220 9999 FEW080/// SCT230///
                        18/07 Q1028=
201909150900 METAR LRBM 150900Z AUTO VRB04KT 9999 FEW019/// SCT200///
                        19/05 Q1027=
201909150930 METAR LRBM 150930Z AUTO VRB04KT 9999 FEW042/// SCT230///
                        19/04 Q1027=
201909151000 METAR LRBM 151000Z AUTO VRB04KT 9999 FEW013/// SCT190///
                        20/03 Q1027=
201909151030 METAR LRBM 151030Z AUTO VRB02KT 9999 FEW050/// SCT230///
                        21/00 Q1027=
201909151100 METAR LRBM 151100Z AUTO VRB04KT 9999 FEW012/// SCT200///
                        22/03 Q1026=
201909151130 METAR LRBM 151130Z AUTO VRB05KT 9999 FEW015/// SCT240///
                        22/03 Q1026=
201909151200 METAR LRBM 151200Z AUTO 23006KT 200V260 9999 FEW065/// SCT220///
                        22/02 Q1025=
201909151230 METAR LRBM 151230Z AUTO 28007KT 9999 FEW048/// SCT240///
                        23/03 Q1025=
201909151300 METAR LRBM 151300Z AUTO 29007KT 240V360 9999 FEW011/// SCT230///
                        23/04 Q1025=
201909151330 METAR LRBM 151330Z AUTO 30005KT 240V010 9999 FEW010/// SCT240///
                        23/03 Q1024=
201909151400 METAR LRBM 151400Z AUTO 29006KT 250V340 9999 FEW026/// SCT200///
                        23/03 Q1024=
201909151430 METAR LRBM 151430Z AUTO 29006KT 250V340 9999 FEW012/// SCT210///
                        23/03 Q1023=
201909151500 METAR LRBM 151500Z AUTO 29004KT 250V020 9999 FEW019/// SCT200///
                        23/03 Q1023=
201909151530 METAR LRBM 151530Z AUTO 30003KT 270V340 9999 FEW015/// SCT200///
                        23/04 Q1023=
201909151600 METAR LRBM 151600Z AUTO 31002KT 280V360 9999 FEW015/// SCT240///
                        22/04 Q1023=
201909151630 METAR LRBM 151630Z AUTO 01003KT 9999 FEW042/// SCT230///
                        19/07 Q1022=
201909151700 METAR LRBM 151700Z 03004KT CAVOK 17/06 Q1022=
201909151730 METAR LRBM 151730Z 02004KT 350V050 CAVOK 17/06 Q1022=
201909151800 METAR LRBM 151800Z 02004KT CAVOK 16/06 Q1022=
201909151830 METAR LRBM 151830Z 07003KT CAVOK 14/06 Q1022=
201909151900 METAR LRBM 151900Z 04003KT CAVOK 14/06 Q1022=
201909151930 METAR LRBM 151930Z 07003KT CAVOK 13/06 Q1022=
201909152000 METAR LRBM 152000Z 04003KT 010V090 CAVOK 14/06 Q1022=
201909152030 METAR LRBM 152030Z 05003KT 010V090 CAVOK 13/06 Q1022=
201909152100 METAR LRBM 152100Z 09003KT CAVOK 11/06 Q1022=
201909152130 METAR LRBM 152130Z AUTO 08004KT 9999 FEW120/// SCT220///
                        12/06 Q1022=
201909152200 METAR LRBM 152200Z AUTO 07004KT 9999 FEW035/// SCT220///
                        12/06 Q1022=
201909152230 METAR LRBM 152230Z AUTO 05003KT 360V080 9999 FEW080/// SCT200///
                        11/06 Q1022=
201909152300 METAR LRBM 152300Z AUTO 05004KT 9999 FEW095/// SCT200///
                        12/06 Q1022=
201909152330 METAR LRBM 152330Z AUTO 10002KT 9999 FEW095/// SCT220///
                        11/06 Q1021=
201909160000 METAR LRBM 160000Z AUTO 09002KT 040V110 9999 FEW065/// SCT190///
                        10/05 Q1021=
201909160030 METAR LRBM 160030Z AUTO 08006KT 9999 FEW080/// SCT220///
                        10/06 Q1021=
201909160100 METAR LRBM 160100Z AUTO 09002KT 9999 FEW085/// SCT240///
                        10/06 Q1021=
201909160130 METAR LRBM 160130Z AUTO 08004KT 9999 FEW070/// SCT200///
                        09/06 Q1021=
201909160200 METAR LRBM 160200Z 10005KT CAVOK 09/06 Q1021=
201909160230 METAR LRBM 160230Z 14003KT CAVOK 08/05 Q1021=
201909160300 METAR LRBM 160300Z 09004KT CAVOK 07/05 Q1021=
201909160330 METAR LRBM 160330Z 09005KT CAVOK 07/05 Q1020=
201909160400 METAR LRBM 160400Z 12003KT 090V230 9999 BKN050 08/06 Q1020=
201909160430 METAR LRBM 160430Z 11005KT 9999 BKN050 09/06 Q1020=
201909160500 METAR LRBM 160500Z 09004KT 9999 BKN052 10/07 Q1020=
201909160530 METAR LRBM 160530Z 11005KT 9999 BKN050 12/07 Q1020=
201909160600 METAR LRBM 160600Z 11004KT 090V160 9999 BKN052 12/07 Q1020=
201909160630 METAR LRBM 160630Z 12003KT 080V140 9999 BKN055 13/08 Q1020=
201909160700 METAR LRBM 160700Z 14004KT 110V180 9999 FEW055 15/08 Q1020=
201909160730 METAR LRBM 160730Z VRB01KT CAVOK 17/08 Q1020=
201909160800 METAR LRBM 160800Z 12003KT 070V170 CAVOK 19/06 Q1020=
201909160830 METAR LRBM 160830Z 12003KT 080V190 CAVOK 21/05 Q1020=
201909160900 METAR LRBM 160900Z 11004KT 070V140 CAVOK 22/05 Q1019=
201909160930 METAR LRBM 160930Z 16004KT 100V230 9999 FEW047 22/08 Q1019=
201909161000 METAR LRBM 161000Z VRB03KT 9999 FEW050 23/08 Q1019=
201909161030 METAR LRBM 161030Z 25004KT 170V340 CAVOK 23/09 Q1018=
201909161100 METAR LRBM 161100Z VRB03KT CAVOK 24/09 Q1018=
201909161130 METAR LRBM 161130Z VRB04KT CAVOK 25/09 Q1018=
201909161200 METAR LRBM 161200Z 22004KT 150V310 CAVOK 25/10 Q1017=
201909161230 METAR LRBM 161230Z VRB03KT CAVOK 25/10 Q1016=
201909161300 METAR LRBM 161300Z 30004KT 210V360 CAVOK 26/10 Q1016=
201909161330 METAR LRBM 161330Z VRB03KT CAVOK 25/10 Q1016=
201909161400 METAR LRBM 161400Z 25003KT CAVOK 26/10 Q1015=
201909161430 METAR LRBM 161430Z 23005KT 190V270 CAVOK 26/10 Q1015=
201909161500 METAR LRBM 161500Z 27007KT CAVOK 26/10 Q1015=
201909161530 METAR LRBM 161530Z 25007KT CAVOK 26/10 Q1014=
201909161600 METAR LRBM 161600Z 26004KT CAVOK 24/11 Q1014=
201909161630 METAR LRBM 161630Z VRB01KT CAVOK 23/12 Q1014=
201909161700 METAR LRBM 161700Z 03003KT CAVOK 21/13 Q1014=
201909161730 METAR LRBM 161730Z 06003KT CAVOK 20/12 Q1014=
201909161800 METAR LRBM 161800Z 04003KT CAVOK 20/12 Q1014=
201909161830 METAR LRBM 161830Z 03004KT CAVOK 20/12 Q1014=
201909161900 METAR LRBM 161900Z 05002KT CAVOK 20/12 Q1014=
201909161930 METAR LRBM 161930Z 06003KT CAVOK 18/12 Q1014=
201909162000 METAR LRBM 162000Z 07003KT CAVOK 18/12 Q1014=
201909162030 METAR LRBM 162030Z 07002KT CAVOK 18/13 Q1014=
201909162100 METAR LRBM 162100Z 06002KT CAVOK 18/12 Q1014=
201909162130 METAR LRBM 162130Z AUTO 05003KT 020V100 9999 FEW033/// SCT210///
                        17/12 Q1014=
201909162200 METAR LRBM 162200Z AUTO 08003KT 9999 FEW080/// SCT190///
                        16/12 Q1013=
201909162230 METAR LRBM 162230Z AUTO 07003KT 9999 FEW075/// SCT230///
                        16/12 Q1014=
201909162300 METAR LRBM 162300Z AUTO 04003KT 9999 FEW033/// SCT210///
                        16/12 Q1013=
201909162330 METAR LRBM 162330Z AUTO 07003KT 9999 FEW075/// SCT190///
                        16/12 Q1013=
201909170000 METAR LRBM 170000Z AUTO 08002KT 020V110 9999 FEW080/// SCT220///
                        15/12 Q1013=
201909170030 METAR LRBM 170030Z AUTO VRB01KT 9999 FEW085/// SCT190///
                        16/12 Q1013=
201909170100 METAR LRBM 170100Z AUTO 05002KT 020V080 9999 -RA FEW013///
                        SCT190/// 15/12 Q1013=
201909170130 METAR LRBM 170130Z AUTO 05003KT 340V080 9999 -RA FEW011///
                        SCT170/// 15/13 Q1013=
201909170200 METAR LRBM 170200Z 04002KT 9999 -RA FEW015 BKN035 15/13 Q1013=
201909170230 METAR LRBM 170230Z 05003KT 360V080 9999 -RA FEW012 BKN035
                        15/13 Q1013 R09/19//95=
201909170300 METAR LRBM 170300Z 08003KT 9999 FEW012 SCT040 15/13 Q1013
                        R09/19//95=
201909170330 METAR LRBM 170330Z 00000KT 9999 FEW040 15/13 Q1013 R09/19//95=
201909170400 METAR LRBM 170400Z 01002KT 9999 -RA SCT042 15/14 Q1013 R09/19//95=
201909170430 METAR LRBM 170430Z 13003KT 090V160 9999 -RA SCT045 15/14
                        Q1013 R09/19//95=
201909170500 METAR LRBM 170500Z 00000KT 9999 -RA SCT042 15/14 Q1014 R09/19//95=
201909170530 METAR LRBM 170530Z 03003KT 010V070 9999 -RA FEW045 16/14
                        Q1014 R09/19//95=
201909170600 METAR LRBM 170600Z 36002KT 9999 -RA FEW013 16/15 Q1014 R09/19//95=
201909170630 METAR LRBM 170630Z VRB01KT 8000 -RA FEW011 SCT050 16/15 Q1014
                        R09/19//95=
201909170700 METAR LRBM 170700Z 12002KT 8000 -RA FEW007 SCT031 16/15 Q1014
                        R09/19//95=
201909170730 METAR LRBM 170730Z 12004KT 090V150 9999 FEW007 SCT031 17/15
                        Q1014 R09/19//95=
201909170800 METAR LRBM 170800Z 13004KT 9999 FEW010 SCT030 16/14 Q1014
                        R09/19//95=
201909170830 METAR LRBM 170830Z 11004KT 9999 FEW012 SCT035 16/14 Q1014
                        R09/19//95=
201909170900 METAR LRBM 170900Z 09004KT 050V110 9999 FEW013 SCT040 17/15
                        Q1014 R09/19//95=
201909170930 METAR LRBM 170930Z 09004KT 9999 FEW013 SCT040 17/14 Q1014
                        R09/19//95=
201909171000 METAR LRBM 171000Z 12003KT 9999 FEW015 SCT045 17/14 Q1013
                        R09/19//95=
201909171030 METAR LRBM 171030Z 11005KT 9999 FEW017 BKN048 18/14 Q1013
                        R09/19//95=
201909171100 METAR LRBM 171100Z 08005KT 9999 FEW022 BKN048 18/14 Q1013
                        R09/19//95=
201909171130 METAR LRBM 171130Z 09006KT 9999 -SHRA SCT028 FEW032CB 18/14
                        Q1013 R09/19//95=
201909171200 METAR LRBM 171200Z 06005KT 020V090 9999 SCT030 FEW032CB 19/14
                        Q1012 R09/19//95=
201909171230 METAR COR LRBM 171230Z 08004KT 010V110 9999 -SHRA SCT030
                        FEW032CB 19/14 Q1012 R09/19//95=
201909171300 METAR LRBM 171300Z 04003KT 9999 SCT034 FEW036CB 19/14 Q1012
                        R09/19//95=
201909171330 METAR LRBM 171330Z 06003KT 040V100 9999 VCSH SCT036 FEW038CB
                        19/15 Q1011 R09/19//95=
201909171400 METAR LRBM 171400Z 15003KT 110V180 9999 -SHRA FEW034CB BKN036
                        19/15 Q1011 R09/19//95=
201909171430 METAR LRBM 171430Z VRB01KT 9999 FEW034TCU SCT036 19/14 Q1011
                        R09/19//95=
201909171500 METAR LRBM 171500Z 14001KT 9999 FEW036TCU 19/15 Q1011 R09/19//95=
201909171530 METAR LRBM 171530Z 11004KT 9999 SCT040 18/15 Q1011 R09/19//95=
201909171600 METAR LRBM 171600Z 09004KT 060V120 9999 SCT042 17/15 Q1010
                        R09/19//95=
201909171630 METAR LRBM 171630Z 10004KT 9999 -SHRA SCT040CB 17/16 Q1010
                        R09/19//95=
201909171700 METAR LRBM 171700Z 06003KT 030V110 9999 FEW012 SCT044 17/15
                        Q1010 R09/19//95=
201909171730 METAR LRBM 171730Z 06004KT 350V100 9999 FEW012 SCT045 17/15
                        Q1011 R09/19//95=
201909171800 METAR LRBM 171800Z VRB03KT 9999 SCT045 17/15 Q1011 R09/19//95=
201909171830 METAR LRBM 171830Z VRB01KT 9999 SCT048 17/14 Q1011 R09/19//95=
201909171900 METAR LRBM 171900Z VRB02KT 9999 SCT048 16/14 Q1011 R09/19//95=
201909171930 METAR LRBM 171930Z VRB02KT 9999 FEW012 SCT048 15/14 Q1011
                        R09/19//95=
201909172000 METAR LRBM 172000Z VRB01KT 9999 BKN048 15/14 Q1011 R09/19//95=
201909172030 METAR LRBM 172030Z VRB01KT 9999 BKN048 15/13 Q1011 R09/19//95=
201909172100 METAR LRBM 172100Z 26003KT 190V310 9999 BKN043 16/12 Q1011
                        R09/19//95=
201909172130 METAR LRBM 172130Z AUTO 28005KT 260V320 9999 FEW044/// SCT120///
                        17/12 Q1011=
201909172200 METAR LRBM 172200Z AUTO 28007KT 9999 FEW050/// SCT170///
                        BKN240/// 16/12 Q1011=
201909172230 METAR LRBM 172230Z AUTO 29005KT 9999 FEW100/// SCT210///
                        16/12 Q1011=
201909172300 METAR LRBM 172300Z AUTO 30005KT 9999 FEW100/// SCT240///
                        15/11 Q1011=
201909172330 METAR LRBM 172330Z AUTO 29005KT 9999 FEW075/// SCT230///
                        15/11 Q1011=
201909180000 METAR LRBM 180000Z AUTO 29006KT 9999 FEW041/// SCT180///
                        BKN240/// 15/11 Q1011=
201909180030 METAR LRBM 180030Z AUTO 29005KT 9999 FEW040/// SCT180///
                        BKN240/// 15/11 Q1011=
201909180100 METAR LRBM 180100Z AUTO 30006KT 270V330 9999 FEW050/// SCT200///
                        14/11 Q1012=
201909180130 METAR LRBM 180130Z AUTO 30006KT 9999 FEW031/// SCT160///
                        14/11 Q1012=
201909180200 METAR LRBM 180200Z 30007KT 9999 SCT032 14/11 Q1012=
201909180230 METAR LRBM 180230Z 29008KT 9999 SCT030 14/11 Q1012=
201909180300 METAR LRBM 180300Z 28010KT 9999 SCT030 13/09 Q1012=
201909180330 METAR LRBM 180330Z 27011KT 9999 FEW046 13/07 Q1013=
201909180400 METAR LRBM 180400Z 27011KT 9999 BKN030 12/05 Q1013=
201909180430 METAR LRBM 180430Z 28009KT 9999 BKN036 12/05 Q1014=
201909180500 METAR LRBM 180500Z 26010KT 9999 BKN043 12/07 Q1015=
201909180530 METAR LRBM 180530Z 27010KT 9999 SCT046 12/05 Q1015=
201909180600 METAR LRBM 180600Z 27010KT 9999 FEW053 12/05 Q1016=
201909180630 METAR LRBM 180630Z 28010KT CAVOK 13/03 Q1016=
201909180700 METAR LRBM 180700Z 29009KT 260V340 CAVOK 13/02 Q1017=
201909180730 METAR LRBM 180730Z 28010KT CAVOK 14/00 Q1017=
201909180800 METAR LRBM 180800Z 30010KT 260V360 CAVOK 14/M00 Q1018=
201909180830 METAR LRBM 180830Z 28011KT 260V330 CAVOK 15/M00 Q1018=
201909180900 METAR LRBM 180900Z 28015KT CAVOK 15/M01 Q1018=
201909180930 METAR LRBM 180930Z 29014KT 260V320 CAVOK 16/M02 Q1018=
201909181000 METAR LRBM 181000Z 32013KT 290V010 CAVOK 16/M02 Q1018=
201909181030 METAR LRBM 181030Z 28015KT 260V320 9999 FEW050 16/M02 Q1018=
201909181100 METAR LRBM 181100Z 30012KT 270V340 9999 SCT050 16/M01 Q1019=
201909181130 METAR LRBM 181130Z 29010KT 260V320 9999 SCT053 16/M01 Q1019=
201909181200 METAR LRBM 181200Z 27014KT 9999 SCT053 17/M01 Q1019=
201909181230 METAR LRBM 181230Z 28013KT 260V320 9999 SCT053 17/M01 Q1019=
201909181300 METAR LRBM 181300Z 30010G21KT 270V010 9999 FEW053 17/M01
                        Q1019=
201909181330 METAR LRBM 181330Z 29012KT 9999 FEW053 17/M01 Q1019=
201909181400 METAR LRBM 181400Z 29010KT 260V320 9999 FEW055 17/M01 Q1019=
201909181430 METAR LRBM 181430Z 28011KT 9999 FEW055 16/M01 Q1020=
201909181500 METAR LRBM 181500Z 27010KT CAVOK 16/M01 Q1020=
201909181530 METAR LRBM 181530Z 29009KT 260V340 CAVOK 16/M01 Q1020=
201909181600 METAR LRBM 181600Z 29006KT 270V340 CAVOK 15/M01 Q1020=
201909181630 METAR LRBM 181630Z 32004KT 300V360 CAVOK 14/M01 Q1020=
201909181700 METAR LRBM 181700Z 02002KT CAVOK 12/02 Q1020=
201909181730 METAR LRBM 181730Z 04002KT CAVOK 10/01 Q1021=
201909181800 METAR LRBM 181800Z 02002KT CAVOK 08/02 Q1021=
201909181830 METAR LRBM 181830Z 05005KT 020V090 CAVOK 09/01 Q1021=
201909181900 METAR LRBM 181900Z 02005KT CAVOK 09/01 Q1022=
201909181930 METAR LRBM 181930Z 02003KT CAVOK 09/01 Q1022=
201909182000 METAR LRBM 182000Z 07003KT 330V140 CAVOK 08/01 Q1022=
201909182030 METAR LRBM 182030Z 02004KT CAVOK 08/01 Q1022=
201909182100 METAR LRBM 182100Z 14003KT 020V160 CAVOK 06/01 Q1022=
201909182130 METAR LRBM 182130Z AUTO 05003KT 350V130 9999 FEW080/// SCT240///
                        07/01 Q1022=
201909182200 METAR LRBM 182200Z AUTO 04003KT 360V100 9999 FEW070/// SCT200///
                        07/02 Q1022=
201909182230 METAR LRBM 182230Z AUTO VRB02KT 9999 FEW120/// SCT240///
                        06/01 Q1022=
201909182300 METAR LRBM 182300Z AUTO 06002KT 010V150 9999 FEW075/// SCT210///
                        04/01 Q1022=
201909182330 METAR LRBM 182330Z AUTO 06004KT 9999 FEW075/// SCT230///
                        05/01 Q1022=
201909190000 METAR LRBM 190000Z AUTO 05004KT 030V110 9999 FEW090/// SCT230///
                        07/01 Q1022=
201909190030 METAR LRBM 190030Z AUTO 06004KT 9999 FEW042/// SCT210///
                        05/02 Q1022=
201909190100 METAR LRBM 190100Z AUTO VRB01KT 9999 FEW075/// SCT240///
                        06/02 Q1022=
201909190130 METAR LRBM 190130Z AUTO 10007KT 9999 FEW075/// SCT230///
                        06/02 Q1022=
201909190200 METAR LRBM 190200Z 08007KT 9999 BKN060 06/02 Q1022=
201909190230 METAR LRBM 190230Z 10005KT 9999 SCT060 04/02 Q1022=
201909190300 METAR LRBM 190300Z 07003KT 9999 SCT060 05/01 Q1022=
201909190330 METAR LRBM 190330Z 16003KT 9999 BKN056 04/02 Q1022=
201909190400 METAR LRBM 190400Z 16004KT 9999 BKN056 04/02 Q1022=
201909190430 METAR LRBM 190430Z VRB02KT 9999 BKN050 03/01 Q1022=
201909190500 METAR LRBM 190500Z VRB01KT 9999 BKN050 04/02 Q1022=
201909190530 METAR LRBM 190530Z 09002KT 9999 SCT053 06/03 Q1023=
201909190600 METAR LRBM 190600Z 11001KT 9999 FEW053 06/02 Q1023=
201909190630 METAR LRBM 190630Z VRB02KT 9999 SCT053 07/03 Q1023=
201909190700 METAR LRBM 190700Z VRB02KT 9999 SCT056 10/02 Q1023=
201909190730 METAR LRBM 190730Z VRB02KT 9999 FEW053 11/02 Q1023=
201909190800 METAR LRBM 190800Z VRB03KT 9999 FEW045 12/02 Q1023=
201909190830 METAR LRBM 190830Z VRB04KT 9999 FEW045 14/02 Q1023=
201909190900 METAR LRBM 190900Z 27010KT 9999 FEW043 16/M00 Q1023=
201909190930 METAR LRBM 190930Z 31007KT 270V010 9999 FEW045 16/M00 Q1023=
201909191000 METAR LRBM 191000Z 31009KT 9999 SCT045 15/M00 Q1023=
201909191030 METAR LRBM 191030Z 31008KT 270V340 9999 SCT045 16/M01 Q1022=
201909191100 METAR LRBM 191100Z 30007KT 250V360 9999 SCT045 17/M00 Q1022=
201909191130 METAR LRBM 191130Z 31009KT 280V350 9999 -RA SCT045 16/01
                        Q1022=
201909191200 METAR LRBM 191200Z 26008KT 240V300 9999 SCT045 16/M01 Q1022=
201909191230 METAR LRBM 191230Z 28011KT 9999 SCT045 16/M01 Q1022=
201909191300 METAR LRBM 191300Z 27009KT 240V310 9999 SCT045 17/M01 Q1022=
201909191330 METAR LRBM 191330Z 26012KT 9999 SCT045 17/M00 Q1022=
201909191400 METAR LRBM 191400Z 31008KT 270V340 9999 FEW045 17/M01 Q1022=
201909191430 METAR LRBM 191430Z 30004KT 9999 FEW045 16/M01 Q1022=
201909191500 METAR LRBM 191500Z 31006KT 270V350 CAVOK 17/M01 Q1022=
201909191530 METAR LRBM 191530Z 27011KT CAVOK 16/M02 Q1022=
201909191600 METAR LRBM 191600Z 28006KT 260V320 CAVOK 15/M02 Q1022=
201909191630 METAR LRBM 191630Z 28004KT CAVOK 14/M02 Q1022=
201909191700 METAR LRBM 191700Z 32005KT 290V350 CAVOK 14/M01 Q1022=
201909191730 METAR LRBM 191730Z 35005KT 310V040 CAVOK 13/M00 Q1022=
201909191800 METAR LRBM 191800Z 35005KT 320V050 CAVOK 13/00 Q1022=
201909191830 METAR LRBM 191830Z 30005KT 250V030 CAVOK 11/01 Q1023=
201909191900 METAR LRBM 191900Z 07002KT CAVOK 09/01 Q1023=
201909191930 METAR LRBM 191930Z VRB01KT CAVOK 09/01 Q1023=
201909192000 METAR LRBM 192000Z 02003KT CAVOK 08/01 Q1024=
201909192030 METAR LRBM 192030Z 36002KT CAVOK 07/02 Q1024=
201909192100 METAR LRBM 192100Z 00000KT CAVOK 07/02 Q1024=
201909192130 METAR LRBM 192130Z AUTO 27003KT 250V310 9999 FEW080/// SCT210///
                        06/02 Q1024=
201909192200 METAR LRBM 192200Z AUTO 00000KT 9999 FEW013/// SCT200///
                        05/02 Q1024=
201909192230 METAR LRBM 192230Z AUTO 09002KT 9999 FEW027/// SCT230///
                        05/02 Q1024=
201909192300 METAR LRBM 192300Z AUTO VRB01KT 9999 FEW021/// SCT230///
                        05/02 Q1024=
201909192330 METAR LRBM 192330Z AUTO 00000KT 9999 FEW049/// SCT230///
                        04/02 Q1024=
201909200000 METAR LRBM 200000Z AUTO 07002KT 030V110 9999 FEW017/// SCT220///
                        04/01 Q1024=
201909200030 METAR LRBM 200030Z AUTO 07002KT 9999 FEW075/// SCT210///
                        03/02 Q1024=
201909200100 METAR LRBM 200100Z AUTO VRB01KT 9999 FEW023/// SCT240///
                        03/01 Q1024=
201909200130 METAR LRBM 200130Z AUTO 02002KT 340V060 9999 FEW060/// SCT220///
                        02/01 Q1024=
201909200200 METAR LRBM 200200Z 08002KT CAVOK 02/01 Q1024=
201909200230 METAR LRBM 200230Z 07002KT CAVOK 02/01 Q1024=
201909200300 METAR LRBM 200300Z 08002KT CAVOK 02/01 Q1025=
201909200330 METAR LRBM 200330Z 07003KT 030V090 CAVOK 02/00 Q1025=
201909200400 METAR LRBM 200400Z 05002KT CAVOK 01/00 Q1025=
201909200430 METAR LRBM 200430Z 00000KT CAVOK 01/00 Q1025=
201909200500 METAR LRBM 200500Z 09004KT CAVOK 02/00 Q1025=
201909200530 METAR LRBM 200530Z 07002KT CAVOK 04/02 Q1025=
201909200600 METAR LRBM 200600Z VRB01KT CAVOK 05/02 Q1025=
201909200630 METAR LRBM 200630Z VRB02KT CAVOK 06/03 Q1025=
201909200700 METAR LRBM 200700Z 27003KT 200V310 CAVOK 07/03 Q1025=
201909200730 METAR LRBM 200730Z 26006KT 220V320 9999 FEW040 08/04 Q1026=
201909200800 METAR LRBM 200800Z 27006KT 230V310 9999 FEW040 11/04 Q1025=
201909200830 METAR LRBM 200830Z 28009KT 9999 FEW040 13/03 Q1025=
201909200900 METAR LRBM 200900Z 27012KT 9999 SCT043 13/02 Q1025=
201909200930 METAR LRBM 200930Z 26014KT 9999 SCT045 14/02 Q1025=
201909201000 METAR LRBM 201000Z 29010KT 260V320 9999 SCT045 14/01 Q1025=
201909201030 METAR LRBM 201030Z 27012KT 250V310 9999 SCT045 14/01 Q1025=
201909201100 METAR LRBM 201100Z 28010KT 250V340 9999 BKN045 15/M02 Q1025=
201909201130 METAR LRBM 201130Z 26017KT 9999 BKN045 16/M02 Q1024=
201909201200 METAR LRBM 201200Z 28011KT 220V310 9999 BKN047 16/M03 Q1024=
201909201230 METAR LRBM 201230Z 28009KT 260V320 9999 BKN047 16/M03 Q1024=
201909201300 METAR LRBM 201300Z 27009KT 9999 BKN047 15/M02 Q1024=
201909201330 METAR LRBM 201330Z 29011KT 9999 BKN047 16/M03 Q1024=
201909201400 METAR LRBM 201400Z 28012KT 250V310 9999 SCT047 15/M03 Q1024=
201909201430 METAR LRBM 201430Z AUTO 28010KT 9999 FEW047/// SCT240///
                        15/M03 Q1024=
201909201500 METAR LRBM 201500Z AUTO 28011KT 9999 FEW060/// SCT210///
                        15/M03 Q1024=
201909201530 METAR LRBM 201530Z AUTO 28009KT 260V320 9999 FEW095/// SCT210///
                        15/M03 Q1024=
201909201600 METAR LRBM 201600Z AUTO 29007KT 9999 FEW016/// SCT230///
                        14/M03 Q1025=
201909201630 METAR LRBM 201630Z AUTO 29003KT 270V330 9999 FEW037/// SCT230///
                        13/M02 Q1025=
201909201700 METAR LRBM 201700Z AUTO 28003KT 9999 FEW070/// SCT230///
                        12/M01 Q1025=
201909201730 METAR LRBM 201730Z AUTO 28003KT 240V320 9999 FEW013/// SCT230///
                        10/00 Q1025=
201909201800 METAR LRBM 201800Z AUTO 30002KT 260V350 9999 FEW047/// SCT230///
                        09/01 Q1026=
201909201830 METAR LRBM 201830Z AUTO 35003KT 9999 FEW085/// SCT220///
                        09/01 Q1026=
201909201900 METAR LRBM 201900Z AUTO 35003KT 290V010 9999 FEW090/// SCT240///
                        09/01 Q1026=
201909201930 METAR LRBM 201930Z AUTO VRB01KT 9999 FEW085/// SCT240///
                        08/01 Q1026=
201909202000 METAR LRBM 202000Z AUTO 09002KT 9999 FEW070/// SCT200///
                        07/01 Q1026=
201909202030 METAR LRBM 202030Z AUTO VRB01KT 9999 FEW043/// SCT230///
                        07/01 Q1026=
201909202100 METAR LRBM 202100Z AUTO 11002KT 090V160 9999 FEW065/// SCT240///
                        05/01 Q1026=
201909202130 METAR LRBM 202130Z AUTO 06002KT 9999 FEW085/// SCT230///
                        06/01 Q1026=
201909202200 METAR LRBM 202200Z AUTO 04004KT 9999 FEW075/// SCT230///
                        05/01 Q1027=
201909202230 METAR LRBM 202230Z AUTO VRB01KT 9999 FEW075/// SCT220///
                        04/02 Q1027=
201909202300 METAR LRBM 202300Z AUTO 07002KT 9999 FEW070/// SCT220///
                        04/01 Q1027=
201909202330 METAR LRBM 202330Z AUTO 06003KT 9999 FEW090/// SCT210///
                        04/02 Q1027=
201909210000 METAR LRBM 210000Z AUTO 06002KT 9999 FEW060/// SCT200///
                        05/02 Q1027=
201909210030 METAR LRBM 210030Z AUTO VRB02KT 9999 FEW075/// SCT210///
                        05/02 Q1027=
201909210100 METAR LRBM 210100Z AUTO 08004KT 050V110 9999 FEW075/// SCT210///
                        05/02 Q1027=
201909210130 METAR LRBM 210130Z AUTO 12003KT 090V160 9999 FEW085/// SCT230///
                        04/01 Q1027=
201909210200 METAR LRBM 210200Z AUTO 06001KT 9999 FEW060/// SCT230///
                        04/02 Q1027=
201909210230 METAR LRBM 210230Z AUTO 08002KT 040V100 9999 FEW060/// SCT200///
                        04/01 Q1027=
201909210300 METAR LRBM 210300Z AUTO 08003KT 9999 FEW065/// SCT210///
                        03/02 Q1027=
201909210330 METAR LRBM 210330Z AUTO 08003KT 9999 FEW070/// SCT230///
                        03/01 Q1027=
201909210400 METAR LRBM 210400Z AUTO 14002KT 110V170 9999 FEW027/// SCT220///
                        02/01 Q1028=
201909210430 METAR LRBM 210430Z AUTO 08003KT 040V100 9999 FEW014/// SCT200///
                        02/01 Q1028=
201909210500 METAR LRBM 210500Z 10005KT CAVOK 03/02 Q1028=
201909210530 METAR LRBM 210530Z 10005KT CAVOK 05/02 Q1028=
201909210600 METAR LRBM 210600Z 13002KT CAVOK 06/02 Q1028=
201909210630 METAR LRBM 210630Z 11002KT CAVOK 09/03 Q1028=
201909210700 METAR LRBM 210700Z 11004KT CAVOK 10/02 Q1028=
201909210730 METAR LRBM 210730Z 14003KT CAVOK 11/02 Q1028=
201909210800 METAR LRBM 210800Z VRB02KT CAVOK 12/02 Q1028=
201909210830 METAR LRBM 210830Z 21003KT CAVOK 13/03 Q1028=
201909210900 METAR LRBM 210900Z VRB03KT CAVOK 14/02 Q1028=
201909210930 METAR LRBM 210930Z 24004KT 200V300 9999 FEW040 15/01 Q1028=
201909211000 METAR LRBM 211000Z 24006KT 160V280 9999 FEW040 16/01 Q1028=
201909211030 METAR LRBM 211030Z 24005KT 140V300 9999 FEW040 16/00 Q1027=
201909211100 METAR LRBM 211100Z 25010KT 9999 FEW045 17/00 Q1027=
201909211130 METAR LRBM 211130Z 23009KT 9999 FEW045 17/M00 Q1027=
201909211200 METAR LRBM 211200Z 27010KT 9999 FEW045 17/M00 Q1027=
201909211230 METAR LRBM 211230Z VRB06KT 9999 FEW055 17/00 Q1026=
201909211300 METAR LRBM 211300Z 28007KT 230V310 9999 FEW055 17/M00 Q1026=
201909211330 METAR LRBM 211330Z AUTO 27006KT 230V320 9999 FEW012/// SCT210///
                        18/00 Q1026=
201909211400 METAR LRBM 211400Z AUTO 26006KT 9999 FEW013/// SCT200///
                        18/00 Q1026=
201909211430 METAR LRBM 211430Z AUTO 26004KT 230V290 9999 FEW023/// SCT230///
                        18/00 Q1025=
201909211500 METAR LRBM 211500Z AUTO 27006KT 9999 FEW017/// SCT240///
                        18/00 Q1025=
201909211530 METAR LRBM 211530Z AUTO 28005KT 260V330 9999 FEW013/// SCT230///
                        17/00 Q1025=
201909211600 METAR LRBM 211600Z AUTO 29003KT 9999 FEW013/// SCT220///
                        16/02 Q1025=
201909211630 METAR LRBM 211630Z AUTO 36003KT 340V050 9999 FEW018/// SCT230///
                        14/03 Q1025=
201909211700 METAR LRBM 211700Z AUTO 02003KT 350V050 9999 FEW014/// SCT200///
                        13/03 Q1025=
201909211730 METAR LRBM 211730Z AUTO 01004KT 330V050 9999 FEW011/// SCT190///
                        12/03 Q1025=
201909211800 METAR LRBM 211800Z AUTO 03004KT 340V070 9999 FEW015/// SCT200///
                        12/03 Q1025=
201909211830 METAR LRBM 211830Z AUTO VRB02KT 9999 FEW023/// SCT220///
                        10/03 Q1025=
201909211900 METAR LRBM 211900Z AUTO 03004KT 9999 FEW034/// SCT230///
                        10/03 Q1025=
201909211930 METAR LRBM 211930Z AUTO 06004KT 9999 FEW014/// SCT220///
                        10/03 Q1026=
201909212000 METAR LRBM 212000Z AUTO 04004KT 9999 FEW120/// SCT240///
                        09/03 Q1025=
201909212030 METAR LRBM 212030Z AUTO 05003KT 9999 FEW075/// SCT230///
                        09/03 Q1025=
201909212100 METAR LRBM 212100Z AUTO 07003KT 9999 FEW080/// SCT230///
                        09/03 Q1025=
201909212130 METAR LRBM 212130Z AUTO 09002KT 050V110 9999 FEW028/// SCT210///
                        07/03 Q1025=
201909212200 METAR LRBM 212200Z AUTO 10004KT 9999 FEW045/// SCT210///
                        07/03 Q1025=
201909212230 METAR LRBM 212230Z AUTO 08004KT 9999 FEW025/// SCT210///
                        07/03 Q1025=
201909212300 METAR LRBM 212300Z AUTO 06004KT 9999 FEW014/// SCT210///
                        08/03 Q1025=
201909212330 METAR LRBM 212330Z AUTO 09003KT 9999 FEW033/// SCT240///
                        07/03 Q1025=
201909220000 METAR LRBM 220000Z AUTO 08006KT 9999 FEW014/// SCT230///
                        06/03 Q1025=
201909220030 METAR LRBM 220030Z AUTO 09006KT 9999 FEW042/// SCT210///
                        05/02 Q1025=
201909220100 METAR LRBM 220100Z AUTO 08006KT 050V110 9999 FEW018/// SCT230///
                        06/03 Q1025=
201909220130 METAR LRBM 220130Z AUTO 08005KT 040V110 9999 FEW012/// SCT200///
                        06/03 Q1024=
201909220200 METAR LRBM 220200Z AUTO 09007KT 9999 FEW018/// SCT210///
                        06/03 Q1024=
201909220230 METAR LRBM 220230Z AUTO 09006KT 9999 FEW044/// SCT240///
                        04/02 Q1024=
201909220300 METAR LRBM 220300Z AUTO 09006KT 9999 FEW060/// SCT210///
                        04/02 Q1024=
201909220330 METAR LRBM 220330Z AUTO 09006KT 9999 FEW095/// SCT220///
                        06/02 Q1024=
201909220400 METAR LRBM 220400Z AUTO 10005KT 9999 FEW046/// SCT230///
                        04/02 Q1024=
201909220430 METAR LRBM 220430Z AUTO 09004KT 040V120 9999 FEW013/// SCT240///
                        05/02 Q1024=
201909220500 METAR LRBM 220500Z AUTO 09005KT 9999 FEW070/// SCT230///
                        05/03 Q1024=
201909220530 METAR LRBM 220530Z AUTO 14003KT 110V180 9999 FEW019/// SCT220///
                        06/03 Q1024=
201909220600 METAR LRBM 220600Z AUTO 10003KT 080V140 9999 FEW100/// SCT220///
                        08/04 Q1024=
201909220630 METAR LRBM 220630Z AUTO 14003KT 110V170 9999 FEW014/// SCT210///
                        10/04 Q1024=
201909220700 METAR LRBM 220700Z AUTO 11003KT 080V150 9999 FEW015/// SCT230///
                        12/04 Q1024=
201909220730 METAR LRBM 220730Z AUTO 13003KT 090V200 9999 FEW035/// SCT210///
                        14/04 Q1024=
201909220800 METAR LRBM 220800Z AUTO 11004KT 9999 FEW014/// SCT210///
                        16/03 Q1023=
201909220830 METAR LRBM 220830Z AUTO 12004KT 080V190 9999 FEW013/// SCT230///
                        17/02 Q1023=
201909220900 METAR LRBM 220900Z AUTO 09004KT 040V140 9999 FEW015/// SCT210///
                        18/01 Q1023=
201909220930 METAR LRBM 220930Z AUTO VRB04KT 9999 FEW012/// SCT200///
                        19/01 Q1022=
201909221000 METAR LRBM 221000Z AUTO VRB04KT 9999 FEW015/// SCT230///
                        20/01 Q1022=
201909221030 METAR LRBM 221030Z AUTO 18003KT 100V270 9999 FEW021/// SCT210///
                        20/01 Q1021=
201909221100 METAR LRBM 221100Z AUTO VRB03KT 9999 FEW016/// SCT200///
                        21/01 Q1021=
201909221130 METAR LRBM 221130Z AUTO 19005KT 100V250 9999 FEW013/// SCT170///
                        BKN240/// 21/01 Q1020=
201909221200 METAR COR LRBM 221200Z VRB03KT CAVOK 21/01 Q1020=
201909221230 METAR LRBM 221230Z VRB02KT CAVOK 22/01 Q1020=
201909221300 METAR LRBM 221300Z 06004KT 320V110 CAVOK 22/01 Q1019=
201909221330 METAR LRBM 221330Z 12005KT 090V260 CAVOK 22/01 Q1018=
201909221400 METAR LRBM 221400Z 09003KT CAVOK 22/01 Q1018=
201909221430 METAR LRBM 221430Z VRB03KT CAVOK 22/01 Q1018=
201909221500 METAR LRBM 221500Z 09004KT CAVOK 22/01 Q1018=
201909221530 METAR LRBM 221530Z 12002KT CAVOK 22/01 Q1018=
201909221600 METAR LRBM 221600Z 08002KT CAVOK 20/03 Q1017=
201909221630 METAR LRBM 221630Z 02003KT CAVOK 16/04 Q1017=
201909221700 METAR LRBM 221700Z 03003KT 350V070 CAVOK 14/04 Q1017=
201909221730 METAR LRBM 221730Z 01004KT 340V050 CAVOK 15/04 Q1017=
201909221800 METAR LRBM 221800Z 02005KT CAVOK 15/03 Q1017=
201909221830 METAR LRBM 221830Z 04003KT 010V080 CAVOK 13/03 Q1017=
201909221900 METAR LRBM 221900Z 05002KT CAVOK 12/04 Q1017=
201909221930 METAR LRBM 221930Z 05002KT CAVOK 12/04 Q1017=
201909222000 METAR LRBM 222000Z 08001KT CAVOK 11/04 Q1017=
201909222030 METAR LRBM 222030Z 09001KT CAVOK 11/04 Q1017=
201909222100 METAR LRBM 222100Z 10002KT CAVOK 10/04 Q1017=
201909222130 METAR LRBM 222130Z AUTO 06003KT 9999 FEW075/// SCT210///
                        ///// Q1017=
201909222200 METAR LRBM 222200Z AUTO 10003KT 9999 FEW085/// SCT220///
                        09/04 Q1017=
201909222230 METAR LRBM 222230Z AUTO 07006KT 9999 FEW016/// SCT230///
                        10/04 Q1017=
201909222300 METAR LRBM 222300Z AUTO 08005KT 9999 FEW013/// SCT210///
                        10/04 Q1017=
201909222330 METAR LRBM 222330Z AUTO 09007KT 060V120 9999 FEW050/// SCT240///
                        10/04 Q1017=
201909230000 METAR LRBM 230000Z AUTO 08008KT 9999 FEW031/// SCT230///
                        10/04 Q1017=
201909230030 METAR LRBM 230030Z AUTO 08008KT 050V110 9999 FEW075/// SCT240///
                        11/04 Q1017=
201909230100 METAR LRBM 230100Z AUTO 10006KT 070V130 9999 FEW100/// SCT230///
                        08/04 Q1016=
201909230130 METAR LRBM 230130Z AUTO 09005KT 9999 FEW050/// SCT210///
                        06/04 Q1016=
201909230200 METAR LRBM 230200Z 09005KT CAVOK 07/04 Q1016=
201909230230 METAR LRBM 230230Z 09004KT CAVOK 06/04 Q1016=
201909230300 METAR LRBM 230300Z 10006KT CAVOK 06/03 Q1016=
201909230330 METAR COR LRBM 230330Z 09006KT CAVOK 05/03 Q1016=
201909230400 METAR LRBM 230400Z 10006KT CAVOK 07/04 Q1016=
201909230430 METAR LRBM 230430Z 09005KT CAVOK 06/03 Q1016=
201909230500 METAR LRBM 230500Z 10005KT CAVOK 07/04 Q1016=
201909230530 METAR COR LRBM 230530Z 11004KT 080V140 CAVOK 09/05 Q1016=
201909230600 METAR LRBM 230600Z 11004KT CAVOK 11/05 Q1016=
201909230630 METAR LRBM 230630Z 11004KT CAVOK 13/05 Q1016=
201909230700 METAR LRBM 230700Z 14003KT 090V170 CAVOK 14/06 Q1016=
201909230730 METAR LRBM 230730Z 12003KT 070V150 CAVOK 17/05 Q1016=
201909230800 METAR LRBM 230800Z 11003KT 070V170 CAVOK 19/04 Q1016=
201909230830 METAR LRBM 230830Z 14004KT 090V170 CAVOK 20/03 Q1016=
201909230900 METAR LRBM 230900Z VRB02KT CAVOK 21/04 Q1015=
201909230930 METAR LRBM 230930Z 21005KT 170V340 CAVOK 21/05 Q1015=
201909231000 METAR LRBM 231000Z VRB04KT CAVOK 22/04 Q1015=
201909231030 METAR LRBM 231030Z VRB03KT CAVOK 22/04 Q1015=
201909231100 METAR LRBM 231100Z 24004KT 200V300 CAVOK 22/04 Q1014=
201909231130 METAR LRBM 231130Z 21003KT 130V260 CAVOK 23/03 Q1014=
201909231200 METAR LRBM 231200Z 21004KT 170V260 CAVOK 23/03 Q1014=
201909231230 METAR LRBM 231230Z 21003KT 110V280 CAVOK 23/02 Q1014=
201909231300 METAR LRBM 231300Z 26003KT CAVOK 23/01 Q1013=
201909231330 METAR LRBM 231330Z 26005KT CAVOK 23/02 Q1013=
201909231400 METAR LRBM 231400Z 28005KT CAVOK 22/01 Q1013=
201909231430 METAR LRBM 231430Z 28005KT CAVOK 22/03 Q1013=
201909231500 METAR LRBM 231500Z 29006KT CAVOK 21/04 Q1013=
201909231530 METAR LRBM 231530Z 28007KT CAVOK 20/04 Q1013=
201909231600 METAR LRBM 231600Z 28007KT CAVOK 20/04 Q1013=
201909231630 METAR LRBM 231630Z 27006KT CAVOK 19/04 Q1013=
201909231700 METAR LRBM 231700Z 29004KT CAVOK 18/05 Q1013=
201909231730 METAR LRBM 231730Z 28006KT CAVOK 17/06 Q1013=
201909231800 METAR LRBM 231800Z 28010KT CAVOK 17/08 Q1013=
201909231830 METAR LRBM 231830Z 28009KT CAVOK 16/08 Q1014=
201909231900 METAR LRBM 231900Z 28008KT CAVOK 16/08 Q1014=
201909231930 METAR LRBM 231930Z 30004KT 260V360 CAVOK 15/08 Q1014=
201909232000 METAR LRBM 232000Z 28004KT 250V330 CAVOK 15/08 Q1014=
201909232030 METAR LRBM 232030Z 36002KT CAVOK 15/08 Q1014=
201909232100 METAR LRBM 232100Z 08003KT CAVOK 14/08 Q1014=
201909232130 METAR LRBM 232130Z AUTO 11002KT 070V140 9999 FEW010/// SCT180///
                        14/08 Q1014=
201909232200 METAR LRBM 232200Z AUTO VRB01KT 9999 FEW012/// SCT180///
                        BKN240/// 14/08 Q1014=
201909232230 METAR LRBM 232230Z AUTO 06003KT 360V100 9999 FEW017/// SCT200///
                        13/08 Q1014=
201909232300 METAR LRBM 232300Z AUTO 08003KT 9999 FEW020/// SCT210///
                        12/08 Q1013=
201909232330 METAR LRBM 232330Z AUTO 07004KT 9999 FEW046/// SCT220///
                        13/08 Q1013=
201909240000 METAR LRBM 240000Z AUTO 08003KT 9999 FEW017/// SCT220///
                        13/08 Q1013=
201909240030 METAR LRBM 240030Z AUTO 10004KT 9999 FEW022/// SCT230///
                        13/08 Q1013=
201909240100 METAR LRBM 240100Z AUTO 12002KT 060V180 9999 FEW048/// SCT230///
                        12/08 Q1013=
201909240130 METAR LRBM 240130Z AUTO VRB01KT 9999 FEW016/// SCT240///
                        11/08 Q1013=
201909240200 METAR COR LRBM 240200Z 08004KT CAVOK 10/08 Q1013=
201909240230 METAR LRBM 240230Z 10005KT CAVOK 10/08 Q1012=
201909240300 METAR LRBM 240300Z 11003KT CAVOK 10/08 Q1012=
201909240330 METAR LRBM 240330Z 02002KT CAVOK 11/08 Q1012=
201909240400 METAR LRBM 240400Z 09003KT CAVOK 10/08 Q1012=
201909240430 METAR LRBM 240430Z 06003KT CAVOK 10/08 Q1013=
201909240500 METAR LRBM 240500Z 09005KT CAVOK 10/08 Q1012=
201909240530 METAR LRBM 240530Z 15003KT CAVOK 11/09 Q1012=
201909240600 METAR LRBM 240600Z VRB01KT CAVOK 13/09 Q1013=
201909240630 METAR LRBM 240630Z 00000KT CAVOK 14/09 Q1013=
201909240700 METAR LRBM 240700Z 00000KT CAVOK 15/09 Q1013=
201909240730 METAR LRBM 240730Z VRB01KT CAVOK 17/09 Q1013=
201909240800 METAR LRBM 240800Z VRB01KT CAVOK 17/09 Q1013=
201909240830 METAR LRBM 240830Z VRB01KT CAVOK 21/08 Q1013=
201909240900 METAR LRBM 240900Z 11002KT CAVOK 22/07 Q1012=
201909240930 METAR LRBM 240930Z VRB02KT CAVOK 24/07 Q1012=
201909241000 METAR LRBM 241000Z 23003KT CAVOK 24/05 Q1012=
201909241030 METAR LRBM 241030Z VRB03KT CAVOK 25/06 Q1012=
201909241100 METAR LRBM 241100Z 10005KT 050V160 CAVOK 25/06 Q1011=
201909241130 METAR LRBM 241130Z 18004KT 150V210 9999 FEW038 26/05 Q1011=
201909241200 METAR LRBM 241200Z VRB04KT 9999 FEW040 26/06 Q1011=
201909241230 METAR LRBM 241230Z 24005KT 190V280 9999 FEW043 26/05 Q1011=
201909241300 METAR LRBM 241300Z VRB02KT CAVOK 27/05 Q1011=
201909241330 METAR LRBM 241330Z 21004KT 150V300 9999 FEW045 26/04 Q1011=
201909241400 METAR LRBM 241400Z 21006KT 9999 FEW047 25/04 Q1010=
201909241430 METAR LRBM 241430Z 22004KT 9999 FEW050 24/05 Q1010=
201909241500 METAR LRBM 241500Z 22004KT 9999 FEW055 23/06 Q1011=
201909241530 METAR LRBM 241530Z 20005KT 9999 FEW058 23/06 Q1011=
201909241600 METAR LRBM 241600Z VRB01KT CAVOK 21/07 Q1011=
201909241630 METAR LRBM 241630Z 04003KT 330V080 CAVOK 19/08 Q1011=
201909241700 METAR LRBM 241700Z 02003KT CAVOK 17/08 Q1011=
201909241730 METAR LRBM 241730Z 04003KT 010V080 CAVOK 17/08 Q1011=
201909241800 METAR LRBM 241800Z 07003KT 020V100 CAVOK 16/08 Q1012=
201909241830 METAR LRBM 241830Z 06003KT CAVOK 15/08 Q1012=
201909241900 METAR LRBM 241900Z 07003KT CAVOK 16/08 Q1012=
201909241930 METAR LRBM 241930Z 27006KT 230V320 CAVOK 16/09 Q1012=
201909242000 METAR LRBM 242000Z 04003KT CAVOK 15/09 Q1013=
201909242030 METAR LRBM 242030Z 05004KT CAVOK 15/08 Q1012=
201909242100 METAR LRBM 242100Z 08002KT CAVOK 15/08 Q1012=
201909242130 METAR LRBM 242130Z AUTO 00000KT 9999 FEW016/// SCT200///
                        15/09 Q1013=
201909242200 METAR LRBM 242200Z AUTO VRB01KT 9999 FEW013/// SCT200///
                        15/09 Q1013=
201909242230 METAR LRBM 242230Z AUTO 07003KT 9999 FEW016/// SCT190///
                        13/09 Q1013=
201909242300 METAR LRBM 242300Z AUTO 07003KT 9999 FEW015/// SCT230///
                        13/09 Q1013=
201909242330 METAR LRBM 242330Z AUTO 09002KT 050V110 9999 FEW024/// SCT210///
                        13/09 Q1013=
201909250000 METAR LRBM 250000Z AUTO 08003KT 9999 FEW065/// SCT230///
                        12/09 Q1013=
201909250030 METAR LRBM 250030Z AUTO 09002KT 9999 FEW050/// SCT220///
                        13/09 Q1013=
201909250100 METAR LRBM 250100Z AUTO VRB01KT 9999 FEW039/// SCT200///
                        12/09 Q1013=
201909250130 METAR LRBM 250130Z AUTO 06003KT 9999 FEW016/// SCT240///
                        13/09 Q1013=
201909250200 METAR LRBM 250200Z 09003KT CAVOK 13/08 Q1013=
201909250230 METAR LRBM 250230Z 24005KT CAVOK 11/08 Q1013=
201909250300 METAR LRBM 250300Z 21003KT CAVOK 10/08 Q1013=
201909250330 METAR LRBM 250330Z 07003KT CAVOK 11/09 Q1013=
201909250400 METAR LRBM 250400Z 09002KT CAVOK 12/09 Q1013=
201909250430 METAR LRBM 250430Z 21003KT 150V280 CAVOK 11/09 Q1013=
201909250500 METAR LRBM 250500Z 26002KT CAVOK 11/09 Q1013=
201909250530 METAR LRBM 250530Z 18002KT CAVOK 12/09 Q1013=
201909250600 METAR LRBM 250600Z 00000KT 9999 FEW060 12/09 Q1013=
201909250630 METAR LRBM 250630Z 00000KT 9999 -RA SCT055 13/09 Q1013=
201909250700 METAR LRBM 250700Z VRB01KT 9999 -RA SCT055 14/10 Q1013=
201909250730 METAR LRBM 250730Z 16002KT 9999 -RA SCT055 14/10 Q1013=
201909250800 METAR LRBM 250800Z VRB01KT 9999 -RA FEW055 14/11 Q1013=
201909250830 METAR LRBM 250830Z 07003KT 040V120 9999 SCT057 15/11 Q1013=
201909250900 METAR LRBM 250900Z 16003KT 9999 SCT057 15/12 Q1013=
201909250930 METAR LRBM 250930Z 18004KT 150V210 9999 -RA FEW040 BKN060
                        15/12 Q1013=
201909251000 METAR LRBM 251000Z 12002KT 9999 -RA FEW040 BKN060 15/12 Q1013=
201909251030 METAR LRBM 251030Z 12003KT 9999 BKN060 16/12 Q1013=
201909251100 METAR LRBM 251100Z 10002KT 9999 SCT060 16/11 Q1013=
201909251130 METAR LRBM 251130Z 13003KT 9999 SCT055 17/12 Q1013=
201909251200 METAR LRBM 251200Z 12003KT 9999 -RA SCT050 17/12 Q1013=
201909251230 METAR LRBM 251230Z 15003KT 9999 -RA SCT043 16/12 Q1013 R09/19//95=
201909251300 METAR LRBM 251300Z 18004KT 9999 -RA BKN040 15/13 Q1013 R09/19//95=
201909251330 METAR LRBM 251330Z 17003KT 9000 -RA FEW020 BKN036 15/13 Q1013
                        R09/19//95=
201909251400 METAR LRBM 251400Z 14003KT 5000 -RA BR SCT010 BKN026 15/13
                        Q1012 R09/19//95=
201909251430 METAR LRBM 251430Z 09004KT 9999 -RA FEW011 BKN033 15/13 Q1012
                        R09/19//95=
201909251500 METAR LRBM 251500Z 08003KT 9999 -RA SCT028 BKN045 15/13 Q1012
                        R09/19//95=
201909251530 METAR LRBM 251530Z 08003KT 9999 -RA SCT028 BKN045 15/13 Q1012
                        R09/19//95=
201909251600 METAR COR LRBM 251600Z 07003KT 8000 BKN033 15/14 Q1012 R09/19//95=
201909251630 METAR LRBM 251630Z 08004KT 7000 FEW011 SCT018 OVC040 15/13
                        Q1012 R09/19//95=
201909251700 METAR LRBM 251700Z 06003KT 7000 -RA FEW013 BKN020 OVC050
                        14/13 Q1012 R09/19//95=
201909251730 METAR LRBM 251730Z 07005KT 7000 -RA FEW011 BKN021 OVC040
                        14/13 Q1012 R09/19//95=
201909251800 METAR LRBM 251800Z 07005KT 6000 -RA OVC015 14/13 Q1012 R09/19//95=
201909251830 METAR LRBM 251830Z 09004KT 5000 -RA BR SCT008 OVC015 14/13
                        Q1012 R09/29//95=
201909251900 METAR LRBM 251900Z 02002KT 5000 -RA BR BKN013 14/13 Q1012
                        R09/29//95=
201909251930 METAR LRBM 251930Z 08004KT 8000 -RA SCT008 BKN015 14/13 Q1012
                        R09/29//95=
201909252000 METAR LRBM 252000Z 06002KT 8000 -RA SCT014 BKN030 14/13 Q1012
                        R09/29//95=
201909252030 METAR LRBM 252030Z 05002KT 8000 -RA SCT012 BKN022 14/13 Q1012
                        R09/29//95=
201909252100 METAR LRBM 252100Z 04002KT 6000 -RA SCT030 14/13 Q1012 R09/29//95=
201909252130 METAR LRBM 252130Z AUTO 04004KT 010V070 9999 FEW017/// SCT190///
                        14/13 Q1012 RERA=
201909252200 METAR LRBM 252200Z AUTO 03002KT 9999 FEW015/// SCT100///
                        BKN240/// 14/13 Q1012=
201909252230 METAR LRBM 252230Z AUTO 04004KT 9999 FEW020/// SCT046///
                        BKN240/// 14/13 Q1012=
201909252300 METAR LRBM 252300Z AUTO 05003KT 010V080 9999 SCT020/// BKN240///
                        14/13 Q1012=
201909252330 METAR LRBM 252330Z AUTO 07003KT 9999 SCT020/// BKN100///
                        14/13 Q1012=
201909260000 METAR LRBM 260000Z AUTO 09003KT 9000 -SHRA FEW008/// SCT021///
                        BKN110/// 14/13 Q1011=
201909260030 METAR LRBM 260030Z AUTO 08001KT 6000 -SHRA FEW004/// SCT021///
                        BKN043/// 14/13 Q1011=
201909260100 METAR LRBM 260100Z AUTO 00000KT 6000 -SHRA FEW005/// SCT050///
                        BKN160/// 14/13 Q1011=
201909260130 METAR LRBM 260130Z AUTO 00000KT 5000 FEW018/// SCT025///
                        BKN170/// 14/13 Q1011 RERA=
201909260200 METAR LRBM 260200Z 07002KT 8000 SCT026 14/13 Q1011 R09/29//95=
201909260230 METAR LRBM 260230Z 10001KT 9000 SCT027 14/13 Q1011 R09/29//95=
201909260300 METAR LRBM 260300Z VRB01KT 7000 SCT025 14/13 Q1011 R09/29//95=
201909260330 METAR LRBM 260330Z 06002KT 7000 SCT025 14/13 Q1011 R09/29//95=
201909260400 METAR LRBM 260400Z 00000KT 7000 SCT026 14/13 Q1012 R09/29//95=
201909260430 METAR LRBM 260430Z 12002KT 8000 -RA FEW013 SCT025 14/13 Q1012
                        R09/29//95=
201909260500 METAR LRBM 260500Z VRB01KT 8000 -RA BKN025 14/14 Q1012 R09/29//95=
201909260530 METAR LRBM 260530Z 08003KT 7000 -RA BKN024 15/14 Q1012 R09/29//95=
201909260600 METAR COR LRBM 260600Z 15002KT 7000 -RA BKN024 15/14 Q1012
                        R09/29//95=
201909260630 METAR LRBM 260630Z 08003KT 9000 -RA BKN028 15/14 Q1012 R09/29//95=
201909260700 METAR LRBM 260700Z 09004KT 8000 -RA BKN030 15/14 Q1012 R09/29//95=
201909260730 METAR LRBM 260730Z 14003KT 6000 -RA BKN028 16/15 Q1012 R09/29//95=
201909260800 METAR LRBM 260800Z 13003KT 7000 -RA BKN028 16/14 Q1012 R09/29//95=
201909260830 METAR LRBM 260830Z 13004KT 9000 -RA BKN030 16/14 Q1012 R09/29//95=
201909260900 METAR LRBM 260900Z 10004KT 070V130 9999 FEW016 SCT035 17/15
                        Q1012 R09/29//95=
201909260930 METAR LRBM 260930Z 09003KT 060V120 9999 SCT036 17/14 Q1012
                        R09/29//95=
201909261000 METAR LRBM 261000Z 12002KT 9999 SCT011 BKN036 17/14 Q1012
                        R09/29//95=
201909261030 METAR LRBM 261030Z VRB01KT 9999 FEW011 SCT036 18/14 Q1012
                        R09/29//95=
201909261100 METAR LRBM 261100Z 00000KT 9999 SCT012 SCT036 18/14 Q1012
                        R09/29//95=
201909261130 METAR LRBM 261130Z 00000KT 9999 -RA SCT013 FEW030TCU 18/14
                        Q1012 R09/19//95=
201909261200 METAR LRBM 261200Z VRB01KT 9999 SCT013 18/14 Q1012 R09/19//95=
201909261230 METAR LRBM 261230Z 16002KT 9999 SCT012 18/14 Q1012 R09/19//95=
201909261300 METAR LRBM 261300Z 22003KT 150V240 9999 FEW012 SCT020 18/14
                        Q1012 R09/19//95=
201909261330 METAR LRBM 261330Z 24003KT 9999 FEW010 BKN017 18/14 Q1012
                        R09/19//95=
201909261400 METAR LRBM 261400Z 21002KT 9999 BKN015 18/14 Q1012 R09/19//95=
201909261430 METAR LRBM 261430Z 22003KT 9999 -RA SCT017 18/14 Q1012 R09/19//95=
201909261500 METAR COR LRBM 261500Z 28008KT 9999 TS VCSH BKN014 BKN030CB
                        16/14 Q1012 R09/19//95=
201909261530 METAR COR LRBM 261530Z 34004KT 300V040 9999 -SHRA SCT015
                        SCT030CB 15/14 Q1013 RETS R09/29//95=
201909261600 METAR LRBM 261600Z 33004KT 280V360 9999 -SHRA FEW013 SCT028CB
                        16/14 Q1013 R09/29//95=
201909261630 METAR LRBM 261630Z 25002KT 9999 -RA FEW009 FEW030CB 15/14
                        Q1013 R09/29//95=
201909261700 METAR LRBM 261700Z 28005KT 7000 FEW004 SCT015 15/14 Q1013
                        R09/29//95=
201909261730 METAR LRBM 261730Z 27006KT 8000 -RA FEW005 SCT017 14/14 Q1013
                        R09/29//95=
201909261800 METAR LRBM 261800Z 24002KT 7000 FEW007 SCT019 14/13 Q1014
                        R09/29//95=
201909261830 METAR LRBM 261830Z 24002KT 6000 FEW005 SCT014 14/13 Q1014
                        R09/29//95=
201909261900 METAR LRBM 261900Z 00000KT 4700 BR FEW016 SCT030 FEW035TCU
                        14/13 Q1014 R09/29//95=
201909261930 METAR LRBM 261930Z 09002KT 5000 BR FEW018 FEW032TCU 14/13
                        Q1014 R09/29//95=
201909262000 METAR LRBM 262000Z VRB01KT 7000 FEW015 SCT032TCU 14/13 Q1014
                        R09/19//95=
201909262030 METAR LRBM 262030Z VRB01KT 5000 -RA BR SCT008 SCT035 14/13
                        Q1014 R09/19//95=
201909262100 METAR LRBM 262100Z 00000KT 5000 BR FEW002 SCT035 14/13 Q1015
                        R09/19//95=
201909262130 METAR LRBM 262130Z AUTO 09002KT 5000 R09/1100VP2000U FEW014///
                        SCT190/// 13/12 Q1015 REDZ=
201909262200 METAR LRBM 262200Z AUTO 14002KT 100V170 7000 BKN002/// BKN026///
                        13/13 Q1015=
201909262230 METAR LRBM 262230Z AUTO 03002KT 7000 SCT002/// BKN004///
                        BKN022/// 13/13 Q1015=
201909262300 METAR LRBM 262300Z AUTO 01001KT 7000 FEW003/// SCT007///
                        BKN010/// ///// Q1015=
201909262330 METAR LRBM 262330Z AUTO 01001KT 8000 SCT007/// BKN009///
                        BKN070/// 14/13 Q1015=
201909270000 METAR LRBM 270000Z AUTO VRB01KT 9000 FEW004/// BKN007///
                        14/13 Q1015=
201909270030 METAR LRBM 270030Z AUTO 00000KT 9999 BKN004/// BKN028///
                        14/13 Q1015=
201909270100 METAR LRBM 270100Z AUTO VRB01KT 8000 SCT001/// BKN003///
                        BKN032/// 14/13 Q1015=
201909270130 METAR LRBM 270130Z AUTO 29003KT 260V320 1900 R09/1000D BR
                        BKN001/// BKN027/// 14/13 Q1015=
201909270200 METAR LRBM 270200Z VRB01KT 5000 1500W BR OVC002 13/13 Q1015
                        R09/19//95=
201909270230 METAR LRBM 270230Z 28004KT 260V330 0450 R09/0500N FG VV002
                        13/13 Q1016 R09/19//95=
201909270300 METAR LRBM 270300Z 29004KT 260V330 0350 R09/0450N FG VV001
                        13/12 Q1016 R09/19//95=
201909270330 METAR LRBM 270330Z 29004KT 260V320 0450 R09/0450N FG VV002
                        13/13 Q1016 R09/19//95=
201909270400 METAR LRBM 270400Z 29004KT 260V320 0400 R09/0400N FG VV001
                        13/13 Q1016 R09/19//95=
201909270430 METAR LRBM 270430Z 29004KT 250V330 0350 R09/0350N FG VV001
                        13/12 Q1016 R09/19//95=
201909270500 METAR LRBM 270500Z 28004KT 0500 R09/0500 FG VV002 12/12 Q1017
                        R09/19//95=
201909270530 METAR LRBM 270530Z 28004KT 0300 R09/0300 FG VV002 13/12 Q1017
                        R09/19//95=
201909270600 METAR LRBM 270600Z 28004KT 1200 R09/1800VP2000U BR BKN001
                        BKN003 13/12 Q1017 R09/19//95=
201909270630 METAR LRBM 270630Z 25005KT 1500 BR BKN001 BKN003 13/13 Q1017
                        R09/19//95=
201909270700 METAR LRBM 270700Z 25002KT 4000 BR SCT002 BKN004 13/13 Q1017
                        R09/19//95=
201909270730 METAR LRBM 270730Z 25002KT 8000 BKN003 BKN026 13/13 Q1018
                        R09/19//95=
201909270800 METAR LRBM 270800Z 24003KT 9999 BKN006 BKN029 13/13 Q1018
                        R09/19//95=
201909270830 METAR LRBM 270830Z VRB01KT 9999 BKN006 13/13 Q1018 R09/19//95=
201909270900 METAR LRBM 270900Z 35002KT 300V060 9999 SCT007 BKN009 14/13
                        Q1018 R09/19//95=
201909270930 METAR LRBM 270930Z VRB01KT 9999 BKN011 BKN041 14/13 Q1018
                        R09/19//95=
201909271000 METAR LRBM 271000Z 24004KT 220V290 9999 BKN013 15/13 Q1018
                        R09/19//95=
201909271030 METAR LRBM 271030Z 24005KT 9999 BKN013 15/13 Q1018 R09/19//95=
201909271100 METAR LRBM 271100Z VRB04KT 9999 SCT013 BKN027 16/13 Q1018
                        R09/19//95=
201909271130 METAR LRBM 271130Z 26004KT 200V300 9999 FEW014 SCT027 17/12
                        Q1018 R09/19//95=
201909271200 METAR LRBM 271200Z 26005KT 210V300 9999 FEW033 19/12 Q1017
                        R09/19//95=
201909271230 METAR LRBM 271230Z 26006KT 240V300 9999 FEW032 19/11 Q1017
                        R09/19//95=
201909271300 METAR LRBM 271300Z 27005KT 230V310 9999 FEW030 20/11 Q1017
                        R09/19//95=
201909271330 METAR LRBM 271330Z 26007KT 9999 FEW030 20/11 Q1017 R09/19//95=
201909271400 METAR LRBM 271400Z 29006KT 260V320 9999 FEW030 20/11 Q1017
                        R09/19//95=
201909271430 METAR LRBM 271430Z AUTO 28006KT 9999 FEW033/// SCT230///
                        20/11 Q1017=
201909271500 METAR LRBM 271500Z AUTO 29005KT 9999 FEW026/// SCT230///
                        20/11 Q1017=
201909271530 METAR LRBM 271530Z AUTO 29003KT 9999 FEW034/// SCT220///
                        19/10 Q1017=
201909271600 METAR LRBM 271600Z AUTO 36003KT 9999 FEW017/// SCT210///
                        17/11 Q1017=
201909271630 METAR LRBM 271630Z AUTO 36003KT 9999 FEW065/// SCT240///
                        15/12 Q1017=
201909271700 METAR LRBM 271700Z AUTO 02005KT 350V050 9999 FEW100/// SCT220///
                        15/11 Q1017=
201909271730 METAR LRBM 271730Z AUTO 02005KT 350V070 9999 FEW018/// SCT230///
                        15/11 Q1018=
201909271800 METAR LRBM 271800Z AUTO 02003KT 340V060 9999 FEW016/// SCT210///
                        14/11 Q1018=
201909271830 METAR LRBM 271830Z AUTO 04003KT 360V080 9999 FEW095/// SCT240///
                        14/10 Q1018=
201909271900 METAR LRBM 271900Z AUTO 06003KT 9999 FEW075/// SCT230///
                        13/10 Q1018=
201909271930 METAR LRBM 271930Z AUTO 05001KT 9999 FEW025/// SCT220///
                        12/10 Q1018=
201909272000 METAR LRBM 272000Z AUTO 06004KT 9999 FEW028/// SCT240///
                        13/10 Q1018=
201909272030 METAR LRBM 272030Z AUTO 06003KT 030V090 9999 FEW043/// SCT240///
                        13/10 Q1018=
201909272100 METAR LRBM 272100Z AUTO 07005KT 9999 FEW017/// SCT200///
                        13/10 Q1018=
201909272130 METAR LRBM 272130Z AUTO 09003KT 9999 FEW013/// SCT220///
                        13/10 Q1019=
201909272200 METAR LRBM 272200Z AUTO 06004KT 9999 FEW028/// SCT220///
                        13/11 Q1019=
201909272230 METAR LRBM 272230Z AUTO 05003KT 020V080 9999 FEW065/// SCT240///
                        13/11 Q1019=
201909272300 METAR LRBM 272300Z AUTO 08006KT 9999 FEW075/// SCT230///
                        13/11 Q1019=
201909272330 METAR LRBM 272330Z AUTO 08006KT 9999 FEW060/// SCT210///
                        13/11 Q1019=
201909280000 METAR LRBM 280000Z AUTO 08006KT 9999 FEW055/// SCT230///
                        13/11 Q1019=
201909280030 METAR LRBM 280030Z AUTO 06004KT 9999 FEW065/// SCT230///
                        14/11 Q1019=
201909280100 METAR LRBM 280100Z AUTO 08003KT 040V110 9999 FEW060/// SCT210///
                        14/11 Q1018=
201909280130 METAR LRBM 280130Z AUTO 09005KT 9999 FEW019/// SCT200///
                        13/11 Q1018=
201909280200 METAR LRBM 280200Z AUTO 09004KT 9999 FEW013/// SCT220///
                        13/11 Q1018=
201909280230 METAR LRBM 280230Z AUTO 10004KT 9999 FEW013/// SCT200///
                        13/11 Q1019=
201909280300 METAR LRBM 280300Z AUTO 09007KT 9999 FEW035/// SCT230///
                        13/11 Q1018=
201909280330 METAR LRBM 280330Z AUTO 08005KT 9999 FEW085/// SCT230///
                        12/11 Q1018=
201909280400 METAR LRBM 280400Z AUTO 10006KT 9999 FEW033/// SCT210///
                        13/11 Q1018=
201909280430 METAR LRBM 280430Z AUTO 09005KT 9999 FEW050/// SCT220///
                        13/11 Q1018=
201909280500 METAR LRBM 280500Z AUTO 08003KT 9999 FEW018/// SCT240///
                        12/11 Q1018=
201909280530 METAR LRBM 280530Z AUTO 07004KT 040V110 9999 FEW023/// SCT230///
                        13/11 Q1018=
201909280600 METAR LRBM 280600Z AUTO 09004KT 9999 FEW018/// SCT220///
                        14/11 Q1019=
201909280630 METAR LRBM 280630Z AUTO 09004KT 9999 FEW013/// SCT190///
                        16/12 Q1019=
201909280700 METAR LRBM 280700Z AUTO 14002KT 040V200 9999 FEW016/// SCT160///
                        BKN240/// 16/12 Q1019=
201909280730 METAR LRBM 280730Z AUTO 14003KT 120V180 9999 FEW014/// SCT150///
                        16/12 Q1019=
201909280800 METAR LRBM 280800Z AUTO 11005KT 9999 FEW013/// SCT200///
                        18/12 Q1019=
201909280830 METAR LRBM 280830Z AUTO 13005KT 100V170 9999 FEW026/// SCT220///
                        19/12 Q1019=
201909280900 METAR LRBM 280900Z AUTO 11007KT 9999 FEW014/// SCT180///
                        20/11 Q1019=
201909280930 METAR LRBM 280930Z AUTO 12007KT 9999 FEW013/// SCT190///
                        21/11 Q1018=
201909281000 METAR LRBM 281000Z AUTO 11006KT 080V150 9999 FEW018/// SCT210///
                        21/11 Q1018=
201909281030 METAR LRBM 281030Z AUTO 09007KT 9999 FEW013/// SCT150///
                        21/11 Q1018=
201909281100 METAR LRBM 281100Z AUTO 10008KT 9999 FEW008/// SCT170///
                        BKN240/// 21/11 Q1017=
201909281130 METAR LRBM 281130Z AUTO 09007KT 060V130 9999 FEW009/// SCT160///
                        BKN240/// 22/12 Q1017=
201909281200 METAR LRBM 281200Z AUTO 09007KT 050V130 9999 FEW018/// SCT180///
                        22/11 Q1017=
201909281230 METAR LRBM 281230Z AUTO 07007KT 9999 FEW019/// SCT210///
                        22/12 Q1016=
201909281300 METAR LRBM 281300Z AUTO 11005KT 080V140 9999 FEW012/// BKN190///
                        22/11 Q1016=
201909281330 METAR LRBM 281330Z AUTO 11005KT 090V170 9999 FEW010/// SCT190///
                        22/11 Q1016=
201909281400 METAR LRBM 281400Z AUTO 11003KT 080V140 9999 FEW013/// SCT170///
                        22/11 Q1016=
201909281430 METAR LRBM 281430Z AUTO 17002KT 9999 FEW017/// SCT180///
                        21/11 Q1016=
201909281500 METAR LRBM 281500Z AUTO 17002KT 130V200 9999 FEW035/// SCT200///
                        21/12 Q1016=
201909281530 METAR LRBM 281530Z AUTO 29006KT 250V330 9999 -SHRA FEW008///
                        SCT070/// BKN230/// 17/13 Q1016=
201909281600 METAR LRBM 281600Z AUTO 02003KT 320V080 9999 -SHRA NCD 17/14
                        Q1016=
201909281630 METAR LRBM 281630Z 01004KT 330V060 9999 BKN055 17/14 Q1016=
201909281700 METAR LRBM 281700Z 26004KT 9999 BKN055 16/14 Q1016=
201909281730 METAR LRBM 281730Z 01002KT 260V060 9999 BKN055 16/14 Q1016=
201909281800 METAR LRBM 281800Z 00000KT 9999 -RA BKN055 16/14 Q1016=
201909281830 METAR LRBM 281830Z 33003KT 270V050 9999 -RA OVC053 16/14
                        Q1016=
201909281900 METAR LRBM 281900Z 26002KT 220V340 9999 -RA OVC053 15/14
                        Q1016=
201909281930 METAR LRBM 281930Z 10001KT 9999 -RA OVC050 15/14 Q1016=
201909282000 METAR LRBM 282000Z 10002KT 060V140 9999 -RA FEW004 OVC050
                        15/14 Q1016 R09/29//95=
201909282030 METAR LRBM 282030Z 06003KT 9999 FEW003 OVC053 15/14 Q1016
                        R09/29//95=
201909282100 METAR LRBM 282100Z 08002KT 030V100 9999 SCT004 OVC050 15/14
                        Q1016 R09/29//95=
201909282130 METAR LRBM 282130Z 00000KT 9999 BKN003 OVC050 15/14 Q1016
                        R09/29//95=
201909282200 METAR LRBM 282200Z 36002KT 280V060 9999 FEW004 SCT012 BKN033
                        15/14 Q1016 R09/29//95=
201909282230 METAR LRBM 282230Z 34002KT 9999 -RA FEW005 SCT012 BKN025
                        15/14 Q1017 R09/29//95=
201909282300 METAR LRBM 282300Z 27001KT 9999 -RA FEW010 SCT013 BKN046
                        15/14 Q1017 R09/29//95=
201909282330 METAR LRBM 282330Z AUTO VRB01KT 9000 FEW008/// BKN010///
                        BKN095/// 15/14 Q1017 RERA=
201909290000 METAR LRBM 290000Z AUTO 23003KT 7000 BKN007/// BKN075///
                        15/14 Q1017=
201909290030 METAR LRBM 290030Z AUTO 28003KT 250V310 5000 BR FEW005///
                        BKN007/// BKN055/// 15/14 Q1016=
201909290100 METAR LRBM 290100Z AUTO 26003KT 4500 BR FEW002/// SCT004///
                        BKN009/// 15/14 Q1016=
201909290130 METAR LRBM 290130Z AUTO 27004KT 2800 R09/1400V2000D BR BKN001///
                        BKN043/// 14/14 Q1017=
201909290200 METAR LRBM 290200Z AUTO VRB01KT 2700 R09/1000V2000U BKN001///
                        BKN044/// 14/13 Q1017=
201909290230 METAR LRBM 290230Z AUTO 33002KT 300V360 6000 SCT001/// BKN005///
                        BKN033/// 13/13 Q1017=
201909290300 METAR LRBM 290300Z AUTO VRB01KT 9000 FEW001/// SCT004///
                        BKN018/// 13/12 Q1017=
201909290330 METAR LRBM 290330Z AUTO 02002KT 340V050 6000 SCT006/// BKN029///
                        BKN240/// 13/12 Q1017=
201909290400 METAR LRBM 290400Z AUTO VRB01KT 9000 SCT006/// BKN009///
                        BKN060/// 13/12 Q1017=
201909290430 METAR LRBM 290430Z AUTO 01002KT 350V050 8000 FEW007/// SCT009///
                        BKN013/// 13/12 Q1017=
201909290500 METAR LRBM 290500Z AUTO VRB01KT 9999 FEW002/// SCT011///
                        BKN022/// 13/12 Q1017=
201909290530 METAR LRBM 290530Z AUTO 00000KT 9999 FEW006/// SCT008///
                        BKN014/// 13/12 Q1017=
201909290600 METAR LRBM 290600Z AUTO 05003KT 9999 FEW009/// SCT120///
                        BKN230/// 13/12 Q1017=
201909290630 METAR LRBM 290630Z AUTO 13002KT 090V160 9999 FEW005/// SCT009///
                        BKN011/// 14/13 Q1017=
201909290700 METAR LRBM 290700Z AUTO 16003KT 120V210 9999 FEW006/// SCT027///
                        BKN220/// 15/13 Q1018=
201909290730 METAR LRBM 290730Z AUTO 13003KT 070V180 9999 FEW008/// SCT013///
                        BKN160/// 16/13 Q1018=
201909290800 METAR LRBM 290800Z AUTO 18004KT 150V210 9999 FEW015/// SCT021///
                        BKN070/// 17/12 Q1018=
201909290830 METAR LRBM 290830Z AUTO 14005KT 100V170 9999 FEW016/// SCT047///
                        BKN230/// 17/12 Q1018=
201909290900 METAR LRBM 290900Z AUTO 34002KT 240V050 9999 FEW024/// SCT055///
                        BKN230/// 17/11 Q1017=
201909290930 METAR LRBM 290930Z AUTO VRB03KT 9999 FEW023/// SCT075///
                        BKN240/// 18/11 Q1018=
201909291000 METAR LRBM 291000Z AUTO 23005KT 200V280 9999 FEW021/// SCT220///
                        18/11 Q1018=
201909291030 METAR LRBM 291030Z AUTO 12003KT 060V210 9999 FEW027/// SCT200///
                        18/11 Q1017=
201909291100 METAR LRBM 291100Z AUTO 08003KT 040V130 9999 FEW032/// SCT180///
                        18/11 Q1017=
201909291130 METAR LRBM 291130Z AUTO 11004KT 070V160 9999 FEW012/// SCT190///
                        19/11 Q1016=
201909291200 METAR LRBM 291200Z AUTO VRB02KT 9999 FEW045/// SCT230///
                        19/12 Q1016=
201909291230 METAR LRBM 291230Z AUTO 21002KT 140V280 9999 FEW031/// SCT220///
                        20/12 Q1016=
201909291300 METAR LRBM 291300Z AUTO 18004KT 130V230 9999 FEW022/// SCT210///
                        20/11 Q1016=
201909291330 METAR LRBM 291330Z AUTO VRB02KT 9999 FEW021/// SCT200///
                        20/11 Q1015=
201909291400 METAR LRBM 291400Z AUTO 25005KT 200V270 9999 FEW030/// SCT210///
                        21/09 Q1015=
201909291430 METAR LRBM 291430Z AUTO 29003KT 240V350 9999 FEW014/// SCT150///
                        BKN240/// 20/09 Q1015=
201909291500 METAR LRBM 291500Z AUTO 26002KT 220V360 9999 FEW013/// SCT190///
                        21/08 Q1015=
201909291530 METAR LRBM 291530Z AUTO 27004KT 250V310 9999 FEW017/// SCT190///
                        20/08 Q1014=
201909291600 METAR LRBM 291600Z AUTO 05004KT 9999 FEW013/// SCT190///
                        18/11 Q1014=
201909291630 METAR LRBM 291630Z AUTO 03003KT 9999 FEW055/// SCT220///
                        16/11 Q1014=
201909291700 METAR LRBM 291700Z 01003KT CAVOK 15/11 Q1013=
201909291730 METAR LRBM 291730Z 36003KT 340V050 CAVOK 15/11 Q1013=
201909291800 METAR LRBM 291800Z VRB01KT CAVOK 14/10 Q1013=
201909291830 METAR LRBM 291830Z 07002KT CAVOK 14/10 Q1013=
201909291900 METAR LRBM 291900Z 05002KT CAVOK 14/10 Q1013=
201909291930 METAR LRBM 291930Z 04004KT CAVOK 14/10 Q1013=
201909292000 METAR LRBM 292000Z VRB01KT CAVOK 14/10 Q1013=
201909292030 METAR LRBM 292030Z 04002KT 9999 SCT055 14/10 Q1013=
201909292100 METAR LRBM 292100Z 06003KT 9999 SCT052 15/10 Q1013=
201909292130 METAR LRBM 292130Z AUTO 07004KT 9999 FEW048/// SCT120///
                        BKN240/// 15/10 Q1012=
201909292200 METAR LRBM 292200Z AUTO 06003KT 9999 FEW049/// SCT190///
                        15/10 Q1012=
201909292230 METAR LRBM 292230Z AUTO 07003KT 040V100 9999 FEW048/// SCT160///
                        BKN240/// 15/10 Q1012=
201909292300 METAR LRBM 292300Z AUTO 07003KT 9999 FEW046/// SCT170///
                        16/11 Q1012=
201909292330 METAR LRBM 292330Z AUTO 07003KT 9999 FEW044/// SCT150///
                        BKN240/// 16/10 Q1011=
201909300000 METAR LRBM 300000Z AUTO 07004KT 9999 FEW043/// SCT170///
                        BKN240/// 16/11 Q1011=
201909300030 METAR LRBM 300030Z AUTO 09003KT 050V120 9999 FEW042/// SCT140///
                        BKN240/// 15/11 Q1011=
201909300100 METAR LRBM 300100Z AUTO 07003KT 010V140 9999 FEW042/// SCT160///
                        15/11 Q1011=
201909300130 METAR LRBM 300130Z AUTO 08005KT 9999 FEW019/// SCT210///
                        15/11 Q1010=
201909300200 METAR LRBM 300200Z 06004KT 030V090 CAVOK 15/10 Q1010=
201909300230 METAR LRBM 300230Z 06004KT CAVOK 16/10 Q1010=
201909300300 METAR LRBM 300300Z 08003KT CAVOK 15/11 Q1010=
201909300330 METAR LRBM 300330Z 07004KT 040V100 CAVOK 16/10 Q1010=
201909300400 METAR LRBM 300400Z 11004KT 080V140 CAVOK 16/11 Q1010=
201909300430 METAR LRBM 300430Z 07005KT CAVOK 16/11 Q1009=
201909300500 METAR LRBM 300500Z 09004KT 020V120 CAVOK 16/11 Q1009=
201909300530 METAR LRBM 300530Z 11004KT 080V140 CAVOK 16/11 Q1009=
201909300600 METAR LRBM 300600Z 09003KT 9999 BKN055 16/12 Q1009=
201909300630 METAR LRBM 300630Z 11005KT 9999 FEW045 SCT053 17/11 Q1009=
201909300700 METAR LRBM 300700Z 12005KT 100V170 9999 FEW042 SCT053 17/11
                        Q1009=
201909300730 METAR LRBM 300730Z 10008KT 9999 FEW043 18/11 Q1009=
201909300800 METAR LRBM 300800Z 08006KT 9999 FEW043 18/11 Q1009=
201909300830 METAR LRBM 300830Z 09007KT 9999 FEW043 SCT056 19/11 Q1009=
201909300900 METAR LRBM 300900Z 07007KT 9999 FEW045 SCT058 20/11 Q1009=
201909300930 METAR LRBM 300930Z 09006KT 060V130 9999 FEW048 22/12 Q1008=
201909301000 METAR LRBM 301000Z VRB05KT 9999 FEW048 22/12 Q1008=
201909301030 METAR LRBM 301030Z 10006KT 070V130 9999 FEW043 22/12 Q1008=
201909301100 METAR LRBM 301100Z 10007KT 070V130 9999 FEW043 23/12 Q1007=
201909301130 METAR LRBM 301130Z 28005KT 230V360 9999 FEW043 23/12 Q1007=
201909301200 METAR LRBM 301200Z 23010KT CAVOK 22/12 Q1007=
201909301230 METAR LRBM 301230Z 22013KT CAVOK 24/12 Q1007=
201909301300 METAR LRBM 301300Z 22012KT CAVOK 25/11 Q1006=
201909301330 METAR LRBM 301330Z 22010KT CAVOK 24/11 Q1006=
201909301400 METAR LRBM 301400Z 24012KT CAVOK 24/10 Q1006=
201909301430 METAR LRBM 301430Z 22012KT CAVOK 23/11 Q1006=
201909301500 METAR LRBM 301500Z 22009KT CAVOK 23/11 Q1006=
201909301530 METAR LRBM 301530Z 22008KT 9999 FEW046 22/11 Q1005=
201909301600 METAR LRBM 301600Z 24008KT 9999 FEW040CB SCT043 21/12 Q1006=
201909301630 METAR LRBM 301630Z 24011KT 9999 TS FEW030CB SCT050 18/14
                        Q1007 R09/29//95=
201909301700 METAR LRBM 301700Z 32004KT 290V350 9999 FEW039 SCT050 17/15
                        Q1007 RETS R09/29//95=
201909301730 METAR LRBM 301730Z 26007KT 230V300 CAVOK 18/14 Q1007 R09/29//95=
201909301800 METAR LRBM 301800Z 34003KT CAVOK 17/15 Q1007 R09/29//95=
201909301830 METAR LRBM 301830Z VRB02KT CAVOK 16/14 Q1008 R09/19//95=
201909301900 METAR LRBM 301900Z AUTO 07002KT 020V160 9999 FEW025/// SCT210///
                        16/14 Q1008=
201909301930 METAR LRBM 301930Z 04003KT CAVOK 16/14 Q1008 R09/19//95=
201909302000 METAR LRBM 302000Z VRB01KT CAVOK 15/13 Q1009 R09/19//95=
201909302030 METAR LRBM 302030Z 29003KT CAVOK 16/11 Q1009 R09/19//95=
201909302100 METAR LRBM 302100Z 28006KT CAVOK 16/10 Q1010 R09/19//95=
201909302130 METAR LRBM 302130Z AUTO 27007KT 9999 FEW095/// 15/11 Q1010=
201909302200 METAR LRBM 302200Z AUTO 25006KT 9999 FEW090/// SCT230///
                        14/11 Q1011=
201909302230 METAR LRBM 302230Z AUTO 26007KT 9999 FEW060/// SCT200///
                        13/09 Q1011=
201909302300 METAR LRBM 302300Z AUTO VRB02KT 9999 FEW100/// SCT230///
                        13/08 Q1012=
201909302330 METAR LRBM 302330Z AUTO 27005KT 9999 FEW095/// SCT240///
                        13/07 Q1012=
