201911010000 METAR LRBM 010000Z AUTO VRB01KT 9999 NCD ///// Q1025=
201911010030 METAR LRBM 010030Z AUTO 10003KT 9999 FEW029/// ///// Q1025=
201911010100 METAR LRBM 010100Z AUTO 09002KT 9999 NCD ///// Q1025=
201911010130 METAR LRBM 010130Z AUTO 07001KT 9999 NCD ///// Q1025=
201911010200 METAR LRBM 010200Z AUTO 10003KT 9999 NCD ///// Q1025=
201911010230 METAR LRBM 010230Z AUTO 07002KT 9999 FEW060/// ///// Q1025=
201911010300 METAR LRBM 010300Z 00000KT 9999 SCT060 02/02 Q1024=
201911010330 METAR LRBM 010330Z VRB01KT 9999 FEW060 02/02 Q1025=
201911010400 METAR LRBM 010400Z 07003KT 9999 SCT060 02/02 Q1024=
201911010430 METAR LRBM 010430Z 09004KT 9999 SCT060 02/01 Q1025=
201911010500 METAR LRBM 010500Z 00000KT 9999 FEW060 02/01 Q1025=
201911010530 METAR LRBM 010530Z 00000KT 9999 FEW060 02/01 Q1025=
201911010600 METAR LRBM 010600Z 10002KT 9999 FEW060 02/01 Q1025=
201911010630 METAR LRBM 010630Z 00000KT CAVOK 02/01 Q1025=
201911010700 METAR LRBM 010700Z 10005KT CAVOK 04/02 Q1025=
201911010730 METAR LRBM 010730Z 13003KT CAVOK 04/03 Q1025=
201911010800 METAR LRBM 010800Z 09003KT 060V130 CAVOK 06/03 Q1025=
201911010830 METAR LRBM 010830Z 11003KT 050V150 9999 FEW043 07/04 Q1025=
201911010900 METAR LRBM 010900Z 11004KT 070V150 9999 FEW043 08/04 Q1025=
201911010930 METAR LRBM 010930Z 14005KT 090V210 9999 FEW026 09/04 Q1025=
201911011000 METAR LRBM 011000Z VRB03KT 9999 FEW029 SCT046 09/03 Q1025=
201911011030 METAR LRBM 011030Z 11005KT 9999 FEW029 SCT046 09/03 Q1024=
201911011100 METAR LRBM 011100Z VRB04KT 9999 FEW034 SCT046 10/03 Q1024=
201911011130 METAR LRBM 011130Z 16005KT 120V200 9999 FEW038 SCT046 10/03
                        Q1024=
201911011200 METAR LRBM 011200Z VRB03KT 9999 BKN046 11/02 Q1023=
201911011230 METAR LRBM 011230Z VRB03KT 9999 FEW046 10/02 Q1023=
201911011300 METAR LRBM 011300Z 09005KT 9999 SCT046 10/02 Q1022=
201911011330 METAR LRBM 011330Z 08003KT 340V140 9999 BKN046 11/01 Q1022=
201911011400 METAR LRBM 011400Z 12003KT 9999 SCT046 10/02 Q1023=
201911011430 METAR LRBM 011430Z 11002KT 9999 FEW045 10/01 Q1022=
201911011500 METAR LRBM 011500Z 07001KT 9999 SCT045 08/02 Q1022=
201911011530 METAR LRBM 011530Z AUTO 04002KT 9999 OVC050/// ///// Q1022=
201911011600 METAR LRBM 011600Z AUTO 06002KT 9999 OVC050/// ///// Q1022=
201911011630 METAR LRBM 011630Z AUTO 05004KT 9999 OVC050/// ///// Q1022=
201911011700 METAR LRBM 011700Z AUTO 07004KT 9999 BKN050/// ///// Q1022=
201911011730 METAR LRBM 011730Z AUTO 07004KT 9999 BKN050/// ///// Q1021=
201911011800 METAR LRBM 011800Z AUTO 06006KT 9999 FEW050/// ///// Q1021=
201911011830 METAR LRBM 011830Z AUTO 07005KT 9999 NCD ///// Q1021=
201911011900 METAR LRBM 011900Z AUTO 07005KT 9999 NCD ///// Q1021=
201911011930 METAR LRBM 011930Z AUTO 07006KT 9999 NCD ///// Q1021=
201911012000 METAR LRBM 012000Z AUTO 07005KT 9999 BKN050/// ///// Q1021=
201911012030 METAR LRBM 012030Z AUTO 08005KT 9999 BKN050/// ///// Q1021=
201911012100 METAR LRBM 012100Z AUTO 08006KT 9999 BKN050/// ///// Q1020=
201911012130 METAR LRBM 012130Z AUTO 07005KT 9999 FEW050/// ///// Q1020=
201911012200 METAR LRBM 012200Z AUTO 07005KT 9999 NCD ///// Q1020=
201911012230 METAR LRBM 012230Z AUTO 07005KT 9999 NCD ///// Q1020=
201911012300 METAR LRBM 012300Z AUTO 08002KT 9999 NCD ///// Q1020=
201911012330 METAR LRBM 012330Z AUTO 08003KT 9999 NCD ///// Q1019=
201911020000 METAR LRBM 020000Z AUTO 04003KT 9999 FEW240/// ///// Q1019=
201911020030 METAR LRBM 020030Z AUTO 08003KT 9999 NCD ///// Q1018=
201911020100 METAR LRBM 020100Z AUTO 07002KT 9999 FEW240/// ///// Q1018=
201911020130 METAR LRBM 020130Z AUTO 08003KT 9999 FEW240/// ///// Q1018=
201911020200 METAR LRBM 020200Z AUTO VRB01KT 9999 NCD ///// Q1018=
201911020230 METAR LRBM 020230Z AUTO 08005KT 9999 NCD ///// Q1017=
201911020300 METAR LRBM 020300Z AUTO 09004KT 9999 NCD ///// Q1017=
201911020330 METAR LRBM 020330Z AUTO 08007KT 9999 SCT220/// ///// Q1017=
201911020400 METAR LRBM 020400Z AUTO 08007KT 9999 FEW049/// BKN230///
                        ///// Q1016=
201911020430 METAR LRBM 020430Z AUTO 08009KT 9999 SCT045/// BKN230///
                        ///// Q1016=
201911020500 METAR LRBM 020500Z AUTO 08009KT 9999 BKN044/// ///// Q1016=
201911020530 METAR LRBM 020530Z AUTO 09009KT 9999 OVC045/// ///// Q1016=
201911020600 METAR LRBM 020600Z AUTO 09010KT 9999 BKN046/// ///// Q1015=
201911020630 METAR LRBM 020630Z AUTO 09010KT 9999 OVC049/// ///// Q1015=
201911020700 METAR LRBM 020700Z AUTO 10014KT 9999 BKN049/// ///// Q1015=
201911020730 METAR LRBM 020730Z AUTO 09013KT 9999 BKN049/// ///// Q1015
                        REUP=
201911020800 METAR LRBM 020800Z AUTO 10013KT 9999 BKN050/// ///// Q1015
                        REUP=
201911020830 METAR LRBM 020830Z AUTO 09011KT 9999 -SHRA OVC049/// /////
                        Q1014=
201911020900 METAR LRBM 020900Z AUTO 09008KT 9999 -SHRA BKN047/// /////
                        Q1014=
201911020930 METAR LRBM 020930Z AUTO 09008KT 9999 -RA OVC045/// /////
                        Q1014=
201911021000 METAR LRBM 021000Z AUTO 08007KT 9999 -RA BKN042/// /////
                        Q1014=
201911021030 METAR LRBM 021030Z AUTO 08007KT 9999 -RA OVC040/// /////
                        Q1013=
201911021100 METAR LRBM 021100Z AUTO 08007KT 9999 -RA SCT034/// BKN040///
                        ///// Q1013=
201911021130 METAR LRBM 021130Z AUTO 08006KT 9999 -RA SCT031/// OVC036///
                        ///// Q1013=
201911021200 METAR LRBM 021200Z AUTO 08008KT 7000 -RA BKN025/// BKN037///
                        ///// Q1013=
201911021230 METAR LRBM 021230Z AUTO 08007KT 9000 DZ BKN025/// OVC034///
                        ///// Q1013=
201911021300 METAR LRBM 021300Z AUTO 07008KT 7000 -RA SCT023/// BKN028///
                        ///// Q1013=
201911021330 METAR LRBM 021330Z AUTO 06008KT 5000 DZ SCT023/// OVC030///
                        ///// Q1012=
201911021400 METAR LRBM 021400Z AUTO 06009KT 9999 FEW024/// SCT035///
                        BKN040/// ///// Q1012 RERA=
201911021430 METAR LRBM 021430Z AUTO 06006KT 9999 FEW042/// OVC049///
                        ///// Q1012 REDZ=
201911021500 METAR LRBM 021500Z AUTO 06005KT 030V090 9999 BKN037/// BKN050///
                        ///// Q1011=
201911021530 METAR LRBM 021530Z AUTO 06005KT 9999 OVC035/// ///// Q1011
                        REUP=
201911021600 METAR LRBM 021600Z AUTO 05006KT 9999 BKN032/// BKN038///
                        ///// Q1011 RERA=
201911021630 METAR LRBM 021630Z AUTO 06006KT 9999 -SHRA BKN038/// OVC050///
                        ///// Q1011=
201911021700 METAR LRBM 021700Z AUTO 06006KT 9999 -SHRA BKN041/// /////
                        Q1011=
201911021730 METAR LRBM 021730Z AUTO 06004KT 9999 -SHRA BKN035/// OVC041///
                        ///// Q1011=
201911021800 METAR LRBM 021800Z AUTO 06004KT 9999 -RA BKN032/// /////
                        Q1011=
201911021830 METAR LRBM 021830Z AUTO 05005KT 9999 RA OVC029/// ///// Q1011=
201911021900 METAR LRBM 021900Z AUTO 06006KT 9999 -RA BKN028/// /////
                        Q1011=
201911021930 METAR LRBM 021930Z AUTO 05004KT 020V080 9000 RA BKN027///
                        OVC031/// ///// Q1011=
201911022000 METAR LRBM 022000Z AUTO 06004KT 9000 RA SCT027/// BKN031///
                        ///// Q1011=
201911022030 METAR LRBM 022030Z AUTO 05004KT 9000 RA SCT027/// OVC033///
                        ///// Q1010=
201911022100 METAR LRBM 022100Z AUTO 06003KT 8000 RA SCT027/// BKN032///
                        ///// Q1010=
201911022130 METAR LRBM 022130Z AUTO 06004KT 9999 -RA SCT030/// OVC035///
                        ///// Q1010=
201911022200 METAR LRBM 022200Z AUTO 07006KT 9999 -RA SCT029/// BKN033///
                        ///// Q1010=
201911022230 METAR LRBM 022230Z AUTO 06005KT 9999 -RA FEW024/// OVC028///
                        ///// Q1010=
201911022300 METAR LRBM 022300Z AUTO 07007KT 9999 -RA BKN020/// BKN026///
                        ///// Q1009=
201911022330 METAR LRBM 022330Z AUTO 05005KT 9999 -RA BKN022/// OVC027///
                        ///// Q1009=
201911030000 METAR LRBM 030000Z AUTO 05005KT 9999 -RA FEW019/// BKN022///
                        BKN029/// ///// Q1009=
201911030030 METAR LRBM 030030Z AUTO 06005KT 9999 -RA SCT022/// BKN027///
                        OVC031/// ///// Q1009=
201911030100 METAR LRBM 030100Z AUTO 05005KT 9999 -RA FEW023/// BKN031///
                        ///// Q1008=
201911030130 METAR LRBM 030130Z AUTO 05004KT 6000 RA FEW025/// OVC030///
                        ///// Q1008=
201911030200 METAR LRBM 030200Z AUTO 05004KT 9999 -RA SCT023/// BKN027///
                        BKN031/// ///// Q1008=
201911030230 METAR LRBM 030230Z AUTO 05005KT 9999 -SHRA SCT028/// OVC032///
                        ///// Q1008=
201911030300 METAR LRBM 030300Z AUTO 07004KT 6000 SHRA SCT020/// BKN028///
                        ///// Q1008=
201911030330 METAR LRBM 030330Z AUTO 05004KT 9999 -RA SCT027/// BKN037///
                        OVC043/// ///// Q1008=
201911030400 METAR LRBM 030400Z AUTO 06005KT 030V090 9999 -DZ FEW029///
                        BKN039/// BKN120/// ///// Q1007=
201911030430 METAR LRBM 030430Z AUTO 06004KT 9999 BKN038/// BKN044///
                        OVC090/// ///// Q1007 RERA=
201911030500 METAR LRBM 030500Z AUTO 08005KT 9999 -SHRA FEW028/// BKN040///
                        OVC070/// ///// Q1007=
201911030530 METAR LRBM 030530Z AUTO 07005KT 9999 FEW028/// BKN041///
                        BKN050/// ///// Q1007 REDZ=
201911030600 METAR LRBM 030600Z AUTO 06005KT 9999 -SHRA FEW023/// SCT035///
                        OVC043/// ///// Q1007=
201911030630 METAR LRBM 030630Z AUTO 09004KT 9999 -SHRA FEW024/// BKN034///
                        OVC040/// ///// Q1007=
201911030700 METAR LRBM 030700Z AUTO 07005KT 9999 -SHRA FEW022/// BKN026///
                        BKN032/// ///// Q1007=
201911030730 METAR LRBM 030730Z AUTO 08003KT 9000 -SHRA BKN023/// BKN034///
                        ///// Q1007=
201911030800 METAR LRBM 030800Z AUTO 06005KT 8000 -RA FEW023/// BKN029///
                        BKN034/// ///// Q1007=
201911030830 METAR LRBM 030830Z AUTO 06004KT 020V080 9999 SCT035/// OVC040///
                        ///// Q1007 RERA=
201911030900 METAR LRBM 030900Z AUTO 07004KT 9999 FEW041/// BKN050///
                        OVC065/// ///// Q1006=
201911030930 METAR LRBM 030930Z AUTO 06004KT 9999 SCT038/// BKN050///
                        OVC065/// ///// Q1006=
201911031000 METAR LRBM 031000Z AUTO 07005KT 9999 -RA BKN040/// OVC050///
                        ///// Q1006=
201911031030 METAR LRBM 031030Z AUTO 06004KT 9999 FEW039/// BKN048///
                        ///// Q1006 RERA=
201911031100 METAR LRBM 031100Z AUTO 05004KT 9999 -SHRA BKN046/// /////
                        Q1005=
201911031130 METAR LRBM 031130Z AUTO 05004KT 9999 OVC046/// ///// Q1005
                        REDZ=
201911031200 METAR LRBM 031200Z AUTO 05006KT 9999 -SHRA FEW044/// BKN050///
                        ///// Q1005=
201911031230 METAR LRBM 031230Z AUTO 05006KT 9999 BKN050/// ///// Q1004
                        RERA=
201911031300 METAR LRBM 031300Z AUTO 05005KT 9999 BKN060/// ///// Q1004=
201911031330 METAR LRBM 031330Z AUTO 05005KT 020V080 9999 OVC060/// /////
                        Q1004=
201911031400 METAR LRBM 031400Z AUTO 06006KT 9999 -SHRA BKN060/// /////
                        Q1004=
201911031430 METAR LRBM 031430Z AUTO 05006KT 9999 BKN065/// ///// Q1004
                        REDZ=
201911031500 METAR LRBM 031500Z AUTO 06005KT 9999 -SHRA OVC065/// /////
                        Q1004=
201911031530 METAR LRBM 031530Z AUTO 06005KT 9999 OVC060/// ///// Q1004
                        RERA=
201911031600 METAR LRBM 031600Z AUTO 05006KT 9999 OVC060/// ///// Q1003=
201911031630 METAR LRBM 031630Z AUTO 04005KT 9999 BKN055/// ///// Q1003=
201911031700 METAR LRBM 031700Z AUTO 05006KT 9999 FEW055/// BKN070///
                        BKN100/// ///// Q1003=
201911031730 METAR LRBM 031730Z AUTO 06005KT 020V080 9999 FEW055/// BKN095///
                        ///// Q1003=
201911031800 METAR LRBM 031800Z 05005KT 9999 SCT055 15/12 Q1003=
201911031830 METAR LRBM 031830Z 06004KT 9999 FEW050 15/12 Q1003=
201911031900 METAR COR LRBM 031900Z 06004KT 9999 SCT050 15/12 Q1003=
201911031930 METAR LRBM 031930Z 06005KT 9999 SCT050 15/12 Q1003=
201911032000 METAR LRBM 032000Z 05005KT 9999 -RA BKN045 15/12 Q1003=
201911032030 METAR LRBM 032030Z 07008KT 9999 BKN045 16/12 Q1002=
201911032100 METAR LRBM 032100Z 06007KT 030V090 9999 BKN045 16/12 Q1002=
201911032130 METAR LRBM 032130Z 06007KT 9999 SCT050 16/12 Q1002=
201911032200 METAR LRBM 032200Z 08009KT 9999 SCT050 16/12 Q1002=
201911032230 METAR LRBM 032230Z AUTO 07008KT 9999 SCT060/// BKN075///
                        BKN090/// ///// Q1002=
201911032300 METAR LRBM 032300Z AUTO 07007KT 9999 FEW065/// OVC090///
                        ///// Q1002=
201911032330 METAR LRBM 032330Z AUTO 07009KT 9999 FEW070/// OVC100///
                        ///// Q1002=
201911040000 METAR LRBM 040000Z AUTO 07009KT 9999 FEW065/// SCT080///
                        OVC100/// ///// Q1001=
201911040030 METAR LRBM 040030Z AUTO 08009KT 9999 BKN070/// OVC100///
                        ///// Q1001=
201911040100 METAR LRBM 040100Z AUTO 08008KT 9999 BKN075/// OVC110///
                        ///// Q1001=
201911040130 METAR LRBM 040130Z AUTO 07009KT 9999 BKN095/// BKN120///
                        ///// Q1001=
201911040200 METAR LRBM 040200Z AUTO 08009KT 9999 OVC085/// ///// Q1001=
201911040230 METAR LRBM 040230Z AUTO 07008KT 9999 SCT070/// BKN085///
                        BKN100/// ///// Q1000=
201911040300 METAR LRBM 040300Z 08009KT 9999 FEW056 17/12 Q1000=
201911040330 METAR LRBM 040330Z 08009KT 9999 FEW056 17/12 Q1000=
201911040400 METAR LRBM 040400Z 08010KT 9999 FEW058 17/12 Q1000=
201911040430 METAR LRBM 040430Z 08009KT 9999 BKN050 17/11 Q0999=
201911040500 METAR LRBM 040500Z 08011KT 9999 BKN053 17/11 Q0999=
201911040530 METAR LRBM 040530Z 08010KT 9999 FEW055 17/11 Q1000=
201911040600 METAR LRBM 040600Z 08010KT 9999 FEW058 17/11 Q0999=
201911040630 METAR LRBM 040630Z 08011KT 9999 SCT058 17/11 Q1000=
201911040700 METAR LRBM 040700Z 08010KT 9999 SCT058 17/12 Q1000=
201911040730 METAR LRBM 040730Z 09009KT 9999 BKN058 17/12 Q1000=
201911040800 METAR LRBM 040800Z 08008KT 9999 -RA BKN055 17/13 Q1000=
201911040830 METAR COR LRBM 040830Z 07008KT 9999 -RA BKN053 17/13 Q0999
                        R09/19//95=
201911040900 METAR LRBM 040900Z 08011KT 9999 -RA BKN053 17/13 Q0999 R09/19//95=
201911040930 METAR COR LRBM 040930Z 08010KT 9999 FEW032 17/14 Q0999 R09/19//95=
201911041000 METAR LRBM 041000Z 09013KT 9999 -RA FEW032 SCT056 17/14 Q0999
                        R09/19//95=
201911041030 METAR LRBM 041030Z 08011KT 9999 FEW032 17/14 Q0998 R09/19//95=
201911041100 METAR LRBM 041100Z 08010KT 9999 FEW040 18/14 Q0998 R09/19//95=
201911041130 METAR LRBM 041130Z 09012KT 9999 FEW043 18/14 Q0998 R09/19//95=
201911041200 METAR LRBM 041200Z 08009KT 9999 SCT047 18/13 Q0998 R09/19//95=
201911041230 METAR LRBM 041230Z 08009KT 9999 -RA BKN053 18/13 Q0998 R09/19//95=
201911041300 METAR LRBM 041300Z 08009KT 9999 -RA BKN050 17/14 Q0997 R09/19//95=
201911041330 METAR LRBM 041330Z 05006KT 020V080 9999 VCSH FEW045CB BKN050
                        16/15 Q0997 R09/19//95=
201911041400 METAR COR LRBM 041400Z 02004KT 340V050 9999 -RA BKN050 16/15
                        Q0997 R09/19//95=
201911041430 METAR LRBM 041430Z 08005KT 050V110 9999 -SHRA SCT045CB BKN050
                        16/15 Q0997 R09/19//95=
201911041500 METAR LRBM 041500Z 06004KT 010V080 8000 -SHRA SCT045CB BKN050
                        15/15 Q0998 R09/19//95=
201911041530 METAR LRBM 041530Z 04003KT 8000 -RA BKN047 15/15 Q0998 R09/19//95=
201911041600 METAR LRBM 041600Z 33003KT 8000 -RA FEW031 BKN044 15/15 Q0998
                        R09/19//95=
201911041630 METAR LRBM 041630Z 08006KT 9999 -RA FEW033 BKN047 15/15 Q0998
                        R09/29//95=
201911041700 METAR LRBM 041700Z 05004KT 9999 -RA OVC055 15/15 Q0999 R09/29//95=
201911041730 METAR LRBM 041730Z VRB02KT 9999 -RA FEW038 SCT043 BKN050
                        14/14 Q0999 R09/29//95=
201911041800 METAR COR LRBM 041800Z 18004KT 130V240 9999 SCT034 BKN042
                        OVC050 15/15 Q1000 R09/29//95=
201911041830 METAR LRBM 041830Z 02002KT 9999 FEW034 BKN047 14/14 Q1000
                        R09/29//95=
201911041900 METAR LRBM 041900Z 21003KT 9999 FEW031 SCT036 BKN043 14/14
                        Q1000 R09/29//95=
201911041930 METAR LRBM 041930Z 19004KT 140V220 9999 -RA FEW029 SCT042
                        14/14 Q1000 R09/29//95=
201911042000 METAR LRBM 042000Z 22007KT 9999 -RA FEW018 BKN024 BKN035
                        14/14 Q1001 R09/29//95=
201911042030 METAR LRBM 042030Z 25009KT 9999 FEW014 SCT018 BKN023 13/13
                        Q1001 R09/29//95=
201911042100 METAR LRBM 042100Z 25006KT 9999 FEW014 SCT017 BKN020 13/13
                        Q1002 R09/29//95=
201911042130 METAR LRBM 042130Z 27005KT 9999 FEW014 SCT018 BKN021 13/13
                        Q1002 R09/29//95=
201911042200 METAR LRBM 042200Z 28004KT 9999 SCT015 BKN020 OVC055 12/12
                        Q1003 R09/29//95=
201911042230 METAR LRBM 042230Z AUTO 28004KT 9999 FEW015/// BKN021///
                        BKN065/// ///// Q1003=
201911042300 METAR LRBM 042300Z AUTO 27003KT 200V320 9999 SCT015/// BKN021///
                        ///// Q1004=
201911042330 METAR LRBM 042330Z AUTO VRB01KT 9999 FEW015/// BKN020///
                        ///// Q1004=
201911050000 METAR LRBM 050000Z AUTO 25001KT 9999 FEW017/// SCT020///
                        BKN110/// ///// Q1005=
201911050030 METAR LRBM 050030Z AUTO VRB01KT 9999 BKN100/// BKN110///
                        ///// Q1005=
201911050100 METAR LRBM 050100Z AUTO 35002KT 9999 BKN095/// OVC110///
                        ///// Q1005=
201911050130 METAR LRBM 050130Z AUTO 03003KT 360V060 9999 FEW055/// BKN095///
                        ///// Q1005=
201911050200 METAR LRBM 050200Z AUTO 05003KT 9999 SCT075/// BKN090///
                        ///// Q1005=
201911050230 METAR LRBM 050230Z AUTO 05003KT 010V080 9999 -RA SCT055///
                        BKN070/// ///// Q1006=
201911050300 METAR LRBM 050300Z 07005KT 9999 -RA BKN040 10/10 Q1006 R09/29//95=
201911050330 METAR LRBM 050330Z 07005KT 9999 -RA BKN040 10/10 Q1006 R09/29//95=
201911050400 METAR LRBM 050400Z 06005KT 9999 SCT043 10/10 Q1006 R09/29//95=
201911050430 METAR LRBM 050430Z 06003KT 340V120 9999 SCT045 10/10 Q1006
                        R09/29//95=
201911050500 METAR LRBM 050500Z 08006KT 9999 BKN037 11/11 Q1006 R09/29//95=
201911050530 METAR LRBM 050530Z 06005KT 9999 BKN038 11/11 Q1006 R09/29//95=
201911050600 METAR LRBM 050600Z 09006KT 9999 BKN040 11/11 Q1006 R09/29//95=
201911050630 METAR LRBM 050630Z 06004KT 9999 BKN043 11/11 Q1007 R09/29//95=
201911050700 METAR LRBM 050700Z 07005KT 9999 BKN047 12/11 Q1007 R09/29//95=
201911050730 METAR LRBM 050730Z 08007KT 9999 -RA BKN045 13/11 Q1008 R09/29//95=
201911050800 METAR LRBM 050800Z 05004KT 9999 BKN048 13/11 Q1007 R09/29//95=
201911050830 METAR LRBM 050830Z 07008KT 9999 BKN050 14/11 Q1007 R09/19//95=
201911050900 METAR LRBM 050900Z 07007KT 9999 BKN045 14/11 Q1007 R09/19//95=
201911050930 METAR LRBM 050930Z 08008KT 9999 BKN050 15/11 Q1007 R09/19//95=
201911051000 METAR LRBM 051000Z 09007KT 9999 BKN050 15/12 Q1006 R09/19//95=
201911051030 METAR LRBM 051030Z 10008KT 9999 SCT055 16/12 Q1006 R09/19//95=
201911051100 METAR LRBM 051100Z 09009KT 9999 FEW057 16/12 Q1005 R09/19//95=
201911051130 METAR LRBM 051130Z 08007KT 9999 SCT057 16/12 Q1005 R09/19//95=
201911051200 METAR LRBM 051200Z 08009KT 9999 FEW050 17/12 Q1004 R09/19//95=
201911051230 METAR LRBM 051230Z 09009KT 9999 FEW053 18/12 Q1004 R09/CLRD//=
201911051300 METAR LRBM 051300Z 09011KT 9999 FEW057 18/12 Q1004=
201911051330 METAR LRBM 051330Z 08010KT 9999 FEW057 18/12 Q1004=
201911051400 METAR LRBM 051400Z 09008KT 9999 FEW057 17/12 Q1003=
201911051430 METAR LRBM 051430Z 09009KT CAVOK 17/11 Q1003=
201911051500 METAR LRBM 051500Z 08007KT CAVOK 17/11 Q1003=
201911051530 METAR LRBM 051530Z 08008KT CAVOK 17/10 Q1003=
201911051600 METAR LRBM 051600Z 08007KT CAVOK 17/10 Q1003=
201911051630 METAR LRBM 051630Z 07007KT CAVOK 17/09 Q1003=
201911051700 METAR LRBM 051700Z 07008KT CAVOK 17/09 Q1003=
201911051730 METAR LRBM 051730Z 08010KT CAVOK 16/09 Q1003=
201911051800 METAR LRBM 051800Z 07009KT CAVOK 16/09 Q1002=
201911051830 METAR LRBM 051830Z 08009KT CAVOK 16/09 Q1002=
201911051900 METAR LRBM 051900Z 07009KT CAVOK 16/08 Q1002=
201911051930 METAR LRBM 051930Z 08010KT CAVOK 16/08 Q1002=
201911052000 METAR LRBM 052000Z 07009KT CAVOK 16/08 Q1002=
201911052030 METAR COR LRBM 052030Z 08009KT 9999 FEW050 16/08 Q1001=
201911052100 METAR LRBM 052100Z 08009KT 9999 FEW057 16/08 Q1001=
201911052130 METAR LRBM 052130Z 08010KT 9999 FEW060 16/08 Q1000=
201911052200 METAR LRBM 052200Z 08009KT CAVOK 16/09 Q1000=
201911052230 METAR LRBM 052230Z AUTO 07009KT 9999 BKN075/// OVC090///
                        ///// Q1000=
201911052300 METAR LRBM 052300Z AUTO 07009KT 9999 OVC070/// ///// Q1000=
201911052330 METAR LRBM 052330Z AUTO 08008KT 9999 OVC070/// ///// Q1000=
201911060000 METAR LRBM 060000Z AUTO 08006KT 9999 BKN070/// OVC085///
                        ///// Q1000=
201911060030 METAR LRBM 060030Z AUTO 07006KT 9999 BKN065/// ///// Q1000=
201911060100 METAR LRBM 060100Z AUTO 05004KT 020V080 9999 BKN065/// /////
                        Q0999=
201911060130 METAR LRBM 060130Z AUTO 09005KT 9999 OVC065/// ///// Q0999=
201911060200 METAR LRBM 060200Z AUTO 29005KT 260V320 9999 OVC060/// /////
                        Q1000=
201911060230 METAR LRBM 060230Z AUTO 28007KT 9999 OVC060/// ///// Q1000=
201911060300 METAR LRBM 060300Z 28005KT 9999 BKN055 15/11 Q1000=
201911060330 METAR LRBM 060330Z VRB02KT 9999 OVC055 15/12 Q1001=
201911060400 METAR LRBM 060400Z 35002KT 9999 FEW033 SCT038 OVC050 14/11
                        Q1000=
201911060430 METAR LRBM 060430Z 20003KT 120V230 9999 -RA FEW030 BKN038
                        OVC048 14/12 Q1001=
201911060500 METAR LRBM 060500Z 06001KT 9999 -RA SCT022 BKN038 13/13 Q1002=
201911060530 METAR LRBM 060530Z 07005KT 9999 -RA FEW020 BKN038 12/12 Q1002=
201911060600 METAR LRBM 060600Z 09006KT 7000 -RA SCT014 BKN038 12/12 Q1003=
201911060630 METAR LRBM 060630Z 08005KT 9999 -RA FEW010 BKN013 BKN038
                        12/12 Q1003=
201911060700 METAR LRBM 060700Z 08007KT 9999 -RA SCT013 SCT040 13/13 Q1003
                        R09/29//95=
201911060730 METAR LRBM 060730Z 08010KT 9999 -RA FEW016 SCT045 13/13 Q1002
                        R09/29//95=
201911060800 METAR LRBM 060800Z 06005KT 030V090 9999 FEW016 SCT047 14/14
                        Q1002 R09/29//95=
201911060830 METAR LRBM 060830Z 06003KT 9999 FEW022 SCT035 14/14 Q1003
                        R09/29//95=
201911060900 METAR LRBM 060900Z 12003KT 070V190 9999 FEW025 SCT038 15/15
                        Q1004 R09/29//95=
201911060930 METAR LRBM 060930Z 14003KT 090V200 9999 FEW025 BKN033 15/14
                        Q1004=
201911061000 METAR LRBM 061000Z 26009KT 9999 FEW023 BKN035 15/14 Q1005=
201911061030 METAR LRBM 061030Z 26006KT 200V310 9999 FEW025 BKN033 15/13
                        Q1005=
201911061100 METAR LRBM 061100Z 25003KT 9999 FEW028 BKN032 OVC042 15/13
                        Q1005=
201911061130 METAR LRBM 061130Z 29003KT 250V330 9999 -RA BKN040 14/13
                        Q1005 R09/19//95=
201911061200 METAR LRBM 061200Z 26004KT 9999 BKN042 14/13 Q1006 R09/29//95=
201911061230 METAR LRBM 061230Z 30008KT 9999 FEW028TCU SCT035 BKN045 13/12
                        Q1006 R09/29//95=
201911061300 METAR LRBM 061300Z 29007KT 260V320 9999 FEW032TCU BKN040
                        13/12 Q1007 R09/29//95=
201911061330 METAR LRBM 061330Z 30006KT 270V330 9999 FEW030TCU BKN042
                        13/12 Q1007 R09/29//95=
201911061400 METAR LRBM 061400Z 31005KT 280V340 9999 SCT038 14/12 Q1007
                        R09/29//95=
201911061430 METAR LRBM 061430Z VRB01KT 9999 SCT040 13/12 Q1007 R09/19//95=
201911061500 METAR LRBM 061500Z 33003KT 290V020 9999 BKN042 13/12 Q1008
                        R09/19//95=
201911061530 METAR LRBM 061530Z VRB02KT 9999 BKN035 13/12 Q1008 R09/19//95=
201911061600 METAR LRBM 061600Z 30004KT 270V340 9999 BKN036 13/11 Q1008
                        R09/19//95=
201911061630 METAR LRBM 061630Z 31003KT 270V360 9999 SCT043 13/11 Q1008
                        R09/19//95=
201911061700 METAR LRBM 061700Z VRB02KT 9999 SCT050 12/11 Q1008 R09/19//95=
201911061730 METAR LRBM 061730Z VRB02KT 9999 FEW055 11/11 Q1008 R09/19//95=
201911061800 METAR LRBM 061800Z 02003KT 9999 FEW057 10/10 Q1008 R09/19//95=
201911061830 METAR LRBM 061830Z 04003KT 320V080 CAVOK 10/10 Q1008 R09/19//95=
201911061900 METAR LRBM 061900Z VRB02KT CAVOK 09/09 Q1008 R09/19//95=
201911061930 METAR LRBM 061930Z VRB02KT CAVOK 09/09 Q1009 R09/19//95=
201911062000 METAR LRBM 062000Z VRB02KT 9999 FEW035 08/08 Q1009 R09/19//95=
201911062030 METAR LRBM 062030Z 02002KT 9999 FEW035 09/09 Q1009 R09/19//95=
201911062100 METAR LRBM 062100Z VRB02KT 9999 FEW045 09/09 Q1009 R09/19//95=
201911062130 METAR LRBM 062130Z 07004KT 030V090 CAVOK 09/09 Q1009 R09/19//95=
201911062200 METAR LRBM 062200Z 07004KT CAVOK 09/09 Q1008 R09/19//95=
201911062230 METAR LRBM 062230Z AUTO VRB02KT 9999 FEW140/// BKN160///
                        ///// Q1009=
201911062300 METAR LRBM 062300Z AUTO VRB02KT 9999 BKN140/// OVC170///
                        ///// Q1009=
201911062330 METAR LRBM 062330Z AUTO 00000KT 9999 OVC140/// ///// Q1008=
201911070000 METAR LRBM 070000Z AUTO VRB01KT 9999 BKN130/// BKN150///
                        ///// Q1008=
201911070030 METAR LRBM 070030Z AUTO 00000KT 9999 BKN110/// BKN130///
                        ///// Q1008=
201911070100 METAR LRBM 070100Z AUTO VRB02KT 9999 FEW100/// BKN110///
                        ///// Q1008=
201911070130 METAR LRBM 070130Z AUTO 09005KT 070V130 9999 SCT095/// BKN110///
                        ///// Q1008=
201911070200 METAR LRBM 070200Z AUTO 09005KT 060V120 9999 BKN075/// BKN095///
                        ///// Q1008=
201911070230 METAR LRBM 070230Z AUTO 08004KT 9999 -RA BKN065/// OVC080///
                        ///// Q1008=
201911070300 METAR LRBM 070300Z 08006KT 9999 -RA NSC 10/10 Q1008 R09/29//95=
201911070330 METAR LRBM 070330Z 08004KT 9999 -RA OVC060 10/10 Q1007 R09/29//95=
201911070400 METAR LRBM 070400Z 08004KT 9999 -RA OVC060 10/10 Q1007 R09/29//95=
201911070430 METAR LRBM 070430Z 12003KT 9999 -RA FEW045 BKN060 10/10 Q1007
                        R09/29//95=
201911070500 METAR LRBM 070500Z 10006KT 9999 -RA SCT045 BKN065 10/10 Q1007
                        R09/29//95=
201911070530 METAR LRBM 070530Z VRB03KT 9999 -RA BKN044 BKN065 10/10 Q1008
                        R09/29//95=
201911070600 METAR LRBM 070600Z 08004KT 9999 -RA SCT044 BKN063 10/10 Q1008
                        R09/29//95=
201911070630 METAR LRBM 070630Z 06005KT 9999 -RA FEW034 BKN041 11/11 Q1008
                        R09/29//95=
201911070700 METAR LRBM 070700Z 05005KT 9999 -RA SCT032 SCT040 BKN060
                        11/11 Q1008 R09/29//95=
201911070730 METAR LRBM 070730Z 04006KT 9999 -RA FEW031 SCT040 12/12 Q1007
                        R09/29//95=
201911070800 METAR LRBM 070800Z 05005KT 020V080 9999 FEW033 SCT045 12/12
                        Q1007 R09/29//95=
201911070830 METAR LRBM 070830Z 06004KT 9999 SCT033 SCT050 13/13 Q1008
                        R09/29//95=
201911070900 METAR LRBM 070900Z 08003KT 040V110 9999 FEW033 SCT050 13/13
                        Q1008 R09/29//95=
201911070930 METAR LRBM 070930Z 11006KT 9999 FEW036 14/13 Q1008 R09/29//95=
201911071000 METAR LRBM 071000Z 10006KT 9999 FEW036 14/13 Q1008 R09/29//95=
201911071030 METAR LRBM 071030Z 11004KT 9999 FEW036 14/13 Q1008 R09/19//95=
201911071100 METAR LRBM 071100Z 11005KT 9999 FEW036 14/12 Q1007 R09/19//95=
201911071130 METAR LRBM 071130Z 14004KT 110V170 9999 SCT035 SCT055 15/12
                        Q1008 R09/19//95=
201911071200 METAR LRBM 071200Z 19003KT 9999 FEW030 BKN050 15/12 Q1008
                        R09/19//95=
201911071230 METAR LRBM 071230Z VRB02KT 9999 FEW025 SCT041 15/12 Q1008
                        R09/19//95=
201911071300 METAR LRBM 071300Z 12002KT 9999 FEW025 BKN041 15/12 Q1008
                        R09/19//95=
201911071330 METAR LRBM 071330Z 00000KT 9999 FEW025 BKN038 15/13 Q1008
                        R09/19//95=
201911071400 METAR LRBM 071400Z VRB02KT 9999 FEW025 BKN038 14/12 Q1008
                        R09/19//95=
201911071430 METAR LRBM 071430Z 06002KT 9999 FEW028 SCT043 14/12 Q1009
                        R09/19//95=
201911071500 METAR LRBM 071500Z 31001KT 9999 FEW028 SCT043 13/13 Q1009
                        R09/19//95=
201911071530 METAR LRBM 071530Z 09002KT 8000 -RA FEW019 BKN040 13/13 Q1009
                        R09/19//95=
201911071600 METAR LRBM 071600Z VRB02KT 9999 FEW016 SCT040 BKN060 12/12
                        Q1010 R09/19//95=
201911071630 METAR LRBM 071630Z 29004KT 260V320 9999 FEW011 SCT029 BKN060
                        12/12 Q1010 R09/19//95=
201911071700 METAR LRBM 071700Z 30004KT 270V330 9999 FEW013 SCT019 BKN023
                        12/12 Q1011 R09/19//95=
201911071730 METAR LRBM 071730Z 30004KT 9999 FEW015 SCT023 BKN060 12/12
                        Q1011 R09/19//95=
201911071800 METAR LRBM 071800Z VRB02KT 9999 FEW015 SCT022 11/11 Q1011
                        R09/19//95=
201911071830 METAR LRBM 071830Z VRB01KT 9999 FEW014 SCT020 BKN028 11/11
                        Q1011 R09/19//95=
201911071900 METAR LRBM 071900Z VRB02KT 9999 SCT018 BKN030 11/11 Q1011
                        R09/19//95=
201911071930 METAR LRBM 071930Z 35002KT 9999 SCT020 BKN032 11/11 Q1012
                        R09/19//95=
201911072000 METAR LRBM 072000Z 00000KT 9999 FEW020 BKN032 11/11 Q1012
                        R09/19//95=
201911072030 METAR LRBM 072030Z 00000KT 9999 SCT020 BKN032 11/11 Q1012
                        R09/19//95=
201911072100 METAR LRBM 072100Z VRB01KT 9999 FEW022 BKN031 10/10 Q1012
                        R09/19//95=
201911072130 METAR LRBM 072130Z VRB01KT 9999 SCT028 BKN032 10/10 Q1012
                        R09/19//95=
201911072200 METAR LRBM 072200Z VRB02KT 9999 BKN026 OVC031 10/10 Q1012
                        R09/19//95=
201911072230 METAR LRBM 072230Z AUTO VRB02KT 4400 R09/1900VP2000U FEW028///
                        SCT033/// ///// Q1013=
201911072300 METAR LRBM 072300Z AUTO VRB02KT 5000 R09/0800VP2000D BR NCD
                        ///// Q1013=
201911072330 METAR LRBM 072330Z AUTO 07004KT 040V100 4600 BR FEW240///
                        ///// Q1013=
201911080000 METAR LRBM 080000Z AUTO VRB02KT 2700 R09/0800VP2000U FG BKN230///
                        ///// Q1013=
201911080030 METAR LRBM 080030Z AUTO VRB01KT 4900 FEW012/// BKN240///
                        ///// Q1013=
201911080100 METAR LRBM 080100Z AUTO 09002KT 8000 FEW008/// BKN230///
                        ///// Q1013=
201911080130 METAR LRBM 080130Z AUTO 07005KT 040V100 6000 BKN230/// /////
                        Q1013=
201911080200 METAR LRBM 080200Z AUTO 08006KT 040V110 7000 BKN220/// /////
                        Q1013=
201911080230 METAR LRBM 080230Z AUTO 04003KT 010V070 9000 BKN220/// /////
                        Q1013=
201911080300 METAR LRBM 080300Z 00000KT CAVOK 08/08 Q1013 R09/19//95=
201911080330 METAR LRBM 080330Z 06004KT 020V090 CAVOK 08/08 Q1012 R09/19//95=
201911080400 METAR LRBM 080400Z 07005KT CAVOK 08/08 Q1013 R09/19//95=
201911080430 METAR LRBM 080430Z 06004KT CAVOK 06/06 Q1013 R09/19//95=
201911080500 METAR LRBM 080500Z 08006KT CAVOK 06/06 Q1012 R09/19//95=
201911080530 METAR LRBM 080530Z 06004KT 010V080 CAVOK 08/08 Q1012 R09/19//95=
201911080600 METAR LRBM 080600Z 09006KT CAVOK 08/08 Q1012 R09/19//95=
201911080630 METAR LRBM 080630Z 10005KT CAVOK 07/07 Q1012 R09/19//95=
201911080700 METAR COR LRBM 080700Z 10005KT CAVOK 07/07 Q1012 R09/19//95=
201911080730 METAR LRBM 080730Z VRB03KT CAVOK 09/09 Q1011 R09/19//95=
201911080800 METAR LRBM 080800Z 00000KT CAVOK 09/09 Q1011 R09/19//95=
201911080830 METAR LRBM 080830Z 29003KT 250V320 CAVOK 09/09 Q1011 R09/19//95=
201911080900 METAR LRBM 080900Z 00000KT 9999 -RA FEW043 SCT060 10/10 Q1011
                        R09/19//95=
201911080930 METAR LRBM 080930Z VRB02KT 9999 -RA FEW018 SCT046 11/11 Q1011
                        R09/19//95=
201911081000 METAR LRBM 081000Z 06002KT 9999 -RA FEW020 BKN050 11/11 Q1011
                        R09/19//95=
201911081030 METAR LRBM 081030Z 03001KT 6000 -RA FEW020 SCT044 OVC050
                        11/11 Q1011 R09/19//95=
201911081100 METAR LRBM 081100Z VRB03KT 6000 -RA FEW023 SCT045 OVC055
                        11/11 Q1010 R09/19//95=
201911081130 METAR LRBM 081130Z 05004KT 9999 -RA FEW044 BKN055 12/12 Q1010
                        R09/29//95=
201911081200 METAR LRBM 081200Z VRB03KT 9999 SCT050 BKN060 13/13 Q1009
                        R09/29//95=
201911081230 METAR LRBM 081230Z 00000KT 9000 -RA FEW002 SCT053 12/12 Q1009
                        R09/29//95=
201911081300 METAR LRBM 081300Z 11004KT 8000 FEW003 SCT053 12/12 Q1009
                        R09/29//95=
201911081330 METAR LRBM 081330Z 09006KT 9000 BKN050 12/12 Q1008 R09/29//95=
201911081400 METAR LRBM 081400Z 17004KT 9999 BKN050 12/12 Q1008 R09/29//95=
201911081430 METAR LRBM 081430Z 00000KT 9999 -RA NSC 12/12 Q1009 R09/29//95=
201911081500 METAR LRBM 081500Z 00000KT 9999 -RA NSC 12/12 Q1009 R09/29//95=
201911081530 METAR LRBM 081530Z AUTO 09001KT 4700 -RA BKN075/// BKN090///
                        ///// Q1009=
201911081600 METAR LRBM 081600Z AUTO 11004KT 080V140 9999 -DZ SCT080///
                        OVC095/// ///// Q1009=
201911081630 METAR LRBM 081630Z AUTO 09005KT 060V120 9999 -RA BKN075///
                        OVC090/// ///// Q1009=
201911081700 METAR LRBM 081700Z AUTO 07005KT 7000 -RA BKN075/// OVC090///
                        ///// Q1009=
201911081730 METAR LRBM 081730Z AUTO 07008KT 9999 -RA OVC070/// /////
                        Q1009=
201911081800 METAR LRBM 081800Z AUTO 07010KT 9999 -RA BKN075/// /////
                        Q1009=
201911081830 METAR LRBM 081830Z AUTO 08008KT 9999 -RA BKN070/// OVC085///
                        ///// Q1009=
201911081900 METAR LRBM 081900Z AUTO 08010KT 9999 -DZ SCT080/// BKN100///
                        ///// Q1009=
201911081930 METAR LRBM 081930Z AUTO 08007KT 9999 FEW060/// BKN150///
                        ///// Q1010 RERA=
201911082000 METAR LRBM 082000Z AUTO 16003KT 9999 BKN060/// ///// Q1010=
201911082030 METAR LRBM 082030Z AUTO VRB02KT 9999 FEW060/// OVC075///
                        ///// Q1010=
201911082100 METAR LRBM 082100Z AUTO 00000KT 7000 FEW065/// OVC080///
                        ///// Q1010=
201911082130 METAR LRBM 082130Z AUTO 06002KT 5000 BR BKN065/// OVC080///
                        ///// Q1010=
201911082200 METAR LRBM 082200Z AUTO VRB02KT 8000 BKN055/// ///// Q1011=
201911082230 METAR LRBM 082230Z AUTO 00000KT 5000 BR FEW055/// OVC085///
                        ///// Q1011=
201911082300 METAR LRBM 082300Z AUTO VRB02KT 5000 BR FEW085/// SCT100///
                        ///// Q1011=
201911082330 METAR LRBM 082330Z AUTO 04003KT 6000 R09/1400VP2000U FEW100///
                        ///// Q1011=
201911090000 METAR LRBM 090000Z AUTO VRB02KT 7000 SCT070/// ///// Q1011=
201911090030 METAR LRBM 090030Z AUTO 04003KT 360V080 9999 FEW080/// /////
                        Q1011=
201911090100 METAR LRBM 090100Z AUTO VRB02KT 9999 FEW065/// SCT085///
                        ///// Q1011=
201911090130 METAR LRBM 090130Z AUTO VRB02KT 9999 SCT055/// BKN070///
                        ///// Q1011=
201911090200 METAR LRBM 090200Z AUTO VRB02KT 9999 SCT049/// ///// Q1011=
201911090230 METAR LRBM 090230Z AUTO 08003KT 9999 SCT070/// ///// Q1012=
201911090300 METAR LRBM 090300Z AUTO 12003KT 090V160 9999 SCT049/// BKN080///
                        ///// Q1011=
201911090330 METAR LRBM 090330Z AUTO 13003KT 080V170 5000 BR SCT049///
                        ///// Q1012=
201911090400 METAR LRBM 090400Z AUTO 08005KT 7000 SCT055/// BKN070///
                        ///// Q1012=
201911090430 METAR LRBM 090430Z AUTO 09006KT 9999 FEW060/// ///// Q1012=
201911090500 METAR LRBM 090500Z AUTO 08006KT 9999 NCD ///// Q1012=
201911090530 METAR LRBM 090530Z AUTO 09006KT 9999 NCD ///// Q1012=
201911090600 METAR LRBM 090600Z AUTO 10004KT 6000 NCD ///// Q1013=
201911090630 METAR LRBM 090630Z AUTO 09005KT 9999 NCD ///// Q1013=
201911090700 METAR LRBM 090700Z AUTO 09005KT 9999 NCD ///// Q1013=
201911090730 METAR LRBM 090730Z AUTO 09006KT 9999 NCD ///// Q1013=
201911090800 METAR LRBM 090800Z AUTO 09007KT 9999 NCD ///// Q1013=
201911090830 METAR LRBM 090830Z AUTO 09007KT 9999 NCD ///// Q1013=
201911090900 METAR LRBM 090900Z AUTO 11007KT 9999 NCD ///// Q1013=
201911090930 METAR LRBM 090930Z AUTO 13005KT 100V170 9999 NCD ///// Q1013=
201911091000 METAR LRBM 091000Z AUTO 12003KT 070V180 9999 FEW220/// /////
                        Q1013=
201911091030 METAR LRBM 091030Z AUTO 12005KT 9999 NCD ///// Q1012=
201911091100 METAR LRBM 091100Z AUTO 12005KT 080V160 9999 NCD ///// Q1012=
201911091130 METAR LRBM 091130Z AUTO 13005KT 100V170 9999 NCD ///// Q1012=
201911091200 METAR LRBM 091200Z AUTO 13006KT 100V160 9999 NCD ///// Q1012=
201911091230 METAR LRBM 091230Z AUTO 13006KT 100V170 9999 NCD ///// Q1011=
201911091300 METAR LRBM 091300Z AUTO 11005KT 9999 NCD ///// Q1011=
201911091330 METAR LRBM 091330Z AUTO 11004KT 9999 NCD ///// Q1011=
201911091400 METAR LRBM 091400Z AUTO 09004KT 9999 NCD ///// Q1011=
201911091430 METAR LRBM 091430Z AUTO 07004KT 9999 NCD ///// Q1011=
201911091500 METAR LRBM 091500Z AUTO 06002KT 9999 NCD ///// Q1011=
201911091530 METAR LRBM 091530Z AUTO 05003KT 9999 NCD ///// Q1011=
201911091600 METAR LRBM 091600Z AUTO 04004KT 9999 SCT075/// ///// Q1011=
201911091630 METAR LRBM 091630Z AUTO VRB02KT 9000 SCT075/// BKN240///
                        ///// Q1012=
201911091700 METAR LRBM 091700Z AUTO 00000KT 9999 SCT070/// BKN240///
                        ///// Q1012=
201911091730 METAR LRBM 091730Z AUTO 03002KT 7000 FEW070/// SCT140///
                        ///// Q1012=
201911091800 METAR LRBM 091800Z AUTO 04006KT 360V070 9999 BKN120/// BKN140///
                        ///// Q1011=
201911091830 METAR LRBM 091830Z AUTO 07003KT 9999 BKN120/// ///// Q1011=
201911091900 METAR LRBM 091900Z AUTO VRB02KT 9999 FEW130/// SCT150///
                        ///// Q1012=
201911091930 METAR LRBM 091930Z AUTO 00000KT 9999 NCD ///// Q1012=
201911092000 METAR LRBM 092000Z AUTO 05003KT 020V100 9999 SCT080/// /////
                        Q1011=
201911092030 METAR LRBM 092030Z AUTO 06003KT 9999 FEW080/// BKN095///
                        ///// Q1011=
201911092100 METAR LRBM 092100Z AUTO VRB02KT 9999 FEW080/// ///// Q1011=
201911092130 METAR LRBM 092130Z AUTO 08004KT 9999 NCD ///// Q1011=
201911092200 METAR LRBM 092200Z AUTO 09003KT 9999 SCT075/// BKN090///
                        ///// Q1011=
201911092230 METAR LRBM 092230Z AUTO 04003KT 010V070 9999 BKN080/// /////
                        Q1011=
201911092300 METAR LRBM 092300Z AUTO VRB02KT 9999 SCT075/// BKN090///
                        ///// Q1011=
201911092330 METAR LRBM 092330Z AUTO VRB02KT 9999 BKN085/// BKN150///
                        ///// Q1011=
201911100000 METAR LRBM 100000Z AUTO 04002KT 9999 SCT070/// BKN085///
                        ///// Q1011=
201911100030 METAR LRBM 100030Z AUTO 09004KT 9999 BKN075/// ///// Q1011=
201911100100 METAR LRBM 100100Z AUTO 06002KT 9999 BKN080/// ///// Q1010=
201911100130 METAR LRBM 100130Z AUTO 10006KT 9999 BKN075/// ///// Q1010=
201911100200 METAR LRBM 100200Z AUTO 08003KT 040V120 9999 FEW075/// SCT140///
                        ///// Q1010=
201911100230 METAR LRBM 100230Z AUTO 00000KT 9999 FEW075/// ///// Q1010=
201911100300 METAR LRBM 100300Z AUTO 08005KT 9999 SCT085/// BKN100///
                        ///// Q1010=
201911100330 METAR LRBM 100330Z AUTO 05003KT 020V090 9999 BKN075/// BKN130///
                        ///// Q1009=
201911100400 METAR LRBM 100400Z AUTO VRB02KT 9999 BKN075/// BKN120///
                        ///// Q1009=
201911100430 METAR LRBM 100430Z AUTO VRB02KT 9999 SCT070/// BKN095///
                        BKN120/// ///// Q1009=
201911100500 METAR LRBM 100500Z AUTO 07003KT 9999 BKN070/// OVC085///
                        ///// Q1009=
201911100530 METAR LRBM 100530Z AUTO 06003KT 030V090 9999 BKN075/// BKN110///
                        ///// Q1008=
201911100600 METAR LRBM 100600Z AUTO 08005KT 9999 BKN100/// OVC110///
                        ///// Q1008=
201911100630 METAR LRBM 100630Z AUTO 12003KT 070V160 9999 BKN090/// BKN160///
                        ///// Q1008=
201911100700 METAR LRBM 100700Z AUTO 17003KT 060V230 9999 BKN095/// BKN150///
                        ///// Q1008=
201911100730 METAR LRBM 100730Z AUTO 00000KT 9999 BKN140/// BKN170///
                        ///// Q1008=
201911100800 METAR LRBM 100800Z AUTO 01003KT 9999 SCT095/// BKN130///
                        BKN140/// ///// Q1008=
201911100830 METAR LRBM 100830Z AUTO VRB02KT 9999 -SHRA FEW050/// BKN090///
                        BKN120/// ///// Q1008=
201911100900 METAR LRBM 100900Z AUTO 08002KT 9999 -SHRA FEW060/// BKN090///
                        BKN100/// ///// Q1008=
201911100930 METAR LRBM 100930Z AUTO 22002KT 9999 -SHRA BKN070/// /////
                        Q1008=
201911101000 METAR LRBM 101000Z AUTO VRB01KT 9999 -RA OVC075/// /////
                        Q1008=
201911101030 METAR LRBM 101030Z AUTO 35003KT 320V040 9000 RA FEW050///
                        BKN065/// ///// Q1009=
201911101100 METAR LRBM 101100Z AUTO 04004KT 9999 -RA OVC070/// /////
                        Q1008=
201911101130 METAR LRBM 101130Z AUTO VRB01KT 9999 -RA BKN065/// /////
                        Q1008=
201911101200 METAR LRBM 101200Z AUTO 06003KT 030V100 9999 -RA SCT060///
                        BKN075/// ///// Q1008=
201911101230 METAR LRBM 101230Z AUTO 04003KT 360V080 9999 -RA FEW050///
                        BKN070/// ///// Q1008=
201911101300 METAR LRBM 101300Z AUTO 04004KT 010V090 9999 -RA BKN060///
                        BKN075/// ///// Q1008=
201911101330 METAR LRBM 101330Z AUTO VRB01KT 9999 -RA SCT055/// BKN070///
                        ///// Q1009=
201911101400 METAR LRBM 101400Z AUTO 05005KT 9999 -RA BKN060/// BKN075///
                        ///// Q1008=
201911101430 METAR LRBM 101430Z AUTO 04005KT 9999 FEW075/// SCT120///
                        BKN140/// ///// Q1008 RERA=
201911101500 METAR LRBM 101500Z AUTO 05004KT 010V070 9999 SCT055/// BKN070///
                        BKN170/// ///// Q1009 RERA=
201911101530 METAR LRBM 101530Z AUTO 05003KT 010V100 9999 BKN050/// BKN065///
                        ///// Q1009=
201911101600 METAR LRBM 101600Z AUTO VRB02KT 9999 -RA BKN055/// BKN075///
                        OVC090/// ///// Q1009=
201911101630 METAR LRBM 101630Z AUTO 04005KT 9999 -SHRA FEW060/// BKN080///
                        ///// Q1010=
201911101700 METAR LRBM 101700Z AUTO 35005KT 9999 FEW070/// BKN090///
                        BKN100/// ///// Q1010 RERA=
201911101730 METAR LRBM 101730Z AUTO 21006KT 180V250 9999 FEW037/// BKN055///
                        BKN095/// ///// Q1011=
201911101800 METAR LRBM 101800Z 04004KT 9999 -SHRA FEW035CB SCT050 12/12
                        Q1011 R09/29//95=
201911101830 METAR LRBM 101830Z 09004KT 040V130 9999 -RA BKN052 12/12
                        Q1011 R09/29//95=
201911101900 METAR LRBM 101900Z 04004KT 9999 SCT055 12/12 Q1012 R09/29//95=
201911101930 METAR LRBM 101930Z 02003KT 340V050 9999 SCT055 12/12 Q1012
                        R09/29//95=
201911102000 METAR LRBM 102000Z 01003KT 9999 FEW055 12/12 Q1012 R09/29//95=
201911102030 METAR LRBM 102030Z 02003KT 340V080 9999 FEW055 11/11 Q1013
                        R09/29//95=
201911102100 METAR LRBM 102100Z VRB02KT 9999 FEW055 11/11 Q1013 R09/29//95=
201911102130 METAR LRBM 102130Z VRB01KT 9999 FEW020 11/11 Q1013 R09/29//95=
201911102200 METAR LRBM 102200Z VRB02KT 9999 FEW020 11/11 Q1014 R09/29//95=
201911102230 METAR LRBM 102230Z AUTO 28006KT 9999 BKN055/// ///// Q1014=
201911102300 METAR LRBM 102300Z AUTO 29009KT 9999 FEW024/// BKN050///
                        BKN070/// ///// Q1015=
201911102330 METAR LRBM 102330Z AUTO 28007KT 9999 FEW027/// BKN055///
                        OVC070/// ///// Q1015=
201911110000 METAR LRBM 110000Z AUTO VRB02KT 9999 BKN050/// ///// Q1015=
201911110030 METAR LRBM 110030Z AUTO 29005KT 9999 SCT050/// ///// Q1016=
201911110100 METAR LRBM 110100Z AUTO 29005KT 9999 FEW022/// BKN055///
                        ///// Q1016=
201911110130 METAR LRBM 110130Z AUTO 29006KT 9999 FEW023/// BKN036///
                        BKN041/// ///// Q1016=
201911110200 METAR LRBM 110200Z AUTO 28007KT 9999 SCT016/// BKN019///
                        OVC032/// ///// Q1017=
201911110230 METAR LRBM 110230Z AUTO 29003KT 250V340 9999 SCT016/// BKN020///
                        OVC032/// ///// Q1017=
201911110300 METAR COR LRBM 110300Z VRB02KT CAVOK 09/09 Q1017 R09/19//95=
201911110330 METAR LRBM 110330Z 26002KT CAVOK 08/08 Q1017 R09/19//95=
201911110400 METAR LRBM 110400Z VRB01KT 9999 SCT045 07/07 Q1017 R09/19//95=
201911110430 METAR LRBM 110430Z VRB01KT 9999 FEW045 08/08 Q1017 R09/19//95=
201911110500 METAR LRBM 110500Z 08002KT 9999 FEW040 SCT050 08/08 Q1018
                        R09/19//95=
201911110530 METAR LRBM 110530Z 08003KT 9999 SCT030 07/07 Q1018 R09/19//95=
201911110600 METAR LRBM 110600Z 10003KT 9999 BKN030 07/07 Q1018 R09/19//95=
201911110630 METAR LRBM 110630Z VRB01KT 9999 FEW022 BKN030 08/08 Q1019
                        R09/19//95=
201911110700 METAR LRBM 110700Z 28006KT 260V340 9999 BKN030 09/09 Q1019
                        R09/CLRD//=
201911110730 METAR LRBM 110730Z 28008KT 9999 BKN026 08/08 Q1020=
201911110800 METAR COR LRBM 110800Z 28007KT 9999 BKN030 08/08 Q1020=
201911110830 METAR LRBM 110830Z 27007KT 250V310 9999 FEW030 09/08 Q1020=
201911110900 METAR LRBM 110900Z 26007KT 9999 FEW030 09/08 Q1020=
201911110930 METAR LRBM 110930Z 26007KT 240V300 9999 FEW030 10/08 Q1020=
201911111000 METAR LRBM 111000Z 26009KT 9999 FEW033 10/07 Q1019=
201911111030 METAR LRBM 111030Z 26008KT 240V300 9999 FEW033 10/06 Q1019=
201911111100 METAR LRBM 111100Z 26007KT 9999 FEW033 10/07 Q1020=
201911111130 METAR LRBM 111130Z 28005KT 240V310 9999 FEW035 11/06 Q1019=
201911111200 METAR LRBM 111200Z VRB02KT 9999 FEW037 11/06 Q1019=
201911111230 METAR LRBM 111230Z VRB01KT 9999 FEW038 12/05 Q1019=
201911111300 METAR LRBM 111300Z VRB02KT 9999 FEW040 12/05 Q1019=
201911111330 METAR LRBM 111330Z VRB01KT 9999 FEW040 12/05 Q1019=
201911111400 METAR LRBM 111400Z VRB01KT 9999 FEW045 11/05 Q1019=
201911111430 METAR LRBM 111430Z 00000KT CAVOK 11/05 Q1018=
201911111500 METAR LRBM 111500Z 35001KT CAVOK 09/06 Q1018=
201911111530 METAR LRBM 111530Z 34002KT CAVOK 09/06 Q1018=
201911111600 METAR LRBM 111600Z 00000KT CAVOK 07/05 Q1018=
201911111630 METAR LRBM 111630Z 00000KT CAVOK 07/05 Q1018=
201911111700 METAR LRBM 111700Z 00000KT CAVOK 07/05 Q1018=
201911111730 METAR LRBM 111730Z 07005KT CAVOK 07/06 Q1018=
201911111800 METAR LRBM 111800Z 07006KT CAVOK 07/05 Q1018=
201911111830 METAR LRBM 111830Z 08006KT CAVOK 07/05 Q1018=
201911111900 METAR LRBM 111900Z 08005KT CAVOK 07/05 Q1018=
201911111930 METAR LRBM 111930Z 07005KT CAVOK 07/05 Q1018=
201911112000 METAR LRBM 112000Z 08007KT CAVOK 07/05 Q1018=
201911112030 METAR LRBM 112030Z 08008KT CAVOK 07/05 Q1018=
201911112100 METAR COR LRBM 112100Z 09007KT CAVOK 07/05 Q1018=
201911112130 METAR LRBM 112130Z 10006KT CAVOK 06/05 Q1018=
201911112200 METAR LRBM 112200Z 10006KT CAVOK 06/05 Q1018=
201911112230 METAR LRBM 112230Z AUTO 09005KT 9999 NCD ///// Q1017=
201911112300 METAR LRBM 112300Z AUTO 10006KT 9999 NCD ///// Q1017=
201911112330 METAR LRBM 112330Z AUTO 10007KT 9999 NCD ///// Q1017=
201911120000 METAR LRBM 120000Z AUTO 08003KT 9999 NCD ///// Q1017=
201911120030 METAR LRBM 120030Z AUTO 07003KT 9999 NCD ///// Q1017=
201911120100 METAR LRBM 120100Z AUTO 09006KT 9999 NCD ///// Q1017=
201911120130 METAR LRBM 120130Z AUTO 10007KT 9999 NCD ///// Q1017=
201911120200 METAR LRBM 120200Z AUTO 09007KT 9999 NCD ///// Q1017=
201911120230 METAR LRBM 120230Z AUTO 09007KT 9999 NCD ///// Q1017=
201911120300 METAR LRBM 120300Z 09007KT CAVOK 06/06 Q1016=
201911120330 METAR LRBM 120330Z 10007KT CAVOK 05/05 Q1017=
201911120400 METAR LRBM 120400Z 08004KT CAVOK 04/04 Q1016=
201911120430 METAR LRBM 120430Z 08005KT CAVOK 06/06 Q1016=
201911120500 METAR LRBM 120500Z 08005KT CAVOK 07/06 Q1016=
201911120530 METAR LRBM 120530Z 09005KT CAVOK 07/06 Q1016=
201911120600 METAR LRBM 120600Z 10006KT CAVOK 06/06 Q1016=
201911120630 METAR LRBM 120630Z 08004KT CAVOK 07/06 Q1016=
201911120700 METAR LRBM 120700Z 07004KT CAVOK 07/06 Q1016=
201911120730 METAR LRBM 120730Z 08004KT CAVOK 11/07 Q1016=
201911120800 METAR LRBM 120800Z 08004KT CAVOK 13/08 Q1016=
201911120830 METAR LRBM 120830Z 11005KT CAVOK 14/07 Q1015=
201911120900 METAR LRBM 120900Z 11008KT CAVOK 15/06 Q1015=
201911120930 METAR LRBM 120930Z 11007KT CAVOK 15/06 Q1015=
201911121000 METAR LRBM 121000Z 10011KT CAVOK 16/06 Q1014=
201911121030 METAR LRBM 121030Z 10010KT CAVOK 17/07 Q1014=
201911121100 METAR LRBM 121100Z 10011KT CAVOK 18/07 Q1013=
201911121130 METAR LRBM 121130Z 10009KT CAVOK 19/05 Q1013=
201911121200 METAR LRBM 121200Z 11008KT CAVOK 19/08 Q1012=
201911121230 METAR LRBM 121230Z 11008KT CAVOK 19/08 Q1012=
201911121300 METAR LRBM 121300Z 10009KT CAVOK 18/08 Q1012=
201911121330 METAR LRBM 121330Z 09008KT CAVOK 18/08 Q1012=
201911121400 METAR LRBM 121400Z 08006KT CAVOK 17/08 Q1012=
201911121430 METAR LRBM 121430Z 08007KT CAVOK 17/09 Q1011=
201911121500 METAR LRBM 121500Z 07008KT CAVOK 18/08 Q1011=
201911121530 METAR LRBM 121530Z 07008KT CAVOK 19/09 Q1011=
201911121600 METAR LRBM 121600Z 07009KT CAVOK 18/09 Q1011=
201911121630 METAR LRBM 121630Z 07010KT CAVOK 18/09 Q1011=
201911121700 METAR LRBM 121700Z 08009KT CAVOK 17/10 Q1011=
201911121730 METAR LRBM 121730Z 08010KT CAVOK 17/10 Q1011=
201911121800 METAR LRBM 121800Z 08010KT CAVOK 18/10 Q1011=
201911121830 METAR LRBM 121830Z 08012KT CAVOK 17/10 Q1011=
201911121900 METAR LRBM 121900Z 09016KT CAVOK 18/09 Q1011=
201911121930 METAR LRBM 121930Z 09019KT CAVOK 19/09 Q1011=
201911122000 METAR LRBM 122000Z 09016KT CAVOK 18/09 Q1011=
201911122030 METAR LRBM 122030Z 09013KT CAVOK 19/09 Q1011=
201911122100 METAR LRBM 122100Z 09016KT CAVOK 19/09 Q1011=
201911122130 METAR LRBM 122130Z 08013KT CAVOK 19/09 Q1011=
201911122200 METAR LRBM 122200Z 08011KT CAVOK 19/09 Q1011=
201911122230 METAR LRBM 122230Z AUTO 08012KT 9999 BKN150/// ///// Q1011=
201911122300 METAR LRBM 122300Z AUTO 09011KT 9999 FEW150/// ///// Q1011=
201911122330 METAR LRBM 122330Z AUTO 09008KT 9999 NCD ///// Q1011=
201911130000 METAR LRBM 130000Z AUTO 09011KT 9999 NCD ///// Q1010=
201911130030 METAR LRBM 130030Z AUTO 07009KT 9999 NCD ///// Q1010=
201911130100 METAR LRBM 130100Z AUTO 08010KT 9999 FEW190/// ///// Q1009=
201911130130 METAR LRBM 130130Z AUTO 08013KT 9999 SCT140/// BKN190///
                        ///// Q1008=
201911130200 METAR LRBM 130200Z AUTO 08012KT 9999 BKN140/// BKN240///
                        ///// Q1008=
201911130230 METAR LRBM 130230Z AUTO 10005KT 070V130 9999 FEW140/// BKN170///
                        ///// Q1008=
201911130300 METAR LRBM 130300Z 08008KT CAVOK 18/06 Q1007=
201911130330 METAR LRBM 130330Z 08006KT CAVOK 18/06 Q1007=
201911130400 METAR LRBM 130400Z 06005KT CAVOK 18/06 Q1007=
201911130430 METAR LRBM 130430Z 10010KT CAVOK 18/06 Q1006=
201911130500 METAR LRBM 130500Z 11007KT CAVOK 09/05 Q1006=
201911130530 METAR LRBM 130530Z 09013KT CAVOK 19/05 Q1006=
201911130600 METAR LRBM 130600Z 09013KT CAVOK 19/05 Q1006=
201911130630 METAR LRBM 130630Z 10013KT CAVOK 20/05 Q1006=
201911130700 METAR LRBM 130700Z 09012KT CAVOK 20/04 Q1006=
201911130730 METAR LRBM 130730Z 10008KT CAVOK 20/05 Q1007=
201911130800 METAR LRBM 130800Z 10009KT CAVOK 20/05 Q1007=
201911130830 METAR LRBM 130830Z 10010KT CAVOK 20/05 Q1006=
201911130900 METAR LRBM 130900Z 10010KT CAVOK 20/05 Q1007=
201911130930 METAR LRBM 130930Z 10009KT CAVOK 20/05 Q1006=
201911131000 METAR LRBM 131000Z 11008KT CAVOK 20/06 Q1006=
201911131030 METAR LRBM 131030Z 10012KT CAVOK 20/06 Q1006=
201911131100 METAR LRBM 131100Z 10014KT CAVOK 21/06 Q1005=
201911131130 METAR LRBM 131130Z 10014KT CAVOK 21/06 Q1005=
201911131200 METAR LRBM 131200Z 10013KT CAVOK 20/07 Q1004=
201911131230 METAR LRBM 131230Z 10009KT 9999 SCT060 20/08 Q1004=
201911131300 METAR LRBM 131300Z 10007KT CAVOK 20/08 Q1005=
201911131330 METAR LRBM 131330Z 10010KT 9999 -RA SCT060 20/09 Q1004=
201911131400 METAR LRBM 131400Z 08006KT 9999 FEW060 19/10 Q1004=
201911131430 METAR LRBM 131430Z 10006KT CAVOK 20/09 Q1005=
201911131500 METAR LRBM 131500Z 07008KT 050V120 9999 -RA FEW060 19/09
                        Q1005=
201911131530 METAR LRBM 131530Z 09011KT 9999 FEW060 19/10 Q1004=
201911131600 METAR LRBM 131600Z 09009KT CAVOK 19/09 Q1004=
201911131630 METAR LRBM 131630Z 10009KT 080V140 CAVOK 20/08 Q1005=
201911131700 METAR LRBM 131700Z 11011KT CAVOK 21/08 Q1005=
201911131730 METAR LRBM 131730Z 12006KT 100V160 CAVOK 20/08 Q1005=
201911131800 METAR LRBM 131800Z 11009KT CAVOK 20/08 Q1005=
201911131830 METAR LRBM 131830Z 12009KT CAVOK 20/09 Q1006=
201911131900 METAR LRBM 131900Z 12008KT 090V160 CAVOK 20/10 Q1006=
201911131930 METAR LRBM 131930Z 09009KT CAVOK 19/10 Q1007=
201911132000 METAR LRBM 132000Z 10011KT CAVOK 19/11 Q1007=
201911132030 METAR LRBM 132030Z 10008KT CAVOK 19/11 Q1007=
201911132100 METAR LRBM 132100Z 11010KT CAVOK 19/11 Q1007=
201911132130 METAR LRBM 132130Z 09011KT 9999 -RA NSC 18/11 Q1007=
201911132200 METAR LRBM 132200Z 06005KT 030V090 CAVOK 18/12 Q1008=
201911132230 METAR LRBM 132230Z AUTO 08008KT 9999 FEW095/// SCT240///
                        ///// Q1008 RERA=
201911132300 METAR LRBM 132300Z AUTO 07006KT 9999 FEW240/// ///// Q1008=
201911132330 METAR LRBM 132330Z AUTO 07007KT 030V090 9999 FEW090/// SCT170///
                        ///// Q1008=
201911140000 METAR LRBM 140000Z AUTO 08006KT 9999 FEW170/// ///// Q1009=
201911140030 METAR LRBM 140030Z AUTO 07005KT 9999 BKN085/// BKN170///
                        ///// Q1009=
201911140100 METAR LRBM 140100Z AUTO 08006KT 9999 SCT085/// BKN160///
                        ///// Q1009=
201911140130 METAR LRBM 140130Z AUTO 05003KT 360V090 9999 SCT080/// BKN160///
                        ///// Q1009=
201911140200 METAR LRBM 140200Z AUTO 09004KT 9999 BKN080/// ///// Q1009=
201911140230 METAR LRBM 140230Z AUTO 06002KT 9999 SCT070/// BKN085///
                        ///// Q1009=
201911140300 METAR LRBM 140300Z 06005KT CAVOK 16/12 Q1009=
201911140330 METAR LRBM 140330Z 05005KT CAVOK 16/12 Q1009=
201911140400 METAR LRBM 140400Z 06004KT CAVOK 16/12 Q1010=
201911140430 METAR LRBM 140430Z 08005KT CAVOK 16/12 Q1010=
201911140500 METAR LRBM 140500Z 10003KT 070V140 CAVOK 16/12 Q1010=
201911140530 METAR LRBM 140530Z 09007KT CAVOK 16/12 Q1011=
201911140600 METAR LRBM 140600Z 09007KT CAVOK 16/12 Q1011=
201911140630 METAR LRBM 140630Z 09006KT 9999 SCT050 16/12 Q1011=
201911140700 METAR LRBM 140700Z 08005KT 9999 SCT050 16/13 Q1011=
201911140730 METAR LRBM 140730Z 09002KT 9999 BKN045 16/14 Q1012=
201911140800 METAR LRBM 140800Z 11003KT 9999 BKN042 16/13 Q1012=
201911140830 METAR LRBM 140830Z 10004KT 9999 BKN043 17/14 Q1012=
201911140900 METAR LRBM 140900Z 09002KT 9999 BKN043 17/14 Q1012=
201911140930 METAR LRBM 140930Z 06001KT 9999 BKN043 17/14 Q1012=
201911141000 METAR LRBM 141000Z 00000KT 9999 BKN045 17/14 Q1011=
201911141030 METAR LRBM 141030Z 00000KT 9999 BKN045 18/14 Q1011=
201911141100 METAR LRBM 141100Z 00000KT 9999 BKN045 18/14 Q1011=
201911141130 METAR LRBM 141130Z 10003KT 9999 SCT050 17/13 Q1011=
201911141200 METAR LRBM 141200Z 09002KT 9999 SCT050 17/14 Q1011=
201911141230 METAR LRBM 141230Z 25001KT 9999 SCT055 18/14 Q1011=
201911141300 METAR LRBM 141300Z 00000KT 9999 SCT055 18/13 Q1011=
201911141330 METAR LRBM 141330Z 26004KT 9999 FEW060 18/14 Q1011=
201911141400 METAR LRBM 141400Z 30002KT CAVOK 17/14 Q1011=
201911141430 METAR LRBM 141430Z 30002KT CAVOK 17/14 Q1011=
201911141500 METAR LRBM 141500Z 29002KT CAVOK 16/13 Q1011=
201911141530 METAR LRBM 141530Z VRB01KT CAVOK 15/13 Q1011=
201911141600 METAR LRBM 141600Z VRB02KT 9999 -RA SCT050 14/13 Q1011=
201911141630 METAR LRBM 141630Z 07001KT 9999 -RA SCT050 14/14 Q1012=
201911141700 METAR LRBM 141700Z 01003KT 9999 -RA SCT050 14/14 Q1012 R09/19//95=
201911141730 METAR LRBM 141730Z 05001KT 9999 -RA SCT050 14/14 Q1012 R09/19//95=
201911141800 METAR LRBM 141800Z 04003KT 9999 -RA SCT050 14/14 Q1012 R09/19//95=
201911141830 METAR LRBM 141830Z 04003KT 9999 -RA SCT055 14/13 Q1012 R09/19//95=
201911141900 METAR LRBM 141900Z 04004KT 9999 -RA SCT055 14/14 Q1012 R09/19//95=
201911141930 METAR LRBM 141930Z VRB02KT 9999 -RA SCT050 14/14 Q1012 R09/19//95=
201911142000 METAR LRBM 142000Z VRB02KT 9999 -RA SCT050 14/14 Q1012 R09/19//95=
201911142030 METAR LRBM 142030Z VRB02KT 9999 -RA BKN045 13/13 Q1012 R09/19//95=
201911142100 METAR LRBM 142100Z VRB02KT 9999 -RA BKN050 13/13 Q1012 R09/29//95=
201911142130 METAR LRBM 142130Z 33003KT 9999 -RA BKN050 13/13 Q1011 R09/29//95=
201911142200 METAR LRBM 142200Z 32004KT 9999 -RA BKN050 13/13 Q1011 R09/29//95=
201911142230 METAR LRBM 142230Z AUTO 17003KT 3900 FEW090/// BKN110///
                        ///// Q1012 RERA=
201911142300 METAR LRBM 142300Z AUTO VRB01KT 2800 R09/0900VP2000D SHRA
                        SCT085/// BKN100/// OVC130/// /////
                        Q1012=
201911142330 METAR LRBM 142330Z AUTO 11004KT 3300 SHRA FEW065/// BKN095///
                        ///// Q1012=
201911150000 METAR LRBM 150000Z AUTO 07004KT 4000 R09/1800VP2000U RA FEW065///
                        BKN130/// ///// Q1012=
201911150030 METAR LRBM 150030Z AUTO 11003KT 080V140 4600 RA SCT060///
                        BKN090/// BKN130/// ///// Q1013=
201911150100 METAR LRBM 150100Z AUTO 07003KT 3400 R09/1800VP2000D RA BKN060///
                        BKN095/// ///// Q1013=
201911150130 METAR LRBM 150130Z AUTO 00000KT 4500 SCT041/// BKN047///
                        ///// Q1013 RERA=
201911150200 METAR LRBM 150200Z AUTO 02002KT 4500 -SHRA SCT040/// BKN050///
                        OVC080/// ///// Q1013=
201911150230 METAR LRBM 150230Z AUTO VRB02KT 5000 -RA FEW040/// BKN047///
                        ///// Q1013=
201911150300 METAR LRBM 150300Z VRB03KT 9999 -RA BKN038 BKN047 12/12 Q1013
                        R09/19//95=
201911150330 METAR LRBM 150330Z 00000KT 9999 -RA FEW024 SCT040 BKN055
                        12/12 Q1013 R09/19//95=
201911150400 METAR LRBM 150400Z 00000KT 8000 -RA FEW008 BKN025 OVC038
                        12/12 Q1013 R09/19//95=
201911150430 METAR LRBM 150430Z 00000KT 4000 -RA BR SCT007 BKN022 OVC035
                        12/12 Q1013 R09/19//95=
201911150500 METAR LRBM 150500Z 00000KT 4000 -RA BR FEW007 SCT009 BKN013
                        12/12 Q1013 R09/19//95=
201911150530 METAR LRBM 150530Z 09003KT 3600 -RA BR FEW007 SCT009 BKN012
                        12/12 Q1014 R09/19//95=
201911150600 METAR LRBM 150600Z 05003KT 3900 -RA BR FEW009 SCT011 BKN023
                        12/12 Q1014 R09/19//95=
201911150630 METAR LRBM 150630Z 08003KT 3200 -RA BR SCT010 BKN027 BKN034
                        12/12 Q1014 R09/19//95=
201911150700 METAR LRBM 150700Z 08003KT 3900 -RA FEW013 SCT022 BKN028
                        12/12 Q1014 R09/19//95=
201911150730 METAR LRBM 150730Z 10005KT 8000 -RA FEW018 BKN020 12/12 Q1014
                        R09/19//95=
201911150800 METAR LRBM 150800Z 09006KT 9999 -RA SCT020 SCT033 BKN060
                        12/12 Q1014 R09/19//95=
201911150830 METAR LRBM 150830Z 05003KT 9999 -RA FEW017 BKN020 12/12 Q1015
                        R09/19//95=
201911150900 METAR LRBM 150900Z 05003KT 9999 -RA SCT018 BKN023 12/12 Q1015
                        R09/19//95=
201911150930 METAR LRBM 150930Z 06003KT 030V090 9999 -RA SCT017 BKN023
                        12/12 Q1015 R09/19//95=
201911151000 METAR LRBM 151000Z 04003KT 9999 OVC016 12/12 Q1015 R09/19//95=
201911151030 METAR LRBM 151030Z 05004KT 9999 BKN016 OVC020 13/13 Q1015
                        R09/19//95=
201911151100 METAR LRBM 151100Z 07005KT 9999 SCT016 BKN022 13/13 Q1015
                        R09/19//95=
201911151130 METAR LRBM 151130Z 09006KT 9999 FEW018 SCT025 14/13 Q1015
                        R09/19//95=
201911151200 METAR LRBM 151200Z 09008KT 9999 FEW029 14/12 Q1015 R09/19//95=
201911151230 METAR LRBM 151230Z 10007KT 9999 FEW032 15/12 Q1015 R09/19//95=
201911151300 METAR LRBM 151300Z 10007KT 9999 FEW035 15/11 Q1015 R09/19//95=
201911151330 METAR LRBM 151330Z 10007KT 9999 FEW038 15/11 Q1015 R09/19//95=
201911151400 METAR LRBM 151400Z 11007KT CAVOK 14/11 Q1015 R09/19//95=
201911151430 METAR LRBM 151430Z 10006KT CAVOK 13/10 Q1015 R09/19//95=
201911151500 METAR LRBM 151500Z 08006KT CAVOK 12/10 Q1015 R09/19//95=
201911151530 METAR LRBM 151530Z AUTO 06004KT 9999 NCD ///// Q1016=
201911151600 METAR LRBM 151600Z AUTO 05005KT 9999 NCD ///// Q1016=
201911151630 METAR LRBM 151630Z AUTO 04005KT 9999 NCD ///// Q1016=
201911151700 METAR LRBM 151700Z AUTO 05006KT 9999 NCD ///// Q1016=
201911151730 METAR LRBM 151730Z AUTO 05006KT 9999 NCD ///// Q1017=
201911151800 METAR LRBM 151800Z AUTO 05006KT 9999 NCD ///// Q1016=
201911151830 METAR LRBM 151830Z AUTO 07005KT 9999 NCD ///// Q1016=
201911151900 METAR LRBM 151900Z AUTO 06005KT 9999 SCT240/// ///// Q1016=
201911151930 METAR LRBM 151930Z AUTO 07005KT 9999 FEW220/// ///// Q1017=
201911152000 METAR LRBM 152000Z AUTO 06005KT 9999 FEW220/// ///// Q1017=
201911152030 METAR LRBM 152030Z AUTO 06004KT 9999 NCD ///// Q1017=
201911152100 METAR LRBM 152100Z AUTO 06005KT 9999 NCD ///// Q1017=
201911152130 METAR LRBM 152130Z AUTO 06005KT 9999 NCD ///// Q1017=
201911152200 METAR LRBM 152200Z AUTO 06006KT 9999 NCD ///// Q1017=
201911152230 METAR LRBM 152230Z AUTO 06004KT 9999 NCD ///// Q1017=
201911152300 METAR LRBM 152300Z AUTO 08006KT 9999 NCD ///// Q1017=
201911152330 METAR LRBM 152330Z AUTO 14003KT 100V190 9999 SCT240/// /////
                        Q1018=
201911160000 METAR LRBM 160000Z AUTO 06003KT 030V110 9999 NCD ///// Q1018=
201911160030 METAR LRBM 160030Z AUTO 07003KT 9999 NCD ///// Q1018=
201911160100 METAR LRBM 160100Z AUTO 05005KT 9000 NCD ///// Q1018=
201911160130 METAR LRBM 160130Z AUTO 05005KT 030V090 9999 NCD ///// Q1018=
201911160200 METAR LRBM 160200Z AUTO 05005KT 9999 NCD ///// Q1018=
201911160230 METAR LRBM 160230Z AUTO 06006KT 9999 NCD ///// Q1018=
201911160300 METAR LRBM 160300Z AUTO 07005KT 9999 NCD ///// Q1018=
201911160330 METAR LRBM 160330Z AUTO 07005KT 9999 NCD ///// Q1018=
201911160400 METAR LRBM 160400Z AUTO 09007KT 9999 NCD ///// Q1018=
201911160430 METAR LRBM 160430Z AUTO 08005KT 9999 NCD ///// Q1018=
201911160500 METAR LRBM 160500Z AUTO 08006KT 9999 FEW070/// ///// Q1018=
201911160530 METAR LRBM 160530Z AUTO 07006KT 9999 NCD ///// Q1019=
201911160600 METAR LRBM 160600Z AUTO 07006KT 9999 NCD ///// Q1019=
201911160630 METAR LRBM 160630Z AUTO 07005KT 9999 NCD ///// Q1019=
201911160700 METAR LRBM 160700Z AUTO 07004KT 9999 NCD ///// Q1019=
201911160730 METAR LRBM 160730Z AUTO 10008KT 9999 NCD ///// Q1019=
201911160800 METAR LRBM 160800Z AUTO 09009KT 9999 NCD ///// Q1019=
201911160830 METAR LRBM 160830Z AUTO 10009KT 9999 FEW230/// ///// Q1020=
201911160900 METAR LRBM 160900Z AUTO 09011KT 9999 NCD ///// Q1020=
201911160930 METAR LRBM 160930Z AUTO 09011KT 9999 NCD ///// Q1020=
201911161000 METAR LRBM 161000Z AUTO 10010KT 9000 NCD ///// Q1019=
201911161030 METAR LRBM 161030Z AUTO 10010KT 9999 NCD ///// Q1019=
201911161100 METAR LRBM 161100Z AUTO 09010KT 9999 NCD ///// Q1019=
201911161130 METAR LRBM 161130Z AUTO 10009KT 9999 NCD ///// Q1019=
201911161200 METAR LRBM 161200Z AUTO 09009KT 9999 FEW150/// ///// Q1019=
201911161230 METAR LRBM 161230Z AUTO 10006KT 9999 FEW230/// ///// Q1019=
201911161300 METAR LRBM 161300Z AUTO 10006KT 9999 NCD ///// Q1019=
201911161330 METAR LRBM 161330Z AUTO 10007KT 9999 NCD ///// Q1019=
201911161400 METAR LRBM 161400Z AUTO 11005KT 9999 NCD ///// Q1019=
201911161430 METAR LRBM 161430Z AUTO 07004KT 9999 NCD ///// Q1019=
201911161500 METAR LRBM 161500Z AUTO 07005KT 9999 NCD ///// Q1019=
201911161530 METAR LRBM 161530Z AUTO 06004KT 9000 NCD ///// Q1019=
201911161600 METAR LRBM 161600Z AUTO 07005KT 9999 NCD ///// Q1019=
201911161630 METAR LRBM 161630Z AUTO 07002KT 9999 NCD ///// Q1019=
201911161700 METAR LRBM 161700Z AUTO 08004KT 9999 NCD ///// Q1019=
201911161730 METAR LRBM 161730Z AUTO 08004KT 9999 NCD ///// Q1019=
201911161800 METAR LRBM 161800Z AUTO 09006KT 9999 NCD ///// Q1020=
201911161830 METAR LRBM 161830Z AUTO 09004KT 9999 NCD ///// Q1020=
201911161900 METAR LRBM 161900Z AUTO 09001KT 9999 NCD ///// Q1020=
201911161930 METAR LRBM 161930Z AUTO 08005KT 9999 NCD ///// Q1020=
201911162000 METAR LRBM 162000Z AUTO 08005KT 9999 NCD ///// Q1020=
201911162030 METAR LRBM 162030Z AUTO 10007KT 9999 FEW240/// ///// Q1020=
201911162100 METAR LRBM 162100Z AUTO 08007KT 9999 BKN240/// ///// Q1020=
201911162130 METAR LRBM 162130Z AUTO 10007KT 9999 NCD ///// Q1020=
201911162200 METAR LRBM 162200Z AUTO 10005KT 9999 NCD ///// Q1020=
201911162230 METAR LRBM 162230Z AUTO 10006KT 9999 FEW240/// ///// Q1019=
201911162300 METAR LRBM 162300Z AUTO 09002KT 9999 FEW240/// ///// Q1020=
201911162330 METAR LRBM 162330Z AUTO VRB03KT 9999 NCD ///// Q1020=
201911170000 METAR LRBM 170000Z AUTO 09005KT 9999 NCD ///// Q1020=
201911170030 METAR LRBM 170030Z AUTO 10003KT 9999 BKN230/// ///// Q1020=
201911170100 METAR LRBM 170100Z AUTO 14005KT 090V230 9999 SCT240/// /////
                        Q1020=
201911170130 METAR LRBM 170130Z AUTO 09007KT 9999 NCD ///// Q1020=
201911170200 METAR LRBM 170200Z AUTO 09007KT 9999 FEW240/// ///// Q1019=
201911170230 METAR LRBM 170230Z AUTO 12003KT 9999 NCD ///// Q1019=
201911170300 METAR LRBM 170300Z AUTO 03003KT 340V100 9999 FEW240/// /////
                        Q1020=
201911170330 METAR LRBM 170330Z AUTO 05003KT 9999 BKN240/// ///// Q1020=
201911170400 METAR LRBM 170400Z AUTO 06007KT 9999 BKN230/// ///// Q1019=
201911170430 METAR LRBM 170430Z AUTO 06004KT 9999 BKN220/// ///// Q1019=
201911170500 METAR LRBM 170500Z AUTO 07004KT 9999 BKN220/// ///// Q1019=
201911170530 METAR LRBM 170530Z AUTO 11004KT 9999 BKN230/// ///// Q1019=
201911170600 METAR LRBM 170600Z AUTO 11004KT 9999 FEW240/// ///// Q1020=
201911170630 METAR LRBM 170630Z AUTO 09004KT 9999 NCD ///// Q1020=
201911170700 METAR LRBM 170700Z AUTO 09006KT 9999 NCD ///// Q1020=
201911170730 METAR LRBM 170730Z AUTO 08006KT 9999 NCD ///// Q1020=
201911170800 METAR LRBM 170800Z AUTO 10007KT 9999 NCD ///// Q1020=
201911170830 METAR LRBM 170830Z AUTO 09007KT 9999 NCD ///// Q1020=
201911170900 METAR LRBM 170900Z AUTO 09010KT 9999 NCD ///// Q1019=
201911170930 METAR LRBM 170930Z AUTO 09014KT 9999 NCD ///// Q1019=
201911171000 METAR LRBM 171000Z AUTO 10014KT 9999 NCD ///// Q1019=
201911171030 METAR LRBM 171030Z AUTO 10015KT 9999 NCD ///// Q1018=
201911171100 METAR LRBM 171100Z AUTO 10016KT 9999 FEW240/// ///// Q1018=
201911171130 METAR LRBM 171130Z AUTO 10011KT 9999 NCD ///// Q1018=
201911171200 METAR LRBM 171200Z AUTO 10008KT 9999 NCD ///// Q1017=
201911171230 METAR LRBM 171230Z AUTO 10008KT 9000 NCD ///// Q1017=
201911171300 METAR LRBM 171300Z AUTO 10009KT 9999 FEW240/// ///// Q1017=
201911171330 METAR LRBM 171330Z AUTO 09008KT 9999 FEW190/// ///// Q1017=
201911171400 METAR LRBM 171400Z AUTO 08007KT 9999 FEW240/// ///// Q1017=
201911171430 METAR LRBM 171430Z AUTO 08007KT 9999 FEW240/// ///// Q1017=
201911171500 METAR LRBM 171500Z AUTO 07005KT 9999 SCT240/// ///// Q1017=
201911171530 METAR LRBM 171530Z AUTO 08005KT 9999 FEW240/// ///// Q1017=
201911171600 METAR LRBM 171600Z AUTO 07005KT 9999 FEW240/// ///// Q1016=
201911171630 METAR LRBM 171630Z AUTO 06005KT 9999 NCD ///// Q1016=
201911171700 METAR LRBM 171700Z AUTO 07006KT 9999 NCD ///// Q1016=
201911171730 METAR LRBM 171730Z AUTO 08007KT 9999 NCD ///// Q1016=
201911171800 METAR LRBM 171800Z 09009KT CAVOK 13/07 Q1016=
201911171830 METAR LRBM 171830Z 09007KT CAVOK 14/07 Q1016=
201911171900 METAR LRBM 171900Z 08006KT CAVOK 15/07 Q1016=
201911171930 METAR LRBM 171930Z 09007KT CAVOK 14/07 Q1016=
201911172000 METAR LRBM 172000Z 10010KT CAVOK 15/08 Q1016=
201911172030 METAR LRBM 172030Z 09010KT CAVOK 16/07 Q1016=
201911172100 METAR LRBM 172100Z 10011KT CAVOK 15/07 Q1015=
201911172130 METAR LRBM 172130Z 09010KT CAVOK 16/07 Q1015=
201911172200 METAR LRBM 172200Z 08009KT CAVOK 17/07 Q1015=
201911172230 METAR LRBM 172230Z AUTO 08007KT 9999 NCD ///// Q1016=
201911172300 METAR LRBM 172300Z AUTO 07006KT 9999 NCD ///// Q1016=
201911172330 METAR LRBM 172330Z AUTO 07006KT 040V110 9999 NCD ///// Q1016=
201911180000 METAR LRBM 180000Z AUTO 07008KT 9000 NCD ///// Q1015=
201911180030 METAR LRBM 180030Z AUTO 08008KT 9999 NCD ///// Q1015=
201911180100 METAR LRBM 180100Z AUTO 08009KT 9999 NCD ///// Q1015=
201911180130 METAR LRBM 180130Z AUTO 06004KT 9999 NCD ///// Q1015=
201911180200 METAR LRBM 180200Z AUTO 04004KT 9999 NCD ///// Q1014=
201911180230 METAR LRBM 180230Z AUTO 06003KT 9999 NCD ///// Q1014=
201911180300 METAR LRBM 180300Z VRB03KT CAVOK 13/06 Q1014=
201911180330 METAR LRBM 180330Z 07005KT CAVOK 12/06 Q1014=
201911180400 METAR LRBM 180400Z 06004KT CAVOK 12/06 Q1014=
201911180430 METAR LRBM 180430Z 05006KT CAVOK 12/06 Q1014=
201911180500 METAR LRBM 180500Z 07007KT CAVOK 12/06 Q1014=
201911180530 METAR LRBM 180530Z 07010KT CAVOK 14/05 Q1014=
201911180600 METAR LRBM 180600Z 08014KT CAVOK 15/04 Q1014=
201911180630 METAR LRBM 180630Z 08013KT CAVOK 15/04 Q1014=
201911180700 METAR LRBM 180700Z 08007KT CAVOK 16/04 Q1015=
201911180730 METAR LRBM 180730Z 11006KT CAVOK 17/05 Q1015=
201911180800 METAR LRBM 180800Z 10010KT CAVOK 17/05 Q1015=
201911180830 METAR LRBM 180830Z 11008KT CAVOK 17/05 Q1015=
201911180900 METAR LRBM 180900Z 11009KT CAVOK 17/06 Q1016=
201911180930 METAR LRBM 180930Z 11009KT CAVOK 17/06 Q1016=
201911181000 METAR LRBM 181000Z 12008KT CAVOK 17/07 Q1016=
201911181030 METAR LRBM 181030Z 12008KT 090V150 CAVOK 17/07 Q1016=
201911181100 METAR LRBM 181100Z 09007KT CAVOK 17/08 Q1016=
201911181130 METAR LRBM 181130Z 10008KT CAVOK 17/08 Q1016=
201911181200 METAR COR LRBM 181200Z 11008KT CAVOK 17/08 Q1016=
201911181230 METAR LRBM 181230Z 11008KT CAVOK 17/08 Q1016=
201911181300 METAR LRBM 181300Z 12005KT CAVOK 16/08 Q1016=
201911181330 METAR LRBM 181330Z 11004KT CAVOK 16/08 Q1017=
201911181400 METAR LRBM 181400Z VRB02KT CAVOK 16/08 Q1017=
201911181430 METAR LRBM 181430Z 11003KT 080V140 9999 OVC055 15/09 Q1017=
201911181500 METAR LRBM 181500Z 08006KT 9999 -RA OVC055 14/10 Q1018 R09/19//95=
201911181530 METAR LRBM 181530Z 05005KT 9999 -RA BKN055 14/10 Q1018 R09/19//95=
201911181600 METAR LRBM 181600Z 04003KT 9999 -RA BKN050 14/11 Q1018 R09/19//95=
201911181630 METAR COR LRBM 181630Z 05004KT 9999 -RA BKN050 13/11 Q1019
                        R09/19//95=
201911181700 METAR LRBM 181700Z 06004KT 9999 -RA BKN045 13/11 Q1019 R09/19//95=
201911181730 METAR LRBM 181730Z 05003KT 9999 -RA BKN050 13/11 Q1019 R09/19//95=
201911181800 METAR LRBM 181800Z VRB02KT 9999 SCT050 13/11 Q1020 R09/19//95=
201911181830 METAR LRBM 181830Z 06004KT 9999 SCT050 13/11 Q1020 R09/19//95=
201911181900 METAR LRBM 181900Z 07003KT 9999 BKN050 12/11 Q1020 R09/19//95=
201911181930 METAR LRBM 181930Z 05002KT 9999 BKN050 12/10 Q1021 R09/19//95=
201911182000 METAR LRBM 182000Z 05002KT 9999 BKN048 11/10 Q1021 R09/CLRD//=
201911182030 METAR LRBM 182030Z VRB02KT 9999 BKN045 12/10 Q1021=
201911182100 METAR LRBM 182100Z VRB02KT 9999 FEW035 BKN050 12/10 Q1022=
201911182130 METAR LRBM 182130Z 29004KT 9999 FEW035 BKN050 12/10 Q1022=
201911182200 METAR LRBM 182200Z 30004KT 9999 SCT055 12/10 Q1022=
201911182230 METAR LRBM 182230Z AUTO 29004KT 9999 FEW037/// BKN047///
                        ///// Q1023=
201911182300 METAR LRBM 182300Z AUTO 27004KT 9999 FEW032/// BKN039///
                        BKN050/// ///// Q1023=
201911182330 METAR LRBM 182330Z AUTO 28003KT 9999 FEW038/// SCT050///
                        BKN240/// ///// Q1023=
201911190000 METAR LRBM 190000Z AUTO 00000KT 9999 FEW240/// ///// Q1023=
201911190030 METAR LRBM 190030Z AUTO 08003KT 060V150 9999 NCD ///// Q1024=
201911190100 METAR LRBM 190100Z AUTO VRB01KT 9999 NCD ///// Q1024=
201911190130 METAR LRBM 190130Z AUTO VRB01KT 9999 NCD ///// Q1024=
201911190200 METAR LRBM 190200Z AUTO VRB02KT 9999 NCD ///// Q1024=
201911190230 METAR LRBM 190230Z AUTO 35001KT 9999 NCD ///// Q1024=
201911190300 METAR LRBM 190300Z VRB02KT CAVOK 07/07 Q1024=
201911190330 METAR LRBM 190330Z VRB01KT CAVOK 07/07 Q1024=
201911190400 METAR LRBM 190400Z 06003KT CAVOK 06/06 Q1024=
201911190430 METAR LRBM 190430Z 00000KT CAVOK 05/05 Q1024=
201911190500 METAR LRBM 190500Z VRB01KT CAVOK 04/04 Q1024=
201911190530 METAR LRBM 190530Z 09004KT 3000 BR MIFG NSC 04/04 Q1024=
201911190600 METAR LRBM 190600Z 05002KT 0800 R09/0800 FG NSC 04/04 Q1024=
201911190630 METAR LRBM 190630Z VRB01KT 0550 R09/0350V0900U FG NSC 03/03
                        Q1024=
201911190700 METAR LRBM 190700Z VRB02KT 2000 BR VCFG NSC 05/05 Q1024=
201911190730 METAR LRBM 190730Z 08003KT 4000 BR NSC 06/06 Q1024=
201911190800 METAR LRBM 190800Z 17003KT CAVOK 07/07 Q1024=
201911190830 METAR LRBM 190830Z VRB01KT CAVOK 08/08 Q1025=
201911190900 METAR LRBM 190900Z VRB02KT CAVOK 09/09 Q1024=
201911190930 METAR LRBM 190930Z VRB01KT CAVOK 11/10 Q1024=
201911191000 METAR LRBM 191000Z VRB01KT CAVOK 13/10 Q1024=
201911191030 METAR LRBM 191030Z VRB02KT CAVOK 15/10 Q1024=
201911191100 METAR LRBM 191100Z 10004KT CAVOK 15/10 Q1023=
201911191130 METAR LRBM 191130Z VRB02KT CAVOK 16/11 Q1023=
201911191200 METAR LRBM 191200Z 09004KT 050V130 CAVOK 16/11 Q1022=
201911191230 METAR LRBM 191230Z 09004KT 040V130 CAVOK 16/11 Q1022=
201911191300 METAR LRBM 191300Z VRB02KT CAVOK 17/11 Q1022=
201911191330 METAR LRBM 191330Z VRB02KT CAVOK 17/11 Q1022=
201911191400 METAR LRBM 191400Z 19001KT CAVOK 17/10 Q1022=
201911191430 METAR LRBM 191430Z VRB01KT CAVOK 14/10 Q1022=
201911191500 METAR LRBM 191500Z 02002KT CAVOK 13/10 Q1022=
201911191530 METAR LRBM 191530Z VRB02KT CAVOK 11/10 Q1022=
201911191600 METAR LRBM 191600Z 05002KT CAVOK 11/09 Q1022=
201911191630 METAR LRBM 191630Z 05002KT CAVOK 11/09 Q1022=
201911191700 METAR LRBM 191700Z VRB01KT CAVOK 11/09 Q1022=
201911191730 METAR LRBM 191730Z 07004KT CAVOK 11/09 Q1022=
201911191800 METAR LRBM 191800Z 10006KT CAVOK 19/09 Q1022=
201911191830 METAR LRBM 191830Z 07006KT CAVOK 10/09 Q1022=
201911191900 METAR LRBM 191900Z 06006KT CAVOK 10/09 Q1022=
201911191930 METAR LRBM 191930Z 07005KT CAVOK 10/09 Q1022=
201911192000 METAR LRBM 192000Z 08005KT CAVOK 10/09 Q1022=
201911192030 METAR LRBM 192030Z 09005KT CAVOK 10/09 Q1022=
201911192100 METAR LRBM 192100Z 09007KT CAVOK 08/08 Q1022=
201911192130 METAR LRBM 192130Z 08006KT CAVOK 09/09 Q1022=
201911192200 METAR LRBM 192200Z 10007KT CAVOK 09/09 Q1022=
201911192230 METAR LRBM 192230Z AUTO 10008KT 9999 BKN240/// ///// Q1022=
201911192300 METAR LRBM 192300Z AUTO 09006KT 9000 BKN230/// ///// Q1022=
201911192330 METAR LRBM 192330Z AUTO 09006KT 9000 BKN230/// ///// Q1021=
201911200000 METAR LRBM 200000Z AUTO 09006KT 9999 BKN210/// ///// Q1021=
201911200030 METAR LRBM 200030Z AUTO 08007KT 9999 BKN210/// ///// Q1021=
201911200100 METAR LRBM 200100Z AUTO 09007KT 9999 BKN210/// ///// Q1021=
201911200130 METAR LRBM 200130Z AUTO 09006KT 6000 BKN210/// ///// Q1021=
201911200200 METAR LRBM 200200Z AUTO 10006KT 7000 BKN210/// ///// Q1020=
201911200230 METAR LRBM 200230Z AUTO 10005KT 6000 BKN230/// ///// Q1021=
201911200300 METAR COR LRBM 200300Z 09005KT CAVOK 06/07 Q1020=
201911200330 METAR LRBM 200330Z 09006KT CAVOK 07/07 Q1020=
201911200400 METAR LRBM 200400Z 09004KT CAVOK 07/07 Q1020=
201911200430 METAR LRBM 200430Z 10003KT CAVOK 07/07 Q1020=
201911200500 METAR LRBM 200500Z 07004KT CAVOK 07/07 Q1020=
201911200530 METAR LRBM 200530Z 15004KT 090V170 CAVOK 07/07 Q1019=
201911200600 METAR LRBM 200600Z 05004KT CAVOK 07/07 Q1019=
201911200630 METAR LRBM 200630Z 07005KT CAVOK 07/07 Q1020=
201911200700 METAR LRBM 200700Z 08004KT CAVOK 10/08 Q1019=
201911200730 METAR LRBM 200730Z 08006KT CAVOK 10/08 Q1019=
201911200800 METAR LRBM 200800Z 10006KT CAVOK 12/09 Q1019=
201911200830 METAR LRBM 200830Z 09010KT CAVOK 13/08 Q1019=
201911200900 METAR LRBM 200900Z 09014KT CAVOK 14/08 Q1019=
201911200930 METAR LRBM 200930Z 10014KT CAVOK 15/07 Q1019=
201911201000 METAR LRBM 201000Z 10015KT CAVOK 16/07 Q1018=
201911201030 METAR LRBM 201030Z 11013KT CAVOK 17/08 Q1018=
201911201100 METAR LRBM 201100Z 10012KT CAVOK 17/08 Q1017=
201911201130 METAR LRBM 201130Z 09010KT CAVOK 17/08 Q1017=
201911201200 METAR LRBM 201200Z 10010KT CAVOK 17/08 Q1016=
201911201230 METAR LRBM 201230Z 10010KT CAVOK 17/08 Q1016=
201911201300 METAR LRBM 201300Z 09010KT CAVOK 17/08 Q1016=
201911201330 METAR LRBM 201330Z 09011KT CAVOK 16/09 Q1016=
201911201400 METAR LRBM 201400Z 09010KT CAVOK 16/09 Q1016=
201911201430 METAR LRBM 201430Z 08009KT CAVOK 16/09 Q1015=
201911201500 METAR LRBM 201500Z 08006KT CAVOK 15/09 Q1016=
201911201530 METAR LRBM 201530Z 08006KT CAVOK 15/09 Q1016=
201911201600 METAR LRBM 201600Z 08009KT CAVOK 16/09 Q1016=
201911201630 METAR LRBM 201630Z 07007KT CAVOK 17/09 Q1016=
201911201700 METAR LRBM 201700Z 08006KT CAVOK 15/09 Q1016=
201911201730 METAR LRBM 201730Z 10008KT CAVOK 15/09 Q1016=
201911201800 METAR LRBM 201800Z 08005KT CAVOK 15/09 Q1016=
201911201830 METAR LRBM 201830Z 09005KT 9999 -RA SCT060 14/10 Q1016=
201911201900 METAR LRBM 201900Z 11004KT 9999 -RA SCT055 15/09 Q1017=
201911201930 METAR LRBM 201930Z 10008KT 080V140 9999 -RA BKN050 14/10
                        Q1017 R09/19//95=
201911202000 METAR LRBM 202000Z 09007KT 9999 -RA BKN050 13/11 Q1017 R09/29//95=
201911202030 METAR LRBM 202030Z 12006KT 090V150 9999 -RA SCT045 14/10
                        Q1018 R09/29//95=
201911202100 METAR LRBM 202100Z 11005KT 9999 -RA OVC048 13/11 Q1018 R09/29//95=
201911202130 METAR LRBM 202130Z 05005KT 9999 -RA BKN055 12/11 Q1018 R09/29//95=
201911202200 METAR LRBM 202200Z 08007KT 9999 BKN060 12/11 Q1018 R09/29//95=
201911202230 METAR LRBM 202230Z AUTO 06006KT 9999 -RA OVC055/// /////
                        Q1018=
201911202300 METAR LRBM 202300Z AUTO 08008KT 9999 -RA BKN050/// BKN065///
                        ///// Q1018=
201911202330 METAR LRBM 202330Z AUTO 08010KT 9999 OVC060/// ///// Q1018
                        RERA=
201911210000 METAR LRBM 210000Z AUTO 08009KT 9999 BKN055/// ///// Q1018=
201911210030 METAR LRBM 210030Z AUTO 09006KT 9999 OVC055/// ///// Q1018=
201911210100 METAR LRBM 210100Z AUTO 06005KT 9999 -SHRA BKN055/// /////
                        Q1018=
201911210130 METAR LRBM 210130Z AUTO 09008KT 9999 -SHRA BKN055/// /////
                        Q1018=
201911210200 METAR LRBM 210200Z AUTO 09008KT 9999 BKN065/// OVC080///
                        ///// Q1018 RERA=
201911210230 METAR LRBM 210230Z AUTO 09009KT 9999 FEW060/// SCT100///
                        ///// Q1018 RERA=
201911210300 METAR LRBM 210300Z 09009KT CAVOK 12/08 Q1018 R09/29//95=
201911210330 METAR LRBM 210330Z 09006KT 9999 BKN060 12/08 Q1017 R09/29//95=
201911210400 METAR LRBM 210400Z 09005KT 9999 BKN060 12/08 Q1018 R09/29//95=
201911210430 METAR LRBM 210430Z 09005KT 9999 OVC060 12/08 Q1018 R09/29//95=
201911210500 METAR LRBM 210500Z 08006KT 9999 BKN060 12/07 Q1018 R09/29//95=
201911210530 METAR LRBM 210530Z 07006KT CAVOK 12/07 Q1018 R09/29//95=
201911210600 METAR LRBM 210600Z 08007KT CAVOK 11/07 Q1018 R09/29//95=
201911210630 METAR LRBM 210630Z 09006KT CAVOK 10/07 Q1018 R09/CLRD//=
201911210700 METAR LRBM 210700Z 09005KT CAVOK 12/08 Q1018=
201911210730 METAR LRBM 210730Z 10006KT CAVOK 13/08 Q1019=
201911210800 METAR LRBM 210800Z 10007KT CAVOK 13/08 Q1019=
201911210830 METAR LRBM 210830Z 12009KT 080V150 CAVOK 14/08 Q1019=
201911210900 METAR LRBM 210900Z 12010KT CAVOK 14/07 Q1019=
201911210930 METAR LRBM 210930Z 10012KT 9999 SCT060 14/08 Q1018=
201911211000 METAR LRBM 211000Z 11010KT 090V150 9999 SCT060 15/08 Q1018=
201911211030 METAR LRBM 211030Z 11010KT 9999 SCT057 15/08 Q1018=
201911211100 METAR LRBM 211100Z 10012KT 9999 FEW037 SCT055 15/08 Q1018=
201911211130 METAR LRBM 211130Z 11010KT 9999 FEW040 14/08 Q1018=
201911211200 METAR LRBM 211200Z 10010KT 9999 SCT050 14/08 Q1018=
201911211230 METAR LRBM 211230Z 10011KT 9999 SCT055 14/08 Q1018=
201911211300 METAR LRBM 211300Z 10011KT 9999 SCT055 14/08 Q1018=
201911211330 METAR LRBM 211330Z 10008KT 9999 SCT055 13/07 Q1018=
201911211400 METAR LRBM 211400Z 10009KT 9999 SCT060 13/07 Q1018=
201911211430 METAR LRBM 211430Z 10010KT 9999 SCT060 13/07 Q1018=
201911211500 METAR LRBM 211500Z 09009KT 9999 FEW060 13/07 Q1018=
201911211530 METAR LRBM 211530Z 08007KT CAVOK 12/07 Q1019=
201911211600 METAR LRBM 211600Z 07008KT CAVOK 12/08 Q1019=
201911211630 METAR LRBM 211630Z 08009KT CAVOK 12/08 Q1019=
201911211700 METAR LRBM 211700Z 08010KT CAVOK 12/07 Q1019=
201911211730 METAR LRBM 211730Z 08008KT CAVOK 12/06 Q1019=
201911211800 METAR LRBM 211800Z 07008KT CAVOK 12/06 Q1019=
201911211830 METAR LRBM 211830Z 08010KT CAVOK 12/06 Q1019=
201911211900 METAR LRBM 211900Z 09010KT CAVOK 12/06 Q1019=
201911211930 METAR LRBM 211930Z 09009KT CAVOK 12/06 Q1019=
201911212000 METAR LRBM 212000Z 09011KT CAVOK 12/06 Q1019=
201911212030 METAR LRBM 212030Z 09009KT CAVOK 12/06 Q1019=
201911212100 METAR LRBM 212100Z 09010KT CAVOK 11/06 Q1019=
201911212130 METAR LRBM 212130Z 07005KT CAVOK 11/05 Q1019=
201911212200 METAR LRBM 212200Z 09010KT CAVOK 10/05 Q1020=
201911212230 METAR LRBM 212230Z AUTO 08006KT 9999 SCT075/// ///// Q1020=
201911212300 METAR LRBM 212300Z AUTO 08005KT 9999 FEW048/// BKN075///
                        ///// Q1020=
201911212330 METAR LRBM 212330Z AUTO 08007KT 9999 FEW049/// BKN075///
                        ///// Q1020=
201911220000 METAR LRBM 220000Z AUTO 08007KT 9999 BKN075/// OVC120///
                        ///// Q1020=
201911220030 METAR LRBM 220030Z AUTO 09009KT 9999 -SHRA FEW075/// BKN100///
                        BKN120/// ///// Q1020=
201911220100 METAR LRBM 220100Z AUTO 10007KT 9999 -SHRA BKN090/// BKN100///
                        ///// Q1020=
201911220130 METAR LRBM 220130Z AUTO 10009KT 9999 -SHRA FEW075/// BKN090///
                        ///// Q1020=
201911220200 METAR LRBM 220200Z AUTO 10008KT 9999 -SHRA FEW080/// BKN100///
                        ///// Q1020=
201911220230 METAR LRBM 220230Z AUTO 09007KT 9999 FEW065/// BKN080///
                        BKN100/// ///// Q1020 RERA=
201911220300 METAR LRBM 220300Z 08005KT 9999 -RA SCT060 10/06 Q1020 R09/19//95=
201911220330 METAR LRBM 220330Z 10011KT 9999 -RA BKN060 10/06 Q1019 R09/19//95=
201911220400 METAR LRBM 220400Z 10009KT 9999 BKN060 10/05 Q1020 R09/19//95=
201911220430 METAR LRBM 220430Z 08007KT 9999 BKN060 10/06 Q1020 R09/19//95=
201911220500 METAR LRBM 220500Z 09010KT CAVOK 10/05 Q1020 R09/19//95=
201911220530 METAR LRBM 220530Z 07006KT CAVOK 09/05 Q1020 R09/19//95=
201911220600 METAR LRBM 220600Z 07005KT CAVOK 09/06 Q1020 R09/19//95=
201911220630 METAR LRBM 220630Z 07005KT CAVOK 08/05 Q1020 R09/19//95=
201911220700 METAR LRBM 220700Z 06003KT CAVOK 08/06 Q1020 R09/19//95=
201911220730 METAR LRBM 220730Z 04003KT CAVOK 09/06 Q1020 R09/19//95=
201911220800 METAR LRBM 220800Z 23002KT 9999 FEW036 BKN060 10/06 Q1021
                        R09/19//95=
201911220830 METAR LRBM 220830Z 21001KT 9999 FEW038 SCT058 10/06 Q1020
                        R09/19//95=
201911220900 METAR LRBM 220900Z 00000KT 9999 -RA FEW036 SCT060 10/06 Q1021
                        R09/19//95=
201911220930 METAR LRBM 220930Z 11007KT 9999 -RA SCT036 BKN058 11/06 Q1020
                        R09/19//95=
201911221000 METAR LRBM 221000Z 11009KT 9999 -RA FEW038 SCT058 11/06 Q1020
                        R09/19//95=
201911221030 METAR LRBM 221030Z 10010KT 9999 FEW042 SCT060 11/06 Q1019
                        R09/19//95=
201911221100 METAR LRBM 221100Z 10009KT 9999 FEW045 11/05 Q1019 R09/CLRD//=
201911221130 METAR LRBM 221130Z 10009KT 9999 FEW048 12/05 Q1019=
201911221200 METAR LRBM 221200Z 10009KT 9999 SCT050 12/05 Q1019=
201911221230 METAR LRBM 221230Z 12008KT 9999 FEW053 12/04 Q1019=
201911221300 METAR LRBM 221300Z 12008KT 9999 SCT053 12/04 Q1019=
201911221330 METAR LRBM 221330Z 11009KT 9999 SCT055 12/04 Q1019=
201911221400 METAR LRBM 221400Z 12008KT 9999 SCT055 12/04 Q1019=
201911221430 METAR LRBM 221430Z 12007KT 9999 SCT055 11/04 Q1019=
201911221500 METAR LRBM 221500Z 11007KT 9999 SCT058 11/04 Q1019=
201911221530 METAR LRBM 221530Z AUTO 11008KT 9999 BKN070/// ///// Q1020=
201911221600 METAR LRBM 221600Z AUTO 12007KT 9999 SCT060/// BKN075///
                        ///// Q1020=
201911221630 METAR LRBM 221630Z AUTO 11005KT 9999 OVC060/// ///// Q1020=
201911221700 METAR LRBM 221700Z AUTO 10007KT 9999 BKN060/// ///// Q1020=
201911221730 METAR LRBM 221730Z AUTO 10009KT 9999 OVC060/// ///// Q1020=
201911221800 METAR LRBM 221800Z AUTO 09008KT 9999 BKN060/// ///// Q1020=
201911221830 METAR LRBM 221830Z AUTO 09007KT 9999 BKN060/// ///// Q1020=
201911221900 METAR LRBM 221900Z AUTO 10009KT 9999 FEW041/// BKN060///
                        ///// Q1020=
201911221930 METAR LRBM 221930Z AUTO 10008KT 9999 -RA FEW046/// OVC060///
                        ///// Q1020=
201911222000 METAR LRBM 222000Z AUTO 10009KT 9999 -RA BKN043/// BKN055///
                        ///// Q1021=
201911222030 METAR LRBM 222030Z AUTO 10008KT 9999 -RA OVC043/// /////
                        Q1021=
201911222100 METAR LRBM 222100Z AUTO 10007KT 9999 -RA BKN042/// /////
                        Q1021=
201911222130 METAR LRBM 222130Z AUTO 11005KT 9999 -RA FEW045/// OVC065///
                        ///// Q1021=
201911222200 METAR LRBM 222200Z AUTO 08003KT 9999 -RA BKN048/// /////
                        Q1021=
201911222230 METAR LRBM 222230Z AUTO 09005KT 9999 -RA FEW043/// OVC055///
                        ///// Q1021=
201911222300 METAR LRBM 222300Z AUTO 09005KT 9999 -RA FEW035/// BKN044///
                        BKN050/// ///// Q1020=
201911222330 METAR LRBM 222330Z AUTO 08003KT 9999 -RA BKN042/// OVC050///
                        ///// Q1020=
201911230000 METAR LRBM 230000Z AUTO 09002KT 9999 -RA BKN042/// BKN050///
                        ///// Q1020=
201911230030 METAR LRBM 230030Z AUTO VRB01KT 9999 -RA SCT034/// OVC043///
                        ///// Q1020=
201911230100 METAR LRBM 230100Z AUTO VRB01KT 9999 -RA BKN034/// BKN043///
                        ///// Q1020=
201911230130 METAR LRBM 230130Z AUTO 07001KT 9999 -RA FEW036/// OVC044///
                        ///// Q1020=
201911230200 METAR LRBM 230200Z AUTO 08002KT 9999 -SHRA BKN044/// /////
                        Q1020=
201911230230 METAR LRBM 230230Z AUTO 11003KT 9999 OVC042/// ///// Q1020
                        RERA=
201911230300 METAR LRBM 230300Z AUTO 09004KT 9999 SCT044/// BKN075///
                        ///// Q1020=
201911230330 METAR LRBM 230330Z AUTO 11006KT 9999 FEW039/// BKN060///
                        OVC075/// ///// Q1020=
201911230400 METAR LRBM 230400Z AUTO 09008KT 9999 BKN055/// ///// Q1020=
201911230430 METAR LRBM 230430Z AUTO 10007KT 9999 FEW038/// BKN055///
                        OVC085/// ///// Q1020=
201911230500 METAR LRBM 230500Z AUTO 10008KT 9999 FEW039/// BKN055///
                        ///// Q1020=
201911230530 METAR LRBM 230530Z AUTO 09006KT 9999 FEW039/// OVC055///
                        ///// Q1020=
201911230600 METAR LRBM 230600Z AUTO 08006KT 9999 FEW038/// BKN055///
                        ///// Q1020=
201911230630 METAR LRBM 230630Z AUTO 09008KT 9999 FEW041/// OVC060///
                        ///// Q1020=
201911230700 METAR LRBM 230700Z AUTO 10006KT 9999 BKN039/// BKN075///
                        ///// Q1021=
201911230730 METAR LRBM 230730Z AUTO 10009KT 9999 BKN039/// OVC075///
                        ///// Q1021=
201911230800 METAR LRBM 230800Z AUTO 10008KT 9999 BKN040/// ///// Q1021=
201911230830 METAR LRBM 230830Z AUTO 10009KT 9999 BKN042/// ///// Q1021=
201911230900 METAR LRBM 230900Z AUTO 10010KT 9999 FEW043/// BKN055///
                        ///// Q1021=
201911230930 METAR LRBM 230930Z AUTO 11008KT 9999 FEW055/// ///// Q1020=
201911231000 METAR LRBM 231000Z AUTO 11008KT 080V140 9999 BKN055/// /////
                        Q1020=
201911231030 METAR LRBM 231030Z AUTO 10010KT 9999 FEW055/// SCT210///
                        ///// Q1020=
201911231100 METAR LRBM 231100Z AUTO 10008KT 9999 NCD ///// Q1019=
201911231130 METAR LRBM 231130Z AUTO 09008KT 9999 FEW070/// ///// Q1019=
201911231200 METAR LRBM 231200Z AUTO 10007KT 080V140 9999 SCT060/// /////
                        Q1019=
201911231230 METAR LRBM 231230Z AUTO 10009KT 9999 FEW060/// ///// Q1019=
201911231300 METAR LRBM 231300Z AUTO 10007KT 9999 SCT065/// ///// Q1019=
201911231330 METAR LRBM 231330Z AUTO 11006KT 9999 OVC065/// ///// Q1019=
201911231400 METAR LRBM 231400Z AUTO 11005KT 9999 OVC065/// ///// Q1019=
201911231430 METAR LRBM 231430Z AUTO 10006KT 9999 BKN065/// ///// Q1019=
201911231500 METAR LRBM 231500Z AUTO 10006KT 9999 OVC065/// ///// Q1019=
201911231530 METAR LRBM 231530Z AUTO 09006KT 9999 OVC065/// ///// Q1019=
201911231600 METAR LRBM 231600Z AUTO 09006KT 9999 BKN060/// ///// Q1019=
201911231630 METAR LRBM 231630Z AUTO 10008KT 9999 NCD ///// Q1019=
201911231700 METAR LRBM 231700Z AUTO 08005KT 9999 NCD ///// Q1019=
201911231730 METAR LRBM 231730Z AUTO 06004KT 8000 NCD ///// Q1019=
201911231800 METAR LRBM 231800Z AUTO 06005KT 9999 NCD ///// Q1019=
201911231830 METAR LRBM 231830Z AUTO 06005KT 9000 NCD ///// Q1019=
201911231900 METAR LRBM 231900Z AUTO 06005KT 9999 NCD ///// Q1019=
201911231930 METAR LRBM 231930Z AUTO 06006KT 9999 FEW075/// ///// Q1019=
201911232000 METAR LRBM 232000Z AUTO 05005KT 030V090 9999 NCD ///// Q1019=
201911232030 METAR LRBM 232030Z AUTO 06005KT 9999 NCD ///// Q1019=
201911232100 METAR LRBM 232100Z AUTO 06005KT 9999 FEW065/// ///// Q1019=
201911232130 METAR LRBM 232130Z AUTO 05006KT 9999 NCD ///// Q1019=
201911232200 METAR LRBM 232200Z AUTO 06005KT 9999 NCD ///// Q1019=
201911232230 METAR LRBM 232230Z AUTO 07005KT 9999 NCD ///// Q1019=
201911232300 METAR LRBM 232300Z AUTO 09005KT 9999 NCD ///// Q1019=
201911232330 METAR LRBM 232330Z AUTO 07005KT 9999 NCD ///// Q1019=
201911240000 METAR LRBM 240000Z AUTO 10005KT 9999 NCD ///// Q1019=
201911240030 METAR LRBM 240030Z AUTO 09005KT 9999 NCD ///// Q1019=
201911240100 METAR LRBM 240100Z AUTO VRB02KT 9999 NCD ///// Q1019=
201911240130 METAR LRBM 240130Z AUTO 08005KT 9999 NCD ///// Q1019=
201911240200 METAR LRBM 240200Z AUTO 06005KT 9999 NCD ///// Q1019=
201911240230 METAR LRBM 240230Z AUTO 07005KT 9999 NCD ///// Q1019=
201911240300 METAR LRBM 240300Z AUTO 07005KT 9999 NCD ///// Q1019=
201911240330 METAR LRBM 240330Z AUTO 07005KT 9999 NCD ///// Q1019=
201911240400 METAR LRBM 240400Z AUTO 06005KT 9999 NCD ///// Q1019=
201911240430 METAR LRBM 240430Z AUTO 07006KT 9999 NCD ///// Q1019=
201911240500 METAR LRBM 240500Z AUTO 07005KT 9999 NCD ///// Q1019=
201911240530 METAR LRBM 240530Z AUTO 07005KT 9999 NCD ///// Q1019=
201911240600 METAR LRBM 240600Z AUTO 09004KT 9999 NCD ///// Q1019=
201911240630 METAR LRBM 240630Z AUTO VRB01KT 9999 NCD ///// Q1019=
201911240700 METAR LRBM 240700Z AUTO 09003KT 9999 NCD ///// Q1019=
201911240730 METAR LRBM 240730Z AUTO 10003KT 9999 NCD ///// Q1019=
201911240800 METAR LRBM 240800Z AUTO 10005KT 9999 NCD ///// Q1019=
201911240830 METAR LRBM 240830Z AUTO 10004KT 9999 NCD ///// Q1020=
201911240900 METAR LRBM 240900Z AUTO 09005KT 9999 NCD ///// Q1019=
201911240930 METAR LRBM 240930Z AUTO 09006KT 070V130 9999 NCD ///// Q1019=
201911241000 METAR LRBM 241000Z AUTO 11008KT 9999 NCD ///// Q1019=
201911241030 METAR LRBM 241030Z AUTO 12008KT 9999 NCD ///// Q1018=
201911241100 METAR LRBM 241100Z AUTO 11007KT 080V140 9999 NCD ///// Q1018=
201911241130 METAR LRBM 241130Z AUTO 11007KT 080V140 9999 NCD ///// Q1018=
201911241200 METAR LRBM 241200Z AUTO 12006KT 9999 NCD ///// Q1017=
201911241230 METAR LRBM 241230Z AUTO 12006KT 9999 NCD ///// Q1017=
201911241300 METAR LRBM 241300Z AUTO 10007KT 9999 NCD ///// Q1017=
201911241330 METAR LRBM 241330Z AUTO 10007KT 9999 NCD ///// Q1017=
201911241400 METAR LRBM 241400Z AUTO 10005KT 9999 NCD ///// Q1017=
201911241430 METAR LRBM 241430Z AUTO 09005KT 9999 NCD ///// Q1017=
201911241500 METAR LRBM 241500Z AUTO 08003KT 9999 NCD ///// Q1017=
201911241530 METAR LRBM 241530Z AUTO 06004KT 9999 NCD ///// Q1017=
201911241600 METAR LRBM 241600Z AUTO 06005KT 9999 NCD ///// Q1017=
201911241630 METAR LRBM 241630Z AUTO 05004KT 030V100 9999 NCD ///// Q1017=
201911241700 METAR LRBM 241700Z AUTO 04004KT 9999 NCD ///// Q1017=
201911241730 METAR LRBM 241730Z AUTO VRB01KT 9999 NCD ///// Q1017=
201911241800 METAR COR LRBM 241800Z VRB01KT CAVOK 08/04 Q1016=
201911241830 METAR LRBM 241830Z VRB01KT CAVOK 07/04 Q1016=
201911241900 METAR LRBM 241900Z 00000KT CAVOK 08/04 Q1016=
201911241930 METAR LRBM 241930Z 00000KT CAVOK 07/03 Q1016=
201911242000 METAR LRBM 242000Z 09005KT CAVOK 06/03 Q1016=
201911242030 METAR LRBM 242030Z 10006KT CAVOK 06/03 Q1016=
201911242100 METAR LRBM 242100Z 07008KT CAVOK 06/03 Q1016=
201911242130 METAR LRBM 242130Z 08008KT CAVOK 06/03 Q1016=
201911242200 METAR LRBM 242200Z 07005KT CAVOK 06/03 Q1016=
201911242230 METAR LRBM 242230Z AUTO 09005KT 9999 NCD ///// Q1016=
201911242300 METAR LRBM 242300Z AUTO 09007KT 9999 NCD ///// Q1016=
201911242330 METAR LRBM 242330Z AUTO 07004KT 9999 NCD ///// Q1016=
201911250000 METAR LRBM 250000Z AUTO 08006KT 9999 NCD ///// Q1015=
201911250030 METAR LRBM 250030Z AUTO 09006KT 9999 NCD ///// Q1016=
201911250100 METAR LRBM 250100Z AUTO 08004KT 9999 NCD ///// Q1015=
201911250130 METAR LRBM 250130Z AUTO VRB02KT 9000 NCD ///// Q1015=
201911250200 METAR LRBM 250200Z AUTO 08003KT 9999 FEW210/// ///// Q1015=
201911250230 METAR LRBM 250230Z AUTO 09003KT 9999 SCT200/// ///// Q1015=
201911250300 METAR LRBM 250300Z VRB02KT CAVOK 03/03 Q1015=
201911250330 METAR LRBM 250330Z 10005KT CAVOK 03/03 Q1015=
201911250400 METAR LRBM 250400Z VRB02KT CAVOK 04/04 Q1015=
201911250430 METAR LRBM 250430Z 08004KT 060V130 CAVOK 03/03 Q1015=
201911250500 METAR LRBM 250500Z 08006KT CAVOK 02/02 Q1015=
201911250530 METAR LRBM 250530Z 10006KT CAVOK 03/03 Q1015=
201911250600 METAR LRBM 250600Z 10005KT CAVOK 02/02 Q1015=
201911250630 METAR LRBM 250630Z 14003KT 110V170 CAVOK 02/02 Q1015=
201911250700 METAR LRBM 250700Z 15004KT CAVOK 04/04 Q1015=
201911250730 METAR LRBM 250730Z VRB01KT CAVOK 04/04 Q1015=
201911250800 METAR LRBM 250800Z 06002KT CAVOK 05/05 Q1015=
201911250830 METAR LRBM 250830Z 16004KT CAVOK 08/06 Q1015=
201911250900 METAR LRBM 250900Z 16003KT CAVOK 09/05 Q1015=
201911250930 METAR LRBM 250930Z 14003KT CAVOK 10/06 Q1015=
201911251000 METAR LRBM 251000Z 17003KT 150V210 CAVOK 11/07 Q1014=
201911251030 METAR LRBM 251030Z 12004KT 090V170 CAVOK 13/06 Q1014=
201911251100 METAR LRBM 251100Z 12006KT 090V150 CAVOK 13/06 Q1013=
201911251130 METAR LRBM 251130Z 13007KT CAVOK 13/06 Q1013=
201911251200 METAR LRBM 251200Z 11006KT CAVOK 13/05 Q1013=
201911251230 METAR LRBM 251230Z 10005KT 070V160 CAVOK 14/05 Q1013=
201911251300 METAR LRBM 251300Z 10005KT 080V150 CAVOK 14/05 Q1013=
201911251330 METAR LRBM 251330Z 12003KT 090V150 CAVOK 13/05 Q1013=
201911251400 METAR LRBM 251400Z 16001KT CAVOK 13/05 Q1012=
201911251430 METAR LRBM 251430Z 27002KT CAVOK 13/06 Q1013=
201911251500 METAR LRBM 251500Z 36002KT CAVOK 10/05 Q1013=
201911251530 METAR LRBM 251530Z 06001KT CAVOK 08/05 Q1013=
201911251600 METAR LRBM 251600Z 06002KT CAVOK 08/05 Q1013=
201911251630 METAR LRBM 251630Z 04003KT CAVOK 08/05 Q1013=
201911251700 METAR LRBM 251700Z 04002KT CAVOK 07/05 Q1013=
201911251730 METAR LRBM 251730Z 03002KT CAVOK 07/05 Q1013=
201911251800 METAR LRBM 251800Z 10004KT CAVOK 08/05 Q1013=
201911251830 METAR LRBM 251830Z 09007KT CAVOK 07/05 Q1013=
201911251900 METAR LRBM 251900Z 09005KT CAVOK 07/05 Q1013=
201911251930 METAR LRBM 251930Z 09005KT CAVOK 07/05 Q1013=
201911252000 METAR LRBM 252000Z 09005KT CAVOK 05/05 Q1013=
201911252030 METAR LRBM 252030Z 00000KT CAVOK 06/05 Q1013=
201911252100 METAR LRBM 252100Z VRB03KT CAVOK 06/05 Q1013=
201911252130 METAR LRBM 252130Z 00000KT CAVOK 05/04 Q1013=
201911252200 METAR LRBM 252200Z 05003KT CAVOK 05/04 Q1013=
201911252230 METAR LRBM 252230Z AUTO 00000KT 7000 BKN160/// ///// Q1013
                        RESN=
201911252300 METAR LRBM 252300Z AUTO 10004KT 9999 BKN170/// ///// Q1013
                        RESN=
201911252330 METAR LRBM 252330Z AUTO 10006KT 9999 BKN160/// ///// Q1013=
201911260000 METAR LRBM 260000Z AUTO VRB04KT 9000 BKN160/// ///// Q1013=
201911260030 METAR LRBM 260030Z AUTO VRB02KT 8000 BKN160/// ///// Q1013=
201911260100 METAR LRBM 260100Z AUTO 00000KT 9000 FEW130/// BKN160///
                        ///// Q1013=
201911260130 METAR LRBM 260130Z AUTO VRB01KT 6000 FEW140/// ///// Q1013=
201911260200 METAR LRBM 260200Z AUTO 09004KT 8000 FEW130/// ///// Q1013=
201911260230 METAR LRBM 260230Z AUTO 10004KT 9999 FEW140/// BKN160///
                        ///// Q1013=
201911260300 METAR LRBM 260300Z VRB02KT CAVOK 04/04 Q1012=
201911260330 METAR LRBM 260330Z VRB02KT CAVOK 02/02 Q1012=
201911260400 METAR LRBM 260400Z 08004KT CAVOK 02/02 Q1012=
201911260430 METAR LRBM 260430Z VRB02KT CAVOK 03/03 Q1013=
201911260500 METAR LRBM 260500Z 10002KT CAVOK 02/02 Q1013=
201911260530 METAR LRBM 260530Z VRB02KT CAVOK 02/02 Q1013=
201911260600 METAR LRBM 260600Z 09003KT CAVOK 03/03 Q1013=
201911260630 METAR LRBM 260630Z VRB02KT CAVOK 04/04 Q1013=
201911260700 METAR LRBM 260700Z 10003KT CAVOK 05/05 Q1013=
201911260730 METAR LRBM 260730Z 11003KT CAVOK 06/06 Q1013=
201911260800 METAR LRBM 260800Z VRB02KT CAVOK 06/06 Q1013=
201911260830 METAR LRBM 260830Z 18003KT CAVOK 06/06 Q1013=
201911260900 METAR LRBM 260900Z VRB01KT CAVOK 07/07 Q1013=
201911260930 METAR LRBM 260930Z 19002KT CAVOK 08/07 Q1013=
201911261000 METAR LRBM 261000Z VRB02KT CAVOK 08/07 Q1013=
201911261030 METAR LRBM 261030Z 22002KT CAVOK 09/08 Q1013=
201911261100 METAR LRBM 261100Z 23003KT CAVOK 10/07 Q1013=
201911261130 METAR LRBM 261130Z VRB02KT CAVOK 10/07 Q1013=
201911261200 METAR LRBM 261200Z 20002KT CAVOK 10/07 Q1012=
201911261230 METAR LRBM 261230Z VRB01KT CAVOK 10/07 Q1012=
201911261300 METAR LRBM 261300Z 26002KT CAVOK 10/07 Q1012=
201911261330 METAR LRBM 261330Z 25002KT CAVOK 10/07 Q1012=
201911261400 METAR LRBM 261400Z 24002KT CAVOK 09/07 Q1012=
201911261430 METAR LRBM 261430Z 00000KT CAVOK 09/07 Q1012=
201911261500 METAR LRBM 261500Z 00000KT CAVOK 08/06 Q1013=
201911261530 METAR LRBM 261530Z 07001KT CAVOK 07/06 Q1013=
201911261600 METAR LRBM 261600Z VRB01KT CAVOK 07/06 Q1013=
201911261630 METAR LRBM 261630Z VRB02KT CAVOK 05/05 Q1013=
201911261700 METAR LRBM 261700Z VRB01KT CAVOK 05/05 Q1013=
201911261730 METAR LRBM 261730Z 02003KT 350V080 CAVOK 04/04 Q1013=
201911261800 METAR LRBM 261800Z 04004KT CAVOK 05/05 Q1013=
201911261830 METAR LRBM 261830Z 03004KT CAVOK 05/05 Q1013=
201911261900 METAR LRBM 261900Z VRB01KT CAVOK 05/05 Q1013=
201911261930 METAR LRBM 261930Z 09003KT CAVOK 04/04 Q1013=
201911262000 METAR LRBM 262000Z 09005KT CAVOK 03/03 Q1013=
201911262030 METAR LRBM 262030Z 05006KT 020V080 CAVOK 04/04 Q1013=
201911262100 METAR LRBM 262100Z VRB01KT CAVOK 04/04 Q1013=
201911262130 METAR LRBM 262130Z VRB02KT CAVOK 04/04 Q1013=
201911262200 METAR LRBM 262200Z VRB02KT CAVOK 04/04 Q1013=
201911262230 METAR LRBM 262230Z AUTO 00000KT 1400 R09/0650N -SN BKN085///
                        ///// Q1013=
201911262300 METAR LRBM 262300Z AUTO 05001KT 3700 R09/1700VP2000N -SN
                        BKN085/// ///// Q1013=
201911262330 METAR LRBM 262330Z AUTO 09003KT 6000 BKN085/// ///// Q1012
                        RESN=
201911270000 METAR LRBM 270000Z AUTO 14002KT 5000 FEW085/// ///// Q1012=
201911270030 METAR LRBM 270030Z AUTO VRB01KT 2100 R09/0800V1300U -SHSN
                        FEW003/// ///// Q1012=
201911270100 METAR LRBM 270100Z AUTO 10005KT 3800 R09/2000 -SHSN NCD /////
                        Q1012=
201911270130 METAR LRBM 270130Z AUTO 09008KT 5000 R09/1600VP2000U -SN
                        NCD ///// Q1012=
201911270200 METAR LRBM 270200Z AUTO 08006KT 9999 NCD ///// Q1012 RESN=
201911270230 METAR LRBM 270230Z AUTO 09004KT 050V190 9999 NCD ///// Q1012=
201911270300 METAR LRBM 270300Z VRB01KT 6000 NSC 00/00 Q1011=
201911270330 METAR LRBM 270330Z VRB02KT 6000 3000W BCFG NSC M00/M00 Q1011=
201911270400 METAR LRBM 270400Z 16004KT 6000 2000W BCFG NSC M00/M00 Q1011=
201911270430 METAR LRBM 270430Z 07001KT 6000 2000W BCFG FEW001 M01/M01
                        Q1011=
201911270500 METAR LRBM 270500Z VRB02KT 9999 2000W BCFG FEW001 M02/M02
                        Q1011=
201911270530 METAR COR LRBM 270530Z 17003KT 6000 0500W BCFG SCT001 M02/M02
                        Q1011=
201911270600 METAR LRBM 270600Z VRB02KT 0450 R09/0225N FZFG SCT001 M02/M02
                        Q1012=
201911270630 METAR COR LRBM 270630Z 10006KT 1400 0600E R09/1200U BR BCFG
                        SCT001 M02/M02 Q1011=
201911270700 METAR LRBM 270700Z 00000KT 1400 0400E R09/1000D BR BCFG FEW001
                        M01/M01 Q1011=
201911270730 METAR LRBM 270730Z VRB02KT 1400 0600E R09/1200D BR BCFG NSC
                        00/00 Q1011=
201911270800 METAR LRBM 270800Z VRB01KT 3300 BR NSC 02/02 Q1011=
201911270830 METAR LRBM 270830Z VRB01KT 9999 4000W BCFG NSC 04/04 Q1011=
201911270900 METAR LRBM 270900Z 10004KT 9999 4000W BCFG NSC 06/06 Q1011=
201911270930 METAR LRBM 270930Z 09003KT 060V130 9999 4000W BCFG NSC 08/07
                        Q1011=
201911271000 METAR LRBM 271000Z VRB02KT CAVOK 10/07 Q1010=
201911271030 METAR LRBM 271030Z VRB02KT CAVOK 11/07 Q1010=
201911271100 METAR LRBM 271100Z 11006KT CAVOK 11/04 Q1010=
201911271130 METAR LRBM 271130Z 12006KT 080V160 CAVOK 12/07 Q1009=
201911271200 METAR COR LRBM 271200Z 10007KT 080V150 CAVOK 13/07 Q1009=
201911271230 METAR LRBM 271230Z 12005KT CAVOK 13/07 Q1009=
201911271300 METAR LRBM 271300Z 10004KT CAVOK 13/07 Q1009=
201911271330 METAR LRBM 271330Z VRB02KT CAVOK 13/07 Q1008=
201911271400 METAR LRBM 271400Z 14003KT CAVOK 12/06 Q1008=
201911271430 METAR LRBM 271430Z 18002KT CAVOK 10/06 Q1008=
201911271500 METAR LRBM 271500Z 05003KT CAVOK 08/06 Q1009=
201911271530 METAR LRBM 271530Z 05003KT CAVOK 07/06 Q1008=
201911271600 METAR LRBM 271600Z 06004KT CAVOK 08/06 Q1009=
201911271630 METAR LRBM 271630Z 07005KT CAVOK 07/06 Q1008=
201911271700 METAR LRBM 271700Z 07005KT CAVOK 08/06 Q1008=
201911271730 METAR LRBM 271730Z 06005KT CAVOK 08/05 Q1008=
201911271800 METAR LRBM 271800Z 09004KT CAVOK 07/05 Q1008=
201911271830 METAR LRBM 271830Z 00000KT CAVOK 05/04 Q1008=
201911271900 METAR LRBM 271900Z 07004KT CAVOK 06/05 Q1008=
201911271930 METAR LRBM 271930Z 09005KT CAVOK 08/05 Q1008=
201911272000 METAR LRBM 272000Z 06004KT 9999 -RA SCT060 08/06 Q1008 R09/19//95=
201911272030 METAR LRBM 272030Z 07005KT 030V110 CAVOK 09/06 Q1008 R09/19//95=
201911272100 METAR LRBM 272100Z 06005KT CAVOK 09/06 Q1008 R09/19//95=
201911272130 METAR LRBM 272130Z 05003KT CAVOK 10/06 Q1008 R09/19//95=
201911272200 METAR LRBM 272200Z 05004KT 9999 -RA FEW050 09/06 Q1007 R09/19//95=
201911272230 METAR LRBM 272230Z AUTO 05004KT 9999 OVC050/// ///// Q1007
                        RERA=
201911272300 METAR LRBM 272300Z AUTO 06005KT 9999 BKN050/// ///// Q1007=
201911272330 METAR LRBM 272330Z AUTO 07002KT 9999 -RA BKN050/// /////
                        Q1007=
201911280000 METAR LRBM 280000Z AUTO VRB02KT 7000 -RA BKN043/// BKN050///
                        ///// Q1008=
201911280030 METAR LRBM 280030Z AUTO VRB01KT 9000 -RA BKN036/// OVC042///
                        ///// Q1008=
201911280100 METAR LRBM 280100Z AUTO 05003KT 6000 RA BKN029/// BKN036///
                        ///// Q1008=
201911280130 METAR LRBM 280130Z AUTO 04004KT 9000 -RA SCT024/// OVC029///
                        ///// Q1008=
201911280200 METAR LRBM 280200Z AUTO 05004KT 030V090 9999 -RA SCT024///
                        BKN028/// BKN046/// ///// Q1008=
201911280230 METAR LRBM 280230Z AUTO 06005KT 9999 DZ FEW023/// BKN031///
                        OVC060/// ///// Q1007=
201911280300 METAR COR LRBM 280300Z 09005KT 9999 -RA BKN024 OVC028 07/07
                        Q1007 R09/19//95=
201911280330 METAR LRBM 280330Z 11004KT 9999 -RA SCT023 BKN027 OVC042
                        08/08 Q1007 R09/29//95=
201911280400 METAR LRBM 280400Z 07004KT 9999 -RA SCT024 OVC028 08/08 Q1007
                        R09/29//95=
201911280430 METAR LRBM 280430Z 07006KT 9999 -RA BKN024 BKN029 OVC033
                        08/08 Q1007 R09/29//95=
201911280500 METAR COR LRBM 280500Z 07004KT 9999 -RA FEW026 SCT034 BKN039
                        08/08 Q1007 R09/29//95=
201911280530 METAR LRBM 280530Z 11005KT 9999 -RA FEW024 BKN036 08/08 Q1007
                        R09/29//95=
201911280600 METAR LRBM 280600Z 14003KT 9999 -RA FEW024 SCT030 BKN035
                        08/08 Q1007 R09/29//95=
201911280630 METAR LRBM 280630Z VRB03KT 9999 -RA FEW023 SCT029 OVC033
                        08/08 Q1007 R09/29//95=
201911280700 METAR LRBM 280700Z 10003KT 9999 -RA FEW023 SCT028 OVC032
                        07/07 Q1007 R09/29//95=
201911280730 METAR LRBM 280730Z 12002KT 9999 -RA FEW023 BKN029 OVC033
                        07/07 Q1007 R09/29//95=
201911280800 METAR LRBM 280800Z 11002KT 9999 -RA BKN030 OVC035 07/07 Q1007
                        R09/29//95=
201911280830 METAR LRBM 280830Z 12002KT 9999 -RA SCT030 OVC036 08/08 Q1007
                        R09/29//95=
201911280900 METAR LRBM 280900Z 08004KT 040V100 9999 -RA FEW032 BKN037
                        08/08 Q1007 R09/29//95=
201911280930 METAR LRBM 280930Z 08003KT 9999 SCT035 BKN040 09/09 Q1007
                        R09/29//95=
201911281000 METAR LRBM 281000Z 11003KT 9999 SCT034 SCT040 09/09 Q1006
                        R09/29//95=
201911281030 METAR LRBM 281030Z 08003KT 9999 SCT035 09/09 Q1006 R09/29//95=
201911281100 METAR LRBM 281100Z 06005KT 9999 SCT030 BKN036 09/09 Q1006
                        R09/29//95=
201911281130 METAR LRBM 281130Z 06004KT 9999 FEW033 BKN039 10/10 Q1005
                        R09/29//95=
201911281200 METAR LRBM 281200Z 08004KT 9999 SCT033 BKN045 10/09 Q1005
                        R09/29//95=
201911281230 METAR LRBM 281230Z 07004KT 9999 SCT033 BKN047 10/10 Q1005
                        R09/29//95=
201911281300 METAR LRBM 281300Z 09004KT 9999 FEW033 BKN042 10/09 Q1005
                        R09/29//95=
201911281330 METAR LRBM 281330Z 05003KT 9999 BKN037 10/10 Q1004 R09/29//95=
201911281400 METAR LRBM 281400Z 09003KT 040V140 9999 -RA FEW033 BKN039
                        10/10 Q1004 R09/29//95=
201911281430 METAR LRBM 281430Z VRB02KT 8000 -RA SCT033 BKN038 10/10 Q1005
                        R09/29//95=
201911281500 METAR LRBM 281500Z 07004KT 8000 -RA BKN032 BKN038 09/09 Q1004
                        R09/29//95=
201911281530 METAR LRBM 281530Z 07006KT 9999 -RA FEW028 BKN032 09/09 Q1004
                        R09/29//95=
201911281600 METAR LRBM 281600Z 07005KT 9999 -RA FEW028 SCT032 BKN050
                        09/09 Q1004 R09/29//95=
201911281630 METAR LRBM 281630Z 07006KT 9999 FEW032 BKN045 09/09 Q1004
                        R09/29//95=
201911281700 METAR LRBM 281700Z 08005KT 9999 -RA FEW034 BKN043 09/09 Q1004
                        R09/29//95=
201911281730 METAR LRBM 281730Z 06004KT 9999 SCT043 BKN055 09/09 Q1003
                        R09/29//95=
201911281800 METAR LRBM 281800Z 07003KT 9999 SCT036 BKN041 09/09 Q1003
                        R09/29//95=
201911281830 METAR LRBM 281830Z 09004KT 9999 -RA BKN035 09/09 Q1003 R09/29//95=
201911281900 METAR LRBM 281900Z 07002KT 9999 -RA BKN032 09/09 Q1003 R09/29//95=
201911281930 METAR LRBM 281930Z 07003KT 9999 FEW016 BKN034 09/09 Q1003
                        R09/29//95=
201911282000 METAR LRBM 282000Z 08003KT 9999 BKN032 09/09 Q1003 R09/29//95=
201911282030 METAR LRBM 282030Z 08003KT 9999 -RA BKN028 OVC033 09/09 Q1003
                        R09/29//95=
201911282100 METAR LRBM 282100Z 08004KT 9999 -RA BKN027 OVC034 09/09 Q1003
                        R09/29//95=
201911282130 METAR LRBM 282130Z 07003KT 9999 -RA SCT022 BKN031 09/09 Q1003
                        R09/29//95=
201911282200 METAR LRBM 282200Z 11005KT 9999 -RA BKN020 OVC024 09/09 Q1003
                        R09/29//95=
201911282230 METAR LRBM 282230Z AUTO 11005KT 9999 FEW018/// BKN023///
                        OVC028/// ///// Q1003 RERA=
201911282300 METAR LRBM 282300Z AUTO 10005KT 9999 FEW018/// BKN023///
                        BKN028/// ///// Q1003=
201911282330 METAR LRBM 282330Z AUTO VRB02KT 9999 -RA FEW019/// BKN022///
                        ///// Q1003=
201911290000 METAR LRBM 290000Z AUTO 09002KT 7000 -SHRA SCT018/// BKN021///
                        BKN027/// ///// Q1003=
201911290030 METAR LRBM 290030Z AUTO 12002KT 7000 -SHRA FEW014/// BKN017///
                        BKN020/// ///// Q1003=
201911290100 METAR LRBM 290100Z AUTO VRB01KT 4400 SHRA SCT013/// BKN016///
                        BKN019/// ///// Q1003=
201911290130 METAR LRBM 290130Z AUTO 00000KT 4600 -SHRA FEW010/// SCT013///
                        BKN016/// ///// Q1003=
201911290200 METAR LRBM 290200Z AUTO VRB01KT 6000 -SHRA FEW011/// BKN015///
                        BKN038/// ///// Q1003=
201911290230 METAR LRBM 290230Z AUTO VRB01KT 4900 -SHRA FEW012/// SCT018///
                        BKN022/// ///// Q1003=
201911290300 METAR LRBM 290300Z 25002KT 4000 -RA BR SCT012 BKN033 09/09
                        Q1003 R09/29//95=
201911290330 METAR LRBM 290330Z 28008KT 7000 SCT017 BKN040 08/08 Q1003
                        R09/29//95=
201911290400 METAR LRBM 290400Z 30005KT 260V330 9999 SCT016 BKN043 09/09
                        Q1003 R09/29//95=
201911290430 METAR LRBM 290430Z VRB02KT 9999 BKN015 BKN040 09/09 Q1004
                        R09/29//95=
201911290500 METAR LRBM 290500Z VRB02KT 9999 BKN016 BKN040 09/09 Q1004
                        R09/29//95=
201911290530 METAR LRBM 290530Z 26004KT 9999 BKN014 BKN035 08/08 Q1004
                        R09/29//95=
201911290600 METAR LRBM 290600Z 00000KT 9999 BKN015 BKN035 08/08 Q1005
                        R09/29//95=
201911290630 METAR LRBM 290630Z VRB01KT 9999 BKN014 BKN035 08/08 Q1005
                        R09/29//95=
201911290700 METAR LRBM 290700Z VRB01KT 9999 BKN015 BKN033 08/08 Q1005
                        R09/29//95=
201911290730 METAR LRBM 290730Z VRB01KT 9999 BKN013 BKN033 08/08 Q1006
                        R09/29//95=
201911290800 METAR LRBM 290800Z VRB01KT 9999 SCT017 SCT037 09/09 Q1006
                        R09/29//95=
201911290830 METAR LRBM 290830Z 00000KT 9999 FEW018 SCT037 10/10 Q1006
                        R09/29//95=
201911290900 METAR LRBM 290900Z VRB02KT 9999 FEW015 SCT036 10/10 Q1006
                        R09/29//95=
201911290930 METAR LRBM 290930Z 20003KT 160V230 9999 SCT020 10/09 Q1006
                        R09/29//95=
201911291000 METAR LRBM 291000Z VRB02KT 9999 BKN024 10/08 Q1005 R09/29//95=
201911291030 METAR LRBM 291030Z VRB02KT 9999 FEW017 BKN027 10/09 Q1005
                        R09/29//95=
201911291100 METAR LRBM 291100Z VRB02KT 9999 FEW020 BKN030 10/09 Q1006
                        R09/29//95=
201911291130 METAR LRBM 291130Z VRB02KT 9999 BKN033 10/09 Q1006 R09/29//95=
201911291200 METAR LRBM 291200Z VRB02KT 9999 BKN035 10/09 Q1006 R09/19//95=
201911291230 METAR LRBM 291230Z 29005KT 260V320 9999 BKN040 10/09 Q1006
                        R09/19//95=
201911291300 METAR LRBM 291300Z 29005KT 9999 SCT045 10/09 Q1006 R09/19//95=
201911291330 METAR LRBM 291330Z 30003KT 9999 SCT045 10/09 Q1006 R09/19//95=
201911291400 METAR LRBM 291400Z 00000KT 9999 BKN046 10/08 Q1006 R09/19//95=
201911291430 METAR LRBM 291430Z VRB01KT 9999 BKN050 10/08 Q1007 R09/19//95=
201911291500 METAR LRBM 291500Z 00000KT 9999 BKN050 10/08 Q1007 R09/19//95=
201911291530 METAR LRBM 291530Z AUTO 11002KT 9999 SCT042/// OVC048///
                        ///// Q1007=
201911291600 METAR LRBM 291600Z AUTO 11001KT 9999 SCT027/// BKN038///
                        OVC045/// ///// Q1007=
201911291630 METAR LRBM 291630Z AUTO VRB01KT 9999 FEW025/// OVC041///
                        ///// Q1007=
201911291700 METAR LRBM 291700Z AUTO 00000KT 9999 FEW025/// BKN037///
                        ///// Q1008=
201911291730 METAR LRBM 291730Z AUTO VRB01KT 9999 SCT023/// OVC041///
                        ///// Q1008=
201911291800 METAR LRBM 291800Z AUTO VRB01KT 9999 FEW020/// OVC045///
                        ///// Q1008=
201911291830 METAR LRBM 291830Z AUTO 22003KT 160V300 9999 FEW019/// SCT039///
                        BKN044/// ///// Q1008=
201911291900 METAR LRBM 291900Z AUTO 18004KT 9999 -RA SCT038/// BKN043///
                        ///// Q1008=
201911291930 METAR LRBM 291930Z AUTO 15003KT 9999 -SHRA SCT038/// BKN048///
                        ///// Q1008=
201911292000 METAR LRBM 292000Z AUTO 08003KT 050V120 9999 -SHRA FEW033///
                        BKN043/// ///// Q1008=
201911292030 METAR LRBM 292030Z AUTO 06004KT 360V100 9999 SHRA FEW012///
                        SCT034/// BKN041/// ///// Q1008=
201911292100 METAR LRBM 292100Z AUTO 13002KT 9000 FEW012/// BKN020///
                        OVC039/// ///// Q1008 RERA=
201911292130 METAR LRBM 292130Z AUTO 10002KT 9999 FEW015/// BKN018///
                        BKN046/// ///// Q1008 REDZ=
201911292200 METAR LRBM 292200Z AUTO 10002KT 9999 FEW021/// BKN039///
                        OVC044/// ///// Q1008=
201911292230 METAR LRBM 292230Z AUTO VRB02KT 9999 -SHRA FEW026/// BKN039///
                        ///// Q1008=
201911292300 METAR LRBM 292300Z AUTO 00000KT 9000 -RA FEW013/// SCT018///
                        BKN038/// ///// Q1008=
201911292330 METAR LRBM 292330Z AUTO VRB01KT 7000 -RA SCT010/// BKN013///
                        BKN016/// ///// Q1008=
201911300000 METAR LRBM 300000Z AUTO VRB01KT 7000 -RA FEW009/// BKN012///
                        BKN015/// ///// Q1008=
201911300030 METAR LRBM 300030Z AUTO 00000KT 7000 -SHRA FEW011/// BKN015///
                        BKN019/// ///// Q1008=
201911300100 METAR LRBM 300100Z AUTO 01002KT 6000 FEW014/// SCT019///
                        BKN035/// ///// Q1009 RERA=
201911300130 METAR LRBM 300130Z AUTO VRB01KT 5000 -SHRA SCT014/// BKN017///
                        BKN032/// ///// Q1009=
201911300200 METAR LRBM 300200Z AUTO 27006KT 7000 -SHRA SCT010/// BKN013///
                        BKN027/// ///// Q1009=
201911300230 METAR LRBM 300230Z AUTO 26010KT 8000 FEW008/// BKN010///
                        BKN013/// ///// Q1009 RERA=
201911300300 METAR LRBM 300300Z AUTO 27008KT 5000 BR SCT005/// OVC007///
                        ///// Q1009=
201911300330 METAR LRBM 300330Z AUTO 25006KT 5000 BR FEW006/// SCT009///
                        BKN011/// ///// Q1009=
201911300400 METAR LRBM 300400Z AUTO 26009KT 7000 FEW006/// BKN009///
                        BKN011/// ///// Q1009=
201911300430 METAR LRBM 300430Z AUTO 28011KT 9999 FEW010/// BKN043///
                        BKN049/// ///// Q1009=
201911300500 METAR LRBM 300500Z AUTO 28008KT 9999 BKN040/// OVC048///
                        ///// Q1010=
201911300530 METAR LRBM 300530Z AUTO 26006KT 9999 FEW011/// BKN044///
                        BKN050/// ///// Q1010=
201911300600 METAR LRBM 300600Z AUTO 27008KT 9999 FEW013/// OVC049///
                        ///// Q1011=
201911300630 METAR LRBM 300630Z AUTO 28008KT 9999 BKN055/// ///// Q1011=
201911300700 METAR LRBM 300700Z AUTO 27008KT 9999 OVC050/// ///// Q1012=
201911300730 METAR LRBM 300730Z AUTO 28010KT 9999 BKN050/// ///// Q1012=
201911300800 METAR LRBM 300800Z AUTO 28009KT 9999 BKN050/// BKN065///
                        ///// Q1012=
201911300830 METAR LRBM 300830Z AUTO 28008KT 9999 BKN055/// ///// Q1013=
201911300900 METAR LRBM 300900Z AUTO 28008KT 9999 BKN065/// ///// Q1013=
201911300930 METAR LRBM 300930Z AUTO 28010KT 9999 BKN065/// ///// Q1013=
201911301000 METAR LRBM 301000Z AUTO 28010KT 9999 BKN070/// ///// Q1013=
201911301030 METAR LRBM 301030Z AUTO 27012KT 9999 BKN070/// ///// Q1014=
201911301100 METAR LRBM 301100Z AUTO 27011KT 9999 BKN075/// ///// Q1014=
201911301130 METAR LRBM 301130Z AUTO 26009KT 9999 BKN080/// ///// Q1014=
201911301200 METAR LRBM 301200Z AUTO 28011KT 9999 NCD ///// Q1014=
201911301230 METAR LRBM 301230Z AUTO 28012KT 9999 BKN075/// ///// Q1015=
201911301300 METAR LRBM 301300Z 28011KT CAVOK 06/00 Q1015=
201911301330 METAR LRBM 301330Z 28010KT CAVOK 05/00 Q1016=
201911301400 METAR LRBM 301400Z 29010KT CAVOK 05/00 Q1016=
201911301430 METAR LRBM 301430Z 29011KT CAVOK 05/00 Q1017=
201911301500 METAR LRBM 301500Z 29011KT 260V320 CAVOK 05/00 Q1017=
201911301530 METAR LRBM 301530Z 28011KT CAVOK 03/00 Q1018=
201911301600 METAR LRBM 301600Z AUTO 29008KT 9999 NCD ///// Q1018=
201911301630 METAR LRBM 301630Z AUTO 28010KT 9999 FEW044/// SCT050///
                        ///// Q1019=
201911301700 METAR LRBM 301700Z AUTO 28009KT 9999 FEW049/// ///// Q1019=
201911301730 METAR LRBM 301730Z AUTO 28008KT 9999 FEW050/// ///// Q1020=
201911301800 METAR LRBM 301800Z AUTO 28008KT 9999 NCD ///// Q1020=
201911301830 METAR LRBM 301830Z AUTO 28008KT 9999 NCD ///// Q1020=
201911301900 METAR LRBM 301900Z AUTO 27007KT 9999 NCD ///// Q1020=
201911301930 METAR LRBM 301930Z AUTO 29005KT 9999 NCD ///// Q1021=
201911302000 METAR LRBM 302000Z AUTO 27005KT 9999 NCD ///// Q1021=
201911302030 METAR LRBM 302030Z AUTO 25003KT 210V280 9999 NCD ///// Q1021=
201911302100 METAR LRBM 302100Z AUTO 29006KT 9999 NCD ///// Q1021=
201911302130 METAR LRBM 302130Z AUTO VRB02KT 9999 NCD ///// Q1022=
201911302200 METAR LRBM 302200Z AUTO 27006KT 9999 NCD ///// Q1022=
201911302230 METAR LRBM 302230Z AUTO 28005KT 9999 NCD ///// Q1022=
201911302300 METAR LRBM 302300Z AUTO VRB01KT 9999 NCD ///// Q1023=
201911302330 METAR LRBM 302330Z AUTO VRB01KT 9999 NCD ///// Q1023=