201812010500 TAF LRTZ 010500Z 0106/0206 33010KT 9999 SKC
                      BECMG 0114/0116 27006KT BKN200=
201812010600 TAF LRTZ 010600Z 0106/0206 33010KT 9999 SKC
                      BECMG 0114/0116 27006KT BKN200=
201812011100 TAF LRTZ 011100Z 0112/0212 30010KT 9999 SCT200
                      PROB40 TEMPO 0202/0208 SCT010=
201812011700 TAF LRTZ 011700Z 0118/0218 30008KT 9999 SCT200
                      PROB30 TEMPO 0202/0207 4000 BR SCT015
                      BECMG 0211/0213 BKN012=
201812012300 TAF LRTZ 012300Z 0200/0300 27008KT 9999 SCT200
                      PROB30 TEMPO 0202/0207 4000 BR SCT015
                      BECMG 0211/0213 BKN012=
201812020500 TAF LRTZ 020500Z 0206/0306 30010KT 9999 SCT200
                      BECMG 0216/0218 4000 BR
                      PROB30 TEMPO 0302/0306 1500 BR BKN007=
201812021100 TAF LRTZ 021100Z 0212/0312 33010KT 9999 SCT200
                      BECMG 0217/0219 4000 BR
                      PROB30 TEMPO 0303/0307 1500 BR BKN007=
201812021700 TAF LRTZ 021700Z 0218/0318 33006KT 5000BR BKN200
                      TEMPO 0300/0306 0800 FG BKN005
                      BECMG 0304/0306 21010KT 9999 SCT200
                      BECMG 0314/0316 5000BR BKN005=
201812022300 TAF LRTZ 022300Z 0300/0400 28004KT 5000 BR SCT200
                      TEMPO 0300/0306 0800 FG BKN005
                      BECMG 0304/0306 21010KT 9999
                      BECMG 0314/0316 5000BR BKN005=
201812030500 TAF LRTZ 030500Z 0306/0406 VRB03KT 0100 FZFG VV001
                      BECMG 0308/0310 5000 BR SCT010
                      BECMG 0312/0314 21010KT 3000 BR BKN005
                      BECMG 0316/0318 0100 FZFG VV001=
201812031100 TAF LRTZ 031100Z 0312/0412 33006KT 0100 FG VV001
                      TEMPO 0312/0314 5000 BR SCT010 BKN040
                      BECMG 0315/0317 FZFG=
201812031700 TAF LRTZ 031700Z 0318/0418 22004KT 0100 FG VV001
                      BECMG 0323/0401 FZFG
                      BECMG 0407/0409 2000 BR SCT005 BKN015=
201812032300 TAF LRTZ 032300Z 0400/0500 22004KT 0100 FG VV001
                      BECMG 0323/0401 FZFG
                      BECMG 0407/0409 2000 BR SCT005 BKN015
                      BECMG 0416/0418 OVC003=
201812040500 TAF LRTZ 040500Z 0406/0506 30010KT 5000 BR BKN025
                      PROB40 TEMPO 04005/0409 0350 FZFG OVC002
                       TEMPO 0502/0506 0350 FZFG OVC002=
201812041100 TAF LRTZ 041100Z 0412/0512 36006KT 5000 BR SCT010 OVC025
                      TEMPO 0412/0418 2000 BR
                      PROB30 0501/0505 -FZRA BKN010
                      BECMG 0502/0504 34016KT=
201812042300 TAF LRTZ 042300Z 0500/0600 34014KT 5000 BR SCT100
                      TEMPO 0504/0508 BKN015
                      BECMG 0508/0510 9999 NSW
                      BECMG 0512/0514 34012G22KT=
201812050500 TAF LRTZ 050500Z 0506/0606 34016KT 5000 BR OVC020
                      BECMG 0508/0510 9999 BKN020 OVC090
                      BECMG 0512/0514 34018G28KT
                      PROB40 TEMPO 0517/0519 5000 -RASN SN BKN007
                       OVC015=
201812051700 TAF LRTZ 051700Z 0518/0618 36010G20KT 9999 BKN015 OVC020
                      TEMPO 0518/0522 5000 -RASN BR BKN007 OVC015
                       BECMG 0600/0602 SCT020 BKN060
                      BECMG 0608/0610 SCT100=
201812052300 TAF LRTZ 052300Z 0600/0700 36020KT 9999 BKN015 OVC070
                      BECMG 0608/0610 SCT100
                      BECMG 0612/0614 30012KT=
201812060500 TAF LRTZ 060500Z 0606/0706 36020KT 9999 SCT200
                      BECMG 0618/0620 30010KT=
201812061100 TAF LRTZ 061100Z 0612/0712 36018KT 9999 SCT020
                      BECMG 0615/0617 30010KT SKC
                      BECMG 0701/0703 4000 BR
                      PROB40 TEMPO 0705/0709 VRB03KT 0800 FZFG
                       OVC002=
201812061700 TAF LRTZ 061700Z 0618/0718 30010KT 9999 SKC
                      BECMG 0701/0703 4000 BR
                      PROB40 TEMPO 0705/0709 VRB03KT 0800 FZFG
                       OVC002
                      BECMG 0712/0714 24012KT 9999 BKN100=
201812062300 TAF LRTZ 062300Z 0700/0800 30010KT 9999 SKC
                      TEMPO 0702/0708 4000 BR
                      PROB30 TEMPO 0705/0708 VRB03KT 0800 FZFG
                       OVC002
                      BECMG 0712/0714 21012KT BKN100=
201812070500 TAF LRTZ 070500Z 0706/0806 33010KT 9999 SCT200
                      PROB40 TEMPO 0707/0709 5000 BR SCT040
                      BECMG 0712/0714 21012KT BKN100=
201812071100 TAF LRTZ 071100Z 0712/0812 33010KT 9999 BKN100
                      BECMG 0717/0719 21012KT=
201812071700 TAF LRTZ 071700Z 0718/0818 21010KT 8000 SCT100=
201812072300 TAF LRTZ 072300Z 0800/0900 VRB06KT 8000 SCT100
                      BECMG 0806/0808 SCT030 BKN100
                      TEMPO 0806/0814 21016KT=
201812080500 TAF LRTZ 0080500Z 0806/0907 21006KT 9999 SCT200
                      BECMG 0809/0811 SCT030 BKN100
                      TEMPO 0812/0816 21016KT=
201812081100 TAF LRTZ 081100Z 0812/0912 21012KT 9999 SCT100
                      BECMG 0820/0822 SCT020 BKN090=
201812081700 TAF LRTZ 081700Z 0818/0918 21012KT 9999 BKN100
                      BECMG 0820/0822 SCT020 BKN090
                      PROB30 TEMPO 0913/0915 6000 -RA SCT015 BKN050=
201812082300 TAF LRTZ 082300Z 0900/1000 21012KT 9999 SCT020 BKN090
                      PROB30 TEMPO 0913/0915 6000 -RA SCT015 BKN050
                       BECMG 0918/0920 27010KT SCT200=
201812090500 TAF LRTZ 090500Z 0906/1006 23010KT 9999 SCT030 BKN090
                      PROB30 TEMPO 0913/0915 6000 -RA BKN015 BKN070
                       BECMG 0918/0920 29010KT SCT200
                      PROB40 TEMPO 1002/1006 2000 BR BKN005=
201812091100 TAF LRTZ 091100Z 0912/1012 27008KT 9999 SCT040 BKN090
                      PROB40 TEMPO 0914/0920 6000 RA BKN015 BKN070
                       BECMG 0920/0922 29010KT SCT070
                      PROB40 TEMPO 1002/1006 3000 BR BKN007=
201812091700 TAF LRTZ 091700Z 0918/1018 VRB03KT 3000 -RA BR SCT030 OVC040
                      BECMG 1004/1006 29008KT 9999 SCT200
                      PROB40 TEMPO 1002/1006 1500 BR BKN007=
201812092300 TAF LRTZ 092300Z 1000/1100 VRB03KT 1500 BR SCT030 OVC090
                      BECMG 1004/1006 29008KT 9999 BKN100
                      PROB40 TEMPO 1002/1006 0800 FG BKN005=
201812100500 TAF LRTZ 100500Z 1006/1106 32008KT 3000 BR FEW10 BKN090
                      TEMPO 1006/1008 0800 FG OVC005
                      BECMG 1021/1023 32010G20KT 9999 SCT100=
201812101100 TAF LRTZ 101100Z 1012/1112 30008KT 2000 BR OVC002
                      BECMG 1100/1102 32010G20KT 7000 BKN005 OVC020=
201812101700 TAF LRTZ 101700Z 1018/1118 36010KT 0500 FG OVC002
                      TEMPO 1103/1109 33010G20KT 3000 -RA BR BKN005
                       OVC015
                      BECMG 1110/1112 33010KT 7000 BKN015 OVC040=
201812110500 TAF LRTZ 110500Z 1106/1206 33018KT 3000 BR OVC003
                      PROB30 TEMPO 1106/1108 -RA BKN005 OVC015
                       BECMG 1112/1114 30008KT 7000 SCT020 BKN050
                       BECMG 1120/1122 3000 BR SCT010 BKN030
                      TEMPO 1202/1206 0800 FG BKN003=
201812110600 TAF LRTZ 110600Z 1106/1206 33018KT 3000 BR OVC003
                      PROB30 TEMPO 1106/1108 -RA BKN005 OVC015
                       BECMG 1112/1114 30008KT 7000 SCT020 BKN050
                       BECMG 1120/1122 3000 BR SCT010 BKN030
                      TEMPO 1202/1206 0800 FG BKN003=
201812111100 TAF LRTZ 111100Z 1112/1212 33018KT 8000 -RA SCT010 BKN020 OVC040
                       BECMG 1115/1117 30008KT 4000 BR SCT040 BKN070
                       BECMG 1206/1208 9999 SCT017 BKN090=
201812111700 TAF LRTZ 111700Z 1118/1218 30010KT 5000 BR SCT040 BKN090
                      PROB30 TEMPO 1120/1200 3000 -FZRA SCT010
                       BKN020 OVC040
                      BECMG 1204/1206 9999 SCT017 BKN100
                      PROB40 TEMPO 1209/1213 6000 -RA BKN012 OVC050=
201812112300 TAF LRTZ 112300Z 1200/1300 33012KT 7000 BKN090
                      TEMPO 1202/1205 4000 BR SCT007
                      BECMG 1207/1209 9999 SCT017 BKN080
                      PROB40 TEMPO 1211/1215 6000 -RA BKN012 OVC050
                       BECMG 1217/1219 27008KT 4000 BR BKN007=
201812120500 TAF LRTZ 120500Z 1206/1306 33012KT 9999 SCT020 BKN070
                      PROB30 TEMPO 1211/1215 6000 -RA BKN012 OVC050
                       BECMG 1216/1218 27008KT 4000 BR BKN007
                      PROB40 TEMPO 1302/1306 0500 FZFG OVC002=
201812120600 TAF LRTZ 120600Z 1206/1306 33012KT 9999 SCT020 BKN070
                      PROB30 TEMPO 1211/1215 6000 -RA BKN012 OVC050
                       BECMG 1216/1218 27008KT 4000 BR BKN007
                      PROB40 TEMPO 1302/1306 0500 FZFG OVC002=
201812121100 TAF LRTZ 121100Z 1212/1312 3512KT 9999 SCT020 BKN070
                      PROB30 TEMPO 1211/1215 6000 -RA BKN012 OVC050
                       BECMG 1216/1218 27008KT 4000 BR BKN007
                      PROB40 TEMPO 1302/1306 0500 FZFG OVC002=
201812121700 TAF LRTZ 121700Z 1218/1318 31008KT 9999 BKN100
                      TEMPO 1302/1306 5000 BR
                      BECMG 1306/1308 27015KT SCT100=
201812122300 TAF LRTZ 122300Z 1300/1400 33010KT 9999 SCT100
                      TEMPO 1302/1306 5000 BR BKN100
                      BECMG 1306/1308 27015KT SCT100
                      BECMG 1318/1320 33008KT SKC=
201812130500 TAF LRTZ 130500Z 1306/1406 27016KT 9999 SCT020 BKN100
                      BECMG 1310/1312 SCT100
                      BECMG 1318/1320 33008KT SKC=
201812131100 TAF LRTZ 131100Z 1312/1412 30012KT 9999 SC020
                      BECMG 1318/1320 SKC
                      TEMPO 1322/1404 2000 BR
                      PROB30 TEMPO 1403/1406 0800 FZFG VV002=
201812131700 TAF LRTZ 131700Z 1318/1418 30010KT 9999 SKC
                      TEMPO 1322/1404 2000 BR BKN010
                      PROB30 TEMPO 1403/1406 0800 FZFG VV002
                      BECMG 1412/1414 03010KT SCT020 BKN090
                      TEMPO 1416/1418 5000 RA BR BKN015 BKN040=
201812132300 TAF LRTZ 132300Z 1400/1500 30010KT 9999 SKC
                      TEMPO 1400/1404 2000 BR BKN010
                      PROB30 TEMPO 1403/1406 0800 FZFG VV002
                      BECMG 1412/1414 03010KT SCT020 BKN090
                      BECMG 1416/1418 5000 RA BR BKN015 BKN040=
201812140500 TAF LRTZ 140500Z 1406/1506 33010KT 9999 BKN100
                      BECMG 1412/1414 08010KT SCT020 BKN090
                      BECMG 1416/1418 4000 RA BR BKN007 OVC015
                       BECMG 1502/1504 08010G20KT=
201812141100 TAF LRTZ 141100Z 1412/1512 09010KT 9999 SCT020 BKN100
                      BECMG 1418/1420 09010G20KT 4000 RA BR BKN007
                       OVC015=
201812141700 TAF LRTZ 141700Z 1418/1518 09014KT 6000 -RA BKN010 OVC025
                      TEMPO 1500/1504 09010G20KT 4000 RA BR BKN007
                       OVC015=
201812142300 TAF LRTZ 142300Z 1500/1600 09014KT 7000 -RA BKN010 OVC030
                      TEMPO 1500/1504 09010G20KT 4000 RA BR BKN007
                       OVC015
                      BECMG 1518/1520 12006KT 5000 BR BKN030 OVC070=
201812150500 TAF LRTZ 150500Z 1506/1606 09012KT 6000 -RA BKN010 OVC015
                      TEMPO 1506/1510 09010G20KT 4000 -RA BR SCT005
                       OVC010
                      BECMG 1518/1520 15010KT 5000 BR BKN020 OVC040=
201812151100 TAF LRTZ 151100Z 1512/1612 09016KT 4000 DZ BR BKN005 OVC015
                      BECMG 1518/1520 15010KT 2000 BR BKN010 OVC035
                       BECMG 1606/1608 09014KT 5000 BR BKN007 OVC050=
201812151700 TAF LRTZ 151700Z 1518/1618 15010KT 2000 DZ BR BKN003 OVC010
                      BECMG 1606/1608 09014KT 5000 RA BR BKN007
                       OVC020=
201812152300 TAF LRTZ 152300Z 1600/1700 15014KT 3000 DZ BR BKN003 OVC010
                      BECMG 1606/1608 09014KT 5000 RA BR BKN007
                       OVC020=
201812160500 TAF LRTZ 160500Z 1606/1706 12018KT 5000 BR BKN007 OVC020
                      TEMPO 1606/1612 3000 RA BR BKN005 OVC015
                       BECMG 1616/1618 06014KT 2000 RA BR BKN003
                       OVC010=
201812161100 TAF LRTZ 161100Z 1612/1712 09012KT 5000 BR BKN004 BKN006 OVC012
                       TEMPO 1613/1618 3000 -RA BR
                      TEMPO 1703/1706 1500 BR OVC002=
201812161700 TAF LRTZ 161700Z 1618/1718 06012KT 4000 BR BKN006 BKN012 OVC020
                       TEMPO 1619/1622 -DZ BKN005 OVC012
                      BECMG 1702/1704 1500 -RA BR BKN003 OVC010=
201812162300 TAF LRTZ 162300Z 1700/1800 06012KT 3000 RA BR BKN004 BKN010 OVC020=
201812170500 TAF LRTZ 170500Z 1706/1806 06018KT 1500 DZ BR BKN002 OVC010
                      TEMPO 1710/1716 3000 RA BR BKN010 OVC020=
201812170600 TAF LRTZ 170600Z 1706/1806 06018KT 1500 DZ BR BKN002 OVC010
                      TEMPO 1710/1716 3000 RA BR BKN010 OVC020=
201812171100 TAF LRTZ 171100Z 1712/1812 06018KT 1500 DZ BR BKN002 OVC010=
201812171700 TAF LRTZ 171700Z 1718/1818 06018KT 1500 DZ BR BKN002 OVC010=
201812180500 TAF LRTZ 180500Z 1806/1906 03018KT 1500 DZ BR BKN002 OVC010
                      TEMPO 1807/1812 BLSN
                      BECMG 1814/1816 35020G30KT 5000 BR BKN005
                       OVC015=
201812181100 TAF LRTZ 181100Z 1812/1912 03018KT 3000 -SN BR BKN003 OVC010
                      BECMG 1818/1820 35020G30KT 5000 BR BKN007
                       OVC015
                      BECMG 1908/1910 2000 BLSN BR BKN003 OVC010=
201812181700 TAF LRTZ 181700Z 1818/1918 36015G25KT 7000 BKN005 OVC015
                      TEMPO 1818/1822 03018KT 3000 -FZDZ BR BKN002
                       OVC005=
201812182300 TAF LRTZ 182300Z 1900/2000 36015G25KT 3000 BKN005 OVC015
                      TEMPO 1916/1920 1500 -FZDZ BR BKN003 OVC010=
201812190500 TAF LRTZ 190500Z 1906/2006 36015G25KT 5000 BR BKN005 OVC015
                      TEMPO 1916/1920 3000 -FZDZ BR BKN003 OVC010
                       BECMG 2000/2002 33014KT 7000 SCT010 OVC020=
201812191100 TAF LRTZ 191100Z 1912/2012 36015G25KT 7000 OVC015
                      TEMPO 1916/1920 4000 -FZDZ BR BKN007 OVC015
                       BECMG 2005/2007 33014KT 7000 BKN020=
201812191700 TAF LRTZ 191700Z 1918/2018 36016KT 8000 OVC010
                      BECMG 2005/2007 33012KT 7000 BKN020=
201812192300 TAF LRTZ 192300Z 2000/2100 36016KT 8000 OVC010
                      TEMPO 2002/2006 2000 BR OVC005
                      BECMG 2006/2008 33012KT 6000 BKN015=
201812200500 TAF LRTZ 200500Z 2006/2106 34010KT 3000 BR BKN003 OVC010
                      BECMG 2008/2010 6000 BKN010 BKN025
                      BECMG 2014/2016 VRB03KT SCT020 BKN200=
201812200600 TAF LRTZ 200600Z 2006/2106 34010KT 3000 BR BKN003 OVC010
                      BECMG 2008/2010 6000 BKN010 BKN025
                      BECMG 2014/2016 VRB03KT SCT020 BKN200=
201812201100 TAF LRTZ 201100Z 2012/2112 33010KT 6000 SCT008 BKN015 OVC020
                      BECMG 2016/2018 21004KT 3000 BR BKN005 OVC010
                       BECMG 2106/2108 30010KT 9999 SCT020 BKN200=
201812201700 TAF LRTZ 201700Z 2018/2118 30004KT 3000 BR BKN004 OVC015
                      BECMG 2020/2022 21004KT
                      TEMPO 2102/2106 0500 FZFG VV002
                      BECMG 2106/2108 27010KT 9999 SCT020 BKN200=
201812202300 TAF LRTZ 202300Z 2100/2200 24004KT 3000 BR BKN005 OVC015
                      PROB30 TEMPO 2102/2106 0500 FZFG VV002
                      BECMG 2106/2108 27010KT 9999 SCT020 BKN200=
201812210500 TAF LRTZ 210500Z 2106/2206 32010KT 3000 BR SCT005 BKN015
                      BECMG 2106/2108 9999 SCT020 BKN090
                      BECMG 2112/2114 26008KT BKN100=
201812211100 TAF LRTZ 211100Z 2112/2212 27010KT 5000 BR BKN004 OVC010
                      BECMG 2119/2121 9999 BKN10=
201812211700 TAF LRTZ 211700Z 2118/2218 30010KT 4000 BR OVC003
                      PROB30 TEMPO 2121/2101 0800 FZFG VV001
                      BECMG 2201/2203 24012KT 9999 BKN100=
201812212300 TAF LRTZ 212300Z 2200/2300 27010KT 3000 BR OVC002
                      PROB30 TEMPO 2202/2205 VRB02KT 0800 FZFG
                       VV001
                      BECMG 2206/2208 21012KT 9999 BKN100=
201812220500 TAF LRTZ 220500Z 2206/2306 21012KT 9999 BKN100
                      PROB40 TEMPO 2217/2223 30018KT 7000 -RA BKN030
                       OVC070=
201812221100 TAF LRTZ 221100Z 2212/2312 28014KT 9999 BKN150
                      BECMG 2217/2219 27006KT 5000 BR
                      PROB40 TEMPO 2220/2300 30018KT -RA BKN020
                       OVC070
                      BECMG 2302/2304 30018KT 9999=
201812221700 TAF LRTZ 221700Z 2218/2318 28014KT 9999 BKN150
                      BECMG 2220/2222 24016G26KT SCT090
                      PROB30 TEMPO 2300/2302 6000 -RA BKN020 OVC070
                       BECMG 23012/2315 30016KT=
201812222300 TAF LRTZ 222300Z 2300/2400 27014G24KT 9999 BKN100
                      BECMG 2220/2222 24016G26KT SCT090
                      PROB30 TEMPO 2300/2302 6000 -RA BKN020 OVC070
                       BECMG 23012/2315 30016KT=
201812230500 TAF LRTZ 230500Z 2306/2406 30020KT 9999 SCT200
                      BECMG 2309/2311 30010KT SCT040 BKN100
                      PROB30 2400/2404 6000 -RA BKN020=
201812231100 TAF LRTZ 231100Z 2312/2412 33014KT 9999 BKN100
                      BECMG 2314/2316 27010KT SCT100
                      PROB30 TEMPO 2402/2406 3000 BR
                      BECMG 2406/2408 21010KT SCT035 BKN070=
201812231700 TAF LRTZ 231700Z 2318/2418 27006KT 9999 BKN070
                      BECMG 2318/2320 27010KT SCT100
                      PROB30 TEMPO 2402/2406 5000 BR
                      BECMG 2406/2408 21008KT SCT020 BKN040
                      BECMG 2412/2414 21018KT 5000 RA BR BKN007
                       OVC015=
201812232300 TAF LRTZ 232300Z 2400/2500 27006KT 9999 SCT100
                      PROB30 TEMPO 2402/2406 5000 BR
                      BECMG 2406/2408 21008KT SCT020 BKN040
                      BECMG 2412/2414 21018KT 5000 RA BR BKN007
                       OVC015=
201812240500 TAF LRTZ 240500Z 2406/2506 21006KT 9999 SCT020 BKN200
                      BECMG 2407/2409 SCT010 BKN070
                      BECMG 2412/2414 21016KT 5000 RA BR BKN007
                       OVC015
                      BECMG 2418/2420 30010G20KT 9999 SCT015 BKN090=
201812241100 TAF LRTZ 241100Z 2412/2512 23010KT 9999 BKN090
                      TEMPO 2412/2416 21016KT 5000 RA BR BKN015
                       OVC040
                      BECMG 2418/2420 30015G25KT 9999 SCT015 BKN090=
201812241700 TAF LRTZ 241700Z 2418/2518 23012KT 9999 OVC050
                      BECMG 2420/2422 30015G25KT BKN090
                      BECMG 2506/2508 32010G20KT SCT200=
201812242300 TAF LRTZ 242300Z 2500/2600 32012G24KT 9999 BKN090
                      BECMG 2506/2508 32010G20KT FEW200
                      BECMG 2512/2514 32012KT=
201812250500 TAF LRTZ 250500Z 2506/2606 32020G30KT 9999 SCT090
                      BECMG 2603/2605 FEW030 34012KT=
201812251100 TAF LRTZ 251100Z 2512/2612 34012KT 9999 SCT090
                      TEMPO 2512/2514 SCT035=
201812251700 TAF LRTZ 251700Z 2518/2618 34010KT 9999 SCT090=
201812252300 TAF LRTZ 252300Z 2600/2700 30010KT 9999 BKN090=
201812260500 TAF LRTZ 260500Z 2606/2706 30010KT 9999 BKN090
                      PROB30 TEMPO 2701/2705 5000 BR=
201812261100 TAF LRTZ 261100Z 2612/2712 30020KT 9999 SCT090
                      BECMG 2616/2618 32010KT BKN100
                      BECMG 2709/2711 26014KT SCT040 BKN100=
201812261700 TAF LRTZ 261700Z 2618/2718 30010KT 9999 BKN100
                      BECMG 2709/2711 26014KT SCT040=
201812262300 TAF LRTZ 262300Z 2700/2800 30010KT 9999 BKN100
                      BECMG 2709/2711 26014KT SCT040=
201812270500 TAF LRTZ 270500Z 2700/2800 30012KT 9999 OVC060
                      BECMG 2708/2710 BKN040 OVC100
                      BECMG 2718/2720 26008KT 4000 BR OVC010=
201812271700 TAF LRTZ 271700Z 2718/2818 27010KT 9999 BKN060
                      PROB30 TEMPO 2802/2806 3000 BR BKN010
                      TEMPO 2808/2812 SCT020=
201812280500 TAF LRTZ 280500Z 2806/2906 30012KT 9999 FEW100
                      BECMG 2810/2812 SCT030 BKN080
                      BECMG 2818/2820 4000 RA BR BKN015 OVC035
                       PROB30
                      TEMPO 2904/2906 1000 BR BKN010=
201812281100 TAF LRTZ 281100Z 2812/2912 31012KT 9999 BKN050 OVC090
                      BECMG 2820/2822 6000 -RA BKN015 OVC035
                      BECMG 2904/2906 32010G20KT 9999 BKN090=
201812281700 TAF LRTZ 281700Z 2818/2918 31012KT 9999 BKN030 OVC090
                      TEMPO 2819/2823 6000 -RA BKN015 OVC035
                      BECMG 2904/2906 32010G20KT 9999 BKN090=
201812282300 TAF LRTZ 282300Z 2900/3000 27008KT 9999 BKN030 OVC090
                      BECMG 2907/2909 32010G20KT 9999 BKN090=
201812290600 TAF LRTZ 290600Z 2906/3006 33008KT 4000 -RA BR BKN030 OVC060
                      BECMG 2907/2909 34010G20KT 9999 BKN090
                      BECMG 2916/2918 28010KT 5000 BR=
201812291700 TAF LRTZ 291700Z 2918/3018 33010KT 9999 SCT040 BKN100
                      PROB30 TEMPO 3002/3006 5000 BR BKN005
                      BECMG 3006/3008 BKN040=
201812292300 TAF LRTZ 292300Z 3000/3100 33010KT 9999 SCT040 BKN100
                      PROB30 TEMPO 3002/3006 5000 BR BKN005
                      BECMG 3006/3008 BKN040
                      BECMG 3016/3018 27004KT 5000 BR BKN010=
201812300500 TAF LRTZ 300500Z 3006/3106 33010KT 9999 SCT040 BKN100
                      BECMG 3016/3018 VRB03KT
                      PROB30 TEMPO 3102/3106 5000 BR BKN010=
201812301100 TAF LRTZ 301100Z 3012/3112 33010KT 9999 SCT020 OVC090
                      BECMG 3016/3018 VRB03KT
                      TEMPO 3102/3106 5000 -RA BR BKN010 OVC025=
201812302300 TAF LRTZ 302300Z 3100/0100 VRB03KT 8000 SCT020 OVC090
                      TEMPO 3102/3104 5000 -RA BR BKN010 OVC025
                       PROB40
                      TEMPO 3104/3106 0800 FG OVC003
                      BECMG 3106/3108 30008KT 3000 BR BKN005 OVC010=
201812310500 TAF LRTZ 310500Z 3106/0106 30006KT 9999 SCT015 OVC050
                      TEMPO 3106/3112 3000 -DZ BR BKN010 OVC020=
201812311100 TAF LRTZ 311100Z 3112/0112 33006KT 9999 BKN090
                      BECMG 3118/3120 SCT100
                      TEMPO 0103/0106 3000 BR=
201812311700 TAF LRTZ 311700Z 3118/0118 VRB03KT 5000 BR BKN010
                      TEMPO 0100/0106 3000 BR BKN020=
201812312300 TAF LRTZ 312300Z 0100/0200 VRB03KT 3000 BR BKN100
                      TEMPO 0100/0106 BKN010
                      BECMG 0109/0111 03006KT 9999 SCT100=