201812010400 METAR LRTZ 010400Z 30010KT 9999 SCT200 M11/M13 Q1023 BLU
                        BLU=
201812010500 METAR LRTZ 010500Z 33010KT 9999 SKC M11/M13 Q1023 BLU BLU=
201812010600 METAR LRTZ 010600Z 33010KT 8000 FEW200 M11/M13 Q1023 BLU
                        BLU=
201812010700 METAR LRTZ 010700Z 31008KT 9999 FEW200 M09/M12 Q1024 BLU
                        BLU=
201812010800 METAR LRTZ 010800Z 29006KT 9999 FEW200 M07/M10 Q1024 BLU
                        BLU=
201812010900 METAR LRTZ 010900Z 31008KT 9999 FEW200 M06/M10 Q1024 BLU
                        BLU=
201812011000 METAR LRTZ 011000Z 32008KT 9999 SKC M05/M10 Q1024 BLU BLU=
201812011100 METAR LRTZ 011100Z 31010KT 9999 SKC M04/M10 Q1024 BLU BLU=
201812011200 METAR LRTZ 011200Z 29008KT 9999 SKC M03/M08 Q1023 BLU BLU=
201812011300 METAR LRTZ 011300Z 32006KT 9999 FEW200 M03/M07 Q1023 BLU
                        BLU=
201812011400 METAR LRTZ 011400Z 28006KT 9999 SCT200 M03/M07 Q1023 BLU
                        BLU=
201812011500 METAR LRTZ 011500Z 33004KT 9999 SCT200 M05/M08 Q1023 BLU
                        BLU=
201812011600 METAR LRTZ 011600Z 31003KT 9999 SCT200 M06/M09 Q1024 BLU
                        BLU=
201812011700 METAR LRTZ 011700Z 30004KT 9999 SCT200 M05/M08 Q1024 BLU
                        BLU=
201812011800 METAR LRTZ 011800Z VRB02KT 9999 SCT200 M05/M08 Q1024 BLU
                        BLU=
201812011900 METAR LRTZ 011900Z 32002KT 9999 SCT200 M05/M09 Q1024 BLU
                        BLU=
201812012000 METAR LRTZ 012000Z 30003KT 9999 SCT200 M05/M10 Q1024 BLU
                        BLU=
201812012100 METAR LRTZ 012100Z 31004KT 9999 SCT200 M05/M09 Q1024 BLU
                        BLU=
201812012200 METAR LRTZ 012200Z 32004KT 9999 SCT200 M05/M10 Q1024 BLU
                        BLU=
201812012300 METAR LRTZ 012300Z 29002KT 9999 SCT200 M05/M09 Q1024 BLU
                        BLU=
201812020200 METAR LRTZ 020200Z 29006KT 9999 SCT200 M06/M10 Q1024 BLU
                        BLU=
201812020300 METAR LRTZ 020300Z 27006KT 9999 SCT200 M06/M10 Q1024 BLU
                        BLU=
201812020400 METAR LRTZ 020400Z 33008KT 7000 BKN200 M07/M09 Q1023 WHT
                        WHT=
201812020500 METAR LRTZ 020500Z 33010KT 7000 BKN200 M07/M09 Q1023 WHT
                        WHT=
201812020600 METAR LRTZ 020600Z 33008KT 8000 FEWF100 BKN200 M07/M09 Q1024
                        BLU BLU=
201812020700 METAR LRTZ 020700Z 33010KT 8000 FEW100 BKN200 M06/M08 Q1024
                        BLU BLU=
201812020800 METAR LRTZ 020800Z 33012KT 8000 FEW100 BKN200 M05/M07 Q1024
                        BLU BLU=
201812020900 METAR LRTZ 020900Z 33012KT 8000 BKN200 M04/M06 Q1024 BLU
                        BLU=
201812021000 METAR LRTZ 021000Z 33012KT 8000 BKN200 M03/M06 Q1024 BLU
                        BLU=
201812021100 METAR LRTZ 021100Z 33010KT 9999 SCT200 M02/M06 Q1024 BLU
                        BLU=
201812021200 METAR LRTZ 021200Z 33010KT 9999 SCT200 M02/M06 Q1023 BLU
                        BLU=
201812021300 METAR LRTZ 021300Z 33008KT 9999 SCT200 M02/M05 Q1023 BLU
                        BLU=
201812021400 METAR LRTZ 021400Z 30004KT 9999 BKN200 M02/M05 Q1023 BLU
                        BLU=
201812021500 METAR LRTZ 021500Z 33004KT 8000 BKN200 M03/M06 Q1023 BLU
                        BLU=
201812021600 METAR LRTZ 021600Z 33004KT 8000 BKN200 M03/M06 Q1023 BLU
                        BLU=
201812021700 METAR LRTZ 021700Z 33006KT 8000 BKN200 M04/M06 Q1023 BLU
                        BLU=
201812021800 METAR LRTZ 021800Z 33008KT 8000 SCT200 M04/M06 Q1023 BLU
                        BLU=
201812021900 METAR LRTZ 021900Z 35006KT 8000 SCT200 M05/M07 Q1023 BLU
                        BLU=
201812022000 METAR LRTZ 022000Z 35004KT 8000 SCT200 M05/M07 Q1023 BLU
                        BLU=
201812022100 METAR LRTZ 022100Z 33004KT 8000 SCT200 M05/M07 Q1023 BLU
                        BLU=
201812022200 METAR LRTZ 022200Z 31004KT 8000 SCT200 M05/M07 Q1023 BLU
                        BLU=
201812022300 METAR LRTZ 022300Z 31004KT 8000 SCT200 M05/M07 Q1023 BLU
                        BLU=
201812030400 METAR LRTZ 030400Z VRB02KT 0200 FG BKN003 M05/M05 Q1020 RED
                        RED=
201812030500 METAR LRTZ 030500Z VRB03KT 0100 FZFG VV001 M04/M04 Q1020
                        RED RED=
201812030600 METAR LRTZ 030600Z VRB04KT 0060 FZFG VV001 M03/M03 Q1020
                        RED RED=
201812030700 METAR LRTZ 030700Z VRB03KT 0100 FZFG VV001 M02/M02 Q1020
                        RED RED=
201812030800 METAR LRTZ 030800Z VRB03KT 0100 FZFG VV001 M02/M02 Q1020
                        RED RED=
201812030900 METAR LRTZ 030900Z VRB03KT 0100 FZFG BKN001 M01/M01 Q1020
                        RED RED=
201812031000 METAR LRTZ 031000Z VRB03KT 0100 FZFG BKN001 M01/M01 Q1020
                        RED RED=
201812031100 METAR LRTZ 031100Z 33004KT 0200 FG BKN002 01/00 Q1019 RED
                        RED=
201812031200 METAR LRTZ 031200Z 33004KT 0200 FG BKN002 01/00 Q1018 RED
                        RED=
201812031300 METAR LRTZ 031300Z 33004KT 1500 BR SCT005 BKN012 OVC030 02/01
                        Q1018 AMB YLO=
201812031400 METAR LRTZ 031400Z 33004KT 2000 BR SCT005 BKN012 OVC030 02/01
                        Q1018 YLO YLO=
201812031500 METAR LRTZ 031500Z 33004KT 2000 BR SCT005 BKN012 OVC030 02/01
                        Q1018 YLO YLO=
201812031600 METAR LRTZ 031600Z 33004KT 0800 FG OVC002 01/01 Q1018 AMB
                        RED=
201812031700 METAR LRTZ 031700Z 22004KT 0100 FG VV001 01/01 Q1017 RED
                        RED=
201812031800 METAR LRTZ 031800Z 22004KT 0100 FG VV001 01/01 Q1017 RED
                        RED=
201812031900 METAR LRTZ 031900Z 22004KT 0100 FG VV001 02/02 Q1017 RED
                        RED=
201812032000 METAR LRTZ 032000Z 22004KT 0100 FG VV001 02/02 Q1017 RED
                        RED=
201812032100 METAR LRTZ 032100Z 22004KT 0100 FG VV001 02/02 Q1017 RED
                        RED=
201812032200 METAR LRTZ 032200Z 22004KT 0100 FG VV001 02/02 Q1017 RED
                        RED=
201812032300 METAR LRTZ 032300Z 22004KT 0100 FG VV001 02/02 Q1017 RED
                        RED=
201812040400 METAR LRTZ 040400Z VRB03KT 0800 FZFG OVC002 M02/M02 Q1016
                        AMB YLO=
201812040500 METAR LRTZ 040500Z 28006KT 2000 BR OVC015 M02/M02 Q1015 YLO
                        YLO=
201812040600 METAR LRTZ 040600Z 33006KT 3000 BR SCT010 BKN015 M01/M02
                        Q1015 YLO GRN=
201812040700 METAR LRTZ 040700Z 36006KT 4000 BR OVC015 01/00 Q1015 GRN
                        GRN=
201812040800 METAR LRTZ 040800Z 36008KT 4000 BR OVC025 01/01 Q1015 GRN
                        GRN=
201812040900 METAR LRTZ 040900Z 36008KT 5000 BR SCT015 OVC025 03/02 Q1015
                        WHT WHT=
201812041000 METAR LRTZ 041000Z 36008KT 5000 BR SCT015 OVC025 03/03 Q1015
                        WHT WHT=
201812041100 METAR LRTZ 041100Z 36008KT 2000 BR SCT015 OVC025 03/02 Q1014
                        YLO YLO=
201812041200 METAR LRTZ 041200Z 36006KT 2000 BR SCT015 OVC025 03/02 Q1014
                        YLO YLO=
201812041400 METAR LRTZ 041400Z 36006KT 3000 BR SCT015 OVC025 03/02 Q1014
                        YLO YLO=
201812041500 METAR LRTZ 041500Z 36006KT 2000 BR SCT015 OVC025 02/01 Q1014
                        YLO YLO=
201812041600 METAR LRTZ 041600Z 36006KT 2000 BR SCT015 BKN025 01/01 Q1014
                        YLO YLO=
201812041700 METAR LRTZ 041700Z 36006KT 4000 BR SCT200 01/01 Q1014 GRN
                        GRN=
201812041800 METAR LRTZ 041800Z 36004KT 4000 BR SCT100 01/01 Q1015 GRN
                        GRN=
201812041900 METAR LRTZ 041900Z 36004KT 4000 BR SCT100 02/01 Q1015 GRN
                        GRN=
201812042000 METAR LRTZ 042000Z 36006KT 4000 BR BKN100 01/00 Q1015 GRN
                        WHT=
201812042100 METAR LRTZ 042100Z 36008KT 5000 BR BKN100 01/00 Q1015 WHT
                        WHT=
201812042300 METAR LRTZ 042300Z 34008KT 5000 BR SCT100 01/00 Q1015 WHT
                        WHT=
201812050400 METAR LRTZ 050400Z 34014KT 5000 BR BKN020 00/M01 Q1016 WHT
                        WHT=
201812050500 METAR LRTZ 050500Z 34014KT 5000 BR OVC020 00/M01 Q1016 WHT
                        WHT=
201812050600 METAR LRTZ 050600Z 34014KT 3000 BR OVC020 00/M01 Q1017 YLO
                        YLO=
201812050700 METAR LRTZ 050700Z 33016KT 3000 BR OVC020 00/M01 Q1018 YLO
                        YLO=
201812050800 METAR LRTZ 050800Z 33016KT 4000 BR OVC020 01/M01 Q1018 GRN
                        GRN=
201812051100 METAR LRTZ 051100Z 33016KT 6000 BKN023 BKN050 03/00 Q1018
                        WHT WHT=
201812051300 METAR LRTZ 051300Z 36014KT 3000 BR FEW008 BKN012 OVC020 02/01
                        Q1018 YLO YLO=
201812051400 METAR LRTZ 051400Z 36012KT 2000 BR FEW009 OVC015 02/01 Q1019
                        YLO YLO=
201812051500 METAR LRTZ 051500Z 36010KT 3000 BR SCT010 OVC020 02/01 Q1019
                        YLO YLO=
201812051600 METAR LRTZ 051600Z 36012KT 9999 BKN015 OVC020 02/01 Q1020
                        WHT WHT=
201812051700 METAR LRTZ 051700Z 01016KT 9999 BKN015 OVC020 03/01 Q1020
                        WHT WHT=
201812051900 METAR LRTZ 051900Z 36016KT 9999 BKN014 OVC020 02/01 Q1021
                        GRN GRN=
201812052000 METAR LRTZ 052000Z 36018KT 9999 -RA BKN015 OVC020 02/01 Q1022
                        WHT WHT=
201812052100 METAR LRTZ 052100Z 36018KT 9999 -RASN BKN015 OVC030 01/00
                        Q1022 WHT WHT=
201812052300 METAR LRTZ 052300Z 36020KT 9999 BKN020 OVC040 01/00 Q1023
                        WHT WHT=
201812060200 METAR LRTZ 060200Z 35018KT 9999 BKN015 OVC070 00/M00 Q1025
                        WHT WHT=
201812060300 METAR LRTZ 060300Z 34016KT 9999 BKN020 OVC070 M00/M01 Q1026
                        WHT BLU=
201812060400 METAR LRTZ 060400Z 36022KT 9999 FEW025 SCT090 SCT200 01/M03
                        Q1024 BLU BLU=
201812060500 METAR LRTZ 060500Z 01020KT 9999 FEW090 SCT200 00/M03 Q1024
                        BLU BLU=
201812060600 METAR LRTZ 060600Z 01018KT 9999 SCT200 00/M03 Q1024 BLU BLU=
201812060700 METAR LRTZ 060700Z 36014KT 9999 SCT200 00/M02 Q1025 BLU BLU=
201812060900 METAR LRTZ 060900Z 01016KT 9999 FEW100 SCT200 03/M02 Q1024
                        BLU BLU=
201812061000 METAR LRTZ 061000Z 01018KT 9999 FEW020 SCT100 04/M02 Q1024
                        BLU BLU=
201812061100 METAR LRTZ 061100Z 02018KT 9999 FEW020 04/M02 Q1024 BLU BLU=
201812061200 METAR LRTZ 061200Z 02018KT 9999 SCT020 SCT045 04/M03 Q1023
                        BLU BLU=
201812061300 METAR LRTZ 061300Z 02016KT 9999 FEW020 BKN045 03/M05 Q1024
                        BLU BLU=
201812061400 METAR LRTZ 061400Z 36014KT 9999 FEW020 BKN045 03/M03 Q1024
                        BLU BLU=
201812061500 METAR LRTZ 061500Z 36010KT 9999 FEW020 BKN045 01/M03 Q1024
                        BLU BLU=
201812061600 METAR LRTZ 061600Z 01008KT 9999 SCT050 01/M03 Q1024 BLU BLU=
201812061700 METAR LRTZ 061700Z 36008KT 9999 FEW090 00/M04 Q1025 BLU BLU=
201812061800 METAR LRTZ 061800Z 35008KT 9999 FEW050 M01/M04 Q1025 BLU
                        BLU=
201812061900 METAR LRTZ 061900Z 35008KT 9999 FEW050 M01/M04 Q1025 BLU
                        BLU=
201812062000 METAR LRTZ 062000Z 32006KT 9999 SKC M03/M05 Q1025 BLU BLU=
201812062100 METAR LRTZ 062100Z 34006KT 9999 SKC M03/M05 Q1025 BLU BLU=
201812062200 METAR LRTZ 062200Z 33006KT 9999 SKC M03/M05 Q1025 BLU BLU=
201812062300 METAR LRTZ 062300Z 32006KT 9999 SKC M03/M05 Q1025 BLU BLU=
201812070500 METAR LRTZ 070500Z 33008KT 9999 FEW200 M05/M06 Q1024 BLU
                        BLU=
201812070600 METAR LRTZ 070600Z 32004KT 9999 FEW100 SCT200 M05/M07 Q1024
                        BLU BLU=
201812070700 METAR LRTZ 070700Z 32006KT 9999 FEW100 SCT200 M02/M05 Q1024
                        BLU BLU=
201812070800 METAR LRTZ 070800Z 33006KT 9999 FEW100 M00/M03 Q1024 BLU
                        BLU=
201812070900 METAR LRTZ 070900Z 36008KT 9999 FEW100 01/M03 Q1024 BLU BLU=
201812071000 METAR LRTZ 071000Z 33008KT 9999 SCT100 02/M03 Q1023 BLU BLU=
201812071100 METAR LRTZ 071100Z 33010KT 9999 BKN100 03/M02 Q1022 BLU BLU=
201812071200 METAR LRTZ 071200Z 32010KT 9999 SCT100 BKN200 03/M01 Q1022
                        BLU BLU=
201812071300 METAR LRTZ 071300Z 33008KT 9999 SCT100 BKN200 03/M01 Q1021
                        BLU BLU=
201812071400 METAR LRTZ 071400Z 30006KT 9999 SCT100 BKN200 02/M01 Q1021
                        BLU BLU=
201812071500 METAR LRTZ 071500Z VRB02KT 9999 BKN200 01/M01 Q1021 BLU BLU=
201812071600 METAR LRTZ 071600Z VRB02KT 9999 BKN160 M00/M02 Q1021 BLU
                        BLU=
201812071700 METAR LRTZ 071700Z VRB02KT 8000 SCT100 M00/M01 Q1020 BLU
                        BLU=
201812071800 METAR LRTZ 071800Z VRB02KT 8000 BKN100 M01/M01 Q1020 BLU
                        BLU=
201812071900 METAR LRTZ 071900Z VRB02KT 8000 BKN100 M00/M01 Q1020 BLU
                        BLU=
201812072000 METAR LRTZ 072000Z VRB02KT 8000 BKN100 00/M01 Q1019 BLU BLU=
201812072100 METAR LRTZ 072100Z VRB02KT 8000 BKN100 00/M01 Q1019 BLU BLU=
201812072300 METAR LRTZ 072300Z VRB02KT 8000 BKN100 00/M01 Q1018 BLU BLU=
201812080400 METAR LRTZ 080400Z 23004KT 9999 SKC M01/M02 Q1014 BLU BLU=
201812080500 METAR LRTZ 080500Z 21004KT 9999 FEW200 M01/M03 Q1014 BLU
                        BLU=
201812080600 METAR LRTZ 080600Z 21004KT 9999 SCT100 M01/M03 Q1014 BLU
                        BLU=
201812080700 METAR LRTZ 080700Z 21004KT 9999 BKN100 01/M02 Q1014 BLU BLU=
201812080800 METAR LRTZ 080800Z 21004KT 9999 SCT100 03/00 Q1014 BLU BLU=
201812080900 METAR LRTZ 080900Z 21008KT 9999 SCT100 05/02 Q1014 BLU BLU=
201812081000 METAR LRTZ 081000Z 21008KT 9999 SCT100 06/03 Q1013 BLU BLU=
201812081100 METAR LRTZ 081100Z 21010KT 9999 SCT100 08/03 Q1013 BLU BLU=
201812081200 METAR LRTZ 081200Z 21010KT 9999 SCT100 08/03 Q1012 BLU BLU=
201812081300 METAR LRTZ 081300Z 21010KT 9999 SCT100 08/03 Q1012 BLU BLU=
201812081400 METAR LRTZ 081400Z 21010KT 9999 SCT100 07/03 Q1012 BLU BLU=
201812081600 METAR LRTZ 081600Z 21008KT 9999 SCT100 04/02 Q1011 BLU BLU=
201812081700 METAR LRTZ 081700Z 21008KT 9999 BKN100 03/01 Q1011 BLU BLU=
201812081800 METAR LRTZ 081800Z 21008KT 9999 BKN100 03/01 Q1011 BLU BLU=
201812081900 METAR LRTZ 081900Z 21008KT 9999 BKN100 03/01 Q1011 BLU BLU=
201812082000 METAR LRTZ 082000Z 21008KT 9999 BKN100 03/01 Q1011 BLU BLU=
201812082100 METAR LRTZ 082100Z 21008KT 9999 BKN100 03/01 Q1011 BLU BLU=
201812082200 METAR LRTZ 082200Z 21008KT 9999 SCT050 BKN100 03/01 Q1011
                        BLU BLU=
201812082300 METAR LRTZ 082300Z 21008KT 9999 SCT030 BKN090 03/01 Q1011
                        BLU BLU=
201812090600 METAR LRTZ 090600Z VRB03KT 9999 SCT030 BKN090 01/00 Q1010
                        BLU BLU=
201812090700 METAR LRTZ 090700Z VRB03KT 9999 BKN040 BKN070 04/01 Q1011
                        BLU BLU=
201812090800 METAR LRTZ 090800Z 32010KT 9999 BKN040 BKN090 05/02 Q1010
                        BLU BLU=
201812090900 METAR LRTZ 090900Z 32010KT 9999 SCT040 BKN090 06/03 Q1010
                        BLU BLU=
201812091000 METAR LRTZ 091000Z 32010G20KT 9999 SCT050 BKN090 07/04 Q1010
                        BLU BLU=
201812091100 METAR LRTZ 091100Z 32014KT 9999 SCT050 BKN090 08/04 Q1009
                        BLU BLU=
201812091200 METAR LRTZ 091200Z 29008KT 9999 SCT040 BKN070 07/04 Q1009
                        BLU BLU=
201812091300 METAR LRTZ 091300Z 29006KT 8000 -RA BKN040 OVC090 07/04 Q1008
                        BLU WHT=
201812091400 METAR LRTZ 091400Z 29006KT 9999 OVC060 07/05 Q1009 BLU WHT=
201812091500 METAR LRTZ 091500Z VRB03KT 7000 -RA SCT040 BKN060 OVC090
                        06/05 Q1009 WHT WHT=
201812091600 METAR LRTZ 091600Z VRB03KT 4000 -RA BR OVC040 06/05 Q1008
                        GRN GRN=
201812091700 METAR LRTZ 091700Z VRB03KT 4000 -RA BR OVC040 06/05 Q1008
                        GRN GRN=
201812091800 METAR LRTZ 091800Z VRB03KT 2000 -RA BR FEW030 BKN040 OVC070
                        05/05 Q1008 YLO YLO=
201812091900 METAR LRTZ 091900Z VRB03KT 0800 FG OVC040 05/05 Q1007 AMB
                        AMB=
201812092000 METAR LRTZ 092000Z VRB03KT 1500 BR OVC050 05/05 Q1007 AMB
                        AMB=
201812092100 METAR LRTZ 092100Z VRB03KT 1500 BR BKN020 OVC070 05/05 Q1007
                        AMB AMB=
201812092300 METAR LRTZ 092300Z VRB03KT 2000 BR BKN020 OVC070 04/03 Q1006
                        YLO YLO=
201812100400 METAR LRTZ 100400Z 27006KT 0180 FG VV002 01/01 Q1005 RED
                        RED=
201812100500 METAR LRTZ 100500Z 27006KT 0800 FZFG OVC005 M00/M00 Q1005
                        RED RED=
201812100600 METAR LRTZ 100600Z 27008KT 0800 FG OVC003 02/02 Q1006 AMB
                        AMB=
201812100700 METAR LRTZ 100700Z 34008KT 0300 FG OVC001 02/02 Q1006 RED
                        RED=
201812100800 METAR LRTZ 100800Z 33008KT 0400 FG OVC001 03/03 Q1007 RED
                        RED=
201812100900 METAR LRTZ 100900Z 30008KT 0400 FG OVC001 03/03 Q1006 RED
                        RED=
201812101000 METAR LRTZ 101000Z 30008KT 0500 FG OVC002 03/03 Q1007 RED
                        AMB=
201812101100 METAR LRTZ 101100Z 30008KT 1000 BR OVC002 04/04 Q1006 AMB
                        YLO=
201812101300 METAR LRTZ 101300Z 34008KT 3000 BR BKN003 OVC005 04/04 Q1006
                        YLO YLO=
201812101400 METAR LRTZ 101400Z 36008KT 2000 BR OVC003 03/03 Q1006 YLO
                        AMB=
201812101500 METAR LRTZ 101500Z 34008KT 0300 FG VV001 02/02 Q1007 RED
                        RED=
201812101600 METAR LRTZ 101600Z 36010KT 0400 FG VV001 01/01 Q1006 RED
                        RED=
201812101700 METAR LRTZ 101700Z 36010KT 0600 FG OVC002 01/01 Q1006 RED
                        RED=
201812101800 METAR LRTZ 101800Z 35008KT 0300 FG VV001 01/01 Q1007 RED
                        RED=
201812101900 METAR LRTZ 101900Z 35008KT 0200 FG VV001 01/01 Q1007 RED
                        RED=
201812102000 METAR LRTZ 102000Z 36008KT 0200 FG VV001 01/01 Q1006 RED
                        RED=
201812102100 METAR LRTZ 102100Z 36010KT 0300 FG VV001 01/01 Q1006 RED
                        RED=
201812102300 METAR LRTZ 102300Z 35010KT 0500 FG OVC002 01/01 Q1007 RED
                        AMB=
201812110200 METAR LRTZ 110200Z 33016KT 2000 BR BKN007 OVC020 02/01 Q1007
                        YLO YLO=
201812110300 METAR LRTZ 110300Z 33016KT 3000 BR BKN007 OVC020 02/01 Q1007
                        YLO GRN=
201812110400 METAR LRTZ 110400Z 33014KT 3000 BR OVC002 00/00 Q1007 AMB
                        AMB=
201812110500 METAR LRTZ 110500Z 33014KT 3000 BR OVC003 00/00 Q1008 YLO
                        YLO=
201812110600 METAR LRTZ 110600Z 34016KT 4000 BR BKN004 OVC010 M00/M00
                        Q1008 YLO YLO=
201812110700 METAR LRTZ 110700Z 35012KT 4000 BR BKN002 OVC010 00/00 Q1009
                        AMB AMB=
201812110800 METAR LRTZ 110800Z 35014KT 4000 BR SCT004 OVC040 01/01 Q1009
                        GRN GRN=
201812110900 METAR LRTZ 110900Z 35014KT 5000 BR BKN004 BKN012 OVC050 03/02
                        Q1010 YLO YLO=
201812111000 METAR LRTZ 111000Z 33012KT 5000 BR SCT006 SCT012 OVC060 04/02
                        Q1010 WHT WHT=
201812111100 METAR LRTZ 111100Z 33016KT 7000 -DZ SCT007 SCT012 OVC045
                        04/02 Q1010 WHT WHT=
201812111200 METAR LRTZ 111200Z 33016KT 5000 -RA BR SCT005 BKN015 OVC030
                        04/03 Q1011 WHT WHT=
201812111300 METAR LRTZ 111300Z 33012KT 5000 -RA BR FEW007 BKN012 OVC025
                        04/03 Q1012 WHT WHT=
201812111400 METAR LRTZ 111400Z 33012KT 5000 -RA BR SCT012 BKN020 OVC040
                        04/03 Q1012 WHT WHT=
201812111500 METAR LRTZ 111500Z 32014KT 5000 -DZ BR FEW012 BKN020 OVC040
                        03/02 Q1013 WHT WHT=
201812111600 METAR LRTZ 111600Z 31014KT 6000 FEW012 BKN020 BKN050 03/02
                        Q1013 WHT WHT=
201812111700 METAR LRTZ 111700Z 33008KT 6000 SCT020 OVC080 03/02 Q1013
                        WHT WHT=
201812111800 METAR LRTZ 111800Z 32008KT 5000 BR SCT020 OVC090 03/02 Q1014
                        WHT WHT=
201812111900 METAR LRTZ 111900Z 34008KT 5000 BR SCT020 OVC070 03/02 Q1014
                        WHT WHT=
201812112000 METAR LRTZ 112000Z 36010KT 5000 BR SCT020 OVC070 02/02 Q1014
                        WHT WHT=
201812112100 METAR LRTZ 112100Z 34008KT 5000 BR FEW020 SCT040 OVC080 02/01
                        Q1014 WHT WHT=
201812112200 METAR LRTZ 112200Z 33008KT 6000 SCT040 OVC080 02/01 Q1014
                        WHT WHT=
201812112300 METAR LRTZ 112300Z 32008KT 6000 SCT040 OVC080 02/01 Q1014
                        WHT WHT=
201812120000 METAR LRTZ 120000Z 33008KT 7000 FEW040 OVC080 02/01 Q1014
                        WHT WHT=
201812120300 METAR LRTZ 120300Z 34008KT 7000 BKN090 01/M01 Q1015 WHT WHT=
201812120400 METAR LRTZ 120400Z 35010KT 7000 BKN080 01/00 Q1014 WHT WHT=
201812120500 METAR LRTZ 120500Z 34008KT 8000 BKN080 01/M00 Q1015 BLU BLU=
201812120600 METAR LRTZ 120600Z 35008KT 9999 FEW020 BKN070 00/M00 Q1015
                        BLU BLU=
201812120700 METAR LRTZ 120700Z 35010KT 9999 FEW020 BKN070 01/M00 Q1015
                        BLU BLU=
201812120800 METAR LRTZ 120800Z 33010KT 9999 SCT050 BKN080 02/01 Q1015
                        BLU BLU=
201812121000 METAR LRTZ 121000Z 35014KT 9999 FEW015 BKN050 03/00 Q1016
                        BLU BLU=
201812121100 METAR LRTZ 121100Z 35014KT 9999 SCT020 BKN070 04/00 Q1016
                        BLU BLU=
201812121200 METAR LRTZ 121200Z 35016KT 9999 SCT015 BKN050 03/01 Q1016
                        BLU BLU=
201812121300 METAR LRTZ 121300Z 35020KT 9999 FEW015 SCT050 BKN100 04/01
                        Q1016 BLU BLU=
201812121400 METAR LRTZ 121400Z 35014KT 9999 FEW015 BKN100 03/01 Q1017
                        BLU BLU=
201812121500 METAR LRTZ 121500Z 35012KT 9999 FEW015 BKN100 02/M00 Q1017
                        BLU BLU=
201812121600 METAR LRTZ 121600Z 33008KT 9999 BKN100 00/M00 Q1017 BLU BLU=
201812121700 METAR LRTZ 121700Z 31008KT 9999 BKN100 M00/M01 Q1018 BLU
                        BLU=
201812121800 METAR LRTZ 121800Z 31008KT 9999 BKN100 00/M01 Q1018 BLU BLU=
201812121900 METAR LRTZ 121900Z 31008KT 9999 SCT100 M00/M01 Q1018 BLU
                        BLU=
201812122000 METAR LRTZ 122000Z 32010KT 9999 SCT100 M00/M01 Q1018 BLU
                        BLU=
201812122100 METAR LRTZ 122100Z 33010KT 9999 SCT100 M00/M01 Q1018 BLU
                        BLU=
201812122200 METAR LRTZ 122200Z 33010KT 9999 SCT100 M00/M01 Q1018 BLU
                        BLU=
201812130400 METAR LRTZ 130400Z 30010KT 8000 BKN100 M00/M01 Q1018 BLU
                        BLU=
201812130600 METAR LRTZ 130600Z 30012KT 8000 SCT010 BKN050 01/M00 Q1019
                        BLU BLU=
201812130700 METAR LRTZ 130700Z 30010KT 9999 SCT100 01/M00 Q1019 BLU BLU=
201812130800 METAR LRTZ 130800Z 30010KT 9999 SCT100 02/00 Q1019 BLU BLU=
201812130900 METAR LRTZ 130900Z 30010KT 9999 FEW030 SCT100 03/01 Q1019
                        BLU BLU=
201812131000 METAR LRTZ 131000Z 30010KT 9999 SCT015 04/01 Q1019 BLU BLU=
201812131100 METAR LRTZ 131100Z 30010KT 9999 SCT015 05/01 Q1018 BLU BLU=
201812131200 METAR LRTZ 131200Z 30010KT 9999 FEW020 06/00 Q1018 BLU BLU=
201812131300 METAR LRTZ 131300Z 30010KT 9999 FEW020 06/00 Q1018 BLU BLU=
201812131500 METAR LRTZ 131500Z 30008KT 9999 SKC 01/M01 Q1019 BLU BLU=
201812131600 METAR LRTZ 131600Z 30006KT 9999 SKC 00/M01 Q1019 BLU BLU=
201812131700 METAR LRTZ 131700Z 30008KT 9999 SKC 00/M01 Q1019 BLU BLU=
201812131800 METAR LRTZ 131800Z 30008KT 9999 SKC 00/M02 Q1020 BLU BLU=
201812131900 METAR LRTZ 131900Z 30008KT 9999 SKC 00/M02 Q1019 BLU BLU=
201812132000 METAR LRTZ 132000Z 30008KT 9999 SKC M01/M03 Q1019 BLU BLU=
201812132100 METAR LRTZ 132100Z 30008KT 9999 SKC M01/M03 Q1019 BLU BLU=
201812132300 METAR LRTZ 132300Z 30008KT 9999 SKC M01/M03 Q1019 BLU BLU=
201812140400 METAR LRTZ 140400Z 30008KT 7000 SCT020 M03/M05 Q1020 WHT
                        BLU=
201812140500 METAR LRTZ 140500Z 33008KT 9999 SCT100 M03/M05 Q1021 BLU
                        BLU=
201812140600 METAR LRTZ 140600Z 33008KT 9999 BKN100 M02/M04 Q1021 BLU
                        BLU=
201812140800 METAR LRTZ 140800Z 36006KT 9999 SCT100 BKN150 00/M01 Q1022
                        BLU BLU=
201812140900 METAR LRTZ 140900Z 03004KT 5000 BR BKN100 02/00 Q1022 WHT
                        WHT=
201812141000 METAR LRTZ 141000Z 03006KT 7000 BR BKN100 03/02 Q1022 WHT
                        WHT=
201812141100 METAR LRTZ 141100Z 06008KT 9999 BKN100 05/01 Q1022 BLU BLU=
201812141200 METAR LRTZ 141200Z 06008KT 9999 BKN100 05/01 Q1022 BLU BLU=
201812141300 METAR LRTZ 141300Z 06008KT 9999 BKN030 OVC090 05/00 Q1022
                        BLU BLU=
201812141400 METAR LRTZ 141400Z 06008KT 9999 OVC030 04/00 Q1022 BLU BLU=
201812141500 METAR LRTZ 141500Z 06008KT 9999 BKN030 OVC060 04/01 Q1023
                        BLU BLU=
201812141600 METAR LRTZ 141600Z 06008KT 9999 BKN030 OVC050 04/01 Q1023
                        BLU BLU=
201812141700 METAR LRTZ 141700Z 06010KT 9999 OVC050 05/01 Q1023 BLU WHT=
201812141800 METAR LRTZ 141800Z 06010KT 8000 -RA BKN015 OVC030 04/02 Q1023
                        WHT WHT=
201812141900 METAR LRTZ 141900Z 09010KT 8000 -RA BKN015 OVC030 04/02 Q1024
                        WHT WHT=
201812142000 METAR LRTZ 142000Z 09010KT 8000 -RA BKN015 OVC030 04/02 Q1024
                        WHT WHT=
201812142100 METAR LRTZ 142100Z 09010KT 8000 -RA BKN015 OVC030 04/02 Q1024
                        WHT WHT=
201812142300 METAR LRTZ 142300Z 09010KT 6000 -RA BKN015 OVC030 05/03 Q1023
                        WHT GRN=
201812150400 METAR LRTZ 150400Z 09016KT 6000 DZ BKN010 OVC015 05/04 Q1022
                        GRN GRN=
201812150500 METAR LRTZ 150500Z 09010G20KT 3000 -RA BR SCT005 BKN010 OVC015
                        05/05 Q1022 YLO YLO=
201812150600 METAR LRTZ 150600Z 09016KT 3000 -DZ BR SCT005 OVC010 06/06
                        Q1021 YLO YLO=
201812150700 METAR LRTZ 150700Z 09016KT 4000 -DZ BR BKN005 OVC012 06/06
                        Q1021 YLO YLO=
201812150800 METAR LRTZ 150800Z 10016KT 3000 DZ BR SCT003 BKN006 OVC015
                        07/06 Q1021 YLO YLO=
201812150900 METAR LRTZ 150900Z 12014KT 3000 DZ BR BKN005 OVC008 07/07
                        Q1021 YLO YLO=
201812151000 METAR LRTZ 151000Z 12014KT 5000 BR BKN007 OVC020 07/07 Q1021
                        GRN GRN=
201812151100 METAR LRTZ 151100Z 11014KT 5000 -DZ BR BKN007 OVC012 07/07
                        Q1020 GRN YLO=
201812151200 METAR LRTZ 151200Z 10012KT 5000 -DZ BR BKN007 OVC013 08/08
                        Q1020 GRN GRN=
201812151300 METAR LRTZ 151300Z 09012KT 7000 BKN009 OVC015 08/08 Q1020
                        GRN GRN=
201812151400 METAR LRTZ 151400Z 10012KT 7000 BKN008 OVC012 08/08 Q1020
                        GRN GRN=
201812151500 METAR LRTZ 151500Z 10014KT 4000 -DZ BR BKN005 OVC008 08/08
                        Q1020 YLO YLO=
201812151600 METAR LRTZ 151600Z 10012KT 4000 -DZ BR OVC005 08/08 Q1020
                        YLO YLO=
201812151700 METAR LRTZ 151700Z 12012KT 3000 BR OVC003 09/09 Q1020 YLO
                        AMB=
201812151800 METAR LRTZ 151800Z 12010KT 4000 BR OVC003 09/09 Q1020 YLO
                        YLO=
201812151900 METAR LRTZ 151900Z 13010KT 3000 BR OVC003 09/09 Q1020 YLO
                        YLO=
201812152000 METAR LRTZ 152000Z 13016KT 5000 BR OVC003 09/09 Q1020 YLO
                        YLO=
201812152100 METAR LRTZ 152100Z 14014KT 4000 BR OVC004 09/09 Q1019 YLO
                        YLO=
201812152200 METAR LRTZ 152200Z 14012KT 3000 -DZ BR BKN004 OVC008 09/09
                        Q1019 YLO YLO=
201812152300 METAR LRTZ 152300Z 13012KT 3000 -DZ BR BKN004 OVC010 09/09
                        Q1019 YLO YLO=
201812160200 METAR LRTZ 160200Z 12014KT 4000 BR BKN005 OVC012 09/09 Q1019
                        YLO YLO=
201812160300 METAR LRTZ 160300Z 12014KT 4000 BR BKN005 OVC015 09/09 Q1018
                        YLO GRN=
201812160400 METAR LRTZ 160400Z 13016KT 5000 BR BKN004 OVC008 09/09 Q1018
                        YLO YLO=
201812160500 METAR LRTZ 160500Z 13016KT 5000 BR BKN004 OVC008 09/09 Q1018
                        YLO YLO=
201812160600 METAR LRTZ 160600Z 13016KT 5000 BR SCT003 OVC005 09/09 Q1018
                        YLO YLO=
201812160700 METAR LRTZ 160700Z 12014KT 5000 BR BKN003 BKN005 OVC010 09/09
                        Q1018 YLO YLO=
201812160800 METAR LRTZ 160800Z 14012KT 6000 BKN003 BKN005 OVC010 09/08
                        Q1019 YLO YLO=
201812160900 METAR LRTZ 160900Z 13012KT 6000 BKN003 BKN005 OVC010 09/07
                        Q1019 YLO YLO=
201812161000 METAR LRTZ 161000Z 15012KT 7000 BKN003 BKN005 OVC010 09/07
                        Q1018 YLO YLO=
201812161100 METAR LRTZ 161100Z 15012KT 6000 BKN004 BKN006 OVC012 09/07
                        Q1017 YLO YLO=
201812161200 METAR LRTZ 161200Z 12012KT 6000 BKN004 BKN006 OVC012 09/07
                        Q1017 YLO YLO=
201812161300 METAR LRTZ 161300Z 11012KT 6000 BKN004 BKN007 OVC012 09/07
                        Q1017 YLO YLO=
201812161400 METAR LRTZ 161400Z 10012KT 6000 SCT004 BKN007 OVC012 09/07
                        Q1017 GRN GRN=
201812161500 METAR LRTZ 161500Z 10012KT 5000 BR FEW004 BKN007 OVC012 09/07
                        Q1018 GRN GRN=
201812161600 METAR LRTZ 161600Z 10012KT 5000 BR BKN006 BKN012 OVC020 09/07
                        Q1018 YLO YLO=
201812161700 METAR LRTZ 161700Z 09012KT 5000 BR BKN006 BKN012 OVC020 09/07
                        Q1018 YLO YLO=
201812161800 METAR LRTZ 161800Z 09014KT 7000 BKN006 BKN014 OVC020 09/07
                        Q1018 YLO YLO=
201812161900 METAR LRTZ 161900Z 10012KT 5000 -DZ BR BKN005 BKN010 OVC020
                        08/07 Q1018 YLO YLO=
201812162000 METAR LRTZ 162000Z 09010KT 4000 -DZ BR BKN004 BKN010 OVC020
                        08/07 Q1019 YLO YLO=
201812162100 METAR LRTZ 162100Z 09010KT 4000 -DZ BR BKN006 BKN012 OVC020
                        08/07 Q1019 YLO YLO=
201812162200 METAR LRTZ 162200Z 08010KT 3000 -DZ BR BKN006 BKN012 OVC020
                        08/07 Q1019 YLO YLO=
201812162300 METAR LRTZ 162300Z 09010KT 3000 -DZ BR BKN005 BKN010 OVC020
                        08/07 Q1018 YLO YLO=
201812170200 METAR LRTZ 170200Z 07010KT 3000 -RA BR BKN004 BKN010 OVC020
                        07/06 Q1018 YLO YLO=
201812170300 METAR LRTZ 170300Z 06012KT 2000 -RA BR BKN004 BKN010 OVC020
                        07/06 Q1017 YLO YLO=
201812170400 METAR LRTZ 170400Z 07016KT 1500 -DZ BR BKN002 OVC010 06/05
                        Q1018 AMB AMB=
201812170500 METAR LRTZ 170500Z 08016KT 1500 -DZ BR BKN002 OVC010 06/05
                        Q1018 AMB AMB=
201812170600 METAR LRTZ 170600Z 06014KT 1500 -DZ BR BKN002 OVC010 06/05
                        Q1018 AMB AMB=
201812170700 METAR LRTZ 170700Z 06014KT 1500 -DZ BR BKN002 OVC010 04/04
                        Q1018 AMB AMB=
201812170800 METAR LRTZ 170800Z 06018KT 1500 -DZ BR BKN002 OVC010 04/04
                        Q1018 AMB AMB=
201812170900 METAR LRTZ 170900Z 06018KT 1500 -DZ BR BKN002 OVC010 04/04
                        Q1018 AMB AMB=
201812171000 METAR LRTZ 171000Z 06018KT 1500 -DZ BR BKN002 OVC010 03/03
                        Q1018 AMB AMB=
201812171100 METAR LRTZ 171100Z 06018KT 1000 -DZ BR BKN002 OVC010 03/03
                        Q1017 AMB AMB=
201812171200 METAR LRTZ 171200Z 06016KT 1000 -DZ BR BKN002 OVC010 04/04
                        Q1017 AMB AMB=
201812171300 METAR LRTZ 171300Z 06016KT 1000 -DZ BR BKN002 OVC010 04/04
                        Q1018 AMB AMB=
201812171400 METAR LRTZ 171400Z 06016KT 1000 -DZ BR BKN002 OVC010 04/04
                        Q1018 AMB AMB=
201812171500 METAR LRTZ 171500Z 06016KT 1000 -DZ BR BKN002 OVC010 04/04
                        Q1018 AMB AMB=
201812171600 METAR LRTZ 171600Z 06016KT 1000 -DZ BR BKN002 OVC010 04/04
                        Q1019 AMB AMB=
201812171700 METAR LRTZ 171700Z 06016KT 1000 -DZ BR BKN002 OVC010 03/03
                        Q1019 AMB AMB=
201812171800 METAR LRTZ 171800Z 06016KT 1000 -DZ BR BKN002 OVC010 03/03
                        Q1019 AMB AMB=
201812171900 METAR LRTZ 171900Z 06016KT 1000 -DZ BR BKN002 OVC010 03/03
                        Q1020 AMB AMB=
201812172000 METAR LRTZ 172000Z 06016KT 1000 -DZ BR BKN002 OVC010 03/03
                        Q1020 AMB AMB=
201812172100 METAR LRTZ 172100Z 06016KT 1000 -DZ BR BKN002 OVC010 03/03
                        Q1020 AMB AMB=
201812172300 METAR LRTZ 172300Z 06016KT 1000 -DZ BR BKN002 OVC010 03/03
                        Q1020 AMB AMB=
201812180500 METAR LRTZ 180500Z 03016KT 1500 -DZ BR BKN002 OVC010 01/01
                        Q1023 AMB AM=
201812180600 METAR LRTZ 180600Z 03022KT 1500 -DZ BR BKN002 OVC010 01/01
                        Q1023 AMB AMB=
201812180700 METAR LRTZ 180700Z 03015KT 3000 BR BKN003 OVC010 01/00 Q1024
                        YLO YLO=
201812180900 METAR LRTZ 180900Z 03015KT 2500 -SN BR BKN002 OVC010 00/M00
                        Q1025 AMB AMB=
201812181000 METAR LRTZ 181000Z 03018KT 2500 -BLSN BR BKN002 OVC010 00/M00
                        Q1024 AMB AMB=
201812181100 METAR LRTZ 181100Z 03018KT 4000 -BLSN BR BKN003 OVC010 00/M00
                        Q1024 YLO YLO=
201812181200 METAR LRTZ 181200Z 03018KT 5000 BR BKN003 OVC010 00/M01 Q1024
                        YLO YLO=
201812181300 METAR LRTZ 181300Z 03018KT 4500 BR BKN003 OVC010 M00/M01
                        Q1024 YLO YLO=
201812181400 METAR LRTZ 181400Z 03010G20KT 4000 BR BKN003 OVC007 M00/M01
                        Q1024 YLO YLO=
201812181500 METAR LRTZ 181500Z 03016KT 3000 BR BKN003 OVC007 M00/M01
                        Q1025 YLO YLO=
201812181600 METAR LRTZ 181600Z 03016KT 1500 -FZDZ BR BKN002 OVC005 M00/M01
                        Q1024 AMB AMB=
201812181700 METAR LRTZ 181700Z 03016KT 3000 -FZDZ BR BKN002 OVC005 M00/M02
                        Q1025 AMB AMB=
201812181800 METAR LRTZ 181800Z 01010G20KT 7000 BKN005 OVC015 M01/M03
                        Q1025 YLO YLO=
201812182000 METAR LRTZ 182000Z 01010G20KT 3000 BR BKN005 OVC015 M01/M02
                        Q1025 YLO YLO=
201812182100 METAR LRTZ 182100Z 03010G20KT 3000 BR BKN005 OVC015 M01/M02
                        Q1025 YLO YLO=
201812182300 METAR LRTZ 182300Z 03012G22KT 3000 BR BKN005 OVC015 M01/M03
                        Q1025 YLO YLO=
201812190400 METAR LRTZ 190400Z 01015G25KT 5000 BR BKN005 OVC015 M03/M04
                        Q1025 YLO YLO=
201812190500 METAR LRTZ 190500Z 01015G25KT 5000 BR BKN007 OVC010 M03/M05
                        Q1025 GRN GRN=
201812190600 METAR LRTZ 190600Z 01020G30KT 5000 BR BKN007 OVC010 M03/M05
                        Q1025 GRN GRN=
201812190700 METAR LRTZ 190700Z 01015G25KT 4000 BR BKN007 OVC010 M03/M06
                        Q1025 GRN GRN=
201812190800 METAR LRTZ 190800Z 01012G22KT 4000 BR SCT007 OVC010 M03/M06
                        Q1026 GRN GRN=
201812190900 METAR LRTZ 190900Z 01016G26KT 4000 BR OVC012 M03/M06 Q1026
                        GRN GRN=
201812191000 METAR LRTZ 191000Z 01016G26KT 5000 BR OVC012 M03/M06 Q1025
                        GRN GRN=
201812191100 METAR LRTZ 191100Z 01015G25KT 6000 SCT012 OVC015 M03/M06
                        Q1025 GRN GRN=
201812191200 METAR LRTZ 191200Z 01014G24KT 7000 OVC015 M03/M07 Q1025 WHT
                        WHT=
201812191300 METAR LRTZ 191300Z 01014G24KT 8000 OVC015 M03/M07 Q1026 WHT
                        WHT=
201812191400 METAR LRTZ 191400Z 01014G24KT 8000 OVC015 M03/M07 Q1026 WHT
                        WHT=
201812191500 METAR LRTZ 191500Z 01010G20KT 8000 OVC015 M04/M07 Q1027 WHT
                        GRN=
201812191600 METAR LRTZ 191600Z 01010G20KT 8000 OVC014 M04/M07 Q1027 GRN
                        GRN=
201812191700 METAR LRTZ 191700Z 01010G20KT 8000 OVC012 M04/M07 Q1027 GRN
                        GRN=
201812191800 METAR LRTZ 191800Z 01010G20KT 8000 OVC012 M04/M07 Q1027 GRN
                        GRN=
201812191900 METAR LRTZ 191900Z 01010G20KT 8000 OVC010 M04/M07 Q1027 GRN
                        GRN=
201812192000 METAR LRTZ 192000Z 01018KT 8000 OVC010 M04/M07 Q1027 GRN
                        GRN=
201812192100 METAR LRTZ 192100Z 36016KT 8000 OVC010 M04/M07 Q1027 GRN
                        GRN=
201812192300 METAR LRTZ 192300Z 36016KT 8000 OVC008 M04/M07 Q1028 GRN
                        GRN=
201812200400 METAR LRTZ 200400Z 34012KT 3000 BR BKN005 OVC010 M04/M06
                        Q1028 YLO YLO=
201812200500 METAR LRTZ 200500Z 34012KT 3000 BR BKN003 OVC005 M04/M06
                        Q1028 YLO YLO=
201812200600 METAR LRTZ 200600Z 34012KT 4000 BR BKN003 OVC005 M04/M06
                        Q1029 YLO YLO=
201812200700 METAR LRTZ 200700Z 34010KT 5000 BR SCT003 OVC005 M04/M06
                        Q1029 YLO YLO=
201812200800 METAR LRTZ 200800Z 34010KT 4000 BR SCT003 BKN007 OVC015 M04/M05
                        Q1030 GRN GRN=
201812200900 METAR LRTZ 200900Z 34012KT 6000 SCT005 BKN015 OVC025 M03/M04
                        Q1029 WHT WHT=
201812201000 METAR LRTZ 201000Z 35010KT 5000 BR BKN005 OVC015 M03/M04
                        Q1029 YLO YLO=
201812201200 METAR LRTZ 201200Z 36008KT 6000 SCT008 OVC020 M02/M04 Q1028
                        WHT WHT=
201812201300 METAR LRTZ 201300Z 33008KT 6000 BKN008 OVC020 M02/M04 Q1028
                        GRN YLO=
201812201400 METAR LRTZ 201400Z 33006KT 5000 BR BKN005 OVC020 M02/M04
                        Q1028 YLO YLO=
201812201500 METAR LRTZ 201500Z 33006KT 3000 BR BKN005 OVC020 M02/M03
                        Q1028 YLO YLO=
201812201600 METAR LRTZ 201600Z 33004KT 3000 BR BKN009 OVC015 M02/M03
                        Q1029 YLO YLO=
201812201700 METAR LRTZ 201700Z 30006KT 3000 BR BKN005 OVC012 M03/M04
                        Q1029 YLO YLO=
201812201800 METAR LRTZ 201800Z 30006KT 3000 BR SCT005 BKN008 OVC015 M03/M04
                        Q1029 YLO YLO=
201812201900 METAR LRTZ 201900Z 30004KT 4000 BR SCT007 BKN010 OVC017 M03/M04
                        Q1029 GRN GRN=
201812202000 METAR LRTZ 202000Z 30004KT 4000 BR SCT003 BKN007 OVC015 M03/M04
                        Q1029 GRN GRN=
201812202100 METAR LRTZ 202100Z 30004KT 4000 BR BKN007 OVC015 M03/M04
                        Q1029 GRN YLO=
201812202200 METAR LRTZ 202200Z 27004KT 3000 BR BKN005 OVC015 M03/M04
                        Q1029 YLO YLO=
201812202300 METAR LRTZ 202300Z 24004KT 3000 BR BKN005 OVC010 M03/M04
                        Q1028 YLO YLO=
201812210000 METAR LRTZ 210000Z 24004KT 3000 BR BKN005 OVC015 M03/M04
                        Q1028 YLO YLO=
201812210200 METAR LRTZ 210200Z 25003KT 3000 BR BKN004 OVC010 M03/M04
                        Q1028 YLO YLO=
201812210300 METAR LRTZ 210300Z 25003KT 2000 BR BKN005 OVC010 M03/M04
                        Q1028 YLO AMB=
201812210400 METAR LRTZ 210400Z 30008KT 3000 BR SCT005 OVC015 M02/M03
                        Q1028 YLO YLO=
201812210500 METAR LRTZ 210500Z 30008KT 3000 BR SCT003 BKN005 OVC020 M02/M03
                        Q1027 YLO YLO=
201812210600 METAR LRTZ 210600Z 32010KT 3000 BR SCT003 BKN005 OVC020 M02/M03
                        Q1028 YLO YLO=
201812210700 METAR LRTZ 210700Z 31010KT 3000 BR BKN003 BKN010 OVC020 M02/M03
                        Q1028 YLO YLO=
201812210800 METAR LRTZ 210800Z 32010KT 4000 BR BKN003 BKN010 OVC020 M03/M04
                        Q1028 YLO YLO=
201812210900 METAR LRTZ 210900Z 30008KT 5000 BR BKN003 OVC010 M02/M04
                        Q1028 YLO YLO=
201812211000 METAR LRTZ 211000Z 30008KT 8000 BKN004 OVC010 M02/M04 Q1027
                        YLO YLO=
201812211100 METAR LRTZ 211100Z 31008KT 7000 BKN005 OVC010 M02/M04 Q1026
                        YLO GRN=
201812211200 METAR LRTZ 211200Z 32008KT 8000 BKN005 OVC010 M02/M04 Q1026
                        YLO GRN=
201812211300 METAR LRTZ 211300Z 29006KT 8000 BKN005 OVC010 M02/M04 Q1026
                        YLO YLO=
201812211400 METAR LRTZ 211400Z 30006KT 8000 OVC005 M02/M04 Q1026 YLO
                        YLO=
201812211500 METAR LRTZ 211500Z 30008KT 7000 SCT004 OVC006 M02/M04 Q1026
                        YLO YLO=
201812211600 METAR LRTZ 211600Z 33006KT 7000 OVC005 M02/M04 Q1026 YLO
                        YLO=
201812211700 METAR LRTZ 211700Z 30004KT 6000 OVC003 M03/M03 Q1026 YLO
                        YLO=
201812211800 METAR LRTZ 211800Z 30010KT 4000 BR OVC002 M02/M02 Q1026 AMB
                        AMB=
201812211900 METAR LRTZ 211900Z 30008KT 4000 BR OVC002 M02/M02 Q1026 AMB
                        AMB=
201812212000 METAR LRTZ 212000Z 29006KT 4000 BR OVC002 M02/M02 Q1024 AMB
                        AMB=
201812212100 METAR LRTZ 212100Z 31010KT 3000 BR OVC002 M02/M02 Q1024 AMB
                        AMB=
201812212200 METAR LRTZ 212200Z 28008KT 4000 BR OVC002 M02/M02 Q1023 AMB
                        AMB=
201812212300 METAR LRTZ 212300Z 30006KT 3000 BR OVC002 M02/M02 Q1023 AMB
                        AMB=
201812220400 METAR LRTZ 220400Z 22004KT 4000 BR SCT010 BKN180 M02/M03
                        Q1020 GRN GRN=
201812220500 METAR LRTZ 220500Z 20006KT 8000 FEW012 BKN150 M01/M02 Q1020
                        BLU BLU=
201812220600 METAR LRTZ 220600Z 21004KT 9999 FEW050 BKN150 M01/M03 Q1020
                        BLU BLU=
201812220700 METAR LRTZ 220700Z 21004KT 9999 FEW050 BKN150 01/M00 Q1019
                        BLU BLU=
201812220800 METAR LRTZ 220800Z 23004KT 9999 BKN100 01/M01 Q1019 BLU BLU=
201812220900 METAR LRTZ 220900Z 27006KT 9999 BKN120 02/00 Q1019 BLU BLU=
201812221000 METAR LRTZ 221000Z 28010KT 9999 BKN100 04/01 Q1018 BLU BLU=
201812221100 METAR LRTZ 221100Z 28014KT 9999 BKN100 07/03 Q1017 BLU BLU=
201812221200 METAR LRTZ 221200Z 27016KT 9999 BKN150 07/03 Q1016 BLU BLU=
201812221300 METAR LRTZ 221300Z 25012KT 9999 BKN150 07/03 Q1016 BLU BLU=
201812221400 METAR LRTZ 221400Z 27010KT 9999 BKN150 05/03 Q1016 BLU BLU=
201812221500 METAR LRTZ 221500Z 30012KT 9999 BKN200 05/03 Q1016 BLU BLU=
201812221600 METAR LRTZ 221600Z 30016KT 9999 BKN150 05/02 Q1016 BLU BLU=
201812221700 METAR LRTZ 221700Z 30014KT 9999 BKN150 05/01 Q1015 BLU BLU=
201812221800 METAR LRTZ 221800Z 25006KT 9999 BKN150 04/01 Q1015 BLU BLU=
201812221900 METAR LRTZ 221900Z 25006KT 9999 BKN150 03/01 Q1015 BLU BLU=
201812222000 METAR LRTZ 222000Z 25010KT 9999 BKN120 04/02 Q1015 BLU BLU=
201812222100 METAR LRTZ 222100Z 25014KT 9999 BKN120 05/02 Q1015 BLU BLU=
201812222300 METAR LRTZ 222300Z 27014KT 9999 BKN100 05/02 Q1014 BLU BLU=
201812230400 METAR LRTZ 230400Z 30018KT 9999 BKN100 05/03 Q1013 BLU BLU=
201812230500 METAR LRTZ 230500Z 30018KT 9999 SCT200 06/03 Q1013 BLU BLU=
201812230600 METAR LRTZ 230600Z 28014KT 9999 BKN200 05/03 Q1013 BLU BLU=
201812230700 METAR LRTZ 230700Z 29018KT 9999 SCT090 BKN200 06/03 Q1014
                        BLU BLU=
201812230800 METAR LRTZ 230800Z 30014KT 9999 SCT100 BKN200 07/04 Q1014
                        BLU BLU=
201812230900 METAR LRTZ 230900Z 31018KT 9999 SCT100 BKN200 09/05 Q1015
                        BLU BLU=
201812231000 METAR LRTZ 231000Z 35018KT 9999 BKN100 09/05 Q1016 BLU BLU=
201812231100 METAR LRTZ 231100Z 36016KT 9999 BKN090 08/04 Q1016 BLU BLU=
201812231200 METAR LRTZ 231200Z 34010KT 9999 BKN090 07/04 Q1017 BLU BLU=
201812231300 METAR LRTZ 231300Z 31006KT 9999 SCT100 09/03 Q1017 BLU BLU=
201812231400 METAR LRTZ 231400Z 30004KT 9999 BKN100 07/03 Q1018 BLU BLU=
201812231500 METAR LRTZ 231500Z 28004KT 9999 SCT070 OVC100 07/04 Q1018
                        BLU BLU=
201812231600 METAR LRTZ 231600Z 30006KT 9999 BKN070 OVC100 07/04 Q1018
                        BLU BLU=
201812231700 METAR LRTZ 231700Z 28006KT 9999 BKN070 BKN090 06/04 Q1019
                        BLU BLU=
201812231800 METAR LRTZ 231800Z 30006KT 9999 BKN080 05/03 Q1019 BLU BLU=
201812231900 METAR LRTZ 231900Z 30008KT 9999 SCT080 05/03 Q1019 BLU BLU=
201812232000 METAR LRTZ 232000Z 30008KT 9999 SCT080 05/03 Q1019 BLU BLU=
201812232100 METAR LRTZ 232100Z 30008KT 9999 SCT090 05/03 Q1019 BLU BLU=
201812232300 METAR LRTZ 232300Z 28006KT 9999 SCT100 05/03 Q1020 BLU BLU=
201812240300 METAR LRTZ 240300Z 25006KT 7000 SCT010 SCT100 03/02 Q1019
                        WHT WHT=
201812240400 METAR LRTZ 240400Z 21004KT 5000 BR SCT015 BKN200 01/00 Q1016
                        WHT WHT=
201812240500 METAR LRTZ 240500Z 21004KT 7000 SCT020 BKN200 00/M00 Q1015
                        WHT BLU=
201812240600 METAR LRTZ 240600Z 20003KT 9999 SCT070 BKN200 01/00 Q1015
                        BLU BLU=
201812240700 METAR LRTZ 240700Z 21008KT 9999 SCT100 BKN200 02/00 Q1015
                        BLU BLU=
201812240800 METAR LRTZ 240800Z 21008KT 9999 BKN100 BKN200 03/01 Q1013
                        BLU BLU=
201812240900 METAR LRTZ 240900Z 21014KT 9999 SCT100 BKN200 07/04 Q1012
                        BLU BLU=
201812241000 METAR LRTZ 241000Z 21014KT 9999 SCT100 BKN200 09/04 Q1010
                        BLU BLU=
201812241100 METAR LRTZ 241100Z 21012KT 9999 SCT070 BKN100 09/05 Q1008
                        BLU BLU=
201812241200 METAR LRTZ 241200Z 21010G20KT 9999 SCT700 BKN100 09/05 Q1006
                        BLU WHT=
201812241300 METAR LRTZ 241300Z 21010G20KT 9999 SCT070 BKN100 09/05 Q1005
                        BLU WHT=
201812241400 METAR LRTZ 241400Z 21014KT 9999 OVC090 08/06 Q1004 BLU BLU=
201812241500 METAR LRTZ 241500Z 21014KT 9999 OVC090 08/05 Q1003 BLU BLU=
201812241600 METAR LRTZ 241600Z 21012KT 9999 OVC070 08/05 Q1003 BLU BLU=
201812241700 METAR LRTZ 241700Z 21012KT 9999 -RA OVC070 09/05 Q1002 BLU
                        BLU=
201812241800 METAR LRTZ 241800Z 27010KT 9999 OVC050 09/05 Q1003 BLU BLU=
201812241900 METAR LRTZ 241900Z 30015G25KT 9999 BKN040 OVC100 09/06 Q1004
                        BLU BLU=
201812242000 METAR LRTZ 242000Z 30015G25KT 8000 -RA SCT020 BKN025 OVC040
                        06/05 Q1006 BLU BLU=
201812242100 METAR LRTZ 242100Z 32015G25KT 9999 SCT020 OVC040 05/03 Q1008
                        BLU BLU=
201812242200 METAR LRTZ 242200Z 32015G25KT 9999 BKN040 OVC090 03/01 Q1009
                        BLU BLU=
201812242300 METAR LRTZ 242300Z 32015G25KT 9999 BKN090 02/00 Q1011 BLU
                        BLU=
201812250400 METAR LRTZ 250400Z 36010G20KT 9999 SCT100 01/M03 Q1015 BLU
                        BLU=
201812250500 METAR LRTZ 250500Z 36012G22KT 9999 SCT100 01/M04 Q1016 BLU
                        BLU=
201812250600 METAR LRTZ 250600Z 36014KT 9999 SCT100 01/M03 Q1017 BLU BLU=
201812250700 METAR LRTZ 250700Z 36014KT 9999 BKN100 01/M03 Q1018 BLU BLU=
201812250800 METAR LRTZ 250800Z 36016KT 9999 BKN100 02/M02 Q1019 BLU BLU=
201812250900 METAR LRTZ 250900Z 36016KT 9999 SCT050 BKN100 02/M04 Q1019
                        BLU BLU=
201812251000 METAR LRTZ 251000Z 36014KT 9999 SCT050 03/M03 Q1019 BLU BLU=
201812251100 METAR LRTZ 251100Z 34014KT 9999 SCT035 04/M03 Q1018 BLU BLU=
201812251200 METAR LRTZ 251200Z 34014KT 9999 SCT035 04/M03 Q1018 BLU BLU=
201812251300 METAR LRTZ 251300Z 34012KT 9999 FEW035 SCT090 04/M03 Q1018
                        BLU BLU=
201812251400 METAR LRTZ 251400Z 34012KT 9999 FEW035 SCT090 03/M03 Q1019
                        BLU BLU=
201812251500 METAR LRTZ 251500Z 34012KT 9999 SCT090 00/M03 Q1019 BLU BLU=
201812251600 METAR LRTZ 251600Z 33012KT 9999 SCT090 M01/M03 Q1020 BLU
                        BLU=
201812251700 METAR LRTZ 251700Z 34010KT 9999 SCT090 M01/M04 Q1020 BLU
                        BLU=
201812251800 METAR LRTZ 251800Z 34010KT 9999 SCT090 M01/M04 Q1021 BLU
                        BLU=
201812251900 METAR LRTZ 251900Z 34010KT 9999 BKN090 M01/M03 Q1021 BLU
                        BLU=
201812252000 METAR LRTZ 252000Z 34010KT 9999 BKN080 M00/M03 Q1021 BLU
                        BLU=
201812252100 METAR LRTZ 252100Z 34010KT 9999 BKN080 M00/M03 Q1021 BLU
                        BLU=
201812252200 METAR LRTZ 252200Z 34010KT 9999 BKN080 M00/M03 Q1021 BLU
                        BLU=
201812260000 METAR LRTZ 260000Z 30010KT 9999 BKN080 M01/M03 Q1023 BLU
                        BLU=
201812260300 METAR LRTZ 260300Z 30010KT 9999 BKN080 M01/M03 Q1023 BLU
                        BLU=
201812260400 METAR LRTZ 260400Z 30010KT 9999 BKN080 M01/M04 Q1023 BLU
                        BLU=
201812260500 METAR LRTZ 260500Z 30010KT 9999 BKN080 M02/M04 Q1023 BLU
                        BLU=
201812260600 METAR LRTZ 260600Z 30012KT 9999 BKN080 M02/M04 Q1023 BLU
                        BLU=
201812260700 METAR LRTZ 260700Z 30012KT 9999 BKN080 M01/M04 Q1024 BLU
                        BLU=
201812260800 METAR LRTZ 260800Z 30016KT 9999 BKN080 00/M04 Q1024 BLU BLU=
201812260900 METAR LRTZ 260900Z 31016KT 9999 SCT080 02/M04 Q1024 BLU BLU=
201812261000 METAR LRTZ 261000Z 31018KT 9999 FEW080 03/M04 Q1023 BLU BLU=
201812261100 METAR LRTZ 261100Z 30022KT 9999 FEW100 04/M05 Q1022 BLU BLU=
201812261200 METAR LRTZ 261200Z 31020KT 9999 FEW100 04/M05 Q1022 BLU BLU=
201812261300 METAR LRTZ 261300Z 30016KT 9999 FEW100 05/M05 Q1022 BLU BLU=
201812261400 METAR LRTZ 261400Z 30014KT 9999 FEW200 04/M04 Q1021 BLU BLU=
201812261500 METAR LRTZ 261500Z 29008KT 9999 FEW200 01/M04 Q1021 BLU BLU=
201812261600 METAR LRTZ 261600Z 30008KT 9999 FEW200 M00/M03 Q1021 BLU
                        BLU=
201812261700 METAR LRTZ 261700Z 30008KT 9999 FEW200 M01/M03 Q1021 BLU
                        BLU=
201812261800 METAR LRTZ 261800Z 30012KT 9999 BKN060 01/M02 Q1020 BLU BLU=
201812261900 METAR LRTZ 261900Z 30010KT 9999 BKN060 00/M02 Q1020 BLU BLU=
201812262000 METAR LRTZ 262000Z 30010KT 9999 BKN100 M00/M02 Q1020 BLU
                        BLU=
201812262100 METAR LRTZ 262100Z 30010KT 9999 BKN100 00/M02 Q1020 BLU BLU=
201812262300 METAR LRTZ 262300Z 30010KT 9999 BKN100 00/M02 Q1020 BLU BLU=
201812270400 METAR LRTZ 270400Z 30010KT 9999 SCT050 BKN100 01M00 Q1020
                        BLU BLU=
201812270500 METAR LRTZ 270500Z 30010KT 9999 BKN060 01/00 Q1020 BLU BLU=
201812270600 METAR LRTZ 270600Z 30008KT 9999 BKN060 01/M01 Q1021 BLU BLU=
201812270700 METAR LRTZ 270700Z 28010KT 9999 BKN060 BKN100 02/M01 Q1021
                        BLU BLU=
201812270800 METAR LRTZ 270800Z 30012KT 9999 FEW035 BKN065 02/M01 Q1022
                        BLU BLU=
201812270900 METAR LRTZ 270900Z 31014KT 9999 FEW035 BKN070 03/M01 Q1022
                        BLU BLU=
201812271000 METAR LRTZ 271000Z 30016KT 9999 FEW035 BKN065 04/M00 Q1022
                        BLU BLU=
201812271100 METAR LRTZ 271100Z 30016KT 9999 BKN065 04/00 Q1021 BLU BLU=
201812271200 METAR LRTZ 271200Z 31014KT 9999 BKN060 05/01 Q1021 BLU BLU=
201812271300 METAR LRTZ 271300Z 33012KT 9999 BKN065 06/01 Q1022 BLU BLU=
201812271400 METAR LRTZ 271400Z 32010KT 9999 SCT065 SCT200 05/01 Q1022
                        BLU BLU=
201812271500 METAR LRTZ 271500Z 33010KT 9999 SCT070 SCT200 03/M00 Q1022
                        BLU BLU=
201812271600 METAR LRTZ 271600Z 31006KT 9999 BKN070 01/M01 Q1022 BLU BLU=
201812271700 METAR LRTZ 271700Z 29006KT 9999 BKN060 02/M00 Q1023 BLU BLU=
201812271800 METAR LRTZ 271800Z 30008KT 9999 BKN060 02/M00 Q1023 BLU BLU=
201812271900 METAR LRTZ 271900Z 29008KT 9999 BKN060 02/00 Q1023 BLU BLU=
201812272000 METAR LRTZ 272000Z 30006KT 9999 BKN060 02/00 Q1023 BLU BLU=
201812272100 METAR LRTZ 272100Z 29006KT 9999 BKN050 01/M00 Q1023 BLU BLU=
201812272200 METAR LRTZ 272200Z 30006KT 9999 BKN050 01/M01 Q1023 BLU BLU=
201812272300 METAR LRTZ 272300Z 28006KT 9999 BKN050 01/M01 Q1023 BLU BLU=
201812280400 METAR LRTZ 280400Z 28010KT 9000 FEW080 00/M02 Q1021 BLU BLU=
201812280500 METAR LRTZ 280500Z 28012KT 9000 FEW100 00/M02 Q1021 BLU BLU=
201812280600 METAR LRTZ 280600Z 28012KT 9999 FEW100 00/M02 Q1021 BLU BLU=
201812280700 METAR LRTZ 280700Z 29012KT 9999 FEW100 02/M01 Q1021 BLU BLU=
201812280800 METAR LRTZ 280800Z 29014KT 9999 SCT090 03/00 Q1020 BLU BLU=
201812280900 METAR LRTZ 280900Z 29016KT 9999 BKN090 04/01 Q1020 BLU BLU=
201812281000 METAR LRTZ 281000Z 29016KT 9999 BKN050 BKN090 05/01 Q1020
                        BLU BLU=
201812281100 METAR LRTZ 281100Z 29014KT 9999 BKN050 OVC090 05/01 Q1019
                        BLU BLU=
201812281200 METAR LRTZ 281200Z 29014KT 9999 OVC050 07/02 Q1018 BLU BLU=
201812281300 METAR LRTZ 281300Z 31010KT 9999 BKN100 08/02 Q1018 BLU BLU=
201812281400 METAR LRTZ 281400Z 31010KT 9999 SCT050 BKN100 08/02 Q1018
                        BLU BLU=
201812281500 METAR LRTZ 281500Z 31008KT 9999 SCT050 BKN080 05/02 Q1018
                        BLU BLU=
201812281600 METAR LRTZ 281600Z 31008KT 9999 BKN050 OVC080 05/02 Q1018
                        BLU BLU=
201812281700 METAR LRTZ 281700Z 31008KT 9999 BKN050 OVC080 05/02 Q1019
                        BLU BLU=
201812281800 METAR LRTZ 281800Z 29006KT 8000 -RA BKN030 OVC080 04/02 Q1019
                        BLU WHT=
201812282000 METAR LRTZ 282000Z VRB03KT 6000 -RA BKN030 OVC050 03/03 Q1019
                        WHT WHT=
201812282100 METAR LRTZ 282100Z VRB03KT 6000 -RA BKN030 OVC050 03/03 Q1019
                        WHT WHT=
201812282300 METAR LRTZ 282300Z VRB03KT 6000 -RA BKN030 OVC050 03/03 Q1018
                        WHT BLU=
201812290300 METAR LRTZ 290300Z 34012KT 8000 BKN030 OVC050 02/02 Q1018
                        BLU BLU=
201812290400 METAR LRTZ 290400Z 34012KT 4000 -RA BR BKN030 OVC050 03/03
                        Q1017 GRN GRN=
201812290600 METAR LRTZ 290600Z 34006KT 4000 BR BKN035 OVC060 04/03 Q1018
                        GRN WHT=
201812290700 METAR LRTZ 290700Z 34006KT 7000 BKN040 OVC060 05/04 Q1018
                        WHT BLU=
201812290800 METAR LRTZ 290800Z 33010KT 3000 -RA BR BKN020 OVC035 05/04
                        Q1018 YLO GRN=
201812291000 METAR LRTZ 291000Z 33008KT 2000 -DZ BR SCT003 BKN025 OVC050
                        05/04 Q1018 YLO YLO=
201812291100 METAR LRTZ 291100Z 33008KT 2000 -DZ BR SCT003 BKN040 OVC060
                        05/04 Q1018 YLO YLO=
201812291200 METAR LRTZ 291200Z 33010KT 5000 BR SCT010 BKN030 OVC060 06/04
                        Q1019 WHT WHT=
201812291300 METAR LRTZ 291300Z 35014KT 9999 FEW020 BKN060 06/03 Q1019
                        BLU BLU=
201812291400 METAR LRTZ 291400Z 36014KT 9999 SCT025 BKN070 BKN200 05/02
                        Q1020 BLU BLU=
201812291500 METAR LRTZ 291500Z 35012KT 9999 SCT020 BKN060 BKN180 04/01
                        Q1020 BLU BLU=
201812291600 METAR LRTZ 291600Z 34010KT 9999 BKN050 OVC070 04/02 Q1020
                        BLU BLU=
201812291700 METAR LRTZ 291700Z 34008KT 9999 SCT060 OVC140 03/01 Q1021
                        BLU BLU=
201812291800 METAR LRTZ 291800Z 34006KT 9999 SCT050 OVC140 03/01 Q1021
                        BLU BLU=
201812291900 METAR LRTZ 291900Z 34006KT 9999 BKN050 OVC100 03/01 Q1021
                        BLU BLU=
201812292000 METAR LRTZ 292000Z 34010KT 9999 BKN050 BKN080 03/01 Q1022
                        BLU BLU=
201812292100 METAR LRTZ 292100Z 34010KT 9999 SCT050 BKN100 03/01 Q1022
                        BLU BLU=
201812292200 METAR LRTZ 292200Z 33010KT 9999 SCT040 BKN100 03/01 Q1022
                        BLU BLU=
201812292300 METAR LRTZ 292300Z 33008KT 9999 SCT040 BKN080 02/00 Q1022
                        BLU BLU=
201812300000 METAR LRTZ 300000Z 33008KT 9999 SCT040 BKN080 02/00 Q1023
                        BLU BLU=
201812300100 METAR LRTZ 300100Z 33008KT 9999 SCT030 BKN080 01/M00 Q1023
                        BLU BLU=
201812300300 METAR LRTZ 300300Z 33006KT 7000 BKN015 BKN100 00/M01 Q1023
                        WHT WHT=
201812300400 METAR LRTZ 300400Z 33008KT 9999 SCT025 BKN100 02/00 Q1021
                        BLU BLU=
201812300500 METAR LRTZ 300500Z 33010KT 9999 SCT035 BKN100 01/00 Q1022
                        BLU BLU=
201812300600 METAR LRTZ 300600Z 33010KT 9999 SCT035 BKN100 01/00 Q1022
                        BLU BLU=
201812300700 METAR LRTZ 300700Z 33010KT 9999 SCT035 OVC100 01/00 Q1023
                        BLU BLU=
201812300800 METAR LRTZ 300800Z 33010KT 9999 SCT035 OVC100 02/00 Q1023
                        BLU BLU=
201812300900 METAR LRTZ 300900Z 33010KT 9999 SCT020 OVC100 03/00 Q1023
                        BLU BLU=
201812301000 METAR LRTZ 301000Z 33010KT 9999 SCT020 OVC090 04/01 Q1023
                        BLU BLU=
201812301100 METAR LRTZ 301100Z 33010KT 9999 SCT020 OVC090 03/00 Q1022
                        BLU BLU=
201812301200 METAR LRTZ 301200Z 33010KT 9999 SCT020 OVC090 03/00 Q1022
                        BLU BLU=
201812301300 METAR LRTZ 301300Z 33010KT 9999 SCT020 OVC090 03/01 Q1022
                        BLU BLU=
201812301400 METAR LRTZ 301400Z 33008KT 9999 SCT020 OVC090 03/01 Q1022
                        BLU BLU=
201812301500 METAR LRTZ 301500Z 33006KT 9999 SCT020 OVC090 03/01 Q1022
                        BLU BLU=
201812301600 METAR LRTZ 301600Z VRB03KT 9999 SCT020 OVC090 02/00 Q1023
                        BLU BLU=
201812301700 METAR LRTZ 301700Z VRB03KT 9999 SCT020 OVC090 01/00 Q1023
                        BLU BLU=
201812301800 METAR LRTZ 301800Z VRB03KT 9999 SCT020 OVC090 01/00 Q1023
                        BLU BLU=
201812301900 METAR LRTZ 301900Z VRB03KT 9999 SCT020 OVC090 01/00 Q1023
                        BLU BLU=
201812302000 METAR LRTZ 302000Z VRB03KT 9999 SCT020 OVC090 01/00 Q1023
                        BLU BLU=
201812302100 METAR LRTZ 302100Z VRB03KT 9999 SCT020 OVC090 01/00 Q1023
                        BLU BLU=
201812302300 METAR LRTZ 302300Z VRB03KT 9999 SCT020 OVC090 01/00 Q1023
                        BLU BLU=
201812310400 METAR LRTZ 310400Z VRB03KT 5000 BR SCT010 OVC050 01/M01 Q1022
                        WHT WHT=
201812310500 METAR LRTZ 310500Z VRB03KT 5000 BR SCT010 OVC050 01/00 Q1022
                        WHT WHT=
201812310600 METAR LRTZ 310600Z VRB03KT 5000 BR SCT010 OVC090 01/00 Q1023
                        WHT WHT=
201812310700 METAR LRTZ 310700Z VRB03KT 5000 BR BKN090 01/00 Q1023 WHT
                        BLU=
201812310800 METAR LRTZ 310800Z VRB03KT 5000 BR BKN090 02/01 Q1023 WHT
                        WHT=
201812310900 METAR LRTZ 310900Z 33006KT 3000 BR FEW010 BKN090 02/01 Q1023
                        YLO YLO=
201812311000 METAR LRTZ 311000Z 33006KT 4000 BR FEW005 BKN090 05/03 Q1023
                        GRN GRN=
201812311100 METAR LRTZ 311100Z 33004KT 7000 FEW005 BKN090 06/02 Q1022
                        WHT BLU=
201812311200 METAR LRTZ 311200Z VRB03KT 8000 SCT015 BKN090 07/02 Q1022
                        BLU BLU=
201812311300 METAR LRTZ 311300Z VRB03KT 9999 SCT015 08/03 Q1022 BLU BLU=
201812311400 METAR LRTZ 311400Z VRB03KT 8000 FEW009 SCT017 06/03 Q1023
                        BLU WHT=
201812311500 METAR LRTZ 311500Z VRB03KT 5000 BR SCT090 04/02 Q1023 WHT
                        WHT=
201812311600 METAR LRTZ 311600Z VRB02KT 3000 BR SCT090 03/02 Q1024 YLO
                        YLO=
201812311700 METAR LRTZ 311700Z VRB02KT 5000 BR BKN010 04/03 Q1025 GRN
                        GRN=
201812311800 METAR LRTZ 311800Z VRB02KT 6000 BKN080 04/02 Q1025 WHT WHT=
201812311900 METAR LRTZ 311900Z VRB03KT 3000 BR FEW014 BKN080 02/01 Q1025
                        YLO YLO=
201812312000 METAR LRTZ 312000Z VRB03KT 3000 BR FEW020 BKN080 04/02 Q1026
                        YLO YLO=
201812312100 METAR LRTZ 312100Z VRB03KT 3000 BR BKN080 02/01 Q1026 YLO
                        YLO=
201812312300 METAR LRTZ 312300Z VRB03KT 3000 BR BKN080 02/01 Q1026 YLO
                        YLO=
