201812010000 METAR LRBC 010000Z 34005KT CAVOK M09/M13 Q1023=
201812010030 METAR LRBC 010030Z AUTO 32003KT 9999 FEW055/// M10/M14 Q1023=
201812010100 METAR LRBC 010100Z 34006KT 9999 BKN055 M10/M13 Q1023=
201812010130 METAR COR LRBC 010130Z 32004KT 9999 BKN055 M09/M13 Q1022=
201812010200 METAR LRBC 010200Z AUTO 36004KT 9999 BKN055/// M10/M13 Q1022=
201812010230 METAR LRBC 010230Z AUTO 35004KT 9999 BKN055/// M10/M13 Q1022=
201812010300 METAR LRBC 010300Z 36003KT 9999 FEW055 M10/M12 Q1021=
201812010330 METAR LRBC 010330Z AUTO 36004KT 350V050 9999 NCD M10/M14
                        Q1021=
201812010400 METAR LRBC 010400Z 09002KT 9999 FEW040 M11/M14 Q1021=
201812010430 METAR LRBC 010430Z 09002KT 9999 FEW040 M11/M14 Q1021=
201812010500 METAR LRBC 010500Z 31002KT CAVOK M13/M15 Q1021=
201812010530 METAR LRBC 010530Z 00000KT CAVOK M13/M15 Q1021=
201812010600 METAR LRBC 010600Z 00000KT CAVOK M13/M16 Q1021=
201812010630 METAR LRBC 010630Z 00000KT CAVOK M12/M15 Q1021=
201812010700 METAR LRBC 010700Z 00000KT CAVOK M11/M14 Q1022=
201812010730 METAR LRBC 010730Z 00000KT CAVOK M08/M12 Q1021=
201812010800 METAR LRBC 010800Z 00000KT CAVOK M09/M12 Q1022=
201812010830 METAR LRBC 010830Z 23002KT CAVOK M08/M12 Q1021=
201812010900 METAR LRBC 010900Z 00000KT CAVOK M04/M11 Q1021=
201812010930 METAR LRBC 010930Z 00000KT CAVOK M06/M11 Q1021=
201812011000 METAR LRBC 011000Z 00000KT CAVOK M05/M11 Q1021=
201812011030 METAR LRBC 011030Z 00000KT CAVOK M04/M11 Q1021=
201812011100 METAR LRBC 011100Z 00000KT CAVOK M05/M11 Q1021=
201812011130 METAR LRBC 011130Z 00000KT CAVOK M03/M10 Q1020=
201812011200 METAR LRBC 011200Z 00000KT CAVOK M02/M10 Q1020=
201812011230 METAR LRBC 011230Z 00000KT CAVOK M04/M10 Q1020=
201812011300 METAR LRBC 011300Z VRB01KT CAVOK M03/M09 Q1020=
201812011330 METAR LRBC 011330Z 19002KT CAVOK M04/M09 Q1020=
201812011400 METAR LRBC 011400Z 18004KT CAVOK M05/M10 Q1020=
201812011430 METAR LRBC 011430Z 15001KT CAVOK M04/M10 Q1020=
201812011500 METAR LRBC 011500Z 00000KT CAVOK M06/M10 Q1021=
201812011530 METAR LRBC 011530Z 00000KT CAVOK M06/M10 Q1021=
201812011600 METAR LRBC 011600Z 00000KT CAVOK M06/M10 Q1021=
201812011630 METAR LRBC 011630Z 00000KT CAVOK M07/M10 Q1021=
201812011700 METAR LRBC 011700Z 00000KT CAVOK M07/M10 Q1021=
201812011730 METAR LRBC 011730Z 00000KT CAVOK M07/M10 Q1022=
201812011800 METAR LRBC 011800Z 00000KT CAVOK M08/M11 Q1022=
201812011830 METAR LRBC 011830Z 35003KT CAVOK M08/M11 Q1022=
201812011900 METAR LRBC 011900Z 35002KT CAVOK M10/M13 Q1022=
201812011930 METAR LRBC 011930Z 36003KT 330V030 CAVOK M10/M13 Q1022=
201812012000 METAR LRBC 012000Z VRB01KT 7000 NSC M10/M12 Q1022=
201812012030 METAR LRBC 012030Z 33003KT 7000 NSC M12/M14 Q1022=
201812012100 METAR LRBC 012100Z 35002KT 6000 NSC M11/M13 Q1022=
201812012130 METAR LRBC 012130Z 00000KT 6000 NSC M11/M13 Q1022=
201812012200 METAR LRBC 012200Z 00000KT 5000 BR NSC M11/M13 Q1022=
201812012230 METAR LRBC 012230Z 00000KT 6000 NSC M12/M15 Q1022=
201812012300 METAR LRBC 012300Z 00000KT 8000 NSC M12/M14 Q1022=
201812012330 METAR LRBC 012330Z 00000KT CAVOK M12/M14 Q1022=
201812020000 METAR LRBC 020000Z 31002KT CAVOK M12/M14 Q1022=
201812020030 METAR LRBC 020030Z 00000KT 6000 NSC M12/M14 Q1022=
201812020100 METAR LRBC 020100Z 00000KT 6000 NSC M11/M13 Q1022=
201812020130 METAR LRBC 020130Z 00000KT 6000 NSC M12/M14 Q1022=
201812020200 METAR LRBC 020200Z AUTO 00000KT 6000 NCD M13/M15 Q1022=
201812020230 METAR LRBC 020230Z 00000KT 6000 NSC M13/M14 Q1022=
201812020300 METAR LRBC 020300Z 00000KT 6000 NSC M13/M15 Q1022=
201812020330 METAR LRBC 020330Z 00000KT 5000 BR NSC M13/M14 Q1022=
201812020400 METAR LRBC 020400Z 00000KT 6000 NSC M13/M15 Q1022=
201812020430 METAR LRBC 020430Z 00000KT 6000 NSC M13/M16 Q1023=
201812020500 METAR LRBC 020500Z 00000KT 7000 NSC M13/M16 Q1023=
201812020530 METAR LRBC 020530Z 00000KT 7000 NSC M13/M16 Q1023=
201812020600 METAR LRBC 020600Z 33005KT 7000 NSC M14/M16 Q1024=
201812020630 METAR LRBC 020630Z 35005KT 6000 NSC M13/M15 Q1024=
201812020700 METAR LRBC 020700Z 03002KT 6000 NSC M11/M13 Q1024=
201812020730 METAR LRBC 020730Z 18003KT 6000 NSC M11/M13 Q1024=
201812020800 METAR LRBC 020800Z 00000KT 6000 NSC M10/M12 Q1024=
201812020830 METAR LRBC 020830Z 00000KT 6000 NSC M09/M12 Q1024=
201812020900 METAR LRBC 020900Z 00000KT 6000 NSC M06/M11 Q1024=
201812020930 METAR LRBC 020930Z 00000KT 6000 NSC M05/M11 Q1023=
201812021000 METAR LRBC 021000Z 29001KT 6000 NSC M06/M11 Q1023=
201812021030 METAR LRBC 021030Z 00000KT 6000 NSC M04/M10 Q1022=
201812021100 METAR LRBC 021100Z 00000KT 6000 NSC M04/M09 Q1022=
201812021130 METAR LRBC 021130Z 14004KT 6000 NSC M03/M08 Q1022=
201812021200 METAR LRBC 021200Z 15003KT 7000 NSC M03/M08 Q1022=
201812021230 METAR LRBC 021230Z 16005KT 8000 NSC M02/M07 Q1021=
201812021300 METAR LRBC 021300Z 17008KT 8000 NSC M02/M07 Q1021=
201812021330 METAR LRBC 021330Z 17008KT CAVOK M02/M07 Q1021=
201812021400 METAR LRBC 021400Z 17008KT CAVOK M02/M07 Q1021=
201812021430 METAR LRBC 021430Z 17009KT CAVOK M03/M07 Q1021=
201812021500 METAR LRBC 021500Z 17008KT CAVOK M03/M08 Q1021=
201812021530 METAR LRBC 021530Z 17008KT CAVOK M04/M07 Q1021=
201812021600 METAR LRBC 021600Z 17008KT CAVOK M04/M07 Q1021=
201812021630 METAR LRBC 021630Z 17010KT CAVOK M03/M07 Q1021=
201812021700 METAR LRBC 021700Z 16010KT CAVOK M03/M07 Q1021=
201812021730 METAR LRBC 021730Z 17008KT CAVOK M04/M07 Q1021=
201812021800 METAR LRBC 021800Z 17010KT CAVOK M04/M07 Q1021=
201812021830 METAR LRBC 021830Z 17011KT CAVOK M04/M07 Q1021=
201812021900 METAR LRBC 021900Z 17012KT CAVOK M04/M07 Q1021=
201812021930 METAR LRBC 021930Z 16011KT CAVOK M04/M07 Q1021=
201812022000 METAR LRBC 022000Z 17011KT CAVOK M05/M07 Q1021=
201812022030 METAR LRBC 022030Z 17010KT 7000 NSC M05/M07 Q1020=
201812022100 METAR LRBC 022100Z 17012KT 7000 NSC M05/M07 Q1020=
201812022130 METAR LRBC 022130Z 17013KT 7000 NSC M05/M07 Q1020=
201812022200 METAR LRBC 022200Z 17011KT 7000 NSC M05/M07 Q1020=
201812022230 METAR LRBC 022230Z 18011KT 7000 NSC M05/M07 Q1020=
201812022300 METAR LRBC 022300Z 18011KT 6000 NSC M05/M07 Q1019=
201812022330 METAR LRBC 022330Z AUTO 18011KT 4700 BR NCD M05/M07 Q1019=
201812030000 METAR LRBC 030000Z 18013KT 7000 NSC M05/M07 Q1019=
201812030030 METAR LRBC 030030Z AUTO 18013KT 4300 BR NCD M05/M07 Q1019=
201812030100 METAR LRBC 030100Z 18013KT 5000 BR NSC M05/M07 Q1018=
201812030130 METAR LRBC 030130Z 18012KT 4500 BR NSC M05/M07 Q1018=
201812030200 METAR LRBC 030200Z 18010KT 4000 BR NSC M06/M08 Q1018=
201812030230 METAR LRBC 030230Z 20009KT 4000 BR NSC M06/M08 Q1017=
201812030300 METAR LRBC 030300Z 19010KT 4000 BR NSC M06/M08 Q1017=
201812030330 METAR LRBC 030330Z 18012KT 5000 BR NSC M06/M08 Q1017=
201812030400 METAR LRBC 030400Z 19010KT 4000 BR NSC M06/M08 Q1017=
201812030430 METAR LRBC 030430Z 18011KT 5000 BR NSC M06/M08 Q1017=
201812030500 METAR LRBC 030500Z 18009KT 4000 BR NSC M07/M09 Q1017=
201812030530 METAR LRBC 030530Z 19010KT 4000 BR NSC M07/M09 Q1017=
201812030600 METAR LRBC 030600Z 18011KT 6000 NSC M07/M09 Q1017=
201812030630 METAR LRBC 030630Z 18012KT 4000 1500S BR NSC M08/M09 Q1017=
201812030700 METAR LRBC 030700Z 18014KT 2500 1000S R34/1400 BR NSC M07/M09
                        Q1017=
201812030730 METAR LRBC 030730Z 18013KT 3000 BR NSC M06/M08 Q1017=
201812030800 METAR LRBC 030800Z 18014KT 3000 BR NSC M06/M07 Q1017=
201812030830 METAR LRBC 030830Z 18014KT 3000 BR NSC M05/M07 Q1016=
201812030900 METAR LRBC 030900Z 17016KT 3000 BR NSC M05/M07 Q1016=
201812030930 METAR LRBC 030930Z 17015KT 4000 BR NSC M04/M07 Q1016=
201812031000 METAR LRBC 031000Z 18013KT 4000 BR NSC M03/M06 Q1016=
201812031030 METAR LRBC 031030Z 17014KT 4000 BR NSC M03/M06 Q1015=
201812031100 METAR LRBC 031100Z 18014KT 4000 BR NSC M03/M06 Q1015=
201812031130 METAR LRBC 031130Z 17015KT 4000 BR NSC M03/M05 Q1015=
201812031200 METAR LRBC 031200Z 17017KT 4000 BR NSC M03/M05 Q1015=
201812031230 METAR LRBC 031230Z 17015KT 3000 BR NSC M02/M05 Q1015=
201812031300 METAR LRBC 031300Z 17014KT 3000 BR NSC M02/M04 Q1015=
201812031330 METAR LRBC 031330Z 17012KT 3000 BR NSC M01/M04 Q1014=
201812031400 METAR LRBC 031400Z 18012KT 3500 BR NSC M01/M04 Q1015=
201812031430 METAR LRBC 031430Z 18011KT 4000 BR NSC M01/M04 Q1014=
201812031500 METAR LRBC 031500Z 19009KT 5000 BR NSC M01/M04 Q1014=
201812031530 METAR LRBC 031530Z 19010KT 5000 BR NSC M01/M04 Q1014=
201812031600 METAR LRBC 031600Z AUTO 19010KT 5000 BR NCD M01/M04 Q1014=
201812031630 METAR LRBC 031630Z 19009KT 5000 BR NSC M01/M04 Q1014=
201812031700 METAR LRBC 031700Z 18010KT 5000 BR NSC M01/M04 Q1014=
201812031730 METAR LRBC 031730Z 17010KT 5000 BR NSC M01/M04 Q1014=
201812031800 METAR LRBC 031800Z 17011KT 5000 BR NSC M01/M04 Q1014=
201812031830 METAR LRBC 031830Z 17010KT 5000 BR NSC M02/M04 Q1014=
201812031900 METAR LRBC 031900Z 17011KT 6000 NSC M02/M04 Q1014=
201812031930 METAR LRBC 031930Z 17011KT 6000 NSC M02/M04 Q1014=
201812032000 METAR LRBC 032000Z 17012KT 6000 NSC M02/M05 Q1014=
201812032030 METAR LRBC 032030Z 17012KT 6000 NSC M02/M04 Q1014=
201812032100 METAR LRBC 032100Z 17011KT 5000 BR NSC M02/M05 Q1014=
201812032130 METAR LRBC 032130Z 17011KT 5000 BR NSC M02/M05 Q1014=
201812032200 METAR LRBC 032200Z 17011KT 5000 BR NSC M02/M05 Q1014=
201812032230 METAR LRBC 032230Z 17011KT 5000 BR NSC M02/M05 Q1014=
201812032300 METAR LRBC 032300Z 18012KT 5000 BR NSC M03/M05 Q1014=
201812032330 METAR LRBC 032330Z 18011KT 5000 BR NSC M03/M05 Q1014=
201812040000 METAR LRBC 040000Z AUTO 17013KT 4100 BR BKN100/// M03/M05
                        Q1014=
201812040030 METAR LRBC 040030Z AUTO 17014KT 4100 BR NCD M03/M05 Q1014=
201812040100 METAR LRBC 040100Z AUTO 17012KT 3900 BR NCD M03/M05 Q1014=
201812040130 METAR LRBC 040130Z AUTO 17011KT 3900 BR NCD M03/M05 Q1014=
201812040200 METAR LRBC 040200Z 17010KT 5000 BR NSC M03/M05 Q1014=
201812040230 METAR LRBC 040230Z 17010KT 5000 BR NSC M03/M05 Q1014=
201812040300 METAR LRBC 040300Z 17008KT 4000 BR NSC M03/M05 Q1014=
201812040330 METAR LRBC 040330Z 17008KT 4000 BR NSC M04/M05 Q1014=
201812040400 METAR LRBC 040400Z 17008KT 4000 BR NSC M04/M05 Q1014=
201812040430 METAR LRBC 040430Z 16009KT 4000 BR NSC M04/M06 Q1013=
201812040500 METAR LRBC 040500Z 16008KT 3800 BR NSC M05/M06 Q1013=
201812040530 METAR LRBC 040530Z 16006KT 3800 BR NSC M05/M06 Q1014=
201812040600 METAR LRBC 040600Z 16007KT 3000 BR NSC M05/M07 Q1014=
201812040630 METAR LRBC 040630Z 16006KT 2500 BR NSC M05/M06 Q1015=
201812040700 METAR LRBC 040700Z 16005KT 2500 BR NSC M05/M07 Q1015=
201812040730 METAR LRBC 040730Z 17005KT 2000 BR NSC M04/M06 Q1015=
201812040800 METAR LRBC 040800Z 17004KT 2000 BR NSC M04/M06 Q1015=
201812040830 METAR LRBC 040830Z 17005KT 2500 BR NSC M03/M05 Q1015=
201812040900 METAR LRBC 040900Z 16006KT 3000 BR NSC M02/M05 Q1015=
201812040930 METAR LRBC 040930Z 17008KT 3000 BR NSC M02/M04 Q1014=
201812041000 METAR LRBC 041000Z 17010KT 3000 BR NSC M01/M04 Q1014=
201812041030 METAR LRBC 041030Z 16008KT 3000 BR NSC M01/M04 Q1014=
201812041100 METAR LRBC 041100Z 16009KT 3000 BR NSC M01/M04 Q1014=
201812041130 METAR LRBC 041130Z 18007KT 3000 BR NSC M00/M03 Q1013=
201812041200 METAR LRBC 041200Z 17007KT 4000 BR NSC 01/M03 Q1013=
201812041230 METAR LRBC 041230Z 17007KT 4000 BR NSC 01/M02 Q1013=
201812041300 METAR LRBC 041300Z 17007KT 4000 BR NSC 01/M02 Q1013=
201812041330 METAR LRBC 041330Z 16005KT 4000 BR NSC 01/M02 Q1013=
201812041400 METAR LRBC 041400Z 15005KT 3000 BR NSC 00/M02 Q1013=
201812041430 METAR LRBC 041430Z 16006KT 3000 BR NSC M00/M03 Q1014=
201812041500 METAR LRBC 041500Z 16005KT 4000 BR NSC M00/M03 Q1014=
201812041530 METAR LRBC 041530Z 17006KT 4000 BR NSC M01/M03 Q1014=
201812041600 METAR LRBC 041600Z 16007KT 4000 BR NSC M01/M03 Q1014=
201812041630 METAR LRBC 041630Z 17007KT 3000 BR NSC M01/M03 Q1014=
201812041700 METAR LRBC 041700Z 16007KT 3000 BR NSC M01/M03 Q1014=
201812041730 METAR LRBC 041730Z 17007KT 3000 BR NSC M01/M04 Q1014=
201812041800 METAR LRBC 041800Z 18006KT 3500 BR NSC M02/M04 Q1014=
201812041830 METAR LRBC 041830Z 19006KT 3500 BR NSC M02/M04 Q1014=
201812041900 METAR LRBC 041900Z 19006KT 2500 BR NSC M02/M03 Q1014=
201812041930 METAR LRBC 041930Z 19008KT 2500 BR NSC M01/M03 Q1014=
201812042000 METAR LRBC 042000Z 18006KT 2500 BR NSC M02/M03 Q1014=
201812042030 METAR LRBC 042030Z 17004KT 2000 BR NSC M02/M03 Q1015=
201812042100 METAR LRBC 042100Z 16005KT 2500 BR NSC M02/M03 Q1015=
201812042130 METAR LRBC 042130Z 20006KT 2500 BR NSC M03/M04 Q1015=
201812042200 METAR LRBC 042200Z 17003KT 2000 BR BKN001 M02/M04 Q1015=
201812042230 METAR LRBC 042230Z 20003KT 1500 BR FEW001 OVC004 M02/M03
                        Q1015=
201812042300 METAR LRBC 042300Z 22002KT 1200 R34/1600U BR OVC003 M02/M03
                        Q1015=
201812042330 METAR LRBC 042330Z 22003KT 0300 R34/0550N FZFG OVC003 M02/M03
                        Q1016=
201812050000 METAR LRBC 050000Z 15002KT 110V170 0200 R34/0450U FZFG BKN003
                        M02/M03 Q1016=
201812050030 METAR LRBC 050030Z 00000KT 0150 R34/0275N FZFG SCT001 OVC003
                        M02/M03 Q1016=
201812050100 METAR LRBC 050100Z 00000KT 0800 R34/1100U FZFG SCT001 OVC024
                        M01/M02 Q1016=
201812050130 METAR LRBC 050130Z 00000KT 1500 BR SCT001 BKN015 OVC022 M01/M02
                        Q1016=
201812050200 METAR LRBC 050200Z VRB01KT 1500 -FZDZ BR FEW001 OVC013 M01/M02
                        Q1016=
201812050230 METAR LRBC 050230Z 35004KT 330V030 1500 -FZDZ BR SCT010 OVC013
                        M01/M01 Q1017=
201812050300 METAR LRBC 050300Z 03003KT 1500 -FZDZ BR FEW012 OVC016 M00/M01
                        Q1017=
201812050330 METAR LRBC 050330Z 03003KT 360V060 1200 R34/1500N -FZDZ BR
                        FEW010 BKN015 OVC023 M00/M01 Q1017=
201812050400 METAR LRBC 050400Z 03004KT 1500 -FZDZRA BR SCT014 OVC018
                        00/M00 Q1018 R16/350291=
201812050430 METAR LRBC 050430Z 03004KT 1400 R34/1700N -FZRA BKN019 OVC023
                        01/00 Q1018 R16/350291=
201812050500 METAR LRBC 050500Z 02004KT 1500 -FZDZRA BR FEW016 OVC020
                        01/00 Q1018 R16/390101=
201812050530 METAR LRBC 050530Z 35009KT 8000 -RA FEW013 OVC022 03/02 Q1018
                        REFZDZRA R16/SNOCLO=
201812050600 METAR LRBC 050600Z 34014KT 9999 -RA BKN017 OVC023 04/01 Q1019
                        R16/390191=
201812050630 METAR LRBC 050630Z 34014KT 9999 -RA FEW015 OVC022 04/01 Q1019
                        R16/320194=
201812050700 METAR LRBC 050700Z 35014KT 9999 -RA BKN015 OVC026 04/01 Q1020
                        R16/320194=
201812050730 METAR LRBC 050730Z 35017KT 9999 -RA BKN017 OVC031 04/01 Q1020
                        R16/210295=
201812050800 METAR LRBC 050800Z 34015KT 9999 -RA BKN022 OVC030 04/01 Q1020
                        R16/210295=
201812050830 METAR LRBC 050830Z 34020KT 9999 -RA BKN020 BKN028 04/01 Q1021
                        R16/210295=
201812050900 METAR LRBC 050900Z 35013KT 9999 RA SCT014 BKN018 OVC022 03/01
                        Q1021 R16/210295=
201812050930 METAR LRBC 050930Z 34017KT 9999 -RA SCT013 BKN016 OVC019
                        04/01 Q1021 R16/210295=
201812051000 METAR LRBC 051000Z 33017KT 9999 -RA FEW016 SCT022 BKN030
                        03/01 Q1021 R16/210295=
201812051030 METAR LRBC 051030Z 33020KT 9999 -RA SCT021 BKN029 04/01 Q1021
                        R16/210295=
201812051100 METAR LRBC 051100Z 34017KT 9999 -RA FEW019 BKN035 OVC042
                        04/01 Q1021 R16/210295=
201812051130 METAR LRBC 051130Z 34017KT 9999 -DZ SCT019 BKN038 BKN043
                        04/00 Q1021 R16/210295=
201812051200 METAR LRBC 051200Z 34018KT 9999 FEW017 BKN055 04/00 Q1021
                        R16/210295=
201812051230 METAR LRBC 051230Z 34020KT 9999 FEW018 BKN055 04/M00 Q1022
                        R16/19//95=
201812051300 METAR LRBC 051300Z 35019KT 9999 FEW060 04/M00 Q1022 R16/19//95=
201812051330 METAR LRBC 051330Z 35017KT 9999 -RA SCT033 BKN055 03/M00
                        Q1022 R16/19//95=
201812051400 METAR LRBC 051400Z 36011KT 9999 SCT033 BKN055 03/M00 Q1022
                        R16/19//95=
201812051430 METAR LRBC 051430Z 35012KT 9999 SCT033 BKN055 03/M00 Q1022
                        R16/19//95=
201812051500 METAR LRBC 051500Z 34014KT 9999 SCT055 03/M01 Q1023 R16/19//95=
201812051530 METAR LRBC 051530Z 35013KT 9999 SCT055 03/M02 Q1023 R16/19//95=
201812051600 METAR LRBC 051600Z 34010KT 9999 SCT055 03/M02 Q1024 R16/19//95=
201812051630 METAR LRBC 051630Z 34015KT 9999 FEW045 SCT055 03/M03 Q1024
                        R16/19//95=
201812051700 METAR LRBC 051700Z 34016KT 9999 FEW045 SCT055 03/M04 Q1024
                        R16/19//95=
201812051730 METAR LRBC 051730Z 34015KT 9999 FEW046 02/M04 Q1025 R16/19//95=
201812051800 METAR LRBC 051800Z 34015KT 9999 BKN048 02/M03 Q1025 R16/CLRD//=
201812051830 METAR LRBC 051830Z 33016KT 9999 BKN049 03/M03 Q1025=
201812051900 METAR LRBC 051900Z 34017KT 9999 OVC050 03/M04 Q1025=
201812051930 METAR LRBC 051930Z 33018KT 9999 BKN050 03/M04 Q1025=
201812052000 METAR LRBC 052000Z 33018KT 9999 BKN050 03/M05 Q1025=
201812052030 METAR LRBC 052030Z 33016KT 9999 OVC050 03/M04 Q1025=
201812052100 METAR LRBC 052100Z 32019KT 9999 OVC050 03/M04 Q1025=
201812052130 METAR LRBC 052130Z 32016KT 9999 OVC050 03/M04 Q1025=
201812052200 METAR LRBC 052200Z 33015KT 9999 OVC050 03/M04 Q1025=
201812052230 METAR LRBC 052230Z 33020KT 9999 BKN050 03/M05 Q1025=
201812052300 METAR LRBC 052300Z 33016KT 9999 OVC046 03/M04 Q1025=
201812052330 METAR LRBC 052330Z AUTO 34017KT 9999 OVC048/// 03/M05 Q1025=
201812060000 METAR LRBC 060000Z AUTO 33018KT 9999 OVC047/// 03/M05 Q1026=
201812060030 METAR LRBC 060030Z 33013KT 9999 OVC045 02/M04 Q1026=
201812060100 METAR LRBC 060100Z 33015KT 9999 SCT041 OVC048 02/M05 Q1026=
201812060130 METAR LRBC 060130Z 34017KT 9999 BKN048 02/M05 Q1026=
201812060200 METAR LRBC 060200Z 34016KT 9999 BKN049 02/M05 Q1026=
201812060230 METAR LRBC 060230Z 33014KT 9999 OVC049 02/M04 Q1026=
201812060300 METAR LRBC 060300Z 33013KT 9999 OVC047 02/M04 Q1026=
201812060330 METAR LRBC 060330Z 33014KT 9999 BKN049 02/M05 Q1026=
201812060400 METAR LRBC 060400Z 33013KT 9999 BKN047 02/M04 Q1026=
201812060430 METAR LRBC 060430Z 33015KT 9999 OVC049 02/M05 Q1026=
201812060500 METAR LRBC 060500Z 33014KT 9999 OVC048 02/M05 Q1026=
201812060530 METAR LRBC 060530Z 34012KT 9999 BKN049 02/M04 Q1026=
201812060600 METAR LRBC 060600Z 33011KT 9999 BKN045 02/M04 Q1026=
201812060630 METAR LRBC 060630Z 34011KT 9999 OVC046 02/M04 Q1026=
201812060700 METAR LRBC 060700Z 33013KT 9999 BKN046 02/M04 Q1026=
201812060730 METAR LRBC 060730Z 32013KT 9999 BKN048 02/M05 Q1026=
201812060800 METAR LRBC 060800Z 33016KT 9999 BKN047 03/M06 Q1026=
201812060830 METAR LRBC 060830Z 34015KT 9999 BKN045 03/M05 Q1026=
201812060900 METAR LRBC 060900Z 35013KT 9999 BKN050 03/M06 Q1026=
201812060930 METAR LRBC 060930Z 34015KT 9999 OVC050 02/M05 Q1026=
201812061000 METAR LRBC 061000Z 34014KT 9999 BKN049 02/M05 Q1026=
201812061030 METAR LRBC 061030Z 34013KT 9999 BKN050 03/M06 Q1026=
201812061100 METAR LRBC 061100Z 34012KT 9999 BKN049 03/M05 Q1026=
201812061130 METAR LRBC 061130Z 35012KT 9999 SCT048 03/M06 Q1025=
201812061200 METAR LRBC 061200Z 34013KT CAVOK 03/M06 Q1025=
201812061230 METAR LRBC 061230Z 34014KT 320V020 CAVOK 03/M05 Q1025=
201812061300 METAR LRBC 061300Z 34013KT CAVOK 02/M05 Q1025=
201812061330 METAR LRBC 061330Z AUTO 34008KT 9999 NCD 02/M05 Q1025=
201812061400 METAR LRBC 061400Z 32007G19KT 290V360 CAVOK 02/M05 Q1025=
201812061430 METAR LRBC 061430Z 31007KT CAVOK 00/M05 Q1025=
201812061500 METAR LRBC 061500Z 32007KT CAVOK 01/M05 Q1025=
201812061530 METAR LRBC 061530Z 33007KT CAVOK 00/M06 Q1025=
201812061600 METAR LRBC 061600Z 32006KT CAVOK M00/M05 Q1025=
201812061630 METAR LRBC 061630Z 31006KT CAVOK M01/M05 Q1025=
201812061700 METAR LRBC 061700Z 32005KT CAVOK M02/M06 Q1025=
201812061730 METAR LRBC 061730Z 35006KT CAVOK M02/M06 Q1025=
201812061800 METAR LRBC 061800Z 35006KT CAVOK M02/M06 Q1025=
201812061830 METAR LRBC 061830Z 34008KT CAVOK M02/M06 Q1026=
201812061900 METAR LRBC 061900Z 34006KT CAVOK M03/M07 Q1026=
201812061930 METAR LRBC 061930Z 31004KT CAVOK M03/M06 Q1026=
201812062000 METAR LRBC 062000Z 31004KT CAVOK M03/M06 Q1026=
201812062030 METAR LRBC 062030Z 33005KT CAVOK M04/M06 Q1025=
201812062100 METAR LRBC 062100Z 34006KT CAVOK M04/M06 Q1025=
201812062130 METAR LRBC 062130Z 33005KT CAVOK M04/M07 Q1025=
201812062200 METAR LRBC 062200Z 35003KT CAVOK M04/M06 Q1025=
201812062230 METAR LRBC 062230Z 09001KT CAVOK M04/M06 Q1025=
201812062300 METAR LRBC 062300Z 09002KT CAVOK M04/M06 Q1024=
201812062330 METAR COR LRBC 062330Z 00000KT CAVOK M05/M07 Q1024=
201812070000 METAR LRBC 070000Z AUTO 33002KT 4700 BR NCD M05/M07 Q1024=
201812070030 METAR LRBC 070030Z 00000KT CAVOK M06/M08 Q1024=
201812070100 METAR LRBC 070100Z 30003KT CAVOK M06/M07 Q1024=
201812070130 METAR LRBC 070130Z AUTO 00000KT 7000 BKN170/// M06/M07 Q1024=
201812070200 METAR LRBC 070200Z 00000KT CAVOK M05/M07 Q1024=
201812070230 METAR COR LRBC 070230Z 30001KT CAVOK M05/M07 Q1023=
201812070300 METAR LRBC 070300Z 00000KT CAVOK M06/M07 Q1023=
201812070330 METAR LRBC 070330Z 31002KT CAVOK M06/M07 Q1023=
201812070400 METAR LRBC 070400Z 30002KT CAVOK M06/M07 Q1023=
201812070430 METAR LRBC 070430Z 21002KT 180V310 CAVOK M06/M08 Q1023=
201812070500 METAR LRBC 070500Z 15002KT CAVOK M06/M07 Q1022=
201812070530 METAR LRBC 070530Z 14002KT 5000 BR NSC M05/M07 Q1022=
201812070600 METAR LRBC 070600Z 00000KT 8000 NSC M05/M06 Q1022=
201812070630 METAR LRBC 070630Z 16004KT 5000 BR NSC M04/M06 Q1022=
201812070700 METAR LRBC 070700Z 17006KT 7000 NSC M04/M05 Q1022=
201812070730 METAR LRBC 070730Z 17007KT 8000 NSC M03/M05 Q1022=
201812070800 METAR LRBC 070800Z 17008KT 7000 NSC M03/M05 Q1021=
201812070830 METAR LRBC 070830Z 16009KT 8000 NSC M02/M04 Q1021=
201812070900 METAR LRBC 070900Z 17010KT CAVOK M01/M04 Q1021=
201812070930 METAR LRBC 070930Z 17011KT CAVOK M01/M04 Q1020=
201812071000 METAR LRBC 071000Z 17010KT CAVOK M01/M04 Q1020=
201812071030 METAR LRBC 071030Z 16011KT CAVOK M00/M04 Q1019=
201812071100 METAR LRBC 071100Z 16012KT CAVOK M00/M03 Q1019=
201812071130 METAR LRBC 071130Z 16012KT CAVOK 00/M03 Q1018=
201812071200 METAR LRBC 071200Z 17014KT 9999 SCT065 00/M03 Q1018=
201812071230 METAR LRBC 071230Z 17014KT 9999 SCT065 M00/M03 Q1018=
201812071300 METAR LRBC 071300Z 16014KT CAVOK 00/M03 Q1018=
201812071330 METAR LRBC 071330Z 16012KT CAVOK 00/M03 Q1017=
201812071400 METAR LRBC 071400Z 16012KT CAVOK 00/M03 Q1017=
201812071430 METAR LRBC 071430Z 16012KT CAVOK 00/M03 Q1017=
201812071500 METAR LRBC 071500Z 17011KT CAVOK 00/M03 Q1017=
201812071530 METAR LRBC 071530Z 16012KT CAVOK 00/M03 Q1017=
201812071600 METAR LRBC 071600Z 17011KT CAVOK 00/M03 Q1017=
201812071630 METAR LRBC 071630Z 17011KT 9999 FEW046 00/M02 Q1017=
201812071700 METAR LRBC 071700Z 17011KT 6000 FEW046 M00/M02 Q1017=
201812071730 METAR LRBC 071730Z 17013KT 5000 BR BKN055 M00/M02 Q1016=
201812071800 METAR LRBC 071800Z 17011KT 5000 BR BKN065 M01/M02 Q1016=
201812071830 METAR LRBC 071830Z 17011KT 4400 BR SCT045 M01/M02 Q1016=
201812071900 METAR LRBC 071900Z 17013KT 2900 BR BKN002 M01/M02 Q1015=
201812071930 METAR LRBC 071930Z 17012KT 2300 BR OVC001 M01/M02 Q1015=
201812072000 METAR LRBC 072000Z 17012KT 1900 BR BKN001 M01/M01 Q1015=
201812072030 METAR LRBC 072030Z 17013KT 1300 R34/1500D BR VV002 M01/M01
                        Q1015=
201812072100 METAR LRBC 072100Z 17015KT 0800 R34/0800N FZFG VV001 M01/M01
                        Q1014=
201812072130 METAR LRBC 072130Z 16014KT 0650 R34/0800N FZFG VV001 M01/M01
                        Q1014=
201812072200 METAR LRBC 072200Z 17012KT 0500 R34/0600N FZFG VV001 M01/M01
                        Q1014=
201812072230 METAR LRBC 072230Z 17013KT 0450 R34/0500N FZFG VV001 M01/M01
                        Q1013=
201812072300 METAR LRBC 072300Z 17015KT 0500 R34/0550N FZFG VV001 M01/M02
                        Q1013=
201812072330 METAR LRBC 072330Z 16014KT 0550 R34/0650N FZFG VV001 M01/M01
                        Q1012=
201812080000 METAR LRBC 080000Z 16015KT 0600 R34/0700U FZFG VV001 M01/M02
                        Q1012=
201812080030 METAR LRBC 080030Z 16015KT 0450 R34/0500N FZFG VV001 M01/M02
                        Q1012=
201812080100 METAR LRBC 080100Z 16013KT 0400 R34/0450N FZFG VV001 M01/M02
                        Q1012=
201812080130 METAR LRBC 080130Z 17015KT 0350 R34/0400N FZFG VV001 M01/M02
                        Q1011=
201812080200 METAR LRBC 080200Z 17015KT 0350 R34/0400N FZFG VV001 M01/M02
                        Q1011=
201812080230 METAR LRBC 080230Z 17015KT 0350 R34/0400N FZFG VV001 M01/M02
                        Q1011=
201812080300 METAR COR LRBC 080300Z 16016KT 0500 R34/0600N FZFG VV001
                        M01/M02 Q1011=
201812080330 METAR LRBC 080330Z 16014KT 0400 R34/0450N FZFG VV001 M01/M02
                        Q1010=
201812080400 METAR LRBC 080400Z 17016KT 0800 R34/0800N FZFG VV001 M01/M02
                        Q1010=
201812080430 METAR LRBC 080430Z 17015KT 0750 R34/0900D FZFG VV001 M01/M02
                        Q1010=
201812080500 METAR LRBC 080500Z 17013KT 0550 R34/0600N FZFG VV001 M01/M02
                        Q1010=
201812080530 METAR LRBC 080530Z 16013KT 0450 R34/0500N FZFG VV001 M01/M02
                        Q1011=
201812080600 METAR LRBC 080600Z 17012KT 0200 R34/0375N FZFG VV001 M01/M02
                        Q1011=
201812080630 METAR LRBC 080630Z 16013KT 0200 R34/0375N FZFG VV001 M01/M02
                        Q1011=
201812080700 METAR LRBC 080700Z 16011KT 0200 R34/0375N FZFG VV001 M01/M02
                        Q1011=
201812080730 METAR LRBC 080730Z 17013KT 0200 R34/0250N FZFG VV001 M01/M02
                        Q1011=
201812080800 METAR LRBC 080800Z 16013KT 0200 R34/0250N FZFG VV001 M01/M02
                        Q1011=
201812080830 METAR LRBC 080830Z 16012KT 0300 R34/0450N FZFG VV001 M01/M02
                        Q1011=
201812080900 METAR LRBC 080900Z 17013KT 0500 R34/0650D FZFG VV002 M01/M01
                        Q1011=
201812080930 METAR LRBC 080930Z 16012KT 1000 R34/1300U FZFG VV001 M01/M01
                        Q1011=
201812081000 METAR LRBC 081000Z 16013KT 1500 BR BKN001 BKN003 M00/M01
                        Q1010=
201812081030 METAR LRBC 081030Z 16012KT 1500 BR BKN001 BKN055 M00/M01
                        Q1010=
201812081100 METAR LRBC 081100Z 16011KT 1500 BR BKN002 BKN055 M00/M01
                        Q1010=
201812081130 METAR LRBC 081130Z 16012KT 1500 BR BKN002 BKN060 00/M01 Q1010=
201812081200 METAR LRBC 081200Z 16012KT 1500 BR BKN002 BKN060 M00/M01
                        Q1010=
201812081230 METAR LRBC 081230Z 16011KT 1500 BR OVC002 00/M01 Q1009=
201812081300 METAR LRBC 081300Z 16012KT 1500 BR OVC002 00/M01 Q1009=
201812081330 METAR LRBC 081330Z 16013KT 1500 BR BKN001 BKN003 00/M01 Q1009=
201812081400 METAR LRBC 081400Z 16015KT 1500 BR OVC002 00/M01 Q1009=
201812081430 METAR LRBC 081430Z 16014KT 1500 BR OVC002 M00/M01 Q1009=
201812081500 METAR LRBC 081500Z 16013KT 2000 BR OVC001 M00/M01 Q1009=
201812081530 METAR LRBC 081530Z 16013KT 2000 BR BKN001 OVC003 M00/M01
                        Q1009=
201812081600 METAR LRBC 081600Z 16010KT 1500 BR OVC001 M00/M01 Q1009=
201812081630 METAR LRBC 081630Z 16011KT 1500 -FZRA BR OVC001 M00/M01 Q1009=
201812081700 METAR LRBC 081700Z 16011KT 1500 -FZRA BR OVC001 00/M01 Q1009=
201812081730 METAR LRBC 081730Z 16010KT 1000 R34/1200U -FZRA BR OVC002
                        00/M01 Q1009=
201812081800 METAR LRBC 081800Z 16008KT 1500 -FZDZ BR OVC001 00/M01 Q1009
                        R16/390193=
201812081830 METAR LRBC 081830Z 16007KT 1200 R34/1500N -FZRA BR OVC002
                        00/M01 Q1009 R16/390193=
201812081900 METAR LRBC 081900Z 16006KT 1200 R34/1500N -FZRA BR OVC002
                        00/M00 Q1009 R16/390193=
201812081930 METAR LRBC 081930Z 16006KT 1500 -FZRA BR OVC001 00/M00 Q1009
                        R16/390193=
201812082000 METAR LRBC 082000Z 17005KT 2000 -FZRA BR BKN001 OVC003 00/M00
                        Q1009 R16/390193=
201812082030 METAR LRBC 082030Z 18005KT 2500 -FZRA BR FEW038 OVC044 00/M00
                        Q1009 R16/390193=
201812082100 METAR LRBC 082100Z 19005KT 2500 -FZRA BR FEW035 OVC042 00/M00
                        Q1009 R16/390193=
201812082130 METAR LRBC 082130Z 19003KT 2500 -FZRA BR FEW029 OVC040 01/M00
                        Q1009 R16/390193=
201812082200 METAR LRBC 082200Z 19002KT 3000 -RA BR SCT010 OVC039 00/M00
                        Q1009 REFZRA R16/390193=
201812082230 METAR LRBC 082230Z AUTO 00000KT 2600 -FZRA FEW009/// BKN012///
                        BKN034/// 01/M00 Q1009=
201812082300 METAR LRBC 082300Z AUTO 34004KT 3100 -FZRA SCT008/// BKN010///
                        01/00 Q1010=
201812082330 METAR LRBC 082330Z VRB02KT 3000 -FZRA BR BKN011 OVC014 01/00
                        Q1009 R16/390192=
201812090000 METAR LRBC 090000Z AUTO 34002KT 2500 -FZDZ FEW001/// BKN010///
                        01/00 Q1009=
201812090030 METAR COR LRBC 090030Z VRB01KT 2000 -FZRA BR BKN002 OVC009
                        01/00 Q1009 R16/390192=
201812090100 METAR LRBC 090100Z VRB01KT 2000 -FZRA BR SCT002 OVC009 01/00
                        Q1009 R16/390192=
201812090130 METAR COR LRBC 090130Z 19001KT 2000 -FZRA BR FEW001 SCT009
                        OVC015 01/00 Q1009 R16/390192=
201812090200 METAR LRBC 090200Z 16001KT 1500 -FZRA BR FEW001 SCT012 OVC018
                        01/00 Q1009 R16/390192=
201812090230 METAR LRBC 090230Z 19001KT 2000 -FZRA BR SCT001 BKN012 OVC030
                        01/00 Q1009 R16/390192=
201812090300 METAR LRBC 090300Z 20002KT 2000 BR FEW011 BKN014 OVC030 01/00
                        Q1009 R16/390192=
201812090330 METAR LRBC 090330Z 17004KT 2500 BR FEW012 OVC027 01/00 Q1009
                        R16/390192=
201812090400 METAR LRBC 090400Z 13001KT 2000 BR OVC025 01/00 Q1009 R16/390192=
201812090430 METAR LRBC 090430Z 00000KT 2500 BR OVC024 01/00 Q1009 R16/390193=
201812090500 METAR COR LRBC 090500Z 00000KT 2500 BR BKN024 OVC050 01/00
                        Q1009 R16/390193=
201812090530 METAR LRBC 090530Z 00000KT 5000 BR BKN023 OVC048 01/00 Q1009
                        R16/390193=
201812090600 METAR LRBC 090600Z 00000KT 3000 BR FEW025 OVC046 01/00 Q1009
                        R16/390193=
201812090630 METAR LRBC 090630Z 00000KT 2000 BR SCT047 01/00 Q1009 R16/390193=
201812090700 METAR COR LRBC 090700Z 15003KT 2000 BR FEW050 01/00 Q1009
                        R16/390193=
201812090730 METAR LRBC 090730Z 18003KT 1500 BR FEW050 01/00 Q1008 R16/390193=
201812090800 METAR LRBC 090800Z 16003KT 1200 R34/1300D BR NSC 01/01 Q1008
                        R16/390193=
201812090830 METAR LRBC 090830Z 15002KT 1500 BR NSC 01/01 Q1008 R16/390193=
201812090900 METAR LRBC 090900Z 19005KT 2500 BR NSC 02/01 Q1008 R16/320194=
201812090930 METAR LRBC 090930Z 16004KT 2500 BR NSC 03/02 Q1008 R16/320194=
201812091000 METAR LRBC 091000Z 00000KT 2600 BR NSC 04/03 Q1007 R16/210295=
201812091030 METAR LRBC 091030Z 24003KT 2600 BR NSC 03/03 Q1007 R16/210295=
201812091100 METAR LRBC 091100Z 20002KT 3000 BR NSC 05/04 Q1007 R16/210295=
201812091130 METAR LRBC 091130Z 19003KT 4000 BR NSC 05/04 Q1006 R16/210295=
201812091200 METAR LRBC 091200Z 19002KT 4500 BR NSC 05/04 Q1006 R16/210295=
201812091230 METAR LRBC 091230Z 19006KT 5000 BR NSC 05/04 Q1006 R16/210295=
201812091300 METAR LRBC 091300Z 18006KT 5000 BR NSC 04/03 Q1006 R16/210295=
201812091330 METAR LRBC 091330Z 17006KT 4500 BR NSC 04/03 Q1005 R16/210295=
201812091400 METAR LRBC 091400Z 16008KT 6000 NSC 03/02 Q1005 R16/210295=
201812091430 METAR LRBC 091430Z 16008KT 3000 BR NSC 02/01 Q1005 R16/210295=
201812091500 METAR LRBC 091500Z 17010KT 2000 BR NSC 02/01 Q1005 R16/210295=
201812091530 METAR LRBC 091530Z 16013KT 0350 R34/0375N FG VV001 02/01
                        Q1005 R16/210295=
201812091600 METAR LRBC 091600Z 15011KT 0250 R34/0275N FG VV001 02/01
                        Q1006 R16/210295=
201812091630 METAR LRBC 091630Z 16010KT 0250 R34/0300N FG VV001 02/02
                        Q1006 R16/210295=
201812091700 METAR LRBC 091700Z 16010KT 0250 R34/0300N FG VV001 02/02
                        Q1005 R16/210295=
201812091730 METAR LRBC 091730Z 16010KT 0300 R34/0300N FG VV001 02/01
                        Q1005 R16/210295=
201812091800 METAR LRBC 091800Z 16012KT 0350 R34/0400N FG VV001 02/01
                        Q1005 R16/210295=
201812091830 METAR LRBC 091830Z 17011KT 0300 R34/0350N FG VV001 02/01
                        Q1005 R16/210295=
201812091900 METAR LRBC 091900Z 16011KT 0300 R34/0325N FG VV001 02/01
                        Q1005 R16/210295=
201812091930 METAR LRBC 091930Z 17010KT 0300 R34/0350N FG VV001 01/01
                        Q1005 R16/210295=
201812092000 METAR LRBC 092000Z 17011KT 0300 R34/0400N FG VV001 01/01
                        Q1005 R16/210295=
201812092030 METAR LRBC 092030Z 17011KT 0300 R34/0375N FG VV001 01/00
                        Q1005 R16/210295=
201812092100 METAR LRBC 092100Z 16011KT 0300 R34/0400N FG VV001 01/01
                        Q1005 R16/210295=
201812092130 METAR LRBC 092130Z 17010KT 0300 R34/0350N FG VV001 01/00
                        Q1005 R16/210295=
201812092200 METAR LRBC 092200Z 17009KT 0300 R34/0325N FG VV001 01/00
                        Q1005 R16/210295=
201812092230 METAR LRBC 092230Z 17010KT 0300 R34/0350N FG VV001 01/00
                        Q1005 R16/210295=
201812092300 METAR LRBC 092300Z 17009KT 0350 R34/0375N FG VV001 01/00
                        Q1005 R16/210295=
201812092330 METAR LRBC 092330Z AUTO 16011KT 0300 R34/0350N FG VV001 01/M00
                        Q1005=
201812100000 METAR LRBC 100000Z AUTO 16009KT 0300 R34/0350N FG VV001 01/M00
                        Q1005=
201812100030 METAR LRBC 100030Z 17008KT 0400 R34/0375V0500N FG VV001 00/M00
                        Q1005 R16/210295=
201812100100 METAR LRBC 100100Z 18006KT 0300 R34/0400N FG VV001 00/M00
                        Q1005 R16/210295=
201812100130 METAR LRBC 100130Z 18007KT 0300 R34/0600N FG VV001 00/M00
                        Q1004 R16/210295=
201812100200 METAR LRBC 100200Z 16005KT 0300 R34/0450N FG VV001 00/M00
                        Q1004 R16/210295=
201812100230 METAR LRBC 100230Z 17008KT 0300 R34/0500N FG VV001 00/M00
                        Q1004 R16/210295=
201812100300 METAR LRBC 100300Z 15007KT 0300 R34/0500N FZFG VV001 M00/M01
                        Q1004 R16/210295=
201812100330 METAR LRBC 100330Z 16007KT 0300 R34/0400N FZFG VV001 M00/M01
                        Q1004 R16/210295=
201812100400 METAR LRBC 100400Z 18004KT 0300 R34/0350N FZFG VV001 M00/M01
                        Q1004 R16/210295=
201812100430 METAR LRBC 100430Z 22004KT 0300 R34/0400N FZFG VV001 M01/M01
                        Q1004 R16/210295=
201812100500 METAR LRBC 100500Z 17003KT 140V210 0300 R34/0375N FZFG VV001
                        M01/M01 Q1004 R16/210295=
201812100530 METAR LRBC 100530Z 17004KT 0300 R34/0375N FZFG VV001 M01/M01
                        Q1004 R16/210295=
201812100600 METAR LRBC 100600Z 16003KT 130V190 0200 R34/0250N FZFG VV001
                        M01/M02 Q1005 R16/210295=
201812100630 METAR LRBC 100630Z 00000KT 0200 R34/0200N FZFG VV001 M01/M02
                        Q1005 R16/210295=
201812100700 METAR LRBC 100700Z 18004KT 150V210 0150 R34/0175N FZFG VV001
                        M01/M02 Q1005 R16/210295=
201812100730 METAR LRBC 100730Z 19005KT 0200 R34/0200N FZFG VV001 M01/M02
                        Q1005 R16/210295=
201812100800 METAR LRBC 100800Z 16005KT 0200 R34/0200N FZFG VV001 M01/M02
                        Q1005 R16/210295=
201812100830 METAR LRBC 100830Z 19004KT 0200 R34/0200N FZFG VV001 M01/M01
                        Q1006 R16/210295=
201812100900 METAR LRBC 100900Z 17005KT 0200 R34/0200N FZFG VV001 M01/M01
                        Q1005 R16/210295=
201812100930 METAR LRBC 100930Z 16005KT 0200 R34/0200N FZFG VV001 M01/M01
                        Q1005 R16/210295=
201812101000 METAR LRBC 101000Z 17005KT 0200 R34/0225N FZFG VV001 M01/M01
                        Q1005 R16/210295=
201812101030 METAR LRBC 101030Z 19004KT 150V220 0200 R34/0225N FZFG VV001
                        M00/M01 Q1005 R16/210295=
201812101100 METAR LRBC 101100Z 14003KT 110V190 0250 R34/0250N FZFG VV001
                        M00/M01 Q1005 R16/210295=
201812101130 METAR LRBC 101130Z 00000KT 0250 R34/0250N FG VV001 00/M01
                        Q1005 R16/210295=
201812101200 METAR LRBC 101200Z VRB01KT 0250 R34/0250N FG VV001 00/M00
                        Q1005 R16/19//95=
201812101230 METAR LRBC 101230Z 17003KT 0200 R34/0225N FG VV001 00/M00
                        Q1005 R16/19//95=
201812101300 METAR LRBC 101300Z 15005KT 0200 R34/0225N FG VV001 00/M00
                        Q1005 R16/19//95=
201812101330 METAR LRBC 101330Z 17005KT 0200 R34/0225N FG VV001 00/M00
                        Q1006 R16/19//95=
201812101400 METAR LRBC 101400Z 17006KT 0250 R34/0300N FG VV001 00/M00
                        Q1006 R16/19//95=
201812101430 METAR LRBC 101430Z 17005KT 0200 R34/0225N FG VV001 00/M00
                        Q1006 R16/19//95=
201812101500 METAR LRBC 101500Z 18005KT 0300 R34/0300N FZFG VV001 M00/M01
                        Q1006 R16/19//95=
201812101530 METAR LRBC 101530Z 21002KT 0250 R34/0275N FZFG VV001 M00/M01
                        Q1006 R16/19//95=
201812101600 METAR LRBC 101600Z 00000KT 0350 R34/0375N FZFG VV001 M00/M01
                        Q1006 R16/19//95=
201812101630 METAR LRBC 101630Z 00000KT 0350 R34/0400N FZFG VV001 M00/M01
                        Q1006 R16/19//95=
201812101700 METAR LRBC 101700Z 00000KT 0400 R34/0450N FZFG VV001 M00/M01
                        Q1006 R16/19//95=
201812101730 METAR LRBC 101730Z VRB01KT 0650 R34/0750U FZFG VV001 M00/M01
                        Q1007 R16/19//95=
201812101800 METAR LRBC 101800Z 32005KT 0800 R34/1000U FG VV001 00/M00
                        Q1008 R16/19//95=
201812101830 METAR LRBC 101830Z 36001KT 1500 BR BKN001 00/M00 Q1008 R16/19//95=
201812101900 METAR LRBC 101900Z 00000KT 2500 BR SCT003 00/M00 Q1008 R16/19//95=
201812101930 METAR LRBC 101930Z 00000KT 2200 -RA BR FEW001 BKN005 00/M00
                        Q1009 R16/19//95=
201812102000 METAR LRBC 102000Z VRB01KT 3000 -RA BR FEW011 BKN019 OVC050
                        00/M00 Q1009 R16/19//95=
201812102030 METAR LRBC 102030Z 31003KT 3600 BR BKN017 BKN025 01/00 Q1009
                        R16/19//95=
201812102100 METAR LRBC 102100Z 36003KT 4000 BR BKN014 OVC019 01/00 Q1009
                        R16/19//95=
201812102130 METAR LRBC 102130Z 01003KT 5000 -RA BR SCT012 BKN015 01/01
                        Q1009 R16/19//95=
201812102200 METAR LRBC 102200Z 35005KT 4700 -RA BR BKN009 OVC017 02/01
                        Q1009 R16/19//95=
201812102230 METAR LRBC 102230Z 33005KT 4800 -RASN BR BKN013 BKN024 01/01
                        Q1009 R16/19//95=
201812102300 METAR COR LRBC 102300Z 34004KT 5000 -RA FEW011 BKN028 02/01
                        Q1009 R16/220294=
201812102330 METAR LRBC 102330Z AUTO 33006KT 8000 -DZ SCT015/// BKN027///
                        BKN031/// 02/01 Q1009=
201812110000 METAR COR LRBC 110000Z 36004KT 9999 SCT033 02/02 Q1009 R16/220294=
201812110030 METAR LRBC 110030Z AUTO 35005KT 9999 SCT035/// BKN040///
                        02/01 Q1009 REUP=
201812110100 METAR LRBC 110100Z AUTO 33007KT 9999 FEW029/// OVC041///
                        02/01 Q1009=
201812110130 METAR LRBC 110130Z AUTO 34006KT 9999 FEW028/// BKN043///
                        02/02 Q1009=
201812110200 METAR LRBC 110200Z 34005KT 9999 FEW029 OVC046 02/02 Q1009
                        R16/220294=
201812110230 METAR LRBC 110230Z 34005KT 9999 FEW029 OVC046 02/02 Q1009
                        R16/220294=
201812110300 METAR LRBC 110300Z AUTO 33007KT 9999 FEW037/// OVC048///
                        02/02 Q1010=
201812110330 METAR LRBC 110330Z 33007KT 9999 OVC047 02/02 Q1010 R16/19//95=
201812110400 METAR LRBC 110400Z 33007KT 9999 OVC047 02/02 Q1010 R16/19//95=
201812110430 METAR LRBC 110430Z 31009KT 9999 BKN048 02/02 Q1010 R16/19//95=
201812110500 METAR LRBC 110500Z 32011KT 9999 -RA OVC050 02/02 Q1010 R16/19//95=
201812110530 METAR LRBC 110530Z 32009KT 9999 OVC050 02/02 Q1010 R16/19//95=
201812110600 METAR LRBC 110600Z 31009KT 9999 BKN050 02/01 Q1011 R16/19//95=
201812110630 METAR LRBC 110630Z 32007KT 9999 BKN065 02/01 Q1011 R16/19//95=
201812110700 METAR LRBC 110700Z 33007KT 9999 BKN065 03/01 Q1011 R16/19//95=
201812110730 METAR LRBC 110730Z 34008KT 9999 BKN065 03/01 Q1011 R16/19//95=
201812110800 METAR LRBC 110800Z 34007KT 9999 BKN065 03/01 Q1011 R16/19//95=
201812110830 METAR LRBC 110830Z 33006KT 9999 BKN065 04/01 Q1011 R16/19//95=
201812110900 METAR LRBC 110900Z 33006KT 9999 BKN065 04/01 Q1011 R16/19//95=
201812110930 METAR LRBC 110930Z 33008KT 9999 BKN065 04/01 Q1011 R16/19//95=
201812111000 METAR COR LRBC 111000Z 33009KT CAVOK 05/00 Q1011 R16/19//95=
201812111030 METAR LRBC 111030Z 34009KT 9999 SCT055 04/M00 Q1011 R16/19//95=
201812111100 METAR LRBC 111100Z 35009KT 9999 BKN060 05/M00 Q1011 R16/19//95=
201812111130 METAR LRBC 111130Z 35008KT 9999 BKN060 05/M00 Q1012 R16/19//95=
201812111200 METAR LRBC 111200Z 01005KT 340V040 CAVOK 05/M00 Q1012 R16/19//95=
201812111230 METAR LRBC 111230Z 03005KT 360V060 CAVOK 04/M00 Q1012 R16/19//95=
201812111300 METAR LRBC 111300Z 03004KT 350V060 CAVOK 04/00 Q1013 R16/19//95=
201812111330 METAR LRBC 111330Z 01006KT 340V040 8000 NSC 04/M00 Q1013
                        R16/15//95=
201812111400 METAR LRBC 111400Z 36007KT 8000 NSC 04/M00 Q1013 R16/15//95=
201812111430 METAR LRBC 111430Z 36006KT 8000 NSC 04/M00 Q1013 R16/15//95=
201812111500 METAR COR LRBC 111500Z 34006KT 8000 NSC 02/M00 Q1013 R16/15//95=
201812111530 METAR LRBC 111530Z 29004KT 7000 NSC 02/M00 Q1014 R16/15//95=
201812111600 METAR LRBC 111600Z 31003KT 7000 NSC 02/M00 Q1014 R16/15//95=
201812111630 METAR LRBC 111630Z 33003KT 7000 NSC 02/M00 Q1014 R16/15//95=
201812111700 METAR LRBC 111700Z 30006KT 7000 NSC 02/M00 Q1014 R16/15//95=
201812111730 METAR LRBC 111730Z 31005KT 7000 FEW048 01/M01 Q1014 R16/15//95=
201812111800 METAR LRBC 111800Z 34004KT 9999 BKN048 02/M01 Q1014 R16/15//95=
201812111830 METAR LRBC 111830Z 33004KT 9999 BKN048 02/M01 Q1014 R16/15//95=
201812111900 METAR LRBC 111900Z 35003KT 320V030 9999 BKN045 02/M01 Q1014
                        R16/15//95=
201812111930 METAR LRBC 111930Z 07003KT 6000 BKN065 01/M01 Q1014 R16/15//95=
201812112000 METAR LRBC 112000Z 05003KT 6000 BKN065 01/M01 Q1014 R16/15//95=
201812112030 METAR LRBC 112030Z 33004KT 5000 BR BKN065 01/M01 Q1014 R16/15//95=
201812112100 METAR LRBC 112100Z 35005KT 5000 BR NSC 01/M01 Q1014 R16/15//95=
201812112130 METAR LRBC 112130Z 00000KT 5000 BR NSC 00/M01 Q1014 R16/15//95=
201812112200 METAR LRBC 112200Z 36003KT 5000 BR NSC 00/M01 Q1014 R16/15//95=
201812112230 METAR LRBC 112230Z 34003KT 6000 BKN050 00/M01 Q1015 R16/15//95=
201812112300 METAR LRBC 112300Z 00000KT 5000 BR OVC050 00/M01 Q1015 R16/15//95=
201812112330 METAR LRBC 112330Z 00000KT 4600 BR SCT041 OVC055 00/M01 Q1014
                        R16/15//95=
201812120000 METAR LRBC 120000Z 00000KT 5000 BR SCT037 OVC047 01/M01 Q1014
                        R16/15//95=
201812120030 METAR LRBC 120030Z 00000KT 5000 BR FEW037 OVC050 01/M01 Q1015
                        R16/15//95=
201812120100 METAR COR LRBC 120100Z VRB01KT 5000 BR OVC055 00/M01 Q1015
                        R16/15//95=
201812120130 METAR LRBC 120130Z VRB01KT 5000 BR OVC055 00/M01 Q1015 R16/15//95=
201812120200 METAR LRBC 120200Z 36001KT 4600 BR OVC055 00/M01 Q1015 R16/15//95=
201812120230 METAR LRBC 120230Z AUTO 00000KT 4400 BR BKN060/// 00/M01
                        Q1015=
201812120300 METAR LRBC 120300Z 36001KT 4200 BR SCT060 M00/M01 Q1014 R16/15//95=
201812120330 METAR LRBC 120330Z 02002KT 2800 BR SCT060 M01/M03 Q1014 R16/15//95=
201812120400 METAR LRBC 120400Z 04005KT 4100 BR SCT060 M01/M01 Q1015 R16/15//95=
201812120430 METAR LRBC 120430Z 35003KT 4100 BR SCT060 M01/M03 Q1015 R16/15//95=
201812120500 METAR LRBC 120500Z 31004KT 2500 BR SCT060 M02/M03 Q1015 R16/15//95=
201812120530 METAR LRBC 120530Z 31005KT 0350 R34/0600N FZFG SCT060 M02/M03
                        Q1015 R16/15//95=
201812120600 METAR LRBC 120600Z 34006KT 0300 R34/0350N FZFG FEW003 M03/M03
                        Q1015 R16/15//95=
201812120630 METAR LRBC 120630Z 30003KT 0200 R34/0225N FZFG SCT001 M02/M02
                        Q1015 R16/15//95=
201812120700 METAR LRBC 120700Z 00000KT 1000 R34/0400U PRFG BR FEW002
                        M01/M02 Q1016 R16/15//95=
201812120730 METAR LRBC 120730Z 08003KT 1000 R34/1000D BR FEW001 SCT006
                        M02/M02 Q1016 R16/15//95=
201812120800 METAR LRBC 120800Z 00000KT 0800 R34/0450N PRFG NSC M01/M02
                        Q1016 R16/15//95=
201812120830 METAR LRBC 120830Z 00000KT 2500 0800S R34/0175N PRFG BR NSC
                        M01/M01 Q1016 R16/15//95=
201812120900 METAR LRBC 120900Z 00000KT 2500 0800S R34/1000D PRFG BR NSC
                        00/M01 Q1016 R16/15//95=
201812120930 METAR LRBC 120930Z 00000KT 1500 R34/1400U BR NSC 01/00 Q1016
                        R16/15//95=
201812121000 METAR LRBC 121000Z 00000KT 3000 BR NSC 02/00 Q1015 R16/15//95=
201812121030 METAR LRBC 121030Z 00000KT 3000 BR NSC 03/01 Q1015 R16/15//95=
201812121100 METAR LRBC 121100Z 00000KT 5000 BR BKN065 03/00 Q1015 R16/15//95=
201812121130 METAR LRBC 121130Z VRB01KT 6000 BKN065 03/M00 Q1015 R16/15//95=
201812121200 METAR LRBC 121200Z VRB02KT 7000 BKN065 04/00 Q1015 R16/15//95=
201812121230 METAR LRBC 121230Z 02004KT 320V070 9999 BKN065 05/M03 Q1015
                        R16/15//95=
201812121300 METAR LRBC 121300Z 04003KT 360V070 9999 BKN065 04/M01 Q1015
                        R16/15//95=
201812121330 METAR LRBC 121330Z VRB01KT 9999 OVC065 04/M02 Q1016 R16/15//95=
201812121400 METAR LRBC 121400Z VRB01KT 9999 BKN065 03/M01 Q1016 R16/15//95=
201812121430 METAR LRBC 121430Z 21004KT 6000 BKN065 02/M01 Q1016 R16/15//95=
201812121500 METAR LRBC 121500Z 20003KT 7000 BKN065 02/M01 Q1016 R16/12//95=
201812121530 METAR LRBC 121530Z VRB02KT 9999 BKN065 03/M02 Q1016 R16/12//95=
201812121600 METAR LRBC 121600Z 09002KT 6000 BKN065 02/M01 Q1016 R16/12//95=
201812121630 METAR LRBC 121630Z 21003KT 7000 NSC 02/M01 Q1016 R16/12//95=
201812121700 METAR LRBC 121700Z VRB01KT 9000 NSC 02/M02 Q1016 R16/12//95=
201812121730 METAR COR LRBC 121730Z 00000KT CAVOK 01/M02 Q1016 R16/12//95=
201812121800 METAR LRBC 121800Z 05003KT 8000 NSC 00/M02 Q1016 R16/12//95=
201812121830 METAR LRBC 121830Z 00000KT 6000 NSC M00/M02 Q1016 R16/12//95=
201812121900 METAR LRBC 121900Z 33003KT 270V350 6000 NSC 00/M02 Q1017
                        R16/12//95=
201812121930 METAR LRBC 121930Z 30002KT 6000 NSC M00/M02 Q1016 R16/12//95=
201812122000 METAR LRBC 122000Z 00000KT 8000 NSC M00/M02 Q1016 R16/12//95=
201812122030 METAR LRBC 122030Z 09001KT 6000 NSC M00/M02 Q1016 R16/12//95=
201812122100 METAR LRBC 122100Z 00000KT 5000 BR NSC M01/M02 Q1017 R16/12//95=
201812122130 METAR LRBC 122130Z 00000KT 6000 NSC M00/M02 Q1016 R16/12//95=
201812122200 METAR LRBC 122200Z 00000KT 6000 NSC M01/M02 Q1016 R16/12//95=
201812122230 METAR LRBC 122230Z 00000KT 5000 BR NSC M01/M03 Q1016 R16/12//95=
201812122300 METAR LRBC 122300Z 00000KT 3900 BR NSC M02/M03 Q1016 R16/12//95=
201812122330 METAR LRBC 122330Z 00000KT 3600 BR NSC M02/M04 Q1016 R16/12//95=
201812130000 METAR LRBC 130000Z 08002KT 5000 BR NSC M02/M03 Q1016 R16/12//95=
201812130030 METAR LRBC 130030Z 00000KT 4100 BR NSC M02/M03 Q1016 R16/12//95=
201812130100 METAR LRBC 130100Z 00000KT 2900 BR NSC M02/M03 Q1016 R16/12//95=
201812130130 METAR LRBC 130130Z 00000KT 4300 BR NSC M02/M03 Q1016 R16/12//95=
201812130200 METAR COR LRBC 130200Z 00000KT 6000 NSC M03/M04 Q1016 R16/12//95=
201812130230 METAR LRBC 130230Z 00000KT 5000 BR NSC M03/M04 Q1016 R16/12//95=
201812130300 METAR LRBC 130300Z 00000KT 4800 BR BKN048 M03/M04 Q1016 R16/12//95=
201812130330 METAR LRBC 130330Z 15001KT 5000 BR OVC048 M02/M04 Q1016 R16/12//95=
201812130400 METAR LRBC 130400Z 00000KT 5000 BR BKN044 M02/M03 Q1016 R16/12//95=
201812130430 METAR LRBC 130430Z 00000KT 5000 BR SCT044 OVC065 M02/M03
                        Q1016 R16/12//95=
201812130500 METAR LRBC 130500Z 14004KT 090V160 6000 BKN050 OVC065 M02/M03
                        Q1016 R16/12//95=
201812130530 METAR LRBC 130530Z 13002KT 8000 BKN055 M02/M03 Q1016 R16/12//95=
201812130600 METAR LRBC 130600Z VRB01KT 9999 BKN050 M02/M03 Q1016 R16/12//95=
201812130630 METAR LRBC 130630Z VRB01KT 9999 BKN060 M02/M04 Q1016 R16/12//95=
201812130700 METAR LRBC 130700Z 11003KT 9999 SCT060 M01/M03 Q1016 R16/12//95=
201812130730 METAR LRBC 130730Z 11003KT 8000 SCT060 00/M02 Q1016 R16/12//95=
201812130800 METAR LRBC 130800Z 06003KT 9999 FEW060 02/M03 Q1016 R16/12//95=
201812130830 METAR LRBC 130830Z 25011KT 9999 FEW060 04/M04 Q1016 R16/12//95=
201812130900 METAR LRBC 130900Z 26011KT 9999 BKN060 04/M04 Q1016 R16/12//95=
201812130930 METAR LRBC 130930Z 29008KT 9999 BKN050 05/M04 Q1016 R16/12//95=
201812131000 METAR LRBC 131000Z 03004KT 9999 BKN050 03/M03 Q1016 R16/12//95=
201812131030 METAR LRBC 131030Z 35004KT 9999 BKN050 04/M03 Q1015 R16/CLRD//=
201812131100 METAR LRBC 131100Z 32006KT 9999 BKN055 05/M03 Q1015=
201812131130 METAR LRBC 131130Z 34006KT 9999 BKN050 05/M03 Q1015=
201812131200 METAR LRBC 131200Z 33004KT 9999 BKN050 05/M04 Q1015=
201812131230 METAR LRBC 131230Z 04003KT 9999 BKN042 04/M03 Q1016=
201812131300 METAR LRBC 131300Z 08002KT 9999 BKN041 04/M03 Q1016=
201812131330 METAR LRBC 131330Z 10002KT 9999 BKN042 04/M02 Q1016=
201812131400 METAR LRBC 131400Z 06002KT 9999 BKN037 04/M03 Q1016=
201812131430 METAR LRBC 131430Z VRB01KT 9999 OVC035 03/M02 Q1016=
201812131500 METAR LRBC 131500Z 29005KT 9999 OVC030 03/M02 Q1017=
201812131530 METAR LRBC 131530Z 29007KT 9999 -SN FEW020 BKN046 03/M02
                        Q1017=
201812131600 METAR LRBC 131600Z 04005KT 9999 -SN FEW026 OVC049 02/M01
                        Q1017=
201812131630 METAR LRBC 131630Z 04004KT 9999 -SN BKN050 02/M01 Q1017=
201812131700 METAR LRBC 131700Z 04003KT 9999 BKN050 01/M01 Q1017=
201812131730 METAR LRBC 131730Z 03004KT 360V060 9999 BKN050 02/M00 Q1017=
201812131800 METAR LRBC 131800Z VRB02KT 9999 -SN OVC046 01/M00 Q1017=
201812131830 METAR LRBC 131830Z 00000KT 9999 OVC047 01/M01 Q1017=
201812131900 METAR LRBC 131900Z 00000KT 7000 BKN045 OVC060 01/M01 Q1017=
201812131930 METAR LRBC 131930Z 00000KT 8000 BKN049 01/M01 Q1018=
201812132000 METAR LRBC 132000Z 00000KT 8000 OVC047 01/M00 Q1018=
201812132030 METAR LRBC 132030Z 02003KT 350V060 7000 FEW004 BKN050 01/M00
                        Q1018=
201812132100 METAR LRBC 132100Z 00000KT 7000 -SN SCT043 BKN065 01/M01
                        Q1018=
201812132130 METAR LRBC 132130Z 00000KT 6000 -SN SCT003 BKN018 00/M01
                        Q1019=
201812132200 METAR LRBC 132200Z 00000KT 6000 -SN BKN007 BKN022 01/M00
                        Q1019=
201812132230 METAR LRBC 132230Z 00000KT 8000 -SN FEW007 BKN009 OVC047
                        01/M01 Q1019=
201812132300 METAR LRBC 132300Z 00000KT 7000 -SN FEW019 BKN055 00/M01
                        Q1019=
201812132330 METAR LRBC 132330Z AUTO 00000KT 5000 BR FEW011/// SCT022///
                        OVC075/// 00/M01 Q1019=
201812140000 METAR LRBC 140000Z 16002KT 3000 BR FEW020 BKN065 M00/M01
                        Q1019=
201812140030 METAR LRBC 140030Z AUTO 00000KT 1800 R34/0800VP2000U BCFG
                        FEW020/// BKN075/// M01/M01 Q1019=
201812140100 METAR LRBC 140100Z 19003KT 3000 BR FEW021 BKN065 M01/M02
                        Q1020=
201812140130 METAR LRBC 140130Z 00000KT 1500 BR SCT045 BKN065 M01/M01
                        Q1019=
201812140200 METAR LRBC 140200Z 00000KT 2000 BR FEW012 BKN050 M01/M02
                        Q1020=
201812140230 METAR LRBC 140230Z 00000KT 3000 BR FEW046 M02/M02 Q1020=
201812140300 METAR LRBC 140300Z 00000KT 9999 FEW043 M01/M02 Q1020=
201812140330 METAR LRBC 140330Z 00000KT 9999 FEW012 SCT050 M01/M02 Q1020=
201812140400 METAR LRBC 140400Z VRB01KT 9999 BKN010 M01/M02 Q1020=
201812140430 METAR LRBC 140430Z 00000KT 9999 BKN010 OVC049 M00/M02 Q1020=
201812140500 METAR LRBC 140500Z 00000KT 9999 SCT010 BKN047 M00/M02 Q1020=
201812140530 METAR LRBC 140530Z 00000KT 9999 SCT020 BKN044 M00/M02 Q1021=
201812140600 METAR LRBC 140600Z 00000KT 9000 BKN029 BKN049 M00/M02 Q1021=
201812140630 METAR LRBC 140630Z 24001KT 9000 FEW030 BKN049 M00/M02 Q1022=
201812140700 METAR LRBC 140700Z 19001KT 9000 FEW042 BKN048 00/M01 Q1022=
201812140730 METAR LRBC 140730Z 00000KT 9000 SCT033 BKN047 00/M01 Q1022=
201812140800 METAR LRBC 140800Z 00000KT 8000 FEW033 BKN045 01/M01 Q1022=
201812140830 METAR LRBC 140830Z 00000KT 8000 SCT044 BKN050 01/M01 Q1022=
201812140900 METAR LRBC 140900Z 00000KT 9999 FEW033 BKN050 02/M01 Q1022=
201812140930 METAR LRBC 140930Z VRB02KT 9999 SCT036 BKN043 02/M02 Q1022=
201812141000 METAR LRBC 141000Z 34005KT 9999 BKN033 BKN044 02/M02 Q1023=
201812141030 METAR LRBC 141030Z 34004KT 9999 SCT034 OVC048 02/M02 Q1023=
201812141100 METAR LRBC 141100Z 36005KT 9999 FEW035 OVC049 02/M03 Q1022=
201812141130 METAR LRBC 141130Z 02005KT 350V060 9999 FEW019 OVC050 02/M02
                        Q1022=
201812141200 METAR LRBC 141200Z 34009KT 9999 SCT019 BKN050 02/M03 Q1022=
201812141230 METAR LRBC 141230Z 35010KT 9999 BKN050 02/M04 Q1022=
201812141300 METAR LRBC 141300Z 35009KT 9999 BKN050 02/M03 Q1023=
201812141330 METAR LRBC 141330Z 35008KT 9999 BKN050 02/M03 Q1023=
201812141400 METAR LRBC 141400Z 35006KT 9999 BKN049 02/M03 Q1023=
201812141430 METAR LRBC 141430Z 34006KT 9999 BKN049 01/M03 Q1023=
201812141500 METAR LRBC 141500Z 34004KT 9999 BKN048 01/M03 Q1024=
201812141530 METAR LRBC 141530Z 35005KT 9999 BKN048 01/M03 Q1024=
201812141600 METAR LRBC 141600Z 33003KT 9999 BKN048 01/M03 Q1024=
201812141630 METAR LRBC 141630Z 36002KT 9999 BKN047 01/M03 Q1024=
201812141700 METAR LRBC 141700Z 00000KT 9999 OVC046 01/M03 Q1025=
201812141730 METAR LRBC 141730Z 00000KT 9999 BKN044 01/M03 Q1025=
201812141800 METAR LRBC 141800Z 36003KT 9999 BKN045 01/M03 Q1025=
201812141830 METAR LRBC 141830Z 01003KT 9999 BKN021 01/M03 Q1025=
201812141900 METAR LRBC 141900Z 32004KT 9999 OVC021 00/M02 Q1025=
201812141930 METAR LRBC 141930Z 01003KT 9999 BKN020 00/M03 Q1025=
201812142000 METAR LRBC 142000Z 00000KT 9999 OVC021 M01/M03 Q1025=
201812142030 METAR LRBC 142030Z 04004KT 9999 BKN019 M00/M03 Q1025=
201812142100 METAR LRBC 142100Z 00000KT 9999 OVC020 M00/M03 Q1025=
201812142130 METAR LRBC 142130Z 00000KT 9999 BKN021 M00/M03 Q1025=
201812142200 METAR LRBC 142200Z 04001KT 9999 BKN020 M00/M03 Q1025=
201812142230 METAR LRBC 142230Z AUTO 00000KT 9999 BKN020/// M00/M03 Q1025=
201812142300 METAR LRBC 142300Z 29003KT 9999 OVC025 M00/M03 Q1025=
201812142330 METAR LRBC 142330Z AUTO 00000KT 9999 BKN025/// M00/M03 Q1025=
201812150000 METAR LRBC 150000Z 02004KT 9999 OVC023 M00/M03 Q1025=
201812150030 METAR LRBC 150030Z AUTO 00000KT 9999 FEW022/// OVC065///
                        M00/M03 Q1025=
201812150100 METAR COR LRBC 150100Z 34004KT 9999 OVC065 M00/M03 Q1025=
201812150130 METAR LRBC 150130Z 35004KT 9000 BKN050 M00/M02 Q1025=
201812150200 METAR COR LRBC 150200Z 34004KT 5000 -SN BKN039 M00/M02 Q1025=
201812150230 METAR COR LRBC 150230Z 34004KT 5000 -SN BKN039 M00/M02 Q1025
                        R16/590393=
201812150300 METAR LRBC 150300Z 00000KT 3000 -SN BR BKN016 OVC021 M00/M02
                        Q1025 R16/590393=
201812150330 METAR LRBC 150330Z 00000KT 3000 -SN BR OVC022 M00/M02 Q1025
                        R16/590393=
201812150400 METAR LRBC 150400Z 00000KT 2000 -SN BR VV009 M01/M02 Q1025
                        R16/590393=
201812150430 METAR LRBC 150430Z 00000KT 2400 -SN BR OVC022 M01/M01 Q1025
                        R16/490393=
201812150500 METAR LRBC 150500Z 31004KT 2300 -SN BR SCT016 OVC019 M01/M02
                        Q1025 R16/490393=
201812150530 METAR LRBC 150530Z 33001KT 2300 -SN BR BKN016 OVC019 M01/M01
                        Q1026 R16/490393=
201812150600 METAR LRBC 150600Z 00000KT 1500 -SN BR SCT003 OVC008 M01/M01
                        Q1026 R16/490393=
201812150630 METAR LRBC 150630Z VRB01KT 1500 -SN BR FEW003 SCT005 BKN021
                        M01/M01 Q1026 R16/490393=
201812150700 METAR LRBC 150700Z 00000KT 1500 -SN BR FEW016 BKN031 BKN040
                        M00/M01 Q1026 R16/490393=
201812150730 METAR LRBC 150730Z 00000KT 1500 -SN BR FEW002 SCT004 BKN010
                        M00/M01 Q1026 R16/490393=
201812150800 METAR LRBC 150800Z 00000KT 1500 -SN BR FEW002 SCT004 BKN012
                        M00/M01 Q1027 R16/490393=
201812150830 METAR LRBC 150830Z 03002KT 360V070 1500 -SN BR VV010 M00/M02
                        Q1027 R16/490393=
201812150900 METAR LRBC 150900Z 03003KT 1500 -SN BR SCT003 BKN015 M00/M02
                        Q1027 R16/490393=
201812150930 METAR LRBC 150930Z 03003KT 360V070 1500 -SN BR FEW005 BKN015
                        OVC024 M00/M02 Q1026 R16/490393=
201812151000 METAR LRBC 151000Z 04003KT 2500 -SN BR FEW003 BKN028 BKN042
                        M00/M02 Q1026 R16/490393=
201812151030 METAR LRBC 151030Z 02002KT 340V060 6000 -SN FEW023 BKN049
                        00/M02 Q1026 R16/490393=
201812151100 METAR LRBC 151100Z 35002KT 8000 FEW019 SCT041 BKN048 00/M02
                        Q1026 R16/210195=
201812151130 METAR LRBC 151130Z 35002KT 310V040 8000 SCT022 OVC046 00/M02
                        Q1025 R16/210195=
201812151200 METAR LRBC 151200Z VRB01KT 8000 -RA BKN017 BKN020 00/M02
                        Q1025 R16/210195=
201812151230 METAR LRBC 151230Z 34005KT 6000 -SN FEW007 BKN016 00/M02
                        Q1025 R16/210195=
201812151300 METAR LRBC 151300Z 33004KT 6000 -SN FEW007 SCT009 BKN016
                        00/M02 Q1025 R16/210195=
201812151330 METAR LRBC 151330Z 35002KT 320V060 7000 SCT015 BKN019 OVC024
                        00/M02 Q1025 R16/210195=
201812151400 METAR LRBC 151400Z 33003KT 3000 -SN BR BKN014 M00/M02 Q1025
                        R16/210195=
201812151430 METAR LRBC 151430Z 32004KT 3000 -SN BR FEW006 SCT016 BKN039
                        M00/M02 Q1026 R16/210195=
201812151500 METAR COR LRBC 151500Z 33002KT 3000 -SN FEW004 SCT020 BKN029
                        M00/M02 Q1025 R16/210194=
201812151530 METAR LRBC 151530Z 34001KT 1700 -SN BR SCT004 BKN014 OVC023
                        M01/M02 Q1025 R16/210194=
201812151600 METAR LRBC 151600Z 00000KT 2100 -SN BR FEW013 BKN016 OVC019
                        M00/M02 Q1025 R16/210194=
201812151630 METAR LRBC 151630Z 31003KT 2100 -SN BR FEW003 BKN022 BKN041
                        M01/M01 Q1025 R16/210194=
201812151700 METAR LRBC 151700Z 32004KT 2900 -SN BR BKN022 OVC036 M01/M01
                        Q1025 R16/590394=
201812151730 METAR LRBC 151730Z 35003KT 2600 -SN BR SCT002 BKN022 OVC036
                        M01/M01 Q1025 R16/590394=
201812151800 METAR LRBC 151800Z 02002KT 2600 -SN BR FEW002 OVC016 M00/M01
                        Q1025 R16/590394=
201812151830 METAR LRBC 151830Z 00000KT 2500 -SN BR BKN016 OVC025 M00/M01
                        Q1025 R16/590394=
201812151900 METAR COR LRBC 151900Z VRB01KT 2600 -SN BR BKN010 OVC020
                        M00/M01 Q1025 R16/590394=
201812151930 METAR LRBC 151930Z 00000KT 2000 -SN BR BKN005 OVC010 M00/M01
                        Q1025 R16/590394=
201812152000 METAR LRBC 152000Z 32002KT 1400 R34/2000 SN BR BKN005 OVC010
                        M01/M01 Q1025 R16/590394=
201812152030 METAR LRBC 152030Z 33003KT 1400 R34/P2000 SN BR BKN003 BKN011
                        M01/M01 Q1025 R16/590394=
201812152100 METAR LRBC 152100Z VRB01KT 2700 -SN BR BKN003 BKN016 M01/M01
                        Q1024 RESN R16/590394=
201812152130 METAR LRBC 152130Z 00000KT 2400 -SN BR FEW001 BKN013 OVC022
                        M00/M01 Q1024 R16/590394=
201812152200 METAR LRBC 152200Z 00000KT 2400 -SN BR SCT001 BKN009 OVC022
                        M00/M01 Q1024 R16/590394=
201812152230 METAR LRBC 152230Z 00000KT 2600 -SN BR SCT001 BKN016 OVC032
                        M00/M01 Q1024 R16/590394=
201812152300 METAR LRBC 152300Z 00000KT 2600 -SN BR SCT001 BKN016 OVC032
                        M00/M01 Q1024 R16/590394=
201812152330 METAR LRBC 152330Z 00000KT 2600 -SN BR SCT001 BKN016 OVC032
                        M00/M01 Q1024 R16/590394=
201812160000 METAR LRBC 160000Z 00000KT 3600 -RASN FEW002 BKN026 OVC030
                        M00/M01 Q1024 R16/590394=
201812160030 METAR LRBC 160030Z AUTO 00000KT 3300 -RASN BKN023/// BKN027///
                        M00/M01 Q1024=
201812160100 METAR LRBC 160100Z 00000KT 3900 -SN BR FEW013 OVC020 M00/M01
                        Q1024 R16/590394=
201812160130 METAR LRBC 160130Z AUTO 01003KT 3800 -RASN FEW003/// BKN017///
                        M00/M01 Q1024=
201812160200 METAR LRBC 160200Z 00000KT 3900 -SN BR FEW013 OVC020 M00/M01
                        Q1024 R16/590394=
201812160230 METAR LRBC 160230Z 01004KT 4500 -SN BR FEW002 BKN020 M01/M01
                        Q1023 R16/590394=
201812160300 METAR LRBC 160300Z 01004KT 4500 -SN BR FEW002 BKN020 M01/M01
                        Q1023 R16/590394=
201812160330 METAR LRBC 160330Z 36004KT 3600 -SN BR SCT003 OVC023 M01/M01
                        Q1023 R16/590394=
201812160400 METAR LRBC 160400Z 35004KT 3600 -SN BR SCT003 OVC022 M01/M01
                        Q1023 R16/590394=
201812160430 METAR LRBC 160430Z 31004KT 2000 -SN BR BKN003 OVC022 M01/M01
                        Q1023 R16/590394=
201812160500 METAR LRBC 160500Z 33004KT 2700 -SN BR SCT005 OVC019 M00/M01
                        Q1023 R16/590394=
201812160530 METAR LRBC 160530Z 33005KT 3400 -SN BR BKN002 OVC017 M00/M01
                        Q1023 R16/390193=
201812160600 METAR LRBC 160600Z 33005KT 3300 -RA BR BKN004 OVC017 M00/M01
                        Q1023 R16/390193=
201812160630 METAR LRBC 160630Z 32005KT 3700 -RA BR BKN004 OVC017 M00/M01
                        Q1023 R16/390193=
201812160700 METAR LRBC 160700Z 33005KT 5000 -SN BR BKN005 OVC017 M00/M01
                        Q1023 R16/390193=
201812160730 METAR LRBC 160730Z 32006KT 3400 -SN BR BKN005 OVC017 00/M01
                        Q1023 R16/390193=
201812160800 METAR LRBC 160800Z 33006KT 3800 -SN BR FEW005 BKN013 00/M01
                        Q1023 R16/390193=
201812160830 METAR LRBC 160830Z 32006KT 4000 -SN BR BKN005 OVC013 00/M01
                        Q1023 R16/390193=
201812160900 METAR LRBC 160900Z 33006KT 3000 BR FEW003 OVC013 00/M01 Q1023
                        R16/390193=
201812160930 METAR LRBC 160930Z 33006KT 3000 -SN BR FEW003 SCT015 OVC020
                        01/M01 Q1023 R16/950394=
201812161000 METAR LRBC 161000Z 33006KT 2500 -SN BR BKN004 OVC018 01/M01
                        Q1023 R16/620395=
201812161030 METAR LRBC 161030Z 33005KT 2500 -SN BR OVC004 01/M01 Q1023
                        R16/620395=
201812161100 METAR LRBC 161100Z 33005KT 1500 -SN BR OVC005 01/M01 Q1022
                        R16/620395=
201812161130 METAR LRBC 161130Z 33004KT 1500 -SN BR BKN002 OVC004 01/M00
                        Q1022 R16/620395=
201812161200 METAR LRBC 161200Z 34004KT 1500 SN BR BKN004 OVC006 01/M01
                        Q1022 R16/620395=
201812161230 METAR LRBC 161230Z 32005KT 2000 -SN BR BKN002 OVC009 01/M01
                        Q1022 R16/620395=
201812161300 METAR LRBC 161300Z 31006KT 2500 -SN BR BKN004 OVC014 01/M01
                        Q1022 R16/620395=
201812161330 METAR LRBC 161330Z 33006KT 3000 -SN BR BKN011 OVC014 01/M00
                        Q1022 R16/620395=
201812161400 METAR LRBC 161400Z 33005KT 3000 -SG BR BKN004 BKN013 01/M01
                        Q1023 R16/620395=
201812161430 METAR LRBC 161430Z 32005KT 1500 SN BR BKN003 OVC013 01/M01
                        Q1023 R16/620395=
201812161500 METAR LRBC 161500Z 32005KT 3000 -SN BR SCT003 SCT017 BKN020
                        01/M00 Q1023 RESN R16/620395=
201812161530 METAR LRBC 161530Z 32005KT 2500 -RASN BR BKN001 OVC014 01/00
                        Q1023 R16/550294=
201812161600 METAR LRBC 161600Z 33005KT 2000 -RASN BR SCT002 OVC012 01/00
                        Q1023 R16/550294=
201812161630 METAR LRBC 161630Z 33004KT 2000 -RASN BR BKN002 OVC011 01/00
                        Q1023 R16/550294=
201812161700 METAR LRBC 161700Z 32004KT 2500 -RASN BR BKN001 OVC006 01/00
                        Q1023 R16/550294=
201812161730 METAR LRBC 161730Z 35003KT 330V030 2500 -RASN BR BKN001 BKN007
                        01/00 Q1023 R16/550294=
201812161800 METAR LRBC 161800Z 32002KT 2500 -SN BR SCT001 BKN007 BKN015
                        01/00 Q1023 R16/550294=
201812161830 METAR LRBC 161830Z 00000KT 2200 -RASN BR SCT002 BKN011 01/00
                        Q1023 R16/550294=
201812161900 METAR LRBC 161900Z 00000KT 2500 -SN BR FEW001 SCT008 BKN017
                        01/00 Q1024 R16/550294=
201812161930 METAR LRBC 161930Z 00000KT 1500 -SN BR FEW001 SCT012 BKN023
                        01/00 Q1024 R16/550294=
201812162000 METAR LRBC 162000Z 00000KT 1500 -RA BR FEW006 BKN012 BKN023
                        01/00 Q1024 R16/550294=
201812162030 METAR LRBC 162030Z VRB01KT 1600 -RA BR FEW001 SCT006 BKN009
                        01/00 Q1024 R16/550294=
201812162100 METAR LRBC 162100Z 13003KT 1500 -RA BR VV001 01/00 Q1024
                        R16/550294=
201812162130 METAR LRBC 162130Z 13004KT 1600 -RA BR VV001 01/00 Q1024
                        R16/550294=
201812162200 METAR LRBC 162200Z 14003KT 2700 -SN BR FEW001 BKN005 01/00
                        Q1023 R16/550294=
201812162230 METAR LRBC 162230Z 13005KT 4400 -SN BR FEW007 SCT009 OVC016
                        01/00 Q1023 R16/550294=
201812162300 METAR LRBC 162300Z 13003KT 5000 -SN BR FEW005 BKN007 OVC009
                        01/M00 Q1023 R16/550294=
201812162330 METAR LRBC 162330Z 12004KT 4700 -RASN BR BKN008 OVC010 01/M00
                        Q1023 R16/550294=
201812170000 METAR LRBC 170000Z 12003KT 4200 -RASN BR FEW003 BKN007 OVC009
                        01/M00 Q1023 R16/550294=
201812170030 METAR LRBC 170030Z 12005KT 3900 -RASN BR SCT003 OVC007 00/M00
                        Q1023 R16/550294=
201812170100 METAR LRBC 170100Z 14003KT 4600 - RA BR FEW002 BKN007 OVC010
                        00/M00 Q1023 R16/390292=
201812170130 METAR LRBC 170130Z 14004KT 4500 -RASN BR FEW002 SCT006 BKN008
                        00/M00 Q1023 R16/390292=
201812170200 METAR LRBC 170200Z 13004KT 5000 BR FEW008 OVC010 00/M01 Q1023
                        RESN R16/390292=
201812170230 METAR LRBC 170230Z 12004KT 090V150 5000 BR FEW003 BKN009
                        OVC012 00/M01 Q1022 R16/390292=
201812170300 METAR LRBC 170300Z 12004KT 5000 BR BKN008 OVC011 00/M01 Q1022
                        R16/390292=
201812170330 METAR LRBC 170330Z 13003KT 5000 BR BKN005 BKN010 00/M01 Q1022
                        R16/390193=
201812170400 METAR COR LRBC 170400Z 15003KT 5000 BR FEW002 BKN007 00/M01
                        Q1022 R16/390193=
201812170430 METAR LRBC 170430Z 13003KT 4400 BR SCT003 BKN008 00/M01 Q1022
                        R16/390193=
201812170500 METAR LRBC 170500Z 13005KT 5000 BR BKN005 OVC007 M00/M02
                        Q1022 R16/390194=
201812170530 METAR LRBC 170530Z 14004KT 4600 -FZDZ BR BKN005 OVC007 M00/M01
                        Q1022 R16/390194=
201812170600 METAR LRBC 170600Z 13004KT 6000 -FZDZ SCT007 OVC009 M00/M02
                        Q1022 R16/390194=
201812170630 METAR LRBC 170630Z 12004KT 6000 BKN007 M00/M02 Q1022 R16/390194=
201812170700 METAR LRBC 170700Z 12004KT 5000 BR OVC006 M00/M02 Q1022 R16/390194=
201812170730 METAR LRBC 170730Z 13004KT 6000 OVC005 M00/M02 Q1022 R16/390194=
201812170800 METAR LRBC 170800Z 15004KT 6000 OVC005 M00/M02 Q1023 R16/390194=
201812170830 METAR LRBC 170830Z 15005KT 3000 BR FEW003 BKN005 M00/M02
                        Q1023 R16/390194=
201812170900 METAR LRBC 170900Z 17006KT 3000 BR FEW002 BKN005 M00/M01
                        Q1023 R16/390194=
201812170930 METAR LRBC 170930Z 16007KT 3000 BR FEW002 BKN004 M00/M01
                        Q1022 R16/390194=
201812171000 METAR LRBC 171000Z 16007KT 3000 BR FEW003 BKN006 M00/M02
                        Q1022 R16/390194=
201812171030 METAR LRBC 171030Z 17008KT 3000 BR SCT002 BKN009 M01/M02
                        Q1022 R16/390194=
201812171100 METAR LRBC 171100Z 17006KT 2200 -RASN BR SCT002 BKN007 M01/M01
                        Q1022 R16/390194=
201812171130 METAR LRBC 171130Z 17006KT 2200 BR SCT002 OVC005 M01/M01
                        Q1021 R16/390194=
201812171200 METAR LRBC 171200Z 17005KT 3000 -FZRA BR FEW002 BKN004 M00/M01
                        Q1022 R16/310195=
201812171230 METAR LRBC 171230Z 16004KT 3100 -RASN BR FEW002 BKN008 M00/M02
                        Q1022 R16/310195=
201812171300 METAR LRBC 171300Z 14004KT 5000 -RASN BR FEW002 BKN019 M01/M02
                        Q1022 R16/310195=
201812171330 METAR LRBC 171330Z 15002KT 5000 BR FEW003 BKN021 M00/M02
                        Q1022 R16/310195=
201812171400 METAR LRBC 171400Z 17002KT 4000 BR BKN003 BKN005 M01/M02
                        Q1022 R16/310195=
201812171430 METAR LRBC 171430Z 18002KT 4000 BR BKN004 M01/M02 Q1022 R16/310195=
201812171500 METAR LRBC 171500Z 16003KT 4500 BR SCT003 OVC005 M01/M01
                        Q1022 R16/310195=
201812171530 METAR LRBC 171530Z 16002KT 3000 -SN BR FEW006 BKN008 M01/M01
                        Q1022 RESN R16/590394=
201812171600 METAR LRBC 171600Z 19003KT 4000 -SN BR FEW003 BKN008 M01/M02
                        Q1022 R16/590394=
201812171630 METAR LRBC 171630Z 20002KT 5000 BR FEW005 BKN007 M01/M02
                        Q1023 R16/920395=
201812171700 METAR LRBC 171700Z 18003KT 4000 -SN BR OVC008 M01/M02 Q1023
                        R16/920395=
201812171730 METAR LRBC 171730Z 00000KT 4000 -SN BR OVC007 M01/M02 Q1023
                        R16/920395=
201812171800 METAR LRBC 171800Z 00000KT 4000 -SN BR OVC007 M01/M02 Q1023
                        R16/920394=
201812171830 METAR LRBC 171830Z 00000KT 4000 -SN BR OVC007 M01/M02 Q1024
                        R16/920394=
201812171900 METAR LRBC 171900Z 00000KT 4000 -SN BR SCT006 OVC008 M01/M02
                        Q1024 R16/920394=
201812171930 METAR LRBC 171930Z 00000KT 4000 -SN BR SCT006 OVC008 M01/M02
                        Q1024 R16/920394=
201812172000 METAR LRBC 172000Z 00000KT 4000 -SN BR OVC007 M01/M02 Q1024
                        R16/920394=
201812172030 METAR LRBC 172030Z 00000KT 4000 -SN BR OVC007 M01/M02 Q1024
                        R16/920394=
201812172100 METAR LRBC 172100Z 33005KT 4000 -SN BR BKN005 OVC008 M01/M03
                        Q1025 R16/920394=
201812172130 METAR LRBC 172130Z 34006KT 3000 SN BR BKN006 OVC008 M01/M03
                        Q1025 R16/920394=
201812172200 METAR LRBC 172200Z 34006KT 2000 SN BR BKN005 BKN008 M01/M03
                        Q1025 R16/590591=
201812172230 METAR LRBC 172230Z 34006KT 1500 SN BR SCT004 OVC006 M01/M03
                        Q1025 R16/590591=
201812172300 METAR LRBC 172300Z 33007KT 3000 SN BR FEW004 BKN006 BKN008
                        M02/M03 Q1025 R16/590591=
201812172330 METAR LRBC 172330Z AUTO 34007KT 2500 -SN VV010 M02/M03 Q1025=
201812180000 METAR LRBC 180000Z AUTO 34008KT 1700 R34/1700VP2000U SN VV006
                        M02/M03 Q1025=
201812180030 METAR LRBC 180030Z 34009KT 3000 -SN BR FEW017 SCT027 OVC047
                        M02/M03 Q1025 R16/590591=
201812180100 METAR LRBC 180100Z 34008KT 3000 -SN BR BKN025 BKN047 M02/M03
                        Q1025 R16/590591=
201812180130 METAR LRBC 180130Z 34009KT 3000 -SN BR OVC013 M02/M03 Q1025
                        R16/590591=
201812180200 METAR LRBC 180200Z 34008KT 3000 -SN BR OVC013 M02/M04 Q1025
                        R16/590591=
201812180230 METAR LRBC 180230Z 34008KT 3500 -SN BR BKN023 OVC032 M02/M04
                        Q1026 R16/590591=
201812180300 METAR LRBC 180300Z 34007KT 3000 -SN BR OVC014 M02/M04 Q1026
                        R16/590591=
201812180330 METAR LRBC 180330Z 34008KT 3000 -SN BR SCT023 OVC032 M02/M04
                        Q1026 R16/590591=
201812180400 METAR LRBC 180400Z 34009KT 3000 -SN DRSN BR OVC024 M02/M04
                        Q1026 R16/850494=
201812180430 METAR LRBC 180430Z 34010KT 4000 -SN DRSN BR SCT029 OVC050
                        M02/M04 Q1027 R16/820494=
201812180500 METAR LRBC 180500Z 34009KT 4000 -SN DRSN BR OVC050 M02/M04
                        Q1027 R16/820494=
201812180530 METAR LRBC 180530Z 35008KT 4000 -SN DRSN BR SCT034 OVC050
                        M02/M04 Q1027 R16/820494=
201812180600 METAR LRBC 180600Z 34008KT 2000 -SN DRSN BR SCT006 OVC034
                        M02/M04 Q1027 R16/820494=
201812180630 METAR LRBC 180630Z 34009KT 3600 -SN DRSN BR SCT006 BKN020
                        BKN050 M02/M04 Q1027 R16/820494=
201812180700 METAR LRBC 180700Z 34009KT 4000 -SN DRSN BR SCT037 OVC043
                        M02/M04 Q1028 R16/920394=
201812180730 METAR LRBC 180730Z 34009KT 2700 -SN DRSN BR BKN023 OVC030
                        M02/M04 Q1028 R16/920394=
201812180800 METAR LRBC 180800Z 33007KT 2900 -SN DRSN BR SCT025 OVC033
                        M02/M04 Q1028 R16/920394=
201812180830 METAR LRBC 180830Z 34008KT 3100 -SN DRSN BR FEW007 BKN025
                        OVC033 M02/M03 Q1028 R16/920394=
201812180900 METAR LRBC 180900Z 33008KT 4700 -SN BR FEW008 BKN026 BKN036
                        M02/M03 Q1028 R16/920394=
201812180930 METAR LRBC 180930Z 34009KT 4700 -SN BR FEW007 BKN020 BKN030
                        M01/M03 Q1028 R16/920394=
201812181000 METAR LRBC 181000Z 34009KT 8000 FEW007 BKN030 M01/M03 Q1028
                        R16/950394=
201812181030 METAR LRBC 181030Z 34009KT 9000 BKN030 M01/M04 Q1028 R16/950394=
201812181100 METAR LRBC 181100Z 35010KT 9000 FEW010 BKN030 M01/M04 Q1028
                        R16/950394=
201812181130 METAR LRBC 181130Z 36008KT 9000 SCT012 BKN030 M01/M04 Q1027
                        R16/950394=
201812181200 METAR LRBC 181200Z 35009KT 9000 FEW010 SCT040 M02/M04 Q1027
                        R16/920395=
201812181230 METAR LRBC 181230Z 35009KT 8000 FEW011 BKN040 M02/M04 Q1028
                        R16/920395=
201812181300 METAR LRBC 181300Z 34010KT 7000 SCT040 M02/M04 Q1028 R16/920395=
201812181330 METAR LRBC 181330Z 34008KT 6000 SCT040 M02/M04 Q1028 R16/920395=
201812181400 METAR LRBC 181400Z 34007KT 6000 BKN013 BKN040 M02/M04 Q1028
                        R16/920395=
201812181430 METAR LRBC 181430Z 34009KT 6000 FEW009 BKN015 BKN040 M02/M04
                        Q1028 R16/920395=
201812181500 METAR LRBC 181500Z 35008KT 6000 BKN015 BKN040 M02/M04 Q1028
                        R16/920395=
201812181530 METAR LRBC 181530Z 35008KT 6000 BKN029 BKN040 M02/M04 Q1028
                        R16/920395=
201812181600 METAR LRBC 181600Z 33007KT 5000 BR SCT029 BKN040 M03/M05
                        Q1028 R16/920395=
201812181630 METAR LRBC 181630Z 34008KT 5000 BR FEW007 BKN044 M03/M04
                        Q1029 R16/920395=
201812181700 METAR LRBC 181700Z 34007KT 5000 BR FEW008 OVC046 M03/M04
                        Q1029 R16/920395=
201812181730 METAR LRBC 181730Z 34008KT 5000 BR BKN008 OVC046 M02/M04
                        Q1029 R16/920395=
201812181800 METAR LRBC 181800Z 34007KT 5000 BR BKN008 OVC010 M02/M04
                        Q1029 R16/920395=
201812181830 METAR LRBC 181830Z 34008KT 5000 BR BKN008 M02/M04 Q1029 R16/920395=
201812181900 METAR LRBC 181900Z 34008KT 5000 BR BKN008 M02/M04 Q1029 R16/920395=
201812181930 METAR LRBC 181930Z 35009KT 5000 BR BKN008 M02/M04 Q1030 R16/920395=
201812182000 METAR LRBC 182000Z 35009KT 5000 BR BKN007 M02/M04 Q1030 R16/920395=
201812182030 METAR LRBC 182030Z 35008KT 5000 BR BKN025 M02/M04 Q1030 R16/920395=
201812182100 METAR LRBC 182100Z 34008KT 6000 BKN025 M02/M05 Q1030 R16/920395=
201812182130 METAR LRBC 182130Z 34009KT 6000 OVC025 M02/M05 Q1029 R16/920395=
201812182200 METAR LRBC 182200Z 34007KT 6000 BKN021 M02/M05 Q1029 R16/920395=
201812182230 METAR LRBC 182230Z 34007KT 5000 -SN OVC021 M02/M04 Q1029
                        R16/920395=
201812182300 METAR LRBC 182300Z 35007KT 6000 -SN BKN018 M02/M04 Q1029
                        R16/920395=
201812182330 METAR LRBC 182330Z 34006KT 5000 -SN OVC018 M02/M04 Q1029
                        R16/920395=
201812190000 METAR LRBC 190000Z 34007KT 5000 -SN OVC016 M02/M04 Q1028
                        R16/920395=
201812190030 METAR LRBC 190030Z 35008KT 6000 -SN OVC014 M02/M04 Q1029
                        R16/920395=
201812190100 METAR LRBC 190100Z 35008KT 6000 -SN OVC012 M02/M04 Q1029
                        R16/920395=
201812190130 METAR LRBC 190130Z AUTO 35009KT 5000 SG OVC010/// M02/M04
                        Q1029=
201812190200 METAR LRBC 190200Z AUTO 35009KT 5000 -SN SCT009/// BKN011///
                        M02/M04 Q1029=
201812190230 METAR LRBC 190230Z 35010KT 5000 -SN OVC010 M02/M04 Q1029
                        R16/920395=
201812190300 METAR LRBC 190300Z 35010KT 5000 -SN OVC010 M02/M04 Q1029
                        R16/920395=
201812190330 METAR LRBC 190330Z 35010KT 5000 -SN OVC010 M02/M04 Q1029
                        R16/920395=
201812190400 METAR LRBC 190400Z 34010KT 6000 -SN OVC011 M02/M04 Q1029
                        R16/920395=
201812190430 METAR LRBC 190430Z 35009KT 6000 -SN OVC010 M02/M05 Q1029
                        R16/890394=
201812190500 METAR LRBC 190500Z 35010KT 6000 -SN OVC010 M02/M05 Q1029
                        R16/890394=
201812190530 METAR LRBC 190530Z 35011KT 6000 OVC011 M02/M05 Q1029 R16/890394=
201812190600 METAR LRBC 190600Z 35010KT 5000 BR BKN012 M02/M05 Q1029 R16/890394=
201812190630 METAR LRBC 190630Z 35009KT 5000 BR OVC010 M02/M05 Q1029 R16/890394=
201812190700 METAR LRBC 190700Z 35010KT 5000 BR BKN010 BKN015 M02/M05
                        Q1029 R16/920394=
201812190730 METAR LRBC 190730Z 35010KT 5000 BR BKN009 OVC014 M02/M05
                        Q1030 R16/920394=
201812190800 METAR LRBC 190800Z 35011KT 5000 BR FEW009 BKN013 M02/M05
                        Q1029 R16/910395=
201812190830 METAR LRBC 190830Z 35008KT 5000 BR SCT009 OVC013 M02/M05
                        Q1030 R16/910395=
201812190900 METAR LRBC 190900Z 36008KT 5000 BR SCT010 BKN013 M02/M05
                        Q1030 R16/910395=
201812190930 METAR LRBC 190930Z 36009KT 5000 BR SCT009 BKN011 M02/M05
                        Q1029 R16/910395=
201812191000 METAR LRBC 191000Z 35010KT 6000 BKN010 BKN013 M02/M05 Q1029
                        R16/910395=
201812191030 METAR LRBC 191030Z 35010KT 6000 BKN010 M02/M05 Q1029 R16/910395=
201812191100 METAR LRBC 191100Z 34010KT 6000 BKN010 M02/M05 Q1029 R16/910395=
201812191130 METAR COR LRBC 191130Z 35011KT 6000 BKN011 M02/M05 Q1029
                        R16/910395=
201812191200 METAR LRBC 191200Z 35011KT 6000 OVC013 M02/M05 Q1029 R16/910395=
201812191230 METAR LRBC 191230Z 35011KT 7000 OVC013 M02/M06 Q1029 R16/910395=
201812191300 METAR LRBC 191300Z 35011KT 7000 OVC014 M02/M06 Q1029 R16/910395=
201812191330 METAR LRBC 191330Z 35012KT 8000 OVC015 M02/M06 Q1029 R16/910395=
201812191400 METAR LRBC 191400Z 35012KT 7000 BKN015 M03/M06 Q1029 R16/910395=
201812191430 METAR LRBC 191430Z 35011KT 8000 OVC014 M03/M06 Q1029 R16/910395=
201812191500 METAR LRBC 191500Z 35011KT 7000 OVC012 M03/M06 Q1029 R16/910395=
201812191530 METAR LRBC 191530Z 34010KT 7000 BKN012 M03/M06 Q1029 R16/910395=
201812191600 METAR LRBC 191600Z 35011KT 8000 OVC013 M03/M06 Q1029 R16/910395=
201812191630 METAR LRBC 191630Z 34010KT 7000 OVC013 M03/M06 Q1029 R16/910395=
201812191700 METAR LRBC 191700Z 34010KT 7000 OVC012 M04/M06 Q1030 R16/910395=
201812191730 METAR LRBC 191730Z 34009KT 7000 BKN010 BKN013 M04/M06 Q1029
                        R16/910395=
201812191800 METAR LRBC 191800Z 35008KT 8000 BKN009 BKN013 M04/M06 Q1029
                        R16/910395=
201812191830 METAR LRBC 191830Z 35007KT 8000 OVC010 M04/M06 Q1029 R16/910395=
201812191900 METAR LRBC 191900Z 35008KT 8000 OVC010 M04/M07 Q1029 R16/910395=
201812191930 METAR LRBC 191930Z 36006KT 9000 OVC010 M04/M07 Q1029 R16/910395=
201812192000 METAR LRBC 192000Z 36009KT 8000 BKN007 OVC011 M04/M07 Q1029
                        R16/910395=
201812192030 METAR LRBC 192030Z 36010KT 7000 BKN007 OVC011 M05/M07 Q1029
                        R16/910395=
201812192100 METAR LRBC 192100Z 02008KT 7000 OVC008 M05/M07 Q1029 R16/910395=
201812192130 METAR LRBC 192130Z 02008KT 7000 OVC008 M05/M07 Q1029 R16/910395=
201812192200 METAR LRBC 192200Z 36003KT 6000 OVC008 M05/M07 Q1029 R16/910395=
201812192230 METAR LRBC 192230Z 01004KT 6000 BKN007 M05/M07 Q1029 R16/910395=
201812192300 METAR LRBC 192300Z 01003KT 340V040 6000 OVC006 M05/M07 Q1029
                        R16/910395=
201812192330 METAR LRBC 192330Z 03003KT 6000 BKN007 M05/M07 Q1028 R16/910395=
201812200000 METAR LRBC 200000Z 04003KT 6000 OVC006 M05/M07 Q1028 R16/910395=
201812200030 METAR LRBC 200030Z 02003KT 5000 BR OVC006 M05/M07 Q1028 R16/910395=
201812200100 METAR LRBC 200100Z 36003KT 5000 BR OVC006 M05/M07 Q1028 R16/910395=
201812200130 METAR LRBC 200130Z 03003KT 360V060 5000 BR BKN005 M05/M07
                        Q1028 R16/910395=
201812200200 METAR LRBC 200200Z 02003KT 5000 BR OVC005 M06/M07 Q1028 R16/910395=
201812200230 METAR LRBC 200230Z 02003KT 5000 BR OVC005 M06/M07 Q1028 R16/910395=
201812200300 METAR LRBC 200300Z 06004KT 5000 BR OVC005 M06/M07 Q1028 R16/910395=
201812200330 METAR LRBC 200330Z 08003KT 5000 BR OVC005 M06/M07 Q1028 R16/910395=
201812200400 METAR LRBC 200400Z 11003KT 5000 BR OVC004 M06/M07 Q1028 R16/910395=
201812200430 METAR LRBC 200430Z 12003KT 5000 BR OVC004 M06/M07 Q1028 R16/910395=
201812200500 METAR LRBC 200500Z 13003KT 4700 BR BKN003 OVC005 M06/M07
                        Q1028 R16/910395=
201812200530 METAR LRBC 200530Z 17003KT 5000 BR OVC004 M06/M07 Q1028 R16/910395=
201812200600 METAR LRBC 200600Z 16003KT 110V190 4000 BR OVC003 M06/M07
                        Q1028 R16/910395=
201812200630 METAR LRBC 200630Z 14005KT 3000 BR OVC003 M06/M07 Q1028 R16/910395=
201812200700 METAR LRBC 200700Z 13004KT 3000 BR BKN004 OVC007 M06/M07
                        Q1028 R16/910395=
201812200730 METAR LRBC 200730Z 14005KT 3000 BR OVC003 M06/M07 Q1028 R16/910395=
201812200800 METAR LRBC 200800Z 15008KT 3000 BR BKN003 OVC005 M06/M07
                        Q1028 R16/910395=
201812200830 METAR LRBC 200830Z 16009KT 3000 BR BKN003 OVC005 M06/M07
                        Q1028 R16/910395=
201812200900 METAR LRBC 200900Z 15010KT 2500 BR BKN002 BKN004 M06/M07
                        Q1028 R16/910395=
201812200930 METAR LRBC 200930Z 15010KT 3000 BR OVC003 M06/M07 Q1028 R16/910395=
201812201000 METAR LRBC 201000Z 15010KT 3000 BR OVC003 M06/M07 Q1027 R16/910395=
201812201030 METAR LRBC 201030Z 16010KT 3000 BR OVC003 M06/M07 Q1027 R16/910395=
201812201100 METAR LRBC 201100Z 17011KT 3000 BR OVC002 M06/M08 Q1027 R16/910395=
201812201130 METAR LRBC 201130Z 17010KT 2500 BR OVC002 M06/M07 Q1026 R16/910395=
201812201200 METAR LRBC 201200Z 17011KT 3000 BR OVC003 M06/M07 Q1026 R16/910395=
201812201230 METAR LRBC 201230Z 16012KT 4000 BR OVC003 M06/M08 Q1026 R16/910395=
201812201300 METAR LRBC 201300Z 17011KT 2000 BR OVC004 M06/M07 Q1026 R16/910395=
201812201330 METAR LRBC 201330Z 17011KT 3000 BR OVC004 M06/M07 Q1026 R16/910395=
201812201400 METAR LRBC 201400Z 17011KT 4000 BR OVC004 M06/M07 Q1026 R16/910395=
201812201430 METAR LRBC 201430Z 17012KT 4000 BR OVC004 M06/M07 Q1026 R16/910395=
201812201500 METAR LRBC 201500Z 17012KT 5000 BR OVC004 M06/M07 Q1026 R16/910395=
201812201530 METAR LRBC 201530Z 17013KT 4000 BR OVC003 M06/M07 Q1026 R16/910395=
201812201600 METAR LRBC 201600Z 17011KT 4000 BR BKN003 OVC005 M05/M07
                        Q1026 R16/910395=
201812201630 METAR LRBC 201630Z 16013KT 3000 BR BKN002 OVC004 M05/M07
                        Q1026 R16/910395=
201812201700 METAR LRBC 201700Z 17012KT 2300 BR OVC002 M05/M07 Q1026 R16/910395=
201812201730 METAR LRBC 201730Z 16011KT 1700 BR OVC001 M05/M07 Q1026 R16/910395=
201812201800 METAR LRBC 201800Z 17012KT 2600 BR BKN001 M05/M06 Q1025 R16/910395=
201812201830 METAR LRBC 201830Z 17010KT 0800 R34/0900D FZFG VV001 M05/M06
                        Q1025 R16/910395=
201812201900 METAR LRBC 201900Z 17011KT 0900 R34/1100D FZFG VV002 M05/M06
                        Q1025 R16/910395=
201812201930 METAR LRBC 201930Z 17008KT 2400 BR VV001 M04/M06 Q1025 R16/910395=
201812202000 METAR LRBC 202000Z 18007KT 150V210 3600 BR BKN001 M05/M06
                        Q1025 R16/910395=
201812202030 METAR LRBC 202030Z 19006KT 4300 BR OVC002 M04/M06 Q1025 R16/910395=
201812202100 METAR LRBC 202100Z 19006KT 5000 BR OVC003 M04/M06 Q1025 R16/910395=
201812202130 METAR LRBC 202130Z 19006KT 2000 -SN BR BKN004 OVC006 M04/M06
                        Q1025 R16/910395=
201812202200 METAR LRBC 202200Z 18008KT 3000 -SN BR OVC004 M04/M06 Q1025
                        R16/910395=
201812202230 METAR LRBC 202230Z 19009KT 3000 BR OVC003 M04/M05 Q1025 R16/910395=
201812202300 METAR LRBC 202300Z 20006KT 3000 BR OVC003 M04/M05 Q1025 R16/910395=
201812202330 METAR LRBC 202330Z 18004KT 140V200 3900 BR OVC002 M03/M05
                        Q1025 R16/910395=
201812210000 METAR LRBC 210000Z 19005KT 3400 BR OVC002 M03/M05 Q1025 R16/910395=
201812210030 METAR LRBC 210030Z 19005KT 4000 BR OVC002 M03/M05 Q1025 R16/910395=
201812210100 METAR LRBC 210100Z 20003KT 4700 BR OVC002 M04/M05 Q1025 R16/910395=
201812210130 METAR LRBC 210130Z 18008KT 2900 -SN BR OVC001 M03/M05 Q1024
                        R16/910395=
201812210200 METAR LRBC 210200Z 18007KT 2200 BR VV002 M03/M05 Q1024 RESG
                        R16/910395=
201812210230 METAR LRBC 210230Z 17009KT 0500 R34/0600N FZFG VV001 M03/M04
                        Q1024 R16/910395=
201812210300 METAR LRBC 210300Z 18006KT 0800 R34/0450N FZFG VV001 M03/M04
                        Q1024 R16/910395=
201812210330 METAR LRBC 210330Z 17007KT 0400 R34/0450N FZFG VV001 M03/M04
                        Q1024 R16/910395=
201812210400 METAR LRBC 210400Z 18006KT 0400 R34/0600N FZFG VV001 M03/M04
                        Q1024 R16/910395=
201812210430 METAR LRBC 210430Z 19006KT 0500 R34/0600N FZFG VV001 M03/M04
                        Q1025 R16/910395=
201812210500 METAR LRBC 210500Z 18007KT 0400 R34/0450N FZFG VV001 M03/M04
                        Q1025 R16/910395=
201812210530 METAR LRBC 210530Z 19007KT 0400 R34/0500N FZFG VV001 M03/M04
                        Q1025 R16/910395=
201812210600 METAR LRBC 210600Z 18007KT 0350 R34/0400N FZFG VV001 M03/M04
                        Q1025 R16/910395=
201812210630 METAR LRBC 210630Z 19007KT 0450 R34/0550N FZFG VV001 M03/M05
                        Q1025 R16/910395=
201812210700 METAR LRBC 210700Z 20004KT 0300 R34/0375N FZFG VV002 M03/M04
                        Q1025 R16/910395=
201812210730 METAR LRBC 210730Z 18005KT 0250 R34/0250N FZFG VV001 M03/M04
                        Q1025 R16/910395=
201812210800 METAR LRBC 210800Z 17007KT 0200 R34/0225N FZFG VV001 M03/M04
                        Q1025 R16/910395=
201812210830 METAR LRBC 210830Z 17008KT 0200 R34/0200N FZFG VV001 M03/M04
                        Q1025 R16/910395=
201812210900 METAR LRBC 210900Z 17011KT 0200 R34/0225N FZFG VV001 M03/M04
                        Q1025 R16/910395=
201812210930 METAR LRBC 210930Z 16009KT 0200 R34/0200N FZFG VV001 M03/M04
                        Q1024 R16/910395=
201812211000 METAR LRBC 211000Z 17012KT 0200 R34/0225N FZFG VV001 M03/M04
                        Q1024 R16/910395=
201812211030 METAR LRBC 211030Z 17008KT 0200 R34/0225N FZFG VV001 M02/M04
                        Q1024 R16/910395=
201812211100 METAR LRBC 211100Z 17008KT 0200 R34/0225N FZFG VV001 M02/M03
                        Q1024 R16/910395=
201812211130 METAR LRBC 211130Z 17008KT 0250 R34/0250N FZFG VV001 M02/M03
                        Q1024 R16/910395=
201812211200 METAR LRBC 211200Z 18008KT 0250 R34/0275N FZFG VV001 M02/M03
                        Q1024 R16/910395=
201812211230 METAR LRBC 211230Z 18007KT 0300 R34/0300N FZFG VV001 M02/M03
                        Q1024 R16/910395=
201812211300 METAR LRBC 211300Z 18007KT 0250 R34/0250N FZFG VV001 M02/M03
                        Q1023 R16/910395=
201812211330 METAR LRBC 211330Z 18009KT 0200 R34/0200N FZFG VV001 M02/M03
                        Q1023 R16/910395=
201812211400 METAR LRBC 211400Z 17009KT 0250 R34/0275N FZFG VV001 M02/M03
                        Q1023 R16/910395=
201812211430 METAR LRBC 211430Z 17008KT 0250 R34/0250N FZFG VV001 M02/M03
                        Q1023 R16/910395=
201812211500 METAR LRBC 211500Z 17008KT 0350 R34/0375N FZFG VV001 M02/M03
                        Q1023 R16/910395=
201812211530 METAR LRBC 211530Z 17010KT 0350 R34/0400N FZFG VV001 M02/M03
                        Q1024 R16/910395=
201812211600 METAR LRBC 211600Z 17008KT 0300 R34/0350N FZFG VV001 M02/M03
                        Q1023 R16/910395=
201812211630 METAR LRBC 211630Z 17009KT 0350 R34/0400N FZFG VV001 M02/M03
                        Q1023 R16/910395=
201812211700 METAR LRBC 211700Z 17010KT 0400 R34/0450N FZFG VV001 M02/M03
                        Q1023 R16/910395=
201812211730 METAR LRBC 211730Z 17010KT 0150 R34/0400N FZFG VV001 M02/M03
                        Q1023 R16/910395=
201812211800 METAR LRBC 211800Z 17008KT 0100 R34/0350N FZFG VV001 M02/M03
                        Q1023 R16/910395=
201812211830 METAR LRBC 211830Z 17009KT 0100 R34/0350N FZFG VV001 M02/M03
                        Q1022 R16/910395=
201812211900 METAR LRBC 211900Z 18011KT 0100 R34/0350N FZFG VV001 M03/M04
                        Q1022 R16/910395=
201812211930 METAR LRBC 211930Z 17011KT 0100 R34/0375N FZFG VV001 M03/M04
                        Q1022 R16/910395=
201812212000 METAR LRBC 212000Z 16010KT 0100 R34/0375N FZFG VV001 M03/M04
                        Q1021 R16/910395=
201812212030 METAR LRBC 212030Z 18010KT 0200 R34/0400N FZFG VV001 M03/M04
                        Q1021 R16/910395=
201812212100 METAR LRBC 212100Z 16011KT 0300 R34/0450N FZFG VV001 M03/M04
                        Q1021 R16/910395=
201812212130 METAR LRBC 212130Z 17013KT 0200 R34/0450N FZFG VV001 M03/M04
                        Q1020 R16/910395=
201812212200 METAR LRBC 212200Z 17013KT 0200 R34/0450N FZFG VV001 M03/M04
                        Q1020 R16/910395=
201812212230 METAR LRBC 212230Z 17014KT 0200 R34/0450N FZFG VV001 M03/M04
                        Q1020 R16/910395=
201812212300 METAR LRBC 212300Z 16013KT 0200 R34/0450N FZFG VV001 M03/M04
                        Q1019 R16/910395=
201812212330 METAR LRBC 212330Z 17014KT 0200 R34/0450N FZFG VV001 M03/M04
                        Q1019 R16/910395=
201812220000 METAR LRBC 220000Z AUTO 17012KT 0400 R34/0450N FZFG VV001
                        M03/M04 Q1019=
201812220030 METAR LRBC 220030Z AUTO 16012KT 0400 R34/0450N FZFG VV001
                        M03/M04 Q1018=
201812220100 METAR LRBC 220100Z 16011KT 0200 R34/0400N FZFG VV001 M02/M03
                        Q1018 R16/910395=
201812220130 METAR LRBC 220130Z AUTO 17011KT 0350 R34/0400N FZFG VV001
                        M02/M03 Q1017=
201812220200 METAR LRBC 220200Z 17011KT 0200 R34/0400N FZFG VV001 M02/M03
                        Q1017 R16/910395=
201812220230 METAR LRBC 220230Z 16013KT 0200 R34/0450N FZFG VV001 M02/M03
                        Q1016 R16/910395=
201812220300 METAR LRBC 220300Z 16013KT 0300 R34/0500N FZFG VV001 M02/M03
                        Q1016 R16/910395=
201812220330 METAR LRBC 220330Z 17014KT 0300 R34/0600N FZFG VV001 M02/M03
                        Q1015 R16/910395=
201812220400 METAR LRBC 220400Z 17013KT 0400 R34/1000U FZFG VV001 M02/M03
                        Q1015 R16/910395=
201812220430 METAR LRBC 220430Z 17016KT 0300 R34/0600N FZFG VV001 M02/M03
                        Q1014 R16/910395=
201812220500 METAR LRBC 220500Z 16014KT 0300 R34/0650N FZFG VV001 M02/M03
                        Q1014 R16/910395=
201812220530 METAR LRBC 220530Z 17014KT 0500 R34/0900N FZFG VV002 M02/M03
                        Q1014 R16/910395=
201812220600 METAR LRBC 220600Z 16019KT 0550 R34/0650N FZFG VV001 M02/M03
                        Q1014 R16/910395=
201812220630 METAR LRBC 220630Z 16016KT 0500 R34/0600N FZFG VV002 M02/M03
                        Q1014 R16/910395=
201812220700 METAR LRBC 220700Z 16015KT 0250 R34/0300N FZFG VV001 M02/M03
                        Q1014 R16/910395=
201812220730 METAR LRBC 220730Z 16015KT 0350 R34/0400N FZFG VV001 M02/M03
                        Q1014 R16/910395=
201812220800 METAR COR LRBC 220800Z 15011KT 120V190 0350 R34/0400N FZFG
                        VV001 M02/M03 Q1014 R16/910395=
201812220830 METAR LRBC 220830Z 16014KT 0300 R34/0350N FZFG BKN001 M02/M03
                        Q1014 R16/910395=
201812220900 METAR LRBC 220900Z 18014KT 0500 R34/0650D FZFG FEW001 BKN003
                        M02/M02 Q1013 R16/910395=
201812220930 METAR LRBC 220930Z 16011KT 1400 R34/P2000U BR FEW001 SCT003
                        M00/M01 Q1012 R16/910395=
201812221000 METAR LRBC 221000Z 16011KT 2800 BR NSC 00/M01 Q1012 R16/910395=
201812221030 METAR LRBC 221030Z 14012KT 3500 BR NSC 01/M00 Q1012 R16/910395=
201812221100 METAR LRBC 221100Z 14010KT 4100 BR NSC 01/00 Q1011 R16/910395=
201812221130 METAR LRBC 221130Z 14009KT 4100 BR FEW065 01/00 Q1011 R16/910395=
201812221200 METAR LRBC 221200Z 18009KT 7000 NSC 02/01 Q1011 R16/910395=
201812221230 METAR LRBC 221230Z 14006KT 9000 NSC 03/03 Q1011 R16/910395=
201812221300 METAR LRBC 221300Z 16011KT 9000 NSC 02/00 Q1011 R16/910395=
201812221330 METAR LRBC 221330Z 18012KT 9999 SCT060 03/01 Q1011 R16/910395=
201812221400 METAR LRBC 221400Z 18017KT 9999 SCT060 06/02 Q1011 R16/910395=
201812221430 METAR LRBC 221430Z 19014KT 9999 SCT060 07/02 Q1011 R16/910395=
201812221500 METAR LRBC 221500Z 18012KT 9999 SCT060 07/02 Q1011 R16/910395=
201812221530 METAR LRBC 221530Z 17011KT 9999 SCT060 07/02 Q1011 R16/910395=
201812221600 METAR LRBC 221600Z 17007KT 8000 SCT060 04/01 Q1011 R16/910395=
201812221630 METAR LRBC 221630Z 15006KT 7000 SCT055 04/01 Q1011 R16/910395=
201812221700 METAR LRBC 221700Z 16010KT 7000 BKN050 04/01 Q1010 R16/910395=
201812221730 METAR LRBC 221730Z 15011KT 6000 SCT055 03/00 Q1011 R16/910395=
201812221800 METAR LRBC 221800Z 18014KT 6000 NSC 02/M00 Q1010 R16/910395=
201812221830 METAR LRBC 221830Z 14008KT 6000 NSC 02/M00 Q1010 R16/910395=
201812221900 METAR LRBC 221900Z 20007KT 5000 BR SCT055 02/00 Q1010 R16/910395=
201812221930 METAR LRBC 221930Z 13007KT 6000 BKN055 04/01 Q1010 R16/910395=
201812222000 METAR LRBC 222000Z 19010KT 9999 BKN060 04/01 Q1010 R16/910395=
201812222030 METAR LRBC 222030Z 16010KT 9999 BKN055 06/02 Q1010 R16/910395=
201812222100 METAR LRBC 222100Z 17010KT 9999 BKN055 04/01 Q1010 R16/910395=
201812222130 METAR LRBC 222130Z 19012KT 9999 SCT060 03/01 Q1010 R16/910395=
201812222200 METAR LRBC 222200Z 15007KT 9999 BKN060 05/01 Q1009 R16/910395=
201812222230 METAR LRBC 222230Z 16004KT 9999 SCT060 05/02 Q1009 R16/910395=
201812222300 METAR COR LRBC 222300Z 16004KT 9999 SCT060 05/02 Q1009 R16/910395=
201812222330 METAR LRBC 222330Z 14007KT 9999 SCT055 07/02 Q1009 R16/910395=
201812230000 METAR LRBC 230000Z AUTO 16007KT 9999 FEW065/// 05/01 Q1009=
201812230030 METAR LRBC 230030Z 18003KT 9999 FEW060 05/01 Q1009 R16/910395=
201812230100 METAR LRBC 230100Z AUTO 21002KT 170V320 9999 SCT060/// BKN240///
                        07/02 Q1009=
201812230130 METAR COR LRBC 230130Z 31004KT 9999 FEW060 05/01 Q1009 R16/910395=
201812230200 METAR LRBC 230200Z 31004KT 9999 FEW060 05/01 Q1009 R16/910395=
201812230230 METAR COR LRBC 230230Z 26013KT 9999 FEW055 08/01 Q1009 R16/910395=
201812230300 METAR LRBC 230300Z 03011KT 9999 FEW055 07/01 Q1010 R16/910395=
201812230330 METAR LRBC 230330Z 34007KT 9999 SCT055 05/01 Q1010 R16/910395=
201812230400 METAR LRBC 230400Z 36006KT 9999 SCT060 07/01 Q1010 R16/910395=
201812230430 METAR LRBC 230430Z 03006KT 9999 FEW050 07/01 Q1011 R16/910395=
201812230500 METAR LRBC 230500Z 36006KT 9999 BKN045 06/01 Q1012 R16/910395=
201812230530 METAR LRBC 230530Z 35008KT 9999 SCT055 05/01 Q1013 R16/910395=
201812230600 METAR LRBC 230600Z 35006KT 9999 SCT047 04/01 Q1013 R16/910395=
201812230630 METAR LRBC 230630Z 32006KT 290V360 9999 SCT060 03/01 Q1013
                        R16/910395=
201812230700 METAR LRBC 230700Z 29004KT 9999 FEW060 03/00 Q1014 R16/910395=
201812230730 METAR LRBC 230730Z 26002KT 9999 SCT065 03/00 Q1014 R16/910395=
201812230800 METAR LRBC 230800Z 23004KT CAVOK 04/00 Q1015 R16/910395=
201812230830 METAR LRBC 230830Z 12002KT 090V170 CAVOK 07/01 Q1015 R16/910395=
201812230900 METAR LRBC 230900Z 18002KT CAVOK 07/01 Q1015 R16/910395=
201812230930 METAR LRBC 230930Z 10004KT CAVOK 07/02 Q1015 R16/910395=
201812231000 METAR LRBC 231000Z VRB03KT CAVOK 04/01 Q1015 R16/910395=
201812231030 METAR LRBC 231030Z 28004KT CAVOK 04/01 Q1015 R16/910395=
201812231100 METAR LRBC 231100Z 29004KT 9999 FEW055 05/01 Q1015 R16/CLRD//=
201812231130 METAR LRBC 231130Z 36003KT 320V040 9999 FEW065 07/01 Q1015=
201812231200 METAR LRBC 231200Z 01006KT 340V060 9999 FEW065 07/M00 Q1016=
201812231230 METAR LRBC 231230Z 03005KT 360V080 9999 FEW065 07/M00 Q1016=
201812231300 METAR LRBC 231300Z 02005KT 350V060 CAVOK 06/M00 Q1016=
201812231330 METAR LRBC 231330Z 36006KT CAVOK 05/M01 Q1017=
201812231400 METAR LRBC 231400Z 36005KT CAVOK 05/M01 Q1017=
201812231430 METAR LRBC 231430Z 28004KT CAVOK 02/M02 Q1017=
201812231500 METAR LRBC 231500Z 29004KT CAVOK 02/M02 Q1017=
201812231530 METAR LRBC 231530Z 29005KT 260V330 CAVOK 01/M02 Q1018=
201812231600 METAR LRBC 231600Z 25002KT 9999 BKN055 02/M01 Q1018=
201812231630 METAR LRBC 231630Z 15001KT 9999 FEW055 01/M02 Q1018=
201812231700 METAR LRBC 231700Z 00000KT CAVOK 02/M02 Q1018=
201812231730 METAR LRBC 231730Z 00000KT CAVOK 01/M02 Q1018=
201812231800 METAR LRBC 231800Z 00000KT 9999 BKN050 01/M02 Q1018=
201812231830 METAR LRBC 231830Z 00000KT 9000 BKN050 01/M02 Q1018=
201812231900 METAR LRBC 231900Z 00000KT 9000 BKN060 01/M01 Q1018=
201812231930 METAR LRBC 231930Z AUTO 00000KT 9999 BKN075/// 01/M01 Q1018=
201812232000 METAR LRBC 232000Z 00000KT 9000 BKN065 00/M02 Q1018=
201812232030 METAR LRBC 232030Z 00000KT 8000 BKN065 00/M02 Q1018=
201812232100 METAR LRBC 232100Z 00000KT 8000 SCT040 BKN065 M01/M02 Q1017=
201812232130 METAR LRBC 232130Z 18002KT 150V260 8000 SCT040 BKN065 M00/M02
                        Q1017=
201812232200 METAR LRBC 232200Z 00000KT 8000 BKN065 M01/M03 Q1017=
201812232230 METAR LRBC 232230Z 16007KT 6000 BKN065 M01/M03 Q1017=
201812232300 METAR LRBC 232300Z 17006KT 8000 SCT060 M01/M03 Q1016=
201812232330 METAR LRBC 232330Z 17006KT 8000 SCT060 M01/M03 Q1016=
201812240000 METAR LRBC 240000Z 17009KT 9999 SCT060 M01/M02 Q1016=
201812240030 METAR LRBC 240030Z 18011KT 9999 SCT060 M00/M02 Q1016=
201812240100 METAR LRBC 240100Z 17011KT 7000 SCT060 00/M01 Q1015=
201812240130 METAR LRBC 240130Z AUTO 16011KT 8000 BKN100/// OVC120///
                        01/M01 Q1014=
201812240200 METAR LRBC 240200Z 16012KT 6000 BKN060 01/M01 Q1014=
201812240230 METAR LRBC 240230Z 16012KT 6000 SCT060 01/M01 Q1014=
201812240300 METAR LRBC 240300Z 15010KT 6000 SCT060 01/M00 Q1012=
201812240330 METAR LRBC 240330Z 15012KT 5000 BR SCT060 02/00 Q1012=
201812240400 METAR LRBC 240400Z 16013KT 4400 BR SCT060 02/00 Q1011=
201812240430 METAR LRBC 240430Z 17015KT 4100 BR SCT060 02/00 Q1011=
201812240500 METAR LRBC 240500Z 17011KT 2600 BR BKN060 01/00 Q1011=
201812240530 METAR LRBC 240530Z 18011KT 3200 BR BKN065 01/00 Q1011=
201812240600 METAR LRBC 240600Z 16009KT 4400 BR BKN055 02/01 Q1010=
201812240630 METAR LRBC 240630Z 16012KT 8000 BKN055 02/00 Q1010=
201812240700 METAR LRBC 240700Z 16010KT 8000 BKN055 02/00 Q1009=
201812240730 METAR LRBC 240730Z 16009KT 8000 BKN065 02/M00 Q1008=
201812240800 METAR LRBC 240800Z 17012KT 6000 -RA BKN065 02/00 Q1007=
201812240830 METAR LRBC 240830Z 17011KT 8000 -RA FEW044 BKN065 02/M00
                        Q1007=
201812240900 METAR LRBC 240900Z 17015KT 4000 -RA BR BKN037 OVC055 01/M00
                        Q1006=
201812240930 METAR LRBC 240930Z 17013KT 0300 R34/0400N -RA FG FEW001 OVC004
                        01/00 Q1005=
201812241000 METAR LRBC 241000Z 18013KT 0500 R34/0600N -RA FG OVC003 01/00
                        Q1005=
201812241030 METAR LRBC 241030Z 18012KT 2000 -RA BR BKN001 OVC003 01/00
                        Q1003=
201812241100 METAR LRBC 241100Z 17008KT 3000 -RASN BR BKN002 OVC004 01/01
                        Q1003=
201812241130 METAR LRBC 241130Z 17006KT 2000 -RASN BR BKN003 OVC010 01/00
                        Q1002 R16/220295=
201812241200 METAR LRBC 241200Z 17007KT 1500 -RASN BR SCT001 BKN004 OVC010
                        01/00 Q1002 R16/220295=
201812241230 METAR LRBC 241230Z 18005KT 3000 -RA BR FEW001 OVC010 01/01
                        Q1002 R16/220295=
201812241300 METAR LRBC 241300Z 22003KT 3000 -RASN BR SCT007 OVC010 01/01
                        Q1002 R16/220295=
201812241330 METAR LRBC 241330Z 26002KT 3000 -RASN BKN005 OVC022 01/01
                        Q1002 R16/220295=
201812241400 METAR LRBC 241400Z 36006KT 2500 -SN BR BKN005 OVC034 01/01
                        Q1003 R16/220295=
201812241430 METAR LRBC 241430Z 34008KT 2000 -SN BR SCT001 OVC010 01/01
                        Q1003 R16/220295=
201812241500 METAR LRBC 241500Z 34011KT 2500 -SN BR SCT002 BKN005 OVC013
                        02/01 Q1004 R16/620295=
201812241530 METAR LRBC 241530Z 34012KT 4000 -SN BR BKN005 OVC007 02/01
                        Q1004 R16/620295=
201812241600 METAR LRBC 241600Z 34014KT 6000 -SN BKN006 OVC010 02/01 Q1004
                        R16/620295=
201812241630 METAR LRBC 241630Z 34012KT 5000 -SN BR FEW006 BKN009 OVC014
                        02/01 Q1005 R16/620295=
201812241700 METAR LRBC 241700Z 34013KT 8000 -RASN SCT008 OVC015 03/01
                        Q1006 R16/620295=
201812241730 METAR LRBC 241730Z 34021KT 6000 -RASN BKN011 OVC023 03/01
                        Q1007 R16/620295=
201812241800 METAR LRBC 241800Z 35023KT 7000 -RASN FEW013 BKN020 OVC031
                        03/M00 Q1008 R16/620295=
201812241830 METAR LRBC 241830Z 35028G42KT 6000 -RASN SCT019 BKN023 OVC033
                        02/M01 Q1009 R16/620295=
201812241900 METAR LRBC 241900Z 34029G39KT 7000 SCT021 BKN027 BKN031 03/M02
                        Q1009 R16/620295=
201812241930 METAR LRBC 241930Z 35028G41KT 9999 FEW032 BKN055 03/M02 Q1010
                        R16/620295=
201812242000 METAR LRBC 242000Z 35023KT 9999 FEW038 03/M02 Q1011 R16/620295=
201812242030 METAR LRBC 242030Z 34024G35KT 9999 BKN038 03/M02 Q1012 R16/620295=
201812242100 METAR LRBC 242100Z 34028KT 9999 FEW034 SCT041 OVC048 03/M02
                        Q1012 R16/620295=
201812242130 METAR LRBC 242130Z 33024KT 9999 FEW050 03/M03 Q1012 R16/920395=
201812242200 METAR LRBC 242200Z 34023G34KT 9999 SCT090 02/M03 Q1013 R16/920395=
201812242230 METAR LRBC 242230Z 34027KT CAVOK 02/M03 Q1012 R16/920395=
201812242300 METAR LRBC 242300Z AUTO 34023KT 9999 FEW100/// 02/M04 Q1013=
201812242330 METAR LRBC 242330Z 33023KT CAVOK 02/M04 Q1014 R16/920395=
201812250000 METAR LRBC 250000Z 33024KT 9999 FEW055 02/M03 Q1014 R16/920395=
201812250030 METAR LRBC 250030Z 34017KT 9999 FEW026 BKN049 01/M04 Q1015
                        R16/920395=
201812250100 METAR LRBC 250100Z 34021KT 9999 FEW050 01/M04 Q1015 R16/920395=
201812250130 METAR LRBC 250130Z 35020KT 9999 FEW039 01/M04 Q1015 R16/920395=
201812250200 METAR LRBC 250200Z 35020KT 9999 FEW039 01/M04 Q1015 R16/920395=
201812250230 METAR LRBC 250230Z 35011KT 9999 FEW032 SCT049 00/M05 Q1015
                        R16/920395=
201812250300 METAR LRBC 250300Z 33010KT 9999 FEW033 SCT050 OVC065 00/M05
                        Q1016 R16/920395=
201812250330 METAR LRBC 250330Z 33018KT 9999 SCT047 01/M06 Q1016 R16/920395=
201812250400 METAR LRBC 250400Z 34012KT 9999 FEW044 BKN050 00/M05 Q1016
                        R16/920395=
201812250430 METAR LRBC 250430Z 33012KT 9999 FEW042 BKN049 01/M05 Q1016
                        R16/920395=
201812250500 METAR LRBC 250500Z 32009KT 9999 FEW042 BKN050 01/M05 Q1016
                        R16/920395=
201812250530 METAR LRBC 250530Z 32007KT 9999 SCT045 BKN060 M00/M04 Q1017
                        R16/920395=
201812250600 METAR LRBC 250600Z 30004KT 9999 FEW045 SCT055 M00/M04 Q1017
                        R16/920395=
201812250630 METAR LRBC 250630Z 30008KT 9999 SCT060 M01/M05 Q1017 R16/920395=
201812250700 METAR LRBC 250700Z 29008KT 9999 SCT055 M01/M05 Q1017 R16/920395=
201812250730 METAR LRBC 250730Z 34006KT 9999 BKN060 M01/M05 Q1017 R16/920395=
201812250800 METAR LRBC 250800Z 34007KT 9999 BKN055 00/M05 Q1017 R16/920395=
201812250830 METAR LRBC 250830Z 34013KT 9999 BKN050 02/M04 Q1017 R16/920395=
201812250900 METAR LRBC 250900Z 32016KT 9999 -SN FEW034 BKN046 02/M04
                        Q1017 R16/920395=
201812250930 METAR LRBC 250930Z 32013KT 9999 FEW034 OVC046 02/M04 Q1017
                        R16/920395=
201812251000 METAR LRBC 251000Z 31013KT 9999 SCT040 BKN050 02/M05 Q1017
                        R16/920395=
201812251030 METAR LRBC 251030Z 31013KT 9999 SCT039 BKN045 02/M03 Q1017
                        R16/920395=
201812251100 METAR LRBC 251100Z 32010KT 9999 SCT046 BKN065 02/M03 Q1017
                        R16/920395=
201812251130 METAR LRBC 251130Z 32010KT 9999 BKN050 OVC065 02/M03 Q1017
                        R16/920395=
201812251200 METAR LRBC 251200Z 34010KT 9999 SCT045 BKN055 02/M04 Q1018
                        R16/920395=
201812251230 METAR LRBC 251230Z 36010KT 9999 SCT044 BKN050 02/M04 Q1018
                        R16/920395=
201812251300 METAR LRBC 251300Z 36012KT 9999 -SN OVC047 02/M03 Q1018 R16/920395=
201812251330 METAR LRBC 251330Z 35014KT 6000 -SN BKN029 OVC046 01/M03
                        Q1019 R16/920395=
201812251400 METAR LRBC 251400Z 35013KT 3000 SN SCT025 BKN029 00/M02 Q1019
                        R16/920395=
201812251430 METAR LRBC 251430Z 34014KT 2000 SN BR VV013 M00/M02 Q1019
                        R16/920395=
201812251500 METAR LRBC 251500Z 35010KT 3000 SN BR VV013 M00/M02 Q1020
                        R16/920395=
201812251530 METAR LRBC 251530Z 34011KT 4000 -SN BR SCT025 OVC040 M00/M02
                        Q1020 RESN R16/920395=
201812251600 METAR LRBC 251600Z 34011KT 4000 -SN BR FEW029 OVC037 M00/M02
                        Q1020 R16/920395=
201812251630 METAR LRBC 251630Z 35010KT 7000 -SN FEW034 OVC047 00/M01
                        Q1020 R16/920395=
201812251700 METAR LRBC 251700Z 33008KT 8000 -SN FEW042 BKN055 M00/M02
                        Q1020 R16/920395=
201812251730 METAR LRBC 251730Z 33006KT 9999 -SN SCT050 M01/M02 Q1020
                        R16/920395=
201812251800 METAR LRBC 251800Z 02003KT 340V050 9999 BKN065 M00/M02 Q1020
                        R16/920395=
201812251830 METAR LRBC 251830Z 34006KT CAVOK 00/M02 Q1020 R16/920395=
201812251900 METAR LRBC 251900Z 34004KT 9999 FEW055 00/M02 Q1020 R16/920395=
201812251930 METAR LRBC 251930Z VRB02KT CAVOK M01/M03 Q1020 R16/920395=
201812252000 METAR LRBC 252000Z VRB01KT 9999 SCT050 M00/M03 Q1021 R16/920395=
201812252030 METAR LRBC 252030Z 03006KT 9999 FEW050 M00/M02 Q1021 R16/920395=
201812252100 METAR LRBC 252100Z 36004KT CAVOK 00/M03 Q1021 R16/920395=
201812252130 METAR LRBC 252130Z 33004KT CAVOK M01/M03 Q1021 R16/920395=
201812252200 METAR LRBC 252200Z 36005KT 9999 SCT055 00/M03 Q1021 R16/920395=
201812252230 METAR LRBC 252230Z 32005KT 9999 BKN050 M01/M04 Q1021 R16/920395=
201812252300 METAR LRBC 252300Z 32003KT 9999 SCT050 M01/M05 Q1021 R16/920395=
201812252330 METAR LRBC 252330Z 33004KT 300V360 CAVOK M00/M06 Q1021 R16/920395=
201812260000 METAR LRBC 260000Z 00000KT CAVOK M01/M06 Q1021 R16/920395=
201812260030 METAR LRBC 260030Z AUTO 11003KT 9999 FEW050/// SCT070///
                        M02/M05 Q1021=
201812260100 METAR LRBC 260100Z 06002KT CAVOK M02/M05 Q1021 R16/920395=
201812260130 METAR COR LRBC 260130Z 27005KT CAVOK M07/M09 Q1021 R16/920395=
201812260200 METAR LRBC 260200Z AUTO 28004KT 260V330 9999 BKN043/// M04/M06
                        Q1021=
201812260230 METAR LRBC 260230Z AUTO 30001KT 9999 FEW038/// OVC046///
                        M02/M06 Q1021=
201812260300 METAR LRBC 260300Z 14002KT 9999 OVC043 M02/M05 Q1021 R16/920395=
201812260330 METAR LRBC 260330Z 19003KT 9999 OVC050 M03/M05 Q1021 R16/920395=
201812260400 METAR LRBC 260400Z 12003KT 070V180 9999 OVC050 M01/M05 Q1021
                        R16/920395=
201812260430 METAR LRBC 260430Z 10004KT 9999 BKN046 M02/M04 Q1021 R16/950394=
201812260500 METAR LRBC 260500Z 11004KT 050V130 9999 OVC045 M01/M04 Q1020
                        R16/950394=
201812260530 METAR LRBC 260530Z 08004KT 9999 BKN045 M01/M04 Q1020 R16/950394=
201812260600 METAR LRBC 260600Z VRB03KT 9999 OVC044 01/M04 Q1020 R16/950394=
201812260630 METAR LRBC 260630Z 33003KT 9999 BKN044 03/M04 Q1020 R16/950394=
201812260700 METAR LRBC 260700Z 27008KT 9999 BKN041 03/M05 Q1020 R16/950394=
201812260730 METAR LRBC 260730Z 32004KT 9999 BKN039 03/M04 Q1021 R16/950394=
201812260800 METAR LRBC 260800Z 05002KT 9999 FEW024 BKN038 02/M03 Q1021
                        R16/950394=
201812260830 METAR LRBC 260830Z 08004KT 9999 BKN043 02/M04 Q1021 R16/950394=
201812260900 METAR LRBC 260900Z 14003KT 9999 BKN040 03/M03 Q1020 R16/950394=
201812260930 METAR LRBC 260930Z 14004KT 9999 BKN044 03/M03 Q1020 R16/950394=
201812261000 METAR LRBC 261000Z 15005KT 9999 SCT046 03/M03 Q1019 R16/950394=
201812261030 METAR LRBC 261030Z 17004KT 9999 SCT045 04/M03 Q1019 R16/950394=
201812261100 METAR LRBC 261100Z 30002KT 9999 FEW050 05/M03 Q1019 R16/950394=
201812261130 METAR LRBC 261130Z 25009KT 9999 SCT060 06/M03 Q1018 R16/950394=
201812261200 METAR LRBC 261200Z 26013KT 9999 FEW055 05/M03 Q1018 R16/950394=
201812261230 METAR LRBC 261230Z 26011KT 9999 SCT048 05/M03 Q1018 R16/19//95=
201812261300 METAR LRBC 261300Z 26011KT 9999 SCT048 05/M03 Q1018 R16/19//95=
201812261330 METAR LRBC 261330Z 28009KT 9999 BKN060 04/M02 Q1018 R16/19//95=
201812261400 METAR LRBC 261400Z 26012KT 9999 BKN048 05/M03 Q1019 R16/19//95=
201812261430 METAR LRBC 261430Z 25011KT 9999 FEW043 04/M03 Q1018 R16/19//95=
201812261500 METAR LRBC 261500Z 25011KT CAVOK 04/M03 Q1018 R16/19//95=
201812261530 METAR LRBC 261530Z 25011KT CAVOK 04/M03 Q1017 R16/19//95=
201812261600 METAR LRBC 261600Z 25009KT CAVOK 04/M02 Q1017 R16/19//95=
201812261630 METAR LRBC 261630Z 26011KT CAVOK 04/M03 Q1017 R16/CLRD//=
201812261700 METAR LRBC 261700Z 26010KT 9999 OVC055 04/M02 Q1017=
201812261730 METAR LRBC 261730Z 29009KT 9999 OVC055 05/M03 Q1017=
201812261800 METAR LRBC 261800Z 28009KT 9999 OVC055 05/M03 Q1017=
201812261830 METAR LRBC 261830Z 27006KT 9999 FEW044 OVC050 05/M02 Q1017=
201812261900 METAR LRBC 261900Z 28007KT 9999 OVC050 05/M03 Q1017=
201812261930 METAR LRBC 261930Z 28008KT 9999 OVC048 05/M03 Q1017=
201812262000 METAR LRBC 262000Z 28009KT 9999 OVC049 05/M02 Q1017=
201812262030 METAR LRBC 262030Z 28006KT 9999 OVC049 04/M02 Q1017=
201812262100 METAR LRBC 262100Z 32004KT 9999 OVC049 04/M02 Q1017=
201812262130 METAR LRBC 262130Z 31003KT 9999 OVC046 04/M02 Q1017=
201812262200 METAR LRBC 262200Z VRB02KT 9999 BKN048 04/M02 Q1017=
201812262230 METAR LRBC 262230Z 10004KT 9999 OVC050 04/M02 Q1018=
201812262300 METAR LRBC 262300Z VRB02KT 9999 SCT055 04/M03 Q1018=
201812262330 METAR LRBC 262330Z AUTO 00000KT 9999 SCT046/// BKN065///
                        03/M02 Q1018=
201812270000 METAR LRBC 270000Z AUTO 21002KT 9999 SCT045/// BKN060///
                        02/M02 Q1018=
201812270030 METAR LRBC 270030Z 17003KT 080V210 9999 BKN045 BKN065 03/M02
                        Q1018=
201812270100 METAR LRBC 270100Z 06003KT 020V100 9999 BKN046 03/M02 Q1018=
201812270130 METAR LRBC 270130Z VRB01KT 9999 BKN050 BKN065 03/M01 Q1019=
201812270200 METAR LRBC 270200Z 24003KT 9999 BKN049 02/M01 Q1019=
201812270230 METAR LRBC 270230Z 02003KT 280V070 9999 OVC049 03/M01 Q1019=
201812270300 METAR LRBC 270300Z 00000KT 9999 SCT050 BKN065 03/M01 Q1019=
201812270330 METAR LRBC 270330Z VRB02KT 9999 SCT055 BKN065 03/M01 Q1019=
201812270400 METAR LRBC 270400Z 25003KT 9999 OVC060 02/M01 Q1019=
201812270430 METAR LRBC 270430Z VRB02KT 9999 OVC060 02/M01 Q1019=
201812270500 METAR LRBC 270500Z 28003KT 210V290 9999 SCT050 BKN065 03/M01
                        Q1020=
201812270530 METAR LRBC 270530Z 29004KT 9999 SCT050 BKN065 03/M01 Q1020=
201812270600 METAR LRBC 270600Z 32005KT 9999 SCT050 BKN065 03/M01 Q1020=
201812270630 METAR LRBC 270630Z 33008KT 9999 SCT050 BKN065 03/M01 Q1020=
201812270700 METAR LRBC 270700Z 32009KT 9999 BKN055 04/M01 Q1021=
201812270730 METAR LRBC 270730Z 34008KT 9999 BKN055 04/M01 Q1021=
201812270800 METAR LRBC 270800Z 31005KT 9999 BKN055 04/M01 Q1021=
201812270830 METAR LRBC 270830Z 33009KT 9999 BKN055 04/M01 Q1021=
201812270900 METAR LRBC 270900Z 33006KT 9999 BKN055 04/M01 Q1021=
201812270930 METAR LRBC 270930Z 33007KT 9999 BKN055 04/M01 Q1021=
201812271000 METAR LRBC 271000Z 34008KT 9999 BKN055 05/M01 Q1021=
201812271030 METAR LRBC 271030Z 35009KT 9999 BKN055 05/M01 Q1021=
201812271100 METAR LRBC 271100Z 36012KT 9999 BKN050 05/M01 Q1020=
201812271130 METAR LRBC 271130Z 35009KT 9999 BKN055 04/M01 Q1020=
201812271200 METAR LRBC 271200Z 35008KT 9999 BKN055 05/M01 Q1020=
201812271230 METAR LRBC 271230Z 01007KT 9999 BKN055 06/M00 Q1021=
201812271300 METAR LRBC 271300Z 10003KT 9999 BKN055 05/M00 Q1021=
201812271330 METAR LRBC 271330Z 20001KT 9999 BKN055 05/M00 Q1021=
201812271400 METAR LRBC 271400Z 23002KT 9999 FEW055 05/M00 Q1021=
201812271430 METAR LRBC 271430Z 21002KT 9999 SCT055 04/M00 Q1021=
201812271500 METAR LRBC 271500Z 21001KT 9999 BKN055 03/M00 Q1021=
201812271530 METAR LRBC 271530Z 20003KT 9999 BKN050 03/M00 Q1021=
201812271600 METAR LRBC 271600Z 21002KT 9999 BKN050 02/M00 Q1021=
201812271630 METAR LRBC 271630Z 20002KT 9999 BKN050 03/M00 Q1021=
201812271700 METAR LRBC 271700Z 14002KT 9999 SCT048 BKN060 03/M00 Q1021=
201812271730 METAR LRBC 271730Z 17003KT 7000 FEW040 BKN048 03/M00 Q1021=
201812271800 METAR LRBC 271800Z 15003KT 6000 -RA BKN050 03/00 Q1021=
201812271830 METAR LRBC 271830Z 15003KT 6000 -RA BKN060 02/M00 Q1021=
201812271900 METAR LRBC 271900Z 14004KT 6000 SCT055 02/M00 Q1021 R16/19//95=
201812271930 METAR LRBC 271930Z 15006KT 6000 OVC060 02/M00 Q1020 R16/19//95=
201812272000 METAR LRBC 272000Z 15007KT 8000 SCT060 02/M00 Q1020 R16/19//95=
201812272030 METAR LRBC 272030Z 17007KT 9000 SCT050 02/M01 Q1020 R16/19//95=
201812272100 METAR LRBC 272100Z 17005KT 9000 OVC044 02/M00 Q1020 R16/19//95=
201812272130 METAR LRBC 272130Z 17005KT 9000 OVC044 02/M00 Q1020 R16/19//95=
201812272200 METAR LRBC 272200Z 16004KT 9999 BKN043 02/M00 Q1019 R16/19//95=
201812272230 METAR LRBC 272230Z 16004KT 9999 BKN043 02/M00 Q1019 R16/19//95=
201812272300 METAR LRBC 272300Z 13006KT 9999 OVC045 03/M01 Q1019 R16/19//95=
201812272330 METAR LRBC 272330Z AUTO 11004KT 060V130 9999 SCT043/// OVC050///
                        03/M01 Q1019=
201812280000 METAR LRBC 280000Z 13006KT 9999 OVC045 03/M01 Q1019 R16/19//95=
201812280030 METAR LRBC 280030Z 12004KT 9999 SCT049 02/M01 Q1018 R16/19//95=
201812280100 METAR COR LRBC 280100Z 17003KT 130V250 9999 BKN065 02/M01
                        Q1019 R16/19//95=
201812280130 METAR LRBC 280130Z 13004KT 9999 FEW048 03/M01 Q1018 R16/19//95=
201812280200 METAR COR LRBC 280200Z 06002KT 9999 SCT050 02/M01 Q1018 R16/19//95=
201812280230 METAR COR LRBC 280230Z 06002KT 9999 SCT050 02/M01 Q1018 R16/19//95=
201812280300 METAR LRBC 280300Z 06002KT 9999 SCT050 02/M01 Q1018 R16/19//95=
201812280330 METAR LRBC 280330Z 00000KT 6000 BKN055 02/00 Q1018 R16/19//95=
201812280400 METAR LRBC 280400Z 00000KT 6000 -RA FEW037 BKN050 02/01 Q1018
                        R16/19//95=
201812280430 METAR LRBC 280430Z 12004KT 6000 -RA FEW037 BKN046 02/00 Q1018
                        R16/19//95=
201812280500 METAR LRBC 280500Z 00000KT 7000 -RA SCT029 BKN040 03/01 Q1018
                        R16/19//95=
201812280530 METAR LRBC 280530Z VRB02KT 9999 -RA OVC040 06/01 Q1018 R16/220395=
201812280600 METAR LRBC 280600Z 11004KT 9999 -RA BKN050 03/01 Q1018 R16/220395=
201812280630 METAR LRBC 280630Z 12003KT 100V170 9999 -RA BKN049 04/01
                        Q1018 R16/220395=
201812280700 METAR LRBC 280700Z 13004KT 090V160 9999 BKN047 04/01 Q1018
                        R16/220395=
201812280730 METAR LRBC 280730Z 10005KT 9999 BKN047 04/01 Q1018 R16/220395=
201812280800 METAR LRBC 280800Z 11004KT 9999 BKN049 04/02 Q1018 R16/220395=
201812280830 METAR LRBC 280830Z 11003KT 080V140 9999 BKN047 04/02 Q1018
                        R16/220395=
201812280900 METAR LRBC 280900Z 13004KT 090V150 9999 BKN050 05/02 Q1017
                        R16/220395=
201812280930 METAR LRBC 280930Z 21001KT 9999 BKN049 04/02 Q1017 R16/220395=
201812281000 METAR LRBC 281000Z 00000KT 9999 BKN048 04/02 Q1017 R16/220395=
201812281030 METAR LRBC 281030Z 00000KT 9999 BKN045 05/02 Q1017 R16/220395=
201812281100 METAR LRBC 281100Z 27002KT 240V300 9999 BKN041 05/02 Q1016
                        R16/220395=
201812281130 METAR LRBC 281130Z 19002KT 9999 BKN043 05/02 Q1016 R16/220395=
201812281200 METAR LRBC 281200Z 20001KT 9999 BKN046 06/02 Q1016 R16/220395=
201812281230 METAR LRBC 281230Z 20001KT 9999 BKN046 05/01 Q1016 R16/220395=
201812281300 METAR LRBC 281300Z 27002KT 230V290 9999 BKN045 BKN060 04/01
                        Q1016 R16/210295=
201812281330 METAR LRBC 281330Z 27002KT 230V350 9999 BKN046 06/02 Q1017
                        R16/210295=
201812281400 METAR LRBC 281400Z 23002KT 9999 SCT050 04/01 Q1017 R16/210295=
201812281430 METAR LRBC 281430Z 36002KT 9999 OVC050 05/01 Q1017 R16/210295=
201812281500 METAR LRBC 281500Z 00000KT 9999 OVC055 04/01 Q1017 R16/210295=
201812281530 METAR LRBC 281530Z 03002KT 320V080 9000 -RA BKN047 04/02
                        Q1017 R16/210295=
201812281600 METAR LRBC 281600Z 24005KT 7000 BKN050 03/01 Q1017 R16/210295=
201812281630 METAR LRBC 281630Z 20002KT 9999 OVC065 04/01 Q1017 R16/210295=
201812281700 METAR LRBC 281700Z 11003KT 080V150 9999 BKN055 04/01 Q1017
                        R16/210295=
201812281730 METAR LRBC 281730Z 11003KT 8000 OVC065 03/01 Q1017 R16/210295=
201812281800 METAR LRBC 281800Z 20001KT 5000 BR BKN065 03/01 Q1017 R16/19//95=
201812281830 METAR LRBC 281830Z 34002KT 6000 OVC065 03/01 Q1017 R16/19//95=
201812281900 METAR LRBC 281900Z 03002KT 6000 OVC065 03/01 Q1017 R16/19//95=
201812281930 METAR LRBC 281930Z 34002KT 4400 BR OVC065 02/01 Q1017 R16/19//95=
201812282000 METAR LRBC 282000Z 09003KT 3700 BR OVC065 03/01 Q1017 R16/19//95=
201812282030 METAR LRBC 282030Z 23002KT 5000 BR BKN065 02/01 Q1017 R16/19//95=
201812282100 METAR LRBC 282100Z 17002KT 4600 BR OVC065 02/01 Q1017 R16/19//95=
201812282130 METAR LRBC 282130Z 15004KT 090V170 4700 BR OVC065 02/01 Q1017
                        R16/19//95=
201812282200 METAR LRBC 282200Z 13002KT 5000 BR OVC065 02/01 Q1017 R16/19//95=
201812282230 METAR LRBC 282230Z 26002KT 3800 BR OVC065 02/00 Q1017 R16/19//95=
201812282300 METAR LRBC 282300Z 17003KT 4200 BR OVC065 02/00 Q1017 R16/19//95=
201812282330 METAR LRBC 282330Z 13003KT 5000 BR BKN065 02/00 Q1017 R16/19//95=
201812290000 METAR LRBC 290000Z VRB01KT 5000 BR OVC065 02/00 Q1017 R16/19//95=
201812290030 METAR LRBC 290030Z 33005KT 3900 BR OVC065 01/M00 Q1017 R16/19//95=
201812290100 METAR LRBC 290100Z 35002KT 6000 OVC065 02/01 Q1017 R16/19//95=
201812290130 METAR LRBC 290130Z AUTO 03004KT 360V070 5000 SCT060/// BKN075///
                        02/01 Q1018 REUP=
201812290200 METAR LRBC 290200Z AUTO 00000KT 4100 BR SCT055/// BKN070///
                        02/00 Q1017=
201812290230 METAR LRBC 290230Z 35002KT 6000 OVC065 02/01 Q1017 R16/19//95=
201812290300 METAR LRBC 290300Z 00000KT 4000 BR OVC055 02/00 Q1017 R16/19//95=
201812290330 METAR LRBC 290330Z 00000KT 3800 BR SCT042 OVC055 02/00 Q1017
                        R16/19//95=
201812290400 METAR LRBC 290400Z 34001KT 3800 BR SCT041 OVC050 02/01 Q1018
                        R16/19//95=
201812290430 METAR LRBC 290430Z 08003KT 3800 -RA BR SCT039 OVC050 02/01
                        Q1018 R16/19//95=
201812290500 METAR LRBC 290500Z 00000KT 4500 -RA BR SCT030 BKN065 02/01
                        Q1018 R16/19//95=
201812290530 METAR LRBC 290530Z 07002KT 2300 -RA BR SCT028 OVC045 02/01
                        Q1018 R16/19//95=
201812290600 METAR LRBC 290600Z 00000KT 9999 3000S -RA BR SCT028 OVC032
                        02/01 Q1019 R16/19//95=
201812290630 METAR LRBC 290630Z 36004KT 9999 -RA FEW020 BKN026 OVC032
                        03/02 Q1019 R16/19//95=
201812290700 METAR LRBC 290700Z 33005KT 300V360 9999 -RA FEW021 BKN038
                        03/01 Q1019 R16/220295=
201812290730 METAR LRBC 290730Z 32009KT 9999 -RA FEW020 BKN042 OVC048
                        04/01 Q1019 R16/220295=
201812290800 METAR LRBC 290800Z 33014KT 9999 -RA BKN018 OVC025 04/01 Q1020
                        R16/220295=
201812290830 METAR LRBC 290830Z 33011KT 9999 -RA BKN015 OVC024 03/01 Q1020
                        R16/220295=
201812290900 METAR LRBC 290900Z 35011KT 9999 -RA SCT015 OVC029 04/01 Q1020
                        R16/220295=
201812290930 METAR LRBC 290930Z 35010KT 9999 FEW019 OVC030 04/01 Q1020
                        R16/220295=
201812291000 METAR LRBC 291000Z 35013KT 9999 FEW017 BKN027 04/01 Q1020
                        R16/220295=
201812291030 METAR LRBC 291030Z 35011KT 9999 FEW020 OVC035 04/00 Q1020
                        R16/220295=
201812291100 METAR LRBC 291100Z 34013KT 9999 FEW021 BKN033 04/00 Q1020
                        R16/220295=
201812291130 METAR LRBC 291130Z 34017KT 9999 FEW019 SCT034 OVC047 04/01
                        Q1020 R16/19//95=
201812291200 METAR LRBC 291200Z 34011KT 9999 SCT013 BKN042 04/01 Q1020
                        R16/19//95=
201812291230 METAR LRBC 291230Z 34014KT 9999 FEW021 OVC042 03/01 Q1021
                        R16/19//95=
201812291300 METAR LRBC 291300Z 32010KT 9999 FEW020 BKN028 OVC040 03/00
                        Q1021 R16/19//95=
201812291330 METAR LRBC 291330Z 33010KT 9999 SCT025 OVC035 03/00 Q1021
                        R16/19//95=
201812291400 METAR LRBC 291400Z 34011KT 9999 FEW024 OVC035 03/00 Q1021
                        R16/19//95=
201812291430 METAR LRBC 291430Z 33008KT 9999 BKN030 OVC044 03/00 Q1021
                        R16/19//95=
201812291500 METAR LRBC 291500Z 34009KT 9999 -RA FEW021 BKN027 OVC042
                        03/00 Q1022 R16/19//95=
201812291530 METAR LRBC 291530Z 33012KT 9999 -RA FEW027 SCT035 OVC043
                        03/00 Q1022 R16/19//95=
201812291600 METAR LRBC 291600Z 34017KT 9999 -RA FEW016 OVC034 04/00 Q1022
                        R16/19//95=
201812291630 METAR LRBC 291630Z 36007KT 9999 BKN015 OVC026 04/00 Q1022
                        R16/19//95=
201812291700 METAR LRBC 291700Z 34010KT 9999 FEW017 SCT023 BKN030 03/M00
                        Q1022 R16/19//95=
201812291730 METAR LRBC 291730Z 36008KT 9999 -RA OVC023 04/M00 Q1023 R16/19//95=
201812291800 METAR LRBC 291800Z 36008KT 320V020 9999 BKN021 03/M00 Q1023
                        R16/19//95=
201812291830 METAR LRBC 291830Z 35010KT 9999 OVC019 03/M00 Q1023 R16/19//95=
201812291900 METAR LRBC 291900Z 35010KT 9999 BKN016 03/M00 Q1023 R16/19//95=
201812291930 METAR LRBC 291930Z 35010KT 9999 OVC016 03/M00 Q1023 R16/19//95=
201812292000 METAR LRBC 292000Z 35009KT 9999 BKN016 OVC028 03/M00 Q1023
                        R16/19//95=
201812292030 METAR LRBC 292030Z 36008KT 9999 FEW014 SCT028 OVC043 03/M00
                        Q1023 R16/19//95=
201812292100 METAR LRBC 292100Z 36007KT 9999 FEW014 BKN029 BKN042 03/00
                        Q1023 R16/19//95=
201812292130 METAR LRBC 292130Z 35005KT 9999 FEW014 BKN022 OVC027 03/00
                        Q1023 R16/19//95=
201812292200 METAR LRBC 292200Z 01006KT 340V060 9999 BKN018 OVC021 03/00
                        Q1023 R16/19//95=
201812292230 METAR LRBC 292230Z 34006KT 9999 -RA FEW012 BKN021 03/00 Q1023
                        R16/19//95=
201812292300 METAR LRBC 292300Z 33006KT 9999 -RASN FEW011 BKN023 BKN070
                        02/00 Q1022 R16/19//95=
201812292330 METAR LRBC 292330Z 35003KT 9999 FEW011 SCT016 OVC019 02/00
                        Q1022 R16/19//95=
201812300000 METAR LRBC 300000Z 33003KT 9999 -SHRA BKN013 BKN016 02/00
                        Q1022 R16/19//95=
201812300030 METAR LRBC 300030Z 34003KT 9999 -RA BKN013 OVC016 02/00 Q1022
                        R16/19//95=
201812300100 METAR LRBC 300100Z 00000KT 9999 OVC013 02/01 Q1022 R16/19//95=
201812300130 METAR LRBC 300130Z 00000KT 9000 -RA SCT012 BKN015 02/00 Q1022
                        R16/19//95=
201812300200 METAR LRBC 300200Z 00000KT 9000 FEW011 OVC015 02/00 Q1022
                        R16/19//95=
201812300230 METAR LRBC 300230Z 00000KT 7000 FEW010 BKN014 02/01 Q1022
                        R16/19//95=
201812300300 METAR LRBC 300300Z 00000KT 6000 -RA BKN012 OVC015 02/01 Q1021
                        R16/19//95=
201812300330 METAR LRBC 300330Z 00000KT 7000 -RA BKN012 OVC015 02/01 Q1021
                        R16/19//95=
201812300400 METAR LRBC 300400Z 00000KT 6000 OVC009 02/01 Q1021 R16/19//95=
201812300430 METAR LRBC 300430Z 19001KT 6000 BKN009 02/01 Q1021 R16/210295=
201812300500 METAR LRBC 300500Z 00000KT 9999 -RA FEW008 BKN011 02/01 Q1022
                        R16/210295=
201812300530 METAR LRBC 300530Z 00000KT 9000 -RA BKN013 02/01 Q1022 R16/210295=
201812300600 METAR LRBC 300600Z 00000KT 9000 BKN015 OVC018 02/01 Q1022
                        R16/210295=
201812300630 METAR LRBC 300630Z 00000KT 8000 OVC016 02/01 Q1022 R16/210295=
201812300700 METAR LRBC 300700Z 00000KT 6000 -DZ BKN018 BKN042 02/01 Q1022
                        R16/210295=
201812300730 METAR LRBC 300730Z 00000KT 6000 -RA SCT018 BKN041 02/01 Q1022
                        R16/210295=
201812300800 METAR LRBC 300800Z 00000KT 5000 -RA BR OVC039 02/01 Q1022
                        R16/210295=
201812300830 METAR LRBC 300830Z 15003KT 4000 -RA BR OVC040 02/01 Q1022
                        R16/210295=
201812300900 METAR LRBC 300900Z 00000KT 4000 -RASN BR OVC039 02/01 Q1022
                        R16/210295=
201812300930 METAR LRBC 300930Z 16004KT 4000 -RA BR SCT039 BKN050 02/02
                        Q1022 R16/210295=
201812301000 METAR LRBC 301000Z 16005KT 4000 BR BKN039 OVC046 02/02 Q1021
                        R16/210295=
201812301030 METAR LRBC 301030Z 17005KT 6000 SCT040 BKN055 03/01 Q1021
                        R16/210295=
201812301100 METAR LRBC 301100Z 15005KT 8000 BKN038 BKN065 03/01 Q1021
                        R16/210295=
201812301130 METAR LRBC 301130Z 16005KT 6000 SCT040 OVC055 03/01 Q1021
                        R16/210295=
201812301200 METAR LRBC 301200Z 16005KT 4000 BR OVC055 02/02 Q1021 R16/210295=
201812301230 METAR LRBC 301230Z 17006KT 4000 BR OVC065 02/02 Q1021 R16/210295=
201812301300 METAR LRBC 301300Z 17007KT 4000 BR OVC065 02/02 Q1021 R16/210295=
201812301330 METAR LRBC 301330Z 19005KT 6000 OVC065 02/01 Q1021 R16/210295=
201812301400 METAR LRBC 301400Z 16005KT 6000 OVC065 02/01 Q1021 R16/210295=
201812301430 METAR LRBC 301430Z 17005KT 2000 BR FEW001 BKN065 02/01 Q1021
                        R16/210295=
201812301500 METAR LRBC 301500Z 18005KT 3000 BR FEW001 BKN065 02/01 Q1021
                        R16/210295=
201812301530 METAR LRBC 301530Z 18005KT 3000 BR OVC065 02/01 Q1021 R16/210295=
201812301600 METAR LRBC 301600Z 17005KT 3000 BR BKN065 02/01 Q1021 R16/210295=
201812301630 METAR LRBC 301630Z 15005KT 3000 BR NSC 02/01 Q1021 R16/210295=
201812301700 METAR LRBC 301700Z 17008KT 1500 BR BKN001 02/01 Q1021 R16/210295=
201812301730 METAR LRBC 301730Z 17008KT 0800 R34/1000U FG VV001 02/01
                        Q1021 R16/210295=
201812301800 METAR LRBC 301800Z 16006KT 0500 R34/0800D FG VV001 02/01
                        Q1021 R16/210295=
201812301830 METAR LRBC 301830Z 17007KT 0200 R34/0550N FG VV001 02/01
                        Q1021 R16/210295=
201812301900 METAR LRBC 301900Z 17007KT 0500 R34/0800U FG VV002 02/01
                        Q1021 R16/210295=
201812301930 METAR LRBC 301930Z 18006KT 1500 BR BKN002 OVC007 02/01 Q1021
                        R16/210295=
201812302000 METAR LRBC 302000Z 17006KT 1000 R34/1400N BR OVC001 02/01
                        Q1021 R16/210295=
201812302030 METAR LRBC 302030Z 17008KT 0800 R34/1200D FG BKN001 OVC006
                        02/01 Q1021 R16/210295=
201812302100 METAR LRBC 302100Z 17007KT 0500 R34/0800D FG VV001 02/01
                        Q1021 R16/210295=
201812302130 METAR LRBC 302130Z 16006KT 0200 R34/0450N FG VV001 02/01
                        Q1021 R16/210295=
201812302200 METAR COR LRBC 302200Z 15006KT 0200 R34/0450N FG VV001 02/01
                        Q1021 R16/210295=
201812302230 METAR LRBC 302230Z 16005KT 0200 R34/0400N FG VV001 02/01
                        Q1021 R16/210295=
201812302300 METAR LRBC 302300Z 17004KT 0100 R34/0350N FG VV001 02/01
                        Q1021 R16/210295=
201812302330 METAR LRBC 302330Z 17004KT 0150 R34/0350N FG VV001 02/01
                        Q1021 R16/210295=
201812310000 METAR LRBC 310000Z AUTO 17004KT 0350 R34/0400N FG VV001 02/01
                        Q1021=
201812310030 METAR LRBC 310030Z 17005KT 0150 R34/0375N FG VV001 02/01
                        Q1021 R16/210295=
201812310100 METAR LRBC 310100Z 16006KT 0200 R34/0450N FG VV001 02/01
                        Q1021 R16/210295=
201812310130 METAR COR LRBC 310130Z 17006KT 0150 R34/0400N FG VV001 02/01
                        Q1021 R16/210295=
201812310200 METAR COR LRBC 310200Z 17008KT 0200 R34/0500N FG VV001 02/01
                        Q1021 R16/210295=
201812310230 METAR LRBC 310230Z 16007KT 0200 R34/0450N FG VV001 02/01
                        Q1020 R16/210295=
201812310300 METAR LRBC 310300Z 16006KT 0150 R34/0400N FG VV001 02/01
                        Q1020 R16/210295=
201812310330 METAR LRBC 310330Z 17006KT 0200 R34/0450N FG VV001 02/01
                        Q1020 R16/210295=
201812310400 METAR LRBC 310400Z 18008KT 0250 R34/0600U FG VV001 02/01
                        Q1021 R16/210295=
201812310430 METAR LRBC 310430Z 17006KT 0500 R34/0800D FG VV002 02/01
                        Q1021 R16/210195=
201812310500 METAR LRBC 310500Z 17007KT 0500 R34/0800D FG VV002 02/01
                        Q1021 R16/210195=
201812310530 METAR LRBC 310530Z 17005KT 0500 R34/0750N FG VV002 02/01
                        Q1021 R16/210195=
201812310600 METAR LRBC 310600Z 16006KT 1500 BR BKN001 02/01 Q1022 R16/210195=
201812310630 METAR LRBC 310630Z 16006KT 1100 R34/0800D FG BKN001 02/01
                        Q1022 R16/210195=
201812310700 METAR LRBC 310700Z 16006KT 1200 R34/1600D BR BKN001 02/01
                        Q1022 R16/210195=
201812310730 METAR LRBC 310730Z 16008KT 1600 BR BKN001 OVC003 02/01 Q1022
                        R16/210195=
201812310800 METAR LRBC 310800Z 15007KT 1800 BR SCT001 OVC003 02/01 Q1022
                        R16/210195=
201812310830 METAR LRBC 310830Z 17007KT 2500 BR BKN002 02/01 Q1022 R16/210195=
201812310900 METAR LRBC 310900Z 17007KT 3000 BR BKN003 02/01 Q1022 R16/210195=
201812310930 METAR LRBC 310930Z 17007KT 3000 BR BKN003 02/01 Q1022 R16/210195=
201812311000 METAR LRBC 311000Z 17008KT 3500 BR OVC003 02/01 Q1022 R16/210195=
201812311030 METAR LRBC 311030Z 15008KT 4000 BR SCT004 BKN006 02/01 Q1022
                        R16/210195=
201812311100 METAR LRBC 311100Z 17007KT 5000 BR SCT004 OVC006 02/02 Q1022
                        R16/210195=
201812311130 METAR LRBC 311130Z 17008KT 4500 BR BKN004 BKN006 02/01 Q1022
                        R16/210195=
201812311200 METAR LRBC 311200Z 16007KT 4500 BR SCT005 BKN007 02/01 Q1022
                        R16/210195=
201812311230 METAR LRBC 311230Z 17007KT 3500 BR SCT004 BKN006 02/01 Q1022
                        R16/210195=
201812311300 METAR LRBC 311300Z 18007KT 5000 BR FEW005 OVC007 02/01 Q1022
                        R16/210195=
201812311330 METAR LRBC 311330Z 17005KT 4500 BR BKN006 02/01 Q1023 R16/210195=
201812311400 METAR LRBC 311400Z 17005KT 4500 BR BKN006 02/01 Q1023 R16/210195=
201812311430 METAR LRBC 311430Z 18006KT 4000 BR BKN006 02/01 Q1023 R16/210195=
201812311500 METAR LRBC 311500Z 18006KT 4000 BR BKN006 02/01 Q1023 R16/210195=
201812311530 METAR LRBC 311530Z 17005KT 4500 BR BKN006 02/01 Q1024 R16/210195=
201812311600 METAR LRBC 311600Z 18006KT 4000 BR BKN005 01/01 Q1024 R16/210195=
201812311630 METAR LRBC 311630Z 18006KT 4000 BR BKN005 01/01 Q1024 R16/210195=
201812311700 METAR LRBC 311700Z 15004KT 4400 BR BKN005 01/01 Q1025 R16/210195=
201812311730 METAR LRBC 311730Z VRB01KT 3000 BR BKN006 BKN050 01/01 Q1025
                        R16/210195=
201812311800 METAR LRBC 311800Z 00000KT 4000 BR SCT006 BKN050 01/01 Q1025
                        R16/210195=
201812311830 METAR LRBC 311830Z 00000KT 4000 BR SCT048 01/01 Q1025 R16/210195=
201812311900 METAR LRBC 311900Z 00000KT 3000 BR BKN049 01/01 Q1026 R16/210195=
201812311930 METAR LRBC 311930Z 00000KT 3000 BR FEW008 BKN050 01/00 Q1026
                        R16/210195=
201812312000 METAR LRBC 312000Z 00000KT 3000 BR FEW008 BKN046 01/01 Q1026
                        R16/210195=
201812312030 METAR LRBC 312030Z 00000KT 3000 BR FEW007 SCT055 01/01 Q1026
                        R16/210195=
201812312100 METAR LRBC 312100Z 00000KT 3000 BR SCT044 01/00 Q1026 R16/210195=
201812312130 METAR LRBC 312130Z 00000KT 3000 -SN BR SCT050 01/00 Q1027
                        R16/210195=
201812312200 METAR LRBC 312200Z 00000KT 3000 BR BKN041 01/01 Q1027 R16/210195=
201812312230 METAR LRBC 312230Z 00000KT 3000 BR SCT026 OVC043 01/01 Q1027
                        R16/210195=
201812312300 METAR LRBC 312300Z 00000KT 3000 -SN BR OVC025 01/01 Q1027
                        R16/210195=
201812312330 METAR LRBC 312330Z 00000KT 2800 -SN BR BKN022 OVC028 01/01
                        Q1027 R16/210195=
