201812010000 METAR LROD 010000Z AUTO 10005KT 7000 NCD M08/M09 Q1023=
201812010030 METAR LROD 010030Z AUTO 11005KT 8000 NCD M08/M09 Q1023=
201812010100 METAR LROD 010100Z AUTO 10005KT 9000 NCD M08/M10 Q1023=
201812010130 METAR LROD 010130Z AUTO 11005KT 9000 NCD M08/M10 Q1022=
201812010200 METAR LROD 010200Z AUTO 11004KT 9000 NCD M09/M10 Q1022=
201812010230 METAR LROD 010230Z AUTO 11006KT 9000 NCD M09/M10 Q1022=
201812010300 METAR LROD 010300Z AUTO 11005KT 9000 NCD M09/M10 Q1022=
201812010330 METAR LROD 010330Z AUTO 11005KT 9000 NCD M09/M10 Q1022=
201812010400 METAR LROD 010400Z AUTO 10005KT 9000 NCD M09/M10 Q1022=
201812010430 METAR LROD 010430Z AUTO 11005KT 9000 NCD M09/M10 Q1022=
201812010500 METAR COR LROD 010500Z 11005KT CAVOK M09/M10 Q1022=
201812010530 METAR LROD 010530Z 11005KT CAVOK M09/M10 Q1022 R01/29//95=
201812010600 METAR LROD 010600Z 11005KT CAVOK M09/M10 Q1022=
201812010630 METAR LROD 010630Z 11005KT CAVOK M09/M10 Q1022=
201812010700 METAR LROD 010700Z 11004KT CAVOK M08/M09 Q1023=
201812010730 METAR LROD 010730Z 10004KT CAVOK M07/M08 Q1023=
201812010800 METAR LROD 010800Z 12004KT 080V140 CAVOK M06/M08 Q1023=
201812010830 METAR LROD 010830Z 11003KT 080V140 CAVOK M04/M06 Q1023=
201812010900 METAR LROD 010900Z 18003KT CAVOK M03/M07 Q1023=
201812010930 METAR LROD 010930Z 21004KT 170V240 CAVOK M03/M07 Q1023=
201812011000 METAR LROD 011000Z 22004KT 200V270 CAVOK M02/M07 Q1023=
201812011030 METAR LROD 011030Z 19002KT 9999 FEW033 M02/M07 Q1023=
201812011100 METAR LROD 011100Z 26005KT 9999 FEW035 M02/M07 Q1023=
201812011130 METAR LROD 011130Z 25004KT 190V280 9999 FEW045 M02/M07 Q1023=
201812011200 METAR LROD 011200Z 24004KT 220V280 9999 FEW046 M02/M07 Q1023=
201812011230 METAR LROD 011230Z 25005KT 9999 SCT046 M02/M07 Q1023=
201812011300 METAR LROD 011300Z 26005KT 9999 BKN045 M02/M07 Q1023=
201812011330 METAR LROD 011330Z 25003KT 9999 BKN046 M02/M07 Q1023=
201812011400 METAR LROD 011400Z 24004KT 9999 BKN045 M02/M07 Q1023=
201812011430 METAR LROD 011430Z 24004KT 9999 BKN044 M02/M07 Q1023=
201812011500 METAR LROD 011500Z 23005KT 9999 BKN043 M02/M06 Q1023=
201812011530 METAR LROD 011530Z 24005KT 9999 OVC044 M02/M06 Q1023=
201812011600 METAR LROD 011600Z 23003KT 9999 OVC048 M02/M06 Q1023=
201812011630 METAR LROD 011630Z 23003KT 9999 BKN044 M02/M06 Q1023=
201812011700 METAR LROD 011700Z 23001KT 9999 OVC044 M02/M06 Q1023=
201812011730 METAR LROD 011730Z 00000KT 9999 OVC045 M02/M06 Q1024=
201812011800 METAR LROD 011800Z 00000KT 9999 OVC044 M02/M05 Q1024=
201812011830 METAR LROD 011830Z 00000KT 9999 OVC044 M03/M05 Q1024=
201812011900 METAR LROD 011900Z 14001KT 9999 OVC043 M03/M05 Q1024=
201812011930 METAR LROD 011930Z AUTO 16002KT 9999 OVC041/// M03/M05 Q1024=
201812012000 METAR LROD 012000Z AUTO 16003KT 9999 BKN039/// OVC046///
                        M03/M05 Q1024=
201812012030 METAR LROD 012030Z AUTO 11002KT 9999 BKN035/// OVC045///
                        M03/M05 Q1024=
201812012100 METAR LROD 012100Z AUTO 12002KT 9000 FEW035/// OVC044///
                        M03/M05 Q1024=
201812012130 METAR LROD 012130Z AUTO 12003KT 9999 SCT035/// BKN040///
                        M03/M06 Q1024=
201812012200 METAR LROD 012200Z AUTO 14004KT 7000 NCD M04/M06 Q1024=
201812012230 METAR LROD 012230Z AUTO 16004KT 9999 SCT042/// M04/M07 Q1024=
201812012300 METAR LROD 012300Z AUTO 00000KT 9999 FEW042/// M05/M07 Q1024=
201812012330 METAR LROD 012330Z AUTO 09002KT 9000 NCD M05/M07 Q1024=
201812020000 METAR LROD 020000Z AUTO 10002KT 7000 NCD M06/M07 Q1024=
201812020030 METAR LROD 020030Z AUTO 11003KT 6000 NCD M06/M08 Q1024=
201812020100 METAR LROD 020100Z AUTO 12004KT 6000 NCD M06/M07 Q1024=
201812020130 METAR LROD 020130Z AUTO 10005KT 5000 BR BKN065/// M05/M06
                        Q1023=
201812020200 METAR LROD 020200Z AUTO 10004KT 7000 BKN065/// M05/M07 Q1024=
201812020230 METAR LROD 020230Z AUTO 10002KT 9000 BKN029/// M05/M06 Q1024=
201812020300 METAR LROD 020300Z AUTO 10004KT 8000 FEW029/// M05/M07 Q1024=
201812020330 METAR LROD 020330Z AUTO 11005KT 8000 NCD M06/M07 Q1024=
201812020400 METAR LROD 020400Z AUTO 10004KT 7000 SCT025/// M05/M06 Q1024=
201812020430 METAR LROD 020430Z AUTO 10004KT 8000 FEW026/// M05/M06 Q1024=
201812020500 METAR LROD 020500Z 11005KT CAVOK M06/M07 Q1024=
201812020530 METAR LROD 020530Z 10004KT CAVOK M06/M07 Q1024=
201812020600 METAR LROD 020600Z 11006KT CAVOK M06/M07 Q1023=
201812020630 METAR COR LROD 020630Z 11005KT CAVOK M06/M07 Q1023=
201812020700 METAR LROD 020700Z 09004KT CAVOK M05/M06 Q1023=
201812020730 METAR LROD 020730Z 09004KT CAVOK M03/M06 Q1023=
201812020800 METAR LROD 020800Z 10004KT CAVOK M02/M05 Q1023=
201812020830 METAR LROD 020830Z 10005KT CAVOK M01/M05 Q1023=
201812020900 METAR LROD 020900Z 11004KT 070V140 CAVOK 00/M05 Q1022=
201812020930 METAR LROD 020930Z 13003KT 070V180 CAVOK 02/M05 Q1022=
201812021000 METAR LROD 021000Z VRB04KT CAVOK 02/M07 Q1022=
201812021030 METAR LROD 021030Z VRB01KT CAVOK 03/M07 Q1021=
201812021100 METAR LROD 021100Z 34003KT CAVOK 03/M06 Q1021=
201812021130 METAR LROD 021130Z VRB02KT CAVOK 04/M06 Q1021=
201812021200 METAR LROD 021200Z 07003KT CAVOK 04/M06 Q1021=
201812021230 METAR LROD 021230Z 06002KT CAVOK 04/M06 Q1020=
201812021300 METAR LROD 021300Z VRB01KT CAVOK 05/M05 Q1020=
201812021330 METAR LROD 021330Z 12005KT CAVOK 04/M05 Q1020=
201812021400 METAR LROD 021400Z 10003KT CAVOK 04/M05 Q1019=
201812021430 METAR LROD 021430Z 09002KT CAVOK 03/M04 Q1019=
201812021500 METAR LROD 021500Z 10002KT CAVOK 02/M04 Q1019=
201812021530 METAR LROD 021530Z 11005KT CAVOK 01/M04 Q1018=
201812021600 METAR LROD 021600Z 11004KT CAVOK 01/M04 Q1018=
201812021630 METAR LROD 021630Z 12006KT CAVOK 01/M03 Q1018=
201812021700 METAR LROD 021700Z 09004KT CAVOK 01/M03 Q1018=
201812021730 METAR LROD 021730Z 11004KT CAVOK 01/M03 Q1018=
201812021800 METAR LROD 021800Z 11005KT CAVOK 02/M02 Q1017=
201812021830 METAR LROD 021830Z 11006KT CAVOK 02/M02 Q1017=
201812021900 METAR LROD 021900Z 10005KT CAVOK 02/M02 Q1017=
201812021930 METAR LROD 021930Z AUTO 10003KT 9999 OVC070/// 02/M02 Q1017=
201812022000 METAR LROD 022000Z AUTO VRB01KT 9999 BKN075/// 02/M02 Q1017=
201812022030 METAR LROD 022030Z AUTO 11003KT 9999 OVC075/// 02/M02 Q1017=
201812022100 METAR LROD 022100Z AUTO 12004KT 9000 BKN075/// 02/M02 Q1017=
201812022130 METAR LROD 022130Z AUTO 11005KT 8000 OVC075/// 02/M02 Q1016=
201812022200 METAR LROD 022200Z AUTO 08003KT 9000 FEW060/// BKN075///
                        02/M01 Q1016=
201812022230 METAR LROD 022230Z AUTO 11005KT 9999 OVC070/// 03/M01 Q1016=
201812022300 METAR LROD 022300Z AUTO 10006KT 9999 OVC070/// 03/M01 Q1015=
201812022330 METAR LROD 022330Z AUTO 11005KT 9999 OVC070/// 04/M01 Q1015=
201812030000 METAR LROD 030000Z AUTO 11005KT 9999 OVC070/// 05/M01 Q1015=
201812030030 METAR LROD 030030Z AUTO 12006KT 090V150 9999 BKN070/// 05/M01
                        Q1014=
201812030100 METAR LROD 030100Z AUTO 16006KT 9999 OVC070/// 07/M01 Q1014=
201812030130 METAR LROD 030130Z AUTO 18006KT 9999 BKN075/// OVC095///
                        07/M00 Q1014=
201812030200 METAR LROD 030200Z AUTO VRB03KT 9999 -SHRA SCT050/// BKN085///
                        BKN110/// 06/00 Q1014=
201812030230 METAR LROD 030230Z AUTO VRB03KT 9999 -SHRA SCT050/// BKN065///
                        OVC080/// 06/00 Q1014=
201812030300 METAR LROD 030300Z AUTO 32004KT 9999 -SHRA OVC049/// 03/01
                        Q1014=
201812030330 METAR LROD 030330Z AUTO 12004KT 9999 -SHRA BKN045/// BKN060///
                        03/01 Q1014=
201812030400 METAR LROD 030400Z AUTO 15003KT 9000 RA SCT040/// BKN049///
                        03/02 Q1014=
201812030430 METAR LROD 030430Z AUTO 19008KT 9999 DZ FEW040/// BKN050///
                        05/02 Q1014=
201812030500 METAR LROD 030500Z 19010KT 9999 SCT045 05/02 Q1014=
201812030530 METAR LROD 030530Z 19011KT 9999 OVC047 06/01 Q1014 R01/29//95=
201812030600 METAR LROD 030600Z 19010KT 9999 OVC047 06/01 Q1014 R01/29//95=
201812030630 METAR LROD 030630Z 19008KT 9999 BKN045 06/01 Q1014 R01/29//95=
201812030700 METAR LROD 030700Z 20010KT 9999 BKN045 07/01 Q1014 R01/29//95=
201812030730 METAR LROD 030730Z 19010KT 9999 BKN045 07/01 Q1014 R01/29//95=
201812030800 METAR LROD 030800Z 19011KT CAVOK 08/01 Q1014 R01/29//95=
201812030830 METAR LROD 030830Z 20012KT CAVOK 08/02 Q1014 R01/29//95=
201812030900 METAR LROD 030900Z 20012KT CAVOK 09/01 Q1014 R01/29//95=
201812030930 METAR LROD 030930Z 20014KT CAVOK 09/02 Q1014 R01/29//95=
201812031000 METAR LROD 031000Z 20015KT CAVOK 09/02 Q1014 R01/29//95=
201812031030 METAR LROD 031030Z 20016KT CAVOK 10/02 Q1014 R01/29//95=
201812031100 METAR LROD 031100Z 20014KT CAVOK 10/02 Q1014 R01/29//95=
201812031130 METAR LROD 031130Z 20011KT CAVOK 09/02 Q1013 R01/CLRD//=
201812031200 METAR LROD 031200Z 20013KT CAVOK 10/02 Q1013 R01/CLRD//=
201812031230 METAR LROD 031230Z 20011KT CAVOK 10/03 Q1013 R01/CLRD//=
201812031300 METAR LROD 031300Z 23008KT CAVOK 09/04 Q1013=
201812031330 METAR LROD 031330Z 20005KT CAVOK 10/04 Q1013=
201812031400 METAR LROD 031400Z 20007KT CAVOK 09/04 Q1013=
201812031430 METAR LROD 031430Z 20005KT CAVOK 09/04 Q1013=
201812031500 METAR LROD 031500Z 19006KT 9999 OVC044 08/04 Q1013=
201812031530 METAR LROD 031530Z 19006KT 9999 SCT045 08/04 Q1013=
201812031600 METAR LROD 031600Z 19005KT 9999 SCT045 08/04 Q1013=
201812031630 METAR LROD 031630Z 20005KT 9999 BKN044 08/04 Q1013=
201812031700 METAR LROD 031700Z 20005KT 9999 OVC040 07/04 Q1013=
201812031730 METAR LROD 031730Z 19006KT 9999 BKN040 08/03 Q1013=
201812031800 METAR LROD 031800Z 18006KT 9999 BKN040 08/03 Q1013=
201812031830 METAR LROD 031830Z 18004KT 9999 OVC041 08/03 Q1013=
201812031900 METAR LROD 031900Z 20007KT 9999 OVC043 09/03 Q1013=
201812031930 METAR LROD 031930Z AUTO 20009KT 9999 OVC042/// 08/03 Q1013=
201812032000 METAR LROD 032000Z AUTO 20009KT 9999 BKN043/// 08/03 Q1013=
201812032030 METAR LROD 032030Z AUTO 19009KT 9999 SCT044/// OVC050///
                        08/03 Q1013=
201812032100 METAR LROD 032100Z AUTO 20007KT 9999 BKN041/// OVC048///
                        08/03 Q1013=
201812032130 METAR LROD 032130Z AUTO 19007KT 9999 BKN035/// OVC043///
                        08/03 Q1013=
201812032200 METAR LROD 032200Z AUTO 21007KT 9999 -DZ SCT029/// BKN034///
                        08/04 Q1012=
201812032230 METAR LROD 032230Z AUTO 21007KT 9999 -SHRA BKN030/// OVC036///
                        08/03 Q1012=
201812032300 METAR LROD 032300Z AUTO 22006KT 9999 -SHRA BKN034/// 07/04
                        Q1012=
201812032330 METAR LROD 032330Z AUTO 18004KT 9999 -RA BKN033/// 06/05
                        Q1012=
201812040000 METAR LROD 040000Z AUTO 17003KT 9999 -RA BKN033/// BKN047///
                        06/05 Q1012=
201812040030 METAR LROD 040030Z AUTO 17003KT 9999 -RA BKN032/// 06/05
                        Q1012=
201812040100 METAR LROD 040100Z AUTO 13004KT 9999 -DZ FEW020/// BKN031///
                        06/05 Q1012=
201812040130 METAR LROD 040130Z AUTO 15003KT 9999 -SHRA BKN026/// OVC030///
                        07/05 Q1012=
201812040200 METAR LROD 040200Z AUTO 11002KT 9999 FEW016/// BKN024///
                        06/05 Q1012 REDZ=
201812040230 METAR LROD 040230Z AUTO 14002KT 9999 FEW019/// BKN029///
                        BKN036/// 07/05 Q1012=
201812040300 METAR LROD 040300Z AUTO 13005KT 9000 DZ FEW019/// BKN026///
                        BKN037/// 07/05 Q1012=
201812040330 METAR LROD 040330Z AUTO 14003KT 9999 SCT028/// BKN032///
                        07/05 Q1012 REDZ=
201812040400 METAR LROD 040400Z AUTO 12003KT 9999 FEW031/// BKN050///
                        07/05 Q1012 REDZ=
201812040430 METAR LROD 040430Z AUTO 13003KT 9999 BKN055/// 07/05 Q1012=
201812040500 METAR LROD 040500Z 00000KT 9999 SCT040 07/05 Q1012=
201812040530 METAR LROD 040530Z 00000KT 9999 BKN041 06/05 Q1012 R01/19//95=
201812040600 METAR LROD 040600Z 18002KT 9999 OVC040 06/05 Q1012 R01/19//95=
201812040630 METAR LROD 040630Z 24003KT 210V270 9000 FEW035 BKN043 06/05
                        Q1012 R01/19//95=
201812040700 METAR LROD 040700Z 18002KT 8000 -RA BKN042 06/05 Q1013 R01/19//95=
201812040730 METAR LROD 040730Z 15003KT 120V190 7000 -RA BKN029 06/05
                        Q1013 R01/19//95=
201812040800 METAR LROD 040800Z 11003KT 7000 -RA OVC029 07/06 Q1013 R01/19//95=
201812040830 METAR LROD 040830Z VRB04KT 6000 -RA SCT025 BKN042 07/07 Q1014
                        R01/19//95=
201812040900 METAR LROD 040900Z 00000KT 9999 FEW022 BKN026 07/06 Q1013
                        R01/19//95=
201812040930 METAR LROD 040930Z 16003KT 9999 BKN027 08/07 Q1013 R01/19//95=
201812041000 METAR LROD 041000Z 15003KT 100V180 9999 SCT028 08/07 Q1012
                        R01/19//95=
201812041030 METAR LROD 041030Z 19002KT 110V260 9999 FEW027 BKN036 09/08
                        Q1013 R01/19//95=
201812041100 METAR LROD 041100Z 21006KT 9999 OVC032 09/07 Q1012 R01/19//95=
201812041130 METAR LROD 041130Z 22005KT 9999 BKN027 BKN032 09/07 Q1012
                        R01/19//95=
201812041200 METAR LROD 041200Z 22005KT 9999 BKN027 BKN032 09/07 Q1012
                        R01/19//95=
201812041230 METAR LROD 041230Z 20008KT 8000 SCT020 BKN027 08/07 Q1013
                        R01/19//95=
201812041300 METAR LROD 041300Z 20008KT 6000 FEW015 OVC018 08/07 Q1013
                        R01/19//95=
201812041330 METAR LROD 041330Z 22007KT 3300 BR FEW005 SCT007 BKN010 07/07
                        Q1013 R01/19//95=
201812041400 METAR LROD 041400Z 20008KT 4300 BR SCT008 BKN011 BKN016 07/07
                        Q1013 R01/19//95=
201812041430 METAR LROD 041430Z 21007KT 4800 BR BKN007 BKN015 07/07 Q1013
                        R01/19//95=
201812041500 METAR LROD 041500Z 22007KT 4700 BR SCT005 BKN007 OVC012 07/07
                        Q1014 R01/19//95=
201812041530 METAR LROD 041530Z 22007KT 3900 BR FEW003 BKN011 07/07 Q1014
                        R01/19//95=
201812041600 METAR LROD 041600Z 21007KT 4000 -RA BR SCT009 OVC011 07/07
                        Q1014 R01/19//95=
201812041630 METAR COR LROD 041630Z 21005KT 3200 BR BKN009 07/07 Q1015
                        R01/19//95=
201812041700 METAR LROD 041700Z 21005KT 3600 BR BKN009 07/07 Q1015 R01/19//95=
201812041730 METAR LROD 041730Z 20005KT 2800 BR BKN008 BKN010 07/07 Q1015
                        R01/19//95=
201812041800 METAR LROD 041800Z 19004KT 2800 BR OVC007 07/07 Q1015 R01/19//95=
201812041830 METAR LROD 041830Z 18004KT 2900 BR OVC006 07/07 Q1015 R01/19//95=
201812041900 METAR LROD 041900Z 22004KT 2800 BR BKN006 07/07 Q1015 R01/19//95=
201812041930 METAR LROD 041930Z AUTO 21005KT 3200 BR SCT003/// BKN005///
                        07/07 Q1016=
201812042000 METAR LROD 042000Z AUTO 22003KT 2100 BR OVC002/// 07/07 Q1016=
201812042030 METAR LROD 042030Z AUTO 27003KT 0550 R19/0650D FG BKN001///
                        OVC003/// 07/07 Q1016=
201812042100 METAR LROD 042100Z AUTO 34005KT 320V020 0350 R19/0375N FG
                        VV001 07/07 Q1016=
201812042130 METAR LROD 042130Z AUTO 35007KT 0400 R19/0450N FG VV001 07/07
                        Q1017=
201812042200 METAR LROD 042200Z AUTO 35012KT 3500 -RA FEW002/// SCT004///
                        OVC010/// 06/06 Q1018=
201812042230 METAR LROD 042230Z AUTO 02007KT 5000 -SHRA FEW004/// SCT011///
                        BKN029/// 06/06 Q1018=
201812042300 METAR LROD 042300Z AUTO 01005KT 5000 SCT035/// OVC040///
                        06/05 Q1018 REDZ=
201812042330 METAR LROD 042330Z AUTO 02009KT 360V060 9000 OVC043/// 06/05
                        Q1018=
201812050000 METAR LROD 050000Z AUTO 02009KT 350V050 9999 OVC044/// 06/04
                        Q1019 REDZ=
201812050030 METAR LROD 050030Z AUTO 03006KT 360V060 9999 OVC044/// 06/04
                        Q1019 REDZ=
201812050100 METAR LROD 050100Z AUTO 02008KT 9999 OVC041/// 06/04 Q1019=
201812050130 METAR LROD 050130Z AUTO 02008KT 9999 UP OVC042/// 06/04 Q1020=
201812050200 METAR LROD 050200Z AUTO 01008KT 9999 SCT045/// BKN055///
                        OVC095/// 06/03 Q1020=
201812050230 METAR LROD 050230Z AUTO 36010KT 9999 BKN060/// OVC090///
                        05/02 Q1020=
201812050300 METAR LROD 050300Z AUTO 36009KT 9999 BKN055/// OVC070///
                        05/02 Q1021=
201812050330 METAR LROD 050330Z AUTO 36012KT 9999 FEW035/// OVC050///
                        05/02 Q1021=
201812050400 METAR LROD 050400Z AUTO 01015KT 9999 -SHRA SCT027/// BKN033///
                        BKN060/// 05/02 Q1022=
201812050430 METAR LROD 050430Z AUTO 01008KT 9999 SCT034/// BKN044///
                        BKN075/// 05/02 Q1022 RERA=
201812050500 METAR LROD 050500Z 01010KT 9999 FEW044 05/01 Q1022 R01/19//95=
201812050530 METAR LROD 050530Z 01011KT 9999 FEW045 04/M00 Q1023 R01/19//95=
201812050600 METAR LROD 050600Z 01012KT CAVOK 04/M01 Q1023 R01/19//95=
201812050630 METAR LROD 050630Z 01010KT CAVOK 04/M01 Q1024 R01/19//95=
201812050700 METAR LROD 050700Z 01009KT 330V030 CAVOK 04/M01 Q1024 R01/19//95=
201812050730 METAR LROD 050730Z 36013KT CAVOK 05/M01 Q1024 R01/19//95=
201812050800 METAR LROD 050800Z 36013KT CAVOK 04/M01 Q1025 R01/19//95=
201812050830 METAR LROD 050830Z 01016G26KT CAVOK 05/M01 Q1025 R01/19//95=
201812050900 METAR LROD 050900Z 01017KT CAVOK 05/M02 Q1025 R01/19//95=
201812050930 METAR LROD 050930Z 01016KT CAVOK 05/M02 Q1025 R01/19//95=
201812051000 METAR LROD 051000Z 36015KT CAVOK 06/M02 Q1025 R01/CLRD//=
201812051030 METAR LROD 051030Z 01019KT CAVOK 06/M02 Q1026=
201812051100 METAR LROD 051100Z 36015KT CAVOK 06/M02 Q1026=
201812051130 METAR LROD 051130Z 36018KT 9999 FEW033 06/M02 Q1026=
201812051200 METAR LROD 051200Z 01016KT 9999 FEW035 06/M02 Q1026=
201812051230 METAR LROD 051230Z 01016KT 9999 FEW039 06/M02 Q1026=
201812051300 METAR LROD 051300Z 01014KT 9999 FEW038 06/M02 Q1026=
201812051330 METAR LROD 051330Z 02014KT 9999 FEW037 05/M02 Q1026=
201812051400 METAR LROD 051400Z 01014KT CAVOK 05/M03 Q1026=
201812051430 METAR LROD 051430Z 01011KT CAVOK 04/M03 Q1026=
201812051500 METAR LROD 051500Z 01010KT CAVOK 04/M03 Q1027=
201812051530 METAR LROD 051530Z 02007KT 350V050 CAVOK 03/M03 Q1027=
201812051600 METAR COR LROD 051600Z 03006KT CAVOK 03/M03 Q1027=
201812051630 METAR LROD 051630Z 03006KT CAVOK 03/M03 Q1027=
201812051700 METAR LROD 051700Z 03004KT CAVOK 02/M03 Q1028=
201812051730 METAR LROD 051730Z 06003KT CAVOK 01/M04 Q1028=
201812051800 METAR LROD 051800Z 04005KT CAVOK 02/M04 Q1028=
201812051830 METAR LROD 051830Z 03004KT 010V070 CAVOK 01/M04 Q1028=
201812051900 METAR LROD 051900Z VRB01KT CAVOK 01/M04 Q1028=
201812051930 METAR LROD 051930Z AUTO 00000KT 9999 NCD M00/M04 Q1028=
201812052000 METAR LROD 052000Z AUTO 02004KT 350V050 9999 NCD M00/M04
                        Q1028=
201812052030 METAR LROD 052030Z AUTO 04005KT 9999 NCD M00/M04 Q1028=
201812052100 METAR LROD 052100Z AUTO 04004KT 9999 NCD M00/M04 Q1028=
201812052130 METAR LROD 052130Z AUTO 00000KT 9999 NCD M02/M05 Q1029=
201812052200 METAR LROD 052200Z AUTO 00000KT 9999 NCD M02/M05 Q1029=
201812052230 METAR LROD 052230Z AUTO 34002KT 300V360 9999 NCD M02/M04
                        Q1029=
201812052300 METAR LROD 052300Z AUTO 36003KT 330V110 9999 NCD M03/M05
                        Q1029=
201812052330 METAR LROD 052330Z AUTO 00000KT 9999 NCD M04/M05 Q1028=
201812060000 METAR LROD 060000Z AUTO 00000KT 9999 NCD M04/M05 Q1028=
201812060030 METAR LROD 060030Z AUTO 00000KT 9000 NCD M04/M05 Q1028=
201812060100 METAR LROD 060100Z AUTO 02003KT 9999 NCD M03/M06 Q1028=
201812060130 METAR LROD 060130Z AUTO 00000KT 9999 NCD M04/M05 Q1028=
201812060200 METAR LROD 060200Z AUTO 14004KT 9000 NCD M05/M06 Q1028=
201812060230 METAR LROD 060230Z AUTO 10003KT 7000 NCD M05/M06 Q1027=
201812060300 METAR LROD 060300Z AUTO 08001KT 6000 NCD M06/M07 Q1027=
201812060330 METAR LROD 060330Z AUTO 08001KT 6000 NCD M06/M07 Q1028=
201812060400 METAR LROD 060400Z AUTO 06002KT 6000 NCD M06/M07 Q1027=
201812060430 METAR LROD 060430Z AUTO 08002KT 6000 NCD M06/M07 Q1027=
201812060500 METAR LROD 060500Z 10004KT 7000 NSC M06/M07 Q1027=
201812060530 METAR LROD 060530Z 10003KT 6000 NSC M06/M06 Q1027=
201812060600 METAR LROD 060600Z 10005KT 7000 NSC M06/M07 Q1027=
201812060630 METAR LROD 060630Z 11005KT 7000 NSC M06/M07 Q1027=
201812060700 METAR LROD 060700Z 09005KT CAVOK M04/M05 Q1027=
201812060730 METAR LROD 060730Z 09005KT CAVOK M03/M04 Q1027=
201812060800 METAR LROD 060800Z 10006KT CAVOK M02/M04 Q1027=
201812060830 METAR LROD 060830Z 08004KT CAVOK M01/M04 Q1027=
201812060900 METAR LROD 060900Z 06002KT 360V120 CAVOK M00/M04 Q1027=
201812060930 METAR LROD 060930Z 33005KT 310V010 CAVOK 01/M02 Q1027=
201812061000 METAR LROD 061000Z 34005KT CAVOK 02/M02 Q1027=
201812061030 METAR LROD 061030Z 28005KT CAVOK 02/M02 Q1027=
201812061100 METAR COR LROD 061100Z 33005KT 280V360 CAVOK 03/M03 Q1026=
201812061130 METAR LROD 061130Z 33006KT 300V360 CAVOK 03/M03 Q1026=
201812061200 METAR LROD 061200Z 36005KT 330V070 CAVOK 03/M04 Q1026=
201812061230 METAR LROD 061230Z 02004KT 360V060 CAVOK 03/M06 Q1026=
201812061300 METAR LROD 061300Z 36003KT CAVOK 03/M04 Q1025=
201812061330 METAR LROD 061330Z 34006KT CAVOK 03/M05 Q1026=
201812061400 METAR LROD 061400Z 35007KT CAVOK 02/M04 Q1026=
201812061430 METAR LROD 061430Z 01005KT CAVOK 01/M05 Q1026=
201812061500 METAR LROD 061500Z 02003KT CAVOK 00/M05 Q1026=
201812061530 METAR LROD 061530Z 08002KT 050V110 CAVOK 00/M05 Q1025=
201812061600 METAR LROD 061600Z 09003KT CAVOK M00/M04 Q1026=
201812061630 METAR LROD 061630Z 13001KT CAVOK M02/M04 Q1026=
201812061700 METAR LROD 061700Z 11001KT CAVOK M03/M05 Q1026=
201812061730 METAR LROD 061730Z 09002KT CAVOK M03/M05 Q1026=
201812061800 METAR LROD 061800Z 07003KT 7000 NSC M02/M04 Q1026=
201812061830 METAR LROD 061830Z 13004KT 6000 NSC M03/M05 Q1025=
201812061900 METAR LROD 061900Z AUTO 09003KT 6000 OVC120/// M03/M05 Q1026=
201812061930 METAR LROD 061930Z AUTO 00000KT 6000 OVC120/// M03/M04 Q1026=
201812062000 METAR LROD 062000Z AUTO VRB01KT 6000 FEW120/// BKN130///
                        M03/M04 Q1026=
201812062030 METAR LROD 062030Z AUTO 17002KT 6000 OVC130/// M03/M04 Q1026=
201812062100 METAR LROD 062100Z AUTO 13004KT 7000 OVC140/// M03/M04 Q1025=
201812062130 METAR LROD 062130Z AUTO 13002KT 7000 FEW070/// OVC140///
                        M03/M04 Q1025=
201812062200 METAR LROD 062200Z AUTO 14004KT 7000 OVC140/// M02/M04 Q1025=
201812062230 METAR LROD 062230Z AUTO 00000KT 7000 BKN090/// OVC140///
                        M02/M03 Q1025=
201812062300 METAR LROD 062300Z AUTO 00000KT 7000 FEW065/// OVC080///
                        M02/M03 Q1026=
201812062330 METAR LROD 062330Z AUTO 14004KT 100V170 7000 BKN075/// OVC140///
                        M02/M03 Q1025=
201812070000 METAR LROD 070000Z AUTO 12004KT 6000 BKN085/// OVC100///
                        M02/M03 Q1025=
201812070030 METAR LROD 070030Z AUTO 13003KT 8000 SCT060/// BKN080///
                        M01/M03 Q1025=
201812070100 METAR LROD 070100Z AUTO 14002KT 8000 SCT055/// OVC075///
                        M01/M03 Q1025=
201812070130 METAR LROD 070130Z AUTO 19002KT 9999 BKN050/// BKN065///
                        M01/M02 Q1025=
201812070200 METAR LROD 070200Z AUTO 18003KT 9999 BKN055/// OVC080///
                        M01/M02 Q1024=
201812070230 METAR LROD 070230Z AUTO 19005KT 9999 BKN050/// M00/M02 Q1024=
201812070300 METAR LROD 070300Z AUTO 19004KT 9999 BKN050/// OVC070///
                        M00/M02 Q1024=
201812070330 METAR LROD 070330Z AUTO 18003KT 9999 BKN049/// M00/M03 Q1024=
201812070400 METAR LROD 070400Z AUTO 12003KT 9999 OVC049/// M00/M03 Q1024=
201812070430 METAR LROD 070430Z AUTO 13003KT 9999 BKN046/// M00/M03 Q1024=
201812070500 METAR LROD 070500Z 16003KT 9999 BKN043 M00/M02 Q1024=
201812070530 METAR LROD 070530Z 18004KT 9999 BKN042 00/M03 Q1024=
201812070600 METAR LROD 070600Z 19004KT 9999 OVC042 00/M02 Q1023=
201812070630 METAR LROD 070630Z 18006KT 9999 BKN041 M00/M03 Q1023=
201812070700 METAR LROD 070700Z 19008KT 9999 BKN038 OVC043 00/M03 Q1023=
201812070730 METAR LROD 070730Z 19009KT 9999 BKN038 00/M03 Q1023=
201812070800 METAR LROD 070800Z 19009KT 9999 OVC037 01/M03 Q1023=
201812070830 METAR LROD 070830Z 19009KT 9999 OVC037 01/M03 Q1023=
201812070900 METAR LROD 070900Z 20008KT 9999 FEW024 OVC037 01/M03 Q1023=
201812070930 METAR LROD 070930Z 20008KT 9999 OVC034 01/M03 Q1023=
201812071000 METAR LROD 071000Z 20008KT 9999 BKN029 OVC033 01/M03 Q1022=
201812071030 METAR LROD 071030Z 20009KT 9999 OVC030 02/M03 Q1022=
201812071100 METAR LROD 071100Z 20010KT 9999 OVC028 02/M03 Q1021=
201812071130 METAR LROD 071130Z 19009KT 9999 OVC029 02/M03 Q1021=
201812071200 METAR LROD 071200Z 19009KT 9999 OVC028 02/M03 Q1021=
201812071230 METAR LROD 071230Z 19008KT 9999 OVC025 02/M03 Q1020=
201812071300 METAR LROD 071300Z 20006KT 9999 FEW025 OVC029 02/M03 Q1020=
201812071330 METAR LROD 071330Z 18004KT 150V210 9999 OVC027 02/M03 Q1020=
201812071400 METAR LROD 071400Z 18004KT 9999 OVC027 02/M03 Q1019=
201812071430 METAR LROD 071430Z 16005KT 120V190 9999 FEW027 SCT036 OVC049
                        03/M02 Q1019=
201812071500 METAR LROD 071500Z 17006KT 9999 BKN026 03/M02 Q1019=
201812071530 METAR LROD 071530Z 17004KT 9999 BKN025 03/M02 Q1018=
201812071600 METAR LROD 071600Z 17004KT 9999 BKN022 OVC026 03/M02 Q1018=
201812071630 METAR LROD 071630Z 14004KT 9999 BKN023 03/M03 Q1018=
201812071700 METAR LROD 071700Z 17005KT 9999 SCT030 03/M03 Q1018=
201812071730 METAR LROD 071730Z 19004KT 9999 BKN041 03/M02 Q1017=
201812071800 METAR LROD 071800Z 17005KT 9999 BKN044 03/M02 Q1017=
201812071830 METAR LROD 071830Z 13002KT 9999 SCT045 03/M03 Q1016=
201812071900 METAR LROD 071900Z 10004KT CAVOK 03/M02 Q1016=
201812071930 METAR LROD 071930Z 12004KT CAVOK 03/M02 Q1015=
201812072000 METAR LROD 072000Z 11003KT CAVOK 03/M02 Q1015=
201812072030 METAR LROD 072030Z 11003KT CAVOK 03/M02 Q1015=
201812072100 METAR LROD 072100Z 12004KT CAVOK 02/M01 Q1014=
201812072130 METAR LROD 072130Z AUTO 12004KT 9999 OVC200/// 02/M01 Q1013=
201812072200 METAR LROD 072200Z AUTO 11004KT 9999 BKN200/// 02/M01 Q1013=
201812072230 METAR LROD 072230Z AUTO 04004KT 9999 OVC200/// 02/M01 Q1013=
201812072300 METAR LROD 072300Z AUTO 07003KT 9999 BKN200/// 02/M00 Q1012=
201812072330 METAR LROD 072330Z AUTO 09004KT 9999 OVC200/// 02/M00 Q1012=
201812080000 METAR LROD 080000Z AUTO 10005KT 9999 OVC200/// 02/M00 Q1011=
201812080030 METAR LROD 080030Z AUTO 10004KT 9999 OVC200/// 02/M00 Q1011=
201812080100 METAR LROD 080100Z AUTO 11003KT 9999 OVC200/// 02/00 Q1011=
201812080130 METAR LROD 080130Z AUTO 10003KT 9000 FEW080/// BKN200///
                        02/00 Q1011=
201812080200 METAR LROD 080200Z AUTO 11005KT 9000 FEW080/// OVC200///
                        02/00 Q1010=
201812080230 METAR LROD 080230Z AUTO 09002KT 9999 OVC210/// 02/00 Q1010=
201812080300 METAR LROD 080300Z AUTO 16001KT 9000 BKN210/// 01/00 Q1010=
201812080330 METAR LROD 080330Z AUTO 18003KT 7000 BKN110/// 00/M01 Q1011=
201812080400 METAR LROD 080400Z AUTO 17006KT 9999 BKN110/// 01/M00 Q1010=
201812080430 METAR LROD 080430Z AUTO 11005KT 9999 BKN080/// 02/00 Q1009=
201812080500 METAR LROD 080500Z 18009KT CAVOK 06/01 Q1009=
201812080530 METAR LROD 080530Z 19013KT CAVOK 07/M00 Q1009=
201812080600 METAR LROD 080600Z 19012KT 9999 -RA FEW038 07/01 Q1009=
201812080630 METAR LROD 080630Z 18009KT 9999 -SHRA SCT036 FEW038CB BKN042
                        07/02 Q1009=
201812080700 METAR LROD 080700Z 20010KT 9999 -SHRA BKN034 FEW036CB BKN041
                        06/03 Q1009 R01/29//95=
201812080730 METAR LROD 080730Z 20010KT 9999 -SHRA SCT035 FEW036CB OVC046
                        06/04 Q1009 R01/29//95=
201812080800 METAR LROD 080800Z 21010KT 9999 -SHRA BKN031 FEW034CB 05/04
                        Q1009 R01/29//95=
201812080830 METAR LROD 080830Z 22010KT 9999 -SHRA BKN029 FEW033CB 05/04
                        Q1010 R01/29//95=
201812080900 METAR LROD 080900Z 24012KT 9999 -SHRA SCT019 BKN031 FEW033CB
                        04/03 Q1010 R01/29//95=
201812080930 METAR LROD 080930Z 24010KT 9000 -RA SCT019 OVC024 04/03 Q1010
                        R01/29//95=
201812081000 METAR LROD 081000Z 22009KT 9999 -RA BKN023 04/03 Q1009 R01/29//95=
201812081030 METAR LROD 081030Z 21008KT 9000 -RA SCT020 OVC029 04/03 Q1009
                        R01/29//95=
201812081100 METAR LROD 081100Z 21009KT 9999 -RA BKN020 04/03 Q1009 R01/29//95=
201812081130 METAR LROD 081130Z 28006KT 2700 -RA BR SCT006 BKN013 04/03
                        Q1010 R01/29//95=
201812081200 METAR LROD 081200Z 26006KT 2300 -RA BR SCT003 BKN011 03/03
                        Q1010 R01/29//95=
201812081230 METAR LROD 081230Z 23005KT 5000 BR FEW003 BKN011 BKN023 03/03
                        Q1009 R01/29//95=
201812081300 METAR LROD 081300Z 17004KT 5000 BR FEW004 SCT015 OVC022 04/03
                        Q1009 R01/29//95=
201812081330 METAR LROD 081330Z 21004KT 6000 FEW007 OVC020 04/03 Q1010
                        R01/29//95=
201812081400 METAR LROD 081400Z 26008KT 5000 BR BKN005 OVC010 03/03 Q1010
                        R01/29//95=
201812081430 METAR LROD 081430Z 28006KT 4000 -DZ BR BKN004 BKN006 03/03
                        Q1010 R01/29//95=
201812081500 METAR LROD 081500Z 28005KT 2200 -DZ BR SCT002 OVC006 03/03
                        Q1011 R01/29//95=
201812081530 METAR LROD 081530Z 30005KT 2400 -DZ BR FEW002 OVC005 03/03
                        Q1011 R01/29//95=
201812081600 METAR LROD 081600Z 30006KT 2500 -DZ BR SCT002 OVC008 03/02
                        Q1011 R01/29//95=
201812081630 METAR LROD 081630Z 34005KT 3000 BR SCT002 OVC004 02/02 Q1011
                        R01/29//95=
201812081700 METAR LROD 081700Z 34007KT 4200 BR SCT003 OVC009 02/02 Q1011
                        R01/29//95=
201812081730 METAR LROD 081730Z 03003KT 4400 BR SCT005 OVC014 02/02 Q1011
                        R01/29//95=
201812081800 METAR LROD 081800Z 00000KT 4300 BR BKN005 02/02 Q1012 R01/29//95=
201812081830 METAR LROD 081830Z 00000KT 4400 BR BKN005 OVC018 02/02 Q1012
                        R01/29//95=
201812081900 METAR LROD 081900Z 00000KT 3000 BR BKN005 02/02 Q1012 R01/29//95=
201812081930 METAR LROD 081930Z AUTO 27006KT 3200 BR BKN005/// 02/02 Q1012=
201812082000 METAR LROD 082000Z AUTO 25006KT 3500 BR FEW003/// BKN005///
                        02/02 Q1012=
201812082030 METAR LROD 082030Z AUTO 22003KT 200V260 3400 BR BKN003///
                        BKN005/// 02/02 Q1012=
201812082100 METAR LROD 082100Z AUTO 18004KT 2700 BR OVC003/// 02/02 Q1012=
201812082130 METAR LROD 082130Z AUTO 18005KT 150V220 2900 BR BKN002///
                        02/01 Q1012=
201812082200 METAR LROD 082200Z AUTO 20006KT 0900 R19/0800V1800D FG BKN001///
                        OVC003/// 02/01 Q1012=
201812082230 METAR LROD 082230Z AUTO 19006KT 150V210 0550 R19/0700N FG
                        VV002 01/01 Q1012=
201812082300 METAR LROD 082300Z AUTO 18007KT 0550 R19/0700N FG OVC003///
                        01/01 Q1012=
201812082330 METAR LROD 082330Z AUTO 17006KT 0600 R19/0750U FG VV002 01/01
                        Q1012=
201812090000 METAR LROD 090000Z AUTO 17008KT 1100 R19/1100V1500U FG VV002
                        01/01 Q1012=
201812090030 METAR LROD 090030Z AUTO 20007KT 1500 R19/1400VP2000D FG BKN001///
                        OVC003/// 02/02 Q1012=
201812090100 METAR LROD 090100Z AUTO 18009KT 0800 R19/1000U FG VV002 02/02
                        Q1012=
201812090130 METAR LROD 090130Z AUTO 20012KT 0650 R19/0750N FG VV001 01/01
                        Q1012=
201812090200 METAR LROD 090200Z AUTO 18010KT 0750 R19/0900N FG VV001 01/01
                        Q1012=
201812090230 METAR LROD 090230Z AUTO 17008KT 1300 R19/1700D FG OVC001///
                        02/02 Q1011=
201812090300 METAR LROD 090300Z AUTO 17010KT 1400 R19/1500VP2000U FG BKN001///
                        02/02 Q1011=
201812090330 METAR LROD 090330Z AUTO 17008KT 3300 BKN002/// BKN050///
                        02/02 Q1011=
201812090400 METAR LROD 090400Z AUTO 17009KT 3700 SCT004/// BKN060///
                        02/02 Q1010=
201812090430 METAR LROD 090430Z AUTO 17010KT 4400 BR SCT004/// OVC055///
                        02/02 Q1010=
201812090500 METAR COR LROD 090500Z 17009KT 5000 BR BKN045 03/03 Q1010
                        R01/29//95=
201812090530 METAR LROD 090530Z 17008KT 6000 NSC 03/03 Q1010 R01/29//95=
201812090600 METAR LROD 090600Z 16009KT CAVOK 03/02 Q1010 R01/29//95=
201812090630 METAR LROD 090630Z 17010KT CAVOK 03/02 Q1010 R01/29//95=
201812090700 METAR LROD 090700Z 18010KT CAVOK 03/02 Q1010 R01/29//95=
201812090730 METAR LROD 090730Z 17013KT CAVOK 04/03 Q1010 R01/29//95=
201812090800 METAR LROD 090800Z 18015KT CAVOK 04/02 Q1009 R01/29//95=
201812090830 METAR LROD 090830Z 17014KT CAVOK 05/03 Q1008 R01/29//95=
201812090900 METAR COR LROD 090900Z 17016KT CAVOK 06/03 Q1008 R01/29//95=
201812090930 METAR LROD 090930Z 17013KT CAVOK 07/03 Q1007 R01/29//95=
201812091000 METAR LROD 091000Z 18014KT CAVOK 08/03 Q1007 R01/29//95=
201812091030 METAR LROD 091030Z 19018KT CAVOK 08/03 Q1006 R01/29//95=
201812091100 METAR LROD 091100Z 19015KT CAVOK 07/02 Q1006 R01/29//95=
201812091130 METAR LROD 091130Z 19016KT CAVOK 08/03 Q1005 R01/29//95=
201812091200 METAR LROD 091200Z 19016KT CAVOK 08/03 Q1006 R01/29//95=
201812091230 METAR LROD 091230Z 20018KT CAVOK 08/03 Q1005 R01/29//95=
201812091300 METAR LROD 091300Z 19016KT CAVOK 07/03 Q1005=
201812091330 METAR LROD 091330Z 19015KT CAVOK 07/02 Q1005=
201812091400 METAR LROD 091400Z 18013KT CAVOK 07/02 Q1005=
201812091430 METAR LROD 091430Z 19012KT CAVOK 07/02 Q1004=
201812091500 METAR LROD 091500Z 19011KT CAVOK 07/03 Q1004=
201812091530 METAR LROD 091530Z 20010KT 160V220 9999 -RA FEW042 07/03
                        Q1004=
201812091600 METAR LROD 091600Z 20011KT 9999 -RA OVC045 07/03 Q1004=
201812091630 METAR LROD 091630Z 20011KT 9999 -RA BKN040 06/03 Q1005=
201812091700 METAR LROD 091700Z 19013KT 9999 -RA BKN040 06/03 Q1004 R01/29//95=
201812091730 METAR LROD 091730Z 20012KT 9999 BKN040 06/03 Q1005 R01/29//95=
201812091800 METAR LROD 091800Z 19011KT 9999 OVC040 06/03 Q1004 R01/29//95=
201812091830 METAR LROD 091830Z 19010KT 9999 BKN040 06/03 Q1004 R01/29//95=
201812091900 METAR LROD 091900Z AUTO 19011KT 9999 -SHRA SCT040/// BKN055///
                        06/03 Q1005=
201812091930 METAR LROD 091930Z AUTO 20009KT 9999 SCT038/// BKN044///
                        BKN060/// 06/03 Q1005 REDZ=
201812092000 METAR LROD 092000Z AUTO 20010KT 9999 BKN040/// BKN055///
                        06/03 Q1005=
201812092030 METAR LROD 092030Z AUTO 19009KT 9999 BKN042/// BKN070///
                        06/03 Q1005=
201812092100 METAR LROD 092100Z AUTO 20009KT 9999 BKN045/// OVC065///
                        06/03 Q1005=
201812092130 METAR LROD 092130Z AUTO 19008KT 9999 FEW042/// BKN050///
                        06/03 Q1005=
201812092200 METAR LROD 092200Z AUTO 19008KT 9999 BKN040/// BKN065///
                        06/03 Q1005=
201812092230 METAR LROD 092230Z AUTO 20009KT 9999 OVC038/// 06/03 Q1005=
201812092300 METAR LROD 092300Z AUTO 20009KT 9999 FEW039/// OVC048///
                        06/03 Q1005=
201812092330 METAR LROD 092330Z AUTO 20009KT 9999 BKN044/// 05/03 Q1005=
201812100000 METAR LROD 100000Z AUTO 20009KT 9999 BKN045/// 05/03 Q1005=
201812100030 METAR LROD 100030Z AUTO 20009KT 9999 SCT038/// OVC045///
                        05/03 Q1005=
201812100100 METAR LROD 100100Z AUTO 19010KT 9999 SCT041/// BKN050///
                        OVC075/// 05/03 Q1006=
201812100130 METAR LROD 100130Z AUTO 19010KT 9999 SCT041/// BKN070///
                        05/03 Q1006=
201812100200 METAR LROD 100200Z AUTO 20007KT 9999 FEW036/// SCT042///
                        BKN048/// 05/03 Q1006=
201812100230 METAR LROD 100230Z AUTO 19009KT 9999 -SHRA SCT037/// BKN044///
                        05/03 Q1005=
201812100300 METAR LROD 100300Z AUTO 20011KT 9999 BKN034/// 05/03 Q1005
                        REDZ=
201812100330 METAR LROD 100330Z AUTO 20010KT 9999 OVC036/// 05/03 Q1005=
201812100400 METAR LROD 100400Z AUTO 20010KT 9999 BKN036/// OVC041///
                        05/03 Q1005=
201812100430 METAR LROD 100430Z AUTO 20011KT 9999 SCT037/// OVC048///
                        05/03 Q1006=
201812100500 METAR LROD 100500Z 20010KT 9999 FEW034 BKN040 05/03 Q1006
                        R01/19//95=
201812100530 METAR LROD 100530Z 20009KT 9999 FEW028 BKN036 05/03 Q1006
                        R01/19//95=
201812100600 METAR LROD 100600Z 21008KT 9999 SCT027 BKN039 05/03 Q1006
                        R01/19//95=
201812100630 METAR LROD 100630Z 22010KT 9999 SCT029 05/03 Q1006 R01/19//95=
201812100700 METAR LROD 100700Z 21009KT 9999 SCT041 05/03 Q1006 R01/19//95=
201812100730 METAR LROD 100730Z 23008KT CAVOK 06/04 Q1007 R01/19//95=
201812100800 METAR LROD 100800Z 22009KT CAVOK 05/03 Q1007 R01/19//95=
201812100830 METAR LROD 100830Z 22009KT CAVOK 06/04 Q1007 R01/19//95=
201812100900 METAR LROD 100900Z 23009KT 9999 FEW013 BKN033 06/04 Q1007
                        R01/19//95=
201812100930 METAR LROD 100930Z 25008KT 9999 FEW014 SCT018 OVC031 06/04
                        Q1007 R01/19//95=
201812101000 METAR LROD 101000Z 27009KT 9999 BKN017 BKN027 06/04 Q1007
                        R01/19//95=
201812101030 METAR LROD 101030Z 28007KT 9999 BKN017 BKN029 06/04 Q1007
                        R01/19//95=
201812101100 METAR LROD 101100Z 30005KT 9999 FEW015 BKN018 OVC026 07/04
                        Q1007 R01/19//95=
201812101130 METAR LROD 101130Z 32005KT 9999 BKN022 07/04 Q1008 R01/19//95=
201812101200 METAR LROD 101200Z 31007KT 9999 FEW016 SCT032 BKN037 07/04
                        Q1008 R01/19//95=
201812101230 METAR LROD 101230Z 32005KT 9999 FEW017 OVC029 06/04 Q1008
                        R01/19//95=
201812101300 METAR LROD 101300Z 28004KT 9000 -RA FEW014 BKN030 06/05 Q1008
                        R01/19//95=
201812101330 METAR LROD 101330Z 32006KT 9999 -RA SCT012 BKN023 05/04 Q1009
                        R01/19//95=
201812101400 METAR LROD 101400Z 34007KT 8000 -RA FEW009 SCT014 BKN017
                        05/04 Q1009 R01/19//95=
201812101430 METAR LROD 101430Z 31010KT 9999 -RA FEW014 BKN020 04/03 Q1010
                        R01/19//95=
201812101500 METAR LROD 101500Z 32005KT 290V010 9999 -RA BKN021 BKN029
                        OVC041 04/03 Q1010 R01/19//95=
201812101530 METAR LROD 101530Z 33006KT 9000 -RA FEW020 BKN027 04/03 Q1010
                        R01/19//95=
201812101600 METAR LROD 101600Z 31008KT 9999 -RA FEW023 BKN034 OVC041
                        04/03 Q1010 R01/19//95=
201812101630 METAR LROD 101630Z 35007KT 9999 -RA FEW010 BKN023 OVC030
                        04/03 Q1010 R01/19//95=
201812101700 METAR LROD 101700Z 36003KT 330V040 9999 -RA SCT022 OVC046
                        04/02 Q1010 R01/19//95=
201812101730 METAR LROD 101730Z VRB01KT 9999 FEW023 OVC047 04/02 Q1010
                        R01/19//95=
201812101800 METAR LROD 101800Z 18003KT 9999 SCT040 OVC049 03/02 Q1010
                        R01/19//95=
201812101830 METAR LROD 101830Z 27003KT 9999 -RA SCT041 OVC049 03/03 Q1011
                        R01/19//95=
201812101900 METAR LROD 101900Z 30004KT 270V340 9999 -RA FEW024 SCT037
                        BKN046 04/02 Q1011 R01/19//95=
201812101930 METAR LROD 101930Z AUTO 21003KT 9999 -RA FEW021/// SCT027///
                        BKN041/// 03/02 Q1011=
201812102000 METAR LROD 102000Z AUTO 22005KT 7000 RA FEW013/// BKN021///
                        BKN034/// 03/02 Q1012=
201812102030 METAR LROD 102030Z AUTO 33004KT 7000 RA FEW012/// SCT017///
                        BKN022/// 03/02 Q1012=
201812102100 METAR LROD 102100Z AUTO 00000KT 7000 -SHRA FEW010/// BKN026///
                        BKN042/// 03/02 Q1012=
201812102130 METAR LROD 102130Z AUTO 14004KT 9999 SCT033/// BKN041///
                        02/02 Q1012 RERA=
201812102200 METAR LROD 102200Z AUTO 16004KT 9999 BKN032/// OVC040///
                        03/02 Q1012 REDZ=
201812102230 METAR LROD 102230Z AUTO 16004KT 9999 FEW031/// SCT038///
                        BKN050/// 02/02 Q1012=
201812102300 METAR LROD 102300Z AUTO 18005KT 9999 FEW023/// SCT049///
                        01/01 Q1012=
201812102330 METAR LROD 102330Z AUTO 21004KT 160V260 9999 BKN023/// 01/01
                        Q1012=
201812110000 METAR LROD 110000Z AUTO VRB01KT 9999 BKN022/// 01/01 Q1012=
201812110030 METAR LROD 110030Z AUTO 22004KT 190V250 9999 FEW023/// SCT049///
                        01/00 Q1012=
201812110100 METAR LROD 110100Z AUTO 19005KT 7000 SCT024/// BKN050///
                        01/00 Q1012=
201812110130 METAR LROD 110130Z AUTO 22004KT 6000 FEW005/// SCT011///
                        BKN050/// 00/M00 Q1012=
201812110200 METAR LROD 110200Z AUTO 18002KT 080V220 7000 OVC007/// 01/01
                        Q1012=
201812110230 METAR LROD 110230Z AUTO 13003KT 8000 SCT007/// BKN070///
                        BKN110/// 01/00 Q1012=
201812110300 METAR LROD 110300Z AUTO 18004KT 7000 FEW009/// BKN070///
                        M00/M00 Q1012=
201812110330 METAR LROD 110330Z AUTO 21005KT 4700 BR FEW006/// BKN070///
                        M00/M00 Q1012=
201812110400 METAR LROD 110400Z AUTO 23006KT 9999 FEW012/// BKN070///
                        M00/M00 Q1012=
201812110430 METAR LROD 110430Z AUTO 18004KT 9000 FEW044/// SCT050///
                        BKN070/// M00/M01 Q1012=
201812110500 METAR LROD 110500Z 16004KT CAVOK M01/M01 Q1012 R01/19//95=
201812110530 METAR LROD 110530Z 25006KT 9999 FEW009 BKN049 M00/M00 Q1013
                        R01/29//95=
201812110600 METAR LROD 110600Z 20007KT 9000 BKN007 M00/M01 Q1013 R01/29//95=
201812110630 METAR LROD 110630Z 18007KT 8000 BKN004 M01/M01 Q1013 R01/29//95=
201812110700 METAR LROD 110700Z 18009KT 7000 BKN003 BKN037 M01/M01 Q1014
                        R01/29//95=
201812110730 METAR LROD 110730Z 17007KT 7000 BKN003 M00/M01 Q1014 R01/29//95=
201812110800 METAR LROD 110800Z 19008KT 8000 OVC003 M00/M01 Q1014 R01/29//95=
201812110830 METAR LROD 110830Z 19009KT 5000 BR OVC003 M01/M01 Q1014 R01/29//95=
201812110900 METAR LROD 110900Z 18009KT 6000 OVC003 M00/M01 Q1014 R01/29//95=
201812110930 METAR COR LROD 110930Z 19008KT 7000 BKN003 00/M00 Q1014 R01/CLRD//=
201812111000 METAR LROD 111000Z 20009KT 9999 BKN004 OVC006 00/M00 Q1014=
201812111030 METAR LROD 111030Z 21010KT 9999 BKN004 OVC007 01/M00 Q1014=
201812111100 METAR LROD 111100Z 20011KT 9999 BKN006 BKN010 01/00 Q1014=
201812111130 METAR LROD 111130Z 20010KT 9999 BKN007 01/00 Q1014=
201812111200 METAR LROD 111200Z 20011KT 9999 BKN007 02/00 Q1014=
201812111230 METAR LROD 111230Z 19009KT 9999 BKN009 03/00 Q1014=
201812111300 METAR LROD 111300Z 19009KT 9999 BKN011 03/01 Q1014=
201812111330 METAR LROD 111330Z 19011KT 9999 BKN011 03/01 Q1014=
201812111400 METAR LROD 111400Z 18009KT 9999 BKN021 02/00 Q1015=
201812111430 METAR LROD 111430Z 18008KT 9999 BKN024 02/00 Q1015=
201812111500 METAR LROD 111500Z 18009KT 9999 BKN029 02/00 Q1015=
201812111530 METAR LROD 111530Z 18009KT 9999 BKN031 02/00 Q1015=
201812111600 METAR LROD 111600Z 18010KT 9999 BKN029 02/00 Q1015=
201812111630 METAR LROD 111630Z 18009KT 9999 -RA BKN022 02/00 Q1015=
201812111700 METAR LROD 111700Z 19011KT 9999 -RA BKN018 02/00 Q1015=
201812111730 METAR LROD 111730Z 19010KT 9999 -RA BKN016 02/00 Q1015=
201812111800 METAR LROD 111800Z 19009KT 9999 OVC015 02/00 Q1015=
201812111830 METAR LROD 111830Z 20011KT 9999 OVC012 02/00 Q1015=
201812111900 METAR LROD 111900Z 19010KT 9999 SCT010 OVC027 02/00 Q1015=
201812111930 METAR LROD 111930Z 20009KT 9999 BKN010 BKN030 02/00 Q1015=
201812112000 METAR LROD 112000Z 19008KT 9999 BKN011 BKN022 02/01 Q1015=
201812112030 METAR LROD 112030Z 18008KT 9999 SCT009 BKN014 02/01 Q1015=
201812112100 METAR LROD 112100Z 19009KT 9999 BKN007 02/01 Q1015=
201812112130 METAR LROD 112130Z 19009KT 9999 BKN007 02/01 Q1015=
201812112200 METAR LROD 112200Z 18009KT 9999 -DZ OVC006 02/01 Q1015=
201812112230 METAR LROD 112230Z 19009KT 6000 -RA SCT005 OVC007 02/01 Q1015
                        R01/19//95=
201812112300 METAR LROD 112300Z 19010KT 6000 -RA SCT005 BKN014 01/01 Q1015
                        R01/29//95=
201812112330 METAR LROD 112330Z 18009KT 6000 -RA BKN004 OVC011 01/01 Q1015
                        R01/29//95=
201812120000 METAR LROD 120000Z 18010KT 8000 -RA BKN005 OVC009 01/01 Q1015
                        R01/29//95=
201812120030 METAR LROD 120030Z 18009KT 5000 -RA BR BKN005 01/01 Q1015
                        R01/29//95=
201812120100 METAR LROD 120100Z 18009KT 5000 -RASN BR OVC005 01/01 Q1015
                        R01/29//95=
201812120130 METAR LROD 120130Z 18009KT 7000 -SN BKN006 BKN013 01/01 Q1015
                        R01/29//95=
201812120200 METAR LROD 120200Z 18008KT 6000 -SN OVC005 01/00 Q1014 R01/29//95=
201812120230 METAR LROD 120230Z 18008KT 5000 -SN BR BKN005 BKN017 01/00
                        Q1014 R01/29//95=
201812120300 METAR LROD 120300Z 19009KT 5000 -SN BR BKN004 OVC018 01/00
                        Q1014 R01/29//95=
201812120330 METAR LROD 120330Z AUTO 19008KT 4900 -SN FEW011/// BKN016///
                        OVC019/// 00/00 Q1014=
201812120400 METAR LROD 120400Z AUTO 19006KT 2800 -SN FEW003/// SCT005///
                        BKN012/// 00/00 Q1014=
201812120430 METAR LROD 120430Z AUTO 19006KT 4000 -SN SCT003/// OVC009///
                        00/00 Q1014=
201812120500 METAR COR LROD 120500Z 18005KT 1800 -SN BR BKN003 OVC008
                        00/00 Q1014 R01/29//95=
201812120530 METAR LROD 120530Z 18004KT 5000 -SN BR BKN003 OVC008 00/00
                        Q1015 R01/650294=
201812120600 METAR LROD 120600Z 18005KT 6000 -SN OVC003 01/00 Q1015 R01/650294=
201812120630 METAR COR LROD 120630Z 16004KT 6000 -SN BKN004 00/00 Q1015
                        R01/650294=
201812120700 METAR LROD 120700Z 16003KT 130V190 6000 -SN FEW005 OVC007
                        01/00 Q1015 R01/650294=
201812120730 METAR COR LROD 120730Z 15004KT 6000 -SN BKN007 01/00 Q1015
                        R01/650294=
201812120800 METAR LROD 120800Z 16003KT 9999 -RASN BKN007 OVC011 01/01
                        Q1015 R01/650294=
201812120830 METAR LROD 120830Z 16004KT 9999 -RA BKN006 BKN011 01/01 Q1016
                        R01/650294=
201812120900 METAR LROD 120900Z 16004KT 130V190 9999 -RASN OVC007 01/01
                        Q1016 R01/650294=
201812120930 METAR LROD 120930Z 19004KT 7000 -RASN BKN007 OVC009 01/01
                        Q1016 R01/650294=
201812121000 METAR LROD 121000Z 20003KT 7000 -RASN SCT004 OVC006 01/01
                        Q1016 R01/650294=
201812121030 METAR LROD 121030Z VRB01KT 8000 -DZ BKN004 OVC006 01/01 Q1016
                        R01/650294=
201812121100 METAR LROD 121100Z 00000KT 9999 OVC004 02/01 Q1016 R01/650294=
201812121130 METAR LROD 121130Z 32002KT 270V020 7000 OVC004 02/01 Q1016
                        R01/650294=
201812121200 METAR LROD 121200Z 00000KT 8000 SCT004 BKN009 02/02 Q1017
                        R01/25//95=
201812121230 METAR LROD 121230Z 24003KT 8000 BKN005 BKN007 02/01 Q1017
                        R01/25//95=
201812121300 METAR LROD 121300Z 25003KT 8000 BKN005 OVC007 02/02 Q1017
                        R01/25//95=
201812121330 METAR LROD 121330Z 23004KT 6000 SCT008 BKN011 02/02 Q1017
                        R01/25//95=
201812121400 METAR LROD 121400Z 26003KT 4200 BR FEW005 BKN013 02/02 Q1018
                        R01/25//95=
201812121430 METAR LROD 121430Z 32002KT 290V350 9999 FEW013 OVC016 02/02
                        Q1018 R01/25//95=
201812121500 METAR LROD 121500Z 00000KT 9999 FEW008 OVC021 02/01 Q1018
                        R01/25//95=
201812121530 METAR LROD 121530Z 34004KT 9999 SCT009 BKN019 02/01 Q1018
                        R01/25//95=
201812121600 METAR COR LROD 121600Z 00000KT 9999 -RA BKN012 BKN021 02/01
                        Q1018 R01/25//95=
201812121630 METAR COR LROD 121630Z 33003KT 9999 SCT009 OVC014 02/02 Q1018
                        R01/25//95=
201812121700 METAR COR LROD 121700Z 02004KT 6000 SCT007 BKN019 02/02 Q1019
                        R01/25//95=
201812121730 METAR LROD 121730Z 02005KT 6000 SCT008 BKN022 02/01 Q1019
                        R01/25//95=
201812121800 METAR LROD 121800Z 03003KT 6000 FEW007 BKN030 02/01 Q1019
                        R01/25//95=
201812121830 METAR LROD 121830Z 05003KT 7000 OVC032 02/01 Q1019 R01/25//95=
201812121900 METAR LROD 121900Z 03003KT 8000 BKN041 01/01 Q1019 R01/25//95=
201812121930 METAR LROD 121930Z AUTO 01002KT 7000 FEW008/// OVC028///
                        02/01 Q1019=
201812122000 METAR LROD 122000Z AUTO 33003KT 5000 BR SCT006/// BKN028///
                        BKN050/// 02/01 Q1019=
201812122030 METAR LROD 122030Z AUTO 36003KT 4900 BR FEW005/// BKN048///
                        BKN080/// 01/01 Q1020=
201812122100 METAR LROD 122100Z AUTO 34002KT 5000 BR FEW006/// BKN037///
                        BKN050/// 01/01 Q1020=
201812122130 METAR LROD 122130Z AUTO 32004KT 4400 BR FEW005/// BKN040///
                        OVC075/// 01/01 Q1020=
201812122200 METAR LROD 122200Z AUTO 34004KT 5000 BR FEW005/// SCT040///
                        BKN080/// 01/01 Q1020=
201812122230 METAR LROD 122230Z AUTO 33004KT 5000 BR SCT016/// BKN034///
                        BKN041/// 01/01 Q1020=
201812122300 METAR LROD 122300Z AUTO 34004KT 4200 BR FEW016/// BKN080///
                        01/00 Q1020=
201812122330 METAR LROD 122330Z AUTO 33003KT 4000 BR FEW015/// SCT020///
                        OVC080/// 01/00 Q1020=
201812130000 METAR LROD 130000Z AUTO 33003KT 5000 BR FEW021/// BKN080///
                        01/00 Q1020=
201812130030 METAR LROD 130030Z AUTO 35004KT 5000 BR SCT080/// 00/M00
                        Q1020=
201812130100 METAR LROD 130100Z AUTO 30002KT 3700 BR FEW075/// M00/M01
                        Q1020=
201812130130 METAR LROD 130130Z AUTO 22001KT 2800 BR FEW075/// M01/M01
                        Q1020=
201812130200 METAR LROD 130200Z AUTO 23003KT 3100 BR FEW003/// BKN075///
                        M02/M02 Q1020=
201812130230 METAR LROD 130230Z AUTO 25002KT 3000 BR VV002 M01/M01 Q1020=
201812130300 METAR LROD 130300Z AUTO 30001KT 2400 BR SCT001/// BKN005///
                        M01/M01 Q1021=
201812130330 METAR LROD 130330Z AUTO 00000KT 2600 BR SCT003/// M01/M01
                        Q1021=
201812130400 METAR LROD 130400Z AUTO 00000KT 0350 R19/0350V0650U FZFG
                        BKN002/// M02/M02 Q1020=
201812130430 METAR LROD 130430Z AUTO 35003KT 2400 R19/1900VP2000D BKN002///
                        BKN004/// M01/M01 Q1021=
201812130500 METAR LROD 130500Z 06002KT 2200 BR BKN002 OVC003 M01/M01
                        Q1021 R01/25//95=
201812130530 METAR LROD 130530Z 11002KT 0900 R19/1200 FZFG VV002 M01/M01
                        Q1021 R01/19//95=
201812130600 METAR LROD 130600Z 11002KT 2500 BR BKN002 M01/M01 Q1021 R01/19//95=
201812130630 METAR LROD 130630Z 10003KT 2100 BR BKN002 M01/M01 Q1021 R01/19//95=
201812130700 METAR COR LROD 130700Z 11002KT 1100 R19/1200 BR OVC002 M01/M01
                        Q1021 R01/19//95=
201812130730 METAR LROD 130730Z 13002KT 0600 R19/0800 FZFG OVC002 M01/M01
                        Q1021 R01/19//95=
201812130800 METAR LROD 130800Z 12002KT 0650 R19/0900N FZFG OVC002 M01/M01
                        Q1021 R01/19//95=
201812130830 METAR LROD 130830Z 13004KT 0900 R19/1200N FZFG BKN002 M01/M01
                        Q1021 R01/19//95=
201812130900 METAR LROD 130900Z 12005KT 090V150 1100 R19/1400 BR BKN002
                        M01/M01 Q1021 R01/19//95=
201812130930 METAR LROD 130930Z 10002KT 0800 R19/1100N FZFG BKN001 M01/M01
                        Q1021 R01/19//95=
201812131000 METAR LROD 131000Z 26002KT 1700 BR SCT001 BKN003 M00/M00
                        Q1021 R01/19//95=
201812131030 METAR LROD 131030Z VRB01KT 3200 BR BKN004 M00/M00 Q1021 R01/19//95=
201812131100 METAR LROD 131100Z 24002KT 3600 BR BKN004 01/01 Q1021 R01/19//95=
201812131130 METAR LROD 131130Z 23004KT 190V260 3400 BR SCT005 01/00 Q1021
                        R01/19//95=
201812131200 METAR LROD 131200Z 26003KT 4500 BR SCT003 01/01 Q1020 R01/19//95=
201812131230 METAR LROD 131230Z 29002KT 250V320 4900 BR FEW003 01/00 Q1020
                        R01/19//95=
201812131300 METAR LROD 131300Z 27004KT 6000 FEW033 02/M00 Q1021 R01/CLRD//=
201812131330 METAR LROD 131330Z 27004KT 4500 BR FEW002 SCT035 01/00 Q1021=
201812131400 METAR LROD 131400Z 29002KT 3500 BR FEW002 BKN037 00/M00 Q1021=
201812131430 METAR LROD 131430Z 00000KT 3000 BR FEW028 M00/M01 Q1020=
201812131500 METAR LROD 131500Z 00000KT 2500 BR FEW030 M00/M01 Q1020=
201812131530 METAR LROD 131530Z 00000KT 2200 BR FEW028 M01/M01 Q1020=
201812131600 METAR LROD 131600Z 00000KT 5000 MIFG BR BKN025 M02/M02 Q1020=
201812131630 METAR LROD 131630Z VRB01KT 2500 MIFG BR FEW025 M02/M02 Q1020=
201812131700 METAR LROD 131700Z 22002KT 0600 R19/1200 FZFG NSC M03/M03
                        Q1020=
201812131730 METAR LROD 131730Z 00000KT 0700 R19/1000U FZFG FEW002 SCT034
                        M03/M03 Q1020=
201812131800 METAR LROD 131800Z 24002KT 3500 BR FEW037 M03/M03 Q1020=
201812131830 METAR LROD 131830Z 00000KT 4000 BR SCT026 M03/M03 Q1021=
201812131900 METAR LROD 131900Z 33001KT 4600 BR SCT029 M02/M02 Q1021=
201812131930 METAR LROD 131930Z AUTO 00000KT 4900 OVC025/// M02/M02 Q1021=
201812132000 METAR LROD 132000Z AUTO 29001KT 5000 BR BKN025/// OVC029///
                        M01/M01 Q1021=
201812132030 METAR LROD 132030Z AUTO 02004KT 5000 BR OVC025/// M01/M01
                        Q1021=
201812132100 METAR LROD 132100Z AUTO 01005KT 5000 BR FEW025/// BKN055///
                        M01/M02 Q1021=
201812132130 METAR LROD 132130Z AUTO VRB01KT 5000 BR FEW024/// BKN055///
                        M01/M02 Q1021=
201812132200 METAR LROD 132200Z AUTO 04003KT 5000 BR FEW024/// M01/M02
                        Q1021=
201812132230 METAR LROD 132230Z AUTO 04004KT 6000 NCD M01/M02 Q1021=
201812132300 METAR LROD 132300Z AUTO 13002KT 4600 BR NCD M03/M03 Q1021=
201812132330 METAR LROD 132330Z AUTO 03003KT 4800 BR NCD M04/M05 Q1021=
201812140000 METAR LROD 140000Z AUTO 07003KT 5000 BR NCD M02/M03 Q1021=
201812140030 METAR LROD 140030Z AUTO 08003KT 6000 NCD M02/M02 Q1021=
201812140100 METAR LROD 140100Z AUTO 06004KT 7000 NCD M02/M03 Q1021=
201812140130 METAR LROD 140130Z AUTO 05004KT 7000 NCD M02/M03 Q1020=
201812140200 METAR LROD 140200Z AUTO 06004KT 7000 NCD M02/M03 Q1021=
201812140230 METAR LROD 140230Z AUTO 08003KT 6000 NCD M03/M03 Q1020=
201812140300 METAR LROD 140300Z AUTO 07005KT 5000 BR NCD M03/M03 Q1020=
201812140330 METAR LROD 140330Z AUTO 04003KT 4600 BR NCD M04/M04 Q1020=
201812140400 METAR LROD 140400Z AUTO 05002KT 5000 BR NCD M04/M04 Q1020=
201812140430 METAR LROD 140430Z AUTO 04003KT 6000 NCD M03/M03 Q1020=
201812140500 METAR LROD 140500Z 05004KT CAVOK M03/M04 Q1020=
201812140530 METAR LROD 140530Z 07003KT CAVOK M03/M04 Q1020=
201812140600 METAR LROD 140600Z 05003KT CAVOK M04/M04 Q1020=
201812140630 METAR LROD 140630Z 00000KT CAVOK M05/M05 Q1020=
201812140700 METAR LROD 140700Z 08002KT CAVOK M04/M05 Q1020=
201812140730 METAR LROD 140730Z 14003KT CAVOK M03/M04 Q1021=
201812140800 METAR LROD 140800Z 20002KT CAVOK M01/M02 Q1021=
201812140830 METAR LROD 140830Z 05002KT CAVOK M01/M02 Q1021=
201812140900 METAR LROD 140900Z 02005KT CAVOK 00/M02 Q1021=
201812140930 METAR LROD 140930Z 04005KT 360V070 CAVOK 02/M01 Q1021=
201812141000 METAR LROD 141000Z 02005KT CAVOK 02/M01 Q1021=
201812141030 METAR LROD 141030Z 36006KT CAVOK 02/M01 Q1021=
201812141100 METAR LROD 141100Z 01006KT CAVOK 02/M01 Q1021=
201812141130 METAR LROD 141130Z 02008KT CAVOK 02/M01 Q1020=
201812141200 METAR LROD 141200Z 02009KT CAVOK 02/M00 Q1020=
201812141230 METAR LROD 141230Z 02008KT 360V060 8000 FEW004 01/M01 Q1020=
201812141300 METAR LROD 141300Z 01011KT 7000 FEW005 01/M01 Q1020=
201812141330 METAR LROD 141330Z 02010KT 7000 NSC 01/M00 Q1020=
201812141400 METAR LROD 141400Z 03008KT CAVOK 01/M01 Q1020=
201812141430 METAR LROD 141430Z 03006KT CAVOK 01/M01 Q1020=
201812141500 METAR LROD 141500Z 02007KT CAVOK 01/M01 Q1019=
201812141530 METAR LROD 141530Z 02008KT CAVOK 01/M02 Q1019=
201812141600 METAR LROD 141600Z 03007KT CAVOK 01/M02 Q1019=
201812141630 METAR LROD 141630Z 03007KT CAVOK 01/M03 Q1019=
201812141700 METAR LROD 141700Z 03008KT CAVOK 01/M03 Q1019=
201812141730 METAR LROD 141730Z 04006KT CAVOK 01/M03 Q1019=
201812141800 METAR LROD 141800Z 04005KT 010V070 CAVOK 01/M03 Q1019=
201812141830 METAR LROD 141830Z 03004KT 360V060 CAVOK 01/M03 Q1019=
201812141900 METAR LROD 141900Z 03004KT CAVOK 01/M03 Q1019=
201812141930 METAR LROD 141930Z AUTO 04003KT 9999 BKN100/// 01/M03 Q1019=
201812142000 METAR LROD 142000Z AUTO 07003KT 9999 OVC095/// 01/M03 Q1019=
201812142030 METAR LROD 142030Z AUTO 10004KT 050V120 9999 BKN095/// 01/M03
                        Q1019=
201812142100 METAR LROD 142100Z AUTO 10003KT 9999 OVC095/// 00/M02 Q1019=
201812142130 METAR LROD 142130Z AUTO 07002KT 9999 BKN090/// 00/M02 Q1019=
201812142200 METAR LROD 142200Z AUTO 00000KT 9999 BKN090/// 00/M02 Q1019=
201812142230 METAR LROD 142230Z AUTO 10003KT 9999 BKN090/// 00/M02 Q1019=
201812142300 METAR LROD 142300Z AUTO 06002KT 9999 BKN075/// OVC095///
                        00/M02 Q1019=
201812142330 METAR LROD 142330Z AUTO 04002KT 010V070 9999 BKN060/// OVC075///
                        00/M02 Q1018=
201812150000 METAR LROD 150000Z AUTO 06003KT 9999 SCT044/// OVC055///
                        01/M02 Q1018=
201812150030 METAR LROD 150030Z AUTO 08004KT 7000 -SN BKN031/// BKN040///
                        OVC046/// 01/M02 Q1018=
201812150100 METAR LROD 150100Z AUTO 08004KT 050V110 4400 -SN BKN023///
                        OVC031/// 01/M02 Q1018=
201812150130 METAR LROD 150130Z AUTO 06004KT 3500 -SN SCT020/// BKN027///
                        OVC036/// 00/M01 Q1018=
201812150200 METAR LROD 150200Z AUTO 02004KT 3200 -SN FEW013/// SCT021///
                        BKN025/// 00/M01 Q1018=
201812150230 METAR LROD 150230Z AUTO 03005KT 3500 -SN FEW015/// BKN026///
                        OVC032/// M00/M01 Q1018=
201812150300 METAR LROD 150300Z AUTO 06004KT 3600 -SN FEW006/// BKN020///
                        OVC034/// M00/M00 Q1017=
201812150330 METAR LROD 150330Z AUTO 08006KT 3600 -SN FEW005/// BKN021///
                        OVC025/// 00/00 Q1017=
201812150400 METAR LROD 150400Z AUTO 08006KT 3500 -SN SCT018/// OVC023///
                        00/00 Q1017=
201812150430 METAR LROD 150430Z AUTO 08007KT 3100 -SN OVC019/// 00/00
                        Q1018=
201812150500 METAR LROD 150500Z 09007KT 3300 -SN BR FEW004 OVC020 00/00
                        Q1018=
201812150530 METAR LROD 150530Z 08007KT 3400 -SN BR OVC013 00/00 Q1018
                        R01/590594=
201812150600 METAR LROD 150600Z 08007KT 3300 -SN BR FEW003 OVC020 00/00
                        Q1018 R01/590594=
201812150630 METAR LROD 150630Z 08006KT 2000 -SN BR FEW003 OVC025 00/00
                        Q1018 R01/590594=
201812150700 METAR LROD 150700Z 08006KT 2000 -SN BR FEW003 OVC025 00/00
                        Q1018 R01/590594=
201812150730 METAR LROD 150730Z 08006KT 2900 -SN BR FEW012 OVC023 00/00
                        Q1018 R01/590594=
201812150800 METAR LROD 150800Z 09006KT 060V120 3400 -SN BR FEW016 OVC024
                        00/00 Q1018 R01/590594=
201812150830 METAR LROD 150830Z 09006KT 3000 -SN BR BKN023 OVC027 01/01
                        Q1018 R01/590594=
201812150900 METAR LROD 150900Z 08005KT 4700 -SN BR OVC023 01/01 Q1019
                        R01/590594=
201812150930 METAR LROD 150930Z 08004KT 3400 -SN BR OVC023 01/01 Q1018
                        R01/590594=
201812151000 METAR LROD 151000Z 08003KT 2800 -SN FEW003 OVC023 01/01 Q1018
                        R01/590594=
201812151030 METAR COR LROD 151030Z 07003KT 3000 -SN BR FEW004 BKN009
                        01/01 Q1018 R01/590594=
201812151100 METAR LROD 151100Z 06004KT 3100 -SN BR FEW004 BKN009 01/01
                        Q1018 R01/590594=
201812151130 METAR LROD 151130Z 06004KT 3100 -SN BR FEW004 OVC024 01/01
                        Q1018 R01/590594=
201812151200 METAR LROD 151200Z 06003KT 2800 -SN BR FEW004 BKN009 01/01
                        Q1018 R01/590594=
201812151230 METAR LROD 151230Z 06003KT 2900 -RASN BR SCT005 OVC010 01/01
                        Q1017 R01/590594=
201812151300 METAR LROD 151300Z 06002KT 2100 -RASN BR BKN004 BKN019 01/01
                        Q1017 R01/590594=
201812151330 METAR LROD 151330Z 06002KT 2500 -RASN BR BKN004 OVC011 01/01
                        Q1017 R01/590594=
201812151400 METAR LROD 151400Z 06002KT 2700 -RASN BR BKN004 BKN008 01/01
                        Q1017 R01/590594=
201812151430 METAR LROD 151430Z 00000KT 2100 -RASN BR SCT005 OVC008 01/01
                        Q1017 R01/590594=
201812151500 METAR LROD 151500Z 32002KT 1300 R19/1600 -SN BR OVC005 00/00
                        Q1017 R01/590594=
201812151530 METAR LROD 151530Z 33003KT 1300 R19/1700 -SN BR FEW002 BKN005
                        00/00 Q1017 R01/590594=
201812151600 METAR LROD 151600Z 33002KT 1300 R19/1600N -SN BR SCT004 BKN006
                        00/00 Q1017 R01/590594=
201812151630 METAR LROD 151630Z 32002KT 0800 R19/1100 -SN FG FEW001 OVC005
                        00/00 Q1017 R01/590594=
201812151700 METAR COR LROD 151700Z 33003KT 0800 R19/1000N -SN FG FEW001
                        BKN006 00/00 Q1017 R01/590594=
201812151730 METAR LROD 151730Z 34002KT 0800 R19/1000N -SN FG SCT004 OVC010
                        00/00 Q1017 R01/590594=
201812151800 METAR LROD 151800Z 30002KT 0900 R19/1200N -SN FG OVC004 00/00
                        Q1017 R01/590594=
201812151830 METAR LROD 151830Z 26002KT 0800 R19/1000N -SN FG OVC005 00/00
                        Q1018 R01/590594=
201812151900 METAR LROD 151900Z AUTO 24004KT 1600 -SN VV002 00/00 Q1018=
201812151930 METAR LROD 151930Z AUTO 24004KT 1600 R19/2000D -SN VV003
                        00/00 Q1018=
201812152000 METAR LROD 152000Z AUTO 23005KT 2000 -SN SCT001/// BKN005///
                        OVC007/// 00/00 Q1018=
201812152030 METAR LROD 152030Z AUTO 23005KT 2300 -SN SCT001/// BKN004///
                        OVC015/// 00/00 Q1018=
201812152100 METAR LROD 152100Z AUTO 23006KT 2100 -SN BKN001/// OVC008///
                        00/00 Q1018=
201812152130 METAR LROD 152130Z AUTO 23007KT 2400 -SN BKN001/// OVC003///
                        M00/M00 Q1018=
201812152200 METAR LROD 152200Z AUTO 24005KT 2700 -SN BKN002/// OVC008///
                        M00/M00 Q1018=
201812152230 METAR LROD 152230Z AUTO 25005KT 3100 -SN SCT002/// BKN004///
                        OVC016/// M00/M00 Q1018=
201812152300 METAR LROD 152300Z AUTO 24004KT 3000 -SN BKN002/// BKN014///
                        OVC020/// M00/M00 Q1018=
201812152330 METAR LROD 152330Z AUTO 25003KT 3500 -SN SCT001/// BKN003///
                        M00/M00 Q1018=
201812160000 METAR LROD 160000Z AUTO 22002KT 3300 -SN FEW002/// BKN032///
                        OVC038/// M00/M00 Q1018=
201812160030 METAR LROD 160030Z AUTO 20001KT 2700 -SN FEW004/// SCT018///
                        BKN024/// M00/M00 Q1018=
201812160100 METAR LROD 160100Z AUTO 18002KT 3600 -SN FEW002/// SCT004///
                        BKN022/// M00/M00 Q1018=
201812160130 METAR LROD 160130Z AUTO 17001KT 3400 -SN BKN065/// M01/M01
                        Q1018=
201812160200 METAR LROD 160200Z AUTO 18001KT 2600 -SN VV012 M01/M01 Q1018=
201812160230 METAR LROD 160230Z AUTO 19001KT 3100 -RASN FEW001/// BKN013///
                        BKN027/// M01/M01 Q1018=
201812160300 METAR LROD 160300Z AUTO 19002KT 2400 -SN FEW004/// SCT007///
                        BKN013/// M00/M00 Q1018=
201812160330 METAR LROD 160330Z AUTO 26002KT 2000 -SN SCT002/// BKN004///
                        M00/M00 Q1017=
201812160400 METAR LROD 160400Z AUTO 29002KT 2700 -SN FEW002/// SCT004///
                        BKN010/// M00/M00 Q1017=
201812160430 METAR LROD 160430Z AUTO 00000KT 2300 -SN SCT001/// BKN003///
                        BKN010/// M01/M01 Q1017=
201812160500 METAR LROD 160500Z 00000KT 1900 -SN BR BKN002 BKN016 M00/M00
                        Q1017 R01/590594=
201812160530 METAR LROD 160530Z 00000KT 2100 -SN BR FEW002 SCT004 BKN015
                        M00/M00 Q1018 R01/590594=
201812160600 METAR LROD 160600Z 00000KT 1900 -SN BR VV009 M00/M00 Q1018
                        R01/590594=
201812160630 METAR LROD 160630Z 00000KT 1600 -SN BR OVC013 M00/M00 Q1018
                        R01/590594=
201812160700 METAR LROD 160700Z 18002KT 1800 -SN BR OVC014 M00/M00 Q1018
                        R01/590594=
201812160730 METAR LROD 160730Z 19002KT 2000 -SN BR OVC022 M00/M00 Q1019
                        R01/590594=
201812160800 METAR LROD 160800Z 19002KT 2200 -SNRA BR OVC014 00/00 Q1019
                        R01/590594=
201812160830 METAR LROD 160830Z 21002KT 2400 -SNRA BR SCT002 BKN022 00/M00
                        Q1019 R01/590594=
201812160900 METAR LROD 160900Z 19003KT 3000 -SNRA BR BKN022 00/00 Q1019
                        R01/590594=
201812160930 METAR LROD 160930Z 00000KT 2400 -SNRA BR SCT018 BKN023 01/01
                        Q1019 R01/64//95=
201812161000 METAR LROD 161000Z 23001KT 4000 -SNRA BR FEW003 BKN010 OVC015
                        01/01 Q1019 R01/64//95=
201812161030 METAR LROD 161030Z 22003KT 5000 -SNRA BR BKN010 OVC019 01/01
                        Q1019 R01/29//95=
201812161100 METAR LROD 161100Z 22003KT 5000 -SNRA BR BKN010 OVC019 01/01
                        Q1019 R01/29//95=
201812161130 METAR LROD 161130Z 25003KT 4000 -SNRA BR SCT003 OVC010 01/01
                        Q1019 R01/29//95=
201812161200 METAR LROD 161200Z 24003KT 2200 -RASN BR BKN003 BKN012 01/01
                        Q1019 R01/29//95=
201812161230 METAR LROD 161230Z 23001KT 1200 R19/1400N -SNRA BR BKN002
                        BKN009 01/00 Q1019 R01/29//95=
201812161300 METAR LROD 161300Z 24003KT 1100 R19/1400N -SNRA BR SCT001
                        BKN014 00/00 Q1019 R01/29//95=
201812161330 METAR LROD 161330Z 00000KT 1600 -RASN BR BKN001 BKN018 01/01
                        Q1019 R01/29//95=
201812161400 METAR LROD 161400Z 00000KT 1700 -RASN BR SCT002 BKN035 01/00
                        Q1020 R01/29//95=
201812161430 METAR LROD 161430Z 23002KT 1900 -RASN BR SCT003 BKN025 BKN029
                        00/M00 Q1020 R01/29//95=
201812161500 METAR LROD 161500Z 23002KT 2200 -SN BR FEW005 BKN036 M00/M00
                        Q1020 R01/29//95=
201812161530 METAR LROD 161530Z 23002KT 1700 -SN BR FEW005 OVC038 M00/M00
                        Q1020 R01/29//95=
201812161600 METAR LROD 161600Z 18001KT 2000 BR OVC040 M00/M00 Q1020 R01/29//95=
201812161630 METAR LROD 161630Z 25005KT 3400 BR SCT005 BKN040 M00/M00
                        Q1021 R01/29//95=
201812161700 METAR LROD 161700Z 21006KT 3300 BR BKN003 BKN005 M00/M00
                        Q1021 R01/29//95=
201812161730 METAR LROD 161730Z 20004KT 3500 -SN BR BKN003 M00/M00 Q1021
                        R01/29//95=
201812161800 METAR LROD 161800Z 18004KT 3600 BR BKN004 BKN010 M00/M00
                        Q1021 R01/29//95=
201812161830 METAR LROD 161830Z 18004KT 3200 BR OVC003 M00/M00 Q1021 R01/29//95=
201812161900 METAR LROD 161900Z 19004KT 2600 BR BKN002 M00/M00 Q1021 R01/29//95=
201812161930 METAR LROD 161930Z AUTO 18003KT 1700 FZFG VV002 M00/M00 Q1021=
201812162000 METAR LROD 162000Z AUTO 17004KT 0700 R19/0700V1000D FZFG
                        VV002 M01/M01 Q1021=
201812162030 METAR LROD 162030Z AUTO 16003KT 2500 BKN001/// OVC003///
                        M01/M01 Q1021=
201812162100 METAR LROD 162100Z AUTO 17002KT 2800 BKN003/// BKN025///
                        M01/M01 Q1021=
201812162130 METAR LROD 162130Z AUTO 23002KT 170V260 2800 BR BKN003///
                        OVC065/// M01/M01 Q1021=
201812162200 METAR LROD 162200Z AUTO 23004KT 1400 R19/1400VP2000D FZFG
                        BKN001/// OVC003/// M01/M01 Q1021=
201812162230 METAR LROD 162230Z AUTO 23004KT 1000 R19/1300U FZFG OVC001///
                        M01/M01 Q1021=
201812162300 METAR LROD 162300Z AUTO 23005KT 0650 R19/0800N FZFG VV001
                        M01/M01 Q1021=
201812162330 METAR LROD 162330Z AUTO 25003KT 2600 BKN001/// OVC003///
                        M01/M01 Q1021=
201812170000 METAR LROD 170000Z AUTO 27002KT 220V320 2700 OVC002/// M01/M01
                        Q1021=
201812170030 METAR LROD 170030Z AUTO 24003KT 1400 R19/1400VP2000D FZFG
                        OVC003/// M01/M01 Q1021=
201812170100 METAR LROD 170100Z AUTO VRB01KT 3200 SCT002/// BKN005///
                        M01/M01 Q1021=
201812170130 METAR LROD 170130Z AUTO 00000KT 3000 BKN004/// OVC006///
                        M01/M01 Q1021=
201812170200 METAR LROD 170200Z AUTO 25003KT 2500 BR BKN003/// OVC005///
                        M01/M01 Q1021=
201812170230 METAR LROD 170230Z AUTO 28003KT 2200 R19/1500VP2000U OVC003///
                        M01/M01 Q1021=
201812170300 METAR LROD 170300Z AUTO 31003KT 4300 OVC003/// M01/M01 Q1020=
201812170330 METAR LROD 170330Z AUTO 30003KT 4500 BR OVC002/// M01/M01
                        Q1020=
201812170400 METAR LROD 170400Z AUTO 31002KT 2900 BR BKN002/// OVC004///
                        M01/M01 Q1021=
201812170430 METAR LROD 170430Z AUTO 32002KT 3100 BR BKN002/// OVC004///
                        M01/M01 Q1021=
201812170500 METAR LROD 170500Z 30001KT 3000 BR BKN002 M01/M01 Q1021 R01/29//95=
201812170530 METAR LROD 170530Z 34003KT 1600 BR SCT001 BKN003 M01/M01
                        Q1021 R01/19//95=
201812170600 METAR LROD 170600Z 31003KT 0700 R19/0900D -SN FZFG BKN001
                        OVC005 M01/M01 Q1021 R01/19//95=
201812170630 METAR LROD 170630Z 32004KT 0600 R19/0800D FZFG BKN001 OVC003
                        M01/M01 Q1021 R01/19//95=
201812170700 METAR LROD 170700Z 35004KT 0500 R19/0650N FZFG VV001 M01/M01
                        Q1021 R01/19//95=
201812170730 METAR LROD 170730Z 32006KT 0350 R19/0400N FZFG VV002 M01/M01
                        Q1021 R01/19//95=
201812170800 METAR LROD 170800Z 00000KT 0300 R19/0350N FZFG VV001 M01/M01
                        Q1021 R01/19//95=
201812170830 METAR LROD 170830Z 34006KT 0700 R19/1000U FZFG BKN001 M01/M01
                        Q1022 R01/19//95=
201812170900 METAR LROD 170900Z 35005KT 2800 BR SCT004 OVC006 M01/M01
                        Q1021 R01/19//95=
201812170930 METAR LROD 170930Z 01006KT 7000 OVC006 M01/M01 Q1021 R01/19//95=
201812171000 METAR LROD 171000Z 01004KT 340V040 8000 BKN006 SCT013 M01/M01
                        Q1021 R01/19//95=
201812171030 METAR LROD 171030Z 32006KT 6000 OVC007 M01/M01 Q1021 R01/19//95=
201812171100 METAR LROD 171100Z 34006KT 3200 BR OVC004 M00/M01 Q1021 R01/19//95=
201812171130 METAR LROD 171130Z 35007KT 2000 BR OVC002 M01/M01 Q1021 R01/CLRD//=
201812171200 METAR LROD 171200Z 35006KT 0350 R19/0450D FZFG VV001 M01/M01
                        Q1021=
201812171230 METAR LROD 171230Z 35006KT 0250 R19/0300N FZFG VV001 M00/M00
                        Q1021=
201812171300 METAR LROD 171300Z 33008KT 0300 R19/0375N FZFG VV002 M00/M00
                        Q1021=
201812171330 METAR LROD 171330Z 34007KT 0350 R19/0500N FZFG VV002 M00/M00
                        Q1022=
201812171400 METAR LROD 171400Z 35007KT 0350 R19/0500N FZFG VV002 M01/M01
                        Q1022=
201812171430 METAR LROD 171430Z 00000KT 1500 BR BKN001 OVC005 M00/M00
                        Q1022=
201812171500 METAR LROD 171500Z 32006KT 3000 BR OVC003 M01/M01 Q1022=
201812171530 METAR LROD 171530Z 33007KT 3500 BR OVC004 M01/M01 Q1023=
201812171600 METAR LROD 171600Z 33007KT 5000 BR OVC005 M01/M01 Q1023=
201812171630 METAR LROD 171630Z 33007KT 5000 BR OVC005 M01/M01 Q1023=
201812171700 METAR LROD 171700Z 33006KT 4400 BR OVC004 M01/M01 Q1023=
201812171730 METAR LROD 171730Z 33007KT 4300 BR OVC003 M01/M01 Q1024=
201812171800 METAR LROD 171800Z 33007KT 4400 BR OVC004 M01/M01 Q1024=
201812171830 METAR LROD 171830Z 33005KT 4400 BR OVC004 M01/M01 Q1024=
201812171900 METAR LROD 171900Z 33008KT 4500 BR BKN004 M01/M02 Q1024=
201812171930 METAR LROD 171930Z AUTO 33007KT 3400 BR OVC005/// M01/M02
                        Q1025=
201812172000 METAR LROD 172000Z AUTO 34006KT 3800 BR BKN005/// OVC008///
                        M01/M02 Q1025=
201812172030 METAR LROD 172030Z AUTO 34009KT 5000 BR BKN005/// OVC007///
                        M01/M02 Q1025=
201812172100 METAR LROD 172100Z AUTO 34005KT 6000 SCT006/// OVC008///
                        M01/M02 Q1025=
201812172130 METAR LROD 172130Z AUTO 24002KT 210V310 6000 FEW007/// SCT020///
                        BKN033/// M02/M02 Q1025=
201812172200 METAR LROD 172200Z AUTO 31004KT 5000 BR FEW007/// SCT130///
                        BKN150/// M02/M03 Q1025=
201812172230 METAR LROD 172230Z AUTO 33004KT 6000 BKN007/// M02/M03 Q1026=
201812172300 METAR LROD 172300Z AUTO 32004KT 5000 BR SCT007/// BKN130///
                        M03/M03 Q1026=
201812172330 METAR LROD 172330Z AUTO 31005KT 4500 BR BKN120/// BKN130///
                        M04/M04 Q1026=
201812180000 METAR LROD 180000Z AUTO 29004KT 3700 BR FEW120/// SCT130///
                        BKN160/// M05/M05 Q1026=
201812180030 METAR LROD 180030Z AUTO 26002KT 3400 BR FEW120/// SCT130///
                        BKN150/// M04/M04 Q1026=
201812180100 METAR LROD 180100Z AUTO 25004KT 2800 BR BKN120/// BKN140///
                        M05/M05 Q1026=
201812180130 METAR LROD 180130Z AUTO 27003KT 3000 BR BKN120/// BKN130///
                        M05/M05 Q1026=
201812180200 METAR LROD 180200Z AUTO 27005KT 2800 BR SCT001/// M06/M06
                        Q1026=
201812180230 METAR LROD 180230Z AUTO 27005KT 1800 FZFG VV002 M07/M07 Q1026=
201812180300 METAR LROD 180300Z AUTO 26003KT 0300 R19/0300V0400N BCFG
                        BKN002/// BKN004/// M07/M07 Q1027=
201812180330 METAR LROD 180330Z AUTO 25003KT 0250 R19/0300N FZFG VV001
                        M07/M07 Q1027=
201812180400 METAR LROD 180400Z AUTO 22002KT 0400 R19/0400V0650U FZFG
                        VV001 M07/M08 Q1027=
201812180430 METAR LROD 180430Z AUTO 19003KT 2400 R19/1000VP2000D FZFG
                        BKN003/// M07/M08 Q1027=
201812180500 METAR LROD 180500Z AUTO 24003KT 1700 R19/1400VP2000U FZFG
                        SCT001/// BKN003/// M08/M08 Q1027=
201812180530 METAR LROD 180530Z 26003KT 0700 R19/01000 FZFG BKN002 M08/M09
                        Q1027=
201812180600 METAR LROD 180600Z 24002KT 0350 R19/0450 FZFG FEW002 BKN004
                        M09/M10 Q1028=
201812180630 METAR LROD 180630Z VRB01KT 0250 R19/0350 FZFG SCT002 BKN004
                        M10/M10 Q1028=
201812180700 METAR LROD 180700Z 00000KT 0250 R19/0250N FZFG SCT002 BKN004
                        M10/M11 Q1028=
201812180730 METAR LROD 180730Z 00000KT 0200 R19/0250N FZFG BKN003 M10/M11
                        Q1029=
201812180800 METAR LROD 180800Z 00000KT 0900 R19/1200 FZFG FEW001 BKN003
                        BKN005 M10/M10 Q1029=
201812180830 METAR LROD 180830Z 12002KT 090V160 3000 BR FEW005 M08/M09
                        Q1029=
201812180900 METAR LROD 180900Z 00000KT 3900 BR FEW006 M06/M06 Q1029=
201812180930 METAR LROD 180930Z 18002KT 140V210 3600 BR FEW006 M05/M06
                        Q1029=
201812181000 METAR LROD 181000Z 24003KT 3600 BR NSC M05/M06 Q1029=
201812181030 METAR LROD 181030Z 24003KT 3300 BR NSC M05/M06 Q1029=
201812181100 METAR COR LROD 181100Z 24004KT 2500 BR NSC M06/M08 Q1028=
201812181130 METAR COR LROD 181130Z 00000KT 2800 BR NSC M06/M07 Q1028=
201812181200 METAR LROD 181200Z 24003KT 2000 BR FEW004 M06/M07 Q1028=
201812181230 METAR LROD 181230Z 24004KT 2300 BR BKN005 M06/M07 Q1028=
201812181300 METAR LROD 181300Z 24003KT 1200 R19/1500 BR BKN002 M06/M07
                        Q1028=
201812181330 METAR LROD 181330Z 21006KT 0300 R19/0350 FZFG VV001 M07/M07
                        Q1028=
201812181400 METAR LROD 181400Z 21007KT 0250 R19/0300 FZFG VV001 M07/M07
                        Q1028=
201812181430 METAR LROD 181430Z 21005KT 0250 R19/0300 FZFG VV001 M07/M07
                        Q1029=
201812181500 METAR LROD 181500Z 22005KT 0800 R19/0900 FZFG VV002 M07/M07
                        Q1029=
201812181530 METAR LROD 181530Z 21005KT 2500 BR BKN002 M06/M07 Q1029=
201812181600 METAR LROD 181600Z 24005KT 3300 BR BKN002 M06/M07 Q1029=
201812181630 METAR LROD 181630Z 22004KT 4400 BR BKN002 M06/M07 Q1029=
201812181700 METAR LROD 181700Z 19004KT 4700 BR FEW003 OVC040 M06/M07
                        Q1029=
201812181730 METAR LROD 181730Z 22002KT 4900 BR FEW003 BKN040 M06/M06
                        Q1029=
201812181800 METAR LROD 181800Z 24004KT 5000 BR OVC040 M06/M06 Q1029=
201812181830 METAR LROD 181830Z 24004KT 5000 BR FEW013 BKN040 M06/M06
                        Q1029=
201812181900 METAR LROD 181900Z 24006KT 3500 BR SCT003 OVC040 M06/M07
                        Q1029=
201812181930 METAR LROD 181930Z AUTO 23003KT 3500 BR SCT002/// BKN042///
                        M06/M06 Q1029=
201812182000 METAR LROD 182000Z AUTO 00000KT 3700 BR FEW002/// BKN043///
                        M06/M06 Q1029=
201812182030 METAR LROD 182030Z AUTO 28003KT 3700 BR FEW003/// OVC044///
                        M06/M06 Q1029=
201812182100 METAR LROD 182100Z AUTO 25004KT 3500 BR FEW003/// BKN044///
                        M06/M06 Q1029=
201812182130 METAR LROD 182130Z AUTO 24003KT 4200 BR FEW003/// SCT011///
                        BKN043/// M06/M07 Q1029=
201812182200 METAR LROD 182200Z AUTO 24002KT 4700 BR FEW010/// OVC042///
                        M06/M07 Q1029=
201812182230 METAR LROD 182230Z AUTO 24003KT 5000 BR SCT011/// OVC042///
                        M06/M06 Q1029=
201812182300 METAR LROD 182300Z AUTO 25003KT 210V270 5000 BR SCT010///
                        OVC042/// M06/M06 Q1029=
201812182330 METAR LROD 182330Z AUTO 25003KT 5000 BR FEW010/// OVC041///
                        M06/M07 Q1029=
201812190000 METAR LROD 190000Z AUTO 00000KT 5000 BR SCT009/// OVC040///
                        M06/M07 Q1029=
201812190030 METAR LROD 190030Z AUTO 28002KT 5000 BR SCT010/// OVC040///
                        M06/M07 Q1029=
201812190100 METAR LROD 190100Z AUTO 28003KT 5000 BR SCT009/// OVC040///
                        M06/M07 Q1029=
201812190130 METAR LROD 190130Z AUTO 26002KT 210V280 5000 BR SCT010///
                        OVC038/// M06/M06 Q1029=
201812190200 METAR LROD 190200Z AUTO 26003KT 5000 BR BKN009/// OVC037///
                        M06/M06 Q1029=
201812190230 METAR LROD 190230Z AUTO 00000KT 5000 BR SCT007/// OVC036///
                        M06/M06 Q1029=
201812190300 METAR LROD 190300Z AUTO 00000KT 5000 BR OVC035/// M06/M06
                        Q1029=
201812190330 METAR LROD 190330Z AUTO 31002KT 5000 BR OVC034/// M06/M06
                        Q1029=
201812190400 METAR LROD 190400Z AUTO 31002KT 5000 BR OVC034/// M06/M06
                        Q1029=
201812190430 METAR LROD 190430Z AUTO 31003KT 5000 BR OVC033/// M05/M06
                        Q1029=
201812190500 METAR LROD 190500Z 30002KT 5000 BR BKN033 M06/M06 Q1029=
201812190530 METAR LROD 190530Z 30003KT 5000 BR OVC031 M06/M06 Q1029=
201812190600 METAR LROD 190600Z 29002KT 5000 BR BKN030 M06/M06 Q1029=
201812190630 METAR LROD 190630Z 00000KT 3500 BR FEW004 BKN031 M05/M06
                        Q1029=
201812190700 METAR LROD 190700Z 00000KT 3300 BR BKN030 M05/M06 Q1029=
201812190730 METAR LROD 190730Z 32002KT 2200 BR BKN029 M07/M07 Q1030=
201812190800 METAR COR LROD 190800Z 31003KT 0600 R19/0600 FZFG SCT030
                        M08/M08 Q1030=
201812190830 METAR COR LROD 190830Z 33004KT 0800 R19/0800 FZFG SCT001
                        BKN030 M07/M07 Q1030=
201812190900 METAR LROD 190900Z 32004KT 1200 R19/1400 BR BKN001 BKN030
                        M07/M07 Q1030=
201812190930 METAR LROD 190930Z 32005KT 0800 R19/1200 FZFG VV002 M07/M07
                        Q1030=
201812191000 METAR LROD 191000Z 34005KT 0900 R19/1200 FZFG OVC002 M06/M07
                        Q1030=
201812191030 METAR LROD 191030Z 33004KT 0700 R19/1000U FZFG OVC001 M06/M06
                        Q1029=
201812191100 METAR LROD 191100Z 33003KT 0700 R19/1300 FZFG OVC002 M05/M06
                        Q1029=
201812191130 METAR LROD 191130Z 32002KT 290V360 0900 R19/1400 FZFG BKN003
                        M05/M05 Q1029=
201812191200 METAR LROD 191200Z 32002KT 1700 BR BKN004 BKN031 M04/M05
                        Q1029=
201812191230 METAR LROD 191230Z 32002KT 1700 BR BKN004 BKN031 M04/M05
                        Q1029=
201812191300 METAR LROD 191300Z 27002KT 1600 BR SCT005 BKN030 M04/M04
                        Q1029=
201812191330 METAR LROD 191330Z 00000KT 1900 BR SCT005 OVC030 M04/M04
                        Q1029=
201812191400 METAR LROD 191400Z 29004KT 1800 BR BKN029 M04/M05 Q1029=
201812191430 METAR LROD 191430Z 29003KT 1800 BR FEW003 OVC029 M04/M04
                        Q1029=
201812191500 METAR LROD 191500Z 32003KT 2900 BR SCT003 BKN029 M04/M04
                        Q1029=
201812191530 METAR LROD 191530Z 00000KT 2900 BR SCT002 OVC029 M04/M04
                        Q1029=
201812191600 METAR LROD 191600Z VRB01KT 2900 BR FEW005 BKN029 M04/M04
                        Q1028=
201812191630 METAR LROD 191630Z 10004KT 070V130 3200 BR SCT004 BKN029
                        M03/M04 Q1028=
201812191700 METAR LROD 191700Z 09004KT 060V120 3700 BR SCT004 BKN030
                        M03/M04 Q1028=
201812191730 METAR LROD 191730Z 09002KT 3300 BR FEW004 BKN030 M03/M04
                        Q1028=
201812191800 METAR LROD 191800Z 07003KT 030V090 3000 BR OVC031 M03/M03
                        Q1028=
201812191830 METAR LROD 191830Z 05003KT 2800 BR BKN030 M03/M03 Q1028=
201812191900 METAR LROD 191900Z 07001KT 2600 BR BKN031 M03/M03 Q1027=
201812191930 METAR LROD 191930Z AUTO 00000KT 2100 BR BKN031/// M04/M04
                        Q1027=
201812192000 METAR LROD 192000Z AUTO 09003KT 2100 FEW031/// M04/M04 Q1027=
201812192030 METAR LROD 192030Z AUTO 06001KT 0300 R19/0300V0450N BCFG
                        SCT004/// M05/M05 Q1027=
201812192100 METAR LROD 192100Z AUTO 30003KT 290V070 0200 R19/0225V0300N
                        BCFG NCD M06/M06 Q1027=
201812192130 METAR LROD 192130Z AUTO 34004KT 0350 R19/0400D FZFG SCT003///
                        M06/M06 Q1027=
201812192200 METAR LROD 192200Z AUTO 00000KT 0200 R19/0250N FZFG BKN002///
                        BKN004/// M06/M06 Q1027=
201812192230 METAR LROD 192230Z AUTO 01002KT 0500 R19/0650N FZFG FEW001///
                        SCT004/// BKN030/// M05/M05 Q1026=
201812192300 METAR LROD 192300Z AUTO 00000KT 2400 OVC030/// M04/M05 Q1026=
201812192330 METAR LROD 192330Z AUTO VRB01KT 2800 BKN030/// M04/M04 Q1026=
201812200000 METAR LROD 200000Z AUTO 30002KT 2100 OVC030/// M04/M04 Q1026=
201812200030 METAR LROD 200030Z AUTO 35004KT 2500 SCT002/// BKN030///
                        M04/M05 Q1026=
201812200100 METAR LROD 200100Z AUTO 00000KT 2800 BR FEW005/// OVC030///
                        M04/M04 Q1026=
201812200130 METAR LROD 200130Z AUTO 05003KT 030V100 2800 BR OVC029///
                        M04/M04 Q1026=
201812200200 METAR LROD 200200Z AUTO VRB01KT 3100 BR SCT028/// M04/M05
                        Q1025=
201812200230 METAR LROD 200230Z AUTO 00000KT 2800 BR NCD M05/M05 Q1025=
201812200300 METAR LROD 200300Z AUTO 28003KT 2300 BR NCD M06/M07 Q1025=
201812200330 METAR LROD 200330Z AUTO 31004KT 3300 BR NCD M07/M07 Q1025=
201812200400 METAR LROD 200400Z AUTO 33003KT 4200 BR NCD M07/M08 Q1025=
201812200430 METAR LROD 200430Z AUTO 34004KT 4200 BR NCD M07/M07 Q1025=
201812200500 METAR LROD 200500Z 06002KT 3900 BR NSC M07/M07 Q1025=
201812200530 METAR LROD 200530Z 00000KT 4500 BR NSC M08/M08 Q1025=
201812200600 METAR LROD 200600Z 11001KT 3800 BR NSC M07/M07 Q1025=
201812200630 METAR LROD 200630Z 11006KT 2100 BR NSC M06/M06 Q1024=
201812200700 METAR LROD 200700Z 08004KT 2600 BR NSC M05/M06 Q1024=
201812200730 METAR LROD 200730Z 05002KT 2800 BR NSC M04/M05 Q1025=
201812200800 METAR LROD 200800Z 29004KT 2500 BR NSC M05/M06 Q1025=
201812200830 METAR LROD 200830Z 31004KT 290V360 2800 BR NSC M05/M06 Q1026=
201812200900 METAR LROD 200900Z 36001KT 2800 BR NSC M04/M05 Q1026=
201812200930 METAR LROD 200930Z 29002KT 2500 BR NSC M04/M05 Q1025=
201812201000 METAR LROD 201000Z 28002KT 2700 BR NSC M04/M05 Q1026=
201812201030 METAR LROD 201030Z VRB01KT 2800 BR NSC M03/M04 Q1025=
201812201100 METAR LROD 201100Z 11003KT 2900 BR NSC M02/M04 Q1025=
201812201130 METAR LROD 201130Z 10005KT 080V140 2800 BR NSC M02/M03 Q1024=
201812201200 METAR LROD 201200Z 09002KT 2900 BR NSC M01/M03 Q1025=
201812201230 METAR LROD 201230Z 09003KT 2700 BR NSC M01/M03 Q1024=
201812201300 METAR LROD 201300Z 12002KT 3700 BR NSC M01/M02 Q1024=
201812201330 METAR LROD 201330Z 12004KT 3900 BR NSC M01/M02 Q1024=
201812201400 METAR LROD 201400Z 12003KT 3800 BR NSC M01/M02 Q1025=
201812201430 METAR LROD 201430Z 14003KT 3300 BR NSC M02/M03 Q1025=
201812201500 METAR LROD 201500Z 21002KT 3200 BR NSC M02/M03 Q1025=
201812201530 METAR LROD 201530Z 13004KT 3200 BR NSC M02/M03 Q1025=
201812201600 METAR COR LROD 201600Z 14003KT 3500 BR NSC M02/M03 Q1025=
201812201630 METAR LROD 201630Z 13003KT 4500 BR NSC M02/M03 Q1025=
201812201700 METAR LROD 201700Z VRB01KT 4300 BR FEW045 M03/M03 Q1025=
201812201730 METAR LROD 201730Z 21006KT 6000 SCT038 M01/M01 Q1025=
201812201800 METAR LROD 201800Z 22007KT 9999 -SN OVC035 M00/M01 Q1025=
201812201830 METAR LROD 201830Z 22006KT 9999 OVC030 M00/M01 Q1025=
201812201900 METAR LROD 201900Z 20005KT 160V230 7000 -SN OVC030 M00/M01
                        Q1026=
201812201930 METAR LROD 201930Z AUTO 25005KT 220V280 7000 BKN028/// OVC032///
                        M00/M01 Q1026 RESN=
201812202000 METAR LROD 202000Z AUTO 19003KT 6000 OVC026/// M01/M01 Q1026=
201812202030 METAR LROD 202030Z AUTO 22003KT 5000 BR BKN029/// BKN038///
                        OVC048/// M01/M01 Q1026=
201812202100 METAR LROD 202100Z AUTO 17004KT 140V200 6000 SCT029/// OVC033///
                        M00/M01 Q1026=
201812202130 METAR LROD 202130Z NIL=
201812202200 METAR LROD 202200Z AUTO 18004KT 8000 FEW026/// SCT032///
                        BKN044/// 00/M01 Q1026=
201812202230 METAR LROD 202230Z AUTO 18005KT 7000 FEW025/// BKN047///
                        OVC065/// M00/M01 Q1026=
201812202300 METAR LROD 202300Z AUTO 15003KT 9999 FEW025/// SCT047///
                        OVC065/// 00/M01 Q1026=
201812202330 METAR LROD 202330Z AUTO 10003KT 8000 SCT025/// OVC045///
                        00/M01 Q1026=
201812210000 METAR LROD 210000Z AUTO 11003KT 070V130 6000 BKN044/// OVC060///
                        00/M01 Q1026=
201812210030 METAR LROD 210030Z AUTO 09002KT 6000 FEW046/// OVC060///
                        00/M01 Q1026=
201812210100 METAR LROD 210100Z AUTO 11002KT 080V170 5000 BR SCT042///
                        OVC048/// 00/M01 Q1026=
201812210130 METAR LROD 210130Z AUTO 12004KT 5000 BKN044/// BKN055///
                        00/M00 Q1026=
201812210200 METAR LROD 210200Z AUTO 08003KT 5000 -FZDZ FEW024/// BKN045///
                        OVC055/// 00/M00 Q1026=
201812210230 METAR LROD 210230Z AUTO 09004KT 5000 FEW019/// BKN023///
                        BKN070/// 00/M01 Q1026=
201812210300 METAR LROD 210300Z AUTO 11004KT 5000 FEW018/// SCT021///
                        OVC050/// 00/M01 Q1026=
201812210330 METAR LROD 210330Z AUTO 13005KT 5000 -FZDZ SCT019/// BKN034///
                        00/M00 Q1026=
201812210400 METAR LROD 210400Z AUTO 09003KT 5000 BKN019/// 00/M00 Q1026
                        REFZRA=
201812210430 METAR LROD 210430Z AUTO 13004KT 5000 BR BKN018/// 00/M00
                        Q1026=
201812210500 METAR COR LROD 210500Z 11004KT 5000 BR BKN019 OVC030 00/M00
                        Q1026 R01/19//95=
201812210530 METAR LROD 210530Z 11003KT 070V140 5000 BR BKN020 BKN030
                        00/M00 Q1026 R01/19//95=
201812210600 METAR LROD 210600Z 09004KT 5000 BR BKN020 01/00 Q1026 R01/19//95=
201812210630 METAR LROD 210630Z 12005KT 4100 BR SCT019 BKN042 01/M00 Q1026
                        R01/19//95=
201812210700 METAR LROD 210700Z 12003KT 5000 BR SCT034 OVC040 01/00 Q1026
                        R01/19//95=
201812210730 METAR LROD 210730Z 09003KT 4400 BR FEW021 BKN037 01/00 Q1026
                        R01/19//95=
201812210800 METAR LROD 210800Z 11003KT 5000 BR SCT031 OVC036 01/00 Q1026
                        R01/19//95=
201812210830 METAR LROD 210830Z 13004KT 2900 BR OVC035 01/00 Q1026 R01/19//95=
201812210900 METAR LROD 210900Z 13004KT 2900 BR OVC035 01/00 Q1026 R01/19//95=
201812210930 METAR LROD 210930Z 13004KT 2900 BR OVC035 01/00 Q1026 R01/19//95=
201812211000 METAR LROD 211000Z 13004KT 2900 BR OVC035 01/00 Q1026 R01/19//95=
201812211030 METAR COR LROD 211030Z 12005KT 9999 BKN036 03/01 Q1024=
201812211100 METAR LROD 211100Z 11005KT 9999 BKN038 03/01 Q1024 R01/29//95=
201812211130 METAR COR LROD 211130Z 28006KT 250V310 9999 BKN033 03/01
                        Q1024 R01/29//95=
201812211200 METAR LROD 211200Z VRB01KT 9999 OVC034 03/01 Q1024 R01/29//95=
201812211230 METAR LROD 211230Z 18003KT 130V210 9999 OVC037 04/01 Q1023
                        R01/29//95=
201812211300 METAR LROD 211300Z 17002KT 120V230 9999 OVC039 05/01 Q1024
                        R01/29//95=
201812211330 METAR LROD 211330Z 18003KT 140V210 9999 OVC039 04/01 Q1023
                        R01/29//95=
201812211400 METAR LROD 211400Z 18005KT 9999 OVC038 03/00 Q1023 R01/29//95=
201812211430 METAR LROD 211430Z 21006KT 9999 OVC042 02/00 Q1023 R01/29//95=
201812211500 METAR LROD 211500Z 20003KT 9999 BKN042 02/00 Q1023 R01/CLRD//=
201812211530 METAR LROD 211530Z 20004KT 9999 OVC042 02/00 Q1023=
201812211600 METAR LROD 211600Z 19005KT 9999 BKN039 02/00 Q1022=
201812211630 METAR LROD 211630Z 17004KT 9999 OVC033 02/01 Q1022=
201812211700 METAR LROD 211700Z 15007KT 9999 BKN029 03/00 Q1021=
201812211730 METAR LROD 211730Z 16006KT 9999 BKN028 03/00 Q1021=
201812211800 METAR COR LROD 211800Z 18007KT 9999 BKN035 03/00 Q1021=
201812211830 METAR COR LROD 211830Z 18007KT 9999 BKN040 03/00 Q1021=
201812211900 METAR LROD 211900Z AUTO 19007KT 9999 FEW017/// SCT055///
                        BKN130/// 03/00 Q1020=
201812211930 METAR LROD 211930Z AUTO 18009KT 9999 FEW017/// BKN049///
                        BKN130/// 04/M00 Q1020=
201812212000 METAR LROD 212000Z AUTO 20010KT 9999 FEW050/// BKN110///
                        BKN130/// 03/M00 Q1019=
201812212030 METAR LROD 212030Z AUTO 20010KT 9999 FEW017/// BKN110///
                        03/M00 Q1019=
201812212100 METAR LROD 212100Z AUTO 19009KT 9999 FEW037/// SCT050///
                        BKN100/// 03/M00 Q1019=
201812212130 METAR LROD 212130Z AUTO 19012KT 9999 BKN100/// OVC110///
                        04/M00 Q1019=
201812212200 METAR LROD 212200Z AUTO 19013KT 9999 BKN100/// 04/00 Q1018=
201812212230 METAR LROD 212230Z AUTO 18012KT 9999 OVC100/// 05/00 Q1018=
201812212300 METAR LROD 212300Z AUTO 19013KT 9999 BKN100/// BKN140///
                        05/01 Q1017=
201812212330 METAR LROD 212330Z AUTO 18014KT 9999 BKN090/// OVC130///
                        05/01 Q1017=
201812220000 METAR LROD 220000Z AUTO 19013KT 9999 FEW055/// BKN085///
                        04/01 Q1017=
201812220030 METAR LROD 220030Z AUTO 19016KT 9999 BKN070/// BKN085///
                        05/02 Q1017=
201812220100 METAR LROD 220100Z AUTO 20015KT 9999 -SHRA FEW044/// BKN060///
                        04/02 Q1017=
201812220130 METAR LROD 220130Z AUTO 21016KT 9999 -SHRA FEW043/// OVC050///
                        04/02 Q1017=
201812220200 METAR LROD 220200Z AUTO 20017KT 8000 -RA BKN044/// 04/02
                        Q1016=
201812220230 METAR LROD 220230Z AUTO 20016KT 9999 -RA FEW023/// BKN042///
                        04/02 Q1016=
201812220300 METAR LROD 220300Z AUTO 20015KT 9999 -SHRA SCT035/// BKN050///
                        03/02 Q1016=
201812220330 METAR LROD 220330Z AUTO 19015KT 9999 -SHRA SCT035/// BKN049///
                        04/02 Q1016=
201812220400 METAR LROD 220400Z AUTO 19017KT 9999 SCT050/// OVC085///
                        04/02 Q1016=
201812220430 METAR LROD 220430Z AUTO 19017KT 9999 BKN060/// OVC090///
                        04/02 Q1016=
201812220500 METAR LROD 220500Z 20019KT CAVOK 05/02 Q1015=
201812220530 METAR LROD 220530Z 19018KT CAVOK 04/02 Q1015=
201812220600 METAR LROD 220600Z 20017KT CAVOK 05/02 Q1015=
201812220630 METAR LROD 220630Z 20018KT CAVOK 05/02 Q1016=
201812220700 METAR LROD 220700Z 22013KT CAVOK 05/02 Q1016=
201812220730 METAR LROD 220730Z 20017G27KT CAVOK 05/03 Q1016=
201812220800 METAR LROD 220800Z 20017KT CAVOK 05/03 Q1016=
201812220830 METAR LROD 220830Z 20019KT CAVOK 06/03 Q1016=
201812220900 METAR LROD 220900Z 19019KT CAVOK 07/03 Q1015=
201812220930 METAR LROD 220930Z 20020KT CAVOK 07/04 Q1015=
201812221000 METAR LROD 221000Z 20018KT CAVOK 07/04 Q1015=
201812221030 METAR LROD 221030Z 20019KT CAVOK 07/04 Q1014=
201812221100 METAR LROD 221100Z 20018KT CAVOK 07/04 Q1014=
201812221130 METAR LROD 221130Z 20017KT CAVOK 07/04 Q1014=
201812221200 METAR LROD 221200Z 20016KT CAVOK 07/04 Q1014=
201812221230 METAR COR LROD 221230Z 21015KT 8000 -RA SCT021 06/04 Q1015=
201812221300 METAR LROD 221300Z 20015KT 9999 -RA BKN016 BKN022 06/04 Q1015
                        R01/29//95=
201812221330 METAR LROD 221330Z 20014KT 9999 SCT015 BKN021 05/04 Q1014
                        R01/29//95=
201812221400 METAR LROD 221400Z 20015KT 9999 SCT021 05/04 Q1014 R01/29//95=
201812221430 METAR LROD 221430Z 20014KT CAVOK 05/04 Q1014 R01/29//95=
201812221500 METAR LROD 221500Z 20016KT 9999 -RA BKN043 05/04 Q1014 R01/29//95=
201812221530 METAR LROD 221530Z 19019KT 9999 -RA FEW040 05/04 Q1013 R01/29//95=
201812221600 METAR LROD 221600Z 20017KT 9999 -RA NSC 05/04 Q1014 R01/29//95=
201812221630 METAR LROD 221630Z 20017KT CAVOK 05/04 Q1014 R01/29//95=
201812221700 METAR LROD 221700Z 20016KT 9999 -RA NSC 06/04 Q1014 R01/29//95=
201812221730 METAR LROD 221730Z 20016KT 9999 -RA NSC 06/04 Q1014 R01/29//95=
201812221800 METAR LROD 221800Z 20016KT 170V240 CAVOK 06/04 Q1014 R01/29//95=
201812221830 METAR LROD 221830Z 20016KT CAVOK 05/04 Q1014 R01/29//95=
201812221900 METAR LROD 221900Z 21017KT CAVOK 06/04 Q1014 R01/29//95=
201812221930 METAR LROD 221930Z AUTO 21017KT 9999 SCT070/// BKN150///
                        06/04 Q1014=
201812222000 METAR LROD 222000Z AUTO 20017KT 9999 BKN065/// OVC085///
                        06/04 Q1014=
201812222030 METAR LROD 222030Z AUTO 21016KT 9999 SCT080/// BKN210///
                        05/04 Q1014=
201812222100 METAR LROD 222100Z AUTO 21017KT 9999 BKN170/// 06/04 Q1014=
201812222130 METAR LROD 222130Z AUTO 20015KT 9999 OVC170/// 06/04 Q1014=
201812222200 METAR LROD 222200Z AUTO 20013KT 9999 FEW085/// BKN170///
                        05/04 Q1014=
201812222230 METAR LROD 222230Z AUTO 21012KT 9999 FEW037/// SCT130///
                        BKN190/// 05/04 Q1015=
201812222300 METAR LROD 222300Z AUTO 20012KT 9999 FEW120/// BKN130///
                        05/03 Q1015=
201812222330 METAR LROD 222330Z AUTO 22014KT 9999 FEW140/// 05/03 Q1015=
201812230000 METAR LROD 230000Z AUTO 22011KT 9999 BKN040/// 05/03 Q1015=
201812230030 METAR LROD 230030Z AUTO 21009KT 9999 FEW040/// 04/03 Q1016=
201812230100 METAR LROD 230100Z AUTO 21005KT 9999 BKN040/// BKN170///
                        04/03 Q1016=
201812230130 METAR LROD 230130Z AUTO 21006KT 9999 SCT055/// 03/02 Q1017=
201812230200 METAR LROD 230200Z AUTO 20006KT 9999 SCT042/// 03/02 Q1017=
201812230230 METAR LROD 230230Z AUTO 20004KT 9999 BKN046/// 03/02 Q1017=
201812230300 METAR LROD 230300Z AUTO 20003KT 9999 BKN049/// 03/02 Q1017=
201812230330 METAR LROD 230330Z AUTO 20003KT 9999 BKN045/// BKN200///
                        03/02 Q1017=
201812230400 METAR LROD 230400Z AUTO 22005KT 9999 BKN190/// 03/02 Q1017=
201812230430 METAR LROD 230430Z AUTO 22004KT 9999 BKN150/// BKN210///
                        02/01 Q1018=
201812230500 METAR LROD 230500Z 19005KT CAVOK 02/01 Q1018 R01/29//95=
201812230530 METAR LROD 230530Z 19005KT CAVOK 02/02 Q1018 R01/29//95=
201812230600 METAR LROD 230600Z 15004KT CAVOK 03/02 Q1018 R01/29//95=
201812230630 METAR LROD 230630Z 16006KT CAVOK 03/03 Q1019 R01/29//95=
201812230700 METAR LROD 230700Z 18006KT 9999 BKN038 04/03 Q1019 R01/29//95=
201812230730 METAR LROD 230730Z 18007KT 9999 BKN032 04/03 Q1019 R01/29//95=
201812230800 METAR LROD 230800Z 18007KT 9999 BKN034 05/04 Q1019 R01/29//95=
201812230830 METAR LROD 230830Z 19009KT 9999 FEW038 05/04 Q1019 R01/29//95=
201812230900 METAR LROD 230900Z 20011KT 9999 BKN027 06/05 Q1019 R01/29//95=
201812230930 METAR LROD 230930Z 20011KT 9999 BKN030 06/05 Q1019 R01/29//95=
201812231000 METAR LROD 231000Z 22009KT 9999 SCT030 07/05 Q1019 R01/29//95=
201812231030 METAR LROD 231030Z 21011KT 9999 SCT036 07/05 Q1019 R01/29//95=
201812231100 METAR LROD 231100Z 22011KT 9999 SCT015 08/06 Q1019 R01/29//95=
201812231130 METAR COR LROD 231130Z 22010KT 9999 BKN023 08/06 Q1019 R01/19//95=
201812231200 METAR LROD 231200Z 22008KT 9999 BKN018 08/06 Q1019 R01/19//95=
201812231230 METAR LROD 231230Z 26007KT 9999 BKN023 08/06 Q1019 R01/19//95=
201812231300 METAR LROD 231300Z 26007KT 9999 BKN026 08/06 Q1019 R01/19//95=
201812231330 METAR LROD 231330Z 28006KT 9999 BKN030 08/06 Q1019 R01/19//95=
201812231400 METAR LROD 231400Z 29004KT 9999 BKN031 08/06 Q1020 R01/19//95=
201812231430 METAR LROD 231430Z 31002KT 9999 BKN025 08/06 Q1020 R01/19//95=
201812231500 METAR LROD 231500Z 24004KT 9999 BKN025 07/05 Q1020 R01/19//95=
201812231530 METAR LROD 231530Z 27005KT 9999 BKN029 07/05 Q1020 R01/19//95=
201812231600 METAR LROD 231600Z 24005KT 9999 OVC033 07/05 Q1020 R01/19//95=
201812231630 METAR LROD 231630Z 25007KT 9999 BKN031 07/04 Q1020 R01/CLRD//=
201812231700 METAR LROD 231700Z 23007KT 9999 BKN033 07/05 Q1020=
201812231730 METAR LROD 231730Z 23007KT 9999 BKN040 06/04 Q1020=
201812231800 METAR LROD 231800Z 22007KT 9999 BKN041 06/04 Q1019=
201812231830 METAR LROD 231830Z 21009KT 9999 BKN042 06/04 Q1019=
201812231900 METAR LROD 231900Z 21007KT 9999 SCT042 06/03 Q1019=
201812231930 METAR LROD 231930Z AUTO 21008KT 9999 BKN150/// 05/03 Q1019=
201812232000 METAR LROD 232000Z AUTO 19008KT 9999 SCT120/// BKN130///
                        05/03 Q1018=
201812232030 METAR LROD 232030Z AUTO 20010KT 9999 SCT120/// BKN130///
                        05/03 Q1018=
201812232100 METAR LROD 232100Z AUTO 20012KT 9999 BKN130/// BKN150///
                        04/03 Q1018=
201812232130 METAR LROD 232130Z AUTO 20012KT 9999 SCT080/// BKN095///
                        BKN120/// 04/03 Q1018=
201812232200 METAR LROD 232200Z AUTO 20013KT 9000 DZ FEW032/// SCT039///
                        OVC075/// 04/03 Q1018=
201812232230 METAR LROD 232230Z AUTO 20011KT 6000 -RA SCT028/// OVC033///
                        04/03 Q1018=
201812232300 METAR LROD 232300Z AUTO 20011KT 6000 -RA SCT027/// OVC031///
                        04/03 Q1017=
201812232330 METAR LROD 232330Z AUTO 19011KT 6000 RA FEW023/// SCT028///
                        BKN033/// 04/04 Q1017=
201812240000 METAR LROD 240000Z AUTO 19010KT 6000 RA FEW016/// SCT024///
                        BKN032/// 04/04 Q1016=
201812240030 METAR LROD 240030Z AUTO 17010KT 7000 -RA OVC029/// 04/04
                        Q1015=
201812240100 METAR LROD 240100Z AUTO 17010KT 8000 -RA FEW019/// OVC030///
                        05/04 Q1014=
201812240130 METAR LROD 240130Z AUTO 16009KT 9000 -RA FEW018/// SCT029///
                        OVC050/// 05/04 Q1013=
201812240200 METAR LROD 240200Z AUTO 16010KT 9999 -RA BKN033/// OVC045///
                        05/04 Q1012=
201812240230 METAR LROD 240230Z AUTO 15007KT 9999 DZ FEW030/// BKN036///
                        05/05 Q1011=
201812240300 METAR LROD 240300Z AUTO 12005KT 090V150 8000 SHRA BKN031///
                        05/05 Q1011=
201812240330 METAR LROD 240330Z AUTO 12004KT 7000 RA FEW014/// BKN018///
                        BKN028/// 05/04 Q1010=
201812240400 METAR LROD 240400Z AUTO 19004KT 9000 RA SCT008/// BKN010///
                        BKN018/// 05/04 Q1009=
201812240430 METAR LROD 240430Z AUTO 16009KT 9999 -RA FEW008/// OVC039///
                        05/05 Q1007=
201812240500 METAR LROD 240500Z AUTO 16009KT 9999 -RA BKN039/// OVC050///
                        05/04 Q1006=
201812240530 METAR LROD 240530Z 17010KT 9999 RA OVC040 05/04 Q1006 R01/29//95=
201812240600 METAR LROD 240600Z 18013KT 9999 RA OVC035 06/05 Q1006 R01/29//95=
201812240630 METAR LROD 240630Z 19015KT 9999 -RA OVC035 05/05 Q1005 R01/29//95=
201812240700 METAR LROD 240700Z 19014KT 9000 RA OVC037 05/04 Q1004 R01/29//95=
201812240730 METAR COR LROD 240730Z 21011KT 7000 RA FEW008 OVC020 05/05
                        Q1004 R01/29//95=
201812240800 METAR LROD 240800Z 21015KT 6000 RA FEW006 BKN012 05/05 Q1004
                        R01/29//95=
201812240830 METAR LROD 240830Z 21014KT 5000 RA BR FEW008 BKN016 05/05
                        Q1004 R01/29//95=
201812240900 METAR LROD 240900Z 21014KT 5000 RA BR FEW008 BKN016 05/05
                        Q1004 R01/29//95=
201812240930 METAR COR LROD 240930Z 24011KT 5000 RA BR BKN007 BKN020 05/05
                        Q1004 R01/29//95=
201812241000 METAR LROD 241000Z 26008KT 4100 RA BR BKN005 BKN011 05/05
                        Q1004 R01/29//95=
201812241030 METAR LROD 241030Z 30013KT 5000 -RA BR FEW003 BKN005 05/05
                        Q1004 R01/29//95=
201812241100 METAR LROD 241100Z 33012KT 7000 -RA BKN009 BKN016 05/04 Q1005
                        R01/29//95=
201812241130 METAR LROD 241130Z 01015KT 9999 -RA FEW005 BKN012 03/03 Q1006
                        R01/29//95=
201812241200 METAR LROD 241200Z 36013KT 9999 -RA BKN007 BKN010 03/03 Q1007
                        R01/29//95=
201812241230 METAR LROD 241230Z 36013KT 9999 -RA BKN007 BKN010 03/03 Q1007
                        R01/29//95=
201812241300 METAR LROD 241300Z 35013KT 9999 -RA SCT009 BKN012 03/02 Q1009
                        R01/29//95=
201812241330 METAR LROD 241330Z 36013KT 9999 FEW008 BKN045 03/02 Q1010
                        R01/29//95=
201812241400 METAR LROD 241400Z 35013KT 9999 FEW017 04/02 Q1011 R01/29//95=
201812241430 METAR COR LROD 241430Z 36018G30KT 9999 FEW022 04/01 Q1013
                        R01/29//95=
201812241500 METAR LROD 241500Z 36021G31KT 9999 SCT024 03/M01 Q1014 R01/29//95=
201812241530 METAR COR LROD 241530Z 36014KT CAVOK 02/M02 Q1015 R01/29//95=
201812241600 METAR LROD 241600Z 36010KT CAVOK 02/M02 Q1016 R01/29//95=
201812241630 METAR LROD 241630Z 36011KT CAVOK 02/M02 Q1016 R01/29//95=
201812241700 METAR LROD 241700Z 01011KT CAVOK 02/M02 Q1017=
201812241730 METAR LROD 241730Z 36009KT CAVOK 02/M03 Q1017=
201812241800 METAR LROD 241800Z 01011KT CAVOK 02/M03 Q1018=
201812241830 METAR LROD 241830Z 03010KT 360V070 CAVOK 01/M03 Q1019=
201812241900 METAR LROD 241900Z AUTO 01015KT 9999 NCD 01/M03 Q1019=
201812241930 METAR LROD 241930Z AUTO 35012KT 9999 NCD 01/M03 Q1020=
201812242000 METAR LROD 242000Z AUTO 36012KT 9999 NCD 01/M03 Q1020=
201812242030 METAR LROD 242030Z AUTO 01015KT 9999 NCD 01/M03 Q1021=
201812242100 METAR LROD 242100Z AUTO 03008KT 9999 NCD 01/M04 Q1021=
201812242130 METAR LROD 242130Z AUTO 36012KT 330V030 9999 NCD 00/M04 Q1021=
201812242200 METAR LROD 242200Z AUTO 01008KT 340V050 9999 NCD M00/M04
                        Q1022=
201812242230 METAR LROD 242230Z AUTO 35009KT 9999 NCD M00/M04 Q1022=
201812242300 METAR LROD 242300Z AUTO 35005KT 9999 NCD M01/M04 Q1022=
201812242330 METAR LROD 242330Z AUTO 35006KT 9999 NCD M01/M04 Q1022=
201812250000 METAR LROD 250000Z AUTO 26004KT 9999 SCT075/// M01/M04 Q1023=
201812250030 METAR LROD 250030Z AUTO 31006KT 9999 NCD M02/M04 Q1023=
201812250100 METAR LROD 250100Z AUTO 29005KT 9999 NCD M02/M03 Q1023=
201812250130 METAR LROD 250130Z AUTO 30008KT 9999 NCD M02/M03 Q1024=
201812250200 METAR LROD 250200Z AUTO 31004KT 9999 NCD M02/M04 Q1024=
201812250230 METAR LROD 250230Z AUTO 29004KT 9999 NCD M02/M04 Q1024=
201812250300 METAR LROD 250300Z AUTO 28006KT 9999 NCD M03/M04 Q1023=
201812250330 METAR LROD 250330Z AUTO 27003KT 9999 NCD M02/M04 Q1024=
201812250400 METAR LROD 250400Z AUTO 17004KT 9999 FEW070/// M03/M04 Q1024=
201812250430 METAR LROD 250430Z AUTO 25004KT 9999 BKN060/// M02/M03 Q1024=
201812250500 METAR LROD 250500Z 23002KT CAVOK M02/M03 Q1024=
201812250530 METAR LROD 250530Z 24003KT CAVOK M02/M03 Q1025=
201812250600 METAR LROD 250600Z 24003KT CAVOK M02/M03 Q1025=
201812250630 METAR LROD 250630Z 26003KT CAVOK M02/M03 Q1025=
201812250700 METAR LROD 250700Z 29004KT CAVOK M01/M03 Q1025=
201812250730 METAR LROD 250730Z 31002KT CAVOK M01/M03 Q1025=
201812250800 METAR LROD 250800Z 31003KT CAVOK M01/M03 Q1025=
201812250830 METAR LROD 250830Z 30003KT CAVOK M01/M03 Q1025=
201812250900 METAR LROD 250900Z 26002KT CAVOK M01/M03 Q1025=
201812250930 METAR LROD 250930Z 20002KT CAVOK M00/M03 Q1025=
201812251000 METAR LROD 251000Z 22002KT CAVOK 00/M03 Q1025=
201812251030 METAR LROD 251030Z 21002KT CAVOK 01/M03 Q1024=
201812251100 METAR LROD 251100Z 22004KT CAVOK 01/M03 Q1024=
201812251130 METAR LROD 251130Z 23002KT CAVOK 02/M04 Q1024=
201812251200 METAR LROD 251200Z 24003KT CAVOK 02/M04 Q1024=
201812251230 METAR LROD 251230Z 26006KT CAVOK 02/M03 Q1025=
201812251300 METAR LROD 251300Z 25005KT CAVOK 02/M03 Q1025=
201812251330 METAR LROD 251330Z 26008KT CAVOK 02/M02 Q1025=
201812251400 METAR LROD 251400Z 25006KT CAVOK 01/M02 Q1025=
201812251430 METAR LROD 251430Z 23006KT CAVOK 01/M02 Q1025=
201812251500 METAR LROD 251500Z 24006KT CAVOK 01/M02 Q1026=
201812251530 METAR LROD 251530Z 23005KT CAVOK 00/M02 Q1026=
201812251600 METAR LROD 251600Z 20005KT CAVOK 00/M02 Q1026=
201812251630 METAR LROD 251630Z 21006KT CAVOK M00/M02 Q1026=
201812251700 METAR LROD 251700Z 21006KT CAVOK 00/M02 Q1026=
201812251730 METAR LROD 251730Z 23007KT CAVOK 00/M02 Q1026=
201812251800 METAR LROD 251800Z 21007KT CAVOK 00/M02 Q1026=
201812251830 METAR LROD 251830Z 22008KT CAVOK 00/M03 Q1026=
201812251900 METAR LROD 251900Z 21008KT CAVOK 00/M03 Q1026=
201812251930 METAR LROD 251930Z AUTO 20008KT 9999 OVC049/// 00/M03 Q1026=
201812252000 METAR LROD 252000Z AUTO 20009KT 9999 BKN047/// 00/M03 Q1026=
201812252030 METAR LROD 252030Z AUTO 19007KT 9999 OVC048/// 00/M03 Q1026=
201812252100 METAR LROD 252100Z AUTO 19008KT 9999 BKN047/// 00/M03 Q1026=
201812252130 METAR LROD 252130Z AUTO 19009KT 9999 BKN045/// 00/M02 Q1026=
201812252200 METAR LROD 252200Z AUTO 19009KT 9999 OVC048/// 00/M02 Q1026=
201812252230 METAR LROD 252230Z AUTO 19009KT 9999 FEW015/// OVC050///
                        00/M02 Q1026=
201812252300 METAR LROD 252300Z AUTO 18007KT 9999 FEW013/// BKN050///
                        00/M02 Q1026=
201812252330 METAR LROD 252330Z AUTO 19009KT 9999 BKN012/// 00/M02 Q1026=
201812260000 METAR LROD 260000Z AUTO 18010KT 5000 -SN VV012 M00/M01 Q1026=
201812260030 METAR LROD 260030Z AUTO 18009KT 9999 -SN FEW021/// SCT055///
                        BKN090/// M00/M01 Q1026=
201812260100 METAR LROD 260100Z AUTO 18009KT 9999 -SN BKN007/// BKN041///
                        M00/M01 Q1026=
201812260130 METAR LROD 260130Z AUTO 19009KT 9000 -SN BKN007/// OVC023///
                        M00/M01 Q1026=
201812260200 METAR LROD 260200Z AUTO 19008KT 9999 SG OVC007/// 00/M01
                        Q1026=
201812260230 METAR LROD 260230Z AUTO 19009KT 9999 OVC007/// M00/M01 Q1026
                        RESN=
201812260300 METAR LROD 260300Z AUTO 19010KT 9999 OVC006/// 00/M01 Q1025=
201812260330 METAR LROD 260330Z AUTO 18009KT 9999 FEW006/// BKN012///
                        00/M01 Q1025 RESN=
201812260400 METAR LROD 260400Z AUTO 19008KT 9999 BKN014/// OVC017///
                        00/M01 Q1026 RESN=
201812260430 METAR LROD 260430Z AUTO 19010KT 9999 BKN007/// BKN009///
                        OVC015/// 00/M01 Q1025=
201812260500 METAR LROD 260500Z 18011KT 9999 BKN006 BKN008 00/M01 Q1025=
201812260530 METAR LROD 260530Z 19010KT 9999 BKN007 BKN011 00/M01 Q1025=
201812260600 METAR LROD 260600Z 18010KT 9999 FEW007 BKN012 00/M01 Q1026=
201812260630 METAR LROD 260630Z 19011KT 9999 FEW008 BKN012 00/M01 Q1026=
201812260700 METAR LROD 260700Z 18009KT 9999 SCT007 00/M01 Q1026=
201812260730 METAR LROD 260730Z 19010KT 9999 BKN007 BKN012 00/M01 Q1026=
201812260800 METAR LROD 260800Z 19012KT 9999 BKN007 OVC013 01/M00 Q1026=
201812260830 METAR LROD 260830Z 19012KT 9999 SCT007 BKN013 01/M00 Q1026=
201812260900 METAR LROD 260900Z 19012KT 9999 FEW007 BKN012 01/M00 Q1026=
201812260930 METAR LROD 260930Z 19011KT 9999 FEW006 BKN014 01/M00 Q1026=
201812261000 METAR LROD 261000Z 19013KT 9999 FEW006 BKN015 01/M00 Q1025=
201812261030 METAR LROD 261030Z 20012KT 9999 SCT006 BKN015 01/00 Q1025=
201812261100 METAR LROD 261100Z 19013KT 9999 FEW007 SCT009 OVC014 01/00
                        Q1025=
201812261130 METAR LROD 261130Z 19011KT 9999 SCT009 BKN015 01/00 Q1025=
201812261200 METAR LROD 261200Z 19011KT 9999 SCT008 02/00 Q1024=
201812261230 METAR LROD 261230Z 19012KT 9999 SCT006 02/00 Q1024=
201812261300 METAR LROD 261300Z 19011KT 9999 FEW007 BKN030 02/00 Q1025=
201812261330 METAR LROD 261330Z 19010KT 9999 SCT029 OVC033 02/00 Q1025=
201812261400 METAR LROD 261400Z 18009KT 9999 OVC034 02/00 Q1024=
201812261430 METAR LROD 261430Z 18010KT 9999 FEW029 SCT037 BKN042 01/00
                        Q1024=
201812261500 METAR LROD 261500Z 18009KT 9999 BKN033 01/00 Q1024=
201812261530 METAR LROD 261530Z 18008KT 9999 BKN033 01/00 Q1024=
201812261600 METAR LROD 261600Z 18009KT 9999 SCT035 01/M00 Q1024=
201812261630 METAR LROD 261630Z 18009KT 9999 FEW021 01/M00 Q1024=
201812261700 METAR LROD 261700Z 18009KT 9999 BKN023 01/00 Q1024=
201812261730 METAR LROD 261730Z 18009KT 9999 FEW026 BKN032 01/00 Q1024=
201812261800 METAR LROD 261800Z 18008KT 9999 BKN030 01/00 Q1024=
201812261830 METAR LROD 261830Z 18005KT 9999 SCT029 01/M00 Q1024=
201812261900 METAR LROD 261900Z 18005KT 9999 SCT029 01/M00 Q1024=
201812261930 METAR LROD 261930Z AUTO 17005KT 9999 BKN055/// 01/00 Q1024=
201812262000 METAR LROD 262000Z AUTO 17005KT 140V200 9999 BKN050/// 01/00
                        Q1024=
201812262030 METAR LROD 262030Z AUTO 18007KT 9999 OVC050/// 02/01 Q1024=
201812262100 METAR LROD 262100Z AUTO 20006KT 9999 BKN049/// 01/00 Q1024=
201812262130 METAR LROD 262130Z AUTO 20005KT 9999 OVC050/// 01/00 Q1024=
201812262200 METAR LROD 262200Z AUTO 18004KT 9999 BKN050/// 01/00 Q1024=
201812262230 METAR LROD 262230Z AUTO 17002KT 9000 OVC048/// 01/00 Q1024=
201812262300 METAR LROD 262300Z AUTO 19004KT 9999 BKN047/// 01/00 Q1024=
201812262330 METAR LROD 262330Z AUTO 19009KT 9999 OVC046/// 01/00 Q1024=
201812270000 METAR LROD 270000Z AUTO 19006KT 9999 BKN045/// 01/00 Q1024=
201812270030 METAR LROD 270030Z AUTO 19005KT 9999 OVC045/// 01/00 Q1025=
201812270100 METAR LROD 270100Z AUTO 19005KT 9999 OVC043/// 01/00 Q1025=
201812270130 METAR LROD 270130Z AUTO 20005KT 9000 OVC044/// 01/00 Q1025=
201812270200 METAR LROD 270200Z AUTO 21004KT 8000 OVC044/// 01/00 Q1025=
201812270230 METAR LROD 270230Z AUTO 21005KT 7000 BKN043/// OVC055///
                        01/00 Q1025=
201812270300 METAR LROD 270300Z AUTO 19005KT 7000 BKN044/// OVC055///
                        01/00 Q1025=
201812270330 METAR LROD 270330Z AUTO 19005KT 8000 OVC043/// 01/00 Q1025=
201812270400 METAR LROD 270400Z AUTO 18005KT 9999 OVC043/// 01/00 Q1025=
201812270430 METAR LROD 270430Z AUTO 17004KT 9000 OVC044/// 01/M00 Q1025=
201812270500 METAR LROD 270500Z 17004KT 9999 OVC047 01/M00 Q1025=
201812270530 METAR LROD 270530Z 16003KT 9999 BKN046 01/M00 Q1026=
201812270600 METAR LROD 270600Z 17004KT 8000 SCT048 00/M01 Q1026=
201812270630 METAR LROD 270630Z 16004KT CAVOK 01/M00 Q1026=
201812270700 METAR LROD 270700Z 19005KT CAVOK 01/M00 Q1026=
201812270730 METAR LROD 270730Z 18007KT CAVOK 01/M00 Q1026=
201812270800 METAR LROD 270800Z 18007KT CAVOK 01/00 Q1026=
201812270830 METAR LROD 270830Z 18008KT CAVOK 02/00 Q1026=
201812270900 METAR LROD 270900Z 19009KT CAVOK 02/00 Q1026=
201812270930 METAR LROD 270930Z 19010KT CAVOK 03/01 Q1026=
201812271000 METAR LROD 271000Z 19010KT CAVOK 03/01 Q1026=
201812271030 METAR LROD 271030Z 19011KT CAVOK 03/01 Q1026=
201812271100 METAR LROD 271100Z 19012KT CAVOK 04/01 Q1025=
201812271130 METAR LROD 271130Z 20012KT CAVOK 04/01 Q1025=
201812271200 METAR LROD 271200Z 20012KT CAVOK 04/01 Q1025=
201812271230 METAR LROD 271230Z 19013KT 9999 FEW011 04/01 Q1025=
201812271300 METAR LROD 271300Z 19012KT 9999 FEW012 04/01 Q1025=
201812271330 METAR LROD 271330Z 20011KT 9999 FEW014 04/01 Q1025=
201812271400 METAR LROD 271400Z 21011KT CAVOK 03/02 Q1025=
201812271430 METAR LROD 271430Z 21010KT CAVOK 03/01 Q1025=
201812271500 METAR LROD 271500Z 20010KT 9999 FEW011 03/01 Q1025=
201812271530 METAR LROD 271530Z 21009KT 9999 SCT010 03/02 Q1025=
201812271600 METAR LROD 271600Z 20011KT 9999 BKN010 03/01 Q1025=
201812271630 METAR LROD 271630Z 21010KT 9999 BKN010 02/01 Q1025=
201812271700 METAR LROD 271700Z 20011KT 9999 SCT008 SCT047 02/01 Q1025=
201812271730 METAR LROD 271730Z 19010KT 9999 SCT015 BKN043 03/01 Q1025=
201812271800 METAR LROD 271800Z 18009KT 9999 BKN015 BKN045 03/01 Q1025=
201812271830 METAR LROD 271830Z 19009KT 9999 BKN015 02/01 Q1025=
201812271900 METAR LROD 271900Z 18009KT 9999 BKN018 03/01 Q1025=
201812271930 METAR LROD 271930Z AUTO 17010KT 9999 FEW015/// BKN022///
                        03/01 Q1024=
201812272000 METAR LROD 272000Z AUTO 17008KT 9999 FEW011/// SCT020///
                        BKN031/// 03/01 Q1025=
201812272030 METAR LROD 272030Z AUTO 18010KT 9999 SCT010/// BKN021///
                        BKN029/// 03/01 Q1025=
201812272100 METAR LROD 272100Z AUTO 18012KT 9999 FEW011/// SCT020///
                        BKN025/// 03/01 Q1024=
201812272130 METAR LROD 272130Z AUTO 17011KT 9999 -SHRA FEW018/// OVC023///
                        03/01 Q1024=
201812272200 METAR LROD 272200Z AUTO 18011KT 9999 BKN019/// OVC025///
                        03/01 Q1024 REDZ=
201812272230 METAR LROD 272230Z AUTO 18010KT 9999 OVC017/// 03/01 Q1024=
201812272300 METAR LROD 272300Z AUTO 18012KT 9999 FEW011/// BKN014///
                        OVC017/// 03/01 Q1023=
201812272330 METAR LROD 272330Z AUTO 18010KT 9000 SCT010/// BKN013///
                        03/02 Q1023=
201812280000 METAR LROD 280000Z AUTO 18009KT 7000 BKN008/// OVC011///
                        03/02 Q1023=
201812280030 METAR LROD 280030Z AUTO 18009KT 4900 BR SCT006/// BKN008///
                        OVC010/// 03/02 Q1023=
201812280100 METAR LROD 280100Z AUTO 18011KT 4000 BR SCT006/// BKN009///
                        03/02 Q1023=
201812280130 METAR LROD 280130Z AUTO 19012KT 4500 BR SCT006/// BKN008///
                        OVC010/// 03/03 Q1023=
201812280200 METAR LROD 280200Z AUTO 20013KT 5000 BR SCT005/// BKN007///
                        03/03 Q1023=
201812280230 METAR LROD 280230Z AUTO 19014KT 5000 BR BKN005/// OVC008///
                        03/02 Q1022=
201812280300 METAR LROD 280300Z AUTO 19015KT 5000 BR BKN005/// 03/02 Q1022=
201812280330 METAR LROD 280330Z AUTO 20014KT 4200 BR SCT005/// BKN007///
                        OVC015/// 03/03 Q1022=
201812280400 METAR LROD 280400Z AUTO 19014KT 4700 -DZ FEW004/// SCT007///
                        BKN014/// 03/03 Q1022=
201812280430 METAR LROD 280430Z AUTO 20014KT 5000 FEW006/// OVC014///
                        03/03 Q1022 REDZ=
201812280500 METAR COR LROD 280500Z 20013KT 5000 BR FEW006 OVC020 03/03
                        Q1022=
201812280530 METAR LROD 280530Z 20014KT 5000 BR FEW007 OVC022 03/03 Q1022
                        R01/19//95=
201812280600 METAR LROD 280600Z 20013KT 6000 BKN019 BKN022 03/03 Q1022
                        R01/19//95=
201812280630 METAR LROD 280630Z 20013KT 7000 -RA BKN018 OVC024 03/03 Q1022
                        R01/19//95=
201812280700 METAR LROD 280700Z 20013KT 6000 -RA BKN018 BKN024 03/03 Q1022
                        R01/19//95=
201812280730 METAR LROD 280730Z 19013KT 7000 -RA BKN017 OVC022 03/03 Q1022
                        R01/29//95=
201812280800 METAR LROD 280800Z 19013KT 6000 -RA FEW017 OVC029 03/03 Q1022
                        R01/29//95=
201812280830 METAR LROD 280830Z 20013KT 5000 RA SCT016 OVC030 03/03 Q1022
                        R01/29//95=
201812280900 METAR LROD 280900Z 19016KT 6000 -RA FEW017 BKN030 03/03 Q1021
                        R01/29//95=
201812280930 METAR LROD 280930Z 19012KT 7000 FEW006 BKN030 04/03 Q1022
                        R01/29//95=
201812281000 METAR LROD 281000Z 20011KT 7000 SCT009 BKN017 04/03 Q1022
                        R01/29//95=
201812281030 METAR COR LROD 281030Z 19011KT 7000 SCT007 OVC009 04/03 Q1021
                        R01/29//95=
201812281100 METAR COR LROD 281100Z 19013KT 7000 SCT007 BKN009 BKN014
                        04/03 Q1021 R01/29//95=
201812281130 METAR LROD 281130Z 19012KT 6000 FEW006 BKN014 04/03 Q1021
                        R01/29//95=
201812281200 METAR LROD 281200Z 19012KT 6000 SCT007 BKN013 04/03 Q1020
                        R01/29//95=
201812281230 METAR LROD 281230Z 20012KT 6000 -RA SCT007 OVC013 04/03 Q1021
                        R01/29//95=
201812281300 METAR LROD 281300Z 20012KT 6000 SCT006 OVC012 04/03 Q1020
                        R01/29//95=
201812281330 METAR LROD 281330Z 20011KT 6000 SCT003 BKN008 04/03 Q1020
                        R01/29//95=
201812281400 METAR LROD 281400Z 19010KT 6000 SCT007 BKN010 04/03 Q1020
                        R01/29//95=
201812281430 METAR LROD 281430Z 20008KT 6000 BKN007 04/03 Q1021 R01/29//95=
201812281500 METAR LROD 281500Z 20010KT 3800 RA BR SCT006 BKN008 04/03
                        Q1020 R01/29//95=
201812281530 METAR LROD 281530Z 19011KT 4300 RA BR FEW007 BKN032 04/03
                        Q1020 R01/29//95=
201812281600 METAR LROD 281600Z 21009KT 5000 RA SCT006 BKN008 04/03 Q1021
                        R01/29//95=
201812281630 METAR LROD 281630Z 18013KT 5000 RA BR FEW005 BKN040 03/03
                        Q1019 R01/29//95=
201812281700 METAR LROD 281700Z 18014KT 8000 -RA FEW015 04/03 Q1019 R01/29//95=
201812281730 METAR LROD 281730Z 33004KT 290V020 9000 BKN005 BKN045 04/03
                        Q1021 R01/29//95=
201812281800 METAR LROD 281800Z 22005KT 5000 -RA BR BKN004 04/03 Q1021
                        R01/29//95=
201812281830 METAR LROD 281830Z 20005KT 3800 -RA BR BKN005 04/03 Q1021
                        R01/29//95=
201812281900 METAR LROD 281900Z 18005KT 4500 -RA BR BKN004 04/03 Q1021
                        R01/29//95=
201812281930 METAR LROD 281930Z AUTO 18005KT 5000 -RA BKN005/// 03/03
                        Q1021=
201812282000 METAR LROD 282000Z AUTO 18002KT 090V240 8000 BKN004/// OVC006///
                        03/03 Q1021 RERA=
201812282030 METAR LROD 282030Z AUTO 15004KT 7000 BKN004/// BKN006///
                        03/03 Q1021 REDZ=
201812282100 METAR LROD 282100Z AUTO 00000KT 9000 OVC005/// 03/03 Q1021=
201812282130 METAR LROD 282130Z AUTO 00000KT 8000 BKN006/// 03/03 Q1021=
201812282200 METAR LROD 282200Z AUTO 08002KT 050V110 5000 BR OVC005///
                        03/03 Q1022=
201812282230 METAR LROD 282230Z AUTO 13003KT 6000 BKN004/// 03/03 Q1021=
201812282300 METAR LROD 282300Z AUTO 17001KT 4600 BR OVC003/// 03/03 Q1021=
201812282330 METAR LROD 282330Z AUTO 00000KT 3000 BR OVC003/// 03/03 Q1022=
201812290000 METAR LROD 290000Z AUTO 00000KT 0900 R19/1100N FG SCT002///
                        BKN005/// 03/03 Q1022=
201812290030 METAR LROD 290030Z AUTO 00000KT 0900 R19/1100N FG BKN002///
                        OVC004/// 03/03 Q1022=
201812290100 METAR LROD 290100Z AUTO 29003KT 0550 R19/0650N FG VV002 03/03
                        Q1022=
201812290130 METAR LROD 290130Z AUTO 26002KT 230V290 0800 R19/0900V1300U
                        FG VV002 03/03 Q1023=
201812290200 METAR LROD 290200Z AUTO 27002KT 1200 R19/1500D -SHRA VV002
                        03/03 Q1022=
201812290230 METAR LROD 290230Z AUTO 27004KT 0800 R19/1000D FG VV002 03/03
                        Q1023=
201812290300 METAR LROD 290300Z AUTO 30007KT 0750 R19/0800V1100U FG VV002
                        03/03 Q1022=
201812290330 METAR LROD 290330Z AUTO 33004KT 1100 R19/1300V1900D FG VV002
                        03/03 Q1023=
201812290400 METAR LROD 290400Z AUTO 33005KT 2500 R19/0900VP2000U BKN001///
                        03/03 Q1023=
201812290430 METAR LROD 290430Z AUTO 33003KT 2500 BKN001/// 03/03 Q1023=
201812290500 METAR LROD 290500Z 32003KT 0800 R19/1100D FG VV002 03/03
                        Q1023 R01/29//95=
201812290530 METAR LROD 290530Z 31004KT 1100 R19/1400D BR VV002 03/03
                        Q1024=
201812290600 METAR LROD 290600Z 29003KT 0800 R19/1000U FG VV001 03/03
                        Q1024=
201812290630 METAR LROD 290630Z 29003KT 0900 R19/1200U FG VV002 02/02
                        Q1024=
201812290700 METAR LROD 290700Z 28003KT 0350 R19/0400D FG VV001 02/02
                        Q1024=
201812290730 METAR LROD 290730Z 28003KT 0300 R19/0400U FG VV001 02/02
                        Q1024=
201812290800 METAR LROD 290800Z 27005KT 230V290 0350 R19/0500U FG VV001
                        02/02 Q1024=
201812290830 METAR LROD 290830Z 28004KT 230V310 0250 R19/0325N FG VV001
                        02/02 Q1025=
201812290900 METAR LROD 290900Z 24004KT 0250 R19/0325N FG VV002 02/02
                        Q1025=
201812290930 METAR LROD 290930Z 25003KT 0500 R19/0650N FG VV001 02/02
                        Q1025=
201812291000 METAR LROD 291000Z 27005KT 230V300 2000 BR BKN001 OVC003
                        02/02 Q1025=
201812291030 METAR LROD 291030Z 26003KT 2200 BR OVC002 02/02 Q1025=
201812291100 METAR LROD 291100Z 28002KT 4000 BR BKN002 BKN004 03/03 Q1025=
201812291130 METAR LROD 291130Z AUTO 33002KT 290V020 7000 SCT004/// BKN006///
                        OVC065/// 03/03 Q1025=
201812291200 METAR LROD 291200Z VRB01KT 8000 FEW005 04/04 Q1025=
201812291230 METAR LROD 291230Z VRB02KT CAVOK 05/04 Q1024=
201812291300 METAR LROD 291300Z 05003KT CAVOK 05/03 Q1024=
201812291330 METAR LROD 291330Z 00000KT CAVOK 06/03 Q1025=
201812291400 METAR LROD 291400Z 25006KT 9999 FEW012 05/03 Q1025=
201812291430 METAR LROD 291430Z 25005KT CAVOK 04/03 Q1025=
201812291500 METAR LROD 291500Z 23004KT CAVOK 04/03 Q1026=
201812291530 METAR LROD 291530Z 20004KT CAVOK 04/03 Q1026=
201812291600 METAR LROD 291600Z 24003KT CAVOK 04/03 Q1026=
201812291630 METAR LROD 291630Z 24002KT CAVOK 04/03 Q1026=
201812291700 METAR LROD 291700Z 21004KT CAVOK 03/02 Q1026=
201812291730 METAR LROD 291730Z 18004KT CAVOK 03/02 Q1026=
201812291800 METAR LROD 291800Z 19003KT 8000 BKN047 03/02 Q1026=
201812291830 METAR LROD 291830Z 14002KT 9000 NSC 02/02 Q1026=
201812291900 METAR LROD 291900Z 18001KT 8000 NSC 02/02 Q1026=
201812291930 METAR LROD 291930Z AUTO 21004KT 6000 OVC060/// 03/02 Q1026=
201812292000 METAR LROD 292000Z AUTO 21004KT 5000 BR BKN046/// OVC060///
                        03/02 Q1026=
201812292030 METAR LROD 292030Z AUTO 20004KT 7000 FEW046/// OVC060///
                        03/02 Q1025=
201812292100 METAR LROD 292100Z AUTO 19005KT 4800 BR FEW045/// OVC060///
                        03/03 Q1025=
201812292130 METAR LROD 292130Z AUTO 18004KT 4000 BR FEW002/// OVC060///
                        03/03 Q1025=
201812292200 METAR LROD 292200Z AUTO 15004KT 4000 BR BKN046/// OVC060///
                        03/03 Q1025=
201812292230 METAR LROD 292230Z AUTO 14003KT 3900 BR SCT046/// OVC060///
                        03/03 Q1025=
201812292300 METAR LROD 292300Z AUTO 14003KT 3300 BR FEW003/// BKN046///
                        BKN060/// 03/03 Q1025=
201812292330 METAR LROD 292330Z AUTO 14003KT 2800 BR FEW002/// SCT045///
                        BKN055/// 03/03 Q1024=
201812300000 METAR LROD 300000Z AUTO 14003KT 2900 BR OVC055/// 03/03 Q1024=
201812300030 METAR LROD 300030Z AUTO 12003KT 2800 BR FEW003/// BKN060///
                        03/03 Q1024=
201812300100 METAR LROD 300100Z AUTO 15003KT 110V190 3000 BR BKN003///
                        03/03 Q1024=
201812300130 METAR LROD 300130Z AUTO 18006KT 2100 BR BKN002/// 03/03 Q1023=
201812300200 METAR LROD 300200Z AUTO 18008KT 2200 BR BKN001/// OVC003///
                        03/03 Q1023=
201812300230 METAR LROD 300230Z AUTO 18007KT 3700 BR SCT002/// BKN004///
                        BKN010/// 03/03 Q1023=
201812300300 METAR LROD 300300Z AUTO 18009KT 5000 BR BKN005/// BKN012///
                        04/04 Q1022=
201812300330 METAR LROD 300330Z AUTO 16006KT 5000 BR FEW006/// BKN010///
                        BKN040/// 04/03 Q1022=
201812300400 METAR LROD 300400Z AUTO 18005KT 5000 BR BKN007/// BKN009///
                        04/03 Q1022=
201812300430 METAR LROD 300430Z AUTO 19006KT 5000 BR FEW007/// BKN011///
                        04/03 Q1022=
201812300500 METAR LROD 300500Z 19007KT 6000 FEW007 BKN013 03/03 Q1022=
201812300530 METAR LROD 300530Z 19008KT 6000 SCT010 OVC015 03/03 Q1022=
201812300600 METAR LROD 300600Z 19009KT 6000 OVC010 03/03 Q1022=
201812300630 METAR LROD 300630Z 20009KT 6000 BKN009 OVC012 03/03 Q1023=
201812300700 METAR LROD 300700Z 20009KT 5000 BR BKN005 OVC009 03/02 Q1023=
201812300730 METAR LROD 300730Z 20009KT 1800 BR SCT002 OVC004 03/03 Q1023=
201812300800 METAR LROD 300800Z 20010KT 1300 R19/1400 BR OVC002 03/03
                        Q1023=
201812300830 METAR LROD 300830Z 20009KT 2100 BR SCT002 OVC004 03/03 Q1023=
201812300900 METAR LROD 300900Z 20008KT 2700 BR BKN004 03/03 Q1023=
201812300930 METAR LROD 300930Z 19009KT 4200 BR FEW006 BKN011 04/03 Q1023=
201812301000 METAR LROD 301000Z 21009KT 3800 BR FEW005 BKN007 BKN009 03/03
                        Q1023=
201812301030 METAR LROD 301030Z 21008KT 2100 -RA BR FEW004 BKN006 03/03
                        Q1022=
201812301100 METAR LROD 301100Z 20007KT 3300 -RA BR BKN004 BKN016 03/02
                        Q1022=
201812301130 METAR LROD 301130Z 18007KT 5000 BR SCT005 BKN014 03/03 Q1021=
201812301200 METAR LROD 301200Z 18007KT 7000 FEW004 BKN016 BKN030 04/03
                        Q1021=
201812301230 METAR LROD 301230Z 18007KT 150V210 9999 BKN014 04/03 Q1021
                        R01/19//95=
201812301300 METAR LROD 301300Z 20009KT 7000 BKN007 BKN014 03/02 Q1022
                        R01/19//95=
201812301330 METAR LROD 301330Z 20009KT 6000 BKN006 OVC009 03/02 Q1022
                        R01/19//95=
201812301400 METAR LROD 301400Z 19008KT 4700 BR SCT005 BKN007 03/03 Q1022
                        R01/19//95=
201812301430 METAR LROD 301430Z 19008KT 4700 BR SCT006 BKN014 03/02 Q1022
                        R01/19//95=
201812301500 METAR LROD 301500Z 19007KT 5000 BR BKN010 BKN013 03/02 Q1022
                        R01/19//95=
201812301530 METAR LROD 301530Z 19007KT 5000 BR BKN008 03/02 Q1022 R01/19//95=
201812301600 METAR LROD 301600Z 19008KT 4900 BR BKN007 BKN012 03/02 Q1022
                        R01/19//95=
201812301630 METAR LROD 301630Z 18006KT 4700 BR FEW005 SCT008 BKN022 03/02
                        Q1022 R01/19//95=
201812301700 METAR LROD 301700Z 18006KT 4700 BR SCT005 BKN007 03/02 Q1022
                        R01/19//95=
201812301730 METAR LROD 301730Z 19007KT 5000 BR SCT005 BKN018 03/02 Q1022
                        R01/19//95=
201812301800 METAR LROD 301800Z 20009KT 4500 -RA BR SCT005 BKN033 03/03
                        Q1022 R01/19//95=
201812301830 METAR LROD 301830Z 19008KT 4600 -RA BR FEW007 BKN026 03/03
                        Q1022 R01/19//95=
201812301900 METAR LROD 301900Z 18008KT 4900 -RA BR FEW030 BKN036 03/03
                        Q1022 R01/19//95=
201812301930 METAR LROD 301930Z AUTO 18008KT 5000 FEW006/// BKN023///
                        BKN029/// 03/03 Q1022 REDZ=
201812302000 METAR LROD 302000Z AUTO 18007KT 5000 FEW018/// SCT025///
                        BKN035/// 03/03 Q1022 REDZ=
201812302030 METAR LROD 302030Z AUTO 18008KT 5000 BR FEW019/// BKN037///
                        03/03 Q1021=
201812302100 METAR LROD 302100Z AUTO 18008KT 6000 BKN038/// BKN049///
                        03/02 Q1021=
201812302130 METAR LROD 302130Z AUTO 18006KT 5000 BR FEW009/// SCT038///
                        BKN050/// 03/03 Q1021=
201812302200 METAR LROD 302200Z AUTO 18006KT 5000 BR SCT010/// BKN013///
                        BKN023/// 03/02 Q1021=
201812302230 METAR LROD 302230Z AUTO 17007KT 5000 BR SCT007/// BKN020///
                        BKN024/// 03/03 Q1021=
201812302300 METAR LROD 302300Z AUTO 16006KT 5000 -DZ FEW006/// SCT008///
                        OVC020/// 03/03 Q1021=
201812302330 METAR LROD 302330Z AUTO 16006KT 5000 -SHRA SCT009/// BKN020///
                        03/03 Q1021=
201812310000 METAR LROD 310000Z AUTO 16005KT 5000 FEW008/// SCT011///
                        BKN021/// 03/03 Q1021 REDZ=
201812310030 METAR LROD 310030Z AUTO 17005KT 6000 -SHRA OVC008/// 03/02
                        Q1021=
201812310100 METAR LROD 310100Z AUTO 17004KT 6000 -DZ OVC008/// 03/02
                        Q1021=
201812310130 METAR LROD 310130Z AUTO 15003KT 6000 DZ BKN008/// OVC010///
                        03/02 Q1021=
201812310200 METAR LROD 310200Z AUTO VRB01KT 5000 DZ OVC009/// 03/03 Q1021=
201812310230 METAR LROD 310230Z AUTO 13002KT 5000 -DZ BKN009/// OVC012///
                        03/02 Q1021=
201812310300 METAR LROD 310300Z AUTO 12002KT 5000 UP OVC009/// 03/03 Q1021=
201812310330 METAR LROD 310330Z AUTO 10002KT 4300 -SHRA OVC008/// 03/03
                        Q1021=
201812310400 METAR LROD 310400Z AUTO 06002KT 3600 -SHRA OVC009/// 03/03
                        Q1021=
201812310430 METAR LROD 310430Z AUTO 06002KT 3600 OVC009/// 03/03 Q1022=
201812310500 METAR LROD 310500Z 11002KT 3800 -RA BR OVC008 03/03 Q1022
                        R01/19//95=
201812310530 METAR LROD 310530Z 10003KT 4200 -RA BR BKN009 03/03 Q1022
                        R01/29//95=
201812310600 METAR LROD 310600Z 00000KT 4500 BR BKN009 OVC021 03/02 Q1023
                        R01/29//95=
201812310630 METAR LROD 310630Z 00000KT 4300 -RA BR SCT004 BKN009 03/03
                        Q1023 R01/29//95=
201812310700 METAR LROD 310700Z 00000KT 3300 -RA BR OVC006 03/03 Q1023
                        R01/29//95=
201812310730 METAR LROD 310730Z VRB01KT 3200 BR BKN007 OVC019 03/03 Q1023
                        R01/29//95=
201812310800 METAR LROD 310800Z 00000KT 4500 BR FEW004 BKN009 BKN032 03/03
                        Q1023 R01/29//95=
201812310830 METAR LROD 310830Z 00000KT 4800 BR SCT004 BKN006 04/03 Q1023
                        R01/29//95=
201812310900 METAR LROD 310900Z VRB01KT 6000 SCT005 BKN008 04/03 Q1023
                        R01/29//95=
201812310930 METAR LROD 310930Z 00000KT 6000 SCT006 BKN009 04/03 Q1023
                        R01/29//95=
201812311000 METAR LROD 311000Z 31003KT 6000 FEW006 BKN009 04/04 Q1024
                        R01/29//95=
201812311030 METAR LROD 311030Z 33006KT 6000 BKN006 BKN017 04/03 Q1024
                        R01/29//95=
201812311100 METAR LROD 311100Z 35006KT 6000 BKN008 BKN020 04/03 Q1024
                        R01/29//95=
201812311130 METAR LROD 311130Z 34005KT 6000 BKN007 BKN021 04/03 Q1024
                        R01/29//95=
201812311200 METAR LROD 311200Z 34006KT 6000 SCT009 BKN030 04/03 Q1024
                        R01/29//95=
201812311230 METAR LROD 311230Z 36005KT 320V030 8000 -DZ SCT008 BKN033
                        04/03 Q1024 R01/29//95=
201812311300 METAR LROD 311300Z 01005KT 340V040 8000 -DZ BKN011 BKN036
                        04/03 Q1024 R01/29//95=
201812311330 METAR LROD 311330Z 35006KT 320V030 8000 -RA BKN012 BKN026
                        04/03 Q1024 R01/29//95=
201812311400 METAR LROD 311400Z 36007KT 9999 -RA FEW012 BKN033 04/02 Q1024
                        R01/29//95=
201812311430 METAR LROD 311430Z 01006KT 9999 -RA FEW012 BKN034 04/02 Q1025
                        R01/29//95=
201812311500 METAR LROD 311500Z 35005KT 9999 -DZ BKN018 BKN031 04/03 Q1025
                        R01/29//95=
201812311530 METAR LROD 311530Z 01009KT 9999 -DZ BKN017 BKN027 04/02 Q1025
                        R01/29//95=
201812311600 METAR LROD 311600Z 02010KT 9999 -RA FEW025 OVC032 03/02 Q1026
                        R01/29//95=
201812311630 METAR LROD 311630Z 01013KT 9999 -RA SCT016 OVC032 03/02 Q1026
                        R01/29//95=
201812311700 METAR LROD 311700Z 01011KT 9999 -RA FEW015 BKN030 03/01 Q1026
                        R01/29//95=
201812311730 METAR LROD 311730Z 02009KT 9999 -RA BKN043 03/01 Q1026 R01/29//95=
201812311800 METAR LROD 311800Z 02008KT 9999 SCT045 03/01 Q1027 R01/29//95=
201812311830 METAR LROD 311830Z 03006KT 9999 SCT038 03/01 Q1027 R01/29//95=
201812311900 METAR LROD 311900Z 03005KT 9999 BKN039 02/01 Q1027 R01/29//95=
201812311930 METAR LROD 311930Z AUTO 02005KT 9999 FEW040/// 02/00 Q1027=
201812312000 METAR LROD 312000Z AUTO 03004KT 9999 BKN042/// OVC160///
                        02/01 Q1028=
201812312030 METAR LROD 312030Z AUTO 02005KT 9999 FEW031/// OVC040///
                        02/01 Q1028=
201812312100 METAR LROD 312100Z AUTO 02005KT 9999 FEW031/// OVC045///
                        02/00 Q1028=
201812312130 METAR LROD 312130Z AUTO 05003KT 9999 OVC046/// 02/00 Q1028=
201812312200 METAR LROD 312200Z AUTO 04004KT 9999 BKN047/// 02/00 Q1028=
201812312230 METAR LROD 312230Z AUTO 05004KT 9999 OVC048/// 02/00 Q1028=
201812312300 METAR LROD 312300Z AUTO 06002KT 020V090 9999 BKN049/// 02/00
                        Q1028=
201812312330 METAR LROD 312330Z AUTO 03003KT 9999 OVC047/// 02/00 Q1028=
