201812010200 TAF LROD 010200Z 0103/0112 VRB04KT CAVOK=
201812010500 TAF LROD 010500Z 0106/0115 11007KT CAVOK=
201812010800 TAF LROD 010800Z 0109/0118 11007KT CAVOK=
201812011100 TAF LROD 011100Z 0112/0121 VRB04KT CAVOK=
201812011400 TAF LROD 011400Z 0115/0124 VRB04KT CAVOK=
201812011700 TAF LROD 011700Z 0118/0203 VRB04KT 9999 BKN040
                      PROB30 TEMPO 0123/0203 BKN015 BKN030=
201812012000 TAF LROD 012000Z NIL=
201812012011 TAF AMD LROD 012011Z 0120/0203 CNL=
201812012300 TAF LROD 012300Z NIL=
201812020200 TAF LROD 020200Z 0203/0212 VRB04KT 9999 BKN030
                      PROB40 TEMPO 0203/0205 3000 BR BKN015 BKN030=
201812020500 TAF LROD 020500Z 0206/0215 11005KT CAVOK=
201812020800 TAF LROD 020800Z 0209/0218 10004KT CAVOK=
201812021100 TAF LROD 021100Z 0212/0221 VRB04KT CAVOK=
201812021400 TAF LROD 021400Z 0215/0224 VRB04KT CAVOK=
201812021700 TAF LROD 021700Z 0218/0303 VRB04KT CAVOK
                      BECMG 0220/0222 19010KT=
201812022000 TAF LROD 022000Z NIL=
201812022018 TAF AMD LROD 022018Z 0220/0303 CNL=
201812022300 TAF LROD 022300Z NIL=
201812030200 TAF LROD 030200Z 0303/0312 VRB04KT 9999 BKN045
                      BECMG 0303/0305 21012KT=
201812030500 TAF LROD 030500Z 0306/0315 19015KT 9999 BKN045
                      PROB30 TEMPO 0306/0309 5000 RA BKN015 OVC030=
201812030800 TAF LROD 030800Z 0309/0318 19012KT CAVOK
                      BECMG 0315/0317 5000 -RA BR BKN015 OVC040=
201812031100 TAF LROD 031100Z 0312/0321 20014KT CAVOK
                      BECMG 0316/0318 5000 -RA BR BKN015 OVC040=
201812031400 TAF LROD 031400Z 0315/0324 20006KT CAVOK
                      TEMPO 0316/0318 5000 RA BR BKN015 OVC040
                       PROB40
                      TEMPO 0321/0324 3000 RA BR BKN010 OVC025=
201812031700 TAF LROD 031700Z 0318/0403 19006KT 9999 BKN045
                      TEMPO 0320/0324 5000 -RA BKN015 OVC040
                      TEMPO 0400/0403 5000 -RA BR BKN010 OVC030=
201812032000 TAF LROD 032000Z NIL=
201812032007 TAF AMD LROD 032007Z 0320/0403 CNL=
201812032300 TAF LROD 032300Z NIL=
201812040200 TAF LROD 040200Z 0403/0412 15006KT 9999 BKN030
                      TEMPO 0403/0406 5000 BR BKN010 OVC025
                      TEMPO 0406/0412 3000 -RA BR BKN005 OVC020=
201812040500 TAF LROD 040500Z 0406/0415 VRB04KT 9999 BKN035
                      BECMG 0409/0411 22010KT 5000 -RA BR BKN005
                       OVC020
                      TEMPO 0411/0415 3000 RA BKN002 OVC025=
201812040800 TAF LROD 040800Z 0409/0418 VRB04KT 5000 -RA BKN035
                      BECMG 0409/0411 22010KT BKN010 OVC020
                      TEMPO 0412/0417 3000 RA BKN005 OVC025=
201812041100 TAF LROD 041100Z 0412/0421 22007KT 5000 -RA BKN035
                      BECMG 0412/0414 BKN010 OVC020
                      TEMPO 0414/0417 3000 RA BKN005 OVC025=
201812041400 TAF LROD 041400Z 0415/0424 22007KT 5000 BR BKN010 OVC025
                      PROB40 0415/0418 3000 RADZ BKN005 OVC025
                       BECMG 0420/0422 35012KT 9999 NSW=
201812041700 TAF LROD 041700Z 0418/0503 22007KT 3000 -RA BR BKN010 OVC025
                      TEMPO 0418/0421 1500 DZ BR BKN005 OVC025
                       BECMG 0422/0424 01012KT 9999 NSW SCT020=
201812042000 TAF LROD 042000Z NIL=
201812042016 TAF AMD LROD 042016Z 0420/0503 CNL=
201812042300 TAF LROD 042300Z NIL=
201812050200 TAF LROD 050200Z 0503/0512 01010KT 9999 BKN015 OVC025
                      TEMPO 0503/0507 5000 -RA BR BKN010 OVC020=
201812050500 TAF LROD 050500Z 0506/0515 01014KT 9999 SCT045
                      TEMPO 0509/0513 01015G25KT=
201812050800 TAF LROD 050800Z 0509/0518 36012KT CAVOK=
201812051100 TAF LROD 051100Z 0512/0521 36015KT CAVOK
                      TEMPO 0512/0514 36015G25KT
                      BECMG 0520/0521 02005KT=
201812051400 TAF LROD 051400Z 0515/0524 01014KT CAVOK
                      BECMG 0522/0524 02004KT 5000 BR=
201812051700 TAF LROD 051700Z 0518/0603 03005KT CAVOK
                      TEMPO 0600/0603 5000 BR=
201812052000 TAF LROD 052000Z NIL=
201812052010 TAF AMD LROD 052010Z 0520/0603 CNL=
201812052300 TAF LROD 052300Z NIL=
201812060200 TAF LROD 060200Z 0603/0612 VRB04KT 5000 BR SCT045
                      TEMPO 0603/0606 1500 BR
                      BECMG 0606/0608 CAVOK=
201812060500 TAF LROD 060500Z 0606/0615 VRB04KT CAVOK=
201812060800 TAF LROD 060800Z 0609/0618 10006KT CAVOK=
201812061100 TAF LROD 061100Z 0612/0621 VRB04KT CAVOK=
201812061400 TAF LROD 061400Z 0615/0624 VRB04KT CAVOK
                      TEMPO 0620/0624 3000 BR=
201812061700 TAF LROD 061700Z 0618/0703 VRB04KT CAVOK=
201812062000 TAF LROD 062000Z NIL=
201812062003 TAF AMD LROD 062003Z 0620/0703 CNL=
201812062300 TAF LROD 062300Z NIL=
201812070200 TAF LROD 070200Z 0703/0712 21007KT CAVOK=
201812070500 TAF LROD 070500Z 0706/0715 21007KT 9999 BKN045
                      TEMPO 0709/0712 5000 -RASN BKN020 BKN045=
201812070800 TAF LROD 070800Z 0709/0718 19010KT 9999 BKN045
                      TEMPO 0709/0712 5000 -RASN BKN020 BKN045=
201812071100 TAF LROD 071100Z 0712/0721 19010KT 9999 BKN045=
201812071400 TAF LROD 071400Z 0715/0724 19010KT 9999 BKN045=
201812071700 TAF LROD 071700Z 0718/0803 17008KT CAVOK=
201812072000 TAF LROD 072000Z NIL=
201812072004 TAF AMD LROD 072004Z 0720/0803 CNL=
201812072300 TAF LROD 072300Z NIL=
201812080200 TAF LROD 080200Z 0803/0812 18008KT CAVOK
                      BECMG 0806/0808 5000 -RA BKN010 OVC030
                      TEMPO 0808/0812 3000 RA BKN005 OVC020=
201812080500 TAF LROD 080500Z 0806/0815 18010KT 9999 SCT045
                      BECMG 0806/0808 5000 -RA BKN010 OVC030
                      TEMPO 0808/0812 3000 RA BKN005 OVC020=
201812080800 TAF LROD 080800Z 0809/0818 21010KT 9999 BKN030
                      TEMPO 0809/0811 5000 -SHRA BKN015 FEW025CB
                       OVC030
                      BECMG 0810/0812 VRB04KT
                      TEMPO 0811/0813 5000 -RA BKN015 BKN040
                      BECMG 0814/0816 3000 BR BKN010 BKN030=
201812081100 TAF LROD 081100Z 0812/0821 21008KT 9999 -RA BKN030
                      TEMPO 0812/0814 5000 -RA BR BKN015 BKN030
                       BECMG 0815/0817 3000 BR BKN010 BKN025
                      TEMPO 0818/0821 0800 FG BKN002=
201812081400 TAF LROD 081400Z 0815/0824 26008KT 5000 BR BKN005 OVC010
                      TEMPO 0815/0816 3000 -RADZ
                      BECMG 0816/0818 1500 BR OVC002
                      BECMG 0819/0821 0600 FG VV001=
201812081700 TAF LROD 081700Z 0818/0903 VRB04KT 3000 BR BKN005
                      BECMG 0819/0821 0800 FG OVC002
                      TEMPO 0823/0903 0350 FZFG VV001=
201812082000 TAF LROD 082000Z NIL=
201812082006 TAF AMD LROD 082006Z 0820/0903 CNL=
201812082300 TAF LROD 082300Z NIL=
201812090200 TAF LROD 090200Z 0903/0912 VRB04KT 1500 BR BKN005
                      TEMPO 0903/0906 0350 FZFG VV001
                      BECMG 0906/0908 3000 BR BKN010=
201812090500 TAF LROD 090500Z 0906/0915 19010KT 5000 BR BKN045
                      PROB40 TEMPO 0906/0908 1500 BR BKN002
                      BECMG 0908/0910 7000 NSW=
201812090800 TAF LROD 090800Z 0909/0918 19012KT CAVOK=
201812091100 TAF LROD 091100Z 0912/0921 19015KT CAVOK
                      BECMG 0918/0920 5000 BR BKN010=
201812091400 TAF LROD 091400Z 0915/0924 19012KT CAVOK
                      BECMG 0918/0920 5000 BR BKN010
                      TEMPO 0922/0924 1500 -RADZ BR BKN005 OVC010=
201812091700 TAF LROD 091700Z 0918/1003 19012KT 9999 BKN040
                      PROB30 TEMPO 0918/0921 5000 -RA BR
                      TEMPO 0923/1003 5000 -RA BR BKN015 OVC035=
201812092000 TAF LROD 092000Z NIL=
201812092003 TAF AMD LROD 092003Z 0920/1003 CNL=
201812092300 TAF LROD 092300Z NIL=
201812100200 TAF LROD 100200Z 1003/1012 20008KT 9999 BKN045
                      PROB40 TEMPO 1003/1008 5000 -RA BKN015 OVC045=
201812100500 TAF LROD 100500Z 1006/1015 20010KT 9999 BKN045
                      PROB30 TEMPO 1006/1010 5000 -RA BKN015 OVC045
                       BECMG 1010/1012 VRB04KT
                      TEMPO 1012/1015 5000 -RA BKN015 BKN045=
201812100800 TAF LROD 100800Z 1009/1018 22010KT 9999 BKN045
                      BECMG 1010/1012 VRB04KT
                      TEMPO 1012/1016 5000 -RA BKN015 BKN045=
201812101100 TAF LROD 101100Z 1012/1021 28006KT 9999 BKN045
                      PROB30 TEMPO 1012/1016 5000 -RA BKN015 BKN045=
201812101400 TAF LROD 101400Z 1015/1024 33006KT 9999 BKN035
                      TEMPO 1015/1017 5000 -RA BKN015 BKN025
                      BECMG 1018/1020 5000 BR
                      BECMG 1022/1024 3000 BR BKN010=
201812101700 TAF LROD 101700Z 1018/1103 32006KT 9999 -RA BKN035
                      BECMG 1019/1021 5000 BR
                      BECMG 1022/1024 3000 BR BKN010
                      PROB30 TEMPO 1100/1103 1500 BR BKN005=
201812102000 TAF LROD 102000Z NIL=
201812102008 TAF AMD LROD 102008Z 1020/1103 CNL=
201812102300 TAF LROD 102300Z NIL=
201812110200 TAF LROD 110200Z 1103/1112 22006KT 5000 BR BKN045
                      TEMPO 1103/1107 1500 BR BKN005
                      PROB30 TEMPO 1103/1106 0600 -SN FG BKN002
                       OVC005
                      BECMG 1108/1110 8000 NSW=
201812110500 TAF LROD 110500Z 1106/1115 16006KT 9999 BKN045
                      BECMG 1107/1109 5000 -SN BKN010 OVC025=
201812110800 TAF LROD 110800Z 1109/1118 19008KT 9999 BKN010 BKN045
                      TEMPO 1109/1111 5000 -SN BR BKN002 OVC030
                       BECMG 1116/1118 5000 -SN BR BKN005 OVC030=
201812111100 TAF LROD 111100Z 1112/1121 19008KT 9999 BKN010 BKN045
                      BECMG 1116/1118 5000 -SN BR BKN005 OVC030=
201812111400 TAF LROD 111400Z 1115/1124 19008KT 9999 BKN010 BKN045
                      BECMG 1116/1118 5000 -SN BR BKN005 OVC030
                       TEMPO 1120/1124 3000 -SN BR BKN002 OVC010=
201812111700 TAF LROD 111700Z 1118/1203 19010KT 9999 -RA BKN015 BKN040
                      TEMPO 1118/1120 5000 -RASN BKN010 OVC030
                       BECMG 1120/1122 3000 -SN BR BKN005 OVC025
                       PROB40
                      TEMPO 1123/1203 1500 SN BKN002 OVC010=
201812112000 TAF LROD 112000Z NIL=
201812112007 TAF AMD LROD 112007Z 1120/1203 CNL=
201812112300 TAF LROD 112300Z 1200/1209 19010KT 5000 -RASN BKN010 OVC030
                      BECMG 1200/1202 3000 -SN BKN005 OVC025
                      TEMPO 1202/1207 1500 SN BKN002 OVC020
                      BECMG 1207/1209 9999 NSW BKN030=
201812120200 TAF LROD 120200Z 1203/1212 19010KT 5000 -SN BKN010 OVC030
                      TEMPO 1203/1207 1500 SN BKN002 OVC020
                      BECMG 1210/1212 9999 NSW BKN030=
201812120500 TAF LROD 120500Z 1206/1215 19006KT 5000 -SN BR BKN010 OVC020
                      TEMPO 1206/1210 1500 SN BKN002 OVC010=
201812120800 TAF LROD 120800Z 1209/1218 VRB04KT 9999 BKN015 OVC035
                      TEMPO 1209/1212 5000 -RA -RASN BKN005 OVC015=
201812121100 TAF LROD 121100Z 1212/1221 VRB04KT 9999 BKN010 OVC035
                      TEMPO 1212/1216 5000 -RA -RASN BKN005 OVC015=
201812121400 TAF LROD 121400Z 1215/1224 VRB04KT 5000 BR BKN010
                      TEMPO 1216/1220 1500 BR BKN005 OVC015=
201812121700 TAF LROD 121700Z 1218/1303 VRB04KT 5000 BR BKN010
                      TEMPO 1218/1221 1500 BR BKN005 OVC015=
201812122000 TAF LROD 122000Z NIL=
201812122005 TAF AMD LROD 122005Z 1220/1303 CNL=
201812122300 TAF LROD 122300Z NIL=
201812130200 TAF LROD 130200Z 1303/1312 29006KT 5000 BR SCT025
                      TEMPO 1303/1307 1500 BR BKN005
                      BECMG 1307/1309 9999 NSW=
201812130500 TAF LROD 130500Z 1306/1315 29006KT 1500 BR OVC005
                      TEMPO 1306/1307 0600 FZFG VV002
                      BECMG 1307/1309 7000 NSW SCT020=
201812130800 TAF LROD 130800Z 1309/1318 VRB04KT 1500 BR OVC005
                      TEMPO 1309/1310 0600 FZFG OVC002
                      BECMG 1310/1312 5000 BR BKN010=
201812131100 TAF LROD 131100Z 1312/1321 VRB04KT 3000 BR BKN005
                      TEMPO 1312/1315 7000 NSW BKN010=
201812131400 TAF LROD 131400Z 1315/1324 VRB04KT 3000 BR SCT025
                      BECMG 1318/1320 1500 BR BKN005=
201812131700 TAF LROD 131700Z 1318/1403 VRB04KT 0350 FZFG VV001
                      TEMPO 1318/1321 0800 SCT002=
201812131901 TAF AMD LROD 131901Z 1319/1403 VRB04KT 3000 BR SCT025
                      TEMPO 1319/1324 1500 BR BKN005=
201812132000 TAF LROD 132000Z NIL=
201812132008 TAF AMD LROD 132008Z 1320/1403 CNL=
201812132300 TAF LROD 132300Z NIL=
201812140200 TAF LROD 140200Z 1403/1412 VRB04KT CAVOK
                      TEMPO 1403/1407 3000 BR
                      BECMG 1408/1410 04010KT=
201812140500 TAF LROD 140500Z 1406/1415 05006KT CAVOK
                      TEMPO 1406/1408 5000 BR=
201812140800 TAF LROD 140800Z 1409/1418 VRB04KT CAVOK=
201812141100 TAF LROD 141100Z 1412/1421 02006KT CAVOK=
201812141400 TAF LROD 141400Z 1415/1424 02008KT CAVOK=
201812141700 TAF LROD 141700Z 1418/1503 03008KT CAVOK
                      BECMG 1423/1501 5000 -SN BKN010 OVC030
                      TEMPO 1501/1503 1500 SN BKN005 OVC025=
201812142000 TAF LROD 142000Z NIL=
201812142002 TAF AMD LROD 142002Z 1420/1503 CNL=
201812142300 TAF LROD 142300Z NIL=
201812150200 TAF LROD 150200Z 1503/1512 06005KT 3000 -SN SCT010 BKN025
                      TEMPO 1503/1506 1500 SN BKN010 BKN020
                      TEMPO 1507/1512 5000=
201812150500 TAF LROD 150500Z 1506/1515 08008KT 3000 -SN BKN002 OVC005
                      TEMPO 1506/1511 1500 SN
                      PROB40 TEMPO 1511/1515 0800 +SN VV001=
201812150800 TAF LROD 150800Z 1509/1518 06005KT 3000 SN BR BKN015 OVC020
                      TEMPO 1510/1516 0800 SN BKN002 OVC010=
201812151100 TAF LROD 151100Z 1512/1521 06005KT 3000 SN BR BKN015 OVC020
                      TEMPO 1512/1516 0800 +SN BKN002 OVC010
                      BECMG 1516/1518 1500 SN BKN002 OVC010=
201812151400 TAF LROD 151400Z 1515/1524 06005KT 3000 -RASN BR BKN010 OVC020
                       BECMG 1515/1517 1500 SN BKN005 OVC010
                      TEMPO 1520/1524 0600 +SN VV001=
201812151700 TAF LROD 151700Z 1518/1603 VRB04KT 1000 -SN BR BKN005 OVC010
                      TEMPO 1518/1523 0350 +SN BKN002 OVC010=
201812152000 TAF LROD 152000Z NIL=
201812152007 TAF AMD LROD 152007Z 1520/1603 CNL=
201812152300 TAF LROD 152300Z NIL=
201812160200 TAF LROD 160200Z 1603/1612 VRB04KT 3000 -SN BKN010 OVC020
                      TEMPO 1603/1608 1500 SN BKN005 OVC015
                      BECMG 1610/1612 7000 BKN015 OVC025=
201812160500 TAF LROD 160500Z 1606/1615 VRB04KT 3000 -SN BKN005 OVC020
                      TEMPO 1606/1608 1500 SN BKN002 OVC015
                      BECMG 1612/1614 7000 NSW BKN015 OVC025=
201812160800 TAF LROD 160800Z 1609/1618 VRB04KT 3000 -SNRA BKN015 OVC020
                      BECMG 1612/1614 7000 NSW BKN025=
201812161100 TAF LROD 161100Z 1612/1621 VRB04KT 3000 -SNRA BKN005 OVC015
                      TEMPO 1612/1616 7000 NSW BKN010 BKN020
                      BECMG 1617/1619 1500 BR=
201812161400 TAF LROD 161400Z 1615/1624 VRB04KT 3000 -RASN BKN005 OVC015
                      BECMG 1615/1617 1500 BR BKN002
                      PROB40 TEMPO 1617/1624 0600 FZFG VV001=
201812161700 TAF LROD 161700Z 1618/1703 VRB04KT 3000 BR BKN005
                      BECMG 1619/1621 0800 FZFG BKN002
                      TEMPO 1623/1703 0300 FZFG VV001=
201812162000 TAF LROD 162000Z NIL=
201812162005 TAF AMD LROD 162005Z 1620/1703 CNL=
201812162300 TAF LROD 162300Z NIL=
201812170200 TAF LROD 170200Z NIL=
201812170311 TAF LROD 170311Z 1703/1712 VRB04KT 5000 BR OVC003
                      TEMPO 1703/1705 1500 BR OVC002
                      BECMG 1706/1708 9999 NSW BKN010=
201812170500 TAF LROD 170500Z 1706/1715 VRB04KT 1500 BR BKN001
                      BECMG 1707/1709 5000 BKN005
                      BECMG 1709/1711 8000 NSW SCT005 BKN020=
201812170641 TAF AMD LROD 170641Z 1706/1715 32005KT 0600 FZFG BKN001 OVC003
                       BECMG 1707/1709 1500 BR SCT002 BKN005
                      BECMG 1709/1711 5000 SCT005 BKN030=
201812170800 TAF LROD 170800Z 1709/1718 32006KT 0600 FZFG OVC002
                      BECMG 1709/1711 1500 BR SCT002 OVC005
                      BECMG 1711/1713 3000 SCT005 BKN020=
201812171100 TAF LROD 171100Z 1712/1721 32006KT 3000 BR BKN002 OVC005
                      BECMG 1712/1714 5000 SCT005 BKN010
                      BECMG 1716/1718 1500 BR=
201812171226 TAF AMD LROD 171226Z 1712/1721 35006KT 0350 FZFG VV001
                      TEMPO 1713/1716 1500 BCFG BR BKN002 OVC005=
201812171400 TAF LROD 171400Z 1715/1724 35006KT 1500 BR BKN002 OVC005
                      TEMPO 1715/1718 0400 BCFG OVC001=
201812171700 TAF LROD 171700Z 1718/1803 33006KT 5000 BR OVC005
                      BECMG 1719/1721 3000 BR
                      TEMPO 1801/1803 1500 BR BKN002 BKN005=
201812172000 TAF LROD 172000Z NIL=
201812172010 TAF AMD LROD 172010Z 1720/1803 CNL=
201812172300 TAF LROD 172300Z NIL=
201812180200 TAF LROD 180200Z 1803/1812 27007KT 3000 BR BKN005
                      TEMPO 1803/1807 1500 BR BKN001
                      BECMG 1808/1810 9999 NSW SCT015=
201812180500 TAF LROD 180500Z 1806/1815 VRB04KT 0600 FZFG OVC001
                      TEMPO 1806/1808 0300 FZFG
                      BECMG 1808/1810 1500 BR BKN005
                      BECMG 1810/1812 5000 BKN010=
201812180800 TAF LROD 180800Z 1809/1818 VRB04KT 3000 BR BKN005
                      BECMG 1809/1811 7000 NSW SCT020
                      BECMG 1814/1816 3000 BR BKN010
                      TEMPO 1816/1818 1500 BR BKN005=
201812181100 TAF LROD 181100Z 1812/1821 VRB04KT 2000 BR NSC
                      BECMG 1813/1815 0800=
201812181321 TAF AMD LROD 181321Z 1813/1821 VRB04KT 0300 FZFG VV001=
201812181400 TAF LROD 181400Z 1815/1824 20006KT 0300 FZFG VV001
                      PROB30 TEMPO 1815/1818 0800 BKN003=
201812181700 TAF LROD 181700Z 1818/1903 19005KT 5000 BR SCT002 BKN040
                      BECMG 1819/1821 1500 BR BKN002
                      BECMG 1821/1823 0800 FZFG
                      TEMPO 1900/1903 0350 FZFG VV001=
201812182000 TAF LROD 182000Z NIL=
201812182005 TAF AMD LROD 182005Z 1820/1903 CNL=
201812182300 TAF LROD 182300Z NIL=
201812190200 TAF LROD 190200Z 1903/1912 VRB04KT 1500 BR BKN005
                      TEMPO 1903/1906 0600 FZFG OVC002
                      BECMG 1907/1909 3000 BKN010=
201812190500 TAF LROD 190500Z 1906/1915 VRB04KT 5000 BR BKN035
                      TEMPO 1906/1908 1500 BR
                      BECMG 1909/1911 7000 NSW=
201812190800 TAF LROD 190800Z 1909/1918 VRB04KT 0600 FZFG BKN035
                      TEMPO 1909/1910 1500 BR
                      BECMG 1910/1912 3000 BR
                      PROB40 TEMPO 1912/1915 5000=
201812191100 TAF LROD 191100Z 1912/1921 VRB04KT 0800 FZFG OVC002
                      TEMPO 1912/1914 1500 BR BKN005
                      BECMG 1915/1917 0350 FZFG VV001=
201812191400 TAF LROD 191400Z 1915/1924 VRB04KT 1500 BR BKN030
                      BECMG 1915/1917 0800 FZFG BKN005
                      BECMG 1917/1919 0350 FZFG VV001=
201812191700 TAF LROD 191700Z 1918/2003 VRB04KT 3000 BR BKN030
                      BECMG 1919/1921 1500 BR BKN005
                      TEMPO 1923/2003 0600 FZFG OVC002=
201812192000 TAF AMD LROD 192000Z 1920/2003 CNL=
201812192300 TAF LROD 192300Z NIL=
201812200200 TAF LROD 200200Z 2003/2012 VRB04KT 3000 BR BKN030
                      PROB30 TEMPO 2003/2006 0800 FZFG VV002
                      BECMG 2006/2008 5000=
201812200500 TAF LROD 200500Z 2006/2015 VRB04KT 3000 BR NSC
                      BECMG 2006/2008 9999 NSW=
201812200800 TAF LROD 200800Z 2009/2018 VRB04KT 3000 BR NSC
                      TEMPO 2009/2011 1500 BR BKN005
                      TEMPO 2011/2014 7000 NSW=
201812201100 TAF LROD 201100Z 2012/2021 VRB04KT 3000 BR NSC=
201812201400 TAF LROD 201400Z 2015/2024 VRB04KT 3000 BR NSC=
201812201700 TAF LROD 201700Z 2018/2103 VRB04KT 5000 BR NSC
                      TEMPO 2020/2103 1500 BR BKN005=
201812202000 TAF LROD 202000Z NIL=
201812202013 TAF AMD LROD 202013Z 2020/2103 CNL=
201812202300 TAF LROD 202300Z NIL=
201812210200 TAF LROD 210200Z 2103/2112 VRB04KT 5000 BR BKN045
                      TEMPO 2103/2106 1500 BR BKN010 BKN045=
201812210500 TAF LROD 210500Z 2106/2115 VRB04KT 5000 BR BKN020 OVC030
                      PROB30 TEMPO 2106/2108 1500 -FZRA BR BKN015
                       OVC020
                      BECMG 2108/2110 19010KT 7000 NSW=
201812210800 TAF LROD 210800Z 2109/2118 VRB04KT 5000 BR BKN020 OVC035
                      PROB30 TEMPO 2109/2111 3000 -RA BR BKN015
                       OVC020
                      BECMG 2111/2113 19010KT=
201812211100 TAF LROD 211100Z 2112/2121 VRB04KT 9999 BKN035
                      BECMG 2112/2114 19010KT=
201812211400 TAF LROD 211400Z 2115/2124 VRB04KT 9999 BKN035
                      BECMG 2115/2117 19010KT=
201812211700 TAF LROD 211700Z 2118/2203 14008KT 9999 BKN030
                      BECMG 2118/2120 20012KT
                      TEMPO 2123/2203 20015G25KT
                      BECMG 2200/2202 5000 -RA BR BKN015 OVC025=
201812212000 TAF LROD 212000Z NIL=
201812212006 TAF AMD LROD 212006Z 2120/2203 CNL=
201812212300 TAF LROD 212300Z NIL=
201812220200 TAF LROD 220200Z 2203/2212 20016KT 9999 BKN045
                      TEMPO 2203/2206 5000 -RA BR BKN015 BKN040
                       BECMG 2208/2210 5000 -RA BR BKN015 BKN040=
201812220500 TAF LROD 220500Z 2206/2215 21016KT 9999 BKN045
                      TEMPO 2211/2215 5000 -RA BR BKN015 BKN040=
201812220800 TAF LROD 220800Z 2209/2218 21016KT 9999 BKN045
                      TEMPO 2211/2216 5000 -RA BR BKN015 BKN040=
201812221100 TAF LROD 221100Z 2212/2221 21018KT 9999 BKN045
                      PROB30 TEMPO 2212/2218 5000 -RA BR BKN015
                       BKN040=
201812221400 TAF LROD 221400Z 2215/2224 20015KT 9999 BKN045
                      PROB30 TEMPO 2215/2218 5000 -RA BR BKN015
                       BKN040=
201812221700 TAF LROD 221700Z 2218/2303 20016KT 9999 -RA BKN045
                      BECMG 2223/2301 26006KT 5000 BR BKN010=
201812222000 TAF AMD LROD 222000Z 2220/2303 CNL=
201812222300 TAF LROD 222300Z NIL=
201812230200 TAF LROD 230200Z 2303/2312 24008KT 9999 BKN045
                      TEMPO 2303/2306 5000 BR BKN010=
201812230500 TAF LROD 230500Z 2306/2315 23008KT CAVOK
                      PROB40 TEMPO 2308/2312 5000 -RA BR BKN015
                       OVC040=
201812230800 TAF LROD 230800Z 2309/2318 20008KT 9999 BKN035
                      PROB40 TEMPO 2309/2312 5000 -RA BR BKN015
                       OVC040=
201812231100 TAF LROD 231100Z 2312/2321 22010KT 9999 BKN035=
201812231400 TAF LROD 231400Z 2315/2324 VRB03KT 9999 BKN035
                      BECMG 2322/2324 20012KT 5000 -RA BR BKN010
                       OVC040=
201812231700 TAF LROD 231700Z 2318/2403 22008KT 9999 BKN035
                      BECMG 2322/2324 5000 -RA BR BKN010 OVC040
                       TEMPO 2400/2403 1500 RA BR BKN005 OVC030=
201812232000 TAF LROD 232000Z NIL=
201812232013 TAF AMD LROD 232013Z 2320/2403 CNL=
201812232300 TAF LROD 232300Z NIL=
201812240200 TAF LROD 240200Z 2403/2412 17010KT 9999 SCT040
                      BECMG 2403/2405 3000 -RA BR BKN010 OVC030
                       BECMG 2410/2412 32012KT 5000 BR BKN015=
201812240500 TAF LROD 240500Z 2406/2415 19012KT 7000 -RA SCT025 BKN045
                      TEMPO 2406/2409 3000 RA BR BKN010 OVC030
                       BECMG 2409/2411 34015KT 5000 -RASN BR BKN015
                       OVC035
                      PROB30 TEMPO 2411/2413 34018G28KT 3000 SN
                       BKN005 OVC025
                      BECMG 2413/2415 CAVOK=
201812240800 TAF LROD 240800Z 2409/2418 23015KT 7000 -RA BKN015 BKN035
                      TEMPO 2409/2410 3000 RA BR BKN010 OVC030
                       BECMG 2410/2412 34015KT 5000 -RASN BR BKN015
                       OVC035
                      TEMPO 2412/2414 34018G28KT 3000 SN BKN005
                       OVC025
                      BECMG 2414/2416 CAVOK=
201812241100 TAF LROD 241100Z 2412/2421 34014KT 7000 -RASN BKN010 BKN035
                      TEMPO 2412/2415 34017G27KT 3000 SN BR BKN005
                       OVC025
                      BECMG 2415/2417 9999 NSW SCT035=
201812241400 TAF LROD 241400Z 2415/2424 34013KT 9999 SCT035
                      TEMPO 2415/2417 5000 -RA BR BKN010 OVC035
                       TEMPO 2415/2418 34017G27KT=
201812241700 TAF LROD 241700Z 2418/2503 35010KT CAVOK=
201812242000 TAF LROD 242000Z NIL=
201812242005 TAF AMD LROD 242005Z 2420/2503 CNL=
201812242300 TAF LROD 242300Z NIL=
201812250200 TAF LROD 250200Z 2503/2512 30006KT CAVOK=
201812250500 TAF LROD 250500Z 2506/2515 VRB04KT CAVOK=
201812250800 TAF LROD 250800Z 2509/2518 VRB04KT CAVOK=
201812251100 TAF LROD 251100Z 2512/2521 VRB04KT CAVOK=
201812251400 TAF LROD 251400Z 2515/2524 26008KT CAVOK
                      BECMG 2522/2524 19010KT=
201812251700 TAF LROD 251700Z 2518/2603 21008KT CAVOK
                      BECMG 2520/2522 5000 BR BKN015 BKN035
                      TEMPO 2523/2603 1500 BR BKN005 OVC020=
201812252000 TAF LROD 252000Z NIL=
201812252004 TAF AMD LROD 252004Z 2520/2603 CNL=
201812252300 TAF LROD 252300Z NIL=
201812260200 TAF LROD 260200Z 2603/2612 21010KT 7000 -SN BKN010 BKN030
                      TEMPO 2603/2606 3000 -SN BR BKN005 OVC020
                       BECMG 2607/2609 9999 NSW BKN020=
201812260500 TAF LROD 260500Z 2606/2615 20010KT 9999 BKN005 BKN020
                      BECMG 2608/2610 BKN015 BKN030=
201812260800 TAF LROD 260800Z 2609/2618 20010KT 9999 BKN010 BKN020
                      BECMG 2611/2613 BKN015 BKN020=
201812261100 TAF LROD 261100Z 2612/2621 20012KT 9999 BKN010
                      TEMPO 2612/2615 BKN020=
201812261400 TAF LROD 261400Z 2615/2624 20010KT 9999 BKN035
                      BECMG 2620/2622 5000 BR=
201812261700 TAF LROD 261700Z 2618/2703 20010KT 9999 SCT025
                      BECMG 2620/2622 3000 BR=
201812262000 TAF LROD 262000Z NIL=
201812262010 TAF AMD LROD 262010Z 2620/2703 CNL=
201812262300 TAF LROD 262300Z NIL=
201812270200 TAF LROD 270200Z 2703/2712 20008KT 9999 OVC040
                      PROB30 TEMPO 2703/2706 5000 BR=
201812270500 TAF LROD 270500Z 2706/2715 20008KT 9999 OVC040
                      TEMPO 2706/2708 5000 BR=
201812270800 TAF LROD 270800Z 2709/2718 19008KT 9999 BKN035=
201812271100 TAF LROD 271100Z 2712/2721 19012KT CAVOK=
201812271400 TAF LROD 271400Z 2715/2724 20012KT 9999 BKN025=
201812271700 TAF LROD 271700Z 2718/2803 20010KT 9999 SCT010 SCT045=
201812272000 TAF LROD 272000Z NIL=
201812272019 TAF AMD LROD 272019Z 2720/2803 CNL=
201812272300 TAF LROD 272300Z NIL=
201812280200 TAF LROD 280200Z 2803/2812 20010KT 5000 BR BKN010
                      TEMPO 2803/2806 1500 BR BKN005
                      BECMG 2806/2808 9999 NSW BKN020
                      TEMPO 2808/2812 5000 -RA BR BKN010 OVC025=
201812280500 TAF LROD 280500Z 2806/2815 20012KT 5000 BR BKN015 BKN025
                      TEMPO 2807/2812 3000 -RA BR BKN010 OVC025=
201812280800 TAF LROD 280800Z 2809/2818 20012KT 7000 SCT015 BKN030
                      TEMPO 2809/2816 5000 -RA BR BKN010 OVC025
                       BECMG 2815/2817 3000 RA=
201812281100 TAF LROD 281100Z 2812/2821 20012KT 7000 SCT015 BKN030
                      TEMPO 2812/2815 5000 -RA BR BKN010 OVC025
                       BECMG 2815/2817 VRB04KT 3000 RA BKN010 OVC025=
201812281400 TAF LROD 281400Z 2815/2824 20012KT 7000 SCT015 BKN030
                      BECMG 2815/2817 VRB04KT
                      TEMPO 2815/2824 5000 -RA BR BKN010 OVC025
                       PROB40
                      TEMPO 2815/2818 3000 SHRA BKN010 SCT025CB
                       BKN035=
201812281700 TAF LROD 281700Z 2818/2903 VRB04KT 5000 -RA BR BKN010 BKN030
                      TEMPO 2818/2821 3000 RA BKN005 OVC025
                      BECMG 2821/2823 3000 BR BKN003 OVC020
                      TEMPO 2823/2903 1500 -RADZ OVC002=
201812282000 TAF LROD 282000Z NIL=
201812282018 TAF AMD LROD 282018Z 2820/2903 CNL=
201812282300 TAF LROD 282300Z NIL=
201812290200 TAF LROD 290200Z 2903/2912 VRB04KT 1500 BR OVC002
                      TEMPO 2903/2907 0600 FG DZ VV001
                      BECMG 2907/2909 5000 BR BKN010=
201812290500 TAF LROD 290500Z 2906/2915 VRB04KT 0800 FG OVC002
                      TEMPO 2906/2908 0600 FG OVC001
                      BECMG 2908/2910 3000 BR BKN007
                      BECMG 2910/2912 5000 BKN015
                      BECMG 2913/2915 1500 BR BKN005=
201812290800 TAF LROD 290800Z 2909/2918 VRB04KT 0300 FG OVC001
                      BECMG 2910/2912 1500 BR BKN005
                      PROB40 TEMPO 2912/2915 5000 BKN015
                      BECMG 2915/2917 0350 FG OVC001=
201812291100 TAF LROD 291100Z 2912/2921 VRB04KT 5000 BR BKN005
                      TEMPO 2912/2915 9999 NSW SCT010
                      BECMG 2915/2917 1500 BR OVC002
                      BECMG 2917/2919 0600 FG OVC001
                      TEMPO 2919/2921 0300 FG=
201812291400 TAF LROD 291400Z 2915/2924 VRB04KT 9999 SCT010
                      BECMG 2916/2918 3000 BR
                      BECMG 2918/2920 1500 BR BKN005
                      BECMG 2919/2921 0600 FG OVC002
                      PROB40 TEMPO 2921/2924 0350 FG OVC001=
201812291700 TAF LROD 291700Z 2918/3003 VRB04KT CAVOK
                      BECMG 2919/2921 3000 BR BKN010
                      TEMPO 2921/3001 1500 BR OVC005
                      BECMG 3001/3003 20010KT=
201812291932 TAF AMD LROD 291932Z 2919/3003 CNL=
201812292000 TAF LROD 292000Z NIL=
201812292300 TAF LROD 292300Z NIL=
201812300200 TAF LROD 300200Z 3003/3012 20008KT 3000 BR SCT005
                      TEMPO 3003/3007 0800 -DZ FG BKN001
                      PROB30 TEMPO 3007/3010 3000 -RASN BKN010
                       BKN030
                      BECMG 3010/3012 5000 -RA BKN015 BKN035=
201812300500 TAF LROD 300500Z 3006/3015 20008KT 7000 SCT005 BKN010
                      TEMPO 3006/3007 3000 BR BKN005
                      PROB30 TEMPO 3007/3009 3000 -RASN BKN010
                       BKN030
                      TEMPO 3009/3015 5000 -RADZ BKN015 BKN035=
201812300800 TAF LROD 300800Z 3009/3018 20010KT 3000 BR BKN005 BKN010
                      TEMPO 3009/3011 1500 BR BKN002
                      TEMPO 3011/3015 1500 -RADZ BR BKN002 OVC015
                       PROB40
                      TEMPO 3015/3018 1500 -RASN BR=
201812301100 TAF LROD 301100Z 3012/3021 20009KT 3000 -RA BR BKN005 BKN015
                      PROB40 TEMPO 3012/3015 1500 -RADZ BR BKN002
                       OVC015
                      BECMG 3015/3017 1500 -RA BR BKN002 OVC010
                       BECMG 3017/3019 -SN=
201812301226 TAF AMD LROD 301226Z 3012/3021 20009KT 7000 SCT005 BKN015
                      BECMG 3013/3015 3000 BR SCT005 BKN010
                      TEMPO 3015/3017 1500 -RA BR
                      BECMG 3017/3019 1500 -SN BR BKN005 BKN010
                       OVC020=
201812301400 TAF LROD 301400Z 3015/3024 19009KT 5000 BR BKN005 BKN010
                      TEMPO 3015/3017 3000 BR
                      BECMG 3017/3019 1500 BR
                      TEMPO 3019/3024 3000 -RA BR=
201812301700 TAF LROD 301700Z 3018/3103 18008KT 5000 BR BKN005 OVC025
                      BECMG 3018/3020 3000 BR
                      TEMPO 3020/3024 1500 -RA BR
                      TEMPO 3100/3103 1500 BR BKN002=
201812302000 TAF LROD 302000Z NIL=
201812302007 TAF AMD LROD 302007Z 3020/3103 CNL=
201812302300 TAF LROD 302300Z NIL=
201812310200 TAF LROD 310200Z 3103/3112 VRB04KT 5000 BR OVC010
                      TEMPO 3103/3107 3000 -DZ BR OVC005
                      BECMG 3108/3110 9999 NSW BKN015=
201812310500 TAF LROD 310500Z 3106/3115 VRB04KT 3000 BR OVC010
                      TEMPO 3106/3109 1500 -RA BR OVC005
                      BECMG 3109/3111 5000 BKN015
                      TEMPO 3111/3115 7000 NSW BKN020=
201812310800 TAF LROD 310800Z 3109/3118 VRB04KT 5000 BR BKN010 BKN030
                      TEMPO 3111/3115 9999 NSW BKN020
                      TEMPO 3115/3118 3000 -DZ BR BKN005 OVC020=
201812311100 TAF LROD 311100Z 3112/3121 35006KT 5000 BR BKN010
                      TEMPO 3112/3115 9999 NSW BKN020
                      PROB30 TEMPO 3116/3119 3000 -DZ BR BKN005
                       OVC020=
201812311400 TAF LROD 311400Z 3115/3124 36006KT 9999 SCT015 BKN030
                      TEMPO 3115/3119 5000 -RA BR BKN010 BKN020
                       BECMG 3120/3122 3000 BR BKN010=
201812311700 TAF LROD 311700Z 3118/0103 02010KT 9999 BKN015 BKN030
                      PROB30 TEMPO 3118/3121 5000 -RA BR BKN010
                       BKN020
                      TEMPO 3121/3124 5000 BR
                      BECMG 0100/0102 VRB03KT 3000 BR BKN005=
201812312000 TAF LROD 312000Z NIL=
201812312003 TAF AMD LROD 312003Z 3120/0103 CNL=
201812312300 TAF LROD 312300Z NIL=