201901010500 TAF LRSB 010500Z 0106/0206 VRB04KT 5000 BR SCT010 BKN020
                      TEMPO 0106/0107 3000 BR BKN010
                      BECMG 0107/0109 9999 NSW
                      TEMPO 0117/0123 3000 BR=
201901011100 TAF LRSB 011100Z 0112/0212 VRB04KT 9999 SCT020
                      TEMPO 0117/0203 3000 BR BKN005
                      BECMG 0207/0209 30010KT=
201901011700 TAF LRSB 011700Z 0118/0218 VRB04KT CAVOK
                      PROB30 TEMPO 0123/0204 3000 -SN BR BKN015
                       OVC050
                      BECMG 0207/0209 30010KT=
201901012300 TAF LRSB 012300Z 0200/0224 VRB04KT 9999 BKN040
                      PROB30 TEMPO 0201/0205 3000 -SN BR BKN005
                       OVC050
                      BECMG 0206/0208 30010KT NSC=
201901020500 TAF LRSB 020500Z 0206/0306 VRB04KT 9999 BKN050
                      PROB30 TEMPO 0206/0209 5000 -SN BR BKN010
                       OVC040
                      BECMG 0207/0209 31010KT
                      BECMG 0217/0219 VRB04KT
                      TEMPO 0300/0306 5000 -SN BKN010 OVC040=
201901021119 TAF COR LRSB 021119Z 0212/0312 29014KT 9999 BKN040
                      BECMG 0220/0222 VRB04KT BKN015 OVC035
                      TEMPO 0300/0308 5000 -SN BKN010 OVC035
                      PROB30 TEMPO 0302/0306 1500 SN BR BKN005
                       OVC030=
201901021700 TAF LRSB 021700Z 0218/0318 30008KT 9999 BKN050
                      BECMG 0222/0224 5000 -SN BKN015 OVC045
                      PROB30 TEMPO 0302/0306 1500 SN BR BKN005
                       OVC035
                      TEMPO 0311/0318 3000 -SHSN BKN010 FEW030CB
                       BKN045=
201901022300 TAF LRSB 022300Z 0300/0324 VRB04KT 9999 BKN040
                      BECMG 0300/0302 5000 -SN BKN015 OVC035
                      PROB30 TEMPO 0302/0306 3000 -SN BR BKN010
                       OVC030
                      TEMPO 0311/0318 3000 -SHSN BKN010 FEW030CB
                       BKN045
                      BECMG 0318/0320 9999 NSW SCT025 BKN045=
201901030500 TAF LRSB 030500Z 0306/0406 VRB04KT 9999 BKN025
                      PROB40 TEMPO 0306/0310 5000 -SN BKN015 OVC025
                       TEMPO 0310/0316 3000 SN BKN010 OVC025=
201901030822 TAF AMD LRSB 030822Z 0308/0406 VRB04KT 1500 -SN BR BKN010 BKN025
                       TEMPO 0308/0311 0600 SN BKN005 OVC025
                      BECMG 0311/0313 3000
                      BECMG 0318/0320 9999 NSW BKN020=
201901031100 TAF LRSB 031100Z 0312/0412 VRB04KT 7000 SCT010 BKN025
                      TEMPO 0312/0317 3000 -SN BKN005 OVC025=
201901031700 TAF LRSB 031700Z 0318/0418 VRB04KT 5000 -SN BR SCT015 BKN025
                      TEMPO 0318/0322 3000 -SN BKN010 OVC025
                      BECMG 0322/0324 9999 NSW=
201901032300 TAF LRSB 032300Z 0400/0424 VRB04KT 9999 BKN060=
201901040500 TAF LRSB 040500Z 0406/0506 VRB04KT 9999 BKN040=
201901041100 TAF LRSB 041100Z 0412/0512 VRB04KT 9999 BKN030=
201901041700 TAF LRSB 041700Z 0418/0518 VRB04KT 9999 BKN035=
201901042300 TAF LRSB 042300Z 0500/0524 VRB04KT CAVOK
                      BECMG 0516/0518 5000 -SN BKN015 OVC025
                      TEMPO 0521/0524 1500 SN BKN005 OVC025=
201901050500 TAF LRSB 050500Z 0506/0606 VRB04KT CAVOK
                      BECMG 0518/0520 5000 -SN BR BKN015 OVC030
                       TEMPO 0600/0606 1500 SN BKN005 OVC020=
201901051100 TAF LRSB 051100Z 0512/0612 VRB04KT CAVOK
                      BECMG 0518/0520 5000 -SN BR BKN015 OVC030
                       TEMPO 0600/0608 1500 SN BKN005 OVC020=
201901051700 TAF LRSB 051700Z 0518/0618 VRB04KT 9999 BKN035
                      BECMG 0520/0522 5000 -SN BR BKN015 OVC030
                       TEMPO 0600/0608 1500 SN BKN005 OVC020=
201901052300 TAF LRSB 052300Z 0600/0624 VRB04KT 5000 -SN BKN015 OVC030
                      TEMPO 0600/0608 1500 SN BR BKN005 OVC020
                       TEMPO 0613/0619 3000 SN BKN010 OVC025=
201901060500 TAF LRSB 060500Z 0606/0706 34008KT 7000 -SN OVC030
                      TEMPO 0606/0612 1500 -SN BR BKN010 OVC025
                       TEMPO 0612/0615 1500 SN BKN010 OVC020
                      BECMG 0700/0702 9999 NSW=
201901061100 TAF LRSB 061100Z 0612/0712 VRB04KT 7000 -SN SCT010 OVC025
                      TEMPO 0612/0618 32010KT 2000 SN BKN010 OVC020
                       BECMG 0700/0702 9999 NSW=
201901061700 TAF LRSB 061700Z 0618/0718 33008KT 5000 -SN SCT010 OVC050
                      TEMPO 0618/0624 1500 SN BKN010 OVC040
                      BECMG 0703/0705 9999 NSW=
201901062300 TAF LRSB 062300Z 0700/0724 33008KT 5000 -SN BR SCT010 OVC050
                      BECMG 0703/0705 9999 NSW=
201901070500 TAF LRSB 070500Z 0706/0806 25006KT 9999 BKN030
                      TEMPO 0706/0709 3000 -SN BR BKN010 OVC030=
201901071011 TAF AMD LRSB 071011Z 0710/0806 25006KT 9999 BKN030
                      TEMPO 0710/0713 3000 -SN BR BKN010 OVC030=
201901071100 TAF LRSB 071100Z 0712/0812 VRB03KT 9999 BKN040
                      TEMPO 0712/0717 3000 -SN BR BKN010 OVC030=
201901071700 TAF LRSB 071700Z 0718/0818 VRB03KT CAVOK
                      BECMG 0722/0724 5000 BR
                      TEMPO 0800/0806 3000 BR
                      BECMG 0807/0809 9999 NSW
                      BECMG 0816/0818 5000 -SN=
201901072300 TAF LRSB 072300Z 0800/0824 VRB04KT 5000 BR NSC
                      TEMPO 0800/0806 3000 BR
                      PROB30 TEMPO 0802/0806 1500 BR
                      BECMG 0807/0809 9999 NSW
                      BECMG 0816/0818 5000 -SN
                      BECMG 0818/0820 3000 -SN BKN015 BKN040 OVC070=
201901080500 TAF LRSB 080500Z 0806/0906 VRB04KT 3000 BR NSC
                      PROB30 TEMPO 0806/0807 1500 BR
                      BECMG 0807/0809 9999 NSW
                      BECMG 0816/0818 5000 -SN BKN015 BKN060
                      BECMG 0818/0820 3000 -SN BKN010 OVC045=
201901080802 TAF AMD LRSB 080802Z 0808/0906 VRB04KT 3000 BR BKN010
                      TEMPO 0808/0809 0800 FZFG BKN001
                      BECMG 0809/0811 5000 BR SCT015
                      BECMG 0816/0818 -SN BKN015 BKN060
                      BECMG 0820/0822 3000 -SN BKN010 OVC045=
201901081100 TAF LRSB 081100Z 0812/0912 VRB04KT 7000 SCT015
                      TEMPO 0812/0814 3000 BR BKN010
                      BECMG 0816/0818 5000 -SN BKN015 BKN060
                      TEMPO 0822/0906 3000 -SN BKN010 OVC045
                      BECMG 0908/0910 7000 NSW SCT020=
201901081700 TAF LRSB 081700Z 0818/0918 VRB04KT 9999 BKN060
                      BECMG 0820/0822 5000 -SN BR BKN015 OVC050
                       PROB30
                      TEMPO 0822/0906 3000 -SN BR BKN010 OVC045
                       BECMG 0907/0909 7000 NSW SCT020
                      BECMG 0914/0916 3000 BR=
201901082300 TAF LRSB 082300Z 0900/0924 VRB04KT 7000 OVC040
                      PROB30 TEMPO 0900/0906 3000 -SN BR BKN010
                       OVC035
                      BECMG 0914/0916 3000 BR
                      PROB30 TEMPO 0920/0924 1500 BR BKN005=
201901090500 TAF LRSB 090500Z 0906/1006 VRB04KT 7000 BKN040
                      TEMPO 0906/0909 3000 -SN BR
                      BECMG 0914/0916 3000 BR
                      PROB30 TEMPO 0921/1002 1500 BR BKN005
                      TEMPO 1002/1006 1500 -SN BR BKN005 OVC040=
201901091100 TAF LRSB 091100Z 0912/1012 VRB04KT 9999 SCT040
                      BECMG 0915/0917 5000 BR BKN010
                      PROB30 TEMPO 0921/1002 1500 BR BKN005
                      TEMPO 1002/1008 1500 -SN BR BKN005 OVC040
                       BECMG 1010/1012 3000 BR BKN005=
201901091700 TAF LRSB 091700Z 0918/1018 VRB04KT 5000 BR SCT040
                      BECMG 0918/0920 3000 BR BKN010
                      PROB30 TEMPO 0921/0924 1500 BR BKN005
                      TEMPO 1000/1005 1500 -SN BR BKN005 OVC025
                       PROB30
                      TEMPO 1003/1007 0600=
201901092300 TAF LRSB 092300Z 1000/1024 VRB04KT 3000 BR SCT040
                      PROB30 TEMPO 1000/1003 1500 -SN BR BKN005
                       OVC025
                      PROB30 TEMPO 1003/1007 0600=
201901100500 TAF LRSB 100500Z 1006/1106 VRB04KT 3000 -SN BR BKN015 OVC050
                      BECMG 1008/1010 7000 NSW SCT015 OVC050
                      PROB30 TEMPO 1012/1018 5000 -SN BKN010 OVC025
                       BECMG 1018/1020 3000 -SN BR BKN005 OVC020
                       TEMPO 1100/1106 0800 +SN BKN002 OVC015=
201901101100 TAF LRSB 101100Z 1012/1112 VRB04KT 3000 -SN BR BKN015 OVC050
                      TEMPO 1012/1016 5000 BR
                      BECMG 1016/1018 BKN010 OVC035
                      BECMG 1018/1020 1500 -SN BR BKN005 OVC020
                       TEMPO 1100/1106 0800 +SN BKN002 OVC015
                      BECMG 1110/1112 5000 BKN015 OVC050=
201901101700 TAF LRSB 101700Z 1018/1118 VRB04KT 5000 BR SCT015 OVC035
                      BECMG 1018/1020 3000 -SN BR BKN010 OVC030
                       TEMPO 1021/1107 1500 SN BKN005 OVC020
                      PROB40 1101/1105 0800 +SN BKN002 OVC015
                      BECMG 1112/1114 5000 BKN015 OVC050=
201901102300 TAF LRSB 102300Z 1100/1124 VRB04KT 3000 -SN BR SCT015 OVC025
                      TEMPO 1100/1107 1500 SN BKN005 OVC020
                      PROB40 1101/1105 0800 +SN BKN002 OVC015
                      BECMG 1111/1113 7000 NSW BKN015 OVC050
                      BECMG 1116/1118 3000 BKN010 BKN030=
201901110500 TAF LRSB 110500Z 1106/1206 VRB04KT 3000 -SN BR SCT010 OVC025
                      TEMPO 1106/1109 1500 SN BKN005 OVC020
                      BECMG 1109/1111 5000
                      BECMG 1111/1113 9999 NSW
                      BECMG 1118/1120 3000 BR BKN010 BKN030
                      TEMPO 1122/1205 1500 BR BKN005=
201901111100 TAF LRSB 111100Z 1112/1212 32006KT 5000 BR SCT010 OVC025
                      TEMPO 1112/1115 3000 -SN BR BKN005 OVC015
                       BECMG 1118/1120 3000 BR BKN010 BKN030
                      TEMPO 1122/1205 1500 BR BKN005
                      PROB40 TEMPO 1200/1206 0350 FZFG VV001
                      BECMG 1207/1209 CAVOK=
201901111700 TAF LRSB 111700Z 1118/1218 VRB04KT 7000 OVC030
                      BECMG 1121/1123 3000 BR BKN010 BKN030
                      TEMPO 1123/1206 1500 BR BKN005
                      PROB30 TEMPO 1200/1206 0350 FZFG VV001
                      BECMG 1207/1209 9999 NSW BKN030
                      TEMPO 1210/1213 31010KT 5000 -SN=
201901112300 TAF LRSB 112300Z 1200/1224 VRB04KT 5000 BR OVC030
                      PROB40 TEMPO 1200/1206 1500 BR BKN005
                      BECMG 1207/1209 9999 NSW
                      TEMPO 1210/1214 31010KT 5000 -SN=
201901120500 TAF LRSB 120500Z 1206/1306 VRB04KT 5000 BR SCT030
                      BECMG 1206/1208 9999 NSW
                      TEMPO 1210/1214 31010KT 5000 -SN=
201901121100 TAF LRSB 121100Z 1212/1312 VRB04KT 9999 BKN065
                      TEMPO 1212/1215 31010KT 5000 -SN=
201901121700 TAF LRSB 121700Z 1218/1318 VRB04KT 9999 BKN040
                      PROB30 TEMPO 1218/1220 5000 -SN BR=
201901121920 TAF AMD LRSB 121920Z 1219/1318 VRB04KT 9999 OVC015
                      TEMPO 1219/1224 OVC010=
201901122300 TAF LRSB 122300Z 1300/1324 VRB04KT 5000 BR BKN010
                      BECMG 1305/1307 9999 NSW SCT020=
201901130500 TAF LRSB 130500Z 1306/1406 VRB04KT 9999 BKN045
                      TEMPO 1306/1308 5000 BR
                      TEMPO 1311/1315 5000 -SN BKN010 BKN030
                      PROB40 TEMPO 1403/1406 5000 -SN BKN010 BKN030=
201901131100 TAF LRSB 131100Z 1312/1412 VRB04KT 9999 SCT030 BKN040
                      TEMPO 1312/1316 5000 -SNRA BKN015 BKN035
                       PROB40
                      TEMPO 1312/1315 -FZRA
                      PROB30 TEMPO 1404/1407 5000 -FZRA BKN015
                       BKN035=
201901131700 TAF LRSB 131700Z 1318/1418 VRB04KT 3000 -SN BR SCT010 BKN035
                      BECMG 1318/1320 5000 BR
                      BECMG 1407/1409 9999 NSW=
201901132146 TAF AMD LRSB 132146Z 1321/1418 VRB04KT 0150 FZFG VV001
                      PROB30 TEMPO 1400/1404 0800
                      BECMG 1404/1406 0800 BKN003
                      PROB40 TEMPO 1406/1409 1500 -SN BR BKN005
                       OVC065
                      BECMG 1409/1411 30012KT 5000 BR BKN030
                      BECMG 1411/1413 7000 NSW=
201901132300 TAF AMD LRSB 140234Z 1402/1424 VRB04KT 1500 BR BKN030
                      TEMPO 1403/1406 0600 FZFG BKN001
                      TEMPO 1408/1411 3000 -SN BR
                      BECMG 1411/1413 30012KT 5000
                      TEMPO 1416/1422 3000 -SN BR BKN010 OVC020=
201901140234 TAF AMD LRSB 140234Z 1402/1424 VRB04KT 1500 BR BKN030
                      TEMPO 1403/1406 0600 FZFG BKN001
                      TEMPO 1408/1411 3000 -SN BR
                      BECMG 1411/1413 30012KT 5000
                      TEMPO 1416/1422 3000 -SN BR BKN010 OVC020=
201901140500 TAF LRSB 140500Z 1406/1506 VRB04KT 5000 BR BKN060
                      TEMPO 1406/1410 3000 -SN BR
                      BECMG 1410/1412 30012KT
                      BECMG 1415/1417 3000 -SN BR BKN010 OVC020
                       TEMPO 1418/1503 1500 SN BR BKN002 OVC015=
201901141100 TAF LRSB 141100Z 1412/1512 30008KT 9999 SCT030 BKN060
                      BECMG 1415/1417 3000 -SN BR BKN010 OVC025
                       TEMPO 1418/1503 1500 SN BR BKN002 OVC015
                       BECMG 1506/1508 9999 NSW SCT025=
201901141700 TAF LRSB 141700Z 1418/1518 30008KT 9999 SCT040
                      BECMG 1418/1420 3000 -SN BR BKN010 OVC025
                       TEMPO 1420/1504 1500 SN BR BKN002 OVC015
                       BECMG 1505/1507 9999 NSW SCT025=
201901142300 TAF LRSB 142300Z 1500/1524 33012KT 5000 -SN BR BKN015 BKN030
                      TEMPO 1500/1503 1500 SN BR BKN005 OVC020
                       BECMG 1504/1506 VRB04KT 9999 NSW SCT025
                       BECMG 1512/1514 28010KT=
201901150500 TAF LRSB 150500Z 1506/1606 VRB04KT 9999 SCT030
                      BECMG 1509/1511 30010KT
                      TEMPO 1602/1606 5000 -SN BKN010 BKN030=
201901151100 TAF LRSB 151100Z 1512/1612 VRB04KT CAVOK
                      BECMG 1514/1516 30010KT
                      TEMPO 1604/1609 5000 -SN BKN010 BKN030=
201901151700 TAF LRSB 151700Z 1518/1618 29012KT 9999 SCT055
                      PROB40 TEMPO 1604/1610 29015G25KT 5000 -SN
                       BLSN BKN010 BKN030
                      TEMPO 1611/1616 3000 -SN BKN015 OVC030=
201901152300 TAF LRSB 152300Z 1600/1624 29012KT 9999 SCT055
                      PROB40 TEMPO 1604/1610 29015G25KT 5000 -SN
                       BLSN BKN010 BKN030
                      TEMPO 1611/1616 3000 -SN BKN015 OVC030=
201901160500 TAF LRSB 160500Z 1606/1706 29014KT 9999 BKN055
                      PROB40 TEMPO 1606/1610 5000 -SN BKN015 BKN030
                       TEMPO 1611/1616 3000 -SN BKN010 OVC030
                      TEMPO 1700/1706 3000 BR=
201901160542 TAF AMD LRSB 160542Z 1606/1706 29023G33KT 9999 BKN055
                      PROB40 TEMPO 1606/1610 5000 -SN BLSN BKN015
                       BKN030
                      BECMG 1610/1612 30016KT
                      TEMPO 1610/1616 3000 -SN BKN010 OVC030
                      BECMG 1618/1620 VRB04KT
                      TEMPO 1700/1706 3000 BR=
201901161100 TAF LRSB 161100Z 1612/1712 29022KT 9999 BKN055
                      BECMG 1616/1618 29010KT
                      BECMG 1621/1623 VRB04KT
                      TEMPO 1700/1706 3000 BR BKN010=
201901161700 TAF LRSB 161700Z 1618/1718 29012KT CAVOK
                      BECMG 1619/1621 VRB04KT
                      TEMPO 1700/1706 3000 BR BKN010=
201901162300 TAF LRSB 162300Z 1700/1724 VRB04KT CAVOK
                      PROB30 TEMPO 1701/1706 3000 BR BKN010=
201901170500 TAF LRSB 170500Z 1706/1806 VRB04KT 9999 BKN045
                      TEMPO 1706/1708 5000 BR
                      TEMPO 1801/1806 3000 BR=
201901171100 TAF LRSB 171100Z 1712/1812 VRB04KT 9999 BKN050
                      TEMPO 1801/1806 3000 BR=
201901171700 TAF LRSB 171700Z 1718/1818 VRB04KT 9999 BKN050
                      TEMPO 1801/1806 3000 BR=
201901172300 TAF LRSB 172300Z 1800/1824 VRB04KT 9999 BKN050
                      TEMPO 1801/1806 3000 BR
                      BECMG 1821/1823 5000 -SN BKN015 OVC040=
201901180500 TAF LRSB 180500Z 1806/1906 VRB04KT 5000 BR NSC
                      BECMG 1806/1808 9999 NSW
                      BECMG 1819/1821 5000 -SNRA BKN015 OVC040
                       BECMG 1821/1823 3000 -SN BR BKN010 OVC030
                       TEMPO 1823/1904 1500 SN BKN005 OVC030
                      BECMG 1904/1906 1500 BR BKN002 OVC010=
201901181100 TAF LRSB 181100Z 1812/1912 VRB04KT CAVOK
                      BECMG 1819/1821 5000 -SNRA BKN015 OVC040
                       BECMG 1821/1823 3000 -SN BR BKN010 OVC030
                       TEMPO 1823/1903 1500 SN BKN005 OVC030
                      BECMG 1903/1905 1500 BR BKN002 OVC010
                      PROB30 TEMPO 1905/1908 0600 FZFG OVC001
                      BECMG 1910/1912 5000 BKN015=
201901181700 TAF LRSB 181700Z 1818/1918 25006KT 9999 BKN070
                      BECMG 1819/1821 5000 -SNRA BKN015 OVC040
                       BECMG 1821/1823 3000 -SN BR BKN010 OVC030
                       TEMPO 1823/1905 1500 SN BKN005 OVC030
                      BECMG 1905/1907 1500 BR BKN005 OVC010
                      BECMG 1908/1910 5000 BKN015
                      BECMG 1910/1912 9999 NSW SCT025=
201901182300 TAF LRSB 182300Z 1900/1924 32006KT 3000 -SN BR BKN015 BKN040
                      TEMPO 1900/1905 1500 SN BKN010 OVC030
                      BECMG 1905/1907 1500 BR BKN005 OVC010
                      BECMG 1908/1910 5000 BKN015
                      BECMG 1910/1912 9999 NSW SCT025=
201901190500 TAF LRSB 190500Z 1906/2006 VRB04KT 5000 BR BKN015 BKN030
                      BECMG 1908/1910 9999 NSW SCT030=
201901191100 TAF LRSB 191100Z 1912/2012 VRB04KT 9999 BKN030=
201901191700 TAF LRSB 191700Z 1918/2018 VRB04KT CAVOK
                      BECMG 2013/2015 5000 -RASN BR BKN015 OVC040
                       BECMG 2016/2018 3000 -RASN BR BKN010 OVC030=
201901192300 TAF LRSB 192300Z 2000/2024 VRB04KT 5000 BR SCT075
                      TEMPO 2000/2006 1500 BR
                      BECMG 2013/2015 5000 -RA BR BKN015 OVC040
                       BECMG 2016/2018 3000 -RA BR BKN010 OVC030
                       PROB30
                      TEMPO 2018/2021 1500 -RASN BR=
201901200500 TAF LRSB 200500Z 2006/2106 VRB04KT 5000 BR BKN070
                      BECMG 2012/2014 5000 -RA BR BKN015 OVC040
                       TEMPO 2016/2018 3000 -RASN BR BKN010 OVC030
                       PROB30
                      TEMPO 2018/2024 1500 -SN BR
                      BECMG 2100/2102 5000 BR BKN015 BKN040
                      TEMPO 2102/2106 3000 BR OVC010=
201901200746 TAF AMD LRSB 200746Z 2007/2106 VRB04KT 3000 -SN BR BKN015 BKN070
                       TEMPO 2016/2024 1500 -SN BR BKN010 OVC044
                       BECMG 2100/2102 5000 BR BKN015 BKN040
                      TEMPO 2102/2106 3000 BR OVC010=
201901201100 TAF LRSB 201100Z 2012/2112 VRB04KT 7000 BKN015 BKN070
                      BECMG 2014/2016 3000 -SN BR BKN010 OVC045
                       TEMPO 2016/2019 1500 SN BR BKN005 OVC030
                       BECMG 2100/2102 5000 BR
                      BECMG 2104/2106 7000 BKN015 OVC040=
201901201700 TAF LRSB 201700Z 2018/2118 VRB04KT 1500 -SN BR BKN015 OVC030
                      TEMPO 2018/2021 0800 SN FZFG BKN005 OVC020
                       BECMG 2022/2024 5000 BR
                      BECMG 2104/2106 7000 NSW=
201901202300 TAF LRSB 202300Z 2100/2124 VRB04KT 9999 BKN010 BKN025
                      PROB30 TEMPO 2105/2108 5000 BR BKN005
                      BECMG 2108/2110 BKN025
                      BECMG 2118/2120 3000 BR BKN010=
201901210500 TAF LRSB 210500Z 2106/2206 VRB04KT 9999 SCT025 BKN045
                      BECMG 2118/2120 3000 BR BKN010
                      PROB40 TEMPO 2200/2206 0800 FZFG OVC002=
201901211100 TAF LRSB 211100Z 2112/2212 VRB04KT 9999 SCT030
                      BECMG 2118/2120 3000 BR BKN010
                      PROB40 TEMPO 2200/2206 0800 FZFG OVC002
                      PROB30 TEMPO 2203/2206 5000 -SN=
201901211700 TAF LRSB 211700Z 2118/2218 VRB04KT 9999 BKN015 BKN030
                      TEMPO 2122/2203 5000 BR BKN010 BKN025
                      PROB30 TEMPO 2203/2206 3000 -SN BR BKN010
                       BKN025=
201901212300 TAF LRSB 212300Z 2200/2224 VRB04KT 5000 BR BKN040
                      TEMPO 2200/2204 1500 BR BKN010 BKN035
                      BECMG 2204/2206 9999 NSW
                      TEMPO 2210/2218 3000 -SN BR BKN010 BKN025=
201901220500 TAF LRSB 220500Z 2206/2306 VRB04KT 3000 BR BKN040
                      BECMG 2207/2210 7000 NSW
                      TEMPO 2210/2221 3000 -SN BR BKN010 BKN025
                       TEMPO 2301/2306 1500 -SNRA BR BKN010 OVC035=
201901221100 TAF LRSB 221100Z 2212/2312 VRB04KT 7000 BKN060
                      TEMPO 2212/2220 3000 -SN BR BKN010 BKN025
                       BECMG 2220/2222 3000 BR BKN005 OVC035
                      PROB30 TEMPO 2301/2307 1500 -SNRA BR
                      TEMPO 2309/2312 5000 BKN010 BKN035=
201901221700 TAF LRSB 221700Z 2218/2318 VRB04KT 8000 BKN060
                      PROB30 TEMPO 2218/2220 3000 -SN BR BKN010
                       BKN035
                      BECMG 2220/2222 5000 BR
                      PROB30 TEMPO 2302/2307 1500 -SNRA BR BKN005
                       BKN030
                      BECMG 2310/2312 7000 NSW=
201901222300 TAF LRSB 222300Z 2300/2324 VRB04KT 5000 BR SCT005 BKN060
                      PROB30 TEMPO 2302/2308 1500 -SNRA BR BKN005
                       BKN030
                      TEMPO 2311/2312 7000 NSW
                      BECMG 2320/2322 3000 -FZRA BKN010 BKN030
                       TEMPO 2322/2324 0800 RASN VV002=
201901230500 TAF LRSB 230500Z 2306/2406 VRB04KT 3000 BR BKN045
                      BECMG 2306/2308 5000
                      TEMPO 2308/2312 BKN010 BKN030
                      BECMG 2312/2314 7000 NSW
                      BECMG 2323/2401 3000 -FZRA BKN010 BKN030
                       BECMG 2401/2403 1500 SN BKN005 BKN025=
201901231100 TAF LRSB 231100Z 2312/2412 26005KT 9999 SCT045
                      BECMG 2323/2401 3000 -FZRA BKN010 BKN030
                       BECMG 2401/2403 1500 SN BKN005 BKN025
                      BECMG 2406/2408 3000 BR BKN010 BKN030=
201901231700 TAF LRSB 231700Z 2318/2418 VRB04KT CAVOK
                      BECMG 2323/2401 5000 -SN BR
                      PROB40 TEMPO 2401/2406 3000 -FZRA BR BKN010
                       BKN030
                      BECMG 2406/2408 5000 -RA BKN010 OVC035
                      TEMPO 2409/2414 3000 RA BKN005 OVC025=
201901232300 TAF LRSB 232300Z 2400/2424 VRB04KT 5000 -SN BR BKN030 OVC060
                      PROB40 TEMPO 2400/2407 3000 -FZRA BR BKN010
                       BKN030
                      BECMG 2407/2409 10010KT 5000 -RA BKN010 OVC035
                       TEMPO 2409/2414 3000 RA BKN005 OVC025
                      BECMG 2417/2419 VRB04KT 3000 -SN BR BKN005
                       OVC025=
201901232337 TAF COR LRSB 232337Z 2400/2424 VRB04KT 5000 -SN BR BKN030 OVC060
                       PROB40
                      TEMPO 2400/2407 3000 -FZRA BR BKN010 BKN030
                       BECMG 2407/2409 10010KT -RA BKN010 OVC035
                       TEMPO 2409/2414 3000 RA BKN005 OVC025
                      BECMG 2417/2419 VRB04KT 1500 -SN BR BKN005
                       OVC025=
201901240500 TAF LRSB 240500Z 2406/2506 VRB04KT 3000 BR BKN010 OVC050
                      PROB40 TEMPO 2406/2409 -FZRA BKN005 OVC030
                       BECMG 2409/2411 12010KT 5000 -RASN BR
                      TEMPO 2411/2414 1500 RA BKN005 OVC025
                      BECMG 2417/2419 VRB04KT 1500 -SN BR BKN005
                       OVC025=
201901241100 TAF LRSB 241100Z 2412/2512 VRB04KT 3000 BR BKN010 OVC050
                      TEMPO 2412/2414 1500 RA BKN005 OVC025
                      TEMPO 2414/2416 -RASN
                      BECMG 2416/2418 -SN BR BKN005 OVC025
                      TEMPO 2419/2501 1500 SN BR BKN002 OVC010
                       BECMG 2505/2507 5000 BKN010 OVC035=
201901241529 TAF AMD LRSB 241529Z 2415/2512 VRB04KT 1500 -RA BR BKN010 OVC050
                       BECMG 2416/2418 0600 -SN FZFG OVC002
                      BECMG 2505/2507 1500 BR BKN005 OVC015
                      BECMG 2507/2509 5000 BKN015=
201901241700 TAF LRSB 241700Z 2418/2518 VRB04KT 1500 -RA BR BKN005 OVC010
                      PROB40 TEMPO 2419/2421 FZRA
                      BECMG 2503/2505 3000 BR BKN015
                      BECMG 2508/2510 7000 NSW=
201901242218 TAF AMD LRSB 242218Z 2422/2518 VRB04KT 0200 FG OVC002
                      PROB40 TEMPO 2422/2424 0800
                      BECMG 2506/2508 0800
                      BECMG 2508/2510 1500 BR BKN005
                      TEMPO 2511/2516 5000 BKN010=
201901242300 TAF LRSB 242300Z 2500/2524 VRB04KT 0800 FG OVC003
                      PROB40 TEMPO 2501/2505 0350 FZFG VV001
                      BECMG 2507/2509 1500 BR BKN005
                      TEMPO 2511/2516 5000 BKN010
                      PROB40 TEMPO 2520/2524 0600 FG BKN002=
201901250500 TAF LRSB 250500Z 2506/2606 VRB04KT 1500 BR OVC005
                      BECMG 2507/2509 5000 BKN015 BKN030
                      BECMG 2509/2511 9999 NSW
                      BECMG 2515/2517 5000 -SN BR BKN010 OVC030
                       BECMG 2520/2522 3000 SN BR BKN005 OVC020
                       TEMPO 2602/2606 1500 SN BR BKN002 OVC015=
201901251100 TAF LRSB 251100Z 2512/2612 VRB04KT 5000 BR BKN010 OVC040
                      BECMG 2514/2516 3000 -SN BR BKN005 OVC020
                       BECMG 2520/2522 1500 SN BR BKN002 OVC010
                       TEMPO 2602/2606 0600 SN FZFG BKN001 OVC005
                       BECMG 2608/2610 5000 -SN BKN010 BKN040=
201901251700 TAF LRSB 251700Z 2518/2618 VRB04KT 3000 BR BKN005 OVC020
                      BECMG 2519/2521 1500 SN BR
                      TEMPO 2600/2606 0800 SN FZFG OVC002
                      BECMG 2608/2610 5000 -SN BKN010 BKN040
                      BECMG 2614/2616 9999 NSW BKN015=
201901252300 TAF LRSB 252300Z 2600/2624 VRB04KT 3000 -SN BR BKN015 OVC020
                      TEMPO 2600/2602 1500 -RA -RASN BKN005 OVC010
                       PROB30 2600/2602 -FZRA
                      TEMPO 2602/2606 1500 SN BR BKN002 OVC010
                       BECMG 2608/2610 5000 -SN BKN010 BKN040
                      BECMG 2614/2616 9999 NSW BKN015=
201901260500 TAF LRSB 260500Z 2606/2706 VRB04KT 3000 -RA BR BKN002 OVC010
                      BECMG 2607/2609 5000 BKN005 OVC020
                      BECMG 2611/2613 7000 -RADZ BKN010
                      PROB30 TEMPO 2616/2619 5000 -SN
                      BECMG 2619/2621 SCT010 SCT040=
201901261100 TAF LRSB 261100Z 2612/2712 VRB04KT 3000 BR SCT005 OVC010
                      PROB30 TEMPO 2612/2617 1500 -DZ BR BKN005
                       OVC010
                      BECMG 2617/2619 5000
                      BECMG 2619/2621 SCT010 SCT040
                      TEMPO 2703/2707 1500 BR
                      BECMG 2707/2709 8000 NSW=
201901261700 TAF LRSB 261700Z 2618/2718 VRB04KT 9999 SCT010 OVC030
                      BECMG 2619/2621 5000 BR
                      TEMPO 2700/2706 1500 BR
                      BECMG 2708/2710 9999 NSW=
201901262300 TAF LRSB 262300Z 2700/2724 VRB04KT 5000 BR BKN010 BKN020
                      TEMPO 2700/2703 3000 -SN BR
                      BECMG 2708/2710 9999 NSW
                      BECMG 2716/2718 3000 BR
                      BECMG 2720/2722 1500 BR=
201901270500 TAF LRSB 270500Z 2706/2806 VRB04KT 5000 BR BKN030
                      BECMG 2706/2708 9999 NSW=
201901271100 TAF LRSB 271100Z 2712/2812 VRB04KT CAVOK
                      TEMPO 2715/2719 5000 BR=
201901271700 TAF LRSB 271700Z 2718/2818 VRB04KT CAVOK
                      TEMPO 2811/2816 15010KT=
201901272300 TAF LRSB 272300Z 2800/2824 VRB04KT 5000 BR NSC
                      BECMG 2806/2808 9999 NSW
                      TEMPO 2811/2816 15010KT
                      PROB30 TEMPO 2820/2823 5000 -RA BR=
201901280500 TAF LRSB 280500Z 2806/2906 VRB04KT 5000 BR NSC
                      BECMG 2806/2808 9999 NSW
                      TEMPO 2812/2818 16010KT
                      TEMPO 2820/2824 5000 -RA BKN015 OVC025
                      PROB30 2821/2824 -FZRA
                      TEMPO 2901/2906 3000 BR BKN010=
201901281100 TAF LRSB 281100Z 2812/2912 VRB04KT 9999 BKN035
                      TEMPO 2819/2824 5000 -RA BKN015 OVC025
                      PROB30 2820/2824 -FZRA
                      TEMPO 2901/2906 3000 BR BKN010
                      TEMPO 2909/2912 5000 -RA BKN015 OVC030=
201901281700 TAF LRSB 281700Z 2818/2918 14006KT CAVOK
                      TEMPO 2819/2823 5000 -RA BKN010 OVC025
                      PROB30 2820/2823 -FZRA
                      TEMPO 2901/2906 3000 BR BKN010=
201901282300 TAF LRSB 282300Z 2900/2924 VRB04KT CAVOK
                      TEMPO 2903/2906 3000 BR BKN010
                      BECMG 2918/2920 3000 BR BKN005=
201901290500 TAF LRSB 290500Z 2906/3006 VRB04KT CAVOK
                      BECMG 2918/2920 3000 BR BKN010
                      TEMPO 3000/3006 1500 -RA BR BKN005 OVC030=
201901291100 TAF LRSB 291100Z 2912/3012 VRB04KT CAVOK
                      BECMG 2918/2920 3000 BR BKN010
                      BECMG 3000/3002 1500 -RA BR BKN005 OVC030=
201901291700 TAF LRSB 291700Z 2918/3018 VRB04KT 9999 BKN025
                      BECMG 3002/3004 5000 -RA BR BKN010 OVC020
                       TEMPO 3007/3013 1500 RA BKN005 OVC020=
201901292300 TAF AMD LRSB 300236Z 3002/3024 VRB04KT 0350 FG VV001
                      BECMG 3003/3005 0600 -FZRADZ FZFG OVC005
                       BECMG 3006/3008 1500 RA BR BKN005 OVC020
                       BECMG 3016/3018 3000 RA BKN010 OVC020=
201901300236 TAF AMD LRSB 300236Z 3002/3024 VRB04KT 0350 FG VV001
                      BECMG 3003/3005 0600 -FZRADZ FZFG OVC005
                       BECMG 3006/3008 1500 RA BR BKN005 OVC020
                       BECMG 3016/3018 3000 RA BKN010 OVC020=
201901300500 TAF LRSB 300500Z 3006/3106 VRB04KT 1500 -RA BR BKN010 OVC020
                      TEMPO 3006/3008 0600 -DZ FG BKN002 OVC015
                       BECMG 3008/3010 5000 -RA BR BKN010 OVC020
                       TEMPO 3022/3102 1500 RA BKN005 OVC015=
201901301100 TAF LRSB 301100Z 3012/3112 VRB04KT 5000 BR SCT005 BKN010
                      TEMPO 3012/3015 3000 -DZ FG BKN002 OVC015
                       BECMG 3020/3022 5000 -RA BR BKN005 OVC020
                       TEMPO 3022/3106 1500 RA BR BKN002 OVC015=
201901301700 TAF LRSB 301700Z 3018/3118 VRB04KT 5000 BR SCT045
                      BECMG 3020/3022 3000 -RA BR BKN005 OVC030
                       TEMPO 3023/3106 1500 RA BR BKN002 OVC015
                       BECMG 3107/3109 6000 NSW=
201901302300 TAF LRSB 302300Z 3100/3124 VRB04KT 1500 BR BKN005
                      TEMPO 3100/3106 0800 -RA FG BKN002 OVC010
                       BECMG 3107/3109 5000 BKN025
                      TEMPO 3110/3115 9999 NSW=
201901310500 TAF LRSB 310500Z 3106/0106 VRB04KT 5000 BR BKN015
                      TEMPO 3106/3108 1500 -DZ BR OVC005
                      PROB30 TEMPO 3110/3115 9999 NSW BKN020
                      TEMPO 3123/0106 1500 BR BKN005=
201901311100 TAF LRSB 311100Z 3112/0112 VRB04KT 9999 BKN010
                      BECMG 3118/3120 3000 BR BKN005
                      TEMPO 3123/0106 1500 BR BKN002
                      BECMG 0106/0108 5000 BKN015
                      BECMG 0108/0110 CAVOK=
201901311700 TAF LRSB 311700Z 3118/0118 VRB04KT 5000 BR BKN010 BKN050
                      BECMG 3118/3120 3000 BR BKN005
                      TEMPO 3123/0106 1500 BR BKN002
                      BECMG 0106/0108 5000 BKN015
                      BECMG 0108/0110 CAVOK=
201901312300 TAF LRSB 312300Z 0100/0124 VRB04KT 5000 BR BKN010 BKN050
                      TEMPO 0100/0106 1500 BR BKN002
                      BECMG 0106/0108 5000 BKN015
                      BECMG 0108/0110 CAVOK=
