201902010000 METAR COR LRSB 010000Z VRB02KT 6000 BKN013 02/01 Q1007 R27/29//95=
201902010030 METAR LRSB 010030Z AUTO 20003KT 6000 BKN013/// 02/01 Q1007=
201902010100 METAR LRSB 010100Z 29003KT 5000 BR BKN013 02/01 Q1008 R27/29//95=
201902010130 METAR LRSB 010130Z VRB01KT 6000 BKN011 02/01 Q1008 R27/29//95=
201902010200 METAR COR LRSB 010200Z 16003KT 6000 OVC012 02/01 Q1008 R27/29//95=
201902010230 METAR LRSB 010230Z AUTO 13003KT 6000 OVC013/// 02/01 Q1008=
201902010300 METAR LRSB 010300Z 11003KT 6000 OVC013 02/01 Q1008 R27/29//95=
201902010330 METAR LRSB 010330Z 13002KT 6000 BKN015 02/01 Q1008 R27/19//95=
201902010400 METAR LRSB 010400Z VRB01KT 6000 SCT015 SCT080 01/00 Q1009
                        R27/19//95=
201902010430 METAR LRSB 010430Z 31004KT 5000 BR SCT017 SCT075 00/M00 Q1009
                        R27/19//95=
201902010500 METAR LRSB 010500Z VRB02KT 5000 BR FEW017 SCT077 M00/M01
                        Q1009 R27/19//95=
201902010530 METAR LRSB 010530Z 24003KT 8000 FEW016 SCT077 M00/M01 Q1009
                        R27/19//95=
201902010600 METAR LRSB 010600Z 26003KT 9999 FEW014 M02/M02 Q1010 R27/19//95=
201902010630 METAR LRSB 010630Z 16002KT 7000 FEW014 M01/M01 Q1010 R27/19//95=
201902010700 METAR LRSB 010700Z VRB01KT 8000 FEW012 00/M00 Q1011 R27/19//95=
201902010730 METAR LRSB 010730Z 13002KT CAVOK 02/00 Q1011 R27/19//95=
201902010800 METAR LRSB 010800Z 10005KT 9000 FEW010 02/00 Q1011 R27/19//95=
201902010830 METAR LRSB 010830Z 11005KT 4000 BR FEW010 01/01 Q1011 R27/19//95=
201902010900 METAR LRSB 010900Z 11006KT 4000 BR FEW008 02/01 Q1011 R27/19//95=
201902010930 METAR LRSB 010930Z 10005KT 5000 BR SCT004 OVC074 03/02 Q1011
                        R27/12//95=
201902011000 METAR LRSB 011000Z 12004KT 070V140 7000 FEW005 BKN081 04/03
                        Q1011 R27/12//95=
201902011030 METAR LRSB 011030Z 12006KT 9999 BKN077 05/03 Q1011 R27/12//95=
201902011100 METAR LRSB 011100Z 13005KT 9999 BKN073 06/03 Q1011 R27/CLRD//=
201902011130 METAR LRSB 011130Z 13006KT 070V170 9999 BKN070 07/03 Q1011=
201902011200 METAR LRSB 011200Z 11006KT 9999 SCT082 07/03 Q1011=
201902011230 METAR LRSB 011230Z 12009KT 9999 BKN084 07/02 Q1010=
201902011300 METAR LRSB 011300Z 12006KT CAVOK 07/02 Q1010=
201902011330 METAR LRSB 011330Z 12007KT CAVOK 07/01 Q1010=
201902011400 METAR LRSB 011400Z 11007KT CAVOK 08/02 Q1010=
201902011430 METAR LRSB 011430Z 11010KT CAVOK 07/01 Q1010=
201902011500 METAR LRSB 011500Z 11008KT CAVOK 06/01 Q1010=
201902011530 METAR LRSB 011530Z 21003KT 140V260 CAVOK 06/01 Q1010=
201902011600 METAR LRSB 011600Z 15003KT CAVOK 06/01 Q1010=
201902011630 METAR LRSB 011630Z 14004KT 110V180 CAVOK 05/00 Q1010=
201902011700 METAR LRSB 011700Z 20003KT CAVOK 03/01 Q1010=
201902011730 METAR LRSB 011730Z VRB02KT CAVOK 02/01 Q1010=
201902011800 METAR LRSB 011800Z 24003KT CAVOK 03/01 Q1010=
201902011830 METAR LRSB 011830Z 29003KT CAVOK 02/00 Q1010=
201902011900 METAR LRSB 011900Z 26005KT CAVOK 01/M00 Q1010=
201902011930 METAR LRSB 011930Z 27003KT CAVOK 01/M00 Q1010=
201902012000 METAR LRSB 012000Z 29003KT CAVOK 01/M00 Q1010=
201902012030 METAR LRSB 012030Z 22004KT 180V240 CAVOK 00/M01 Q1010=
201902012100 METAR LRSB 012100Z 24003KT CAVOK 01/M00 Q1010=
201902012130 METAR LRSB 012130Z 23004KT CAVOK 01/M01 Q1010=
201902012200 METAR LRSB 012200Z 27004KT CAVOK 00/M01 Q1010=
201902012230 METAR LRSB 012230Z AUTO 25005KT 7000 NCD 00/M01 Q1010=
201902012300 METAR COR LRSB 012300Z 25004KT CAVOK 01/M00 Q1010=
201902012330 METAR LRSB 012330Z 25003KT CAVOK 00/M01 Q1010=
201902020000 METAR LRSB 020000Z 28002KT CAVOK M01/M02 Q1010=
201902020030 METAR LRSB 020030Z VRB02KT CAVOK 01/M01 Q1010=
201902020100 METAR LRSB 020100Z 27004KT CAVOK M00/M01 Q1010=
201902020130 METAR LRSB 020130Z AUTO 21003KT 180V240 8000 NCD 00/M01 Q1009=
201902020200 METAR LRSB 020200Z 25004KT CAVOK 00/M01 Q1009=
201902020230 METAR LRSB 020230Z VRB02KT CAVOK M01/M02 Q1009=
201902020300 METAR LRSB 020300Z 18003KT CAVOK 00/M01 Q1009=
201902020330 METAR LRSB 020330Z VRB03KT CAVOK M00/M01 Q1009=
201902020400 METAR LRSB 020400Z 26004KT 220V280 CAVOK 00/M01 Q1009=
201902020430 METAR LRSB 020430Z 24005KT 210V280 CAVOK 00/M01 Q1009=
201902020500 METAR LRSB 020500Z VRB02KT CAVOK 00/M01 Q1009=
201902020530 METAR LRSB 020530Z VRB03KT CAVOK 01/M00 Q1009=
201902020600 METAR LRSB 020600Z 24006KT 200V270 CAVOK 01/M01 Q1009=
201902020630 METAR LRSB 020630Z 22006KT 190V250 CAVOK 03/01 Q1010=
201902020700 METAR LRSB 020700Z 29004KT 240V360 CAVOK 03/01 Q1010=
201902020730 METAR LRSB 020730Z VRB03KT CAVOK 08/04 Q1010=
201902020800 METAR COR LRSB 020800Z 15012KT CAVOK 10/02 Q1010=
201902020830 METAR LRSB 020830Z 16013KT CAVOK 11/02 Q1010=
201902020900 METAR LRSB 020900Z 16017KT CAVOK 11/02 Q1010=
201902020930 METAR LRSB 020930Z 15017KT 9999 SCT085 11/02 Q1010=
201902021000 METAR LRSB 021000Z 16017KT 9999 SCT085 11/02 Q1010=
201902021030 METAR LRSB 021030Z 14015KT 9999 SCT084 12/02 Q1010=
201902021100 METAR LRSB 021100Z 13013KT 9999 SCT085 13/02 Q1009=
201902021130 METAR LRSB 021130Z 15010KT CAVOK 14/03 Q1009=
201902021200 METAR LRSB 021200Z 13006KT CAVOK 13/03 Q1009=
201902021230 METAR LRSB 021230Z 17009KT 120V210 CAVOK 14/03 Q1009=
201902021300 METAR LRSB 021300Z 19011KT CAVOK 14/03 Q1009=
201902021330 METAR LRSB 021330Z 18010KT 150V210 CAVOK 14/03 Q1009=
201902021400 METAR LRSB 021400Z 17011KT CAVOK 13/03 Q1008=
201902021430 METAR LRSB 021430Z 16009KT CAVOK 13/03 Q1009=
201902021500 METAR LRSB 021500Z 15010KT CAVOK 12/03 Q1009=
201902021530 METAR LRSB 021530Z 13008KT CAVOK 12/03 Q1009=
201902021600 METAR LRSB 021600Z 14011KT CAVOK 12/02 Q1009=
201902021630 METAR LRSB 021630Z 14010KT CAVOK 12/03 Q1009=
201902021700 METAR LRSB 021700Z 14009KT CAVOK 11/02 Q1009=
201902021730 METAR LRSB 021730Z 21006KT 170V230 CAVOK 10/03 Q1009=
201902021800 METAR LRSB 021800Z 27004KT CAVOK 08/03 Q1009=
201902021830 METAR LRSB 021830Z 25003KT 220V280 CAVOK 07/03 Q1009=
201902021900 METAR LRSB 021900Z VRB02KT CAVOK 06/02 Q1009=
201902021930 METAR LRSB 021930Z 28004KT CAVOK 06/03 Q1009=
201902022000 METAR LRSB 022000Z 27005KT 260V340 CAVOK 07/03 Q1009=
201902022030 METAR LRSB 022030Z 34005KT 310V010 CAVOK 06/02 Q1010=
201902022100 METAR LRSB 022100Z 25004KT 210V290 CAVOK 04/01 Q1010=
201902022130 METAR LRSB 022130Z VRB02KT CAVOK 04/01 Q1010=
201902022200 METAR LRSB 022200Z 25004KT 210V270 CAVOK 05/01 Q1010=
201902022230 METAR LRSB 022230Z 14010KT CAVOK 11/03 Q1010=
201902022300 METAR LRSB 022300Z 14011KT CAVOK 11/03 Q1009=
201902022330 METAR LRSB 022330Z 14008KT 120V230 CAVOK 11/02 Q1009=
201902030000 METAR LRSB 030000Z 21005KT 140V240 CAVOK 05/02 Q1010=
201902030030 METAR LRSB 030030Z 23005KT CAVOK 07/02 Q1009=
201902030100 METAR LRSB 030100Z 27004KT CAVOK 05/02 Q1009=
201902030130 METAR LRSB 030130Z 35005KT 320V020 CAVOK 06/02 Q1009=
201902030200 METAR LRSB 030200Z 26006KT CAVOK 05/02 Q1009=
201902030230 METAR LRSB 030230Z 30005KT CAVOK 05/02 Q1009=
201902030300 METAR LRSB 030300Z AUTO 34004KT 290V060 9999 NCD 04/01 Q1009=
201902030330 METAR LRSB 030330Z VRB03KT CAVOK 05/01 Q1009=
201902030400 METAR LRSB 030400Z 26004KT 220V280 CAVOK 03/00 Q1009=
201902030430 METAR LRSB 030430Z VRB03KT CAVOK 03/01 Q1009=
201902030500 METAR LRSB 030500Z VRB03KT CAVOK 04/00 Q1009=
201902030530 METAR LRSB 030530Z 14005KT 110V180 CAVOK 09/02 Q1009=
201902030600 METAR LRSB 030600Z 15004KT 130V200 CAVOK 07/02 Q1009=
201902030630 METAR LRSB 030630Z 23003KT 170V270 CAVOK 05/02 Q1010=
201902030700 METAR LRSB 030700Z VRB02KT CAVOK 06/02 Q1010=
201902030730 METAR LRSB 030730Z 13012KT CAVOK 13/03 Q1009=
201902030800 METAR LRSB 030800Z 13016KT CAVOK 13/03 Q1009=
201902030830 METAR LRSB 030830Z 13013KT CAVOK 13/03 Q1010=
201902030900 METAR LRSB 030900Z 20005KT 160V240 CAVOK 10/03 Q1010=
201902030930 METAR LRSB 030930Z 25009KT CAVOK 10/03 Q1011=
201902031000 METAR LRSB 031000Z 23007KT CAVOK 11/04 Q1011=
201902031030 METAR LRSB 031030Z 14008KT CAVOK 14/03 Q1010=
201902031100 METAR LRSB 031100Z 12010KT CAVOK 14/02 Q1010=
201902031130 METAR LRSB 031130Z 12007KT CAVOK 14/02 Q1010=
201902031200 METAR LRSB 031200Z 12006KT CAVOK 13/02 Q1010=
201902031230 METAR LRSB 031230Z 20008KT 160V240 CAVOK 14/02 Q1010=
201902031300 METAR LRSB 031300Z 17006KT 110V220 CAVOK 15/01 Q1010=
201902031330 METAR LRSB 031330Z 17006KT 120V200 CAVOK 15/02 Q1010=
201902031400 METAR LRSB 031400Z VRB05KT CAVOK 14/01 Q1010=
201902031430 METAR LRSB 031430Z 12005KT 060V190 CAVOK 14/01 Q1010=
201902031500 METAR LRSB 031500Z 14012KT CAVOK 15/01 Q1010=
201902031530 METAR LRSB 031530Z 13017KT CAVOK 15/00 Q1010=
201902031600 METAR LRSB 031600Z 13016KT CAVOK 14/01 Q1010=
201902031630 METAR LRSB 031630Z 13013KT CAVOK 14/00 Q1010=
201902031700 METAR LRSB 031700Z 14013KT CAVOK 14/00 Q1011=
201902031730 METAR LRSB 031730Z 14014KT CAVOK 14/00 Q1011=
201902031800 METAR LRSB 031800Z 17011KT CAVOK 15/M01 Q1011=
201902031830 METAR LRSB 031830Z 17014KT CAVOK 16/M01 Q1012=
201902031900 METAR LRSB 031900Z 15011KT CAVOK 14/00 Q1012=
201902031930 METAR LRSB 031930Z 15013KT CAVOK 14/01 Q1012=
201902032000 METAR LRSB 032000Z 15011KT CAVOK 14/01 Q1013=
201902032030 METAR LRSB 032030Z 14008KT CAVOK 13/01 Q1013=
201902032100 METAR LRSB 032100Z 11005KT CAVOK 13/01 Q1013=
201902032130 METAR LRSB 032130Z 14011KT CAVOK 13/01 Q1013=
201902032200 METAR LRSB 032200Z 15015KT CAVOK 12/03 Q1013=
201902032230 METAR LRSB 032230Z 17007KT 100V190 CAVOK 14/02 Q1014=
201902032300 METAR LRSB 032300Z 26010KT CAVOK 08/02 Q1015=
201902032330 METAR LRSB 032330Z 25003KT 220V290 CAVOK 07/01 Q1016=
201902040000 METAR LRSB 040000Z 27005KT 230V300 CAVOK 06/01 Q1016=
201902040030 METAR LRSB 040030Z VRB02KT CAVOK 06/01 Q1017=
201902040100 METAR LRSB 040100Z VRB01KT CAVOK 05/01 Q1017=
201902040130 METAR LRSB 040130Z 24003KT 160V270 CAVOK 05/01 Q1017=
201902040200 METAR LRSB 040200Z 23003KT CAVOK 05/01 Q1017=
201902040230 METAR LRSB 040230Z VRB02KT CAVOK 05/01 Q1017=
201902040300 METAR LRSB 040300Z VRB02KT 9999 SCT068 04/01 Q1018=
201902040330 METAR LRSB 040330Z VRB01KT 9999 SCT069 03/01 Q1018=
201902040400 METAR COR LRSB 040400Z 33006KT 9999 SCT072 05/02 Q1018=
201902040430 METAR LRSB 040430Z 34004KT 270V010 CAVOK 04/01 Q1019=
201902040500 METAR LRSB 040500Z 26004KT CAVOK 02/M01 Q1019=
201902040530 METAR LRSB 040530Z 24006KT CAVOK 03/01 Q1020=
201902040600 METAR LRSB 040600Z VRB02KT CAVOK 04/01 Q1020=
201902040630 METAR LRSB 040630Z VRB01KT CAVOK 04/01 Q1021=
201902040700 METAR LRSB 040700Z VRB01KT CAVOK 06/03 Q1021=
201902040730 METAR LRSB 040730Z VRB01KT CAVOK 07/03 Q1022=
201902040800 METAR LRSB 040800Z VRB02KT CAVOK 08/03 Q1022=
201902040830 METAR LRSB 040830Z VRB02KT CAVOK 08/03 Q1022=
201902040900 METAR LRSB 040900Z VRB02KT CAVOK 09/03 Q1022=
201902040930 METAR LRSB 040930Z VRB02KT CAVOK 10/03 Q1023=
201902041000 METAR LRSB 041000Z 01004KT 330V050 CAVOK 11/04 Q1023=
201902041030 METAR LRSB 041030Z 35005KT 300V040 CAVOK 12/05 Q1023=
201902041100 METAR LRSB 041100Z 35008KT CAVOK 12/05 Q1023=
201902041130 METAR LRSB 041130Z 34009KT CAVOK 12/05 Q1023=
201902041200 METAR LRSB 041200Z 32007KT CAVOK 12/04 Q1023=
201902041230 METAR LRSB 041230Z 34006KT 300V360 CAVOK 12/04 Q1023=
201902041300 METAR LRSB 041300Z 35007KT CAVOK 12/05 Q1023=
201902041330 METAR LRSB 041330Z 35006KT CAVOK 12/05 Q1023=
201902041400 METAR LRSB 041400Z 34005KT CAVOK 11/04 Q1024=
201902041430 METAR LRSB 041430Z 36006KT CAVOK 11/05 Q1024=
201902041500 METAR LRSB 041500Z 34005KT 9999 SCT040 11/06 Q1024=
201902041530 METAR LRSB 041530Z 34005KT 9999 BKN040 10/06 Q1024=
201902041600 METAR LRSB 041600Z 32005KT 9999 BKN040 09/05 Q1024=
201902041630 METAR LRSB 041630Z 31006KT 9999 FEW040 08/05 Q1024=
201902041700 METAR LRSB 041700Z 30006KT CAVOK 08/04 Q1025=
201902041730 METAR LRSB 041730Z 28006KT CAVOK 07/04 Q1025=
201902041800 METAR LRSB 041800Z 31003KT CAVOK 07/04 Q1025=
201902041830 METAR LRSB 041830Z 32003KT 290V350 CAVOK 06/04 Q1025=
201902041900 METAR LRSB 041900Z 25003KT CAVOK 05/03 Q1025=
201902041930 METAR LRSB 041930Z 25004KT 9000 FEW017 05/04 Q1026=
201902042000 METAR LRSB 042000Z 25005KT 9000 SCT015 06/04 Q1026=
201902042030 METAR LRSB 042030Z 25005KT 8000 SCT015 05/04 Q1026=
201902042100 METAR LRSB 042100Z 26005KT 8000 SCT015 SCT020 06/04 Q1026=
201902042130 METAR LRSB 042130Z 27003KT 8000 SCT012 BKN019 06/04 Q1026=
201902042200 METAR LRSB 042200Z 00000KT 7000 SCT012 BKN020 06/04 Q1026=
201902042230 METAR LRSB 042230Z VRB02KT 7000 SCT013 BKN019 05/04 Q1026=
201902042300 METAR LRSB 042300Z 35002KT 7000 BKN014 SCT020 06/04 Q1026=
201902042330 METAR LRSB 042330Z 35003KT 310V020 8000 BKN014 06/04 Q1026=
201902050000 METAR LRSB 050000Z 33003KT 9000 SCT015 SCT020 05/04 Q1026=
201902050030 METAR LRSB 050030Z 33003KT 9999 SCT015 BKN020 05/03 Q1026=
201902050100 METAR LRSB 050100Z 35003KT 9999 FEW014 BKN020 05/03 Q1026=
201902050130 METAR LRSB 050130Z AUTO 32003KT 9999 OVC017/// 05/03 Q1026=
201902050200 METAR LRSB 050200Z AUTO 32003KT 9000 OVC014/// 05/03 Q1026=
201902050230 METAR LRSB 050230Z AUTO 31004KT 8000 BKN013/// 04/03 Q1025=
201902050300 METAR LRSB 050300Z 32004KT 7000 SCT012 SCT020 04/02 Q1025=
201902050330 METAR LRSB 050330Z 32004KT 7000 BKN013 SCT018 04/02 Q1025=
201902050400 METAR LRSB 050400Z 33003KT 7000 FEW008 BKN012 04/02 Q1025=
201902050430 METAR LRSB 050430Z 31004KT 7000 SCT009 BKN012 04/02 Q1025=
201902050500 METAR LRSB 050500Z 30003KT 8000 SCT008 BKN013 04/02 Q1025=
201902050530 METAR LRSB 050530Z 33003KT 8000 BKN011 04/02 Q1025=
201902050600 METAR LRSB 050600Z 33002KT 8000 SCT007 SCT008 OVC011 04/02
                        Q1025=
201902050630 METAR LRSB 050630Z 28002KT 8000 BKN007 OVC018 04/02 Q1025=
201902050700 METAR LRSB 050700Z 00000KT 8000 FEW003 OVC017 04/02 Q1025=
201902050730 METAR LRSB 050730Z VRB02KT 6000 SCT003 BKN015 05/03 Q1025=
201902050800 METAR LRSB 050800Z VRB02KT 5000 BR FEW004 SCT007 OVC016 05/03
                        Q1025=
201902050830 METAR LRSB 050830Z VRB01KT 5000 BR FEW005 SCT009 BKN012 06/03
                        Q1025=
201902050900 METAR LRSB 050900Z 11003KT 030V140 5000 BR BKN010 OVC014
                        06/03 Q1025=
201902050930 METAR LRSB 050930Z 08002KT 7000 OVC010 06/04 Q1025=
201902051000 METAR LRSB 051000Z VRB02KT 8000 OVC010 07/04 Q1025=
201902051030 METAR LRSB 051030Z VRB02KT 8000 BKN010 07/04 Q1025=
201902051100 METAR LRSB 051100Z VRB02KT 8000 FEW011 08/04 Q1024=
201902051130 METAR LRSB 051130Z VRB02KT 9000 FEW012 08/04 Q1024=
201902051200 METAR LRSB 051200Z VRB02KT 9000 FEW017 08/04 Q1024=
201902051230 METAR LRSB 051230Z VRB02KT CAVOK 09/04 Q1024=
201902051300 METAR LRSB 051300Z VRB02KT CAVOK 10/04 Q1024=
201902051330 METAR LRSB 051330Z VRB02KT CAVOK 10/05 Q1023=
201902051400 METAR LRSB 051400Z 27004KT CAVOK 09/05 Q1023=
201902051430 METAR LRSB 051430Z 29002KT CAVOK 09/05 Q1023=
201902051500 METAR LRSB 051500Z 35007KT CAVOK 09/05 Q1023=
201902051530 METAR LRSB 051530Z 33004KT CAVOK 07/04 Q1023=
201902051600 METAR LRSB 051600Z 32004KT CAVOK 07/04 Q1023=
201902051630 METAR LRSB 051630Z 29005KT CAVOK 05/03 Q1024=
201902051700 METAR LRSB 051700Z 26003KT CAVOK 04/03 Q1024=
201902051730 METAR LRSB 051730Z 25003KT CAVOK 05/03 Q1024=
201902051800 METAR LRSB 051800Z 25003KT CAVOK 06/04 Q1024=
201902051830 METAR LRSB 051830Z 00000KT 9999 BKN025 05/04 Q1024=
201902051900 METAR LRSB 051900Z 05003KT 9999 BKN025 05/03 Q1024=
201902051930 METAR LRSB 051930Z 02002KT 9999 BKN022 05/04 Q1024=
201902052000 METAR LRSB 052000Z 01003KT 9999 OVC025 05/04 Q1024=
201902052030 METAR COR LRSB 052030Z 05002KT 9999 OVC025 05/04 Q1024=
201902052100 METAR LRSB 052100Z VRB02KT 9999 OVC025 05/03 Q1024=
201902052130 METAR LRSB 052130Z VRB01KT 6000 OVC022 05/03 Q1024=
201902052200 METAR LRSB 052200Z 01001KT 6000 OVC023 05/03 Q1024=
201902052230 METAR LRSB 052230Z VRB01KT 6000 OVC022 05/03 Q1024=
201902052300 METAR COR LRSB 052300Z 00000KT 9999 OVC021 05/03 Q1024=
201902052330 METAR LRSB 052330Z 00000KT 6000 OVC021 05/03 Q1024=
201902060000 METAR LRSB 060000Z 00000KT 6000 OVC021 05/04 Q1023=
201902060030 METAR LRSB 060030Z 00000KT 6000 OVC021 05/04 Q1023=
201902060100 METAR LRSB 060100Z 23001KT 6000 OVC021 05/04 Q1023=
201902060130 METAR COR LRSB 060130Z 35003KT 6000 SCT009 OVC021 05/04 Q1023=
201902060200 METAR LRSB 060200Z 36002KT 6000 BKN007 OVC020 05/03 Q1023=
201902060230 METAR LRSB 060230Z 36003KT 6000 OVC012 05/04 Q1023=
201902060300 METAR LRSB 060300Z VRB01KT 6000 OVC010 05/03 Q1023=
201902060330 METAR LRSB 060330Z VRB01KT 6000 OVC012 05/03 Q1023=
201902060400 METAR LRSB 060400Z VRB02KT 6000 OVC015 05/03 Q1023=
201902060430 METAR LRSB 060430Z 03003KT 6000 OVC015 04/03 Q1022=
201902060500 METAR LRSB 060500Z 01003KT 6000 OVC021 04/03 Q1022=
201902060530 METAR LRSB 060530Z VRB02KT 6000 OVC015 04/03 Q1023=
201902060600 METAR LRSB 060600Z 32004KT 3500 BR FEW007 BKN008 04/03 Q1023=
201902060630 METAR LRSB 060630Z 34004KT 3000 BR FEW006 BKN007 04/03 Q1023=
201902060700 METAR LRSB 060700Z 33005KT 2500 BR FEW005 BKN006 04/03 Q1023=
201902060730 METAR LRSB 060730Z 34004KT 3000 BR FEW005 BKN009 04/03 Q1023=
201902060800 METAR LRSB 060800Z 30003KT 2500 BR FEW003 SCT009 BKN012 04/03
                        Q1023=
201902060830 METAR LRSB 060830Z 24004KT 2500 BR FEW002 SCT003 BKN014 04/03
                        Q1023=
201902060900 METAR LRSB 060900Z 25004KT 3000 BR SCT002 BKN016 05/04 Q1023=
201902060930 METAR LRSB 060930Z 27003KT 4000 BR FEW005 SCT009 BKN016 05/03
                        Q1023=
201902061000 METAR LRSB 061000Z 36005KT 9999 SCT008 BKN013 05/03 Q1023=
201902061030 METAR LRSB 061030Z 36007KT 9000 FEW008 BKN014 05/03 Q1023=
201902061100 METAR LRSB 061100Z 35009KT 9999 BKN014 05/03 Q1023=
201902061130 METAR LRSB 061130Z 35007KT 9999 FEW006 BKN014 05/03 Q1022=
201902061200 METAR LRSB 061200Z 35006KT 9999 FEW009 OVC015 06/03 Q1022=
201902061230 METAR LRSB 061230Z 33005KT 9999 OVC015 06/01 Q1022=
201902061300 METAR LRSB 061300Z 34004KT 300V010 9999 OVC017 06/01 Q1022=
201902061330 METAR LRSB 061330Z 33003KT 300V360 9999 OVC016 06/01 Q1022=
201902061400 METAR LRSB 061400Z 27004KT 9999 FEW010 BKN013 06/02 Q1022=
201902061430 METAR LRSB 061430Z 29003KT 230V330 9999 OVC064 06/01 Q1022=
201902061500 METAR LRSB 061500Z 25004KT 9999 OVC064 06/02 Q1022=
201902061530 METAR LRSB 061530Z 26003KT 8000 OVC063 05/03 Q1022=
201902061600 METAR LRSB 061600Z 26002KT 9999 OVC063 05/03 Q1022=
201902061630 METAR LRSB 061630Z 26003KT 9999 OVC063 05/03 Q1022=
201902061700 METAR LRSB 061700Z 25002KT 9999 OVC067 05/03 Q1022=
201902061730 METAR LRSB 061730Z VRB01KT 9999 BKN066 05/03 Q1022=
201902061800 METAR LRSB 061800Z VRB02KT 9999 SCT065 03/01 Q1023=
201902061830 METAR LRSB 061830Z 00000KT 9999 SCT025 SCT065 03/01 Q1023=
201902061900 METAR LRSB 061900Z 31002KT 9999 SCT016 SCT026 BKN066 03/01
                        Q1023=
201902061930 METAR LRSB 061930Z 31004KT 290V350 9999 SCT017 BKN023 03/01
                        Q1023=
201902062000 METAR LRSB 062000Z 34006KT 9999 FEW019 BKN024 01/M00 Q1024=
201902062030 METAR LRSB 062030Z 34006KT 9999 BKN021 01/M00 Q1024=
201902062100 METAR LRSB 062100Z 30004KT 220V340 9999 BKN022 01/M00 Q1024=
201902062130 METAR LRSB 062130Z VRB02KT 9999 BKN012 BKN026 02/M00 Q1024=
201902062200 METAR LRSB 062200Z 30004KT 260V330 9999 BKN013 OVC026 02/M00
                        Q1024=
201902062230 METAR LRSB 062230Z 30004KT 9999 OVC015 02/M00 Q1024=
201902062300 METAR LRSB 062300Z 27003KT 9999 BKN015 BKN027 02/M00 Q1024=
201902062330 METAR LRSB 062330Z 27003KT 9999 FEW009 SCT017 02/M00 Q1024=
201902070000 METAR LRSB 070000Z AUTO 27003KT 7000 FEW009/// OVC026///
                        01/M00 Q1024=
201902070030 METAR COR LRSB 070030Z 28003KT 9999 OVC024 01/M00 Q1024=
201902070100 METAR COR LRSB 070100Z 28002KT 8000 BKN021 02/M00 Q1023=
201902070130 METAR LRSB 070130Z 30003KT 8000 BKN020 02/M00 Q1023=
201902070200 METAR LRSB 070200Z 28002KT 9999 OVC023 02/M00 Q1023=
201902070230 METAR LRSB 070230Z 30001KT 9999 OVC023 02/M00 Q1023=
201902070300 METAR LRSB 070300Z 00000KT 9999 OVC024 02/M00 Q1023=
201902070330 METAR LRSB 070330Z 00000KT 9999 OVC023 02/M00 Q1023=
201902070400 METAR LRSB 070400Z 00000KT 9999 SCT012 BKN018 02/M00 Q1023=
201902070430 METAR LRSB 070430Z 00000KT 9999 BKN011 BKN019 02/00 Q1023=
201902070500 METAR LRSB 070500Z 00000KT 9999 FEW008 SCT012 BKN016 02/M00
                        Q1023=
201902070530 METAR LRSB 070530Z 00000KT 9999 SCT009 BKN014 02/M00 Q1023=
201902070600 METAR LRSB 070600Z 00000KT 7000 BKN009 OVC012 02/00 Q1023=
201902070630 METAR LRSB 070630Z 00000KT 8000 SCT010 OVC013 02/M00 Q1024=
201902070700 METAR LRSB 070700Z 00000KT 8000 SCT010 OVC015 02/M00 Q1024=
201902070730 METAR LRSB 070730Z VRB01KT 8000 BKN009 OVC015 02/00 Q1024=
201902070800 METAR LRSB 070800Z 00000KT 8000 BKN009 OVC017 02/00 Q1024=
201902070830 METAR LRSB 070830Z 00000KT 9000 BKN009 OVC017 02/00 Q1024=
201902070900 METAR LRSB 070900Z VRB02KT 8000 SCT008 BKN017 02/01 Q1024=
201902070930 METAR LRSB 070930Z 12004KT 9000 SCT009 BKN019 02/00 Q1024=
201902071000 METAR LRSB 071000Z 11004KT 9000 SCT010 BKN020 02/M00 Q1023=
201902071030 METAR LRSB 071030Z 10004KT 9999 FEW009 OVC020 02/M01 Q1023=
201902071100 METAR LRSB 071100Z 12005KT 9999 OVC022 03/M01 Q1023=
201902071130 METAR LRSB 071130Z 14005KT 9999 BKN022 SCT030 03/M01 Q1023=
201902071200 METAR LRSB 071200Z 12007KT 9999 SCT022 BKN028 03/M01 Q1022=
201902071230 METAR LRSB 071230Z 14005KT 9999 OVC028 03/M01 Q1022=
201902071300 METAR LRSB 071300Z 14006KT 9999 OVC027 03/M01 Q1022=
201902071330 METAR LRSB 071330Z 14005KT 9999 OVC026 03/M01 Q1022=
201902071400 METAR LRSB 071400Z 13005KT 9999 OVC026 03/M01 Q1022=
201902071430 METAR LRSB 071430Z 11004KT 9999 OVC025 03/M01 Q1022=
201902071500 METAR LRSB 071500Z 11004KT 9999 BKN024 03/M01 Q1022=
201902071530 METAR LRSB 071530Z 10004KT 9999 BKN024 03/M01 Q1021=
201902071600 METAR LRSB 071600Z 13004KT 9999 BKN024 03/M00 Q1021=
201902071630 METAR LRSB 071630Z 13003KT 9999 BKN023 03/M01 Q1021=
201902071700 METAR LRSB 071700Z 15004KT 9999 OVC022 03/M01 Q1021=
201902071730 METAR LRSB 071730Z AUTO 14003KT 110V170 9999 OVC022/// 03/M00
                        Q1021=
201902071800 METAR LRSB 071800Z 15002KT 9999 OVC022 03/M00 Q1021=
201902071830 METAR LRSB 071830Z 16004KT 130V190 9999 OVC022 03/M00 Q1021=
201902071900 METAR LRSB 071900Z 12003KT 9999 OVC023 03/M01 Q1021=
201902071930 METAR LRSB 071930Z 10003KT 9999 OVC024 03/M00 Q1021=
201902072000 METAR LRSB 072000Z 09003KT 060V130 9999 OVC023 03/M00 Q1021=
201902072030 METAR LRSB 072030Z 11004KT 9999 OVC024 03/M00 Q1021=
201902072100 METAR LRSB 072100Z VRB02KT 9999 OVC024 02/M01 Q1020=
201902072130 METAR LRSB 072130Z VRB02KT 9999 OVC025 03/M01 Q1020=
201902072200 METAR LRSB 072200Z 10002KT 9999 OVC026 02/M01 Q1020=
201902072230 METAR LRSB 072230Z 10004KT 9999 OVC027 02/M00 Q1020=
201902072300 METAR LRSB 072300Z 10003KT 9999 OVC026 02/M01 Q1020=
201902072330 METAR LRSB 072330Z 09003KT 9999 OVC026 02/M01 Q1020=
201902080000 METAR LRSB 080000Z 10003KT 9999 OVC026 02/M01 Q1020=
201902080030 METAR LRSB 080030Z 10005KT 9999 OVC026 01/M01 Q1020=
201902080100 METAR LRSB 080100Z AUTO 12003KT 9999 OVC028/// 01/M01 Q1019=
201902080130 METAR LRSB 080130Z AUTO 11002KT 9999 OVC028/// 01/M01 Q1019=
201902080200 METAR LRSB 080200Z 10004KT 9999 OVC027 01/M01 Q1019=
201902080230 METAR LRSB 080230Z 11003KT 9999 OVC028 01/M01 Q1019=
201902080300 METAR LRSB 080300Z 11003KT 9999 OVC029 01/M01 Q1019=
201902080330 METAR LRSB 080330Z 14003KT 9999 OVC029 01/M01 Q1019=
201902080400 METAR LRSB 080400Z 12003KT 9999 OVC029 01/M01 Q1019=
201902080430 METAR LRSB 080430Z 11003KT 9999 OVC028 01/M01 Q1019=
201902080500 METAR LRSB 080500Z 11002KT 9999 OVC029 00/M01 Q1019=
201902080530 METAR LRSB 080530Z 11003KT 9999 OVC029 01/M01 Q1019=
201902080600 METAR LRSB 080600Z 12003KT 9999 OVC027 01/M01 Q1020=
201902080630 METAR LRSB 080630Z 00000KT 9999 OVC030 01/M02 Q1020=
201902080700 METAR COR LRSB 080700Z 11003KT 9999 OVC029 01/M01 Q1020=
201902080730 METAR LRSB 080730Z 11003KT 9999 OVC029 01/M02 Q1020=
201902080800 METAR LRSB 080800Z 13004KT 9999 OVC029 02/M02 Q1020=
201902080830 METAR LRSB 080830Z AUTO 12003KT 9999 OVC029/// 02/M02 Q1020=
201902080900 METAR LRSB 080900Z 12003KT 9999 OVC029 02/M02 Q1020=
201902080930 METAR LRSB 080930Z 15003KT 9999 OVC030 02/M02 Q1020=
201902081000 METAR LRSB 081000Z VRB02KT 9999 OVC027 02/M04 Q1020=
201902081030 METAR LRSB 081030Z VRB02KT 9999 OVC030 03/M04 Q1020=
201902081100 METAR LRSB 081100Z VRB01KT 9999 OVC029 03/M04 Q1020=
201902081130 METAR LRSB 081130Z 29003KT 9999 OVC028 03/M04 Q1020=
201902081200 METAR LRSB 081200Z VRB02KT 9999 OVC028 03/M04 Q1020=
201902081230 METAR LRSB 081230Z 36004KT 320V030 9999 OVC029 03/M03 Q1020=
201902081300 METAR LRSB 081300Z 01005KT 9999 OVC029 03/M03 Q1020=
201902081330 METAR LRSB 081330Z 36005KT 9999 OVC028 03/M04 Q1020=
201902081400 METAR LRSB 081400Z 04005KT 9999 OVC030 03/M04 Q1020=
201902081430 METAR LRSB 081430Z 36004KT 9999 OVC028 03/M03 Q1020=
201902081500 METAR LRSB 081500Z 05003KT 9999 OVC028 02/M03 Q1020=
201902081530 METAR LRSB 081530Z VRB01KT 9999 OVC029 02/M03 Q1020=
201902081600 METAR LRSB 081600Z 01004KT 9999 OVC029 02/M04 Q1020=
201902081630 METAR LRSB 081630Z 36003KT 9999 OVC030 02/M04 Q1020=
201902081700 METAR LRSB 081700Z 36004KT 9999 OVC030 02/M03 Q1021=
201902081730 METAR LRSB 081730Z 02003KT 340V040 9999 OVC030 02/M03 Q1021=
201902081800 METAR LRSB 081800Z 36003KT 320V030 9999 OVC030 02/M03 Q1021=
201902081830 METAR LRSB 081830Z VRB02KT 9999 OVC030 02/M03 Q1021=
201902081900 METAR LRSB 081900Z 36004KT 330V030 9999 OVC031 02/M04 Q1021=
201902081930 METAR LRSB 081930Z VRB02KT 9999 OVC031 01/M03 Q1021=
201902082000 METAR LRSB 082000Z VRB01KT 9999 OVC030 01/M03 Q1021=
201902082030 METAR LRSB 082030Z VRB01KT 9999 OVC030 02/M04 Q1021=
201902082100 METAR LRSB 082100Z 00000KT 9999 OVC030 01/M04 Q1021=
201902082130 METAR LRSB 082130Z VRB01KT 9999 OVC030 01/M03 Q1021=
201902082200 METAR LRSB 082200Z 27004KT 230V290 9999 OVC030 02/M04 Q1021=
201902082230 METAR LRSB 082230Z VRB02KT 9999 OVC030 01/M03 Q1021=
201902082300 METAR LRSB 082300Z VRB02KT 9999 OVC030 02/M05 Q1021=
201902082330 METAR LRSB 082330Z 00000KT 9999 OVC030 01/M04 Q1021=
201902090000 METAR LRSB 090000Z 00000KT 9999 OVC029 01/M03 Q1021=
201902090030 METAR LRSB 090030Z 00000KT 9999 OVC029 01/M04 Q1021=
201902090100 METAR LRSB 090100Z 21002KT 9999 OVC029 01/M03 Q1021=
201902090130 METAR LRSB 090130Z 24003KT 190V290 9999 OVC029 01/M05 Q1020=
201902090200 METAR LRSB 090200Z VRB01KT 9999 OVC029 01/M05 Q1020=
201902090230 METAR COR LRSB 090230Z 29003KT 9999 OVC029 01/M04 Q1020=
201902090300 METAR LRSB 090300Z 30005KT 9999 OVC029 01/M04 Q1021=
201902090330 METAR LRSB 090330Z 31004KT 9999 OVC030 01/M05 Q1021=
201902090400 METAR LRSB 090400Z VRB02KT 9999 OVC030 01/M04 Q1021=
201902090430 METAR COR LRSB 090430Z 30003KT 240V330 9999 OVC030 01/M05
                        Q1020=
201902090500 METAR LRSB 090500Z VRB01KT 9999 OVC030 01/M05 Q1020=
201902090530 METAR LRSB 090530Z 25001KT 9999 OVC030 00/M04 Q1020=
201902090600 METAR LRSB 090600Z 27002KT 9999 OVC029 00/M05 Q1020=
201902090630 METAR LRSB 090630Z VRB01KT 9999 OVC029 01/M05 Q1020=
201902090700 METAR LRSB 090700Z VRB02KT 9999 OVC029 01/M06 Q1020=
201902090730 METAR LRSB 090730Z VRB02KT 9999 OVC028 01/M05 Q1020=
201902090800 METAR LRSB 090800Z VRB02KT 9999 BKN028 01/M05 Q1020=
201902090830 METAR LRSB 090830Z VRB03KT 9999 BKN029 02/M05 Q1020=
201902090900 METAR LRSB 090900Z 30004KT 240V340 9999 BKN028 02/M05 Q1020=
201902090930 METAR LRSB 090930Z 32003KT 270V010 9999 FEW029 02/M05 Q1020=
201902091000 METAR LRSB 091000Z 29003KT 220V360 CAVOK 03/M05 Q1020=
201902091030 METAR LRSB 091030Z VRB03KT CAVOK 03/M05 Q1020=
201902091100 METAR LRSB 091100Z 04004KT 330V130 CAVOK 03/M04 Q1020=
201902091130 METAR LRSB 091130Z VRB03KT CAVOK 04/M05 Q1019=
201902091200 METAR LRSB 091200Z VRB04KT CAVOK 04/M05 Q1019=
201902091230 METAR LRSB 091230Z 32003KT 240V040 CAVOK 04/M04 Q1019=
201902091300 METAR LRSB 091300Z VRB02KT CAVOK 04/M05 Q1019=
201902091330 METAR LRSB 091330Z 35007KT CAVOK 04/M04 Q1019=
201902091400 METAR LRSB 091400Z 03004KT CAVOK 04/M04 Q1019=
201902091430 METAR LRSB 091430Z 34006KT CAVOK 04/M04 Q1019=
201902091500 METAR LRSB 091500Z 35006KT CAVOK 03/M04 Q1019=
201902091530 METAR LRSB 091530Z 35003KT CAVOK 03/M04 Q1019=
201902091600 METAR LRSB 091600Z 35003KT CAVOK 02/M04 Q1019=
201902091630 METAR LRSB 091630Z 29003KT 240V320 CAVOK 00/M04 Q1019=
201902091700 METAR LRSB 091700Z 25005KT CAVOK M01/M03 Q1019=
201902091730 METAR LRSB 091730Z 28004KT CAVOK M01/M04 Q1020=
201902091800 METAR LRSB 091800Z 26005KT CAVOK M01/M03 Q1020=
201902091830 METAR LRSB 091830Z 24005KT CAVOK M01/M03 Q1020=
201902091900 METAR LRSB 091900Z 32004KT CAVOK M00/M04 Q1020=
201902091930 METAR LRSB 091930Z VRB01KT CAVOK M02/M04 Q1020=
201902092000 METAR LRSB 092000Z VRB01KT CAVOK M02/M04 Q1020=
201902092030 METAR LRSB 092030Z VRB01KT CAVOK M02/M04 Q1020=
201902092100 METAR LRSB 092100Z 27002KT CAVOK M03/M05 Q1021=
201902092130 METAR LRSB 092130Z VRB02KT CAVOK M03/M04 Q1021=
201902092200 METAR LRSB 092200Z 10002KT CAVOK M03/M04 Q1021=
201902092230 METAR LRSB 092230Z 04002KT CAVOK M03/M04 Q1020=
201902092300 METAR LRSB 092300Z 24001KT CAVOK M04/M05 Q1020=
201902092330 METAR LRSB 092330Z AUTO 33003KT 6000 NCD M03/M04 Q1020=
201902100000 METAR LRSB 100000Z AUTO 00000KT 5000 BR NCD M04/M05 Q1021=
201902100030 METAR LRSB 100030Z VRB01KT CAVOK M05/M06 Q1021=
201902100100 METAR LRSB 100100Z VRB01KT CAVOK M06/M06 Q1021=
201902100130 METAR LRSB 100130Z 10002KT CAVOK M04/M05 Q1021=
201902100200 METAR LRSB 100200Z 14003KT CAVOK M04/M04 Q1021=
201902100230 METAR LRSB 100230Z 05001KT CAVOK M05/M05 Q1020=
201902100300 METAR LRSB 100300Z 34002KT CAVOK M05/M06 Q1020=
201902100330 METAR LRSB 100330Z 27002KT CAVOK M05/M06 Q1020=
201902100400 METAR LRSB 100400Z 21003KT CAVOK M05/M05 Q1020=
201902100430 METAR LRSB 100430Z 00000KT CAVOK M05/M06 Q1021=
201902100500 METAR LRSB 100500Z 12003KT CAVOK M05/M05 Q1021=
201902100530 METAR LRSB 100530Z VRB01KT CAVOK M05/M05 Q1021=
201902100600 METAR LRSB 100600Z 05001KT CAVOK M05/M05 Q1021=
201902100630 METAR LRSB 100630Z 01001KT CAVOK M04/M05 Q1021=
201902100700 METAR LRSB 100700Z 00000KT CAVOK M03/M04 Q1021=
201902100730 METAR LRSB 100730Z 07002KT 4000 BR NSC M03/M04 Q1021=
201902100800 METAR LRSB 100800Z 13002KT 5000 BR NSC M02/M03 Q1021=
201902100830 METAR LRSB 100830Z VRB02KT 5000 BR NSC M01/M03 Q1020=
201902100900 METAR LRSB 100900Z 09004KT 070V140 6000 NSC M00/M02 Q1020=
201902100930 METAR LRSB 100930Z 10005KT CAVOK 01/M02 Q1020=
201902101000 METAR LRSB 101000Z 08004KT 030V120 CAVOK 02/M03 Q1020=
201902101030 METAR LRSB 101030Z 09004KT 070V140 CAVOK 03/M03 Q1019=
201902101100 METAR LRSB 101100Z 11003KT 030V160 CAVOK 03/M03 Q1019=
201902101130 METAR LRSB 101130Z 13004KT 080V160 CAVOK 04/M03 Q1018=
201902101200 METAR LRSB 101200Z 13004KT 100V160 CAVOK 04/M03 Q1018=
201902101230 METAR LRSB 101230Z 16004KT CAVOK 05/M03 Q1018=
201902101300 METAR LRSB 101300Z 11005KT CAVOK 05/M02 Q1017=
201902101330 METAR LRSB 101330Z 14005KT CAVOK 05/M02 Q1017=
201902101400 METAR LRSB 101400Z VRB02KT CAVOK 06/M02 Q1017=
201902101430 METAR LRSB 101430Z 20002KT CAVOK 06/M01 Q1017=
201902101500 METAR LRSB 101500Z 21002KT CAVOK 06/M00 Q1016=
201902101530 METAR LRSB 101530Z 20002KT CAVOK 04/M02 Q1016=
201902101600 METAR LRSB 101600Z 22001KT CAVOK 03/M02 Q1015=
201902101630 METAR LRSB 101630Z 00000KT CAVOK 02/M01 Q1015=
201902101700 METAR LRSB 101700Z 27005KT CAVOK 02/M01 Q1015=
201902101730 METAR LRSB 101730Z 28002KT 6000 NSC 02/M01 Q1015=
201902101800 METAR LRSB 101800Z 23002KT 7000 NSC 01/M01 Q1014 NOSIG=
201902101830 METAR LRSB 101830Z 29003KT 6000 NSC M00/M02 Q1014 NOSIG=
201902101900 METAR LRSB 101900Z VRB01KT 6000 NSC M00/M02 Q1014 NOSIG=
201902101930 METAR LRSB 101930Z VRB01KT 5000 BR NSC M01/M02 Q1013 NOSIG=
201902102000 METAR LRSB 102000Z VRB02KT 5000 BR NSC M01/M02 Q1013 NOSIG=
201902102030 METAR LRSB 102030Z VRB02KT 5000 BR NSC M01/M01 Q1013 NOSIG=
201902102100 METAR LRSB 102100Z 27003KT 240V310 5000 BR NSC M01/M02 Q1012
                        NOSIG=
201902102130 METAR LRSB 102130Z VRB02KT 5000 BR NSC M01/M02 Q1012 NOSIG=
201902102200 METAR LRSB 102200Z VRB01KT 5000 BR NSC M01/M02 Q1011 NOSIG=
201902102230 METAR LRSB 102230Z 27002KT 5000 BR NSC M02/M02 Q1011 NOSIG=
201902102300 METAR LRSB 102300Z 25003KT 5000 BR NSC M01/M02 Q1011 NOSIG=
201902102330 METAR LRSB 102330Z VRB01KT 5000 BR NSC M01/M02 Q1010 NOSIG=
201902110000 METAR LRSB 110000Z VRB01KT 5000 BR NSC M01/M02 Q1010 NOSIG=
201902110030 METAR LRSB 110030Z 00000KT 5000 BR NSC M01/M01 Q1010 NOSIG=
201902110100 METAR LRSB 110100Z VRB01KT 6000 NSC M01/M01 Q1010 NOSIG=
201902110130 METAR LRSB 110130Z VRB01KT 6000 NSC M01/M02 Q1009 NOSIG=
201902110200 METAR LRSB 110200Z VRB03KT 6000 NSC M01/M02 Q1009 NOSIG=
201902110230 METAR LRSB 110230Z VRB01KT 7000 NSC M01/M02 Q1008 NOSIG=
201902110300 METAR LRSB 110300Z VRB01KT 8000 NSC M01/M02 Q1008 NOSIG=
201902110330 METAR LRSB 110330Z 27003KT 220V300 8000 NSC M01/M02 Q1008
                        NOSIG=
201902110400 METAR LRSB 110400Z VRB01KT 8000 FEW080 M01/M02 Q1007 NOSIG=
201902110430 METAR LRSB 110430Z 36003KT 320V040 9000 FEW080 M01/M03 Q1007
                        NOSIG=
201902110500 METAR LRSB 110500Z VRB02KT 9000 FEW086 M02/M02 Q1007 NOSIG=
201902110530 METAR LRSB 110530Z 24004KT 210V270 9999 SCT088 M01/M02 Q1007
                        NOSIG=
201902110600 METAR LRSB 110600Z VRB01KT 9999 SCT086 M01/M02 Q1007 NOSIG=
201902110630 METAR LRSB 110630Z 27003KT 9999 SCT086 01/M01 Q1007=
201902110700 METAR LRSB 110700Z VRB01KT 9999 SCT083 02/00 Q1006=
201902110730 METAR LRSB 110730Z 25003KT 9999 SCT083 03/00 Q1006=
201902110800 METAR LRSB 110800Z 23003KT 9999 FEW066 SCT080 04/M01 Q1005=
201902110830 METAR LRSB 110830Z VRB02KT 9999 FEW065 SCT078 08/00 Q1005=
201902110900 METAR LRSB 110900Z 35005KT 9999 FEW065 SCT078 08/01 Q1005=
201902110930 METAR LRSB 110930Z 31007KT 9999 FEW064 BKN078 10/01 Q1005=
201902111000 METAR LRSB 111000Z 33005KT 9999 SCT062 BKN074 08/M00 Q1005=
201902111030 METAR LRSB 111030Z 28005KT 250V310 9999 SCT061 BKN072 07/00
                        Q1005=
201902111100 METAR LRSB 111100Z VRB01KT 9999 SCT062 BKN074 08/00 Q1005=
201902111130 METAR LRSB 111130Z 09004KT 9999 SCT062 BKN076 09/M01 Q1004=
201902111200 METAR LRSB 111200Z 06003KT 9999 SCT060 BKN072 09/M00 Q1003=
201902111230 METAR LRSB 111230Z 01005KT 9999 FEW060 BKN072 09/00 Q1003=
201902111300 METAR LRSB 111300Z VRB02KT 9999 FEW059 SCT068 10/00 Q1003=
201902111330 METAR LRSB 111330Z 18009KT 9999 FEW062 SCT077 12/01 Q1003=
201902111400 METAR LRSB 111400Z 20009KT 9999 SCT080 13/01 Q1002=
201902111430 METAR LRSB 111430Z 18006KT 150V210 9999 FEW056 SCT080 12/01
                        Q1002=
201902111500 METAR LRSB 111500Z 32005KT 230V010 9999 FEW054 SCT064 BKN080
                        11/01 Q1003=
201902111530 METAR LRSB 111530Z 23004KT 9999 SCT052 BKN072 08/03 Q1003=
201902111600 METAR LRSB 111600Z 24004KT 200V270 9999 SCT064 SCT074 09/01
                        Q1003=
201902111630 METAR LRSB 111630Z 08002KT 9999 FEW065 SCT075 09/01 Q1003=
201902111700 METAR LRSB 111700Z 11007KT 9999 FEW071 SCT080 07/01 Q1003=
201902111730 METAR LRSB 111730Z 10004KT 9999 BKN066 07/01 Q1003=
201902111800 METAR LRSB 111800Z 34005KT 9999 OVC067 06/02 Q1003=
201902111830 METAR LRSB 111830Z 00000KT 9999 BKN057 06/02 Q1004=
201902111900 METAR LRSB 111900Z 26004KT 9999 OVC055 06/02 Q1004=
201902111930 METAR LRSB 111930Z 27004KT 250V320 9999 -RA BKN038 OVC080
                        05/03 Q1004 R27/19//95=
201902112000 METAR LRSB 112000Z 32010KT 9999 -RA SCT033 OVC083 05/02 Q1004
                        R27/19//95=
201902112030 METAR LRSB 112030Z 30005KT 260V340 6000 -RA OVC028 04/03
                        Q1005 R27/19//95=
201902112100 METAR LRSB 112100Z 30008KT 5000 -RA BR FEW008 BKN022 OVC070
                        04/03 Q1005 R27/19//95=
201902112130 METAR LRSB 112130Z 30006KT 5000 RA BR FEW007 SCT009 BKN023
                        03/03 Q1005 R27/19//95=
201902112200 METAR LRSB 112200Z 30006KT 5000 RA BR FEW005 BKN020 OVC070
                        03/03 Q1005 R27/19//95=
201902112230 METAR LRSB 112230Z 31006KT 280V340 5000 RA BR SCT009 BKN020
                        OVC070 02/01 Q1005 R27/29//95=
201902112300 METAR LRSB 112300Z 27004KT 2500 -SN BR FEW003 SCT006 OVC020
                        00/00 Q1006 R27/29//95=
201902112330 METAR LRSB 112330Z 26004KT 3000 -SN BR SCT003 OVC020 00/00
                        Q1006 R27/29//95=
201902120000 METAR LRSB 120000Z 25006KT 2900 -SN BR SCT018 OVC040 00/00
                        Q1006 R27/29//95=
201902120030 METAR LRSB 120030Z AUTO 26006KT 4300 PL FEW009/// SCT017///
                        ///// Q1006=
201902120100 METAR LRSB 120100Z 25005KT 5000 -SN BR SCT009 SCT014 OVC040
                        00/00 Q1006 R27/29//95=
201902120130 METAR LRSB 120130Z VRB01KT 5000 -SN BR FEW009 BKN016 00/00
                        Q1006 R27/29//95=
201902120200 METAR LRSB 120200Z 28003KT 3500 -SN BR SCT006 OVC018 M00/M00
                        Q1006 R27/29//95=
201902120230 METAR LRSB 120230Z VRB02KT 3500 -SN BR SCT003 OVC018 M00/M00
                        Q1006 R27/29//95=
201902120300 METAR LRSB 120300Z VRB01KT 2500 -SN BR SCT002 OVC016 M00/M00
                        Q1007 R27/29//95=
201902120330 METAR LRSB 120330Z 00000KT 2000 R27/1300VP2000D -SN BR FEW001
                        BKN004 OVC016 00/00 Q1007 R27/29//95=
201902120400 METAR LRSB 120400Z 00000KT 1400 R27/1200VP2000D -SN BR FEW001
                        SCT004 OVC016 00/00 Q1007 R27/29//95=
201902120430 METAR LRSB 120430Z 00000KT 1100 R27/1100V2000D SN BR FEW003
                        BKN004 OVC014 00/00 Q1007 R27/29//95=
201902120500 METAR LRSB 120500Z 25004KT 2600 -SN BR FEW002 SCT004 OVC014
                        00/00 Q1007 R27/690293=
201902120530 METAR LRSB 120530Z 27003KT 2800 R27/2000 -SN BR FEW002 SCT003
                        OVC014 00/00 Q1008 R27/690293=
201902120600 METAR LRSB 120600Z 27003KT 2500 -SN FEW006 OVC020 00/00 Q1007
                        R27/690293=
201902120630 METAR LRSB 120630Z 28004KT 2500 -SN FEW004 OVC020 00/00 Q1008
                        R27/690294=
201902120700 METAR LRSB 120700Z 28009KT 2500 -SN BR SCT008 OVC020 01/01
                        Q1008 R27/690294=
201902120730 METAR LRSB 120730Z 30009KT 2000 -SN BR SCT007 OVC020 01/01
                        Q1008 R27/690294=
201902120800 METAR LRSB 120800Z 30009KT 1600 SN SCT005 OVC020 00/00 Q1009
                        R27/690294=
201902120830 METAR LRSB 120830Z 29011KT 1100 R27/11000D SN BKN004 OVC020
                        00/00 Q1009 R27/690294=
201902120900 METAR LRSB 120900Z 30012KT 1100 R27/1100N SN SCT005 OVC020
                        00/00 Q1010 R27/690593=
201902120930 METAR LRSB 120930Z 30013KT 1000 R27/1100D SN SCT005 OVC020
                        00/00 Q1010 R27/690593=
201902121000 METAR LRSB 121000Z 30012KT 1000 R27/1000D SN SCT004 OVC020
                        00/00 Q1011 R27/690593=
201902121030 METAR LRSB 121030Z 30011KT 1000 R27/1200N SN SCT005 OVC020
                        00/00 Q1011 R27/690593=
201902121100 METAR LRSB 121100Z 29009KT 1000 R27/1100U SN BKN005 OVC020
                        00/00 Q1011 R27/690294=
201902121130 METAR LRSB 121130Z 28008KT 1400 R27/1500U -SN BKN050 OVC020
                        01/01 Q1011 R27/690294=
201902121200 METAR LRSB 121200Z 28010KT 1600 -SN BKN008 OVC020 01/01 Q1012
                        R27/29//95=
201902121230 METAR LRSB 121230Z 27009KT 2000 -SN BKN008 OVC020 01/01 Q1012
                        R27/29//95=
201902121300 METAR LRSB 121300Z 28011KT 3000 -SN BKN008 OVC020 01/01 Q1012
                        R27/29//95=
201902121330 METAR LRSB 121330Z 28012KT 4000 -SN BKN010 OVC020 01/01 Q1013
                        R27/29//95=
201902121400 METAR LRSB 121400Z 29014KT 3000 -SN SCT008 OVC020 01/M00
                        Q1013 R27/29//95=
201902121430 METAR LRSB 121430Z 34007KT 310V010 5000 -SN SCT010 OVC020
                        01/M00 Q1014 R27/29//95=
201902121500 METAR LRSB 121500Z 36008KT 6000 -SN SCT010 OVC020 01/M01
                        Q1014 R27/29//95=
201902121530 METAR COR LRSB 121530Z 32008KT 1800 SN BKN007 OVC020 00/M01
                        Q1015 R27/29//95=
201902121600 METAR LRSB 121600Z 34006KT 5000 -SN SCT002 OVC020 00/M00
                        Q1015 R27/690494=
201902121630 METAR COR LRSB 121630Z 33005KT 9999 SCT010 OVC030 01/M00
                        Q1016 R27/29//95=
201902121700 METAR LRSB 121700Z 33005KT 9999 -SN SCT010 OVC020 01/M00
                        Q1017 R27/29//95=
201902121730 METAR LRSB 121730Z 31009KT 9999 -SN FEW008 BKN020 OVC040
                        M00/M01 Q1018 R27/29//95=
201902121800 METAR LRSB 121800Z 35005KT 9999 SCT022 BKN033 OVC044 00/M01
                        Q1018 R27/29//95=
201902121830 METAR LRSB 121830Z 30007KT 9999 SCT035 BKN047 OVC055 M00/M02
                        Q1019 R27/29//95=
201902121900 METAR LRSB 121900Z 31006KT 9999 SCT048 BKN060 M00/M03 Q1019
                        R27/29//95=
201902121930 METAR LRSB 121930Z 31003KT 9999 SCT052 BKN064 M00/M03 Q1020
                        R27/29//95=
201902122000 METAR LRSB 122000Z 01004KT 310V040 9999 SCT053 BKN063 M01/M04
                        Q1020 R27/29//95=
201902122030 METAR LRSB 122030Z 35003KT 320V020 9999 FEW040 SCT052 BKN060
                        M01/M04 Q1021 R27/29//95=
201902122100 METAR LRSB 122100Z 33002KT 9999 FEW043 SCT054 BKN063 M01/M04
                        Q1021 R27/29//95=
201902122130 METAR LRSB 122130Z 32005KT 9999 SCT044 BKN056 M01/M04 Q1021
                        R27/29//95=
201902122200 METAR LRSB 122200Z 35005KT 9999 SCT044 BKN057 M01/M04 Q1022
                        R27/29//95=
201902122230 METAR LRSB 122230Z 32004KT 9999 SCT048 BKN060 M01/M04 Q1022
                        R27/29//95=
201902122300 METAR LRSB 122300Z 01004KT 9999 SCT049 BKN064 M02/M04 Q1023
                        R27/29//95=
201902122330 METAR LRSB 122330Z 33002KT 9999 SCT048 BKN066 M02/M04 Q1023
                        R27/29//95=
201902130000 METAR LRSB 130000Z 00000KT 9999 BKN043 SCT068 M02/M04 Q1023
                        R27/29//95=
201902130030 METAR LRSB 130030Z 25003KT 230V310 9999 FEW044 BKN066 M02/M05
                        Q1023 R27/29//95=
201902130100 METAR LRSB 130100Z 10002KT 9999 SCT044 BKN066 M02/M04 Q1024
                        R27/29//95=
201902130130 METAR LRSB 130130Z VRB02KT 9999 BKN040 SCT064 M02/M05 Q1024
                        R27/29//95=
201902130200 METAR LRSB 130200Z 02003KT 9999 BKN038 SCT064 M02/M05 Q1024
                        R27/29//95=
201902130230 METAR LRSB 130230Z 36003KT 9999 BKN037 SCT063 M02/M05 Q1025
                        R27/29//95=
201902130300 METAR LRSB 130300Z 03003KT 9999 -SN OVC034 M02/M05 Q1025
                        R27/29//95=
201902130330 METAR LRSB 130330Z 34002KT 9999 SCT030 BKN042 BKN060 M02/M05
                        Q1026 R27/29//95=
201902130400 METAR LRSB 130400Z 33003KT 290V360 9999 -SN FEW027 SCT042
                        BKN065 M02/M05 Q1026 R27/29//95=
201902130430 METAR LRSB 130430Z 24004KT 160V270 9999 FEW028 SCT043 BKN066
                        M03/M05 Q1027 R27/29//95=
201902130500 METAR LRSB 130500Z 00000KT 9999 BKN029 SCT068 M02/M05 Q1027
                        R27/29//95=
201902130530 METAR LRSB 130530Z VRB01KT 9999 BKN027 SCT065 M02/M05 Q1028
                        R27/29//95=
201902130600 METAR LRSB 130600Z VRB01KT 9999 FEW021 BKN027 M02/M05 Q1028
                        R27/15//95=
201902130630 METAR LRSB 130630Z VRB02KT 9999 SCT021 BKN027 M02/M05 Q1029
                        R27/15//95 NOSIG=
201902130700 METAR LRSB 130700Z VRB02KT 9999 SCT020 BKN027 M01/M05 Q1029
                        R27/15//95 NOSIG=
201902130730 METAR LRSB 130730Z 00000KT 9999 SCT019 SCT024 M01/M05 Q1029
                        R27/15//95 NOSIG=
201902130800 METAR LRSB 130800Z 21003KT 9999 BKN018 SCT023 M01/M04 Q1030
                        R27/15//95 NOSIG=
201902130830 METAR LRSB 130830Z VRB01KT 9999 BKN017 SCT022 M00/M04 Q1030
                        R27/15//95 NOSIG=
201902130900 METAR LRSB 130900Z 00000KT 9999 SCT017 SCT022 BKN043 M00/M05
                        Q1030 R27/15//95 NOSIG=
201902130930 METAR COR LRSB 130930Z 00000KT 9999 FEW017 SCT022 BKN043
                        M00/M04 Q1031 R27/15//95 NOSIG=
201902131000 METAR LRSB 131000Z 00000KT 9999 SCT025 SCT043 00/M04 Q1031
                        R27/15//95 NOSIG=
201902131030 METAR COR LRSB 131030Z 00000KT 9999 SCT022 SCT028 02/M03
                        Q1031 R27/15//95 NOSIG=
201902131100 METAR LRSB 131100Z 00000KT 9999 FEW022 SCT028 01/M05 Q1031
                        R27/CLRD// NOSIG=
201902131130 METAR LRSB 131130Z 02005KT 9999 FEW022 SCT028 00/M05 Q1031
                        NOSIG=
201902131200 METAR COR LRSB 131200Z 01004KT 9999 SCT028 01/M05 Q1031 NOSIG=
201902131230 METAR LRSB 131230Z 02004KT 350V070 9999 SCT030 01/M05 Q1031
                        NOSIG=
201902131300 METAR LRSB 131300Z 04004KT 9999 SCT030 00/M05 Q1031 NOSIG=
201902131330 METAR LRSB 131330Z VRB02KT 9999 FEW030 01/M05 Q1031 NOSIG=
201902131400 METAR LRSB 131400Z 00000KT 9999 FEW030 02/M05 Q1031 NOSIG=
201902131430 METAR LRSB 131430Z VRB01KT 9999 FEW030 01/M05 Q1031 NOSIG=
201902131500 METAR LRSB 131500Z 00000KT CAVOK 00/M05 Q1031 NOSIG=
201902131530 METAR LRSB 131530Z 00000KT CAVOK M01/M05 Q1031 NOSIG=
201902131600 METAR LRSB 131600Z 00000KT CAVOK M01/M05 Q1031 NOSIG=
201902131630 METAR COR LRSB 131630Z 00000KT CAVOK M02/M05 Q1032 NOSIG=
201902131700 METAR LRSB 131700Z 00000KT CAVOK M03/M05 Q1032=
201902131730 METAR LRSB 131730Z 22004KT CAVOK M04/M05 Q1032=
201902131800 METAR LRSB 131800Z 24003KT CAVOK M03/M05 Q1032=
201902131830 METAR LRSB 131830Z 00000KT CAVOK M03/M05 Q1032=
201902131900 METAR LRSB 131900Z 00000KT CAVOK M04/M05 Q1032=
201902131930 METAR LRSB 131930Z 22001KT 6000 FEW056 M05/M06 Q1032=
201902132000 METAR LRSB 132000Z 00000KT CAVOK M04/M06 Q1032=
201902132030 METAR LRSB 132030Z 00000KT 9999 BKN050 M04/M05 Q1032=
201902132100 METAR LRSB 132100Z 07002KT 9999 BKN050 M04/M05 Q1032=
201902132130 METAR LRSB 132130Z 08002KT 9999 BKN050 M03/M04 Q1032=
201902132200 METAR LRSB 132200Z 09002KT 9999 BKN050 M03/M04 Q1032=
201902132230 METAR LRSB 132230Z 09003KT 9999 BKN050 M02/M04 Q1032=
201902132300 METAR LRSB 132300Z 14003KT 9999 BKN050 M02/M04 Q1032=
201902132330 METAR LRSB 132330Z VRB01KT 9999 BKN050 M02/M04 Q1032=
201902140000 METAR LRSB 140000Z 08003KT 9999 BKN045 M02/M04 Q1031=
201902140030 METAR LRSB 140030Z 12006KT 9999 BKN043 M02/M04 Q1031=
201902140100 METAR LRSB 140100Z AUTO VRB01KT 9999 OVC053/// M02/M04 Q1031=
201902140130 METAR COR LRSB 140130Z VRB02KT 9999 BKN050 M01/M04 Q1030=
201902140200 METAR LRSB 140200Z VRB02KT 9999 BKN050 M01/M04 Q1030=
201902140230 METAR LRSB 140230Z 06005KT 9999 BKN050 M01/M04 Q1030=
201902140300 METAR LRSB 140300Z 11004KT 9999 BKN050 M02/M04 Q1030=
201902140330 METAR LRSB 140330Z VRB02KT 9999 BKN050 M02/M04 Q1030=
201902140400 METAR LRSB 140400Z 28002KT 9999 BKN050 M02/M04 Q1030=
201902140430 METAR COR LRSB 140430Z 00000KT 9999 BKN050 M02/M03 Q1030=
201902140500 METAR COR LRSB 140500Z 00000KT 9999 BKN050 M02/M03 Q1030=
201902140530 METAR LRSB 140530Z 09001KT 9999 BKN040 M01/M03 Q1030=
201902140600 METAR LRSB 140600Z 10002KT 9999 OVC036 M01/M03 Q1030=
201902140630 METAR LRSB 140630Z 10003KT 9999 OVC035 M01/M03 Q1030=
201902140700 METAR LRSB 140700Z 08002KT 9999 OVC033 M01/M03 Q1030=
201902140730 METAR LRSB 140730Z 09002KT 9999 OVC033 M00/M03 Q1030=
201902140800 METAR LRSB 140800Z 03002KT 9999 OVC031 00/M03 Q1030=
201902140830 METAR LRSB 140830Z 24002KT 9999 OVC030 M00/M02 Q1030=
201902140900 METAR LRSB 140900Z 24003KT 9999 OVC031 M00/M02 Q1030=
201902140930 METAR LRSB 140930Z VRB01KT 9000 BKN030 01/M02 Q1030=
201902141000 METAR LRSB 141000Z VRB02KT 9999 SCT030 SCT054 01/M02 Q1030=
201902141030 METAR LRSB 141030Z VRB01KT 9999 SCT029 BKN052 03/M01 Q1029=
201902141100 METAR LRSB 141100Z VRB02KT 9999 BKN028 02/M03 Q1029=
201902141130 METAR LRSB 141130Z 00000KT 9999 BKN027 03/M02 Q1029=
201902141200 METAR LRSB 141200Z AUTO VRB01KT 9999 BKN027/// 03/M03 Q1029=
201902141230 METAR LRSB 141230Z VRB02KT 9999 BKN026 03/M03 Q1029=
201902141300 METAR LRSB 141300Z 23003KT 9999 BKN029 02/M02 Q1029=
201902141330 METAR LRSB 141330Z AUTO 24002KT 9999 FEW028/// BKN051///
                        03/M02 Q1028=
201902141400 METAR LRSB 141400Z 27003KT 9999 OVC053 02/M01 Q1028=
201902141430 METAR LRSB 141430Z 28005KT 9999 SCT035 OVC056 02/M01 Q1028=
201902141500 METAR LRSB 141500Z 28005KT 9999 OVC052 02/M01 Q1028=
201902141530 METAR LRSB 141530Z 28005KT 9999 OVC052 02/M01 Q1028=
201902141600 METAR LRSB 141600Z 33003KT 280V010 9999 SCT028 BKN056 02/M01
                        Q1028=
201902141630 METAR LRSB 141630Z 30005KT 9999 SCT029 BKN058 02/M01 Q1028=
201902141700 METAR LRSB 141700Z 30006KT 9999 OVC059 02/M01 Q1028=
201902141730 METAR LRSB 141730Z 25004KT 210V270 9999 SCT032 OVC050 01/M01
                        Q1028=
201902141800 METAR LRSB 141800Z 28004KT 9999 SCT032 OVC058 01/M01 Q1028
                        NOSIG=
201902141830 METAR COR LRSB 141830Z 36004KT 9999 BKN026 OVC060 02/M01
                        Q1028 NOSIG=
201902141900 METAR LRSB 141900Z 33006KT 9999 BKN023 OVC060 02/M01 Q1028
                        NOSIG=
201902141930 METAR LRSB 141930Z 31007KT 9999 OVC020 02/M01 Q1028 NOSIG=
201902142000 METAR LRSB 142000Z 30010KT 9999 BKN020 SCT070 02/M01 Q1028
                        NOSIG=
201902142030 METAR LRSB 142030Z 19005KT 9999 BKN019 OVC070 02/M01 Q1028
                        NOSIG=
201902142100 METAR COR LRSB 142100Z 29004KT 9999 BKN018 OVC070 02/M01
                        Q1028 NOSIG=
201902142130 METAR LRSB 142130Z 31003KT 9999 OVC017 02/M01 Q1028 NOSIG=
201902142200 METAR LRSB 142200Z 29006KT 9999 OVC017 02/M01 Q1028 NOSIG=
201902142230 METAR LRSB 142230Z 32005KT 9999 OVC016 03/M01 Q1028 NOSIG=
201902142300 METAR LRSB 142300Z 33004KT 9999 BKN015 OVC080 02/M01 Q1028
                        NOSIG=
201902142330 METAR COR LRSB 142330Z 32003KT 290V350 9999 BKN014 OVC080
                        02/M01 Q1028 NOSIG=
201902150000 METAR LRSB 150000Z 27003KT 9999 BKN014 OVC070 02/M01 Q1028
                        NOSIG=
201902150030 METAR LRSB 150030Z 30006KT 9999 BKN013 OVC063 02/M01 Q1028
                        NOSIG=
201902150100 METAR LRSB 150100Z 34004KT 300V010 9999 BKN013 OVC063 02/M01
                        Q1028 NOSIG=
201902150130 METAR LRSB 150130Z 31003KT 9999 BKN013 OVC063 02/M01 Q1028
                        NOSIG=
201902150200 METAR LRSB 150200Z 31003KT 9999 BKN013 OVC060 02/M01 Q1028
                        NOSIG=
201902150230 METAR LRSB 150230Z 29004KT 9000 BKN017 OVC060 01/M01 Q1028
                        NOSIG=
201902150300 METAR LRSB 150300Z 31004KT 9999 BKN019 OVC060 01/M01 Q1028
                        NOSIG=
201902150330 METAR COR LRSB 150330Z 30005KT 9999 -RA SCT018 SCT023 OVC050
                        01/M01 Q1028 R27/19//95 NOSIG=
201902150400 METAR LRSB 150400Z 31005KT 9999 -RA SCT016 SCT025 OVC050
                        01/M01 Q1028 R27/19//95 NOSIG=
201902150430 METAR LRSB 150430Z 29003KT 8000 -SN SCT015 SCT030 OVC050
                        01/M01 Q1028 R27/19//95 NOSIG=
201902150500 METAR LRSB 150500Z 30004KT 6000 -SN FEW015 SCT026 OVC043
                        01/M01 Q1029 R27/19//95 NOSIG=
201902150530 METAR LRSB 150530Z 30005KT 7000 SCT015 SCT043 BKN056 01/M01
                        Q1029 R27/19//95 NOSIG=
201902150600 METAR LRSB 150600Z VRB01KT 5000 -SN FEW009 BKN012 OVC043
                        01/M01 Q1030 R27/19//95 NOSIG=
201902150630 METAR LRSB 150630Z VRB01KT 5000 -SN FEW010 BKN018 OVC050
                        01/M00 Q1030 R27/19//95=
201902150700 METAR COR LRSB 150700Z VRB01KT 5000 BR FEW015 BKN022 BKN065
                        02/M01 Q1030 R27/19//95=
201902150730 METAR LRSB 150730Z VRB02KT 5000 BR FEW015 SCT022 BKN062 01/00
                        Q1030 R27/19//95=
201902150800 METAR LRSB 150800Z VRB01KT 5000 BR FEW016 SCT022 OVC062 02/00
                        Q1031 R27/19//95=
201902150830 METAR COR LRSB 150830Z VRB02KT 5000 BR FEW022 SCT050 OVC062
                        02/01 Q1031 R27/19//95=
201902150900 METAR LRSB 150900Z VRB01KT 7000 FEW020 SCT047 OVC056 02/00
                        Q1031 R27/19//95=
201902150930 METAR LRSB 150930Z VRB01KT 7000 FEW020 SCT045 OVC054 04/01
                        Q1031 R27/19//95=
201902151000 METAR LRSB 151000Z 35004KT 7000 FEW021 SCT045 OVC055 02/00
                        Q1031 R27/19//95=
201902151030 METAR LRSB 151030Z 01005KT 7000 FEW023 SCT047 OVC055 02/00
                        Q1031 R27/19//95=
201902151100 METAR LRSB 151100Z 35005KT 7000 FEW023 SCT047 BKN055 03/M00
                        Q1031 R27/19//95=
201902151130 METAR LRSB 151130Z 29002KT 9000 FEW045 BKN053 04/01 Q1031
                        R27/19//95=
201902151200 METAR LRSB 151200Z 23003KT 190V260 9999 SCT050 SCT075 04/M01
                        Q1031 R27/CLRD//=
201902151230 METAR LRSB 151230Z 10003KT 050V180 9999 FEW042 BKN050 04/M02
                        Q1031=
201902151300 METAR LRSB 151300Z 08004KT 9999 SCT053 04/M01 Q1031=
201902151330 METAR LRSB 151330Z 35003KT 9999 FEW040 SCT050 04/M01 Q1031=
201902151400 METAR LRSB 151400Z 35003KT 9999 SCT047 04/M01 Q1031=
201902151430 METAR LRSB 151430Z 36003KT 9999 BKN047 04/M01 Q1031=
201902151500 METAR LRSB 151500Z VRB02KT 9999 SCT045 04/M01 Q1031=
201902151530 METAR LRSB 151530Z VRB02KT 9999 FEW045 03/M00 Q1031=
201902151600 METAR LRSB 151600Z 22004KT 9999 FEW044 02/M01 Q1031=
201902151630 METAR LRSB 151630Z 18002KT CAVOK 02/M01 Q1031=
201902151700 METAR LRSB 151700Z 28003KT CAVOK M01/M02 Q1031=
201902151730 METAR LRSB 151730Z VRB02KT CAVOK 01/M02 Q1031=
201902151800 METAR LRSB 151800Z 28003KT CAVOK M00/M03 Q1032=
201902151830 METAR LRSB 151830Z 00000KT CAVOK M01/M03 Q1032=
201902151900 METAR LRSB 151900Z 00000KT CAVOK M01/M03 Q1031=
201902151930 METAR LRSB 151930Z 00000KT CAVOK M03/M03 Q1031=
201902152000 METAR LRSB 152000Z 00000KT CAVOK M03/M04 Q1031=
201902152030 METAR LRSB 152030Z 33001KT CAVOK M02/M04 Q1031=
201902152100 METAR LRSB 152100Z VRB01KT CAVOK M02/M03 Q1031=
201902152130 METAR LRSB 152130Z 09001KT CAVOK M03/M03 Q1031=
201902152200 METAR LRSB 152200Z 05001KT 7000 NSC M03/M03 Q1031=
201902152230 METAR LRSB 152230Z VRB02KT 6000 NSC M03/M03 Q1031=
201902152300 METAR LRSB 152300Z VRB02KT 7000 NSC M03/M03 Q1031=
201902152330 METAR LRSB 152330Z 01001KT 5000 BR NSC M03/M03 Q1031=
201902160000 METAR LRSB 160000Z 35001KT 5000 BR NSC M04/M04 Q1031=
201902160030 METAR LRSB 160030Z 03002KT 5000 BR NSC M04/M04 Q1031=
201902160100 METAR LRSB 160100Z AUTO 07002KT 5000 BR FEW200/// M04/M04
                        Q1030=
201902160130 METAR LRSB 160130Z AUTO 05002KT 6000 NCD M04/M04 Q1031=
201902160200 METAR LRSB 160200Z 06002KT 5000 BR NSC M05/M05 Q1031=
201902160230 METAR LRSB 160230Z 31001KT 6000 NSC M05/M05 Q1031=
201902160300 METAR LRSB 160300Z VRB02KT 6000 NSC M04/M04 Q1030=
201902160330 METAR LRSB 160330Z 06001KT 6000 NSC M04/M04 Q1030=
201902160400 METAR LRSB 160400Z 06002KT 5000 BR NSC M05/M05 Q1030=
201902160430 METAR LRSB 160430Z VRB01KT 5000 BR NSC M05/M05 Q1030=
201902160500 METAR COR LRSB 160500Z 00000KT 5000 BR NSC M06/M06 Q1031=
201902160530 METAR LRSB 160530Z 10002KT CAVOK M05/M05 Q1031=
201902160600 METAR LRSB 160600Z 06002KT CAVOK M05/M05 Q1031=
201902160630 METAR LRSB 160630Z 05002KT CAVOK M05/M05 Q1031=
201902160700 METAR LRSB 160700Z VRB01KT CAVOK M02/M03 Q1031=
201902160730 METAR LRSB 160730Z VRB01KT CAVOK M02/M04 Q1031=
201902160800 METAR LRSB 160800Z 11003KT CAVOK M01/M04 Q1031=
201902160830 METAR LRSB 160830Z 07003KT CAVOK 00/M02 Q1031=
201902160900 METAR LRSB 160900Z 06002KT CAVOK 01/M03 Q1031=
201902160930 METAR LRSB 160930Z VRB01KT CAVOK 03/M01 Q1031=
201902161000 METAR LRSB 161000Z VRB02KT CAVOK 03/M02 Q1031=
201902161030 METAR LRSB 161030Z 00000KT CAVOK 05/M02 Q1031=
201902161100 METAR LRSB 161100Z 01003KT CAVOK 04/M01 Q1031=
201902161130 METAR LRSB 161130Z 03003KT CAVOK 04/M02 Q1031=
201902161200 METAR LRSB 161200Z VRB02KT CAVOK 05/M03 Q1031=
201902161230 METAR LRSB 161230Z VRB02KT CAVOK 05/M02 Q1030=
201902161300 METAR LRSB 161300Z 01003KT CAVOK 05/M02 Q1030=
201902161330 METAR LRSB 161330Z 01005KT CAVOK 05/M01 Q1030=
201902161400 METAR LRSB 161400Z VRB02KT CAVOK 06/M03 Q1030=
201902161430 METAR LRSB 161430Z 03003KT CAVOK 05/M02 Q1030=
201902161500 METAR LRSB 161500Z 04001KT CAVOK 05/M02 Q1030=
201902161530 METAR LRSB 161530Z 02002KT CAVOK 05/M02 Q1030=
201902161600 METAR LRSB 161600Z 02004KT CAVOK 03/M02 Q1030=
201902161630 METAR COR LRSB 161630Z VRB02KT CAVOK 02/M02 Q1030=
201902161700 METAR LRSB 161700Z 23002KT CAVOK 01/M01 Q1030=
201902161730 METAR LRSB 161730Z 22001KT CAVOK 00/M01 Q1030=
201902161800 METAR LRSB 161800Z 17002KT CAVOK 00/M02 Q1030=
201902161830 METAR LRSB 161830Z 00000KT CAVOK M00/M02 Q1030=
201902161900 METAR LRSB 161900Z 00000KT CAVOK M01/M01 Q1030=
201902161930 METAR LRSB 161930Z 00000KT CAVOK M01/M03 Q1030=
201902162000 METAR LRSB 162000Z 00000KT 9000 NSC M01/M01 Q1030=
201902162030 METAR LRSB 162030Z 00000KT 8000 NSC M02/M02 Q1030=
201902162100 METAR LRSB 162100Z 00000KT 8000 NSC M02/M02 Q1030=
201902162130 METAR LRSB 162130Z 00000KT 7000 NSC M02/M02 Q1030=
201902162200 METAR LRSB 162200Z 00000KT 7000 NSC M02/M02 Q1030=
201902162230 METAR LRSB 162230Z 00000KT 7000 NSC M03/M03 Q1030=
201902162300 METAR LRSB 162300Z 00000KT 6000 NSC M03/M03 Q1030=
201902162330 METAR LRSB 162330Z 00000KT 6000 NSC M03/M03 Q1030=
201902170000 METAR LRSB 170000Z 00000KT 7000 NSC M03/M03 Q1029=
201902170030 METAR LRSB 170030Z 09002KT 6000 NSC M03/M03 Q1029=
201902170100 METAR LRSB 170100Z VRB02KT 6000 NSC M03/M03 Q1029=
201902170130 METAR LRSB 170130Z 00000KT 5000 BR NSC M04/M04 Q1029=
201902170200 METAR COR LRSB 170200Z 00000KT 5000 BR NSC M05/M05 Q1029=
201902170230 METAR LRSB 170230Z 00000KT 4500 BR NSC M05/M05 Q1029=
201902170300 METAR LRSB 170300Z 00000KT 4000 BR NSC M04/M04 Q1029=
201902170330 METAR LRSB 170330Z 03001KT 5000 BR NSC M04/M04 Q1029=
201902170400 METAR LRSB 170400Z 00000KT 5000 BR NSC M05/M05 Q1029=
201902170430 METAR LRSB 170430Z 00000KT 3500 BR NSC M05/M05 Q1029=
201902170500 METAR LRSB 170500Z 00000KT 3000 BR NSC M05/M05 Q1029=
201902170530 METAR LRSB 170530Z 10005KT 4500 BR NSC M04/M04 Q1029=
201902170600 METAR LRSB 170600Z 09003KT 4000 BR NSC M04/M04 Q1029=
201902170630 METAR LRSB 170630Z VRB02KT 4500 BR NSC M03/M03 Q1029 NOSIG=
201902170700 METAR LRSB 170700Z VRB02KT 5000 BR NSC M02/M02 Q1029 NOSIG=
201902170730 METAR COR LRSB 170730Z 10004KT 7000 NSC M01/M02 Q1029 NOSIG=
201902170800 METAR LRSB 170800Z 11004KT 8000 NSC M01/M02 Q1029 NOSIG=
201902170830 METAR COR LRSB 170830Z 09004KT 9000 NSC 00/M02 Q1029 NOSIG=
201902170900 METAR LRSB 170900Z 12003KT 020V170 CAVOK 02/M01 Q1029 NOSIG=
201902170930 METAR LRSB 170930Z 10004KT CAVOK 02/M01 Q1029 NOSIG=
201902171000 METAR LRSB 171000Z 09004KT 050V110 CAVOK 03/M01 Q1029 NOSIG=
201902171030 METAR LRSB 171030Z 09004KT CAVOK 04/M00 Q1029 NOSIG=
201902171100 METAR LRSB 171100Z 10003KT 060V130 CAVOK 05/01 Q1028 NOSIG=
201902171130 METAR LRSB 171130Z 13003KT 100V180 CAVOK 05/M00 Q1028 NOSIG=
201902171200 METAR LRSB 171200Z 09004KT CAVOK 06/M00 Q1028 NOSIG=
201902171230 METAR LRSB 171230Z 10003KT 350V150 CAVOK 07/M00 Q1028 NOSIG=
201902171300 METAR LRSB 171300Z 09003KT 040V120 CAVOK 07/00 Q1027 NOSIG=
201902171330 METAR LRSB 171330Z 09003KT 060V150 CAVOK 07/00 Q1027 NOSIG=
201902171400 METAR LRSB 171400Z VRB02KT CAVOK 07/M00 Q1027 NOSIG=
201902171430 METAR LRSB 171430Z 10003KT CAVOK 07/01 Q1027 NOSIG=
201902171500 METAR LRSB 171500Z 10004KT CAVOK 07/01 Q1026 NOSIG=
201902171530 METAR LRSB 171530Z 11004KT CAVOK 06/00 Q1026 NOSIG=
201902171600 METAR LRSB 171600Z 15004KT CAVOK 05/00 Q1026 NOSIG=
201902171630 METAR LRSB 171630Z 08002KT CAVOK 04/M00 Q1026 NOSIG=
201902171700 METAR LRSB 171700Z 09003KT CAVOK 04/M00 Q1026 NOSIG=
201902171730 METAR LRSB 171730Z 10003KT CAVOK 02/M01 Q1026=
201902171800 METAR LRSB 171800Z 00000KT CAVOK 01/M01 Q1027=
201902171830 METAR LRSB 171830Z 00000KT CAVOK M01/M03 Q1027=
201902171900 METAR LRSB 171900Z 23003KT CAVOK M00/M02 Q1027=
201902171930 METAR LRSB 171930Z 27002KT CAVOK M01/M02 Q1027=
201902172000 METAR LRSB 172000Z 09001KT CAVOK M01/M02 Q1027=
201902172030 METAR LRSB 172030Z 18001KT CAVOK M01/M02 Q1027=
201902172100 METAR LRSB 172100Z 23001KT CAVOK M02/M03 Q1026=
201902172130 METAR LRSB 172130Z 01001KT CAVOK M01/M02 Q1026=
201902172200 METAR LRSB 172200Z 00000KT CAVOK M02/M03 Q1027=
201902172230 METAR LRSB 172230Z 00000KT 5000 BR NSC M02/M03 Q1027=
201902172300 METAR LRSB 172300Z 00000KT 5000 BR NSC M03/M04 Q1027=
201902172330 METAR LRSB 172330Z VRB01KT 5000 BR NSC M02/M03 Q1026=
201902180000 METAR LRSB 180000Z 14002KT 5000 BR NSC M03/M04 Q1026=
201902180030 METAR LRSB 180030Z 09003KT CAVOK M03/M03 Q1026=
201902180100 METAR LRSB 180100Z 00000KT CAVOK M03/M04 Q1026=
201902180130 METAR LRSB 180130Z 24001KT CAVOK M03/M04 Q1026=
201902180200 METAR COR LRSB 180200Z 00000KT CAVOK M04/M05 Q1026=
201902180230 METAR LRSB 180230Z VRB01KT CAVOK M04/M05 Q1026=
201902180300 METAR LRSB 180300Z 09001KT CAVOK M04/M04 Q1026=
201902180330 METAR LRSB 180330Z 08002KT CAVOK M04/M05 Q1026=
201902180400 METAR LRSB 180400Z VRB02KT 5000 BR NSC M05/M05 Q1026=
201902180430 METAR LRSB 180430Z 09003KT 5000 BR NSC M05/M05 Q1025=
201902180500 METAR LRSB 180500Z 11004KT 3000 BR NSC M05/M05 Q1025=
201902180530 METAR LRSB 180530Z 09004KT 0300 R27/0500N FZFG NSC M04/M05
                        Q1025=
201902180600 METAR LRSB 180600Z 11003KT 0350 R27/0375V0500N FZFG NSC M04/M05
                        Q1026=
201902180630 METAR LRSB 180630Z 13003KT 0300 R27/0400N FZFG NSC M04/M04
                        Q1026=
201902180700 METAR LRSB 180700Z 11004KT 0350 R27/0450N FZFG NSC M03/M04
                        Q1026=
201902180730 METAR LRSB 180730Z 14003KT 0350 R27/0400V0550N FZFG NSC M03/M04
                        Q1026=
201902180800 METAR LRSB 180800Z 17003KT 140V200 0350 R27/0500N FZFG NSC
                        M03/M03 Q1026=
201902180830 METAR LRSB 180830Z 17003KT 140V230 0350 R27/0700N FZFG NSC
                        M02/M03 Q1026=
201902180900 METAR LRSB 180900Z 13003KT 070V170 0550 R27/0800N FZFG NSC
                        M02/M02 Q1026=
201902180930 METAR LRSB 180930Z 10003KT 050V130 0300 R27/0375N FZFG FEW001
                        M01/M02 Q1026=
201902181000 METAR LRSB 181000Z 10003KT 040V140 0800 R27/1200V1800U FZFG
                        SCT001 M00/M01 Q1026=
201902181030 METAR LRSB 181030Z 12004KT 3000 BR FEW001 00/M00 Q1025=
201902181100 METAR LRSB 181100Z 11005KT 7000 NSC 02/01 Q1025=
201902181130 METAR LRSB 181130Z 09005KT CAVOK 04/01 Q1025=
201902181200 METAR LRSB 181200Z 13004KT 090V180 CAVOK 06/02 Q1024=
201902181230 METAR LRSB 181230Z 14003KT 090V210 CAVOK 06/02 Q1024=
201902181300 METAR LRSB 181300Z 09004KT 040V120 CAVOK 07/02 Q1024=
201902181330 METAR LRSB 181330Z 12004KT CAVOK 07/01 Q1024=
201902181400 METAR COR LRSB 181400Z 13005KT CAVOK 07/01 Q1024=
201902181430 METAR LRSB 181430Z 15003KT 110V170 CAVOK 08/01 Q1023=
201902181500 METAR LRSB 181500Z 13003KT CAVOK 08/01 Q1023=
201902181530 METAR LRSB 181530Z 16003KT CAVOK 07/01 Q1023=
201902181600 METAR LRSB 181600Z 12001KT CAVOK 06/00 Q1023=
201902181630 METAR LRSB 181630Z 00000KT CAVOK 04/00 Q1023=
201902181700 METAR LRSB 181700Z 27004KT CAVOK 03/01 Q1023=
201902181730 METAR LRSB 181730Z 30003KT 7000 NSC 02/00 Q1023=
201902181800 METAR LRSB 181800Z 26002KT 6000 NSC 00/M02 Q1023 BECMG 5000
                        BR=
201902181830 METAR LRSB 181830Z 00000KT 5000 BR NSC M00/M02 Q1023 NOSIG=
201902181900 METAR LRSB 181900Z 00000KT 5000 BR NSC M01/M02 Q1023 NOSIG=
201902181930 METAR LRSB 181930Z 00000KT 7000 NSC M00/M02 Q1023 NOSIG=
201902182000 METAR LRSB 182000Z 25003KT 6000 NSC M01/M03 Q1023 NOSIG=
201902182030 METAR LRSB 182030Z VRB02KT 5000 BR NSC M01/M03 Q1023 NOSIG=
201902182100 METAR COR LRSB 182100Z VRB01KT 4000 BR NSC M02/M03 Q1023
                        NOSIG=
201902182130 METAR LRSB 182130Z 00000KT 4000 BR NSC M02/M03 Q1023 TEMPO
                        3000 BR=
201902182200 METAR LRSB 182200Z 25004KT 4500 BR NSC M02/M03 Q1023 NOSIG=
201902182230 METAR LRSB 182230Z VRB01KT 5000 BR NSC M03/M03 Q1023 NOSIG=
201902182300 METAR LRSB 182300Z 00000KT 4000 BR NSC M02/M03 Q1023 NOSIG=
201902182330 METAR LRSB 182330Z 09002KT 3000 BR NSC M03/M04 Q1023 NOSIG=
201902190000 METAR LRSB 190000Z 00000KT 3000 BR NSC M03/M04 Q1023 NOSIG=
201902190030 METAR LRSB 190030Z 00000KT 3000 BR NSC M03/M04 Q1023 NOSIG=
201902190100 METAR LRSB 190100Z 09003KT 4000 BR NSC M03/M04 Q1023 NOSIG=
201902190130 METAR LRSB 190130Z 07002KT 3000 BR NSC M04/M04 Q1023 NOSIG=
201902190200 METAR LRSB 190200Z VRB01KT 3000 BR NSC M04/M04 Q1022 NOSIG=
201902190230 METAR LRSB 190230Z 21002KT 2500 BR NSC M04/M05 Q1022 NOSIG=
201902190300 METAR LRSB 190300Z 00000KT 2500 MIFG BR NSC M05/M06 Q1022
                        NOSIG=
201902190330 METAR LRSB 190330Z 00000KT 2000 MIFG BR NSC M06/M06 Q1022
                        NOSIG=
201902190400 METAR LRSB 190400Z 00000KT 2500 BR NSC M06/M06 Q1022 NOSIG=
201902190430 METAR LRSB 190430Z 08002KT 3000 BR NSC M05/M06 Q1022 NOSIG=
201902190500 METAR LRSB 190500Z 07002KT 2500 BR NSC M05/M06 Q1022 NOSIG=
201902190530 METAR LRSB 190530Z 06002KT 2500 BR NSC M05/M06 Q1022 NOSIG=
201902190600 METAR LRSB 190600Z 08001KT 3000 BR NSC M04/M05 Q1022 NOSIG=
201902190630 METAR LRSB 190630Z 12002KT 3000 BR NSC M04/M05 Q1022=
201902190700 METAR LRSB 190700Z 11003KT 4000 BR NSC M03/M04 Q1022=
201902190730 METAR LRSB 190730Z 11004KT 5000 BR NSC M02/M04 Q1022=
201902190800 METAR LRSB 190800Z 11004KT 6000 NSC M01/M03 Q1022=
201902190830 METAR LRSB 190830Z VRB02KT 8000 NSC 01/M02 Q1022=
201902190900 METAR LRSB 190900Z VRB02KT CAVOK 02/M01 Q1022=
201902190930 METAR LRSB 190930Z VRB02KT CAVOK 03/M02 Q1022=
201902191000 METAR LRSB 191000Z 10004KT 070V140 CAVOK 04/M02 Q1021=
201902191030 METAR LRSB 191030Z 11003KT 030V180 CAVOK 05/M01 Q1021=
201902191100 METAR LRSB 191100Z VRB02KT CAVOK 06/M01 Q1021=
201902191130 METAR LRSB 191130Z VRB02KT CAVOK 08/M01 Q1020=
201902191200 METAR LRSB 191200Z VRB01KT CAVOK 09/M01 Q1020=
201902191230 METAR LRSB 191230Z VRB02KT CAVOK 10/M01 Q1020=
201902191300 METAR LRSB 191300Z VRB02KT CAVOK 10/M02 Q1020=
201902191330 METAR LRSB 191330Z 10003KT 010V140 CAVOK 11/M02 Q1019=
201902191400 METAR LRSB 191400Z 12003KT CAVOK 10/M02 Q1019=
201902191430 METAR LRSB 191430Z 10003KT CAVOK 11/M04 Q1019=
201902191500 METAR LRSB 191500Z 11003KT CAVOK 10/00 Q1019=
201902191530 METAR LRSB 191530Z 11004KT CAVOK 09/M01 Q1019=
201902191600 METAR LRSB 191600Z 13003KT CAVOK 08/M01 Q1018=
201902191630 METAR LRSB 191630Z 19003KT CAVOK 06/M01 Q1019=
201902191700 METAR LRSB 191700Z VRB01KT CAVOK 03/M01 Q1018=
201902191730 METAR COR LRSB 191730Z VRB02KT CAVOK 02/M01 Q1018=
201902191800 METAR LRSB 191800Z 00000KT CAVOK 01/M02 Q1018=
201902191830 METAR LRSB 191830Z 36002KT CAVOK 02/M02 Q1018=
201902191900 METAR LRSB 191900Z 02001KT CAVOK 02/M02 Q1018=
201902191930 METAR LRSB 191930Z 00000KT CAVOK 02/M02 Q1019=
201902192000 METAR LRSB 192000Z 00000KT CAVOK M00/M03 Q1019=
201902192030 METAR LRSB 192030Z 00000KT CAVOK 01/M02 Q1018=
201902192100 METAR LRSB 192100Z 12002KT CAVOK M01/M02 Q1018=
201902192130 METAR LRSB 192130Z 08002KT CAVOK M01/M03 Q1018=
201902192200 METAR LRSB 192200Z 04003KT CAVOK 00/M02 Q1018=
201902192230 METAR LRSB 192230Z 00000KT CAVOK M00/M02 Q1018=
201902192300 METAR LRSB 192300Z 00000KT 7000 NSC M01/M03 Q1018=
201902192330 METAR LRSB 192330Z 00000KT 6000 NSC M02/M04 Q1018=
201902200000 METAR LRSB 200000Z 00000KT 6000 NSC M02/M03 Q1018=
201902200030 METAR LRSB 200030Z 00000KT 6000 NSC M02/M03 Q1018=
201902200100 METAR LRSB 200100Z 00000KT CAVOK M02/M04 Q1018=
201902200130 METAR LRSB 200130Z 00000KT CAVOK M03/M04 Q1017=
201902200200 METAR LRSB 200200Z AUTO 00000KT 6000 NCD M04/M05 Q1017=
201902200230 METAR LRSB 200230Z AUTO 00000KT 7000 NCD M03/M05 Q1017=
201902200300 METAR LRSB 200300Z 00000KT CAVOK M03/M05 Q1017=
201902200330 METAR LRSB 200330Z VRB01KT CAVOK M04/M05 Q1017=
201902200400 METAR LRSB 200400Z VRB01KT CAVOK M03/M04 Q1017=
201902200430 METAR LRSB 200430Z 11003KT 080V150 CAVOK M04/M05 Q1017=
201902200500 METAR LRSB 200500Z 00000KT CAVOK M04/M06 Q1017=
201902200530 METAR LRSB 200530Z VRB02KT CAVOK M03/M04 Q1018=
201902200600 METAR LRSB 200600Z VRB02KT CAVOK M03/M04 Q1018=
201902200630 METAR LRSB 200630Z VRB02KT CAVOK M03/M04 Q1018=
201902200700 METAR LRSB 200700Z VRB02KT CAVOK 00/M02 Q1018=
201902200730 METAR LRSB 200730Z 09004KT CAVOK 02/M01 Q1018=
201902200800 METAR LRSB 200800Z 08004KT CAVOK 03/M01 Q1018=
201902200830 METAR LRSB 200830Z 10003KT CAVOK 05/M00 Q1018=
201902200900 METAR LRSB 200900Z 08005KT CAVOK 06/M00 Q1018=
201902200930 METAR LRSB 200930Z 08003KT CAVOK 08/00 Q1018=
201902201000 METAR COR LRSB 201000Z VRB03KT CAVOK 10/01 Q1018=
201902201030 METAR LRSB 201030Z 35006KT 310V050 CAVOK 12/02 Q1018=
201902201100 METAR LRSB 201100Z 31014KT CAVOK 12/01 Q1017=
201902201130 METAR LRSB 201130Z 30017KT CAVOK 12/02 Q1017=
201902201200 METAR LRSB 201200Z 28017KT CAVOK 12/02 Q1017=
201902201230 METAR COR LRSB 201230Z 29018KT CAVOK 12/M01 Q1017=
201902201300 METAR LRSB 201300Z 29018KT CAVOK 12/M02 Q1017=
201902201330 METAR LRSB 201330Z 29015KT CAVOK 11/M02 Q1017=
201902201400 METAR LRSB 201400Z 29013KT CAVOK 11/M03 Q1018=
201902201430 METAR LRSB 201430Z 29015KT CAVOK 10/M03 Q1018=
201902201500 METAR LRSB 201500Z 29011KT CAVOK 10/M02 Q1018=
201902201530 METAR LRSB 201530Z 30011KT 9999 SCT055 09/M01 Q1018=
201902201600 METAR LRSB 201600Z 35007KT 9999 SCT045 08/02 Q1019=
201902201630 METAR LRSB 201630Z 35008KT 9999 SCT040 08/02 Q1020=
201902201700 METAR LRSB 201700Z 32007KT 9000 BKN042 07/02 Q1020=
201902201730 METAR LRSB 201730Z 33007KT 9999 BKN046 SCT066 07/M00 Q1020=
201902201800 METAR LRSB 201800Z 33006KT 9999 BKN050 SCT070 07/M01 Q1021=
201902201830 METAR LRSB 201830Z 33007KT 9999 BKN048 SCT068 06/M01 Q1021=
201902201900 METAR LRSB 201900Z 34004KT 9999 BKN048 SCT068 06/M00 Q1021=
201902201930 METAR LRSB 201930Z 28005KT 9999 OVC048 05/M00 Q1022=
201902202000 METAR LRSB 202000Z 26004KT 9999 OVC045 05/00 Q1022=
201902202030 METAR LRSB 202030Z VRB01KT 9999 OVC042 05/M00 Q1022=
201902202100 METAR LRSB 202100Z 24003KT 9999 BKN040 05/00 Q1022=
201902202130 METAR LRSB 202130Z 24004KT 9999 BKN039 SCT062 04/00 Q1022=
201902202200 METAR LRSB 202200Z 25004KT 9999 BKN040 SCT060 04/01 Q1022=
201902202230 METAR LRSB 202230Z VRB01KT 9999 SCT039 SCT056 BKN080 04/00
                        Q1022=
201902202300 METAR LRSB 202300Z VRB01KT 9999 FEW039 SCT055 BKN080 03/M00
                        Q1022=
201902202330 METAR LRSB 202330Z 28003KT 9999 BKN054 BKN079 03/M01 Q1023=
201902210000 METAR LRSB 210000Z 27004KT 9999 BKN053 BKN078 03/00 Q1023=
201902210030 METAR LRSB 210030Z VRB02KT 9999 SCT037 BKN048 02/00 Q1023=
201902210100 METAR LRSB 210100Z VRB02KT 9999 OVC040 02/00 Q1023=
201902210130 METAR LRSB 210130Z 26003KT 9999 OVC038 03/00 Q1023=
201902210200 METAR LRSB 210200Z VRB02KT 9999 BKN037 SCT047 03/M00 Q1023=
201902210230 METAR LRSB 210230Z 03002KT 9999 SCT039 BKN068 02/M00 Q1023=
201902210300 METAR LRSB 210300Z VRB01KT 9999 FEW037 BKN070 02/M00 Q1023=
201902210330 METAR LRSB 210330Z 24002KT 9999 FEW036 BKN068 01/M01 Q1024=
201902210400 METAR LRSB 210400Z 27004KT 9000 BKN068 01/M01 Q1024=
201902210430 METAR LRSB 210430Z 22002KT 9000 BKN065 01/M01 Q1024=
201902210500 METAR LRSB 210500Z VRB02KT 9000 SCT061 02/M00 Q1024=
201902210530 METAR LRSB 210530Z VRB02KT 7000 FEW055 02/M01 Q1024=
201902210600 METAR LRSB 210600Z 00000KT 7000 FEW075 01/M01 Q1025=
201902210630 METAR LRSB 210630Z 00000KT 7000 FEW060 01/M01 Q1025 NOSIG=
201902210700 METAR LRSB 210700Z VRB01KT 9000 SCT058 03/00 Q1025 NOSIG=
201902210730 METAR COR LRSB 210730Z VRB02KT 9000 BKN059 04/01 Q1025 NOSIG=
201902210800 METAR LRSB 210800Z VRB01KT 9999 BKN059 06/01 Q1025 NOSIG=
201902210830 METAR LRSB 210830Z 00000KT 9999 SCT060 06/01 Q1025 NOSIG=
201902210900 METAR LRSB 210900Z VRB01KT 9999 FEW066 07/M03 Q1025 NOSIG=
201902210930 METAR LRSB 210930Z 35005KT 300V030 9999 FEW058 08/M03 Q1026
                        NOSIG=
201902211000 METAR LRSB 211000Z 36005KT 340V040 9999 SCT053 06/M03 Q1026
                        NOSIG=
201902211030 METAR LRSB 211030Z 01007KT 330V040 9999 FEW044 SCT053 08/M04
                        Q1025 NOSIG=
201902211100 METAR LRSB 211100Z 01008KT 9999 FEW043 SCT050 08/M03 Q1025
                        NOSIG=
201902211130 METAR LRSB 211130Z 36007KT 330V040 9999 BKN053 07/M04 Q1025
                        NOSIG=
201902211200 METAR LRSB 211200Z 03008KT 350V070 9999 SCT053 07/M04 Q1025
                        NOSIG=
201902211230 METAR LRSB 211230Z 05006KT 030V090 9999 FEW053 SCT060 07/M05
                        Q1025 NOSIG=
201902211300 METAR COR LRSB 211300Z 01005KT 320V080 9999 SCT055 08/M05
                        Q1024 NOSIG=
201902211330 METAR LRSB 211330Z VRB02KT 9999 SCT057 08/M06 Q1024 NOSIG=
201902211400 METAR COR LRSB 211400Z 34005KT 300V010 9999 SCT054 08/M06
                        Q1024 NOSIG=
201902211430 METAR LRSB 211430Z 32003KT 260V360 9999 SCT058 08/M05 Q1024
                        NOSIG=
201902211500 METAR LRSB 211500Z 01003KT 9999 FEW058 07/M05 Q1024 NOSIG=
201902211530 METAR LRSB 211530Z 03001KT 9999 SCT064 07/M06 Q1023 NOSIG=
201902211600 METAR LRSB 211600Z VRB02KT 9999 SCT063 05/M04 Q1023 NOSIG=
201902211630 METAR LRSB 211630Z 01002KT 9999 SCT062 04/M03 Q1024 NOSIG=
201902211700 METAR LRSB 211700Z 25003KT 9999 SCT061 02/M02 Q1024 NOSIG=
201902211730 METAR LRSB 211730Z 25006KT 9999 SCT059 02/M02 Q1023 NOSIG=
201902211800 METAR LRSB 211800Z VRB02KT CAVOK 02/M02 Q1023 NOSIG=
201902211830 METAR LRSB 211830Z 26004KT CAVOK 01/M03 Q1023 NOSIG=
201902211900 METAR LRSB 211900Z VRB02KT CAVOK M00/M03 Q1023 NOSIG=
201902211930 METAR LRSB 211930Z 22004KT CAVOK M00/M03 Q1023 NOSIG=
201902212000 METAR LRSB 212000Z VRB02KT CAVOK 00/M04 Q1022 NOSIG=
201902212030 METAR LRSB 212030Z VRB01KT CAVOK 00/M04 Q1022 NOSIG=
201902212100 METAR LRSB 212100Z VRB01KT CAVOK 00/M04 Q1022 NOSIG=
201902212130 METAR LRSB 212130Z VRB01KT CAVOK M01/M04 Q1022 NOSIG=
201902212200 METAR LRSB 212200Z VRB01KT CAVOK M01/M04 Q1022 NOSIG=
201902212230 METAR LRSB 212230Z 12002KT CAVOK M00/M04 Q1022 NOSIG=
201902212300 METAR LRSB 212300Z 14002KT CAVOK M01/M04 Q1022 NOSIG=
201902212330 METAR LRSB 212330Z 09002KT 9999 OVC088 M00/M03 Q1021 NOSIG=
201902220000 METAR LRSB 220000Z 10002KT 9999 OVC088 01/M03 Q1020 NOSIG=
201902220030 METAR LRSB 220030Z 10003KT CAVOK 01/M03 Q1020 NOSIG=
201902220100 METAR LRSB 220100Z 05003KT CAVOK 01/M03 Q1019 NOSIG=
201902220130 METAR LRSB 220130Z 02003KT CAVOK 01/M02 Q1019 NOSIG=
201902220200 METAR LRSB 220200Z AUTO VRB01KT 9999 OVC092/// 00/M02 Q1018
                        NOSIG=
201902220230 METAR LRSB 220230Z AUTO 00000KT 9999 BKN042/// SCT094///
                        00/M02 Q1018 NOSIG=
201902220300 METAR LRSB 220300Z VRB02KT 9999 OVC059 01/M02 Q1018 NOSIG=
201902220330 METAR LRSB 220330Z VRB01KT 7000 -RA BKN029 01/M02 Q1018 NOSIG=
201902220400 METAR LRSB 220400Z 05004KT 7000 -RA BKN023 01/M01 Q1017 R27/29//95
                        NOSIG=
201902220430 METAR LRSB 220430Z 15003KT 5000 -SN BR SCT014 BKN020 01/M01
                        Q1017 R27/29//95 NOSIG=
201902220500 METAR LRSB 220500Z 15002KT 2500 -SN BR FEW005 BKN010 OVC020
                        01/M01 Q1017 R27/29//95 NOSIG=
201902220530 METAR LRSB 220530Z 13003KT 2000 -SN BR SCT005 BKN009 OVC023
                        00/M01 Q1016 R27/29//95 NOSIG=
201902220600 METAR LRSB 220600Z 14002KT 1600 -RA BR FEW007 SCT013 OVC022
                        00/M00 Q1016 R27/29//95=
201902220630 METAR LRSB 220630Z VRB01KT 2000 -RA BR FEW004 SCT014 OVC023
                        01/M00 Q1016 R27/29//95=
201902220700 METAR LRSB 220700Z VRB01KT 2500 -RA BR FEW010 BKN013 OVC025
                        01/00 Q1016 R27/29//95=
201902220730 METAR LRSB 220730Z VRB01KT 2500 -RA BR FEW008 SCT009 OVC026
                        01/00 Q1016 R27/29//95=
201902220800 METAR LRSB 220800Z 00000KT 3000 -RA BR SCT009 OVC023 02/01
                        Q1016 R27/29//95=
201902220830 METAR LRSB 220830Z 00000KT 4000 BR FEW011 OVC030 02/01 Q1015
                        R27/29//95=
201902220900 METAR LRSB 220900Z VRB03KT 8000 -SHRA BKN025 SCT032CB 03/02
                        Q1016 R27/29//95=
201902220930 METAR LRSB 220930Z 31012KT 9999 -SHRA BKN019 SCT034CB 04/02
                        Q1016 R27/29//95=
201902221000 METAR LRSB 221000Z 30011KT 8000 -SHRA SCT020 SCT036CB OVC040
                        04/02 Q1016 R27/29//95=
201902221030 METAR LRSB 221030Z 30009KT 8000 -RA FEW011 SCT018 OVC023
                        03/02 Q1016 R27/29//95=
201902221100 METAR LRSB 221100Z 29007KT 9999 BKN012 OVC023 03/02 Q1016
                        R27/29//95=
201902221130 METAR LRSB 221130Z 30005KT 5000 -RA BR FEW008 BKN013 OVC022
                        03/02 Q1015 R27/29//95=
201902221200 METAR LRSB 221200Z 31006KT 5000 -RA BR FEW007 SCT009 OVC023
                        03/02 Q1016 R27/29//95=
201902221230 METAR LRSB 221230Z 31005KT 4000 -RA BR FEW006 SCT009 OVC022
                        03/01 Q1015 R27/29//95=
201902221300 METAR LRSB 221300Z 34004KT 4000 -RA BR FEW005 OVC018 03/01
                        Q1015 R27/29//95=
201902221330 METAR LRSB 221330Z 33004KT 3500 -RA BR FEW003 SCT009 OVC016
                        02/01 Q1015 R27/29//95=
201902221400 METAR LRSB 221400Z 30004KT 3500 RA BR FEW004 SCT009 OVC022
                        02/01 Q1015 R27/29//95=
201902221430 METAR LRSB 221430Z 28003KT 3500 -RA BR FEW004 BKN011 OVC023
                        02/01 Q1015 RERA R27/29//95=
201902221500 METAR LRSB 221500Z VRB02KT 4000 -RASN BR FEW004 SCT009 OVC023
                        02/01 Q1015 R27/29//95=
201902221530 METAR LRSB 221530Z 02004KT 4000 -RASN BR SCT005 SCT011 OVC017
                        01/00 Q1015 R27/29//95=
201902221600 METAR LRSB 221600Z 35007KT 3000 -SN BR SCT003 OVC014 01/M00
                        Q1016 R27/29//95=
201902221630 METAR LRSB 221630Z 33009KT 3000 -SN BR FEW003 SCT008 OVC013
                        01/M00 Q1017 R27/29//95=
201902221700 METAR LRSB 221700Z 34010KT 2500 -SN BR FEW003 SCT006 OVC011
                        00/M01 Q1018 R27/29//95=
201902221730 METAR LRSB 221730Z 06009KT 1700 SN BR FEW004 OVC011 M01/M02
                        Q1019 R27/29//95=
201902221800 METAR LRSB 221800Z 06007KT 030V100 1300 R27/1700D SN BR FEW005
                        OVC009 M02/M02 Q1020 R27/29//95 TEMPO
                        0800 SN=
201902221830 METAR LRSB 221830Z 10012KT 1300 R27/1600D SN BR FEW006 OVC009
                        M03/M04 Q1021 R27/590492 TEMPO 0800
                        SN=
201902221900 METAR COR LRSB 221900Z 09009KT 1400 R27/1700U SN BR FEW006
                        OVC009 M03/M04 Q1022 R27/590492 NOSIG=
201902221930 METAR COR LRSB 221930Z 08006KT 050V110 1500 SN BR FEW005
                        OVC012 M04/M05 Q1022 R27/590492 NOSIG=
201902222000 METAR LRSB 222000Z 06006KT 6000 FEW006 SCT012 OVC036 M04/M05
                        Q1023 RESN R27/590492 NOSIG=
201902222030 METAR LRSB 222030Z 07010KT 9999 FEW011 SCT033 BKN057 M05/M07
                        Q1024 R27/790291 NOSIG=
201902222100 METAR LRSB 222100Z 08010KT 9999 FEW015 OVC038 M05/M07 Q1025
                        R27/790291 NOSIG=
201902222130 METAR LRSB 222130Z 06014KT 9999 SCT033 OVC056 M06/M10 Q1026
                        R27/790291 NOSIG=
201902222200 METAR LRSB 222200Z 06011KT 9999 SCT036 OVC058 M06/M12 Q1027
                        R27/790291 NOSIG=
201902222230 METAR LRSB 222230Z 04006KT 9999 SCT040 OVC060 M06/M13 Q1028
                        R27/790292 NOSIG=
201902222300 METAR LRSB 222300Z 36004KT 340V040 9999 SCT045 OVC067 M06/M12
                        Q1029 R27/790292 NOSIG=
201902222330 METAR LRSB 222330Z 36004KT 9999 SCT045 OVC070 M07/M12 Q1029
                        R27/990293 NOSIG=
201902230000 METAR COR LRSB 230000Z VRB02KT 9999 SCT069 M08/M13 Q1030
                        R27/990293 NOSIG=
201902230030 METAR LRSB 230030Z 30002KT 9999 SCT055 SCT070 M10/M13 Q1030
                        R27/990293 NOSIG=
201902230100 METAR LRSB 230100Z 31003KT 9999 SCT055 SCT070 M12/M15 Q1030
                        R27/990293 NOSIG=
201902230130 METAR LRSB 230130Z 26005KT 9999 SCT056 SCT070 M12/M13 Q1031
                        R27/990293 NOSIG=
201902230200 METAR LRSB 230200Z 24005KT 9999 FEW067 M11/M13 Q1031 R27/990293
                        NOSIG=
201902230230 METAR LRSB 230230Z 26004KT 9999 FEW067 M13/M15 Q1031 R27/990293
                        NOSIG=
201902230300 METAR LRSB 230300Z 26006KT 9999 FEW070 M13/M15 Q1032 R27/990293
                        NOSIG=
201902230330 METAR LRSB 230330Z 27006KT 9999 FEW070 M12/M15 Q1032 R27/990293
                        NOSIG=
201902230400 METAR LRSB 230400Z 26005KT CAVOK M12/M14 Q1033 R27/990293
                        NOSIG=
201902230430 METAR LRSB 230430Z 26006KT 9999 FEW070 M12/M14 Q1033 R27/990293
                        NOSIG=
201902230500 METAR LRSB 230500Z VRB02KT 9999 FEW070 M13/M15 Q1033 R27/990293
                        NOSIG=
201902230530 METAR LRSB 230530Z VRB01KT 9999 FEW070 M14/M16 Q1034 R27/990293
                        NOSIG=
201902230600 METAR LRSB 230600Z 00000KT 9999 FEW070 M13/M15 Q1034 R27/990293
                        NOSIG=
201902230630 METAR LRSB 230630Z VRB01KT 9999 FEW070 M13/M15 Q1035 R27/990293=
201902230700 METAR LRSB 230700Z 00000KT CAVOK M11/M13 Q1035 R27/990293=
201902230730 METAR LRSB 230730Z VRB02KT CAVOK M10/M13 Q1035 R27/990293=
201902230800 METAR LRSB 230800Z VRB01KT CAVOK M08/M13 Q1035 R27/990293=
201902230830 METAR LRSB 230830Z 00000KT CAVOK M04/M09 Q1035 R27/990293=
201902230900 METAR LRSB 230900Z 00000KT CAVOK M03/M10 Q1036 R27/990293=
201902230930 METAR LRSB 230930Z VRB01KT CAVOK M05/M12 Q1036 R27/990293=
201902231000 METAR LRSB 231000Z VRB01KT 9999 FEW035 M03/M14 Q1036 R27/990293=
201902231030 METAR LRSB 231030Z 15004KT 9999 FEW035 M05/M16 Q1036 R27/990293=
201902231100 METAR LRSB 231100Z 14004KT 110V170 9999 FEW037 M05/M16 Q1036
                        R27/990293=
201902231130 METAR LRSB 231130Z 14005KT 080V180 9999 FEW037 M04/M14 Q1036
                        R27/990293=
201902231200 METAR LRSB 231200Z VRB02KT 9999 SCT045 M02/M14 Q1036 R27/990293=
201902231230 METAR LRSB 231230Z 26004KT 220V310 9999 FEW044 M04/M15 Q1036
                        R27/CLRD//=
201902231300 METAR LRSB 231300Z 29004KT 260V320 9999 FEW046 M04/M14 Q1036=
201902231330 METAR LRSB 231330Z VRB03KT 9999 FEW048 M04/M14 Q1036=
201902231400 METAR LRSB 231400Z 25003KT 9999 FEW048 M04/M14 Q1036=
201902231430 METAR LRSB 231430Z 24005KT 9999 FEW050 M04/M12 Q1036=
201902231500 METAR LRSB 231500Z 24005KT 9999 FEW050 M05/M11 Q1036=
201902231530 METAR LRSB 231530Z 25004KT 9999 FEW055 M05/M11 Q1036=
201902231600 METAR LRSB 231600Z 25005KT CAVOK M07/M12 Q1037=
201902231630 METAR LRSB 231630Z 24005KT CAVOK M08/M11 Q1037=
201902231700 METAR LRSB 231700Z VRB01KT CAVOK M08/M11 Q1037=
201902231730 METAR LRSB 231730Z 24006KT CAVOK M08/M12 Q1036=
201902231800 METAR LRSB 231800Z 23003KT CAVOK M09/M12 Q1036=
201902231830 METAR LRSB 231830Z 25001KT CAVOK M09/M12 Q1036=
201902231900 METAR LRSB 231900Z 26003KT CAVOK M08/M12 Q1036=
201902231930 METAR LRSB 231930Z 30002KT CAVOK M09/M13 Q1037=
201902232000 METAR LRSB 232000Z VRB01KT CAVOK M09/M12 Q1037=
201902232030 METAR LRSB 232030Z 00000KT CAVOK M09/M13 Q1037=
201902232100 METAR LRSB 232100Z 30002KT CAVOK M10/M13 Q1037=
201902232130 METAR LRSB 232130Z 28002KT CAVOK M10/M13 Q1037=
201902232200 METAR LRSB 232200Z 00000KT CAVOK M09/M12 Q1037=
201902232230 METAR LRSB 232230Z 03001KT 9999 FEW048 M10/M12 Q1037=
201902232300 METAR LRSB 232300Z 00000KT 9999 SCT047 SCT061 M10/M12 Q1037=
201902232330 METAR LRSB 232330Z 00000KT 9999 SCT060 M10/M12 Q1037=
201902240000 METAR LRSB 240000Z AUTO VRB01KT 9999 OVC060/// M10/M12 Q1037=
201902240030 METAR LRSB 240030Z AUTO 00000KT 9999 FEW061/// M11/M12 Q1037=
201902240100 METAR LRSB 240100Z 11001KT CAVOK M11/M12 Q1037=
201902240130 METAR LRSB 240130Z 11004KT CAVOK M10/M12 Q1037=
201902240200 METAR LRSB 240200Z 11003KT CAVOK M10/M12 Q1036=
201902240230 METAR LRSB 240230Z 05002KT CAVOK M10/M12 Q1036=
201902240300 METAR LRSB 240300Z 00000KT CAVOK M12/M13 Q1036=
201902240330 METAR LRSB 240330Z 00000KT CAVOK M12/M13 Q1036=
201902240400 METAR LRSB 240400Z 00000KT CAVOK M12/M13 Q1036=
201902240430 METAR LRSB 240430Z 00000KT CAVOK M12/M13 Q1036=
201902240500 METAR LRSB 240500Z 00000KT CAVOK M12/M13 Q1036=
201902240530 METAR LRSB 240530Z 09001KT CAVOK M11/M13 Q1036=
201902240600 METAR LRSB 240600Z 03002KT CAVOK M10/M12 Q1036=
201902240630 METAR LRSB 240630Z 23002KT CAVOK M10/M11 Q1036=
201902240700 METAR LRSB 240700Z 13001KT CAVOK M09/M11 Q1036=
201902240730 METAR LRSB 240730Z VRB02KT CAVOK M08/M10 Q1036=
201902240800 METAR LRSB 240800Z 36003KT CAVOK M08/M10 Q1036=
201902240830 METAR LRSB 240830Z VRB01KT CAVOK M07/M10 Q1036=
201902240900 METAR LRSB 240900Z VRB02KT CAVOK M06/M09 Q1036=
201902240930 METAR LRSB 240930Z VRB02KT CAVOK M06/M10 Q1037=
201902241000 METAR LRSB 241000Z VRB01KT CAVOK M03/M10 Q1036=
201902241030 METAR LRSB 241030Z VRB01KT CAVOK M03/M10 Q1036=
201902241100 METAR LRSB 241100Z VRB01KT CAVOK M03/M10 Q1036=
201902241130 METAR LRSB 241130Z VRB02KT CAVOK M03/M10 Q1036=
201902241200 METAR LRSB 241200Z 01004KT CAVOK M03/M10 Q1035=
201902241230 METAR LRSB 241230Z VRB02KT CAVOK M03/M10 Q1035=
201902241300 METAR LRSB 241300Z VRB02KT CAVOK M03/M10 Q1035=
201902241330 METAR LRSB 241330Z VRB01KT 9999 SCT086 M02/M10 Q1035=
201902241400 METAR LRSB 241400Z 01003KT CAVOK M03/M10 Q1034=
201902241430 METAR LRSB 241430Z VRB02KT CAVOK M03/M11 Q1034=
201902241500 METAR LRSB 241500Z VRB01KT 9999 SCT080 M03/M10 Q1034=
201902241530 METAR LRSB 241530Z 26003KT 9999 FEW081 M04/M09 Q1034=
201902241600 METAR LRSB 241600Z 26002KT CAVOK M05/M09 Q1034=
201902241630 METAR LRSB 241630Z 25002KT CAVOK M06/M09 Q1034=
201902241700 METAR LRSB 241700Z 24003KT CAVOK M06/M09 Q1034=
201902241730 METAR LRSB 241730Z 24003KT CAVOK M07/M09 Q1034=
201902241800 METAR LRSB 241800Z 26003KT CAVOK M07/M10 Q1034=
201902241830 METAR LRSB 241830Z VRB01KT CAVOK M08/M10 Q1034=
201902241900 METAR LRSB 241900Z 24003KT CAVOK M08/M10 Q1034=
201902241930 METAR LRSB 241930Z 26002KT CAVOK M08/M10 Q1035=
201902242000 METAR LRSB 242000Z 00000KT CAVOK M09/M11 Q1035=
201902242030 METAR LRSB 242030Z VRB01KT CAVOK M09/M11 Q1035=
201902242100 METAR LRSB 242100Z VRB01KT CAVOK M09/M11 Q1035=
201902242130 METAR LRSB 242130Z VRB01KT 9999 FEW048 M09/M11 Q1035=
201902242200 METAR LRSB 242200Z VRB02KT 9000 SCT052 M09/M10 Q1035=
201902242230 METAR LRSB 242230Z VRB01KT 9000 SCT050 M09/M10 Q1035=
201902242300 METAR LRSB 242300Z 00000KT 9999 SCT049 M09/M10 Q1035=
201902242330 METAR LRSB 242330Z 00000KT 9999 SCT047 M09/M10 Q1035=
201902250000 METAR LRSB 250000Z 09001KT 9999 FEW044 M08/M10 Q1034=
201902250030 METAR LRSB 250030Z 07002KT 9999 FEW045 M08/M10 Q1034=
201902250100 METAR LRSB 250100Z 36002KT 9999 FEW045 M08/M10 Q1034=
201902250130 METAR LRSB 250130Z 20002KT 9999 FEW043 M09/M11 Q1034=
201902250200 METAR LRSB 250200Z VRB01KT CAVOK M10/M11 Q1034=
201902250230 METAR LRSB 250230Z 00000KT CAVOK M09/M11 Q1034=
201902250300 METAR LRSB 250300Z 00000KT CAVOK M10/M11 Q1034=
201902250330 METAR LRSB 250330Z 00000KT CAVOK M10/M12 Q1034=
201902250400 METAR LRSB 250400Z VRB01KT CAVOK M11/M12 Q1034=
201902250430 METAR LRSB 250430Z 00000KT CAVOK M11/M12 Q1034=
201902250500 METAR LRSB 250500Z VRB01KT CAVOK M11/M12 Q1034=
201902250530 METAR LRSB 250530Z 11004KT CAVOK M10/M12 Q1034=
201902250600 METAR LRSB 250600Z 10004KT CAVOK M09/M10 Q1034 NOSIG=
201902250630 METAR LRSB 250630Z 09003KT CAVOK M08/M11 Q1034 NOSIG=
201902250700 METAR LRSB 250700Z 08002KT CAVOK M07/M10 Q1034 NOSIG=
201902250730 METAR LRSB 250730Z 15002KT CAVOK M07/M10 Q1034 NOSIG=
201902250800 METAR LRSB 250800Z VRB01KT CAVOK M05/M09 Q1034 NOSIG=
201902250830 METAR LRSB 250830Z 01003KT CAVOK M05/M10 Q1034 NOSIG=
201902250900 METAR LRSB 250900Z VRB02KT CAVOK M04/M09 Q1035 NOSIG=
201902250930 METAR LRSB 250930Z VRB01KT CAVOK M02/M09 Q1035 NOSIG=
201902251000 METAR LRSB 251000Z VRB02KT CAVOK M01/M10 Q1034 NOSIG=
201902251030 METAR LRSB 251030Z 06004KT 030V090 CAVOK M01/M11 Q1034 NOSIG=
201902251100 METAR LRSB 251100Z 36005KT 330V030 CAVOK M01/M09 Q1034 NOSIG=
201902251130 METAR LRSB 251130Z 35004KT 320V030 CAVOK M01/M09 Q1034 NOSIG=
201902251200 METAR LRSB 251200Z VRB03KT CAVOK 00/M09 Q1033 NOSIG=
201902251230 METAR LRSB 251230Z 01004KT 340V040 CAVOK M00/M09 Q1033 NOSIG=
201902251300 METAR LRSB 251300Z VRB02KT CAVOK 03/M07 Q1033 NOSIG=
201902251330 METAR LRSB 251330Z VRB02KT CAVOK 01/M08 Q1032 NOSIG=
201902251400 METAR LRSB 251400Z VRB01KT CAVOK 01/M08 Q1032 NOSIG=
201902251430 METAR LRSB 251430Z VRB02KT CAVOK 01/M08 Q1032 NOSIG=
201902251500 METAR LRSB 251500Z VRB01KT CAVOK 02/M08 Q1031 NOSIG=
201902251530 METAR LRSB 251530Z 24002KT 9999 FEW050 00/M07 Q1031 NOSIG=
201902251600 METAR LRSB 251600Z 24003KT 9999 FEW050 M01/M06 Q1031 NOSIG=
201902251630 METAR LRSB 251630Z 26002KT CAVOK M02/M06 Q1031 NOSIG=
201902251700 METAR LRSB 251700Z 26002KT CAVOK M03/M06 Q1030 NOSIG=
201902251730 METAR LRSB 251730Z 27003KT CAVOK M03/M06 Q1031 NOSIG=
201902251800 METAR LRSB 251800Z 27002KT CAVOK M03/M06 Q1031 NOSIG=
201902251830 METAR LRSB 251830Z 25005KT CAVOK M03/M06 Q1030 NOSIG=
201902251900 METAR LRSB 251900Z 23005KT CAVOK M03/M06 Q1030 NOSIG=
201902251930 METAR LRSB 251930Z VRB01KT CAVOK M04/M06 Q1030 NOSIG=
201902252000 METAR LRSB 252000Z VRB01KT 9999 SCT042 M03/M05 Q1030 NOSIG=
201902252030 METAR LRSB 252030Z 00000KT 9999 OVC040 M03/M05 Q1030 NOSIG=
201902252100 METAR LRSB 252100Z 00000KT 8000 OVC041 M03/M05 Q1030 NOSIG=
201902252130 METAR LRSB 252130Z 00000KT 7000 BKN042 M03/M06 Q1030 NOSIG=
201902252200 METAR LRSB 252200Z 00000KT 8000 SCT044 M03/M06 Q1030 NOSIG=
201902252230 METAR LRSB 252230Z VRB01KT 7000 NSC M04/M06 Q1030 NOSIG=
201902252300 METAR LRSB 252300Z 23003KT 7000 NSC M04/M06 Q1029 NOSIG=
201902252330 METAR LRSB 252330Z 24001KT 7000 NSC M05/M06 Q1029 NOSIG=
201902260000 METAR LRSB 260000Z 24002KT 6000 NSC M05/M06 Q1029 NOSIG=
201902260030 METAR LRSB 260030Z 00000KT 5000 BR NSC M05/M06 Q1029 NOSIG=
201902260100 METAR LRSB 260100Z 20003KT CAVOK M05/M07 Q1028 NOSIG=
201902260130 METAR LRSB 260130Z AUTO VRB01KT 9999 OVC120/// M05/M07 Q1027
                        NOSIG=
201902260200 METAR LRSB 260200Z 29002KT CAVOK M06/M07 Q1027 NOSIG=
201902260230 METAR LRSB 260230Z 00000KT CAVOK M06/M07 Q1026 NOSIG=
201902260300 METAR COR LRSB 260300Z 00000KT CAVOK M06/M07 Q1026 NOSIG=
201902260330 METAR LRSB 260330Z 00000KT CAVOK M06/M07 Q1026 NOSIG=
201902260400 METAR LRSB 260400Z 00000KT CAVOK M07/M08 Q1026 NOSIG=
201902260430 METAR LRSB 260430Z 28001KT CAVOK M07/M08 Q1025 NOSIG=
201902260500 METAR LRSB 260500Z 31005KT CAVOK M06/M08 Q1025 NOSIG=
201902260530 METAR LRSB 260530Z VRB01KT CAVOK M06/M08 Q1025 NOSIG=
201902260600 METAR LRSB 260600Z 23003KT CAVOK M06/M07 Q1025 NOSIG=
201902260630 METAR LRSB 260630Z 24004KT 220V280 CAVOK M04/M06 Q1024=
201902260700 METAR LRSB 260700Z VRB01KT CAVOK M03/M05 Q1024=
201902260730 METAR LRSB 260730Z 11003KT CAVOK M02/M05 Q1023=
201902260800 METAR LRSB 260800Z 07003KT CAVOK M00/M05 Q1023=
201902260830 METAR LRSB 260830Z VRB02KT 8000 NSC 00/M04 Q1022=
201902260900 METAR LRSB 260900Z VRB02KT 9000 NSC 02/M04 Q1022=
201902260930 METAR LRSB 260930Z VRB02KT CAVOK 02/M04 Q1022=
201902261000 METAR LRSB 261000Z VRB01KT CAVOK 03/M05 Q1021=
201902261030 METAR LRSB 261030Z VRB02KT CAVOK 03/M04 Q1021=
201902261100 METAR LRSB 261100Z 17003KT 130V200 9999 FEW077 03/M04 Q1020=
201902261130 METAR LRSB 261130Z VRB02KT 9999 FEW078 04/M04 Q1019=
201902261200 METAR LRSB 261200Z VRB02KT 9999 SCT074 05/M04 Q1019=
201902261230 METAR LRSB 261230Z 05004KT 350V110 9999 SCT070 05/M04 Q1018=
201902261300 METAR LRSB 261300Z 01004KT 330V060 9999 FEW060 SCT070 05/M04
                        Q1018=
201902261330 METAR LRSB 261330Z 34007KT 300V360 9999 SCT062 05/M04 Q1018=
201902261400 METAR LRSB 261400Z 34006KT 9999 SCT062 05/M03 Q1017=
201902261430 METAR LRSB 261430Z 30007KT 270V330 9999 FEW061 05/M04 Q1017=
201902261500 METAR LRSB 261500Z 29011KT 9999 FEW062 SCT086 04/M03 Q1016=
201902261530 METAR LRSB 261530Z 30008KT 9999 SCT084 04/M03 Q1016=
201902261600 METAR LRSB 261600Z 31005KT 9999 FEW083 04/M04 Q1017=
201902261630 METAR LRSB 261630Z 34004KT 290V040 CAVOK 03/M03 Q1017=
201902261700 METAR LRSB 261700Z 30009KT 9999 FEW079 03/M03 Q1017=
201902261730 METAR LRSB 261730Z 29011KT 9999 FEW050 SCT072 03/M04 Q1017=
201902261800 METAR LRSB 261800Z 29010KT 9999 SCT047 SCT070 03/M04 Q1017
                        NOSIG=
201902261830 METAR LRSB 261830Z 28010KT 9999 BKN046 SCT070 03/M03 Q1017
                        NOSIG=
201902261900 METAR LRSB 261900Z 27008KT 9999 SCT045 BKN070 03/M03 Q1018
                        NOSIG=
201902261930 METAR LRSB 261930Z 29008KT 9999 BKN050 BKN068 04/M03 Q1018
                        NOSIG=
201902262000 METAR LRSB 262000Z 30008KT 9999 BKN050 BKN068 04/M03 Q1017
                        NOSIG=
201902262030 METAR COR LRSB 262030Z 31007KT 9999 FEW050 OVC067 04/M03
                        Q1017 NOSIG=
201902262100 METAR COR LRSB 262100Z 33006KT 9999 BKN065 04/M03 Q1017 NOSIG=
201902262130 METAR LRSB 262130Z 32010KT 9999 SCT060 BKN088 04/M03 Q1017
                        NOSIG=
201902262200 METAR LRSB 262200Z 35007KT 9999 SCT038 04/M03 Q1017 NOSIG=
201902262230 METAR LRSB 262230Z 33007KT 9999 SCT038 03/M03 Q1017 NOSIG=
201902262300 METAR LRSB 262300Z 33007KT 9999 SCT038 04/M02 Q1017 NOSIG=
201902262330 METAR LRSB 262330Z 34008KT 9999 FEW038 SCT079 04/M02 Q1017
                        NOSIG=
201902270000 METAR LRSB 270000Z 34007KT 9999 OVC075 03/M02 Q1017 NOSIG=
201902270030 METAR LRSB 270030Z 33008KT 9999 OVC069 03/M02 Q1017 NOSIG=
201902270100 METAR LRSB 270100Z 32007KT 9999 BKN066 03/M02 Q1017 NOSIG=
201902270130 METAR LRSB 270130Z 32006KT 9999 OVC072 03/M02 Q1017 NOSIG=
201902270200 METAR LRSB 270200Z 32007KT 9999 SCT056 OVC072 02/M02 Q1017
                        NOSIG=
201902270230 METAR LRSB 270230Z 31009KT 9999 SCT060 OVC080 02/M02 Q1018
                        NOSIG=
201902270300 METAR LRSB 270300Z 26005KT 9999 SCT063 BKN083 02/M02 Q1018
                        NOSIG=
201902270330 METAR LRSB 270330Z 30004KT 270V330 9999 FEW036 OVC070 02/M02
                        Q1019 NOSIG=
201902270400 METAR LRSB 270400Z 28006KT 9999 SCT026 BKN076 02/M02 Q1019
                        R27/12//95 NOSIG=
201902270430 METAR LRSB 270430Z 31008KT 9999 SCT026 BKN083 02/M02 Q1019
                        R27/12//95 NOSIG=
201902270500 METAR LRSB 270500Z 31006KT 9999 FEW026 BKN082 01/M02 Q1020
                        R27/12//95 NOSIG=
201902270530 METAR LRSB 270530Z 30007KT 9999 FEW026 SCT080 01/M02 Q1020
                        R27/12//95 NOSIG=
201902270600 METAR LRSB 270600Z 29006KT 9999 FEW080 01/M02 Q1020 R27/12//95
                        NOSIG=
201902270630 METAR LRSB 270630Z 25005KT 9999 FEW028 02/M02 Q1020 R27/12//95=
201902270700 METAR LRSB 270700Z 28005KT 250V310 9999 FEW030 03/M01 Q1021
                        R27/12//95=
201902270730 METAR LRSB 270730Z 34005KT 9999 FEW032 03/M02 Q1021 R27/12//95=
201902270800 METAR LRSB 270800Z 34006KT 310V010 9999 FEW054 04/M02 Q1021
                        R27/12//95=
201902270830 METAR LRSB 270830Z 36007KT 340V040 9999 FEW054 04/M02 Q1021
                        R27/12//95=
201902270900 METAR LRSB 270900Z 35005KT 290V020 9999 FEW030 05/M02 Q1021
                        R27/CLRD//=
201902270930 METAR LRSB 270930Z 33006KT 270V020 9999 FEW030 05/M02 Q1021=
201902271000 METAR LRSB 271000Z 35007KT 9999 FEW033 06/M04 Q1021=
201902271030 METAR COR LRSB 271030Z 32009KT 9999 FEW034 SCT053 05/M03
                        Q1021=
201902271100 METAR LRSB 271100Z 33006KT 9999 FEW037 SCT054 05/M03 Q1021=
201902271130 METAR LRSB 271130Z 33008KT 9999 FEW040 SCT054 06/M03 Q1021=
201902271200 METAR LRSB 271200Z 35006KT 300V030 9999 SCT043 SCT055 07/M03
                        Q1020=
201902271230 METAR LRSB 271230Z 31008KT 9999 SCT044 BKN059 06/M03 Q1020=
201902271300 METAR LRSB 271300Z 31007KT 9999 SCT045 BKN060 06/M03 Q1020=
201902271330 METAR LRSB 271330Z 30006KT 9999 SCT047 BKN060 06/M02 Q1020=
201902271400 METAR LRSB 271400Z 29007KT 9999 BKN055 06/M02 Q1020=
201902271430 METAR LRSB 271430Z 28008KT 9999 BKN052 05/M02 Q1019=
201902271500 METAR LRSB 271500Z 29007KT 9999 BKN048 05/M02 Q1019=
201902271530 METAR LRSB 271530Z 29006KT 9999 BKN048 05/M02 Q1019=
201902271600 METAR LRSB 271600Z 30006KT 9999 SCT046 BKN058 05/M02 Q1019=
201902271630 METAR LRSB 271630Z 32003KT 290V350 9999 SCT048 BKN060 05/M02
                        Q1019=
201902271700 METAR LRSB 271700Z 32005KT 9999 SCT047 BKN058 05/M03 Q1020=
201902271730 METAR LRSB 271730Z 33004KT 9999 BKN046 SCT060 05/M02 Q1019=
201902271800 METAR LRSB 271800Z 35007KT 9999 BKN046 05/M02 Q1019=
201902271830 METAR LRSB 271830Z 36007KT 9999 BKN047 05/M02 Q1019=
201902271900 METAR LRSB 271900Z 32004KT 290V350 9999 BKN049 04/M02 Q1019=
201902271930 METAR LRSB 271930Z 28006KT 9999 BKN049 03/M02 Q1019=
201902272000 METAR LRSB 272000Z 28007KT 9999 BKN048 02/M02 Q1019=
201902272030 METAR LRSB 272030Z 27007KT 9999 SCT046 02/M02 Q1019=
201902272100 METAR LRSB 272100Z 27006KT 9999 SCT046 01/M03 Q1019=
201902272130 METAR LRSB 272130Z 25006KT 9999 FEW047 01/M02 Q1019=
201902272200 METAR LRSB 272200Z 25006KT CAVOK 01/M02 Q1019=
201902272230 METAR LRSB 272230Z 27007KT CAVOK 00/M03 Q1019=
201902272300 METAR LRSB 272300Z 22004KT 190V250 9999 FEW042 00/M02 Q1019=
201902272330 METAR LRSB 272330Z VRB01KT 9999 FEW040 M00/M03 Q1018=
201902280000 METAR LRSB 280000Z VRB02KT 9999 FEW040 00/M02 Q1018=
201902280030 METAR LRSB 280030Z 11002KT 9999 SCT074 M01/M03 Q1018=
201902280100 METAR LRSB 280100Z VRB01KT 9999 SCT070 M01/M03 Q1018=
201902280130 METAR LRSB 280130Z 00000KT 9999 SCT070 M02/M04 Q1017=
201902280200 METAR LRSB 280200Z 00000KT 9999 FEW070 M02/M04 Q1017=
201902280230 METAR LRSB 280230Z 01004KT 9999 FEW072 M02/M03 Q1017=
201902280300 METAR LRSB 280300Z 29005KT 9999 FEW073 M03/M04 Q1016=
201902280330 METAR LRSB 280330Z 23006KT 9999 FEW075 M01/M03 Q1016=
201902280400 METAR LRSB 280400Z 24003KT 210V270 9999 FEW076 M01/M03 Q1016=
201902280430 METAR LRSB 280430Z VRB01KT 9999 FEW076 M01/M03 Q1016=
201902280500 METAR LRSB 280500Z 07002KT CAVOK M01/M03 Q1016=
201902280530 METAR LRSB 280530Z VRB01KT CAVOK M01/M03 Q1015=
201902280600 METAR LRSB 280600Z 12004KT CAVOK 00/M03 Q1015=
201902280630 METAR LRSB 280630Z 04003KT CAVOK 01/M02 Q1015=
201902280700 METAR LRSB 280700Z VRB02KT CAVOK 03/M02 Q1014=
201902280730 METAR LRSB 280730Z VRB01KT CAVOK 05/M01 Q1014=
201902280800 METAR LRSB 280800Z 10003KT CAVOK 06/M02 Q1014=
201902280830 METAR LRSB 280830Z VRB02KT CAVOK 08/M02 Q1013=
201902280900 METAR LRSB 280900Z 03003KT 330V130 CAVOK 08/M01 Q1013=
201902280930 METAR LRSB 280930Z 12004KT 020V170 CAVOK 09/M01 Q1012=
201902281000 METAR LRSB 281000Z 32012KT CAVOK 11/M01 Q1012=
201902281030 METAR LRSB 281030Z 32010KT CAVOK 12/M01 Q1011=
201902281100 METAR LRSB 281100Z 31013KT CAVOK 12/M02 Q1011=
201902281130 METAR LRSB 281130Z 31016KT CAVOK 12/M03 Q1010=
201902281200 METAR LRSB 281200Z 30021KT CAVOK 12/M03 Q1009=
201902281230 METAR LRSB 281230Z 29018KT 250V310 CAVOK 13/M04 Q1009=
201902281300 METAR LRSB 281300Z 29020KT CAVOK 13/M05 Q1008=
201902281330 METAR LRSB 281330Z 28019KT CAVOK 13/M04 Q1008=
201902281400 METAR LRSB 281400Z 29019KT CAVOK 13/M05 Q1007=
201902281430 METAR LRSB 281430Z 29016KT CAVOK 13/M05 Q1007=
201902281500 METAR LRSB 281500Z 28013KT CAVOK 13/M04 Q1006=
201902281530 METAR LRSB 281530Z 28016KT CAVOK 12/M04 Q1006=
201902281600 METAR LRSB 281600Z 30010KT CAVOK 10/M04 Q1006=
201902281630 METAR LRSB 281630Z 31006KT CAVOK 09/M03 Q1006=
201902281700 METAR LRSB 281700Z 35005KT CAVOK 09/M03 Q1006=
201902281730 METAR LRSB 281730Z 01007KT 320V030 CAVOK 08/M03 Q1006=
201902281800 METAR LRSB 281800Z 02006KT CAVOK 08/M04 Q1006=
201902281830 METAR LRSB 281830Z 09003KT 050V110 CAVOK 07/M04 Q1005=
201902281900 METAR LRSB 281900Z VRB02KT CAVOK 08/M04 Q1005=
201902281930 METAR LRSB 281930Z 07006KT CAVOK 05/M03 Q1005=
201902282000 METAR LRSB 282000Z 04005KT CAVOK 06/M03 Q1005=
201902282030 METAR LRSB 282030Z 11003KT 070V170 CAVOK 05/M03 Q1005=
201902282100 METAR LRSB 282100Z VRB02KT CAVOK 03/M03 Q1005=
201902282130 METAR LRSB 282130Z VRB01KT CAVOK 04/M03 Q1005=
201902282200 METAR LRSB 282200Z 25005KT 200V290 CAVOK 04/M03 Q1005=
201902282230 METAR LRSB 282230Z 29016KT CAVOK 09/M02 Q1005=
201902282300 METAR LRSB 282300Z 27012KT CAVOK 08/M02 Q1005=
201902282330 METAR LRSB 282330Z 27010KT CAVOK 07/M02 Q1005=
