201902010500 TAF LRSB 010500Z 0106/0206 VRB04KT 5000 BR SCT015 BKN055
                      BECMG 0106/0108 CAVOK
                      BECMG 0117/0119 21010KT=
201902011100 TAF LRSB 011100Z 0112/0212 26006KT 9999 BKN035
                      TEMPO 0200/0206 3000 BR BKN010=
201902011700 TAF LRSB 011700Z 0118/0218 VRB04KT CAVOK
                      TEMPO 0200/0206 3000 BR BKN010=
201902012300 TAF LRSB 012300Z 0200/0224 VRB04KT CAVOK
                      TEMPO 0201/0206 3000 BR BKN010=
201902020500 TAF LRSB 020500Z 0206/0306 VRB04KT CAVOK
                      TEMPO 0301/0306 3000 BR BKN010=
201902021100 TAF LRSB 021100Z 0212/0312 13010KT CAVOK
                      BECMG 0219/0221 VRB04KT
                      TEMPO 0301/0306 3000 BR BKN010
                      BECMG 0307/0309 14012KT=
201902021700 TAF LRSB 021700Z 0218/0318 13010KT CAVOK
                      BECMG 0219/0221 VRB04KT
                      TEMPO 0301/0306 3000 BR BKN010
                      BECMG 0307/0309 14012KT=
201902022300 TAF LRSB 022300Z 0300/0324 14010KT CAVOK
                      PROB30 TEMPO 0302/0306 5000 BR
                      TEMPO 0304/0309 VRB04KT
                      BECMG 0320/0322 VRB04KT=
201902030500 TAF LRSB 030500Z 0306/0406 VRB04KT CAVOK
                      BECMG 0307/0309 14012KT
                      BECMG 0317/0319 VRB04KT
                      TEMPO 0400/0406 3000 BR=
201902031100 TAF LRSB 031100Z 0312/0412 13012KT CAVOK
                      BECMG 0316/0318 VRB04KT
                      TEMPO 0400/0406 3000 BR=
201902031700 TAF LRSB 031700Z 0318/0418 14010KT CAVOK
                      BECMG 0318/0320 VRB04KT
                      TEMPO 0402/0407 3000 BR=
201902032300 TAF LRSB 032300Z 0400/0424 26010KT CAVOK
                      TEMPO 0402/0407 3000 BR
                      BECMG 0417/0419 5000 BR
                      BECMG 0420/0422 1500 BR=
201902040500 TAF LRSB 040500Z 0406/0506 VRB04KT CAVOK
                      BECMG 0418/0420 3000 BR BKN010 BKN025
                      TEMPO 0500/0506 1500 -RA BR BKN005 OVC025=
201902041100 TAF LRSB 041100Z 0412/0512 35008KT CAVOK
                      BECMG 0418/0420 3000 BR BKN010 BKN025
                      TEMPO 0502/0509 1500 -RA BR BKN005 OVC025
                       BECMG 0509/0511 5000 BKN015 BKN025=
201902041700 TAF LRSB 041700Z 0418/0518 VRB04KT 9999 SCT040
                      BECMG 0420/0422 5000 BR BKN015 BKN030
                      TEMPO 0502/0509 1500 -RA BR BKN010 OVC025
                       BECMG 0509/0511 7000 NSW BKN025=
201902042300 TAF LRSB 042300Z 0500/0524 VRB04KT 5000 BR BKN015 BKN030
                      TEMPO 0502/0509 1500 -RA BR BKN010 OVC025
                       BECMG 0509/0511 9999 NSW BKN025=
201902050500 TAF LRSB 050500Z 0506/0606 VRB04KT 9999 BKN010 BKN025
                      TEMPO 0506/0509 3000 -RA BR
                      BECMG 0521/0523 5000 BR BKN010 OVC030
                      BECMG 0523/0601 1500 BR BKN005 OVC020
                      PROB40 TEMPO 0601/0606 0600 -FZRADZ FZFG
                       VV001=
201902051100 TAF LRSB 051100Z 0512/0612 VRB04KT 6000 BKN010
                      BECMG 0520/0522 1500 BR BKN005 OVC020
                      PROB40 TEMPO 0604/0608 0600 -FZRADZ FZFG
                       VV001
                      BECMG 0608/0610 5000 -DZ BR BKN005 OVC010=
201902051413 TAF AMD LRSB 051413Z 0514/0612 VRB04KT CAVOK
                      BECMG 0516/0518 5000 BR BKN010
                      BECMG 0520/0522 1500 BR BKN005 OVC020
                      PROB40 TEMPO 0604/0608 0600 -FZRADZ FZFG
                       VV001
                      BECMG 0608/0610 5000 -DZ BR BKN005 OVC010=
201902051700 TAF LRSB 051700Z 0518/0618 VRB04KT 9999 BKN020
                      BECMG 0518/0520 5000 BR
                      TEMPO 0523/0606 1500 BR BKN010 BKN025
                      BECMG 0607/0609 9999 NSW=
201902052300 TAF LRSB 052300Z 0600/0624 VRB04KT 9999 OVC020
                      TEMPO 0601/0606 3000 BR OVC010
                      PROB40 TEMPO 0610/0616 5000 -RA BR=
201902060500 TAF LRSB 060500Z 0606/0706 VRB04KT 7000 OVC025
                      TEMPO 0606/0609 5000 BR BKN010 OVC025
                      PROB30 TEMPO 0612/0618 5000 -RA BR
                      BECMG 0620/0622 5000 BR BKN010 OVC020=
201902061100 TAF LRSB 061100Z 0612/0712 VRB04KT 9999 BKN015
                      TEMPO 0612/0616 BKN020
                      BECMG 0620/0622 5000 BR BKN010 OVC020
                      TEMPO 0700/0706 1500 BR OVC005
                      BECMG 0707/0709 9999 NSW BKN020=
201902061700 TAF LRSB 061700Z 0618/0718 VRB04KT 9999 OVC060
                      BECMG 0620/0622 5000 BR BKN015 OVC040
                      PROB40 TEMPO 0700/0706 1500 BR OVC005
                      BECMG 0707/0709 9999 NSW BKN030=
201902062300 TAF LRSB 062300Z 0700/0724 VRB04KT 9999 BKN045
                      TEMPO 0700/0706 3000 BR BKN010 OVC025=
201902070500 TAF LRSB 070500Z 0706/0806 VRB04KT 9999 SCT015 BKN035
                      TEMPO 0706/0710 5000 BR BKN010 BKN020=
201902071100 TAF LRSB 071100Z 0712/0812 VRB04KT 9999 SCT010 BKN020
                      PROB30 TEMPO 0716/0721 5000 BR BKN010 BKN030=
201902071700 TAF LRSB 071700Z 0718/0818 VRB04KT 9999 BKN020
                      TEMPO 0801/0806 5000 BR BKN005=
201902072300 TAF LRSB 072300Z 0800/0824 VRB04KT 9999 OVC025
                      TEMPO 0801/0806 5000 BR BKN005
                      BECMG 0819/0821 5000 BR
                      BECMG 0822/0824 1500 BR=
201902080500 TAF LRSB 080500Z 0806/0906 VRB04KT 9999 OVC030
                      TEMPO 0900/0906 3000 BR=
201902081100 TAF LRSB 081100Z 0812/0912 VRB04KT 9999 OVC030=
201902081700 TAF LRSB 081700Z 0818/0918 VRB04KT 9999 BKN030=
201902082300 TAF LRSB 082300Z 0900/0924 VRB04KT 9999 BKN030
                      TEMPO 0921/0924 5000 BR=
201902090500 TAF LRSB 090500Z 0906/1006 VRB04KT 9999 BKN030
                      PROB40 TEMPO 1002/1006 5000 BR=
201902091100 TAF LRSB 091100Z 0912/1012 VRB04KT 9999 BKN030
                      PROB40 TEMPO 1002/1006 5000 BR=
201902091700 TAF LRSB 091700Z 0918/1018 VRB04KT CAVOK=
201902092300 TAF LRSB 092300Z 1000/1024 VRB04KT CAVOK=
201902100500 TAF LRSB 100500Z 1006/1106 VRB04KT CAVOK
                      TEMPO 1021/1104 3000 BR=
201902101100 TAF LRSB 101100Z 1012/1112 VRB04KT CAVOK
                      TEMPO 1021/1104 3000 BR=
201902101700 TAF LRSB 101700Z 1018/1118 VRB04KT CAVOK
                      TEMPO 1021/1104 3000 BR
                      BECMG 1113/1115 5000 -RA BR BKN015 BKN040
                       TEMPO 1115/1118 3000 RA BR BKN010 OVC035=
201902102300 TAF LRSB 102300Z 1100/1124 VRB04KT 5000 BR NSC
                      TEMPO 1100/1104 1500 BR
                      BECMG 1106/1108 9999 NSW BKN035
                      BECMG 1113/1115 5000 -RA BR BKN015 BKN040
                       TEMPO 1119/1124 3000 RA BR BKN010 OVC035
                       PROB40
                      TEMPO 1121/1124 RASN=
201902110500 TAF LRSB 110500Z 1106/1206 VRB04KT CAVOK
                      TEMPO 1106/1107 5000 BR
                      BECMG 1116/1118 5000 -RA BKN015 BKN040
                      BECMG 1120/1122 30012KT 3000 RASN BR BKN010
                       OVC035
                      BECMG 1202/1204 1500 SN BKN005 OVC025=
201902111100 TAF LRSB 111100Z 1112/1212 VRB04KT 9999 SCT040 BKN070
                      BECMG 1116/1118 5000 RA BKN015 BKN040
                      BECMG 1122/1124 3000 SN BKN010 OVC035
                      BECMG 1204/1206 30012KT 1500 SN BKN005 OVC025
                       BECMG 1209/1211 5000 -SN BKN010 OVC035=
201902111700 TAF LRSB 111700Z 1118/1218 VRB04KT 9999 SCT040 BKN070
                      BECMG 1118/1120 5000 RA BKN015 BKN040
                      BECMG 1120/1122 3000 -RASN BR BKN010 OVC035
                       BECMG 1122/1124 30010KT 1500 SN BR BKN005
                       OVC025
                      TEMPO 1201/1205 0800 +SN BKN002 OVC020
                      BECMG 1211/1213 5000 -SN BKN015 OVC035
                      BECMG 1216/1218 9999 NSW BKN020 OVC040=
201902112300 TAF LRSB 112300Z 1200/1224 30010KT 3000 -SN BKN010 BKN030
                      TEMPO 1200/1206 1500 SN BKN005 OVC025
                      PROB40 1201/1205 0800 +SN BKN002 OVC020
                      BECMG 1211/1213 5000 BR BKN015 OVC035
                      BECMG 1216/1218 9999 NSW BKN020 OVC040=
201902120500 TAF LRSB 120500Z 1206/1306 27006KT 3000 -SN BKN010 BKN030
                      TEMPO 1206/1209 0800 SN BKN005 OVC015
                      BECMG 1214/1216 5000 BR BKN015 OVC035
                      BECMG 1217/1219 9999 NSW SCT020 BKN040=
201902121100 TAF LRSB 121100Z 1212/1312 30008KT 3000 -SN SCT010 BKN030
                      TEMPO 1212/1214 0800 SN BKN005 OVC020
                      BECMG 1214/1216 5000 BR
                      BECMG 1217/1219 9999 NSW
                      TEMPO 1303/1309 3000 -SN BKN010 BKN035=
201902121700 TAF LRSB 121700Z 1218/1318 33012KT 9999 SCT015 BKN035
                      BECMG 1223/1301 VRB04KT
                      TEMPO 1303/1309 3000 -SN BKN010 BKN030=
201902122300 TAF LRSB 122300Z 1300/1324 VRB04KT 9999 BKN060
                      TEMPO 1303/1309 3000 -SHSN BKN010 SCT030CB
                       BKN050=
201902130500 TAF LRSB 130500Z 1306/1406 VRB04KT 9999 BKN030
                      TEMPO 1306/1309 5000 -SN=
201902131100 TAF LRSB 131100Z 1312/1412 VRB04KT 9999 SCT030=
201902131700 TAF LRSB 131700Z 1318/1418 VRB04KT CAVOK
                      TEMPO 1414/1418 5000 -SN BKN010 OVC035
                      PROB30 TEMPO 1415/1418 1500 SHSN BKN005 BKN020CB=
201902132300 TAF LRSB 132300Z 1400/1424 VRB04KT 9999 SCT045
                      BECMG 1413/1415 5000 -SN BKN010 OVC035
                      PROB30 TEMPO 1415/1418 1500 SHSN BKN005 BKN020CB=
201902140500 TAF LRSB 140500Z 1406/1506 VRB04KT 9999 BKN050
                      BECMG 1413/1415 5000 -SN BKN010 OVC035
                      PROB30 TEMPO 1415/1418 1500 SHSN BKN005 BKN020CB
                       BECMG 1421/1423 9999 NSW=
201902141100 TAF LRSB 141100Z 1412/1512 VRB04KT 9999 BKN030
                      BECMG 1413/1415 5000 -SN BKN010 OVC035
                      PROB30 TEMPO 1415/1418 1500 SHSN BKN005 BKN020CB
                       OVC030
                      TEMPO 1501/1506 3000 -SN BR BKN005 OVC020
                       BECMG 1508/1510 9999 NSW SCT015 BKN025=
201902141700 TAF LRSB 141700Z 1418/1518 30008KT 9999 BKN035
                      PROB40 TEMPO 1419/1424 5000 -SN BR BKN010
                       OVC035
                      TEMPO 1502/1507 3000 BR BKN005 OVC020=
201902142300 TAF LRSB 142300Z 1500/1524 VRB04KT 9999 BKN035
                      TEMPO 1502/1507 3000 BR BKN005 OVC020=
201902150500 TAF LRSB 150500Z 1506/1606 VRB04KT 5000 -SN BR BKN015 BKN040
                      TEMPO 1506/1507 3000 -SN BKN010 OVC035
                      BECMG 1507/1509 9999 NSW SCT015 BKN050
                      TEMPO 1600/1606 3000 BR BKN010=
201902151100 TAF LRSB 151100Z 1512/1612 VRB04KT 9999 SCT025 BKN060
                      TEMPO 1600/1606 3000 BR BKN010=
201902151700 TAF LRSB 151700Z 1518/1618 VRB04KT 9999 BKN045
                      TEMPO 1600/1606 3000 BR BKN010=
201902152300 TAF LRSB 152300Z 1600/1624 VRB04KT CAVOK
                      TEMPO 1601/1606 3000 BR BKN010=
201902160500 TAF LRSB 160500Z 1606/1706 VRB04KT CAVOK
                      TEMPO 1606/1608 5000 BR
                      TEMPO 1701/1706 5000 BR=
201902161100 TAF LRSB 161100Z 1612/1712 VRB04KT CAVOK
                      TEMPO 1701/1706 5000 BR=
201902161700 TAF LRSB 161700Z 1618/1718 VRB04KT CAVOK
                      TEMPO 1701/1706 5000 BR=
201902162300 TAF LRSB 162300Z 1700/1724 VRB04KT 5000 BR NSC
                      TEMPO 1701/1706 1500 BR
                      BECMG 1707/1709 9999 NSW=
201902170500 TAF LRSB 170500Z 1706/1806 VRB04KT 3000 BR NSC
                      BECMG 1707/1709 9999 NSW
                      BECMG 1720/1722 3000 BR
                      BECMG 1800/1802 0800 FZFG BKN002
                      TEMPO 1802/1806 0350 FZFG VV001=
201902171100 TAF LRSB 171100Z 1712/1812 VRB04KT CAVOK
                      BECMG 1720/1722 3000 BR
                      BECMG 1800/1802 0800 FZFG BKN002
                      TEMPO 1802/1806 0350 FZFG VV001
                      BECMG 1807/1809 3000 BKN010
                      BECMG 1809/1811 9999 NSW SCT030=
201902171700 TAF LRSB 171700Z 1718/1818 VRB04KT CAVOK
                      BECMG 1721/1723 5000 BR
                      TEMPO 1800/1806 1500 BR
                      BECMG 1806/1808 9999 NSW=
201902172300 TAF LRSB 172300Z 1800/1824 VRB04KT 5000 BR NSC
                      TEMPO 1800/1806 1500 BR
                      PROB30 TEMPO 1802/1806 0600 FZFG OVC002
                      BECMG 1806/1808 9999 NSW
                      BECMG 1820/1822 5000 BR=
201902180526 TAF COR LRSB 180526Z 1806/1906 VRB04KT 0350 FZFG OVC001
                      BECMG 1806/1807 0800 BKN002
                      BECMG 1807/1809 3000 BR SCT005
                      BECMG 1809/1810 9999 NSW
                      BECMG 1820/1822 5000 BR
                      TEMPO 1900/1906 1500 BR BKN005=
201902181100 TAF LRSB 181100Z 1812/1912 VRB04KT CAVOK
                      BECMG 1820/1822 5000 BR
                      BECMG 1822/1824 1500 BR BKN005
                      TEMPO 1902/1906 0600 FZFG BKN002
                      BECMG 1906/1908 5000 BR SCT005
                      BECMG 1908/1909 CAVOK=
201902181700 TAF LRSB 181700Z 1818/1918 VRB04KT CAVOK
                      BECMG 1820/1822 5000 BR
                      BECMG 1822/1824 1500 BR BKN005
                      TEMPO 1902/1906 0600 FZFG BKN002
                      BECMG 1906/1908 5000 SCT005
                      BECMG 1908/1910 CAVOK=
201902182300 TAF LRSB 182300Z 1900/1924 VRB04KT 3000 BR BKN010
                      BECMG 1900/1902 0800 FZFG BKN002
                      PROB40 TEMPO 1902/1906 0300 FZFG VV001
                      BECMG 1906/1908 3000 BR BKN010
                      BECMG 1908/1910 CAVOK
                      BECMG 1919/1921 5000 BR=
201902190500 TAF LRSB 190500Z 1906/2006 VRB04KT 3000 BR NSC
                      BECMG 1907/1909 9999 NSW
                      BECMG 1918/1920 5000 BR
                      TEMPO 1923/2006 1500 BR=
201902191100 TAF LRSB 191100Z 1912/2012 VRB04KT CAVOK
                      BECMG 1918/1920 5000 BR
                      TEMPO 1923/2006 1500 BR
                      BECMG 2006/2008 9999 NSW
                      BECMG 2010/2012 31010KT=
201902191700 TAF LRSB 191700Z 1918/2018 VRB04KT CAVOK
                      BECMG 1918/1920 5000 BR
                      TEMPO 1923/2006 1500 BR
                      BECMG 2006/2008 9999 NSW
                      BECMG 2010/2012 31012KT
                      PROB40 TEMPO 2015/2018 5000 -RA BR=
201902192300 TAF LRSB 192300Z 2000/2024 VRB04KT 5000 BR NSC
                      TEMPO 2000/2006 1500 BR
                      BECMG 2006/2008 9999 NSW
                      BECMG 2010/2012 31012KT
                      PROB40 TEMPO 2016/2020 5000 -RA BR=
201902200500 TAF LRSB 200500Z 2006/2106 VRB04KT CAVOK
                      BECMG 2010/2012 31012KT
                      BECMG 2018/2020 VRB04KT 5000 -RA BR BKN015
                       BKN040
                      BECMG 2102/2104 3000 BR BKN010 BKN030=
201902201100 TAF LRSB 201100Z 2012/2112 31012KT CAVOK
                      BECMG 2018/2020 VRB04KT 5000 -RA BR BKN015
                       BKN040
                      BECMG 2102/2104 3000 BR BKN005 BKN025
                      BECMG 2107/2109 9999 NSW SCT025=
201902201700 TAF LRSB 201700Z 2018/2118 32008KT 9999 BKN040
                      PROB30 TEMPO 2102/2107 3000 -RA BR BKN015
                       OVC040=
201902202300 TAF LRSB 202300Z 2100/2124 VRB04KT 9999 BKN040
                      PROB30 TEMPO 2102/2107 5000 -RA BR BKN015
                       OVC040=
201902210500 TAF LRSB 210500Z 2106/2206 VRB04KT 9999 BKN050
                      BECMG 2201/2203 31010KT 5000 -RASN BKN015
                       OVC030=
201902211100 TAF LRSB 211100Z 2112/2212 VRB04KT 9999 BKN035
                      BECMG 2200/2202 32012KT 5000 -SN BKN015 OVC030
                       TEMPO 2203/2209 3000 SN BKN010 OVC020=
201902211700 TAF LRSB 211700Z 2118/2218 VRB04KT 9999 SCT045
                      BECMG 2203/2205 32012KT 5000 -RASN BKN015
                       OVC035
                      BECMG 2209/2211 3000 SN BKN005 OVC020
                      BECMG 2215/2217 07010KT=
201902212300 TAF LRSB 212300Z 2200/2224 VRB04KT 9999 SCT045
                      BECMG 2203/2205 5000 -RASN BKN015 OVC035
                       BECMG 2209/2211 32012KT 3000 SN BKN005 OVC020
                       BECMG 2215/2217 07010KT
                      BECMG 2219/2221 9999 NSW SCT030=
201902220500 TAF LRSB 220500Z 2206/2306 VRB04KT 3000 -SN BKN010 BKN020
                      BECMG 2207/2209 32010KT
                      TEMPO 2212/2218 1500 RASN SN BKN005 OVC020
                       BECMG 2216/2218 07010KT
                      BECMG 2219/2221 9999 NSW SCT030=
201902221100 TAF LRSB 221100Z 2212/2312 30008KT 9999 BKN015 BKN025
                      TEMPO 2212/2218 3000 RA RASN BKN010 OVC025
                       BECMG 2216/2218 07010KT
                      BECMG 2219/2221 SCT030=
201902221700 TAF LRSB 221700Z 2218/2318 04014KT 3000 -SN BKN010 BKN025
                      TEMPO 2218/2220 0800 SN BKN002 OVC020
                      BECMG 2223/2301 VRB04KT 9999 NSW BKN030=
201902222300 TAF LRSB 222300Z 2300/2324 VRB04KT 9999 BKN045=
201902230500 TAF LRSB 230500Z 2306/2406 VRB04KT CAVOK=
201902231100 TAF LRSB 231100Z 2312/2412 VRB04KT 9999 SCT050=
201902231700 TAF LRSB 231700Z 2318/2418 VRB04KT CAVOK=
201902232300 TAF LRSB 232300Z 2400/2424 VRB04KT CAVOK=
201902240500 TAF LRSB 240500Z 2406/2506 VRB04KT CAVOK=
201902241100 TAF LRSB 241100Z 2412/2512 VRB04KT CAVOK=
201902241700 TAF LRSB 241700Z 2418/2518 VRB04KT CAVOK=
201902242300 TAF LRSB 242300Z 2500/2524 VRB04KT CAVOK=
201902250500 TAF LRSB 250500Z 2506/2606 VRB04KT CAVOK=
201902251100 TAF LRSB 251100Z 2512/2612 VRB04KT CAVOK
                      TEMPO 2600/2606 3000 BR=
201902251700 TAF LRSB 251700Z 2518/2618 VRB04KT CAVOK
                      BECMG 2609/2611 32010KT=
201902252300 TAF LRSB 252300Z 2600/2624 VRB04KT CAVOK
                      BECMG 2609/2611 32010KT
                      PROB30 TEMPO 2621/2624 5000 -RASN BKN065=
201902260500 TAF LRSB 260500Z 2606/2706 32008KT CAVOK
                      TEMPO 2620/2706 5000 BR BKN015 BKN045
                      PROB30 TEMPO 2620/2703 3000 -SN BR=
201902261100 TAF LRSB 261100Z 2612/2712 VRB04KT 9999 SCT045
                      BECMG 2612/2614 32010KT
                      TEMPO 2620/2706 5000 BR BKN015 BKN045
                      PROB30 TEMPO 2620/2703 3000 -SN BR=
201902261700 TAF LRSB 261700Z 2618/2718 32010KT 9999 BKN045
                      TEMPO 2620/2706 3000 -SN BKN015 OVC030
                      BECMG 2716/2718 VRB04KT=
201902262300 TAF LRSB 262300Z 2700/2724 34008KT 9999 BKN035
                      PROB30 TEMPO 2700/2706 3000 SN BKN015 OVC030=
201902270500 TAF LRSB 270500Z 2706/2806 34008KT 9999 SCT030 BKN060
                      PROB40 TEMPO 2711/2716 5000 -SN BR BKN015
                       BKN050=
201902271100 TAF LRSB 271100Z 2712/2812 34010KT 9999 SCT035 BKN060
                      PROB40 TEMPO 2714/2717 5000 -SN BR BKN015
                       BKN050
                      BECMG 2717/2719 VRB04KT
                      BECMG 2807/2809 32012KT=
201902271700 TAF LRSB 271700Z 2718/2818 VRB04KT 9999 SCT035 BKN060
                      BECMG 2807/2809 32016KT=
201902272300 TAF LRSB 272300Z 2800/2824 VRB04KT 9999 SCT035
                      BECMG 2807/2809 32016KT=
201902280500 TAF LRSB 280500Z 2806/0106 VRB04KT CAVOK
                      BECMG 2808/2810 32014KT
                      BECMG 0104/0106 VRB04KT=
201902281100 TAF LRSB 281100Z 2812/0112 31016KT CAVOK
                      PROB30 TEMPO 2813/2819 31016G26KT=
201902281700 TAF LRSB 281700Z 2818/0118 32008KT CAVOK=
201902282300 TAF LRSB 282300Z 0100/0124 VRB04KT CAVOK
                      TEMPO 0114/0118 FEW030CB BKN040
                      BECMG 0118/0120 5000 -RA BR BKN015 OVC030=
