201903010000 METAR LRSB 010000Z 29012KT CAVOK 08/M01 Q1005=
201903010030 METAR LRSB 010030Z 01008KT CAVOK 05/M01 Q1005=
201903010100 METAR LRSB 010100Z 36007KT CAVOK 05/M01 Q1005=
201903010130 METAR LRSB 010130Z 32008KT CAVOK 07/M01 Q1005=
201903010200 METAR LRSB 010200Z 30010KT CAVOK 07/M01 Q1005=
201903010230 METAR LRSB 010230Z 29009KT CAVOK 06/M01 Q1005=
201903010300 METAR LRSB 010300Z 28010KT CAVOK 05/M01 Q1006=
201903010330 METAR LRSB 010330Z 28011KT CAVOK 06/M01 Q1006=
201903010400 METAR LRSB 010400Z VRB02KT CAVOK 03/M02 Q1006=
201903010430 METAR LRSB 010430Z 12004KT 070V140 9999 SCT068 04/M01 Q1006=
201903010500 METAR LRSB 010500Z 08003KT 9999 SCT066 05/M01 Q1007=
201903010530 METAR LRSB 010530Z VRB02KT 9999 SCT065 05/M01 Q1007=
201903010600 METAR LRSB 010600Z 12002KT 9999 SCT063 04/M01 Q1007=
201903010630 METAR LRSB 010630Z 12004KT 9999 SCT066 05/M01 Q1007 NOSIG=
201903010700 METAR LRSB 010700Z 07005KT 9999 BKN060 06/00 Q1008 NOSIG=
201903010730 METAR LRSB 010730Z 10005KT 9999 BKN057 06/M00 Q1008 NOSIG=
201903010800 METAR LRSB 010800Z 03004KT 9999 BKN058 08/00 Q1008 NOSIG=
201903010830 METAR LRSB 010830Z 36006KT 9999 BKN058 09/00 Q1008 NOSIG=
201903010900 METAR LRSB 010900Z 36004KT 320V030 9999 BKN057 09/01 Q1008
                        NOSIG=
201903010930 METAR COR LRSB 010930Z 01004KT 310V040 9999 BKN061 10/01
                        Q1008 NOSIG=
201903011000 METAR LRSB 011000Z 02003KT 310V060 9999 SCT061 10/00 Q1007
                        NOSIG=
201903011030 METAR LRSB 011030Z 02008KT 9999 FEW045 SCT060 11/01 Q1007
                        NOSIG=
201903011100 METAR LRSB 011100Z 20005KT 150V240 9999 SCT048 12/01 Q1007
                        NOSIG=
201903011130 METAR LRSB 011130Z 26012KT 9999 BKN050 12/00 Q1006 NOSIG=
201903011200 METAR LRSB 011200Z 29015KT 9999 SCT052 12/00 Q1006 NOSIG=
201903011230 METAR LRSB 011230Z 30014KT 9999 SCT052 12/M00 Q1006 NOSIG=
201903011300 METAR LRSB 011300Z 31018KT 9999 SCT053 12/M00 Q1006 NOSIG=
201903011330 METAR LRSB 011330Z 30017KT 9999 SCT054 13/00 Q1005 NOSIG=
201903011400 METAR LRSB 011400Z 28016KT 9999 SCT054 11/00 Q1006 NOSIG=
201903011430 METAR LRSB 011430Z 29014KT 9999 FEW054 11/01 Q1005 NOSIG=
201903011500 METAR LRSB 011500Z 28019KT CAVOK 11/01 Q1005 NOSIG=
201903011530 METAR LRSB 011530Z 29017KT CAVOK 10/01 Q1005 NOSIG=
201903011600 METAR LRSB 011600Z 29016KT 9999 FEW037 SCT050 10/01 Q1005
                        NOSIG=
201903011630 METAR COR LRSB 011630Z 30012KT 9999 FEW037 SCT056 09/01 Q1006
                        NOSIG=
201903011700 METAR LRSB 011700Z 30012KT 9999 FEW040 BKN060 09/01 Q1006
                        NOSIG=
201903011730 METAR LRSB 011730Z 30014KT 9999 BKN051 09/01 Q1006 NOSIG=
201903011800 METAR LRSB 011800Z 29013KT 9999 BKN058 08/01 Q1006=
201903011830 METAR LRSB 011830Z 29010KT 9999 BKN056 08/01 Q1006=
201903011900 METAR LRSB 011900Z 29008KT 9999 BKN061 08/02 Q1006=
201903011930 METAR LRSB 011930Z 31007KT 9999 BKN057 SCT076 08/02 Q1006=
201903012000 METAR LRSB 012000Z 29010KT 9999 FEW048 BKN086 08/02 Q1006=
201903012030 METAR LRSB 012030Z 29010KT 9999 BKN084 08/02 Q1006=
201903012100 METAR LRSB 012100Z 28013KT 9999 FEW074 08/02 Q1006=
201903012130 METAR LRSB 012130Z 28012KT 9999 BKN085 08/02 Q1006=
201903012200 METAR LRSB 012200Z 29012KT 9999 BKN081 08/02 Q1006=
201903012230 METAR LRSB 012230Z 29014KT 9999 BKN079 08/03 Q1006=
201903012300 METAR LRSB 012300Z 29011KT 9999 FEW031 BKN110 08/03 Q1006=
201903012330 METAR LRSB 012330Z 29010KT 9999 BKN031 08/03 Q1006=
201903020000 METAR LRSB 020000Z 28015KT 9999 FEW033 BKN064 08/03 Q1005=
201903020030 METAR LRSB 020030Z 29014KT CAVOK 08/02 Q1006=
201903020100 METAR LRSB 020100Z 29014KT CAVOK 08/02 Q1006=
201903020130 METAR LRSB 020130Z 35012KT 320V020 CAVOK 08/03 Q1006=
201903020200 METAR LRSB 020200Z 02009KT 9999 -SHRA FEW015 SCT036CB 05/03
                        Q1006=
201903020230 METAR LRSB 020230Z 36011KT 9000 -SHRA SCT010 SCT038CB 04/03
                        Q1007=
201903020300 METAR LRSB 020300Z 36015KT 9000 -SHRA SCT022 SCT033CB 04/02
                        Q1007=
201903020330 METAR LRSB 020330Z 33007KT 9000 -SHRA FEW010 SCT037CB 03/01
                        Q1008 R27/29//95=
201903020400 METAR LRSB 020400Z 28007KT 9000 -SHRA FEW010 SCT013 SCT039CB
                        02/00 Q1009 R27/29//95=
201903020430 METAR LRSB 020430Z 24010KT 9000 -SHRA FEW011 SCT033 SCT039CB
                        02/00 Q1009 R27/29//95=
201903020500 METAR LRSB 020500Z 24008KT 9999 -SHRA SCT037CB OVC047 02/00
                        Q1009 R27/29//95=
201903020530 METAR LRSB 020530Z 23005KT 210V270 9999 SCT037CB OVC046 02/M00
                        Q1010 R27/29//95=
201903020600 METAR LRSB 020600Z 25007KT 9999 SCT038CB BKN047 03/M00 Q1010
                        R27/29//95=
201903020630 METAR LRSB 020630Z 27007KT 250V310 9999 FEW038CB SCT047 04/M02
                        Q1010 R27/29//95=
201903020700 METAR LRSB 020700Z 27004KT 9999 FEW045 SCT066 05/M01 Q1010
                        R27/29//95=
201903020730 METAR LRSB 020730Z 35006KT 9999 FEW046 SCT068 05/M03 Q1011
                        R27/29//95=
201903020800 METAR LRSB 020800Z 36006KT 330V070 9999 FEW048 05/M00 Q1011
                        R27/29//95=
201903020830 METAR LRSB 020830Z 03007KT 360V060 CAVOK 05/M02 Q1011 R27/29//95=
201903020900 METAR LRSB 020900Z 01006KT 340V040 CAVOK 05/M01 Q1011 R27/29//95=
201903020930 METAR LRSB 020930Z 01005KT 320V040 CAVOK 05/M03 Q1012 R27/29//95=
201903021000 METAR LRSB 021000Z 35005KT 320V030 CAVOK 06/M02 Q1011 R27/CLRD//=
201903021030 METAR LRSB 021030Z 34005KT 290V030 CAVOK 06/M04 Q1011=
201903021100 METAR LRSB 021100Z VRB03KT CAVOK 07/M03 Q1011=
201903021130 METAR LRSB 021130Z VRB03KT CAVOK 07/M03 Q1011=
201903021200 METAR LRSB 021200Z 01004KT 270V080 CAVOK 07/M03 Q1011=
201903021230 METAR LRSB 021230Z 34006KT 260V020 CAVOK 07/M03 Q1011=
201903021300 METAR LRSB 021300Z 36005KT 240V030 CAVOK 08/M03 Q1011=
201903021330 METAR LRSB 021330Z 13003KT 050V200 9999 FEW047 08/M03 Q1011=
201903021400 METAR LRSB 021400Z 16003KT 120V200 9999 FEW046 08/M03 Q1011=
201903021430 METAR LRSB 021430Z 06003KT 020V100 9999 FEW048 08/M03 Q1011=
201903021500 METAR LRSB 021500Z 03006KT 9999 FEW048 08/M02 Q1011=
201903021530 METAR LRSB 021530Z 01007KT 9999 FEW052 07/M03 Q1012=
201903021600 METAR LRSB 021600Z 36008KT CAVOK 06/M02 Q1012=
201903021630 METAR LRSB 021630Z 35007KT CAVOK 05/M03 Q1013=
201903021700 METAR LRSB 021700Z 35005KT CAVOK 04/M03 Q1013=
201903021730 METAR LRSB 021730Z AUTO 33004KT 9999 NCD 03/M03 Q1014=
201903021800 METAR LRSB 021800Z 30005KT CAVOK 01/M04 Q1014=
201903021830 METAR LRSB 021830Z 31003KT CAVOK 02/M05 Q1014=
201903021900 METAR LRSB 021900Z 30003KT CAVOK 01/M05 Q1015=
201903021930 METAR LRSB 021930Z 32003KT CAVOK 01/M05 Q1015=
201903022000 METAR LRSB 022000Z 25003KT CAVOK M00/M04 Q1016=
201903022030 METAR LRSB 022030Z 26004KT CAVOK M00/M03 Q1016=
201903022100 METAR LRSB 022100Z VRB02KT CAVOK M01/M03 Q1016=
201903022130 METAR LRSB 022130Z VRB02KT CAVOK M00/M03 Q1016=
201903022200 METAR LRSB 022200Z 00000KT 9999 BKN058 M00/M02 Q1016=
201903022230 METAR LRSB 022230Z VRB02KT 9999 OVC058 M00/M03 Q1016=
201903022300 METAR LRSB 022300Z 21002KT 9999 OVC054 M00/M03 Q1017=
201903022330 METAR LRSB 022330Z 16001KT 9999 SCT055 M01/M04 Q1017=
201903030000 METAR LRSB 030000Z 00000KT CAVOK M02/M05 Q1016=
201903030030 METAR LRSB 030030Z AUTO VRB01KT 9999 NCD M02/M05 Q1017=
201903030100 METAR LRSB 030100Z VRB01KT CAVOK M02/M05 Q1016=
201903030130 METAR LRSB 030130Z 36002KT CAVOK M02/M05 Q1016=
201903030200 METAR LRSB 030200Z VRB02KT CAVOK M02/M05 Q1016=
201903030230 METAR LRSB 030230Z VRB02KT CAVOK M02/M04 Q1016=
201903030300 METAR LRSB 030300Z AUTO VRB01KT 9999 OVC067/// M02/M04 Q1017=
201903030330 METAR LRSB 030330Z VRB01KT CAVOK M01/M04 Q1017=
201903030400 METAR LRSB 030400Z VRB01KT CAVOK M01/M04 Q1017=
201903030430 METAR LRSB 030430Z 00000KT 9999 OVC083 M01/M03 Q1017=
201903030500 METAR LRSB 030500Z 00000KT 9999 OVC070 M01/M04 Q1017=
201903030530 METAR LRSB 030530Z 11002KT 9999 OVC078 M01/M04 Q1017=
201903030600 METAR LRSB 030600Z 11002KT 9999 OVC075 M01/M04 Q1017=
201903030630 METAR LRSB 030630Z 08003KT 9999 FEW043 BKN077 00/M03 Q1017=
201903030700 METAR LRSB 030700Z 10003KT 9999 FEW044 BKN079 01/M03 Q1017=
201903030730 METAR LRSB 030730Z 10003KT 060V120 9999 FEW047 SCT080 02/M03
                        Q1017=
201903030800 METAR LRSB 030800Z 10003KT 070V130 9999 FEW046 02/M03 Q1018=
201903030830 METAR LRSB 030830Z VRB02KT 9999 FEW044 04/M03 Q1018=
201903030900 METAR LRSB 030900Z 08003KT 9999 FEW040 SCT052 05/M04 Q1018=
201903030930 METAR LRSB 030930Z 01003KT 340V060 9999 FEW041 SCT055 05/M05
                        Q1018=
201903031000 METAR LRSB 031000Z VRB02KT 9999 FEW043 SCT065 06/M03 Q1018=
201903031030 METAR LRSB 031030Z VRB03KT 9999 FEW043 SCT065 06/M02 Q1018=
201903031100 METAR LRSB 031100Z 17003KT 100V230 9999 FEW044 07/M03 Q1017=
201903031130 METAR LRSB 031130Z VRB03KT 9999 FEW042 07/M03 Q1017=
201903031200 METAR LRSB 031200Z VRB03KT 9999 FEW040 SCT058 08/M03 Q1017=
201903031230 METAR LRSB 031230Z 31008KT 9999 FEW043 SCT061 07/M04 Q1017=
201903031300 METAR LRSB 031300Z 31005KT 9999 SCT056 08/M04 Q1017=
201903031330 METAR LRSB 031330Z 30011KT 9999 SCT058 08/M04 Q1016=
201903031400 METAR LRSB 031400Z 30013KT 9999 FEW058 08/M04 Q1016=
201903031430 METAR LRSB 031430Z 28011KT 9999 FEW060 08/M04 Q1016=
201903031500 METAR LRSB 031500Z 27010KT CAVOK 08/M04 Q1016=
201903031530 METAR LRSB 031530Z 27010KT CAVOK 07/M03 Q1016=
201903031600 METAR LRSB 031600Z 28009KT CAVOK 05/M03 Q1016=
201903031630 METAR LRSB 031630Z 27008KT CAVOK 04/M03 Q1016=
201903031700 METAR LRSB 031700Z 25007KT CAVOK 03/M03 Q1016=
201903031730 METAR LRSB 031730Z 25008KT CAVOK 03/M03 Q1016=
201903031800 METAR LRSB 031800Z 25007KT CAVOK 03/M03 Q1016=
201903031830 METAR LRSB 031830Z 24007KT CAVOK 02/M03 Q1017=
201903031900 METAR LRSB 031900Z VRB01KT CAVOK 02/M03 Q1017=
201903031930 METAR LRSB 031930Z 24002KT CAVOK 02/M03 Q1017=
201903032000 METAR LRSB 032000Z VRB02KT 9999 FEW052 02/M03 Q1016=
201903032030 METAR LRSB 032030Z 12004KT 9000 SCT052 02/M02 Q1016=
201903032100 METAR LRSB 032100Z 11004KT 9000 BKN052 03/M02 Q1016=
201903032130 METAR LRSB 032130Z 09004KT 9999 BKN052 03/M02 Q1016=
201903032200 METAR LRSB 032200Z 01004KT 9999 BKN051 02/M02 Q1016=
201903032230 METAR LRSB 032230Z 00000KT 9999 BKN050 02/M02 Q1015=
201903032300 METAR LRSB 032300Z 34002KT 9999 BKN052 03/M02 Q1015=
201903032330 METAR LRSB 032330Z 27004KT 230V310 9999 BKN050 02/M01 Q1015=
201903040000 METAR LRSB 040000Z VRB01KT 9999 BKN050 02/M01 Q1015=
201903040030 METAR LRSB 040030Z 17002KT 9999 BKN050 02/M00 Q1015=
201903040100 METAR LRSB 040100Z VRB01KT 9999 BKN053 02/M01 Q1014=
201903040130 METAR LRSB 040130Z 11004KT 9999 BKN056 03/M01 Q1014=
201903040200 METAR COR LRSB 040200Z 07004KT 010V080 9999 BKN055 03/M01
                        Q1014=
201903040230 METAR COR LRSB 040230Z 35004KT 9999 BKN055 02/M01 Q1013=
201903040300 METAR LRSB 040300Z VRB02KT 9999 BKN054 02/M00 Q1013=
201903040330 METAR COR LRSB 040330Z VRB01KT 9999 BKN056 02/M00 Q1013=
201903040400 METAR LRSB 040400Z 22003KT 9999 BKN056 03/M00 Q1013=
201903040430 METAR LRSB 040430Z VRB02KT 9999 BKN058 03/M00 Q1013=
201903040500 METAR LRSB 040500Z 08003KT 9999 BKN060 02/M00 Q1013=
201903040530 METAR LRSB 040530Z 10004KT 9999 BKN062 03/M01 Q1013=
201903040600 METAR LRSB 040600Z 04002KT 9999 BKN063 04/M01 Q1013=
201903040630 METAR LRSB 040630Z 00000KT 8000 FEW065 05/01 Q1013=
201903040700 METAR LRSB 040700Z VRB02KT 9000 NSC 06/M00 Q1013=
201903040730 METAR LRSB 040730Z 13003KT CAVOK 06/00 Q1012=
201903040800 METAR LRSB 040800Z 11003KT 070V140 CAVOK 08/00 Q1012=
201903040830 METAR LRSB 040830Z VRB01KT CAVOK 10/01 Q1012=
201903040900 METAR LRSB 040900Z VRB02KT CAVOK 12/01 Q1012=
201903040930 METAR LRSB 040930Z VRB03KT CAVOK 13/01 Q1012=
201903041000 METAR LRSB 041000Z 25005KT 200V320 CAVOK 14/00 Q1011=
201903041030 METAR LRSB 041030Z 23008KT CAVOK 15/00 Q1011=
201903041100 METAR LRSB 041100Z 26008KT CAVOK 16/01 Q1010=
201903041130 METAR LRSB 041130Z 27007KT CAVOK 16/M01 Q1009=
201903041200 METAR LRSB 041200Z 29006KT CAVOK 16/M02 Q1009=
201903041230 METAR LRSB 041230Z 31008KT 260V020 CAVOK 17/M02 Q1008=
201903041300 METAR LRSB 041300Z 31008KT CAVOK 17/M03 Q1008=
201903041330 METAR LRSB 041330Z 02005KT 330V060 CAVOK 17/M01 Q1008=
201903041400 METAR LRSB 041400Z 30007KT CAVOK 16/M01 Q1007=
201903041430 METAR LRSB 041430Z VRB02KT CAVOK 16/M02 Q1007=
201903041500 METAR LRSB 041500Z VRB02KT CAVOK 16/M01 Q1007=
201903041530 METAR LRSB 041530Z 14005KT CAVOK 15/00 Q1007=
201903041600 METAR LRSB 041600Z VRB01KT CAVOK 13/M01 Q1007=
201903041630 METAR LRSB 041630Z 07004KT CAVOK 13/M00 Q1007=
201903041700 METAR LRSB 041700Z 09004KT CAVOK 12/M00 Q1006=
201903041730 METAR LRSB 041730Z 28006KT CAVOK 06/00 Q1006=
201903041800 METAR LRSB 041800Z 27006KT CAVOK 06/00 Q1006=
201903041830 METAR LRSB 041830Z 26007KT CAVOK 07/01 Q1006=
201903041900 METAR LRSB 041900Z 18004KT 120V260 CAVOK 05/00 Q1006=
201903041930 METAR LRSB 041930Z 26003KT CAVOK 04/M00 Q1006=
201903042000 METAR LRSB 042000Z 30004KT 280V360 CAVOK 04/M01 Q1005=
201903042030 METAR LRSB 042030Z 15003KT CAVOK 04/M01 Q1005=
201903042100 METAR LRSB 042100Z 28004KT CAVOK 03/M01 Q1005=
201903042130 METAR LRSB 042130Z VRB02KT CAVOK 03/M01 Q1006=
201903042200 METAR LRSB 042200Z VRB02KT CAVOK 03/M01 Q1006=
201903042230 METAR LRSB 042230Z 16004KT 130V240 CAVOK 02/M01 Q1006=
201903042300 METAR LRSB 042300Z VRB02KT CAVOK 01/M01 Q1005=
201903042330 METAR LRSB 042330Z 35003KT 330V050 CAVOK 04/M01 Q1005=
201903050000 METAR LRSB 050000Z AUTO 08003KT 9999 FEW240/// 03/M01 Q1004=
201903050030 METAR LRSB 050030Z VRB02KT CAVOK 04/M01 Q1004=
201903050100 METAR LRSB 050100Z VRB01KT CAVOK 03/M01 Q1004=
201903050130 METAR LRSB 050130Z 17003KT 140V220 CAVOK 04/M00 Q1003=
201903050200 METAR LRSB 050200Z 33005KT 280V360 9999 FEW086 06/M00 Q1003=
201903050230 METAR LRSB 050230Z 36008KT 330V030 9999 SCT084 06/00 Q1003=
201903050300 METAR LRSB 050300Z VRB02KT 9999 FEW087 04/M01 Q1004=
201903050330 METAR LRSB 050330Z 23003KT 180V270 CAVOK 03/M01 Q1004=
201903050400 METAR LRSB 050400Z 22003KT 120V270 CAVOK 03/M02 Q1004=
201903050430 METAR LRSB 050430Z 31003KT CAVOK 03/M01 Q1004=
201903050500 METAR LRSB 050500Z 31012KT 9999 SCT080 09/01 Q1005=
201903050530 METAR LRSB 050530Z 31020KT 9999 FEW063 SCT074 08/00 Q1006=
201903050600 METAR LRSB 050600Z 31018KT 9999 FEW058 08/01 Q1006=
201903050630 METAR LRSB 050630Z 30019KT 9999 SCT054 08/01 Q1007=
201903050700 METAR LRSB 050700Z 30016KT 9999 FEW055 SCT070 08/01 Q1008=
201903050730 METAR LRSB 050730Z 29013KT 9999 BKN035 08/01 Q1008=
201903050800 METAR LRSB 050800Z 27012KT 9999 BKN035 08/02 Q1009=
201903050830 METAR LRSB 050830Z 30016KT 9999 BKN036 09/01 Q1009=
201903050900 METAR LRSB 050900Z 30020KT 9999 BKN036 09/00 Q1009=
201903050930 METAR LRSB 050930Z 28019KT 9999 BKN037 09/01 Q1009=
201903051000 METAR LRSB 051000Z 29021KT 9999 BKN035 09/01 Q1009=
201903051030 METAR LRSB 051030Z 27026KT 9999 SCT037 10/M01 Q1009=
201903051100 METAR LRSB 051100Z 28020KT 9999 FEW050 10/M00 Q1009=
201903051130 METAR LRSB 051130Z 28018KT CAVOK 11/M03 Q1009=
201903051200 METAR LRSB 051200Z 29018KT CAVOK 12/M05 Q1009=
201903051230 METAR LRSB 051230Z 28018KT CAVOK 12/M05 Q1009=
201903051300 METAR LRSB 051300Z 28016KT CAVOK 13/M06 Q1010=
201903051330 METAR LRSB 051330Z 29015KT CAVOK 12/M07 Q1010=
201903051400 METAR LRSB 051400Z 29015KT CAVOK 12/M09 Q1010=
201903051430 METAR LRSB 051430Z 30015KT CAVOK 12/M09 Q1010=
201903051500 METAR LRSB 051500Z 29011KT CAVOK 12/M06 Q1010=
201903051530 METAR COR LRSB 051530Z 28013KT CAVOK 10/M04 Q1010=
201903051600 METAR LRSB 051600Z 28012KT CAVOK 09/M04 Q1011=
201903051630 METAR LRSB 051630Z 27010KT CAVOK 08/M03 Q1011=
201903051700 METAR LRSB 051700Z 27007KT CAVOK 05/M02 Q1011=
201903051730 METAR LRSB 051730Z 28007KT CAVOK 03/M04 Q1012=
201903051800 METAR LRSB 051800Z 25008KT CAVOK 04/M02 Q1012=
201903051830 METAR LRSB 051830Z 25008KT CAVOK 04/M02 Q1012=
201903051900 METAR LRSB 051900Z 25008KT CAVOK 05/M02 Q1013=
201903051930 METAR LRSB 051930Z 25010KT CAVOK 06/M02 Q1013=
201903052000 METAR LRSB 052000Z 27009KT CAVOK 05/M02 Q1013=
201903052030 METAR LRSB 052030Z 26010KT CAVOK 05/M02 Q1013=
201903052100 METAR LRSB 052100Z 26008KT CAVOK 04/M02 Q1014=
201903052130 METAR LRSB 052130Z 27009KT CAVOK 04/M02 Q1014=
201903052200 METAR LRSB 052200Z 26010KT CAVOK 04/M02 Q1014=
201903052230 METAR LRSB 052230Z 24007KT CAVOK 04/M01 Q1014=
201903052300 METAR LRSB 052300Z 26008KT CAVOK 05/M02 Q1014=
201903052330 METAR LRSB 052330Z 16003KT 120V240 CAVOK 03/M02 Q1014=
201903060000 METAR LRSB 060000Z 25009KT CAVOK 04/M02 Q1014=
201903060030 METAR LRSB 060030Z VRB02KT CAVOK 02/M02 Q1014=
201903060100 METAR LRSB 060100Z 25008KT CAVOK 03/M02 Q1014=
201903060130 METAR LRSB 060130Z 14004KT CAVOK 02/M02 Q1014=
201903060200 METAR LRSB 060200Z VRB01KT CAVOK 01/M03 Q1013=
201903060230 METAR LRSB 060230Z 26003KT CAVOK 00/M03 Q1014=
201903060300 METAR LRSB 060300Z 25005KT 200V260 CAVOK 01/M03 Q1013=
201903060330 METAR LRSB 060330Z 14002KT CAVOK M00/M04 Q1013=
201903060400 METAR LRSB 060400Z 10002KT CAVOK 00/M03 Q1013=
201903060430 METAR LRSB 060430Z 07003KT CAVOK 01/M03 Q1013=
201903060500 METAR LRSB 060500Z 28010KT 270V340 CAVOK 01/M03 Q1014=
201903060530 METAR LRSB 060530Z VRB02KT 9999 FEW072 M00/M03 Q1014=
201903060600 METAR LRSB 060600Z 28005KT 9999 FEW054CB SCT074 02/M01 Q1014=
201903060630 METAR LRSB 060630Z VRB01KT 9999 FEW052CB SCT070 02/M02 Q1015=
201903060700 METAR LRSB 060700Z 32009KT 8000 -SHRA FEW019 SCT046CB 04/02
                        Q1016 R27/29//95=
201903060730 METAR LRSB 060730Z 29003KT 240V320 9999 FEW020 SCT048CB 05/02
                        Q1016 R27/29//95=
201903060800 METAR LRSB 060800Z VRB02KT 9999 FEW025 FEW048CB BKN068 05/02
                        Q1016 R27/29//95=
201903060830 METAR LRSB 060830Z VRB02KT 9999 SCT027 SCT072 07/04 Q1017
                        R27/29//95=
201903060900 METAR LRSB 060900Z VRB04KT 9999 FEW030 SCT070 08/04 Q1017
                        R27/29//95=
201903060930 METAR LRSB 060930Z 30016KT 9999 FEW040CB SCT072 09/03 Q1017
                        R27/CLRD//=
201903061000 METAR LRSB 061000Z 30015KT 9999 FEW033 FEW040CB 09/02 Q1017=
201903061030 METAR LRSB 061030Z 01012KT 9999 FEW040CB SCT072 08/01 Q1018=
201903061100 METAR LRSB 061100Z 02009KT 9999 FEW040CB SCT072 08/03 Q1018=
201903061130 METAR LRSB 061130Z 36009KT 9999 FEW040CB SCT048 09/02 Q1018=
201903061200 METAR LRSB 061200Z 35010KT 320V020 9999 FEW038 SCT050 10/02
                        Q1018=
201903061230 METAR LRSB 061230Z 01008KT 340V050 9999 FEW034 SCT050 10/01
                        Q1018=
201903061300 METAR LRSB 061300Z 34008KT 9999 FEW034 SCT050 10/01 Q1018=
201903061330 METAR LRSB 061330Z 36008KT 9999 FEW050 10/00 Q1018=
201903061400 METAR LRSB 061400Z 03009KT 9999 SCT052 10/00 Q1019=
201903061430 METAR LRSB 061430Z 03007KT 9999 FEW049 09/M01 Q1019=
201903061500 METAR LRSB 061500Z 05008KT 010V070 9999 FEW047 09/M01 Q1019=
201903061530 METAR LRSB 061530Z 05005KT CAVOK 09/M01 Q1019=
201903061600 METAR LRSB 061600Z 05004KT CAVOK 08/M01 Q1020=
201903061630 METAR LRSB 061630Z 10005KT CAVOK 07/M01 Q1020=
201903061700 METAR LRSB 061700Z 12004KT CAVOK 06/M02 Q1020=
201903061730 METAR LRSB 061730Z 17003KT CAVOK 06/M02 Q1020=
201903061800 METAR LRSB 061800Z 18002KT CAVOK 03/M02 Q1020=
201903061830 METAR LRSB 061830Z 26003KT CAVOK 01/M02 Q1021=
201903061900 METAR LRSB 061900Z 21002KT CAVOK 01/M02 Q1021=
201903061930 METAR LRSB 061930Z VRB02KT CAVOK 00/M02 Q1020=
201903062000 METAR LRSB 062000Z 00000KT CAVOK M00/M03 Q1021=
201903062030 METAR LRSB 062030Z 00000KT CAVOK 01/M02 Q1021=
201903062100 METAR LRSB 062100Z VRB02KT CAVOK M01/M03 Q1021=
201903062130 METAR LRSB 062130Z 00000KT CAVOK M01/M04 Q1021=
201903062200 METAR LRSB 062200Z VRB02KT CAVOK M02/M04 Q1021=
201903062230 METAR LRSB 062230Z 12005KT CAVOK M00/M03 Q1020=
201903062300 METAR LRSB 062300Z 12006KT CAVOK 00/M02 Q1020=
201903062330 METAR LRSB 062330Z 12004KT CAVOK 00/M03 Q1019=
201903070000 METAR LRSB 070000Z 14003KT CAVOK 00/M03 Q1019=
201903070030 METAR LRSB 070030Z 24002KT CAVOK M02/M04 Q1019=
201903070100 METAR LRSB 070100Z AUTO 25003KT 9999 NCD M02/M04 Q1019=
201903070130 METAR LRSB 070130Z 25004KT CAVOK M02/M04 Q1019=
201903070200 METAR LRSB 070200Z 24004KT CAVOK M02/M04 Q1018=
201903070230 METAR LRSB 070230Z 24002KT CAVOK M02/M04 Q1018=
201903070300 METAR LRSB 070300Z 25003KT CAVOK M02/M04 Q1018=
201903070330 METAR LRSB 070330Z 24004KT CAVOK M02/M04 Q1018=
201903070400 METAR LRSB 070400Z VRB01KT CAVOK M02/M04 Q1018=
201903070430 METAR LRSB 070430Z VRB01KT CAVOK M02/M04 Q1017=
201903070500 METAR LRSB 070500Z 21003KT CAVOK M02/M04 Q1017=
201903070530 METAR LRSB 070530Z 18003KT CAVOK M01/M04 Q1017=
201903070600 METAR LRSB 070600Z 27005KT CAVOK M00/M03 Q1018=
201903070630 METAR LRSB 070630Z 22004KT 170V250 CAVOK 01/M02 Q1018=
201903070700 METAR LRSB 070700Z 32003KT 280V350 CAVOK 03/M02 Q1018=
201903070730 METAR LRSB 070730Z 25003KT 220V350 CAVOK 04/M00 Q1018=
201903070800 METAR LRSB 070800Z 23004KT CAVOK 06/M02 Q1018=
201903070830 METAR LRSB 070830Z VRB02KT CAVOK 09/M03 Q1018=
201903070900 METAR LRSB 070900Z VRB01KT 9999 FEW080 11/M02 Q1017=
201903070930 METAR LRSB 070930Z 10003KT 050V140 9999 FEW078 13/M02 Q1017=
201903071000 METAR LRSB 071000Z 13004KT 9999 FEW080 13/M01 Q1017=
201903071030 METAR LRSB 071030Z 16009KT 120V200 9999 FEW086 15/M03 Q1016=
201903071100 METAR LRSB 071100Z 21005KT 160V230 9999 FEW087 15/M01 Q1016=
201903071130 METAR LRSB 071130Z 19010KT CAVOK 15/M02 Q1016=
201903071200 METAR LRSB 071200Z 18009KT CAVOK 15/M02 Q1016=
201903071230 METAR LRSB 071230Z 17009KT CAVOK 15/M02 Q1015=
201903071300 METAR LRSB 071300Z 17011KT CAVOK 15/M02 Q1015=
201903071330 METAR LRSB 071330Z 15010KT CAVOK 15/M02 Q1014=
201903071400 METAR LRSB 071400Z 13010KT CAVOK 15/M03 Q1014=
201903071430 METAR LRSB 071430Z 13010KT CAVOK 15/M02 Q1014=
201903071500 METAR LRSB 071500Z 13010KT CAVOK 14/M03 Q1013=
201903071530 METAR LRSB 071530Z 14009KT CAVOK 13/M03 Q1014=
201903071600 METAR LRSB 071600Z 13007KT CAVOK 13/M03 Q1014=
201903071630 METAR LRSB 071630Z 20004KT 160V220 CAVOK 12/M01 Q1014=
201903071700 METAR LRSB 071700Z 15003KT 110V200 CAVOK 10/M02 Q1014=
201903071730 METAR LRSB 071730Z VRB01KT CAVOK 08/M00 Q1014=
201903071800 METAR LRSB 071800Z 26005KT CAVOK 06/02 Q1015=
201903071830 METAR LRSB 071830Z 23005KT CAVOK 07/01 Q1015=
201903071900 METAR LRSB 071900Z VRB01KT CAVOK 06/01 Q1015=
201903071930 METAR LRSB 071930Z VRB02KT CAVOK 06/M00 Q1015=
201903072000 METAR LRSB 072000Z 30005KT 270V340 CAVOK 05/00 Q1015=
201903072030 METAR LRSB 072030Z VRB03KT CAVOK 04/00 Q1015=
201903072100 METAR LRSB 072100Z VRB02KT CAVOK 04/M00 Q1015=
201903072130 METAR LRSB 072130Z VRB01KT CAVOK 02/M01 Q1014=
201903072200 METAR LRSB 072200Z 26002KT CAVOK 03/M00 Q1014=
201903072230 METAR LRSB 072230Z 22004KT 180V240 CAVOK 04/00 Q1014=
201903072300 METAR LRSB 072300Z 24004KT 210V270 CAVOK 04/01 Q1014=
201903072330 METAR LRSB 072330Z 27004KT CAVOK 02/M00 Q1015=
201903080000 METAR LRSB 080000Z VRB01KT CAVOK 03/M00 Q1015=
201903080030 METAR LRSB 080030Z 23003KT 190V260 CAVOK 03/00 Q1015=
201903080100 METAR LRSB 080100Z VRB03KT CAVOK 01/M01 Q1015=
201903080130 METAR LRSB 080130Z VRB02KT CAVOK 02/M01 Q1015=
201903080200 METAR LRSB 080200Z VRB02KT CAVOK 02/M01 Q1015=
201903080230 METAR LRSB 080230Z 26003KT CAVOK 02/M01 Q1015=
201903080300 METAR LRSB 080300Z 23003KT CAVOK 01/M01 Q1015=
201903080330 METAR LRSB 080330Z VRB02KT CAVOK 02/M01 Q1016=
201903080400 METAR LRSB 080400Z 00000KT CAVOK 02/M01 Q1016=
201903080430 METAR LRSB 080430Z 11005KT CAVOK 05/M00 Q1016=
201903080500 METAR LRSB 080500Z 12004KT CAVOK 04/M01 Q1016=
201903080530 METAR LRSB 080530Z 09003KT CAVOK 04/M00 Q1016=
201903080600 METAR LRSB 080600Z VRB01KT CAVOK 03/01 Q1016=
201903080630 METAR LRSB 080630Z VRB01KT CAVOK 06/02 Q1016=
201903080700 METAR LRSB 080700Z 13001KT CAVOK 07/04 Q1016=
201903080730 METAR LRSB 080730Z VRB02KT CAVOK 08/02 Q1016=
201903080800 METAR LRSB 080800Z 06003KT CAVOK 10/02 Q1016=
201903080830 METAR LRSB 080830Z VRB02KT CAVOK 13/02 Q1016=
201903080900 METAR LRSB 080900Z VRB02KT CAVOK 14/02 Q1016=
201903080930 METAR LRSB 080930Z VRB02KT CAVOK 15/02 Q1016=
201903081000 METAR LRSB 081000Z 32003KT 290V030 CAVOK 17/01 Q1016=
201903081030 METAR LRSB 081030Z 03003KT 360V080 CAVOK 17/01 Q1016=
201903081100 METAR LRSB 081100Z 02004KT 320V070 CAVOK 19/01 Q1016=
201903081130 METAR LRSB 081130Z 36005KT 290V030 CAVOK 19/01 Q1015=
201903081200 METAR LRSB 081200Z 32004KT 290V350 CAVOK 20/00 Q1015=
201903081230 METAR LRSB 081230Z 35006KT 320V020 CAVOK 20/01 Q1015=
201903081300 METAR LRSB 081300Z 34004KT 290V030 CAVOK 20/01 Q1015=
201903081330 METAR LRSB 081330Z 34006KT CAVOK 20/00 Q1015=
201903081400 METAR LRSB 081400Z 35006KT 320V020 CAVOK 20/01 Q1015=
201903081430 METAR LRSB 081430Z 31005KT 300V360 CAVOK 20/01 Q1015=
201903081500 METAR LRSB 081500Z 32006KT CAVOK 19/01 Q1015=
201903081530 METAR LRSB 081530Z 34005KT CAVOK 18/02 Q1015=
201903081600 METAR LRSB 081600Z 33007KT CAVOK 17/01 Q1016=
201903081630 METAR LRSB 081630Z 30012KT CAVOK 16/01 Q1016=
201903081700 METAR LRSB 081700Z 30011KT CAVOK 15/01 Q1016=
201903081730 METAR LRSB 081730Z 27009KT CAVOK 11/01 Q1017=
201903081800 METAR LRSB 081800Z 28007KT CAVOK 09/01 Q1017=
201903081830 METAR LRSB 081830Z 28004KT CAVOK 08/01 Q1017=
201903081900 METAR LRSB 081900Z 26002KT CAVOK 11/02 Q1017=
201903081930 METAR LRSB 081930Z 27006KT 250V320 CAVOK 07/02 Q1018=
201903082000 METAR LRSB 082000Z 31005KT CAVOK 11/02 Q1018=
201903082030 METAR LRSB 082030Z 23005KT CAVOK 08/02 Q1019=
201903082100 METAR LRSB 082100Z 25005KT CAVOK 06/01 Q1019=
201903082130 METAR LRSB 082130Z 28005KT 260V320 CAVOK 07/02 Q1019=
201903082200 METAR LRSB 082200Z 25006KT 9999 FEW050 08/03 Q1019=
201903082230 METAR LRSB 082230Z 24002KT 9999 SCT050 08/03 Q1020=
201903082300 METAR LRSB 082300Z 29003KT 9999 FEW048 SCT056 08/03 Q1020=
201903082330 METAR LRSB 082330Z 30002KT 9999 FEW050 SCT060 08/03 Q1020=
201903090000 METAR LRSB 090000Z 35004KT 9999 SCT048 SCT084 09/04 Q1020=
201903090030 METAR LRSB 090030Z 35004KT 9999 SCT048 SCT084 09/04 Q1020=
201903090100 METAR LRSB 090100Z 32008KT 9999 BKN043 10/05 Q1021=
201903090130 METAR LRSB 090130Z 32010KT 9999 -RA BKN043 09/05 Q1021=
201903090200 METAR LRSB 090200Z 30007KT 9999 -RA SCT044 BKN060 09/06 Q1021=
201903090230 METAR LRSB 090230Z 20005KT 9999 -RA SCT045 BKN063 08/06 Q1020=
201903090300 METAR LRSB 090300Z 10003KT 9999 FEW047 SCT066 BKN078 07/05
                        Q1020=
201903090330 METAR LRSB 090330Z 10004KT 9999 SCT068 BKN080 08/05 Q1020=
201903090400 METAR LRSB 090400Z 15004KT 9999 SCT086 08/05 Q1020 R27/19//95=
201903090430 METAR LRSB 090430Z VRB01KT CAVOK 07/04 Q1020 R27/19//95=
201903090500 METAR LRSB 090500Z 32003KT CAVOK 05/04 Q1020 R27/19//95=
201903090530 METAR LRSB 090530Z 28005KT 9999 FEW065 05/04 Q1020 R27/19//95=
201903090600 METAR LRSB 090600Z 19002KT CAVOK 07/05 Q1020 R27/19//95=
201903090630 METAR LRSB 090630Z 20002KT CAVOK 08/05 Q1020 R27/29//95=
201903090700 METAR COR LRSB 090700Z 09004KT CAVOK 08/05 Q1020 R27/29//95=
201903090730 METAR LRSB 090730Z 04003KT CAVOK 09/05 Q1020 R27/19//95=
201903090800 METAR LRSB 090800Z 36005KT CAVOK 11/06 Q1020 R27/19//95=
201903090830 METAR LRSB 090830Z 34004KT 310V010 CAVOK 11/05 Q1020 R27/19//95=
201903090900 METAR LRSB 090900Z AUTO 34005KT 280V010 9999 NCD 12/05 Q1020=
201903090930 METAR LRSB 090930Z 35004KT 320V030 CAVOK 13/05 Q1020=
201903091000 METAR LRSB 091000Z 30008KT CAVOK 13/05 Q1020=
201903091030 METAR LRSB 091030Z 29011KT CAVOK 15/05 Q1019=
201903091100 METAR LRSB 091100Z 25009KT 230V290 CAVOK 16/02 Q1019=
201903091130 METAR LRSB 091130Z 28017KT CAVOK 16/M00 Q1018=
201903091200 METAR LRSB 091200Z 28014KT CAVOK 16/M00 Q1018=
201903091230 METAR LRSB 091230Z 27014KT CAVOK 16/M01 Q1017=
201903091300 METAR LRSB 091300Z 27013KT CAVOK 16/M02 Q1017=
201903091330 METAR LRSB 091330Z 27015KT 250V310 CAVOK 16/M01 Q1017=
201903091400 METAR LRSB 091400Z 28015G25KT CAVOK 16/M01 Q1016=
201903091430 METAR LRSB 091430Z 26014KT CAVOK 16/M01 Q1016=
201903091500 METAR LRSB 091500Z 30014KT CAVOK 15/02 Q1016=
201903091530 METAR LRSB 091530Z 31014KT CAVOK 13/03 Q1016=
201903091600 METAR COR LRSB 091600Z 31013KT CAVOK 12/03 Q1016=
201903091630 METAR LRSB 091630Z 31009KT CAVOK 11/04 Q1017=
201903091700 METAR LRSB 091700Z 32005KT CAVOK 10/04 Q1017=
201903091730 METAR LRSB 091730Z 28004KT 160V330 CAVOK 09/03 Q1017=
201903091800 METAR LRSB 091800Z VRB04KT CAVOK 10/03 Q1017=
201903091830 METAR LRSB 091830Z VRB02KT CAVOK 08/03 Q1017=
201903091900 METAR LRSB 091900Z 00000KT CAVOK 08/03 Q1017=
201903091930 METAR LRSB 091930Z 25003KT CAVOK 06/03 Q1016=
201903092000 METAR LRSB 092000Z VRB02KT CAVOK 06/03 Q1016=
201903092030 METAR LRSB 092030Z VRB01KT CAVOK 05/02 Q1016=
201903092100 METAR LRSB 092100Z 24004KT 180V270 CAVOK 07/03 Q1016=
201903092130 METAR LRSB 092130Z 24006KT CAVOK 06/03 Q1015=
201903092200 METAR LRSB 092200Z VRB04KT CAVOK 05/01 Q1015=
201903092230 METAR LRSB 092230Z 10003KT CAVOK 04/02 Q1015=
201903092300 METAR LRSB 092300Z VRB02KT CAVOK 05/02 Q1015=
201903092330 METAR LRSB 092330Z 08004KT CAVOK 04/01 Q1015=
201903100000 METAR LRSB 100000Z 08005KT CAVOK 05/02 Q1015=
201903100030 METAR LRSB 100030Z 12005KT CAVOK 05/01 Q1014=
201903100100 METAR LRSB 100100Z 14005KT CAVOK 06/01 Q1013=
201903100130 METAR LRSB 100130Z 17003KT 150V240 CAVOK 06/00 Q1012=
201903100200 METAR LRSB 100200Z AUTO 24004KT 9999 FEW070/// 03/M00 Q1012=
201903100230 METAR LRSB 100230Z 09005KT 050V120 CAVOK 03/00 Q1012=
201903100300 METAR LRSB 100300Z 27008KT 220V290 9999 FEW048 SCT072 09/04
                        Q1012=
201903100330 METAR LRSB 100330Z 30017G28KT 9999 -SHRA FEW024 SCT046CB
                        BKN072 10/06 Q1012=
201903100400 METAR LRSB 100400Z 29025KT 9999 SCT040CB SCT051 10/04 Q1013
                        R27/29//95=
201903100430 METAR LRSB 100430Z 28028G39KT 9999 SQ FEW040CB 09/03 Q1014
                        R27/29//95=
201903100500 METAR LRSB 100500Z 29026KT 9999 SQ FEW040CB 09/03 Q1014 R27/29//95=
201903100530 METAR LRSB 100530Z 28025KT 9999 SQ FEW036CB 10/02 Q1015 R27/29//95=
201903100600 METAR LRSB 100600Z 28021KT 9999 FEW036CB 10/02 Q1015 R27/29//95=
201903100630 METAR LRSB 100630Z 28022KT 9999 FEW036CB 10/01 Q1016 R27/29//95=
201903100700 METAR LRSB 100700Z 28022KT 9999 FEW050 10/01 Q1017 R27/29//95=
201903100730 METAR LRSB 100730Z 29021KT 9999 FEW070 10/01 Q1017 R27/29//95=
201903100800 METAR LRSB 100800Z 28017KT 9999 FEW072 11/M01 Q1017 R27/29//95=
201903100830 METAR LRSB 100830Z 28020KT 9999 SCT075 11/M03 Q1017 R27/29//95=
201903100900 METAR LRSB 100900Z 30022KT 9999 FEW074 12/M04 Q1016 R27/29//95=
201903100930 METAR LRSB 100930Z 29025KT 9999 FEW048 13/M04 Q1016 R27/29//95=
201903101000 METAR LRSB 101000Z 28022G33KT 9999 FEW048 14/M03 Q1016 R27/CLRD//=
201903101030 METAR LRSB 101030Z 28025G36KT 9999 FEW047 13/M01 Q1016=
201903101100 METAR LRSB 101100Z 30021KT 9999 FEW047 14/M01 Q1015=
201903101130 METAR LRSB 101130Z 30019KT 9999 FEW048 14/M02 Q1014=
201903101200 METAR LRSB 101200Z 30016KT 9999 FEW048 15/M01 Q1014=
201903101230 METAR LRSB 101230Z 30015KT 9999 FEW048 15/M01 Q1014=
201903101300 METAR LRSB 101300Z 31014KT 9999 SCT049 15/M02 Q1013=
201903101330 METAR LRSB 101330Z 32010KT 9999 SCT049 16/M02 Q1013=
201903101400 METAR LRSB 101400Z 32009KT 9999 SCT050 15/M02 Q1012=
201903101430 METAR LRSB 101430Z 34008KT 9999 FEW050 14/M02 Q1012=
201903101500 METAR LRSB 101500Z 32005KT 9999 FEW050 14/M02 Q1011=
201903101530 METAR LRSB 101530Z VRB02KT CAVOK 13/M00 Q1011=
201903101600 METAR LRSB 101600Z 00000KT CAVOK 13/M01 Q1010=
201903101630 METAR LRSB 101630Z 16004KT 110V240 CAVOK 12/M00 Q1010=
201903101700 METAR LRSB 101700Z 15005KT 110V170 CAVOK 13/M01 Q1010=
201903101730 METAR COR LRSB 101730Z 22006KT 180V250 CAVOK 13/M00 Q1009=
201903101800 METAR LRSB 101800Z 26007KT CAVOK 12/M00 Q1009=
201903101830 METAR LRSB 101830Z 24010KT CAVOK 13/00 Q1008=
201903101900 METAR LRSB 101900Z 25018KT CAVOK 13/01 Q1008=
201903101930 METAR LRSB 101930Z 26012KT CAVOK 13/01 Q1008=
201903102000 METAR LRSB 102000Z 27019KT CAVOK 13/02 Q1009=
201903102030 METAR LRSB 102030Z 29015KT CAVOK 12/03 Q1009=
201903102100 METAR LRSB 102100Z 29015KT CAVOK 11/04 Q1009=
201903102130 METAR LRSB 102130Z 26004KT CAVOK 10/04 Q1009=
201903102200 METAR LRSB 102200Z VRB04KT 9999 BKN045 11/04 Q1009=
201903102230 METAR LRSB 102230Z 30008KT 9999 BKN050 11/04 Q1008=
201903102300 METAR LRSB 102300Z VRB01KT CAVOK 09/03 Q1008=
201903102330 METAR LRSB 102330Z 09003KT CAVOK 09/03 Q1008=
201903110000 METAR LRSB 110000Z AUTO VRB01KT 9999 NCD 10/03 Q1008=
201903110030 METAR LRSB 110030Z AUTO 30015KT 9999 BKN044/// 12/03 Q1008=
201903110100 METAR LRSB 110100Z 28029KT 9999 BKN040 10/04 Q1008=
201903110130 METAR COR LRSB 110130Z 27023KT 9999 SCT042 09/05 Q1008=
201903110200 METAR LRSB 110200Z 28023KT 9999 SCT046 09/05 Q1009=
201903110230 METAR LRSB 110230Z 26018KT 9999 -RA BKN050 09/04 Q1009=
201903110300 METAR LRSB 110300Z 27016KT 9999 BKN042 09/04 Q1010=
201903110330 METAR LRSB 110330Z 29018KT 9999 SCT036 09/04 Q1010=
201903110400 METAR LRSB 110400Z 27011KT 9999 FEW055 08/03 Q1010 R27/29//95=
201903110430 METAR LRSB 110430Z 28013KT CAVOK 08/03 Q1010 R27/29//95=
201903110500 METAR LRSB 110500Z 27013KT CAVOK 08/02 Q1010 R27/29//95=
201903110530 METAR LRSB 110530Z 27012KT CAVOK 09/01 Q1010 R27/29//95=
201903110600 METAR LRSB 110600Z 28018KT CAVOK 10/M00 Q1011 R27/15//95=
201903110630 METAR LRSB 110630Z 29026KT 9999 FEW060 10/M01 Q1011 R27/15//95
                        NOSIG=
201903110700 METAR LRSB 110700Z 28024KT 9999 FEW060 11/M02 Q1011 R27/15//95
                        NOSIG=
201903110730 METAR LRSB 110730Z 27021KT 9999 FEW060 11/M04 Q1011 R27/15//95
                        NOSIG=
201903110800 METAR LRSB 110800Z 28023KT 9999 FEW060 11/M05 Q1011 R27/CLRD//
                        NOSIG=
201903110830 METAR LRSB 110830Z 29021G31KT CAVOK 12/M05 Q1011 NOSIG=
201903110900 METAR LRSB 110900Z 30018KT 9999 FEW035 11/M06 Q1011 NOSIG=
201903110930 METAR LRSB 110930Z 30017KT 9999 FEW038 11/M07 Q1011 NOSIG=
201903111000 METAR LRSB 111000Z 29012KT 9999 FEW038 11/M06 Q1011 NOSIG=
201903111030 METAR LRSB 111030Z 30013KT 9999 FEW040 11/M06 Q1010 NOSIG=
201903111100 METAR LRSB 111100Z 31016KT 9999 FEW040 11/M06 Q1010 NOSIG=
201903111130 METAR LRSB 111130Z 30021KT 9999 FEW045 11/M06 Q1010 NOSIG=
201903111200 METAR LRSB 111200Z 30020KT 9999 FEW050 11/M05 Q1010 NOSIG=
201903111230 METAR LRSB 111230Z 29020KT 9999 FEW055 10/M06 Q1010 NOSIG=
201903111300 METAR LRSB 111300Z 29017KT 9999 FEW060 10/M05 Q1011 NOSIG=
201903111330 METAR LRSB 111330Z 29019KT CAVOK 10/M05 Q1011 NOSIG=
201903111400 METAR LRSB 111400Z 28014KT 9999 OVC083 09/M05 Q1010 NOSIG=
201903111430 METAR LRSB 111430Z 28016KT 9999 OVC080 09/M06 Q1010 NOSIG=
201903111500 METAR LRSB 111500Z 27012KT 9999 OVC070 09/M08 Q1010 NOSIG=
201903111530 METAR LRSB 111530Z 29010KT 9999 OVC075 09/M08 Q1010 NOSIG=
201903111600 METAR COR LRSB 111600Z 30007KT 270V340 9999 SCT080 08/M05
                        Q1010 NOSIG=
201903111630 METAR LRSB 111630Z 32008KT 9999 SCT086 07/M03 Q1010 NOSIG=
201903111700 METAR COR LRSB 111700Z 31011KT CAVOK 07/M04 Q1011 NOSIG=
201903111730 METAR LRSB 111730Z 30014KT CAVOK 07/M04 Q1011=
201903111800 METAR LRSB 111800Z 30011KT CAVOK 06/M04 Q1011=
201903111830 METAR LRSB 111830Z 29010KT CAVOK 06/M04 Q1011=
201903111900 METAR LRSB 111900Z 30011KT CAVOK 06/M03 Q1012=
201903111930 METAR LRSB 111930Z 29014KT CAVOK 06/M03 Q1012=
201903112000 METAR LRSB 112000Z 29012KT CAVOK 06/M03 Q1012=
201903112030 METAR LRSB 112030Z 30010KT CAVOK 06/M03 Q1012=
201903112100 METAR LRSB 112100Z 29007KT CAVOK 06/M04 Q1012=
201903112130 METAR LRSB 112130Z 31006KT CAVOK 05/M03 Q1012=
201903112200 METAR LRSB 112200Z 01004KT 300V050 CAVOK 05/M03 Q1012=
201903112230 METAR LRSB 112230Z 06003KT CAVOK 04/M03 Q1012=
201903112300 METAR LRSB 112300Z 06003KT 9999 FEW050 SCT063 05/M03 Q1012=
201903112330 METAR LRSB 112330Z 35001KT 9999 FEW050 BKN062 04/M03 Q1012=
201903120000 METAR LRSB 120000Z 00000KT 9999 BKN063 04/M03 Q1012=
201903120030 METAR LRSB 120030Z 14002KT 9999 FEW036 BKN060 04/M02 Q1012=
201903120100 METAR LRSB 120100Z VRB01KT 9999 SCT036 SCT056 03/M02 Q1012=
201903120130 METAR LRSB 120130Z 14004KT 9999 SCT036 SCT054 04/M02 Q1012=
201903120200 METAR LRSB 120200Z 18004KT 130V220 9999 FEW020 SCT036 BKN054
                        03/M01 Q1012=
201903120230 METAR COR LRSB 120230Z 14007KT 9999 -RA SCT030 SCT045 02/00
                        Q1013=
201903120300 METAR LRSB 120300Z 14003KT 8000 -RA SCT020 SCT030 02/00 Q1013=
201903120330 METAR COR LRSB 120330Z 14007KT 8000 -RA FEW018 BKN030 01/00
                        Q1013 R27/19//95=
201903120400 METAR LRSB 120400Z 14005KT 9999 FEW020 BKN033 01/00 Q1014
                        R27/19//95=
201903120430 METAR LRSB 120430Z 13005KT 9999 BKN034 01/00 Q1014 R27/19//95=
201903120500 METAR LRSB 120500Z 11005KT 9999 FEW017 BKN060 01/00 Q1014
                        R27/19//95=
201903120530 METAR LRSB 120530Z 13006KT 9999 FEW017 BKN063 01/00 Q1014
                        R27/19//95=
201903120600 METAR LRSB 120600Z 09004KT 9999 SCT026 BKN070 02/01 Q1014
                        R27/19//95=
201903120630 METAR LRSB 120630Z 10004KT 9999 SCT021 BKN027 02/01 Q1015
                        R27/19//95=
201903120700 METAR LRSB 120700Z 10003KT 9999 FEW006 BKN040 02/01 Q1015
                        R27/19//95=
201903120730 METAR LRSB 120730Z 02003KT 330V100 9999 FEW006 BKN038 03/00
                        Q1015 R27/19//95=
201903120800 METAR LRSB 120800Z VRB02KT 9999 FEW008 BKN027 03/00 Q1015
                        R27/19//95=
201903120830 METAR LRSB 120830Z VRB02KT 9999 FEW018 BKN028 04/M01 Q1016
                        R27/19//95=
201903120900 METAR LRSB 120900Z 23003KT 200V270 9999 SCT020 BKN043 04/M01
                        Q1016 R27/19//95=
201903120930 METAR LRSB 120930Z 26003KT 230V290 9999 SCT019 BKN024 04/M00
                        Q1016 R27/19//95=
201903121000 METAR LRSB 121000Z 35007KT 9999 BKN027 05/M02 Q1016 R27/CLRD//=
201903121030 METAR LRSB 121030Z 36006KT 9999 SCT046 SCT059 05/M02 Q1017=
201903121100 METAR LRSB 121100Z 36003KT 320V050 9999 BKN024 06/M01 Q1017=
201903121130 METAR LRSB 121130Z 31003KT 260V010 9999 BKN033 07/M03 Q1016=
201903121200 METAR LRSB 121200Z 01005KT 300V060 9999 BKN044 07/M03 Q1016=
201903121230 METAR LRSB 121230Z 01006KT 340V040 9999 BKN044 06/M05 Q1016=
201903121300 METAR LRSB 121300Z 31008KT 280V360 9999 SCT055 SCT069 08/M06
                        Q1016=
201903121330 METAR LRSB 121330Z 01008KT 340V040 9999 FEW033TCU SCT055
                        BKN070 07/M07 Q1016=
201903121400 METAR LRSB 121400Z 35006KT 310V070 9999 BKN035 07/M08 Q1016=
201903121430 METAR LRSB 121430Z 02008KT 9999 SCT035 SCT072 07/M08 Q1016=
201903121500 METAR LRSB 121500Z 01009KT 9999 SCT035 BKN062 07/M07 Q1016=
201903121530 METAR LRSB 121530Z 01008KT 9999 SCT038 SCT068 06/M06 Q1017=
201903121600 METAR LRSB 121600Z 36010KT 9999 SCT038 SCT070 05/M06 Q1017=
201903121630 METAR LRSB 121630Z 36009KT 9999 SCT033 BKN061 05/M06 Q1017=
201903121700 METAR LRSB 121700Z 36006KT 9999 SCT072 04/M06 Q1018=
201903121730 METAR LRSB 121730Z 34005KT 9999 SCT060 BKN078 04/M06 Q1018=
201903121800 METAR LRSB 121800Z 30004KT 9999 SCT060 BKN076 04/M06 Q1018
                        NOSIG=
201903121830 METAR LRSB 121830Z 28005KT 9999 BKN063 SCT076 03/M04 Q1019
                        NOSIG=
201903121900 METAR LRSB 121900Z 27004KT 9999 BKN066 02/M05 Q1019 NOSIG=
201903121930 METAR COR LRSB 121930Z 28004KT 9999 BKN068 00/M06 Q1019 NOSIG=
201903122000 METAR COR LRSB 122000Z 27003KT 9999 SCT074 M00/M05 Q1019
                        NOSIG=
201903122030 METAR LRSB 122030Z 25004KT 9999 SCT075 M01/M05 Q1019 NOSIG=
201903122100 METAR LRSB 122100Z 26006KT 9999 SCT073 M02/M05 Q1020 NOSIG=
201903122130 METAR LRSB 122130Z 26007KT 9999 SCT073 M02/M05 Q1020 NOSIG=
201903122200 METAR LRSB 122200Z 27008KT 9999 FEW073 M01/M05 Q1020 NOSIG=
201903122230 METAR COR LRSB 122230Z 26007KT CAVOK M01/M05 Q1019 NOSIG=
201903122300 METAR LRSB 122300Z 27005KT CAVOK M03/M06 Q1019 NOSIG=
201903122330 METAR LRSB 122330Z 00000KT CAVOK M03/M06 Q1019 NOSIG=
201903130000 METAR LRSB 130000Z 25004KT CAVOK M02/M06 Q1019 NOSIG=
201903130030 METAR LRSB 130030Z VRB01KT CAVOK M04/M07 Q1019 NOSIG=
201903130100 METAR LRSB 130100Z VRB01KT CAVOK M02/M06 Q1019 NOSIG=
201903130130 METAR LRSB 130130Z 00000KT CAVOK M04/M07 Q1019 NOSIG=
201903130200 METAR LRSB 130200Z 08002KT CAVOK M04/M06 Q1018 NOSIG=
201903130230 METAR LRSB 130230Z 08002KT CAVOK M04/M07 Q1018 NOSIG=
201903130300 METAR LRSB 130300Z 08003KT CAVOK M03/M06 Q1018 NOSIG=
201903130330 METAR LRSB 130330Z VRB01KT CAVOK M04/M07 Q1018 NOSIG=
201903130400 METAR LRSB 130400Z 00000KT CAVOK M05/M07 Q1018 NOSIG=
201903130430 METAR LRSB 130430Z 09001KT CAVOK M06/M08 Q1018 NOSIG=
201903130500 METAR LRSB 130500Z 00000KT CAVOK M05/M07 Q1018 NOSIG=
201903130530 METAR LRSB 130530Z 08001KT CAVOK M03/M06 Q1018 NOSIG=
201903130600 METAR LRSB 130600Z 10002KT CAVOK M02/M05 Q1018 NOSIG=
201903130630 METAR LRSB 130630Z 10003KT CAVOK M00/M06 Q1018 NOSIG=
201903130700 METAR LRSB 130700Z 09004KT CAVOK 01/M06 Q1018 NOSIG=
201903130730 METAR LRSB 130730Z 08004KT 050V110 CAVOK 03/M06 Q1018=
201903130800 METAR LRSB 130800Z 11006KT CAVOK 04/M06 Q1018=
201903130830 METAR LRSB 130830Z 12007KT CAVOK 06/M08 Q1017=
201903130900 METAR LRSB 130900Z 13006KT 110V170 CAVOK 07/M12 Q1017=
201903130930 METAR LRSB 130930Z 11008KT CAVOK 07/M11 Q1017=
201903131000 METAR LRSB 131000Z 12004KT CAVOK 08/M11 Q1017=
201903131030 METAR LRSB 131030Z 11006KT 040V180 CAVOK 08/M11 Q1016=
201903131100 METAR LRSB 131100Z 11005KT 060V200 CAVOK 09/M11 Q1016=
201903131130 METAR LRSB 131130Z 11006KT 050V140 CAVOK 08/M11 Q1016=
201903131200 METAR LRSB 131200Z 01006KT 330V050 CAVOK 09/M12 Q1016=
201903131230 METAR LRSB 131230Z VRB04KT CAVOK 09/M13 Q1015=
201903131300 METAR LRSB 131300Z 05003KT CAVOK 09/M13 Q1015=
201903131330 METAR LRSB 131330Z NIL=
201903131400 METAR LRSB 131400Z 03004KT CAVOK 09/M12 Q1014=
201903131430 METAR LRSB 131430Z 34003KT CAVOK 09/M13 Q1014=
201903131500 METAR LRSB 131500Z 03004KT CAVOK 09/M12 Q1014=
201903131530 METAR LRSB 131530Z 02003KT CAVOK 08/M12 Q1014=
201903131600 METAR LRSB 131600Z 04004KT CAVOK 07/M12 Q1013=
201903131630 METAR LRSB 131630Z 13004KT 060V150 CAVOK 05/M05 Q1014=
201903131700 METAR LRSB 131700Z 16004KT CAVOK 05/M05 Q1014=
201903131730 METAR LRSB 131730Z 14004KT CAVOK 04/M05 Q1013=
201903131800 METAR COR LRSB 131800Z 17003KT 080V220 CAVOK 04/M05 Q1013=
201903131830 METAR LRSB 131830Z AUTO VRB01KT 9999 NCD 04/M04 Q1013=
201903131900 METAR COR LRSB 131900Z 15007KT CAVOK 05/M04 Q1013=
201903131930 METAR LRSB 131930Z 16008KT 130V190 CAVOK 05/M05 Q1013=
201903132000 METAR LRSB 132000Z 16006KT CAVOK 05/M05 Q1013=
201903132030 METAR LRSB 132030Z 16008KT CAVOK 06/M05 Q1013=
201903132100 METAR LRSB 132100Z 16007KT CAVOK 05/M05 Q1013=
201903132130 METAR LRSB 132130Z 14006KT CAVOK 05/M05 Q1013=
201903132200 METAR LRSB 132200Z 15006KT CAVOK 04/M05 Q1012=
201903132230 METAR LRSB 132230Z 21004KT CAVOK 03/M04 Q1012=
201903132300 METAR LRSB 132300Z 27003KT CAVOK 02/M04 Q1012=
201903132330 METAR LRSB 132330Z 21002KT CAVOK 02/M04 Q1012=
201903140000 METAR LRSB 140000Z AUTO 23002KT 9999 FEW110/// 02/M04 Q1012=
201903140030 METAR LRSB 140030Z 25002KT CAVOK 01/M03 Q1012=
201903140100 METAR LRSB 140100Z AUTO VRB01KT 9999 NCD 01/M03 Q1011=
201903140130 METAR LRSB 140130Z VRB02KT CAVOK 01/M04 Q1011=
201903140200 METAR LRSB 140200Z VRB01KT CAVOK M01/M04 Q1011=
201903140230 METAR LRSB 140230Z 00000KT CAVOK M01/M04 Q1011=
201903140300 METAR LRSB 140300Z 26004KT 200V270 CAVOK M02/M04 Q1011=
201903140330 METAR LRSB 140330Z 25005KT CAVOK M01/M05 Q1011=
201903140400 METAR LRSB 140400Z VRB01KT CAVOK M02/M05 Q1011=
201903140430 METAR LRSB 140430Z VRB01KT CAVOK M01/M05 Q1011=
201903140500 METAR LRSB 140500Z 00000KT CAVOK M01/M04 Q1011=
201903140530 METAR LRSB 140530Z 24001KT CAVOK M01/M04 Q1011=
201903140600 METAR LRSB 140600Z VRB01KT CAVOK 00/M03 Q1011=
201903140630 METAR LRSB 140630Z VRB01KT CAVOK 02/M04 Q1011=
201903140700 METAR LRSB 140700Z VRB02KT CAVOK 03/M03 Q1011=
201903140730 METAR LRSB 140730Z VRB02KT CAVOK 05/M04 Q1011=
201903140800 METAR LRSB 140800Z VRB02KT CAVOK 06/M04 Q1011=
201903140830 METAR LRSB 140830Z VRB02KT CAVOK 08/M05 Q1011=
201903140900 METAR LRSB 140900Z 03005KT 330V110 CAVOK 08/M06 Q1011=
201903140930 METAR LRSB 140930Z 36005KT 290V030 CAVOK 08/M06 Q1011=
201903141000 METAR LRSB 141000Z 36005KT 320V030 9999 FEW075 08/M06 Q1010=
201903141030 METAR LRSB 141030Z 36006KT 300V030 9999 FEW075 08/M07 Q1010=
201903141100 METAR LRSB 141100Z 01008KT 340V050 9999 FEW058 09/M06 Q1010=
201903141130 METAR LRSB 141130Z 36006KT 300V030 9999 FEW060 08/M07 Q1010=
201903141200 METAR LRSB 141200Z VRB04KT 9999 FEW062 09/M05 Q1009=
201903141230 METAR LRSB 141230Z VRB03KT 9999 FEW062 09/M06 Q1009=
201903141300 METAR LRSB 141300Z 35005KT 320V020 9999 FEW063 09/M07 Q1009=
201903141330 METAR LRSB 141330Z 02003KT 310V070 9999 FEW062 09/M07 Q1009=
201903141400 METAR LRSB 141400Z 33006KT 9999 FEW060 08/M06 Q1009=
201903141430 METAR LRSB 141430Z 33005KT 280V010 9999 FEW060 08/M06 Q1009=
201903141500 METAR LRSB 141500Z 33006KT 9999 FEW062 08/M06 Q1009=
201903141530 METAR LRSB 141530Z 31005KT 9999 FEW063 08/M05 Q1009=
201903141600 METAR LRSB 141600Z 30005KT 9999 FEW065 07/M05 Q1009=
201903141630 METAR LRSB 141630Z 30004KT 9999 FEW066 06/M05 Q1009=
201903141700 METAR LRSB 141700Z 22003KT CAVOK 05/M04 Q1008=
201903141730 METAR LRSB 141730Z 26004KT CAVOK 03/M03 Q1008=
201903141800 METAR LRSB 141800Z 25005KT 9999 BKN056 04/M02 Q1008=
201903141830 METAR LRSB 141830Z 25005KT 9999 BKN055 04/M02 Q1008=
201903141900 METAR LRSB 141900Z 25005KT 9999 BKN059 03/M03 Q1008=
201903141930 METAR LRSB 141930Z 25007KT 9999 FEW055 02/M03 Q1008=
201903142000 METAR LRSB 142000Z 23006KT CAVOK 02/M03 Q1008=
201903142030 METAR LRSB 142030Z 24006KT CAVOK 01/M03 Q1008=
201903142100 METAR LRSB 142100Z 16003KT CAVOK 01/M04 Q1008=
201903142130 METAR LRSB 142130Z VRB01KT CAVOK 01/M04 Q1008=
201903142200 METAR LRSB 142200Z VRB01KT CAVOK 01/M04 Q1008=
201903142230 METAR LRSB 142230Z 24006KT CAVOK M00/M04 Q1007=
201903142300 METAR LRSB 142300Z VRB02KT CAVOK M01/M05 Q1007=
201903142330 METAR LRSB 142330Z VRB01KT CAVOK M00/M05 Q1007=
201903150000 METAR LRSB 150000Z VRB02KT CAVOK 01/M04 Q1007=
201903150030 METAR LRSB 150030Z 06002KT CAVOK M01/M05 Q1007=
201903150100 METAR LRSB 150100Z 09001KT CAVOK M01/M05 Q1007=
201903150130 METAR LRSB 150130Z 00000KT CAVOK M02/M05 Q1007=
201903150200 METAR LRSB 150200Z 00000KT CAVOK M02/M05 Q1007=
201903150230 METAR LRSB 150230Z VRB01KT CAVOK M03/M06 Q1007=
201903150300 METAR LRSB 150300Z VRB01KT CAVOK M04/M07 Q1007=
201903150330 METAR LRSB 150330Z VRB01KT CAVOK M03/M06 Q1007=
201903150400 METAR LRSB 150400Z VRB01KT CAVOK M04/M06 Q1007=
201903150430 METAR LRSB 150430Z 14002KT CAVOK M04/M06 Q1007=
201903150500 METAR LRSB 150500Z 08002KT CAVOK M04/M06 Q1007=
201903150530 METAR LRSB 150530Z 11005KT CAVOK M02/M05 Q1007=
201903150600 METAR LRSB 150600Z VRB02KT CAVOK M01/M04 Q1007=
201903150630 METAR LRSB 150630Z 07003KT CAVOK 02/M04 Q1007=
201903150700 METAR LRSB 150700Z 10003KT 070V130 CAVOK 04/M03 Q1007=
201903150730 METAR LRSB 150730Z 06003KT 030V100 CAVOK 06/M03 Q1007=
201903150800 METAR LRSB 150800Z 10005KT CAVOK 08/M04 Q1007=
201903150830 METAR LRSB 150830Z 33003KT 270V070 CAVOK 09/M04 Q1007=
201903150900 METAR LRSB 150900Z VRB03KT CAVOK 09/M04 Q1007=
201903150930 METAR LRSB 150930Z 14003KT 070V190 CAVOK 10/M04 Q1007=
201903151000 METAR LRSB 151000Z 36005KT 290V090 9999 FEW066 11/M04 Q1007=
201903151030 METAR LRSB 151030Z 32006KT 9999 FEW055 SCT086 10/M04 Q1007=
201903151100 METAR LRSB 151100Z 31009KT 9999 FEW055 SCT086 10/M04 Q1007=
201903151130 METAR LRSB 151130Z 30009KT 9999 FEW052 SCT064 10/M05 Q1006=
201903151200 METAR LRSB 151200Z 32007KT 290V360 9999 FEW045CB SCT064 10/M05
                        Q1006=
201903151230 METAR LRSB 151230Z 35004KT 310V050 9999 FEW044CB SCT060 10/M04
                        Q1006=
201903151300 METAR LRSB 151300Z 20004KT 140V250 9999 FEW044 SCT058 BKN075
                        10/M04 Q1006=
201903151330 METAR LRSB 151330Z 14004KT 110V180 9999 FEW042 SCT058 BKN074
                        10/M04 Q1006=
201903151400 METAR LRSB 151400Z 13005KT 9999 FEW040 SCT056 BKN072 10/M04
                        Q1006=
201903151430 METAR LRSB 151430Z 16003KT 110V210 9999 SCT056 BKN070 10/M04
                        Q1006=
201903151500 METAR LRSB 151500Z VRB02KT 9999 SCT056 BKN070 09/M03 Q1006=
201903151530 METAR LRSB 151530Z 30013KT 9999 SCT054 BKN066 09/M03 Q1006=
201903151600 METAR LRSB 151600Z 30014KT 9999 SCT054 BKN064 09/M02 Q1007=
201903151630 METAR LRSB 151630Z 29012KT 9999 SCT052 BKN061 08/M01 Q1007=
201903151700 METAR LRSB 151700Z 28010KT 9999 FEW050 SCT060 BKN075 08/M01
                        Q1008=
201903151730 METAR LRSB 151730Z 29008KT 9999 SCT064 BKN077 08/M01 Q1008=
201903151800 METAR LRSB 151800Z 30008KT 9999 SCT066 BKN074 08/M00 Q1009=
201903151830 METAR LRSB 151830Z 29006KT 9999 FEW042 BKN070 07/M00 Q1009=
201903151900 METAR LRSB 151900Z 28004KT 9999 FEW042 BKN073 07/M00 Q1009=
201903151930 METAR LRSB 151930Z VRB01KT 9999 FEW042 BKN074 07/M00 Q1009=
201903152000 METAR LRSB 152000Z VRB02KT 9999 SCT074 SCT084 07/M00 Q1009=
201903152030 METAR LRSB 152030Z VRB02KT 9999 SCT073 BKN082 06/M01 Q1009=
201903152100 METAR LRSB 152100Z 32004KT 280V020 9999 FEW066 BKN084 07/M01
                        Q1009=
201903152130 METAR LRSB 152130Z 27004KT 9999 FEW064 BKN086 05/M01 Q1010=
201903152200 METAR LRSB 152200Z 29004KT 260V320 9999 SCT086 04/M02 Q1009=
201903152230 METAR LRSB 152230Z 18003KT 150V230 CAVOK 05/M01 Q1009=
201903152300 METAR LRSB 152300Z VRB01KT 9999 FEW058 03/M02 Q1009=
201903152330 METAR LRSB 152330Z 16002KT 9999 FEW054 05/M02 Q1009=
201903160000 METAR LRSB 160000Z 00000KT 9999 FEW055 02/M03 Q1009=
201903160030 METAR LRSB 160030Z 11003KT 9999 FEW056 SCT074 03/M03 Q1009=
201903160100 METAR LRSB 160100Z VRB01KT 9999 FEW056 SCT072 02/M02 Q1008=
201903160130 METAR LRSB 160130Z VRB01KT 9999 SCT045 SCT068 03/M01 Q1008=
201903160200 METAR LRSB 160200Z VRB01KT 9999 SCT047 03/M01 Q1008=
201903160230 METAR LRSB 160230Z VRB01KT 9999 SCT050 04/M01 Q1007=
201903160300 METAR LRSB 160300Z 00000KT 9999 SCT051 03/M01 Q1007=
201903160330 METAR COR LRSB 160330Z 01007KT 9999 SCT050 SCT072 03/M01
                        Q1007=
201903160400 METAR COR LRSB 160400Z 12003KT 9999 BKN045 04/M00 Q1007=
201903160430 METAR LRSB 160430Z 08002KT 9999 SCT043 04/M00 Q1007=
201903160500 METAR LRSB 160500Z 09004KT 9999 FEW043 05/M00 Q1006=
201903160530 METAR LRSB 160530Z 12004KT 080V140 9999 FEW043 05/M01 Q1006=
201903160600 METAR LRSB 160600Z 05003KT 360V100 9999 SCT038 SCT066 05/M01
                        Q1006=
201903160630 METAR LRSB 160630Z 13004KT 100V170 9999 BKN038 06/M00 Q1006=
201903160700 METAR LRSB 160700Z VRB02KT 9999 BKN039 08/01 Q1006=
201903160730 METAR LRSB 160730Z 29017KT 9999 OVC036 10/03 Q1006=
201903160800 METAR LRSB 160800Z AUTO 28027G37KT 9999 FEW036/// BKN073///
                        10/03 Q1006=
201903160830 METAR LRSB 160830Z 29023KT 9999 SCT038 BKN072 10/03 Q1007=
201903160900 METAR LRSB 160900Z 28023KT 9999 SCT040 BKN068 10/03 Q1007=
201903160930 METAR LRSB 160930Z 29021KT 9999 SCT040 BKN068 09/02 Q1008=
201903161000 METAR LRSB 161000Z 28015KT 9999 BKN045 BKN068 09/03 Q1008=
201903161030 METAR LRSB 161030Z 28021KT 9999 BKN035 BKN073 09/02 Q1008=
201903161100 METAR LRSB 161100Z 28016KT 9999 BKN031 09/02 Q1008=
201903161130 METAR LRSB 161130Z 27016KT 9999 SCT034 BKN074 09/02 Q1008=
201903161200 METAR LRSB 161200Z 27012KT 9999 SCT036 BKN076 09/02 Q1008=
201903161230 METAR LRSB 161230Z 27017KT 9999 BKN041 OVC077 09/02 Q1008=
201903161300 METAR LRSB 161300Z 27019KT 9999 FEW036CB SCT040 OVC081 09/01
                        Q1008=
201903161330 METAR LRSB 161330Z 29017KT 9999 FEW038CB SCT045 BKN083 09/01
                        Q1009=
201903161400 METAR LRSB 161400Z 28018KT 9999 FEW043CB SCT045 OVC086 09/01
                        Q1009=
201903161430 METAR LRSB 161430Z 28024KT 9999 SCT038CB BKN088 08/01 Q1008=
201903161500 METAR LRSB 161500Z 29021KT 9999 FEW040CB SCT047 08/01 Q1009=
201903161530 METAR LRSB 161530Z 29022KT 9999 SCT040CB SCT047 08/01 Q1010=
201903161600 METAR LRSB 161600Z 29023KT 9999 FEW040CB SCT047 07/01 Q1011=
201903161630 METAR LRSB 161630Z 29020KT 9999 FEW040CB SCT047 07/01 Q1011=
201903161700 METAR LRSB 161700Z 29018KT 9999 FEW039CB SCT046 07/02 Q1011=
201903161730 METAR LRSB 161730Z 28019KT 9999 FEW037 SCT045 BKN086 07/01
                        Q1012=
201903161800 METAR LRSB 161800Z 29013KT 9999 SCT035 BKN083 07/01 Q1012=
201903161830 METAR LRSB 161830Z 29015KT 9999 SCT037 BKN086 07/01 Q1012=
201903161900 METAR LRSB 161900Z 29016KT 9999 SCT035 BKN080 07/01 Q1013=
201903161930 METAR LRSB 161930Z 29013KT 9999 FEW034 BKN078 07/02 Q1013=
201903162000 METAR LRSB 162000Z 32008KT 9999 SCT033 BKN077 07/02 Q1013=
201903162030 METAR LRSB 162030Z 34007KT 9999 SCT036 BKN080 07/02 Q1013=
201903162100 METAR LRSB 162100Z 35006KT 290V010 9999 BKN035 BKN080 07/02
                        Q1013=
201903162130 METAR LRSB 162130Z 01006KT 9999 SCT033 07/03 Q1013=
201903162200 METAR LRSB 162200Z 36007KT 9999 SCT033 07/03 Q1013=
201903162230 METAR LRSB 162230Z 36005KT 9999 SCT032 07/03 Q1013=
201903162300 METAR LRSB 162300Z 31005KT 280V350 9999 FEW032 BKN084 08/03
                        Q1013=
201903162330 METAR LRSB 162330Z 29010KT 9999 SCT083 08/02 Q1013=
201903170000 METAR LRSB 170000Z 30014KT 9999 SCT085 08/03 Q1013=
201903170030 METAR LRSB 170030Z 29015KT 9999 SCT085 08/03 Q1013=
201903170100 METAR LRSB 170100Z 29012KT 9999 SCT087 08/03 Q1013=
201903170130 METAR LRSB 170130Z 28011KT 9999 SCT072 08/03 Q1013=
201903170200 METAR LRSB 170200Z 28005KT 9999 BKN066 08/03 Q1013=
201903170230 METAR LRSB 170230Z 08003KT 060V120 9999 BKN066 SCT087 07/03
                        Q1013=
201903170300 METAR LRSB 170300Z 10003KT 070V130 9999 BKN063 SCT085 06/02
                        Q1014=
201903170330 METAR LRSB 170330Z VRB02KT 9999 FEW030 BKN058 07/03 Q1014=
201903170400 METAR LRSB 170400Z 13004KT 9999 FEW030 OVC054 06/03 Q1014=
201903170430 METAR LRSB 170430Z 10004KT 9999 SCT054 BKN068 06/03 Q1014=
201903170500 METAR LRSB 170500Z 09005KT 9999 SCT053 BKN065 07/03 Q1014=
201903170530 METAR LRSB 170530Z 12003KT 9999 SCT053 SCT065 07/03 Q1014=
201903170600 METAR LRSB 170600Z 11003KT 9999 SCT053 BKN068 08/03 Q1015=
201903170630 METAR LRSB 170630Z 11004KT 9999 BKN054 08/03 Q1015=
201903170700 METAR LRSB 170700Z 09003KT 9999 BKN054 09/04 Q1015=
201903170730 METAR COR LRSB 170730Z 06003KT 9999 BKN058 10/04 Q1015=
201903170800 METAR LRSB 170800Z 08003KT 9999 BKN060 12/04 Q1015=
201903170830 METAR LRSB 170830Z 03003KT 9999 SCT070 13/04 Q1015=
201903170900 METAR LRSB 170900Z 02003KT CAVOK 15/05 Q1015=
201903170930 METAR LRSB 170930Z 12005KT 060V170 CAVOK 15/05 Q1014=
201903171000 METAR LRSB 171000Z VRB02KT CAVOK 16/04 Q1014=
201903171030 METAR LRSB 171030Z 34004KT CAVOK 17/04 Q1014=
201903171100 METAR LRSB 171100Z 20004KT 120V260 CAVOK 17/04 Q1014=
201903171130 METAR LRSB 171130Z 31007KT 280V010 CAVOK 18/03 Q1014=
201903171200 METAR LRSB 171200Z 32005KT 290V350 CAVOK 18/03 Q1013=
201903171230 METAR LRSB 171230Z 30007KT CAVOK 19/02 Q1013=
201903171300 METAR LRSB 171300Z 33005KT 270V020 CAVOK 19/01 Q1013=
201903171330 METAR LRSB 171330Z VRB06KT CAVOK 20/01 Q1013=
201903171400 METAR LRSB 171400Z 30005KT 250V040 CAVOK 20/01 Q1012=
201903171430 METAR LRSB 171430Z 29007KT 260V320 CAVOK 20/00 Q1012=
201903171500 METAR LRSB 171500Z 31006KT CAVOK 20/01 Q1012=
201903171530 METAR LRSB 171530Z 32005KT CAVOK 19/01 Q1012=
201903171600 METAR LRSB 171600Z 08003KT CAVOK 17/02 Q1012=
201903171630 METAR LRSB 171630Z 35003KT CAVOK 15/02 Q1012=
201903171700 METAR LRSB 171700Z 24005KT CAVOK 13/03 Q1012=
201903171730 METAR LRSB 171730Z VRB02KT CAVOK 11/03 Q1012=
201903171800 METAR LRSB 171800Z VRB02KT CAVOK 09/02 Q1012=
201903171830 METAR LRSB 171830Z 26004KT CAVOK 08/02 Q1012=
201903171900 METAR LRSB 171900Z 24003KT 120V270 CAVOK 07/M00 Q1012=
201903171930 METAR LRSB 171930Z 29004KT CAVOK 07/M02 Q1012=
201903172000 METAR LRSB 172000Z VRB02KT CAVOK 07/M03 Q1012=
201903172030 METAR LRSB 172030Z VRB02KT CAVOK 04/M03 Q1012=
201903172100 METAR LRSB 172100Z 32002KT CAVOK 04/M02 Q1012=
201903172130 METAR LRSB 172130Z VRB02KT CAVOK 05/M01 Q1012=
201903172200 METAR LRSB 172200Z VRB02KT CAVOK 05/M01 Q1012=
201903172230 METAR LRSB 172230Z VRB02KT CAVOK 00/M03 Q1012=
201903172300 METAR LRSB 172300Z AUTO VRB02KT 9999 NCD 02/M03 Q1012=
201903172330 METAR LRSB 172330Z VRB01KT CAVOK 01/M02 Q1012=
201903180000 METAR LRSB 180000Z VRB02KT CAVOK 02/M03 Q1012=
201903180030 METAR LRSB 180030Z VRB05KT CAVOK 03/M03 Q1011=
201903180100 METAR COR LRSB 180100Z 00000KT CAVOK 01/M03 Q1011=
201903180130 METAR LRSB 180130Z 00000KT CAVOK 02/M03 Q1011=
201903180200 METAR LRSB 180200Z 00000KT CAVOK 02/M03 Q1011=
201903180230 METAR LRSB 180230Z 00000KT CAVOK 01/M02 Q1011=
201903180300 METAR LRSB 180300Z 25003KT 160V300 CAVOK 00/M03 Q1011=
201903180330 METAR LRSB 180330Z AUTO 23005KT 9999 NCD 00/M02 Q1011=
201903180400 METAR LRSB 180400Z 21003KT 160V230 CAVOK 02/M02 Q1011=
201903180430 METAR LRSB 180430Z 30003KT 280V340 CAVOK 01/M03 Q1011=
201903180500 METAR LRSB 180500Z VRB01KT CAVOK 02/M02 Q1012=
201903180530 METAR LRSB 180530Z 33004KT 270V010 CAVOK 05/01 Q1012=
201903180600 METAR LRSB 180600Z 21003KT CAVOK 05/00 Q1012=
201903180630 METAR LRSB 180630Z VRB02KT CAVOK 08/01 Q1013=
201903180700 METAR LRSB 180700Z VRB02KT CAVOK 12/02 Q1013=
201903180730 METAR LRSB 180730Z 09004KT 050V130 CAVOK 13/02 Q1013=
201903180800 METAR LRSB 180800Z 04004KT 330V100 CAVOK 14/02 Q1013=
201903180830 METAR LRSB 180830Z 35005KT 300V060 CAVOK 16/03 Q1012=
201903180900 METAR LRSB 180900Z 32005KT 270V360 CAVOK 17/03 Q1012=
201903180930 METAR LRSB 180930Z 36007KT 350V050 CAVOK 18/04 Q1013=
201903181000 METAR LRSB 181000Z VRB02KT CAVOK 19/04 Q1013=
201903181030 METAR LRSB 181030Z VRB04KT CAVOK 19/04 Q1013=
201903181100 METAR LRSB 181100Z VRB04KT CAVOK 19/03 Q1012=
201903181130 METAR LRSB 181130Z 36004KT 290V080 CAVOK 20/03 Q1012=
201903181200 METAR LRSB 181200Z 02006KT 340V050 CAVOK 20/03 Q1012=
201903181230 METAR LRSB 181230Z 01005KT 310V070 CAVOK 20/03 Q1011=
201903181300 METAR LRSB 181300Z 32006KT 290V350 CAVOK 20/03 Q1011=
201903181330 METAR LRSB 181330Z 35006KT 290V020 CAVOK 20/03 Q1011=
201903181400 METAR LRSB 181400Z 30004KT 270V340 CAVOK 21/03 Q1011=
201903181430 METAR LRSB 181430Z VRB02KT CAVOK 21/03 Q1010=
201903181500 METAR LRSB 181500Z 35006KT CAVOK 20/03 Q1010=
201903181530 METAR LRSB 181530Z 33008KT CAVOK 19/04 Q1011=
201903181600 METAR LRSB 181600Z 30009KT CAVOK 18/04 Q1011=
201903181630 METAR LRSB 181630Z 28008KT CAVOK 15/04 Q1012=
201903181700 METAR LRSB 181700Z 26007KT CAVOK 12/05 Q1012=
201903181730 METAR LRSB 181730Z 26008KT CAVOK 11/05 Q1012=
201903181800 METAR LRSB 181800Z 26009KT CAVOK 11/05 Q1013=
201903181830 METAR LRSB 181830Z 25009KT CAVOK 11/04 Q1013 NOSIG=
201903181900 METAR LRSB 181900Z 28005KT CAVOK 12/04 Q1013 NOSIG=
201903181930 METAR LRSB 181930Z 27009KT CAVOK 11/03 Q1014 NOSIG=
201903182000 METAR LRSB 182000Z 26009KT CAVOK 10/03 Q1014 NOSIG=
201903182030 METAR LRSB 182030Z 26010KT CAVOK 09/03 Q1014 NOSIG=
201903182130 METAR COR LRSB 182130Z 27009KT CAVOK 09/03 Q1015 NOSIG=
201903182200 METAR LRSB 182200Z 27008KT CAVOK 08/03 Q1015 NOSIG=
201903182230 METAR LRSB 182230Z 27008KT CAVOK 08/03 Q1015 NOSIG=
201903182300 METAR LRSB 182300Z 26006KT CAVOK 08/03 Q1016 NOSIG=
201903182330 METAR LRSB 182330Z 24003KT CAVOK 07/03 Q1016 NOSIG=
201903190000 METAR LRSB 190000Z 24005KT CAVOK 07/03 Q1016 NOSIG=
201903190030 METAR LRSB 190030Z VRB02KT CAVOK 07/03 Q1016 NOSIG=
201903190100 METAR LRSB 190100Z VRB02KT CAVOK 07/03 Q1016 NOSIG=
201903190130 METAR LRSB 190130Z 01002KT CAVOK 06/03 Q1016 NOSIG=
201903190200 METAR LRSB 190200Z AUTO 02004KT 9999 FEW093/// 06/03 Q1016
                        NOSIG=
201903190230 METAR LRSB 190230Z 26003KT 230V300 CAVOK 05/02 Q1016 NOSIG=
201903190300 METAR LRSB 190300Z 22003KT CAVOK 05/03 Q1016 NOSIG=
201903190330 METAR LRSB 190330Z 27006KT CAVOK 05/02 Q1017 NOSIG=
201903190400 METAR LRSB 190400Z 25004KT CAVOK 03/01 Q1017 NOSIG=
201903190430 METAR LRSB 190430Z 28003KT 240V300 CAVOK 04/02 Q1018 NOSIG=
201903190500 METAR LRSB 190500Z 27004KT 9999 SCT036 05/03 Q1018 NOSIG=
201903190530 METAR LRSB 190530Z 31003KT 9999 SCT036 06/04 Q1018 NOSIG=
201903190600 METAR LRSB 190600Z 28002KT 9999 SCT040 07/05 Q1018 NOSIG=
201903190630 METAR LRSB 190630Z 32003KT 9999 SCT043 08/05 Q1019=
201903190700 METAR LRSB 190700Z 33003KT 9999 SCT043 08/04 Q1019=
201903190730 METAR LRSB 190730Z 36004KT 320V030 9999 FEW040 09/05 Q1019=
201903190800 METAR LRSB 190800Z 33004KT 300V020 9999 FEW030 10/05 Q1019=
201903190830 METAR LRSB 190830Z 34004KT 290V050 9999 FEW028 11/04 Q1019=
201903190900 METAR LRSB 190900Z 36005KT 330V040 9999 FEW050 11/05 Q1019=
201903190930 METAR LRSB 190930Z 36004KT 300V060 9999 FEW050 11/04 Q1019=
201903191000 METAR LRSB 191000Z VRB03KT 9999 FEW048 12/05 Q1019=
201903191030 METAR LRSB 191030Z 03005KT 310V080 9999 FEW047 13/05 Q1018=
201903191100 METAR LRSB 191100Z 34005KT 290V030 9999 FEW050 13/05 Q1018=
201903191130 METAR LRSB 191130Z VRB05KT 9999 FEW034 SCT084 13/05 Q1018=
201903191200 METAR LRSB 191200Z 31003KT 220V030 9999 FEW035 SCT085 14/05
                        Q1018=
201903191230 METAR LRSB 191230Z 34006KT 300V010 9999 SCT035 FEW040CB BKN075
                        14/05 Q1018=
201903191300 METAR LRSB 191300Z 33004KT 300V020 9999 SCT035 FEW038CB BKN070
                        14/05 Q1018=
201903191330 METAR LRSB 191330Z 36008KT 9999 VCSH SCT034 FEW038CB BKN066
                        13/05 Q1018=
201903191400 METAR LRSB 191400Z 30012KT 9999 VCSH FEW037CB SCT040 BKN062
                        12/06 Q1018=
201903191430 METAR LRSB 191430Z 31012KT 8000 -SHRA SCT035CB BKN050 11/06
                        Q1019=
201903191500 METAR LRSB 191500Z 31009KT 9000 -SHRA SCT035CB BKN050 10/06
                        Q1019=
201903191530 METAR LRSB 191530Z 31009KT 9999 4000SW -SHRA FEW013 SCT035CB
                        BKN045 10/06 Q1020=
201903191600 METAR LRSB 191600Z 30010KT 5000 -SHRA BR SCT010 SCT030CB
                        OVC040 09/07 Q1020 R27/19//95=
201903191630 METAR LRSB 191630Z 30006KT 270V350 3000 RA BR FEW007 SCT022CB
                        OVC035 08/07 Q1021 R27/29//95=
201903191700 METAR LRSB 191700Z 34006KT 5000 -SHRA BR SCT007 SCT020CB
                        OVC025 08/06 Q1021 RERA R27/29//95=
201903191730 METAR COR LRSB 191730Z 35006KT 6000 FEW007 FEW024CB BKN025
                        07/06 Q1022 R27/29//95=
201903191800 METAR LRSB 191800Z 35004KT 6000 BKN008 BKN023 07/06 Q1022
                        R27/29//95=
201903191830 METAR LRSB 191830Z 33004KT 7000 BKN007 BKN022 07/06 Q1022
                        R27/29//95=
201903191900 METAR LRSB 191900Z 36004KT 7000 FEW004 SCT007 BKN023 07/06
                        Q1023 R27/29//95=
201903191930 METAR LRSB 191930Z 01003KT 7000 SCT010 BKN025 07/06 Q1023
                        R27/29//95=
201903192000 METAR LRSB 192000Z 36003KT 8000 BKN013 BKN026 07/06 Q1023
                        R27/29//95=
201903192030 METAR LRSB 192030Z 00000KT 7000 SCT016 BKN027 07/06 Q1023
                        R27/29//95=
201903192100 METAR LRSB 192100Z 22002KT 7000 FEW016 OVC026 07/06 Q1023
                        R27/29//95=
201903192130 METAR LRSB 192130Z 25004KT 6000 FEW015 OVC026 07/06 Q1024
                        R27/29//95=
201903192200 METAR LRSB 192200Z 25005KT 6000 OVC024 07/06 Q1024 R27/29//95=
201903192230 METAR LRSB 192230Z 25003KT 7000 OVC024 07/06 Q1024 R27/CLRD//=
201903192300 METAR LRSB 192300Z 24002KT 7000 OVC025 07/06 Q1024=
201903192330 METAR LRSB 192330Z VRB02KT 8000 OVC025 07/06 Q1024=
201903200000 METAR LRSB 200000Z 00000KT 8000 BKN025 07/06 Q1024=
201903200030 METAR LRSB 200030Z 00000KT 9000 BKN025 07/05 Q1024=
201903200100 METAR LRSB 200100Z 00000KT 9000 BKN026 07/05 Q1024=
201903200130 METAR LRSB 200130Z 00000KT 8000 BKN026 07/05 Q1024=
201903200200 METAR LRSB 200200Z 00000KT 7000 BKN025 07/05 Q1024=
201903200230 METAR LRSB 200230Z 00000KT 8000 BKN025 07/05 Q1024=
201903200300 METAR LRSB 200300Z 00000KT 8000 OVC026 07/05 Q1024=
201903200330 METAR LRSB 200330Z 00000KT 6000 FEW020 BKN027 07/06 Q1025=
201903200400 METAR LRSB 200400Z 00000KT 6000 SCT022 BKN030 07/06 Q1025=
201903200430 METAR LRSB 200430Z 00000KT 6000 SCT020 BKN030 07/06 Q1025=
201903200500 METAR LRSB 200500Z 00000KT 7000 SCT020 BKN029 07/06 Q1025=
201903200530 METAR LRSB 200530Z 00000KT 8000 FEW020 BKN028 07/06 Q1025=
201903200600 METAR LRSB 200600Z 00000KT 8000 OVC027 07/06 Q1026=
201903200630 METAR LRSB 200630Z 04002KT 9999 OVC028 07/04 Q1026=
201903200700 METAR LRSB 200700Z 06003KT 020V080 9999 OVC029 07/03 Q1026=
201903200730 METAR LRSB 200730Z 01003KT 330V030 9999 OVC029 08/04 Q1027=
201903200800 METAR LRSB 200800Z 35006KT 320V020 9999 OVC027 07/03 Q1027=
201903200830 METAR LRSB 200830Z 35006KT 9999 OVC028 08/03 Q1027=
201903200900 METAR LRSB 200900Z 33005KT 9999 OVC025 07/03 Q1027=
201903200930 METAR LRSB 200930Z 35006KT 9999 OVC022 08/03 Q1027=
201903201000 METAR LRSB 201000Z 35007KT 9999 OVC021 08/03 Q1028=
201903201030 METAR LRSB 201030Z 34007KT 9999 OVC024 08/02 Q1028=
201903201100 METAR LRSB 201100Z 35008KT 9999 OVC023 07/02 Q1028=
201903201130 METAR LRSB 201130Z 34005KT 310V010 9999 OVC025 07/03 Q1028=
201903201200 METAR LRSB 201200Z 35007KT 9999 OVC026 07/03 Q1028=
201903201230 METAR LRSB 201230Z 35005KT 9999 -RA OVC027 07/03 Q1028 R27/19//95=
201903201300 METAR LRSB 201300Z 34006KT 9999 -RA BKN020 BKN026 07/03 Q1028
                        R27/19//95=
201903201330 METAR LRSB 201330Z 33004KT 9999 SCT019 BKN024 07/03 Q1029
                        R27/19//95=
201903201400 METAR LRSB 201400Z 32004KT 9999 SCT020 OVC026 07/03 Q1029
                        R27/19//95=
201903201430 METAR LRSB 201430Z VRB02KT 9999 SCT020 OVC026 07/03 Q1029
                        R27/19//95=
201903201500 METAR LRSB 201500Z 31003KT 280V340 9999 OVC026 07/03 Q1029
                        R27/19//95=
201903201530 METAR LRSB 201530Z 33003KT 9999 SCT020 BKN026 07/03 Q1029
                        R27/19//95=
201903201600 METAR LRSB 201600Z 35004KT 320V030 9999 BKN019 BKN022 07/03
                        Q1030 R27/CLRD//=
201903201630 METAR LRSB 201630Z 34004KT 7000 RA BKN017 BKN022 06/04 Q1030
                        R27/29//95=
201903201700 METAR LRSB 201700Z 33003KT 8000 -RA BKN018 OVC024 06/04 Q1030
                        R27/29//95=
201903201730 METAR LRSB 201730Z 36004KT 9000 -RA BKN018 BKN024 06/04 Q1030
                        R27/29//95=
201903201800 METAR LRSB 201800Z 35003KT 9999 -RA BKN019 BKN025 06/03 Q1031
                        R27/29//95=
201903201830 METAR LRSB 201830Z 34003KT 9999 -RA SCT020 BKN025 OVC033
                        06/04 Q1031 R27/29//95=
201903201900 METAR LRSB 201900Z 23002KT 9999 FEW020 BKN025 OVC033 06/04
                        Q1031 R27/29//95=
201903201930 METAR LRSB 201930Z 24003KT 9000 FEW022 SCT028 BKN035 06/04
                        Q1031 R27/29//95=
201903202000 METAR LRSB 202000Z 21004KT 7000 -RA BKN034 OVC047 06/04 Q1031
                        R27/29//95=
201903202030 METAR LRSB 202030Z 23003KT 7000 -RA BKN035 OVC048 06/04 Q1031
                        R27/29//95=
201903202100 METAR LRSB 202100Z 18002KT 7000 -RA BKN036 BKN049 05/04 Q1031
                        R27/29//95=
201903202130 METAR LRSB 202130Z 00000KT 8000 BKN037 BKN050 05/04 Q1031
                        R27/29//95=
201903202200 METAR LRSB 202200Z VRB02KT 7000 -RA BKN036 OVC050 06/04 Q1031
                        R27/29//95=
201903202230 METAR LRSB 202230Z 36001KT 8000 BKN035 OVC046 06/04 Q1031
                        R27/29//95=
201903202300 METAR LRSB 202300Z VRB02KT 7000 -RA BKN036 OVC045 05/04 Q1031
                        R27/29//95=
201903202330 METAR LRSB 202330Z 23002KT 6000 -RA BKN035 OVC045 05/04 Q1032
                        R27/29//95=
201903210000 METAR LRSB 210000Z 00000KT 5000 BR SCT034 OVC041 05/04 Q1032
                        R27/29//95=
201903210030 METAR LRSB 210030Z 00000KT 5000 -RA BR OVC038 05/04 Q1032
                        R27/29//95=
201903210100 METAR LRSB 210100Z 19002KT 4000 -SHRA BR FEW030CB OVC038
                        05/04 Q1031 R27/29//95=
201903210130 METAR LRSB 210130Z 20002KT 5000 BR FEW032CB OVC042 05/04
                        Q1031 R27/29//95=
201903210200 METAR LRSB 210200Z 00000KT 5000 BR OVC045 05/04 Q1031 R27/29//95=
201903210230 METAR LRSB 210230Z 13001KT 5000 BR OVC045 05/04 Q1031 R27/29//95=
201903210300 METAR LRSB 210300Z 00000KT 6000 OVC044 05/04 Q1031 R27/29//95=
201903210330 METAR LRSB 210330Z 12002KT 7000 OVC044 05/04 Q1032 R27/29//95=
201903210400 METAR LRSB 210400Z 17002KT 9999 OVC044 05/04 Q1031 R27/29//95=
201903210430 METAR LRSB 210430Z 16002KT 9999 OVC043 05/03 Q1032 R27/29//95=
201903210500 METAR LRSB 210500Z 11001KT 9999 SCT045 05/03 Q1032 R27/29//95=
201903210530 METAR LRSB 210530Z 08001KT 9999 SCT044 05/04 Q1032 R27/29//95=
201903210600 METAR LRSB 210600Z 00000KT 6000 FEW010 BKN043 06/04 Q1032
                        R27/29//95=
201903210630 METAR LRSB 210630Z 36003KT 5000 BR FEW010 BKN043 06/04 Q1033
                        R27/29//95 TEMPO 3000 BR=
201903210700 METAR COR LRSB 210700Z VRB01KT 6000 FEW010 OVC044 06/04 Q1033
                        R27/29//95 NOSIG=
201903210730 METAR LRSB 210730Z 30003KT 6000 FEW006 BKN044 06/04 Q1033
                        R27/29//95 NOSIG=
201903210800 METAR LRSB 210800Z 27003KT 240V310 8000 FEW008 BKN045 07/04
                        Q1033 R27/29//95 NOSIG=
201903210830 METAR COR LRSB 210830Z VRB02KT 9999 FEW009 BKN052 08/05 Q1033
                        R27/29//95 NOSIG=
201903210900 METAR LRSB 210900Z VRB02KT 9999 FEW012 SCT050 09/03 Q1033
                        R27/29//95 NOSIG=
201903210930 METAR LRSB 210930Z VRB03KT 9999 SCT025 10/04 Q1032 R27/29//95
                        NOSIG=
201903211000 METAR COR LRSB 211000Z VRB02KT 9999 SCT023 SCT045 10/04 Q1032
                        R27/29//95 NOSIG=
201903211030 METAR LRSB 211030Z 06003KT 340V140 9999 SCT027 SCT037 11/03
                        Q1032 R27/29//95 NOSIG=
201903211100 METAR LRSB 211100Z VRB03KT 9999 SCT028 SCT037 11/03 Q1032
                        R27/29//95 NOSIG=
201903211130 METAR LRSB 211130Z VRB03KT 9999 SCT030 SCT039 11/02 Q1032
                        R27/29//95 NOSIG=
201903211200 METAR COR LRSB 211200Z VRB03KT 9999 SCT035 12/03 Q1031 R27/CLRD//
                        NOSIG=
201903211230 METAR LRSB 211230Z 35006KT 300V360 9999 SCT036 12/02 Q1031
                        NOSIG=
201903211300 METAR LRSB 211300Z AUTO 36007KT 9999 FEW041/// 12/02 Q1031
                        NOSIG=
201903211330 METAR LRSB 211330Z 35008KT 290V010 9999 FEW040 12/01 Q1030
                        NOSIG=
201903211400 METAR COR LRSB 211400Z 35006KT 310V020 9999 FEW043 12/00
                        Q1030 NOSIG=
201903211430 METAR LRSB 211430Z 34007KT 9999 FEW045 12/00 Q1030 NOSIG=
201903211500 METAR COR LRSB 211500Z 34006KT 9999 FEW046 12/01 Q1030 NOSIG=
201903211530 METAR LRSB 211530Z 36006KT 9999 FEW045 11/01 Q1030 NOSIG=
201903211600 METAR LRSB 211600Z 01005KT 9999 FEW046 11/02 Q1030 NOSIG=
201903211630 METAR LRSB 211630Z 02004KT 9999 FEW046 10/02 Q1031 NOSIG=
201903211700 METAR LRSB 211700Z 02003KT 330V040 CAVOK 10/02 Q1031 NOSIG=
201903211730 METAR LRSB 211730Z 01004KT CAVOK 09/02 Q1031 NOSIG=
201903211800 METAR LRSB 211800Z 25004KT CAVOK 05/02 Q1031=
201903211830 METAR LRSB 211830Z 27006KT CAVOK 06/02 Q1031=
201903211900 METAR LRSB 211900Z 27006KT CAVOK 05/02 Q1031=
201903211930 METAR LRSB 211930Z 27008KT CAVOK 05/02 Q1031=
201903212000 METAR LRSB 212000Z 26008KT CAVOK 05/02 Q1031=
201903212030 METAR LRSB 212030Z 23004KT 170V270 CAVOK 04/01 Q1031=
201903212100 METAR LRSB 212100Z 28004KT 250V310 CAVOK 04/01 Q1031=
201903212130 METAR LRSB 212130Z 27006KT CAVOK 04/01 Q1031=
201903212200 METAR LRSB 212200Z 27007KT 9999 BKN038 05/01 Q1031=
201903212230 METAR LRSB 212230Z 24003KT 180V280 9999 OVC039 04/01 Q1032=
201903212300 METAR LRSB 212300Z 27007KT 9999 SCT040 04/01 Q1032=
201903212330 METAR LRSB 212330Z 27007KT 9999 FEW039 04/01 Q1032=
201903220000 METAR LRSB 220000Z 26007KT CAVOK 03/00 Q1032=
201903220030 METAR LRSB 220030Z AUTO 25004KT 9999 NCD 02/M00 Q1031=
201903220100 METAR LRSB 220100Z AUTO 23003KT 190V260 9999 NCD 01/M01 Q1031=
201903220130 METAR LRSB 220130Z AUTO VRB02KT 9999 FEW180/// 02/M00 Q1031=
201903220200 METAR LRSB 220200Z 17002KT CAVOK 01/M01 Q1031=
201903220230 METAR LRSB 220230Z 00000KT CAVOK M00/M02 Q1031=
201903220300 METAR LRSB 220300Z VRB01KT CAVOK 01/M01 Q1031=
201903220330 METAR LRSB 220330Z 14001KT CAVOK 01/M00 Q1031=
201903220400 METAR LRSB 220400Z VRB01KT CAVOK 00/M01 Q1031=
201903220430 METAR LRSB 220430Z 22001KT CAVOK 02/M01 Q1031=
201903220500 METAR LRSB 220500Z 00000KT CAVOK 01/M01 Q1031=
201903220530 METAR LRSB 220530Z 00000KT CAVOK 03/M00 Q1031=
201903220600 METAR LRSB 220600Z 00000KT CAVOK 04/01 Q1031=
201903220630 METAR LRSB 220630Z VRB02KT CAVOK 05/02 Q1031=
201903220700 METAR LRSB 220700Z VRB01KT CAVOK 07/M00 Q1031=
201903220730 METAR LRSB 220730Z VRB02KT CAVOK 09/M01 Q1031=
201903220800 METAR LRSB 220800Z VRB02KT CAVOK 11/M04 Q1031=
201903220830 METAR LRSB 220830Z VRB03KT CAVOK 11/M03 Q1031=
201903220900 METAR LRSB 220900Z 07004KT 030V120 CAVOK 12/M04 Q1031=
201903220930 METAR LRSB 220930Z VRB03KT CAVOK 13/M02 Q1030=
201903221000 METAR LRSB 221000Z VRB03KT CAVOK 12/M01 Q1030=
201903221030 METAR LRSB 221030Z VRB04KT CAVOK 14/M00 Q1030=
201903221100 METAR LRSB 221100Z VRB05KT CAVOK 13/M02 Q1029=
201903221130 METAR LRSB 221130Z 01007KT CAVOK 14/M02 Q1029=
201903221200 METAR LRSB 221200Z 04003KT 320V120 CAVOK 14/M02 Q1029=
201903221230 METAR LRSB 221230Z 02006KT 340V070 CAVOK 14/M01 Q1028=
201903221300 METAR LRSB 221300Z 34005KT 300V010 CAVOK 15/M02 Q1028=
201903221330 METAR LRSB 221330Z 36005KT 290V040 CAVOK 14/M03 Q1028=
201903221400 METAR LRSB 221400Z 34007KT 300V010 CAVOK 15/M03 Q1027=
201903221430 METAR LRSB 221430Z 36007KT CAVOK 14/M03 Q1027=
201903221500 METAR LRSB 221500Z 35006KT CAVOK 14/M02 Q1027=
201903221530 METAR LRSB 221530Z 34004KT CAVOK 14/M02 Q1027=
201903221600 METAR LRSB 221600Z 30004KT CAVOK 14/M02 Q1027=
201903221630 METAR LRSB 221630Z 31006KT CAVOK 12/M02 Q1027=
201903221700 METAR LRSB 221700Z 28004KT CAVOK 10/01 Q1027=
201903221730 METAR LRSB 221730Z 30005KT CAVOK 10/01 Q1027=
201903221800 METAR COR LRSB 221800Z 29003KT CAVOK 07/01 Q1027 NOSIG=
201903221830 METAR LRSB 221830Z 25006KT CAVOK 07/01 Q1028 NOSIG=
201903221900 METAR LRSB 221900Z 28006KT CAVOK 08/02 Q1028 NOSIG=
201903221930 METAR LRSB 221930Z 27007KT CAVOK 07/01 Q1028 NOSIG=
201903222000 METAR LRSB 222000Z 27008KT CAVOK 07/01 Q1028 NOSIG=
201903222030 METAR LRSB 222030Z 26008KT CAVOK 06/01 Q1028 NOSIG=
201903222100 METAR LRSB 222100Z 26008KT CAVOK 06/01 Q1028 NOSIG=
201903222130 METAR LRSB 222130Z 27009KT CAVOK 06/01 Q1028 NOSIG=
201903222200 METAR LRSB 222200Z VRB07KT CAVOK 05/01 Q1028 NOSIG=
201903222230 METAR LRSB 222230Z 26008KT CAVOK 06/01 Q1028 NOSIG=
201903222300 METAR LRSB 222300Z 26008KT CAVOK 05/01 Q1028 NOSIG=
201903222330 METAR LRSB 222330Z 24005KT 140V270 CAVOK 04/00 Q1027 NOSIG=
201903230000 METAR LRSB 230000Z VRB01KT CAVOK 03/00 Q1027 NOSIG=
201903230030 METAR LRSB 230030Z 25003KT 9999 FEW040 03/01 Q1027 NOSIG=
201903230100 METAR LRSB 230100Z VRB01KT 9999 FEW040 03/00 Q1027 NOSIG=
201903230130 METAR LRSB 230130Z VRB02KT 9999 SCT039 03/00 Q1027 NOSIG=
201903230200 METAR LRSB 230200Z 00000KT 9999 BKN039 03/01 Q1027 NOSIG=
201903230230 METAR LRSB 230230Z 09002KT 9999 OVC039 03/01 Q1026 NOSIG=
201903230300 METAR LRSB 230300Z 11002KT 9999 BKN035 04/01 Q1026 NOSIG=
201903230330 METAR LRSB 230330Z 07002KT 9999 BKN035 03/00 Q1026 NOSIG=
201903230400 METAR LRSB 230400Z 04002KT 9000 BKN035 03/00 Q1026 NOSIG=
201903230430 METAR LRSB 230430Z 00000KT 9000 BKN035 03/01 Q1026 NOSIG=
201903230500 METAR LRSB 230500Z 00000KT 9000 FEW035 02/00 Q1026 NOSIG=
201903230530 METAR LRSB 230530Z 25002KT 9000 NSC 04/02 Q1026 NOSIG=
201903230600 METAR LRSB 230600Z 10002KT 8000 NSC 05/02 Q1026 NOSIG=
201903230630 METAR LRSB 230630Z 07003KT 9000 NSC 06/03 Q1026=
201903230700 METAR LRSB 230700Z VRB02KT 9000 NSC 08/03 Q1026=
201903230730 METAR LRSB 230730Z VRB01KT CAVOK 09/03 Q1026=
201903230800 METAR LRSB 230800Z 36004KT 9999 FEW065 10/04 Q1026=
201903230830 METAR LRSB 230830Z 36004KT 320V050 9999 FEW065 10/04 Q1026=
201903230900 METAR LRSB 230900Z 02007KT 9999 FEW070 10/03 Q1026=
201903230930 METAR LRSB 230930Z 36006KT 9999 FEW034 11/04 Q1026=
201903231000 METAR LRSB 231000Z 01005KT 330V050 9999 FEW037 11/04 Q1025=
201903231030 METAR LRSB 231030Z 35005KT 290V060 9999 FEW040 12/03 Q1025=
201903231100 METAR LRSB 231100Z 36006KT 330V030 9999 FEW042 13/02 Q1025=
201903231130 METAR LRSB 231130Z 01005KT 330V040 CAVOK 13/01 Q1025=
201903231200 METAR LRSB 231200Z 01004KT 310V050 CAVOK 14/01 Q1024=
201903231230 METAR LRSB 231230Z 02006KT CAVOK 14/M00 Q1024=
201903231300 METAR LRSB 231300Z 36005KT 330V030 CAVOK 15/M01 Q1024=
201903231330 METAR LRSB 231330Z 36007KT 340V040 CAVOK 15/01 Q1023=
201903231400 METAR LRSB 231400Z 04006KT 360V080 CAVOK 15/M00 Q1023=
201903231430 METAR LRSB 231430Z 01005KT 340V060 CAVOK 15/M00 Q1023=
201903231500 METAR LRSB 231500Z 35005KT 290V040 CAVOK 15/M01 Q1023=
201903231530 METAR LRSB 231530Z 36007KT CAVOK 14/M01 Q1023=
201903231600 METAR LRSB 231600Z 01004KT CAVOK 14/M01 Q1023=
201903231630 METAR LRSB 231630Z 04003KT CAVOK 12/M01 Q1023=
201903231700 METAR LRSB 231700Z 00000KT CAVOK 10/M01 Q1023=
201903231730 METAR LRSB 231730Z 25006KT CAVOK 06/01 Q1023=
201903231800 METAR LRSB 231800Z 26008KT CAVOK 07/01 Q1023=
201903231830 METAR LRSB 231830Z 26009KT CAVOK 07/01 Q1023=
201903231900 METAR LRSB 231900Z 25009KT CAVOK 07/01 Q1024=
201903231930 METAR LRSB 231930Z 25007KT CAVOK 06/01 Q1024=
201903232000 METAR LRSB 232000Z 26006KT CAVOK 06/00 Q1024=
201903232030 METAR LRSB 232030Z 26008KT CAVOK 06/M00 Q1024=
201903232100 METAR LRSB 232100Z 26009KT CAVOK 06/M01 Q1024=
201903232130 METAR LRSB 232130Z 27009KT CAVOK 06/M01 Q1024=
201903232200 METAR LRSB 232200Z 26009KT CAVOK 06/M01 Q1024=
201903232230 METAR LRSB 232230Z 24007KT 200V260 CAVOK 04/M02 Q1024=
201903232300 METAR LRSB 232300Z 25003KT 210V280 CAVOK 05/M02 Q1024=
201903232330 METAR LRSB 232330Z VRB02KT CAVOK 04/M02 Q1024=
201903240000 METAR LRSB 240000Z 13003KT CAVOK 03/M01 Q1023=
201903240030 METAR LRSB 240030Z VRB01KT CAVOK 03/M02 Q1023=
201903240100 METAR COR LRSB 240100Z 10002KT CAVOK 02/M01 Q1023=
201903240130 METAR LRSB 240130Z 09002KT CAVOK 03/M01 Q1023=
201903240200 METAR LRSB 240200Z 11003KT CAVOK 03/M01 Q1023=
201903240230 METAR LRSB 240230Z 09002KT CAVOK 01/M02 Q1023=
201903240300 METAR LRSB 240300Z AUTO 00000KT 9999 NCD 00/M03 Q1023=
201903240330 METAR LRSB 240330Z 06001KT CAVOK 00/M02 Q1023=
201903240400 METAR COR LRSB 240400Z 06002KT CAVOK 01/M03 Q1023=
201903240430 METAR LRSB 240430Z 03002KT CAVOK 01/M04 Q1023=
201903240500 METAR LRSB 240500Z VRB01KT CAVOK 00/M03 Q1023=
201903240530 METAR LRSB 240530Z 08002KT CAVOK 02/M01 Q1023=
201903240600 METAR LRSB 240600Z 08004KT CAVOK 04/M01 Q1023=
201903240630 METAR LRSB 240630Z 09004KT CAVOK 06/M02 Q1023=
201903240700 METAR LRSB 240700Z 08003KT 040V100 CAVOK 08/M03 Q1023=
201903240730 METAR LRSB 240730Z VRB02KT CAVOK 11/M02 Q1023=
201903240800 METAR LRSB 240800Z VRB02KT CAVOK 12/M04 Q1023=
201903240830 METAR LRSB 240830Z VRB02KT CAVOK 14/M04 Q1023=
201903240900 METAR LRSB 240900Z VRB02KT CAVOK 14/M05 Q1022=
201903240930 METAR LRSB 240930Z VRB02KT CAVOK 16/M06 Q1022=
201903241000 METAR LRSB 241000Z 02005KT 350V050 CAVOK 16/M05 Q1021=
201903241030 METAR LRSB 241030Z 36003KT 300V100 CAVOK 17/M04 Q1021=
201903241100 METAR LRSB 241100Z 36009KT 330V030 CAVOK 17/M01 Q1021=
201903241130 METAR LRSB 241130Z 01005KT 340V050 CAVOK 17/M02 Q1020=
201903241200 METAR LRSB 241200Z VRB04KT CAVOK 18/M03 Q1020=
201903241230 METAR LRSB 241230Z VRB03KT CAVOK 18/M03 Q1019=
201903241300 METAR LRSB 241300Z 36005KT 310V030 CAVOK 18/M03 Q1019=
201903241330 METAR LRSB 241330Z VRB04KT CAVOK 18/M03 Q1019=
201903241400 METAR LRSB 241400Z 31004KT 250V350 CAVOK 19/M03 Q1018=
201903241430 METAR LRSB 241430Z 35004KT 310V030 CAVOK 18/M03 Q1018=
201903241500 METAR LRSB 241500Z 01004KT 270V060 CAVOK 18/M02 Q1018=
201903241530 METAR LRSB 241530Z 35005KT 310V010 CAVOK 18/M01 Q1017=
201903241600 METAR LRSB 241600Z 01005KT CAVOK 17/M01 Q1017=
201903241630 METAR LRSB 241630Z 01005KT CAVOK 16/00 Q1017=
201903241700 METAR LRSB 241700Z 02004KT CAVOK 15/M01 Q1017=
201903241730 METAR LRSB 241730Z 22003KT 170V280 CAVOK 10/01 Q1017=
201903241800 METAR LRSB 241800Z 26007KT 9999 SCT080 10/03 Q1017 NOSIG=
201903241830 METAR LRSB 241830Z 27008KT 9999 FEW080 09/02 Q1017 NOSIG=
201903241900 METAR LRSB 241900Z 26008KT 9999 FEW080 09/02 Q1017 NOSIG=
201903241930 METAR LRSB 241930Z VRB02KT CAVOK 08/01 Q1017 NOSIG=
201903242000 METAR LRSB 242000Z VRB01KT CAVOK 07/01 Q1017 NOSIG=
201903242030 METAR LRSB 242030Z VRB01KT CAVOK 08/01 Q1017 NOSIG=
201903242100 METAR LRSB 242100Z VRB02KT CAVOK 08/01 Q1017 NOSIG=
201903242130 METAR LRSB 242130Z 00000KT CAVOK 05/01 Q1017 NOSIG=
201903242200 METAR LRSB 242200Z 06002KT CAVOK 06/01 Q1016 NOSIG=
201903242230 METAR LRSB 242230Z VRB02KT CAVOK 05/01 Q1016 NOSIG=
201903242300 METAR LRSB 242300Z VRB01KT CAVOK 07/00 Q1016 NOSIG=
201903242330 METAR LRSB 242330Z VRB01KT CAVOK 06/M00 Q1016 NOSIG=
201903250000 METAR LRSB 250000Z 07003KT CAVOK 07/M00 Q1016 NOSIG=
201903250030 METAR LRSB 250030Z 06002KT CAVOK 06/M00 Q1015 NOSIG=
201903250100 METAR LRSB 250100Z 05001KT CAVOK 05/M00 Q1015 NOSIG=
201903250130 METAR LRSB 250130Z VRB01KT CAVOK 05/M00 Q1014 NOSIG=
201903250200 METAR LRSB 250200Z VRB01KT CAVOK 03/M01 Q1014 NOSIG=
201903250230 METAR LRSB 250230Z 08003KT CAVOK 03/M01 Q1014 NOSIG=
201903250300 METAR LRSB 250300Z 08002KT CAVOK 03/M01 Q1013 NOSIG=
201903250330 METAR LRSB 250330Z 05002KT CAVOK 03/M01 Q1013 NOSIG=
201903250400 METAR LRSB 250400Z 00000KT CAVOK 03/M01 Q1013 NOSIG=
201903250430 METAR LRSB 250430Z VRB01KT CAVOK 02/M02 Q1013 NOSIG=
201903250500 METAR LRSB 250500Z VRB01KT CAVOK 03/M00 Q1013 NOSIG=
201903250530 METAR LRSB 250530Z VRB02KT CAVOK 05/01 Q1013 NOSIG=
201903250600 METAR LRSB 250600Z 09003KT CAVOK 07/01 Q1012 NOSIG=
201903250630 METAR LRSB 250630Z 10004KT CAVOK 09/01 Q1012=
201903250700 METAR LRSB 250700Z 08003KT 050V120 CAVOK 12/02 Q1012 NOSIG=
201903250730 METAR LRSB 250730Z 12003KT 050V180 CAVOK 14/03 Q1011 NOSIG=
201903250800 METAR LRSB 250800Z 02004KT 360V060 CAVOK 16/02 Q1011 NOSIG=
201903250830 METAR LRSB 250830Z 28009KT 250V310 CAVOK 18/01 Q1010 NOSIG=
201903250900 METAR LRSB 250900Z 29011KT CAVOK 18/01 Q1010 NOSIG=
201903250930 METAR LRSB 250930Z 32013KT CAVOK 18/M00 Q1010 NOSIG=
201903251000 METAR LRSB 251000Z 30019KT 9999 SCT045 19/00 Q1009 NOSIG=
201903251030 METAR LRSB 251030Z 31019KT 9999 SCT045 SCT085 17/M01 Q1009
                        NOSIG=
201903251100 METAR LRSB 251100Z 31023KT 9999 FEW045 SCT086 18/M01 Q1009
                        NOSIG=
201903251130 METAR LRSB 251130Z 31020KT CAVOK 18/01 Q1009 NOSIG=
201903251200 METAR LRSB 251200Z 31022KT 9999 FEW045 17/01 Q1009 NOSIG=
201903251230 METAR LRSB 251230Z 30023KT 9999 FEW045 17/01 Q1009 NOSIG=
201903251300 METAR LRSB 251300Z 30021KT CAVOK 17/M00 Q1008 NOSIG=
201903251330 METAR LRSB 251330Z 31021KT CAVOK 16/01 Q1008 NOSIG=
201903251400 METAR LRSB 251400Z 30021KT CAVOK 17/01 Q1008 NOSIG=
201903251430 METAR LRSB 251430Z 30017KT CAVOK 15/01 Q1009 NOSIG=
201903251500 METAR LRSB 251500Z 30019KT CAVOK 15/01 Q1009 NOSIG=
201903251530 METAR LRSB 251530Z 29014KT CAVOK 14/00 Q1009=
201903251600 METAR LRSB 251600Z 29013KT CAVOK 13/M00 Q1009=
201903251630 METAR LRSB 251630Z 31009KT CAVOK 12/01 Q1010=
201903251700 METAR LRSB 251700Z 29011KT CAVOK 11/01 Q1010=
201903251730 METAR LRSB 251730Z 26007KT CAVOK 09/01 Q1010=
201903251800 METAR LRSB 251800Z 26009KT CAVOK 09/01 Q1010=
201903251830 METAR LRSB 251830Z 25007KT CAVOK 09/01 Q1010=
201903251900 METAR LRSB 251900Z 24007KT CAVOK 08/01 Q1009=
201903251930 METAR LRSB 251930Z 24007KT CAVOK 07/01 Q1009=
201903252000 METAR LRSB 252000Z 24007KT CAVOK 08/00 Q1009=
201903252030 METAR LRSB 252030Z 27008KT CAVOK 06/00 Q1010=
201903252100 METAR LRSB 252100Z 33003KT 310V020 CAVOK 08/M00 Q1010=
201903252130 METAR LRSB 252130Z 31003KT 260V340 CAVOK 07/M01 Q1010=
201903252200 METAR LRSB 252200Z 27004KT 250V310 CAVOK 04/M01 Q1010=
201903252230 METAR LRSB 252230Z 24004KT CAVOK 03/M01 Q1010=
201903252300 METAR COR LRSB 252300Z VRB01KT 9999 FEW080 04/M00 Q1010=
201903252330 METAR LRSB 252330Z 26003KT 9999 FEW050 SCT075 07/M00 Q1011=
201903260000 METAR LRSB 260000Z 00000KT 9999 FEW048 SCT073 BKN086 05/00
                        Q1011=
201903260030 METAR LRSB 260030Z VRB01KT 9999 -RA FEW030 SCT045 BKN070
                        06/00 Q1011=
201903260100 METAR LRSB 260100Z 29011KT 9999 FEW031 SCT046 BKN070 09/01
                        Q1011=
201903260130 METAR LRSB 260130Z 29011KT 7000 SHRA SCT023CB OVC030 07/03
                        Q1012=
201903260200 METAR LRSB 260200Z 23008KT 9999 -SHRA SCT026CB OVC035 06/03
                        Q1012 RESHRA=
201903260230 METAR LRSB 260230Z 23005KT 9999 -RA FEW027CB BKN036 OVC052
                        06/04 Q1013=
201903260300 METAR LRSB 260300Z 22004KT 9999 -RA FEW026CB BKN036 06/04
                        Q1013=
201903260330 METAR LRSB 260330Z 03005KT 360V060 9999 -RA FEW030CB SCT042
                        OVC057 06/04 Q1013 R27/29//95=
201903260400 METAR LRSB 260400Z 09004KT 9000 -RA FEW015 SCT026 OVC045
                        06/04 Q1013 R27/29//95=
201903260430 METAR LRSB 260430Z 10004KT 5000 RA BR FEW012 SCT022 OVC035
                        05/04 Q1014 R27/29//95=
201903260500 METAR LRSB 260500Z 10004KT 6000 -RA SCT010 FEW020CB BKN025
                        OVC030 05/04 Q1015 R27/29//95=
201903260530 METAR LRSB 260530Z 36006KT 320V030 6000 -SHRA FEW006 FEW015CB
                        OVC025 05/04 Q1015 R27/29//95=
201903260600 METAR LRSB 260600Z 05006KT 9000 -DZ SCT010 SCT016 BKN022
                        05/03 Q1015 R27/29//95=
201903260630 METAR LRSB 260630Z 02006KT 9999 -DZ SCT012 BKN021 05/03 Q1015
                        R27/29//95=
201903260700 METAR LRSB 260700Z 01008KT 9999 -DZ FEW012 OVC020 04/02 Q1016
                        R27/29//95=
201903260730 METAR LRSB 260730Z 35005KT 320V020 8000 -RA FEW010 BKN020
                        04/02 Q1016 R27/29//95=
201903260800 METAR LRSB 260800Z 03003KT 350V060 9000 -RA FEW010 BKN020
                        04/02 Q1017 R27/29//95=
201903260830 METAR LRSB 260830Z 05005KT 9999 -DZ FEW008 BKN017 04/02 Q1017
                        R27/29//95=
201903260900 METAR LRSB 260900Z VRB02KT 9999 -DZ FEW010 BKN019 05/02 Q1017
                        R27/29//95=
201903260930 METAR LRSB 260930Z 09003KT 020V140 9999 FEW012 BKN023 05/02
                        Q1017 R27/29//95=
201903261000 METAR LRSB 261000Z VRB02KT 9999 SCT022 SCT036 06/01 Q1017
                        R27/29//95=
201903261030 METAR LRSB 261030Z 25003KT 220V290 9999 FEW016 SCT023 BKN047
                        06/02 Q1018 R27/29//95=
201903261100 METAR LRSB 261100Z 25004KT 160V300 9999 FEW016 SCT025 07/02
                        Q1018 R27/CLRD//=
201903261130 METAR LRSB 261130Z VRB03KT 9999 SCT028 SCT054 08/02 Q1018=
201903261200 METAR LRSB 261200Z VRB02KT 9999 FEW028 SCT056 08/01 Q1018=
201903261230 METAR LRSB 261230Z 15004KT 060V220 9999 FEW028 SCT060 08/01
                        Q1017=
201903261300 METAR LRSB 261300Z VRB02KT 9999 FEW030 SCT060 09/02 Q1017=
201903261330 METAR LRSB 261330Z 12005KT 080V150 9999 FEW028 SCT058 09/02
                        Q1017=
201903261400 METAR LRSB 261400Z 32003KT 240V020 9999 FEW055 09/M01 Q1017=
201903261430 METAR LRSB 261430Z VRB01KT 9999 FEW053 09/M01 Q1017=
201903261500 METAR LRSB 261500Z 01004KT 320V050 9999 FEW052 09/M01 Q1017=
201903261530 METAR LRSB 261530Z 04004KT 9999 FEW050 SCT068 09/M02 Q1017=
201903261600 METAR LRSB 261600Z 36005KT 9999 FEW050 SCT062 09/M03 Q1017=
201903261630 METAR LRSB 261630Z 01005KT 9999 FEW050 SCT063 08/M04 Q1017=
201903261700 METAR LRSB 261700Z 29004KT 280V340 9999 SCT055 SCT063 07/M01
                        Q1018=
201903261730 METAR COR LRSB 261730Z 34004KT 9999 SCT058 SCT068 07/M03
                        Q1018=
201903261800 METAR LRSB 261800Z 31003KT 9999 SCT059 BKN074 06/M01 Q1019
                        NOSIG=
201903261830 METAR LRSB 261830Z 31004KT 9999 SCT060 SCT079 05/M03 Q1019
                        NOSIG=
201903261900 METAR COR LRSB 261900Z 29005KT 9999 SCT075 03/M03 Q1019 NOSIG=
201903261930 METAR LRSB 261930Z 30004KT 9999 SCT076 02/M03 Q1019 NOSIG=
201903262000 METAR LRSB 262000Z 28004KT 9999 SCT076 01/M04 Q1020 NOSIG=
201903262030 METAR LRSB 262030Z 24005KT 9999 FEW055 02/M03 Q1020 NOSIG=
201903262100 METAR LRSB 262100Z 25006KT 9999 FEW056 01/M02 Q1020 NOSIG=
201903262130 METAR LRSB 262130Z 26005KT 9999 SCT066 01/M02 Q1020 NOSIG=
201903262200 METAR LRSB 262200Z 26006KT 9999 SCT065 01/M02 Q1020 NOSIG=
201903262230 METAR LRSB 262230Z VRB02KT 9999 SCT064 00/M02 Q1020 NOSIG=
201903262300 METAR LRSB 262300Z 25003KT 9999 SCT066 01/M02 Q1020 NOSIG=
201903262330 METAR LRSB 262330Z 25006KT 9999 FEW066 M01/M03 Q1020 NOSIG=
201903270000 METAR LRSB 270000Z VRB02KT 9999 FEW066 M00/M03 Q1020 NOSIG=
201903270030 METAR LRSB 270030Z 34001KT 9999 FEW066 M01/M04 Q1020 NOSIG=
201903270100 METAR COR LRSB 270100Z 08002KT CAVOK M01/M03 Q1020 NOSIG=
201903270130 METAR LRSB 270130Z 02003KT 9999 FEW057 M00/M03 Q1020 NOSIG=
201903270200 METAR LRSB 270200Z VRB02KT 9999 FEW057 M01/M03 Q1020 NOSIG=
201903270230 METAR LRSB 270230Z 25006KT 220V280 9999 FEW064 M00/M03 Q1020
                        NOSIG=
201903270300 METAR LRSB 270300Z 22004KT 9999 SCT064 M00/M04 Q1020 NOSIG=
201903270330 METAR LRSB 270330Z 24005KT 9999 BKN063 M01/M04 Q1020 NOSIG=
201903270400 METAR LRSB 270400Z VRB02KT 9999 BKN062 M00/M04 Q1020 NOSIG=
201903270430 METAR LRSB 270430Z 09003KT 060V120 9999 BKN062 01/M03 Q1021
                        NOSIG=
201903270500 METAR LRSB 270500Z 01007KT 9999 BKN063 02/M03 Q1022 NOSIG=
201903270530 METAR LRSB 270530Z 34006KT 9999 SCT066 03/M03 Q1022 NOSIG=
201903270600 METAR LRSB 270600Z 32003KT 280V340 9999 SCT068 03/M03 Q1022=
201903270630 METAR LRSB 270630Z 23006KT 210V270 9999 FEW070 05/M01 Q1022=
201903270700 METAR LRSB 270700Z 26006KT 210V310 CAVOK 06/M02 Q1022=
201903270730 METAR LRSB 270730Z 36010KT CAVOK 07/M07 Q1023=
201903270800 METAR LRSB 270800Z 33011KT 300V020 9999 FEW054 07/M07 Q1023=
201903270830 METAR LRSB 270830Z 33009KT 290V010 9999 FEW055 08/M08 Q1023=
201903270900 METAR LRSB 270900Z 36009KT CAVOK 08/M08 Q1023=
201903270930 METAR LRSB 270930Z 03011KT CAVOK 08/M09 Q1024=
201903271000 METAR LRSB 271000Z 36012KT CAVOK 08/M11 Q1024=
201903271030 METAR LRSB 271030Z 36015KT CAVOK 08/M11 Q1024=
201903271100 METAR LRSB 271100Z 34010KT 300V010 CAVOK 08/M12 Q1024=
201903271130 METAR LRSB 271130Z 35013KT CAVOK 09/M11 Q1024=
201903271200 METAR LRSB 271200Z 35012KT 320V020 CAVOK 08/M11 Q1024=
201903271230 METAR LRSB 271230Z 36007KT 320V020 CAVOK 09/M13 Q1024=
201903271300 METAR LRSB 271300Z 01012KT CAVOK 09/M10 Q1024=
201903271330 METAR LRSB 271330Z 36012KT CAVOK 09/M10 Q1024=
201903271400 METAR LRSB 271400Z 02011KT CAVOK 08/M11 Q1024=
201903271430 METAR LRSB 271430Z 35010KT CAVOK 09/M12 Q1024=
201903271500 METAR LRSB 271500Z 36010KT 320V030 CAVOK 08/M11 Q1024=
201903271530 METAR LRSB 271530Z 01009KT 350V050 CAVOK 08/M11 Q1024=
201903271600 METAR LRSB 271600Z 01007KT CAVOK 07/M10 Q1024=
201903271630 METAR LRSB 271630Z 35007KT CAVOK 07/M10 Q1025=
201903271700 METAR LRSB 271700Z 34005KT CAVOK 05/M10 Q1025=
201903271730 METAR LRSB 271730Z 33004KT CAVOK 04/M09 Q1026=
201903271800 METAR LRSB 271800Z 31004KT CAVOK 03/M08 Q1026=
201903271830 METAR LRSB 271830Z 24005KT CAVOK 01/M07 Q1027=
201903271900 METAR LRSB 271900Z 26005KT CAVOK 01/M07 Q1027=
201903271930 METAR LRSB 271930Z 26006KT CAVOK 01/M06 Q1027=
201903272000 METAR LRSB 272000Z 27008KT CAVOK 00/M06 Q1028=
201903272030 METAR LRSB 272030Z 27008KT CAVOK 01/M06 Q1028=
201903272100 METAR LRSB 272100Z 26009KT CAVOK 00/M06 Q1028=
201903272130 METAR LRSB 272130Z 27009KT CAVOK 00/M07 Q1028=
201903272200 METAR LRSB 272200Z 27009KT CAVOK 00/M07 Q1028=
201903272230 METAR LRSB 272230Z 27010KT CAVOK M00/M07 Q1029=
201903272300 METAR LRSB 272300Z 26008KT CAVOK M01/M07 Q1029=
201903272330 METAR LRSB 272330Z 22003KT 140V260 CAVOK M01/M07 Q1029=
201903280000 METAR LRSB 280000Z 00000KT CAVOK M02/M08 Q1029=
201903280030 METAR LRSB 280030Z 00000KT CAVOK M01/M08 Q1029=
201903280100 METAR LRSB 280100Z VRB02KT CAVOK M02/M08 Q1029=
201903280130 METAR LRSB 280130Z 29003KT CAVOK M02/M08 Q1029=
201903280200 METAR LRSB 280200Z VRB01KT CAVOK M02/M08 Q1029=
201903280230 METAR LRSB 280230Z 22003KT CAVOK M03/M07 Q1029=
201903280300 METAR LRSB 280300Z 20002KT CAVOK M03/M08 Q1029=
201903280330 METAR LRSB 280330Z 24002KT CAVOK M02/M07 Q1029=
201903280400 METAR LRSB 280400Z VRB01KT CAVOK M03/M08 Q1029=
201903280430 METAR LRSB 280430Z VRB01KT CAVOK M03/M07 Q1029=
201903280500 METAR LRSB 280500Z 12001KT CAVOK M03/M06 Q1029=
201903280530 METAR LRSB 280530Z VRB02KT CAVOK M00/M04 Q1029=
201903280600 METAR LRSB 280600Z 09002KT CAVOK 01/M05 Q1029=
201903280630 METAR LRSB 280630Z VRB02KT CAVOK 03/M06 Q1029=
201903280700 METAR LRSB 280700Z VRB02KT CAVOK 05/M08 Q1029=
201903280730 METAR LRSB 280730Z 06003KT 350V110 CAVOK 06/M08 Q1029=
201903280800 METAR LRSB 280800Z 01003KT 290V060 CAVOK 07/M11 Q1029=
201903280830 METAR LRSB 280830Z 03006KT 330V040 CAVOK 08/M11 Q1029=
201903280900 METAR LRSB 280900Z 33004KT 280V050 CAVOK 08/M12 Q1029=
201903280930 METAR LRSB 280930Z 34005KT 270V070 CAVOK 08/M13 Q1029=
201903281000 METAR LRSB 281000Z 35006KT 310V030 CAVOK 09/M10 Q1029=
201903281030 METAR LRSB 281030Z 02004KT 330V070 CAVOK 09/M11 Q1028=
201903281100 METAR LRSB 281100Z 02004KT 330V070 CAVOK 09/M11 Q1028=
201903281130 METAR LRSB 281130Z 36006KT 300V050 CAVOK 10/M11 Q1028=
201903281200 METAR LRSB 281200Z 36007KT 330V050 CAVOK 10/M10 Q1028=
201903281230 METAR LRSB 281230Z 35008KT CAVOK 11/M11 Q1027=
201903281300 METAR LRSB 281300Z 36008KT 320V040 CAVOK 11/M10 Q1027=
201903281330 METAR LRSB 281330Z 35009KT CAVOK 11/M09 Q1027=
201903281400 METAR LRSB 281400Z 36005KT 310V060 CAVOK 11/M09 Q1027=
201903281430 METAR LRSB 281430Z 32004KT 270V020 CAVOK 11/M09 Q1026=
201903281500 METAR LRSB 281500Z VRB02KT CAVOK 11/M09 Q1026=
201903281530 METAR COR LRSB 281530Z VRB02KT CAVOK 10/M08 Q1026=
201903281600 METAR LRSB 281600Z 22004KT CAVOK 09/M04 Q1026=
201903281630 METAR LRSB 281630Z 23003KT CAVOK 09/M07 Q1026=
201903281700 METAR LRSB 281700Z 33004KT 300V360 CAVOK 09/M07 Q1027=
201903281730 METAR LRSB 281730Z 35005KT CAVOK 08/M06 Q1027=
201903281800 METAR LRSB 281800Z 35005KT CAVOK 07/M05 Q1027=
201903281830 METAR LRSB 281830Z 28002KT CAVOK 01/M04 Q1028=
201903281900 METAR LRSB 281900Z 27005KT CAVOK 03/M04 Q1028=
201903281930 METAR LRSB 281930Z 27007KT CAVOK 02/M04 Q1028=
201903282000 METAR LRSB 282000Z 26007KT CAVOK 02/M04 Q1028=
201903282030 METAR LRSB 282030Z 26009KT CAVOK 03/M04 Q1028=
201903282100 METAR LRSB 282100Z 27009KT CAVOK 03/M04 Q1028=
201903282130 METAR LRSB 282130Z 27009KT CAVOK 03/M04 Q1029=
201903282200 METAR LRSB 282200Z 28008KT CAVOK 03/M03 Q1029=
201903282230 METAR LRSB 282230Z 27009KT CAVOK 02/M04 Q1029=
201903282300 METAR LRSB 282300Z 26007KT 9999 FEW052 03/M03 Q1029=
201903282330 METAR LRSB 282330Z 27006KT 9999 FEW052 03/M02 Q1029=
201903290000 METAR LRSB 290000Z 09002KT 9999 SCT054 01/M04 Q1029=
201903290030 METAR LRSB 290030Z 27002KT 9999 FEW054 00/M03 Q1029=
201903290100 METAR LRSB 290100Z 26004KT CAVOK 00/M03 Q1029=
201903290130 METAR LRSB 290130Z 31003KT 280V020 CAVOK 01/M03 Q1029=
201903290200 METAR LRSB 290200Z VRB01KT CAVOK M00/M04 Q1029=
201903290230 METAR LRSB 290230Z 25005KT CAVOK M01/M04 Q1028=
201903290300 METAR LRSB 290300Z VRB01KT CAVOK 00/M03 Q1029=
201903290330 METAR LRSB 290330Z VRB01KT CAVOK M00/M04 Q1029=
201903290400 METAR LRSB 290400Z VRB01KT CAVOK M01/M03 Q1029=
201903290430 METAR LRSB 290430Z 00000KT CAVOK M01/M03 Q1029=
201903290500 METAR LRSB 290500Z 00000KT CAVOK M00/M03 Q1029=
201903290530 METAR LRSB 290530Z VRB01KT CAVOK 01/M02 Q1029=
201903290600 METAR COR LRSB 290600Z VRB02KT CAVOK 04/M01 Q1029=
201903290630 METAR LRSB 290630Z VRB02KT CAVOK 05/M01 Q1029 NOSIG=
201903290700 METAR COR LRSB 290700Z 36003KT 280V060 CAVOK 07/M02 Q1029
                        NOSIG=
201903290730 METAR LRSB 290730Z 36006KT 330V030 CAVOK 07/M01 Q1029 NOSIG=
201903290800 METAR LRSB 290800Z 35006KT 310V020 CAVOK 08/M01 Q1029 NOSIG=
201903290830 METAR LRSB 290830Z 36006KT 310V030 9999 FEW035 09/M01 Q1029
                        NOSIG=
201903290900 METAR LRSB 290900Z 35008KT 320V030 9999 FEW036 09/M01 Q1029
                        NOSIG=
201903290930 METAR LRSB 290930Z 01007KT 340V040 9999 FEW038 10/M01 Q1029
                        NOSIG=
201903291000 METAR LRSB 291000Z 36006KT 310V050 9999 FEW040 10/M01 Q1028
                        NOSIG=
201903291030 METAR LRSB 291030Z 32005KT 260V360 9999 FEW043 11/M02 Q1028
                        NOSIG=
201903291100 METAR LRSB 291100Z 32008KT 9999 FEW045 11/M03 Q1028 NOSIG=
201903291130 METAR LRSB 291130Z 30006KT 250V340 9999 FEW050 12/M03 Q1028
                        NOSIG=
201903291200 METAR LRSB 291200Z VRB03KT 9999 FEW053 12/M04 Q1027 NOSIG=
201903291230 METAR COR LRSB 291230Z VRB03KT CAVOK 12/M04 Q1027 NOSIG=
201903291300 METAR LRSB 291300Z 32006KT 290V350 CAVOK 12/M03 Q1027 NOSIG=
201903291330 METAR COR LRSB 291330Z 30006KT 270V340 CAVOK 12/M03 Q1027
                        NOSIG=
201903291400 METAR LRSB 291400Z 36007KT CAVOK 13/M03 Q1026 NOSIG=
201903291430 METAR COR LRSB 291430Z 31007KT 290V350 CAVOK 13/M03 Q1026
                        NOSIG=
201903291500 METAR LRSB 291500Z VRB03KT CAVOK 13/M04 Q1026 NOSIG=
201903291530 METAR LRSB 291530Z 01004KT 320V050 CAVOK 12/M03 Q1026 NOSIG=
201903291600 METAR LRSB 291600Z 35003KT 300V020 CAVOK 12/M04 Q1026 NOSIG=
201903291630 METAR LRSB 291630Z 28004KT CAVOK 11/M03 Q1026 NOSIG=
201903291700 METAR LRSB 291700Z 31004KT CAVOK 11/M03 Q1026 NOSIG=
201903291730 METAR LRSB 291730Z 31004KT CAVOK 10/M02 Q1026 NOSIG=
201903291800 METAR COR LRSB 291800Z 25006KT CAVOK 08/M00 Q1026=
201903291830 METAR LRSB 291830Z 25007KT CAVOK 07/M00 Q1026=
201903291900 METAR LRSB 291900Z 27006KT CAVOK 07/M01 Q1026=
201903291930 METAR LRSB 291930Z 27009KT CAVOK 06/M01 Q1026=
201903292000 METAR LRSB 292000Z AUTO 27009KT 9999 NCD 06/M01 Q1026=
201903292030 METAR LRSB 292030Z 25009KT CAVOK 06/M02 Q1026=
201903292100 METAR LRSB 292100Z 26010KT CAVOK 05/M02 Q1026=
201903292130 METAR LRSB 292130Z 27009KT CAVOK 05/M02 Q1026=
201903292200 METAR LRSB 292200Z 23005KT 180V270 CAVOK 04/M02 Q1026=
201903292230 METAR LRSB 292230Z 26007KT CAVOK 04/M02 Q1026=
201903292300 METAR LRSB 292300Z 24005KT CAVOK 03/M02 Q1026=
201903292330 METAR LRSB 292330Z AUTO 20004KT 150V260 9999 NCD 03/M02 Q1026=
201903300000 METAR LRSB 300000Z 26004KT CAVOK 04/M02 Q1025=
201903300030 METAR LRSB 300030Z VRB02KT CAVOK 03/M02 Q1025=
201903300100 METAR LRSB 300100Z AUTO VRB01KT 9999 NCD 02/M03 Q1025=
201903300130 METAR LRSB 300130Z AUTO 09003KT 9999 NCD 02/M03 Q1025=
201903300200 METAR LRSB 300200Z 11002KT CAVOK 02/M02 Q1025=
201903300230 METAR LRSB 300230Z 00000KT CAVOK 02/M02 Q1025=
201903300300 METAR LRSB 300300Z AUTO 00000KT 9999 NCD 02/M02 Q1025=
201903300330 METAR LRSB 300330Z 11001KT CAVOK 02/M02 Q1025=
201903300400 METAR LRSB 300400Z 07002KT CAVOK 01/M02 Q1025=
201903300430 METAR LRSB 300430Z 00000KT CAVOK 01/M03 Q1025=
201903300500 METAR LRSB 300500Z 07002KT CAVOK 02/M02 Q1025=
201903300530 METAR LRSB 300530Z 09002KT CAVOK 04/M01 Q1025=
201903300600 METAR LRSB 300600Z VRB02KT CAVOK 06/M00 Q1025=
201903300630 METAR LRSB 300630Z 08004KT CAVOK 07/M00 Q1025=
201903300700 METAR LRSB 300700Z 07004KT CAVOK 09/M00 Q1025=
201903300730 METAR LRSB 300730Z 11004KT CAVOK 10/00 Q1025=
201903300800 METAR LRSB 300800Z 11004KT 070V150 CAVOK 12/M01 Q1025=
201903300830 METAR LRSB 300830Z 15003KT 080V210 CAVOK 12/M01 Q1025=
201903300900 METAR LRSB 300900Z VRB02KT CAVOK 13/M01 Q1025=
201903300930 METAR LRSB 300930Z VRB02KT CAVOK 15/M00 Q1025=
201903301000 METAR LRSB 301000Z 01005KT 280V080 CAVOK 14/M01 Q1025=
201903301030 METAR LRSB 301030Z VRB03KT CAVOK 15/M02 Q1024=
201903301100 METAR LRSB 301100Z 03004KT 320V130 CAVOK 15/M02 Q1024=
201903301130 METAR LRSB 301130Z 34005KT 260V070 CAVOK 16/M02 Q1024=
201903301200 METAR LRSB 301200Z 36005KT 320V030 CAVOK 16/M03 Q1023=
201903301230 METAR LRSB 301230Z VRB04KT CAVOK 16/M02 Q1023=
201903301300 METAR LRSB 301300Z 36006KT 280V070 CAVOK 17/M01 Q1022=
201903301330 METAR LRSB 301330Z 02006KT 340V050 CAVOK 17/M03 Q1022=
201903301400 METAR LRSB 301400Z 02005KT 340V050 CAVOK 17/M03 Q1022=
201903301430 METAR LRSB 301430Z 02008KT CAVOK 17/M03 Q1022=
201903301500 METAR LRSB 301500Z 35006KT CAVOK 17/M04 Q1022=
201903301530 METAR LRSB 301530Z 03005KT 340V070 CAVOK 16/M03 Q1022=
201903301600 METAR LRSB 301600Z 36003KT CAVOK 16/M02 Q1021=
201903301630 METAR LRSB 301630Z 35004KT CAVOK 15/M03 Q1021=
201903301700 METAR LRSB 301700Z 29002KT CAVOK 10/M01 Q1021=
201903301730 METAR LRSB 301730Z 25006KT CAVOK 08/M00 Q1021=
201903301800 METAR LRSB 301800Z 26008KT CAVOK 08/M00 Q1022 NOSIG=
201903301830 METAR LRSB 301830Z 27009KT CAVOK 08/M01 Q1022 NOSIG=
201903301900 METAR LRSB 301900Z 27009KT CAVOK 07/M01 Q1022 NOSIG=
201903301930 METAR LRSB 301930Z 23003KT 120V260 CAVOK 07/M01 Q1022 NOSIG=
201903302000 METAR LRSB 302000Z 25003KT CAVOK 07/M02 Q1022 NOSIG=
201903302030 METAR LRSB 302030Z 00000KT CAVOK 06/M02 Q1022 NOSIG=
201903302100 METAR LRSB 302100Z 00000KT CAVOK 05/M03 Q1022 NOSIG=
201903302130 METAR LRSB 302130Z 00000KT CAVOK 05/M02 Q1022 NOSIG=
201903302200 METAR LRSB 302200Z 00000KT CAVOK 04/M03 Q1021 NOSIG=
201903302230 METAR LRSB 302230Z 00000KT CAVOK 04/M02 Q1021 NOSIG=
201903302300 METAR LRSB 302300Z 00000KT CAVOK 04/M03 Q1021 NOSIG=
201903302330 METAR LRSB 302330Z 00000KT CAVOK 03/M03 Q1021 NOSIG=
201903310000 METAR LRSB 310000Z 00000KT CAVOK 03/M02 Q1021 NOSIG=
201903310030 METAR LRSB 310030Z 00000KT CAVOK 03/M02 Q1021 NOSIG=
201903310100 METAR LRSB 310100Z 00000KT CAVOK 00/M03 Q1020 NOSIG=
201903310130 METAR LRSB 310130Z 00000KT CAVOK 02/M03 Q1020 NOSIG=
201903310200 METAR LRSB 310200Z 00000KT CAVOK 01/M03 Q1020 NOSIG=
201903310230 METAR LRSB 310230Z 00000KT CAVOK 02/M03 Q1020 NOSIG=
201903310300 METAR LRSB 310300Z 00000KT CAVOK M00/M03 Q1020 NOSIG=
201903310330 METAR LRSB 310330Z 00000KT CAVOK M00/M03 Q1020 NOSIG=
201903310400 METAR LRSB 310400Z 00000KT CAVOK 00/M02 Q1020 NOSIG=
201903310430 METAR LRSB 310430Z 00000KT CAVOK 01/M03 Q1020 NOSIG=
201903310500 METAR LRSB 310500Z 09005KT CAVOK 02/M02 Q1020=
201903310530 METAR LRSB 310530Z 10004KT CAVOK 04/M01 Q1020=
201903310600 METAR LRSB 310600Z 10004KT CAVOK 05/M01 Q1020=
201903310630 METAR LRSB 310630Z VRB02KT CAVOK 07/M00 Q1020=
201903310700 METAR LRSB 310700Z 02003KT 350V070 CAVOK 09/00 Q1020=
201903310730 METAR LRSB 310730Z 01003KT CAVOK 10/M00 Q1020=
201903310800 METAR LRSB 310800Z 35003KT 280V030 CAVOK 12/M01 Q1019=
201903310830 METAR LRSB 310830Z VRB02KT CAVOK 14/M01 Q1019=
201903310900 METAR LRSB 310900Z VRB02KT CAVOK 15/M01 Q1019=
201903310930 METAR LRSB 310930Z VRB02KT CAVOK 16/M02 Q1019=
201903311000 METAR LRSB 311000Z 01004KT 260V070 CAVOK 16/M02 Q1018=
201903311030 METAR LRSB 311030Z VRB03KT CAVOK 17/M03 Q1018=
201903311100 METAR LRSB 311100Z VRB01KT CAVOK 18/M02 Q1018=
201903311130 METAR LRSB 311130Z VRB04KT CAVOK 18/M02 Q1018=
201903311200 METAR LRSB 311200Z VRB04KT CAVOK 18/M02 Q1017=
201903311230 METAR LRSB 311230Z 03004KT 310V080 CAVOK 19/M02 Q1017=
201903311300 METAR LRSB 311300Z VRB03KT CAVOK 19/M03 Q1016=
201903311330 METAR LRSB 311330Z VRB03KT CAVOK 20/M02 Q1016=
201903311400 METAR LRSB 311400Z 27005KT 220V310 CAVOK 19/M02 Q1016=
201903311430 METAR LRSB 311430Z 34004KT 300V060 CAVOK 19/M03 Q1015=
201903311500 METAR LRSB 311500Z 32004KT 270V360 CAVOK 19/M02 Q1015=
201903311530 METAR LRSB 311530Z 30005KT 280V350 CAVOK 19/M03 Q1015=
201903311600 METAR LRSB 311600Z 29004KT CAVOK 18/M02 Q1015=
201903311630 METAR LRSB 311630Z 29004KT CAVOK 16/M01 Q1015=
201903311700 METAR LRSB 311700Z 29003KT CAVOK 13/M00 Q1015=
201903311730 METAR LRSB 311730Z 26008KT CAVOK 10/01 Q1015=
201903311800 METAR COR LRSB 311800Z 27009KT CAVOK 10/00 Q1016=
201903311830 METAR LRSB 311830Z 27009KT CAVOK 10/M00 Q1016=
201903311900 METAR COR LRSB 311900Z 27010KT CAVOK 10/M00 Q1016=
201903311930 METAR LRSB 311930Z 27010KT CAVOK 10/M01 Q1016=
201903312000 METAR LRSB 312000Z VRB01KT CAVOK 08/M01 Q1016=
201903312030 METAR LRSB 312030Z 25002KT CAVOK 09/M01 Q1016=
201903312100 METAR LRSB 312100Z 25002KT CAVOK 08/M01 Q1016=
201903312130 METAR LRSB 312130Z VRB01KT CAVOK 07/M01 Q1016=
201903312200 METAR LRSB 312200Z 23008KT CAVOK 05/M01 Q1016=
201903312230 METAR LRSB 312230Z 27008KT CAVOK 08/M01 Q1016=
201903312300 METAR LRSB 312300Z 24005KT CAVOK 08/M01 Q1016=
201903312330 METAR LRSB 312330Z 25008KT CAVOK 07/M01 Q1016=
