201903010500 TAF LRSB 010500Z 0106/0206 VRB04KT 9999 BKN065
                      BECMG 0118/0120 5000 -RA BR BKN015 OVC030
                       TEMPO 0123/0203 RASN BKN010 OVC025
                      BECMG 0203/0205 3000 -SN BKN005 OVC020=
201903011100 TAF LRSB 011100Z 0112/0212 VRB04KT 9999 BKN030
                      BECMG 0118/0120 5000 RA BKN015 OVC025
                      TEMPO 0122/0202 RASN
                      BECMG 0202/0204 3000 SN BKN005 OVC020
                      BECMG 0207/0209 9999 NSW BKN035=
201903011635 TAF AMD LRSB 011635Z 0116/0212 30014KT 9999 BKN030
                      BECMG 0118/0120 5000 RA BKN015 OVC025
                      TEMPO 0122/0202 RASN
                      BECMG 0202/0204 3000 SN BKN005 OVC020
                      BECMG 0207/0209 9999 NSW BKN035=
201903011700 TAF LRSB 011700Z 0118/0218 30014KT 9999 BKN045
                      TEMPO 0120/0124 5000 -RA
                      BECMG 0200/0202 5000 -RA BR BKN010 BKN035
                       BECMG 0204/0206 VRB04KT
                      BECMG 0207/0209 9999 NSW BKN050=
201903012300 TAF LRSB 012300Z 0200/0224 30010KT 9999 SCT030 BKN060
                      TEMPO 0200/0206 3000 RA BR BKN010 BKN035
                       BECMG 0204/0206 VRB04KT=
201903020500 TAF LRSB 020500Z 0206/0306 30006KT 9999 BKN050
                      PROB40 TEMPO 0206/0209 5000 -SHRA BKN015
                       SCT040CB BKN050
                      TEMPO 0302/0306 5000 BR=
201903021100 TAF LRSB 021100Z 0212/0312 VRB04KT CAVOK
                      TEMPO 0302/0306 5000 BR=
201903021700 TAF LRSB 021700Z 0218/0318 01006KT CAVOK=
201903022300 TAF LRSB 022300Z 0300/0324 VRB04KT 9999 BKN045=
201903030500 TAF LRSB 030500Z 0306/0406 VRB04KT 9999 BKN065
                      TEMPO 0310/0316 31010KT=
201903031100 TAF LRSB 031100Z 0312/0412 VRB04KT 9999 SCT040
                      TEMPO 0312/0316 31010KT=
201903031700 TAF LRSB 031700Z 0318/0418 25006KT CAVOK=
201903032300 TAF LRSB 032300Z 0400/0424 VRB04KT CAVOK=
201903040500 TAF LRSB 040500Z 0406/0506 VRB04KT CAVOK
                      TEMPO 0500/0503 3000 BR
                      BECMG 0504/0506 29010KT=
201903041100 TAF LRSB 041100Z 0412/0512 VRB04KT CAVOK
                      TEMPO 0500/0504 3000 BR
                      BECMG 0504/0506 29010KT
                      TEMPO 0509/0512 30015G26KT=
201903041700 TAF LRSB 041700Z 0418/0518 29005KT CAVOK
                      BECMG 0504/0506 29015KT
                      PROB30 TEMPO 0505/0510 5000 -RA
                      TEMPO 0508/0514 29017G27KT
                      BECMG 0516/0518 27005KT=
201903042300 TAF LRSB 042300Z 0500/0524 VRB04KT CAVOK
                      BECMG 0504/0506 29012KT
                      PROB30 TEMPO 0505/0510 5000 -RA
                      TEMPO 0508/0514 29017G27KT
                      BECMG 0517/0519 VRB04KT=
201903050500 TAF LRSB 050500Z 0506/0606 29012KT CAVOK
                      PROB30 TEMPO 0506/0510 5000 -RA
                      TEMPO 0508/0514 29018G28KT
                      BECMG 0517/0519 VRB04KT=
201903051100 TAF LRSB 051100Z 0512/0612 29020KT 9999 BKN040
                      TEMPO 0512/0515 29020G30KT
                      BECMG 0516/0518 28010KT
                      BECMG 0518/0520 VRB04KT
                      TEMPO 0606/0612 5000 -SHRA SCT035CB BKN040=
201903051700 TAF LRSB 051700Z 0518/0618 27010KT CAVOK
                      BECMG 0518/0520 VRB04KT
                      BECMG 0604/0606 30012KT SCT030CB BKN040
                      TEMPO 0606/0612 30015G25KT 5000 -SHRA
                      BECMG 0613/0615 SCT035
                      BECMG 0615/0617 VRB04KT=
201903052300 TAF LRSB 052300Z 0600/0624 25006KT CAVOK
                      BECMG 0604/0606 31010KT SCT035CB BKN040
                      TEMPO 0606/0612 31015G25KT 5000 -SHRA
                      BECMG 0613/0615 SCT035
                      BECMG 0615/0617 VRB04KT=
201903060500 TAF LRSB 060500Z 0606/0706 VRB04KT CAVOK
                      BECMG 0606/0608 30012KT
                      TEMPO 0606/0612 5000 SHRA SCT010 SCT035CB
                       BKN040
                      PROB30 TEMPO 0608/0612 30015G25KT 3000 TSRA
                       BECMG 0616/0618 VRB04KT=
201903061100 TAF LRSB 061100Z 0612/0712 35010KT 9999 SCT060
                      PROB40 TEMPO 0612/0615 35015G25KT 5000 -SHRA
                       SCT040CB BKN060
                      BECMG 0615/0617 VRB04KT=
201903061700 TAF LRSB 061700Z 0618/0718 VRB04KT CAVOK=
201903062300 TAF LRSB 062300Z 0700/0724 12006KT CAVOK=
201903070500 TAF LRSB 070500Z 0706/0806 VRB04KT CAVOK
                      TEMPO 0800/0806 3000 BR=
201903071100 TAF LRSB 071100Z 0712/0812 VRB04KT CAVOK
                      TEMPO 0800/0806 3000 BR=
201903071700 TAF LRSB 071700Z 0718/0818 VRB04KT CAVOK=
201903072300 TAF LRSB 072300Z 0800/0824 VRB04KT CAVOK=
201903080500 TAF LRSB 080500Z 0806/0906 VRB04KT CAVOK
                      PROB30 TEMPO 0902/0906 5000 -RA BR BKN015
                       BKN040=
201903081100 TAF LRSB 081100Z 0812/0912 VRB04KT CAVOK
                      PROB30 TEMPO 0902/0908 5000 -RA BR BKN015
                       BKN040=
201903081700 TAF LRSB 081700Z 0818/0918 30010KT CAVOK
                      PROB40 TEMPO 0901/0908 5000 -RA BR BKN010
                       BKN040=
201903082300 TAF LRSB 082300Z 0900/0924 30008KT CAVOK
                      PROB40 TEMPO 0901/0908 5000 -RA BR BKN010
                       BKN040=
201903090500 TAF LRSB 090500Z 0906/1006 VRB04KT CAVOK
                      PROB40 TEMPO 0906/0908 5000 -RA BKN010 BKN040
                       BECMG 0908/0910 30012KT
                      BECMG 0916/0918 VRB04KT
                      BECMG 1002/1004 29016KT=
201903091100 TAF LRSB 091100Z 0912/1012 27014KT CAVOK
                      TEMPO 0912/0915 28015G25KT
                      BECMG 0916/0918 VRB04KT
                      BECMG 1003/1005 29018KT
                      TEMPO 1008/1012 30028G38KT=
201903091700 TAF LRSB 091700Z 0918/1018 VRB04KT CAVOK
                      BECMG 1003/1005 29010KT
                      TEMPO 1005/1012 30020G30KT
                      BECMG 1012/1014 VRB04KT=
201903092300 TAF AMD LRSB 100414Z 1004/1024 29014KT CAVOK
                      TEMPO 1004/1006 30025G35KT SCT040CB
                      TEMPO 1006/1011 30025G35KT
                      BECMG 1012/1014 VRB04KT=
201903100414 TAF AMD LRSB 100414Z 1004/1024 29014KT CAVOK
                      TEMPO 1004/1006 30025G35KT SCT040CB
                      TEMPO 1006/1011 30025G35KT
                      BECMG 1012/1014 VRB04KT=
201903100500 TAF LRSB 100500Z 1006/1106 30020KT 9999 SCT040
                      TEMPO 1006/1011 30025G35KT
                      BECMG 1011/1013 30010KT
                      BECMG 1013/1015 VRB04KT
                      BECMG 1022/1024 30012KT
                      TEMPO 1101/1106 30017G27KT=
201903101100 TAF LRSB 101100Z 1012/1112 30020KT 9999 SCT040
                      BECMG 1012/1014 30010KT
                      BECMG 1014/1016 VRB04KT
                      BECMG 1021/1023 30012KT
                      TEMPO 1100/1108 30017G27KT SCT040CB=
201903101700 TAF LRSB 101700Z 1018/1118 VRB04KT 9999 SCT040
                      PROB40 TEMPO 1019/1024 5000 -RA
                      BECMG 1100/1102 30014KT
                      TEMPO 1102/1108 30020G30KT=
201903102007 TAF AMD LRSB 102007Z 1020/1118 28018KT 9999 SCT040
                      TEMPO 1020/1024 5000 -RA
                      TEMPO 1100/1108 30020G30KT
                      BECMG 1116/1118 29008KT=
201903102300 TAF LRSB 102300Z 1100/1124 28018KT 9999 SCT040
                      TEMPO 1100/1103 5000 -RA
                      TEMPO 1103/1108 30020G30KT
                      BECMG 1116/1118 29008KT=
201903110500 TAF LRSB 110500Z 1106/1206 29015KT 9999 SCT040
                      TEMPO 1106/1109 30015G25KT
                      BECMG 1118/1120 VRB04KT
                      PROB40 TEMPO 1200/1206 5000 -RA BR BKN015
                       OVC040=
201903111100 TAF LRSB 111100Z 1112/1212 31015KT 9999 BKN040
                      PROB30 TEMPO 1115/1121 FEW030CB BKN040
                      BECMG 1118/1120 VRB04KT
                      TEMPO 1121/1206 5000 -RA BR BKN015 OVC040
                       PROB40
                      TEMPO 1202/1206 3000 -RASN BR BKN010 OVC030=
201903111700 TAF LRSB 111700Z 1118/1218 32010KT CAVOK
                      TEMPO 1121/1209 5000 -RA BR BKN015 OVC040
                       PROB40
                      TEMPO 1202/1209 3000 -RASN BR BKN010 OVC030=
201903112300 TAF LRSB 112300Z 1200/1224 29008KT 9999 BKN050
                      TEMPO 1200/1209 5000 -RA BR BKN015 OVC040
                       PROB40
                      TEMPO 1202/1209 3000 -RASN BR=
201903120500 TAF LRSB 120500Z 1206/1306 11006KT 9999 BKN060
                      TEMPO 1206/1209 5000 -RASN BKN015 OVC040
                       BECMG 1210/1212 33010KT
                      BECMG 1217/1219 VRB04KT=
201903121100 TAF LRSB 121100Z 1212/1312 VRB04KT 9999 BKN030
                      TEMPO 1212/1217 34010KT SCT030CB=
201903121700 TAF LRSB 121700Z 1218/1318 VRB04KT CAVOK=
201903122300 TAF LRSB 122300Z 1300/1324 VRB04KT CAVOK=
201903130500 TAF LRSB 130500Z 1306/1406 VRB04KT CAVOK=
201903131100 TAF LRSB 131100Z 1312/1412 12006KT CAVOK
                      TEMPO 1400/1405 3000 BR=
201903131700 TAF LRSB 131700Z 1318/1418 VRB04KT CAVOK=
201903132300 TAF LRSB 132300Z 1400/1424 VRB04KT CAVOK=
201903140159 TAF LRSB 1312/1412 12006KT CAVOK
                      TEMPO 1400/1405 3000 BR=
201903140500 TAF LRSB 140500Z 1406/1506 VRB04KT CAVOK=
201903141100 TAF LRSB 141100Z 1412/1512 32008KT 9999 SCT055
                      PROB30 TEMPO 1414/1416 FEW040CB BKN050=
201903141700 TAF LRSB 141700Z 1418/1518 32005KT CAVOK
                      TEMPO 1423/1504 3000 BR BKN010=
201903142300 TAF LRSB 142300Z 1500/1524 VRB04KT CAVOK
                      TEMPO 1500/1505 3000 BR=
201903150500 TAF LRSB 150500Z 1506/1606 VRB04KT CAVOK
                      BECMG 1507/1509 30012KT
                      BECMG 1517/1519 VRB04KT=
201903151100 TAF LRSB 151100Z 1512/1612 31012KT 9999 BKN060
                      BECMG 1517/1519 VRB04KT
                      BECMG 1606/1608 30018KT
                      TEMPO 1608/1612 30020G30KT 5000 SHRA SCT015
                       SCT040CB BKN050=
201903151700 TAF LRSB 151700Z 1518/1618 28010KT 9999 SCT060
                      BECMG 1521/1523 VRB04KT
                      BECMG 1606/1608 30017KT
                      TEMPO 1608/1617 30020G30KT 5000 -RA
                      PROB40 TEMPO 1611/1616 3000 SHRA SCT010 SCT030CB
                       BKN040=
201903152300 TAF LRSB 152300Z 1600/1624 VRB04KT 9999 SCT060
                      BECMG 1606/1608 30017KT
                      TEMPO 1608/1617 30020G30KT 5000 -RA
                      PROB40 TEMPO 1611/1616 3000 SHRA SCT010 SCT030CB
                       BKN040
                      BECMG 1618/1620 30007KT=
201903160500 TAF LRSB 160500Z 1606/1706 VRB04KT 9999 BKN045
                      BECMG 1606/1608 30016KT
                      TEMPO 1608/1616 30020G30KT 5000 -RA
                      PROB30 TEMPO 1611/1615 3000 SHRA SCT030CB
                       BKN040
                      BECMG 1620/1622 30006KT=
201903161100 TAF LRSB 161100Z 1612/1712 28016KT 9999 BKN035
                      PROB40 TEMPO 1613/1616 30020G30KT
                      BECMG 1620/1622 30006KT=
201903161700 TAF LRSB 161700Z 1618/1718 29020KT 9999 FEW040CB BKN080
                      BECMG 1620/1622 30010KT BKN040 BKN080
                      BECMG 1700/1702 VRB04KT=
201903162300 TAF LRSB 162300Z 1700/1724 29007KT 9999 SCT035 BKN070=
201903170500 TAF LRSB 170500Z 1706/1806 VRB04KT 9999 SCT035 BKN060
                      BECMG 1717/1719 21010KT=
201903171100 TAF LRSB 171100Z 1712/1812 VRB04KT CAVOK
                      BECMG 1717/1719 21010KT=
201903171700 TAF LRSB 171700Z 1718/1818 VRB04KT CAVOK
                      TEMPO 1801/1805 3000 BR=
201903172300 TAF LRSB 172300Z 1800/1824 VRB04KT CAVOK
                      TEMPO 1801/1805 3000 BR=
201903180500 TAF LRSB 180500Z 1806/1906 VRB04KT CAVOK
                      TEMPO 1903/1906 5000 -RA BR BKN015 BKN040=
201903181100 TAF LRSB 181100Z 1812/1912 VRB04KT CAVOK
                      TEMPO 1903/1909 5000 -RA BR BKN015 BKN040=
201903181700 TAF LRSB 181700Z 1818/1918 26008KT CAVOK
                      BECMG 1905/1907 5000 -RA BR BKN015 BKN040
                       TEMPO 1910/1918 3000 -SHRA SCT020CB BKN030=
201903182300 TAF LRSB 182300Z 1900/1924 26008KT CAVOK
                      BECMG 1908/1910 5000 -RA BR BKN015 BKN040
                       TEMPO 1910/1917 3000 -SHRA SCT020CB BKN030
                       BECMG 1917/1919 9999 NSW BKN020=
201903190500 TAF LRSB 190500Z 1906/2006 26008KT CAVOK
                      BECMG 1911/1913 5000 -RA BR BKN015 BKN040
                       TEMPO 1912/1917 3000 -SHRA SCT020CB BKN030
                       TEMPO 2001/2004 3000 BR OVC002
                      BECMG 2004/2006 7000=
201903191100 TAF LRSB 191100Z 1912/2012 VRB04KT 9999 BKN050
                      TEMPO 1912/1918 3000 -SHRA SCT035CB BKN050
                       BECMG 1918/1920 5000 -RA BR BKN015 OVC040
                       TEMPO 2005/2007 7000 NSW SCT015 OVC040=
201903191700 TAF LRSB 191700Z 1918/2018 VRB04KT 5000 -SHRA BR SCT015 SCT030CB
                       BKN040
                      BECMG 1918/1920 3000 BR BKN010 OVC030
                      BECMG 2006/2008 35010KT 7000 NSW SCT015 BKN040
                       TEMPO 2009/2018 5000 -SHRA BR BKN015 SCT030CB
                       BKN040=
201903192300 TAF LRSB 192300Z 2000/2024 VRB04KT 7000 SCT010 BKN025
                      TEMPO 2000/2006 3000 BR BKN010 BKN020
                      BECMG 2006/2008 35010KT
                      TEMPO 2009/2018 5000 -SHRA BR BKN015 SCT030CB
                       BKN040=
201903200500 TAF LRSB 200500Z 2006/2106 VRB04KT 9999 BKN035
                      TEMPO 2009/2018 5000 -RA -SHRA BKN015 SCT030CB
                       BKN040=
201903201100 TAF LRSB 201100Z 2012/2112 VRB04KT 9999 BKN025
                      TEMPO 2012/2018 5000 -RA -SHRA BKN015 SCT025CB
                       BKN030=
201903201700 TAF LRSB 201700Z 2018/2118 VRB04KT 9999 BKN025
                      TEMPO 2018/2020 5000 -RA BR BKN015 OVC020=
201903202300 TAF LRSB 202300Z 2100/2124 VRB04KT 9999 BKN040=
201903210500 TAF LRSB 210500Z 2106/2206 VRB04KT 9999 BKN040
                      TEMPO 2111/2115 34010KT 5000 -RA BR=
201903211100 TAF LRSB 211100Z 2112/2212 VRB04KT 9999 SCT040
                      TEMPO 2112/2116 34010KT=
201903211700 TAF LRSB 211700Z 2118/2218 VRB04KT CAVOK=
201903212300 TAF LRSB 212300Z 2200/2224 VRB04KT CAVOK=
201903220500 TAF LRSB 220500Z 2206/2306 VRB04KT CAVOK
                      TEMPO 2300/2306 5000 BR=
201903221100 TAF LRSB 221100Z 2212/2312 VRB04KT CAVOK
                      TEMPO 2300/2306 5000 BR
                      BECMG 2310/2312 34010KT=
201903221700 TAF LRSB 221700Z 2218/2318 VRB04KT CAVOK
                      TEMPO 2300/2306 5000 BR
                      BECMG 2310/2312 34010KT
                      BECMG 2316/2318 27006KT=
201903222300 TAF LRSB 222300Z 2300/2324 27008KT CAVOK
                      TEMPO 2300/2306 5000 BR
                      BECMG 2310/2312 35010KT
                      BECMG 2316/2318 VRB04KT=
201903230500 TAF LRSB 230500Z 2306/2406 VRB04KT 9999 BKN040
                      BECMG 2309/2311 35010KT
                      BECMG 2316/2318 VRB04KT=
201903231100 TAF LRSB 231100Z 2312/2412 VRB04KT CAVOK
                      PROB40 TEMPO 2312/2316 35010KT=
201903231700 TAF LRSB 231700Z 2318/2418 VRB04KT CAVOK=
201903232300 TAF LRSB 232300Z 2400/2424 VRB04KT CAVOK
                      PROB40 TEMPO 2409/2415 35010KT=
201903240500 TAF LRSB 240500Z 2406/2506 VRB04KT CAVOK
                      PROB40 TEMPO 2409/2415 33010KT=
201903241100 TAF LRSB 241100Z 2412/2512 35010KT CAVOK
                      BECMG 2414/2416 VRB04KT
                      BECMG 2507/2509 30012KT
                      TEMPO 2509/2512 30015G25KT=
201903241700 TAF LRSB 241700Z 2418/2518 VRB04KT CAVOK
                      BECMG 2507/2509 30012KT
                      TEMPO 2510/2515 30015G25KT=
201903242300 TAF LRSB 242300Z 2500/2524 VRB04KT CAVOK
                      BECMG 2507/2509 30012KT
                      TEMPO 2510/2515 30015G25KT=
201903250500 TAF LRSB 250500Z 2506/2606 VRB04KT CAVOK
                      BECMG 2507/2509 31012KT
                      PROB40 TEMPO 2510/2515 32015G25KT
                      TEMPO 2601/2606 5000 -SHRA SCT010 SCT030CB
                       BKN040=
201903251100 TAF LRSB 251100Z 2512/2612 30015KT CAVOK
                      TEMPO 2512/2516 32015G25KT
                      BECMG 2517/2518 VRB04KT
                      TEMPO 2601/2606 3000 RA BKN010 OVC025=
201903251700 TAF LRSB 251700Z 2518/2618 30010KT CAVOK
                      BECMG 2519/2521 VRB04KT
                      BECMG 2601/2603 5000 -RA BKN015 OVC030
                      PROB30 TEMPO 2603/2606 3000 SHRA BKN010 SCT025CB
                       OVC030
                      BECMG 2608/2610 CAVOK=
201903252300 TAF LRSB 252300Z 2600/2624 VRB04KT CAVOK
                      BECMG 2601/2603 5000 -RA BKN015 OVC030
                      PROB30 TEMPO 2603/2606 3000 SHRA BKN010 SCT025CB
                       OVC030
                      BECMG 2608/2610 CAVOK=
201903260500 TAF LRSB 260500Z 2606/2706 VRB04KT 5000 -RA SCT010 BKN030
                      PROB30 TEMPO 2606/2608 SHRA BKN010 SCT025CB
                       OVC030
                      BECMG 2608/2610 9999 NSW
                      BECMG 2702/2704 29010KT=
201903261100 TAF LRSB 261100Z 2612/2712 VRB04KT 9999 SCT035
                      BECMG 2701/2703 30010KT=
201903261700 TAF LRSB 261700Z 2618/2718 VRB04KT 9999 SCT055
                      BECMG 2701/2703 31010KT
                      BECMG 2715/2717 VRB04KT=
201903262300 TAF LRSB 262300Z 2700/2724 VRB04KT 9999 BKN045
                      BECMG 2701/2703 32012KT
                      BECMG 2715/2717 VRB04KT=
201903270500 TAF LRSB 270500Z 2706/2806 VRB04KT CAVOK
                      BECMG 2706/2708 33010KT
                      BECMG 2717/2719 20005KT=
201903271100 TAF LRSB 271100Z 2712/2812 34012KT CAVOK
                      BECMG 2717/2719 VRB04KT=
201903271700 TAF LRSB 271700Z 2718/2818 30005KT CAVOK=
201903272300 TAF LRSB 272300Z 2800/2824 25008KT CAVOK
                      BECMG 2809/2811 01010KT
                      BECMG 2814/2816 24007KT=
201903280500 TAF LRSB 280500Z 2806/2906 VRB04KT CAVOK
                      BECMG 2810/2812 35010KT
                      BECMG 2817/2819 22005KT=
201903281100 TAF LRSB 281100Z 2812/2912 VRB04KT CAVOK=
201903281700 TAF LRSB 281700Z 2818/2918 VRB04KT CAVOK
                      TEMPO 2910/2914 35010KT=
201903282300 TAF LRSB 282300Z 2900/2924 27006KT CAVOK
                      TEMPO 2909/2915 35012KT=
201903290500 TAF LRSB 290500Z 2906/3006 VRB04KT CAVOK=
201903291100 TAF LRSB 291100Z 2912/3012 34008KT CAVOK=
201903291700 TAF LRSB 291700Z 2918/3018 VRB04KT CAVOK
                      TEMPO 3002/3005 3000 BR=
201903292300 TAF LRSB 292300Z 3000/3024 VRB04KT CAVOK=
201903300500 TAF LRSB 300500Z 3006/3106 VRB04KT CAVOK=
201903301100 TAF LRSB 301100Z 3012/3112 VRB04KT CAVOK=
201903301700 TAF LRSB 301700Z 3018/3118 VRB04KT CAVOK=
201903302300 TAF LRSB 302300Z 3100/3124 VRB04KT CAVOK=
201903310500 TAF LRSB 310500Z 3106/0106 VRB04KT CAVOK=
201903311100 TAF LRSB 311100Z 3112/0112 VRB04KT CAVOK=
201903311700 TAF LRSB 311700Z 3118/0118 VRB04KT CAVOK
                      BECMG 0109/0111 09010KT=
201903312300 TAF LRSB 312300Z 0100/0124 VRB04KT CAVOK
                      BECMG 0109/0111 12010KT=
