201904010000 METAR LRSB 010000Z 26008KT CAVOK 07/M01 Q1016=
201904010030 METAR LRSB 010030Z VRB02KT CAVOK 07/M01 Q1016=
201904010100 METAR LRSB 010100Z VRB02KT CAVOK 05/M01 Q1016=
201904010130 METAR LRSB 010130Z 10004KT CAVOK 05/M01 Q1016=
201904010200 METAR LRSB 010200Z 08002KT CAVOK 05/M01 Q1016=
201904010230 METAR LRSB 010230Z 09004KT CAVOK 04/M01 Q1016=
201904010300 METAR LRSB 010300Z AUTO 12002KT 9999 NCD 04/M01 Q1016=
201904010330 METAR LRSB 010330Z 12002KT CAVOK 04/M01 Q1016=
201904010400 METAR LRSB 010400Z 00000KT CAVOK 03/M02 Q1017=
201904010430 METAR LRSB 010430Z VRB01KT CAVOK 02/M01 Q1017=
201904010500 METAR LRSB 010500Z 09002KT CAVOK 04/M01 Q1017=
201904010530 METAR LRSB 010530Z 06003KT 030V090 CAVOK 05/01 Q1017=
201904010600 METAR LRSB 010600Z 10004KT CAVOK 07/01 Q1017=
201904010630 METAR LRSB 010630Z 11004KT CAVOK 09/01 Q1017=
201904010700 METAR LRSB 010700Z VRB02KT CAVOK 11/01 Q1017=
201904010730 METAR LRSB 010730Z VRB02KT CAVOK 13/01 Q1017=
201904010800 METAR LRSB 010800Z 05004KT 020V100 CAVOK 14/01 Q1018=
201904010830 METAR LRSB 010830Z 07004KT 030V110 CAVOK 15/M00 Q1018=
201904010900 METAR LRSB 010900Z 11006KT 070V130 CAVOK 16/01 Q1017=
201904010930 METAR LRSB 010930Z 10007KT 070V130 CAVOK 16/01 Q1017=
201904011000 METAR LRSB 011000Z 11006KT 070V160 CAVOK 17/00 Q1017=
201904011030 METAR LRSB 011030Z 07008KT CAVOK 18/M00 Q1017=
201904011100 METAR LRSB 011100Z 09009KT 070V130 CAVOK 19/01 Q1016=
201904011130 METAR LRSB 011130Z 12008KT 070V140 CAVOK 19/01 Q1016=
201904011200 METAR LRSB 011200Z 13007KT 100V160 CAVOK 19/M00 Q1016=
201904011230 METAR LRSB 011230Z 10007KT 040V130 CAVOK 20/M00 Q1015=
201904011300 METAR LRSB 011300Z VRB05KT CAVOK 20/M02 Q1015=
201904011330 METAR LRSB 011330Z 13005KT 070V160 9999 FEW045 20/M01 Q1015=
201904011400 METAR LRSB 011400Z 13006KT 070V170 9999 FEW045 20/M01 Q1015=
201904011430 METAR LRSB 011430Z 12004KT 100V190 9999 FEW045 20/M02 Q1014=
201904011500 METAR LRSB 011500Z 07005KT 030V100 9999 FEW050 20/M01 Q1014=
201904011530 METAR LRSB 011530Z 06005KT 020V100 9999 FEW052 19/M01 Q1014=
201904011600 METAR LRSB 011600Z 05005KT 9999 FEW055 18/M01 Q1014=
201904011630 METAR LRSB 011630Z 10005KT 9999 FEW057 17/M01 Q1015=
201904011700 METAR LRSB 011700Z 10010KT CAVOK 16/01 Q1015=
201904011730 METAR LRSB 011730Z 11009KT CAVOK 16/02 Q1015=
201904011800 METAR LRSB 011800Z 13008KT CAVOK 14/02 Q1016=
201904011830 METAR LRSB 011830Z 14006KT CAVOK 14/02 Q1016=
201904011900 METAR LRSB 011900Z 13008KT CAVOK 13/02 Q1016=
201904011930 METAR LRSB 011930Z 11003KT 080V140 CAVOK 13/02 Q1016=
201904012000 METAR LRSB 012000Z 11007KT CAVOK 12/03 Q1016=
201904012030 METAR LRSB 012030Z 12011KT CAVOK 13/02 Q1017=
201904012100 METAR LRSB 012100Z 12011KT CAVOK 12/02 Q1017=
201904012130 METAR LRSB 012130Z 11012KT CAVOK 11/01 Q1017=
201904012200 METAR LRSB 012200Z 11011KT CAVOK 10/01 Q1018=
201904012230 METAR LRSB 012230Z 12011KT CAVOK 10/01 Q1018=
201904012300 METAR LRSB 012300Z 12010KT CAVOK 09/01 Q1018=
201904012330 METAR LRSB 012330Z 13010KT CAVOK 09/M01 Q1019=
201904020000 METAR LRSB 020000Z 13007KT CAVOK 09/M02 Q1019=
201904020030 METAR LRSB 020030Z 12007KT 9999 SCT085 09/M03 Q1019=
201904020100 METAR LRSB 020100Z 12007KT 9999 SCT085 08/M04 Q1019=
201904020130 METAR LRSB 020130Z 13006KT CAVOK 08/M04 Q1019=
201904020200 METAR LRSB 020200Z 12004KT CAVOK 07/M04 Q1019=
201904020230 METAR LRSB 020230Z VRB02KT CAVOK 07/M04 Q1019=
201904020300 METAR LRSB 020300Z 20003KT 160V220 CAVOK 06/M04 Q1019=
201904020330 METAR LRSB 020330Z AUTO 21003KT 170V240 9999 FEW120/// 05/M02
                        Q1020=
201904020400 METAR LRSB 020400Z 18003KT CAVOK 05/M03 Q1020=
201904020430 METAR LRSB 020430Z 19003KT 160V220 CAVOK 05/M03 Q1020=
201904020500 METAR LRSB 020500Z 19003KT CAVOK 05/M02 Q1020=
201904020530 METAR LRSB 020530Z 16003KT 130V210 CAVOK 06/M02 Q1020=
201904020600 METAR LRSB 020600Z 12009KT CAVOK 08/M03 Q1020=
201904020630 METAR LRSB 020630Z 11010KT CAVOK 09/M04 Q1020=
201904020700 METAR LRSB 020700Z 10012KT CAVOK 09/M04 Q1020=
201904020730 METAR LRSB 020730Z 11011KT CAVOK 10/M03 Q1020=
201904020800 METAR LRSB 020800Z 10014KT CAVOK 10/M04 Q1021=
201904020830 METAR LRSB 020830Z 10011KT CAVOK 11/M03 Q1021=
201904020900 METAR LRSB 020900Z 10013KT CAVOK 11/M03 Q1020=
201904020930 METAR LRSB 020930Z 10013KT CAVOK 12/M03 Q1020=
201904021000 METAR LRSB 021000Z 09013KT CAVOK 12/M03 Q1020=
201904021030 METAR LRSB 021030Z 09014KT CAVOK 12/M03 Q1020=
201904021100 METAR LRSB 021100Z 09013KT CAVOK 12/M02 Q1020=
201904021130 METAR LRSB 021130Z 10012KT CAVOK 12/M02 Q1020=
201904021200 METAR LRSB 021200Z 10012KT CAVOK 12/M02 Q1020=
201904021230 METAR LRSB 021230Z 11013KT CAVOK 13/M01 Q1020=
201904021300 METAR LRSB 021300Z 11013KT CAVOK 11/M01 Q1019=
201904021330 METAR LRSB 021330Z 11012KT 9999 FEW068 11/M02 Q1020=
201904021400 METAR LRSB 021400Z 11012KT 9999 FEW068 11/M01 Q1019=
201904021430 METAR LRSB 021430Z 10013KT 9999 FEW070 11/M02 Q1019=
201904021500 METAR LRSB 021500Z 11011KT 9999 FEW072 10/M02 Q1019=
201904021530 METAR LRSB 021530Z 11011KT CAVOK 10/M02 Q1019=
201904021600 METAR LRSB 021600Z 11011KT CAVOK 09/M03 Q1019=
201904021630 METAR LRSB 021630Z 11010KT CAVOK 08/M03 Q1019=
201904021700 METAR LRSB 021700Z 10010KT CAVOK 08/M03 Q1019=
201904021730 METAR LRSB 021730Z 10010KT CAVOK 08/M03 Q1019=
201904021800 METAR LRSB 021800Z 11010KT CAVOK 07/M03 Q1019=
201904021830 METAR LRSB 021830Z 11012KT CAVOK 08/M04 Q1019=
201904021900 METAR LRSB 021900Z 11012KT CAVOK 08/M04 Q1019=
201904021930 METAR LRSB 021930Z 11013KT CAVOK 07/M04 Q1019=
201904022000 METAR LRSB 022000Z 11014KT CAVOK 08/M03 Q1019=
201904022030 METAR LRSB 022030Z 12010KT CAVOK 08/M03 Q1019=
201904022100 METAR LRSB 022100Z 18003KT 090V260 CAVOK 06/M03 Q1019=
201904022130 METAR LRSB 022130Z 14011KT CAVOK 07/M03 Q1018=
201904022200 METAR LRSB 022200Z AUTO 17006KT 130V210 9999 NCD 06/M03 Q1018=
201904022230 METAR LRSB 022230Z 24004KT 180V260 CAVOK 03/M02 Q1018=
201904022300 METAR LRSB 022300Z AUTO 23006KT 9999 NCD 02/M01 Q1018=
201904022330 METAR LRSB 022330Z 22004KT 130V240 CAVOK 03/M02 Q1018=
201904030000 METAR LRSB 030000Z AUTO 24005KT 9999 NCD 02/M02 Q1018=
201904030030 METAR LRSB 030030Z AUTO 25005KT 9999 NCD 01/M02 Q1018=
201904030100 METAR LRSB 030100Z 23003KT 210V270 CAVOK 00/M02 Q1018=
201904030130 METAR LRSB 030130Z 25005KT CAVOK 00/M02 Q1018=
201904030200 METAR LRSB 030200Z AUTO 24005KT 9999 NCD 01/M02 Q1018=
201904030230 METAR LRSB 030230Z 25004KT CAVOK M00/M03 Q1018=
201904030300 METAR LRSB 030300Z 27003KT CAVOK M00/M03 Q1018=
201904030330 METAR LRSB 030330Z 24002KT CAVOK M01/M03 Q1018=
201904030400 METAR LRSB 030400Z 25003KT CAVOK M01/M03 Q1018=
201904030430 METAR LRSB 030430Z 23003KT 140V250 CAVOK M02/M03 Q1018=
201904030500 METAR LRSB 030500Z 28003KT CAVOK 00/M02 Q1017=
201904030530 METAR LRSB 030530Z VRB02KT CAVOK 03/M00 Q1017=
201904030600 METAR LRSB 030600Z VRB01KT CAVOK 04/M01 Q1017=
201904030630 METAR LRSB 030630Z VRB02KT CAVOK 06/00 Q1017=
201904030700 METAR LRSB 030700Z VRB02KT CAVOK 08/M01 Q1017=
201904030730 METAR LRSB 030730Z VRB02KT CAVOK 10/M02 Q1017=
201904030800 METAR LRSB 030800Z 14007KT 110V180 CAVOK 12/M05 Q1017=
201904030830 METAR LRSB 030830Z 13014KT CAVOK 13/M05 Q1016=
201904030900 METAR LRSB 030900Z 13017KT CAVOK 13/M06 Q1016=
201904030930 METAR LRSB 030930Z 13017KT CAVOK 13/M05 Q1016=
201904031000 METAR LRSB 031000Z 13015KT CAVOK 14/M05 Q1015=
201904031030 METAR LRSB 031030Z 13018KT CAVOK 14/M05 Q1015=
201904031100 METAR LRSB 031100Z 13018KT CAVOK 15/M04 Q1015=
201904031130 METAR LRSB 031130Z 13019KT CAVOK 14/M05 Q1014=
201904031200 METAR LRSB 031200Z 14019KT CAVOK 15/M04 Q1014=
201904031230 METAR LRSB 031230Z 14017KT CAVOK 15/M03 Q1014=
201904031300 METAR LRSB 031300Z 14019KT CAVOK 15/M04 Q1014=
201904031330 METAR LRSB 031330Z 13017KT CAVOK 14/M04 Q1014=
201904031400 METAR LRSB 031400Z 14016KT CAVOK 14/M04 Q1013=
201904031430 METAR LRSB 031430Z 13015KT CAVOK 14/M04 Q1013=
201904031500 METAR COR LRSB 031500Z 13013KT CAVOK 14/M04 Q1013=
201904031530 METAR LRSB 031530Z 13012KT CAVOK 13/M04 Q1013=
201904031600 METAR LRSB 031600Z 13011KT CAVOK 13/M05 Q1013=
201904031630 METAR LRSB 031630Z 14012KT CAVOK 12/M05 Q1013=
201904031700 METAR LRSB 031700Z 14010KT CAVOK 11/M05 Q1013=
201904031730 METAR LRSB 031730Z 15010KT CAVOK 11/M05 Q1013=
201904031800 METAR LRSB 031800Z 16010KT CAVOK 11/M05 Q1013=
201904031830 METAR LRSB 031830Z 17013KT CAVOK 11/M05 Q1014=
201904031900 METAR LRSB 031900Z 16015KT CAVOK 11/M06 Q1014=
201904031930 METAR LRSB 031930Z 16013KT CAVOK 10/M06 Q1014=
201904032000 METAR LRSB 032000Z 16016KT CAVOK 10/M06 Q1014=
201904032030 METAR LRSB 032030Z 15014KT CAVOK 10/M06 Q1014=
201904032100 METAR LRSB 032100Z 15014KT CAVOK 09/M06 Q1014=
201904032130 METAR LRSB 032130Z 15014KT CAVOK 09/M06 Q1014=
201904032200 METAR LRSB 032200Z 16012KT CAVOK 09/M06 Q1014=
201904032230 METAR LRSB 032230Z 17007KT 140V200 CAVOK 09/M06 Q1014=
201904032300 METAR LRSB 032300Z 16007KT CAVOK 09/M06 Q1014=
201904032330 METAR LRSB 032330Z 16007KT CAVOK 09/M06 Q1014=
201904040000 METAR LRSB 040000Z 14005KT CAVOK 09/M05 Q1014=
201904040030 METAR LRSB 040030Z 16005KT CAVOK 08/M05 Q1014=
201904040100 METAR LRSB 040100Z 17002KT 9999 FEW080 05/M02 Q1014=
201904040130 METAR LRSB 040130Z 13003KT 9999 SCT080 07/M05 Q1014=
201904040200 METAR LRSB 040200Z 14003KT 9999 FEW080 06/M05 Q1014=
201904040230 METAR LRSB 040230Z 19001KT 9999 FEW082 04/M03 Q1014=
201904040300 METAR COR LRSB 040300Z 00000KT 9999 FEW080 04/M02 Q1013=
201904040330 METAR COR LRSB 040330Z 00000KT CAVOK 05/M03 Q1013=
201904040400 METAR LRSB 040400Z VRB01KT CAVOK 03/M02 Q1013=
201904040430 METAR LRSB 040430Z 19002KT CAVOK 04/M02 Q1013=
201904040500 METAR LRSB 040500Z 00000KT CAVOK 04/M01 Q1013=
201904040530 METAR LRSB 040530Z VRB01KT CAVOK 07/M02 Q1013=
201904040600 METAR LRSB 040600Z VRB02KT CAVOK 07/M01 Q1013=
201904040630 METAR LRSB 040630Z VRB02KT CAVOK 09/M03 Q1013=
201904040700 METAR LRSB 040700Z 19003KT 140V230 CAVOK 10/M02 Q1013=
201904040730 METAR LRSB 040730Z VRB03KT CAVOK 11/M02 Q1013=
201904040800 METAR LRSB 040800Z VRB02KT CAVOK 12/M02 Q1013=
201904040830 METAR LRSB 040830Z 12004KT 040V190 CAVOK 13/M03 Q1013=
201904040900 METAR LRSB 040900Z 11009KT 9999 FEW056 13/M03 Q1013=
201904040930 METAR LRSB 040930Z 11011KT 9999 FEW056 14/M03 Q1013=
201904041000 METAR LRSB 041000Z 12012KT 9999 FEW055 14/M03 Q1012=
201904041030 METAR LRSB 041030Z 12013KT 9999 FEW058 16/M02 Q1012=
201904041100 METAR LRSB 041100Z 13013KT 9999 FEW058 15/M03 Q1012=
201904041130 METAR LRSB 041130Z 13013KT 9999 FEW057 16/M03 Q1012=
201904041200 METAR LRSB 041200Z 14015KT 9999 FEW055 16/M02 Q1011=
201904041230 METAR LRSB 041230Z 13015KT 9999 FEW055 15/M02 Q1011=
201904041300 METAR LRSB 041300Z 12014KT 9999 FEW060 16/M02 Q1010=
201904041330 METAR LRSB 041330Z 14013KT 9999 FEW065 17/M01 Q1010=
201904041400 METAR LRSB 041400Z 14015KT 120V180 9999 FEW068 16/M01 Q1010=
201904041430 METAR LRSB 041430Z 16011KT 9999 FEW075 17/M01 Q1010=
201904041500 METAR LRSB 041500Z 18012KT CAVOK 16/M01 Q1010=
201904041530 METAR LRSB 041530Z 18010KT CAVOK 16/M01 Q1010=
201904041600 METAR LRSB 041600Z 16011KT 130V190 CAVOK 15/M01 Q1010=
201904041630 METAR LRSB 041630Z 15008KT 130V190 CAVOK 14/M01 Q1010=
201904041700 METAR LRSB 041700Z 16008KT CAVOK 13/M02 Q1010=
201904041730 METAR LRSB 041730Z 14006KT 110V180 CAVOK 11/M02 Q1010=
201904041800 METAR LRSB 041800Z 16010KT CAVOK 12/M02 Q1011=
201904041830 METAR LRSB 041830Z AUTO 17007KT 9999 NCD 12/M01 Q1011=
201904041900 METAR LRSB 041900Z 17006KT 140V200 CAVOK 11/M01 Q1011=
201904041930 METAR COR LRSB 041930Z 17006KT CAVOK 11/M01 Q1011=
201904042000 METAR LRSB 042000Z 17009KT CAVOK 12/M01 Q1011=
201904042030 METAR LRSB 042030Z 16010KT CAVOK 11/M01 Q1011=
201904042100 METAR LRSB 042100Z AUTO 15009KT 9999 SCT100/// 11/M01 Q1011=
201904042130 METAR LRSB 042130Z 15011KT 130V190 CAVOK 11/M01 Q1011=
201904042200 METAR LRSB 042200Z 14008KT CAVOK 10/M01 Q1011=
201904042230 METAR LRSB 042230Z 16006KT CAVOK 09/M01 Q1011=
201904042300 METAR LRSB 042300Z 22003KT CAVOK 08/M01 Q1011=
201904042330 METAR COR LRSB 042330Z 15006KT CAVOK 08/M01 Q1011=
201904050000 METAR LRSB 050000Z 16004KT CAVOK 07/M01 Q1011=
201904050030 METAR LRSB 050030Z 22003KT CAVOK 04/M01 Q1011=
201904050100 METAR LRSB 050100Z 31003KT CAVOK 02/M01 Q1011=
201904050130 METAR LRSB 050130Z 31003KT CAVOK 03/M00 Q1011=
201904050200 METAR LRSB 050200Z 29004KT CAVOK 03/M00 Q1011=
201904050230 METAR LRSB 050230Z VRB02KT CAVOK 04/00 Q1011=
201904050300 METAR LRSB 050300Z VRB02KT CAVOK 04/01 Q1011=
201904050330 METAR LRSB 050330Z VRB01KT CAVOK 03/M00 Q1011=
201904050400 METAR LRSB 050400Z 31003KT CAVOK 03/M00 Q1011=
201904050430 METAR LRSB 050430Z 25003KT CAVOK 04/01 Q1011=
201904050500 METAR LRSB 050500Z 34001KT CAVOK 06/02 Q1011=
201904050530 METAR LRSB 050530Z 26004KT 230V290 CAVOK 06/03 Q1011=
201904050600 METAR LRSB 050600Z 21005KT 160V240 CAVOK 06/03 Q1011=
201904050630 METAR LRSB 050630Z 25003KT 190V310 CAVOK 11/02 Q1011=
201904050700 METAR LRSB 050700Z 27004KT 180V320 CAVOK 13/03 Q1010=
201904050730 METAR LRSB 050730Z 13015KT CAVOK 15/01 Q1010=
201904050800 METAR LRSB 050800Z 13015KT CAVOK 16/00 Q1010=
201904050830 METAR LRSB 050830Z 12014KT CAVOK 17/01 Q1010=
201904050900 METAR LRSB 050900Z 13016KT CAVOK 17/01 Q1010=
201904050930 METAR LRSB 050930Z 14015KT CAVOK 18/01 Q1010=
201904051000 METAR LRSB 051000Z 13015KT 9999 FEW053 18/01 Q1009=
201904051030 METAR LRSB 051030Z 13016KT 9999 FEW050 18/00 Q1009=
201904051100 METAR LRSB 051100Z 15013KT 130V200 9999 FEW050 19/01 Q1010=
201904051130 METAR LRSB 051130Z 16013KT 130V200 9999 FEW045 19/00 Q1010=
201904051200 METAR LRSB 051200Z 15014KT 9999 FEW045 19/01 Q1009=
201904051230 METAR LRSB 051230Z 16012KT 140V200 9999 FEW050 19/00 Q1009=
201904051300 METAR LRSB 051300Z 14017KT 9999 FEW045 18/M00 Q1009=
201904051330 METAR LRSB 051330Z 15017KT 9999 FEW047 18/M00 Q1009=
201904051400 METAR LRSB 051400Z 14015KT CAVOK 18/00 Q1009=
201904051430 METAR LRSB 051430Z 15015KT CAVOK 17/00 Q1009=
201904051500 METAR LRSB 051500Z 15015KT CAVOK 17/00 Q1009=
201904051530 METAR LRSB 051530Z 14012KT CAVOK 16/00 Q1009=
201904051600 METAR LRSB 051600Z 14013KT CAVOK 15/01 Q1009=
201904051630 METAR LRSB 051630Z 14012KT CAVOK 14/02 Q1009=
201904051700 METAR LRSB 051700Z 14012KT CAVOK 13/02 Q1009=
201904051730 METAR LRSB 051730Z 14012KT CAVOK 13/02 Q1009=
201904051800 METAR LRSB 051800Z 14009KT CAVOK 13/02 Q1009=
201904051830 METAR LRSB 051830Z 17003KT CAVOK 12/02 Q1009=
201904051900 METAR LRSB 051900Z 14005KT CAVOK 13/02 Q1009=
201904051930 METAR LRSB 051930Z 12007KT CAVOK 12/03 Q1009=
201904052000 METAR LRSB 052000Z 14009KT CAVOK 13/03 Q1009=
201904052030 METAR LRSB 052030Z 14011KT CAVOK 13/03 Q1009=
201904052100 METAR LRSB 052100Z 14008KT CAVOK 12/03 Q1009=
201904052130 METAR LRSB 052130Z 14010KT CAVOK 12/03 Q1009=
201904052200 METAR LRSB 052200Z 14006KT CAVOK 12/03 Q1009=
201904052230 METAR LRSB 052230Z 13007KT CAVOK 12/03 Q1009=
201904052300 METAR LRSB 052300Z 13005KT CAVOK 11/03 Q1010=
201904052330 METAR LRSB 052330Z 14004KT 110V170 9999 FEW083 12/03 Q1010=
201904060000 METAR LRSB 060000Z 12004KT 9999 FEW081 12/03 Q1010=
201904060030 METAR LRSB 060030Z 14005KT 9999 SCT083 12/03 Q1009=
201904060100 METAR LRSB 060100Z 14003KT 9999 SCT083 12/03 Q1009=
201904060130 METAR LRSB 060130Z 12004KT 9999 FEW086 12/02 Q1009=
201904060200 METAR LRSB 060200Z 13007KT CAVOK 12/02 Q1009=
201904060230 METAR LRSB 060230Z 14004KT 9999 FEW080 12/02 Q1009=
201904060300 METAR LRSB 060300Z 16006KT 9999 FEW080 12/02 Q1009=
201904060330 METAR LRSB 060330Z 14007KT 110V180 9999 SCT080 13/02 Q1009=
201904060400 METAR LRSB 060400Z 15004KT 120V180 9999 SCT084 12/02 Q1009=
201904060430 METAR LRSB 060430Z 10010KT 9999 FEW086 11/02 Q1009=
201904060500 METAR LRSB 060500Z 12008KT 9999 FEW086 10/02 Q1009=
201904060530 METAR LRSB 060530Z 13009KT 9999 SCT084 12/02 Q1009=
201904060600 METAR LRSB 060600Z 11009KT 9999 FEW085 11/03 Q1009=
201904060630 METAR LRSB 060630Z 15012KT 9999 FEW086 15/02 Q1009=
201904060700 METAR LRSB 060700Z 15014KT 9999 FEW087 15/02 Q1009=
201904060730 METAR LRSB 060730Z 15016KT 9999 FEW086 15/02 Q1009=
201904060800 METAR LRSB 060800Z 14017KT CAVOK 15/02 Q1009=
201904060830 METAR LRSB 060830Z 14018KT CAVOK 16/02 Q1009=
201904060900 METAR LRSB 060900Z 14017G27KT CAVOK 17/02 Q1009=
201904060930 METAR LRSB 060930Z 14016KT CAVOK 16/01 Q1009=
201904061000 METAR LRSB 061000Z 14014KT CAVOK 16/01 Q1009=
201904061030 METAR LRSB 061030Z 13012KT 9999 FEW086 17/01 Q1009=
201904061100 METAR LRSB 061100Z 13015KT 9999 FEW084 19/02 Q1009=
201904061130 METAR LRSB 061130Z 14013KT CAVOK 18/01 Q1009=
201904061200 METAR LRSB 061200Z 13017KT CAVOK 18/00 Q1008=
201904061230 METAR LRSB 061230Z 14017KT CAVOK 19/01 Q1008=
201904061300 METAR LRSB 061300Z 14015KT CAVOK 18/M01 Q1008=
201904061330 METAR LRSB 061330Z 14016KT CAVOK 18/M01 Q1008=
201904061400 METAR LRSB 061400Z 15014KT CAVOK 18/M00 Q1008=
201904061430 METAR LRSB 061430Z 15016KT CAVOK 18/M01 Q1008=
201904061500 METAR LRSB 061500Z 15014KT CAVOK 17/M01 Q1008=
201904061530 METAR LRSB 061530Z 15013KT CAVOK 16/M01 Q1008=
201904061600 METAR LRSB 061600Z 15009KT CAVOK 16/M00 Q1008=
201904061630 METAR LRSB 061630Z 15014KT CAVOK 15/M01 Q1008=
201904061700 METAR LRSB 061700Z 14009KT CAVOK 14/M00 Q1009=
201904061730 METAR LRSB 061730Z 15009KT CAVOK 13/M00 Q1009=
201904061800 METAR LRSB 061800Z 15008KT CAVOK 12/00 Q1009=
201904061830 METAR LRSB 061830Z 17009KT CAVOK 14/M00 Q1009=
201904061900 METAR LRSB 061900Z 18010KT CAVOK 14/M00 Q1009=
201904061930 METAR LRSB 061930Z 17008KT 130V220 CAVOK 14/M00 Q1009=
201904062000 METAR LRSB 062000Z 17010KT 140V200 CAVOK 14/M00 Q1009=
201904062030 METAR LRSB 062030Z 15009KT CAVOK 13/M00 Q1009=
201904062100 METAR LRSB 062100Z 16006KT CAVOK 13/M00 Q1010=
201904062130 METAR LRSB 062130Z 15008KT CAVOK 13/00 Q1010=
201904062200 METAR LRSB 062200Z 16008KT CAVOK 12/00 Q1010=
201904062230 METAR LRSB 062230Z 11006KT 080V140 CAVOK 12/M01 Q1009=
201904062300 METAR COR LRSB 062300Z 11006KT 040V150 CAVOK 11/M01 Q1009=
201904062330 METAR LRSB 062330Z 10007KT 090V150 CAVOK 11/M01 Q1009=
201904070000 METAR LRSB 070000Z AUTO 13010KT 9999 FEW150/// 11/M00 Q1009=
201904070030 METAR LRSB 070030Z AUTO 20008KT 150V240 9999 FEW150/// 10/00
                        Q1009=
201904070100 METAR LRSB 070100Z 18006KT CAVOK 10/M01 Q1009=
201904070130 METAR LRSB 070130Z AUTO 22003KT 170V320 9999 BKN110/// 08/M01
                        Q1009=
201904070200 METAR LRSB 070200Z 31003KT CAVOK 09/M00 Q1009=
201904070230 METAR LRSB 070230Z 30003KT 290V360 CAVOK 06/M01 Q1009=
201904070300 METAR LRSB 070300Z 30005KT CAVOK 05/M01 Q1009=
201904070330 METAR LRSB 070330Z 23003KT 180V250 CAVOK 04/M01 Q1009=
201904070400 METAR LRSB 070400Z VRB02KT CAVOK 04/M00 Q1009=
201904070430 METAR LRSB 070430Z VRB02KT CAVOK 04/M01 Q1009=
201904070500 METAR LRSB 070500Z 05003KT 350V090 CAVOK 07/01 Q1009=
201904070530 METAR LRSB 070530Z VRB02KT CAVOK 09/01 Q1009=
201904070600 METAR LRSB 070600Z 10003KT 060V130 CAVOK 11/02 Q1009=
201904070630 METAR LRSB 070630Z 08004KT 010V110 CAVOK 12/03 Q1009=
201904070700 METAR LRSB 070700Z 07004KT CAVOK 14/03 Q1009=
201904070730 METAR LRSB 070730Z 15004KT 100V250 CAVOK 16/04 Q1009=
201904070800 METAR LRSB 070800Z 12009KT 100V160 CAVOK 18/03 Q1009=
201904070830 METAR LRSB 070830Z 12013KT CAVOK 18/02 Q1009=
201904070900 METAR LRSB 070900Z 14018KT CAVOK 19/02 Q1008=
201904070930 METAR LRSB 070930Z 14016KT CAVOK 18/02 Q1009=
201904071000 METAR LRSB 071000Z 14016KT CAVOK 17/03 Q1009=
201904071030 METAR LRSB 071030Z 14017KT CAVOK 17/03 Q1009=
201904071100 METAR LRSB 071100Z 15015KT CAVOK 17/03 Q1009=
201904071130 METAR LRSB 071130Z 14013KT CAVOK 17/03 Q1009=
201904071200 METAR LRSB 071200Z 15010KT CAVOK 16/04 Q1009=
201904071230 METAR LRSB 071230Z 16012KT CAVOK 16/04 Q1009=
201904071300 METAR LRSB 071300Z 16011KT CAVOK 16/03 Q1009=
201904071330 METAR LRSB 071330Z 18010KT CAVOK 16/03 Q1008=
201904071400 METAR LRSB 071400Z 17012KT CAVOK 16/04 Q1008=
201904071430 METAR LRSB 071430Z 18009KT 150V210 9999 SCT070 16/04 Q1008=
201904071500 METAR LRSB 071500Z 17007KT 9999 BKN070 16/04 Q1008=
201904071530 METAR LRSB 071530Z 16011KT 150V210 9999 BKN075 15/03 Q1008=
201904071600 METAR LRSB 071600Z AUTO 17008KT 9999 FEW079/// SCT099///
                        16/03 Q1008=
201904071630 METAR LRSB 071630Z 18007KT 9999 SCT080 15/03 Q1008=
201904071700 METAR LRSB 071700Z 18008KT 150V220 9999 SCT088 14/03 Q1008
                        NOSIG=
201904071730 METAR LRSB 071730Z 18008KT 150V210 CAVOK 14/02 Q1008 NOSIG=
201904071800 METAR LRSB 071800Z 17009KT CAVOK 14/02 Q1008 NOSIG=
201904071830 METAR LRSB 071830Z 17009KT CAVOK 14/02 Q1008 NOSIG=
201904071900 METAR LRSB 071900Z 17007KT CAVOK 13/02 Q1008 NOSIG=
201904071930 METAR LRSB 071930Z 16007KT CAVOK 13/02 Q1008 NOSIG=
201904072000 METAR LRSB 072000Z 16007KT CAVOK 13/02 Q1008 NOSIG=
201904072030 METAR LRSB 072030Z 17005KT CAVOK 13/01 Q1008 NOSIG=
201904072100 METAR LRSB 072100Z 15003KT CAVOK 12/01 Q1007 NOSIG=
201904072130 METAR LRSB 072130Z 16003KT 140V210 CAVOK 10/01 Q1007 NOSIG=
201904072200 METAR LRSB 072200Z 18003KT CAVOK 08/02 Q1007 NOSIG=
201904072230 METAR LRSB 072230Z 19003KT CAVOK 11/02 Q1007 NOSIG=
201904072300 METAR LRSB 072300Z 21004KT CAVOK 11/02 Q1007 NOSIG=
201904072330 METAR LRSB 072330Z VRB03KT CAVOK 09/03 Q1007 NOSIG=
201904080000 METAR LRSB 080000Z 07003KT 010V120 9999 SCT073 10/03 Q1006
                        NOSIG=
201904080030 METAR LRSB 080030Z 09002KT 9999 SCT066 SCT083 11/03 Q1006
                        NOSIG=
201904080100 METAR LRSB 080100Z 04002KT 9999 BKN062 SCT080 10/03 Q1006
                        NOSIG=
201904080130 METAR LRSB 080130Z VRB02KT 9999 BKN059 SCT076 09/04 Q1006
                        NOSIG=
201904080200 METAR LRSB 080200Z VRB02KT 9999 BKN050 09/04 Q1006 NOSIG=
201904080230 METAR LRSB 080230Z VRB02KT 9999 BKN062 09/04 Q1006 NOSIG=
201904080300 METAR LRSB 080300Z VRB01KT 9999 BKN063 09/04 Q1005 NOSIG=
201904080330 METAR LRSB 080330Z 28003KT 230V320 9999 BKN060 08/04 Q1005
                        NOSIG=
201904080400 METAR LRSB 080400Z VRB02KT 9999 BKN057 SCT080 08/04 Q1005
                        NOSIG=
201904080430 METAR LRSB 080430Z 00000KT 9999 SCT057 BKN088 09/04 Q1005
                        NOSIG=
201904080500 METAR LRSB 080500Z 00000KT 9999 FEW057 09/04 Q1006 NOSIG=
201904080530 METAR LRSB 080530Z VRB02KT 9999 FEW060 10/04 Q1006 NOSIG=
201904080600 METAR LRSB 080600Z 34003KT 300V360 9999 FEW060 11/04 Q1005
                        NOSIG=
201904080630 METAR LRSB 080630Z VRB02KT 9999 FEW061 12/05 Q1005 NOSIG=
201904080700 METAR LRSB 080700Z 26004KT 9999 FEW061 13/05 Q1005 NOSIG=
201904080730 METAR LRSB 080730Z 24005KT 9999 FEW063 13/04 Q1005=
201904080800 METAR LRSB 080800Z VRB02KT 9999 FEW063 15/04 Q1005=
201904080830 METAR LRSB 080830Z 12011KT 9999 FEW059 16/03 Q1005=
201904080900 METAR LRSB 080900Z 13013KT 9999 FEW057 17/04 Q1005=
201904080930 METAR LRSB 080930Z 15013KT 9999 FEW056 17/04 Q1004=
201904081000 METAR LRSB 081000Z 12008KT 080V160 9999 FEW056 17/03 Q1004=
201904081030 METAR LRSB 081030Z 15007KT 110V180 9999 FEW058 19/05 Q1004=
201904081100 METAR LRSB 081100Z 16005KT 100V210 9999 FEW058 19/04 Q1004=
201904081130 METAR LRSB 081130Z 15005KT 110V220 9999 FEW060 19/03 Q1003=
201904081200 METAR LRSB 081200Z 13008KT 9999 FEW045 20/03 Q1003=
201904081230 METAR LRSB 081230Z 10008KT 9999 FEW045 19/02 Q1003=
201904081300 METAR LRSB 081300Z 11009KT 9999 FEW043 SCT060 20/03 Q1003=
201904081330 METAR LRSB 081330Z 11007KT 9999 FEW043 SCT083 19/03 Q1003=
201904081400 METAR LRSB 081400Z 08005KT 050V120 9999 -RA FEW040 SCT082
                        19/03 Q1003=
201904081430 METAR LRSB 081430Z 13004KT 9999 FEW037 SCT078 19/04 Q1003=
201904081500 METAR LRSB 081500Z VRB01KT 9999 FEW045 SCT083 19/03 Q1002=
201904081530 METAR LRSB 081530Z 00000KT 9999 FEW045 SCT080 18/05 Q1002=
201904081600 METAR LRSB 081600Z 11007KT 9999 BKN060 18/05 Q1002=
201904081630 METAR LRSB 081630Z 12011KT 9999 BKN060 17/07 Q1003=
201904081700 METAR LRSB 081700Z 10008KT 9999 BKN060 17/08 Q1003=
201904081730 METAR LRSB 081730Z 11010KT 9999 BKN070 15/08 Q1003=
201904081800 METAR LRSB 081800Z 10008KT 9999 BKN070 14/08 Q1003=
201904081830 METAR LRSB 081830Z 12007KT 090V160 9999 SCT070 14/08 Q1003=
201904081900 METAR LRSB 081900Z 14004KT 9999 SCT070 13/08 Q1004=
201904081930 METAR LRSB 081930Z 14004KT CAVOK 13/08 Q1003=
201904082000 METAR LRSB 082000Z 00000KT CAVOK 11/07 Q1004=
201904082030 METAR LRSB 082030Z AUTO 19003KT 9999 NCD 10/06 Q1004=
201904082100 METAR LRSB 082100Z 00000KT CAVOK 08/06 Q1004=
201904082130 METAR LRSB 082130Z 28003KT CAVOK 07/04 Q1004=
201904082200 METAR LRSB 082200Z 28004KT CAVOK 06/04 Q1004=
201904082230 METAR LRSB 082230Z 00000KT CAVOK 06/04 Q1004=
201904082300 METAR LRSB 082300Z 00000KT CAVOK 08/06 Q1004=
201904082330 METAR LRSB 082330Z VRB02KT CAVOK 09/06 Q1004=
201904090000 METAR LRSB 090000Z 24003KT CAVOK 06/03 Q1004=
201904090030 METAR LRSB 090030Z VRB02KT CAVOK 06/03 Q1004=
201904090100 METAR LRSB 090100Z 26002KT CAVOK 04/02 Q1004=
201904090130 METAR LRSB 090130Z VRB02KT CAVOK 05/03 Q1004=
201904090200 METAR LRSB 090200Z VRB01KT CAVOK 05/03 Q1004=
201904090230 METAR LRSB 090230Z VRB01KT CAVOK 05/03 Q1004=
201904090300 METAR LRSB 090300Z VRB01KT CAVOK 05/04 Q1004=
201904090330 METAR LRSB 090330Z 30002KT CAVOK 05/04 Q1004=
201904090400 METAR COR LRSB 090400Z 24004KT CAVOK 04/03 Q1004=
201904090430 METAR LRSB 090430Z 23002KT CAVOK 05/03 Q1004=
201904090500 METAR COR LRSB 090500Z 00000KT CAVOK 06/04 Q1005=
201904090530 METAR LRSB 090530Z 00000KT CAVOK 08/06 Q1005=
201904090600 METAR LRSB 090600Z 00000KT CAVOK 11/07 Q1005=
201904090630 METAR LRSB 090630Z VRB02KT CAVOK 12/07 Q1004=
201904090700 METAR LRSB 090700Z VRB02KT CAVOK 13/07 Q1005=
201904090730 METAR LRSB 090730Z VRB02KT CAVOK 13/07 Q1004=
201904090800 METAR LRSB 090800Z AUTO 01004KT 330V070 9999 SCT094/// 14/08
                        Q1004=
201904090830 METAR LRSB 090830Z 35003KT 260V040 CAVOK 15/08 Q1004=
201904090900 METAR LRSB 090900Z 35004KT 310V110 9999 FEW052 16/08 Q1004=
201904090930 METAR LRSB 090930Z 03003KT 290V100 9999 SCT047 17/08 Q1004=
201904091000 METAR LRSB 091000Z VRB05KT 9999 SCT045 18/08 Q1004=
201904091030 METAR LRSB 091030Z 06006KT 020V080 9999 FEW043TCU SCT047
                        18/07 Q1004=
201904091100 METAR LRSB 091100Z VRB04KT 9999 FEW042TCU SCT047 19/07 Q1003=
201904091130 METAR LRSB 091130Z VRB01KT 9999 FEW042TCU SCT047 19/07 Q1003=
201904091200 METAR LRSB 091200Z VRB03KT 9999 BKN047 21/08 Q1003=
201904091230 METAR LRSB 091230Z 03004KT 280V090 9999 FEW040CB SCT048 20/06
                        Q1003=
201904091300 METAR LRSB 091300Z VRB02KT 9999 SCT045CB BKN056 21/06 Q1003=
201904091330 METAR LRSB 091330Z 16009KT 130V190 9999 SCT045CB BKN058 19/08
                        Q1003=
201904091400 METAR LRSB 091400Z 14010KT 9999 SCT045CB BKN053 19/06 Q1003=
201904091430 METAR LRSB 091430Z 15007KT 9999 SCT045CB BKN053 19/06 Q1003=
201904091500 METAR LRSB 091500Z 14007KT 9999 FEW048TCU SCT053 18/06 Q1003=
201904091530 METAR LRSB 091530Z 13007KT 9999 FEW053 SCT067 18/06 Q1003=
201904091600 METAR LRSB 091600Z 12007KT 9999 SCT043 BKN083 17/07 Q1003=
201904091630 METAR LRSB 091630Z 13007KT 9999 VCSH FEW042CB 16/07 Q1003=
201904091700 METAR LRSB 091700Z 12004KT 9999 VCSH FEW040CB SCT085 15/07
                        Q1004=
201904091730 METAR LRSB 091730Z 14004KT 9999 VCSH FEW040CB SCT075 15/06
                        Q1004=
201904091800 METAR LRSB 091800Z VRB03KT 9999 FEW040CB SCT078 15/06 Q1004=
201904091830 METAR LRSB 091830Z 18004KT 130V270 9999 FEW040CB 14/05 Q1004=
201904091900 METAR LRSB 091900Z 14004KT 110V170 9999 FEW086 14/05 Q1005=
201904091930 METAR LRSB 091930Z 15004KT 9999 FEW086 14/05 Q1005=
201904092000 METAR LRSB 092000Z 12004KT CAVOK 13/05 Q1005=
201904092030 METAR LRSB 092030Z VRB02KT CAVOK 11/06 Q1005=
201904092100 METAR LRSB 092100Z 27005KT CAVOK 11/06 Q1005=
201904092130 METAR LRSB 092130Z 26007KT CAVOK 10/06 Q1005=
201904092200 METAR LRSB 092200Z 30004KT 260V330 CAVOK 11/06 Q1005=
201904092230 METAR LRSB 092230Z 26003KT CAVOK 10/06 Q1005=
201904092300 METAR LRSB 092300Z 28004KT CAVOK 11/05 Q1005=
201904092330 METAR LRSB 092330Z 25003KT 170V280 CAVOK 12/05 Q1006=
201904100000 METAR LRSB 100000Z 14003KT 120V180 9999 FEW060 10/06 Q1006=
201904100030 METAR LRSB 100030Z 10004KT 9999 FEW060 10/06 Q1006=
201904100100 METAR LRSB 100100Z 11004KT 9999 FEW064 10/06 Q1006=
201904100130 METAR LRSB 100130Z 10003KT 9999 FEW040CB SCT064 10/06 Q1006=
201904100200 METAR LRSB 100200Z 12003KT 9999 FEW040CB SCT068 10/06 Q1006=
201904100230 METAR LRSB 100230Z VRB01KT 9999 FEW070 09/06 Q1006=
201904100300 METAR LRSB 100300Z 26001KT 9999 FEW068 08/05 Q1006=
201904100330 METAR LRSB 100330Z 23002KT 9999 FEW070 08/06 Q1006=
201904100400 METAR LRSB 100400Z VRB02KT 9999 FEW070 08/05 Q1006=
201904100430 METAR LRSB 100430Z VRB02KT 9999 FEW072 07/05 Q1006=
201904100500 METAR LRSB 100500Z VRB02KT 9999 FEW076 08/06 Q1006=
201904100530 METAR LRSB 100530Z 06002KT CAVOK 09/07 Q1007 NOSIG=
201904100600 METAR LRSB 100600Z 00000KT CAVOK 10/07 Q1007 NOSIG=
201904100630 METAR LRSB 100630Z VRB02KT CAVOK 12/07 Q1007 NOSIG=
201904100700 METAR LRSB 100700Z VRB02KT 9999 FEW036 14/07 Q1007 NOSIG=
201904100730 METAR LRSB 100730Z VRB02KT 9999 FEW036 15/07 Q1007 NOSIG=
201904100800 METAR LRSB 100800Z VRB03KT 9999 FEW038 16/07 Q1007 NOSIG=
201904100830 METAR LRSB 100830Z 01004KT 320V050 9999 FEW040 16/08 Q1007
                        NOSIG=
201904100900 METAR LRSB 100900Z 05004KT 010V070 9999 FEW040 SCT083 17/08
                        Q1007 NOSIG=
201904100930 METAR LRSB 100930Z 12005KT 050V190 9999 FEW043 SCT082 18/07
                        Q1007 NOSIG=
201904101000 METAR LRSB 101000Z VRB04KT 9999 FEW045 SCT088 19/06 Q1006
                        NOSIG=
201904101030 METAR COR LRSB 101030Z 11007KT 060V150 9999 FEW045 19/06
                        Q1006 NOSIG=
201904101100 METAR LRSB 101100Z 10009KT 9999 FEW045 20/05 Q1006 NOSIG=
201904101130 METAR LRSB 101130Z 11005KT 080V140 9999 FEW045 20/04 Q1005
                        NOSIG=
201904101200 METAR LRSB 101200Z 09009KT 060V120 9999 FEW045 21/04 Q1005
                        NOSIG=
201904101230 METAR LRSB 101230Z 10009KT 9999 FEW045 21/02 Q1005 NOSIG=
201904101300 METAR LRSB 101300Z 11010KT 9999 FEW045 21/02 Q1005 NOSIG=
201904101330 METAR LRSB 101330Z 11010KT 9999 FEW045 21/03 Q1005 NOSIG=
201904101400 METAR LRSB 101400Z 06013KT 9999 FEW048 20/04 Q1005 NOSIG=
201904101430 METAR LRSB 101430Z 07010KT 9999 FEW050 20/04 Q1005 NOSIG=
201904101500 METAR LRSB 101500Z 06010KT 9999 FEW050 21/04 Q1005 NOSIG=
201904101530 METAR LRSB 101530Z 09014KT 9999 FEW050 19/05 Q1005 NOSIG=
201904101600 METAR LRSB 101600Z 10012KT 9999 FEW050 SCT083 18/05 Q1005
                        NOSIG=
201904101630 METAR LRSB 101630Z 10011KT 9999 FEW050 SCT084 17/05 Q1006
                        NOSIG=
201904101700 METAR LRSB 101700Z 12009KT 9999 FEW050 SCT082 17/06 Q1006=
201904101730 METAR LRSB 101730Z 14006KT 9999 BKN083 16/07 Q1006=
201904101800 METAR LRSB 101800Z 14005KT 9999 -SHRA FEW050CB SCT083 15/08
                        Q1006=
201904101830 METAR LRSB 101830Z 12003KT 090V150 9999 FEW050CB SCT085 14/07
                        Q1007=
201904101900 METAR LRSB 101900Z VRB02KT 9999 SCT085 13/08 Q1007=
201904101930 METAR LRSB 101930Z VRB01KT 9999 BKN082 14/07 Q1007=
201904102000 METAR LRSB 102000Z 00000KT 9999 BKN078 11/07 Q1007=
201904102030 METAR LRSB 102030Z 00000KT 9999 BKN080 13/06 Q1007=
201904102100 METAR LRSB 102100Z 00000KT 9999 BKN078 12/07 Q1007=
201904102130 METAR LRSB 102130Z 27005KT 9999 FEW066 BKN076 12/07 Q1007=
201904102200 METAR LRSB 102200Z 30004KT 9999 FEW067 BKN080 11/06 Q1007=
201904102230 METAR LRSB 102230Z 29004KT 9999 FEW068 SCT082 10/06 Q1007=
201904102300 METAR LRSB 102300Z 31003KT 9999 FEW070 SCT086 10/06 Q1007=
201904102330 METAR LRSB 102330Z VRB01KT 9999 SCT068 09/06 Q1007=
201904110000 METAR LRSB 110000Z 00000KT 9999 SCT068 10/06 Q1007=
201904110030 METAR LRSB 110030Z 25001KT 9999 FEW070 SCT087 09/05 Q1007=
201904110100 METAR LRSB 110100Z 26004KT 9999 SCT073 09/05 Q1007=
201904110130 METAR LRSB 110130Z VRB02KT 9999 SCT074 08/05 Q1007=
201904110200 METAR LRSB 110200Z 27004KT 9999 SCT074 09/05 Q1007=
201904110230 METAR LRSB 110230Z VRB01KT 9999 FEW055 SCT072 08/05 Q1007=
201904110300 METAR LRSB 110300Z 29003KT 9999 SCT057 SCT075 09/06 Q1007=
201904110330 METAR LRSB 110330Z 00000KT 9999 FEW060 SCT077 09/05 Q1007=
201904110400 METAR LRSB 110400Z 22003KT 190V260 9999 FEW062 SCT080 09/05
                        Q1007=
201904110430 METAR LRSB 110430Z 27006KT 9999 FEW050 SCT082 09/06 Q1007=
201904110500 METAR LRSB 110500Z 30004KT 9999 FEW050 BKN070 10/07 Q1007=
201904110530 METAR LRSB 110530Z 01003KT 9999 BKN047 10/07 Q1007=
201904110600 METAR LRSB 110600Z VRB02KT 9999 -RA BKN045 10/07 Q1007=
201904110630 METAR LRSB 110630Z 14002KT 9999 BKN045 11/08 Q1007=
201904110700 METAR LRSB 110700Z 23003KT 9999 -RA BKN050 11/08 Q1007=
201904110730 METAR LRSB 110730Z 26004KT 9999 -RA BKN050 11/08 Q1007=
201904110800 METAR LRSB 110800Z 25006KT 9999 -RA BKN050 11/08 Q1007 R27/29//95=
201904110830 METAR LRSB 110830Z 07004KT 9999 -RA OVC044 12/09 Q1007 R27/29//95=
201904110900 METAR LRSB 110900Z 04006KT 9999 -RA OVC035 11/09 Q1008 R27/29//95=
201904110930 METAR LRSB 110930Z 04004KT 6000 -RA OVC030 11/09 Q1008 R27/29//95=
201904111000 METAR LRSB 111000Z 01003KT 310V060 8000 RA SCT009 OVC030
                        11/09 Q1008 R27/29//95=
201904111030 METAR LRSB 111030Z 32004KT 8000 -RA FEW007 OVC040 12/10 Q1008
                        R27/29//95=
201904111100 METAR LRSB 111100Z 30005KT 6000 RA SCT007 OVC033 12/10 Q1008
                        R27/29//95=
201904111130 METAR LRSB 111130Z 34005KT 300V360 6000 -DZ SCT006 OVC033
                        12/10 Q1008 R27/29//95=
201904111200 METAR LRSB 111200Z 32005KT 9999 FEW010 BKN040 12/10 Q1008
                        R27/29//95=
201904111230 METAR LRSB 111230Z 34005KT 300V010 9999 SCT010 OVC030 12/09
                        Q1008 R27/29//95=
201904111300 METAR LRSB 111300Z 35006KT 320V030 9999 FEW010 SCT020TCU
                        BKN030 13/09 Q1007 R27/29//95=
201904111330 METAR LRSB 111330Z 15005KT 6000 -SHRA FEW010 SCT020CB BKN030
                        10/08 Q1008 RESHRA R27/29//95=
201904111400 METAR LRSB 111400Z 20004KT 9999 -SHRA SCT030CB BKN050 11/09
                        Q1008 R27/29//95=
201904111430 METAR LRSB 111430Z 23005KT 9999 FEW050 BKN070 11/09 Q1008
                        R27/29//95=
201904111500 METAR LRSB 111500Z 26004KT 9999 FEW040 BKN075 11/08 Q1008
                        R27/29//95=
201904111530 METAR LRSB 111530Z 27004KT 9999 FEW040 11/08 Q1008 R27/29//95=
201904111600 METAR LRSB 111600Z 27003KT 9999 FEW040 11/08 Q1008 R27/29//95=
201904111630 METAR LRSB 111630Z 24004KT 9999 FEW040 10/08 Q1008 R27/29//95=
201904111700 METAR LRSB 111700Z VRB02KT 9999 SCT030 SCT043 10/09 Q1008
                        R27/29//95 NOSIG=
201904111730 METAR COR LRSB 111730Z VRB01KT 9999 FEW030 BKN042 10/08 Q1008
                        R27/29//95 NOSIG=
201904111800 METAR LRSB 111800Z 22004KT 9999 SCT032 BKN045 09/08 Q1009
                        R27/12//95 NOSIG=
201904111830 METAR LRSB 111830Z 24004KT 9999 BKN031 SCT045 10/08 Q1009
                        R27/12//95 NOSIG=
201904111900 METAR LRSB 111900Z 27005KT 9999 SCT031 SCT050 09/08 Q1009
                        R27/12//95 NOSIG=
201904111930 METAR LRSB 111930Z VRB01KT 9999 BKN036 SCT045 10/08 Q1009
                        R27/12//95 NOSIG=
201904112000 METAR LRSB 112000Z VRB02KT 9999 SCT039 BKN050 10/08 Q1009
                        R27/12//95 NOSIG=
201904112030 METAR LRSB 112030Z VRB01KT 9999 BKN043 SCT057 10/08 Q1009
                        R27/12//95 NOSIG=
201904112100 METAR LRSB 112100Z VRB01KT 9999 SCT042 BKN056 09/08 Q1009
                        R27/12//95 NOSIG=
201904112130 METAR LRSB 112130Z 09004KT 9000 SCT040 SCT055 08/07 Q1009
                        R27/12//95 NOSIG=
201904112200 METAR LRSB 112200Z 13004KT 9999 FEW043 SCT060 08/07 Q1009
                        R27/12//95 NOSIG=
201904112230 METAR LRSB 112230Z 13004KT 9999 FEW060 08/07 Q1009 R27/19//95
                        NOSIG=
201904112300 METAR LRSB 112300Z 11003KT 9999 FEW068 07/06 Q1009 R27/19//95
                        NOSIG=
201904112330 METAR LRSB 112330Z 15003KT 9000 0800NW R27/P2000U BCFG NSC
                        07/06 Q1010 R27/19//95 NOSIG=
201904120000 METAR LRSB 120000Z 13005KT 9999 FEW058 07/06 Q1010 R27/19//95
                        NOSIG=
201904120030 METAR LRSB 120030Z 12006KT 9999 FEW059 07/06 Q1010 R27/19//95
                        NOSIG=
201904120100 METAR LRSB 120100Z 20003KT 9999 SCT061 06/05 Q1010 R27/19//95
                        NOSIG=
201904120130 METAR LRSB 120130Z 22004KT 9999 BKN066 05/04 Q1010 R27/19//95
                        NOSIG=
201904120200 METAR LRSB 120200Z 20003KT 160V220 9999 SCT066 06/05 Q1010
                        R27/19//95 NOSIG=
201904120230 METAR LRSB 120230Z 19003KT 9999 SCT065 06/05 Q1010 R27/19//95
                        NOSIG=
201904120300 METAR LRSB 120300Z 19003KT 9999 BKN063 06/05 Q1010 R27/19//95
                        NOSIG=
201904120330 METAR LRSB 120330Z 20004KT 9999 SCT062 06/05 Q1010 R27/19//95
                        NOSIG=
201904120400 METAR LRSB 120400Z 15002KT 9000 FEW060 SCT070 06/05 Q1010
                        R27/19//95 NOSIG=
201904120430 METAR LRSB 120430Z 15004KT 9000 SCT056 SCT070 06/05 Q1010
                        R27/19//95 NOSIG=
201904120500 METAR LRSB 120500Z 15004KT 8000 SCT060 SCT075 06/05 Q1011
                        R27/19//95 NOSIG=
201904120530 METAR LRSB 120530Z 13004KT 9000 FEW060 BKN073 07/05 Q1011
                        R27/19//95=
201904120600 METAR LRSB 120600Z 15003KT 130V190 9999 FEW003 BKN077 07/06
                        Q1011 R27/19//95=
201904120630 METAR COR LRSB 120630Z 14004KT 9999 FEW004 BKN080 08/06 Q1011
                        R27/19//95=
201904120700 METAR LRSB 120700Z 13004KT 9999 FEW006 OVC083 08/06 Q1011
                        R27/19//95=
201904120730 METAR LRSB 120730Z 14004KT 9999 FEW040 SCT066 08/07 Q1011
                        R27/19//95=
201904120800 METAR LRSB 120800Z 13005KT 100V160 9999 FEW040 10/08 Q1011
                        R27/19//95=
201904120830 METAR LRSB 120830Z 12006KT 080V150 9999 FEW042 12/08 Q1011
                        R27/19//95=
201904120900 METAR LRSB 120900Z 12008KT 9999 FEW030 14/08 Q1010 R27/CLRD//=
201904120930 METAR LRSB 120930Z 11010KT 9999 FEW032 FEW040TCU 15/08 Q1010=
201904121000 METAR LRSB 121000Z 14012KT 9999 FEW032 FEW040TCU 16/06 Q1010=
201904121030 METAR LRSB 121030Z 15010KT 9999 FEW030 FEW038TCU 15/05 Q1010=
201904121100 METAR LRSB 121100Z 14009KT 9999 FEW030 FEW037CB 15/04 Q1010=
201904121130 METAR LRSB 121130Z 12012KT 080V140 9999 FEW030 SCT035CB 16/06
                        Q1010=
201904121200 METAR LRSB 121200Z 15009KT 9999 FEW030 SCT035CB 16/06 Q1009=
201904121230 METAR LRSB 121230Z 12012KT 9999 FEW032 SCT036CB 16/06 Q1009=
201904121300 METAR LRSB 121300Z 13013KT 9999 FEW033 SCT037CB 16/05 Q1009=
201904121330 METAR LRSB 121330Z 14011KT 9999 VCSH FEW034 SCT038CB 15/06
                        Q1009=
201904121400 METAR LRSB 121400Z 12012KT 9999 FEW038CB SCT058 14/05 Q1009=
201904121430 METAR LRSB 121430Z 14008KT 9999 FEW040CB SCT060 14/05 Q1009=
201904121500 METAR LRSB 121500Z 14008KT 9999 FEW040CB SCT063 14/07 Q1010=
201904121530 METAR LRSB 121530Z VRB02KT 9999 VCSH FEW040CB SCT065 14/07
                        Q1010=
201904121600 METAR LRSB 121600Z 14005KT 100V170 9999 FEW040CB BKN081 12/08
                        Q1010=
201904121630 METAR LRSB 121630Z 26010KT 9999 FEW040CB SCT070 12/08 Q1010=
201904121700 METAR COR LRSB 121700Z 24007KT 9999 FEW040CB BKN060 10/08
                        Q1011=
201904121730 METAR LRSB 121730Z 25007KT 9999 FEW035CB BKN060 10/08 Q1011=
201904121800 METAR LRSB 121800Z 30006KT 9999 FEW033CB BKN070 10/07 Q1012=
201904121830 METAR COR LRSB 121830Z VRB02KT 9999 SCT030CB BKN040 10/07
                        Q1012=
201904121900 METAR LRSB 121900Z 27002KT 9999 SCT030CB BKN070 10/07 Q1012=
201904121930 METAR LRSB 121930Z 29003KT 9999 SCT022 BKN070 10/07 Q1012=
201904122000 METAR COR LRSB 122000Z VRB02KT 9999 SCT020 BKN040 10/08 Q1012=
201904122030 METAR COR LRSB 122030Z VRB01KT 9999 SCT012 BKN018 10/08 Q1012=
201904122100 METAR LRSB 122100Z 29003KT 9999 SCT012 BKN021 10/07 Q1012=
201904122130 METAR LRSB 122130Z VRB02KT 9999 -RA OVC017 10/08 Q1013=
201904122200 METAR LRSB 122200Z 28004KT 8000 -RA OVC017 09/08 Q1013 R27/29//95=
201904122230 METAR LRSB 122230Z 00000KT 6000 -RA OVC030 09/08 Q1013 R27/29//95=
201904122300 METAR LRSB 122300Z VRB01KT 6000 -RA OVC040 09/08 Q1013 R27/29//95=
201904122330 METAR LRSB 122330Z 02004KT 6000 -RA OVC040 09/08 Q1012 R27/29//95=
201904130000 METAR LRSB 130000Z AUTO 02003KT 6000 -RA BKN059/// 09/08
                        Q1013=
201904130030 METAR LRSB 130030Z AUTO 36002KT 5000 FEW004/// BKN043///
                        09/08 Q1013 RERA=
201904130100 METAR LRSB 130100Z 36005KT 6000 OVC039 09/08 Q1013 R27/29//95=
201904130130 METAR LRSB 130130Z 32003KT 7000 OVC040 09/08 Q1013 R27/29//95=
201904130200 METAR LRSB 130200Z 32004KT 7000 FEW004 OVC030 09/08 Q1013
                        R27/29//95=
201904130230 METAR LRSB 130230Z 33004KT 6000 SCT009 OVC030 09/08 Q1013
                        R27/29//95=
201904130300 METAR LRSB 130300Z 10005KT 9999 -RA SCT004 OVC020 08/07 Q1013
                        R27/29//95=
201904130330 METAR COR LRSB 130330Z 10005KT 9999 -RA SCT004 OVC020 08/07
                        Q1013 R27/29//95=
201904130400 METAR LRSB 130400Z 13004KT 8000 -RA SCT009 OVC020 08/07 Q1013
                        R27/29//95=
201904130430 METAR LRSB 130430Z 11004KT 8000 -RA SCT005 OVC018 08/07 Q1013
                        R27/29//95=
201904130500 METAR LRSB 130500Z 13003KT 8000 -RA SCT005 OVC018 08/07 Q1013
                        R27/29//95=
201904130530 METAR LRSB 130530Z 12004KT 8000 -RA SCT004 OVC017 08/07 Q1013
                        R27/29//95=
201904130600 METAR LRSB 130600Z 11003KT 9000 -RA FEW004 OVC020 08/07 Q1013
                        R27/29//95=
201904130630 METAR LRSB 130630Z VRB02KT 9999 -RA FEW005 OVC024 08/07 Q1013
                        R27/29//95=
201904130700 METAR LRSB 130700Z 12004KT 9999 -RA FEW006 OVC027 08/06 Q1013
                        R27/29//95=
201904130730 METAR LRSB 130730Z VRB01KT 8000 -RA FEW006 OVC027 09/07 Q1014
                        R27/29//95=
201904130800 METAR LRSB 130800Z 00000KT 9000 -RA FEW008 OVC028 09/07 Q1014
                        R27/29//95=
201904130830 METAR LRSB 130830Z VRB02KT 9999 -DZ FEW007 SCT013 BKN033
                        10/07 Q1014 R27/29//95=
201904130900 METAR LRSB 130900Z VRB02KT 9999 -DZ FEW007 SCT033 BKN042
                        10/08 Q1014 R27/29//95=
201904130930 METAR LRSB 130930Z VRB02KT 9999 FEW008 BKN035 11/07 Q1013
                        R27/29//95=
201904131000 METAR LRSB 131000Z 04004KT 010V080 9999 -RA FEW009 SCT013
                        BKN033 11/07 Q1013 R27/29//95=
201904131030 METAR LRSB 131030Z VRB02KT 9999 -RA FEW013 BKN030 10/08 Q1013
                        R27/29//95=
201904131100 METAR LRSB 131100Z 29003KT 230V330 9999 FEW013 SCT033 BKN045
                        11/08 Q1013 R27/29//95=
201904131130 METAR LRSB 131130Z 25004KT 180V280 9999 FEW011 BKN032 11/08
                        Q1013 R27/29//95=
201904131200 METAR LRSB 131200Z 24003KT 200V310 9999 FEW011 BKN030 12/07
                        Q1013 R27/29//95=
201904131230 METAR LRSB 131230Z VRB03KT 9999 SCT028 SCT043 13/09 Q1013
                        R27/CLRD//=
201904131300 METAR LRSB 131300Z VRB03KT 9999 FEW019 SCT032 12/07 Q1013=
201904131330 METAR LRSB 131330Z 36005KT 9999 -SHRA FEW020 FEW030CB BKN042
                        12/07 Q1013=
201904131400 METAR LRSB 131400Z VRB01KT 9999 FEW020 FEW030CB BKN042 12/07
                        Q1013=
201904131430 METAR LRSB 131430Z VRB02KT 9999 VCSH FEW033CB BKN042 12/06
                        Q1013=
201904131500 METAR LRSB 131500Z 21005KT 9999 SCT032CB SCT045 12/07 Q1013=
201904131530 METAR LRSB 131530Z 14004KT 100V180 9999 FEW032CB SCT042 12/06
                        Q1013=
201904131600 METAR LRSB 131600Z 11008KT 9999 FEW032CB SCT040 12/05 Q1013=
201904131630 METAR LRSB 131630Z 10008KT 9999 FEW034CB SCT046 11/05 Q1013=
201904131700 METAR LRSB 131700Z 10005KT 9999 FEW034CB SCT048 11/05 Q1013=
201904131730 METAR COR LRSB 131730Z 09006KT 9999 FEW035CB BKN052 10/04
                        Q1013=
201904131800 METAR LRSB 131800Z 10005KT 9999 FEW035 BKN052 10/04 Q1014=
201904131830 METAR LRSB 131830Z 13003KT 110V170 9999 FEW037 BKN053 09/05
                        Q1014=
201904131900 METAR LRSB 131900Z VRB02KT 9999 SCT055 BKN078 09/05 Q1014=
201904131930 METAR LRSB 131930Z 03004KT 320V100 9999 SCT056 BKN080 09/04
                        Q1014=
201904132000 METAR LRSB 132000Z 10005KT 9999 SCT054 BKN075 09/04 Q1014=
201904132030 METAR LRSB 132030Z 11005KT 9999 FEW055 BKN075 09/04 Q1014=
201904132100 METAR LRSB 132100Z 10004KT 9999 FEW058 BKN078 08/04 Q1014=
201904132130 METAR LRSB 132130Z 09004KT 9999 FEW060 SCT075 08/04 Q1014=
201904132200 METAR LRSB 132200Z 10005KT 9999 BKN077 08/03 Q1014=
201904132230 METAR LRSB 132230Z 09006KT 9999 FEW047 BKN077 08/03 Q1014=
201904132300 METAR LRSB 132300Z 10005KT 9999 FEW050 BKN080 08/03 Q1014=
201904132330 METAR LRSB 132330Z 09005KT 9999 SCT053 BKN082 08/03 Q1014=
201904140000 METAR LRSB 140000Z 10004KT 9999 FEW055 SCT084 SCT099 07/03
                        Q1014=
201904140030 METAR LRSB 140030Z 14003KT 100V160 9999 SCT055 SCT085 07/03
                        Q1014=
201904140100 METAR LRSB 140100Z 21003KT 9999 FEW057 SCT068 07/03 Q1014=
201904140130 METAR LRSB 140130Z VRB01KT 9999 BKN070 07/03 Q1014=
201904140200 METAR LRSB 140200Z 00000KT 9999 FEW050 BKN072 07/03 Q1014=
201904140230 METAR LRSB 140230Z 24002KT 9999 SCT048 SCT072 06/04 Q1014=
201904140300 METAR LRSB 140300Z 00000KT 9999 SCT050 BKN075 06/04 Q1014=
201904140330 METAR LRSB 140330Z 02003KT 9999 FEW038 SCT048 BKN072 07/04
                        Q1014=
201904140400 METAR LRSB 140400Z 03003KT 9999 SCT037 BKN070 07/04 Q1014=
201904140430 METAR LRSB 140430Z 02003KT 9999 SCT040 BKN074 07/04 Q1014=
201904140500 METAR LRSB 140500Z VRB02KT 9999 SCT041 SCT062 07/04 Q1014=
201904140530 METAR LRSB 140530Z VRB01KT 9999 SCT038 BKN063 08/04 Q1014
                        NOSIG=
201904140600 METAR LRSB 140600Z 00000KT 9999 SCT038 OVC063 08/03 Q1014
                        NOSIG=
201904140630 METAR LRSB 140630Z VRB01KT 9999 SCT040 BKN063 08/04 Q1014
                        NOSIG=
201904140700 METAR COR LRSB 140700Z VRB02KT 9999 SCT042 BKN065 08/03 Q1014
                        NOSIG=
201904140730 METAR LRSB 140730Z 19003KT 090V230 9999 FEW043 SCT053 BKN065
                        08/03 Q1014 NOSIG=
201904140800 METAR LRSB 140800Z 17003KT 120V230 9999 FEW041 SCT055 BKN068
                        09/03 Q1014 NOSIG=
201904140830 METAR LRSB 140830Z VRB02KT 9999 BKN046 BKN068 09/03 Q1014
                        NOSIG=
201904140900 METAR COR LRSB 140900Z 16004KT 130V250 9999 BKN043 BKN068
                        10/03 Q1014 NOSIG=
201904140930 METAR COR LRSB 140930Z 14005KT 090V170 9999 BKN041 BKN070
                        10/03 Q1014 NOSIG=
201904141000 METAR LRSB 141000Z 10003KT 320V130 9999 BKN042 BKN070 11/03
                        Q1014 NOSIG=
201904141030 METAR LRSB 141030Z VRB03KT 9999 FEW032 SCT043 BKN080 11/03
                        Q1014 NOSIG=
201904141100 METAR LRSB 141100Z VRB03KT 9999 FEW033 SCT043 BKN080 11/03
                        Q1014 NOSIG=
201904141130 METAR LRSB 141130Z 07003KT 010V160 9999 FEW035 SCT045 BKN080
                        12/03 Q1014 NOSIG=
201904141200 METAR LRSB 141200Z 13006KT 090V190 9999 SCT036 SCT045 BKN080
                        12/02 Q1014 NOSIG=
201904141230 METAR LRSB 141230Z 07004KT 360V120 9999 SCT039 BKN080 12/03
                        Q1014 NOSIG=
201904141300 METAR LRSB 141300Z 36005KT 310V040 9999 BKN036 BKN080 11/04
                        Q1014 NOSIG=
201904141330 METAR LRSB 141330Z 01007KT 330V050 9999 BKN035 BKN080 11/04
                        Q1014 NOSIG=
201904141400 METAR LRSB 141400Z 07003KT 030V110 9999 BKN038 BKN080 12/03
                        Q1013 NOSIG=
201904141430 METAR LRSB 141430Z 06005KT 020V100 9999 BKN038 BKN073 12/03
                        Q1014 NOSIG=
201904141500 METAR LRSB 141500Z 08010KT 9999 -RA BKN038 OVC070 11/03 Q1014
                        NOSIG=
201904141530 METAR COR LRSB 141530Z 07010KT 9999 VCSH FEW035CB SCT040
                        BKN070 11/04 Q1014 NOSIG=
201904141600 METAR LRSB 141600Z 11010KT 9999 VCSH FEW032CB SCT039 BKN060
                        10/04 Q1014 NOSIG=
201904141630 METAR LRSB 141630Z 11008KT 9999 FEW033CB SCT042 BKN060 10/04
                        Q1014 NOSIG=
201904141700 METAR LRSB 141700Z 11009KT 9999 FEW036 SCT042 BKN062 10/04
                        Q1015=
201904141730 METAR LRSB 141730Z 12006KT 9999 SCT036 SCT045 09/04 Q1015=
201904141800 METAR LRSB 141800Z 13004KT 9999 BKN036 SCT046 09/04 Q1015=
201904141830 METAR LRSB 141830Z 11005KT 9999 BKN036 SCT044 09/04 Q1015=
201904141900 METAR LRSB 141900Z 10008KT 9999 BKN038 09/03 Q1016=
201904141930 METAR LRSB 141930Z 10010KT 9999 BKN038 08/03 Q1016=
201904142000 METAR LRSB 142000Z 09006KT 9999 BKN035 08/03 Q1016=
201904142030 METAR LRSB 142030Z 08005KT 9999 BKN036 08/03 Q1016=
201904142100 METAR LRSB 142100Z 11003KT 9999 BKN037 08/02 Q1016=
201904142130 METAR LRSB 142130Z 10002KT 9999 BKN039 08/01 Q1016=
201904142200 METAR LRSB 142200Z VRB02KT 9999 BKN042 08/01 Q1017=
201904142230 METAR LRSB 142230Z VRB02KT 9999 OVC045 08/01 Q1017=
201904142300 METAR LRSB 142300Z VRB01KT 9999 OVC048 08/01 Q1017=
201904142330 METAR LRSB 142330Z VRB02KT 9999 OVC048 07/01 Q1017=
201904150000 METAR LRSB 150000Z VRB02KT 9999 OVC048 08/00 Q1016=
201904150030 METAR LRSB 150030Z 00000KT 9999 BKN050 07/01 Q1016=
201904150100 METAR LRSB 150100Z VRB01KT 9999 SCT050 SCT068 07/01 Q1016=
201904150130 METAR LRSB 150130Z 09003KT 9999 SCT052 SCT070 07/00 Q1016=
201904150200 METAR LRSB 150200Z VRB02KT 9999 FEW053 SCT072 07/01 Q1017=
201904150230 METAR COR LRSB 150230Z VRB02KT 9999 FEW053 SCT075 06/02 Q1017=
201904150300 METAR COR LRSB 150300Z 25003KT 9999 SCT075 06/03 Q1017=
201904150330 METAR LRSB 150330Z 24002KT 9999 FEW077 06/02 Q1017=
201904150400 METAR LRSB 150400Z VRB01KT 9999 SCT075 06/02 Q1017=
201904150430 METAR LRSB 150430Z VRB01KT 9999 SCT074 06/02 Q1017=
201904150500 METAR LRSB 150500Z VRB01KT 9999 SCT077 07/02 Q1017=
201904150530 METAR LRSB 150530Z VRB02KT 9999 SCT080 07/02 Q1018=
201904150600 METAR LRSB 150600Z VRB02KT CAVOK 08/01 Q1018=
201904150630 METAR LRSB 150630Z 12005KT CAVOK 08/01 Q1018=
201904150700 METAR LRSB 150700Z 14004KT CAVOK 08/01 Q1018=
201904150730 METAR LRSB 150730Z 10006KT 070V140 CAVOK 09/01 Q1018=
201904150800 METAR LRSB 150800Z 14005KT 070V180 CAVOK 10/01 Q1018=
201904150830 METAR LRSB 150830Z 15005KT 100V200 CAVOK 10/00 Q1018=
201904150900 METAR LRSB 150900Z VRB03KT CAVOK 11/M00 Q1018=
201904150930 METAR LRSB 150930Z VRB04KT 9999 SCT050 11/M00 Q1018=
201904151000 METAR LRSB 151000Z 04007KT 020V100 9999 SCT050 11/M00 Q1017=
201904151030 METAR COR LRSB 151030Z 07004KT 9999 SCT050 12/M01 Q1017=
201904151100 METAR LRSB 151100Z 02008KT 9999 SCT050 12/00 Q1017=
201904151130 METAR LRSB 151130Z VRB04KT 9999 SCT050 12/M01 Q1017=
201904151200 METAR LRSB 151200Z 04007KT 9999 SCT050 12/M01 Q1017=
201904151230 METAR LRSB 151230Z 02004KT 9999 SCT050 12/M02 Q1017=
201904151300 METAR LRSB 151300Z 34005KT 9999 FEW050 13/M02 Q1016=
201904151330 METAR LRSB 151330Z 33005KT 290V360 9999 FEW050 13/M03 Q1016=
201904151400 METAR LRSB 151400Z 35008KT 9999 FEW050 12/M02 Q1016=
201904151430 METAR LRSB 151430Z 35006KT 9999 FEW050 13/M03 Q1016=
201904151500 METAR LRSB 151500Z 30008KT 9999 FEW055 13/M02 Q1016=
201904151530 METAR LRSB 151530Z 32006KT 9999 FEW055 12/M02 Q1016=
201904151600 METAR LRSB 151600Z 31005KT 9999 FEW055 12/M02 Q1016=
201904151630 METAR LRSB 151630Z 30006KT CAVOK 11/M01 Q1016=
201904151700 METAR LRSB 151700Z 31005KT CAVOK 10/M02 Q1016 NOSIG=
201904151730 METAR LRSB 151730Z 29004KT 250V310 CAVOK 07/M01 Q1017 NOSIG=
201904151800 METAR LRSB 151800Z 26008KT CAVOK 06/01 Q1017 NOSIG=
201904151830 METAR LRSB 151830Z 25008KT CAVOK 05/00 Q1017 NOSIG=
201904151900 METAR LRSB 151900Z 26010KT CAVOK 06/M00 Q1017 NOSIG=
201904151930 METAR LRSB 151930Z 26009KT CAVOK 05/M00 Q1017 NOSIG=
201904152000 METAR LRSB 152000Z 26010KT CAVOK 06/M01 Q1017 NOSIG=
201904152030 METAR LRSB 152030Z 27010KT CAVOK 05/M01 Q1017 NOSIG=
201904152100 METAR LRSB 152100Z 26008KT 190V270 CAVOK 05/M01 Q1017 NOSIG=
201904152130 METAR LRSB 152130Z 04004KT 340V070 CAVOK 05/M02 Q1018 NOSIG=
201904152200 METAR LRSB 152200Z VRB02KT CAVOK 05/M02 Q1018 NOSIG=
201904152230 METAR LRSB 152230Z 18004KT CAVOK 03/M01 Q1018 NOSIG=
201904152300 METAR LRSB 152300Z 24004KT CAVOK 02/M01 Q1018 NOSIG=
201904152330 METAR LRSB 152330Z VRB02KT CAVOK 03/M02 Q1018 NOSIG=
201904160000 METAR LRSB 160000Z 12003KT CAVOK 02/M02 Q1018 NOSIG=
201904160030 METAR LRSB 160030Z 15002KT CAVOK 02/M02 Q1018 NOSIG=
201904160100 METAR LRSB 160100Z 00000KT CAVOK 03/M02 Q1018 NOSIG=
201904160130 METAR LRSB 160130Z VRB01KT CAVOK 00/M03 Q1019 NOSIG=
201904160200 METAR LRSB 160200Z VRB02KT CAVOK M00/M03 Q1019 NOSIG=
201904160230 METAR LRSB 160230Z VRB02KT CAVOK M00/M03 Q1018 NOSIG=
201904160300 METAR LRSB 160300Z 00000KT CAVOK M02/M03 Q1018 NOSIG=
201904160330 METAR LRSB 160330Z 00000KT CAVOK M01/M02 Q1018 NOSIG=
201904160400 METAR LRSB 160400Z 25002KT CAVOK M02/M04 Q1019 NOSIG=
201904160430 METAR LRSB 160430Z 25002KT CAVOK M00/M02 Q1019 NOSIG=
201904160500 METAR LRSB 160500Z VRB01KT CAVOK 02/M01 Q1019 NOSIG=
201904160530 METAR LRSB 160530Z VRB02KT CAVOK 03/M01 Q1019=
201904160600 METAR LRSB 160600Z VRB02KT CAVOK 05/M00 Q1019=
201904160630 METAR LRSB 160630Z VRB01KT CAVOK 07/M01 Q1018=
201904160700 METAR LRSB 160700Z 01004KT 320V040 CAVOK 07/M01 Q1019=
201904160730 METAR COR LRSB 160730Z 35006KT 320V020 CAVOK 08/01 Q1018=
201904160800 METAR LRSB 160800Z 36006KT 320V040 CAVOK 09/01 Q1018=
201904160830 METAR LRSB 160830Z 01007KT 350V060 CAVOK 09/M01 Q1018=
201904160900 METAR LRSB 160900Z 01007KT 350V050 CAVOK 11/00 Q1018=
201904160930 METAR LRSB 160930Z 36007KT 330V040 CAVOK 11/M01 Q1018=
201904161000 METAR LRSB 161000Z 01007KT 330V050 CAVOK 12/M02 Q1017=
201904161030 METAR LRSB 161030Z 35009KT 310V040 CAVOK 12/M02 Q1017=
201904161100 METAR LRSB 161100Z 01008KT 330V080 CAVOK 12/M02 Q1017=
201904161130 METAR LRSB 161130Z 31008KT 280V350 CAVOK 13/M02 Q1017=
201904161200 METAR LRSB 161200Z 01008KT CAVOK 14/M03 Q1016=
201904161230 METAR LRSB 161230Z 35009KT 320V030 CAVOK 14/M03 Q1016=
201904161300 METAR LRSB 161300Z 35010KT 310V020 CAVOK 14/M02 Q1016=
201904161330 METAR LRSB 161330Z 35010KT 320V020 CAVOK 14/M02 Q1015=
201904161400 METAR LRSB 161400Z 36009KT 330V030 CAVOK 14/M03 Q1015=
201904161430 METAR LRSB 161430Z 36007KT 320V040 9999 FEW050 15/M02 Q1015=
201904161500 METAR LRSB 161500Z 35010KT 9999 FEW053 14/M03 Q1015=
201904161530 METAR LRSB 161530Z 01009KT 9999 FEW076 14/M04 Q1015=
201904161600 METAR LRSB 161600Z 01009KT 340V040 9999 FEW081 13/M05 Q1015=
201904161630 METAR LRSB 161630Z 01007KT CAVOK 12/M04 Q1015=
201904161700 METAR LRSB 161700Z 01006KT CAVOK 11/M05 Q1015=
201904161730 METAR LRSB 161730Z 35009KT CAVOK 11/M06 Q1016=
201904161800 METAR LRSB 161800Z 35004KT CAVOK 10/M06 Q1016=
201904161830 METAR LRSB 161830Z 25007KT CAVOK 07/M01 Q1016=
201904161900 METAR LRSB 161900Z 25007KT CAVOK 07/M01 Q1016=
201904161930 METAR LRSB 161930Z 27008KT CAVOK 08/M03 Q1016=
201904162000 METAR LRSB 162000Z 26008KT CAVOK 07/M02 Q1016=
201904162030 METAR COR LRSB 162030Z 27009KT CAVOK 07/M02 Q1016=
201904162100 METAR LRSB 162100Z 26008KT CAVOK 06/M02 Q1016=
201904162130 METAR LRSB 162130Z 26008KT CAVOK 06/M02 Q1016=
201904162200 METAR LRSB 162200Z 26007KT CAVOK 06/M03 Q1016=
201904162230 METAR LRSB 162230Z VRB02KT CAVOK 06/M02 Q1016=
201904162300 METAR LRSB 162300Z 24004KT CAVOK 06/M01 Q1016=
201904162330 METAR LRSB 162330Z 24004KT CAVOK 06/M01 Q1016=
201904170000 METAR LRSB 170000Z 27005KT CAVOK 06/M01 Q1016=
201904170030 METAR LRSB 170030Z 26007KT CAVOK 06/M01 Q1016=
201904170100 METAR LRSB 170100Z AUTO 27006KT 9999 OVC080/// 06/M01 Q1016=
201904170130 METAR LRSB 170130Z 33005KT CAVOK 07/M02 Q1016=
201904170200 METAR LRSB 170200Z 32005KT CAVOK 07/M00 Q1016=
201904170230 METAR LRSB 170230Z 29005KT CAVOK 06/01 Q1015=
201904170300 METAR LRSB 170300Z 30005KT 250V310 CAVOK 06/01 Q1015=
201904170330 METAR LRSB 170330Z 32004KT 300V360 CAVOK 06/01 Q1015=
201904170400 METAR LRSB 170400Z 34004KT CAVOK 06/01 Q1016=
201904170430 METAR LRSB 170430Z 35008KT 9999 BKN070 06/01 Q1016=
201904170500 METAR LRSB 170500Z 29004KT 9999 BKN070 06/02 Q1016=
201904170530 METAR LRSB 170530Z 33006KT 290V020 9999 BKN065 06/01 Q1017=
201904170600 METAR LRSB 170600Z 34006KT 9999 FEW045 BKN065 06/02 Q1017=
201904170630 METAR LRSB 170630Z 33004KT 290V360 9999 FEW036 SCT042 BKN065
                        07/01 Q1017=
201904170700 METAR COR LRSB 170700Z 33003KT 280V030 9999 -RA FEW033 SCT040
                        BKN060 07/01 Q1017=
201904170730 METAR LRSB 170730Z 35004KT 320V020 9999 FEW025 SCT037 BKN050
                        07/01 Q1018=
201904170800 METAR LRSB 170800Z 35005KT 300V020 9999 FEW028 SCT035 BKN047
                        07/01 Q1018=
201904170830 METAR LRSB 170830Z 34005KT 9999 FEW029 SCT032 BKN045 08/02
                        Q1018=
201904170900 METAR LRSB 170900Z 36005KT 330V030 9999 SCT032 BKN045 08/02
                        Q1018=
201904170930 METAR COR LRSB 170930Z 35006KT 330V040 9999 FEW022 SCT030
                        BKN044 08/02 Q1018=
201904171000 METAR LRSB 171000Z 35006KT 310V020 9999 FEW024 SCT034 BKN045
                        08/03 Q1018=
201904171030 METAR LRSB 171030Z 35006KT 320V040 9999 FEW024 SCT033 BKN042
                        08/03 Q1018=
201904171100 METAR LRSB 171100Z 35007KT 9999 FEW021 SCT032 BKN040 08/03
                        Q1018=
201904171130 METAR LRSB 171130Z 03008KT 350V050 9999 FEW022 BKN033 BKN040
                        08/03 Q1019=
201904171200 METAR LRSB 171200Z 03005KT 340V070 9999 -DZ FEW020 BKN032
                        OVC040 08/03 Q1019=
201904171230 METAR LRSB 171230Z 02005KT 340V070 9999 -DZ FEW020 BKN032
                        OVC038 08/03 Q1019=
201904171300 METAR LRSB 171300Z 04004KT 330V060 9999 -RA FEW021 BKN034
                        OVC040 08/03 Q1019=
201904171330 METAR LRSB 171330Z VRB03KT 9999 SCT034 BKN040 OVC050 09/03
                        Q1019=
201904171400 METAR LRSB 171400Z VRB02KT 9999 SCT035 BKN042 OVC056 09/03
                        Q1019=
201904171430 METAR LRSB 171430Z VRB02KT 9999 FEW029 BKN040 OVC050 09/03
                        Q1019=
201904171500 METAR LRSB 171500Z 24004KT 9999 -RA SCT030 BKN040 OVC050
                        09/04 Q1020=
201904171530 METAR LRSB 171530Z 24004KT 9999 BKN031 BKN040 OVC050 08/04
                        Q1020=
201904171600 METAR LRSB 171600Z 24002KT 9999 SCT034 BKN042 BKN055 08/04
                        Q1020 R27/19//95=
201904171630 METAR LRSB 171630Z 24003KT 9999 SCT030 SCT038 BKN052 08/03
                        Q1020 R27/CLRD//=
201904171700 METAR LRSB 171700Z VRB02KT 9999 -RA SCT025 BKN034 08/04 Q1020=
201904171730 METAR LRSB 171730Z 14002KT 9999 -RA SCT024 BKN034 08/04 Q1021=
201904171800 METAR LRSB 171800Z 18003KT 9999 SCT024 SCT038 08/04 Q1021=
201904171830 METAR LRSB 171830Z 16003KT 9999 FEW023 SCT060 07/04 Q1022=
201904171900 METAR LRSB 171900Z 15001KT 9999 SCT063 BKN082 07/04 Q1022=
201904171930 METAR LRSB 171930Z 17002KT 9999 BKN063 BKN080 07/03 Q1022=
201904172000 METAR LRSB 172000Z 16003KT 9999 BKN063 SCT078 07/03 Q1022=
201904172030 METAR LRSB 172030Z 14002KT 9999 FEW030 SCT060 BKN077 06/03
                        Q1022=
201904172100 METAR LRSB 172100Z VRB01KT 9999 SCT057 SCT076 06/03 Q1023=
201904172130 METAR LRSB 172130Z 18002KT 9999 FEW032 SCT055 06/03 Q1023=
201904172200 METAR LRSB 172200Z 06002KT 9999 SCT033 SCT050 06/03 Q1023=
201904172230 METAR LRSB 172230Z VRB01KT 9999 SCT034 SCT048 06/03 Q1023=
201904172300 METAR LRSB 172300Z VRB02KT 9999 FEW032 BKN044 06/03 Q1023=
201904172330 METAR LRSB 172330Z VRB02KT 9999 FEW028 SCT045 05/04 Q1023=
201904180000 METAR LRSB 180000Z VRB02KT 9999 SCT042 BKN067 06/03 Q1023=
201904180030 METAR LRSB 180030Z 00000KT 9999 SCT040 BKN066 06/04 Q1023=
201904180100 METAR LRSB 180100Z 00000KT 9999 SCT038 BKN066 05/03 Q1023=
201904180130 METAR LRSB 180130Z VRB01KT 9999 FEW038 BKN063 04/02 Q1023=
201904180200 METAR LRSB 180200Z VRB02KT 9999 SCT064 04/02 Q1024=
201904180230 METAR COR LRSB 180230Z 27005KT 9999 FEW064 01/00 Q1024=
201904180300 METAR LRSB 180300Z 26007KT 9000 FEW066 01/M00 Q1024=
201904180330 METAR LRSB 180330Z 27003KT 9000 FEW044 02/01 Q1024=
201904180400 METAR LRSB 180400Z 27005KT 9999 FEW043 01/M01 Q1025=
201904180430 METAR LRSB 180430Z 26005KT 9999 FEW043 02/M00 Q1025=
201904180500 METAR LRSB 180500Z VRB01KT 9999 FEW063 BKN084 02/01 Q1025=
201904180530 METAR LRSB 180530Z VRB01KT 9999 SCT044 SCT062 03/02 Q1026=
201904180600 METAR LRSB 180600Z VRB02KT 9999 FEW033 BKN042 06/04 Q1026=
201904180630 METAR LRSB 180630Z VRB01KT 9999 OVC040 06/04 Q1026=
201904180700 METAR LRSB 180700Z VRB02KT 9999 -RA SCT040 OVC060 07/04 Q1026=
201904180730 METAR LRSB 180730Z VRB01KT 9999 SCT038 OVC060 08/04 Q1026
                        R27/19//95=
201904180800 METAR LRSB 180800Z VRB01KT 9999 OVC032 09/03 Q1027 R27/19//95=
201904180830 METAR LRSB 180830Z VRB01KT 9999 SCT021 OVC030 09/02 Q1027
                        R27/19//95=
201904180900 METAR LRSB 180900Z VRB02KT 9999 -RA OVC035 09/03 Q1027 R27/19//95=
201904180930 METAR LRSB 180930Z 12003KT 9999 OVC034 08/04 Q1027 R27/19//95=
201904181000 METAR LRSB 181000Z VRB03KT 9999 FEW017 OVC033 09/04 Q1027
                        R27/19//95=
201904181030 METAR LRSB 181030Z VRB03KT 9999 FEW032 OVC072 09/04 Q1027
                        R27/19//95=
201904181100 METAR LRSB 181100Z VRB03KT 9999 FEW029 BKN070 10/03 Q1027
                        R27/19//95=
201904181130 METAR LRSB 181130Z 13003KT 090V160 9999 FEW023 SCT041 OVC073
                        10/04 Q1027 R27/19//95=
201904181200 METAR LRSB 181200Z VRB02KT 9999 BKN037 SCT047 11/05 Q1027
                        R27/CLRD//=
201904181230 METAR LRSB 181230Z VRB02KT 9999 FEW028 OVC041 10/04 Q1027=
201904181300 METAR LRSB 181300Z VRB03KT 9999 OVC037 11/04 Q1027=
201904181330 METAR LRSB 181330Z VRB02KT 9999 SCT029 12/05 Q1027=
201904181400 METAR LRSB 181400Z 16004KT 080V220 9999 BKN028 12/04 Q1027=
201904181430 METAR LRSB 181430Z 11006KT 9999 FEW031 BKN039 11/04 Q1027=
201904181500 METAR LRSB 181500Z 11007KT 9999 FEW031CB BKN041 11/04 Q1027=
201904181530 METAR LRSB 181530Z 11008KT 9999 -SHRA SCT030CB BKN040 09/06
                        Q1027 R27/19//95=
201904181600 METAR LRSB 181600Z 17004KT 140V200 9999 FEW040CB SCT051 BKN074
                        09/06 Q1027 R27/19//95=
201904181630 METAR LRSB 181630Z 22003KT 9999 SCT045 SCT075 09/06 Q1027
                        R27/19//95=
201904181700 METAR LRSB 181700Z 22003KT 9999 FEW045 SCT076 08/05 Q1027
                        R27/19//95 NOSIG=
201904181730 METAR LRSB 181730Z VRB02KT 9999 SCT057 07/05 Q1027 R27/19//95
                        NOSIG=
201904181800 METAR LRSB 181800Z 25003KT 9999 SCT058 07/04 Q1028 R27/19//95
                        NOSIG=
201904181830 METAR LRSB 181830Z VRB02KT 9999 SCT058 SCT070 05/04 Q1028
                        R27/19//95 NOSIG=
201904181900 METAR LRSB 181900Z 23004KT 9999 FEW058 SCT067 05/04 Q1028
                        R27/19//95 NOSIG=
201904181930 METAR LRSB 181930Z 28005KT 9999 FEW068 05/03 Q1028 R27/19//95
                        NOSIG=
201904182000 METAR LRSB 182000Z 27003KT 230V300 9999 FEW068 05/02 Q1028
                        R27/19//95 NOSIG=
201904182030 METAR LRSB 182030Z VRB01KT 9999 SCT065 05/03 Q1028 R27/19//95
                        NOSIG=
201904182100 METAR LRSB 182100Z 34002KT 9999 BKN067 05/02 Q1028 R27/19//95
                        NOSIG=
201904182130 METAR LRSB 182130Z VRB02KT 9999 BKN068 05/02 Q1028 R27/19//95
                        NOSIG=
201904182200 METAR LRSB 182200Z VRB01KT 9999 SCT067 04/02 Q1028 R27/CLRD//
                        NOSIG=
201904182230 METAR LRSB 182230Z 09001KT 9000 SCT068 03/01 Q1028 NOSIG=
201904182300 METAR LRSB 182300Z 08002KT 9000 BKN064 04/03 Q1028 NOSIG=
201904182330 METAR COR LRSB 182330Z 00000KT 9000 BKN063 03/02 Q1027 NOSIG=
201904190000 METAR LRSB 190000Z 00000KT 8000 SCT063 02/01 Q1027 NOSIG=
201904190030 METAR LRSB 190030Z 00000KT 8000 FEW063 02/01 Q1027 NOSIG=
201904190100 METAR LRSB 190100Z 00000KT 8000 NSC 00/M01 Q1027 NOSIG=
201904190130 METAR LRSB 190130Z 25006KT CAVOK 01/00 Q1027 NOSIG=
201904190200 METAR LRSB 190200Z VRB01KT 9999 FEW067 02/00 Q1026 NOSIG=
201904190230 METAR LRSB 190230Z 27004KT 9999 FEW059 03/01 Q1026 NOSIG=
201904190300 METAR LRSB 190300Z 02003KT CAVOK 02/M00 Q1026 NOSIG=
201904190330 METAR LRSB 190330Z 00000KT CAVOK 01/M01 Q1026 NOSIG=
201904190400 METAR LRSB 190400Z 00000KT 9000 NSC 01/M01 Q1026 NOSIG=
201904190430 METAR LRSB 190430Z 00000KT 9999 4000E BCFG NSC 02/01 Q1026
                        NOSIG=
201904190500 METAR LRSB 190500Z 08003KT 9999 4000E BCFG NSC 03/01 Q1026
                        NOSIG=
201904190530 METAR LRSB 190530Z 08003KT 9999 4000NE BCFG NSC 05/03 Q1026=
201904190600 METAR LRSB 190600Z 07002KT 9999 4500NE BCFG NSC 07/03 Q1026=
201904190630 METAR LRSB 190630Z VRB02KT 9999 FEW075 08/03 Q1026=
201904190700 METAR LRSB 190700Z VRB01KT 9999 FEW062 SCT074 09/04 Q1026=
201904190730 METAR LRSB 190730Z VRB02KT 9999 FEW062 SCT072 11/05 Q1025=
201904190800 METAR LRSB 190800Z 29006KT 240V340 9999 FEW073 13/03 Q1025=
201904190830 METAR LRSB 190830Z 34009KT 310V010 9999 FEW056 14/02 Q1025=
201904190900 METAR LRSB 190900Z 32012KT 300V020 9999 FEW058 15/02 Q1025=
201904190930 METAR LRSB 190930Z 35013KT 9999 FEW055 15/02 Q1024=
201904191000 METAR LRSB 191000Z 33012KT 9999 FEW054 15/M00 Q1024=
201904191030 METAR LRSB 191030Z 36011KT 9999 FEW045TCU SCT050 15/M01 Q1024=
201904191100 METAR LRSB 191100Z 36011KT 9999 FEW042CB SCT050 14/01 Q1024=
201904191130 METAR LRSB 191130Z 36013KT 9999 FEW044CB SCT053 15/M01 Q1024=
201904191200 METAR LRSB 191200Z 01013KT 9999 FEW045CB SCT055 15/M01 Q1024=
201904191230 METAR LRSB 191230Z 36013G25KT 9999 FEW045CB SCT075 16/M02
                        Q1024=
201904191300 METAR LRSB 191300Z 36013KT 9999 FEW046CB SCT076 16/M01 Q1024=
201904191330 METAR LRSB 191330Z 36012KT 9999 FEW058 SCT080 17/M01 Q1024=
201904191400 METAR LRSB 191400Z 36009KT 9999 FEW058 SCT080 16/M02 Q1023=
201904191430 METAR LRSB 191430Z 36010KT 9999 FEW055 SCT081 16/M03 Q1023=
201904191500 METAR LRSB 191500Z 34009KT 9999 FEW056 17/M04 Q1023=
201904191530 METAR LRSB 191530Z 03011KT 9999 FEW057 15/M05 Q1024=
201904191600 METAR LRSB 191600Z 01008KT 9999 FEW045CB 15/M03 Q1024=
201904191630 METAR LRSB 191630Z 02007KT 9999 FEW040 15/M03 Q1024=
201904191700 METAR LRSB 191700Z 04007KT 9999 FEW036 13/M04 Q1024=
201904191730 METAR LRSB 191730Z 04006KT 9999 FEW036 12/M04 Q1024=
201904191800 METAR LRSB 191800Z 08009KT CAVOK 13/M02 Q1025=
201904191830 METAR LRSB 191830Z 10016KT CAVOK 11/01 Q1026=
201904191900 METAR LRSB 191900Z 11009KT CAVOK 10/01 Q1026=
201904191930 METAR LRSB 191930Z 12005KT CAVOK 10/00 Q1027=
201904192000 METAR LRSB 192000Z 13005KT 100V160 CAVOK 10/00 Q1027=
201904192030 METAR LRSB 192030Z 13004KT 100V160 CAVOK 10/00 Q1027=
201904192100 METAR LRSB 192100Z VRB02KT CAVOK 09/00 Q1027=
201904192130 METAR LRSB 192130Z 26002KT CAVOK 08/01 Q1027=
201904192200 METAR LRSB 192200Z 00000KT CAVOK 07/01 Q1027=
201904192230 METAR LRSB 192230Z VRB01KT CAVOK 07/01 Q1027=
201904192300 METAR LRSB 192300Z VRB03KT CAVOK 06/00 Q1027=
201904192330 METAR COR LRSB 192330Z 00000KT CAVOK 03/00 Q1027=
201904200000 METAR LRSB 200000Z VRB02KT CAVOK 04/00 Q1027=
201904200030 METAR LRSB 200030Z VRB02KT CAVOK 02/M01 Q1027=
201904200100 METAR LRSB 200100Z 26003KT CAVOK 01/M01 Q1027=
201904200130 METAR LRSB 200130Z 27003KT CAVOK 02/M00 Q1027=
201904200200 METAR LRSB 200200Z 00000KT CAVOK 02/M01 Q1027=
201904200230 METAR LRSB 200230Z 11001KT CAVOK 01/M01 Q1027=
201904200300 METAR LRSB 200300Z 31002KT CAVOK 01/M01 Q1027=
201904200330 METAR LRSB 200330Z VRB02KT CAVOK 01/M02 Q1027=
201904200400 METAR LRSB 200400Z 22002KT CAVOK 00/M01 Q1027=
201904200430 METAR LRSB 200430Z 26002KT CAVOK 02/M00 Q1027=
201904200500 METAR LRSB 200500Z 11001KT CAVOK 04/01 Q1028=
201904200530 METAR LRSB 200530Z VRB02KT CAVOK 05/01 Q1028=
201904200600 METAR LRSB 200600Z VRB01KT CAVOK 07/01 Q1028=
201904200630 METAR LRSB 200630Z 32001KT CAVOK 09/02 Q1028=
201904200700 METAR LRSB 200700Z VRB03KT CAVOK 10/01 Q1028=
201904200730 METAR LRSB 200730Z 10003KT CAVOK 10/00 Q1028=
201904200800 METAR LRSB 200800Z 10004KT 050V140 9999 FEW050 11/M00 Q1028=
201904200830 METAR LRSB 200830Z 12004KT 060V190 9999 SCT049 11/M02 Q1028=
201904200900 METAR LRSB 200900Z VRB03KT 9999 SCT048 10/M01 Q1028=
201904200930 METAR LRSB 200930Z VRB02KT 9999 SCT050 11/M01 Q1028=
201904201000 METAR LRSB 201000Z 26004KT 220V310 9999 SCT052 12/M02 Q1028=
201904201030 METAR LRSB 201030Z 18005KT 110V260 9999 SCT056 SCT070 13/M01
                        Q1028=
201904201100 METAR LRSB 201100Z 21004KT 130V270 9999 SCT058 SCT073 12/M02
                        Q1028=
201904201130 METAR LRSB 201130Z VRB04KT 9999 SCT058 14/M01 Q1027=
201904201200 METAR LRSB 201200Z VRB03KT 9999 FEW056 14/M02 Q1027=
201904201230 METAR LRSB 201230Z VRB04KT 9999 FEW054 SCT070 14/M03 Q1027=
201904201300 METAR LRSB 201300Z 20005KT 140V240 9999 FEW072 14/M03 Q1027=
201904201330 METAR LRSB 201330Z VRB03KT 9999 FEW074 15/M04 Q1027=
201904201400 METAR LRSB 201400Z VRB02KT 9999 FEW074 15/M04 Q1027=
201904201430 METAR LRSB 201430Z 28005KT 240V310 CAVOK 14/M04 Q1026=
201904201500 METAR LRSB 201500Z 03004KT 350V050 CAVOK 14/M05 Q1026=
201904201530 METAR LRSB 201530Z 01003KT 330V040 CAVOK 14/M05 Q1026=
201904201600 METAR LRSB 201600Z VRB02KT CAVOK 14/M05 Q1026=
201904201630 METAR LRSB 201630Z 23001KT CAVOK 13/M04 Q1026=
201904201700 METAR LRSB 201700Z 14002KT 9999 FEW085 12/M04 Q1026=
201904201730 METAR LRSB 201730Z 18003KT 9999 FEW087 11/M03 Q1026=
201904201800 METAR LRSB 201800Z 24004KT 9999 FEW087 06/M00 Q1026=
201904201830 METAR LRSB 201830Z 24004KT CAVOK 06/M01 Q1026=
201904201900 METAR LRSB 201900Z 26006KT CAVOK 05/M01 Q1026=
201904201930 METAR LRSB 201930Z 25004KT 230V360 CAVOK 04/M01 Q1026=
201904202000 METAR LRSB 202000Z 28004KT CAVOK 05/M02 Q1026=
201904202030 METAR LRSB 202030Z VRB01KT CAVOK 04/M02 Q1025=
201904202100 METAR LRSB 202100Z VRB01KT CAVOK 04/M01 Q1025=
201904202130 METAR LRSB 202130Z VRB01KT CAVOK 05/M02 Q1025=
201904202200 METAR LRSB 202200Z 06003KT CAVOK 06/M01 Q1025=
201904202230 METAR LRSB 202230Z 09003KT CAVOK 05/M00 Q1025=
201904202300 METAR LRSB 202300Z VRB02KT CAVOK 05/M01 Q1024=
201904202330 METAR LRSB 202330Z VRB01KT CAVOK 04/M02 Q1024=
201904210000 METAR LRSB 210000Z 00000KT CAVOK 04/M02 Q1024=
201904210030 METAR LRSB 210030Z 07001KT CAVOK 02/M01 Q1024=
201904210100 METAR LRSB 210100Z 09002KT CAVOK 03/M01 Q1024=
201904210130 METAR LRSB 210130Z 00000KT 9999 FEW080 03/M01 Q1024=
201904210200 METAR LRSB 210200Z VRB02KT 9999 FEW080 04/M01 Q1023=
201904210230 METAR LRSB 210230Z VRB01KT 9999 SCT080 03/M00 Q1023=
201904210300 METAR LRSB 210300Z 08003KT 050V110 9999 SCT080 04/M00 Q1023=
201904210330 METAR LRSB 210330Z 00000KT 9999 FEW060 03/00 Q1023=
201904210400 METAR LRSB 210400Z 03003KT 360V070 9999 FEW060 04/M00 Q1023=
201904210430 METAR LRSB 210430Z VRB02KT 9999 FEW065 05/01 Q1023=
201904210500 METAR LRSB 210500Z VRB01KT 9999 FEW070 06/00 Q1023=
201904210530 METAR LRSB 210530Z 10004KT 9999 FEW080 06/01 Q1023 NOSIG=
201904210600 METAR LRSB 210600Z 12004KT 9999 FEW076 07/01 Q1023 NOSIG=
201904210630 METAR LRSB 210630Z 12004KT 9999 FEW085 09/02 Q1023 NOSIG=
201904210700 METAR LRSB 210700Z 11004KT 9999 SCT085 11/01 Q1023 NOSIG=
201904210730 METAR LRSB 210730Z 10005KT 9999 FEW087 11/02 Q1022 NOSIG=
201904210800 METAR LRSB 210800Z 08004KT 360V110 9999 FEW087 14/01 Q1022
                        NOSIG=
201904210830 METAR LRSB 210830Z VRB05KT 9999 FEW087 15/00 Q1022 NOSIG=
201904210900 METAR LRSB 210900Z 31012KT 9999 SCT087 16/M02 Q1022 NOSIG=
201904210930 METAR LRSB 210930Z 30012KT 9999 FEW043 SCT087 16/M03 Q1022
                        NOSIG=
201904211000 METAR LRSB 211000Z 29016KT 9999 FEW043 SCT083 17/M02 Q1021
                        NOSIG=
201904211030 METAR LRSB 211030Z 29007KT 9999 FEW040CB SCT079 16/M03 Q1021
                        NOSIG=
201904211100 METAR LRSB 211100Z 31009KT 270V330 9999 FEW040CB SCT080 15/M01
                        Q1021 NOSIG=
201904211130 METAR LRSB 211130Z 27004KT 210V360 9999 FEW040CB SCT083 16/M02
                        Q1021 NOSIG=
201904211200 METAR LRSB 211200Z 16005KT 110V220 9999 FEW043 SCT086 17/M02
                        Q1020 NOSIG=
201904211230 METAR COR LRSB 211230Z 01007KT 320V050 9999 FEW045 SCT084
                        17/M02 Q1020 NOSIG=
201904211300 METAR LRSB 211300Z 30011KT 270V340 9999 FEW048 SCT084 18/M00
                        Q1019 NOSIG=
201904211330 METAR LRSB 211330Z 29012KT 9999 FEW048 SCT088 18/M02 Q1019
                        NOSIG=
201904211400 METAR LRSB 211400Z 29015KT 9999 SCT048 SCT088 18/M03 Q1018
                        NOSIG=
201904211430 METAR LRSB 211430Z 29017KT 9999 FEW045CB SCT048 18/M02 Q1018
                        NOSIG=
201904211500 METAR LRSB 211500Z 30013KT 9999 FEW043CB SCT048 17/M02 Q1018
                        NOSIG=
201904211530 METAR LRSB 211530Z 35018KT 9999 SCT043CB SCT080 15/00 Q1019
                        NOSIG=
201904211600 METAR LRSB 211600Z 06011KT 9999 -SHRA SCT036CB SCT070 14/02
                        Q1019 WS RWY27 NOSIG=
201904211630 METAR LRSB 211630Z 35013KT 9999 -SHRA SCT035CB SCT074 14/04
                        Q1019 WS RWY27 R27/29//95 NOSIG=
201904211700 METAR LRSB 211700Z 22007KT 180V250 9999 -SHRA SCT036CB SCT077
                        13/04 Q1019 R27/29//95=
201904211730 METAR LRSB 211730Z 27009KT 210V290 9999 -SHRA SCT036CB SCT058
                        11/06 Q1020 R27/29//95=
201904211800 METAR LRSB 211800Z 16005KT 120V190 9999 -SHRA SCT038CB SCT058
                        11/05 Q1019 R27/29//95=
201904211830 METAR LRSB 211830Z VRB04KT 9999 FEW038CB 10/06 Q1019 R27/29//95=
201904211900 METAR LRSB 211900Z 18005KT 150V220 9999 FEW063 10/05 Q1019
                        R27/29//95=
201904211930 METAR LRSB 211930Z 11005KT 9999 FEW063 09/05 Q1019 R27/29//95=
201904212000 METAR LRSB 212000Z 12006KT 9999 FEW066 09/05 Q1019 R27/29//95=
201904212030 METAR LRSB 212030Z 12004KT 9999 FEW070 08/05 Q1019 R27/29//95=
201904212100 METAR LRSB 212100Z 17003KT 130V190 9999 FEW070 07/04 Q1019
                        R27/29//95=
201904212130 METAR LRSB 212130Z 25004KT 9999 FEW070 05/04 Q1019 R27/29//95=
201904212200 METAR LRSB 212200Z VRB02KT CAVOK 05/04 Q1019 R27/29//95=
201904212230 METAR LRSB 212230Z 19003KT 150V230 CAVOK 07/04 Q1019 R27/29//95=
201904212300 METAR LRSB 212300Z 08004KT CAVOK 04/03 Q1018 R27/29//95=
201904212330 METAR LRSB 212330Z 08005KT CAVOK 06/04 Q1018 R27/29//95=
201904220000 METAR LRSB 220000Z 11005KT CAVOK 06/04 Q1018 R27/29//95=
201904220030 METAR LRSB 220030Z 14004KT 110V260 CAVOK 06/03 Q1018 R27/29//95=
201904220100 METAR LRSB 220100Z VRB02KT CAVOK 05/02 Q1018 R27/29//95=
201904220130 METAR LRSB 220130Z VRB02KT CAVOK 05/02 Q1018 R27/29//95=
201904220200 METAR LRSB 220200Z VRB02KT CAVOK 03/02 Q1017 R27/29//95=
201904220230 METAR LRSB 220230Z 00000KT CAVOK 04/02 Q1017 R27/29//95=
201904220300 METAR LRSB 220300Z 00000KT CAVOK 04/02 Q1017 R27/29//95=
201904220330 METAR LRSB 220330Z 33006KT CAVOK 04/02 Q1018 R27/29//95=
201904220400 METAR LRSB 220400Z 28006KT CAVOK 03/02 Q1018 R27/CLRD//=
201904220430 METAR LRSB 220430Z 27006KT CAVOK 05/03 Q1019=
201904220500 METAR LRSB 220500Z 26003KT 9999 FEW077 06/04 Q1019=
201904220530 METAR LRSB 220530Z 12004KT 9999 FEW077 08/04 Q1019=
201904220600 METAR LRSB 220600Z 13009KT CAVOK 09/05 Q1019=
201904220630 METAR LRSB 220630Z 11010KT 9999 FEW078 10/06 Q1018=
201904220700 METAR LRSB 220700Z 11013KT 9999 FEW083 12/05 Q1018=
201904220730 METAR LRSB 220730Z 11015KT 9999 FEW040 13/05 Q1018=
201904220800 METAR LRSB 220800Z 12016KT 9999 FEW039 SCT079 14/05 Q1018=
201904220830 METAR LRSB 220830Z 13012KT 9999 FEW040 SCT080 14/04 Q1019=
201904220900 METAR LRSB 220900Z 13013KT 9999 FEW040CB SCT074 14/05 Q1018=
201904220930 METAR LRSB 220930Z 15014KT 9999 FEW036CB SCT078 12/06 Q1019=
201904221000 METAR LRSB 221000Z 15012KT 9999 SCT036 SCT080 13/06 Q1019=
201904221030 METAR LRSB 221030Z 14013KT 9999 SCT060 12/06 Q1018=
201904221100 METAR LRSB 221100Z 14012KT 9999 FEW060 SCT080 14/06 Q1018=
201904221130 METAR LRSB 221130Z 13010KT 9999 SCT063 SCT076 14/05 Q1018=
201904221200 METAR LRSB 221200Z 22010KT 180V240 9999 SCT043CB OVC059 13/06
                        Q1019=
201904221230 METAR LRSB 221230Z 18004KT 140V230 9999 -SHRA FEW026 SCT040CB
                        OVC078 11/08 Q1019 R27/29//95=
201904221300 METAR LRSB 221300Z 13012KT 9999 FEW036CB OVC077 12/07 Q1019
                        R27/29//95=
201904221330 METAR LRSB 221330Z 13012KT 9999 BKN056 BKN080 12/06 Q1019
                        R27/29//95=
201904221400 METAR LRSB 221400Z 13014KT 9999 -SHRA FEW038CB BKN048 11/05
                        Q1019 R27/29//95=
201904221430 METAR LRSB 221430Z 12015KT 9999 FEW040CB SCT053 12/05 Q1019
                        R27/12//95=
201904221500 METAR LRSB 221500Z 13016KT 9999 FEW040CB BKN070 12/05 Q1019
                        R27/12//95=
201904221530 METAR LRSB 221530Z 13016KT 9999 FEW040 SCT080 12/04 Q1019
                        R27/12//95=
201904221600 METAR LRSB 221600Z 13017KT 9999 FEW080 11/04 Q1019 R27/12//95=
201904221630 METAR LRSB 221630Z 11014KT 9999 FEW080 11/04 Q1019 R27/12//95=
201904221700 METAR LRSB 221700Z 12012KT 9999 FEW080 11/03 Q1019 R27/12//95
                        NOSIG=
201904221730 METAR LRSB 221730Z 12012KT 9999 SCT073 10/03 Q1019 R27/12//95
                        NOSIG=
201904221800 METAR LRSB 221800Z 12013KT 9999 SCT076 10/03 Q1019 R27/CLRD//
                        NOSIG=
201904221830 METAR LRSB 221830Z 12011KT 9999 SCT069 10/03 Q1019 NOSIG=
201904221900 METAR LRSB 221900Z 13009KT 9999 SCT070 10/02 Q1020 NOSIG=
201904221930 METAR LRSB 221930Z 13005KT 090V200 9999 SCT076 11/02 Q1020
                        NOSIG=
201904222000 METAR COR LRSB 222000Z 15008KT 130V200 9999 SCT076 11/02
                        Q1020 NOSIG=
201904222030 METAR LRSB 222030Z 15008KT 120V180 9999 SCT080 11/01 Q1020
                        NOSIG=
201904222100 METAR LRSB 222100Z 15006KT 9999 FEW086 10/M00 Q1020 NOSIG=
201904222130 METAR LRSB 222130Z 15010KT CAVOK 10/M01 Q1020 NOSIG=
201904222200 METAR LRSB 222200Z 16009KT CAVOK 10/M01 Q1020 NOSIG=
201904222230 METAR LRSB 222230Z 16009KT CAVOK 10/M02 Q1020 NOSIG=
201904222300 METAR LRSB 222300Z 18009KT CAVOK 10/M01 Q1020 NOSIG=
201904222330 METAR LRSB 222330Z 17009KT CAVOK 09/M01 Q1020 NOSIG=
201904230000 METAR LRSB 230000Z 17009KT CAVOK 09/M02 Q1020 NOSIG=
201904230030 METAR LRSB 230030Z 17009KT 150V210 CAVOK 09/M02 Q1020 NOSIG=
201904230100 METAR LRSB 230100Z 17008KT CAVOK 09/M05 Q1020 NOSIG=
201904230130 METAR LRSB 230130Z 17008KT 140V200 9999 FEW085 09/M03 Q1020
                        NOSIG=
201904230200 METAR LRSB 230200Z 18007KT 150V210 9999 FEW088 09/M03 Q1020
                        NOSIG=
201904230230 METAR LRSB 230230Z 15005KT 9999 SCT084 08/M02 Q1020 NOSIG=
201904230300 METAR LRSB 230300Z 16003KT 130V190 9999 SCT086 09/M02 Q1020
                        NOSIG=
201904230330 METAR LRSB 230330Z 14007KT 9999 SCT086 09/M02 Q1020 NOSIG=
201904230400 METAR LRSB 230400Z 13011KT 9999 SCT086 08/M01 Q1020 NOSIG=
201904230430 METAR LRSB 230430Z 12012KT 9999 SCT086 09/M00 Q1020 NOSIG=
201904230500 METAR LRSB 230500Z 12007KT 9999 SCT080 10/M01 Q1021 NOSIG=
201904230530 METAR LRSB 230530Z 16007KT 9999 SCT080 10/00 Q1021=
201904230600 METAR LRSB 230600Z 16006KT 120V190 9999 FEW070 SCT084 10/M02
                        Q1021=
201904230630 METAR LRSB 230630Z 16014KT 9999 FEW070 SCT084 10/M03 Q1021=
201904230700 METAR LRSB 230700Z 15015KT 9999 FEW072 SCT085 10/M04 Q1021=
201904230730 METAR LRSB 230730Z 14015KT 9999 FEW072 SCT086 11/M05 Q1022=
201904230800 METAR LRSB 230800Z 13013KT 9999 FEW075 11/M06 Q1022=
201904230830 METAR LRSB 230830Z 14013KT 9999 FEW078 11/M06 Q1022=
201904230900 METAR LRSB 230900Z 14011KT 110V180 9999 FEW083 12/M05 Q1022=
201904230930 METAR LRSB 230930Z 15017KT 9999 FEW080 12/M05 Q1022=
201904231000 METAR LRSB 231000Z 15016KT 130V200 9999 FEW085 12/M05 Q1022=
201904231030 METAR LRSB 231030Z 15016KT 9999 FEW086 13/M04 Q1022=
201904231100 METAR LRSB 231100Z 15017KT CAVOK 13/M02 Q1022=
201904231130 METAR LRSB 231130Z 14015KT CAVOK 12/M02 Q1022=
201904231200 METAR LRSB 231200Z 14016KT CAVOK 12/M01 Q1022=
201904231230 METAR LRSB 231230Z 14018KT 9999 FEW050CB 12/M01 Q1022=
201904231300 METAR LRSB 231300Z 14018KT 9999 FEW050CB SCT083 11/M00 Q1022=
201904231330 METAR LRSB 231330Z 14020KT 9999 FEW048CB SCT085 12/M01 Q1021=
201904231400 METAR LRSB 231400Z 15020G31KT 9999 FEW048CB SCT086 12/M01
                        Q1021=
201904231430 METAR LRSB 231430Z 14020KT 9999 FEW047CB SCT085 12/M01 Q1021=
201904231500 METAR LRSB 231500Z 14023KT 9999 FEW045CB SCT078 11/M01 Q1021=
201904231530 METAR LRSB 231530Z 15015KT 9999 -RA FEW045CB SCT072 11/M00
                        Q1021=
201904231600 METAR LRSB 231600Z 15013KT 110V180 9999 FEW043CB BKN073 11/M00
                        Q1020=
201904231630 METAR LRSB 231630Z 15013KT 9999 -SHRA FEW046CB BKN073 11/M00
                        Q1020=
201904231700 METAR LRSB 231700Z VRB05KT 9999 SCT050CB BKN075 11/00 Q1021=
201904231730 METAR LRSB 231730Z 15019KT 9999 -SHRA SCT048CB OVC076 10/01
                        Q1020=
201904231800 METAR LRSB 231800Z 14009KT 110V170 9999 FEW046CB OVC075 10/01
                        Q1021=
201904231830 METAR LRSB 231830Z 17013KT 140V200 9999 FEW043CB OVC075 11/01
                        Q1021=
201904231900 METAR LRSB 231900Z 16013KT 130V230 9999 -SHRA FEW043CB OVC074
                        11/01 Q1021=
201904231930 METAR LRSB 231930Z 16013KT 140V200 9999 SCT040 OVC080 11/01
                        Q1021=
201904232000 METAR LRSB 232000Z 15010KT 090V190 9999 FEW040 BKN077 11/01
                        Q1021=
201904232030 METAR LRSB 232030Z 16015KT 9999 OVC079 11/02 Q1021=
201904232100 METAR LRSB 232100Z 16015KT 9999 OVC082 11/02 Q1021=
201904232130 METAR LRSB 232130Z 15009G21KT 120V190 9999 OVC079 11/02 Q1021=
201904232200 METAR LRSB 232200Z 14005KT 110V180 9999 BKN068 11/02 Q1021=
201904232230 METAR LRSB 232230Z 14005KT 110V190 9999 BKN069 11/02 Q1021=
201904232300 METAR LRSB 232300Z 19005KT 130V230 9999 OVC073 11/03 Q1021=
201904232330 METAR LRSB 232330Z 19007KT 160V230 9999 OVC069 11/03 Q1021=
201904240000 METAR LRSB 240000Z 20007KT 170V230 9999 OVC071 11/03 Q1021=
201904240030 METAR LRSB 240030Z 12004KT 100V170 9999 OVC069 09/04 Q1021=
201904240100 METAR LRSB 240100Z 14004KT 9999 OVC071 10/03 Q1020=
201904240130 METAR LRSB 240130Z 13006KT 9999 OVC081 10/03 Q1020=
201904240200 METAR LRSB 240200Z 14008KT 9999 OVC071 10/03 Q1020=
201904240230 METAR LRSB 240230Z 13009KT 9999 OVC066 10/03 Q1020=
201904240300 METAR LRSB 240300Z 13008KT 9999 OVC069 11/02 Q1020=
201904240330 METAR LRSB 240330Z 13007KT 9999 FEW077 10/02 Q1021=
201904240400 METAR LRSB 240400Z 16004KT 9999 SCT067 SCT085 10/03 Q1021=
201904240430 METAR LRSB 240430Z 24005KT 9999 BKN070 08/04 Q1021=
201904240500 METAR LRSB 240500Z 27004KT 9999 BKN067 09/04 Q1021=
201904240530 METAR LRSB 240530Z 27003KT 210V350 9999 BKN070 10/05 Q1022=
201904240600 METAR LRSB 240600Z VRB01KT 9999 SCT070 12/05 Q1022=
201904240630 METAR LRSB 240630Z VRB02KT 9999 SCT070 14/05 Q1022=
201904240700 METAR LRSB 240700Z 24004KT 9999 SCT070 14/05 Q1022=
201904240730 METAR LRSB 240730Z VRB02KT 9999 FEW070 15/05 Q1022=
201904240800 METAR LRSB 240800Z VRB05KT CAVOK 16/05 Q1022=
201904240830 METAR LRSB 240830Z 14008KT CAVOK 17/05 Q1022=
201904240900 METAR LRSB 240900Z 14010KT CAVOK 17/06 Q1022=
201904240930 METAR LRSB 240930Z 12011KT CAVOK 18/05 Q1022=
201904241000 METAR LRSB 241000Z 13013KT CAVOK 18/06 Q1022=
201904241030 METAR LRSB 241030Z 13013KT CAVOK 19/06 Q1022=
201904241100 METAR LRSB 241100Z 12013KT CAVOK 20/05 Q1021=
201904241130 METAR LRSB 241130Z 12013KT CAVOK 20/06 Q1021=
201904241200 METAR LRSB 241200Z 13015KT CAVOK 20/06 Q1021=
201904241230 METAR LRSB 241230Z 13015KT CAVOK 20/06 Q1021=
201904241300 METAR LRSB 241300Z 14015KT CAVOK 20/06 Q1020=
201904241330 METAR LRSB 241330Z 13016KT CAVOK 20/05 Q1020=
201904241400 METAR LRSB 241400Z 14017KT CAVOK 20/05 Q1020=
201904241430 METAR LRSB 241430Z 14016KT CAVOK 19/05 Q1020=
201904241500 METAR LRSB 241500Z 16013KT 140V220 CAVOK 19/05 Q1021=
201904241530 METAR LRSB 241530Z 15012KT CAVOK 19/06 Q1021=
201904241600 METAR LRSB 241600Z 16011KT 130V200 CAVOK 18/05 Q1021=
201904241630 METAR LRSB 241630Z 16013KT CAVOK 18/05 Q1021=
201904241700 METAR LRSB 241700Z 15010KT CAVOK 17/05 Q1021=
201904241730 METAR LRSB 241730Z 16011KT 140V200 CAVOK 16/05 Q1021=
201904241800 METAR LRSB 241800Z 15011KT CAVOK 16/05 Q1021=
201904241830 METAR LRSB 241830Z 16007KT 130V200 CAVOK 15/05 Q1021=
201904241900 METAR LRSB 241900Z 16005KT 120V200 CAVOK 15/05 Q1021=
201904241930 METAR LRSB 241930Z 14005KT CAVOK 15/05 Q1021=
201904242000 METAR LRSB 242000Z 13005KT CAVOK 14/05 Q1021=
201904242030 METAR LRSB 242030Z 16007KT CAVOK 14/05 Q1021=
201904242100 METAR LRSB 242100Z 16008KT CAVOK 15/05 Q1021=
201904242130 METAR LRSB 242130Z 16009KT CAVOK 14/05 Q1022=
201904242200 METAR LRSB 242200Z 14007KT 100V170 CAVOK 13/05 Q1022=
201904242230 METAR LRSB 242230Z 13006KT CAVOK 13/05 Q1021=
201904242300 METAR LRSB 242300Z VRB02KT CAVOK 09/04 Q1021=
201904242330 METAR LRSB 242330Z 30005KT CAVOK 09/04 Q1021=
201904250000 METAR LRSB 250000Z VRB02KT CAVOK 07/04 Q1021=
201904250030 METAR LRSB 250030Z VRB02KT CAVOK 06/04 Q1021=
201904250100 METAR LRSB 250100Z 27002KT CAVOK 07/04 Q1021=
201904250130 METAR LRSB 250130Z 25003KT 210V310 CAVOK 05/03 Q1021=
201904250200 METAR LRSB 250200Z 27004KT CAVOK 06/04 Q1022=
201904250230 METAR LRSB 250230Z 34003KT 300V020 CAVOK 07/04 Q1022=
201904250300 METAR LRSB 250300Z VRB01KT 9999 FEW070 05/03 Q1022=
201904250330 METAR LRSB 250330Z VRB01KT 9999 FEW055CB 06/04 Q1022=
201904250400 METAR LRSB 250400Z VRB02KT 9999 FEW055CB 06/04 Q1022=
201904250430 METAR LRSB 250430Z 11004KT 060V150 9999 -SHRA FEW052CB SCT076
                        09/05 Q1022=
201904250500 METAR LRSB 250500Z VRB02KT 9999 FEW046CB SCT076 09/06 Q1023
                        R27/29//95 NOSIG=
201904250530 METAR LRSB 250530Z 13002KT 9999 FEW046CB SCT083 10/07 Q1022
                        R27/29//95 NOSIG=
201904250600 METAR LRSB 250600Z VRB02KT 9999 SCT088 11/07 Q1023 R27/29//95
                        NOSIG=
201904250630 METAR LRSB 250630Z VRB02KT CAVOK 13/07 Q1023 R27/29//95 NOSIG=
201904250700 METAR LRSB 250700Z 12003KT 070V180 9999 FEW040 14/08 Q1023
                        R27/29//95 NOSIG=
201904250730 METAR LRSB 250730Z VRB02KT 9999 FEW040 16/08 Q1023 R27/29//95
                        NOSIG=
201904250800 METAR LRSB 250800Z 13003KT 070V210 9999 FEW040 17/09 Q1023
                        R27/CLRD// NOSIG=
201904250830 METAR LRSB 250830Z 14004KT 100V170 9999 FEW043 19/09 Q1022
                        NOSIG=
201904250900 METAR LRSB 250900Z 21004KT 130V260 9999 FEW043TCU 21/09 Q1022
                        NOSIG=
201904250930 METAR COR LRSB 250930Z VRB04KT 9999 FEW043TCU 21/08 Q1022
                        NOSIG=
201904251000 METAR LRSB 251000Z VRB04KT 9999 FEW045 22/07 Q1022 NOSIG=
201904251030 METAR LRSB 251030Z 13007KT 080V170 9999 FEW048 23/07 Q1021
                        NOSIG=
201904251100 METAR LRSB 251100Z 16006KT 090V230 9999 FEW048 SCT086 23/07
                        Q1021 NOSIG=
201904251130 METAR LRSB 251130Z 14006KT 090V180 9999 FEW048 SCT087 22/07
                        Q1021 NOSIG=
201904251200 METAR LRSB 251200Z VRB02KT 9999 FEW046CB SCT082 23/07 Q1021
                        NOSIG=
201904251230 METAR COR LRSB 251230Z 14006KT 9999 FEW046CB SCT076 23/07
                        Q1020 NOSIG=
201904251300 METAR LRSB 251300Z 25005KT 200V280 9999 FEW046CB SCT080 22/09
                        Q1020 NOSIG=
201904251330 METAR LRSB 251330Z 23006KT 200V260 9999 FEW048 SCT086 24/09
                        Q1020 NOSIG=
201904251400 METAR LRSB 251400Z 21004KT 160V250 9999 FEW048 24/07 Q1020
                        NOSIG=
201904251430 METAR LRSB 251430Z 13008KT 100V160 9999 SCT050 23/07 Q1020
                        NOSIG=
201904251500 METAR COR LRSB 251500Z 14008KT 9999 SCT050 22/07 Q1019 NOSIG=
201904251530 METAR LRSB 251530Z 14005KT 9999 FEW048 SCT055 21/08 Q1019
                        NOSIG=
201904251600 METAR LRSB 251600Z 15006KT 9999 -SHRA SCT048CB SCT070 20/11
                        Q1019 NOSIG=
201904251630 METAR LRSB 251630Z 23008KT 180V260 9999 TS VCSH SCT048CB
                        SCT073 19/11 Q1020 NOSIG=
201904251700 METAR COR LRSB 251700Z 21005KT 150V240 9999 SCT047CB 19/11
                        Q1020 RETS=
201904251730 METAR LRSB 251730Z 19006KT 9999 FEW047CB 18/09 Q1020=
201904251800 METAR LRSB 251800Z 25004KT 200V290 CAVOK 17/09 Q1020=
201904251830 METAR LRSB 251830Z VRB03KT CAVOK 16/09 Q1020=
201904251900 METAR LRSB 251900Z 26004KT CAVOK 12/08 Q1020=
201904251930 METAR LRSB 251930Z 34003KT 300V010 CAVOK 14/08 Q1020=
201904252000 METAR LRSB 252000Z 30002KT CAVOK 14/07 Q1020=
201904252030 METAR LRSB 252030Z VRB02KT CAVOK 14/07 Q1020=
201904252100 METAR LRSB 252100Z VRB02KT CAVOK 12/07 Q1020=
201904252130 METAR LRSB 252130Z VRB02KT CAVOK 11/06 Q1020=
201904252200 METAR LRSB 252200Z 03004KT 010V120 CAVOK 12/07 Q1020=
201904252230 METAR LRSB 252230Z 25004KT CAVOK 09/06 Q1020=
201904252300 METAR LRSB 252300Z 00000KT CAVOK 11/07 Q1020=
201904252330 METAR LRSB 252330Z 00000KT CAVOK 09/07 Q1020=
201904260000 METAR LRSB 260000Z 00000KT CAVOK 10/06 Q1020=
201904260030 METAR COR LRSB 260030Z 00000KT CAVOK 09/07 Q1020=
201904260100 METAR COR LRSB 260100Z 00000KT CAVOK 08/06 Q1020=
201904260130 METAR LRSB 260130Z AUTO 00000KT 9999 NCD 09/07 Q1020=
201904260200 METAR COR LRSB 260200Z 00000KT CAVOK 09/06 Q1020=
201904260230 METAR LRSB 260230Z 00000KT CAVOK 07/04 Q1020=
201904260300 METAR LRSB 260300Z 00000KT CAVOK 08/06 Q1020=
201904260330 METAR LRSB 260330Z 00000KT CAVOK 08/06 Q1020=
201904260400 METAR LRSB 260400Z 00000KT CAVOK 08/06 Q1020=
201904260430 METAR LRSB 260430Z 00000KT CAVOK 10/08 Q1020=
201904260500 METAR LRSB 260500Z 11003KT CAVOK 11/08 Q1020=
201904260530 METAR LRSB 260530Z 10005KT CAVOK 13/09 Q1020=
201904260600 METAR LRSB 260600Z 12004KT CAVOK 15/09 Q1020=
201904260630 METAR LRSB 260630Z 11005KT CAVOK 16/09 Q1020=
201904260700 METAR LRSB 260700Z 12004KT 080V160 CAVOK 18/09 Q1020=
201904260730 METAR LRSB 260730Z 14003KT 090V250 CAVOK 19/09 Q1020=
201904260800 METAR LRSB 260800Z VRB02KT CAVOK 21/10 Q1020=
201904260830 METAR LRSB 260830Z 10005KT 030V140 9999 FEW040 22/10 Q1019=
201904260900 METAR LRSB 260900Z 12005KT 360V160 9999 FEW036 23/08 Q1019=
201904260930 METAR LRSB 260930Z VRB04KT 9999 FEW036 24/07 Q1019=
201904261000 METAR LRSB 261000Z VRB02KT 9999 FEW036 25/07 Q1018=
201904261030 METAR LRSB 261030Z VRB03KT 9999 FEW033 25/06 Q1018=
201904261100 METAR LRSB 261100Z VRB03KT 9999 FEW033 26/06 Q1018=
201904261130 METAR LRSB 261130Z VRB04KT 9999 FEW036 26/05 Q1018=
201904261200 METAR LRSB 261200Z 02008KT 330V050 9999 FEW036 26/05 Q1017=
201904261230 METAR LRSB 261230Z 01005KT 270V070 9999 FEW040CB 26/04 Q1017=
201904261300 METAR LRSB 261300Z VRB04KT 9999 FEW040CB 26/02 Q1017=
201904261330 METAR LRSB 261330Z 02006KT 290V070 9999 FEW043CB 27/01 Q1016=
201904261400 METAR LRSB 261400Z VRB04KT 9999 FEW043CB 27/M01 Q1016=
201904261430 METAR LRSB 261430Z 05004KT 360V090 9999 FEW040CB 27/M02 Q1016=
201904261500 METAR LRSB 261500Z VRB03KT 9999 FEW040 27/M03 Q1016=
201904261530 METAR LRSB 261530Z 11002KT 9999 FEW040CB 26/M01 Q1016=
201904261600 METAR LRSB 261600Z 18009KT 140V210 9999 FEW040CB 24/08 Q1015=
201904261630 METAR LRSB 261630Z 18009KT 140V210 9999 FEW036 22/08 Q1015=
201904261700 METAR LRSB 261700Z 15006KT CAVOK 21/09 Q1015 NOSIG=
201904261730 METAR LRSB 261730Z 14003KT 110V220 CAVOK 21/08 Q1016 NOSIG=
201904261800 METAR LRSB 261800Z AUTO 14005KT 9999 NCD 20/07 Q1016 NOSIG=
201904261830 METAR LRSB 261830Z 15007KT CAVOK 19/08 Q1016 NOSIG=
201904261900 METAR LRSB 261900Z 15008KT CAVOK 19/08 Q1016 NOSIG=
201904261930 METAR LRSB 261930Z 16007KT CAVOK 20/08 Q1016 NOSIG=
201904262000 METAR LRSB 262000Z 15006KT CAVOK 19/08 Q1016 NOSIG=
201904262030 METAR LRSB 262030Z 13004KT CAVOK 19/08 Q1016 NOSIG=
201904262100 METAR COR LRSB 262100Z 10005KT CAVOK 16/08 Q1015 NOSIG=
201904262130 METAR LRSB 262130Z 12005KT CAVOK 17/08 Q1015 NOSIG=
201904262200 METAR LRSB 262200Z 30002KT CAVOK 13/08 Q1015 NOSIG=
201904262230 METAR LRSB 262230Z VRB02KT CAVOK 16/08 Q1015 NOSIG=
201904262300 METAR LRSB 262300Z 00000KT CAVOK 15/08 Q1015 NOSIG=
201904262330 METAR LRSB 262330Z 26004KT CAVOK 10/07 Q1014 NOSIG=
201904270000 METAR LRSB 270000Z 29003KT CAVOK 12/07 Q1014 NOSIG=
201904270030 METAR LRSB 270030Z 07004KT CAVOK 12/06 Q1014 NOSIG=
201904270100 METAR LRSB 270100Z VRB02KT CAVOK 12/06 Q1014 NOSIG=
201904270130 METAR LRSB 270130Z 27003KT 230V290 CAVOK 10/07 Q1014 NOSIG=
201904270200 METAR COR LRSB 270200Z 27003KT 240V300 CAVOK 11/06 Q1013
                        NOSIG=
201904270230 METAR LRSB 270230Z VRB02KT CAVOK 10/06 Q1013 NOSIG=
201904270300 METAR LRSB 270300Z 26003KT CAVOK 10/07 Q1013 NOSIG=
201904270330 METAR LRSB 270330Z 26003KT CAVOK 08/06 Q1013 NOSIG=
201904270400 METAR LRSB 270400Z VRB02KT CAVOK 09/06 Q1013 NOSIG=
201904270430 METAR LRSB 270430Z 26004KT CAVOK 11/08 Q1013 NOSIG=
201904270500 METAR LRSB 270500Z VRB01KT CAVOK 12/09 Q1013=
201904270530 METAR LRSB 270530Z VRB02KT CAVOK 15/08 Q1013=
201904270600 METAR LRSB 270600Z VRB01KT CAVOK 17/09 Q1013=
201904270630 METAR LRSB 270630Z 14003KT CAVOK 16/09 Q1013=
201904270700 METAR LRSB 270700Z 10005KT CAVOK 19/08 Q1013=
201904270730 METAR LRSB 270730Z 10006KT CAVOK 20/11 Q1013=
201904270800 METAR LRSB 270800Z 08004KT 040V100 CAVOK 21/10 Q1013=
201904270830 METAR LRSB 270830Z 01005KT CAVOK 22/11 Q1013=
201904270900 METAR LRSB 270900Z 35008KT 330V030 9999 FEW086 23/07 Q1013=
201904270930 METAR LRSB 270930Z 35006KT 310V020 9999 FEW084 22/07 Q1013=
201904271000 METAR LRSB 271000Z 36009KT 9999 FEW055TCU 23/06 Q1012=
201904271030 METAR LRSB 271030Z 35007KT 300V020 9999 FEW047 FEW055CB 24/07
                        Q1012=
201904271100 METAR LRSB 271100Z 34007KT 300V010 9999 FEW043 FEW052CB 24/07
                        Q1011=
201904271130 METAR LRSB 271130Z 35008KT 320V020 9999 VCTS FEW040 FEW050CB
                        24/08 Q1011=
201904271200 METAR LRSB 271200Z 31009KT 9999 -SHRA FEW038 SCT047CB 21/11
                        Q1011=
201904271230 METAR LRSB 271230Z 29009KT 9999 -SHRA VCTS FEW012 SCT035
                        SCT045CB 19/14 Q1011 RESHRA R27/29//95=
201904271300 METAR LRSB 271300Z 26004KT 220V310 9999 -TSRA FEW022 SCT030
                        BKN040CB 18/12 Q1010 RETSRA R27/29//95=
201904271330 METAR LRSB 271330Z VRB03KT 9999 FEW038 SCT043CB 21/13 Q1009
                        R27/29//95=
201904271400 METAR LRSB 271400Z 10003KT 060V150 9999 FEW035 FEW043CB 22/10
                        Q1009 R27/29//95=
201904271430 METAR LRSB 271430Z 15003KT 9999 FEW040 FEW045CB 22/10 Q1008
                        R27/CLRD//=
201904271500 METAR LRSB 271500Z 12008KT 9999 FEW040 SCT045CB 23/11 Q1008=
201904271530 METAR LRSB 271530Z 13011KT 9999 VCSH SCT042CB SCT085 23/08
                        Q1008=
201904271600 METAR LRSB 271600Z 30018G29KT 4000 TSRA BKN035CB BKN070 16/11
                        Q1009 R27/29//95=
201904271630 METAR LRSB 271630Z 31019KT 9999 -TSRA SCT036CB BKN083 14/11
                        Q1009 R27/29//95=
201904271700 METAR LRSB 271700Z 29023KT 9999 TS SCT045CB OVC063 14/11
                        Q1010 R27/29//95=
201904271730 METAR LRSB 271730Z 30014KT 9999 -TSRA SCT048CB OVC080 13/11
                        Q1010 R27/29//95=
201904271800 METAR LRSB 271800Z VRB06KT 9999 -SHRA FEW013 SCT047CB BKN080
                        14/11 Q1011 R27/29//95=
201904271830 METAR LRSB 271830Z VRB02KT 9999 -SHRA FEW011 FEW054CB SCT079
                        13/11 Q1012 R27/29//95=
201904271900 METAR LRSB 271900Z 03005KT 9999 -SHRA FEW016 SCT050CB BKN078
                        13/11 Q1012 R27/29//95=
201904271930 METAR LRSB 271930Z 36005KT 9999 -RA FEW017 OVC067 13/11 Q1012
                        R27/29//95=
201904272000 METAR LRSB 272000Z 35003KT 9999 -RA FEW016 OVC063 13/11 Q1012
                        R27/29//95=
201904272030 METAR LRSB 272030Z 02002KT 9999 -RA FEW022 BKN073 13/11 Q1012
                        R27/29//95=
201904272100 METAR LRSB 272100Z VRB02KT 9999 BKN022 12/11 Q1012 R27/29//95=
201904272130 METAR LRSB 272130Z 22003KT 9999 -RA SCT027 BKN076 12/11 Q1011
                        R27/29//95=
201904272200 METAR LRSB 272200Z 25004KT 9999 -RA BKN026 12/11 Q1011 R27/29//95=
201904272230 METAR COR LRSB 272230Z 30003KT 9999 -RA FEW015 BKN021 12/11
                        Q1011 R27/29//95=
201904272300 METAR LRSB 272300Z 31004KT 9999 -RA FEW006 SCT012 OVC023
                        12/11 Q1011 R27/29//95=
201904272330 METAR LRSB 272330Z 31008KT 9999 -RA FEW009 BKN037 12/11 Q1010
                        R27/29//95=
201904280000 METAR LRSB 280000Z 32005KT 290V350 9999 -RA BKN048 12/10
                        Q1010 R27/29//95=
201904280030 METAR COR LRSB 280030Z 27003KT 230V300 9999 FEW021 OVC059
                        11/10 Q1010 R27/29//95=
201904280100 METAR LRSB 280100Z 29011KT 9999 -RA FEW021 SCT079 11/09 Q1010
                        R27/29//95=
201904280130 METAR LRSB 280130Z 27008KT 9999 -RA FEW054 SCT079 11/09 Q1010
                        R27/29//95=
201904280200 METAR LRSB 280200Z AUTO 29011KT 9999 -SHRA SCT056/// 12/08
                        Q1010=
201904280230 METAR LRSB 280230Z 30010KT 9999 SCT056 BKN074 12/08 Q1010
                        R27/29//95=
201904280300 METAR LRSB 280300Z 34006KT 9999 BKN064 11/08 Q1010 R27/29//95=
201904280330 METAR LRSB 280330Z 23004KT 9999 BKN066 11/08 Q1010 R27/29//95=
201904280400 METAR LRSB 280400Z VRB02KT 9999 FEW033 SCT072 10/08 Q1010
                        R27/29//95=
201904280430 METAR LRSB 280430Z 26002KT 9999 FEW033 SCT080 10/08 Q1010
                        R27/29//95=
201904280500 METAR LRSB 280500Z VRB02KT 9999 FEW033 SCT062 11/08 Q1011
                        R27/29//95=
201904280530 METAR LRSB 280530Z 27007KT 220V300 9999 FEW033 SCT065 11/09
                        Q1011 R27/29//95=
201904280600 METAR LRSB 280600Z 29013KT 9999 SCT036 SCT067 12/07 Q1011
                        R27/29//95=
201904280630 METAR LRSB 280630Z 28011KT 9999 SCT038 SCT068 12/06 Q1011
                        R27/29//95=
201904280700 METAR LRSB 280700Z 28012KT 9999 SCT040 SCT070 13/06 Q1011
                        R27/29//95=
201904280730 METAR LRSB 280730Z 30013KT 9999 FEW040 BKN073 13/06 Q1011
                        R27/29//95=
201904280800 METAR LRSB 280800Z 30017KT 9999 FEW040 SCT075 14/05 Q1011
                        R27/29//95=
201904280830 METAR LRSB 280830Z 30014KT 9999 FEW040 15/06 Q1011 R27/CLRD//=
201904280900 METAR LRSB 280900Z 31013KT 9999 FEW042 16/06 Q1011=
201904280930 METAR LRSB 280930Z 30013KT 9999 FEW042 16/05 Q1011=
201904281000 METAR LRSB 281000Z 32011KT 9999 FEW042 16/06 Q1011=
201904281030 METAR LRSB 281030Z 32011KT 300V360 9999 SCT043 SCT072 15/07
                        Q1011=
201904281100 METAR LRSB 281100Z 33009KT 9999 FEW044 SCT056 15/06 Q1011=
201904281130 METAR LRSB 281130Z 32010KT 9999 SCT043 SCT055 15/07 Q1011=
201904281200 METAR LRSB 281200Z 32011KT 9999 FEW043 BKN054 15/07 Q1011=
201904281230 METAR LRSB 281230Z 31012KT 9999 FEW045 SCT057 16/07 Q1011=
201904281300 METAR LRSB 281300Z 31009KT 9999 FEW045 SCT060 16/06 Q1010=
201904281330 METAR LRSB 281330Z 31008KT 9999 FEW044 SCT082 16/05 Q1010=
201904281400 METAR LRSB 281400Z 31010KT 9999 FEW044 SCT060 17/04 Q1010=
201904281430 METAR LRSB 281430Z 29016KT 250V320 9999 FEW038CB SCT054 15/07
                        Q1010=
201904281500 METAR LRSB 281500Z 31018KT 9999 FEW038TCU SCT054 14/08 Q1010=
201904281530 METAR LRSB 281530Z 30018KT 9999 FEW038CB 14/07 Q1010=
201904281600 METAR LRSB 281600Z 32016KT 9999 FEW040CB 14/07 Q1010=
201904281630 METAR LRSB 281630Z 32014KT 9999 FEW040CB 13/06 Q1011=
201904281700 METAR LRSB 281700Z 32013KT 9999 SCT042CB 12/06 Q1011=
201904281730 METAR LRSB 281730Z 31013KT 9999 FEW043CB 11/06 Q1011=
201904281800 METAR LRSB 281800Z 34010KT 9999 FEW045CB 11/06 Q1011=
201904281830 METAR LRSB 281830Z 35008KT 9999 FEW045 10/07 Q1012=
201904281900 METAR LRSB 281900Z 21003KT 190V260 CAVOK 09/06 Q1012=
201904281930 METAR LRSB 281930Z VRB01KT CAVOK 09/06 Q1012=
201904282000 METAR LRSB 282000Z VRB02KT CAVOK 08/06 Q1012=
201904282030 METAR LRSB 282030Z 08004KT CAVOK 08/05 Q1012=
201904282100 METAR LRSB 282100Z VRB01KT 9999 BKN075 07/05 Q1012=
201904282130 METAR LRSB 282130Z 22005KT 9999 BKN076 06/04 Q1012=
201904282200 METAR LRSB 282200Z 25003KT 9999 SCT075 06/04 Q1012=
201904282230 METAR LRSB 282230Z 22002KT 9999 FEW072 06/04 Q1012=
201904282300 METAR LRSB 282300Z 21003KT CAVOK 05/04 Q1012=
201904282330 METAR LRSB 282330Z AUTO 26004KT 9000 NCD 04/03 Q1012=
201904290000 METAR LRSB 290000Z 25006KT CAVOK 05/04 Q1012=
201904290030 METAR LRSB 290030Z 25003KT CAVOK 03/01 Q1012=
201904290100 METAR LRSB 290100Z 00000KT CAVOK 04/03 Q1012=
201904290130 METAR LRSB 290130Z AUTO 00000KT 4600 R27/1000VP2000D BR NCD
                        03/01 Q1012=
201904290200 METAR LRSB 290200Z 00000KT CAVOK 04/03 Q1012=
201904290230 METAR LRSB 290230Z 21002KT CAVOK 02/01 Q1012=
201904290300 METAR LRSB 290300Z VRB02KT CAVOK 02/01 Q1012=
201904290330 METAR LRSB 290330Z 21003KT CAVOK 02/01 Q1012=
201904290400 METAR LRSB 290400Z 23002KT CAVOK 03/02 Q1012=
201904290430 METAR LRSB 290430Z VRB01KT CAVOK 04/03 Q1013=
201904290500 METAR COR LRSB 290500Z VRB01KT CAVOK 06/05 Q1012=
201904290530 METAR LRSB 290530Z VRB02KT CAVOK 09/06 Q1012 NOSIG=
201904290600 METAR LRSB 290600Z VRB02KT CAVOK 10/05 Q1012 NOSIG=
201904290630 METAR LRSB 290630Z 05003KT 010V130 9999 FEW035 11/06 Q1012
                        NOSIG=
201904290700 METAR LRSB 290700Z VRB03KT 9999 FEW036 12/07 Q1012 NOSIG=
201904290730 METAR LRSB 290730Z 01004KT 300V050 9999 SCT036 12/06 Q1012
                        NOSIG=
201904290800 METAR LRSB 290800Z VRB03KT 9999 SCT038 14/06 Q1012 NOSIG=
201904290830 METAR LRSB 290830Z 06004KT 340V110 9999 SCT038 14/06 Q1012
                        NOSIG=
201904290900 METAR LRSB 290900Z 14005KT 090V180 9999 SCT038 14/06 Q1012
                        NOSIG=
201904290930 METAR LRSB 290930Z 04004KT 280V090 9999 SCT036 15/05 Q1011
                        NOSIG=
201904291000 METAR LRSB 291000Z 05005KT 9999 SCT036 16/06 Q1011 NOSIG=
201904291030 METAR LRSB 291030Z VRB03KT 9999 SCT038 16/06 Q1011 NOSIG=
201904291100 METAR LRSB 291100Z VRB02KT 9999 SCT041 17/06 Q1011 NOSIG=
201904291130 METAR LRSB 291130Z 06005KT 360V140 9999 BKN043 17/06 Q1010
                        NOSIG=
201904291200 METAR LRSB 291200Z VRB04KT 9999 BKN046 17/06 Q1010 NOSIG=
201904291230 METAR LRSB 291230Z VRB03KT 9999 SCT047 SCT078 18/06 Q1010
                        NOSIG=
201904291300 METAR LRSB 291300Z 35005KT 300V030 9999 SCT048 SCT083 17/06
                        Q1010 NOSIG=
201904291330 METAR LRSB 291330Z VRB03KT 9999 SCT050 SCT086 18/07 Q1010
                        NOSIG=
201904291400 METAR LRSB 291400Z 36005KT 9999 SCT050 SCT086 17/06 Q1009
                        NOSIG=
201904291430 METAR LRSB 291430Z 02005KT 340V060 9999 SCT048 FEW050TCU
                        17/06 Q1009 NOSIG=
201904291500 METAR LRSB 291500Z 34005KT 250V010 9999 FEW046CB SCT048 17/06
                        Q1009 NOSIG=
201904291530 METAR COR LRSB 291530Z 31004KT 9999 FEW046CB SCT049 17/06
                        Q1009 NOSIG=
201904291600 METAR LRSB 291600Z 30004KT 260V360 9999 FEW046CB SCT049 17/09
                        Q1009 NOSIG=
201904291630 METAR LRSB 291630Z 26003KT 230V320 9999 FEW046CB SCT048 15/09
                        Q1009 TEMPO TSRA=
201904291700 METAR LRSB 291700Z 26005KT 9999 VCTS FEW045CB SCT048 15/10
                        Q1009=
201904291730 METAR LRSB 291730Z 30015KT 9999 -TSRA SCT045CB 13/07 Q1010=
201904291800 METAR LRSB 291800Z 23006KT 9999 SCT044CB SCT050 11/08 Q1010
                        RETS R27/29//95=
201904291830 METAR LRSB 291830Z 26004KT 9999 VCTS FEW045CB SCT053 10/08
                        Q1010 R27/29//95=
201904291900 METAR LRSB 291900Z 27007KT 9999 SCT043 11/08 Q1011 R27/29//95=
201904291930 METAR LRSB 291930Z 27006KT 9999 FEW044 10/08 Q1010 R27/29//95=
201904292000 METAR LRSB 292000Z VRB01KT 9999 FEW054 10/08 Q1010 R27/29//95=
201904292030 METAR LRSB 292030Z VRB02KT 9999 FEW054 10/08 Q1010 R27/29//95=
201904292100 METAR LRSB 292100Z VRB01KT 9999 FEW052 10/08 Q1010 R27/29//95=
201904292130 METAR LRSB 292130Z 22003KT 9999 FEW050 09/07 Q1010 R27/29//95=
201904292200 METAR LRSB 292200Z 26005KT 9999 FEW053 09/08 Q1010 R27/29//95=
201904292230 METAR LRSB 292230Z 27005KT 9999 FEW056 10/08 Q1010 R27/29//95=
201904292300 METAR LRSB 292300Z 25005KT 9999 -RA SCT053 SCT070 10/08 Q1010
                        R27/29//95=
201904292330 METAR LRSB 292330Z 26007KT 9999 -RA BKN053 SCT070 10/08 Q1010
                        R27/CLRD//=
201904300000 METAR LRSB 300000Z 26006KT 7000 -SHRA FEW040CB BKN050 10/08
                        Q1010=
201904300030 METAR LRSB 300030Z 12003KT 9000 -SHRA FEW014 SCT038CB 10/08
                        Q1010 RERA=
201904300100 METAR LRSB 300100Z 12004KT 9999 -SHRA FEW040CB SCT062 10/09
                        Q1009=
201904300130 METAR COR LRSB 300130Z 20003KT 160V220 9999 -SHRA FEW040CB
                        SCT064 10/08 Q1009=
201904300200 METAR COR LRSB 300200Z 10007KT 9999 FEW042CB SCT066 10/09
                        Q1008=
201904300230 METAR COR LRSB 300230Z 11007KT 9999 FEW040CB SCT066 10/08
                        Q1008=
201904300300 METAR LRSB 300300Z 11004KT 9999 FEW042CB SCT080 10/08 Q1008
                        R27/29//95=
201904300330 METAR LRSB 300330Z 08003KT 040V110 9999 SCT082 10/08 Q1008
                        R27/29//95=
201904300400 METAR LRSB 300400Z 21004KT 9999 FEW082 10/08 Q1008 R27/29//95=
201904300430 METAR LRSB 300430Z 22005KT 9999 BKN084 09/08 Q1008 R27/29//95=
201904300500 METAR LRSB 300500Z VRB02KT 9999 FEW005 BKN087 10/09 Q1008
                        R27/19//95=
201904300530 METAR LRSB 300530Z VRB02KT 9999 FEW005 10/09 Q1008 R27/19//95=
201904300600 METAR LRSB 300600Z 30004KT 260V320 9999 FEW003 11/09 Q1008
                        R27/19//95=
201904300630 METAR LRSB 300630Z 29004KT 9999 FEW005 11/09 Q1008 R27/19//95=
201904300700 METAR LRSB 300700Z 29004KT 260V320 9999 FEW006 11/09 Q1008
                        R27/19//95=
201904300730 METAR LRSB 300730Z 27004KT 9999 FEW008 12/09 Q1008 R27/19//95=
201904300800 METAR LRSB 300800Z VRB02KT 9999 FEW008 SCT082 12/09 Q1008
                        R27/19//95=
201904300830 METAR LRSB 300830Z VRB02KT 9999 SCT010 BKN080 13/10 Q1008
                        R27/19//95=
201904300900 METAR LRSB 300900Z 01003KT 320V040 9999 FEW011 SCT014 BKN080
                        13/10 Q1007 R27/19//95=
201904300930 METAR LRSB 300930Z 31003KT 270V010 9999 BKN012 OVC070 14/10
                        Q1007 R27/19//95=
201904301000 METAR LRSB 301000Z 00000KT 9999 FEW014 14/10 Q1006 R27/19//95=
201904301030 METAR LRSB 301030Z 26004KT 210V290 9999 SCT013 SCT036 OVC070
                        13/10 Q1006 R27/19//95=
201904301100 METAR LRSB 301100Z 27005KT 9999 SCT015 FEW036CB OVC043 13/10
                        Q1006 R27/CLRD//=
201904301130 METAR LRSB 301130Z 27009KT 9999 -SHRA FEW015 SCT051CB BKN060
                        12/11 Q1005=
201904301200 METAR LRSB 301200Z 30004KT 240V010 9999 -TSRA FEW012 BKN051CB
                        12/11 Q1006=
201904301230 METAR LRSB 301230Z 35005KT 310V010 3500 TSRA FEW008 BKN046CB
                        12/12 Q1006 R27/25//95=
201904301300 METAR LRSB 301300Z VRB03KT 3000 SHRA FEW007 SCT044CB BKN060
                        11/11 Q1006 R27/29//95=
201904301330 METAR LRSB 301330Z VRB01KT 9999 -SHRA FEW018 SCT040CB BKN056
                        11/11 Q1006 RESHRA R27/29//95=
201904301400 METAR LRSB 301400Z VRB02KT 9999 FEW005 SCT049CB BKN056 11/11
                        Q1006 R27/29//95=
201904301430 METAR LRSB 301430Z 30005KT 9999 FEW008 FEW036CB SCT046 12/12
                        Q1005 R27/29//95=
201904301500 METAR LRSB 301500Z 31008KT 280V340 9999 FEW009 SCT040 11/11
                        Q1005 R27/29//95=
201904301530 METAR LRSB 301530Z 29009KT 270V330 9999 FEW011 BKN041 11/10
                        Q1006 R27/29//95=
201904301600 METAR LRSB 301600Z 32007KT 9999 -SHRA FEW014 SCT035CB 10/09
                        Q1005 R27/29//95=
201904301630 METAR LRSB 301630Z 30007KT 9999 FEW047CB SCT050 10/09 Q1005
                        R27/29//95=
201904301700 METAR LRSB 301700Z 28008KT 240V320 9999 2000S -SHRA SCT036CB
                        SCT053 10/08 Q1005 R27/29//95 TEMPO
                        SHRA=
201904301730 METAR LRSB 301730Z 28004KT 260V350 6000 SHRA FEW020 SCT035CB
                        BKN050 09/08 Q1005 R27/29//95 NOSIG=
201904301800 METAR LRSB 301800Z 35006KT 9999 FEW020 SCT036CB BKN060 09/08
                        Q1005 R27/29//95 TEMPO SHRA=
201904301830 METAR LRSB 301830Z 30009KT 9999 FEW020 SCT036CB BKN066 09/07
                        Q1005 R27/29//95 NOSIG=
201904301900 METAR LRSB 301900Z 26004KT 200V350 9999 FEW038CB SCT053 BKN070
                        08/06 Q1005 R27/29//95 NOSIG=
201904301930 METAR LRSB 301930Z VRB02KT 9999 SCT053 BKN073 08/06 Q1005
                        R27/29//95 NOSIG=
201904302000 METAR LRSB 302000Z 28005KT 9999 FEW047 SCT056 BKN073 08/06
                        Q1005 R27/29//95 NOSIG=
201904302030 METAR LRSB 302030Z 30003KT 9999 SCT046 SCT058 BKN073 08/06
                        Q1005 R27/29//95 NOSIG=
201904302100 METAR LRSB 302100Z 16003KT 9999 SCT043 BKN056 08/07 Q1005
                        R27/29//95 NOSIG=
201904302130 METAR LRSB 302130Z VRB02KT 9999 BKN043 SCT053 07/07 Q1005
                        R27/29//95 NOSIG=
201904302200 METAR LRSB 302200Z 18002KT 9999 -RA OVC043 08/07 Q1005 R27/29//95
                        NOSIG=
201904302230 METAR LRSB 302230Z 17002KT 9999 OVC042 07/07 Q1004 R27/29//95
                        NOSIG=
201904302300 METAR LRSB 302300Z 11003KT 090V160 9999 OVC036 07/07 Q1004
                        R27/29//95 NOSIG=
201904302330 METAR LRSB 302330Z 09004KT 9999 -RA OVC040 07/07 Q1003 R27/29//95
                        NOSIG=
