201907010000 METAR LRSB 010000Z 00000KT CAVOK 15/13 Q1022=
201907010030 METAR LRSB 010030Z 00000KT CAVOK 14/13 Q1022=
201907010100 METAR LRSB 010100Z 00000KT CAVOK 14/13 Q1022=
201907010130 METAR LRSB 010130Z 00000KT CAVOK 13/12 Q1022=
201907010200 METAR LRSB 010200Z VRB01KT CAVOK 13/12 Q1022=
201907010230 METAR LRSB 010230Z 27002KT CAVOK 13/12 Q1022=
201907010300 METAR LRSB 010300Z 00000KT CAVOK 13/12 Q1022=
201907010330 METAR LRSB 010330Z 02003KT CAVOK 15/13 Q1022=
201907010400 METAR LRSB 010400Z 00000KT CAVOK 16/13 Q1022=
201907010430 METAR LRSB 010430Z 00000KT CAVOK 17/14 Q1022=
201907010500 METAR LRSB 010500Z VRB01KT CAVOK 19/14 Q1022=
201907010530 METAR LRSB 010530Z VRB02KT CAVOK 21/15 Q1022=
201907010600 METAR LRSB 010600Z VRB02KT CAVOK 22/15 Q1022=
201907010630 METAR LRSB 010630Z VRB02KT CAVOK 23/15 Q1022=
201907010700 METAR LRSB 010700Z AUTO 13003KT 070V180 9999 NCD 25/15 Q1022=
201907010730 METAR LRSB 010730Z 07003KT 020V110 CAVOK 25/15 Q1021=
201907010800 METAR LRSB 010800Z 10003KT 020V160 CAVOK 26/15 Q1021=
201907010830 METAR LRSB 010830Z 14004KT 090V180 CAVOK 27/17 Q1021=
201907010900 METAR LRSB 010900Z VRB03KT CAVOK 27/15 Q1021=
201907010930 METAR LRSB 010930Z AUTO VRB03KT 9999 NCD 28/15 Q1021=
201907011000 METAR LRSB 011000Z VRB03KT CAVOK 28/14 Q1021=
201907011030 METAR LRSB 011030Z 17003KT 120V220 CAVOK 29/15 Q1020=
201907011100 METAR LRSB 011100Z VRB02KT CAVOK 29/14 Q1020=
201907011130 METAR LRSB 011130Z VRB02KT CAVOK 30/15 Q1020=
201907011200 METAR LRSB 011200Z VRB03KT CAVOK 31/16 Q1020=
201907011230 METAR LRSB 011230Z 27003KT 220V030 CAVOK 31/15 Q1019=
201907011300 METAR LRSB 011300Z VRB03KT CAVOK 31/15 Q1019=
201907011330 METAR LRSB 011330Z 19003KT 130V270 CAVOK 31/17 Q1019=
201907011400 METAR LRSB 011400Z 20003KT 120V250 CAVOK 32/16 Q1019=
201907011430 METAR LRSB 011430Z VRB02KT CAVOK 32/17 Q1019=
201907011500 METAR LRSB 011500Z 24003KT 180V290 CAVOK 32/17 Q1018=
201907011530 METAR LRSB 011530Z VRB02KT CAVOK 31/17 Q1018=
201907011600 METAR LRSB 011600Z 21003KT CAVOK 31/17 Q1018=
201907011630 METAR LRSB 011630Z 23003KT CAVOK 30/19 Q1018=
201907011700 METAR LRSB 011700Z 19002KT CAVOK 30/19 Q1018=
201907011730 METAR LRSB 011730Z 16003KT CAVOK 28/19 Q1018=
201907011800 METAR LRSB 011800Z 26005KT CAVOK 24/20 Q1018=
201907011830 METAR LRSB 011830Z 26005KT CAVOK 23/19 Q1018=
201907011900 METAR LRSB 011900Z 24004KT CAVOK 23/18 Q1018=
201907011930 METAR LRSB 011930Z 24003KT 130V270 CAVOK 21/18 Q1018=
201907012000 METAR LRSB 012000Z 23003KT CAVOK 20/18 Q1018=
201907012030 METAR LRSB 012030Z 26003KT CAVOK 20/17 Q1018=
201907012100 METAR LRSB 012100Z 00000KT CAVOK 18/16 Q1018=
201907012130 METAR LRSB 012130Z 00000KT CAVOK 18/16 Q1018=
201907012200 METAR LRSB 012200Z 00000KT CAVOK 18/16 Q1018=
201907012230 METAR LRSB 012230Z 00000KT CAVOK 18/14 Q1018=
201907012300 METAR LRSB 012300Z 00000KT CAVOK 17/14 Q1018=
201907012330 METAR LRSB 012330Z 00000KT CAVOK 17/14 Q1018=
201907020000 METAR LRSB 020000Z 00000KT CAVOK 16/14 Q1017=
201907020030 METAR LRSB 020030Z VRB01KT CAVOK 15/14 Q1017=
201907020100 METAR LRSB 020100Z 11002KT CAVOK 16/14 Q1017=
201907020130 METAR LRSB 020130Z VRB02KT CAVOK 14/13 Q1017=
201907020200 METAR LRSB 020200Z 09004KT CAVOK 15/13 Q1017=
201907020230 METAR LRSB 020230Z 09004KT CAVOK 16/13 Q1016=
201907020300 METAR LRSB 020300Z 00000KT CAVOK 14/12 Q1016=
201907020330 METAR LRSB 020330Z 09002KT CAVOK 16/13 Q1017=
201907020400 METAR LRSB 020400Z 20003KT 160V240 CAVOK 15/14 Q1017=
201907020430 METAR LRSB 020430Z VRB02KT CAVOK 17/15 Q1016=
201907020500 METAR LRSB 020500Z 09005KT CAVOK 20/15 Q1016=
201907020530 METAR LRSB 020530Z 10004KT CAVOK 21/15 Q1016=
201907020600 METAR LRSB 020600Z 09003KT 060V140 CAVOK 23/15 Q1016=
201907020630 METAR LRSB 020630Z VRB02KT CAVOK 25/15 Q1016=
201907020700 METAR LRSB 020700Z 12003KT 080V140 CAVOK 26/16 Q1016=
201907020730 METAR LRSB 020730Z VRB03KT CAVOK 27/17 Q1015=
201907020800 METAR LRSB 020800Z 12003KT 020V150 CAVOK 29/15 Q1015=
201907020830 METAR LRSB 020830Z VRB02KT CAVOK 30/14 Q1015=
201907020900 METAR LRSB 020900Z 01005KT 340V040 CAVOK 31/17 Q1015=
201907020930 METAR LRSB 020930Z VRB02KT CAVOK 31/17 Q1015=
201907021000 METAR LRSB 021000Z 30006KT 250V330 CAVOK 32/16 Q1015=
201907021030 METAR LRSB 021030Z VRB04KT CAVOK 32/15 Q1015=
201907021100 METAR LRSB 021100Z 24005KT 200V270 CAVOK 32/14 Q1015=
201907021130 METAR LRSB 021130Z 34006KT 300V030 CAVOK 33/11 Q1015=
201907021200 METAR LRSB 021200Z 28006KT 220V320 CAVOK 33/13 Q1015=
201907021230 METAR LRSB 021230Z 29007KT 260V330 9999 FEW050 33/13 Q1014=
201907021300 METAR LRSB 021300Z 27007KT 9999 FEW050 33/13 Q1014=
201907021330 METAR COR LRSB 021330Z 23005KT 180V280 9999 FEW050TCU 33/13
                        Q1014=
201907021400 METAR LRSB 021400Z 26008KT 9999 FEW048CB 33/10 Q1014=
201907021430 METAR LRSB 021430Z 30006KT 9999 FEW048CB 33/12 Q1014=
201907021500 METAR COR LRSB 021500Z 28007KT 9999 FEW047CB 33/13 Q1014=
201907021530 METAR LRSB 021530Z 28008KT 9999 FEW047CB 32/14 Q1014=
201907021600 METAR LRSB 021600Z 29006KT 9999 FEW047CB 32/15 Q1014=
201907021630 METAR LRSB 021630Z 30006KT 9999 FEW050CB 31/15 Q1014=
201907021700 METAR LRSB 021700Z 29006KT CAVOK 30/17 Q1014=
201907021730 METAR LRSB 021730Z 26009KT CAVOK 27/18 Q1014=
201907021800 METAR LRSB 021800Z 26008KT CAVOK 25/17 Q1014=
201907021830 METAR LRSB 021830Z 25008KT CAVOK 23/16 Q1014=
201907021900 METAR LRSB 021900Z VRB02KT CAVOK 22/17 Q1014=
201907021930 METAR LRSB 021930Z 25006KT CAVOK 21/15 Q1015=
201907022000 METAR LRSB 022000Z VRB02KT CAVOK 21/16 Q1015=
201907022030 METAR LRSB 022030Z 23003KT 200V260 CAVOK 20/16 Q1015=
201907022100 METAR LRSB 022100Z VRB02KT CAVOK 19/15 Q1015=
201907022130 METAR LRSB 022130Z 00000KT CAVOK 20/14 Q1015=
201907022200 METAR LRSB 022200Z 20003KT CAVOK 18/15 Q1015=
201907022230 METAR LRSB 022230Z 15003KT 130V190 CAVOK 19/15 Q1015=
201907022300 METAR LRSB 022300Z 27003KT CAVOK 20/14 Q1015=
201907022330 METAR LRSB 022330Z 00000KT CAVOK 20/14 Q1015=
201907030000 METAR LRSB 030000Z 00000KT CAVOK 19/15 Q1015=
201907030030 METAR LRSB 030030Z 07003KT CAVOK 19/15 Q1015=
201907030100 METAR LRSB 030100Z AUTO 08003KT 9999 NCD 20/14 Q1014=
201907030130 METAR LRSB 030130Z AUTO VRB02KT 9999 NCD 20/14 Q1014=
201907030200 METAR LRSB 030200Z 00000KT CAVOK 17/14 Q1014=
201907030230 METAR LRSB 030230Z 22004KT CAVOK 17/15 Q1014=
201907030300 METAR LRSB 030300Z 22004KT CAVOK 18/15 Q1015=
201907030330 METAR LRSB 030330Z VRB01KT CAVOK 17/15 Q1015=
201907030400 METAR LRSB 030400Z 11003KT 080V140 CAVOK 20/16 Q1015=
201907030430 METAR LRSB 030430Z 09003KT 040V110 CAVOK 22/16 Q1015=
201907030500 METAR LRSB 030500Z VRB02KT CAVOK 23/16 Q1015=
201907030530 METAR LRSB 030530Z 10004KT 060V120 CAVOK 24/16 Q1015=
201907030600 METAR LRSB 030600Z 11003KT CAVOK 25/16 Q1015=
201907030630 METAR LRSB 030630Z 31006KT 310V010 9999 TS SCT034 SCT040CB
                        26/17 Q1015=
201907030700 METAR LRSB 030700Z 32006KT 290V350 9999 TS SCT031 BKN039CB
                        22/17 Q1016=
201907030730 METAR LRSB 030730Z 32006KT 280V350 9999 -SHRA VCTS FEW038
                        SCT050CB BKN064 22/17 Q1016 RETS
                        R27/25//95=
201907030800 METAR LRSB 030800Z 33007KT 9999 FEW037CB SCT066 22/17 Q1015
                        R27/25//95=
201907030830 METAR LRSB 030830Z 36004KT 280V070 9999 FEW040CB SCT070 23/17
                        Q1016 R27/15//95=
201907030900 METAR LRSB 030900Z 11009KT 9999 FEW068 23/19 Q1016 R27/CLRD//=
201907030930 METAR LRSB 030930Z 10006KT 070V140 9999 FEW063 24/19 Q1016=
201907031000 METAR LRSB 031000Z 12006KT 090V150 9999 FEW043 24/19 Q1017=
201907031030 METAR LRSB 031030Z 36009KT 9999 FEW046 26/18 Q1017=
201907031100 METAR LRSB 031100Z 02008KT 350V060 9999 FEW045 26/18 Q1017=
201907031130 METAR LRSB 031130Z 36011KT 9999 SCT059 SCT080 25/17 Q1018=
201907031200 METAR LRSB 031200Z 04006KT 350V070 9999 SCT054 BKN081 24/17
                        Q1018=
201907031230 METAR LRSB 031230Z VRB02KT 9999 SCT054 SCT080 25/17 Q1018=
201907031300 METAR LRSB 031300Z 02007KT 9999 SCT050 SCT080 26/17 Q1018=
201907031330 METAR LRSB 031330Z 02005KT 340V070 9999 BKN048 25/15 Q1018=
201907031400 METAR LRSB 031400Z VRB04KT 9999 SCT046 26/14 Q1018=
201907031430 METAR LRSB 031430Z 04007KT 010V070 9999 FEW046 26/14 Q1017=
201907031500 METAR LRSB 031500Z VRB03KT 9999 FEW043 26/14 Q1017=
201907031530 METAR LRSB 031530Z 35004KT 290V030 9999 FEW040 26/14 Q1017=
201907031600 METAR LRSB 031600Z 34004KT 300V020 9999 FEW040 26/14 Q1017=
201907031630 METAR LRSB 031630Z 36007KT CAVOK 25/15 Q1017=
201907031700 METAR LRSB 031700Z 01006KT 9999 FEW040 25/16 Q1017=
201907031730 METAR LRSB 031730Z 03005KT 9999 SCT044 24/16 Q1017=
201907031800 METAR LRSB 031800Z 05004KT 9999 SCT045 24/16 Q1017=
201907031830 METAR LRSB 031830Z 01006KT 9999 BKN042 24/16 Q1018=
201907031900 METAR LRSB 031900Z 36006KT 9999 BKN043 23/12 Q1018=
201907031930 METAR LRSB 031930Z 33005KT 9999 SCT043 SCT056 22/10 Q1019=
201907032000 METAR LRSB 032000Z 32003KT 290V360 9999 SCT044 SCT056 22/10
                        Q1019=
201907032030 METAR LRSB 032030Z 24006KT 9999 FEW044 SCT056 20/13 Q1019=
201907032100 METAR LRSB 032100Z 26004KT 240V300 9999 BKN056 19/12 Q1019=
201907032130 METAR LRSB 032130Z 27007KT 9999 BKN059 19/12 Q1020=
201907032200 METAR LRSB 032200Z 26004KT 9999 BKN062 18/12 Q1020=
201907032230 METAR LRSB 032230Z 26003KT 9999 SCT063 17/12 Q1020=
201907032300 METAR LRSB 032300Z 18004KT 160V260 9999 FEW064 16/12 Q1020=
201907032330 METAR LRSB 032330Z 27005KT 9999 FEW066 15/11 Q1019=
201907040000 METAR LRSB 040000Z VRB02KT 9999 SCT070 15/12 Q1019=
201907040030 METAR LRSB 040030Z VRB02KT 9999 SCT070 16/11 Q1019=
201907040100 METAR LRSB 040100Z VRB01KT 9999 SCT068 14/12 Q1019=
201907040130 METAR LRSB 040130Z VRB02KT 9999 BKN070 15/12 Q1019=
201907040200 METAR LRSB 040200Z 28001KT 9999 SCT072 15/12 Q1019=
201907040230 METAR LRSB 040230Z 00000KT 9999 SCT074 14/11 Q1019=
201907040300 METAR LRSB 040300Z 00000KT 9999 FEW074 13/11 Q1019=
201907040330 METAR LRSB 040330Z VRB02KT 9999 FEW080 15/11 Q1019=
201907040400 METAR LRSB 040400Z VRB01KT CAVOK 15/12 Q1020=
201907040430 METAR LRSB 040430Z 00000KT CAVOK 17/12 Q1020=
201907040500 METAR LRSB 040500Z 00000KT CAVOK 20/12 Q1020=
201907040530 METAR LRSB 040530Z VRB02KT CAVOK 20/11 Q1020=
201907040600 METAR LRSB 040600Z 00000KT CAVOK 22/09 Q1020=
201907040630 METAR LRSB 040630Z 15003KT 100V190 CAVOK 22/10 Q1020=
201907040700 METAR LRSB 040700Z 10003KT 030V190 CAVOK 23/12 Q1020=
201907040730 METAR LRSB 040730Z 11004KT 050V160 CAVOK 24/11 Q1020=
201907040800 METAR LRSB 040800Z VRB03KT CAVOK 25/09 Q1020=
201907040830 METAR LRSB 040830Z VRB02KT CAVOK 26/09 Q1020=
201907040900 METAR LRSB 040900Z 25005KT 220V010 CAVOK 26/08 Q1020=
201907040930 METAR LRSB 040930Z 30007KT 270V340 9999 FEW052 27/09 Q1020=
201907041000 METAR LRSB 041000Z 30008KT 260V330 9999 FEW052 27/07 Q1020=
201907041030 METAR LRSB 041030Z 34006KT 300V010 9999 FEW050 27/08 Q1019=
201907041100 METAR LRSB 041100Z 33005KT 270V360 9999 FEW048 27/08 Q1019=
201907041130 METAR LRSB 041130Z 30010KT 9999 FEW046CB 28/10 Q1019=
201907041200 METAR COR LRSB 041200Z 30011KT 9999 FEW045CB 26/08 Q1019=
201907041230 METAR LRSB 041230Z 32009KT 9999 FEW055 28/10 Q1019=
201907041300 METAR LRSB 041300Z 32009KT 290V350 9999 FEW056 27/12 Q1019=
201907041330 METAR LRSB 041330Z 33009KT 9999 FEW056 27/13 Q1019=
201907041400 METAR LRSB 041400Z 31009KT 9999 FEW058 27/14 Q1018=
201907041430 METAR LRSB 041430Z 31012KT 9999 FEW055 27/12 Q1018=
201907041500 METAR LRSB 041500Z 31012KT 9999 FEW055 26/13 Q1018=
201907041530 METAR LRSB 041530Z 31010KT 9999 FEW052TCU 26/14 Q1018=
201907041600 METAR LRSB 041600Z 31009KT 9999 FEW050TCU 26/14 Q1018=
201907041630 METAR LRSB 041630Z 31010KT CAVOK 25/13 Q1018=
201907041700 METAR LRSB 041700Z 29010KT CAVOK 24/13 Q1018=
201907041730 METAR LRSB 041730Z 29011KT CAVOK 23/13 Q1018=
201907041800 METAR LRSB 041800Z 30011KT CAVOK 23/12 Q1018=
201907041830 METAR LRSB 041830Z 30009KT CAVOK 22/11 Q1019=
201907041900 METAR LRSB 041900Z 35005KT CAVOK 21/12 Q1019=
201907041930 METAR LRSB 041930Z 30005KT CAVOK 19/13 Q1019=
201907042000 METAR LRSB 042000Z 34005KT 320V020 CAVOK 19/13 Q1020=
201907042030 METAR LRSB 042030Z 33003KT CAVOK 19/13 Q1020=
201907042100 METAR LRSB 042100Z 35005KT 9999 FEW038 20/13 Q1020=
201907042130 METAR LRSB 042130Z 23004KT 9999 FEW040 18/13 Q1020=
201907042200 METAR LRSB 042200Z 21003KT 170V260 9999 FEW037 18/13 Q1020=
201907042230 METAR LRSB 042230Z 00000KT 9999 FEW055 18/13 Q1020=
201907042300 METAR LRSB 042300Z AUTO 23004KT 170V260 9999 OVC190/// 17/14
                        Q1020=
201907042330 METAR LRSB 042330Z VRB01KT CAVOK 17/14 Q1019=
201907050000 METAR LRSB 050000Z 28003KT CAVOK 17/14 Q1019=
201907050030 METAR LRSB 050030Z VRB01KT CAVOK 16/14 Q1019=
201907050100 METAR LRSB 050100Z AUTO VRB02KT 9999 BKN190/// 17/13 Q1019=
201907050130 METAR COR LRSB 050130Z 00000KT CAVOK 15/13 Q1019=
201907050200 METAR LRSB 050200Z 00000KT CAVOK 14/13 Q1019=
201907050230 METAR LRSB 050230Z 00000KT CAVOK 14/13 Q1018=
201907050300 METAR LRSB 050300Z 00000KT CAVOK 14/12 Q1018=
201907050330 METAR LRSB 050330Z 22003KT CAVOK 14/12 Q1018=
201907050400 METAR LRSB 050400Z VRB02KT CAVOK 16/13 Q1018=
201907050430 METAR LRSB 050430Z VRB01KT CAVOK 17/13 Q1018=
201907050500 METAR LRSB 050500Z VRB02KT CAVOK 19/14 Q1018=
201907050530 METAR LRSB 050530Z VRB01KT CAVOK 21/14 Q1018=
201907050600 METAR LRSB 050600Z VRB02KT CAVOK 21/14 Q1018=
201907050630 METAR LRSB 050630Z 01004KT 330V060 CAVOK 22/14 Q1018=
201907050700 METAR LRSB 050700Z 36004KT 310V050 9999 FEW055 22/13 Q1018=
201907050730 METAR LRSB 050730Z 02003KT 340V090 9999 FEW053 23/13 Q1018=
201907050800 METAR LRSB 050800Z 27003KT 200V340 9999 FEW053 24/14 Q1017=
201907050830 METAR LRSB 050830Z VRB03KT 9999 SCT050 24/13 Q1018=
201907050900 METAR LRSB 050900Z 02006KT 340V050 9999 SCT040 24/14 Q1017=
201907050930 METAR LRSB 050930Z 29005KT 260V350 9999 SCT040 25/13 Q1017=
201907051000 METAR LRSB 051000Z 34006KT 300V050 9999 SCT045 25/14 Q1017=
201907051030 METAR LRSB 051030Z 32006KT 290V360 9999 SCT045 25/13 Q1017=
201907051100 METAR LRSB 051100Z 29007KT 250V320 9999 SCT047 26/13 Q1016=
201907051130 METAR LRSB 051130Z 30009KT 260V330 9999 SCT050 27/12 Q1016=
201907051200 METAR LRSB 051200Z 31009KT 280V340 9999 SCT048 26/11 Q1016=
201907051230 METAR LRSB 051230Z 32006KT 290V360 9999 SCT047 27/12 Q1015=
201907051300 METAR LRSB 051300Z 30006KT 260V340 9999 SCT045 27/11 Q1015=
201907051330 METAR LRSB 051330Z 29012KT 9999 SCT047 27/12 Q1015=
201907051400 METAR LRSB 051400Z 33009KT 290V360 9999 SCT045 27/11 Q1014=
201907051430 METAR LRSB 051430Z 30011KT 9999 SCT047 26/12 Q1014=
201907051500 METAR LRSB 051500Z 32009KT 9999 SCT047 26/12 Q1014=
201907051530 METAR LRSB 051530Z 30010KT 280V340 9999 SCT047 26/11 Q1014=
201907051600 METAR LRSB 051600Z 31010KT 9999 FEW050 26/11 Q1014=
201907051630 METAR COR LRSB 051630Z 30011KT 9999 FEW050 25/12 Q1014=
201907051700 METAR LRSB 051700Z 30009KT CAVOK 25/12 Q1014=
201907051730 METAR COR LRSB 051730Z 30009KT CAVOK 24/13 Q1013=
201907051800 METAR COR LRSB 051800Z 30011KT CAVOK 22/12 Q1014=
201907051830 METAR LRSB 051830Z 31013KT CAVOK 22/11 Q1014=
201907051900 METAR LRSB 051900Z 30014KT CAVOK 22/11 Q1014=
201907051930 METAR LRSB 051930Z 28010KT CAVOK 21/11 Q1015=
201907052000 METAR LRSB 052000Z 27009KT CAVOK 18/12 Q1015=
201907052030 METAR LRSB 052030Z 26009KT CAVOK 18/12 Q1014=
201907052100 METAR LRSB 052100Z 27009KT CAVOK 18/11 Q1015=
201907052130 METAR LRSB 052130Z 26009KT CAVOK 18/11 Q1014=
201907052200 METAR LRSB 052200Z 26008KT CAVOK 17/11 Q1014=
201907052230 METAR LRSB 052230Z VRB01KT CAVOK 17/11 Q1014=
201907052300 METAR LRSB 052300Z 11003KT CAVOK 17/11 Q1014=
201907052330 METAR LRSB 052330Z 13002KT CAVOK 15/11 Q1014=
201907060000 METAR LRSB 060000Z VRB02KT CAVOK 15/11 Q1014=
201907060030 METAR LRSB 060030Z VRB01KT 9999 FEW058 15/11 Q1014=
201907060100 METAR LRSB 060100Z 25003KT 9999 FEW080 13/11 Q1014=
201907060130 METAR LRSB 060130Z VRB02KT CAVOK 14/11 Q1014=
201907060200 METAR COR LRSB 060200Z VRB01KT CAVOK 13/11 Q1014=
201907060230 METAR LRSB 060230Z 21003KT CAVOK 12/10 Q1014=
201907060300 METAR LRSB 060300Z VRB02KT CAVOK 14/11 Q1014=
201907060330 METAR LRSB 060330Z VRB01KT 9999 SCT074 15/11 Q1014=
201907060400 METAR LRSB 060400Z 10001KT 9999 SCT074 16/12 Q1014=
201907060430 METAR LRSB 060430Z 00000KT 9999 FEW072 18/13 Q1014=
201907060500 METAR LRSB 060500Z 36006KT 9999 FEW077 18/13 Q1015=
201907060530 METAR LRSB 060530Z 33006KT 9999 FEW077 21/14 Q1015=
201907060600 METAR LRSB 060600Z 30011KT CAVOK 22/12 Q1015=
201907060630 METAR LRSB 060630Z 31010KT CAVOK 23/11 Q1015=
201907060700 METAR LRSB 060700Z 36010KT CAVOK 23/10 Q1015=
201907060730 METAR LRSB 060730Z 31008KT CAVOK 23/11 Q1015=
201907060800 METAR LRSB 060800Z 33006KT 280V010 CAVOK 24/11 Q1015=
201907060830 METAR LRSB 060830Z VRB04KT CAVOK 24/10 Q1015=
201907060900 METAR LRSB 060900Z 26007KT 230V310 9999 FEW050 24/11 Q1015=
201907060930 METAR LRSB 060930Z VRB06KT 9999 FEW050 25/09 Q1015=
201907061000 METAR LRSB 061000Z 02005KT 340V060 9999 FEW050 26/09 Q1015=
201907061030 METAR LRSB 061030Z 35007KT 9999 FEW050 26/09 Q1015=
201907061100 METAR LRSB 061100Z VRB05KT CAVOK 26/10 Q1015=
201907061130 METAR LRSB 061130Z VRB05KT CAVOK 27/10 Q1015=
201907061200 METAR LRSB 061200Z VRB04KT CAVOK 27/10 Q1014=
201907061230 METAR LRSB 061230Z 03007KT 350V070 CAVOK 27/09 Q1014=
201907061300 METAR LRSB 061300Z 33005KT 280V030 CAVOK 27/09 Q1014=
201907061330 METAR LRSB 061330Z 32006KT 260V020 CAVOK 27/10 Q1014=
201907061400 METAR LRSB 061400Z 28008KT CAVOK 28/09 Q1014=
201907061430 METAR LRSB 061430Z 30008KT 270V330 9999 FEW050 27/09 Q1013=
201907061500 METAR LRSB 061500Z 29008KT 9999 FEW050 27/10 Q1013=
201907061530 METAR LRSB 061530Z 33007KT 9999 FEW050 27/10 Q1013=
201907061600 METAR LRSB 061600Z AUTO 31009KT 9999 NCD 27/09 Q1013=
201907061630 METAR LRSB 061630Z 31006KT CAVOK 26/10 Q1013=
201907061700 METAR LRSB 061700Z 30006KT 280V340 CAVOK 26/11 Q1013=
201907061730 METAR LRSB 061730Z 30006KT CAVOK 25/11 Q1013=
201907061800 METAR LRSB 061800Z 31007KT CAVOK 24/10 Q1013=
201907061830 METAR LRSB 061830Z 27007KT CAVOK 21/12 Q1013=
201907061900 METAR LRSB 061900Z 24008KT CAVOK 18/13 Q1014=
201907061930 METAR LRSB 061930Z 25008KT CAVOK 18/12 Q1014=
201907062000 METAR LRSB 062000Z 25006KT CAVOK 17/11 Q1014=
201907062030 METAR LRSB 062030Z 17003KT 100V250 CAVOK 17/12 Q1014=
201907062100 METAR LRSB 062100Z 15001KT CAVOK 17/11 Q1013=
201907062130 METAR LRSB 062130Z 11002KT CAVOK 16/12 Q1013=
201907062200 METAR LRSB 062200Z VRB02KT CAVOK 17/12 Q1013=
201907062230 METAR LRSB 062230Z VRB02KT CAVOK 16/12 Q1013=
201907062300 METAR LRSB 062300Z AUTO 00000KT 9999 NCD 16/11 Q1013=
201907062330 METAR LRSB 062330Z AUTO VRB01KT 9999 NCD 15/10 Q1013=
201907070000 METAR LRSB 070000Z 04002KT CAVOK 15/10 Q1013=
201907070030 METAR LRSB 070030Z VRB01KT CAVOK 13/10 Q1013=
201907070100 METAR COR LRSB 070100Z 10002KT CAVOK 14/10 Q1013=
201907070130 METAR LRSB 070130Z 00000KT CAVOK 12/10 Q1013=
201907070200 METAR COR LRSB 070200Z 00000KT CAVOK 13/10 Q1013=
201907070230 METAR LRSB 070230Z 10001KT CAVOK 13/10 Q1012=
201907070300 METAR LRSB 070300Z 08003KT 040V120 CAVOK 13/10 Q1012=
201907070330 METAR LRSB 070330Z 00000KT CAVOK 15/10 Q1012=
201907070400 METAR LRSB 070400Z VRB02KT CAVOK 16/11 Q1011=
201907070430 METAR LRSB 070430Z VRB02KT CAVOK 16/11 Q1011=
201907070500 METAR LRSB 070500Z 10003KT 060V120 CAVOK 18/12 Q1011=
201907070530 METAR LRSB 070530Z 11004KT CAVOK 20/12 Q1011=
201907070600 METAR LRSB 070600Z 11004KT 070V140 CAVOK 21/13 Q1011=
201907070630 METAR LRSB 070630Z 12005KT CAVOK 23/13 Q1010=
201907070700 METAR LRSB 070700Z 11006KT CAVOK 24/15 Q1010=
201907070730 METAR LRSB 070730Z 10005KT 060V140 CAVOK 26/14 Q1009=
201907070800 METAR LRSB 070800Z 12008KT CAVOK 28/11 Q1009=
201907070830 METAR LRSB 070830Z 11007KT 9999 FEW040 29/12 Q1009=
201907070900 METAR LRSB 070900Z 13007KT 100V170 9999 FEW040CB SCT046 30/12
                        Q1009=
201907070930 METAR LRSB 070930Z 31023KT 8000 -SHRA VCTS SQ BKN035CB 24/14
                        Q1011=
201907071000 METAR LRSB 071000Z 27013KT 8000 -TSRA SCT046CB BKN050 19/17
                        Q1012 RESHRA R27/29//95=
201907071030 METAR LRSB 071030Z VRB04KT 9999 -SHRA FEW037CB SCT040 BKN070
                        20/16 Q1011 R27/29//95=
201907071100 METAR LRSB 071100Z 08005KT 9999 FEW039CB SCT043 20/17 Q1010
                        R27/29//95=
201907071130 METAR LRSB 071130Z 14010KT 9999 SCT040 BKN079 20/17 Q1009
                        R27/29//95=
201907071200 METAR LRSB 071200Z 14007KT 100V180 9999 SCT043 SCT081 21/18
                        Q1009 R27/12//95=
201907071230 METAR LRSB 071230Z 11007KT 090V150 9999 FEW043 23/17 Q1009
                        R27/12//95=
201907071300 METAR LRSB 071300Z 11004KT 080V140 9999 FEW040 25/18 Q1009
                        R27/12//95=
201907071330 METAR LRSB 071330Z 31005KT 250V020 9999 SCT040 27/18 Q1009
                        R27/CLRD//=
201907071400 METAR LRSB 071400Z 31008KT 290V350 9999 SCT050 26/17 Q1008=
201907071430 METAR LRSB 071430Z 31007KT 9999 BKN054 26/18 Q1008=
201907071500 METAR LRSB 071500Z 28009KT 9999 SCT054 26/18 Q1008=
201907071530 METAR LRSB 071530Z 27009KT 9999 FEW053 26/18 Q1008=
201907071600 METAR LRSB 071600Z 29006KT 260V330 9999 FEW053 26/18 Q1008=
201907071630 METAR LRSB 071630Z 22003KT 180V250 9999 FEW052 26/18 Q1007=
201907071700 METAR LRSB 071700Z VRB02KT 9999 FEW052 26/18 Q1007=
201907071730 METAR LRSB 071730Z 17003KT 9999 FEW050 24/18 Q1007=
201907071800 METAR LRSB 071800Z 27003KT 230V310 9999 FEW050 23/18 Q1007=
201907071830 METAR LRSB 071830Z 23003KT CAVOK 22/19 Q1007=
201907071900 METAR LRSB 071900Z 27004KT CAVOK 21/18 Q1007=
201907071930 METAR LRSB 071930Z VRB02KT CAVOK 21/18 Q1007=
201907072000 METAR LRSB 072000Z 25006KT 9999 FEW046 21/17 Q1007=
201907072030 METAR LRSB 072030Z 21004KT 9999 FEW046 19/17 Q1008=
201907072100 METAR LRSB 072100Z 25008KT 9999 TS FEW046CB SCT080 20/17
                        Q1008=
201907072130 METAR LRSB 072130Z 26008KT 9999 -TSRA SCT047CB SCT066 20/17
                        Q1008=
201907072200 METAR LRSB 072200Z 25011KT 8000 -TSRA SCT046CB SCT064 20/17
                        Q1009 R27/29//95=
201907072230 METAR COR LRSB 072230Z 25008KT 7000 -TSRA SCT048CB SCT065
                        19/17 Q1008 R27/29//95=
201907072300 METAR LRSB 072300Z 23005KT 170V260 9999 -SHRA FEW048CB SCT084
                        18/16 Q1008 RETS R27/29//95=
201907072330 METAR LRSB 072330Z VRB02KT 9999 FEW048CB SCT086 18/16 Q1009
                        R27/29//95=
201907080000 METAR LRSB 080000Z 20003KT 9999 FEW066 SCT083 18/16 Q1009
                        R27/29//95=
201907080030 METAR COR LRSB 080030Z 31008KT 9999 FEW063 SCT080 18/16 Q1009
                        R27/29//95=
201907080100 METAR LRSB 080100Z 30008KT 9999 FEW063 SCT080 18/16 Q1009
                        R27/29//95=
201907080130 METAR COR LRSB 080130Z 27011KT 9999 SCT060 18/15 Q1009 R27/29//95=
201907080200 METAR COR LRSB 080200Z 27006KT 9999 SCT060 18/14 Q1008 R27/29//95=
201907080230 METAR COR LRSB 080230Z 27005KT 9999 FEW062 18/14 Q1008 R27/29//95=
201907080300 METAR LRSB 080300Z VRB02KT 9999 SCT063 18/15 Q1009 R27/CLRD//=
201907080330 METAR LRSB 080330Z 28003KT 9999 FEW062 SCT076 18/14 Q1009=
201907080400 METAR LRSB 080400Z 35006KT 320V020 9999 FEW063 SCT073 19/14
                        Q1009=
201907080430 METAR LRSB 080430Z 31013KT 9999 FEW070 SCT080 18/14 Q1010=
201907080500 METAR LRSB 080500Z 30018KT 9999 FEW070 BKN083 18/15 Q1010=
201907080530 METAR COR LRSB 080530Z 28012KT 9999 FEW054 SCT086 19/15 Q1010
                        NOSIG=
201907080600 METAR LRSB 080600Z 28009KT 9999 FEW052 SCT086 20/15 Q1011
                        NOSIG=
201907080630 METAR COR LRSB 080630Z 32011KT 9999 FEW033 SCT081 21/15 Q1011
                        NOSIG=
201907080700 METAR LRSB 080700Z 30017KT 9999 FEW035 SCT074 21/15 Q1011
                        NOSIG=
201907080730 METAR COR LRSB 080730Z 30015KT 9999 FEW036 21/15 Q1011 NOSIG=
201907080800 METAR LRSB 080800Z 29015KT 9999 SCT038 22/14 Q1012 NOSIG=
201907080830 METAR LRSB 080830Z 30013KT 9999 SCT040 23/15 Q1012 NOSIG=
201907080900 METAR LRSB 080900Z 30014KT 9999 SCT040 23/14 Q1012 NOSIG=
201907080930 METAR LRSB 080930Z 31015KT 9999 SCT040 24/14 Q1012 NOSIG=
201907081000 METAR LRSB 081000Z 30016KT 9999 SCT043 FEW045TCU 25/13 Q1012
                        NOSIG=
201907081030 METAR LRSB 081030Z 29017KT 9999 SCT043 FEW045CB 25/12 Q1012
                        NOSIG=
201907081100 METAR LRSB 081100Z 28018KT 9999 SCT043 FEW045CB 24/13 Q1012
                        NOSIG=
201907081130 METAR COR LRSB 081130Z 30017KT 9999 VCTS SCT043 FEW045CB
                        24/13 Q1013 NOSIG=
201907081200 METAR LRSB 081200Z 30014KT 9999 SCT046 SCT088 24/13 Q1013
                        NOSIG=
201907081230 METAR LRSB 081230Z 31015KT 9999 SCT045 25/12 Q1013 WS RWY27
                        NOSIG=
201907081300 METAR LRSB 081300Z 30016KT 9999 SCT045 25/12 Q1013 WS RWY27
                        NOSIG=
201907081330 METAR LRSB 081330Z 29017KT 9999 SCT045 25/11 Q1013 NOSIG=
201907081400 METAR LRSB 081400Z 28020KT 9999 FEW045 FEW047TCU 25/12 Q1013
                        NOSIG=
201907081430 METAR LRSB 081430Z 28018KT 9999 FEW046 FEW048TCU 24/12 Q1013
                        NOSIG=
201907081500 METAR LRSB 081500Z 29019KT 9999 SCT047 24/11 Q1013 NOSIG=
201907081530 METAR LRSB 081530Z 29020KT 9999 SCT048 23/10 Q1013 NOSIG=
201907081600 METAR LRSB 081600Z 28014KT 9999 SCT048 23/11 Q1013 NOSIG=
201907081630 METAR LRSB 081630Z 29013KT 9999 FEW043 23/11 Q1013 NOSIG=
201907081700 METAR LRSB 081700Z 29014KT 9999 FEW040 22/11 Q1013=
201907081730 METAR LRSB 081730Z 29012KT 9999 FEW040 21/11 Q1014=
201907081800 METAR LRSB 081800Z 29010KT CAVOK 20/12 Q1014=
201907081830 METAR LRSB 081830Z 28012KT CAVOK 19/11 Q1014=
201907081900 METAR LRSB 081900Z 29011KT CAVOK 19/11 Q1015=
201907081930 METAR LRSB 081930Z 29009KT CAVOK 18/11 Q1015=
201907082000 METAR LRSB 082000Z 27005KT CAVOK 15/11 Q1015=
201907082030 METAR LRSB 082030Z 25005KT CAVOK 15/12 Q1015=
201907082100 METAR LRSB 082100Z 25005KT CAVOK 16/12 Q1015=
201907082130 METAR LRSB 082130Z AUTO VRB01KT 9999 BKN180/// 15/12 Q1015=
201907082200 METAR LRSB 082200Z VRB02KT CAVOK 15/11 Q1015=
201907082230 METAR LRSB 082230Z AUTO VRB02KT 9999 FEW130/// 14/11 Q1015=
201907082300 METAR COR LRSB 082300Z 00000KT 9999 FEW052 13/11 Q1015=
201907082330 METAR LRSB 082330Z 00000KT CAVOK 14/12 Q1014=
201907090000 METAR LRSB 090000Z 00000KT CAVOK 14/11 Q1014=
201907090030 METAR LRSB 090030Z 00000KT CAVOK 14/12 Q1014=
201907090100 METAR LRSB 090100Z 00000KT CAVOK 14/12 Q1014=
201907090130 METAR LRSB 090130Z 00000KT CAVOK 14/11 Q1015=
201907090200 METAR LRSB 090200Z 00000KT 9999 FEW051 14/12 Q1015=
201907090230 METAR LRSB 090230Z 00000KT 9999 FEW052 14/12 Q1014=
201907090300 METAR LRSB 090300Z 00000KT 9999 SCT050 14/12 Q1015=
201907090330 METAR LRSB 090330Z VRB01KT 9999 SCT050 15/12 Q1015=
201907090400 METAR LRSB 090400Z 24004KT 9999 SCT046 BKN082 16/12 Q1015=
201907090430 METAR LRSB 090430Z 25006KT 9999 -RA SCT040 OVC075 16/12 Q1015=
201907090500 METAR LRSB 090500Z 28010KT 9999 -RA SCT033 OVC075 17/08 Q1016
                        R27/19//95=
201907090530 METAR LRSB 090530Z 26009KT 9999 -RA SCT044 OVC084 15/09 Q1016
                        R27/19//95=
201907090600 METAR LRSB 090600Z 25008KT 9999 -RA SCT040 OVC072 15/10 Q1016
                        R27/19//95=
201907090630 METAR LRSB 090630Z 22006KT 9999 -RA SCT040 BKN081 15/10 Q1016
                        R27/19//95=
201907090700 METAR LRSB 090700Z 23006KT 9999 -RA SCT040 OVC083 16/09 Q1016
                        R27/19//95=
201907090730 METAR LRSB 090730Z 24004KT 120V270 9999 SCT045 BKN079 17/09
                        Q1015 RERA R27/19//95=
201907090800 METAR LRSB 090800Z 25007KT 9999 BKN079 18/09 Q1015 R27/19//95=
201907090830 METAR LRSB 090830Z 26008KT 9999 BKN082 20/08 Q1015 R27/CLRD//=
201907090900 METAR LRSB 090900Z 32010KT 290V360 9999 BKN080 20/05 Q1015=
201907090930 METAR LRSB 090930Z 32009KT 9999 BKN075 20/05 Q1015=
201907091000 METAR LRSB 091000Z 31008KT 9999 SCT045 BKN086 21/05 Q1015=
201907091030 METAR LRSB 091030Z 28007KT 250V320 9999 BKN081 20/05 Q1015=
201907091100 METAR LRSB 091100Z 25006KT 220V310 9999 SCT080 21/06 Q1015
                        RERA=
201907091130 METAR LRSB 091130Z VRB04KT 9999 SCT045 22/04 Q1015=
201907091200 METAR LRSB 091200Z 25004KT 190V310 9999 SCT047 22/04 Q1014=
201907091230 METAR LRSB 091230Z 27005KT 230V030 9999 SCT047 22/05 Q1014=
201907091300 METAR LRSB 091300Z 25006KT 210V290 9999 SCT048 22/06 Q1014=
201907091330 METAR LRSB 091330Z VRB05KT 9999 SCT050 23/06 Q1014=
201907091400 METAR LRSB 091400Z 26004KT 200V350 9999 SCT050 23/05 Q1014=
201907091430 METAR LRSB 091430Z VRB04KT 9999 SCT052 23/05 Q1013=
201907091500 METAR LRSB 091500Z 30004KT 250V040 9999 SCT050 23/05 Q1013=
201907091530 METAR LRSB 091530Z 01007KT 330V030 9999 SCT055 SCT070 23/06
                        Q1013=
201907091600 METAR LRSB 091600Z 02005KT 350V050 9999 FEW055 SCT068 23/06
                        Q1013=
201907091630 METAR LRSB 091630Z 35006KT 9999 FEW055 SCT070 21/06 Q1013=
201907091700 METAR LRSB 091700Z 36007KT 9999 BKN080 21/08 Q1013 NOSIG=
201907091730 METAR LRSB 091730Z 34004KT 300V020 9999 SCT080 20/09 Q1013
                        NOSIG=
201907091800 METAR LRSB 091800Z 30007KT 9999 SCT083 19/09 Q1013 NOSIG=
201907091830 METAR LRSB 091830Z 36004KT 330V030 9999 BKN086 19/09 Q1014
                        NOSIG=
201907091900 METAR LRSB 091900Z 33004KT 300V010 9999 BKN084 18/09 Q1014
                        NOSIG=
201907091930 METAR LRSB 091930Z 22004KT 9999 SCT086 15/10 Q1014 NOSIG=
201907092000 METAR LRSB 092000Z 24007KT CAVOK 14/10 Q1014 NOSIG=
201907092030 METAR LRSB 092030Z 26007KT CAVOK 13/10 Q1014 NOSIG=
201907092100 METAR LRSB 092100Z 26008KT CAVOK 13/10 Q1014 NOSIG=
201907092130 METAR LRSB 092130Z VRB01KT CAVOK 11/09 Q1014 NOSIG=
201907092200 METAR LRSB 092200Z VRB02KT CAVOK 12/09 Q1014 NOSIG=
201907092230 METAR LRSB 092230Z 00000KT 9999 FEW048 13/09 Q1014 NOSIG=
201907092300 METAR LRSB 092300Z 00000KT 9999 SCT049 13/10 Q1013 NOSIG=
201907092330 METAR LRSB 092330Z 22003KT 9999 FEW046 12/09 Q1013 NOSIG=
201907100000 METAR COR LRSB 100000Z 25001KT 9999 FEW046 11/09 Q1013 NOSIG=
201907100030 METAR LRSB 100030Z 00000KT CAVOK 11/09 Q1013 NOSIG=
201907100100 METAR LRSB 100100Z VRB01KT CAVOK 10/09 Q1013 NOSIG=
201907100130 METAR LRSB 100130Z 00000KT 9999 FEW080 11/09 Q1012 NOSIG=
201907100200 METAR LRSB 100200Z VRB01KT CAVOK 10/09 Q1013 NOSIG=
201907100230 METAR LRSB 100230Z 10002KT CAVOK 11/09 Q1012 NOSIG=
201907100300 METAR LRSB 100300Z 11002KT CAVOK 12/09 Q1012 NOSIG=
201907100330 METAR LRSB 100330Z VRB01KT 9999 FEW070 11/09 Q1012 NOSIG=
201907100400 METAR LRSB 100400Z 00000KT 9999 SCT066 12/10 Q1012 NOSIG=
201907100430 METAR LRSB 100430Z 00000KT 9999 SCT066 14/11 Q1012 NOSIG=
201907100500 METAR LRSB 100500Z 00000KT 9999 SCT063 15/11 Q1012 NOSIG=
201907100530 METAR LRSB 100530Z 00000KT 9999 SCT062 16/12 Q1012=
201907100600 METAR LRSB 100600Z 00000KT 9999 FEW060 17/12 Q1012=
201907100630 METAR LRSB 100630Z 27003KT 190V340 9999 FEW059 18/10 Q1012=
201907100700 METAR LRSB 100700Z 27006KT 250V320 9999 FEW059 19/08 Q1012=
201907100730 METAR LRSB 100730Z 30006KT 9999 FEW058 19/08 Q1012=
201907100800 METAR LRSB 100800Z 29006KT 9999 FEW056 19/07 Q1012=
201907100830 METAR LRSB 100830Z 28007KT 250V310 9999 FEW054 19/04 Q1012=
201907100900 METAR LRSB 100900Z 30011KT 270V330 9999 SCT052 20/02 Q1012=
201907100930 METAR LRSB 100930Z 28012KT 9999 FEW048TCU 20/03 Q1012=
201907101000 METAR LRSB 101000Z 28012KT 9999 FEW048TCU 22/04 Q1012=
201907101030 METAR LRSB 101030Z 30011KT 9999 FEW049TCU 22/05 Q1011=
201907101100 METAR LRSB 101100Z 33012KT 9999 FEW049TCU SCT052 22/04 Q1011=
201907101130 METAR LRSB 101130Z 36016KT 9999 FEW048CB SCT055 20/08 Q1012=
201907101200 METAR COR LRSB 101200Z 35015G25KT 9999 VCSH FEW048CB SCT050
                        18/08 Q1012=
201907101230 METAR LRSB 101230Z 31010KT 9999 VCSH SCT048CB SCT068 15/09
                        Q1013=
201907101300 METAR LRSB 101300Z 28007KT 9999 FEW047CB SCT052 16/08 Q1012=
201907101330 METAR LRSB 101330Z 27007KT 9999 FEW049CB SCT055 16/09 Q1012=
201907101400 METAR LRSB 101400Z 27008KT 9999 -RA FEW049CB SCT055 BKN073
                        17/09 Q1013=
201907101430 METAR LRSB 101430Z 26006KT 9999 FEW047CB SCT056 17/10 Q1012=
201907101500 METAR LRSB 101500Z 28008KT 9999 -SHRA SCT047CB BKN054 16/10
                        Q1012=
201907101530 METAR LRSB 101530Z 30011KT 9999 -SHRA FEW048CB BKN056 16/10
                        Q1013=
201907101600 METAR LRSB 101600Z 29009KT 9999 -SHRA FEW040CB BKN061 15/10
                        Q1013 R27/19//95=
201907101630 METAR LRSB 101630Z 25007KT 9999 BKN067 15/09 Q1013 R27/19//95=
201907101700 METAR LRSB 101700Z 25008KT 9999 SCT064 BKN086 15/09 Q1013
                        R27/CLRD//=
201907101730 METAR LRSB 101730Z AUTO 26007KT 9999 FEW074/// BKN097///
                        15/09 Q1013=
201907101800 METAR LRSB 101800Z 25004KT 9999 OVC071 14/09 Q1013=
201907101830 METAR LRSB 101830Z 25006KT 9999 BKN067 13/10 Q1013=
201907101900 METAR LRSB 101900Z 25006KT 9999 SCT082 12/09 Q1013=
201907101930 METAR LRSB 101930Z 00000KT 9999 SCT079 12/10 Q1013=
201907102000 METAR LRSB 102000Z 34001KT 9999 OVC081 13/09 Q1013=
201907102030 METAR LRSB 102030Z 00000KT 9999 SCT086 13/09 Q1013=
201907102100 METAR LRSB 102100Z 27003KT CAVOK 12/09 Q1014=
201907102130 METAR LRSB 102130Z VRB02KT CAVOK 12/08 Q1014=
201907102200 METAR LRSB 102200Z AUTO 26005KT 9999 FEW059/// 09/08 Q1014=
201907102230 METAR LRSB 102230Z 22003KT CAVOK 10/08 Q1014=
201907102300 METAR LRSB 102300Z AUTO 35003KT 310V070 9999 FEW088/// 11/08
                        Q1013=
201907102330 METAR LRSB 102330Z 28004KT 240V310 CAVOK 12/08 Q1013=
201907110000 METAR LRSB 110000Z AUTO VRB01KT 9999 NCD 10/07 Q1013=
201907110030 METAR LRSB 110030Z AUTO 12002KT 9999 NCD 10/07 Q1013=
201907110100 METAR LRSB 110100Z AUTO VRB02KT 9999 NCD 08/07 Q1013=
201907110130 METAR LRSB 110130Z 34002KT CAVOK 09/07 Q1013=
201907110200 METAR LRSB 110200Z 03003KT CAVOK 09/07 Q1013=
201907110230 METAR LRSB 110230Z 07002KT CAVOK 08/07 Q1013=
201907110300 METAR LRSB 110300Z 07002KT CAVOK 08/07 Q1013=
201907110330 METAR LRSB 110330Z VRB01KT CAVOK 07/06 Q1013=
201907110400 METAR LRSB 110400Z 00000KT CAVOK 10/08 Q1013=
201907110430 METAR LRSB 110430Z 04003KT 010V070 9999 FEW047 SCT086 11/08
                        Q1013=
201907110500 METAR LRSB 110500Z 04003KT 010V070 9999 BKN064 11/09 Q1013=
201907110530 METAR LRSB 110530Z VRB02KT 9999 SCT068 12/09 Q1013=
201907110600 METAR LRSB 110600Z 16003KT 120V230 9999 FEW060 14/09 Q1013=
201907110630 METAR LRSB 110630Z VRB02KT 9999 FEW036 16/09 Q1013=
201907110700 METAR LRSB 110700Z 15003KT 080V210 9999 FEW036 17/09 Q1013=
201907110730 METAR LRSB 110730Z 08005KT 050V140 9999 FEW040 18/09 Q1013=
201907110800 METAR LRSB 110800Z VRB04KT 9999 FEW040 19/08 Q1013=
201907110830 METAR LRSB 110830Z 08004KT 360V150 9999 FEW040 19/07 Q1013=
201907110900 METAR LRSB 110900Z VRB03KT 9999 FEW038 21/08 Q1013=
201907110930 METAR LRSB 110930Z 20004KT 130V280 9999 SCT047 20/08 Q1012=
201907111000 METAR LRSB 111000Z 32008KT 270V360 9999 FEW047TCU SCT053
                        21/06 Q1012=
201907111030 METAR LRSB 111030Z 30009KT 9999 FEW046TCU SCT054 21/07 Q1012=
201907111100 METAR LRSB 111100Z VRB05KT 9999 SCT057 22/06 Q1011=
201907111130 METAR LRSB 111130Z 29011KT 9999 SCT057 23/05 Q1011=
201907111200 METAR LRSB 111200Z 31012KT 280V340 9999 FEW056 23/05 Q1011=
201907111230 METAR LRSB 111230Z 30013KT 270V350 9999 SCT053 23/06 Q1011=
201907111300 METAR LRSB 111300Z 32013KT 9999 SCT050 23/06 Q1011=
201907111330 METAR LRSB 111330Z 36010KT 9999 SCT050 21/09 Q1011=
201907111400 METAR LRSB 111400Z 36006KT 290V060 9999 FEW044CB SCT050 22/09
                        Q1011=
201907111430 METAR LRSB 111430Z 02011KT 9999 FEW043CB SCT050 20/09 Q1011=
201907111500 METAR LRSB 111500Z 05008KT 030V100 9999 FEW040CB SCT050 20/10
                        Q1010=
201907111530 METAR LRSB 111530Z 04009KT 350V070 9999 FEW039CB SCT046 19/11
                        Q1011=
201907111600 METAR LRSB 111600Z 02011KT 9999 FEW040CB BKN046 18/10 Q1011=
201907111630 METAR LRSB 111630Z 05007KT 9999 TS VCSH BKN052CB 18/11 Q1012=
201907111700 METAR LRSB 111700Z 36006KT 320V020 9999 TS VCSH FEW030 SCT050CB
                        17/09 Q1012 NOSIG=
201907111730 METAR LRSB 111730Z 12005KT 010V160 9999 FEW032 FEW050CB 15/11
                        Q1013 RETS NOSIG=
201907111800 METAR COR LRSB 111800Z VRB02KT 9999 FEW033 SCT048 FEW050CB
                        14/12 Q1013 NOSIG=
201907111830 METAR LRSB 111830Z VRB01KT 9999 VCTS FEW033 BKN048CB 14/12
                        Q1012 BECMG 5000 TSRA=
201907111900 METAR LRSB 111900Z 29013KT 5000 SHRA FEW024 SCT033 BKN042CB
                        12/10 Q1014 RETS R27/29//95 NOSIG=
201907111930 METAR LRSB 111930Z 22007KT 8000 SHRA FEW027 SCT033 SCT046CB
                        11/10 Q1014 R27/29//95 NOSIG=
201907112000 METAR LRSB 112000Z 17005KT 130V210 9999 SCT035 FEW050CB BKN071
                        12/10 Q1013 RESHRA R27/29//95 NOSIG=
201907112030 METAR LRSB 112030Z 11005KT 9999 FEW036 SCT068 SCT086 12/10
                        Q1013 R27/29//95 NOSIG=
201907112100 METAR LRSB 112100Z 13004KT 9999 SCT068 SCT086 11/10 Q1013
                        R27/29//95 NOSIG=
201907112130 METAR LRSB 112130Z 08004KT CAVOK 11/10 Q1013 R27/29//95 NOSIG=
201907112200 METAR LRSB 112200Z 07001KT CAVOK 11/10 Q1013 R27/19//95 NOSIG=
201907112230 METAR LRSB 112230Z 23004KT CAVOK 10/09 Q1013 R27/19//95 NOSIG=
201907112300 METAR LRSB 112300Z 28003KT CAVOK 10/09 Q1013 R27/19//95 NOSIG=
201907112330 METAR LRSB 112330Z 31003KT 290V360 9999 FEW080 10/09 Q1013
                        R27/19//95 NOSIG=
201907120000 METAR LRSB 120000Z 24003KT 7000 FEW001 09/08 Q1013 R27/19//95
                        NOSIG=
201907120030 METAR COR LRSB 120030Z 26003KT 0800 R27/0700 BCFG FEW002
                        09/08 Q1013 R27/19//95 NOSIG=
201907120100 METAR LRSB 120100Z VRB01KT 8000 1500SE BCFG FEW001 09/08
                        Q1013 R27/CLRD// NOSIG=
201907120130 METAR LRSB 120130Z 00000KT 8000 1500SE BCFG FEW001 09/08
                        Q1013 NOSIG=
201907120200 METAR LRSB 120200Z 00000KT 6000 1500SE BCFG NSC 08/07 Q1013
                        NOSIG=
201907120230 METAR LRSB 120230Z 00000KT 5000 1000W R27/1600D BCFG FEW062
                        08/07 Q1013 NOSIG=
201907120300 METAR LRSB 120300Z 00000KT 9999 2500N BCFG SCT057 09/08 Q1013
                        NOSIG=
201907120330 METAR LRSB 120330Z 00000KT 9999 2500N BCFG SCT064 09/09 Q1014
                        NOSIG=
201907120400 METAR LRSB 120400Z 00000KT 9999 2500N BCFG FEW064 10/09 Q1014
                        NOSIG=
201907120430 METAR LRSB 120430Z 00000KT 9999 SCT045 11/10 Q1014 NOSIG=
201907120500 METAR LRSB 120500Z 00000KT 9999 SCT044 13/09 Q1014 NOSIG=
201907120530 METAR LRSB 120530Z VRB01KT 9999 FEW048 13/10 Q1014=
201907120600 METAR LRSB 120600Z VRB01KT 9999 FEW045 15/10 Q1014=
201907120630 METAR LRSB 120630Z 02004KT 9999 FEW045 15/10 Q1014=
201907120700 METAR LRSB 120700Z 02004KT 9999 FEW045 16/10 Q1014=
201907120730 METAR LRSB 120730Z 03004KT 350V080 9999 SCT040 16/10 Q1014=
201907120800 METAR LRSB 120800Z 34004KT 9999 SCT030 17/10 Q1014=
201907120830 METAR LRSB 120830Z 35004KT 290V020 9999 SCT030 17/08 Q1014=
201907120900 METAR LRSB 120900Z 01003KT 9999 SCT030 18/09 Q1014=
201907120930 METAR LRSB 120930Z VRB02KT 9999 SCT030 19/09 Q1014=
201907121000 METAR LRSB 121000Z 01006KT 330V080 9999 SCT030 18/08 Q1014=
201907121030 METAR LRSB 121030Z 01005KT 340V050 9999 SCT040 19/10 Q1014=
201907121100 METAR LRSB 121100Z 35004KT 240V050 9999 SCT040 20/09 Q1014=
201907121130 METAR LRSB 121130Z 04005KT 010V080 9999 SCT040 20/09 Q1014=
201907121200 METAR LRSB 121200Z 36005KT 330V030 9999 SCT040 19/08 Q1014=
201907121230 METAR LRSB 121230Z 01006KT 340V050 9999 SCT045 21/09 Q1013=
201907121300 METAR LRSB 121300Z VRB03KT 9999 SCT045 20/07 Q1013=
201907121330 METAR LRSB 121330Z VRB04KT 9999 SCT045 21/07 Q1013=
201907121400 METAR LRSB 121400Z VRB04KT 9999 SCT045 22/08 Q1013=
201907121430 METAR LRSB 121430Z 01004KT 9999 SCT050 21/07 Q1013=
201907121500 METAR LRSB 121500Z 02007KT CAVOK 21/07 Q1013=
201907121530 METAR LRSB 121530Z 31003KT 9999 FEW050 21/07 Q1013=
201907121600 METAR LRSB 121600Z 35005KT 310V030 9999 FEW050 21/08 Q1013=
201907121630 METAR LRSB 121630Z 02005KT 350V050 9999 FEW046 20/08 Q1013=
201907121700 METAR LRSB 121700Z 04004KT 9999 FEW046 20/08 Q1013=
201907121730 METAR LRSB 121730Z 36004KT 9999 FEW043 20/08 Q1013=
201907121800 METAR LRSB 121800Z 03004KT 9999 FEW043 18/09 Q1013=
201907121830 METAR LRSB 121830Z 24006KT 9999 SCT053 16/12 Q1013=
201907121900 METAR LRSB 121900Z 26005KT 9999 BKN055 15/11 Q1013=
201907121930 METAR LRSB 121930Z 27006KT 9999 SCT055 SCT071 15/11 Q1013=
201907122000 METAR LRSB 122000Z 25008KT 9999 SCT053 BKN070 15/10 Q1013=
201907122030 METAR LRSB 122030Z 26008KT 9999 BKN053 SCT075 15/09 Q1013=
201907122100 METAR LRSB 122100Z VRB02KT 9999 FEW052 14/09 Q1014=
201907122130 METAR LRSB 122130Z VRB02KT 9999 BKN083 14/09 Q1013=
201907122200 METAR LRSB 122200Z 02003KT 340V040 9999 FEW083 14/09 Q1013=
201907122230 METAR LRSB 122230Z 27004KT 240V330 CAVOK 13/08 Q1013=
201907122300 METAR LRSB 122300Z 24003KT CAVOK 12/09 Q1013=
201907122330 METAR LRSB 122330Z 26005KT CAVOK 10/08 Q1013=
201907130000 METAR LRSB 130000Z VRB02KT CAVOK 10/08 Q1013=
201907130030 METAR LRSB 130030Z AUTO VRB02KT 9999 NCD 11/08 Q1013=
201907130100 METAR LRSB 130100Z 06002KT CAVOK 11/09 Q1013=
201907130130 METAR LRSB 130130Z 05003KT CAVOK 12/09 Q1013=
201907130200 METAR LRSB 130200Z 10003KT CAVOK 11/09 Q1013=
201907130230 METAR LRSB 130230Z VRB01KT CAVOK 12/09 Q1013=
201907130300 METAR LRSB 130300Z 00000KT 9999 FEW077 11/09 Q1013=
201907130330 METAR LRSB 130330Z 00000KT 9999 SCT070 11/09 Q1012=
201907130400 METAR LRSB 130400Z 00000KT 9999 OVC086 12/10 Q1012=
201907130430 METAR LRSB 130430Z 00000KT 9999 OVC086 12/10 Q1012=
201907130500 METAR LRSB 130500Z 07004KT 030V090 9999 OVC084 13/10 Q1012=
201907130530 METAR LRSB 130530Z 10003KT 9999 OVC080 13/10 Q1012=
201907130600 METAR LRSB 130600Z VRB02KT 9999 BKN084 14/09 Q1013=
201907130630 METAR LRSB 130630Z VRB02KT 9999 BKN080 16/10 Q1013=
201907130700 METAR LRSB 130700Z VRB01KT 9999 FEW055 BKN074 16/10 Q1013=
201907130730 METAR LRSB 130730Z VRB02KT 9999 BKN062 17/11 Q1012=
201907130800 METAR LRSB 130800Z VRB02KT 9999 BKN062 16/11 Q1012=
201907130830 METAR LRSB 130830Z VRB02KT 9999 BKN064 18/10 Q1012=
201907130900 METAR LRSB 130900Z 10004KT 050V130 9999 BKN064 18/09 Q1012=
201907130930 METAR LRSB 130930Z 12005KT 090V160 9999 SCT045 BKN075 19/10
                        Q1012=
201907131000 METAR LRSB 131000Z 15003KT 070V220 9999 SCT045 BKN074 19/10
                        Q1012=
201907131030 METAR LRSB 131030Z 18004KT 140V200 9999 SCT057 20/10 Q1012=
201907131100 METAR LRSB 131100Z 15005KT 100V180 9999 SCT047 BKN083 20/10
                        Q1012=
201907131130 METAR LRSB 131130Z 17005KT 130V190 9999 SCT048 OVC083 19/11
                        Q1012=
201907131200 METAR LRSB 131200Z 18005KT 150V210 9999 -SHRA SCT033CB SCT045
                        OVC086 18/12 Q1012=
201907131230 METAR LRSB 131230Z 18005KT 160V220 9999 -SHRA SCT037CB BKN086
                        19/13 Q1011=
201907131300 METAR LRSB 131300Z 16006KT 130V200 9999 SCT040CB SCT083 21/12
                        Q1011 RERA=
201907131330 METAR LRSB 131330Z 14006KT 100V170 9999 FEW035CB SCT040 BKN083
                        21/11 Q1011=
201907131400 METAR LRSB 131400Z 16004KT 120V200 9999 FEW035CB SCT040 BKN083
                        21/11 Q1011=
201907131430 METAR LRSB 131430Z 15006KT 110V170 9999 SCT035CB BKN040 21/11
                        Q1010=
201907131500 METAR LRSB 131500Z 16004KT 130V210 9999 FEW035CB SCT040 BKN080
                        20/11 Q1010=
201907131530 METAR LRSB 131530Z 20003KT 140V240 9999 FEW040CB SCT054 21/11
                        Q1010=
201907131600 METAR LRSB 131600Z 16004KT 130V190 9999 BKN047 20/13 Q1010=
201907131630 METAR LRSB 131630Z 16003KT 9999 SCT050 20/13 Q1010=
201907131700 METAR LRSB 131700Z 18003KT 9999 SCT050 20/13 Q1010=
201907131730 METAR LRSB 131730Z 15003KT 9999 SCT050 19/14 Q1010=
201907131800 METAR LRSB 131800Z 10004KT 9999 SCT050 18/14 Q1010=
201907131830 METAR LRSB 131830Z 11004KT 9999 SCT050 17/14 Q1010=
201907131900 METAR LRSB 131900Z VRB01KT CAVOK 16/13 Q1010=
201907131930 METAR LRSB 131930Z 32003KT CAVOK 16/13 Q1010=
201907132000 METAR LRSB 132000Z 25006KT CAVOK 15/12 Q1010=
201907132030 METAR LRSB 132030Z VRB02KT CAVOK 14/12 Q1010=
201907132100 METAR LRSB 132100Z 33003KT CAVOK 14/12 Q1010=
201907132130 METAR LRSB 132130Z 21002KT CAVOK 12/11 Q1010=
201907132200 METAR LRSB 132200Z VRB01KT CAVOK 13/12 Q1010=
201907132230 METAR COR LRSB 132230Z 21002KT CAVOK 13/12 Q1010=
201907132300 METAR LRSB 132300Z 24003KT CAVOK 13/12 Q1010=
201907132330 METAR LRSB 132330Z VRB01KT CAVOK 14/12 Q1010=
201907140000 METAR LRSB 140000Z VRB02KT CAVOK 14/12 Q1009=
201907140030 METAR LRSB 140030Z 23001KT CAVOK 13/12 Q1009=
201907140100 METAR LRSB 140100Z VRB01KT CAVOK 14/12 Q1009=
201907140130 METAR LRSB 140130Z 12001KT CAVOK 13/12 Q1009=
201907140200 METAR LRSB 140200Z VRB02KT CAVOK 14/12 Q1009=
201907140230 METAR LRSB 140230Z 08002KT CAVOK 14/12 Q1009=
201907140300 METAR LRSB 140300Z VRB02KT CAVOK 14/12 Q1009=
201907140330 METAR LRSB 140330Z 31002KT 9999 SCT060 14/13 Q1009=
201907140400 METAR LRSB 140400Z 25002KT 9999 SCT060 14/13 Q1009=
201907140430 METAR LRSB 140430Z 00000KT 9999 SCT060 SCT083 15/13 Q1009=
201907140500 METAR LRSB 140500Z 00000KT 9999 SCT060 SCT083 15/13 Q1009
                        NOSIG=
201907140530 METAR LRSB 140530Z 36003KT 9999 SCT040 SCT060 17/13 Q1009
                        NOSIG=
201907140600 METAR LRSB 140600Z VRB02KT 9999 SCT016 SCT028 BKN066 17/13
                        Q1009 NOSIG=
201907140630 METAR LRSB 140630Z 03004KT 9999 FEW018 SCT029 BKN066 17/13
                        Q1009 NOSIG=
201907140700 METAR LRSB 140700Z 32003KT 280V350 9999 FEW020 SCT036 BKN066
                        17/13 Q1009 NOSIG=
201907140730 METAR LRSB 140730Z 31004KT 280V020 9999 FEW017 SCT036 BKN066
                        18/13 Q1009 NOSIG=
201907140800 METAR LRSB 140800Z 33005KT 290V360 9999 FEW017 SCT022 18/13
                        Q1009 NOSIG=
201907140830 METAR LRSB 140830Z 34004KT 270V040 9999 BKN023 SCT080 19/13
                        Q1009 NOSIG=
201907140900 METAR LRSB 140900Z 34005KT 290V040 9999 SCT022 SCT028 19/13
                        Q1009 NOSIG=
201907140930 METAR LRSB 140930Z VRB04KT 9999 SCT024 SCT032 21/13 Q1009
                        NOSIG=
201907141000 METAR LRSB 141000Z 27003KT 210V010 9999 SCT025 SCT032 FEW033CB
                        21/13 Q1009 NOSIG=
201907141030 METAR COR LRSB 141030Z 28009KT 9999 -SHRA SCT028 SCT032 FEW033CB
                        19/14 Q1009 NOSIG=
201907141100 METAR LRSB 141100Z 30012KT 9999 -SHRA SCT032 SCT035CB 21/13
                        Q1008 NOSIG=
201907141130 METAR LRSB 141130Z 29011KT 9999 SCT033 SCT036CB 20/13 Q1008
                        NOSIG=
201907141200 METAR LRSB 141200Z 35008KT 9999 VCTS SCT035 FEW038CB 21/13
                        Q1008 NOSIG=
201907141230 METAR LRSB 141230Z 31005KT 250V350 9999 FEW029 SCT035 SCT038CB
                        22/14 Q1009 NOSIG=
201907141300 METAR LRSB 141300Z 11008KT 070V150 9999 SCT028 SCT037 FEW038CB
                        19/12 Q1009 NOSIG=
201907141330 METAR LRSB 141330Z 13010KT 9999 TS VCSH FEW027 SCT034 SCT035CB
                        18/12 Q1009 NOSIG=
201907141400 METAR LRSB 141400Z 16009KT 9999 1500S +SHRA SCT030CB SCT040
                        15/14 Q1009 RETS R27/29//95 NOSIG=
201907141430 METAR LRSB 141430Z 17005KT 130V200 6000 2500SE SHRA FEW017
                        SCT030CB 15/14 Q1009 RESHRA R27/29//95
                        NOSIG=
201907141500 METAR LRSB 141500Z 16005KT 9999 SCT033CB SCT043 17/15 Q1009
                        RESHRA R27/29//95 NOSIG=
201907141530 METAR COR LRSB 141530Z 23005KT 9999 VCSH SCT035CB SCT070
                        17/14 Q1009 R27/29//95 NOSIG=
201907141600 METAR LRSB 141600Z 24004KT 210V280 9999 FEW038CB SCT075 18/15
                        Q1009 R27/29//95 NOSIG=
201907141630 METAR LRSB 141630Z VRB01KT 9999 FEW035CB SCT080 17/15 Q1009
                        R27/29//95 NOSIG=
201907141700 METAR LRSB 141700Z VRB01KT 9999 FEW040CB SCT071 17/15 Q1009
                        R27/29//95 NOSIG=
201907141730 METAR LRSB 141730Z 13003KT 100V160 9999 SCT045 BKN072 17/15
                        Q1009 R27/29//95 NOSIG=
201907141800 METAR LRSB 141800Z 16003KT 9999 SCT045 BKN083 16/14 Q1009
                        REDZ R27/29//95 NOSIG=
201907141830 METAR LRSB 141830Z VRB01KT 9999 BKN085 15/14 Q1010 R27/29//95
                        NOSIG=
201907141900 METAR LRSB 141900Z 08004KT 9999 BKN083 16/14 Q1010 R27/CLRD//
                        NOSIG=
201907141930 METAR LRSB 141930Z VRB01KT 9999 SCT020 SCT068 16/14 Q1010
                        NOSIG=
201907142000 METAR LRSB 142000Z 00000KT 9999 SCT018 SCT035 16/14 Q1010
                        NOSIG=
201907142030 METAR LRSB 142030Z 26003KT 230V290 9999 SCT018 BKN082 15/14
                        Q1010 NOSIG=
201907142100 METAR LRSB 142100Z 25004KT 9999 SCT074 15/14 Q1010 NOSIG=
201907142130 METAR LRSB 142130Z 24003KT 8000 BKN080 15/14 Q1010 NOSIG=
201907142200 METAR LRSB 142200Z AUTO 22002KT 9000 FEW078/// BKN100///
                        14/13 Q1010 RERA NOSIG=
201907142230 METAR LRSB 142230Z VRB02KT 9999 BKN086 14/13 Q1010 R27/19//95
                        NOSIG=
201907142300 METAR LRSB 142300Z 07002KT 9999 BKN030 14/13 Q1010 R27/19//95
                        NOSIG=
201907142330 METAR LRSB 142330Z 03003KT 9999 BKN031 15/13 Q1010 R27/19//95
                        NOSIG=
201907150000 METAR COR LRSB 150000Z 11002KT 6000 SCT028 14/13 Q1010 R27/19//95
                        NOSIG=
201907150030 METAR LRSB 150030Z AUTO VRB01KT 6000 BKN028/// SCT036///
                        14/13 Q1010 NOSIG=
201907150100 METAR COR LRSB 150100Z 24002KT 9999 FEW006 SCT043 14/13 Q1010
                        R27/19//95 NOSIG=
201907150130 METAR LRSB 150130Z 23001KT 9999 FEW006 SCT040 14/13 Q1010
                        R27/19//95 NOSIG=
201907150200 METAR LRSB 150200Z VRB01KT 8000 FEW007 SCT023 14/13 Q1010
                        R27/19//95 NOSIG=
201907150230 METAR LRSB 150230Z VRB01KT 9999 FEW008 SCT030 14/13 Q1010
                        R27/19//95 NOSIG=
201907150300 METAR LRSB 150300Z 19002KT 8000 FEW012 SCT026 14/13 Q1010
                        REDZ R27/19//95 NOSIG=
201907150330 METAR LRSB 150330Z 10002KT 8000 FEW007 SCT030CB BKN080 14/13
                        Q1010 R27/19//95 NOSIG=
201907150400 METAR LRSB 150400Z 13003KT 9000 -SHRA FEW003 SCT026CB OVC080
                        14/13 Q1010 R27/19//95 NOSIG=
201907150430 METAR LRSB 150430Z 14003KT 3500 +SHRA BR FEW007 BKN020CB
                        OVC070 14/13 Q1010 R27/29//95 NOSIG=
201907150500 METAR LRSB 150500Z 17005KT 3500 SHRA BR FEW008 BKN020CB OVC070
                        13/13 Q1010 R27/29//95 NOSIG=
201907150530 METAR LRSB 150530Z 17004KT 4500 SHRA VCTS BR FEW007 BKN022CB
                        OVC065 14/13 Q1010 R27/29//95 NOSIG=
201907150600 METAR LRSB 150600Z 19003KT 150V210 4000 SHRA VCTS BR FEW007
                        BKN022CB OVC065 13/12 Q1011 R27/29//95
                        NOSIG=
201907150630 METAR COR LRSB 150630Z 21003KT 180V260 5000 SHRA VCTS BR
                        FEW008 BKN024CB OVC068 13/12 Q1011
                        R27/29//95=
201907150700 METAR LRSB 150700Z 28006KT 6000 SHRA FEW010 SCT025CB BKN035
                        OVC068 14/13 Q1011 R27/29//95=
201907150730 METAR LRSB 150730Z 26007KT 5000 SHRA BR FEW010 SCT027CB BKN038
                        OVC070 13/12 Q1011 R27/29//95=
201907150800 METAR LRSB 150800Z 26007KT 9000 -SHRA FEW015 SCT030CB BKN040
                        OVC072 14/13 Q1011 RESHRA R27/29//95=
201907150830 METAR COR LRSB 150830Z 26007KT 9999 4000SW SHRA FEW016 SCT030CB
                        BKN042 OVC072 14/13 Q1011 R27/29//95=
201907150900 METAR LRSB 150900Z 26005KT 9999 -SHRA SCT024 SCT032CB BKN045
                        14/13 Q1011 R27/29//95=
201907150930 METAR LRSB 150930Z 29003KT 250V330 9999 -RA FEW020 SCT026
                        BKN047 15/12 Q1011 R27/29//95=
201907151000 METAR LRSB 151000Z VRB02KT 9999 FEW022 SCT028 BKN050 17/13
                        Q1011 R27/29//95=
201907151030 METAR LRSB 151030Z VRB02KT 9999 FEW020 SCT032TCU 18/14 Q1011
                        R27/29//95=
201907151100 METAR LRSB 151100Z 09003KT 020V130 9999 FEW023 SCT034TCU
                        19/14 Q1011 R27/29//95=
201907151130 METAR LRSB 151130Z 34005KT 310V030 9999 FEW025 SCT035TCU
                        20/13 Q1011 R27/29//95=
201907151200 METAR LRSB 151200Z 05005KT 350V080 9999 FEW027 SCT036TCU
                        19/12 Q1011 R27/CLRD//=
201907151230 METAR LRSB 151230Z VRB04KT 9999 FEW028 FEW038TCU 20/12 Q1011=
201907151300 METAR LRSB 151300Z VRB03KT 9999 FEW028 FEW038TCU 20/12 Q1011=
201907151330 METAR LRSB 151330Z 02005KT 350V050 9999 FEW029 FEW038TCU
                        21/12 Q1011=
201907151400 METAR LRSB 151400Z 36006KT 9999 FEW030CB FEW036TCU 21/12
                        Q1011=
201907151430 METAR LRSB 151430Z 35006KT 9999 SCT033CB 20/11 Q1011=
201907151500 METAR LRSB 151500Z 35007KT 9999 VCTS VCSH BKN030CB SCT046
                        19/11 Q1012=
201907151530 METAR LRSB 151530Z 35013KT 8000 -SHRA BKN030CB BKN040 14/11
                        Q1012 RESHRA R27/29//95=
201907151600 METAR LRSB 151600Z 31004KT 280V360 9000 -SHRA SCT032CB BKN044
                        13/12 Q1012 R27/29//95=
201907151630 METAR LRSB 151630Z 22004KT 170V240 9999 -SHRA FEW032 FEW033CB
                        BKN077 13/12 Q1012 R27/29//95 NOSIG=
201907151700 METAR LRSB 151700Z VRB02KT 9999 FEW030 SCT077 15/13 Q1012
                        R27/29//95 NOSIG=
201907151730 METAR LRSB 151730Z VRB01KT 9999 FEW032 14/13 Q1012 R27/29//95
                        NOSIG=
201907151800 METAR LRSB 151800Z 08001KT 9999 SCT040 14/13 Q1012 R27/29//95
                        NOSIG=
201907151830 METAR LRSB 151830Z 02002KT 9999 FEW040 14/12 Q1012 R27/29//95
                        NOSIG=
201907151900 METAR LRSB 151900Z VRB02KT 9000 MIFG NSC 13/11 Q1013 R27/29//95
                        NOSIG=
201907151930 METAR LRSB 151930Z 21003KT 9999 2000S BCFG NSC 12/11 Q1013
                        R27/29//95 NOSIG=
201907152000 METAR COR LRSB 152000Z 00000KT 9999 1200S R27/P2000D BCFG
                        FEW079 12/11 Q1013 R27/CLRD// NOSIG=
201907152030 METAR LRSB 152030Z 00000KT 7000 0800SE R27/1000D BCFG FEW080
                        11/10 Q1013 NOSIG=
201907152100 METAR LRSB 152100Z VRB02KT 6000 1500S BCFG NSC 11/10 Q1013
                        NOSIG=
201907152130 METAR LRSB 152130Z 00000KT 4000 1000S R27/1000D BCFG NSC
                        10/10 Q1013 NOSIG=
201907152200 METAR LRSB 152200Z VRB01KT 3000 1200S R27/1200U BCFG NSC
                        10/09 Q1013 TEMPO 1500=
201907152230 METAR LRSB 152230Z 00000KT 5000 BCFG NSC 10/10 Q1013 NOSIG=
201907152300 METAR LRSB 152300Z 11004KT 8000 3000NE BCFG NSC 10/10 Q1013
                        NOSIG=
201907152330 METAR LRSB 152330Z 00000KT 4000 1000E R27/P2000 BCFG FEW002
                        11/10 Q1013 NOSIG=
201907160000 METAR LRSB 160000Z VRB02KT 5000 1000S R27/P2000 BCFG FEW002
                        09/08 Q1013 NOSIG=
201907160030 METAR LRSB 160030Z VRB01KT 9999 3000E BCFG NSC 09/09 Q1013
                        NOSIG=
201907160100 METAR LRSB 160100Z 00000KT 9000 NSC 10/09 Q1013 NOSIG=
201907160130 METAR LRSB 160130Z 00000KT 8000 2500NE BCFG NSC 10/09 Q1013
                        NOSIG=
201907160200 METAR LRSB 160200Z 00000KT 0800 R27/1000D BCFG SCT001 10/09
                        Q1013 TEMPO 0600 BCFG=
201907160230 METAR LRSB 160230Z 00000KT 1500 0800E R27/0700N BCFG FEW001
                        09/09 Q1013 NOSIG=
201907160300 METAR LRSB 160300Z 00000KT 8000 2000N BCFG NSC 10/09 Q1013
                        NOSIG=
201907160330 METAR LRSB 160330Z 00000KT 9999 2000N BCFG NSC 10/09 Q1013
                        NOSIG=
201907160400 METAR LRSB 160400Z 03002KT 9999 0800N R27/P2000 BCFG NSC
                        11/10 Q1013 NOSIG=
201907160430 METAR LRSB 160430Z 00000KT 0800 R27/1000U PRFG NSC 11/10
                        Q1013 NOSIG=
201907160500 METAR LRSB 160500Z 00000KT 9999 3000NE BCFG NSC 13/12 Q1013
                        NOSIG=
201907160530 METAR LRSB 160530Z 00000KT 9999 4000NW BCFG NSC 14/12 Q1013=
201907160600 METAR LRSB 160600Z VRB01KT 9999 FEW030 16/12 Q1013=
201907160630 METAR LRSB 160630Z VRB02KT 9999 FEW030 17/12 Q1013=
201907160700 METAR LRSB 160700Z VRB02KT 9999 FEW030 17/13 Q1013=
201907160730 METAR LRSB 160730Z VRB02KT 9999 FEW030 19/13 Q1013=
201907160800 METAR LRSB 160800Z VRB02KT 9999 FEW030 19/12 Q1013=
201907160830 METAR LRSB 160830Z 36003KT 9999 FEW039 19/12 Q1013=
201907160900 METAR LRSB 160900Z VRB03KT 9999 FEW030 20/12 Q1013=
201907160930 METAR LRSB 160930Z VRB04KT 9999 FEW030 21/12 Q1013=
201907161000 METAR LRSB 161000Z 11004KT 9999 SCT030 21/11 Q1013=
201907161030 METAR LRSB 161030Z 34003KT 9999 SCT035 21/11 Q1013=
201907161100 METAR LRSB 161100Z VRB03KT 9999 SCT035 21/13 Q1013=
201907161130 METAR LRSB 161130Z VRB03KT 9999 SCT035 22/11 Q1012=
201907161200 METAR LRSB 161200Z 03004KT 9999 SCT040 23/11 Q1012=
201907161230 METAR LRSB 161230Z VRB02KT 9999 SCT040 23/12 Q1012=
201907161300 METAR LRSB 161300Z VRB03KT 9999 SCT040 24/11 Q1012=
201907161330 METAR LRSB 161330Z 04003KT 9999 SCT040 22/11 Q1012=
201907161400 METAR LRSB 161400Z VRB01KT CAVOK 23/12 Q1011=
201907161430 METAR LRSB 161430Z 01006KT 340V040 9999 SCT040 23/11 Q1012=
201907161500 METAR LRSB 161500Z 03003KT 9999 FEW040 24/09 Q1011=
201907161530 METAR LRSB 161530Z 33004KT 9999 FEW040 23/09 Q1011=
201907161600 METAR LRSB 161600Z 34006KT 320V020 9999 FEW045 23/09 Q1011=
201907161630 METAR LRSB 161630Z 31007KT 9999 FEW047 SCT085 22/10 Q1011=
201907161700 METAR LRSB 161700Z 34005KT 9999 FEW047 SCT085 22/11 Q1012=
201907161730 METAR LRSB 161730Z 30005KT 9999 FEW047 SCT086 21/13 Q1012=
201907161800 METAR LRSB 161800Z 24006KT 9999 FEW046 SCT086 18/14 Q1012=
201907161830 METAR LRSB 161830Z 25006KT 9999 SCT050 SCT087 17/14 Q1012=
201907161900 METAR LRSB 161900Z 25005KT 9999 SCT052 17/13 Q1012=
201907161930 METAR LRSB 161930Z 26006KT 9999 FEW056 18/14 Q1013=
201907162000 METAR LRSB 162000Z 24004KT 9999 FEW060 17/13 Q1013=
201907162030 METAR LRSB 162030Z 26003KT 9999 FEW065 17/13 Q1013=
201907162100 METAR LRSB 162100Z 25002KT 9999 FEW070 17/12 Q1013=
201907162130 METAR LRSB 162130Z 00000KT 9999 FEW076 16/13 Q1013=
201907162200 METAR LRSB 162200Z 00000KT 9999 FEW080 16/13 Q1013=
201907162230 METAR LRSB 162230Z VRB01KT CAVOK 14/12 Q1013=
201907162300 METAR LRSB 162300Z 24002KT CAVOK 14/12 Q1013=
201907162330 METAR LRSB 162330Z 00000KT CAVOK 13/11 Q1013=
201907170000 METAR LRSB 170000Z 00000KT CAVOK 12/11 Q1013=
201907170030 METAR LRSB 170030Z 00000KT CAVOK 13/11 Q1013=
201907170100 METAR LRSB 170100Z 00000KT CAVOK 12/10 Q1013=
201907170130 METAR LRSB 170130Z 00000KT CAVOK 12/11 Q1013=
201907170200 METAR LRSB 170200Z 00000KT CAVOK 12/11 Q1012=
201907170230 METAR LRSB 170230Z 00000KT CAVOK 12/11 Q1012=
201907170300 METAR LRSB 170300Z 00000KT CAVOK 12/10 Q1012=
201907170330 METAR LRSB 170330Z 07003KT CAVOK 12/11 Q1012=
201907170400 METAR LRSB 170400Z 09003KT CAVOK 13/11 Q1012=
201907170430 METAR LRSB 170430Z VRB02KT CAVOK 14/12 Q1012=
201907170500 METAR LRSB 170500Z 10003KT CAVOK 15/12 Q1012=
201907170530 METAR LRSB 170530Z VRB02KT CAVOK 17/12 Q1012=
201907170600 METAR LRSB 170600Z VRB02KT CAVOK 19/12 Q1012=
201907170630 METAR LRSB 170630Z 10003KT 030V160 CAVOK 20/13 Q1012=
201907170700 METAR LRSB 170700Z VRB02KT 9999 FEW050 21/13 Q1012=
201907170730 METAR LRSB 170730Z 20003KT 120V280 9999 FEW050 22/12 Q1012=
201907170800 METAR LRSB 170800Z VRB05KT 9999 SCT050 23/10 Q1012=
201907170830 METAR LRSB 170830Z 28009KT 9999 SCT050 24/10 Q1011=
201907170900 METAR LRSB 170900Z 32011KT 9999 SCT050 24/09 Q1011=
201907170930 METAR LRSB 170930Z 31009KT 290V350 9999 SCT050 25/09 Q1011=
201907171000 METAR LRSB 171000Z 33008KT 290V350 9999 SCT050 25/10 Q1011=
201907171030 METAR LRSB 171030Z 32010KT 290V350 9999 SCT047 25/10 Q1011=
201907171100 METAR LRSB 171100Z 31011KT 9999 SCT047 25/09 Q1011=
201907171130 METAR LRSB 171130Z 31012KT 280V340 9999 BKN045 25/08 Q1010=
201907171200 METAR LRSB 171200Z 32012KT 290V350 9999 BKN045 26/10 Q1010=
201907171230 METAR LRSB 171230Z 32012KT 290V350 9999 BKN043 26/09 Q1010=
201907171300 METAR LRSB 171300Z 31014KT 280V340 9999 SCT045 26/09 Q1010=
201907171330 METAR LRSB 171330Z 31016KT 9999 SCT045 26/11 Q1010=
201907171400 METAR LRSB 171400Z 31016KT 9999 SCT045 25/09 Q1010=
201907171430 METAR LRSB 171430Z 31017KT 9999 SCT045 25/09 Q1010=
201907171500 METAR LRSB 171500Z 30017KT 9999 SCT045 25/08 Q1010=
201907171530 METAR LRSB 171530Z 29014KT 9999 SCT045 25/09 Q1010=
201907171600 METAR LRSB 171600Z 30015KT 9999 FEW050 24/09 Q1010=
201907171630 METAR LRSB 171630Z 30013KT 9999 FEW050 23/10 Q1010=
201907171700 METAR LRSB 171700Z 29012KT 9999 SCT050 23/11 Q1011=
201907171730 METAR LRSB 171730Z 31010KT 9999 SCT050 22/11 Q1011=
201907171800 METAR LRSB 171800Z 30011KT 9999 SCT050 21/11 Q1011=
201907171830 METAR LRSB 171830Z 32008KT 9999 BKN050 21/11 Q1012=
201907171900 METAR LRSB 171900Z 32006KT 9999 BKN050 21/11 Q1012=
201907171930 METAR LRSB 171930Z 33005KT 9999 BKN052 20/11 Q1012=
201907172000 METAR LRSB 172000Z 31005KT 9999 BKN055 18/11 Q1013=
201907172030 METAR LRSB 172030Z 31005KT 9999 BKN055 18/11 Q1013=
201907172100 METAR LRSB 172100Z 29004KT 9999 BKN053 18/12 Q1013=
201907172130 METAR LRSB 172130Z 25006KT 9999 BKN053 17/12 Q1013=
201907172200 METAR LRSB 172200Z AUTO 24006KT 9999 OVC053/// 17/13 Q1013=
201907172230 METAR LRSB 172230Z AUTO 26005KT 9999 OVC057/// 17/12 Q1013=
201907172300 METAR COR LRSB 172300Z 26005KT 9999 BKN053 17/12 Q1013=
201907172330 METAR LRSB 172330Z VRB04KT 9999 BKN053 16/12 Q1013=
201907180000 METAR LRSB 180000Z VRB02KT 9999 BKN060 16/12 Q1013=
201907180030 METAR LRSB 180030Z 00000KT 9999 BKN060 16/12 Q1013=
201907180100 METAR LRSB 180100Z 00000KT 9999 BKN060 15/12 Q1013=
201907180130 METAR LRSB 180130Z 00000KT 9999 BKN060 14/11 Q1013=
201907180200 METAR LRSB 180200Z AUTO VRB02KT 9999 NCD 13/10 Q1013=
201907180230 METAR LRSB 180230Z 21003KT CAVOK 13/10 Q1013=
201907180300 METAR LRSB 180300Z 24004KT CAVOK 12/09 Q1013=
201907180330 METAR LRSB 180330Z 23004KT CAVOK 11/09 Q1013=
201907180400 METAR LRSB 180400Z VRB01KT CAVOK 13/10 Q1014=
201907180430 METAR LRSB 180430Z 00000KT CAVOK 15/11 Q1014=
201907180500 METAR LRSB 180500Z 00000KT CAVOK 17/11 Q1014 NOSIG=
201907180530 METAR LRSB 180530Z VRB02KT CAVOK 17/12 Q1014 NOSIG=
201907180600 METAR LRSB 180600Z VRB01KT CAVOK 19/11 Q1014 NOSIG=
201907180630 METAR LRSB 180630Z VRB02KT CAVOK 20/10 Q1014 NOSIG=
201907180700 METAR LRSB 180700Z 03003KT 350V110 CAVOK 21/11 Q1014 NOSIG=
201907180730 METAR LRSB 180730Z VRB03KT CAVOK 22/10 Q1014 NOSIG=
201907180800 METAR LRSB 180800Z 03005KT 360V060 CAVOK 22/09 Q1014 NOSIG=
201907180830 METAR LRSB 180830Z VRB03KT CAVOK 22/09 Q1014 NOSIG=
201907180900 METAR LRSB 180900Z VRB04KT 9999 FEW033 23/10 Q1014 NOSIG=
201907180930 METAR LRSB 180930Z 10004KT 020V180 9999 FEW035 23/10 Q1014
                        NOSIG=
201907181000 METAR LRSB 181000Z 17005KT 100V230 9999 FEW035 24/08 Q1014
                        NOSIG=
201907181030 METAR LRSB 181030Z 14006KT 100V170 9999 FEW036 24/09 Q1014
                        NOSIG=
201907181100 METAR LRSB 181100Z 13006KT 090V210 9999 FEW038 24/09 Q1014
                        NOSIG=
201907181130 METAR LRSB 181130Z VRB04KT 9999 FEW040 24/10 Q1014 NOSIG=
201907181200 METAR LRSB 181200Z VRB02KT 9999 FEW040 25/09 Q1014 NOSIG=
201907181230 METAR COR LRSB 181230Z 35007KT 290V010 9999 FEW043 25/09
                        Q1014 NOSIG=
201907181300 METAR LRSB 181300Z VRB03KT 9999 FEW045 25/08 Q1014 NOSIG=
201907181330 METAR LRSB 181330Z 06006KT 9999 FEW048 25/08 Q1014 NOSIG=
201907181400 METAR LRSB 181400Z 09004KT 040V130 9999 FEW050 SCT069 25/09
                        Q1014 NOSIG=
201907181430 METAR LRSB 181430Z 14005KT 110V210 9999 FEW053 SCT072 25/10
                        Q1014 NOSIG=
201907181500 METAR LRSB 181500Z VRB02KT 9999 FEW055 SCT073 25/10 Q1014
                        NOSIG=
201907181530 METAR LRSB 181530Z VRB02KT 9999 FEW055 26/10 Q1014 NOSIG=
201907181600 METAR LRSB 181600Z VRB02KT 9999 FEW055 SCT067 26/10 Q1014
                        NOSIG=
201907181630 METAR LRSB 181630Z VRB02KT 9999 FEW055 SCT065 25/11 Q1014
                        NOSIG=
201907181700 METAR LRSB 181700Z 15003KT 9999 FEW071 23/11 Q1014=
201907181730 METAR LRSB 181730Z 19003KT 140V210 CAVOK 22/13 Q1014=
201907181800 METAR LRSB 181800Z 11003KT 080V140 9999 BKN067 22/12 Q1014=
201907181830 METAR LRSB 181830Z 00000KT 9999 BKN067 21/12 Q1015=
201907181900 METAR LRSB 181900Z 21003KT 190V270 9999 SCT077 18/14 Q1015=
201907181930 METAR LRSB 181930Z VRB02KT CAVOK 17/13 Q1015=
201907182000 METAR LRSB 182000Z 22003KT 180V250 CAVOK 17/14 Q1016=
201907182030 METAR LRSB 182030Z 24004KT CAVOK 15/13 Q1016=
201907182100 METAR LRSB 182100Z 25004KT CAVOK 16/13 Q1016=
201907182130 METAR LRSB 182130Z 00000KT CAVOK 16/13 Q1016=
201907182200 METAR LRSB 182200Z 00000KT CAVOK 16/13 Q1016=
201907182230 METAR LRSB 182230Z 28002KT CAVOK 17/13 Q1016=
201907182300 METAR LRSB 182300Z 31001KT CAVOK 17/13 Q1016=
201907182330 METAR LRSB 182330Z 33003KT CAVOK 17/12 Q1016=
201907190000 METAR LRSB 190000Z 22002KT CAVOK 16/13 Q1016=
201907190030 METAR LRSB 190030Z AUTO VRB02KT 9999 OVC096/// 16/13 Q1016=
201907190100 METAR LRSB 190100Z 00000KT CAVOK 16/13 Q1016=
201907190130 METAR LRSB 190130Z VRB02KT CAVOK 16/13 Q1017=
201907190200 METAR LRSB 190200Z AUTO 35001KT 9999 OVC093/// 16/13 Q1017=
201907190230 METAR LRSB 190230Z 25003KT CAVOK 15/13 Q1017=
201907190300 METAR LRSB 190300Z 20002KT CAVOK 15/13 Q1017=
201907190330 METAR LRSB 190330Z VRB01KT CAVOK 16/13 Q1017=
201907190400 METAR LRSB 190400Z VRB02KT CAVOK 15/13 Q1017=
201907190430 METAR LRSB 190430Z VRB01KT CAVOK 17/14 Q1017=
201907190500 METAR LRSB 190500Z 00000KT CAVOK 17/13 Q1018=
201907190530 METAR LRSB 190530Z 00000KT CAVOK 18/13 Q1017=
201907190600 METAR LRSB 190600Z 00000KT CAVOK 20/13 Q1018=
201907190630 METAR LRSB 190630Z VRB02KT 9999 FEW056 21/13 Q1018=
201907190700 METAR LRSB 190700Z 16003KT 120V210 9999 FEW056 22/14 Q1018=
201907190730 METAR LRSB 190730Z VRB03KT 9999 FEW055 23/14 Q1018=
201907190800 METAR LRSB 190800Z VRB02KT 9999 FEW055 23/14 Q1018=
201907190830 METAR LRSB 190830Z 36003KT 310V080 9999 FEW054 24/14 Q1018=
201907190930 METAR LRSB 190930Z 36005KT 310V030 9999 FEW045TCU 25/12 Q1018=
201907191000 METAR LRSB 191000Z 01005KT 340V080 9999 FEW043TCU 24/12 Q1018=
201907191030 METAR LRSB 191030Z 36007KT 320V040 9999 FEW042CB 25/13 Q1018=
201907191100 METAR LRSB 191100Z 02006KT 9999 VCSH SCT042CB 24/13 Q1018=
201907191130 METAR LRSB 191130Z 25003KT 220V300 9999 VCTS VCSH SCT040CB
                        24/13 Q1018=
201907191200 METAR LRSB 191200Z 21011KT 9999 VCSH SCT040CB 21/14 Q1018=
201907191230 METAR LRSB 191230Z 21011KT 9999 SCT040CB FEW045TCU 21/13
                        Q1018=
201907191300 METAR LRSB 191300Z 22010KT 9999 SCT038CB FEW043TCU 22/14
                        Q1018=
201907191330 METAR LRSB 191330Z 20011KT 9999 VCTS SCT040CB SCT070 22/13
                        Q1018=
201907191400 METAR LRSB 191400Z 19006KT 160V220 9999 SCT040CB SCT070 23/14
                        Q1018=
201907191430 METAR LRSB 191430Z 16004KT 120V180 9999 FEW038CB SCT067 23/13
                        Q1017=
201907191500 METAR LRSB 191500Z VRB01KT 9999 FEW036CB SCT065 24/13 Q1018=
201907191530 METAR LRSB 191530Z 04009KT 9999 FEW036CB SCT065 22/15 Q1018=
201907191600 METAR LRSB 191600Z 10004KT 070V140 9999 FEW045 FEW050TCU
                        23/15 Q1018=
201907191630 METAR LRSB 191630Z 18004KT 140V220 9999 FEW048 SCT065 22/14
                        Q1018=
201907191700 METAR LRSB 191700Z 18004KT 9999 FEW070 22/15 Q1018 NOSIG=
201907191730 METAR LRSB 191730Z 14003KT CAVOK 21/15 Q1018 NOSIG=
201907191800 METAR LRSB 191800Z 11003KT CAVOK 20/14 Q1018 NOSIG=
201907191830 METAR LRSB 191830Z 10003KT CAVOK 19/16 Q1018 NOSIG=
201907191900 METAR LRSB 191900Z VRB02KT CAVOK 18/15 Q1018 NOSIG=
201907191930 METAR LRSB 191930Z 27004KT CAVOK 18/15 Q1019 NOSIG=
201907192000 METAR LRSB 192000Z VRB01KT CAVOK 18/16 Q1019 NOSIG=
201907192030 METAR LRSB 192030Z 25003KT CAVOK 17/15 Q1019 NOSIG=
201907192100 METAR LRSB 192100Z 25004KT 9999 FEW087 16/14 Q1019 NOSIG=
201907192130 METAR LRSB 192130Z 24003KT 9999 FEW087 16/14 Q1019 NOSIG=
201907192200 METAR LRSB 192200Z 21004KT 180V240 CAVOK 16/13 Q1019 NOSIG=
201907192230 METAR LRSB 192230Z 25005KT 210V270 CAVOK 16/13 Q1019 NOSIG=
201907192300 METAR LRSB 192300Z 09003KT CAVOK 15/13 Q1019 NOSIG=
201907192330 METAR LRSB 192330Z 10004KT CAVOK 15/13 Q1020 NOSIG=
201907200000 METAR LRSB 200000Z VRB01KT CAVOK 15/13 Q1019 NOSIG=
201907200030 METAR LRSB 200030Z 00000KT CAVOK 14/12 Q1019 NOSIG=
201907200100 METAR LRSB 200100Z 00000KT CAVOK 14/12 Q1019 NOSIG=
201907200130 METAR LRSB 200130Z 00000KT CAVOK 13/12 Q1019 NOSIG=
201907200200 METAR LRSB 200200Z 00000KT CAVOK 13/12 Q1020 NOSIG=
201907200230 METAR LRSB 200230Z 00000KT CAVOK 13/12 Q1020 NOSIG=
201907200300 METAR LRSB 200300Z 00000KT 9999 MIFG NSC 12/11 Q1020 NOSIG=
201907200330 METAR LRSB 200330Z 00000KT 9999 MIFG NSC 12/11 Q1020 NOSIG=
201907200400 METAR LRSB 200400Z 00000KT CAVOK 15/13 Q1020 NOSIG=
201907200430 METAR LRSB 200430Z 11002KT CAVOK 15/13 Q1020 NOSIG=
201907200500 METAR LRSB 200500Z 09004KT CAVOK 16/14 Q1020=
201907200530 METAR LRSB 200530Z AUTO 10004KT 9999 NCD 18/14 Q1020=
201907200600 METAR LRSB 200600Z 08003KT CAVOK 19/14 Q1021=
201907200630 METAR COR LRSB 200630Z 11003KT CAVOK 21/14 Q1021=
201907200700 METAR LRSB 200700Z 07004KT CAVOK 22/14 Q1021=
201907200730 METAR COR LRSB 200730Z 10004KT CAVOK 23/14 Q1021=
201907200800 METAR LRSB 200800Z VRB03KT CAVOK 24/14 Q1021=
201907200830 METAR LRSB 200830Z 13004KT CAVOK 24/14 Q1021=
201907200900 METAR LRSB 200900Z 10004KT 060V170 CAVOK 26/14 Q1021=
201907200930 METAR LRSB 200930Z VRB03KT CAVOK 26/14 Q1021=
201907201000 METAR LRSB 201000Z 03007KT 360V070 CAVOK 26/14 Q1020=
201907201030 METAR LRSB 201030Z VRB04KT CAVOK 27/14 Q1020=
201907201100 METAR LRSB 201100Z 36004KT 9999 SCT045 27/13 Q1020=
201907201130 METAR LRSB 201130Z AUTO VRB04KT 9999 FEW054/// 27/13 Q1020=
201907201200 METAR LRSB 201200Z 33005KT 290V360 9999 SCT050 27/12 Q1020=
201907201230 METAR LRSB 201230Z 01005KT 320V060 9999 SCT050 26/12 Q1020=
201907201300 METAR LRSB 201300Z 36007KT 330V030 9999 FEW040CB SCT045 27/13
                        Q1020=
201907201330 METAR LRSB 201330Z 36005KT 310V060 9999 FEW040CB SCT045 28/12
                        Q1020=
201907201400 METAR LRSB 201400Z VRB02KT 9999 FEW043CB SCT050 28/14 Q1020=
201907201430 METAR LRSB 201430Z VRB04KT 9999 SCT051 28/13 Q1020=
201907201500 METAR LRSB 201500Z 35003KT 270V060 9999 SCT053 28/11 Q1020=
201907201530 METAR LRSB 201530Z VRB02KT 9999 SCT057 28/11 Q1020=
201907201600 METAR LRSB 201600Z 36004KT 320V030 9999 FEW055 27/10 Q1019=
201907201630 METAR LRSB 201630Z VRB02KT 9999 FEW055 26/13 Q1019=
201907201700 METAR LRSB 201700Z 25003KT 9999 FEW082 26/15 Q1019=
201907201730 METAR LRSB 201730Z 25005KT 9999 FEW086 23/16 Q1020=
201907201800 METAR LRSB 201800Z 25005KT CAVOK 21/16 Q1020=
201907201830 METAR LRSB 201830Z 24004KT CAVOK 20/16 Q1020=
201907201900 METAR LRSB 201900Z 26007KT CAVOK 20/15 Q1021=
201907201930 METAR LRSB 201930Z 21003KT 180V240 CAVOK 17/15 Q1021=
201907202000 METAR LRSB 202000Z VRB01KT CAVOK 18/14 Q1021=
201907202030 METAR LRSB 202030Z 00000KT CAVOK 17/15 Q1021=
201907202100 METAR LRSB 202100Z VRB03KT CAVOK 17/14 Q1021=
201907202130 METAR LRSB 202130Z 02002KT CAVOK 17/14 Q1021=
201907202200 METAR LRSB 202200Z 28003KT 230V340 CAVOK 16/13 Q1021=
201907202230 METAR LRSB 202230Z 21003KT CAVOK 15/13 Q1021=
201907202300 METAR LRSB 202300Z 00000KT CAVOK 15/13 Q1021=
201907202330 METAR LRSB 202330Z 00000KT CAVOK 14/13 Q1021=
201907210000 METAR LRSB 210000Z 00000KT CAVOK 14/13 Q1021=
201907210030 METAR LRSB 210030Z 00000KT CAVOK 14/12 Q1021=
201907210100 METAR LRSB 210100Z 00000KT CAVOK 15/13 Q1021=
201907210130 METAR LRSB 210130Z 00000KT CAVOK 14/12 Q1021=
201907210200 METAR LRSB 210200Z 00000KT CAVOK 14/13 Q1021=
201907210230 METAR LRSB 210230Z 00000KT CAVOK 14/12 Q1021=
201907210300 METAR LRSB 210300Z 00000KT CAVOK 13/12 Q1021=
201907210330 METAR LRSB 210330Z 00000KT CAVOK 13/12 Q1021=
201907210400 METAR LRSB 210400Z 00000KT CAVOK 14/13 Q1021=
201907210430 METAR LRSB 210430Z 08001KT CAVOK 16/13 Q1021=
201907210500 METAR LRSB 210500Z 07004KT CAVOK 18/14 Q1021=
201907210530 METAR LRSB 210530Z 10004KT CAVOK 19/14 Q1021=
201907210600 METAR LRSB 210600Z VRB02KT CAVOK 21/14 Q1022=
201907210630 METAR LRSB 210630Z 08003KT 010V140 CAVOK 22/14 Q1021=
201907210700 METAR LRSB 210700Z VRB02KT CAVOK 24/14 Q1021=
201907210730 METAR LRSB 210730Z 03003KT 330V100 CAVOK 24/14 Q1021=
201907210800 METAR LRSB 210800Z VRB02KT CAVOK 25/14 Q1021=
201907210830 METAR LRSB 210830Z 05003KT CAVOK 26/14 Q1021=
201907210900 METAR LRSB 210900Z 34003KT 260V070 9999 FEW055 27/14 Q1021=
201907210930 METAR LRSB 210930Z VRB03KT 9999 FEW050 28/13 Q1021=
201907211000 METAR LRSB 211000Z 20004KT 170V280 9999 SCT050 28/15 Q1021=
201907211030 METAR LRSB 211030Z 26005KT 220V300 9999 SCT050 28/15 Q1021=
201907211100 METAR COR LRSB 211100Z VRB04KT 9999 SCT056 28/14 Q1021=
201907211130 METAR LRSB 211130Z 33005KT 280V010 9999 SCT050 29/13 Q1021=
201907211200 METAR LRSB 211200Z 01007KT 330V040 9999 SCT050 29/13 Q1021=
201907211230 METAR LRSB 211230Z 02006KT 9999 SCT050 29/12 Q1021=
201907211300 METAR LRSB 211300Z 01005KT 310V080 9999 FEW040TCU SCT045
                        30/12 Q1020=
201907211330 METAR LRSB 211330Z 30004KT 220V360 9999 SCT050 29/11 Q1020=
201907211400 METAR LRSB 211400Z 30004KT 240V330 9999 SCT047 28/12 Q1020=
201907211430 METAR LRSB 211430Z VRB03KT 9999 SCT047 30/12 Q1020=
201907211500 METAR LRSB 211500Z AUTO VRB03KT 9999 NCD 30/11 Q1020=
201907211530 METAR LRSB 211530Z 32003KT 250V040 9999 FEW053 30/11 Q1020=
201907211600 METAR LRSB 211600Z 02005KT 9999 FEW053 29/12 Q1020=
201907211630 METAR LRSB 211630Z 02005KT 9999 FEW050 28/11 Q1020=
201907211700 METAR LRSB 211700Z 03004KT 330V050 CAVOK 28/12 Q1020=
201907211730 METAR LRSB 211730Z 02003KT CAVOK 27/13 Q1020=
201907211800 METAR LRSB 211800Z 22004KT CAVOK 23/17 Q1020=
201907211830 METAR LRSB 211830Z 27004KT CAVOK 21/16 Q1020=
201907211900 METAR LRSB 211900Z 26005KT CAVOK 20/15 Q1021=
201907211930 METAR LRSB 211930Z 26005KT CAVOK 20/15 Q1021=
201907212000 METAR LRSB 212000Z 24004KT CAVOK 18/15 Q1021=
201907212030 METAR LRSB 212030Z VRB02KT CAVOK 18/15 Q1021=
201907212100 METAR LRSB 212100Z 00000KT CAVOK 18/15 Q1021=
201907212130 METAR LRSB 212130Z 00000KT CAVOK 18/15 Q1021=
201907212200 METAR LRSB 212200Z 00000KT CAVOK 18/14 Q1021=
201907212230 METAR LRSB 212230Z 00000KT CAVOK 18/15 Q1021=
201907212300 METAR LRSB 212300Z 00000KT CAVOK 18/14 Q1021=
201907212330 METAR LRSB 212330Z 00000KT CAVOK 18/13 Q1021=
201907220000 METAR LRSB 220000Z 00000KT CAVOK 18/15 Q1021=
201907220030 METAR LRSB 220030Z 07002KT CAVOK 17/14 Q1021=
201907220100 METAR LRSB 220100Z 10005KT CAVOK 16/14 Q1021=
201907220130 METAR LRSB 220130Z 11003KT CAVOK 16/13 Q1021=
201907220200 METAR LRSB 220200Z VRB01KT CAVOK 16/14 Q1021=
201907220230 METAR LRSB 220230Z 12002KT CAVOK 15/13 Q1021=
201907220300 METAR LRSB 220300Z 12004KT CAVOK 15/14 Q1021=
201907220330 METAR LRSB 220330Z 07003KT CAVOK 16/13 Q1021=
201907220400 METAR LRSB 220400Z VRB01KT CAVOK 17/14 Q1021=
201907220430 METAR LRSB 220430Z 11002KT CAVOK 17/15 Q1021=
201907220500 METAR LRSB 220500Z VRB01KT CAVOK 19/15 Q1021=
201907220530 METAR LRSB 220530Z 10003KT CAVOK 20/15 Q1021=
201907220600 METAR LRSB 220600Z 07003KT CAVOK 22/14 Q1021=
201907220630 METAR LRSB 220630Z VRB02KT CAVOK 23/14 Q1021=
201907220700 METAR LRSB 220700Z 36004KT CAVOK 24/15 Q1021=
201907220730 METAR LRSB 220730Z 35005KT 330V030 CAVOK 23/15 Q1021=
201907220800 METAR LRSB 220800Z 35005KT 290V020 CAVOK 24/16 Q1021=
201907220830 METAR LRSB 220830Z VRB02KT CAVOK 26/16 Q1021=
201907220900 METAR LRSB 220900Z 34004KT CAVOK 26/16 Q1021=
201907220930 METAR COR LRSB 220930Z 34004KT 270V070 9999 FEW045 27/16
                        Q1021=
201907221000 METAR COR LRSB 221000Z 33008KT 300V360 9999 FEW045 28/16
                        Q1020=
201907221030 METAR LRSB 221030Z 34008KT 320V030 9999 SCT045CB 28/17 Q1020=
201907221100 METAR LRSB 221100Z 30008KT 9999 SCT045CB 29/16 Q1020=
201907221130 METAR LRSB 221130Z 01010KT 340V040 9999 VCTS SCT045CB 28/17
                        Q1020=
201907221200 METAR COR LRSB 221200Z 35015KT 9999 TS SCT035 SCT040 27/17
                        Q1020=
201907221230 METAR LRSB 221230Z 34008KT 9999 TS SCT035CB SCT040 23/20
                        Q1020 RESH R27/29//95=
201907221300 METAR LRSB 221300Z 19007KT 160V220 9999 SCT035CB SCT040 23/18
                        Q1021 R27/29//95=
201907221330 METAR LRSB 221330Z 20004KT 9999 SCT035CB SCT040 23/17 Q1021
                        R27/29//95=
201907221400 METAR LRSB 221400Z 21003KT 9999 SCT040CB 23/17 Q1021 R27/CLRD//=
201907221430 METAR LRSB 221430Z VRB03KT 9999 SCT040CB 25/17 Q1020=
201907221500 METAR LRSB 221500Z 13005KT 9999 SCT050CB 24/18 Q1020=
201907221530 METAR LRSB 221530Z 14004KT 110V170 9999 FEW050CB 24/18 Q1020=
201907221600 METAR LRSB 221600Z 15003KT 9999 FEW050CB 24/18 Q1020=
201907221630 METAR LRSB 221630Z 15002KT 110V170 9999 FEW050CB SCT087 23/18
                        Q1020=
201907221700 METAR LRSB 221700Z 21003KT 9999 FEW056CB SCT085 23/19 Q1020=
201907221730 METAR LRSB 221730Z VRB01KT 9999 FEW057CB SCT087 23/19 Q1020=
201907221800 METAR LRSB 221800Z 27005KT 9999 SCT080 22/19 Q1020=
201907221830 METAR LRSB 221830Z 24005KT 9999 SCT057 21/18 Q1020=
201907221900 METAR LRSB 221900Z 27006KT 9999 BKN056 20/17 Q1020=
201907221930 METAR LRSB 221930Z 27005KT 240V340 9999 SCT056 20/17 Q1021=
201907222000 METAR LRSB 222000Z 25006KT 9999 SCT045 20/17 Q1021=
201907222030 METAR LRSB 222030Z 27005KT 9999 BKN043 20/17 Q1021=
201907222100 METAR LRSB 222100Z 24005KT 9999 VCTS SCT040CB SCT044 20/17
                        Q1021=
201907222130 METAR LRSB 222130Z 24004KT 9999 SCT040CB BKN048 19/17 Q1021=
201907222200 METAR LRSB 222200Z 25005KT 9999 SCT035CB SCT045 19/17 Q1021=
201907222230 METAR LRSB 222230Z 26008KT 9999 SCT045 30/17 Q1021=
201907222300 METAR LRSB 222300Z 26007KT 9999 BKN047 20/16 Q1021=
201907222330 METAR LRSB 222330Z 26007KT 9999 SCT049 19/16 Q1021=
201907230000 METAR LRSB 230000Z 26006KT 9999 BKN067 19/16 Q1020=
201907230030 METAR LRSB 230030Z AUTO 25006KT 9999 SCT067/// 18/16 Q1020=
201907230100 METAR LRSB 230100Z 26007KT 9999 SCT060 17/15 Q1020=
201907230130 METAR LRSB 230130Z AUTO 26008KT 9999 FEW069/// 17/15 Q1020=
201907230200 METAR LRSB 230200Z 26006KT 9999 FEW070 17/15 Q1020=
201907230230 METAR LRSB 230230Z 14002KT 110V180 CAVOK 16/14 Q1020=
201907230300 METAR LRSB 230300Z 00000KT CAVOK 16/14 Q1020=
201907230330 METAR LRSB 230330Z 00000KT CAVOK 16/15 Q1020=
201907230400 METAR LRSB 230400Z 18002KT CAVOK 16/15 Q1019=
201907230430 METAR LRSB 230430Z VRB01KT CAVOK 17/16 Q1019=
201907230500 METAR LRSB 230500Z 07002KT 040V100 CAVOK 19/16 Q1019=
201907230530 METAR LRSB 230530Z 08003KT 050V140 CAVOK 20/16 Q1019=
201907230600 METAR LRSB 230600Z VRB01KT CAVOK 22/16 Q1019=
201907230630 METAR LRSB 230630Z 01005KT 9999 FEW052 21/17 Q1019=
201907230700 METAR LRSB 230700Z 03003KT 330V090 9999 FEW052 23/17 Q1019=
201907230730 METAR LRSB 230730Z 02004KT 320V090 9999 FEW050 23/16 Q1019=
201907230800 METAR LRSB 230800Z 31004KT 250V350 9999 FEW050 24/15 Q1019=
201907230830 METAR LRSB 230830Z 34007KT 290V010 9999 FEW040 25/13 Q1018=
201907230900 METAR LRSB 230900Z 34007KT 310V020 9999 FEW040 FEW047TCU
                        25/12 Q1018=
201907230930 METAR LRSB 230930Z 35006KT 9999 FEW039 FEW046CB 26/13 Q1018=
201907231000 METAR LRSB 231000Z 01006KT 9999 FEW039 FEW045CB 25/12 Q1018=
201907231030 METAR LRSB 231030Z 33005KT 260V070 9999 FEW039 FEW045CB 26/13
                        Q1018=
201907231100 METAR LRSB 231100Z 35007KT 9999 FEW038 FEW045CB 26/13 Q1017=
201907231130 METAR LRSB 231130Z 32009KT 9999 FEW038 FEW044CB 25/11 Q1017=
201907231200 METAR LRSB 231200Z 33007KT 9999 FEW036 SCT042CB 26/11 Q1017=
201907231230 METAR LRSB 231230Z 29010KT 9999 FEW035 SCT042CB 25/14 Q1017=
201907231300 METAR LRSB 231300Z 29009KT 9999 -RA FEW035 SCT042CB BKN087
                        24/14 Q1017=
201907231330 METAR LRSB 231330Z 30012KT 9999 VCSH SCT040CB BKN084 24/13
                        Q1017=
201907231400 METAR LRSB 231400Z 34009KT 300V010 9999 VCSH SCT040CB BKN084
                        22/14 Q1017=
201907231430 METAR LRSB 231430Z 33009KT 9999 VCSH SCT040CB BKN085 20/15
                        Q1017=
201907231500 METAR LRSB 231500Z 34008KT 9999 -SHRA SCT038CB SCT060 BKN082
                        20/15 Q1017=
201907231530 METAR LRSB 231530Z 36007KT 9999 -SHRA FEW038CB SCT056 BKN076
                        19/17 Q1017 R27/29//95=
201907231600 METAR LRSB 231600Z 29004KT 250V330 9999 SCT043CB BKN070 18/16
                        Q1018 R27/29//95=
201907231630 METAR LRSB 231630Z 31004KT 9999 SCT015 SCT040CB BKN070 19/16
                        Q1018=
201907231700 METAR LRSB 231700Z 02003KT 9999 FEW010 SCT040CB BKN050 19/16
                        Q1018=
201907231730 METAR LRSB 231730Z 22004KT 9999 FEW040CB BKN050 18/16 Q1017=
201907231800 METAR LRSB 231800Z 23003KT 9999 FEW035CB BKN040 18/16 Q1018=
201907231830 METAR LRSB 231830Z 13002KT 9999 FEW013 OVC045 18/16 Q1018=
201907231900 METAR LRSB 231900Z 16005KT 9999 FEW010 BKN045 17/16 Q1018=
201907231930 METAR LRSB 231930Z 11003KT 9999 SCT030 BKN050 17/15 Q1018=
201907232000 METAR LRSB 232000Z 13002KT 9999 BKN030 17/15 Q1018=
201907232030 METAR LRSB 232030Z 18002KT 9999 BKN030 17/15 Q1018=
201907232100 METAR LRSB 232100Z VRB01KT 9999 BKN021 18/16 Q1018=
201907232130 METAR LRSB 232130Z VRB02KT 9999 BKN020 18/16 Q1018=
201907232200 METAR LRSB 232200Z 23002KT 9999 BKN020 17/16 Q1018=
201907232230 METAR LRSB 232230Z 29004KT 9999 BKN020 17/16 Q1018=
201907232300 METAR LRSB 232300Z 31003KT 9999 BKN020 18/16 Q1018=
201907232330 METAR LRSB 232330Z 33003KT 9999 BKN021 18/15 Q1018=
201907240000 METAR LRSB 240000Z 34005KT 9999 BKN030 18/15 Q1018=
201907240030 METAR LRSB 240030Z 34004KT 9999 BKN040 18/15 Q1018=
201907240100 METAR LRSB 240100Z 33003KT 9999 BKN024 17/15 Q1017=
201907240130 METAR LRSB 240130Z VRB02KT 9999 OVC021 17/15 Q1017=
201907240200 METAR LRSB 240200Z VRB01KT 9999 OVC021 17/15 Q1017=
201907240230 METAR LRSB 240230Z 00000KT 9999 BKN022 17/14 Q1018=
201907240300 METAR LRSB 240300Z 24003KT 9999 FEW022 SCT060 15/14 Q1018=
201907240330 METAR LRSB 240330Z 29003KT 9999 FEW012 SCT050 15/13 Q1018=
201907240400 METAR LRSB 240400Z 25003KT 9999 FEW011 16/14 Q1018=
201907240430 METAR LRSB 240430Z 35002KT 9999 FEW010 18/15 Q1018=
201907240500 METAR LRSB 240500Z 01004KT 320V050 9999 FEW011 18/15 Q1018=
201907240530 METAR LRSB 240530Z 02003KT 350V050 9999 SCT009 18/15 Q1018=
201907240600 METAR LRSB 240600Z 03004KT 340V070 9999 FEW010 SCT030 19/15
                        Q1018=
201907240630 METAR LRSB 240630Z VRB03KT 9999 FEW010 SCT030 20/15 Q1018=
201907240700 METAR LRSB 240700Z 02002KT 320V130 9999 FEW020 SCT033 20/15
                        Q1018=
201907240730 METAR LRSB 240730Z VRB02KT 9999 SCT033 20/14 Q1018=
201907240800 METAR LRSB 240800Z VRB03KT 9999 FEW025 SCT033 22/14 Q1018=
201907240830 METAR LRSB 240830Z VRB02KT 9999 SCT026 21/14 Q1018=
201907240900 METAR LRSB 240900Z 07005KT 010V140 9999 SCT030 22/14 Q1018=
201907240930 METAR LRSB 240930Z 07005KT 040V130 9999 SCT035 22/13 Q1018=
201907241000 METAR LRSB 241000Z 02004KT 300V070 9999 SCT038 23/13 Q1018=
201907241030 METAR LRSB 241030Z 05005KT 010V080 9999 SCT041 23/12 Q1018=
201907241100 METAR LRSB 241100Z 09006KT 050V110 9999 SCT044 24/12 Q1018=
201907241130 METAR LRSB 241130Z VRB04KT 9999 SCT048 25/12 Q1018=
201907241200 METAR LRSB 241200Z VRB03KT 9999 FEW050 25/11 Q1018=
201907241230 METAR LRSB 241230Z VRB04KT 9999 FEW052 25/11 Q1018=
201907241300 METAR LRSB 241300Z VRB03KT 9999 SCT056 26/11 Q1017=
201907241330 METAR LRSB 241330Z VRB03KT 9999 SCT057 26/11 Q1017=
201907241400 METAR LRSB 241400Z 30008KT 9999 FEW054 26/11 Q1017=
201907241430 METAR LRSB 241430Z 29005KT 250V330 9999 FEW053 26/10 Q1017=
201907241500 METAR LRSB 241500Z 01005KT 340V050 9999 FEW053 SCT074 25/10
                        Q1017=
201907241530 METAR LRSB 241530Z 02006KT 330V030 9999 FEW060 25/11 Q1017=
201907241600 METAR LRSB 241600Z 02005KT 9999 FEW065 24/11 Q1017=
201907241630 METAR LRSB 241630Z 02005KT 350V050 9999 FEW065 SCT083 24/12
                        Q1017=
201907241700 METAR LRSB 241700Z 02005KT 350V050 9999 FEW062 SCT078 24/13
                        Q1017=
201907241730 METAR LRSB 241730Z 36005KT 9999 FEW058 SCT074 23/13 Q1017=
201907241800 METAR LRSB 241800Z 35005KT 9999 FEW058 SCT074 23/13 Q1017=
201907241830 METAR LRSB 241830Z 24005KT 9999 FEW057 SCT074 20/15 Q1018=
201907241900 METAR LRSB 241900Z 27006KT 9999 FEW056 SCT072 20/15 Q1018=
201907241930 METAR LRSB 241930Z 27008KT 9999 FEW055 SCT070 20/14 Q1018=
201907242000 METAR LRSB 242000Z 26008KT 9999 FEW055 SCT074 19/14 Q1018=
201907242030 METAR LRSB 242030Z 26008KT 9999 SCT073 20/14 Q1018=
201907242100 METAR LRSB 242100Z 25006KT 9999 BKN072 19/14 Q1019=
201907242130 METAR LRSB 242130Z 27006KT 9999 FEW065 SCT072 20/14 Q1019=
201907242200 METAR LRSB 242200Z 26006KT 9999 FEW062 SCT071 19/14 Q1019=
201907242230 METAR LRSB 242230Z 26007KT 9999 SCT072 19/14 Q1019=
201907242300 METAR LRSB 242300Z 27006KT 9999 SCT078 19/14 Q1019=
201907242330 METAR LRSB 242330Z 27008KT 9999 SCT052 19/14 Q1019=
201907250000 METAR LRSB 250000Z 25007KT 9999 SCT058 18/14 Q1019=
201907250030 METAR LRSB 250030Z 26007KT 9999 SCT058 18/14 Q1019=
201907250100 METAR LRSB 250100Z 27006KT 9999 SCT060 18/14 Q1019=
201907250130 METAR LRSB 250130Z 27007KT 9999 SCT065 18/14 Q1019=
201907250200 METAR LRSB 250200Z 26007KT 9999 FEW070 18/14 Q1019=
201907250230 METAR COR LRSB 250230Z 22003KT 110V270 9999 SCT075 17/14
                        Q1019=
201907250300 METAR LRSB 250300Z 15002KT 100V210 9999 -RA FEW052 SCT075
                        17/14 Q1019=
201907250330 METAR LRSB 250330Z 15002KT 110V170 9999 FEW052 SCT075 17/15
                        Q1019=
201907250400 METAR LRSB 250400Z 00000KT 9999 FEW055 SCT078 17/15 Q1019=
201907250430 METAR LRSB 250430Z VRB01KT 9999 FEW058 SCT080 18/15 Q1019=
201907250500 METAR LRSB 250500Z VRB01KT 9999 FEW058 SCT080 18/15 Q1019=
201907250530 METAR LRSB 250530Z VRB01KT 9999 BKN064 20/15 Q1020=
201907250600 METAR COR LRSB 250600Z 12002KT 080V150 9999 OVC055 20/15
                        Q1020=
201907250630 METAR LRSB 250630Z 12003KT 080V170 9999 FEW055 BKN069 21/15
                        Q1020=
201907250700 METAR LRSB 250700Z 13003KT 100V180 9999 FEW053 SCT070 22/14
                        Q1020=
201907250730 METAR LRSB 250730Z 08004KT 350V140 9999 FEW054 BKN070 22/14
                        Q1020=
201907250800 METAR LRSB 250800Z 04004KT 350V090 9999 OVC073 23/14 Q1019=
201907250830 METAR LRSB 250830Z 04005KT 340V070 9999 SCT053 BKN083 23/15
                        Q1019=
201907250900 METAR LRSB 250900Z 35004KT 9999 SCT038 BKN083 24/13 Q1019=
201907250930 METAR LRSB 250930Z 02005KT 350V060 9999 SCT039 BKN083 24/14
                        Q1019=
201907251000 METAR LRSB 251000Z VRB03KT 9999 BKN053 25/13 Q1019=
201907251030 METAR LRSB 251030Z 09005KT 040V150 9999 BKN043 25/14 Q1019=
201907251100 METAR LRSB 251100Z VRB02KT 9999 BKN045 26/13 Q1019=
201907251130 METAR LRSB 251130Z VRB04KT 9999 BKN045 26/15 Q1019=
201907251200 METAR LRSB 251200Z VRB03KT 9999 BKN048 26/14 Q1019=
201907251230 METAR LRSB 251230Z VRB04KT 9999 BKN047 26/14 Q1018=
201907251300 METAR LRSB 251300Z 01005KT 320V070 9999 BKN050 27/13 Q1018=
201907251330 METAR LRSB 251330Z 35005KT 9999 BKN050 27/13 Q1018=
201907251400 METAR LRSB 251400Z 02006KT 350V050 9999 BKN050 27/13 Q1018=
201907251430 METAR LRSB 251430Z 03004KT 360V060 9999 BKN050 26/13 Q1018=
201907251500 METAR LRSB 251500Z 02003KT 340V060 9999 BKN050 26/13 Q1018=
201907251530 METAR LRSB 251530Z 02003KT 330V050 9999 SCT050 26/13 Q1018=
201907251600 METAR LRSB 251600Z 36004KT 9999 SCT046 26/14 Q1018=
201907251630 METAR LRSB 251630Z 36004KT 330V030 9999 FEW046 26/14 Q1018=
201907251700 METAR LRSB 251700Z 01003KT 320V040 9999 FEW043 SCT080 26/14
                        Q1018=
201907251730 METAR LRSB 251730Z 01002KT 9999 FEW048 BKN083 25/14 Q1018=
201907251800 METAR LRSB 251800Z 16002KT 9999 SCT056 BKN084 24/15 Q1018=
201907251830 METAR LRSB 251830Z 25002KT 200V330 9999 FEW056 SCT082 22/16
                        Q1018=
201907251900 METAR LRSB 251900Z 27004KT 9999 SCT058 BKN086 21/16 Q1018=
201907251930 METAR LRSB 251930Z 23006KT 9999 SCT057 BKN072 21/16 Q1018=
201907252000 METAR LRSB 252000Z 25005KT 9999 FEW056 SCT081 21/16 Q1018=
201907252030 METAR LRSB 252030Z 25006KT 9999 FEW048 21/16 Q1018=
201907252100 METAR LRSB 252100Z 32005KT 250V020 9999 SCT048 21/16 Q1018=
201907252130 METAR LRSB 252130Z 27004KT 9999 FEW051 20/15 Q1017=
201907252200 METAR LRSB 252200Z 00000KT CAVOK 20/15 Q1017=
201907252230 METAR LRSB 252230Z 00000KT CAVOK 19/15 Q1017=
201907252300 METAR LRSB 252300Z 15003KT 050V220 CAVOK 17/15 Q1017=
201907252330 METAR LRSB 252330Z 07002KT CAVOK 18/15 Q1017=
201907260000 METAR LRSB 260000Z 09002KT CAVOK 17/14 Q1017=
201907260030 METAR LRSB 260030Z 04002KT CAVOK 17/14 Q1016=
201907260100 METAR LRSB 260100Z VRB01KT CAVOK 17/14 Q1016=
201907260130 METAR LRSB 260130Z 28002KT CAVOK 15/13 Q1016=
201907260200 METAR COR LRSB 260200Z 32002KT CAVOK 15/13 Q1016=
201907260230 METAR LRSB 260230Z VRB01KT CAVOK 15/13 Q1016=
201907260300 METAR LRSB 260300Z 00000KT CAVOK 15/13 Q1016=
201907260330 METAR LRSB 260330Z 00000KT CAVOK 15/13 Q1016=
201907260400 METAR LRSB 260400Z 07002KT 040V100 9999 SCT067 18/15 Q1015=
201907260430 METAR LRSB 260430Z 09002KT 9999 FEW059 18/15 Q1015=
201907260500 METAR LRSB 260500Z VRB02KT CAVOK 20/15 Q1015=
201907260530 METAR LRSB 260530Z VRB02KT CAVOK 21/15 Q1015=
201907260600 METAR LRSB 260600Z VRB01KT CAVOK 22/14 Q1015=
201907260630 METAR LRSB 260630Z VRB02KT CAVOK 23/14 Q1015=
201907260700 METAR COR LRSB 260700Z VRB02KT CAVOK 23/14 Q1015=
201907260730 METAR LRSB 260730Z VRB01KT CAVOK 25/15 Q1015=
201907260800 METAR LRSB 260800Z VRB02KT CAVOK 25/15 Q1015=
201907260830 METAR LRSB 260830Z 02005KT 350V070 CAVOK 26/15 Q1014=
201907260900 METAR COR LRSB 260900Z VRB03KT CAVOK 27/14 Q1014=
201907260930 METAR LRSB 260930Z VRB02KT CAVOK 27/15 Q1014=
201907261000 METAR LRSB 261000Z 33006KT 240V020 9999 SCT050 27/14 Q1014=
201907261030 METAR LRSB 261030Z 26004KT 220V300 9999 SCT045 27/14 Q1014=
201907261100 METAR LRSB 261100Z 25005KT 220V280 9999 FEW065 28/14 Q1013=
201907261130 METAR LRSB 261130Z 25005KT 220V280 9999 SCT050 28/14 Q1013=
201907261200 METAR LRSB 261200Z 25005KT 200V280 9999 SCT050 27/13 Q1013=
201907261230 METAR LRSB 261230Z 24004KT 9999 SCT050 28/15 Q1013=
201907261300 METAR LRSB 261300Z 23005KT 110V270 9999 SCT050 28/13 Q1012=
201907261330 METAR LRSB 261330Z 20006KT 160V230 9999 SCT050 28/15 Q1012=
201907261400 METAR LRSB 261400Z VRB04KT 9999 SCT050 29/11 Q1012=
201907261430 METAR LRSB 261430Z 22004KT 9999 SCT050 29/13 Q1011=
201907261500 METAR LRSB 261500Z VRB04KT 9999 SCT050 29/12 Q1011=
201907261530 METAR COR LRSB 261530Z 23005KT 170V260 9999 SCT050 29/11
                        Q1011=
201907261600 METAR LRSB 261600Z VRB04KT 9999 FEW050 29/11 Q1011=
201907261630 METAR LRSB 261630Z VRB03KT 9999 FEW050 28/13 Q1011=
201907261700 METAR LRSB 261700Z 36006KT 9999 FEW055 27/12 Q1011=
201907261730 METAR LRSB 261730Z 03004KT 9999 FEW055 26/14 Q1011=
201907261800 METAR LRSB 261800Z 25007KT CAVOK 22/15 Q1011=
201907261830 METAR LRSB 261830Z 26007KT CAVOK 21/14 Q1011=
201907261900 METAR LRSB 261900Z 26007KT CAVOK 20/14 Q1011=
201907261930 METAR LRSB 261930Z VRB02KT CAVOK 19/14 Q1011=
201907262000 METAR LRSB 262000Z VRB01KT CAVOK 19/14 Q1011=
201907262030 METAR LRSB 262030Z 22002KT 160V240 CAVOK 18/14 Q1011=
201907262100 METAR LRSB 262100Z 17002KT 140V230 CAVOK 17/14 Q1011=
201907262130 METAR LRSB 262130Z 24001KT CAVOK 17/13 Q1010=
201907262200 METAR LRSB 262200Z 32002KT CAVOK 17/12 Q1011=
201907262230 METAR COR LRSB 262230Z 00000KT CAVOK 16/13 Q1010=
201907262300 METAR LRSB 262300Z 00000KT CAVOK 16/13 Q1010=
201907262330 METAR LRSB 262330Z 00000KT CAVOK 16/13 Q1010=
201907270000 METAR LRSB 270000Z VRB01KT CAVOK 17/13 Q1010=
201907270030 METAR LRSB 270030Z AUTO 01002KT 9999 NCD 15/13 Q1010=
201907270100 METAR LRSB 270100Z 36005KT CAVOK 16/14 Q1010=
201907270130 METAR LRSB 270130Z 22005KT CAVOK 14/12 Q1010=
201907270200 METAR LRSB 270200Z 24003KT 190V250 CAVOK 14/12 Q1010=
201907270230 METAR COR LRSB 270230Z 32003KT 290V030 CAVOK 16/11 Q1010=
201907270300 METAR LRSB 270300Z 07002KT 030V120 CAVOK 15/12 Q1010=
201907270330 METAR LRSB 270330Z 07003KT 010V120 CAVOK 16/12 Q1010=
201907270400 METAR LRSB 270400Z 15002KT CAVOK 16/13 Q1010=
201907270430 METAR LRSB 270430Z 00000KT CAVOK 18/13 Q1010=
201907270500 METAR LRSB 270500Z 09004KT 040V110 CAVOK 19/14 Q1010=
201907270530 METAR LRSB 270530Z 08003KT CAVOK 20/14 Q1010=
201907270600 METAR LRSB 270600Z 10002KT 040V130 CAVOK 21/14 Q1010=
201907270630 METAR LRSB 270630Z 14003KT 100V180 CAVOK 22/14 Q1010=
201907270700 METAR LRSB 270700Z 13003KT 090V160 CAVOK 23/14 Q1010=
201907270730 METAR LRSB 270730Z 10004KT 040V130 CAVOK 24/15 Q1010=
201907270800 METAR LRSB 270800Z VRB03KT 9999 FEW054 25/16 Q1010=
201907270830 METAR LRSB 270830Z VRB04KT 9999 FEW052 26/16 Q1009=
201907270900 METAR LRSB 270900Z 13006KT 090V180 9999 FEW050 27/16 Q1009=
201907270930 METAR LRSB 270930Z 12007KT 090V160 9999 FEW050TCU 28/16 Q1009=
201907271000 METAR LRSB 271000Z 14006KT 100V210 9999 FEW048TCU 28/16 Q1009=
201907271030 METAR LRSB 271030Z 15007KT 100V190 9999 FEW045CB FEW047TCU
                        28/15 Q1009=
201907271100 METAR LRSB 271100Z 14009KT 9999 VCTS FEW045CB FEW047TCU 29/17
                        Q1009=
201907271130 METAR LRSB 271130Z 15010KT 130V190 9999 FEW045CB FEW046TCU
                        28/16 Q1009=
201907271200 METAR LRSB 271200Z 19009KT 170V230 9999 FEW043CB FEW046TCU
                        28/17 Q1009=
201907271230 METAR LRSB 271230Z 14008KT 100V160 9999 FEW046TCU 29/16 Q1008=
201907271300 METAR LRSB 271300Z 14010KT 110V170 9999 FEW045TCU 29/17 Q1008=
201907271330 METAR LRSB 271330Z 15008KT 9999 FEW043TCU 29/17 Q1008=
201907271400 METAR LRSB 271400Z 15009KT 9999 FEW040CB 29/17 Q1008=
201907271430 METAR COR LRSB 271430Z 14010KT 9999 VCTS VCSH FEW040CB SCT078
                        29/16 Q1007=
201907271500 METAR LRSB 271500Z 21017KT 170V230 9999 TS VCSH SCT037CB
                        BKN068 27/16 Q1008=
201907271530 METAR LRSB 271530Z 20006KT 170V230 9999 -SHRA VCTS SCT035CB
                        SCT068 24/18 Q1008 R27/29//95=
201907271600 METAR LRSB 271600Z VRB02KT 9999 VCSH SCT035CB SCT072 25/18
                        Q1008 R27/29//95=
201907271630 METAR LRSB 271630Z VRB02KT 9999 FEW036CB 24/18 Q1008 R27/29//95=
201907271700 METAR LRSB 271700Z VRB02KT 9999 FEW036CB 24/18 Q1008 R27/29//95=
201907271730 METAR LRSB 271730Z 19003KT 140V240 9999 FEW080 25/18 Q1008
                        R27/CLRD//=
201907271800 METAR LRSB 271800Z 17004KT 130V210 CAVOK 24/17 Q1008=
201907271830 METAR LRSB 271830Z VRB02KT CAVOK 24/17 Q1008=
201907271900 METAR LRSB 271900Z 16004KT CAVOK 23/17 Q1008=
201907271930 METAR LRSB 271930Z 16004KT 140V200 CAVOK 23/17 Q1008=
201907272000 METAR LRSB 272000Z 13005KT 100V160 CAVOK 23/16 Q1008=
201907272030 METAR LRSB 272030Z 15004KT 120V210 CAVOK 24/16 Q1008=
201907272100 METAR LRSB 272100Z 12006KT CAVOK 22/16 Q1008=
201907272130 METAR LRSB 272130Z 15005KT 130V190 CAVOK 23/16 Q1008=
201907272200 METAR LRSB 272200Z 16005KT 130V200 CAVOK 21/16 Q1008=
201907272230 METAR LRSB 272230Z 22003KT 180V240 CAVOK 18/16 Q1008=
201907272300 METAR LRSB 272300Z VRB01KT CAVOK 19/16 Q1008=
201907272330 METAR LRSB 272330Z 12005KT CAVOK 19/16 Q1008=
201907280000 METAR LRSB 280000Z 14004KT 110V180 CAVOK 22/16 Q1008=
201907280030 METAR LRSB 280030Z 12005KT CAVOK 22/15 Q1008=
201907280100 METAR LRSB 280100Z 12006KT CAVOK 21/15 Q1008=
201907280130 METAR LRSB 280130Z 10004KT 080V150 CAVOK 22/15 Q1008=
201907280200 METAR LRSB 280200Z 11006KT CAVOK 21/15 Q1007=
201907280230 METAR LRSB 280230Z 13005KT CAVOK 20/15 Q1008=
201907280300 METAR LRSB 280300Z VRB02KT CAVOK 17/14 Q1008=
201907280330 METAR LRSB 280330Z VRB01KT CAVOK 17/15 Q1008=
201907280400 METAR LRSB 280400Z 13004KT CAVOK 20/16 Q1008=
201907280430 METAR LRSB 280430Z VRB01KT 7000 NSC 21/16 Q1008=
201907280500 METAR LRSB 280500Z 12002KT 030V170 CAVOK 22/16 Q1008=
201907280530 METAR LRSB 280530Z 12005KT 090V160 CAVOK 24/17 Q1008=
201907280600 METAR LRSB 280600Z 11008KT CAVOK 25/18 Q1008=
201907280630 METAR LRSB 280630Z 13008KT CAVOK 28/17 Q1008=
201907280700 METAR LRSB 280700Z 13010KT 110V170 CAVOK 28/16 Q1008=
201907280730 METAR LRSB 280730Z 14012KT CAVOK 29/16 Q1008=
201907280800 METAR LRSB 280800Z 13011KT CAVOK 30/16 Q1008=
201907280830 METAR LRSB 280830Z 14012KT CAVOK 30/16 Q1008=
201907280900 METAR LRSB 280900Z 14012KT CAVOK 31/16 Q1008=
201907280930 METAR LRSB 280930Z 15014KT CAVOK 30/14 Q1008=
201907281000 METAR LRSB 281000Z 16013KT CAVOK 31/14 Q1008=
201907281030 METAR LRSB 281030Z 15013KT CAVOK 31/14 Q1007=
201907281100 METAR LRSB 281100Z 15015KT 120V180 CAVOK 30/14 Q1007=
201907281130 METAR LRSB 281130Z 15016KT CAVOK 31/14 Q1007=
201907281200 METAR LRSB 281200Z 15015KT CAVOK 31/14 Q1007=
201907281230 METAR LRSB 281230Z 14017KT CAVOK 31/14 Q1007=
201907281300 METAR LRSB 281300Z 14016KT CAVOK 31/14 Q1006=
201907281330 METAR LRSB 281330Z 15016KT CAVOK 31/14 Q1006=
201907281400 METAR LRSB 281400Z 14014KT CAVOK 31/14 Q1006=
201907281430 METAR LRSB 281430Z 14013KT CAVOK 30/13 Q1005=
201907281500 METAR LRSB 281500Z 14013KT CAVOK 30/14 Q1005=
201907281530 METAR LRSB 281530Z 16010KT 9999 FEW050 30/14 Q1005=
201907281600 METAR LRSB 281600Z 14012KT 9999 FEW050 29/13 Q1005=
201907281630 METAR LRSB 281630Z 16008KT 9999 FEW052 28/13 Q1005=
201907281700 METAR LRSB 281700Z 17006KT 9999 FEW055 27/13 Q1005=
201907281730 METAR LRSB 281730Z 16005KT 9999 FEW087 26/12 Q1005=
201907281800 METAR LRSB 281800Z 17007KT 9999 FEW085 25/12 Q1005=
201907281830 METAR LRSB 281830Z 16007KT 9999 FEW085 25/12 Q1006=
201907281900 METAR LRSB 281900Z 18007KT 9999 FEW082 25/10 Q1006=
201907281930 METAR LRSB 281930Z 18006KT 9999 FEW082 25/11 Q1006=
201907282000 METAR LRSB 282000Z 17011KT 9999 FEW082 26/09 Q1005=
201907282030 METAR LRSB 282030Z 16010KT 9999 FEW085 26/10 Q1005=
201907282100 METAR LRSB 282100Z 17010KT 9999 FEW085 26/10 Q1005=
201907282130 METAR LRSB 282130Z 17014KT 9999 FEW084 26/09 Q1005=
201907282200 METAR LRSB 282200Z 16013G24KT 9999 FEW084 26/10 Q1005=
201907282230 METAR LRSB 282230Z 16012KT 9999 FEW050CB SCT082 26/10 Q1005=
201907282300 METAR LRSB 282300Z 17008KT 140V210 9999 FEW050CB SCT082 25/10
                        Q1005=
201907282330 METAR LRSB 282330Z 26004KT 220V290 9999 FEW050CB SCT080 24/11
                        Q1005=
201907290000 METAR LRSB 290000Z 18009KT 150V210 9999 -RA FEW046CB SCT072
                        24/12 Q1006=
201907290030 METAR LRSB 290030Z 20011KT 9999 -RA SCT046CB BKN072 21/14
                        Q1006=
201907290100 METAR LRSB 290100Z 23006KT 9999 FEW046CB BKN070 20/14 Q1006=
201907290130 METAR LRSB 290130Z 25007KT 9999 -SHRA SCT045CB BKN080 21/13
                        Q1005=
201907290200 METAR LRSB 290200Z 19007KT 9999 SCT045CB BKN080 22/11 Q1005=
201907290230 METAR LRSB 290230Z 20011KT 9999 FEW047CB BKN083 23/10 Q1005=
201907290300 METAR LRSB 290300Z 17008KT 140V200 9999 FEW048CB SCT083 23/09
                        Q1005=
201907290330 METAR LRSB 290330Z 13009KT 9999 -SHRA SCT045CB SCT080 22/11
                        Q1005=
201907290400 METAR LRSB 290400Z 11009KT 9999 -SHRA SCT045CB SCT080 19/14
                        Q1005 R27/19//95=
201907290430 METAR LRSB 290430Z 12004KT 9999 -SHRA SCT046CB SCT082 19/14
                        Q1006 R27/19//95=
201907290500 METAR LRSB 290500Z 11003KT 9999 -SHRA SCT040CB BKN086 19/14
                        Q1006 R27/19//95=
201907290530 METAR LRSB 290530Z VRB01KT 9999 -SHRA SCT040CB BKN079 20/15
                        Q1006 R27/19//95=
201907290600 METAR LRSB 290600Z 12002KT 090V160 9999 -SHRA SCT040CB BKN072
                        20/16 Q1006 R27/19//95=
201907290630 METAR LRSB 290630Z 09004KT 9999 -SHRA SCT040CB OVC072 20/16
                        Q1006 R27/19//95=
201907290700 METAR LRSB 290700Z 24002KT 210V270 9999 SCT040CB OVC060 20/16
                        Q1006 REDZ R27/19//95=
201907290730 METAR LRSB 290730Z 25002KT 220V290 9999 -RA SCT045 OVC071
                        21/15 Q1006 R27/19//95=
201907290800 METAR LRSB 290800Z 26004KT 210V290 9999 -RA SCT045 OVC062
                        21/15 Q1006 R27/19//95=
201907290830 METAR LRSB 290830Z 23004KT 9999 -RA SCT040 OVC083 21/14 Q1007
                        R27/19//95=
201907290900 METAR LRSB 290900Z 20003KT 160V240 9999 -RA SCT040 OVC071
                        22/14 Q1007 R27/19//95=
201907290930 METAR LRSB 290930Z 16003KT 120V190 9999 SCT047 22/14 Q1007
                        REDZ R27/19//95=
201907291000 METAR LRSB 291000Z VRB02KT 9999 SCT050 22/14 Q1007 R27/19//95=
201907291030 METAR LRSB 291030Z 23003KT 180V290 9999 SCT053 23/14 Q1007
                        R27/19//95=
201907291100 METAR LRSB 291100Z VRB01KT 9999 SCT075 23/14 Q1007 R27/19//95=
201907291130 METAR LRSB 291130Z 10003KT 060V140 9999 BKN086 23/14 Q1007
                        R27/CLRD//=
201907291200 METAR LRSB 291200Z 12004KT 090V150 9999 SCT080 23/14 Q1007
                        R27/CLRD//=
201907291230 METAR LRSB 291230Z 13007KT 9999 SCT053 23/14 Q1007=
201907291300 METAR LRSB 291300Z 15007KT 9999 SCT054 23/15 Q1007=
201907291330 METAR LRSB 291330Z 15005KT 9999 SCT053 23/15 Q1007=
201907291400 METAR LRSB 291400Z 14006KT 9999 SCT057 23/14 Q1007=
201907291430 METAR LRSB 291430Z 15005KT CAVOK 23/14 Q1007 REDZ=
201907291500 METAR LRSB 291500Z 14006KT CAVOK 23/14 Q1006=
201907291530 METAR LRSB 291530Z 12005KT CAVOK 24/14 Q1006=
201907291600 METAR LRSB 291600Z 14005KT CAVOK 24/14 Q1006=
201907291630 METAR LRSB 291630Z 13006KT 9999 FEW030 23/14 Q1007=
201907291700 METAR LRSB 291700Z 13005KT 9999 FEW030 22/15 Q1007=
201907291730 METAR LRSB 291730Z 15002KT 9999 SCT033 21/15 Q1007=
201907291800 METAR LRSB 291800Z 00000KT 9999 FEW033 20/15 Q1007=
201907291830 METAR LRSB 291830Z 00000KT CAVOK 20/15 Q1007=
201907291900 METAR LRSB 291900Z 00000KT CAVOK 17/15 Q1007=
201907291930 METAR LRSB 291930Z 00000KT CAVOK 17/15 Q1008=
201907292000 METAR LRSB 292000Z 27004KT 9999 FEW072 18/15 Q1008=
201907292030 METAR LRSB 292030Z 27003KT 9999 SCT070 18/14 Q1008=
201907292100 METAR LRSB 292100Z 00000KT 9999 OVC071 17/14 Q1008=
201907292130 METAR LRSB 292130Z 21002KT 9999 BKN067 18/15 Q1008=
201907292200 METAR LRSB 292200Z 21002KT 9999 BKN067 18/15 Q1008=
201907292230 METAR LRSB 292230Z 24004KT 9999 FEW068 17/14 Q1008=
201907292300 METAR LRSB 292300Z 00000KT CAVOK 16/14 Q1008=
201907292330 METAR LRSB 292330Z 00000KT CAVOK 17/14 Q1008=
201907300000 METAR LRSB 300000Z 00000KT 9999 FEW056 16/14 Q1008=
201907300030 METAR LRSB 300030Z AUTO 29003KT 9999 SCT058/// 17/14 Q1008=
201907300100 METAR LRSB 300100Z 00000KT 9999 BKN057 17/14 Q1008=
201907300130 METAR COR LRSB 300130Z 00000KT 9999 BKN028 SCT059 17/15 Q1008=
201907300200 METAR LRSB 300200Z VRB01KT 9999 SCT028 SCT056 17/15 Q1008=
201907300230 METAR LRSB 300230Z 00000KT 9999 FEW024 17/14 Q1008=
201907300300 METAR LRSB 300300Z 01002KT 9999 -RA BKN025 SCT056 17/15 Q1008=
201907300330 METAR LRSB 300330Z 29002KT 9999 OVC028 17/15 Q1008 R27/19//95=
201907300400 METAR LRSB 300400Z 25004KT 9999 BKN027 17/15 Q1009 R27/19//95=
201907300430 METAR LRSB 300430Z 31003KT 280V350 9999 BKN028 18/15 Q1009
                        R27/19//95=
201907300500 METAR LRSB 300500Z 32003KT 9999 BKN028 19/15 Q1009 R27/19//95=
201907300530 METAR LRSB 300530Z 32003KT 290V360 9999 BKN028 21/16 Q1009
                        R27/CLRD//=
201907300600 METAR LRSB 300600Z 10003KT 070V140 9999 SCT029 21/17 Q1010=
201907300630 METAR LRSB 300630Z 13003KT 9999 BKN028 21/17 Q1010=
201907300700 METAR LRSB 300700Z VRB02KT 9999 BKN029 21/17 Q1010=
201907300730 METAR LRSB 300730Z VRB01KT 9999 BKN030 22/17 Q1010=
201907300800 METAR LRSB 300800Z 32003KT 280V010 9999 SCT030 SCT044 23/16
                        Q1010=
201907300830 METAR LRSB 300830Z 33006KT 290V360 9999 BKN030 23/16 Q1010=
201907300900 METAR LRSB 300900Z 35005KT 9999 BKN028 23/16 Q1010=
201907300930 METAR LRSB 300930Z VRB03KT 9999 SCT032 24/17 Q1010=
201907301000 METAR LRSB 301000Z VRB04KT 9999 BKN032 24/17 Q1010=
201907301030 METAR LRSB 301030Z 21005KT 150V260 9999 SCT032 24/17 Q1010=
201907301100 METAR LRSB 301100Z VRB02KT 9999 FEW032 SCT044 26/18 Q1010=
201907301130 METAR LRSB 301130Z VRB04KT 9999 FEW033 SCT044 26/17 Q1010=
201907301200 METAR LRSB 301200Z 10004KT 030V150 9999 SCT033 SCT044 26/17
                        Q1010=
201907301230 METAR LRSB 301230Z 23004KT 170V330 9999 FEW035 SCT045 26/17
                        Q1010=
201907301300 METAR LRSB 301300Z 21003KT 9999 FEW035 SCT045 27/17 Q1009=
201907301330 METAR LRSB 301330Z VRB04KT 9999 FEW036 28/17 Q1009=
201907301400 METAR LRSB 301400Z VRB03KT 9999 FEW044 28/16 Q1009=
201907301430 METAR LRSB 301430Z 20004KT 170V240 9999 FEW043 28/17 Q1009=
201907301500 METAR LRSB 301500Z 36003KT 320V080 9999 FEW045 28/16 Q1009=
201907301530 METAR LRSB 301530Z 30004KT 250V350 9999 FEW045 28/16 Q1008=
201907301600 METAR LRSB 301600Z 27005KT 230V320 9999 FEW048 28/16 Q1008=
201907301630 METAR LRSB 301630Z 29005KT 9999 FEW050 26/17 Q1009=
201907301700 METAR LRSB 301700Z 30012KT 9999 SCT049 26/17 Q1009=
201907301730 METAR LRSB 301730Z 29010KT 9999 FEW052 25/17 Q1009=
201907301800 METAR LRSB 301800Z 27007KT 9999 FEW055 23/17 Q1009=
201907301830 METAR LRSB 301830Z 24007KT 9999 SCT077 22/17 Q1010=
201907301900 METAR LRSB 301900Z VRB01KT 9999 OVC060 23/17 Q1010=
201907301930 METAR LRSB 301930Z 25003KT 9999 SCT064 22/17 Q1010=
201907302000 METAR LRSB 302000Z 26006KT 9999 BKN059 23/17 Q1010=
201907302030 METAR LRSB 302030Z 27004KT 9999 SCT054 SCT071 22/17 Q1011=
201907302100 METAR LRSB 302100Z 30005KT 9999 FEW049 22/17 Q1011=
201907302130 METAR LRSB 302130Z 25002KT 9999 SCT049 22/17 Q1011=
201907302200 METAR LRSB 302200Z AUTO 00000KT 9999 SCT042/// 22/17 Q1011=
201907302230 METAR LRSB 302230Z 00000KT 9999 OVC037 21/17 Q1011=
201907302300 METAR LRSB 302300Z 00000KT 9999 BKN037 22/17 Q1011=
201907302330 METAR LRSB 302330Z AUTO 00000KT 9999 BKN036/// SCT046///
                        21/17 Q1011=
201907310000 METAR COR LRSB 310000Z 00000KT 9999 SCT036 20/17 Q1011=
201907310030 METAR LRSB 310030Z 00000KT 9999 SCT060 20/17 Q1011=
201907310100 METAR LRSB 310100Z AUTO 23003KT 9999 BKN076/// 19/17 Q1011=
201907310130 METAR LRSB 310130Z AUTO 28002KT 220V340 9999 FEW073/// 20/17
                        Q1011=
201907310200 METAR LRSB 310200Z VRB01KT CAVOK 19/17 Q1011=
201907310230 METAR LRSB 310230Z 07002KT 030V100 CAVOK 18/17 Q1011=
201907310300 METAR LRSB 310300Z 00000KT CAVOK 17/16 Q1011=
201907310330 METAR LRSB 310330Z VRB01KT CAVOK 17/16 Q1011=
201907310400 METAR LRSB 310400Z VRB01KT CAVOK 18/17 Q1011=
201907310430 METAR LRSB 310430Z VRB01KT CAVOK 20/17 Q1011=
201907310500 METAR LRSB 310500Z 09003KT CAVOK 21/17 Q1011=
201907310530 METAR LRSB 310530Z 09002KT 050V120 CAVOK 23/17 Q1011=
201907310600 METAR LRSB 310600Z 09003KT 060V130 CAVOK 24/17 Q1012=
201907310630 METAR LRSB 310630Z 09003KT 010V140 9999 FEW052 25/18 Q1012=
201907310700 METAR LRSB 310700Z VRB03KT 9999 FEW050 26/18 Q1012=
201907310730 METAR LRSB 310730Z 02006KT 330V060 9999 FEW050 27/19 Q1012=
201907310800 METAR LRSB 310800Z 31007KT 9999 FEW031 FEW045CB 27/18 Q1012=
201907310830 METAR LRSB 310830Z 33004KT 270V010 9999 FEW031 FEW043CB 28/18
                        Q1012=
201907310900 METAR LRSB 310900Z 31008KT 9999 VCSH FEW030 FEW042CB 27/17
                        Q1012=
201907310930 METAR LRSB 310930Z 32006KT 9999 VCSH FEW030 FEW041CB 27/18
                        Q1012=
201907311000 METAR LRSB 311000Z 32006KT 280V340 9999 VCSH FEW029 SCT040CB
                        28/17 Q1012=
201907311030 METAR LRSB 311030Z 13008KT 9999 VCTS VCSH FEW029 SCT040CB
                        25/19 Q1012=
201907311100 METAR LRSB 311100Z 14009KT 9999 VCSH FEW014 SCT028 BKN039CB
                        23/20 Q1012 R27/29//95=
201907311130 METAR LRSB 311130Z 11005KT 9999 4000NW SHRA VCTS FEW022 SCT030
                        BKN040CB 24/21 Q1012 R27/29//95=
201907311200 METAR LRSB 311200Z 14005KT 9999 -TSRA FEW015 SCT025 BKN038CB
                        24/20 Q1012 RESHRA R27/29//95=
201907311230 METAR LRSB 311230Z 35011KT 9999 VCTS VCSH FEW015 SCT023 BKN037CB
                        24/19 Q1013 R27/29//95=
201907311300 METAR LRSB 311300Z 31008KT 8000 SHRA VCTS FEW020 BKN036CB
                        BKN042 22/20 Q1012 R27/29//95=
201907311330 METAR LRSB 311330Z 24008KT 9000 -SHRA VCTS FEW025 SCT040CB
                        BKN055 22/20 Q1012 R27/29//95=
201907311400 METAR LRSB 311400Z 25007KT 9999 FEW026 SCT040CB 25/20 Q1012
                        R27/29//95=
201907311430 METAR LRSB 311430Z 29007KT 9999 FEW026 SCT040CB 26/20 Q1012
                        R27/29//95=
201907311500 METAR LRSB 311500Z 27006KT 9999 FEW028 SCT042CB 25/20 Q1012
                        R27/CLRD//=
201907311530 METAR LRSB 311530Z 27006KT 9999 FEW030 FEW045CB 24/19 Q1012=
201907311600 METAR LRSB 311600Z 30008KT 9999 FEW030 FEW045CB 24/19 Q1012=
201907311630 METAR LRSB 311630Z 30006KT 9999 FEW030 FEW046CB 24/19 Q1012=
201907311700 METAR LRSB 311700Z 26005KT 9999 FEW033 FEW046CB 22/19 Q1012=
201907311730 METAR LRSB 311730Z 32003KT 9999 FEW033 FEW046CB 22/18 Q1013=
201907311800 METAR LRSB 311800Z VRB02KT 9999 FEW034 FEW045CB 22/18 Q1013=
201907311830 METAR LRSB 311830Z VRB01KT 9999 FEW034 FEW045CB 21/19 Q1014=
201907311900 METAR LRSB 311900Z VRB02KT 9999 FEW036 FEW045CB 21/19 Q1014=
201907311930 METAR LRSB 311930Z VRB01KT 9999 FEW036 FEW044CB 21/19 Q1014=
201907312000 METAR LRSB 312000Z 00000KT 9999 SCT036 21/19 Q1014=
201907312030 METAR LRSB 312030Z VRB01KT 9999 SCT036 20/18 Q1014=
201907312100 METAR LRSB 312100Z 23002KT 8000 FEW036 20/18 Q1014=
201907312130 METAR LRSB 312130Z 01004KT 9000 FEW038 20/19 Q1014=
201907312200 METAR LRSB 312200Z 00000KT 8000 SCT040 20/18 Q1014=
201907312230 METAR LRSB 312230Z 00000KT 8000 FEW042 20/18 Q1014=
201907312300 METAR LRSB 312300Z 00000KT 8000 FEW042 19/18 Q1014=
201907312330 METAR LRSB 312330Z 00000KT 8000 SCT042 20/19 Q1014=
