201908010000 METAR LRSB 010000Z 00000KT 8000 FEW040CB SCT044 20/18 Q1014=
201908010030 METAR LRSB 010030Z 00000KT 7000 FEW040CB SCT044 19/18 Q1014=
201908010100 METAR LRSB 010100Z 00000KT 6000 FEW032 FEW040CB 19/18 Q1014=
201908010130 METAR LRSB 010130Z 00000KT 6000 SCT032 19/18 Q1013=
201908010200 METAR LRSB 010200Z 20003KT 170V230 8000 SCT032 18/17 Q1013=
201908010230 METAR LRSB 010230Z VRB02KT 9999 SCT033 19/17 Q1013=
201908010300 METAR LRSB 010300Z VRB02KT 9999 SCT034 19/17 Q1014=
201908010330 METAR LRSB 010330Z VRB02KT 9999 FEW035 19/18 Q1014=
201908010400 METAR LRSB 010400Z 24004KT 200V270 6000 -SHRA SCT032 FEW038CB
                        18/17 Q1014 R27/29//95=
201908010430 METAR LRSB 010430Z 32004KT 6000 FEW032 FEW037CB 19/18 Q1014
                        R27/29//95=
201908010500 METAR LRSB 010500Z 32005KT 9000 FEW021 SCT031 20/18 Q1014
                        R27/CLRD//=
201908010530 METAR LRSB 010530Z 35006KT 6000 -SHRA VCTS FEW006 BKN028
                        SCT033CB 20/18 Q1014=
201908010600 METAR LRSB 010600Z 32005KT 290V350 7000 FEW004 SCT024 SCT033CB
                        20/18 Q1015 R27/19//95=
201908010630 METAR LRSB 010630Z VRB01KT 4000 SHRA BR FEW008 BKN030CB 19/18
                        Q1015 R27/19//95=
201908010700 METAR LRSB 010700Z VRB01KT 5000 -SHRA BR FEW006 SCT036CB
                        BKN043 19/18 Q1015 RESHRA R27/29//95=
201908010730 METAR LRSB 010730Z 13004KT 4000 -SHRA BR FEW007 SCT021 SCT036CB
                        19/18 Q1015 R27/29//95=
201908010800 METAR LRSB 010800Z 12005KT 7000 FEW004 BKN023 SCT034CB 20/19
                        Q1015 R27/29//95=
201908010830 METAR LRSB 010830Z 11007KT 9999 FEW003 SCT025 FEW034CB 20/19
                        Q1015 R27/29//95=
201908010900 METAR LRSB 010900Z 13007KT 9999 -SHRA SCT026 SCT032CB 21/18
                        Q1015 R27/29//95=
201908010930 METAR LRSB 010930Z 15005KT 110V170 9999 SCT027 SCT056 22/19
                        Q1015 R27/29//95=
201908011000 METAR LRSB 011000Z VRB02KT 9999 SCT031 24/18 Q1014 R27/CLRD//=
201908011030 METAR LRSB 011030Z 12005KT 070V170 9999 FEW033 25/18 Q1014=
201908011100 METAR LRSB 011100Z 12004KT 090V190 9999 FEW036 25/17 Q1014=
201908011130 METAR LRSB 011130Z 13006KT 090V190 9999 FEW036CB SCT043 26/18
                        Q1014=
201908011200 METAR LRSB 011200Z 09005KT 9999 SCT029 SCT040CB 25/17 Q1014=
201908011230 METAR LRSB 011230Z 35006KT 9999 TS BKN038CB OVC075 25/17
                        Q1015=
201908011300 METAR LRSB 011300Z 26019KT 3000 +TSRA FEW025 BKN033CB 18/17
                        Q1015 R27/29//95=
201908011330 METAR LRSB 011330Z 21005KT 130V270 9999 -SHRA VCTS SCT053CB
                        18/16 Q1014 RETS R27/29//95=
201908011400 METAR LRSB 011400Z 27006KT 230V310 9999 FEW050CB 19/17 Q1015
                        R27/29//95=
201908011430 METAR LRSB 011430Z 02007KT 9999 FEW055CB 21/18 Q1016 R27/29//95=
201908011500 METAR LRSB 011500Z 35006KT 320V030 9999 FEW012 SCT046 22/18
                        Q1016 R27/29//95=
201908011530 METAR LRSB 011530Z 26003KT 200V300 9999 FEW012 FEW043CB 22/18
                        Q1015 R27/CLRD//=
201908011600 METAR LRSB 011600Z 23007KT 9999 FEW025 FEW047CB 21/18 Q1014=
201908011630 METAR LRSB 011630Z VRB01KT 9999 FEW048CB 23/18 Q1015=
201908011700 METAR LRSB 011700Z VRB01KT 9999 FEW048CB SCT087 22/17 Q1014=
201908011730 METAR LRSB 011730Z 10003KT 9999 FEW050 SCT085 21/18 Q1014=
201908011800 METAR LRSB 011800Z 04003KT 9999 FEW050 SCT085 21/18 Q1015=
201908011830 METAR COR LRSB 011830Z 14002KT 9999 FEW018 SCT082 20/18 Q1015=
201908011900 METAR LRSB 011900Z 00000KT 9999 SCT019 SCT048 20/18 Q1016=
201908011930 METAR LRSB 011930Z VRB01KT 9999 SCT017 SCT046 20/18 Q1016=
201908012000 METAR LRSB 012000Z 20003KT 9999 SCT018 SCT046 20/18 Q1015=
201908012030 METAR LRSB 012030Z 25005KT 9999 FEW019 18/17 Q1015=
201908012100 METAR LRSB 012100Z 25006KT CAVOK 18/16 Q1014=
201908012130 METAR LRSB 012130Z 32003KT CAVOK 17/15 Q1014=
201908012200 METAR LRSB 012200Z 05003KT CAVOK 17/16 Q1015=
201908012230 METAR LRSB 012230Z 14006KT CAVOK 17/16 Q1015=
201908012300 METAR LRSB 012300Z 11002KT 010V140 CAVOK 17/16 Q1015=
201908012330 METAR LRSB 012330Z VRB01KT CAVOK 17/16 Q1015=
201908020000 METAR LRSB 020000Z 24004KT 9000 MIFG NSC 16/15 Q1015=
201908020030 METAR LRSB 020030Z 13002KT 9999 4500E BCFG NSC 16/15 Q1015=
201908020100 METAR LRSB 020100Z 14004KT 9999 4000E BCFG NSC 16/15 Q1015=
201908020130 METAR LRSB 020130Z 12003KT 080V140 9999 4000NE BCFG FEW015
                        16/15 Q1015=
201908020200 METAR LRSB 020200Z 19003KT 160V240 9999 4000NE BCFG FEW016
                        16/15 Q1014=
201908020230 METAR LRSB 020230Z 00000KT 8000 MIFG FEW015 SCT030 16/15
                        Q1015=
201908020300 METAR LRSB 020300Z 00000KT 9999 SCT025 16/15 Q1015=
201908020330 METAR LRSB 020330Z 00000KT 4000 BR FEW003 15/14 Q1014=
201908020400 METAR LRSB 020400Z 00000KT 6000 FEW010 SCT022 16/15 Q1014=
201908020430 METAR LRSB 020430Z 00000KT 7000 FEW014 BKN025 17/16 Q1014=
201908020500 METAR LRSB 020500Z 00000KT 9999 FEW025 SCT083 17/16 Q1014=
201908020530 METAR LRSB 020530Z 00000KT 9999 SCT024 SCT083 18/16 Q1014=
201908020600 METAR LRSB 020600Z 00000KT 9999 SCT047 19/16 Q1014=
201908020630 METAR LRSB 020630Z 00000KT 9999 SCT042 21/17 Q1014=
201908020700 METAR LRSB 020700Z 00000KT 9999 SCT041 BKN079 22/17 Q1014=
201908020730 METAR LRSB 020730Z 06004KT 350V120 9999 SCT045 SCT081 23/18
                        Q1014=
201908020800 METAR LRSB 020800Z 01004KT 310V060 9999 SCT033 BKN083 23/18
                        Q1014=
201908020830 METAR LRSB 020830Z 01005KT 340V040 9999 SCT035 BKN083 23/18
                        Q1014=
201908020900 METAR LRSB 020900Z 36007KT 320V050 9999 BKN043 24/18 Q1014=
201908020930 METAR LRSB 020930Z 01008KT 9999 FEW025CB SCT045 25/18 Q1014=
201908021000 METAR LRSB 021000Z 36009KT 320V030 9999 FEW030CB SCT045 25/18
                        Q1014=
201908021030 METAR LRSB 021030Z 36007KT 320V040 9999 SCT030CB SCT040 25/18
                        Q1014=
201908021100 METAR LRSB 021100Z VRB03KT 9999 SCT035CB SCT040 25/16 Q1014=
201908021130 METAR LRSB 021130Z VRB02KT 9999 SCT030CB SCT045 26/17 Q1014=
201908021200 METAR LRSB 021200Z 02006KT 350V050 9999 FEW035CB SCT042 25/15
                        Q1014=
201908021230 METAR LRSB 021230Z 02008KT 350V050 9999 TS FEW035CB SCT040
                        BKN083 25/15 Q1013=
201908021300 METAR LRSB 021300Z 34005KT 9999 -SHRA VCTS SCT030CB BKN086
                        23/17 Q1014 R27/19//95=
201908021330 METAR COR LRSB 021330Z 23007KT 9999 FEW035CB SCT040 24/17
                        Q1014 RERA R27/CLRD//=
201908021400 METAR LRSB 021400Z 19005KT 150V230 9999 SCT040 SCT083 24/18
                        Q1013=
201908021430 METAR LRSB 021430Z 18003KT 110V230 9999 SCT045 26/17 Q1012=
201908021500 METAR LRSB 021500Z VRB02KT 9999 FEW050 26/18 Q1012=
201908021530 METAR LRSB 021530Z 18003KT 100V260 9999 FEW055 26/18 Q1012=
201908021600 METAR LRSB 021600Z 20004KT 9999 FEW046 25/17 Q1012=
201908021630 METAR LRSB 021630Z 22004KT 9999 FEW043 24/17 Q1012=
201908021700 METAR LRSB 021700Z 23003KT 9999 FEW043 23/18 Q1012=
201908021730 METAR LRSB 021730Z 21003KT 9999 FEW040 22/17 Q1011=
201908021800 METAR LRSB 021800Z VRB01KT 9999 FEW040 21/17 Q1011=
201908021830 METAR LRSB 021830Z 24003KT 200V270 9999 FEW040 20/17 Q1011=
201908021900 METAR LRSB 021900Z VRB02KT 9999 FEW040 19/16 Q1011=
201908021930 METAR LRSB 021930Z 10002KT 050V120 CAVOK 20/16 Q1011=
201908022000 METAR LRSB 022000Z 00000KT CAVOK 20/16 Q1011=
201908022030 METAR LRSB 022030Z 00000KT CAVOK 19/16 Q1011=
201908022100 METAR LRSB 022100Z 10002KT 330V140 CAVOK 19/16 Q1011=
201908022130 METAR LRSB 022130Z 16002KT 120V190 CAVOK 19/17 Q1011=
201908022200 METAR LRSB 022200Z AUTO 23003KT 9999 BKN076/// SCT096///
                        18/16 Q1010=
201908022230 METAR LRSB 022230Z 00000KT CAVOK 18/16 Q1010=
201908022300 METAR LRSB 022300Z 10004KT CAVOK 18/16 Q1009=
201908022330 METAR LRSB 022330Z AUTO 08004KT 9999 BKN094/// 18/16 Q1009=
201908030000 METAR LRSB 030000Z VRB01KT 9999 SCT081 18/16 Q1009=
201908030030 METAR LRSB 030030Z 00000KT CAVOK 19/16 Q1009=
201908030100 METAR LRSB 030100Z 32004KT CAVOK 18/16 Q1009=
201908030130 METAR LRSB 030130Z 31003KT CAVOK 18/16 Q1009=
201908030200 METAR LRSB 030200Z 24003KT 9999 BKN085 17/16 Q1009=
201908030230 METAR LRSB 030230Z 26003KT 9999 BKN081 18/16 Q1009=
201908030300 METAR LRSB 030300Z 25004KT 9999 BKN070 17/16 Q1009=
201908030330 METAR LRSB 030330Z 18002KT 130V210 9999 BKN066 SCT083 17/16
                        Q1008=
201908030400 METAR LRSB 030400Z 15003KT 090V230 9999 -RA FEW024 BKN057
                        18/16 Q1008=
201908030430 METAR LRSB 030430Z 06002KT 360V090 8000 BKN060 18/17 Q1007
                        R27/19//95=
201908030500 METAR LRSB 030500Z VRB01KT 9999 BKN061 19/17 Q1007 R27/19//95=
201908030530 METAR LRSB 030530Z VRB01KT 9999 FEW040CB BKN062 19/17 Q1007
                        R27/19//95=
201908030600 METAR LRSB 030600Z 18001KT 9000 -SHRA FEW007 SCT040CB BKN062
                        19/17 Q1007 R27/19//95=
201908030630 METAR LRSB 030630Z 26005KT 4000 SHRA BR FEW007 SCT040CB 18/17
                        Q1007 R27/29//95=
201908030700 METAR LRSB 030700Z 33004KT 290V360 6000 -TSRA FEW005 SCT038CB
                        18/17 Q1007 RERA R27/29//95=
201908030730 METAR LRSB 030730Z VRB02KT 6000 -SHRA SCT038CB SCT052 18/17
                        Q1007 RETS R27/29//95=
201908030800 METAR LRSB 030800Z 11003KT 7000 -SHRA FEW003 SCT038CB BKN054
                        18/17 Q1007 R27/29//95=
201908030830 METAR LRSB 030830Z 33004KT 300V360 7000 -SHRA FEW005 SCT040CB
                        18/17 Q1007 R27/29//95=
201908030900 METAR LRSB 030900Z 32007KT 9000 -SHRA FEW007 SCT040CB 19/17
                        Q1007 R27/29//95=
201908030930 METAR LRSB 030930Z 36005KT 9999 FEW040CB SCT050 19/17 Q1007
                        R27/29//95=
201908031000 METAR LRSB 031000Z 35005KT 310V020 9999 FEW040CB SCT050 20/17
                        Q1006 R27/29//95=
201908031030 METAR LRSB 031030Z 30010KT 9999 FEW012 FEW038CB BKN075 20/16
                        Q1006 R27/29//95=
201908031100 METAR LRSB 031100Z 26007KT 9999 -SHRA FEW013 FEW037CB BKN073
                        19/17 Q1006 R27/29//95=
201908031130 METAR LRSB 031130Z 31010KT 9999 -SHRA FEW013 FEW036CB BKN070
                        19/16 Q1006 R27/29//95=
201908031200 METAR LRSB 031200Z 28010KT 9999 -SHRA FEW036CB SCT054 20/16
                        Q1006 R27/29//95=
201908031230 METAR LRSB 031230Z 29015KT 9999 FEW037CB SCT053 22/16 Q1006
                        R27/29//95=
201908031300 METAR LRSB 031300Z 32015KT 9999 VCSH FEW038CB SCT053 20/15
                        Q1006 R27/29//95=
201908031330 METAR LRSB 031330Z 33010KT 5000 SHRA SCT036CB SCT050 18/16
                        Q1007 R27/29//95=
201908031400 METAR LRSB 031400Z 31010KT 7000 -SHRA FEW012 SCT036CB 19/17
                        Q1007 RERA R27/29//95=
201908031430 METAR LRSB 031430Z 34008KT 9999 FEW009 FEW037CB BKN048 18/16
                        Q1007 R27/29//95=
201908031500 METAR LRSB 031500Z 33010KT 9999 -SHRA FEW010 SCT036CB BKN052
                        18/16 Q1007 R27/29//95=
201908031530 METAR LRSB 031530Z 32009KT 9999 -SHRA FEW009 SCT032CB BKN050
                        18/16 Q1008 R27/29//95=
201908031600 METAR LRSB 031600Z 28008KT 9999 SHRA FEW010 SCT038CB BKN043
                        17/16 Q1008 R27/29//95=
201908031630 METAR LRSB 031630Z 27008KT 9999 -SHRA SCT026CB BKN043 17/16
                        Q1008 R27/29//95=
201908031700 METAR LRSB 031700Z 26009KT 9999 FEW035CB SCT040 BKN076 17/15
                        Q1008 RERA R27/29//95=
201908031730 METAR LRSB 031730Z 27011KT 9999 SCT041 SCT083 17/15 Q1009
                        RERA R27/29//95=
201908031800 METAR LRSB 031800Z 27009KT 9999 SCT021 BKN080 17/15 Q1009
                        R27/29//95=
201908031830 METAR LRSB 031830Z 26006KT 9999 SCT021 BKN086 16/14 Q1010
                        R27/29//95=
201908031900 METAR LRSB 031900Z 29006KT 9999 SCT031 17/14 Q1010 R27/29//95=
201908031930 METAR LRSB 031930Z 24006KT 9999 SCT030 16/14 Q1009 R27/29//95=
201908032000 METAR LRSB 032000Z 25004KT 9999 SCT030 BKN082 16/14 Q1009
                        R27/29//95=
201908032030 METAR LRSB 032030Z 27006KT 9999 FEW018 BKN025 16/14 Q1010
                        R27/29//95=
201908032100 METAR LRSB 032100Z 26005KT 9999 FEW018 SCT030 15/14 Q1010
                        R27/CLRD//=
201908032130 METAR LRSB 032130Z 29002KT 250V320 9999 SCT043 15/13 Q1010=
201908032200 METAR LRSB 032200Z 35003KT 310V010 9999 BKN047 15/14 Q1010=
201908032230 METAR LRSB 032230Z 27003KT 9999 BKN034 BKN043 15/14 Q1010=
201908032300 METAR LRSB 032300Z 24003KT 9999 SCT029 SCT037 15/14 Q1010=
201908032330 METAR LRSB 032330Z AUTO 25004KT 9999 FEW021/// SCT095///
                        15/13 Q1010=
201908040000 METAR LRSB 040000Z AUTO 28004KT 9999 FEW014/// 15/14 Q1010=
201908040030 METAR LRSB 040030Z AUTO 27002KT 9999 FEW031/// BKN086///
                        15/13 Q1010=
201908040100 METAR LRSB 040100Z AUTO VRB01KT 9999 FEW029/// SCT100///
                        14/13 Q1010=
201908040130 METAR LRSB 040130Z AUTO 23003KT 6000 FEW089/// 13/12 Q1010=
201908040200 METAR LRSB 040200Z AUTO 00000KT 5000 BR NCD 13/12 Q1010=
201908040230 METAR LRSB 040230Z AUTO 00000KT 1200 R27/0900VP2000U FG NCD
                        13/12 Q1011=
201908040300 METAR LRSB 040300Z AUTO 20001KT 1900 R27/1100VP2000U BCFG
                        FEW039/// 13/12 Q1011=
201908040330 METAR LRSB 040330Z AUTO VRB01KT 5000 +RA SCT032/// BKN071///
                        13/12 Q1011=
201908040400 METAR LRSB 040400Z AUTO 00000KT 8000 FEW004/// BKN032///
                        14/13 Q1011 RERA=
201908040430 METAR COR LRSB 040430Z 33003KT 9999 FEW006 SCT057 15/14 Q1012=
201908040500 METAR COR LRSB 040500Z 34004KT 300V360 9999 FEW006 SCT036
                        15/14 Q1012 R27/29//95=
201908040530 METAR LRSB 040530Z 31003KT 270V340 9999 FEW015 SCT034 16/14
                        Q1012 R27/29//95=
201908040600 METAR LRSB 040600Z 27003KT 240V300 9999 FEW017 SCT030 BKN052
                        16/14 Q1012 R27/29//95=
201908040630 METAR LRSB 040630Z 29005KT 250V320 9999 FEW018 SCT030 BKN052
                        17/14 Q1013 R27/29//95=
201908040700 METAR LRSB 040700Z 32008KT 9999 FEW022 SCT036 18/13 Q1013
                        R27/29//95=
201908040730 METAR LRSB 040730Z 31009KT 9999 FEW025 SCT037 18/13 Q1013
                        R27/29//95=
201908040800 METAR LRSB 040800Z 31009KT 9999 FEW027 SCT038 18/14 Q1013
                        R27/29//95=
201908040830 METAR LRSB 040830Z 30008KT 9999 FEW030 SCT038 19/13 Q1013
                        R27/CLRD//=
201908040900 METAR LRSB 040900Z 30010KT 270V330 9999 FEW032 FEW037TCU
                        19/12 Q1013=
201908040930 METAR LRSB 040930Z 29010KT 9999 FEW033 FEW037TCU 21/12 Q1013=
201908041000 METAR LRSB 041000Z 33008KT 9999 FEW034 FEW038TCU 21/11 Q1013=
201908041030 METAR LRSB 041030Z 32009KT 9999 FEW035 FEW038TCU 22/11 Q1013=
201908041100 METAR LRSB 041100Z 30009KT 9999 FEW036 FEW040CB 22/11 Q1013=
201908041130 METAR LRSB 041130Z 32010KT 290V350 9999 FEW037 SCT040CB 22/11
                        Q1013=
201908041200 METAR LRSB 041200Z 31010KT 260V350 9999 FEW038CB FEW041TCU
                        22/11 Q1013=
201908041230 METAR LRSB 041230Z 28011KT 9999 FEW038CB FEW042TCU 23/11
                        Q1013=
201908041300 METAR LRSB 041300Z 29012KT 9999 SCT037CB FEW042TCU 23/12
                        Q1013=
201908041330 METAR LRSB 041330Z 29015KT 9999 SCT036CB FEW039TCU BKN062
                        21/10 Q1013=
201908041400 METAR LRSB 041400Z 29021KT 9999 SCT035CB FEW037TCU 19/11
                        Q1013=
201908041430 METAR LRSB 041430Z 27015KT 9999 FEW035CB FEW037TCU 19/12
                        Q1013=
201908041500 METAR LRSB 041500Z 27011KT 9999 FEW035CB 20/12 Q1013=
201908041530 METAR LRSB 041530Z 30011KT 9999 FEW035CB 21/11 Q1013=
201908041600 METAR LRSB 041600Z 29012KT 9999 FEW036CB 20/12 Q1014=
201908041630 METAR LRSB 041630Z 30010KT 9999 FEW036CB SCT082 20/12 Q1014=
201908041700 METAR LRSB 041700Z 29007KT 9999 FEW036CB SCT084 19/12 Q1014=
201908041730 METAR LRSB 041730Z 28007KT 9999 FEW040 18/12 Q1014=
201908041800 METAR LRSB 041800Z 26007KT 9999 FEW077 16/12 Q1015=
201908041830 METAR LRSB 041830Z 25007KT 9999 FEW056 16/13 Q1015=
201908041900 METAR LRSB 041900Z 26007KT 9999 SCT052 17/12 Q1015=
201908041930 METAR LRSB 041930Z 26007KT 9999 FEW053 16/11 Q1016=
201908042000 METAR LRSB 042000Z 26007KT 9999 FEW054 16/11 Q1016=
201908042030 METAR LRSB 042030Z VRB04KT 9999 SCT052 15/12 Q1016=
201908042100 METAR LRSB 042100Z 00000KT 9999 SCT054 14/11 Q1016=
201908042130 METAR LRSB 042130Z VRB01KT 9999 FEW055 15/11 Q1016=
201908042200 METAR LRSB 042200Z VRB01KT 9999 FEW055 14/11 Q1016=
201908042230 METAR LRSB 042230Z VRB02KT 9999 SCT052 15/11 Q1016=
201908042300 METAR LRSB 042300Z 31002KT 9999 SCT053 14/11 Q1016=
201908042330 METAR LRSB 042330Z VRB02KT 9999 FEW052 14/11 Q1016=
201908050000 METAR LRSB 050000Z 21003KT 9999 FEW052 12/10 Q1016=
201908050030 METAR LRSB 050030Z 27003KT CAVOK 12/10 Q1017=
201908050100 METAR LRSB 050100Z 00000KT 9999 FEW077 13/11 Q1017=
201908050130 METAR LRSB 050130Z AUTO VRB01KT 9999 FEW077/// 12/10 Q1017=
201908050200 METAR LRSB 050200Z AUTO VRB01KT 9999 NCD 12/11 Q1017=
201908050230 METAR LRSB 050230Z AUTO VRB02KT 9999 SCT064/// 13/11 Q1017=
201908050300 METAR COR LRSB 050300Z VRB01KT 9999 FEW059 12/11 Q1017=
201908050330 METAR LRSB 050330Z 10002KT CAVOK 13/11 Q1017=
201908050400 METAR LRSB 050400Z 00000KT CAVOK 13/11 Q1017=
201908050430 METAR LRSB 050430Z 10001KT CAVOK 14/12 Q1017=
201908050500 METAR LRSB 050500Z 09003KT CAVOK 15/12 Q1017=
201908050530 METAR LRSB 050530Z VRB02KT 9999 FEW075 17/12 Q1017=
201908050600 METAR LRSB 050600Z 09003KT 040V130 CAVOK 18/12 Q1017=
201908050630 METAR LRSB 050630Z 08003KT 030V110 CAVOK 19/13 Q1017=
201908050700 METAR LRSB 050700Z 13003KT 100V160 CAVOK 20/12 Q1017=
201908050730 METAR LRSB 050730Z VRB04KT CAVOK 21/11 Q1017=
201908050800 METAR LRSB 050800Z 35004KT 290V040 CAVOK 21/12 Q1017=
201908050830 METAR LRSB 050830Z 35005KT 300V040 9999 FEW040 22/11 Q1017=
201908050900 METAR LRSB 050900Z 34006KT 280V020 9999 FEW043 23/10 Q1017=
201908050930 METAR LRSB 050930Z 30009KT 9999 FEW043 23/09 Q1017=
201908051000 METAR LRSB 051000Z 28006KT 9999 FEW050 23/09 Q1017=
201908051030 METAR LRSB 051030Z 28007KT 240V350 9999 FEW053 23/09 Q1017=
201908051100 METAR LRSB 051100Z 35004KT 230V040 9999 FEW053 24/11 Q1016=
201908051130 METAR LRSB 051130Z 30005KT 9999 FEW053 24/11 Q1016=
201908051200 METAR LRSB 051200Z 01008KT 9999 FEW058TCU 25/10 Q1016=
201908051230 METAR LRSB 051230Z 34007KT 320V030 9999 FEW048CB SCT053 24/10
                        Q1016=
201908051300 METAR LRSB 051300Z 35014KT 9999 FEW043CB SCT050 23/12 Q1016=
201908051330 METAR LRSB 051330Z 36009KT 9999 BKN044 22/13 Q1016=
201908051400 METAR LRSB 051400Z 01005KT 330V040 9999 SCT040 22/13 Q1016=
201908051430 METAR LRSB 051430Z 04003KT 350V080 9999 SCT040 22/12 Q1016=
201908051500 METAR LRSB 051500Z 15003KT 110V240 9999 SCT038 23/12 Q1016=
201908051530 METAR LRSB 051530Z 17003KT 130V250 9999 FEW038 23/13 Q1015=
201908051600 METAR LRSB 051600Z 15004KT 100V170 9999 FEW037 SCT087 22/13
                        Q1015=
201908051630 METAR LRSB 051630Z VRB03KT 9999 FEW037 SCT087 23/13 Q1015=
201908051700 METAR LRSB 051700Z 29008KT 9999 FEW056 22/12 Q1015=
201908051730 METAR LRSB 051730Z 28006KT 9999 FEW058 19/11 Q1016=
201908051800 METAR LRSB 051800Z 22005KT 190V250 9999 FEW056 18/12 Q1016=
201908051830 METAR LRSB 051830Z 24004KT CAVOK 16/12 Q1016=
201908051900 METAR LRSB 051900Z 25007KT CAVOK 16/12 Q1016=
201908051930 METAR LRSB 051930Z 25008KT CAVOK 16/11 Q1017=
201908052000 METAR LRSB 052000Z 23004KT CAVOK 15/12 Q1017=
201908052030 METAR LRSB 052030Z 24006KT CAVOK 16/11 Q1017=
201908052100 METAR LRSB 052100Z 25005KT CAVOK 16/12 Q1017=
201908052130 METAR LRSB 052130Z VRB02KT CAVOK 15/11 Q1017=
201908052200 METAR LRSB 052200Z 25005KT CAVOK 15/11 Q1017=
201908052230 METAR LRSB 052230Z VRB02KT CAVOK 14/12 Q1017=
201908052300 METAR LRSB 052300Z VRB01KT CAVOK 15/11 Q1017=
201908052330 METAR LRSB 052330Z 11002KT CAVOK 14/12 Q1017=
201908060000 METAR LRSB 060000Z 00000KT CAVOK 14/11 Q1017=
201908060030 METAR LRSB 060030Z 10003KT 060V130 CAVOK 13/11 Q1017=
201908060100 METAR LRSB 060100Z 09003KT CAVOK 14/11 Q1017=
201908060130 METAR LRSB 060130Z 09004KT CAVOK 14/11 Q1017=
201908060200 METAR LRSB 060200Z 11003KT CAVOK 13/11 Q1017=
201908060230 METAR LRSB 060230Z 08003KT CAVOK 12/10 Q1017=
201908060300 METAR LRSB 060300Z 08002KT CAVOK 13/10 Q1017=
201908060330 METAR LRSB 060330Z 08002KT CAVOK 13/10 Q1017=
201908060400 METAR LRSB 060400Z 07003KT CAVOK 13/11 Q1017=
201908060430 METAR LRSB 060430Z VRB02KT CAVOK 15/12 Q1017=
201908060500 METAR LRSB 060500Z 11003KT CAVOK 16/12 Q1017=
201908060530 METAR LRSB 060530Z VRB02KT CAVOK 17/13 Q1018=
201908060600 METAR LRSB 060600Z 08003KT 040V110 CAVOK 19/13 Q1018=
201908060630 METAR LRSB 060630Z 11003KT 070V150 CAVOK 20/14 Q1018=
201908060700 METAR LRSB 060700Z 11005KT 080V140 9999 FEW055 21/13 Q1018=
201908060730 METAR LRSB 060730Z 12004KT 080V160 9999 FEW055 23/13 Q1018=
201908060800 METAR LRSB 060800Z VRB03KT 9999 FEW053 24/12 Q1018=
201908060830 METAR LRSB 060830Z 11004KT 050V190 9999 SCT050 25/13 Q1018=
201908060900 METAR LRSB 060900Z 05004KT 360V120 9999 SCT049 25/12 Q1018=
201908060930 METAR LRSB 060930Z VRB03KT 9999 SCT047 26/13 Q1018=
201908061000 METAR LRSB 061000Z VRB04KT 9999 SCT045 26/12 Q1018=
201908061030 METAR LRSB 061030Z VRB04KT 9999 SCT045 26/11 Q1018=
201908061100 METAR LRSB 061100Z 35003KT 270V060 9999 SCT045 26/11 Q1017=
201908061130 METAR LRSB 061130Z VRB04KT 9999 SCT045 27/12 Q1017=
201908061200 METAR LRSB 061200Z VRB03KT 9999 SCT047 27/13 Q1017=
201908061230 METAR LRSB 061230Z VRB03KT 9999 SCT047 27/12 Q1017=
201908061300 METAR LRSB 061300Z 24004KT 180V290 9999 BKN050 27/13 Q1017=
201908061330 METAR LRSB 061330Z 23004KT 200V270 9999 SCT050 27/12 Q1017=
201908061400 METAR LRSB 061400Z 22003KT 180V280 9999 SCT050 26/12 Q1016=
201908061430 METAR LRSB 061430Z 17002KT 9999 FEW050 26/13 Q1016=
201908061500 METAR LRSB 061500Z VRB02KT 9999 FEW059 27/12 Q1016=
201908061530 METAR LRSB 061530Z 14003KT 090V170 9999 FEW057 26/13 Q1016=
201908061600 METAR LRSB 061600Z VRB02KT 9999 FEW050 27/11 Q1016=
201908061630 METAR LRSB 061630Z 24003KT CAVOK 26/15 Q1016=
201908061700 METAR LRSB 061700Z 30004KT 270V330 CAVOK 25/12 Q1016=
201908061730 METAR LRSB 061730Z 22005KT CAVOK 21/16 Q1016=
201908061800 METAR LRSB 061800Z 26005KT CAVOK 20/16 Q1016=
201908061830 METAR LRSB 061830Z 26007KT CAVOK 19/15 Q1017=
201908061900 METAR LRSB 061900Z 25007KT 190V270 CAVOK 18/14 Q1017=
201908061930 METAR LRSB 061930Z 25005KT CAVOK 18/14 Q1017=
201908062000 METAR LRSB 062000Z 25004KT CAVOK 17/14 Q1017=
201908062030 METAR LRSB 062030Z VRB02KT CAVOK 17/14 Q1017=
201908062100 METAR LRSB 062100Z 27002KT CAVOK 17/14 Q1017=
201908062130 METAR LRSB 062130Z VRB01KT CAVOK 16/14 Q1017=
201908062200 METAR LRSB 062200Z 00000KT CAVOK 17/14 Q1017=
201908062230 METAR LRSB 062230Z VRB02KT CAVOK 16/13 Q1017=
201908062300 METAR LRSB 062300Z 00000KT CAVOK 16/13 Q1016=
201908062330 METAR LRSB 062330Z 00000KT CAVOK 15/13 Q1016=
201908070000 METAR LRSB 070000Z 00000KT CAVOK 15/14 Q1016=
201908070030 METAR LRSB 070030Z 00000KT CAVOK 16/14 Q1016=
201908070100 METAR LRSB 070100Z 04002KT CAVOK 16/13 Q1016=
201908070130 METAR LRSB 070130Z 07001KT CAVOK 15/13 Q1016=
201908070200 METAR LRSB 070200Z VRB01KT CAVOK 14/13 Q1016=
201908070230 METAR LRSB 070230Z 00000KT CAVOK 14/13 Q1016=
201908070300 METAR LRSB 070300Z VRB01KT CAVOK 13/12 Q1016=
201908070330 METAR LRSB 070330Z VRB01KT CAVOK 13/12 Q1016=
201908070400 METAR LRSB 070400Z 00000KT CAVOK 13/12 Q1016=
201908070430 METAR LRSB 070430Z 09003KT CAVOK 16/14 Q1016=
201908070500 METAR LRSB 070500Z 12004KT CAVOK 17/14 Q1016=
201908070530 METAR LRSB 070530Z 11004KT CAVOK 18/14 Q1017=
201908070600 METAR LRSB 070600Z 10005KT CAVOK 20/14 Q1017=
201908070630 METAR LRSB 070630Z 12004KT CAVOK 21/15 Q1017=
201908070700 METAR LRSB 070700Z 11004KT 080V150 CAVOK 23/16 Q1016=
201908070730 METAR LRSB 070730Z 10004KT 070V140 CAVOK 24/15 Q1016=
201908070800 METAR LRSB 070800Z 10004KT 060V140 CAVOK 25/15 Q1016=
201908070830 METAR LRSB 070830Z 11005KT 080V140 CAVOK 27/15 Q1016=
201908070900 METAR LRSB 070900Z 10004KT 020V160 CAVOK 28/13 Q1016=
201908070930 METAR LRSB 070930Z 13004KT 080V170 CAVOK 28/12 Q1016=
201908071000 METAR LRSB 071000Z VRB03KT CAVOK 29/12 Q1016=
201908071030 METAR LRSB 071030Z 15004KT 110V220 CAVOK 29/13 Q1015=
201908071100 METAR LRSB 071100Z 12005KT 070V150 CAVOK 29/15 Q1015=
201908071130 METAR LRSB 071130Z 12008KT CAVOK 29/14 Q1015=
201908071200 METAR LRSB 071200Z 12007KT 090V160 9999 FEW044 30/14 Q1015=
201908071230 METAR LRSB 071230Z 13009KT 9999 FEW044 30/16 Q1015=
201908071300 METAR LRSB 071300Z 14009KT 9999 FEW044 29/16 Q1014=
201908071330 METAR LRSB 071330Z 14009KT 9999 FEW045 30/17 Q1014=
201908071400 METAR LRSB 071400Z 14010KT 9999 FEW045 29/16 Q1014=
201908071430 METAR LRSB 071430Z 13010KT CAVOK 29/16 Q1014=
201908071500 METAR LRSB 071500Z 14008KT CAVOK 29/16 Q1014=
201908071530 METAR LRSB 071530Z 13007KT CAVOK 28/16 Q1013=
201908071600 METAR COR LRSB 071600Z 16006KT CAVOK 28/16 Q1013=
201908071630 METAR LRSB 071630Z 15005KT 080V190 9999 NCD 27/16 Q1014=
201908071700 METAR LRSB 071700Z 16006KT CAVOK 26/15 Q1013=
201908071730 METAR LRSB 071730Z 20004KT 150V240 CAVOK 25/16 Q1014=
201908071800 METAR LRSB 071800Z 21003KT CAVOK 23/18 Q1014=
201908071830 METAR LRSB 071830Z 25005KT CAVOK 22/18 Q1014=
201908071900 METAR LRSB 071900Z 24009KT CAVOK 22/16 Q1014=
201908071930 METAR LRSB 071930Z VRB01KT CAVOK 22/15 Q1014=
201908072000 METAR LRSB 072000Z VRB01KT CAVOK 22/15 Q1014=
201908072030 METAR LRSB 072030Z 11002KT CAVOK 21/15 Q1014=
201908072100 METAR LRSB 072100Z VRB01KT 9999 NCD 19/15 Q1014=
201908072130 METAR LRSB 072130Z 22004KT 180V240 CAVOK 18/15 Q1014=
201908072200 METAR LRSB 072200Z VRB01KT CAVOK 18/15 Q1014=
201908072230 METAR LRSB 072230Z VRB01KT CAVOK 17/14 Q1014=
201908072300 METAR LRSB 072300Z VRB02KT CAVOK 17/15 Q1014=
201908072330 METAR LRSB 072330Z VRB03KT CAVOK 18/14 Q1013=
201908080000 METAR LRSB 080000Z VRB01KT CAVOK 17/14 Q1013=
201908080030 METAR LRSB 080030Z VRB02KT CAVOK 17/14 Q1013=
201908080100 METAR LRSB 080100Z AUTO VRB01KT 9999 NCD 18/14 Q1014=
201908080130 METAR LRSB 080130Z AUTO VRB01KT 9999 FEW240/// 16/13 Q1013=
201908080200 METAR LRSB 080200Z VRB02KT CAVOK 17/14 Q1013=
201908080230 METAR LRSB 080230Z 27003KT 240V320 CAVOK 15/13 Q1013=
201908080300 METAR LRSB 080300Z 26003KT CAVOK 16/13 Q1013=
201908080330 METAR LRSB 080330Z 24003KT CAVOK 15/13 Q1013=
201908080400 METAR LRSB 080400Z VRB01KT CAVOK 16/14 Q1013=
201908080430 METAR LRSB 080430Z VRB02KT CAVOK 17/14 Q1013=
201908080500 METAR LRSB 080500Z VRB01KT CAVOK 20/15 Q1013=
201908080530 METAR LRSB 080530Z 09003KT CAVOK 22/15 Q1013 NOSIG=
201908080600 METAR LRSB 080600Z 11003KT 080V140 9999 FEW035 23/15 Q1014
                        NOSIG=
201908080630 METAR LRSB 080630Z VRB01KT 9999 FEW036 25/17 Q1014 NOSIG=
201908080700 METAR COR LRSB 080700Z 09004KT 040V110 9999 FEW040 27/17
                        Q1013 NOSIG=
201908080730 METAR LRSB 080730Z 12003KT 080V150 9999 FEW043 FEW045CB 28/16
                        Q1013 NOSIG=
201908080800 METAR LRSB 080800Z 04003KT 300V090 9999 FEW045 FEW046CB 27/17
                        Q1014 NOSIG=
201908080830 METAR LRSB 080830Z VRB02KT 9999 FEW045 31/17 Q1013 NOSIG=
201908080900 METAR COR LRSB 080900Z 04004KT 360V120 9999 FEW045 31/16
                        Q1013 NOSIG=
201908080930 METAR LRSB 080930Z 18003KT 130V260 9999 FEW045 31/16 Q1013
                        NOSIG=
201908081000 METAR LRSB 081000Z 35005KT 9999 FEW045 31/16 Q1013 NOSIG=
201908081030 METAR LRSB 081030Z 10006KT 050V130 9999 FEW046 31/15 Q1013
                        NOSIG=
201908081100 METAR LRSB 081100Z VRB04KT 9999 FEW048 32/16 Q1013 NOSIG=
201908081130 METAR LRSB 081130Z VRB04KT 9999 FEW048 32/16 Q1012 NOSIG=
201908081200 METAR LRSB 081200Z 14004KT 070V190 9999 FEW048 31/18 Q1013
                        NOSIG=
201908081230 METAR COR LRSB 081230Z 33008KT 9999 FEW050 31/17 Q1013 NOSIG=
201908081300 METAR LRSB 081300Z 34009KT 310V010 9999 FEW050 32/18 Q1013
                        NOSIG=
201908081330 METAR LRSB 081330Z 31009KT 9999 FEW050 30/17 Q1013 NOSIG=
201908081400 METAR LRSB 081400Z 32009KT 9999 FEW048CB 30/17 Q1013 TEMPO
                        TSRA=
201908081430 METAR LRSB 081430Z 29006KT 9999 VCTS VCSH SCT046CB 29/18
                        Q1013 TEMPO TSRA=
201908081500 METAR LRSB 081500Z 18008KT 120V200 9999 4000NE -TSRA FEW010
                        SCT038CB 24/18 Q1013 WS RWY27 R27/29//95
                        NOSIG=
201908081530 METAR LRSB 081530Z 17005KT 9999 TS FEW013 SCT040CB 26/18
                        Q1014 WS RWY27 R27/29//95 TEMPO TSRA=
201908081600 METAR LRSB 081600Z 19006KT 160V220 9999 TS SCT040CB SCT060
                        25/18 Q1014 R27/29//95 TEMPO TSRA=
201908081630 METAR LRSB 081630Z 19006KT 140V230 9999 -TSRA SCT040CB SCT057
                        23/19 Q1014 R27/25//95 NOSIG=
201908081700 METAR LRSB 081700Z 24004KT 210V270 9999 VCSH SCT040CB SCT060
                        23/19 Q1014 RETS R27/25//95=
201908081730 METAR LRSB 081730Z 00000KT 9999 FEW042CB SCT058 23/19 Q1014=
201908081800 METAR LRSB 081800Z VRB01KT 9999 FEW058 22/18 Q1014=
201908081830 METAR LRSB 081830Z 19003KT 120V240 CAVOK 22/19 Q1014=
201908081900 METAR LRSB 081900Z 14001KT CAVOK 20/18 Q1015=
201908081930 METAR LRSB 081930Z 29004KT 240V330 CAVOK 21/16 Q1015=
201908082000 METAR LRSB 082000Z VRB02KT CAVOK 19/16 Q1015=
201908082030 METAR LRSB 082030Z 19004KT 150V220 CAVOK 19/17 Q1015=
201908082100 METAR LRSB 082100Z VRB01KT CAVOK 19/17 Q1015=
201908082130 METAR LRSB 082130Z VRB02KT CAVOK 18/17 Q1015=
201908082200 METAR LRSB 082200Z 07003KT CAVOK 19/17 Q1015=
201908082230 METAR LRSB 082230Z 08002KT CAVOK 19/17 Q1015=
201908082300 METAR LRSB 082300Z 08003KT CAVOK 19/17 Q1015=
201908082330 METAR LRSB 082330Z 00000KT CAVOK 18/17 Q1015=
201908090000 METAR LRSB 090000Z VRB01KT CAVOK 18/17 Q1014=
201908090030 METAR LRSB 090030Z VRB01KT CAVOK 18/17 Q1014=
201908090100 METAR LRSB 090100Z 00000KT CAVOK 18/17 Q1014=
201908090130 METAR LRSB 090130Z VRB01KT CAVOK 17/16 Q1015=
201908090200 METAR LRSB 090200Z 31009KT 9999 FEW048 20/17 Q1016=
201908090230 METAR COR LRSB 090230Z 29009KT 9999 FEW036CB BKN046 21/17
                        Q1017=
201908090300 METAR LRSB 090300Z 32007KT 280V340 9999 TS SCT037CB SCT047
                        21/17 Q1017=
201908090330 METAR LRSB 090330Z 31008KT 9999 -TSRA SCT040CB SCT050 20/16
                        Q1017 R27/29//95=
201908090400 METAR LRSB 090400Z 07007KT 040V110 9000 -SHRA SCT040CB SCT063
                        19/17 Q1017 RETS R27/29//95=
201908090430 METAR LRSB 090430Z 10005KT 9999 -SHRA FEW040CB SCT066 18/17
                        Q1017 R27/29//95=
201908090500 METAR COR LRSB 090500Z 12006KT 9999 -SHRA FEW040CB SCT066
                        19/17 Q1016 R27/29//95=
201908090530 METAR LRSB 090530Z 20003KT 9999 FEW043 19/17 Q1016 R27/29//95=
201908090600 METAR LRSB 090600Z VRB03KT 9999 SCT036 21/17 Q1016 R27/19//95=
201908090630 METAR LRSB 090630Z 05003KT 010V100 9999 SCT033 21/17 Q1016
                        R27/19//95=
201908090700 METAR LRSB 090700Z VRB02KT 9999 FEW033 23/18 Q1016 R27/CLRD//=
201908090730 METAR LRSB 090730Z VRB03KT CAVOK 24/18 Q1016=
201908090800 METAR LRSB 090800Z 12005KT 080V160 CAVOK 24/17 Q1016=
201908090830 METAR LRSB 090830Z 13004KT 070V150 CAVOK 24/18 Q1016=
201908090900 METAR LRSB 090900Z VRB03KT CAVOK 25/18 Q1016=
201908090930 METAR LRSB 090930Z 35005KT 290V070 CAVOK 26/17 Q1016=
201908091000 METAR LRSB 091000Z 02006KT CAVOK 26/18 Q1016=
201908091030 METAR LRSB 091030Z VRB05KT 9999 FEW046 27/17 Q1016=
201908091100 METAR LRSB 091100Z 32008KT 9999 FEW045 28/16 Q1016=
201908091130 METAR LRSB 091130Z 33007KT 290V010 9999 FEW045 28/17 Q1016=
201908091200 METAR LRSB 091200Z 34008KT 9999 FEW043 29/16 Q1016=
201908091230 METAR LRSB 091230Z 33007KT 300V010 9999 FEW040 29/16 Q1015=
201908091300 METAR LRSB 091300Z 34008KT 310V010 9999 FEW040 28/16 Q1015=
201908091330 METAR LRSB 091330Z 32009KT 300V360 9999 FEW040 29/16 Q1015=
201908091400 METAR LRSB 091400Z 34008KT 9999 FEW035 29/16 Q1015=
201908091430 METAR LRSB 091430Z 32008KT 290V350 9999 FEW035 29/15 Q1015=
201908091500 METAR LRSB 091500Z 33009KT 300V360 9999 FEW035 29/13 Q1015=
201908091530 METAR LRSB 091530Z 32010KT 9999 FEW034 28/13 Q1015=
201908091600 METAR LRSB 091600Z 33008KT 300V360 9999 FEW034 28/14 Q1015=
201908091630 METAR LRSB 091630Z 33006KT CAVOK 27/14 Q1015=
201908091700 METAR LRSB 091700Z 31006KT CAVOK 26/14 Q1015 NOSIG=
201908091730 METAR LRSB 091730Z 25004KT 210V310 CAVOK 24/15 Q1015 NOSIG=
201908091800 METAR LRSB 091800Z 24007KT CAVOK 21/16 Q1016 NOSIG=
201908091830 METAR LRSB 091830Z 26007KT CAVOK 20/14 Q1016 NOSIG=
201908091900 METAR LRSB 091900Z 25007KT CAVOK 19/13 Q1017 NOSIG=
201908091930 METAR LRSB 091930Z 26005KT CAVOK 19/13 Q1017 NOSIG=
201908092000 METAR LRSB 092000Z 27006KT 9999 FEW050 19/13 Q1017 NOSIG=
201908092030 METAR LRSB 092030Z 24003KT 9999 SCT049 17/14 Q1017 NOSIG=
201908092100 METAR LRSB 092100Z 26007KT 9999 SCT052 19/14 Q1017 NOSIG=
201908092130 METAR LRSB 092130Z 26008KT 9999 FEW053 18/13 Q1017 NOSIG=
201908092200 METAR LRSB 092200Z 26008KT 9999 FEW053 18/13 Q1017 NOSIG=
201908092230 METAR LRSB 092230Z 21003KT 150V260 CAVOK 18/13 Q1017 NOSIG=
201908092300 METAR LRSB 092300Z 19003KT 120V260 CAVOK 16/13 Q1017 NOSIG=
201908092330 METAR LRSB 092330Z VRB01KT CAVOK 17/13 Q1017 NOSIG=
201908100000 METAR LRSB 100000Z 00000KT CAVOK 16/13 Q1017 NOSIG=
201908100030 METAR LRSB 100030Z VRB01KT CAVOK 17/13 Q1017 NOSIG=
201908100100 METAR LRSB 100100Z VRB02KT CAVOK 16/13 Q1017 NOSIG=
201908100130 METAR LRSB 100130Z AUTO VRB01KT 9999 NCD 15/13 Q1018 NOSIG=
201908100200 METAR LRSB 100200Z 19002KT CAVOK 14/13 Q1017 NOSIG=
201908100230 METAR COR LRSB 100230Z VRB01KT CAVOK 15/13 Q1017 NOSIG=
201908100300 METAR LRSB 100300Z 36002KT CAVOK 14/12 Q1018 NOSIG=
201908100330 METAR LRSB 100330Z 00000KT CAVOK 14/13 Q1018 NOSIG=
201908100400 METAR LRSB 100400Z VRB02KT CAVOK 15/13 Q1018 NOSIG=
201908100430 METAR LRSB 100430Z 07002KT CAVOK 17/14 Q1018 NOSIG=
201908100500 METAR LRSB 100500Z VRB02KT CAVOK 18/14 Q1018=
201908100530 METAR LRSB 100530Z 05002KT CAVOK 20/14 Q1018=
201908100600 METAR LRSB 100600Z VRB02KT CAVOK 21/14 Q1019=
201908100630 METAR LRSB 100630Z VRB02KT CAVOK 23/15 Q1018=
201908100700 METAR LRSB 100700Z 11004KT 060V150 CAVOK 23/14 Q1018=
201908100730 METAR LRSB 100730Z 12005KT 080V150 CAVOK 23/16 Q1019=
201908100800 METAR LRSB 100800Z 11003KT 070V160 CAVOK 25/15 Q1019=
201908100830 METAR LRSB 100830Z 09004KT 020V150 CAVOK 26/14 Q1019=
201908100900 METAR LRSB 100900Z 09004KT 060V150 CAVOK 27/12 Q1019=
201908100930 METAR LRSB 100930Z 09004KT 030V150 CAVOK 27/14 Q1019=
201908101000 METAR LRSB 101000Z AUTO 12003KT 080V220 9999 NCD 28/13 Q1018=
201908101030 METAR LRSB 101030Z 08004KT 350V130 CAVOK 28/13 Q1018=
201908101100 METAR LRSB 101100Z VRB03KT CAVOK 28/14 Q1018=
201908101130 METAR LRSB 101130Z VRB02KT CAVOK 29/13 Q1018=
201908101200 METAR LRSB 101200Z VRB03KT CAVOK 29/15 Q1018=
201908101230 METAR LRSB 101230Z VRB02KT CAVOK 29/14 Q1018=
201908101300 METAR LRSB 101300Z 35003KT 250V050 CAVOK 30/15 Q1017=
201908101330 METAR LRSB 101330Z VRB03KT CAVOK 29/14 Q1017=
201908101400 METAR LRSB 101400Z 01006KT 340V050 CAVOK 29/14 Q1018=
201908101430 METAR LRSB 101430Z 34004KT 310V020 CAVOK 29/15 Q1017=
201908101500 METAR LRSB 101500Z 01006KT 330V040 CAVOK 29/14 Q1018=
201908101530 METAR LRSB 101530Z 36006KT 320V030 CAVOK 29/15 Q1018=
201908101600 METAR LRSB 101600Z 01005KT 340V040 CAVOK 29/14 Q1018=
201908101630 METAR LRSB 101630Z 03004KT CAVOK 28/13 Q1018=
201908101700 METAR LRSB 101700Z 04003KT CAVOK 27/14 Q1018=
201908101730 METAR LRSB 101730Z 04003KT CAVOK 26/13 Q1018=
201908101800 METAR LRSB 101800Z 26007KT CAVOK 22/17 Q1018=
201908101830 METAR LRSB 101830Z 24003KT CAVOK 20/17 Q1019=
201908101900 METAR LRSB 101900Z 26005KT CAVOK 20/16 Q1019=
201908101930 METAR LRSB 101930Z 26002KT CAVOK 19/16 Q1019=
201908102000 METAR LRSB 102000Z VRB01KT CAVOK 19/16 Q1019=
201908102030 METAR LRSB 102030Z 00000KT CAVOK 19/16 Q1019=
201908102100 METAR LRSB 102100Z VRB01KT CAVOK 18/16 Q1019=
201908102130 METAR LRSB 102130Z 21002KT CAVOK 18/16 Q1019=
201908102200 METAR LRSB 102200Z VRB01KT CAVOK 18/17 Q1019=
201908102230 METAR LRSB 102230Z 00000KT CAVOK 18/16 Q1018=
201908102300 METAR LRSB 102300Z 07002KT CAVOK 18/16 Q1018=
201908102330 METAR LRSB 102330Z 07002KT CAVOK 18/16 Q1018=
201908110000 METAR LRSB 110000Z 10005KT CAVOK 17/15 Q1018=
201908110030 METAR COR LRSB 110030Z 10003KT CAVOK 16/15 Q1018=
201908110100 METAR LRSB 110100Z 12004KT CAVOK 16/15 Q1018=
201908110130 METAR LRSB 110130Z 10004KT CAVOK 16/15 Q1018=
201908110200 METAR LRSB 110200Z 12001KT CAVOK 16/15 Q1018=
201908110230 METAR LRSB 110230Z VRB02KT 9000 MIFG NSC 15/14 Q1018=
201908110300 METAR LRSB 110300Z 00000KT 8000 MIFG NSC 14/13 Q1018=
201908110330 METAR LRSB 110330Z 00000KT 9000 MIFG NSC 15/15 Q1018=
201908110400 METAR LRSB 110400Z 00000KT 9000 MIFG NSC 15/14 Q1019=
201908110430 METAR LRSB 110430Z 00000KT 9000 MIFG NSC 17/16 Q1019=
201908110500 METAR LRSB 110500Z 00000KT CAVOK 18/16 Q1019=
201908110530 METAR LRSB 110530Z VRB01KT CAVOK 20/17 Q1019=
201908110600 METAR LRSB 110600Z VRB03KT CAVOK 21/17 Q1019=
201908110630 METAR LRSB 110630Z VRB02KT CAVOK 23/16 Q1019=
201908110700 METAR LRSB 110700Z VRB02KT CAVOK 24/17 Q1019=
201908110730 METAR LRSB 110730Z VRB02KT CAVOK 25/17 Q1019=
201908110800 METAR LRSB 110800Z 03004KT 360V070 CAVOK 26/16 Q1020=
201908110830 METAR LRSB 110830Z 10003KT 060V160 CAVOK 27/17 Q1020=
201908110900 METAR LRSB 110900Z VRB02KT CAVOK 28/17 Q1020=
201908110930 METAR LRSB 110930Z VRB03KT CAVOK 29/16 Q1019=
201908111000 METAR LRSB 111000Z VRB04KT CAVOK 29/17 Q1019=
201908111030 METAR LRSB 111030Z 04005KT 350V090 CAVOK 30/17 Q1019=
201908111100 METAR LRSB 111100Z VRB03KT CAVOK 31/17 Q1019=
201908111130 METAR LRSB 111130Z 03004KT 320V100 CAVOK 31/14 Q1019=
201908111200 METAR LRSB 111200Z 33005KT 280V030 CAVOK 31/14 Q1019=
201908111230 METAR LRSB 111230Z VRB02KT CAVOK 32/12 Q1019=
201908111300 METAR LRSB 111300Z VRB03KT CAVOK 31/16 Q1018=
201908111330 METAR LRSB 111330Z 02004KT 320V090 CAVOK 32/16 Q1018=
201908111400 METAR LRSB 111400Z 25004KT 210V330 CAVOK 32/15 Q1018=
201908111430 METAR LRSB 111430Z 25004KT 220V290 CAVOK 32/15 Q1018=
201908111500 METAR LRSB 111500Z 23004KT 190V260 CAVOK 31/15 Q1018=
201908111530 METAR LRSB 111530Z 23004KT CAVOK 31/15 Q1018=
201908111600 METAR LRSB 111600Z 25004KT CAVOK 31/15 Q1018=
201908111630 METAR LRSB 111630Z AUTO 22004KT 9999 NCD 30/18 Q1018=
201908111700 METAR LRSB 111700Z 23004KT CAVOK 28/20 Q1018=
201908111730 METAR LRSB 111730Z 25006KT CAVOK 25/19 Q1018=
201908111800 METAR LRSB 111800Z 23003KT CAVOK 24/19 Q1018=
201908111830 METAR LRSB 111830Z 26005KT CAVOK 23/18 Q1018=
201908111900 METAR LRSB 111900Z VRB01KT CAVOK 23/18 Q1018=
201908111930 METAR LRSB 111930Z 27002KT CAVOK 22/18 Q1019=
201908112000 METAR LRSB 112000Z AUTO 24003KT 9999 NCD 21/18 Q1019=
201908112030 METAR LRSB 112030Z 00000KT CAVOK 21/18 Q1019=
201908112100 METAR LRSB 112100Z 00000KT CAVOK 20/17 Q1019=
201908112130 METAR LRSB 112130Z AUTO 25003KT 9999 NCD 19/17 Q1019=
201908112200 METAR LRSB 112200Z VRB01KT CAVOK 19/17 Q1019=
201908112230 METAR LRSB 112230Z VRB01KT CAVOK 18/17 Q1019=
201908112300 METAR LRSB 112300Z AUTO 00000KT 9999 NCD 18/17 Q1019=
201908112330 METAR LRSB 112330Z 13001KT CAVOK 18/17 Q1018=
201908120000 METAR LRSB 120000Z 11004KT CAVOK 19/17 Q1018=
201908120030 METAR LRSB 120030Z 10004KT CAVOK 18/16 Q1018=
201908120100 METAR LRSB 120100Z 12002KT CAVOK 18/16 Q1018=
201908120130 METAR COR LRSB 120130Z 13002KT CAVOK 17/16 Q1018=
201908120200 METAR LRSB 120200Z AUTO 15003KT 7000 NCD 18/16 Q1018=
201908120230 METAR LRSB 120230Z 14002KT CAVOK 17/16 Q1018=
201908120300 METAR LRSB 120300Z 11005KT CAVOK 18/17 Q1018=
201908120330 METAR LRSB 120330Z 12004KT CAVOK 18/17 Q1018=
201908120400 METAR LRSB 120400Z 12003KT CAVOK 18/16 Q1018=
201908120430 METAR LRSB 120430Z 12002KT CAVOK 19/17 Q1018=
201908120500 METAR LRSB 120500Z 00000KT CAVOK 20/17 Q1018=
201908120530 METAR LRSB 120530Z VRB02KT CAVOK 21/17 Q1019=
201908120600 METAR LRSB 120600Z 15003KT 110V180 CAVOK 22/18 Q1019=
201908120630 METAR LRSB 120630Z VRB02KT CAVOK 24/18 Q1019=
201908120700 METAR LRSB 120700Z VRB01KT CAVOK 25/18 Q1019=
201908120730 METAR LRSB 120730Z VRB01KT CAVOK 28/19 Q1018=
201908120800 METAR LRSB 120800Z VRB02KT CAVOK 28/17 Q1018=
201908120830 METAR LRSB 120830Z VRB02KT CAVOK 30/18 Q1018=
201908120900 METAR LRSB 120900Z VRB03KT CAVOK 31/17 Q1018=
201908120930 METAR LRSB 120930Z VRB04KT CAVOK 31/16 Q1018=
201908121000 METAR LRSB 121000Z 14008KT CAVOK 32/16 Q1017=
201908121030 METAR LRSB 121030Z 14009KT 110V170 CAVOK 32/16 Q1017=
201908121100 METAR LRSB 121100Z 13010KT CAVOK 33/16 Q1017=
201908121130 METAR LRSB 121130Z 13009KT CAVOK 33/16 Q1017=
201908121200 METAR LRSB 121200Z 13011KT CAVOK 33/16 Q1017=
201908121230 METAR LRSB 121230Z 14010KT CAVOK 33/16 Q1017=
201908121300 METAR LRSB 121300Z 14010KT CAVOK 33/16 Q1016=
201908121330 METAR LRSB 121330Z 15011KT CAVOK 33/17 Q1016=
201908121400 METAR LRSB 121400Z 14009KT CAVOK 33/17 Q1016=
201908121430 METAR LRSB 121430Z 14010KT CAVOK 32/16 Q1016=
201908121500 METAR LRSB 121500Z NIL=
201908121530 METAR LRSB 121530Z NIL=
201908121600 METAR LRSB 121600Z 14007KT CAVOK 31/17 Q1016=
201908121630 METAR COR LRSB 121630Z 14006KT CAVOK 30/17 Q1016=
201908121700 METAR LRSB 121700Z 14005KT CAVOK 28/18 Q1016=
201908121730 METAR LRSB 121730Z 16005KT 130V190 CAVOK 28/17 Q1016=
201908121800 METAR COR LRSB 121800Z 18004KT 150V210 CAVOK 26/18 Q1016=
201908121830 METAR LRSB 121830Z 18004KT CAVOK 26/18 Q1016=
201908121900 METAR LRSB 121900Z 17005KT CAVOK 25/17 Q1016=
201908121930 METAR LRSB 121930Z 16004KT CAVOK 25/16 Q1016=
201908122000 METAR LRSB 122000Z 18005KT CAVOK 26/16 Q1016=
201908122030 METAR LRSB 122030Z 17004KT CAVOK 26/15 Q1016=
201908122100 METAR LRSB 122100Z 14005KT CAVOK 26/15 Q1016=
201908122130 METAR LRSB 122130Z 14006KT CAVOK 25/15 Q1016=
201908122200 METAR LRSB 122200Z 15004KT 090V180 CAVOK 25/15 Q1016=
201908122230 METAR LRSB 122230Z 13006KT CAVOK 24/15 Q1016=
201908122300 METAR LRSB 122300Z 14008KT CAVOK 24/15 Q1016=
201908122330 METAR LRSB 122330Z 18004KT CAVOK 24/14 Q1016=
201908130000 METAR LRSB 130000Z 19005KT 150V240 CAVOK 24/14 Q1016=
201908130030 METAR LRSB 130030Z 17008KT CAVOK 26/13 Q1016=
201908130100 METAR LRSB 130100Z 15007KT CAVOK 24/14 Q1015=
201908130130 METAR LRSB 130130Z 15006KT CAVOK 24/14 Q1015=
201908130200 METAR LRSB 130200Z VRB03KT CAVOK 22/14 Q1015=
201908130230 METAR LRSB 130230Z 17005KT 120V230 CAVOK 23/13 Q1015=
201908130300 METAR COR LRSB 130300Z 15009KT CAVOK 24/13 Q1015=
201908130330 METAR LRSB 130330Z 16009KT CAVOK 23/13 Q1015=
201908130400 METAR LRSB 130400Z 16007KT CAVOK 23/13 Q1015=
201908130430 METAR LRSB 130430Z 16007KT CAVOK 24/13 Q1015=
201908130500 METAR LRSB 130500Z 23005KT 190V260 CAVOK 24/14 Q1015=
201908130530 METAR LRSB 130530Z 20004KT 150V240 CAVOK 25/15 Q1015=
201908130600 METAR LRSB 130600Z 22003KT 150V270 CAVOK 26/14 Q1015=
201908130630 METAR LRSB 130630Z 18003KT CAVOK 28/15 Q1015=
201908130700 METAR LRSB 130700Z 14010KT 120V180 CAVOK 29/13 Q1015=
201908130730 METAR LRSB 130730Z 14010KT CAVOK 30/12 Q1015=
201908130800 METAR LRSB 130800Z 13011KT CAVOK 30/12 Q1015=
201908130830 METAR LRSB 130830Z 14011KT CAVOK 31/12 Q1015=
201908130900 METAR LRSB 130900Z 14013KT CAVOK 31/12 Q1015=
201908130930 METAR LRSB 130930Z 14013KT CAVOK 31/13 Q1015=
201908131000 METAR LRSB 131000Z 15011KT CAVOK 32/13 Q1015=
201908131030 METAR LRSB 131030Z 13012KT CAVOK 32/13 Q1015=
201908131100 METAR LRSB 131100Z 15011KT 110V170 CAVOK 32/13 Q1014=
201908131130 METAR LRSB 131130Z 14010KT 110V170 CAVOK 33/14 Q1014=
201908131200 METAR LRSB 131200Z 15010KT CAVOK 33/13 Q1014=
201908131230 METAR LRSB 131230Z 14009KT CAVOK 33/13 Q1014=
201908131300 METAR LRSB 131300Z 14009KT CAVOK 33/13 Q1014=
201908131330 METAR LRSB 131330Z 14009KT 120V180 CAVOK 33/14 Q1013=
201908131400 METAR LRSB 131400Z 14007KT 100V170 CAVOK 33/14 Q1013=
201908131430 METAR LRSB 131430Z 14006KT 100V160 CAVOK 32/14 Q1013=
201908131500 METAR LRSB 131500Z 14007KT CAVOK 32/15 Q1013=
201908131530 METAR LRSB 131530Z 14007KT CAVOK 31/15 Q1013=
201908131600 METAR LRSB 131600Z 15006KT CAVOK 31/15 Q1013=
201908131630 METAR LRSB 131630Z 14005KT CAVOK 30/15 Q1013=
201908131700 METAR LRSB 131700Z 14004KT CAVOK 28/16 Q1013=
201908131730 METAR LRSB 131730Z 21003KT 180V260 CAVOK 26/17 Q1013=
201908131800 METAR LRSB 131800Z VRB02KT CAVOK 25/18 Q1013=
201908131830 METAR LRSB 131830Z VRB01KT CAVOK 24/18 Q1013=
201908131900 METAR LRSB 131900Z 15003KT CAVOK 25/16 Q1013=
201908131930 METAR LRSB 131930Z 15004KT CAVOK 24/16 Q1013=
201908132000 METAR LRSB 132000Z 16004KT CAVOK 26/15 Q1013=
201908132030 METAR LRSB 132030Z 18004KT 140V220 CAVOK 23/15 Q1013=
201908132100 METAR LRSB 132100Z VRB01KT CAVOK 22/15 Q1013=
201908132130 METAR LRSB 132130Z VRB01KT CAVOK 22/15 Q1013=
201908132200 METAR LRSB 132200Z 28005KT CAVOK 21/16 Q1013=
201908132230 METAR LRSB 132230Z VRB02KT CAVOK 20/16 Q1013=
201908132300 METAR LRSB 132300Z 32003KT CAVOK 20/15 Q1013=
201908132330 METAR LRSB 132330Z 29003KT CAVOK 19/15 Q1012=
201908140000 METAR LRSB 140000Z 00000KT CAVOK 18/15 Q1012=
201908140030 METAR LRSB 140030Z 24005KT 130V260 CAVOK 19/14 Q1012=
201908140100 METAR LRSB 140100Z 31004KT CAVOK 19/14 Q1012=
201908140130 METAR LRSB 140130Z VRB02KT CAVOK 17/14 Q1011=
201908140200 METAR LRSB 140200Z 28003KT CAVOK 19/13 Q1011=
201908140230 METAR LRSB 140230Z VRB02KT CAVOK 18/13 Q1011=
201908140300 METAR LRSB 140300Z VRB01KT CAVOK 16/14 Q1011=
201908140330 METAR LRSB 140330Z 00000KT CAVOK 15/13 Q1011=
201908140400 METAR LRSB 140400Z VRB02KT CAVOK 16/14 Q1011=
201908140430 METAR LRSB 140430Z 26003KT 220V280 CAVOK 18/15 Q1011=
201908140500 METAR LRSB 140500Z 00000KT CAVOK 19/15 Q1011=
201908140530 METAR LRSB 140530Z 00000KT CAVOK 22/15 Q1011 NOSIG=
201908140600 METAR LRSB 140600Z 00000KT CAVOK 24/14 Q1011 NOSIG=
201908140630 METAR LRSB 140630Z 10003KT 070V130 CAVOK 25/14 Q1011 NOSIG=
201908140700 METAR LRSB 140700Z VRB02KT CAVOK 27/13 Q1011 NOSIG=
201908140730 METAR LRSB 140730Z VRB02KT CAVOK 28/13 Q1011 NOSIG=
201908140800 METAR LRSB 140800Z VRB03KT CAVOK 28/13 Q1010 NOSIG=
201908140830 METAR LRSB 140830Z VRB02KT CAVOK 29/13 Q1011 NOSIG=
201908140900 METAR LRSB 140900Z 35005KT 9999 FEW038 29/14 Q1011 NOSIG=
201908140930 METAR LRSB 140930Z 36007KT 9999 FEW040 30/16 Q1010 NOSIG=
201908141000 METAR LRSB 141000Z 31009KT 280V340 9999 FEW043 30/15 Q1010
                        NOSIG=
201908141030 METAR LRSB 141030Z 30008KT 270V330 9999 FEW043 30/15 Q1010
                        NOSIG=
201908141100 METAR LRSB 141100Z 32009KT 290V350 9999 FEW045 30/16 Q1010
                        NOSIG=
201908141130 METAR LRSB 141130Z 30012KT 270V330 9999 FEW045 30/16 Q1011
                        NOSIG=
201908141200 METAR LRSB 141200Z 29018KT 9999 FEW046 29/17 Q1010 NOSIG=
201908141230 METAR LRSB 141230Z 30020KT 9999 FEW048 28/17 Q1010 NOSIG=
201908141300 METAR COR LRSB 141300Z 30022KT 9999 FEW048 26/16 Q1011 NOSIG=
201908141330 METAR LRSB 141330Z 30023KT 9999 FEW050 SCT080 26/17 Q1011
                        NOSIG=
201908141400 METAR LRSB 141400Z 29018KT 9999 FEW050 SCT076 27/16 Q1011
                        NOSIG=
201908141430 METAR LRSB 141430Z 29015KT 9999 FEW050 SCT076 27/17 Q1011
                        NOSIG=
201908141500 METAR LRSB 141500Z 29014KT 9999 FEW053 SCT078 26/17 Q1011
                        NOSIG=
201908141530 METAR LRSB 141530Z 29012KT 9999 FEW050CB SCT060 26/17 Q1010
                        NOSIG=
201908141600 METAR LRSB 141600Z 29011KT 9999 FEW050CB SCT060 25/16 Q1011
                        NOSIG=
201908141630 METAR LRSB 141630Z 30009KT 9999 -SHRA SCT050CB BKN070 24/16
                        Q1011 NOSIG=
201908141700 METAR LRSB 141700Z 30012KT 9999 -SHRA SCT046CB SCT077 23/17
                        Q1011=
201908141730 METAR LRSB 141730Z 32009KT 9999 SCT047CB 22/17 Q1012=
201908141800 METAR LRSB 141800Z 31013KT 9999 FEW046CB BKN066 21/16 Q1012=
201908141830 METAR LRSB 141830Z 32015KT 9999 SCT043CB OVC065 21/16 Q1013=
201908141900 METAR LRSB 141900Z 29022KT 9999 SCT053CB BKN067 21/15 Q1013=
201908141930 METAR LRSB 141930Z 30013KT 9999 FEW047CB BKN066 21/14 Q1013=
201908142000 METAR LRSB 142000Z 31015KT 9999 OVC038 20/14 Q1014=
201908142030 METAR LRSB 142030Z 30013KT 9999 -RA OVC040 20/14 Q1014=
201908142100 METAR LRSB 142100Z 29010KT 9999 BKN044 20/14 Q1014=
201908142130 METAR LRSB 142130Z 31007KT 9999 BKN048 19/14 Q1014=
201908142200 METAR LRSB 142200Z 34005KT 9999 BKN052 19/14 Q1014=
201908142230 METAR LRSB 142230Z 28004KT 260V320 9999 -RA OVC049 18/15
                        Q1015=
201908142300 METAR LRSB 142300Z 30009KT 9999 -SHRA FEW036 SCT046CB BKN070
                        17/15 Q1014 R27/19//95=
201908142330 METAR LRSB 142330Z 31008KT 9999 FEW043CB OVC061 17/15 Q1014
                        R27/19//95=
201908150000 METAR LRSB 150000Z 21004KT 9999 OVC054 17/15 Q1014 R27/19//95=
201908150030 METAR LRSB 150030Z 20004KT 9999 BKN067 17/15 Q1014 R27/19//95=
201908150100 METAR LRSB 150100Z VRB02KT 9999 SCT071 17/15 Q1014 R27/19//95=
201908150130 METAR LRSB 150130Z VRB01KT 9999 SCT070 17/15 Q1013 R27/19//95=
201908150200 METAR LRSB 150200Z 00000KT 9999 SCT066 17/15 Q1013 R27/19//95=
201908150230 METAR LRSB 150230Z 10002KT 9999 SCT066 17/15 Q1013 R27/19//95=
201908150300 METAR LRSB 150300Z 02003KT 9999 FEW016 BKN067 17/15 Q1013
                        R27/19//95=
201908150330 METAR LRSB 150330Z VRB01KT 9999 FEW056 BKN087 17/15 Q1013
                        R27/19//95=
201908150400 METAR LRSB 150400Z 23002KT 9999 -RA BKN042 SCT056 17/16 Q1013
                        R27/19//95=
201908150430 METAR LRSB 150430Z 00000KT 9999 -RA FEW004 BKN055 17/16 Q1014
                        R27/19//95=
201908150500 METAR LRSB 150500Z 02003KT 9999 FEW005 SCT029 BKN061 17/16
                        Q1014 R27/19//95=
201908150530 METAR LRSB 150530Z 01004KT 340V040 9999 FEW006 SCT027 BKN060
                        17/16 Q1014 R27/19//95=
201908150600 METAR LRSB 150600Z 35005KT 9999 FEW006 SCT019 BKN060 17/16
                        Q1014 R27/19//95=
201908150630 METAR LRSB 150630Z 36008KT 9999 FEW007 SCT018 BKN060 17/16
                        Q1014 R27/19//95=
201908150700 METAR LRSB 150700Z 35008KT 9999 FEW007 BKN020 17/15 Q1014
                        R27/19//95=
201908150730 METAR LRSB 150730Z 34006KT 9999 SCT010 BKN020 17/15 Q1014
                        R27/19//95=
201908150800 METAR LRSB 150800Z 35006KT 9999 SCT012 BKN022 18/15 Q1014
                        R27/CLRD//=
201908150830 METAR LRSB 150830Z 36007KT 330V030 9999 FEW008 SCT012 BKN022
                        18/15 Q1014=
201908150900 METAR LRSB 150900Z 36008KT 9999 FEW008 SCT012 BKN022 18/15
                        Q1014=
201908150930 METAR LRSB 150930Z 01005KT 330V030 9999 FEW009 BKN024 18/15
                        Q1014=
201908151000 METAR LRSB 151000Z 35005KT 310V030 9999 FEW009 SCT014 BKN026
                        18/15 Q1014=
201908151030 METAR LRSB 151030Z 34004KT 310V010 9999 SCT012 BKN024 18/14
                        Q1014=
201908151100 METAR LRSB 151100Z 28006KT 9999 SCT012 BKN023 18/14 Q1014=
201908151130 METAR LRSB 151130Z 25006KT 220V280 9999 SCT013 BKN024 18/15
                        Q1014=
201908151200 METAR LRSB 151200Z 24006KT 9999 FEW013 BKN023 FEW030CB 19/15
                        Q1014=
201908151230 METAR LRSB 151230Z 32004KT 270V070 9999 FEW014 BKN020 FEW030CB
                        19/15 Q1014=
201908151300 METAR LRSB 151300Z 26006KT 9999 FEW014 BKN020 FEW030CB 19/15
                        Q1014=
201908151330 METAR LRSB 151330Z 25006KT 9999 BKN024 FEW032CB 19/15 Q1014=
201908151400 METAR LRSB 151400Z 27004KT 240V320 9999 BKN026 19/15 Q1014=
201908151430 METAR LRSB 151430Z 31005KT 270V340 9999 FEW020 BKN028 19/15
                        Q1014=
201908151500 METAR LRSB 151500Z 33004KT 290V010 9999 SCT030 SCT040 19/14
                        Q1014=
201908151530 METAR LRSB 151530Z VRB02KT 9999 SCT028 SCT038 19/13 Q1014=
201908151600 METAR LRSB 151600Z 29004KT 9999 SCT026 BKN035 19/13 Q1014=
201908151630 METAR LRSB 151630Z 27003KT 9999 BKN032 19/15 Q1014=
201908151700 METAR LRSB 151700Z 35003KT 9999 OVC033 19/13 Q1014=
201908151730 METAR COR LRSB 151730Z 06003KT 9999 OVC035 18/14 Q1014=
201908151800 METAR LRSB 151800Z VRB02KT 9999 OVC031 18/13 Q1015=
201908151830 METAR LRSB 151830Z 20003KT 9999 BKN031 18/15 Q1015=
201908151900 METAR LRSB 151900Z 27003KT 9999 OVC035 18/15 Q1015=
201908151930 METAR LRSB 151930Z 35005KT 9999 OVC039 17/14 Q1015=
201908152000 METAR LRSB 152000Z 36007KT 9999 BKN035 17/14 Q1016=
201908152030 METAR LRSB 152030Z 35006KT 9999 BKN035 17/15 Q1015=
201908152100 METAR LRSB 152100Z 35006KT 9999 OVC035 17/14 Q1015=
201908152130 METAR LRSB 152130Z 32003KT 9999 OVC035 17/14 Q1016=
201908152200 METAR LRSB 152200Z 35004KT 9999 OVC035 17/14 Q1015=
201908152230 METAR LRSB 152230Z 03002KT 9999 BKN020 16/14 Q1015=
201908152300 METAR LRSB 152300Z AUTO 02003KT 9999 OVC018/// 16/14 Q1015=
201908152330 METAR COR LRSB 152330Z 03003KT 9999 BKN020 16/14 Q1015=
201908160000 METAR LRSB 160000Z VRB01KT 9999 BKN020 16/13 Q1015=
201908160030 METAR COR LRSB 160030Z 00000KT 9999 BKN020 16/14 Q1015=
201908160100 METAR LRSB 160100Z AUTO 00000KT 9999 SCT021/// SCT032///
                        BKN041/// 16/14 Q1015=
201908160130 METAR COR LRSB 160130Z 22002KT 9999 BKN020 16/15 Q1015=
201908160200 METAR LRSB 160200Z 00000KT 9999 BKN020 16/14 Q1015=
201908160230 METAR LRSB 160230Z 00000KT 9999 BKN020 16/14 Q1015=
201908160300 METAR LRSB 160300Z 00000KT 9999 BKN020 16/15 Q1015=
201908160330 METAR LRSB 160330Z 28003KT 9999 -RA SCT014 OVC020 16/15 Q1015
                        R27/29//95=
201908160400 METAR LRSB 160400Z 29002KT 9999 -RA FEW005 SCT014 OVC020
                        16/14 Q1015 R27/29//95=
201908160430 METAR LRSB 160430Z 30003KT 9999 SCT005 OVC020 16/14 Q1016
                        R27/29//95=
201908160500 METAR LRSB 160500Z 36005KT 9999 SCT005 OVC020 16/14 Q1016
                        R27/29//95=
201908160530 METAR LRSB 160530Z 36007KT 9999 FEW007 SCT012 BKN034 15/14
                        Q1016 R27/29//95=
201908160600 METAR LRSB 160600Z 35008KT 9999 FEW007 SCT012 BKN034 16/13
                        Q1016 R27/19//95=
201908160630 METAR LRSB 160630Z 35009KT 9999 SCT014 SCT020 BKN052 16/13
                        Q1016 R27/19//95=
201908160700 METAR LRSB 160700Z 36009KT 9999 FEW015 SCT022 BKN055 17/13
                        Q1016 R27/19//95=
201908160730 METAR LRSB 160730Z 36008KT 330V030 9999 SCT015 SCT023 BKN056
                        17/13 Q1016 R27/19//95=
201908160800 METAR LRSB 160800Z 36008KT 9999 FEW015 SCT026 BKN056 18/13
                        Q1016 R27/CLRD//=
201908160830 METAR LRSB 160830Z 36008KT 320V030 9999 FEW018 SCT029 BKN058
                        18/12 Q1016=
201908160900 METAR LRSB 160900Z 02007KT 340V050 9999 FEW021 SCT030 BKN058
                        19/13 Q1016=
201908160930 METAR LRSB 160930Z 35006KT 270V030 9999 FEW023 SCT031 BKN060
                        19/13 Q1016=
201908161000 METAR LRSB 161000Z 33003KT 280V040 9999 SCT026 FEW030TCU
                        BKN050 19/12 Q1016=
201908161030 METAR LRSB 161030Z 32003KT 230V020 9999 SCT026 SCT031TCU
                        19/13 Q1016=
201908161100 METAR LRSB 161100Z 28005KT 260V320 9999 SCT027 SCT032TCU
                        19/13 Q1016=
201908161130 METAR LRSB 161130Z 24003KT 170V310 9999 SCT026 SCT032TCU
                        20/13 Q1016=
201908161200 METAR LRSB 161200Z 23005KT 200V260 9999 SCT030 FEW033CB 20/13
                        Q1016=
201908161230 METAR LRSB 161230Z 17005KT 120V200 9999 FEW032 FEW035CB 20/13
                        Q1016=
201908161300 METAR LRSB 161300Z 12003KT 050V180 9999 FEW032 FEW035CB 21/12
                        Q1016=
201908161330 METAR LRSB 161330Z 18004KT 110V240 9999 FEW033 FEW035CB 22/12
                        Q1015=
201908161400 METAR LRSB 161400Z 21004KT 160V250 9999 SCT033 FEW035CB 22/12
                        Q1015=
201908161430 METAR LRSB 161430Z 30003KT 250V020 9999 SCT034 FEW036CB 21/11
                        Q1015=
201908161500 METAR LRSB 161500Z VRB02KT 9999 SCT035 SCT037CB 21/13 Q1015=
201908161530 METAR LRSB 161530Z 11004KT 9999 SCT036 SCT038CB 20/13 Q1015=
201908161600 METAR LRSB 161600Z 11005KT 9999 FEW034 SCT038CB 20/13 Q1016=
201908161630 METAR LRSB 161630Z 10004KT 050V140 9999 FEW032 SCT036CB 19/13
                        Q1016 R27/19//95=
201908161700 METAR LRSB 161700Z 12003KT 9999 FEW036CB BKN076 19/14 Q1016
                        R27/19//95=
201908161730 METAR LRSB 161730Z 13003KT 9999 FEW038 BKN080 19/14 Q1016
                        R27/CLRD//=
201908161800 METAR LRSB 161800Z 21003KT 9999 FEW040 SCT083 18/14 Q1016=
201908161830 METAR LRSB 161830Z 25005KT 9999 FEW085 17/14 Q1016=
201908161900 METAR LRSB 161900Z VRB01KT 9999 FEW056 17/14 Q1017=
201908161930 METAR LRSB 161930Z 23005KT 9999 SCT058 SCT086 17/13 Q1017=
201908162000 METAR LRSB 162000Z 11002KT 9999 SCT060 SCT086 17/14 Q1017=
201908162030 METAR LRSB 162030Z VRB01KT 9999 SCT062 SCT084 17/13 Q1017=
201908162100 METAR LRSB 162100Z VRB02KT 9999 BKN063 SCT084 17/13 Q1017=
201908162130 METAR COR LRSB 162130Z 00000KT 9999 SCT064 SCT086 16/13 Q1017=
201908162200 METAR LRSB 162200Z VRB01KT 9999 BKN066 16/13 Q1017=
201908162230 METAR LRSB 162230Z VRB02KT 9999 SCT066 15/12 Q1017=
201908162300 METAR COR LRSB 162300Z VRB02KT 9999 FEW068 14/12 Q1017=
201908162330 METAR LRSB 162330Z AUTO 25005KT 9999 NCD 12/10 Q1017=
201908170000 METAR LRSB 170000Z 25003KT 9999 FEW068 12/10 Q1017=
201908170030 METAR LRSB 170030Z 25005KT CAVOK 13/10 Q1017=
201908170100 METAR LRSB 170100Z AUTO VRB01KT 9999 SCT066/// 13/11 Q1017=
201908170130 METAR COR LRSB 170130Z VRB01KT CAVOK 13/10 Q1017=
201908170200 METAR LRSB 170200Z 18002KT 9999 FEW056 12/10 Q1017=
201908170230 METAR LRSB 170230Z 24003KT 9999 SCT056 12/10 Q1017=
201908170300 METAR COR LRSB 170300Z 05002KT 9999 SCT058 12/10 Q1017=
201908170330 METAR LRSB 170330Z 06003KT 9999 SCT060 13/10 Q1017=
201908170400 METAR LRSB 170400Z 06002KT 9999 FEW058 13/10 Q1017=
201908170430 METAR LRSB 170430Z VRB02KT 9999 FEW056 13/11 Q1018=
201908170500 METAR LRSB 170500Z 09003KT 060V120 9999 FEW055 15/12 Q1018=
201908170530 METAR LRSB 170530Z VRB02KT 9999 FEW054 SCT070 15/12 Q1018
                        NOSIG=
201908170600 METAR LRSB 170600Z VRB02KT 9999 FEW055 SCT066 17/11 Q1018
                        NOSIG=
201908170630 METAR LRSB 170630Z VRB02KT 9999 FEW040 SCT066 17/12 Q1018
                        NOSIG=
201908170700 METAR LRSB 170700Z VRB02KT 9999 FEW040 18/12 Q1018 NOSIG=
201908170730 METAR LRSB 170730Z VRB02KT 9999 FEW043 19/12 Q1018 NOSIG=
201908170800 METAR LRSB 170800Z VRB02KT 9999 FEW036 21/12 Q1018 NOSIG=
201908170830 METAR LRSB 170830Z VRB02KT 9999 FEW038 22/12 Q1018 NOSIG=
201908170900 METAR LRSB 170900Z VRB03KT 9999 FEW038 21/11 Q1018 NOSIG=
201908170930 METAR LRSB 170930Z 25005KT 210V310 9999 SCT040 22/10 Q1018
                        NOSIG=
201908171000 METAR LRSB 171000Z VRB04KT 9999 SCT040 23/10 Q1018 NOSIG=
201908171030 METAR LRSB 171030Z VRB04KT 9999 SCT043 23/08 Q1018 NOSIG=
201908171100 METAR LRSB 171100Z 23005KT 130V300 9999 SCT045 23/09 Q1018
                        NOSIG=
201908171130 METAR LRSB 171130Z 01006KT 350V050 9999 SCT046 24/08 Q1017
                        NOSIG=
201908171200 METAR LRSB 171200Z VRB04KT 9999 SCT048 24/10 Q1017 NOSIG=
201908171230 METAR LRSB 171230Z 31005KT 270V350 9999 SCT050 23/09 Q1017
                        NOSIG=
201908171300 METAR LRSB 171300Z 28006KT 250V340 9999 SCT053 23/09 Q1017
                        NOSIG=
201908171330 METAR LRSB 171330Z 32005KT 270V040 9999 SCT055 24/09 Q1017
                        NOSIG=
201908171400 METAR LRSB 171400Z 34003KT 230V020 9999 SCT056 SCT075 23/09
                        Q1017 NOSIG=
201908171430 METAR LRSB 171430Z 33004KT 290V350 9999 FEW056 SCT073 23/09
                        Q1017 NOSIG=
201908171500 METAR LRSB 171500Z 28005KT 240V330 9999 FEW056 SCT073 24/09
                        Q1017 NOSIG=
201908171530 METAR LRSB 171530Z 28004KT 250V350 9999 FEW056 SCT066 24/10
                        Q1017 NOSIG=
201908171600 METAR LRSB 171600Z 29006KT 9999 FEW058 SCT068 23/10 Q1017
                        NOSIG=
201908171630 METAR LRSB 171630Z 29004KT 9999 FEW055 SCT065 22/11 Q1017
                        NOSIG=
201908171700 METAR LRSB 171700Z VRB02KT 9999 FEW052 SCT060 20/13 Q1017=
201908171730 METAR LRSB 171730Z 26005KT 9999 FEW048 SCT056 19/13 Q1017=
201908171800 METAR LRSB 171800Z 23004KT 9999 FEW048 SCT056 19/13 Q1017=
201908171830 METAR LRSB 171830Z 22003KT 9999 FEW048 SCT055 18/14 Q1017=
201908171900 METAR LRSB 171900Z 21002KT 9999 FEW055 SCT075 18/14 Q1017=
201908171930 METAR COR LRSB 171930Z 22004KT 9999 FEW055 SCT075 16/13 Q1017=
201908172000 METAR LRSB 172000Z 17002KT 9999 FEW057 SCT076 16/13 Q1017=
201908172030 METAR LRSB 172030Z VRB01KT 9999 SCT058 17/13 Q1018=
201908172100 METAR LRSB 172100Z VRB02KT 9999 SCT058 17/12 Q1018=
201908172130 METAR LRSB 172130Z VRB01KT 9999 SCT058 SCT077 16/13 Q1018=
201908172200 METAR LRSB 172200Z 25004KT 9999 SCT060 SCT080 17/12 Q1018=
201908172230 METAR LRSB 172230Z VRB02KT 9999 FEW060 SCT080 16/12 Q1018=
201908172300 METAR LRSB 172300Z VRB02KT 9999 FEW064 16/12 Q1018=
201908172330 METAR LRSB 172330Z VRB02KT CAVOK 16/12 Q1018=
201908180000 METAR LRSB 180000Z 11003KT CAVOK 15/12 Q1018=
201908180030 METAR LRSB 180030Z 07004KT CAVOK 14/12 Q1018=
201908180100 METAR LRSB 180100Z 08003KT CAVOK 14/11 Q1018=
201908180130 METAR LRSB 180130Z 08002KT CAVOK 13/11 Q1018=
201908180200 METAR LRSB 180200Z AUTO 00000KT 9999 NCD 12/11 Q1017=
201908180230 METAR LRSB 180230Z 06002KT CAVOK 13/11 Q1017=
201908180300 METAR LRSB 180300Z 09002KT CAVOK 12/11 Q1017=
201908180330 METAR LRSB 180330Z VRB01KT CAVOK 12/11 Q1018=
201908180400 METAR LRSB 180400Z VRB02KT CAVOK 12/11 Q1018=
201908180430 METAR LRSB 180430Z VRB01KT CAVOK 14/12 Q1018=
201908180500 METAR LRSB 180500Z 09003KT CAVOK 15/12 Q1018=
201908180530 METAR LRSB 180530Z VRB02KT CAVOK 17/12 Q1018=
201908180600 METAR LRSB 180600Z VRB01KT CAVOK 19/12 Q1018=
201908180630 METAR LRSB 180630Z VRB02KT CAVOK 20/12 Q1018=
201908180700 METAR LRSB 180700Z 12003KT CAVOK 21/12 Q1018=
201908180730 METAR LRSB 180730Z VRB02KT CAVOK 22/12 Q1018=
201908180800 METAR LRSB 180800Z VRB04KT CAVOK 23/12 Q1018=
201908180830 METAR LRSB 180830Z 35004KT 280V080 CAVOK 24/13 Q1019=
201908180900 METAR LRSB 180900Z 33007KT CAVOK 24/12 Q1018=
201908180930 METAR LRSB 180930Z 36007KT 320V030 9999 FEW035 24/11 Q1018=
201908181000 METAR LRSB 181000Z 36008KT 320V050 9999 FEW040 25/12 Q1018=
201908181030 METAR LRSB 181030Z 36004KT 9999 FEW045 25/11 Q1018=
201908181100 METAR LRSB 181100Z 31006KT 210V020 9999 FEW045 26/10 Q1018=
201908181130 METAR LRSB 181130Z 29007KT 9999 FEW045 26/08 Q1018=
201908181200 METAR LRSB 181200Z 31004KT 9999 FEW050 26/10 Q1018=
201908181230 METAR LRSB 181230Z VRB03KT CAVOK 27/10 Q1018=
201908181300 METAR LRSB 181300Z 31007KT 280V350 CAVOK 27/08 Q1018=
201908181330 METAR LRSB 181330Z VRB06KT CAVOK 27/07 Q1018=
201908181400 METAR LRSB 181400Z 28005KT 250V320 CAVOK 27/08 Q1018=
201908181430 METAR LRSB 181430Z 36005KT 290V050 CAVOK 27/08 Q1018=
201908181500 METAR LRSB 181500Z 31005KT 280V350 CAVOK 27/08 Q1018=
201908181530 METAR LRSB 181530Z 36003KT CAVOK 27/09 Q1018=
201908181600 METAR LRSB 181600Z 21003KT 140V270 CAVOK 27/08 Q1018=
201908181630 METAR LRSB 181630Z 12002KT CAVOK 25/10 Q1018=
201908181700 METAR LRSB 181700Z 16004KT 120V180 CAVOK 24/12 Q1018=
201908181730 METAR LRSB 181730Z 18003KT CAVOK 22/13 Q1018=
201908181800 METAR LRSB 181800Z 26004KT CAVOK 19/13 Q1018=
201908181830 METAR LRSB 181830Z 26007KT CAVOK 18/13 Q1018=
201908181900 METAR LRSB 181900Z 26005KT CAVOK 18/12 Q1018=
201908181930 METAR LRSB 181930Z 25004KT 200V260 CAVOK 17/12 Q1019=
201908182000 METAR LRSB 182000Z VRB02KT CAVOK 17/12 Q1019=
201908182030 METAR LRSB 182030Z VRB01KT CAVOK 17/12 Q1019=
201908182100 METAR LRSB 182100Z VRB01KT CAVOK 17/11 Q1019=
201908182130 METAR LRSB 182130Z 00000KT CAVOK 15/11 Q1019=
201908182200 METAR LRSB 182200Z 00000KT CAVOK 16/12 Q1019=
201908182230 METAR LRSB 182230Z 00000KT CAVOK 15/12 Q1019=
201908182300 METAR COR LRSB 182300Z 00000KT CAVOK 15/11 Q1019=
201908182330 METAR LRSB 182330Z 00000KT CAVOK 15/11 Q1019=
201908190000 METAR LRSB 190000Z 00000KT CAVOK 14/11 Q1019=
201908190030 METAR LRSB 190030Z 00000KT CAVOK 14/11 Q1019=
201908190100 METAR LRSB 190100Z 00000KT CAVOK 13/11 Q1019=
201908190130 METAR LRSB 190130Z AUTO 00000KT 9999 NCD 12/11 Q1019=
201908190200 METAR LRSB 190200Z 00000KT CAVOK 12/11 Q1019=
201908190230 METAR LRSB 190230Z 00000KT CAVOK 13/11 Q1019=
201908190300 METAR LRSB 190300Z 09002KT CAVOK 13/11 Q1019=
201908190330 METAR LRSB 190330Z 10005KT CAVOK 13/11 Q1020=
201908190400 METAR LRSB 190400Z 10004KT CAVOK 13/11 Q1020=
201908190430 METAR LRSB 190430Z 12003KT CAVOK 14/11 Q1020=
201908190500 METAR LRSB 190500Z 10004KT CAVOK 16/13 Q1020=
201908190530 METAR LRSB 190530Z 11004KT CAVOK 16/12 Q1020 NOSIG=
201908190600 METAR LRSB 190600Z 11003KT 070V150 CAVOK 18/13 Q1020 NOSIG=
201908190630 METAR COR LRSB 190630Z 11003KT CAVOK 20/13 Q1020 NOSIG=
201908190700 METAR LRSB 190700Z 10003KT 060V140 CAVOK 21/12 Q1020 NOSIG=
201908190730 METAR LRSB 190730Z 11004KT 050V160 CAVOK 22/13 Q1021 NOSIG=
201908190800 METAR LRSB 190800Z 12004KT 080V160 CAVOK 24/13 Q1020 NOSIG=
201908190830 METAR LRSB 190830Z 09004KT 050V150 CAVOK 25/13 Q1020 NOSIG=
201908190900 METAR LRSB 190900Z VRB03KT CAVOK 26/11 Q1020 NOSIG=
201908190930 METAR LRSB 190930Z VRB03KT CAVOK 27/12 Q1020 NOSIG=
201908191000 METAR LRSB 191000Z 16004KT 110V240 CAVOK 27/12 Q1020 NOSIG=
201908191030 METAR LRSB 191030Z 08005KT 020V160 CAVOK 28/11 Q1020 NOSIG=
201908191100 METAR LRSB 191100Z 17005KT 090V260 CAVOK 28/10 Q1020 NOSIG=
201908191130 METAR LRSB 191130Z 17003KT 110V250 9999 FEW036 28/11 Q1020
                        NOSIG=
201908191200 METAR LRSB 191200Z 16004KT 100V230 9999 FEW038 29/11 Q1019
                        NOSIG=
201908191230 METAR LRSB 191230Z 10005KT 020V190 9999 FEW040 29/11 Q1019
                        NOSIG=
201908191300 METAR LRSB 191300Z 36005KT 280V060 9999 FEW040 29/12 Q1019
                        NOSIG=
201908191330 METAR LRSB 191330Z 36007KT 9999 FEW040 29/12 Q1019 NOSIG=
201908191400 METAR LRSB 191400Z 01006KT 330V050 9999 FEW040 29/13 Q1020
                        NOSIG=
201908191430 METAR LRSB 191430Z 34005KT 320V020 9999 FEW040 28/14 Q1020
                        NOSIG=
201908191500 METAR COR LRSB 191500Z 03006KT 9999 FEW043 29/13 Q1019 NOSIG=
201908191530 METAR LRSB 191530Z 11004KT 060V140 CAVOK 28/14 Q1019 NOSIG=
201908191600 METAR LRSB 191600Z 12005KT CAVOK 28/13 Q1019 NOSIG=
201908191630 METAR LRSB 191630Z 11004KT CAVOK 27/14 Q1019 NOSIG=
201908191700 METAR LRSB 191700Z 12004KT CAVOK 26/14 Q1020=
201908191730 METAR LRSB 191730Z 00000KT CAVOK 24/15 Q1020=
201908191800 METAR LRSB 191800Z 26005KT CAVOK 20/16 Q1020=
201908191830 METAR LRSB 191830Z 26006KT CAVOK 20/15 Q1020=
201908191900 METAR LRSB 191900Z 25004KT CAVOK 19/15 Q1020=
201908191930 METAR LRSB 191930Z VRB02KT CAVOK 18/15 Q1020=
201908192000 METAR LRSB 192000Z VRB02KT CAVOK 18/15 Q1020=
201908192030 METAR LRSB 192030Z 30003KT CAVOK 19/15 Q1021=
201908192100 METAR LRSB 192100Z VRB02KT CAVOK 18/14 Q1021=
201908192130 METAR LRSB 192130Z VRB01KT CAVOK 17/14 Q1021=
201908192200 METAR LRSB 192200Z 31001KT CAVOK 17/14 Q1021=
201908192230 METAR LRSB 192230Z VRB01KT CAVOK 16/14 Q1021=
201908192300 METAR COR LRSB 192300Z 10002KT CAVOK 16/14 Q1021=
201908192330 METAR COR LRSB 192330Z 10002KT CAVOK 16/14 Q1021=
201908200000 METAR COR LRSB 200000Z 09003KT CAVOK 16/14 Q1020=
201908200030 METAR LRSB 200030Z 00000KT CAVOK 16/14 Q1021=
201908200100 METAR LRSB 200100Z 00000KT CAVOK 15/13 Q1021=
201908200130 METAR LRSB 200130Z 00000KT CAVOK 14/13 Q1021=
201908200200 METAR LRSB 200200Z VRB01KT CAVOK 15/13 Q1021=
201908200230 METAR LRSB 200230Z 00000KT CAVOK 15/13 Q1021=
201908200300 METAR LRSB 200300Z VRB01KT CAVOK 14/13 Q1021=
201908200330 METAR LRSB 200330Z VRB01KT CAVOK 14/13 Q1021=
201908200400 METAR LRSB 200400Z 11005KT CAVOK 15/13 Q1021=
201908200430 METAR LRSB 200430Z 11005KT CAVOK 15/13 Q1021=
201908200500 METAR LRSB 200500Z VRB02KT CAVOK 18/15 Q1022=
201908200530 METAR LRSB 200530Z 11004KT CAVOK 19/15 Q1022=
201908200600 METAR LRSB 200600Z 10004KT CAVOK 21/15 Q1022=
201908200630 METAR LRSB 200630Z 11004KT CAVOK 21/15 Q1022=
201908200700 METAR LRSB 200700Z 09003KT 020V160 CAVOK 23/14 Q1022=
201908200730 METAR LRSB 200730Z VRB02KT CAVOK 25/14 Q1022=
201908200800 METAR LRSB 200800Z 13003KT 080V190 CAVOK 26/15 Q1022=
201908200830 METAR LRSB 200830Z VRB03KT CAVOK 27/15 Q1022=
201908200900 METAR LRSB 200900Z VRB03KT CAVOK 28/15 Q1022=
201908200930 METAR LRSB 200930Z 14004KT 110V200 CAVOK 28/14 Q1022=
201908201000 METAR LRSB 201000Z VRB05KT CAVOK 29/15 Q1022=
201908201030 METAR LRSB 201030Z 12006KT 090V150 CAVOK 29/13 Q1022=
201908201100 METAR LRSB 201100Z 13004KT 070V200 CAVOK 30/15 Q1022=
201908201130 METAR LRSB 201130Z 15004KT 080V230 CAVOK 30/15 Q1021=
201908201200 METAR LRSB 201200Z 11006KT 020V170 CAVOK 30/15 Q1021=
201908201230 METAR LRSB 201230Z 14006KT 070V200 CAVOK 30/15 Q1021=
201908201300 METAR LRSB 201300Z 13004KT 360V170 CAVOK 31/14 Q1021=
201908201330 METAR LRSB 201330Z 12004KT 020V180 CAVOK 31/13 Q1021=
201908201400 METAR LRSB 201400Z 13004KT 090V200 CAVOK 31/13 Q1021=
201908201430 METAR LRSB 201430Z VRB03KT CAVOK 31/14 Q1021=
201908201500 METAR LRSB 201500Z 15005KT 100V180 CAVOK 30/14 Q1021=
201908201530 METAR LRSB 201530Z 14005KT 100V170 CAVOK 30/15 Q1021=
201908201600 METAR LRSB 201600Z 17005KT 130V190 CAVOK 29/15 Q1021=
201908201630 METAR LRSB 201630Z 16003KT CAVOK 29/15 Q1021=
201908201700 METAR LRSB 201700Z 18003KT CAVOK 27/16 Q1021 NOSIG=
201908201730 METAR LRSB 201730Z 20004KT CAVOK 24/16 Q1021 NOSIG=
201908201800 METAR LRSB 201800Z 26006KT CAVOK 22/16 Q1021 NOSIG=
201908201830 METAR LRSB 201830Z VRB02KT CAVOK 22/16 Q1022 NOSIG=
201908201900 METAR LRSB 201900Z VRB02KT CAVOK 21/16 Q1022 NOSIG=
201908201930 METAR LRSB 201930Z 28001KT CAVOK 20/16 Q1022 NOSIG=
201908202000 METAR LRSB 202000Z 21002KT CAVOK 19/15 Q1022 NOSIG=
201908202030 METAR LRSB 202030Z 00000KT CAVOK 19/16 Q1022 NOSIG=
201908202100 METAR LRSB 202100Z VRB01KT CAVOK 19/15 Q1022 NOSIG=
201908202130 METAR COR LRSB 202130Z 07002KT CAVOK 19/15 Q1022 NOSIG=
201908202200 METAR LRSB 202200Z 00000KT CAVOK 18/15 Q1022 NOSIG=
201908202230 METAR LRSB 202230Z 08001KT CAVOK 18/15 Q1022 NOSIG=
201908202300 METAR LRSB 202300Z VRB01KT CAVOK 17/15 Q1021 NOSIG=
201908202330 METAR LRSB 202330Z VRB01KT CAVOK 17/15 Q1021 NOSIG=
201908210000 METAR LRSB 210000Z VRB01KT CAVOK 17/15 Q1021 NOSIG=
201908210030 METAR LRSB 210030Z VRB01KT CAVOK 16/15 Q1021 NOSIG=
201908210100 METAR LRSB 210100Z 12003KT CAVOK 18/15 Q1021 NOSIG=
201908210130 METAR LRSB 210130Z 09002KT CAVOK 17/14 Q1021 NOSIG=
201908210200 METAR LRSB 210200Z VRB02KT CAVOK 15/13 Q1021 NOSIG=
201908210230 METAR LRSB 210230Z VRB02KT CAVOK 15/13 Q1021 NOSIG=
201908210300 METAR LRSB 210300Z 22003KT CAVOK 15/13 Q1021 NOSIG=
201908210330 METAR LRSB 210330Z 23003KT CAVOK 14/13 Q1022 NOSIG=
201908210400 METAR LRSB 210400Z 00000KT CAVOK 15/14 Q1022 NOSIG=
201908210430 METAR LRSB 210430Z 11003KT CAVOK 17/15 Q1022 NOSIG=
201908210500 METAR LRSB 210500Z 11003KT CAVOK 19/15 Q1022 NOSIG=
201908210530 METAR LRSB 210530Z 10003KT CAVOK 20/16 Q1022=
201908210600 METAR LRSB 210600Z 12003KT 080V160 CAVOK 21/16 Q1022=
201908210630 METAR LRSB 210630Z 12003KT 050V160 CAVOK 23/16 Q1022=
201908210700 METAR LRSB 210700Z 13003KT 070V170 CAVOK 24/16 Q1022=
201908210730 METAR LRSB 210730Z VRB02KT CAVOK 25/15 Q1022=
201908210800 METAR LRSB 210800Z 13004KT 090V160 CAVOK 26/16 Q1023=
201908210830 METAR LRSB 210830Z 15003KT 090V230 9999 FEW046 27/15 Q1022=
201908210900 METAR LRSB 210900Z 18003KT 110V230 9999 FEW046 28/15 Q1022=
201908210930 METAR LRSB 210930Z VRB03KT 9999 FEW045 29/15 Q1022=
201908211000 METAR LRSB 211000Z VRB04KT 9999 FEW045 29/15 Q1022=
201908211030 METAR LRSB 211030Z VRB02KT 9999 FEW045 30/14 Q1022=
201908211100 METAR LRSB 211100Z 01004KT 270V040 9999 FEW045 30/14 Q1022=
201908211130 METAR LRSB 211130Z VRB04KT 9999 FEW047 30/14 Q1021=
201908211200 METAR LRSB 211200Z VRB02KT 9999 FEW047 30/14 Q1021=
201908211230 METAR LRSB 211230Z 01006KT 320V040 9999 FEW048 31/15 Q1021=
201908211300 METAR LRSB 211300Z VRB03KT 9999 FEW048 32/15 Q1021=
201908211330 METAR LRSB 211330Z 04006KT 350V080 9999 FEW048 SCT063 32/15
                        Q1021=
201908211400 METAR LRSB 211400Z 05006KT 9999 FEW050 SCT065 29/15 Q1021=
201908211430 METAR LRSB 211430Z 12004KT 080V170 9999 FEW054 30/15 Q1021=
201908211500 METAR LRSB 211500Z 19005KT 150V230 9999 FEW054 30/16 Q1021=
201908211530 METAR LRSB 211530Z 18004KT 140V220 9999 FEW056 30/15 Q1021=
201908211600 METAR LRSB 211600Z 23003KT 9999 FEW058 30/16 Q1021=
201908211630 METAR LRSB 211630Z 20003KT 9999 FEW060 29/16 Q1020=
201908211700 METAR LRSB 211700Z VRB02KT CAVOK 28/18 Q1021=
201908211730 METAR LRSB 211730Z 25005KT CAVOK 24/18 Q1021=
201908211800 METAR LRSB 211800Z 25007KT CAVOK 22/17 Q1021=
201908211830 METAR LRSB 211830Z 25004KT CAVOK 21/17 Q1021=
201908211900 METAR LRSB 211900Z 26005KT CAVOK 21/17 Q1021=
201908211930 METAR LRSB 211930Z 21003KT 140V270 CAVOK 20/16 Q1021=
201908212000 METAR LRSB 212000Z 20002KT CAVOK 20/16 Q1021=
201908212030 METAR LRSB 212030Z 31003KT 270V330 CAVOK 19/16 Q1021=
201908212100 METAR LRSB 212100Z 33001KT CAVOK 20/16 Q1022=
201908212130 METAR LRSB 212130Z VRB02KT CAVOK 20/16 Q1022=
201908212200 METAR LRSB 212200Z 00000KT CAVOK 19/15 Q1022=
201908212230 METAR LRSB 212230Z VRB01KT CAVOK 18/15 Q1022=
201908212300 METAR LRSB 212300Z 02005KT 360V060 CAVOK 19/16 Q1022=
201908212330 METAR LRSB 212330Z 36003KT 330V070 9999 FEW060 20/16 Q1022=
201908220000 METAR LRSB 220000Z 25006KT 9999 SCT060 19/16 Q1022=
201908220030 METAR LRSB 220030Z 15004KT 110V170 9999 SCT060 18/16 Q1022=
201908220100 METAR LRSB 220100Z 16004KT 130V190 9999 FEW062 19/16 Q1022=
201908220130 METAR LRSB 220130Z VRB02KT 9999 FEW065 20/16 Q1022=
201908220200 METAR LRSB 220200Z 25003KT 9999 FEW068 19/16 Q1022=
201908220230 METAR LRSB 220230Z 24007KT CAVOK 18/16 Q1022=
201908220300 METAR LRSB 220300Z 29005KT 260V320 CAVOK 19/16 Q1022=
201908220330 METAR LRSB 220330Z 02005KT CAVOK 19/16 Q1022=
201908220400 METAR LRSB 220400Z 23003KT CAVOK 19/16 Q1023=
201908220430 METAR LRSB 220430Z 23005KT CAVOK 19/16 Q1023=
201908220500 METAR LRSB 220500Z VRB01KT CAVOK 21/17 Q1023=
201908220530 METAR LRSB 220530Z 09002KT CAVOK 21/16 Q1024=
201908220600 METAR LRSB 220600Z 15003KT CAVOK 23/17 Q1024=
201908220630 METAR LRSB 220630Z 09004KT CAVOK 24/16 Q1024=
201908220700 METAR LRSB 220700Z 11003KT CAVOK 24/17 Q1024=
201908220730 METAR LRSB 220730Z 06003KT CAVOK 25/16 Q1023=
201908220800 METAR LRSB 220800Z 08004KT CAVOK 26/16 Q1024=
201908220830 METAR LRSB 220830Z 08004KT CAVOK 26/16 Q1024=
201908220900 METAR LRSB 220900Z 07007KT CAVOK 28/14 Q1024=
201908220930 METAR LRSB 220930Z 08005KT 310V120 CAVOK 28/15 Q1023=
201908221000 METAR LRSB 221000Z VRB05KT CAVOK 29/14 Q1023=
201908221030 METAR LRSB 221030Z 13005KT 100V170 CAVOK 29/14 Q1023=
201908221100 METAR LRSB 221100Z 12007KT 090V150 CAVOK 30/13 Q1023=
201908221130 METAR LRSB 221130Z 12007KT 080V150 CAVOK 30/10 Q1023=
201908221200 METAR LRSB 221200Z VRB05KT CAVOK 31/11 Q1022=
201908221230 METAR LRSB 221230Z VRB05KT CAVOK 31/11 Q1022=
201908221300 METAR LRSB 221300Z 12008KT CAVOK 31/09 Q1022=
201908221330 METAR LRSB 221330Z 12005KT 070V160 CAVOK 30/10 Q1022=
201908221400 METAR LRSB 221400Z 09004KT CAVOK 30/11 Q1022=
201908221430 METAR LRSB 221430Z 09005KT 050V140 CAVOK 30/11 Q1022=
201908221500 METAR LRSB 221500Z 08008KT 050V110 CAVOK 31/10 Q1022=
201908221530 METAR LRSB 221530Z 06009KT CAVOK 30/10 Q1022=
201908221600 METAR LRSB 221600Z 07006KT CAVOK 30/11 Q1022=
201908221630 METAR LRSB 221630Z 09005KT CAVOK 28/11 Q1022=
201908221700 METAR LRSB 221700Z 10003KT CAVOK 27/12 Q1022=
201908221730 METAR LRSB 221730Z VRB02KT CAVOK 23/14 Q1023=
201908221800 METAR LRSB 221800Z 26007KT CAVOK 21/14 Q1023=
201908221830 METAR LRSB 221830Z 27004KT CAVOK 20/14 Q1023=
201908221900 METAR LRSB 221900Z 25004KT CAVOK 20/14 Q1024=
201908221930 METAR LRSB 221930Z VRB01KT CAVOK 19/14 Q1024=
201908222000 METAR LRSB 222000Z VRB02KT CAVOK 20/13 Q1024=
201908222030 METAR LRSB 222030Z 29002KT CAVOK 18/13 Q1024=
201908222100 METAR LRSB 222100Z VRB01KT CAVOK 19/13 Q1024=
201908222130 METAR LRSB 222130Z 00000KT CAVOK 18/13 Q1024=
201908222200 METAR LRSB 222200Z VRB02KT CAVOK 16/13 Q1024=
201908222230 METAR LRSB 222230Z VRB01KT CAVOK 18/13 Q1024=
201908222300 METAR LRSB 222300Z 08003KT CAVOK 18/13 Q1024=
201908222330 METAR LRSB 222330Z 14003KT CAVOK 16/13 Q1024=
201908230000 METAR LRSB 230000Z 12003KT CAVOK 17/13 Q1024=
201908230030 METAR LRSB 230030Z 14004KT CAVOK 17/13 Q1024=
201908230100 METAR COR LRSB 230100Z 17003KT 110V200 CAVOK 16/13 Q1024=
201908230130 METAR LRSB 230130Z 14003KT CAVOK 17/13 Q1024=
201908230200 METAR LRSB 230200Z 16002KT CAVOK 16/13 Q1024=
201908230230 METAR LRSB 230230Z 14004KT CAVOK 16/13 Q1024=
201908230300 METAR LRSB 230300Z 18003KT CAVOK 14/12 Q1024=
201908230330 METAR LRSB 230330Z 14002KT CAVOK 15/13 Q1024=
201908230400 METAR LRSB 230400Z 18002KT CAVOK 14/12 Q1025=
201908230430 METAR LRSB 230430Z 11002KT CAVOK 17/14 Q1025=
201908230500 METAR LRSB 230500Z VRB02KT CAVOK 18/14 Q1025=
201908230530 METAR LRSB 230530Z VRB02KT CAVOK 19/15 Q1025 NOSIG=
201908230600 METAR LRSB 230600Z VRB02KT CAVOK 20/15 Q1025 NOSIG=
201908230630 METAR LRSB 230630Z VRB02KT CAVOK 22/15 Q1025 NOSIG=
201908230700 METAR LRSB 230700Z 08003KT 030V130 CAVOK 23/14 Q1025 NOSIG=
201908230730 METAR LRSB 230730Z VRB02KT CAVOK 24/15 Q1025 NOSIG=
201908230800 METAR COR LRSB 230800Z 06003KT 360V130 CAVOK 24/14 Q1025
                        NOSIG=
201908230830 METAR LRSB 230830Z 14003KT 090V210 CAVOK 26/15 Q1025 NOSIG=
201908230900 METAR LRSB 230900Z 05004KT 340V120 CAVOK 26/15 Q1025 NOSIG=
201908230930 METAR LRSB 230930Z VRB04KT CAVOK 28/14 Q1025 NOSIG=
201908231000 METAR LRSB 231000Z 08005KT 360V130 9999 FEW040 28/13 Q1025
                        NOSIG=
201908231030 METAR LRSB 231030Z VRB05KT 9999 FEW040 29/14 Q1025 NOSIG=
201908231100 METAR LRSB 231100Z VRB05KT 9999 FEW040 29/14 Q1024 NOSIG=
201908231130 METAR LRSB 231130Z VRB05KT 9999 FEW043 30/12 Q1024 NOSIG=
201908231200 METAR LRSB 231200Z 07004KT 020V130 9999 FEW043 30/12 Q1024
                        NOSIG=
201908231230 METAR LRSB 231230Z 11007KT 070V140 CAVOK 30/12 Q1024 NOSIG=
201908231300 METAR LRSB 231300Z 14004KT 070V190 CAVOK 30/11 Q1023 NOSIG=
201908231330 METAR LRSB 231330Z VRB04KT CAVOK 30/12 Q1023 NOSIG=
201908231400 METAR LRSB 231400Z 08007KT 050V120 CAVOK 30/11 Q1023 NOSIG=
201908231430 METAR LRSB 231430Z 11006KT 050V140 CAVOK 30/12 Q1023 NOSIG=
201908231500 METAR LRSB 231500Z 09005KT 050V190 9999 FEW043 30/12 Q1023
                        NOSIG=
201908231530 METAR LRSB 231530Z 11006KT 9999 FEW043 29/11 Q1023 NOSIG=
201908231600 METAR LRSB 231600Z 12005KT 100V160 9999 FEW045 29/11 Q1023
                        NOSIG=
201908231630 METAR LRSB 231630Z 12005KT 9999 FEW045 28/12 Q1023=
201908231700 METAR LRSB 231700Z 15002KT 9999 FEW045 27/12 Q1023=
201908231730 METAR LRSB 231730Z 20003KT CAVOK 23/14 Q1023=
201908231800 METAR LRSB 231800Z 25006KT CAVOK 22/15 Q1023=
201908231830 METAR LRSB 231830Z 24005KT CAVOK 19/15 Q1024=
201908231900 METAR LRSB 231900Z 25004KT CAVOK 19/15 Q1024=
201908231930 METAR LRSB 231930Z VRB02KT CAVOK 18/14 Q1024=
201908232000 METAR LRSB 232000Z 26003KT CAVOK 19/14 Q1024=
201908232030 METAR LRSB 232030Z 29003KT CAVOK 19/14 Q1024=
201908232100 METAR LRSB 232100Z 05004KT CAVOK 18/14 Q1024=
201908232130 METAR LRSB 232130Z 12003KT CAVOK 18/14 Q1024=
201908232200 METAR LRSB 232200Z 16003KT CAVOK 18/14 Q1024=
201908232230 METAR COR LRSB 232230Z 16004KT CAVOK 18/13 Q1024=
201908232300 METAR COR LRSB 232300Z 13007KT CAVOK 18/14 Q1024=
201908232330 METAR LRSB 232330Z 13005KT CAVOK 18/14 Q1024=
201908240000 METAR LRSB 240000Z 13007KT CAVOK 18/14 Q1024=
201908240030 METAR LRSB 240030Z 13007KT CAVOK 18/14 Q1024=
201908240100 METAR LRSB 240100Z 15004KT CAVOK 18/14 Q1024=
201908240130 METAR LRSB 240130Z 13008KT CAVOK 18/14 Q1024=
201908240200 METAR LRSB 240200Z 14006KT CAVOK 18/14 Q1024=
201908240230 METAR LRSB 240230Z 19003KT CAVOK 17/14 Q1024=
201908240300 METAR COR LRSB 240300Z 16003KT CAVOK 16/14 Q1024=
201908240330 METAR LRSB 240330Z 16003KT CAVOK 16/13 Q1024=
201908240400 METAR LRSB 240400Z 22002KT CAVOK 15/13 Q1024=
201908240430 METAR LRSB 240430Z 22005KT CAVOK 16/14 Q1024=
201908240500 METAR LRSB 240500Z 21002KT CAVOK 18/14 Q1024=
201908240530 METAR LRSB 240530Z VRB02KT CAVOK 19/14 Q1025=
201908240600 METAR COR LRSB 240600Z 12004KT 090V150 CAVOK 20/14 Q1024=
201908240630 METAR LRSB 240630Z 13003KT 090V160 CAVOK 21/14 Q1024=
201908240700 METAR LRSB 240700Z VRB03KT CAVOK 22/15 Q1024=
201908240730 METAR LRSB 240730Z VRB03KT 9999 FEW052 24/15 Q1024=
201908240800 METAR LRSB 240800Z 10004KT 060V150 9999 FEW052 25/14 Q1024=
201908240830 METAR LRSB 240830Z 12004KT 050V170 9999 FEW050 26/15 Q1024=
201908240900 METAR LRSB 240900Z 12004KT 080V190 9999 FEW050 27/15 Q1024=
201908240930 METAR LRSB 240930Z 13006KT 070V180 9999 FEW050 27/15 Q1024=
201908241000 METAR LRSB 241000Z VRB05KT 9999 FEW049 28/15 Q1024=
201908241030 METAR LRSB 241030Z 11005KT 040V150 9999 FEW049 29/14 Q1023=
201908241100 METAR LRSB 241100Z VRB06KT 9999 FEW048 29/15 Q1023=
201908241130 METAR LRSB 241130Z 08009KT 9999 FEW044 FEW046CB 30/14 Q1023=
201908241200 METAR LRSB 241200Z 06007KT 300V090 9999 FEW044 FEW046CB 30/13
                        Q1023=
201908241230 METAR LRSB 241230Z 09006KT 030V120 9999 FEW043 FEW045CB 30/12
                        Q1022=
201908241300 METAR LRSB 241300Z 12005KT 070V160 9999 FEW043 FEW046TCU
                        30/13 Q1022=
201908241330 METAR LRSB 241330Z 10005KT 030V150 9999 FEW043 FEW046TCU
                        31/13 Q1022=
201908241400 METAR LRSB 241400Z 11007KT 080V140 9999 FEW045TCU 31/13 Q1022=
201908241430 METAR LRSB 241430Z 12007KT 090V150 9999 FEW047TCU 30/12 Q1022=
201908241500 METAR LRSB 241500Z 10008KT 9999 FEW048TCU 30/12 Q1022=
201908241530 METAR LRSB 241530Z 09007KT 9999 FEW055 30/11 Q1022=
201908241600 METAR LRSB 241600Z 10007KT 9999 FEW056 29/11 Q1022=
201908241630 METAR LRSB 241630Z 10007KT 9999 FEW077 28/11 Q1022=
201908241700 METAR LRSB 241700Z 12004KT 9999 FEW078 27/13 Q1022 NOSIG=
201908241730 METAR LRSB 241730Z 15003KT CAVOK 25/15 Q1022 NOSIG=
201908241800 METAR LRSB 241800Z 20003KT 170V230 CAVOK 23/16 Q1022 NOSIG=
201908241830 METAR LRSB 241830Z VRB02KT CAVOK 22/15 Q1022 NOSIG=
201908241900 METAR LRSB 241900Z VRB02KT 9999 FEW076 21/16 Q1022 NOSIG=
201908241930 METAR LRSB 241930Z 00000KT 9999 FEW076 20/16 Q1022 NOSIG=
201908242000 METAR LRSB 242000Z 29004KT CAVOK 20/15 Q1022 NOSIG=
201908242030 METAR LRSB 242030Z VRB02KT CAVOK 20/14 Q1022 NOSIG=
201908242100 METAR LRSB 242100Z VRB02KT CAVOK 19/15 Q1022 NOSIG=
201908242130 METAR LRSB 242130Z VRB02KT CAVOK 19/15 Q1022 NOSIG=
201908242200 METAR LRSB 242200Z 15004KT 120V180 CAVOK 18/14 Q1022 NOSIG=
201908242230 METAR LRSB 242230Z 23003KT 170V260 CAVOK 17/14 Q1022 NOSIG=
201908242300 METAR LRSB 242300Z VRB02KT CAVOK 16/14 Q1022 NOSIG=
201908242330 METAR LRSB 242330Z 00000KT CAVOK 17/14 Q1022 NOSIG=
201908250000 METAR LRSB 250000Z 14003KT 9999 FEW080 18/14 Q1022 NOSIG=
201908250030 METAR LRSB 250030Z 14003KT 9999 SCT070 18/14 Q1022 NOSIG=
201908250100 METAR LRSB 250100Z 14003KT 9999 FEW070 17/14 Q1023 NOSIG=
201908250130 METAR LRSB 250130Z 13007KT CAVOK 18/15 Q1022 NOSIG=
201908250200 METAR LRSB 250200Z 12006KT CAVOK 18/15 Q1022 NOSIG=
201908250230 METAR LRSB 250230Z 20004KT 160V240 CAVOK 17/14 Q1022 NOSIG=
201908250300 METAR LRSB 250300Z 22003KT CAVOK 15/13 Q1022 NOSIG=
201908250330 METAR LRSB 250330Z 16003KT 130V200 CAVOK 16/14 Q1023 NOSIG=
201908250400 METAR LRSB 250400Z VRB02KT CAVOK 16/14 Q1023 NOSIG=
201908250430 METAR LRSB 250430Z 16003KT CAVOK 17/14 Q1023 NOSIG=
201908250500 METAR LRSB 250500Z 13004KT CAVOK 18/14 Q1023 NOSIG=
201908250530 METAR LRSB 250530Z 15003KT 120V180 CAVOK 19/15 Q1023=
201908250600 METAR LRSB 250600Z 13004KT CAVOK 20/15 Q1023=
201908250630 METAR LRSB 250630Z 13005KT 080V160 CAVOK 21/15 Q1023=
201908250700 METAR LRSB 250700Z 12004KT CAVOK 23/15 Q1023=
201908250730 METAR LRSB 250730Z 12006KT CAVOK 24/16 Q1023=
201908250800 METAR LRSB 250800Z 09006KT 070V130 CAVOK 26/16 Q1023=
201908250830 METAR LRSB 250830Z 11006KT 070V130 CAVOK 27/15 Q1023=
201908250900 METAR LRSB 250900Z 11007KT 040V130 9999 FEW047 28/15 Q1023=
201908250930 METAR LRSB 250930Z 11008KT 070V130 9999 FEW048 29/15 Q1023=
201908251000 METAR LRSB 251000Z 12006KT 080V160 9999 FEW048 29/14 Q1022=
201908251030 METAR LRSB 251030Z 11007KT 070V140 9999 FEW047 31/14 Q1022=
201908251100 METAR LRSB 251100Z 13009KT 090V180 9999 FEW048 31/13 Q1022=
201908251130 METAR LRSB 251130Z 10008KT 080V170 9999 FEW046TCU 30/13 Q1022=
201908251200 METAR LRSB 251200Z 10010KT 070V130 9999 FEW046TCU 31/13 Q1021=
201908251230 METAR LRSB 251230Z 10008KT 9999 TS FEW046CB 31/13 Q1021=
201908251300 METAR LRSB 251300Z 12010KT 9999 FEW045CB 31/14 Q1021 RETS=
201908251330 METAR LRSB 251330Z 12014KT 9999 FEW045CB SCT068 28/15 Q1021=
201908251400 METAR LRSB 251400Z 14010KT 9999 FEW045CB SCT070 27/13 Q1021=
201908251430 METAR LRSB 251430Z 16004KT 9999 FEW045CB SCT070 26/13 Q1021=
201908251500 METAR LRSB 251500Z 17003KT 130V230 9999 FEW045CB SCT070 26/14
                        Q1021=
201908251530 METAR LRSB 251530Z 09003KT 350V130 9999 FEW045CB SCT068 26/14
                        Q1021=
201908251600 METAR LRSB 251600Z 12004KT 090V150 9999 FEW044CB SCT067 25/16
                        Q1021=
201908251630 METAR LRSB 251630Z 20004KT 170V230 9999 FEW044CB SCT067 24/16
                        Q1021=
201908251700 METAR LRSB 251700Z 25006KT 9999 VCSH FEW043CB SCT066 23/16
                        Q1022=
201908251730 METAR LRSB 251730Z 00000KT 9999 FEW045CB SCT068 23/16 Q1022=
201908251800 METAR LRSB 251800Z VRB02KT 9999 FEW045CB SCT068 23/16 Q1022=
201908251830 METAR LRSB 251830Z 15003KT 9999 FEW072 21/16 Q1022=
201908251900 METAR LRSB 251900Z 09002KT 9999 FEW072 21/16 Q1022=
201908251930 METAR LRSB 251930Z 08004KT 9999 FEW054 20/16 Q1022=
201908252000 METAR LRSB 252000Z 13004KT 9999 FEW058 19/16 Q1023=
201908252030 METAR LRSB 252030Z VRB02KT 9999 FEW078 19/16 Q1023=
201908252100 METAR LRSB 252100Z 24003KT 210V270 9999 FEW080 17/15 Q1023=
201908252130 METAR LRSB 252130Z VRB02KT 9999 FEW083 17/15 Q1023=
201908252200 METAR LRSB 252200Z 15002KT 9999 FEW086 18/16 Q1023=
201908252230 METAR LRSB 252230Z 12005KT CAVOK 18/16 Q1022=
201908252300 METAR LRSB 252300Z VRB02KT CAVOK 18/16 Q1022=
201908252330 METAR LRSB 252330Z 13003KT 110V170 CAVOK 18/16 Q1023=
201908260000 METAR LRSB 260000Z 36003KT 320V030 CAVOK 16/15 Q1023=
201908260030 METAR LRSB 260030Z 00000KT CAVOK 16/15 Q1023=
201908260100 METAR LRSB 260100Z 24004KT CAVOK 16/15 Q1023=
201908260130 METAR LRSB 260130Z 24004KT 9000 NSC 16/15 Q1023=
201908260200 METAR LRSB 260200Z 27004KT 8000 NSC 16/14 Q1023=
201908260230 METAR LRSB 260230Z 22003KT 7000 NSC 15/14 Q1023=
201908260300 METAR LRSB 260300Z 26005KT 9000 NSC 15/14 Q1023=
201908260330 METAR LRSB 260330Z 24003KT 210V290 9000 NSC 15/14 Q1023=
201908260400 METAR LRSB 260400Z VRB01KT 9000 NSC 15/14 Q1023=
201908260430 METAR LRSB 260430Z 00000KT CAVOK 16/15 Q1024=
201908260500 METAR LRSB 260500Z 10004KT CAVOK 18/16 Q1024=
201908260530 METAR LRSB 260530Z 11004KT CAVOK 19/16 Q1024=
201908260600 METAR COR LRSB 260600Z 11004KT CAVOK 21/17 Q1023=
201908260630 METAR LRSB 260630Z 11005KT 080V140 CAVOK 22/17 Q1024=
201908260700 METAR LRSB 260700Z 11005KT CAVOK 23/16 Q1024=
201908260730 METAR LRSB 260730Z 12006KT CAVOK 24/16 Q1024=
201908260800 METAR LRSB 260800Z 11006KT 060V140 CAVOK 25/17 Q1023=
201908260830 METAR LRSB 260830Z 10008KT 080V140 CAVOK 28/16 Q1023=
201908260900 METAR LRSB 260900Z 13011KT CAVOK 29/12 Q1023=
201908260930 METAR LRSB 260930Z 12012KT CAVOK 29/15 Q1023=
201908261000 METAR LRSB 261000Z 13012KT 100V170 CAVOK 30/13 Q1023=
201908261030 METAR LRSB 261030Z 11012KT CAVOK 30/14 Q1023=
201908261100 METAR LRSB 261100Z 12013KT 9999 FEW040 31/14 Q1022=
201908261130 METAR LRSB 261130Z 11011KT 080V140 9999 FEW040CB 30/13 Q1022=
201908261200 METAR LRSB 261200Z 12009KT 9999 SCT040CB SCT050 29/14 Q1022=
201908261230 METAR LRSB 261230Z 27013KT 9999 TS SCT040CB SCT070 27/12
                        Q1022=
201908261300 METAR LRSB 261300Z 24013KT 210V270 9999 TSRA SCT040CB SCT070
                        24/15 Q1022=
201908261330 METAR LRSB 261330Z 20004KT 9999 -TSRA SCT040CB SCT070 23/17
                        Q1022 RESHRA R27/29//95=
201908261400 METAR LRSB 261400Z 28010KT 250V310 9999 -TSRA SCT040CB SCT070
                        21/17 Q1023 R27/29//95=
201908261430 METAR LRSB 261430Z 24011KT 9999 -TSRA BKN040CB 21/17 Q1023
                        R27/29//95=
201908261500 METAR LRSB 261500Z 22007KT 9999 -TSRA BKN040CB 20/16 Q1023
                        R27/29//95=
201908261530 METAR LRSB 261530Z 25005KT 9999 -TSRA BKN040CB 20/16 Q1023
                        R27/29//95=
201908261600 METAR LRSB 261600Z 23006KT 9999 TS BKN040CB 20/16 Q1023 R27/29//95=
201908261630 METAR LRSB 261630Z 15006KT 110V220 9999 -TSRA BKN040CB 20/15
                        Q1023 R27/29//95=
201908261700 METAR LRSB 261700Z 10006KT 9999 -TSRA BKN038CB 19/16 Q1023
                        R27/29//95=
201908261730 METAR LRSB 261730Z 08007KT 9999 -SHRA SCT038CB 18/16 Q1023
                        RETS R27/29//95=
201908261800 METAR LRSB 261800Z 12006KT 9999 -SHRA SCT038CB 19/17 Q1024
                        R27/29//95=
201908261830 METAR LRSB 261830Z 11004KT 9999 -RA FEW039CB 19/17 Q1023
                        R27/29//95=
201908261900 METAR LRSB 261900Z 16003KT 9999 FEW040CB 19/16 Q1023 R27/29//95=
201908261930 METAR LRSB 261930Z 12005KT 9999 FEW040CB 19/16 Q1023 R27/29//95=
201908262000 METAR LRSB 262000Z 08006KT 9999 FEW040CB 18/16 Q1022 R27/29//95=
201908262030 METAR LRSB 262030Z 09004KT CAVOK 18/16 Q1022 R27/29//95=
201908262100 METAR LRSB 262100Z 12004KT CAVOK 18/16 Q1023 R27/29//95=
201908262130 METAR LRSB 262130Z 15003KT CAVOK 18/16 Q1023 R27/29//95=
201908262200 METAR LRSB 262200Z 15003KT 130V190 CAVOK 19/16 Q1023 R27/29//95=
201908262230 METAR LRSB 262230Z 13004KT CAVOK 19/15 Q1023 R27/29//95=
201908262300 METAR LRSB 262300Z 15004KT CAVOK 18/15 Q1023 R27/29//95=
201908262330 METAR LRSB 262330Z 11005KT CAVOK 17/15 Q1023 R27/29//95=
201908270000 METAR LRSB 270000Z 14005KT CAVOK 18/15 Q1023 R27/29//95=
201908270030 METAR LRSB 270030Z 19004KT 170V230 9999 FEW080 17/15 Q1023
                        R27/29//95=
201908270100 METAR LRSB 270100Z 16003KT 120V190 9999 SCT080 17/15 Q1022
                        R27/29//95=
201908270130 METAR LRSB 270130Z 22003KT 150V280 9999 SCT080 17/15 Q1022
                        R27/29//95=
201908270200 METAR LRSB 270200Z VRB01KT 9999 FEW080 17/15 Q1023 R27/29//95=
201908270230 METAR COR LRSB 270230Z VRB02KT 9999 SCT080 17/16 Q1023 R27/29//95=
201908270300 METAR LRSB 270300Z VRB01KT 9999 BKN080 17/16 Q1023 R27/29//95=
201908270330 METAR LRSB 270330Z 18006KT 9999 -SHRA FEW040CB BKN080 17/16
                        Q1022=
201908270400 METAR LRSB 270400Z 03008KT 9999 -SHRA FEW040CB SCT080 18/16
                        Q1022=
201908270430 METAR LRSB 270430Z 06007KT 020V080 9999 FEW040CB SCT084 17/16
                        Q1023=
201908270500 METAR LRSB 270500Z 10006KT 9999 FEW038CB SCT082 18/16 Q1023=
201908270530 METAR LRSB 270530Z VRB02KT 9999 FEW040CB SCT086 18/16 Q1023
                        NOSIG=
201908270600 METAR LRSB 270600Z 18003KT 130V220 9999 FEW043CB SCT086 19/16
                        Q1023 NOSIG=
201908270630 METAR LRSB 270630Z VRB02KT 9999 FEW050 BKN086 19/16 Q1023
                        NOSIG=
201908270700 METAR LRSB 270700Z 30003KT 250V360 9999 FEW050 SCT086 21/17
                        Q1023 NOSIG=
201908270730 METAR LRSB 270730Z 22003KT 190V260 9999 FEW050 SCT083 21/17
                        Q1024 NOSIG=
201908270800 METAR LRSB 270800Z 19003KT 100V230 9999 FEW050 SCT080 22/17
                        Q1024 NOSIG=
201908270830 METAR LRSB 270830Z VRB01KT 9999 FEW045 SCT079 24/17 Q1024
                        NOSIG=
201908270900 METAR LRSB 270900Z 25003KT 170V290 9999 FEW045 SCT078 24/16
                        Q1024 NOSIG=
201908270930 METAR LRSB 270930Z VRB03KT 9999 FEW045 SCT080 25/17 Q1024
                        NOSIG=
201908271000 METAR LRSB 271000Z VRB03KT 9999 FEW046 27/17 Q1024 NOSIG=
201908271030 METAR LRSB 271030Z VRB03KT 9999 FEW046 27/16 Q1023 NOSIG=
201908271100 METAR LRSB 271100Z 14005KT 090V190 9999 FEW046 28/17 Q1023
                        NOSIG=
201908271130 METAR LRSB 271130Z 16006KT 130V220 9999 FEW046 29/14 Q1023
                        NOSIG=
201908271200 METAR LRSB 271200Z 12007KT 9999 FEW046 29/13 Q1023 NOSIG=
201908271230 METAR LRSB 271230Z 13007KT 100V170 9999 FEW043 FEW046TCU
                        29/13 Q1022 NOSIG=
201908271300 METAR LRSB 271300Z 14007KT 9999 FEW043 FEW045TCU 29/13 Q1022
                        NOSIG=
201908271330 METAR LRSB 271330Z 12005KT 080V150 9999 FEW043 FEW045TCU
                        29/13 Q1022 NOSIG=
201908271400 METAR LRSB 271400Z 09005KT 9999 FEW043 FEW045TCU 30/12 Q1022
                        NOSIG=
201908271430 METAR LRSB 271430Z 15006KT 9999 FEW045 30/13 Q1022 NOSIG=
201908271500 METAR LRSB 271500Z 10006KT 070V130 9999 FEW045 29/14 Q1022
                        NOSIG=
201908271530 METAR COR LRSB 271530Z 12007KT 9999 FEW045 28/14 Q1022 NOSIG=
201908271600 METAR LRSB 271600Z 12003KT 9999 FEW046 27/15 Q1022 NOSIG=
201908271630 METAR LRSB 271630Z 18004KT 9999 FEW046 25/16 Q1022 NOSIG=
201908271700 METAR LRSB 271700Z 27004KT 9999 FEW045 23/18 Q1022=
201908271730 METAR LRSB 271730Z 21003KT CAVOK 22/17 Q1022=
201908271800 METAR LRSB 271800Z VRB01KT CAVOK 21/17 Q1022=
201908271830 METAR LRSB 271830Z 30004KT CAVOK 22/16 Q1022=
201908271900 METAR LRSB 271900Z VRB02KT CAVOK 20/16 Q1022=
201908271930 METAR LRSB 271930Z 00000KT CAVOK 20/16 Q1022=
201908272000 METAR LRSB 272000Z VRB01KT CAVOK 20/15 Q1023=
201908272030 METAR LRSB 272030Z VRB02KT CAVOK 19/15 Q1023=
201908272100 METAR LRSB 272100Z VRB02KT CAVOK 19/15 Q1023=
201908272130 METAR LRSB 272130Z 00000KT CAVOK 18/15 Q1023=
201908272200 METAR LRSB 272200Z 00000KT CAVOK 17/15 Q1023=
201908272230 METAR LRSB 272230Z 00000KT CAVOK 16/15 Q1023=
201908272300 METAR LRSB 272300Z 00000KT CAVOK 17/15 Q1023=
201908272330 METAR LRSB 272330Z 10002KT CAVOK 16/14 Q1023=
201908280000 METAR LRSB 280000Z 10003KT CAVOK 16/14 Q1023=
201908280030 METAR LRSB 280030Z 00000KT CAVOK 15/13 Q1023=
201908280100 METAR LRSB 280100Z AUTO VRB03KT 5000 BR NCD 14/13 Q1023=
201908280130 METAR COR LRSB 280130Z 14001KT CAVOK 15/14 Q1023=
201908280200 METAR LRSB 280200Z 00000KT CAVOK 15/13 Q1023=
201908280230 METAR LRSB 280230Z 13002KT CAVOK 15/14 Q1023=
201908280300 METAR LRSB 280300Z 10004KT CAVOK 15/14 Q1023=
201908280330 METAR LRSB 280330Z 00000KT CAVOK 14/13 Q1023=
201908280400 METAR LRSB 280400Z 20003KT CAVOK 14/13 Q1023=
201908280430 METAR LRSB 280430Z 19003KT CAVOK 15/14 Q1023=
201908280500 METAR LRSB 280500Z VRB01KT CAVOK 16/15 Q1023=
201908280530 METAR LRSB 280530Z 13004KT CAVOK 17/15 Q1023=
201908280600 METAR LRSB 280600Z 12004KT 090V160 CAVOK 19/15 Q1023=
201908280630 METAR LRSB 280630Z 14004KT CAVOK 20/15 Q1023=
201908280700 METAR LRSB 280700Z 12003KT 040V160 CAVOK 22/16 Q1023=
201908280730 METAR LRSB 280730Z VRB02KT CAVOK 24/16 Q1023=
201908280800 METAR LRSB 280800Z VRB03KT 9999 FEW046 25/16 Q1023=
201908280830 METAR LRSB 280830Z 13005KT 100V180 9999 FEW046 26/15 Q1023=
201908280900 METAR LRSB 280900Z 15005KT 9999 FEW046 27/15 Q1023=
201908280930 METAR LRSB 280930Z 14006KT 100V190 9999 FEW048 28/15 Q1023=
201908281000 METAR LRSB 281000Z 13007KT 090V180 9999 FEW048 29/14 Q1022=
201908281030 METAR LRSB 281030Z 12008KT 9999 FEW048 29/13 Q1022=
201908281100 METAR LRSB 281100Z 12008KT 090V150 9999 FEW047TCU 30/11 Q1022=
201908281130 METAR LRSB 281130Z 11008KT 070V150 9999 FEW047TCU 30/11 Q1022=
201908281200 METAR LRSB 281200Z 26005KT 140V290 9999 FEW046CB 28/16 Q1022=
201908281230 METAR LRSB 281230Z 26007KT 9999 SCT048 27/16 Q1021=
201908281300 METAR LRSB 281300Z 26005KT 220V280 9999 FEW048 29/14 Q1021=
201908281330 METAR LRSB 281330Z 25006KT 190V280 9999 FEW046 29/15 Q1021=
201908281400 METAR LRSB 281400Z 30004KT 240V360 9999 FEW046 30/15 Q1021=
201908281430 METAR LRSB 281430Z 25005KT 9999 FEW046 30/14 Q1021=
201908281500 METAR LRSB 281500Z 25009KT 9999 FEW048 28/17 Q1021=
201908281530 METAR LRSB 281530Z 25011KT 9999 FEW047 26/15 Q1021=
201908281600 METAR LRSB 281600Z 25007KT 9999 FEW049 24/15 Q1021=
201908281630 METAR LRSB 281630Z 25007KT 9999 FEW050 24/15 Q1021=
201908281700 METAR LRSB 281700Z 27005KT 9999 FEW050 22/15 Q1021 NOSIG=
201908281730 METAR LRSB 281730Z 25003KT 9999 FEW055 22/15 Q1021 NOSIG=
201908281800 METAR LRSB 281800Z 00000KT CAVOK 21/16 Q1021 NOSIG=
201908281830 METAR LRSB 281830Z 26003KT 220V280 CAVOK 20/16 Q1021 NOSIG=
201908281900 METAR LRSB 281900Z VRB02KT CAVOK 20/15 Q1021 NOSIG=
201908281930 METAR LRSB 281930Z 00000KT CAVOK 19/15 Q1021 NOSIG=
201908282000 METAR LRSB 282000Z VRB01KT CAVOK 18/15 Q1021 NOSIG=
201908282030 METAR LRSB 282030Z 00000KT CAVOK 19/15 Q1021 NOSIG=
201908282100 METAR LRSB 282100Z 00000KT 9999 FEW080 18/15 Q1021 NOSIG=
201908282130 METAR LRSB 282130Z 00000KT 9999 SCT081 18/15 Q1021 NOSIG=
201908282200 METAR LRSB 282200Z 00000KT 9999 SCT082 18/15 Q1021 NOSIG=
201908282230 METAR LRSB 282230Z 00000KT 9999 FEW082 17/14 Q1021 NOSIG=
201908282300 METAR LRSB 282300Z 00000KT 9999 FEW082 17/15 Q1021 NOSIG=
201908282330 METAR LRSB 282330Z 00000KT CAVOK 18/15 Q1021 NOSIG=
201908290000 METAR LRSB 290000Z 00000KT CAVOK 18/15 Q1021 NOSIG=
201908290030 METAR LRSB 290030Z 00000KT CAVOK 16/14 Q1021 NOSIG=
201908290100 METAR LRSB 290100Z 00000KT CAVOK 16/14 Q1021 NOSIG=
201908290130 METAR LRSB 290130Z 00000KT CAVOK 15/14 Q1021 NOSIG=
201908290200 METAR LRSB 290200Z 00000KT CAVOK 15/14 Q1021 NOSIG=
201908290230 METAR LRSB 290230Z 00000KT CAVOK 15/14 Q1021 NOSIG=
201908290300 METAR LRSB 290300Z 00000KT 9999 FEW086 15/14 Q1021 NOSIG=
201908290330 METAR LRSB 290330Z 00000KT 9000 SCT075 14/13 Q1021 NOSIG=
201908290400 METAR LRSB 290400Z 00000KT 9999 FEW076 15/14 Q1021 NOSIG=
201908290430 METAR LRSB 290430Z 00000KT 9999 FEW070 15/14 Q1021 NOSIG=
201908290500 METAR LRSB 290500Z 11004KT 9999 FEW070 17/15 Q1021 NOSIG=
201908290530 METAR COR LRSB 290530Z 11005KT 9999 FEW073 19/14 Q1021 NOSIG=
201908290600 METAR LRSB 290600Z 11004KT CAVOK 19/14 Q1022=
201908290630 METAR LRSB 290630Z 10005KT CAVOK 20/15 Q1021=
201908290700 METAR LRSB 290700Z 11004KT 080V140 9999 FEW053 22/15 Q1022=
201908290730 METAR LRSB 290730Z 08003KT 030V140 9999 FEW053 23/14 Q1022=
201908290800 METAR LRSB 290800Z VRB02KT 9999 FEW052 25/14 Q1021=
201908290830 METAR LRSB 290830Z 17003KT 130V280 9999 FEW052TCU 26/14 Q1021=
201908290900 METAR LRSB 290900Z 13004KT 080V190 9999 FEW052TCU 28/14 Q1021=
201908290930 METAR LRSB 290930Z VRB03KT 9999 FEW052TCU 29/12 Q1021=
201908291000 METAR LRSB 291000Z VRB04KT 9999 FEW054TCU 30/12 Q1021=
201908291030 METAR LRSB 291030Z VRB04KT 9999 FEW054TCU 30/12 Q1021=
201908291100 METAR LRSB 291100Z 29003KT 240V040 9999 FEW054TCU 30/12 Q1021=
201908291130 METAR LRSB 291130Z 02004KT 340V060 9999 FEW055TCU 29/13 Q1020=
201908291200 METAR LRSB 291200Z 35004KT 290V040 8000 SHRA FEW040CB FEW050TCU
                        26/13 Q1021 R27/29//95=
201908291230 METAR LRSB 291230Z 24007KT 9999 FEW048TCU SCT070 25/16 Q1020
                        R27/29//95=
201908291300 METAR LRSB 291300Z 22003KT 9999 FEW048TCU 28/16 Q1020 R27/29//95=
201908291330 METAR LRSB 291330Z 21003KT 140V240 9999 FEW052 30/12 Q1020
                        R27/CLRD//=
201908291400 METAR LRSB 291400Z 22005KT 170V260 9999 FEW052 30/12 Q1020=
201908291430 METAR LRSB 291430Z 20004KT 170V250 9999 FEW053 30/12 Q1020=
201908291500 METAR LRSB 291500Z 22005KT 190V250 9999 FEW052TCU 30/11 Q1019=
201908291530 METAR LRSB 291530Z 23005KT 9999 FEW052TCU 29/11 Q1019=
201908291600 METAR LRSB 291600Z 24003KT 9999 FEW050TCU 29/14 Q1019=
201908291630 METAR LRSB 291630Z 24002KT 9999 FEW050TCU 27/14 Q1019=
201908291700 METAR LRSB 291700Z 27004KT 250V320 CAVOK 23/16 Q1019=
201908291730 METAR LRSB 291730Z 25006KT CAVOK 22/14 Q1019=
201908291800 METAR LRSB 291800Z 24006KT CAVOK 20/14 Q1020=
201908291830 METAR LRSB 291830Z 26007KT CAVOK 20/13 Q1020=
201908291900 METAR LRSB 291900Z VRB04KT CAVOK 21/13 Q1020=
201908291930 METAR LRSB 291930Z 21005KT 180V240 CAVOK 20/13 Q1020=
201908292000 METAR LRSB 292000Z 26006KT CAVOK 19/13 Q1020=
201908292030 METAR LRSB 292030Z 26008KT CAVOK 19/13 Q1020=
201908292100 METAR LRSB 292100Z VRB04KT CAVOK 18/13 Q1020=
201908292130 METAR LRSB 292130Z 10002KT CAVOK 18/13 Q1020=
201908292200 METAR LRSB 292200Z 30003KT CAVOK 18/12 Q1020=
201908292230 METAR LRSB 292230Z 26004KT 230V290 CAVOK 16/13 Q1020=
201908292300 METAR LRSB 292300Z VRB01KT CAVOK 17/13 Q1020=
201908292330 METAR LRSB 292330Z 00000KT CAVOK 17/13 Q1020=
201908300000 METAR LRSB 300000Z 00000KT CAVOK 16/13 Q1021=
201908300030 METAR LRSB 300030Z 00000KT CAVOK 16/13 Q1021=
201908300100 METAR LRSB 300100Z 00000KT CAVOK 15/13 Q1020=
201908300130 METAR LRSB 300130Z 00000KT CAVOK 15/13 Q1020=
201908300200 METAR LRSB 300200Z 00000KT CAVOK 15/13 Q1020=
201908300230 METAR LRSB 300230Z 00000KT CAVOK 15/13 Q1020=
201908300300 METAR LRSB 300300Z 00000KT CAVOK 14/12 Q1020=
201908300330 METAR LRSB 300330Z 00000KT CAVOK 15/13 Q1020=
201908300400 METAR LRSB 300400Z 00000KT CAVOK 15/13 Q1021=
201908300430 METAR LRSB 300430Z 00000KT CAVOK 15/13 Q1021=
201908300500 METAR LRSB 300500Z 00000KT CAVOK 17/14 Q1021 NOSIG=
201908300530 METAR LRSB 300530Z 00000KT CAVOK 18/14 Q1021 NOSIG=
201908300600 METAR LRSB 300600Z 11003KT 080V140 CAVOK 20/14 Q1021 NOSIG=
201908300630 METAR LRSB 300630Z VRB01KT CAVOK 22/14 Q1021 NOSIG=
201908300700 METAR LRSB 300700Z 32003KT 270V010 CAVOK 23/15 Q1021 NOSIG=
201908300730 METAR LRSB 300730Z 36004KT 280V040 9999 FEW035 24/15 Q1022
                        NOSIG=
201908300800 METAR LRSB 300800Z 01004KT 330V070 9999 FEW035 25/15 Q1022
                        NOSIG=
201908300830 METAR LRSB 300830Z 01004KT 320V060 9999 FEW036 26/15 Q1021
                        NOSIG=
201908300900 METAR LRSB 300900Z 35004KT 250V030 9999 FEW038 27/14 Q1021
                        NOSIG=
201908300930 METAR LRSB 300930Z 03006KT 360V080 9999 FEW038 28/13 Q1021
                        NOSIG=
201908301000 METAR COR LRSB 301000Z 05007KT 9999 FEW040 28/13 Q1021 NOSIG=
201908301030 METAR COR LRSB 301030Z VRB03KT 9999 FEW043 29/12 Q1021 NOSIG=
201908301100 METAR LRSB 301100Z 32003KT 260V030 9999 FEW043 29/12 Q1021
                        NOSIG=
201908301130 METAR LRSB 301130Z 35006KT 200V010 9999 FEW043 30/11 Q1021
                        NOSIG=
201908301200 METAR LRSB 301200Z 01005KT 330V050 9999 FEW045 30/13 Q1020
                        NOSIG=
201908301230 METAR LRSB 301230Z 09005KT 060V130 9999 SCT048 28/14 Q1020
                        NOSIG=
201908301300 METAR COR LRSB 301300Z 16004KT 130V220 9999 SCT048 30/14
                        Q1020 NOSIG=
201908301330 METAR LRSB 301330Z 20003KT 140V280 9999 SCT050 30/14 Q1020
                        NOSIG=
201908301400 METAR LRSB 301400Z VRB03KT 9999 FEW050 29/13 Q1020 NOSIG=
201908301430 METAR LRSB 301430Z 09005KT 9999 FEW050 28/12 Q1019 NOSIG=
201908301500 METAR LRSB 301500Z 11003KT 050V160 9999 FEW050 30/12 Q1019
                        NOSIG=
201908301530 METAR LRSB 301530Z VRB05KT 9999 FEW050 29/11 Q1019 NOSIG=
201908301600 METAR LRSB 301600Z 11004KT 080V140 CAVOK 29/12 Q1019 NOSIG=
201908301630 METAR LRSB 301630Z VRB01KT CAVOK 28/13 Q1019 NOSIG=
201908301700 METAR LRSB 301700Z 26003KT CAVOK 24/15 Q1019=
201908301730 METAR LRSB 301730Z 26007KT CAVOK 22/16 Q1020=
201908301800 METAR LRSB 301800Z 25005KT CAVOK 21/16 Q1020=
201908301830 METAR LRSB 301830Z 25006KT CAVOK 21/15 Q1020=
201908301900 METAR LRSB 301900Z 24006KT 140V270 CAVOK 19/15 Q1021=
201908301930 METAR LRSB 301930Z VRB02KT CAVOK 19/15 Q1021=
201908302000 METAR LRSB 302000Z VRB01KT CAVOK 19/15 Q1021=
201908302030 METAR LRSB 302030Z VRB01KT CAVOK 19/15 Q1021=
201908302100 METAR LRSB 302100Z 31002KT CAVOK 18/14 Q1021=
201908302130 METAR LRSB 302130Z 00000KT CAVOK 18/15 Q1021=
201908302200 METAR COR LRSB 302200Z 08001KT 9999 FEW080 18/14 Q1021=
201908302230 METAR LRSB 302230Z 11004KT 9999 FEW080 18/14 Q1021=
201908302300 METAR LRSB 302300Z 12004KT CAVOK 18/15 Q1021=
201908302330 METAR LRSB 302330Z 18003KT 140V220 CAVOK 16/14 Q1021=
201908310000 METAR LRSB 310000Z 09002KT CAVOK 16/14 Q1021=
201908310030 METAR LRSB 310030Z VRB02KT 9999 FEW078 16/14 Q1021=
201908310100 METAR LRSB 310100Z VRB01KT 9999 FEW078 16/14 Q1020=
201908310130 METAR LRSB 310130Z 07001KT CAVOK 17/14 Q1020=
201908310200 METAR LRSB 310200Z 08004KT CAVOK 17/14 Q1020=
201908310230 METAR LRSB 310230Z 18003KT CAVOK 15/13 Q1020=
201908310300 METAR LRSB 310300Z 00000KT CAVOK 14/13 Q1020=
201908310330 METAR LRSB 310330Z 00000KT CAVOK 14/12 Q1021=
201908310400 METAR LRSB 310400Z 15002KT CAVOK 13/12 Q1021=
201908310430 METAR LRSB 310430Z 00000KT CAVOK 14/13 Q1021=
201908310500 METAR LRSB 310500Z 00000KT CAVOK 16/14 Q1021=
201908310530 METAR LRSB 310530Z 00000KT CAVOK 18/14 Q1021=
201908310600 METAR LRSB 310600Z 00000KT CAVOK 19/15 Q1021=
201908310630 METAR COR LRSB 310630Z 00000KT CAVOK 22/14 Q1022=
201908310700 METAR LRSB 310700Z 00000KT CAVOK 22/14 Q1022=
201908310730 METAR LRSB 310730Z 09004KT 050V130 CAVOK 23/14 Q1021=
201908310800 METAR LRSB 310800Z 08004KT 050V110 CAVOK 24/13 Q1021=
201908310830 METAR LRSB 310830Z VRB03KT CAVOK 25/14 Q1021=
201908310900 METAR LRSB 310900Z VRB04KT CAVOK 26/13 Q1021=
201908310930 METAR LRSB 310930Z 12006KT 070V200 CAVOK 27/13 Q1021=
201908311000 METAR LRSB 311000Z 10007KT 060V140 CAVOK 27/12 Q1021=
201908311030 METAR LRSB 311030Z 10008KT 060V140 CAVOK 28/11 Q1020=
201908311100 METAR LRSB 311100Z 13008KT 090V170 CAVOK 28/11 Q1020=
201908311130 METAR LRSB 311130Z 10005KT CAVOK 29/11 Q1020=
201908311200 METAR LRSB 311200Z 09006KT 060V150 CAVOK 29/10 Q1020=
201908311230 METAR LRSB 311230Z 11007KT CAVOK 30/09 Q1019=
201908311300 METAR LRSB 311300Z 11008KT CAVOK 29/08 Q1019=
201908311330 METAR LRSB 311330Z 11007KT 070V130 CAVOK 30/06 Q1019=
201908311400 METAR LRSB 311400Z 08011KT CAVOK 30/05 Q1019=
201908311430 METAR LRSB 311430Z 10009KT 070V130 CAVOK 29/06 Q1018=
201908311500 METAR LRSB 311500Z 12009KT CAVOK 29/06 Q1018=
201908311530 METAR LRSB 311530Z 12008KT CAVOK 28/07 Q1018=
201908311600 METAR LRSB 311600Z 12006KT 080V140 9999 FEW050 28/09 Q1018=
201908311630 METAR LRSB 311630Z 11005KT 9999 FEW050 27/09 Q1018=
201908311700 METAR LRSB 311700Z 13003KT 090V210 CAVOK 24/10 Q1018 NOSIG=
201908311730 METAR LRSB 311730Z 25005KT CAVOK 19/13 Q1018 NOSIG=
201908311800 METAR LRSB 311800Z 26006KT CAVOK 19/12 Q1018 NOSIG=
201908311830 METAR LRSB 311830Z 22003KT 150V250 CAVOK 17/12 Q1018 NOSIG=
201908311900 METAR LRSB 311900Z 21002KT CAVOK 18/12 Q1018 NOSIG=
201908311930 METAR LRSB 311930Z VRB01KT CAVOK 17/11 Q1018 NOSIG=
201908312000 METAR LRSB 312000Z 10003KT 070V130 CAVOK 16/11 Q1018 NOSIG=
201908312030 METAR LRSB 312030Z 11003KT 070V130 CAVOK 17/12 Q1018 NOSIG=
201908312100 METAR LRSB 312100Z 12004KT CAVOK 16/11 Q1018 NOSIG=
201908312130 METAR LRSB 312130Z 13004KT CAVOK 17/11 Q1018 NOSIG=
201908312200 METAR LRSB 312200Z 19003KT 140V220 CAVOK 15/11 Q1018 NOSIG=
201908312230 METAR LRSB 312230Z 23003KT CAVOK 14/11 Q1018 NOSIG=
201908312300 METAR LRSB 312300Z 00000KT CAVOK 15/12 Q1018 NOSIG=
201908312330 METAR LRSB 312330Z 05002KT CAVOK 16/11 Q1018 NOSIG=
