201909010000 METAR LRSB 010000Z VRB01KT CAVOK 13/11 Q1018 NOSIG=
201909010030 METAR LRSB 010030Z 26003KT CAVOK 13/11 Q1018 NOSIG=
201909010100 METAR LRSB 010100Z VRB02KT CAVOK 13/10 Q1018 NOSIG=
201909010130 METAR LRSB 010130Z 00000KT CAVOK 13/11 Q1018 NOSIG=
201909010200 METAR LRSB 010200Z 23004KT CAVOK 13/11 Q1018 NOSIG=
201909010230 METAR LRSB 010230Z 00000KT CAVOK 12/10 Q1018 NOSIG=
201909010300 METAR LRSB 010300Z 00000KT CAVOK 12/11 Q1017 NOSIG=
201909010330 METAR LRSB 010330Z 00000KT CAVOK 12/10 Q1018 NOSIG=
201909010400 METAR LRSB 010400Z 10003KT CAVOK 12/10 Q1018 NOSIG=
201909010430 METAR LRSB 010430Z 10004KT CAVOK 14/11 Q1018 NOSIG=
201909010500 METAR LRSB 010500Z 12003KT CAVOK 15/12 Q1018=
201909010530 METAR LRSB 010530Z 12003KT 100V160 CAVOK 16/12 Q1018=
201909010600 METAR LRSB 010600Z VRB02KT CAVOK 18/13 Q1017=
201909010630 METAR LRSB 010630Z AUTO VRB02KT 9999 NCD 20/13 Q1017=
201909010700 METAR LRSB 010700Z VRB02KT CAVOK 21/12 Q1017=
201909010730 METAR LRSB 010730Z 11003KT 050V160 CAVOK 23/13 Q1018=
201909010800 METAR LRSB 010800Z VRB03KT CAVOK 24/12 Q1017=
201909010830 METAR LRSB 010830Z 10003KT 060V210 CAVOK 25/12 Q1017=
201909010900 METAR LRSB 010900Z 12003KT 040V210 CAVOK 26/13 Q1017=
201909010930 METAR LRSB 010930Z 13007KT 100V160 9999 FEW050 27/11 Q1017=
201909011000 METAR LRSB 011000Z VRB04KT 9999 FEW050 27/11 Q1017=
201909011030 METAR LRSB 011030Z 15005KT 090V250 9999 FEW050 28/09 Q1017=
201909011100 METAR LRSB 011100Z 09008KT 9999 FEW050 29/10 Q1016=
201909011130 METAR LRSB 011130Z 12007KT 040V150 9999 FEW050 29/09 Q1016=
201909011200 METAR LRSB 011200Z 14006KT 110V170 9999 FEW050 29/08 Q1016=
201909011230 METAR LRSB 011230Z 08008KT 9999 FEW050 30/09 Q1016=
201909011300 METAR LRSB 011300Z 08006KT 9999 FEW050 30/09 Q1015=
201909011330 METAR LRSB 011330Z 01004KT 290V060 9999 FEW050 30/08 Q1015=
201909011400 METAR LRSB 011400Z 18004KT 130V230 9999 FEW050 30/09 Q1015=
201909011430 METAR LRSB 011430Z VRB04KT 9999 FEW050 30/09 Q1015=
201909011500 METAR LRSB 011500Z VRB02KT 9999 FEW055 30/10 Q1015=
201909011530 METAR COR LRSB 011530Z 15004KT CAVOK 29/10 Q1015=
201909011600 METAR LRSB 011600Z 15003KT CAVOK 28/10 Q1015=
201909011630 METAR LRSB 011630Z 16003KT CAVOK 27/11 Q1014=
201909011700 METAR LRSB 011700Z 27006KT CAVOK 23/14 Q1015=
201909011730 METAR LRSB 011730Z 24005KT 190V260 CAVOK 22/14 Q1015=
201909011800 METAR LRSB 011800Z 24003KT CAVOK 20/14 Q1015=
201909011830 METAR LRSB 011830Z 24004KT CAVOK 19/14 Q1016=
201909011900 METAR LRSB 011900Z 25004KT CAVOK 18/13 Q1016=
201909011930 METAR LRSB 011930Z 00000KT CAVOK 17/13 Q1016=
201909012000 METAR LRSB 012000Z 00000KT 9999 NCD 19/13 Q1016=
201909012030 METAR LRSB 012030Z 00000KT CAVOK 18/12 Q1016=
201909012100 METAR LRSB 012100Z VRB02KT CAVOK 18/13 Q1016=
201909012130 METAR LRSB 012130Z 00000KT CAVOK 18/13 Q1016=
201909012200 METAR COR LRSB 012200Z 00000KT CAVOK 17/12 Q1016=
201909012230 METAR LRSB 012230Z 00000KT CAVOK 15/11 Q1016=
201909012300 METAR LRSB 012300Z 00000KT CAVOK 15/11 Q1016=
201909012330 METAR LRSB 012330Z AUTO 00000KT 9999 NCD 14/12 Q1016=
201909020000 METAR LRSB 020000Z 00000KT CAVOK 14/11 Q1016=
201909020030 METAR LRSB 020030Z 00000KT CAVOK 14/11 Q1016=
201909020100 METAR LRSB 020100Z 00000KT CAVOK 14/11 Q1016=
201909020130 METAR LRSB 020130Z 00000KT CAVOK 13/11 Q1016=
201909020200 METAR LRSB 020200Z 11002KT CAVOK 13/11 Q1016=
201909020230 METAR LRSB 020230Z 10002KT CAVOK 13/10 Q1016=
201909020300 METAR LRSB 020300Z 10003KT CAVOK 13/10 Q1016=
201909020330 METAR LRSB 020330Z 11004KT CAVOK 13/10 Q1016=
201909020400 METAR LRSB 020400Z 09002KT CAVOK 13/10 Q1017=
201909020430 METAR LRSB 020430Z 12002KT CAVOK 14/10 Q1017=
201909020500 METAR LRSB 020500Z VRB01KT CAVOK 15/12 Q1017=
201909020530 METAR LRSB 020530Z 10003KT CAVOK 17/12 Q1017=
201909020600 METAR LRSB 020600Z 11004KT CAVOK 18/12 Q1017=
201909020630 METAR LRSB 020630Z 11004KT 070V140 CAVOK 19/12 Q1017=
201909020700 METAR LRSB 020700Z 10004KT 040V150 CAVOK 21/11 Q1017=
201909020730 METAR LRSB 020730Z 10004KT CAVOK 22/12 Q1017=
201909020800 METAR LRSB 020800Z 12003KT 060V170 CAVOK 24/12 Q1017=
201909020830 METAR LRSB 020830Z 14003KT 080V190 CAVOK 26/11 Q1017=
201909020900 METAR LRSB 020900Z VRB04KT CAVOK 26/11 Q1017=
201909020930 METAR LRSB 020930Z 10006KT 070V140 9999 FEW086 27/12 Q1017=
201909021000 METAR LRSB 021000Z 12008KT 9999 FEW068 29/11 Q1016=
201909021030 METAR LRSB 021030Z 11008KT 080V150 9999 FEW066 30/10 Q1016=
201909021100 METAR LRSB 021100Z 12008KT 100V160 9999 FEW066 29/08 Q1016=
201909021130 METAR LRSB 021130Z 11009KT 9999 FEW065 30/09 Q1016=
201909021200 METAR LRSB 021200Z 11010KT 9999 FEW065 30/09 Q1016=
201909021230 METAR LRSB 021230Z 13009KT 080V160 9999 FEW048 30/09 Q1015=
201909021300 METAR LRSB 021300Z 09009KT 9999 FEW048 31/09 Q1015=
201909021330 METAR LRSB 021330Z 13010KT 9999 FEW048TCU 30/08 Q1015=
201909021400 METAR LRSB 021400Z 14008KT 9999 FEW048TCU 30/08 Q1015=
201909021430 METAR LRSB 021430Z 13010KT 9999 FEW050 30/08 Q1015=
201909021500 METAR LRSB 021500Z 12010KT 9999 FEW052TCU 29/08 Q1015=
201909021530 METAR LRSB 021530Z 13009KT 9999 FEW053TCU 29/08 Q1015=
201909021600 METAR LRSB 021600Z 13008KT 9999 FEW055 27/08 Q1015=
201909021630 METAR LRSB 021630Z 14006KT CAVOK 25/09 Q1015=
201909021700 METAR LRSB 021700Z 22004KT 160V270 CAVOK 23/10 Q1015=
201909021730 METAR LRSB 021730Z 22004KT CAVOK 23/10 Q1015=
201909021800 METAR LRSB 021800Z VRB01KT CAVOK 20/11 Q1016=
201909021830 METAR LRSB 021830Z VRB01KT CAVOK 20/11 Q1016=
201909021900 METAR LRSB 021900Z 00000KT CAVOK 20/10 Q1016=
201909021930 METAR LRSB 021930Z AUTO VRB01KT 9999 NCD 20/09 Q1016=
201909022000 METAR LRSB 022000Z VRB01KT CAVOK 20/10 Q1016=
201909022030 METAR LRSB 022030Z 00000KT CAVOK 19/10 Q1016=
201909022100 METAR LRSB 022100Z VRB01KT CAVOK 18/10 Q1016=
201909022130 METAR LRSB 022130Z 03001KT CAVOK 17/10 Q1016=
201909022200 METAR LRSB 022200Z VRB01KT CAVOK 18/10 Q1017=
201909022230 METAR LRSB 022230Z VRB02KT CAVOK 18/10 Q1017=
201909022300 METAR LRSB 022300Z 00000KT CAVOK 16/10 Q1017=
201909022330 METAR LRSB 022330Z 00000KT CAVOK 16/10 Q1017=
201909030000 METAR LRSB 030000Z 00000KT CAVOK 15/10 Q1017=
201909030030 METAR LRSB 030030Z AUTO 00000KT 9999 NCD 15/10 Q1017=
201909030100 METAR LRSB 030100Z AUTO 00000KT 9999 NCD 14/10 Q1016=
201909030130 METAR LRSB 030130Z 00000KT CAVOK 14/10 Q1016=
201909030200 METAR LRSB 030200Z 00000KT CAVOK 13/10 Q1016=
201909030230 METAR LRSB 030230Z 00000KT CAVOK 12/09 Q1017=
201909030300 METAR LRSB 030300Z VRB01KT CAVOK 12/10 Q1017=
201909030330 METAR LRSB 030330Z 11003KT CAVOK 13/10 Q1017=
201909030400 METAR LRSB 030400Z 11003KT CAVOK 12/10 Q1017=
201909030430 METAR LRSB 030430Z 11003KT CAVOK 14/10 Q1017=
201909030500 METAR LRSB 030500Z 11003KT CAVOK 15/11 Q1017=
201909030530 METAR LRSB 030530Z 10003KT CAVOK 17/11 Q1017=
201909030600 METAR LRSB 030600Z 10004KT CAVOK 18/11 Q1017=
201909030630 METAR LRSB 030630Z VRB02KT CAVOK 20/11 Q1018=
201909030700 METAR LRSB 030700Z 11003KT CAVOK 21/11 Q1018=
201909030730 METAR LRSB 030730Z VRB02KT CAVOK 23/11 Q1018=
201909030800 METAR LRSB 030800Z VRB02KT CAVOK 24/10 Q1018=
201909030830 METAR LRSB 030830Z 13003KT CAVOK 26/10 Q1018=
201909030900 METAR LRSB 030900Z VRB03KT CAVOK 27/10 Q1017=
201909030930 METAR LRSB 030930Z VRB03KT CAVOK 28/08 Q1017=
201909031000 METAR LRSB 031000Z 02003KT CAVOK 30/09 Q1017=
201909031030 METAR LRSB 031030Z VRB04KT CAVOK 30/08 Q1017=
201909031100 METAR LRSB 031100Z VRB02KT CAVOK 30/08 Q1017=
201909031130 METAR LRSB 031130Z 13004KT CAVOK 30/08 Q1016=
201909031200 METAR LRSB 031200Z 24004KT 190V290 CAVOK 30/08 Q1016=
201909031230 METAR LRSB 031230Z 28003KT CAVOK 31/08 Q1016=
201909031300 METAR LRSB 031300Z 28005KT 240V330 9999 FEW050 31/08 Q1016=
201909031330 METAR LRSB 031330Z 30010KT 9999 SCT050 30/08 Q1016=
201909031400 METAR LRSB 031400Z 29007KT 9999 SCT050 29/09 Q1016=
201909031430 METAR LRSB 031430Z 29009KT 9999 SCT050 29/08 Q1016=
201909031500 METAR LRSB 031500Z 27008KT 9999 SCT050 27/12 Q1016=
201909031530 METAR LRSB 031530Z 27010KT 9999 FEW050 26/11 Q1016=
201909031600 METAR LRSB 031600Z 27011KT 9999 FEW050 25/12 Q1016=
201909031630 METAR LRSB 031630Z 26014KT 9999 -RA FEW047CB SCT065 24/11
                        Q1016=
201909031700 METAR LRSB 031700Z 27011KT 9999 VCSH FEW047CB SCT065 23/12
                        Q1017=
201909031730 METAR LRSB 031730Z 30009KT 270V340 9999 FEW048CB SCT068 23/12
                        Q1017=
201909031800 METAR LRSB 031800Z 29013KT 9999 FEW050 SCT070 23/13 Q1018=
201909031830 METAR LRSB 031830Z 29011KT 9999 SCT050 22/14 Q1018=
201909031900 METAR LRSB 031900Z 34007KT 300V010 9999 SCT050 22/14 Q1019=
201909031930 METAR LRSB 031930Z 34007KT 9999 SCT048 21/15 Q1019=
201909032000 METAR LRSB 032000Z 34007KT 9999 FEW047 SCT085 21/14 Q1019=
201909032030 METAR LRSB 032030Z 31009KT 9999 FEW047 20/14 Q1019=
201909032100 METAR LRSB 032100Z VRB02KT 9999 FEW050 20/14 Q1019=
201909032130 METAR LRSB 032130Z 00000KT 9999 FEW052 19/14 Q1019=
201909032200 METAR LRSB 032200Z VRB01KT 9999 FEW048 SCT084 19/14 Q1020=
201909032230 METAR LRSB 032230Z VRB01KT 9999 FEW048 SCT084 19/14 Q1020=
201909032300 METAR LRSB 032300Z 00000KT 9999 SCT050 SCT084 18/14 Q1020=
201909032330 METAR LRSB 032330Z 36004KT 9999 SCT051 SCT085 19/14 Q1020=
201909040000 METAR LRSB 040000Z 35005KT 9999 FEW056 18/14 Q1020=
201909040030 METAR LRSB 040030Z 36005KT 9999 FEW045 17/13 Q1020=
201909040100 METAR LRSB 040100Z 35004KT 9999 SCT042 18/13 Q1020=
201909040130 METAR LRSB 040130Z VRB01KT 9999 SCT040 17/14 Q1019=
201909040200 METAR LRSB 040200Z 25002KT 9999 FEW038 16/14 Q1019=
201909040230 METAR LRSB 040230Z 27003KT 9999 FEW025 SCT038 16/14 Q1019=
201909040300 METAR LRSB 040300Z 25004KT 9999 FEW023 SCT036 16/14 Q1019=
201909040330 METAR LRSB 040330Z 25004KT 9999 FEW024 SCT036 16/14 Q1019=
201909040400 METAR LRSB 040400Z 26005KT 9999 SCT025 SCT038 16/14 Q1019=
201909040430 METAR LRSB 040430Z 27004KT 9999 SCT024 SCT037 17/14 Q1019=
201909040500 METAR LRSB 040500Z 28003KT 9999 SCT025 SCT037 18/14 Q1020=
201909040530 METAR LRSB 040530Z 32004KT 9999 BKN024 SCT034 18/13 Q1020=
201909040600 METAR LRSB 040600Z 34006KT 310V010 9999 BKN023 18/13 Q1020=
201909040630 METAR LRSB 040630Z 02003KT 310V070 9999 BKN023 19/14 Q1020=
201909040700 METAR LRSB 040700Z VRB01KT 9999 FEW018 BKN023 19/14 Q1020=
201909040730 METAR LRSB 040730Z 35003KT 310V030 9999 SCT018 BKN022 19/13
                        Q1020=
201909040800 METAR LRSB 040800Z 32003KT 220V010 9999 SCT020 BKN024 20/14
                        Q1020=
201909040830 METAR LRSB 040830Z 33004KT 280V090 9999 SCT020 BKN025 20/14
                        Q1020=
201909040900 METAR LRSB 040900Z 34004KT 310V010 9999 SCT020 BKN025 20/14
                        Q1020=
201909040930 METAR LRSB 040930Z 32004KT 280V020 9999 SCT021 BKN027 20/14
                        Q1020=
201909041000 METAR LRSB 041000Z 31005KT 9999 FEW021 BKN029 20/13 Q1019=
201909041030 METAR COR LRSB 041030Z 30005KT 260V340 9999 FEW021 BKN030
                        20/14 Q1019=
201909041100 METAR LRSB 041100Z 32003KT 270V010 9999 FEW021 BKN030 21/14
                        Q1019=
201909041130 METAR LRSB 041130Z 27004KT 230V320 9999 FEW023 BKN030 20/14
                        Q1019=
201909041200 METAR LRSB 041200Z 28004KT 230V310 9999 FEW021 BKN029 21/13
                        Q1019=
201909041230 METAR LRSB 041230Z 30005KT 250V340 9999 BKN030 21/14 Q1018=
201909041300 METAR LRSB 041300Z 29006KT 260V320 9999 BKN029 SCT034 21/14
                        Q1018=
201909041330 METAR LRSB 041330Z 28004KT 240V310 9999 OVC032 21/14 Q1018=
201909041400 METAR LRSB 041400Z 25005KT 9999 OVC034 21/14 Q1018=
201909041430 METAR LRSB 041430Z 23005KT 9999 OVC036 20/14 Q1018=
201909041500 METAR LRSB 041500Z 22003KT 9999 BKN036 20/14 Q1018=
201909041530 METAR LRSB 041530Z 16002KT 9999 BKN039 20/14 Q1018=
201909041600 METAR LRSB 041600Z 16003KT 9999 BKN040 20/14 Q1018=
201909041630 METAR LRSB 041630Z 13003KT 9999 BKN050 20/14 Q1018=
201909041700 METAR LRSB 041700Z 14003KT 9999 BKN050 20/14 Q1018=
201909041730 METAR LRSB 041730Z 15003KT 9999 BKN050 19/14 Q1018=
201909041800 METAR LRSB 041800Z 14003KT 9999 SCT050 18/14 Q1018=
201909041830 METAR LRSB 041830Z 00000KT 9999 SCT050 18/13 Q1018=
201909041900 METAR COR LRSB 041900Z VRB01KT 9999 BKN050 18/14 Q1018=
201909041930 METAR LRSB 041930Z VRB02KT 9999 BKN050 17/13 Q1018=
201909042000 METAR LRSB 042000Z 00000KT 9999 BKN050 16/13 Q1017=
201909042030 METAR LRSB 042030Z 00000KT 9999 SCT050 15/13 Q1018=
201909042100 METAR LRSB 042100Z VRB02KT 9999 BKN050 16/13 Q1018=
201909042130 METAR LRSB 042130Z 00000KT 9999 BKN050 16/13 Q1017=
201909042200 METAR LRSB 042200Z 25003KT 9999 BKN050 16/14 Q1017=
201909042230 METAR LRSB 042230Z 25003KT 9999 BKN050 16/14 Q1017=
201909042300 METAR LRSB 042300Z AUTO VRB01KT 9999 OVC048/// 16/14 Q1017=
201909042330 METAR LRSB 042330Z 05003KT 9999 BKN050 16/13 Q1017=
201909050000 METAR LRSB 050000Z 00000KT 9999 BKN050 16/13 Q1017=
201909050030 METAR LRSB 050030Z 18002KT 9999 BKN050 16/13 Q1017=
201909050100 METAR LRSB 050100Z 12004KT 9999 BKN050 16/14 Q1017=
201909050130 METAR LRSB 050130Z 11005KT 9999 BKN050 15/13 Q1017=
201909050200 METAR LRSB 050200Z 15003KT CAVOK 15/13 Q1016=
201909050230 METAR LRSB 050230Z VRB02KT CAVOK 14/13 Q1016=
201909050300 METAR LRSB 050300Z 00000KT CAVOK 13/12 Q1016=
201909050330 METAR LRSB 050330Z 15002KT CAVOK 13/12 Q1016=
201909050400 METAR LRSB 050400Z 19002KT CAVOK 12/11 Q1016=
201909050430 METAR COR LRSB 050430Z 23002KT 9999 MIFG NSC 11/10 Q1016=
201909050500 METAR LRSB 050500Z 23002KT CAVOK 13/12 Q1017=
201909050530 METAR LRSB 050530Z VRB02KT CAVOK 13/12 Q1017=
201909050600 METAR LRSB 050600Z 00000KT CAVOK 15/13 Q1017=
201909050630 METAR LRSB 050630Z 13003KT 050V180 CAVOK 17/12 Q1017=
201909050700 METAR LRSB 050700Z VRB01KT CAVOK 18/12 Q1017=
201909050730 METAR LRSB 050730Z VRB02KT CAVOK 19/12 Q1017=
201909050800 METAR LRSB 050800Z VRB03KT 9999 FEW052 21/13 Q1016=
201909050830 METAR COR LRSB 050830Z 35003KT 280V050 9999 FEW050 22/13
                        Q1016=
201909050900 METAR LRSB 050900Z 35004KT 290V030 9999 FEW050 22/12 Q1016=
201909050930 METAR LRSB 050930Z VRB04KT 9999 FEW050 23/11 Q1016=
201909051000 METAR LRSB 051000Z VRB03KT 9999 SCT044 24/12 Q1016=
201909051030 METAR LRSB 051030Z VRB02KT 9999 BKN044 25/12 Q1015=
201909051100 METAR LRSB 051100Z 32005KT 280V070 9999 BKN044 25/12 Q1015=
201909051130 METAR LRSB 051130Z VRB04KT 9999 BKN047 25/11 Q1015=
201909051200 METAR LRSB 051200Z 34007KT 310V030 9999 BKN051 25/11 Q1015=
201909051230 METAR LRSB 051230Z VRB04KT 9999 BKN051 25/11 Q1015=
201909051300 METAR LRSB 051300Z 34007KT 310V010 9999 BKN051 26/12 Q1014=
201909051330 METAR LRSB 051330Z 07004KT 330V130 9999 BKN057 25/11 Q1014=
201909051400 METAR LRSB 051400Z 02007KT 9999 BKN054 25/11 Q1014=
201909051430 METAR LRSB 051430Z 36003KT 9999 FEW045TCU SCT050 24/11 Q1014=
201909051500 METAR LRSB 051500Z 06003KT 010V100 9999 BKN045 24/11 Q1014=
201909051530 METAR LRSB 051530Z VRB02KT 9999 BKN050 24/11 Q1014=
201909051600 METAR LRSB 051600Z 14004KT 9999 SCT055 23/13 Q1014=
201909051630 METAR LRSB 051630Z 15003KT 9999 SCT055 22/13 Q1014=
201909051700 METAR LRSB 051700Z 18003KT 150V210 9999 FEW056 21/13 Q1014=
201909051730 METAR LRSB 051730Z 20004KT 9999 FEW074 19/13 Q1015=
201909051800 METAR LRSB 051800Z VRB02KT 9999 FEW077 19/13 Q1015=
201909051830 METAR LRSB 051830Z 23004KT 9999 FEW077 16/13 Q1015=
201909051900 METAR LRSB 051900Z VRB01KT CAVOK 16/12 Q1015=
201909051930 METAR LRSB 051930Z VRB01KT CAVOK 16/12 Q1015=
201909052000 METAR LRSB 052000Z VRB01KT CAVOK 16/12 Q1015=
201909052030 METAR LRSB 052030Z VRB01KT CAVOK 17/12 Q1015=
201909052100 METAR LRSB 052100Z 00000KT 9999 FEW076 15/12 Q1016=
201909052130 METAR LRSB 052130Z VRB01KT 9999 FEW075 14/12 Q1016=
201909052200 METAR LRSB 052200Z VRB02KT 9999 FEW075 14/12 Q1016=
201909052230 METAR LRSB 052230Z 21002KT 9999 FEW076 13/11 Q1016=
201909052300 METAR LRSB 052300Z 00000KT CAVOK 12/11 Q1016=
201909052330 METAR LRSB 052330Z 00000KT CAVOK 13/11 Q1016=
201909060000 METAR LRSB 060000Z 00000KT CAVOK 13/11 Q1016=
201909060030 METAR LRSB 060030Z 00000KT CAVOK 12/11 Q1017=
201909060100 METAR LRSB 060100Z 00000KT CAVOK 12/11 Q1017=
201909060130 METAR LRSB 060130Z 00000KT CAVOK 13/11 Q1017=
201909060200 METAR LRSB 060200Z 00000KT CAVOK 13/11 Q1017=
201909060230 METAR COR LRSB 060230Z 00000KT CAVOK 11/10 Q1017=
201909060300 METAR COR LRSB 060300Z 00000KT CAVOK 11/10 Q1017=
201909060330 METAR LRSB 060330Z 00000KT CAVOK 12/11 Q1018=
201909060400 METAR LRSB 060400Z 00000KT CAVOK 12/10 Q1018=
201909060430 METAR LRSB 060430Z 00000KT 9999 FEW060 11/10 Q1018=
201909060500 METAR LRSB 060500Z 00000KT 9999 FEW064 14/12 Q1018=
201909060530 METAR LRSB 060530Z 00000KT 9999 FEW064 15/12 Q1018=
201909060600 METAR LRSB 060600Z 00000KT 9999 FEW065 17/12 Q1019=
201909060630 METAR LRSB 060630Z VRB02KT 9999 FEW065 18/12 Q1019=
201909060700 METAR LRSB 060700Z 09004KT 050V120 9999 FEW045 18/12 Q1019=
201909060730 METAR LRSB 060730Z 06004KT 010V100 9999 FEW045 20/12 Q1019=
201909060800 METAR LRSB 060800Z 05004KT 350V120 9999 FEW044 21/12 Q1019=
201909060830 METAR LRSB 060830Z 01004KT 310V080 9999 FEW044 22/12 Q1019=
201909060900 METAR LRSB 060900Z 34005KT 280V020 9999 FEW046 23/11 Q1019=
201909060930 METAR LRSB 060930Z VRB03KT 9999 FEW046 24/10 Q1019=
201909061000 METAR LRSB 061000Z 32004KT 270V360 9999 FEW047 25/10 Q1019=
201909061030 METAR LRSB 061030Z 12006KT 060V170 9999 FEW048 25/10 Q1019=
201909061100 METAR LRSB 061100Z 10007KT 060V150 9999 FEW048 25/09 Q1019=
201909061130 METAR LRSB 061130Z 15005KT 090V240 9999 SCT048 26/09 Q1018=
201909061200 METAR LRSB 061200Z 09007KT 050V150 9999 SCT050 26/09 Q1018=
201909061230 METAR LRSB 061230Z 08008KT 030V110 9999 FEW050 26/09 Q1018=
201909061300 METAR LRSB 061300Z 13005KT 9999 FEW050 25/10 Q1018=
201909061330 METAR LRSB 061330Z VRB05KT 9999 SCT052 26/09 Q1018=
201909061400 METAR LRSB 061400Z 06005KT 020V100 9999 SCT052 27/09 Q1018=
201909061430 METAR LRSB 061430Z 11007KT 9999 FEW048 SCT068 26/09 Q1018=
201909061500 METAR LRSB 061500Z 11004KT 070V130 9999 FEW048 SCT068 25/09
                        Q1018=
201909061530 METAR LRSB 061530Z 09006KT 9999 SCT065 25/10 Q1018=
201909061600 METAR LRSB 061600Z 08005KT 9999 FEW074 25/09 Q1018=
201909061630 METAR LRSB 061630Z 10004KT CAVOK 23/10 Q1018=
201909061700 METAR LRSB 061700Z VRB01KT CAVOK 22/11 Q1018=
201909061730 METAR LRSB 061730Z VRB02KT CAVOK 19/14 Q1018=
201909061800 METAR LRSB 061800Z 26003KT CAVOK 19/12 Q1018=
201909061830 METAR LRSB 061830Z 25003KT CAVOK 18/13 Q1019=
201909061900 METAR LRSB 061900Z 25004KT CAVOK 17/13 Q1019=
201909061930 METAR LRSB 061930Z VRB02KT CAVOK 17/13 Q1019=
201909062000 METAR LRSB 062000Z 06004KT CAVOK 17/13 Q1019=
201909062030 METAR LRSB 062030Z 10007KT CAVOK 17/12 Q1019=
201909062100 METAR LRSB 062100Z 09006KT CAVOK 17/12 Q1019=
201909062130 METAR LRSB 062130Z 12003KT CAVOK 17/11 Q1019=
201909062200 METAR LRSB 062200Z 13004KT CAVOK 17/11 Q1019=
201909062230 METAR LRSB 062230Z AUTO 13007KT 9999 SCT096/// 17/10 Q1019=
201909062300 METAR LRSB 062300Z 14006KT CAVOK 16/10 Q1019=
201909062330 METAR LRSB 062330Z AUTO 12005KT 9999 FEW087/// 16/09 Q1019=
201909070000 METAR LRSB 070000Z 12007KT CAVOK 16/09 Q1019=
201909070030 METAR LRSB 070030Z 11005KT CAVOK 16/09 Q1019=
201909070100 METAR LRSB 070100Z AUTO 11006KT 9999 FEW095/// 15/09 Q1019=
201909070130 METAR LRSB 070130Z AUTO 14004KT 9999 NCD 15/09 Q1019=
201909070200 METAR LRSB 070200Z 11005KT CAVOK 15/09 Q1019=
201909070230 METAR LRSB 070230Z 14003KT 110V190 CAVOK 15/09 Q1019=
201909070300 METAR LRSB 070300Z 22004KT 180V240 CAVOK 14/10 Q1019=
201909070330 METAR LRSB 070330Z 19003KT 150V230 CAVOK 13/10 Q1019=
201909070400 METAR LRSB 070400Z 17003KT CAVOK 13/10 Q1019=
201909070430 METAR LRSB 070430Z 13003KT CAVOK 15/10 Q1020=
201909070500 METAR LRSB 070500Z 12006KT CAVOK 16/10 Q1020=
201909070530 METAR LRSB 070530Z 13007KT CAVOK 16/10 Q1019=
201909070600 METAR COR LRSB 070600Z 14003KT CAVOK 19/10 Q1020=
201909070630 METAR LRSB 070630Z AUTO 14003KT 090V170 9999 NCD 19/10 Q1020=
201909070700 METAR LRSB 070700Z VRB02KT CAVOK 20/10 Q1020=
201909070730 METAR LRSB 070730Z VRB02KT CAVOK 21/11 Q1020=
201909070800 METAR LRSB 070800Z VRB02KT CAVOK 22/11 Q1020=
201909070830 METAR LRSB 070830Z VRB02KT CAVOK 23/10 Q1019=
201909070900 METAR LRSB 070900Z 14006KT 100V240 CAVOK 24/10 Q1019=
201909070930 METAR LRSB 070930Z AUTO 15007KT 9999 NCD 25/09 Q1019=
201909071000 METAR LRSB 071000Z 14009KT 110V180 CAVOK 26/09 Q1019=
201909071030 METAR LRSB 071030Z 13010KT CAVOK 26/09 Q1019=
201909071100 METAR LRSB 071100Z 12010KT 100V160 CAVOK 26/09 Q1018=
201909071130 METAR LRSB 071130Z 13013KT CAVOK 26/09 Q1018=
201909071200 METAR LRSB 071200Z 14012KT CAVOK 26/09 Q1018=
201909071230 METAR LRSB 071230Z 13013KT CAVOK 26/09 Q1018=
201909071300 METAR LRSB 071300Z 15012KT CAVOK 26/08 Q1018=
201909071330 METAR LRSB 071330Z 14013KT CAVOK 26/08 Q1018=
201909071400 METAR LRSB 071400Z 14012KT CAVOK 25/07 Q1018=
201909071430 METAR LRSB 071430Z 14010KT CAVOK 25/07 Q1018=
201909071500 METAR LRSB 071500Z 15007KT CAVOK 24/09 Q1018=
201909071530 METAR LRSB 071530Z 14005KT CAVOK 24/09 Q1018=
201909071600 METAR LRSB 071600Z 14006KT CAVOK 23/09 Q1018=
201909071630 METAR LRSB 071630Z 14007KT CAVOK 23/10 Q1018=
201909071700 METAR LRSB 071700Z 14006KT CAVOK 21/10 Q1018=
201909071730 METAR LRSB 071730Z 17007KT CAVOK 22/10 Q1018=
201909071800 METAR LRSB 071800Z 17009KT CAVOK 23/10 Q1018=
201909071830 METAR LRSB 071830Z 17010KT CAVOK 23/10 Q1018=
201909071900 METAR LRSB 071900Z 16010KT CAVOK 22/10 Q1019=
201909071930 METAR LRSB 071930Z 16008KT CAVOK 22/10 Q1018=
201909072000 METAR LRSB 072000Z 16006KT CAVOK 21/10 Q1018=
201909072030 METAR LRSB 072030Z 15007KT CAVOK 21/10 Q1018=
201909072100 METAR LRSB 072100Z 16007KT CAVOK 22/10 Q1018=
201909072130 METAR LRSB 072130Z 14004KT 100V170 CAVOK 21/10 Q1018=
201909072200 METAR LRSB 072200Z 15004KT 120V190 CAVOK 21/10 Q1018=
201909072230 METAR LRSB 072230Z 15004KT CAVOK 20/10 Q1018=
201909072300 METAR COR LRSB 072300Z 13007KT CAVOK 20/11 Q1018=
201909072330 METAR LRSB 072330Z 12006KT CAVOK 20/11 Q1018=
201909080000 METAR LRSB 080000Z 11006KT CAVOK 19/11 Q1018=
201909080030 METAR LRSB 080030Z 12004KT CAVOK 19/11 Q1018=
201909080100 METAR LRSB 080100Z VRB02KT CAVOK 18/11 Q1018=
201909080130 METAR LRSB 080130Z 04003KT 360V120 CAVOK 18/11 Q1018=
201909080200 METAR LRSB 080200Z 08005KT CAVOK 18/11 Q1018=
201909080230 METAR LRSB 080230Z 09005KT CAVOK 18/11 Q1018=
201909080300 METAR LRSB 080300Z 13003KT 090V170 CAVOK 19/10 Q1018=
201909080330 METAR LRSB 080330Z 12005KT CAVOK 20/11 Q1018=
201909080400 METAR LRSB 080400Z 12007KT CAVOK 19/11 Q1019=
201909080430 METAR LRSB 080430Z 11008KT CAVOK 18/11 Q1019=
201909080500 METAR LRSB 080500Z 12008KT CAVOK 18/11 Q1019=
201909080530 METAR LRSB 080530Z 11007KT CAVOK 19/11 Q1019 NOSIG=
201909080600 METAR LRSB 080600Z 11007KT CAVOK 20/11 Q1019 NOSIG=
201909080630 METAR LRSB 080630Z 10007KT CAVOK 20/11 Q1019 NOSIG=
201909080700 METAR LRSB 080700Z 11006KT CAVOK 21/11 Q1019 NOSIG=
201909080730 METAR LRSB 080730Z 14007KT CAVOK 24/09 Q1019 NOSIG=
201909080800 METAR LRSB 080800Z 13012KT CAVOK 25/07 Q1019 NOSIG=
201909080830 METAR LRSB 080830Z 13011KT 9999 FEW035 25/06 Q1019 NOSIG=
201909080900 METAR LRSB 080900Z 15011KT 9999 FEW035 25/07 Q1019 NOSIG=
201909080930 METAR LRSB 080930Z 14010KT 9999 FEW038 26/07 Q1019 NOSIG=
201909081000 METAR LRSB 081000Z 15011KT 9999 FEW043 26/07 Q1019 NOSIG=
201909081030 METAR LRSB 081030Z 18012KT 150V210 9999 FEW046 27/07 Q1019
                        NOSIG=
201909081100 METAR LRSB 081100Z 15013KT 9999 FEW050 26/07 Q1019 NOSIG=
201909081130 METAR LRSB 081130Z 15015KT 9999 FEW050 26/07 Q1019 NOSIG=
201909081200 METAR LRSB 081200Z 16013KT 9999 FEW053 26/07 Q1019 NOSIG=
201909081230 METAR LRSB 081230Z 16012KT 9999 FEW055 27/08 Q1019 NOSIG=
201909081300 METAR COR LRSB 081300Z 17011KT 140V210 9999 FEW050 27/08
                        Q1019 NOSIG=
201909081330 METAR LRSB 081330Z 15013KT 9999 FEW050 27/08 Q1018 NOSIG=
201909081400 METAR LRSB 081400Z 14013KT 9999 FEW050 27/08 Q1018 NOSIG=
201909081430 METAR LRSB 081430Z 16012KT 9999 FEW053 26/09 Q1019 NOSIG=
201909081500 METAR LRSB 081500Z 15010KT 9999 FEW055 26/09 Q1019 NOSIG=
201909081530 METAR LRSB 081530Z 15011KT CAVOK 25/09 Q1019 NOSIG=
201909081600 METAR COR LRSB 081600Z 16013KT CAVOK 25/10 Q1019 NOSIG=
201909081630 METAR LRSB 081630Z 15010KT CAVOK 24/11 Q1019 NOSIG=
201909081700 METAR LRSB 081700Z 15009KT CAVOK 23/11 Q1019 NOSIG=
201909081730 METAR LRSB 081730Z 16009KT CAVOK 23/11 Q1019 NOSIG=
201909081800 METAR LRSB 081800Z 15007KT CAVOK 22/11 Q1019 NOSIG=
201909081830 METAR LRSB 081830Z 16006KT CAVOK 22/11 Q1019 NOSIG=
201909081900 METAR LRSB 081900Z 15007KT CAVOK 21/11 Q1019 NOSIG=
201909081930 METAR LRSB 081930Z 15006KT CAVOK 21/11 Q1019 NOSIG=
201909082000 METAR LRSB 082000Z 15006KT CAVOK 21/11 Q1019 NOSIG=
201909082030 METAR LRSB 082030Z 15009KT CAVOK 22/10 Q1019 NOSIG=
201909082100 METAR LRSB 082100Z 15011KT CAVOK 22/10 Q1019=
201909082130 METAR LRSB 082130Z 15009KT CAVOK 21/10 Q1019=
201909082200 METAR LRSB 082200Z 15012KT CAVOK 22/10 Q1019=
201909082230 METAR LRSB 082230Z 16013KT CAVOK 21/10 Q1019=
201909082300 METAR LRSB 082300Z 16014KT CAVOK 21/10 Q1019=
201909082330 METAR LRSB 082330Z 15013KT CAVOK 21/10 Q1019=
201909090000 METAR LRSB 090000Z 16012KT CAVOK 21/10 Q1019=
201909090030 METAR LRSB 090030Z 18004KT 130V230 CAVOK 20/10 Q1019=
201909090100 METAR LRSB 090100Z 16006KT CAVOK 20/10 Q1018=
201909090130 METAR LRSB 090130Z 17008KT CAVOK 20/10 Q1018=
201909090200 METAR LRSB 090200Z 17012KT CAVOK 20/09 Q1018=
201909090230 METAR LRSB 090230Z 17011KT CAVOK 20/07 Q1018=
201909090300 METAR LRSB 090300Z 16015KT CAVOK 20/04 Q1018=
201909090330 METAR LRSB 090330Z 16013KT CAVOK 20/04 Q1018=
201909090400 METAR LRSB 090400Z 16017KT CAVOK 20/05 Q1018=
201909090430 METAR LRSB 090430Z 16015KT CAVOK 20/05 Q1018=
201909090500 METAR LRSB 090500Z 18008KT 150V210 CAVOK 20/05 Q1018=
201909090530 METAR LRSB 090530Z 15011KT CAVOK 21/05 Q1018=
201909090600 METAR LRSB 090600Z 16009KT CAVOK 22/05 Q1018=
201909090630 METAR LRSB 090630Z AUTO 15015KT 9999 NCD 23/03 Q1017=
201909090700 METAR LRSB 090700Z 16014KT CAVOK 23/04 Q1017=
201909090730 METAR LRSB 090730Z 16013KT CAVOK 23/05 Q1017=
201909090800 METAR LRSB 090800Z 15013KT CAVOK 24/06 Q1017=
201909090830 METAR LRSB 090830Z 15013KT CAVOK 24/05 Q1017=
201909090900 METAR LRSB 090900Z 15014KT CAVOK 23/06 Q1017=
201909090930 METAR LRSB 090930Z 14014KT CAVOK 23/07 Q1017=
201909091000 METAR LRSB 091000Z 14014KT CAVOK 23/07 Q1017=
201909091030 METAR LRSB 091030Z 14017KT CAVOK 23/08 Q1016=
201909091100 METAR COR LRSB 091100Z 14017KT CAVOK 23/08 Q1016=
201909091130 METAR LRSB 091130Z 14016KT CAVOK 24/07 Q1016=
201909091200 METAR LRSB 091200Z 14016KT CAVOK 25/08 Q1016=
201909091230 METAR LRSB 091230Z 15014KT CAVOK 24/07 Q1016=
201909091300 METAR LRSB 091300Z 15013KT CAVOK 25/07 Q1016=
201909091330 METAR LRSB 091330Z 14013KT CAVOK 24/07 Q1015=
201909091400 METAR LRSB 091400Z 14014KT CAVOK 24/08 Q1015=
201909091430 METAR LRSB 091430Z 15014KT CAVOK 24/07 Q1015=
201909091500 METAR LRSB 091500Z 16015KT CAVOK 24/08 Q1015=
201909091530 METAR LRSB 091530Z 16010KT CAVOK 23/08 Q1015=
201909091600 METAR LRSB 091600Z 17010KT CAVOK 23/08 Q1015=
201909091630 METAR LRSB 091630Z 16012KT 140V200 CAVOK 23/08 Q1015=
201909091700 METAR LRSB 091700Z 16007KT 110V210 CAVOK 22/09 Q1015 NOSIG=
201909091730 METAR LRSB 091730Z 15006KT 110V190 CAVOK 22/09 Q1015 NOSIG=
201909091800 METAR LRSB 091800Z 16005KT 120V210 CAVOK 22/09 Q1016 NOSIG=
201909091830 METAR LRSB 091830Z 13005KT 080V190 CAVOK 21/09 Q1016 NOSIG=
201909091900 METAR LRSB 091900Z 15009KT CAVOK 22/09 Q1016 NOSIG=
201909091930 METAR LRSB 091930Z 16007KT 130V190 CAVOK 21/10 Q1016 NOSIG=
201909092000 METAR LRSB 092000Z 16007KT 120V200 CAVOK 21/09 Q1016 NOSIG=
201909092030 METAR LRSB 092030Z 14005KT 060V190 CAVOK 21/09 Q1016 NOSIG=
201909092100 METAR LRSB 092100Z 12004KT 070V220 CAVOK 20/08 Q1016 NOSIG=
201909092130 METAR LRSB 092130Z 22007KT CAVOK 19/09 Q1016 NOSIG=
201909092200 METAR LRSB 092200Z 21006KT 180V240 CAVOK 19/09 Q1017 NOSIG=
201909092230 METAR LRSB 092230Z 20006KT CAVOK 19/08 Q1017 NOSIG=
201909092300 METAR LRSB 092300Z 36006KT 320V020 CAVOK 17/09 Q1017 NOSIG=
201909092330 METAR LRSB 092330Z 30005KT 260V330 CAVOK 16/09 Q1018 NOSIG=
201909100000 METAR LRSB 100000Z VRB02KT CAVOK 15/09 Q1018 NOSIG=
201909100030 METAR LRSB 100030Z 24008KT CAVOK 13/09 Q1018 NOSIG=
201909100100 METAR LRSB 100100Z 27004KT CAVOK 13/09 Q1018 NOSIG=
201909100130 METAR LRSB 100130Z 27005KT CAVOK 12/09 Q1019 NOSIG=
201909100200 METAR LRSB 100200Z 28003KT CAVOK 12/09 Q1019 NOSIG=
201909100230 METAR LRSB 100230Z 34004KT 290V030 CAVOK 12/09 Q1019 NOSIG=
201909100300 METAR LRSB 100300Z 22003KT CAVOK 12/09 Q1019 NOSIG=
201909100330 METAR LRSB 100330Z 23002KT CAVOK 11/09 Q1019 NOSIG=
201909100400 METAR LRSB 100400Z 23004KT CAVOK 11/09 Q1019 NOSIG=
201909100430 METAR LRSB 100430Z 25001KT CAVOK 10/08 Q1020 NOSIG=
201909100500 METAR LRSB 100500Z 26004KT CAVOK 11/09 Q1020 NOSIG=
201909100530 METAR LRSB 100530Z VRB01KT CAVOK 13/11 Q1020=
201909100600 METAR LRSB 100600Z 07002KT CAVOK 15/10 Q1020=
201909100630 METAR LRSB 100630Z VRB02KT CAVOK 17/11 Q1020=
201909100700 METAR LRSB 100700Z VRB02KT CAVOK 19/11 Q1020=
201909100730 METAR LRSB 100730Z VRB02KT CAVOK 19/10 Q1020=
201909100800 METAR LRSB 100800Z VRB02KT CAVOK 20/11 Q1020=
201909100830 METAR LRSB 100830Z VRB03KT CAVOK 22/11 Q1020=
201909100900 METAR LRSB 100900Z 12004KT 070V220 CAVOK 22/10 Q1020=
201909100930 METAR LRSB 100930Z 02006KT 340V060 CAVOK 23/11 Q1020=
201909101000 METAR LRSB 101000Z 07005KT 010V140 CAVOK 23/09 Q1020=
201909101030 METAR LRSB 101030Z VRB03KT CAVOK 24/09 Q1020=
201909101100 METAR LRSB 101100Z 11008KT 080V160 CAVOK 24/09 Q1019=
201909101130 METAR LRSB 101130Z 09008KT CAVOK 25/09 Q1019=
201909101200 METAR LRSB 101200Z VRB04KT 9999 FEW043 25/09 Q1019=
201909101230 METAR LRSB 101230Z 05005KT 360V080 9999 FEW043 26/09 Q1019=
201909101300 METAR LRSB 101300Z 08006KT 040V110 9999 FEW046 25/09 Q1019=
201909101330 METAR LRSB 101330Z 05003KT 340V100 9999 FEW044 26/09 Q1019=
201909101400 METAR LRSB 101400Z 13004KT 070V180 9999 FEW046 26/09 Q1019=
201909101430 METAR LRSB 101430Z 12003KT 080V160 9999 FEW046 25/09 Q1019=
201909101500 METAR LRSB 101500Z 26004KT 230V310 9999 FEW046 24/11 Q1019=
201909101530 METAR LRSB 101530Z 27006KT 9999 FEW047 24/12 Q1019=
201909101600 METAR LRSB 101600Z 26006KT 9999 FEW047 23/12 Q1019=
201909101630 METAR LRSB 101630Z 25007KT CAVOK 21/13 Q1019=
201909101700 METAR LRSB 101700Z 26007KT CAVOK 19/12 Q1019=
201909101730 METAR LRSB 101730Z 26007KT CAVOK 19/12 Q1020=
201909101800 METAR LRSB 101800Z 26004KT CAVOK 19/12 Q1020=
201909101830 METAR LRSB 101830Z VRB02KT CAVOK 16/12 Q1020=
201909101900 METAR LRSB 101900Z 15003KT 110V180 CAVOK 17/12 Q1021=
201909101930 METAR LRSB 101930Z 30004KT CAVOK 16/11 Q1021=
201909102000 METAR LRSB 102000Z 00000KT CAVOK 14/12 Q1021=
201909102030 METAR LRSB 102030Z 34001KT CAVOK 16/11 Q1021=
201909102100 METAR LRSB 102100Z VRB02KT CAVOK 14/11 Q1021=
201909102130 METAR LRSB 102130Z VRB01KT CAVOK 13/10 Q1021=
201909102200 METAR LRSB 102200Z 00000KT CAVOK 14/11 Q1022=
201909102230 METAR LRSB 102230Z 18003KT 160V220 CAVOK 13/11 Q1022=
201909102300 METAR LRSB 102300Z AUTO VRB01KT 9999 NCD 13/11 Q1022=
201909102330 METAR COR LRSB 102330Z VRB01KT CAVOK 14/10 Q1022=
201909110000 METAR LRSB 110000Z VRB01KT CAVOK 13/10 Q1022=
201909110030 METAR LRSB 110030Z AUTO 00000KT 9999 NCD 12/10 Q1022=
201909110100 METAR COR LRSB 110100Z 00000KT CAVOK 12/09 Q1022=
201909110130 METAR LRSB 110130Z 00000KT CAVOK 12/10 Q1022=
201909110200 METAR LRSB 110200Z VRB01KT CAVOK 11/09 Q1022=
201909110230 METAR LRSB 110230Z 09002KT CAVOK 11/10 Q1022=
201909110300 METAR LRSB 110300Z 00000KT CAVOK 11/09 Q1022=
201909110330 METAR LRSB 110330Z 00000KT CAVOK 10/09 Q1022=
201909110400 METAR LRSB 110400Z 16002KT CAVOK 10/09 Q1023=
201909110430 METAR LRSB 110430Z VRB02KT CAVOK 10/09 Q1023=
201909110500 METAR LRSB 110500Z 11003KT CAVOK 12/10 Q1023=
201909110530 METAR LRSB 110530Z 11003KT CAVOK 14/11 Q1024=
201909110600 METAR LRSB 110600Z 11004KT CAVOK 15/11 Q1024=
201909110630 METAR COR LRSB 110630Z 11003KT 020V160 CAVOK 17/11 Q1024=
201909110700 METAR LRSB 110700Z 10003KT CAVOK 19/11 Q1024=
201909110730 METAR COR LRSB 110730Z 11004KT CAVOK 20/11 Q1024=
201909110800 METAR LRSB 110800Z VRB03KT CAVOK 21/11 Q1024=
201909110830 METAR LRSB 110830Z VRB03KT CAVOK 22/11 Q1024=
201909110900 METAR LRSB 110900Z VRB03KT CAVOK 23/11 Q1024=
201909110930 METAR LRSB 110930Z VRB04KT CAVOK 24/09 Q1024=
201909111000 METAR LRSB 111000Z 08005KT 020V130 CAVOK 24/07 Q1024=
201909111030 METAR COR LRSB 111030Z VRB04KT CAVOK 25/06 Q1023=
201909111100 METAR LRSB 111100Z 09008KT 050V120 CAVOK 24/09 Q1023=
201909111130 METAR LRSB 111130Z 10006KT CAVOK 24/07 Q1023=
201909111200 METAR LRSB 111200Z VRB04KT CAVOK 25/08 Q1023=
201909111230 METAR LRSB 111230Z VRB04KT CAVOK 26/09 Q1023=
201909111300 METAR LRSB 111300Z 09005KT 040V140 CAVOK 26/08 Q1023=
201909111330 METAR LRSB 111330Z 09006KT 050V130 CAVOK 26/09 Q1023=
201909111400 METAR LRSB 111400Z 09007KT CAVOK 26/09 Q1023=
201909111430 METAR LRSB 111430Z 08008KT CAVOK 25/09 Q1023=
201909111500 METAR LRSB 111500Z 09007KT CAVOK 25/09 Q1023=
201909111530 METAR LRSB 111530Z 09008KT CAVOK 25/07 Q1023=
201909111600 METAR LRSB 111600Z 10007KT CAVOK 24/06 Q1023=
201909111630 METAR LRSB 111630Z 10006KT CAVOK 23/07 Q1023=
201909111700 METAR LRSB 111700Z 11007KT CAVOK 22/09 Q1023=
201909111730 METAR LRSB 111730Z 15005KT CAVOK 21/10 Q1024=
201909111800 METAR LRSB 111800Z VRB02KT CAVOK 19/10 Q1024=
201909111830 METAR LRSB 111830Z 27002KT CAVOK 18/10 Q1024=
201909111900 METAR LRSB 111900Z 00000KT CAVOK 18/10 Q1024=
201909111930 METAR LRSB 111930Z 13004KT 090V150 CAVOK 18/10 Q1024=
201909112000 METAR LRSB 112000Z 14004KT 120V180 CAVOK 20/09 Q1025=
201909112030 METAR LRSB 112030Z 18006KT CAVOK 20/09 Q1024=
201909112100 METAR LRSB 112100Z 17005KT CAVOK 19/09 Q1024=
201909112130 METAR LRSB 112130Z AUTO 16003KT 9999 NCD 17/09 Q1025=
201909112200 METAR LRSB 112200Z 11004KT CAVOK 16/10 Q1025=
201909112230 METAR LRSB 112230Z VRB01KT CAVOK 16/10 Q1025=
201909112300 METAR LRSB 112300Z 13003KT CAVOK 15/10 Q1025=
201909112330 METAR LRSB 112330Z VRB02KT CAVOK 15/10 Q1025=
201909120000 METAR LRSB 120000Z VRB01KT CAVOK 14/09 Q1025=
201909120030 METAR LRSB 120030Z 25002KT CAVOK 14/10 Q1025=
201909120100 METAR LRSB 120100Z VRB01KT CAVOK 13/09 Q1025=
201909120130 METAR LRSB 120130Z VRB02KT CAVOK 11/08 Q1026=
201909120200 METAR LRSB 120200Z 00000KT CAVOK 10/08 Q1026=
201909120230 METAR LRSB 120230Z AUTO 23003KT 9999 NCD 10/08 Q1026=
201909120300 METAR LRSB 120300Z 23003KT CAVOK 10/08 Q1026=
201909120330 METAR LRSB 120330Z 23003KT CAVOK 10/09 Q1026=
201909120400 METAR LRSB 120400Z 00000KT CAVOK 10/09 Q1026=
201909120430 METAR LRSB 120430Z 00000KT CAVOK 11/09 Q1026=
201909120500 METAR LRSB 120500Z 21003KT CAVOK 11/09 Q1026=
201909120530 METAR LRSB 120530Z VRB01KT CAVOK 12/10 Q1027 NOSIG=
201909120600 METAR COR LRSB 120600Z 12002KT CAVOK 14/10 Q1027 NOSIG=
201909120630 METAR LRSB 120630Z 11004KT CAVOK 15/10 Q1027 NOSIG=
201909120700 METAR LRSB 120700Z 13003KT 100V160 CAVOK 16/11 Q1027 NOSIG=
201909120730 METAR LRSB 120730Z VRB02KT CAVOK 18/11 Q1027 NOSIG=
201909120800 METAR LRSB 120800Z VRB01KT CAVOK 20/10 Q1028 NOSIG=
201909120830 METAR LRSB 120830Z 03003KT 330V090 CAVOK 20/10 Q1028 NOSIG=
201909120900 METAR LRSB 120900Z VRB02KT CAVOK 21/10 Q1028 NOSIG=
201909120930 METAR LRSB 120930Z 10004KT 010V150 CAVOK 23/06 Q1028 NOSIG=
201909121000 METAR LRSB 121000Z 08004KT 350V160 CAVOK 24/05 Q1027 NOSIG=
201909121030 METAR LRSB 121030Z VRB04KT CAVOK 24/05 Q1027 NOSIG=
201909121100 METAR LRSB 121100Z VRB03KT CAVOK 24/05 Q1027 NOSIG=
201909121130 METAR LRSB 121130Z VRB04KT CAVOK 24/05 Q1027 NOSIG=
201909121200 METAR LRSB 121200Z VRB03KT CAVOK 25/02 Q1027 NOSIG=
201909121230 METAR LRSB 121230Z 09005KT 040V170 CAVOK 25/02 Q1027 NOSIG=
201909121300 METAR LRSB 121300Z VRB03KT CAVOK 25/03 Q1027 NOSIG=
201909121330 METAR LRSB 121330Z 36006KT 320V050 CAVOK 25/03 Q1027 NOSIG=
201909121400 METAR LRSB 121400Z 29004KT 260V340 CAVOK 25/03 Q1026 NOSIG=
201909121430 METAR LRSB 121430Z VRB03KT CAVOK 25/03 Q1026 NOSIG=
201909121500 METAR LRSB 121500Z VRB04KT CAVOK 25/02 Q1026 NOSIG=
201909121530 METAR LRSB 121530Z VRB02KT CAVOK 25/02 Q1026 NOSIG=
201909121600 METAR LRSB 121600Z VRB02KT CAVOK 24/05 Q1027 NOSIG=
201909121630 METAR LRSB 121630Z 28003KT CAVOK 21/06 Q1027 NOSIG=
201909121700 METAR LRSB 121700Z 26007KT CAVOK 17/07 Q1027 NOSIG=
201909121730 METAR LRSB 121730Z VRB02KT CAVOK 16/06 Q1027=
201909121800 METAR LRSB 121800Z VRB04KT CAVOK 14/07 Q1027=
201909121830 METAR LRSB 121830Z VRB02KT CAVOK 13/06 Q1027=
201909121900 METAR LRSB 121900Z VRB01KT CAVOK 14/06 Q1028=
201909121930 METAR LRSB 121930Z 23003KT CAVOK 13/06 Q1028=
201909122000 METAR LRSB 122000Z VRB02KT CAVOK 14/05 Q1028=
201909122030 METAR LRSB 122030Z VRB01KT CAVOK 12/06 Q1028=
201909122100 METAR LRSB 122100Z 28003KT CAVOK 11/05 Q1028=
201909122130 METAR LRSB 122130Z 03002KT CAVOK 11/05 Q1028=
201909122200 METAR LRSB 122200Z AUTO 00000KT 9999 NCD 12/06 Q1028=
201909122230 METAR LRSB 122230Z VRB02KT CAVOK 10/05 Q1028=
201909122300 METAR LRSB 122300Z VRB02KT CAVOK 10/05 Q1028=
201909122330 METAR LRSB 122330Z 03003KT CAVOK 11/06 Q1028=
201909130000 METAR LRSB 130000Z 04003KT CAVOK 11/06 Q1028=
201909130030 METAR LRSB 130030Z 01004KT CAVOK 11/06 Q1028=
201909130100 METAR LRSB 130100Z 20003KT CAVOK 08/05 Q1028=
201909130130 METAR LRSB 130130Z VRB01KT CAVOK 09/06 Q1028=
201909130200 METAR LRSB 130200Z 16002KT CAVOK 09/06 Q1028=
201909130230 METAR LRSB 130230Z 07004KT CAVOK 08/06 Q1028=
201909130300 METAR LRSB 130300Z 09005KT CAVOK 09/06 Q1028=
201909130330 METAR COR LRSB 130330Z VRB02KT CAVOK 06/04 Q1029=
201909130400 METAR LRSB 130400Z 10002KT CAVOK 07/05 Q1029=
201909130430 METAR COR LRSB 130430Z 07001KT CAVOK 09/06 Q1029=
201909130500 METAR LRSB 130500Z 09003KT CAVOK 10/08 Q1029=
201909130530 METAR LRSB 130530Z VRB01KT CAVOK 12/08 Q1029=
201909130600 METAR LRSB 130600Z 11003KT 080V140 CAVOK 13/08 Q1029=
201909130630 METAR LRSB 130630Z 10003KT 050V130 CAVOK 16/08 Q1029=
201909130700 METAR LRSB 130700Z 07003KT 010V110 CAVOK 18/08 Q1029=
201909130730 METAR LRSB 130730Z 10003KT 020V150 CAVOK 20/08 Q1029=
201909130800 METAR LRSB 130800Z VRB02KT CAVOK 21/07 Q1029=
201909130830 METAR LRSB 130830Z 05003KT 350V100 CAVOK 23/09 Q1029=
201909130900 METAR LRSB 130900Z VRB05KT CAVOK 24/10 Q1029=
201909130930 METAR LRSB 130930Z VRB03KT CAVOK 25/09 Q1028=
201909131000 METAR LRSB 131000Z 02005KT 290V080 CAVOK 26/08 Q1028=
201909131030 METAR LRSB 131030Z VRB03KT CAVOK 26/07 Q1028=
201909131100 METAR LRSB 131100Z VRB04KT CAVOK 26/07 Q1028=
201909131130 METAR LRSB 131130Z VRB03KT CAVOK 27/06 Q1027=
201909131200 METAR LRSB 131200Z VRB03KT CAVOK 27/06 Q1027=
201909131230 METAR LRSB 131230Z 34004KT 260V050 CAVOK 27/06 Q1027=
201909131300 METAR LRSB 131300Z 32007KT 270V010 CAVOK 27/04 Q1027=
201909131330 METAR LRSB 131330Z VRB03KT CAVOK 27/05 Q1026=
201909131400 METAR LRSB 131400Z VRB04KT CAVOK 27/06 Q1026=
201909131430 METAR LRSB 131430Z 02006KT 340V100 CAVOK 27/05 Q1026=
201909131500 METAR LRSB 131500Z 04005KT 360V070 CAVOK 26/06 Q1026=
201909131530 METAR LRSB 131530Z 02004KT 320V060 CAVOK 26/05 Q1026=
201909131600 METAR LRSB 131600Z 02003KT 330V050 CAVOK 26/05 Q1026=
201909131630 METAR LRSB 131630Z 02002KT CAVOK 24/06 Q1026=
201909131700 METAR COR LRSB 131700Z 26008KT CAVOK 19/09 Q1026 NOSIG=
201909131730 METAR LRSB 131730Z 25005KT 190V270 CAVOK 19/09 Q1026 NOSIG=
201909131800 METAR LRSB 131800Z 25006KT CAVOK 18/09 Q1026 NOSIG=
201909131830 METAR LRSB 131830Z 24005KT 9999 FEW086 15/09 Q1027 NOSIG=
201909131900 METAR LRSB 131900Z 25009KT 9999 SCT086 19/08 Q1027 NOSIG=
201909131930 METAR LRSB 131930Z 25008KT 9999 SCT087 18/08 Q1027 NOSIG=
201909132000 METAR LRSB 132000Z 27008KT 9999 SCT085 20/08 Q1027 NOSIG=
201909132030 METAR LRSB 132030Z 29004KT 250V320 9999 BKN083 17/08 Q1027
                        NOSIG=
201909132100 METAR LRSB 132100Z 26008KT 9999 SCT082 17/09 Q1027 NOSIG=
201909132130 METAR LRSB 132130Z 27009KT 9999 FEW082 17/09 Q1027 NOSIG=
201909132200 METAR LRSB 132200Z 27008KT 9999 FEW080 17/09 Q1028 NOSIG=
201909132230 METAR LRSB 132230Z 30005KT 260V320 9999 FEW065 17/10 Q1028
                        NOSIG=
201909132300 METAR LRSB 132300Z 26008KT 9999 SCT062 18/10 Q1028 NOSIG=
201909132330 METAR LRSB 132330Z 26007KT 9999 BKN062 17/10 Q1028 NOSIG=
201909140000 METAR LRSB 140000Z 26006KT 9999 BKN062 16/10 Q1027 NOSIG=
201909140030 METAR LRSB 140030Z 27007KT 9999 SCT064 16/10 Q1027 NOSIG=
201909140100 METAR LRSB 140100Z 26008KT 9999 FEW070 16/10 Q1027 NOSIG=
201909140130 METAR LRSB 140130Z 26006KT 9999 FEW073 16/10 Q1027 NOSIG=
201909140200 METAR LRSB 140200Z 26008KT 9999 SCT070 16/10 Q1027 NOSIG=
201909140230 METAR LRSB 140230Z 18003KT 110V260 9999 SCT070 14/10 Q1027
                        NOSIG=
201909140300 METAR LRSB 140300Z 13003KT 9999 SCT064 14/10 Q1027 NOSIG=
201909140330 METAR LRSB 140330Z VRB02KT 9999 FEW065 14/10 Q1027 NOSIG=
201909140400 METAR LRSB 140400Z 09003KT 9999 FEW074 13/09 Q1027 NOSIG=
201909140430 METAR LRSB 140430Z 09002KT CAVOK 13/10 Q1027 NOSIG=
201909140500 METAR LRSB 140500Z 00000KT CAVOK 15/10 Q1027 NOSIG=
201909140530 METAR LRSB 140530Z 00000KT CAVOK 17/11 Q1027=
201909140600 METAR LRSB 140600Z 00000KT CAVOK 18/11 Q1027=
201909140630 METAR LRSB 140630Z 24004KT 200V290 CAVOK 19/10 Q1028=
201909140700 METAR LRSB 140700Z 36003KT 9999 FEW064 19/10 Q1028=
201909140730 METAR LRSB 140730Z VRB02KT 9999 SCT054 20/11 Q1028=
201909140800 METAR LRSB 140800Z VRB02KT 9999 FEW054 22/10 Q1028=
201909140830 METAR LRSB 140830Z VRB04KT 9999 SCT055 23/10 Q1027=
201909140900 METAR LRSB 140900Z 35004KT 240V030 9999 FEW055 23/10 Q1027=
201909140930 METAR LRSB 140930Z 01005KT 310V090 9999 FEW053 24/09 Q1027=
201909141000 METAR LRSB 141000Z VRB03KT 9999 SCT053 24/10 Q1027=
201909141030 METAR LRSB 141030Z VRB03KT 9999 FEW054 24/10 Q1027=
201909141100 METAR LRSB 141100Z 36007KT 9999 FEW057 24/09 Q1027=
201909141130 METAR LRSB 141130Z VRB05KT 9999 SCT056 25/09 Q1027=
201909141200 METAR LRSB 141200Z 01008KT 9999 BKN046 24/09 Q1026=
201909141230 METAR LRSB 141230Z 36011KT 9999 BKN046 24/10 Q1026=
201909141300 METAR LRSB 141300Z 36009KT 330V030 9999 SCT044 24/10 Q1026=
201909141330 METAR LRSB 141330Z 01009KT 9999 FEW044 24/10 Q1026=
201909141400 METAR LRSB 141400Z 35007KT 9999 FEW044 SCT082 24/09 Q1026=
201909141430 METAR LRSB 141430Z 36006KT 9999 FEW043 BKN078 23/09 Q1026=
201909141500 METAR LRSB 141500Z 36005KT 320V020 9999 FEW040 23/07 Q1026=
201909141530 METAR LRSB 141530Z 03003KT 320V060 9999 FEW040 SCT084 24/07
                        Q1025=
201909141600 METAR LRSB 141600Z 29003KT 250V320 CAVOK 23/09 Q1025=
201909141630 METAR LRSB 141630Z 24004KT CAVOK 20/10 Q1025=
201909141700 METAR LRSB 141700Z 26006KT CAVOK 17/11 Q1026=
201909141730 METAR LRSB 141730Z 27006KT CAVOK 17/11 Q1026=
201909141800 METAR LRSB 141800Z 25007KT CAVOK 18/11 Q1026=
201909141830 METAR LRSB 141830Z 24005KT 9999 BKN086 18/11 Q1027=
201909141900 METAR LRSB 141900Z 27005KT 9999 SCT086 18/11 Q1027=
201909141930 METAR LRSB 141930Z 27007KT CAVOK 16/11 Q1027=
201909142000 METAR LRSB 142000Z VRB04KT CAVOK 16/10 Q1028=
201909142030 METAR LRSB 142030Z 25004KT CAVOK 16/10 Q1028=
201909142100 METAR LRSB 142100Z 24003KT 200V340 CAVOK 14/10 Q1028=
201909142130 METAR LRSB 142130Z VRB01KT CAVOK 15/10 Q1028=
201909142200 METAR LRSB 142200Z 25003KT CAVOK 15/10 Q1028=
201909142230 METAR LRSB 142230Z VRB02KT CAVOK 15/10 Q1029=
201909142300 METAR LRSB 142300Z AUTO 24004KT 9999 FEW056/// 14/09 Q1028=
201909142330 METAR LRSB 142330Z AUTO 26006KT 9999 NCD 12/09 Q1028=
201909150000 METAR LRSB 150000Z 25007KT CAVOK 11/09 Q1028=
201909150030 METAR LRSB 150030Z AUTO 34003KT 280V040 9999 NCD 12/09 Q1028=
201909150100 METAR COR LRSB 150100Z VRB01KT CAVOK 12/09 Q1027=
201909150130 METAR LRSB 150130Z 27003KT CAVOK 11/08 Q1027=
201909150200 METAR LRSB 150200Z 00000KT CAVOK 11/09 Q1028=
201909150230 METAR LRSB 150230Z 00000KT CAVOK 12/09 Q1028=
201909150300 METAR LRSB 150300Z 00000KT CAVOK 10/08 Q1027=
201909150330 METAR LRSB 150330Z 00000KT CAVOK 11/09 Q1027=
201909150400 METAR LRSB 150400Z 00000KT CAVOK 10/08 Q1027=
201909150430 METAR LRSB 150430Z 00000KT CAVOK 10/08 Q1027=
201909150500 METAR LRSB 150500Z 00000KT CAVOK 12/09 Q1027=
201909150530 METAR LRSB 150530Z 00000KT CAVOK 13/09 Q1027=
201909150600 METAR LRSB 150600Z 00000KT CAVOK 15/10 Q1028=
201909150630 METAR LRSB 150630Z 12003KT CAVOK 15/10 Q1028=
201909150700 METAR LRSB 150700Z 14004KT CAVOK 16/10 Q1028=
201909150730 METAR LRSB 150730Z 11004KT CAVOK 18/10 Q1028=
201909150800 METAR LRSB 150800Z 12003KT CAVOK 19/10 Q1027=
201909150830 METAR LRSB 150830Z 04003KT CAVOK 20/09 Q1027=
201909150900 METAR LRSB 150900Z 04003KT CAVOK 20/09 Q1027=
201909150930 METAR LRSB 150930Z VRB04KT CAVOK 22/10 Q1027=
201909151000 METAR LRSB 151000Z 32005KT 270V030 CAVOK 23/09 Q1027=
201909151030 METAR LRSB 151030Z 01006KT CAVOK 23/09 Q1026=
201909151100 METAR LRSB 151100Z 28009KT 260V320 CAVOK 23/09 Q1026=
201909151130 METAR LRSB 151130Z 31007KT 250V350 CAVOK 24/09 Q1026=
201909151200 METAR LRSB 151200Z 24005KT 190V270 CAVOK 24/08 Q1025=
201909151230 METAR LRSB 151230Z 30008KT CAVOK 25/08 Q1025=
201909151300 METAR LRSB 151300Z 31005KT CAVOK 25/08 Q1024=
201909151330 METAR LRSB 151330Z 29007KT CAVOK 25/08 Q1024=
201909151400 METAR LRSB 151400Z 32009KT 290V350 CAVOK 25/08 Q1024=
201909151430 METAR LRSB 151430Z 31011KT CAVOK 25/08 Q1023=
201909151500 METAR LRSB 151500Z 32011KT 290V350 CAVOK 24/07 Q1023=
201909151530 METAR LRSB 151530Z 31010KT CAVOK 24/07 Q1023=
201909151600 METAR LRSB 151600Z 31009KT CAVOK 23/08 Q1023=
201909151630 METAR LRSB 151630Z 30006KT CAVOK 21/08 Q1023=
201909151700 METAR LRSB 151700Z 26006KT 220V290 CAVOK 18/09 Q1023=
201909151730 METAR LRSB 151730Z 25006KT CAVOK 16/09 Q1023=
201909151800 METAR LRSB 151800Z 25008KT CAVOK 16/10 Q1023=
201909151830 METAR LRSB 151830Z 26010KT CAVOK 17/10 Q1023=
201909151900 METAR LRSB 151900Z 26009KT CAVOK 16/10 Q1023=
201909151930 METAR LRSB 151930Z 27008KT CAVOK 16/10 Q1023=
201909152000 METAR LRSB 152000Z 27008KT CAVOK 17/10 Q1023=
201909152030 METAR LRSB 152030Z 30003KT CAVOK 15/09 Q1023=
201909152100 METAR LRSB 152100Z VRB02KT CAVOK 13/09 Q1023=
201909152130 METAR LRSB 152130Z VRB01KT CAVOK 14/09 Q1023=
201909152200 METAR LRSB 152200Z VRB02KT CAVOK 14/09 Q1022=
201909152230 METAR LRSB 152230Z 27004KT CAVOK 14/09 Q1022=
201909152300 METAR LRSB 152300Z AUTO VRB01KT 9999 NCD 13/09 Q1022=
201909152330 METAR LRSB 152330Z 00000KT CAVOK 13/08 Q1022=
201909160000 METAR LRSB 160000Z VRB01KT CAVOK 12/08 Q1022=
201909160030 METAR LRSB 160030Z 00000KT CAVOK 12/08 Q1022=
201909160100 METAR LRSB 160100Z AUTO 00000KT 9999 NCD 10/07 Q1022=
201909160130 METAR COR LRSB 160130Z 00000KT CAVOK 10/08 Q1022=
201909160200 METAR LRSB 160200Z 10002KT CAVOK 10/08 Q1022=
201909160230 METAR LRSB 160230Z 00000KT CAVOK 08/06 Q1021=
201909160300 METAR LRSB 160300Z 00000KT CAVOK 09/07 Q1021=
201909160330 METAR LRSB 160330Z 00000KT CAVOK 08/07 Q1021=
201909160400 METAR LRSB 160400Z 00000KT CAVOK 08/07 Q1021=
201909160430 METAR LRSB 160430Z 00000KT CAVOK 08/07 Q1021=
201909160500 METAR LRSB 160500Z 05003KT CAVOK 11/09 Q1021=
201909160530 METAR LRSB 160530Z 12001KT CAVOK 12/09 Q1021=
201909160600 METAR LRSB 160600Z 08002KT CAVOK 14/09 Q1021=
201909160630 METAR LRSB 160630Z 01003KT 320V040 CAVOK 15/09 Q1021=
201909160700 METAR LRSB 160700Z VRB02KT CAVOK 17/09 Q1021=
201909160730 METAR LRSB 160730Z 36004KT 320V050 CAVOK 18/09 Q1021=
201909160800 METAR LRSB 160800Z 36003KT 300V040 CAVOK 20/09 Q1020=
201909160830 METAR LRSB 160830Z 34006KT 320V030 CAVOK 21/10 Q1020 NOSIG=
201909160900 METAR LRSB 160900Z 33009KT 300V010 CAVOK 22/10 Q1020 NOSIG=
201909160930 METAR COR LRSB 160930Z 30005KT 250V340 CAVOK 23/10 Q1020
                        NOSIG=
201909161000 METAR LRSB 161000Z 34007KT 300V010 CAVOK 23/10 Q1020 NOSIG=
201909161030 METAR COR LRSB 161030Z 27007KT 220V330 CAVOK 24/10 Q1019
                        NOSIG=
201909161100 METAR LRSB 161100Z 30007KT 260V330 CAVOK 24/10 Q1019 NOSIG=
201909161130 METAR COR LRSB 161130Z 33007KT CAVOK 25/08 Q1018 NOSIG=
201909161200 METAR LRSB 161200Z 33007KT CAVOK 25/08 Q1018 NOSIG=
201909161230 METAR LRSB 161230Z 01007KT 300V040 CAVOK 25/07 Q1018 NOSIG=
201909161300 METAR LRSB 161300Z 36007KT 320V070 CAVOK 25/07 Q1017 NOSIG=
201909161330 METAR LRSB 161330Z 01006KT 330V070 CAVOK 25/07 Q1017 NOSIG=
201909161400 METAR LRSB 161400Z VRB05KT CAVOK 26/07 Q1017 NOSIG=
201909161430 METAR LRSB 161430Z 04004KT 350V080 CAVOK 26/07 Q1016 NOSIG=
201909161500 METAR LRSB 161500Z 33003KT 280V020 CAVOK 26/07 Q1016 NOSIG=
201909161530 METAR LRSB 161530Z 28004KT 230V310 CAVOK 26/07 Q1016 NOSIG=
201909161600 METAR LRSB 161600Z 30004KT CAVOK 24/08 Q1016 NOSIG=
201909161630 METAR COR LRSB 161630Z 30003KT CAVOK 22/08 Q1016=
201909161700 METAR LRSB 161700Z 27007KT CAVOK 18/10 Q1016=
201909161730 METAR LRSB 161730Z 26008KT CAVOK 18/10 Q1016=
201909161800 METAR LRSB 161800Z AUTO 26008KT 9999 NCD 16/09 Q1016=
201909161830 METAR LRSB 161830Z 26008KT CAVOK 16/09 Q1016=
201909161900 METAR LRSB 161900Z 26009KT CAVOK 17/09 Q1016=
201909161930 METAR LRSB 161930Z 25009KT CAVOK 18/09 Q1017=
201909162000 METAR LRSB 162000Z 26008KT CAVOK 16/09 Q1016=
201909162030 METAR LRSB 162030Z VRB01KT CAVOK 15/09 Q1016=
201909162100 METAR LRSB 162100Z VRB02KT CAVOK 14/09 Q1016=
201909162130 METAR LRSB 162130Z AUTO 11003KT 9999 NCD 15/09 Q1016=
201909162200 METAR LRSB 162200Z VRB02KT CAVOK 14/09 Q1016=
201909162230 METAR LRSB 162230Z AUTO 10003KT 9999 NCD 14/09 Q1016=
201909162300 METAR LRSB 162300Z 11003KT CAVOK 14/09 Q1016=
201909162330 METAR LRSB 162330Z 06003KT CAVOK 13/09 Q1016=
201909170000 METAR LRSB 170000Z 08002KT CAVOK 13/09 Q1015=
201909170030 METAR LRSB 170030Z 08003KT CAVOK 12/09 Q1015=
201909170100 METAR LRSB 170100Z 08002KT CAVOK 12/09 Q1015=
201909170130 METAR LRSB 170130Z VRB02KT CAVOK 12/09 Q1015=
201909170200 METAR LRSB 170200Z VRB01KT CAVOK 12/09 Q1015=
201909170230 METAR LRSB 170230Z 03003KT CAVOK 11/09 Q1015=
201909170300 METAR LRSB 170300Z 28003KT CAVOK 10/08 Q1015=
201909170330 METAR LRSB 170330Z 26003KT CAVOK 10/09 Q1015=
201909170400 METAR LRSB 170400Z VRB01KT CAVOK 11/09 Q1015=
201909170430 METAR LRSB 170430Z 12002KT CAVOK 11/09 Q1015=
201909170500 METAR LRSB 170500Z VRB01KT CAVOK 13/10 Q1015=
201909170530 METAR LRSB 170530Z 10003KT 050V130 CAVOK 14/11 Q1015=
201909170600 METAR LRSB 170600Z VRB02KT CAVOK 14/11 Q1015=
201909170630 METAR LRSB 170630Z VRB02KT 9999 OVC066 16/12 Q1015=
201909170700 METAR LRSB 170700Z 28006KT 9999 BKN069 20/11 Q1015=
201909170730 METAR LRSB 170730Z 12004KT 9999 BKN078 18/12 Q1015=
201909170800 METAR LRSB 170800Z 19003KT 140V230 CAVOK 22/11 Q1015=
201909170830 METAR LRSB 170830Z 27005KT 9999 BKN079 22/09 Q1015=
201909170900 METAR LRSB 170900Z 05004KT CAVOK 21/11 Q1015=
201909170930 METAR LRSB 170930Z 02004KT CAVOK 22/10 Q1015=
201909171000 METAR LRSB 171000Z 30009KT CAVOK 23/10 Q1015=
201909171030 METAR LRSB 171030Z 30016KT CAVOK 24/09 Q1015=
201909171100 METAR LRSB 171100Z 30018KT CAVOK 24/09 Q1015=
201909171130 METAR LRSB 171130Z 30015KT 9999 FEW055TCU 23/10 Q1015=
201909171200 METAR LRSB 171200Z 27012KT 9999 SCT055CB 23/09 Q1014=
201909171230 METAR LRSB 171230Z 29015KT 9999 SCT053 23/09 Q1014=
201909171300 METAR LRSB 171300Z 28015KT CAVOK 23/08 Q1014=
201909171330 METAR LRSB 171330Z 28014KT 9999 FEW050CB SCT055 22/08 Q1014=
201909171400 METAR LRSB 171400Z 29013KT CAVOK 23/09 Q1014=
201909171430 METAR LRSB 171430Z 31013KT CAVOK 22/08 Q1013=
201909171500 METAR LRSB 171500Z 30013KT CAVOK 23/09 Q1013=
201909171530 METAR LRSB 171530Z 31009KT 9999 BKN080 22/09 Q1013=
201909171600 METAR LRSB 171600Z 31007KT 9999 BKN080 21/10 Q1013=
201909171630 METAR LRSB 171630Z 32007KT 9999 BKN078 20/11 Q1013=
201909171700 METAR LRSB 171700Z 30007KT 9999 BKN075 20/11 Q1013 NOSIG=
201909171730 METAR LRSB 171730Z 26009KT 9999 BKN072 21/10 Q1014 NOSIG=
201909171800 METAR LRSB 171800Z 27009KT 9999 BKN072 21/09 Q1014 NOSIG=
201909171830 METAR LRSB 171830Z 27015KT 9999 SCT070 21/09 Q1014 NOSIG=
201909171900 METAR LRSB 171900Z 28011KT 9999 SCT070 20/09 Q1014 NOSIG=
201909171930 METAR LRSB 171930Z 28013KT 9999 SCT074 20/09 Q1014 NOSIG=
201909172000 METAR LRSB 172000Z 28009KT 9999 SCT074 20/10 Q1014 NOSIG=
201909172030 METAR LRSB 172030Z 27011KT 9999 FEW074 19/10 Q1014 NOSIG=
201909172100 METAR LRSB 172100Z 27010KT 9999 SCT073 19/10 Q1014 NOSIG=
201909172130 METAR LRSB 172130Z 26011KT 9999 FEW085 19/10 Q1013 NOSIG=
201909172200 METAR LRSB 172200Z 26009KT 9999 FEW066 18/11 Q1013 NOSIG=
201909172230 METAR LRSB 172230Z 28017KT 9999 SCT065 SCT084 18/11 Q1013
                        NOSIG=
201909172300 METAR LRSB 172300Z 27013KT 9999 SCT059 SCT075 18/11 Q1013
                        NOSIG=
201909172330 METAR LRSB 172330Z 27013KT 9999 FEW063 SCT080 18/11 Q1013
                        NOSIG=
201909180000 METAR LRSB 180000Z 28010KT 9999 SCT075 19/11 Q1013 NOSIG=
201909180030 METAR LRSB 180030Z 27014KT 9999 BKN073 19/10 Q1013 NOSIG=
201909180100 METAR LRSB 180100Z 28013KT 9999 SCT062 SCT080 18/11 Q1013
                        NOSIG=
201909180130 METAR LRSB 180130Z 27009KT 9999 SCT063 SCT080 17/11 Q1013
                        NOSIG=
201909180200 METAR LRSB 180200Z 27013KT 9999 BKN074 18/10 Q1013 NOSIG=
201909180230 METAR LRSB 180230Z 27013KT 9999 BKN075 18/07 Q1013 NOSIG=
201909180300 METAR LRSB 180300Z 27017KT 9999 BKN074 18/03 Q1014 NOSIG=
201909180330 METAR LRSB 180330Z 28015KT 9999 BKN068 17/04 Q1014 NOSIG=
201909180400 METAR LRSB 180400Z 27012KT 9999 SCT068 SCT080 17/05 Q1014
                        NOSIG=
201909180430 METAR LRSB 180430Z 26010KT 9999 SCT068 BKN083 16/04 Q1015
                        NOSIG=
201909180500 METAR LRSB 180500Z 27009KT 9999 BKN082 16/04 Q1015 NOSIG=
201909180530 METAR LRSB 180530Z 27012KT 9999 OVC087 16/04 Q1016=
201909180600 METAR LRSB 180600Z 28011KT 9999 FEW043 17/04 Q1016=
201909180630 METAR LRSB 180630Z 28014KT 9999 SCT040 17/03 Q1016=
201909180700 METAR LRSB 180700Z 29017KT 9999 SCT040 17/04 Q1016=
201909180730 METAR LRSB 180730Z 29015KT 9999 SCT036 17/04 Q1017=
201909180800 METAR LRSB 180800Z 29018KT 9999 SCT036 18/02 Q1017=
201909180830 METAR LRSB 180830Z 30019KT 9999 SCT036 17/02 Q1017=
201909180900 METAR LRSB 180900Z 29014KT 9999 FEW033 19/03 Q1017=
201909180930 METAR LRSB 180930Z 29015KT CAVOK 19/01 Q1017=
201909181000 METAR LRSB 181000Z 29017KT CAVOK 20/00 Q1017=
201909181030 METAR LRSB 181030Z 28017KT CAVOK 20/00 Q1017=
201909181100 METAR LRSB 181100Z 30017KT 270V330 CAVOK 20/M00 Q1017=
201909181130 METAR LRSB 181130Z 32014KT CAVOK 19/M00 Q1017=
201909181200 METAR LRSB 181200Z 31014KT CAVOK 19/00 Q1017=
201909181230 METAR LRSB 181230Z 31015KT 290V360 CAVOK 20/00 Q1018=
201909181300 METAR LRSB 181300Z 31017KT CAVOK 19/00 Q1018=
201909181330 METAR LRSB 181330Z 30015KT CAVOK 20/01 Q1018=
201909181400 METAR LRSB 181400Z 30014KT 270V330 CAVOK 19/00 Q1018=
201909181430 METAR LRSB 181430Z 31012KT CAVOK 19/M02 Q1018=
201909181500 METAR LRSB 181500Z 35006KT 320V020 CAVOK 19/02 Q1019=
201909181530 METAR LRSB 181530Z 31011KT 280V350 CAVOK 18/M01 Q1019=
201909181600 METAR LRSB 181600Z 36007KT CAVOK 17/02 Q1019=
201909181630 METAR LRSB 181630Z 36008KT CAVOK 15/01 Q1020=
201909181700 METAR LRSB 181700Z 36005KT 310V030 CAVOK 14/01 Q1020=
201909181730 METAR LRSB 181730Z 35006KT 300V020 CAVOK 14/01 Q1021=
201909181800 METAR LRSB 181800Z 25004KT 210V340 CAVOK 11/02 Q1021=
201909181830 METAR LRSB 181830Z 26006KT CAVOK 09/02 Q1021=
201909181900 METAR LRSB 181900Z 28005KT CAVOK 09/02 Q1022=
201909181930 METAR LRSB 181930Z 26008KT CAVOK 09/02 Q1022=
201909182000 METAR LRSB 182000Z VRB05KT CAVOK 07/02 Q1022=
201909182030 METAR LRSB 182030Z VRB01KT CAVOK 07/02 Q1022=
201909182100 METAR LRSB 182100Z VRB01KT CAVOK 07/02 Q1022=
201909182130 METAR LRSB 182130Z 00000KT CAVOK 06/02 Q1022=
201909182200 METAR LRSB 182200Z 14003KT CAVOK 05/02 Q1023=
201909182230 METAR LRSB 182230Z VRB01KT CAVOK 06/02 Q1022=
201909182300 METAR LRSB 182300Z VRB02KT CAVOK 06/01 Q1022=
201909182330 METAR LRSB 182330Z 28003KT 250V320 CAVOK 07/02 Q1022=
201909190000 METAR LRSB 190000Z VRB02KT CAVOK 05/01 Q1022=
201909190030 METAR LRSB 190030Z VRB02KT CAVOK 05/01 Q1022=
201909190100 METAR LRSB 190100Z AUTO VRB01KT 9999 NCD 05/01 Q1022=
201909190130 METAR COR LRSB 190130Z VRB01KT CAVOK 05/01 Q1022=
201909190200 METAR COR LRSB 190200Z VRB01KT CAVOK 05/01 Q1022=
201909190230 METAR COR LRSB 190230Z 05001KT CAVOK 04/01 Q1022=
201909190300 METAR LRSB 190300Z 03001KT CAVOK 03/00 Q1022=
201909190330 METAR LRSB 190330Z 00000KT CAVOK 03/01 Q1022=
201909190400 METAR LRSB 190400Z 00000KT CAVOK 02/01 Q1022=
201909190430 METAR LRSB 190430Z VRB01KT CAVOK 03/01 Q1022=
201909190500 METAR LRSB 190500Z 10005KT CAVOK 04/01 Q1022=
201909190530 METAR LRSB 190530Z 09003KT CAVOK 07/02 Q1022=
201909190600 METAR LRSB 190600Z 09003KT CAVOK 09/02 Q1023=
201909190630 METAR LRSB 190630Z 08003KT CAVOK 10/02 Q1023=
201909190700 METAR LRSB 190700Z 07003KT CAVOK 12/02 Q1022=
201909190730 METAR LRSB 190730Z 08004KT CAVOK 14/01 Q1022=
201909190800 METAR LRSB 190800Z VRB04KT CAVOK 15/01 Q1022=
201909190830 METAR LRSB 190830Z 34005KT CAVOK 15/01 Q1022=
201909190900 METAR LRSB 190900Z 33009KT 310V010 CAVOK 16/00 Q1022=
201909190930 METAR LRSB 190930Z 30007KT CAVOK 17/01 Q1022=
201909191000 METAR LRSB 191000Z VRB05KT CAVOK 17/01 Q1022=
201909191030 METAR LRSB 191030Z 30010KT 270V330 CAVOK 17/M00 Q1021=
201909191100 METAR LRSB 191100Z 31011KT 280V340 CAVOK 18/M00 Q1021=
201909191130 METAR LRSB 191130Z 31010KT 290V350 CAVOK 18/M01 Q1021=
201909191200 METAR LRSB 191200Z 32013KT 290V350 CAVOK 17/M02 Q1021=
201909191230 METAR LRSB 191230Z 33011KT 290V360 CAVOK 18/M02 Q1021=
201909191300 METAR LRSB 191300Z 32012KT CAVOK 18/M01 Q1021=
201909191330 METAR LRSB 191330Z 31014KT CAVOK 18/M01 Q1020=
201909191400 METAR LRSB 191400Z 31015KT CAVOK 18/M01 Q1020=
201909191430 METAR LRSB 191430Z 33009KT 300V360 CAVOK 17/M01 Q1020=
201909191500 METAR LRSB 191500Z 31012KT CAVOK 17/M02 Q1020=
201909191530 METAR LRSB 191530Z 34008KT CAVOK 17/M01 Q1020=
201909191600 METAR LRSB 191600Z 36009KT CAVOK 15/01 Q1021=
201909191630 METAR LRSB 191630Z 35008KT 9999 FEW073 14/01 Q1021=
201909191700 METAR LRSB 191700Z 34005KT 9999 SCT070 13/00 Q1021=
201909191730 METAR LRSB 191730Z 21005KT 9999 SCT074 11/02 Q1022=
201909191800 METAR LRSB 191800Z 27005KT 9999 BKN068 12/01 Q1022=
201909191830 METAR LRSB 191830Z 27006KT 9999 SCT068 12/02 Q1022=
201909191900 METAR LRSB 191900Z 27009KT 9999 SCT067 11/02 Q1022=
201909191930 METAR LRSB 191930Z 26008KT 9999 SCT066 SCT083 10/02 Q1023=
201909192000 METAR LRSB 192000Z 26008KT 9999 FEW066 10/02 Q1023=
201909192030 METAR LRSB 192030Z 26008KT 9999 SCT066 10/02 Q1023=
201909192100 METAR LRSB 192100Z 26007KT 9999 FEW086 09/01 Q1023=
201909192130 METAR LRSB 192130Z AUTO 27008KT 9999 NCD 08/01 Q1023=
201909192200 METAR LRSB 192200Z 27008KT 9999 FEW067 08/01 Q1023=
201909192230 METAR LRSB 192230Z 26006KT 9999 FEW065 08/01 Q1023=
201909192300 METAR LRSB 192300Z 27007KT 9999 FEW068 08/02 Q1023=
201909192330 METAR LRSB 192330Z 26007KT 9999 SCT067 08/02 Q1023=
201909200000 METAR LRSB 200000Z AUTO 26006KT 9999 BKN068/// 08/02 Q1023=
201909200030 METAR LRSB 200030Z VRB02KT 9999 BKN069 06/02 Q1023=
201909200100 METAR LRSB 200100Z 26009KT 9999 BKN074 09/01 Q1023=
201909200130 METAR LRSB 200130Z 26006KT 9999 BKN075 08/01 Q1023=
201909200200 METAR LRSB 200200Z 26007KT 9999 SCT080 07/01 Q1023=
201909200230 METAR LRSB 200230Z 27007KT 9999 FEW081 06/01 Q1023=
201909200300 METAR LRSB 200300Z 27009KT CAVOK 07/01 Q1023=
201909200330 METAR LRSB 200330Z 26008KT CAVOK 06/00 Q1023=
201909200400 METAR LRSB 200400Z 26009KT CAVOK 05/00 Q1023=
201909200430 METAR LRSB 200430Z 27008KT CAVOK 05/00 Q1023=
201909200500 METAR LRSB 200500Z 23003KT 150V260 CAVOK 05/01 Q1023 NOSIG=
201909200530 METAR LRSB 200530Z 26006KT CAVOK 08/01 Q1024 NOSIG=
201909200600 METAR LRSB 200600Z VRB02KT CAVOK 10/02 Q1024 NOSIG=
201909200630 METAR COR LRSB 200630Z 32003KT 290V030 CAVOK 12/M00 Q1024
                        NOSIG=
201909200700 METAR LRSB 200700Z 32003KT 280V030 CAVOK 12/M00 Q1024 NOSIG=
201909200730 METAR LRSB 200730Z 34006KT 9999 FEW036 12/00 Q1024 NOSIG=
201909200800 METAR LRSB 200800Z 35005KT 320V050 9999 FEW038 13/00 Q1024
                        NOSIG=
201909200830 METAR LRSB 200830Z 33005KT 290V040 9999 FEW038 13/00 Q1024
                        NOSIG=
201909200900 METAR LRSB 200900Z 02003KT 9999 FEW040 14/01 Q1024 NOSIG=
201909200930 METAR LRSB 200930Z 01007KT 320V050 9999 FEW043 14/M01 Q1024
                        NOSIG=
201909201000 METAR LRSB 201000Z VRB05KT 9999 SCT046 15/M01 Q1024 NOSIG=
201909201030 METAR LRSB 201030Z 34006KT 240V050 9999 SCT050 15/M00 Q1024
                        NOSIG=
201909201100 METAR LRSB 201100Z 32006KT 290V360 9999 SCT053 16/M01 Q1023
                        NOSIG=
201909201130 METAR LRSB 201130Z 33009KT 300V360 9999 SCT056 16/M02 Q1023
                        NOSIG=
201909201200 METAR LRSB 201200Z 03010KT 9999 SCT060 17/M01 Q1023 NOSIG=
201909201230 METAR LRSB 201230Z 01008KT 9999 SCT060 15/M01 Q1023 NOSIG=
201909201300 METAR LRSB 201300Z 02008KT 340V050 9999 SCT060 16/M01 Q1023
                        NOSIG=
201909201330 METAR LRSB 201330Z 35009KT 320V050 9999 SCT063 16/M01 Q1023
                        NOSIG=
201909201400 METAR LRSB 201400Z 35011KT 9999 FEW066 16/M02 Q1023 NOSIG=
201909201430 METAR LRSB 201430Z 36011KT 9999 FEW066 15/M03 Q1023 NOSIG=
201909201500 METAR LRSB 201500Z 01011KT 9999 FEW070 15/M04 Q1023 NOSIG=
201909201530 METAR LRSB 201530Z 02010KT 9999 FEW075 14/M04 Q1024 NOSIG=
201909201600 METAR LRSB 201600Z 02007KT 9999 FEW080 13/M04 Q1024 NOSIG=
201909201630 METAR LRSB 201630Z 36004KT 9999 FEW080 12/M04 Q1024 NOSIG=
201909201700 METAR LRSB 201700Z 33003KT CAVOK 11/M03 Q1024 NOSIG=
201909201730 METAR LRSB 201730Z 26005KT CAVOK 09/M01 Q1025=
201909201800 METAR LRSB 201800Z 25005KT CAVOK 08/M00 Q1026=
201909201830 METAR LRSB 201830Z 26007KT CAVOK 08/M00 Q1026=
201909201900 METAR LRSB 201900Z 25006KT CAVOK 08/01 Q1026=
201909201930 METAR LRSB 201930Z 25006KT CAVOK 09/00 Q1026=
201909202000 METAR LRSB 202000Z 26007KT CAVOK 08/M00 Q1026=
201909202030 METAR LRSB 202030Z 27006KT CAVOK 09/M00 Q1027=
201909202100 METAR LRSB 202100Z 26006KT CAVOK 08/M00 Q1027=
201909202130 METAR LRSB 202130Z 25007KT CAVOK 07/M01 Q1027=
201909202200 METAR LRSB 202200Z AUTO 26007KT 9999 BKN078/// 08/M00 Q1027=
201909202230 METAR LRSB 202230Z 27006KT CAVOK 07/M00 Q1027=
201909202300 METAR LRSB 202300Z 23003KT CAVOK 07/M01 Q1027=
201909202330 METAR LRSB 202330Z 00000KT CAVOK 06/M00 Q1027=
201909210000 METAR LRSB 210000Z 23003KT CAVOK 05/M00 Q1027=
201909210030 METAR LRSB 210030Z VRB02KT CAVOK 05/M00 Q1027=
201909210100 METAR LRSB 210100Z VRB01KT CAVOK 05/M01 Q1027=
201909210130 METAR LRSB 210130Z VRB02KT CAVOK 03/M01 Q1027=
201909210200 METAR LRSB 210200Z VRB01KT CAVOK 04/M01 Q1027=
201909210230 METAR LRSB 210230Z VRB01KT CAVOK 03/M01 Q1027=
201909210300 METAR LRSB 210300Z 22002KT CAVOK 02/M01 Q1027=
201909210330 METAR LRSB 210330Z 22001KT CAVOK 02/M00 Q1027=
201909210400 METAR COR LRSB 210400Z VRB02KT CAVOK 03/M01 Q1027=
201909210430 METAR LRSB 210430Z 08002KT CAVOK 04/M00 Q1027=
201909210500 METAR LRSB 210500Z 02003KT CAVOK 05/01 Q1027=
201909210530 METAR LRSB 210530Z VRB02KT CAVOK 06/02 Q1027=
201909210600 METAR LRSB 210600Z 01001KT CAVOK 08/01 Q1027=
201909210630 METAR LRSB 210630Z VRB02KT CAVOK 09/00 Q1028=
201909210700 METAR LRSB 210700Z VRB02KT CAVOK 11/01 Q1028=
201909210730 METAR LRSB 210730Z VRB02KT CAVOK 12/00 Q1028=
201909210800 METAR LRSB 210800Z 29003KT 220V020 CAVOK 13/M01 Q1028=
201909210830 METAR COR LRSB 210830Z VRB04KT CAVOK 13/M01 Q1028=
201909210900 METAR LRSB 210900Z VRB03KT 9999 FEW053 15/M02 Q1028=
201909210930 METAR LRSB 210930Z VRB02KT 9999 FEW050 16/M01 Q1028=
201909211000 METAR LRSB 211000Z VRB04KT 9999 FEW052 15/M01 Q1028=
201909211030 METAR LRSB 211030Z 03006KT 360V070 CAVOK 15/M02 Q1027=
201909211100 METAR LRSB 211100Z 33005KT 260V070 CAVOK 16/M01 Q1027=
201909211130 METAR LRSB 211130Z 36007KT CAVOK 16/M02 Q1027=
201909211200 METAR LRSB 211200Z 30005KT 220V360 CAVOK 17/M01 Q1027=
201909211230 METAR LRSB 211230Z 35006KT 280V020 CAVOK 16/M02 Q1026=
201909211300 METAR LRSB 211300Z 01006KT CAVOK 17/M02 Q1026=
201909211330 METAR LRSB 211330Z 04005KT CAVOK 17/M02 Q1026=
201909211400 METAR LRSB 211400Z 02006KT 340V060 CAVOK 17/M01 Q1026=
201909211430 METAR LRSB 211430Z 01005KT 320V060 CAVOK 17/M01 Q1025=
201909211500 METAR LRSB 211500Z 03005KT CAVOK 16/M01 Q1026=
201909211530 METAR LRSB 211530Z 05004KT 020V090 CAVOK 16/M00 Q1025=
201909211600 METAR LRSB 211600Z 05004KT CAVOK 15/M01 Q1025=
201909211630 METAR LRSB 211630Z 04003KT CAVOK 14/M00 Q1025=
201909211700 METAR LRSB 211700Z 20004KT CAVOK 10/02 Q1026 NOSIG=
201909211730 METAR LRSB 211730Z 27004KT CAVOK 08/02 Q1026 NOSIG=
201909211800 METAR LRSB 211800Z 26006KT CAVOK 08/02 Q1026 NOSIG=
201909211830 METAR LRSB 211830Z 25003KT CAVOK 08/02 Q1026 NOSIG=
201909211900 METAR LRSB 211900Z VRB02KT CAVOK 07/02 Q1026 NOSIG=
201909211930 METAR LRSB 211930Z 00000KT CAVOK 07/02 Q1026 NOSIG=
201909212000 METAR LRSB 212000Z 00000KT CAVOK 06/01 Q1026 NOSIG=
201909212030 METAR LRSB 212030Z 00000KT CAVOK 07/01 Q1026 NOSIG=
201909212100 METAR LRSB 212100Z 00000KT CAVOK 07/01 Q1026 NOSIG=
201909212130 METAR LRSB 212130Z 00000KT CAVOK 06/01 Q1025 NOSIG=
201909212200 METAR LRSB 212200Z 06001KT CAVOK 05/01 Q1025 NOSIG=
201909212230 METAR LRSB 212230Z 00000KT CAVOK 04/01 Q1025 NOSIG=
201909212300 METAR LRSB 212300Z 00000KT CAVOK 04/01 Q1025 NOSIG=
201909212330 METAR LRSB 212330Z 00000KT CAVOK 04/01 Q1025 NOSIG=
201909220000 METAR LRSB 220000Z 07001KT CAVOK 04/01 Q1025 NOSIG=
201909220030 METAR LRSB 220030Z 00000KT CAVOK 03/01 Q1025 NOSIG=
201909220100 METAR LRSB 220100Z VRB01KT CAVOK 03/01 Q1025 NOSIG=
201909220130 METAR LRSB 220130Z 09002KT CAVOK 04/01 Q1025 NOSIG=
201909220200 METAR LRSB 220200Z 13002KT CAVOK 02/00 Q1025 NOSIG=
201909220230 METAR LRSB 220230Z 11003KT CAVOK 03/01 Q1024 NOSIG=
201909220300 METAR LRSB 220300Z 09003KT CAVOK 03/01 Q1024 NOSIG=
201909220330 METAR LRSB 220330Z 11003KT CAVOK 03/00 Q1024 NOSIG=
201909220400 METAR LRSB 220400Z 13001KT CAVOK 02/M00 Q1024 NOSIG=
201909220430 METAR LRSB 220430Z 11002KT CAVOK 02/01 Q1024 NOSIG=
201909220500 METAR LRSB 220500Z 11002KT CAVOK 03/02 Q1024=
201909220530 METAR LRSB 220530Z 10004KT CAVOK 05/02 Q1024=
201909220600 METAR LRSB 220600Z 10005KT CAVOK 06/02 Q1024=
201909220630 METAR LRSB 220630Z 11004KT 080V140 CAVOK 08/03 Q1024=
201909220700 METAR LRSB 220700Z 10003KT 070V140 CAVOK 10/03 Q1024=
201909220730 METAR LRSB 220730Z 09004KT 020V140 CAVOK 11/03 Q1024=
201909220800 METAR LRSB 220800Z 11003KT 050V170 CAVOK 13/03 Q1024=
201909220830 METAR LRSB 220830Z 10004KT 060V150 CAVOK 14/03 Q1023=
201909220900 METAR LRSB 220900Z 10005KT 020V130 CAVOK 16/02 Q1023=
201909220930 METAR LRSB 220930Z 09005KT 010V140 CAVOK 17/02 Q1023=
201909221000 METAR LRSB 221000Z VRB04KT CAVOK 18/01 Q1022=
201909221030 METAR LRSB 221030Z VRB04KT CAVOK 19/01 Q1021=
201909221100 METAR LRSB 221100Z VRB02KT CAVOK 20/01 Q1021=
201909221130 METAR LRSB 221130Z VRB02KT CAVOK 20/01 Q1021=
201909221200 METAR LRSB 221200Z VRB03KT CAVOK 21/01 Q1020=
201909221230 METAR LRSB 221230Z 17003KT CAVOK 21/01 Q1020=
201909221300 METAR LRSB 221300Z VRB03KT CAVOK 22/02 Q1019=
201909221330 METAR LRSB 221330Z VRB02KT CAVOK 22/02 Q1019=
201909221400 METAR LRSB 221400Z 24004KT 200V300 CAVOK 22/02 Q1018=
201909221430 METAR LRSB 221430Z VRB02KT CAVOK 22/02 Q1018=
201909221500 METAR LRSB 221500Z 00000KT CAVOK 22/02 Q1018=
201909221530 METAR LRSB 221530Z VRB01KT CAVOK 21/02 Q1018=
201909221600 METAR LRSB 221600Z 22004KT CAVOK 18/04 Q1018=
201909221630 METAR LRSB 221630Z 23004KT CAVOK 15/05 Q1018=
201909221700 METAR LRSB 221700Z 26006KT CAVOK 13/05 Q1018=
201909221730 METAR LRSB 221730Z 00000KT CAVOK 13/05 Q1018=
201909221800 METAR LRSB 221800Z 27001KT CAVOK 12/05 Q1018=
201909221830 METAR LRSB 221830Z 00000KT CAVOK 11/05 Q1018=
201909221900 METAR LRSB 221900Z 29003KT CAVOK 09/04 Q1018=
201909221930 METAR LRSB 221930Z VRB01KT CAVOK 09/05 Q1018=
201909222000 METAR LRSB 222000Z VRB01KT CAVOK 09/04 Q1018=
201909222030 METAR LRSB 222030Z 00000KT CAVOK 07/04 Q1018=
201909222100 METAR LRSB 222100Z 00000KT CAVOK 07/04 Q1018=
201909222130 METAR LRSB 222130Z 00000KT CAVOK 08/05 Q1018=
201909222200 METAR COR LRSB 222200Z VRB01KT CAVOK 09/04 Q1018=
201909222230 METAR LRSB 222230Z 00000KT CAVOK 08/04 Q1018=
201909222300 METAR LRSB 222300Z 00000KT CAVOK 08/05 Q1018=
201909222330 METAR LRSB 222330Z 00000KT CAVOK 06/04 Q1018=
201909230000 METAR LRSB 230000Z AUTO 09003KT 9999 NCD 06/04 Q1017=
201909230030 METAR LRSB 230030Z 08002KT CAVOK 07/04 Q1017=
201909230100 METAR LRSB 230100Z 08004KT CAVOK 07/05 Q1017=
201909230130 METAR LRSB 230130Z AUTO 09003KT 9999 FEW200/// 07/04 Q1017=
201909230200 METAR LRSB 230200Z AUTO 00000KT 9999 FEW180/// 07/04 Q1017=
201909230230 METAR LRSB 230230Z 11002KT CAVOK 07/05 Q1017=
201909230300 METAR LRSB 230300Z 11002KT CAVOK 07/05 Q1017=
201909230330 METAR LRSB 230330Z 11004KT CAVOK 08/05 Q1017=
201909230400 METAR LRSB 230400Z 11003KT CAVOK 08/05 Q1017=
201909230430 METAR LRSB 230430Z 11002KT CAVOK 08/05 Q1017=
201909230500 METAR LRSB 230500Z 12002KT CAVOK 08/05 Q1017=
201909230530 METAR LRSB 230530Z 10003KT CAVOK 09/06 Q1017=
201909230600 METAR LRSB 230600Z 10004KT CAVOK 09/06 Q1017=
201909230630 METAR COR LRSB 230630Z 12005KT 100V170 CAVOK 10/06 Q1017=
201909230700 METAR LRSB 230700Z 11004KT CAVOK 12/06 Q1017=
201909230730 METAR LRSB 230730Z 12003KT CAVOK 13/06 Q1017=
201909230800 METAR LRSB 230800Z 12004KT 090V150 CAVOK 14/06 Q1017=
201909230830 METAR COR LRSB 230830Z 11003KT CAVOK 17/06 Q1016=
201909230900 METAR LRSB 230900Z 09004KT CAVOK 18/06 Q1016=
201909230930 METAR LRSB 230930Z 09004KT CAVOK 20/05 Q1016=
201909231000 METAR LRSB 231000Z 05003KT CAVOK 21/04 Q1015=
201909231030 METAR LRSB 231030Z VRB02KT CAVOK 21/04 Q1015=
201909231100 METAR LRSB 231100Z 28003KT CAVOK 21/04 Q1015=
201909231130 METAR LRSB 231130Z 24003KT CAVOK 21/03 Q1014=
201909231200 METAR LRSB 231200Z VRB02KT CAVOK 22/03 Q1014=
201909231230 METAR LRSB 231230Z VRB02KT CAVOK 22/03 Q1014=
201909231300 METAR LRSB 231300Z VRB02KT CAVOK 22/03 Q1014=
201909231330 METAR LRSB 231330Z 00000KT CAVOK 22/03 Q1014=
201909231400 METAR LRSB 231400Z 36003KT CAVOK 21/03 Q1014=
201909231430 METAR LRSB 231430Z 02004KT CAVOK 21/04 Q1014=
201909231500 METAR LRSB 231500Z 35008KT CAVOK 19/07 Q1014=
201909231530 METAR LRSB 231530Z 36007KT 9999 OVC073 18/08 Q1014=
201909231600 METAR LRSB 231600Z 25004KT 9999 OVC073 18/07 Q1014=
201909231630 METAR LRSB 231630Z VRB02KT 9999 OVC070 17/07 Q1014=
201909231700 METAR LRSB 231700Z VRB02KT 9999 OVC064 17/08 Q1014=
201909231730 METAR LRSB 231730Z 22003KT 9999 OVC064 16/08 Q1014=
201909231800 METAR LRSB 231800Z 24003KT 9999 OVC065 16/08 Q1014=
201909231830 METAR LRSB 231830Z 26003KT 9999 BKN064 SCT085 15/09 Q1014=
201909231900 METAR LRSB 231900Z 00000KT 9999 OVC061 15/09 Q1014=
201909231930 METAR LRSB 231930Z VRB02KT 9999 OVC063 16/08 Q1014=
201909232000 METAR COR LRSB 232000Z VRB02KT 9999 -RA OVC065 16/08 Q1014=
201909232030 METAR LRSB 232030Z 10002KT 9999 OVC061 15/09 Q1014=
201909232100 METAR LRSB 232100Z VRB01KT 9999 OVC061 15/09 Q1014=
201909232130 METAR LRSB 232130Z VRB02KT 9999 OVC062 15/09 Q1014=
201909232200 METAR LRSB 232200Z 13003KT 070V160 9999 OVC062 15/09 Q1013=
201909232230 METAR LRSB 232230Z 12004KT 9999 OVC061 15/09 Q1013=
201909232300 METAR LRSB 232300Z VRB01KT 9999 OVC061 15/09 Q1013=
201909232330 METAR LRSB 232330Z VRB01KT 9999 OVC058 15/09 Q1013=
201909240000 METAR LRSB 240000Z AUTO VRB02KT 9999 OVC058/// 15/09 Q1013=
201909240030 METAR LRSB 240030Z 26002KT 9999 OVC058 14/10 Q1012=
201909240100 METAR LRSB 240100Z VRB01KT 9999 OVC056 14/10 Q1012=
201909240130 METAR LRSB 240130Z VRB01KT 9999 OVC057 14/10 Q1012=
201909240200 METAR LRSB 240200Z 23003KT 9999 OVC057 14/10 Q1012=
201909240230 METAR LRSB 240230Z VRB01KT 9999 OVC054 14/09 Q1012=
201909240300 METAR LRSB 240300Z VRB02KT 9999 OVC055 15/09 Q1012=
201909240330 METAR LRSB 240330Z 23001KT 9999 OVC052 14/10 Q1012=
201909240400 METAR LRSB 240400Z 15002KT 9999 OVC053 14/10 Q1012=
201909240430 METAR LRSB 240430Z 11003KT 9999 OVC051 15/09 Q1012=
201909240500 METAR LRSB 240500Z 10001KT 9999 OVC053 15/09 Q1012=
201909240530 METAR LRSB 240530Z 10004KT 9999 OVC053 15/09 Q1012=
201909240600 METAR LRSB 240600Z 20003KT 120V260 9999 OVC055 15/10 Q1012=
201909240630 METAR LRSB 240630Z VRB01KT 9999 OVC055 15/10 Q1012=
201909240700 METAR LRSB 240700Z VRB01KT 9999 BKN055 16/10 Q1012=
201909240730 METAR LRSB 240730Z VRB03KT 9999 BKN055 17/10 Q1013=
201909240800 METAR COR LRSB 240800Z VRB02KT 9999 BKN054 17/10 Q1013=
201909240830 METAR LRSB 240830Z VRB03KT 9999 OVC053 17/09 Q1013=
201909240900 METAR LRSB 240900Z VRB02KT 9999 OVC053 18/09 Q1013=
201909240930 METAR LRSB 240930Z VRB02KT 9999 OVC054 19/10 Q1013=
201909241000 METAR LRSB 241000Z VRB02KT 9999 OVC056 19/09 Q1013=
201909241030 METAR LRSB 241030Z 25004KT 220V280 9999 OVC058 19/09 Q1012=
201909241100 METAR LRSB 241100Z 24004KT 9999 OVC060 19/10 Q1012=
201909241130 METAR LRSB 241130Z 25004KT 9999 OVC062 19/10 Q1012=
201909241200 METAR LRSB 241200Z VRB03KT 9999 OVC063 20/09 Q1012=
201909241230 METAR LRSB 241230Z 20003KT 160V240 9999 OVC064 20/07 Q1012=
201909241300 METAR LRSB 241300Z 20003KT 110V230 9999 BKN063 20/07 Q1012=
201909241330 METAR LRSB 241330Z 13006KT 9999 BKN062 20/07 Q1012=
201909241400 METAR LRSB 241400Z 13006KT 9999 OVC062 20/08 Q1012=
201909241430 METAR LRSB 241430Z 15007KT 9999 OVC062 19/08 Q1012=
201909241500 METAR LRSB 241500Z 17006KT 9999 BKN060 19/09 Q1012=
201909241530 METAR COR LRSB 241530Z 14005KT 9999 BKN060 19/09 Q1012=
201909241600 METAR LRSB 241600Z 18004KT 9999 BKN060 18/09 Q1012=
201909241630 METAR LRSB 241630Z 21005KT 9999 BKN065 17/10 Q1012=
201909241700 METAR LRSB 241700Z VRB02KT 9999 BKN070 17/10 Q1012=
201909241730 METAR LRSB 241730Z 10004KT 9999 BKN070 16/10 Q1012=
201909241800 METAR LRSB 241800Z 13004KT 9999 BKN075 16/10 Q1013=
201909241830 METAR LRSB 241830Z 13004KT CAVOK 16/10 Q1013=
201909241900 METAR LRSB 241900Z 11004KT CAVOK 15/10 Q1013=
201909241930 METAR LRSB 241930Z 00000KT CAVOK 15/10 Q1013=
201909242000 METAR LRSB 242000Z VRB01KT CAVOK 14/11 Q1013=
201909242030 METAR LRSB 242030Z 00000KT 9999 OVC071 14/11 Q1013=
201909242100 METAR LRSB 242100Z 00000KT 9999 OVC065 15/11 Q1013=
201909242130 METAR LRSB 242130Z 22003KT 9999 OVC065 14/11 Q1013=
201909242200 METAR LRSB 242200Z 30003KT 9999 OVC062 14/11 Q1013=
201909242230 METAR LRSB 242230Z 25002KT 9999 OVC062 14/11 Q1013=
201909242300 METAR LRSB 242300Z VRB02KT 9999 OVC056 15/11 Q1013=
201909242330 METAR LRSB 242330Z 24003KT 9999 OVC056 14/11 Q1013=
201909250000 METAR LRSB 250000Z 19002KT 9999 OVC058 14/11 Q1013=
201909250030 METAR LRSB 250030Z 06001KT 9999 OVC055 14/11 Q1013=
201909250100 METAR LRSB 250100Z 08002KT 9999 OVC058 14/11 Q1013=
201909250130 METAR LRSB 250130Z 01003KT 9999 OVC059 15/11 Q1013=
201909250200 METAR LRSB 250200Z VRB01KT 9999 OVC060 14/11 Q1013=
201909250230 METAR LRSB 250230Z 00000KT 9999 OVC060 14/11 Q1013=
201909250300 METAR LRSB 250300Z 00000KT 9999 OVC040 14/11 Q1013=
201909250330 METAR LRSB 250330Z 00000KT 9999 OVC045 14/11 Q1013=
201909250400 METAR LRSB 250400Z 00000KT 9999 FEW044 OVC061 14/11 Q1013=
201909250430 METAR LRSB 250430Z 00000KT 9999 FEW040 OVC060 13/11 Q1013=
201909250500 METAR LRSB 250500Z 00000KT 9999 FEW040 OVC055 13/11 Q1013=
201909250530 METAR LRSB 250530Z 00000KT 9999 FEW042 OVC063 14/11 Q1013=
201909250600 METAR LRSB 250600Z VRB01KT 9999 FEW041 BKN060 15/11 Q1013=
201909250630 METAR LRSB 250630Z 08004KT 9999 FEW041 SCT061 17/11 Q1013=
201909250700 METAR LRSB 250700Z 16005KT 9999 FEW042 SCT063 18/10 Q1013=
201909250730 METAR LRSB 250730Z 24005KT 200V270 9999 FEW043 BKN065 18/11
                        Q1013=
201909250800 METAR LRSB 250800Z 24003KT 180V280 9999 FEW042 BKN064 18/11
                        Q1013=
201909250830 METAR LRSB 250830Z 24003KT 190V290 9999 FEW042 BKN064 19/11
                        Q1013=
201909250900 METAR LRSB 250900Z 22003KT 160V290 9999 FEW041 BKN062 19/10
                        Q1013=
201909250930 METAR LRSB 250930Z 18004KT 120V230 9999 FEW040 BKN060 19/11
                        Q1013=
201909251000 METAR LRSB 251000Z VRB06KT 9999 FEW038 BKN058 20/10 Q1013=
201909251030 METAR LRSB 251030Z 23005KT 180V280 9999 FEW037 SCT056 BKN076
                        19/10 Q1013=
201909251100 METAR LRSB 251100Z VRB05KT 9999 FEW038 SCT056 BKN074 19/10
                        Q1013=
201909251130 METAR LRSB 251130Z 21006KT 160V240 9999 -RA FEW040 SCT058
                        SCT077 19/09 Q1013=
201909251200 METAR LRSB 251200Z 15007KT 9999 SCT058 BKN078 19/09 Q1013=
201909251230 METAR LRSB 251230Z 17007KT 140V210 9999 SCT055 BKN075 19/08
                        Q1012=
201909251300 METAR LRSB 251300Z 22010KT 190V250 9999 SCT055 BKN076 19/08
                        Q1012=
201909251330 METAR LRSB 251330Z 22008KT 9999 SCT056 BKN080 19/08 Q1012=
201909251400 METAR LRSB 251400Z 16007KT 9999 SCT058 BKN080 19/08 Q1012=
201909251430 METAR LRSB 251430Z 20009KT 170V230 9999 FEW058 BKN082 19/09
                        Q1012=
201909251500 METAR LRSB 251500Z 14008KT 9999 FEW058 SCT083 18/07 Q1012=
201909251530 METAR LRSB 251530Z 15006KT 9999 FEW059 BKN084 18/08 Q1012=
201909251600 METAR LRSB 251600Z 16006KT 140V200 9999 SCT072 18/08 Q1012=
201909251630 METAR LRSB 251630Z 18005KT 150V210 9999 FEW062 SCT072 17/08
                        Q1012=
201909251700 METAR LRSB 251700Z 21005KT 9999 SCT050 SCT080 16/10 Q1012
                        NOSIG=
201909251730 METAR LRSB 251730Z 18003KT 130V210 9999 FEW050 SCT088 16/09
                        Q1012 NOSIG=
201909251800 METAR COR LRSB 251800Z 00000KT 9999 SCT074 15/11 Q1012 NOSIG=
201909251830 METAR LRSB 251830Z 20002KT 9999 FEW056 SCT073 15/11 Q1012
                        NOSIG=
201909251900 METAR LRSB 251900Z 27004KT 9999 SCT069 15/11 Q1012 NOSIG=
201909251930 METAR LRSB 251930Z VRB02KT 9999 SCT067 BKN088 14/11 Q1012
                        NOSIG=
201909252000 METAR LRSB 252000Z 25004KT 9999 -RA SCT060 OVC077 14/12 Q1012
                        NOSIG=
201909252030 METAR LRSB 252030Z 34003KT 320V020 9999 OVC073 15/12 Q1012
                        NOSIG=
201909252100 METAR LRSB 252100Z 24004KT 9999 OVC070 14/12 Q1012 NOSIG=
201909252130 METAR LRSB 252130Z 23004KT 9999 OVC069 14/12 Q1012 NOSIG=
201909252200 METAR LRSB 252200Z 22003KT 9000 OVC072 14/12 Q1012 NOSIG=
201909252230 METAR LRSB 252230Z 23003KT 210V270 9000 BKN074 14/12 Q1012
                        NOSIG=
201909252300 METAR LRSB 252300Z VRB02KT 9000 FEW054 BKN074 14/12 Q1012
                        NOSIG=
201909252330 METAR LRSB 252330Z 20002KT 9000 FEW053 SCT068 BKN086 13/12
                        Q1012 NOSIG=
201909260000 METAR LRSB 260000Z VRB01KT 9999 SCT070 14/12 Q1012 NOSIG=
201909260030 METAR LRSB 260030Z 00000KT 9999 BKN066 13/11 Q1012 NOSIG=
201909260100 METAR LRSB 260100Z 00000KT 9999 OVC059 13/12 Q1012 NOSIG=
201909260130 METAR LRSB 260130Z 00000KT 9999 OVC057 13/12 Q1012 NOSIG=
201909260200 METAR LRSB 260200Z 00000KT 9999 BKN058 SCT075 13/11 Q1012
                        NOSIG=
201909260230 METAR LRSB 260230Z 00000KT 9999 SCT054 SCT075 13/11 Q1012
                        NOSIG=
201909260300 METAR LRSB 260300Z 00000KT 9999 FEW054 BKN072 13/11 Q1012
                        NOSIG=
201909260330 METAR LRSB 260330Z 00000KT 9999 OVC071 13/11 Q1012 NOSIG=
201909260400 METAR LRSB 260400Z 00000KT 9999 OVC071 13/11 Q1012 NOSIG=
201909260430 METAR LRSB 260430Z 00000KT 9999 OVC068 13/11 Q1012 NOSIG=
201909260500 METAR LRSB 260500Z 00000KT 9999 OVC071 13/12 Q1012=
201909260530 METAR LRSB 260530Z 00000KT 9999 OVC082 14/12 Q1012=
201909260600 METAR LRSB 260600Z 00000KT 9999 BKN083 14/12 Q1012=
201909260630 METAR LRSB 260630Z 00000KT 9999 BKN083 15/12 Q1012=
201909260700 METAR LRSB 260700Z 00000KT 9999 FEW036 SCT086 16/12 Q1012=
201909260730 METAR LRSB 260730Z 11004KT 9999 -RA SCT041 SCT086 16/12 Q1012=
201909260800 METAR LRSB 260800Z 12005KT 9999 -RA SCT041 SCT082 16/13 Q1012
                        R27/29//95=
201909260830 METAR LRSB 260830Z 16003KT 140V200 9999 FEW027 SCT036 BKN069
                        17/12 Q1012 R27/29//95=
201909260900 METAR LRSB 260900Z VRB02KT 9999 -RA FEW052 SCT070 17/13 Q1012
                        R27/29//95=
201909260930 METAR LRSB 260930Z 12005KT 9999 -RA FEW058 BKN074 16/13 Q1012
                        R27/29//95=
201909261000 METAR LRSB 261000Z 14004KT 9999 BKN049 BKN074 16/12 Q1012
                        R27/29//95=
201909261030 METAR LRSB 261030Z 13005KT 9999 -RA SCT050 OVC076 16/12 Q1012
                        R27/29//95=
201909261100 METAR LRSB 261100Z 11003KT 050V180 9999 -RA BKN047 OVC070
                        16/13 Q1012 R27/29//95=
201909261130 METAR LRSB 261130Z 06003KT 5000 RA BR FEW019 SCT048 OVC070
                        15/13 Q1012 R27/29//95=
201909261200 METAR LRSB 261200Z 01004KT 5000 RA BR FEW007 SCT016 OVC070
                        15/14 Q1012 R27/29//95=
201909261230 METAR LRSB 261230Z 01004KT 5000 RA BR FEW008 SCT012 OVC021
                        15/14 Q1012 R27/29//95=
201909261300 METAR LRSB 261300Z 02005KT 3500 RA BR FEW008 SCT010 OVC020
                        15/14 Q1012 R27/29//95=
201909261330 METAR LRSB 261330Z 01003KT 350V050 6000 -RA FEW006 SCT020
                        OVC033 15/14 Q1012 RERA R27/29//95=
201909261400 METAR LRSB 261400Z 31005KT 9000 SCT009 BKN012 OVC035 15/14
                        Q1012 R27/29//95=
201909261430 METAR LRSB 261430Z 30005KT 9999 -RA FEW006 OVC028 15/14 Q1012
                        R27/29//95=
201909261500 METAR LRSB 261500Z 27004KT 9999 -RA FEW005 SCT033 BKN066
                        15/13 Q1012 R27/29//95=
201909261530 METAR LRSB 261530Z 28004KT 9999 SCT039 BKN076 15/13 Q1012
                        R27/29//95=
201909261600 METAR LRSB 261600Z 29005KT 9999 FEW048 BKN077 15/13 Q1013
                        R27/29//95=
201909261630 METAR LRSB 261630Z 29004KT 8000 FEW024 SCT045 BKN068 14/13
                        Q1013 R27/29//95=
201909261700 METAR LRSB 261700Z 29004KT 8000 FEW020 SCT040 BKN058 14/13
                        Q1013 R27/29//95=
201909261730 METAR LRSB 261730Z 28005KT 7000 FEW008 SCT040 OVC055 14/13
                        Q1013 R27/29//95=
201909261800 METAR LRSB 261800Z 29004KT 8000 FEW010 SCT044 OVC056 14/13
                        Q1013 R27/29//95=
201909261830 METAR LRSB 261830Z 31003KT 8000 FEW012 SCT038 BKN058 14/13
                        Q1013 R27/CLRD//=
201909261900 METAR LRSB 261900Z 29004KT 8000 FEW015 SCT038 OVC058 14/13
                        Q1014=
201909261930 METAR LRSB 261930Z 33003KT 5000 -RA BR FEW015 SCT036 OVC045
                        14/13 Q1014=
201909262000 METAR LRSB 262000Z 31007KT 280V340 8000 -RA FEW017 SCT036
                        BKN047 14/13 Q1014=
201909262030 METAR LRSB 262030Z 32006KT 9000 -RA FEW025 SCT038 BKN073
                        14/13 Q1015=
201909262100 METAR LRSB 262100Z 31006KT 8000 -SHRA FEW025CB SCT035 BKN070
                        14/12 Q1015 R27/29//95=
201909262130 METAR LRSB 262130Z 30004KT 8000 -SHRA FEW015 FEW025CB BKN056
                        14/13 Q1015 R27/29//95=
201909262200 METAR LRSB 262200Z 32004KT 8000 -SHRA FEW015 FEW025CB BKN056
                        14/13 Q1015 R27/29//95=
201909262230 METAR LRSB 262230Z 29005KT 8000 -RA FEW027CB SCT036 BKN058
                        14/13 Q1015 R27/29//95=
201909262300 METAR LRSB 262300Z 30005KT 9999 FEW018 FEW027CB BKN060 14/12
                        Q1015 R27/29//95=
201909262330 METAR LRSB 262330Z 30006KT 9999 SCT019 BKN040 14/12 Q1015
                        R27/29//95=
201909270000 METAR LRSB 270000Z 25003KT 9999 FEW020 BKN040 BKN060 14/12
                        Q1015 R27/29//95=
201909270030 METAR LRSB 270030Z 27003KT 9999 FEW024 BKN042 BKN064 13/12
                        Q1015 R27/29//95=
201909270100 METAR LRSB 270100Z 28005KT 9999 SCT034 BKN043 13/11 Q1015
                        R27/29//95=
201909270130 METAR LRSB 270130Z 27003KT 9999 SCT034 BKN044 13/11 Q1015
                        R27/29//95=
201909270200 METAR LRSB 270200Z VRB01KT 9999 FEW035 OVC045 13/11 Q1015
                        R27/29//95=
201909270230 METAR LRSB 270230Z 27004KT 240V300 9999 FEW048 BKN066 12/10
                        Q1015 R27/29//95=
201909270300 METAR LRSB 270300Z VRB02KT 9999 BKN070 11/10 Q1016 R27/CLRD//=
201909270330 METAR LRSB 270330Z 34003KT 290V360 9999 FEW036 SCT051 BKN072
                        12/10 Q1016=
201909270400 METAR LRSB 270400Z VRB02KT 9999 FEW040 BKN054 11/09 Q1016=
201909270430 METAR LRSB 270430Z VRB02KT 9999 SCT044 BKN054 11/10 Q1016=
201909270500 METAR LRSB 270500Z 25003KT 9999 SCT034 BKN054 12/10 Q1016=
201909270530 METAR LRSB 270530Z VRB02KT 9999 SCT027 SCT045 12/10 Q1017=
201909270600 METAR COR LRSB 270600Z VRB02KT 9999 SCT027 SCT045 12/10 Q1017=
201909270630 METAR LRSB 270630Z 00000KT 9999 OVC040 13/11 Q1017=
201909270700 METAR LRSB 270700Z 03004KT 9999 OVC035 13/12 Q1018=
201909270730 METAR LRSB 270730Z 31006KT 280V340 9999 FEW025 OVC040 14/12
                        Q1018=
201909270800 METAR LRSB 270800Z 26004KT 230V300 9999 SCT024 BKN045 14/12
                        Q1018=
201909270830 METAR LRSB 270830Z 31005KT 280V340 9999 SCT025 OVC045 15/12
                        Q1018=
201909270900 METAR LRSB 270900Z 31003KT 9999 BKN023 16/11 Q1018=
201909270930 METAR LRSB 270930Z 01005KT 330V030 9999 BKN020 17/11 Q1018=
201909271000 METAR LRSB 271000Z 36004KT 280V090 9999 FEW021 18/11 Q1018=
201909271030 METAR LRSB 271030Z 02005KT 330V050 9999 BKN025 18/11 Q1018=
201909271100 METAR LRSB 271100Z 01007KT 340V040 9999 BKN030 19/11 Q1018=
201909271130 METAR LRSB 271130Z 02003KT 9999 BKN042 18/10 Q1018=
201909271200 METAR LRSB 271200Z 02003KT 9999 SCT036 19/11 Q1018=
201909271230 METAR LRSB 271230Z VRB02KT 9999 FEW030CB SCT036 18/10 Q1018=
201909271300 METAR LRSB 271300Z 08004KT 9999 FEW030TCU SCT036 18/10 Q1018=
201909271330 METAR LRSB 271330Z 14006KT 100V180 9999 FEW030TCU 18/10 Q1018=
201909271400 METAR LRSB 271400Z 15007KT 9999 SCT040 17/11 Q1018=
201909271430 METAR LRSB 271430Z 17004KT 9999 SCT050 17/11 Q1018=
201909271500 METAR LRSB 271500Z 15003KT 9999 SCT050 17/11 Q1018=
201909271530 METAR COR LRSB 271530Z 16002KT 9999 SCT057 17/11 Q1018=
201909271600 METAR LRSB 271600Z 13003KT 9999 SCT050 16/12 Q1018=
201909271630 METAR LRSB 271630Z 17002KT 9999 BKN049 16/12 Q1018=
201909271700 METAR LRSB 271700Z VRB01KT 9999 SCT049 14/11 Q1018=
201909271730 METAR LRSB 271730Z 26003KT 9999 SCT062 13/10 Q1019=
201909271800 METAR LRSB 271800Z 26004KT 170V290 9999 OVC062 13/10 Q1019=
201909271830 METAR LRSB 271830Z 22002KT 9999 BKN066 12/10 Q1019=
201909271900 METAR LRSB 271900Z VRB01KT 9999 SCT066 12/10 Q1019=
201909271930 METAR LRSB 271930Z VRB01KT 8000 SCT070 11/10 Q1019=
201909272000 METAR LRSB 272000Z VRB02KT 6000 SCT068 11/09 Q1019=
201909272030 METAR LRSB 272030Z 30003KT 280V350 CAVOK 10/09 Q1020=
201909272100 METAR LRSB 272100Z 00000KT CAVOK 10/08 Q1020=
201909272130 METAR LRSB 272130Z 21003KT 6000 NSC 09/08 Q1020=
201909272200 METAR LRSB 272200Z VRB02KT 4000 BR NSC 09/08 Q1020=
201909272230 METAR LRSB 272230Z 33001KT CAVOK 09/08 Q1020=
201909272300 METAR LRSB 272300Z VRB01KT CAVOK 10/09 Q1020=
201909272330 METAR LRSB 272330Z 08002KT CAVOK 09/08 Q1019=
201909280000 METAR LRSB 280000Z AUTO 05002KT 9999 NCD 09/08 Q1019=
201909280030 METAR LRSB 280030Z 00000KT CAVOK 08/07 Q1019=
201909280100 METAR LRSB 280100Z 10001KT CAVOK 08/07 Q1019=
201909280130 METAR LRSB 280130Z 04001KT CAVOK 08/07 Q1019=
201909280200 METAR COR LRSB 280200Z 10002KT CAVOK 07/06 Q1020=
201909280230 METAR LRSB 280230Z 00000KT CAVOK 07/07 Q1020=
201909280300 METAR LRSB 280300Z 16001KT CAVOK 06/05 Q1019=
201909280330 METAR LRSB 280330Z 15002KT CAVOK 05/05 Q1019=
201909280400 METAR LRSB 280400Z 06002KT CAVOK 07/06 Q1019=
201909280430 METAR LRSB 280430Z 10002KT CAVOK 07/06 Q1019=
201909280500 METAR LRSB 280500Z 11003KT CAVOK 08/07 Q1020=
201909280530 METAR LRSB 280530Z VRB02KT CAVOK 08/08 Q1020 NOSIG=
201909280600 METAR LRSB 280600Z 10003KT CAVOK 09/08 Q1020 NOSIG=
201909280630 METAR LRSB 280630Z 10003KT CAVOK 10/09 Q1020 NOSIG=
201909280700 METAR LRSB 280700Z 10003KT 070V130 CAVOK 11/09 Q1020 NOSIG=
201909280730 METAR LRSB 280730Z 11004KT CAVOK 13/10 Q1020 NOSIG=
201909280800 METAR COR LRSB 280800Z 11004KT 070V140 CAVOK 15/10 Q1020
                        NOSIG=
201909280830 METAR LRSB 280830Z 10004KT 060V130 CAVOK 16/10 Q1019 NOSIG=
201909280900 METAR LRSB 280900Z 12004KT 080V150 CAVOK 17/10 Q1019 NOSIG=
201909280930 METAR LRSB 280930Z 10004KT 050V160 CAVOK 18/10 Q1019 NOSIG=
201909281000 METAR LRSB 281000Z VRB02KT CAVOK 20/10 Q1019 NOSIG=
201909281030 METAR LRSB 281030Z 05003KT 310V110 CAVOK 21/08 Q1019 NOSIG=
201909281100 METAR LRSB 281100Z VRB04KT CAVOK 22/08 Q1018 NOSIG=
201909281130 METAR COR LRSB 281130Z VRB03KT CAVOK 23/08 Q1018 NOSIG=
201909281200 METAR LRSB 281200Z VRB03KT CAVOK 23/08 Q1018 NOSIG=
201909281230 METAR LRSB 281230Z 02004KT CAVOK 23/08 Q1018 NOSIG=
201909281300 METAR LRSB 281300Z VRB03KT CAVOK 23/07 Q1018 NOSIG=
201909281330 METAR LRSB 281330Z 34004KT 290V020 CAVOK 23/06 Q1017 NOSIG=
201909281400 METAR LRSB 281400Z VRB02KT CAVOK 23/06 Q1017 NOSIG=
201909281430 METAR LRSB 281430Z 00000KT CAVOK 23/06 Q1017 NOSIG=
201909281500 METAR LRSB 281500Z VRB01KT CAVOK 22/07 Q1017 NOSIG=
201909281530 METAR LRSB 281530Z 36003KT CAVOK 22/06 Q1017 NOSIG=
201909281600 METAR LRSB 281600Z VRB01KT CAVOK 19/08 Q1017=
201909281630 METAR LRSB 281630Z 23004KT 9999 OVC085 17/12 Q1017=
201909281700 METAR LRSB 281700Z 26005KT 9999 BKN082 16/11 Q1017=
201909281730 METAR LRSB 281730Z 25003KT CAVOK 15/10 Q1017=
201909281800 METAR LRSB 281800Z 25003KT 220V280 CAVOK 16/10 Q1017=
201909281830 METAR LRSB 281830Z 10003KT CAVOK 15/11 Q1017=
201909281900 METAR LRSB 281900Z VRB02KT CAVOK 15/11 Q1017=
201909281930 METAR LRSB 281930Z VRB02KT CAVOK 14/10 Q1017=
201909282000 METAR LRSB 282000Z VRB01KT CAVOK 13/10 Q1017=
201909282030 METAR LRSB 282030Z VRB01KT CAVOK 13/10 Q1017=
201909282100 METAR LRSB 282100Z VRB01KT CAVOK 14/11 Q1017=
201909282130 METAR LRSB 282130Z VRB01KT CAVOK 12/10 Q1017=
201909282200 METAR LRSB 282200Z 03003KT 320V040 CAVOK 12/10 Q1017=
201909282230 METAR LRSB 282230Z 22001KT CAVOK 11/09 Q1017=
201909282300 METAR LRSB 282300Z 23004KT CAVOK 12/10 Q1017=
201909282330 METAR COR LRSB 282330Z 20005KT CAVOK 11/10 Q1017=
201909290000 METAR LRSB 290000Z VRB04KT CAVOK 11/10 Q1017=
201909290030 METAR LRSB 290030Z 00000KT CAVOK 13/10 Q1017=
201909290100 METAR LRSB 290100Z VRB02KT CAVOK 12/10 Q1017=
201909290130 METAR LRSB 290130Z 00000KT CAVOK 12/10 Q1017=
201909290200 METAR LRSB 290200Z 05004KT CAVOK 12/11 Q1017=
201909290230 METAR LRSB 290230Z VRB02KT CAVOK 12/10 Q1017=
201909290300 METAR LRSB 290300Z VRB02KT CAVOK 12/10 Q1017=
201909290330 METAR LRSB 290330Z VRB02KT CAVOK 12/11 Q1018=
201909290400 METAR LRSB 290400Z 19002KT CAVOK 11/10 Q1018=
201909290430 METAR LRSB 290430Z 21003KT CAVOK 11/10 Q1018=
201909290500 METAR LRSB 290500Z 17003KT 130V210 CAVOK 11/10 Q1018=
201909290530 METAR LRSB 290530Z 00000KT 9999 FEW018 13/12 Q1018=
201909290600 METAR LRSB 290600Z VRB01KT 9999 FEW020 14/12 Q1018=
201909290630 METAR LRSB 290630Z VRB02KT CAVOK 16/12 Q1018=
201909290700 METAR LRSB 290700Z 10005KT CAVOK 17/12 Q1018=
201909290730 METAR LRSB 290730Z 13004KT 100V170 9999 FEW025 17/12 Q1018=
201909290800 METAR LRSB 290800Z 12005KT 080V160 9999 FEW045 18/12 Q1018=
201909290830 METAR LRSB 290830Z VRB03KT 9999 FEW047 19/12 Q1018=
201909290900 METAR LRSB 290900Z VRB02KT 9999 FEW045 20/12 Q1018=
201909290930 METAR LRSB 290930Z 07004KT 010V120 9999 FEW042 21/12 Q1018=
201909291000 METAR LRSB 291000Z 05003KT 360V100 9999 FEW042 21/12 Q1018=
201909291030 METAR LRSB 291030Z VRB04KT 9999 FEW041 21/11 Q1017=
201909291100 METAR LRSB 291100Z 33005KT 290V360 9999 FEW042 22/10 Q1017=
201909291130 METAR LRSB 291130Z VRB03KT 9999 FEW040 23/10 Q1017=
201909291200 METAR LRSB 291200Z 33005KT 300V010 9999 FEW040 23/06 Q1016=
201909291230 METAR LRSB 291230Z 29008KT 9999 FEW040 24/06 Q1016=
201909291300 METAR LRSB 291300Z 31007KT 280V340 9999 FEW060 24/06 Q1016=
201909291330 METAR LRSB 291330Z 29005KT 260V330 9999 FEW062 24/07 Q1016=
201909291400 METAR LRSB 291400Z 30008KT 9999 FEW063 23/06 Q1015=
201909291430 METAR LRSB 291430Z 29007KT 9999 FEW068 23/07 Q1015=
201909291500 METAR LRSB 291500Z 31007KT CAVOK 22/07 Q1015=
201909291530 METAR LRSB 291530Z 30005KT CAVOK 22/08 Q1015=
201909291600 METAR LRSB 291600Z 29005KT CAVOK 18/09 Q1015=
201909291630 METAR LRSB 291630Z 25006KT CAVOK 16/10 Q1015=
201909291700 METAR LRSB 291700Z 25007KT CAVOK 15/10 Q1015 NOSIG=
201909291730 METAR COR LRSB 291730Z 26008KT CAVOK 15/10 Q1015 NOSIG=
201909291800 METAR LRSB 291800Z 24005KT 160V270 CAVOK 13/09 Q1015 NOSIG=
201909291830 METAR LRSB 291830Z VRB02KT CAVOK 13/10 Q1015 NOSIG=
201909291900 METAR LRSB 291900Z VRB02KT CAVOK 13/09 Q1015 NOSIG=
201909291930 METAR COR LRSB 291930Z VRB02KT CAVOK 13/09 Q1015 NOSIG=
201909292000 METAR LRSB 292000Z 09001KT CAVOK 13/09 Q1014 NOSIG=
201909292030 METAR LRSB 292030Z VRB02KT CAVOK 12/08 Q1014 NOSIG=
201909292100 METAR LRSB 292100Z 28002KT CAVOK 11/08 Q1014 NOSIG=
201909292130 METAR LRSB 292130Z VRB01KT CAVOK 10/08 Q1014 NOSIG=
201909292200 METAR LRSB 292200Z VRB02KT CAVOK 10/08 Q1014 NOSIG=
201909292230 METAR LRSB 292230Z 24003KT CAVOK 10/08 Q1014 NOSIG=
201909292300 METAR LRSB 292300Z 00000KT CAVOK 11/08 Q1013 NOSIG=
201909292330 METAR LRSB 292330Z 02002KT CAVOK 11/08 Q1013 NOSIG=
201909300000 METAR LRSB 300000Z VRB01KT CAVOK 09/07 Q1013 NOSIG=
201909300030 METAR LRSB 300030Z VRB01KT CAVOK 08/07 Q1013 NOSIG=
201909300100 METAR LRSB 300100Z VRB01KT CAVOK 09/08 Q1012 NOSIG=
201909300130 METAR LRSB 300130Z VRB01KT CAVOK 08/07 Q1012 NOSIG=
201909300200 METAR LRSB 300200Z 07002KT CAVOK 09/08 Q1012 NOSIG=
201909300230 METAR LRSB 300230Z VRB01KT CAVOK 08/06 Q1012 NOSIG=
201909300300 METAR LRSB 300300Z VRB01KT CAVOK 08/07 Q1011 NOSIG=
201909300330 METAR LRSB 300330Z VRB01KT CAVOK 08/06 Q1011 NOSIG=
201909300400 METAR LRSB 300400Z VRB01KT 9999 FEW060 08/07 Q1011 NOSIG=
201909300430 METAR LRSB 300430Z VRB01KT 9999 SCT056 09/08 Q1011 NOSIG=
201909300500 METAR LRSB 300500Z VRB01KT 9999 SCT061 09/08 Q1011 NOSIG=
201909300530 METAR LRSB 300530Z VRB02KT 9999 FEW065 11/09 Q1011 NOSIG=
201909300600 METAR LRSB 300600Z 10003KT CAVOK 13/10 Q1011=
201909300630 METAR LRSB 300630Z 11003KT 070V140 CAVOK 14/11 Q1011=
201909300700 METAR LRSB 300700Z 11004KT CAVOK 16/11 Q1011=
201909300730 METAR LRSB 300730Z 11004KT 080V140 CAVOK 17/11 Q1011=
201909300800 METAR LRSB 300800Z 05003KT 320V120 9999 FEW050 19/11 Q1010=
201909300830 METAR LRSB 300830Z 01005KT 320V040 9999 SCT050 21/12 Q1010=
201909300900 METAR LRSB 300900Z 33006KT 300V360 9999 SCT050 22/11 Q1011=
201909300930 METAR LRSB 300930Z 32006KT 280V360 9999 SCT047 22/12 Q1011=
201909301000 METAR LRSB 301000Z 31011KT 270V330 9999 FEW045TCU SCT048
                        22/11 Q1011=
201909301030 METAR LRSB 301030Z 29016KT 9999 SCT040 SCT071 23/11 Q1010=
201909301100 METAR LRSB 301100Z 29016KT 9999 SCT045 SCT075 24/11 Q1010=
201909301130 METAR LRSB 301130Z 30018KT 9999 SCT055 22/11 Q1010=
201909301200 METAR LRSB 301200Z 31017KT 9999 SCT045 24/10 Q1010=
201909301230 METAR LRSB 301230Z 29020KT 9999 SCT045 24/09 Q1009=
201909301300 METAR LRSB 301300Z 30015KT 9999 SCT045 SCT084 23/10 Q1009=
201909301330 METAR LRSB 301330Z 33009KT 9999 OVC083 22/11 Q1009=
201909301400 METAR LRSB 301400Z 32012KT 9999 OVC084 22/11 Q1009=
201909301430 METAR LRSB 301430Z 32010KT 9999 OVC086 22/11 Q1009=
201909301500 METAR LRSB 301500Z 31010KT 9999 OVC085 21/12 Q1009=
201909301530 METAR LRSB 301530Z 32010KT 9999 OVC085 21/12 Q1009=
201909301600 METAR LRSB 301600Z 31008KT CAVOK 20/12 Q1009=
201909301630 METAR LRSB 301630Z 30009KT CAVOK 20/12 Q1009=
201909301700 METAR LRSB 301700Z 24006KT CAVOK 18/12 Q1009=
201909301730 METAR LRSB 301730Z 19003KT 160V220 CAVOK 17/12 Q1009=
201909301800 METAR LRSB 301800Z 22005KT CAVOK 15/12 Q1010=
201909301830 METAR LRSB 301830Z 00000KT CAVOK 15/11 Q1010=
201909301900 METAR LRSB 301900Z 24007KT CAVOK 14/11 Q1010=
201909301930 METAR LRSB 301930Z 27009KT CAVOK 16/11 Q1010=
201909302000 METAR LRSB 302000Z 27009KT 9999 SCT087 16/11 Q1010=
201909302030 METAR LRSB 302030Z 27006KT 9999 FEW077 BKN085 18/12 Q1010=
201909302100 METAR LRSB 302100Z 29011KT 9999 FEW041 SCT066 20/12 Q1011=
201909302130 METAR LRSB 302130Z 30013KT 9999 FEW040 BKN063 20/12 Q1011=
201909302200 METAR LRSB 302200Z 29012KT 9999 SCT048 BKN060 19/12 Q1012=
201909302230 METAR LRSB 302230Z 27007KT 9999 SCT050 BKN060 19/12 Q1012=
201909302300 METAR LRSB 302300Z 26008KT 9999 BKN062 17/11 Q1012=
201909302330 METAR LRSB 302330Z 27007KT 9999 BKN067 17/08 Q1012=