201910010500 TAF LRSB 010500Z 0106/0206 VRB04KT CAVOK
                      BECMG 0108/0110 32010KT
                      BECMG 0115/0117 VRB04KT=
201910011100 TAF LRSB 011100Z 0112/0212 VRB04KT CAVOK
                      BECMG 0208/0210 15010KT=
201910011700 TAF LRSB 011700Z 0118/0218 VRB04KT CAVOK
                      BECMG 0209/0211 14010KT
                      BECMG 0215/0217 VRB04KT=
201910012300 TAF LRSB 012300Z 0200/0224 VRB04KT CAVOK
                      BECMG 0209/0211 14010KT
                      BECMG 0215/0217 VRB04KT=
201910020500 TAF LRSB 020500Z 0206/0306 VRB04KT CAVOK
                      TEMPO 0210/0215 17010KT=
201910021100 TAF LRSB 021100Z 0212/0312 18012KT CAVOK
                      BECMG 0216/0218 VRB04KT
                      TEMPO 0309/0312 5000 -SHRA SCT040CB=
201910021700 TAF LRSB 021700Z 0218/0318 21008KT CAVOK
                      BECMG 0307/0309 33012KT
                      BECMG 0310/0312 SCT040CB
                      TEMPO 0314/0318 VRB15G25KT 3000 TSRA BKN010
                       BKN035CB=
201910022300 TAF LRSB 022300Z 0300/0324 VRB04KT CAVOK
                      BECMG 0307/0309 33012KT
                      BECMG 0309/0311 SCT040CB
                      TEMPO 0311/0316 VRB15G25KT 3000 TSRA
                      BECMG 0316/0318 5000 SHRA BKN010 SCT035CB=
201910030500 TAF LRSB 030500Z 0306/0406 VRB04KT 9999 BKN045
                      BECMG 0307/0309 33012KT
                      TEMPO 0311/0318 VRB15G25KT 3000 TSRA BKN015
                       BKN035CB
                      BECMG 0318/0320 VRB04KT 5000 RA BKN015 OVC045
                       TEMPO 0320/0324 3000 SHRA BKN010 BKN025CB
                       OVC030=
201910031100 TAF LRSB 031100Z 0312/0412 33012KT 9999 BKN045
                      TEMPO 0312/0318 VRB15G25KT 3000 TSRA BKN015
                       BKN035CB
                      BECMG 0318/0320 VRB04KT 5000 RA BKN015 OVC045
                       TEMPO 0320/0324 3000 SHRA BKN010 BKN025CB
                       OVC030=
201910031700 TAF LRSB 031700Z 0318/0418 34010KT 9999 SCT030 BKN055
                      BECMG 0319/0321 VRB04KT
                      BECMG 0321/0323 5000 -RA BR BKN010 BKN040
                       TEMPO 0323/0406 3000 RA BR BKN005 OVC030
                       BECMG 0408/0410 9999 NSW BKN040
                      TEMPO 0414/0418 5000 RA BR BKN015 BKN040=
201910032300 TAF LRSB 032300Z 0400/0424 VRB04KT 9999 BKN035
                      TEMPO 0400/0408 3000 RA BR BKN010 OVC030
                       TEMPO 0414/0420 5000 RA BR BKN015 BKN040=
201910040500 TAF LRSB 040500Z 0406/0506 VRB04KT 7000 SCT015 BKN040
                      TEMPO 0406/0412 5000 RA BKN010 BKN040
                      TEMPO 0416/0421 5000 RA BKN010 BKN040=
201910041100 TAF LRSB 041100Z 0412/0512 VRB04KT 9999 SCT015 BKN040
                      TEMPO 0412/0418 5000 -RA BKN010 BKN040
                      BECMG 0420/0422 5000 BR
                      TEMPO 0500/0506 3000 BR BKN010
                      BECMG 0506/0508 9999 NSW=
201910041700 TAF LRSB 041700Z 0418/0518 VRB04KT 9999 BKN015 BKN040
                      TEMPO 0418/0420 5000 RA BKN010 OVC035
                      BECMG 0420/0422 5000 BR
                      TEMPO 0500/0506 1500 BR BKN005
                      BECMG 0506/0508 9999 NSW BKN025=
201910042300 TAF LRSB 042300Z 0500/0524 VRB04KT 5000 BR BKN015 BKN040
                      TEMPO 0500/0506 1500 BR BKN005
                      BECMG 0506/0508 9999 NSW BKN025
                      PROB40 TEMPO 0513/0518 5000 RA BR BKN015
                       OVC030
                      BECMG 0522/0524 5000 RA BKN015 OVC030=
201910050500 TAF LRSB 050500Z 0506/0606 VRB04KT 9999 SCT015 BKN050
                      TEMPO 0506/0509 5000 BR BKN005 BKN040
                      BECMG 0521/0523 5000 -RA BKN015 BKN040
                      TEMPO 0600/0606 3000 RA BR BKN010 OVC030=
201910051100 TAF LRSB 051100Z 0512/0612 VRB04KT 9999 SCT015 SCT040
                      BECMG 0521/0523 5000 -RA BKN015 BKN040
                      TEMPO 0600/0606 3000 RA BR BKN010 OVC030=
201910051700 TAF LRSB 051700Z 0518/0618 VRB04KT 9999 SCT015 SCT040
                      BECMG 0521/0523 5000 -RA BR BKN015 BKN040
                       TEMPO 0604/0612 3000 -SHRA BKN010 OVC030
                       BECMG 0607/0609 33010KT
                      BECMG 0613/0615 7000 NSW BKN040=
201910052300 TAF LRSB 052300Z 0600/0624 VRB04KT 7000 BKN050
                      TEMPO 0600/0612 5000 -RA BR BKN015 BKN040
                       PROB40
                      TEMPO 0604/0612 3000 -SHRA BKN010 OVC030
                       BECMG 0607/0609 33010KT=
201910060500 TAF LRSB 060500Z 0606/0706 VRB04KT 9999 SCT050
                      TEMPO 0606/0608 5000 -RA BR BKN015 BKN040
                       BECMG 0608/0609 31010KT
                      BECMG 0618/0620 5000 BR BKN010 OVC030
                      TEMPO 0621/0701 3000 RA BR BKN005 OVC025
                       BECMG 0701/0703 VRB04KT SCT020 BKN045=
201910061100 TAF LRSB 061100Z 0612/0712 29012KT 9999 SCT045
                      BECMG 0618/0620 5000 BR BKN010 OVC030
                      TEMPO 0621/0701 3000 RA BR BKN005 OVC025
                       BECMG 0701/0703 VRB04KT SCT020 BKN035
                      BECMG 0705/0707 9999 NSW=
201910061700 TAF LRSB 061700Z 0618/0718 30010KT 9999 BKN040
                      TEMPO 0618/0620 5000 -SHRA BKN010 SCT030CB
                       OVC040
                      BECMG 0620/0622 VRB04KT
                      PROB40 TEMPO 0702/0706 BKN010 SCT040=
201910062300 TAF AMD LRSB 070322Z 0703/0724 VRB04KT 9999 BKN025
                      PROB30 TEMPO 0703/0706 BKN010 SCT025=
201910070322 TAF AMD LRSB 070322Z 0703/0724 VRB04KT 9999 BKN025
                      PROB30 TEMPO 0703/0706 BKN010 SCT025=
201910070500 TAF LRSB 070500Z 0706/0806 VRB04KT 9999 BKN025
                      PROB30 TEMPO 0711/0717 5000 RA BKN010 OVC020=
201910071100 TAF LRSB 071100Z 0712/0812 VRB04KT 9999 BKN025
                      PROB30 TEMPO 0712/0717 5000 SHRA SCT025CB
                       BKN030=
201910071700 TAF LRSB 071700Z 0718/0818 VRB04KT 9999 SCT045
                      PROB30 TEMPO 0800/0805 3000 BR=
201910072300 TAF LRSB 072300Z 0800/0824 VRB04KT 9999 SCT045=
201910080500 TAF LRSB 080500Z 0806/0906 VRB04KT CAVOK
                      TEMPO 0823/0905 5000 BR=
201910081100 TAF LRSB 081100Z 0812/0912 VRB04KT 9999 SCT045
                      TEMPO 0823/0905 5000 BR=
201910081700 TAF LRSB 081700Z 0818/0918 VRB04KT CAVOK
                      TEMPO 0900/0905 3000 BR=
201910082300 TAF LRSB 082300Z 0900/0924 VRB04KT CAVOK
                      TEMPO 0900/0905 3000 BR=
201910090500 TAF LRSB 090500Z 0906/1006 VRB04KT CAVOK=
201910091100 TAF LRSB 091100Z 0912/1012 VRB04KT CAVOK=
201910091700 TAF LRSB 091700Z 0918/1018 VRB04KT CAVOK
                      BECMG 1007/1009 31010KT
                      PROB30 TEMPO 1013/1018 SCT045CB=
201910092300 TAF LRSB 092300Z 1000/1024 VRB04KT CAVOK
                      BECMG 1007/1009 31010KT
                      PROB30 TEMPO 1013/1018 SCT045CB
                      BECMG 1018/1020 VRB04KT 3000 RA BKN010 BKN040=
201910100500 TAF LRSB 100500Z 1006/1106 VRB04KT CAVOK
                      BECMG 1007/1009 31010KT
                      BECMG 1018/1020 VRB04KT 5000 -RA BKN015 OVC035
                       BECMG 1103/1105 CAVOK=
201910101100 TAF LRSB 101100Z 1012/1112 VRB04KT CAVOK
                      BECMG 1018/1020 5000 -RA BKN015 OVC035
                      BECMG 1103/1105 CAVOK=
201910101700 TAF LRSB 101700Z 1018/1118 VRB04KT CAVOK
                      BECMG 1018/1020 5000 -RA BKN015 OVC035
                      BECMG 1021/1023 1500 BR BKN005
                      PROB30 TEMPO 1100/1103 0600 FG VV002
                      BECMG 1105/1107 7000 NSW BKN015
                      BECMG 1107/1109 CAVOK=
201910102300 TAF AMD LRSB 110329Z 1103/1124 VRB04KT CAVOK
                      TEMPO 1103/1105 3000 BR
                      BECMG 1106/1108 32010KT
                      BECMG 1114/1116 VRB04KT=
201910110329 TAF AMD LRSB 110329Z 1103/1124 VRB04KT CAVOK
                      TEMPO 1103/1105 3000 BR
                      BECMG 1106/1108 32010KT
                      BECMG 1114/1116 VRB04KT=
201910110500 TAF LRSB 110500Z 1106/1206 VRB04KT CAVOK
                      BECMG 1106/1108 32010KT
                      BECMG 1114/1116 VRB04KT
                      TEMPO 1201/1205 3000 BR=
201910111100 TAF LRSB 111100Z 1112/1212 31014KT CAVOK
                      BECMG 1114/1116 VRB04KT
                      TEMPO 1201/1205 3000 BR=
201910111700 TAF LRSB 111700Z 1118/1218 VRB04KT CAVOK
                      PROB30 TEMPO 1201/1205 3000 BR=
201910112300 TAF LRSB 112300Z 1200/1224 VRB04KT CAVOK
                      PROB30 TEMPO 1201/1205 3000 BR=
201910120500 TAF LRSB 120500Z 1206/1306 VRB04KT CAVOK=
201910121100 TAF LRSB 121100Z 1212/1312 VRB04KT CAVOK=
201910121700 TAF LRSB 121700Z 1218/1318 VRB04KT CAVOK=
201910122300 TAF LRSB 122300Z 1300/1324 VRB04KT CAVOK=
201910130500 TAF LRSB 130500Z 1306/1406 VRB04KT CAVOK=
201910131100 TAF LRSB 131100Z 1312/1412 VRB04KT CAVOK=
201910131700 TAF LRSB 131700Z 1318/1418 VRB04KT CAVOK
                      PROB40 TEMPO 1402/1405 3000 BR=
201910132300 TAF AMD LRSB 140520Z 1405/1424 VRB04KT 0450 FG NSC
                      TEMPO 1405/1406 0150 FG VV001
                      BECMG 1406/1407 3000 BR
                      BECMG 1407/1408 9999 NSW=
201910140520 TAF AMD LRSB 140520Z 1405/1424 VRB04KT 0450 FG NSC
                      TEMPO 1405/1406 0150 FG VV001
                      BECMG 1406/1407 3000 BR
                      BECMG 1407/1408 9999 NSW=
201910140525 TAF LRSB 140525Z 1406/1506 VRB04KT 0600 FG NSC
                      BECMG 1406/1407 3000 BR
                      BECMG 1407/1408 9999 NSW
                      TEMPO 1502/1505 3000 BR=
201910141731 TAF LRSB 1418/1518 VRB04KT CAVOK
                      TEMPO 1502/1506 3000 BR
                      BECMG 1514/1516 21010KT=
201910141757 TAF COR LRSB 141757Z 1418/1518 VRB04KT CAVOK
                      TEMPO 1502/1506 3000 BR
                      BECMG 1514/1516 21010KT=
201910142300 TAF AMD LRSB 150347Z 1503/1524 VRB04KT CAVOK=
201910150347 TAF AMD LRSB 150347Z 1503/1524 VRB04KT CAVOK=
201910150500 TAF LRSB 150500Z 1506/1606 VRB04KT CAVOK
                      TEMPO 1506/1507 3000 BR
                      TEMPO 1600/1605 3000 BR=
201910151100 TAF LRSB 151100Z 1512/1612 VRB04KT CAVOK
                      TEMPO 1600/1605 3000 BR=
201910151700 TAF LRSB 151700Z 1518/1618 VRB04KT CAVOK
                      TEMPO 1601/1606 3000 BR=
201910152300 TAF LRSB 152300Z 1600/1624 VRB04KT CAVOK
                      TEMPO 1601/1606 3000 BR=
201910160500 TAF LRSB 160500Z 1606/1706 VRB04KT CAVOK
                      TEMPO 1701/1705 3000 BR=
201910161100 TAF LRSB 161100Z 1612/1712 VRB04KT CAVOK
                      TEMPO 1701/1705 3000 BR=
201910161700 TAF LRSB 161700Z 1618/1718 VRB04KT CAVOK
                      TEMPO 1701/1705 3000 BR=
201910162300 TAF LRSB 162300Z 1700/1724 VRB04KT CAVOK
                      TEMPO 1700/1705 3000 BR=
201910170500 TAF LRSB 170500Z 1706/1806 VRB04KT CAVOK
                      TEMPO 1706/1707 5000 BR
                      TEMPO 1802/1806 5000 BR=
201910171100 TAF LRSB 171100Z 1712/1812 VRB04KT CAVOK
                      TEMPO 1803/1806 5000 BR=
201910171700 TAF LRSB 171700Z 1718/1818 VRB04KT CAVOK
                      TEMPO 1803/1806 5000 BR=
201910172300 TAF LRSB 172300Z 1800/1824 VRB04KT CAVOK
                      TEMPO 1803/1806 5000 BR=
201910180500 TAF LRSB 180500Z 1806/1906 VRB04KT 3000 BR NSC
                      PROB40 TEMPO 1806/1807 0800 FG BKN001
                      BECMG 1807/1809 9999 NSW
                      BECMG 1900/1902 5000 BR
                      TEMPO 1902/1906 1500 BR=
201910181100 TAF LRSB 181100Z 1812/1912 VRB04KT CAVOK
                      BECMG 1900/1902 5000 BR
                      TEMPO 1902/1906 1500 BR
                      BECMG 1906/1908 9999 NSW=
201910181700 TAF LRSB 181700Z 1818/1918 VRB04KT CAVOK
                      BECMG 1823/1901 5000 BR
                      TEMPO 1903/1906 1500 BR
                      BECMG 1906/1908 9999 NSW=
201910182300 TAF LRSB 182300Z 1900/1924 VRB04KT CAVOK
                      BECMG 1900/1902 5000 BR
                      TEMPO 1903/1906 1500 BR
                      BECMG 1906/1908 9999 NSW=
201910190500 TAF LRSB 190500Z 1906/2006 VRB04KT CAVOK
                      TEMPO 1906/1908 3000 BR=
201910191100 TAF LRSB 191100Z 1912/2012 VRB04KT CAVOK
                      TEMPO 2006/2008 3000 BR=
201910191700 TAF LRSB 191700Z 1918/2018 VRB04KT CAVOK
                      TEMPO 2001/2005 3000 BR=
201910192300 TAF LRSB 192300Z 2000/2024 VRB04KT CAVOK
                      BECMG 2001/2003 3000 BR
                      PROB30 TEMPO 2003/2006 0600 FG BKN002
                      BECMG 2006/2008 CAVOK=
201910200500 TAF LRSB 200500Z 2006/2106 VRB04KT CAVOK
                      TEMPO 2006/2008 3000 BR
                      TEMPO 2103/2106 3000 BR=
201910201100 TAF LRSB 201100Z 2012/2112 11008KT CAVOK
                      TEMPO 2103/2107 3000 BR=
201910201700 TAF LRSB 201700Z 2018/2118 11008KT CAVOK
                      TEMPO 2101/2107 3000 BR=
201910202300 TAF LRSB 202300Z 2100/2124 11008KT CAVOK
                      TEMPO 2101/2107 3000 BR=
201910210500 TAF LRSB 210500Z 2106/2206 VRB04KT CAVOK
                      TEMPO 2106/2107 5000 BR=
201910211100 TAF LRSB 211100Z 2112/2212 VRB04KT CAVOK
                      PROB40 TEMPO 2203/2206 5000 BR=
201910211700 TAF LRSB 211700Z 2118/2218 VRB04KT CAVOK
                      TEMPO 2203/2207 5000 BR=
201910212300 TAF LRSB 212300Z 2200/2224 VRB04KT CAVOK
                      TEMPO 2203/2207 5000 BR=
201910220500 TAF LRSB 220500Z 2206/2306 VRB04KT CAVOK
                      TEMPO 2301/2306 5000 BR=
201910221100 TAF LRSB 221100Z 2212/2312 VRB04KT CAVOK
                      TEMPO 2301/2306 5000 BR=
201910221700 TAF LRSB 221700Z 2218/2318 VRB04KT CAVOK
                      TEMPO 2302/2306 5000 BR=
201910222300 TAF LRSB 222300Z 2300/2324 VRB04KT CAVOK
                      TEMPO 2302/2306 5000 BR=
201910230500 TAF LRSB 230500Z 2306/2406 VRB04KT CAVOK
                      TEMPO 2306/2308 3000 BR=
201910231100 TAF LRSB 231100Z 2312/2412 VRB04KT CAVOK
                      TEMPO 2402/2406 3000 BR=
201910231700 TAF LRSB 231700Z 2318/2418 VRB04KT CAVOK
                      TEMPO 2402/2406 3000 BR=
201910232300 TAF LRSB 232300Z 2400/2424 VRB04KT CAVOK
                      TEMPO 2402/2406 3000 BR=
201910240500 TAF LRSB 240500Z 2406/2506 VRB04KT CAVOK
                      TEMPO 2502/2506 3000 BR=
201910241100 TAF LRSB 241100Z 2412/2512 VRB04KT CAVOK
                      TEMPO 2502/2506 3000 BR=
201910241700 TAF LRSB 241700Z 2418/2518 VRB04KT CAVOK
                      TEMPO 2502/2506 3000 BR=
201910242300 TAF LRSB 242300Z 2500/2524 VRB04KT CAVOK
                      TEMPO 2502/2506 3000 BR=
201910250500 TAF LRSB 250500Z 2506/2606 VRB04KT CAVOK
                      TEMPO 2506/2507 5000 MIFG BR
                      TEMPO 2604/2606 5000 MIFG BR=
201910251100 TAF LRSB 251100Z 2512/2612 VRB04KT CAVOK
                      TEMPO 2604/2606 5000 MIFG BR=
201910251700 TAF LRSB 251700Z 2518/2618 VRB04KT CAVOK
                      TEMPO 2604/2606 5000 MIFG BR=
201910252300 TAF LRSB 252300Z 2600/2624 VRB04KT CAVOK
                      TEMPO 2604/2606 5000 MIFG BR=
201910260500 TAF LRSB 260500Z 2606/2706 VRB04KT CAVOK=
201910261100 TAF LRSB 261100Z 2612/2712 VRB04KT CAVOK=
201910261700 TAF LRSB 261700Z 2618/2718 VRB04KT CAVOK
                      TEMPO 2702/2706 5000 MIFG BR=
201910262300 TAF LRSB 262300Z 2700/2724 VRB04KT 3000 BR NSC
                      TEMPO 2701/2706 1500 MIFG BR
                      BECMG 2706/2708 9999 NSW=
201910270500 TAF LRSB 270500Z 2706/2806 VRB04KT 3000 BR NSC
                      BECMG 2706/2708 CAVOK
                      TEMPO 2800/2806 3000 BR BKN010=
201910271100 TAF LRSB 271100Z 2712/2812 VRB04KT CAVOK
                      TEMPO 2800/2806 3000 BR BKN010=
201910271700 TAF LRSB 271700Z 2718/2818 VRB04KT CAVOK
                      TEMPO 2800/2806 3000 BR=
201910272300 TAF LRSB 272300Z 2800/2824 VRB04KT CAVOK
                      TEMPO 2800/2806 3000 BR=
201910280500 TAF LRSB 280500Z 2806/2906 VRB04KT CAVOK
                      TEMPO 2901/2905 5000 BR BKN015=
201910281100 TAF LRSB 281100Z 2812/2912 VRB04KT CAVOK
                      TEMPO 2901/2905 5000 BR BKN015=
201910281700 TAF LRSB 281700Z 2818/2918 VRB04KT CAVOK
                      TEMPO 2900/2905 3000 BR BKN010
                      BECMG 2913/2915 BKN015 BKN040
                      BECMG 2915/2917 5000 -RA BR BKN010 OVC035=
201910282300 TAF LRSB 282300Z 2900/2924 VRB04KT CAVOK
                      TEMPO 2900/2905 3000 BR BKN010
                      BECMG 2913/2915 BKN015 BKN040
                      BECMG 2915/2917 5000 -RA BR BKN010 OVC035=
201910290500 TAF LRSB 290500Z 2906/3006 VRB04KT 5000 BR NSC
                      BECMG 2906/2907 9999 NSW
                      BECMG 2914/2916 5000 -RA BR BKN010 OVC035
                       TEMPO 2918/2922 3000 RA BR=
201910291100 TAF LRSB 291100Z 2912/3012 VRB04KT 5000 BR BKN060
                      TEMPO 2912/2914 8000 NSW
                      BECMG 2914/2916 3000 -RA BR BKN015 OVC045
                       PROB30
                      TEMPO 2918/2922 1500 RA BKN005 OVC030
                      BECMG 3007/3009 7000 NSW SCT015 BKN050=
201910291700 TAF LRSB 291700Z 2918/3018 VRB04KT 3000 BR SCT015 BKN035
                      TEMPO 2918/3004 1500 -RA BR BKN010 OVC030
                       BECMG 3006/3008 7000 NSW
                      BECMG 3012/3014 3000 -RA BR BKN015 BKN035
                       TEMPO 3014/3018 1500 RA BKN010 OVC030=
201910292300 TAF LRSB 292300Z 3000/3024 VRB04KT 9999 SCT015 BKN035
                      TEMPO 3000/3004 5000 -RA BR BKN010 OVC030
                       BECMG 3012/3014 5000 -RA BR BKN015 BKN035
                       TEMPO 3016/3024 3000 RA BR BKN010 OVC030=
201910300500 TAF LRSB 300500Z 3006/3106 VRB04KT 7000 BKN020
                      BECMG 3012/3014 5000 -RA BR BKN015 BKN030
                       TEMPO 3014/3022 3000 RA BR BKN010 OVC025
                       TEMPO 3022/3106 1500 RA BR BKN005 OVC020=
201910301029 TAF AMD LRSB 301029Z 3010/3106 VRB04KT 3000 -RA BR BKN010 OVC020
                       TEMPO 3012/3015 7000 NSW SCT015 OVC025
                      TEMPO 3015/3022 1500 RA BR BKN005 OVC015
                       TEMPO 3022/3106 1500 -RADZ BR OVC002=
201910301100 TAF LRSB 301100Z 3012/3112 VRB04KT 3000 -RA BR BKN010 OVC020
                      PROB40 TEMPO 3012/3015 5000 SCT010 OVC025
                       TEMPO 3015/3022 1500 RA BR BKN005 OVC015
                       PROB30
                      TEMPO 3022/3106 1500 -RADZ BR OVC002
                      BECMG 3108/3110 9999 NSW BKN015 OVC030=
201910301700 TAF LRSB 301700Z 3018/3118 VRB04KT 3000 -RA BR SCT010 OVC020
                      TEMPO 3018/3022 1500 RA BR BKN005 OVC015
                       PROB30
                      TEMPO 3022/3106 1500 -RADZ BR OVC002
                      BECMG 3108/3110 9999 NSW=
201910302300 TAF LRSB 302300Z 3100/3124 VRB04KT 5000 -RA BR SCT010 OVC020
                      TEMPO 3100/3107 1500 -RADZ BR BKN002 OVC010
                       BECMG 3108/3110 8000 NSW=
201910310500 TAF LRSB 310500Z 3106/0106 VRB04KT 8000 -RA BKN010 OVC020
                      TEMPO 3106/3108 3000 -RADZ BR BKN005 OVC015
                       BECMG 3122/3124 5000 BR=
201910311100 TAF LRSB 311100Z 3112/0112 12006KT 9999 BKN015 BKN030
                      PROB30 TEMPO 3112/3115 5000 -RA BKN005 OVC020
                       TEMPO 0100/0106 3000 BR OVC010=
201910311700 TAF LRSB 311700Z 3118/0118 10006KT 9999 BKN015 BKN030
                      PROB30 TEMPO 3118/3122 5000 -RA BKN005 OVC020
                       TEMPO 0100/0106 3000 BR OVC010=
201910312300 TAF LRSB 312300Z 0100/0124 10006KT 9999 BKN060
                      TEMPO 0100/0106 3000 BR BKN010=
