201901010200 TAF LRCV 010200Z 0103/0112 09005KT 1500 BR NSC
                      TEMPO 0103/0106 0350=
201901010500 TAF LRCV 010500Z 0106/0115 VRB04KT 0150 FZFG VV001
                      BECMG 0107/0109 1500 BR BKN005
                      BECMG 0109/0111 7000 NSW BKN020=
201901010800 TAF LRCV 010800Z 0109/0118 VRB04KT 0350 FG VV001
                      BECMG 0109/0111 1500 BR OVC005
                      TEMPO 0111/0115 3000 BR BKN020=
201901011100 TAF LRCV 011100Z 0112/0121 VRB04KT 7000 SCT010 BKN020
                      BECMG 0114/0116 3000 BR BKN010
                      BECMG 0117/0119 1500 BR BKN005=
201901011400 TAF LRCV 011400Z 0115/0124 30006KT 5000 BR BKN015
                      BECMG 0115/0117 3000 BR BKN010
                      BECMG 0117/0119 1500 BR BKN005
                      PROB30 TEMPO 0119/0124 0600 FZFG VV002=
201901011700 TAF LRCV 011700Z 0118/0203 25006KT 7000 BKN015
                      PROB40 TEMPO 0120/0203 3000 BR BKN010=
201901012000 TAF LRCV 012000Z 0121/0206 25006KT 9999 BKN010
                      PROB40 TEMPO 0123/0205 3000 BR BKN005=
201901012300 TAF AMD LRCV 020039Z 0200/0209 22006KT 0600 FZFG VV001
                      TEMPO 0200/0203 0150 FZFG
                      BECMG 0203/0205 1500 BR BKN005
                      BECMG 0205/0207 29016KT 5000 BKN010=
201901020039 TAF AMD LRCV 020039Z 0200/0209 22006KT 0600 FZFG VV001
                      TEMPO 0200/0203 0150 FZFG
                      BECMG 0203/0205 1500 BR BKN005
                      BECMG 0205/0207 29016KT 5000 BKN010=
201901020216 TAF COR LRCV 020216Z 0203/0212 22006KT 0600 FZFG VV001
                      PROB30 TEMPO 0203/0205 1500 BR BKN005
                      BECMG 0205/0207 29012KT 3000 BR BKN010
                      BECMG 0208/0210 CAVOK=
201901020314 TAF AMD LRCV 020314Z 0203/0212 22006KT 5000 BR NSC
                      TEMPO 0203/0206 1500 BR BKN005
                      BECMG 0206/0208 29012KT CAVOK=
201901020500 TAF LRCV 020500Z 0206/0215 22006KT CAVOK
                      BECMG 0207/0209 29012KT=
201901020800 TAF LRCV 020800Z 0209/0218 VRB04KT CAVOK
                      BECMG 0209/0211 29012KT=
201901021100 TAF LRCV 021100Z 0212/0221 29018KT 9999 SCT040
                      BECMG 0218/0220 29008KT=
201901021400 TAF LRCV 021400Z 0215/0224 29018KT 9999 SCT040
                      BECMG 0217/0219 29008KT=
201901021700 TAF LRCV 021700Z 0218/0303 29012KT 9999 SCT040
                      BECMG 0220/0222 VRB04KT=
201901022000 TAF LRCV 022000Z 0221/0306 27006KT CAVOK
                      PROB30 TEMPO 0300/0306 5000 BR=
201901022300 TAF LRCV 022300Z 0300/0309 28005KT CAVOK
                      PROB30 TEMPO 0301/0306 5000 BR=
201901030200 TAF LRCV 030200Z 0303/0312 28006KT CAVOK
                      PROB30 TEMPO 0303/0306 5000 BR=
201901030500 TAF LRCV 030500Z 0306/0315 30008KT CAVOK
                      BECMG 0312/0314 06010KT=
201901030800 TAF LRCV 030800Z 0309/0318 VRB04KT CAVOK
                      BECMG 0312/0314 04010KT=
201901031100 TAF LRCV 031100Z 0312/0321 30006KT CAVOK
                      BECMG 0313/0315 03010KT
                      TEMPO 0317/0321 5000 -SN BKN010 OVC025=
201901031400 TAF LRCV 031400Z 0315/0324 VRB03KT CAVOK
                      BECMG 0315/0317 03010KT
                      TEMPO 0317/0322 5000 -SN BKN010 OVC025=
201901031700 TAF LRCV 031700Z 0318/0403 03008KT 9999 SCT040
                      TEMPO 0318/0323 5000 -SN BKN010 OVC030=
201901032000 TAF LRCV 032000Z 0321/0406 05012KT 9999 BKN040
                      TEMPO 0321/0324 5000 -SN BKN010 OVC030
                      BECMG 0400/0402 VRB04KT=
201901032300 TAF LRCV 032300Z 0400/0409 VRB04KT 9999 BKN040
                      PROB30 TEMPO 0400/0402 5000 -SN=
201901040200 TAF LRCV 040200Z 0403/0412 VRB04KT 9999 BKN035=
201901040500 TAF LRCV 040500Z 0406/0415 VRB04KT 9999 BKN030=
201901040800 TAF LRCV 040800Z 0409/0418 22006KT 9999 BKN030
                      TEMPO 0409/0412 3000 -SN BKN010 OVC025=
201901041100 TAF LRCV 041100Z 0412/0421 VRB04KT 9999 BKN015 OVC025
                      PROB30 TEMPO 0412/0415 5000 -SN BKN010 OVC020=
201901041400 TAF LRCV 041400Z 0415/0424 VRB04KT 9999 BKN030
                      BECMG 0417/0419 5000 BR BKN010=
201901041700 TAF LRCV 041700Z 0418/0503 VRB04KT CAVOK=
201901042000 TAF LRCV 042000Z 0421/0506 VRB04KT CAVOK
                      TEMPO 0500/0506 5000 BR=
201901042300 TAF LRCV 042300Z 0500/0509 VRB04KT CAVOK
                      TEMPO 0502/0506 5000 BR
                      BECMG 0507/0509 26010KT=
201901050200 TAF LRCV 050200Z 0503/0512 VRB04KT CAVOK
                      TEMPO 0503/0506 5000 BR
                      BECMG 0508/0510 26010KT=
201901050427 TAF AMD LRCV 050427Z 0504/0512 VRB04KT 0200 FZFG VV001
                      BECMG 0504/0506 0800 VV002
                      BECMG 0506/0508 3000 BR BKN005
                      BECMG 0508/0510 26010KT 9999 NSW SCT020=
201901050500 TAF LRCV 050500Z 0506/0515 VRB04KT 0800 FZFG BKN002
                      TEMPO 0506/0507 0350 FZFG OVC001
                      BECMG 0507/0509 26010KT 3000 BR BKN005
                      BECMG 0510/0512 9999 NSW SCT025=
201901050800 TAF LRCV 050800Z 0509/0518 VRB04KT 3000 BR NSC
                      BECMG 0509/0511 26010KT 7000 NSW=
201901051100 TAF LRCV 051100Z 0512/0521 27010KT CAVOK=
201901051400 TAF LRCV 051400Z 0515/0524 28008KT CAVOK
                      TEMPO 0521/0524 5000 -SN BR BKN015 BKN030=
201901051700 TAF LRCV 051700Z 0518/0603 28010KT 9999 BR BKN030
                      PROB40 TEMPO 0600/0603 5000 -SN BR BKN015
                       OVC025=
201901052000 TAF LRCV 052000Z 0521/0606 24008KT 5000 BR BKN025
                      TEMPO 0600/0604 1500 SN BKN005 OVC020=
201901052300 TAF LRCV 052300Z 0600/0609 24008KT CAVOK
                      PROB30 TEMPO 0601/0605 3000 -SN BKN010 OVC020=
201901060200 TAF LRCV 060200Z 0603/0612 29008KT 5000 -SN BKN010 OVC025
                      TEMPO 0603/0607 1500 SN BKN005 OVC020
                      BECMG 0607/0609 9999 NSW BKN030=
201901060500 TAF LRCV 060500Z 0606/0615 32006KT 5000 BR SCT010 BKN035
                      TEMPO 0606/0608 3000 BR BKN005 BKN030
                      BECMG 0608/0610 9999 NSW=
201901060800 TAF LRCV 060800Z 0609/0618 30010KT 7000 NSC
                      BECMG 0615/0617 VRB04KT=
201901061100 TAF LRCV 061100Z 0612/0621 VRB04KT CAVOK=
201901061400 TAF LRCV 061400Z 0615/0624 VRB04KT CAVOK
                      PROB30 TEMPO 0621/0624 5000 -SN=
201901061700 TAF LRCV 061700Z 0618/0703 20008KT CAVOK
                      BECMG 0623/0701 04010KT 5000 -SN BR BKN015
                       BKN040=
201901062000 TAF LRCV 062000Z 0621/0706 33008KT 9999 BKN045
                      BECMG 0622/0624 05010KT 5000 -SN BR BKN015
                       BKN040
                      TEMPO 0701/0706 1500 SN BKN010 BKN030=
201901062300 TAF LRCV 062300Z 0700/0709 03008KT 9999 SCT015 BKN030
                      BECMG 0700/0702 5000 -SN BR
                      TEMPO 0702/0706 1500 SN BKN010 BKN025
                      BECMG 0707/0709 7000 NSW=
201901070200 TAF LRCV 070200Z 0703/0712 07008KT 5000 -SN BR SCT015 BKN025
                      TEMPO 0703/0706 1500 SN BKN010 BKN020
                      BECMG 0707/0709 7000 NSW=
201901070500 TAF LRCV 070500Z 0706/0715 09006KT 9999 BKN030
                      TEMPO 0706/0709 3000 -SN BR BKN010 BKN025=
201901070800 TAF LRCV 070800Z 0709/0718 VRB03KT 9999 BKN040=
201901071100 TAF LRCV 071100Z 0712/0721 26006KT CAVOK=
201901071400 TAF LRCV 071400Z 0715/0724 25008KT CAVOK=
201901071700 TAF LRCV 071700Z 0718/0803 24006KT CAVOK
                      TEMPO 0722/0803 3000 BR=
201901072000 TAF LRCV 072000Z 0721/0806 24008KT CAVOK
                      TEMPO 0800/0806 3000 BR=
201901072300 TAF LRCV 072300Z 0800/0809 24008KT CAVOK
                      TEMPO 0801/0806 3000 BR=
201901080200 TAF LRCV 080200Z 0803/0812 24008KT 5000 BR NSC
                      TEMPO 0803/0806 2000 BR
                      BECMG 0806/0808 9999 NSW=
201901080500 TAF LRCV 080500Z 0806/0815 VRB04KT 5000 BR NSC
                      BECMG 0806/0808 26010KT 9999 NSW=
201901080800 TAF LRCV 080800Z 0809/0818 26010KT CAVOK=
201901081100 TAF LRCV 081100Z 0812/0821 26010KT 9999 BKN015
                      BECMG 0815/0817 5000 BR BKN010
                      TEMPO 0818/0821 1500 BR BKN005=
201901081400 TAF LRCV 081400Z 0815/0824 24008KT 9999 SCT020
                      BECMG 0815/0817 5000 BR BKN015
                      BECMG 0817/0819 3000 BR BKN010
                      TEMPO 0820/0824 1500 BR BKN005=
201901081700 TAF LRCV 081700Z 0818/0903 24008KT CAVOK
                      BECMG 0819/0821 5000 BR BKN015
                      PROB30 TEMPO 0822/0903 1500 -SN BR BKN005
                       OVC030=
201901082000 TAF LRCV 082000Z 0821/0906 VRB04KT CAVOK
                      PROB30 TEMPO 0823/0905 3000 -SN BR BKN010
                       OVC030=
201901082300 TAF LRCV 082300Z 0900/0909 VRB04KT 9999 BKN030
                      PROB30 TEMPO 0900/0905 3000 -SN BR BKN010
                       OVC030=
201901090200 TAF LRCV 090200Z 0903/0912 VRB04KT 9999 BKN030
                      TEMPO 0903/0906 5000 BR=
201901090500 TAF LRCV 090500Z 0906/0915 VRB04KT 9999 BKN020=
201901090800 TAF LRCV 090800Z 0909/0918 VRB04KT 9999 SCT025=
201901091100 TAF LRCV 091100Z 0912/0921 VRB04KT CAVOK
                      BECMG 0919/0921 5000 -SN BKN015 BKN040=
201901091400 TAF LRCV 091400Z 0915/0924 06007KT CAVOK
                      BECMG 0919/0921 5000 -SN BKN015 BKN040
                      BECMG 0921/0923 3000 -SN BKN010 OVC025=
201901091700 TAF LRCV 091700Z 0918/1003 06008KT CAVOK
                      BECMG 0918/0920 5000 -SN BKN015 BKN040
                      TEMPO 0920/1003 1500 -SN BKN005 OVC025=
201901092000 TAF LRCV 092000Z 0921/1006 06008KT 5000 BR BKN040
                      BECMG 0921/0923 3000 -SN BR BKN015 BKN040
                       TEMPO 1000/1006 1500 -SN BR BKN005 OVC025=
201901092300 TAF LRCV 092300Z 1000/1009 06008KT 5000 BR BKN040
                      TEMPO 1000/1006 1500 -SN BR BKN010 OVC025=
201901100200 TAF LRCV 100200Z 1003/1012 06008KT 5000 BR BKN015 BKN040
                      TEMPO 1003/1007 1500 -SN BR BKN005 OVC025=
201901100500 TAF LRCV 100500Z 1006/1015 05008KT 5000 BR BKN010 OVC025
                      TEMPO 1006/1009 2000 -SN BR BKN005 OVC015
                       BECMG 1013/1015 2000 -SN BR BKN005 OVC015=
201901100612 TAF AMD LRCV 100612Z 1006/1015 05008KT 0600 FZFG BKN005 OVC010
                       PROB40
                      TEMPO 1006/1009 1500 -SN BR BKN010 OVC025
                       BECMG 1009/1011 3000 BR BKN010 OVC020
                      BECMG 1013/1015 2000 -SN BR BKN005 OVC015=
201901100800 TAF LRCV 100800Z 1009/1018 07008KT 5000 BR BKN010 OVC020
                      TEMPO 1009/1014 1500 -RASN BR BKN003 OVC010
                       BECMG 1014/1016 1500 -SN BR BKN005 OVC010
                       TEMPO 1016/1018 0600 SN BKN002 OVC005=
201901101100 TAF LRCV 101100Z 1012/1021 07008KT 7000 BKN010 OVC020
                      BECMG 1014/1016 3000 -SN BR BKN005 OVC010
                       TEMPO 1016/1021 0600 SN BKN002 OVC005=
201901101334 TAF AMD LRCV 101334Z 1013/1021 07008KT 1500 -SN BR BKN005 OVC010
                       TEMPO 1014/1016 0800 -SN BKN002 OVC010
                      BECMG 1016/1018 0600 SN BKN002 OVC005=
201901101400 TAF LRCV 101400Z 1015/1024 07008KT 1000 -SN BR BKN002 OVC010
                      TEMPO 1015/1016 0500 -SN FZFG BKN001 OVC010
                       BECMG 1016/1018 0350 SN BKN001 OVC003=
201901101700 TAF LRCV 101700Z 1018/1103 09008KT 1500 -SN BR BKN005 OVC015
                      TEMPO 1018/1022 0600 SN FZFG BKN002 OVC010=
201901102000 TAF LRCV 102000Z 1021/1106 07007KT 3000 -SN BR BKN035
                      TEMPO 1021/1104 1500 SN BR SCT005 BKN010
                       OVC020=
201901102300 TAF LRCV 102300Z 1100/1109 VRB03KT 3000 -SN BR BKN010 OVC025
                      TEMPO 1100/1105 1500 SN BKN005 OVC015
                      BECMG 1107/1109 26010KT 5000 BKN015 BKN030=
201901110200 TAF LRCV 110200Z 1103/1112 VRB04KT 3000 -SN BR BKN010 OVC025
                      TEMPO 1103/1106 1500 -SN BR BKN005 OVC020
                       BECMG 1108/1110 26010KT 5000 BKN015 BKN030
                       BECMG 1110/1112 9999 SCT020 BKN040=
201901110500 TAF LRCV 110500Z 1106/1115 26010KT 5000 -SN BR BKN010 OVC020
                      TEMPO 1106/1108 3000 SN BR BKN005 OVC015
                       BECMG 1108/1110 9999 NSW SCT020 BKN040=
201901110800 TAF LRCV 110800Z 1109/1118 25010KT 5000 -SN BR BKN010 OVC030
                      BECMG 1109/1111 9999 NSW SCT020 BKN040=
201901111100 TAF LRCV 111100Z 1112/1121 27012KT 9999 SCT020=
201901111400 TAF LRCV 111400Z 1115/1124 27010KT CAVOK=
201901111700 TAF LRCV 111700Z 1118/1203 27010KT CAVOK=
201901112000 TAF LRCV 112000Z 1121/1206 26010KT CAVOK=
201901112300 TAF LRCV 112300Z 1200/1209 26010KT CAVOK
                      BECMG 1200/1202 5000 BR
                      PROB30 TEMPO 1202/1206 1500 BR BKN003
                      BECMG 1207/1209 9999 NSW=
201901120200 TAF LRCV 120200Z 1203/1212 26010KT CAVOK=
201901120500 TAF LRCV 120500Z 1206/1215 26012KT CAVOK=
201901120800 TAF LRCV 120800Z 1209/1218 26010KT CAVOK=
201901121100 TAF LRCV 121100Z 1212/1221 26012KT CAVOK
                      BECMG 1217/1219 VRB04KT=
201901121400 TAF LRCV 121400Z 1215/1224 26012KT CAVOK
                      BECMG 1217/1219 VRB04KT
                      BECMG 1221/1223 5000 BR=
201901121700 TAF LRCV 121700Z 1218/1303 27010KT CAVOK
                      BECMG 1218/1220 VRB04KT
                      BECMG 1221/1223 5000 BR
                      TEMPO 1300/1303 3000 BR BKN005=
201901122000 TAF LRCV 122000Z 1221/1306 VRB04KT CAVOK
                      BECMG 1221/1223 5000 BR
                      TEMPO 1300/1306 1500 BR BKN005=
201901122300 TAF LRCV 122300Z 1300/1309 VRB04KT CAVOK
                      TEMPO 1302/1306 3000 BR BKN005=
201901130200 TAF LRCV 130200Z 1303/1312 VRB04KT CAVOK
                      TEMPO 1303/1306 3000 BR BKN005=
201901130500 TAF LRCV 130500Z 1306/1315 VRB04KT 1500 BR NSC
                      TEMPO 1306/1308 0600=
201901130800 TAF LRCV 130800Z 1309/1318 VRB04KT 1500 BR BKN005
                      TEMPO 1309/1311 0350 FZFG BKN001
                      BECMG 1311/1313 5000 SCT010
                      TEMPO 1315/1317 8000 NSW=
201901131100 TAF LRCV 131100Z 1312/1321 VRB04KT 3000 BR NSC
                      TEMPO 1312/1315 7000 NSW
                      TEMPO 1318/1321 0800 FZFG BKN002=
201901131400 TAF LRCV 131400Z 1315/1324 26005KT 3000 BR NSC
                      TEMPO 1318/1324 0800=
201901131700 TAF LRCV 131700Z 1318/1403 VRB04KT 5000 BR NSC
                      TEMPO 1321/1324 1500 BR BKN005=
201901132000 TAF LRCV 132000Z 1321/1406 24005KT 5000 BR NSC
                      TEMPO 1323/1406 1500 BR BKN005=
201901132218 TAF AMD LRCV 132218Z 1322/1406 VRB04KT 0500 FZFG OVC002
                      TEMPO 1322/1403 0150 FZFG VV001=
201901132300 TAF AMD LRCV 140037Z 1400/1409 VRB04KT 3000 BR NSC
                      TEMPO 1400/1404 1500 BR
                      PROB30 TEMPO 1400/1402 0600 FZFG BKN002
                      BECMG 1407/1409 26010KT 7000 NSW=
201901140037 TAF AMD LRCV 140037Z 1400/1409 VRB04KT 3000 BR NSC
                      TEMPO 1400/1404 1500 BR
                      PROB30 TEMPO 1400/1402 0600 FZFG BKN002
                      BECMG 1407/1409 26010KT 7000 NSW=
201901140200 TAF LRCV 140200Z 1403/1412 VRB04KT 3000 BR NSC
                      TEMPO 1403/1406 1500 BR BKN010
                      PROB30 1404/1406 0600 FZFG BKN002
                      BECMG 1407/1409 26010KT 7000 NSW=
201901140328 TAF AMD LRCV 140328Z 1403/1412 VRB04KT 0350 FZFG VV001
                      TEMPO 1403/1406 0800 BKN005
                      BECMG 1406/1408 1500 BR BKN010
                      BECMG 1408/1410 26010KT 7000 NSW=
201901140417 TAF AMD LRCV 140417Z 1404/1412 VRB04KT 3000 BR NSC
                      TEMPO 1404/1407 0600 FZFG BKN001
                      BECMG 1407/1409 26010KT 7000 NSW=
201901140500 TAF LRCV 140500Z 1406/1415 VRB04KT 3000 BR SCT040
                      BECMG 1407/1409 26014KT 9999 NSW=
201901140800 TAF LRCV 140800Z 1409/1418 VRB04KT 9999 SCT040
                      BECMG 1409/1411 26014KT=
201901141100 TAF LRCV 141100Z 1412/1421 26010KT CAVOK=
201901141400 TAF LRCV 141400Z 1415/1424 28010KT CAVOK=
201901141700 TAF LRCV 141700Z 1418/1503 28012KT CAVOK=
201901142000 TAF LRCV 142000Z 1421/1506 28010KT CAVOK=
201901142300 TAF LRCV 142300Z 1500/1509 28012KT CAVOK=
201901150200 TAF LRCV 150200Z 1503/1512 28012KT CAVOK=
201901150500 TAF LRCV 150500Z 1506/1515 31012KT CAVOK=
201901150800 TAF LRCV 150800Z 1509/1518 31012KT CAVOK=
201901151100 TAF LRCV 151100Z 1512/1521 30016KT CAVOK
                      BECMG 1516/1518 30006KT=
201901151400 TAF LRCV 151400Z 1515/1524 30012KT CAVOK=
201901151700 TAF LRCV 151700Z 1518/1603 29008KT CAVOK=
201901152000 TAF LRCV 152000Z 1521/1606 29008KT CAVOK
                      PROB40 TEMPO 1601/1604 3000 BR BKN005
                      BECMG 1604/1606 29018KT=
201901152300 TAF LRCV 152300Z 1600/1609 27008KT CAVOK
                      PROB30 TEMPO 1601/1604 3000 BR
                      BECMG 1604/1606 28018KT=
201901160200 TAF LRCV 160200Z 1603/1612 27008KT CAVOK
                      BECMG 1604/1606 28018KT=
201901160500 TAF LRCV 160500Z 1606/1615 26015KT CAVOK
                      PROB30 TEMPO 1606/1613 28017G27KT=
201901160800 TAF LRCV 160800Z 1609/1618 26015KT CAVOK
                      PROB30 TEMPO 1609/1613 28017G27KT=
201901161100 TAF LRCV 161100Z 1612/1621 28012KT CAVOK=
201901161400 TAF LRCV 161400Z 1615/1624 28012KT CAVOK=
201901161700 TAF LRCV 161700Z 1618/1703 28010KT CAVOK=
201901162000 TAF LRCV 162000Z 1621/1706 28008KT CAVOK=
201901162300 TAF LRCV 162300Z 1700/1709 27006KT CAVOK=
201901170200 TAF LRCV 170200Z 1703/1712 28008KT CAVOK=
201901170500 TAF LRCV 170500Z 1706/1715 25006KT CAVOK=
201901170800 TAF LRCV 170800Z 1709/1718 VRB04KT CAVOK=
201901171100 TAF LRCV 171100Z 1712/1721 26008KT CAVOK=
201901171400 TAF LRCV 171400Z 1715/1724 26008KT CAVOK=
201901171700 TAF LRCV 171700Z 1718/1803 25006KT CAVOK=
201901172000 TAF LRCV 172000Z 1721/1806 25006KT CAVOK
                      PROB30 TEMPO 1800/1805 3000 BR BKN010=
201901172300 TAF LRCV 172300Z 1800/1809 25006KT CAVOK
                      PROB30 TEMPO 1800/1805 3000 BR BKN010=
201901180200 TAF LRCV 180200Z 1803/1812 VRB04KT CAVOK
                      PROB30 TEMPO 1803/1805 3000 BR=
201901180500 TAF LRCV 180500Z 1806/1815 VRB04KT CAVOK=
201901180800 TAF LRCV 180800Z 1809/1818 VRB04KT CAVOK=
201901181100 TAF LRCV 181100Z 1812/1821 VRB04KT CAVOK=
201901181400 TAF LRCV 181400Z 1815/1824 VRB04KT CAVOK=
201901181700 TAF LRCV 181700Z 1818/1903 VRB04KT CAVOK
                      PROB30 TEMPO 1900/1903 -FZRA=
201901182000 TAF LRCV 182000Z 1821/1906 VRB04KT 5000 BR SCT045
                      PROB30 TEMPO 1900/1906 3000 -FZRA BR=
201901182300 TAF LRCV 182300Z 1900/1909 26008KT 5000 BR NSC
                      PROB30 TEMPO 1900/1906 3000 -FZRA BR
                      BECMG 1907/1909 07010KT 7000 NSW=
201901190200 TAF LRCV 190200Z 1903/1912 26008KT 9999 SCT040
                      PROB30 TEMPO 1903/1906 5000 -RA
                      BECMG 1907/1909 07010KT
                      BECMG 1910/1912 5000 -SN BKN015 BKN030=
201901190500 TAF LRCV 190500Z 1906/1915 26008KT CAVOK
                      BECMG 1907/1909 07010KT
                      BECMG 1910/1912 3000 SN BR BKN010 OVC030=
201901190800 TAF LRCV 190800Z 1909/1918 VRB04KT CAVOK
                      BECMG 1910/1912 08012KT 3000 SN BR BKN010
                       OVC030=
201901191100 TAF LRCV 191100Z 1912/1921 11012KT 9999 OVC010
                      TEMPO 1913/1917 5000 -SN OVC005=
201901191217 TAF AMD LRCV 191217Z 1912/1921 11012KT 3000 SHSN BKN005 SCT040CB
                       BECMG 1912/1914 5000 -SN OVC005=
201901191400 TAF LRCV 191400Z 1915/1924 08012KT 1500 -SN BR BKN005 OVC020
                      BECMG 1915/1917 5000 BKN010 BKN030=
201901191700 TAF LRCV 191700Z 1918/2003 07015KT 9999 BKN010 OVC030
                      TEMPO 1918/1920 5000 -RASN BR BKN005 OVC025=
201901192000 TAF LRCV 192000Z 1921/2006 07015KT 5000 BR BKN015 OVC030
                      TEMPO 1921/1924 3000 -SN BR BKN010 OVC025=
201901192300 TAF LRCV 192300Z 2000/2009 07015KT 9999 BKN015 OVC030
                      TEMPO 2000/2006 BKN010 OVC025=
201901200200 TAF LRCV 200200Z 2003/2012 07012KT 9999 OVC010
                      PROB40 TEMPO 2006/2012 5000 -SN BKN005 OVC020=
201901200500 TAF LRCV 200500Z 2006/2015 07010KT 5000 BR BKN005 OVC010
                      TEMPO 2006/2010 3000 FZDZ BR BKN005 OVC020
                       TEMPO 2010/2015 1500 RASN SN BKN002 OVC015=
201901200619 TAF AMD LRCV 200619Z 2006/2015 07010KT 1500 BR OVC002
                      TEMPO 2006/2010 0600 FZFG FZDZ VV001
                      TEMPO 2010/2015 RASN SN BKN005 OVC020=
201901200800 TAF LRCV 200800Z 2009/2018 07010KT 0800 FZFG OVC002
                      PROB40 TEMPO 2009/2011 0350 FZFG FZDZ VV001
                       BECMG 2011/2013 1500 SN BR BKN005 OVC015
                       TEMPO 2013/2016 0800 +SN BKN002 OVC010=
201901201100 TAF LRCV 201100Z 2012/2021 07010KT 0350 FG OVC001
                      BECMG 2012/2014 0800 FG BKN002 OVC015
                      BECMG 2014/2016 1500 SN BR BKN005 OVC015
                       TEMPO 2016/2019 0800 +SN BKN002 OVC010=
201901201400 TAF LRCV 201400Z 2015/2024 07010KT 0350 -RA FG BKN001 OVC010
                      BECMG 2015/2017 0800 -RA FG BKN005 OVC015
                       BECMG 2017/2019 1500 BR BKN010 OVC025
                      BECMG 2020/2022 27010KT 5000 BR BKN015 BKN030=
201901201445 TAF AMD LRCV 201445Z 2015/2024 07010KT 0350 -RA FG BKN001 OVC010
                       BECMG 2015/2017 0800 -FZRA FZFG BKN005 OVC015
                       BECMG 2018/2020 1500 BR BKN010 OVC025
                      BECMG 2020/2022 27010KT 5000 BR BKN015 BKN030=
201901201700 TAF LRCV 201700Z 2018/2103 28005KT 0150 FG VV001
                      BECMG 2019/2021 0600 FZFG OVC002
                      BECMG 2021/2023 1500 BR BKN005
                      BECMG 2100/2102 5000 SCT010=
201901202000 TAF LRCV 202000Z 2021/2106 26006KT 3000 BR BKN005 OVC015
                      BECMG 2021/2023 5000 BKN010=
201901202140 TAF AMD LRCV 202140Z 2021/2106 26006KT 0300 FZFG VV002
                      BECMG 2023/2101 1500 BR
                      BECMG 2101/2103 3000 BKN005
                      BECMG 2104/2106 5000 SCT010=
201901202300 TAF LRCV 202300Z 2100/2109 26006KT 3000 BR BKN005
                      PROB40 TEMPO 2100/2106 0800 FZFG BKN001
                      BECMG 2106/2108 9999 NSW SCT020=
201901210200 TAF LRCV 210200Z 2103/2112 27006KT 5000 BR NSC
                      TEMPO 2103/2107 1500 BR BKN005
                      PROB40 TEMPO 2103/2106 0800 FZFG BKN001
                      BECMG 2107/2109 9999 NSW=
201901210500 TAF LRCV 210500Z 2106/2115 26006KT CAVOK
                      TEMPO 2106/2108 3000 BR=
201901210800 TAF LRCV 210800Z 2109/2118 26006KT CAVOK
                      BECMG 2114/2116 09010KT 3000 BR BKN010=
201901211100 TAF LRCV 211100Z 2112/2121 28006KT CAVOK
                      BECMG 2114/2116 09010KT 3000 BR BKN010=
201901211400 TAF LRCV 211400Z 2115/2124 08010KT 5000 BR BKN005 BKN020
                      TEMPO 2115/2117 3000 BR
                      PROB30 TEMPO 2117/2124 0800 FZFG VV002=
201901211537 TAF COR LRCV 211537Z 2115/2124 08010KT 5000 BR BKN005 BKN020
                      TEMPO 2115/2124 3000 BR
                      PROB30 TEMPO 2117/2124 0800 FZFG VV002=
201901211700 TAF LRCV 211700Z 2118/2203 08010KT 5000 BR BKN005 BKN010
                      TEMPO 2118/2122 3000 BR=
201901212000 TAF LRCV 212000Z 2121/2206 08010KT 5000 BR BKN005 BKN010
                      TEMPO 2123/2204 1500 BR=
201901212300 TAF LRCV 212300Z 2200/2209 08014KT 9999 SCT010 BKN020
                      TEMPO 2200/2205 3000 BR BKN005 OVC015
                      BECMG 2206/2208 5000 -SN BR BKN010 OVC015=
201901220200 TAF LRCV 220200Z 2203/2212 08014KT 9999 SCT010 BKN020
                      TEMPO 2203/2205 3000 BR BKN005 OVC015
                      BECMG 2206/2208 5000 -SN BR BKN010 OVC015=
201901220500 TAF LRCV 220500Z 2206/2215 08014KT 9999 SCT015 BKN030
                      BECMG 2206/2208 5000 -SN BR BKN010 OVC025
                       PROB40
                      TEMPO 2209/2215 1500 -SN BR BKN005 OVC015=
201901220800 TAF LRCV 220800Z 2209/2218 08014KT 3000 -SN BR SCT010 BKN030
                      TEMPO 2209/2213 1500 -SN BR BKN005 OVC015
                       BECMG 2216/2218 1500 -SN BR BKN010 OVC025=
201901221100 TAF LRCV 221100Z 2212/2221 08012KT 3000 -SN BR SCT010 OVC030
                      PROB40 TEMPO 2212/2216 1500 -SN BR BKN005
                       OVC015
                      BECMG 2216/2218 1500 BR BKN005 OVC025=
201901221400 TAF LRCV 221400Z 2215/2224 08012KT 3000 -SN BR SCT010 OVC030
                      TEMPO 2215/2224 1000 -SN BR BKN005 OVC025=
201901221700 TAF LRCV 221700Z 2218/2303 08012KT 3000 -SN BR BKN010 OVC030
                      TEMPO 2218/2224 1500 -SN BR BKN005 OVC025
                       BECMG 2301/2303 VRB04KT=
201901222000 TAF LRCV 222000Z 2221/2306 07007KT 5000 -SN BKN010 OVC030
                      TEMPO 2221/2301 3000 -SN BR BKN005 OVC025=
201901222300 TAF LRCV 222300Z 2300/2309 07005KT 3000 -SN BR BKN010 OVC025
                      BECMG 2302/2304 0800 FZFG BKN002 OVC020=
201901230200 TAF LRCV 230200Z 2303/2312 07006KT 1500 BR BKN005 OVC025
                      TEMPO 2303/2307 0600 FZFG BKN002 OVC020
                      BECMG 2308/2310 5000=
201901230500 TAF LRCV 230500Z 2306/2315 VRB04KT 0300 FZFG VV001
                      BECMG 2306/2308 0600 VV002
                      BECMG 2308/2310 1500 BR BKN005
                      TEMPO 2310/2315 5000=
201901230800 TAF LRCV 230800Z 2309/2318 VRB04KT 0600 FG VV002
                      BECMG 2310/2312 1500 BR BKN005
                      TEMPO 2312/2315 3000=
201901231100 TAF LRCV 231100Z 2312/2321 08004KT 0300 FG VV002
                      PROB40 TEMPO 2313/2316 0800=
201901231400 TAF LRCV 231400Z 2315/2324 08004KT 0150 FG VV001
                      BECMG 2318/2320 0800 BKN002
                      BECMG 2320/2322 09014KT 1500 -RA BR BKN005
                       OVC020
                      PROB40 TEMPO 2322/2324 -FZRA BR=
201901231700 TAF LRCV 231700Z 2318/2403 VRB04KT 0150 FG VV001
                      PROB40 TEMPO 2319/2320 0600 BKN002
                      BECMG 2320/2322 07012KT 1000 -RADZ BR BKN003
                       OVC015
                      PROB40 TEMPO 2400/2403 3000 BR=
201901232000 TAF LRCV 232000Z 2321/2406 07010KT 0500 FG VV001
                      BECMG 2322/2324 1500 -RADZ BR BKN003 OVC015
                       PROB40
                      TEMPO 2400/2403 3000 BR=
201901232300 TAF LRCV 232300Z 2400/2409 07012KT 0600 FG OVC001
                      BECMG 2400/2402 1500 -RA BR BKN002 OVC010
                       BECMG 2407/2409 09015G25KT 3000 RA BKN005
                       OVC020=
201901240200 TAF LRCV 240200Z 2403/2412 07012KT 0600 FG OVC001
                      PROB40 TEMPO 2403/2406 1500 -RA BR BKN002
                       OVC010
                      BECMG 2406/2408 09015G25KT 3000 RA BKN005
                       OVC020
                      BECMG 2409/2411 5000 BKN010 OVC040=
201901240500 TAF LRCV 240500Z 2406/2415 07018KT 5000 -RA BR BKN005 OVC035
                      TEMPO 2406/2410 09018G28KT 3000 DZ BKN002
                       OVC030=
201901240800 TAF LRCV 240800Z 2409/2418 07015KT 5000 -RA BR BKN005 OVC015
                      TEMPO 2409/2414 09018G28KT 3000 -RA BR BKN002
                       OVC005
                      BECMG 2414/2416 1500 FZRA OVC002=
201901241100 TAF LRCV 241100Z 2412/2421 07010KT 3000 -RA BR BKN005 OVC015
                      PROB40 TEMPO 2416/2418 -FZRA
                      BECMG 2418/2420 1500 -RASN -SN BKN002 OVC010=
201901241400 TAF LRCV 241400Z 2415/2424 07010KT 1500 SN BKN005 OVC015
                      BECMG 2421/2423 3000 -SN BKN010 OVC020=
201901241700 TAF LRCV 241700Z 2418/2503 09008KT 3000 -SN BR BKN005 OVC020
                      TEMPO 2418/2423 1500 SN BKN002 OVC020=
201901242000 TAF LRCV 242000Z 2421/2506 09008KT 5000 -SN BR BKN010 OVC030
                      TEMPO 2421/2424 1500 -SN BR BKN005 OVC030=
201901242300 TAF LRCV 242300Z 2500/2509 09008KT 3000 BR BKN005 OVC020
                      PROB30 TEMPO 2500/2503 1500 -SN BR
                      BECMG 2506/2508 7000 NSW BKN020=
201901250200 TAF LRCV 250200Z 2503/2512 09008KT 2000 BR BKN002 OVC005
                      PROB30 TEMPO 2503/2506 0800 -FZDZ FZFG OVC001
                       BECMG 2506/2508 7000 NSW BKN015=
201901250500 TAF LRCV 250500Z 2506/2515 09016KT 1500 BR BKN002 OVC005
                      TEMPO 2506/2508 0800 -FZDZ FZFG OVC001
                      BECMG 2508/2510 5000 BKN015
                      BECMG 2510/2512 9999 NSW BKN025=
201901250800 TAF LRCV 250800Z 2509/2518 08018KT 3000 BR BKN005 OVC015
                      BECMG 2510/2512 1500 -SN BR
                      BECMG 2514/2516 08020G30KT 3000 RASN
                      BECMG 2516/2518 1500 RA=
201901251100 TAF LRCV 251100Z 2512/2521 07016KT 1500 -SN BR BKN010 OVC040
                      BECMG 2514/2516 08020G30KT 3000
                      BECMG 2518/2520 1500 RA BKN005 OVC020=
201901251400 TAF LRCV 251400Z 2515/2524 09018KT 3000 BR BKN003 OVC020
                      TEMPO 2517/2522 08020G30KT
                      BECMG 2518/2520 1500 RA BKN002 OVC010=
201901251700 TAF LRCV 251700Z 2518/2603 07018KT 1500 BR BKN001 BKN005
                      TEMPO 2518/2522 08020G30KT
                      BECMG 2520/2522 3000 RA BKN005 OVC010=
201901252000 TAF LRCV 252000Z 2521/2606 07018KT 3000 -FZDZ BR BKN005 OVC010
                       TEMPO 2521/2601 1500 FZRA OVC002
                      BECMG 2603/2605 5000 BR BKN010 BKN020=
201901252300 TAF LRCV 252300Z 2600/2609 07012KT 5000 -RA BR BKN005 OVC010
                      TEMPO 2600/2603 1500 FZRA OVC002=
201901260200 TAF LRCV 260200Z 2603/2612 07012KT 5000 -RA BR BKN005 OVC010
                      PROB40 TEMPO 2603/2607 1500 FZRA OVC002
                      BECMG 2607/2609 9999 NSW BKN020=
201901260500 TAF LRCV 260500Z 2606/2615 VRB04KT 3000 -SN BR SCT005 OVC010
                      PROB30 TEMPO 2606/2609 08010KT 1500 -SN BR
                       BKN005 OVC010
                      BECMG 2609/2611 5000 -RASN BR SCT005 OVC015=
201901260800 TAF LRCV 260800Z 2609/2618 VRB04KT 1500 -DZ BR BKN005 OVC015
                      BECMG 2609/2611 5000 BR SCT005 OVC020
                      PROB30 TEMPO 2612/2617 3000 -SNRA BKN005
                       OVC015=
201901261052 TAF AMD LRCV 261052Z 2610/2618 VRB04KT 1500 -RA BR BKN005 OVC015
                       TEMPO 2610/2613 0800 -DZ BCFG BKN001 OVC010
                       BECMG 2614/2616 27010KT 3000
                      BECMG 2616/2618 5000 BR SCT005 BKN030=
201901261100 TAF LRCV 261100Z 2612/2621 06003KT 5000 BR SCT005 BKN035
                      PROB40 TEMPO 2612/2614 1500 -DZ BR BKN005
                       OVC015
                      BECMG 2614/2616 27010KT
                      BECMG 2617/2619 8000 NSW=
201901261400 TAF LRCV 261400Z 2615/2624 27006KT 1500 -SN BR BKN005 BKN025
                      TEMPO 2615/2617 0600 -SN FG BKN002 BKN005
                       BECMG 2617/2619 3000 BR SCT005 BKN010
                      BECMG 2619/2621 5000 SCT010 BKN020=
201901261700 TAF LRCV 261700Z 2618/2703 27010KT 5000 BR SCT005 BKN010=
201901262000 TAF LRCV 262000Z 2621/2706 26012KT CAVOK=
201901262300 TAF LRCV 262300Z 2700/2709 26012KT 5000 BR NSC
                      BECMG 2706/2708 VRB04KT CAVOK=
201901270200 TAF LRCV 270200Z 2703/2712 26012KT 5000 BR NSC
                      BECMG 2706/2708 VRB04KT CAVOK=
201901270500 TAF LRCV 270500Z 2706/2715 26010KT CAVOK
                      BECMG 2706/2708 VRB04KT
                      BECMG 2713/2715 3000 BR BKN005=
201901270800 TAF LRCV 270800Z 2709/2718 VRB04KT CAVOK
                      BECMG 2714/2716 3000 BR BKN005
                      BECMG 2716/2718 0800 FZFG OVC002=
201901271100 TAF LRCV 271100Z 2712/2721 06008KT 7000 BKN005
                      BECMG 2713/2715 3000 BR
                      BECMG 2716/2718 0800 FZFG OVC002
                      TEMPO 2718/2721 0150 FZFG VV001=
201901271400 TAF LRCV 271400Z 2715/2724 09008KT 3000 BR BKN005
                      BECMG 2715/2717 1500 BR
                      BECMG 2717/2719 0800 FZFG OVC002
                      TEMPO 2719/2724 0150=
201901271700 TAF LRCV 271700Z 2718/2803 09007KT 3000 BR OVC002
                      BECMG 2718/2720 1500 BR
                      BECMG 2721/2723 0800 FZFG
                      PROB40 TEMPO 2800/2803 0150=
201901272000 TAF LRCV 272000Z 2721/2806 09007KT 0600 FZFG VV001
                      TEMPO 2800/2804 0350 FZFG
                      BECMG 2804/2806 1500 BR OVC002=
201901272300 TAF LRCV 272300Z 2800/2809 07007KT 0150 FZFG VV001
                      TEMPO 2802/2805 0350
                      BECMG 2805/2807 0800 OVC002
                      BECMG 2807/2809 1500 BR SCT002 BKN005=
201901280200 TAF LRCV 280200Z 2803/2812 07007KT 0150 FZFG VV001
                      BECMG 2806/2808 0800 BKN005
                      BECMG 2808/2810 3000 BR BKN010
                      BECMG 2809/2811 CAVOK=
201901280500 TAF LRCV 280500Z 2806/2815 09006KT 0150 FZFG VV001
                      BECMG 2808/2810 0800 OVC002
                      BECMG 2810/2812 3000 BR BKN010
                      TEMPO 2812/2815 5000 BKN015=
201901280800 TAF LRCV 280800Z 2809/2818 10006KT 0200 FZFG VV001
                      BECMG 2809/2811 0800 FZFG VV002
                      PROB30 TEMPO 2811/2814 1500 BR BKN005
                      BECMG 2815/2817 0350 FZFG VV001=
201901281044 TAF AMD LRCV 281044Z 2810/2818 08008KT 0200 FZFG VV001
                      TEMPO 2810/2814 0800 FZFG VV002=
201901281100 TAF LRCV 281100Z 2812/2821 08006KT 0600 FZFG OVC002
                      TEMPO 2812/2816 1500 BR BKN005
                      BECMG 2816/2818 0350 FZFG VV001=
201901281400 TAF LRCV 281400Z 2815/2824 08008KT 1500 BR BKN005
                      BECMG 2816/2818 0600 FZFG BKN002
                      TEMPO 2820/2824 0350 FZFG VV001=
201901281533 TAF AMD LRCV 281533Z 2815/2824 08008KT 0300 FZFG VV001
                      PROB30 TEMPO 2816/2819 0600 FZFG OVC002=
201901281700 TAF LRCV 281700Z 2818/2903 VRB04KT 0150 FZFG VV001
                      PROB30 TEMPO 2818/2821 0600 FZFG OVC002=
201901282000 TAF LRCV 282000Z 2821/2906 VRB04KT 0150 FZFG VV001=
201901282300 TAF LRCV 282300Z 2900/2909 VRB04KT 0150 FZFG VV001
                      BECMG 2905/2907 0600 OVC002
                      BECMG 2907/2909 1500 -RA BR BKN005 OVC020=
201901290200 TAF LRCV 290200Z 2903/2912 VRB04KT 0150 FZFG VV001
                      BECMG 2905/2907 0600 OVC002
                      BECMG 2907/2909 1500 -RA BR BKN005 OVC020=
201901290500 TAF LRCV 290500Z 2906/2915 VRB04KT 0350 FZFG VV001
                      BECMG 2906/2907 0600 OVC002
                      BECMG 2907/2909 1500 -RA BR BKN005 OVC020
                       TEMPO 2909/2912 0800 RA=
201901290800 TAF LRCV 290800Z 2909/2918 VRB04KT 0800 FZFG OVC002
                      BECMG 2909/2911 2000 BR BKN005
                      TEMPO 2912/2915 0800 -RA FG BKN002 OVC015=
201901291100 TAF LRCV 291100Z 2912/2921 VRB04KT 3000 BR OVC040
                      TEMPO 2912/2916 1500 -RA BR=
201901291241 TAF AMD LRCV 291241Z 2912/2921 VRB04KT 0200 -RA FG BKN002 OVC015
                       BECMG 2915/2917 0600=
201901291400 TAF LRCV 291400Z 2915/2924 VRB04KT 0800 FG BKN002 OVC015
                      BECMG 2915/2917 0350 FG OVC001
                      BECMG 2921/2923 0800 -RA FG BKN002 OVC010=
201901291700 TAF LRCV 291700Z 2918/3003 VRB04KT 0350 FG BKN002 OVC010
                      BECMG 2921/2923 0800 -RA FG=
201901292000 TAF LRCV 292000Z 2921/3006 VRB04KT 0800 FG BKN002
                      TEMPO 2921/2923 0350 FG VV001
                      BECMG 2923/3001 1500 -RA BR BKN005 OVC025
                       BECMG 3004/3006 5000 -RA BR BKN015 OVC030=
201901292300 TAF LRCV 292300Z 3000/3009 VRB04KT 1500 -RA BR BKN005 OVC030
                      TEMPO 3000/3004 0800 -RA FG BKN005 OVC025
                       BECMG 3004/3006 5000 -RA BR BKN015 OVC030=
201901300200 TAF LRCV 300200Z 3003/3012 VRB04KT 0800 FG BKN005 OVC030
                      TEMPO 3003/3005 0350 -DZ FG BKN002 OVC020
                       BECMG 3005/3007 09010KT 3000 -RA BR BKN015
                       OVC030=
201901300500 TAF LRCV 300500Z 3006/3015 VRB04KT 0300 DZ FG VV001
                      BECMG 3006/3008 09010KT 1500 BR BKN005
                      TEMPO 3008/3013 3000 -RA BR BKN015 OVC020=
201901300800 TAF LRCV 300800Z 3009/3018 VRB04KT 0350 -RA FG VV002
                      BECMG 3009/3011 0800 BKN002 OVC005
                      TEMPO 3012/3015 1500 -RA BR BKN005 OVC010=
201901301100 TAF LRCV 301100Z 3012/3021 VRB04KT 0800 FG OVC002
                      TEMPO 3012/3016 1500 -DZ BR BKN005 OVC010
                       BECMG 3018/3020 1500 -RA BR BKN005 OVC010=
201901301336 TAF AMD LRCV 301336Z 3013/3021 VRB04KT 0150 FG VV001
                      TEMPO 3014/3016 0600 -DZ FG BKN002 OVC010
                       BECMG 3018/3020 0800 -RA FG BKN005 OVC010=
201901301400 TAF LRCV 301400Z 3015/3024 VRB04KT 0150 FG VV001
                      TEMPO 3016/3018 0600 -DZ FG BKN002 OVC010
                       BECMG 3018/3020 0600 -RA FG BKN002 OVC010
                       TEMPO 3021/3024 0800 -RA FG SCT002 OVC015=
201901301700 TAF LRCV 301700Z 3018/3103 VRB04KT 0150 FG VV001
                      BECMG 3018/3020 0600 -RA FG BKN002 OVC010
                       TEMPO 3021/3024 0800 BKN005 OVC015=
201901302000 TAF LRCV 302000Z 3021/3106 VRB04KT 0350 -RA FG OVC001
                      BECMG 3021/3023 0600 BKN002 OVC010
                      TEMPO 3101/3105 0800 RA FG BKN005 OVC015=
201901302300 TAF LRCV 302300Z 3100/3109 VRB04KT 0150 FG VV001
                      TEMPO 3101/3105 0350 DZ FG BKN002 OVC010
                       BECMG 3106/3108 0600 BKN002=
201901310200 TAF LRCV 310200Z 3103/3112 VRB04KT 0300 FG VV001
                      BECMG 3106/3108 0600 BKN002
                      BECMG 3108/3110 1500 BR BKN005=
201901310500 TAF LRCV 310500Z 3106/3115 VRB04KT 0350 FG VV001
                      BECMG 3106/3108 0600 BKN002
                      BECMG 3108/3110 1500 BR BKN005
                      BECMG 3111/3113 5000 BKN010=
201901310800 TAF LRCV 310800Z 3109/3118 VRB04KT 0150 FG VV001
                      BECMG 3109/3111 0600 BKN002
                      BECMG 3111/3113 1500 BR BKN005
                      PROB30 TEMPO 3113/3117 5000 BKN010=
201901311052 TAF AMD LRCV 311052Z 3110/3118 VRB04KT 3000 BR BKN002
                      TEMPO 3111/3117 7000 NSW BKN010=
201901311100 TAF LRCV 311100Z 3112/3121 VRB04KT 3000 BR BKN002
                      BECMG 3112/3114 7000 NSW BKN015
                      BECMG 3118/3120 5000 BR=
201901311238 TAF AMD LRCV 311238Z 3112/3121 VRB04KT 0600 FG BKN001
                      PROB30 TEMPO 3112/3117 1500 BR BKN005
                      BECMG 3118/3120 0150 FG=
201901311400 TAF LRCV 311400Z 3115/3124 VRB04KT 0600 FG BKN001
                      PROB30 TEMPO 3115/3118 1500 BR BKN005
                      BECMG 3119/3121 0150 FG=
201901311700 TAF LRCV 311700Z 3118/0103 VRB04KT 0350 FG VV001
                      PROB30 TEMPO 3118/3121 0800 BKN002=
201901312000 TAF LRCV 312000Z 3121/0106 VRB04KT 0350 FG VV001
                      PROB40 TEMPO 0102/0106 0150 FZFG=
201901312300 TAF LRCV 312300Z 0100/0109 27008KT 0150 FG VV001
                      TEMPO 0101/0103 0600 OVC002
                      BECMG 0103/0105 0800 OVC002
                      BECMG 0105/0107 1500 BR BKN005
                      BECMG 0107/0109 5000 SCT010=