201902010200 TAF LRCV 010200Z 0103/0112 27008KT 0150 FG VV001
                      BECMG 0103/0105 0800 OVC002
                      BECMG 0106/0108 1500 BR BKN005
                      BECMG 0108/0110 5000 SCT010=
201902010500 TAF LRCV 010500Z 0106/0115 26005KT 0300 FG OVC001
                      BECMG 0107/0109 1500 BR BKN003
                      BECMG 0109/0111 5000 BR SCT010
                      BECMG 0110/0112 9999 NSW=
201902010800 TAF LRCV 010800Z 0109/0118 VRB04KT 0300 FZFG VV001
                      BECMG 0109/0111 0800 FZFG OVC002
                      TEMPO 0111/0114 1500 BR BKN005=
201902011100 TAF LRCV 011100Z 0112/0121 VRB04KT 9999 BKN040
                      BECMG 0116/0118 3000 BR BKN010
                      BECMG 0119/0121 1500 BR BKN005=
201902011400 TAF LRCV 011400Z 0115/0124 08006KT CAVOK
                      BECMG 0117/0119 3000 BR BKN010
                      BECMG 0120/0122 1500 BR BKN005=
201902011700 TAF LRCV 011700Z 0118/0203 07007KT 5000 BR NSC
                      BECMG 0119/0121 3000 BR BKN010
                      BECMG 0122/0124 1500 BR BKN005=
201902012000 TAF LRCV 012000Z 0121/0206 08007KT CAVOK
                      BECMG 0122/0124 3000 BR BKN010
                      PROB30 TEMPO 0200/0206 1500 BR BKN005=
201902012300 TAF LRCV 012300Z 0200/0209 06007KT CAVOK
                      BECMG 0200/0202 3000 BR BKN010
                      TEMPO 0202/0206 1500 BR BKN005
                      BECMG 0206/0208 CAVOK=
201902020200 TAF LRCV 020200Z 0203/0212 06007KT CAVOK
                      PROB30 TEMPO 0203/0206 3000 BR BKN010=
201902020500 TAF LRCV 020500Z 0206/0215 06006KT CAVOK=
201902020800 TAF LRCV 020800Z 0209/0218 10006KT CAVOK=
201902021100 TAF LRCV 021100Z 0212/0221 08007KT CAVOK=
201902021400 TAF LRCV 021400Z 0215/0224 08006KT CAVOK=
201902021700 TAF LRCV 021700Z 0218/0303 06006KT 5000 BR NSC
                      BECMG 0221/0223 1500 BR BKN005
                      TEMPO 0223/0303 0600 FG VV002=
201902022000 TAF LRCV 022000Z 0221/0306 VRB04KT 5000 BR SCT015
                      BECMG 0223/0301 1500 BR BKN005
                      TEMPO 0301/0306 0600 FG OVC002=
201902022237 TAF AMD LRCV 022237Z 0222/0306 05007KT CAVOK
                      BECMG 0223/0301 5000 BR
                      PROB40 TEMPO 0302/0306 1500 BR BKN005=
201902022300 TAF LRCV 022300Z 0300/0309 05007KT CAVOK
                      BECMG 0300/0302 5000 BR
                      PROB40 TEMPO 0302/0306 1500 BR BKN005=
201902030200 TAF LRCV 030200Z 0303/0312 06008KT 5000 BR SCT015
                      TEMPO 0303/0306 1500 BR BKN005
                      BECMG 0306/0308 CAVOK=
201902030500 TAF LRCV 030500Z 0306/0315 06008KT CAVOK
                      TEMPO 0306/0308 3000 BR=
201902030800 TAF LRCV 030800Z 0309/0318 07008KT CAVOK
                      TEMPO 0309/0311 5000 BR=
201902031100 TAF LRCV 031100Z 0312/0321 07010KT CAVOK=
201902031400 TAF LRCV 031400Z 0315/0324 07010KT CAVOK
                      BECMG 0319/0321 3000 BR
                      TEMPO 0321/0324 1500 BR BKN010=
201902031700 TAF LRCV 031700Z 0318/0403 08010KT CAVOK
                      BECMG 0319/0321 3000 BR
                      TEMPO 0321/0324 1500 BR BKN010=
201902032000 TAF LRCV 032000Z 0321/0406 10005KT CAVOK
                      BECMG 0322/0324 5000 BR
                      PROB30 TEMPO 0401/0406 1500 BR BKN010=
201902032300 TAF LRCV 032300Z 0400/0409 VRB04KT 5000 BR NSC
                      TEMPO 0401/0407 1500 BR BKN010=
201902040200 TAF LRCV 040200Z 0403/0412 VRB04KT CAVOK
                      TEMPO 0403/0407 3000 BR=
201902040500 TAF LRCV 040500Z 0406/0415 28006KT CAVOK=
201902040800 TAF LRCV 040800Z 0409/0418 VRB04KT CAVOK
                      BECMG 0410/0412 30010KT
                      BECMG 0416/0418 VRB04KT=
201902041100 TAF LRCV 041100Z 0412/0421 30010KT CAVOK
                      TEMPO 0415/0418 3000 BR
                      BECMG 0416/0418 VRB04KT=
201902041400 TAF LRCV 041400Z 0415/0424 31008KT CAVOK
                      TEMPO 0416/0419 5000 BR=
201902041700 TAF LRCV 041700Z 0418/0503 27005KT CAVOK
                      BECMG 0500/0502 08010KT=
201902042000 TAF LRCV 042000Z 0421/0506 29006KT CAVOK
                      BECMG 0423/0501 09012KT=
201902042300 TAF LRCV 042300Z 0500/0509 08012KT CAVOK=
201902050200 TAF LRCV 050200Z 0503/0512 09014KT 9999 BKN010
                      PROB30 TEMPO 0503/0506 5000 BR OVC005
                      BECMG 0507/0509 SCT015 BKN025=
201902050500 TAF LRCV 050500Z 0506/0515 11008KT 5000 BR BKN010 OVC025
                      TEMPO 0506/0510 3000 -RA BR BKN005 OVC015=
201902050800 TAF LRCV 050800Z 0509/0518 11008KT 5000 BR BKN010 OVC025
                      TEMPO 0509/0514 3000 -RA BR BKN005 OVC015=
201902051100 TAF LRCV 051100Z 0512/0521 08012KT 5000 BR BKN005 BKN010
                      BECMG 0518/0520 VRB04KT 1500 BR OVC002=
201902051400 TAF LRCV 051400Z 0515/0524 08006KT 5000 BR BKN005 BKN010
                      BECMG 0518/0520 1500 BR OVC002=
201902051700 TAF LRCV 051700Z 0518/0603 09006KT 5000 BR OVC005
                      BECMG 0518/0520 3000 BR
                      TEMPO 0522/0603 1500 BR=
201902052000 TAF LRCV 052000Z 0521/0606 09006KT 5000 BR BKN003 OVC005
                      TEMPO 0522/0605 1500 BR OVC002=
201902052300 TAF AMD LRCV 060142Z 0601/0609 VRB04KT 3000 BR BKN015
                      TEMPO 0601/0606 1500 BR BKN005
                      BECMG 0607/0609 9999 NSW=
201902060027 TAF AMD LRCV 060027Z 0600/0609 VRB04KT 0600 FG VV002
                      TEMPO 0600/0606 0150 FG VV001
                      BECMG 0606/0608 1500 BR BKN005=
201902060142 TAF AMD LRCV 060142Z 0601/0609 VRB04KT 3000 BR BKN015
                      TEMPO 0601/0606 1500 BR BKN005
                      BECMG 0607/0609 9999 NSW=
201902060200 TAF LRCV 060200Z 0603/0612 VRB04KT 5000 BR BKN015 BKN025
                      TEMPO 0603/0606 1500 BR BKN005 BKN025
                      BECMG 0607/0609 9999 NSW BKN025=
201902060500 TAF LRCV 060500Z 0606/0615 VRB04KT 3000 BR BKN005 OVC010
                      TEMPO 0606/0608 1500 BR OVC002
                      BECMG 0608/0610 9999 NSW BKN010=
201902060800 TAF LRCV 060800Z 0609/0618 VRB04KT 0600 FG OVC002
                      BECMG 0609/0611 1500 BR OVC005
                      TEMPO 0612/0615 5000 BKN010=
201902061100 TAF LRCV 061100Z 0612/0621 VRB04KT 3000 BR OVC005
                      TEMPO 0612/0616 5000 BKN010
                      BECMG 0616/0618 1500 -RADZ BR OVC002=
201902061400 TAF LRCV 061400Z 0615/0624 VRB04KT 5000 BR BKN010
                      BECMG 0617/0619 1500 -RADZ BR OVC005=
201902061527 TAF AMD LRCV 061527Z 0615/0624 VRB04KT 1500 -RADZ BR OVC002
                      TEMPO 0620/0624 3000 -RA BR OVC005=
201902061700 TAF LRCV 061700Z 0618/0703 VRB04KT 3000 BR BKN010 OVC020
                      BECMG 0618/0620 1500 -DZ BR BKN005 OVC010
                       PROB30
                      TEMPO 0620/0622 -FZDZ
                      BECMG 0622/0624 -SN=
201902062000 TAF LRCV 062000Z 0621/0706 VRB04KT 5000 BR BKN010 OVC020
                      BECMG 0622/0624 1500 -SN BR BKN005 OVC010=
201902062300 TAF LRCV 062300Z 0700/0709 VRB04KT 3000 -SN BKN005 OVC020
                      TEMPO 0700/0706 1500 -SN BR BKN002 OVC015=
201902070200 TAF LRCV 070200Z 0703/0712 VRB04KT 3000 -SN BKN005 OVC020
                      TEMPO 0703/0706 1500 -SN BR BKN002 OVC015
                       BECMG 0708/0710 5000 BKN010 OVC020=
201902070500 TAF LRCV 070500Z 0706/0715 13006KT 5000 -SN BR BKN005 OVC020
                      TEMPO 0706/0709 3000 -RASN BR
                      BECMG 0709/0711 8000 NSW SCT010 BKN030=
201902070800 TAF LRCV 070800Z 0709/0718 11006KT 5000 -SNRA BR BKN005 OVC020
                       BECMG 0709/0711 8000 NSW BKN010 BKN025
                      BECMG 0711/0713 SCT010 BKN025
                      BECMG 0716/0718 BKN015 BKN035=
201902071100 TAF LRCV 071100Z 0712/0721 11006KT 9999 SCT010 BKN025
                      BECMG 0716/0718 BKN015 BKN030
                      BECMG 0719/0721 5000 BR=
201902071400 TAF LRCV 071400Z 0715/0724 07004KT 9999 SCT020 BKN030
                      BECMG 0720/0722 BKN015 BKN030
                      BECMG 0722/0724 5000 BR=
201902071700 TAF LRCV 071700Z 0718/0803 VRB03KT 9999 OVC035
                      PROB30 TEMPO 0801/0803 5000 BR BKN010 BKN035=
201902072000 TAF LRCV 072000Z 0721/0806 VRB03KT 9999 OVC035
                      PROB30 TEMPO 0801/0806 5000 BR BKN010 BKN025=
201902072300 TAF LRCV 072300Z 0800/0809 VRB03KT 7000 OVC035
                      TEMPO 0800/0806 3000 BR BKN010 BKN035=
201902080200 TAF LRCV 080200Z 0803/0812 VRB04KT 7000 BKN035
                      TEMPO 0803/0807 5000 BR=
201902080500 TAF LRCV 080500Z 0806/0815 VRB04KT 9999 OVC035=
201902080800 TAF LRCV 080800Z 0809/0818 VRB04KT 9999 OVC035=
201902081100 TAF LRCV 081100Z 0812/0821 VRB04KT 9999 BKN040=
201902081400 TAF LRCV 081400Z 0815/0824 VRB04KT 9999 BKN040=
201902081700 TAF LRCV 081700Z 0818/0903 VRB04KT 9999 BKN030=
201902082000 TAF LRCV 082000Z 0821/0906 VRB04KT 9999 BKN040
                      PROB40 TEMPO 0902/0906 5000 BR=
201902082300 TAF LRCV 082300Z 0900/0909 VRB04KT 9999 BKN040
                      PROB40 TEMPO 0902/0906 5000 BR=
201902090200 TAF LRCV 090200Z 0903/0912 VRB04KT 9999 BKN040=
201902090500 TAF LRCV 090500Z 0906/0915 VRB04KT 9999 BKN040=
201902090800 TAF LRCV 090800Z 0909/0918 VRB04KT 9999 BKN040=
201902091100 TAF LRCV 091100Z 0912/0921 VRB04KT 9999 BKN040=
201902091400 TAF LRCV 091400Z 0915/0924 VRB04KT 9999 BKN040=
201902091700 TAF LRCV 091700Z 0918/1003 22005KT CAVOK
                      TEMPO 0923/1003 3000 BR=
201902092000 TAF LRCV 092000Z 0921/1006 22005KT CAVOK
                      TEMPO 0923/1005 3000 BR=
201902092300 TAF LRCV 092300Z 1000/1009 VRB04KT 5000 BR NSC
                      PROB30 TEMPO 1000/1005 1500 BR
                      BECMG 1006/1008 9999 NSW=
201902100200 TAF LRCV 100200Z 1003/1012 VRB04KT 3000 BR NSC
                      PROB30 TEMPO 1003/1006 0800 FZFG VV002
                      BECMG 1006/1008 CAVOK=
201902100500 TAF LRCV 100500Z 1006/1015 VRB04KT 3000 BR NSC
                      TEMPO 1006/1008 1500 BR BKN005
                      BECMG 1008/1010 CAVOK=
201902100800 TAF LRCV 100800Z 1009/1018 VRB04KT 5000 BR NSC
                      BECMG 1009/1011 CAVOK=
201902101100 TAF LRCV 101100Z 1012/1021 VRB03KT CAVOK
                      BECMG 1017/1019 5000 BR
                      BECMG 1019/1021 3000 BR=
201902101400 TAF LRCV 101400Z 1015/1024 VRB03KT CAVOK
                      BECMG 1017/1019 5000 BR
                      BECMG 1019/1021 3000 BR
                      BECMG 1022/1024 1500 BR BKN005=
201902101700 TAF LRCV 101700Z 1018/1103 VRB03KT CAVOK
                      BECMG 1018/1020 5000 BR
                      BECMG 1020/1022 3000 BR
                      BECMG 1022/1024 1500 BR BKN005
                      TEMPO 1100/1103 0600 FZFG BKN002=
201902102000 TAF LRCV 102000Z 1021/1106 VRB04KT 5000 BR NSC
                      BECMG 1022/1024 1500 BR BKN005
                      PROB30 TEMPO 1101/1104 0600 FZFG OVC002
                      BECMG 1104/1106 5000=
201902102300 TAF LRCV 102300Z 1100/1109 VRB04KT 5000 BR NSC
                      TEMPO 1100/1105 1500 BR BKN005
                      PROB30 TEMPO 1101/1104 0600 FZFG OVC002
                      BECMG 1104/1106 9999 NSW=
201902110200 TAF LRCV 110200Z 1103/1112 VRB04KT 5000 BR NSC
                      TEMPO 1103/1105 1500 BR BKN005
                      BECMG 1105/1107 9999 NSW=
201902110500 TAF LRCV 110500Z 1106/1115 VRB04KT 5000 BR NSC
                      BECMG 1107/1109 9999 NSW=
201902110800 TAF LRCV 110800Z 1109/1118 VRB04KT CAVOK
                      TEMPO 1109/1110 5000 BR=
201902111100 TAF LRCV 111100Z 1112/1121 06006KT CAVOK
                      BECMG 1119/1121 5000 -RA BR BKN015 OVC030=
201902111400 TAF LRCV 111400Z 1115/1124 06006KT CAVOK
                      BECMG 1120/1122 5000 -RA BR BKN015 OVC030
                       TEMPO 1122/1124 3000 RA BR BKN010 OVC025=
201902111700 TAF LRCV 111700Z 1118/1203 06008KT CAVOK
                      BECMG 1120/1122 5000 -RA BR BKN015 OVC030
                       TEMPO 1122/1201 3000 RA BR BKN010 OVC025
                       BECMG 1200/1202 26010KT=
201902112000 TAF LRCV 112000Z 1121/1206 06008KT 7000 BKN050
                      BECMG 1122/1124 5000 -RA BR BKN015 OVC030
                       BECMG 1201/1203 26010KT
                      TEMPO 1202/1206 3000 RA BR BKN010 OVC025=
201902112300 TAF LRCV 112300Z 1200/1209 28010KT 5000 -RA BR BKN015 BKN040
                      TEMPO 1205/1209 3000 RA BR BKN010 OVC025=
201902120200 TAF LRCV 120200Z 1203/1212 27010KT 9999 BKN005 BKN010
                      TEMPO 1205/1210 3000 -RA BR BKN010 BKN035
                       BECMG 1210/1212 BKN015 OVC030=
201902120500 TAF LRCV 120500Z 1206/1215 26010KT 9999 BKN010
                      TEMPO 1206/1211 5000 -RA BR BKN005 BKN035
                       BECMG 1211/1213 33010KT=
201902120800 TAF LRCV 120800Z 1209/1218 29012KT 5000 -RA BKN010 BKN035
                      TEMPO 1209/1213 3000 RA BKN005 BKN030
                      BECMG 1214/1216 VRB04KT 9999 NSW SCT015 BKN040=
201902121100 TAF LRCV 121100Z 1212/1221 30018KT 9999 BKN015 BKN035
                      TEMPO 1212/1214 5000 -RA BKN010 BKN030
                      BECMG 1214/1216 30008KT BKN040=
201902121400 TAF LRCV 121400Z 1215/1224 30008KT 9999 BKN045
                      TEMPO 1222/1224 3000 SHSN BKN010 SCT030CB
                       BKN040=
201902121700 TAF LRCV 121700Z 1218/1303 VRB04KT CAVOK
                      TEMPO 1221/1302 3000 SN BKN010 BKN040=
201902122000 TAF LRCV 122000Z 1221/1306 VRB04KT 9999 SCT045
                      TEMPO 1221/1302 3000 -SN BR BKN010 BKN040=
201902122300 TAF LRCV 122300Z 1300/1309 VRB04KT 9999 BKN045
                      TEMPO 1300/1303 3000 -SN BR BKN010 BKN040=
201902130200 TAF LRCV 130200Z 1303/1312 VRB04KT 9999 BKN045
                      PROB30 TEMPO 1303/1306 5000 -SN BKN010 BKN040=
201902130500 TAF LRCV 130500Z 1306/1315 VRB04KT 9999 BKN045
                      TEMPO 1306/1309 5000 -SN BR BKN010 OVC035=
201902130800 TAF LRCV 130800Z 1309/1318 VRB04KT 9999 BKN045
                      BECMG 1313/1315 28010KT=
201902131100 TAF LRCV 131100Z 1312/1321 31008KT 9999 BKN025=
201902131400 TAF LRCV 131400Z 1315/1324 26008KT 9999 SCT025=
201902131700 TAF LRCV 131700Z 1318/1403 25006KT CAVOK=
201902132000 TAF LRCV 132000Z 1321/1406 25006KT CAVOK=
201902132300 TAF LRCV 132300Z 1400/1409 25006KT CAVOK=
201902140200 TAF LRCV 140200Z 1403/1412 25005KT CAVOK=
201902140500 TAF LRCV 140500Z 1406/1415 29006KT CAVOK=
201902140800 TAF LRCV 140800Z 1409/1418 28008KT CAVOK=
201902141100 TAF LRCV 141100Z 1412/1421 29012KT CAVOK=
201902141400 TAF LRCV 141400Z 1415/1424 30010KT CAVOK
                      BECMG 1418/1420 VRB04KT=
201902141700 TAF LRCV 141700Z 1418/1503 05008KT CAVOK
                      BECMG 1500/1502 VRB04KT 3000 BR BKN010=
201902142000 TAF LRCV 142000Z 1421/1506 VRB04KT CAVOK
                      TEMPO 1500/1506 3000 BR BKN010=
201902142300 TAF LRCV 142300Z 1500/1509 VRB04KT CAVOK
                      TEMPO 1500/1506 3000 BR BKN010=
201902150200 TAF LRCV 150200Z 1503/1512 02008KT 9999 BKN030
                      TEMPO 1503/1506 3000 -RA BR BKN010 OVC025=
201902150500 TAF LRCV 150500Z 1506/1515 VRB04KT 9999 SCT035=
201902150800 TAF LRCV 150800Z 1509/1518 VRB04KT 9999 SCT035
                      PROB30 TEMPO 1515/1518 5000 -RA BR=
201902151100 TAF LRCV 151100Z 1512/1521 VRB04KT 9999 SCT015 SCT040
                      PROB30 TEMPO 1514/1518 5000 -RA BR
                      BECMG 1519/1521 5000 BR=
201902151400 TAF LRCV 151400Z 1515/1524 20005KT 9999 SCT035
                      BECMG 1521/1523 5000 BR=
201902151700 TAF LRCV 151700Z 1518/1603 20005KT CAVOK
                      BECMG 1521/1523 5000 BR=
201902152000 TAF LRCV 152000Z 1521/1606 20005KT CAVOK
                      BECMG 1521/1523 5000 BR=
201902152300 TAF LRCV 152300Z 1600/1609 VRB04KT 9999 BKN045=
201902160200 TAF LRCV 160200Z 1603/1612 20005KT CAVOK
                      TEMPO 1603/1605 3000 BR=
201902160500 TAF LRCV 160500Z 1606/1615 VRB04KT 0350 FZFG OVC001
                      BECMG 1606/1608 1500 BR BKN005
                      BECMG 1608/1610 CAVOK=
201902160800 TAF LRCV 160800Z 1609/1618 VRB04KT CAVOK=
201902161100 TAF LRCV 161100Z 1612/1621 24008KT CAVOK=
201902161400 TAF LRCV 161400Z 1615/1624 24005KT CAVOK
                      BECMG 1620/1622 5000 BR=
201902161700 TAF LRCV 161700Z 1618/1703 VRB04KT CAVOK
                      BECMG 1623/1701 5000 BR
                      PROB30 TEMPO 1701/1703 3000 BR=
201902162000 TAF LRCV 162000Z 1621/1706 VRB04KT CAVOK
                      BECMG 1623/1701 5000 BR
                      PROB30 TEMPO 1702/1706 3000 BR=
201902162300 TAF LRCV 162300Z 1700/1709 24004KT 5000 BR NSC
                      BECMG 1700/1702 1500 BR
                      PROB40 TEMPO 1703/1706 0600 FZFG BKN001
                      BECMG 1707/1709 6000 NSW=
201902170200 TAF LRCV 170200Z 1703/1712 24004KT 5000 BR NSC
                      TEMPO 1703/1706 1500 BR
                      BECMG 1706/1708 9999 NSW=
201902170500 TAF LRCV 170500Z 1706/1715 27005KT 5000 BR NSC
                      BECMG 1706/1708 9999 NSW=
201902170800 TAF LRCV 170800Z 1709/1718 29006KT CAVOK=
201902171100 TAF LRCV 171100Z 1712/1721 26006KT CAVOK=
201902171400 TAF LRCV 171400Z 1715/1724 28006KT CAVOK=
201902171700 TAF LRCV 171700Z 1718/1803 25005KT CAVOK=
201902172000 TAF LRCV 172000Z 1721/1806 26005KT CAVOK=
201902172300 TAF LRCV 172300Z 1800/1809 26005KT CAVOK
                      TEMPO 1801/1806 3000 BR=
201902180200 TAF LRCV 180200Z 1803/1812 26005KT 5000 BR NSC
                      TEMPO 1803/1806 3000 BR
                      BECMG 1806/1808 CAVOK=
201902180500 TAF LRCV 180500Z 1806/1815 27005KT 5000 BR NSC
                      TEMPO 1806/1807 1500 BR
                      BECMG 1807/1809 9999 NSW=
201902180800 TAF LRCV 180800Z 1809/1818 VRB04KT 7000 NSC=
201902181100 TAF LRCV 181100Z 1812/1821 VRB04KT CAVOK
                      BECMG 1817/1819 5000 BR
                      BECMG 1819/1821 1500 BR BKN005=
201902181400 TAF LRCV 181400Z 1815/1824 VRB04KT CAVOK
                      BECMG 1817/1819 5000 BR
                      BECMG 1819/1821 1500 BR BKN005
                      BECMG 1822/1824 0600 FZFG BKN002=
201902181700 TAF LRCV 181700Z 1818/1903 VRB04KT CAVOK
                      BECMG 1818/1820 5000 BR
                      BECMG 1821/1823 1500 BR
                      BECMG 1900/1902 0600 FZFG BKN002=
201902182000 TAF LRCV 182000Z 1821/1906 VRB04KT 5000 BR NSC
                      BECMG 1821/1823 1500 BR
                      TEMPO 1902/1906 0600 FZFG BKN002=
201902182300 TAF LRCV 182300Z 1900/1909 VRB04KT 3000 BR NSC
                      TEMPO 1901/1906 1500 BR BKN005
                      BECMG 1907/1909 CAVOK=
201902190200 TAF LRCV 190200Z 1903/1912 VRB04KT 5000 BR NSC
                      TEMPO 1903/1906 1500 BR BKN005
                      BECMG 1907/1909 CAVOK=
201902190500 TAF LRCV 190500Z 1906/1915 06006KT 5000 BR NSC
                      BECMG 1906/1908 9999 NSW=
201902190800 TAF LRCV 190800Z 1909/1918 08008KT CAVOK=
201902191100 TAF LRCV 191100Z 1912/1921 VRB04KT CAVOK
                      BECMG 1919/1921 5000 BR=
201902191400 TAF LRCV 191400Z 1915/1924 VRB04KT CAVOK
                      BECMG 1919/1921 5000 BR=
201902191700 TAF LRCV 191700Z 1918/2003 VRB04KT CAVOK
                      BECMG 1920/1922 5000 BR
                      PROB30 TEMPO 2000/2003 1500 BR BKN005=
201902192000 TAF LRCV 192000Z 1921/2006 VRB04KT 5000 BR NSC
                      BECMG 1922/1924 3000 BR
                      PROB30 TEMPO 2001/2006 1500 BR BKN005=
201902192300 TAF LRCV 192300Z 2000/2009 VRB04KT 5000 BR NSC
                      BECMG 2000/2002 3000 BR
                      PROB30 TEMPO 2002/2006 1500 BR BKN005
                      BECMG 2006/2008 CAVOK=
201902200200 TAF LRCV 200200Z 2003/2012 VRB04KT 5000 BR NSC
                      PROB30 TEMPO 2003/2006 1500 BR BKN005
                      BECMG 2006/2008 CAVOK=
201902200500 TAF LRCV 200500Z 2006/2015 VRB04KT CAVOK
                      TEMPO 2006/2008 3000 BR
                      BECMG 2008/2010 30010KT=
201902200800 TAF LRCV 200800Z 2009/2018 29010KT 5000 BR NSC
                      BECMG 2009/2010 CAVOK=
201902201100 TAF LRCV 201100Z 2012/2021 29010KT CAVOK=
201902201400 TAF LRCV 201400Z 2015/2024 30010KT CAVOK=
201902201700 TAF LRCV 201700Z 2018/2103 30010KT CAVOK
                      BECMG 2100/2102 VRB03KT
                      PROB30 TEMPO 2101/2103 5000 BR=
201902202000 TAF LRCV 202000Z 2021/2106 30010KT CAVOK
                      BECMG 2100/2102 VRB04KT=
201902202300 TAF LRCV 202300Z 2100/2109 29010KT CAVOK
                      BECMG 2100/2102 VRB04KT
                      PROB30 TEMPO 2104/2106 5000 BR=
201902210200 TAF LRCV 210200Z 2103/2112 30006KT CAVOK=
201902210500 TAF LRCV 210500Z 2106/2115 29006KT CAVOK=
201902210800 TAF LRCV 210800Z 2109/2118 32006KT CAVOK=
201902211100 TAF LRCV 211100Z 2112/2121 25008KT CAVOK=
201902211400 TAF LRCV 211400Z 2115/2124 28008KT CAVOK=
201902211700 TAF LRCV 211700Z 2118/2203 26008KT CAVOK=
201902212000 TAF LRCV 212000Z 2121/2206 27008KT CAVOK=
201902212300 TAF LRCV 212300Z 2200/2209 27008KT CAVOK
                      TEMPO 2207/2209 5000 -RA=
201902220200 TAF LRCV 220200Z 2203/2212 28008KT CAVOK
                      TEMPO 2207/2211 5000 -RA BKN010 BKN040=
201902220500 TAF LRCV 220500Z 2206/2215 28008KT CAVOK
                      TEMPO 2207/2213 5000 -RA BKN010 BKN040=
201902220800 TAF LRCV 220800Z 2209/2218 VRB04KT CAVOK
                      TEMPO 2209/2213 5000 -DZRA BKN010 BKN040=
201902221100 TAF LRCV 221100Z 2212/2221 VRB04KT CAVOK
                      TEMPO 2212/2214 5000 -DZRA BKN010 BKN030=
201902221400 TAF LRCV 221400Z 2215/2224 30006KT CAVOK
                      BECMG 2218/2220 10015G25KT=
201902221700 TAF LRCV 221700Z 2218/2303 02010KT 5000 -RA BKN035
                      BECMG 2218/2220 10020G30KT 3000 -SN BR BKN010
                       BKN030CB
                      TEMPO 2220/2224 10030G40KT 0800 +SN BLSN
                       BKN005 OVC025=
201902222000 TAF LRCV 222000Z 2221/2306 09025KT 1500 SN BKN010 BKN030
                      TEMPO 2221/2224 10030G40KT 0600 +SN BLSN
                       BKN005 OVC025
                      BECMG 2301/2303 5000 -SN BKN015 BKN030
                      BECMG 2303/2305 12014KT 9999 NSW BKN035=
201902222142 TAF AMD LRCV 222142Z 2221/2306 09025KT 0150 +SN BLSN BKN002 OVC010
                       BECMG 2222/2224 10025G35KT 0600 SN BLSN
                       BKN005 OVC025
                      BECMG 2301/2303 3000 -SN BKN015 BKN030
                      BECMG 2303/2305 12015KT 9999 NSW BKN035=
201902222300 TAF AMD LRCV 230138Z 2301/2309 10014KT 5000 -SN BR BKN010 OVC040
                       PROB30
                      TEMPO 2301/2303 3000 -SN BR BKN005 BKN030
                       BECMG 2304/2306 9999 NSW BKN035=
201902230138 TAF AMD LRCV 230138Z 2301/2309 10014KT 5000 -SN BR BKN010 OVC040
                       PROB30
                      TEMPO 2301/2303 3000 -SN BR BKN005 BKN030
                       BECMG 2304/2306 9999 NSW BKN035=
201902230200 TAF LRCV 230200Z 2303/2312 10014KT 5000 -SN BR BKN010 OVC040
                      BECMG 2304/2306 9999 NSW BKN035
                      BECMG 2309/2311 VRB04KT=
201902230500 TAF LRCV 230500Z 2306/2315 10008KT CAVOK=
201902230800 TAF LRCV 230800Z 2309/2318 VRB04KT CAVOK=
201902231100 TAF LRCV 231100Z 2312/2321 VRB04KT 9999 SCT040=
201902231400 TAF LRCV 231400Z 2315/2324 VRB04KT 9999 SCT030
                      BECMG 2320/2322 BKN015 OVC030=
201902231700 TAF LRCV 231700Z 2318/2403 VRB04KT CAVOK
                      BECMG 2320/2322 BKN015 OVC030=
201902232000 TAF LRCV 232000Z 2321/2406 VRB03KT CAVOK
                      BECMG 2322/2324 BKN015 OVC030=
201902232300 TAF LRCV 232300Z 2400/2409 VRB03KT 9999 SCT030
                      TEMPO 2400/2406 5000 BR BKN015 OVC030=
201902240200 TAF LRCV 240200Z 2403/2412 VRB03KT 5000 BR NSC
                      TEMPO 2403/2407 1500 BR BKN015
                      BECMG 2407/2409 CAVOK=
201902240500 TAF LRCV 240500Z 2406/2415 28006KT CAVOK=
201902240800 TAF LRCV 240800Z 2409/2418 28006KT CAVOK=
201902241100 TAF LRCV 241100Z 2412/2421 28006KT CAVOK=
201902241400 TAF LRCV 241400Z 2415/2424 23006KT CAVOK=
201902241700 TAF LRCV 241700Z 2418/2503 VRB04KT CAVOK=
201902242000 TAF LRCV 242000Z 2421/2506 VRB04KT CAVOK=
201902242300 TAF LRCV 242300Z 2500/2509 VRB04KT CAVOK=
201902250200 TAF LRCV 250200Z 2503/2512 VRB04KT CAVOK
                      BECMG 2510/2512 29010KT=
201902250500 TAF LRCV 250500Z 2506/2515 VRB04KT CAVOK
                      BECMG 2509/2511 28010KT=
201902250800 TAF LRCV 250800Z 2509/2518 30008KT CAVOK=
201902251100 TAF LRCV 251100Z 2512/2521 27008KT CAVOK=
201902251400 TAF LRCV 251400Z 2515/2524 27008KT CAVOK=
201902251700 TAF LRCV 251700Z 2518/2603 25006KT CAVOK=
201902252000 TAF LRCV 252000Z 2521/2606 25006KT CAVOK=
201902252300 TAF LRCV 252300Z 2600/2609 26006KT CAVOK=
201902260200 TAF LRCV 260200Z 2603/2612 26006KT CAVOK=
201902260500 TAF LRCV 260500Z 2606/2615 29010KT CAVOK=
201902260800 TAF LRCV 260800Z 2609/2618 28010KT CAVOK
                      BECMG 2616/2618 35007KT=
201902261100 TAF LRCV 261100Z 2612/2621 28012KT CAVOK
                      BECMG 2616/2618 35007KT=
201902261400 TAF LRCV 261400Z 2615/2624 30010KT CAVOK
                      BECMG 2615/2617 36006KT=
201902261700 TAF LRCV 261700Z 2618/2703 34010KT CAVOK
                      BECMG 2620/2622 VRB04KT=
201902262000 TAF LRCV 262000Z 2621/2706 34008KT CAVOK=
201902262300 TAF LRCV 262300Z 2700/2709 34008KT CAVOK=
201902270200 TAF LRCV 270200Z 2703/2712 33008KT CAVOK=
201902270500 TAF LRCV 270500Z 2706/2715 VRB04KT CAVOK
                      BECMG 2707/2709 03010KT
                      BECMG 2713/2715 28006KT=
201902270800 TAF LRCV 270800Z 2709/2718 03006KT CAVOK
                      BECMG 2713/2715 28006KT=
201902271100 TAF LRCV 271100Z 2712/2721 VRB04KT 9999 SCT040=
201902271400 TAF LRCV 271400Z 2715/2724 27006KT 9999 SCT045=
201902271700 TAF LRCV 271700Z 2718/2803 26006KT CAVOK=
201902272000 TAF LRCV 272000Z 2721/2806 26006KT CAVOK=
201902272300 TAF LRCV 272300Z 2800/2809 VRB04KT CAVOK
                      BECMG 2807/2809 27014KT=
201902280200 TAF LRCV 280200Z 2803/2812 VRB04KT CAVOK
                      BECMG 2807/2809 27014KT=
201902280500 TAF LRCV 280500Z 2806/2815 VRB04KT CAVOK
                      BECMG 2806/2808 28010KT
                      TEMPO 2810/2815 27015G25KT=
201902280800 TAF LRCV 280800Z 2809/2818 26012KT CAVOK
                      TEMPO 2810/2816 27015G25KT=
201902281100 TAF LRCV 281100Z 2812/2821 28018KT CAVOK
                      TEMPO 2812/2817 28018G28KT=
201902281400 TAF LRCV 281400Z 2815/2824 27018KT CAVOK
                      TEMPO 2815/2818 27018G28KT=
201902281700 TAF LRCV 281700Z 2818/0103 27014KT CAVOK=
201902282000 TAF LRCV 282000Z 2821/0106 27008KT CAVOK=
201902282300 TAF LRCV 282300Z 0100/0109 27008KT CAVOK=