201902010000 METAR LRCV 010000Z 28003KT 0100 R09/0200N -DZ FG VV001 00/00
                        Q1007 R09/19//95=
201902010030 METAR LRCV 010030Z 26004KT 220V290 0100 R09/0225N FG VV001
                        00/00 Q1008 R09/19//95=
201902010100 METAR LRCV 010100Z 24003KT 0100 R09/0225N FG VV001 00/00
                        Q1008 R09/19//95=
201902010130 METAR LRCV 010130Z 22002KT 200V260 0100 R09/0200N FZFG VV001
                        M00/M00 Q1008 R09/19//95=
201902010200 METAR LRCV 010200Z 21002KT 180V240 0200 R09/0225N FZFG VV001
                        M00/M00 Q1008 R09/19//95=
201902010230 METAR LRCV 010230Z 23004KT 0250 R09/0275N FZFG VV001 M01/M01
                        Q1008 R09/19//95=
201902010300 METAR LRCV 010300Z 24005KT 0250 R09/0325N FZFG VV001 M00/M00
                        Q1009 R09/19//95=
201902010330 METAR LRCV 010330Z 25006KT 0300 R09/0325N FZFG VV001 M01/M01
                        Q1009 R09/19//95=
201902010400 METAR LRCV 010400Z 26006KT 0300 R09/0350N FZFG VV001 M01/M01
                        Q1009 R09/19//95=
201902010430 METAR LRCV 010430Z 26006KT 0500 R09/0500N FZFG SCT001 M01/M01
                        Q1009 R09/19//95=
201902010500 METAR LRCV 010500Z 26007KT 1500 R09/1400D BR SCT002 M01/M01
                        Q1010 R09/19//95=
201902010530 METAR LRCV 010530Z 26006KT 0350 R09/1100D FZFG FEW001 M01/M01
                        Q1010 R09/19//95=
201902010600 METAR LRCV 010600Z 01002KT 310V030 0250 R09/0250N FZFG FEW001
                        M02/M02 Q1010 R09/19//95=
201902010630 METAR LRCV 010630Z 34003KT 0400 R09/0550U FZFG FEW004 M02/M02
                        Q1011 R09/19//95=
201902010700 METAR LRCV 010700Z 35003KT 320V020 0300 R09/0250N FZFG VV001
                        M02/M02 Q1011 R09/19//95=
201902010730 METAR LRCV 010730Z AUTO 34004KT 2800 BR NCD M01/M01 Q1012=
201902010800 METAR LRCV 010800Z AUTO 33003KT 0450 R09/0300V0500N FZFG
                        VV001 M00/M00 Q1012=
201902010830 METAR LRCV 010830Z AUTO 03004KT 0300 R09/0200N FZFG VV001
                        M00/M00 Q1012=
201902010900 METAR LRCV 010900Z 07004KT 040V100 0200 R09/0175N FG VV001
                        00/00 Q1012 R09/29//95=
201902010930 METAR LRCV 010930Z VRB02KT 1500 R09/0900D PRFG BR BKN001
                        01/01 Q1012 R09/29//95=
201902011000 METAR LRCV 011000Z 01003KT 310V040 6000 SCT001 03/03 Q1013
                        R09/29//95=
201902011030 METAR COR LRCV 011030Z VRB03KT 8000 FEW002 04/04 Q1013 R09/29//95=
201902011100 METAR LRCV 011100Z 02002KT 330V100 9999 FEW005 05/05 Q1013
                        R09/29//95=
201902011130 METAR LRCV 011130Z VRB03KT CAVOK 06/06 Q1012 R09/29//95=
201902011200 METAR COR LRCV 011200Z 13002KT 010V170 CAVOK 07/07 Q1012
                        R09/19//95=
201902011230 METAR COR LRCV 011230Z VRB02KT CAVOK 08/08 Q1012 R09/19//95=
201902011300 METAR COR LRCV 011300Z 09002KT 010V150 CAVOK 07/07 Q1012
                        R09/CLRD//=
201902011330 METAR LRCV 011330Z 11004KT 060V150 CAVOK 08/07 Q1012 R09/CLRD//=
201902011400 METAR LRCV 011400Z 10005KT CAVOK 09/05 Q1012=
201902011430 METAR LRCV 011430Z 09005KT 070V130 CAVOK 08/04 Q1012=
201902011500 METAR LRCV 011500Z 09005KT CAVOK 07/04 Q1012=
201902011530 METAR LRCV 011530Z 07006KT CAVOK 06/03 Q1012=
201902011600 METAR LRCV 011600Z 07006KT 8000 NSC 04/03 Q1012=
201902011630 METAR LRCV 011630Z 07007KT 7000 NSC 04/02 Q1012=
201902011700 METAR LRCV 011700Z 07007KT 6000 NSC 05/03 Q1012=
201902011730 METAR LRCV 011730Z 07006KT 8000 NSC 05/02 Q1013=
201902011800 METAR LRCV 011800Z 07007KT 9000 NSC 05/02 Q1012=
201902011830 METAR LRCV 011830Z 07007KT CAVOK 05/02 Q1013=
201902011900 METAR LRCV 011900Z AUTO 08006KT 9999 BKN070/// 03/01 Q1013=
201902011930 METAR LRCV 011930Z AUTO 09007KT 9000 BKN070/// 03/01 Q1013=
201902012000 METAR LRCV 012000Z AUTO 07007KT 9999 BKN065/// 03/01 Q1013=
201902012030 METAR LRCV 012030Z AUTO 06006KT 9000 BKN065/// 04/02 Q1013=
201902012100 METAR LRCV 012100Z 07007KT CAVOK 04/02 Q1013=
201902012130 METAR LRCV 012130Z 06006KT CAVOK 03/01 Q1013=
201902012200 METAR LRCV 012200Z 05006KT CAVOK 03/01 Q1013=
201902012230 METAR LRCV 012230Z 06008KT CAVOK 03/01 Q1013=
201902012300 METAR LRCV 012300Z 05007KT CAVOK 03/01 Q1013=
201902012330 METAR LRCV 012330Z 05007KT CAVOK 03/01 Q1013=
201902020000 METAR LRCV 020000Z 05008KT CAVOK 03/01 Q1013=
201902020030 METAR LRCV 020030Z 05008KT CAVOK 04/01 Q1012=
201902020100 METAR LRCV 020100Z 06008KT CAVOK 04/00 Q1012=
201902020130 METAR LRCV 020130Z 05006KT CAVOK 03/00 Q1012=
201902020200 METAR LRCV 020200Z 06007KT CAVOK 03/00 Q1012=
201902020230 METAR LRCV 020230Z 06007KT CAVOK 04/M00 Q1012=
201902020300 METAR LRCV 020300Z 06007KT CAVOK 03/M00 Q1012=
201902020330 METAR LRCV 020330Z 06007KT CAVOK 03/M00 Q1012=
201902020400 METAR LRCV 020400Z 06007KT CAVOK 03/M00 Q1012=
201902020430 METAR LRCV 020430Z 06008KT CAVOK 03/M00 Q1012=
201902020500 METAR LRCV 020500Z 06005KT CAVOK 03/M01 Q1012=
201902020530 METAR LRCV 020530Z 06005KT CAVOK 03/M01 Q1012=
201902020600 METAR LRCV 020600Z 06007KT CAVOK 02/M01 Q1012=
201902020630 METAR LRCV 020630Z 05004KT CAVOK 04/00 Q1013=
201902020700 METAR LRCV 020700Z 09007KT CAVOK 05/01 Q1013=
201902020730 METAR LRCV 020730Z AUTO 08009KT 9999 BKN170/// 06/01 Q1013=
201902020800 METAR LRCV 020800Z AUTO 11005KT 080V180 9999 BKN170/// 06/01
                        Q1013=
201902020830 METAR LRCV 020830Z AUTO 08009KT 9999 BKN150/// 06/01 Q1013=
201902020900 METAR LRCV 020900Z 09007KT CAVOK 06/01 Q1013=
201902020930 METAR LRCV 020930Z 08007KT CAVOK 07/02 Q1013=
201902021000 METAR LRCV 021000Z 08008KT CAVOK 07/02 Q1013=
201902021030 METAR LRCV 021030Z 08007KT CAVOK 08/03 Q1013=
201902021100 METAR LRCV 021100Z 08008KT CAVOK 09/04 Q1012=
201902021130 METAR LRCV 021130Z 08007KT CAVOK 09/04 Q1012=
201902021200 METAR LRCV 021200Z 08007KT 040V100 CAVOK 10/05 Q1012=
201902021230 METAR LRCV 021230Z 07007KT CAVOK 10/05 Q1012=
201902021300 METAR LRCV 021300Z 08007KT CAVOK 10/04 Q1012=
201902021330 METAR LRCV 021330Z 09006KT CAVOK 10/05 Q1012=
201902021400 METAR LRCV 021400Z 08007KT CAVOK 10/05 Q1012=
201902021430 METAR LRCV 021430Z 09005KT CAVOK 09/05 Q1012=
201902021500 METAR LRCV 021500Z 10004KT CAVOK 08/05 Q1012=
201902021530 METAR LRCV 021530Z 09003KT CAVOK 08/04 Q1012=
201902021600 METAR LRCV 021600Z 09005KT CAVOK 07/04 Q1011=
201902021630 METAR LRCV 021630Z 09004KT 6000 NSC 07/05 Q1012=
201902021700 METAR LRCV 021700Z 06003KT 6000 NSC 06/04 Q1012=
201902021730 METAR LRCV 021730Z AUTO 05004KT 6000 NCD 06/04 Q1012=
201902021800 METAR LRCV 021800Z AUTO 06004KT 6000 FEW110/// 05/04 Q1012=
201902021830 METAR LRCV 021830Z AUTO 02003KT 5000 BR FEW110/// 05/04 Q1012=
201902021900 METAR LRCV 021900Z AUTO 04006KT 6000 NCD 04/03 Q1012=
201902021930 METAR LRCV 021930Z AUTO 05005KT 7000 NCD 05/04 Q1012=
201902022000 METAR LRCV 022000Z AUTO 05006KT 6000 NCD 04/03 Q1012=
201902022030 METAR LRCV 022030Z AUTO 06008KT 6000 NCD 04/03 Q1012=
201902022100 METAR LRCV 022100Z AUTO 05006KT 6000 BKN130/// 05/04 Q1012=
201902022130 METAR LRCV 022130Z AUTO 04006KT 6000 BKN130/// 05/03 Q1012=
201902022200 METAR LRCV 022200Z 04007KT CAVOK 05/03 Q1012=
201902022230 METAR LRCV 022230Z 05006KT CAVOK 05/03 Q1012=
201902022300 METAR LRCV 022300Z 05008KT CAVOK 04/03 Q1012=
201902022330 METAR LRCV 022330Z 06008KT 7000 NSC 04/02 Q1012=
201902030000 METAR LRCV 030000Z 06007KT 7000 NSC 04/02 Q1012=
201902030030 METAR LRCV 030030Z 06006KT 040V100 7000 NSC 04/02 Q1012=
201902030100 METAR LRCV 030100Z 06006KT 7000 NSC 04/02 Q1012=
201902030130 METAR LRCV 030130Z 07006KT 7000 NSC 04/02 Q1011=
201902030200 METAR LRCV 030200Z 07007KT 7000 NSC 03/01 Q1011=
201902030230 METAR LRCV 030230Z 07005KT 7000 NSC 03/01 Q1011=
201902030300 METAR LRCV 030300Z 05007KT CAVOK 03/01 Q1011=
201902030330 METAR LRCV 030330Z 05006KT CAVOK 03/01 Q1011=
201902030400 METAR LRCV 030400Z 07006KT CAVOK 03/01 Q1012=
201902030430 METAR LRCV 030430Z 06005KT CAVOK 03/01 Q1012=
201902030500 METAR LRCV 030500Z 06007KT CAVOK 03/01 Q1011=
201902030530 METAR LRCV 030530Z 07007KT CAVOK 03/01 Q1012=
201902030600 METAR LRCV 030600Z 07007KT CAVOK 03/01 Q1012=
201902030630 METAR LRCV 030630Z 08007KT CAVOK 03/01 Q1012=
201902030700 METAR LRCV 030700Z 05006KT CAVOK 05/02 Q1012=
201902030730 METAR LRCV 030730Z AUTO 07008KT 4400 BR FEW160/// 06/02 Q1013=
201902030800 METAR LRCV 030800Z AUTO 07006KT 4400 BR FEW180/// 06/03 Q1013=
201902030830 METAR LRCV 030830Z AUTO 07009KT 5000 BR BKN180/// 07/03 Q1013=
201902030900 METAR LRCV 030900Z 08009KT 7000 NSC 07/03 Q1013=
201902030930 METAR LRCV 030930Z 08009KT 9000 NSC 08/03 Q1013=
201902031000 METAR LRCV 031000Z 08010KT CAVOK 09/04 Q1012=
201902031030 METAR LRCV 031030Z 07010KT CAVOK 09/04 Q1012=
201902031100 METAR LRCV 031100Z 07011KT CAVOK 09/05 Q1012=
201902031130 METAR LRCV 031130Z 08009KT CAVOK 10/05 Q1012=
201902031200 METAR COR LRCV 031200Z 08008KT CAVOK 10/06 Q1012=
201902031230 METAR LRCV 031230Z 07009KT CAVOK 10/05 Q1012=
201902031300 METAR LRCV 031300Z 08009KT CAVOK 10/06 Q1011=
201902031330 METAR LRCV 031330Z AUTO 08010KT 9999 SCT160/// BKN230///
                        10/06 Q1011=
201902031400 METAR LRCV 031400Z AUTO 08009KT 9999 BKN150/// BKN230///
                        10/07 Q1011=
201902031430 METAR LRCV 031430Z AUTO 09010KT 9999 BKN140/// 10/07 Q1011=
201902031500 METAR LRCV 031500Z AUTO 09010KT 9999 SCT160/// BKN240///
                        10/07 Q1011=
201902031530 METAR LRCV 031530Z AUTO 10010KT 9999 BKN150/// 10/07 Q1011=
201902031600 METAR LRCV 031600Z AUTO 09011KT 9999 BKN150/// 10/07 Q1011=
201902031630 METAR LRCV 031630Z AUTO 09010KT 9999 BKN160/// OVC220///
                        10/07 Q1011=
201902031700 METAR LRCV 031700Z AUTO 10009KT 9999 BKN200/// 10/07 Q1012=
201902031730 METAR LRCV 031730Z AUTO 10009KT 9999 BKN210/// 10/06 Q1012=
201902031800 METAR LRCV 031800Z AUTO 11007KT 9999 BKN210/// 09/06 Q1012=
201902031830 METAR LRCV 031830Z AUTO 10010KT 9999 OVC220/// 09/06 Q1012=
201902031900 METAR LRCV 031900Z AUTO 09008KT 050V110 9999 BKN210/// 09/06
                        Q1013=
201902031930 METAR LRCV 031930Z AUTO 09007KT 9999 BKN210/// 08/05 Q1013=
201902032000 METAR LRCV 032000Z AUTO 10005KT 9999 BKN210/// 08/05 Q1013=
201902032030 METAR LRCV 032030Z AUTO VRB03KT 9999 BKN230/// 08/05 Q1014=
201902032100 METAR LRCV 032100Z 26003KT CAVOK 07/05 Q1014=
201902032130 METAR LRCV 032130Z 36003KT CAVOK 06/05 Q1014=
201902032200 METAR LRCV 032200Z 02004KT CAVOK 05/04 Q1015=
201902032230 METAR LRCV 032230Z 36004KT CAVOK 05/04 Q1015=
201902032300 METAR LRCV 032300Z 01005KT CAVOK 05/04 Q1015=
201902032330 METAR LRCV 032330Z 36005KT CAVOK 05/04 Q1016=
201902040000 METAR LRCV 040000Z 01006KT 7000 NSC 05/04 Q1016=
201902040030 METAR LRCV 040030Z 33003KT CAVOK 05/03 Q1016=
201902040100 METAR LRCV 040100Z 04004KT CAVOK 05/04 Q1016=
201902040130 METAR LRCV 040130Z 03004KT CAVOK 05/03 Q1016=
201902040200 METAR LRCV 040200Z 04004KT CAVOK 05/03 Q1017=
201902040230 METAR LRCV 040230Z 08002KT CAVOK 05/03 Q1017=
201902040300 METAR LRCV 040300Z 27006KT CAVOK 03/02 Q1017=
201902040330 METAR LRCV 040330Z 31003KT 270V340 CAVOK 03/02 Q1017=
201902040400 METAR LRCV 040400Z 26005KT CAVOK 03/02 Q1018=
201902040430 METAR LRCV 040430Z 28006KT CAVOK 03/02 Q1018=
201902040500 METAR LRCV 040500Z 27006KT CAVOK 03/02 Q1018=
201902040530 METAR LRCV 040530Z 29006KT CAVOK 04/02 Q1018=
201902040600 METAR LRCV 040600Z 33006KT CAVOK 05/03 Q1019=
201902040630 METAR LRCV 040630Z 31005KT CAVOK 06/04 Q1019=
201902040700 METAR LRCV 040700Z 33004KT CAVOK 07/05 Q1019=
201902040730 METAR LRCV 040730Z AUTO 14007KT 9999 FEW160/// 08/04 Q1020=
201902040800 METAR LRCV 040800Z AUTO 16005KT 130V190 9999 NCD 08/05 Q1021=
201902040830 METAR LRCV 040830Z AUTO 25005KT 9999 NCD 09/04 Q1021=
201902040900 METAR LRCV 040900Z 28006KT CAVOK 09/04 Q1021=
201902040930 METAR LRCV 040930Z 28004KT 240V310 CAVOK 11/05 Q1022=
201902041000 METAR LRCV 041000Z 28006KT CAVOK 12/05 Q1021=
201902041030 METAR LRCV 041030Z 29008KT CAVOK 13/06 Q1021=
201902041100 METAR LRCV 041100Z 30009KT CAVOK 12/05 Q1021=
201902041130 METAR LRCV 041130Z 28009KT CAVOK 13/06 Q1021=
201902041200 METAR LRCV 041200Z 28009KT CAVOK 13/06 Q1021=
201902041230 METAR LRCV 041230Z 29008KT CAVOK 14/07 Q1021=
201902041300 METAR LRCV 041300Z 29009KT CAVOK 14/07 Q1021=
201902041330 METAR LRCV 041330Z 30008KT CAVOK 14/07 Q1021=
201902041400 METAR LRCV 041400Z 31007KT CAVOK 14/07 Q1021=
201902041430 METAR LRCV 041430Z 30009KT CAVOK 13/06 Q1021=
201902041500 METAR LRCV 041500Z 30009KT CAVOK 12/06 Q1021=
201902041530 METAR LRCV 041530Z 30006KT CAVOK 11/05 Q1021=
201902041600 METAR LRCV 041600Z 29006KT CAVOK 10/05 Q1022=
201902041630 METAR LRCV 041630Z 27005KT CAVOK 10/06 Q1022=
201902041700 METAR LRCV 041700Z 29007KT CAVOK 08/06 Q1022=
201902041730 METAR LRCV 041730Z 31006KT CAVOK 08/06 Q1022=
201902041800 METAR LRCV 041800Z 29008KT CAVOK 08/05 Q1022=
201902041830 METAR LRCV 041830Z AUTO 27008KT 9999 BKN120/// OVC130///
                        07/05 Q1022=
201902041900 METAR LRCV 041900Z AUTO 28009KT 9999 SCT110/// BKN130///
                        07/04 Q1022=
201902041930 METAR LRCV 041930Z AUTO 29007KT 9999 OVC120/// 06/04 Q1022=
201902042000 METAR LRCV 042000Z AUTO 29008KT 9999 BKN120/// 06/04 Q1022=
201902042030 METAR LRCV 042030Z AUTO 28008KT 9999 BKN110/// 06/04 Q1023=
201902042100 METAR LRCV 042100Z 28006KT CAVOK 06/04 Q1023=
201902042130 METAR LRCV 042130Z 27007KT CAVOK 06/03 Q1023=
201902042200 METAR LRCV 042200Z 25004KT CAVOK 05/03 Q1023=
201902042230 METAR LRCV 042230Z 19002KT 150V240 CAVOK 05/03 Q1024=
201902042300 METAR LRCV 042300Z 18002KT CAVOK 05/03 Q1024=
201902042330 METAR LRCV 042330Z 13003KT CAVOK 05/03 Q1024=
201902050000 METAR LRCV 050000Z 06005KT CAVOK 05/04 Q1024=
201902050030 METAR LRCV 050030Z 10006KT CAVOK 06/04 Q1024=
201902050100 METAR LRCV 050100Z AUTO 10011KT 9999 BKN100/// OVC120///
                        06/04 Q1024=
201902050130 METAR LRCV 050130Z AUTO 09014KT 9999 BKN100/// 06/03 Q1024=
201902050200 METAR LRCV 050200Z AUTO 10013KT 9999 OVC010/// 06/03 Q1024=
201902050230 METAR LRCV 050230Z AUTO 09011KT 9000 BKN008/// OVC010///
                        06/04 Q1024=
201902050300 METAR LRCV 050300Z AUTO 10008KT 8000 OVC007/// 06/04 Q1025=
201902050330 METAR LRCV 050330Z 10007KT 8000 BKN007 06/04 Q1025=
201902050400 METAR LRCV 050400Z 09006KT 7000 SCT007 BKN009 06/04 Q1025=
201902050430 METAR LRCV 050430Z 10009KT 5000 BR BKN007 BKN015 06/04 Q1025=
201902050500 METAR LRCV 050500Z 11006KT 5000 BR BKN007 OVC015 06/04 Q1025=
201902050530 METAR LRCV 050530Z 11008KT 0900 R09/1500D FG BKN002 OVC006
                        05/05 Q1025=
201902050600 METAR LRCV 050600Z 10009KT 0800 R09/1000N FG BKN001 OVC003
                        05/05 Q1025=
201902050630 METAR LRCV 050630Z 09009KT 2000 BR BKN002 BKN004 05/05 Q1025=
201902050700 METAR LRCV 050700Z 10011KT 3000 BR BKN003 BKN007 05/05 Q1026=
201902050730 METAR LRCV 050730Z AUTO 09011KT 2900 BR SCT004/// BKN006///
                        05/05 Q1026=
201902050800 METAR LRCV 050800Z AUTO 09011KT 4100 BR BKN006/// OVC008///
                        05/04 Q1026=
201902050830 METAR LRCV 050830Z AUTO 09012KT 3200 BR BKN005/// BKN007///
                        05/04 Q1026=
201902050900 METAR LRCV 050900Z AUTO 09011KT 2400 BR BKN004/// BKN006///
                        OVC008/// 05/05 Q1026=
201902050930 METAR LRCV 050930Z AUTO 09009KT 2100 BR FEW003/// BKN006///
                        BKN008/// 05/05 Q1026=
201902051000 METAR LRCV 051000Z 08014KT 2000 -DZ BR BKN003 OVC006 05/05
                        Q1026=
201902051030 METAR LRCV 051030Z 08012KT 3000 BR SCT005 BKN007 05/05 Q1026=
201902051100 METAR LRCV 051100Z 08011KT 3000 BR SCT005 OVC007 05/05 Q1025=
201902051130 METAR LRCV 051130Z 09009KT 4500 BR BKN004 OVC006 05/05 Q1025=
201902051200 METAR LRCV 051200Z 09009KT 3000 BR BKN004 OVC006 05/05 Q1025=
201902051230 METAR LRCV 051230Z 09012KT 4000 BR SCT004 BKN006 OVC013 06/05
                        Q1025=
201902051300 METAR LRCV 051300Z 08010KT 5000 BR SCT004 BKN006 OVC010 06/05
                        Q1025=
201902051330 METAR LRCV 051330Z 08010KT 5000 BR BKN004 OVC009 06/05 Q1025=
201902051400 METAR LRCV 051400Z 08009KT 5000 BR SCT003 OVC005 06/04 Q1025=
201902051430 METAR LRCV 051430Z 08010KT 5000 BR FEW003 OVC005 05/04 Q1025=
201902051500 METAR LRCV 051500Z 09007KT 060V120 4500 BR BKN004 OVC006
                        05/04 Q1025=
201902051530 METAR LRCV 051530Z 08007KT 4000 BR BKN004 OVC006 05/04 Q1025=
201902051600 METAR LRCV 051600Z 08006KT 3000 BR BKN004 OVC006 05/04 Q1025=
201902051630 METAR LRCV 051630Z 09005KT 3000 BR OVC005 05/04 Q1025=
201902051700 METAR LRCV 051700Z 09005KT 3500 BR OVC005 05/04 Q1025=
201902051730 METAR LRCV 051730Z AUTO 09006KT 5000 BR OVC005/// 05/04 Q1025=
201902051800 METAR LRCV 051800Z AUTO 07007KT 4500 BR OVC004/// 05/04 Q1024=
201902051830 METAR LRCV 051830Z AUTO 09006KT 4300 BR BKN003/// OVC005///
                        05/04 Q1024=
201902051900 METAR LRCV 051900Z AUTO 08007KT 4000 BR OVC003/// 05/04 Q1024=
201902051930 METAR LRCV 051930Z AUTO 08006KT 4200 BR OVC004/// 05/04 Q1024=
201902052000 METAR LRCV 052000Z AUTO 09006KT 4000 BR BKN003/// OVC005///
                        04/04 Q1024=
201902052030 METAR LRCV 052030Z AUTO 12004KT 3900 BR OVC002/// 04/04 Q1024=
201902052100 METAR LRCV 052100Z AUTO 12004KT 090V150 3200 BR OVC002///
                        04/04 Q1024=
201902052130 METAR LRCV 052130Z AUTO 10005KT 2100 R09/1300V1900D BR BKN001///
                        OVC003/// 04/04 Q1024=
201902052200 METAR LRCV 052200Z 10004KT 1700 R09/1200U BR BKN001 04/04
                        Q1024=
201902052230 METAR LRCV 052230Z 09004KT 3000 BR BKN002 BKN004 04/04 Q1024=
201902052300 METAR LRCV 052300Z 08004KT 3000 BR SCT002 BKN004 04/04 Q1023=
201902052330 METAR LRCV 052330Z 08003KT 050V110 0800 R09/1100U FG OVC002
                        04/04 Q1023=
201902060000 METAR LRCV 060000Z 05002KT 0600 R09/1000D FG VV002 04/04
                        Q1023=
201902060030 METAR LRCV 060030Z 36002KT 0400 R09/0325N FG VV001 04/04
                        Q1023=
201902060100 METAR LRCV 060100Z 03004KT 1500 BR FEW001 SCT004 BKN007 04/04
                        Q1022=
201902060130 METAR LRCV 060130Z 02003KT 3000 BR FEW007 SCT009 BKN015 03/03
                        Q1022=
201902060200 METAR LRCV 060200Z 05003KT 3500 BR SCT011 BKN014 BKN028 03/03
                        Q1022=
201902060230 METAR LRCV 060230Z 12003KT 080V140 4000 BR OVC010 04/04 Q1022=
201902060300 METAR LRCV 060300Z VRB01KT 4000 BR BKN009 04/03 Q1022=
201902060330 METAR LRCV 060330Z 15002KT 4400 BR BKN007 OVC009 04/03 Q1022=
201902060400 METAR LRCV 060400Z VRB01KT 3800 BR FEW003 BKN005 BKN007 04/03
                        Q1021=
201902060430 METAR LRCV 060430Z 27002KT 3300 BR BKN005 OVC008 04/03 Q1021=
201902060500 METAR LRCV 060500Z 24002KT 3100 BR FEW004 BKN006 BKN008 04/03
                        Q1021=
201902060530 METAR LRCV 060530Z 21003KT 2000 BR FEW002 BKN007 OVC010 04/04
                        Q1021=
201902060600 METAR LRCV 060600Z 27002KT 230V290 2000 BR FEW002 OVC004
                        04/04 Q1021=
201902060630 METAR LRCV 060630Z 20002KT 2000 BR OVC004 04/04 Q1022=
201902060700 METAR LRCV 060700Z 18004KT 1500 BR SCT003 OVC005 04/04 Q1022=
201902060730 METAR LRCV 060730Z 20002KT 1200 R09/1000D BR BKN002 OVC005
                        04/04 Q1022=
201902060800 METAR LRCV 060800Z 22003KT 190V260 0500 R09/0750N FG BKN001
                        BKN003 04/04 Q1022=
201902060830 METAR LRCV 060830Z 19002KT 160V220 0300 R09/0350N FG VV002
                        04/04 Q1022=
201902060900 METAR LRCV 060900Z 22002KT 0300 R09/0250N FG VV002 04/04
                        Q1022=
201902060930 METAR LRCV 060930Z 21002KT 160V240 0400 R09/0325N FG VV002
                        04/04 Q1022=
201902061000 METAR LRCV 061000Z VRB02KT 1500 R09/1300N BR BKN001 OVC005
                        04/04 Q1022=
201902061030 METAR LRCV 061030Z 20002KT 1200 R09/1200U -DZ BR BKN002 OVC004
                        05/05 Q1022=
201902061100 METAR LRCV 061100Z VRB01KT 3000 BR SCT005 OVC007 05/05 Q1022=
201902061130 METAR LRCV 061130Z 18004KT 140V210 3000 BR SCT005 OVC007
                        05/05 Q1022=
201902061200 METAR LRCV 061200Z 15005KT 100V170 3000 BR BKN005 BKN007
                        05/04 Q1022 R27/19//95=
201902061230 METAR LRCV 061230Z 18003KT 2500 BR BKN005 BKN007 05/04 Q1022
                        R27/19//95=
201902061300 METAR LRCV 061300Z 16006KT 3000 BR SCT007 BKN010 05/04 Q1022
                        R27/19//95=
201902061330 METAR LRCV 061330Z 14005KT 3500 BR SCT007 BKN010 05/04 Q1022
                        R27/19//95=
201902061400 METAR LRCV 061400Z 16007KT 4000 BR SCT005 BKN008 05/04 Q1022
                        R27/19//95=
201902061430 METAR LRCV 061430Z 14007KT 1200 R09/1500D BR BKN002 BKN008
                        04/04 Q1022 R27/19//95=
201902061500 METAR LRCV 061500Z 14008KT 1200 R09/1400D -RA BR SCT001 OVC003
                        04/04 Q1023 R27/19//95=
201902061530 METAR LRCV 061530Z 13007KT 0600 R09/1300U -RA FG BKN001 BKN003
                        04/04 Q1023 R27/19//95=
201902061600 METAR LRCV 061600Z 12006KT 0900 R09/1300D FG BKN001 04/04
                        Q1023 R27/19//95=
201902061630 METAR LRCV 061630Z 12006KT 3000 BR SCT001 BKN011 03/03 Q1023
                        R27/19//95=
201902061700 METAR LRCV 061700Z 12005KT 4000 BR SCT013 BKN017 03/03 Q1023
                        R27/19//95=
201902061730 METAR LRCV 061730Z AUTO 12004KT 5000 BR FEW005/// BKN018///
                        03/03 Q1023=
201902061800 METAR LRCV 061800Z AUTO 14005KT 5000 BR FEW004/// OVC019///
                        03/03 Q1023=
201902061830 METAR LRCV 061830Z AUTO 15006KT 5000 BR FEW005/// BKN018///
                        BKN049/// 03/03 Q1023=
201902061900 METAR LRCV 061900Z AUTO 16008KT 6000 FEW007/// BKN019///
                        03/02 Q1024=
201902061930 METAR LRCV 061930Z AUTO 16008KT 5000 BR SCT006/// BKN008///
                        BKN020/// 03/02 Q1024=
201902062000 METAR LRCV 062000Z AUTO 18006KT 5000 BR SCT004/// BKN006///
                        OVC009/// 03/02 Q1024=
201902062030 METAR LRCV 062030Z AUTO 18007KT 4800 BR SCT004/// BKN006///
                        OVC008/// 03/02 Q1024=
201902062100 METAR LRCV 062100Z 17009KT 5000 BR SCT002 BKN004 BKN006 02/02
                        Q1024=
201902062130 METAR LRCV 062130Z 17008KT 5000 BR SCT004 BKN006 02/02 Q1024
                        R09/19//95=
201902062200 METAR LRCV 062200Z 17006KT 3000 BR BKN004 OVC006 02/02 Q1025
                        R09/19//95=
201902062230 METAR LRCV 062230Z 18007KT 3000 -DZ BR SCT003 OVC006 02/02
                        Q1025 R09/19//95=
201902062300 METAR LRCV 062300Z 18007KT 2000 -RA BR BKN002 OVC006 01/01
                        Q1025 R09/19//95=
201902062330 METAR LRCV 062330Z 18006KT 2000 -SN BR BKN002 OVC005 00/00
                        Q1025 R09/19//95=
201902070000 METAR LRCV 070000Z 18004KT 2000 -SN BR SCT002 OVC006 00/00
                        Q1025 R09/19//95=
201902070030 METAR LRCV 070030Z 16005KT 3000 -RASN BR FEW002 SCT005 BKN007
                        01/01 Q1026 R09/19//95=
201902070100 METAR LRCV 070100Z 16004KT 3000 -RASN BR FEW004 BKN008 00/00
                        Q1025 R09/19//95=
201902070130 METAR LRCV 070130Z 15003KT 3000 -SN BR FEW002 BKN005 OVC008
                        00/00 Q1025 R09/19//95=
201902070200 METAR LRCV 070200Z 15002KT 4000 -SN BR SCT005 BKN008 00/00
                        Q1025 R09/19//95=
201902070230 METAR LRCV 070230Z 14003KT 4000 -SN BR FEW003 BKN006 BKN008
                        00/00 Q1025 R09/19//95=
201902070300 METAR LRCV 070300Z 14003KT 3500 -SN BR SCT005 BKN007 BKN009
                        00/00 Q1025 R09/19//95=
201902070330 METAR LRCV 070330Z 15004KT 4000 -SN BR SCT003 BKN006 00/00
                        Q1025 R09/19//95=
201902070400 METAR LRCV 070400Z 14006KT 5000 -SN BR OVC005 00/00 Q1025
                        R09/29//95=
201902070430 METAR LRCV 070430Z 13006KT 5000 -SN BR FEW005 BKN007 00/00
                        Q1025 R09/29//95=
201902070500 METAR LRCV 070500Z 14006KT 5000 -RASN BR SCT005 BKN007 00/00
                        Q1026 R09/29//95=
201902070530 METAR LRCV 070530Z 14006KT 5000 -RASN BR SCT006 OVC008 00/00
                        Q1025 R09/29//95=
201902070600 METAR LRCV 070600Z 13005KT 3200 BR FEW004 BKN006 BKN009 00/M00
                        Q1025 R09/29//95=
201902070630 METAR LRCV 070630Z 14006KT 2900 -RASN BR FEW005 BKN007 BKN010
                        00/M00 Q1026 R09/29//95=
201902070700 METAR LRCV 070700Z 13006KT 5000 BR FEW005 SCT013 BKN020 00/M00
                        Q1026 R09/29//95=
201902070730 METAR LRCV 070730Z AUTO 12005KT 7000 FEW006/// SCT012///
                        BKN021/// 00/M00 Q1026 RESN=
201902070800 METAR LRCV 070800Z AUTO 11005KT 4400 SG FEW005/// SCT007///
                        BKN010/// 00/M00 Q1026=
201902070830 METAR LRCV 070830Z AUTO 12004KT 3900 SG FEW006/// SCT009///
                        BKN026/// 00/M00 Q1026=
201902070900 METAR COR LRCV 070900Z 12006KT 5000 -DZ BR SCT009 BKN017
                        01/M00 Q1026=
201902070930 METAR LRCV 070930Z 12005KT 8000 -DZ SCT008 BKN018 01/M00
                        Q1026=
201902071000 METAR LRCV 071000Z 10004KT 070V140 9999 FEW010 SCT019 BKN025
                        01/M00 Q1026=
201902071030 METAR LRCV 071030Z 10004KT 080V150 9999 FEW015 OVC026 01/M01
                        Q1026=
201902071100 METAR LRCV 071100Z 11004KT 9999 SCT016 OVC025 01/M01 Q1025=
201902071130 METAR LRCV 071130Z 12003KT 090V150 9999 FEW017 OVC028 02/M01
                        Q1025=
201902071200 METAR LRCV 071200Z 09003KT 9999 OVC028 02/M02 Q1024=
201902071230 METAR LRCV 071230Z 04003KT 360V060 9999 OVC027 02/M01 Q1024=
201902071300 METAR LRCV 071300Z 05003KT 010V100 9999 BKN026 OVC031 02/M01
                        Q1024=
201902071330 METAR LRCV 071330Z 09002KT 030V120 9999 BKN025 OVC031 02/M02
                        Q1024=
201902071400 METAR LRCV 071400Z 07003KT 030V110 9999 SCT024 OVC028 02/M01
                        Q1024=
201902071430 METAR LRCV 071430Z 15002KT 110V170 9999 BKN024 OVC032 02/M02
                        Q1024=
201902071500 METAR LRCV 071500Z 16002KT 130V200 9999 BKN026 OVC040 02/M02
                        Q1024=
201902071530 METAR LRCV 071530Z VRB01KT 9999 SCT029 OVC040 02/M02 Q1023=
201902071600 METAR LRCV 071600Z 10002KT 070V130 9999 FEW029 OVC038 02/M02
                        Q1023=
201902071630 METAR LRCV 071630Z 08002KT 9999 OVC038 01/M01 Q1023=
201902071700 METAR LRCV 071700Z 08002KT 9999 OVC038 01/M01 Q1023=
201902071730 METAR LRCV 071730Z AUTO 07002KT 9999 OVC038/// 01/M01 Q1023=
201902071800 METAR LRCV 071800Z AUTO 05003KT 9999 OVC036/// 01/M01 Q1023=
201902071830 METAR LRCV 071830Z AUTO 07003KT 9999 OVC036/// 01/M01 Q1023=
201902071900 METAR LRCV 071900Z AUTO 06003KT 9999 BKN035/// 01/M01 Q1023=
201902071930 METAR LRCV 071930Z AUTO 05003KT 9999 OVC034/// 01/M01 Q1023=
201902072000 METAR LRCV 072000Z AUTO 04003KT 9999 OVC034/// 01/M01 Q1023=
201902072030 METAR LRCV 072030Z AUTO 06004KT 9999 BKN034/// 01/M01 Q1023=
201902072100 METAR LRCV 072100Z AUTO 04004KT 9999 OVC034/// ///// Q1023=
201902072130 METAR LRCV 072130Z AUTO 03005KT 9999 BKN035/// 01/M01 Q1022=
201902072200 METAR LRCV 072200Z 03004KT 9999 OVC035 01/M01 Q1022=
201902072230 METAR LRCV 072230Z 02006KT 7000 BKN035 01/M00 Q1022=
201902072300 METAR LRCV 072300Z 03004KT 6000 OVC036 01/M00 Q1022=
201902072330 METAR LRCV 072330Z 05004KT 6000 BKN036 01/M00 Q1022=
201902080000 METAR LRCV 080000Z 04003KT 6000 OVC036 01/M00 Q1022=
201902080030 METAR LRCV 080030Z 03003KT 7000 BKN037 01/M00 Q1022=
201902080100 METAR LRCV 080100Z 06004KT 7000 OVC034 01/M00 Q1021=
201902080130 METAR LRCV 080130Z AUTO 07003KT 7000 BKN034/// 01/M00 Q1021=
201902080200 METAR LRCV 080200Z AUTO 08003KT 7000 OVC035/// 01/M01 Q1021=
201902080230 METAR LRCV 080230Z AUTO 09002KT 8000 BKN036/// 01/M00 Q1021=
201902080300 METAR LRCV 080300Z AUTO 09003KT 8000 OVC036/// 01/M01 Q1021=
201902080330 METAR LRCV 080330Z 10003KT 7000 OVC036 01/M01 Q1021=
201902080400 METAR LRCV 080400Z 12004KT 8000 OVC036 01/M01 Q1021 R09/19//95=
201902080430 METAR LRCV 080430Z 11003KT 8000 OVC036 01/M01 Q1021 R09/19//95=
201902080500 METAR LRCV 080500Z 12004KT 8000 OVC036 01/M01 Q1021 R09/19//95=
201902080530 METAR LRCV 080530Z 12003KT 7000 OVC036 01/M01 Q1021 R09/19//95=
201902080600 METAR LRCV 080600Z 16003KT 8000 OVC036 01/M01 Q1021 R09/19//95=
201902080630 METAR LRCV 080630Z 15002KT 7000 OVC037 01/M00 Q1021 R09/19//95=
201902080700 METAR LRCV 080700Z 15003KT 100V170 7000 OVC037 01/M00 Q1021
                        R09/19//95=
201902080730 METAR LRCV 080730Z AUTO VRB01KT 8000 OVC038/// 02/M00 Q1021=
201902080800 METAR LRCV 080800Z AUTO 15002KT 100V190 9999 OVC038/// 02/M00
                        Q1021=
201902080830 METAR LRCV 080830Z AUTO VRB01KT 9000 OVC039/// 02/M01 Q1022=
201902080900 METAR LRCV 080900Z 00000KT 9999 OVC040 02/M00 Q1022=
201902080930 METAR LRCV 080930Z VRB01KT 9999 BKN040 03/M00 Q1022=
201902081000 METAR LRCV 081000Z 29002KT 200V360 9999 BKN043 03/M00 Q1022=
201902081030 METAR LRCV 081030Z 28003KT 250V310 9999 FEW014 BKN044 04/M00
                        Q1022=
201902081100 METAR LRCV 081100Z 29004KT 220V330 9999 FEW017 BKN045 04/M01
                        Q1021=
201902081130 METAR LRCV 081130Z 30004KT 230V350 9999 SCT022 BKN045 04/M01
                        Q1021=
201902081200 METAR LRCV 081200Z 30005KT 230V340 9999 FEW022 SCT030 BKN046
                        04/M02 Q1021=
201902081230 METAR LRCV 081230Z 31005KT 260V360 9999 SCT027 BKN042 04/M02
                        Q1021=
201902081300 METAR LRCV 081300Z 31004KT 270V350 9999 SCT027 BKN038 04/M02
                        Q1021=
201902081330 METAR LRCV 081330Z 33005KT 9999 SCT030 BKN040 04/M02 Q1021=
201902081400 METAR LRCV 081400Z 33005KT 9999 SCT028 BKN043 04/M01 Q1021=
201902081430 METAR LRCV 081430Z 33005KT 9999 SCT025 BKN040 04/M02 Q1021=
201902081500 METAR LRCV 081500Z 32005KT 9999 SCT022 BKN038 03/M02 Q1021=
201902081530 METAR LRCV 081530Z 33003KT 9999 FEW029 BKN035 03/M02 Q1021=
201902081600 METAR LRCV 081600Z 33002KT 9999 BKN029 03/M01 Q1021=
201902081630 METAR LRCV 081630Z 29003KT 9999 BKN027 03/M02 Q1021=
201902081700 METAR LRCV 081700Z 32002KT 290V350 9999 SCT027 BKN035 03/M03
                        Q1021=
201902081730 METAR LRCV 081730Z 31004KT 9999 OVC037 03/M03 Q1022=
201902081800 METAR LRCV 081800Z VRB01KT 9999 BKN039 03/M04 Q1022=
201902081830 METAR LRCV 081830Z AUTO 26002KT 9999 OVC039/// 02/M03 Q1022=
201902081900 METAR LRCV 081900Z AUTO 32002KT 9999 OVC040/// 03/M04 Q1022=
201902081930 METAR LRCV 081930Z AUTO 33004KT 9999 OVC040/// 03/M03 Q1022=
201902082000 METAR LRCV 082000Z AUTO 36002KT 320V070 9999 OVC041/// 02/M03
                        Q1022=
201902082030 METAR LRCV 082030Z AUTO 35004KT 9999 OVC042/// 02/M03 Q1022=
201902082100 METAR LRCV 082100Z 34003KT 9999 OVC043 02/M03 Q1022=
201902082130 METAR LRCV 082130Z 35004KT 9999 OVC043 02/M03 Q1022=
201902082200 METAR LRCV 082200Z 28002KT 210V350 9999 OVC043 02/M05 Q1022=
201902082230 METAR LRCV 082230Z 36002KT 9999 OVC043 02/M04 Q1022=
201902082300 METAR LRCV 082300Z VRB02KT 9999 OVC043 03/M06 Q1022=
201902082330 METAR LRCV 082330Z VRB01KT 9999 OVC043 02/M05 Q1022=
201902090000 METAR LRCV 090000Z VRB01KT 9999 OVC043 02/M05 Q1022=
201902090030 METAR LRCV 090030Z 24003KT 200V270 9999 OVC043 02/M05 Q1022=
201902090100 METAR LRCV 090100Z 01002KT 9999 OVC042 02/M06 Q1022=
201902090130 METAR LRCV 090130Z 35004KT 9999 BKN041 01/M04 Q1021=
201902090200 METAR LRCV 090200Z 33005KT 9999 BKN041 00/M04 Q1021=
201902090230 METAR LRCV 090230Z 36003KT 9999 BKN040 00/M05 Q1021=
201902090300 METAR LRCV 090300Z 29002KT 9999 OVC040 01/M05 Q1021=
201902090330 METAR LRCV 090330Z VRB01KT 9999 BKN040 01/M05 Q1021=
201902090400 METAR LRCV 090400Z 27003KT 9999 OVC040 01/M05 Q1021=
201902090430 METAR LRCV 090430Z VRB02KT 9999 BKN040 02/M06 Q1021=
201902090500 METAR LRCV 090500Z 04004KT 9999 BKN040 01/M05 Q1021=
201902090530 METAR LRCV 090530Z 06003KT 9999 BKN040 01/M04 Q1021=
201902090600 METAR LRCV 090600Z 08004KT 9999 BKN040 00/M04 Q1021=
201902090630 METAR LRCV 090630Z 10002KT 350V130 9999 BKN040 01/M04 Q1021=
201902090700 METAR LRCV 090700Z 09003KT 9999 BKN040 02/M03 Q1021=
201902090730 METAR LRCV 090730Z AUTO 25003KT 200V320 9999 BKN039/// 02/M03
                        Q1021=
201902090800 METAR LRCV 090800Z AUTO 24003KT 9000 OVC038/// 02/M03 Q1021=
201902090830 METAR LRCV 090830Z AUTO 22002KT 150V290 9999 BKN039/// 03/M04
                        Q1021=
201902090900 METAR LRCV 090900Z VRB02KT 9999 OVC038 03/M04 Q1021=
201902090930 METAR LRCV 090930Z VRB03KT 9999 OVC038 04/M04 Q1021=
201902091000 METAR LRCV 091000Z 19003KT 130V250 9999 OVC037 04/M04 Q1021=
201902091030 METAR LRCV 091030Z 22004KT 190V270 9999 OVC037 04/M05 Q1021=
201902091100 METAR LRCV 091100Z 23004KT 160V320 9999 OVC036 05/M04 Q1021=
201902091130 METAR LRCV 091130Z 25005KT 9999 BKN036 04/M04 Q1020=
201902091200 METAR LRCV 091200Z 27006KT 210V320 9999 BKN036 06/M03 Q1020=
201902091230 METAR LRCV 091230Z 28006KT 210V360 9999 SCT036 06/M03 Q1020=
201902091300 METAR LRCV 091300Z 26007KT CAVOK 06/M03 Q1020=
201902091330 METAR LRCV 091330Z VRB02KT CAVOK 05/M04 Q1019=
201902091400 METAR LRCV 091400Z 24007KT CAVOK 05/M03 Q1019=
201902091430 METAR LRCV 091430Z 27007KT 240V300 CAVOK 05/M03 Q1019=
201902091500 METAR LRCV 091500Z 26006KT 9999 FEW033 04/M03 Q1019=
201902091530 METAR LRCV 091530Z 25006KT 9999 FEW034 04/M03 Q1019=
201902091600 METAR LRCV 091600Z 26004KT CAVOK 03/M03 Q1019=
201902091630 METAR LRCV 091630Z 22003KT CAVOK 03/M03 Q1019=
201902091700 METAR LRCV 091700Z 22003KT CAVOK 03/M03 Q1020=
201902091730 METAR LRCV 091730Z AUTO 24002KT 220V350 7000 NCD 01/M03 Q1020=
201902091800 METAR LRCV 091800Z AUTO 25002KT 6000 NCD 02/M03 Q1020=
201902091830 METAR LRCV 091830Z AUTO 21003KT 8000 NCD 02/M03 Q1020=
201902091900 METAR LRCV 091900Z AUTO 21003KT 9000 NCD 02/M03 Q1020=
201902091930 METAR LRCV 091930Z AUTO 21003KT 7000 BKN240/// 02/M02 Q1020=
201902092000 METAR LRCV 092000Z AUTO 22004KT 8000 SCT230/// 01/M03 Q1020=
201902092030 METAR LRCV 092030Z AUTO 25004KT 8000 SCT220/// 01/M03 Q1020=
201902092100 METAR LRCV 092100Z AUTO 26003KT 8000 BKN220/// 01/M03 Q1020=
201902092130 METAR LRCV 092130Z AUTO 27002KT 6000 FEW220/// 00/M03 Q1020=
201902092200 METAR LRCV 092200Z VRB01KT 5000 BR NSC M01/M04 Q1020=
201902092230 METAR LRCV 092230Z 08001KT 5000 BR NSC M01/M03 Q1019=
201902092300 METAR LRCV 092300Z VRB01KT 5000 BR NSC M02/M03 Q1020=
201902092330 METAR LRCV 092330Z 13002KT 4500 BR NSC M02/M03 Q1019=
201902100000 METAR LRCV 100000Z VRB01KT 4000 BR NSC M02/M03 Q1020=
201902100030 METAR LRCV 100030Z 07002KT 3000 BR NSC M02/M03 Q1019=
201902100100 METAR LRCV 100100Z AUTO 03002KT 2800 R09/1300VP2000U NCD
                        M03/M03 Q1019=
201902100130 METAR LRCV 100130Z AUTO 09002KT 2300 R09/1000V2000U FZFG
                        NCD M03/M03 Q1019=
201902100200 METAR LRCV 100200Z AUTO 07002KT 3100 R09/0800VP2000U NCD
                        M03/M03 Q1019=
201902100230 METAR LRCV 100230Z AUTO 09003KT 3200 BCFG NCD M03/M04 Q1019=
201902100300 METAR LRCV 100300Z AUTO VRB01KT 2800 R09/1900U BCFG NCD M03/M03
                        Q1019=
201902100330 METAR LRCV 100330Z 09003KT 2500 BR NSC M04/M04 Q1019=
201902100400 METAR LRCV 100400Z VRB02KT 2000 R09/0800D BCFG BR NSC M04/M04
                        Q1019=
201902100430 METAR LRCV 100430Z VRB02KT 2500 BR NSC M03/M04 Q1019=
201902100500 METAR LRCV 100500Z VRB01KT 2500 BR NSC M03/M03 Q1019=
201902100530 METAR LRCV 100530Z 04002KT 2800 BR NSC M04/M04 Q1019=
201902100600 METAR LRCV 100600Z 05001KT 3000 BR NSC M04/M04 Q1019=
201902100630 METAR LRCV 100630Z 06001KT 3000 BR NSC M03/M03 Q1020=
201902100700 METAR LRCV 100700Z 05002KT 4000 BR NSC M02/M02 Q1020=
201902100730 METAR LRCV 100730Z AUTO 07004KT 6000 NCD M00/M02 Q1020=
201902100800 METAR LRCV 100800Z AUTO 05002KT 360V160 6000 NCD 01/M01 Q1020=
201902100830 METAR LRCV 100830Z AUTO 08003KT 050V110 7000 NCD 02/M01 Q1020=
201902100900 METAR LRCV 100900Z 04004KT 7000 NSC 02/M01 Q1020=
201902100930 METAR LRCV 100930Z 08003KT 050V150 8000 NSC 03/M01 Q1020=
201902101000 METAR LRCV 101000Z 06005KT 040V100 9000 NSC 04/M01 Q1020=
201902101030 METAR LRCV 101030Z 08003KT 020V170 CAVOK 05/M00 Q1019=
201902101100 METAR LRCV 101100Z VRB03KT CAVOK 06/00 Q1019=
201902101130 METAR LRCV 101130Z 01003KT 310V120 CAVOK 07/M00 Q1019=
201902101200 METAR LRCV 101200Z VRB03KT CAVOK 07/M00 Q1019=
201902101230 METAR LRCV 101230Z 06004KT 010V100 CAVOK 07/M00 Q1018=
201902101300 METAR LRCV 101300Z 07004KT 030V110 CAVOK 08/M01 Q1018=
201902101330 METAR LRCV 101330Z NIL=
201902101400 METAR LRCV 101400Z AUTO 11004KT 070V130 9999 NCD 07/00 Q1018=
201902101430 METAR LRCV 101430Z AUTO 12004KT 9999 NCD 07/M00 Q1018=
201902101500 METAR LRCV 101500Z AUTO 13004KT 9999 NCD 07/M00 Q1017=
201902101530 METAR LRCV 101530Z AUTO 11005KT 9999 NCD 05/M01 Q1017=
201902101600 METAR LRCV 101600Z AUTO 11005KT 9999 NCD 05/M00 Q1017=
201902101630 METAR LRCV 101630Z AUTO 09006KT 8000 BKN160/// 03/M01 Q1017=
201902101700 METAR LRCV 101700Z AUTO 10005KT 7000 BKN190/// 02/M01 Q1017=
201902101730 METAR LRCV 101730Z AUTO 11004KT 7000 BKN190/// 04/M00 Q1016=
201902101800 METAR LRCV 101800Z AUTO 14004KT 7000 BKN180/// 04/M00 Q1016=
201902101830 METAR LRCV 101830Z AUTO 13002KT 6000 BKN180/// 03/M00 Q1016=
201902101900 METAR LRCV 101900Z AUTO 07004KT 6000 BKN200/// 02/M01 Q1016=
201902101930 METAR LRCV 101930Z AUTO 06005KT 5000 BR BKN210/// 01/M01
                        Q1016=
201902102000 METAR LRCV 102000Z AUTO 07003KT 5000 BR BKN190/// 01/M01
                        Q1015=
201902102030 METAR LRCV 102030Z AUTO 06005KT 5000 BR BKN190/// 01/M01
                        Q1015=
201902102100 METAR LRCV 102100Z 05004KT 5000 BR NSC 01/M01 Q1015=
201902102130 METAR LRCV 102130Z 06004KT 5000 BR NSC 00/M01 Q1014=
201902102200 METAR LRCV 102200Z 05004KT 050V110 4500 BR NSC 00/M01 Q1014=
201902102230 METAR LRCV 102230Z 02003KT 4500 BR NSC 00/M01 Q1014=
201902102300 METAR LRCV 102300Z 03004KT 4500 BR NSC M00/M01 Q1013=
201902102330 METAR LRCV 102330Z 04003KT 4000 BR NSC M00/M01 Q1013=
201902110000 METAR LRCV 110000Z AUTO 03004KT 5000 BR SCT210/// 00/M01
                        Q1013=
201902110030 METAR COR LRCV 110030Z 36003KT 4500 BR NSC M00/M01 Q1013=
201902110100 METAR LRCV 110100Z 03004KT 5000 BR NSC M01/M02 Q1012=
201902110130 METAR LRCV 110130Z 03005KT 5000 BR NSC M01/M02 Q1012=
201902110200 METAR LRCV 110200Z 02003KT 5000 BR NSC M00/M01 Q1012=
201902110230 METAR LRCV 110230Z 04003KT 5000 BR NSC M00/M01 Q1011=
201902110300 METAR LRCV 110300Z 06004KT 5000 BR NSC 00/M01 Q1011=
201902110330 METAR LRCV 110330Z 05003KT 5000 BR NSC M00/M01 Q1011=
201902110400 METAR LRCV 110400Z 01004KT 5000 BR NSC M01/M02 Q1011=
201902110430 METAR LRCV 110430Z 04005KT 5000 BR NSC M00/M02 Q1010=
201902110500 METAR LRCV 110500Z 05004KT 5000 BR NSC M01/M01 Q1010=
201902110530 METAR LRCV 110530Z 04004KT 4000 BR NSC M01/M02 Q1010=
201902110600 METAR LRCV 110600Z 05003KT 4000 BR NSC M01/M01 Q1010=
201902110630 METAR LRCV 110630Z 06004KT 3500 BR NSC M00/M01 Q1010=
201902110700 METAR LRCV 110700Z 08004KT 4000 BR NSC 01/M00 Q1010=
201902110730 METAR LRCV 110730Z AUTO 08004KT 4800 BR NCD 02/00 Q1010=
201902110800 METAR LRCV 110800Z AUTO 07005KT 5000 BR FEW095/// 03/01 Q1009=
201902110830 METAR LRCV 110830Z AUTO 08007KT 6000 FEW090/// 04/01 Q1009=
201902110900 METAR LRCV 110900Z 09006KT 050V130 7000 NSC 05/01 Q1008=
201902110930 METAR LRCV 110930Z 10006KT 7000 NSC 06/02 Q1008=
201902111000 METAR LRCV 111000Z 10006KT 070V130 9000 NSC 07/02 Q1008=
201902111030 METAR LRCV 111030Z 07006KT 040V100 8000 NSC 08/02 Q1008=
201902111100 METAR LRCV 111100Z 07007KT 8000 NSC 08/02 Q1007=
201902111130 METAR LRCV 111130Z 06006KT 9000 NSC 09/02 Q1007=
201902111200 METAR LRCV 111200Z 05007KT 9000 NSC 09/02 Q1006=
201902111230 METAR LRCV 111230Z 06008KT 9000 NSC 09/02 Q1006=
201902111300 METAR LRCV 111300Z 08006KT 9000 NSC 09/02 Q1006=
201902111330 METAR LRCV 111330Z 06005KT CAVOK 10/03 Q1006=
201902111400 METAR LRCV 111400Z 02004KT CAVOK 10/03 Q1006=
201902111430 METAR LRCV 111430Z 02007KT 9000 NSC 09/03 Q1005=
201902111500 METAR LRCV 111500Z 03006KT 9000 NSC 08/02 Q1005=
201902111530 METAR LRCV 111530Z 06009KT CAVOK 08/02 Q1004=
201902111600 METAR LRCV 111600Z 07008KT CAVOK 07/02 Q1004=
201902111630 METAR LRCV 111630Z 05007KT CAVOK 07/02 Q1005=
201902111700 METAR LRCV 111700Z 06009KT CAVOK 07/02 Q1004=
201902111730 METAR LRCV 111730Z 06010KT CAVOK 07/02 Q1004=
201902111800 METAR LRCV 111800Z 06010KT 8000 NSC 07/02 Q1003=
201902111830 METAR LRCV 111830Z AUTO 06010KT 8000 BKN130/// 06/01 Q1003=
201902111900 METAR LRCV 111900Z AUTO 07008KT 8000 SCT070/// OVC120///
                        06/02 Q1003=
201902111930 METAR LRCV 111930Z AUTO 06010KT 8000 BKN065/// 07/02 Q1003=
201902112000 METAR LRCV 112000Z AUTO 04008KT 7000 BKN060/// BKN075///
                        06/02 Q1002=
201902112030 METAR LRCV 112030Z AUTO 04008KT 8000 BKN065/// BKN095///
                        07/02 Q1003=
201902112100 METAR LRCV 112100Z 04008KT CAVOK 06/02 Q1002=
201902112130 METAR LRCV 112130Z 29004KT 260V320 CAVOK 06/02 Q1003=
201902112200 METAR LRCV 112200Z 27007KT 6000 NSC 05/02 Q1004=
201902112230 METAR LRCV 112230Z 27008KT 6000 NSC 05/03 Q1003=
201902112300 METAR LRCV 112300Z 28009KT 5000 -RA BR BKN049 05/03 Q1004=
201902112330 METAR LRCV 112330Z 28008KT 4000 -RA BR BKN043 04/03 Q1004
                        R27/29//95=
201902120000 METAR LRCV 120000Z 27008KT 230V300 4000 -RA BR FEW004 BKN045
                        04/04 Q1003 R27/29//95=
201902120030 METAR LRCV 120030Z 25007KT 220V280 4000 -DZ BR BKN003 BKN005
                        04/04 Q1004 R27/29//95=
201902120100 METAR LRCV 120100Z 26009KT 7000 SCT002 BKN004 04/03 Q1004
                        R27/29//95=
201902120130 METAR LRCV 120130Z 23008KT 9999 BKN004 OVC006 03/03 Q1004
                        R27/29//95=
201902120200 METAR LRCV 120200Z AUTO 25012KT 9999 SCT003/// BKN006///
                        OVC008/// 03/02 Q1004=
201902120230 METAR LRCV 120230Z AUTO 26010KT 9999 FEW009/// OVC014///
                        03/02 Q1004=
201902120300 METAR LRCV 120300Z AUTO 25009KT 220V280 9999 SCT009/// OVC019///
                        03/02 Q1004=
201902120330 METAR LRCV 120330Z AUTO 24010KT 9999 FEW011/// OVC020///
                        04/02 Q1004=
201902120400 METAR LRCV 120400Z 25009KT 9999 BKN011 04/01 Q1004 R27/29//95=
201902120430 METAR LRCV 120430Z 25008KT 9999 OVC010 04/02 Q1004 R27/29//95=
201902120500 METAR LRCV 120500Z 25009KT 9999 BKN009 03/02 Q1003 R27/29//95=
201902120530 METAR LRCV 120530Z 24006KT 220V280 6000 BKN005 OVC007 03/02
                        Q1004 R27/29//95=
201902120600 METAR LRCV 120600Z 28010KT 8000 -RA BKN004 OVC006 03/03 Q1004
                        R27/29//95=
201902120630 METAR LRCV 120630Z 29015KT 7000 -RA BKN004 BKN006 02/02 Q1004
                        R27/29//95=
201902120700 METAR LRCV 120700Z 28013KT 2500 SN BKN003 OVC005 01/01 Q1005
                        R27/29//95=
201902120730 METAR LRCV 120730Z AUTO 30020KT 2600 RA SCT002/// BKN015///
                        BKN019/// 02/02 Q1005=
201902120800 METAR LRCV 120800Z AUTO 29011KT 3800 -RASN VV011 02/02 Q1006=
201902120830 METAR LRCV 120830Z AUTO 29009KT 2800 -RASN FEW002/// SCT005///
                        BKN007/// 02/02 Q1007=
201902120900 METAR LRCV 120900Z AUTO 29012KT 5000 RA FEW004/// SCT008///
                        BKN015/// 03/03 Q1007=
201902120930 METAR LRCV 120930Z AUTO 30014KT 9999 -RA FEW009/// BKN014///
                        04/02 Q1008=
201902121000 METAR LRCV 121000Z 30017KT 9999 -RA BKN014 BKN035 04/02 Q1008=
201902121030 METAR LRCV 121030Z 30021KT 9999 -RA BKN014 BKN027 04/01 Q1008=
201902121100 METAR LRCV 121100Z 30018KT 9999 -RA BKN012 BKN032 04/02 Q1009=
201902121130 METAR COR LRCV 121130Z 29012KT 9999 BKN013 BKN049 04/02 Q1009
                        R27/29//95=
201902121200 METAR LRCV 121200Z 30013KT 9999 BKN018 BKN045 06/01 Q1009
                        R27/29//95=
201902121230 METAR LRCV 121230Z 30015KT 9999 SCT020 BKN048 06/M00 Q1010
                        R27/29//95=
201902121300 METAR LRCV 121300Z 29013KT 9999 SCT022 BKN048 06/M00 Q1010
                        R27/29//95=
201902121330 METAR LRCV 121330Z 28011KT 9999 FEW028 BKN049 06/M01 Q1011
                        R27/29//95=
201902121400 METAR LRCV 121400Z 29009KT 9999 BKN045 06/M01 Q1012 R27/29//95=
201902121430 METAR LRCV 121430Z 29009KT 9999 BKN045 06/M01 Q1012 R27/29//95=
201902121500 METAR LRCV 121500Z 28008KT 9999 FEW030 BKN045 05/00 Q1013
                        R27/29//95=
201902121530 METAR LRCV 121530Z 28009KT 9999 SCT030 BKN048 05/M00 Q1013
                        R27/29//95=
201902121600 METAR LRCV 121600Z 28008KT 9999 FEW030 SCT049 05/M00 Q1014
                        R27/29//95=
201902121630 METAR LRCV 121630Z 26005KT 230V290 CAVOK 05/M00 Q1015 R27/29//95=
201902121700 METAR LRCV 121700Z 27006KT CAVOK 05/M01 Q1015 R27/29//95=
201902121730 METAR LRCV 121730Z AUTO 28010KT 9999 BKN050/// 04/M01 Q1016=
201902121800 METAR LRCV 121800Z AUTO 29010KT 9999 BKN055/// 04/M01 Q1016=
201902121830 METAR LRCV 121830Z AUTO 28009KT 9999 BKN055/// OVC070///
                        03/M01 Q1016=
201902121900 METAR LRCV 121900Z AUTO 27009KT 9999 SCT070/// OVC085///
                        03/M01 Q1017=
201902121930 METAR LRCV 121930Z AUTO 27008KT 9999 OVC095/// 03/M02 Q1017=
201902122000 METAR LRCV 122000Z AUTO 28009KT 9999 BKN075/// OVC095///
                        02/M02 Q1018=
201902122030 METAR LRCV 122030Z NIL=
201902122100 METAR LRCV 122100Z AUTO 00000KT 9999 R09////// OVC085///
                        02/M02 Q1019=
201902122130 METAR LRCV 122130Z AUTO 00000KT 9999 R09////// OVC090///
                        02/M03 Q1019=
201902122200 METAR COR LRCV 122200Z 32007KT 9999 -SN FEW037 SCT045 02/M03
                        Q1020=
201902122230 METAR LRCV 122230Z 35005KT 310V030 9999 OVC044 03/M03 Q1020
                        R27/19//95=
201902122300 METAR LRCV 122300Z 32005KT 9999 -SN OVC048 02/M03 Q1021 R27/19//95=
201902122330 METAR LRCV 122330Z 29002KT 230V020 9999 -SN BKN045 02/M03
                        Q1021 R27/19//95=
201902130000 METAR LRCV 130000Z 06003KT 040V110 9999 -SN BKN043 02/M04
                        Q1022 R27/19//95=
201902130030 METAR LRCV 130030Z 08004KT 9999 -SN FEW037 BKN044 02/M04
                        Q1022 R27/19//95=
201902130100 METAR LRCV 130100Z 06004KT 9999 -SN SCT039 OVC044 02/M03
                        Q1022 R27/19//95=
201902130130 METAR LRCV 130130Z 11004KT 9999 -SN BKN042 01/M03 Q1022 R27/19//95=
201902130200 METAR LRCV 130200Z 05006KT 9999 -RASN FEW019 OVC048 01/M01
                        Q1023 R27/19//95=
201902130230 METAR LRCV 130230Z 03009KT 9999 -RASN FEW011 SCT044 01/M02
                        Q1023 R27/19//95=
201902130300 METAR COR LRCV 130300Z 27006KT 250V310 9999 -SN FEW022 BKN047
                        01/M03 Q1024 R27/19//95=
201902130330 METAR LRCV 130330Z 28005KT 9999 SCT047 01/M03 Q1024 R27/19//95=
201902130400 METAR LRCV 130400Z 29003KT 260V340 9999 SCT047 01/M03 Q1024
                        R27/19//95=
201902130430 METAR LRCV 130430Z 05006KT CAVOK 01/M02 Q1025 R27/19//95=
201902130500 METAR LRCV 130500Z 07005KT CAVOK 00/M02 Q1026 R27/19//95=
201902130530 METAR LRCV 130530Z 07005KT CAVOK 00/M01 Q1026 R27/19//95=
201902130600 METAR LRCV 130600Z 08005KT 9999 -SN SCT045 00/M01 Q1027 R27/19//95=
201902130630 METAR LRCV 130630Z 10005KT 6000 -SN FEW004 SCT034 BKN043
                        00/M00 Q1028 R27/19//95=
201902130700 METAR LRCV 130700Z AUTO 11007KT 7000 SG SCT004/// BKN060///
                        00/M00 Q1028=
201902130730 METAR LRCV 130730Z AUTO 08007KT 9999 SCT004/// BKN055///
                        00/M01 Q1028 RESN=
201902130800 METAR LRCV 130800Z AUTO 07006KT 9999 FEW007/// BKN045///
                        01/M01 Q1029=
201902130830 METAR LRCV 130830Z AUTO 09004KT 9999 FEW007/// OVC049///
                        02/M01 Q1029=
201902130900 METAR LRCV 130900Z 07002KT 330V130 9999 BKN037 02/M02 Q1029=
201902130930 METAR LRCV 130930Z 14005KT 110V170 9999 BKN045 02/M02 Q1030=
201902131000 METAR LRCV 131000Z 15004KT 110V230 9999 SCT047 04/M02 Q1030=
201902131030 METAR LRCV 131030Z VRB03KT 9999 SCT025 04/M02 Q1030=
201902131100 METAR LRCV 131100Z 31003KT 270V010 9999 BKN022 04/M02 Q1030=
201902131130 METAR LRCV 131130Z VRB03KT 9999 SCT022 04/M03 Q1030=
201902131200 METAR LRCV 131200Z VRB02KT 9999 SCT025 05/M03 Q1030=
201902131230 METAR LRCV 131230Z 26005KT 230V290 9999 SCT030 05/M03 Q1030=
201902131300 METAR LRCV 131300Z 22006KT 180V260 9999 SCT035 05/M03 Q1030=
201902131330 METAR LRCV 131330Z 26007KT 9999 SCT040 04/M04 Q1030=
201902131400 METAR LRCV 131400Z 26007KT 9999 FEW045 05/M03 Q1030=
201902131430 METAR LRCV 131430Z 27007KT CAVOK 05/M03 Q1030=
201902131500 METAR LRCV 131500Z 26008KT CAVOK 05/M03 Q1030=
201902131530 METAR LRCV 131530Z 26009KT CAVOK 04/M03 Q1031=
201902131600 METAR LRCV 131600Z 25006KT CAVOK 03/M03 Q1031=
201902131630 METAR LRCV 131630Z 24007KT CAVOK 02/M03 Q1031=
201902131700 METAR LRCV 131700Z 25007KT CAVOK 02/M03 Q1031=
201902131730 METAR LRCV 131730Z AUTO 23006KT 9999 NCD 01/M02 Q1032=
201902131800 METAR LRCV 131800Z AUTO 25006KT 9999 NCD 01/M03 Q1032=
201902131830 METAR LRCV 131830Z AUTO 25006KT 9999 NCD 00/M03 Q1032=
201902131900 METAR LRCV 131900Z AUTO 25006KT 9999 NCD 00/M03 Q1032=
201902131930 METAR LRCV 131930Z AUTO 24006KT 9999 NCD 00/M03 Q1031=
201902132000 METAR LRCV 132000Z AUTO 25006KT 9999 FEW220/// M00/M04 Q1031=
201902132030 METAR LRCV 132030Z AUTO 25007KT 9999 BKN210/// 00/M04 Q1031=
201902132100 METAR LRCV 132100Z 24007KT CAVOK 01/M04 Q1031=
201902132130 METAR LRCV 132130Z 26007KT CAVOK M00/M04 Q1030=
201902132200 METAR LRCV 132200Z 26006KT CAVOK M01/M04 Q1030=
201902132230 METAR LRCV 132230Z 26007KT CAVOK M01/M04 Q1030=
201902132300 METAR LRCV 132300Z 25007KT CAVOK M01/M04 Q1030=
201902132330 METAR LRCV 132330Z 25006KT CAVOK M01/M04 Q1030=
201902140000 METAR LRCV 140000Z 24007KT CAVOK M01/M04 Q1030=
201902140030 METAR LRCV 140030Z 24006KT CAVOK M01/M04 Q1030=
201902140100 METAR LRCV 140100Z 24008KT CAVOK M01/M04 Q1030=
201902140130 METAR LRCV 140130Z 25003KT 210V290 CAVOK M02/M05 Q1030=
201902140200 METAR LRCV 140200Z 25004KT CAVOK M01/M05 Q1030=
201902140230 METAR LRCV 140230Z 22004KT CAVOK M02/M04 Q1030=
201902140300 METAR LRCV 140300Z 24004KT CAVOK M02/M04 Q1029=
201902140330 METAR LRCV 140330Z 26005KT CAVOK M03/M04 Q1029=
201902140400 METAR LRCV 140400Z 28006KT CAVOK M03/M04 Q1029=
201902140430 METAR LRCV 140430Z 28007KT CAVOK M03/M05 Q1029=
201902140500 METAR LRCV 140500Z 29007KT CAVOK M03/M05 Q1029=
201902140530 METAR LRCV 140530Z 27008KT CAVOK M03/M05 Q1029=
201902140600 METAR LRCV 140600Z 28007KT CAVOK M03/M04 Q1030=
201902140630 METAR LRCV 140630Z 27006KT CAVOK M02/M04 Q1030=
201902140700 METAR LRCV 140700Z 28006KT CAVOK M02/M04 Q1030=
201902140730 METAR LRCV 140730Z AUTO 29005KT 9999 SCT180/// M02/M04 Q1029=
201902140800 METAR LRCV 140800Z AUTO 28007KT 9999 SCT070/// BKN190///
                        M01/M04 Q1029=
201902140830 METAR LRCV 140830Z AUTO 28010KT 9999 SCT070/// 01/M04 Q1029=
201902140900 METAR LRCV 140900Z 28009KT CAVOK 03/M03 Q1029=
201902140930 METAR LRCV 140930Z 29011KT CAVOK 04/M02 Q1028=
201902141000 METAR LRCV 141000Z 30013KT CAVOK 05/M01 Q1028=
201902141030 METAR LRCV 141030Z 30011KT CAVOK 07/M01 Q1027=
201902141100 METAR LRCV 141100Z 29013KT CAVOK 09/M01 Q1027=
201902141130 METAR LRCV 141130Z 30013KT CAVOK 09/M03 Q1027=
201902141200 METAR LRCV 141200Z 30011KT CAVOK 10/M02 Q1026=
201902141230 METAR LRCV 141230Z 31011KT CAVOK 10/M03 Q1026=
201902141300 METAR LRCV 141300Z 31010KT CAVOK 10/M03 Q1025=
201902141330 METAR LRCV 141330Z 30012KT CAVOK 11/M04 Q1025=
201902141400 METAR LRCV 141400Z 31009KT CAVOK 11/M04 Q1025=
201902141430 METAR LRCV 141430Z 30008KT CAVOK 10/M03 Q1025=
201902141500 METAR LRCV 141500Z 32005KT 300V360 CAVOK 10/M02 Q1025=
201902141530 METAR LRCV 141530Z 36006KT 330V050 CAVOK 09/M02 Q1025=
201902141600 METAR LRCV 141600Z 05007KT CAVOK 07/M02 Q1025=
201902141630 METAR LRCV 141630Z 05007KT CAVOK 06/M02 Q1026=
201902141700 METAR LRCV 141700Z 05006KT CAVOK 05/M02 Q1026=
201902141730 METAR LRCV 141730Z AUTO 04005KT 9999 BKN065/// 05/M02 Q1026=
201902141800 METAR LRCV 141800Z AUTO 01007KT 9999 SCT070/// 04/M03 Q1026=
201902141830 METAR LRCV 141830Z AUTO 02007KT 9999 FEW075/// 03/M03 Q1026=
201902141900 METAR LRCV 141900Z AUTO 05003KT 9999 NCD 02/M03 Q1026=
201902141930 METAR LRCV 141930Z AUTO 21002KT 090V260 9999 FEW160/// 03/M03
                        Q1026=
201902142000 METAR LRCV 142000Z AUTO 16002KT 9999 BKN110/// 04/M03 Q1026=
201902142030 METAR LRCV 142030Z AUTO 22002KT 180V240 9999 BKN110/// 03/M03
                        Q1026=
201902142100 METAR LRCV 142100Z AUTO 22003KT 190V250 9999 OVC100/// 04/M03
                        Q1026=
201902142130 METAR LRCV 142130Z AUTO 27004KT 9999 BKN100/// 03/M03 Q1026=
201902142200 METAR LRCV 142200Z 22004KT CAVOK 03/M03 Q1026=
201902142230 METAR LRCV 142230Z 20003KT CAVOK 03/M03 Q1026=
201902142300 METAR LRCV 142300Z 27002KT CAVOK 02/M02 Q1027=
201902142330 METAR LRCV 142330Z 29003KT CAVOK 02/M03 Q1027=
201902150000 METAR LRCV 150000Z VRB01KT CAVOK 02/M02 Q1027=
201902150030 METAR LRCV 150030Z 33005KT CAVOK 02/M01 Q1027=
201902150100 METAR LRCV 150100Z 03005KT 9999 FEW041 04/M01 Q1027=
201902150130 METAR LRCV 150130Z 04005KT 9999 -RA SCT044 BKN049 04/M01
                        Q1027=
201902150200 METAR LRCV 150200Z 01006KT 9999 -RA FEW039 BKN049 04/M00
                        Q1027=
201902150230 METAR LRCV 150230Z 35006KT CAVOK 04/00 Q1026=
201902150300 METAR LRCV 150300Z 04004KT CAVOK 03/M00 Q1026=
201902150330 METAR LRCV 150330Z 04005KT CAVOK 03/00 Q1027=
201902150400 METAR LRCV 150400Z 05005KT CAVOK 03/M00 Q1027=
201902150430 METAR LRCV 150430Z 08005KT 040V100 CAVOK 02/M00 Q1027=
201902150500 METAR LRCV 150500Z 10005KT CAVOK 02/M00 Q1028=
201902150530 METAR LRCV 150530Z 10004KT CAVOK 02/M01 Q1028=
201902150600 METAR LRCV 150600Z 11006KT CAVOK 02/M01 Q1029=
201902150630 METAR LRCV 150630Z 15006KT CAVOK 02/00 Q1029=
201902150700 METAR LRCV 150700Z 18004KT CAVOK 02/01 Q1029=
201902150730 METAR LRCV 150730Z AUTO 17005KT 9999 BKN080/// 03/01 Q1030=
201902150800 METAR LRCV 150800Z AUTO 18005KT 9999 BKN085/// 03/01 Q1030=
201902150830 METAR LRCV 150830Z AUTO 19004KT 9999 BKN075/// 04/01 Q1030=
201902150900 METAR LRCV 150900Z 18003KT CAVOK 04/01 Q1030=
201902150930 METAR LRCV 150930Z 17004KT CAVOK 05/01 Q1031=
201902151000 METAR LRCV 151000Z 17003KT 140V210 9999 FEW014 05/01 Q1031=
201902151030 METAR LRCV 151030Z 16003KT 9999 FEW015 05/01 Q1031=
201902151100 METAR LRCV 151100Z VRB02KT 9999 FEW017 06/01 Q1031=
201902151130 METAR LRCV 151130Z VRB02KT 9999 SCT019 06/01 Q1031=
201902151200 METAR LRCV 151200Z VRB02KT 9999 SCT022 06/01 Q1031=
201902151230 METAR LRCV 151230Z 18003KT 130V230 9999 SCT022 06/00 Q1031=
201902151300 METAR LRCV 151300Z VRB02KT 9999 SCT024 06/00 Q1030=
201902151330 METAR LRCV 151330Z 18003KT 140V250 9999 SCT030 06/00 Q1030=
201902151400 METAR LRCV 151400Z 18006KT 9999 FEW035 07/00 Q1030=
201902151430 METAR LRCV 151430Z 20005KT 170V230 CAVOK 07/M00 Q1030=
201902151500 METAR LRCV 151500Z 20004KT 170V240 9999 FEW040 06/M00 Q1030=
201902151530 METAR LRCV 151530Z 20004KT CAVOK 06/M00 Q1030=
201902151600 METAR LRCV 151600Z 20005KT CAVOK 05/00 Q1030=
201902151630 METAR LRCV 151630Z 19005KT CAVOK 04/00 Q1031=
201902151700 METAR LRCV 151700Z 20005KT CAVOK 04/01 Q1031=
201902151730 METAR LRCV 151730Z 20005KT CAVOK 03/01 Q1031=
201902151800 METAR LRCV 151800Z 20005KT CAVOK 03/00 Q1031=
201902151830 METAR LRCV 151830Z AUTO 19005KT 9999 NCD 02/00 Q1031=
201902151900 METAR LRCV 151900Z AUTO 19005KT 9999 NCD 02/00 Q1031=
201902151930 METAR LRCV 151930Z AUTO 20006KT 9999 NCD 02/00 Q1031=
201902152000 METAR LRCV 152000Z AUTO 19005KT 9999 NCD 02/00 Q1031=
201902152030 METAR LRCV 152030Z AUTO 21004KT 9999 FEW050/// 01/00 Q1032=
201902152100 METAR LRCV 152100Z 20003KT CAVOK 02/00 Q1031=
201902152130 METAR LRCV 152130Z 21003KT 9999 FEW020 BKN050 02/00 Q1031=
201902152200 METAR LRCV 152200Z 21003KT 9999 FEW020 BKN050 02/00 Q1031=
201902152230 METAR LRCV 152230Z 20004KT 9999 BKN050 02/00 Q1031=
201902152300 METAR LRCV 152300Z 22002KT 9000 BKN050 01/00 Q1031=
201902152330 METAR LRCV 152330Z 19003KT 9000 FEW024 BKN048 01/00 Q1031=
201902160000 METAR LRCV 160000Z 20002KT 7000 FEW020 BKN047 01/00 Q1031=
201902160030 METAR LRCV 160030Z AUTO 23002KT 7000 BKN046/// 01/00 Q1031=
201902160100 METAR LRCV 160100Z AUTO 28002KT 1500 R09/0900VP2000U FZFG
                        NCD M00/M01 Q1031=
201902160130 METAR LRCV 160130Z 30003KT 6000 NSC M00/M00 Q1031=
201902160200 METAR LRCV 160200Z 28003KT 6000 NSC 01/01 Q1031=
201902160230 METAR LRCV 160230Z 26004KT 7000 NSC 01/00 Q1030=
201902160300 METAR LRCV 160300Z 25004KT 5000 BR NSC 01/00 Q1030=
201902160330 METAR LRCV 160330Z 25004KT 5000 BR NSC 00/M00 Q1030=
201902160400 METAR LRCV 160400Z 26003KT 4500 BR NSC 00/00 Q1030=
201902160430 METAR LRCV 160430Z 27002KT 4500 BR NSC M01/M01 Q1030=
201902160500 METAR LRCV 160500Z 03003KT 0350 R09/0400N FZFG NSC M03/M03
                        Q1030=
201902160530 METAR LRCV 160530Z 03002KT 0500 R09/0300N FZFG NSC M03/M03
                        Q1030=
201902160600 METAR LRCV 160600Z 02002KT 0300 R09/0375N FZFG NSC M03/M03
                        Q1030=
201902160630 METAR LRCV 160630Z VRB01KT 1500 BR NSC M01/M01 Q1031=
201902160700 METAR LRCV 160700Z 04002KT 010V070 2000 BR NSC M00/M00 Q1031=
201902160730 METAR LRCV 160730Z 10002KT 040V130 4000 BR NSC 02/01 Q1031=
201902160800 METAR LRCV 160800Z 16004KT 130V190 6000 NSC 03/01 Q1031=
201902160830 METAR LRCV 160830Z 16004KT CAVOK 05/01 Q1030=
201902160900 METAR LRCV 160900Z 22005KT 190V250 CAVOK 05/01 Q1030=
201902160930 METAR LRCV 160930Z 25005KT 210V280 CAVOK 04/00 Q1030=
201902161000 METAR LRCV 161000Z 24006KT 210V270 CAVOK 05/00 Q1030=
201902161030 METAR LRCV 161030Z 23006KT 190V280 CAVOK 06/01 Q1030=
201902161100 METAR LRCV 161100Z 23005KT 200V260 CAVOK 07/01 Q1029=
201902161130 METAR LRCV 161130Z 22005KT 180V250 CAVOK 08/00 Q1029=
201902161200 METAR LRCV 161200Z 29003KT 240V360 CAVOK 09/00 Q1029=
201902161230 METAR LRCV 161230Z 30005KT 270V330 CAVOK 09/01 Q1029=
201902161300 METAR LRCV 161300Z 26004KT 210V300 CAVOK 09/01 Q1029=
201902161330 METAR LRCV 161330Z 17003KT 120V230 CAVOK 10/01 Q1028=
201902161400 METAR LRCV 161400Z 25004KT 170V340 CAVOK 10/00 Q1028=
201902161430 METAR LRCV 161430Z 24004KT 210V290 CAVOK 10/01 Q1028=
201902161500 METAR LRCV 161500Z 23004KT 200V260 CAVOK 09/M00 Q1028=
201902161530 METAR LRCV 161530Z 24004KT CAVOK 08/M00 Q1028=
201902161600 METAR LRCV 161600Z 21003KT CAVOK 07/M01 Q1028=
201902161630 METAR LRCV 161630Z 26003KT CAVOK 07/M01 Q1028=
201902161700 METAR LRCV 161700Z 25003KT CAVOK 06/M01 Q1028=
201902161730 METAR LRCV 161730Z AUTO 24004KT 9999 NCD 06/M01 Q1028=
201902161800 METAR LRCV 161800Z AUTO 25002KT 9999 NCD 06/M01 Q1028=
201902161830 METAR LRCV 161830Z AUTO VRB01KT 8000 NCD 03/M01 Q1028=
201902161900 METAR LRCV 161900Z AUTO 22003KT 9999 NCD 05/M01 Q1028=
201902161930 METAR LRCV 161930Z AUTO 24003KT 9999 NCD 05/M01 Q1028=
201902162000 METAR LRCV 162000Z AUTO 22004KT 9999 NCD 04/M00 Q1028=
201902162030 METAR LRCV 162030Z AUTO 23004KT 9999 NCD 04/M00 Q1028=
201902162100 METAR LRCV 162100Z AUTO 23005KT 9999 NCD 03/M01 Q1028=
201902162130 METAR LRCV 162130Z AUTO 22002KT 170V270 9000 NCD 02/M01 Q1028=
201902162200 METAR LRCV 162200Z 23003KT 7000 NSC 02/M01 Q1028=
201902162230 METAR LRCV 162230Z 25002KT 6000 NSC 01/M01 Q1028=
201902162300 METAR LRCV 162300Z 25002KT 5000 BR NSC 00/M01 Q1028=
201902162330 METAR LRCV 162330Z 26003KT 5000 BR NSC 00/M01 Q1027=
201902170000 METAR LRCV 170000Z 26002KT 5000 BR NSC M00/M01 Q1028=
201902170030 METAR LRCV 170030Z 28002KT 4500 BR NSC M01/M02 Q1027=
201902170100 METAR LRCV 170100Z AUTO 29001KT 3900 R09/1300VP2000D BR NCD
                        M01/M01 Q1027=
201902170130 METAR LRCV 170130Z AUTO 22001KT 3700 R09/2000 BR NCD M01/M02
                        Q1027=
201902170200 METAR LRCV 170200Z AUTO 23003KT 5000 BR NCD M00/M01 Q1027=
201902170230 METAR LRCV 170230Z AUTO 25003KT 3000 BR NCD M01/M02 Q1027=
201902170300 METAR LRCV 170300Z AUTO 30003KT 2900 BR NCD M02/M02 Q1027=
201902170330 METAR LRCV 170330Z 30003KT 5000 BR NSC M03/M03 Q1027=
201902170400 METAR LRCV 170400Z 31003KT 5000 BR NSC M02/M02 Q1026=
201902170430 METAR LRCV 170430Z 31003KT 4000 BR NCD M02/M03 Q1026=
201902170500 METAR LRCV 170500Z AUTO 30003KT 4600 BR NCD M02/M02 Q1027=
201902170530 METAR LRCV 170530Z 32003KT 7000 NSC M02/M03 Q1027=
201902170600 METAR LRCV 170600Z 28004KT 7000 NSC M02/M03 Q1027=
201902170630 METAR LRCV 170630Z 29004KT 6000 NSC M01/M02 Q1027=
201902170700 METAR LRCV 170700Z 31004KT 8000 NSC 00/M01 Q1027=
201902170730 METAR LRCV 170730Z 28003KT 250V320 CAVOK 02/M00 Q1027=
201902170800 METAR LRCV 170800Z 27004KT 240V300 7000 NSC 02/M01 Q1027=
201902170830 METAR LRCV 170830Z 27005KT 8000 NSC 03/M01 Q1027=
201902170900 METAR LRCV 170900Z 26005KT 230V300 8000 NSC 05/00 Q1027=
201902170930 METAR LRCV 170930Z 25006KT CAVOK 06/00 Q1027=
201902171000 METAR LRCV 171000Z 26007KT 210V290 CAVOK 07/01 Q1027=
201902171030 METAR LRCV 171030Z 25006KT 210V280 CAVOK 08/01 Q1026=
201902171100 METAR LRCV 171100Z 24005KT 210V270 CAVOK 10/02 Q1026=
201902171130 METAR LRCV 171130Z 24006KT 200V260 CAVOK 11/02 Q1025=
201902171200 METAR LRCV 171200Z 26005KT 210V300 CAVOK 12/02 Q1025=
201902171230 METAR LRCV 171230Z 26005KT 210V300 CAVOK 12/02 Q1025=
201902171300 METAR LRCV 171300Z 25006KT 210V280 CAVOK 13/02 Q1024=
201902171330 METAR LRCV 171330Z 26005KT 220V300 CAVOK 13/02 Q1024=
201902171400 METAR LRCV 171400Z 27006KT CAVOK 13/02 Q1024=
201902171430 METAR LRCV 171430Z 26006KT 230V290 CAVOK 13/01 Q1024=
201902171500 METAR LRCV 171500Z 27006KT CAVOK 12/01 Q1024=
201902171530 METAR LRCV 171530Z 27006KT CAVOK 11/02 Q1024=
201902171600 METAR LRCV 171600Z 25004KT CAVOK 10/02 Q1024=
201902171630 METAR LRCV 171630Z 24005KT CAVOK 10/02 Q1024=
201902171700 METAR LRCV 171700Z 25005KT CAVOK 09/02 Q1024=
201902171730 METAR LRCV 171730Z AUTO 25004KT 9000 NCD 08/02 Q1024=
201902171800 METAR LRCV 171800Z AUTO 29004KT 8000 NCD 07/02 Q1024=
201902171830 METAR LRCV 171830Z AUTO 28006KT 7000 NCD 07/02 Q1024=
201902171900 METAR LRCV 171900Z AUTO 26006KT 7000 NCD 07/01 Q1024=
201902171930 METAR LRCV 171930Z AUTO 26006KT 8000 NCD 06/01 Q1024=
201902172000 METAR LRCV 172000Z AUTO 27006KT 9000 NCD 06/01 Q1024=
201902172030 METAR LRCV 172030Z AUTO 25006KT 8000 NCD 05/01 Q1024=
201902172100 METAR LRCV 172100Z 27006KT 8000 NSC 04/01 Q1024=
201902172130 METAR LRCV 172130Z 26006KT 8000 NSC 03/00 Q1024=
201902172200 METAR LRCV 172200Z 25007KT 8000 NSC 03/00 Q1023=
201902172230 METAR LRCV 172230Z 27006KT 8000 NSC 02/00 Q1024=
201902172300 METAR LRCV 172300Z 26005KT 6000 NSC 02/M00 Q1024=
201902172330 METAR LRCV 172330Z 27004KT 6000 NSC 02/00 Q1024=
201902180000 METAR LRCV 180000Z 28004KT 5000 BR NSC 01/M00 Q1024=
201902180030 METAR LRCV 180030Z 28004KT 5000 BR NSC 01/00 Q1024=
201902180100 METAR LRCV 180100Z 28006KT 5000 BR NSC 00/M01 Q1023=
201902180130 METAR LRCV 180130Z 25006KT 5000 BR NSC 01/M00 Q1023=
201902180200 METAR LRCV 180200Z 26005KT 4000 BR NSC 00/M01 Q1023=
201902180230 METAR LRCV 180230Z 26004KT 4000 BR NSC 00/M01 Q1023=
201902180300 METAR LRCV 180300Z 30005KT 4000 BR NSC M00/M01 Q1023=
201902180330 METAR LRCV 180330Z 30002KT 4000 BR NSC 00/M00 Q1023=
201902180400 METAR LRCV 180400Z 30004KT 4000 BR NSC 00/M01 Q1023=
201902180430 METAR LRCV 180430Z 28005KT 5000 BR NSC M00/M01 Q1023=
201902180500 METAR LRCV 180500Z 27005KT 3000 BR NSC M02/M02 Q1023=
201902180530 METAR LRCV 180530Z 29004KT 2500 BR NSC M02/M02 Q1023=
201902180600 METAR LRCV 180600Z 30003KT 4000 BR NSC M01/M02 Q1024=
201902180630 METAR LRCV 180630Z 34002KT 4000 BR NSC 01/M00 Q1024=
201902180700 METAR LRCV 180700Z 35002KT 300V020 5000 BR NSC 02/01 Q1024=
201902180730 METAR LRCV 180730Z 35002KT 300V030 6000 NSC 04/01 Q1024=
201902180800 METAR LRCV 180800Z 29003KT 250V340 6000 NSC 05/02 Q1024=
201902180830 METAR LRCV 180830Z 33004KT 290V010 8000 NSC 07/02 Q1024=
201902180900 METAR LRCV 180900Z 29003KT 220V360 CAVOK 08/02 Q1024=
201902180930 METAR LRCV 180930Z 28003KT 220V340 CAVOK 09/02 Q1024=
201902181000 METAR LRCV 181000Z 27003KT 210V340 CAVOK 11/02 Q1024=
201902181030 METAR LRCV 181030Z 26002KT 200V310 CAVOK 12/01 Q1024=
201902181100 METAR LRCV 181100Z VRB02KT CAVOK 12/02 Q1024=
201902181130 METAR LRCV 181130Z VRB03KT CAVOK 14/02 Q1023=
201902181200 METAR LRCV 181200Z VRB02KT CAVOK 14/02 Q1023=
201902181230 METAR LRCV 181230Z VRB04KT CAVOK 14/02 Q1023=
201902181300 METAR LRCV 181300Z 06004KT 030V090 CAVOK 14/01 Q1023=
201902181330 METAR LRCV 181330Z VRB02KT CAVOK 15/02 Q1022=
201902181400 METAR LRCV 181400Z VRB02KT CAVOK 15/03 Q1022=
201902181430 METAR LRCV 181430Z 15003KT 090V200 CAVOK 15/02 Q1022=
201902181500 METAR LRCV 181500Z 16004KT 120V180 CAVOK 14/02 Q1022=
201902181530 METAR LRCV 181530Z 16003KT CAVOK 13/03 Q1022=
201902181600 METAR LRCV 181600Z 16003KT 100V180 CAVOK 11/03 Q1022=
201902181630 METAR LRCV 181630Z 15003KT CAVOK 10/02 Q1022=
201902181700 METAR LRCV 181700Z 14004KT 8000 NSC 10/02 Q1022=
201902181730 METAR LRCV 181730Z 14004KT 8000 NSC 09/02 Q1022=
201902181800 METAR LRCV 181800Z 13005KT 080V140 8000 NSC 08/02 Q1022=
201902181830 METAR LRCV 181830Z AUTO 13004KT 8000 NCD 07/03 Q1022=
201902181900 METAR LRCV 181900Z AUTO 15005KT 9000 NCD 07/03 Q1022=
201902181930 METAR LRCV 181930Z AUTO 15005KT 6000 NCD 07/03 Q1022=
201902182000 METAR LRCV 182000Z AUTO 12002KT 080V140 6000 NCD 04/02 Q1022=
201902182030 METAR LRCV 182030Z AUTO 05003KT 5000 BR NCD 03/02 Q1022=
201902182100 METAR LRCV 182100Z 03003KT 5000 BR NSC 03/02 Q1022=
201902182130 METAR LRCV 182130Z 04003KT 5000 BR NSC 02/01 Q1022=
201902182200 METAR LRCV 182200Z 04004KT 030V110 5000 BR NSC 03/01 Q1022=
201902182230 METAR LRCV 182230Z 03004KT 5000 BR NSC 02/01 Q1022=
201902182300 METAR LRCV 182300Z 04003KT 5000 BR NSC 02/00 Q1022=
201902182330 METAR LRCV 182330Z 04003KT 5000 BR NSC 01/M00 Q1023=
201902190000 METAR LRCV 190000Z 02004KT 5000 BR NSC 02/01 Q1022=
201902190030 METAR LRCV 190030Z 04005KT 5000 BR NSC 01/M00 Q1022=
201902190100 METAR LRCV 190100Z 02004KT 5000 BR NSC 01/M01 Q1022=
201902190130 METAR LRCV 190130Z 03004KT 6000 NSC 01/M01 Q1022=
201902190200 METAR LRCV 190200Z 04004KT 6000 NSC 01/M00 Q1022=
201902190230 METAR LRCV 190230Z 05005KT 6000 NSC 01/M00 Q1022=
201902190300 METAR LRCV 190300Z 05005KT 6000 NSC 00/M01 Q1021=
201902190330 METAR LRCV 190330Z 06005KT 5000 BR NSC M00/M01 Q1022=
201902190400 METAR LRCV 190400Z 08004KT 5000 BR NSC 00/M01 Q1021=
201902190430 METAR LRCV 190430Z 06004KT 5000 BR NSC 00/M01 Q1022=
201902190500 METAR LRCV 190500Z 05006KT 5000 BR NSC M00/M01 Q1022=
201902190530 METAR LRCV 190530Z 05004KT 5000 BR NSC M00/M01 Q1022=
201902190600 METAR LRCV 190600Z 06005KT 5000 BR NSC M00/M01 Q1022=
201902190630 METAR LRCV 190630Z 05005KT 6000 NSC 01/00 Q1022=
201902190700 METAR LRCV 190700Z 06005KT 7000 NSC 03/01 Q1022=
201902190730 METAR LRCV 190730Z 07006KT 6000 NSC 04/02 Q1023=
201902190800 METAR LRCV 190800Z 08008KT 6000 NSC 06/02 Q1022=
201902190830 METAR LRCV 190830Z 07006KT 050V110 7000 NSC 07/03 Q1022=
201902190900 METAR LRCV 190900Z 08007KT 8000 NSC 08/03 Q1022=
201902190930 METAR LRCV 190930Z 07006KT 030V100 8000 NSC 09/04 Q1022=
201902191000 METAR LRCV 191000Z 09004KT 030V120 8000 NSC 10/04 Q1022=
201902191030 METAR LRCV 191030Z 06005KT 040V110 8000 NSC 11/04 Q1022=
201902191100 METAR LRCV 191100Z 09005KT 070V130 CAVOK 12/04 Q1021=
201902191130 METAR LRCV 191130Z 12005KT 080V160 CAVOK 13/04 Q1021=
201902191200 METAR LRCV 191200Z VRB02KT CAVOK 13/04 Q1021=
201902191230 METAR LRCV 191230Z VRB02KT CAVOK 13/03 Q1020=
201902191300 METAR LRCV 191300Z VRB02KT CAVOK 14/03 Q1020=
201902191330 METAR LRCV 191330Z VRB03KT CAVOK 14/02 Q1020=
201902191400 METAR LRCV 191400Z VRB03KT CAVOK 14/02 Q1019=
201902191430 METAR LRCV 191430Z 11003KT 080V180 CAVOK 14/03 Q1019=
201902191500 METAR LRCV 191500Z 15003KT CAVOK 14/03 Q1019=
201902191530 METAR LRCV 191530Z 17003KT CAVOK 13/03 Q1019=
201902191600 METAR LRCV 191600Z 16002KT CAVOK 11/03 Q1019=
201902191630 METAR LRCV 191630Z 16003KT 100V170 CAVOK 09/03 Q1019=
201902191700 METAR LRCV 191700Z 16003KT 120V200 7000 NSC 09/03 Q1019=
201902191730 METAR LRCV 191730Z 18004KT 7000 NSC 09/03 Q1019=
201902191800 METAR LRCV 191800Z AUTO 18004KT 6000 NCD 09/03 Q1019=
201902191830 METAR LRCV 191830Z AUTO 19004KT 6000 NCD 09/03 Q1019=
201902191900 METAR LRCV 191900Z AUTO 19004KT 7000 NCD 09/03 Q1019=
201902191930 METAR LRCV 191930Z AUTO 20004KT 9999 NCD 09/03 Q1019=
201902192000 METAR LRCV 192000Z AUTO 24003KT 7000 NCD 06/02 Q1019=
201902192030 METAR LRCV 192030Z AUTO 27005KT 6000 NCD 07/03 Q1019=
201902192100 METAR LRCV 192100Z AUTO 29004KT 5000 BR NCD 06/02 Q1019=
201902192130 METAR LRCV 192130Z AUTO 30004KT 6000 NCD 06/02 Q1019=
201902192200 METAR LRCV 192200Z 31004KT 6000 NSC 07/02 Q1018=
201902192230 METAR LRCV 192230Z 30002KT 6000 NSC 06/02 Q1018=
201902192300 METAR LRCV 192300Z VRB01KT 5000 BR NSC 04/02 Q1018=
201902192330 METAR LRCV 192330Z 30003KT 4800 BR NSC 03/01 Q1018=
201902200000 METAR LRCV 200000Z 31004KT 5000 BR NSC 03/01 Q1018=
201902200030 METAR LRCV 200030Z 29004KT 6000 NSC 03/00 Q1018=
201902200100 METAR LRCV 200100Z 31004KT 6000 NSC 03/00 Q1018=
201902200130 METAR LRCV 200130Z 30003KT 5000 BR NSC 02/00 Q1017=
201902200200 METAR LRCV 200200Z 33003KT 6000 NSC 02/00 Q1017=
201902200230 METAR LRCV 200230Z 29004KT 6000 NSC 02/01 Q1017=
201902200300 METAR LRCV 200300Z 28004KT 6000 NSC 01/M01 Q1017=
201902200330 METAR LRCV 200330Z 26005KT 5000 BR NSC 00/M01 Q1017=
201902200400 METAR LRCV 200400Z 26003KT 3500 BR NSC M01/M02 Q1017=
201902200430 METAR LRCV 200430Z 25003KT 210V270 3000 BR NSC M01/M02 Q1017=
201902200500 METAR LRCV 200500Z 30003KT 1900 BR NSC M01/M01 Q1017=
201902200530 METAR LRCV 200530Z 22006KT 2500 BR NSC 02/01 Q1017=
201902200600 METAR LRCV 200600Z 24006KT 2500 BR NSC 00/M01 Q1017=
201902200630 METAR LRCV 200630Z 24007KT 2500 BR NSC 01/M00 Q1017=
201902200700 METAR LRCV 200700Z 24009KT 2500 BR NSC 02/01 Q1017=
201902200730 METAR LRCV 200730Z 25009KT 3500 BR NSC 04/01 Q1017=
201902200800 METAR LRCV 200800Z 25009KT 5000 BR NSC 06/01 Q1017=
201902200830 METAR LRCV 200830Z 25009KT 7000 NSC 07/01 Q1017=
201902200900 METAR LRCV 200900Z 25009KT 8000 NSC 09/02 Q1017=
201902200930 METAR LRCV 200930Z 26010KT 9000 NSC 11/03 Q1017=
201902201000 METAR LRCV 201000Z 28012KT 9000 NSC 12/03 Q1017=
201902201030 METAR LRCV 201030Z 28011KT 250V310 CAVOK 13/03 Q1017=
201902201100 METAR LRCV 201100Z 28010KT CAVOK 14/02 Q1017=
201902201130 METAR LRCV 201130Z 29013KT CAVOK 16/M00 Q1017=
201902201200 METAR LRCV 201200Z 31015KT CAVOK 16/M01 Q1016=
201902201230 METAR LRCV 201230Z 31014KT CAVOK 17/M02 Q1016=
201902201300 METAR LRCV 201300Z 30013KT CAVOK 17/M02 Q1016=
201902201330 METAR LRCV 201330Z 31012KT CAVOK 17/M02 Q1016=
201902201400 METAR LRCV 201400Z 28008KT 240V310 CAVOK 17/M01 Q1016=
201902201430 METAR LRCV 201430Z 28016KT CAVOK 16/M03 Q1016=
201902201500 METAR LRCV 201500Z 29019KT CAVOK 16/M06 Q1017=
201902201530 METAR LRCV 201530Z 29017KT CAVOK 15/M07 Q1017=
201902201600 METAR LRCV 201600Z 30013KT CAVOK 13/M07 Q1017=
201902201630 METAR LRCV 201630Z 30010KT CAVOK 12/M07 Q1018=
201902201700 METAR LRCV 201700Z 30011KT CAVOK 11/M07 Q1018=
201902201730 METAR LRCV 201730Z AUTO 30010KT 9999 NCD 10/M07 Q1019=
201902201800 METAR LRCV 201800Z AUTO 29009KT 9999 NCD 09/M07 Q1019=
201902201830 METAR LRCV 201830Z AUTO 30006KT 9999 NCD 10/M07 Q1019=
201902201900 METAR LRCV 201900Z AUTO 30007KT 9999 NCD 09/M07 Q1020=
201902201930 METAR LRCV 201930Z AUTO 30009KT 9999 NCD 08/M06 Q1020=
201902202000 METAR LRCV 202000Z AUTO 30010KT 9999 NCD 08/M05 Q1021=
201902202030 METAR LRCV 202030Z AUTO 30009KT 9999 NCD 08/M04 Q1021=
201902202100 METAR LRCV 202100Z 29010KT CAVOK 07/M04 Q1021=
201902202130 METAR LRCV 202130Z 28009KT CAVOK 07/M03 Q1021=
201902202200 METAR LRCV 202200Z 29007KT CAVOK 06/M03 Q1021=
201902202230 METAR LRCV 202230Z 29008KT CAVOK 05/M03 Q1021=
201902202300 METAR LRCV 202300Z 30008KT CAVOK 06/M04 Q1022=
201902202330 METAR LRCV 202330Z 30007KT CAVOK 06/M04 Q1022=
201902210000 METAR LRCV 210000Z 30008KT CAVOK 06/M04 Q1022=
201902210030 METAR LRCV 210030Z 31008KT CAVOK 06/M04 Q1022=
201902210100 METAR LRCV 210100Z 30007KT CAVOK 05/M04 Q1022=
201902210130 METAR LRCV 210130Z 31007KT CAVOK 05/M04 Q1022=
201902210200 METAR LRCV 210200Z 30005KT CAVOK 04/M04 Q1022=
201902210230 METAR LRCV 210230Z 28007KT CAVOK 03/M04 Q1022=
201902210300 METAR LRCV 210300Z 30004KT CAVOK 03/M04 Q1023=
201902210330 METAR LRCV 210330Z 29004KT CAVOK 03/M04 Q1023=
201902210400 METAR LRCV 210400Z 29005KT CAVOK 03/M03 Q1023=
201902210430 METAR LRCV 210430Z 28005KT CAVOK 02/M03 Q1023=
201902210500 METAR LRCV 210500Z 28006KT CAVOK 01/M03 Q1023=
201902210530 METAR LRCV 210530Z 28005KT CAVOK 02/M03 Q1023=
201902210600 METAR LRCV 210600Z 29003KT CAVOK 02/M02 Q1024=
201902210630 METAR LRCV 210630Z 28005KT CAVOK 03/M02 Q1024=
201902210700 METAR LRCV 210700Z 29004KT CAVOK 04/M01 Q1024=
201902210730 METAR LRCV 210730Z 34003KT 300V360 CAVOK 06/M01 Q1025=
201902210800 METAR LRCV 210800Z 31004KT CAVOK 07/M01 Q1025=
201902210830 METAR LRCV 210830Z 25005KT 230V290 CAVOK 07/M01 Q1025=
201902210900 METAR LRCV 210900Z 28005KT CAVOK 08/M01 Q1025=
201902210930 METAR LRCV 210930Z VRB03KT CAVOK 09/M01 Q1025=
201902211000 METAR LRCV 211000Z 23004KT 200V280 CAVOK 10/M02 Q1025=
201902211030 METAR LRCV 211030Z 27005KT 200V300 CAVOK 11/M01 Q1024=
201902211100 METAR LRCV 211100Z 26004KT 200V320 CAVOK 12/M01 Q1024=
201902211130 METAR LRCV 211130Z 24005KT CAVOK 12/M02 Q1023=
201902211200 METAR LRCV 211200Z 28006KT 230V310 CAVOK 13/M02 Q1023=
201902211230 METAR LRCV 211230Z 31009KT 270V330 CAVOK 13/M02 Q1023=
201902211300 METAR LRCV 211300Z 30007KT 260V340 CAVOK 13/M04 Q1023=
201902211330 METAR LRCV 211330Z 26008KT 220V290 CAVOK 13/M04 Q1023=
201902211400 METAR LRCV 211400Z 27007KT CAVOK 12/M04 Q1022=
201902211430 METAR LRCV 211430Z 26009KT CAVOK 12/M05 Q1022=
201902211500 METAR LRCV 211500Z 26008KT CAVOK 11/M05 Q1022=
201902211530 METAR LRCV 211530Z 26008KT 220V280 CAVOK 11/M04 Q1022=
201902211600 METAR LRCV 211600Z 25008KT CAVOK 10/M04 Q1022=
201902211630 METAR LRCV 211630Z 25009KT CAVOK 09/M03 Q1022=
201902211700 METAR LRCV 211700Z 26008KT 220V290 CAVOK 09/M03 Q1022=
201902211730 METAR LRCV 211730Z AUTO 27007KT 9999 NCD 08/M03 Q1022=
201902211800 METAR LRCV 211800Z AUTO 28008KT 9999 NCD 06/M03 Q1022=
201902211830 METAR LRCV 211830Z AUTO 28008KT 9999 NCD 06/M03 Q1022=
201902211900 METAR LRCV 211900Z AUTO 27009KT 9999 NCD 06/M03 Q1022=
201902211930 METAR LRCV 211930Z AUTO 26008KT 9999 NCD 05/M03 Q1022=
201902212000 METAR LRCV 212000Z AUTO 27009KT 9999 NCD 05/M03 Q1022=
201902212030 METAR LRCV 212030Z AUTO 26007KT 9999 NCD 04/M03 Q1021=
201902212100 METAR LRCV 212100Z AUTO 27007KT 9999 NCD 04/M02 Q1021=
201902212130 METAR LRCV 212130Z AUTO 27006KT 9999 NCD 03/M03 Q1021=
201902212200 METAR LRCV 212200Z 27006KT CAVOK 03/M03 Q1021=
201902212230 METAR LRCV 212230Z 27007KT CAVOK 02/M03 Q1021=
201902212300 METAR LRCV 212300Z 28008KT CAVOK 02/M03 Q1021=
201902212330 METAR LRCV 212330Z 28006KT CAVOK 02/M03 Q1021=
201902220000 METAR LRCV 220000Z 29006KT CAVOK 02/M03 Q1021=
201902220030 METAR LRCV 220030Z 29006KT CAVOK 02/M03 Q1020=
201902220100 METAR LRCV 220100Z 31003KT CAVOK 03/M03 Q1020=
201902220130 METAR LRCV 220130Z 31003KT CAVOK 01/M03 Q1019=
201902220200 METAR LRCV 220200Z 29005KT CAVOK 01/M03 Q1019=
201902220230 METAR LRCV 220230Z 28006KT CAVOK 01/M03 Q1018=
201902220300 METAR LRCV 220300Z 29005KT CAVOK 01/M03 Q1018=
201902220330 METAR LRCV 220330Z 27005KT CAVOK 01/M03 Q1017=
201902220400 METAR LRCV 220400Z 28006KT CAVOK 00/M03 Q1017=
201902220430 METAR LRCV 220430Z 28004KT CAVOK M01/M03 Q1017=
201902220500 METAR LRCV 220500Z 27005KT CAVOK 00/M03 Q1016=
201902220530 METAR LRCV 220530Z 26006KT CAVOK 01/M03 Q1016=
201902220600 METAR LRCV 220600Z 23005KT CAVOK 01/M02 Q1016=
201902220630 METAR LRCV 220630Z 34003KT 260V030 8000 NSC 01/M02 Q1016=
201902220700 METAR LRCV 220700Z 30003KT 8000 SCT008 02/M01 Q1016=
201902220730 METAR LRCV 220730Z 33003KT 8000 -DZ FEW007 SCT010 BKN014
                        03/M00 Q1016=
201902220800 METAR LRCV 220800Z VRB01KT 9999 -DZ FEW009 SCT012 BKN015
                        04/01 Q1016=
201902220830 METAR LRCV 220830Z 32005KT 9000 -DZ SCT010 BKN015 BKN031
                        04/01 Q1016=
201902220900 METAR COR LRCV 220900Z 31004KT 8000 -RA SCT011 BKN014 BKN025
                        07/05 Q1016 R27/19//95=
201902220930 METAR COR LRCV 220930Z VRB02KT 3000 RA BR OVC013 06/04 Q1015
                        R27/29//95=
201902221000 METAR LRCV 221000Z 23004KT 1500 -RA BR OVC011 04/03 Q1015
                        RERA R27/29//95=
201902221030 METAR LRCV 221030Z 23005KT 2000 -DZ BR SCT007 BKN010 06/05
                        Q1014 R27/29//95=
201902221100 METAR LRCV 221100Z 23007KT 4000 BR FEW010 05/05 Q1014 R27/29//95=
201902221130 METAR LRCV 221130Z 24007KT 5000 BR NSC 06/05 Q1014 R27/29//95=
201902221200 METAR LRCV 221200Z 25008KT 8000 NSC 07/05 Q1013 R27/29//95=
201902221230 METAR LRCV 221230Z 27009KT CAVOK 08/05 Q1013 R27/29//95=
201902221300 METAR LRCV 221300Z 29007KT CAVOK 09/05 Q1013 R27/29//95=
201902221330 METAR LRCV 221330Z 29006KT CAVOK 09/04 Q1013 R27/29//95=
201902221400 METAR LRCV 221400Z 30007KT CAVOK 09/04 Q1013 R27/29//95=
201902221430 METAR LRCV 221430Z 32005KT CAVOK 09/04 Q1013 R27/29//95=
201902221500 METAR LRCV 221500Z 32005KT CAVOK 09/03 Q1013 R27/29//95=
201902221530 METAR LRCV 221530Z 34005KT CAVOK 08/03 Q1013 R27/29//95=
201902221600 METAR LRCV 221600Z 03003KT CAVOK 08/03 Q1014 R27/29//95=
201902221630 METAR LRCV 221630Z 09003KT 9999 -DZ BKN049 07/03 Q1014 R27/29//95=
201902221700 METAR LRCV 221700Z 11005KT 9999 -RA OVC043 07/03 Q1014 R27/29//95=
201902221730 METAR LRCV 221730Z 11007KT 5000 -RA BR FEW003 SCT025 BKN032
                        06/05 Q1015 R27/29//95=
201902221800 METAR LRCV 221800Z 11008KT 3000 RA BR FEW003 SCT029 BKN033
                        07/07 Q1015 R27/29//95=
201902221830 METAR LRCV 221830Z AUTO 10021KT 1200 R09/1500U SHSN FEW002///
                        BKN004/// BKN022/// 01/01 Q1016=
201902221900 METAR LRCV 221900Z AUTO 10021KT 1600 R09/1900U SHSN FEW004///
                        SCT006/// BKN009/// M01/M01 Q1017=
201902221930 METAR LRCV 221930Z AUTO 09025KT 2200 R09/2000 -SHSN FEW004///
                        BKN007/// OVC020/// M01/M02 Q1017=
201902222000 METAR LRCV 222000Z AUTO 09020G30KT 1600 R09/1800D SHSN FEW005///
                        SCT007/// BKN009/// M01/M02 Q1018=
201902222030 METAR LRCV 222030Z AUTO 09025KT 1100 R09/1100V1600N SHSN
                        NCD M02/M03 Q1019=
201902222100 METAR LRCV 222100Z 09021KT 0400 R09/1300U +SN BLSN BKN004
                        OVC012 M03/M03 Q1020 R27/29//95=
201902222130 METAR LRCV 222130Z 08018KT 0350 R09/1000U +SN BLSN BKN004
                        OVC012 M03/M03 Q1021 R09/590493=
201902222200 METAR LRCV 222200Z 09014KT 0350 R09/1000N +SN BLSN BKN004
                        OVC010 M04/M04 Q1023 R09/590493=
201902222230 METAR LRCV 222230Z 08014KT 0300 R09/0800D +SN BLSN BKN004
                        OVC010 M04/M05 Q1023 R09/590493=
201902222300 METAR LRCV 222300Z 08010KT 0300 R09/0650 +SN BLSN BKN005
                        OVC015 M04/M05 Q1025 R09/590692=
201902222330 METAR LRCV 222330Z 09023KT 0400 R09/1000U +SN BLSN BKN004
                        OVC015 M04/M05 Q1025 R09/590692=
201902230000 METAR LRCV 230000Z 10018KT 0600 R09/1400 SN BLSN FEW004 SCT008
                        OVC015 M04/M05 Q1026 RESN R09/590692=
201902230030 METAR LRCV 230030Z 10017KT 1500 SN DRSN BR FEW004 BKN010
                        OVC020 M05/M05 Q1027 REBLSN R09/590692=
201902230100 METAR LRCV 230100Z 09015KT 2000 SN DRSN BR FEW005 BKN020
                        OVC040 M05/M05 Q1028 R09/590692=
201902230130 METAR LRCV 230130Z 09011KT 4000 -SN BR FEW008 SCT020 OVC045
                        M05/M06 Q1028 RESN R09/590692=
201902230200 METAR LRCV 230200Z 10012KT 5000 -SN BR FEW008 SCT020 BKN048
                        M05/M06 Q1029 R09/590692=
201902230230 METAR COR LRCV 230230Z 10009KT 8000 -SN FEW008 SCT035 BKN048
                        M05/M06 Q1029 R09/590692=
201902230300 METAR LRCV 230300Z 11008KT 6000 -SN FEW012 SCT035 BKN045
                        M05/M06 Q1030 R09/590692=
201902230330 METAR LRCV 230330Z 11007KT 9999 FEW035 M05/M06 Q1031 R09/590593=
201902230400 METAR LRCV 230400Z 12007KT CAVOK M05/M07 Q1031 R09/590593=
201902230430 METAR COR LRCV 230430Z 11004KT CAVOK M05/M07 Q1032 R09/590593=
201902230500 METAR LRCV 230500Z VRB03KT CAVOK M06/M08 Q1032 R09/590593=
201902230530 METAR LRCV 230530Z 34005KT CAVOK M06/M08 Q1033 R09/590593=
201902230600 METAR LRCV 230600Z VRB01KT CAVOK M05/M06 Q1034 R09/590593=
201902230630 METAR LRCV 230630Z VRB01KT CAVOK M02/M04 Q1034 R09/590593=
201902230700 METAR LRCV 230700Z 33002KT CAVOK M01/M03 Q1034 R09/590593=
201902230730 METAR LRCV 230730Z VRB02KT 9999 SCT049 M04/M07 Q1035 R09/590593=
201902230800 METAR LRCV 230800Z 05003KT 9999 SCT049 M01/M04 Q1035 R09/590593=
201902230830 METAR LRCV 230830Z 16007KT 9999 BKN049 M01/M05 Q1035 R09/590593=
201902230900 METAR LRCV 230900Z 15006KT 9999 BKN049 M03/M07 Q1036 R09/590593=
201902230930 METAR LRCV 230930Z 16005KT 9999 BKN045 M02/M07 Q1036 R09/690294=
201902231000 METAR LRCV 231000Z 16007KT 9999 SCT047 M02/M08 Q1036 R09/690294=
201902231030 METAR LRCV 231030Z 16006KT 9999 FEW030 SCT042 M02/M09 Q1036
                        R09/690294=
201902231100 METAR LRCV 231100Z 17007KT 120V200 9999 FEW034 SCT040 M02/M09
                        Q1036 R27/29//95=
201902231130 METAR LRCV 231130Z 18005KT 9999 FEW032 SCT040 M02/M10 Q1036
                        R27/29//95=
201902231200 METAR LRCV 231200Z 17005KT 140V200 9999 FEW040 M02/M10 Q1036
                        R27/29//95=
201902231230 METAR LRCV 231230Z 16004KT 130V200 9999 FEW040 M01/M10 Q1036
                        R27/29//95=
201902231300 METAR LRCV 231300Z 18005KT 9999 SCT028 M02/M10 Q1036 R27/29//95=
201902231330 METAR LRCV 231330Z 18006KT 9999 SCT028 M02/M09 Q1036 R27/29//95=
201902231400 METAR LRCV 231400Z 18005KT 9999 SCT023 M02/M09 Q1036 R27/29//95=
201902231430 METAR LRCV 231430Z 18004KT 140V250 9999 SCT025 M02/M09 Q1036
                        R27/29//95=
201902231500 METAR LRCV 231500Z 22005KT 9999 SCT029 M03/M09 Q1037 R27/29//95=
201902231530 METAR LRCV 231530Z 23004KT 200V260 9999 SCT027 M03/M09 Q1037
                        R27/CLRD//=
201902231600 METAR LRCV 231600Z 26003KT 230V290 9999 FEW026 M03/M09 Q1037
                        R27/CLRD//=
201902231630 METAR LRCV 231630Z VRB02KT 9999 FEW026 M04/M09 Q1037=
201902231700 METAR LRCV 231700Z 27004KT CAVOK M05/M09 Q1037=
201902231730 METAR LRCV 231730Z 29005KT CAVOK M06/M09 Q1038=
201902231800 METAR LRCV 231800Z 27004KT CAVOK M05/M09 Q1038=
201902231830 METAR LRCV 231830Z AUTO 28003KT 9999 NCD M06/M09 Q1038=
201902231900 METAR LRCV 231900Z AUTO 31004KT 9000 NCD M06/M09 Q1038=
201902231930 METAR LRCV 231930Z AUTO 30003KT 9999 BKN045/// M07/M10 Q1038=
201902232000 METAR LRCV 232000Z AUTO 30003KT 9999 BKN050/// M06/M09 Q1038=
201902232030 METAR LRCV 232030Z AUTO 30003KT 9999 BKN050/// M06/M09 Q1038=
201902232100 METAR LRCV 232100Z AUTO 31005KT 9999 BKN055/// M06/M10 Q1038=
201902232130 METAR LRCV 232130Z AUTO 28003KT 9999 SCT055/// M06/M10 Q1038=
201902232200 METAR LRCV 232200Z 28003KT CAVOK M06/M10 Q1039=
201902232230 METAR LRCV 232230Z 32002KT 8000 NSC M07/M09 Q1039=
201902232300 METAR LRCV 232300Z 36002KT 8000 SCT032 M08/M09 Q1039=
201902232330 METAR LRCV 232330Z 23001KT 9999 SCT031 M07/M09 Q1038=
201902240000 METAR LRCV 240000Z 20003KT 8000 NSC M08/M09 Q1038=
201902240030 METAR LRCV 240030Z 26002KT 5000 BR NSC M09/M10 Q1038=
201902240100 METAR LRCV 240100Z 28004KT 5000 BR NSC M08/M09 Q1038=
201902240130 METAR LRCV 240130Z 25003KT 7000 NSC M08/M10 Q1038=
201902240200 METAR LRCV 240200Z 26004KT 7000 NSC M09/M11 Q1038=
201902240230 METAR LRCV 240230Z 30003KT 6000 NSC M09/M10 Q1038=
201902240300 METAR LRCV 240300Z 27002KT 6000 SCT032 M09/M10 Q1038=
201902240330 METAR LRCV 240330Z 28003KT 3500 BR BKN033 M09/M10 Q1038=
201902240400 METAR LRCV 240400Z 26004KT 5000 BR BKN033 M09/M10 Q1037=
201902240430 METAR LRCV 240430Z 28005KT 7000 BKN033 M10/M11 Q1037=
201902240500 METAR LRCV 240500Z 28004KT 8000 SCT033 M09/M10 Q1037=
201902240530 METAR LRCV 240530Z 28003KT CAVOK M09/M10 Q1038=
201902240600 METAR LRCV 240600Z 27005KT CAVOK M09/M10 Q1038=
201902240630 METAR LRCV 240630Z 27005KT CAVOK M09/M11 Q1038=
201902240700 METAR LRCV 240700Z 28004KT CAVOK M08/M10 Q1038=
201902240730 METAR LRCV 240730Z 27006KT CAVOK M07/M10 Q1038=
201902240800 METAR LRCV 240800Z 27004KT CAVOK M05/M09 Q1038=
201902240830 METAR LRCV 240830Z 28005KT CAVOK M05/M09 Q1038=
201902240900 METAR LRCV 240900Z 28004KT CAVOK M04/M08 Q1038=
201902240930 METAR LRCV 240930Z 26005KT 210V290 CAVOK M04/M08 Q1038=
201902241000 METAR LRCV 241000Z 24006KT 200V260 CAVOK M03/M08 Q1038=
201902241030 METAR LRCV 241030Z 24007KT 200V280 CAVOK M02/M08 Q1037=
201902241100 METAR LRCV 241100Z 23006KT CAVOK M01/M07 Q1037=
201902241130 METAR LRCV 241130Z 27005KT 220V300 CAVOK M02/M09 Q1037=
201902241200 METAR LRCV 241200Z 29006KT CAVOK M01/M09 Q1036=
201902241230 METAR LRCV 241230Z 28005KT 240V310 CAVOK M01/M08 Q1036=
201902241300 METAR LRCV 241300Z 26005KT 200V300 CAVOK M01/M08 Q1036=
201902241330 METAR LRCV 241330Z 23005KT 190V270 CAVOK M01/M08 Q1035=
201902241400 METAR LRCV 241400Z 23006KT CAVOK M00/M09 Q1035=
201902241430 METAR LRCV 241430Z 23005KT 200V260 CAVOK M00/M08 Q1035=
201902241500 METAR LRCV 241500Z 23004KT 190V260 CAVOK M00/M09 Q1035=
201902241530 METAR COR LRCV 241530Z 22006KT 190V250 CAVOK M01/M09 Q1034=
201902241600 METAR LRCV 241600Z 21005KT CAVOK M02/M08 Q1034=
201902241630 METAR LRCV 241630Z 20004KT CAVOK M02/M08 Q1034=
201902241700 METAR LRCV 241700Z 19004KT CAVOK M03/M08 Q1035=
201902241730 METAR LRCV 241730Z AUTO 21004KT 9999 SCT070/// M03/M08 Q1035=
201902241800 METAR LRCV 241800Z AUTO 20004KT 9999 BKN065/// M03/M08 Q1035=
201902241830 METAR LRCV 241830Z AUTO 19005KT 9999 BKN070/// M03/M08 Q1035=
201902241900 METAR LRCV 241900Z AUTO 17003KT 9999 BKN065/// M04/M08 Q1035=
201902241930 METAR LRCV 241930Z AUTO 18003KT 9999 FEW065/// SCT100///
                        M04/M08 Q1035=
201902242000 METAR LRCV 242000Z AUTO 17004KT 9999 FEW100/// SCT130///
                        M04/M08 Q1035=
201902242030 METAR LRCV 242030Z AUTO 18003KT 9999 FEW065/// SCT100///
                        BKN110/// M05/M08 Q1035=
201902242100 METAR LRCV 242100Z VRB01KT CAVOK M05/M08 Q1035=
201902242130 METAR LRCV 242130Z 01002KT CAVOK M05/M07 Q1035=
201902242200 METAR LRCV 242200Z 05003KT 8000 NSC M05/M07 Q1036=
201902242230 METAR LRCV 242230Z 04002KT 8000 NSC M04/M07 Q1036=
201902242300 METAR LRCV 242300Z 36004KT CAVOK M05/M07 Q1036=
201902242330 METAR LRCV 242330Z 02003KT CAVOK M05/M07 Q1036=
201902250000 METAR LRCV 250000Z 02002KT CAVOK M05/M07 Q1036=
201902250030 METAR LRCV 250030Z 06003KT CAVOK M05/M07 Q1035=
201902250100 METAR LRCV 250100Z 03002KT CAVOK M05/M07 Q1035=
201902250130 METAR LRCV 250130Z 06003KT CAVOK M05/M07 Q1035=
201902250200 METAR LRCV 250200Z 04003KT CAVOK M05/M08 Q1035=
201902250230 METAR LRCV 250230Z 02003KT CAVOK M06/M08 Q1035=
201902250300 METAR LRCV 250300Z 03004KT CAVOK M06/M08 Q1035=
201902250330 METAR LRCV 250330Z 01003KT CAVOK M08/M09 Q1035=
201902250400 METAR LRCV 250400Z 03003KT CAVOK M07/M09 Q1035=
201902250430 METAR LRCV 250430Z VRB02KT CAVOK M07/M09 Q1035=
201902250500 METAR LRCV 250500Z 31004KT CAVOK M07/M09 Q1035=
201902250530 METAR LRCV 250530Z 31004KT CAVOK M08/M10 Q1036=
201902250600 METAR LRCV 250600Z VRB02KT CAVOK M07/M08 Q1036=
201902250630 METAR LRCV 250630Z 31004KT CAVOK M06/M08 Q1036=
201902250700 METAR LRCV 250700Z 25004KT CAVOK M06/M08 Q1036=
201902250730 METAR LRCV 250730Z 32009KT 6000 NSC M05/M08 Q1036=
201902250800 METAR LRCV 250800Z 31004KT 270V340 7000 NSC M04/M07 Q1036=
201902250830 METAR LRCV 250830Z 28005KT 8000 NSC M03/M07 Q1036=
201902250900 METAR LRCV 250900Z 26005KT 9000 NSC M02/M07 Q1036=
201902250930 METAR LRCV 250930Z 27008KT CAVOK M01/M07 Q1036=
201902251000 METAR LRCV 251000Z 27007KT 220V290 CAVOK M01/M07 Q1035=
201902251030 METAR LRCV 251030Z 25007KT 210V300 CAVOK 00/M07 Q1035=
201902251100 METAR LRCV 251100Z 29010KT CAVOK 00/M07 Q1035=
201902251130 METAR LRCV 251130Z 31010KT CAVOK 01/M07 Q1034=
201902251200 METAR LRCV 251200Z 29009KT CAVOK 01/M07 Q1034=
201902251230 METAR LRCV 251230Z 29010KT CAVOK 02/M07 Q1033=
201902251300 METAR LRCV 251300Z 29010KT 250V310 CAVOK 02/M06 Q1033=
201902251330 METAR LRCV 251330Z 25008KT 230V290 CAVOK 02/M08 Q1032=
201902251400 METAR LRCV 251400Z 27009KT CAVOK 02/M08 Q1031=
201902251430 METAR LRCV 251430Z 28012KT CAVOK 02/M07 Q1031=
201902251500 METAR LRCV 251500Z 26011KT CAVOK 02/M07 Q1031=
201902251530 METAR LRCV 251530Z 25010KT CAVOK 02/M06 Q1030=
201902251600 METAR LRCV 251600Z 25008KT CAVOK 01/M07 Q1030=
201902251630 METAR LRCV 251630Z 24006KT CAVOK 00/M06 Q1030=
201902251700 METAR LRCV 251700Z 25006KT CAVOK 00/M07 Q1030=
201902251730 METAR LRCV 251730Z 24006KT CAVOK M01/M07 Q1029=
201902251800 METAR LRCV 251800Z 24005KT CAVOK M01/M07 Q1029=
201902251830 METAR LRCV 251830Z 22006KT CAVOK M01/M07 Q1028=
201902251900 METAR LRCV 251900Z AUTO 23005KT 9999 NCD M01/M07 Q1028=
201902251930 METAR LRCV 251930Z AUTO 25004KT 9999 NCD M02/M08 Q1028=
201902252000 METAR LRCV 252000Z AUTO 21005KT 9999 NCD M01/M08 Q1027=
201902252030 METAR LRCV 252030Z AUTO 22005KT 9999 NCD M01/M08 Q1027=
201902252100 METAR LRCV 252100Z 23006KT CAVOK M01/M08 Q1027=
201902252130 METAR LRCV 252130Z 24005KT CAVOK M01/M08 Q1027=
201902252200 METAR LRCV 252200Z 25006KT CAVOK M01/M07 Q1027=
201902252230 METAR LRCV 252230Z 25005KT CAVOK M02/M07 Q1026=
201902252300 METAR LRCV 252300Z 26006KT CAVOK M02/M06 Q1026=
201902252330 METAR LRCV 252330Z 25006KT CAVOK M02/M06 Q1026=
201902260000 METAR LRCV 260000Z 26006KT CAVOK M02/M06 Q1026=
201902260030 METAR LRCV 260030Z 25007KT CAVOK M02/M06 Q1025=
201902260100 METAR LRCV 260100Z 25007KT CAVOK M02/M06 Q1025=
201902260130 METAR LRCV 260130Z 29004KT CAVOK M02/M06 Q1025=
201902260200 METAR LRCV 260200Z 26004KT CAVOK M02/M06 Q1024=
201902260230 METAR LRCV 260230Z 25006KT CAVOK M03/M06 Q1024=
201902260300 METAR LRCV 260300Z 25005KT CAVOK M03/M06 Q1023=
201902260330 METAR LRCV 260330Z 26005KT CAVOK M04/M06 Q1023=
201902260400 METAR LRCV 260400Z 31005KT CAVOK M05/M07 Q1023=
201902260430 METAR COR LRCV 260430Z 31006KT CAVOK M05/M07 Q1023=
201902260500 METAR LRCV 260500Z 28006KT CAVOK M05/M07 Q1023=
201902260530 METAR LRCV 260530Z 27006KT CAVOK M05/M07 Q1022=
201902260600 METAR LRCV 260600Z 26005KT CAVOK M05/M07 Q1022=
201902260630 METAR LRCV 260630Z 29005KT 8000 NSC M05/M07 Q1022=
201902260700 METAR LRCV 260700Z 26005KT CAVOK M03/M06 Q1022=
201902260730 METAR LRCV 260730Z 25007KT CAVOK M02/M06 Q1021=
201902260800 METAR LRCV 260800Z 26008KT CAVOK M00/M05 Q1021=
201902260830 METAR LRCV 260830Z 27007KT CAVOK 00/M05 Q1021=
201902260900 METAR LRCV 260900Z 26006KT CAVOK 01/M04 Q1020=
201902260930 METAR COR LRCV 260930Z 26010KT CAVOK 04/M03 Q1019=
201902261000 METAR LRCV 261000Z 26011KT CAVOK 04/M04 Q1019=
201902261030 METAR LRCV 261030Z 26012KT CAVOK 05/M04 Q1019=
201902261100 METAR LRCV 261100Z 25009KT 220V280 CAVOK 05/M03 Q1018=
201902261130 METAR LRCV 261130Z 26009KT CAVOK 05/M03 Q1018=
201902261200 METAR LRCV 261200Z 26009KT CAVOK 05/M02 Q1017=
201902261230 METAR LRCV 261230Z 26011KT CAVOK 06/M03 Q1016=
201902261300 METAR LRCV 261300Z 26008KT CAVOK 06/M02 Q1015=
201902261330 METAR LRCV 261330Z 27010KT CAVOK 06/M02 Q1015=
201902261400 METAR LRCV 261400Z 28011KT CAVOK 06/M02 Q1014=
201902261430 METAR LRCV 261430Z 27011KT CAVOK 06/M02 Q1014=
201902261500 METAR LRCV 261500Z 28009KT CAVOK 06/M02 Q1014=
201902261530 METAR LRCV 261530Z 28009KT CAVOK 06/M02 Q1014=
201902261600 METAR LRCV 261600Z 29006KT CAVOK 04/M02 Q1014=
201902261630 METAR LRCV 261630Z 32004KT CAVOK 03/M02 Q1015=
201902261700 METAR COR LRCV 261700Z 34003KT 290V050 CAVOK 03/M02 Q1015=
201902261730 METAR LRCV 261730Z 29010KT CAVOK 04/M02 Q1015=
201902261800 METAR LRCV 261800Z 30010KT CAVOK 04/M03 Q1015=
201902261830 METAR LRCV 261830Z AUTO 32006KT 9999 NCD 03/M03 Q1016=
201902261900 METAR LRCV 261900Z AUTO 33006KT 9999 NCD 02/M03 Q1016=
201902261930 METAR LRCV 261930Z AUTO 34007KT 9999 FEW230/// 03/M04 Q1016=
201902262000 METAR LRCV 262000Z AUTO 34009KT 9999 BKN190/// 03/M03 Q1016=
201902262030 METAR LRCV 262030Z AUTO 36007KT 9999 BKN200/// 02/M03 Q1016=
201902262100 METAR LRCV 262100Z AUTO 35005KT 9999 SCT140/// BKN160///
                        02/M03 Q1016=
201902262130 METAR LRCV 262130Z AUTO 33006KT 9999 BKN130/// 02/M03 Q1016=
201902262200 METAR LRCV 262200Z 35007KT CAVOK 03/M03 Q1016=
201902262230 METAR LRCV 262230Z 35008KT CAVOK 03/M03 Q1016=
201902262300 METAR LRCV 262300Z 32007KT CAVOK 03/M03 Q1016=
201902262330 METAR LRCV 262330Z 32006KT CAVOK 03/M03 Q1016=
201902270000 METAR LRCV 270000Z 34005KT CAVOK 02/M03 Q1016=
201902270030 METAR LRCV 270030Z 34007KT CAVOK 02/M03 Q1016=
201902270100 METAR LRCV 270100Z 31005KT CAVOK 01/M04 Q1016=
201902270130 METAR LRCV 270130Z 31007KT CAVOK 03/M04 Q1016=
201902270200 METAR LRCV 270200Z 32008KT CAVOK 03/M04 Q1016=
201902270230 METAR LRCV 270230Z 33010KT CAVOK 02/M03 Q1016=
201902270300 METAR LRCV 270300Z 34010KT CAVOK 02/M03 Q1016=
201902270330 METAR LRCV 270330Z 34011KT CAVOK 02/M03 Q1016=
201902270400 METAR LRCV 270400Z 35009KT CAVOK 02/M03 Q1016=
201902270430 METAR LRCV 270430Z 09007KT CAVOK 02/M02 Q1017=
201902270500 METAR LRCV 270500Z 10004KT 070V140 CAVOK 02/M02 Q1017=
201902270530 METAR LRCV 270530Z 14004KT CAVOK 01/M03 Q1018=
201902270600 METAR LRCV 270600Z 05004KT CAVOK 02/M02 Q1018=
201902270630 METAR LRCV 270630Z 33004KT 290V040 CAVOK 02/M02 Q1019=
201902270700 METAR LRCV 270700Z VRB01KT CAVOK 03/M02 Q1019=
201902270730 METAR LRCV 270730Z 03005KT CAVOK 05/M02 Q1019=
201902270800 METAR LRCV 270800Z 03006KT CAVOK 04/M02 Q1019=
201902270830 METAR LRCV 270830Z 05006KT CAVOK 05/M01 Q1020=
201902270900 METAR LRCV 270900Z 04007KT 9999 FEW025 06/M01 Q1020=
201902270930 METAR LRCV 270930Z 04007KT 9999 FEW025 07/M00 Q1020=
201902271000 METAR LRCV 271000Z 06006KT 030V090 9999 FEW025 07/M01 Q1020=
201902271030 METAR LRCV 271030Z 10004KT 060V160 9999 FEW035 08/M02 Q1020=
201902271100 METAR LRCV 271100Z 13004KT 090V170 9999 FEW040 08/M01 Q1020=
201902271130 METAR LRCV 271130Z 16003KT 050V220 9999 FEW040 09/M00 Q1020=
201902271200 METAR LRCV 271200Z VRB02KT 9999 FEW040 10/M01 Q1020=
201902271230 METAR LRCV 271230Z 30004KT 240V040 9999 FEW042 10/M01 Q1019=
201902271300 METAR LRCV 271300Z 27003KT 210V320 9999 FEW042 09/M02 Q1019=
201902271330 METAR LRCV 271330Z 30008KT 260V330 9999 FEW045 10/M03 Q1019=
201902271400 METAR LRCV 271400Z 27006KT 240V300 9999 FEW048 10/M02 Q1019=
201902271430 METAR LRCV 271430Z 27006KT 9999 FEW048 10/M03 Q1019=
201902271500 METAR LRCV 271500Z 28008KT CAVOK 10/M04 Q1019=
201902271530 METAR LRCV 271530Z 27009KT CAVOK 09/M03 Q1018=
201902271600 METAR LRCV 271600Z 26007KT CAVOK 08/M03 Q1018=
201902271630 METAR LRCV 271630Z 26006KT CAVOK 07/M03 Q1018=
201902271700 METAR LRCV 271700Z 26006KT CAVOK 06/M03 Q1019=
201902271730 METAR LRCV 271730Z AUTO 26006KT 9999 NCD 06/M02 Q1019=
201902271800 METAR LRCV 271800Z AUTO 29005KT 9999 NCD 05/M02 Q1019=
201902271830 METAR LRCV 271830Z AUTO 27006KT 9999 NCD 05/M02 Q1019=
201902271900 METAR LRCV 271900Z AUTO 24005KT 9999 NCD 05/M02 Q1018=
201902271930 METAR LRCV 271930Z AUTO 24005KT 9999 NCD 05/M02 Q1018=
201902272000 METAR LRCV 272000Z AUTO 26006KT 9999 NCD 04/M02 Q1018=
201902272030 METAR LRCV 272030Z AUTO 27005KT 9999 NCD 04/M02 Q1018=
201902272100 METAR LRCV 272100Z 24003KT CAVOK 04/M02 Q1018=
201902272130 METAR LRCV 272130Z 28005KT CAVOK 03/M02 Q1018=
201902272200 METAR LRCV 272200Z 26005KT CAVOK 02/M02 Q1018=
201902272230 METAR LRCV 272230Z 28004KT CAVOK 02/M02 Q1018=
201902272300 METAR LRCV 272300Z VRB02KT CAVOK 03/M03 Q1018=
201902272330 METAR LRCV 272330Z 30003KT CAVOK 02/M04 Q1017=
201902280000 METAR LRCV 280000Z 28004KT 250V310 CAVOK 02/M04 Q1017=
201902280030 METAR LRCV 280030Z 28005KT CAVOK 00/M03 Q1017=
201902280100 METAR LRCV 280100Z 29004KT CAVOK 01/M04 Q1017=
201902280130 METAR LRCV 280130Z 28005KT CAVOK 00/M04 Q1017=
201902280200 METAR COR LRCV 280200Z 27005KT CAVOK M00/M04 Q1016=
201902280230 METAR LRCV 280230Z 28005KT CAVOK M01/M04 Q1016=
201902280300 METAR LRCV 280300Z 28005KT CAVOK M01/M04 Q1016=
201902280330 METAR LRCV 280330Z 26006KT CAVOK M01/M04 Q1015=
201902280400 METAR LRCV 280400Z 28006KT CAVOK M02/M04 Q1015=
201902280430 METAR LRCV 280430Z 27007KT CAVOK M02/M04 Q1015=
201902280500 METAR LRCV 280500Z 31004KT CAVOK M02/M03 Q1015=
201902280530 METAR LRCV 280530Z 30006KT CAVOK M01/M03 Q1015=
201902280600 METAR LRCV 280600Z 27008KT CAVOK M01/M03 Q1015=
201902280630 METAR LRCV 280630Z 28004KT CAVOK 00/M03 Q1015=
201902280700 METAR LRCV 280700Z 25005KT 210V270 CAVOK 02/M02 Q1015=
201902280730 METAR LRCV 280730Z 26008KT CAVOK 03/M01 Q1015=
201902280800 METAR LRCV 280800Z 26008KT CAVOK 05/M01 Q1014=
201902280830 METAR LRCV 280830Z 25009KT CAVOK 06/00 Q1014=
201902280900 METAR LRCV 280900Z 25008KT CAVOK 08/01 Q1014=
201902280930 METAR LRCV 280930Z 26009KT 230V290 CAVOK 10/01 Q1013=
201902281000 METAR LRCV 281000Z 26011KT CAVOK 12/01 Q1013=
201902281030 METAR LRCV 281030Z 26014KT 230V290 CAVOK 13/01 Q1012=
201902281100 METAR LRCV 281100Z 28017KT CAVOK 14/M01 Q1011=
201902281130 METAR LRCV 281130Z 28018KT CAVOK 14/M01 Q1011=
201902281200 METAR LRCV 281200Z 27015KT CAVOK 15/M02 Q1010=
201902281230 METAR LRCV 281230Z 27017KT CAVOK 15/M03 Q1010=
201902281300 METAR LRCV 281300Z 28019KT CAVOK 15/M03 Q1009=
201902281330 METAR LRCV 281330Z 27018KT CAVOK 15/M04 Q1009=
201902281400 METAR LRCV 281400Z 26018KT CAVOK 15/M05 Q1008=
201902281430 METAR LRCV 281430Z 27016KT CAVOK 15/M05 Q1008=
201902281500 METAR LRCV 281500Z 27014KT CAVOK 15/M05 Q1008=
201902281530 METAR LRCV 281530Z 28016KT CAVOK 14/M05 Q1007=
201902281600 METAR LRCV 281600Z 27015KT CAVOK 13/M05 Q1007=
201902281630 METAR LRCV 281630Z 27013KT CAVOK 13/M06 Q1007=
201902281700 METAR LRCV 281700Z 26014KT CAVOK 13/M05 Q1006=
201902281730 METAR LRCV 281730Z AUTO 28012KT 9999 NCD 11/M04 Q1006=
201902281800 METAR LRCV 281800Z AUTO 29007KT 260V330 9999 NCD 11/M04 Q1006=
201902281830 METAR LRCV 281830Z AUTO 32004KT 200V350 9999 NCD 10/M04 Q1006=
201902281900 METAR LRCV 281900Z AUTO VRB02KT 9999 NCD 10/M04 Q1006=
201902281930 METAR LRCV 281930Z AUTO 27005KT 9999 NCD 09/M04 Q1006=
201902282000 METAR LRCV 282000Z AUTO 27007KT 9999 NCD 10/M05 Q1006=
201902282030 METAR LRCV 282030Z AUTO 28008KT 9999 NCD 09/M05 Q1006=
201902282100 METAR LRCV 282100Z AUTO 29005KT 9999 NCD 08/M05 Q1005=
201902282130 METAR LRCV 282130Z AUTO 28008KT 9999 NCD 08/M05 Q1005=
201902282200 METAR LRCV 282200Z 28010KT CAVOK 08/M05 Q1005=
201902282230 METAR LRCV 282230Z 28011KT CAVOK 10/M05 Q1005=
201902282300 METAR LRCV 282300Z 28004KT 250V310 CAVOK 09/M05 Q1005=
201902282330 METAR LRCV 282330Z 27009KT CAVOK 08/M05 Q1004=
