201903010000 METAR LRCV 010000Z 27008KT CAVOK 08/M05 Q1004=
201903010030 METAR LRCV 010030Z 25008KT CAVOK 08/M04 Q1004=
201903010100 METAR LRCV 010100Z 25006KT CAVOK 08/M04 Q1004=
201903010130 METAR LRCV 010130Z 26007KT CAVOK 08/M03 Q1004=
201903010200 METAR LRCV 010200Z 27009KT CAVOK 09/M02 Q1004=
201903010230 METAR LRCV 010230Z 28009KT CAVOK 08/M02 Q1005=
201903010300 METAR LRCV 010300Z 28008KT CAVOK 06/M02 Q1005=
201903010330 METAR LRCV 010330Z 26009KT CAVOK 08/M02 Q1005=
201903010400 METAR LRCV 010400Z 24007KT CAVOK 07/M02 Q1005=
201903010430 METAR LRCV 010430Z 24007KT CAVOK 07/M01 Q1005=
201903010500 METAR LRCV 010500Z 25007KT CAVOK 07/M01 Q1006=
201903010530 METAR LRCV 010530Z 25008KT CAVOK 07/M01 Q1006=
201903010600 METAR LRCV 010600Z 26008KT CAVOK 08/M01 Q1006=
201903010630 METAR LRCV 010630Z 25007KT CAVOK 08/M01 Q1007=
201903010700 METAR LRCV 010700Z 27008KT CAVOK 10/00 Q1007=
201903010730 METAR LRCV 010730Z 27010KT CAVOK 11/00 Q1007=
201903010800 METAR LRCV 010800Z 27010KT CAVOK 13/01 Q1007=
201903010830 METAR LRCV 010830Z 28012KT CAVOK 14/01 Q1007=
201903010900 METAR LRCV 010900Z 27015KT CAVOK 15/01 Q1007=
201903010930 METAR LRCV 010930Z 28014KT CAVOK 15/01 Q1007=
201903011000 METAR LRCV 011000Z 29014KT CAVOK 16/M00 Q1007=
201903011030 METAR LRCV 011030Z 28013KT CAVOK 16/M00 Q1006=
201903011100 METAR LRCV 011100Z 27013KT CAVOK 17/M01 Q1006=
201903011130 METAR LRCV 011130Z 27015KT CAVOK 17/M01 Q1006=
201903011200 METAR LRCV 011200Z 28015KT CAVOK 17/M01 Q1005=
201903011230 METAR LRCV 011230Z 28015KT CAVOK 17/M02 Q1005=
201903011300 METAR LRCV 011300Z 28019KT CAVOK 17/M01 Q1005=
201903011330 METAR LRCV 011330Z 27020KT CAVOK 17/M01 Q1005=
201903011400 METAR LRCV 011400Z 29018KT CAVOK 17/M01 Q1005=
201903011430 METAR LRCV 011430Z 28020KT CAVOK 16/M00 Q1005=
201903011500 METAR LRCV 011500Z 27017KT CAVOK 15/00 Q1005=
201903011530 METAR LRCV 011530Z 28017KT CAVOK 15/00 Q1005=
201903011600 METAR LRCV 011600Z 29015KT CAVOK 14/01 Q1005=
201903011630 METAR LRCV 011630Z 29013KT CAVOK 13/01 Q1006=
201903011700 METAR LRCV 011700Z 29012KT 9999 FEW035 12/02 Q1006=
201903011730 METAR LRCV 011730Z 29011KT CAVOK 12/02 Q1006=
201903011800 METAR LRCV 011800Z 28011KT CAVOK 12/02 Q1006=
201903011830 METAR LRCV 011830Z 28010KT CAVOK 10/02 Q1006=
201903011900 METAR LRCV 011900Z AUTO 28009KT 9000 NCD 10/02 Q1006=
201903011930 METAR LRCV 011930Z AUTO 29011KT 9000 NCD 10/02 Q1006=
201903012000 METAR LRCV 012000Z AUTO 29008KT 8000 NCD 09/02 Q1007=
201903012030 METAR LRCV 012030Z AUTO 29008KT 8000 NCD 07/02 Q1007=
201903012100 METAR LRCV 012100Z 29008KT CAVOK 07/02 Q1006=
201903012130 METAR LRCV 012130Z 28005KT 8000 NSC 07/02 Q1007=
201903012200 METAR LRCV 012200Z 24005KT 8000 NSC 07/02 Q1007=
201903012230 METAR LRCV 012230Z 26007KT 8000 NSC 07/02 Q1007=
201903012300 METAR LRCV 012300Z 27008KT 8000 NSC 07/02 Q1007=
201903012330 METAR LRCV 012330Z 28007KT 7000 NSC 07/02 Q1006=
201903020000 METAR LRCV 020000Z 27006KT 7000 NSC 07/03 Q1006=
201903020030 METAR LRCV 020030Z 27008KT 8000 NSC 08/03 Q1006=
201903020100 METAR LRCV 020100Z 26005KT 9000 NSC 07/02 Q1006=
201903020130 METAR LRCV 020130Z 30009KT CAVOK 07/02 Q1006=
201903020200 METAR LRCV 020200Z 29010KT CAVOK 08/03 Q1006=
201903020230 METAR LRCV 020230Z 29008KT CAVOK 06/02 Q1006=
201903020300 METAR LRCV 020300Z 27009KT CAVOK 07/02 Q1006=
201903020330 METAR LRCV 020330Z 27009KT CAVOK 07/02 Q1006=
201903020400 METAR LRCV 020400Z 28009KT CAVOK 06/02 Q1006=
201903020430 METAR LRCV 020430Z 28007KT CAVOK 07/02 Q1006=
201903020500 METAR LRCV 020500Z 29010KT CAVOK 08/03 Q1007=
201903020530 METAR LRCV 020530Z 28009KT CAVOK 07/03 Q1007=
201903020600 METAR LRCV 020600Z 28009KT CAVOK 07/03 Q1007=
201903020630 METAR LRCV 020630Z 30013KT CAVOK 09/03 Q1008=
201903020700 METAR LRCV 020700Z 30013KT CAVOK 09/03 Q1008=
201903020730 METAR LRCV 020730Z 02009KT CAVOK 09/03 Q1009=
201903020800 METAR LRCV 020800Z 07011KT 9999 SCT030 09/02 Q1009=
201903020830 METAR LRCV 020830Z 09014KT 9999 BKN032 07/00 Q1010=
201903020900 METAR COR LRCV 020900Z 09013KT 9999 SCT031 07/M00 Q1011=
201903020930 METAR LRCV 020930Z 10014KT 9999 SCT031 06/M00 Q1010=
201903021000 METAR LRCV 021000Z 10013KT 9999 SCT031 07/01 Q1011=
201903021030 METAR LRCV 021030Z 10012KT 9999 SCT032 08/01 Q1011=
201903021100 METAR LRCV 021100Z 11013KT 9999 FEW033 07/01 Q1011=
201903021130 METAR LRCV 021130Z 11012KT 9999 FEW035 08/01 Q1011=
201903021200 METAR LRCV 021200Z 11010KT CAVOK 08/01 Q1011=
201903021230 METAR LRCV 021230Z 12010KT CAVOK 08/01 Q1011=
201903021300 METAR LRCV 021300Z 12010KT 090V150 CAVOK 08/01 Q1011=
201903021330 METAR LRCV 021330Z 13011KT CAVOK 08/01 Q1011=
201903021400 METAR LRCV 021400Z 12011KT CAVOK 09/01 Q1011=
201903021430 METAR LRCV 021430Z 11010KT CAVOK 08/01 Q1012=
201903021500 METAR LRCV 021500Z 12011KT CAVOK 08/01 Q1012=
201903021530 METAR LRCV 021530Z 11009KT CAVOK 07/00 Q1012=
201903021600 METAR LRCV 021600Z 10008KT CAVOK 07/00 Q1012=
201903021630 METAR LRCV 021630Z 09007KT CAVOK 06/00 Q1013=
201903021700 METAR LRCV 021700Z 09008KT CAVOK 05/00 Q1013=
201903021730 METAR LRCV 021730Z AUTO 09008KT 9999 BKN060/// 06/00 Q1013=
201903021800 METAR LRCV 021800Z AUTO 10006KT 9999 FEW085/// 04/M00 Q1014=
201903021830 METAR LRCV 021830Z AUTO 09007KT 9999 BKN200/// 03/M00 Q1014=
201903021900 METAR LRCV 021900Z AUTO 07007KT 9999 FEW085/// BKN180///
                        03/M00 Q1015=
201903021930 METAR LRCV 021930Z AUTO 07007KT 9999 BKN080/// BKN190///
                        02/M00 Q1015=
201903022000 METAR LRCV 022000Z AUTO 08006KT 9999 FEW080/// BKN190///
                        01/M01 Q1015=
201903022030 METAR LRCV 022030Z AUTO 08006KT 9999 FEW120/// BKN160///
                        02/M00 Q1015=
201903022100 METAR LRCV 022100Z AUTO 08006KT 9999 BKN120/// 03/M00 Q1015=
201903022130 METAR LRCV 022130Z AUTO 07006KT 9999 BKN120/// 03/M00 Q1015=
201903022200 METAR LRCV 022200Z 07005KT 9999 BKN043 03/M00 Q1016=
201903022230 METAR LRCV 022230Z 06005KT 9999 BKN043 03/M00 Q1016=
201903022300 METAR LRCV 022300Z 06006KT 9999 SCT045 03/M00 Q1016=
201903022330 METAR LRCV 022330Z 05006KT 9999 SCT047 03/M00 Q1016=
201903030000 METAR LRCV 030000Z 06006KT 9999 SCT034 BKN047 03/M00 Q1016=
201903030030 METAR LRCV 030030Z 05007KT 9999 BKN035 03/00 Q1016=
201903030100 METAR LRCV 030100Z 03007KT 9999 BKN036 03/00 Q1017=
201903030130 METAR LRCV 030130Z 05006KT 9999 BKN036 03/00 Q1017=
201903030200 METAR LRCV 030200Z 03005KT 9999 BKN036 03/M00 Q1017=
201903030230 METAR LRCV 030230Z 36003KT 9999 BKN036 03/M00 Q1017=
201903030300 METAR LRCV 030300Z 05005KT CAVOK 03/M00 Q1017=
201903030330 METAR LRCV 030330Z 02004KT CAVOK 03/M00 Q1017=
201903030400 METAR LRCV 030400Z 02005KT 340V050 CAVOK 03/M01 Q1017=
201903030430 METAR LRCV 030430Z 01003KT CAVOK 02/M00 Q1017=
201903030500 METAR LRCV 030500Z 02004KT 9999 SCT035 02/M01 Q1017=
201903030530 METAR LRCV 030530Z 03004KT 9999 FEW035 02/M01 Q1018=
201903030600 METAR LRCV 030600Z 29003KT 8000 NSC 02/M00 Q1018=
201903030630 METAR LRCV 030630Z VRB01KT 8000 NSC 03/M00 Q1018=
201903030700 METAR LRCV 030700Z 06004KT 9999 BKN048 03/M00 Q1019=
201903030730 METAR LRCV 030730Z 07006KT 9999 SCT048 04/M01 Q1019=
201903030800 METAR LRCV 030800Z 08007KT 9999 SCT048 04/M01 Q1019=
201903030830 METAR LRCV 030830Z 09005KT 060V120 9999 SCT046 05/M01 Q1019=
201903030900 METAR LRCV 030900Z 10005KT 070V140 9999 FEW035 06/M00 Q1019=
201903030930 METAR LRCV 030930Z 12005KT 100V170 9999 FEW035 07/M00 Q1019=
201903031000 METAR LRCV 031000Z VRB04KT 9999 FEW033 07/M00 Q1019=
201903031030 METAR LRCV 031030Z VRB03KT 9999 FEW030 07/M00 Q1019=
201903031100 METAR LRCV 031100Z VRB03KT 9999 SCT030 09/M00 Q1018=
201903031130 METAR LRCV 031130Z VRB02KT 9999 SCT030 10/M00 Q1018=
201903031200 METAR LRCV 031200Z 35004KT 9999 BKN035 08/M00 Q1018=
201903031230 METAR LRCV 031230Z 02003KT 350V100 9999 BKN035 08/M01 Q1018=
201903031300 METAR LRCV 031300Z 20003KT 150V250 9999 FEW035 08/M01 Q1018=
201903031330 METAR LRCV 031330Z 20003KT 150V250 9999 FEW035 08/M01 Q1018=
201903031400 METAR LRCV 031400Z VRB02KT 9999 FEW040 10/M01 Q1017=
201903031430 METAR LRCV 031430Z 22004KT 190V250 CAVOK 09/M02 Q1017=
201903031500 METAR LRCV 031500Z 18004KT 150V240 CAVOK 09/M02 Q1017=
201903031530 METAR LRCV 031530Z 19004KT CAVOK 08/M01 Q1017=
201903031600 METAR COR LRCV 031600Z 18003KT CAVOK 08/M01 Q1017=
201903031630 METAR LRCV 031630Z 17003KT CAVOK 06/M01 Q1017=
201903031700 METAR LRCV 031700Z 17005KT CAVOK 06/M02 Q1017=
201903031730 METAR LRCV 031730Z AUTO 19006KT 9999 NCD 06/M02 Q1017=
201903031800 METAR LRCV 031800Z AUTO 20006KT 9999 NCD 06/M02 Q1017=
201903031830 METAR LRCV 031830Z AUTO 20005KT 9999 NCD 05/M02 Q1017=
201903031900 METAR LRCV 031900Z AUTO 20005KT 9999 NCD 05/M02 Q1017=
201903031930 METAR LRCV 031930Z AUTO 20005KT 9999 NCD 04/M02 Q1017=
201903032000 METAR LRCV 032000Z AUTO 21005KT 9999 NCD 05/M02 Q1017=
201903032030 METAR LRCV 032030Z AUTO 22005KT 9999 NCD 04/M02 Q1017=
201903032100 METAR LRCV 032100Z 21005KT CAVOK 04/M02 Q1016=
201903032130 METAR LRCV 032130Z 19005KT CAVOK 04/M02 Q1016=
201903032200 METAR LRCV 032200Z 20006KT CAVOK 04/M02 Q1016=
201903032230 METAR LRCV 032230Z 21006KT CAVOK 03/M02 Q1016=
201903032300 METAR LRCV 032300Z 21006KT CAVOK 03/M02 Q1016=
201903032330 METAR LRCV 032330Z 23006KT CAVOK 03/M02 Q1016=
201903040000 METAR LRCV 040000Z AUTO 24004KT 9999 NCD 03/M02 Q1015=
201903040030 METAR LRCV 040030Z 24005KT CAVOK 02/M01 Q1015=
201903040100 METAR LRCV 040100Z VRB02KT CAVOK 02/M02 Q1015=
201903040130 METAR LRCV 040130Z 22002KT CAVOK 01/M02 Q1015=
201903040200 METAR LRCV 040200Z 23002KT 7000 NSC M00/M03 Q1015=
201903040230 METAR LRCV 040230Z VRB01KT 6000 NSC M01/M03 Q1015=
201903040300 METAR LRCV 040300Z VRB01KT 6000 NSC M01/M03 Q1014=
201903040330 METAR LRCV 040330Z 04002KT 6000 NSC M01/M03 Q1014=
201903040400 METAR LRCV 040400Z 03003KT 5000 BR NSC M02/M03 Q1014=
201903040430 METAR LRCV 040430Z 02003KT 5000 BR NSC M01/M03 Q1014=
201903040500 METAR LRCV 040500Z 01002KT 3000 BR NSC M02/M03 Q1014=
201903040530 METAR LRCV 040530Z VRB01KT 4000 BR NSC M01/M03 Q1014=
201903040600 METAR LRCV 040600Z VRB02KT 5000 BR NSC 01/M02 Q1014=
201903040630 METAR LRCV 040630Z 25005KT 5000 BR NSC 01/M01 Q1014=
201903040700 METAR LRCV 040700Z 26003KT 5000 BR NSC 02/M01 Q1014=
201903040730 METAR LRCV 040730Z 24003KT 200V280 7000 NSC 04/M01 Q1014=
201903040800 METAR LRCV 040800Z 21003KT 180V260 CAVOK 06/00 Q1014=
201903040830 METAR LRCV 040830Z 24005KT 210V270 CAVOK 08/01 Q1014=
201903040900 METAR LRCV 040900Z 24005KT 220V280 CAVOK 09/01 Q1014=
201903040930 METAR LRCV 040930Z 25007KT 220V280 CAVOK 11/01 Q1014=
201903041000 METAR COR LRCV 041000Z 24006KT 180V280 CAVOK 12/01 Q1013=
201903041030 METAR LRCV 041030Z 24007KT 210V270 CAVOK 13/01 Q1013=
201903041100 METAR LRCV 041100Z 22007KT 180V250 CAVOK 15/M00 Q1012=
201903041130 METAR LRCV 041130Z 24010KT CAVOK 16/M01 Q1012=
201903041200 METAR LRCV 041200Z 24008KT CAVOK 17/M01 Q1011=
201903041230 METAR LRCV 041230Z 26008KT 210V290 CAVOK 17/M01 Q1010=
201903041300 METAR LRCV 041300Z 22008KT 190V260 CAVOK 17/M01 Q1010=
201903041330 METAR LRCV 041330Z 24007KT 200V270 CAVOK 17/M01 Q1009=
201903041400 METAR LRCV 041400Z 24009KT 230V290 CAVOK 18/M02 Q1009=
201903041430 METAR LRCV 041430Z 25008KT 210V280 CAVOK 17/M02 Q1009=
201903041500 METAR LRCV 041500Z 26005KT 220V300 CAVOK 17/M02 Q1009=
201903041530 METAR LRCV 041530Z 27007KT CAVOK 16/M02 Q1009=
201903041600 METAR LRCV 041600Z 25003KT 210V270 CAVOK 16/M03 Q1008=
201903041630 METAR LRCV 041630Z 18003KT CAVOK 13/M02 Q1008=
201903041700 METAR LRCV 041700Z 17004KT CAVOK 12/M01 Q1008=
201903041730 METAR LRCV 041730Z 18006KT CAVOK 12/M01 Q1008=
201903041800 METAR LRCV 041800Z 19006KT CAVOK 12/M01 Q1008=
201903041830 METAR LRCV 041830Z AUTO 17006KT 9999 NCD 11/M01 Q1008=
201903041900 METAR LRCV 041900Z AUTO 17005KT 9999 NCD 10/M01 Q1008=
201903041930 METAR LRCV 041930Z AUTO 17007KT 9999 NCD 10/M01 Q1007=
201903042000 METAR LRCV 042000Z AUTO 17007KT 9999 NCD 11/M02 Q1007=
201903042030 METAR LRCV 042030Z AUTO 17006KT 9999 NCD 11/M01 Q1007=
201903042100 METAR LRCV 042100Z 17005KT CAVOK 10/M01 Q1007=
201903042130 METAR LRCV 042130Z 18005KT CAVOK 10/M02 Q1007=
201903042200 METAR LRCV 042200Z 20005KT CAVOK 10/M02 Q1007=
201903042230 METAR LRCV 042230Z 23005KT CAVOK 09/M02 Q1007=
201903042300 METAR LRCV 042300Z 27005KT CAVOK 08/M01 Q1007=
201903042330 METAR LRCV 042330Z 29003KT CAVOK 05/M01 Q1007=
201903050000 METAR LRCV 050000Z 30001KT CAVOK 05/M01 Q1007=
201903050030 METAR LRCV 050030Z 31002KT CAVOK 05/M01 Q1006=
201903050100 METAR LRCV 050100Z 22003KT CAVOK 08/M01 Q1006=
201903050130 METAR LRCV 050130Z 22004KT CAVOK 09/M02 Q1006=
201903050200 METAR LRCV 050200Z 26005KT CAVOK 09/M02 Q1006=
201903050230 METAR LRCV 050230Z 24004KT CAVOK 08/M02 Q1005=
201903050300 METAR LRCV 050300Z 25005KT CAVOK 08/M02 Q1005=
201903050330 METAR LRCV 050330Z 23004KT CAVOK 07/M02 Q1005=
201903050400 METAR LRCV 050400Z 25003KT CAVOK 05/M02 Q1006=
201903050430 METAR LRCV 050430Z 27005KT CAVOK 05/M02 Q1006=
201903050500 METAR LRCV 050500Z 28006KT CAVOK 05/M02 Q1006=
201903050530 METAR LRCV 050530Z 29008KT CAVOK 06/M01 Q1007=
201903050600 METAR LRCV 050600Z 28007KT CAVOK 08/M00 Q1007=
201903050630 METAR LRCV 050630Z 29008KT CAVOK 08/M01 Q1007=
201903050700 METAR LRCV 050700Z 26008KT CAVOK 10/M00 Q1008=
201903050730 METAR LRCV 050730Z 27011KT CAVOK 12/M00 Q1008=
201903050800 METAR LRCV 050800Z 27018KT CAVOK 14/01 Q1008=
201903050830 METAR LRCV 050830Z 29021G32KT CAVOK 14/02 Q1008=
201903050900 METAR LRCV 050900Z 28026G37KT CAVOK 13/02 Q1009=
201903050930 METAR LRCV 050930Z 28021KT CAVOK 14/02 Q1009=
201903051000 METAR LRCV 051000Z 28019KT CAVOK 14/02 Q1010=
201903051030 METAR LRCV 051030Z 27018KT CAVOK 15/03 Q1010=
201903051100 METAR LRCV 051100Z 29020KT CAVOK 15/02 Q1009=
201903051130 METAR LRCV 051130Z 28018KT CAVOK 15/02 Q1009=
201903051200 METAR LRCV 051200Z 27016KT CAVOK 15/02 Q1009=
201903051230 METAR LRCV 051230Z 28018KT CAVOK 16/01 Q1009=
201903051300 METAR LRCV 051300Z 28016KT CAVOK 15/M01 Q1010=
201903051330 METAR LRCV 051330Z 27013KT CAVOK 14/M00 Q1010=
201903051400 METAR LRCV 051400Z 27014KT CAVOK 14/M01 Q1010=
201903051430 METAR LRCV 051430Z 28014KT CAVOK 13/M00 Q1011=
201903051500 METAR LRCV 051500Z 27010KT CAVOK 13/01 Q1011=
201903051530 METAR LRCV 051530Z 27009KT CAVOK 12/00 Q1011=
201903051600 METAR LRCV 051600Z 27011KT CAVOK 12/01 Q1011=
201903051630 METAR LRCV 051630Z 26011KT CAVOK 12/01 Q1011=
201903051700 METAR LRCV 051700Z 27007KT 250V310 CAVOK 11/00 Q1012=
201903051730 METAR LRCV 051730Z 28007KT CAVOK 11/M00 Q1012=
201903051800 METAR LRCV 051800Z AUTO 27007KT 9999 BKN120/// 11/M00 Q1012=
201903051830 METAR LRCV 051830Z AUTO 26006KT 9999 FEW110/// BKN140///
                        10/00 Q1013=
201903051900 METAR LRCV 051900Z AUTO 25007KT 9999 FEW130/// BKN140///
                        10/01 Q1013=
201903051930 METAR LRCV 051930Z AUTO 28005KT 9999 BKN120/// BKN210///
                        09/00 Q1014=
201903052000 METAR LRCV 052000Z AUTO 27007KT 9999 BKN120/// BKN130///
                        09/02 Q1014=
201903052030 METAR LRCV 052030Z AUTO 26008KT 9999 BKN120/// BKN130///
                        09/02 Q1014=
201903052100 METAR LRCV 052100Z AUTO 26006KT 9999 FEW120/// SCT130///
                        BKN150/// 08/02 Q1014=
201903052130 METAR LRCV 052130Z AUTO 24006KT 9999 BKN110/// BKN140///
                        08/02 Q1014=
201903052200 METAR LRCV 052200Z 24005KT CAVOK 08/02 Q1014=
201903052230 METAR LRCV 052230Z 24004KT CAVOK 08/02 Q1014=
201903052300 METAR LRCV 052300Z 25004KT CAVOK 08/02 Q1015=
201903052330 METAR LRCV 052330Z 24004KT CAVOK 08/02 Q1015=
201903060000 METAR LRCV 060000Z 25004KT CAVOK 08/02 Q1015=
201903060030 METAR LRCV 060030Z 25004KT CAVOK 07/02 Q1015=
201903060100 METAR LRCV 060100Z 22004KT CAVOK 07/02 Q1015=
201903060130 METAR LRCV 060130Z 22004KT CAVOK 07/02 Q1014=
201903060200 METAR LRCV 060200Z 23003KT CAVOK 07/02 Q1014=
201903060230 METAR LRCV 060230Z 22004KT CAVOK 06/02 Q1014=
201903060300 METAR LRCV 060300Z 22002KT CAVOK 06/02 Q1014=
201903060330 METAR LRCV 060330Z 21003KT CAVOK 06/02 Q1014=
201903060400 METAR LRCV 060400Z 23005KT CAVOK 05/02 Q1015=
201903060430 METAR LRCV 060430Z 24005KT CAVOK 05/02 Q1015=
201903060500 METAR LRCV 060500Z 25006KT CAVOK 05/02 Q1015=
201903060530 METAR LRCV 060530Z 26006KT CAVOK 06/02 Q1015=
201903060600 METAR LRCV 060600Z 29003KT CAVOK 06/03 Q1015=
201903060630 METAR LRCV 060630Z 26005KT CAVOK 08/03 Q1016=
201903060700 METAR LRCV 060700Z 24006KT CAVOK 08/03 Q1016=
201903060730 METAR LRCV 060730Z 24006KT CAVOK 09/03 Q1016=
201903060800 METAR LRCV 060800Z 24007KT 210V270 CAVOK 12/04 Q1016=
201903060830 METAR LRCV 060830Z 26011KT CAVOK 13/04 Q1016=
201903060900 METAR LRCV 060900Z 27013KT CAVOK 14/04 Q1016=
201903060930 METAR LRCV 060930Z 27015KT 9999 FEW040 15/04 Q1017=
201903061000 METAR LRCV 061000Z 27015KT 9999 SCT040 15/04 Q1016=
201903061030 METAR LRCV 061030Z 27016KT 9999 SCT045 15/03 Q1017=
201903061100 METAR LRCV 061100Z 27016KT 9999 FEW040CB SCT045 15/03 Q1017=
201903061130 METAR LRCV 061130Z 31011KT 9999 FEW040CB SCT048 14/02 Q1016=
201903061200 METAR LRCV 061200Z 29016KT 9999 FEW045CB SCT048 17/M02 Q1016=
201903061230 METAR LRCV 061230Z 28020KT 9999 FEW049 17/M04 Q1016=
201903061300 METAR LRCV 061300Z 28017KT CAVOK 17/M05 Q1016=
201903061330 METAR LRCV 061330Z 30016KT CAVOK 17/M06 Q1017=
201903061400 METAR LRCV 061400Z 29016KT CAVOK 17/M08 Q1017=
201903061430 METAR LRCV 061430Z 28014KT 250V310 CAVOK 16/M09 Q1017=
201903061500 METAR LRCV 061500Z 30013KT CAVOK 16/M09 Q1017=
201903061530 METAR LRCV 061530Z 29010KT CAVOK 15/M08 Q1018=
201903061600 METAR LRCV 061600Z 28009KT CAVOK 14/M09 Q1018=
201903061630 METAR LRCV 061630Z 29005KT CAVOK 12/M09 Q1019=
201903061700 METAR LRCV 061700Z 29004KT CAVOK 11/M09 Q1019=
201903061730 METAR LRCV 061730Z AUTO 27005KT 9999 NCD 11/M08 Q1019=
201903061800 METAR LRCV 061800Z AUTO 29005KT 9999 NCD 10/M07 Q1020=
201903061830 METAR LRCV 061830Z AUTO 30005KT 9999 NCD 10/M07 Q1020=
201903061900 METAR LRCV 061900Z AUTO 32004KT 9999 NCD 08/M08 Q1020=
201903061930 METAR LRCV 061930Z AUTO VRB01KT 9999 NCD 07/M07 Q1020=
201903062000 METAR LRCV 062000Z AUTO 36003KT 320V050 9999 NCD 07/M07 Q1020=
201903062030 METAR LRCV 062030Z AUTO 04006KT 9999 NCD 04/M06 Q1020=
201903062100 METAR LRCV 062100Z 05005KT CAVOK 04/M05 Q1020=
201903062130 METAR LRCV 062130Z 07005KT CAVOK 04/M06 Q1021=
201903062200 METAR LRCV 062200Z 07008KT CAVOK 03/M04 Q1021=
201903062230 METAR LRCV 062230Z 09008KT CAVOK 03/M05 Q1021=
201903062300 METAR LRCV 062300Z 09010KT CAVOK 04/M04 Q1021=
201903062330 METAR LRCV 062330Z 08009KT CAVOK 03/M04 Q1021=
201903070000 METAR LRCV 070000Z 08009KT CAVOK 03/M04 Q1021=
201903070030 METAR LRCV 070030Z 07008KT CAVOK 03/M04 Q1021=
201903070100 METAR LRCV 070100Z 07006KT CAVOK 03/M04 Q1021=
201903070130 METAR LRCV 070130Z 06007KT CAVOK 03/M03 Q1020=
201903070200 METAR LRCV 070200Z 05008KT CAVOK 03/M03 Q1020=
201903070230 METAR LRCV 070230Z 05008KT CAVOK 03/M02 Q1020=
201903070300 METAR LRCV 070300Z 05010KT CAVOK 03/M02 Q1020=
201903070330 METAR LRCV 070330Z 06010KT CAVOK 03/M02 Q1020=
201903070400 METAR LRCV 070400Z 06010KT CAVOK 03/M02 Q1021=
201903070430 METAR LRCV 070430Z 05010KT CAVOK 03/M02 Q1021=
201903070500 METAR LRCV 070500Z 05009KT CAVOK 03/M02 Q1021=
201903070530 METAR LRCV 070530Z 06010KT CAVOK 03/M02 Q1021=
201903070600 METAR LRCV 070600Z 06010KT CAVOK 04/M01 Q1021=
201903070630 METAR LRCV 070630Z 07011KT CAVOK 05/M01 Q1021=
201903070700 METAR LRCV 070700Z 07014KT CAVOK 06/M01 Q1021=
201903070730 METAR LRCV 070730Z 07016KT CAVOK 07/M00 Q1021=
201903070800 METAR LRCV 070800Z 08014KT CAVOK 09/00 Q1021=
201903070830 METAR LRCV 070830Z 06013KT CAVOK 09/00 Q1021=
201903070900 METAR LRCV 070900Z 07012KT CAVOK 10/00 Q1021=
201903070930 METAR LRCV 070930Z 06011KT CAVOK 12/00 Q1021=
201903071000 METAR LRCV 071000Z 09009KT 050V110 CAVOK 13/M00 Q1021=
201903071030 METAR LRCV 071030Z 08008KT 050V120 CAVOK 13/M00 Q1021=
201903071100 METAR LRCV 071100Z 11007KT 070V140 CAVOK 14/M01 Q1020=
201903071130 METAR LRCV 071130Z 10007KT 060V130 CAVOK 14/M00 Q1020=
201903071200 METAR LRCV 071200Z 10007KT CAVOK 14/M00 Q1019=
201903071230 METAR LRCV 071230Z 08006KT 040V120 CAVOK 15/00 Q1019=
201903071300 METAR LRCV 071300Z 07007KT 040V110 CAVOK 15/M00 Q1018=
201903071330 METAR LRCV 071330Z 10006KT 060V130 CAVOK 15/M00 Q1018=
201903071400 METAR LRCV 071400Z 08006KT 050V130 CAVOK 15/M00 Q1018=
201903071430 METAR LRCV 071430Z 08006KT CAVOK 15/00 Q1018=
201903071500 METAR LRCV 071500Z 09006KT CAVOK 15/M00 Q1017=
201903071530 METAR LRCV 071530Z 09005KT CAVOK 14/01 Q1017=
201903071600 METAR LRCV 071600Z 09007KT CAVOK 13/01 Q1017=
201903071630 METAR LRCV 071630Z 10006KT CAVOK 12/01 Q1017=
201903071700 METAR LRCV 071700Z 08005KT CAVOK 10/01 Q1017=
201903071730 METAR LRCV 071730Z AUTO 06004KT 9999 BKN190/// 11/01 Q1018=
201903071800 METAR LRCV 071800Z AUTO 04004KT 8000 BKN190/// 10/01 Q1018=
201903071830 METAR LRCV 071830Z AUTO 05006KT 9999 SCT200/// 09/01 Q1017=
201903071900 METAR LRCV 071900Z AUTO 05004KT 9999 BKN200/// 09/01 Q1018=
201903071930 METAR LRCV 071930Z AUTO 02006KT 9999 FEW200/// 08/00 Q1017=
201903072000 METAR LRCV 072000Z AUTO 02006KT 9999 NCD 07/00 Q1018=
201903072030 METAR LRCV 072030Z AUTO 03005KT 9999 NCD 07/00 Q1018=
201903072100 METAR LRCV 072100Z AUTO 02006KT 9999 NCD 07/00 Q1017=
201903072130 METAR LRCV 072130Z AUTO 03006KT 8000 NCD 07/00 Q1017=
201903072200 METAR LRCV 072200Z 02007KT CAVOK 07/M00 Q1017=
201903072230 METAR LRCV 072230Z 01006KT CAVOK 06/M00 Q1017=
201903072300 METAR LRCV 072300Z 02004KT CAVOK 06/M00 Q1017=
201903072330 METAR LRCV 072330Z 32004KT CAVOK 06/M01 Q1017=
201903080000 METAR LRCV 080000Z 35005KT CAVOK 05/M01 Q1017=
201903080030 METAR LRCV 080030Z 32005KT CAVOK 05/M00 Q1017=
201903080100 METAR LRCV 080100Z 35004KT CAVOK 05/M01 Q1017=
201903080130 METAR LRCV 080130Z 34004KT CAVOK 04/M01 Q1017=
201903080200 METAR LRCV 080200Z 32003KT CAVOK 05/M01 Q1017=
201903080230 METAR LRCV 080230Z 34004KT CAVOK 04/M01 Q1017=
201903080300 METAR LRCV 080300Z 34004KT CAVOK 04/M01 Q1017=
201903080330 METAR LRCV 080330Z 34005KT CAVOK 04/M01 Q1017=
201903080400 METAR LRCV 080400Z 34004KT CAVOK 04/M01 Q1017=
201903080430 METAR LRCV 080430Z 35005KT CAVOK 04/M01 Q1017=
201903080500 METAR LRCV 080500Z 01003KT CAVOK 03/M01 Q1017=
201903080530 METAR LRCV 080530Z 33003KT CAVOK 04/M01 Q1017=
201903080600 METAR LRCV 080600Z 30003KT CAVOK 06/00 Q1017=
201903080630 METAR LRCV 080630Z 31003KT CAVOK 07/01 Q1018=
201903080700 METAR LRCV 080700Z 32003KT CAVOK 09/00 Q1018=
201903080730 METAR COR LRCV 080730Z 28003KT 220V310 CAVOK 10/01 Q1018=
201903080800 METAR LRCV 080800Z 30004KT 270V330 CAVOK 12/01 Q1018=
201903080830 METAR LRCV 080830Z 26005KT 230V290 CAVOK 14/00 Q1018=
201903080900 METAR LRCV 080900Z 27003KT 220V330 CAVOK 15/01 Q1018=
201903080930 METAR LRCV 080930Z 30005KT 250V340 CAVOK 17/01 Q1018=
201903081000 METAR LRCV 081000Z 28004KT 240V320 CAVOK 17/01 Q1018=
201903081030 METAR LRCV 081030Z 28005KT 240V350 CAVOK 18/01 Q1018=
201903081100 METAR COR LRCV 081100Z 25003KT 150V310 CAVOK 19/01 Q1017=
201903081130 METAR LRCV 081130Z 25005KT 190V300 CAVOK 19/00 Q1017=
201903081200 METAR LRCV 081200Z 24004KT 180V300 CAVOK 21/01 Q1017=
201903081230 METAR LRCV 081230Z 26005KT 220V300 CAVOK 20/01 Q1016=
201903081300 METAR LRCV 081300Z 29004KT 250V340 CAVOK 21/01 Q1016=
201903081330 METAR LRCV 081330Z 27005KT 220V300 CAVOK 21/00 Q1016=
201903081400 METAR LRCV 081400Z 29004KT 250V320 CAVOK 21/01 Q1016=
201903081430 METAR LRCV 081430Z 25007KT 230V290 CAVOK 21/00 Q1016=
201903081500 METAR LRCV 081500Z AUTO 25008KT 9999 SCT150/// 20/00 Q1016=
201903081530 METAR LRCV 081530Z 27006KT CAVOK 19/00 Q1016=
201903081600 METAR LRCV 081600Z 28005KT CAVOK 18/00 Q1016=
201903081630 METAR LRCV 081630Z 26005KT CAVOK 17/01 Q1016=
201903081700 METAR LRCV 081700Z 27004KT CAVOK 16/01 Q1016=
201903081730 METAR LRCV 081730Z 26004KT CAVOK 16/01 Q1016=
201903081800 METAR LRCV 081800Z 26004KT CAVOK 15/01 Q1016=
201903081830 METAR LRCV 081830Z AUTO 25005KT 9000 SCT150/// 16/01 Q1016=
201903081900 METAR LRCV 081900Z AUTO 24004KT 9999 FEW140/// BKN160///
                        16/01 Q1016=
201903081930 METAR LRCV 081930Z AUTO 22005KT 9999 NCD 15/01 Q1017=
201903082000 METAR LRCV 082000Z AUTO 23004KT 9999 NCD 14/01 Q1017=
201903082030 METAR LRCV 082030Z AUTO 23004KT 9999 NCD 14/01 Q1017=
201903082100 METAR LRCV 082100Z 25005KT CAVOK 13/01 Q1017=
201903082130 METAR LRCV 082130Z 25004KT CAVOK 14/02 Q1017=
201903082200 METAR LRCV 082200Z 28006KT CAVOK 12/02 Q1017=
201903082230 METAR LRCV 082230Z 29007KT CAVOK 11/02 Q1017=
201903082300 METAR LRCV 082300Z 26005KT CAVOK 12/02 Q1017=
201903082330 METAR LRCV 082330Z 26006KT CAVOK 09/02 Q1017=
201903090000 METAR LRCV 090000Z 25005KT CAVOK 10/02 Q1018=
201903090030 METAR LRCV 090030Z 27005KT CAVOK 09/02 Q1017=
201903090100 METAR LRCV 090100Z 29007KT CAVOK 08/02 Q1017=
201903090130 METAR LRCV 090130Z 28007KT CAVOK 07/01 Q1017=
201903090200 METAR LRCV 090200Z 29008KT CAVOK 07/02 Q1018=
201903090230 METAR LRCV 090230Z 28010KT 8000 NSC 07/02 Q1018=
201903090300 METAR LRCV 090300Z 29010KT 9000 NCD 07/02 Q1018=
201903090330 METAR LRCV 090330Z 28009KT CAVOK 06/01 Q1019=
201903090400 METAR LRCV 090400Z 30012KT CAVOK 08/02 Q1019=
201903090430 METAR LRCV 090430Z 29010KT CAVOK 07/01 Q1019=
201903090500 METAR LRCV 090500Z 28011KT CAVOK 07/02 Q1019=
201903090530 METAR LRCV 090530Z 28009KT CAVOK 07/02 Q1020=
201903090600 METAR LRCV 090600Z 27009KT CAVOK 08/03 Q1020=
201903090630 METAR LRCV 090630Z 27008KT CAVOK 09/04 Q1020=
201903090700 METAR LRCV 090700Z 27008KT CAVOK 11/05 Q1020=
201903090730 METAR LRCV 090730Z 26009KT CAVOK 13/05 Q1020=
201903090800 METAR LRCV 090800Z 28012KT CAVOK 14/06 Q1021=
201903090830 METAR COR LRCV 090830Z 27011KT CAVOK 16/06 Q1020=
201903090900 METAR LRCV 090900Z 28013KT CAVOK 17/06 Q1020=
201903090930 METAR LRCV 090930Z 29015KT CAVOK 17/06 Q1020=
201903091000 METAR LRCV 091000Z 28012KT 9999 FEW040 17/05 Q1020=
201903091030 METAR LRCV 091030Z 28015KT 9999 FEW040 17/03 Q1020=
201903091100 METAR LRCV 091100Z 26014KT 9999 FEW040 17/04 Q1020=
201903091130 METAR LRCV 091130Z 27015KT 9999 FEW045 17/04 Q1019=
201903091200 METAR LRCV 091200Z 26014KT 9999 FEW048 17/04 Q1019=
201903091230 METAR LRCV 091230Z 27015KT 9999 FEW048 17/04 Q1018=
201903091300 METAR LRCV 091300Z 25012KT 9999 FEW048 18/04 Q1018=
201903091330 METAR LRCV 091330Z 25014KT 9999 FEW048 18/03 Q1018=
201903091400 METAR LRCV 091400Z 27013KT 240V300 CAVOK 19/03 Q1017=
201903091430 METAR LRCV 091430Z 27013KT CAVOK 18/03 Q1017=
201903091500 METAR LRCV 091500Z 27013KT 230V290 CAVOK 18/04 Q1017=
201903091530 METAR LRCV 091530Z 28013KT CAVOK 18/03 Q1017=
201903091600 METAR LRCV 091600Z 28012KT CAVOK 16/03 Q1017=
201903091630 METAR LRCV 091630Z 28009KT CAVOK 15/03 Q1017=
201903091700 METAR LRCV 091700Z 28010KT CAVOK 15/02 Q1017=
201903091730 METAR LRCV 091730Z AUTO 27008KT 9999 NCD 14/02 Q1017=
201903091800 METAR LRCV 091800Z AUTO 27007KT 9999 NCD 13/02 Q1017=
201903091830 METAR LRCV 091830Z AUTO 27009KT 9999 NCD 13/03 Q1017=
201903091900 METAR LRCV 091900Z AUTO 28008KT 9999 NCD 12/03 Q1017=
201903091930 METAR LRCV 091930Z AUTO 27006KT 9999 SCT240/// 12/03 Q1017=
201903092000 METAR LRCV 092000Z AUTO 27005KT 9999 SCT240/// 11/03 Q1017=
201903092030 METAR LRCV 092030Z AUTO 28005KT 9999 BKN240/// 11/04 Q1017=
201903092100 METAR LRCV 092100Z AUTO 29003KT 9999 SCT220/// 10/04 Q1017=
201903092130 METAR LRCV 092130Z AUTO 25004KT 9999 NCD 10/04 Q1016=
201903092200 METAR LRCV 092200Z 21004KT CAVOK 10/04 Q1016=
201903092230 METAR LRCV 092230Z 23004KT CAVOK 10/04 Q1016=
201903092300 METAR LRCV 092300Z 22005KT CAVOK 10/04 Q1016=
201903092330 METAR LRCV 092330Z 25004KT CAVOK 10/04 Q1016=
201903100000 METAR LRCV 100000Z 24003KT CAVOK 10/04 Q1016=
201903100030 METAR LRCV 100030Z 22004KT CAVOK 10/04 Q1016=
201903100100 METAR LRCV 100100Z 24003KT 210V270 CAVOK 09/04 Q1016=
201903100130 METAR LRCV 100130Z 22004KT CAVOK 09/04 Q1015=
201903100200 METAR LRCV 100200Z 22004KT CAVOK 08/04 Q1015=
201903100230 METAR LRCV 100230Z 24004KT CAVOK 08/04 Q1015=
201903100300 METAR LRCV 100300Z 24005KT CAVOK 08/04 Q1015=
201903100330 METAR LRCV 100330Z 24006KT CAVOK 09/05 Q1015=
201903100400 METAR LRCV 100400Z 27006KT CAVOK 08/04 Q1015=
201903100430 METAR LRCV 100430Z 26011KT CAVOK 10/04 Q1015=
201903100500 METAR LRCV 100500Z 27015KT CAVOK 11/03 Q1015=
201903100530 METAR LRCV 100530Z 27013KT CAVOK 11/03 Q1016=
201903100600 METAR LRCV 100600Z 27014KT CAVOK 11/03 Q1016=
201903100630 METAR LRCV 100630Z 26008KT CAVOK 12/03 Q1017=
201903100700 METAR LRCV 100700Z 27008KT 230V290 CAVOK 13/03 Q1017=
201903100730 METAR LRCV 100730Z 28014KT CAVOK 15/02 Q1017=
201903100800 METAR LRCV 100800Z 27013KT CAVOK 16/01 Q1017=
201903100830 METAR LRCV 100830Z 26014KT CAVOK 17/01 Q1017=
201903100900 METAR LRCV 100900Z 28014KT CAVOK 18/01 Q1017=
201903100930 METAR LRCV 100930Z 28015KT CAVOK 18/M00 Q1017=
201903101000 METAR LRCV 101000Z 27014KT 240V300 CAVOK 18/M00 Q1016=
201903101030 METAR LRCV 101030Z 27014KT CAVOK 19/M01 Q1016=
201903101100 METAR LRCV 101100Z 30019KT CAVOK 19/M02 Q1015=
201903101130 METAR LRCV 101130Z 26012KT 220V300 CAVOK 19/M02 Q1015=
201903101200 METAR LRCV 101200Z 27014KT CAVOK 20/M02 Q1014=
201903101230 METAR LRCV 101230Z 27015G25KT 250V310 CAVOK 20/M04 Q1014=
201903101300 METAR LRCV 101300Z 28013KT 250V310 CAVOK 20/M04 Q1013=
201903101330 METAR LRCV 101330Z 25012KT CAVOK 20/M02 Q1013=
201903101400 METAR LRCV 101400Z 26012KT CAVOK 20/M04 Q1013=
201903101430 METAR LRCV 101430Z 25012KT 210V270 CAVOK 20/M03 Q1012=
201903101500 METAR LRCV 101500Z 25012KT CAVOK 20/M02 Q1012=
201903101530 METAR LRCV 101530Z 25008KT CAVOK 18/M03 Q1011=
201903101600 METAR LRCV 101600Z 21004KT CAVOK 17/M02 Q1011=
201903101630 METAR LRCV 101630Z 19003KT CAVOK 16/M02 Q1011=
201903101700 METAR LRCV 101700Z 18003KT CAVOK 15/M02 Q1010=
201903101730 METAR LRCV 101730Z AUTO 17004KT 9999 BKN110/// OVC180///
                        15/M02 Q1010=
201903101800 METAR LRCV 101800Z AUTO 17004KT 9999 OVC110/// 15/M02 Q1010=
201903101830 METAR LRCV 101830Z AUTO 16003KT 9999 OVC110/// 15/M03 Q1009=
201903101900 METAR LRCV 101900Z AUTO 18004KT 160V220 5000 HZ FEW110///
                        BKN140/// 15/M03 Q1009=
201903101930 METAR LRCV 101930Z AUTO 19004KT 130V260 9000 BKN130/// 15/M03
                        Q1009=
201903102000 METAR LRCV 102000Z AUTO VRB03KT 9999 FEW110/// BKN190///
                        13/M00 Q1009=
201903102030 METAR LRCV 102030Z AUTO 35003KT 9999 BKN120/// 11/01 Q1008=
201903102100 METAR LRCV 102100Z VRB02KT CAVOK 12/M01 Q1008=
201903102130 METAR LRCV 102130Z 27005KT CAVOK 14/M01 Q1008=
201903102200 METAR LRCV 102200Z 28008KT 8000 NSC 12/M01 Q1009=
201903102230 METAR LRCV 102230Z 29007KT 8000 NSC 13/M01 Q1009=
201903102300 METAR LRCV 102300Z 27006KT 8000 NSC 11/M00 Q1009=
201903102330 METAR LRCV 102330Z 27007KT 8000 NSC 11/01 Q1009=
201903110000 METAR LRCV 110000Z 26007KT CAVOK 11/01 Q1009=
201903110030 METAR LRCV 110030Z 26007KT CAVOK 12/02 Q1009=
201903110100 METAR LRCV 110100Z 27007KT CAVOK 11/02 Q1009=
201903110130 METAR LRCV 110130Z 23004KT CAVOK 11/02 Q1009=
201903110200 METAR LRCV 110200Z VRB02KT CAVOK 11/02 Q1009=
201903110230 METAR LRCV 110230Z 26004KT CAVOK 11/02 Q1009=
201903110300 METAR LRCV 110300Z 27009KT CAVOK 12/03 Q1009=
201903110330 METAR LRCV 110330Z 26013KT CAVOK 13/03 Q1010=
201903110400 METAR LRCV 110400Z 26011KT CAVOK 13/03 Q1010=
201903110430 METAR LRCV 110430Z 26009KT CAVOK 12/03 Q1010=
201903110500 METAR LRCV 110500Z 27009KT CAVOK 12/04 Q1010=
201903110530 METAR LRCV 110530Z 30009KT CAVOK 11/04 Q1011=
201903110600 METAR LRCV 110600Z 29010KT 9999 SCT048 12/05 Q1011=
201903110630 METAR LRCV 110630Z 28010KT 9999 SCT048 14/06 Q1011=
201903110700 METAR LRCV 110700Z 28008KT CAVOK 14/06 Q1011=
201903110730 METAR LRCV 110730Z 31010KT CAVOK 14/02 Q1011=
201903110800 METAR LRCV 110800Z 33015KT CAVOK 15/M02 Q1011=
201903110830 METAR LRCV 110830Z 33015KT CAVOK 16/M03 Q1010=
201903110900 METAR LRCV 110900Z 30011KT CAVOK 16/M02 Q1010=
201903110930 METAR LRCV 110930Z 29009KT 250V310 CAVOK 15/M02 Q1011=
201903111000 METAR LRCV 111000Z 30011KT CAVOK 15/M02 Q1010=
201903111030 METAR LRCV 111030Z 30008KT CAVOK 15/M02 Q1010=
201903111100 METAR LRCV 111100Z 31009KT CAVOK 16/M02 Q1010=
201903111130 METAR LRCV 111130Z 29007KT CAVOK 15/M02 Q1010=
201903111200 METAR LRCV 111200Z 31007KT CAVOK 15/M02 Q1010=
201903111230 METAR LRCV 111230Z 33006KT 300V010 CAVOK 15/M02 Q1010=
201903111300 METAR LRCV 111300Z 36011KT CAVOK 14/M04 Q1009=
201903111330 METAR LRCV 111330Z 36011KT CAVOK 13/M01 Q1009=
201903111400 METAR LRCV 111400Z 36010KT CAVOK 14/M03 Q1009=
201903111430 METAR LRCV 111430Z 34010KT CAVOK 13/M02 Q1009=
201903111500 METAR LRCV 111500Z 33009KT CAVOK 12/M02 Q1009=
201903111530 METAR LRCV 111530Z 34010KT CAVOK 12/M04 Q1009=
201903111600 METAR LRCV 111600Z 34010KT CAVOK 11/M04 Q1009=
201903111630 METAR LRCV 111630Z 32007KT 9999 SCT045 11/M04 Q1009=
201903111700 METAR LRCV 111700Z 32009KT 9999 -RA SCT035 BKN045 10/01 Q1009=
201903111730 METAR LRCV 111730Z 32007KT 300V060 9999 RA FEW024 BKN034
                        BKN047 08/01 Q1010 R09/19//95=
201903111800 METAR LRCV 111800Z 32004KT 250V010 7000 RA BKN023 BKN035
                        07/02 Q1011 R09/29//95=
201903111830 METAR LRCV 111830Z AUTO 36006KT 320V050 9999 SHRA SCT027///
                        BKN034/// 07/03 Q1011=
201903111900 METAR LRCV 111900Z AUTO 34010KT 9999 SHRA BKN026/// 07/04
                        Q1011=
201903111930 METAR LRCV 111930Z AUTO 33008KT 9999 RA FEW021/// BKN027///
                        OVC032/// 06/04 Q1011=
201903112000 METAR LRCV 112000Z AUTO 35009KT 9999 -RA FEW021/// BKN041///
                        05/03 Q1011=
201903112030 METAR LRCV 112030Z AUTO 35007KT 9999 RA FEW024/// OVC035///
                        06/04 Q1011=
201903112100 METAR LRCV 112100Z AUTO 33008KT 9999 -RA FEW028/// SCT036///
                        BKN044/// 67/65 Q1011=
201903112130 METAR LRCV 112130Z AUTO 32010KT 9999 -RA FEW027/// SCT031///
                        BKN041/// 05/03 Q1011=
201903112200 METAR LRCV 112200Z 35011KT 9999 -RA SCT022 OVC034 05/03 Q1011
                        R09/29//95=
201903112230 METAR LRCV 112230Z 36009KT 9999 -RA FEW017 BKN025 OVC035
                        05/03 Q1012 R09/29//95=
201903112300 METAR LRCV 112300Z 36011KT 8000 RA FEW014 BKN025 OVC030 05/03
                        Q1012 R09/29//95=
201903112330 METAR LRCV 112330Z 36010KT 7000 RA BKN012 OVC022 05/03 Q1012
                        R09/29//95=
201903120000 METAR LRCV 120000Z 01007KT 6000 RA BKN010 OVC021 04/03 Q1012
                        R09/29//95=
201903120030 METAR LRCV 120030Z 01008KT 6000 RA BKN010 OVC021 04/02 Q1012
                        R09/29//95=
201903120100 METAR LRCV 120100Z 02009KT 6000 RA BKN009 OVC021 04/02 Q1012
                        R09/29//95=
201903120130 METAR LRCV 120130Z 05008KT 9999 -RA BKN008 OVC020 04/02 Q1012
                        RERA R09/29//95=
201903120200 METAR LRCV 120200Z 06007KT 8000 -RA SCT009 BKN022 OVC033
                        03/02 Q1012 R09/29//95=
201903120230 METAR LRCV 120230Z 06006KT 7000 RA FEW006 SCT014 OVC028 03/02
                        Q1013 R09/29//95=
201903120300 METAR LRCV 120300Z 04005KT 6000 RA SCT005 OVC021 03/02 Q1013
                        R09/29//95=
201903120330 METAR LRCV 120330Z 01006KT 2000 SN BKN005 OVC020 02/01 Q1013
                        R09/29//95=
201903120400 METAR LRCV 120400Z 36004KT 2000 SN FEW003 BKN006 OVC015 01/01
                        Q1014 R09/29//95=
201903120430 METAR LRCV 120430Z 01005KT 2000 SN FEW003 BKN008 OVC015 01/01
                        Q1013 R09/29//95=
201903120500 METAR LRCV 120500Z 35004KT 1800 -SN BR FEW007 BKN012 OVC020
                        01/01 Q1014 RESN R09/29//95=
201903120530 METAR LRCV 120530Z 01003KT 1200 R09/1900D SN BR FEW002 BKN006
                        OVC020 01/01 Q1014 R09/29//95=
201903120600 METAR COR LRCV 120600Z 02003KT 2500 -SN BR FEW007 BKN012
                        OVC022 01/01 Q1014 R09/29//95=
201903120630 METAR LRCV 120630Z 03004KT 4500 -RASN BR FEW007 BKN015 OVC022
                        01/01 Q1015 R09/29//95=
201903120700 METAR LRCV 120700Z 05003KT 7000 -RA FEW003 BKN018 OVC027
                        02/01 Q1015 R09/29//95=
201903120730 METAR LRCV 120730Z VRB01KT 9999 -RA SCT013 BKN025 02/02 Q1015
                        R09/29//95=
201903120800 METAR LRCV 120800Z VRB01KT 9999 -RA SCT017 OVC030 02/02 Q1015
                        R09/29//95=
201903120830 METAR LRCV 120830Z 31002KT 9999 -RA SCT020 OVC030 02/02 Q1016
                        R09/29//95=
201903120900 METAR LRCV 120900Z VRB02KT 9999 -RA FEW025 OVC035 03/03 Q1016
                        R09/29//95=
201903120930 METAR LRCV 120930Z 34004KT 280V360 9999 SCT030 OVC040 04/03
                        Q1016 R09/29//95=
201903121000 METAR LRCV 121000Z 02003KT 340V060 9999 SCT035 0VC049 05/03
                        Q1016 R09/29//95=
201903121030 METAR LRCV 121030Z VRB02KT 9999 SCT010 SCT035 05/03 Q1016
                        R09/29//95=
201903121100 METAR LRCV 121100Z 35003KT 320V040 9999 BKN013 06/03 Q1017
                        R09/29//95=
201903121130 METAR LRCV 121130Z VRB01KT 9999 BKN014 06/03 Q1017 R09/29//95=
201903121200 METAR LRCV 121200Z VRB02KT 9999 BKN014 07/02 Q1017 R09/29//95=
201903121230 METAR LRCV 121230Z 13005KT 100V170 9999 BKN015 06/02 Q1016
                        R09/29//95=
201903121300 METAR LRCV 121300Z 12005KT 080V160 9999 BKN020 07/03 Q1017
                        R09/29//95=
201903121330 METAR LRCV 121330Z VRB02KT 9999 BKN020 07/02 Q1017 R09/29//95=
201903121400 METAR LRCV 121400Z VRB03KT 9999 SCT016 BKN020 07/02 Q1017
                        R09/29//95=
201903121430 METAR LRCV 121430Z 16004KT 9999 SCT017 BKN022 07/02 Q1016
                        R09/29//95=
201903121500 METAR LRCV 121500Z 17004KT 130V200 9999 SCT017 BKN025 06/03
                        Q1016 R09/29//95=
201903121530 METAR LRCV 121530Z 20004KT 9999 SCT014 SCT026 06/03 Q1016
                        R09/29//95=
201903121600 METAR LRCV 121600Z 20004KT 9999 FEW026 05/02 Q1016 R09/19//95=
201903121630 METAR LRCV 121630Z 19004KT 9999 FEW030 05/02 Q1017 R09/19//95=
201903121700 METAR LRCV 121700Z 19005KT 9999 FEW030 04/02 Q1017 R09/19//95=
201903121730 METAR LRCV 121730Z AUTO 21004KT 9999 OVC075/// 05/02 Q1018=
201903121800 METAR LRCV 121800Z AUTO 24004KT 9999 SCT080/// BKN095///
                        05/03 Q1018=
201903121830 METAR LRCV 121830Z AUTO 25004KT 9999 OVC090/// 04/03 Q1018=
201903121900 METAR LRCV 121900Z AUTO 23004KT 9999 FEW095/// 03/02 Q1018=
201903121930 METAR LRCV 121930Z AUTO 25004KT 9999 BKN095/// 04/03 Q1019=
201903122000 METAR LRCV 122000Z AUTO 26004KT 6000 BKN090/// 03/02 Q1019=
201903122030 METAR LRCV 122030Z AUTO 28003KT 5000 BR BKN090/// 03/02 Q1019=
201903122100 METAR LRCV 122100Z AUTO 27004KT 8000 BKN090/// 03/02 Q1019=
201903122130 METAR LRCV 122130Z AUTO 28005KT 5000 BR FEW090/// 02/02 Q1019=
201903122200 METAR LRCV 122200Z 30006KT 5000 BR NSC 02/02 Q1019=
201903122230 METAR LRCV 122230Z 31006KT 6000 NSC 02/02 Q1019=
201903122300 METAR LRCV 122300Z 34003KT 6000 NSC 02/02 Q1019=
201903122330 METAR LRCV 122330Z VRB02KT 8000 NSC 02/02 Q1019=
201903130000 METAR LRCV 130000Z 34004KT 5000 BR NSC 02/02 Q1019=
201903130030 METAR LRCV 130030Z 34002KT 1500 BR NSC 01/01 Q1019=
201903130100 METAR LRCV 130100Z 35004KT 3000 BR NSC 01/01 Q1019=
201903130130 METAR LRCV 130130Z 34005KT 3000 NSC 01/01 Q1019=
201903130200 METAR LRCV 130200Z 35006KT 5000 BR NSC 01/01 Q1018=
201903130230 METAR LRCV 130230Z 34005KT 4000 BR NSC M00/M00 Q1018=
201903130300 METAR LRCV 130300Z 34003KT 3500 BR NSC 00/00 Q1019=
201903130330 METAR LRCV 130330Z 02004KT 5000 BR NSC 00/00 Q1018=
201903130400 METAR LRCV 130400Z 03004KT 6000 NSC 00/00 Q1018=
201903130430 METAR LRCV 130430Z 04003KT 010V100 CAVOK M00/M00 Q1018=
201903130500 METAR LRCV 130500Z 02003KT CAVOK M00/M01 Q1019=
201903130530 METAR LRCV 130530Z 03003KT CAVOK 00/M01 Q1019=
201903130600 METAR LRCV 130600Z 10003KT CAVOK 01/M00 Q1019=
201903130630 METAR LRCV 130630Z 09003KT 060V130 9999 FEW008 02/M00 Q1019=
201903130700 METAR LRCV 130700Z 10005KT 9999 SCT007 03/01 Q1019=
201903130730 METAR LRCV 130730Z 10005KT 070V130 9999 SCT007 03/01 Q1019=
201903130800 METAR LRCV 130800Z 12005KT 080V150 9999 BKN007 05/03 Q1019=
201903130830 METAR LRCV 130830Z 11010KT 090V150 9999 BKN010 06/02 Q1019=
201903130900 METAR LRCV 130900Z 13010KT 9999 BKN013 06/02 Q1019=
201903130930 METAR LRCV 130930Z 13011KT 9999 SCT015 06/02 Q1019=
201903131000 METAR LRCV 131000Z 12008KT 9999 BKN010 06/02 Q1019=
201903131030 METAR LRCV 131030Z 14007KT 9999 BKN010 06/02 Q1019=
201903131100 METAR LRCV 131100Z 10007KT 070V140 9999 BKN012 06/03 Q1019=
201903131130 METAR LRCV 131130Z 14006KT 100V170 9999 SCT012 07/02 Q1018=
201903131200 METAR LRCV 131200Z 13005KT 060V170 9999 SCT012 07/02 Q1018=
201903131230 METAR LRCV 131230Z 13006KT 090V160 9999 SCT014 07/02 Q1018=
201903131300 METAR COR LRCV 131300Z 13006KT 090V160 9999 SCT014 07/02
                        Q1018=
201903131330 METAR LRCV 131330Z 14006KT 100V170 9999 SCT015 08/02 Q1017=
201903131400 METAR LRCV 131400Z 13006KT 9999 SCT018 08/01 Q1017=
201903131430 METAR LRCV 131430Z 13005KT 100V170 9999 SCT020 08/01 Q1017=
201903131500 METAR LRCV 131500Z 13006KT 090V170 9999 FEW025 08/02 Q1016=
201903131530 METAR LRCV 131530Z 13005KT 9999 FEW026 07/02 Q1016=
201903131600 METAR LRCV 131600Z 14005KT CAVOK 07/01 Q1016=
201903131630 METAR LRCV 131630Z 12005KT CAVOK 06/01 Q1016=
201903131700 METAR LRCV 131700Z 11005KT CAVOK 05/01 Q1016=
201903131730 METAR LRCV 131730Z AUTO 09005KT 9000 NCD 04/02 Q1016=
201903131800 METAR LRCV 131800Z AUTO 10004KT 8000 FEW220/// 04/02 Q1016=
201903131830 METAR LRCV 131830Z AUTO 10004KT 8000 SCT220/// 03/01 Q1015=
201903131900 METAR LRCV 131900Z AUTO 11004KT 9000 FEW220/// 03/02 Q1015=
201903131930 METAR LRCV 131930Z AUTO 10004KT 8000 NCD 03/01 Q1015=
201903132000 METAR LRCV 132000Z AUTO 10005KT 6000 NCD 02/01 Q1015=
201903132030 METAR LRCV 132030Z AUTO 10005KT 9000 FEW210/// 03/01 Q1015=
201903132100 METAR LRCV 132100Z 07004KT 8000 NSC 02/01 Q1015=
201903132130 METAR LRCV 132130Z 07005KT 7000 NSC 02/01 Q1015=
201903132200 METAR LRCV 132200Z 07006KT 7000 NSC 02/00 Q1014=
201903132230 METAR LRCV 132230Z 07005KT 7000 NSC 02/00 Q1014=
201903132300 METAR LRCV 132300Z 05006KT 8000 NSC 02/00 Q1014=
201903132330 METAR LRCV 132330Z 04007KT 8000 NSC 02/00 Q1014=
201903140000 METAR LRCV 140000Z 05006KT CAVOK 02/00 Q1014=
201903140030 METAR LRCV 140030Z AUTO 04006KT 9999 BKN065/// 02/00 Q1013=
201903140100 METAR COR LRCV 140100Z 04007KT CAVOK 02/M00 Q1013=
201903140130 METAR LRCV 140130Z 04007KT CAVOK 02/M00 Q1013=
201903140200 METAR LRCV 140200Z 04006KT CAVOK 02/M01 Q1012=
201903140230 METAR LRCV 140230Z 04007KT CAVOK 01/M01 Q1012=
201903140300 METAR LRCV 140300Z 05007KT CAVOK 02/M01 Q1012=
201903140330 METAR LRCV 140330Z 06007KT CAVOK 02/M01 Q1012=
201903140400 METAR LRCV 140400Z 05007KT CAVOK 02/M01 Q1012=
201903140430 METAR LRCV 140430Z 06008KT CAVOK 02/M01 Q1011=
201903140500 METAR LRCV 140500Z 06008KT CAVOK 02/M01 Q1012=
201903140530 METAR LRCV 140530Z 06008KT CAVOK 03/M00 Q1012=
201903140600 METAR LRCV 140600Z 07008KT CAVOK 03/M00 Q1011=
201903140630 METAR LRCV 140630Z 06008KT CAVOK 03/00 Q1012=
201903140700 METAR LRCV 140700Z 06009KT CAVOK 04/00 Q1012=
201903140730 METAR LRCV 140730Z 07008KT CAVOK 04/00 Q1012=
201903140800 METAR LRCV 140800Z 06007KT CAVOK 05/01 Q1012=
201903140830 METAR LRCV 140830Z 09007KT CAVOK 05/01 Q1011=
201903140900 METAR LRCV 140900Z 06007KT 030V090 CAVOK 06/01 Q1011=
201903140930 METAR LRCV 140930Z 05005KT 350V100 CAVOK 07/02 Q1011=
201903141000 METAR LRCV 141000Z 06006KT 020V100 CAVOK 07/02 Q1011=
201903141030 METAR LRCV 141030Z 07003KT CAVOK 07/02 Q1011=
201903141100 METAR LRCV 141100Z VRB03KT CAVOK 08/01 Q1011=
201903141130 METAR LRCV 141130Z VRB02KT 9999 FEW025 08/01 Q1011=
201903141200 METAR LRCV 141200Z 17004KT 120V220 9999 FEW025 08/02 Q1010=
201903141230 METAR LRCV 141230Z 19003KT 160V220 9999 FEW025 08/02 Q1010=
201903141300 METAR LRCV 141300Z 22003KT 150V290 9999 SCT025 08/02 Q1010=
201903141330 METAR LRCV 141330Z 20004KT 170V250 9999 FEW026 08/02 Q1010=
201903141400 METAR LRCV 141400Z 22006KT 9999 -RA FEW025 SCT046 08/02 Q1010=
201903141430 METAR LRCV 141430Z 23005KT 9999 FEW025 SCT045 07/02 Q1010=
201903141500 METAR LRCV 141500Z 21004KT 9999 FEW027 BKN048 07/02 Q1010=
201903141530 METAR LRCV 141530Z 24004KT 190V260 9999 BKN048 07/02 Q1010=
201903141600 METAR LRCV 141600Z 24003KT 200V270 9999 BKN048 07/02 Q1010=
201903141630 METAR LRCV 141630Z 24005KT CAVOK 07/02 Q1010=
201903141700 METAR LRCV 141700Z 22003KT CAVOK 06/02 Q1010=
201903141730 METAR LRCV 141730Z AUTO 20004KT 9000 SCT055/// BKN070///
                        05/03 Q1009 REUP=
201903141800 METAR LRCV 141800Z AUTO 20005KT 8000 NCD 05/03 Q1009=
201903141830 METAR LRCV 141830Z AUTO 20005KT 6000 NCD 05/03 Q1009=
201903141900 METAR LRCV 141900Z AUTO 21005KT 7000 BKN055/// 05/03 Q1009=
201903141930 METAR LRCV 141930Z AUTO 21005KT 7000 FEW055/// 04/03 Q1009=
201903142000 METAR LRCV 142000Z AUTO 20005KT 8000 BKN055/// 04/02 Q1009=
201903142030 METAR LRCV 142030Z AUTO 20005KT 6000 FEW055/// 04/02 Q1009=
201903142100 METAR LRCV 142100Z AUTO 19006KT 7000 NCD 04/02 Q1008=
201903142130 METAR LRCV 142130Z AUTO 20005KT 6000 BKN170/// 03/02 Q1008=
201903142200 METAR LRCV 142200Z 22005KT 8000 NSC 04/02 Q1008=
201903142230 METAR LRCV 142230Z 22005KT 7000 NSC 03/02 Q1008=
201903142300 METAR LRCV 142300Z 22005KT 8000 NSC 03/02 Q1008=
201903142330 METAR LRCV 142330Z 21002KT 8000 NSC 02/01 Q1008=
201903150000 METAR LRCV 150000Z 21004KT CAVOK 03/01 Q1008=
201903150030 METAR LRCV 150030Z 23004KT CAVOK 03/01 Q1008=
201903150100 METAR LRCV 150100Z 18003KT CAVOK 01/00 Q1008=
201903150130 METAR LRCV 150130Z VRB01KT 6000 NSC 01/00 Q1008=
201903150200 METAR LRCV 150200Z VRB01KT 4000 BR NSC 01/00 Q1007=
201903150230 METAR COR LRCV 150230Z 06002KT 0400 R09/1700D FZFG NSC M00/M01
                        Q1007=
201903150300 METAR LRCV 150300Z 10002KT 1400 0400W R09/0650N BCFG BR NSC
                        M00/M01 Q1007=
201903150330 METAR LRCV 150330Z 06002KT 0150 R09/0550D FZFG NSC M01/M01
                        Q1008=
201903150400 METAR LRCV 150400Z 05002KT 0150 R09/0350N FZFG NSC M02/M02
                        Q1008=
201903150430 METAR LRCV 150430Z VRB02KT 0100 R09/0300N FZFG NSC M02/M02
                        Q1008=
201903150500 METAR LRCV 150500Z 21002KT 0400 R09/1400N FZFG NSC M02/M02
                        Q1008=
201903150530 METAR LRCV 150530Z 33004KT 0100 R09/0200N FZFG NSC M01/M01
                        Q1008=
201903150600 METAR LRCV 150600Z VRB02KT 0050 R09/0175N FZFG NSC M01/M01
                        Q1008=
201903150630 METAR LRCV 150630Z 03003KT 0100 R09/0250N FG NSC 00/00 Q1008=
201903150700 METAR LRCV 150700Z VRB02KT 0100 R09/0225N FG NSC 01/01 Q1009=
201903150730 METAR LRCV 150730Z VRB01KT 0150 R09/0375N FG VV001 03/03
                        Q1009=
201903150800 METAR LRCV 150800Z 25004KT 0250 R09/0550D FG VV002 03/03
                        Q1009=
201903150830 METAR LRCV 150830Z VRB02KT 3000 BCFG SCT001 05/05 Q1009=
201903150900 METAR LRCV 150900Z 17004KT 140V230 6000 FEW005 07/05 Q1009=
201903150930 METAR LRCV 150930Z 22005KT 170V250 8000 NSC 07/03 Q1009=
201903151000 METAR LRCV 151000Z 23006KT 200V260 CAVOK 09/02 Q1009=
201903151030 METAR LRCV 151030Z 23006KT 190V270 CAVOK 10/02 Q1009=
201903151100 METAR LRCV 151100Z 22006KT 190V260 CAVOK 11/01 Q1008=
201903151130 METAR LRCV 151130Z 25007KT 220V280 CAVOK 12/01 Q1008=
201903151200 METAR LRCV 151200Z 26009KT 230V290 CAVOK 12/M02 Q1008=
201903151230 METAR LRCV 151230Z 27007KT CAVOK 13/M02 Q1007=
201903151300 METAR LRCV 151300Z 27008KT 240V330 CAVOK 13/M03 Q1007=
201903151330 METAR LRCV 151330Z 23008KT 170V280 CAVOK 13/M02 Q1007=
201903151400 METAR LRCV 151400Z 24009KT CAVOK 13/M03 Q1007=
201903151430 METAR LRCV 151430Z 22007KT CAVOK 14/M03 Q1007=
201903151500 METAR LRCV 151500Z 22007KT CAVOK 13/M03 Q1007=
201903151530 METAR LRCV 151530Z 24010KT CAVOK 12/M02 Q1007=
201903151600 METAR LRCV 151600Z 24008KT CAVOK 12/M01 Q1008=
201903151630 METAR LRCV 151630Z 23006KT CAVOK 11/M01 Q1008=
201903151700 METAR LRCV 151700Z 23005KT CAVOK 10/M01 Q1008=
201903151730 METAR LRCV 151730Z 25006KT CAVOK 09/M01 Q1009=
201903151800 METAR LRCV 151800Z 25009KT CAVOK 09/M01 Q1009=
201903151830 METAR LRCV 151830Z AUTO 27009KT 9999 NCD 07/M01 Q1009=
201903151900 METAR LRCV 151900Z AUTO 26009KT 9999 FEW015/// 08/M01 Q1009=
201903151930 METAR LRCV 151930Z AUTO 28007KT 9999 BKN230/// 07/M01 Q1010=
201903152000 METAR LRCV 152000Z AUTO 26007KT 9999 BKN230/// 06/M01 Q1010=
201903152030 METAR LRCV 152030Z AUTO 27006KT 9999 FEW220/// 05/M02 Q1010=
201903152100 METAR LRCV 152100Z 27007KT CAVOK 05/M01 Q1010=
201903152130 METAR LRCV 152130Z 24006KT CAVOK 05/M01 Q1010=
201903152200 METAR LRCV 152200Z 26007KT CAVOK 05/M01 Q1010=
201903152230 METAR LRCV 152230Z 27006KT CAVOK 05/M01 Q1010=
201903152300 METAR LRCV 152300Z 26007KT CAVOK 05/M01 Q1010=
201903152330 METAR LRCV 152330Z 26007KT CAVOK 04/M01 Q1010=
201903160000 METAR LRCV 160000Z 25006KT CAVOK 05/M01 Q1010=
201903160030 METAR LRCV 160030Z 26007KT CAVOK 04/M01 Q1010=
201903160100 METAR LRCV 160100Z 26007KT CAVOK 04/M01 Q1010=
201903160130 METAR LRCV 160130Z 26007KT CAVOK 05/M00 Q1010=
201903160200 METAR LRCV 160200Z 24003KT CAVOK 06/00 Q1009=
201903160230 METAR LRCV 160230Z 22005KT CAVOK 07/00 Q1009=
201903160300 METAR LRCV 160300Z 21004KT CAVOK 06/00 Q1009=
201903160330 METAR LRCV 160330Z 23004KT CAVOK 05/00 Q1009=
201903160400 METAR LRCV 160400Z 25005KT CAVOK 05/00 Q1009=
201903160430 METAR LRCV 160430Z 23005KT CAVOK 05/00 Q1009=
201903160500 METAR LRCV 160500Z 24004KT CAVOK 06/00 Q1009=
201903160530 METAR LRCV 160530Z 25004KT CAVOK 06/01 Q1009=
201903160600 METAR LRCV 160600Z 23003KT CAVOK 07/01 Q1009=
201903160630 METAR LRCV 160630Z 22005KT CAVOK 08/01 Q1009=
201903160700 METAR LRCV 160700Z 23006KT 190V250 CAVOK 09/01 Q1009=
201903160730 METAR LRCV 160730Z 22008KT CAVOK 11/01 Q1008=
201903160800 METAR LRCV 160800Z 24012KT CAVOK 13/00 Q1008=
201903160830 METAR LRCV 160830Z 25014KT CAVOK 13/M00 Q1008=
201903160900 METAR LRCV 160900Z 26013KT CAVOK 15/01 Q1008=
201903160930 METAR LRCV 160930Z 25015KT CAVOK 15/01 Q1008=
201903161000 METAR LRCV 161000Z 27018KT CAVOK 16/01 Q1008=
201903161030 METAR LRCV 161030Z 26019KT CAVOK 17/02 Q1008=
201903161100 METAR LRCV 161100Z 26019KT CAVOK 18/02 Q1008=
201903161130 METAR LRCV 161130Z 26017KT CAVOK 18/02 Q1008=
201903161200 METAR LRCV 161200Z 28018KT CAVOK 18/02 Q1008=
201903161230 METAR LRCV 161230Z 29015KT CAVOK 18/03 Q1008=
201903161300 METAR LRCV 161300Z 29020KT CAVOK 18/03 Q1008=
201903161330 METAR LRCV 161330Z 28020KT CAVOK 18/03 Q1008=
201903161400 METAR LRCV 161400Z 27019KT CAVOK 17/03 Q1008=
201903161430 METAR LRCV 161430Z 27020KT 9999 FEW038 16/03 Q1008=
201903161500 METAR LRCV 161500Z 27019G29KT 9999 FEW040 16/03 Q1009=
201903161530 METAR LRCV 161530Z 27020KT 9999 FEW045 15/03 Q1009=
201903161600 METAR LRCV 161600Z 26016KT CAVOK 14/02 Q1009=
201903161630 METAR LRCV 161630Z 25014KT CAVOK 13/03 Q1010=
201903161700 METAR LRCV 161700Z 25010KT CAVOK 12/03 Q1010=
201903161730 METAR LRCV 161730Z AUTO 25014KT 9999 FEW150/// 12/03 Q1011=
201903161800 METAR LRCV 161800Z AUTO 27017KT 9999 NCD 11/03 Q1010=
201903161830 METAR LRCV 161830Z AUTO 26016KT 9999 NCD 11/03 Q1011=
201903161900 METAR LRCV 161900Z AUTO 26014KT 9999 NCD 11/03 Q1011=
201903161930 METAR LRCV 161930Z AUTO 26013KT 9999 NCD 10/03 Q1012=
201903162000 METAR LRCV 162000Z AUTO 26014KT 9999 NCD 09/03 Q1012=
201903162030 METAR LRCV 162030Z AUTO 26013KT 9999 NCD 09/03 Q1012=
201903162100 METAR LRCV 162100Z AUTO 26012KT 9999 NCD 09/03 Q1012=
201903162130 METAR LRCV 162130Z AUTO 27010KT 9999 NCD 08/03 Q1012=
201903162200 METAR LRCV 162200Z 28010KT CAVOK 08/03 Q1013=
201903162230 METAR LRCV 162230Z 30010KT CAVOK 09/03 Q1013=
201903162300 METAR LRCV 162300Z 29008KT CAVOK 08/03 Q1013=
201903162330 METAR LRCV 162330Z 27007KT CAVOK 07/02 Q1013=
201903170000 METAR LRCV 170000Z 26006KT CAVOK 07/02 Q1013=
201903170030 METAR LRCV 170030Z 25006KT CAVOK 07/02 Q1013=
201903170100 METAR LRCV 170100Z 30005KT CAVOK 05/02 Q1013=
201903170130 METAR LRCV 170130Z 26008KT CAVOK 07/03 Q1013=
201903170200 METAR LRCV 170200Z 25008KT CAVOK 07/03 Q1013=
201903170230 METAR LRCV 170230Z 25007KT CAVOK 08/03 Q1013=
201903170300 METAR LRCV 170300Z 25004KT CAVOK 08/03 Q1014=
201903170330 METAR LRCV 170330Z 26007KT CAVOK 08/03 Q1014=
201903170400 METAR LRCV 170400Z 28006KT CAVOK 07/03 Q1014=
201903170430 METAR LRCV 170430Z 28006KT CAVOK 07/02 Q1014=
201903170500 METAR LRCV 170500Z 28004KT CAVOK 08/03 Q1014=
201903170530 METAR LRCV 170530Z VRB02KT CAVOK 08/03 Q1015=
201903170600 METAR LRCV 170600Z 26003KT CAVOK 10/03 Q1015=
201903170630 METAR LRCV 170630Z 24005KT 210V280 CAVOK 11/04 Q1015=
201903170700 METAR LRCV 170700Z 25005KT 210V310 CAVOK 12/04 Q1015=
201903170730 METAR LRCV 170730Z 27005KT 250V310 CAVOK 13/04 Q1015=
201903170800 METAR LRCV 170800Z 27006KT 230V320 CAVOK 14/04 Q1015=
201903170830 METAR LRCV 170830Z 28005KT 240V320 CAVOK 15/04 Q1015=
201903170900 METAR LRCV 170900Z 26006KT 240V310 CAVOK 16/04 Q1015=
201903170930 METAR LRCV 170930Z 23004KT CAVOK 17/05 Q1015=
201903171000 METAR LRCV 171000Z 21005KT 160V270 CAVOK 18/05 Q1015=
201903171030 METAR LRCV 171030Z 26009KT 220V290 CAVOK 20/04 Q1014=
201903171100 METAR LRCV 171100Z 27010KT 230V300 CAVOK 20/04 Q1014=
201903171130 METAR LRCV 171130Z 21009KT CAVOK 20/03 Q1014=
201903171200 METAR LRCV 171200Z 25008KT 210V280 CAVOK 21/04 Q1013=
201903171230 METAR LRCV 171230Z 26009KT CAVOK 22/04 Q1013=
201903171300 METAR LRCV 171300Z 24009KT 200V270 CAVOK 22/03 Q1013=
201903171330 METAR LRCV 171330Z 24007KT 190V290 CAVOK 22/03 Q1013=
201903171400 METAR LRCV 171400Z 27010KT CAVOK 23/03 Q1012=
201903171430 METAR LRCV 171430Z 28008KT 240V300 CAVOK 22/02 Q1012=
201903171500 METAR LRCV 171500Z 26008KT CAVOK 22/00 Q1012=
201903171530 METAR LRCV 171530Z 27007KT CAVOK 22/M00 Q1012=
201903171600 METAR LRCV 171600Z 25004KT CAVOK 21/M01 Q1012=
201903171630 METAR LRCV 171630Z VRB02KT CAVOK 19/00 Q1012=
201903171700 METAR LRCV 171700Z 17003KT CAVOK 18/02 Q1012=
201903171730 METAR LRCV 171730Z AUTO 10004KT 9999 NCD 16/03 Q1012=
201903171800 METAR LRCV 171800Z AUTO 14004KT 9999 NCD 16/04 Q1012=
201903171830 METAR LRCV 171830Z AUTO 15004KT 9999 NCD 15/05 Q1012=
201903171900 METAR LRCV 171900Z AUTO 13004KT 9999 NCD 14/05 Q1012=
201903171930 METAR LRCV 171930Z AUTO 13006KT 9999 NCD 14/05 Q1012=
201903172000 METAR LRCV 172000Z AUTO 12005KT 9999 NCD 14/05 Q1012=
201903172030 METAR LRCV 172030Z AUTO 12006KT 9999 NCD 13/05 Q1012=
201903172100 METAR LRCV 172100Z 12007KT CAVOK 13/04 Q1012=
201903172130 METAR LRCV 172130Z 12007KT CAVOK 13/04 Q1012=
201903172200 METAR LRCV 172200Z 12007KT CAVOK 12/04 Q1012=
201903172230 METAR LRCV 172230Z 11007KT CAVOK 11/04 Q1012=
201903172300 METAR LRCV 172300Z 09006KT CAVOK 09/04 Q1012=
201903172330 METAR LRCV 172330Z 07004KT CAVOK 09/04 Q1012=
201903180000 METAR LRCV 180000Z AUTO 06006KT 9999 NCD 07/03 Q1012=
201903180030 METAR LRCV 180030Z 04005KT CAVOK 08/04 Q1012=
201903180100 METAR LRCV 180100Z AUTO 03004KT 9999 NCD 07/04 Q1011=
201903180130 METAR LRCV 180130Z AUTO 03004KT 9999 NCD 07/03 Q1011=
201903180200 METAR LRCV 180200Z AUTO 05007KT 9999 NCD 07/03 Q1011=
201903180230 METAR LRCV 180230Z AUTO 03004KT 9999 NCD 07/03 Q1011=
201903180300 METAR LRCV 180300Z 03005KT CAVOK 07/03 Q1011=
201903180330 METAR LRCV 180330Z 01005KT 330V030 CAVOK 05/02 Q1011=
201903180400 METAR LRCV 180400Z 02005KT CAVOK 06/02 Q1012=
201903180430 METAR LRCV 180430Z 35006KT 250V050 CAVOK 05/02 Q1012=
201903180500 METAR LRCV 180500Z 05005KT CAVOK 06/02 Q1012=
201903180530 METAR LRCV 180530Z 08004KT CAVOK 09/04 Q1012=
201903180600 METAR LRCV 180600Z VRB02KT CAVOK 11/05 Q1012=
201903180630 METAR LRCV 180630Z 09003KT 060V130 CAVOK 13/05 Q1012=
201903180700 METAR LRCV 180700Z 06004KT 040V100 CAVOK 13/05 Q1012=
201903180730 METAR LRCV 180730Z 10005KT CAVOK 15/06 Q1012=
201903180800 METAR LRCV 180800Z VRB02KT CAVOK 17/06 Q1012=
201903180830 METAR LRCV 180830Z 17003KT 140V250 CAVOK 18/06 Q1013=
201903180900 METAR LRCV 180900Z VRB03KT CAVOK 18/04 Q1012=
201903180930 METAR LRCV 180930Z 28004KT 240V320 CAVOK 19/03 Q1013=
201903181000 METAR LRCV 181000Z 26005KT 220V310 CAVOK 20/03 Q1012=
201903181030 METAR LRCV 181030Z 27004KT 220V320 CAVOK 21/03 Q1012=
201903181100 METAR LRCV 181100Z 01004KT 330V050 CAVOK 21/02 Q1012=
201903181130 METAR LRCV 181130Z VRB02KT CAVOK 22/01 Q1012=
201903181200 METAR LRCV 181200Z VRB02KT CAVOK 23/01 Q1011=
201903181230 METAR LRCV 181230Z VRB02KT CAVOK 23/00 Q1011=
201903181300 METAR LRCV 181300Z VRB02KT CAVOK 23/M00 Q1011=
201903181330 METAR LRCV 181330Z VRB02KT CAVOK 24/01 Q1011=
201903181400 METAR LRCV 181400Z 12004KT 060V170 CAVOK 23/01 Q1010=
201903181430 METAR LRCV 181430Z 07004KT 020V110 CAVOK 23/01 Q1010=
201903181500 METAR LRCV 181500Z 09003KT CAVOK 23/00 Q1010=
201903181530 METAR LRCV 181530Z 12003KT CAVOK 22/00 Q1010=
201903181600 METAR LRCV 181600Z 09001KT CAVOK 21/00 Q1010=
201903181630 METAR LRCV 181630Z 00000KT CAVOK 20/00 Q1010=
201903181700 METAR LRCV 181700Z 09001KT CAVOK 19/00 Q1010=
201903181730 METAR LRCV 181730Z 11004KT CAVOK 19/01 Q1011=
201903181800 METAR LRCV 181800Z 12005KT CAVOK 20/01 Q1011=
201903181830 METAR LRCV 181830Z AUTO 11004KT 9999 BKN100/// OVC140///
                        18/02 Q1011=
201903181900 METAR LRCV 181900Z AUTO 09003KT 9999 FEW100/// SCT120///
                        BKN140/// 17/06 Q1011 RERA=
201903181930 METAR LRCV 181930Z AUTO 34001KT 9999 -SHRA BKN100/// 16/07
                        Q1011=
201903182000 METAR LRCV 182000Z AUTO 03003KT 9999 SCT095/// BKN110///
                        BKN140/// 15/07 Q1011 RERA=
201903182030 METAR LRCV 182030Z AUTO 04004KT 9999 BKN095/// 15/06 Q1011=
201903182130 METAR COR LRCV 182130Z 24003KT 150V300 CAVOK 16/05 Q1011=
201903182200 METAR LRCV 182200Z 36005KT CAVOK 15/07 Q1011=
201903182230 METAR LRCV 182230Z 05004KT CAVOK 15/06 Q1011=
201903182300 METAR LRCV 182300Z 27007KT CAVOK 14/06 Q1011=
201903182330 METAR LRCV 182330Z 31004KT CAVOK 12/04 Q1011=
201903190000 METAR LRCV 190000Z 28008KT CAVOK 12/03 Q1012=
201903190030 METAR LRCV 190030Z AUTO VRB01KT 9999 BKN095/// 12/03 Q1012=
201903190100 METAR LRCV 190100Z AUTO 23006KT 9999 FEW140/// 11/03 Q1012=
201903190130 METAR LRCV 190130Z AUTO 22007KT 9999 NCD 11/04 Q1012=
201903190200 METAR LRCV 190200Z AUTO 25009KT 9999 NCD 10/04 Q1012=
201903190230 METAR LRCV 190230Z AUTO 24010KT 9999 NCD 10/04 Q1013=
201903190300 METAR LRCV 190300Z AUTO 24010KT 9999 NCD 09/03 Q1013=
201903190330 METAR LRCV 190330Z 23009KT CAVOK 08/03 Q1013=
201903190400 METAR LRCV 190400Z 24010KT CAVOK 08/03 Q1014=
201903190430 METAR LRCV 190430Z 25012KT CAVOK 08/03 Q1014=
201903190500 METAR LRCV 190500Z 25011KT CAVOK 08/03 Q1015=
201903190530 METAR LRCV 190530Z 26009KT CAVOK 08/03 Q1015=
201903190600 METAR LRCV 190600Z 26011KT CAVOK 08/03 Q1015=
201903190630 METAR LRCV 190630Z 26008KT CAVOK 09/03 Q1016=
201903190700 METAR LRCV 190700Z 27006KT CAVOK 10/03 Q1016=
201903190730 METAR LRCV 190730Z 29005KT CAVOK 11/04 Q1016=
201903190800 METAR LRCV 190800Z VRB02KT CAVOK 11/04 Q1016=
201903190830 METAR LRCV 190830Z 27004KT CAVOK 11/04 Q1017=
201903190900 METAR LRCV 190900Z VRB02KT CAVOK 13/04 Q1017=
201903190930 METAR LRCV 190930Z 17004KT 140V210 CAVOK 14/05 Q1017=
201903191000 METAR LRCV 191000Z 17004KT 140V210 CAVOK 14/05 Q1017=
201903191030 METAR LRCV 191030Z 13007KT CAVOK 16/06 Q1017=
201903191100 METAR LRCV 191100Z 10008KT CAVOK 16/06 Q1017=
201903191130 METAR LRCV 191130Z 09007KT CAVOK 17/07 Q1017=
201903191200 METAR LRCV 191200Z 08005KT CAVOK 17/07 Q1017=
201903191230 METAR LRCV 191230Z VRB05KT CAVOK 18/07 Q1017=
201903191300 METAR LRCV 191300Z 05006KT CAVOK 17/07 Q1017=
201903191330 METAR LRCV 191330Z 08006KT 040V110 CAVOK 17/07 Q1017=
201903191400 METAR LRCV 191400Z 06007KT CAVOK 17/07 Q1017=
201903191430 METAR LRCV 191430Z 07007KT 040V100 CAVOK 17/07 Q1017=
201903191500 METAR LRCV 191500Z 06007KT CAVOK 17/07 Q1017=
201903191530 METAR LRCV 191530Z 07008KT CAVOK 17/07 Q1017=
201903191600 METAR LRCV 191600Z 08007KT CAVOK 16/07 Q1018=
201903191630 METAR LRCV 191630Z 08006KT CAVOK 15/07 Q1018=
201903191700 METAR LRCV 191700Z 09006KT CAVOK 14/07 Q1018=
201903191730 METAR LRCV 191730Z AUTO 10005KT 9999 FEW075/// 14/07 Q1019=
201903191800 METAR LRCV 191800Z AUTO 09005KT 9999 NCD 11/06 Q1019=
201903191830 METAR LRCV 191830Z AUTO 08005KT 9999 SCT075/// 12/07 Q1019=
201903191900 METAR LRCV 191900Z AUTO 07005KT 9999 BKN075/// 11/07 Q1020=
201903191930 METAR LRCV 191930Z AUTO 08005KT 9999 BKN050/// BKN075///
                        11/07 Q1020=
201903192000 METAR LRCV 192000Z AUTO 08006KT 9999 BKN050/// 11/07 Q1020=
201903192030 METAR LRCV 192030Z AUTO 09007KT 9999 SCT050/// BKN075///
                        12/06 Q1021=
201903192100 METAR LRCV 192100Z AUTO 09006KT 9999 FEW050/// 11/06 Q1021=
201903192130 METAR LRCV 192130Z AUTO 11006KT 9999 BKN050/// 12/06 Q1021=
201903192200 METAR LRCV 192200Z 11006KT CAVOK 11/06 Q1021=
201903192230 METAR LRCV 192230Z 09007KT CAVOK 11/06 Q1022=
201903192300 METAR LRCV 192300Z 10008KT CAVOK 11/05 Q1022=
201903192330 METAR LRCV 192330Z 10009KT CAVOK 10/05 Q1022=
201903200000 METAR LRCV 200000Z 09008KT CAVOK 09/05 Q1022=
201903200030 METAR LRCV 200030Z 09007KT CAVOK 09/05 Q1022=
201903200100 METAR LRCV 200100Z 09007KT CAVOK 08/05 Q1022=
201903200130 METAR LRCV 200130Z 10008KT CAVOK 08/05 Q1022=
201903200200 METAR LRCV 200200Z 10007KT CAVOK 08/05 Q1023=
201903200230 METAR LRCV 200230Z 10008KT CAVOK 09/05 Q1023=
201903200300 METAR LRCV 200300Z 08007KT CAVOK 08/05 Q1023=
201903200330 METAR LRCV 200330Z 08006KT 9999 SCT028 BKN045 08/05 Q1023=
201903200400 METAR LRCV 200400Z 09005KT 9999 SCT030 OVC046 09/05 Q1024=
201903200430 METAR LRCV 200430Z 11004KT 9999 OVC030 09/05 Q1024=
201903200500 METAR LRCV 200500Z 11005KT 9999 BKN030 09/05 Q1024=
201903200530 METAR LRCV 200530Z 11004KT 080V150 9999 SCT030 09/05 Q1025=
201903200600 METAR LRCV 200600Z 10004KT 9999 SCT030 BKN045 09/05 Q1025=
201903200630 METAR LRCV 200630Z 10009KT 9999 BKN032 09/05 Q1026=
201903200700 METAR LRCV 200700Z 10009KT 9999 OVC033 09/05 Q1026=
201903200730 METAR LRCV 200730Z 10011KT 9999 BKN035 09/05 Q1026=
201903200800 METAR LRCV 200800Z 10010KT 9999 BKN038 10/05 Q1026=
201903200830 METAR LRCV 200830Z 10010KT 9999 SCT040 10/05 Q1027=
201903200900 METAR LRCV 200900Z 10009KT 9999 FEW017 11/05 Q1027=
201903200930 METAR LRCV 200930Z 10007KT 9999 FEW019 SCT023 11/06 Q1027=
201903201000 METAR LRCV 201000Z 12005KT 090V170 9999 BKN022 12/06 Q1027=
201903201030 METAR LRCV 201030Z 11006KT 9999 BKN023 12/06 Q1027=
201903201100 METAR LRCV 201100Z 13007KT 100V160 9999 SCT027 SCT045 13/06
                        Q1027=
201903201130 METAR LRCV 201130Z 13007KT 100V160 9999 SCT027 BKN045 14/06
                        Q1027=
201903201200 METAR LRCV 201200Z 11006KT 070V150 9999 SCT028 BKN048 13/06
                        Q1027=
201903201230 METAR LRCV 201230Z 14005KT 060V200 9999 SCT030 BKN048 14/06
                        Q1027=
201903201300 METAR LRCV 201300Z 13006KT 090V160 9999 BKN031 14/06 Q1026=
201903201330 METAR LRCV 201330Z 11005KT 080V170 9999 BKN033 14/05 Q1027=
201903201400 METAR LRCV 201400Z 11005KT 060V140 9999 SCT034 14/06 Q1026=
201903201430 METAR LRCV 201430Z 13006KT 9999 BKN033 14/06 Q1027=
201903201500 METAR LRCV 201500Z 10005KT 9999 BKN033 13/06 Q1027=
201903201530 METAR LRCV 201530Z 11005KT 9999 OVC033 13/06 Q1027=
201903201600 METAR LRCV 201600Z 10005KT 9999 OVC033 13/06 Q1027=
201903201630 METAR LRCV 201630Z 11004KT 9999 OVC036 13/06 Q1028=
201903201700 METAR LRCV 201700Z 11004KT 9999 OVC035 13/07 Q1028=
201903201730 METAR LRCV 201730Z AUTO 11005KT 9999 OVC035/// 12/07 Q1028=
201903201800 METAR LRCV 201800Z AUTO 12005KT 9999 SCT034/// OVC039///
                        12/07 Q1029=
201903201830 METAR LRCV 201830Z AUTO 12003KT 9999 SCT032/// BKN042///
                        BKN050/// 12/07 Q1029=
201903201900 METAR LRCV 201900Z AUTO 13003KT 9999 BKN032/// BKN037///
                        12/07 Q1029=
201903201930 METAR LRCV 201930Z AUTO VRB02KT 9999 BKN032/// BKN060///
                        11/07 Q1029=
201903202000 METAR LRCV 202000Z AUTO 15004KT 9999 -DZ BKN060/// 11/07
                        Q1029=
201903202030 METAR LRCV 202030Z AUTO VRB01KT 9999 -RA BKN033/// 11/07
                        Q1030=
201903202100 METAR LRCV 202100Z 21002KT 9999 -RA BKN034 11/07 Q1030=
201903202130 METAR LRCV 202130Z 26004KT 8000 -RA BKN035 10/08 Q1030 R27/29//95=
201903202200 METAR LRCV 202200Z 23003KT 7000 -RA BKN037 10/08 Q1030 R27/29//95=
201903202230 METAR LRCV 202230Z 18002KT 6000 OVC040 10/07 Q1030 R27/29//95=
201903202300 METAR LRCV 202300Z 11009KT 9999 -DZ FEW022 BKN030 09/06 Q1030
                        R27/29//95=
201903202330 METAR COR LRCV 202330Z 11008KT 9999 FEW023 09/05 Q1031 R27/29//95=
201903210000 METAR LRCV 210000Z 10009KT 9999 FEW024 08/05 Q1031 R27/29//95=
201903210030 METAR LRCV 210030Z 09007KT 9999 SCT025 08/05 Q1031 R27/29//95=
201903210100 METAR LRCV 210100Z 09008KT 9999 FEW026 BKN042 08/04 Q1031
                        R27/29//95=
201903210130 METAR LRCV 210130Z 09008KT 9999 SCT033 BKN042 08/04 Q1031
                        R27/29//95=
201903210200 METAR LRCV 210200Z 09009KT 9999 FEW025 SCT032 BKN038 08/04
                        Q1031 R27/29//95=
201903210230 METAR LRCV 210230Z 09009KT 9999 FEW029 OVC038 08/04 Q1031
                        R27/29//95=
201903210300 METAR LRCV 210300Z 09010KT 9999 FEW029 BKN035 08/04 Q1031
                        R27/29//95=
201903210330 METAR LRCV 210330Z 08008KT 9999 BKN029 BKN034 07/04 Q1031
                        R27/29//95=
201903210400 METAR COR LRCV 210400Z 08008KT 9999 SCT029 BKN033 07/04 Q1031
                        R27//CLRD=
201903210430 METAR LRCV 210430Z 09009KT 9999 FEW029 OVC035 07/04 Q1031
                        R27//CLRD=
201903210500 METAR LRCV 210500Z 09008KT 9999 FEW036 OVC041 07/04 Q1032
                        R27//CLRD=
201903210530 METAR LRCV 210530Z 08007KT 9999 SCT027 OVC032 07/04 Q1032
                        R27//CLRD=
201903210600 METAR LRCV 210600Z 08008KT 7000 -RA BKN024 OVC028 07/04 Q1032
                        R27//CLRD=
201903210630 METAR LRCV 210630Z 08007KT 9999 -RA BKN023 07/04 Q1033=
201903210700 METAR LRCV 210700Z 08008KT 9999 BKN023 07/04 Q1033=
201903210730 METAR LRCV 210730Z 08008KT 9999 OVC022 08/04 Q1033=
201903210800 METAR LRCV 210800Z 08009KT 9999 OVC022 08/03 Q1033=
201903210830 METAR LRCV 210830Z 08009KT 9999 OVC023 08/03 Q1033=
201903210900 METAR LRCV 210900Z 08010KT 9999 OVC023 08/03 Q1033=
201903210930 METAR LRCV 210930Z 08009KT 9999 OVC024 08/03 Q1033=
201903211000 METAR LRCV 211000Z 07008KT 9999 FEW017 BKN023 08/03 Q1033=
201903211030 METAR LRCV 211030Z 06005KT 9999 FEW019 SCT022 BKN027 08/04
                        Q1034=
201903211100 METAR LRCV 211100Z 08005KT 8000 -RA FEW019 BKN025 OVC030
                        08/04 Q1033 R09/19//95=
201903211130 METAR LRCV 211130Z 08005KT 050V110 9999 FEW018 SCT025 OVC034
                        08/04 Q1033 R09/19//95=
201903211200 METAR COR LRCV 211200Z 07005KT 9999 FEW017 SCT022 BKN037
                        09/04 Q1033 R09/19//95=
201903211230 METAR LRCV 211230Z 09005KT 9999 FEW019 SCT040 09/04 Q1032
                        R09/19//95=
201903211300 METAR LRCV 211300Z VRB02KT 9999 FEW023 09/04 Q1032 R09/19//95=
201903211330 METAR LRCV 211330Z 35004KT 310V060 9999 FEW021 10/04 Q1032
                        R09/19//95=
201903211400 METAR LRCV 211400Z 31003KT 260V020 9999 BKN025 10/04 Q1031
                        R09/19//95=
201903211430 METAR LRCV 211430Z 32004KT 290V350 9999 BKN021 09/04 Q1031
                        R09/19//95=
201903211500 METAR LRCV 211500Z 33004KT 290V350 9999 BKN020 09/04 Q1031
                        R09/19//95=
201903211530 METAR LRCV 211530Z VRB02KT 9999 BKN020 09/04 Q1031 R09/19//95=
201903211600 METAR LRCV 211600Z VRB01KT 9999 FEW022 09/04 Q1031 R09/19//95=
201903211630 METAR LRCV 211630Z 31002KT 9999 FEW030 08/04 Q1031 R09/19//95=
201903211700 METAR LRCV 211700Z 28002KT 9999 FEW035 07/04 Q1031 R09/19//95=
201903211730 METAR LRCV 211730Z AUTO 25002KT 9000 NCD 07/04 Q1031=
201903211800 METAR LRCV 211800Z AUTO 22003KT 7000 NCD 07/04 Q1031=
201903211830 METAR LRCV 211830Z AUTO 25002KT 6000 NCD 06/04 Q1031=
201903211900 METAR LRCV 211900Z AUTO 25003KT 6000 NCD 07/04 Q1031=
201903211930 METAR LRCV 211930Z AUTO 23004KT 6000 NCD 07/04 Q1031=
201903212000 METAR LRCV 212000Z AUTO 23004KT 5000 BR NCD 06/04 Q1031=
201903212030 METAR LRCV 212030Z AUTO 25004KT 5000 BR NCD 06/04 Q1031=
201903212100 METAR LRCV 212100Z AUTO 27005KT 5000 BR NCD 05/03 Q1031=
201903212130 METAR LRCV 212130Z AUTO 28004KT 4900 BR NCD 04/03 Q1031=
201903212200 METAR COR LRCV 212200Z 25005KT 5000 BR NSC 04/03 Q1031=
201903212230 METAR LRCV 212230Z 28004KT 5000 BR NSC 05/04 Q1031=
201903212300 METAR LRCV 212300Z 31004KT 5000 BR NSC 04/03 Q1031=
201903212330 METAR LRCV 212330Z 31005KT 5000 BR NSC 04/03 Q1031=
201903220000 METAR LRCV 220000Z 32002KT 5000 BR NSC 06/05 Q1031=
201903220030 METAR LRCV 220030Z 31003KT 5000 BR NSC 07/07 Q1031=
201903220100 METAR LRCV 220100Z 28003KT 5000 MIFG BR NSC 04/03 Q1031=
201903220130 METAR LRCV 220130Z 28004KT 3000 MIFG BR NSC 12/12 Q1030=
201903220200 METAR LRCV 220200Z 30002KT 3000 MIFG BR NSC 04/04 Q1030=
201903220230 METAR LRCV 220230Z 29003KT 3000 MIFG BR NSC 03/03 Q1030=
201903220300 METAR LRCV 220300Z 29002KT 3000 MIFG BR NSC ///// Q1030=
201903220330 METAR LRCV 220330Z 30002KT 3000 MIFG BR NSC ///// Q1030=
201903220400 METAR LRCV 220400Z 32001KT 0400 R09/0300N FG NSC 01/01 Q1030=
201903220430 METAR LRCV 220430Z AUTO 27004KT 0300 R09/0275V0500N BCFG
                        NCD 08/07 Q1030=
201903220500 METAR LRCV 220500Z 26005KT 0200 R09/0275N FG NSC ///// Q1030=
201903220530 METAR LRCV 220530Z 31003KT 0800 R09/1100U FG NSC ///// Q1031=
201903220600 METAR LRCV 220600Z 27004KT 0300 R09/0300N FG NSC ///// Q1031=
201903220630 METAR LRCV 220630Z AUTO 29003KT 1300 R09/0800VP2000U FEW001///
                        05/04 Q1031=
201903220700 METAR LRCV 220700Z 29003KT 5000 BR NSC ///// Q1031=
201903220730 METAR LRCV 220730Z 29004KT 6000 NSC 07/06 Q1031=
201903220800 METAR LRCV 220800Z 28004KT 7000 NSC 08/05 Q1031=
201903220830 METAR LRCV 220830Z 28005KT 250V310 7000 NSC 09/05 Q1031=
201903220900 METAR LRCV 220900Z VRB02KT 8000 NSC 10/05 Q1030=
201903220930 METAR LRCV 220930Z 24006KT 210V280 CAVOK 10/04 Q1030=
201903221000 METAR LRCV 221000Z 23004KT 170V320 CAVOK 12/05 Q1030=
201903221030 METAR LRCV 221030Z 26004KT 200V320 CAVOK 13/04 Q1029=
201903221100 METAR LRCV 221100Z 21005KT 160V320 CAVOK 13/04 Q1029=
201903221130 METAR LRCV 221130Z 24005KT 190V290 CAVOK 14/04 Q1028=
201903221200 METAR LRCV 221200Z VRB05KT CAVOK 15/04 Q1028=
201903221230 METAR LRCV 221230Z VRB04KT CAVOK 15/03 Q1027=
201903221300 METAR LRCV 221300Z 23004KT 160V330 CAVOK 16/02 Q1027=
201903221330 METAR COR LRCV 221330Z 23006KT 190V280 CAVOK 16/00 Q1027=
201903221400 METAR LRCV 221400Z 27006KT 230V310 CAVOK 16/01 Q1026=
201903221430 METAR LRCV 221430Z 27004KT 230V310 CAVOK 16/01 Q1026=
201903221500 METAR LRCV 221500Z 23004KT 200V280 CAVOK 16/01 Q1026=
201903221530 METAR LRCV 221530Z 25003KT 210V280 CAVOK 16/M00 Q1025=
201903221600 METAR LRCV 221600Z VRB02KT CAVOK 16/M01 Q1026=
201903221630 METAR LRCV 221630Z 22003KT CAVOK 14/M01 Q1025=
201903221700 METAR LRCV 221700Z 19005KT CAVOK 13/M01 Q1025=
201903221730 METAR LRCV 221730Z 18005KT CAVOK 12/M00 Q1025=
201903221800 METAR LRCV 221800Z 18005KT CAVOK 12/00 Q1025=
201903221830 METAR LRCV 221830Z 19005KT CAVOK 11/M00 Q1025=
201903221900 METAR LRCV 221900Z 19005KT CAVOK 11/M01 Q1025=
201903221930 METAR LRCV 221930Z AUTO 19005KT 9999 BKN230/// 11/M01 Q1025=
201903222000 METAR LRCV 222000Z AUTO 19004KT 9999 FEW230/// 11/M01 Q1025=
201903222030 METAR LRCV 222030Z AUTO 20004KT 9999 FEW220/// 11/M01 Q1025=
201903222100 METAR LRCV 222100Z 20004KT CAVOK 10/M01 Q1025=
201903222130 METAR LRCV 222130Z 21003KT CAVOK 10/M01 Q1025=
201903222200 METAR LRCV 222200Z 20003KT CAVOK 10/M01 Q1025=
201903222230 METAR LRCV 222230Z 20004KT CAVOK 10/M01 Q1025=
201903222300 METAR LRCV 222300Z 18004KT CAVOK 09/M01 Q1025=
201903222330 METAR LRCV 222330Z 04003KT CAVOK 05/00 Q1025=
201903230000 METAR LRCV 230000Z 12002KT CAVOK 05/00 Q1025=
201903230030 METAR LRCV 230030Z 21002KT CAVOK 07/M00 Q1024=
201903230100 METAR LRCV 230100Z VRB03KT CAVOK 06/M01 Q1024=
201903230130 METAR LRCV 230130Z 02004KT CAVOK 04/M00 Q1024=
201903230200 METAR LRCV 230200Z 35001KT CAVOK 05/M01 Q1024=
201903230230 METAR LRCV 230230Z 03003KT CAVOK 04/M00 Q1024=
201903230300 METAR LRCV 230300Z 02003KT CAVOK 03/M01 Q1024=
201903230330 METAR LRCV 230330Z 04004KT CAVOK 03/M01 Q1024=
201903230400 METAR LRCV 230400Z 05004KT CAVOK 03/M01 Q1024=
201903230430 METAR LRCV 230430Z 04004KT CAVOK 04/M01 Q1024=
201903230500 METAR LRCV 230500Z 05004KT CAVOK 03/M01 Q1024=
201903230530 METAR LRCV 230530Z 05004KT CAVOK 05/01 Q1024=
201903230600 METAR LRCV 230600Z 07006KT CAVOK 06/02 Q1025=
201903230630 METAR LRCV 230630Z 09006KT CAVOK 08/02 Q1025=
201903230700 METAR LRCV 230700Z 14006KT CAVOK 10/02 Q1024=
201903230730 METAR LRCV 230730Z 14004KT 110V180 CAVOK 11/02 Q1024=
201903230800 METAR LRCV 230800Z 11004KT 060V130 CAVOK 12/01 Q1024=
201903230830 METAR LRCV 230830Z 14006KT 110V170 CAVOK 13/01 Q1024=
201903230900 METAR LRCV 230900Z 15003KT 080V210 CAVOK 14/02 Q1024=
201903230930 METAR LRCV 230930Z 17004KT 140V220 CAVOK 15/01 Q1024=
201903231000 METAR LRCV 231000Z 19003KT 110V230 CAVOK 15/01 Q1023=
201903231030 METAR LRCV 231030Z 16003KT 110V200 CAVOK 16/01 Q1023=
201903231100 METAR LRCV 231100Z 16003KT 080V210 CAVOK 16/00 Q1023=
201903231130 METAR COR LRCV 231130Z 14003KT 090V180 CAVOK 17/M00 Q1022=
201903231200 METAR LRCV 231200Z 06002KT CAVOK 17/00 Q1022=
201903231230 METAR LRCV 231230Z VRB02KT CAVOK 18/M01 Q1021=
201903231300 METAR LRCV 231300Z 32007KT CAVOK 18/M01 Q1021=
201903231330 METAR LRCV 231330Z 27005KT 160V330 CAVOK 18/M01 Q1021=
201903231400 METAR LRCV 231400Z VRB02KT CAVOK 19/M01 Q1021=
201903231430 METAR LRCV 231430Z VRB02KT CAVOK 19/M01 Q1020=
201903231500 METAR LRCV 231500Z 33003KT 270V020 CAVOK 19/M01 Q1020=
201903231530 METAR LRCV 231530Z VRB01KT CAVOK 18/M01 Q1020=
201903231600 METAR LRCV 231600Z 12004KT CAVOK 17/00 Q1020=
201903231630 METAR LRCV 231630Z 11005KT CAVOK 16/01 Q1020=
201903231700 METAR LRCV 231700Z 12006KT CAVOK 15/02 Q1020=
201903231730 METAR LRCV 231730Z 11008KT CAVOK 14/03 Q1020=
201903231800 METAR LRCV 231800Z 10007KT CAVOK 12/03 Q1020=
201903231830 METAR LRCV 231830Z AUTO 09007KT 9999 NCD 12/02 Q1021=
201903231900 METAR LRCV 231900Z AUTO 10008KT 9999 NCD 12/03 Q1021=
201903231930 METAR LRCV 231930Z AUTO 07009KT 050V110 9999 NCD 10/03 Q1022=
201903232000 METAR LRCV 232000Z AUTO 07012KT 9999 NCD 09/04 Q1022=
201903232030 METAR LRCV 232030Z AUTO 08011KT 9999 NCD 09/01 Q1023=
201903232100 METAR LRCV 232100Z AUTO 08009KT 9999 NCD 08/00 Q1023=
201903232130 METAR LRCV 232130Z AUTO 08009KT 9999 NCD 07/M00 Q1023=
201903232200 METAR LRCV 232200Z 07008KT CAVOK 06/M00 Q1023=
201903232230 METAR LRCV 232230Z 07009KT CAVOK 05/M01 Q1023=
201903232300 METAR LRCV 232300Z 07009KT CAVOK 05/M02 Q1023=
201903232330 METAR LRCV 232330Z 06007KT CAVOK 05/M02 Q1024=
201903240000 METAR LRCV 240000Z 07009KT CAVOK 05/M03 Q1023=
201903240030 METAR LRCV 240030Z 04007KT CAVOK 04/M04 Q1023=
201903240100 METAR LRCV 240100Z 03009KT CAVOK 05/M04 Q1023=
201903240130 METAR LRCV 240130Z 03009KT CAVOK 05/M05 Q1023=
201903240200 METAR LRCV 240200Z AUTO 01005KT 9999 NCD 04/M05 Q1023=
201903240230 METAR LRCV 240230Z AUTO 36007KT 9999 NCD 03/M05 Q1023=
201903240300 METAR LRCV 240300Z 01005KT CAVOK 03/M05 Q1023=
201903240330 METAR LRCV 240330Z 01005KT CAVOK 03/M05 Q1023=
201903240400 METAR LRCV 240400Z 01004KT CAVOK 03/M06 Q1023=
201903240430 METAR LRCV 240430Z 01005KT CAVOK 03/M05 Q1023=
201903240500 METAR LRCV 240500Z 02003KT CAVOK 03/M06 Q1023=
201903240530 METAR LRCV 240530Z 01003KT CAVOK 05/M05 Q1024=
201903240600 METAR LRCV 240600Z 02003KT CAVOK 07/M06 Q1023=
201903240630 METAR LRCV 240630Z VRB02KT CAVOK 09/M08 Q1023=
201903240700 METAR LRCV 240700Z VRB02KT CAVOK 10/M09 Q1023=
201903240730 METAR LRCV 240730Z VRB02KT CAVOK 12/M10 Q1023=
201903240800 METAR LRCV 240800Z 16003KT 090V220 CAVOK 13/M11 Q1023=
201903240830 METAR LRCV 240830Z 21006KT 150V250 CAVOK 13/M11 Q1023=
201903240900 METAR LRCV 240900Z 19005KT 140V250 CAVOK 14/M11 Q1023=
201903240930 METAR LRCV 240930Z 24005KT 160V310 CAVOK 14/M11 Q1022=
201903241000 METAR LRCV 241000Z 26005KT 180V300 CAVOK 14/M09 Q1022=
201903241030 METAR LRCV 241030Z 23006KT 180V260 CAVOK 16/M09 Q1022=
201903241100 METAR LRCV 241100Z 22007KT 190V250 CAVOK 16/M08 Q1021=
201903241130 METAR LRCV 241130Z 17006KT 130V200 CAVOK 16/M07 Q1021=
201903241200 METAR LRCV 241200Z 24008KT CAVOK 17/M08 Q1020=
201903241230 METAR LRCV 241230Z 21007KT 150V260 CAVOK 18/M08 Q1020=
201903241300 METAR LRCV 241300Z 20007KT 160V230 CAVOK 18/M08 Q1019=
201903241330 METAR LRCV 241330Z 21007KT 180V240 CAVOK 18/M07 Q1019=
201903241400 METAR LRCV 241400Z 22006KT 190V340 CAVOK 19/M06 Q1018=
201903241430 METAR LRCV 241430Z 21007KT 160V230 CAVOK 18/M06 Q1018=
201903241500 METAR LRCV 241500Z 22008KT CAVOK 18/M06 Q1018=
201903241530 METAR LRCV 241530Z 22007KT CAVOK 18/M06 Q1017=
201903241600 METAR LRCV 241600Z 20006KT 160V220 CAVOK 18/M08 Q1017=
201903241630 METAR LRCV 241630Z 20005KT CAVOK 16/M03 Q1017=
201903241700 METAR LRCV 241700Z 18005KT CAVOK 15/M03 Q1017=
201903241730 METAR LRCV 241730Z AUTO 18006KT 9999 NCD 14/M03 Q1017=
201903241800 METAR LRCV 241800Z AUTO 18006KT 9999 NCD 14/M03 Q1017=
201903241830 METAR LRCV 241830Z AUTO 18006KT 9999 NCD 13/M03 Q1017=
201903241900 METAR LRCV 241900Z AUTO 18007KT 9999 NCD 14/M05 Q1017=
201903241930 METAR LRCV 241930Z AUTO 19006KT 9999 NCD 14/M06 Q1017=
201903242000 METAR LRCV 242000Z AUTO 19006KT 9999 NCD 13/M07 Q1017=
201903242030 METAR LRCV 242030Z AUTO 18006KT 9999 NCD 13/M05 Q1016=
201903242100 METAR LRCV 242100Z 18007KT CAVOK 13/M05 Q1016=
201903242130 METAR LRCV 242130Z 19007KT CAVOK 12/M05 Q1016=
201903242200 METAR LRCV 242200Z 21005KT CAVOK 11/M05 Q1016=
201903242230 METAR LRCV 242230Z 20006KT CAVOK 11/M05 Q1015=
201903242300 METAR LRCV 242300Z 20006KT CAVOK 11/M05 Q1015=
201903242330 METAR LRCV 242330Z VRB02KT CAVOK 07/M03 Q1015=
201903250000 METAR LRCV 250000Z 06003KT CAVOK 05/M02 Q1015=
201903250030 METAR LRCV 250030Z 07005KT CAVOK 05/M02 Q1014=
201903250100 METAR LRCV 250100Z 07003KT CAVOK 05/M03 Q1014=
201903250130 METAR LRCV 250130Z 05003KT CAVOK 04/M02 Q1014=
201903250200 METAR LRCV 250200Z 06003KT CAVOK 04/M02 Q1014=
201903250230 METAR LRCV 250230Z 08003KT CAVOK 04/M02 Q1014=
201903250300 METAR LRCV 250300Z 08004KT CAVOK 04/M02 Q1013=
201903250330 METAR LRCV 250330Z 07004KT CAVOK 03/M02 Q1013=
201903250400 METAR LRCV 250400Z 08006KT CAVOK 03/M02 Q1013=
201903250430 METAR LRCV 250430Z 04003KT 010V070 CAVOK 02/M03 Q1013=
201903250500 METAR LRCV 250500Z 02002KT CAVOK 02/M02 Q1013=
201903250530 METAR LRCV 250530Z 02002KT CAVOK 04/M01 Q1012=
201903250600 METAR LRCV 250600Z 36002KT CAVOK 06/M00 Q1012=
201903250630 METAR LRCV 250630Z 01004KT CAVOK 08/M00 Q1012=
201903250700 METAR LRCV 250700Z VRB02KT CAVOK 10/00 Q1012=
201903250730 METAR LRCV 250730Z VRB01KT CAVOK 12/M00 Q1012=
201903250800 METAR LRCV 250800Z VRB02KT CAVOK 14/01 Q1012=
201903250830 METAR LRCV 250830Z 19003KT 140V230 CAVOK 15/00 Q1011=
201903250900 METAR COR LRCV 250900Z 23005KT 160V270 CAVOK 16/M04 Q1011=
201903250930 METAR LRCV 250930Z 24006KT 200V310 CAVOK 17/M04 Q1011=
201903251000 METAR LRCV 251000Z 26008KT 230V290 CAVOK 18/M05 Q1010=
201903251030 METAR LRCV 251030Z 22006KT 200V260 CAVOK 19/M03 Q1010=
201903251100 METAR LRCV 251100Z 25008KT 210V280 CAVOK 20/M03 Q1009=
201903251130 METAR LRCV 251130Z 30007KT 270V330 CAVOK 21/M03 Q1009=
201903251200 METAR LRCV 251200Z 29008KT 260V330 CAVOK 21/M02 Q1008=
201903251230 METAR LRCV 251230Z 28010KT 250V320 CAVOK 22/M03 Q1007=
201903251300 METAR LRCV 251300Z 26009KT 240V300 CAVOK 22/M04 Q1007=
201903251330 METAR LRCV 251330Z 32005KT 250V020 CAVOK 22/M06 Q1007=
201903251400 METAR LRCV 251400Z 32006KT 290V350 CAVOK 22/M04 Q1006=
201903251430 METAR LRCV 251430Z 26013KT CAVOK 22/M05 Q1006=
201903251500 METAR LRCV 251500Z 23009KT 210V270 CAVOK 22/M04 Q1006=
201903251530 METAR LRCV 251530Z 26008KT CAVOK 21/M05 Q1006=
201903251600 METAR COR LRCV 251600Z 26007KT CAVOK 20/M06 Q1006=
201903251630 METAR LRCV 251630Z 27006KT CAVOK 19/M04 Q1006=
201903251700 METAR LRCV 251700Z 26007KT 230V290 CAVOK 17/M03 Q1006=
201903251730 METAR LRCV 251730Z 29009KT CAVOK 16/M02 Q1006=
201903251800 METAR LRCV 251800Z 30010KT CAVOK 16/M01 Q1006=
201903251830 METAR LRCV 251830Z 33008KT CAVOK 14/M01 Q1007=
201903251900 METAR LRCV 251900Z AUTO 34008KT 9999 FEW130/// 13/00 Q1007=
201903251930 METAR LRCV 251930Z AUTO 34006KT 9999 NCD 11/00 Q1006=
201903252000 METAR LRCV 252000Z AUTO 30005KT 270V330 9999 NCD 11/M00 Q1007=
201903252030 METAR LRCV 252030Z AUTO 32009KT 9999 FEW150/// 11/00 Q1006=
201903252100 METAR LRCV 252100Z 32007KT CAVOK 11/01 Q1007=
201903252130 METAR LRCV 252130Z 34006KT CAVOK 11/01 Q1007=
201903252200 METAR LRCV 252200Z 34006KT CAVOK 11/01 Q1007=
201903252230 METAR LRCV 252230Z 31008KT CAVOK 12/00 Q1007=
201903252300 METAR LRCV 252300Z 29006KT CAVOK 12/00 Q1008=
201903252330 METAR LRCV 252330Z 28005KT CAVOK 10/01 Q1008=
201903260000 METAR LRCV 260000Z 32005KT CAVOK 10/01 Q1008=
201903260030 METAR LRCV 260030Z 29005KT CAVOK 09/00 Q1009=
201903260100 METAR LRCV 260100Z 30006KT CAVOK 09/M00 Q1009=
201903260130 METAR LRCV 260130Z 30007KT CAVOK 09/M01 Q1009=
201903260200 METAR LRCV 260200Z 29010KT CAVOK 10/M01 Q1009=
201903260230 METAR LRCV 260230Z 29006KT CAVOK 09/M01 Q1010=
201903260300 METAR LRCV 260300Z 27004KT CAVOK 08/M01 Q1010=
201903260330 METAR LRCV 260330Z 02005KT 310V050 CAVOK 06/M00 Q1011=
201903260400 METAR LRCV 260400Z 29006KT CAVOK 07/M00 Q1011=
201903260430 METAR LRCV 260430Z 24003KT CAVOK 08/M00 Q1012=
201903260500 METAR LRCV 260500Z 25006KT CAVOK 08/00 Q1012=
201903260530 METAR LRCV 260530Z 25006KT CAVOK 08/01 Q1013=
201903260600 METAR LRCV 260600Z 26007KT CAVOK 09/01 Q1013=
201903260630 METAR LRCV 260630Z 26007KT CAVOK 10/M00 Q1013=
201903260700 METAR LRCV 260700Z 25008KT CAVOK 10/M01 Q1013=
201903260730 METAR LRCV 260730Z 26008KT CAVOK 11/M01 Q1013=
201903260800 METAR LRCV 260800Z 24007KT CAVOK 11/M02 Q1013=
201903260830 METAR LRCV 260830Z 25006KT 210V270 CAVOK 12/M02 Q1013=
201903260900 METAR LRCV 260900Z 22005KT 170V240 CAVOK 12/M02 Q1014=
201903260930 METAR COR LRCV 260930Z 21003KT 120V290 CAVOK 13/M01 Q1014=
201903261000 METAR LRCV 261000Z 16005KT 130V230 CAVOK 14/M01 Q1014=
201903261030 METAR LRCV 261030Z VRB02KT CAVOK 14/M01 Q1014=
201903261100 METAR LRCV 261100Z 13004KT 060V170 CAVOK 14/M01 Q1014=
201903261130 METAR LRCV 261130Z 10007KT 060V130 CAVOK 14/00 Q1014=
201903261200 METAR LRCV 261200Z 16004KT CAVOK 15/M00 Q1014=
201903261230 METAR LRCV 261230Z 10008KT 070V130 CAVOK 15/00 Q1014=
201903261300 METAR LRCV 261300Z 09010KT CAVOK 15/00 Q1014=
201903261330 METAR LRCV 261330Z 10011KT CAVOK 15/01 Q1014=
201903261400 METAR LRCV 261400Z 09010KT CAVOK 14/01 Q1014=
201903261430 METAR LRCV 261430Z 09010KT CAVOK 13/02 Q1015=
201903261500 METAR LRCV 261500Z 08011KT CAVOK 13/03 Q1015=
201903261530 METAR LRCV 261530Z 06014KT 9999 FEW047 12/03 Q1015=
201903261600 METAR LRCV 261600Z 04015KT 9999 SCT045 10/02 Q1016=
201903261630 METAR LRCV 261630Z 04016KT 9999 FEW023 SCT030 BKN048 09/03
                        Q1017=
201903261700 METAR LRCV 261700Z 07015KT 9999 -RA SCT030 BKN048 08/02 Q1016=
201903261730 METAR LRCV 261730Z 07012KT 9999 FEW035 08/03 Q1017=
201903261800 METAR LRCV 261800Z AUTO 08013KT 9999 OVC085/// 08/04 Q1017=
201903261830 METAR LRCV 261830Z AUTO 09013KT 9999 OVC090/// 08/05 Q1017=
201903261900 METAR LRCV 261900Z AUTO 09010KT 9999 BKN090/// 07/04 Q1018=
201903261930 METAR LRCV 261930Z AUTO 09010KT 9999 BKN085/// 07/04 Q1018=
201903262000 METAR LRCV 262000Z AUTO 08010KT 9999 FEW007/// SCT050///
                        BKN090/// 06/04 Q1019=
201903262030 METAR LRCV 262030Z AUTO 08008KT 9999 FEW007/// SCT050///
                        BKN070/// 06/04 Q1019=
201903262100 METAR LRCV 262100Z AUTO 18003KT 150V210 9999 FEW037/// SCT050///
                        BKN070/// 06/04 Q1019=
201903262130 METAR LRCV 262130Z AUTO 08002KT 9999 OVC035/// 06/04 Q1020=
201903262200 METAR LRCV 262200Z VRB02KT 9999 FEW010 BKN036 BKN047 06/04
                        Q1020=
201903262230 METAR LRCV 262230Z 35001KT 9999 BKN034 06/04 Q1020=
201903262300 METAR LRCV 262300Z VRB01KT 9999 BKN031 BKN040 06/04 Q1020=
201903262330 METAR LRCV 262330Z 00000KT 9999 BKN031 06/04 Q1020=
201903270000 METAR LRCV 270000Z 34004KT 9999 OVC030 06/04 Q1020=
201903270030 METAR LRCV 270030Z 35005KT 9999 BKN030 06/04 Q1020=
201903270100 METAR LRCV 270100Z 35004KT 9999 BKN034 06/04 Q1020=
201903270130 METAR LRCV 270130Z 35004KT 9999 SCT036 BKN042 06/04 Q1020=
201903270200 METAR LRCV 270200Z 04001KT 9999 SCT035 BKN040 06/04 Q1020=
201903270230 METAR LRCV 270230Z 26003KT 9999 SCT042 05/03 Q1020=
201903270300 METAR LRCV 270300Z 25002KT CAVOK 05/03 Q1020=
201903270330 METAR LRCV 270330Z 24005KT CAVOK 04/03 Q1020=
201903270400 METAR COR LRCV 270400Z 26006KT 8000 PRFG NSC 03/02 Q1020=
201903270430 METAR LRCV 270430Z 24006KT CAVOK 03/02 Q1021=
201903270500 METAR LRCV 270500Z 23006KT CAVOK 04/02 Q1021=
201903270530 METAR LRCV 270530Z 23005KT CAVOK 05/03 Q1021=
201903270600 METAR LRCV 270600Z 22005KT 200V260 CAVOK 05/02 Q1021=
201903270630 METAR LRCV 270630Z 25008KT CAVOK 06/00 Q1021=
201903270700 METAR LRCV 270700Z 27010KT CAVOK 07/M02 Q1021=
201903270730 METAR LRCV 270730Z 27008KT CAVOK 08/M01 Q1022=
201903270800 METAR LRCV 270800Z 27006KT 230V290 CAVOK 08/M02 Q1022=
201903270830 METAR LRCV 270830Z 27005KT 230V300 9999 FEW043 09/M02 Q1022=
201903270900 METAR LRCV 270900Z 30006KT 260V340 9999 FEW042 11/M02 Q1022=
201903270930 METAR LRCV 270930Z 26005KT 220V310 9999 FEW044 11/M02 Q1022=
201903271000 METAR LRCV 271000Z VRB03KT 9999 SCT045 11/M02 Q1022=
201903271030 METAR LRCV 271030Z VRB03KT 9999 SCT048 12/M02 Q1022=
201903271100 METAR LRCV 271100Z 24004KT 180V320 9999 FEW048 12/M03 Q1022=
201903271130 METAR LRCV 271130Z 27007KT 9999 FEW048 13/M04 Q1021=
201903271200 METAR LRCV 271200Z 30007KT 250V330 CAVOK 14/M05 Q1021=
201903271230 METAR LRCV 271230Z 28010KT 260V340 CAVOK 14/M06 Q1021=
201903271300 METAR LRCV 271300Z 27008KT 240V320 CAVOK 14/M06 Q1021=
201903271330 METAR LRCV 271330Z VRB03KT CAVOK 14/M06 Q1021=
201903271400 METAR LRCV 271400Z VRB06KT CAVOK 14/M09 Q1021=
201903271430 METAR LRCV 271430Z 36006KT 330V030 CAVOK 14/M08 Q1021=
201903271500 METAR LRCV 271500Z 04004KT 360V090 CAVOK 14/M08 Q1021=
201903271530 METAR LRCV 271530Z 07001KT CAVOK 14/M09 Q1021=
201903271600 METAR LRCV 271600Z 06001KT CAVOK 14/M08 Q1021=
201903271630 METAR LRCV 271630Z 00000KT CAVOK 13/M08 Q1022=
201903271700 METAR LRCV 271700Z VRB02KT CAVOK 12/M08 Q1022=
201903271730 METAR LRCV 271730Z AUTO 04008KT 9999 NCD 10/M10 Q1023=
201903271800 METAR LRCV 271800Z AUTO 05010KT 9999 NCD 09/M12 Q1023=
201903271830 METAR LRCV 271830Z AUTO 06009KT 9999 FEW240/// 08/M11 Q1024=
201903271900 METAR LRCV 271900Z AUTO 05008KT 9999 NCD 07/M10 Q1024=
201903271930 METAR LRCV 271930Z AUTO 05012KT 9999 FEW240/// 08/M11 Q1024=
201903272000 METAR LRCV 272000Z AUTO 04013KT 9999 NCD 07/M11 Q1025=
201903272030 METAR LRCV 272030Z AUTO 05011KT 9999 NCD 06/M10 Q1025=
201903272100 METAR LRCV 272100Z 06014KT CAVOK 07/M08 Q1025=
201903272130 METAR LRCV 272130Z 06013KT CAVOK 06/M05 Q1026=
201903272200 METAR LRCV 272200Z 06014KT CAVOK 05/M04 Q1026=
201903272230 METAR LRCV 272230Z 06015KT CAVOK 05/M05 Q1026=
201903272300 METAR LRCV 272300Z 06014KT CAVOK 04/M05 Q1027=
201903272330 METAR LRCV 272330Z 07016KT CAVOK 04/M06 Q1027=
201903280000 METAR LRCV 280000Z 07017KT CAVOK 04/M06 Q1027=
201903280030 METAR LRCV 280030Z 06016KT CAVOK 04/M06 Q1027=
201903280100 METAR LRCV 280100Z 07016KT CAVOK 04/M06 Q1027=
201903280130 METAR LRCV 280130Z 07015KT CAVOK 03/M06 Q1027=
201903280200 METAR LRCV 280200Z 06013KT CAVOK 03/M06 Q1028=
201903280230 METAR LRCV 280230Z 06011KT CAVOK 02/M06 Q1028=
201903280300 METAR LRCV 280300Z 06010KT CAVOK 02/M06 Q1028=
201903280330 METAR LRCV 280330Z 05011KT CAVOK 01/M06 Q1028=
201903280400 METAR LRCV 280400Z 05010KT CAVOK 01/M06 Q1028=
201903280430 METAR LRCV 280430Z 05009KT CAVOK 01/M05 Q1029=
201903280500 METAR LRCV 280500Z 04008KT CAVOK 02/M05 Q1029=
201903280530 METAR LRCV 280530Z 04010KT CAVOK 03/M05 Q1029=
201903280600 METAR LRCV 280600Z 06011KT CAVOK 04/M06 Q1029=
201903280630 METAR LRCV 280630Z 07011KT CAVOK 06/M07 Q1029=
201903280700 METAR LRCV 280700Z 08011KT CAVOK 06/M08 Q1029=
201903280730 METAR LRCV 280730Z 11009KT CAVOK 07/M08 Q1029=
201903280800 METAR LRCV 280800Z 09010KT CAVOK 07/M07 Q1029=
201903280830 METAR LRCV 280830Z 07009KT CAVOK 08/M08 Q1029=
201903280900 METAR LRCV 280900Z 08007KT 050V130 CAVOK 09/M07 Q1029=
201903280930 METAR LRCV 280930Z 12008KT CAVOK 10/M08 Q1029=
201903281000 METAR LRCV 281000Z 12008KT CAVOK 10/M08 Q1029=
201903281030 METAR LRCV 281030Z 14005KT 080V220 CAVOK 11/M07 Q1028=
201903281100 METAR LRCV 281100Z VRB04KT CAVOK 11/M08 Q1028=
201903281130 METAR LRCV 281130Z 14006KT 100V170 CAVOK 12/M09 Q1028=
201903281200 METAR LRCV 281200Z VRB03KT CAVOK 12/M08 Q1028=
201903281230 METAR LRCV 281230Z 29004KT 220V320 CAVOK 12/M08 Q1027=
201903281300 METAR LRCV 281300Z 05004KT 330V100 CAVOK 12/M08 Q1027=
201903281330 METAR LRCV 281330Z VRB03KT CAVOK 12/M07 Q1027=
201903281400 METAR LRCV 281400Z VRB02KT CAVOK 13/M08 Q1026=
201903281430 METAR LRCV 281430Z VRB02KT CAVOK 12/M08 Q1026=
201903281500 METAR LRCV 281500Z 17004KT 140V200 CAVOK 13/M08 Q1026=
201903281530 METAR LRCV 281530Z 16003KT 110V200 CAVOK 12/M08 Q1026=
201903281600 METAR LRCV 281600Z 14002KT CAVOK 12/M08 Q1026=
201903281630 METAR LRCV 281630Z 14002KT CAVOK 11/M08 Q1026=
201903281700 METAR LRCV 281700Z 17001KT CAVOK 10/M08 Q1026=
201903281730 METAR LRCV 281730Z AUTO 17004KT 9999 NCD 09/M08 Q1026=
201903281800 METAR LRCV 281800Z AUTO 17002KT 9999 NCD 08/M07 Q1026=
201903281830 METAR LRCV 281830Z AUTO 18002KT 9999 NCD 09/M08 Q1026=
201903281900 METAR LRCV 281900Z AUTO 17002KT 9999 NCD 08/M07 Q1027=
201903281930 METAR LRCV 281930Z AUTO 19003KT 9999 NCD 09/M08 Q1026=
201903282000 METAR LRCV 282000Z AUTO 16003KT 9999 NCD 07/M08 Q1027=
201903282030 METAR LRCV 282030Z AUTO 16001KT 9999 NCD 05/M07 Q1027=
201903282100 METAR LRCV 282100Z AUTO 21001KT 9999 NCD 04/M04 Q1027=
201903282130 METAR LRCV 282130Z AUTO 00000KT 9999 NCD 05/M06 Q1027=
201903282200 METAR LRCV 282200Z 36003KT CAVOK 03/M03 Q1027=
201903282230 METAR LRCV 282230Z 35003KT CAVOK 02/M05 Q1027=
201903282300 METAR LRCV 282300Z 35002KT CAVOK 03/M06 Q1028=
201903282330 METAR LRCV 282330Z 34003KT CAVOK 03/M06 Q1028=
201903290000 METAR LRCV 290000Z 34003KT CAVOK 03/M06 Q1028=
201903290030 METAR LRCV 290030Z 34004KT CAVOK 02/M06 Q1028=
201903290100 METAR LRCV 290100Z 35004KT CAVOK 01/M05 Q1027=
201903290130 METAR LRCV 290130Z 36003KT CAVOK 01/M05 Q1027=
201903290200 METAR LRCV 290200Z 34003KT CAVOK 00/M06 Q1027=
201903290230 METAR LRCV 290230Z 02006KT CAVOK 01/M05 Q1028=
201903290300 METAR LRCV 290300Z 02005KT CAVOK 01/M05 Q1028=
201903290330 METAR LRCV 290330Z 04007KT CAVOK 02/M04 Q1028=
201903290400 METAR LRCV 290400Z 04008KT CAVOK 02/M03 Q1028=
201903290430 METAR LRCV 290430Z 06007KT CAVOK 02/M03 Q1028=
201903290500 METAR LRCV 290500Z 06008KT CAVOK 02/M02 Q1028=
201903290530 METAR LRCV 290530Z 07008KT CAVOK 04/M01 Q1028=
201903290600 METAR LRCV 290600Z 07011KT CAVOK 06/M00 Q1028=
201903290630 METAR LRCV 290630Z 08012KT CAVOK 07/M01 Q1029=
201903290700 METAR LRCV 290700Z 08011KT CAVOK 08/M00 Q1029=
201903290730 METAR LRCV 290730Z 09010KT CAVOK 09/M00 Q1029=
201903290800 METAR LRCV 290800Z 11010KT 080V140 CAVOK 10/M01 Q1029=
201903290830 METAR LRCV 290830Z 13010KT CAVOK 10/M01 Q1029=
201903290900 METAR LRCV 290900Z 12009KT CAVOK 11/M02 Q1028=
201903290930 METAR LRCV 290930Z 13009KT CAVOK 11/M02 Q1028=
201903291000 METAR LRCV 291000Z 13008KT 080V150 CAVOK 12/M03 Q1028=
201903291030 METAR LRCV 291030Z 10005KT 040V170 CAVOK 12/M03 Q1028=
201903291100 METAR LRCV 291100Z 08003KT 040V140 CAVOK 13/M03 Q1028=
201903291130 METAR LRCV 291130Z AUTO 08006KT 040V120 9999 NCD 13/M03 Q1027=
201903291200 METAR LRCV 291200Z 15003KT 110V220 CAVOK 14/M03 Q1027=
201903291230 METAR LRCV 291230Z 10005KT 060V150 CAVOK 13/M03 Q1027=
201903291300 METAR LRCV 291300Z VRB02KT CAVOK 13/M03 Q1026=
201903291330 METAR LRCV 291330Z 16005KT 080V240 CAVOK 14/M03 Q1026=
201903291400 METAR LRCV 291400Z 15005KT 110V210 CAVOK 13/M03 Q1026=
201903291430 METAR LRCV 291430Z 13005KT 050V200 CAVOK 14/M02 Q1025=
201903291500 METAR LRCV 291500Z 17005KT 130V200 CAVOK 14/M03 Q1025=
201903291530 METAR LRCV 291530Z 15005KT 110V220 CAVOK 13/M03 Q1025=
201903291600 METAR LRCV 291600Z 14005KT CAVOK 12/M02 Q1025=
201903291630 METAR LRCV 291630Z 14005KT CAVOK 11/M02 Q1025=
201903291700 METAR LRCV 291700Z 15005KT CAVOK 10/M01 Q1025=
201903291730 METAR LRCV 291730Z 15006KT CAVOK 09/M01 Q1025=
201903291800 METAR LRCV 291800Z 16005KT CAVOK 09/M01 Q1025=
201903291830 METAR LRCV 291830Z AUTO 14006KT 9999 SCT210/// 08/M01 Q1025=
201903291900 METAR LRCV 291900Z AUTO 14005KT 9999 SCT210/// 08/M01 Q1025=
201903291930 METAR LRCV 291930Z AUTO 14006KT 9999 SCT150/// BKN220///
                        08/M01 Q1025=
201903292000 METAR LRCV 292000Z AUTO 13005KT 9999 SCT150/// 07/M01 Q1025=
201903292030 METAR LRCV 292030Z AUTO 11005KT 9999 FEW160/// 07/M01 Q1026=
201903292100 METAR LRCV 292100Z 11004KT CAVOK 06/M01 Q1026=
201903292130 METAR LRCV 292130Z 11004KT CAVOK 06/M01 Q1026=
201903292200 METAR LRCV 292200Z 10004KT CAVOK 05/M01 Q1026=
201903292230 METAR LRCV 292230Z 10005KT CAVOK 04/M01 Q1026=
201903292300 METAR LRCV 292300Z 10004KT CAVOK 04/M02 Q1025=
201903292330 METAR LRCV 292330Z 09003KT CAVOK 03/M02 Q1025=
201903300000 METAR LRCV 300000Z 06005KT CAVOK 03/M02 Q1025=
201903300030 METAR LRCV 300030Z 08006KT CAVOK 02/M02 Q1025=
201903300100 METAR LRCV 300100Z 07006KT CAVOK 02/M02 Q1025=
201903300130 METAR LRCV 300130Z 07005KT CAVOK 02/M02 Q1025=
201903300200 METAR LRCV 300200Z 06003KT CAVOK 02/M02 Q1025=
201903300230 METAR LRCV 300230Z 06004KT CAVOK 01/M02 Q1025=
201903300300 METAR LRCV 300300Z 06003KT CAVOK 01/M02 Q1025=
201903300330 METAR LRCV 300330Z 07003KT CAVOK 01/M02 Q1025=
201903300400 METAR LRCV 300400Z 05002KT CAVOK 01/M02 Q1026=
201903300430 METAR LRCV 300430Z 03002KT CAVOK 01/M02 Q1026=
201903300500 METAR LRCV 300500Z 02002KT CAVOK 02/M02 Q1026=
201903300530 METAR LRCV 300530Z 04003KT CAVOK 04/M01 Q1026=
201903300600 METAR LRCV 300600Z 04003KT CAVOK 06/M00 Q1026=
201903300630 METAR LRCV 300630Z 04003KT CAVOK 07/M01 Q1026=
201903300700 METAR LRCV 300700Z VRB01KT CAVOK 10/M01 Q1026=
201903300730 METAR LRCV 300730Z 16003KT 120V200 CAVOK 11/M00 Q1026=
201903300800 METAR LRCV 300800Z VRB02KT CAVOK 12/M01 Q1026=
201903300830 METAR LRCV 300830Z VRB02KT CAVOK 13/M02 Q1026=
201903300900 METAR LRCV 300900Z VRB02KT CAVOK 13/M01 Q1026=
201903300930 METAR LRCV 300930Z 15004KT CAVOK 14/M01 Q1026=
201903301000 METAR LRCV 301000Z 17005KT 130V230 CAVOK 14/M01 Q1025=
201903301030 METAR LRCV 301030Z 16004KT 120V240 CAVOK 14/M02 Q1025=
201903301100 METAR LRCV 301100Z VRB02KT CAVOK 15/M02 Q1024=
201903301130 METAR LRCV 301130Z VRB03KT CAVOK 15/M02 Q1024=
201903301200 METAR LRCV 301200Z VRB04KT CAVOK 16/M02 Q1023=
201903301230 METAR LRCV 301230Z VRB03KT CAVOK 16/M02 Q1023=
201903301300 METAR LRCV 301300Z 31005KT 230V360 CAVOK 16/M03 Q1022=
201903301330 METAR LRCV 301330Z VRB02KT CAVOK 17/M03 Q1022=
201903301400 METAR LRCV 301400Z 25005KT 170V300 CAVOK 17/M03 Q1022=
201903301430 METAR LRCV 301430Z 30003KT 240V360 CAVOK 17/M04 Q1021=
201903301500 METAR LRCV 301500Z 15003KT 090V210 CAVOK 17/M02 Q1021=
201903301530 METAR LRCV 301530Z 17005KT CAVOK 16/M01 Q1021=
201903301600 METAR LRCV 301600Z 18006KT CAVOK 15/M00 Q1021=
201903301630 METAR LRCV 301630Z AUTO 18005KT 9999 NCD 14/00 Q1021=
201903301700 METAR LRCV 301700Z 18005KT CAVOK 13/M00 Q1021=
201903301730 METAR LRCV 301730Z AUTO 18005KT 9999 NCD 13/M01 Q1021=
201903301800 METAR LRCV 301800Z AUTO 17007KT 9999 NCD 11/M00 Q1021=
201903301830 METAR LRCV 301830Z AUTO 17006KT 9999 NCD 10/00 Q1022=
201903301900 METAR LRCV 301900Z AUTO 17006KT 9999 NCD 10/M00 Q1022=
201903301930 METAR LRCV 301930Z AUTO 17005KT 9999 NCD 10/M00 Q1022=
201903302000 METAR LRCV 302000Z AUTO 16005KT 9999 NCD 10/00 Q1022=
201903302030 METAR LRCV 302030Z AUTO 16004KT 9999 NCD 09/00 Q1022=
201903302100 METAR LRCV 302100Z AUTO 16004KT 9999 NCD 09/M00 Q1022=
201903302130 METAR LRCV 302130Z AUTO 16004KT 9999 NCD 09/M00 Q1022=
201903302200 METAR LRCV 302200Z 16004KT CAVOK 09/M00 Q1022=
201903302230 METAR LRCV 302230Z 16004KT CAVOK 09/M00 Q1021=
201903302300 METAR LRCV 302300Z 18003KT CAVOK 09/M00 Q1021=
201903302330 METAR LRCV 302330Z 35002KT CAVOK 05/M00 Q1021=
201903310000 METAR LRCV 310000Z 36003KT CAVOK 05/M00 Q1021=
201903310030 METAR LRCV 310030Z 35003KT CAVOK 04/M01 Q1021=
201903310100 METAR LRCV 310100Z 35003KT CAVOK 04/M01 Q1021=
201903310130 METAR LRCV 310130Z 02002KT CAVOK 04/M01 Q1020=
201903310200 METAR LRCV 310200Z 08002KT CAVOK 04/M01 Q1020=
201903310230 METAR LRCV 310230Z 36003KT 9999 NCD 03/M01 Q1020=
201903310300 METAR LRCV 310300Z 36003KT CAVOK 03/M01 Q1020=
201903310330 METAR LRCV 310330Z 35004KT CAVOK 02/M01 Q1020=
201903310400 METAR LRCV 310400Z 36003KT CAVOK 02/M01 Q1020=
201903310430 METAR LRCV 310430Z 01002KT CAVOK 02/M01 Q1020=
201903310500 METAR LRCV 310500Z 03003KT CAVOK 04/M01 Q1020=
201903310530 METAR LRCV 310530Z 00000KT CAVOK 06/01 Q1020=
201903310600 METAR LRCV 310600Z VRB01KT CAVOK 08/02 Q1020=
201903310630 METAR LRCV 310630Z 27004KT 230V290 CAVOK 08/01 Q1020=
201903310700 METAR LRCV 310700Z VRB02KT CAVOK 10/02 Q1020=
201903310730 METAR LRCV 310730Z VRB02KT CAVOK 12/01 Q1020=
201903310800 METAR LRCV 310800Z 28004KT 240V310 CAVOK 13/01 Q1020=
201903310830 METAR LRCV 310830Z 23005KT 200V290 CAVOK 14/00 Q1019=
201903310900 METAR LRCV 310900Z 24005KT 160V290 CAVOK 16/00 Q1019=
201903310930 METAR LRCV 310930Z 22005KT 150V280 CAVOK 16/M00 Q1019=
201903311000 METAR LRCV 311000Z 21005KT 180V250 CAVOK 16/M01 Q1018=
201903311030 METAR LRCV 311030Z 23005KT 150V290 CAVOK 17/00 Q1018=
201903311100 METAR LRCV 311100Z 26003KT 210V340 CAVOK 18/00 Q1018=
201903311130 METAR LRCV 311130Z 29006KT CAVOK 18/M01 Q1017=
201903311200 METAR LRCV 311200Z 27005KT 170V320 CAVOK 19/M01 Q1017=
201903311230 METAR LRCV 311230Z 24006KT 200V300 CAVOK 19/M01 Q1016=
201903311300 METAR LRCV 311300Z VRB02KT CAVOK 20/M01 Q1016=
201903311330 METAR LRCV 311330Z VRB03KT CAVOK 20/M02 Q1015=
201903311400 METAR LRCV 311400Z VRB03KT CAVOK 20/M02 Q1015=
201903311430 METAR LRCV 311430Z 27004KT 200V360 CAVOK 20/M03 Q1015=
201903311500 METAR LRCV 311500Z VRB02KT CAVOK 20/M04 Q1014=
201903311530 METAR LRCV 311530Z 22004KT 150V260 CAVOK 19/M02 Q1014=
201903311600 METAR LRCV 311600Z 19003KT 160V220 CAVOK 19/M01 Q1014=
201903311630 METAR LRCV 311630Z 19006KT CAVOK 17/01 Q1014=
201903311700 METAR LRCV 311700Z 19006KT CAVOK 15/01 Q1014=
201903311730 METAR LRCV 311730Z AUTO 18005KT 9999 NCD 15/01 Q1014=
201903311800 METAR LRCV 311800Z AUTO 19005KT 9999 NCD 14/01 Q1014=
201903311830 METAR LRCV 311830Z AUTO 17006KT 9999 NCD 14/01 Q1015=
201903311900 METAR LRCV 311900Z AUTO 18006KT 9999 NCD 13/00 Q1015=
201903311930 METAR LRCV 311930Z AUTO 19005KT 9999 NCD 13/M00 Q1015=
201903312000 METAR LRCV 312000Z 20005KT CAVOK 13/M00 Q1014=
201903312030 METAR LRCV 312030Z 20005KT CAVOK 13/M00 Q1015=
201903312100 METAR LRCV 312100Z 18005KT CAVOK 12/M01 Q1015=
201903312130 METAR LRCV 312130Z 19005KT CAVOK 12/M01 Q1015=
201903312200 METAR LRCV 312200Z 18004KT CAVOK 12/M01 Q1015=
201903312230 METAR LRCV 312230Z VRB01KT CAVOK 10/M00 Q1015=
201903312300 METAR LRCV 312300Z 35002KT CAVOK 07/01 Q1015=
201903312330 METAR LRCV 312330Z VRB02KT CAVOK 07/M00 Q1015=
