201905010200 TAF LRCV 010200Z 0103/0112 23010KT 9999 BKN035
                      BECMG 0104/0106 26015G25KT=
201905010500 TAF LRCV 010500Z 0106/0115 26015KT 9999 BKN025
                      TEMPO 0107/0114 26020G30KT=
201905010800 TAF LRCV 010800Z 0109/0118 26020KT 9999 BKN030
                      TEMPO 0109/0114 26020G30KT
                      BECMG 0116/0118 26010KT=
201905011100 TAF LRCV 011100Z 0112/0121 26020KT 9999 SCT030
                      TEMPO 0112/0114 26020G30KT
                      BECMG 0116/0118 26010KT=
201905011400 TAF LRCV 011400Z 0115/0124 26016KT 9999 SCT030
                      TEMPO 0115/0118 26018G28KT
                      BECMG 0120/0122 30006KT=
201905011700 TAF LRCV 011700Z 0118/0203 26012KT CAVOK
                      BECMG 0120/0122 VRB04KT=
201905012000 TAF LRCV 012000Z 0121/0206 28010KT CAVOK=
201905012300 TAF LRCV 012300Z 0200/0209 28010KT CAVOK=
201905020200 TAF LRCV 020200Z 0203/0212 28010KT CAVOK=
201905020500 TAF LRCV 020500Z 0206/0215 28010KT CAVOK=
201905020800 TAF LRCV 020800Z 0209/0218 28010KT CAVOK=
201905021100 TAF LRCV 021100Z 0212/0221 28010KT CAVOK=
201905021400 TAF LRCV 021400Z 0215/0224 28015KT CAVOK
                      TEMPO 0215/0217 FEW050CB
                      BECMG 0217/0219 30005KT=
201905021700 TAF LRCV 021700Z 0218/0303 28008KT CAVOK=
201905022000 TAF LRCV 022000Z 0221/0306 28008KT CAVOK=
201905022300 TAF LRCV 022300Z 0300/0309 26005KT CAVOK=
201905030200 TAF LRCV 030200Z 0303/0312 28008KT CAVOK=
201905030500 TAF LRCV 030500Z 0306/0315 VRB04KT CAVOK
                      BECMG 0308/0310 27010KT=
201905030800 TAF LRCV 030800Z 0309/0318 26008KT CAVOK=
201905031100 TAF LRCV 031100Z 0312/0321 26010KT CAVOK
                      BECMG 0314/0316 VRB04KT=
201905031400 TAF LRCV 031400Z 0315/0324 26010KT CAVOK
                      BECMG 0315/0317 VRB04KT=
201905031700 TAF LRCV 031700Z 0318/0403 27005KT CAVOK=
201905032000 TAF LRCV 032000Z 0321/0406 28005KT CAVOK=
201905032300 TAF LRCV 032300Z 0400/0409 28005KT CAVOK=
201905040200 TAF LRCV 040200Z 0403/0412 VRB04KT CAVOK=
201905040500 TAF LRCV 040500Z 0406/0415 VRB04KT CAVOK=
201905040800 TAF LRCV 040800Z 0409/0418 VRB04KT CAVOK=
201905041100 TAF LRCV 041100Z 0412/0421 14008KT CAVOK
                      TEMPO 0412/0416 SCT040CB=
201905041400 TAF LRCV 041400Z 0415/0424 14008KT CAVOK
                      TEMPO 0415/0416 SCT040CB=
201905041700 TAF LRCV 041700Z 0418/0503 11008KT CAVOK=
201905042000 TAF LRCV 042000Z 0421/0506 10006KT CAVOK=
201905042300 TAF LRCV 042300Z 0500/0509 VRB04KT CAVOK=
201905050200 TAF LRCV 050200Z 0503/0512 07006KT CAVOK=
201905050500 TAF LRCV 050500Z 0506/0515 06012KT CAVOK
                      TEMPO 0508/0513 5000 -SHRA SCT040CB BKN045=
201905050800 TAF LRCV 050800Z 0509/0518 07008KT 9999 SCT045
                      TEMPO 0509/0513 5000 -SHRA SCT040CB BKN045=
201905051100 TAF LRCV 051100Z 0512/0521 07008KT 9999 SCT045
                      PROB30 TEMPO 0513/0516 5000 -SHRA SCT040CB
                       BKN045
                      BECMG 0516/0518 30010KT
                      TEMPO 0518/0521 5000 -TSRA SCT040CB BKN045=
201905051400 TAF LRCV 051400Z 0515/0524 03008KT CAVOK
                      BECMG 0516/0518 30010KT
                      TEMPO 0517/0520 5000 -TSRA SCT040CB BKN045
                       BECMG 0520/0522 VRB04KT 3000 BR BKN015
                      TEMPO 0522/0524 0800 FG BKN005=
201905051700 TAF LRCV 051700Z 0518/0603 03008KT 9999 SCT045
                      BECMG 0518/0520 5000 RA BKN015 BKN045
                      TEMPO 0520/0524 5000 SHRA BKN015 SCT035CB
                       OVC040=
201905052000 TAF LRCV 052000Z 0521/0606 30010KT 9999 -RA BKN045
                      TEMPO 0521/0524 5000 SHRA BKN015 SCT035CB
                       OVC040=
201905052300 TAF LRCV 052300Z 0600/0609 03008KT 9999 BKN045
                      TEMPO 0601/0606 5000 SHRA BKN015 SCT035CB
                       OVC040=
201905060200 TAF LRCV 060200Z 0603/0612 VRB04KT 0600 -DZ BR BKN005
                      TEMPO 0603/0604 0350 FG VV001
                      BECMG 0604/0606 26010KT 3000 BKN010 OVC035
                       BECMG 0606/0608 9999 NSW BKN020 OVC045=
201905060500 TAF LRCV 060500Z 0606/0615 26007KT 0300 FG VV001
                      TEMPO 0606/0608 3000 BR BKN005
                      BECMG 0608/0610 9999 NSW SCT010 BKN040
                      TEMPO 0610/0615 5000 SHRA SCT015 SCT030CB
                       PROB30
                      TEMPO 0611/0615 3000 TSRA
                      BECMG 0611/0613 27017KT=
201905060632 TAF AMD LRCV 060632Z 0606/0615 26007KT 2000 BR OVC002
                      BECMG 0607/0609 9999 NSW SCT010 BKN040
                      TEMPO 0610/0615 5000 SHRA SCT015 SCT030CB
                       PROB30
                      TEMPO 0611/0615 3000 TSRA
                      BECMG 0611/0613 27017KT=
201905060800 TAF LRCV 060800Z 0609/0618 26010KT 9999 SCT015 BKN040
                      TEMPO 0609/0614 5000 -SHRA SCT010 SCT030CB
                       PROB40
                      TEMPO 0610/0613 VRB15KT 3000 TSRA
                      BECMG 0613/0615 27020KT=
201905061100 TAF LRCV 061100Z 0612/0621 26007KT 9999 SCT015 BKN030
                      TEMPO 0612/0616 5000 TSRA SCT010 SCT030CB
                       BKN040
                      PROB30 TEMPO 0613/0615 VRB15G25KT 1500 +TSRA
                       BECMG 0615/0617 27017KT=
201905061400 TAF LRCV 061400Z 0615/0624 26007KT 9999 BKN030
                      BECMG 0615/0617 27017KT
                      PROB30 TEMPO 0615/0618 SCT015 FEW030CB=
201905061700 TAF LRCV 061700Z 0618/0703 26015KT 9999 SCT045=
201905062000 TAF LRCV 062000Z 0621/0706 26016KT CAVOK=
201905062300 TAF LRCV 062300Z 0700/0709 26014KT CAVOK=
201905070200 TAF LRCV 070200Z 0703/0712 26015KT CAVOK=
201905070500 TAF LRCV 070500Z 0706/0715 26015KT 9999 SCT030
                      PROB40 TEMPO 0712/0715 30015G25KT=
201905070800 TAF LRCV 070800Z 0709/0718 26015KT 9999 SCT045
                      PROB40 TEMPO 0712/0715 30015G25KT=
201905071100 TAF LRCV 071100Z 0712/0721 26015KT 9999 SCT045
                      PROB40 TEMPO 0712/0715 29015G25KT=
201905071400 TAF LRCV 071400Z 0715/0724 31015KT 9999 SCT045
                      PROB30 TEMPO 0715/0717 30015G25KT=
201905071700 TAF LRCV 071700Z 0718/0803 31015KT CAVOK
                      BECMG 0720/0722 30005KT=
201905072000 TAF LRCV 072000Z 0721/0806 27006KT CAVOK=
201905072300 TAF LRCV 072300Z 0800/0809 28006KT CAVOK=
201905080200 TAF LRCV 080200Z 0803/0812 28008KT CAVOK=
201905080500 TAF LRCV 080500Z 0806/0815 28006KT CAVOK=
201905080800 TAF LRCV 080800Z 0809/0818 28006KT CAVOK=
201905081100 TAF LRCV 081100Z 0812/0821 28006KT CAVOK=
201905081400 TAF LRCV 081400Z 0815/0824 28006KT CAVOK=
201905081700 TAF LRCV 081700Z 0818/0903 12004KT CAVOK=
201905082000 TAF LRCV 082000Z 0821/0906 VRB04KT CAVOK
                      BECMG 0902/0904 08012KT=
201905082300 TAF LRCV 082300Z 0900/0909 VRB04KT CAVOK
                      BECMG 0902/0904 08012KT=
201905090200 TAF LRCV 090200Z 0903/0912 VRB04KT CAVOK
                      BECMG 0903/0905 08012KT=
201905090500 TAF LRCV 090500Z 0906/0915 06010KT CAVOK=
201905090800 TAF LRCV 090800Z 0909/0918 09010KT CAVOK
                      BECMG 0914/0916 VRB04KT 5000 -RA BR BKN015
                       BKN040=
201905091100 TAF LRCV 091100Z 0912/0921 09010KT CAVOK
                      BECMG 0915/0917 VRB04KT 5000 -RA BR BKN015
                       BKN040=
201905091400 TAF LRCV 091400Z 0915/0924 VRB04KT CAVOK
                      BECMG 0917/0919 5000 -RA BR BKN015 BKN040=
201905091700 TAF LRCV 091700Z 0918/1003 VRB04KT 9999 -RA BKN035
                      TEMPO 0918/0923 5000 -RA BR BKN010 BKN025=
201905092000 TAF LRCV 092000Z 0921/1006 VRB04KT 9999 -RA BKN035
                      TEMPO 0921/1002 3000 RA BR BKN010 BKN025=
201905092300 TAF LRCV 092300Z 1000/1009 08008KT 9999 BKN035
                      TEMPO 1000/1005 3000 -RA BR BKN010 BKN025=
201905100200 TAF LRCV 100200Z 1003/1012 08008KT 5000 -RA BR BKN010 BKN035
                      TEMPO 1003/1009 3000 RA BR BKN002 BKN025
                       BECMG 1010/1012 9999 NSW BKN020=
201905100500 TAF LRCV 100500Z 1006/1015 VRB04KT 5000 BR BKN010 BKN020
                      TEMPO 1006/1009 3000 -RA BR BKN002 BKN015
                       BECMG 1012/1014 9999 NSW SCT025=
201905100800 TAF LRCV 100800Z 1009/1018 27010KT 9999 BKN010 BKN020
                      BECMG 1010/1012 SCT025
                      TEMPO 1012/1017 SCT025CB=
201905101100 TAF LRCV 101100Z 1012/1021 28010KT 9999 SCT030
                      TEMPO 1012/1015 SCT030CB=
201905101400 TAF LRCV 101400Z 1015/1024 27010KT 9999 SCT035
                      TEMPO 1015/1017 SCT035CB=
201905101700 TAF LRCV 101700Z 1018/1103 30008KT 9999 SCT045
                      TEMPO 1018/1020 SCT040CB=
201905102000 TAF LRCV 102000Z 1021/1106 27006KT CAVOK=
201905102300 TAF LRCV 102300Z 1100/1109 28008KT CAVOK=
201905110200 TAF LRCV 110200Z 1103/1112 27008KT CAVOK=
201905110500 TAF LRCV 110500Z 1106/1115 30008KT CAVOK=
201905110800 TAF LRCV 110800Z 1109/1118 28010KT CAVOK=
201905111100 TAF LRCV 111100Z 1112/1121 28010KT CAVOK
                      BECMG 1117/1119 VRB04KT=
201905111400 TAF LRCV 111400Z 1115/1124 VRB04KT CAVOK=
201905111700 TAF LRCV 111700Z 1118/1203 25010KT CAVOK
                      BECMG 1119/1121 07006KT
                      TEMPO 1200/1203 3000 BR=
201905112000 TAF LRCV 112000Z 1121/1206 VRB04KT CAVOK
                      TEMPO 1200/1205 3000 BR=
201905112300 TAF LRCV 112300Z 1200/1209 07010KT CAVOK=
201905120200 TAF LRCV 120200Z 1203/1212 07008KT CAVOK=
201905120500 TAF LRCV 120500Z 1206/1215 08012KT CAVOK=
201905120800 TAF LRCV 120800Z 1209/1218 08012KT CAVOK=
201905121100 TAF LRCV 121100Z 1212/1221 08012KT CAVOK=
201905121400 TAF LRCV 121400Z 1215/1224 08016KT CAVOK=
201905121700 TAF LRCV 121700Z 1218/1303 08015KT CAVOK=
201905122000 TAF LRCV 122000Z 1221/1306 06014KT CAVOK=
201905122300 TAF LRCV 122300Z 1300/1309 08015KT CAVOK=
201905130200 TAF LRCV 130200Z 1303/1312 07015KT CAVOK
                      TEMPO 1306/1312 08016G26KT=
201905130500 TAF LRCV 130500Z 1306/1315 06016KT CAVOK
                      TEMPO 1306/1315 06018G28KT=
201905130800 TAF LRCV 130800Z 1309/1318 08020KT CAVOK
                      TEMPO 1309/1315 08020G30KT=
201905131100 TAF LRCV 131100Z 1312/1321 08022KT CAVOK
                      TEMPO 1316/1321 SCT040CB
                      BECMG 1318/1320 08012KT=
201905131400 TAF LRCV 131400Z 1315/1324 08018KT CAVOK
                      TEMPO 1316/1322 SCT040CB=
201905131700 TAF LRCV 131700Z 1318/1403 08012KT CAVOK
                      TEMPO 1400/1403 5000 SHRA BKN015 SCT035CB
                       OVC040=
201905132000 TAF LRCV 132000Z 1321/1406 08012KT CAVOK
                      TEMPO 1400/1405 5000 SHRA BKN015 SCT035CB
                       OVC040=
201905132300 TAF LRCV 132300Z 1400/1409 08012KT 9999 BKN035
                      TEMPO 1400/1405 5000 SHRA BKN015 SCT035CB
                       OVC040=
201905140200 TAF LRCV 140200Z 1403/1412 08010KT 9999 BKN035
                      TEMPO 1403/1406 5000 SHRA BKN015 SCT035CB
                       OVC040=
201905140500 TAF LRCV 140500Z 1406/1415 08010KT 9999 BKN035
                      TEMPO 1406/1415 5000 SHRA BKN015 SCT035CB
                       OVC040
                      PROB40 TEMPO 1413/1415 VRB20KT 5000 TSRA=
201905140800 TAF LRCV 140800Z 1409/1418 08012KT 9999 BKN035
                      TEMPO 1410/1418 5000 SHRA BKN010 SCT035CB
                       OVC040
                      PROB40 TEMPO 1413/1418 VRB20KT 5000 TSRA=
201905141100 TAF LRCV 141100Z 1412/1421 08012KT 9999 BKN035
                      TEMPO 1413/1421 5000 SHRA BKN010 SCT035CB
                       OVC040
                      PROB40 TEMPO 1416/1421 VRB20KT 3000 TSRA=
201905141400 TAF LRCV 141400Z 1415/1424 08012KT 9999 SCT015 BKN035
                      TEMPO 1415/1421 5000 SHRA BKN010 SCT035CB
                       OVC040
                      PROB40 TEMPO 1415/1418 VRB20KT 3000 TSRA=
201905141700 TAF LRCV 141700Z 1418/1503 07016KT 9999 SCT035
                      TEMPO 1418/1422 5000 SHRA BKN010 SCT030CB
                       BKN035
                      BECMG 1423/1501 10006KT
                      PROB40 TEMPO 1501/1503 5000 -SHRA BKN010
                       SCT030CB BKN035=
201905142000 TAF LRCV 142000Z 1421/1506 06012KT 9999 SCT015 SCT035
                      BECMG 1500/1502 VRB04KT
                      PROB40 TEMPO 1501/1505 5000 -SHRA BKN010
                       SCT030CB BKN035=
201905142300 TAF LRCV 142300Z 1500/1509 07012KT 9999 BKN015 SCT035
                      BECMG 1500/1502 VRB04KT
                      PROB40 TEMPO 1501/1505 5000 -SHRA BKN010
                       SCT030CB BKN035
                      BECMG 1506/1508 27010KT=
201905150200 TAF LRCV 150200Z 1503/1512 10007KT 5000 BR BKN010 BKN025
                      TEMPO 1503/1505 3000 BR BKN005 BKN020
                      BECMG 1506/1508 27010KT 9999 NSW SCT010 BKN030=
201905150500 TAF LRCV 150500Z 1506/1515 28006KT 3000 -DZ BR OVC002
                      BECMG 1508/1510 9999 NSW BKN015
                      BECMG 1510/1512 SCT025=
201905150704 TAF AMD LRCV 150704Z 1507/1515 28006KT 0800 -DZ FG OVC001
                      BECMG 1508/1510 5000 BR BKN010
                      BECMG 1510/1512 9999 NSW SCT025=
201905150800 TAF LRCV 150800Z 1509/1518 28006KT 0800 -DZ FG OVC001
                      BECMG 1509/1511 5000 BR BKN010
                      BECMG 1511/1513 9999 NSW SCT025=
201905151100 TAF LRCV 151100Z 1512/1521 VRB04KT 9999 BKN035
                      PROB30 TEMPO 1513/1517 5000 -TSRA SCT030CB
                       BKN035=
201905151400 TAF LRCV 151400Z 1515/1524 VRB04KT 9999 BKN035
                      PROB30 TEMPO 1515/1517 5000 -TSRA SCT030CB
                       BKN035=
201905151700 TAF LRCV 151700Z 1518/1603 VRB04KT 9999 FEW030CB BKN040
                      BECMG 1518/1520 SCT040
                      BECMG 1522/1524 5000 BR BKN010
                      BECMG 1600/1602 3000 BR OVC005=
201905151929 TAF AMD LRCV 151929Z 1519/1603 VRB04KT 3000 BR SCT005 OVC010
                      BECMG 1520/1522 1500 BR OVC002
                      TEMPO 1522/1603 0600 FG OVC001=
201905152000 TAF LRCV 152000Z 1521/1606 VRB04KT 3000 BR BKN005
                      BECMG 1521/1523 1500 BR BKN002
                      TEMPO 1523/1605 0600 FG OVC001=
201905152300 TAF LRCV 152300Z 1600/1609 VRB04KT 0600 FG OVC001
                      TEMPO 1600/1604 0350 FG
                      BECMG 1604/1606 3000 BR BKN010
                      BECMG 1607/1609 9999 NSW SCT010 BKN020=
201905160200 TAF LRCV 160200Z 1603/1612 VRB04KT 0600 FG OVC001
                      BECMG 1604/1606 1500 -RA BR BKN005 OVC030
                       BECMG 1607/1609 9999 NSW SCT010 BKN020=
201905160500 TAF LRCV 160500Z 1606/1615 28006KT 1500 BR BKN002 OVC005
                      BECMG 1606/1608 3000 -RA BR BKN010 OVC030
                       TEMPO 1608/1612 1500 SHRA BKN005 SCT020CB
                       BKN025=
201905160800 TAF LRCV 160800Z 1609/1618 10008KT 9999 BKN010 BKN035
                      TEMPO 1609/1612 BKN005 SCT020CB OVC030
                      PROB40 TEMPO 1609/1612 5000 -SHRA
                      PROB40 TEMPO 1615/1618 5000 -TSRA BKN005
                       SCT020CB OVC030=
201905161100 TAF LRCV 161100Z 1612/1621 VRB04KT 9999 BKN035
                      TEMPO 1613/1618 BKN010 SCT020CB OVC030
                      PROB40 TEMPO 1615/1618 5000 -TSRA=
201905161400 TAF LRCV 161400Z 1615/1624 06008KT 9999 BKN040
                      TEMPO 1615/1619 5000 -TSRA BKN010 SCT030CB
                       BKN035=
201905161700 TAF LRCV 161700Z 1618/1703 VRB04KT CAVOK
                      BECMG 1620/1622 3000 BR BKN010
                      BECMG 1622/1624 0800 FG OVC002=
201905162000 TAF LRCV 162000Z 1621/1706 VRB04KT CAVOK
                      BECMG 1621/1623 3000 BR BKN010
                      TEMPO 1623/1704 0800 FG OVC002=
201905162300 TAF LRCV 162300Z 1700/1709 VRB04KT 5000 BR SCT040
                      TEMPO 1700/1704 1500 BR BKN003
                      PROB30 TEMPO 1701/1704 0600 FG OVC001
                      BECMG 1705/1707 9999 NSW=
201905170200 TAF LRCV 170200Z 1703/1712 VRB04KT 9999 BKN040
                      TEMPO 1703/1705 3000 BR=
201905170453 TAF AMD LRCV 170453Z 1704/1712 VRB04KT 9999 BKN005 BKN040
                      BECMG 1705/1707 SCT005 BKN015
                      BECMG 1708/1710 BKN025=
201905170500 TAF LRCV 170500Z 1706/1715 28006KT 9999 BKN005 BKN040
                      BECMG 1706/1708 SCT005 BKN015
                      BECMG 1708/1710 BKN025=
201905170800 TAF LRCV 170800Z 1709/1718 28006KT 9999 SCT015 SCT030
                      TEMPO 1709/1710 BKN010 BKN025
                      TEMPO 1714/1718 SCT035CB
                      PROB40 TEMPO 1715/1718 VRB15G25KT 5000 -TSRA=
201905171100 TAF LRCV 171100Z 1712/1721 VRB04KT 9999 SCT030
                      TEMPO 1714/1718 SCT035CB
                      PROB40 TEMPO 1715/1718 VRB15G25KT 5000 -TSRA=
201905171400 TAF LRCV 171400Z 1715/1724 12006KT 9999 SCT035CB
                      TEMPO 1715/1717 VRB15G25KT 5000 -TSRA
                      BECMG 1717/1719 SCT035=
201905171700 TAF LRCV 171700Z 1718/1803 12006KT 9999 SCT035
                      BECMG 1723/1801 5000 BR
                      TEMPO 1801/1803 1500 BR BKN005=
201905172000 TAF LRCV 172000Z 1721/1806 VRB04KT 5000 BR NSC
                      BECMG 1723/1801 1500 BR BKN005
                      TEMPO 1801/1805 0600 FG BKN002=
201905172300 TAF LRCV 172300Z 1800/1809 VRB04KT 3000 BR NSC
                      BECMG 1800/1802 0800 FG BKN002
                      TEMPO 1802/1805 0350 FG VV001
                      BECMG 1805/1807 3000 BR SCT015
                      BECMG 1807/1809 CAVOK=
201905180200 TAF LRCV 180200Z 1803/1812 VRB04KT 3000 BR NSC
                      TEMPO 1803/1805 1500 BR
                      BECMG 1805/1807 5000 BR
                      BECMG 1807/1809 CAVOK=
201905180311 TAF AMD LRCV 180311Z 1803/1812 VRB04KT 0350 FG NSC
                      TEMPO 1803/1805 0150 FG BKN001
                      BECMG 1805/1807 3000 BR
                      BECMG 1807/1809 9999 NSW=
201905180500 TAF LRCV 180500Z 1806/1815 VRB04KT 0800 FG BKN005
                      TEMPO 1806/1807 0350 FG BKN001
                      BECMG 1807/1809 5000 BR BKN010 OVC045
                      PROB40 TEMPO 1812/1815 VRB15G25KT 1500 TSRA
                       BKN005 BKN025CB OVC040=
201905180800 TAF LRCV 180800Z 1809/1818 VRB04KT 9999 BKN040
                      PROB40 TEMPO 1813/1818 VRB15G25KT 3000 TSRA
                       BKN005 BKN025CB=
201905181100 TAF LRCV 181100Z 1812/1821 VRB04KT 9999 BKN040
                      PROB30 1813/1818 5000 -TSRA BKN005 BKN025CB=
201905181400 TAF LRCV 181400Z 1815/1824 VRB04KT CAVOK=
201905181700 TAF LRCV 181700Z 1818/1903 VRB04KT CAVOK
                      TEMPO 1900/1903 5000 BR=
201905182000 TAF LRCV 182000Z 1821/1906 VRB04KT CAVOK
                      TEMPO 1900/1904 5000 BR=
201905182300 TAF LRCV 182300Z 1900/1909 VRB04KT CAVOK
                      TEMPO 1901/1904 5000 BR=
201905190200 TAF LRCV 190200Z 1903/1912 VRB04KT CAVOK
                      TEMPO 1903/1905 5000 BR
                      BECMG 1907/1909 12010KT=
201905190500 TAF LRCV 190500Z 1906/1915 VRB04KT CAVOK
                      BECMG 1907/1909 12010KT=
201905190800 TAF LRCV 190800Z 1909/1918 11010KT CAVOK
                      TEMPO 1913/1917 SCT045CB=
201905191100 TAF LRCV 191100Z 1912/1921 11012KT CAVOK
                      TEMPO 1913/1917 SCT040CB=
201905191400 TAF LRCV 191400Z 1915/1924 10012KT CAVOK
                      TEMPO 1915/1918 SCT040CB=
201905191700 TAF LRCV 191700Z 1918/2003 07012KT CAVOK
                      BECMG 1921/1923 VRB04KT=
201905192000 TAF LRCV 192000Z 1921/2006 07010KT CAVOK
                      BECMG 1922/1924 VRB04KT
                      BECMG 2004/2006 30010KT=
201905192300 TAF LRCV 192300Z 2000/2009 08010KT CAVOK
                      BECMG 2004/2006 30010KT=
201905200200 TAF LRCV 200200Z 2003/2012 VRB04KT CAVOK
                      BECMG 2004/2006 30010KT
                      TEMPO 2009/2012 VRB20KT 5000 TSRA SCT040CB=
201905200500 TAF LRCV 200500Z 2006/2015 VRB04KT CAVOK
                      BECMG 2011/2013 31010KT
                      TEMPO 2013/2015 VRB20G30KT 3000 TSRA BKN010
                       BKN040CB=
201905200800 TAF LRCV 200800Z 2009/2018 29008KT CAVOK
                      TEMPO 2014/2018 VRB20G30KT 3000 TSRA BKN010
                       BKN040CB=
201905201100 TAF LRCV 201100Z 2012/2021 29008KT CAVOK
                      TEMPO 2012/2017 VRB15G25KT 3000 TSRA BKN010
                       BKN030CB
                      PROB30 2012/2015 1500 +TSRA=
201905201400 TAF LRCV 201400Z 2015/2024 26008KT CAVOK
                      TEMPO 2015/2019 3000 SHRA BKN010 BKN030CB=
201905201700 TAF LRCV 201700Z 2018/2103 24009KT CAVOK
                      PROB30 TEMPO 2020/2022 5000 -SHRA SCT040CB=
201905202000 TAF LRCV 202000Z 2021/2106 20009KT CAVOK
                      TEMPO 2102/2106 SCT040CB=
201905202300 TAF LRCV 202300Z 2100/2109 20008KT CAVOK
                      TEMPO 2102/2107 SCT040CB=
201905210200 TAF LRCV 210200Z 2103/2112 23007KT CAVOK=
201905210500 TAF LRCV 210500Z 2106/2115 24008KT CAVOK
                      TEMPO 2112/2115 SCT040CB=
201905210800 TAF LRCV 210800Z 2109/2118 24010KT CAVOK
                      TEMPO 2112/2116 SCT040CB
                      BECMG 2116/2118 VRB04KT=
201905211100 TAF LRCV 211100Z 2112/2121 24010KT CAVOK
                      TEMPO 2112/2116 SCT040CB
                      BECMG 2116/2118 VRB04KT=
201905211400 TAF LRCV 211400Z 2115/2124 24010KT CAVOK
                      BECMG 2116/2118 VRB04KT=
201905211700 TAF LRCV 211700Z 2118/2203 24006KT CAVOK=
201905212000 TAF LRCV 212000Z 2121/2206 VRB04KT CAVOK
                      PROB40 TEMPO 2121/2124 5000 -SHRA SCT040CB=
201905212300 TAF LRCV 212300Z 2200/2209 VRB04KT CAVOK
                      BECMG 2206/2208 27010KT=
201905220200 TAF LRCV 220200Z 2203/2212 VRB04KT CAVOK
                      BECMG 2206/2208 27014KT=
201905220500 TAF LRCV 220500Z 2206/2215 27012KT CAVOK=
201905220800 TAF LRCV 220800Z 2209/2218 27016KT 9999 SCT040=
201905221100 TAF LRCV 221100Z 2212/2221 27015KT CAVOK=
201905221400 TAF LRCV 221400Z 2215/2224 29010KT CAVOK=
201905221700 TAF LRCV 221700Z 2218/2303 27010KT CAVOK
                      TEMPO 2218/2224 SCT040CB
                      PROB40 TEMPO 2218/2221 5000 -TSRA=
201905222000 TAF LRCV 222000Z 2221/2306 27006KT CAVOK
                      TEMPO 2221/2224 SCT045CB=
201905222300 TAF LRCV 222300Z 2300/2309 24010KT CAVOK=
201905230200 TAF LRCV 230200Z 2303/2312 27010KT CAVOK=
201905230500 TAF LRCV 230500Z 2306/2315 26014KT CAVOK=
201905230800 TAF LRCV 230800Z 2309/2318 26016KT 9999 SCT040=
201905231100 TAF LRCV 231100Z 2312/2321 26018KT 9999 BKN040
                      BECMG 2317/2319 26008KT=
201905231400 TAF LRCV 231400Z 2315/2324 27014KT CAVOK=
201905231700 TAF LRCV 231700Z 2318/2403 27012KT CAVOK=
201905232000 TAF LRCV 232000Z 2321/2406 27008KT CAVOK=
201905232300 TAF LRCV 232300Z 2400/2409 27008KT CAVOK=
201905240200 TAF LRCV 240200Z 2403/2412 27008KT CAVOK=
201905240500 TAF LRCV 240500Z 2406/2415 27008KT CAVOK
                      PROB30 TEMPO 2412/2415 FEW040CB=
201905240800 TAF LRCV 240800Z 2409/2418 27010KT CAVOK
                      PROB30 TEMPO 2412/2416 FEW040CB=
201905241100 TAF LRCV 241100Z 2412/2421 27008KT 9999 SCT040CB BKN045
                      TEMPO 2412/2416 VRB15G25KT 3000 TSRA BKN010
                       BKN035CB
                      BECMG 2416/2418 SCT040=
201905241400 TAF LRCV 241400Z 2415/2424 27015KT 9999 SCT040CB BKN045
                      TEMPO 2415/2418 VRB20G30KT 3000 TSRA BKN010
                       BKN035CB
                      BECMG 2418/2420 27005KT SCT040=
201905241700 TAF LRCV 241700Z 2418/2503 26005KT 9999 SCT040=
201905242000 TAF LRCV 242000Z 2421/2506 VRB04KT CAVOK=
201905242300 TAF LRCV 242300Z 2500/2509 25008KT CAVOK=
201905250200 TAF LRCV 250200Z 2503/2512 25008KT CAVOK=
201905250500 TAF LRCV 250500Z 2506/2515 27009KT CAVOK=
201905250800 TAF LRCV 250800Z 2509/2518 27009KT CAVOK=
201905251100 TAF LRCV 251100Z 2512/2521 28010KT CAVOK=
201905251400 TAF LRCV 251400Z 2515/2524 28008KT CAVOK
                      TEMPO 2515/2518 SCT045CB=
201905251700 TAF LRCV 251700Z 2518/2603 26010KT CAVOK
                      TEMPO 2523/2603 5000 BR=
201905252000 TAF LRCV 252000Z 2521/2606 26006KT CAVOK
                      TEMPO 2523/2604 5000 BR=
201905252300 TAF LRCV 252300Z 2600/2609 27006KT CAVOK
                      TEMPO 2600/2604 5000 BR=
201905260200 TAF LRCV 260200Z 2603/2612 27006KT CAVOK
                      TEMPO 2603/2605 3000 BR=
201905260500 TAF LRCV 260500Z 2606/2615 VRB04KT CAVOK
                      TEMPO 2613/2615 23010KT=
201905260800 TAF LRCV 260800Z 2609/2618 VRB04KT CAVOK
                      TEMPO 2613/2616 23010KT=
201905261100 TAF LRCV 261100Z 2612/2621 VRB04KT CAVOK
                      PROB40 TEMPO 2613/2616 23010KT=
201905261400 TAF LRCV 261400Z 2615/2624 VRB04KT CAVOK=
201905261700 TAF LRCV 261700Z 2618/2703 VRB04KT CAVOK=
201905262000 TAF LRCV 262000Z 2621/2706 VRB04KT CAVOK
                      BECMG 2704/2706 08010KT=
201905262300 TAF LRCV 262300Z 2700/2709 VRB04KT CAVOK
                      BECMG 2704/2706 08010KT=
201905270200 TAF LRCV 270200Z 2703/2712 VRB04KT CAVOK
                      BECMG 2704/2706 09010KT=
201905270500 TAF LRCV 270500Z 2706/2715 08012KT CAVOK=
201905270800 TAF LRCV 270800Z 2709/2718 09011KT CAVOK
                      TEMPO 2715/2718 SCT045CB=
201905271100 TAF LRCV 271100Z 2712/2721 10008KT CAVOK
                      TEMPO 2716/2720 SCT045CB=
201905271400 TAF LRCV 271400Z 2715/2724 10008KT CAVOK
                      TEMPO 2716/2720 SCT045CB=
201905271700 TAF LRCV 271700Z 2718/2803 07008KT CAVOK
                      TEMPO 2718/2720 FEW045CB=
201905272000 TAF LRCV 272000Z 2721/2806 07008KT CAVOK=
201905272300 TAF LRCV 272300Z 2800/2809 07010KT CAVOK
                      PROB40 TEMPO 2806/2809 08015G25KT=
201905280200 TAF LRCV 280200Z 2803/2812 07012KT CAVOK
                      PROB30 TEMPO 2809/2812 FEW040CB=
201905280500 TAF LRCV 280500Z 2806/2815 08012KT CAVOK
                      TEMPO 2806/2809 FEW040CB=
201905280800 TAF LRCV 280800Z 2809/2818 08012KT CAVOK
                      TEMPO 2813/2818 VRB15G25KT 5000 TSRA SCT040CB=
201905281100 TAF LRCV 281100Z 2812/2821 08012KT CAVOK
                      TEMPO 2813/2818 VRB15G25KT 5000 TSRA SCT040CB
                       BECMG 2818/2820 02006KT=
201905281400 TAF LRCV 281400Z 2815/2824 08012KT CAVOK
                      TEMPO 2815/2820 VRB20G30KT 3000 +TSRA BKN015
                       BKN025CB
                      BECMG 2818/2820 02006KT=
201905281700 TAF LRCV 281700Z 2818/2903 25010KT 9999 SCT040
                      TEMPO 2818/2822 VRB18KT 3000 TSRA BKN015
                       BKN035CB
                      BECMG 2822/2824 VRB04KT=
201905282000 TAF LRCV 282000Z 2821/2906 25007KT 9999 SCT040
                      TEMPO 2821/2823 5000 -TSRA SCT035CB=
201905282300 TAF LRCV 282300Z 2900/2909 34007KT CAVOK
                      BECMG 2901/2903 26010KT=
201905290200 TAF LRCV 290200Z 2903/2912 VRB04KT CAVOK
                      BECMG 2905/2907 26010KT=
201905290500 TAF LRCV 290500Z 2906/2915 VRB04KT CAVOK
                      BECMG 2907/2909 26010KT
                      TEMPO 2911/2915 SCT040CB=
201905290800 TAF LRCV 290800Z 2909/2918 VRB04KT CAVOK
                      BECMG 2909/2911 26010KT
                      TEMPO 2911/2917 SCT040CB=
201905291100 TAF LRCV 291100Z 2912/2921 24010KT 9999 SCT045
                      PROB40 TEMPO 2912/2918 SCT040CB=
201905291400 TAF LRCV 291400Z 2915/2924 26008KT 9999 SCT045
                      TEMPO 2915/2918 SCT040CB=
201905291700 TAF LRCV 291700Z 2918/3003 25008KT 9999 SCT045
                      TEMPO 2918/2921 5000 -TSRA SCT040CB=
201905292000 TAF LRCV 292000Z 2921/3006 25008KT 9999 SCT045
                      TEMPO 2921/2924 5000 -SHRA SCT040CB=
201905292300 TAF LRCV 292300Z 3000/3009 VRB04KT CAVOK
                      BECMG 3001/3003 28012KT=
201905300200 TAF LRCV 300200Z 3003/3012 28006KT CAVOK=
201905300500 TAF LRCV 300500Z 3006/3015 26010KT CAVOK=
201905300800 TAF LRCV 300800Z 3009/3018 27010KT CAVOK=
201905301100 TAF LRCV 301100Z 3012/3021 27010KT CAVOK=
201905301400 TAF LRCV 301400Z 3015/3024 27010KT CAVOK=
201905301700 TAF LRCV 301700Z 3018/3103 27008KT CAVOK
                      TEMPO 3018/3021 SCT040CB
                      PROB30 3019/3021 -TSRA=
201905302000 TAF LRCV 302000Z 3021/3106 27008KT CAVOK
                      BECMG 3104/3106 SCT040CB=
201905302300 TAF LRCV 302300Z 3100/3109 27008KT CAVOK
                      BECMG 3104/3106 SCT040CB
                      PROB30 TEMPO 3107/3109 5000 -SHRA=
201905310200 TAF LRCV 310200Z 3103/3112 27008KT CAVOK
                      BECMG 3104/3106 SCT040CB
                      PROB30 TEMPO 3107/3109 5000 -SHRA
                      TEMPO 3109/3112 VRB20KT 5000 -TSRA=
201905310500 TAF LRCV 310500Z 3106/3115 26010KT CAVOK
                      TEMPO 3110/3115 SCT040CB
                      PROB40 TEMPO 3111/3115 VRB15G25KT 5000 TSRA=
201905310800 TAF LRCV 310800Z 3109/3118 29010KT CAVOK
                      TEMPO 3111/3117 SCT040CB
                      PROB40 TEMPO 3111/3116 VRB15G25KT 5000 TSRA=
201905311100 TAF LRCV 311100Z 3112/3121 26010KT CAVOK
                      TEMPO 3112/3117 SCT040CB
                      PROB30 TEMPO 3113/3117 VRB15G25KT 5000 TSRA=
201905311400 TAF LRCV 311400Z 3115/3124 28010KT CAVOK
                      TEMPO 3115/3119 SCT040CB
                      PROB30 TEMPO 3115/3118 VRB15G25KT 5000 TSRA
                       BECMG 3119/3121 VRB04KT=
201905311700 TAF LRCV 311700Z 3118/0103 VRB04KT CAVOK
                      TEMPO 3119/3123 5000 -SHRA SCT035CB BKN040
                       PROB30 3119/3122 -TSRA=
201905312000 TAF LRCV 312000Z 3121/0106 VRB04KT 9999 SCT040
                      TEMPO 3121/3124 5000 -SHRA FEW035CB BKN040
                       TEMPO 0100/0105 BKN010 BKN040=
201905312300 TAF LRCV 312300Z 0100/0109 VRB04KT 9999 BKN020
                      TEMPO 0100/0105 5000 -RA BR BKN005 BKN015=
