201908010200 TAF LRCV 010200Z 0103/0112 VRB04KT CAVOK=
201908010500 TAF LRCV 010500Z 0106/0115 06006KT CAVOK
                      TEMPO 0111/0115 VRB20KT 5000 TSRA SCT015
                       SCT040CB=
201908010800 TAF LRCV 010800Z 0109/0118 07008KT 9999 SCT040
                      TEMPO 0113/0118 VRB20KT 5000 TSRA SCT015
                       SCT040CB=
201908011100 TAF LRCV 011100Z 0112/0121 06008KT 9999 SCT040
                      TEMPO 0113/0118 VRB20KT 5000 TSRA SCT015
                       SCT040CB=
201908011400 TAF LRCV 011400Z 0115/0124 03007KT 9999 SCT040
                      TEMPO 0115/0118 VRB20KT 3000 TSRA SCT015
                       BKN040CB=
201908011700 TAF LRCV 011700Z 0118/0203 03007KT CAVOK
                      TEMPO 0118/0120 SCT030CB
                      TEMPO 0200/0203 3000 BR BKN010=
201908012000 TAF LRCV 012000Z 0121/0206 VRB04KT CAVOK
                      TEMPO 0200/0204 3000 BR BKN010=
201908012147 TAF AMD LRCV 012147Z 0121/0206 VRB04KT 0600 FG SCT005
                      BECMG 0121/0123 0150 FG BKN001
                      BECMG 0203/0205 0800 BKN005
                      BECMG 0205/0206 3000 BR SCT010=
201908012300 TAF LRCV 012300Z 0200/0209 VRB04KT 0350 FG VV001
                      BECMG 0203/0205 1500 BR SCT010
                      BECMG 0205/0207 CAVOK=
201908020200 TAF LRCV 020200Z 0203/0212 VRB04KT 1500 BR BKN005
                      TEMPO 0203/0204 0600 FG BKN002
                      BECMG 0204/0206 5000 BR SCT010
                      BECMG 0206/0207 CAVOK=
201908020500 TAF LRCV 020500Z 0206/0215 VRB04KT 0350 FG OVC001
                      BECMG 0206/0207 1500 BR BKN003
                      BECMG 0207/0209 9999 NSW SCT020=
201908020800 TAF LRCV 020800Z 0209/0218 VRB04KT 5000 BR BKN005
                      BECMG 0209/0211 9999 NSW SCT020
                      TEMPO 0212/0215 28010KT=
201908021100 TAF LRCV 021100Z 0212/0221 VRB04KT 9999 SCT030=
201908021400 TAF LRCV 021400Z 0215/0224 VRB04KT CAVOK
                      BECMG 0221/0223 FEW040CB=
201908021700 TAF LRCV 021700Z 0218/0303 VRB04KT CAVOK
                      BECMG 0221/0223 08010KT SCT040CB
                      TEMPO 0223/0303 5000 -TSRA SCT010 BKN035CB
                       PROB40 0301/0303 VRB20KT 1500 +TSRA BKN005
                       BKN030CB=
201908022000 TAF LRCV 022000Z 0221/0306 VRB04KT CAVOK
                      BECMG 0222/0224 08010KT SCT040CB
                      TEMPO 0301/0306 5000 TSRA SCT010 BKN035CB
                       PROB40 0302/0306 VRB20KT 1500 +TSRA BKN005
                       BKN030CB=
201908022300 TAF LRCV 022300Z 0300/0309 08010KT CAVOK
                      BECMG 0300/0302 SCT040CB
                      TEMPO 0302/0309 5000 TSRA SCT010 BKN035CB
                       PROB40 0302/0306 VRB20KT 1500 +TSRA BKN005
                       BKN030CB=
201908030200 TAF LRCV 030200Z 0303/0312 08008KT 9999 SCT045CB
                      TEMPO 0303/0309 5000 TSRA SCT010 BKN035CB
                       PROB40 0303/0307 VRB20KT 1500 +TSRA BKN005
                       BKN030CB
                      BECMG 0308/0310 27012KT=
201908030500 TAF LRCV 030500Z 0306/0315 VRB04KT 9999 SCT045
                      TEMPO 0308/0313 5000 TSRA SCT010 SCT035CB
                       PROB40
                      TEMPO 0308/0312 VRB18G28KT 3000 TSRA BKN010
                       BKN030CB
                      BECMG 0313/0315 27016KT=
201908030800 TAF LRCV 030800Z 0309/0318 27010KT 9999 SCT045
                      TEMPO 0310/0314 5000 TSRA SCT035CB
                      PROB30 TEMPO 0310/0313 VRB18G28KT 3000 TSRA
                       BKN010 BKN030CB=
201908031100 TAF LRCV 031100Z 0312/0321 26012KT 9999 BKN045
                      PROB40 TEMPO 0312/0316 VRB18G28KT 3000 TSRA
                       BKN010 BKN030CB=
201908031400 TAF LRCV 031400Z 0315/0324 27015KT 9999 SCT040
                      PROB40 TEMPO 0315/0318 VRB18G28KT 5000 TSRA
                       SCT030CB=
201908031700 TAF LRCV 031700Z 0318/0403 27012KT CAVOK=
201908032000 TAF LRCV 032000Z 0321/0406 30008KT CAVOK=
201908032300 TAF LRCV 032300Z 0400/0409 27010KT CAVOK=
201908040200 TAF LRCV 040200Z 0403/0412 29010KT CAVOK=
201908040500 TAF LRCV 040500Z 0406/0415 29010KT CAVOK
                      PROB30 TEMPO 0412/0415 SCT040CB=
201908040800 TAF LRCV 040800Z 0409/0418 29010KT CAVOK
                      PROB30 TEMPO 0413/0416 SCT040CB=
201908041100 TAF LRCV 041100Z 0412/0421 30008KT CAVOK
                      PROB30 TEMPO 0413/0416 SCT040CB=
201908041400 TAF LRCV 041400Z 0415/0424 30012KT CAVOK
                      BECMG 0417/0419 VRB04KT=
201908041700 TAF LRCV 041700Z 0418/0503 29006KT CAVOK
                      BECMG 0419/0421 02010KT=
201908042000 TAF LRCV 042000Z 0421/0506 35006KT CAVOK=
201908042300 TAF LRCV 042300Z 0500/0509 36006KT CAVOK=
201908050200 TAF LRCV 050200Z 0503/0512 VRB04KT CAVOK=
201908050500 TAF LRCV 050500Z 0506/0515 27006KT CAVOK=
201908050800 TAF LRCV 050800Z 0509/0518 27007KT CAVOK=
201908051100 TAF LRCV 051100Z 0512/0521 29008KT CAVOK=
201908051400 TAF LRCV 051400Z 0515/0524 24010KT CAVOK
                      BECMG 0517/0519 VRB04KT=
201908051700 TAF LRCV 051700Z 0518/0603 VRB04KT CAVOK=
201908052000 TAF LRCV 052000Z 0521/0606 VRB04KT CAVOK=
201908052300 TAF LRCV 052300Z 0600/0609 VRB04KT CAVOK=
201908060200 TAF LRCV 060200Z 0603/0612 VRB04KT CAVOK
                      BECMG 0608/0610 24010KT=
201908060500 TAF LRCV 060500Z 0606/0615 VRB04KT CAVOK
                      BECMG 0608/0610 24010KT=
201908060800 TAF LRCV 060800Z 0609/0618 VRB04KT CAVOK
                      TEMPO 0610/0615 24010KT=
201908061100 TAF LRCV 061100Z 0612/0621 24007KT CAVOK=
201908061400 TAF LRCV 061400Z 0615/0624 24006KT CAVOK=
201908061700 TAF LRCV 061700Z 0618/0703 24006KT CAVOK=
201908062000 TAF LRCV 062000Z 0621/0706 VRB04KT CAVOK=
201908062300 TAF LRCV 062300Z 0700/0709 VRB04KT CAVOK=
201908070200 TAF LRCV 070200Z 0703/0712 VRB04KT CAVOK=
201908070500 TAF LRCV 070500Z 0706/0715 VRB04KT CAVOK=
201908070800 TAF LRCV 070800Z 0709/0718 VRB04KT CAVOK=
201908071100 TAF LRCV 071100Z 0712/0721 15006KT CAVOK=
201908071400 TAF LRCV 071400Z 0715/0724 15006KT CAVOK=
201908071700 TAF LRCV 071700Z 0718/0803 VRB04KT CAVOK=
201908072000 TAF LRCV 072000Z 0721/0806 VRB04KT CAVOK
                      BECMG 0803/0805 08010KT=
201908072300 TAF LRCV 072300Z 0800/0809 VRB04KT CAVOK
                      BECMG 0807/0809 08010KT=
201908080200 TAF LRCV 080200Z 0803/0812 VRB04KT CAVOK=
201908080500 TAF LRCV 080500Z 0806/0815 VRB04KT CAVOK=
201908080800 TAF LRCV 080800Z 0809/0818 VRB04KT CAVOK=
201908081100 TAF LRCV 081100Z 0812/0821 VRB04KT CAVOK=
201908081400 TAF LRCV 081400Z 0815/0824 25006KT CAVOK=
201908081700 TAF LRCV 081700Z 0818/0903 VRB04KT CAVOK=
201908082000 TAF LRCV 082000Z 0821/0906 04005KT CAVOK=
201908082300 TAF LRCV 082300Z 0900/0909 04005KT CAVOK=
201908090200 TAF LRCV 090200Z 0903/0912 04006KT CAVOK=
201908090509 TAF COR LRCV 090509Z 0906/0915 04008KT CAVOK
                      TEMPO 0906/0909 VRB18KT 5000 -TSRA SCT040CB=
201908090800 TAF LRCV 090800Z 0909/0918 04008KT 9999 FEW050CB
                      BECMG 0909/0911 NSC=
201908091100 TAF LRCV 091100Z 0912/0921 26010KT CAVOK
                      BECMG 0915/0918 VRB04KT=
201908091400 TAF LRCV 091400Z 0915/0924 26010KT CAVOK
                      BECMG 0916/0918 VRB04KT=
201908091700 TAF LRCV 091700Z 0918/1003 VRB04KT CAVOK=
201908092000 TAF LRCV 092000Z 0921/1006 VRB04KT CAVOK
                      TEMPO 1000/1005 3000 BR=
201908092300 TAF LRCV 092300Z 1000/1009 VRB04KT CAVOK
                      TEMPO 1000/1005 3000 BR=
201908100200 TAF LRCV 100200Z 1003/1012 VRB04KT CAVOK=
201908100500 TAF LRCV 100500Z 1006/1015 VRB04KT CAVOK=
201908100800 TAF LRCV 100800Z 1009/1018 09010KT CAVOK=
201908101100 TAF LRCV 101100Z 1012/1021 09008KT CAVOK=
201908101400 TAF LRCV 101400Z 1015/1024 06006KT CAVOK=
201908101700 TAF LRCV 101700Z 1018/1103 05007KT CAVOK=
201908102000 TAF LRCV 102000Z 1021/1106 05007KT CAVOK=
201908102300 TAF LRCV 102300Z 1100/1109 05007KT CAVOK=
201908110200 TAF LRCV 110200Z 1103/1112 05007KT CAVOK=
201908110500 TAF LRCV 110500Z 1106/1115 07008KT CAVOK=
201908110800 TAF LRCV 110800Z 1109/1118 07008KT CAVOK=
201908111100 TAF LRCV 111100Z 1112/1121 11006KT CAVOK=
201908111400 TAF LRCV 111400Z 1115/1124 VRB04KT CAVOK=
201908111700 TAF LRCV 111700Z 1118/1203 VRB04KT CAVOK=
201908112000 TAF LRCV 112000Z 1121/1206 VRB04KT CAVOK=
201908112300 TAF LRCV 112300Z 1200/1209 VRB04KT CAVOK
                      BECMG 1207/1209 12010KT=
201908120200 TAF LRCV 120200Z 1203/1212 VRB04KT CAVOK
                      BECMG 1207/1209 11010KT=
201908120500 TAF LRCV 120500Z 1206/1215 11010KT CAVOK=
201908120800 TAF LRCV 120800Z 1209/1218 08010KT CAVOK=
201908121100 TAF LRCV 121100Z 1212/1221 08010KT CAVOK=
201908121400 TAF LRCV 121400Z 1215/1224 08010KT CAVOK=
201908121700 TAF LRCV 121700Z 1218/1303 10010KT CAVOK=
201908122000 TAF LRCV 122000Z 1221/1306 09010KT CAVOK=
201908122300 TAF LRCV 122300Z 1300/1309 08010KT CAVOK=
201908130200 TAF LRCV 130200Z 1303/1312 08008KT CAVOK=
201908130500 TAF LRCV 130500Z 1306/1315 08012KT CAVOK=
201908130800 TAF LRCV 130800Z 1309/1318 08014KT CAVOK=
201908131100 TAF LRCV 131100Z 1312/1321 12010KT CAVOK=
201908131400 TAF LRCV 131400Z 1315/1324 10012KT CAVOK=
201908131700 TAF LRCV 131700Z 1318/1403 09010KT CAVOK=
201908132000 TAF LRCV 132000Z 1321/1406 10006KT CAVOK=
201908132300 TAF LRCV 132300Z 1400/1409 10006KT CAVOK=
201908140200 TAF LRCV 140200Z 1403/1412 VRB04KT CAVOK
                      BECMG 1408/1410 09012KT=
201908140500 TAF LRCV 140500Z 1406/1415 07010KT CAVOK=
201908140800 TAF LRCV 140800Z 1409/1418 07010KT CAVOK
                      BECMG 1416/1418 VRB04KT=
201908141100 TAF LRCV 141100Z 1412/1421 VRB04KT CAVOK
                      BECMG 1418/1420 28014KT=
201908141400 TAF LRCV 141400Z 1415/1424 VRB04KT CAVOK
                      BECMG 1417/1419 28012KT
                      PROB40 TEMPO 1419/1423 28015G25KT=
201908141700 TAF LRCV 141700Z 1418/1503 28012KT CAVOK
                      TEMPO 1419/1424 28016G26KT
                      TEMPO 1420/1503 5000 -SHRA SCT035CB=
201908142000 TAF LRCV 142000Z 1421/1506 25012KT 9999 SCT045
                      TEMPO 1421/1424 30016G26KT
                      TEMPO 1421/1503 5000 -SHRA SCT035CB=
201908142300 TAF LRCV 142300Z 1500/1509 28012KT 9999 SCT045
                      PROB30 TEMPO 1500/1503 5000 -SHRA SCT035CB
                       BECMG 1506/1508 22005KT=
201908150200 TAF LRCV 150200Z 1503/1512 26012KT 9999 SCT045
                      TEMPO 1510/1512 5000 -SHRA SCT040CB=
201908150500 TAF LRCV 150500Z 1506/1515 26012KT 9999 SCT045
                      PROB40 TEMPO 1512/1515 5000 -SHRA SCT045CB=
201908150800 TAF LRCV 150800Z 1509/1518 26012KT CAVOK
                      PROB30 TEMPO 1515/1518 SCT045CB=
201908151100 TAF LRCV 151100Z 1512/1521 26008KT 9999 SCT045
                      TEMPO 1514/1518 SCT040CB=
201908151400 TAF LRCV 151400Z 1515/1524 26008KT CAVOK
                      TEMPO 1516/1519 SCT045CB=
201908151700 TAF LRCV 151700Z 1518/1603 26008KT CAVOK=
201908152000 TAF LRCV 152000Z NIL=
201908152300 TAF LRCV 152300Z 1600/1609 26006KT CAVOK=
201908160200 TAF LRCV 160200Z 1603/1612 VRB04KT CAVOK=
201908160500 TAF LRCV 160500Z 1606/1615 06008KT CAVOK=
201908160800 TAF LRCV 160800Z 1609/1618 08008KT 9999 BKN030=
201908161100 TAF LRCV 161100Z 1612/1621 34008KT 9999 BKN035=
201908161400 TAF LRCV 161400Z 1615/1624 VRB04KT CAVOK=
201908161700 TAF LRCV 161700Z 1618/1703 VRB04KT CAVOK=
201908162000 TAF LRCV 162000Z 1621/1706 VRB04KT CAVOK
                      TEMPO 1702/1705 SCT045CB=
201908162300 TAF LRCV 162300Z 1700/1709 VRB04KT CAVOK
                      TEMPO 1702/1705 SCT045CB=
201908170200 TAF LRCV 170200Z 1703/1712 VRB04KT CAVOK=
201908170500 TAF LRCV 170500Z 1706/1715 VRB04KT CAVOK
                      PROB40 TEMPO 1711/1715 SCT045CB=
201908170800 TAF LRCV 170800Z 1709/1718 VRB04KT CAVOK
                      PROB40 TEMPO 1711/1716 SCT045CB=
201908171100 TAF LRCV 171100Z 1712/1721 27008KT 9999 FEW045
                      PROB40 TEMPO 1712/1716 SCT045CB=
201908171400 TAF LRCV 171400Z 1715/1724 27008KT 9999 FEW045=
201908171700 TAF LRCV 171700Z 1718/1803 VRB04KT CAVOK=
201908172000 TAF LRCV 172000Z 1721/1806 VRB04KT CAVOK=
201908172300 TAF LRCV 172300Z 1800/1809 VRB04KT CAVOK
                      TEMPO 1800/1805 3000 BR=
201908180200 TAF LRCV 180200Z 1803/1812 VRB04KT CAVOK
                      TEMPO 1803/1805 5000 BR=
201908180500 TAF LRCV 180500Z 1806/1815 VRB04KT CAVOK=
201908180800 TAF LRCV 180800Z 1809/1818 VRB04KT CAVOK=
201908181100 TAF LRCV 181100Z 1812/1821 VRB04KT CAVOK=
201908181400 TAF LRCV 181400Z 1815/1824 VRB04KT CAVOK=
201908181700 TAF LRCV 181700Z 1818/1903 35005KT CAVOK=
201908182000 TAF LRCV 182000Z 1821/1906 VRB04KT CAVOK=
201908182300 TAF LRCV 182300Z 1900/1909 04008KT CAVOK=
201908190200 TAF LRCV 190200Z 1903/1912 06008KT CAVOK=
201908190500 TAF LRCV 190500Z 1906/1915 06008KT CAVOK=
201908190800 TAF LRCV 190800Z 1909/1918 09008KT CAVOK=
201908191100 TAF LRCV 191100Z 1912/1921 VRB04KT CAVOK=
201908191400 TAF LRCV 191400Z 1915/1924 VRB04KT CAVOK=
201908191700 TAF LRCV 191700Z 1918/2003 08007KT CAVOK=
201908192000 TAF LRCV 192000Z 1921/2006 08006KT CAVOK=
201908192300 TAF LRCV 192300Z 2000/2009 08006KT CAVOK=
201908200200 TAF LRCV 200200Z 2003/2012 08006KT CAVOK=
201908200500 TAF LRCV 200500Z 2006/2015 09008KT CAVOK=
201908200800 TAF LRCV 200800Z 2009/2018 09008KT CAVOK=
201908201100 TAF LRCV 201100Z 2012/2021 12008KT CAVOK=
201908201400 TAF LRCV 201400Z 2015/2024 VRB04KT CAVOK=
201908201700 TAF LRCV 201700Z 2018/2103 VRB04KT CAVOK=
201908202000 TAF LRCV 202000Z 2021/2106 15006KT CAVOK=
201908202300 TAF LRCV 202300Z 2100/2109 VRB04KT CAVOK=
201908210200 TAF LRCV 210200Z 2103/2112 VRB04KT CAVOK=
201908210500 TAF LRCV 210500Z 2106/2115 VRB04KT CAVOK=
201908210800 TAF LRCV 210800Z 2109/2118 07007KT CAVOK=
201908211100 TAF LRCV 211100Z 2112/2121 VRB04KT CAVOK=
201908211400 TAF LRCV 211400Z 2115/2124 06006KT CAVOK=
201908211700 TAF LRCV 211700Z 2118/2203 06006KT CAVOK=
201908212000 TAF LRCV 212000Z 2121/2206 06006KT CAVOK=
201908212300 TAF LRCV 212300Z 2200/2209 06006KT CAVOK=
201908220200 TAF LRCV 220200Z 2203/2212 06006KT CAVOK=
201908220500 TAF LRCV 220500Z 2206/2215 VRB04KT CAVOK=
201908220800 TAF LRCV 220800Z 2209/2218 VRB04KT CAVOK=
201908221100 TAF LRCV 221100Z 2212/2221 VRB04KT CAVOK
                      PROB40 TEMPO 2212/2215 16010KT=
201908221400 TAF LRCV 221400Z 2215/2224 VRB04KT CAVOK=
201908221700 TAF LRCV 221700Z 2218/2303 VRB04KT CAVOK
                      BECMG 2219/2221 09010KT=
201908222000 TAF LRCV 222000Z 2221/2306 09008KT CAVOK=
201908222300 TAF LRCV 222300Z 2300/2309 09008KT CAVOK=
201908230200 TAF LRCV 230200Z 2303/2312 08008KT CAVOK=
201908230500 TAF LRCV 230500Z 2306/2315 06006KT CAVOK=
201908230800 TAF LRCV 230800Z 2309/2318 10006KT CAVOK=
201908231100 TAF LRCV 231100Z 2312/2321 VRB04KT CAVOK
                      BECMG 2318/2320 10010KT=
201908231400 TAF LRCV 231400Z 2315/2324 VRB04KT CAVOK
                      BECMG 2318/2320 10010KT=
201908231700 TAF LRCV 231700Z 2318/2403 09006KT CAVOK=
201908232000 TAF LRCV 232000Z 2321/2406 09008KT CAVOK=
201908232300 TAF LRCV 232300Z 2400/2409 08008KT CAVOK=
201908240200 TAF LRCV 240200Z 2403/2412 08008KT CAVOK=
201908240500 TAF LRCV 240500Z 2406/2415 VRB04KT CAVOK
                      BECMG 2407/2409 10010KT=
201908240800 TAF LRCV 240800Z 2409/2418 10010KT CAVOK=
201908241100 TAF LRCV 241100Z 2412/2421 09008KT CAVOK=
201908241400 TAF LRCV 241400Z 2415/2424 06004KT CAVOK=
201908241700 TAF LRCV 241700Z 2418/2503 07006KT CAVOK=
201908242000 TAF LRCV 242000Z 2421/2506 07006KT CAVOK=
201908242300 TAF LRCV 242300Z 2500/2509 07006KT CAVOK=
201908250200 TAF LRCV 250200Z 2503/2512 07008KT CAVOK=
201908250500 TAF LRCV 250500Z 2506/2515 07012KT CAVOK
                      PROB30 TEMPO 2512/2515 SCT040CB=
201908250800 TAF LRCV 250800Z 2509/2518 07012KT CAVOK
                      PROB30 TEMPO 2512/2516 SCT040CB=
201908251100 TAF LRCV 251100Z 2512/2521 10010KT CAVOK
                      PROB30 TEMPO 2512/2516 SCT040CB=
201908251400 TAF LRCV 251400Z 2515/2524 10010KT CAVOK
                      TEMPO 2515/2518 SCT040CB=
201908251700 TAF LRCV 251700Z 2518/2603 10010KT CAVOK
                      TEMPO 2518/2521 SCT040CB=
201908252000 TAF LRCV 252000Z 2521/2606 05010KT CAVOK
                      PROB30 TEMPO 2521/2524 3000 -TSRA BKN030CB
                       TEMPO 2600/2604 5000 SHRA SCT030CB=
201908252300 TAF LRCV 252300Z 2600/2609 04012KT CAVOK=
201908260200 TAF LRCV 260200Z 2603/2612 06012KT CAVOK
                      TEMPO 2609/2612 SCT030CB=
201908260500 TAF LRCV 260500Z 2606/2615 09012KT CAVOK
                      TEMPO 2611/2615 SCT045CB=
201908260800 TAF LRCV 260800Z 2609/2618 09012KT CAVOK
                      TEMPO 2609/2612 09016G26KT
                      TEMPO 2613/2618 SCT045CB
                      PROB40 TEMPO 2614/2617 5000 -TSRA BKN010
                       BKN030CB=
201908261100 TAF LRCV 261100Z 2612/2621 09012KT CAVOK
                      TEMPO 2614/2618 SCT045CB
                      PROB40 TEMPO 2615/2617 5000 -TSRA BKN010
                       BKN030CB=
201908261400 TAF LRCV 261400Z 2615/2624 09012KT CAVOK
                      TEMPO 2615/2619 SCT045CB
                      PROB40 TEMPO 2615/2618 VRB20KT 5000 -TSRA
                       BKN010 BKN030CB=
201908261700 TAF LRCV 261700Z 2618/2703 08012KT CAVOK
                      TEMPO 2618/2621 SCT040CB
                      PROB40 2618/2621 08015G25KT 5000 -TSRA=
201908262000 TAF LRCV 262000Z 2621/2706 07010KT CAVOK=
201908262300 TAF LRCV 262300Z 2700/2709 07010KT CAVOK=
201908270200 TAF LRCV 270200Z 2703/2712 07010KT CAVOK=
201908270500 TAF LRCV 270500Z 2706/2715 06009KT CAVOK=
201908270800 TAF LRCV 270800Z 2709/2718 07009KT CAVOK=
201908271100 TAF LRCV 271100Z 2712/2721 08009KT CAVOK=
201908271400 TAF LRCV 271400Z 2715/2724 08009KT CAVOK=
201908271700 TAF LRCV 271700Z 2718/2803 08008KT CAVOK=
201908272000 TAF LRCV 272000Z 2721/2806 VRB04KT CAVOK=
201908272300 TAF LRCV 272300Z 2800/2809 VRB04KT CAVOK
                      BECMG 2807/2809 08010KT=
201908280200 TAF LRCV 280200Z 2803/2812 05008KT CAVOK
                      BECMG 2807/2809 12010KT=
201908280500 TAF LRCV 280500Z 2806/2815 09010KT CAVOK=
201908280800 TAF LRCV 280800Z 2809/2818 09010KT CAVOK=
201908281100 TAF LRCV 281100Z 2812/2821 09010KT CAVOK=
201908281400 TAF LRCV 281400Z 2815/2824 09010KT CAVOK=
201908281700 TAF LRCV 281700Z 2818/2903 10005KT CAVOK=
201908282000 TAF LRCV 282000Z 2821/2906 05005KT CAVOK=
201908282300 TAF LRCV 282300Z 2900/2909 03006KT CAVOK=
201908290200 TAF LRCV 290200Z 2903/2912 04006KT CAVOK=
201908290500 TAF LRCV 290500Z 2906/2915 06008KT CAVOK=
201908290800 TAF LRCV 290800Z 2909/2918 08008KT CAVOK=
201908291100 TAF LRCV 291100Z 2912/2921 VRB04KT CAVOK
                      TEMPO 2913/2917 11010KT=
201908291400 TAF LRCV 291400Z 2915/2924 VRB04KT CAVOK=
201908291700 TAF LRCV 291700Z 2918/3003 09008KT CAVOK=
201908292000 TAF LRCV 292000Z 2921/3006 VRB04KT CAVOK=
201908292300 TAF LRCV 292300Z 3000/3009 VRB04KT CAVOK=
201908300200 TAF LRCV 300200Z 3003/3012 VRB04KT CAVOK
                      BECMG 3006/3008 09010KT=
201908300500 TAF LRCV 300500Z 3006/3015 07008KT CAVOK=
201908300800 TAF LRCV 300800Z 3009/3018 09007KT CAVOK
                      PROB30 TEMPO 3014/3016 VRB20KT FEW050CB=
201908301100 TAF LRCV 301100Z 3012/3021 VRB04KT CAVOK
                      PROB30 TEMPO 3014/3017 VRB20KT FEW050CB=
201908301400 TAF LRCV 301400Z 3015/3024 VRB04KT CAVOK
                      PROB30 TEMPO 3015/3017 FEW050CB=
201908301700 TAF LRCV 301700Z 3018/3103 36005KT CAVOK
                      BECMG 3018/3020 07010KT=
201908302000 TAF LRCV 302000Z 3021/3106 07008KT CAVOK=
201908302300 TAF LRCV 302300Z 3100/3109 07008KT CAVOK=
201908310200 TAF LRCV 310200Z 3103/3112 04005KT CAVOK
                      BECMG 3107/3109 10010KT=
201908310500 TAF LRCV 310500Z 3106/3115 08010KT CAVOK=
201908310800 TAF LRCV 310800Z 3109/3118 10010KT CAVOK=
201908311100 TAF LRCV 311100Z 3112/3121 10008KT CAVOK=
201908311400 TAF LRCV 311400Z 3115/3124 09008KT CAVOK=
201908311700 TAF LRCV 311700Z 3118/0103 09008KT CAVOK=
201908312000 TAF LRCV 312000Z 3121/0106 09006KT CAVOK=
201908312300 TAF LRCV 312300Z 0100/0109 10006KT CAVOK=
