201909010000 METAR LRCV 010000Z AUTO 01005KT 9999 NCD 17/08 Q1016=
201909010030 METAR LRCV 010030Z AUTO 03004KT 9999 NCD 17/08 Q1016=
201909010100 METAR LRCV 010100Z AUTO 02005KT 9999 NCD 17/08 Q1016=
201909010130 METAR LRCV 010130Z AUTO 02005KT 9999 NCD 17/08 Q1016=
201909010200 METAR LRCV 010200Z AUTO 03005KT 9999 NCD 16/08 Q1016=
201909010230 METAR LRCV 010230Z AUTO 04004KT 9999 FEW075/// 16/08 Q1016=
201909010300 METAR LRCV 010300Z AUTO 03003KT 9999 FEW080/// 16/08 Q1016=
201909010330 METAR LRCV 010330Z AUTO 02003KT 9999 NCD 15/08 Q1016=
201909010400 METAR LRCV 010400Z AUTO 05004KT 9999 NCD 15/08 Q1016=
201909010430 METAR LRCV 010430Z AUTO 03005KT 9999 NCD 16/09 Q1016=
201909010500 METAR LRCV 010500Z AUTO 02003KT 9999 NCD 17/10 Q1016=
201909010530 METAR LRCV 010530Z AUTO 04005KT 9999 NCD 19/10 Q1016=
201909010600 METAR LRCV 010600Z 05006KT CAVOK 21/11 Q1016=
201909010630 METAR LRCV 010630Z 06005KT 030V090 CAVOK 23/11 Q1016=
201909010700 METAR LRCV 010700Z 07004KT 040V120 CAVOK 24/10 Q1016=
201909010730 METAR LRCV 010730Z 11004KT 080V150 CAVOK 26/09 Q1016=
201909010800 METAR LRCV 010800Z 11004KT 070V160 CAVOK 27/09 Q1016=
201909010830 METAR LRCV 010830Z VRB04KT CAVOK 28/08 Q1016=
201909010900 METAR LRCV 010900Z 12005KT 060V150 CAVOK 29/05 Q1016=
201909010930 METAR LRCV 010930Z VRB04KT CAVOK 29/07 Q1015=
201909011000 METAR LRCV 011000Z 06004KT 340V140 CAVOK 29/06 Q1015=
201909011030 METAR LRCV 011030Z 11005KT 050V190 CAVOK 30/07 Q1015=
201909011100 METAR LRCV 011100Z VRB03KT CAVOK 30/07 Q1015=
201909011130 METAR LRCV 011130Z 09004KT 030V150 CAVOK 30/06 Q1014=
201909011200 METAR LRCV 011200Z 10007KT 070V130 CAVOK 31/07 Q1014=
201909011230 METAR LRCV 011230Z 09010KT CAVOK 31/07 Q1014=
201909011300 METAR COR LRCV 011300Z VRB03KT CAVOK 30/07 Q1014=
201909011330 METAR LRCV 011330Z 11007KT 080V140 CAVOK 31/08 Q1014=
201909011400 METAR LRCV 011400Z 08005KT 040V130 CAVOK 31/08 Q1014=
201909011430 METAR LRCV 011430Z 13006KT 100V160 CAVOK 31/08 Q1013=
201909011500 METAR LRCV 011500Z 09007KT 040V130 CAVOK 30/08 Q1013=
201909011530 METAR COR LRCV 011530Z 13004KT 100V160 CAVOK 30/07 Q1013=
201909011600 METAR LRCV 011600Z 10006KT CAVOK 30/07 Q1013=
201909011630 METAR LRCV 011630Z 11005KT CAVOK 28/07 Q1013=
201909011700 METAR LRCV 011700Z 12005KT CAVOK 27/06 Q1013=
201909011730 METAR LRCV 011730Z 12005KT CAVOK 26/06 Q1013=
201909011800 METAR LRCV 011800Z 13004KT 070V130 CAVOK 24/06 Q1014=
201909011830 METAR LRCV 011830Z AUTO 15004KT 9999 NCD 24/06 Q1014=
201909011900 METAR LRCV 011900Z AUTO 16002KT 9999 NCD 24/06 Q1014=
201909011930 METAR LRCV 011930Z AUTO 16003KT 9999 NCD 21/07 Q1014=
201909012000 METAR LRCV 012000Z AUTO 00000KT 9999 NCD 22/06 Q1014=
201909012030 METAR LRCV 012030Z AUTO 00000KT 9999 NCD 20/06 Q1014=
201909012100 METAR LRCV 012100Z AUTO 02001KT 9999 NCD 20/07 Q1014=
201909012130 METAR LRCV 012130Z AUTO 01002KT 9999 NCD 19/07 Q1014=
201909012200 METAR LRCV 012200Z AUTO 35003KT 9999 NCD 19/07 Q1014=
201909012230 METAR LRCV 012230Z AUTO 35003KT 9999 NCD 19/07 Q1015=
201909012300 METAR LRCV 012300Z AUTO 36004KT 9999 NCD 18/07 Q1014=
201909012330 METAR LRCV 012330Z AUTO 36004KT 9999 NCD 17/08 Q1014=
201909020000 METAR LRCV 020000Z AUTO 36004KT 9999 NCD 18/09 Q1014=
201909020030 METAR LRCV 020030Z AUTO 01004KT 9999 NCD 17/09 Q1014=
201909020100 METAR LRCV 020100Z AUTO 07007KT 9999 NCD 15/08 Q1014=
201909020130 METAR LRCV 020130Z AUTO 05005KT 9999 NCD 16/09 Q1014=
201909020200 METAR LRCV 020200Z AUTO 06003KT 9999 NCD 16/09 Q1015=
201909020230 METAR LRCV 020230Z AUTO 06004KT 9999 NCD 15/09 Q1015=
201909020300 METAR LRCV 020300Z AUTO 02004KT 9999 NCD 16/09 Q1015=
201909020330 METAR LRCV 020330Z AUTO 02004KT 9999 NCD 15/09 Q1015=
201909020400 METAR LRCV 020400Z AUTO 01006KT 9999 NCD 15/09 Q1015=
201909020430 METAR LRCV 020430Z AUTO 02004KT 9999 NCD 15/09 Q1015=
201909020500 METAR LRCV 020500Z AUTO 03004KT 9999 NCD 18/10 Q1015=
201909020530 METAR LRCV 020530Z AUTO 04005KT 9999 NCD 20/10 Q1015=
201909020600 METAR LRCV 020600Z 06008KT CAVOK 22/10 Q1015=
201909020630 METAR LRCV 020630Z 07009KT CAVOK 23/10 Q1015=
201909020700 METAR LRCV 020700Z 08008KT CAVOK 24/11 Q1015=
201909020730 METAR LRCV 020730Z 07007KT CAVOK 25/10 Q1015=
201909020800 METAR LRCV 020800Z 10006KT 060V140 CAVOK 26/11 Q1015=
201909020830 METAR LRCV 020830Z 09006KT 060V120 CAVOK 27/11 Q1015=
201909020900 METAR LRCV 020900Z 13006KT 080V160 CAVOK 29/10 Q1015=
201909020930 METAR LRCV 020930Z 15006KT 090V180 CAVOK 30/10 Q1015=
201909021000 METAR LRCV 021000Z 12006KT CAVOK 31/09 Q1015=
201909021030 METAR LRCV 021030Z 12005KT 080V140 CAVOK 31/08 Q1015=
201909021100 METAR LRCV 021100Z 10008KT CAVOK 31/08 Q1015=
201909021130 METAR LRCV 021130Z 08008KT CAVOK 31/08 Q1015=
201909021200 METAR LRCV 021200Z 14007KT 100V180 CAVOK 31/08 Q1014=
201909021230 METAR LRCV 021230Z 10009KT 070V150 CAVOK 32/08 Q1014=
201909021300 METAR LRCV 021300Z VRB05KT CAVOK 32/07 Q1014=
201909021330 METAR LRCV 021330Z VRB04KT CAVOK 32/07 Q1014=
201909021400 METAR LRCV 021400Z 08006KT 030V150 CAVOK 32/07 Q1014=
201909021430 METAR LRCV 021430Z 11006KT CAVOK 32/07 Q1013=
201909021500 METAR LRCV 021500Z 11007KT CAVOK 31/07 Q1013=
201909021530 METAR LRCV 021530Z 08007KT CAVOK 31/07 Q1013=
201909021600 METAR LRCV 021600Z 09005KT 070V130 CAVOK 30/07 Q1013=
201909021630 METAR LRCV 021630Z 09005KT CAVOK 28/06 Q1013=
201909021700 METAR LRCV 021700Z 09004KT CAVOK 27/06 Q1013=
201909021730 METAR LRCV 021730Z 09003KT CAVOK 26/04 Q1013=
201909021800 METAR LRCV 021800Z 07004KT CAVOK 25/05 Q1013=
201909021830 METAR LRCV 021830Z AUTO 06003KT 9999 NCD 24/06 Q1014=
201909021900 METAR LRCV 021900Z AUTO 04003KT 9999 NCD 24/06 Q1014=
201909021930 METAR LRCV 021930Z AUTO 07005KT 9999 NCD 22/06 Q1014=
201909022000 METAR LRCV 022000Z AUTO 07005KT 9999 NCD 22/07 Q1014=
201909022030 METAR LRCV 022030Z AUTO 03004KT 9999 NCD 21/08 Q1014=
201909022100 METAR LRCV 022100Z AUTO 02004KT 7000 NCD 21/07 Q1014=
201909022130 METAR LRCV 022130Z AUTO 02003KT 9999 NCD 21/08 Q1014=
201909022200 METAR LRCV 022200Z AUTO 04005KT 010V080 9999 NCD 19/08 Q1015=
201909022230 METAR LRCV 022230Z AUTO 03005KT 9999 NCD 19/08 Q1015=
201909022300 METAR LRCV 022300Z AUTO 03006KT 9999 NCD 19/09 Q1015=
201909022330 METAR LRCV 022330Z AUTO 03005KT 9999 NCD 18/09 Q1015=
201909030000 METAR LRCV 030000Z AUTO 03005KT 9999 NCD 18/09 Q1014=
201909030030 METAR LRCV 030030Z AUTO 02007KT 9999 NCD 17/10 Q1014=
201909030100 METAR LRCV 030100Z AUTO 03006KT 9999 NCD 17/10 Q1014=
201909030130 METAR LRCV 030130Z AUTO 03006KT 9999 NCD 17/10 Q1014=
201909030200 METAR LRCV 030200Z AUTO 03005KT 9999 NCD 17/10 Q1014=
201909030230 METAR LRCV 030230Z AUTO 04006KT 9999 NCD 17/10 Q1014=
201909030300 METAR LRCV 030300Z AUTO 05007KT 9999 NCD 16/10 Q1015=
201909030330 METAR LRCV 030330Z AUTO 04005KT 9999 NCD 16/10 Q1015=
201909030400 METAR LRCV 030400Z AUTO 04005KT 9999 NCD ///// Q1015=
201909030430 METAR LRCV 030430Z AUTO 03005KT 9999 NCD 17/11 Q1015=
201909030500 METAR LRCV 030500Z AUTO 04007KT 9999 NCD 19/11 Q1015=
201909030530 METAR LRCV 030530Z AUTO 05008KT 9999 NCD 21/11 Q1015=
201909030600 METAR LRCV 030600Z 06010KT CAVOK 22/11 Q1016=
201909030630 METAR LRCV 030630Z 07011KT CAVOK 24/11 Q1016=
201909030700 METAR LRCV 030700Z 08010KT 060V120 CAVOK 25/11 Q1016=
201909030730 METAR LRCV 030730Z 09007KT CAVOK 26/11 Q1016=
201909030800 METAR LRCV 030800Z 08006KT 050V120 CAVOK 27/11 Q1016=
201909030830 METAR LRCV 030830Z 09005KT 030V140 CAVOK 28/11 Q1016=
201909030900 METAR LRCV 030900Z 07004KT 350V130 CAVOK 29/10 Q1016=
201909030930 METAR LRCV 030930Z 11004KT 360V160 CAVOK 30/09 Q1016=
201909031000 METAR LRCV 031000Z 03004KT 300V110 CAVOK 31/09 Q1015=
201909031030 METAR LRCV 031030Z 14006KT 100V210 CAVOK 31/09 Q1015=
201909031100 METAR LRCV 031100Z VRB03KT CAVOK 31/09 Q1015=
201909031130 METAR LRCV 031130Z 16006KT 100V220 CAVOK 32/09 Q1015=
201909031200 METAR LRCV 031200Z 18004KT 140V260 CAVOK 32/08 Q1015=
201909031230 METAR LRCV 031230Z VRB05KT CAVOK 32/07 Q1015=
201909031300 METAR LRCV 031300Z 13007KT 100V170 CAVOK 32/07 Q1014=
201909031330 METAR LRCV 031330Z VRB04KT CAVOK 32/05 Q1014=
201909031400 METAR LRCV 031400Z 14004KT 070V180 CAVOK 32/06 Q1014=
201909031430 METAR LRCV 031430Z 14004KT 100V220 CAVOK 32/05 Q1014=
201909031500 METAR LRCV 031500Z VRB02KT CAVOK 32/05 Q1014=
201909031530 METAR LRCV 031530Z 08004KT 320V130 CAVOK 32/05 Q1014=
201909031600 METAR LRCV 031600Z VRB01KT CAVOK 31/08 Q1014=
201909031630 METAR LRCV 031630Z 07002KT CAVOK 30/06 Q1014=
201909031700 METAR LRCV 031700Z AUTO 19003KT 160V230 9999 NCD 28/07 Q1014=
201909031730 METAR LRCV 031730Z AUTO 27007KT 9999 NCD 26/12 Q1014=
201909031800 METAR LRCV 031800Z AUTO 28007KT 9999 NCD 25/13 Q1015=
201909031830 METAR LRCV 031830Z AUTO 28006KT 9999 NCD 24/14 Q1015=
201909031900 METAR LRCV 031900Z AUTO 28007KT 9999 NCD 23/14 Q1015=
201909031930 METAR LRCV 031930Z AUTO 27007KT 9999 NCD 22/14 Q1015=
201909032000 METAR LRCV 032000Z AUTO 26008KT 9999 NCD 21/14 Q1015=
201909032030 METAR LRCV 032030Z AUTO 27009KT 9999 NCD 21/14 Q1015=
201909032100 METAR LRCV 032100Z AUTO 24009KT 9999 FEW240/// 20/14 Q1015=
201909032130 METAR LRCV 032130Z AUTO 25009KT 9999 NCD 19/14 Q1015=
201909032200 METAR LRCV 032200Z AUTO 26009KT 9999 NCD 19/14 Q1015=
201909032230 METAR LRCV 032230Z AUTO 27007KT 9999 NCD 19/14 Q1015=
201909032300 METAR LRCV 032300Z AUTO 25009KT 9999 NCD 19/14 Q1015=
201909032330 METAR LRCV 032330Z AUTO 25011KT 9999 NCD 19/14 Q1015=
201909040000 METAR LRCV 040000Z AUTO 26009KT 9999 NCD 19/14 Q1015=
201909040030 METAR LRCV 040030Z AUTO 26010KT 9999 NCD 19/14 Q1015=
201909040100 METAR LRCV 040100Z AUTO 26010KT 9999 NCD 18/14 Q1015=
201909040130 METAR LRCV 040130Z AUTO 26010KT 9999 NCD 18/14 Q1015=
201909040200 METAR LRCV 040200Z AUTO 26009KT 9999 FEW100/// 18/14 Q1015=
201909040230 METAR LRCV 040230Z AUTO 27008KT 9999 FEW100/// 18/14 Q1015=
201909040300 METAR LRCV 040300Z AUTO 27008KT 9999 FEW140/// 18/14 Q1016=
201909040330 METAR LRCV 040330Z AUTO 26008KT 9999 SCT100/// 18/14 Q1016=
201909040400 METAR LRCV 040400Z AUTO 28006KT 9999 FEW100/// 17/14 Q1016=
201909040430 METAR LRCV 040430Z AUTO 28006KT 9999 NCD 17/14 Q1016=
201909040500 METAR LRCV 040500Z AUTO 27006KT 9999 NCD 17/14 Q1016=
201909040530 METAR LRCV 040530Z AUTO 26006KT 9999 FEW150/// 18/15 Q1017=
201909040600 METAR LRCV 040600Z 27005KT CAVOK 19/14 Q1017=
201909040630 METAR LRCV 040630Z 30003KT CAVOK 21/13 Q1017=
201909040700 METAR LRCV 040700Z 08007KT 040V110 CAVOK 22/13 Q1017=
201909040730 METAR LRCV 040730Z 07008KT CAVOK 24/13 Q1017=
201909040800 METAR LRCV 040800Z 09011KT 050V120 CAVOK 24/13 Q1017=
201909040830 METAR LRCV 040830Z 07013KT CAVOK 24/13 Q1017=
201909040900 METAR LRCV 040900Z 08012KT CAVOK 25/13 Q1017=
201909040930 METAR LRCV 040930Z 09011KT CAVOK 25/14 Q1016=
201909041000 METAR LRCV 041000Z 08012KT CAVOK 26/14 Q1016=
201909041030 METAR LRCV 041030Z 08010KT 050V120 CAVOK 26/14 Q1016=
201909041100 METAR LRCV 041100Z 10009KT 060V130 CAVOK 26/13 Q1016=
201909041130 METAR LRCV 041130Z 08008KT 030V110 CAVOK 27/13 Q1015=
201909041200 METAR LRCV 041200Z 08008KT 060V120 CAVOK 28/13 Q1015=
201909041230 METAR LRCV 041230Z 07008KT CAVOK 29/13 Q1015=
201909041300 METAR LRCV 041300Z 11006KT 070V140 CAVOK 28/13 Q1014=
201909041330 METAR LRCV 041330Z 06006KT 030V090 CAVOK 29/13 Q1014=
201909041400 METAR LRCV 041400Z 09008KT CAVOK 29/13 Q1014=
201909041430 METAR LRCV 041430Z 07007KT 040V110 CAVOK 29/13 Q1014=
201909041500 METAR LRCV 041500Z 11005KT 080V150 CAVOK 29/13 Q1014=
201909041530 METAR LRCV 041530Z 11005KT 060V130 CAVOK 28/13 Q1014=
201909041600 METAR LRCV 041600Z 09008KT 060V120 CAVOK 28/13 Q1014=
201909041630 METAR LRCV 041630Z 08008KT CAVOK 27/13 Q1014=
201909041700 METAR LRCV 041700Z 09007KT CAVOK 25/13 Q1014=
201909041730 METAR LRCV 041730Z 09006KT CAVOK 24/13 Q1014=
201909041800 METAR LRCV 041800Z 09007KT CAVOK 24/13 Q1014=
201909041830 METAR LRCV 041830Z AUTO 09010KT 9999 FEW070/// 24/13 Q1015=
201909041900 METAR LRCV 041900Z AUTO 09014KT 9999 NCD 23/13 Q1015=
201909041930 METAR LRCV 041930Z AUTO 09013KT 9999 NCD 22/13 Q1015=
201909042000 METAR LRCV 042000Z AUTO 10012KT 9999 NCD 21/13 Q1015=
201909042030 METAR LRCV 042030Z AUTO 09010KT 9999 NCD 20/12 Q1016=
201909042100 METAR LRCV 042100Z AUTO 09011KT 9999 NCD 20/12 Q1016=
201909042130 METAR LRCV 042130Z AUTO 08013KT 9999 NCD 19/12 Q1016=
201909042200 METAR LRCV 042200Z AUTO 08012KT 9999 NCD 19/12 Q1016=
201909042230 METAR LRCV 042230Z AUTO 08012KT 9999 NCD 18/12 Q1016=
201909042300 METAR LRCV 042300Z AUTO 07009KT 9999 NCD 17/12 Q1016=
201909042330 METAR LRCV 042330Z AUTO 07009KT 9999 NCD 17/12 Q1016=
201909050000 METAR LRCV 050000Z AUTO 07008KT 9999 NCD 16/12 Q1016=
201909050030 METAR LRCV 050030Z AUTO 07008KT 9999 FEW060/// 16/12 Q1016=
201909050100 METAR LRCV 050100Z AUTO 07007KT 9999 BKN060/// 16/12 Q1016=
201909050130 METAR LRCV 050130Z AUTO 06008KT 9999 BKN060/// 16/12 Q1016=
201909050200 METAR LRCV 050200Z AUTO 05009KT 9999 FEW060/// 16/11 Q1016=
201909050230 METAR LRCV 050230Z AUTO 07009KT 9999 FEW060/// 16/11 Q1016=
201909050300 METAR LRCV 050300Z AUTO 06008KT 9999 FEW032/// 15/11 Q1016=
201909050330 METAR LRCV 050330Z AUTO 06008KT 9999 NCD 14/11 Q1016=
201909050400 METAR LRCV 050400Z AUTO 05008KT 9999 NCD 14/12 Q1016=
201909050430 METAR LRCV 050430Z AUTO 07009KT 9999 SCT055/// BKN100///
                        16/13 Q1016=
201909050500 METAR LRCV 050500Z AUTO 07012KT 9999 FEW060/// 16/13 Q1016=
201909050530 METAR LRCV 050530Z AUTO 08013KT 9999 NCD 17/13 Q1016=
201909050600 METAR LRCV 050600Z 08013KT CAVOK 18/13 Q1016=
201909050630 METAR LRCV 050630Z 08012KT CAVOK 18/13 Q1017=
201909050700 METAR LRCV 050700Z 08011KT 9999 SCT030 19/13 Q1017=
201909050730 METAR LRCV 050730Z 08010KT 9999 SCT030 BKN045 20/13 Q1017=
201909050800 METAR LRCV 050800Z 09009KT 9999 SCT025 BKN045 20/13 Q1017=
201909050830 METAR LRCV 050830Z 07010KT 030V090 9999 SCT025 BKN045 20/13
                        Q1017=
201909050900 METAR LRCV 050900Z 07009KT 050V110 9999 FEW025 SCT045 20/13
                        Q1017=
201909050930 METAR LRCV 050930Z 08010KT 060V120 9999 FEW030 FEW049 21/13
                        Q1016=
201909051000 METAR LRCV 051000Z 05009KT 030V100 CAVOK 22/13 Q1016=
201909051030 METAR LRCV 051030Z 08007KT CAVOK 23/14 Q1016=
201909051100 METAR LRCV 051100Z 05009KT 010V080 CAVOK 23/13 Q1015=
201909051130 METAR LRCV 051130Z 06007KT 040V100 CAVOK 24/13 Q1015=
201909051200 METAR LRCV 051200Z 07007KT 020V110 CAVOK 25/13 Q1015=
201909051230 METAR LRCV 051230Z 10006KT 070V150 9999 SCT045 25/13 Q1015=
201909051300 METAR LRCV 051300Z 06008KT 020V130 9999 SCT045 24/13 Q1014=
201909051330 METAR LRCV 051330Z 05006KT 350V120 9999 SCT047 25/13 Q1014=
201909051400 METAR LRCV 051400Z 03006KT 9999 SCT047 25/13 Q1014=
201909051430 METAR LRCV 051430Z 09004KT 040V140 CAVOK 26/13 Q1014=
201909051500 METAR LRCV 051500Z 05006KT 030V090 CAVOK 25/13 Q1014=
201909051530 METAR LRCV 051530Z 04006KT CAVOK 25/13 Q1014=
201909051600 METAR LRCV 051600Z 10004KT 070V130 CAVOK 25/13 Q1014=
201909051630 METAR LRCV 051630Z AUTO 05006KT 9999 FEW095/// 24/13 Q1014=
201909051700 METAR LRCV 051700Z AUTO 06005KT 9999 NCD 22/12 Q1014=
201909051730 METAR LRCV 051730Z AUTO 06004KT 9999 NCD 21/12 Q1014=
201909051800 METAR LRCV 051800Z AUTO 04005KT 9999 NCD 20/11 Q1014=
201909051830 METAR LRCV 051830Z AUTO 05005KT 9999 NCD 19/11 Q1014=
201909051900 METAR LRCV 051900Z AUTO 05005KT 9999 NCD 18/11 Q1015=
201909051930 METAR LRCV 051930Z AUTO 06004KT 9999 NCD 18/12 Q1015=
201909052000 METAR LRCV 052000Z AUTO 06005KT 9999 NCD 17/11 Q1015=
201909052030 METAR LRCV 052030Z AUTO 06006KT 9999 NCD 17/11 Q1015=
201909052100 METAR LRCV 052100Z AUTO 06005KT 9999 NCD 17/12 Q1015=
201909052130 METAR LRCV 052130Z AUTO 06005KT 9999 NCD 17/12 Q1015=
201909052200 METAR LRCV 052200Z AUTO 05005KT 9999 NCD 16/11 Q1015=
201909052230 METAR LRCV 052230Z AUTO 05005KT 9999 FEW080/// 16/12 Q1015=
201909052300 METAR LRCV 052300Z AUTO 05006KT 9999 FEW080/// 16/12 Q1015=
201909052330 METAR LRCV 052330Z AUTO 05006KT 9999 NCD 15/11 Q1015=
201909060000 METAR LRCV 060000Z AUTO 04004KT 9999 NCD 15/12 Q1015=
201909060030 METAR LRCV 060030Z AUTO 02004KT 9999 FEW085/// 15/12 Q1015=
201909060100 METAR LRCV 060100Z AUTO 02004KT 9999 FEW085/// 15/12 Q1015=
201909060130 METAR LRCV 060130Z AUTO 35002KT 9999 BKN055/// 16/13 Q1016=
201909060200 METAR LRCV 060200Z AUTO 33003KT 9999 FEW055/// 16/13 Q1016=
201909060230 METAR LRCV 060230Z AUTO 36004KT 9999 NCD 15/12 Q1016=
201909060300 METAR LRCV 060300Z AUTO 02006KT 9999 FEW085/// 14/12 Q1016=
201909060330 METAR LRCV 060330Z AUTO 02005KT 9999 SCT085/// 14/12 Q1016=
201909060400 METAR LRCV 060400Z AUTO 01003KT 9999 FEW085/// 14/12 Q1016=
201909060430 METAR LRCV 060430Z AUTO 01003KT 9999 NCD 15/12 Q1016=
201909060500 METAR LRCV 060500Z AUTO 36004KT 9999 NCD 16/13 Q1017=
201909060530 METAR LRCV 060530Z AUTO 01004KT 9999 NCD 17/13 Q1017=
201909060600 METAR COR LRCV 060600Z 04004KT CAVOK 19/13 Q1017=
201909060630 METAR LRCV 060630Z 06005KT 030V090 CAVOK 21/13 Q1017=
201909060700 METAR LRCV 060700Z 07004KT 040V130 CAVOK 22/13 Q1017=
201909060730 METAR LRCV 060730Z 06005KT 020V090 CAVOK 23/12 Q1017=
201909060800 METAR LRCV 060800Z 07005KT 040V110 CAVOK 24/12 Q1017=
201909060830 METAR LRCV 060830Z 05005KT 360V100 CAVOK 24/12 Q1017=
201909060900 METAR LRCV 060900Z 09006KT 020V140 CAVOK 25/13 Q1017=
201909060930 METAR LRCV 060930Z 07005KT 010V110 CAVOK 25/12 Q1017=
201909061000 METAR LRCV 061000Z 09004KT 020V160 CAVOK 25/12 Q1017=
201909061030 METAR LRCV 061030Z 06006KT 020V100 CAVOK 26/12 Q1017=
201909061100 METAR LRCV 061100Z 11005KT 030V190 CAVOK 27/12 Q1017=
201909061130 METAR LRCV 061130Z 08006KT 350V140 CAVOK 28/12 Q1017=
201909061200 METAR LRCV 061200Z 14008KT CAVOK 28/11 Q1017=
201909061230 METAR LRCV 061230Z 08006KT 050V120 CAVOK 28/10 Q1016=
201909061300 METAR LRCV 061300Z 15006KT 090V190 CAVOK 28/11 Q1016=
201909061330 METAR LRCV 061330Z 10007KT CAVOK 29/11 Q1016=
201909061400 METAR LRCV 061400Z 17004KT 120V230 CAVOK 29/11 Q1016=
201909061430 METAR LRCV 061430Z 11006KT 050V160 CAVOK 28/10 Q1016=
201909061500 METAR LRCV 061500Z 14005KT 100V180 CAVOK 28/10 Q1016=
201909061530 METAR LRCV 061530Z 08007KT 040V110 CAVOK 28/10 Q1016=
201909061600 METAR LRCV 061600Z 08007KT CAVOK 27/10 Q1016=
201909061630 METAR LRCV 061630Z 08004KT CAVOK 25/10 Q1016=
201909061700 METAR LRCV 061700Z 09005KT CAVOK 24/10 Q1016=
201909061730 METAR LRCV 061730Z 10004KT CAVOK 22/08 Q1016=
201909061800 METAR LRCV 061800Z 09004KT 360V100 CAVOK 22/09 Q1017=
201909061830 METAR LRCV 061830Z AUTO 09006KT 9999 NCD 21/08 Q1017=
201909061900 METAR LRCV 061900Z AUTO 09007KT 9999 NCD 21/09 Q1017=
201909061930 METAR LRCV 061930Z AUTO 09008KT 9999 NCD 21/10 Q1017=
201909062000 METAR LRCV 062000Z AUTO 08007KT 9999 NCD 20/10 Q1017=
201909062030 METAR LRCV 062030Z AUTO 07007KT 9999 NCD 19/09 Q1018=
201909062100 METAR LRCV 062100Z AUTO 07007KT 9999 NCD 18/09 Q1018=
201909062130 METAR LRCV 062130Z AUTO 07006KT 9999 NCD 18/09 Q1018=
201909062200 METAR LRCV 062200Z AUTO 07007KT 9999 NCD 17/09 Q1018=
201909062230 METAR LRCV 062230Z AUTO 07008KT 9999 NCD 16/09 Q1018=
201909062300 METAR LRCV 062300Z AUTO 07008KT 9999 FEW090/// 15/08 Q1018=
201909062330 METAR LRCV 062330Z AUTO 07008KT 9999 NCD 15/08 Q1018=
201909070000 METAR LRCV 070000Z AUTO 06008KT 9999 NCD 15/08 Q1018=
201909070030 METAR LRCV 070030Z AUTO 07009KT 9999 NCD 15/08 Q1018=
201909070100 METAR LRCV 070100Z AUTO 07009KT 9999 NCD 15/08 Q1018=
201909070130 METAR LRCV 070130Z AUTO 07009KT 9999 NCD 15/08 Q1018=
201909070200 METAR LRCV 070200Z AUTO 07009KT 9999 NCD 14/08 Q1018=
201909070230 METAR LRCV 070230Z AUTO 06008KT 9999 NCD 14/08 Q1018=
201909070300 METAR LRCV 070300Z AUTO 06008KT 9999 NCD 14/08 Q1018=
201909070330 METAR LRCV 070330Z AUTO 05007KT 9999 NCD 14/08 Q1018=
201909070400 METAR LRCV 070400Z AUTO 04006KT 9999 NCD 14/08 Q1018=
201909070430 METAR LRCV 070430Z AUTO 04006KT 9999 NCD 14/08 Q1019=
201909070500 METAR LRCV 070500Z AUTO 04007KT 9999 NCD 17/09 Q1018=
201909070530 METAR LRCV 070530Z AUTO 05006KT 9999 NCD 18/09 Q1019=
201909070600 METAR LRCV 070600Z 08008KT CAVOK 20/09 Q1019=
201909070630 METAR LRCV 070630Z 08009KT 060V120 CAVOK 21/09 Q1019=
201909070700 METAR LRCV 070700Z 08011KT CAVOK 22/09 Q1019=
201909070730 METAR LRCV 070730Z 09010KT CAVOK 23/10 Q1019=
201909070800 METAR LRCV 070800Z 09009KT CAVOK 24/11 Q1019=
201909070830 METAR LRCV 070830Z 08008KT CAVOK 25/11 Q1019=
201909070900 METAR LRCV 070900Z 09008KT 050V130 CAVOK 26/11 Q1019=
201909070930 METAR LRCV 070930Z 10010KT CAVOK 26/11 Q1019=
201909071000 METAR LRCV 071000Z 10010KT 070V130 CAVOK 27/11 Q1018=
201909071030 METAR LRCV 071030Z 09009KT 060V120 CAVOK 27/10 Q1018=
201909071100 METAR LRCV 071100Z 10010KT CAVOK 27/10 Q1018=
201909071130 METAR LRCV 071130Z 09007G17KT 050V130 CAVOK 27/09 Q1017=
201909071200 METAR LRCV 071200Z 09007KT 050V110 CAVOK 27/10 Q1017=
201909071230 METAR LRCV 071230Z 11010KT CAVOK 28/10 Q1017=
201909071300 METAR LRCV 071300Z 10008KT 060V120 CAVOK 28/10 Q1016=
201909071330 METAR LRCV 071330Z 10010KT CAVOK 28/10 Q1016=
201909071400 METAR LRCV 071400Z 09008KT 070V130 CAVOK 28/10 Q1016=
201909071430 METAR LRCV 071430Z 09010KT CAVOK 28/10 Q1016=
201909071500 METAR LRCV 071500Z 09011KT CAVOK 27/10 Q1016=
201909071530 METAR LRCV 071530Z 10009KT CAVOK 27/10 Q1016=
201909071600 METAR LRCV 071600Z 10007KT CAVOK 27/10 Q1016=
201909071630 METAR LRCV 071630Z AUTO 10006KT 9999 NCD 26/10 Q1016=
201909071700 METAR LRCV 071700Z AUTO 10005KT 9999 NCD 25/10 Q1016=
201909071730 METAR LRCV 071730Z AUTO 09004KT 9999 NCD 24/10 Q1017=
201909071800 METAR LRCV 071800Z AUTO 07004KT 9999 NCD 23/09 Q1017=
201909071830 METAR LRCV 071830Z AUTO 06004KT 9999 SCT120/// 22/09 Q1017=
201909071900 METAR LRCV 071900Z AUTO 06005KT 9999 BKN120/// 21/10 Q1017=
201909071930 METAR LRCV 071930Z AUTO 06006KT 9999 FEW100/// BKN120///
                        21/10 Q1017=
201909072000 METAR LRCV 072000Z AUTO 06006KT 9999 FEW100/// BKN120///
                        22/11 Q1017=
201909072030 METAR LRCV 072030Z AUTO 05007KT 9999 SCT110/// 22/11 Q1017=
201909072100 METAR LRCV 072100Z AUTO 05007KT 9999 BKN100/// 21/11 Q1017=
201909072130 METAR LRCV 072130Z AUTO 06006KT 9999 FEW180/// 20/11 Q1017=
201909072200 METAR LRCV 072200Z AUTO 06007KT 9999 SCT100/// 20/11 Q1017=
201909072230 METAR LRCV 072230Z AUTO 05008KT 9999 BKN100/// 20/11 Q1017=
201909072300 METAR LRCV 072300Z AUTO 06008KT 9999 FEW095/// SCT140///
                        20/11 Q1017=
201909072330 METAR LRCV 072330Z AUTO 07008KT 9999 FEW140/// 20/11 Q1017=
201909080000 METAR LRCV 080000Z AUTO 06009KT 9999 FEW140/// 20/11 Q1017=
201909080030 METAR LRCV 080030Z AUTO 07008KT 9999 FEW140/// 20/11 Q1016=
201909080100 METAR LRCV 080100Z AUTO 07007KT 9999 FEW100/// 19/11 Q1017=
201909080130 METAR LRCV 080130Z AUTO 07007KT 9999 BKN100/// 19/11 Q1017=
201909080200 METAR LRCV 080200Z AUTO 06008KT 9999 BKN100/// 20/11 Q1017=
201909080230 METAR LRCV 080230Z AUTO 07007KT 9999 FEW085/// SCT100///
                        20/11 Q1017=
201909080300 METAR LRCV 080300Z AUTO 07008KT 9999 SCT095/// 19/12 Q1018=
201909080330 METAR LRCV 080330Z AUTO 08010KT 9999 BKN100/// 19/12 Q1018=
201909080400 METAR LRCV 080400Z AUTO 08009KT 9999 -RA FEW036/// SCT075///
                        BKN100/// 19/11 Q1018=
201909080430 METAR LRCV 080430Z AUTO 07011KT 9999 FEW024/// 18/12 Q1018
                        RERA=
201909080500 METAR LRCV 080500Z AUTO 06010KT 9999 SCT120/// 18/13 Q1018
                        RERA=
201909080530 METAR LRCV 080530Z AUTO 06010KT 9999 SCT140/// 18/13 Q1018=
201909080600 METAR LRCV 080600Z 07011KT CAVOK 19/13 Q1018=
201909080630 METAR LRCV 080630Z 06011KT CAVOK 20/13 Q1018=
201909080700 METAR LRCV 080700Z 07014KT CAVOK 21/14 Q1018=
201909080730 METAR LRCV 080730Z 08013KT CAVOK 22/13 Q1019=
201909080800 METAR LRCV 080800Z 07012KT CAVOK 23/13 Q1019=
201909080830 METAR LRCV 080830Z 08014KT CAVOK 25/12 Q1019=
201909080900 METAR LRCV 080900Z 08013KT CAVOK 25/09 Q1019=
201909080930 METAR LRCV 080930Z 09013KT CAVOK 25/12 Q1019=
201909081000 METAR LRCV 081000Z 09013KT CAVOK 26/11 Q1018=
201909081030 METAR LRCV 081030Z 09013KT CAVOK 27/11 Q1018=
201909081100 METAR LRCV 081100Z 11011KT 070V140 CAVOK 28/12 Q1018=
201909081130 METAR LRCV 081130Z 10012KT CAVOK 27/12 Q1018=
201909081200 METAR LRCV 081200Z 07013KT CAVOK 28/12 Q1018=
201909081230 METAR LRCV 081230Z 12010KT CAVOK 28/11 Q1018=
201909081300 METAR LRCV 081300Z 11012KT CAVOK 28/10 Q1018=
201909081330 METAR LRCV 081330Z 08012KT CAVOK 28/12 Q1017=
201909081400 METAR LRCV 081400Z 10010KT CAVOK 29/12 Q1017=
201909081430 METAR LRCV 081430Z 08013KT 060V130 CAVOK 28/12 Q1017=
201909081500 METAR LRCV 081500Z 08012KT CAVOK 28/12 Q1017=
201909081530 METAR LRCV 081530Z 09013KT CAVOK 28/12 Q1017=
201909081600 METAR LRCV 081600Z 08012KT CAVOK 27/11 Q1017=
201909081630 METAR LRCV 081630Z 08010KT CAVOK 27/11 Q1017=
201909081700 METAR LRCV 081700Z 07008KT CAVOK 25/11 Q1017=
201909081730 METAR LRCV 081730Z AUTO 06007KT 9999 NCD 23/11 Q1017=
201909081800 METAR LRCV 081800Z AUTO 05008KT 9999 NCD 22/11 Q1017=
201909081830 METAR LRCV 081830Z AUTO 06008KT 9999 NCD 21/11 Q1017=
201909081900 METAR LRCV 081900Z AUTO 06010KT 9999 NCD 22/11 Q1017=
201909081930 METAR LRCV 081930Z AUTO 05010KT 9999 NCD 22/11 Q1018=
201909082000 METAR LRCV 082000Z AUTO 07012KT 9999 NCD 22/12 Q1018=
201909082030 METAR LRCV 082030Z AUTO 08013KT 9999 NCD 22/12 Q1018=
201909082100 METAR LRCV 082100Z AUTO 08014KT 9999 NCD 22/13 Q1018=
201909082130 METAR LRCV 082130Z AUTO 08014KT 9999 NCD ///// Q1018=
201909082200 METAR LRCV 082200Z AUTO 08014KT 9999 NCD 21/13 Q1018=
201909082230 METAR LRCV 082230Z AUTO 08014KT 9999 NCD 20/13 Q1018=
201909082300 METAR LRCV 082300Z AUTO 08014KT 9999 NCD 20/12 Q1018=
201909082330 METAR LRCV 082330Z AUTO 08012KT 9999 NCD 20/12 Q1018=
201909090000 METAR LRCV 090000Z AUTO 07011KT 9999 NCD 19/12 Q1018=
201909090030 METAR LRCV 090030Z AUTO 06010KT 9999 NCD 18/12 Q1018=
201909090100 METAR LRCV 090100Z AUTO 07010KT 9999 NCD 18/12 Q1018=
201909090130 METAR LRCV 090130Z AUTO 06011KT 9999 NCD 18/12 Q1018=
201909090200 METAR LRCV 090200Z AUTO 06012KT 9999 NCD 17/12 Q1018=
201909090230 METAR LRCV 090230Z AUTO 06013KT 9999 NCD 17/13 Q1018=
201909090300 METAR LRCV 090300Z AUTO 06012KT 9999 NCD 17/13 Q1018=
201909090330 METAR LRCV 090330Z AUTO 06012KT 9999 NCD 16/13 Q1018=
201909090400 METAR LRCV 090400Z AUTO 06013KT 9999 NCD 16/12 Q1018=
201909090430 METAR LRCV 090430Z AUTO 06011KT 9999 NCD 16/12 Q1018=
201909090500 METAR LRCV 090500Z AUTO 06011KT 9999 NCD 17/12 Q1018=
201909090530 METAR LRCV 090530Z AUTO 07014KT 9999 NCD 18/12 Q1018=
201909090600 METAR LRCV 090600Z 07014KT CAVOK 20/12 Q1018=
201909090630 METAR LRCV 090630Z 08016KT CAVOK 21/13 Q1018=
201909090700 METAR LRCV 090700Z 08015KT CAVOK 21/13 Q1018=
201909090730 METAR LRCV 090730Z 08017KT CAVOK 23/13 Q1018=
201909090800 METAR LRCV 090800Z 08017KT CAVOK 23/11 Q1017=
201909090830 METAR LRCV 090830Z 09016KT CAVOK 24/10 Q1017=
201909090900 METAR LRCV 090900Z 10016KT CAVOK 25/09 Q1017=
201909090930 METAR LRCV 090930Z 09014KT CAVOK 25/06 Q1017=
201909091000 METAR LRCV 091000Z 10013KT CAVOK 26/08 Q1017=
201909091030 METAR LRCV 091030Z 10012KT CAVOK 27/08 Q1016=
201909091100 METAR LRCV 091100Z 08014KT 060V130 CAVOK 27/08 Q1016=
201909091130 METAR LRCV 091130Z 09013KT CAVOK 27/08 Q1016=
201909091200 METAR LRCV 091200Z 07015KT CAVOK 27/08 Q1015=
201909091230 METAR LRCV 091230Z 09012KT CAVOK 27/08 Q1015=
201909091300 METAR LRCV 091300Z 10012G22KT CAVOK 28/08 Q1015=
201909091330 METAR LRCV 091330Z 08012G22KT 030V110 CAVOK 27/09 Q1015=
201909091400 METAR LRCV 091400Z 10012KT CAVOK 27/08 Q1014=
201909091430 METAR LRCV 091430Z 08013KT CAVOK 27/09 Q1014=
201909091500 METAR LRCV 091500Z 09012KT CAVOK 26/08 Q1014=
201909091530 METAR LRCV 091530Z 09012KT CAVOK 26/08 Q1015=
201909091600 METAR LRCV 091600Z 08011KT CAVOK 26/08 Q1014=
201909091630 METAR LRCV 091630Z 08010KT CAVOK 25/07 Q1014=
201909091700 METAR LRCV 091700Z 07007KT CAVOK 23/07 Q1014=
201909091730 METAR LRCV 091730Z AUTO 07008KT 9999 NCD 22/07 Q1014=
201909091800 METAR LRCV 091800Z AUTO 06007KT 9999 FEW100/// SCT130///
                        21/08 Q1014=
201909091830 METAR LRCV 091830Z AUTO 06008KT 9999 BKN110/// ///// Q1015=
201909091900 METAR LRCV 091900Z AUTO 06008KT 9999 FEW120/// 21/08 Q1015=
201909091930 METAR LRCV 091930Z AUTO 07008KT 9999 BKN120/// 21/09 Q1015=
201909092000 METAR LRCV 092000Z AUTO 07010KT 9999 FEW130/// 22/09 Q1015=
201909092030 METAR LRCV 092030Z AUTO 08012KT 9999 FEW080/// SCT095///
                        22/10 Q1015=
201909092100 METAR LRCV 092100Z AUTO 08012KT 9999 FEW075/// 21/10 Q1015=
201909092130 METAR LRCV 092130Z AUTO 08012KT 9999 FEW120/// 21/10 Q1015=
201909092200 METAR LRCV 092200Z AUTO 08012KT 9999 NCD 20/10 Q1015=
201909092230 METAR LRCV 092230Z AUTO 07012KT 9999 SCT075/// 20/11 Q1015=
201909092300 METAR LRCV 092300Z AUTO 06012KT 9999 FEW085/// 20/11 Q1015=
201909092330 METAR LRCV 092330Z AUTO 06014KT 9999 BKN080/// 19/11 Q1015=
201909100000 METAR LRCV 100000Z AUTO 05015KT 9999 FEW095/// 19/11 Q1015=
201909100030 METAR LRCV 100030Z AUTO 05014KT 9999 FEW075/// BKN120///
                        19/11 Q1016=
201909100100 METAR LRCV 100100Z AUTO 06015KT 9999 BKN075/// 19/11 Q1015=
201909100130 METAR LRCV 100130Z AUTO 05015KT 9999 NCD 18/11 Q1016=
201909100200 METAR LRCV 100200Z AUTO 05013KT 9999 NCD 18/12 Q1016=
201909100230 METAR LRCV 100230Z AUTO 05013KT 9999 NCD 17/12 Q1016=
201909100300 METAR LRCV 100300Z AUTO 05013KT 9999 FEW075/// 17/12 Q1016=
201909100330 METAR LRCV 100330Z AUTO 05013KT 9999 FEW075/// 17/13 Q1016=
201909100400 METAR LRCV 100400Z AUTO 04010KT 9999 FEW075/// 17/13 Q1017=
201909100430 METAR LRCV 100430Z AUTO 05007KT 9999 FEW075/// 17/13 Q1017=
201909100500 METAR LRCV 100500Z AUTO 05010KT 9999 SCT075/// 18/13 Q1017=
201909100530 METAR LRCV 100530Z AUTO 06013KT 9999 FEW075/// 19/13 Q1017=
201909100600 METAR LRCV 100600Z 06012KT CAVOK 19/13 Q1018=
201909100630 METAR LRCV 100630Z 07012KT CAVOK 20/13 Q1018=
201909100700 METAR LRCV 100700Z 07012KT CAVOK 21/14 Q1018=
201909100730 METAR LRCV 100730Z 08012KT CAVOK 22/14 Q1018=
201909100800 METAR LRCV 100800Z 08011KT CAVOK 23/13 Q1018=
201909100830 METAR LRCV 100830Z 08010KT CAVOK 23/13 Q1018=
201909100900 METAR LRCV 100900Z 07009KT CAVOK 24/13 Q1018=
201909100930 METAR LRCV 100930Z 08008KT CAVOK 24/12 Q1018=
201909101000 METAR LRCV 101000Z 09008KT CAVOK 25/12 Q1018=
201909101030 METAR LRCV 101030Z 08009KT 050V110 CAVOK 25/12 Q1018=
201909101100 METAR LRCV 101100Z 09009KT 050V130 CAVOK 26/11 Q1018=
201909101130 METAR LRCV 101130Z 04010KT 010V070 CAVOK 26/10 Q1018=
201909101200 METAR LRCV 101200Z 07008KT CAVOK 26/10 Q1018=
201909101230 METAR LRCV 101230Z 05007KT CAVOK 27/10 Q1017=
201909101300 METAR LRCV 101300Z 06006KT 030V100 CAVOK 27/10 Q1017=
201909101330 METAR LRCV 101330Z VRB04KT CAVOK 27/09 Q1017=
201909101400 METAR LRCV 101400Z 04007KT CAVOK 27/09 Q1017=
201909101430 METAR LRCV 101430Z 10007KT CAVOK 27/09 Q1017=
201909101500 METAR LRCV 101500Z 08008KT CAVOK 27/08 Q1017=
201909101530 METAR LRCV 101530Z 08009KT CAVOK 26/08 Q1017=
201909101600 METAR LRCV 101600Z 08007KT CAVOK 26/08 Q1017=
201909101630 METAR LRCV 101630Z AUTO 05006KT 9999 NCD 24/09 Q1017=
201909101700 METAR LRCV 101700Z AUTO 04006KT 9999 NCD 22/08 Q1017=
201909101730 METAR LRCV 101730Z AUTO 06005KT 9999 NCD 20/08 Q1018=
201909101800 METAR LRCV 101800Z AUTO 07006KT 9999 NCD 19/08 Q1018=
201909101830 METAR LRCV 101830Z AUTO 07007KT 9999 NCD 18/08 Q1018=
201909101900 METAR LRCV 101900Z AUTO 07007KT 9999 NCD 18/09 Q1019=
201909101930 METAR LRCV 101930Z AUTO 06007KT 9999 NCD 18/09 Q1019=
201909102000 METAR LRCV 102000Z AUTO 07006KT 9999 NCD 17/08 Q1019=
201909102030 METAR LRCV 102030Z AUTO 06007KT 9999 NCD 17/08 Q1019=
201909102100 METAR LRCV 102100Z AUTO 05004KT 9999 NCD 17/09 Q1019=
201909102130 METAR LRCV 102130Z AUTO 03005KT 9999 NCD 16/09 Q1019=
201909102200 METAR LRCV 102200Z AUTO 04005KT 030V110 9999 NCD 16/09 Q1020=
201909102230 METAR LRCV 102230Z AUTO 04006KT 9999 NCD 17/09 Q1020=
201909102300 METAR LRCV 102300Z AUTO 05006KT 9999 NCD 17/09 Q1020=
201909102330 METAR LRCV 102330Z AUTO 03007KT 010V070 9999 NCD 17/10 Q1020=
201909110000 METAR LRCV 110000Z AUTO 03006KT 9999 NCD 16/10 Q1020=
201909110030 METAR LRCV 110030Z AUTO 02006KT 9999 NCD 15/10 Q1020=
201909110100 METAR LRCV 110100Z AUTO 03006KT 9999 NCD 16/10 Q1020=
201909110130 METAR LRCV 110130Z AUTO 02004KT 9999 NCD 15/10 Q1020=
201909110200 METAR LRCV 110200Z AUTO 02005KT 9999 NCD 14/10 Q1020=
201909110230 METAR LRCV 110230Z AUTO 03006KT 9999 NCD 14/10 Q1020=
201909110300 METAR LRCV 110300Z AUTO 02006KT 9999 NCD 14/10 Q1021=
201909110330 METAR LRCV 110330Z AUTO 03005KT 9999 NCD 14/10 Q1021=
201909110400 METAR LRCV 110400Z AUTO 04004KT 9999 NCD 13/10 Q1021=
201909110430 METAR LRCV 110430Z AUTO 03004KT 9999 NCD 14/10 Q1021=
201909110500 METAR LRCV 110500Z AUTO 03004KT 9999 NCD 15/11 Q1022=
201909110530 METAR LRCV 110530Z AUTO 03007KT 9999 NCD 18/11 Q1022=
201909110600 METAR LRCV 110600Z 05008KT CAVOK 19/11 Q1022=
201909110630 METAR LRCV 110630Z 06009KT CAVOK 20/11 Q1022=
201909110700 METAR LRCV 110700Z 08010KT CAVOK 21/10 Q1022=
201909110730 METAR LRCV 110730Z 10010KT CAVOK 22/10 Q1022=
201909110800 METAR LRCV 110800Z 08010KT 050V120 CAVOK 23/12 Q1023=
201909110830 METAR LRCV 110830Z 07009KT 040V110 9999 FEW045 24/12 Q1023=
201909110900 METAR LRCV 110900Z 08009KT 040V110 9999 SCT048 24/12 Q1023=
201909110930 METAR LRCV 110930Z 09009KT 060V130 9999 SCT048 25/13 Q1023=
201909111000 METAR LRCV 111000Z 06011KT 9999 SCT049 25/12 Q1023=
201909111030 METAR LRCV 111030Z 10009KT 9999 BKN049 26/12 Q1022=
201909111100 METAR LRCV 111100Z 08009KT 050V120 9999 BKN049 26/12 Q1022=
201909111130 METAR LRCV 111130Z 09010KT 050V120 CAVOK 26/12 Q1022=
201909111200 METAR LRCV 111200Z 07011KT CAVOK 26/12 Q1022=
201909111230 METAR LRCV 111230Z 08010KT CAVOK 27/11 Q1022=
201909111300 METAR LRCV 111300Z 10010KT CAVOK 26/10 Q1022=
201909111330 METAR LRCV 111330Z 07011KT 040V100 CAVOK 27/11 Q1021=
201909111400 METAR LRCV 111400Z 07011KT CAVOK 26/11 Q1021=
201909111430 METAR LRCV 111430Z 07013KT CAVOK 26/11 Q1021=
201909111500 METAR LRCV 111500Z 08011KT CAVOK 26/11 Q1021=
201909111530 METAR LRCV 111530Z 07009KT CAVOK 25/11 Q1021=
201909111600 METAR LRCV 111600Z 09009KT 060V130 CAVOK 26/11 Q1021=
201909111630 METAR LRCV 111630Z 07009KT CAVOK 25/11 Q1022=
201909111700 METAR LRCV 111700Z 07006KT CAVOK 22/10 Q1022=
201909111730 METAR LRCV 111730Z AUTO 06006KT 9999 NCD 21/10 Q1022=
201909111800 METAR LRCV 111800Z AUTO 04005KT 9999 NCD 20/10 Q1022=
201909111830 METAR LRCV 111830Z AUTO 04005KT 9999 FEW130/// 19/10 Q1023=
201909111900 METAR LRCV 111900Z AUTO 03003KT 9999 FEW075/// 19/10 Q1023=
201909111930 METAR LRCV 111930Z AUTO 02003KT 9999 FEW075/// 20/10 Q1023=
201909112000 METAR LRCV 112000Z AUTO 02005KT 9999 FEW075/// 19/09 Q1023=
201909112030 METAR LRCV 112030Z AUTO 02005KT 9999 FEW080/// 19/09 Q1023=
201909112100 METAR LRCV 112100Z AUTO 02006KT 9999 NCD 19/09 Q1023=
201909112130 METAR LRCV 112130Z AUTO 03007KT 9999 NCD 19/09 Q1023=
201909112200 METAR LRCV 112200Z AUTO 05008KT 9999 NCD 19/09 Q1023=
201909112230 METAR LRCV 112230Z AUTO 05008KT 9999 FEW080/// 19/10 Q1023=
201909112300 METAR LRCV 112300Z AUTO 05009KT 9999 FEW080/// 18/10 Q1023=
201909112330 METAR LRCV 112330Z AUTO 04009KT 9999 FEW080/// 18/10 Q1023=
201909120000 METAR LRCV 120000Z AUTO 04007KT 9999 NCD 17/10 Q1023=
201909120030 METAR LRCV 120030Z AUTO 03006KT 9999 NCD 17/10 Q1023=
201909120100 METAR LRCV 120100Z AUTO 36004KT 9999 FEW080/// 17/10 Q1023=
201909120130 METAR LRCV 120130Z AUTO 01003KT 9999 NCD 17/10 Q1023=
201909120200 METAR LRCV 120200Z AUTO 36004KT 9999 NCD 16/10 Q1023=
201909120230 METAR LRCV 120230Z AUTO 33004KT 320V020 9999 NCD 16/10 Q1023=
201909120300 METAR LRCV 120300Z AUTO 33005KT 9999 NCD 16/10 Q1024=
201909120330 METAR LRCV 120330Z AUTO 34004KT 330V080 9999 NCD 15/09 Q1024=
201909120400 METAR LRCV 120400Z AUTO 33004KT 9999 NCD 15/09 Q1024=
201909120430 METAR LRCV 120430Z AUTO 29004KT 9999 NCD 14/10 Q1024=
201909120500 METAR LRCV 120500Z AUTO 30004KT 9999 NCD 15/10 Q1024=
201909120530 METAR LRCV 120530Z AUTO 28003KT 9999 NCD 16/10 Q1024=
201909120600 METAR LRCV 120600Z 28004KT CAVOK 17/10 Q1024=
201909120630 METAR LRCV 120630Z 34004KT 300V020 CAVOK 19/09 Q1025=
201909120700 METAR LRCV 120700Z 01003KT 340V040 CAVOK 20/09 Q1025=
201909120730 METAR LRCV 120730Z 05005KT CAVOK 22/08 Q1025=
201909120800 METAR LRCV 120800Z 09006KT 040V150 CAVOK 23/08 Q1025=
201909120830 METAR LRCV 120830Z 09005KT 040V140 CAVOK 24/08 Q1026=
201909120900 METAR LRCV 120900Z 09005KT 040V150 CAVOK 25/07 Q1026=
201909120930 METAR LRCV 120930Z VRB03KT CAVOK 25/07 Q1025=
201909121000 METAR LRCV 121000Z 06008KT CAVOK 25/06 Q1025=
201909121030 METAR LRCV 121030Z 05006KT 010V080 CAVOK 26/06 Q1025=
201909121100 METAR LRCV 121100Z 07007KT 020V110 CAVOK 26/06 Q1025=
201909121130 METAR LRCV 121130Z 01006KT 340V040 CAVOK 27/06 Q1025=
201909121200 METAR LRCV 121200Z 32009KT CAVOK 27/06 Q1025=
201909121230 METAR LRCV 121230Z 03010KT CAVOK 28/06 Q1024=
201909121300 METAR LRCV 121300Z 05009KT 360V070 CAVOK 28/06 Q1024=
201909121330 METAR LRCV 121330Z 02006KT CAVOK 28/06 Q1024=
201909121400 METAR LRCV 121400Z 04007KT 010V090 CAVOK 28/04 Q1024=
201909121430 METAR LRCV 121430Z 05006KT 020V080 CAVOK 27/04 Q1024=
201909121500 METAR LRCV 121500Z 01005KT CAVOK 27/05 Q1024=
201909121530 METAR LRCV 121530Z 06008KT CAVOK 27/06 Q1024=
201909121600 METAR LRCV 121600Z 05007KT CAVOK 26/05 Q1024=
201909121630 METAR LRCV 121630Z AUTO 05006KT 9999 NCD 24/05 Q1024=
201909121700 METAR LRCV 121700Z AUTO 05005KT 9999 NCD 22/05 Q1024=
201909121730 METAR LRCV 121730Z AUTO 03003KT 9999 NCD 22/06 Q1025=
201909121800 METAR LRCV 121800Z AUTO 04001KT 9999 NCD 22/06 Q1025=
201909121830 METAR LRCV 121830Z AUTO 05003KT 9999 NCD 22/06 Q1025=
201909121900 METAR LRCV 121900Z AUTO 03002KT 9999 NCD 20/06 Q1025=
201909121930 METAR LRCV 121930Z AUTO 06003KT 9999 NCD 19/06 Q1025=
201909122000 METAR LRCV 122000Z AUTO 01003KT 9999 NCD 19/06 Q1025=
201909122030 METAR LRCV 122030Z AUTO 35003KT 9999 NCD 18/06 Q1025=
201909122100 METAR LRCV 122100Z AUTO 35003KT 9999 NCD 17/06 Q1025=
201909122130 METAR LRCV 122130Z AUTO 35003KT 9999 NCD 18/06 Q1025=
201909122200 METAR LRCV 122200Z AUTO 31004KT 9999 NCD 18/06 Q1025=
201909122230 METAR LRCV 122230Z AUTO 33005KT 9999 NCD 17/06 Q1026=
201909122300 METAR LRCV 122300Z AUTO 35004KT 9999 NCD 16/06 Q1026=
201909122330 METAR LRCV 122330Z AUTO 32005KT 9999 NCD 16/07 Q1025=
201909130000 METAR LRCV 130000Z AUTO 35005KT 9999 NCD 16/06 Q1025=
201909130030 METAR LRCV 130030Z AUTO 35006KT 9999 NCD 16/07 Q1025=
201909130100 METAR LRCV 130100Z AUTO 34005KT 9999 NCD 16/07 Q1025=
201909130130 METAR LRCV 130130Z AUTO 34006KT 9999 NCD 16/07 Q1025=
201909130200 METAR LRCV 130200Z AUTO 08004KT 030V130 9999 NCD 15/06 Q1026=
201909130230 METAR LRCV 130230Z AUTO 32003KT 9999 NCD 14/07 Q1026=
201909130300 METAR LRCV 130300Z AUTO 35006KT 9999 NCD 15/07 Q1026=
201909130330 METAR LRCV 130330Z AUTO 34006KT 9999 NCD 15/06 Q1026=
201909130400 METAR LRCV 130400Z AUTO 33005KT 9999 NCD 15/06 Q1026=
201909130430 METAR LRCV 130430Z AUTO 33004KT 9999 NCD 14/06 Q1026=
201909130500 METAR LRCV 130500Z AUTO 33005KT 9999 R09/1900VP2000U NCD
                        15/06 Q1026=
201909130530 METAR LRCV 130530Z AUTO 33003KT 300V010 9999 NCD 16/07 Q1026=
201909130600 METAR LRCV 130600Z 34004KT CAVOK 19/07 Q1027=
201909130630 METAR LRCV 130630Z 35004KT 320V020 CAVOK 21/07 Q1027=
201909130700 METAR LRCV 130700Z 35005KT 310V020 CAVOK 24/06 Q1027=
201909130730 METAR LRCV 130730Z 03005KT 350V060 CAVOK 25/07 Q1027=
201909130800 METAR LRCV 130800Z 08004KT 030V120 CAVOK 26/06 Q1027=
201909130830 METAR LRCV 130830Z VRB04KT CAVOK 26/05 Q1027=
201909130900 METAR LRCV 130900Z VRB02KT CAVOK 27/05 Q1027=
201909130930 METAR LRCV 130930Z 02006KT 310V080 CAVOK 28/03 Q1026=
201909131000 METAR LRCV 131000Z VRB02KT CAVOK 28/02 Q1026=
201909131030 METAR LRCV 131030Z 08006KT CAVOK 28/02 Q1026=
201909131100 METAR LRCV 131100Z 03006KT 360V060 CAVOK 29/02 Q1026=
201909131130 METAR LRCV 131130Z 13007KT CAVOK 29/02 Q1025=
201909131200 METAR LRCV 131200Z VRB05KT CAVOK 29/02 Q1025=
201909131230 METAR LRCV 131230Z 15006KT CAVOK 29/01 Q1025=
201909131300 METAR LRCV 131300Z 01005KT 290V100 CAVOK 29/01 Q1025=
201909131330 METAR LRCV 131330Z 17004KT 100V250 CAVOK 30/02 Q1024=
201909131400 METAR LRCV 131400Z 34006KT 230V020 CAVOK 29/01 Q1024=
201909131430 METAR LRCV 131430Z VRB02KT CAVOK 29/01 Q1024=
201909131500 METAR LRCV 131500Z 31004KT 230V010 CAVOK 29/02 Q1024=
201909131530 METAR LRCV 131530Z 27003KT 230V310 CAVOK 29/02 Q1024=
201909131600 METAR LRCV 131600Z 29005KT CAVOK 27/04 Q1024=
201909131630 METAR LRCV 131630Z 26004KT CAVOK 25/04 Q1024=
201909131700 METAR LRCV 131700Z 28004KT CAVOK 24/04 Q1024=
201909131730 METAR LRCV 131730Z AUTO 29001KT 9999 NCD 24/04 Q1024=
201909131800 METAR LRCV 131800Z AUTO 23001KT 9999 NCD 23/04 Q1024=
201909131830 METAR LRCV 131830Z AUTO 22004KT 160V240 9999 FEW150/// 22/05
                        Q1024=
201909131900 METAR LRCV 131900Z AUTO 20006KT 9999 NCD 20/04 Q1025=
201909131930 METAR LRCV 131930Z AUTO 21006KT 9999 NCD 20/04 Q1025=
201909132000 METAR LRCV 132000Z AUTO 22006KT 9999 NCD 19/05 Q1025=
201909132030 METAR LRCV 132030Z AUTO 24005KT 9999 NCD 20/05 Q1025=
201909132100 METAR LRCV 132100Z AUTO 26005KT 9999 NCD 20/05 Q1025=
201909132130 METAR LRCV 132130Z AUTO 28005KT 9999 NCD 19/06 Q1025=
201909132200 METAR LRCV 132200Z AUTO 33004KT 9999 NCD 17/05 Q1025=
201909132230 METAR LRCV 132230Z AUTO 34004KT 9999 NCD 18/05 Q1025=
201909132300 METAR LRCV 132300Z AUTO 31003KT 9999 NCD 16/06 Q1025=
201909132330 METAR LRCV 132330Z AUTO 31004KT 9999 NCD 17/05 Q1024=
201909140000 METAR LRCV 140000Z AUTO 34005KT 9999 NCD 16/05 Q1024=
201909140030 METAR LRCV 140030Z AUTO 33004KT 9999 NCD 16/06 Q1024=
201909140100 METAR LRCV 140100Z AUTO 34004KT 9999 NCD 16/06 Q1024=
201909140130 METAR LRCV 140130Z AUTO 31005KT 9999 NCD 15/06 Q1024=
201909140200 METAR LRCV 140200Z AUTO 28003KT 9999 NCD 14/06 Q1024=
201909140230 METAR LRCV 140230Z AUTO 27005KT 9999 NCD 13/06 Q1024=
201909140300 METAR LRCV 140300Z AUTO 27008KT 9999 NCD 11/07 Q1024=
201909140330 METAR LRCV 140330Z AUTO 27007KT 9999 NCD 11/08 Q1024=
201909140400 METAR LRCV 140400Z AUTO 26007KT 9999 NCD 11/08 Q1024=
201909140430 METAR LRCV 140430Z AUTO 27007KT 9999 NCD 13/08 Q1024=
201909140500 METAR LRCV 140500Z AUTO 27007KT 9999 NCD 14/09 Q1024=
201909140530 METAR LRCV 140530Z AUTO 27006KT 9999 NCD 16/10 Q1025=
201909140600 METAR LRCV 140600Z 27004KT CAVOK 18/10 Q1025=
201909140630 METAR LRCV 140630Z 25004KT CAVOK 20/10 Q1025=
201909140700 METAR LRCV 140700Z 24003KT 200V270 CAVOK 21/10 Q1025=
201909140730 METAR LRCV 140730Z 27004KT 230V300 CAVOK 22/10 Q1025=
201909140800 METAR LRCV 140800Z VRB03KT CAVOK 24/11 Q1024=
201909140830 METAR LRCV 140830Z VRB04KT CAVOK 26/11 Q1024=
201909140900 METAR LRCV 140900Z 26004KT 180V340 CAVOK 27/10 Q1024=
201909140930 METAR LRCV 140930Z 27004KT 210V320 CAVOK 27/09 Q1024=
201909141000 METAR LRCV 141000Z 25004KT 200V330 CAVOK 28/06 Q1024=
201909141030 METAR LRCV 141030Z 29006KT 240V350 CAVOK 29/07 Q1024=
201909141100 METAR LRCV 141100Z 20006KT 180V240 CAVOK 30/06 Q1024=
201909141130 METAR LRCV 141130Z VRB04KT CAVOK 30/05 Q1023=
201909141200 METAR LRCV 141200Z 35004KT 260V060 CAVOK 29/07 Q1023=
201909141230 METAR LRCV 141230Z 22006KT 190V270 CAVOK 29/07 Q1023=
201909141300 METAR LRCV 141300Z VRB04KT CAVOK 30/07 Q1023=
201909141330 METAR LRCV 141330Z 34005KT 290V040 CAVOK 30/07 Q1022=
201909141400 METAR LRCV 141400Z VRB03KT CAVOK 30/07 Q1022=
201909141430 METAR LRCV 141430Z 23003KT 150V300 CAVOK 30/07 Q1022=
201909141500 METAR LRCV 141500Z 25006KT CAVOK 29/07 Q1022=
201909141530 METAR LRCV 141530Z 24004KT CAVOK 29/07 Q1022=
201909141600 METAR LRCV 141600Z 26005KT CAVOK 27/08 Q1022=
201909141630 METAR LRCV 141630Z AUTO 25003KT 9999 NCD 25/09 Q1022=
201909141700 METAR LRCV 141700Z AUTO 25002KT 9999 NCD 25/09 Q1022=
201909141730 METAR LRCV 141730Z AUTO 22005KT 9999 NCD 24/09 Q1022=
201909141800 METAR LRCV 141800Z AUTO 26007KT 9999 NCD 22/11 Q1023=
201909141830 METAR LRCV 141830Z AUTO 24007KT 9999 NCD 22/11 Q1023=
201909141900 METAR LRCV 141900Z AUTO 31006KT 9999 NCD 23/11 Q1023=
201909141930 METAR LRCV 141930Z AUTO 28005KT 9999 NCD 21/11 Q1023=
201909142000 METAR LRCV 142000Z AUTO 34005KT 9999 NCD 22/10 Q1023=
201909142030 METAR LRCV 142030Z AUTO 02006KT 9999 NCD 20/09 Q1023=
201909142100 METAR LRCV 142100Z AUTO 06012KT 9999 FEW090/// 22/10 Q1024=
201909142130 METAR LRCV 142130Z AUTO 08013KT 9999 NCD 22/11 Q1024=
201909142200 METAR LRCV 142200Z AUTO 08013KT 9999 NCD 21/12 Q1024=
201909142230 METAR LRCV 142230Z AUTO 08014KT 9999 NCD 21/12 Q1025=
201909142300 METAR LRCV 142300Z AUTO 08014KT 9999 NCD 20/12 Q1025=
201909142330 METAR LRCV 142330Z AUTO 09012KT 9999 NCD 19/11 Q1026=
201909150000 METAR LRCV 150000Z AUTO 08014KT 9999 FEW090/// 19/10 Q1026=
201909150030 METAR LRCV 150030Z AUTO 09014KT 9999 NCD 19/09 Q1026=
201909150100 METAR LRCV 150100Z AUTO 09015KT 9999 NCD 19/08 Q1026=
201909150130 METAR LRCV 150130Z AUTO 09013KT 9999 NCD 18/07 Q1026=
201909150200 METAR LRCV 150200Z AUTO 08012KT 9999 NCD 18/06 Q1026=
201909150230 METAR LRCV 150230Z AUTO 08011KT 9999 NCD 17/06 Q1026=
201909150300 METAR LRCV 150300Z AUTO 07010KT 9999 NCD 16/06 Q1026=
201909150330 METAR LRCV 150330Z AUTO 06010KT 9999 NCD 16/06 Q1027=
201909150400 METAR LRCV 150400Z AUTO 07010KT 9999 NCD 16/06 Q1027=
201909150430 METAR LRCV 150430Z AUTO 06010KT 9999 NCD 15/06 Q1027=
201909150500 METAR LRCV 150500Z AUTO 05010KT 9999 NCD 16/06 Q1027=
201909150530 METAR LRCV 150530Z AUTO 05010KT 9999 NCD 17/07 Q1027=
201909150600 METAR LRCV 150600Z 07010KT CAVOK 18/07 Q1027=
201909150630 METAR LRCV 150630Z 07012KT CAVOK 19/06 Q1027=
201909150700 METAR LRCV 150700Z 08012KT CAVOK 20/06 Q1027=
201909150730 METAR LRCV 150730Z 08013KT CAVOK 21/06 Q1027=
201909150800 METAR LRCV 150800Z 07013KT CAVOK 21/06 Q1028=
201909150830 METAR LRCV 150830Z 09009KT 060V120 CAVOK 22/05 Q1028=
201909150900 METAR LRCV 150900Z 10008KT 070V140 CAVOK 22/05 Q1027=
201909150930 METAR LRCV 150930Z 09007KT 050V130 CAVOK 23/05 Q1027=
201909151000 METAR LRCV 151000Z 11005KT 060V190 CAVOK 23/06 Q1027=
201909151030 METAR LRCV 151030Z 14006KT 100V200 CAVOK 24/06 Q1027=
201909151100 METAR LRCV 151100Z 02006KT 010V070 CAVOK 25/07 Q1026=
201909151130 METAR LRCV 151130Z VRB04KT CAVOK 25/07 Q1026=
201909151200 METAR LRCV 151200Z 22003KT 130V280 CAVOK 25/07 Q1025=
201909151230 METAR LRCV 151230Z VRB04KT CAVOK 26/07 Q1025=
201909151300 METAR LRCV 151300Z VRB03KT CAVOK 26/07 Q1024=
201909151330 METAR LRCV 151330Z VRB03KT CAVOK 26/07 Q1024=
201909151400 METAR LRCV 151400Z 26003KT 160V320 CAVOK 26/07 Q1023=
201909151430 METAR LRCV 151430Z 29005KT 230V020 CAVOK 26/07 Q1023=
201909151500 METAR LRCV 151500Z 15005KT 110V190 CAVOK 25/07 Q1023=
201909151530 METAR LRCV 151530Z 21004KT CAVOK 25/08 Q1023=
201909151600 METAR LRCV 151600Z 21003KT CAVOK 24/08 Q1022=
201909151630 METAR LRCV 151630Z 19004KT CAVOK 23/08 Q1022=
201909151700 METAR LRCV 151700Z 21003KT CAVOK 22/08 Q1022=
201909151730 METAR LRCV 151730Z AUTO VRB01KT 9999 NCD 21/08 Q1022=
201909151800 METAR LRCV 151800Z AUTO 17001KT 9999 NCD 21/08 Q1022=
201909151830 METAR LRCV 151830Z AUTO 00000KT 9999 NCD 18/08 Q1022=
201909151900 METAR LRCV 151900Z AUTO 20001KT 9999 NCD 18/08 Q1022=
201909151930 METAR LRCV 151930Z AUTO 20002KT 9999 NCD 18/08 Q1022=
201909152000 METAR LRCV 152000Z AUTO 20003KT 9999 NCD 18/08 Q1022=
201909152030 METAR LRCV 152030Z AUTO 19003KT 9999 NCD ///// Q1021=
201909152100 METAR LRCV 152100Z AUTO 24004KT 9999 NCD 14/07 Q1021=
201909152130 METAR LRCV 152130Z AUTO 00000KT 9999 NCD 15/08 Q1021=
201909152200 METAR LRCV 152200Z AUTO 31001KT 9999 NCD 14/08 Q1021=
201909152230 METAR LRCV 152230Z AUTO 35002KT 9999 NCD 14/08 Q1021=
201909152300 METAR LRCV 152300Z AUTO 34002KT 9999 NCD 14/08 Q1021=
201909152330 METAR LRCV 152330Z AUTO 31004KT 9999 NCD 13/08 Q1021=
201909160000 METAR LRCV 160000Z AUTO 33003KT 9999 NCD 14/08 Q1020=
201909160030 METAR LRCV 160030Z AUTO 30002KT 9999 NCD 13/08 Q1020=
201909160100 METAR LRCV 160100Z AUTO 32001KT 9999 NCD 12/08 Q1020=
201909160130 METAR LRCV 160130Z AUTO 27004KT 9999 NCD 13/08 Q1020=
201909160200 METAR LRCV 160200Z AUTO 27006KT 9999 NCD 11/08 Q1019=
201909160230 METAR LRCV 160230Z AUTO 31004KT 9999 NCD 10/06 Q1019=
201909160300 METAR LRCV 160300Z AUTO 00000KT 9000 NCD 11/08 Q1019=
201909160330 METAR LRCV 160330Z AUTO VRB01KT 9999 NCD 10/07 Q1019=
201909160400 METAR LRCV 160400Z AUTO 08001KT 9999 NCD 10/07 Q1019=
201909160430 METAR LRCV 160430Z AUTO 32002KT 9999 NCD 11/08 Q1019=
201909160500 METAR LRCV 160500Z AUTO VRB01KT 9999 NCD 12/08 Q1019=
201909160530 METAR LRCV 160530Z AUTO 00000KT 9999 NCD 15/09 Q1019=
201909160600 METAR LRCV 160600Z 28003KT 250V310 CAVOK 16/10 Q1019=
201909160630 METAR LRCV 160630Z 25003KT 210V300 CAVOK 18/10 Q1018=
201909160700 METAR LRCV 160700Z 23005KT 200V260 CAVOK 19/10 Q1018=
201909160730 METAR LRCV 160730Z 24004KT 200V280 CAVOK 20/10 Q1018=
201909160800 METAR LRCV 160800Z 22005KT 190V270 CAVOK 22/10 Q1018=
201909160830 METAR LRCV 160830Z 23005KT 190V290 CAVOK 23/10 Q1018=
201909160900 METAR LRCV 160900Z 24005KT 180V280 CAVOK 24/10 Q1018=
201909160930 METAR LRCV 160930Z 26008KT CAVOK 25/10 Q1017=
201909161000 METAR LRCV 161000Z 24009KT 220V290 CAVOK 27/09 Q1017=
201909161030 METAR LRCV 161030Z 27008KT 230V310 CAVOK 27/07 Q1016=
201909161100 METAR LRCV 161100Z 27008KT 250V310 CAVOK 27/07 Q1016=
201909161130 METAR LRCV 161130Z VRB04KT CAVOK 27/08 Q1016=
201909161200 METAR LRCV 161200Z 30008KT 230V340 CAVOK 28/06 Q1015=
201909161230 METAR LRCV 161230Z 27006KT 220V300 CAVOK 29/06 Q1015=
201909161300 METAR LRCV 161300Z 27007KT 240V300 CAVOK 29/07 Q1014=
201909161330 METAR LRCV 161330Z 27006KT 210V310 CAVOK 30/08 Q1014=
201909161400 METAR LRCV 161400Z 30011KT CAVOK 29/06 Q1014=
201909161430 METAR LRCV 161430Z 29009KT 260V330 CAVOK 29/07 Q1014=
201909161500 METAR LRCV 161500Z 28006KT CAVOK 29/06 Q1014=
201909161530 METAR LRCV 161530Z 26005KT 220V290 CAVOK 29/06 Q1013=
201909161600 METAR LRCV 161600Z 26005KT CAVOK 27/06 Q1013=
201909161630 METAR LRCV 161630Z 32003KT CAVOK 27/06 Q1013=
201909161700 METAR LRCV 161700Z 00000KT CAVOK 24/07 Q1013=
201909161730 METAR LRCV 161730Z AUTO 20005KT 9999 NCD 23/07 Q1013=
201909161800 METAR LRCV 161800Z AUTO 23005KT 9999 NCD 23/08 Q1014=
201909161830 METAR LRCV 161830Z AUTO 23006KT 9999 NCD 22/09 Q1014=
201909161900 METAR LRCV 161900Z AUTO 24007KT 9999 NCD 19/10 Q1014=
201909161930 METAR LRCV 161930Z AUTO 26008KT 9999 NCD 20/09 Q1014=
201909162000 METAR LRCV 162000Z AUTO 25009KT 9999 NCD 19/09 Q1014=
201909162030 METAR LRCV 162030Z AUTO 25008KT 9999 NCD 18/09 Q1014=
201909162100 METAR LRCV 162100Z AUTO 26007KT 9999 NCD 17/09 Q1014=
201909162130 METAR LRCV 162130Z AUTO 26009KT 9999 NCD 16/08 Q1013=
201909162200 METAR LRCV 162200Z AUTO 26009KT 9999 NCD 16/08 Q1013=
201909162230 METAR LRCV 162230Z AUTO 28005KT 9999 NCD 16/08 Q1013=
201909162300 METAR LRCV 162300Z AUTO 27007KT 9999 NCD 15/08 Q1013=
201909162330 METAR LRCV 162330Z AUTO 27005KT 9999 NCD 15/08 Q1013=
201909170000 METAR LRCV 170000Z AUTO 28006KT 9999 NCD 15/09 Q1013=
201909170030 METAR LRCV 170030Z AUTO 29005KT 9999 NCD 15/09 Q1013=
201909170100 METAR LRCV 170100Z AUTO 30005KT 9999 NCD 16/09 Q1013=
201909170130 METAR LRCV 170130Z AUTO 28007KT 9999 NCD 14/09 Q1013=
201909170200 METAR LRCV 170200Z AUTO 28006KT 9999 NCD 16/10 Q1013=
201909170230 METAR LRCV 170230Z AUTO 26008KT 9999 NCD 15/09 Q1013=
201909170300 METAR LRCV 170300Z AUTO 26007KT 9999 NCD 13/09 Q1013=
201909170330 METAR LRCV 170330Z AUTO 24007KT 9999 NCD 13/09 Q1013=
201909170400 METAR LRCV 170400Z AUTO 25006KT 9999 NCD 13/09 Q1013=
201909170430 METAR LRCV 170430Z AUTO 27006KT 9999 NCD 14/10 Q1013=
201909170500 METAR LRCV 170500Z AUTO 31005KT 9999 NCD 15/09 Q1013=
201909170530 METAR LRCV 170530Z AUTO 28004KT 9999 NCD 17/10 Q1013=
201909170600 METAR COR LRCV 170600Z 29005KT CAVOK 19/10 Q1013=
201909170630 METAR LRCV 170630Z 28005KT CAVOK 21/11 Q1014=
201909170700 METAR LRCV 170700Z 28007KT CAVOK 21/10 Q1014=
201909170730 METAR LRCV 170730Z 27007KT CAVOK 23/10 Q1014=
201909170800 METAR LRCV 170800Z 30007KT 270V340 CAVOK 24/11 Q1014=
201909170830 METAR LRCV 170830Z 31008KT CAVOK 26/11 Q1014=
201909170900 METAR LRCV 170900Z 30007KT 260V330 CAVOK 28/11 Q1014=
201909170930 METAR LRCV 170930Z 28007KT CAVOK 28/10 Q1014=
201909171000 METAR LRCV 171000Z 28009KT 250V330 CAVOK 29/11 Q1014=
201909171030 METAR LRCV 171030Z 33010KT CAVOK 29/10 Q1013=
201909171100 METAR LRCV 171100Z 30008KT 270V340 CAVOK 30/10 Q1013=
201909171130 METAR LRCV 171130Z 29010KT 240V340 CAVOK 30/11 Q1013=
201909171200 METAR LRCV 171200Z 29011KT 260V330 CAVOK 30/10 Q1012=
201909171230 METAR LRCV 171230Z 35007KT CAVOK 30/11 Q1012=
201909171300 METAR LRCV 171300Z 29008KT 260V320 CAVOK 30/11 Q1012=
201909171330 METAR LRCV 171330Z 29009KT CAVOK 30/11 Q1011=
201909171400 METAR COR LRCV 171400Z 30009KT CAVOK 31/11 Q1011=
201909171430 METAR LRCV 171430Z 30008KT 270V330 CAVOK 30/11 Q1011=
201909171500 METAR COR LRCV 171500Z 31007KT CAVOK 30/10 Q1011=
201909171530 METAR LRCV 171530Z 31008KT CAVOK 29/10 Q1011=
201909171600 METAR LRCV 171600Z 36009KT CAVOK 27/09 Q1011=
201909171630 METAR LRCV 171630Z AUTO 01006KT 9999 NCD 25/09 Q1011=
201909171700 METAR LRCV 171700Z AUTO 03004KT 9999 NCD 24/09 Q1011=
201909171730 METAR LRCV 171730Z AUTO 04003KT 9999 NCD 23/09 Q1011=
201909171800 METAR LRCV 171800Z AUTO 01003KT 9999 NCD 22/09 Q1011=
201909171830 METAR LRCV 171830Z AUTO 36006KT 9999 NCD 22/09 Q1012=
201909171900 METAR LRCV 171900Z AUTO 36005KT 9999 NCD 22/09 Q1012=
201909171930 METAR LRCV 171930Z AUTO 36005KT 9999 NCD 21/09 Q1012=
201909172000 METAR LRCV 172000Z AUTO 36005KT 9999 NCD 21/09 Q1012=
201909172030 METAR LRCV 172030Z AUTO 35004KT 9999 NCD 20/09 Q1012=
201909172100 METAR LRCV 172100Z AUTO 34005KT 9999 NCD 20/09 Q1012=
201909172130 METAR LRCV 172130Z AUTO 34004KT 9999 NCD 19/09 Q1012=
201909172200 METAR LRCV 172200Z AUTO 33004KT 9999 NCD 19/08 Q1011=
201909172230 METAR LRCV 172230Z AUTO 32004KT 9999 NCD 18/09 Q1011=
201909172300 METAR LRCV 172300Z AUTO 29005KT 9999 NCD 18/09 Q1011=
201909172330 METAR LRCV 172330Z AUTO 31003KT 9999 NCD 18/09 Q1011=
201909180000 METAR LRCV 180000Z AUTO 33003KT 9999 NCD 17/09 Q1011=
201909180030 METAR LRCV 180030Z AUTO 33003KT 9999 NCD 16/09 Q1011=
201909180100 METAR LRCV 180100Z AUTO 28005KT 9999 NCD 17/09 Q1011=
201909180130 METAR LRCV 180130Z AUTO 28005KT 9999 NCD 16/09 Q1011=
201909180200 METAR LRCV 180200Z AUTO 27006KT 9999 NCD 17/09 Q1011=
201909180230 METAR LRCV 180230Z AUTO 27004KT 9999 NCD 15/09 Q1011=
201909180300 METAR LRCV 180300Z AUTO 27006KT 9999 NCD 15/09 Q1011=
201909180330 METAR LRCV 180330Z AUTO 27007KT 9999 NCD 14/10 Q1011=
201909180400 METAR LRCV 180400Z AUTO 27008KT 9999 NCD 13/10 Q1012=
201909180430 METAR LRCV 180430Z AUTO 27005KT 9999 NCD 14/10 Q1012=
201909180500 METAR LRCV 180500Z AUTO 28009KT 9999 NCD 16/10 Q1012=
201909180530 METAR LRCV 180530Z AUTO 28006KT 9999 NCD 17/10 Q1012=
201909180600 METAR LRCV 180600Z 28007KT CAVOK 18/10 Q1013=
201909180630 METAR LRCV 180630Z 31013KT CAVOK 19/08 Q1013=
201909180700 METAR LRCV 180700Z 31013KT CAVOK 22/07 Q1014=
201909180730 METAR LRCV 180730Z 29011KT CAVOK 23/06 Q1014=
201909180800 METAR LRCV 180800Z 28009KT 9999 FEW060TCU 23/08 Q1014=
201909180830 METAR LRCV 180830Z 29014KT 9999 FEW055CB 23/08 Q1015=
201909180900 METAR LRCV 180900Z 29009KT 9999 FEW055CB 22/08 Q1015=
201909180930 METAR LRCV 180930Z 27011KT 240V300 9999 FEW060CB 22/08 Q1015=
201909181000 METAR LRCV 181000Z 26010KT CAVOK 21/08 Q1015=
201909181030 METAR LRCV 181030Z 26013KT CAVOK 20/06 Q1016=
201909181100 METAR LRCV 181100Z 26015KT CAVOK 20/06 Q1016=
201909181130 METAR LRCV 181130Z 26010KT 220V280 CAVOK 21/05 Q1016=
201909181200 METAR LRCV 181200Z 26015KT CAVOK 21/04 Q1016=
201909181230 METAR LRCV 181230Z 25013KT CAVOK 20/06 Q1016=
201909181300 METAR LRCV 181300Z 24012KT CAVOK 21/06 Q1016=
201909181330 METAR LRCV 181330Z 25013KT CAVOK 22/04 Q1016=
201909181400 METAR LRCV 181400Z 26016KT CAVOK 23/02 Q1016=
201909181430 METAR LRCV 181430Z 24013KT CAVOK 23/03 Q1016=
201909181500 METAR LRCV 181500Z 24015KT CAVOK 23/02 Q1016=
201909181530 METAR LRCV 181530Z 25016KT CAVOK 22/00 Q1016=
201909181600 METAR LRCV 181600Z 26016KT CAVOK 20/01 Q1016=
201909181630 METAR LRCV 181630Z 27016KT CAVOK 20/00 Q1017=
201909181700 METAR LRCV 181700Z 27013KT CAVOK 19/00 Q1017=
201909181730 METAR LRCV 181730Z 28013KT CAVOK 18/03 Q1018=
201909181800 METAR LRCV 181800Z 26008KT CAVOK 16/03 Q1018=
201909181830 METAR LRCV 181830Z AUTO 27009KT 9999 BKN120/// 17/04 Q1018=
201909181900 METAR LRCV 181900Z AUTO 28011KT 9999 BKN120/// 17/04 Q1018=
201909181930 METAR LRCV 181930Z AUTO 27009KT 9999 BKN120/// BKN140///
                        16/04 Q1019=
201909182000 METAR LRCV 182000Z AUTO 27010KT 9999 FEW110/// OVC130///
                        16/04 Q1019=
201909182030 METAR LRCV 182030Z AUTO 27008KT 9999 FEW110/// BKN130///
                        16/04 Q1019=
201909182100 METAR LRCV 182100Z AUTO 26007KT 9999 SCT110/// BKN140///
                        15/04 Q1020=
201909182130 METAR LRCV 182130Z AUTO 25004KT 9999 FEW100/// BKN150///
                        15/04 Q1020=
201909182200 METAR LRCV 182200Z AUTO 26005KT 9999 FEW095/// BKN150///
                        15/04 Q1020=
201909182230 METAR LRCV 182230Z AUTO 27008KT 9999 SCT090/// OVC100///
                        16/03 Q1020=
201909182300 METAR LRCV 182300Z AUTO 27007KT 9999 RA BKN085/// BKN100///
                        14/07 Q1020=
201909182330 METAR LRCV 182330Z AUTO 28008KT 9999 BKN085/// 15/06 Q1020
                        RERA=
201909190000 METAR LRCV 190000Z AUTO 30006KT 9999 BKN085/// 15/05 Q1020=
201909190030 METAR LRCV 190030Z AUTO 28006KT 9999 OVC085/// 15/05 Q1020=
201909190100 METAR LRCV 190100Z AUTO 29007KT 9999 OVC090/// 15/05 Q1020=
201909190130 METAR LRCV 190130Z AUTO 28005KT 9999 OVC095/// 14/05 Q1020=
201909190200 METAR LRCV 190200Z AUTO 30005KT 9999 BKN095/// 14/04 Q1020=
201909190230 METAR LRCV 190230Z AUTO 34004KT 9999 BKN090/// BKN110///
                        14/04 Q1020=
201909190300 METAR LRCV 190300Z AUTO 05009KT 9999 BKN090/// 14/05 Q1020=
201909190330 METAR LRCV 190330Z AUTO 07009KT 9999 BKN090/// 14/04 Q1020=
201909190400 METAR LRCV 190400Z AUTO 07009KT 9999 BKN090/// 14/03 Q1020=
201909190430 METAR LRCV 190430Z AUTO 06009KT 9999 BKN090/// 14/03 Q1021=
201909190500 METAR LRCV 190500Z AUTO 06012KT 9999 SCT095/// BKN180///
                        13/02 Q1021=
201909190530 METAR LRCV 190530Z AUTO 06012KT 9999 BKN090/// BKN160///
                        14/02 Q1021=
201909190600 METAR LRCV 190600Z 06011KT CAVOK 14/02 Q1021=
201909190630 METAR LRCV 190630Z 06011KT CAVOK 14/02 Q1021=
201909190700 METAR LRCV 190700Z 07013KT CAVOK 15/02 Q1021=
201909190730 METAR LRCV 190730Z 07009KT 040V100 CAVOK 16/02 Q1022=
201909190800 METAR LRCV 190800Z 07006KT 020V110 CAVOK 17/02 Q1022=
201909190830 METAR LRCV 190830Z 04007KT CAVOK 17/02 Q1021=
201909190900 METAR LRCV 190900Z 34005KT 240V050 CAVOK 18/03 Q1021=
201909190930 METAR LRCV 190930Z VRB04KT CAVOK 18/03 Q1021=
201909191000 METAR COR LRCV 191000Z 31005KT 260V350 CAVOK 19/03 Q1021=
201909191030 METAR LRCV 191030Z VRB03KT CAVOK 19/03 Q1021=
201909191100 METAR LRCV 191100Z VRB04KT CAVOK 20/04 Q1020=
201909191130 METAR LRCV 191130Z 02005KT 340V070 CAVOK 21/04 Q1020=
201909191200 METAR LRCV 191200Z 34006KT 290V020 CAVOK 21/02 Q1020=
201909191230 METAR LRCV 191230Z 23005KT 190V270 CAVOK 21/02 Q1019=
201909191300 METAR LRCV 191300Z 25005KT 170V300 CAVOK 21/03 Q1019=
201909191330 METAR LRCV 191330Z VRB03KT CAVOK 21/03 Q1019=
201909191400 METAR LRCV 191400Z 23006KT 190V260 CAVOK 21/02 Q1019=
201909191430 METAR LRCV 191430Z 19006KT 150V210 CAVOK 21/03 Q1019=
201909191500 METAR LRCV 191500Z 22006KT CAVOK 20/04 Q1018=
201909191530 METAR LRCV 191530Z 21007KT CAVOK 19/04 Q1018=
201909191600 METAR LRCV 191600Z 21007KT 180V250 CAVOK 19/04 Q1019=
201909191630 METAR LRCV 191630Z AUTO 22008KT 9999 OVC100/// 18/04 Q1019=
201909191700 METAR LRCV 191700Z AUTO 20006KT 9999 SCT100/// BKN110///
                        18/03 Q1019=
201909191730 METAR LRCV 191730Z AUTO 19006KT 170V230 9999 BKN095/// OVC110///
                        17/04 Q1019=
201909191800 METAR LRCV 191800Z AUTO 20006KT 170V230 9999 OVC095/// 17/04
                        Q1019=
201909191830 METAR LRCV 191830Z AUTO 21006KT 9999 OVC095/// 17/04 Q1019=
201909191900 METAR LRCV 191900Z AUTO 20005KT 9999 OVC100/// 17/04 Q1019=
201909191930 METAR LRCV 191930Z AUTO 23005KT 9999 SCT090/// BKN110///
                        17/03 Q1019=
201909192000 METAR LRCV 192000Z AUTO 24004KT 9999 BKN090/// BKN110///
                        16/01 Q1020=
201909192030 METAR LRCV 192030Z AUTO 25008KT 9999 OVC095/// 16/M00 Q1019=
201909192100 METAR LRCV 192100Z AUTO 26006KT 9999 BKN095/// 16/M00 Q1019=
201909192130 METAR LRCV 192130Z AUTO 28010KT 9999 OVC095/// 16/00 Q1019=
201909192200 METAR LRCV 192200Z AUTO 28007KT 9999 BKN090/// 15/00 Q1019=
201909192230 METAR LRCV 192230Z AUTO 27006KT 9999 OVC090/// 15/00 Q1019=
201909192300 METAR LRCV 192300Z AUTO 28007KT 9999 BKN090/// 14/00 Q1019=
201909192330 METAR LRCV 192330Z AUTO 28008KT 9999 BKN090/// 13/01 Q1019=
201909200000 METAR LRCV 200000Z AUTO 32007KT 9999 NCD 12/02 Q1019=
201909200030 METAR LRCV 200030Z AUTO 29008KT 9999 NCD 11/02 Q1019=
201909200100 METAR LRCV 200100Z AUTO 29009KT 9999 NCD 11/02 Q1019=
201909200130 METAR LRCV 200130Z AUTO 29008KT 9999 NCD 12/01 Q1020=
201909200200 METAR LRCV 200200Z AUTO 29008KT 9999 NCD 12/01 Q1019=
201909200230 METAR LRCV 200230Z AUTO 29010KT 9999 NCD 10/01 Q1020=
201909200300 METAR LRCV 200300Z AUTO 29010KT 9999 FEW042/// 10/02 Q1020=
201909200330 METAR LRCV 200330Z AUTO 29008KT 9999 SCT037/// BKN042///
                        BKN075/// 12/01 Q1020=
201909200400 METAR LRCV 200400Z AUTO 30007KT 9999 BKN065/// 11/01 Q1020=
201909200430 METAR LRCV 200430Z AUTO 32007KT 9999 SCT065/// 11/01 Q1021=
201909200500 METAR LRCV 200500Z AUTO 31005KT 9999 BKN065/// 12/01 Q1021=
201909200530 METAR LRCV 200530Z AUTO 32005KT 9999 FEW070/// 13/02 Q1021=
201909200600 METAR LRCV 200600Z 33005KT CAVOK 14/03 Q1021=
201909200630 METAR LRCV 200630Z 04010KT CAVOK 15/07 Q1022=
201909200700 METAR LRCV 200700Z 07010KT 030V090 CAVOK 16/07 Q1022=
201909200730 METAR LRCV 200730Z 07009KT CAVOK 16/07 Q1022=
201909200800 METAR LRCV 200800Z 09009KT CAVOK 17/06 Q1022=
201909200830 METAR LRCV 200830Z 07007KT 030V090 9999 FEW048 17/05 Q1022=
201909200900 METAR LRCV 200900Z 04007KT 350V080 9999 FEW045 18/05 Q1022=
201909200930 METAR LRCV 200930Z 36005KT 290V050 9999 SCT046 17/03 Q1022=
201909201000 METAR LRCV 201000Z 10004KT 050V150 9999 SCT048 18/03 Q1022=
201909201030 METAR LRCV 201030Z VRB02KT CAVOK 19/02 Q1022=
201909201100 METAR LRCV 201100Z VRB02KT CAVOK 18/02 Q1022=
201909201130 METAR LRCV 201130Z 28008KT 220V320 CAVOK 19/02 Q1021=
201909201200 METAR LRCV 201200Z 27005KT CAVOK 19/02 Q1021=
201909201230 METAR LRCV 201230Z VRB04KT CAVOK 19/03 Q1021=
201909201300 METAR LRCV 201300Z 25004KT 190V320 CAVOK 20/03 Q1021=
201909201330 METAR LRCV 201330Z 29006KT 250V340 CAVOK 20/02 Q1021=
201909201400 METAR LRCV 201400Z 27006KT 230V300 CAVOK 20/01 Q1021=
201909201430 METAR LRCV 201430Z 32009KT CAVOK 20/M01 Q1021=
201909201500 METAR LRCV 201500Z 33004KT CAVOK 20/M03 Q1021=
201909201530 METAR LRCV 201530Z 26005KT CAVOK 19/M03 Q1021=
201909201600 METAR LRCV 201600Z 30005KT CAVOK 18/M02 Q1021=
201909201630 METAR LRCV 201630Z 28003KT CAVOK 17/M02 Q1021=
201909201700 METAR LRCV 201700Z 28003KT CAVOK 16/M02 Q1022=
201909201730 METAR LRCV 201730Z AUTO 16004KT 9999 NCD 15/01 Q1022=
201909201800 METAR LRCV 201800Z AUTO 20005KT 9999 NCD 14/03 Q1022=
201909201830 METAR LRCV 201830Z AUTO 25004KT 9999 NCD 14/03 Q1022=
201909201900 METAR LRCV 201900Z AUTO 31004KT 220V030 9999 NCD 11/01 Q1023=
201909201930 METAR LRCV 201930Z AUTO 04005KT 9999 NCD 11/M01 Q1023=
201909202000 METAR LRCV 202000Z AUTO 05009KT 9999 NCD 12/M01 Q1023=
201909202030 METAR LRCV 202030Z AUTO 04009KT 9999 NCD 11/M01 Q1024=
201909202100 METAR LRCV 202100Z AUTO 04010KT 9999 NCD 12/M01 Q1024=
201909202130 METAR LRCV 202130Z AUTO 04010KT 9999 NCD 12/M02 Q1024=
201909202200 METAR LRCV 202200Z AUTO 03008KT 9999 NCD 11/M02 Q1024=
201909202230 METAR LRCV 202230Z AUTO 03009KT 9999 NCD 10/M02 Q1024=
201909202300 METAR LRCV 202300Z AUTO 06008KT 9999 NCD 09/M02 Q1025=
201909202330 METAR LRCV 202330Z AUTO 06009KT 9999 NCD 08/M01 Q1025=
201909210000 METAR LRCV 210000Z AUTO 04009KT 9999 NCD 08/M01 Q1025=
201909210030 METAR LRCV 210030Z AUTO 04007KT 9999 NCD 08/M01 Q1025=
201909210100 METAR LRCV 210100Z AUTO 05006KT 9000 NCD 07/M02 Q1025=
201909210130 METAR LRCV 210130Z AUTO 03003KT 9999 NCD 07/M01 Q1025=
201909210200 METAR LRCV 210200Z AUTO 02003KT 9999 -SN NCD 07/M01 Q1025=
201909210230 METAR LRCV 210230Z AUTO 01004KT 9999 -SHSN NCD 06/M01 Q1025=
201909210300 METAR LRCV 210300Z AUTO 02003KT 9999 -SHSN NCD 06/M00 Q1025=
201909210330 METAR LRCV 210330Z AUTO 02005KT 9999 -SHSN NCD 05/M00 Q1025=
201909210400 METAR LRCV 210400Z AUTO 02003KT 9999 -SHSN NCD 06/00 Q1026=
201909210430 METAR LRCV 210430Z AUTO 02004KT 9999 -SHSN NCD 07/00 Q1026=
201909210500 METAR LRCV 210500Z AUTO 02004KT 9999 -SHSN NCD 07/01 Q1026=
201909210530 METAR LRCV 210530Z AUTO 02004KT 9999 SHRA NCD 10/02 Q1026=
201909210600 METAR LRCV 210600Z 05006KT CAVOK 12/02 Q1027=
201909210630 METAR LRCV 210630Z 06008KT CAVOK 13/02 Q1027=
201909210700 METAR LRCV 210700Z 07008KT CAVOK 14/02 Q1027=
201909210730 METAR LRCV 210730Z 07008KT CAVOK 15/02 Q1028=
201909210800 METAR LRCV 210800Z 09007KT CAVOK 16/02 Q1028=
201909210830 METAR LRCV 210830Z 10005KT 060V150 CAVOK 16/01 Q1028=
201909210900 METAR LRCV 210900Z 02005KT 340V070 CAVOK 17/M01 Q1027=
201909210930 METAR LRCV 210930Z 05004KT 340V150 CAVOK 17/00 Q1027=
201909211000 METAR LRCV 211000Z 09005KT 030V150 CAVOK 18/M00 Q1027=
201909211030 METAR LRCV 211030Z VRB06KT CAVOK 18/M01 Q1027=
201909211100 METAR LRCV 211100Z 31004KT 240V360 CAVOK 18/M01 Q1026=
201909211130 METAR LRCV 211130Z VRB04KT CAVOK 19/M01 Q1026=
201909211200 METAR LRCV 211200Z VRB04KT CAVOK 19/M01 Q1026=
201909211230 METAR LRCV 211230Z VRB04KT CAVOK 19/M01 Q1025=
201909211300 METAR LRCV 211300Z 24003KT CAVOK 20/M01 Q1025=
201909211330 METAR LRCV 211330Z VRB03KT CAVOK 20/M01 Q1025=
201909211400 METAR LRCV 211400Z 23004KT 180V320 CAVOK 20/M01 Q1025=
201909211430 METAR LRCV 211430Z VRB02KT CAVOK 20/M02 Q1025=
201909211500 METAR LRCV 211500Z 28003KT 240V330 CAVOK 20/M02 Q1025=
201909211530 METAR LRCV 211530Z VRB02KT CAVOK 19/M01 Q1024=
201909211600 METAR LRCV 211600Z 27003KT CAVOK 19/M01 Q1025=
201909211630 METAR LRCV 211630Z AUTO 28003KT 9999 NCD 17/M01 Q1025=
201909211700 METAR LRCV 211700Z AUTO 33001KT 9999 NCD 15/M01 Q1025=
201909211730 METAR LRCV 211730Z AUTO 10001KT 9999 NCD 14/M01 Q1025=
201909211800 METAR LRCV 211800Z AUTO 11002KT 9999 NCD 14/M01 Q1025=
201909211830 METAR LRCV 211830Z AUTO 14003KT 9999 NCD 14/00 Q1025=
201909211900 METAR LRCV 211900Z AUTO 13003KT 9999 NCD 13/M00 Q1025=
201909211930 METAR LRCV 211930Z AUTO 13003KT 9999 NCD 13/M01 Q1025=
201909212000 METAR LRCV 212000Z AUTO 13002KT 9999 NCD ///// Q1025=
201909212030 METAR LRCV 212030Z AUTO 12003KT 9999 NCD 11/M02 Q1025=
201909212100 METAR LRCV 212100Z AUTO 14001KT 9999 NCD 11/M01 Q1025=
201909212130 METAR LRCV 212130Z AUTO 00000KT 9999 NCD 10/M01 Q1024=
201909212200 METAR LRCV 212200Z AUTO 00000KT 9999 NCD 09/M00 Q1024=
201909212230 METAR LRCV 212230Z AUTO 02003KT 9999 NCD 09/M01 Q1024=
201909212300 METAR LRCV 212300Z AUTO 33002KT 9999 NCD 08/M01 Q1024=
201909212330 METAR LRCV 212330Z AUTO 36004KT 9999 NCD 08/M01 Q1024=
201909220000 METAR LRCV 220000Z AUTO 36002KT 9999 NCD 08/M01 Q1024=
201909220030 METAR LRCV 220030Z AUTO 36002KT 9999 NCD 07/M01 Q1024=
201909220100 METAR LRCV 220100Z AUTO 36003KT 9999 NCD 07/M00 Q1024=
201909220130 METAR LRCV 220130Z AUTO 01002KT 9999 NCD 06/M00 Q1024=
201909220200 METAR LRCV 220200Z AUTO 36003KT 9999 NCD 07/00 Q1024=
201909220230 METAR LRCV 220230Z AUTO 01003KT 9999 NCD 06/00 Q1024=
201909220300 METAR LRCV 220300Z AUTO 02004KT 9999 NCD 06/M00 Q1023=
201909220330 METAR LRCV 220330Z AUTO 01003KT 9999 NCD 06/00 Q1023=
201909220400 METAR LRCV 220400Z AUTO 01003KT 9999 NCD 06/00 Q1023=
201909220430 METAR LRCV 220430Z AUTO 02003KT 9999 NCD 06/00 Q1023=
201909220500 METAR LRCV 220500Z AUTO 01005KT 9999 NCD 07/00 Q1023=
201909220530 METAR LRCV 220530Z AUTO 04003KT 9999 NCD 09/01 Q1023=
201909220600 METAR LRCV 220600Z 05005KT CAVOK 11/02 Q1023=
201909220630 METAR LRCV 220630Z 04005KT CAVOK 12/02 Q1024=
201909220700 METAR LRCV 220700Z 06005KT CAVOK 14/01 Q1024=
201909220730 METAR LRCV 220730Z 06005KT CAVOK 16/01 Q1023=
201909220800 METAR LRCV 220800Z 07005KT 030V110 CAVOK 17/00 Q1023=
201909220830 METAR LRCV 220830Z VRB03KT CAVOK 19/00 Q1023=
201909220900 METAR LRCV 220900Z 09003KT CAVOK 20/M00 Q1023=
201909220930 METAR LRCV 220930Z VRB03KT CAVOK 20/M00 Q1022=
201909221000 METAR LRCV 221000Z 20004KT 140V300 CAVOK 20/M01 Q1022=
201909221030 METAR LRCV 221030Z VRB03KT CAVOK 21/M01 Q1021=
201909221100 METAR LRCV 221100Z VRB03KT CAVOK 21/M02 Q1021=
201909221130 METAR LRCV 221130Z VRB03KT CAVOK 22/M01 Q1020=
201909221200 METAR LRCV 221200Z VRB02KT CAVOK 22/M01 Q1020=
201909221230 METAR LRCV 221230Z 03007KT CAVOK 23/M01 Q1020=
201909221300 METAR LRCV 221300Z 07004KT 010V170 CAVOK 23/M01 Q1019=
201909221330 METAR LRCV 221330Z 13003KT 070V230 CAVOK 23/M01 Q1018=
201909221400 METAR LRCV 221400Z VRB02KT CAVOK 23/M01 Q1018=
201909221430 METAR LRCV 221430Z VRB03KT CAVOK 24/M01 Q1018=
201909221500 METAR LRCV 221500Z VRB02KT CAVOK 24/M01 Q1018=
201909221530 METAR LRCV 221530Z VRB02KT CAVOK 23/M01 Q1018=
201909221600 METAR LRCV 221600Z 23003KT CAVOK 21/M01 Q1018=
201909221630 METAR LRCV 221630Z 25002KT CAVOK 18/M01 Q1018=
201909221700 METAR LRCV 221700Z 07004KT CAVOK 18/M02 Q1017=
201909221730 METAR LRCV 221730Z AUTO 08003KT 050V150 9999 NCD 17/M01 Q1018=
201909221800 METAR LRCV 221800Z AUTO 10003KT 9999 NCD 17/M01 Q1018=
201909221830 METAR LRCV 221830Z AUTO 09003KT 9999 NCD 16/M01 Q1018=
201909221900 METAR LRCV 221900Z AUTO 09003KT 9999 NCD 15/M01 Q1018=
201909221930 METAR LRCV 221930Z AUTO 09003KT 9999 NCD 15/M01 Q1017=
201909222000 METAR LRCV 222000Z AUTO 08002KT 9999 NCD 13/M00 Q1017=
201909222030 METAR LRCV 222030Z AUTO 08002KT 9999 NCD 13/M00 Q1017=
201909222100 METAR LRCV 222100Z AUTO 30002KT 9999 NCD 13/00 Q1017=
201909222130 METAR LRCV 222130Z AUTO VRB02KT 9999 NCD 12/01 Q1017=
201909222200 METAR LRCV 222200Z AUTO 36003KT 9999 FEW240/// 12/00 Q1017=
201909222230 METAR LRCV 222230Z AUTO 34003KT 9999 FEW210/// 12/00 Q1017=
201909222300 METAR LRCV 222300Z AUTO 36003KT 9999 OVC190/// 11/00 Q1017=
201909222330 METAR LRCV 222330Z AUTO 36003KT 9999 BKN190/// 11/00 Q1017=
201909230000 METAR LRCV 230000Z AUTO 01003KT 9999 BKN180/// 11/00 Q1016=
201909230030 METAR LRCV 230030Z AUTO VRB02KT 9999 BKN180/// 10/02 Q1016=
201909230100 METAR LRCV 230100Z AUTO 34003KT 9999 OVC170/// 11/02 Q1016=
201909230130 METAR LRCV 230130Z AUTO 33004KT 9999 BKN160/// 12/01 Q1016=
201909230200 METAR LRCV 230200Z AUTO 34003KT 9999 BKN180/// 11/02 Q1016=
201909230230 METAR LRCV 230230Z AUTO 30003KT 9999 BKN150/// 10/03 Q1016=
201909230300 METAR LRCV 230300Z AUTO 32002KT 9999 BKN150/// 11/03 Q1016=
201909230330 METAR LRCV 230330Z AUTO 34003KT 320V020 9999 FEW130/// BKN150///
                        11/02 Q1016=
201909230400 METAR LRCV 230400Z AUTO 30003KT 9999 BKN140/// BKN160///
                        10/03 Q1016=
201909230430 METAR LRCV 230430Z AUTO 30003KT 9999 BKN110/// BKN130///
                        11/04 Q1016=
201909230500 METAR LRCV 230500Z AUTO 32002KT 9999 -RA BKN100/// BKN130///
                        12/03 Q1016=
201909230530 METAR LRCV 230530Z AUTO 05003KT 020V080 9999 SCT100/// BKN130///
                        13/03 Q1015 RERA=
201909230600 METAR LRCV 230600Z VRB01KT CAVOK 14/03 Q1016=
201909230630 METAR LRCV 230630Z VRB02KT CAVOK 15/03 Q1016=
201909230700 METAR LRCV 230700Z VRB02KT CAVOK 17/03 Q1016=
201909230730 METAR LRCV 230730Z VRB02KT CAVOK 19/02 Q1016=
201909230800 METAR LRCV 230800Z VRB02KT CAVOK 20/02 Q1015=
201909230830 METAR LRCV 230830Z 23004KT 190V270 CAVOK 20/02 Q1015=
201909230900 METAR LRCV 230900Z VRB02KT CAVOK 21/03 Q1015=
201909230930 METAR LRCV 230930Z 24003KT 170V300 CAVOK 21/02 Q1015=
201909231000 METAR LRCV 231000Z VRB01KT CAVOK 22/02 Q1015=
201909231030 METAR LRCV 231030Z 14003KT 070V220 CAVOK 24/02 Q1014=
201909231100 METAR LRCV 231100Z VRB03KT CAVOK 23/02 Q1014=
201909231130 METAR LRCV 231130Z VRB04KT CAVOK 24/02 Q1013=
201909231200 METAR LRCV 231200Z VRB02KT CAVOK 24/03 Q1013=
201909231230 METAR LRCV 231230Z 15004KT 110V200 CAVOK 25/04 Q1013=
201909231300 METAR LRCV 231300Z 25004KT 200V310 CAVOK 25/04 Q1013=
201909231330 METAR LRCV 231330Z 26003KT 200V330 CAVOK 25/04 Q1013=
201909231400 METAR LRCV 231400Z VRB02KT CAVOK 24/04 Q1013=
201909231430 METAR LRCV 231430Z 23003KT 190V260 CAVOK 24/04 Q1012=
201909231500 METAR LRCV 231500Z VRB02KT CAVOK 23/04 Q1012=
201909231530 METAR LRCV 231530Z 34004KT 310V030 CAVOK 23/04 Q1012=
201909231600 METAR LRCV 231600Z 02004KT CAVOK 23/05 Q1012=
201909231630 METAR LRCV 231630Z 01006KT CAVOK 22/06 Q1012=
201909231700 METAR COR LRCV 231700Z 04006KT CAVOK 21/06 Q1012=
201909231730 METAR LRCV 231730Z AUTO 07006KT 9999 BKN070/// 21/06 Q1012=
201909231800 METAR LRCV 231800Z AUTO 08006KT 9999 -RA BKN070/// 20/06
                        Q1012=
201909231830 METAR LRCV 231830Z AUTO 04003KT 9999 BKN070/// 21/06 Q1013
                        RERA=
201909231900 METAR LRCV 231900Z AUTO 06004KT 9999 BKN065/// BKN095///
                        20/06 Q1013 RERA=
201909231930 METAR LRCV 231930Z AUTO 07004KT 9999 BKN065/// 19/08 Q1013
                        RERA=
201909232000 METAR LRCV 232000Z AUTO 07004KT 9999 BKN075/// 19/07 Q1012
                        RERA=
201909232030 METAR LRCV 232030Z AUTO 04003KT 9999 OVC075/// 19/07 Q1012=
201909232100 METAR LRCV 232100Z AUTO 03003KT 9999 BKN075/// 19/07 Q1012=
201909232130 METAR LRCV 232130Z AUTO 04003KT 020V110 9999 OVC075/// 18/08
                        Q1012=
201909232200 METAR LRCV 232200Z AUTO 01005KT 9999 -SHRA BKN070/// 18/08
                        Q1012=
201909232230 METAR LRCV 232230Z AUTO 05005KT 9999 -SHRA OVC075/// 18/10
                        Q1012=
201909232300 METAR LRCV 232300Z AUTO 05005KT 9999 -SHRA FEW075/// SCT110///
                        BKN140/// ///// Q1012=
201909232330 METAR LRCV 232330Z AUTO 06004KT 9999 -SHRA FEW095/// BKN110///
                        17/09 Q1012=
201909240000 METAR LRCV 240000Z AUTO 08006KT 9999 BKN100/// BKN110///
                        17/09 Q1012=
201909240030 METAR LRCV 240030Z AUTO 08006KT 9999 FEW110/// BKN160///
                        17/09 Q1012=
201909240100 METAR LRCV 240100Z AUTO 08007KT 9999 BKN090/// BKN110///
                        17/09 Q1012=
201909240130 METAR LRCV 240130Z AUTO 06006KT 9999 BKN100/// 16/09 Q1012=
201909240200 METAR LRCV 240200Z AUTO 08006KT 9999 FEW075/// SCT170///
                        15/08 Q1012=
201909240230 METAR LRCV 240230Z AUTO 08007KT 9999 FEW075/// BKN110///
                        15/08 Q1012=
201909240300 METAR LRCV 240300Z AUTO 08006KT 9999 SCT075/// BKN100///
                        BKN120/// 16/08 Q1012=
201909240330 METAR LRCV 240330Z AUTO 07004KT 9999 BKN070/// 15/08 Q1012=
201909240400 METAR LRCV 240400Z AUTO 05005KT 9999 FEW065/// OVC080///
                        15/08 Q1012=
201909240430 METAR LRCV 240430Z AUTO 05007KT 9999 OVC060/// 16/08 Q1011=
201909240500 METAR LRCV 240500Z AUTO 06007KT 9999 OVC055/// 16/08 Q1012=
201909240530 METAR LRCV 240530Z AUTO 07008KT 9999 OVC055/// 17/08 Q1012=
201909240600 METAR LRCV 240600Z 07011KT CAVOK 17/08 Q1012=
201909240630 METAR LRCV 240630Z 08011KT CAVOK 17/09 Q1012=
201909240700 METAR LRCV 240700Z 08008KT 9999 FEW045 17/08 Q1012=
201909240730 METAR LRCV 240730Z 09010KT 9999 SCT050 18/09 Q1012=
201909240800 METAR COR LRCV 240800Z 07010KT 9999 BKN050 18/09 Q1012=
201909240830 METAR LRCV 240830Z 07009KT CAVOK 19/10 Q1012=
201909240900 METAR LRCV 240900Z 06011KT CAVOK 19/10 Q1012=
201909240930 METAR LRCV 240930Z 08010KT CAVOK 19/10 Q1012=
201909241000 METAR LRCV 241000Z 06012KT CAVOK 19/10 Q1012=
201909241030 METAR LRCV 241030Z 07013KT CAVOK 20/11 Q1012=
201909241100 METAR LRCV 241100Z 07013KT 9999 FEW035 20/11 Q1012=
201909241130 METAR LRCV 241130Z 09011KT 9999 FEW035 20/11 Q1012=
201909241200 METAR LRCV 241200Z 08009KT 050V110 9999 FEW035 20/11 Q1012=
201909241230 METAR LRCV 241230Z 06010KT 9999 BKN035 21/11 Q1012=
201909241300 METAR LRCV 241300Z 07010KT 9999 BKN037 20/12 Q1011=
201909241330 METAR LRCV 241330Z 07010KT 9999 BKN037 20/12 Q1011=
201909241400 METAR LRCV 241400Z 06010KT 030V090 9999 BKN035 20/12 Q1011=
201909241430 METAR LRCV 241430Z 05012KT 9999 SCT035 20/12 Q1011=
201909241500 METAR LRCV 241500Z 05010KT 9999 FEW035 19/12 Q1012=
201909241530 METAR COR LRCV 241530Z 06011KT 9999 SCT035 19/12 Q1012=
201909241600 METAR LRCV 241600Z 06010KT 9999 SCT045 18/12 Q1012=
201909241630 METAR LRCV 241630Z AUTO 06011KT 9999 BKN043/// OVC050///
                        18/12 Q1012=
201909241700 METAR LRCV 241700Z AUTO 06010KT 9999 OVC045/// 18/12 Q1012=
201909241730 METAR LRCV 241730Z AUTO 07009KT 9999 OVC040/// 18/11 Q1012=
201909241800 METAR LRCV 241800Z AUTO 07010KT 9999 OVC040/// 18/11 Q1012=
201909241830 METAR LRCV 241830Z AUTO 06012KT 9999 OVC040/// 18/12 Q1012=
201909241900 METAR LRCV 241900Z AUTO 06011KT 9999 FEW041/// OVC047///
                        17/12 Q1012=
201909241930 METAR LRCV 241930Z AUTO 06011KT 9999 BKN047/// 17/12 Q1013=
201909242000 METAR LRCV 242000Z AUTO 06011KT 9999 FEW024/// SCT036///
                        OVC049/// 17/12 Q1013=
201909242030 METAR LRCV 242030Z AUTO 05011KT 9999 BKN032/// OVC040///
                        16/13 Q1013=
201909242100 METAR LRCV 242100Z AUTO 05012KT 9999 FEW038/// OVC055///
                        ///// Q1013=
201909242130 METAR LRCV 242130Z AUTO 05009KT 9999 OVC050/// 16/13 Q1013=
201909242200 METAR LRCV 242200Z AUTO 05009KT 9999 BKN045/// OVC055///
                        16/13 Q1013=
201909242230 METAR LRCV 242230Z AUTO 05009KT 9999 FEW035/// OVC046///
                        16/12 Q1013=
201909242300 METAR LRCV 242300Z AUTO 05007KT 9999 FEW039/// BKN048///
                        16/12 Q1013=
201909242330 METAR LRCV 242330Z AUTO 03005KT 9999 SCT041/// OVC050///
                        16/12 Q1013=
201909250000 METAR LRCV 250000Z AUTO 05007KT 9999 UP BKN042/// 16/12 Q1013=
201909250030 METAR LRCV 250030Z AUTO 04005KT 9999 BKN042/// OVC060///
                        16/12 Q1012 RERA=
201909250100 METAR LRCV 250100Z AUTO 03005KT 9999 FEW028/// BKN041///
                        16/12 Q1013 REDZ=
201909250130 METAR LRCV 250130Z AUTO 04007KT 9999 OVC041/// 16/12 Q1013=
201909250200 METAR LRCV 250200Z AUTO 05006KT 9999 BKN042/// 16/12 Q1013=
201909250230 METAR LRCV 250230Z AUTO 04006KT 9999 BKN043/// 16/12 Q1013=
201909250300 METAR LRCV 250300Z AUTO 05006KT 9999 BKN044/// 16/12 Q1013=
201909250330 METAR LRCV 250330Z AUTO 06007KT 9999 FEW011/// BKN047///
                        16/12 Q1013=
201909250400 METAR LRCV 250400Z AUTO 06006KT 9999 BKN047/// 16/12 Q1013=
201909250430 METAR LRCV 250430Z AUTO 06005KT 9999 BKN047/// 16/12 Q1013=
201909250500 METAR LRCV 250500Z AUTO 04004KT 9999 FEW016/// SCT021///
                        BKN048/// 16/12 Q1013=
201909250530 METAR LRCV 250530Z AUTO 05005KT 9999 FEW018/// SCT027///
                        BKN044/// 16/12 Q1013=
201909250600 METAR LRCV 250600Z 06007KT 9999 FEW032 BKN048 16/12 Q1013=
201909250630 METAR LRCV 250630Z 08009KT 9999 FEW015 SCT035 BKN048 16/13
                        Q1013=
201909250700 METAR LRCV 250700Z 08009KT 9999 -DZ FEW017 SCT037 BKN048
                        16/13 Q1014 R09/19//95=
201909250730 METAR LRCV 250730Z 08009KT 9999 FEW018 SCT038 BKN049 17/13
                        Q1014 R09/19//95=
201909250800 METAR LRCV 250800Z 09008KT 9999 FEW019 SCT040 BKN049 17/13
                        Q1014 R09/19//95=
201909250830 METAR LRCV 250830Z 09009KT 9999 FEW019 SCT040 BKN050 18/13
                        Q1014 R09/19//95=
201909250900 METAR LRCV 250900Z 07008KT 9999 SCT020 BKN045 19/13 Q1014
                        R09/19//95=
201909250930 METAR LRCV 250930Z 10006KT 070V150 9999 SCT021 BKN050 19/13
                        Q1014 R09/19//95=
201909251000 METAR LRCV 251000Z 08007KT 9999 SCT025 BKN037 20/13 Q1014
                        R09/19//95=
201909251030 METAR LRCV 251030Z 07008KT 9999 BKN026 BKN040 20/12 Q1013
                        R09/19//95=
201909251100 METAR LRCV 251100Z 08007KT 9999 SCT028 BKN042 20/12 Q1013
                        R09/CLRD//=
201909251130 METAR LRCV 251130Z 08005KT 040V110 9999 BKN030 BKN040 20/12
                        Q1013=
201909251200 METAR LRCV 251200Z 06005KT 9999 SCT030 BKN040 20/12 Q1013=
201909251230 METAR LRCV 251230Z 08007KT 9999 SCT030 BKN045 21/12 Q1013=
201909251300 METAR LRCV 251300Z 04006KT 010V070 9999 SCT033 BKN047 20/13
                        Q1012=
201909251330 METAR LRCV 251330Z 06007KT 9999 SCT032 BKN047 20/13 Q1012=
201909251400 METAR LRCV 251400Z 05006KT 9999 SCT031 BKN044 20/13 Q1012=
201909251430 METAR LRCV 251430Z 04007KT 9999 FEW032 SCT040 20/12 Q1012=
201909251500 METAR LRCV 251500Z 03007KT 9999 FEW036 SCT045 20/12 Q1012=
201909251530 METAR LRCV 251530Z 04006KT 9999 FEW041 SCT049 19/12 Q1012=
201909251600 METAR LRCV 251600Z 03006KT 9999 FEW045 BKN048 19/12 Q1012=
201909251630 METAR LRCV 251630Z 02005KT 9999 FEW040 BKN047 18/12 Q1012=
201909251700 METAR LRCV 251700Z 03005KT 9999 FEW040 SCT047 18/12 Q1012=
201909251730 METAR LRCV 251730Z AUTO 02004KT 9999 SCT070/// BKN100///
                        18/12 Q1012=
201909251800 METAR LRCV 251800Z AUTO 02004KT 9999 BKN050/// 18/12 Q1012=
201909251830 METAR LRCV 251830Z AUTO 04004KT 020V080 9999 BKN050/// 18/12
                        Q1012=
201909251900 METAR LRCV 251900Z AUTO 06004KT 9999 BKN047/// OVC100///
                        17/12 Q1012=
201909251930 METAR LRCV 251930Z AUTO 05004KT 9999 BKN046/// 17/12 Q1012=
201909252000 METAR LRCV 252000Z AUTO 05004KT 9999 OVC045/// 17/12 Q1012=
201909252030 METAR LRCV 252030Z AUTO 07005KT 9999 BKN044/// 17/12 Q1012=
201909252100 METAR LRCV 252100Z AUTO 07005KT 9999 OVC043/// 17/12 Q1012=
201909252130 METAR LRCV 252130Z AUTO 06004KT 9999 BKN043/// 17/12 Q1012=
201909252200 METAR LRCV 252200Z AUTO 06005KT 9999 SCT044/// BKN050///
                        BKN110/// 17/12 Q1012=
201909252230 METAR LRCV 252230Z AUTO 06006KT 9999 BKN048/// 17/13 Q1011=
201909252300 METAR LRCV 252300Z AUTO 07006KT 9999 FEW048/// BKN100///
                        16/13 Q1012=
201909252330 METAR LRCV 252330Z AUTO 08006KT 9999 FEW042/// SCT100///
                        BKN150/// 16/13 Q1012=
201909260000 METAR LRCV 260000Z AUTO 06005KT 9999 FEW044/// SCT100///
                        BKN140/// 15/12 Q1011=
201909260030 METAR LRCV 260030Z AUTO 05005KT 9999 SCT043/// BKN140///
                        15/12 Q1011=
201909260100 METAR LRCV 260100Z AUTO 05004KT 9999 BKN040/// 16/13 Q1012=
201909260130 METAR LRCV 260130Z AUTO 05006KT 9999 FEW042/// BKN048///
                        BKN090/// 16/13 Q1011=
201909260200 METAR LRCV 260200Z AUTO 04006KT 9999 -RA BKN040/// OVC047///
                        15/14 Q1012=
201909260230 METAR LRCV 260230Z AUTO 06006KT 9999 -SHRA FEW042/// BKN095///
                        15/14 Q1011=
201909260300 METAR LRCV 260300Z AUTO 07006KT 9999 -SHRA FEW055/// BKN090///
                        15/14 Q1011=
201909260330 METAR LRCV 260330Z AUTO 08005KT 9000 -SHRA SCT055/// BKN085///
                        15/14 Q1011=
201909260400 METAR LRCV 260400Z AUTO VRB02KT 9000 -SHRA BKN045/// BKN090///
                        15/14 Q1012=
201909260430 METAR LRCV 260430Z AUTO 10004KT 5000 RA SCT049/// BKN085///
                        15/14 Q1011=
201909260500 METAR LRCV 260500Z AUTO 06004KT 6000 RA FEW044/// SCT075///
                        BKN095/// 15/14 Q1012=
201909260530 METAR LRCV 260530Z AUTO 06003KT 7000 -SHRA FEW014/// SCT023///
                        BKN090/// 15/14 Q1012=
201909260600 METAR LRCV 260600Z VRB01KT 6000 -RA FEW009 BKN011 15/15 Q1012=
201909260630 METAR LRCV 260630Z 05006KT 7000 SCT013 BKN025 16/15 Q1012
                        R09/29//95=
201909260700 METAR LRCV 260700Z 06006KT 6000 FEW006 SCT015 BKN025 16/15
                        Q1012 R09/29//95=
201909260730 METAR LRCV 260730Z 09006KT 7000 BKN006 BKN015 16/15 Q1012
                        R09/29//95=
201909260800 METAR LRCV 260800Z 08007KT 060V120 8000 BKN006 BKN015 17/15
                        Q1012 R09/29//95=
201909260830 METAR COR LRCV 260830Z 07005KT 040V110 9999 BKN007 BKN049
                        17/15 Q1012 R09/19//95=
201909260900 METAR LRCV 260900Z 12004KT 090V240 9999 BKN007 BKN049 18/15
                        Q1012 R09/19//95=
201909260930 METAR LRCV 260930Z 13004KT 090V170 9999 BKN010 BKN049 19/16
                        Q1012 R09/19//95=
201909261000 METAR LRCV 261000Z 19003KT 140V240 9999 BKN015 BKN049 19/15
                        Q1012 R09/19//95=
201909261030 METAR LRCV 261030Z 21004KT 150V290 9999 FEW015 BKN020 BKN049
                        19/15 Q1011 R09/19//95=
201909261100 METAR LRCV 261100Z 23004KT 210V290 9999 FEW016 BKN020 20/15
                        Q1011 R09/CLRD//=
201909261130 METAR LRCV 261130Z 20004KT 160V230 9999 SCT020 20/15 Q1011=
201909261200 METAR LRCV 261200Z 20005KT 150V250 9999 SCT020 20/15 Q1011=
201909261230 METAR LRCV 261230Z 23004KT 160V270 9999 SCT020 FEW025TCU
                        21/15 Q1011=
201909261300 METAR LRCV 261300Z 23004KT 180V270 9999 FEW020 21/15 Q1011=
201909261330 METAR LRCV 261330Z 27009KT 240V300 9999 FEW023 SCT040 21/15
                        Q1011=
201909261400 METAR LRCV 261400Z 27010KT 240V300 9999 FEW025 SCT040 20/14
                        Q1010=
201909261430 METAR LRCV 261430Z 28010KT 9999 FEW027 20/14 Q1010=
201909261500 METAR LRCV 261500Z 27011KT 9999 FEW030 21/14 Q1011=
201909261530 METAR LRCV 261530Z 26011KT 9999 FEW030TCU 20/14 Q1011=
201909261600 METAR LRCV 261600Z 26010KT 9999 SCT033TCU 19/14 Q1011=
201909261630 METAR LRCV 261630Z AUTO 26014KT 9999 SCT021/// BKN038///
                        BKN043/// 19/14 Q1011=
201909261700 METAR LRCV 261700Z AUTO 25010KT 9999 FEW032/// 17/14 Q1011=
201909261730 METAR LRCV 261730Z AUTO 26009KT 9999 NCD 17/14 Q1012=
201909261800 METAR LRCV 261800Z AUTO 25010KT 9999 NCD 16/13 Q1012=
201909261830 METAR LRCV 261830Z AUTO 25009KT 9999 NCD 16/13 Q1012=
201909261900 METAR LRCV 261900Z AUTO 26011KT 9999 FEW190/// 15/13 Q1012=
201909261930 METAR LRCV 261930Z AUTO 25009KT 9999 NCD 15/12 Q1012=
201909262000 METAR LRCV 262000Z AUTO 26011KT 9999 NCD 15/12 Q1012=
201909262030 METAR LRCV 262030Z AUTO 25010KT 9999 NCD 14/12 Q1012=
201909262100 METAR LRCV 262100Z AUTO 26009KT 9999 NCD 14/12 Q1013=
201909262130 METAR LRCV 262130Z AUTO 26009KT 9999 NCD 14/12 Q1013=
201909262200 METAR LRCV 262200Z AUTO 26013KT 9999 NCD 14/12 Q1013=
201909262230 METAR LRCV 262230Z AUTO 27012KT 9999 NCD 14/12 Q1013=
201909262300 METAR LRCV 262300Z AUTO 27012KT 9999 NCD 14/11 Q1013=
201909262330 METAR LRCV 262330Z AUTO 26009KT 9999 FEW120/// 14/11 Q1013=
201909270000 METAR LRCV 270000Z AUTO 26008KT 9999 SCT120/// 13/11 Q1013=
201909270030 METAR LRCV 270030Z AUTO 26009KT 9999 BKN110/// 13/11 Q1013=
201909270100 METAR LRCV 270100Z AUTO 26007KT 9999 SCT110/// 12/11 Q1013=
201909270130 METAR LRCV 270130Z AUTO 25009KT 9999 FEW120/// 12/10 Q1013=
201909270200 METAR LRCV 270200Z AUTO 26009KT 9999 NCD 11/10 Q1013=
201909270230 METAR LRCV 270230Z AUTO 26010KT 9999 NCD 11/10 Q1014=
201909270300 METAR LRCV 270300Z AUTO 26010KT 9999 NCD 11/10 Q1014=
201909270330 METAR LRCV 270330Z AUTO 26011KT 9999 NCD 12/11 Q1014=
201909270400 METAR LRCV 270400Z AUTO 26010KT 9999 NCD 12/10 Q1014=
201909270430 METAR LRCV 270430Z AUTO 26009KT 9999 NCD 11/10 Q1014=
201909270500 METAR LRCV 270500Z AUTO 26009KT 9999 NCD 12/11 Q1015=
201909270530 METAR LRCV 270530Z AUTO 26010KT 9999 NCD 14/11 Q1015=
201909270600 METAR LRCV 270600Z 26008KT CAVOK 14/12 Q1015=
201909270630 METAR COR LRCV 270630Z 26009KT CAVOK 16/12 Q1015=
201909270700 METAR LRCV 270700Z 26009KT CAVOK 17/12 Q1015=
201909270730 METAR LRCV 270730Z 26010KT 240V300 CAVOK 18/11 Q1016=
201909270800 METAR COR LRCV 270800Z 27009KT 9999 NCD 20/11 Q1016=
201909270830 METAR COR LRCV 270830Z 28010KT CAVOK 21/10 Q1016=
201909270900 METAR LRCV 270900Z NIL=
201909270915 METAR COR LRCV 270915Z 29011KT CAVOK 22/10 Q1016=
201909270930 METAR COR LRCV 270930Z 28013KT CAVOK 23/09 Q1016=
201909271000 METAR LRCV 271000Z 27011KT 240V300 CAVOK 23/08 Q1016=
201909271030 METAR LRCV 271030Z 31010KT 280V360 CAVOK 24/07 Q1016=
201909271100 METAR LRCV 271100Z 32008KT 280V340 CAVOK 24/07 Q1016=
201909271130 METAR LRCV 271130Z 31006KT 230V350 CAVOK 24/07 Q1015=
201909271200 METAR LRCV 271200Z 28005KT 220V030 CAVOK 24/07 Q1015=
201909271230 METAR LRCV 271230Z 28006KT 220V360 CAVOK 25/07 Q1015=
201909271300 METAR LRCV 271300Z 32004KT 260V010 CAVOK 25/07 Q1015=
201909271330 METAR LRCV 271330Z VRB03KT CAVOK 25/07 Q1015=
201909271400 METAR LRCV 271400Z 31007KT CAVOK 24/07 Q1015=
201909271430 METAR LRCV 271430Z 29004KT 260V320 CAVOK 23/07 Q1015=
201909271500 METAR LRCV 271500Z 25003KT CAVOK 23/08 Q1015=
201909271530 METAR LRCV 271530Z 28008KT CAVOK 23/08 Q1016=
201909271600 METAR LRCV 271600Z 26003KT CAVOK 21/08 Q1016=
201909271630 METAR LRCV 271630Z 26003KT CAVOK 20/08 Q1016=
201909271700 METAR LRCV 271700Z 23003KT 200V260 CAVOK 20/08 Q1016=
201909271730 METAR LRCV 271730Z 22005KT CAVOK 19/09 Q1016=
201909271800 METAR LRCV 271800Z 25007KT CAVOK 17/09 Q1017=
201909271830 METAR LRCV 271830Z AUTO 26007KT 9999 NCD 16/09 Q1017=
201909271900 METAR LRCV 271900Z AUTO 25007KT 9999 NCD 16/09 Q1017=
201909271930 METAR LRCV 271930Z AUTO 25007KT 9999 NCD 16/09 Q1017=
201909272000 METAR LRCV 272000Z AUTO 26006KT 9999 NCD 15/09 Q1017=
201909272030 METAR LRCV 272030Z AUTO 31003KT 9999 NCD 15/09 Q1018=
201909272100 METAR LRCV 272100Z AUTO 31004KT 9999 NCD 14/08 Q1018=
201909272130 METAR LRCV 272130Z AUTO 34005KT 9999 NCD 15/08 Q1018=
201909272200 METAR LRCV 272200Z AUTO 36004KT 9999 NCD 14/08 Q1018=
201909272230 METAR LRCV 272230Z AUTO 03003KT 9999 NCD 12/07 Q1018=
201909272300 METAR LRCV 272300Z AUTO 03004KT 9999 NCD 12/08 Q1018=
201909272330 METAR LRCV 272330Z AUTO 08004KT 050V140 9999 NCD 11/08 Q1018=
201909280000 METAR LRCV 280000Z AUTO 04004KT 9999 NCD 11/08 Q1018=
201909280030 METAR LRCV 280030Z AUTO 04004KT 9999 NCD 12/09 Q1018=
201909280100 METAR LRCV 280100Z AUTO 02003KT 9999 NCD 12/09 Q1018=
201909280130 METAR LRCV 280130Z AUTO 03003KT 9999 NCD 11/09 Q1018=
201909280200 METAR LRCV 280200Z AUTO 03004KT 9999 NCD 10/09 Q1018=
201909280230 METAR LRCV 280230Z AUTO 03003KT 9999 NCD 10/09 Q1018=
201909280300 METAR LRCV 280300Z AUTO 02003KT 9999 NCD 10/09 Q1018=
201909280330 METAR LRCV 280330Z AUTO 03004KT 9999 NCD 10/09 Q1018=
201909280400 METAR LRCV 280400Z AUTO 03004KT 9999 NCD 10/09 Q1018=
201909280430 METAR LRCV 280430Z AUTO 02004KT 350V070 9999 NCD 10/09 Q1019=
201909280500 METAR LRCV 280500Z AUTO 32002KT 260V010 9999 NCD 11/10 Q1019=
201909280530 METAR LRCV 280530Z AUTO 02002KT 9999 NCD 12/10 Q1019=
201909280600 METAR LRCV 280600Z 05004KT CAVOK 14/11 Q1019=
201909280630 METAR LRCV 280630Z 06006KT CAVOK 15/11 Q1019=
201909280700 METAR LRCV 280700Z 09006KT 050V110 CAVOK 16/11 Q1019=
201909280730 METAR LRCV 280730Z 10005KT 070V130 CAVOK 17/11 Q1019=
201909280800 METAR LRCV 280800Z 05003KT 310V120 CAVOK 19/11 Q1019=
201909280830 METAR LRCV 280830Z VRB02KT CAVOK 20/11 Q1019=
201909280900 METAR LRCV 280900Z VRB02KT CAVOK 21/11 Q1019=
201909280930 METAR LRCV 280930Z 07002KT 010V140 CAVOK 21/10 Q1019=
201909281000 METAR LRCV 281000Z 21003KT 120V290 CAVOK 22/10 Q1019=
201909281030 METAR LRCV 281030Z 26004KT 190V310 CAVOK 24/10 Q1019=
201909281100 METAR LRCV 281100Z 29004KT 200V010 CAVOK 24/09 Q1018=
201909281130 METAR LRCV 281130Z 27006KT 230V310 CAVOK 24/08 Q1018=
201909281200 METAR LRCV 281200Z 26006KT 220V030 CAVOK 25/08 Q1018=
201909281230 METAR LRCV 281230Z 25006KT 200V310 CAVOK 25/09 Q1017=
201909281300 METAR LRCV 281300Z 23005KT 190V270 CAVOK 25/09 Q1017=
201909281330 METAR LRCV 281330Z 27005KT 220V340 CAVOK 25/09 Q1017=
201909281400 METAR LRCV 281400Z 29003KT 220V360 CAVOK 26/10 Q1016=
201909281430 METAR LRCV 281430Z 26003KT 220V300 CAVOK 25/10 Q1016=
201909281500 METAR LRCV 281500Z 22003KT 160V290 CAVOK 25/10 Q1016=
201909281530 METAR LRCV 281530Z 23001KT CAVOK 24/10 Q1016=
201909281600 METAR LRCV 281600Z VRB01KT CAVOK 23/10 Q1016=
201909281630 METAR LRCV 281630Z 19002KT CAVOK 22/10 Q1016=
201909281700 METAR LRCV 281700Z AUTO 00000KT 9999 NCD 21/10 Q1016=
201909281730 METAR LRCV 281730Z AUTO 20001KT 9999 NCD 20/11 Q1016=
201909281800 METAR LRCV 281800Z AUTO 25002KT 9999 NCD 20/10 Q1017=
201909281830 METAR LRCV 281830Z AUTO 25003KT 9999 NCD 19/10 Q1017=
201909281900 METAR LRCV 281900Z AUTO 23005KT 9999 NCD 18/11 Q1017=
201909281930 METAR LRCV 281930Z AUTO 23004KT 9999 NCD 18/10 Q1017=
201909282000 METAR LRCV 282000Z AUTO 25004KT 9999 NCD 18/10 Q1017=
201909282030 METAR LRCV 282030Z AUTO 26003KT 9999 NCD 18/10 Q1016=
201909282100 METAR LRCV 282100Z AUTO 24006KT 9999 NCD 16/10 Q1016=
201909282130 METAR LRCV 282130Z AUTO 24005KT 9999 NCD 16/10 Q1016=
201909282200 METAR LRCV 282200Z AUTO 27006KT 9999 NCD 16/10 Q1016=
201909282230 METAR LRCV 282230Z AUTO 26005KT 9999 NCD 15/11 Q1016=
201909282300 METAR LRCV 282300Z AUTO 29003KT 270V340 9999 NCD 15/10 Q1016=
201909282330 METAR LRCV 282330Z AUTO 29003KT 9999 NCD 13/10 Q1016=
201909290000 METAR LRCV 290000Z AUTO 29003KT 9999 NCD 13/10 Q1016=
201909290030 METAR LRCV 290030Z AUTO 26006KT 9999 NCD 12/10 Q1016=
201909290100 METAR LRCV 290100Z AUTO 26006KT 9999 NCD ///// Q1015=
201909290130 METAR LRCV 290130Z AUTO 27006KT 9999 NCD 12/10 Q1015=
201909290200 METAR LRCV 290200Z AUTO 27006KT 9999 NCD 13/11 Q1015=
201909290230 METAR LRCV 290230Z AUTO 34004KT 9999 NCD 12/10 Q1016=
201909290300 METAR LRCV 290300Z AUTO 33005KT 9999 NCD 13/10 Q1015=
201909290330 METAR LRCV 290330Z AUTO 32003KT 250V020 9999 NCD 12/10 Q1015=
201909290400 METAR LRCV 290400Z AUTO 25004KT 9999 NCD 12/10 Q1016=
201909290430 METAR LRCV 290430Z AUTO 26003KT 9999 NCD 12/10 Q1015=
201909290500 METAR LRCV 290500Z AUTO 25006KT 9999 NCD 12/10 Q1016=
201909290530 METAR LRCV 290530Z AUTO 26007KT 9999 NCD 13/11 Q1016=
201909290600 METAR LRCV 290600Z 26008KT CAVOK 15/12 Q1016=
201909290630 METAR LRCV 290630Z 27006KT CAVOK 18/12 Q1016=
201909290700 METAR LRCV 290700Z 30003KT 250V010 CAVOK 18/12 Q1016=
201909290730 METAR LRCV 290730Z 29004KT 250V310 CAVOK 20/12 Q1016=
201909290800 METAR LRCV 290800Z 27007KT CAVOK 21/12 Q1017=
201909290830 METAR LRCV 290830Z 26006KT 230V290 CAVOK 22/12 Q1016=
201909290900 METAR LRCV 290900Z 24005KT 190V290 CAVOK 24/12 Q1016=
201909290930 METAR LRCV 290930Z 23006KT 190V300 CAVOK 25/12 Q1016=
201909291000 METAR LRCV 291000Z 26005KT 180V320 CAVOK 25/12 Q1016=
201909291030 METAR LRCV 291030Z 25007KT 220V300 CAVOK 27/12 Q1015=
201909291100 METAR LRCV 291100Z 26011KT 220V290 CAVOK 27/11 Q1015=
201909291130 METAR LRCV 291130Z 25010KT 220V280 CAVOK 27/10 Q1014=
201909291200 METAR LRCV 291200Z 27012KT CAVOK 28/11 Q1014=
201909291230 METAR LRCV 291230Z 26011KT CAVOK 28/11 Q1014=
201909291300 METAR LRCV 291300Z 26011KT CAVOK 28/11 Q1014=
201909291330 METAR LRCV 291330Z 28012KT CAVOK 28/10 Q1013=
201909291400 METAR LRCV 291400Z 26011KT 230V290 CAVOK 28/10 Q1013=
201909291430 METAR LRCV 291430Z 28012KT CAVOK 27/10 Q1013=
201909291500 METAR LRCV 291500Z 27010KT CAVOK 27/10 Q1013=
201909291530 METAR LRCV 291530Z 27008KT CAVOK 26/09 Q1013=
201909291600 METAR LRCV 291600Z 27007KT CAVOK 24/10 Q1013=
201909291630 METAR LRCV 291630Z 28006KT CAVOK 22/11 Q1013=
201909291700 METAR LRCV 291700Z 28006KT CAVOK 21/10 Q1013=
201909291730 METAR LRCV 291730Z AUTO 27006KT 9999 FEW060/// 20/10 Q1013=
201909291800 METAR LRCV 291800Z AUTO 26005KT 9999 NCD 19/11 Q1013=
201909291830 METAR LRCV 291830Z AUTO 25005KT 9999 NCD 19/10 Q1013=
201909291900 METAR LRCV 291900Z AUTO 26004KT 9999 NCD 18/10 Q1013=
201909291930 METAR LRCV 291930Z AUTO 26004KT 9999 NCD 17/11 Q1013=
201909292000 METAR LRCV 292000Z AUTO 24003KT 9999 NCD 17/11 Q1013=
201909292030 METAR LRCV 292030Z AUTO 24006KT 9999 NCD 16/11 Q1013=
201909292100 METAR LRCV 292100Z AUTO 26006KT 9999 NCD 16/11 Q1013=
201909292130 METAR LRCV 292130Z AUTO 28007KT 9999 NCD 16/11 Q1013=
201909292200 METAR LRCV 292200Z AUTO 27006KT 9999 NCD ///// Q1013=
201909292230 METAR LRCV 292230Z AUTO 26006KT 9999 NCD 15/10 Q1012=
201909292300 METAR LRCV 292300Z AUTO 23006KT 9999 NCD 15/11 Q1012=
201909292330 METAR LRCV 292330Z AUTO 27003KT 230V340 9999 NCD 15/11 Q1012=
201909300000 METAR LRCV 300000Z AUTO 24002KT 9999 NCD 14/10 Q1012=
201909300030 METAR LRCV 300030Z AUTO 23003KT 9999 NCD 13/10 Q1012=
201909300100 METAR LRCV 300100Z AUTO 30002KT 260V320 9999 NCD 13/09 Q1012=
201909300130 METAR LRCV 300130Z AUTO 26002KT 9999 NCD 11/09 Q1011=
201909300200 METAR LRCV 300200Z AUTO 29002KT 260V350 9999 NCD 12/10 Q1011=
201909300230 METAR LRCV 300230Z AUTO 06003KT 010V070 9999 NCD 11/08 Q1011=
201909300300 METAR LRCV 300300Z AUTO 00000KT 9999 NCD 11/08 Q1011=
201909300330 METAR LRCV 300330Z AUTO 03001KT 9999 FEW085/// 12/10 Q1011=
201909300400 METAR LRCV 300400Z AUTO 01003KT 9999 SCT070/// BKN090///
                        12/10 Q1011=
201909300430 METAR LRCV 300430Z AUTO 02003KT 9999 SCT070/// BKN090///
                        11/09 Q1011=
201909300500 METAR LRCV 300500Z AUTO 03003KT 9999 FEW090/// 11/08 Q1011=
201909300530 METAR LRCV 300530Z AUTO 03003KT 9999 NCD 13/10 Q1011=
201909300600 METAR LRCV 300600Z 36003KT CAVOK 15/10 Q1011=
201909300630 METAR LRCV 300630Z 35002KT 290V030 CAVOK 16/11 Q1011=
201909300700 METAR LRCV 300700Z VRB01KT CAVOK 19/11 Q1011=
201909300730 METAR LRCV 300730Z 31003KT 260V360 CAVOK 21/12 Q1011=
201909300800 METAR LRCV 300800Z 24005KT 210V280 CAVOK 22/12 Q1011=
201909300830 METAR LRCV 300830Z 24005KT 190V290 CAVOK 23/12 Q1011=
201909300900 METAR LRCV 300900Z 23006KT 200V260 CAVOK 24/12 Q1011=
201909300930 METAR LRCV 300930Z 25007KT 220V290 CAVOK 25/13 Q1010=
201909301000 METAR LRCV 301000Z 24008KT 200V270 CAVOK 26/12 Q1010=
201909301030 METAR LRCV 301030Z 24012KT CAVOK 27/12 Q1010=
201909301100 METAR LRCV 301100Z 26014KT 230V300 CAVOK 28/12 Q1010=
201909301130 METAR LRCV 301130Z 25012KT 220V280 CAVOK 27/11 Q1009=
201909301200 METAR LRCV 301200Z 26014KT 230V290 CAVOK 28/11 Q1009=
201909301230 METAR LRCV 301230Z 26013KT CAVOK 27/11 Q1009=
201909301300 METAR LRCV 301300Z 29013KT CAVOK 27/11 Q1009=
201909301330 METAR LRCV 301330Z 25011KT CAVOK 28/10 Q1008=
201909301400 METAR LRCV 301400Z 27011KT CAVOK 28/11 Q1008=
201909301430 METAR LRCV 301430Z 27011KT CAVOK 27/10 Q1008=
201909301500 METAR LRCV 301500Z 26010KT 230V290 CAVOK 26/10 Q1008=
201909301530 METAR LRCV 301530Z 28011KT CAVOK 26/09 Q1008=
201909301600 METAR LRCV 301600Z 28009KT CAVOK 25/09 Q1008=
201909301630 METAR LRCV 301630Z 28008KT CAVOK 23/09 Q1008=
201909301700 METAR LRCV 301700Z 29007KT CAVOK 23/09 Q1008=
201909301730 METAR LRCV 301730Z AUTO 28006KT 9999 NCD 22/09 Q1009=
201909301800 METAR LRCV 301800Z AUTO 29006KT 9999 NCD 21/09 Q1009=
201909301830 METAR LRCV 301830Z AUTO 25004KT 9999 NCD 20/09 Q1009=
201909301900 METAR LRCV 301900Z AUTO 24005KT 9999 NCD ///// Q1009=
201909301930 METAR LRCV 301930Z AUTO 27006KT 9999 NCD 20/10 Q1009=
201909302000 METAR LRCV 302000Z AUTO 26006KT 9999 NCD 18/10 Q1010=
201909302030 METAR LRCV 302030Z AUTO 27007KT 9999 NCD 17/10 Q1010=
201909302100 METAR LRCV 302100Z AUTO 27007KT 9999 NCD 17/10 Q1010=
201909302130 METAR LRCV 302130Z AUTO 28006KT 9999 NCD 17/10 Q1010=
201909302200 METAR LRCV 302200Z AUTO 27006KT 9999 NCD 17/10 Q1010=
201909302230 METAR LRCV 302230Z AUTO 26008KT 9999 NCD 18/11 Q1010=
201909302300 METAR LRCV 302300Z AUTO 28005KT 9999 NCD 17/10 Q1011=
201909302330 METAR LRCV 302330Z AUTO 26007KT 9999 NCD 17/11 Q1011=
