201910010200 TAF LRCV 010200Z 0103/0112 28008KT CAVOK=
201910010500 TAF LRCV 010500Z 0106/0115 26008KT CAVOK=
201910010800 TAF LRCV 010800Z 0109/0118 26008KT CAVOK=
201910011100 TAF LRCV 011100Z 0112/0121 27008KT CAVOK=
201910011400 TAF LRCV 011400Z 0115/0124 26006KT CAVOK=
201910011700 TAF LRCV 011700Z 0118/0203 VRB04KT CAVOK
                      BECMG 0201/0203 08010KT=
201910012000 TAF LRCV 012000Z 0121/0206 VRB03KT CAVOK
                      BECMG 0201/0203 08010KT=
201910012300 TAF LRCV 012300Z 0200/0209 06008KT CAVOK=
201910020200 TAF LRCV 020200Z 0203/0212 06008KT CAVOK
                      BECMG 0210/0212 15010KT=
201910020500 TAF LRCV 020500Z 0206/0215 07010KT CAVOK
                      BECMG 0211/0213 VRB04KT=
201910020800 TAF LRCV 020800Z 0209/0218 07010KT CAVOK
                      BECMG 0211/0213 VRB04KT=
201910021100 TAF LRCV 021100Z 0212/0221 VRB04KT CAVOK=
201910021400 TAF LRCV 021400Z 0215/0224 VRB04KT CAVOK=
201910021700 TAF LRCV 021700Z 0218/0303 VRB04KT CAVOK=
201910022000 TAF LRCV 022000Z 0221/0306 05007KT CAVOK=
201910022300 TAF LRCV 022300Z 0300/0309 05007KT CAVOK
                      BECMG 0307/0309 26010KT=
201910030200 TAF LRCV 030200Z 0303/0312 VRB04KT CAVOK
                      BECMG 0307/0309 26010KT=
201910030500 TAF LRCV 030500Z 0306/0315 VRB04KT CAVOK
                      BECMG 0307/0309 26010KT=
201910030800 TAF LRCV 030800Z 0309/0318 VRB04KT CAVOK
                      BECMG 0310/0312 26010KT 5000 RA SCT015 BKN040
                       TEMPO 0312/0318 26015G25KT 3000 SHRA BKN010
                       SCT025CB OVC035=
201910031100 TAF LRCV 031100Z 0312/0321 VRB04KT CAVOK
                      TEMPO 0312/0318 26015G25KT 3000 SHRA BKN010
                       SCT025CB OVC035=
201910031400 TAF LRCV 031400Z 0315/0324 VRB04KT 9999 BKN015 BKN040
                      TEMPO 0315/0319 5000 SHRA BKN010 SCT030CB
                       OVC035=
201910031700 TAF LRCV 031700Z 0318/0403 27010KT 9999 BKN040
                      TEMPO 0320/0403 5000 RA SHRA BKN010 SCT030CB
                       BKN040=
201910032000 TAF LRCV 032000Z 0321/0406 26010KT 9999 BKN040
                      TEMPO 0321/0324 5000 RA SHRA BKN010 SCT030CB
                       BKN040
                      BECMG 0400/0402 5000 RA BR BKN015 BKN040=
201910032300 TAF LRCV 032300Z 0400/0409 27010KT 5000 -RA BR BKN015 BKN040
                      TEMPO 0400/0404 3000 RA SHRA BKN010 SCT030CB
                       BKN040
                      BECMG 0404/0406 9999 NSW BKN025=
201910040200 TAF LRCV 040200Z 0403/0412 26010KT 9999 BKN040
                      TEMPO 0403/0408 5000 RA SHRA BKN010 SCT030CB
                       BKN040=
201910040500 TAF LRCV 040500Z 0406/0415 26010KT 9999 BKN040
                      TEMPO 0406/0409 5000 -RA BR BKN010 BKN030=
201910040800 TAF LRCV 040800Z 0409/0418 26010KT 9999 SCT025 BKN040=
201910041100 TAF LRCV 041100Z 0412/0421 26008KT 9999 BKN040
                      TEMPO 0415/0421 5000 -SHRA SCT015 SCT030CB
                       BKN040=
201910041400 TAF LRCV 041400Z 0415/0424 VRB04KT 9999 BKN040=
201910041657 TAF AMD LRCV 041657Z 0416/0424 VRB04KT 9999 BKN005 BKN040=
201910041700 TAF LRCV 041700Z 0418/0503 07010KT 9999 BKN005 OVC015
                      BECMG 0419/0421 5000 BR OVC002
                      TEMPO 0423/0503 1500 BR=
201910042000 TAF LRCV 042000Z 0421/0506 07010KT 5000 BR BKN002 OVC010
                      TEMPO 0500/0504 1500 BR OVC001
                      BECMG 0504/0506 9999 BKN015=
201910042300 TAF LRCV 042300Z 0500/0509 07010KT 5000 BR OVC005
                      TEMPO 0500/0504 1500 DZ BR OVC002
                      BECMG 0504/0506 9999 NSW BKN020=
201910050200 TAF LRCV 050200Z 0503/0512 10006KT 3000 BR BKN005 OVC010
                      TEMPO 0503/0505 1500 DZ BR BKN002 OVC005
                       BECMG 0505/0507 9999 NSW BKN020=
201910050500 TAF LRCV 050500Z 0506/0515 VRB04KT 1500 BR BKN002
                      PROB30 TEMPO 0506/0507 0600 FG OVC001
                      BECMG 0507/0509 5000 BKN010
                      BECMG 0509/0511 9999 NSW SCT025=
201910050800 TAF LRCV 050800Z 0509/0518 VRB04KT 9999 BKN005 OVC010
                      BECMG 0509/0511 SCT015 SCT025
                      PROB30 TEMPO 0511/0514 SCT025 FEW030CB=
201910051100 TAF LRCV 051100Z 0512/0521 VRB04KT 9999 SCT015 BKN025
                      PROB30 TEMPO 0512/0515 SCT025 FEW030CB
                      BECMG 0514/0516 24010KT
                      PROB40 TEMPO 0519/0521 5000 -RA SCT015 FEW030CB
                       BKN040=
201910051400 TAF LRCV 051400Z 0515/0524 24008KT CAVOK
                      TEMPO 0520/0524 5000 -RA SCT015 FEW030CB
                       BKN040=
201910051700 TAF LRCV 051700Z 0518/0603 VRB04KT CAVOK
                      BECMG 0601/0603 27010KT=
201910052000 TAF LRCV 052000Z 0521/0606 VRB04KT CAVOK
                      BECMG 0602/0604 27014KT=
201910052300 TAF LRCV 052300Z 0600/0609 VRB04KT CAVOK
                      BECMG 0602/0604 27014KT
                      TEMPO 0606/0609 27018G28KT=
201910060200 TAF LRCV 060200Z 0603/0612 VRB04KT 5000 BR NSC
                      TEMPO 0603/0605 1500 BR
                      BECMG 0605/0607 27014KT
                      TEMPO 0607/0612 27018G28KT=
201910060500 TAF LRCV 060500Z 0606/0615 25005KT 9999 SCT025
                      PROB30 TEMPO 0606/0608 5000 -RA
                      BECMG 0607/0608 27015KT
                      TEMPO 0608/0613 27018G30KT=
201910060800 TAF LRCV 060800Z 0609/0618 26015KT 9999 SCT030
                      TEMPO 0609/0613 27018G30KT=
201910061100 TAF LRCV 061100Z 0612/0621 26018KT 9999 BKN035=
201910061400 TAF LRCV 061400Z 0615/0624 27016KT 9999 SCT025
                      BECMG 0621/0623 27006KT=
201910061700 TAF LRCV 061700Z 0618/0703 28015KT CAVOK
                      BECMG 0621/0623 VRB04KT=
201910062000 TAF LRCV 062000Z 0621/0706 26010KT CAVOK
                      BECMG 0622/0624 VRB04KT=
201910062300 TAF LRCV 062300Z 0700/0709 26006KT CAVOK=
201910070200 TAF LRCV 070200Z 0703/0712 VRB04KT 9999 SCT025
                      BECMG 0708/0710 08010KT=
201910070500 TAF LRCV 070500Z 0706/0715 08008KT 9999 BKN030
                      TEMPO 0706/0708 5000 BR BKN010=
201910070800 TAF LRCV 070800Z 0709/0718 08012KT 9999 BKN025=
201910071100 TAF LRCV 071100Z 0712/0721 06012KT 9999 BKN025=
201910071400 TAF LRCV 071400Z 0715/0724 06010KT 9999 BKN025=
201910071700 TAF LRCV 071700Z 0718/0803 08006KT CAVOK=
201910072000 TAF LRCV 072000Z 0721/0806 08006KT 9999 SCT045=
201910072300 TAF LRCV 072300Z 0800/0809 08006KT 9999 SCT045=
201910080200 TAF LRCV 080200Z 0803/0812 07008KT CAVOK=
201910080500 TAF LRCV 080500Z 0806/0815 07008KT 9999 BKN040
                      TEMPO 0806/0810 BKN010=
201910080800 TAF LRCV 080800Z 0809/0818 07008KT 9999 SCT040=
201910081100 TAF LRCV 081100Z 0812/0821 VRB04KT 9999 BKN040=
201910081400 TAF LRCV 081400Z 0815/0824 VRB04KT 9999 SCT045=
201910081700 TAF LRCV 081700Z 0818/0903 VRB04KT CAVOK
                      TEMPO 0900/0903 3000 BR=
201910082000 TAF LRCV 082000Z 0821/0906 VRB04KT CAVOK
                      TEMPO 0901/0905 3000 BR=
201910082300 TAF LRCV 082300Z 0900/0909 VRB04KT CAVOK
                      TEMPO 0900/0903 3000 BR=
201910090200 TAF LRCV 090200Z 0903/0912 03006KT CAVOK=
201910090500 TAF LRCV 090500Z 0906/0915 VRB04KT CAVOK=
201910090800 TAF LRCV 090800Z 0909/0918 VRB04KT CAVOK=
201910091100 TAF LRCV 091100Z 0912/0921 VRB04KT CAVOK=
201910091400 TAF LRCV 091400Z 0915/0924 VRB03KT CAVOK=
201910091700 TAF LRCV 091700Z 0918/1003 VRB03KT CAVOK
                      TEMPO 0923/1003 3000 BR BKN010=
201910092000 TAF LRCV 092000Z 0921/1006 VRB04KT CAVOK
                      BECMG 0923/1001 3000 BR BKN010
                      TEMPO 1001/1005 1500 BR BKN005=
201910092300 TAF LRCV 092300Z 1000/1009 VRB04KT 5000 BR NSC
                      TEMPO 1000/1004 1500 BR BKN010
                      BECMG 1005/1007 CAVOK=
201910100200 TAF LRCV 100200Z 1003/1012 VRB04KT CAVOK
                      TEMPO 1003/1005 3000 BR BKN010=
201910100500 TAF LRCV 100500Z 1006/1015 27007KT CAVOK=
201910100800 TAF LRCV 100800Z 1009/1018 26006KT CAVOK=
201910101100 TAF LRCV 101100Z 1012/1021 26009KT CAVOK
                      TEMPO 1019/1021 5000 -RA BKN015 OVC035=
201910101400 TAF LRCV 101400Z 1015/1024 26009KT CAVOK
                      TEMPO 1019/1021 5000 -RA BKN015 OVC035=
201910101700 TAF LRCV 101700Z 1018/1103 26009KT CAVOK
                      TEMPO 1019/1022 5000 -RA BKN015 OVC035
                      TEMPO 1022/1101 5000 BR BKN010 OVC020
                      BECMG 1101/1103 28010KT=
201910102000 TAF LRCV 102000Z 1021/1106 VRB04KT 7000 -RA BKN035
                      TEMPO 1021/1023 5000 RA BKN015 OVC030
                      BECMG 1023/1101 3000 BR BKN010
                      BECMG 1101/1103 32010KT=
201910102300 TAF LRCV 102300Z 1100/1109 26010KT CAVOK
                      BECMG 1101/1103 32012KT=
201910110200 TAF LRCV 110200Z 1103/1112 30010KT CAVOK=
201910110500 TAF LRCV 110500Z 1106/1115 27006KT CAVOK=
201910110800 TAF LRCV 110800Z 1109/1118 27006KT CAVOK=
201910111100 TAF LRCV 111100Z 1112/1121 29006KT CAVOK=
201910111400 TAF LRCV 111400Z 1115/1124 29006KT CAVOK=
201910111700 TAF LRCV 111700Z 1118/1203 VRB04KT CAVOK=
201910112000 TAF LRCV 112000Z 1121/1206 VRB04KT CAVOK=
201910112300 TAF LRCV 112300Z 1200/1209 04004KT CAVOK=
201910120200 TAF LRCV 120200Z 1203/1212 04004KT CAVOK=
201910120500 TAF LRCV 120500Z 1206/1215 04004KT CAVOK=
201910120800 TAF LRCV 120800Z 1209/1218 VRB04KT CAVOK=
201910121100 TAF LRCV 121100Z 1212/1221 VRB04KT CAVOK=
201910121400 TAF LRCV 121400Z 1215/1224 VRB04KT CAVOK=
201910121700 TAF LRCV 121700Z 1218/1303 VRB04KT CAVOK=
201910122000 TAF LRCV 122000Z 1221/1306 VRB04KT CAVOK=
201910122300 TAF LRCV 122300Z 1300/1309 VRB04KT CAVOK=
201910130200 TAF LRCV 130200Z 1303/1312 VRB04KT CAVOK=
201910130500 TAF LRCV 130500Z 1306/1315 VRB04KT CAVOK=
201910130800 TAF LRCV 130800Z 1309/1318 VRB04KT CAVOK=
201910131100 TAF LRCV 131100Z 1312/1321 VRB04KT CAVOK=
201910131400 TAF LRCV 131400Z 1315/1324 VRB04KT CAVOK=
201910131700 TAF LRCV 131700Z 1318/1403 VRB03KT CAVOK=
201910132000 TAF LRCV 132000Z 1321/1406 VRB03KT CAVOK
                      PROB40 TEMPO 1402/1405 3000 BR=
201910132300 TAF LRCV 132300Z 1400/1409 03006KT CAVOK
                      PROB40 TEMPO 1402/1405 3000 BR=
201910140200 TAF LRCV 140200Z 1403/1412 02008KT CAVOK
                      PROB40 TEMPO 1403/1405 3000 BR=
201910140500 TAF LRCV 140500Z 1406/1415 02005KT CAVOK=
201910140800 TAF LRCV 140800Z 1409/1418 VRB04KT CAVOK=
201910141100 TAF LRCV 141100Z 1412/1421 VRB04KT CAVOK=
201910141400 TAF LRCV 141400Z 1415/1424 VRB03KT CAVOK=
201910141700 TAF LRCV 141700Z 1418/1503 08004KT CAVOK=
201910142000 TAF LRCV 142000Z 1421/1506 08004KT CAVOK=
201910142300 TAF LRCV 142300Z 1500/1509 08004KT CAVOK=
201910150200 TAF LRCV 150200Z 1503/1512 02004KT CAVOK
                      BECMG 1507/1509 08010KT=
201910150500 TAF LRCV 150500Z 1506/1515 02004KT CAVOK
                      BECMG 1507/1509 08010KT=
201910150800 TAF LRCV 150800Z 1509/1518 09008KT CAVOK=
201910151100 TAF LRCV 151100Z 1512/1521 10008KT CAVOK=
201910151400 TAF LRCV 151400Z 1515/1524 10008KT CAVOK=
201910151700 TAF LRCV 151700Z 1518/1603 07006KT CAVOK=
201910152000 TAF LRCV 152000Z 1521/1606 08007KT CAVOK=
201910152300 TAF LRCV 152300Z 1600/1609 08007KT CAVOK
                      PROB30 TEMPO 1605/1608 3000 BR=
201910160200 TAF LRCV 160200Z 1603/1612 05009KT CAVOK=
201910160500 TAF LRCV 160500Z 1606/1615 VRB04KT CAVOK
                      TEMPO 1606/1607 3000 BR
                      BECMG 1607/1609 08010KT=
201910160800 TAF LRCV 160800Z 1609/1618 09006KT CAVOK=
201910161100 TAF LRCV 161100Z 1612/1621 09006KT CAVOK=
201910161400 TAF LRCV 161400Z 1615/1624 VRB04KT CAVOK
                      BECMG 1621/1623 3000 BR=
201910161700 TAF LRCV 161700Z 1618/1703 VRB04KT CAVOK
                      BECMG 1621/1623 3000 BR=
201910162000 TAF LRCV 162000Z 1621/1706 VRB04KT CAVOK
                      TEMPO 1700/1704 3000 BR=
201910162300 TAF LRCV 162300Z 1700/1709 VRB04KT CAVOK
                      TEMPO 1700/1704 3000 BR=
201910170200 TAF LRCV 170200Z 1703/1712 VRB04KT 3000 BR BKN010
                      TEMPO 1703/1705 0600 FG BKN002
                      BECMG 1705/1707 CAVOK=
201910170500 TAF LRCV 170500Z 1706/1715 VRB04KT 5000 BR NSC
                      TEMPO 1706/1707 3000 BR
                      BECMG 1707/1709 9999 NSW=
201910170800 TAF LRCV 170800Z 1709/1718 VRB04KT CAVOK=
201910171100 TAF LRCV 171100Z 1712/1721 VRB04KT CAVOK=
201910171400 TAF LRCV 171400Z 1715/1724 VRB04KT CAVOK=
201910171700 TAF LRCV 171700Z 1718/1803 VRB04KT CAVOK=
201910172000 TAF LRCV 172000Z 1721/1806 VRB04KT CAVOK=
201910172300 TAF LRCV 172300Z 1800/1809 VRB04KT CAVOK=
201910180200 TAF LRCV 180200Z 1803/1812 VRB04KT 5000 BR NSC
                      TEMPO 1803/1805 1500 BR=
201910180320 TAF AMD LRCV 180320Z 1803/1812 VRB04KT 5000 BR NSC
                      TEMPO 1803/1805 1500 BR=
201910180500 TAF LRCV 180500Z 1806/1815 VRB04KT 1500 BR NSC
                      TEMPO 1806/1807 0500 FG
                      BECMG 1807/1809 9999 NSW=
201910180800 TAF LRCV 180800Z 1809/1818 VRB04KT CAVOK=
201910181100 TAF LRCV 181100Z 1812/1821 VRB04KT CAVOK=
201910181400 TAF LRCV 181400Z 1815/1824 VRB04KT CAVOK=
201910181700 TAF LRCV 181700Z 1818/1903 VRB04KT CAVOK
                      BECMG 1823/1901 5000 BR
                      TEMPO 1901/1903 3000 BR=
201910182000 TAF LRCV 182000Z 1821/1906 VRB04KT CAVOK
                      BECMG 1900/1902 5000 BR
                      PROB40 TEMPO 1903/1906 1500 BR=
201910182300 TAF LRCV 182300Z 1900/1909 VRB04KT CAVOK
                      BECMG 1900/1902 5000 BR
                      PROB40 TEMPO 1903/1906 1500 BR
                      BECMG 1906/1908 9999 NSW=
201910190200 TAF LRCV 190200Z 1903/1912 VRB04KT CAVOK
                      TEMPO 1903/1906 3000 BR=
201910190500 TAF LRCV 190500Z 1906/1915 VRB04KT 5000 BR SCT015
                      TEMPO 1906/1908 1500 BR BKN005
                      BECMG 1908/1910 CAVOK=
201910190800 TAF LRCV 190800Z 1909/1918 07006KT CAVOK=
201910191100 TAF LRCV 191100Z 1912/1921 VRB04KT CAVOK=
201910191400 TAF LRCV 191400Z 1915/1924 08007KT CAVOK
                      BECMG 1920/1922 3000 BR=
201910191700 TAF LRCV 191700Z 1918/2003 05004KT CAVOK
                      BECMG 2000/2002 5000 BR=
201910192000 TAF LRCV 192000Z 1921/2006 05004KT CAVOK
                      BECMG 2000/2002 5000 BR
                      TEMPO 2002/2006 3000 BR=
201910192300 TAF LRCV 192300Z 2000/2009 06005KT CAVOK
                      TEMPO 2002/2006 3000 BR=
201910200200 TAF LRCV 200200Z 2003/2012 05006KT CAVOK=
201910200500 TAF LRCV 200500Z 2006/2015 VRB04KT CAVOK
                      BECMG 2007/2009 08010KT=
201910200800 TAF LRCV 200800Z 2009/2018 09006KT CAVOK=
201910201100 TAF LRCV 201100Z 2012/2021 VRB04KT CAVOK=
201910201400 TAF LRCV 201400Z 2015/2024 VRB04KT CAVOK=
201910201700 TAF LRCV 201700Z 2018/2103 VRB04KT CAVOK
                      BECMG 2021/2023 3000 BR BKN010
                      TEMPO 2100/2103 1500 BR BKN005=
201910202000 TAF LRCV 202000Z 2021/2106 VRB04KT CAVOK
                      BECMG 2023/2101 5000 BR BKN010
                      TEMPO 2101/2105 1500 BR BKN005=
201910202300 TAF LRCV 202300Z 2100/2109 05006KT CAVOK
                      TEMPO 2100/2106 3000 BR BKN010=
201910210200 TAF LRCV 210200Z 2103/2112 05006KT CAVOK
                      TEMPO 2103/2106 3000 BR BKN010=
201910210500 TAF LRCV 210500Z 2106/2115 VRB04KT CAVOK=
201910210800 TAF LRCV 210800Z 2109/2118 VRB04KT CAVOK=
201910211100 TAF LRCV 211100Z 2112/2121 VRB04KT CAVOK=
201910211400 TAF LRCV 211400Z 2115/2124 VRB04KT CAVOK=
201910211700 TAF LRCV 211700Z 2118/2203 VRB04KT CAVOK=
201910212000 TAF LRCV 212000Z 2121/2206 VRB04KT CAVOK=
201910212300 TAF LRCV 212300Z 2200/2209 VRB04KT CAVOK=
201910220200 TAF LRCV 220200Z 2203/2212 VRB04KT CAVOK
                      TEMPO 2203/2205 5000 BR=
201910220500 TAF LRCV 220500Z 2206/2215 VRB04KT CAVOK=
201910220800 TAF LRCV 220800Z 2209/2218 VRB04KT CAVOK=
201910221100 TAF LRCV 221100Z 2212/2221 VRB04KT CAVOK=
201910221400 TAF LRCV 221400Z 2215/2224 VRB04KT CAVOK=
201910221700 TAF LRCV 221700Z 2218/2303 VRB04KT CAVOK
                      TEMPO 2300/2303 5000 BR=
201910222000 TAF LRCV 222000Z 2221/2306 VRB04KT CAVOK
                      TEMPO 2301/2305 5000 BR=
201910222300 TAF LRCV 222300Z 2300/2309 VRB04KT CAVOK
                      TEMPO 2301/2305 5000 BR=
201910230200 TAF LRCV 230200Z 2303/2312 06006KT CAVOK
                      TEMPO 2303/2305 5000 BR=
201910230500 TAF LRCV 230500Z 2306/2315 VRB04KT 1500 BR NSC
                      TEMPO 2306/2308 0600 FG BKN002
                      BECMG 2308/2310 5000
                      BECMG 2310/2312 CAVOK=
201910230800 TAF LRCV 230800Z 2309/2318 VRB04KT CAVOK=
201910231100 TAF LRCV 231100Z 2312/2321 VRB04KT CAVOK=
201910231400 TAF LRCV 231400Z 2315/2324 VRB04KT CAVOK
                      BECMG 2321/2323 5000 BR=
201910231700 TAF LRCV 231700Z 2318/2403 VRB04KT CAVOK=
201910232000 TAF LRCV 232000Z 2321/2406 VRB04KT CAVOK=
201910232300 TAF LRCV 232300Z 2400/2409 04005KT CAVOK
                      TEMPO 2402/2406 3000 BR=
201910240200 TAF LRCV 240200Z 2403/2412 07006KT 3000 BR NSC
                      TEMPO 2403/2406 1500 BR
                      PROB40 TEMPO 2403/2406 0600 FG BKN001
                      BECMG 2406/2408 9999 NSW=
201910240500 TAF LRCV 240500Z 2406/2415 07006KT 3000 BR NSC
                      BECMG 2406/2408 9999 NSW=
201910240800 TAF LRCV 240800Z 2409/2418 VRB04KT CAVOK=
201910241100 TAF LRCV 241100Z 2412/2421 12006KT CAVOK=
201910241400 TAF LRCV 241400Z 2415/2424 10006KT CAVOK
                      TEMPO 2421/2424 5000 BR=
201910241700 TAF LRCV 241700Z 2418/2503 08006KT CAVOK
                      BECMG 2422/2424 5000 BR=
201910242000 TAF LRCV 242000Z 2421/2506 08006KT CAVOK
                      BECMG 2421/2423 5000 BR
                      TEMPO 2500/2506 1500 BR BKN005=
201910242300 TAF LRCV 242300Z 2500/2509 VRB04KT 5000 BR NSC
                      TEMPO 2501/2505 1500 BR BKN010
                      BECMG 2505/2507 CAVOK=
201910250200 TAF LRCV 250200Z 2503/2512 VRB04KT 1500 BR BKN005
                      TEMPO 2503/2506 0600 FG OVC002
                      BECMG 2506/2508 3000 BR BKN010
                      BECMG 2508/2510 CAVOK=
201910250500 TAF LRCV 250500Z 2506/2515 VRB04KT 0350 FG OVC001
                      BECMG 2506/2508 0800 BCFG BKN005
                      BECMG 2508/2509 5000 BR SCT007
                      BECMG 2509/2510 CAVOK=
201910250757 TAF AMD LRCV 250757Z 2507/2515 VRB04KT 0150 FG OVC001
                      BECMG 2508/2509 0350
                      BECMG 2509/2510 1500 BR BKN005
                      BECMG 2510/2512 CAVOK=
201910250800 TAF LRCV 250800Z 2509/2518 09004KT 0350 FG OVC002
                      BECMG 2509/2510 1500 BR SCT002 OVC005
                      BECMG 2510/2512 CAVOK=
201910251100 TAF LRCV 251100Z 2512/2521 VRB04KT CAVOK
                      BECMG 2519/2521 5000 BR=
201910251400 TAF LRCV 251400Z 2515/2524 VRB04KT CAVOK
                      BECMG 2520/2522 5000 BR
                      BECMG 2522/2524 3000 BR BKN007=
201910251700 TAF LRCV 251700Z 2518/2603 VRB04KT CAVOK
                      BECMG 2520/2522 3000 BR
                      BECMG 2523/2601 0800 FG BKN003
                      TEMPO 2601/2603 0350 FG BKN001=
201910252000 TAF LRCV 252000Z 2521/2606 VRB04KT 5000 BR NSC
                      BECMG 2523/2601 1500 BR BKN005
                      BECMG 2601/2603 0600 FG BKN002
                      TEMPO 2603/2606 0350 FG OVC001=
201910252300 TAF LRCV 252300Z 2600/2609 VRB04KT 8000 NSC
                      BECMG 2600/2602 3000 BR
                      TEMPO 2602/2608 1500 BR BKN005
                      PROB30 TEMPO 2603/2606 0600 FG OVC002=
201910260200 TAF LRCV 260200Z 2603/2612 VRB04KT 0600 FG VV002
                      TEMPO 2603/2606 0150 FG VV001
                      BECMG 2606/2608 1500 BR BKN005
                      BECMG 2608/2610 3000 BR BKN010
                      BECMG 2610/2611 CAVOK=
201910260500 TAF LRCV 260500Z 2606/2615 09006KT 0200 -DZ FG VV001
                      BECMG 2606/2608 0800 BKN003
                      BECMG 2608/2609 3000 BR BKN010
                      BECMG 2609/2611 CAVOK=
201910260800 TAF LRCV 260800Z 2609/2618 09006KT 0600 FG VV002
                      BECMG 2609/2611 1500 BR BKN003
                      BECMG 2611/2612 5000 BKN010
                      BECMG 2612/2613 CAVOK=
201910261100 TAF LRCV 261100Z 2612/2621 VRB04KT 9999 BKN010
                      BECMG 2612/2614 NSC=
201910261400 TAF LRCV 261400Z 2615/2624 VRB04KT CAVOK
                      BECMG 2619/2621 3000 BR
                      BECMG 2621/2623 0800 FG BKN003=
201910261700 TAF LRCV 261700Z 2618/2703 VRB04KT 5000 BR NSC
                      BECMG 2619/2621 3000 BR
                      BECMG 2621/2623 0800 FG BKN003
                      PROB40 TEMPO 2700/2703 0350 FG VV001=
201910262000 TAF LRCV 262000Z 2621/2706 VRB04KT 3000 BR NSC
                      BECMG 2623/2701 1500 BR
                      BECMG 2701/2703 0600 FG BKN002
                      TEMPO 2703/2706 0350 FG VV001=
201910262300 TAF LRCV 262300Z 2700/2709 VRB04KT 5000 BR NSC
                      BECMG 2700/2701 3000 BR BKN005
                      BECMG 2701/2703 0350 FG OVC001
                      TEMPO 2703/2706 0150 FG
                      BECMG 2707/2709 3000 BR SCT002 OVC005=
201910262340 TAF COR LRCV 262340Z 2700/2709 VRB04KT 0800 FG NSC
                      BECMG 2700/2702 0350 FG BKN002
                      TEMPO 2703/2706 0150 FG OVC001
                      BECMG 2707/2709 3000 BR SCT002 OVC005=
201910270200 TAF LRCV 270200Z 2703/2712 VRB04KT 0300 FG BKN002
                      TEMPO 2703/2706 0150 FG OVC001
                      BECMG 2707/2709 3000 BR SCT002 OVC005
                      BECMG 2709/2711 CAVOK=
201910270500 TAF LRCV 270500Z 2706/2715 VRB04KT 0350 DZ FG VV001
                      BECMG 2706/2708 1500 BR BKN002
                      BECMG 2708/2710 5000 BKN005
                      BECMG 2710/2711 CAVOK=
201910270800 TAF LRCV 270800Z 2709/2718 VRB04KT 0350 FG VV001
                      BECMG 2709/2710 0800 BKN002
                      BECMG 2710/2712 5000 BR BKN010
                      TEMPO 2712/2715 CAVOK=
201910271100 TAF LRCV 271100Z 2712/2721 VRB04KT CAVOK
                      BECMG 2716/2718 5000 BR
                      BECMG 2719/2721 1500 BR SCT005=
201910271400 TAF LRCV 271400Z 2715/2724 VRB04KT CAVOK
                      BECMG 2717/2719 5000 BR
                      BECMG 2720/2722 1500 BR BKN005=
201910271700 TAF LRCV 271700Z 2718/2803 VRB04KT CAVOK
                      BECMG 2720/2722 5000 BR
                      BECMG 2722/2724 1500 BR BKN005
                      BECMG 2800/2802 0600 FG BKN002=
201910272000 TAF LRCV 272000Z 2721/2806 VRB04KT 3000 BR NSC
                      BECMG 2721/2723 1500 BR BKN005
                      BECMG 2723/2801 0600 FG OVC002
                      TEMPO 2801/2806 0150 FG VV001=
201910272300 TAF LRCV 272300Z 2800/2809 VRB04KT 1500 BR NSC
                      BECMG 2800/2802 0600 FG OVC002
                      TEMPO 2802/2806 0150 FG VV001
                      BECMG 2807/2809 1500 BR BKN005=
201910280200 TAF LRCV 280200Z 2803/2812 VRB04KT 0800 FG NSC
                      PROB30 TEMPO 2803/2806 0150 FG VV001
                      BECMG 2806/2808 3000 BR BKN010
                      BECMG 2808/2809 CAVOK=
201910280500 TAF LRCV 280500Z 2806/2815 VRB04KT 0350 FG OVC001
                      TEMPO 2806/2807 0150 FG VV001
                      BECMG 2807/2809 0800 BKN003
                      BECMG 2809/2810 3000 BR SCT010
                      BECMG 2810/2811 CAVOK=
201910280800 TAF LRCV 280800Z 2809/2818 VRB03KT 5000 BR BKN005
                      BECMG 2809/2811 CAVOK=
201910281100 TAF LRCV 281100Z 2812/2821 VRB04KT CAVOK
                      BECMG 2819/2821 5000 BR=
201910281400 TAF LRCV 281400Z 2815/2824 VRB04KT CAVOK
                      BECMG 2818/2820 5000 BR
                      BECMG 2820/2822 1500 BR BKN005
                      BECMG 2822/2824 0600 FG BKN002=
201910281700 TAF LRCV 281700Z 2818/2903 VRB04KT CAVOK
                      BECMG 2819/2821 5000 BR
                      BECMG 2821/2823 1500 BR BKN005
                      TEMPO 2823/2903 0600 FG BKN002=
201910282000 TAF LRCV 282000Z 2821/2906 VRB04KT 5000 BR NSC
                      BECMG 2822/2824 1500 BR BKN005
                      PROB30 TEMPO 2900/2906 0600 FG BKN002=
201910282300 TAF LRCV 282300Z 2900/2909 06006KT 3000 BR NSC
                      PROB30 TEMPO 2900/2906 0800 FG BKN002
                      BECMG 2906/2908 CAVOK=
201910290200 TAF LRCV 290200Z 2903/2912 08008KT 1500 BR BKN005
                      TEMPO 2903/2907 0600 FG OVC002
                      BECMG 2907/2909 CAVOK=
201910290500 TAF LRCV 290500Z 2906/2915 08008KT 1500 BR BKN010
                      TEMPO 2906/2908 0600 FG OVC002
                      BECMG 2908/2910 8000 NSW BKN020=
201910290800 TAF LRCV 290800Z 2909/2918 10008KT 3000 BR OVC003
                      BECMG 2909/2911 8000 NSW SCT005 OVC015=
201910291100 TAF LRCV 291100Z 2912/2921 09008KT 7000 OVC010
                      PROB40 TEMPO 2912/2915 BKN015=
201910291400 TAF LRCV 291400Z 2915/2924 VRB04KT 8000 OVC015=
201910291700 TAF LRCV 291700Z 2918/3003 VRB04KT 5000 BR SCT015 BKN045
                      BECMG 3001/3003 3000 -RA BR BKN010 OVC030=
201910292000 TAF LRCV 292000Z 2921/3006 VRB04KT 5000 BR BKN015 BKN045
                      BECMG 3000/3002 3000 -RA BR BKN010 OVC030
                       TEMPO 3002/3006 1500 RA BR BKN005 OVC025=
201910292300 TAF LRCV 292300Z 3000/3009 VRB04KT 5000 BR BKN015 BKN045
                      BECMG 3000/3002 3000 -RA BR BKN010 OVC030
                       TEMPO 3003/3009 1500 RA BR BKN005 OVC025
                       BECMG 3007/3009 12014KT=
201910300200 TAF LRCV 300200Z 3003/3012 VRB04KT 3000 BR SCT015 BKN035
                      TEMPO 3003/3008 1500 -RA BR BKN010 OVC025
                       BECMG 3008/3010 12014KT 9999 NSW=
201910300500 TAF LRCV 300500Z 3006/3015 VRB04KT 5000 -RA BR BKN015 OVC030
                      TEMPO 3006/3012 1500 RA BR BKN005 OVC025
                       BECMG 3007/3009 10014KT=
201910300637 TAF AMD LRCV 300637Z 3006/3015 11014KT 1500 -RA BR BKN005 OVC020
                       TEMPO 3006/3008 0600 -RA FG OVC001
                      BECMG 3008/3010 5000 -RA BR BKN010 OVC025=
201910300800 TAF LRCV 300800Z 3009/3018 10016KT 3000 -RA BR BKN005 OVC020
                      TEMPO 3010/3014 5000 BKN010 OVC025
                      TEMPO 3014/3018 1500 -RA BR BKN002 OVC015=
201910301100 TAF LRCV 301100Z 3012/3021 08016KT 7000 -RA BKN015 OVC025
                      BECMG 3012/3014 3000 -RA BR BKN010 OVC020
                       TEMPO 3015/3021 1500 -RA BR BKN002 OVC015=
201910301400 TAF LRCV 301400Z 3015/3024 08014KT 7000 -RA BKN015 OVC025
                      BECMG 3015/3017 3000 -RA BR BKN010 OVC020
                       TEMPO 3017/3021 1500 -RA BR BKN005 OVC020=
201910301700 TAF LRCV 301700Z 3018/3103 08010KT 5000 -RA BR BKN015 OVC025
                      TEMPO 3018/3024 3000 -RA BR BKN010 OVC020
                       TEMPO 3100/3103 1500 RADZ BKN005 OVC025=
201910302000 TAF LRCV 302000Z 3021/3106 08010KT 3000 -RA BR BKN010 OVC025
                      TEMPO 3021/3106 1500 RADZ BKN003 OVC010=
201910302300 TAF LRCV 302300Z 3100/3109 06010KT 5000 -RA BR BKN010 OVC025
                      TEMPO 3100/3107 1500 RADZ BKN003 OVC010=
201910310200 TAF LRCV 310200Z 3103/3112 07012KT 9999 -DZRA BKN010 OVC025
                      TEMPO 3103/3107 3000 -DZRA BR BKN005 OVC020
                       BECMG 3107/3109 BKN015 OVC030=
201910310500 TAF LRCV 310500Z 3106/3115 07012KT 9999 SCT010 OVC025
                      TEMPO 3106/3107 5000 -RA BKN010 OVC020=
201910310800 TAF LRCV 310800Z 3109/3118 07012KT 9999 BKN010 OVC025
                      PROB30 TEMPO 3109/3112 5000 -RA BKN005 OVC020=
201910311100 TAF LRCV 311100Z 3112/3121 07012KT 9999 BKN010 OVC025
                      PROB30 TEMPO 3112/3116 5000 -RA BKN005 OVC020=
201910311400 TAF LRCV 311400Z 3115/3124 07010KT 5000 BR BKN010 OVC025
                      TEMPO 3115/3118 3000 -RADZ BR BKN005 OVC015=
201910311700 TAF LRCV 311700Z 3118/0103 07010KT 9999 BKN010 OVC025
                      TEMPO 3121/3123 BKN015 OVC030=
201910312000 TAF LRCV 312000Z 3121/0106 06006KT 7000 OVC030
                      PROB30 TEMPO 0100/0106 3000 BR BKN015 OVC030=
201910312300 TAF LRCV 312300Z 0100/0109 06006KT 9999 OVC030
                      PROB30 TEMPO 0100/0106 5000 BR BKN015 OVC030=
