201911010000 METAR LRCV 010000Z 05004KT 9999 BKN035 OVC047 05/03 Q1025=
201911010030 METAR LRCV 010030Z 05004KT 9999 BKN035 OVC046 05/03 Q1025=
201911010100 METAR LRCV 010100Z 06006KT 9999 FEW029 BKN033 OVC045 05/03
                        Q1025=
201911010130 METAR LRCV 010130Z 08006KT 9999 BKN030 OVC046 05/02 Q1025=
201911010200 METAR LRCV 010200Z 08005KT 9999 SCT034 OVC042 04/02 Q1025=
201911010230 METAR LRCV 010230Z 06004KT 9999 BKN034 OVC040 04/02 Q1025=
201911010300 METAR LRCV 010300Z 12003KT 9999 OVC039 04/02 Q1025=
201911010330 METAR LRCV 010330Z 15003KT 9999 SCT034 OVC039 04/03 Q1025=
201911010400 METAR LRCV 010400Z 20002KT 170V230 9999 SCT034 OVC036 04/03
                        Q1025=
201911010430 METAR LRCV 010430Z 13003KT 060V180 9999 FEW005 OVC036 04/02
                        Q1025=
201911010500 METAR LRCV 010500Z 14003KT 9999 OVC038 04/02 Q1025=
201911010530 METAR LRCV 010530Z 13003KT 9999 OVC039 04/02 Q1025=
201911010600 METAR LRCV 010600Z 13003KT 9999 OVC041 04/02 Q1025=
201911010630 METAR LRCV 010630Z 12004KT 090V150 9999 OVC043 04/02 Q1026=
201911010700 METAR LRCV 010700Z 11004KT 9999 FEW018 OVC044 04/02 Q1026=
201911010730 METAR LRCV 010730Z 10004KT 070V170 9999 FEW019 BKN044 05/02
                        Q1026=
201911010800 METAR LRCV 010800Z 13005KT 9999 FEW019 OVC042 05/01 Q1026=
201911010830 METAR LRCV 010830Z 14005KT 110V170 9999 SCT017 OVC047 05/02
                        Q1026=
201911010900 METAR LRCV 010900Z 14004KT 120V180 9999 SCT015 BKN040 06/02
                        Q1026=
201911010930 METAR LRCV 010930Z 12003KT 050V150 9999 SCT015 BKN045 06/02
                        Q1026=
201911011000 METAR LRCV 011000Z 07002KT 020V120 9999 SCT015 BKN041 06/01
                        Q1026=
201911011030 METAR LRCV 011030Z 13003KT 090V160 9999 SCT015 BKN041 06/01
                        Q1026=
201911011100 METAR LRCV 011100Z 09004KT 060V120 9999 FEW020 BKN037 07/01
                        Q1026=
201911011130 METAR LRCV 011130Z 08004KT 040V110 9999 FEW024 BKN040 07/00
                        Q1025=
201911011200 METAR LRCV 011200Z 10004KT 050V150 9999 FEW030 BKN042 07/00
                        Q1025=
201911011230 METAR LRCV 011230Z 12003KT 080V160 9999 FEW030 BKN041 07/01
                        Q1025=
201911011300 METAR LRCV 011300Z 12003KT 060V180 9999 SCT038 07/01 Q1025=
201911011330 METAR LRCV 011330Z 15002KT 090V240 9999 FEW036 07/01 Q1024=
201911011400 METAR LRCV 011400Z 11005KT 9999 FEW031 07/01 Q1024=
201911011430 METAR LRCV 011430Z 11002KT 040V130 9999 FEW034 SCT049 06/02
                        Q1024=
201911011500 METAR LRCV 011500Z 13003KT 9999 BKN049 06/02 Q1024=
201911011530 METAR LRCV 011530Z 11003KT 9999 BKN049 06/02 Q1024=
201911011600 METAR LRCV 011600Z 12003KT 9999 BKN049 05/02 Q1024=
201911011630 METAR LRCV 011630Z 11003KT 9999 BKN049 06/02 Q1024=
201911011700 METAR LRCV 011700Z 11004KT 9999 BKN050 06/01 Q1024=
201911011730 METAR LRCV 011730Z 11004KT CAVOK 05/02 Q1025=
201911011800 METAR LRCV 011800Z 09004KT CAVOK 05/02 Q1024=
201911011830 METAR LRCV 011830Z AUTO 10004KT 9999 FEW044/// OVC060///
                        05/02 Q1024=
201911011900 METAR LRCV 011900Z AUTO 11004KT 9999 FEW043/// OVC055///
                        05/01 Q1024=
201911011930 METAR LRCV 011930Z AUTO 12004KT 9999 OVC055/// 05/02 Q1024=
201911012000 METAR LRCV 012000Z AUTO 10003KT 9999 OVC055/// 05/02 Q1024=
201911012030 METAR LRCV 012030Z AUTO 09004KT 9999 FEW034/// OVC055///
                        05/02 Q1024=
201911012100 METAR LRCV 012100Z 07004KT 9999 SCT035 BKN050 05/02 Q1024=
201911012130 METAR LRCV 012130Z 05004KT 9999 SCT035 BKN050 05/02 Q1024=
201911012200 METAR LRCV 012200Z 05005KT 9999 SCT035 BKN050 05/02 Q1023=
201911012230 METAR LRCV 012230Z 05006KT 9999 SCT035 BKN040 OVC050 05/02
                        Q1023=
201911012300 METAR LRCV 012300Z 05008KT 9999 SCT036 BKN050 04/02 Q1023=
201911012330 METAR LRCV 012330Z 05008KT 9999 SCT036 BKN050 04/02 Q1023=
201911020000 METAR LRCV 020000Z 04009KT 9999 SCT036 BKN050 04/02 Q1022=
201911020030 METAR LRCV 020030Z 05010KT 9999 SCT036 OVC050 04/02 Q1022=
201911020100 METAR LRCV 020100Z 05007KT 9999 SCT037 BKN048 04/02 Q1022=
201911020130 METAR LRCV 020130Z 04005KT 9999 SCT036 BKN043 04/02 Q1022=
201911020200 METAR LRCV 020200Z 06006KT 9999 SCT033 BKN043 05/02 Q1021=
201911020230 METAR LRCV 020230Z 06009KT 9999 BKN042 04/02 Q1021=
201911020300 METAR LRCV 020300Z 05010KT 9999 SCT042 04/02 Q1021=
201911020330 METAR LRCV 020330Z 06010KT 9999 SCT040 OVC050 04/02 Q1020=
201911020400 METAR LRCV 020400Z 06009KT 9999 SCT039 BKN045 04/02 Q1020=
201911020430 METAR LRCV 020430Z 05008KT 9999 OVC040 04/01 Q1020=
201911020500 METAR LRCV 020500Z 05006KT 9999 OVC039 04/02 Q1020=
201911020530 METAR LRCV 020530Z 05006KT 9999 OVC045 05/02 Q1020=
201911020600 METAR LRCV 020600Z 04008KT 9999 OVC048 05/01 Q1020=
201911020630 METAR LRCV 020630Z 04007KT 9999 FEW016 SCT036 BKN044 05/02
                        Q1020=
201911020700 METAR LRCV 020700Z 05009KT 9999 FEW014 BKN045 06/02 Q1019=
201911020730 METAR COR LRCV 020730Z 05009KT 9999 SCT044 OVC048 06/02 Q1019=
201911020800 METAR LRCV 020800Z 06009KT 9999 FEW036 BKN048 06/02 Q1019=
201911020830 METAR LRCV 020830Z 07009KT 9999 SCT035 BKN045 07/02 Q1019=
201911020900 METAR LRCV 020900Z 06009KT 9999 SCT037 BKN048 07/02 Q1019=
201911020930 METAR COR LRCV 020930Z 07008KT 9999 FEW040 OVC049 07/03 Q1018=
201911021000 METAR LRCV 021000Z 06009KT 9999 FEW040 OVC048 07/03 Q1018=
201911021030 METAR LRCV 021030Z 06009KT 9999 OVC049 08/03 Q1018=
201911021100 METAR LRCV 021100Z 06008KT 9999 OVC049 08/04 Q1018=
201911021130 METAR LRCV 021130Z 07008KT 9999 BKN049 09/03 Q1017=
201911021200 METAR LRCV 021200Z 07007KT CAVOK 09/03 Q1017=
201911021230 METAR LRCV 021230Z 07007KT 020V100 CAVOK 09/04 Q1017=
201911021300 METAR LRCV 021300Z 07006KT 040V100 CAVOK 09/04 Q1016=
201911021330 METAR LRCV 021330Z 08006KT CAVOK 09/04 Q1016=
201911021400 METAR LRCV 021400Z 07006KT CAVOK 09/05 Q1016=
201911021430 METAR LRCV 021430Z 05006KT CAVOK 09/05 Q1016=
201911021500 METAR LRCV 021500Z 06005KT CAVOK 08/05 Q1016=
201911021530 METAR LRCV 021530Z AUTO 06004KT 9999 FEW075/// SCT090///
                        BKN140/// 07/05 Q1016=
201911021600 METAR LRCV 021600Z AUTO 05005KT 9999 SCT075/// BKN090///
                        BKN140/// 07/05 Q1016=
201911021630 METAR LRCV 021630Z AUTO 03003KT 9999 BKN085/// 08/05 Q1016=
201911021700 METAR LRCV 021700Z AUTO 03004KT 9999 BKN075/// OVC090///
                        08/06 Q1016=
201911021730 METAR LRCV 021730Z AUTO 02003KT 9999 BKN075/// BKN130///
                        08/06 Q1016=
201911021800 METAR LRCV 021800Z AUTO 02003KT 9999 OVC075/// 08/06 Q1016=
201911021830 METAR LRCV 021830Z AUTO 02004KT 9999 FEW075/// SCT150///
                        08/05 Q1015=
201911021900 METAR LRCV 021900Z AUTO 36004KT 9999 FEW080/// BKN160///
                        08/05 Q1016=
201911021930 METAR LRCV 021930Z AUTO 01004KT 9999 SCT085/// BKN140///
                        07/05 Q1015=
201911022000 METAR LRCV 022000Z AUTO 01004KT 9999 OVC085/// 07/05 Q1015=
201911022030 METAR LRCV 022030Z AUTO 02004KT 9999 BKN085/// 07/06 Q1015=
201911022100 METAR LRCV 022100Z 02004KT CAVOK 07/06 Q1015=
201911022130 METAR LRCV 022130Z 03004KT CAVOK 07/06 Q1015=
201911022200 METAR LRCV 022200Z 03003KT CAVOK 07/05 Q1014=
201911022230 METAR LRCV 022230Z 02003KT 9999 -RA NSC 07/06 Q1015 R27/19//95=
201911022300 METAR LRCV 022300Z 05004KT CAVOK 07/06 Q1014 R27/19//95=
201911022330 METAR LRCV 022330Z 03003KT CAVOK 07/06 Q1014 R27/19//95=
201911030000 METAR LRCV 030000Z 02003KT CAVOK 08/06 Q1014 R27/19//95=
201911030030 METAR LRCV 030030Z 05004KT CAVOK 07/06 Q1014 R27/19//95=
201911030100 METAR LRCV 030100Z 04004KT CAVOK 07/06 Q1013 R27/19//95=
201911030130 METAR LRCV 030130Z 05004KT 9000 -RA NSC 07/06 Q1013 R27/19//95=
201911030200 METAR LRCV 030200Z 07003KT CAVOK 07/06 Q1013 R27/19//95=
201911030230 METAR LRCV 030230Z 35003KT 9000 NSC 07/06 Q1013 R27/19//95=
201911030300 METAR LRCV 030300Z 05005KT 9000 NSC 07/06 Q1012 R27/19//95=
201911030330 METAR LRCV 030330Z 04003KT 8000 NSC 07/06 Q1012 R27/19//95=
201911030400 METAR LRCV 030400Z 36001KT 7000 NSC 07/06 Q1012 R27/19//95=
201911030430 METAR LRCV 030430Z 03003KT 9000 NSC 06/06 Q1012 R27/19//95=
201911030500 METAR LRCV 030500Z 02004KT 9000 NSC 07/06 Q1012 R27/19//95=
201911030530 METAR LRCV 030530Z 02004KT CAVOK 07/06 Q1012 R27/19//95=
201911030600 METAR LRCV 030600Z 05004KT CAVOK 08/06 Q1012 R27/19//95=
201911030630 METAR LRCV 030630Z 06004KT CAVOK 08/07 Q1012 R27/19//95=
201911030700 METAR LRCV 030700Z 08003KT CAVOK 08/06 Q1012 R27/19//95=
201911030730 METAR LRCV 030730Z 04004KT CAVOK 09/07 Q1012 R27/19//95=
201911030800 METAR LRCV 030800Z 07004KT CAVOK 09/07 Q1012 R27/19//95=
201911030830 METAR LRCV 030830Z 06006KT CAVOK 10/07 Q1012 R27/CLRD//=
201911030900 METAR LRCV 030900Z 09005KT 060V120 CAVOK 12/08 Q1012=
201911030930 METAR LRCV 030930Z 08005KT 030V110 CAVOK 13/08 Q1011=
201911031000 METAR LRCV 031000Z 07005KT CAVOK 13/08 Q1011=
201911031030 METAR LRCV 031030Z 08006KT 050V110 CAVOK 14/08 Q1011=
201911031100 METAR LRCV 031100Z 08006KT 050V110 CAVOK 15/09 Q1010=
201911031130 METAR LRCV 031130Z 07005KT 020V120 CAVOK 15/08 Q1010=
201911031200 METAR LRCV 031200Z 11005KT CAVOK 15/08 Q1010=
201911031230 METAR LRCV 031230Z 08006KT 050V130 CAVOK 15/08 Q1009=
201911031300 METAR LRCV 031300Z 11005KT CAVOK 15/08 Q1009=
201911031330 METAR LRCV 031330Z 10007KT CAVOK 15/08 Q1009=
201911031400 METAR LRCV 031400Z 12006KT CAVOK 15/09 Q1009=
201911031430 METAR LRCV 031430Z 12004KT 9999 -RA FEW020 14/09 Q1009=
201911031500 METAR LRCV 031500Z 11006KT 9999 FEW030 14/09 Q1008=
201911031530 METAR LRCV 031530Z 12006KT 9999 -RA NSC 13/09 Q1008=
201911031600 METAR LRCV 031600Z 11004KT 9999 -RA NSC 13/09 Q1009=
201911031630 METAR LRCV 031630Z 11004KT CAVOK 12/09 Q1009=
201911031700 METAR LRCV 031700Z 12003KT CAVOK 12/09 Q1009=
201911031730 METAR LRCV 031730Z 11003KT CAVOK 12/09 Q1009=
201911031800 METAR LRCV 031800Z 10004KT CAVOK 12/09 Q1009=
201911031830 METAR LRCV 031830Z 06004KT CAVOK 11/09 Q1008=
201911031900 METAR LRCV 031900Z 07005KT CAVOK 10/09 Q1008=
201911031930 METAR LRCV 031930Z AUTO 07005KT 6000 NCD 10/08 Q1008=
201911032000 METAR LRCV 032000Z AUTO 07005KT 8000 NCD 09/08 Q1008=
201911032030 METAR LRCV 032030Z AUTO 06004KT 8000 FEW130/// 09/08 Q1008=
201911032100 METAR LRCV 032100Z 06006KT CAVOK 09/08 Q1008=
201911032130 METAR LRCV 032130Z 05007KT CAVOK 09/08 Q1008=
201911032200 METAR LRCV 032200Z 07006KT CAVOK 09/08 Q1007=
201911032230 METAR LRCV 032230Z 08006KT CAVOK 08/07 Q1007=
201911032300 METAR LRCV 032300Z 08006KT CAVOK 09/08 Q1007=
201911032330 METAR LRCV 032330Z 08005KT CAVOK 09/07 Q1007=
201911040000 METAR LRCV 040000Z 07005KT CAVOK 08/07 Q1006=
201911040030 METAR LRCV 040030Z 08005KT CAVOK 08/07 Q1006=
201911040100 METAR LRCV 040100Z 08005KT CAVOK 08/07 Q1006=
201911040130 METAR LRCV 040130Z 08006KT CAVOK 08/07 Q1006=
201911040200 METAR LRCV 040200Z 06006KT CAVOK 08/07 Q1006=
201911040230 METAR LRCV 040230Z 08007KT CAVOK 08/07 Q1006=
201911040300 METAR LRCV 040300Z 08006KT CAVOK 08/07 Q1006=
201911040330 METAR LRCV 040330Z 07006KT CAVOK 08/07 Q1006=
201911040400 METAR LRCV 040400Z 07006KT CAVOK 08/07 Q1005=
201911040430 METAR LRCV 040430Z 09006KT CAVOK 08/07 Q1005=
201911040500 METAR LRCV 040500Z 07006KT CAVOK 09/08 Q1005=
201911040530 METAR LRCV 040530Z 07006KT CAVOK 09/08 Q1005=
201911040600 METAR LRCV 040600Z 10006KT CAVOK 10/08 Q1005=
201911040630 METAR LRCV 040630Z 08007KT CAVOK 10/09 Q1005=
201911040700 METAR LRCV 040700Z 09009KT CAVOK 12/09 Q1005=
201911040730 METAR LRCV 040730Z 08010KT CAVOK 14/10 Q1005=
201911040800 METAR LRCV 040800Z 09009KT CAVOK 14/10 Q1004=
201911040830 METAR LRCV 040830Z 11009KT CAVOK 15/10 Q1004=
201911040900 METAR LRCV 040900Z 11008KT CAVOK 17/11 Q1004=
201911040930 METAR LRCV 040930Z 13008KT CAVOK 19/11 Q1004=
201911041000 METAR LRCV 041000Z 13008KT CAVOK 19/11 Q1004=
201911041030 METAR LRCV 041030Z 13008KT CAVOK 20/12 Q1003=
201911041100 METAR LRCV 041100Z 12008KT CAVOK 20/12 Q1003=
201911041130 METAR LRCV 041130Z 11007KT 9999 FEW045 20/12 Q1002=
201911041200 METAR LRCV 041200Z 12007KT 9999 SCT045CB 19/12 Q1002=
201911041230 METAR LRCV 041230Z 12007KT 9999 SCT045CB 20/12 Q1001=
201911041300 METAR LRCV 041300Z 13007KT 9999 FEW045CB 20/12 Q1001=
201911041330 METAR LRCV 041330Z 13006KT 9999 -RA FEW048CB 19/13 Q1001=
201911041400 METAR LRCV 041400Z 13005KT 9999 FEW048CB 18/13 Q1001=
201911041430 METAR LRCV 041430Z 22008KT 180V260 8000 FEW048CB 18/12 Q1002=
201911041500 METAR LRCV 041500Z 30011KT 8000 FEW048 15/11 Q1002=
201911041530 METAR LRCV 041530Z 32005KT 9999 NSC 14/13 Q1002=
201911041600 METAR LRCV 041600Z 33004KT CAVOK 14/13 Q1002=
201911041630 METAR LRCV 041630Z 34004KT 300V360 CAVOK 14/13 Q1002 R27/29//95=
201911041700 METAR LRCV 041700Z VRB02KT CAVOK 13/12 Q1003 R27/29//95=
201911041730 METAR LRCV 041730Z 27006KT 7000 NSC 12/12 Q1003 R27/29//95=
201911041800 METAR COR LRCV 041800Z 31006KT 0500 R27/550N -DZ FG VV002
                        13/12 Q1003 R27/29//95=
201911041830 METAR LRCV 041830Z AUTO 21004KT 0300 R09/0250N FG VV001 12/12
                        Q1004=
201911041900 METAR LRCV 041900Z AUTO 25005KT 220V290 0350 R09/0300N FG
                        BKN001/// BKN003/// 11/11 Q1004=
201911041930 METAR LRCV 041930Z AUTO 27005KT 0800 R09/0500V0750N FG VV002
                        13/12 Q1004=
201911042000 METAR LRCV 042000Z AUTO 25004KT 0400 R09/0275V0400N FG VV001
                        12/11 Q1005=
201911042030 METAR LRCV 042030Z AUTO 26005KT 2300 R09/1000V1800U FG SCT001///
                        BKN090/// 11/11 Q1005=
201911042100 METAR LRCV 042100Z 22003KT 0250 R27/0400N FG OVC001 11/10
                        Q1005=
201911042130 METAR LRCV 042130Z 22005KT 0200 R27/0225N FG VV001 11/11
                        Q1005=
201911042200 METAR LRCV 042200Z 21005KT 4000 MIFG BR FEW002 10/10 Q1006
                        R27/19//95=
201911042230 METAR LRCV 042230Z 22004KT 6000 MIFG NSC 10/10 Q1006 R27/19//95=
201911042300 METAR LRCV 042300Z 24005KT 3000 BR NSC 10/10 Q1006 R27/19//95=
201911042330 METAR LRCV 042330Z 24004KT 2500 0600W R09/0650D BCFG BR NSC
                        09/09 Q1006 R27/19//95=
201911050000 METAR LRCV 050000Z 24004KT 5000 BR NSC 10/10 Q1007 R27/19//95=
201911050030 METAR LRCV 050030Z 25004KT 5000 BR NSC 08/08 Q1007 R27/19//95=
201911050100 METAR LRCV 050100Z 27007KT 8000 NSC 09/08 Q1007 R27/19//95=
201911050130 METAR LRCV 050130Z 24005KT CAVOK 09/09 Q1007 R27/19//95=
201911050200 METAR LRCV 050200Z 25004KT CAVOK 09/08 Q1007 R27/19//95=
201911050230 METAR LRCV 050230Z 25004KT CAVOK 08/07 Q1007 R27/19//95=
201911050300 METAR LRCV 050300Z 26005KT CAVOK 08/08 Q1007 R27/19//95=
201911050330 METAR LRCV 050330Z 20007KT CAVOK 09/08 Q1008 R27/19//95=
201911050400 METAR LRCV 050400Z 23006KT CAVOK 10/09 Q1008 R27/19//95=
201911050430 METAR LRCV 050430Z 19007KT CAVOK 09/07 Q1008 R27/19//95=
201911050500 METAR LRCV 050500Z 19007KT CAVOK 07/06 Q1009 R27/19//95=
201911050530 METAR LRCV 050530Z 10003KT 050V160 CAVOK 07/06 Q1009 R27/19//95=
201911050600 METAR LRCV 050600Z 00002KT CAVOK 08/07 Q1009 R27/19//95=
201911050630 METAR LRCV 050630Z 00000KT CAVOK 10/09 Q1010 R27/CLRD//=
201911050700 METAR LRCV 050700Z VRB02KT CAVOK 12/10 Q1010=
201911050730 METAR LRCV 050730Z 22003KT CAVOK 13/09 Q1010=
201911050800 METAR LRCV 050800Z 20003KT 140V230 CAVOK 15/09 Q1010=
201911050830 METAR LRCV 050830Z 21003KT CAVOK 16/08 Q1010=
201911050900 METAR LRCV 050900Z VRB02KT CAVOK 17/08 Q1010=
201911050930 METAR LRCV 050930Z 22004KT CAVOK 18/08 Q1010=
201911051000 METAR LRCV 051000Z 23004KT 190V300 CAVOK 19/08 Q1010=
201911051030 METAR LRCV 051030Z 22003KT 150V290 CAVOK 20/08 Q1009=
201911051100 METAR LRCV 051100Z 19006KT CAVOK 21/07 Q1009=
201911051130 METAR LRCV 051130Z 18005KT 140V230 CAVOK 21/08 Q1009=
201911051200 METAR LRCV 051200Z 17005KT 090V230 CAVOK 22/08 Q1008=
201911051230 METAR LRCV 051230Z 19006KT 160V240 CAVOK 22/06 Q1008=
201911051300 METAR LRCV 051300Z 18007KT CAVOK 22/06 Q1008=
201911051330 METAR LRCV 051330Z 19006KT CAVOK 22/05 Q1008=
201911051400 METAR LRCV 051400Z 17005KT CAVOK 22/06 Q1007=
201911051430 METAR LRCV 051430Z 17004KT CAVOK 21/06 Q1007=
201911051500 METAR LRCV 051500Z 13005KT CAVOK 19/07 Q1007=
201911051530 METAR LRCV 051530Z AUTO 10005KT 9999 NCD 17/07 Q1007=
201911051600 METAR LRCV 051600Z AUTO 10005KT 9999 NCD 15/07 Q1007=
201911051630 METAR LRCV 051630Z AUTO 09005KT 9999 NCD 15/07 Q1007=
201911051700 METAR LRCV 051700Z AUTO 06006KT 9999 FEW090/// 13/07 Q1007=
201911051730 METAR LRCV 051730Z AUTO 08007KT 9999 SCT090/// 13/07 Q1007=
201911051800 METAR LRCV 051800Z AUTO 07005KT 9999 BKN085/// 13/07 Q1007=
201911051830 METAR LRCV 051830Z AUTO 08007KT 9999 FEW085/// 12/07 Q1007=
201911051900 METAR LRCV 051900Z AUTO 08008KT 9999 NCD 11/07 Q1007=
201911051930 METAR LRCV 051930Z AUTO 07007KT 9999 NCD 12/07 Q1007=
201911052000 METAR LRCV 052000Z AUTO 05005KT 9999 NCD 11/07 Q1007=
201911052030 METAR LRCV 052030Z AUTO 07006KT 9999 NCD 10/07 Q1006=
201911052100 METAR LRCV 052100Z 07005KT CAVOK 10/07 Q1006=
201911052130 METAR LRCV 052130Z 07005KT CAVOK 10/07 Q1006=
201911052200 METAR LRCV 052200Z 06006KT CAVOK 10/07 Q1006=
201911052230 METAR LRCV 052230Z 06006KT CAVOK 09/07 Q1006=
201911052300 METAR LRCV 052300Z 07006KT CAVOK 09/07 Q1006=
201911052330 METAR LRCV 052330Z 05005KT CAVOK 10/07 Q1006=
201911060000 METAR LRCV 060000Z 05005KT 020V080 CAVOK 09/07 Q1005=
201911060030 METAR LRCV 060030Z 04006KT 360V060 CAVOK 09/07 Q1006=
201911060100 METAR LRCV 060100Z 06007KT CAVOK 09/07 Q1005=
201911060130 METAR LRCV 060130Z 07006KT CAVOK 09/07 Q1005=
201911060200 METAR LRCV 060200Z 06005KT CAVOK 09/07 Q1005=
201911060230 METAR LRCV 060230Z 09006KT CAVOK 09/07 Q1005=
201911060300 METAR LRCV 060300Z 05004KT CAVOK 09/07 Q1005=
201911060330 METAR LRCV 060330Z 07005KT CAVOK 09/07 Q1005=
201911060400 METAR LRCV 060400Z 05005KT CAVOK 09/07 Q1005=
201911060430 METAR LRCV 060430Z 05005KT CAVOK 09/07 Q1005=
201911060500 METAR LRCV 060500Z 07005KT CAVOK 09/07 Q1005=
201911060530 METAR LRCV 060530Z 07004KT CAVOK 09/07 Q1006=
201911060600 METAR LRCV 060600Z 05003KT CAVOK 09/07 Q1006=
201911060630 METAR LRCV 060630Z 06004KT CAVOK 11/08 Q1006=
201911060700 METAR LRCV 060700Z 07004KT 040V100 CAVOK 12/09 Q1006=
201911060730 METAR LRCV 060730Z 04006KT CAVOK 13/09 Q1006=
201911060800 METAR LRCV 060800Z 07005KT CAVOK 14/09 Q1006=
201911060830 METAR LRCV 060830Z 09005KT CAVOK 14/09 Q1006=
201911060900 METAR LRCV 060900Z 08004KT 050V110 CAVOK 15/09 Q1006=
201911060930 METAR LRCV 060930Z 04003KT CAVOK 16/09 Q1006=
201911061000 METAR LRCV 061000Z 34005KT CAVOK 17/09 Q1006=
201911061030 METAR LRCV 061030Z 33008KT CAVOK 17/09 Q1007=
201911061100 METAR LRCV 061100Z 30008KT CAVOK 18/11 Q1007=
201911061130 METAR LRCV 061130Z 32011KT CAVOK 20/10 Q1007=
201911061200 METAR LRCV 061200Z 32011KT CAVOK 19/10 Q1007=
201911061230 METAR LRCV 061230Z 30008KT CAVOK 19/11 Q1007=
201911061300 METAR LRCV 061300Z 28007KT CAVOK 17/11 Q1008=
201911061330 METAR LRCV 061330Z 33006KT CAVOK 16/11 Q1008=
201911061400 METAR LRCV 061400Z 33005KT 270V010 CAVOK 16/12 Q1008=
201911061430 METAR LRCV 061430Z 32006KT 290V350 CAVOK 16/11 Q1008=
201911061500 METAR LRCV 061500Z 33004KT CAVOK 15/12 Q1008=
201911061530 METAR LRCV 061530Z 34004KT 290V020 CAVOK 14/12 Q1008=
201911061600 METAR LRCV 061600Z 31005KT CAVOK 14/12 Q1008=
201911061630 METAR LRCV 061630Z 29004KT CAVOK 14/12 Q1009=
201911061700 METAR LRCV 061700Z 24002KT 9999 -RA NSC 13/12 Q1009 R27/19//95=
201911061730 METAR LRCV 061730Z 23003KT 8000 -RA NSC 13/12 Q1009 R27/19//95=
201911061800 METAR LRCV 061800Z VRB02KT 7000 NSC 13/12 Q1009 R27/19//95=
201911061830 METAR LRCV 061830Z AUTO 17002KT 110V240 7000 BKN085/// BKN220///
                        12/12 Q1009=
201911061900 METAR LRCV 061900Z AUTO 22003KT 170V240 7000 FEW095/// BKN110///
                        BKN180/// 12/11 Q1009=
201911061930 METAR LRCV 061930Z AUTO 23004KT 7000 OVC075/// 13/12 Q1009=
201911062000 METAR LRCV 062000Z AUTO 26003KT 5000 BR FEW075/// BKN110///
                        BKN200/// 12/12 Q1009=
201911062030 METAR LRCV 062030Z AUTO 25001KT 4300 R09/2000 BR BKN095///
                        BKN230/// 12/11 Q1009=
201911062100 METAR LRCV 062100Z 31002KT 8000 NSC 12/12 Q1009=
201911062130 METAR LRCV 062130Z 00000KT 7000 NSC 11/11 Q1009 R27/19//95=
201911062200 METAR LRCV 062200Z VRB02KT 7000 NSC 11/11 Q1009 R27/CLRD//=
201911062230 METAR LRCV 062230Z 05002KT 8000 NSC 11/11 Q1009 R27/CLRD//=
201911062300 METAR LRCV 062300Z 02004KT 8000 NSC 12/11 Q1009=
201911062330 METAR LRCV 062330Z 35003KT 8000 NSC 12/11 Q1009=
201911070000 METAR LRCV 070000Z 36002KT 8000 NSC 12/12 Q1009=
201911070030 METAR LRCV 070030Z 07002KT 8000 NSC 11/11 Q1009=
201911070100 METAR LRCV 070100Z 05003KT 6000 NSC 11/11 Q1008=
201911070130 METAR LRCV 070130Z 03003KT 6000 NSC 12/11 Q1008=
201911070200 METAR LRCV 070200Z 04003KT 6000 NSC 11/11 Q1008=
201911070230 METAR LRCV 070230Z 07004KT 8000 NSC 11/11 Q1008=
201911070300 METAR LRCV 070300Z 06003KT CAVOK 11/11 Q1007=
201911070330 METAR LRCV 070330Z 05004KT CAVOK 11/11 Q1007=
201911070400 METAR LRCV 070400Z 07003KT CAVOK 11/10 Q1007=
201911070430 METAR LRCV 070430Z 07004KT CAVOK 11/10 Q1007=
201911070500 METAR LRCV 070500Z 07003KT CAVOK 11/11 Q1007=
201911070530 METAR LRCV 070530Z 07002KT CAVOK 11/11 Q1007=
201911070600 METAR LRCV 070600Z 04004KT 360V080 CAVOK 11/11 Q1007=
201911070630 METAR LRCV 070630Z 06002KT CAVOK 12/11 Q1008=
201911070700 METAR LRCV 070700Z 04002KT CAVOK 12/11 Q1008=
201911070730 METAR LRCV 070730Z 03002KT CAVOK 13/12 Q1008=
201911070800 METAR LRCV 070800Z 04004KT CAVOK 13/12 Q1008=
201911070830 METAR LRCV 070830Z 04002KT CAVOK 14/12 Q1008=
201911070900 METAR LRCV 070900Z 29003KT 270V330 CAVOK 15/12 Q1009=
201911070930 METAR LRCV 070930Z 30004KT CAVOK 15/12 Q1009=
201911071000 METAR LRCV 071000Z 33005KT 300V360 CAVOK 15/13 Q1009=
201911071030 METAR LRCV 071030Z 32004KT CAVOK 16/12 Q1009=
201911071100 METAR LRCV 071100Z 31004KT CAVOK 16/12 Q1008=
201911071130 METAR LRCV 071130Z 32003KT 290V350 CAVOK 16/12 Q1008=
201911071200 METAR LRCV 071200Z 29004KT 260V330 CAVOK 17/12 Q1009=
201911071230 METAR LRCV 071230Z 29004KT 250V320 CAVOK 17/12 Q1009=
201911071300 METAR LRCV 071300Z 31004KT 270V350 CAVOK 17/12 Q1009=
201911071330 METAR LRCV 071330Z 31003KT CAVOK 16/12 Q1009=
201911071400 METAR LRCV 071400Z 31005KT CAVOK 16/12 Q1009=
201911071430 METAR LRCV 071430Z 30003KT CAVOK 16/12 Q1009=
201911071500 METAR LRCV 071500Z 31002KT CAVOK 15/12 Q1009=
201911071530 METAR LRCV 071530Z 26002KT CAVOK 14/12 Q1009=
201911071600 METAR LRCV 071600Z 29005KT CAVOK 14/12 Q1010=
201911071630 METAR LRCV 071630Z 28004KT CAVOK 14/12 Q1010=
201911071700 METAR LRCV 071700Z 22003KT CAVOK 14/13 Q1010=
201911071730 METAR LRCV 071730Z AUTO 24005KT 5000 -SHRA SCT080/// OVC095///
                        14/13 Q1010=
201911071800 METAR LRCV 071800Z AUTO 25004KT 2000 R09/1400D -SHRA FEW050///
                        BKN090/// BKN110/// 14/13 Q1011=
201911071830 METAR LRCV 071830Z AUTO 26002KT 3200 R09/2000D -SHRA FEW080///
                        SCT100/// BKN120/// 13/13 Q1011=
201911071900 METAR LRCV 071900Z AUTO 30003KT 3100 R09/1600VP2000D -SHRA
                        BKN085/// BKN100/// 13/13 Q1010=
201911071930 METAR LRCV 071930Z AUTO 29004KT 5000 BKN080/// 14/13 Q1011
                        RERA=
201911072000 METAR LRCV 072000Z AUTO 22003KT 5000 -SHRA BKN075/// 13/13
                        Q1011=
201911072030 METAR LRCV 072030Z AUTO 27003KT 2400 R09/1300VP2000D -SHRA
                        SCT065/// BKN080/// BKN100/// 13/13
                        Q1011=
201911072100 METAR LRCV 072100Z 29001KT 0600 R09/0400N PRFG NSC 13/12
                        Q1011=
201911072130 METAR LRCV 072130Z 00000KT 0500 R09/0375N FG NSC 13/12 Q1011=
201911072200 METAR LRCV 072200Z 16003KT 1500 R09/1300U BCFG NSC 13/13
                        Q1011=
201911072230 METAR LRCV 072230Z VRB01KT 0400 R09/0350N FG NSC 13/12 Q1011=
201911072300 METAR LRCV 072300Z 25002KT 0300 R09/0250N FG FEW001 12/12
                        Q1011=
201911072330 METAR LRCV 072330Z 36002KT 0200 R09/0275N FG SCT001 12/11
                        Q1011=
201911080000 METAR LRCV 080000Z 02003KT 0150 R09/0250N FG VV001 11/11
                        Q1011=
201911080030 METAR LRCV 080030Z 05001KT 0250 R09/0225N FG BKN001 11/11
                        Q1011=
201911080100 METAR LRCV 080100Z 35002KT 0400 R09/0375N FG VV001 12/11
                        Q1011=
201911080130 METAR LRCV 080130Z 03005KT 0500 R09/0400N FG FEW001 10/10
                        Q1010=
201911080200 METAR LRCV 080200Z 03004KT 2100 BR NSC 11/10 Q1010=
201911080230 METAR LRCV 080230Z 03005KT 3000 BR NSC 11/10 Q1010=
201911080300 METAR LRCV 080300Z 03005KT 5000 BR NSC 11/11 Q1010=
201911080330 METAR LRCV 080330Z 04006KT 5000 BR NSC 11/11 Q1010=
201911080400 METAR LRCV 080400Z 04005KT 4500 BR NSC 10/10 Q1010 R09/19//95=
201911080430 METAR LRCV 080430Z 05006KT 5000 BR NSC 10/10 Q1010 R09/19//95=
201911080500 METAR LRCV 080500Z 06009KT 6000 NSC 10/10 Q1010 R09/19//95=
201911080530 METAR LRCV 080530Z 05009KT 8000 NSC 11/10 Q1010 R09/19//95=
201911080600 METAR LRCV 080600Z 06008KT 8000 NSC 11/11 Q1010 R09/19//95=
201911080630 METAR LRCV 080630Z 07012KT CAVOK 12/11 Q1010 R09/19//95=
201911080700 METAR LRCV 080700Z 07011KT CAVOK 12/11 Q1010 R09/19//95=
201911080730 METAR LRCV 080730Z 08010KT CAVOK 13/11 Q1011 R09/19//95=
201911080800 METAR LRCV 080800Z 07012KT 9999 -RA FEW047 13/12 Q1010 R09/19//95=
201911080830 METAR LRCV 080830Z 07011KT 9999 SCT045 14/12 Q1010 R09/19//95=
201911080900 METAR LRCV 080900Z 07010KT 9999 FEW049 15/12 Q1010 R09/19//95=
201911080930 METAR LRCV 080930Z 08012KT CAVOK 16/13 Q1010 R09/19//95=
201911081000 METAR LRCV 081000Z 08012KT CAVOK 16/12 Q1010 R09/19//95=
201911081030 METAR LRCV 081030Z 08014KT CAVOK 17/13 Q1010 R09/19//95=
201911081100 METAR LRCV 081100Z 09014KT CAVOK 18/13 Q1009 R09/19//95=
201911081130 METAR LRCV 081130Z 09010KT CAVOK 17/13 Q1010 R09/19//95=
201911081200 METAR LRCV 081200Z 10008KT CAVOK 17/13 Q1010 R09/19//95=
201911081230 METAR LRCV 081230Z 09008KT CAVOK 17/13 Q1009 R09/19//95=
201911081300 METAR LRCV 081300Z 09006KT 9999 -RA NSC 18/13 Q1009 R09/19//95=
201911081330 METAR LRCV 081330Z 09010KT 9999 -RA NSC 18/14 Q1009 R09/19//95=
201911081400 METAR LRCV 081400Z 09008KT CAVOK 18/13 Q1009 R09/19//95=
201911081430 METAR LRCV 081430Z 08008KT CAVOK 18/14 Q1009 R09/19//95=
201911081500 METAR LRCV 081500Z 09006KT CAVOK 17/13 Q1009 R09/19//95=
201911081530 METAR LRCV 081530Z 08005KT CAVOK 16/13 Q1010 R09/19//95=
201911081600 METAR LRCV 081600Z 08005KT CAVOK 16/13 Q1010 R09/19//95=
201911081630 METAR LRCV 081630Z 07005KT CAVOK 15/13 Q1010 R09/19//95=
201911081700 METAR LRCV 081700Z 08006KT CAVOK 14/13 Q1010 R09/19//95=
201911081730 METAR LRCV 081730Z 07005KT CAVOK 14/13 Q1010 R09/19//95=
201911081800 METAR LRCV 081800Z 08006KT CAVOK 14/13 Q1010 R09/19//95=
201911081830 METAR LRCV 081830Z AUTO 08005KT 7000 SCT065/// BKN090///
                        14/13 Q1011=
201911081900 METAR LRCV 081900Z AUTO 08006KT 5000 BR FEW070/// BKN120///
                        13/12 Q1011=
201911081930 METAR LRCV 081930Z AUTO 10004KT 6000 FEW120/// 13/12 Q1011=
201911082000 METAR LRCV 082000Z AUTO 09004KT 3000 R09/2000N BR FEW110///
                        12/12 Q1011=
201911082030 METAR LRCV 082030Z AUTO 09003KT 2400 R09/0375VP2000D FG NCD
                        13/12 Q1011=
201911082100 METAR LRCV 082100Z 09003KT 4000 BR NSC 13/12 Q1011=
201911082130 METAR LRCV 082130Z 11002KT 3000 R09/0750D BCFG NSC 12/12
                        Q1012=
201911082200 METAR LRCV 082200Z 00000KT 0600 R27/0400N FG NSC 12/11 Q1012=
201911082230 METAR LRCV 082230Z 01004KT 0100 R27/0200N FG OVC000 11/11
                        Q1012=
201911082300 METAR LRCV 082300Z 35003KT 0100 R27/0375N FG OVC000 09/09
                        Q1012=
201911082330 METAR LRCV 082330Z 35004KT 0100 R27/0100N FG BKN001 11/11
                        Q1012=
201911090000 METAR LRCV 090000Z 36002KT 0300 R27/0450N FG BKN001 09/08
                        Q1012=
201911090030 METAR LRCV 090030Z 34004KT 0200 R27/0250N FG OVC000 10/10
                        Q1013=
201911090100 METAR LRCV 090100Z 35003KT 1000 R27/0450U BCFG NSC 10/10
                        Q1013=
201911090130 METAR LRCV 090130Z 36003KT 0700 R27/1000D FG OVC000 10/10
                        Q1013=
201911090200 METAR LRCV 090200Z 01003KT 0500 R27/0450N FG OVC000 07/07
                        Q1013=
201911090230 METAR LRCV 090230Z 04004KT 0300 R27/0400N FG OVC000 09/09
                        Q1013=
201911090300 METAR LRCV 090300Z 08002KT 0350 R09/0450N FG OVC000 09/09
                        Q1013=
201911090330 METAR LRCV 090330Z 07003KT 0400 R27/0450N FG OVC000 09/09
                        Q1013=
201911090400 METAR LRCV 090400Z 18002KT 0150 R27/0200N FG VV001 07/07
                        Q1014=
201911090430 METAR LRCV 090430Z 11003KT 0300 R27/0325N FG BKN001 07/07
                        Q1014=
201911090500 METAR LRCV 090500Z 11003KT 0200 R27/0225N FG OVC001 06/06
                        Q1014=
201911090530 METAR LRCV 090530Z 07003KT 0250 R27/0350N FG BKN000 06/06
                        Q1014=
201911090600 METAR LRCV 090600Z 07003KT 0250 R27/0350D FG BKN000 07/07
                        Q1015=
201911090630 METAR LRCV 090630Z 05004KT 030V100 0900 R27/1300U FG SCT001
                        09/09 Q1015=
201911090700 METAR LRCV 090700Z VRB02KT 1500 BR FEW005 10/10 Q1015=
201911090730 METAR LRCV 090730Z 08003KT 040V120 4000 BR NSC 11/11 Q1015=
201911090800 METAR LRCV 090800Z 12004KT 080V150 5000 BR NSC 12/12 Q1015=
201911090830 METAR LRCV 090830Z 14004KT 100V160 8000 NSC 14/12 Q1015=
201911090900 METAR LRCV 090900Z 14003KT 110V170 CAVOK 15/12 Q1015=
201911090930 METAR LRCV 090930Z 10006KT CAVOK 16/12 Q1015=
201911091000 METAR LRCV 091000Z 12006KT 090V150 CAVOK 17/12 Q1014=
201911091030 METAR LRCV 091030Z 10006KT 080V140 CAVOK 18/10 Q1014=
201911091100 METAR LRCV 091100Z 11007KT CAVOK 19/11 Q1014=
201911091130 METAR LRCV 091130Z 08006KT CAVOK 19/11 Q1014=
201911091200 METAR LRCV 091200Z 09007KT CAVOK 19/11 Q1014=
201911091230 METAR LRCV 091230Z 10008KT CAVOK 19/10 Q1014=
201911091300 METAR LRCV 091300Z 12008KT CAVOK 19/11 Q1013=
201911091330 METAR LRCV 091330Z 11008KT CAVOK 19/10 Q1013=
201911091400 METAR LRCV 091400Z 09007KT 050V110 CAVOK 18/11 Q1013=
201911091430 METAR LRCV 091430Z 09006KT CAVOK 18/11 Q1013=
201911091500 METAR LRCV 091500Z 07006KT CAVOK 16/11 Q1013=
201911091530 METAR LRCV 091530Z AUTO 07006KT 9999 NCD 14/11 Q1013=
201911091600 METAR LRCV 091600Z AUTO 05005KT 9999 NCD 14/11 Q1013=
201911091630 METAR LRCV 091630Z AUTO 04004KT 8000 FEW160/// 13/11 Q1013=
201911091700 METAR LRCV 091700Z AUTO 06005KT 9999 SCT130/// 13/11 Q1013=
201911091730 METAR LRCV 091730Z AUTO 05006KT 9999 SCT130/// BKN210///
                        ///// Q1013=
201911091800 METAR LRCV 091800Z AUTO 05007KT 9999 FEW130/// BKN190///
                        12/10 Q1013=
201911091830 METAR LRCV 091830Z AUTO 06006KT 9999 BKN180/// 12/10 Q1013=
201911091900 METAR LRCV 091900Z AUTO 07008KT 9999 FEW095/// 13/10 Q1013=
201911091930 METAR LRCV 091930Z AUTO 07007KT 9999 SCT100/// BKN220///
                        11/09 Q1012=
201911092000 METAR LRCV 092000Z AUTO 06008KT 9999 BKN095/// 12/09 Q1012=
201911092030 METAR LRCV 092030Z AUTO 07008KT 9999 FEW095/// 11/09 Q1012=
201911092100 METAR LRCV 092100Z 09008KT CAVOK 12/09 Q1012=
201911092130 METAR LRCV 092130Z 07007KT CAVOK 11/09 Q1012=
201911092200 METAR LRCV 092200Z 08006KT CAVOK 11/08 Q1011=
201911092230 METAR LRCV 092230Z 08005KT CAVOK 10/08 Q1011=
201911092300 METAR LRCV 092300Z 06008KT CAVOK 10/08 Q1011=
201911092330 METAR LRCV 092330Z 07004KT CAVOK 10/08 Q1011=
201911100000 METAR LRCV 100000Z 08006KT CAVOK 09/07 Q1011=
201911100030 METAR LRCV 100030Z 07006KT CAVOK 09/08 Q1011=
201911100100 METAR LRCV 100100Z 08008KT CAVOK 09/08 Q1010=
201911100130 METAR LRCV 100130Z 07003KT CAVOK 10/08 Q1010=
201911100200 METAR LRCV 100200Z 09007KT CAVOK 10/08 Q1010=
201911100230 METAR LRCV 100230Z 08009KT CAVOK 10/08 Q1009=
201911100300 METAR LRCV 100300Z 09008KT CAVOK 09/08 Q1009=
201911100330 METAR LRCV 100330Z 09008KT CAVOK 09/08 Q1009=
201911100400 METAR LRCV 100400Z 10007KT CAVOK 09/07 Q1009=
201911100430 METAR LRCV 100430Z 09009KT CAVOK 09/08 Q1010=
201911100500 METAR LRCV 100500Z 07006KT CAVOK 08/07 Q1010=
201911100530 METAR LRCV 100530Z 09005KT CAVOK 08/07 Q1010=
201911100600 METAR LRCV 100600Z 09005KT CAVOK 09/08 Q1010=
201911100630 METAR LRCV 100630Z 08008KT CAVOK 10/09 Q1010=
201911100700 METAR LRCV 100700Z 08009KT CAVOK 11/09 Q1010=
201911100730 METAR LRCV 100730Z 07010KT CAVOK 12/10 Q1010=
201911100800 METAR LRCV 100800Z 07009KT CAVOK 13/10 Q1010=
201911100830 METAR LRCV 100830Z 07010KT CAVOK 14/10 Q1010=
201911100900 METAR LRCV 100900Z 07011KT CAVOK 15/10 Q1010=
201911100930 METAR LRCV 100930Z 07008KT CAVOK 15/10 Q1010=
201911101000 METAR LRCV 101000Z 07009KT CAVOK 16/10 Q1010=
201911101030 METAR LRCV 101030Z 07008KT CAVOK 16/10 Q1010=
201911101100 METAR LRCV 101100Z 09010KT CAVOK 17/10 Q1009=
201911101130 METAR LRCV 101130Z 08008KT CAVOK 17/11 Q1009=
201911101200 METAR LRCV 101200Z 10006KT CAVOK 17/10 Q1010=
201911101230 METAR LRCV 101230Z 11004KT 070V130 CAVOK 17/10 Q1010=
201911101300 METAR LRCV 101300Z 14004KT CAVOK 17/11 Q1010=
201911101330 METAR LRCV 101330Z 09003KT CAVOK 17/11 Q1010=
201911101400 METAR LRCV 101400Z 10004KT 070V140 CAVOK 17/10 Q1010=
201911101430 METAR LRCV 101430Z 08003KT CAVOK 16/10 Q1010=
201911101500 METAR LRCV 101500Z VRB01KT CAVOK 15/10 Q1010=
201911101530 METAR LRCV 101530Z 36004KT CAVOK 14/10 Q1010=
201911101600 METAR LRCV 101600Z 02002KT CAVOK 13/10 Q1011=
201911101630 METAR LRCV 101630Z 01001KT CAVOK 12/09 Q1011=
201911101700 METAR LRCV 101700Z 27015KT 9999 SCT025 13/10 Q1012=
201911101730 METAR LRCV 101730Z 29012KT 9999 FEW030 SCT035 BKN040 13/10
                        Q1013=
201911101800 METAR COR LRCV 101800Z 23005KT 9999 RA FEW040 SCT048 12/10
                        Q1013 R27/19//95=
201911101830 METAR LRCV 101830Z 06006KT 9999 -RA NSC 12/10 Q1012 R27/29//95=
201911101900 METAR LRCV 101900Z 32003KT 270V010 CAVOK 11/10 Q1013 R27/29//95=
201911101930 METAR LRCV 101930Z AUTO 23004KT 9999 SCT170/// 10/10 Q1013=
201911102000 METAR LRCV 102000Z AUTO 25005KT 6000 NCD 10/09 Q1014=
201911102030 METAR LRCV 102030Z AUTO 25005KT 5000 BR NCD 09/08 Q1014=
201911102100 METAR LRCV 102100Z 27008KT CAVOK 08/08 Q1014 R27/19//95=
201911102130 METAR LRCV 102130Z 26007KT CAVOK 09/09 Q1014 R27/19//95=
201911102200 METAR LRCV 102200Z 25006KT CAVOK 09/08 Q1015 R27/19//95=
201911102230 METAR LRCV 102230Z 27007KT CAVOK 09/08 Q1015 R27/19//95=
201911102300 METAR LRCV 102300Z 27007KT CAVOK 08/07 Q1015 R27/19//95=
201911102330 METAR LRCV 102330Z 28006KT CAVOK 07/07 Q1015 R27/19//95=
201911110000 METAR LRCV 110000Z 28005KT CAVOK 07/07 Q1016 R27/19//95=
201911110030 METAR LRCV 110030Z 27006KT CAVOK 07/07 Q1016 R27/19//95=
201911110100 METAR LRCV 110100Z 27004KT CAVOK 08/08 Q1016 R27/19//95=
201911110130 METAR LRCV 110130Z 24005KT 8000 NSC 07/06 Q1016 R27/19//95=
201911110200 METAR LRCV 110200Z 25006KT 0500 R27/0450N FG BKN005 07/07
                        Q1016 R27/19//95=
201911110230 METAR LRCV 110230Z 24008KT 1500 R27/1000D BR NSC 08/07 Q1017
                        R27/19//95=
201911110300 METAR LRCV 110300Z 24007KT CAVOK 07/07 Q1017 R27/19//95=
201911110330 METAR LRCV 110330Z 27008KT CAVOK 07/07 Q1017 R27/19//95=
201911110400 METAR LRCV 110400Z 32003KT 300V360 8000 NSC 07/06 Q1017 R27/19//95=
201911110430 METAR LRCV 110430Z 32005KT 6000 NSC 07/07 Q1017 R27/19//95=
201911110500 METAR COR LRCV 110500Z 32004KT 7000 MIFG NSC 05/04 Q1018
                        R27/19//95=
201911110530 METAR LRCV 110530Z 34004KT 8000 MIFG NSC 06/06 Q1018 R27/19//95=
201911110600 METAR LRCV 110600Z 35003KT 5000 0500N R27/0600N PRFG BR NSC
                        06/06 Q1018 R27/19//95=
201911110630 METAR COR LRCV 110630Z 36003KT 0400 R27/0550D FG NSC 07/06
                        Q1018 R27/19//95=
201911110700 METAR LRCV 110700Z VRB02KT 5000 BR NSC 08/08 Q1018 R27/19//95=
201911110730 METAR LRCV 110730Z 21003KT 0300 R09/0225N FG VV001 09/09
                        Q1019 R27/19//95=
201911110800 METAR LRCV 110800Z 25003KT 210V280 7000 FEW001 10/09 Q1019
                        R27/19//95=
201911110830 METAR LRCV 110830Z VRB03KT CAVOK 11/09 Q1019 R27/19//95=
201911110900 METAR LRCV 110900Z 32004KT 270V360 9999 FEW007 12/09 Q1019
                        R27/CLRD//=
201911110930 METAR LRCV 110930Z 32003KT 260V030 9999 FEW008 13/09 Q1019=
201911111000 METAR LRCV 111000Z 28003KT 190V340 9999 FEW008 13/09 Q1018=
201911111030 METAR LRCV 111030Z 24005KT 190V260 CAVOK 13/10 Q1018=
201911111100 METAR LRCV 111100Z 23003KT 100V270 CAVOK 14/08 Q1018=
201911111130 METAR LRCV 111130Z 26003KT 210V320 CAVOK 14/08 Q1018=
201911111200 METAR LRCV 111200Z 23004KT 180V290 CAVOK 14/09 Q1018=
201911111230 METAR LRCV 111230Z VRB02KT CAVOK 15/09 Q1017=
201911111300 METAR LRCV 111300Z VRB02KT CAVOK 15/09 Q1017=
201911111330 METAR LRCV 111330Z 00000KT CAVOK 15/09 Q1017=
201911111400 METAR LRCV 111400Z 00000KT CAVOK 15/09 Q1017=
201911111430 METAR COR LRCV 111430Z 00000KT CAVOK 14/09 Q1017=
201911111500 METAR LRCV 111500Z 04003KT CAVOK 12/09 Q1017=
201911111530 METAR LRCV 111530Z 08004KT CAVOK 11/09 Q1018=
201911111600 METAR LRCV 111600Z 08005KT CAVOK 10/08 Q1018=
201911111630 METAR LRCV 111630Z 07004KT CAVOK 09/08 Q1018=
201911111700 METAR LRCV 111700Z 04006KT CAVOK 10/07 Q1018=
201911111730 METAR LRCV 111730Z 06004KT CAVOK 08/06 Q1018=
201911111800 METAR LRCV 111800Z 07005KT CAVOK 08/06 Q1018=
201911111830 METAR LRCV 111830Z AUTO 05005KT 9000 NCD 07/06 Q1017=
201911111900 METAR LRCV 111900Z AUTO 04007KT 6000 NCD 07/06 Q1017=
201911111930 METAR LRCV 111930Z AUTO 04005KT 5000 BR NCD 08/07 Q1017=
201911112000 METAR LRCV 112000Z AUTO 04007KT 5000 BR NCD 07/07 Q1017=
201911112030 METAR LRCV 112030Z AUTO 04007KT 5000 BR NCD 07/07 Q1017=
201911112100 METAR LRCV 112100Z 06006KT 5000 BR NSC 07/06 Q1017=
201911112130 METAR LRCV 112130Z 05007KT 4000 BR NSC 07/07 Q1017=
201911112200 METAR LRCV 112200Z 06006KT 5000 BR NSC 07/06 Q1017=
201911112230 METAR LRCV 112230Z 06007KT 6000 NSC 07/06 Q1017=
201911112300 METAR LRCV 112300Z 07007KT 8000 NSC 07/06 Q1017=
201911112330 METAR LRCV 112330Z 06006KT CAVOK 07/06 Q1017=
201911120000 METAR LRCV 120000Z 07007KT CAVOK 07/06 Q1017=
201911120030 METAR LRCV 120030Z 07008KT CAVOK 07/06 Q1017=
201911120100 METAR LRCV 120100Z 07010KT CAVOK 07/05 Q1016=
201911120130 METAR LRCV 120130Z 07010KT CAVOK 07/05 Q1016=
201911120200 METAR LRCV 120200Z 08010KT CAVOK 07/05 Q1016=
201911120230 METAR LRCV 120230Z 08010KT CAVOK 08/05 Q1016=
201911120300 METAR LRCV 120300Z 08011KT CAVOK 07/05 Q1016=
201911120330 METAR LRCV 120330Z 07009KT CAVOK 06/05 Q1016=
201911120400 METAR LRCV 120400Z 08009KT CAVOK 07/05 Q1016=
201911120430 METAR LRCV 120430Z 08008KT CAVOK 07/05 Q1016=
201911120500 METAR LRCV 120500Z 08009KT CAVOK 07/05 Q1016=
201911120530 METAR LRCV 120530Z 08008KT CAVOK 07/05 Q1016=
201911120600 METAR LRCV 120600Z 07010KT CAVOK 08/06 Q1016=
201911120630 METAR LRCV 120630Z 08009KT CAVOK 10/07 Q1016=
201911120700 METAR LRCV 120700Z 08010KT CAVOK 11/09 Q1017=
201911120730 METAR LRCV 120730Z 07012KT CAVOK 12/09 Q1016=
201911120800 METAR LRCV 120800Z 07015KT CAVOK 13/10 Q1016=
201911120830 METAR LRCV 120830Z 07013KT CAVOK 14/11 Q1016=
201911120900 METAR LRCV 120900Z 07016KT CAVOK 15/11 Q1016=
201911120930 METAR LRCV 120930Z 07015KT CAVOK 15/11 Q1015=
201911121000 METAR LRCV 121000Z 07014KT CAVOK 17/12 Q1015=
201911121030 METAR LRCV 121030Z 08016KT CAVOK 17/12 Q1014=
201911121100 METAR LRCV 121100Z 08015KT CAVOK 18/12 Q1014=
201911121130 METAR LRCV 121130Z 07014KT CAVOK 18/12 Q1014=
201911121200 METAR LRCV 121200Z 08014KT CAVOK 18/12 Q1014=
201911121230 METAR LRCV 121230Z 08013KT CAVOK 19/12 Q1014=
201911121300 METAR LRCV 121300Z 07015KT CAVOK 19/12 Q1014=
201911121330 METAR LRCV 121330Z 06014KT CAVOK 18/12 Q1013=
201911121400 METAR LRCV 121400Z 06015KT CAVOK 18/12 Q1013=
201911121430 METAR LRCV 121430Z 06016KT CAVOK 17/12 Q1012=
201911121500 METAR LRCV 121500Z 06014KT CAVOK 16/12 Q1012=
201911121530 METAR LRCV 121530Z AUTO 06013KT 9999 NCD 16/12 Q1013=
201911121600 METAR LRCV 121600Z AUTO 05015KT 9999 FEW130/// 16/12 Q1012=
201911121630 METAR LRCV 121630Z AUTO 05015KT 9999 NCD 16/12 Q1012=
201911121700 METAR LRCV 121700Z AUTO 06016KT 9999 NCD 16/13 Q1012=
201911121730 METAR LRCV 121730Z AUTO 07015KT 9999 NCD 16/12 Q1012=
201911121800 METAR LRCV 121800Z AUTO 07015KT 9999 NCD 16/12 Q1012=
201911121830 METAR LRCV 121830Z AUTO 07015KT 9999 NCD 16/12 Q1012=
201911121900 METAR LRCV 121900Z AUTO 08017KT 9999 FEW200/// 16/11 Q1012=
201911121930 METAR LRCV 121930Z AUTO 08017KT 9999 FEW200/// 15/11 Q1012=
201911122000 METAR LRCV 122000Z AUTO 08017KT 9999 NCD 15/11 Q1012=
201911122030 METAR LRCV 122030Z AUTO 08018KT 9999 SCT190/// 15/10 Q1012=
201911122100 METAR LRCV 122100Z 07018KT CAVOK 14/10 Q1012=
201911122130 METAR LRCV 122130Z 07019KT CAVOK 14/10 Q1011=
201911122200 METAR LRCV 122200Z 07018KT CAVOK 14/11 Q1011=
201911122230 METAR LRCV 122230Z 07018KT CAVOK 13/11 Q1011=
201911122300 METAR LRCV 122300Z 07018KT CAVOK 13/11 Q1011=
201911122330 METAR LRCV 122330Z 07018KT CAVOK 13/11 Q1011=
201911130000 METAR COR LRCV 130000Z 07020KT CAVOK 13/11 Q1010=
201911130030 METAR LRCV 130030Z 07020KT 9999 FEW008 13/11 Q1010=
201911130100 METAR LRCV 130100Z 07021KT CAVOK 13/11 Q1010=
201911130130 METAR LRCV 130130Z 07018KT 9999 FEW009 13/11 Q1010=
201911130200 METAR LRCV 130200Z 07019KT 9999 SCT008 SCT010 13/12 Q1010=
201911130230 METAR LRCV 130230Z 07021KT 9999 FEW008 SCT010 13/12 Q1009=
201911130300 METAR LRCV 130300Z 07022KT 9999 FEW008 SCT010 13/12 Q1009=
201911130330 METAR LRCV 130330Z AUTO 07020KT 7000 FEW009/// BKN100///
                        BKN120/// 13/11 Q1009=
201911130400 METAR COR LRCV 130400Z 07022KT 9999 -RA NSC 13/12 Q1009=
201911130430 METAR LRCV 130430Z 07021KT 8000 -RA NSC 13/12 Q1009=
201911130500 METAR LRCV 130500Z 07021KT 8000 -RA NSC 13/11 Q1008=
201911130530 METAR LRCV 130530Z 07021KT 5000 BR NSC 13/11 Q1008=
201911130600 METAR LRCV 130600Z 07021KT 5000 BR NSC 13/12 Q1009=
201911130630 METAR LRCV 130630Z 07018KT 5000 -RA BR NSC 13/12 Q1009 R09/19//95=
201911130700 METAR LRCV 130700Z 07020KT 5000 BR FEW008 13/12 Q1009 R09/19//95=
201911130730 METAR LRCV 130730Z 06019KT 5000 -RA BR FEW008 FEW045 13/12
                        Q1009 R09/19//95=
201911130800 METAR LRCV 130800Z 07018KT 5000 -RA BR NSC 13/12 Q1010 R09/29//95=
201911130830 METAR LRCV 130830Z 07017KT 5000 -RA BR FEW015 FEW045 13/12
                        Q1009 R09/29//95=
201911130900 METAR LRCV 130900Z 07014KT 5000 -RA BR NSC 13/12 Q1010 R09/29//95=
201911130930 METAR LRCV 130930Z 07015KT 5000 -RA BR NSC 13/12 Q1010 R09/29//95=
201911131000 METAR LRCV 131000Z 08012KT 4000 RA BR FEW047 14/13 Q1010
                        R09/29//95=
201911131030 METAR LRCV 131030Z 07014KT 5000 -RA BR FEW033 14/13 Q1009
                        R09/29//95=
201911131100 METAR LRCV 131100Z 07016KT 5000 BR NSC 14/13 Q1009 R09/29//95=
201911131130 METAR LRCV 131130Z 07017KT 6000 NSC 15/13 Q1008 R09/29//95=
201911131200 METAR LRCV 131200Z 08015KT 6000 NSC 15/13 Q1008 R09/29//95=
201911131230 METAR LRCV 131230Z 08017KT 7000 NSC 15/13 Q1008 R09/29//95=
201911131300 METAR LRCV 131300Z 08015KT 7000 NSC 15/13 Q1008 R09/29//95=
201911131330 METAR LRCV 131330Z 08015KT 7000 NSC 15/13 Q1008 R09/29//95=
201911131400 METAR LRCV 131400Z 07013KT 5000 -RA BR SCT035 15/13 Q1008
                        R09/29//95=
201911131430 METAR LRCV 131430Z 08015KT 5000 -RA BR FEW048 15/14 Q1008
                        R09/29//95=
201911131500 METAR LRCV 131500Z 08013KT 5000 BR FEW045 15/13 Q1008 R09/29//95=
201911131530 METAR LRCV 131530Z 08013KT 6000 -RA NSC 15/13 Q1008 R09/29//95=
201911131600 METAR LRCV 131600Z 08011KT 6000 -RA NSC 15/13 Q1009 R09/29//95=
201911131630 METAR LRCV 131630Z 08010KT 6000 NSC 15/13 Q1009 R09/29//95=
201911131700 METAR LRCV 131700Z 08010KT 6000 NSC 15/13 Q1009 R09/29//95=
201911131730 METAR LRCV 131730Z 07006KT 6000 NSC 14/13 Q1009 R09/29//95=
201911131800 METAR LRCV 131800Z 08008KT 6000 -RA NSC 14/13 Q1009 R09/29//95=
201911131830 METAR LRCV 131830Z AUTO 08008KT 6000 FEW060/// SCT090///
                        14/13 Q1009 RERA=
201911131900 METAR LRCV 131900Z AUTO 08008KT 5000 BKN130/// 14/13 Q1009
                        REDZ=
201911131930 METAR LRCV 131930Z AUTO 07007KT 5000 BR SCT080/// BKN130///
                        13/13 Q1010=
201911132000 METAR LRCV 132000Z AUTO 07007KT 4800 BR BKN120/// BKN200///
                        13/12 Q1010=
201911132030 METAR LRCV 132030Z AUTO 01005KT 5000 BR BKN110/// OVC130///
                        14/13 Q1009=
201911132100 METAR COR LRCV 132100Z 05007KT CAVOK 14/13 Q1009=
201911132130 METAR LRCV 132130Z 07009KT CAVOK 14/13 Q1009=
201911132200 METAR LRCV 132200Z 07009KT CAVOK 14/13 Q1009=
201911132230 METAR LRCV 132230Z 06009KT CAVOK 14/12 Q1009=
201911132300 METAR LRCV 132300Z 06005KT CAVOK 14/12 Q1009=
201911132330 METAR LRCV 132330Z 05004KT CAVOK 13/12 Q1009=
201911140000 METAR LRCV 140000Z 06005KT CAVOK 13/12 Q1009=
201911140030 METAR LRCV 140030Z 01003KT 340V040 CAVOK 12/11 Q1009=
201911140100 METAR LRCV 140100Z 36004KT CAVOK 12/11 Q1010=
201911140130 METAR LRCV 140130Z 04006KT CAVOK 12/11 Q1010=
201911140200 METAR LRCV 140200Z 05006KT CAVOK 12/11 Q1010=
201911140230 METAR LRCV 140230Z 05008KT 8000 NSC 12/11 Q1009=
201911140300 METAR LRCV 140300Z 06009KT 5000 BR NSC 12/12 Q1009=
201911140330 METAR LRCV 140330Z 06007KT 5000 BR NSC 12/12 Q1009=
201911140400 METAR LRCV 140400Z 05008KT 5000 BR NSC 12/12 Q1009 R09/29//95=
201911140430 METAR LRCV 140430Z 05008KT 5000 BR NSC 13/12 Q1010 R09/29//95=
201911140500 METAR LRCV 140500Z 06009KT 4000 BR NSC 13/12 Q1010 R09/29//95=
201911140530 METAR LRCV 140530Z 06009KT 3000 BR NSC 13/12 Q1010 R09/29//95=
201911140600 METAR LRCV 140600Z 07011KT 3000 -RA BR SCT005 SCT030 13/13
                        Q1011 R09/29//95=
201911140630 METAR LRCV 140630Z 07011KT 1500 -RA BR BKN005 13/13 Q1011
                        R09/29//95=
201911140700 METAR LRCV 140700Z 07011KT 2000 -RA BR BKN004 BKN050 13/13
                        Q1011 R09/29//95=
201911140730 METAR LRCV 140730Z 08010KT 2000 -DZ BR BKN003 OVC006 14/13
                        Q1012 R09/29//95=
201911140800 METAR LRCV 140800Z 07010KT 2000 -DZ BR SCT004 BKN005 OVC007
                        14/13 Q1012 R09/29//95=
201911140830 METAR LRCV 140830Z 07012KT 2500 DZ BR BKN003 OVC006 14/13
                        Q1012 R09/29//95=
201911140900 METAR LRCV 140900Z 08011KT 2500 -DZ BR BKN004 OVC007 14/13
                        Q1012 REDZ R09/29//95=
201911140930 METAR LRCV 140930Z 07010KT 2500 -DZ BR SCT004 OVC009 14/13
                        Q1011 R09/29//95=
201911141000 METAR LRCV 141000Z 08009KT 3000 -DZ BR SCT006 OVC008 14/13
                        Q1012 R09/29//95=
201911141030 METAR LRCV 141030Z 07010KT 3000 -DZ BR BKN005 OVC009 14/13
                        Q1011 R09/29//95=
201911141100 METAR LRCV 141100Z 07010KT 3500 DZ BR BKN008 OVC014 14/13
                        Q1011 R09/29//95=
201911141130 METAR LRCV 141130Z 07011KT 4000 DZ BR SCT009 BKN011 14/13
                        Q1011 R09/29//95=
201911141200 METAR LRCV 141200Z 06009KT 4000 DZ BR SCT009 BKN012 14/13
                        Q1011 R09/29//95=
201911141230 METAR LRCV 141230Z 06011KT 4500 -RA BKN009 OVC013 14/13 Q1011
                        REDZ R09/29//95=
201911141300 METAR LRCV 141300Z 07012KT 4500 -RA BR BKN013 OVC016 14/12
                        Q1011 R09/29//95=
201911141330 METAR LRCV 141330Z 06011KT 4500 -RA BR SCT013 BKN016 13/12
                        Q1011 R09/29//95=
201911141400 METAR LRCV 141400Z 06010KT 4000 -RA BR FEW015 BKN020 13/12
                        Q1011 R09/29//95=
201911141430 METAR LRCV 141430Z 05010KT 4500 DZ BR SCT020 13/12 Q1011
                        R09/29//95=
201911141500 METAR LRCV 141500Z 06010KT 5000 -RA BR FEW020 12/11 Q1011
                        REDZ R09/29//95=
201911141530 METAR LRCV 141530Z AUTO 06010KT 5000 -RA FEW017/// SCT055///
                        BKN070/// 12/11 Q1011=
201911141600 METAR LRCV 141600Z AUTO 05010KT 5000 -RA FEW021/// BKN050///
                        BKN075/// 12/11 Q1011=
201911141630 METAR LRCV 141630Z AUTO 05010KT 4600 -RA FEW026/// BKN065///
                        12/11 Q1011=
201911141700 METAR LRCV 141700Z AUTO 06011KT 4700 -RA SCT024/// BKN031///
                        BKN065/// 12/11 Q1011=
201911141730 METAR LRCV 141730Z AUTO 06012KT 4500 -RA FEW024/// BKN033///
                        12/11 Q1011=
201911141800 METAR LRCV 141800Z AUTO 06013KT 4900 -RA FEW019/// BKN070///
                        12/11 Q1011=
201911141830 METAR LRCV 141830Z AUTO 06014KT 4500 -RA FEW025/// BKN031///
                        OVC070/// 12/11 Q1011=
201911141900 METAR LRCV 141900Z AUTO 06014KT 4600 -RA FEW025/// SCT038///
                        BKN044/// 12/11 Q1011=
201911141930 METAR LRCV 141930Z AUTO 06014KT 5000 -RA FEW025/// BKN048///
                        BKN070/// 11/11 Q1011=
201911142000 METAR LRCV 142000Z AUTO 06015KT 5000 -RA FEW014/// BKN031///
                        BKN065/// 11/11 Q1011=
201911142030 METAR LRCV 142030Z AUTO 06013KT 4900 -RA BKN010/// OVC024///
                        11/11 Q1011=
201911142100 METAR LRCV 142100Z 06011KT 4700 +RA BR FEW008 BKN011 BKN029
                        11/11 Q1012 R09/29//95=
201911142130 METAR LRCV 142130Z 06011KT 5000 -RA BR FEW005 SCT010 BKN022
                        11/11 Q1012 R09/29//95=
201911142200 METAR LRCV 142200Z 05011KT 5000 -RA BR FEW007 BKN012 BKN020
                        11/11 Q1012 R09/29//95=
201911142230 METAR LRCV 142230Z 05011KT 5000 RA BR FEW008 BKN010 OVC013
                        11/11 Q1012 R09/29//95=
201911142300 METAR LRCV 142300Z 04008KT 5000 -RA BR FEW008 BKN010 OVC013
                        11/11 Q1012 R09/29//95=
201911142330 METAR LRCV 142330Z 05009KT 5000 RA BR FEW004 BKN010 OVC014
                        11/11 Q1012 R09/29//95=
201911150000 METAR LRCV 150000Z 05009KT 5000 -RA BR SCT010 BKN013 OVC016
                        11/11 Q1012 R09/29//95=
201911150030 METAR LRCV 150030Z 04004KT 6000 -RA FEW004 BKN009 BKN011
                        11/11 Q1012 R09/29//95=
201911150100 METAR LRCV 150100Z 06005KT 8000 -DZ SCT004 BKN006 BKN009
                        11/11 Q1013 R09/29//95=
201911150130 METAR LRCV 150130Z 06006KT 7000 -DZ SCT006 OVC008 11/11 Q1013
                        R09/29//95=
201911150200 METAR LRCV 150200Z 07004KT 6000 OVC007 11/11 Q1013 R09/29//95=
201911150230 METAR LRCV 150230Z 06004KT 4900 -DZ BR FEW006 BKN008 11/11
                        Q1013 R09/29//95=
201911150300 METAR LRCV 150300Z 36002KT 4000 DZ BR SCT003 BKN005 BKN009
                        11/11 Q1013 R09/29//95=
201911150330 METAR LRCV 150330Z 04004KT 5000 BR FEW003 BKN005 BKN007 11/11
                        Q1013 REDZ R09/29//95=
201911150400 METAR LRCV 150400Z 04003KT 3000 BR SCT006 OVC008 11/11 Q1013
                        R09/29//95=
201911150430 METAR LRCV 150430Z 06005KT 3000 BR FEW002 BKN007 11/11 Q1014
                        R09/29//95=
201911150500 METAR LRCV 150500Z 07004KT 2500 BR BKN005 OVC007 11/11 Q1014
                        R09/29//95=
201911150530 METAR LRCV 150530Z 08004KT 1500 R09/1000D BR FEW001 BKN004
                        BKN006 11/11 Q1014 R09/29//95=
201911150600 METAR LRCV 150600Z 07004KT 1000 R09/1400N FG OVC002 11/11
                        Q1015 R09/29//95=
201911150630 METAR LRCV 150630Z 10002KT 2000 BR BKN002 BKN005 11/11 Q1015
                        R09/29//95=
201911150700 METAR LRCV 150700Z 13002KT 100V160 2400 BR BKN002 OVC004
                        11/11 Q1015 R09/29//95=
201911150730 METAR LRCV 150730Z 14002KT 1400 R09/1400U BR BKN001 OVC003
                        11/11 Q1016 R09/29//95=
201911150800 METAR LRCV 150800Z 15002KT 3000 BR FEW001 OVC002 11/11 Q1016
                        R09/29//95=
201911150830 METAR LRCV 150830Z VRB01KT 5000 BR SCT002 BKN004 OVC006 12/11
                        Q1016 R09/29//95=
201911150900 METAR LRCV 150900Z VRB01KT 8000 BKN004 OVC006 12/11 Q1017
                        R09/29//95=
201911150930 METAR LRCV 150930Z 03003KT 320V060 8000 BKN004 OVC008 12/11
                        Q1017 R09/29//95=
201911151000 METAR LRCV 151000Z 00000KT 9999 SCT006 BKN009 OVC015 13/11
                        Q1017 R09/19//95=
201911151030 METAR LRCV 151030Z VRB01KT 9999 FEW008 BKN010 BKN020 13/11
                        Q1017 R09/19//95=
201911151100 METAR LRCV 151100Z 05002KT 010V070 9999 FEW007 SCT019 BKN023
                        13/11 Q1017 R09/19//95=
201911151130 METAR LRCV 151130Z 04004KT 010V070 9999 FEW012 SCT023 14/11
                        Q1017 R09/19//95=
201911151200 METAR LRCV 151200Z 04005KT 9999 SCT014 14/11 Q1017 R09/19//95=
201911151230 METAR LRCV 151230Z 05009KT 9999 FEW011 SCT019 14/11 Q1016
                        R09/19//95=
201911151300 METAR LRCV 151300Z 06008KT 9999 FEW011 SCT015 14/11 Q1016
                        R09/19//95=
201911151330 METAR LRCV 151330Z 07008KT 9999 SCT013 BKN020 14/11 Q1017
                        R09/19//95=
201911151400 METAR LRCV 151400Z 07008KT 9999 BKN015 BKN020 14/11 Q1017
                        R09/19//95=
201911151430 METAR LRCV 151430Z 07006KT 9999 BKN015 BKN020 13/10 Q1017
                        R09/CLRD//=
201911151500 METAR LRCV 151500Z 08006KT 9999 BKN017 12/10 Q1017=
201911151530 METAR LRCV 151530Z 08005KT 9999 BKN015 12/10 Q1018=
201911151600 METAR LRCV 151600Z 08003KT 9999 BKN015 12/11 Q1018=
201911151630 METAR LRCV 151630Z 09005KT 9999 SCT013 BKN016 12/11 Q1018=
201911151700 METAR LRCV 151700Z 09005KT 9999 BKN015 12/11 Q1019=
201911151730 METAR LRCV 151730Z 09005KT 9999 BKN015 12/11 Q1019=
201911151800 METAR LRCV 151800Z 09006KT 9999 BKN015 12/11 Q1019=
201911151830 METAR LRCV 151830Z AUTO 06007KT 9000 FEW016/// 11/10 Q1019=
201911151900 METAR LRCV 151900Z AUTO 07009KT 4800 BR NCD 11/10 Q1019=
201911151930 METAR LRCV 151930Z AUTO 06009KT 2500 R09/1600VP2000D BR BKN001///
                        11/10 Q1019=
201911152000 METAR LRCV 152000Z AUTO 05008KT 4500 BR FEW002/// 10/10 Q1020=
201911152030 METAR LRCV 152030Z AUTO 05009KT 5000 BR FEW012/// 10/09 Q1019=
201911152100 METAR LRCV 152100Z 03008KT 9999 FEW015 10/09 Q1019=
201911152130 METAR LRCV 152130Z 04009KT CAVOK 10/09 Q1020=
201911152200 METAR LRCV 152200Z 04008KT CAVOK 10/09 Q1020=
201911152230 METAR LRCV 152230Z 05008KT CAVOK 09/08 Q1020=
201911152300 METAR LRCV 152300Z 05007KT 8000 FEW015 08/08 Q1020=
201911152330 METAR LRCV 152330Z 04007KT 8000 SCT013 BKN016 09/09 Q1020=
201911160000 METAR LRCV 160000Z 04006KT 8000 SCT015 09/08 Q1020=
201911160030 METAR LRCV 160030Z 03006KT 8000 SCT015 09/08 Q1020=
201911160100 METAR LRCV 160100Z 04007KT 8000 SCT015 09/08 Q1020=
201911160130 METAR LRCV 160130Z 03005KT 9000 SCT020 08/08 Q1020=
201911160200 METAR LRCV 160200Z 03005KT 9000 SCT017 08/07 Q1020=
201911160230 METAR LRCV 160230Z 02006KT 9000 FEW015 08/08 Q1020=
201911160300 METAR LRCV 160300Z 36005KT 9000 FEW015 08/08 Q1021=
201911160330 METAR LRCV 160330Z 35006KT 9000 NSC 08/08 Q1021=
201911160400 METAR LRCV 160400Z 02005KT CAVOK 07/07 Q1021=
201911160430 METAR LRCV 160430Z 03005KT CAVOK 07/06 Q1021=
201911160500 METAR LRCV 160500Z 02005KT 9999 FEW018 08/08 Q1021=
201911160530 METAR LRCV 160530Z 03005KT 9999 FEW020 07/07 Q1021=
201911160600 METAR LRCV 160600Z 02004KT CAVOK 08/07 Q1022=
201911160630 METAR COR LRCV 160630Z 04006KT 7000 NSC 10/09 Q1022=
201911160700 METAR LRCV 160700Z 07007KT 9000 NSC 10/09 Q1022=
201911160730 METAR LRCV 160730Z 06008KT 8000 FEW005 10/09 Q1022=
201911160800 METAR LRCV 160800Z 08006KT 7000 SCT005 10/09 Q1023=
201911160830 METAR LRCV 160830Z 09006KT 7000 SCT004 10/09 Q1023=
201911160900 METAR LRCV 160900Z 09006KT 3600 BR BKN003 10/09 Q1023=
201911160930 METAR LRCV 160930Z 06006KT 1000 R09/1500D FG OVC001 09/09
                        Q1023=
201911161000 METAR LRCV 161000Z 06005KT 0800 R09/1100N FG OVC001 10/09
                        Q1022=
201911161030 METAR LRCV 161030Z 06005KT 3000 BR OVC001 10/10 Q1022=
201911161100 METAR LRCV 161100Z 06004KT 5000 BR OVC003 11/10 Q1022=
201911161130 METAR LRCV 161130Z 06004KT 010V100 5000 BR OVC004 11/10 Q1022=
201911161200 METAR LRCV 161200Z 08005KT 5000 BR OVC005 11/10 Q1021=
201911161230 METAR LRCV 161230Z 07005KT 7000 BKN006 OVC013 12/11 Q1021=
201911161300 METAR LRCV 161300Z 08004KT 040V110 6000 BKN005 OVC012 12/11
                        Q1021=
201911161330 METAR LRCV 161330Z 07004KT 030V110 5000 BR BKN005 OVC012
                        12/11 Q1021=
201911161400 METAR LRCV 161400Z 11004KT 4000 BR SCT005 BKN010 12/11 Q1021=
201911161430 METAR LRCV 161430Z 11004KT 2000 BR OVC002 11/10 Q1021=
201911161500 METAR LRCV 161500Z 14005KT 0500 R27/1900D FG OVC001 11/10
                        Q1021=
201911161530 METAR LRCV 161530Z 16004KT 0300 R27/0500N FG VV001 10/10
                        Q1021=
201911161600 METAR LRCV 161600Z 14005KT 110V170 0300 R27/0600D FG VV001
                        10/10 Q1021=
201911161630 METAR COR LRCV 161630Z 13004KT 100V190 0350 R27/0450N DZ
                        FG VV001 11/10 Q1021=
201911161700 METAR LRCV 161700Z 12004KT 0300 R27/0700N -DZ FG VV002 10/10
                        Q1021=
201911161730 METAR LRCV 161730Z VRB02KT 0400 R27/0450N FG VV002 10/10
                        Q1021=
201911161800 METAR LRCV 161800Z 07005KT 0500 R27/1100D DZ FG VV002 10/10
                        Q1021=
201911161830 METAR LRCV 161830Z 08006KT 0500 R27/0900N DZ FG VV001 10/10
                        Q1022 R27/19//95=
201911161900 METAR LRCV 161900Z 11005KT 0900 R27/1800D -DZ FG VV002 10/10
                        Q1022 REDZ R27/19//95=
201911161930 METAR LRCV 161930Z 09005KT 0900 R27/1600N FG VV002 10/10
                        Q1022 R27/19//95=
201911162000 METAR LRCV 162000Z 12005KT 0800 R27/1500D -DZ FG BKN001 OVC003
                        10/10 Q1022 R27/19//95=
201911162030 METAR LRCV 162030Z 11006KT 0600 R27/1300D -DZ FG VV002 10/10
                        Q1022 R27/19//95=
201911162100 METAR LRCV 162100Z 11007KT 0600 R27/1600U -DZ FG VV002 10/09
                        Q1021 R27/19//95=
201911162130 METAR LRCV 162130Z 09008KT 0800 R27/1800D -DZ FG VV002 10/09
                        Q1021 R27/19//95=
201911162200 METAR LRCV 162200Z 10009KT 0800 R27/1100N -DZ FG VV002 09/09
                        Q1021 R27/19//95=
201911162230 METAR LRCV 162230Z 10006KT 0400 R27/0800N -DZ FG VV002 10/09
                        Q1022 R27/19//95=
201911162300 METAR LRCV 162300Z 11007KT 0400 R27/0800N -DZ FG VV002 10/09
                        Q1022 R27/19//95=
201911162330 METAR LRCV 162330Z 10003KT 0500 R27/1100N -DZ FG VV002 10/09
                        Q1022 R27/19//95=
201911170000 METAR LRCV 170000Z 08005KT 060V120 0900 -DZ FG BKN001 OVC003
                        10/09 Q1022 R27/19//95=
201911170030 METAR LRCV 170030Z AUTO 10004KT 1900 R09/1300U FG BKN001///
                        OVC003/// 09/09 Q1022=
201911170100 METAR LRCV 170100Z 09005KT 1600 -DZ BCFG OVC001 09/09 Q1021
                        R27/19//95=
201911170130 METAR LRCV 170130Z 09005KT 0600 R27/1000N -DZ FG VV002 09/09
                        Q1021 R27/19//95=
201911170200 METAR LRCV 170200Z 08008KT 0600 R27/1500D -DZ FG VV002 09/09
                        Q1021 R27/19//95=
201911170230 METAR LRCV 170230Z 07007KT 0500 R27/1200D -DZ FG VV002 09/09
                        Q1021 R27/19//95=
201911170300 METAR LRCV 170300Z 09006KT 0600 R27/0650N -DZ FG VV002 09/09
                        Q1021 R27/19//95=
201911170330 METAR COR LRCV 170330Z 10010KT 1300 0600W -DZ BCFG VV002
                        09/09 Q1022 R27/19//95=
201911170400 METAR LRCV 170400Z 10007KT 1600 -DZ BR BKN001 09/09 Q1022
                        R27/19//95=
201911170430 METAR LRCV 170430Z 08007KT 3000 -DZ BR SCT002 BKN005 09/09
                        Q1022 R27/19//95=
201911170500 METAR LRCV 170500Z 09008KT 3500 -RA BR FEW002 SCT004 BKN009
                        09/09 Q1022 R27/19//95=
201911170530 METAR LRCV 170530Z 09007KT 1500 -RA BR BKN002 OVC009 09/09
                        Q1022 R27/19//95=
201911170600 METAR LRCV 170600Z 10009KT 1500 -DZ BR BKN002 OVC007 10/09
                        Q1022 R27/19//95=
201911170630 METAR LRCV 170630Z 10010KT 2000 BR BKN002 OVC010 10/10 Q1022
                        R09/29//95=
201911170700 METAR LRCV 170700Z 11007KT 3000 BR FEW003 SCT008 OVC010 10/10
                        Q1022 R09/29//95=
201911170730 METAR LRCV 170730Z 10007KT 1200 R27/1800D BR SCT002 BKN004
                        OVC010 10/10 Q1022 R09/29//95=
201911170800 METAR LRCV 170800Z 10008KT 1000 R27/1900N -DZ BR BKN001 OVC003
                        11/11 Q1022 R09/29//95=
201911170830 METAR LRCV 170830Z 10009KT 1000 R27/1800N -DZ BR BKN001 OVC003
                        11/11 Q1022 R09/29//95=
201911170900 METAR LRCV 170900Z 08010KT 1700 -DZ BR SCT002 BKN004 OVC005
                        12/11 Q1022 R09/29//95=
201911170930 METAR LRCV 170930Z 10013KT 1500 -DZ BR SCT002 BKN004 OVC007
                        12/11 Q1021 R09/29//95=
201911171000 METAR LRCV 171000Z 10015KT 2000 -DZ BR BKN002 OVC005 12/11
                        Q1021 R09/29//95=
201911171030 METAR LRCV 171030Z 09014KT 3000 BR BKN003 OVC008 12/11 Q1021
                        R09/29//95=
201911171100 METAR LRCV 171100Z 09014KT 4000 BR FEW003 BKN005 OVC008 12/11
                        Q1020 R09/29//95=
201911171130 METAR LRCV 171130Z 09013KT 7000 BKN007 OVC010 12/11 Q1020
                        R09/29//95=
201911171200 METAR LRCV 171200Z 10015KT 9999 BKN010 OVC015 12/11 Q1020
                        R09/29//95=
201911171230 METAR LRCV 171230Z 10015KT 9999 FEW010 BKN015 OVC018 13/11
                        Q1020 R09/29//95=
201911171300 METAR LRCV 171300Z 09016KT 9999 SCT015 OVC020 13/11 Q1020
                        R09/29//95=
201911171330 METAR LRCV 171330Z 09012KT 9999 SCT015 OVC020 13/11 Q1020
                        R09/29//95=
201911171400 METAR LRCV 171400Z 09012KT 9999 SCT012 OVC020 13/11 Q1020
                        R09/29//95=
201911171430 METAR LRCV 171430Z 09009KT 9999 BKN010 OVC020 12/11 Q1020
                        R09/29//95=
201911171500 METAR LRCV 171500Z 07009KT 9999 BKN013 OVC020 12/11 Q1020
                        R09/29//95=
201911171530 METAR LRCV 171530Z 08010KT 9999 BKN015 OVC022 12/11 Q1020
                        R09/29//95=
201911171600 METAR LRCV 171600Z 08011KT 9999 FEW012 BKN020 OVC025 13/11
                        Q1020 R09/29//95=
201911171630 METAR LRCV 171630Z 08011KT 9999 FEW010 BKN015 OVC025 13/11
                        Q1020 R09/29//95=
201911171700 METAR LRCV 171700Z 08011KT 9999 BKN010 OVC024 13/11 Q1020
                        R09/29//95=
201911171730 METAR LRCV 171730Z 09013KT 9999 BKN010 OVC022 13/11 Q1020
                        R09/29//95=
201911171800 METAR LRCV 171800Z 09012KT 9999 BKN010 OVC022 13/11 Q1020
                        R09/29//95=
201911171830 METAR LRCV 171830Z 09012KT 9000 BKN011 OVC016 13/11 Q1020
                        R09/29//95=
201911171900 METAR LRCV 171900Z AUTO 07014KT 9999 BKN011/// BKN021///
                        13/11 Q1019=
201911171930 METAR LRCV 171930Z 07014KT 9000 BKN010 OVC013 13/11 Q1019
                        R09/29//95=
201911172000 METAR LRCV 172000Z 09014KT 9000 BKN010 OVC024 13/11 Q1019
                        R09/29//95=
201911172030 METAR LRCV 172030Z 09014KT 9000 BKN010 OVC024 13/11 Q1019
                        R27/29//95=
201911172100 METAR LRCV 172100Z 10016KT 9000 BKN010 OVC024 13/11 Q1018
                        R27/29//95=
201911172130 METAR LRCV 172130Z 09015KT 9000 BKN010 OVC018 12/11 Q1018
                        R27/29//95=
201911172200 METAR LRCV 172200Z 09015KT 9000 BKN010 OVC017 12/11 Q1018
                        R27/29//95=
201911172230 METAR LRCV 172230Z 10014KT 9000 BKN009 OVC017 12/11 Q1019
                        R27/29//95=
201911172300 METAR LRCV 172300Z 10013KT 9000 BKN008 OVC010 12/11 Q1018
                        R27/29//95=
201911172330 METAR LRCV 172330Z 10012KT 9000 OVC010 12/10 Q1018 R27/29//95=
201911180000 METAR LRCV 180000Z 09012KT 9000 OVC010 12/10 Q1018 R27/29//95=
201911180030 METAR LRCV 180030Z 09015KT 9000 OVC010 12/10 Q1018 R27/29//95=
201911180100 METAR LRCV 180100Z 09016KT 9000 OVC010 12/10 Q1018 R27/29//95=
201911180130 METAR LRCV 180130Z 08017KT 9999 BKN010 OVC016 12/10 Q1018
                        R27/29//95=
201911180200 METAR LRCV 180200Z 09013KT 9000 FEW010 BKN014 OVC019 12/10
                        Q1018 R27/29//95=
201911180230 METAR LRCV 180230Z 09013KT 9999 BKN010 OVC018 12/10 Q1018
                        R27/29//95=
201911180300 METAR LRCV 180300Z 09013KT 9000 BKN010 OVC018 12/10 Q1017
                        R27/29//95=
201911180330 METAR LRCV 180330Z 09014KT 9000 BKN014 OVC018 12/10 Q1017
                        R27/29//95=
201911180400 METAR LRCV 180400Z 07016KT 9000 BKN012 BKN015 12/10 Q1017
                        R09/CLRD//=
201911180430 METAR LRCV 180430Z 07015KT 8000 OVC011 11/10 Q1017=
201911180500 METAR LRCV 180500Z 07014KT 8000 BKN009 OVC020 11/10 Q1017=
201911180530 METAR COR LRCV 180530Z 09014KT 8000 BKN012 OVC019 11/10 Q1017=
201911180600 METAR LRCV 180600Z 07013KT 8000 BKN011 BKN019 11/10 Q1017=
201911180630 METAR LRCV 180630Z 07013KT 9000 BKN009 OVC016 12/10 Q1018=
201911180700 METAR COR LRCV 180700Z 08015KT 9999 BKN009 BKN015 12/10 Q1018=
201911180730 METAR LRCV 180730Z 08015KT 9999 BKN009 BKN014 12/10 Q1018=
201911180800 METAR LRCV 180800Z 08015KT 9999 BKN008 12/11 Q1018=
201911180830 METAR LRCV 180830Z 08014KT 9999 SCT008 BKN010 13/11 Q1018=
201911180900 METAR LRCV 180900Z 08015KT 9999 BKN008 13/11 Q1018=
201911180930 METAR LRCV 180930Z 07014KT 9999 SCT008 BKN010 13/11 Q1018=
201911181000 METAR LRCV 181000Z 08012KT 9000 SCT008 BKN011 13/11 Q1018=
201911181030 METAR LRCV 181030Z 08012KT 9000 FEW008 SCT011 14/11 Q1018=
201911181100 METAR LRCV 181100Z 07013KT 8000 BKN011 14/12 Q1018=
201911181130 METAR LRCV 181130Z 07012KT 6000 -DZ BKN011 14/12 Q1018 R09/19//95=
201911181200 METAR LRCV 181200Z 07012KT 5000 -RA BR BKN011 13/12 Q1018
                        R09/19//95=
201911181230 METAR LRCV 181230Z 07011KT 4000 -RA BR BKN011 BKN048 13/12
                        Q1018 RERA R09/29//95=
201911181300 METAR LRCV 181300Z 07009KT 3000 -RA BR FEW025 13/12 Q1018
                        RERA R09/29//95=
201911181330 METAR LRCV 181330Z 07007KT 3000 -RA BR NSC 13/12 Q1019 R09/29//95=
201911181400 METAR LRCV 181400Z 06004KT 3500 BR FEW029 13/12 Q1019 R09/29//95=
201911181430 METAR LRCV 181430Z 06005KT 3500 DZ BR SCT014 13/12 Q1019
                        R09/29//95=
201911181500 METAR LRCV 181500Z 05006KT 4000 -RA BR FEW016 13/12 Q1019
                        REDZ R09/29//95=
201911181530 METAR LRCV 181530Z 05007KT 3000 -RA BR NSC 13/12 Q1019 R09/29//95=
201911181600 METAR LRCV 181600Z 05007KT 3000 BR NSC 12/12 Q1020 R09/29//95=
201911181630 METAR LRCV 181630Z 05007KT 3000 BR NSC 12/12 Q1020 R09/29//95=
201911181700 METAR LRCV 181700Z 06005KT 3000 BR FEW013 12/11 Q1020 R09/29//95=
201911181730 METAR LRCV 181730Z 05004KT 3000 BR SCT014 12/11 Q1021 R09/29//95=
201911181800 METAR LRCV 181800Z 06005KT 010V070 3000 BR SCT015 BKN023
                        12/11 Q1021 R09/29//95=
201911181830 METAR LRCV 181830Z 04004KT 3500 BR SCT015 BKN025 12/12 Q1021
                        R09/29//95=
201911181900 METAR LRCV 181900Z 00000KT 3500 BR SCT008 BKN015 BKN030 12/12
                        Q1021 R09/29//95=
201911181930 METAR LRCV 181930Z 10005KT 3500 BR SCT007 BKN010 BKN035 12/11
                        Q1021 R09/29//95=
201911182000 METAR LRCV 182000Z 06004KT 3000 BR BKN005 OVC015 11/11 Q1021
                        R09/29//95=
201911182030 METAR LRCV 182030Z 04006KT 3000 BR BKN005 OVC010 12/12 Q1021
                        R09/29//95=
201911182100 METAR LRCV 182100Z 33005KT 3000 BR BKN005 OVC008 12/12 Q1022
                        R09/29//95=
201911182130 METAR LRCV 182130Z 34004KT 3500 BR BKN005 OVC008 12/11 Q1022
                        R09/29//95=
201911182200 METAR LRCV 182200Z 33003KT 4000 BR BKN006 OVC008 12/11 Q1022
                        R09/29//95=
201911182230 METAR LRCV 182230Z VRB01KT 5000 BR BKN008 OVC010 12/11 Q1022
                        R09/29//95=
201911182300 METAR LRCV 182300Z 34003KT 5000 BR BKN008 OVC010 12/11 Q1022
                        R09/29//95=
201911182330 METAR LRCV 182330Z 04005KT 4000 BR BKN008 OVC010 12/11 Q1023
                        R09/29//95=
201911190000 METAR LRCV 190000Z 04003KT 4000 BR OVC008 12/11 Q1023 R09/29//95=
201911190030 METAR LRCV 190030Z 07001KT 4000 BR OVC008 12/11 Q1023 R09/29//95=
201911190100 METAR LRCV 190100Z 08002KT 4000 BR OVC010 12/11 Q1023 R09/29//95=
201911190130 METAR LRCV 190130Z 11002KT 3500 BR OVC010 12/11 Q1023 R09/29//95=
201911190200 METAR LRCV 190200Z 10001KT 4500 BR BKN008 OVC010 12/11 Q1023
                        R09/29//95=
201911190230 METAR LRCV 190230Z 00000KT 5000 BR OVC010 12/11 Q1023 R09/29//95=
201911190300 METAR LRCV 190300Z 00000KT 4000 BR OVC010 12/11 Q1023 R09/29//95=
201911190330 METAR LRCV 190330Z 22001KT 1500 0600S BR OVC009 12/11 Q1023
                        R09/29//95=
201911190400 METAR LRCV 190400Z 16002KT 0800 R09/0900D FG SCT001 OVC009
                        12/11 Q1023 R09/29//95=
201911190430 METAR LRCV 190430Z 00000KT 2000 BR BKN008 OVC010 12/11 Q1023
                        R09/29//95=
201911190500 METAR LRCV 190500Z 00000KT 2000 BR OVC008 12/11 Q1024 R09/29//95=
201911190530 METAR COR LRCV 190530Z 22002KT 0800 R27/P2000 FG OVC008 12/11
                        Q1024 R09/29//95=
201911190600 METAR LRCV 190600Z 20002KT 0250 R27/0650N FG OVC008 12/11
                        Q1024 R09/29//95=
201911190630 METAR LRCV 190630Z 20004KT 0100 R27/0325N FG VV001 11/11
                        Q1024 R09/29//95=
201911190700 METAR LRCV 190700Z 18003KT 0100 R27/0275N FG VV001 11/11
                        Q1025 R09/29//95=
201911190730 METAR COR LRCV 190730Z 18003KT 0300 R27/0700N FG SCT004 OVC008
                        12/11 Q1025 R09/29//95=
201911190800 METAR COR LRCV 190800Z 18002KT 1300 R09/1500U -DZ BR SCT001
                        OVC008 12/11 Q1025 R09/29//95=
201911190830 METAR COR LRCV 190830Z VRB01KT 1800 BR SCT001 OVC010 12/12
                        Q1025 R09/29//95=
201911190900 METAR LRCV 190900Z 02003KT 330V070 3000 BR SCT003 OVC016
                        13/12 Q1025 R09/29//95=
201911190930 METAR LRCV 190930Z 04004KT 5000 BR BKN004 BKN019 13/12 Q1024
                        R09/29//95=
201911191000 METAR LRCV 191000Z 09003KT 6000 SCT006 BKN015 13/12 Q1024
                        R09/29//95=
201911191030 METAR LRCV 191030Z 20004KT 4000 BR SCT004 BKN010 14/12 Q1024
                        R27/19//95=
201911191100 METAR LRCV 191100Z 20004KT 5000 BR SCT005 BKN009 13/12 Q1024
                        R27/19//95=
201911191130 METAR LRCV 191130Z 17004KT 130V200 7000 FEW005 SCT009 BKN018
                        14/11 Q1024 R27/19//95=
201911191200 METAR LRCV 191200Z 12004KT 080V170 9000 SCT010 BKN013 14/11
                        Q1023 R27/19//95=
201911191230 METAR LRCV 191230Z 14004KT 100V160 9999 SCT011 BKN016 14/12
                        Q1023 R27/19//95=
201911191300 METAR LRCV 191300Z 16006KT 8000 SCT011 BKN017 14/11 Q1023
                        R27/19//95=
201911191330 METAR LRCV 191330Z 14005KT 8000 BKN012 BKN019 14/11 Q1023
                        R27/19//95=
201911191400 METAR LRCV 191400Z 14006KT 9000 SCT010 BKN016 13/11 Q1023
                        R27/19//95=
201911191430 METAR LRCV 191430Z 16004KT 6000 BKN016 13/11 Q1023 R27/19//95=
201911191500 METAR LRCV 191500Z 15005KT 7000 BKN016 BKN019 13/11 Q1023
                        R27/19//95=
201911191530 METAR LRCV 191530Z 17006KT 6000 BKN017 BKN020 13/11 Q1023
                        R27/19//95=
201911191600 METAR LRCV 191600Z 18004KT 6000 BKN018 13/11 Q1023 R27/19//95=
201911191630 METAR LRCV 191630Z 16004KT 6000 BKN019 OVC022 13/11 Q1023
                        R27/19//95=
201911191700 METAR LRCV 191700Z VRB02KT 6000 BKN020 13/11 Q1023 R27/19//95=
201911191730 METAR LRCV 191730Z 08003KT 5000 BR BKN019 OVC022 12/11 Q1023
                        R27/19//95=
201911191800 METAR LRCV 191800Z VRB01KT 5000 BR BKN019 12/11 Q1024 R27/19//95=
201911191830 METAR LRCV 191830Z 06002KT 5000 BR OVC020 12/12 Q1024 R27/19//95=
201911191900 METAR LRCV 191900Z VRB02KT 4500 BR OVC019 12/12 Q1024 R27/19//95=
201911191930 METAR LRCV 191930Z 04004KT 4500 BR OVC019 12/12 Q1023 R27/19//95=
201911192000 METAR LRCV 192000Z 05005KT 4500 BR OVC019 12/12 Q1023 R27/19//95=
201911192030 METAR LRCV 192030Z 05006KT 4500 BR OVC020 12/11 Q1023 R27/19//95=
201911192100 METAR LRCV 192100Z 05008KT 4500 BR OVC021 12/11 Q1023 R27/19//95=
201911192130 METAR LRCV 192130Z 07008KT 5000 BR BKN025 OVC029 12/11 Q1023
                        R27/19//95=
201911192200 METAR LRCV 192200Z 06007KT 6000 SCT025 BKN030 12/11 Q1022
                        R27/19//95=
201911192230 METAR LRCV 192230Z 06009KT 6000 FEW022 BKN030 12/11 Q1022
                        R27/19//95=
201911192300 METAR LRCV 192300Z 06008KT 6000 OVC025 12/11 Q1022 R27/19//95=
201911192330 METAR LRCV 192330Z 06005KT 6000 BKN012 OVC024 12/10 Q1022
                        R27/CLRD//=
201911200000 METAR LRCV 200000Z 06005KT 6000 OVC010 12/10 Q1022=
201911200030 METAR LRCV 200030Z 06007KT 5000 BR BKN009 OVC027 12/11 Q1022=
201911200100 METAR LRCV 200100Z 07008KT 4000 BR BKN006 OVC011 12/11 Q1021=
201911200130 METAR LRCV 200130Z 06008KT 4000 BR OVC005 12/11 Q1021=
201911200200 METAR LRCV 200200Z 06008KT 3000 BR OVC003 12/11 Q1021=
201911200230 METAR LRCV 200230Z 07009KT 3000 BR BKN003 OVC009 12/11 Q1021=
201911200300 METAR LRCV 200300Z 06011KT 2500 -RA BR BKN003 OVC009 12/11
                        Q1020=
201911200330 METAR LRCV 200330Z 07010KT 2000 -RA BKN002 OVC004 12/12 Q1020=
201911200400 METAR LRCV 200400Z 07010KT 1500 R09/1300N -DZ BR SCT001 OVC003
                        12/12 Q1020=
201911200430 METAR LRCV 200430Z 07010KT 2000 -DZ BR BKN001 OVC003 12/12
                        Q1020 R09/19//95=
201911200500 METAR LRCV 200500Z 08009KT 1500 R09/1100U -RA BR BKN001 OVC003
                        12/12 Q1020 R09/19//95=
201911200530 METAR LRCV 200530Z 08009KT 1500 -DZ BR SCT001 BKN003 12/12
                        Q1020 R09/19//95=
201911200600 METAR LRCV 200600Z 09010KT 1700 -DZ BR OVC003 12/12 Q1019
                        R09/19//95=
201911200630 METAR LRCV 200630Z 08010KT 1200 R09/1500N BR BKN002 OVC015
                        12/12 Q1019 R09/19//95=
201911200700 METAR LRCV 200700Z 09010KT 0800 R09/1200U FG BKN002 OVC007
                        12/12 Q1019 R09/29//95=
201911200730 METAR LRCV 200730Z 10013KT 0600 R27/1700U FG OVC002 12/12
                        Q1019 R09/29//95=
201911200800 METAR LRCV 200800Z 10014KT 1500 BR BKN003 OVC005 13/12 Q1018
                        R09/29//95=
201911200830 METAR LRCV 200830Z 09014KT 3500 BR BKN007 OVC010 13/13 Q1018
                        R09/29//95=
201911200900 METAR LRCV 200900Z 11016KT 5000 BR BKN007 BKN010 14/12 Q1019
                        R09/29//95=
201911200930 METAR LRCV 200930Z 11017KT 8000 SCT010 BKN018 14/13 Q1018
                        R09/29//95=
201911201000 METAR LRCV 201000Z 08018KT 9000 SCT013 BKN018 14/12 Q1018
                        R09/29//95=
201911201030 METAR LRCV 201030Z 09015KT 9999 FEW010 SCT015 BKN020 14/12
                        Q1018 R09/29//95=
201911201100 METAR LRCV 201100Z 09016KT 9999 BKN013 BKN020 14/12 Q1017
                        R09/29//95=
201911201130 METAR LRCV 201130Z 08016KT 9999 BKN015 OVC023 14/12 Q1017
                        R09/29//95=
201911201200 METAR LRCV 201200Z 08015KT 9999 SCT015 BKN021 OVC034 14/12
                        Q1017 R09/29//95=
201911201230 METAR LRCV 201230Z 08015KT 8000 BKN025 OVC34 14/12 Q1017
                        R09/29//95=
201911201300 METAR LRCV 201300Z 08015KT 8000 SCT015 BKN030 OVC035 14/12
                        Q1017 R09/29//95=
201911201330 METAR LRCV 201330Z 08016KT 6000 -RA SCT015 BKN032 13/11 Q1017
                        R09/29//95=
201911201400 METAR LRCV 201400Z 08011KT 5000 -RA BR SCT018 BKN034 13/12
                        Q1017 R09/29//95=
201911201430 METAR LRCV 201430Z 08012KT 4000 RA BR BKN016 OVC033 13/12
                        Q1017 R09/29//95=
201911201500 METAR LRCV 201500Z 08012KT 4500 RA BR BKN014 OVC030 13/11
                        Q1017 R09/29//95=
201911201530 METAR LRCV 201530Z 08016KT 5000 RA BR BKN010 OVC030 12/11
                        Q1017 R09/29//95=
201911201600 METAR LRCV 201600Z 07014KT 6000 -RA SCT009 BKN018 OVC035
                        12/11 Q1017 RERA R09/29//95=
201911201630 METAR LRCV 201630Z 07017KT 7000 -RA BKN010 OVC030 12/11 Q1017
                        R09/29//95=
201911201700 METAR LRCV 201700Z 08018KT 6000 SCT007 BKN010 OVC040 12/11
                        Q1017 R09/29//95=
201911201730 METAR LRCV 201730Z 08017KT 6000 BKN007 OVC012 12/10 Q1017
                        R09/29//95=
201911201800 METAR LRCV 201800Z 08016KT 5000 BR BKN007 OVC011 11/10 Q1017
                        R09/29//95=
201911201830 METAR LRCV 201830Z 08017KT 5000 BR BKN007 OVC010 12/11 Q1017
                        R09/29//95=
201911201900 METAR LRCV 201900Z 08016KT 5000 BR BKN006 OVC008 11/11 Q1018
                        R09/29//95=
201911201930 METAR LRCV 201930Z 07015KT 5000 BR BKN006 BKN010 12/11 Q1018
                        R09/29//95=
201911202000 METAR LRCV 202000Z 08014KT 5000 BR BKN007 OVC010 11/10 Q1018
                        R09/29//95=
201911202030 METAR LRCV 202030Z 08015KT 5000 BR BKN006 OVC008 11/10 Q1018
                        R09/29//95=
201911202100 METAR LRCV 202100Z 07016KT 5000 BR BKN006 OVC008 12/11 Q1018
                        R09/29//95=
201911202130 METAR LRCV 202130Z 07015KT 5000 BR BKN007 OVC010 12/11 Q1018
                        R09/29//95=
201911202200 METAR LRCV 202200Z 07014KT 5000 BR BKN006 OVC010 12/11 Q1018
                        R09/29//95=
201911202230 METAR LRCV 202230Z 07013KT 5000 BR OVC006 11/10 Q1018 R09/29//95=
201911202300 METAR LRCV 202300Z 07012KT 5000 BR OVC006 11/10 Q1018 R09/29//95=
201911202330 METAR LRCV 202330Z 07013KT 5000 BR BKN006 OVC008 11/10 Q1018
                        R09/29//95=
201911210000 METAR LRCV 210000Z 07012KT 5000 BR BKN006 OVC008 11/10 Q1018
                        R09/29//95=
201911210030 METAR LRCV 210030Z 06012KT 5000 BR BKN005 OVC007 11/10 Q1018
                        R09/29//95=
201911210100 METAR LRCV 210100Z 06012KT 5000 BR BKN004 OVC006 11/10 Q1018
                        R09/29//95=
201911210130 METAR LRCV 210130Z 06015KT 5000 BR BKN004 OVC006 11/10 Q1018
                        R09/29//95=
201911210200 METAR LRCV 210200Z 06015KT 6000 BKN004 BKN006 11/10 Q1017
                        R09/29//95=
201911210230 METAR LRCV 210230Z 06014KT 5000 BR BKN003 OVC005 11/10 Q1017
                        R09/29//95=
201911210300 METAR LRCV 210300Z 05013KT 5000 BR BKN003 OVC005 11/10 Q1017
                        R09/29//95=
201911210330 METAR LRCV 210330Z 05013KT 5000 BR OVC003 11/10 Q1017 R09/29//95=
201911210400 METAR LRCV 210400Z 06013KT 5000 BR OVC003 11/10 Q1017 R09/19//95=
201911210430 METAR LRCV 210430Z 06013KT 5000 BR OVC002 11/10 Q1018 R09/19//95=
201911210500 METAR LRCV 210500Z 06014KT 4500 BR OVC002 10/10 Q1018 R09/19//95=
201911210530 METAR LRCV 210530Z 06012KT 3000 BR OVC002 10/10 Q1018 R09/19//95=
201911210600 METAR LRCV 210600Z 06012KT 2000 BR OVC002 10/10 Q1018 R09/19//95=
201911210630 METAR LRCV 210630Z 05011KT 2000 -DZ BR OVC002 10/10 Q1018
                        R09/19//95=
201911210700 METAR LRCV 210700Z 06014KT 2200 -DZ BR OVC002 10/10 Q1019
                        R09/19//95=
201911210730 METAR LRCV 210730Z 06014KT 3000 -DZ BR OVC002 10/10 Q1019
                        REDZ R09/19//95=
201911210800 METAR LRCV 210800Z 07015KT 3000 BR OVC002 10/10 Q1019 R09/19//95=
201911210830 METAR LRCV 210830Z 07017KT 3000 BR OVC003 10/10 Q1019 R09/19//95=
201911210900 METAR LRCV 210900Z 07017KT 4000 BR BKN002 OVC004 10/09 Q1019
                        R09/19//95=
201911210930 METAR LRCV 210930Z 07018KT 5000 BR BKN003 OVC005 10/09 Q1019
                        R09/19//95=
201911211000 METAR LRCV 211000Z 07018KT 7000 BKN003 OVC005 09/09 Q1019
                        R09/CLRD//=
201911211030 METAR LRCV 211030Z 07017KT 8000 BKN004 OVC006 09/09 Q1019
                        R09/CLRD//=
201911211100 METAR LRCV 211100Z 07018KT 9999 BKN005 OVC007 09/08 Q1018
                        R09/19//95=
201911211130 METAR LRCV 211130Z 07019KT 9999 BKN005 OVC007 09/08 Q1018
                        R09/19//95=
201911211200 METAR LRCV 211200Z 07020KT 9999 SCT006 OVC008 09/08 Q1018
                        R09/19//95=
201911211230 METAR LRCV 211230Z 07018KT 9999 OVC008 09/08 Q1018 R09/19//95=
201911211300 METAR LRCV 211300Z 07019KT 8000 SCT005 OVC007 09/08 Q1018
                        R09/19//95=
201911211330 METAR LRCV 211330Z 07019KT 9999 SCT005 OVC007 09/08 Q1018
                        R09/19//95=
201911211400 METAR LRCV 211400Z 07020KT 9000 SCT006 OVC008 09/08 Q1018
                        R09/19//95=
201911211430 METAR LRCV 211430Z 07019KT 7000 RA BKN006 OVC008 09/08 Q1018
                        R09/19//95=
201911211500 METAR LRCV 211500Z 07018KT 6000 RA SCT005 OVC008 08/08 Q1018
                        R09/19//95=
201911211530 METAR LRCV 211530Z 06017KT 9999 -RA FEW006 BKN008 OVC011
                        08/08 Q1018 R09/19//95=
201911211600 METAR LRCV 211600Z 07017KT 9999 -RA FEW006 SCT008 BKN011
                        08/08 Q1018 R09/19//95=
201911211630 METAR LRCV 211630Z 07019KT 9999 FEW007 BKN009 OVC012 08/07
                        Q1018 R09/19//95=
201911211700 METAR LRCV 211700Z 07021KT 5000 -RA BR FEW006 SCT008 OVC010
                        08/07 Q1019 R09/19//95=
201911211730 METAR LRCV 211730Z 07020KT 9999 -RA FEW006 BKN008 OVC012
                        08/07 Q1019 R09/19//95=
201911211800 METAR LRCV 211800Z 07021KT 9999 -RA BKN007 OVC012 07/07 Q1019
                        R09/19//95=
201911211830 METAR LRCV 211830Z 07022KT 4500 -RA BR BKN007 OVC015 07/06
                        Q1018 R09/19//95=
201911211900 METAR LRCV 211900Z 07023KT 6000 -RA BKN007 OVC015 07/06 Q1019
                        R09/19//95=
201911211930 METAR LRCV 211930Z 07021KT 4500 -RA BR BKN005 OVC015 07/06
                        Q1019 R09/19//95=
201911212000 METAR LRCV 212000Z 07023KT 4500 -RA BR BKN007 OVC013 06/05
                        Q1019 R09/19//95=
201911212030 METAR LRCV 212030Z 08026G37KT 9999 -RA BKN009 OVC011 06/05
                        Q1019 R09/19//95=
201911212100 METAR LRCV 212100Z 08020G30KT 9999 -RA SCT008 BKN010 06/05
                        Q1020 R09/19//95=
201911212130 METAR LRCV 212130Z 07022KT 9999 -RA FEW006 BKN008 OVC015
                        06/05 Q1020 R09/19//95=
201911212200 METAR LRCV 212200Z 07022KT 9999 -RA SCT007 BKN009 OVC015
                        05/05 Q1020 R09/19//95=
201911212230 METAR LRCV 212230Z 07023G33KT 5000 -RA BR SCT007 BKN009 OVC014
                        05/04 Q1020 R09/19//95=
201911212300 METAR LRCV 212300Z 07025G37KT 5000 -RA BR BKN008 OVC010 05/04
                        Q1020 R09/19//95=
201911212330 METAR LRCV 212330Z 07024G34KT 5000 -RA BR BKN007 OVC011 05/04
                        Q1020 R09/19//95=
201911220000 METAR LRCV 220000Z 07025KT 6000 -RA BKN007 OVC010 05/04 Q1020
                        R09/19//95=
201911220030 METAR LRCV 220030Z 07024KT 9999 BKN007 OVC010 05/04 Q1020
                        R09/19//95=
201911220100 METAR LRCV 220100Z 07025KT 9999 -RA BKN008 OVC010 05/04 Q1020
                        R09/19//95=
201911220130 METAR LRCV 220130Z 07024KT 7000 -RA BKN008 OVC010 05/04 Q1020
                        R09/19//95=
201911220200 METAR LRCV 220200Z 07022G33KT 7000 -RA BKN009 OVC011 04/03
                        Q1020 R09/19//95=
201911220230 METAR LRCV 220230Z 07026KT 9999 -RA BKN009 OVC011 04/03 Q1020
                        R09/19//95=
201911220300 METAR LRCV 220300Z 07023KT 9999 -RA SCT009 OVC013 04/03 Q1020
                        R09/19//95=
201911220330 METAR LRCV 220330Z 07021KT 8000 -RA BKN007 OVC010 04/03 Q1020
                        R09/19//95=
201911220400 METAR LRCV 220400Z 08023KT 5000 RA BR BKN008 OVC011 04/03
                        Q1020 R09/29//95=
201911220430 METAR LRCV 220430Z 07024KT 5000 RA BR BKN007 OVC010 04/03
                        Q1020 R09/29//95=
201911220500 METAR LRCV 220500Z 07024KT 5000 RA BR BKN007 OVC010 04/03
                        Q1020 R09/29//95=
201911220530 METAR LRCV 220530Z 07024KT 5000 -RA BR SCT007 BKN010 OVC014
                        04/03 Q1021 RERA R09/29//95=
201911220600 METAR LRCV 220600Z 07025KT 5000 RA BR SCT006 BKN008 OVC012
                        04/03 Q1021 R09/29//95=
201911220630 METAR LRCV 220630Z 07021KT 4000 RA BR SCT006 BKN008 OVC012
                        03/03 Q1021 R09/29//95=
201911220700 METAR LRCV 220700Z 07020KT 3000 RA BR SCT006 BKN008 OVC011
                        03/03 Q1022 R09/29//95=
201911220730 METAR LRCV 220730Z 07020KT 3000 RA BR BKN007 OVC009 03/02
                        Q1022 R09/29//95=
201911220800 METAR LRCV 220800Z 07018KT 3000 -RA BR SCT006 BKN009 OVC011
                        03/02 Q1023 RERA R09/29//95=
201911220830 METAR LRCV 220830Z 07016KT 4500 RA BR BKN006 OVC009 03/02
                        Q1023 R09/29//95=
201911220900 METAR LRCV 220900Z 07017KT 3500 RA BR BKN007 OVC010 03/02
                        Q1023 R09/29//95=
201911220930 METAR LRCV 220930Z 07016KT 5000 -RA BR BKN007 OVC012 03/02
                        Q1023 R09/29//95=
201911221000 METAR LRCV 221000Z 08015KT 5000 -RA BR SCT007 BKN009 OVC013
                        03/02 Q1023 R09/29//95=
201911221030 METAR LRCV 221030Z 07018KT 5000 -RA BR BKN007 OVC010 03/02
                        Q1023 R09/29//95=
201911221100 METAR LRCV 221100Z 07015KT 8000 -RA BKN006 OVC012 03/02 Q1023
                        R09/29//95=
201911221130 METAR LRCV 221130Z 07017KT 8000 -RA BKN006 OVC011 03/02 Q1023
                        R09/29//95=
201911221200 METAR LRCV 221200Z 08013KT 9000 -RA SCT006 OVC010 03/02 Q1023
                        R09/29//95=
201911221230 METAR LRCV 221230Z 08015KT 8000 -RA BKN005 OVC008 03/02 Q1023
                        R09/29//95=
201911221300 METAR LRCV 221300Z 08013KT 8000 -RA BKN007 OVC012 03/02 Q1023
                        R09/29//95=
201911221330 METAR LRCV 221330Z 07015KT 7000 -RA BKN006 OVC011 03/02 Q1023
                        R09/29//95=
201911221400 METAR LRCV 221400Z 07015KT 7000 DZ BKN005 OVC012 03/02 Q1023
                        R09/29//95=
201911221430 METAR LRCV 221430Z 08014KT 9000 -RA BKN007 OVC010 03/02 Q1023
                        REDZ R09/29//95=
201911221500 METAR LRCV 221500Z 08017KT 8000 -RA FEW005 SCT007 OVC011
                        02/01 Q1023 R09/29//95=
201911221530 METAR LRCV 221530Z 07015KT 6000 -RA SCT006 BKN009 OVC011
                        02/01 Q1023 R09/29//95=
201911221600 METAR LRCV 221600Z 08015KT 6000 -RA SCT006 OVC010 02/01 Q1023
                        R09/29//95=
201911221630 METAR LRCV 221630Z 08014KT 6000 -RA SCT005 OVC010 02/01 Q1024
                        R09/29//95=
201911221700 METAR LRCV 221700Z 08012KT 5000 -RA BR BKN004 OVC009 01/01
                        Q1024 R09/29//95=
201911221730 METAR LRCV 221730Z 08012KT 4000 RA BR BKN003 OVC010 01/01
                        Q1024 R09/29//95=
201911221800 METAR LRCV 221800Z 07013KT 4000 -SN BR BKN003 OVC012 01/01
                        Q1024 R09/29//95=
201911221830 METAR LRCV 221830Z 07012KT 3000 -SN BR BKN003 OVC007 01/00
                        Q1024 R09/29//95=
201911221900 METAR LRCV 221900Z 07014KT 4000 -SN BR BKN003 OVC007 01/00
                        Q1024 R09/29//95=
201911221930 METAR LRCV 221930Z 07014KT 3000 -SN BR FEW004 SCT006 OVC008
                        00/M00 Q1025 R09/29//95=
201911222000 METAR LRCV 222000Z 07014KT 3000 -SN BR SCT003 OVC007 00/M00
                        Q1025 R09/29//95=
201911222030 METAR LRCV 222030Z 06014KT 3000 -SN BR FEW003 BKN006 OVC010
                        00/M00 Q1025 R09/29//95=
201911222100 METAR LRCV 222100Z 07014KT 3000 -SN BR FEW004 OVC015 00/M00
                        Q1025 R09/29//95=
201911222130 METAR LRCV 222130Z 07013KT 5000 -SN BR FEW004 SCT010 BKN015
                        00/M00 Q1025 R09/29//95=
201911222200 METAR LRCV 222200Z 07013KT 5000 -SN BR FEW004 BKN015 00/M00
                        Q1025 R09/29//95=
201911222230 METAR LRCV 222230Z 07014KT 9000 -SN SCT004 BKN015 00/M00
                        Q1025 R09/29//95=
201911222300 METAR LRCV 222300Z 07012KT 6000 -SN FEW005 BKN010 00/M00
                        Q1025 R09/29//95=
201911222330 METAR LRCV 222330Z 07012KT 5000 BR SCT005 BKN007 OVC010 00/M00
                        Q1024 RESN R09/29//95=
201911230000 METAR LRCV 230000Z 08013KT 3000 -SN BR FEW003 BKN006 OVC010
                        M00/M00 Q1024 R09/29//95=
201911230030 METAR LRCV 230030Z 08012KT 3000 -SN BR FEW003 SCT009 BKN011
                        M00/M01 Q1024 R09/29//95=
201911230100 METAR LRCV 230100Z 08011KT 3000 -SN BR BKN006 OVC008 M00/M01
                        Q1024 R09/29//95=
201911230130 METAR LRCV 230130Z 08010KT 4000 -SN BR SCT007 OVC009 M00/M01
                        Q1024 R09/29//95=
201911230200 METAR LRCV 230200Z 08009KT 5000 -SN BR FEW003 BKN007 OVC014
                        M00/M01 Q1024 R09/29//95=
201911230230 METAR LRCV 230230Z 08010KT 3000 -SN BR FEW003 SCT007 OVC014
                        M00/M01 Q1024 R09/29//95=
201911230300 METAR LRCV 230300Z 07008KT 5000 -SN BR FEW004 OVC015 M00/M01
                        Q1024 R09/29//95=
201911230330 METAR LRCV 230330Z 08010KT 5000 -SN BR FEW005 OVC014 M00/M01
                        Q1024 R09/29//95=
201911230400 METAR LRCV 230400Z 08008KT 5000 -SN BR FEW005 OVC014 M00/M01
                        Q1024 R09/29//95=
201911230430 METAR LRCV 230430Z 07007KT 3000 -SN BR FEW003 BKN006 OVC014
                        M00/M01 Q1025 R09/29//95=
201911230500 METAR LRCV 230500Z 08005KT 3000 -SN BR SCT002 BKN004 OVC006
                        M00/M01 Q1024 R09/29//95=
201911230530 METAR LRCV 230530Z 07006KT 4000 BR SCT003 OVC006 M00/M01
                        Q1024 R09/29//95=
201911230600 METAR LRCV 230600Z 07007KT 3000 BR BKN005 OVC008 M00/M00
                        Q1024 R09/29//95=
201911230630 METAR LRCV 230630Z 06008KT 2500 -SN BR SCT003 BKN005 OVC012
                        M00/M00 Q1024 R09/29//95=
201911230700 METAR LRCV 230700Z 06008KT 3000 -SN BR SCT004 BKN006 OVC008
                        00/M00 Q1025 R09/29//95=
201911230730 METAR LRCV 230730Z 06007KT 3000 -SN BR BKN004 OVC008 00/M00
                        Q1024 R09/29//95=
201911230800 METAR LRCV 230800Z 06008KT 3500 -RASN BR BKN004 OVC006 00/M00
                        Q1025 R09/29//95=
201911230830 METAR LRCV 230830Z 08007KT 4000 -DZ BR BKN003 OVC006 00/00
                        Q1025 R09/29//95=
201911230900 METAR LRCV 230900Z 07009KT 6000 SCT004 BKN006 OVC008 01/00
                        Q1025 R09/29//95=
201911230930 METAR LRCV 230930Z 07009KT 6000 BKN003 OVC005 01/00 Q1024
                        R09/29//95=
201911231000 METAR LRCV 231000Z 06009KT 5000 BR BKN003 OVC005 01/00 Q1024
                        R09/29//95=
201911231030 METAR LRCV 231030Z 08008KT 4500 BR BKN002 OVC004 01/00 Q1024
                        R09/29//95=
201911231100 METAR LRCV 231100Z 08008KT 3000 BR BKN003 OVC005 01/00 Q1023
                        R09/29//95=
201911231130 METAR LRCV 231130Z 07007KT 1800 BR BKN002 OVC004 01/01 Q1023
                        R09/29//95=
201911231200 METAR LRCV 231200Z 07008KT 1800 BR BKN002 OVC004 01/01 Q1023
                        R09/29//95=
201911231230 METAR LRCV 231230Z 07009KT 1500 R09/1800D BR SCT002 BKN004
                        OVC006 01/01 Q1023 R09/29//95=
201911231300 METAR LRCV 231300Z 07010KT 1800 BR SCT003 BKN005 OVC007 01/01
                        Q1023 R09/29//95=
201911231330 METAR LRCV 231330Z 08006KT 1500 R09/1800D BR BKN002 OVC004
                        01/01 Q1023 R09/29//95=
201911231400 METAR LRCV 231400Z 07009KT 1500 R09/1900D BR BKN002 OVC004
                        01/01 Q1023 R09/29//95=
201911231430 METAR LRCV 231430Z 08009KT 1200 R09/1800N BR SCT002 BKN004
                        OVC006 01/01 Q1023 R09/29//95=
201911231500 METAR LRCV 231500Z 09007KT 1800 BR BKN002 OVC006 01/01 Q1023
                        R09/29//95=
201911231530 METAR LRCV 231530Z 09008KT 1500 BR SCT002 BKN004 OVC006 01/01
                        Q1023 R09/29//95=
201911231600 METAR LRCV 231600Z 09007KT 2000 BR SCT002 BKN004 OVC006 02/01
                        Q1023 R09/29//95=
201911231630 METAR LRCV 231630Z 10006KT 2000 BR BKN002 OVC005 02/01 Q1023
                        R09/29//95=
201911231700 METAR LRCV 231700Z 09007KT 2000 BR SCT002 BKN004 OVC008 02/01
                        Q1023 R09/29//95=
201911231730 METAR LRCV 231730Z 10004KT 2500 BR BKN002 OVC007 02/01 Q1023
                        R09/29//95=
201911231800 METAR LRCV 231800Z 09005KT 060V130 2500 BR BKN002 OVC005
                        02/01 Q1023 R09/29//95=
201911231830 METAR LRCV 231830Z 09006KT 3000 BR BKN005 OVC008 02/01 Q1023
                        R09/29//95=
201911231900 METAR LRCV 231900Z 10005KT 2500 BR BKN002 OVC005 02/01 Q1023
                        R09/29//95=
201911231930 METAR LRCV 231930Z 09005KT 2500 BR BKN002 OVC004 02/01 Q1023
                        R09/29//95=
201911232000 METAR LRCV 232000Z 08006KT 2500 BR BKN003 OVC005 02/01 Q1023
                        R09/29//95=
201911232030 METAR LRCV 232030Z 07005KT 2500 BR BKN002 OVC004 02/02 Q1023
                        R09/29//95=
201911232100 METAR LRCV 232100Z 07005KT 2500 DZ BR BKN002 OVC004 02/02
                        Q1023 R09/29//95=
201911232130 METAR LRCV 232130Z 07006KT 2500 DZ BR BKN002 OVC006 02/02
                        Q1023 R09/29//95=
201911232200 METAR LRCV 232200Z 06008KT 3000 DZ BR BKN003 OVC007 02/02
                        Q1023 R09/29//95=
201911232230 METAR LRCV 232230Z 05006KT 3000 BR BKN002 OVC008 02/02 Q1023
                        REDZ R09/29//95=
201911232300 METAR LRCV 232300Z 08006KT 5000 BR BKN003 OVC006 02/02 Q1023
                        R09/29//95=
201911232330 METAR COR LRCV 232330Z 07005KT 4500 BR BKN003 OVC008 02/02
                        Q1023 R27/29//95=
201911240000 METAR LRCV 240000Z 10005KT 4000 BR BKN005 OVC008 02/02 Q1022
                        R27/29//95=
201911240030 METAR LRCV 240030Z 09005KT 4500 BR BKN003 OVC005 02/02 Q1022
                        R27/29//95=
201911240100 METAR LRCV 240100Z 08006KT 5000 BR BKN003 OVC006 02/02 Q1022
                        R27/29//95=
201911240130 METAR LRCV 240130Z 10005KT 5000 BR BKN003 OVC006 02/02 Q1022
                        R27/29//95=
201911240200 METAR LRCV 240200Z 09004KT 4500 BR BKN005 OVC008 02/02 Q1022
                        R27/29//95=
201911240230 METAR LRCV 240230Z 10005KT 5000 BR BKN004 OVC008 02/02 Q1022
                        R27/29//95=
201911240300 METAR LRCV 240300Z 09004KT 4500 BR BKN002 BKN006 02/02 Q1022
                        R27/29//95=
201911240330 METAR LRCV 240330Z 10005KT 3000 BR BKN003 OVC005 02/02 Q1022
                        R27/29//95=
201911240400 METAR LRCV 240400Z 11005KT 3000 BR BKN001 OVC003 02/02 Q1021
                        R27/29//95=
201911240430 METAR LRCV 240430Z 12005KT 2500 BR BKN002 OVC004 02/02 Q1022
                        R27/29//95=
201911240500 METAR LRCV 240500Z 13005KT 2000 BR BKN001 OVC003 02/02 Q1022
                        R27/29//95=
201911240530 METAR LRCV 240530Z 13005KT 2000 BR BKN001 OVC003 02/02 Q1022
                        R27/29//95=
201911240600 METAR LRCV 240600Z 09005KT 2000 BR SCT001 OVC004 02/02 Q1022
                        R27/29//95=
201911240630 METAR LRCV 240630Z 11005KT 3000 BR BKN002 OVC004 02/02 Q1022
                        R27/29//95=
201911240700 METAR LRCV 240700Z 10005KT 1500 R27/1500U BR OVC002 03/02
                        Q1022 R27/29//95=
201911240730 METAR LRCV 240730Z 09006KT 1800 BR BKN002 OVC004 03/02 Q1022
                        R27/29//95=
201911240800 METAR LRCV 240800Z 10007KT 2000 BR BKN002 OVC004 03/03 Q1022
                        R27/29//95=
201911240830 METAR LRCV 240830Z 10005KT 3500 BR OVC002 03/03 Q1023 R27/29//95=
201911240900 METAR LRCV 240900Z 09006KT 5000 BR OVC003 03/03 Q1022 R27/29//95=
201911240930 METAR LRCV 240930Z 09008KT 4000 BR SCT001 OVC003 03/03 Q1022
                        R27/29//95=
201911241000 METAR LRCV 241000Z 07007KT 3000 BR OVC003 03/03 Q1022 R27/29//95=
201911241030 METAR LRCV 241030Z 08006KT 5000 BR OVC003 03/03 Q1021 R27/29//95=
201911241100 METAR LRCV 241100Z 08006KT 6000 OVC003 03/03 Q1021 R27/29//95=
201911241130 METAR LRCV 241130Z 07005KT 3000 BR OVC002 04/03 Q1021 R27/29//95=
201911241200 METAR LRCV 241200Z 07005KT 1500 BR BKN001 OVC003 04/03 Q1021
                        R27/29//95=
201911241230 METAR LRCV 241230Z 07004KT 1500 BR SCT001 OVC003 04/03 Q1021
                        R27/29//95=
201911241300 METAR LRCV 241300Z 06006KT 2500 BR BKN002 OVC004 04/04 Q1021
                        R27/29//95=
201911241330 METAR LRCV 241330Z 09007KT 1500 BR BKN002 OVC004 04/04 Q1021
                        R27/29//95=
201911241400 METAR LRCV 241400Z 09006KT 3000 BR SCT002 OVC004 04/04 Q1020
                        R27/29//95=
201911241430 METAR LRCV 241430Z 09008KT 2000 BR FEW001 OVC003 04/04 Q1020
                        R27/29//95=
201911241500 METAR LRCV 241500Z 09007KT 3000 BR BKN002 OVC004 04/04 Q1020
                        R27/29//95=
201911241530 METAR LRCV 241530Z 10006KT 3000 BR BKN002 OVC004 04/04 Q1020
                        R27/29//95=
201911241600 METAR LRCV 241600Z 10006KT 1500 -DZ BR SCT002 OVC004 04/04
                        Q1020 R27/29//95=
201911241630 METAR LRCV 241630Z 10006KT 1500 -RA BR BKN002 OVC004 04/04
                        Q1020 R27/29//95=
201911241700 METAR LRCV 241700Z 07006KT 1500 -RA BR SCT002 OVC004 04/04
                        Q1020 R27/29//95=
201911241730 METAR LRCV 241730Z 09005KT 3000 -RA BR BKN002 OVC004 04/04
                        Q1020 R27/29//95=
201911241800 METAR LRCV 241800Z 08005KT 3000 -DZ BR SCT001 OVC003 05/04
                        Q1020 R27/29//95=
201911241830 METAR LRCV 241830Z 08005KT 2500 -DZ BR SCT001 OVC003 05/04
                        Q1020 R27/29//95=
201911241900 METAR LRCV 241900Z 08005KT 2000 -DZ BR BKN001 OVC003 05/04
                        Q1020 R27/29//95=
201911241930 METAR LRCV 241930Z 06005KT 2500 -DZ BR OVC002 05/05 Q1019
                        R27/29//95=
201911242000 METAR LRCV 242000Z 07005KT 2500 -DZ BR SCT001 OVC003 05/05
                        Q1019 R27/29//95=
201911242030 METAR LRCV 242030Z 07007KT 2500 -DZ BR BKN002 OVC004 05/05
                        Q1019 R27/29//95=
201911242100 METAR LRCV 242100Z 06008KT 2000 -DZ BR BKN001 OVC003 05/05
                        Q1019 R27/29//95=
201911242130 METAR LRCV 242130Z 06008KT 2000 -DZ BR OVC002 05/05 Q1019
                        R27/29//95=
201911242200 METAR LRCV 242200Z 06008KT 3000 -DZ BR BKN001 OVC003 05/05
                        Q1018 R27/29//95=
201911242230 METAR LRCV 242230Z 06007KT 3500 -DZ BR BKN002 OVC005 05/05
                        Q1018 R27/29//95=
201911242300 METAR LRCV 242300Z 07007KT 3500 BR OVC002 06/05 Q1018 R27/29//95=
201911242330 METAR LRCV 242330Z 07007KT 4000 BR OVC002 06/06 Q1018 R27/29//95=
201911250000 METAR LRCV 250000Z 06007KT 2000 BR OVC002 06/06 Q1017 R27/29//95=
201911250030 METAR LRCV 250030Z 09008KT 1500 DZ BR OVC001 06/06 Q1017
                        R27/29//95=
201911250100 METAR LRCV 250100Z 09008KT 2000 -DZ BR BKN001 OVC003 06/06
                        Q1017 REDZ R27/29//95=
201911250130 METAR LRCV 250130Z 09008KT 1500 -DZ BR BKN001 OVC003 06/06
                        Q1017 R27/29//95=
201911250200 METAR LRCV 250200Z 09008KT 1500 -DZ BR OVC002 06/06 Q1016
                        R27/29//95=
201911250230 METAR LRCV 250230Z 09008KT 1500 -DZ BR BKN001 OVC003 06/06
                        Q1016 R27/29//95=
201911250300 METAR LRCV 250300Z 09008KT 1500 -DZ BR BKN001 OVC003 06/06
                        Q1016 R27/29//95=
201911250330 METAR LRCV 250330Z 09009KT 1500 -DZ BR BKN001 OVC003 07/06
                        Q1016 R27/29//95=
201911250400 METAR LRCV 250400Z 08009KT 1000 R27/P2000 -DZ BR BKN001 OVC003
                        07/06 Q1016 R27/29//95=
201911250430 METAR LRCV 250430Z 08010KT 1500 -DZ BR BKN001 OVC003 07/07
                        Q1016 R27/29//95=
201911250500 METAR LRCV 250500Z 08010KT 1500 -DZ BR BKN001 OVC003 07/07
                        Q1016 R27/29//95=
201911250530 METAR LRCV 250530Z 07009KT 1000 R27/P2000 -DZ BR OVC001 07/07
                        Q1016 R27/29//95=
201911250600 METAR LRCV 250600Z 08010KT 1000 R27/P2000 -DZ BR BKN001 OVC003
                        07/07 Q1016 R27/29//95=
201911250630 METAR LRCV 250630Z 08009KT 0800 R09/1100U DZ FG OVC002 07/07
                        Q1016 R27/29//95=
201911250700 METAR LRCV 250700Z 06010KT 1500 R09/1300U DZ BR OVC001 07/07
                        Q1016 R09/29//95=
201911250730 METAR LRCV 250730Z 07011KT 1500 R09/1400N DZ BR OVC002 07/07
                        Q1016 R09/29//95=
201911250800 METAR LRCV 250800Z 07010KT 1500 R09/1300U DZ BR OVC002 07/07
                        Q1016 R09/29//95=
201911250830 METAR LRCV 250830Z 07011KT 1500 R09/1300D DZ BR OVC002 07/07
                        Q1016 R09/29//95=
201911250900 METAR LRCV 250900Z 07010KT 1000 R09/1200N DZ FG OVC002 08/07
                        Q1016 R09/29//95=
201911250930 METAR LRCV 250930Z 09011KT 2000 DZ BR OVC002 08/07 Q1015
                        R27/29//95=
201911251000 METAR LRCV 251000Z 08011KT 2000 -DZ BR OVC002 08/08 Q1015
                        REDZ R27/29//95=
201911251030 METAR LRCV 251030Z 08010KT 2000 BR OVC002 08/08 Q1014 R27/29//95=
201911251100 METAR LRCV 251100Z 08011KT 2000 BR OVC002 08/08 Q1014 R27/29//95=
201911251130 METAR LRCV 251130Z 09013KT 2000 BR OVC002 08/08 Q1014 R27/29//95=
201911251200 METAR LRCV 251200Z 09011KT 2000 DZ BR OVC001 08/08 Q1013
                        R27/29//95=
201911251230 METAR LRCV 251230Z 09011KT 2000 BR OVC002 08/08 Q1013 REDZ
                        R27/29//95=
201911251300 METAR LRCV 251300Z 09012KT 2000 BR OVC001 08/08 Q1013 R27/29//95=
201911251330 METAR COR LRCV 251330Z 09012KT 1500 R27/1900D BR OVC001 08/08
                        Q1013 R27/29//95=
201911251400 METAR LRCV 251400Z 09013KT 1900 BR OVC001 08/08 Q1013 R27/29//95=
201911251430 METAR LRCV 251430Z 08010KT 2000 BR OVC001 08/08 Q1013 R27/29//95=
201911251500 METAR LRCV 251500Z 08012KT 3000 BR OVC002 08/08 Q1013 R27/29//95=
201911251530 METAR LRCV 251530Z 08011KT 5000 BR OVC002 08/08 Q1013 R27/29//95=
201911251600 METAR LRCV 251600Z 09010KT 5000 BR OVC003 08/08 Q1013 R27/29//95=
201911251630 METAR LRCV 251630Z 08013KT 5000 DZ BR OVC003 08/08 Q1013
                        R27/29//95=
201911251700 METAR LRCV 251700Z 07012KT 4500 RA BR BKN004 08/08 Q1013
                        R27/29//95=
201911251730 METAR LRCV 251730Z 07015KT 4700 BR OVC003 08/08 Q1013 RERA
                        R09/29//95=
201911251800 METAR LRCV 251800Z 06016KT 4500 OVC003 08/08 Q1013 R09/29//95=
201911251830 METAR LRCV 251830Z 06014KT 4500 BR OVC003 08/08 Q1013 R09/29//95=
201911251900 METAR LRCV 251900Z 08015KT 5000 BR OVC003 08/08 Q1013 R09/29//95=
201911251930 METAR LRCV 251930Z 06012KT 5000 BR BKN003 OVC005 08/08 Q1013
                        R09/29//95=
201911252000 METAR LRCV 252000Z 06012KT 6000 SCT004 OVC006 08/08 Q1013
                        R09/29//95=
201911252030 METAR LRCV 252030Z 05013KT 7000 BKN004 OVC006 08/08 Q1013
                        R09/29//95=
201911252100 METAR LRCV 252100Z 06012KT 5000 BR OVC006 08/07 Q1013 R09/29//95=
201911252130 METAR LRCV 252130Z 07013KT 6000 BKN006 OVC009 08/07 Q1013
                        R09/29//95=
201911252200 METAR LRCV 252200Z 06012KT 6000 SCT007 OVC009 08/07 Q1013
                        R09/29//95=
201911252230 METAR LRCV 252230Z 06013KT 8000 SCT007 OVC009 08/07 Q1013
                        R09/29//95=
201911252300 METAR LRCV 252300Z 07013KT 8000 SCT009 BKN011 BKN025 08/07
                        Q1013 R09/29//95=
201911252330 METAR LRCV 252330Z 06012KT 8000 BKN008 OVC011 08/07 Q1013
                        R09/29//95=
201911260000 METAR LRCV 260000Z 06011KT 8000 -RA SCT008 OVC010 08/07 Q1013
                        R09/29//95=
201911260030 METAR LRCV 260030Z 05012KT 7000 RA SCT009 OVC011 07/07 Q1013
                        R09/29//95=
201911260100 METAR LRCV 260100Z 05012KT 8000 -RA OVC011 08/07 Q1013 RERA
                        R09/29//95=
201911260130 METAR LRCV 260130Z 05012KT 9000 -DZ SCT020 OVC030 08/07 Q1012
                        R09/29//95=
201911260200 METAR LRCV 260200Z 05012KT 9999 -DZ OVC030 08/06 Q1012 R09/29//95=
201911260230 METAR LRCV 260230Z 05011KT 9000 -DZ OVC033 07/06 Q1012 R09/29//95=
201911260300 METAR LRCV 260300Z 05013KT 9999 -RA OVC040 08/06 Q1012 R09/29//95=
201911260330 METAR LRCV 260330Z 05013KT 9999 -RA OVC040 07/06 Q1012 R09/29//95=
201911260400 METAR LRCV 260400Z 06014KT 9999 -RA OVC035 07/06 Q1012 R09/29//95=
201911260430 METAR LRCV 260430Z 05012KT 9999 -RA OVC036 07/06 Q1012 R09/29//95=
201911260500 METAR LRCV 260500Z 06010KT 9999 -RA BKN032 OVC038 07/06 Q1012
                        R09/29//95=
201911260530 METAR LRCV 260530Z 06008KT 9999 -RA BKN030 OVC035 07/06 Q1013
                        R09/29//95=
201911260600 METAR LRCV 260600Z 07009KT 9999 -RA OVC030 07/06 Q1013 R09/29//95=
201911260630 METAR LRCV 260630Z 07008KT 9999 -RA BKN030 07/06 Q1013 R09/29//95=
201911260700 METAR LRCV 260700Z 08007KT 9999 -RA BKN030 07/06 Q1013 R09/29//95=
201911260730 METAR LRCV 260730Z 08009KT 9999 -RA BKN030 07/06 Q1013 R09/29//95=
201911260800 METAR LRCV 260800Z 08007KT 9999 FEW007 BKN030 07/06 Q1013
                        R09/29//95=
201911260830 METAR LRCV 260830Z 09007KT 9999 FEW005 SCT030 BKN047 07/06
                        Q1013 R09/29//95=
201911260900 METAR LRCV 260900Z 09008KT 9999 BKN006 BKN045 07/06 Q1014
                        R09/29//95=
201911260930 METAR LRCV 260930Z 07007KT 9999 BKN006 BKN048 07/06 Q1014
                        R09/29//95=
201911261000 METAR LRCV 261000Z 08007KT 9999 SCT006 BKN010 07/06 Q1013
                        R09/29//95=
201911261030 METAR LRCV 261030Z 09006KT 9999 FEW006 SCT010 BKN013 08/06
                        Q1013 R09/29//95=
201911261100 METAR LRCV 261100Z 05004KT 9999 SCT010 BKN014 08/06 Q1013
                        R09/29//95=
201911261130 METAR LRCV 261130Z 05004KT 9999 SCT010 BKN016 08/06 Q1013
                        R09/29//95=
201911261200 METAR LRCV 261200Z 06004KT 9999 SCT010 BKN014 08/05 Q1013
                        R09/29//95=
201911261230 METAR LRCV 261230Z 07003KT 030V100 9999 BKN014 08/05 Q1013
                        R09/29//95=
201911261300 METAR LRCV 261300Z 09003KT 040V120 9999 SCT012 BKN015 08/05
                        Q1013 R09/29//95=
201911261330 METAR LRCV 261330Z VRB01KT 9999 SCT012 SCT045 08/05 Q1013
                        R09/29//95=
201911261400 METAR LRCV 261400Z 15003KT 9999 FEW014 08/06 Q1013 R09/29//95=
201911261430 METAR LRCV 261430Z 15003KT CAVOK 07/06 Q1013 R09/29//95=
201911261500 METAR LRCV 261500Z 16003KT CAVOK 07/06 Q1013 R09/29//95=
201911261530 METAR LRCV 261530Z 19003KT CAVOK 07/06 Q1013 R09/29//95=
201911261600 METAR LRCV 261600Z 17003KT CAVOK 06/06 Q1013 R09/29//95=
201911261630 METAR LRCV 261630Z 17003KT CAVOK 06/05 Q1013 R09/29//95=
201911261700 METAR LRCV 261700Z 17003KT CAVOK 06/05 Q1013 R09/29//95=
201911261730 METAR LRCV 261730Z 18003KT CAVOK 06/05 Q1014 R09/29//95=
201911261800 METAR LRCV 261800Z 16003KT 9999 SCT009 06/05 Q1014 R09/29//95=
201911261830 METAR LRCV 261830Z 18003KT 9000 OVC010 06/05 Q1014 R09/29//95=
201911261900 METAR LRCV 261900Z 18002KT 7000 OVC011 06/06 Q1014 R09/29//95=
201911261930 METAR LRCV 261930Z 20002KT 7000 FEW007 OVC011 06/06 Q1014
                        R09/29//95=
201911262000 METAR LRCV 262000Z 20002KT 6000 FEW005 OVC010 06/06 Q1014
                        R09/29//95=
201911262030 METAR LRCV 262030Z 16003KT 6000 FEW005 BKN010 06/06 Q1014
                        R09/29//95=
201911262100 METAR LRCV 262100Z VRB02KT 7000 OVC009 06/06 Q1014 R27/29//95=
201911262130 METAR LRCV 262130Z 15003KT 7000 OVC009 06/06 Q1014 R27/29//95=
201911262200 METAR LRCV 262200Z 18002KT 6000 OVC010 06/06 Q1014 R27/19//95=
201911262230 METAR LRCV 262230Z 17002KT 5000 BR OVC009 06/06 Q1014 R27/19//95=
201911262300 METAR LRCV 262300Z 00000KT 5000 BR OVC006 06/06 Q1013 R27/19//95=
201911262330 METAR LRCV 262330Z 19002KT 6000 OVC003 06/06 Q1013 R27/19//95=
201911270000 METAR LRCV 270000Z 00000KT 6000 OVC003 06/06 Q1013 R27/19//95=
201911270030 METAR LRCV 270030Z VRB01KT 5000 BR OVC003 06/06 Q1013 R27/19//95=
201911270100 METAR LRCV 270100Z 00000KT 5000 BR OVC003 06/06 Q1013 R27/19//95=
201911270130 METAR LRCV 270130Z 25003KT 4500 BR BKN003 OVC011 06/06 Q1013
                        R27/19//95=
201911270200 METAR LRCV 270200Z 25002KT 5000 BR SCT003 OVC011 06/06 Q1013
                        R27/19//95=
201911270230 METAR LRCV 270230Z 22005KT 3000 BR OVC006 06/06 Q1013 R27/19//95=
201911270300 METAR LRCV 270300Z 26003KT 230V290 3000 BR OVC015 06/06 Q1013
                        R27/19//95=
201911270330 METAR LRCV 270330Z 24003KT 3000 BR FEW002 OVC014 06/06 Q1012
                        R27/19//95=
201911270400 METAR LRCV 270400Z 25003KT 4000 BR FEW002 OVC014 06/06 Q1013
                        R27/19//95=
201911270430 METAR LRCV 270430Z 00000KT 4900 BR OVC014 06/06 Q1012 R27/19//95=
201911270500 METAR LRCV 270500Z 24003KT 5000 BR FEW002 OVC013 06/06 Q1013
                        R27/19//95=
201911270530 METAR LRCV 270530Z VRB02KT 3000 BR FEW002 OVC013 06/06 Q1013
                        R27/19//95=
201911270600 METAR LRCV 270600Z 00000KT 2000 BR SCT002 OVC013 06/06 Q1013
                        R27/19//95=
201911270630 METAR LRCV 270630Z VRB02KT 1800 BR BKN003 OVC011 06/06 Q1013
                        R27/19//95=
201911270700 METAR LRCV 270700Z 36002KT 2500 BR BKN002 OVC011 06/06 Q1013
                        R27/19//95=
201911270730 METAR LRCV 270730Z VRB01KT 3500 BR BKN003 OVC011 06/06 Q1013
                        R27/19//95=
201911270800 METAR LRCV 270800Z VRB02KT 4500 BR BKN004 OVC009 07/05 Q1013
                        R27/19//95=
201911270830 METAR LRCV 270830Z 30002KT 270V020 5000 BR BKN009 OVC011
                        07/05 Q1013 R27/19//95=
201911270900 METAR LRCV 270900Z 30003KT 270V330 6000 BKN007 OVC011 07/05
                        Q1013 R27/19//95=
201911270930 METAR LRCV 270930Z 29003KT 6000 BKN008 OVC010 07/05 Q1013
                        R27/19//95=
201911271000 METAR LRCV 271000Z 31003KT 280V340 6000 BKN008 OVC010 07/05
                        Q1013 R27/19//95=
201911271030 METAR LRCV 271030Z 31003KT 5000 BR BKN008 OVC011 07/05 Q1013
                        R27/19//95=
201911271100 METAR LRCV 271100Z 00000KT 5000 BR BKN009 OVC011 07/05 Q1012
                        R27/19//95=
201911271130 METAR LRCV 271130Z VRB02KT 6000 OVC010 07/05 Q1012 R27/19//95=
201911271200 METAR LRCV 271200Z VRB01KT 6000 OVC010 07/05 Q1012 R27/19//95=
201911271230 METAR LRCV 271230Z VRB02KT 6000 BKN010 OVC014 07/05 Q1012
                        R27/19//95=
201911271300 METAR LRCV 271300Z 34001KT 7000 OVC012 08/05 Q1012 R27/19//95=
201911271330 METAR LRCV 271330Z 00000KT 6000 BKN011 OVC014 08/05 Q1011
                        R27/19//95=
201911271400 METAR LRCV 271400Z 11003KT 8000 OVC012 07/05 Q1012 R27/19//95=
201911271430 METAR LRCV 271430Z VRB02KT 8000 OVC012 07/05 Q1012 R27/19//95=
201911271500 METAR LRCV 271500Z VRB02KT 8000 OVC012 07/05 Q1012 R27/19//95=
201911271530 METAR LRCV 271530Z VRB02KT 8000 OVC011 07/05 Q1012 R27/19//95=
201911271600 METAR LRCV 271600Z 00000KT 7000 OVC011 07/05 Q1012 R27/19//95=
201911271630 METAR LRCV 271630Z VRB02KT 6000 OVC010 07/05 Q1012 R27/19//95=
201911271700 METAR LRCV 271700Z VRB02KT 6000 OVC010 07/05 Q1012 R27/19//95=
201911271730 METAR LRCV 271730Z 00000KT 6000 OVC010 07/05 Q1012 R27/19//95=
201911271800 METAR LRCV 271800Z VRB01KT 8000 OVC010 07/05 Q1012 R27/19//95=
201911271830 METAR LRCV 271830Z 26003KT 200V290 8000 BKN009 OVC011 07/05
                        Q1012 R27/19//95=
201911271900 METAR LRCV 271900Z VRB02KT 8000 BKN009 OVC011 07/05 Q1012
                        R27/19//95=
201911271930 METAR LRCV 271930Z 32002KT 8000 BKN009 OVC011 07/05 Q1012
                        R27/19//95=
201911272000 METAR LRCV 272000Z 07003KT 040V100 8000 OVC010 07/05 Q1012
                        R27/19//95=
201911272030 METAR LRCV 272030Z VRB02KT 8000 OVC010 07/05 Q1012 R27/19//95=
201911272100 METAR LRCV 272100Z 34003KT 300V030 8000 OVC010 07/05 Q1012
                        R27/19//95=
201911272130 METAR LRCV 272130Z VRB01KT 8000 OVC009 07/05 Q1012 R27/19//95=
201911272200 METAR LRCV 272200Z 03001KT 6000 OVC009 07/05 Q1012 R27/19//95=
201911272230 METAR LRCV 272230Z VRB02KT 6000 OVC008 07/05 Q1012 R27/19//95=
201911272300 METAR LRCV 272300Z 00000KT 5000 BR OVC008 07/05 Q1012 R27/19//95=
201911272330 METAR LRCV 272330Z 00000KT 5000 BR OVC008 07/05 Q1011 R27/19//95=
201911280000 METAR LRCV 280000Z VRB01KT 5000 BR OVC008 06/05 Q1011 R27/19//95=
201911280030 METAR LRCV 280030Z 06004KT 5000 BR OVC009 06/05 Q1011 R27/19//95=
201911280100 METAR LRCV 280100Z 10003KT 060V130 5000 BR BKN008 OVC010
                        06/05 Q1011 R27/19//95=
201911280130 METAR LRCV 280130Z VRB02KT 5000 BR OVC010 06/05 Q1011 R27/19//95=
201911280200 METAR LRCV 280200Z 00000KT 5000 BR OVC010 06/05 Q1011 R27/19//95=
201911280230 METAR LRCV 280230Z 15002KT 5000 -DZ BR OVC010 06/05 Q1011
                        R27/19//95=
201911280300 METAR LRCV 280300Z 14002KT 5000 BR OVC010 06/05 Q1011 R27/19//95=
201911280330 METAR LRCV 280330Z 10002KT 5000 BR BKN008 OVC010 06/05 Q1010
                        R27/19//95=
201911280400 METAR LRCV 280400Z 11003KT 5000 BR SCT005 OVC009 06/05 Q1010
                        R27/19//95=
201911280430 METAR LRCV 280430Z VRB02KT 5000 -RADZ BR OVC009 06/05 Q1010
                        R27/19//95=
201911280500 METAR LRCV 280500Z 00000KT 5000 BR BKN008 OVC011 06/05 Q1011
                        R27/19//95=
201911280530 METAR LRCV 280530Z 11002KT 4000 -DZ BR BKN010 OVC047 06/05
                        Q1010 R27/19//95=
201911280600 METAR LRCV 280600Z 12003KT 3000 -DZ BR FEW005 BKN010 06/05
                        Q1010 R27/19//95=
201911280630 METAR COR LRCV 280630Z 18003KT 140V210 3000 BR BKN004 BKN010
                        06/05 Q1011 R27/19//95=
201911280700 METAR COR LRCV 280700Z 23004KT 1500 BR OVC004 06/05 Q1011
                        R27/19//95=
201911280730 METAR LRCV 280730Z VRB01KT 2000 BR OVC003 06/05 Q1011 R27/19//95=
201911280800 METAR LRCV 280800Z VRB01KT 3000 BR OVC003 06/06 Q1010 R27/19//95=
201911280830 METAR LRCV 280830Z VRB01KT 5000 BR OVC005 07/06 Q1010 R27/19//95=
201911280900 METAR LRCV 280900Z 06003KT 010V110 7000 OVC006 07/06 Q1010
                        R27/19//95=
201911280930 METAR LRCV 280930Z VRB02KT 8000 OVC007 08/06 Q1010 R27/19//95=
201911281000 METAR LRCV 281000Z 04003KT 350V100 9999 OVC008 08/06 Q1010
                        R27/19//95=
201911281030 METAR LRCV 281030Z VRB02KT 9999 OVC008 08/06 Q1009 R27/19//95=
201911281100 METAR LRCV 281100Z VRB02KT 9999 OVC009 08/06 Q1009 R27/19//95=
201911281130 METAR LRCV 281130Z VRB02KT 9999 OVC009 08/06 Q1009 R27/19//95=
201911281200 METAR LRCV 281200Z VRB02KT 9999 OVC009 08/06 Q1009 R27/19//95=
201911281230 METAR LRCV 281230Z VRB02KT 9999 OVC008 08/06 Q1009 R27/19//95=
201911281300 METAR LRCV 281300Z VRB01KT 9999 OVC008 08/06 Q1008 R27/19//95=
201911281330 METAR LRCV 281330Z 06003KT 030V120 9999 BKN008 08/06 Q1008
                        R27/19//95=
201911281400 METAR LRCV 281400Z VRB02KT 9999 BKN008 08/06 Q1008 R27/19//95=
201911281430 METAR LRCV 281430Z VRB01KT 9999 BKN008 08/06 Q1008 R27/19//95=
201911281500 METAR LRCV 281500Z 22003KT 200V270 8000 NSC 08/06 Q1008 R27/19//95=
201911281530 METAR LRCV 281530Z 24004KT 210V270 6000 -RA BKN008 08/06
                        Q1008 R27/19//95=
201911281600 METAR LRCV 281600Z 27004KT 3500 -DZ BR OVC008 07/07 Q1008
                        R27/19//95=
201911281630 METAR LRCV 281630Z 11003KT 3500 RA BR SCT007 07/07 Q1007
                        R27/19//95=
201911281700 METAR LRCV 281700Z 21004KT 4000 -RA BR BKN005 07/07 Q1007
                        RERA R27/19//95=
201911281730 METAR LRCV 281730Z 00000KT 3500 RA BR BKN003 07/07 Q1007
                        R27/19//95=
201911281800 METAR COR LRCV 281800Z VRB02KT 3500 -RA BR BKN004 OVC029
                        07/07 Q1007 RERA R27/19//95=
201911281830 METAR LRCV 281830Z 04005KT 2000 -RA BR FEW001 BKN026 07/07
                        Q1006 R27/19//95=
201911281900 METAR LRCV 281900Z 30004KT 2200 -RA BR SCT002 BKN004 07/07
                        Q1006 R27/19//95=
201911281930 METAR LRCV 281930Z 33004KT 2000 -RA BR SCT002 BKN004 07/07
                        Q1006 R27/19//95=
201911282000 METAR LRCV 282000Z 30005KT 2000 -RA BR FEW001 SCT004 07/07
                        Q1006 R27/19//95=
201911282030 METAR LRCV 282030Z 31007KT 1500 BR OVC003 07/07 Q1006 R27/19//95=
201911282100 METAR LRCV 282100Z 32004KT 1500 -RA BR BKN001 OVC003 07/07
                        Q1006 R27/19//95=
201911282130 METAR LRCV 282130Z 07002KT 020V100 2000 -RA BR FEW001 07/07
                        Q1006 R27/19//95=
201911282200 METAR LRCV 282200Z 15003KT 100V240 2000 -RA BR FEW034 07/07
                        Q1006 R27/19//95=
201911282230 METAR LRCV 282230Z 33003KT 2000 -RA BR FEW035 07/07 Q1005
                        R27/19//95=
201911282300 METAR LRCV 282300Z 01002KT 2000 BR OVC050 07/07 Q1005 R27/19//95=
201911282330 METAR LRCV 282330Z 08002KT 010V120 2000 -RA BR FEW031 BKN050
                        07/07 Q1005 R27/19//95=
201911290000 METAR COR LRCV 290000Z 29008KT 1000 R27/1500U -RA FG VV001
                        07/07 Q1005 R27/19//95=
201911290030 METAR LRCV 290030Z VRB02KT 2000 -RA BR VV002 07/07 Q1004
                        R27/19//95=
201911290100 METAR LRCV 290100Z 28006KT 0500 R27/0650N FG VV002 07/07
                        Q1005 R27/19//95=
201911290130 METAR LRCV 290130Z 31005KT 0800 R27/0900D FG VV001 07/07
                        Q1005 R27/19//95=
201911290200 METAR LRCV 290200Z 30006KT 2000 BR OVC001 07/07 Q1005 R27/19//95=
201911290230 METAR LRCV 290230Z 30007KT 2000 BR VV002 07/07 Q1005 R27/19//95=
201911290300 METAR LRCV 290300Z 27006KT 2000 BR VV002 07/07 Q1005 R27/19//95=
201911290330 METAR LRCV 290330Z 26005KT 2300 BR OVC002 07/07 Q1005 R27/19//95=
201911290400 METAR LRCV 290400Z AUTO 26006KT 1400 R09/1000D FG VV002 07/07
                        Q1005=
201911290430 METAR LRCV 290430Z 26006KT 1700 FG VV001 07/07 Q1005 R27/19//95=
201911290500 METAR LRCV 290500Z 25006KT 1800 BR VV001 07/07 Q1005 R27/19//95=
201911290530 METAR LRCV 290530Z 26006KT 2200 BR VV001 06/06 Q1005 R27/19//95=
201911290600 METAR LRCV 290600Z 28005KT 0600 R27/0750N FG VV002 06/06
                        Q1005 R27/19//95=
201911290630 METAR LRCV 290630Z 26007KT 0250 R27/0450N FG VV001 06/06
                        Q1006 R27/19//95=
201911290700 METAR LRCV 290700Z 26005KT 0200 R27/0400N FG VV001 07/06
                        Q1005 R27/19//95=
201911290730 METAR LRCV 290730Z 26010KT 0250 R27/0750U FG VV001 07/06
                        Q1006 R27/19//95=
201911290800 METAR LRCV 290800Z 26009KT 4000 BR SCT003 07/07 Q1006 R27/19//95=
201911290830 METAR LRCV 290830Z 27009KT 9000 FEW005 09/08 Q1006 R27/19//95=
201911290900 METAR LRCV 290900Z 28008KT 9999 FEW010 10/08 Q1006 R27/19//95=
201911290930 METAR LRCV 290930Z 28009KT 9999 FEW010 12/09 Q1006 R27/CLRD//=
201911291000 METAR LRCV 291000Z 31005KT 270V010 9999 FEW015 11/09 Q1006=
201911291030 METAR LRCV 291030Z 32004KT 270V010 CAVOK 12/09 Q1006=
201911291100 METAR LRCV 291100Z 31005KT 250V360 9999 SCT019 13/09 Q1006=
201911291130 METAR LRCV 291130Z 29015KT 9999 SCT021 14/09 Q1006=
201911291200 METAR LRCV 291200Z 28016KT 9999 SCT022 13/09 Q1006=
201911291230 METAR LRCV 291230Z 28013KT 9999 BKN030 13/09 Q1006=
201911291300 METAR LRCV 291300Z 28016KT 9999 SCT030 13/09 Q1006 R27/19//95=
201911291330 METAR LRCV 291330Z 27014KT 9999 -SHRA SCT025 FEW030CB 12/09
                        Q1007 R27/19//95=
201911291400 METAR LRCV 291400Z 29012KT 9999 -SHRA SCT023 FEW030CB 12/09
                        Q1007 R27/19//95=
201911291430 METAR LRCV 291430Z 28009KT 9999 FEW028 FEW035CB 11/09 Q1007
                        R27/19//95=
201911291500 METAR LRCV 291500Z 28010KT 9999 FEW030 11/08 Q1007 R27/19//95=
201911291530 METAR LRCV 291530Z 27011KT CAVOK 10/08 Q1008 R27/19//95=
201911291600 METAR LRCV 291600Z 29011KT CAVOK 11/08 Q1008 R27/19//95=
201911291630 METAR LRCV 291630Z 28010KT CAVOK 10/07 Q1008 R27/19//95=
201911291700 METAR LRCV 291700Z 26008KT CAVOK 10/07 Q1008 R27/19//95=
201911291730 METAR LRCV 291730Z 27012KT CAVOK 10/07 Q1008 R27/19//95=
201911291800 METAR LRCV 291800Z 26010KT CAVOK 10/07 Q1008 R27/19//95=
201911291830 METAR LRCV 291830Z 27012KT CAVOK 10/07 Q1008 R27/19//95=
201911291900 METAR LRCV 291900Z 30010KT CAVOK 09/07 Q1009 R27/19//95=
201911291930 METAR LRCV 291930Z 30006KT CAVOK 08/06 Q1009 R27/19//95=
201911292000 METAR LRCV 292000Z 30006KT CAVOK 07/06 Q1009 R27/19//95=
201911292030 METAR LRCV 292030Z 29008KT CAVOK 08/07 Q1009 R27/19//95=
201911292100 METAR LRCV 292100Z 31006KT CAVOK 08/07 Q1009 R27/19//95=
201911292130 METAR LRCV 292130Z 30007KT CAVOK 07/06 Q1010 R27/19//95=
201911292200 METAR LRCV 292200Z 30007KT CAVOK 07/06 Q1009 R27/19//95=
201911292230 METAR LRCV 292230Z 31006KT CAVOK 07/06 Q1009 R27/19//95=
201911292300 METAR LRCV 292300Z 29005KT CAVOK 06/06 Q1009 R27/19//95=
201911292330 METAR LRCV 292330Z 28006KT CAVOK 06/05 Q1009 R27/19//95=
201911300000 METAR LRCV 300000Z 28004KT 5000 BR NSC 06/05 Q1009 R27/19//95=
201911300030 METAR LRCV 300030Z 25005KT 7000 NSC 05/04 Q1010 R27/19//95=
201911300100 METAR LRCV 300100Z 27001KT 6000 MIFG NSC 06/06 Q1010 R27/19//95=
201911300130 METAR LRCV 300130Z 36002KT 5000 R27/1700D BR MIFG NSC 04/04
                        Q1009 R27/19//95=
201911300200 METAR LRCV 300200Z 36005KT 5000 BR MIFG NSC 05/05 Q1008 R27/19//95=
201911300230 METAR LRCV 300230Z 04004KT 5000 BR NSC 04/04 Q1009 R27/19//95=
201911300300 METAR LRCV 300300Z 26005KT 0300 R27/0400N FG VV001 05/05
                        Q1009 R27/19//95=
201911300330 METAR LRCV 300330Z 24006KT 1500 BR FEW001 SCT003 06/06 Q1009
                        R27/19//95=
201911300400 METAR LRCV 300400Z VRB01KT 4500 BR SCT006 06/06 Q1009 R27/19//95=
201911300430 METAR LRCV 300430Z 00000KT 6000 NSC 05/05 Q1009 R27/19//95=
201911300500 METAR LRCV 300500Z 05003KT 3000 BR FEW050 05/05 Q1010 R27/19//95=
201911300530 METAR LRCV 300530Z 29003KT 2000 -RA BR BKN045 OVC049 06/06
                        Q1010 R27/19//95=
201911300600 METAR LRCV 300600Z 29002KT 2000 -RA BR BKN045 OVC049 06/06
                        Q1010 R27/19//95=
201911300630 METAR LRCV 300630Z 30004KT 2500 -RA BR FEW035 SCT040 BKN045
                        07/06 Q1010 R27/19//95=
201911300700 METAR LRCV 300700Z 29007KT 4000 -RA BR SCT040 OVC048 07/07
                        Q1010 R27/19//95=
201911300730 METAR LRCV 300730Z VRB02KT 4000 RA BR SCT035 OVC048 07/07
                        Q1011 R27/19//95=
201911300800 METAR COR LRCV 300800Z 32004KT 290V350 4500 RA BR SCT034
                        OVC048 08/08 Q1011 R27/29//95=
201911300830 METAR LRCV 300830Z 27007KT 1200 R09/1800U RA BR SCT001 BKN015
                        OVC042 08/08 Q1011 R27/29//95=
201911300900 METAR LRCV 300900Z 27006KT 1400 R09/1600D RA BR SCT002 OVC043
                        07/07 Q1011 R27/29//95=
201911300930 METAR LRCV 300930Z 29007KT 1000 R09/1100U RA BR SCT001 BKN007
                        OVC033 08/08 Q1011 R27/29//95=
201911301000 METAR LRCV 301000Z 28008KT 1500 RA BR BKN001 BKN007 OVC030
                        08/07 Q1012 R27/29//95=
201911301030 METAR LRCV 301030Z 28007KT 1500 RA BR BKN001 BKN003 OVC030
                        07/07 Q1012 R27/29//95=
201911301100 METAR LRCV 301100Z 31007KT 3500 RA BR SCT001 BKN003 OVC030
                        07/07 Q1012 R27/29//95=
201911301130 METAR LRCV 301130Z 30008KT 4000 -RA BR BKN002 OVC026 08/07
                        Q1012 RERA R27/29//95=
201911301200 METAR LRCV 301200Z 30008KT 4000 DZ BR SCT003 SCT030 OVC043
                        08/08 Q1012 R27/29//95=
201911301230 METAR LRCV 301230Z 30007KT 2200 -RA BR SCT001 BKN025 OVC035
                        08/08 Q1013 REDZ R27/29//95=
201911301300 METAR LRCV 301300Z 29014KT 9999 SCT005 BKN019 07/04 Q1013
                        R27/29//95=
201911301330 METAR LRCV 301330Z 29015KT 9999 FEW008 SCT023 BKN039 07/03
                        Q1013 R27/29//95=
201911301400 METAR LRCV 301400Z 29018KT 9999 FEW030 SCT040 07/02 Q1014
                        R27/29//95=
201911301430 METAR LRCV 301430Z 28013KT 9999 FEW045 06/01 Q1014 R27/29//95=
201911301500 METAR LRCV 301500Z 29017KT 9999 SCT040 06/01 Q1014 R27/29//95=
201911301530 METAR LRCV 301530Z 29018KT 9999 BKN040 05/00 Q1015 R27/29//95=
201911301600 METAR LRCV 301600Z 27014KT 9999 SCT043 05/M00 Q1015 R27/29//95=
201911301630 METAR LRCV 301630Z 29014KT 9999 FEW045 05/M00 Q1015 R27/29//95=
201911301700 METAR LRCV 301700Z 28014KT CAVOK 04/M00 Q1016 R27/29//95=
201911301730 METAR LRCV 301730Z 26011KT CAVOK 04/M00 Q1016 R27/29//95=
201911301800 METAR LRCV 301800Z 28013KT CAVOK 04/M00 Q1017 R27/29//95=
201911301830 METAR LRCV 301830Z 28013KT CAVOK 04/M00 Q1017 R27/29//95=
201911301900 METAR LRCV 301900Z 28012KT 9999 SCT045 05/M00 Q1017 R27/29//95=
201911301930 METAR LRCV 301930Z 29014KT 9999 BKN044 04/M01 Q1018 R27/29//95=
201911302000 METAR LRCV 302000Z 29014KT 9999 SCT049 04/M01 Q1018 R27/29//95=
201911302030 METAR LRCV 302030Z 28013KT CAVOK 03/M01 Q1018 R27/29//95=
201911302100 METAR LRCV 302100Z 29011KT CAVOK 03/M01 Q1018 R27/19//95=
201911302130 METAR LRCV 302130Z 28009KT CAVOK 02/M01 Q1019 R27/19//95=
201911302200 METAR LRCV 302200Z 28011KT CAVOK 02/M01 Q1019 R27/19//95=
201911302230 METAR LRCV 302230Z 28014KT CAVOK 02/M02 Q1020 R27/19//95=
201911302300 METAR LRCV 302300Z 27012KT CAVOK 01/M02 Q1020 R27/19//95=
201911302330 METAR LRCV 302330Z 27012KT CAVOK 01/M02 Q1020 R27/19//95=