201912010000 METAR LRCV 010000Z 27011KT CAVOK 01/M02 Q1020 R27/19//95=
201912010030 METAR LRCV 010030Z 27010KT CAVOK 01/M02 Q1020 R27/19//95=
201912010100 METAR LRCV 010100Z 28011KT CAVOK 00/M02 Q1020 R27/19//95=
201912010130 METAR LRCV 010130Z 28011KT CAVOK 00/M02 Q1021 R27/19//95=
201912010200 METAR LRCV 010200Z 28010KT CAVOK 00/M02 Q1021 R27/19//95=
201912010230 METAR LRCV 010230Z 28008KT CAVOK M01/M02 Q1021 R27/19//95=
201912010300 METAR LRCV 010300Z 29008KT CAVOK M01/M02 Q1021 R27/19//95=
201912010330 METAR LRCV 010330Z 34004KT CAVOK M00/M02 Q1021 R27/19//95=
201912010400 METAR LRCV 010400Z 33004KT CAVOK M01/M02 Q1022 R27/19//95=
201912010430 METAR LRCV 010430Z 31006KT 9999 FEW015 M01/M02 Q1022 R27/19//95=
201912010500 METAR LRCV 010500Z 30006KT 9999 BKN013 00/M02 Q1022 R27/19//95=
201912010530 METAR LRCV 010530Z 29006KT 9999 BKN013 00/M02 Q1023 R27/19//95=
201912010600 METAR LRCV 010600Z 29007KT 9999 BKN012 00/M01 Q1023 R27/19//95=
201912010630 METAR LRCV 010630Z 31006KT 9999 BKN011 01/M01 Q1023 R27/19//95=
201912010700 METAR LRCV 010700Z 32004KT 9999 BKN011 01/M00 Q1024 R27/19//95=
201912010730 METAR LRCV 010730Z 31004KT 9999 SCT011 BKN014 02/00 Q1024
                        R27/19//95=
201912010800 METAR LRCV 010800Z VRB02KT 9999 SCT010 BKN015 02/01 Q1025
                        R27/19//95=
201912010830 METAR LRCV 010830Z 10005KT 9999 SCT009 BKN011 03/01 Q1025
                        R27/19//95=
201912010900 METAR LRCV 010900Z 10005KT 9999 BKN010 BKN014 03/01 Q1025
                        R27/19//95=
201912010930 METAR LRCV 010930Z 10005KT 9999 BKN010 BKN014 03/01 Q1025
                        R27/19//95=
201912011000 METAR LRCV 011000Z 10005KT 070V130 9999 BKN011 BKN015 03/01
                        Q1025 R27/19//95=
201912011030 METAR LRCV 011030Z 10004KT 9999 SCT012 BKN016 03/01 Q1025
                        R27/19//95=
201912011100 METAR COR LRCV 011100Z 07005KT 030V100 9999 SCT012 BKN022
                        04/01 Q1025 R27/19//95=
201912011130 METAR LRCV 011130Z 06005KT 9999 SCT015 BKN020 04/01 Q1025
                        R27/19//95=
201912011200 METAR LRCV 011200Z 09006KT 9999 BKN014 BKN019 03/01 Q1025
                        R27/19//95=
201912011230 METAR LRCV 011230Z 07006KT 030V100 9999 BKN013 03/M00 Q1026
                        R27/19//95=
201912011300 METAR LRCV 011300Z 05007KT 9999 BKN015 03/M00 Q1026 R27/19//95=
201912011330 METAR LRCV 011330Z 08003KT 9999 SCT018 BKN022 03/M00 Q1026
                        R27/19//95=
201912011400 METAR LRCV 011400Z 09004KT 060V120 9999 BKN020 03/M00 Q1026
                        R27/19//95=
201912011430 METAR LRCV 011430Z 08004KT 9999 SCT021 02/00 Q1026 R27/19//95=
201912011500 METAR LRCV 011500Z 06004KT 9999 FEW022 01/00 Q1026 R27/19//95=
201912011530 METAR LRCV 011530Z 09005KT CAVOK 01/M00 Q1026 R27/19//95=
201912011600 METAR LRCV 011600Z 08005KT CAVOK M00/M01 Q1026 R27/19//95=
201912011630 METAR LRCV 011630Z 08005KT CAVOK M00/M01 Q1027 R27/19//95=
201912011700 METAR LRCV 011700Z 08005KT CAVOK M01/M01 Q1027 R27/19//95=
201912011730 METAR LRCV 011730Z 07005KT CAVOK M01/M01 Q1027 R27/19//95=
201912011800 METAR LRCV 011800Z 06005KT CAVOK M01/M01 Q1027 R27/19//95=
201912011830 METAR LRCV 011830Z 05006KT CAVOK M00/M01 Q1027 R27/19//95=
201912011900 METAR LRCV 011900Z 05004KT CAVOK M01/M02 Q1027 R27/19//95=
201912011930 METAR LRCV 011930Z 05005KT 9999 SCT023 M01/M02 Q1027 R27/19//95=
201912012000 METAR LRCV 012000Z 07007KT 9999 FEW024 M01/M02 Q1027 R27/19//95=
201912012030 METAR LRCV 012030Z 07005KT CAVOK M01/M02 Q1027 R27/19//95=
201912012100 METAR LRCV 012100Z 07007KT 9999 FEW022 M01/M02 Q1027 R27/19//95=
201912012130 METAR LRCV 012130Z 08006KT 9999 BKN020 M01/M02 Q1027 R27/19//95=
201912012200 METAR LRCV 012200Z 08007KT 9999 BKN022 M01/M02 Q1027 R27/CLRD//=
201912012230 METAR COR LRCV 012230Z 08006KT 9999 SCT023 M01/M02 Q1027
                        R27/CLRD//=
201912012300 METAR LRCV 012300Z 08004KT 9999 BKN024 M01/M02 Q1027 R27/CLRD//=
201912012330 METAR LRCV 012330Z 08005KT 9999 SCT024 M01/M02 Q1026 R27/CLRD//=
201912020000 METAR COR LRCV 020000Z 06003KT 9999 FEW023 M01/M02 Q1026=
201912020030 METAR LRCV 020030Z 07004KT 9999 FEW026 M01/M02 Q1026=
201912020100 METAR LRCV 020100Z 05003KT 9999 NSC M01/M02 Q1026=
201912020130 METAR LRCV 020130Z 03002KT 9999 NSC M01/M02 Q1026=
201912020200 METAR LRCV 020200Z 07005KT 9999 NSC M02/M02 Q1025=
201912020230 METAR COR LRCV 020230Z 06004KT CAVOK M01/M02 Q1025=
201912020300 METAR LRCV 020300Z 06004KT CAVOK M01/M02 Q1025=
201912020330 METAR LRCV 020330Z 04005KT CAVOK M01/M02 Q1025=
201912020400 METAR LRCV 020400Z 06005KT CAVOK M01/M02 Q1025=
201912020430 METAR LRCV 020430Z 05003KT CAVOK M02/M02 Q1024=
201912020500 METAR LRCV 020500Z 05004KT CAVOK M02/M02 Q1025=
201912020530 METAR LRCV 020530Z 06005KT CAVOK M02/M02 Q1024=
201912020600 METAR LRCV 020600Z 06007KT CAVOK M01/M02 Q1024=
201912020630 METAR LRCV 020630Z 06006KT CAVOK M00/M01 Q1024=
201912020700 METAR LRCV 020700Z 07005KT CAVOK 00/M01 Q1024=
201912020730 METAR LRCV 020730Z 08005KT CAVOK 01/M01 Q1023=
201912020800 METAR LRCV 020800Z 08007KT CAVOK 01/M01 Q1023=
201912020830 METAR LRCV 020830Z 09006KT CAVOK 01/M01 Q1023=
201912020900 METAR LRCV 020900Z 09007KT CAVOK 02/M00 Q1023=
201912020930 METAR LRCV 020930Z 09007KT CAVOK 03/M00 Q1022=
201912021000 METAR LRCV 021000Z 08006KT CAVOK 03/M00 Q1021=
201912021030 METAR LRCV 021030Z 10007KT CAVOK 03/M00 Q1021=
201912021100 METAR LRCV 021100Z 10006KT 050V130 CAVOK 04/M01 Q1020=
201912021130 METAR LRCV 021130Z 10005KT 080V140 CAVOK 04/M00 Q1020=
201912021200 METAR LRCV 021200Z 11004KT 080V140 CAVOK 04/M01 Q1020=
201912021230 METAR LRCV 021230Z 10003KT 060V140 CAVOK 04/M01 Q1019=
201912021300 METAR LRCV 021300Z VRB02KT CAVOK 05/M01 Q1019=
201912021330 METAR LRCV 021330Z VRB01KT CAVOK 04/M01 Q1019=
201912021400 METAR LRCV 021400Z 12003KT CAVOK 04/M00 Q1018=
201912021430 METAR LRCV 021430Z 11003KT CAVOK 04/M00 Q1017=
201912021500 METAR LRCV 021500Z 08001KT CAVOK 03/00 Q1017=
201912021530 METAR LRCV 021530Z 29002KT CAVOK 03/M00 Q1018=
201912021600 METAR LRCV 021600Z 30004KT CAVOK 03/00 Q1018=
201912021630 METAR LRCV 021630Z 34003KT CAVOK 03/00 Q1018=
201912021700 METAR LRCV 021700Z 33003KT CAVOK 03/00 Q1018=
201912021730 METAR LRCV 021730Z 28003KT CAVOK 03/00 Q1018=
201912021800 METAR LRCV 021800Z 28004KT 8000 -RA NSC 03/01 Q1018=
201912021830 METAR LRCV 021830Z 27004KT 6000 -RA NSC 03/01 Q1017=
201912021900 METAR LRCV 021900Z 25006KT 9000 NSC 03/01 Q1017=
201912021930 METAR LRCV 021930Z 26009KT CAVOK 03/01 Q1017=
201912022000 METAR LRCV 022000Z 26009KT CAVOK 03/00 Q1017=
201912022030 METAR LRCV 022030Z 28009KT CAVOK 03/00 Q1018=
201912022100 METAR LRCV 022100Z 26011KT CAVOK 03/01 Q1017=
201912022130 METAR LRCV 022130Z 25011KT CAVOK 03/01 Q1017=
201912022200 METAR LRCV 022200Z 26011KT CAVOK 03/01 Q1017=
201912022230 METAR LRCV 022230Z 27010KT CAVOK 03/01 Q1017=
201912022300 METAR LRCV 022300Z 27010KT CAVOK 03/01 Q1017=
201912022330 METAR LRCV 022330Z 29008KT CAVOK 03/02 Q1017=
201912030000 METAR LRCV 030000Z 27011KT CAVOK 04/02 Q1017=
201912030030 METAR LRCV 030030Z 26011KT CAVOK 04/02 Q1017=
201912030100 METAR LRCV 030100Z 27012KT CAVOK 04/01 Q1018=
201912030130 METAR LRCV 030130Z 25012KT CAVOK 04/01 Q1018=
201912030200 METAR LRCV 030200Z 26013KT CAVOK 04/01 Q1018=
201912030230 METAR LRCV 030230Z 28014KT CAVOK 04/00 Q1018=
201912030300 METAR LRCV 030300Z 28012KT CAVOK 04/00 Q1018=
201912030330 METAR COR LRCV 030330Z 27013KT 9999 BKN085 04/M00 Q1019=
201912030400 METAR LRCV 030400Z 29014KT CAVOK 03/M00 Q1019=
201912030430 METAR LRCV 030430Z 28012KT 9999 -RA NSC 03/M00 Q1019=
201912030500 METAR LRCV 030500Z 28010KT 9999 -RA NSC 03/M00 Q1020=
201912030530 METAR LRCV 030530Z 28010KT 9999 -SN FEW035 03/M00 Q1020=
201912030600 METAR LRCV 030600Z 28010KT 9999 -SN FEW034 02/M00 Q1021=
201912030630 METAR LRCV 030630Z 28009KT 9999 -RA FEW048 02/00 Q1021 R27/19//95=
201912030700 METAR LRCV 030700Z 27008KT 9999 -RASN BKN035 OVC046 02/00
                        Q1021 R27/19//95=
201912030730 METAR LRCV 030730Z 28011KT 9999 BKN035 03/M00 Q1022 R27/19//95=
201912030800 METAR LRCV 030800Z 28009KT 9999 BKN040 03/M00 Q1022 R27/19//95=
201912030830 METAR LRCV 030830Z 27011KT 9999 BKN042 03/M00 Q1022 R27/19//95=
201912030900 METAR LRCV 030900Z 28012KT 9999 BKN046 03/M00 Q1022 R27/19//95=
201912030930 METAR LRCV 030930Z 27011KT 9999 SCT049 03/00 Q1022 R27/19//95=
201912031000 METAR LRCV 031000Z 27010KT 9999 SCT049 04/M00 Q1022 R27/19//95=
201912031030 METAR LRCV 031030Z 28011KT 9999 SCT049 04/00 Q1022 R27/19//95=
201912031100 METAR LRCV 031100Z 28009KT 9999 FEW049 04/M00 Q1022 R27/CLRD//=
201912031130 METAR LRCV 031130Z 28009KT CAVOK 04/00 Q1022=
201912031200 METAR LRCV 031200Z 28009KT CAVOK 05/00 Q1022=
201912031230 METAR LRCV 031230Z 28007KT CAVOK 05/00 Q1022=
201912031300 METAR LRCV 031300Z 29005KT 9999 FEW036 05/00 Q1021=
201912031330 METAR LRCV 031330Z 30004KT 270V330 9999 BKN035 05/M00 Q1022=
201912031400 METAR LRCV 031400Z 25004KT 9999 BKN035 05/00 Q1022=
201912031430 METAR LRCV 031430Z 24002KT 9999 BKN035 05/M00 Q1022=
201912031500 METAR LRCV 031500Z 00000KT 9999 BKN045 05/M00 Q1022=
201912031530 METAR LRCV 031530Z 11003KT 060V170 9999 SCT027 BKN049 04/01
                        Q1023=
201912031600 METAR LRCV 031600Z 11006KT 9999 SCT026 BKN048 03/01 Q1023=
201912031630 METAR LRCV 031630Z 11005KT 9999 FEW027 BKN049 02/01 Q1024=
201912031700 METAR LRCV 031700Z 11005KT 9999 SCT026 BKN049 01/M00 Q1024=
201912031730 METAR LRCV 031730Z 11007KT 7000 FEW026 01/00 Q1024=
201912031800 METAR LRCV 031800Z 12006KT 5000 BR SCT010 SCT045 02/01 Q1025=
201912031830 METAR LRCV 031830Z 13005KT 4000 BR FEW010 SCT045 02/01 Q1025=
201912031900 METAR LRCV 031900Z 13004KT 3000 BR FEW047 01/00 Q1025=
201912031930 METAR LRCV 031930Z 09004KT 2500 BR BKN005 00/00 Q1025=
201912032000 METAR LRCV 032000Z 09004KT 2500 BR SCT003 BKN005 01/01 Q1026=
201912032030 METAR LRCV 032030Z 06004KT 3000 BR SCT003 SCT008 01/00 Q1026=
201912032100 METAR LRCV 032100Z 04005KT 4000 BR SCT005 01/00 Q1026=
201912032130 METAR LRCV 032130Z 07006KT 4500 BR BKN003 BKN006 01/01 Q1026=
201912032200 METAR LRCV 032200Z 08007KT 5000 BR SCT004 01/01 Q1026=
201912032230 METAR LRCV 032230Z 09006KT 3500 BR NSC 00/M00 Q1027=
201912032300 METAR LRCV 032300Z 08005KT 2500 BR NSC M01/M01 Q1027=
201912032330 METAR LRCV 032330Z 07005KT 4000 BR NSC M01/M01 Q1027=
201912040000 METAR LRCV 040000Z 09005KT 5000 BR NSC M01/M01 Q1027=
201912040030 METAR LRCV 040030Z 07006KT 5000 BR NSC M01/M01 Q1027=
201912040100 METAR LRCV 040100Z 05005KT 4500 BR NSC M01/M02 Q1027=
201912040130 METAR LRCV 040130Z 06005KT 5000 BR NSC M01/M02 Q1027=
201912040200 METAR LRCV 040200Z 07007KT 6000 NSC M01/M02 Q1027=
201912040230 METAR LRCV 040230Z 08005KT 6000 NSC M02/M03 Q1027=
201912040300 METAR LRCV 040300Z 07006KT 5000 BR NSC M02/M02 Q1027=
201912040330 METAR LRCV 040330Z 05006KT 5000 BR NSC M02/M03 Q1028=
201912040400 METAR LRCV 040400Z 06004KT 5000 BR NSC M02/M02 Q1028=
201912040430 METAR LRCV 040430Z 07003KT 5000 BR NSC M02/M03 Q1028=
201912040500 METAR LRCV 040500Z 06004KT 7000 NSC M02/M03 Q1029=
201912040530 METAR LRCV 040530Z 07004KT 7000 NSC M03/M03 Q1029=
201912040600 METAR LRCV 040600Z 06005KT 8000 NSC M03/M03 Q1029=
201912040630 METAR LRCV 040630Z 07006KT CAVOK M01/M03 Q1030=
201912040700 METAR LRCV 040700Z 07007KT CAVOK M01/M03 Q1030=
201912040730 METAR LRCV 040730Z 06009KT CAVOK M00/M02 Q1031=
201912040800 METAR LRCV 040800Z 09009KT CAVOK 01/M02 Q1031=
201912040830 METAR LRCV 040830Z 10010KT CAVOK 01/M02 Q1031=
201912040900 METAR LRCV 040900Z 11011KT CAVOK 02/M02 Q1031=
201912040930 METAR LRCV 040930Z 12013KT CAVOK 02/M03 Q1031=
201912041000 METAR LRCV 041000Z 13012KT CAVOK 02/M03 Q1030=
201912041030 METAR LRCV 041030Z 14010KT CAVOK 03/M02 Q1030=
201912041100 METAR LRCV 041100Z 12011KT CAVOK 03/M03 Q1030=
201912041130 METAR LRCV 041130Z 13009KT 080V140 9999 FEW020 03/M02 Q1030=
201912041200 METAR LRCV 041200Z 15007KT 9999 SCT017 03/M02 Q1030=
201912041230 METAR LRCV 041230Z 16004KT 9999 SCT017 02/M02 Q1030=
201912041300 METAR LRCV 041300Z 17005KT 130V200 9999 SCT016 03/M01 Q1030=
201912041330 METAR LRCV 041330Z 16003KT 100V200 9999 FEW017 03/M01 Q1030=
201912041400 METAR LRCV 041400Z 15004KT CAVOK 02/M02 Q1030=
201912041430 METAR LRCV 041430Z VRB01KT CAVOK 02/M02 Q1030=
201912041500 METAR LRCV 041500Z 01001KT CAVOK 01/M02 Q1030=
201912041530 METAR LRCV 041530Z 00000KT CAVOK 00/M02 Q1030=
201912041600 METAR LRCV 041600Z 00000KT CAVOK M00/M02 Q1031=
201912041630 METAR LRCV 041630Z 27003KT CAVOK M01/M03 Q1031=
201912041700 METAR LRCV 041700Z 00000KT CAVOK 00/M02 Q1031=
201912041730 METAR LRCV 041730Z 00000KT CAVOK M01/M02 Q1031=
201912041800 METAR LRCV 041800Z 00000KT CAVOK M01/M02 Q1031=
201912041830 METAR LRCV 041830Z 20001KT CAVOK M01/M02 Q1031=
201912041900 METAR LRCV 041900Z 20001KT 8000 NSC M01/M02 Q1031=
201912041930 METAR LRCV 041930Z 03002KT 8000 NSC M01/M03 Q1032=
201912042000 METAR LRCV 042000Z 00000KT 8000 NSC M02/M03 Q1032=
201912042030 METAR LRCV 042030Z 05003KT 8000 BCFG NSC M02/M03 Q1032=
201912042100 METAR LRCV 042100Z VRB02KT 6000 BCFG NSC M03/M04 Q1032=
201912042130 METAR LRCV 042130Z 07003KT 5000 BR NSC M03/M04 Q1032=
201912042200 METAR LRCV 042200Z 05002KT 7000 NSC M03/M03 Q1031=
201912042230 METAR LRCV 042230Z 02002KT 5000 BR NSC M03/M04 Q1032=
201912042300 METAR LRCV 042300Z 01006KT 5000 BR NSC M03/M04 Q1031=
201912042330 METAR LRCV 042330Z 01003KT 5000 BR NSC M04/M04 Q1031=
201912050000 METAR LRCV 050000Z 01001KT 4500 BR NSC M04/M05 Q1031=
201912050030 METAR LRCV 050030Z 03002KT 4500 BR NSC M04/M04 Q1031=
201912050100 METAR LRCV 050100Z 02002KT 5000 BR NSC M04/M04 Q1031=
201912050130 METAR LRCV 050130Z 01003KT 5000 BR NSC M04/M04 Q1031=
201912050200 METAR LRCV 050200Z 36003KT 5000 BR NSC M04/M05 Q1031=
201912050230 METAR LRCV 050230Z 01003KT 5000 BR NSC M05/M06 Q1031=
201912050300 METAR LRCV 050300Z 36002KT 5000 BR NSC M05/M06 Q1031=
201912050330 METAR LRCV 050330Z 01004KT 5000 BR NSC M04/M05 Q1031=
201912050400 METAR LRCV 050400Z 35003KT 300V010 5000 BR NSC M05/M06 Q1031=
201912050430 METAR LRCV 050430Z 34001KT 6000 BR NSC M06/M06 Q1031=
201912050500 METAR LRCV 050500Z 01003KT 6000 BR NSC M05/M06 Q1031=
201912050530 METAR LRCV 050530Z 01005KT 7000 NSC M05/M05 Q1031=
201912050600 METAR LRCV 050600Z 02005KT 7000 NSC M05/M05 Q1031=
201912050630 METAR LRCV 050630Z 01004KT 5000 BR NSC M04/M05 Q1031=
201912050700 METAR LRCV 050700Z 02002KT 4500 BR NSC M03/M04 Q1031=
201912050730 METAR LRCV 050730Z 03002KT 4500 BR NSC M01/M02 Q1031=
201912050800 METAR COR LRCV 050800Z 07002KT 5000 BR NSC M00/M01 Q1031=
201912050830 METAR LRCV 050830Z VRB01KT 7000 NSC 02/00 Q1031=
201912050900 METAR LRCV 050900Z VRB02KT 8000 NSC 02/M01 Q1031=
201912050930 METAR LRCV 050930Z 16003KT 110V190 9000 NSC 03/M02 Q1031=
201912051000 METAR LRCV 051000Z 22002KT CAVOK 03/M02 Q1030=
201912051030 METAR LRCV 051030Z 14003KT 090V190 9999 FEW015 03/M02 Q1030=
201912051100 METAR LRCV 051100Z 17004KT 140V200 CAVOK 04/M02 Q1030=
201912051130 METAR LRCV 051130Z 14003KT 090V180 CAVOK 04/M02 Q1029=
201912051200 METAR LRCV 051200Z 15003KT 110V230 CAVOK 04/M02 Q1029=
201912051230 METAR LRCV 051230Z 14003KT 070V220 CAVOK 04/M02 Q1029=
201912051300 METAR LRCV 051300Z 24003KT 200V290 CAVOK 05/M02 Q1029=
201912051330 METAR LRCV 051330Z 29004KT 250V320 CAVOK 04/M01 Q1029=
201912051400 METAR LRCV 051400Z 29004KT CAVOK 03/M02 Q1029=
201912051430 METAR LRCV 051430Z 30004KT CAVOK 02/M02 Q1029=
201912051500 METAR LRCV 051500Z 30004KT CAVOK 01/M02 Q1029=
201912051530 METAR LRCV 051530Z 23004KT 6000 NSC M00/M02 Q1029=
201912051600 METAR LRCV 051600Z 26003KT 4000 BR NSC M01/M02 Q1029=
201912051630 METAR LRCV 051630Z 24005KT 3000 BR NSC M02/M03 Q1029=
201912051700 METAR LRCV 051700Z 19003KT 0400 R09/0650N FZFG SCT001 M03/M04
                        Q1029=
201912051730 METAR LRCV 051730Z 23005KT 0150 R09/0250N FZFG VV001 M03/M04
                        Q1029=
201912051800 METAR LRCV 051800Z 25003KT 0300 R27/0300N FZFG VV001 M03/M04
                        Q1029=
201912051830 METAR LRCV 051830Z 24005KT 0300 R27/0350N FZFG VV001 M04/M04
                        Q1029=
201912051900 METAR LRCV 051900Z 25004KT 0300 R27/0300N FZFG VV001 M04/M05
                        Q1029=
201912051930 METAR LRCV 051930Z 26003KT 0300 R27/0350N FZFG VV001 M05/M05
                        Q1028=
201912052000 METAR LRCV 052000Z 29004KT 0300 R27/0300N SG FZFG VV001 M04/M05
                        Q1028=
201912052030 METAR LRCV 052030Z 28003KT 0300 R27/0325N SG FZFG VV001 M04/M05
                        Q1028=
201912052100 METAR LRCV 052100Z 26002KT 0300 R27/0325N FZFG VV001 M05/M05
                        Q1028 RESG=
201912052130 METAR LRCV 052130Z 23002KT 0250 R27/0325N FZFG VV001 M04/M05
                        Q1028=
201912052200 METAR LRCV 052200Z VRB02KT 0250 R27/0300N FZFG VV001 M05/M05
                        Q1028=
201912052230 METAR LRCV 052230Z 25004KT 0400 R27/0450N SG FZFG VV001 M05/M06
                        Q1028=
201912052300 METAR COR LRCV 052300Z 22004KT 0300 R27/0375N -SG FZFG VV001
                        M05/M05 Q1028 RESG=
201912052330 METAR LRCV 052330Z 22004KT 0350 R27/0400N SG FZFG VV001 M05/M06
                        Q1028=
201912060000 METAR COR LRCV 060000Z 26005KT 0350 R27/0400N SG FZFG VV001
                        M05/M06 Q1027=
201912060030 METAR COR LRCV 060030Z 26004KT 0350 R27/0400N -SG FZFG VV001
                        M05/M06 Q1027 RESG=
201912060100 METAR LRCV 060100Z 28006KT 0350 R27/0400N SG FZFG VV001 M05/M06
                        Q1027 RESG=
201912060130 METAR LRCV 060130Z 28004KT 0350 R27/0400N -SG FZFG VV001
                        M06/M06 Q1027 RESG=
201912060200 METAR LRCV 060200Z 30003KT 0300 R27/0300N SG FZFG VV001 M05/M06
                        Q1027 RESG=
201912060230 METAR LRCV 060230Z 28003KT 0300 R27/0300N SG FZFG VV001 M05/M06
                        Q1027 RESG=
201912060300 METAR LRCV 060300Z VRB02KT 0350 R27/0400N SG FZFG VV001 M05/M06
                        Q1027 RESG=
201912060330 METAR LRCV 060330Z 27004KT 0350 R27/0400N SG FZFG VV001 M05/M06
                        Q1026 RESG=
201912060400 METAR LRCV 060400Z 28004KT 0400 R27/0500N SG FZFG VV001 M06/M07
                        Q1026=
201912060430 METAR COR LRCV 060430Z 27003KT 0500 R09/0600N SG FZFG VV002
                        M06/M06 Q1026=
201912060500 METAR LRCV 060500Z 27002KT 0500 R27/0600N FZFG VV002 M06/M06
                        Q1026 RESG=
201912060530 METAR LRCV 060530Z 26002KT 0500 R27/0600U FZFG VV002 M06/M07
                        Q1026=
201912060600 METAR LRCV 060600Z 25003KT 230V290 0350 R27/0450N FZFG VV002
                        M06/M06 Q1026=
201912060630 METAR LRCV 060630Z 25003KT 0250 R27/0325N FZFG VV001 M05/M06
                        Q1026=
201912060700 METAR LRCV 060700Z 26003KT 0200 R27/0200N FZFG VV001 M05/M06
                        Q1027=
201912060730 METAR LRCV 060730Z 27003KT 0200 R27/0300U FZFG VV001 M05/M06
                        Q1027=
201912060800 METAR LRCV 060800Z 26003KT 230V290 0350 R27/0350N -SG FZFG
                        VV001 M05/M05 Q1027=
201912060830 METAR LRCV 060830Z 26003KT 0800 R27/0900N FZFG OVC002 M04/M05
                        Q1027=
201912060900 METAR LRCV 060900Z 28003KT 0800 0400S R27/0800D FZFG BKN001
                        M04/M05 Q1026=
201912060930 METAR LRCV 060930Z 26001KT 0800 0400S R27/0800N -SG FZFG
                        BKN002 M03/M04 Q1026=
201912061000 METAR LRCV 061000Z VRB02KT 0600 R27/0600D FZFG BKN001 M02/M02
                        Q1025=
201912061030 METAR LRCV 061030Z 25003KT 0600 R27/0900D FZFG BKN002 M03/M03
                        Q1025=
201912061100 METAR LRCV 061100Z 25003KT 0600 R27/0900N FZFG OVC001 M02/M03
                        Q1025=
201912061130 METAR LRCV 061130Z 25003KT 220V290 0600 R27/0800D FZFG OVC001
                        M02/M02 Q1024=
201912061200 METAR LRCV 061200Z 24003KT 0600 R27/1000U FZFG OVC001 M02/M02
                        Q1024=
201912061230 METAR LRCV 061230Z 27003KT 0600 R27/1100N FZFG OVC001 M01/M02
                        Q1023=
201912061300 METAR LRCV 061300Z 25003KT 0600 R27/0600D FZFG OVC001 M01/M02
                        Q1023=
201912061330 METAR LRCV 061330Z 24003KT 0500 R27/0650D FZFG OVC001 M01/M02
                        Q1023=
201912061400 METAR LRCV 061400Z 24003KT 0500 R27/0700D FZFG OVC001 M01/M02
                        Q1023=
201912061430 METAR LRCV 061430Z VRB02KT 0150 R27/0400N FZFG VV001 M01/M02
                        Q1023=
201912061500 METAR LRCV 061500Z VRB02KT 0150 R27/0400N FZFG VV001 M02/M02
                        Q1022=
201912061530 METAR LRCV 061530Z VRB02KT 0150 R27/0375N FZFG VV001 M02/M02
                        Q1022=
201912061600 METAR LRCV 061600Z VRB01KT 0100 R27/0350N FZFG VV001 M02/M02
                        Q1022=
201912061630 METAR LRCV 061630Z 24002KT 0150 R27/0350N FZFG VV001 M02/M02
                        Q1022=
201912061700 METAR LRCV 061700Z VRB02KT 0200 R27/0325N FZFG VV001 M02/M03
                        Q1022=
201912061730 METAR LRCV 061730Z 27003KT 0150 R27/0300N FZFG VV001 M02/M03
                        Q1022=
201912061800 METAR LRCV 061800Z 27001KT 0200 R27/0375N FZFG VV001 M02/M03
                        Q1022=
201912061830 METAR LRCV 061830Z 25002KT 0250 R27/0375N FZFG VV001 M02/M03
                        Q1022=
201912061900 METAR LRCV 061900Z 24002KT 0200 R27/0300N FZFG VV001 M03/M03
                        Q1022=
201912061930 METAR LRCV 061930Z VRB02KT 0300 R27/0350N FZFG VV001 M03/M03
                        Q1021=
201912062000 METAR LRCV 062000Z 28002KT 0250 R27/0400N FZFG VV001 M03/M03
                        Q1021=
201912062030 METAR LRCV 062030Z 24002KT 0300 R27/0350N FZFG VV001 M03/M03
                        Q1021=
201912062100 METAR LRCV 062100Z 25002KT 0300 R27/0350N FZFG VV001 M03/M03
                        Q1021=
201912062130 METAR LRCV 062130Z 26002KT 0250 R27/0350N FZFG VV001 M03/M03
                        Q1021=
201912062200 METAR LRCV 062200Z 26003KT 0300 R27/0350N FZFG VV001 M03/M03
                        Q1020=
201912062230 METAR LRCV 062230Z 24003KT 0250 R27/0350N FZFG VV001 M03/M04
                        Q1020=
201912062300 METAR LRCV 062300Z 25002KT 0250 R27/0350N FZFG VV001 M03/M04
                        Q1020=
201912062330 METAR LRCV 062330Z 00000KT 0300 R27/0325N FZFG VV001 M03/M04
                        Q1019=
201912070000 METAR LRCV 070000Z VRB01KT 0300 R27/0325N FZFG VV001 M03/M04
                        Q1019=
201912070030 METAR LRCV 070030Z 00000KT 0300 R27/0400N FZFG VV001 M03/M04
                        Q1019=
201912070100 METAR LRCV 070100Z VRB01KT 0500 R27/0650N FZFG VV001 M03/M04
                        Q1019=
201912070130 METAR LRCV 070130Z VRB01KT 0400 R27/0500N FZFG VV001 M03/M04
                        Q1018=
201912070200 METAR LRCV 070200Z 00000KT 0500 R27/0600N FZFG VV001 M03/M04
                        Q1018=
201912070230 METAR LRCV 070230Z 30001KT 0500 R27/0650N FZFG VV001 M03/M04
                        Q1018=
201912070300 METAR LRCV 070300Z 00000KT 0400 R27/0450N FZFG VV001 M03/M04
                        Q1017=
201912070330 METAR LRCV 070330Z 00000KT 0300 R27/0400N FZFG VV001 M03/M03
                        Q1017=
201912070400 METAR LRCV 070400Z 25001KT 0350 R27/0400N FZFG VV001 M03/M03
                        Q1017=
201912070430 METAR LRCV 070430Z 00000KT 0400 R27/0450N FZFG VV001 M03/M03
                        Q1017=
201912070500 METAR LRCV 070500Z 00000KT 0400 R27/0600N FZFG VV001 M03/M03
                        Q1017=
201912070530 METAR LRCV 070530Z 24002KT 0500 R27/0550N FZFG VV001 M03/M03
                        Q1017=
201912070600 METAR LRCV 070600Z 25003KT 0450 R27/0800D FZFG VV001 M02/M03
                        Q1017=
201912070630 METAR LRCV 070630Z 26003KT 0500 R27/0800N FZFG VV001 M02/M03
                        Q1017=
201912070700 METAR LRCV 070700Z 23002KT 0500 R27/1000N -FZRA FG VV002
                        M02/M03 Q1017=
201912070730 METAR COR LRCV 070730Z VRB02KT 1000 R27/1500U BR BKN001 M02/M02
                        Q1017 REFZRA=
201912070800 METAR LRCV 070800Z VRB02KT 1500 BR BKN001 M02/M02 Q1017=
201912070830 METAR LRCV 070830Z VRB03KT 1500 BR BKN002 M01/M01 Q1017=
201912070900 METAR LRCV 070900Z 25002KT 210V300 2500 BR SCT003 M01/M01
                        Q1017=
201912070930 METAR LRCV 070930Z 22002KT 180V250 3000 BR FEW003 00/M00
                        Q1016=
201912071000 METAR COR LRCV 071000Z VRB03KT 3000 BR SCT003 00/M00 Q1016=
201912071030 METAR LRCV 071030Z VRB03KT 3500 BR NSC 01/00 Q1015=
201912071100 METAR LRCV 071100Z 25004KT 5000 BR NSC 03/03 Q1015=
201912071130 METAR LRCV 071130Z 30005KT 6000 NSC 05/03 Q1015=
201912071200 METAR LRCV 071200Z 27007KT 6000 NSC 06/02 Q1015=
201912071230 METAR LRCV 071230Z 26006KT CAVOK 07/03 Q1014=
201912071300 METAR LRCV 071300Z 26006KT CAVOK 07/03 Q1014=
201912071330 METAR LRCV 071330Z 28007KT CAVOK 07/03 Q1014=
201912071400 METAR LRCV 071400Z 25004KT CAVOK 07/03 Q1014=
201912071430 METAR LRCV 071430Z 25004KT 9000 NSC 06/02 Q1015=
201912071500 METAR LRCV 071500Z 22006KT CAVOK 04/02 Q1015=
201912071530 METAR LRCV 071530Z 24006KT CAVOK 04/02 Q1015=
201912071600 METAR LRCV 071600Z 24007KT 9000 NSC 04/03 Q1015=
201912071630 METAR LRCV 071630Z 25006KT 9000 NSC 04/03 Q1015=
201912071700 METAR LRCV 071700Z 25006KT 8000 NSC 04/03 Q1015=
201912071730 METAR LRCV 071730Z 27004KT 9000 NSC 05/03 Q1015=
201912071800 METAR LRCV 071800Z 26006KT 8000 NSC 03/02 Q1015=
201912071830 METAR LRCV 071830Z 26007KT 9000 NSC 05/04 Q1016=
201912071900 METAR LRCV 071900Z 25004KT CAVOK 05/03 Q1015=
201912071930 METAR LRCV 071930Z 25005KT CAVOK 05/03 Q1015=
201912072000 METAR LRCV 072000Z 27006KT 7000 NSC 04/03 Q1016=
201912072030 METAR LRCV 072030Z 29006KT 5000 BR NSC 04/03 Q1016=
201912072100 METAR LRCV 072100Z 29005KT 4500 BR NSC 03/03 Q1016=
201912072130 METAR LRCV 072130Z 28007KT 5000 BR NSC 04/03 Q1016=
201912072200 METAR LRCV 072200Z 31007KT 5000 BR NSC 03/02 Q1016=
201912072230 METAR LRCV 072230Z 30007KT 6000 NSC 03/02 Q1016=
201912072300 METAR LRCV 072300Z 28007KT 5000 BR NSC 02/02 Q1016=
201912072330 METAR LRCV 072330Z 30004KT 270V360 5000 BR NSC 04/03 Q1016=
201912080000 METAR LRCV 080000Z 29007KT 5000 BR NSC 04/03 Q1016=
201912080030 METAR LRCV 080030Z 29006KT 5000 BR NSC 04/03 Q1016=
201912080100 METAR LRCV 080100Z 30009KT 5000 BR NSC 04/03 Q1016=
201912080130 METAR LRCV 080130Z 30009KT 5000 BR NSC 03/02 Q1016=
201912080200 METAR LRCV 080200Z 30009KT 5000 BR NSC 03/02 Q1016=
201912080230 METAR LRCV 080230Z 30009KT 6000 NSC 03/02 Q1016=
201912080300 METAR LRCV 080300Z 30010KT 7000 NSC 03/02 Q1017=
201912080330 METAR LRCV 080330Z 30010KT 9000 NSC 03/02 Q1017=
201912080400 METAR LRCV 080400Z 30009KT CAVOK 04/02 Q1017=
201912080430 METAR LRCV 080430Z 29007KT CAVOK 03/02 Q1017=
201912080500 METAR LRCV 080500Z 30008KT CAVOK 04/02 Q1017=
201912080530 METAR LRCV 080530Z 28008KT 8000 NSC 02/01 Q1018=
201912080600 METAR LRCV 080600Z 30006KT CAVOK 03/01 Q1018=
201912080630 METAR LRCV 080630Z 28007KT CAVOK 03/02 Q1018=
201912080700 METAR LRCV 080700Z 30007KT CAVOK 04/02 Q1018=
201912080730 METAR LRCV 080730Z 31008KT CAVOK 06/03 Q1018=
201912080800 METAR LRCV 080800Z 31008KT CAVOK 07/03 Q1019=
201912080830 METAR LRCV 080830Z 30009KT CAVOK 08/03 Q1019=
201912080900 METAR LRCV 080900Z 30011KT CAVOK 08/04 Q1019=
201912080930 METAR LRCV 080930Z 31009KT CAVOK 10/04 Q1019=
201912081000 METAR LRCV 081000Z 30008KT CAVOK 10/04 Q1018=
201912081030 METAR LRCV 081030Z 29008KT CAVOK 12/04 Q1018=
201912081100 METAR LRCV 081100Z 30009KT CAVOK 12/04 Q1018=
201912081130 METAR LRCV 081130Z 30006KT CAVOK 13/04 Q1018=
201912081200 METAR LRCV 081200Z 30007KT CAVOK 14/03 Q1018=
201912081230 METAR LRCV 081230Z 31007KT 270V350 CAVOK 14/02 Q1018=
201912081300 METAR LRCV 081300Z 33006KT 290V350 CAVOK 13/01 Q1018=
201912081330 METAR LRCV 081330Z 31006KT CAVOK 13/03 Q1018=
201912081400 METAR LRCV 081400Z 32005KT CAVOK 12/02 Q1018=
201912081430 METAR LRCV 081430Z 30005KT CAVOK 11/03 Q1018=
201912081500 METAR LRCV 081500Z 30005KT CAVOK 09/02 Q1018=
201912081530 METAR LRCV 081530Z 25003KT CAVOK 09/01 Q1018=
201912081600 METAR LRCV 081600Z 24005KT CAVOK 08/02 Q1018=
201912081630 METAR LRCV 081630Z 26005KT CAVOK 06/01 Q1018=
201912081700 METAR LRCV 081700Z VRB02KT CAVOK 07/03 Q1018=
201912081730 METAR LRCV 081730Z 29004KT CAVOK 07/03 Q1018=
201912081800 METAR LRCV 081800Z 28004KT CAVOK 06/03 Q1018=
201912081830 METAR LRCV 081830Z 29005KT CAVOK 08/04 Q1018=
201912081900 METAR LRCV 081900Z 26006KT CAVOK 04/02 Q1018=
201912081930 METAR LRCV 081930Z VRB02KT CAVOK 03/01 Q1017=
201912082000 METAR LRCV 082000Z 00000KT CAVOK 03/02 Q1017=
201912082030 METAR LRCV 082030Z 00000KT CAVOK 04/03 Q1017=
201912082100 METAR LRCV 082100Z 00000KT CAVOK 02/01 Q1017=
201912082130 METAR LRCV 082130Z 16001KT CAVOK 02/02 Q1017=
201912082200 METAR COR LRCV 082200Z 00000KT 9999 MIFG NSC 02/01 Q1017=
201912082230 METAR LRCV 082230Z 00000KT 8000 PRFG NSC 02/02 Q1017=
201912082300 METAR LRCV 082300Z 30001KT 7000 PRFG NSC 01/00 Q1016=
201912082330 METAR LRCV 082330Z 00000KT 7000 PRFG NSC M00/M01 Q1016=
201912090000 METAR LRCV 090000Z 03003KT 5000 BR NSC 01/M00 Q1016=
201912090030 METAR LRCV 090030Z 01004KT 5000 BR NSC 01/01 Q1016=
201912090100 METAR LRCV 090100Z 11003KT 5000 BR NSC M01/M01 Q1015=
201912090130 METAR LRCV 090130Z 07004KT 7000 NSC M01/M01 Q1015=
201912090200 METAR LRCV 090200Z 07004KT CAVOK M01/M01 Q1015=
201912090230 METAR LRCV 090230Z 03003KT CAVOK M00/M02 Q1015=
201912090300 METAR LRCV 090300Z 04003KT CAVOK M00/M01 Q1014=
201912090330 METAR LRCV 090330Z 02004KT CAVOK M00/M02 Q1014=
201912090400 METAR LRCV 090400Z 02004KT CAVOK M00/M02 Q1014=
201912090430 METAR LRCV 090430Z 02004KT CAVOK 00/M02 Q1014=
201912090500 METAR LRCV 090500Z 04003KT CAVOK M00/M02 Q1014=
201912090530 METAR LRCV 090530Z 02003KT CAVOK M00/M02 Q1014=
201912090600 METAR LRCV 090600Z 03002KT CAVOK M01/M02 Q1014=
201912090630 METAR LRCV 090630Z 06002KT CAVOK M00/M02 Q1014=
201912090700 METAR LRCV 090700Z 02003KT CAVOK 00/M01 Q1014=
201912090730 METAR LRCV 090730Z 02003KT CAVOK 01/M01 Q1014=
201912090800 METAR LRCV 090800Z 06003KT CAVOK 02/M00 Q1014=
201912090830 METAR LRCV 090830Z 07003KT CAVOK 04/00 Q1014=
201912090900 METAR LRCV 090900Z 07004KT CAVOK 05/01 Q1014=
201912090930 METAR LRCV 090930Z VRB01KT CAVOK 07/03 Q1014=
201912091000 METAR LRCV 091000Z VRB01KT CAVOK 08/03 Q1013=
201912091030 METAR LRCV 091030Z VRB01KT CAVOK 09/03 Q1013=
201912091100 METAR LRCV 091100Z 15003KT 100V190 CAVOK 10/03 Q1012=
201912091130 METAR LRCV 091130Z VRB03KT CAVOK 11/03 Q1012=
201912091200 METAR LRCV 091200Z VRB02KT CAVOK 11/04 Q1012=
201912091230 METAR LRCV 091230Z VRB02KT CAVOK 11/03 Q1011=
201912091300 METAR LRCV 091300Z 19002KT 150V220 CAVOK 11/03 Q1011=
201912091330 METAR COR LRCV 091330Z 16002KT CAVOK 11/04 Q1011=
201912091400 METAR LRCV 091400Z 18002KT CAVOK 11/04 Q1011=
201912091430 METAR LRCV 091430Z 14004KT CAVOK 08/04 Q1010=
201912091500 METAR LRCV 091500Z 13005KT CAVOK 06/03 Q1010=
201912091530 METAR LRCV 091530Z 16002KT CAVOK 06/03 Q1010=
201912091600 METAR LRCV 091600Z 13004KT CAVOK 05/03 Q1010=
201912091630 METAR LRCV 091630Z 09002KT CAVOK 05/03 Q1011=
201912091700 METAR LRCV 091700Z 11003KT CAVOK 02/01 Q1011=
201912091730 METAR LRCV 091730Z 11003KT CAVOK 04/02 Q1011=
201912091800 METAR LRCV 091800Z 08003KT CAVOK 04/02 Q1011=
201912091830 METAR LRCV 091830Z 08005KT 8000 NSC 03/02 Q1010=
201912091900 METAR LRCV 091900Z 09004KT 7000 NSC 03/02 Q1010=
201912091930 METAR LRCV 091930Z 07004KT 8000 NSC 03/02 Q1010=
201912092000 METAR LRCV 092000Z VRB02KT 8000 NSC 02/01 Q1010=
201912092030 METAR LRCV 092030Z 02004KT 6000 NSC 03/01 Q1010=
201912092100 METAR LRCV 092100Z 02005KT 8000 NSC 03/01 Q1010=
201912092130 METAR LRCV 092130Z 02006KT 6000 NSC 02/00 Q1010=
201912092200 METAR LRCV 092200Z 02005KT 6000 NSC 02/01 Q1011=
201912092230 METAR LRCV 092230Z 02006KT 6000 NSC 02/01 Q1010=
201912092300 METAR LRCV 092300Z 03005KT 7000 NSC 02/00 Q1010=
201912092330 METAR LRCV 092330Z 03005KT 8000 NSC 02/00 Q1010=
201912100000 METAR LRCV 100000Z 03005KT 8000 NSC 02/01 Q1010=
201912100030 METAR COR LRCV 100030Z 03006KT CAVOK 01/M00 Q1010=
201912100100 METAR LRCV 100100Z 04006KT CAVOK 01/M00 Q1010=
201912100130 METAR LRCV 100130Z 05004KT CAVOK 01/M00 Q1010=
201912100200 METAR LRCV 100200Z 06004KT CAVOK 01/M00 Q1010=
201912100230 METAR LRCV 100230Z 05004KT CAVOK 01/M00 Q1010=
201912100300 METAR LRCV 100300Z 03004KT CAVOK M00/M01 Q1010=
201912100330 METAR LRCV 100330Z 04003KT 8000 NSC 01/00 Q1010=
201912100400 METAR LRCV 100400Z 01004KT 7000 NSC 01/M00 Q1010=
201912100430 METAR LRCV 100430Z 01005KT 6000 NSC 00/M01 Q1010=
201912100500 METAR LRCV 100500Z 28007KT 6000 NSC M01/M02 Q1011=
201912100530 METAR COR LRCV 100530Z 30004KT 5000 MIFG BR NSC M02/M03 Q1011=
201912100600 METAR LRCV 100600Z 01005KT 7000 NSC M01/M02 Q1011=
201912100630 METAR LRCV 100630Z 02006KT 7000 NSC M01/M02 Q1011=
201912100700 METAR LRCV 100700Z 02004KT CAVOK 00/M00 Q1011=
201912100730 METAR LRCV 100730Z 04005KT CAVOK 02/01 Q1012=
201912100800 METAR LRCV 100800Z 06006KT CAVOK 04/02 Q1012=
201912100830 METAR LRCV 100830Z 08006KT CAVOK 05/02 Q1012=
201912100900 METAR LRCV 100900Z 08007KT CAVOK 06/02 Q1012=
201912100930 METAR LRCV 100930Z 08004KT CAVOK 06/03 Q1012=
201912101000 METAR LRCV 101000Z 14003KT 050V220 CAVOK 07/03 Q1012=
201912101030 METAR LRCV 101030Z VRB02KT CAVOK 08/03 Q1012=
201912101100 METAR LRCV 101100Z 09004KT CAVOK 08/03 Q1012=
201912101130 METAR LRCV 101130Z VRB02KT CAVOK 08/03 Q1012=
201912101200 METAR LRCV 101200Z 35003KT 310V020 CAVOK 09/03 Q1012=
201912101230 METAR LRCV 101230Z VRB02KT CAVOK 10/03 Q1012=
201912101300 METAR LRCV 101300Z 00000KT CAVOK 10/02 Q1012=
201912101330 METAR LRCV 101330Z 00000KT CAVOK 09/02 Q1012=
201912101400 METAR LRCV 101400Z 24005KT CAVOK 07/03 Q1013=
201912101430 METAR LRCV 101430Z 26004KT 8000 NSC 06/02 Q1013=
201912101500 METAR LRCV 101500Z 28003KT 8000 NSC 06/02 Q1013=
201912101530 METAR LRCV 101530Z 29004KT 8000 NSC 06/03 Q1013=
201912101600 METAR LRCV 101600Z 32002KT 8000 NSC 04/02 Q1013=
201912101630 METAR LRCV 101630Z 35002KT 8000 NSC 03/02 Q1014=
201912101700 METAR LRCV 101700Z 34003KT CAVOK 06/02 Q1014=
201912101730 METAR LRCV 101730Z 35005KT CAVOK 06/02 Q1014=
201912101800 METAR LRCV 101800Z 34004KT CAVOK 04/02 Q1015=
201912101830 METAR LRCV 101830Z 28005KT CAVOK 03/01 Q1015=
201912101900 METAR LRCV 101900Z 20004KT 5000 BR NSC 03/02 Q1015=
201912101930 METAR LRCV 101930Z 18002KT 3000 BR NSC 03/02 Q1015=
201912102000 METAR LRCV 102000Z 15001KT 1800 MIFG BR NSC 02/02 Q1016=
201912102030 METAR LRCV 102030Z 06003KT 1000 0150N R27/2000U BCFG BR NSC
                        00/00 Q1016=
201912102100 METAR LRCV 102100Z 08005KT 2500 1000V R27/1700D BCFG BR NSC
                        00/00 Q1016=
201912102130 METAR LRCV 102130Z 08004KT 2000 BR NSC 00/00 Q1017=
201912102200 METAR LRCV 102200Z 09004KT 3000 BR NSC 02/01 Q1017=
201912102230 METAR LRCV 102230Z 10005KT 5000 BR NSC 03/02 Q1017=
201912102300 METAR LRCV 102300Z 10006KT 5000 BR FEW010 03/02 Q1017=
201912102330 METAR LRCV 102330Z 06003KT 5000 BR FEW014 02/02 Q1017=
201912110000 METAR LRCV 110000Z 03004KT 5000 BR BKN018 03/02 Q1017=
201912110030 METAR LRCV 110030Z 01003KT 3000 BR OVC016 03/02 Q1017=
201912110100 METAR LRCV 110100Z 34003KT 5000 BR OVC011 03/02 Q1017=
201912110130 METAR LRCV 110130Z 36005KT 6000 OVC010 03/02 Q1017=
201912110200 METAR LRCV 110200Z 35004KT 6000 OVC010 03/02 Q1017=
201912110230 METAR LRCV 110230Z 05005KT 7000 OVC014 04/03 Q1017=
201912110300 METAR LRCV 110300Z 04006KT 7000 SCT007 OVC014 04/03 Q1017=
201912110330 METAR LRCV 110330Z 07008KT 6000 OVC006 04/03 Q1017=
201912110400 METAR LRCV 110400Z 08007KT 6000 OVC005 04/03 Q1018=
201912110430 METAR LRCV 110430Z 08007KT 6000 FEW007 BKN024 03/02 Q1017=
201912110500 METAR LRCV 110500Z 07008KT 6000 FEW015 BKN026 02/02 Q1018=
201912110530 METAR LRCV 110530Z 09005KT 7000 FEW015 OVC025 03/02 Q1018=
201912110600 METAR LRCV 110600Z 10006KT 6000 FEW007 BKN020 BKN026 03/02
                        Q1018=
201912110630 METAR LRCV 110630Z 10008KT 4500 BR FEW007 SCT019 BKN027 03/02
                        Q1018=
201912110700 METAR LRCV 110700Z 08008KT 3500 BR SCT005 SCT015 BKN019 03/02
                        Q1019=
201912110730 METAR LRCV 110730Z 11008KT 3000 BR SCT006 BKN016 BKN022 03/02
                        Q1019=
201912110800 METAR LRCV 110800Z 10008KT 3000 BR BKN005 BKN020 03/02 Q1019=
201912110830 METAR LRCV 110830Z 10008KT 3000 BR BKN004 BKN015 03/03 Q1019=
201912110900 METAR LRCV 110900Z 09008KT 3000 BR SCT004 BKN007 BKN013 04/03
                        Q1019=
201912110930 METAR LRCV 110930Z 09009KT 3000 BR BKN004 BKN012 04/03 Q1018=
201912111000 METAR LRCV 111000Z 09010KT 2700 BR BKN004 BKN012 04/03 Q1018=
201912111030 METAR LRCV 111030Z 08009KT 3000 BR BKN004 BKN015 04/03 Q1017=
201912111100 METAR LRCV 111100Z 08010KT 4000 BR BKN008 BKN030 05/03 Q1017=
201912111130 METAR LRCV 111130Z 09010KT 4500 BR BKN007 BKN009 05/03 Q1017=
201912111200 METAR LRCV 111200Z 10011KT 5000 BR BKN008 BKN010 05/04 Q1017=
201912111230 METAR LRCV 111230Z 09012KT 6000 BKN008 BKN010 05/04 Q1017=
201912111300 METAR LRCV 111300Z 09010KT 6000 BKN008 BKN010 05/04 Q1016=
201912111330 METAR LRCV 111330Z 10008KT 6000 BKN007 BKN009 05/04 Q1016=
201912111400 METAR LRCV 111400Z 09008KT 4000 -RA BR BKN006 OVC008 05/04
                        Q1016=
201912111430 METAR LRCV 111430Z 09008KT 2500 -RA BR BKN006 OVC008 05/04
                        Q1016=
201912111500 METAR LRCV 111500Z 08010KT 2500 -RA BR SCT008 SCT010 BKN015
                        05/04 Q1016=
201912111530 METAR LRCV 111530Z 08009KT 3000 -RA BR BKN005 BKN015 05/04
                        Q1016=
201912111600 METAR LRCV 111600Z 06009KT 4000 BR OVC006 05/04 Q1016 R09/29//95=
201912111630 METAR LRCV 111630Z 07009KT 2500 BR SCT003 BKN005 OVC007 05/04
                        Q1016 R09/29//95=
201912111700 METAR LRCV 111700Z 06012KT 0900 R09/1200D -DZ FG BKN001 OVC003
                        05/04 Q1016 R27/29//95=
201912111730 METAR LRCV 111730Z 07012KT 1700 BR OVC001 05/04 Q1016 R27/29//95=
201912111800 METAR LRCV 111800Z 09011KT 4000 -DZ BR SCT003 BKN005 BKN010
                        05/04 Q1015 R27/29//95=
201912111830 METAR COR LRCV 111830Z 08010KT 4000 DZ BR SCT002 BKN005 OVC007
                        05/04 Q1015 R27/29//95=
201912111900 METAR LRCV 111900Z 08011KT 4500 BR FEW004 OVC007 05/04 Q1015
                        REDZ R27/29//95=
201912111930 METAR LRCV 111930Z 08011KT 5000 BR OVC007 05/04 Q1015 R27/29//95=
201912112000 METAR LRCV 112000Z 09012KT 5000 BR OVC007 05/04 Q1015 R27/29//95=
201912112030 METAR LRCV 112030Z 09012KT 5000 BR OVC007 05/04 Q1015 R27/29//95=
201912112100 METAR LRCV 112100Z 10012KT 5000 BR OVC005 05/04 Q1015 R27/29//95=
201912112130 METAR LRCV 112130Z 10011KT 5000 BR OVC003 05/04 Q1015 R27/29//95=
201912112200 METAR LRCV 112200Z 09009KT 5000 -RA BR OVC003 05/04 Q1014
                        R27/29//95=
201912112230 METAR LRCV 112230Z 09012KT 5000 -RA BR OVC003 05/04 Q1014
                        R27/29//95=
201912112300 METAR LRCV 112300Z 09013KT 5000 -RA BR BKN003 OVC006 05/04
                        Q1013 R27/29//95=
201912112330 METAR LRCV 112330Z 09013KT 5000 -RA BR BKN003 OVC006 05/04
                        Q1013 R27/29//95=
201912120000 METAR LRCV 120000Z 09015KT 5000 -RA BR BKN004 OVC008 05/04
                        Q1013 R27/29//95=
201912120030 METAR LRCV 120030Z 09016KT 7000 -RASN BKN004 OVC006 05/04
                        Q1013 R27/29//95=
201912120100 METAR LRCV 120100Z 09014KT 5000 -RA BR BKN003 OVC007 05/04
                        Q1012 R27/29//95=
201912120130 METAR LRCV 120130Z 09014KT 7000 -RA BR BKN004 OVC006 05/04
                        Q1012 R27/29//95=
201912120200 METAR LRCV 120200Z 09014KT 7000 DZ BKN004 OVC006 05/04 Q1012
                        R27/29//95=
201912120230 METAR LRCV 120230Z 10013KT 7000 -DZ BKN004 05/04 Q1011 R27/29//95=
201912120300 METAR LRCV 120300Z 09014KT 7000 BKN004 OVC006 05/04 Q1011
                        REDZ R27/29//95=
201912120330 METAR LRCV 120330Z 10013KT 9999 BKN004 OVC006 05/04 Q1011
                        R27/29//95=
201912120400 METAR LRCV 120400Z 09011KT 9999 OVC004 05/04 Q1011 R27/29//95=
201912120430 METAR LRCV 120430Z 09013KT 9000 BKN004 OVC006 05/04 Q1011
                        R27/29//95=
201912120500 METAR LRCV 120500Z 10011KT 7000 BKN004 OVC006 05/04 Q1011
                        R27/29//95=
201912120530 METAR LRCV 120530Z 10012KT 4000 -RA BR OVC003 05/04 Q1011
                        R27/29//95=
201912120600 METAR LRCV 120600Z 10012KT 4000 -RA BR BKN003 OVC005 05/04
                        Q1011 R27/29//95=
201912120630 METAR LRCV 120630Z 10012KT 2500 -RA BR BKN003 OVC005 05/04
                        Q1011 R27/29//95=
201912120700 METAR LRCV 120700Z 10011KT 2500 BR BKN003 OVC005 05/04 Q1011
                        R27/29//95=
201912120730 METAR LRCV 120730Z 10012KT 1600 -DZ BR BKN002 OVC004 05/04
                        Q1011 R27/29//95=
201912120800 METAR LRCV 120800Z 10013KT 1600 -RA BR BKN003 OVC007 05/05
                        Q1011 R27/29//95=
201912120830 METAR LRCV 120830Z 10012KT 2000 -RA BR BKN003 OVC005 05/05
                        Q1011 R27/29//95=
201912120900 METAR LRCV 120900Z 10012KT 3000 -DZ BR BKN003 OVC005 05/05
                        Q1010 R27/29//95=
201912120930 METAR LRCV 120930Z 08014KT 2500 -RA BR BKN003 OVC005 05/05
                        Q1010 R27/29//95=
201912121000 METAR LRCV 121000Z 10012KT 1700 -DZ BR BKN002 OVC004 05/05
                        Q1010 R27/29//95=
201912121030 METAR COR LRCV 121030Z 10012KT 2000 -RA BR BKN003 OVC005
                        05/05 Q1010 R27/29//95=
201912121100 METAR LRCV 121100Z 10013KT 2500 -RA BR BKN003 OVC005 05/05
                        Q1009 R27/29//95=
201912121130 METAR LRCV 121130Z 10011KT 3500 -RA BR BKN002 OVC004 05/05
                        Q1009 R27/29//95=
201912121200 METAR LRCV 121200Z 10013KT 4000 BR OVC003 05/05 Q1009 R27/29//95=
201912121230 METAR LRCV 121230Z 10014KT 2000 BR BKN003 OVC005 05/05 Q1009
                        R27/29//95=
201912121300 METAR LRCV 121300Z 10012KT 1800 -RA BR BKN003 OVC005 05/05
                        Q1008 R27/29//95=
201912121330 METAR LRCV 121330Z 09012KT 1600 -RA BR BKN003 OVC006 05/05
                        Q1008 R27/29//95=
201912121400 METAR LRCV 121400Z 10012KT 2000 -RA BR BKN002 OVC004 05/05
                        Q1008 R27/29//95=
201912121430 METAR LRCV 121430Z 09014KT 1800 BR BKN002 OVC004 05/05 Q1008
                        R27/29//95=
201912121500 METAR LRCV 121500Z 08013KT 2300 -RA BR BKN002 OVC004 05/05
                        Q1008 R27/29//95=
201912121530 METAR LRCV 121530Z 10013KT 3000 -RA BR BKN003 OVC005 05/05
                        Q1008 R27/29//95=
201912121600 METAR LRCV 121600Z 07013KT 4000 -RA BR BKN003 OVC005 05/05
                        Q1008 R27/29//95=
201912121630 METAR LRCV 121630Z 09013KT 4500 -RA BR SCT003 BKN005 OVC008
                        05/05 Q1008 R27/29//95=
201912121700 METAR LRCV 121700Z 09012KT 5000 -RA BR BKN004 OVC006 05/05
                        Q1008 R27/29//95=
201912121730 METAR LRCV 121730Z 09011KT 5000 -RA BR BKN004 OVC006 05/05
                        Q1008 R27/29//95=
201912121800 METAR LRCV 121800Z 09011KT 5000 -RA BR BKN003 OVC007 05/05
                        Q1007 R27/29//95=
201912121830 METAR LRCV 121830Z 08012KT 5000 -RA BR BKN004 OVC007 05/05
                        Q1007 R09/29//95=
201912121900 METAR LRCV 121900Z 07013KT 5000 -RA BR SCT003 BKN006 BKN008
                        05/04 Q1007 R09/29//95=
201912121930 METAR LRCV 121930Z 07015KT 5000 RA BR SCT003 BKN006 OVC008
                        05/04 Q1007 R09/29//95=
201912122000 METAR LRCV 122000Z 07015KT 5000 RA BR SCT003 BKN005 OVC008
                        05/04 Q1007 R09/29//95=
201912122030 METAR LRCV 122030Z 07013KT 6000 -RA SCT003 OVC005 05/04 Q1006
                        RERA R09/29//95=
201912122100 METAR LRCV 122100Z 07015KT 5000 -RA BR SCT003 OVC005 05/04
                        Q1006 R09/29//95=
201912122130 METAR LRCV 122130Z 07015KT 5000 BR BKN003 OVC005 05/04 Q1006
                        R09/29//95=
201912122200 METAR LRCV 122200Z 07014KT 5000 BR OVC003 04/04 Q1006 R09/29//95=
201912122230 METAR COR LRCV 122230Z 08013KT 5000 BR OVC003 04/04 Q1005
                        R09/29//95=
201912122300 METAR LRCV 122300Z 08013KT 5000 -RA BR BKN002 OVC004 04/04
                        Q1005 R09/29//95=
201912122330 METAR LRCV 122330Z 08012KT 5000 -RA BR BKN002 OVC004 04/04
                        Q1005 R09/29//95=
201912130000 METAR COR LRCV 130000Z 08012KT 4500 -RA BR BKN002 OVC004
                        04/04 Q1005 R09/29//95=
201912130030 METAR LRCV 130030Z 08013KT 4700 -RA BR BKN002 OVC004 04/04
                        Q1005 R09/29//95=
201912130100 METAR LRCV 130100Z 08012KT 4500 -RA BR BKN002 BKN004 04/04
                        Q1004 R09/29//95=
201912130130 METAR LRCV 130130Z 08012KT 5000 -RA BR OVC003 04/04 Q1004
                        R09/29//95=
201912130200 METAR LRCV 130200Z 08012KT 5000 -RA BR OVC003 04/04 Q1004
                        R09/29//95=
201912130230 METAR LRCV 130230Z 08010KT 4200 -RA BR OVC002 04/04 Q1004
                        R09/29//95=
201912130300 METAR LRCV 130300Z 08011KT 3500 -DZ BR OVC002 04/04 Q1003
                        R09/29//95=
201912130330 METAR LRCV 130330Z 08013KT 3500 -RADZ BR OVC002 04/04 Q1003
                        R09/29//95=
201912130400 METAR LRCV 130400Z 09012KT 2500 -DZ BR BKN001 OVC003 04/04
                        Q1003 R09/29//95=
201912130430 METAR LRCV 130430Z 08012KT 2000 BR BKN001 BKN003 04/04 Q1003
                        R09/29//95=
201912130500 METAR LRCV 130500Z 08012KT 0600 R09/1100D FG VV002 04/04
                        Q1003 R09/29//95=
201912130530 METAR LRCV 130530Z 08012KT 0600 R09/0750N FG VV002 04/04
                        Q1003 R09/29//95=
201912130600 METAR LRCV 130600Z 08011KT 0600 R09/0750N FG VV002 04/04
                        Q1003 R09/29//95=
201912130630 METAR LRCV 130630Z 08010KT 0600 R09/0500N FG VV002 04/04
                        Q1003 R09/29//95=
201912130700 METAR LRCV 130700Z 08010KT 0500 R09/0550N FG VV002 04/04
                        Q1003 R09/29//95=
201912130730 METAR LRCV 130730Z 07011KT 0500 R09/0600N FG VV002 04/04
                        Q1003 R09/29//95=
201912130800 METAR LRCV 130800Z 07011KT 0400 R09/0500N FG VV002 04/04
                        Q1003 R09/29//95=
201912130830 METAR LRCV 130830Z 07011KT 0350 R09/0450N FG VV002 04/04
                        Q1003 R09/29//95=
201912130900 METAR LRCV 130900Z 08013KT 0300 R09/0400N FG VV002 04/04
                        Q1002 R09/29//95=
201912130930 METAR LRCV 130930Z 08011KT 0250 R09/0350N FG VV002 05/04
                        Q1002 R09/29//95=
201912131000 METAR LRCV 131000Z 08011KT 0200 R09/0275N FG VV001 05/05
                        Q1002 R09/29//95=
201912131030 METAR LRCV 131030Z 08012KT 0150 R09/0250N FG VV001 05/05
                        Q1001 R09/29//95=
201912131100 METAR LRCV 131100Z 09010KT 0150 R09/0250N FG VV001 05/05
                        Q1000 R09/29//95=
201912131130 METAR COR LRCV 131130Z 09012KT 0150 R27/0350N FG VV001 05/05
                        Q1000 R27/29//95=
201912131200 METAR LRCV 131200Z 07011KT 0200 R27/0450N FG VV001 05/05
                        Q1000 R27/29//95=
201912131230 METAR LRCV 131230Z 09011KT 0200 R27/0300N FG VV002 05/05
                        Q1000 R27/29//95=
201912131300 METAR LRCV 131300Z 09008KT 0150 R27/0450N FG VV002 05/05
                        Q1000 R27/29//95=
201912131330 METAR LRCV 131330Z 09009KT 0150 R27/0400N FG VV002 05/05
                        Q1000 R27/29//95=
201912131400 METAR LRCV 131400Z 08009KT 0150 R27/0375N FG VV002 05/05
                        Q0999 R27/29//95=
201912131430 METAR LRCV 131430Z 10012KT 0250 R27/0400N FG VV002 05/05
                        Q0999 R27/29//95=
201912131500 METAR LRCV 131500Z 08011KT 0400 R27/0600N FG VV002 05/05
                        Q0999 R27/29//95=
201912131530 METAR LRCV 131530Z 09011KT 0400 R27/0600N FG VV002 05/05
                        Q0999 R27/29//95=
201912131600 METAR LRCV 131600Z 10009KT 0350 R27/0550N FG VV002 05/05
                        Q0999 R27/29//95=
201912131630 METAR LRCV 131630Z 11011KT 0300 R27/0500N FG VV001 05/05
                        Q0999 R27/29//95=
201912131700 METAR LRCV 131700Z 09011KT 0350 R27/0550N FG VV002 05/05
                        Q0999 R27/29//95=
201912131730 METAR LRCV 131730Z 10008KT 0450 R27/0650N FG VV002 05/05
                        Q0998 R27/29//95=
201912131800 METAR LRCV 131800Z 09007KT 0500 R27/0700N -RA FG VV002 05/05
                        Q0999 R27/29//95=
201912131830 METAR LRCV 131830Z 11008KT 0500 R27/1100D FG VV002 05/05
                        Q0998 R27/29//95=
201912131900 METAR LRCV 131900Z 09010KT 0400 R27/1100D FG VV002 05/05
                        Q0998 R27/29//95=
201912131930 METAR LRCV 131930Z 10009KT 0400 R09/0900N FG VV002 05/05
                        Q0998 R27/29//95=
201912132000 METAR LRCV 132000Z 10010KT 0400 R27/0900N FG VV002 05/05
                        Q0998 R27/29//95=
201912132030 METAR LRCV 132030Z 10011KT 0300 R27/0800N FG VV002 05/05
                        Q0997 R27/29//95=
201912132100 METAR LRCV 132100Z 08012KT 0300 R27/0800N FG VV002 05/05
                        Q0997 R27/29//95=
201912132130 METAR LRCV 132130Z 09011KT 0300 R27/0900U FG VV002 05/05
                        Q0997 R27/29//95=
201912132200 METAR COR LRCV 132200Z 07010KT 0300 R27/1000N FG VV002 06/05
                        Q0997 R27/29//95=
201912132230 METAR LRCV 132230Z 10009KT 0300 R27/0900U FG VV002 06/06
                        Q0997 R27/29//95=
201912132300 METAR LRCV 132300Z 09011KT 0500 R27/1300D FG VV002 06/06
                        Q0997 R27/29//95=
201912132330 METAR LRCV 132330Z 09011KT 0500 R27/1100D FG VV002 06/06
                        Q0996 R27/29//95=
201912140000 METAR LRCV 140000Z 06011KT 0500 R27/1200U FG VV002 06/06
                        Q0997 R27/29//95=
201912140030 METAR LRCV 140030Z 09011KT 0900 PRFG SCT001 OVC003 06/06
                        Q0996 R27/29//95=
201912140100 METAR LRCV 140100Z 09012KT 2000 BR BKN001 BKN003 06/06 Q0996
                        R27/29//95=
201912140130 METAR LRCV 140130Z 09013KT 1000 PRFG VV002 06/06 Q0996 R27/29//95=
201912140200 METAR LRCV 140200Z 09012KT 1500 PRFG VV002 06/06 Q0996 R27/29//95=
201912140230 METAR LRCV 140230Z 08013KT 2000 BR BKN001 OVC003 06/06 Q0996
                        R27/29//95=
201912140300 METAR LRCV 140300Z 06013KT 3000 BR BKN001 OVC004 06/06 Q0996
                        R27/29//95=
201912140330 METAR LRCV 140330Z 08011KT 3100 BR BKN002 OVC004 06/06 Q0996
                        R27/29//95=
201912140400 METAR LRCV 140400Z 06012KT 3000 BR BKN002 OVC004 06/06 Q0996
                        R27/29//95=
201912140430 METAR LRCV 140430Z 06013KT 4000 BR SCT002 BKN004 OVC006 06/06
                        Q0996 R27/29//95=
201912140500 METAR LRCV 140500Z AUTO 06014KT 4400 BR SCT004/// OVC007///
                        06/06 Q0996=
201912140530 METAR LRCV 140530Z 06013KT 5000 BR SCT005 OVC007 07/06 Q0996
                        R27/29//95=
201912140600 METAR LRCV 140600Z 08012KT 5000 BR BKN004 OVC006 07/06 Q0997
                        R27/29//95=
201912140630 METAR LRCV 140630Z 08011KT 6000 BKN004 OVC007 07/06 Q0997
                        R27/29//95=
201912140700 METAR LRCV 140700Z 08010KT 6000 BKN005 OVC007 07/06 Q0998
                        R27/29//95=
201912140730 METAR LRCV 140730Z 08013KT 6000 SCT005 OVC009 08/07 Q0998
                        R27/29//95=
201912140800 METAR LRCV 140800Z 08013KT 8000 BKN006 OVC008 08/07 Q0999
                        R27/29//95=
201912140830 METAR LRCV 140830Z 09009KT 8000 OVC007 08/07 Q0999 R27/29//95=
201912140900 METAR LRCV 140900Z 08010KT 9000 SCT006 OVC008 08/07 Q1000
                        R27/29//95=
201912140930 METAR LRCV 140930Z 08009KT 8000 BKN008 OVC010 08/07 Q0999
                        R27/29//95=
201912141000 METAR LRCV 141000Z 07010KT 9999 SCT008 OVC010 08/07 Q0999
                        R27/29//95=
201912141030 METAR LRCV 141030Z 07010KT 9999 BKN008 OVC011 09/07 Q0999
                        R27/29//95=
201912141100 METAR LRCV 141100Z 07011KT 9999 BKN009 OVC012 09/07 Q1000
                        R27/29//95=
201912141130 METAR LRCV 141130Z 06010KT 9999 SCT012 BKN015 09/07 Q1000
                        R27/29//95=
201912141200 METAR LRCV 141200Z 07008KT 040V110 9999 BKN013 10/07 Q1000
                        R27/29//95=
201912141230 METAR LRCV 141230Z 08006KT 050V120 9999 BKN013 09/07 Q1001
                        R27/19//95=
201912141300 METAR LRCV 141300Z 11005KT 9999 BKN014 OVC017 09/07 Q1001
                        R27/19//95=
201912141330 METAR LRCV 141330Z 13004KT 9999 BKN015 OVC018 09/07 Q1002
                        R27/19//95=
201912141400 METAR LRCV 141400Z 15004KT 9999 BKN017 OVC020 09/07 Q1002
                        R27/19//95=
201912141430 METAR LRCV 141430Z 16002KT 9999 OVC018 09/07 Q1003 R27/19//95=
201912141500 METAR LRCV 141500Z 17003KT 9999 BKN018 08/07 Q1003 R27/19//95=
201912141530 METAR LRCV 141530Z 20004KT 9999 SCT020 08/06 Q1003 R27/19//95=
201912141600 METAR LRCV 141600Z 24004KT 8000 SCT018 08/06 Q1004 R27/19//95=
201912141630 METAR LRCV 141630Z 27007KT 5000 BR FEW006 SCT015 08/07 Q1005
                        R27/19//95=
201912141700 METAR LRCV 141700Z 25003KT 4000 -RA BR FEW020 08/07 Q1005
                        R27/19//95=
201912141730 METAR LRCV 141730Z 25006KT 3500 -RA BR NSC 08/07 Q1005 R27/19//95=
201912141800 METAR LRCV 141800Z 25005KT 3000 -RA BR FEW005 07/06 Q1006
                        R27/19//95=
201912141830 METAR LRCV 141830Z 24004KT 3000 BR NSC 07/07 Q1006 R27/19//95=
201912141900 METAR LRCV 141900Z 25006KT 3000 BR NSC 07/07 Q1007 R27/19//95=
201912141930 METAR LRCV 141930Z 25007KT 4000 BR NSC 07/07 Q1007 R27/19//95=
201912142000 METAR LRCV 142000Z 27006KT 4000 BR FEW015 07/06 Q1008 R27/19//95=
201912142030 METAR LRCV 142030Z 27005KT 3500 BR NSC 07/06 Q1009 R27/19//95=
201912142100 METAR LRCV 142100Z 27006KT 4000 BR NSC 07/06 Q1009 R27/19//95=
201912142130 METAR LRCV 142130Z 25004KT 3000 BR NSC 06/05 Q1009 R27/19//95=
201912142200 METAR LRCV 142200Z 23005KT 4000 BR NSC 05/05 Q1009 R27/19//95=
201912142230 METAR LRCV 142230Z 23007KT 4000 BR NSC 06/05 Q1009 R27/19//95=
201912142300 METAR LRCV 142300Z 24011KT 5000 BR NSC 06/05 Q1010 R27/19//95=
201912142330 METAR LRCV 142330Z 24007KT 5000 BR NSC 05/04 Q1010 R27/19//95=
201912150000 METAR LRCV 150000Z 26007KT 5000 BR NSC 04/03 Q1011 R27/19//95=
201912150030 METAR LRCV 150030Z 24008KT 5000 BR NSC 04/04 Q1011 R27/19//95=
201912150100 METAR LRCV 150100Z 24008KT 5000 BR NSC 04/03 Q1011 R27/19//95=
201912150130 METAR LRCV 150130Z 25009KT 6000 NSC 04/03 Q1012 R27/19//95=
201912150200 METAR LRCV 150200Z 25008KT 6000 NSC 03/02 Q1012 R27/19//95=
201912150230 METAR LRCV 150230Z 24008KT 5000 BR NSC 02/02 Q1012 R27/19//95=
201912150300 METAR LRCV 150300Z 23010KT 5000 BR NSC 03/02 Q1013 R27/19//95=
201912150330 METAR LRCV 150330Z 25012KT 6000 NSC 03/02 Q1013 R27/19//95=
201912150400 METAR LRCV 150400Z 26010KT 7000 NSC 03/02 Q1014 R27/19//95=
201912150430 METAR LRCV 150430Z 26008KT 8000 NSC 02/02 Q1015 R27/19//95=
201912150500 METAR LRCV 150500Z 26007KT CAVOK 02/01 Q1015 R27/19//95=
201912150530 METAR LRCV 150530Z 27005KT CAVOK 03/02 Q1015 R27/19//95=
201912150600 METAR LRCV 150600Z 25004KT CAVOK 02/01 Q1016 R27/19//95=
201912150630 METAR LRCV 150630Z 25006KT CAVOK 02/01 Q1016 R27/19//95=
201912150700 METAR LRCV 150700Z 22005KT CAVOK 03/02 Q1016 R27/19//95=
201912150730 METAR LRCV 150730Z 22006KT CAVOK 04/03 Q1017 R27/19//95=
201912150800 METAR LRCV 150800Z 21005KT CAVOK 05/03 Q1017 R27/19//95=
201912150830 METAR LRCV 150830Z 21003KT CAVOK 07/04 Q1018 R27/19//95=
201912150900 METAR LRCV 150900Z 21004KT 180V250 CAVOK 08/04 Q1018 R27/19//95=
201912150930 METAR LRCV 150930Z 24005KT CAVOK 08/04 Q1018 R27/19//95=
201912151000 METAR LRCV 151000Z 23007KT CAVOK 09/03 Q1018 R27/CLRD//=
201912151030 METAR LRCV 151030Z 23005KT 200V260 CAVOK 10/03 Q1018 R27/CLRD//=
201912151100 METAR LRCV 151100Z 23005KT 200V280 CAVOK 11/03 Q1018=
201912151130 METAR LRCV 151130Z 25004KT 180V290 CAVOK 12/03 Q1017=
201912151200 METAR LRCV 151200Z 23005KT 210V270 CAVOK 12/03 Q1018=
201912151230 METAR LRCV 151230Z VRB02KT CAVOK 13/03 Q1018=
201912151300 METAR LRCV 151300Z VRB03KT CAVOK 13/03 Q1018=
201912151330 METAR LRCV 151330Z VRB02KT CAVOK 13/03 Q1018=
201912151400 METAR LRCV 151400Z 03001KT CAVOK 12/05 Q1019=
201912151430 METAR LRCV 151430Z 00000KT CAVOK 11/04 Q1019=
201912151500 METAR LRCV 151500Z 36003KT CAVOK 10/04 Q1019=
201912151530 METAR LRCV 151530Z 01005KT CAVOK 08/03 Q1019=
201912151600 METAR LRCV 151600Z 01006KT CAVOK 07/04 Q1019=
201912151630 METAR LRCV 151630Z 36006KT CAVOK 08/03 Q1019=
201912151700 METAR LRCV 151700Z 01005KT CAVOK 07/03 Q1019=
201912151730 METAR LRCV 151730Z 06004KT CAVOK 05/03 Q1019=
201912151800 METAR LRCV 151800Z 09005KT CAVOK 05/02 Q1020=
201912151830 METAR LRCV 151830Z 20002KT CAVOK 04/02 Q1020=
201912151900 METAR LRCV 151900Z 09003KT CAVOK 02/01 Q1020=
201912151930 METAR LRCV 151930Z VRB02KT CAVOK 03/02 Q1021=
201912152000 METAR LRCV 152000Z 19002KT CAVOK 03/01 Q1021=
201912152030 METAR LRCV 152030Z 12002KT CAVOK 01/M00 Q1021=
201912152100 METAR LRCV 152100Z 06004KT CAVOK 03/01 Q1021=
201912152130 METAR LRCV 152130Z 04004KT CAVOK 04/02 Q1021=
201912152200 METAR LRCV 152200Z 02006KT CAVOK 03/01 Q1021=
201912152230 METAR LRCV 152230Z 01006KT CAVOK 03/01 Q1021=
201912152300 METAR LRCV 152300Z 01006KT CAVOK 03/01 Q1021=
201912152330 METAR LRCV 152330Z 36008KT CAVOK 02/01 Q1021=
201912160000 METAR LRCV 160000Z 01007KT CAVOK 02/00 Q1021=
201912160030 METAR LRCV 160030Z 01006KT CAVOK 02/00 Q1021=
201912160100 METAR LRCV 160100Z 01006KT CAVOK 02/00 Q1021=
201912160130 METAR LRCV 160130Z 36005KT CAVOK 02/00 Q1021=
201912160200 METAR LRCV 160200Z 35004KT CAVOK 01/M01 Q1021=
201912160230 METAR LRCV 160230Z 34004KT CAVOK 01/M00 Q1022=
201912160300 METAR LRCV 160300Z 33004KT 310V010 CAVOK 00/M01 Q1022=
201912160330 METAR LRCV 160330Z 34005KT CAVOK 01/M00 Q1022=
201912160400 METAR LRCV 160400Z 33005KT CAVOK 01/00 Q1022=
201912160430 METAR LRCV 160430Z 33004KT CAVOK 01/M00 Q1022=
201912160500 METAR LRCV 160500Z 33005KT CAVOK 01/M00 Q1022=
201912160530 METAR LRCV 160530Z 31004KT CAVOK 00/M01 Q1022=
201912160600 METAR LRCV 160600Z 28006KT CAVOK M01/M02 Q1023=
201912160630 METAR LRCV 160630Z 32004KT CAVOK 01/M00 Q1023=
201912160700 METAR LRCV 160700Z 33002KT CAVOK 02/01 Q1023=
201912160730 METAR LRCV 160730Z VRB02KT CAVOK 04/01 Q1023=
201912160800 METAR LRCV 160800Z 30004KT 260V320 CAVOK 05/03 Q1024=
201912160830 METAR LRCV 160830Z 26003KT CAVOK 06/03 Q1024=
201912160900 METAR LRCV 160900Z 23004KT 200V270 CAVOK 06/03 Q1024=
201912160930 METAR LRCV 160930Z 23005KT CAVOK 07/03 Q1024=
201912161000 METAR LRCV 161000Z 23004KT CAVOK 08/03 Q1023=
201912161030 METAR LRCV 161030Z 26005KT 230V290 CAVOK 09/03 Q1023=
201912161100 METAR LRCV 161100Z 27004KT 240V300 CAVOK 10/02 Q1023=
201912161130 METAR LRCV 161130Z 30003KT 250V360 CAVOK 11/02 Q1023=
201912161200 METAR LRCV 161200Z 29003KT 260V320 CAVOK 11/02 Q1023=
201912161230 METAR LRCV 161230Z 30003KT 270V010 CAVOK 12/03 Q1022=
201912161300 METAR LRCV 161300Z 02002KT CAVOK 12/04 Q1022=
201912161330 METAR LRCV 161330Z 02002KT CAVOK 11/04 Q1022=
201912161400 METAR LRCV 161400Z 00000KT CAVOK 11/04 Q1022=
201912161430 METAR LRCV 161430Z 00000KT CAVOK 11/03 Q1022=
201912161500 METAR LRCV 161500Z 00000KT CAVOK 09/02 Q1022=
201912161530 METAR LRCV 161530Z 00000KT CAVOK 07/03 Q1022=
201912161600 METAR LRCV 161600Z 00000KT CAVOK 07/03 Q1022=
201912161630 METAR LRCV 161630Z 00000KT CAVOK 06/03 Q1022=
201912161700 METAR LRCV 161700Z 00000KT CAVOK 07/02 Q1022=
201912161730 METAR LRCV 161730Z 00000KT CAVOK 05/01 Q1022=
201912161800 METAR LRCV 161800Z 22003KT 070V240 CAVOK 04/02 Q1023=
201912161830 METAR LRCV 161830Z 23002KT CAVOK 06/02 Q1023=
201912161900 METAR LRCV 161900Z 00000KT CAVOK 04/02 Q1022=
201912161930 METAR LRCV 161930Z 18002KT CAVOK 03/02 Q1022=
201912162000 METAR LRCV 162000Z 27004KT CAVOK 05/02 Q1022=
201912162030 METAR LRCV 162030Z 27002KT CAVOK 03/02 Q1022=
201912162100 METAR LRCV 162100Z 30004KT 8000 NSC 02/01 Q1022=
201912162130 METAR LRCV 162130Z 34004KT 8000 NSC 03/01 Q1022=
201912162200 METAR LRCV 162200Z 32003KT 8000 NSC 01/01 Q1022=
201912162230 METAR LRCV 162230Z 30003KT CAVOK 02/01 Q1022=
201912162300 METAR LRCV 162300Z 30003KT CAVOK 02/01 Q1022=
201912162330 METAR LRCV 162330Z 31002KT CAVOK 01/01 Q1022=
201912170000 METAR LRCV 170000Z 31003KT CAVOK 01/01 Q1022=
201912170030 METAR LRCV 170030Z AUTO 30003KT 6000 NCD 01/00 Q1022=
201912170100 METAR LRCV 170100Z 29002KT CAVOK 01/00 Q1022=
201912170130 METAR LRCV 170130Z 32004KT CAVOK 03/01 Q1022=
201912170200 METAR LRCV 170200Z 32003KT CAVOK 00/M01 Q1022=
201912170230 METAR LRCV 170230Z 32003KT CAVOK 01/M00 Q1021=
201912170300 METAR LRCV 170300Z 26002KT CAVOK 01/00 Q1021=
201912170330 METAR LRCV 170330Z 00000KT CAVOK 01/01 Q1022=
201912170400 METAR LRCV 170400Z 35004KT CAVOK 02/01 Q1022=
201912170430 METAR LRCV 170430Z 33004KT CAVOK 02/01 Q1022=
201912170500 METAR LRCV 170500Z 32003KT CAVOK M00/M01 Q1022=
201912170530 METAR LRCV 170530Z VRB01KT CAVOK 01/00 Q1022=
201912170600 METAR LRCV 170600Z 27003KT CAVOK 00/M00 Q1022=
201912170630 METAR LRCV 170630Z 26005KT CAVOK M00/M01 Q1022=
201912170700 METAR COR LRCV 170700Z 27005KT CAVOK 00/M00 Q1023=
201912170730 METAR LRCV 170730Z 31005KT CAVOK 02/01 Q1023=
201912170800 METAR LRCV 170800Z 31002KT CAVOK 04/02 Q1023=
201912170830 METAR LRCV 170830Z VRB01KT CAVOK 05/03 Q1023=
201912170900 METAR LRCV 170900Z VRB01KT CAVOK 08/04 Q1023=
201912170930 METAR LRCV 170930Z VRB02KT CAVOK 09/04 Q1023=
201912171000 METAR LRCV 171000Z 32004KT 290V050 CAVOK 09/04 Q1023=
201912171030 METAR LRCV 171030Z 30005KT CAVOK 09/04 Q1022=
201912171100 METAR LRCV 171100Z 31003KT 260V350 CAVOK 10/03 Q1022=
201912171130 METAR LRCV 171130Z 32003KT 280V010 CAVOK 11/03 Q1022=
201912171200 METAR LRCV 171200Z 30003KT 270V340 CAVOK 12/03 Q1022=
201912171230 METAR LRCV 171230Z 26003KT 230V320 CAVOK 13/03 Q1022=
201912171300 METAR LRCV 171300Z 23003KT CAVOK 13/04 Q1022=
201912171330 METAR LRCV 171330Z VRB02KT CAVOK 12/03 Q1022=
201912171400 METAR LRCV 171400Z 23002KT CAVOK 12/04 Q1022=
201912171430 METAR LRCV 171430Z 24002KT CAVOK 10/04 Q1022=
201912171500 METAR LRCV 171500Z 24004KT CAVOK 09/03 Q1022=
201912171530 METAR LRCV 171530Z 26003KT CAVOK 09/03 Q1022=
201912171600 METAR LRCV 171600Z 24004KT CAVOK 08/03 Q1022=
201912171630 METAR LRCV 171630Z AUTO 19001KT 7000 NCD 07/04 Q1022=
201912171700 METAR LRCV 171700Z 30002KT CAVOK 05/04 Q1022=
201912171730 METAR LRCV 171730Z 25005KT CAVOK 05/04 Q1022=
201912171800 METAR LRCV 171800Z 28006KT CAVOK 05/04 Q1022=
201912171830 METAR LRCV 171830Z 28006KT 5000 BR NSC 05/05 Q1022=
201912171900 METAR LRCV 171900Z 30005KT 4500 BR NSC 05/04 Q1022=
201912171930 METAR LRCV 171930Z 28004KT 3000 BR NSC 05/04 Q1022=
201912172000 METAR LRCV 172000Z 26004KT 0400 R27/1300D FG NSC 03/03 Q1023=
201912172030 METAR COR LRCV 172030Z 29006KT 0200 R27/0250N SG FG NSC 02/02
                        Q1023=
201912172100 METAR COR LRCV 172100Z 34002KT 1500 R27/1700U BR BKN003 02/02
                        Q1022=
201912172130 METAR LRCV 172130Z 30005KT 2500 BR NSC 03/03 Q1023=
201912172200 METAR LRCV 172200Z 31007KT 5000 BR NSC 04/04 Q1022=
201912172230 METAR LRCV 172230Z 30006KT 4500 BR NSC 03/02 Q1022=
201912172300 METAR LRCV 172300Z 31007KT 5000 BR NSC 04/03 Q1022=
201912172330 METAR LRCV 172330Z 31005KT 5000 BR NSC 04/03 Q1022=
201912180000 METAR LRCV 180000Z VRB02KT 5000 BR NSC 02/02 Q1022=
201912180030 METAR LRCV 180030Z 33003KT 5000 BR NSC 02/02 Q1022=
201912180100 METAR LRCV 180100Z 25006KT 3400 BR NSC 01/01 Q1022=
201912180130 METAR LRCV 180130Z 29007KT 3000 BR NSC M00/M00 Q1022=
201912180200 METAR LRCV 180200Z 28004KT 2000 BR NSC M01/M01 Q1022=
201912180230 METAR LRCV 180230Z 26005KT 0400 FZFG FEW001 M01/M01 Q1022=
201912180300 METAR LRCV 180300Z 30006KT 0800 R27/1400N FZFG FEW001 SCT003
                        M01/M01 Q1023=
201912180330 METAR LRCV 180330Z 30007KT 2000 BR NSC 01/01 Q1023=
201912180400 METAR LRCV 180400Z 27006KT 2000 BR NSC 01/00 Q1023=
201912180430 METAR LRCV 180430Z 31007KT 2000 BR NSC 01/01 Q1023=
201912180500 METAR LRCV 180500Z 31004KT 2500 BR NSC 00/00 Q1023=
201912180530 METAR COR LRCV 180530Z 28004KT 2000 BR NSC M00/M01 Q1023=
201912180600 METAR LRCV 180600Z 28006KT 1500 BR NSC M01/M02 Q1023=
201912180630 METAR COR LRCV 180630Z 29006KT 0350 R27/1300D FZFG FEW001
                        SCT003 M02/M02 Q1023=
201912180700 METAR LRCV 180700Z 27004KT 0600 R27/1000U FZFG FEW001 M01/M02
                        Q1023=
201912180730 METAR LRCV 180730Z VRB02KT 2000 BR NSC 01/00 Q1023=
201912180800 METAR LRCV 180800Z 00000KT 4000 BR NSC 03/02 Q1023=
201912180830 METAR LRCV 180830Z 27004KT 5000 BR NSC 05/03 Q1024=
201912180900 METAR LRCV 180900Z 28005KT 6000 NSC 06/04 Q1024=
201912180930 METAR LRCV 180930Z 30006KT 6000 NSC 07/04 Q1023=
201912181000 METAR LRCV 181000Z 28005KT 240V310 8000 NSC 09/04 Q1023=
201912181030 METAR LRCV 181030Z 28006KT 250V330 CAVOK 10/04 Q1023=
201912181100 METAR LRCV 181100Z 28006KT CAVOK 11/04 Q1023=
201912181130 METAR LRCV 181130Z 25004KT CAVOK 12/05 Q1023=
201912181200 METAR LRCV 181200Z 30004KT CAVOK 13/05 Q1023=
201912181230 METAR LRCV 181230Z VRB02KT CAVOK 13/05 Q1023=
201912181300 METAR LRCV 181300Z VRB02KT CAVOK 14/06 Q1022=
201912181330 METAR LRCV 181330Z 23004KT CAVOK 14/06 Q1022=
201912181400 METAR LRCV 181400Z 24003KT CAVOK 12/06 Q1023=
201912181430 METAR LRCV 181430Z 27002KT CAVOK 11/06 Q1023=
201912181500 METAR LRCV 181500Z 24004KT CAVOK 08/05 Q1023=
201912181530 METAR LRCV 181530Z VRB01KT CAVOK 09/05 Q1023=
201912181600 METAR LRCV 181600Z 23001KT CAVOK 07/05 Q1023=
201912181630 METAR LRCV 181630Z 23002KT 8000 NSC 07/05 Q1023=
201912181700 METAR LRCV 181700Z 26002KT 6000 MIFG NSC 05/05 Q1023=
201912181730 METAR LRCV 181730Z 24003KT 5000 BR NSC 05/05 Q1024=
201912181800 METAR LRCV 181800Z 26003KT 240V300 5000 BR NSC 06/05 Q1024=
201912181830 METAR LRCV 181830Z 24006KT 6000 NSC 06/05 Q1024=
201912181900 METAR LRCV 181900Z 24006KT 8000 NSC 05/04 Q1024=
201912181930 METAR LRCV 181930Z 28007KT 7000 NSC 06/04 Q1024=
201912182000 METAR LRCV 182000Z 30007KT 8000 NSC 06/04 Q1024=
201912182030 METAR LRCV 182030Z 29007KT 8000 NSC 05/03 Q1024=
201912182100 METAR LRCV 182100Z 26004KT 6000 NSC 06/05 Q1025=
201912182130 METAR LRCV 182130Z VRB01KT 3000 MIFG BR NSC 03/03 Q1025=
201912182200 METAR LRCV 182200Z 34001KT 3500 MIFG BR NSC 04/03 Q1025=
201912182230 METAR COR LRCV 182230Z VRB02KT 0800 R27/0800D FG NSC 03/02
                        Q1025=
201912182300 METAR LRCV 182300Z 32002KT 1500 R27/1300U MIFG BR NSC 02/02
                        Q1025=
201912182330 METAR LRCV 182330Z 30004KT 1600 MIFG BR NSC 03/03 Q1025=
201912190000 METAR LRCV 190000Z 30001KT 1800 MIFG BR NSC 02/02 Q1025=
201912190030 METAR COR LRCV 190030Z 30003KT 3000 MIFG BR NSC 03/02 Q1025=
201912190100 METAR LRCV 190100Z 28003KT 2000 R27/1600D MIFG BR NSC 03/02
                        Q1025=
201912190130 METAR LRCV 190130Z 31003KT 3000 MIFG BR NSC 02/02 Q1025=
201912190200 METAR LRCV 190200Z 27004KT 6000 NSC 03/02 Q1025=
201912190230 METAR COR LRCV 190230Z 25012KT 5000 BR NSC 01/01 Q1025=
201912190300 METAR LRCV 190300Z 35001KT 5000 BR NSC 01/01 Q1025=
201912190330 METAR COR LRCV 190330Z 03002KT 5000 MIFG BR NSC 01/01 Q1025=
201912190400 METAR LRCV 190400Z 00000KT 5000 MIFG BR NSC 00/00 Q1025=
201912190430 METAR COR LRCV 190430Z 00000KT 4700 1000N R27/1500U BCFG
                        BR NSC 01/01 Q1026=
201912190500 METAR LRCV 190500Z 05001KT 5000 1000 R27/0550U BCFG BR NSC
                        M00/M01 Q1026=
201912190530 METAR LRCV 190530Z 06001KT 1500 0500 R27/0800D BCFG BR NSC
                        M01/M01 Q1026=
201912190600 METAR COR LRCV 190600Z VRB01KT 3000 0800 R27/0800U BCFG BR
                        NSC M01/M01 Q1026=
201912190630 METAR LRCV 190630Z 08002KT 7000 1000 BCFG NSC 01/01 Q1026=
201912190700 METAR LRCV 190700Z VRB01KT 5000 BR NSC 02/01 Q1027=
201912190730 METAR LRCV 190730Z 06003KT 030V090 2300 BR NSC 04/03 Q1027=
201912190800 METAR LRCV 190800Z 01003KT 5000 BR NSC 06/05 Q1027=
201912190830 METAR LRCV 190830Z 05003KT 8000 NSC 07/05 Q1027=
201912190900 METAR LRCV 190900Z 08004KT 8000 NSC 07/05 Q1027=
201912190930 METAR LRCV 190930Z 10004KT CAVOK 09/06 Q1027=
201912191000 METAR LRCV 191000Z 07004KT 040V100 CAVOK 10/06 Q1027=
201912191030 METAR LRCV 191030Z 08003KT 060V140 CAVOK 10/06 Q1026=
201912191100 METAR LRCV 191100Z 07003KT 040V110 CAVOK 11/06 Q1026=
201912191130 METAR LRCV 191130Z VRB02KT CAVOK 12/06 Q1026=
201912191200 METAR LRCV 191200Z 16004KT CAVOK 12/06 Q1026=
201912191230 METAR LRCV 191230Z 16003KT 110V220 CAVOK 12/07 Q1025=
201912191300 METAR LRCV 191300Z VRB02KT CAVOK 12/07 Q1025=
201912191330 METAR LRCV 191330Z 00000KT CAVOK 11/07 Q1025=
201912191400 METAR LRCV 191400Z 09002KT CAVOK 10/08 Q1025=
201912191430 METAR LRCV 191430Z 08002KT CAVOK 09/07 Q1025=
201912191500 METAR LRCV 191500Z 00000KT CAVOK 08/06 Q1025=
201912191530 METAR LRCV 191530Z 00000KT CAVOK 09/06 Q1025=
201912191600 METAR LRCV 191600Z 35002KT CAVOK 07/05 Q1025=
201912191630 METAR LRCV 191630Z 01003KT 8000 NSC 07/05 Q1025=
201912191700 METAR LRCV 191700Z 36001KT 8000 MIFG NSC 05/04 Q1025=
201912191730 METAR LRCV 191730Z VRB02KT 7000 MIFG NSC 04/03 Q1025=
201912191800 METAR LRCV 191800Z 02005KT CAVOK 06/04 Q1025=
201912191830 METAR LRCV 191830Z 02004KT CAVOK 05/03 Q1025=
201912191900 METAR LRCV 191900Z 04005KT CAVOK 06/03 Q1025=
201912191930 METAR LRCV 191930Z 05005KT CAVOK 04/02 Q1025=
201912192000 METAR LRCV 192000Z 06007KT CAVOK 04/03 Q1024=
201912192030 METAR LRCV 192030Z 06006KT 8000 NSC 04/03 Q1024=
201912192100 METAR LRCV 192100Z 07007KT 8000 NSC 04/03 Q1024=
201912192130 METAR LRCV 192130Z 07003KT 9000 NSC 04/03 Q1024=
201912192200 METAR LRCV 192200Z 05004KT CAVOK 05/03 Q1024=
201912192230 METAR LRCV 192230Z 05007KT CAVOK 03/02 Q1024=
201912192300 METAR LRCV 192300Z 04005KT CAVOK 05/03 Q1023=
201912192330 METAR LRCV 192330Z 06006KT CAVOK 03/02 Q1023=
201912200000 METAR LRCV 200000Z 06006KT 8000 NSC 03/02 Q1023=
201912200030 METAR LRCV 200030Z 05004KT 7000 NSC 03/02 Q1022=
201912200100 METAR LRCV 200100Z 36005KT 7000 NSC 03/02 Q1022=
201912200130 METAR LRCV 200130Z 33005KT 270V010 5000 BR NSC 02/01 Q1022=
201912200200 METAR LRCV 200200Z 31003KT 5000 BR NSC 01/01 Q1022=
201912200230 METAR LRCV 200230Z 32003KT 5000 BR NSC 01/01 Q1021=
201912200300 METAR LRCV 200300Z 02003KT 7000 NSC 02/01 Q1021=
201912200330 METAR LRCV 200330Z 31003KT 8000 NSC 01/01 Q1021=
201912200400 METAR LRCV 200400Z 34003KT 7000 NSC 02/01 Q1021=
201912200430 METAR LRCV 200430Z 34003KT 8000 NSC 02/01 Q1020=
201912200500 METAR LRCV 200500Z VRB02KT 9000 NSC 01/00 Q1021=
201912200530 METAR LRCV 200530Z 02005KT 9000 NSC 03/01 Q1020=
201912200600 METAR LRCV 200600Z 04005KT 9000 NSC 01/00 Q1020=
201912200630 METAR LRCV 200630Z 32002KT 9000 NSC 01/00 Q1020=
201912200700 METAR LRCV 200700Z VRB02KT 8000 NSC 02/01 Q1020=
201912200730 METAR LRCV 200730Z 03005KT 7000 FEW040 02/02 Q1019=
201912200800 METAR LRCV 200800Z VRB01KT 9000 FEW040 05/03 Q1019=
201912200830 METAR LRCV 200830Z 06004KT 8000 FEW045 05/04 Q1019=
201912200900 METAR LRCV 200900Z 06004KT 8000 SCT045 06/04 Q1019=
201912200930 METAR LRCV 200930Z 08003KT 9000 SCT045 06/04 Q1019=
201912201000 METAR LRCV 201000Z 01003KT 310V060 8000 FEW045 07/04 Q1018=
201912201030 METAR LRCV 201030Z 09005KT 9000 FEW045 07/05 Q1018=
201912201100 METAR LRCV 201100Z 07003KT 040V100 9000 NSC 07/05 Q1018=
201912201130 METAR LRCV 201130Z 09005KT 060V130 9000 NSC 08/05 Q1017=
201912201200 METAR LRCV 201200Z VRB02KT CAVOK 08/05 Q1017=
201912201230 METAR LRCV 201230Z 14003KT 9000 FEW015 08/05 Q1016=
201912201300 METAR LRCV 201300Z 13008KT 5000 BR FEW006 06/05 Q1015=
201912201330 METAR COR LRCV 201330Z 15007KT 110V210 1700 BR BKN003 06/05
                        Q1016=
201912201400 METAR LRCV 201400Z 17005KT 1200 BR OVC002 05/05 Q1016=
201912201430 METAR LRCV 201430Z 19003KT 140V220 0400 R09/0500U FG VV002
                        05/05 Q1016=
201912201500 METAR COR LRCV 201500Z 15004KT 110V210 0300 R27/375N FG VV001
                        04/04 Q1015=
201912201530 METAR LRCV 201530Z 15004KT 0300 R27/0325N -DZ FG VV001 04/04
                        Q1015=
201912201600 METAR LRCV 201600Z 11006KT 0300 R27/0550N -DZ FG VV001 04/04
                        Q1015=
201912201630 METAR LRCV 201630Z 13005KT 0300 R27/0450N -DZ FG VV001 04/03
                        Q1015=
201912201700 METAR LRCV 201700Z 10005KT 0400 R27/0650N FG VV001 03/03
                        Q1015=
201912201730 METAR LRCV 201730Z 09004KT 040V140 0300 R27/0450N FG VV001
                        03/03 Q1015=
201912201800 METAR LRCV 201800Z 10006KT 0300 R27/0500N -DZ FG VV001 03/03
                        Q1015=
201912201830 METAR LRCV 201830Z 09003KT 0300 R27/0450N FG VV001 03/03
                        Q1014=
201912201900 METAR LRCV 201900Z 06006KT 0300 R27/0500N -DZ FG VV001 03/03
                        Q1014=
201912201930 METAR LRCV 201930Z 09006KT 0300 R27/0450N -DZ FG VV001 03/03
                        Q1014=
201912202000 METAR LRCV 202000Z 09004KT 0200 R27/0400N -DZ FG VV001 03/03
                        Q1014=
201912202030 METAR LRCV 202030Z 08005KT 060V130 0200 R27/0400N -DZ FG
                        VV001 03/03 Q1014=
201912202100 METAR LRCV 202100Z 09006KT 0200 R27/0400N -DZ FG VV001 03/03
                        Q1013=
201912202130 METAR LRCV 202130Z 09006KT 0200 R27/0400N -DZ FG VV001 03/03
                        Q1013=
201912202200 METAR LRCV 202200Z 10005KT 0150 R27/0400N -DZ FG VV001 02/02
                        Q1013=
201912202230 METAR LRCV 202230Z 10004KT 060V120 0150 R27/0400N -DZ FG
                        VV001 02/02 Q1013=
201912202300 METAR LRCV 202300Z 04004KT 010V080 0150 R27/0375N -DZ FG
                        VV001 02/02 Q1012=
201912202330 METAR LRCV 202330Z 04004KT 0150 R27/0450U -DZ FG VV001 02/02
                        Q1012=
201912210000 METAR LRCV 210000Z 07004KT 0150 R27/0400N -DZ FG VV001 02/02
                        Q1012 R27/19//95=
201912210030 METAR COR LRCV 210030Z 05005KT 0150 R27/0400N -DZ FG VV001
                        02/02 Q1012 R27/19//95=
201912210100 METAR LRCV 210100Z VRB02KT 0150 R27/0400N -DZ FG VV001 02/02
                        Q1012 R27/19//95=
201912210130 METAR LRCV 210130Z VRB01KT 0150 R27/0450N -DZ FG VV001 02/02
                        Q1012 R27/19//95=
201912210200 METAR LRCV 210200Z VRB01KT 0150 R27/0400N -DZ FG VV001 02/02
                        Q1012 R27/19//95=
201912210230 METAR LRCV 210230Z VRB01KT 0150 R27/0450N -DZ FG VV001 02/02
                        Q1011 R27/19//95=
201912210300 METAR LRCV 210300Z 33002KT 0200 R27/0500N FG VV002 02/01
                        Q1011 R27/19//95=
201912210330 METAR LRCV 210330Z 34003KT 0300 R27/0600N FG VV002 01/01
                        Q1011 R27/19//95=
201912210400 METAR LRCV 210400Z 04003KT 0400 R27/0900U FG VV002 01/01
                        Q1011 R27/19//95=
201912210430 METAR LRCV 210430Z 07003KT 0600 BCFG VV001 01/01 Q1010 R27/19//95=
201912210500 METAR LRCV 210500Z 00000KT 0500 R27/1100D FG VV002 01/01
                        Q1011 R27/19//95=
201912210530 METAR LRCV 210530Z 21002KT 0500 R27/1000N FG VV002 01/01
                        Q1010 R27/19//95=
201912210600 METAR LRCV 210600Z 33003KT 0300 R27/0500N FG VV001 01/01
                        Q1011 R27/19//95=
201912210630 METAR LRCV 210630Z VRB01KT 0200 R27/0450N FG VV001 01/01
                        Q1010 R27/19//95=
201912210700 METAR LRCV 210700Z VRB01KT 0250 R27/0400N FG VV001 01/01
                        Q1010 R27/19//95=
201912210730 METAR LRCV 210730Z VRB02KT 0600 R27/P2000 FG VV002 02/01
                        Q1010 R27/19//95=
201912210800 METAR LRCV 210800Z 07004KT 5000 BR BKN002 02/02 Q1010 R27/19//95=
201912210830 METAR LRCV 210830Z 05004KT 8000 SCT010 03/02 Q1010 R27/19//95=
201912210900 METAR LRCV 210900Z 07005KT 8000 NSC 03/03 Q1009 R27/19//95=
201912210930 METAR LRCV 210930Z VRB01KT 8000 NSC 04/04 Q1009 R27/19//95=
201912211000 METAR LRCV 211000Z 20003KT 160V240 7000 NSC 05/04 Q1009 R27/19//95=
201912211030 METAR LRCV 211030Z 10001KT 7000 NSC 05/04 Q1008 R27/CLRD//=
201912211100 METAR LRCV 211100Z 10003KT 070V140 7000 NSC 05/04 Q1007=
201912211130 METAR LRCV 211130Z 10005KT 8000 NSC 06/04 Q1006=
201912211200 METAR LRCV 211200Z 13003KT 090V160 7000 NSC 06/05 Q1006=
201912211230 METAR LRCV 211230Z 07003KT 6000 NSC 06/05 Q1006=
201912211300 METAR LRCV 211300Z 06003KT 6000 NSC 06/05 Q1005=
201912211330 METAR LRCV 211330Z 09007KT 6000 NSC 07/05 Q1005=
201912211400 METAR LRCV 211400Z 10006KT 6000 NSC 06/05 Q1005=
201912211430 METAR LRCV 211430Z 09006KT 4000 BR NSC 06/05 Q1005=
201912211500 METAR LRCV 211500Z 09006KT 3000 BR NSC 06/05 Q1004=
201912211530 METAR LRCV 211530Z 10005KT 3000 BR NSC 06/05 Q1004=
201912211600 METAR LRCV 211600Z 08006KT 3000 BR NSC 06/05 Q1004=
201912211630 METAR LRCV 211630Z 09004KT 3000 BR NSC 06/05 Q1003=
201912211700 METAR LRCV 211700Z 09004KT 3500 BR NSC 06/05 Q1003=
201912211730 METAR LRCV 211730Z 07004KT 3500 BR NSC 06/05 Q1003=
201912211800 METAR LRCV 211800Z 09004KT 4000 BR NSC 06/05 Q1003=
201912211830 METAR LRCV 211830Z 11002KT 4000 BR NSC 06/05 Q1003=
201912211900 METAR LRCV 211900Z 08003KT 4000 BR NSC 06/05 Q1003=
201912211930 METAR LRCV 211930Z 06005KT 4000 -RA BR NSC 06/05 Q1002=
201912212000 METAR LRCV 212000Z 08005KT 5000 BR NSC 06/05 Q1002=
201912212030 METAR LRCV 212030Z 06003KT 5000 -RA BR NSC 06/05 Q1002=
201912212100 METAR COR LRCV 212100Z 05005KT 5000 -RA BR NSC 06/05 Q1002
                        R27/19//95=
201912212130 METAR LRCV 212130Z 07006KT 5000 RA BR NSC 06/06 Q1002 R27/19//95=
201912212200 METAR LRCV 212200Z 08008KT 6000 -RA NSC 06/06 Q1001 RERA
                        R27/19//95=
201912212230 METAR LRCV 212230Z 07009KT 7000 FEW037 07/06 Q1000 R27/19//95=
201912212300 METAR LRCV 212300Z 09004KT 7000 NSC 06/05 Q1000 R27/19//95=
201912212330 METAR LRCV 212330Z 08004KT 5000 BR NSC 06/05 Q1000 R27/19//95=
201912220000 METAR LRCV 220000Z 09003KT 5000 BR NSC 06/05 Q1000 R27/19//95=
201912220030 METAR LRCV 220030Z 09004KT 3000 BR NSC 05/05 Q1000 R27/19//95=
201912220100 METAR LRCV 220100Z 09004KT 3000 BR NSC 05/04 Q1000 R27/19//95=
201912220130 METAR LRCV 220130Z 08004KT 4000 BR NSC 05/05 Q1000 R27/19//95=
201912220200 METAR LRCV 220200Z 13003KT 5000 BR NSC 06/05 Q1000 R27/19//95=
201912220230 METAR LRCV 220230Z 14004KT 5000 BR NSC 06/05 Q1000 R27/19//95=
201912220300 METAR LRCV 220300Z 10003KT 040V130 5000 BR NSC 06/05 Q0999
                        R27/19//95=
201912220330 METAR LRCV 220330Z 06004KT 4000 -DZ BR NSC 06/05 Q0999 R27/19//95=
201912220400 METAR LRCV 220400Z VRB01KT 3000 -RA BR NSC 05/05 Q0999 R27/19//95=
201912220430 METAR LRCV 220430Z 35004KT 4000 BR NSC 05/05 Q1000 R27/19//95=
201912220500 METAR LRCV 220500Z 34004KT 4000 BR NSC 06/05 Q0999 R27/19//95=
201912220530 METAR LRCV 220530Z 03005KT 1500 BR NSC 04/03 Q0999 R27/19//95=
201912220600 METAR LRCV 220600Z 06003KT 2000 MIFG NSC 04/04 Q0999 R27/19//95=
201912220630 METAR LRCV 220630Z 07006KT 3000 BR NSC 04/04 Q0999 R27/19//95=
201912220700 METAR LRCV 220700Z 09005KT 7000 NSC 06/06 Q0998 R27/19//95=
201912220730 METAR LRCV 220730Z 09005KT 8000 NSC 07/06 Q0998 R27/19//95=
201912220800 METAR LRCV 220800Z 10006KT 9000 NSC 08/07 Q0998 R27/19//95=
201912220830 METAR LRCV 220830Z 09005KT CAVOK 09/07 Q0998 R27/19//95=
201912220900 METAR LRCV 220900Z 09007KT CAVOK 10/08 Q0998 R27/19//95=
201912220930 METAR LRCV 220930Z 08005KT CAVOK 10/08 Q0998 R27/19//95=
201912221000 METAR LRCV 221000Z 09007KT CAVOK 10/08 Q0997 R27/19//95=
201912221030 METAR LRCV 221030Z 09008KT CAVOK 11/08 Q0996 R09/19//95=
201912221100 METAR LRCV 221100Z 10009KT CAVOK 11/08 Q0996 R09/19//95=
201912221130 METAR LRCV 221130Z 09008KT CAVOK 11/08 Q0995 R09/19//95=
201912221200 METAR LRCV 221200Z 10007KT CAVOK 11/08 Q0995 R09/19//95=
201912221230 METAR LRCV 221230Z 10007KT CAVOK 11/08 Q0994 R09/19//95=
201912221300 METAR LRCV 221300Z 11008KT CAVOK 11/09 Q0994 R09/19//95=
201912221330 METAR LRCV 221330Z 12008KT 9999 -RA NSC 11/09 Q0994 R09/19//95=
201912221400 METAR LRCV 221400Z 09010KT 8000 -RA NSC 11/09 Q0993 R09/19//95=
201912221430 METAR LRCV 221430Z 09009KT 8000 NSC 11/09 Q0992 R09/19//95=
201912221500 METAR LRCV 221500Z 09008KT 8000 NSC 10/09 Q0992 R09/19//95=
201912221530 METAR LRCV 221530Z 09009KT CAVOK 10/09 Q0991 R09/19//95=
201912221600 METAR LRCV 221600Z 08008KT CAVOK 10/09 Q0991 R09/19//95=
201912221630 METAR LRCV 221630Z 07009KT CAVOK 10/09 Q0991 R09/19//95=
201912221700 METAR LRCV 221700Z 08008KT CAVOK 11/09 Q0991 R09/19//95=
201912221730 METAR LRCV 221730Z 08006KT 9000 -RA NSC 11/09 Q0992 R09/19//95=
201912221800 METAR LRCV 221800Z 17004KT 7000 RA NSC 10/09 Q0992 R09/29//95=
201912221830 METAR LRCV 221830Z 24003KT 5000 RA FEW045 10/09 Q0992 R09/29//95=
201912221900 METAR LRCV 221900Z VRB03KT 6000 RA FEW045 10/09 Q0992 R09/29//95=
201912221930 METAR LRCV 221930Z 07007KT 5000 -RA BR NSC 09/09 Q0991 RERA
                        R09/29//95=
201912222000 METAR LRCV 222000Z 07007KT 5000 -RA BR NSC 09/09 Q0990 R09/29//95=
201912222030 METAR LRCV 222030Z 36004KT 5000 -RA BR NSC 09/09 Q0990 R09/29//95=
201912222100 METAR LRCV 222100Z 05006KT 5000 BR NSC 09/09 Q0990 R09/29//95=
201912222130 METAR LRCV 222130Z 29005KT 260V350 5000 BR FEW002 09/09 Q0991
                        R09/29//95=
201912222200 METAR LRCV 222200Z VRB02KT 5000 BR FEW004 SCT045 09/09 Q0990
                        R09/29//95=
201912222230 METAR LRCV 222230Z 06004KT 5000 1500V R27/1500N MIFG BCFG
                        BR BKN045 08/08 Q0990 R09/29//95=
201912222300 METAR LRCV 222300Z 06005KT 5000 2000V MIFG BR NSC 09/08 Q0990
                        R09/29//95=
201912222330 METAR LRCV 222330Z 06004KT 1500 0700V R27/0700N BCFG BR NSC
                        08/08 Q0989 R09/29//95=
201912230000 METAR LRCV 230000Z 08003KT 0550 R27/0700D FG NSC 08/08 Q0989
                        R09/29//95=
201912230030 METAR LRCV 230030Z 08004KT 0350 R27/0450D FG VV004 08/07
                        Q0989 R09/29//95=
201912230100 METAR LRCV 230100Z 10003KT 0450 R27/0650N FG VV002 08/08
                        Q0989 R09/29//95=
201912230130 METAR LRCV 230130Z 09003KT 0200 R27/0350N FG VV001 08/07
                        Q0989 R09/29//95=
201912230200 METAR LRCV 230200Z 10003KT 0200 R27/0225N FG VV001 07/07
                        Q0989 R09/29//95=
201912230230 METAR LRCV 230230Z 10002KT 0250 R27/0275N FG VV001 07/07
                        Q0989 R09/29//95=
201912230300 METAR LRCV 230300Z 06002KT 0400 R27/0450N FG VV001 07/07
                        Q0989 R09/29//95=
201912230330 METAR COR LRCV 230330Z 36004KT 0250 R27/0275N FG VV001 08/08
                        Q0989 R09/29//95=
201912230400 METAR LRCV 230400Z 34004KT 0500 R27/0300U FG VV002 08/08
                        Q0989 R09/29//95=
201912230430 METAR LRCV 230430Z 01005KT 0500 R27/1100U FG VV001 08/08
                        Q0989 R09/29//95=
201912230500 METAR LRCV 230500Z 32003KT 0800 R27/1500U FG VV001 08/08
                        Q0989 R09/29//95=
201912230530 METAR LRCV 230530Z 29003KT 0800 R27/1000U FG VV001 07/07
                        Q0989 R09/29//95=
201912230600 METAR LRCV 230600Z 30006KT 0300 R27/0350N FG VV001 07/07
                        Q0990 R09/29//95=
201912230630 METAR LRCV 230630Z 28004KT 0300 R27/0350N -RA FG VV001 08/08
                        Q0990 R09/29//95=
201912230700 METAR LRCV 230700Z 27005KT 2000 0650V R27/0800N BCFG BR FEW003
                        BKN045 08/08 Q0990 R09/29//95=
201912230730 METAR LRCV 230730Z 24005KT 7000 NSC 08/08 Q0990 R09/29//95=
201912230800 METAR LRCV 230800Z 27010KT CAVOK 09/09 Q0990 R09/29//95=
201912230830 METAR LRCV 230830Z 27011KT CAVOK 09/09 Q0991 R09/29//95=
201912230900 METAR LRCV 230900Z 26012KT 9999 FEW010 BKN045 09/09 Q0991
                        R09/29//95=
201912230930 METAR LRCV 230930Z 28015KT 9999 FEW010 09/07 Q0991 R09/29//95=
201912231000 METAR LRCV 231000Z 27015KT 9999 FEW012 09/06 Q0991 R09/29//95=
201912231030 METAR LRCV 231030Z 28016KT 9999 BKN015 09/06 Q0991 R27/29//95=
201912231100 METAR LRCV 231100Z 27018KT 9999 BKN015 09/05 Q0991 R27/19//95=
201912231130 METAR LRCV 231130Z 27018KT 9999 BKN018 09/05 Q0991 R27/19//95=
201912231200 METAR LRCV 231200Z 27017KT 9999 FEW018 08/04 Q0991 R27/19//95=
201912231230 METAR LRCV 231230Z 27016KT 9999 FEW018 08/04 Q0991 R27/19//95=
201912231300 METAR LRCV 231300Z 27015KT CAVOK 08/04 Q0992 R27/19//95=
201912231330 METAR LRCV 231330Z 27017KT CAVOK 08/04 Q0992 R27/19//95=
201912231400 METAR LRCV 231400Z 27016KT 9999 FEW023 09/04 Q0992 R27/19//95=
201912231430 METAR LRCV 231430Z 27013KT 9999 FEW025 08/04 Q0992 R27/19//95=
201912231500 METAR LRCV 231500Z 27014KT CAVOK 07/04 Q0992 R27/19//95=
201912231530 METAR COR LRCV 231530Z 27013KT CAVOK 07/04 Q0992 R27/19//95=
201912231600 METAR LRCV 231600Z 27012KT CAVOK 07/04 Q0992 R27/19//95=
201912231630 METAR LRCV 231630Z 27013KT CAVOK 07/04 Q0993 R27/19//95=
201912231700 METAR LRCV 231700Z 26012KT CAVOK 06/04 Q0993 R27/19//95=
201912231730 METAR LRCV 231730Z 27013KT CAVOK 07/04 Q0993 R27/19//95=
201912231800 METAR LRCV 231800Z 27013KT CAVOK 06/04 Q0993 R27/19//95=
201912231830 METAR LRCV 231830Z 27012KT CAVOK 06/04 Q0994 R27/19//95=
201912231900 METAR LRCV 231900Z 28010KT CAVOK 06/04 Q0994 R27/19//95=
201912231930 METAR LRCV 231930Z 28011KT 9999 SCT045 06/03 Q0993 R27/19//95=
201912232000 METAR LRCV 232000Z 28011KT 9999 SCT040 06/04 Q0994 R27/19//95=
201912232030 METAR LRCV 232030Z 28008KT 9999 SCT037 06/04 Q0994 R27/19//95=
201912232100 METAR LRCV 232100Z 27010KT 9999 SCT034 BKN046 06/03 Q0994
                        R27/19//95=
201912232130 METAR LRCV 232130Z 28010KT 9999 BKN030 BKN043 06/03 Q0995
                        R27/19//95=
201912232200 METAR LRCV 232200Z 28010KT 9999 BKN027 05/03 Q0995 R27/19//95=
201912232230 METAR LRCV 232230Z 28009KT 9999 SCT030 05/03 Q0995 R27/19//95=
201912232300 METAR LRCV 232300Z 27008KT CAVOK 05/03 Q0995 R27/19//95=
201912232330 METAR LRCV 232330Z 28007KT CAVOK 05/04 Q0995 R27/19//95=
201912240000 METAR LRCV 240000Z 27007KT 9999 BKN045 06/04 Q0995 R27/19//95=
201912240030 METAR LRCV 240030Z 27008KT 9999 BKN045 06/04 Q0996 R27/19//95=
201912240100 METAR LRCV 240100Z 28007KT 9999 BKN043 06/04 Q0996 R27/19//95=
201912240130 METAR LRCV 240130Z 29006KT 9999 BKN047 06/04 Q0996 R27/19//95=
201912240200 METAR LRCV 240200Z 29008KT 9999 BKN048 06/04 Q0996 R27/19//95=
201912240230 METAR LRCV 240230Z 29007KT 9999 BKN048 06/04 Q0996 R27/19//95=
201912240300 METAR LRCV 240300Z 29008KT 9999 OVC047 06/04 Q0997 R27/19//95=
201912240330 METAR LRCV 240330Z 30007KT 9999 OVC048 06/04 Q0997 R27/19//95=
201912240400 METAR LRCV 240400Z 31006KT 9999 BKN049 06/04 Q0998 R27/19//95=
201912240430 METAR LRCV 240430Z 30008KT 9999 OVC049 06/04 Q0998 R27/19//95=
201912240500 METAR LRCV 240500Z 29009KT 9999 -RA NSC 06/04 Q0999 R27/19//95=
201912240530 METAR LRCV 240530Z 29011KT 9999 -RA NSC 06/04 Q0999 R27/19//95=
201912240600 METAR LRCV 240600Z 29009KT CAVOK 06/03 Q1000 R27/19//95=
201912240630 METAR LRCV 240630Z 29008KT CAVOK 07/03 Q1001 R27/19//95=
201912240700 METAR LRCV 240700Z 29007KT CAVOK 07/03 Q1001 R27/19//95=
201912240730 METAR LRCV 240730Z 29004KT CAVOK 06/03 Q1002 R27/19//95=
201912240800 METAR LRCV 240800Z 29004KT CAVOK 07/04 Q1002 R27/19//95=
201912240830 METAR LRCV 240830Z 28008KT CAVOK 08/03 Q1002 R27/19//95=
201912240900 METAR LRCV 240900Z 28010KT CAVOK 08/03 Q1002 R27/19//95=
201912240930 METAR LRCV 240930Z 28009KT CAVOK 09/04 Q1002 R27/19//95=
201912241000 METAR LRCV 241000Z 28012KT CAVOK 10/03 Q1002 R27/CLRD//=
201912241030 METAR COR LRCV 241030Z 29013KT CAVOK 11/03 Q1002=
201912241100 METAR LRCV 241100Z 29014KT CAVOK 10/03 Q1003=
201912241130 METAR LRCV 241130Z 26013KT CAVOK 10/03 Q1003=
201912241200 METAR LRCV 241200Z 28010KT CAVOK 10/03 Q1003=
201912241230 METAR LRCV 241230Z 27009KT CAVOK 10/02 Q1003=
201912241300 METAR LRCV 241300Z 28007KT CAVOK 10/02 Q1003=
201912241330 METAR LRCV 241330Z 32008KT CAVOK 11/01 Q1003=
201912241400 METAR LRCV 241400Z 31008KT CAVOK 10/02 Q1004=
201912241430 METAR LRCV 241430Z 32004KT 270V350 CAVOK 09/01 Q1004=
201912241500 METAR LRCV 241500Z 28008KT CAVOK 08/02 Q1004=
201912241530 METAR LRCV 241530Z 31005KT CAVOK 08/02 Q1005=
201912241600 METAR LRCV 241600Z 30008KT CAVOK 08/01 Q1005=
201912241630 METAR LRCV 241630Z 31008KT CAVOK 08/01 Q1005=
201912241700 METAR LRCV 241700Z 31008KT CAVOK 08/01 Q1005=
201912241730 METAR LRCV 241730Z 31008KT CAVOK 07/01 Q1006=
201912241800 METAR LRCV 241800Z 27006KT CAVOK 07/01 Q1006=
201912241830 METAR LRCV 241830Z 29007KT CAVOK 06/02 Q1006=
201912241900 METAR LRCV 241900Z 29008KT CAVOK 06/02 Q1006=
201912241930 METAR LRCV 241930Z 29008KT CAVOK 05/01 Q1006=
201912242000 METAR LRCV 242000Z 29008KT CAVOK 05/01 Q1006=
201912242030 METAR LRCV 242030Z 28009KT CAVOK 04/01 Q1006=
201912242100 METAR LRCV 242100Z 28010KT CAVOK 04/01 Q1006=
201912242130 METAR LRCV 242130Z 28008KT CAVOK 04/01 Q1006=
201912242200 METAR LRCV 242200Z 27008KT CAVOK 02/00 Q1006=
201912242230 METAR LRCV 242230Z 27008KT CAVOK 02/01 Q1006=
201912242300 METAR LRCV 242300Z 28008KT CAVOK 01/M00 Q1006=
201912242330 METAR LRCV 242330Z 27009KT CAVOK 03/01 Q1006=
201912250000 METAR LRCV 250000Z 26008KT CAVOK 03/01 Q1006=
201912250030 METAR LRCV 250030Z 27008KT CAVOK 02/01 Q1006=
201912250100 METAR LRCV 250100Z 26010KT CAVOK 03/02 Q1006=
201912250130 METAR LRCV 250130Z 27007KT CAVOK 03/01 Q1006=
201912250200 METAR LRCV 250200Z 28008KT CAVOK 03/02 Q1005=
201912250230 METAR LRCV 250230Z 26007KT CAVOK 04/02 Q1005=
201912250300 METAR LRCV 250300Z 26007KT CAVOK 04/02 Q1005=
201912250330 METAR LRCV 250330Z 31005KT CAVOK 04/02 Q1005=
201912250400 METAR LRCV 250400Z 26008KT CAVOK 04/02 Q1005=
201912250430 METAR LRCV 250430Z 26008KT 9999 BKN080 OVC095 04/02 Q1005=
201912250500 METAR LRCV 250500Z 28007KT CAVOK 04/02 Q1006=
201912250530 METAR LRCV 250530Z 28007KT CAVOK 04/02 Q1006=
201912250600 METAR LRCV 250600Z 26006KT CAVOK 04/02 Q1006=
201912250630 METAR LRCV 250630Z 29007KT CAVOK 05/02 Q1007=
201912250700 METAR LRCV 250700Z 28006KT 9999 -RA FEW044 05/02 Q1007=
201912250730 METAR LRCV 250730Z 28006KT 9999 SCT045 06/02 Q1007=
201912250800 METAR LRCV 250800Z 28005KT CAVOK 07/03 Q1007=
201912250830 METAR LRCV 250830Z 30006KT CAVOK 07/02 Q1008=
201912250900 METAR LRCV 250900Z 29007KT CAVOK 07/02 Q1008=
201912250930 METAR LRCV 250930Z 28009KT CAVOK 07/02 Q1008=
201912251000 METAR COR LRCV 251000Z 28009KT 9999 BKN047 08/02 Q1007=
201912251030 METAR LRCV 251030Z 28009KT CAVOK 08/02 Q1007=
201912251100 METAR LRCV 251100Z 28009KT CAVOK 09/02 Q1007=
201912251130 METAR LRCV 251130Z 29009KT CAVOK 10/01 Q1007=
201912251200 METAR LRCV 251200Z 28009KT CAVOK 09/01 Q1007=
201912251230 METAR LRCV 251230Z 28007KT CAVOK 09/01 Q1007=
201912251300 METAR COR LRCV 251300Z 29006KT CAVOK 09/01 Q1007=
201912251330 METAR LRCV 251330Z 29006KT CAVOK 08/01 Q1007=
201912251400 METAR LRCV 251400Z 30004KT CAVOK 08/02 Q1007=
201912251430 METAR LRCV 251430Z 28004KT CAVOK 08/01 Q1008=
201912251500 METAR LRCV 251500Z 28007KT CAVOK 06/01 Q1008=
201912251530 METAR LRCV 251530Z 28010KT CAVOK 06/02 Q1008=
201912251600 METAR LRCV 251600Z 27009KT CAVOK 05/02 Q1008=
201912251630 METAR LRCV 251630Z 27009KT CAVOK 05/01 Q1008=
201912251700 METAR LRCV 251700Z 27006KT CAVOK 03/01 Q1008=
201912251730 METAR LRCV 251730Z 27005KT CAVOK 03/00 Q1008=
201912251800 METAR LRCV 251800Z 28007KT CAVOK 01/M00 Q1009=
201912251830 METAR LRCV 251830Z 29007KT CAVOK 01/M00 Q1009=
201912251900 METAR LRCV 251900Z 30006KT CAVOK 01/M01 Q1009=
201912251930 METAR LRCV 251930Z 30006KT CAVOK 01/M02 Q1010=
201912252000 METAR LRCV 252000Z 29008KT CAVOK 00/M01 Q1010=
201912252030 METAR LRCV 252030Z 31006KT CAVOK 02/M01 Q1010=
201912252100 METAR LRCV 252100Z 30006KT CAVOK 01/M02 Q1010=
201912252130 METAR LRCV 252130Z 31006KT CAVOK 02/M02 Q1010=
201912252200 METAR LRCV 252200Z 32007KT CAVOK 02/M02 Q1010=
201912252230 METAR LRCV 252230Z 30008KT CAVOK 01/M02 Q1010=
201912252300 METAR LRCV 252300Z 30007KT CAVOK 01/M02 Q1010=
201912252330 METAR LRCV 252330Z 30008KT CAVOK 01/M02 Q1010=
201912260000 METAR LRCV 260000Z 31007KT CAVOK 01/M02 Q1010=
201912260030 METAR LRCV 260030Z 31006KT CAVOK 01/M02 Q1011=
201912260100 METAR LRCV 260100Z 33005KT CAVOK 01/M02 Q1011=
201912260130 METAR LRCV 260130Z 31007KT CAVOK 00/M02 Q1011=
201912260200 METAR LRCV 260200Z 32006KT CAVOK 00/M02 Q1011=
201912260230 METAR LRCV 260230Z 34003KT 310V020 CAVOK M01/M03 Q1011=
201912260300 METAR LRCV 260300Z 32005KT CAVOK M01/M03 Q1011=
201912260330 METAR LRCV 260330Z 31005KT CAVOK M02/M03 Q1011=
201912260400 METAR LRCV 260400Z 31004KT CAVOK M01/M02 Q1012=
201912260430 METAR LRCV 260430Z 31005KT CAVOK M02/M03 Q1012=
201912260500 METAR LRCV 260500Z 31007KT CAVOK M02/M03 Q1012=
201912260530 METAR LRCV 260530Z VRB02KT CAVOK M02/M04 Q1012=
201912260600 METAR LRCV 260600Z VRB02KT CAVOK M02/M04 Q1013=
201912260630 METAR LRCV 260630Z 29006KT CAVOK M02/M03 Q1013=
201912260700 METAR LRCV 260700Z 27006KT CAVOK M00/M02 Q1013=
201912260730 METAR LRCV 260730Z 35006KT CAVOK 01/M01 Q1014=
201912260800 METAR LRCV 260800Z 36004KT CAVOK 02/M01 Q1014=
201912260830 METAR LRCV 260830Z 34003KT 300V020 CAVOK 05/M01 Q1014=
201912260900 METAR LRCV 260900Z 34003KT 310V020 CAVOK 05/M01 Q1014=
201912260930 METAR LRCV 260930Z 27004KT 230V320 CAVOK 07/00 Q1014=
201912261000 METAR LRCV 261000Z 24005KT CAVOK 07/00 Q1014=
201912261030 METAR LRCV 261030Z 26005KT 220V290 CAVOK 07/M01 Q1014=
201912261100 METAR LRCV 261100Z 27007KT CAVOK 08/M02 Q1014=
201912261130 METAR LRCV 261130Z 28008KT CAVOK 08/M02 Q1014=
201912261200 METAR LRCV 261200Z 29008KT CAVOK 09/M01 Q1014=
201912261230 METAR LRCV 261230Z 29009KT CAVOK 09/M00 Q1014=
201912261300 METAR LRCV 261300Z 29009KT CAVOK 09/01 Q1014=
201912261330 METAR LRCV 261330Z 29009KT CAVOK 08/02 Q1015=
201912261400 METAR LRCV 261400Z 28009KT CAVOK 07/02 Q1015=
201912261430 METAR LRCV 261430Z 29010KT CAVOK 07/02 Q1015=
201912261500 METAR LRCV 261500Z 28008KT CAVOK 06/02 Q1015=
201912261530 METAR LRCV 261530Z 28008KT CAVOK 05/02 Q1015=
201912261600 METAR LRCV 261600Z 28009KT CAVOK 05/02 Q1015=
201912261630 METAR LRCV 261630Z 28009KT CAVOK 05/02 Q1016=
201912261700 METAR LRCV 261700Z 28011KT CAVOK 05/02 Q1016=
201912261730 METAR LRCV 261730Z 29008KT CAVOK 04/02 Q1016=
201912261800 METAR LRCV 261800Z 29008KT CAVOK 04/02 Q1017=
201912261830 METAR LRCV 261830Z 29006KT CAVOK 03/01 Q1017=
201912261900 METAR LRCV 261900Z 27006KT CAVOK 03/01 Q1017=
201912261930 METAR LRCV 261930Z 27004KT CAVOK 02/01 Q1017=
201912262000 METAR LRCV 262000Z 29005KT CAVOK 02/01 Q1017=
201912262030 METAR LRCV 262030Z 27007KT CAVOK 01/M01 Q1017=
201912262100 METAR LRCV 262100Z 26006KT CAVOK 01/M01 Q1017=
201912262130 METAR LRCV 262130Z 27007KT CAVOK 01/M00 Q1017=
201912262200 METAR LRCV 262200Z 28008KT CAVOK 02/M00 Q1018=
201912262230 METAR LRCV 262230Z 28008KT CAVOK 03/M00 Q1018=
201912262300 METAR LRCV 262300Z 29007KT CAVOK 03/M00 Q1018=
201912262330 METAR LRCV 262330Z 28006KT CAVOK 03/M00 Q1018=
201912270000 METAR LRCV 270000Z 28007KT CAVOK 02/M01 Q1018=
201912270030 METAR LRCV 270030Z 29007KT CAVOK 00/M02 Q1018=
201912270100 METAR LRCV 270100Z 28008KT CAVOK 00/M02 Q1018=
201912270130 METAR LRCV 270130Z 29007KT CAVOK 00/M02 Q1018=
201912270200 METAR LRCV 270200Z 31006KT CAVOK 00/M02 Q1018=
201912270230 METAR LRCV 270230Z 30009KT CAVOK 01/M02 Q1018=
201912270300 METAR LRCV 270300Z 30009KT CAVOK 01/M01 Q1018=
201912270330 METAR LRCV 270330Z 30009KT CAVOK 01/M01 Q1018=
201912270400 METAR LRCV 270400Z 30010KT CAVOK 01/M02 Q1018=
201912270430 METAR LRCV 270430Z 31007KT CAVOK 00/M02 Q1017=
201912270500 METAR LRCV 270500Z 30007KT CAVOK 01/M01 Q1018=
201912270530 METAR LRCV 270530Z 28006KT CAVOK M01/M02 Q1018=
201912270600 METAR LRCV 270600Z 29008KT CAVOK M01/M02 Q1018=
201912270630 METAR LRCV 270630Z 29007KT CAVOK M01/M02 Q1018=
201912270700 METAR LRCV 270700Z 29007KT CAVOK 00/M01 Q1018=
201912270730 METAR LRCV 270730Z 29005KT CAVOK 02/M01 Q1018=
201912270800 METAR LRCV 270800Z 28009KT CAVOK 02/M00 Q1018=
201912270830 METAR LRCV 270830Z 28012KT CAVOK 03/M00 Q1018=
201912270900 METAR COR LRCV 270900Z 26011KT CAVOK 05/00 Q1018=
201912270930 METAR LRCV 270930Z 29012KT CAVOK 06/00 Q1018=
201912271000 METAR COR LRCV 271000Z 30010KT CAVOK 06/00 Q1018=
201912271030 METAR LRCV 271030Z 30010KT CAVOK 07/00 Q1017=
201912271100 METAR LRCV 271100Z 30010KT CAVOK 07/M00 Q1017=
201912271130 METAR LRCV 271130Z 28011KT CAVOK 07/M00 Q1017=
201912271200 METAR LRCV 271200Z 27010KT CAVOK 07/00 Q1017=
201912271230 METAR LRCV 271230Z 27011KT CAVOK 07/M00 Q1017=
201912271300 METAR LRCV 271300Z 28011KT CAVOK 06/M01 Q1017=
201912271330 METAR LRCV 271330Z 26010KT CAVOK 06/M00 Q1017=
201912271400 METAR LRCV 271400Z 26011KT 9999 FEW045 06/M01 Q1017=
201912271430 METAR LRCV 271430Z 27012KT 9999 FEW045 05/M01 Q1017=
201912271500 METAR COR LRCV 271500Z 25007KT CAVOK 04/M01 Q1017=
201912271530 METAR LRCV 271530Z 27009KT 9999 FEW045 03/M01 Q1017=
201912271600 METAR LRCV 271600Z 28010KT 9999 FEW045 02/M01 Q1017=
201912271630 METAR LRCV 271630Z 28008KT 9999 FEW045 02/M01 Q1017=
201912271700 METAR LRCV 271700Z 28006KT CAVOK 01/M02 Q1017=
201912271730 METAR LRCV 271730Z 30008KT CAVOK 02/M02 Q1017=
201912271800 METAR LRCV 271800Z 30006KT CAVOK 02/M02 Q1018=
201912271830 METAR LRCV 271830Z 30008KT CAVOK 02/M02 Q1018=
201912271900 METAR LRCV 271900Z 31008KT CAVOK 01/M03 Q1018=
201912271930 METAR LRCV 271930Z 31007KT CAVOK 00/M03 Q1018=
201912272000 METAR LRCV 272000Z 30006KT CAVOK M00/M04 Q1018=
201912272030 METAR LRCV 272030Z 31007KT CAVOK 00/M03 Q1018=
201912272100 METAR COR LRCV 272100Z 30007KT CAVOK M00/M03 Q1018=
201912272130 METAR LRCV 272130Z 30008KT CAVOK 01/M03 Q1018=
201912272200 METAR LRCV 272200Z 30006KT CAVOK 01/M03 Q1018=
201912272230 METAR LRCV 272230Z 29007KT CAVOK 00/M03 Q1018=
201912272300 METAR LRCV 272300Z 30004KT CAVOK 00/M03 Q1018=
201912272330 METAR LRCV 272330Z 30006KT CAVOK 00/M03 Q1018=
201912280000 METAR LRCV 280000Z 31007KT CAVOK 00/M03 Q1018=
201912280030 METAR LRCV 280030Z 28006KT CAVOK 00/M03 Q1018=
201912280100 METAR LRCV 280100Z 29007KT CAVOK M00/M03 Q1018=
201912280130 METAR LRCV 280130Z 28006KT CAVOK M00/M03 Q1018=
201912280200 METAR LRCV 280200Z 29006KT CAVOK 00/M03 Q1018=
201912280230 METAR LRCV 280230Z 30008KT CAVOK 00/M03 Q1018=
201912280300 METAR LRCV 280300Z 30006KT CAVOK M00/M03 Q1018=
201912280330 METAR LRCV 280330Z 30006KT CAVOK M00/M03 Q1018=
201912280400 METAR LRCV 280400Z 30006KT CAVOK 00/M03 Q1018=
201912280430 METAR LRCV 280430Z 31006KT CAVOK 00/M03 Q1018=
201912280500 METAR LRCV 280500Z 30005KT CAVOK 00/M03 Q1018=
201912280530 METAR LRCV 280530Z 30007KT CAVOK M00/M03 Q1018=
201912280600 METAR LRCV 280600Z 31006KT CAVOK 00/M03 Q1018=
201912280630 METAR LRCV 280630Z 32005KT CAVOK M00/M03 Q1018=
201912280700 METAR LRCV 280700Z 29005KT CAVOK M00/M03 Q1019=
201912280730 METAR LRCV 280730Z 28005KT CAVOK 00/M02 Q1019=
201912280800 METAR LRCV 280800Z AUTO 27006KT 9999 BKN075/// BKN100///
                        01/M02 Q1019=
201912280830 METAR LRCV 280830Z 31005KT 9999 FEW025 02/M02 Q1019=
201912280900 METAR LRCV 280900Z 31004KT 9999 FEW025 03/M02 Q1019=
201912280930 METAR LRCV 280930Z 31003KT 290V360 9999 FEW025 04/M02 Q1019=
201912281000 METAR LRCV 281000Z 35004KT 300V020 CAVOK 05/M03 Q1019=
201912281030 METAR LRCV 281030Z 06004KT 020V080 CAVOK 05/M03 Q1019=
201912281100 METAR LRCV 281100Z VRB03KT CAVOK 06/M03 Q1019=
201912281130 METAR LRCV 281130Z VRB03KT CAVOK 07/M02 Q1019=
201912281200 METAR LRCV 281200Z VRB03KT CAVOK 07/M03 Q1019=
201912281230 METAR LRCV 281230Z 05004KT CAVOK 07/M03 Q1019=
201912281300 METAR LRCV 281300Z VRB03KT 9999 SCT045 08/M04 Q1019=
201912281330 METAR LRCV 281330Z 28005KT 250V320 9999 SCT030 07/M05 Q1019=
201912281400 METAR LRCV 281400Z 25005KT 9999 SCT045 FEW048CB 07/M04 Q1019=
201912281430 METAR LRCV 281430Z VRB04KT 9999 4500NE SCT045 FEW048CB 06/M03
                        Q1019=
201912281500 METAR LRCV 281500Z 04013KT 9999 BKN048 03/00 Q1020=
201912281530 METAR LRCV 281530Z 06012KT 9999 BKN045 02/M00 Q1020=
201912281600 METAR LRCV 281600Z 08009KT CAVOK 03/M01 Q1020=
201912281630 METAR LRCV 281630Z 07006KT CAVOK 03/M02 Q1020=
201912281700 METAR LRCV 281700Z 07006KT CAVOK 01/M02 Q1021=
201912281730 METAR LRCV 281730Z 07005KT CAVOK 02/M02 Q1021=
201912281800 METAR LRCV 281800Z VRB02KT CAVOK 02/M02 Q1021=
201912281830 METAR LRCV 281830Z 00000KT CAVOK 02/M03 Q1022=
201912281900 METAR LRCV 281900Z 30005KT CAVOK 02/M02 Q1022=
201912281930 METAR LRCV 281930Z 32004KT CAVOK 02/M02 Q1022=
201912282000 METAR LRCV 282000Z 29004KT CAVOK 01/M02 Q1022=
201912282030 METAR LRCV 282030Z 28004KT CAVOK 02/M02 Q1023=
201912282100 METAR LRCV 282100Z 28004KT CAVOK 01/M02 Q1023=
201912282130 METAR LRCV 282130Z 32004KT CAVOK 02/M03 Q1023=
201912282200 METAR LRCV 282200Z 31004KT CAVOK 01/M02 Q1023=
201912282230 METAR LRCV 282230Z 31005KT CAVOK 01/M02 Q1023=
201912282300 METAR LRCV 282300Z 30006KT CAVOK 01/M03 Q1023=
201912282330 METAR LRCV 282330Z 30003KT CAVOK 00/M03 Q1023=
201912290000 METAR LRCV 290000Z 30005KT CAVOK M00/M03 Q1023=
201912290030 METAR LRCV 290030Z 29005KT CAVOK M01/M03 Q1023=
201912290100 METAR LRCV 290100Z 33004KT CAVOK M01/M03 Q1024=
201912290130 METAR LRCV 290130Z 30006KT CAVOK M01/M03 Q1023=
201912290200 METAR LRCV 290200Z 29006KT CAVOK M02/M04 Q1024=
201912290230 METAR LRCV 290230Z 29007KT CAVOK M01/M04 Q1024=
201912290300 METAR LRCV 290300Z 30007KT CAVOK M01/M04 Q1024=
201912290330 METAR LRCV 290330Z 29006KT CAVOK M02/M04 Q1024=
201912290400 METAR LRCV 290400Z 31004KT CAVOK M02/M04 Q1024=
201912290430 METAR LRCV 290430Z 31003KT CAVOK M02/M04 Q1024=
201912290500 METAR LRCV 290500Z 30005KT CAVOK M02/M04 Q1024=
201912290530 METAR LRCV 290530Z 28006KT CAVOK M03/M05 Q1024=
201912290600 METAR LRCV 290600Z 29006KT CAVOK M03/M04 Q1024=
201912290630 METAR LRCV 290630Z 29006KT CAVOK M02/M04 Q1025=
201912290700 METAR LRCV 290700Z 25006KT CAVOK M02/M03 Q1025=
201912290730 METAR LRCV 290730Z 26005KT CAVOK M01/M03 Q1025=
201912290800 METAR LRCV 290800Z 26007KT CAVOK M01/M03 Q1025=
201912290830 METAR LRCV 290830Z 27007KT CAVOK M00/M03 Q1026=
201912290900 METAR LRCV 290900Z 29007KT CAVOK 00/M03 Q1026=
201912290930 METAR LRCV 290930Z 30004KT CAVOK 01/M03 Q1026=
201912291000 METAR LRCV 291000Z 27004KT 240V310 CAVOK 01/M03 Q1026=
201912291030 METAR LRCV 291030Z 27005KT CAVOK 02/M03 Q1026=
201912291100 METAR LRCV 291100Z 27004KT CAVOK 03/M03 Q1026=
201912291130 METAR LRCV 291130Z 27004KT 240V300 CAVOK 04/M03 Q1025=
201912291200 METAR LRCV 291200Z 30004KT 240V020 CAVOK 04/M03 Q1025=
201912291230 METAR LRCV 291230Z VRB02KT CAVOK 04/M04 Q1026=
201912291300 METAR LRCV 291300Z VRB03KT CAVOK 04/M03 Q1026=
201912291330 METAR LRCV 291330Z 10009KT 9999 FEW037 03/M02 Q1026=
201912291400 METAR LRCV 291400Z 11008KT 9999 FEW042 03/M02 Q1027=
201912291430 METAR LRCV 291430Z 11008KT 9999 FEW045 02/M02 Q1027=
201912291500 METAR LRCV 291500Z 15004KT 9999 SCT048 02/M01 Q1027=
201912291530 METAR LRCV 291530Z 17002KT CAVOK 02/M01 Q1027=
201912291600 METAR LRCV 291600Z 17002KT CAVOK 01/M01 Q1027=
201912291630 METAR LRCV 291630Z 27004KT CAVOK 01/M01 Q1028=
201912291700 METAR LRCV 291700Z 32003KT 280V360 CAVOK 01/M01 Q1028=
201912291730 METAR LRCV 291730Z 34003KT CAVOK 02/M01 Q1028=
201912291800 METAR COR LRCV 291800Z 36004KT 9999 FEW034 02/M02 Q1029=
201912291830 METAR LRCV 291830Z 04007KT 9999 SCT037 BKN048 02/M03 Q1029=
201912291900 METAR LRCV 291900Z 06006KT CAVOK 01/M02 Q1029=
201912291930 METAR LRCV 291930Z 04005KT CAVOK 01/M02 Q1030=
201912292000 METAR LRCV 292000Z 04004KT CAVOK 01/M02 Q1030=
201912292030 METAR LRCV 292030Z 04003KT CAVOK 01/M02 Q1030=
201912292100 METAR LRCV 292100Z 31003KT CAVOK 00/M02 Q1031=
201912292130 METAR LRCV 292130Z 31003KT CAVOK M00/M03 Q1031=
201912292200 METAR LRCV 292200Z 29004KT CAVOK M00/M02 Q1031=
201912292230 METAR LRCV 292230Z 30004KT CAVOK M01/M02 Q1031=
201912292300 METAR LRCV 292300Z VRB02KT CAVOK M01/M02 Q1031=
201912292330 METAR LRCV 292330Z 35004KT CAVOK M00/M02 Q1031=
201912300000 METAR LRCV 300000Z 33004KT CAVOK M00/M02 Q1031=
201912300030 METAR LRCV 300030Z 33004KT CAVOK M00/M02 Q1032=
201912300100 METAR LRCV 300100Z 33003KT 9999 OVC045 M00/M03 Q1032=
201912300130 METAR LRCV 300130Z 34004KT 300V360 9999 BKN048 M00/M03 Q1032=
201912300200 METAR LRCV 300200Z 34003KT CAVOK M00/M03 Q1032=
201912300230 METAR LRCV 300230Z 32005KT CAVOK M00/M03 Q1032=
201912300300 METAR LRCV 300300Z 28004KT 260V320 CAVOK M00/M03 Q1032=
201912300330 METAR LRCV 300330Z 34003KT CAVOK M00/M03 Q1032=
201912300400 METAR LRCV 300400Z 32003KT CAVOK M01/M03 Q1032=
201912300430 METAR LRCV 300430Z 35003KT 330V060 CAVOK M02/M03 Q1032=
201912300500 METAR LRCV 300500Z 34004KT CAVOK M02/M03 Q1033=
201912300530 METAR LRCV 300530Z 34005KT CAVOK M02/M04 Q1033=
201912300600 METAR LRCV 300600Z 35004KT CAVOK M02/M05 Q1033=
201912300630 METAR LRCV 300630Z 01003KT CAVOK M02/M05 Q1033=
201912300700 METAR LRCV 300700Z 35002KT CAVOK M01/M05 Q1034=
201912300730 METAR LRCV 300730Z VRB02KT CAVOK M00/M04 Q1034=
201912300800 METAR LRCV 300800Z VRB01KT CAVOK 01/M05 Q1034=
201912300830 METAR LRCV 300830Z VRB02KT CAVOK 01/M05 Q1035=
201912300900 METAR LRCV 300900Z 01004KT 340V040 CAVOK 02/M04 Q1035=
201912300930 METAR LRCV 300930Z 01003KT 330V040 CAVOK 03/M04 Q1034=
201912301000 METAR LRCV 301000Z 01003KT 290V060 CAVOK 04/M04 Q1034=
201912301030 METAR LRCV 301030Z 30003KT 230V360 CAVOK 04/M06 Q1034=
201912301100 METAR LRCV 301100Z 31004KT 290V350 CAVOK 04/M05 Q1034=
201912301130 METAR LRCV 301130Z 29006KT 270V330 CAVOK 05/M06 Q1033=
201912301200 METAR LRCV 301200Z 29006KT 260V320 CAVOK 05/M06 Q1033=
201912301230 METAR LRCV 301230Z 28005KT 240V310 CAVOK 05/M07 Q1033=
201912301300 METAR LRCV 301300Z 25006KT CAVOK 05/M07 Q1033=
201912301330 METAR LRCV 301330Z 22006KT CAVOK 05/M05 Q1033=
201912301400 METAR LRCV 301400Z 22009KT CAVOK 04/M04 Q1033=
201912301430 METAR LRCV 301430Z 24007KT CAVOK 03/M04 Q1033=
201912301500 METAR LRCV 301500Z 25006KT CAVOK 02/M04 Q1033=
201912301530 METAR LRCV 301530Z 24007KT CAVOK 01/M04 Q1032=
201912301600 METAR LRCV 301600Z 25007KT CAVOK 01/M04 Q1032=
201912301630 METAR LRCV 301630Z 26006KT CAVOK M00/M05 Q1033=
201912301700 METAR LRCV 301700Z 25006KT CAVOK M00/M05 Q1032=
201912301730 METAR LRCV 301730Z 27005KT CAVOK M01/M05 Q1032=
201912301800 METAR LRCV 301800Z 27008KT CAVOK M01/M05 Q1032=
201912301830 METAR LRCV 301830Z 27008KT CAVOK M02/M05 Q1032=
201912301900 METAR LRCV 301900Z 29006KT CAVOK M03/M05 Q1032=
201912301930 METAR LRCV 301930Z 29006KT CAVOK M03/M05 Q1032=
201912302000 METAR LRCV 302000Z 28008KT CAVOK M03/M05 Q1031=
201912302030 METAR LRCV 302030Z 27010KT CAVOK M04/M05 Q1031=
201912302100 METAR LRCV 302100Z 27009KT CAVOK M04/M06 Q1031=
201912302130 METAR LRCV 302130Z 28008KT CAVOK M04/M06 Q1031=
201912302200 METAR LRCV 302200Z 27009KT 9000 NSC M04/M06 Q1031=
201912302230 METAR LRCV 302230Z 28008KT 9000 NSC M04/M06 Q1031=
201912302300 METAR LRCV 302300Z 27009KT 9000 NSC M04/M06 Q1030=
201912302330 METAR LRCV 302330Z 27009KT 9000 NSC M04/M06 Q1030=
201912310000 METAR LRCV 310000Z 26008KT CAVOK M04/M06 Q1030=
201912310030 METAR LRCV 310030Z 28008KT CAVOK M05/M07 Q1030=
201912310100 METAR LRCV 310100Z 27007KT CAVOK M05/M07 Q1030=
201912310130 METAR LRCV 310130Z 26006KT CAVOK M06/M07 Q1030=
201912310200 METAR LRCV 310200Z 25006KT 9000 NSC M05/M07 Q1029=
201912310230 METAR LRCV 310230Z 26007KT 9000 NSC M05/M06 Q1029=
201912310300 METAR LRCV 310300Z 26007KT 9000 NSC M06/M07 Q1029=
201912310330 METAR LRCV 310330Z 26008KT 8000 NSC M06/M07 Q1029=
201912310400 METAR LRCV 310400Z 28008KT 8000 NSC M06/M07 Q1028=
201912310430 METAR LRCV 310430Z 28008KT 8000 NSC M06/M07 Q1028=
201912310500 METAR LRCV 310500Z 28007KT 7000 NSC M06/M07 Q1028=
201912310530 METAR LRCV 310530Z 29007KT 7000 NSC M06/M07 Q1028=
201912310600 METAR LRCV 310600Z 28005KT 7000 NSC M07/M08 Q1028=
201912310630 METAR LRCV 310630Z 27005KT 7000 NSC M06/M07 Q1028=
201912310700 METAR LRCV 310700Z 27006KT CAVOK M05/M06 Q1028=
201912310730 METAR LRCV 310730Z 27008KT CAVOK M03/M05 Q1027=
201912310800 METAR LRCV 310800Z 28008KT CAVOK M03/M05 Q1027=
201912310830 METAR LRCV 310830Z 28009KT CAVOK M02/M04 Q1027=
201912310900 METAR LRCV 310900Z 29010KT CAVOK M01/M04 Q1027=
201912310930 METAR LRCV 310930Z 27009KT CAVOK M00/M04 Q1026=
201912311000 METAR LRCV 311000Z 26010KT CAVOK 00/M04 Q1026=
201912311030 METAR LRCV 311030Z 27009KT CAVOK 01/M03 Q1025=
201912311100 METAR LRCV 311100Z 27011KT CAVOK 02/M03 Q1024=
201912311130 METAR LRCV 311130Z 28010KT CAVOK 03/M03 Q1024=
201912311200 METAR LRCV 311200Z 27011KT CAVOK 03/M03 Q1023=
201912311230 METAR LRCV 311230Z 27012KT CAVOK 03/M03 Q1023=
201912311300 METAR LRCV 311300Z 28010KT CAVOK 04/M03 Q1023=
201912311330 METAR LRCV 311330Z 28010KT CAVOK 04/M04 Q1023=
201912311400 METAR LRCV 311400Z 27009KT CAVOK 04/M04 Q1022=
201912311430 METAR LRCV 311430Z 25009KT CAVOK 03/M04 Q1022=
201912311500 METAR LRCV 311500Z 27010KT CAVOK 03/M04 Q1022=
201912311530 METAR LRCV 311530Z AUTO 24009KT 9999 BKN110/// 03/M04 Q1022=
201912311600 METAR LRCV 311600Z AUTO 26012KT 9999 SCT080/// BKN110///
                        03/M05 Q1022=
201912311630 METAR LRCV 311630Z AUTO 24012KT 9999 FEW070/// BKN100///
                        ///// Q1020=
201912311700 METAR LRCV 311700Z AUTO 26010KT 9999 FEW090/// BKN110///
                        02/M05 Q1021=
201912311730 METAR LRCV 311730Z AUTO 25010KT 9999 BKN120/// 02/M04 Q1021=
201912311800 METAR LRCV 311800Z AUTO 26008KT 9999 FEW140/// BKN170///
                        02/M04 Q1021=
201912311830 METAR LRCV 311830Z AUTO 24008KT 9999 SCT150/// BKN230///
                        02/M04 Q1021=
201912311900 METAR LRCV 311900Z AUTO 25008KT 9999 FEW190/// 01/M05 Q1021=
201912311930 METAR LRCV 311930Z AUTO 25009KT 9999 FEW230/// 02/M05 Q1020=
201912312000 METAR LRCV 312000Z AUTO 25011KT 9999 BKN180/// 02/M05 Q1020=
201912312030 METAR LRCV 312030Z AUTO 26010KT 9999 SCT240/// 02/M05 Q1020=
201912312100 METAR LRCV 312100Z 27010KT CAVOK 03/M04 Q1022=
201912312130 METAR LRCV 312130Z 28009KT CAVOK 01/M05 Q1020=
201912312200 METAR LRCV 312200Z 28009KT CAVOK 01/M05 Q1021=
201912312230 METAR LRCV 312230Z 31007KT CAVOK 01/M05 Q1021=
201912312300 METAR LRCV 312300Z 31007KT CAVOK 01/M05 Q1021=
201912312330 METAR LRCV 312330Z 30009KT CAVOK 01/M05 Q1022=
