201901010200 TAF LRSM 010200Z 0103/0112 VRB04KT 5000 BR BKN045
                      TEMPO 0103/0107 1500 BR BKN005=
201901010500 TAF LRSM 010500Z 0106/0115 VRB04KT 7000 BKN045
                      TEMPO 0106/0108 3000 BR BKN005
                      BECMG 0110/0112 21010KT=
201901010800 TAF LRSM 010800Z 0109/0118 VRB04KT 9999 BKN045
                      BECMG 0110/0112 21010KT
                      BECMG 0116/0118 5000 -SN BR BKN015 BKN030=
201901011100 TAF LRSM 011100Z 0112/0121 VRB04KT 9999 BKN045
                      BECMG 0116/0118 5000 -SN BR BKN015 BKN030=
201901011400 TAF LRSM 011400Z 0115/0124 25010KT 9999 BKN045
                      BECMG 0118/0120 5000 -SN BR BKN015 BKN030=
201901011700 TAF LRSM 011700Z NIL=
201901012000 TAF LRSM 012000Z NIL=
201901012300 TAF LRSM 012300Z NIL=
201901020200 TAF LRSM 020200Z 0203/0212 24016KT 9999 BKN015
                      BECMG 0203/0205 30008KT
                      TEMPO 0203/0208 5000 -SN BKN005 OVC030=
201901020500 TAF LRSM 020500Z 0206/0215 26016KT 5000 -SN BKN015 OVC030
                      TEMPO 0206/0210 3000 -SN BKN010 OVC025
                      BECMG 0210/0212 9999 NSW SCT020 BKN040=
201901020800 TAF LRSM 020800Z 0209/0218 26012KT 9999 SCT030
                      TEMPO 0210/0216 5000 -SN BKN010 BKN030
                      PROB40 0210/0214 3000 SN BKN010 FEW030CB=
201901021100 TAF LRSM 021100Z 0212/0221 26012KT 9999 SCT040
                      TEMPO 0212/0214 5000 -RA SCT010 FEW035CB
                       BKN040
                      BECMG 0214/0216 32015KT 5000 -SN BKN010 OVC035
                       BECMG 0218/0220 9999 NSW SCT015 BKN040=
201901021400 TAF LRSM 021400Z 0215/0224 30015KT 9999 SCT015 OVC030
                      TEMPO 0215/0219 5000 -SN BKN010 OVC025=
201901021700 TAF LRSM 021700Z NIL=
201901022000 TAF LRSM 022000Z NIL=
201901022300 TAF LRSM 022300Z NIL=
201901030200 TAF LRSM 030200Z 0303/0312 34012KT 9999 BKN045=
201901030500 TAF LRSM 030500Z 0306/0315 33012KT CAVOK
                      PROB40 TEMPO 0311/0315 5000 -SN BKN015 BKN040=
201901030800 TAF LRSM 030800Z 0309/0318 34014KT CAVOK
                      PROB40 TEMPO 0311/0315 5000 -SN BKN015 BKN040=
201901031100 TAF LRSM 031100Z 0312/0321 34014KT CAVOK
                      PROB40 TEMPO 0312/0315 5000 -SN BKN015 BKN040=
201901031400 TAF LRSM 031400Z 0315/0324 34012KT CAVOK=
201901031700 TAF LRSM 031700Z NIL=
201901032000 TAF LRSM 032000Z NIL=
201901032300 TAF LRSM 032300Z NIL=
201901040200 TAF LRSM 040200Z 0403/0412 34012KT 9999 SCT010
                      TEMPO 0403/0407 BKN010=
201901040500 TAF LRSM 040500Z 0406/0415 VRB04KT CAVOK
                      BECMG 0408/0410 34010KT=
201901040800 TAF LRSM 040800Z 0409/0418 34008KT CAVOK=
201901041100 TAF LRSM 041100Z 0412/0421 VRB04KT 9999 BKN040
                      PROB30 TEMPO 0412/0415 5000 -SN=
201901041400 TAF LRSM 041400Z 0415/0424 34008KT 9999 SCT040=
201901041700 TAF LRSM 041700Z NIL=
201901042000 TAF LRSM 042000Z NIL=
201901042300 TAF LRSM 042300Z NIL=
201901050200 TAF LRSM 050200Z 0503/0512 VRB04KT 9999 SCT030 OVC040
                      BECMG 0506/0508 19010KT 5000 -SN BKN010 OVC030
                       TEMPO 0508/0512 3000 SN BKN005 OVC020=
201901050500 TAF LRSM 050500Z 0506/0515 19010KT 9999 BKN025
                      BECMG 0506/0508 5000 -SN BKN010 OVC030
                      TEMPO 0508/0512 3000 SN BKN005 OVC020
                      TEMPO 0512/0515 1500 SN BKN002 OVC020=
201901050800 TAF LRSM 050800Z 0509/0518 19010KT 5000 -SN BR SCT015 BKN035
                      TEMPO 0509/0512 3000 SN BKN010 OVC025
                      TEMPO 0512/0518 1500 SN BKN005 OVC020
                      PROB40 0514/0518 0800 +SN BKN002 OVC015=
201901051100 TAF LRSM 051100Z 0512/0521 19012KT 5000 -SN BR BKN015 BKN035
                      TEMPO 0512/0520 1500 SN BKN005 OVC020
                      PROB40 0514/0518 0800 +SN BKN002 OVC015=
201901051400 TAF LRSM 051400Z 0515/0524 19008KT 5000 -SN BR BKN015 BKN035
                      PROB30 0515/0521 1500 SN BKN005 OVC020
                      PROB40 0515/0518 0800 +SN BKN002 OVC015=
201901051700 TAF LRSM 051700Z NIL=
201901052000 TAF LRSM 052000Z NIL=
201901052300 TAF LRSM 052300Z NIL=
201901060200 TAF LRSM 060200Z NIL=
201901060500 TAF LRSM 060500Z NIL=
201901060800 TAF LRSM 060800Z NIL=
201901061100 TAF LRSM 061100Z NIL=
201901061400 TAF LRSM 061400Z NIL=
201901061700 TAF LRSM 061700Z NIL=
201901062000 TAF LRSM 062000Z NIL=
201901062300 TAF LRSM 062300Z NIL=
201901070200 TAF LRSM 070200Z 0703/0712 35007KT CAVOK=
201901070500 TAF LRSM 070500Z 0706/0715 VRB03KT CAVOK
                      BECMG 0707/0709 01010KT=
201901070800 TAF LRSM 070800Z 0709/0718 36008KT CAVOK=
201901071100 TAF LRSM 071100Z 0712/0721 VRB04KT CAVOK=
201901071400 TAF LRSM 071400Z 0715/0724 VRB04KT CAVOK
                      BECMG 0720/0722 5000 BR BKN015=
201901071700 TAF LRSM 071700Z NIL=
201901072000 TAF LRSM 072000Z NIL=
201901072300 TAF LRSM 072300Z NIL=
201901080200 TAF LRSM 080200Z 0803/0812 VRB04KT CAVOK=
201901080500 TAF LRSM 080500Z 0806/0815 VRB04KT CAVOK
                      BECMG 0807/0809 16012KT
                      BECMG 0813/0815 3000 SN BKN010 OVC025=
201901080800 TAF LRSM 080800Z 0809/0818 18012KT 9999 BKN035
                      TEMPO 0809/0811 5000 -SN BKN015 OVC030
                      BECMG 0813/0815 3000 SN BKN010 OVC025
                      TEMPO 0816/0818 1500 SN BKN005 OVC020=
201901081100 TAF LRSM 081100Z 0812/0821 16012KT 5000 BR BKN035
                      BECMG 0813/0815 3000 -SN BKN010 OVC025
                      TEMPO 0817/0821 1500 SN BKN005 OVC020=
201901081400 TAF LRSM 081400Z 0815/0824 20010KT 5000 -SN BKN015 OVC025
                      TEMPO 0816/0820 1500 SN BKN005 OVC020=
201901081700 TAF LRSM 081700Z NIL=
201901082000 TAF LRSM 082000Z NIL=
201901082300 TAF LRSM 082300Z NIL=
201901090200 TAF LRSM 090200Z 0903/0912 14008KT 5000 -SN OVC025
                      TEMPO 0903/0907 1500 SN BKN005 OVC020=
201901090500 TAF LRSM 090500Z 0906/0915 13010KT 5000 -SN BR OVC025
                      TEMPO 0906/0910 1500 SN BR BKN005 OVC020=
201901090800 TAF LRSM 090800Z 0909/0918 12010KT 5000 -SN BR BKN015 OVC030
                      TEMPO 0909/0912 8000 NSW SCT015 OVC035
                      TEMPO 0912/0915 1500 SN BKN005 OVC020=
201901091100 TAF LRSM 091100Z 0912/0921 13008KT 9999 OVC010
                      BECMG 0912/0914 3000 -SN BR
                      BECMG 0916/0918 5000 BR SCT015 BKN040=
201901091400 TAF LRSM 091400Z 0915/0924 VRB04KT 9999 -SG OVC010
                      BECMG 0916/0918 5000 BR SCT015 BKN040=
201901091700 TAF LRSM 091700Z NIL=
201901092000 TAF LRSM 092000Z NIL=
201901092300 TAF LRSM 092300Z NIL=
201901100200 TAF LRSM 100200Z 1003/1012 VRB04KT 5000 BR BKN015
                      TEMPO 1003/1006 1500 BR BKN005=
201901100500 TAF LRSM 100500Z 1006/1015 01008KT 1500 BR OVC002
                      TEMPO 1006/1008 0600 FZFG OVC001
                      BECMG 1008/1010 5000 BKN007
                      BECMG 1008/1010 9999 NSW SCT015=
201901100800 TAF LRSM 100800Z 1009/1018 VRB04KT 0600 FZFG OVC001
                      BECMG 1009/1011 3000 BR BKN005
                      TEMPO 1011/1014 5000 SCT010
                      BECMG 1016/1018 1500 BR BKN002=
201901101100 TAF LRSM 101100Z 1012/1021 VRB04KT 3000 BR BKN005
                      BECMG 1012/1014 5000 SCT010
                      BECMG 1016/1018 1500 BR BKN002=
201901101400 TAF LRSM 101400Z 1015/1024 VRB04KT 3000 BR NSC
                      BECMG 1016/1018 1500 BR BKN002
                      PROB40 TEMPO 1018/1022 0600 FZFG BKN001=
201901101537 TAF AMD LRSM 101537Z 1015/1024 VRB04KT 0600 FZFG NSC
                      TEMPO 1016/1019 0350 FZFG BKN001
                      PROB40 TEMPO 1019/1024 1500 BR BKN002=
201901101700 TAF LRSM 101700Z 1018/1103 VRB04KT 0150 FZFG VV001
                      PROB30 TEMPO 1022/1103 0800 BKN002=
201901102000 TAF LRSM 102000Z NIL=
201901102300 TAF LRSM 102300Z NIL=
201901110200 TAF LRSM 110200Z 1103/1112 VRB04KT 5000 BR NSC
                      TEMPO 1103/1106 1500 BR BKN005
                      BECMG 1106/1108 7000 NSW=
201901110500 TAF LRSM 110500Z 1106/1115 VRB04KT 5000 BR NSC
                      TEMPO 1106/1109 3000 -SN BR BKN010 OVC025=
201901110800 TAF LRSM 110800Z 1109/1118 VRB04KT 3000 BR SCT015 BKN025
                      TEMPO 1109/1111 1500 -SN BR BKN010 OVC020
                       TEMPO 1111/1115 5000=
201901111100 TAF LRSM 111100Z 1112/1121 VRB04KT 5000 BR BKN025
                      TEMPO 1112/1115 3000 -SN BR BKN010 OVC020
                       BECMG 1118/1120 25010KT 3000 BR OVC010=
201901111400 TAF LRSM 111400Z 1115/1124 26008KT 5000 BR BKN025
                      TEMPO 1115/1118 3000 -SN BR BKN015 OVC020
                       BECMG 1118/1120 3000 BR OVC010=
201901111700 TAF LRSM 111700Z 1118/1203 25008KT 5000 -SN BR OVC025
                      TEMPO 1118/1121 3000 -SN BR
                      BECMG 1121/1123 3000 BR
                      PROB30 TEMPO 1123/1203 1500 BR=
201901111854 TAF AMD LRSM 111854Z 1118/1203 CNL=
201901112000 TAF LRSM 112000Z NIL=
201901112300 TAF LRSM 112300Z NIL=
201901120200 TAF LRSM 120200Z 1203/1212 20008KT 5000 -SN BR SCT010 OVC025
                      TEMPO 1206/1210 3000 -SN BR BKN010 OVC020=
201901120500 TAF LRSM 120500Z 1206/1215 23008KT 5000 -SN BR SCT010 OVC030
                      TEMPO 1206/1210 3000 -SN BR BKN010 OVC025=
201901120800 TAF LRSM 120800Z 1209/1218 25014KT 3000 -SN BR BKN010 BKN035
                      TEMPO 1209/1213 1500 SN BR BKN005 OVC030=
201901121100 TAF LRSM 121100Z 1212/1221 25008KT 5000 -SN BR BKN010 BKN035
                      TEMPO 1212/1216 3000 SN BR BKN005 OVC030=
201901121400 TAF LRSM 121400Z 1215/1224 25006KT 9999 BKN010 BKN035
                      TEMPO 1215/1219 3000 -SN BR BKN005 OVC030=
201901121700 TAF LRSM 121700Z NIL=
201901122000 TAF LRSM 122000Z NIL=
201901122300 TAF LRSM 122300Z NIL=
201901130200 TAF LRSM 130200Z NIL=
201901130500 TAF LRSM 130500Z NIL=
201901130800 TAF LRSM 130800Z NIL=
201901131100 TAF LRSM 131100Z NIL=
201901131400 TAF LRSM 131400Z NIL=
201901131700 TAF LRSM 131700Z NIL=
201901132000 TAF LRSM 132000Z NIL=
201901132300 TAF LRSM 132300Z NIL=
201901140200 TAF LRSM 140200Z 1403/1412 25006KT 5000 -SN BKN010 BKN035
                      TEMPO 1403/1406 3000 -RASN FZRA BKN005 OVC030
                       BECMG 1406/1408 RA=
201901140500 TAF LRSM 140500Z 1406/1415 23016KT 5000 -RASN BKN010 OVC035
                      TEMPO 1406/1408 3000 SN BKN005 OVC020
                      BECMG 1408/1410 RA BKN015 OVC030
                      BECMG 1410/1412 30020KT=
201901140800 TAF LRSM 140800Z 1409/1418 25016KT 9999 SCT015 OVC025
                      TEMPO 1409/1412 5000 RA BKN010 OVC020
                      BECMG 1412/1414 33020KT
                      TEMPO 1414/1418 34020G30KT=
201901141100 TAF LRSM 141100Z 1412/1421 26010KT 9999 SCT015 OVC025
                      TEMPO 1412/1414 5000 -SHSNRA BKN010 SCT030CB
                       BECMG 1414/1416 33018KT
                      TEMPO 1416/1419 34020G30KT=
201901141400 TAF LRSM 141400Z 1415/1424 31015KT CAVOK=
201901141700 TAF LRSM 141700Z NIL=
201901142000 TAF LRSM 142000Z NIL=
201901142300 TAF LRSM 142300Z NIL=
201901150200 TAF LRSM 150200Z 1503/1512 31008KT CAVOK
                      BECMG 1507/1509 25010KT=
201901150500 TAF LRSM 150500Z 1506/1515 25010KT CAVOK=
201901150800 TAF LRSM 150800Z 1509/1518 25012KT CAVOK
                      BECMG 1516/1518 5000 -SN BKN015 BKN030=
201901151100 TAF LRSM 151100Z 1512/1521 25010KT CAVOK
                      BECMG 1518/1520 5000 -SN BKN010 OVC030=
201901151400 TAF LRSM 151400Z 1515/1524 24010KT CAVOK
                      BECMG 1518/1520 5000 -SN BKN010 OVC030=
201901151700 TAF LRSM 151700Z NIL=
201901152000 TAF LRSM 152000Z NIL=
201901152300 TAF LRSM 152300Z NIL=
201901160200 TAF LRSM 160200Z 1603/1612 24015KT 5000 -SN BR BKN010 OVC035
                      TEMPO 1603/1607 3000 -SN BR BKN005 OVC015=
201901160500 TAF LRSM 160500Z 1606/1615 26018KT 9999 OVC040
                      TEMPO 1606/1609 5000 -SN BKN010 OVC025=
201901160800 TAF LRSM 160800Z 1609/1618 26016KT 9999 SCT040
                      TEMPO 1609/1612 5000 -SN BKN010 OVC025=
201901161100 TAF LRSM 161100Z 1612/1621 25014KT 9999 SCT040=
201901161400 TAF LRSM 161400Z 1615/1624 25010KT CAVOK=
201901161700 TAF LRSM 161700Z NIL=
201901162000 TAF LRSM 162000Z NIL=
201901162300 TAF LRSM 162300Z NIL=
201901170200 TAF LRSM 170200Z 1703/1712 11006KT CAVOK
                      BECMG 1708/1710 20010KT=
201901170500 TAF LRSM 170500Z 1706/1715 11006KT CAVOK
                      BECMG 1708/1710 20010KT=
201901170800 TAF LRSM 170800Z 1709/1718 11006KT 9999 BKN040
                      BECMG 1709/1711 22010KT=
201901171100 TAF LRSM 171100Z 1712/1721 22010KT 9999 BKN040
                      PROB30 TEMPO 1719/1721 5000 -RA=
201901171400 TAF LRSM 171400Z 1715/1724 22010KT 9999 BKN040
                      PROB30 TEMPO 1719/1724 5000 -RA=
201901171700 TAF LRSM 171700Z NIL=
201901172000 TAF LRSM 172000Z NIL=
201901172300 TAF LRSM 172300Z NIL=
201901180200 TAF LRSM 180200Z 1803/1812 23010KT 9999 BKN035
                      TEMPO 1803/1809 5000 -RA BR BKN015 OVC030=
201901180500 TAF LRSM 180500Z 1806/1815 23010KT 9999 OVC035
                      TEMPO 1809/1814 5000 -RA BR BKN015 OVC030=
201901180800 TAF LRSM 180800Z 1809/1818 23012KT 9999 OVC030
                      TEMPO 1809/1814 5000 -RA BR BKN015 OVC030
                       BECMG 1816/1818 32008KT=
201901181100 TAF LRSM 181100Z 1812/1821 24010KT 8000 -RA OVC035
                      TEMPO 1812/1815 5000 -RA BR BKN015 OVC020
                       BECMG 1816/1818 32008KT
                      BECMG 1819/1821 3000 BR BKN010=
201901181400 TAF LRSM 181400Z 1815/1824 24010KT 8000 -RA OVC030
                      TEMPO 1815/1816 5000 -RA BR BKN015 OVC020
                       BECMG 1816/1818 32008KT
                      TEMPO 1820/1824 3000 BR BKN010=
201901181700 TAF LRSM 181700Z NIL=
201901182000 TAF LRSM 182000Z NIL=
201901182300 TAF LRSM 182300Z NIL=
201901190200 TAF LRSM 190200Z 1903/1912 VRB04KT 5000 BR NSC
                      TEMPO 1904/1909 1500 BR
                      BECMG 1909/1911 9999 NSW=
201901190500 TAF LRSM 190500Z 1906/1915 VRB04KT 5000 BR NSC
                      TEMPO 1906/1908 1500 BR BKN005
                      BECMG 1908/1910 9999 NSW=
201901190800 TAF LRSM 190800Z 1909/1918 VRB04KT 4000 BR BKN005
                      BECMG 1909/1911 7000 NSW BKN010
                      BECMG 1911/1913 BKN020=
201901191100 TAF LRSM 191100Z 1912/1921 VRB04KT 9999 BKN010
                      BECMG 1913/1915 BKN020=
201901191400 TAF LRSM 191400Z 1915/1924 05006KT 3000 BR SCT015
                      TEMPO 1915/1917 7000 NSW=
201901191700 TAF LRSM 191700Z NIL=
201901192000 TAF LRSM 192000Z NIL=
201901192300 TAF LRSM 192300Z NIL=
201901200200 TAF LRSM 200200Z 2003/2012 10006KT 3000 -SN BKN015 BKN030
                      TEMPO 2004/2010 1500 SN BKN010 OVC025=
201901200500 TAF LRSM 200500Z NIL=
201901200800 TAF LRSM 200800Z NIL=
201901201100 TAF LRSM 201100Z NIL=
201901201400 TAF LRSM 201400Z NIL=
201901201700 TAF LRSM 201700Z NIL=
201901202000 TAF LRSM 202000Z NIL=
201901202300 TAF LRSM 202300Z NIL=
201901210200 TAF LRSM 210200Z 2103/2112 26006KT 9999 BKN010 BKN030
                      PROB40 TEMPO 2103/2107 5000 -SN BKN005 OVC020=
201901210500 TAF LRSM 210500Z 2106/2115 28006KT 5000 BR BKN015 BKN030
                      TEMPO 2106/2108 3000 BR BKN005 OVC025
                      BECMG 2109/2111 9999 NSW BKN030=
201901210800 TAF LRSM 210800Z 2109/2118 28006KT 5000 BR BKN010 BKN025
                      BECMG 2109/2111 9999 NSW SCT020 BKN035=
201901211100 TAF LRSM 211100Z 2112/2121 28006KT 8000 NSC
                      BECMG 2115/2117 5000 BR
                      BECMG 2117/2119 3000 BR BKN010=
201901211400 TAF LRSM 211400Z 2115/2124 VRB03KT 5000 BR NSC
                      BECMG 2116/2118 3000 BR BKN010=
201901211700 TAF LRSM 211700Z NIL=
201901212000 TAF LRSM 212000Z NIL=
201901212300 TAF LRSM 212300Z NIL=
201901220200 TAF LRSM 220200Z 2203/2212 VRB03KT 3000 BR BKN015 BKN030
                      TEMPO 2203/2205 1500 BR OVC010
                      BECMG 2208/2210 1500 SN BKN005 OVC020=
201901220500 TAF LRSM 220500Z 2206/2215 VRB03KT 3000 BR SCT015 BKN030
                      BECMG 2206/2208 1500 -SN BR BKN005 OVC020
                       PROB40
                      TEMPO 2208/2214 0600 SN BKN002 OVC015=
201901220800 TAF LRSM 220800Z 2209/2218 VRB03KT 1500 -SN BR BKN010 OVC025
                      PROB40 TEMPO 2209/2214 0600 SN BKN005 OVC020
                       TEMPO 2215/2218 5000 -SN BKN015 OVC030=
201901221100 TAF LRSM 221100Z 2212/2221 VRB03KT 1500 -SN BR BKN010 OVC025
                      TEMPO 2212/2217 0600 SN BKN005 OVC020
                      PROB30 TEMPO 2217/2221 0800 -SN=
201901221400 TAF LRSM 221400Z 2215/2224 VRB04KT 1500 -SN BR BKN010 OVC025
                      TEMPO 2215/2217 0600 SN BKN005 OVC020
                      PROB30 TEMPO 2217/2221 0800 -SN=
201901221700 TAF LRSM 221700Z NIL=
201901222000 TAF LRSM 222000Z NIL=
201901230200 TAF LRSM 230200Z 2303/2312 VRB04KT 3000 -SN BR BKN010 OVC020
                      TEMPO 2303/2309 1500 SN BKN005 OVC015
                      PROB40 2305/2309 0600 +SN BKN002 OVC010=
201901230500 TAF LRSM 230500Z 2306/2315 VRB04KT 1500 -SN BR BKN010 OVC020
                      BECMG 2309/2311 3000 -SN=
201901230800 TAF LRSM 230800Z 2309/2318 VRB04KT 1500 -SN BR BKN010 OVC020
                      BECMG 2309/2311 3000 BR=
201901231033 TAF AMD LRSM 231033Z 2310/2318 VRB04KT 1500 -SN BR BKN003 OVC020
                       BECMG 2310/2312 3000 BR BKN010 OVC025=
201901231100 TAF LRSM 231100Z 2312/2321 VRB04KT 1500 -SN BR BKN003 OVC015
                      BECMG 2312/2314 3000 BR BKN010 OVC025
                      BECMG 2316/2318 0800 FZFG OVC002=
201901231322 TAF AMD LRSM 231322Z 2313/2321 VRB04KT 0600 FG BKN002 OVC010
                      PROB30 TEMPO 2313/2315 1500 BR
                      BECMG 2315/2317 0350 FZFG OVC001=
201901231400 TAF LRSM 231400Z 2315/2324 VRB04KT 0600 FG BKN002 OVC010
                      BECMG 2315/2317 0350 FZFG OVC001=
201901231700 TAF LRSM 231700Z 2318/2403 05004KT 0600 FZFG BKN010
                      TEMPO 2318/2319 1500 BR BKN020
                      TEMPO 2319/2322 0350 FZFG BKN001
                      BECMG 2322/2324 1500 BR SCT015 BKN025
                      TEMPO 2400/2403 3000=
201901231951 TAF AMD LRSM 231951Z 2319/2403 CNL=
201901232000 TAF LRSM 232000Z NIL=
201901232300 TAF LRSM 232300Z NIL=
201901240200 TAF LRSM 240200Z 2403/2412 05004KT 0600 FZFG VV001
                      TEMPO 2403/2406 0300 FZFG
                      BECMG 2407/2409 1500 BR BKN005=
201901240500 TAF LRSM 240500Z 2406/2415 05004KT 3000 BR NSC
                      TEMPO 2406/2409 -FZRA BR BKN005 OVC020
                      TEMPO 2409/2415 1500 RA RASN BKN002 OVC020=
201901240800 TAF LRSM 240800Z 2409/2418 VRB04KT 5000 -FZRA BR BKN015 OVC035
                       TEMPO 2409/2414 1500 RA BR BKN010 OVC025
                       BECMG 2414/2416 RASN SN BKN005 OVC020=
201901241100 TAF LRSM 241100Z 2412/2421 02008KT 5000 -RA BR BKN015 OVC025
                      TEMPO 2412/2414 3000 -FZRA BKN010 OVC020
                       BECMG 2414/2416 1500 SN BR BKN005 OVC020=
201901241400 TAF LRSM 241400Z 2415/2424 VRB04KT 3000 -RA BR BKN015 OVC025
                      PROB30 TEMPO 2415/2417 1500 -FZRA BKN010
                       OVC020
                      BECMG 2417/2419 1500 SN BR BKN005 OVC020=
201901241700 TAF LRSM 241700Z NIL=
201901242000 TAF LRSM 242000Z NIL=
201901242300 TAF LRSM 242300Z NIL=
201901250200 TAF LRSM 250200Z 2503/2512 VRB04KT 1500 -SN BR BKN010 OVC020
                      PROB40 TEMPO 2503/2506 0600 -SN FZFG BKN002
                       OVC020
                      BECMG 2507/2509 5000
                      BECMG 2510/2512 7000 NSW BKN015 OVC020=
201901250500 TAF LRSM 250500Z 2506/2515 VRB04KT 1500 -SN BR BKN005 OVC020
                      PROB40 TEMPO 2506/2507 0600 -SN FZFG OVC002
                       BECMG 2507/2509 5000 BKN015 OVC030
                      BECMG 2509/2511 7000 NSW SCT020 BKN040=
201901250800 TAF LRSM 250800Z 2509/2518 VRB04KT 1500 -SN BR BKN005 OVC015
                      BECMG 2509/2511 3000 BR BKN010 BKN025
                      BECMG 2514/2516 1500 BR OVC005
                      PROB30 TEMPO 2516/2518 0600 FZFG OVC002=
201901251100 TAF LRSM 251100Z 2512/2521 VRB04KT 5000 BR SCT010 BKN035
                      TEMPO 2513/2517 1500 BR OVC005
                      BECMG 2517/2519 3000 -SN BR OVC005
                      TEMPO 2519/2521 1500 SN BR OVC002=
201901251400 TAF LRSM 251400Z 2515/2524 35006KT 5000 BR SCT010 BKN035
                      TEMPO 2515/2517 3000 BR BKN010 OVC030
                      BECMG 2517/2519 3000 -SN BR OVC005
                      TEMPO 2520/2524 1500 SN BR OVC002=
201901251700 TAF LRSM 251700Z 2518/2603 35006KT 3000 BR BKN005 BKN035
                      TEMPO 2518/2520 1500 BR BKN002 OVC030
                      BECMG 2520/2522 1500 SN BR BKN002 OVC020=
201901252000 TAF LRSM 252000Z NIL=
201901252300 TAF LRSM 252300Z NIL=
201901260200 TAF LRSM 260200Z NIL=
201901260419 TAF LRSM 260419Z 2604/2612 30005KT 5000 -SN BR BKN005 OVC010
                      TEMPO 2604/2609 1500 SN BKN002 OVC005=
201901260500 TAF LRSM 260500Z 2606/2615 31006KT 7000 -SN BKN015 OVC035
                      TEMPO 2606/2610 3000 -SN BR BKN005 OVC025
                       BECMG 2612/2614 22010KT NSW=
201901260800 TAF LRSM 260800Z 2609/2618 28006KT 5000 -SN BKN010 OVC035
                      TEMPO 2609/2612 2000 -SN BR BKN005 OVC025
                       TEMPO 2613/2616 22010KT 8000 NSW SCT015
                       BKN045=
201901261100 TAF LRSM 261100Z 2612/2621 26008KT 5000 BR BKN015 OVC035
                      TEMPO 2612/2614 3000 -SN BR BKN005 OVC025
                       BECMG 2615/2617 3000 -SN BR BKN005 OVC020=
201901261400 TAF LRSM 261400Z 2615/2624 26008KT 8000 BKN045
                      PROB40 TEMPO 2616/2624 5000 -SN BR BKN010
                       OVC040=
201901261700 TAF LRSM 261700Z NIL=
201901262000 TAF LRSM 262000Z NIL=
201901262300 TAF LRSM 262300Z NIL=
201901270200 TAF LRSM 270200Z NIL=
201901270500 TAF LRSM 270500Z NIL=
201901270800 TAF LRSM 270800Z NIL=
201901271100 TAF LRSM 271100Z NIL=
201901271400 TAF LRSM 271400Z NIL=
201901271700 TAF LRSM 271700Z NIL=
201901272000 TAF LRSM 272000Z NIL=
201901272300 TAF LRSM 272300Z NIL=
201901280200 TAF LRSM 280200Z 2803/2812 14008KT CAVOK=
201901280500 TAF LRSM 280500Z 2806/2815 14008KT CAVOK=
201901280800 TAF LRSM 280800Z 2809/2818 14010KT CAVOK
                      BECMG 2814/2816 22008KT 5000 -RA BKN010 OVC030=
201901281100 TAF LRSM 281100Z 2812/2821 14010KT CAVOK
                      BECMG 2816/2818 22008KT 5000 -RA BKN010 OVC030=
201901281400 TAF LRSM 281400Z 2815/2824 14005KT CAVOK
                      BECMG 2816/2818 5000 -RA BKN010 OVC030
                      TEMPO 2820/2824 3000 -FZRA BKN005 OVC020=
201901281700 TAF LRSM 281700Z NIL=
201901282000 TAF LRSM 282000Z NIL=
201901282300 TAF LRSM 282300Z NIL=
201901290200 TAF LRSM 290200Z 2903/2912 VRB04KT 5000 -RA BKN030
                      BECMG 2903/2905 3000 BR
                      BECMG 2907/2909 7000 NSW=
201901290500 TAF LRSM 290500Z 2906/2915 23008KT 9999 SCT015 BKN030
                      TEMPO 2906/2908 5000 -RA BKN015 BKN030=
201901290800 TAF LRSM 290800Z 2909/2918 23008KT 3000 BR BKN005 OVC015
                      BECMG 2910/2912 5000 BKN015 BKN020=
201901291007 TAF AMD LRSM 291007Z 2910/2918 VRB04KT 0600 FG VV002
                      TEMPO 2911/2915 1500 BR BKN005=
201901291100 TAF LRSM 291100Z 2912/2921 VRB04KT 1500 BR VV001
                      TEMPO 2912/2916 3000 BR BKN005
                      TEMPO 2918/2921 0350 FG=
201901291400 TAF LRSM 291400Z 2915/2924 VRB04KT 3000 BR OVC010
                      BECMG 2916/2918 1500 BR OVC005
                      TEMPO 2920/2924 0800 FZFG VV002=
201901291700 TAF LRSM 291700Z NIL=
201901292000 TAF LRSM 292000Z NIL=
201901292300 TAF LRSM 292300Z NIL=
201901300200 TAF LRSM 300200Z 3003/3012 VRB04KT 1500 -SN BR BKN010 OVC020
                      BECMG 3009/3011 5000 OVC015=
201901300500 TAF LRSM 300500Z 3006/3015 VRB04KT 1500 BR BKN005 OVC010
                      TEMPO 3006/3008 0800 FZFG OVC001
                      TEMPO 3008/3011 3000 -FZRA BR BKN010 OVC030
                       TEMPO 3011/3015 5000 -RA BR=
201901300544 TAF COR LRSM 300544Z 3006/3015 VRB04KT 1500 BR BKN002 OVC010
                      TEMPO 3006/3009 0800 -FZDZ FZFG OVC001
                      BECMG 3009/3010 3000 -RA BR BKN010 BKN025
                       BECMG 3013/3015 1500 -RA BR BKN005 OVC015=
201901300800 TAF LRSM 300800Z 3009/3018 31004KT 0300 FZFG OVC001
                      BECMG 3009/3010 0600 BKN002 OVC005
                      BECMG 3010/3012 1500 -FZRADZ BR BKN005 OVC020
                       TEMPO 3012/3015 3000 BKN010 BKN020
                      BECMG 3016/3018 0800 FZFG OVC002=
201901301100 TAF LRSM 301100Z 3012/3021 VRB04KT 1500 -FZRA BR BKN001 OVC005
                       TEMPO 3012/3016 0800 -RADZ FG
                      BECMG 3016/3018 0600 FZFG
                      PROB30 TEMPO 3019/3021 0300 FZFG=
201901301329 TAF AMD LRSM 301329Z 3013/3021 VRB04KT 3000 BR SCT005 BKN030
                      TEMPO 3013/3016 1500 -RADZ BR BKN005 BKN020
                       BECMG 3016/3018 0800 FZFG BKN002 OVC005
                       PROB30
                      TEMPO 3019/3021 0300 FZFG OVC001=
201901301400 TAF LRSM 301400Z 3015/3024 VRB04KT 3000 -RA BR SCT005 BKN035
                      BECMG 3015/3017 1500 -RA BR
                      BECMG 3017/3019 BKN005 BKN025
                      BECMG 3019/3021 0800 FG BKN002 OVC005
                      PROB30 TEMPO 3022/3024 0600 -RASN FZFG OVC001=
201901301700 TAF LRSM 301700Z NIL=
201901302000 TAF LRSM 302000Z NIL=
201901302300 TAF LRSM 302300Z NIL=
201901310200 TAF LRSM 310200Z 3103/3112 VRB04KT 1500 -RA BR BKN010 OVC025
                      TEMPO 3103/3107 0800 -DZ FG OVC005=
201901310500 TAF LRSM 310500Z 3106/3115 VRB04KT 0600 FG BKN005 BKN015
                      BECMG 3106/3108 1500 BR BKN010
                      BECMG 3108/3110 3000 BR BKN015=
201901310800 TAF LRSM 310800Z 3109/3118 VRB04KT 0600 -RA FG BKN005 BKN015
                      BECMG 3109/3111 1500 BR
                      TEMPO 3111/3115 3000 BKN015=
201901311100 TAF LRSM 311100Z 3112/3121 VRB04KT 1500 BR BKN010
                      TEMPO 3112/3115 3000 BKN015
                      BECMG 3116/3118 0600 FZFG OVC002=
201901311400 TAF LRSM 311400Z 3115/3124 VRB04KT 3000 BR BKN025
                      BECMG 3116/3118 1500 BR BKN010
                      BECMG 3118/3120 0600 FZFG OVC002=
201901311700 TAF LRSM 311700Z NIL=
201901312000 TAF LRSM 312000Z NIL=
201901312300 TAF LRSM 312300Z NIL=