201901010000 METAR LRSM 010000Z AUTO 33001KT 6000 -SN OVC050/// 01/01
                        Q1028=
201901010030 METAR LRSM 010030Z AUTO 22001KT 7000 -SN OVC050/// 01/01
                        Q1028=
201901010100 METAR LRSM 010100Z AUTO 25002KT 6000 -SN OVC049/// 01/01
                        Q1029=
201901010130 METAR LRSM 010130Z AUTO 19003KT 5000 -SN OVC048/// 01/01
                        Q1028=
201901010200 METAR LRSM 010200Z AUTO 23002KT 6000 -SN OVC048/// 01/01
                        Q1028=
201901010230 METAR LRSM 010230Z AUTO 25003KT 5000 -SN OVC047/// 01/01
                        Q1028=
201901010300 METAR LRSM 010300Z AUTO 25002KT 4500 -SN OVC046/// 01/01
                        Q1028=
201901010330 METAR LRSM 010330Z 24003KT 5000 BR OVC046 01/01 Q1028 R01/29//95=
201901010400 METAR LRSM 010400Z 21002KT 5000 BR OVC045 01/01 Q1028 R01/29//95=
201901010430 METAR LRSM 010430Z 20004KT 5000 BR OVC042 00/00 Q1027 R01/29//95=
201901010500 METAR LRSM 010500Z 21003KT 5000 BR OVC042 01/01 Q1028 R01/29//95=
201901010530 METAR LRSM 010530Z 19005KT 5000 BR OVC042 01/01 Q1027 R01/29//95=
201901010600 METAR LRSM 010600Z 19004KT 5000 BR OVC041 01/01 Q1027 R01/29//95=
201901010630 METAR LRSM 010630Z 19005KT 4500 BR OVC042 01/01 Q1027 R01/29//95=
201901010700 METAR LRSM 010700Z 19008KT 5000 BR OVC046 01/01 Q1027 R01/29//95=
201901010730 METAR LRSM 010730Z 23004KT 6000 FEW004 BKN047 01/01 Q1027
                        R01/29//95=
201901010800 METAR LRSM 010800Z 23004KT 8000 FEW005 BKN047 02/01 Q1026
                        R01/29//95=
201901010830 METAR LRSM 010830Z 23004KT 7000 FEW047 02/01 Q1026 R01/29//95=
201901010900 METAR LRSM 010900Z 24005KT 9999 FEW005 03/02 Q1026 R01/29//95=
201901010930 METAR LRSM 010930Z 24006KT 9999 FEW005 03/01 Q1026 R01/29//95=
201901011000 METAR LRSM 011000Z 23006KT 9999 FEW005 SCT046 04/01 Q1025
                        R01/29//95=
201901011030 METAR LRSM 011030Z 23006KT 190V250 9999 FEW008 BKN046 04/01
                        Q1025 R01/29//95=
201901011100 METAR LRSM 011100Z 25008KT 9999 BKN045 04/01 Q1024 R01/29//95=
201901011130 METAR LRSM 011130Z 25009KT 9999 FEW016 04/01 Q1024 R01/29//95=
201901011200 METAR LRSM 011200Z 25010KT 9999 SCT014 05/01 Q1023 R01/29//95=
201901011230 METAR LRSM 011230Z 25009KT 9999 SCT018 04/01 Q1023 R01/29//95=
201901011300 METAR LRSM 011300Z 25011KT 9999 FEW020 04/01 Q1023 R01/29//95=
201901011330 METAR LRSM 011330Z 25012KT 9999 FEW020 04/01 Q1022 R01/CLRD//=
201901011400 METAR LRSM 011400Z 25010KT CAVOK 04/00 Q1022=
201901011430 METAR LRSM 011430Z 24009KT CAVOK 03/00 Q1021=
201901011500 METAR LRSM 011500Z 23009KT CAVOK 03/M00 Q1020=
201901011530 METAR LRSM 011530Z 22010KT CAVOK 03/M00 Q1020=
201901011600 METAR LRSM 011600Z 22009KT 9999 SCT037 03/M00 Q1020=
201901011630 METAR LRSM 011630Z 22009KT 9999 SCT021 BKN041 02/01 Q1020=
201901011700 METAR LRSM 011700Z 21008KT 9999 -RA SCT020 OVC033 02/01 Q1019
                        R01/29//95=
201901011730 METAR LRSM 011730Z AUTO 23009KT 9000 -SN FEW018/// OVC029///
                        02/00 Q1019=
201901011800 METAR LRSM 011800Z AUTO 23010KT 200V260 7000 -SN FEW014///
                        OVC027/// 02/01 Q1018=
201901011830 METAR LRSM 011830Z AUTO 23014KT 5000 -SN FEW013/// BKN026///
                        02/01 Q1018=
201901011900 METAR LRSM 011900Z AUTO 23015KT 9999 -SN SCT012/// OVC028///
                        02/01 Q1017=
201901011930 METAR LRSM 011930Z AUTO 23014KT 9999 -SN FEW011/// SCT014///
                        OVC023/// 02/01 Q1016=
201901012000 METAR LRSM 012000Z AUTO 23016KT 9000 -SN SCT013/// OVC021///
                        02/00 Q1016=
201901012030 METAR LRSM 012030Z AUTO 23015KT 9000 -SN FEW013/// SCT016///
                        OVC020/// 02/01 Q1015=
201901012100 METAR LRSM 012100Z AUTO 23011KT 5000 -SN SCT011/// BKN014///
                        OVC017/// 01/01 Q1015=
201901012130 METAR LRSM 012130Z AUTO 23011KT 4900 -SN FEW008/// BKN010///
                        BKN013/// 01/01 Q1014=
201901012200 METAR LRSM 012200Z AUTO 22008KT 6000 -SN FEW005/// BKN008///
                        OVC012/// 01/01 Q1014=
201901012230 METAR LRSM 012230Z AUTO 21007KT 4000 -SN SCT006/// BKN008///
                        OVC010/// 01/01 Q1013=
201901012300 METAR LRSM 012300Z AUTO 23009KT 190V250 8000 -SN FEW005///
                        BKN007/// OVC009/// 01/01 Q1013=
201901012330 METAR LRSM 012330Z AUTO 23011KT 9000 -SN BKN007/// 01/01
                        Q1012=
201901020000 METAR LRSM 020000Z AUTO 24014KT 9999 -SN FEW009/// BKN011///
                        OVC015/// 01/01 Q1011=
201901020030 METAR LRSM 020030Z AUTO 24012KT 9999 -SN FEW009/// BKN012///
                        BKN015/// 01/01 Q1011=
201901020100 METAR LRSM 020100Z AUTO 24015KT 9999 -SN BKN011/// OVC014///
                        02/01 Q1011=
201901020130 METAR LRSM 020130Z AUTO 24015KT 9999 -SN BKN011/// 02/01
                        Q1010=
201901020200 METAR LRSM 020200Z AUTO 24015KT 9999 -SN OVC011/// 02/01
                        Q1009=
201901020230 METAR LRSM 020230Z AUTO 24017KT 3400 -SN FEW007/// BKN010///
                        01/00 Q1009=
201901020300 METAR LRSM 020300Z AUTO 24015KT 8000 -SN FEW005/// SCT007///
                        BKN010/// 01/01 Q1008=
201901020330 METAR LRSM 020330Z 25017KT 9999 -SN OVC011 02/01 Q1008 R01/29//95=
201901020400 METAR LRSM 020400Z 25018KT 9999 BKN012 OVC020 02/01 Q1008
                        R01/29//95=
201901020430 METAR LRSM 020430Z 25018KT 9999 FEW012 OVC020 02/01 Q1008
                        R01/29//95=
201901020500 METAR LRSM 020500Z 26017KT 5000 -SN FEW005 SCT012 OVC020
                        02/01 Q1008 R01/29//95=
201901020530 METAR LRSM 020530Z 28013KT 9999 -SN FEW006 SCT013 OVC016
                        02/01 Q1008 R01/29//95=
201901020600 METAR LRSM 020600Z 28009KT 9999 -SN FEW011 01/01 Q1008 R01/29//95=
201901020630 METAR LRSM 020630Z 27009KT 9999 -SN FEW011 SCT035 01/01 Q1008
                        R01/29//95=
201901020700 METAR LRSM 020700Z 25010KT 9999 FEW010 SCT028 01/01 Q1009
                        R01/29//95=
201901020730 METAR LRSM 020730Z 24007KT 9999 FEW010 SCT028 01/01 Q1009
                        R01/29//95=
201901020800 METAR LRSM 020800Z 26010KT 9999 FEW002 SCT030 01/01 Q1009
                        R01/29//95=
201901020830 METAR LRSM 020830Z 25008KT 9999 FEW002 SCT035 02/01 Q1009
                        R01/29//95=
201901020900 METAR LRSM 020900Z 25010KT 9999 BKN045 02/01 Q1009 R01/29//95=
201901020930 METAR LRSM 020930Z 26011KT 9999 BKN045 02/02 Q1009 R01/29//95=
201901021000 METAR LRSM 021000Z 25010KT 9999 BKN045 03/01 Q1009 R01/29//95=
201901021030 METAR LRSM 021030Z 25013KT 9999 SCT045 03/02 Q1009 R01/29//95=
201901021100 METAR LRSM 021100Z 28011KT 9999 -RA FEW020 SCT042 03/01 Q1009
                        R01/29//95=
201901021130 METAR LRSM 021130Z 28010KT 9999 -RA FEW023 BKN043 03/01 Q1009
                        R01/29//95=
201901021200 METAR LRSM 021200Z 27009KT 9999 BKN040 03/01 Q1009 R01/29//95=
201901021230 METAR LRSM 021230Z 27009KT 9999 BKN037 03/01 Q1009 R01/29//95=
201901021300 METAR LRSM 021300Z 27008KT 9999 BKN037 03/01 Q1009 R01/29//95=
201901021330 METAR LRSM 021330Z 27010KT 9999 -RA SCT020 OVC036 03/01 Q1010
                        R01/29//95=
201901021400 METAR LRSM 021400Z 28012KT 9999 -RA FEW014 OVC025 02/01 Q1010
                        R01/29//95=
201901021430 METAR LRSM 021430Z 27009KT 9999 -RA FEW018 OVC025 02/01 Q1010
                        R01/29//95=
201901021500 METAR LRSM 021500Z 29013KT 5000 -RA FEW014 OVC025 01/01 Q1011
                        R01/29//95=
201901021530 METAR LRSM 021530Z 29009KT 9999 -RASN SCT007 OVC012 01/01
                        Q1011 R01/29//94=
201901021600 METAR LRSM 021600Z 28009KT 9999 -RASN FEW006 OVC012 01/01
                        Q1011 R01/29//94=
201901021630 METAR LRSM 021630Z 28010KT 9999 -RASN FEW006 BKN012 01/01
                        Q1011 R01/29//94=
201901021700 METAR LRSM 021700Z 28010KT 9999 -RASN FEW007 BKN015 OVC030
                        02/01 Q1011 R01/29//94=
201901021730 METAR LRSM 021730Z AUTO 29013KT 9999 -SN FEW010/// BKN016///
                        OVC024/// 01/01 Q1012=
201901021800 METAR LRSM 021800Z AUTO 33013KT 9999 -SN FEW014/// SCT017///
                        BKN055/// 01/00 Q1012=
201901021830 METAR LRSM 021830Z AUTO 33012KT 9999 -SN BKN075/// 01/00
                        Q1012=
201901021900 METAR LRSM 021900Z AUTO 33012KT 9999 -SN BKN055/// BKN085///
                        01/M01 Q1012=
201901021930 METAR LRSM 021930Z AUTO 34010KT 9999 -SN SCT055/// BKN080///
                        01/M01 Q1013=
201901022000 METAR LRSM 022000Z AUTO 34010KT 9999 -SN FEW046/// BKN085///
                        BKN100/// 01/M01 Q1013=
201901022030 METAR LRSM 022030Z AUTO 33011KT 9999 -SN FEW055/// SCT085///
                        BKN120/// 00/M01 Q1013=
201901022100 METAR LRSM 022100Z AUTO 33010KT 9999 -SN FEW055/// SCT120///
                        00/M01 Q1013=
201901022130 METAR LRSM 022130Z AUTO 33012KT 9999 -SN NCD 00/M01 Q1014=
201901022200 METAR LRSM 022200Z AUTO 33012KT 9999 -SN BKN160/// 00/M02
                        Q1014=
201901022230 METAR LRSM 022230Z AUTO 33013KT 9999 -SN FEW060/// 00/M02
                        Q1014=
201901022300 METAR LRSM 022300Z AUTO 34014KT 9999 -SN FEW170/// 00/M03
                        Q1014=
201901022330 METAR LRSM 022330Z AUTO 34013KT 9999 -SN FEW110/// BKN160///
                        00/M03 Q1014=
201901030000 METAR LRSM 030000Z AUTO 34014KT 9999 -SN SCT075/// BKN100///
                        00/M03 Q1015=
201901030030 METAR LRSM 030030Z AUTO 34014KT 9999 -SN BKN085/// OVC100///
                        00/M03 Q1015=
201901030100 METAR LRSM 030100Z AUTO 34012KT 9999 -SN SCT090/// OVC100///
                        00/M03 Q1015=
201901030130 METAR LRSM 030130Z AUTO 34012KT 9999 -SN BKN060/// OVC075///
                        00/M04 Q1016=
201901030200 METAR LRSM 030200Z AUTO 34014KT 9999 -SN OVC060/// M00/M03
                        Q1015=
201901030230 METAR LRSM 030230Z AUTO 33014KT 9999 -SN BKN060/// OVC075///
                        M00/M04 Q1015=
201901030300 METAR LRSM 030300Z AUTO 33014KT 9999 -SN FEW070/// BKN120///
                        M00/M04 Q1016=
201901030330 METAR LRSM 030330Z 33014KT CAVOK M01/M04 Q1016 R01/29//94=
201901030400 METAR LRSM 030400Z 33014KT CAVOK M00/M05 Q1016 R01/710195=
201901030430 METAR LRSM 030430Z 32012KT CAVOK M01/M05 Q1016 R01/710195=
201901030500 METAR LRSM 030500Z 33013KT CAVOK M01/M05 Q1016 R01/710195=
201901030530 METAR LRSM 030530Z 33014KT CAVOK M01/M05 Q1017 R01/710195=
201901030600 METAR LRSM 030600Z 33014KT 9999 SCT046 M01/M05 Q1017 R01/710195=
201901030630 METAR LRSM 030630Z 33015KT 9999 SCT046 M01/M05 Q1017 R01/710195=
201901030700 METAR LRSM 030700Z 34013KT 9999 FEW046 M01/M05 Q1017 R01/710195=
201901030730 METAR LRSM 030730Z 34013KT CAVOK M01/M05 Q1018 R01/710195=
201901030800 METAR LRSM 030800Z 33014KT CAVOK M01/M05 Q1018 R01/710195=
201901030830 METAR LRSM 030830Z 33014KT CAVOK M01/M06 Q1018 R01/710195=
201901030900 METAR LRSM 030900Z 34016KT CAVOK M01/M06 Q1018 R01/710195=
201901030930 METAR LRSM 030930Z 33014KT CAVOK M01/M05 Q1018 R01/710195=
201901031000 METAR LRSM 031000Z 33014KT CAVOK M00/M06 Q1018 R01/710195=
201901031030 METAR LRSM 031030Z 35014KT CAVOK M00/M07 Q1018 R01/710195=
201901031100 METAR LRSM 031100Z 35013KT CAVOK M00/M07 Q1018 R01/710195=
201901031130 METAR LRSM 031130Z 34014KT 9999 FEW035 M00/M07 Q1018 R01/710195=
201901031200 METAR LRSM 031200Z 34013KT 9999 FEW035 M00/M07 Q1018 R01/710195=
201901031230 METAR LRSM 031230Z 35014KT 9999 FEW036 M00/M07 Q1019 R01/710195=
201901031300 METAR LRSM 031300Z 34014KT 9999 FEW040 M00/M07 Q1019 R01/710195=
201901031330 METAR LRSM 031330Z 33014KT 9999 FEW040 M00/M07 Q1019 R01/710195=
201901031400 METAR LRSM 031400Z 35014KT 9999 FEW035 M01/M07 Q1019 R01/710195=
201901031430 METAR LRSM 031430Z 34011KT 9999 SCT035 M01/M07 Q1019 R01/710195=
201901031500 METAR LRSM 031500Z 35010KT 9999 SCT040 M02/M07 Q1019 R01/710195=
201901031530 METAR LRSM 031530Z 33008KT CAVOK M02/M07 Q1020 R01/710195=
201901031600 METAR LRSM 031600Z 33006KT CAVOK M02/M07 Q1020 R01/710195=
201901031630 METAR LRSM 031630Z 33006KT CAVOK M03/M07 Q1020 R01/710195=
201901031700 METAR LRSM 031700Z 33006KT CAVOK M03/M07 Q1020 R01/710195=
201901031730 METAR LRSM 031730Z AUTO 33005KT 9999 -SN NCD M04/M07 Q1020=
201901031800 METAR LRSM 031800Z AUTO 33006KT 9999 -SN FEW060/// M04/M07
                        Q1020=
201901031830 METAR LRSM 031830Z AUTO 32004KT 9000 -SN SCT060/// M04/M07
                        Q1020=
201901031900 METAR LRSM 031900Z AUTO 32005KT 9999 -SN FEW065/// M05/M07
                        Q1020=
201901031930 METAR LRSM 031930Z AUTO 33004KT 9999 -SN NCD M05/M07 Q1021=
201901032000 METAR LRSM 032000Z AUTO 34005KT 9999 -SN NCD M05/M07 Q1021=
201901032030 METAR LRSM 032030Z AUTO 34005KT 9999 -SN NCD M05/M07 Q1021=
201901032100 METAR LRSM 032100Z AUTO 35006KT 9999 -SN NCD M05/M07 Q1021=
201901032130 METAR LRSM 032130Z AUTO VRB02KT 9999 -SN FEW070/// M06/M08
                        Q1022=
201901032200 METAR LRSM 032200Z AUTO VRB01KT 9999 -SN NCD M06/M08 Q1022=
201901032230 METAR LRSM 032230Z AUTO 01002KT 340V060 9999 -SN NCD M05/M07
                        Q1022=
201901032300 METAR LRSM 032300Z AUTO VRB01KT 9999 -SN NCD M06/M08 Q1022=
201901032330 METAR LRSM 032330Z AUTO 27002KT 230V340 9999 -SN SCT110///
                        M06/M07 Q1022=
201901040000 METAR LRSM 040000Z AUTO 29003KT 240V020 9999 -SN FEW070///
                        BKN100/// M06/M07 Q1022=
201901040030 METAR LRSM 040030Z AUTO 30004KT 9999 -SN FEW070/// BKN100///
                        M06/M07 Q1022=
201901040100 METAR LRSM 040100Z AUTO 29004KT 9999 -SN NCD M07/M07 Q1022=
201901040130 METAR LRSM 040130Z AUTO VRB02KT 9999 -SN NCD M07/M08 Q1022=
201901040200 METAR LRSM 040200Z AUTO 17003KT 8000 -SN NCD M07/M07 Q1023=
201901040230 METAR LRSM 040230Z AUTO 19003KT 9999 -SN FEW009/// SCT011///
                        BKN100/// M07/M07 Q1023=
201901040300 METAR LRSM 040300Z AUTO 16003KT 9000 -SN FEW009/// BKN100///
                        M06/M06 Q1023=
201901040330 METAR LRSM 040330Z 17003KT CAVOK M06/M07 Q1023 R01/710195=
201901040400 METAR LRSM 040400Z 18004KT CAVOK M06/M07 Q1023 R01/CLRD//=
201901040430 METAR LRSM 040430Z 20002KT CAVOK M05/M06 Q1023=
201901040500 METAR LRSM 040500Z 22002KT CAVOK M05/M06 Q1023=
201901040530 METAR LRSM 040530Z 22002KT CAVOK M05/M06 Q1023=
201901040600 METAR LRSM 040600Z 23002KT CAVOK M05/M05 Q1024=
201901040630 METAR LRSM 040630Z 24003KT CAVOK M05/M05 Q1024=
201901040700 METAR LRSM 040700Z 25003KT CAVOK M04/M05 Q1024=
201901040730 METAR LRSM 040730Z 33002KT CAVOK M04/M05 Q1025=
201901040800 METAR LRSM 040800Z 36003KT 330V030 CAVOK M04/M05 Q1025=
201901040830 METAR LRSM 040830Z VRB02KT CAVOK M04/M05 Q1025=
201901040900 METAR LRSM 040900Z 00000KT 9000 -SN NSC M03/M05 Q1025=
201901040930 METAR LRSM 040930Z 00000KT 9000 -SN NSC M03/M05 Q1025=
201901041000 METAR LRSM 041000Z 00000KT 9000 -SN NSC M03/M05 Q1025=
201901041030 METAR LRSM 041030Z VRB01KT 9999 SCT040 M02/M05 Q1025=
201901041100 METAR LRSM 041100Z 01003KT 320V050 9999 SCT040 M02/M05 Q1025=
201901041130 METAR LRSM 041130Z 35008KT 9999 FEW018 SCT045 M02/M06 Q1025=
201901041200 METAR LRSM 041200Z 34008KT 9999 FEW021 M02/M06 Q1025=
201901041230 METAR LRSM 041230Z 34008KT 310V010 9999 FEW021 M02/M06 Q1025=
201901041300 METAR LRSM 041300Z 33008KT 9999 SCT022 M02/M06 Q1025=
201901041330 METAR LRSM 041330Z 35008KT 9999 FEW025 M02/M07 Q1025=
201901041400 METAR LRSM 041400Z 34008KT CAVOK M02/M06 Q1026=
201901041430 METAR LRSM 041430Z 32006KT CAVOK M02/M07 Q1026=
201901041500 METAR LRSM 041500Z 32007KT CAVOK M02/M07 Q1026=
201901041530 METAR LRSM 041530Z 32005KT CAVOK M03/M07 Q1026=
201901041600 METAR LRSM 041600Z 30003KT CAVOK M03/M06 Q1026=
201901041630 METAR LRSM 041630Z 24003KT CAVOK M03/M06 Q1026=
201901041700 METAR LRSM 041700Z 25004KT CAVOK M04/M06 Q1026=
201901041730 METAR LRSM 041730Z AUTO 26004KT 9999 -SN FEW033/// BKN075///
                        M04/M06 Q1026=
201901041800 METAR LRSM 041800Z AUTO 26005KT 9999 -SN BKN075/// M04/M06
                        Q1025=
201901041830 METAR LRSM 041830Z AUTO 26004KT 9999 -SN BKN075/// M05/M07
                        Q1025=
201901041900 METAR LRSM 041900Z AUTO 24004KT 9999 -SN NCD M05/M07 Q1025=
201901041930 METAR LRSM 041930Z AUTO 24005KT 9999 -SN FEW036/// M05/M07
                        Q1025=
201901042000 METAR LRSM 042000Z AUTO 24005KT 9999 -SN SCT035/// M06/M07
                        Q1025=
201901042030 METAR LRSM 042030Z AUTO 25004KT 9999 -SN SCT030/// BKN070///
                        M06/M07 Q1025=
201901042100 METAR LRSM 042100Z AUTO 24003KT 9999 -SN FEW029/// BKN160///
                        M06/M07 Q1025=
201901042130 METAR LRSM 042130Z AUTO 19003KT 9999 -SN FEW026/// BKN160///
                        M06/M07 Q1025=
201901042200 METAR LRSM 042200Z AUTO 18003KT 9999 -SN FEW027/// M06/M07
                        Q1025=
201901042230 METAR LRSM 042230Z AUTO 18004KT 9999 -SN NCD M06/M07 Q1025=
201901042300 METAR LRSM 042300Z AUTO 19005KT 9999 -SN FEW130/// M07/M08
                        Q1024=
201901042330 METAR LRSM 042330Z AUTO 19005KT 9999 -SN NCD M07/M08 Q1024=
201901050000 METAR LRSM 050000Z AUTO 19005KT 9999 -SN NCD M07/M08 Q1024=
201901050030 METAR LRSM 050030Z AUTO 20004KT 9999 -SN NCD M07/M09 Q1024=
201901050100 METAR LRSM 050100Z AUTO 17002KT 9999 -SN FEW036/// M07/M08
                        Q1024=
201901050130 METAR LRSM 050130Z AUTO 00000KT 9999 -SN FEW042/// BKN080///
                        M07/M08 Q1023=
201901050200 METAR LRSM 050200Z AUTO 19003KT 9999 -SN SCT031/// OVC042///
                        M06/M07 Q1023=
201901050230 METAR LRSM 050230Z AUTO 20005KT 9999 -SN OVC032/// M05/M06
                        Q1023=
201901050300 METAR LRSM 050300Z AUTO 20006KT 9999 -SN BKN031/// M05/M06
                        Q1022=
201901050330 METAR LRSM 050330Z AUTO 20007KT 9999 -SN BKN031/// OVC046///
                        M05/M07 Q1022=
201901050400 METAR LRSM 050400Z AUTO 19008KT 9999 -SN BKN032/// BKN100///
                        M05/M07 Q1021=
201901050430 METAR LRSM 050430Z AUTO 19007KT 9999 -SN SCT025/// BKN033///
                        M05/M07 Q1021=
201901050500 METAR LRSM 050500Z 18007KT 9999 BKN026 M05/M07 Q1021=
201901050530 METAR LRSM 050530Z 20007KT 9999 BKN032 M05/M07 Q1021=
201901050600 METAR LRSM 050600Z 20008KT 9999 BKN031 M04/M07 Q1020=
201901050630 METAR LRSM 050630Z 21007KT 9999 FEW018 BKN031 M04/M07 Q1020=
201901050700 METAR LRSM 050700Z 20009KT 9999 OVC031 M04/M07 Q1020=
201901050730 METAR LRSM 050730Z 18009KT 7000 -SN OVC037 M04/M07 Q1019=
201901050800 METAR LRSM 050800Z 18009KT 8000 -SN OVC029 M04/M06 Q1019=
201901050830 METAR LRSM 050830Z 19010KT 7000 BKN034 M03/M06 Q1019=
201901050900 METAR LRSM 050900Z 18009KT 9999 BKN032 M03/M06 Q1018=
201901050930 METAR LRSM 050930Z 19010KT 9999 -SN BKN032 M03/M06 Q1018=
201901051000 METAR LRSM 051000Z 18009KT 5000 -SN BR BKN030 M03/M06 Q1017=
201901051030 METAR LRSM 051030Z 18008KT 2500 -SN BR BKN010 OVC029 M03/M05
                        Q1017 R01/49//94=
201901051100 METAR LRSM 051100Z 17010KT 7000 -SN SCT012 OVC029 M03/M05
                        Q1016 R01/49//94=
201901051130 METAR LRSM 051130Z 17011KT 4000 -SN BR OVC028 M03/M06 Q1015
                        R01/490294=
201901051200 METAR LRSM 051200Z 18011KT 4000 -SN BR OVC028 M03/M06 Q1015
                        R01/490294=
201901051230 METAR LRSM 051230Z 17010KT 5000 -SN BR OVC026 M03/M06 Q1014
                        R01/490294=
201901051300 METAR LRSM 051300Z 17009KT 3000 -SN BR OVC030 M03/M06 Q1014
                        R01/490294=
201901051330 METAR LRSM 051330Z 17008KT 3000 -SN BR SCT020 OVC032 M03/M05
                        Q1014 R01/490294=
201901051400 METAR LRSM 051400Z 18007KT 3000 -SN BR SCT014 OVC030 M03/M05
                        Q1014 R01/490294=
201901051430 METAR LRSM 051430Z 19005KT 3000 -SN BR SCT012 OVC032 M03/M04
                        Q1014 R01/490294=
201901051500 METAR LRSM 051500Z 13002KT 2500 -SN BR SCT010 OVC030 M04/M04
                        Q1014 R01/490294=
201901051530 METAR LRSM 051530Z 14002KT 3500 -SN BR BKN010 OVC028 M04/M04
                        Q1014 R01/490294=
201901051600 METAR LRSM 051600Z 12003KT 8000 SCT013 OVC020 M04/M04 Q1014
                        R01/490294=
201901051630 METAR LRSM 051630Z 13004KT 9999 OVC019 M04/M04 Q1013 R01/490294=
201901051700 METAR LRSM 051700Z 12003KT 7000 OVC019 M04/M05 Q1013 R01/490294=
201901051730 METAR LRSM 051730Z AUTO 08004KT 2400 -SN OVC020/// M04/M04
                        Q1013=
201901051800 METAR LRSM 051800Z AUTO 10004KT 5000 -SN BKN020/// OVC024///
                        M04/M04 Q1013=
201901051830 METAR LRSM 051830Z AUTO 11004KT 3800 -SN BKN022/// OVC026///
                        M04/M04 Q1013=
201901051900 METAR LRSM 051900Z AUTO 12004KT 3400 -SN VV009 M04/M04 Q1013=
201901051930 METAR LRSM 051930Z AUTO 09004KT 2800 -SN BKN020/// OVC025///
                        M04/M04 Q1013=
201901052000 METAR LRSM 052000Z AUTO 09004KT 3000 -SN OVC021/// M04/M05
                        Q1013=
201901052030 METAR LRSM 052030Z AUTO 10004KT 4400 -SN FEW019/// BKN022///
                        M04/M04 Q1013=
201901052100 METAR LRSM 052100Z AUTO 12004KT 6000 -SN SCT015/// OVC018///
                        M04/M05 Q1013=
201901052130 METAR LRSM 052130Z AUTO 11003KT 6000 -SN OVC015/// M04/M04
                        Q1013=
201901052200 METAR LRSM 052200Z AUTO 12002KT 7000 -SN OVC013/// M04/M04
                        Q1013=
201901052230 METAR LRSM 052230Z AUTO 00000KT 6000 -SN OVC011/// M04/M04
                        Q1013=
201901052300 METAR LRSM 052300Z AUTO 00000KT 7000 -SN OVC011/// M04/M04
                        Q1013=
201901052330 METAR LRSM 052330Z AUTO 00000KT 6000 -SN BKN009/// BKN011///
                        M04/M04 Q1013=
201901060000 METAR LRSM 060000Z AUTO 00000KT 6000 -SN BKN008/// OVC010///
                        M04/M04 Q1013=
201901060030 METAR LRSM 060030Z AUTO 00000KT 6000 -SN FEW007/// BKN009///
                        M04/M04 Q1013=
201901060100 METAR LRSM 060100Z AUTO 00000KT 6000 -SN SCT006/// OVC008///
                        M04/M04 Q1013=
201901060130 METAR LRSM 060130Z AUTO 00000KT 6000 -SN FEW007/// BKN009///
                        BKN011/// M04/M04 Q1013=
201901060200 METAR LRSM 060200Z AUTO 18003KT 6000 -SN FEW003/// BKN014///
                        BKN017/// M04/M04 Q1013=
201901060230 METAR LRSM 060230Z AUTO 24003KT 210V270 6000 -SN FEW010///
                        BKN018/// M04/M04 Q1013=
201901060300 METAR LRSM 060300Z AUTO 26003KT 5000 -SN SCT006/// BKN010///
                        OVC016/// M04/M04 Q1013=
201901060330 METAR LRSM 060330Z AUTO 26003KT 6000 -SN FEW006/// SCT016///
                        BKN038/// M04/M04 Q1013=
201901060400 METAR LRSM 060400Z AUTO 27003KT 6000 -SN FEW009/// BKN055///
                        M05/M05 Q1013=
201901060430 METAR LRSM 060430Z AUTO 27002KT 6000 -SN FEW005/// BKN019///
                        BKN025/// M04/M05 Q1013=
201901060500 METAR LRSM 060500Z AUTO 30003KT 6000 -SN FEW014/// BKN017///
                        M04/M05 Q1013=
201901060530 METAR LRSM 060530Z AUTO 32005KT 5000 -SN BKN013/// M04/M04
                        Q1013=
201901060600 METAR LRSM 060600Z AUTO 31005KT 5000 -SN FEW006/// BKN012///
                        M04/M04 Q1013=
201901060630 METAR LRSM 060630Z AUTO 29004KT 3700 -SN FEW005/// SCT009///
                        BKN011/// M04/M04 Q1013=
201901060700 METAR LRSM 060700Z AUTO VRB01KT 3600 -SN OVC005/// M04/M04
                        Q1014=
201901060730 METAR LRSM 060730Z AUTO 29003KT 3900 -SN SCT005/// OVC007///
                        M04/M04 Q1014=
201901060800 METAR LRSM 060800Z AUTO 00000KT 3900 -SN BKN005/// OVC007///
                        M03/M04 Q1014=
201901060830 METAR LRSM 060830Z AUTO 00000KT 4200 -SN SCT005/// BKN007///
                        M03/M04 Q1015=
201901060900 METAR LRSM 060900Z AUTO 33004KT 280V350 4500 -SN BKN005///
                        BKN007/// M03/M03 Q1015=
201901060930 METAR LRSM 060930Z AUTO 33004KT 5000 -SN SCT005/// BKN060///
                        M03/M04 Q1015=
201901061000 METAR LRSM 061000Z AUTO 31005KT 5000 -SN FEW007/// BKN060///
                        M03/M03 Q1015=
201901061030 METAR LRSM 061030Z AUTO 33005KT 6000 -SN FEW007/// BKN055///
                        M02/M03 Q1015=
201901061100 METAR LRSM 061100Z AUTO 35007KT 7000 -SN BKN055/// M02/M04
                        Q1015=
201901061130 METAR LRSM 061130Z AUTO 01009KT 9000 -SN BKN055/// M02/M04
                        Q1015=
201901061200 METAR LRSM 061200Z AUTO 01014KT 9999 -SN FEW022/// BKN050///
                        M02/M07 Q1015=
201901061230 METAR LRSM 061230Z AUTO 02014KT 9999 -SHSN FEW043/// BKN050///
                        M02/M08 Q1015=
201901061300 METAR LRSM 061300Z AUTO 02015KT 9999 -SHSN BKN044/// OVC050///
                        M03/M09 Q1016=
201901061330 METAR LRSM 061330Z AUTO 02013KT 9999 -SN SCT043/// BKN055///
                        M03/M10 Q1016=
201901061400 METAR LRSM 061400Z AUTO 01013KT 9999 -SN BKN080/// M03/M09
                        Q1016=
201901061430 METAR LRSM 061430Z AUTO 01013KT 9999 -SN FEW055/// OVC085///
                        M03/M10 Q1017=
201901061500 METAR LRSM 061500Z AUTO 01013KT 9999 -SN BKN060/// BKN075///
                        M03/M10 Q1017=
201901061530 METAR LRSM 061530Z AUTO 36013KT 9999 -SN BKN065/// BKN085///
                        M04/M10 Q1017=
201901061600 METAR LRSM 061600Z AUTO 01013KT 9999 -SN BKN065/// M04/M10
                        Q1018=
201901061630 METAR LRSM 061630Z AUTO 36011KT 9999 -SN BKN075/// M04/M10
                        Q1018=
201901061700 METAR LRSM 061700Z AUTO 35011KT 9999 -SN SCT080/// BKN120///
                        M04/M09 Q1018=
201901061730 METAR LRSM 061730Z AUTO 35012KT 9999 -SN BKN120/// M05/M09
                        Q1019=
201901061800 METAR LRSM 061800Z AUTO 36013KT 9999 -SN SCT090/// BKN120///
                        M05/M10 Q1019=
201901061830 METAR LRSM 061830Z AUTO 36014KT 9999 -SN FEW065/// OVC080///
                        M05/M09 Q1019=
201901061900 METAR LRSM 061900Z AUTO 36014KT 9999 -SN SCT070/// BKN085///
                        M05/M09 Q1019=
201901061930 METAR LRSM 061930Z AUTO 35012KT 9999 -SN BKN075/// M05/M09
                        Q1020=
201901062000 METAR LRSM 062000Z AUTO 35011KT 9999 -SN BKN075/// BKN100///
                        M05/M09 Q1020=
201901062030 METAR LRSM 062030Z AUTO 35010KT 9999 -SN SCT070/// OVC085///
                        M05/M09 Q1020=
201901062100 METAR LRSM 062100Z AUTO 35013KT 9999 -SN FEW075/// BKN100///
                        M05/M09 Q1020=
201901062130 METAR LRSM 062130Z AUTO 35013KT 9999 -SN BKN100/// M05/M09
                        Q1021=
201901062200 METAR LRSM 062200Z AUTO 35013KT 9999 -SN SCT100/// M06/M10
                        Q1021=
201901062230 METAR LRSM 062230Z AUTO 35010KT 9999 -SN FEW085/// SCT100///
                        BKN150/// M06/M10 Q1021=
201901062300 METAR LRSM 062300Z AUTO 34009KT 9999 -SN SCT085/// BKN100///
                        M07/M10 Q1021=
201901062330 METAR LRSM 062330Z AUTO 34007KT 9999 -SN FEW085/// M07/M11
                        Q1021=
201901070000 METAR LRSM 070000Z AUTO 22003KT 190V270 9999 -SN BKN075///
                        M08/M11 Q1022=
201901070030 METAR LRSM 070030Z AUTO VRB01KT 9999 -SN OVC070/// M06/M10
                        Q1022=
201901070100 METAR LRSM 070100Z AUTO 30002KT 260V340 9999 -SN OVC070///
                        M06/M10 Q1023=
201901070130 METAR LRSM 070130Z AUTO 28002KT 260V360 9999 -SN BKN075///
                        M06/M10 Q1023=
201901070200 METAR LRSM 070200Z AUTO 33004KT 300V360 9999 -SN OVC075///
                        M06/M09 Q1023=
201901070230 METAR LRSM 070230Z AUTO 35004KT 9999 -SN OVC080/// M06/M09
                        Q1023=
201901070300 METAR LRSM 070300Z AUTO 34004KT 9999 -SN OVC070/// M06/M09
                        Q1023=
201901070330 METAR LRSM 070330Z 35005KT CAVOK M05/M08 Q1023 R01/710195=
201901070400 METAR LRSM 070400Z 00000KT CAVOK M05/M08 Q1023 R01/710195=
201901070430 METAR LRSM 070430Z 00000KT CAVOK M05/M09 Q1024 R01/710195=
201901070500 METAR LRSM 070500Z VRB01KT CAVOK M06/M09 Q1024 R01/710195=
201901070530 METAR LRSM 070530Z VRB01KT CAVOK M06/M08 Q1024 R01/710195=
201901070600 METAR LRSM 070600Z 34003KT 300V020 CAVOK M06/M08 Q1024 R01/710195=
201901070630 METAR LRSM 070630Z 01007KT CAVOK M07/M10 Q1025 R01/710195=
201901070700 METAR LRSM 070700Z 34006KT CAVOK M07/M10 Q1025 R01/710195=
201901070730 METAR LRSM 070730Z 35007KT CAVOK M07/M10 Q1026 R01/710195=
201901070800 METAR LRSM 070800Z 33005KT 300V360 CAVOK M07/M10 Q1026 R01/710195=
201901070830 METAR LRSM 070830Z 29003KT 240V320 CAVOK M06/M10 Q1026 R01/710195=
201901070900 METAR LRSM 070900Z 33003KT 310V010 CAVOK M04/M09 Q1027 R01/710195=
201901070930 METAR LRSM 070930Z 34005KT CAVOK M04/M09 Q1027 R01/710195=
201901071000 METAR LRSM 071000Z 03006KT 350V050 CAVOK M03/M09 Q1027 R01/710195=
201901071030 METAR LRSM 071030Z 04005KT 360V060 CAVOK M03/M09 Q1027 R01/710195=
201901071100 METAR LRSM 071100Z 07003KT CAVOK M03/M08 Q1026 R01/710195=
201901071130 METAR LRSM 071130Z 04005KT CAVOK M02/M08 Q1026 R01/710195=
201901071200 METAR LRSM 071200Z 04005KT CAVOK M02/M08 Q1026 R01/710195=
201901071230 METAR LRSM 071230Z 03004KT 360V060 CAVOK M02/M08 Q1026 R01/710195=
201901071300 METAR LRSM 071300Z 06003KT CAVOK M02/M08 Q1026 R01/710195=
201901071330 METAR LRSM 071330Z VRB02KT CAVOK M02/M08 Q1027 R01/710195=
201901071400 METAR LRSM 071400Z 00000KT CAVOK M02/M08 Q1027 R01/710195=
201901071430 METAR LRSM 071430Z 00000KT CAVOK M03/M08 Q1027 R01/710195=
201901071500 METAR LRSM 071500Z 00000KT CAVOK M05/M09 Q1027 R01/710195=
201901071530 METAR LRSM 071530Z AUTO 23002KT 9999 -SN NCD M07/M09 Q1027=
201901071600 METAR LRSM 071600Z 22004KT CAVOK M08/M10 Q1027 R01/710195=
201901071630 METAR LRSM 071630Z 23004KT CAVOK M08/M10 Q1027 R01/710195=
201901071700 METAR LRSM 071700Z 24003KT 6000 NSC M09/M10 Q1027 R01/710195=
201901071730 METAR LRSM 071730Z AUTO 23004KT 5000 -SN NCD M10/M11 Q1027=
201901071800 METAR LRSM 071800Z AUTO 23004KT 5000 -SN NCD M10/M11 Q1027=
201901071830 METAR LRSM 071830Z AUTO 22005KT 6000 -SN NCD M10/M11 Q1027=
201901071900 METAR LRSM 071900Z AUTO 22006KT 6000 -SHSN NCD M10/M11 Q1027=
201901071930 METAR LRSM 071930Z AUTO 22004KT 7000 -SHSN NCD M11/M12 Q1027=
201901072000 METAR LRSM 072000Z AUTO 22005KT 7000 -SHSN NCD M11/M12 Q1027=
201901072030 METAR LRSM 072030Z AUTO 21006KT 6000 -SHSN NCD M12/M12 Q1027=
201901072100 METAR LRSM 072100Z AUTO 20006KT 7000 NCD M12/M13 Q1026 RESN=
201901072130 METAR LRSM 072130Z AUTO 21005KT 7000 NCD M12/M13 Q1026=
201901072200 METAR LRSM 072200Z AUTO 20007KT 7000 NCD M13/M14 Q1026=
201901072230 METAR LRSM 072230Z AUTO 21006KT 8000 NCD M12/M13 Q1026=
201901072300 METAR LRSM 072300Z AUTO 22004KT 8000 NCD M12/M13 Q1026=
201901072330 METAR LRSM 072330Z AUTO 20004KT 8000 NCD M13/M14 Q1026=
201901080000 METAR LRSM 080000Z AUTO 20003KT 7000 NCD M13/M14 Q1026=
201901080030 METAR LRSM 080030Z AUTO 17002KT 7000 NCD M13/M14 Q1025=
201901080100 METAR LRSM 080100Z AUTO 17002KT 9000 NCD M15/M16 Q1025=
201901080130 METAR LRSM 080130Z AUTO 11003KT 9999 NCD M15/M17 Q1025=
201901080200 METAR LRSM 080200Z AUTO 11003KT 9999 NCD M15/M17 Q1025=
201901080230 METAR LRSM 080230Z AUTO 12003KT 9999 NCD M15/M17 Q1024=
201901080300 METAR LRSM 080300Z AUTO 19003KT 9000 NCD M15/M16 Q1024=
201901080330 METAR LRSM 080330Z 19003KT CAVOK M15/M16 Q1024 R01/710195=
201901080400 METAR LRSM 080400Z 18002KT CAVOK M15/M16 Q1023 R01/710195=
201901080430 METAR LRSM 080430Z VRB01KT CAVOK M16/M17 Q1023 R01/710195=
201901080500 METAR LRSM 080500Z 12003KT CAVOK M16/M18 Q1023 R01/710195=
201901080530 METAR LRSM 080530Z 11003KT 9999 SCT041 M16/M17 Q1023 R01/710195=
201901080600 METAR LRSM 080600Z 09001KT 9999 BKN041 M15/M16 Q1023 R01/710195=
201901080630 METAR LRSM 080630Z VRB01KT 9999 OVC039 M13/M14 Q1022 R01/710195=
201901080700 METAR LRSM 080700Z 06002KT 9999 BKN039 M12/M13 Q1022 R01/710195=
201901080730 METAR LRSM 080730Z VRB02KT 9999 BKN039 M10/M11 Q1021 R01/710195=
201901080800 METAR LRSM 080800Z 07002KT 9000 -SN OVC039 M09/M10 Q1021
                        R01/710195=
201901080830 METAR LRSM 080830Z 08003KT 9000 -SN OVC039 M08/M09 Q1020
                        R01/710195=
201901080900 METAR LRSM 080900Z 11003KT 8000 -SN SCT020 OVC040 M07/M08
                        Q1020 R01/CLRD//=
201901080930 METAR LRSM 080930Z 13004KT 7000 -SN SCT016 OVC032 M06/M08
                        Q1019=
201901081000 METAR LRSM 081000Z 11004KT 7000 -SN SCT016 OVC032 M06/M08
                        Q1019=
201901081030 METAR LRSM 081030Z 13004KT 100V160 7000 -SN FEW016 OVC040
                        M05/M08 Q1018=
201901081100 METAR LRSM 081100Z 16004KT 9999 BKN040 M05/M09 Q1018=
201901081130 METAR LRSM 081130Z 14004KT 9999 FEW025 BKN039 M05/M08 Q1017=
201901081200 METAR LRSM 081200Z 13006KT 9999 BKN048 M05/M09 Q1016=
201901081230 METAR LRSM 081230Z 13005KT 9999 OVC047 M05/M09 Q1016=
201901081300 METAR LRSM 081300Z 12005KT 9999 OVC046 M04/M09 Q1015=
201901081330 METAR LRSM 081330Z 19006KT 120V240 9999 -SN OVC042 M04/M09
                        Q1015=
201901081400 METAR LRSM 081400Z 19008KT 9000 -SN OVC040 M05/M09 Q1014=
201901081430 METAR LRSM 081430Z 18007KT 9999 -SN OVC036 M05/M09 Q1014=
201901081500 METAR LRSM 081500Z 17009KT 6000 -SN BKN034 OVC043 M06/M09
                        Q1013=
201901081530 METAR LRSM 081530Z 16007KT 8000 -SN BKN034 OVC046 M06/M09
                        Q1013=
201901081600 METAR LRSM 081600Z 16005KT 7000 -SN SCT025 OVC044 M06/M08
                        Q1013=
201901081630 METAR LRSM 081630Z 15009KT 3500 SN BKN022 OVC035 M06/M08
                        Q1012=
201901081700 METAR LRSM 081700Z 15008KT 3500 SN BKN018 OVC026 M06/M07
                        Q1012=
201901081730 METAR LRSM 081730Z AUTO 15006KT 2800 -SN VV010 M06/M07 Q1011=
201901081800 METAR LRSM 081800Z AUTO 15006KT 2400 -SN VV010 M06/M07 Q1011=
201901081830 METAR LRSM 081830Z AUTO 14007KT 2800 -SN VV012 M06/M07 Q1011=
201901081900 METAR LRSM 081900Z AUTO 14007KT 3000 -SN VV012 M07/M07 Q1011=
201901081930 METAR LRSM 081930Z AUTO 14008KT 3800 -SN VV014 M07/M07 Q1010=
201901082000 METAR LRSM 082000Z AUTO 13008KT 3900 -SN SCT017/// OVC034///
                        M07/M08 Q1010=
201901082030 METAR LRSM 082030Z AUTO 14006KT 2800 -SN SCT016/// BKN028///
                        OVC037/// M07/M08 Q1009=
201901082100 METAR LRSM 082100Z AUTO 13007KT 7000 -SN FEW018/// BKN029///
                        OVC033/// M07/M08 Q1009=
201901082130 METAR LRSM 082130Z AUTO 14007KT 9999 -SHSN BKN024/// OVC028///
                        M06/M08 Q1009=
201901082200 METAR LRSM 082200Z AUTO 13008KT 9999 -SHSN OVC022/// M06/M08
                        Q1008=
201901082230 METAR LRSM 082230Z AUTO 13007KT 9000 -SHSN OVC020/// M06/M09
                        Q1008=
201901082300 METAR LRSM 082300Z AUTO 13006KT 5000 -SN BKN018/// OVC021///
                        M06/M08 Q1008=
201901082330 METAR LRSM 082330Z AUTO 14008KT 3600 -SN FEW017/// SCT022///
                        BKN027/// M06/M08 Q1007=
201901090000 METAR LRSM 090000Z AUTO 13006KT 7000 -SN BKN023/// OVC027///
                        M06/M08 Q1007=
201901090030 METAR LRSM 090030Z AUTO 13008KT 7000 -SHSN OVC020/// M06/M08
                        Q1007=
201901090100 METAR LRSM 090100Z AUTO 13006KT 5000 -SHSN BKN019/// OVC025///
                        M06/M08 Q1007=
201901090130 METAR LRSM 090130Z AUTO 14009KT 3200 -SN FEW015/// OVC024///
                        M06/M08 Q1006=
201901090200 METAR LRSM 090200Z AUTO 14008KT 4400 -SN BKN023/// OVC027///
                        M06/M07 Q1006=
201901090230 METAR LRSM 090230Z AUTO 13008KT 8000 SG FEW024/// SCT036///
                        BKN044/// M06/M08 Q1005=
201901090300 METAR LRSM 090300Z AUTO 14007KT 6000 -SN OVC021/// M06/M08
                        Q1005=
201901090330 METAR LRSM 090330Z 13007KT 5000 -SN BR OVC020 M06/M08 Q1005=
201901090400 METAR LRSM 090400Z 14010KT 6000 -SN OVC020 M06/M09 Q1005
                        R01/490394=
201901090430 METAR LRSM 090430Z 12008KT 3000 SN BR OVC020 M06/M08 Q1005
                        R01/490394=
201901090500 METAR LRSM 090500Z 13009KT 3000 SN BR OVC022 M06/M07 Q1005
                        R01/490394=
201901090530 METAR LRSM 090530Z 14009KT 3000 SN BR OVC020 M06/M07 Q1004
                        R01/490594=
201901090600 METAR LRSM 090600Z 13008KT 8000 -SN OVC018 M06/M07 Q1004
                        R01/490593=
201901090630 METAR COR LRSM 090630Z 13008KT 2500 -SN BR OVC017 M06/M07
                        Q1005 R01/490593=
201901090700 METAR LRSM 090700Z 13008KT 3000 -SG BR OVC016 M06/M07 Q1005
                        R01/490593=
201901090730 METAR LRSM 090730Z 13009KT 5000 -SG BR OVC017 M05/M07 Q1005
                        R01/490593=
201901090800 METAR LRSM 090800Z 13008KT 8000 -SG OVC016 M05/M07 Q1005
                        R01/490593=
201901090830 METAR LRSM 090830Z 13011KT 7000 -SG OVC016 M05/M07 Q1004
                        R01/490593=
201901090900 METAR LRSM 090900Z 14008KT 8000 -SG OVC016 M04/M07 Q1005
                        R01/490593=
201901090930 METAR LRSM 090930Z 14008KT 9999 OVC016 M04/M07 Q1005 R01/490593=
201901091000 METAR LRSM 091000Z 13008KT 9999 OVC015 M04/M07 Q1005 R01/490593=
201901091030 METAR LRSM 091030Z 13010KT 9999 OVC013 M04/M07 Q1004 R01/490593=
201901091100 METAR LRSM 091100Z 13008KT 9999 OVC012 M04/M07 Q1005 R01/490593=
201901091130 METAR LRSM 091130Z 13007KT 4500 BR OVC012 M03/M06 Q1005 R01/490593=
201901091200 METAR LRSM 091200Z 12006KT 5000 SG BR OVC013 M03/M06 Q1005
                        R01/490593=
201901091230 METAR LRSM 091230Z 12008KT 8000 -SG OVC012 M03/M06 Q1005
                        R01/490593=
201901091300 METAR LRSM 091300Z 11006KT 8000 -SG OVC012 M03/M05 Q1005
                        R01/490593=
201901091330 METAR LRSM 091330Z 14006KT 9999 -SG OVC011 M03/M05 Q1005
                        R01/490593=
201901091400 METAR LRSM 091400Z 12005KT 9999 -SG OVC011 M03/M05 Q1005
                        R01/450194=
201901091430 METAR LRSM 091430Z 12006KT 9999 -SG OVC010 M03/M05 Q1005
                        R01/450194=
201901091500 METAR LRSM 091500Z 11005KT 9999 OVC009 M03/M05 Q1005 R01/450194=
201901091530 METAR LRSM 091530Z 13004KT 9999 OVC009 M02/M05 Q1006 R01/450194=
201901091600 METAR LRSM 091600Z 12005KT 9999 OVC009 M02/M05 Q1006 R01/450194=
201901091630 METAR LRSM 091630Z 11004KT 9999 OVC009 M02/M05 Q1006 R01/450194=
201901091700 METAR LRSM 091700Z 12005KT 9999 OVC008 M02/M05 Q1006 R01/450194=
201901091730 METAR LRSM 091730Z AUTO 13004KT 9999 SCT008/// OVC010///
                        M02/M05 Q1006=
201901091800 METAR LRSM 091800Z AUTO 13004KT 9000 BKN008/// OVC010///
                        M02/M05 Q1006=
201901091830 METAR LRSM 091830Z AUTO 14004KT 9000 OVC008/// M02/M05 Q1007=
201901091900 METAR LRSM 091900Z AUTO 14005KT 8000 OVC007/// M02/M05 Q1007=
201901091930 METAR LRSM 091930Z AUTO 14003KT 9000 OVC007/// M02/M04 Q1007=
201901092000 METAR LRSM 092000Z AUTO 10003KT 7000 OVC006/// M02/M04 Q1007=
201901092030 METAR LRSM 092030Z AUTO 11003KT 7000 BKN005/// M02/M03 Q1007=
201901092100 METAR LRSM 092100Z AUTO 13002KT 8000 OVC006/// M01/M03 Q1008=
201901092130 METAR LRSM 092130Z AUTO 00000KT 6000 BKN005/// M01/M02 Q1008=
201901092200 METAR LRSM 092200Z AUTO 00000KT 7000 BKN004/// OVC006///
                        M01/M02 Q1008=
201901092230 METAR LRSM 092230Z AUTO 00000KT 6000 VV003 M01/M02 Q1008=
201901092300 METAR LRSM 092300Z AUTO 00000KT 5000 BR FEW001/// BKN003///
                        OVC005/// M01/M02 Q1008=
201901092330 METAR LRSM 092330Z AUTO 00000KT 6000 BKN004/// M01/M02 Q1008=
201901100000 METAR LRSM 100000Z AUTO 00000KT 6000 OVC006/// M01/M02 Q1008=
201901100030 METAR LRSM 100030Z AUTO 01004KT 7000 FEW004/// BKN006///
                        M01/M03 Q1008=
201901100100 METAR LRSM 100100Z AUTO 02003KT 8000 OVC004/// M02/M03 Q1008=
201901100130 METAR LRSM 100130Z AUTO 03002KT 8000 BKN005/// BKN007///
                        M02/M03 Q1008=
201901100200 METAR LRSM 100200Z AUTO 00000KT 8000 FEW006/// SCT012///
                        OVC031/// M02/M03 Q1008=
201901100230 METAR LRSM 100230Z AUTO 00000KT 6000 BKN030/// M02/M03 Q1008=
201901100300 METAR LRSM 100300Z AUTO 00000KT 6000 OVC030/// M03/M03 Q1008=
201901100330 METAR LRSM 100330Z VRB01KT 3000 BR FEW030 M04/M04 Q1008 R01/450194=
201901100400 METAR LRSM 100400Z 01005KT 3000 BR NSC M04/M04 Q1008 R01/450194=
201901100430 METAR LRSM 100430Z 36005KT 3000 BR FEW005 M04/M05 Q1008 R01/450194=
201901100500 METAR LRSM 100500Z 01006KT 1500 BR SCT001 BKN002 M03/M03
                        Q1008 R01/450194=
201901100530 METAR LRSM 100530Z 33005KT 0800 R19/0800D FZFG VV001 M03/M03
                        Q1009 R01/450194=
201901100600 METAR LRSM 100600Z 35004KT 1000 R19/1200N BR BKN001 OVC002
                        M03/M03 Q1009 R01/450194=
201901100630 METAR LRSM 100630Z 36003KT 0350 R19/0450N FZFG VV001 M03/M03
                        Q1009 R01/450194=
201901100700 METAR LRSM 100700Z 33005KT 0350 R19/0450N FZFG VV001 M03/M03
                        Q1010 R01/450194=
201901100730 METAR LRSM 100730Z VRB02KT 0250 R19/0325N FZFG VV001 M03/M03
                        Q1010 R01/450194=
201901100800 METAR LRSM 100800Z 00000KT 0300 R19/0375N FZFG VV001 M03/M03
                        Q1010 R01/450194=
201901100830 METAR LRSM 100830Z 00000KT 0550 R19/0800N FZFG BKN001 OVC003
                        M02/M02 Q1010 R01/450194=
201901100900 METAR LRSM 100900Z 03003KT 2500 BR BKN002 OVC004 M03/M03
                        Q1010 R01/450194=
201901100930 METAR LRSM 100930Z VRB01KT 2400 BR OVC002 M03/M03 Q1010 R01/450194=
201901101000 METAR LRSM 101000Z 00000KT 2800 BR BKN002 OVC004 M02/M02
                        Q1010 R01/450194=
201901101030 METAR LRSM 101030Z 00000KT 3000 BR SCT002 BKN004 M02/M02
                        Q1010 R01/450194=
201901101100 METAR LRSM 101100Z 00000KT 3700 BR BKN004 M02/M02 Q1010 R01/450194=
201901101130 METAR LRSM 101130Z 00000KT 4200 BR SCT004 M01/M02 Q1010 R01/450194=
201901101200 METAR LRSM 101200Z 00000KT 4200 BR SCT004 M01/M02 Q1010 R01/450194=
201901101230 METAR LRSM 101230Z 00000KT 3600 BR FEW004 M01/M03 Q1010 R01/450194=
201901101300 METAR LRSM 101300Z 00000KT 3800 BR NSC M01/M03 Q1009 R01/450194=
201901101330 METAR LRSM 101330Z 00000KT 4000 BR NSC M01/M04 Q1010 R01/450194=
201901101400 METAR LRSM 101400Z 00000KT 4000 BR NSC M03/M05 Q1010 R01/450194=
201901101430 METAR LRSM 101430Z 27004KT 3300 BR NSC M04/M06 Q1010 R01/CLRD//=
201901101500 METAR LRSM 101500Z 27002KT 2000 BR NSC M05/M06 Q1010=
201901101530 METAR LRSM 101530Z VRB02KT 0600 R19/0800N FZFG NSC M07/M07
                        Q1010=
201901101600 METAR LRSM 101600Z 21003KT 0200 R19/0225N FZFG NSC M08/M08
                        Q1010=
201901101630 METAR LRSM 101630Z 21004KT 0150 R19/0200N FZFG NSC M09/M09
                        Q1010=
201901101700 METAR LRSM 101700Z 21004KT 0150 R19/0175N FZFG FEW001 M09/M10
                        Q1010=
201901101730 METAR LRSM 101730Z AUTO 20004KT 0100 R19/0150N +SN OVC001///
                        M08/M08 Q1010=
201901101800 METAR LRSM 101800Z AUTO 22003KT 0150 R19/0175N +SN BKN001///
                        M06/M07 Q1011=
201901101830 METAR LRSM 101830Z AUTO 28003KT 0300 R19/0375N -SN OVC001///
                        M09/M09 Q1011=
201901101900 METAR LRSM 101900Z AUTO 27003KT 0250 R19/0275N -SN BKN001///
                        BKN003/// M08/M09 Q1011=
201901101930 METAR LRSM 101930Z AUTO 28003KT 0450 R19/0550N -SN VV001
                        M09/M09 Q1011=
201901102000 METAR LRSM 102000Z AUTO 27002KT 0250 R19/0275N -SN VV001
                        M08/M09 Q1011=
201901102030 METAR LRSM 102030Z AUTO 27002KT 240V300 0650 R19/0800N -SN
                        VV001 M09/M10 Q1011=
201901102100 METAR LRSM 102100Z AUTO 20003KT 170V240 0300 R19/0325V0450N
                        +SN VV001 M09/M09 Q1011=
201901102130 METAR LRSM 102130Z AUTO 28002KT 250V330 0250 R19/0300N -SN
                        VV001 M08/M08 Q1011=
201901102200 METAR LRSM 102200Z AUTO 26003KT 0300 R19/0350N -SN BKN001///
                        OVC003/// M08/M09 Q1011=
201901102230 METAR LRSM 102230Z AUTO 25003KT 0900 R19/0800V1400U -SN BKN002///
                        BKN085/// M08/M08 Q1011=
201901102300 METAR LRSM 102300Z AUTO 24003KT 2500 -SN FEW003/// BKN090///
                        M08/M08 Q1012=
201901102330 METAR LRSM 102330Z AUTO 24003KT 4000 -SN BKN090/// M07/M07
                        Q1012=
201901110000 METAR LRSM 110000Z AUTO 23002KT 210V280 4500 -SN BKN095///
                        M07/M07 Q1012=
201901110030 METAR LRSM 110030Z AUTO 21003KT 4900 -SN BKN095/// M07/M07
                        Q1012=
201901110100 METAR LRSM 110100Z AUTO 25002KT 5000 -SN BKN095/// M06/M07
                        Q1012=
201901110130 METAR LRSM 110130Z AUTO 24003KT 5000 -SN BKN095/// M07/M07
                        Q1012=
201901110200 METAR LRSM 110200Z AUTO 25003KT 5000 -SN BKN095/// M07/M07
                        Q1012=
201901110230 METAR LRSM 110230Z AUTO 20002KT 5000 -SN OVC095/// M07/M07
                        Q1012=
201901110300 METAR LRSM 110300Z AUTO 19003KT 5000 -SN FEW095/// BKN140///
                        M07/M08 Q1012=
201901110330 METAR LRSM 110330Z 22003KT 5000 BR NSC M07/M07 Q1012=
201901110400 METAR LRSM 110400Z 24003KT 5000 BR NSC M06/M07 Q1012=
201901110430 METAR LRSM 110430Z 24004KT 4000 BR NSC M06/M07 Q1013=
201901110500 METAR LRSM 110500Z 26003KT 4500 BR NSC M07/M07 Q1013=
201901110530 METAR LRSM 110530Z 26004KT 4500 BR NSC M06/M07 Q1013=
201901110600 METAR LRSM 110600Z 26004KT 3500 BR SCT018 M06/M07 Q1013=
201901110630 METAR LRSM 110630Z 25003KT 3000 -SN BR SCT018 OVC037 M06/M06
                        Q1014 R01/490294=
201901110700 METAR LRSM 110700Z 25004KT 1500 -SN BR BKN010 OVC025 M06/M06
                        Q1014 RESN R01/490294=
201901110730 METAR LRSM 110730Z 24004KT 1500 -SN BR BKN012 OVC030 M06/M06
                        Q1014 R01/490394=
201901110800 METAR LRSM 110800Z 24004KT 2500 -SN BR FEW014 OVC044 M05/M05
                        Q1015 R01/490394=
201901110830 METAR LRSM 110830Z 24003KT 3000 -SN BR OVC043 M05/M05 Q1015
                        R01/490394=
201901110900 METAR LRSM 110900Z 24004KT 2600 -SN BR SCT016 OVC044 M05/M05
                        Q1015 R01/490394=
201901110930 METAR LRSM 110930Z 24004KT 2500 -SN BR FEW016 OVC029 M04/M05
                        Q1015 R01/490394=
201901111000 METAR LRSM 111000Z 25003KT 210V270 2800 -SN BR OVC030 M04/M04
                        Q1015 R01/490394=
201901111030 METAR LRSM 111030Z VRB02KT 3000 -SN BR BKN030 M04/M04 Q1015
                        R01/490394=
201901111100 METAR LRSM 111100Z 00000KT 3000 -SN BR BKN030 M04/M04 Q1015
                        R01/490394=
201901111130 METAR LRSM 111130Z 23004KT 3600 -SN BR BKN034 M04/M04 Q1015
                        R01/490394=
201901111200 METAR LRSM 111200Z 25005KT 230V300 4500 -SN BR BKN033 M03/M04
                        Q1015 R01/490394=
201901111230 METAR LRSM 111230Z 25005KT 5000 -SN BR SCT047 M03/M04 Q1015
                        R01/490394=
201901111300 METAR LRSM 111300Z 26005KT 5000 BR SCT026 M03/M04 Q1016 R01/22//95=
201901111330 METAR LRSM 111330Z 27004KT 6000 OVC026 M03/M05 Q1016 R01/22//95=
201901111400 METAR LRSM 111400Z 26004KT 6000 -SN OVC026 M03/M05 Q1016
                        R01/22//95=
201901111430 METAR LRSM 111430Z 27005KT 5000 -SN BR OVC026 M03/M05 Q1016
                        R01/22//95=
201901111500 METAR LRSM 111500Z 27006KT 5000 -SN BR OVC026 M03/M05 Q1016
                        R01/22//95=
201901111530 METAR LRSM 111530Z 26006KT 5000 -SN BR OVC026 M03/M05 Q1017
                        R01/22//95=
201901111600 METAR LRSM 111600Z 25005KT 5000 -SN OVC027 M03/M05 Q1017
                        R01/450294=
201901111630 METAR LRSM 111630Z 26006KT 5000 -SN BR OVC029 M04/M05 Q1017
                        R01/450294=
201901111700 METAR LRSM 111700Z 25007KT 5000 -SN BR OVC030 M04/M05 Q1017
                        R01/450294=
201901111730 METAR LRSM 111730Z 25006KT 5000 -SN BR OVC028 M04/M05 Q1017
                        R01/450294=
201901111800 METAR LRSM 111800Z 24006KT 6000 -SN OVC028 M04/M06 Q1017
                        R01/450294=
201901111830 METAR LRSM 111830Z AUTO 25009KT 5000 -SN FEW035/// OVC065///
                        M04/M06 Q1017=
201901111900 METAR LRSM 111900Z AUTO 25009KT 5000 -SN BKN065/// M04/M06
                        Q1017=
201901111930 METAR LRSM 111930Z AUTO 25007KT 5000 -SN BKN065/// M06/M07
                        Q1018=
201901112000 METAR LRSM 112000Z AUTO 25008KT 4900 -SN SCT065/// M07/M09
                        Q1017=
201901112030 METAR LRSM 112030Z AUTO 26007KT 4300 -SN SCT065/// M09/M10
                        Q1018=
201901112100 METAR LRSM 112100Z AUTO 24004KT 3900 -SN FEW065/// M09/M09
                        Q1018=
201901112130 METAR LRSM 112130Z AUTO 19003KT 2500 -SN SCT041/// M10/M11
                        Q1018=
201901112200 METAR LRSM 112200Z AUTO 19005KT 4800 -SN BKN060/// M09/M09
                        Q1017=
201901112230 METAR LRSM 112230Z AUTO 20001KT 5000 -SN OVC055/// M07/M08
                        Q1018=
201901112300 METAR LRSM 112300Z AUTO 00000KT 4900 -SN BKN055/// M07/M08
                        Q1018=
201901112330 METAR LRSM 112330Z AUTO 14005KT 4700 -SN OVC060/// M07/M08
                        Q1017=
201901120000 METAR LRSM 120000Z AUTO 18004KT 5000 -SN BKN060/// M06/M07
                        Q1017=
201901120030 METAR LRSM 120030Z AUTO 19005KT 5000 -SN OVC055/// M05/M07
                        Q1016=
201901120100 METAR LRSM 120100Z AUTO 18006KT 6000 -SN BKN055/// M05/M08
                        Q1016=
201901120130 METAR LRSM 120130Z AUTO 19005KT 6000 -SN BKN055/// BKN150///
                        M06/M08 Q1016=
201901120200 METAR LRSM 120200Z AUTO 19006KT 6000 -SN BKN150/// M06/M08
                        Q1016=
201901120230 METAR LRSM 120230Z AUTO 21006KT 5000 -SN OVC140/// M06/M08
                        Q1015=
201901120300 METAR LRSM 120300Z AUTO 20005KT 6000 -SN BKN120/// BKN140///
                        M06/M07 Q1015=
201901120330 METAR LRSM 120330Z AUTO 21006KT 6000 -SN BKN120/// M05/M07
                        Q1015=
201901120400 METAR LRSM 120400Z AUTO 21006KT 6000 -SN FEW037/// BKN110///
                        M05/M07 Q1014=
201901120430 METAR LRSM 120430Z AUTO 23008KT 6000 -SN BKN030/// BKN037///
                        M03/M06 Q1014=
201901120500 METAR LRSM 120500Z 23007KT 9999 -SN OVC028 M03/M06 Q1014
                        R01/450294=
201901120530 METAR LRSM 120530Z 22005KT 9999 -SN OVC030 M03/M06 Q1014
                        R01/450294=
201901120600 METAR LRSM 120600Z 22005KT 9999 -SN OVC033 M03/M06 Q1014
                        R01/450294=
201901120630 METAR LRSM 120630Z 23009KT 7000 -SN SCT020 OVC031 M03/M05
                        Q1014 R01/450294=
201901120700 METAR LRSM 120700Z 23009KT 3300 -SN BR FEW016 OVC022 M03/M04
                        Q1015 R01/450294=
201901120730 METAR LRSM 120730Z 25008KT 3300 -SN BR SCT010 OVC016 M03/M04
                        Q1015 R01/450294=
201901120800 METAR LRSM 120800Z 25012KT 4000 -SN BR SCT010 OVC023 M03/M04
                        Q1015 R01/450294=
201901120830 METAR LRSM 120830Z 24011KT 3000 -SN BR FEW007 OVC021 M03/M04
                        Q1015 R01/450294=
201901120900 METAR LRSM 120900Z 24010KT 5000 -SN BR FEW009 OVC024 M03/M04
                        Q1015 RESN R01/450294=
201901120930 METAR LRSM 120930Z 24011KT 5000 -SN BR FEW009 OVC022 M03/M04
                        Q1015 R01/450294=
201901121000 METAR LRSM 121000Z 24009KT 8000 -SN FEW008 OVC020 M03/M04
                        Q1015 R01/450294=
201901121030 METAR LRSM 121030Z 25008KT 7000 -SG BKN009 OVC015 M03/M04
                        Q1015 R01/450294=
201901121100 METAR LRSM 121100Z 25006KT 7000 -SG FEW009 OVC015 M03/M04
                        Q1014 R01/450294=
201901121130 METAR LRSM 121130Z 26007KT 7000 -SG OVC015 M03/M04 Q1014
                        R01/450294=
201901121200 METAR LRSM 121200Z 25005KT 6000 -SG SCT010 OVC015 M03/M04
                        Q1014 R01/450294=
201901121230 METAR LRSM 121230Z 24004KT 7000 -SG SCT008 OVC012 M02/M03
                        Q1014 R01/450294=
201901121300 METAR LRSM 121300Z 25006KT 9999 BKN008 OVC015 M02/M03 Q1014
                        R01/450294=
201901121330 METAR LRSM 121330Z 25005KT 9999 BKN010 OVC015 M02/M03 Q1014
                        R01/450294=
201901121400 METAR LRSM 121400Z 25005KT 9999 BKN010 OVC015 M02/M03 Q1014
                        R01/450294=
201901121430 METAR LRSM 121430Z 24003KT 9999 OVC010 M02/M03 Q1014 R01/550294=
201901121500 METAR LRSM 121500Z 26003KT 9999 OVC010 M02/M03 Q1014 R01/550294=
201901121530 METAR LRSM 121530Z 25003KT 9999 OVC010 M02/M03 Q1014 R01/550294=
201901121600 METAR LRSM 121600Z 22001KT 9999 OVC010 M02/M03 Q1014 R01/550294=
201901121630 METAR LRSM 121630Z 00000KT 9999 OVC010 M02/M03 Q1014 R01/550294=
201901121700 METAR LRSM 121700Z 18002KT 9999 OVC010 M02/M03 Q1014 R01/550294=
201901121730 METAR LRSM 121730Z AUTO 00000KT 6000 -SN BKN010/// M02/M03
                        Q1014=
201901121800 METAR LRSM 121800Z AUTO 00000KT 6000 -SN OVC011/// M02/M03
                        Q1014=
201901121830 METAR LRSM 121830Z AUTO 00000KT 6000 -SN BKN012/// M03/M03
                        Q1014=
201901121900 METAR LRSM 121900Z AUTO 00000KT 6000 -SN OVC011/// M02/M03
                        Q1014=
201901121930 METAR LRSM 121930Z AUTO 00000KT 5000 -SN OVC012/// M03/M03
                        Q1014=
201901122000 METAR LRSM 122000Z AUTO 00000KT 6000 -SN FEW013/// BKN020///
                        OVC044/// M03/M04 Q1014=
201901122030 METAR LRSM 122030Z AUTO 00000KT 6000 -SN SCT023/// BKN037///
                        OVC055/// M03/M04 Q1013=
201901122100 METAR LRSM 122100Z AUTO 00000KT 6000 -SN OVC022/// M03/M04
                        Q1013=
201901122130 METAR LRSM 122130Z AUTO 00000KT 6000 -SN OVC022/// M03/M04
                        Q1013=
201901122200 METAR LRSM 122200Z AUTO 15005KT 6000 -SN BKN022/// OVC048///
                        M03/M04 Q1012=
201901122230 METAR LRSM 122230Z AUTO 17004KT 5000 -SN OVC022/// M03/M04
                        Q1012=
201901122300 METAR LRSM 122300Z AUTO 17005KT 6000 -SN BKN021/// BKN050///
                        M03/M04 Q1012=
201901122330 METAR LRSM 122330Z AUTO 20004KT 6000 -SN BKN023/// BKN050///
                        M03/M04 Q1012=
201901130000 METAR LRSM 130000Z AUTO 20004KT 7000 -SN OVC024/// M03/M05
                        Q1012=
201901130030 METAR LRSM 130030Z AUTO 18003KT 6000 -SN OVC024/// M03/M04
                        Q1012=
201901130100 METAR LRSM 130100Z AUTO 17006KT 6000 -SN BKN021/// OVC025///
                        M03/M05 Q1011=
201901130130 METAR LRSM 130130Z AUTO 14006KT 6000 -SN OVC019/// M02/M05
                        Q1011=
201901130200 METAR LRSM 130200Z AUTO 11004KT 7000 -SN BKN017/// OVC020///
                        M02/M05 Q1010=
201901130230 METAR LRSM 130230Z AUTO 14006KT 6000 -SN OVC017/// M02/M05
                        Q1010=
201901130300 METAR LRSM 130300Z AUTO 14006KT 7000 -SN OVC017/// M02/M05
                        Q1009=
201901130330 METAR LRSM 130330Z AUTO 14007KT 6000 -SN OVC017/// M02/M05
                        Q1009=
201901130400 METAR LRSM 130400Z AUTO 14008KT 3300 -SN FEW016/// BKN019///
                        M03/M04 Q1009=
201901130430 METAR LRSM 130430Z AUTO 14006KT 5000 -SN BKN016/// OVC021///
                        M03/M03 Q1009=
201901130500 METAR LRSM 130500Z AUTO 14006KT 5000 -SN BKN015/// M03/M03
                        Q1009=
201901130530 METAR LRSM 130530Z AUTO 14005KT 2300 -SN SCT015/// BKN018///
                        M03/M03 Q1008=
201901130600 METAR LRSM 130600Z AUTO 14004KT 3200 -SN BKN015/// M03/M03
                        Q1008=
201901130630 METAR LRSM 130630Z AUTO 13004KT 2100 -SN OVC012/// M03/M03
                        Q1008=
201901130700 METAR LRSM 130700Z AUTO 12005KT 2100 -SN BKN012/// M02/M02
                        Q1008=
201901130730 METAR LRSM 130730Z AUTO 13006KT 5000 -SN BKN010/// OVC013///
                        M02/M02 Q1008=
201901130800 METAR LRSM 130800Z AUTO 13004KT 3700 -SN BKN011/// M02/M02
                        Q1008=
201901130830 METAR LRSM 130830Z AUTO 15005KT 1600 R19/1600N -SN OVC011///
                        M02/M02 Q1008=
201901130900 METAR LRSM 130900Z AUTO 14004KT 1700 R19/1500VP2000D -SN
                        BKN010/// M01/M01 Q1008=
201901130930 METAR LRSM 130930Z AUTO 15004KT 1400 R19/1500U -SN SCT008///
                        OVC010/// M01/M01 Q1008=
201901131000 METAR LRSM 131000Z AUTO 17006KT 2300 R19/1700VP2000U -SN
                        SCT006/// BKN008/// M01/M01 Q1007=
201901131030 METAR LRSM 131030Z AUTO 14004KT 3600 -SN BKN007/// OVC009///
                        M01/M01 Q1007=
201901131100 METAR LRSM 131100Z AUTO 16005KT 3200 -SN OVC010/// M01/M01
                        Q1006=
201901131130 METAR LRSM 131130Z AUTO 17007KT 1600 R19/1700D -SN BKN005///
                        OVC010/// M01/M01 Q1006=
201901131200 METAR LRSM 131200Z AUTO 17007KT 1700 R19/1500VP2000U -SN
                        FEW005/// BKN007/// OVC009/// M01/M01
                        Q1006=
201901131230 METAR LRSM 131230Z AUTO 17008KT 2000 R19/1700VP2000D -SN
                        SCT007/// OVC009/// M01/M01 Q1005=
201901131300 METAR LRSM 131300Z AUTO 18008KT 2700 -SN OVC008/// M01/M01
                        Q1005=
201901131330 METAR LRSM 131330Z AUTO 18008KT 3100 -SN BKN007/// OVC009///
                        M01/M01 Q1005=
201901131400 METAR LRSM 131400Z AUTO 19009KT 3500 -SN BKN007/// M01/M01
                        Q1005=
201901131430 METAR LRSM 131430Z AUTO 19008KT 2600 -SN OVC007/// M01/M01
                        Q1004=
201901131500 METAR LRSM 131500Z AUTO 19008KT 5000 -SN OVC007/// M00/M00
                        Q1004=
201901131530 METAR LRSM 131530Z AUTO 18008KT 7000 -SN OVC007/// M00/M01
                        Q1004=
201901131600 METAR LRSM 131600Z AUTO 19008KT 5000 -SN OVC006/// M00/M00
                        Q1004=
201901131630 METAR LRSM 131630Z AUTO 18008KT 3500 -SN OVC006/// M00/M00
                        Q1003=
201901131700 METAR LRSM 131700Z AUTO 18008KT 5000 -SN BKN007/// BKN009///
                        M00/M00 Q1003=
201901131730 METAR LRSM 131730Z AUTO 18008KT 5000 -SN BKN007/// BKN016///
                        M00/M00 Q1002=
201901131800 METAR LRSM 131800Z AUTO 18008KT 6000 -SN FEW008/// BKN018///
                        00/M00 Q1002=
201901131830 METAR LRSM 131830Z AUTO 19008KT 6000 -SN OVC018/// 00/M00
                        Q1001=
201901131900 METAR LRSM 131900Z AUTO 19008KT 6000 -SN BKN019/// OVC022///
                        00/M00 Q1001=
201901131930 METAR LRSM 131930Z AUTO 19007KT 6000 -SN BKN019/// M00/M01
                        Q1001=
201901132000 METAR LRSM 132000Z AUTO 19006KT 5000 -SN BKN016/// OVC020///
                        M00/M00 Q1000=
201901132030 METAR LRSM 132030Z AUTO 19006KT 5000 -SN BKN014/// 00/M00
                        Q0999=
201901132100 METAR LRSM 132100Z AUTO 19008KT 7000 -SN BKN014/// BKN017///
                        00/M01 Q0999=
201901132130 METAR LRSM 132130Z AUTO 19008KT 7000 -SN FEW016/// BKN028///
                        BKN036/// 00/M01 Q0998=
201901132200 METAR LRSM 132200Z AUTO 20007KT 5000 -SN FEW021/// BKN028///
                        BKN046/// M00/M01 Q0998=
201901132230 METAR LRSM 132230Z AUTO 21005KT 3100 -SN SCT014/// BKN018///
                        M01/M01 Q0998=
201901132300 METAR LRSM 132300Z AUTO 20006KT 3600 -SN FEW007/// BKN011///
                        OVC016/// M00/M00 Q0997=
201901132330 METAR LRSM 132330Z AUTO 19005KT 3800 -SN FEW003/// BKN010///
                        00/00 Q0996=
201901140000 METAR LRSM 140000Z AUTO 19009KT 4700 -SN FEW007/// SCT009///
                        BKN012/// 00/00 Q0995=
201901140030 METAR LRSM 140030Z AUTO 18013KT 5000 -SN FEW008/// SCT011///
                        BKN030/// 00/00 Q0994=
201901140100 METAR LRSM 140100Z AUTO 19013KT 5000 -SN FEW015/// SCT027///
                        BKN032/// 01/00 Q0994=
201901140130 METAR LRSM 140130Z AUTO 19013KT 3500 -SN FEW012/// BKN019///
                        BKN022/// 01/00 Q0993=
201901140200 METAR LRSM 140200Z AUTO 19011KT 3900 -SN SCT013/// BKN016///
                        OVC019/// 00/00 Q0993=
201901140230 METAR LRSM 140230Z AUTO 19010KT 2100 -SN FEW004/// SCT008///
                        OVC012/// 00/00 Q0992=
201901140300 METAR LRSM 140300Z AUTO 19010KT 2800 -SN SCT003/// BKN009///
                        OVC013/// 00/00 Q0991=
201901140330 METAR LRSM 140330Z 19009KT 2000 SN BR BKN004 OVC011 00/00
                        Q0991 R01///99//=
201901140400 METAR LRSM 140400Z 20008KT 2000 SN BR BKN003 OVC009 00/00
                        Q0991 R01///99//=
201901140430 METAR LRSM 140430Z 20006KT 2000 SN BR SCT002 BKN004 OVC008
                        00/00 Q0991 R01///99//=
201901140500 METAR COR LRSM 140500Z 23009KT 5000 -RASN BR BKN006 OVC012
                        01/01 Q0991 RESN R01///99//=
201901140530 METAR LRSM 140530Z 23010KT 4000 -RASN BR BKN007 OVC011 01/01
                        Q0991 R01///99//=
201901140600 METAR LRSM 140600Z 24010KT 8000 -RA OVC008 01/01 Q0991 R01///99//=
201901140630 METAR LRSM 140630Z 25012KT 9999 BKN008 OVC017 01/01 Q0991
                        R01/690593=
201901140700 METAR LRSM 140700Z 25012KT 9000 -RA SCT010 OVC017 01/01 Q0991
                        R01/690593=
201901140730 METAR LRSM 140730Z 25013KT 9000 -RA SCT015 OVC020 01/01 Q0992
                        R01/690593=
201901140800 METAR LRSM 140800Z 25014KT 9000 -RA SCT012 OVC022 02/01 Q0992
                        R01/690593=
201901140830 METAR LRSM 140830Z 26011KT 9000 FEW014 OVC021 02/01 Q0992
                        R01/690593=
201901140900 METAR LRSM 140900Z 25010KT 9000 -RA FEW014 OVC020 02/01 Q0992
                        R01/690593=
201901140930 METAR LRSM 140930Z 25011KT 9000 -RA SCT013 OVC024 02/01 Q0992
                        R01/690593=
201901141000 METAR LRSM 141000Z 25010KT 9000 -RA SCT015 OVC020 02/01 Q0992
                        R01/690593=
201901141030 METAR LRSM 141030Z 26010KT 8000 -RA BKN013 OVC020 02/01 Q0992
                        R01/690593=
201901141100 METAR LRSM 141100Z 26008KT 7000 -RASN FEW007 BKN013 OVC022
                        02/01 Q0992 R01/690593=
201901141130 METAR LRSM 141130Z 25009KT 5000 -RASN BR SCT013 BKN023 OVC031
                        01/01 Q0992 R01/29//94=
201901141200 METAR LRSM 141200Z 24008KT 9999 SCT027 BKN041 02/02 Q0992
                        R01/29//94=
201901141230 METAR LRSM 141230Z 25008KT 9999 SCT016 BKN048 02/01 Q0993
                        R01/29//94=
201901141300 METAR LRSM 141300Z 24007KT 9999 FEW016 SCT035 BKN049 02/02
                        Q0993 R01/29//94=
201901141330 METAR LRSM 141330Z 25009KT 9000 -RA SCT020 BKN033 OVC044
                        02/01 Q0994 R01/29//94=
201901141400 METAR LRSM 141400Z 28010KT 3500 -RA BR SCT013 OVC022 02/02
                        Q0995 R01/29//94=
201901141430 METAR LRSM 141430Z 29007KT 9999 -RA FEW013 BKN035 02/01 Q0995
                        R01/29//94=
201901141500 METAR LRSM 141500Z 29006KT 9999 FEW035 02/01 Q0995 R01/29//94=
201901141530 METAR LRSM 141530Z 30007KT CAVOK 01/01 Q0995 R01/29//94=
201901141600 METAR LRSM 141600Z 30007KT 9999 FEW023 BKN038 02/01 Q0996
                        R01/29//94=
201901141630 METAR LRSM 141630Z 32011KT 9999 -RASN SCT024 BKN033 02/M00
                        Q0997 R01/29//94=
201901141700 METAR LRSM 141700Z 33005KT 310V010 9999 FEW025 SCT033 02/00
                        Q0997 R01/29//94=
201901141730 METAR LRSM 141730Z AUTO 33009KT 9999 -SN OVC070/// 02/M03
                        Q0998=
201901141800 METAR LRSM 141800Z AUTO 31006KT 9999 -SN OVC070/// 01/M02
                        Q0998=
201901141830 METAR LRSM 141830Z AUTO 31006KT 8000 -SN OVC070/// 01/M02
                        Q0999=
201901141900 METAR LRSM 141900Z AUTO 31005KT 9000 -SN BKN070/// 01/M02
                        Q0999=
201901141930 METAR LRSM 141930Z AUTO 30006KT 9999 -SN FEW045/// BKN070///
                        01/M02 Q1000=
201901142000 METAR LRSM 142000Z AUTO 30006KT 270V330 9000 -SN FEW043///
                        BKN065/// 01/M02 Q1000=
201901142030 METAR LRSM 142030Z AUTO 35014KT 320V020 9999 -SN FEW036///
                        SCT050/// BKN070/// 01/M04 Q1001=
201901142100 METAR LRSM 142100Z AUTO 35014KT 9000 -SN FEW039/// BKN060///
                        01/M05 Q1001=
201901142130 METAR LRSM 142130Z AUTO 33013KT 9999 -SN OVC075/// 00/M06
                        Q1002=
201901142200 METAR LRSM 142200Z AUTO 33011KT 9999 -SN BKN085/// BKN100///
                        M00/M06 Q1002=
201901142230 METAR LRSM 142230Z AUTO 31008KT 9999 -SN FEW075/// BKN090///
                        M01/M05 Q1003=
201901142300 METAR LRSM 142300Z AUTO 32009KT 9999 -SN FEW045/// OVC080///
                        M01/M06 Q1004=
201901142330 METAR LRSM 142330Z AUTO 33010KT 9999 -SN BKN095/// OVC120///
                        M01/M06 Q1004=
201901150000 METAR LRSM 150000Z AUTO 33011KT 9999 -SN BKN070/// BKN085///
                        M01/M06 Q1005=
201901150030 METAR LRSM 150030Z AUTO 33011KT 9999 -SN BKN085/// M01/M06
                        Q1005=
201901150100 METAR LRSM 150100Z AUTO 32010KT 9999 -SN FEW090/// SCT100///
                        M02/M07 Q1006=
201901150130 METAR LRSM 150130Z AUTO 32009KT 9000 -SN NCD M03/M07 Q1006=
201901150200 METAR LRSM 150200Z AUTO 30007KT 9999 -SN NCD M05/M08 Q1006=
201901150230 METAR LRSM 150230Z AUTO 30008KT 9999 -SN NCD M05/M09 Q1007=
201901150300 METAR LRSM 150300Z AUTO 28007KT 9999 -SN NCD M06/M09 Q1007=
201901150330 METAR LRSM 150330Z 26007KT CAVOK M06/M09 Q1007 R01/710195=
201901150400 METAR LRSM 150400Z 25006KT CAVOK M07/M09 Q1008 R01/710195=
201901150430 METAR LRSM 150430Z 22006KT CAVOK M08/M10 Q1008 R01/710195=
201901150500 METAR LRSM 150500Z 24007KT CAVOK M07/M10 Q1008 R01/710195=
201901150530 METAR LRSM 150530Z 25008KT CAVOK M08/M10 Q1008 R01/710195=
201901150600 METAR LRSM 150600Z 25010KT CAVOK M06/M09 Q1009 R01/710195=
201901150630 METAR LRSM 150630Z 25008KT CAVOK M06/M08 Q1009 R01/710195=
201901150700 METAR LRSM 150700Z 25009KT CAVOK M05/M08 Q1009 R01/710195=
201901150730 METAR LRSM 150730Z 26009KT CAVOK M05/M08 Q1010 R01/710195=
201901150800 METAR LRSM 150800Z 26012KT CAVOK M05/M08 Q1010 R01/710195=
201901150830 METAR LRSM 150830Z 25011KT CAVOK M04/M07 Q1010 R01/710195=
201901150900 METAR LRSM 150900Z 25009KT CAVOK M04/M07 Q1011 R01/710195=
201901150930 METAR LRSM 150930Z 26009KT CAVOK M03/M07 Q1011 R01/710195=
201901151000 METAR LRSM 151000Z 25009KT CAVOK M03/M07 Q1011 R01/710195=
201901151030 METAR LRSM 151030Z 25008KT CAVOK M02/M06 Q1011 R01/710195=
201901151100 METAR LRSM 151100Z 24008KT CAVOK M01/M05 Q1011 R01/710195=
201901151130 METAR LRSM 151130Z 25009KT CAVOK M01/M06 Q1010 R01/710195=
201901151200 METAR LRSM 151200Z 25011KT CAVOK M01/M05 Q1010 R01/710195=
201901151230 METAR LRSM 151230Z 24011KT CAVOK M01/M06 Q1010 R01/710195=
201901151300 METAR LRSM 151300Z 26010KT CAVOK M01/M05 Q1010 R01/710195=
201901151330 METAR LRSM 151330Z 25011KT CAVOK M01/M05 Q1011 R01/21//95=
201901151400 METAR LRSM 151400Z 24009KT CAVOK M01/M05 Q1010 R01/21//95=
201901151430 METAR LRSM 151430Z 24011KT CAVOK M01/M05 Q1010 R01/21//95=
201901151500 METAR LRSM 151500Z 23012KT CAVOK M02/M06 Q1010 R01/21//95=
201901151530 METAR LRSM 151530Z 23011KT CAVOK M02/M06 Q1010 R01/710194=
201901151600 METAR LRSM 151600Z 22010KT CAVOK M02/M06 Q1010 R01/710194=
201901151630 METAR LRSM 151630Z 22009KT CAVOK M02/M06 Q1010 R01/710194=
201901151700 METAR LRSM 151700Z 22009KT CAVOK M01/M05 Q1010 R01/710194=
201901151730 METAR LRSM 151730Z AUTO 22009KT 9999 -SN BKN050/// M01/M04
                        Q1010=
201901151800 METAR LRSM 151800Z AUTO 23011KT 9999 -SN SCT045/// BKN055///
                        M00/M04 Q1010=
201901151830 METAR LRSM 151830Z AUTO 23012KT 8000 -SN FEW035/// OVC043///
                        M00/M04 Q1009=
201901151900 METAR LRSM 151900Z AUTO 24012KT 9999 -SN SCT021/// BKN047///
                        M00/M03 Q1009=
201901151930 METAR LRSM 151930Z AUTO 24012KT 9999 -SN FEW034/// BKN050///
                        M00/M03 Q1009=
201901152000 METAR LRSM 152000Z AUTO 25012KT 8000 -SN BKN031/// BKN044///
                        M00/M02 Q1009=
201901152030 METAR LRSM 152030Z AUTO 25014KT 9999 -SN FEW030/// SCT048///
                        BKN070/// M00/M02 Q1009=
201901152100 METAR LRSM 152100Z AUTO 25013KT 9999 -SN BKN048/// M01/M03
                        Q1009=
201901152130 METAR LRSM 152130Z AUTO 25013KT 9000 -SN BKN047/// M00/M02
                        Q1009=
201901152200 METAR LRSM 152200Z AUTO 25013KT 9999 -SN BKN049/// M00/M02
                        Q1009=
201901152230 METAR LRSM 152230Z AUTO 26012KT 9999 -SN OVC047/// M00/M02
                        Q1009=
201901152300 METAR LRSM 152300Z AUTO 25014KT 9999 -SN BKN050/// 00/M02
                        Q1008=
201901152330 METAR LRSM 152330Z AUTO 25013KT 9999 -SN BKN047/// 01/M02
                        Q1008=
201901160000 METAR LRSM 160000Z AUTO 24013KT 8000 -SN BKN050/// 01/M02
                        Q1008=
201901160030 METAR LRSM 160030Z AUTO 25014KT 9000 -SN SCT036/// OVC046///
                        01/M01 Q1008=
201901160100 METAR LRSM 160100Z AUTO 24014KT 5000 -SN FEW019/// SCT028///
                        OVC036/// 01/M00 Q1008=
201901160130 METAR LRSM 160130Z AUTO 25015KT 9999 -SN BKN026/// OVC030///
                        01/00 Q1007=
201901160200 METAR LRSM 160200Z AUTO 25016KT 5000 -SN BKN020/// OVC029///
                        01/00 Q1007=
201901160230 METAR LRSM 160230Z AUTO 25017KT 2900 -SN VV007 00/00 Q1007=
201901160300 METAR LRSM 160300Z AUTO 25016KT 8000 -SN FEW004/// BKN006///
                        BKN049/// 01/01 Q1007=
201901160330 METAR LRSM 160330Z 25016KT 9999 FEW025 OVC046 01/00 Q1007
                        R01/590294=
201901160400 METAR LRSM 160400Z 25014KT 9999 OVC048 01/00 Q1007 R01/590294=
201901160430 METAR LRSM 160430Z 26017KT 9999 OVC046 01/00 Q1007 R01/590294=
201901160500 METAR LRSM 160500Z 26017KT 9999 OVC046 01/00 Q1007 R01/590294=
201901160530 METAR LRSM 160530Z 26019KT 9999 OVC045 01/M00 Q1007 R01/590294=
201901160600 METAR LRSM 160600Z 26017KT 9999 OVC045 02/00 Q1008 R01/29//95=
201901160630 METAR LRSM 160630Z 26015KT 9999 OVC046 02/00 Q1008 R01/29//95=
201901160700 METAR LRSM 160700Z 26014KT 9999 BKN044 02/00 Q1009 R01/29//95=
201901160730 METAR LRSM 160730Z 27015KT 9999 OVC045 02/00 Q1009 R01/29//95=
201901160800 METAR LRSM 160800Z 27018KT CAVOK 02/00 Q1009 R01/29//95=
201901160830 METAR LRSM 160830Z 26013KT 9999 SCT040 02/00 Q1010 R01/29//95=
201901160900 METAR LRSM 160900Z 27012KT 9999 SCT038 02/00 Q1010 R01/29//95=
201901160930 METAR LRSM 160930Z 27012KT 9999 SCT037 02/00 Q1010 R01/29//95=
201901161000 METAR LRSM 161000Z 26009KT 9999 SCT040 02/00 Q1010 R01/29//95=
201901161030 METAR LRSM 161030Z 26012KT 9999 FEW040 02/00 Q1011 R01/29//95=
201901161100 METAR LRSM 161100Z 25013KT 9999 FEW040 02/00 Q1011 R01/29//95=
201901161130 METAR LRSM 161130Z 26012KT 9999 FEW044 02/00 Q1011 R01/29//95=
201901161200 METAR LRSM 161200Z 26011KT 9999 SCT048 02/01 Q1011 R01/29//95=
201901161230 METAR LRSM 161230Z 26012KT CAVOK 02/01 Q1011 R01/29//95=
201901161300 METAR LRSM 161300Z 26011KT CAVOK 02/01 Q1011 R01/29//95=
201901161330 METAR LRSM 161330Z 26011KT CAVOK 02/01 Q1012 R01/29//95=
201901161400 METAR LRSM 161400Z 26011KT CAVOK 02/01 Q1012 R01/29//95=
201901161430 METAR LRSM 161430Z 26010KT CAVOK 02/01 Q1012 R01/29//95=
201901161500 METAR LRSM 161500Z 25009KT CAVOK 02/01 Q1012 R01/29//95=
201901161530 METAR LRSM 161530Z 25007KT CAVOK 02/01 Q1013 R01/29//95=
201901161600 METAR LRSM 161600Z 25007KT CAVOK 02/00 Q1013 R01/29//95=
201901161630 METAR LRSM 161630Z 25005KT CAVOK 01/00 Q1013 R01/29//95=
201901161700 METAR LRSM 161700Z 25006KT CAVOK 01/00 Q1013 R01/29//95=
201901161730 METAR LRSM 161730Z AUTO 25007KT 9999 -SN BKN048/// BKN090///
                        02/00 Q1014=
201901161800 METAR LRSM 161800Z AUTO 20004KT 9000 -SN OVC048/// 01/00
                        Q1014=
201901161830 METAR LRSM 161830Z AUTO 20005KT 8000 -SN BKN050/// 02/00
                        Q1014=
201901161900 METAR LRSM 161900Z AUTO 20005KT 9999 -SN BKN050/// BKN170///
                        02/00 Q1014=
201901161930 METAR LRSM 161930Z AUTO 21006KT 9999 -SN OVC065/// 02/01
                        Q1014=
201901162000 METAR LRSM 162000Z AUTO 21005KT 8000 -SN BKN023/// OVC065///
                        02/01 Q1014=
201901162030 METAR LRSM 162030Z AUTO 22005KT 9000 -SN OVC024/// 03/01
                        Q1014=
201901162100 METAR LRSM 162100Z AUTO 20004KT 9000 -SN BKN024/// 02/01
                        Q1014=
201901162130 METAR LRSM 162130Z AUTO 17005KT 9000 -SN BKN026/// OVC060///
                        02/01 Q1014=
201901162200 METAR LRSM 162200Z AUTO 15004KT 9999 -SN FEW028/// OVC060///
                        02/01 Q1014=
201901162230 METAR LRSM 162230Z AUTO 16005KT 9000 -SN OVC050/// 02/01
                        Q1014=
201901162300 METAR LRSM 162300Z AUTO 16006KT 9000 -SN BKN050/// 02/01
                        Q1014=
201901162330 METAR LRSM 162330Z AUTO 16006KT 9999 -SN FEW160/// 02/00
                        Q1014=
201901170000 METAR LRSM 170000Z AUTO 16005KT 9999 -SN NCD 02/00 Q1014=
201901170030 METAR LRSM 170030Z AUTO 14004KT 8000 -SN FEW170/// 01/M00
                        Q1014=
201901170100 METAR LRSM 170100Z AUTO 13003KT 9999 -SN NCD 01/M00 Q1014=
201901170130 METAR LRSM 170130Z AUTO 11005KT 7000 -SN NCD M01/M01 Q1014=
201901170200 METAR LRSM 170200Z AUTO 11006KT 7000 -SN NCD M01/M01 Q1014=
201901170230 METAR LRSM 170230Z AUTO 13005KT 6000 -SN NCD M01/M02 Q1013=
201901170300 METAR LRSM 170300Z AUTO 13005KT 7000 -SN NCD M01/M02 Q1013=
201901170330 METAR LRSM 170330Z 12005KT 8000 NSC M01/M01 Q1013 R01/29//95=
201901170400 METAR LRSM 170400Z 12005KT 8000 NSC M01/M01 Q1013 R01/29//95=
201901170430 METAR LRSM 170430Z 11006KT CAVOK M01/M02 Q1013 R01/720195=
201901170500 METAR LRSM 170500Z 10005KT CAVOK M02/M02 Q1013 R01/720195=
201901170530 METAR LRSM 170530Z 13003KT CAVOK M01/M01 Q1013 R01/720195=
201901170600 METAR LRSM 170600Z 13004KT 9999 BKN040 M01/M01 Q1013 R01/720195=
201901170630 METAR LRSM 170630Z 12004KT 9999 OVC041 01/M00 Q1013 R01/720195=
201901170700 METAR LRSM 170700Z 12005KT 9999 OVC041 02/00 Q1013 R01/720195=
201901170730 METAR LRSM 170730Z 13004KT 9999 OVC042 03/00 Q1013 R01/720195=
201901170800 METAR LRSM 170800Z 11003KT 9999 OVC041 03/00 Q1013 R01/720195=
201901170830 METAR LRSM 170830Z 17002KT 9999 OVC041 03/00 Q1013 R01/720195=
201901170900 METAR LRSM 170900Z 18007KT 9999 OVC040 04/M00 Q1013 R01/720195=
201901170930 METAR LRSM 170930Z 18006KT 9999 OVC041 04/M01 Q1013 R01/720195=
201901171000 METAR LRSM 171000Z 19003KT 130V230 9999 OVC042 03/M00 Q1013
                        R01/720195=
201901171030 METAR LRSM 171030Z 21004KT 9999 OVC041 03/M00 Q1013 R01/720195=
201901171100 METAR LRSM 171100Z 19006KT 9999 OVC041 03/M00 Q1013 R01/720195=
201901171130 METAR LRSM 171130Z 18006KT 9999 OVC043 04/M00 Q1012 R01/720195=
201901171200 METAR LRSM 171200Z 19006KT 9999 BKN038 04/M00 Q1012 R01/720195=
201901171230 METAR LRSM 171230Z 19008KT 9999 OVC039 04/M00 Q1012 R01/720195=
201901171300 METAR LRSM 171300Z 19007KT 9999 OVC038 04/M00 Q1012 R01/720195=
201901171330 METAR LRSM 171330Z 19009KT 9999 OVC039 04/M00 Q1012 R01/720195=
201901171400 METAR LRSM 171400Z 19008KT 9999 BKN038 04/M00 Q1012 R01/720195=
201901171430 METAR LRSM 171430Z 19006KT 9999 BKN036 03/M00 Q1012 R01/720195=
201901171500 METAR LRSM 171500Z 19006KT 9999 BKN037 03/M00 Q1012 R01/720195=
201901171530 METAR LRSM 171530Z 18005KT 9999 BKN036 03/M00 Q1012 R01/720195=
201901171600 METAR LRSM 171600Z 15004KT 9999 SCT037 03/M01 Q1012 R01/720195=
201901171630 METAR LRSM 171630Z 11005KT 9999 BKN038 02/M01 Q1012 R01/22//95=
201901171700 METAR LRSM 171700Z 11005KT 9999 BKN039 02/M00 Q1012 R01/22//95=
201901171730 METAR LRSM 171730Z AUTO 12006KT 9000 -SN FEW039/// 02/M00
                        Q1012=
201901171800 METAR LRSM 171800Z AUTO 13005KT 9999 -SN FEW039/// 02/M01
                        Q1012=
201901171830 METAR LRSM 171830Z AUTO 12005KT 9000 -SN BKN040/// BKN048///
                        02/M00 Q1012=
201901171900 METAR LRSM 171900Z AUTO 12005KT 7000 -SN BKN039/// BKN046///
                        02/M00 Q1012=
201901171930 METAR LRSM 171930Z AUTO 13003KT 9999 -SN BKN039/// 03/00
                        Q1012=
201901172000 METAR LRSM 172000Z AUTO 13003KT 9999 -SN SCT039/// BKN044///
                        BKN085/// 02/M00 Q1012=
201901172030 METAR LRSM 172030Z AUTO 14003KT 9999 -SN SCT040/// BKN048///
                        03/M00 Q1012=
201901172100 METAR LRSM 172100Z AUTO 17002KT 9999 -SN SCT041/// BKN050///
                        03/M00 Q1011=
201901172130 METAR LRSM 172130Z AUTO 21004KT 9000 -SN FEW031/// BKN040///
                        03/M00 Q1012=
201901172200 METAR LRSM 172200Z AUTO 18008KT 9000 -SN FEW033/// BKN044///
                        03/01 Q1011=
201901172230 METAR LRSM 172230Z AUTO 20010KT 9999 -SN BKN048/// BKN085///
                        03/00 Q1011=
201901172300 METAR LRSM 172300Z AUTO 20008KT 9999 -SN BKN050/// 03/M00
                        Q1011=
201901172330 METAR LRSM 172330Z AUTO 20007KT 9000 -SN BKN048/// 03/00
                        Q1011=
201901180000 METAR LRSM 180000Z AUTO 20006KT 9999 -SN BKN048/// 03/00
                        Q1011=
201901180030 METAR LRSM 180030Z AUTO 21006KT 9999 -SN BKN048/// 03/M00
                        Q1011=
201901180100 METAR LRSM 180100Z AUTO 19007KT 8000 -SN FEW038/// SCT044///
                        BKN055/// 02/00 Q1011=
201901180130 METAR LRSM 180130Z AUTO 20008KT 9999 -SN FEW036/// BKN042///
                        BKN050/// 03/00 Q1011=
201901180200 METAR LRSM 180200Z AUTO 19008KT 9000 -SN FEW033/// SCT038///
                        BKN043/// 03/00 Q1010=
201901180230 METAR LRSM 180230Z AUTO 21009KT 9999 -SN BKN037/// 03/01
                        Q1010=
201901180300 METAR LRSM 180300Z AUTO 22009KT 9999 -SN BKN037/// 05/01
                        Q1010=
201901180330 METAR LRSM 180330Z 22010KT 9999 OVC033 05/01 Q1009 R01/22//95=
201901180400 METAR LRSM 180400Z 22010KT 9999 OVC033 05/01 Q1009 R01/22//95=
201901180430 METAR LRSM 180430Z 20008KT 9999 OVC033 03/01 Q1009 R01/22//95=
201901180500 METAR LRSM 180500Z 20009KT 9999 OVC032 03/01 Q1010 R01/22//95=
201901180530 METAR LRSM 180530Z 23009KT 9999 -RA OVC033 05/01 Q1010 R01/22//95=
201901180600 METAR LRSM 180600Z 25012KT 9999 -RA OVC026 05/01 Q1010 R01/22//95=
201901180630 METAR LRSM 180630Z 24010KT 9999 OVC024 04/01 Q1010 R01/29//95=
201901180700 METAR LRSM 180700Z 23010KT 9999 OVC021 05/01 Q1011 R01/29//95=
201901180730 METAR LRSM 180730Z 23011KT 9999 OVC020 05/01 Q1011 R01/29//95=
201901180800 METAR LRSM 180800Z 23011KT 9999 OVC020 04/01 Q1011 R01/29//95=
201901180830 METAR LRSM 180830Z 24011KT 9999 -RA SCT020 OVC036 04/01 Q1012
                        R01/29//95=
201901180900 METAR LRSM 180900Z 23008KT 9999 -RA FEW030 BKN043 04/01 Q1012
                        R01/29//95=
201901180930 METAR LRSM 180930Z 24007KT 9999 -RA FEW035 BKN046 04/01 Q1012
                        R01/29//95=
201901181000 METAR LRSM 181000Z 25009KT 9999 -RA SCT035 OVC046 04/02 Q1012
                        R01/29//95=
201901181030 METAR LRSM 181030Z 25010KT 9999 -RA SCT028 OVC041 03/02 Q1012
                        R01/29//95=
201901181100 METAR LRSM 181100Z 25009KT 9999 -RA SCT024 OVC035 03/03 Q1012
                        R01/29//95=
201901181130 METAR LRSM 181130Z 25009KT 9999 -RA SCT023 OVC035 03/03 Q1012
                        R01/29//95=
201901181200 METAR LRSM 181200Z 24008KT 9999 -RA SCT021 OVC033 03/03 Q1012
                        R01/29//95=
201901181230 METAR LRSM 181230Z 24008KT 9999 -RA SCT021 OVC035 03/03 Q1012
                        R01/29//95=
201901181300 METAR LRSM 181300Z 24007KT 220V280 9999 -RA SCT021 OVC032
                        03/03 Q1013 R01/29//95=
201901181330 METAR LRSM 181330Z 24007KT 9999 -RA FEW021 OVC030 03/03 Q1013
                        R01/29//95=
201901181400 METAR LRSM 181400Z 23008KT 9999 -RA OVC033 03/03 Q1013 R01/29//95=
201901181430 METAR LRSM 181430Z 23008KT 9999 BKN040 03/03 Q1013 R01/29//95=
201901181500 METAR LRSM 181500Z 21008KT 9999 BKN040 03/02 Q1013 R01/29//95=
201901181530 METAR LRSM 181530Z 23005KT 9999 BKN045 02/02 Q1014 R01/29//95=
201901181600 METAR LRSM 181600Z 35005KT 9999 BKN042 02/01 Q1014 R01/29//95=
201901181630 METAR LRSM 181630Z 29004KT 250V350 9999 -RA SCT025 OVC039
                        02/01 Q1014 R01/29//95=
201901181700 METAR LRSM 181700Z 29004KT 9999 -RA OVC020 02/02 Q1015 R01/29//95=
201901181730 METAR LRSM 181730Z AUTO 29005KT 7000 -SN SCT007/// BKN009///
                        BKN016/// 01/01 Q1015=
201901181800 METAR LRSM 181800Z AUTO 34008KT 7000 -SN SCT006/// OVC011///
                        01/01 Q1016=
201901181830 METAR LRSM 181830Z AUTO 34008KT 320V020 7000 -SN FEW011///
                        BKN017/// 01/01 Q1016=
201901181900 METAR LRSM 181900Z AUTO 34008KT 9000 -SN BKN025/// OVC029///
                        01/00 Q1017=
201901181930 METAR LRSM 181930Z AUTO 34008KT 9999 -SN SCT030/// BKN037///
                        01/00 Q1017=
201901182000 METAR LRSM 182000Z AUTO 36007KT 9000 -SN FEW038/// BKN055///
                        BKN080/// 01/M00 Q1017=
201901182030 METAR LRSM 182030Z AUTO 01005KT 9999 -SN BKN050/// 01/M00
                        Q1017=
201901182100 METAR LRSM 182100Z AUTO 34006KT 9999 -SN BKN060/// BKN080///
                        01/M00 Q1018=
201901182130 METAR LRSM 182130Z AUTO 34004KT 8000 -SN FEW065/// SCT085///
                        00/M00 Q1018=
201901182200 METAR LRSM 182200Z AUTO 31003KT 9000 -SN NCD M01/M01 Q1018=
201901182230 METAR LRSM 182230Z AUTO 28005KT 8000 -SN NCD M01/M01 Q1019=
201901182300 METAR LRSM 182300Z AUTO 27005KT 7000 -SN NCD M02/M02 Q1019=
201901182330 METAR LRSM 182330Z AUTO 26005KT 8000 -SN NCD M02/M02 Q1019=
201901190000 METAR LRSM 190000Z AUTO 27006KT 9000 -SN NCD M02/M02 Q1019=
201901190030 METAR LRSM 190030Z AUTO 28004KT 7000 -SN NCD M02/M02 Q1020=
201901190100 METAR LRSM 190100Z AUTO 29004KT 6000 -SN NCD M02/M02 Q1020=
201901190130 METAR LRSM 190130Z AUTO 24004KT 6000 -SN NCD M03/M03 Q1020=
201901190200 METAR LRSM 190200Z AUTO 25003KT 6000 -SN NCD M03/M03 Q1020=
201901190230 METAR LRSM 190230Z AUTO 33004KT 7000 -SN NCD M03/M03 Q1020=
201901190300 METAR LRSM 190300Z AUTO 27004KT 6000 -SN NCD M03/M03 Q1020=
201901190330 METAR LRSM 190330Z AUTO 28003KT 5000 -SN NCD M03/M03 Q1020=
201901190400 METAR LRSM 190400Z AUTO 20003KT 3800 -SN NCD M04/M04 Q1020=
201901190430 METAR LRSM 190430Z AUTO 23003KT 5000 -SN NCD M04/M04 Q1020=
201901190500 METAR LRSM 190500Z 29003KT 5000 BR NSC M04/M04 Q1020 R01/720194=
201901190530 METAR LRSM 190530Z 00000KT 4000 BR NSC M05/M05 Q1021 R01/720194=
201901190600 METAR LRSM 190600Z 12003KT 100V160 4000 BR NSC M05/M05 Q1021
                        R01/720194=
201901190630 METAR LRSM 190630Z 00000KT 3000 BR NSC M05/M06 Q1021 R01/720194=
201901190700 METAR LRSM 190700Z 10003KT 070V140 3000 BR BKN004 M05/M05
                        Q1021 R01/720194=
201901190730 METAR LRSM 190730Z 14005KT 120V190 3000 BR OVC003 M02/M02
                        Q1022 R01/720194=
201901190800 METAR LRSM 190800Z 00000KT 4000 BR SCT002 BKN004 M02/M02
                        Q1022 R01/720194=
201901190830 METAR LRSM 190830Z 00000KT 5000 BR FEW004 OVC006 M02/M02
                        Q1022 R01/720194=
201901190900 METAR LRSM 190900Z 21003KT 180V250 7000 OVC008 M01/M02 Q1022
                        R01/720194=
201901190930 METAR LRSM 190930Z VRB01KT 8000 BKN008 M01/M02 Q1022 R01/720194=
201901191000 METAR LRSM 191000Z 00000KT 9999 OVC008 M01/M02 Q1022 R01/720194=
201901191030 METAR LRSM 191030Z 16003KT 110V200 9999 OVC009 M01/M02 Q1022
                        R01/720194=
201901191100 METAR LRSM 191100Z 16004KT 130V190 9999 OVC009 M00/M02 Q1022
                        R01/720194=
201901191130 METAR LRSM 191130Z 10003KT 070V150 9999 OVC009 M00/M02 Q1021
                        R01/720194=
201901191200 METAR LRSM 191200Z 07003KT 040V100 9999 OVC010 00/M01 Q1021
                        R01/720194=
201901191230 METAR LRSM 191230Z 04006KT 9999 OVC013 00/M01 Q1021 R01/720194=
201901191300 METAR LRSM 191300Z 04005KT 6000 BKN014 M00/M01 Q1021 R01/720194=
201901191330 METAR LRSM 191330Z 04006KT 6000 SCT015 M00/M01 Q1020 R01/720194=
201901191400 METAR LRSM 191400Z 05006KT 6000 SCT015 M00/M01 Q1021 R01/720194=
201901191430 METAR LRSM 191430Z 05005KT 6000 NSC M01/M01 Q1020 R01/720194=
201901191500 METAR LRSM 191500Z 05004KT 6000 NSC M01/M02 Q1020 R01/710194=
201901191530 METAR LRSM 191530Z 06005KT 6000 NSC M02/M02 Q1020 R01/710194=
201901191600 METAR LRSM 191600Z 07006KT 6000 NSC M02/M02 Q1020 R01/710194=
201901191630 METAR LRSM 191630Z 06006KT 6000 NSC M02/M02 Q1020 R01/710194=
201901191700 METAR LRSM 191700Z 05003KT 5000 BR NSC M02/M02 Q1020 R01/710194=
201901191730 METAR LRSM 191730Z AUTO 03003KT 4900 -SN FEW100/// BKN130///
                        BKN150/// M02/M02 Q1020=
201901191800 METAR LRSM 191800Z AUTO 06003KT 4500 -SN SCT110/// BKN130///
                        M02/M02 Q1020=
201901191830 METAR LRSM 191830Z AUTO 07004KT 5000 -SN FEW110/// OVC130///
                        M02/M02 Q1019=
201901191900 METAR LRSM 191900Z AUTO 09003KT 4600 -SN BKN130/// M02/M02
                        Q1019=
201901191930 METAR LRSM 191930Z AUTO 07003KT 4800 -SN BKN120/// M02/M02
                        Q1019=
201901192000 METAR LRSM 192000Z AUTO 07004KT 4600 -SN SCT110/// BKN140///
                        M02/M02 Q1019=
201901192030 METAR LRSM 192030Z AUTO 08004KT 5000 -SN BKN110/// M02/M02
                        Q1019=
201901192100 METAR LRSM 192100Z AUTO 07004KT 5000 -SN BKN110/// M02/M02
                        Q1019=
201901192130 METAR LRSM 192130Z AUTO 09004KT 5000 -SN BKN090/// BKN100///
                        M02/M02 Q1019=
201901192200 METAR LRSM 192200Z AUTO 09004KT 5000 -SN BKN080/// M02/M02
                        Q1019=
201901192230 METAR LRSM 192230Z AUTO 08003KT 4900 -SN SCT075/// OVC090///
                        M02/M02 Q1019=
201901192300 METAR LRSM 192300Z AUTO 05002KT 4700 -SN BKN075/// M02/M02
                        Q1018=
201901192330 METAR LRSM 192330Z AUTO 05003KT 5000 -SN SCT060/// BKN090///
                        OVC100/// M02/M02 Q1018=
201901200000 METAR LRSM 200000Z AUTO 06004KT 5000 -SN FEW070/// SCT090///
                        BKN100/// M02/M02 Q1018=
201901200030 METAR LRSM 200030Z AUTO 09003KT 5000 -SN FEW048/// BKN100///
                        M01/M02 Q1018=
201901200100 METAR LRSM 200100Z AUTO 10002KT 4300 -SN FEW021/// SCT026///
                        OVC033/// M01/M01 Q1018=
201901200130 METAR LRSM 200130Z AUTO 08003KT 3600 -SN SCT017/// BKN020///
                        M01/M01 Q1017=
201901200200 METAR LRSM 200200Z AUTO 08003KT 3800 -SN SCT020/// BKN038///
                        OVC043/// M00/M00 Q1017=
201901200230 METAR LRSM 200230Z AUTO 07004KT 3600 -SN BKN037/// OVC048///
                        M00/M00 Q1017=
201901200300 METAR LRSM 200300Z AUTO 06004KT 3500 -SN SCT040/// OVC048///
                        M00/M00 Q1017=
201901200330 METAR LRSM 200330Z AUTO 07004KT 3800 -SN FEW038/// OVC047///
                        00/00 Q1016=
201901200400 METAR LRSM 200400Z AUTO 07005KT 3200 -SN FEW030/// OVC036///
                        00/00 Q1016=
201901200430 METAR LRSM 200430Z AUTO 08005KT 3600 -SN SCT032/// BKN037///
                        OVC047/// 00/00 Q1016=
201901200500 METAR LRSM 200500Z AUTO 08005KT 3600 -SN SCT034/// OVC042///
                        00/00 Q1016=
201901200530 METAR LRSM 200530Z AUTO 08005KT 3500 -SN SCT030/// BKN036///
                        OVC045/// 00/00 Q1016=
201901200600 METAR LRSM 200600Z AUTO 08004KT 2900 -SN SCT026/// BKN036///
                        OVC045/// 00/00 Q1015=
201901200630 METAR LRSM 200630Z AUTO 09004KT 2300 -SN SCT018/// BKN028///
                        BKN042/// 00/00 Q1015=
201901200700 METAR LRSM 200700Z AUTO 08004KT 2200 -SN SCT019/// BKN025///
                        OVC033/// 00/00 Q1015=
201901200730 METAR LRSM 200730Z AUTO 08004KT 2400 -SN FEW019/// SCT037///
                        BKN044/// 00/00 Q1015=
201901200800 METAR LRSM 200800Z AUTO 08003KT 2700 -SN FEW020/// SCT035///
                        BKN048/// 00/00 Q1015=
201901200830 METAR LRSM 200830Z AUTO 08004KT 3400 -SN FEW021/// BKN027///
                        OVC032/// 01/01 Q1015=
201901200900 METAR LRSM 200900Z AUTO 08003KT 3900 -SN FEW017/// OVC025///
                        01/01 Q1016=
201901200930 METAR LRSM 200930Z AUTO 08002KT 3100 -SN SCT011/// BKN017///
                        01/01 Q1015=
201901201000 METAR LRSM 201000Z AUTO 05002KT 1400 R19/1300VP2000D -SN
                        FEW007/// BKN009/// OVC015/// 01/01
                        Q1015=
201901201030 METAR LRSM 201030Z AUTO 07002KT 1200 R19/1000V1500U -SN FEW007///
                        BKN013/// 01/01 Q1015=
201901201100 METAR LRSM 201100Z AUTO 00000KT 1500 R19/1600N -SN BKN007///
                        OVC012/// 01/01 Q1015=
201901201130 METAR LRSM 201130Z AUTO 00000KT 1700 R19/1700D -SN FEW006///
                        SCT008/// BKN011/// 01/01 Q1014=
201901201200 METAR LRSM 201200Z AUTO 00000KT 2100 -SN FEW005/// SCT009///
                        BKN011/// 01/01 Q1014=
201901201230 METAR LRSM 201230Z AUTO 00000KT 1300 R19/1200V2000D -SN BKN005///
                        BKN009/// 01/01 Q1014=
201901201300 METAR LRSM 201300Z AUTO 00000KT 1200 R19/1400D -SN OVC004///
                        00/00 Q1014=
201901201330 METAR LRSM 201330Z AUTO 00000KT 0650 R19/0900N -SN BKN004///
                        00/00 Q1014=
201901201400 METAR LRSM 201400Z AUTO 00000KT 0750 R19/1000D -SN BKN003///
                        00/00 Q1014=
201901201430 METAR LRSM 201430Z AUTO 00000KT 1000 R19/1300D -SN BKN003///
                        BKN005/// 00/00 Q1014=
201901201500 METAR LRSM 201500Z AUTO 00000KT 0800 R19/1000N -SN OVC003///
                        00/00 Q1014=
201901201530 METAR LRSM 201530Z AUTO 23001KT 1100 R19/1400N -SN FEW002///
                        BKN006/// 00/00 Q1014=
201901201600 METAR LRSM 201600Z AUTO 24003KT 1400 R19/1700N -SN FEW005///
                        OVC010/// 00/00 Q1014=
201901201630 METAR LRSM 201630Z AUTO 25004KT 1000 R19/1200N -SN VV002
                        00/00 Q1014=
201901201700 METAR LRSM 201700Z AUTO 26004KT 1300 R19/1700D -SN BKN002///
                        OVC011/// 00/00 Q1014=
201901201730 METAR LRSM 201730Z AUTO 28004KT 1500 R19/1900U -SN VV002
                        00/00 Q1015=
201901201800 METAR LRSM 201800Z AUTO 28005KT 1800 -SN VV002 M00/M00 Q1015=
201901201830 METAR LRSM 201830Z AUTO 29006KT 2400 -SN BKN001/// BKN003///
                        M00/M00 Q1015=
201901201900 METAR LRSM 201900Z AUTO 30005KT 2600 -SN SCT002/// BKN006///
                        BKN013/// M00/M00 Q1015=
201901201930 METAR LRSM 201930Z AUTO 27004KT 2600 -SN BKN002/// BKN012///
                        M00/M00 Q1015=
201901202000 METAR LRSM 202000Z AUTO 29005KT 3000 -SN SCT002/// BKN006///
                        M00/M00 Q1016=
201901202030 METAR LRSM 202030Z AUTO 29007KT 3400 -SN BKN003/// M01/M01
                        Q1016=
201901202100 METAR LRSM 202100Z AUTO 27004KT 2500 -SN FEW003/// SCT008///
                        BKN019/// M01/M01 Q1016=
201901202130 METAR LRSM 202130Z AUTO 29006KT 4900 -SN SCT005/// BKN007///
                        OVC013/// M01/M01 Q1016=
201901202200 METAR LRSM 202200Z AUTO 28006KT 250V310 5000 -SN FEW004///
                        SCT006/// BKN008/// M01/M01 Q1017=
201901202230 METAR LRSM 202230Z AUTO 28005KT 6000 -SN BKN004/// BKN008///
                        M01/M01 Q1017=
201901202300 METAR LRSM 202300Z AUTO 27006KT 5000 -SN OVC005/// M01/M01
                        Q1017=
201901202330 METAR LRSM 202330Z AUTO 26006KT 5000 -SN BKN005/// OVC007///
                        M01/M01 Q1017=
201901210000 METAR LRSM 210000Z AUTO 27006KT 6000 -SN SCT006/// BKN009///
                        OVC012/// M01/M01 Q1017=
201901210030 METAR LRSM 210030Z AUTO 28006KT 5000 -SN BKN008/// BKN010///
                        M01/M01 Q1017=
201901210100 METAR LRSM 210100Z AUTO 28007KT 8000 -SN FEW006/// BKN008///
                        M01/M01 Q1017=
201901210130 METAR LRSM 210130Z AUTO 27005KT 7000 -SN FEW007/// OVC009///
                        M01/M01 Q1017=
201901210200 METAR LRSM 210200Z AUTO 27006KT 6000 -SN BKN009/// M01/M02
                        Q1017=
201901210230 METAR LRSM 210230Z AUTO 27006KT 7000 -SN BKN010/// OVC015///
                        M02/M02 Q1018=
201901210300 METAR LRSM 210300Z AUTO 28006KT 6000 -SN BKN011/// M02/M02
                        Q1018=
201901210330 METAR LRSM 210330Z 28006KT 6000 BKN010 OVC016 M02/M03 Q1018
                        R01/550194=
201901210400 METAR LRSM 210400Z 27006KT 6000 OVC012 M02/M03 Q1018 R01/550194=
201901210430 METAR LRSM 210430Z 28006KT 6000 OVC014 M02/M03 Q1018 R01/550194=
201901210500 METAR LRSM 210500Z 28006KT 6000 BKN011 OVC027 M02/M03 Q1019
                        R01/550194=
201901210530 METAR LRSM 210530Z 29006KT 6000 SCT008 BKN018 OVC027 M02/M03
                        Q1019 R01/550194=
201901210600 METAR LRSM 210600Z 27006KT 5000 BR OVC008 M03/M04 Q1019 R01/550194=
201901210630 METAR LRSM 210630Z 27006KT 5000 BR OVC008 M03/M04 Q1020 R01/520194=
201901210700 METAR LRSM 210700Z 29007KT 5000 BR OVC007 M03/M05 Q1020 R01/520194=
201901210730 METAR LRSM 210730Z 28006KT 5000 BR BKN007 OVC024 M04/M05
                        Q1020 R01/520194=
201901210800 METAR LRSM 210800Z 28005KT 5000 BR BKN008 OVC027 M04/M06
                        Q1021 R01/520194=
201901210830 METAR LRSM 210830Z 28005KT 6000 BKN009 BKN027 M04/M06 Q1021
                        R01/520194=
201901210900 METAR LRSM 210900Z 29004KT 6000 SCT009 BKN028 M04/M06 Q1021
                        R01/520194=
201901210930 METAR LRSM 210930Z 31004KT 290V350 6000 NSC M04/M06 Q1021
                        R01/520194=
201901211000 METAR LRSM 211000Z 31003KT 280V340 6000 NSC M04/M06 Q1021
                        R01/520194=
201901211030 METAR LRSM 211030Z 00000KT 6000 NSC M04/M07 Q1021 R01/520194=
201901211100 METAR LRSM 211100Z 00000KT 6000 NSC M03/M06 Q1021 R01/520194=
201901211130 METAR LRSM 211130Z 00000KT 6000 NSC M03/M06 Q1021 R01/520194=
201901211200 METAR LRSM 211200Z VRB02KT 6000 NSC M03/M06 Q1021 R01/520194=
201901211230 METAR LRSM 211230Z VRB02KT 6000 NSC M03/M05 Q1021 R01/520194=
201901211300 METAR LRSM 211300Z 24003KT 6000 NSC M03/M05 Q1021 R01/520194=
201901211330 METAR LRSM 211330Z 29003KT 5000 BR NSC M03/M05 Q1021 R01/520194=
201901211400 METAR LRSM 211400Z VRB02KT 5000 BR NSC M03/M05 Q1021 R01/520194=
201901211430 METAR LRSM 211430Z 25003KT 5000 BR NSC M03/M05 Q1021 R01/19//95=
201901211500 METAR LRSM 211500Z 26004KT 5000 BR NSC M03/M05 Q1021 R01/19//95=
201901211530 METAR LRSM 211530Z 27003KT 5000 BR NSC M03/M05 Q1021 R01/19//95=
201901211600 METAR LRSM 211600Z 30001KT 5000 BR NSC M04/M05 Q1021 R01/19//95=
201901211630 METAR LRSM 211630Z 00000KT 5000 BR NSC M04/M05 Q1021 R01/19//95=
201901211700 METAR LRSM 211700Z 00000KT 5000 BR NSC M04/M05 Q1021 R01/19//95=
201901211730 METAR LRSM 211730Z AUTO 00000KT 4900 -SN BKN060/// M04/M05
                        Q1021=
201901211800 METAR LRSM 211800Z AUTO 00000KT 5000 -SN OVC060/// M04/M05
                        Q1021=
201901211830 METAR LRSM 211830Z AUTO 00000KT 5000 -SN BKN060/// M04/M05
                        Q1021=
201901211900 METAR LRSM 211900Z AUTO 12001KT 5000 -SN OVC060/// M04/M05
                        Q1021=
201901211930 METAR LRSM 211930Z AUTO 00000KT 4700 -SN BKN055/// M04/M05
                        Q1021=
201901212000 METAR LRSM 212000Z AUTO 00000KT 4300 -SN OVC055/// M04/M04
                        Q1020=
201901212030 METAR LRSM 212030Z AUTO 00000KT 4400 -SN BKN055/// M04/M04
                        Q1021=
201901212100 METAR LRSM 212100Z AUTO 00000KT 3900 -SN OVC055/// M04/M04
                        Q1021=
201901212130 METAR LRSM 212130Z AUTO 00000KT 4100 -SN BKN055/// M03/M04
                        Q1020=
201901212200 METAR LRSM 212200Z AUTO 00000KT 4000 -SN OVC055/// M03/M04
                        Q1020=
201901212230 METAR LRSM 212230Z AUTO 00000KT 4100 -SN BKN055/// M03/M04
                        Q1020=
201901212300 METAR LRSM 212300Z AUTO 08003KT 4100 -SN OVC055/// M03/M04
                        Q1020=
201901212330 METAR LRSM 212330Z AUTO 07003KT 3700 -SN OVC055/// M03/M04
                        Q1020=
201901220000 METAR LRSM 220000Z AUTO 07002KT 3500 -SN OVC055/// M03/M04
                        Q1020=
201901220030 METAR LRSM 220030Z AUTO 06002KT 3400 -SN OVC055/// M03/M04
                        Q1019=
201901220100 METAR LRSM 220100Z AUTO 10001KT 3400 -SN OVC050/// M03/M04
                        Q1019=
201901220130 METAR LRSM 220130Z AUTO 07004KT 3400 -SN BKN055/// M03/M04
                        Q1019=
201901220200 METAR LRSM 220200Z AUTO 10003KT 3400 -SN FEW042/// OVC050///
                        M03/M04 Q1018=
201901220230 METAR LRSM 220230Z AUTO 08003KT 3200 -SN FEW042/// OVC050///
                        M03/M04 Q1018=
201901220300 METAR LRSM 220300Z AUTO 07002KT 3000 -SN FEW044/// BKN050///
                        M03/M04 Q1018=
201901220330 METAR LRSM 220330Z 00000KT 2400 BR NSC M04/M04 Q1018 R01/19//95=
201901220400 METAR LRSM 220400Z 00000KT 2400 BR NSC M04/M04 Q1017 R01/19//95=
201901220430 METAR LRSM 220430Z 02002KT 2300 BR NSC M04/M04 Q1017 R01/19//95=
201901220500 METAR LRSM 220500Z 02002KT 2500 BR NSC M04/M04 Q1017 R01/710194=
201901220530 METAR LRSM 220530Z 02002KT 2300 BR BKN024 M04/M04 Q1017 R01/710194=
201901220600 METAR LRSM 220600Z 00000KT 1700 BR FEW020 OVC026 M03/M03
                        Q1017 R01/710194=
201901220630 METAR LRSM 220630Z 00000KT 1500 BR SCT021 OVC026 M03/M03
                        Q1017 R01/710194=
201901220700 METAR LRSM 220700Z 00000KT 1500 BR OVC022 M03/M03 Q1017 R01/710194=
201901220730 METAR LRSM 220730Z 00000KT 1500 -SN BR SCT017 OVC025 M02/M03
                        Q1017 R01/710194=
201901220800 METAR LRSM 220800Z 00000KT 1500 -SN BR FEW017 OVC025 M02/M02
                        Q1016 R01/710194=
201901220830 METAR LRSM 220830Z 00000KT 1500 -SN BR BKN026 M01/M02 Q1016
                        R01/710194=
201901220900 METAR LRSM 220900Z 00000KT 1200 R19/1400N -SN BR BKN024 M01/M02
                        Q1016 R01/710194=
201901220930 METAR LRSM 220930Z VRB01KT 1400 R19/1600N -SN BR BKN025 M01/M02
                        Q1016 R01/710194=
201901221000 METAR LRSM 221000Z 03002KT 1500 -SN BR BKN025 M01/M02 Q1015
                        R01/710194=
201901221030 METAR LRSM 221030Z VRB02KT 1000 R19/1200U -SN BR SCT010 OVC025
                        M01/M02 Q1015 R01/710194=
201901221100 METAR LRSM 221100Z 02003KT 1500 -SN BR FEW010 OVC025 M01/M01
                        Q1014 R01/710194=
201901221130 METAR LRSM 221130Z 04003KT 1500 -SN BR OVC025 M01/M01 Q1014
                        R01/29//94=
201901221200 METAR LRSM 221200Z 03004KT 1500 -SN BR OVC021 M01/M01 Q1014
                        R01/29//94=
201901221230 METAR LRSM 221230Z 03004KT 1500 -SN BR FEW002 OVC020 M00/M01
                        Q1013 R01/29//94=
201901221300 METAR LRSM 221300Z 04004KT 1500 -SN BR FEW001 OVC024 M00/M01
                        Q1013 R01/29//94=
201901221330 METAR LRSM 221330Z 06005KT 0800 R19/1100N SN FZFG OVC010
                        M01/M01 Q1012 R01/29//94=
201901221400 METAR LRSM 221400Z 04004KT 0800 R19/1100N SN FZFG SCT003
                        OVC010 M01/M01 Q1012 R01/29//94=
201901221430 METAR LRSM 221430Z 04004KT 0800 R19/1000N SN FZFG FEW004
                        OVC006 M01/M01 Q1012 R01/29//94=
201901221500 METAR LRSM 221500Z 04004KT 0800 R19/1100D SN FZFG BKN005
                        OVC007 M01/M01 Q1011 R01/29//94=
201901221530 METAR LRSM 221530Z 04004KT 1000 R19/1200N -SN BR SCT003 OVC005
                        M01/M01 Q1011 RESN R01/29//94=
201901221600 METAR LRSM 221600Z 04004KT 1500 -SN BR FEW003 OVC005 M01/M01
                        Q1010 R01/690293=
201901221630 METAR LRSM 221630Z 05005KT 1500 -SN BR BKN005 OVC015 M01/M01
                        Q1010 R01/690293=
201901221700 METAR LRSM 221700Z 05004KT 1500 -SN BR BKN008 OVC020 M01/M01
                        Q1010 R01/690293=
201901221730 METAR LRSM 221730Z AUTO 06004KT 2000 -SN FEW001/// BKN003///
                        OVC005/// M01/M01 Q1009=
201901221800 METAR LRSM 221800Z AUTO 07004KT 2500 -SN BKN003/// OVC026///
                        M01/M01 Q1009=
201901221830 METAR LRSM 221830Z AUTO 07004KT 2200 -SN FEW003/// SCT018///
                        BKN030/// M01/M01 Q1009=
201901221900 METAR LRSM 221900Z AUTO 06004KT 1900 -SN OVC002/// M01/M01
                        Q1008=
201901221930 METAR LRSM 221930Z AUTO 06004KT 2100 -SN SCT001/// BKN003///
                        OVC029/// M01/M01 Q1008=
201901222000 METAR LRSM 222000Z AUTO 06004KT 2000 -SN BKN026/// OVC031///
                        M01/M01 Q1008=
201901222030 METAR LRSM 222030Z AUTO 06004KT 2000 -SN FEW001/// SCT028///
                        OVC035/// M01/M01 Q1007=
201901222100 METAR LRSM 222100Z AUTO 04004KT 2200 -SN FEW002/// BKN026///
                        OVC032/// M01/M01 Q1007=
201901222130 METAR LRSM 222130Z AUTO 04005KT 2200 -SN SCT002/// BKN025///
                        M01/M01 Q1007=
201901222200 METAR LRSM 222200Z AUTO 04005KT 2000 -SN FEW004/// OVC025///
                        M01/M01 Q1007=
201901222230 METAR LRSM 222230Z AUTO 04005KT 2100 -SN BKN005/// BKN025///
                        M01/M01 Q1006=
201901222300 METAR LRSM 222300Z AUTO 04005KT 2300 -SN FEW019/// BKN027///
                        M01/M01 Q1006=
201901222330 METAR LRSM 222330Z AUTO 05005KT 2500 -SN BKN018/// OVC031///
                        M01/M01 Q1005=
201901230000 METAR LRSM 230000Z AUTO 05005KT 2900 -SN FEW019/// BKN031///
                        OVC048/// M01/M01 Q1005=
201901230030 METAR LRSM 230030Z AUTO 04004KT 3000 -SN FEW025/// OVC049///
                        M01/M01 Q1004=
201901230100 METAR LRSM 230100Z AUTO 07003KT 2800 -SN FEW008/// BKN024///
                        OVC050/// M01/M01 Q1004=
201901230130 METAR LRSM 230130Z AUTO 07002KT 2700 -SN SCT011/// BKN028///
                        BKN048/// M01/M01 Q1004=
201901230200 METAR LRSM 230200Z AUTO 05004KT 2800 -SN FEW011/// SCT023///
                        BKN028/// M01/M01 Q1003=
201901230230 METAR LRSM 230230Z AUTO 05003KT 3300 -SN FEW011/// BKN020///
                        M01/M01 Q1003=
201901230300 METAR LRSM 230300Z AUTO 00000KT 2900 -SN OVC020/// M01/M01
                        Q1003=
201901230330 METAR LRSM 230330Z 02002KT 1500 -SN BR BKN010 BKN021 M01/M01
                        Q1003 R01/690293=
201901230400 METAR LRSM 230400Z 04002KT 1500 -SN BR BKN010 OVC020 M01/M01
                        Q1002 R01/690293=
201901230430 METAR LRSM 230430Z 05003KT 1500 -SN BR BKN010 OVC020 M01/M01
                        Q1002 R01/690293=
201901230500 METAR LRSM 230500Z 04003KT 1500 -SN BR BKN010 OVC020 M01/M01
                        Q1002 R01/690293=
201901230530 METAR LRSM 230530Z 04002KT 1500 -SN BR OVC009 M01/M01 Q1002
                        R01/690293=
201901230600 METAR LRSM 230600Z 05002KT 1500 -SN BR FEW006 OVC008 M01/M01
                        Q1002 R01/590293=
201901230630 METAR LRSM 230630Z 04002KT 1500 -SG BR SCT003 OVC008 M01/M01
                        Q1002 RESG R01/590293=
201901230700 METAR LRSM 230700Z 00000KT 1200 R19/1500U -SG BR SCT003 BKN009
                        OVC018 M00/M00 Q1002 R01/590293=
201901230730 METAR LRSM 230730Z 05002KT 1100 R19/1300D -SN BR SCT003 BKN018
                        OVC023 M00/M00 Q1002 R01/590293=
201901230800 METAR LRSM 230800Z 01002KT 1500 -SN BR SCT003 BKN007 OVC021
                        M01/M01 Q1002 R01/590293=
201901230830 METAR LRSM 230830Z 00000KT 1500 -SN BR SCT003 BKN007 OVC020
                        M00/M00 Q1002 R01/590593=
201901230900 METAR LRSM 230900Z 29002KT 1000 R19/1200N -SN BKN003 OVC015
                        M00/M00 Q1002 R01/590593=
201901230930 METAR LRSM 230930Z 32001KT 1200 R19/1400N -SN BR SCT001 OVC003
                        M00/M00 Q1002 R01/590593=
201901231000 METAR LRSM 231000Z 00000KT 1300 R19/1400N -SN BR SCT002 BKN004
                        OVC018 M00/M00 Q1002 R01/590593=
201901231030 METAR LRSM 231030Z 00000KT 1500 -SN BR SCT002 BKN004 OVC018
                        01/00 Q1002 R01/590593=
201901231100 METAR LRSM 231100Z 00000KT 1000 R19/1300N -SN BKN002 OVC004
                        M00/M00 Q1002 R01/29//95=
201901231130 METAR LRSM 231130Z VRB02KT 1500 -SN BR SCT002 BKN004 OVC015
                        00/00 Q1001 R01/29//95=
201901231200 METAR LRSM 231200Z 33002KT 1400 R19/1500N -SN BR SCT002 BKN007
                        OVC021 00/M00 Q1001 R01/29//95=
201901231230 METAR LRSM 231230Z 00000KT 1000 R19/1200N -SN BR SCT002 BKN012
                        OVC020 00/M00 Q1001 R01/29//95=
201901231300 METAR LRSM 231300Z 00000KT 0650 R19/0900N FG BKN002 OVC006
                        00/00 Q1001 R01/29//95=
201901231330 METAR LRSM 231330Z 00000KT 0550 R19/0750N FG VV001 00/00
                        Q1001 R01/29//95=
201901231400 METAR LRSM 231400Z 00000KT 0550 R19/0750N FG BKN002 OVC010
                        00/00 Q1001 R01/29//95=
201901231430 METAR LRSM 231430Z 00000KT 0750 R19/0800D FG BKN002 OVC010
                        00/00 Q1001 R01/29//95=
201901231500 METAR LRSM 231500Z 00000KT 0650 R19/0800N FG SCT002 OVC010
                        00/00 Q1001 R01/29//95=
201901231530 METAR LRSM 231530Z 09003KT 0800 R19/1100U FG SCT002 OVC010
                        00/00 Q1001 R01/29//95=
201901231600 METAR COR LRSM 231600Z 07003KT 1000 R19/1200D BR SCT009 OVC017
                        00/00 Q1001 R01/29//95=
201901231630 METAR LRSM 231630Z 06005KT 1100 R19/1300N BR BKN017 OVC024
                        00/00 Q1002 R01/29//95=
201901231700 METAR LRSM 231700Z 05004KT 1200 R19/1400D BR SCT015 OVC028
                        00/00 Q1001 R01/29//95=
201901231730 METAR LRSM 231730Z 04003KT 0900 R19/1000D FG SCT023 OVC032
                        00/00 Q1002 R01/29//95=
201901231800 METAR LRSM 231800Z 01003KT 340V050 1200 R19/1400U BR FEW012
                        SCT025 OVC035 00/00 Q1002 R01/29//95=
201901231830 METAR LRSM 231830Z AUTO 05005KT 1600 R19/1500VP2000D -SN
                        BKN035/// 00/00 Q1001=
201901231900 METAR LRSM 231900Z AUTO 05003KT 2200 -SN BKN037/// 01/01
                        Q1001=
201901231930 METAR LRSM 231930Z AUTO 04004KT 1900 -SN BKN036/// OVC042///
                        00/00 Q1001=
201901232000 METAR LRSM 232000Z AUTO 03004KT 2200 -SN BKN038/// 00/00
                        Q1001=
201901232030 METAR LRSM 232030Z AUTO 04004KT 2200 -SN BKN038/// 00/00
                        Q1002=
201901232100 METAR LRSM 232100Z AUTO 02004KT 1900 -SN BKN039/// 00/00
                        Q1002=
201901232130 METAR LRSM 232130Z AUTO 05003KT 0200 R19/0225N -SN SCT041///
                        M01/M01 Q1002=
201901232200 METAR LRSM 232200Z AUTO 33002KT 0200 R19/0225N -SN VV001
                        M02/M02 Q1002=
201901232230 METAR LRSM 232230Z AUTO 00000KT 0200 R19/0225N -SN FEW001///
                        BKN003/// M02/M02 Q1002=
201901232300 METAR LRSM 232300Z AUTO 36001KT 0150 R19/0175V0275N -SN VV001
                        M03/M03 Q1002=
201901232330 METAR LRSM 232330Z AUTO 18001KT 0200 R19/0225N -SN VV001
                        M03/M03 Q1001=
201901240000 METAR LRSM 240000Z AUTO 00000KT 0200 R19/0225N -SN VV001
                        M03/M03 Q1002=
201901240030 METAR LRSM 240030Z AUTO 00000KT 0200 R19/0225N -SN VV001
                        M03/M03 Q1001=
201901240100 METAR LRSM 240100Z AUTO 00000KT 0150 R19/0200N -SN VV001
                        M03/M03 Q1002=
201901240130 METAR LRSM 240130Z AUTO 06002KT 040V100 0200 R19/0250N -SN
                        VV001 M03/M03 Q1001=
201901240200 METAR LRSM 240200Z AUTO 00000KT 0250 R19/0325N -SN VV001
                        M04/M04 Q1001=
201901240230 METAR LRSM 240230Z AUTO 00000KT 0300 R19/0375N -SN VV001
                        M04/M04 Q1001=
201901240300 METAR LRSM 240300Z AUTO 00000KT 0400 R19/0500N -SN VV001
                        M04/M04 Q1000=
201901240330 METAR LRSM 240330Z 20002KT 0450 R19/0550N FZFG NSC M04/M04
                        Q1000 R01/29//95=
201901240400 METAR LRSM 240400Z 21004KT 0600 R19/08000D FZFG FEW001 M04/M04
                        Q1000 R01/29//95=
201901240430 METAR LRSM 240430Z 22002KT 1500 BR SCT001 M03/M03 Q1000 R01/720194=
201901240500 METAR LRSM 240500Z 25004KT 2500 BR NSC M03/M03 Q1000 R01/720194=
201901240530 METAR LRSM 240530Z 24002KT 4300 BR NSC M03/M03 Q1000 R01/720194=
201901240600 METAR LRSM 240600Z 22005KT 3500 BR NSC M03/M03 Q1000 R01/720194=
201901240630 METAR LRSM 240630Z 24005KT 3500 BR NSC M03/M03 Q1000 R01/720194=
201901240700 METAR LRSM 240700Z 26005KT 3700 BR NSC M02/M02 Q1000 R01/720194=
201901240730 METAR LRSM 240730Z 28003KT 4000 BR NSC M02/M02 Q1000 R01/720194=
201901240800 METAR LRSM 240800Z 26003KT 240V300 4500 BR OVC046 M02/M02
                        Q1000 R01/720194=
201901240830 METAR LRSM 240830Z 32006KT 5000 -FZRA BR SCT035 OVC048 M01/M01
                        Q1000 R01/720194=
201901240900 METAR LRSM 240900Z 36005KT 5000 -FZRA BR SCT035 OVC046 M01/M01
                        Q1000 R01/720194=
201901240930 METAR LRSM 240930Z 00000KT 6000 -FZRA OVC038 M00/M00 Q1001
                        R01/29//94=
201901241000 METAR LRSM 241000Z 24001KT 6000 -RA OVC037 00/M00 Q1001 REFZRA
                        R01/29//94=
201901241030 METAR LRSM 241030Z 31003KT 290V350 6000 -RA OVC039 01/00
                        Q1000 R01/29//94=
201901241100 METAR LRSM 241100Z 34004KT 7000 -RA OVC033 01/M00 Q1000 R01/29//94=
201901241130 METAR LRSM 241130Z 31003KT 5000 -RA BR OVC032 01/00 Q1000
                        R01/29//94=
201901241200 METAR LRSM 241200Z 00000KT 4000 -RA BR OVC025 01/00 Q1000
                        R01/29//94=
201901241230 METAR LRSM 241230Z VRB01KT 3500 -RA BR OVC025 01/00 Q1000
                        R01/29//94=
201901241300 METAR LRSM 241300Z 23002KT 3000 -RA BR BKN021 OVC033 01/01
                        Q1000 R01/29//94=
201901241330 METAR LRSM 241330Z VRB02KT 2300 -RA BR BKN021 OVC030 01/01
                        Q1000 R01/29//94=
201901241400 METAR LRSM 241400Z 00000KT 1700 -RA BR FEW022 OVC036 01/01
                        Q1001 R01/29//94=
201901241430 METAR LRSM 241430Z VRB02KT 1600 -RA BR SCT022 OVC031 00/00
                        Q1001 R01/29//94=
201901241500 METAR LRSM 241500Z 06004KT 020V080 1500 -RA BR SCT018 OVC030
                        00/00 Q1001 R01/29//94=
201901241530 METAR LRSM 241530Z 00000KT 2000 -RA BR BKN030 OVC040 01/01
                        Q1001 R01/29//94=
201901241600 METAR LRSM 241600Z 00000KT 2500 -RA BR BKN027 OVC040 01/01
                        Q1001 R01/29//94=
201901241630 METAR LRSM 241630Z 22003KT 1600 -RA BR BKN025 OVC038 00/00
                        Q1001 R01/29//94=
201901241700 METAR LRSM 241700Z 26002KT 1600 -RA BR BKN026 OVC040 00/00
                        Q1002 R01/29//94=
201901241730 METAR LRSM 241730Z AUTO 28003KT 1500 R19/1900U -PL OVC040///
                        00/00 Q1002=
201901241800 METAR LRSM 241800Z AUTO 21003KT 1400 R19/1700N -PL SCT028///
                        BKN034/// OVC043/// 00/00 Q1002=
201901241830 METAR LRSM 241830Z AUTO 25004KT 210V270 1700 -PL FEW022///
                        OVC031/// 00/00 Q1003=
201901241900 METAR LRSM 241900Z AUTO 25003KT 1700 -PL FEW019/// BKN032///
                        00/00 Q1003=
201901241930 METAR LRSM 241930Z AUTO 00000KT 1400 R19/1700U -SN BKN031///
                        01/01 Q1003=
201901242000 METAR LRSM 242000Z AUTO 00000KT 1000 R19/1300D -PL FEW017///
                        SCT024/// OVC031/// 00/00 Q1004=
201901242030 METAR LRSM 242030Z AUTO 21002KT 1200 R19/1100V1700D -PL SCT016///
                        OVC026/// 00/00 Q1004=
201901242100 METAR LRSM 242100Z AUTO 19002KT 1200 R19/1500N -PL FEW012///
                        BKN022/// BKN026/// 00/00 Q1004=
201901242130 METAR LRSM 242130Z AUTO 23002KT 1200 R19/1500U -PL BKN021///
                        OVC031/// 01/01 Q1004=
201901242200 METAR LRSM 242200Z AUTO 24003KT 1200 R19/1500D -PL SCT014///
                        BKN020/// OVC024/// 01/01 Q1005=
201901242230 METAR LRSM 242230Z AUTO 24004KT 1100 R19/1300U -PL FEW014///
                        BKN021/// OVC025/// 00/00 Q1005=
201901242300 METAR LRSM 242300Z AUTO 25004KT 2100 -PL SCT012/// BKN018///
                        OVC022/// 00/00 Q1005=
201901242330 METAR LRSM 242330Z AUTO 24003KT 2100 -SN BKN010/// OVC016///
                        00/00 Q1005=
201901250000 METAR LRSM 250000Z AUTO 24002KT 2100 -SN BKN010/// 00/00
                        Q1005=
201901250030 METAR LRSM 250030Z AUTO 21002KT 1500 R19/1900D -SN FEW001///
                        OVC012/// 00/00 Q1005=
201901250100 METAR LRSM 250100Z AUTO 22003KT 1200 R19/1500U -SN VV011
                        00/00 Q1006=
201901250130 METAR LRSM 250130Z AUTO 21003KT 1300 R19/1600N -SN SCT012///
                        BKN015/// OVC019/// 00/00 Q1006=
201901250200 METAR LRSM 250200Z AUTO 22003KT 1400 R19/1800N -SN BKN013///
                        00/00 Q1006=
201901250230 METAR LRSM 250230Z AUTO 22002KT 1400 R19/1700D -SN FEW001///
                        BKN015/// 00/00 Q1006=
201901250300 METAR LRSM 250300Z AUTO 24002KT 1700 -SN VV011 00/00 Q1006=
201901250330 METAR LRSM 250330Z 25003KT 2000 -SN BR FEW004 SCT016 OVC025
                        00/00 Q1006 R01/590894=
201901250400 METAR LRSM 250400Z 22003KT 1600 -SN BR SCT004 BKN006 OVC019
                        00/00 Q1006 R01/590894=
201901250430 METAR LRSM 250430Z 25003KT 1800 -SN BR SCT004 BKN006 OVC018
                        00/00 Q1007 R01/590894=
201901250500 METAR LRSM 250500Z 26002KT 1800 -SN BR SCT004 BKN007 OVC020
                        M00/M00 Q1007 R01/590894=
201901250530 METAR LRSM 250530Z 25003KT 200V270 2000 -SN BR FEW001 BKN007
                        OVC016 M00/M00 Q1008 R01/590293=
201901250600 METAR LRSM 250600Z 27004KT 2500 -SN BR SCT005 BKN014 OVC033
                        M00/M00 Q1008 R01/590293=
201901250630 METAR LRSM 250630Z 24001KT 2000 -SN BR SCT004 BKN014 OVC037
                        M00/M00 Q1008 R01/590293=
201901250700 METAR LRSM 250700Z 28003KT 1600 -SN BR SCT003 BKN005 OVC037
                        M00/M00 Q1008 R01/590293=
201901250730 METAR LRSM 250730Z 28002KT 1600 -SN BR BKN004 OVC013 M00/M00
                        Q1009 R01/590293=
201901250800 METAR LRSM 250800Z 07001KT 2000 -SN BR BKN004 OVC012 M00/M00
                        Q1008 R01/590294=
201901250830 METAR LRSM 250830Z 00000KT 2000 -SN BR OVC005 00/00 Q1009
                        R01/590294=
201901250900 METAR LRSM 250900Z 00000KT 2000 BR SCT007 OVC033 00/00 Q1009
                        R01/590294=
201901250930 METAR LRSM 250930Z 09002KT 2500 BR SCT009 BKN016 OVC030 01/01
                        Q1009 R01/590294=
201901251000 METAR LRSM 251000Z 00000KT 2800 BR SCT013 OVC033 01/01 Q1009
                        R01/590294=
201901251030 METAR LRSM 251030Z 10002KT 3000 BR SCT014 OVC037 01/00 Q1009
                        R01/590294=
201901251100 METAR LRSM 251100Z 00000KT 3500 BR FEW015 OVC035 01/00 Q1009
                        R01/29//95=
201901251130 METAR LRSM 251130Z 07001KT 4000 BR SCT008 OVC035 01/M00 Q1009
                        R01/29//95=
201901251200 METAR LRSM 251200Z 34001KT 4500 BR FEW008 OVC034 01/00 Q1009
                        R01/29//95=
201901251230 METAR LRSM 251230Z 00000KT 4500 BR OVC032 02/00 Q1009 R01/29//95=
201901251300 METAR LRSM 251300Z 00000KT 4500 BR OVC031 01/M00 Q1009 R01/29//95=
201901251330 METAR LRSM 251330Z 00000KT 4300 BR OVC030 01/00 Q1009 R01/29//95=
201901251400 METAR LRSM 251400Z 35005KT 4000 BR OVC032 01/00 Q1009 R01/29//95=
201901251430 METAR LRSM 251430Z 35005KT 4500 BR BKN030 01/00 Q1009 R01/29//95=
201901251500 METAR LRSM 251500Z 34006KT 4000 BR OVC029 01/00 Q1008 R01/29//95=
201901251530 METAR LRSM 251530Z 35004KT 2500 BR OVC028 00/M00 Q1008 R01/29//95=
201901251600 METAR LRSM 251600Z 34005KT 2800 FEW004 BKN030 00/00 Q1008
                        R01/22//95=
201901251630 METAR LRSM 251630Z 34007KT 2500 BR SCT003 BKN030 M00/M00
                        Q1008 R01/22//95=
201901251700 METAR LRSM 251700Z 34007KT 2600 BR OVC002 M00/M00 Q1008 R01/22//95=
201901251730 METAR LRSM 251730Z 33007KT 4500 BR FEW002 BKN005 OVC045 M01/M01
                        Q1009 R01/22//95=
201901251800 METAR LRSM 251800Z 34006KT 5000 -SN BR FEW005 OVC038 M01/M01
                        Q1009 R01/22//95=
201901251830 METAR LRSM 251830Z 31006KT 4500 -SN BR SCT006 OVC039 M01/M02
                        Q1009 R01/22//95=
201901251900 METAR LRSM 251900Z AUTO 32004KT 4100 -SN FEW004/// BKN037///
                        OVC042/// M01/M02 Q1009=
201901251930 METAR LRSM 251930Z AUTO 31003KT 290V350 3700 -SN BKN027///
                        BKN050/// M01/M02 Q1009=
201901252000 METAR LRSM 252000Z AUTO 33005KT 300V010 4800 -SN FEW006///
                        BKN045/// BKN070/// M02/M02 Q1008=
201901252030 METAR LRSM 252030Z AUTO 32004KT 5000 -SN BKN043/// M02/M02
                        Q1008=
201901252100 METAR LRSM 252100Z AUTO 34005KT 310V030 6000 -SN FEW050///
                        OVC075/// M02/M02 Q1008=
201901252130 METAR LRSM 252130Z AUTO 35007KT 310V010 5000 -SN FEW031///
                        SCT039/// BKN044/// M02/M03 Q1008=
201901252200 METAR LRSM 252200Z AUTO 35007KT 5000 -SN FEW011/// OVC060///
                        M02/M03 Q1008=
201901252230 METAR LRSM 252230Z AUTO 34005KT 6000 -SN FEW038/// OVC060///
                        M02/M03 Q1008=
201901252300 METAR LRSM 252300Z AUTO 33005KT 6000 -SN SCT010/// BKN038///
                        OVC065/// M02/M03 Q1007=
201901252330 METAR LRSM 252330Z AUTO 30003KT 270V330 6000 -SN BKN010///
                        OVC044/// M02/M03 Q1007=
201901260000 METAR LRSM 260000Z AUTO 29003KT 5000 -SN OVC010/// M02/M03
                        Q1007=
201901260030 METAR LRSM 260030Z AUTO 30003KT 6000 -SN BKN011/// OVC060///
                        M02/M03 Q1007=
201901260100 METAR LRSM 260100Z AUTO 24002KT 6000 -SN OVC011/// M02/M03
                        Q1007=
201901260130 METAR LRSM 260130Z AUTO 26003KT 6000 -SN OVC011/// M02/M03
                        Q1007=
201901260200 METAR LRSM 260200Z AUTO 28003KT 7000 -SN OVC010/// M02/M03
                        Q1007=
201901260230 METAR LRSM 260230Z AUTO 28003KT 6000 -SN BKN011/// OVC016///
                        M02/M03 Q1006=
201901260300 METAR LRSM 260300Z AUTO 31005KT 5000 -SN OVC012/// M02/M03
                        Q1006=
201901260330 METAR LRSM 260330Z AUTO 31006KT 6000 -SN OVC013/// M02/M03
                        Q1006=
201901260400 METAR LRSM 260400Z AUTO 30005KT 5000 -SN OVC015/// M03/M03
                        Q1007=
201901260430 METAR LRSM 260430Z AUTO 31006KT 6000 -SN BKN015/// OVC018///
                        M03/M04 Q1006=
201901260500 METAR LRSM 260500Z 30006KT 8000 -SN BKN010 OVC015 M03/M04
                        Q1007 R01/590593=
201901260530 METAR LRSM 260530Z 30007KT 5000 SN OVC010 M03/M04 Q1007 R01/590593=
201901260600 METAR LRSM 260600Z 31007KT 3300 -SN BR FEW009 BKN015 OVC026
                        M04/M04 Q1007 RESN R01/590593=
201901260630 METAR LRSM 260630Z 29005KT 1800 -SN BR SCT014 OVC022 M04/M04
                        Q1007 R01/590593=
201901260700 METAR LRSM 260700Z 27005KT 250V310 1800 -SN BR SCT015 OVC024
                        M03/M04 Q1007 R01/590593=
201901260730 METAR LRSM 260730Z 28005KT 2500 -SN BR FEW010 OVC030 M03/M04
                        Q1007 R01/590593=
201901260800 METAR LRSM 260800Z 28006KT 1800 -SN BR FEW004 BKN010 OVC030
                        M03/M04 Q1007 R01/590593=
201901260830 METAR LRSM 260830Z 28006KT 1800 -SN BR FEW004 BKN010 OVC030
                        M03/M04 Q1007 R01/590194=
201901260900 METAR LRSM 260900Z 28007KT 3300 -SN BR SCT012 OVC036 M04/M04
                        Q1007 R01/590194=
201901260930 METAR LRSM 260930Z 29007KT 3300 -SN BR SCT012 OVC037 M03/M04
                        Q1007 R01/590194=
201901261000 METAR LRSM 261000Z 27006KT 3000 -SN BR BKN015 OVC029 M03/M04
                        Q1007 R01/590194=
201901261030 METAR LRSM 261030Z 26007KT 7000 FEW015 SCT035 M03/M05 Q1007
                        R01/590194=
201901261100 METAR LRSM 261100Z 26008KT 3500 -SN BR OVC015 M03/M04 Q1007
                        R01/590194=
201901261130 METAR LRSM 261130Z 25007KT 4000 -SN BR OVC020 M03/M04 Q1007
                        R01/590194=
201901261200 METAR LRSM 261200Z 24007KT 7000 OVC017 M03/M05 Q1007 R01/590194=
201901261230 METAR LRSM 261230Z 25007KT 8000 BKN016 M03/M05 Q1007 R01/590194=
201901261300 METAR LRSM 261300Z 25007KT 8000 SCT017 M03/M05 Q1007 R01/590194=
201901261330 METAR LRSM 261330Z 24006KT 8000 FEW017 M03/M05 Q1007 R01/590194=
201901261400 METAR LRSM 261400Z 24006KT CAVOK M03/M05 Q1007 R01/590194=
201901261430 METAR LRSM 261430Z 24005KT CAVOK M03/M06 Q1007 R01/590194=
201901261500 METAR LRSM 261500Z 27006KT CAVOK M04/M06 Q1007 R01/590194=
201901261530 METAR LRSM 261530Z 26006KT 9999 FEW035 M04/M06 Q1007 R01/590194=
201901261600 METAR LRSM 261600Z 24007KT 9999 FEW035 M04/M06 Q1007 R01/590194=
201901261630 METAR LRSM 261630Z 25008KT 9999 FEW036 M03/M06 Q1007 R01/590194=
201901261700 METAR LRSM 261700Z 25007KT CAVOK M03/M06 Q1008 R01/590194=
201901261730 METAR LRSM 261730Z AUTO 26004KT 7000 -SN SCT030/// OVC055///
                        M03/M05 Q1008=
201901261800 METAR LRSM 261800Z AUTO 24003KT 6000 -SN FEW032/// OVC047///
                        M03/M06 Q1008=
201901261830 METAR LRSM 261830Z AUTO 20003KT 6000 -SN FEW036/// OVC045///
                        M03/M06 Q1008=
201901261900 METAR LRSM 261900Z AUTO 12002KT 090V160 5000 -SN OVC043///
                        M03/M05 Q1008=
201901261930 METAR LRSM 261930Z AUTO 19003KT 6000 -SN SCT040/// BKN050///
                        M03/M05 Q1008=
201901262000 METAR LRSM 262000Z AUTO 19003KT 6000 -SN SCT036/// BKN041///
                        BKN049/// M03/M05 Q1008=
201901262030 METAR LRSM 262030Z AUTO 00000KT 6000 -SN SCT024/// BKN028///
                        OVC035/// M03/M05 Q1008=
201901262100 METAR LRSM 262100Z AUTO 24002KT 210V280 7000 -SN BKN022///
                        OVC027/// M03/M05 Q1008=
201901262130 METAR LRSM 262130Z AUTO 25005KT 7000 -SN OVC022/// M02/M05
                        Q1008=
201901262200 METAR LRSM 262200Z AUTO 24007KT 6000 -SN OVC022/// M02/M04
                        Q1008=
201901262230 METAR LRSM 262230Z AUTO 24010KT 6000 -SN BKN023/// BKN028///
                        M02/M04 Q1008=
201901262300 METAR LRSM 262300Z AUTO 25010KT 7000 -SN BKN024/// OVC028///
                        M02/M04 Q1008=
201901262330 METAR LRSM 262330Z AUTO 24009KT 6000 -SN BKN024/// M02/M04
                        Q1008=
201901270000 METAR LRSM 270000Z AUTO 24008KT 6000 -SN OVC024/// M02/M04
                        Q1008=
201901270030 METAR LRSM 270030Z AUTO 24008KT 7000 -SN BKN024/// M02/M04
                        Q1009=
201901270100 METAR LRSM 270100Z AUTO 22006KT 6000 -SN OVC024/// M02/M04
                        Q1009=
201901270130 METAR LRSM 270130Z AUTO 22005KT 6000 -SN BKN024/// M02/M04
                        Q1009=
201901270200 METAR LRSM 270200Z AUTO 20004KT 6000 -SN OVC023/// M02/M04
                        Q1008=
201901270230 METAR LRSM 270230Z AUTO 16004KT 6000 -SN FEW019/// BKN023///
                        M02/M04 Q1008=
201901270300 METAR LRSM 270300Z AUTO 13003KT 6000 -SN FEW018/// OVC021///
                        M02/M04 Q1008=
201901270330 METAR LRSM 270330Z AUTO 11004KT 6000 -SN BKN017/// M02/M03
                        Q1008=
201901270400 METAR LRSM 270400Z AUTO 11004KT 6000 -SN OVC016/// M02/M03
                        Q1008=
201901270430 METAR LRSM 270430Z AUTO 10005KT 6000 -SN BKN016/// M02/M03
                        Q1008=
201901270500 METAR LRSM 270500Z AUTO 12004KT 4300 -SN OVC017/// M02/M03
                        Q1007=
201901270530 METAR LRSM 270530Z AUTO 12004KT 5000 -SN BKN015/// M02/M03
                        Q1007=
201901270600 METAR LRSM 270600Z AUTO 12003KT 4500 -SN SCT009/// BKN012///
                        OVC015/// M02/M02 Q1008=
201901270630 METAR LRSM 270630Z AUTO 12003KT 4100 -SN OVC012/// M02/M03
                        Q1008=
201901270700 METAR LRSM 270700Z AUTO 11004KT 5000 -SN SCT012/// OVC018///
                        M02/M03 Q1008=
201901270730 METAR LRSM 270730Z AUTO 10003KT 5000 -SN OVC019/// M02/M03
                        Q1008=
201901270800 METAR LRSM 270800Z AUTO 09004KT 5000 -SN OVC020/// M02/M03
                        Q1008=
201901270830 METAR LRSM 270830Z AUTO 08003KT 5000 -SN OVC020/// M01/M03
                        Q1008=
201901270900 METAR LRSM 270900Z AUTO 00000KT 4900 -SN OVC021/// M01/M03
                        Q1008=
201901270930 METAR LRSM 270930Z AUTO 00000KT 3400 -SN SCT020/// OVC027///
                        M01/M02 Q1008=
201901271000 METAR LRSM 271000Z AUTO 15003KT 3700 -SN BKN022/// OVC026///
                        M01/M02 Q1008=
201901271030 METAR LRSM 271030Z AUTO 14004KT 2100 -SN BKN022/// OVC034///
                        M01/M01 Q1007=
201901271100 METAR LRSM 271100Z AUTO 12004KT 3100 R19/2000 -SN FEW016///
                        BKN019/// OVC027/// M01/M01 Q1007=
201901271130 METAR LRSM 271130Z AUTO 13005KT 5000 -SN SCT019/// OVC023///
                        M00/M01 Q1007=
201901271200 METAR LRSM 271200Z AUTO 10005KT 4800 -SN OVC020/// M00/M01
                        Q1006=
201901271230 METAR LRSM 271230Z AUTO 10005KT 5000 -SN OVC019/// 00/M01
                        Q1006=
201901271300 METAR LRSM 271300Z AUTO 12006KT 6000 -SN OVC022/// 01/M02
                        Q1006=
201901271330 METAR LRSM 271330Z AUTO 14005KT 5000 -SN FEW022/// SCT028///
                        BKN033/// 00/M02 Q1006=
201901271400 METAR LRSM 271400Z AUTO 11004KT 5000 -SN SCT024/// BKN037///
                        00/M01 Q1006=
201901271430 METAR LRSM 271430Z AUTO 10005KT 6000 -SN FEW023/// OVC036///
                        00/M01 Q1005=
201901271500 METAR LRSM 271500Z AUTO 10006KT 6000 -SN BKN035/// 00/M01
                        Q1005=
201901271530 METAR LRSM 271530Z AUTO 12004KT 6000 -SN BKN036/// OVC041///
                        M00/M02 Q1005=
201901271600 METAR LRSM 271600Z AUTO 14007KT 6000 -SN BKN040/// M01/M02
                        Q1005=
201901271630 METAR LRSM 271630Z AUTO 13005KT 6000 -SN BKN240/// M01/M03
                        Q1005=
201901271700 METAR LRSM 271700Z AUTO 12004KT 6000 -SN FEW240/// M02/M03
                        Q1005=
201901271730 METAR LRSM 271730Z AUTO 12005KT 5000 -SN NCD M03/M04 Q1004=
201901271800 METAR LRSM 271800Z AUTO 11005KT 5000 -SN NCD M03/M04 Q1004=
201901271830 METAR LRSM 271830Z AUTO 12005KT 5000 -SN FEW240/// M02/M03
                        Q1004=
201901271900 METAR LRSM 271900Z AUTO 13005KT 5000 -SN NCD M02/M04 Q1003=
201901271930 METAR LRSM 271930Z AUTO 11006KT 6000 -SN NCD M03/M04 Q1003=
201901272000 METAR LRSM 272000Z AUTO 13007KT 7000 -SN NCD M01/M04 Q1003=
201901272030 METAR LRSM 272030Z AUTO 13006KT 7000 -SN NCD M01/M03 Q1003=
201901272100 METAR LRSM 272100Z AUTO 13007KT 7000 -SN BKN085/// 00/M03
                        Q1002=
201901272130 METAR LRSM 272130Z AUTO 14006KT 7000 -SN OVC080/// 01/M03
                        Q1002=
201901272200 METAR LRSM 272200Z AUTO 14007KT 8000 -SN OVC090/// 01/M03
                        Q1002=
201901272230 METAR LRSM 272230Z AUTO 13008KT 8000 -SN SCT075/// OVC095///
                        01/M03 Q1002=
201901272300 METAR LRSM 272300Z AUTO 14008KT 9000 -SN BKN085/// BKN100///
                        02/M03 Q1002=
201901272330 METAR LRSM 272330Z AUTO 14010KT 9999 -SN BKN080/// OVC095///
                        02/M03 Q1001=
201901280000 METAR LRSM 280000Z AUTO 14007KT 9999 -SN SCT080/// OVC095///
                        02/M03 Q1001=
201901280030 METAR LRSM 280030Z AUTO 14006KT 9999 -SN SCT080/// BKN095///
                        02/M03 Q1001=
201901280100 METAR LRSM 280100Z AUTO 14008KT 9999 -SN SCT080/// OVC095///
                        02/M03 Q1001=
201901280130 METAR LRSM 280130Z AUTO 14007KT 9999 -SN OVC090/// 02/M03
                        Q1001=
201901280200 METAR LRSM 280200Z AUTO 13008KT 9999 -SN SCT080/// OVC095///
                        02/M03 Q1001=
201901280230 METAR LRSM 280230Z AUTO 14008KT 9999 -SN BKN095/// 02/M03
                        Q1000=
201901280300 METAR LRSM 280300Z AUTO 14009KT 9999 -SN BKN095/// 02/M03
                        Q1000=
201901280330 METAR LRSM 280330Z 14008KT CAVOK 02/M03 Q1000 R01/710195=
201901280400 METAR LRSM 280400Z 14007KT CAVOK 01/M03 Q1000 R01/710195=
201901280430 METAR LRSM 280430Z 13006KT CAVOK 01/M03 Q1000 R01/710195=
201901280500 METAR LRSM 280500Z 14005KT CAVOK 01/M03 Q1000 R01/710195=
201901280530 METAR LRSM 280530Z 13006KT CAVOK 01/M03 Q1000 R01/710195=
201901280600 METAR LRSM 280600Z 13007KT CAVOK 02/M03 Q1000 R01/710195=
201901280630 METAR LRSM 280630Z 14008KT CAVOK 02/M03 Q1000 R01/710195=
201901280700 METAR LRSM 280700Z 14006KT CAVOK 02/M03 Q0999 R01/710195=
201901280730 METAR LRSM 280730Z 10005KT 070V140 CAVOK 01/M03 Q0999 R01/710195=
201901280800 METAR LRSM 280800Z 13009KT CAVOK 03/M02 Q0999 R01/710195=
201901280830 METAR LRSM 280830Z 15006KT CAVOK 03/M02 Q0999 R01/710195=
201901280900 METAR LRSM 280900Z 14006KT CAVOK 03/M02 Q0999 R01/710195=
201901280930 METAR LRSM 280930Z 14005KT CAVOK 03/M02 Q0999 R01/29//95=
201901281000 METAR LRSM 281000Z 12006KT CAVOK 04/M02 Q0999 R01/29//95=
201901281030 METAR LRSM 281030Z 13008KT CAVOK 04/M02 Q0998 R01/29//95=
201901281100 METAR LRSM 281100Z 14007KT CAVOK 04/M02 Q0998 R01/29//95=
201901281130 METAR LRSM 281130Z 13008KT CAVOK 05/M02 Q0998 R01/29//95=
201901281200 METAR LRSM 281200Z 12008KT CAVOK 04/M02 Q0998 R01/29//95=
201901281230 METAR LRSM 281230Z 12007KT CAVOK 04/M01 Q0997 R01/29//95=
201901281300 METAR LRSM 281300Z 14003KT 080V170 CAVOK 04/M01 Q0997 R01/29//95=
201901281330 METAR LRSM 281330Z 14008KT CAVOK 05/M02 Q0997 R01/29//95=
201901281400 METAR LRSM 281400Z 13005KT CAVOK 04/M01 Q0997 R01/29//95=
201901281430 METAR LRSM 281430Z 14006KT CAVOK 05/M01 Q0997 R01/29//95=
201901281500 METAR LRSM 281500Z 14008KT CAVOK 04/M02 Q0997 R01/29//95=
201901281530 METAR LRSM 281530Z 14007KT CAVOK 04/M02 Q0997 R01/29//95=
201901281600 METAR LRSM 281600Z 13005KT CAVOK 04/M01 Q0997 R01/29//95=
201901281630 METAR LRSM 281630Z 12004KT CAVOK 03/M01 Q0997 R01/19//95=
201901281700 METAR LRSM 281700Z 16004KT CAVOK 03/M01 Q0997 R01/19//95=
201901281730 METAR LRSM 281730Z AUTO 28010KT 9999 -SN OVC060/// 02/M01
                        Q0998=
201901281800 METAR LRSM 281800Z AUTO 24007KT 9999 -SN BKN055/// OVC085///
                        03/M01 Q0998=
201901281830 METAR LRSM 281830Z AUTO 25006KT 9000 -PL BKN046/// BKN070///
                        02/M01 Q0998=
201901281900 METAR LRSM 281900Z AUTO 13003KT 100V180 7000 -PL BKN038///
                        BKN050/// 01/00 Q0998=
201901281930 METAR LRSM 281930Z AUTO 09005KT 6000 -RASN BKN036/// OVC042///
                        01/01 Q0998=
201901282000 METAR LRSM 282000Z AUTO 10007KT 6000 -RASN BKN036/// OVC044///
                        01/01 Q0998=
201901282030 METAR LRSM 282030Z AUTO 10004KT 9000 -PL BKN039/// 02/01
                        Q0999=
201901282100 METAR LRSM 282100Z AUTO 07005KT 9000 -SN BKN036/// 02/01
                        Q0999=
201901282130 METAR LRSM 282130Z AUTO VRB02KT 9000 -SN BKN032/// OVC038///
                        01/01 Q0999=
201901282200 METAR LRSM 282200Z AUTO 21004KT 170V270 5000 -PL BKN031///
                        BKN037/// 02/02 Q0999=
201901282230 METAR LRSM 282230Z AUTO 00000KT 6000 -SN SCT031/// BKN037///
                        01/01 Q0999=
201901282300 METAR LRSM 282300Z AUTO 00000KT 5000 -SN BKN030/// 01/01
                        Q1000=
201901282330 METAR LRSM 282330Z AUTO 00000KT 5000 -SN SCT026/// BKN030///
                        02/02 Q1000=
201901290000 METAR LRSM 290000Z AUTO 00000KT 6000 -SN BKN028/// BKN035///
                        02/02 Q1000=
201901290030 METAR LRSM 290030Z AUTO 00000KT 6000 -SN FEW024/// BKN035///
                        02/02 Q1000=
201901290100 METAR LRSM 290100Z AUTO 00000KT 5000 -SN SCT028/// BKN033///
                        02/02 Q1000=
201901290130 METAR LRSM 290130Z AUTO 00000KT 5000 -SN BKN027/// BKN033///
                        01/01 Q1000=
201901290200 METAR LRSM 290200Z AUTO 00000KT 7000 -SN SCT023/// BKN036///
                        02/01 Q1001=
201901290230 METAR LRSM 290230Z AUTO 00000KT 5000 -SN FEW019/// BKN026///
                        01/01 Q1001=
201901290300 METAR LRSM 290300Z AUTO 00000KT 5000 -SN BKN018/// BKN024///
                        01/01 Q1001=
201901290330 METAR LRSM 290330Z 00000KT 6000 -RA SCT018 OVC023 02/02 Q1001
                        R01/29//95=
201901290400 METAR LRSM 290400Z 18004KT 8000 -RA OVC017 02/02 Q1002 R01/29//95=
201901290430 METAR LRSM 290430Z 22004KT 7000 SCT012 OVC020 02/02 Q1002
                        R01/29//95=
201901290500 METAR LRSM 290500Z 27007KT 6000 OVC015 02/01 Q1003 R01/29//95=
201901290530 METAR LRSM 290530Z 26007KT 6000 OVC012 01/01 Q1003 R01/29//95=
201901290600 METAR LRSM 290600Z 24006KT 5000 BR FEW005 OVC014 01/01 Q1004
                        R01/29//95=
201901290630 METAR LRSM 290630Z 25006KT 3500 BR FEW005 OVC014 01/01 Q1004
                        R01/29//95=
201901290700 METAR LRSM 290700Z 26006KT 3300 BR SCT005 BKN016 01/01 Q1005
                        R01/29//95=
201901290730 METAR LRSM 290730Z 24006KT 3000 BR OVC006 01/01 Q1005 R01/29//95=
201901290800 METAR LRSM 290800Z 25006KT 3000 BR BKN005 OVC017 01/01 Q1005
                        R01/29//95=
201901290830 METAR LRSM 290830Z 24005KT 2000 BR BKN004 OVC020 01/01 Q1006
                        R01/29//95=
201901290900 METAR LRSM 290900Z 25006KT 1800 BR BKN003 OVC005 01/01 Q1006
                        R01/29//95=
201901290930 METAR LRSM 290930Z 28004KT 260V330 1200 R19/1400N BR BKN001
                        OVC002 01/01 Q1007 R01/29//95=
201901291000 METAR LRSM 291000Z 30003KT 280V350 0650 R19/0900U FG VV001
                        01/01 Q1006 R01/29//95=
201901291030 METAR LRSM 291030Z 32004KT 290V350 0800 R19/1000U FG BKN001
                        OVC003 01/01 Q1006 R01/29//95=
201901291100 METAR LRSM 291100Z VRB01KT 0700 R19/1000D FG OVC001 01/01
                        Q1006 R01/29//95=
201901291130 METAR LRSM 291130Z 13003KT 1100 R19/1300U -SN BKN001 OVC004
                        01/01 Q1006 R01/29//95=
201901291200 METAR LRSM 291200Z VRB01KT 2000 BR BKN003 OVC005 02/02 Q1006
                        R01/29//95=
201901291230 METAR LRSM 291230Z 00000KT 2500 BR BKN003 OVC006 02/01 Q1006
                        R01/29//95=
201901291300 METAR LRSM 291300Z 00000KT 2500 BR BKN005 OVC007 02/01 Q1007
                        R01/29//95=
201901291330 METAR LRSM 291330Z 00000KT 2800 BR SCT004 OVC009 02/01 Q1007
                        R01/29//95=
201901291400 METAR LRSM 291400Z 31002KT 2500 BR OVC007 01/01 Q1007 R01/29//95=
201901291430 METAR LRSM 291430Z 31002KT 2800 BR OVC008 01/01 Q1007 R01/29//95=
201901291500 METAR LRSM 291500Z 00000KT 3000 BR OVC007 01/01 Q1007 R01/29//95=
201901291530 METAR LRSM 291530Z 06002KT 2500 BR OVC007 01/01 Q1007 R01/29//95=
201901291600 METAR LRSM 291600Z 04002KT 3000 BR OVC006 01/00 Q1007 R01/29//95=
201901291630 METAR LRSM 291630Z 00000KT 3500 BR OVC007 01/01 Q1007 R01/29//95=
201901291700 METAR LRSM 291700Z 00000KT 3300 SCT008 OVC019 01/00 Q1007
                        R01/29//95=
201901291730 METAR LRSM 291730Z AUTO 05003KT 2100 -SN SCT020/// BKN140///
                        00/00 Q1007=
201901291800 METAR LRSM 291800Z AUTO 02003KT 2000 -SN BKN130/// M00/M00
                        Q1007=
201901291830 METAR LRSM 291830Z AUTO 04002KT 360V110 1600 R19/2000N -SN
                        BKN130/// M01/M01 Q1007=
201901291900 METAR LRSM 291900Z AUTO 08001KT 0200 R19/0250N -SN SCT130///
                        M01/M01 Q1007=
201901291930 METAR LRSM 291930Z AUTO 00000KT 0250 R19/0250V0400N -SN SCT120///
                        M02/M02 Q1007=
201901292000 METAR LRSM 292000Z AUTO 02002KT 0200 R19/0225V0325N -SN SCT039///
                        M02/M02 Q1007=
201901292030 METAR LRSM 292030Z AUTO 03003KT 2100 -SN BKN037/// M01/M01
                        Q1007=
201901292100 METAR LRSM 292100Z AUTO 06004KT 2400 -SN OVC038/// M01/M01
                        Q1007=
201901292130 METAR LRSM 292130Z AUTO 04003KT 2100 -SN FEW022/// BKN040///
                        M00/M00 Q1007=
201901292200 METAR LRSM 292200Z AUTO 06003KT 2200 -SN SCT020/// OVC039///
                        M00/M00 Q1006=
201901292230 METAR LRSM 292230Z AUTO VRB01KT 2200 -SN FEW020/// OVC024///
                        M00/M00 Q1006=
201901292300 METAR LRSM 292300Z AUTO 01002KT 350V050 2200 -SN BKN026///
                        OVC037/// M00/M00 Q1006=
201901292330 METAR LRSM 292330Z AUTO 08001KT 2100 -SN FEW028/// BKN100///
                        M00/M00 Q1005=
201901300000 METAR LRSM 300000Z AUTO 09002KT 010V110 2300 -SN FEW060///
                        BKN100/// M01/M01 Q1005=
201901300030 METAR LRSM 300030Z AUTO 10001KT 2000 -SN SCT060/// BKN100///
                        M01/M01 Q1005=
201901300100 METAR LRSM 300100Z AUTO 33001KT 1900 -SN FEW048/// BKN100///
                        M01/M01 Q1005=
201901300130 METAR LRSM 300130Z AUTO 00000KT 2500 -SN SCT050/// BKN100///
                        M01/M01 Q1004=
201901300200 METAR LRSM 300200Z AUTO 00000KT 2200 -SN BKN050/// BKN095///
                        M01/M01 Q1004=
201901300230 METAR LRSM 300230Z AUTO 31004KT 2100 -SN BKN049/// BKN180///
                        M01/M01 Q1004=
201901300300 METAR LRSM 300300Z AUTO 34004KT 3400 -SN SCT048/// BKN150///
                        M01/M01 Q1003=
201901300330 METAR LRSM 300330Z 33002KT 3000 BR NSC M01/M01 Q1003 R01/720294=
201901300400 METAR LRSM 300400Z 34002KT 3000 BR NSC M02/M02 Q1003 R01/720294=
201901300430 METAR LRSM 300430Z VRB02KT 2600 BR BKN046 M02/M02 Q1003 R01/720294=
201901300500 METAR COR LRSM 300500Z 11003KT 2300 BR VV002 M02/M02 Q1003
                        R01/720294=
201901300530 METAR LRSM 300530Z 11003KT 1000 R19/1400N BR VV001 M01/M01
                        Q1002 R01/720294=
201901300600 METAR LRSM 300600Z 31004KT 0500 R19/0550N FZFG VV001 M02/M02
                        Q1003 R01/720294=
201901300630 METAR LRSM 300630Z 34003KT 0450 R19/0550N FZFG VV001 M02/M02
                        Q1003 R01/720294=
201901300700 METAR LRSM 300700Z 34005KT 0550 R19/0650U FZFG VV001 M02/M02
                        Q1003 R01/720294=
201901300730 METAR LRSM 300730Z 35004KT 0200 R19/0275N FZFG VV001 M02/M02
                        Q1002 R01/720294=
201901300800 METAR LRSM 300800Z 31003KT 280V350 0200 R19/0275N FZFG VV001
                        M02/M02 Q1002 R01/720294=
201901300830 METAR LRSM 300830Z VRB02KT 0250 R19/0300N FZFG VV001 M02/M02
                        Q1002 R01/720294=
201901300900 METAR LRSM 300900Z 07002KT 0200 R19/0300N FZFG VV001 M01/M01
                        Q1002 R01/720294=
201901300930 METAR LRSM 300930Z 11003KT 090V150 0200 R19/0225N FZFG VV001
                        M01/M01 Q1003 R01/720294=
201901301000 METAR LRSM 301000Z VRB01KT 0250 R19/0300N FZFG VV001 M01/M01
                        Q1003 R01/720294=
201901301030 METAR LRSM 301030Z VRB01KT 0450 R19/0500N FZFG VV001 M00/M00
                        Q1002 R01/720294=
201901301100 METAR LRSM 301100Z VRB01KT 0700 R19/0800N FZFG VV001 M00/M00
                        Q1002 R01/720294=
201901301130 METAR LRSM 301130Z VRB02KT 1300 R19/1400N -FZRA BR BKN001
                        BKN003 M00/M00 Q1002 R01/720294=
201901301200 METAR LRSM 301200Z VRB01KT 1800 -RA BR SCT001 BKN003 00/00
                        Q1002 REFZRA R01/720294=
201901301230 METAR LRSM 301230Z VRB01KT 3000 BR FEW001 SCT020 00/00 Q1002
                        R01/720294=
201901301300 METAR LRSM 301300Z VRB01KT 3000 BR NSC 01/01 Q1002 R01/720294=
201901301330 METAR LRSM 301330Z 24003KT 3000 BR FEW034 01/01 Q1002 R01/720294=
201901301400 METAR LRSM 301400Z VRB02KT 3000 -RA OVC034 01/01 Q1002 R01/22//95=
201901301430 METAR LRSM 301430Z 28003KT 2400 -RA BR OVC031 01/00 Q1002
                        R01/22//95=
201901301500 METAR LRSM 301500Z 28003KT 2000 -RA BR OVC027 00/00 Q1002
                        R01/22//95=
201901301530 METAR LRSM 301530Z 00000KT 1800 -RA BR OVC027 00/00 Q1002
                        R01/22//95=
201901301600 METAR LRSM 301600Z 27001KT 2200 -RA BR OVC026 00/00 Q1002
                        R01/29//95=
201901301630 METAR LRSM 301630Z 22002KT 2300 -RA BR OVC025 00/00 Q1002
                        R01/29//95=
201901301700 METAR LRSM 301700Z 00000KT 2200 -RA BR OVC027 00/00 Q1002
                        R01/29//95=
201901301730 METAR LRSM 301730Z AUTO 00000KT 1800 -SN FEW011/// BKN046///
                        OVC075/// 00/00 Q1002=
201901301800 METAR LRSM 301800Z AUTO 00000KT 1900 -SN FEW029/// SCT045///
                        BKN055/// 00/00 Q1002=
201901301830 METAR LRSM 301830Z AUTO 26001KT 1700 -SN FEW001/// OVC029///
                        00/00 Q1003=
201901301900 METAR LRSM 301900Z AUTO 26003KT 2500 -SN SCT001/// BKN003///
                        BKN029/// 00/00 Q1003=
201901301930 METAR LRSM 301930Z AUTO 24003KT 2700 -SN FEW001/// BKN029///
                        OVC034/// 00/00 Q1003=
201901302000 METAR LRSM 302000Z AUTO 24003KT 2900 -SN FEW009/// BKN013///
                        OVC028/// 00/00 Q1003=
201901302030 METAR LRSM 302030Z AUTO 23003KT 3100 -SN FEW005/// SCT015///
                        OVC030/// 00/00 Q1003=
201901302100 METAR LRSM 302100Z AUTO 23003KT 3000 -SN BKN006/// BKN019///
                        00/00 Q1003=
201901302130 METAR LRSM 302130Z AUTO 21003KT 2800 -SN FEW006/// SCT016///
                        OVC020/// 00/00 Q1003=
201901302200 METAR LRSM 302200Z AUTO 24004KT 2400 -SN SCT006/// BKN015///
                        OVC019/// 00/00 Q1003=
201901302230 METAR LRSM 302230Z AUTO 25003KT 2400 -SN FEW007/// SCT014///
                        BKN019/// 00/00 Q1003=
201901302300 METAR LRSM 302300Z AUTO 20003KT 2500 -SN BKN011/// OVC016///
                        01/01 Q1003=
201901302330 METAR LRSM 302330Z AUTO 27001KT 2000 -SN FEW001/// BKN010///
                        00/00 Q1003=
201901310000 METAR LRSM 310000Z AUTO 00000KT 2100 -SN FEW001/// OVC010///
                        00/00 Q1003=
201901310030 METAR LRSM 310030Z AUTO 17002KT 1700 -SN BKN009/// BKN019///
                        00/00 Q1003=
201901310100 METAR LRSM 310100Z AUTO 21002KT 170V240 1700 -SN BKN010///
                        OVC019/// 01/01 Q1003=
201901310130 METAR LRSM 310130Z AUTO 00000KT 1700 -SN BKN011/// 00/00
                        Q1003=
201901310200 METAR LRSM 310200Z AUTO 00000KT 1100 R19/1400N -SN BKN010///
                        OVC024/// 00/00 Q1003=
201901310230 METAR LRSM 310230Z AUTO 00000KT 1200 R19/1500D -SN FEW002///
                        SCT004/// BKN010/// 00/00 Q1002=
201901310300 METAR LRSM 310300Z AUTO 27001KT 0800 R19/0900N -SN FEW005///
                        SCT011/// OVC018/// 00/00 Q1002=
201901310330 METAR LRSM 310330Z 28003KT 0600 R19/0900N FG BKN004 OVC015
                        00/00 Q1002 R01/29//95=
201901310400 METAR LRSM 310400Z 29004KT 0900 R19/1100N FG OVC003 00/00
                        Q1002 R01/29//95=
201901310430 METAR LRSM 310430Z 30004KT 0800 R19/0900D FG OVC004 00/00
                        Q1002 R01/29//95=
201901310500 METAR LRSM 310500Z 30003KT 0500 R19/0800N FG BKN004 OVC015
                        00/00 Q1002 R01/29//95=
201901310530 METAR LRSM 310530Z 28002KT 0600 R19/1100U FG OVC004 00/00
                        Q1002 R01/29//95=
201901310600 METAR LRSM 310600Z 23002KT 0600 R19/1000D FG OVC003 00/00
                        Q1002 R01/29//95=
201901310630 METAR LRSM 310630Z 23002KT 0500 R19/1000U -RA FG OVC004 00/00
                        Q1003 R01/29//95=
201901310700 METAR LRSM 310700Z 26004KT 0550 R19/0800N -SN FG FEW001 OVC005
                        00/00 Q1003 R01/29//95=
201901310730 METAR LRSM 310730Z 26003KT 0400 R19/0550N -SN FG FEW001 BKN007
                        OVC009 00/00 Q1003 R01/29//95=
201901310800 METAR LRSM 310800Z 25002KT 0500 R19/0600U FG FEW002 BKN007
                        OVC009 00/00 Q1003 R01/29//95=
201901310830 METAR COR LRSM 310830Z 00000KT 0650 R19/0900N -RASN FG SCT001
                        OVC004 01/01 Q1003 R01/29//95=
201901310900 METAR LRSM 310900Z 26004KT 0600 R19/0800U -RASN FG OVC001
                        01/01 Q1003 R01/29//95=
201901310930 METAR LRSM 310930Z VRB02KT 0700 R19/1100U FG BKN002 OVC006
                        01/01 Q1003 R01/29//95=
201901311000 METAR LRSM 311000Z 15003KT 0750 R19/1000N FG SCT005 BKN008
                        OVC023 01/01 Q1003 R01/29//95=
201901311030 METAR LRSM 311030Z 21003KT 1100 R19/1300U BR FEW001 SCT005
                        OVC009 02/02 Q1003 R01/29//95=
201901311100 METAR LRSM 311100Z 00000KT 1500 BR SCT005 OVC010 02/02 Q1003
                        R01/29//95=
201901311130 METAR LRSM 311130Z 22002KT 2500 BR SCT004 BKN010 OVC017 02/02
                        Q1003 R01/29//95=
201901311200 METAR LRSM 311200Z VRB02KT 2800 BR SCT003 BKN010 OVC019 02/02
                        Q1003 R01/29//95=
201901311230 METAR LRSM 311230Z 27005KT 1600 BR SCT004 BKN008 OVC022 02/02
                        Q1003 R01/29//95=
201901311300 METAR LRSM 311300Z 26004KT 1000 R19/1200N BR SCT002 OVC003
                        02/02 Q1003 R01/29//95=
201901311330 METAR LRSM 311330Z 28004KT 0900 R19/1200N FG OVC002 02/02
                        Q1004 R01/29//95=
201901311400 METAR LRSM 311400Z VRB02KT 1400 R19/1500U BR SCT003 BKN025
                        02/02 Q1003 R01/29//95=
201901311430 METAR LRSM 311430Z VRB01KT 2000 BR FEW003 BKN024 02/02 Q1004
                        R01/29//95=
201901311500 METAR LRSM 311500Z 18003KT 1800 BR SCT002 OVC026 02/02 Q1004
                        R01/29//95=
201901311530 METAR LRSM 311530Z 19002KT 1600 BR FEW002 OVC034 02/02 Q1004
                        R01/29//95=
201901311600 METAR LRSM 311600Z 10002KT 1600 BR BKN036 01/01 Q1004 R01/29//95=
201901311630 METAR LRSM 311630Z 05002KT 0800 R19/1000U FG SCT037 01/01
                        Q1004 R01/29//95=
201901311700 METAR LRSM 311700Z 08003KT 0300 R19/0375N FG BKN003 00/00
                        Q1004 R01/29//95=
201901311730 METAR LRSM 311730Z AUTO 08003KT 0350 R19/0400N -SN VV001
                        00/00 Q1004=
201901311800 METAR LRSM 311800Z AUTO 09003KT 0200 R19/0250N -SN VV001
                        00/00 Q1005=
201901311830 METAR LRSM 311830Z AUTO 07003KT 0200 R19/0250N -SN VV001
                        00/00 Q1005=
201901311900 METAR LRSM 311900Z AUTO 10002KT 0250 R19/0325N -SN VV001
                        00/00 Q1005=
201901311930 METAR LRSM 311930Z AUTO 10002KT 0200 R19/0250N -SN VV001
                        00/00 Q1006=
201901312000 METAR LRSM 312000Z AUTO 17002KT 110V210 0250 R19/0300N -SN
                        VV001 M00/M00 Q1006=
201901312030 METAR LRSM 312030Z AUTO 19002KT 160V230 0200 R19/0250N -SN
                        VV001 M01/M01 Q1006=
201901312100 METAR LRSM 312100Z AUTO 21001KT 0300 R19/0350N -SN VV001
                        M00/M00 Q1007=
201901312130 METAR LRSM 312130Z AUTO 00000KT 0200 R19/0250N -SN VV001
                        M00/M00 Q1007=
201901312200 METAR LRSM 312200Z AUTO 19001KT 0200 R19/0225N -SN VV001
                        M01/M01 Q1007=
201901312230 METAR LRSM 312230Z AUTO 14002KT 090V200 0250 R19/0275N -SN
                        VV001 M01/M01 Q1007=
201901312300 METAR LRSM 312300Z AUTO 12003KT 0300 R19/0375N -SN VV001
                        M00/M00 Q1008=
201901312330 METAR LRSM 312330Z AUTO 12003KT 0250 R19/0325N -SN VV001
                        M00/M00 Q1008=