201902010000 METAR LRSM 010000Z AUTO 11003KT 1200 R19/1100VP2000U -SN
                        VV002 M00/M00 Q1008=
201902010030 METAR LRSM 010030Z AUTO 12005KT 1600 R19/2000D -SN VV002
                        00/00 Q1008=
201902010100 METAR LRSM 010100Z AUTO 13005KT 0800 R19/1000D -SN VV002
                        00/00 Q1008=
201902010130 METAR LRSM 010130Z AUTO 12004KT 0900 R19/1000U -SN VV002
                        00/00 Q1008=
201902010200 METAR LRSM 010200Z AUTO 14003KT 1500 R19/1900U -SN BKN002///
                        BKN004/// 00/00 Q1008=
201902010230 METAR LRSM 010230Z AUTO 12003KT 1600 R19/2000D -SN BKN004///
                        OVC006/// 01/01 Q1008=
201902010300 METAR LRSM 010300Z AUTO 11003KT 0900 R19/1000V1400U -SN BKN005///
                        BKN007/// 01/01 Q1008=
201902010330 METAR LRSM 010330Z 11001KT 1500 -RA BR BKN006 OVC008 01/01
                        Q1009 R01/29//95=
201902010400 METAR LRSM 010400Z VRB02KT 1500 -RA BR BKN006 OVC008 01/01
                        Q1009 R01/29//95=
201902010430 METAR LRSM 010430Z 00000KT 1500 -DZ BR BKN006 OVC008 01/01
                        Q1009 R01/29//95=
201902010500 METAR LRSM 010500Z 16003KT 0800 R19/1200N -DZ FG VV002 01/01
                        Q1009 R01/29//95=
201902010530 METAR LRSM 010530Z 11003KT 0800 R19/1300U -DZ FG BKN002 OVC005
                        01/01 Q1009 R01/29//95=
201902010600 METAR LRSM 010600Z 14001KT 1500 BR BKN005 OVC007 01/01 Q1010
                        R01/29//95=
201902010630 METAR LRSM 010630Z 08002KT 1800 1000S BR BKN007 OVC015 01/01
                        Q1010 R01/29//95=
201902010700 METAR LRSM 010700Z 33001KT 0800 R19/0900D FG FEW007 BKN015
                        01/01 Q1010 R01/29//95=
201902010730 METAR LRSM 010730Z 09003KT 070V140 3000 BR FEW007 SCT020
                        02/02 Q1010 R01/29//95=
201902010800 METAR LRSM 010800Z 11004KT 4500 BR SCT025 02/02 Q1010 R01/29//95=
201902010830 METAR LRSM 010830Z 18003KT 4500 BR FEW012 02/02 Q1010 R01/29//95=
201902010900 METAR LRSM 010900Z 18003KT 5000 BR FEW012 03/03 Q1011 R01/29//95=
201902010930 METAR LRSM 010930Z 16003KT CAVOK 03/03 Q1011 R01/29//95=
201902011000 METAR LRSM 011000Z 15004KT CAVOK 03/03 Q1011 R01/29//95=
201902011030 METAR LRSM 011030Z 15004KT CAVOK 04/04 Q1010 R01/29//95=
201902011100 METAR LRSM 011100Z 14006KT CAVOK 05/03 Q1010 R01/29//95=
201902011130 METAR LRSM 011130Z VRB04KT CAVOK 05/04 Q1010 R01/29//95=
201902011200 METAR LRSM 011200Z 14006KT 9999 -RA SCT030 BKN043 05/03 Q1010
                        R01/29//95=
201902011230 METAR LRSM 011230Z 13007KT 9999 -RA BKN035 05/03 Q1010 R01/29//95=
201902011300 METAR LRSM 011300Z 13011KT 9999 FEW040 05/03 Q1009 R01/29//95=
201902011330 METAR LRSM 011330Z 12009KT CAVOK 05/02 Q1009 R01/29//95=
201902011400 METAR LRSM 011400Z 14008KT CAVOK 05/02 Q1010 R01/29//95=
201902011430 METAR LRSM 011430Z 12006KT CAVOK 05/03 Q1009 R01/29//95=
201902011500 METAR LRSM 011500Z 12007KT CAVOK 05/02 Q1009 R01/29//95=
201902011530 METAR LRSM 011530Z 14006KT CAVOK 05/02 Q1009 R01/29//95=
201902011600 METAR LRSM 011600Z 14007KT CAVOK 05/02 Q1009 R01/29//95=
201902011630 METAR LRSM 011630Z 14008KT CAVOK 05/02 Q1009 R01/29//95=
201902011700 METAR LRSM 011700Z 14009KT CAVOK 05/02 Q1009 R01/29//95=
201902011730 METAR LRSM 011730Z 13009KT CAVOK 05/01 Q1009 R01/29//95=
201902011800 METAR LRSM 011800Z AUTO 12007KT 9999 -SN BKN110/// 04/01
                        Q1009=
201902011830 METAR LRSM 011830Z AUTO 14007KT 9999 -SN SCT110/// 04/01
                        Q1009=
201902011900 METAR LRSM 011900Z AUTO 13009KT 9999 -SN SCT090/// BKN110///
                        05/01 Q1009=
201902011930 METAR LRSM 011930Z AUTO 14007KT 9999 -SN BKN110/// 05/01
                        Q1009=
201902012000 METAR LRSM 012000Z AUTO 14008KT 9999 -SN FEW110/// 05/01
                        Q1009=
201902012030 METAR LRSM 012030Z AUTO 14010KT 9999 -SN NCD 06/01 Q1009=
201902012100 METAR LRSM 012100Z AUTO 14013KT 9999 -SN NCD 06/01 Q1008=
201902012130 METAR LRSM 012130Z AUTO 15012KT 9999 -SN FEW110/// 06/00
                        Q1008=
201902012200 METAR LRSM 012200Z AUTO 16013KT 9999 -SN BKN100/// BKN120///
                        06/00 Q1008=
201902012230 METAR LRSM 012230Z AUTO 15010KT 9999 -SN FEW100/// SCT120///
                        05/M00 Q1008=
201902012300 METAR LRSM 012300Z AUTO 15010KT 9999 -SN BKN120/// 06/00
                        Q1008=
201902012330 METAR LRSM 012330Z AUTO 15012KT 9999 -SN BKN100/// OVC120///
                        06/M00 Q1008=
201902020000 METAR LRSM 020000Z AUTO 14013KT 9999 -SN SCT090/// BKN110///
                        06/M00 Q1008=
201902020030 METAR LRSM 020030Z AUTO 14011KT 9999 -SN BKN085/// OVC100///
                        06/M00 Q1008=
201902020100 METAR LRSM 020100Z AUTO 14009KT 9999 -RASN SCT065/// BKN080///
                        BKN100/// 06/00 Q1008=
201902020130 METAR LRSM 020130Z AUTO 14010KT 9999 -RASN OVC065/// 06/01
                        Q1007=
201902020200 METAR LRSM 020200Z AUTO 14011KT 9999 -SN BKN060/// 07/00
                        Q1007=
201902020230 METAR LRSM 020230Z AUTO 14012KT 9999 -SN OVC060/// 07/00
                        Q1007=
201902020300 METAR LRSM 020300Z AUTO 13009KT 9999 -SN BKN065/// 07/00
                        Q1007=
201902020330 METAR LRSM 020330Z AUTO 13010KT 9999 -SN BKN075/// BKN100///
                        07/01 Q1007=
201902020400 METAR LRSM 020400Z AUTO 14009KT 9999 -SN SCT075/// BKN100///
                        07/01 Q1007=
201902020430 METAR LRSM 020430Z AUTO 13008KT 9999 -SN FEW070/// BKN090///
                        OVC100/// 07/01 Q1007=
201902020500 METAR LRSM 020500Z 14010KT CAVOK 07/01 Q1007 R01/29//95=
201902020530 METAR LRSM 020530Z 14010KT CAVOK 07/01 Q1007 R01/29//95=
201902020600 METAR LRSM 020600Z 14011KT CAVOK 07/01 Q1007 R01/29//95=
201902020630 METAR LRSM 020630Z 14011KT CAVOK 07/01 Q1007 R01/29//95=
201902020700 METAR LRSM 020700Z 14012KT CAVOK 07/01 Q1007 R01/29//95=
201902020730 METAR LRSM 020730Z 14010KT CAVOK 08/01 Q1007 R01/29//95=
201902020800 METAR LRSM 020800Z 14011KT CAVOK 08/02 Q1007 R01/29//95=
201902020830 METAR LRSM 020830Z 14013KT CAVOK 09/01 Q1007 R01/29//95=
201902020900 METAR LRSM 020900Z 13008KT CAVOK 09/02 Q1007 R01/CLRD//=
201902020930 METAR LRSM 020930Z 14011KT CAVOK 09/02 Q1007=
201902021000 METAR LRSM 021000Z 14010KT CAVOK 09/02 Q1007=
201902021030 METAR LRSM 021030Z 14011KT CAVOK 10/02 Q1007=
201902021100 METAR LRSM 021100Z 15010KT CAVOK 10/02 Q1007=
201902021130 METAR LRSM 021130Z 14009KT CAVOK 10/03 Q1007=
201902021200 METAR LRSM 021200Z 13008KT CAVOK 11/03 Q1007=
201902021230 METAR LRSM 021230Z 13010KT CAVOK 11/03 Q1007=
201902021300 METAR LRSM 021300Z 13011KT CAVOK 11/03 Q1007=
201902021330 METAR LRSM 021330Z 14010KT CAVOK 10/03 Q1006=
201902021400 METAR LRSM 021400Z 13008KT CAVOK 10/03 Q1006=
201902021430 METAR LRSM 021430Z 13009KT CAVOK 10/02 Q1007=
201902021500 METAR LRSM 021500Z 14008KT CAVOK 10/03 Q1007=
201902021530 METAR LRSM 021530Z 12008KT CAVOK 10/02 Q1007=
201902021600 METAR LRSM 021600Z 13007KT CAVOK 10/03 Q1007=
201902021630 METAR LRSM 021630Z 13006KT CAVOK 09/03 Q1007=
201902021700 METAR LRSM 021700Z 13007KT CAVOK 09/02 Q1007=
201902021730 METAR LRSM 021730Z AUTO 13006KT 9999 -SN BKN100/// 09/02
                        Q1007=
201902021800 METAR LRSM 021800Z AUTO 13006KT 9999 -SN SCT100/// BKN120///
                        09/02 Q1007=
201902021830 METAR LRSM 021830Z AUTO 13006KT 9999 -SN SCT110/// 09/03
                        Q1007=
201902021900 METAR LRSM 021900Z AUTO 12005KT 9999 RA BKN110/// OVC120///
                        09/03 Q1008=
201902021930 METAR LRSM 021930Z AUTO 14007KT 9999 +RA OVC120/// 10/03
                        Q1008=
201902022000 METAR LRSM 022000Z AUTO 14008KT 9999 RA BKN070/// OVC120///
                        10/03 Q1008=
201902022030 METAR LRSM 022030Z AUTO 12006KT 9999 +RA OVC070/// 10/03
                        Q1008=
201902022100 METAR LRSM 022100Z AUTO 12006KT 9999 RA FEW075/// OVC100///
                        09/03 Q1008=
201902022130 METAR LRSM 022130Z AUTO 12005KT 9999 +RA FEW075/// OVC095///
                        09/04 Q1008=
201902022200 METAR LRSM 022200Z AUTO 11005KT 9999 RA SCT075/// BKN100///
                        09/04 Q1008=
201902022230 METAR LRSM 022230Z AUTO 11003KT 9999 -SN FEW075/// OVC100///
                        09/03 Q1008=
201902022300 METAR LRSM 022300Z AUTO 14004KT 110V170 9999 -SN FEW075///
                        BKN100/// 10/03 Q1008=
201902022330 METAR LRSM 022330Z AUTO 12008KT 9999 RA BKN100/// OVC120///
                        09/03 Q1008=
201902030000 METAR LRSM 030000Z AUTO 12008KT 9999 RA OVC110/// 10/03 Q1008=
201902030030 METAR LRSM 030030Z AUTO 12004KT 9999 +RA BKN110/// 09/03
                        Q1008=
201902030100 METAR LRSM 030100Z AUTO 15005KT 9999 -SN SCT110/// 09/03
                        Q1008=
201902030130 METAR LRSM 030130Z AUTO 13006KT 9999 -SN FEW095/// BKN120///
                        09/03 Q1008=
201902030200 METAR LRSM 030200Z AUTO 12003KT 9999 -SN FEW090/// 08/03
                        Q1007=
201902030230 METAR LRSM 030230Z AUTO 15003KT 9999 -SN NCD 08/03 Q1007=
201902030300 METAR LRSM 030300Z AUTO 00000KT 9999 -SN NCD 08/02 Q1008=
201902030330 METAR LRSM 030330Z AUTO 12007KT 9999 -SN NCD 08/02 Q1007=
201902030400 METAR LRSM 030400Z AUTO 12005KT 090V160 9999 -SN NCD 07/02
                        Q1007=
201902030430 METAR LRSM 030430Z AUTO 12006KT 9999 -SN FEW240/// 08/02
                        Q1007=
201902030500 METAR LRSM 030500Z AUTO 12005KT 9999 -SN FEW240/// 08/02
                        Q1007=
201902030530 METAR LRSM 030530Z AUTO 12007KT 9999 -SN FEW240/// 08/02
                        Q1007=
201902030600 METAR LRSM 030600Z AUTO 13006KT 9999 -SN NCD 08/02 Q1007=
201902030630 METAR LRSM 030630Z AUTO 14008KT 9999 -SN SCT240/// 10/02
                        Q1008=
201902030700 METAR LRSM 030700Z AUTO 13007KT 9999 RA BKN230/// 10/03 Q1008=
201902030730 METAR LRSM 030730Z AUTO 13010KT 9999 RA BKN120/// 11/03 Q1008=
201902030800 METAR LRSM 030800Z AUTO 13009KT 9999 RA SCT110/// BKN140///
                        12/03 Q1008=
201902030830 METAR LRSM 030830Z AUTO 13010KT 9999 RA SCT140/// BKN200///
                        12/03 Q1008=
201902030900 METAR LRSM 030900Z AUTO 14008KT 9999 +RA FEW130/// BKN160///
                        13/04 Q1008=
201902030930 METAR LRSM 030930Z AUTO 13012KT 9999 +RA FEW160/// 13/03
                        Q1008=
201902031000 METAR LRSM 031000Z AUTO 13009KT 9999 RA FEW150/// 13/03 Q1008=
201902031030 METAR LRSM 031030Z AUTO 14013KT 9999 +RA NCD 14/03 Q1008=
201902031100 METAR LRSM 031100Z AUTO 13007KT 9999 RA FEW230/// 14/05 Q1008=
201902031130 METAR LRSM 031130Z AUTO 13010KT 9999 FEW130/// BKN150///
                        14/04 Q1007 RERA=
201902031200 METAR LRSM 031200Z AUTO 14008KT 9999 SCT120/// BKN140///
                        14/04 Q1007=
201902031230 METAR LRSM 031230Z AUTO 15008KT 9999 BKN130/// 14/03 Q1007=
201902031300 METAR LRSM 031300Z AUTO 14011KT 9999 BKN130/// 14/03 Q1007=
201902031330 METAR LRSM 031330Z AUTO 12005KT 090V160 9999 SCT130/// BKN150///
                        14/03 Q1007=
201902031400 METAR LRSM 031400Z AUTO 13008KT 9999 SCT120/// BKN150///
                        13/03 Q1007=
201902031430 METAR LRSM 031430Z AUTO 13011KT 9999 FEW100/// OVC120///
                        13/03 Q1006=
201902031500 METAR LRSM 031500Z AUTO 13010KT 9999 FEW120/// SCT130///
                        BKN160/// 13/03 Q1006=
201902031530 METAR LRSM 031530Z AUTO 16008KT 9999 FEW130/// BKN180///
                        13/02 Q1007=
201902031600 METAR LRSM 031600Z AUTO 21004KT 140V310 9999 FEW110/// SCT240///
                        12/03 Q1007=
201902031630 METAR LRSM 031630Z AUTO VRB01KT 9999 FEW130/// 10/03 Q1007=
201902031700 METAR LRSM 031700Z AUTO VRB01KT 9999 FEW170/// SCT240///
                        11/02 Q1007=
201902031730 METAR LRSM 031730Z AUTO 00000KT 9999 BKN180/// BKN240///
                        10/03 Q1007=
201902031800 METAR LRSM 031800Z AUTO 17010KT 9999 FEW120/// BKN220///
                        12/03 Q1008=
201902031830 METAR LRSM 031830Z AUTO 17012KT 9999 OVC110/// 12/03 Q1008=
201902031900 METAR LRSM 031900Z AUTO 26008KT 9999 BKN110/// 11/04 Q1010=
201902031930 METAR LRSM 031930Z AUTO 19003KT 9999 FEW110/// BKN140///
                        09/04 Q1010=
201902032000 METAR LRSM 032000Z AUTO 21007KT 9999 OVC130/// 09/04 Q1012=
201902032030 METAR LRSM 032030Z AUTO 23006KT 9999 BKN090/// BKN120///
                        09/04 Q1012=
201902032100 METAR LRSM 032100Z AUTO 17006KT 9999 BKN085/// BKN110///
                        08/04 Q1012=
201902032130 METAR LRSM 032130Z AUTO 16010KT 9999 FEW085/// SCT100///
                        BKN120/// 10/04 Q1012=
201902032200 METAR LRSM 032200Z AUTO 18012KT 9999 BKN085/// OVC110///
                        12/04 Q1013=
201902032230 METAR LRSM 032230Z AUTO 20008KT 9999 -SHRA SCT090/// BKN100///
                        10/05 Q1013=
201902032300 METAR LRSM 032300Z AUTO 22008KT 9999 SCT100/// BKN110///
                        11/04 Q1014=
201902032330 METAR LRSM 032330Z AUTO 24005KT 9999 NCD 09/04 Q1015=
201902040000 METAR LRSM 040000Z AUTO 25006KT 9999 NCD 08/04 Q1015=
201902040030 METAR LRSM 040030Z AUTO 27009KT 9999 FEW046/// 08/05 Q1016=
201902040100 METAR LRSM 040100Z AUTO 27012KT 9999 NCD 08/05 Q1016=
201902040130 METAR LRSM 040130Z AUTO 26008KT 9999 NCD 07/05 Q1017=
201902040200 METAR LRSM 040200Z AUTO 19002KT 130V250 9999 NCD 06/05 Q1018=
201902040230 METAR LRSM 040230Z AUTO 22007KT 180V240 9999 FEW025/// 07/06
                        Q1018=
201902040300 METAR LRSM 040300Z AUTO 21006KT 9999 FEW027/// 06/05 Q1019=
201902040330 METAR LRSM 040330Z 27005KT 9999 FEW012 06/05 Q1019=
201902040400 METAR LRSM 040400Z 26010KT 8000 SCT009 06/05 Q1019=
201902040430 METAR LRSM 040430Z 27005KT 6000 FEW010 05/05 Q1019=
201902040500 METAR LRSM 040500Z 26008KT 5000 BR FEW003 04/04 Q1020=
201902040530 METAR LRSM 040530Z 26006KT 220V280 6000 FEW003 05/05 Q1020=
201902040600 METAR LRSM 040600Z 20006KT 170V260 3000 BR SCT005 05/05 Q1021
                        R01/19//95=
201902040630 METAR LRSM 040630Z 25007KT 9999 OVC007 04/03 Q1022 R01/19//95=
201902040700 METAR LRSM 040700Z 27009KT 9999 OVC007 04/03 Q1022 R01/19//95=
201902040730 METAR LRSM 040730Z 28009KT 9999 OVC007 04/03 Q1023 R01/19//95=
201902040800 METAR LRSM 040800Z 26007KT 9999 OVC007 04/03 Q1023 R01/CLRD//=
201902040830 METAR LRSM 040830Z 26007KT 9999 OVC008 04/03 Q1024=
201902040900 METAR LRSM 040900Z 25009KT 9999 OVC008 04/02 Q1024=
201902040930 METAR LRSM 040930Z 26009KT 9999 OVC009 04/02 Q1025=
201902041000 METAR LRSM 041000Z 28006KT 9999 OVC011 04/02 Q1025=
201902041030 METAR LRSM 041030Z 27006KT 250V310 9999 OVC011 05/02 Q1025=
201902041100 METAR LRSM 041100Z 21003KT 170V260 9999 OVC013 05/02 Q1025=
201902041130 METAR LRSM 041130Z 22005KT 190V250 9999 OVC014 05/02 Q1026=
201902041200 METAR LRSM 041200Z 24005KT 200V280 9999 OVC015 05/02 Q1026=
201902041230 METAR LRSM 041230Z 23004KT 200V270 9999 SCT018 05/02 Q1026=
201902041300 METAR LRSM 041300Z 24003KT 200V270 9999 BKN016 05/02 Q1026=
201902041330 METAR LRSM 041330Z 25004KT 220V280 9999 BKN015 05/02 Q1026=
201902041400 METAR LRSM 041400Z 26004KT 9999 BKN013 05/02 Q1026=
201902041430 METAR LRSM 041430Z 26003KT 9999 BKN013 05/02 Q1026=
201902041500 METAR LRSM 041500Z 24005KT 9999 BKN013 05/03 Q1026=
201902041530 METAR LRSM 041530Z 25007KT 9999 BKN013 05/03 Q1027=
201902041600 METAR LRSM 041600Z 30003KT 9999 BKN010 05/03 Q1027=
201902041630 METAR LRSM 041630Z 32003KT 9999 OVC010 04/03 Q1027=
201902041700 METAR LRSM 041700Z 00000KT 9999 OVC013 04/03 Q1028=
201902041730 METAR LRSM 041730Z AUTO 00000KT 8000 OVC015/// 04/03 Q1028=
201902041800 METAR LRSM 041800Z AUTO 04001KT 8000 BKN014/// 04/03 Q1028=
201902041830 METAR LRSM 041830Z AUTO 08001KT 8000 OVC014/// 04/03 Q1028=
201902041900 METAR LRSM 041900Z AUTO 31004KT 6000 BKN013/// 04/03 Q1028=
201902041930 METAR LRSM 041930Z AUTO VRB01KT 6000 BKN013/// 04/03 Q1028=
201902042000 METAR LRSM 042000Z AUTO 28002KT 6000 FEW005/// OVC013///
                        04/03 Q1028=
201902042030 METAR LRSM 042030Z AUTO 28002KT 250V320 6000 FEW009/// BKN012///
                        04/03 Q1028=
201902042100 METAR LRSM 042100Z AUTO 31003KT 5000 BR OVC012/// 04/03 Q1028=
201902042130 METAR LRSM 042130Z AUTO 24002KT 5000 BR OVC013/// 04/03 Q1028=
201902042200 METAR LRSM 042200Z AUTO 25001KT 6000 OVC014/// 04/03 Q1028=
201902042230 METAR LRSM 042230Z AUTO 00000KT 5000 BR OVC013/// 04/03 Q1028=
201902042300 METAR LRSM 042300Z AUTO 00000KT 5000 BR OVC012/// 04/03 Q1028=
201902042330 METAR LRSM 042330Z AUTO 00000KT 5000 BR OVC013/// 03/03 Q1028=
201902050000 METAR LRSM 050000Z AUTO 00000KT 5000 BR OVC013/// 03/03 Q1028=
201902050030 METAR LRSM 050030Z AUTO 00000KT 5000 BR OVC013/// 03/03 Q1028=
201902050100 METAR LRSM 050100Z AUTO 00000KT 5000 BR OVC016/// 03/03 Q1028=
201902050130 METAR LRSM 050130Z AUTO 00000KT 4700 BR BKN014/// 03/03 Q1028=
201902050200 METAR LRSM 050200Z AUTO 33001KT 5000 BR FEW008/// OVC016///
                        03/03 Q1027=
201902050230 METAR LRSM 050230Z AUTO 32002KT 300V360 6000 SCT006/// BKN008///
                        OVC016/// 03/03 Q1027=
201902050300 METAR LRSM 050300Z AUTO 00000KT 5000 BR FEW005/// BKN012///
                        OVC015/// 03/03 Q1027=
201902050330 METAR LRSM 050330Z 02002KT 9999 FEW005 OVC013 03/03 Q1027=
201902050400 METAR LRSM 050400Z 01002KT 9999 OVC013 03/02 Q1027=
201902050430 METAR LRSM 050430Z 01001KT 9999 OVC012 03/02 Q1027=
201902050500 METAR LRSM 050500Z VRB02KT 9999 OVC012 03/02 Q1027=
201902050530 METAR LRSM 050530Z 01002KT 9999 OVC012 03/02 Q1027=
201902050600 METAR LRSM 050600Z 01002KT 9999 OVC012 03/02 Q1027=
201902050630 METAR LRSM 050630Z 35002KT 8000 SCT003 OVC013 03/03 Q1027=
201902050700 METAR LRSM 050700Z 33001KT 7000 FEW003 OVC012 03/03 Q1028=
201902050730 METAR LRSM 050730Z 36004KT 9000 -RA BKN012 OVC022 03/02 Q1028=
201902050800 METAR LRSM 050800Z 07004KT 7000 -RA SCT011 BKN020 03/03 Q1027=
201902050830 METAR LRSM 050830Z 06004KT 7000 -RA SCT005 SCT020 04/03 Q1027=
201902050900 METAR LRSM 050900Z 01004KT 7000 -RA BKN006 04/03 Q1027 R01/19//95=
201902050930 METAR LRSM 050930Z 02003KT 350V060 6000 -RA BKN009 04/04
                        Q1027 R01/19//95=
201902051000 METAR LRSM 051000Z 06004KT 7000 -RA BKN006 04/03 Q1027 R01/19//95=
201902051030 METAR LRSM 051030Z 04004KT 7000 BKN007 05/04 Q1027 R01/19//95=
201902051100 METAR LRSM 051100Z 01004KT 8000 BKN007 05/03 Q1027 R01/19//95=
201902051130 METAR LRSM 051130Z 01004KT 330V040 7000 BKN008 05/04 Q1026
                        R01/19//95=
201902051200 METAR LRSM 051200Z 01006KT 340V040 7000 BKN008 05/04 Q1026
                        R01/19//95=
201902051230 METAR LRSM 051230Z 34003KT 300V010 7000 BKN007 05/04 Q1027
                        R01/19//95=
201902051300 METAR LRSM 051300Z 32005KT 6000 -RA OVC007 05/04 Q1026 R01/19//95=
201902051330 METAR LRSM 051330Z 34005KT 7000 BKN007 05/04 Q1026 R01/19//95=
201902051400 METAR LRSM 051400Z VRB02KT 7000 -RA BKN008 05/04 Q1026 R01/19//95=
201902051430 METAR LRSM 051430Z VRB02KT 6000 -RA FEW008 05/04 Q1026 R01/19//95=
201902051500 METAR LRSM 051500Z 32002KT 6000 -RA SCT038 05/04 Q1026 R01/19//95=
201902051530 METAR LRSM 051530Z 29003KT 6000 FEW009 SCT048 05/04 Q1026
                        R01/19//95=
201902051600 METAR LRSM 051600Z 32003KT 5000 -RA BR SCT010 05/04 Q1026
                        R01/29//95=
201902051630 METAR LRSM 051630Z 31002KT 5000 -RA BR BKN010 04/04 Q1026
                        R01/29//95=
201902051700 METAR LRSM 051700Z 33003KT 8000 SCT008 OVC010 04/04 Q1026
                        R01/29//95=
201902051730 METAR LRSM 051730Z AUTO 30004KT 5000 -SN BKN009/// OVC011///
                        04/04 Q1026=
201902051800 METAR LRSM 051800Z AUTO 31004KT 4600 -SHSN FEW010/// SCT075///
                        BKN095/// 04/03 Q1026=
201902051830 METAR LRSM 051830Z AUTO 30005KT 4400 FEW011/// BKN090///
                        03/03 Q1026 RESN=
201902051900 METAR LRSM 051900Z AUTO 30006KT 4800 BR FEW013/// BKN090///
                        BKN110/// 03/03 Q1026=
201902051930 METAR LRSM 051930Z AUTO 30004KT 4800 BR FEW036/// SCT041///
                        OVC080/// 03/03 Q1026=
201902052000 METAR LRSM 052000Z AUTO 29004KT 5000 BR BKN041/// BKN075///
                        03/03 Q1026=
201902052030 METAR LRSM 052030Z AUTO 28004KT 5000 BR BKN042/// OVC055///
                        03/03 Q1026=
201902052100 METAR LRSM 052100Z AUTO 30006KT 6000 BKN045/// 03/03 Q1026
                        RERA=
201902052130 METAR LRSM 052130Z AUTO 30005KT 5000 -SHRA SCT050/// BKN075///
                        03/03 Q1025=
201902052200 METAR LRSM 052200Z AUTO 31005KT 5000 BKN070/// 03/03 Q1026
                        RERA=
201902052230 METAR LRSM 052230Z AUTO 30004KT 5000 BR BKN075/// BKN110///
                        03/03 Q1025=
201902052300 METAR LRSM 052300Z AUTO 25004KT 5000 BKN110/// 02/02 Q1025
                        RERA=
201902052330 METAR LRSM 052330Z AUTO 23004KT 6000 BKN110/// 03/02 Q1025
                        RERA=
201902060000 METAR LRSM 060000Z AUTO 27005KT 4500 BR FEW110/// 01/01 Q1025=
201902060030 METAR LRSM 060030Z AUTO 28004KT 2900 BR NCD 01/01 Q1026=
201902060100 METAR LRSM 060100Z AUTO 29005KT 2800 BR NCD 00/00 Q1025=
201902060130 METAR LRSM 060130Z AUTO VRB01KT 2200 R19/1900VP2000D BR NCD
                        00/00 Q1025=
201902060200 METAR LRSM 060200Z AUTO 20004KT 0350 R19/0325V0500D FZFG
                        NCD M00/M00 Q1025=
201902060230 METAR LRSM 060230Z AUTO 20003KT 0400 R19/0500U FZFG NCD M00/M00
                        Q1025=
201902060300 METAR LRSM 060300Z AUTO 21004KT 0400 R19/0500D BCFG NCD M00/M00
                        Q1025=
201902060330 METAR LRSM 060330Z 24004KT 1500 BR NSC M00/M00 Q1025 R01/22//95=
201902060400 METAR LRSM 060400Z 26005KT 1500 BR NSC M01/M01 Q1025 R01/22//95=
201902060430 METAR LRSM 060430Z 31004KT 2500 BR NSC M01/M01 Q1025 R01/22//95=
201902060500 METAR LRSM 060500Z 31004KT 4000 BR NSC M01/M01 Q1025 R01/22//95=
201902060530 METAR LRSM 060530Z 28003KT 4000 BR NSC M02/M02 Q1025 R01/22//95=
201902060600 METAR LRSM 060600Z 31004KT 3500 BR NSC M02/M02 Q1025 R01/22//95=
201902060630 METAR LRSM 060630Z 34004KT 3500 BR NSC M01/M01 Q1026 R01/35//94=
201902060700 METAR LRSM 060700Z 32002KT 4000 BR NSC M01/M01 Q1026 R01/35//94=
201902060730 METAR LRSM 060730Z 33003KT 4500 BR NSC M00/M00 Q1026 R01/35//94=
201902060800 METAR LRSM 060800Z 34004KT 4000 BR SCT004 00/00 Q1026 R01/19//95=
201902060830 METAR LRSM 060830Z 33003KT 300V030 5000 BR FEW004 01/01 Q1026
                        R01/19//95=
201902060900 METAR LRSM 060900Z 35004KT 300V020 9999 FEW005 03/M00 Q1026
                        R01/19//95=
201902060930 METAR LRSM 060930Z 35006KT CAVOK 04/M00 Q1026 R01/19//95=
201902061000 METAR LRSM 061000Z 35006KT 330V040 CAVOK 05/M00 Q1026 R01/19//95=
201902061030 METAR LRSM 061030Z 35010KT CAVOK 05/M00 Q1025 R01/19//95=
201902061100 METAR LRSM 061100Z 34010KT CAVOK 06/00 Q1025 R01/19//95=
201902061130 METAR LRSM 061130Z 36011KT CAVOK 06/M01 Q1025 R01/19//95=
201902061200 METAR LRSM 061200Z 36010KT CAVOK 07/M00 Q1025 R01/19//95=
201902061230 METAR LRSM 061230Z 33011KT 300V010 CAVOK 07/M01 Q1024 R01/19//95=
201902061300 METAR LRSM 061300Z 34012KT CAVOK 06/M01 Q1024 R01/CLRD//=
201902061330 METAR LRSM 061330Z 34010KT CAVOK 07/M00 Q1024=
201902061400 METAR LRSM 061400Z 35009KT CAVOK 07/M01 Q1024=
201902061430 METAR LRSM 061430Z 34010KT CAVOK 06/M00 Q1024=
201902061500 METAR LRSM 061500Z 34008KT CAVOK 05/M01 Q1024=
201902061530 METAR LRSM 061530Z 35009KT CAVOK 04/M02 Q1024=
201902061600 METAR LRSM 061600Z 33006KT CAVOK 02/M02 Q1024=
201902061630 METAR LRSM 061630Z 34007KT CAVOK 02/M02 Q1024=
201902061700 METAR LRSM 061700Z 33006KT CAVOK 01/M03 Q1024=
201902061730 METAR LRSM 061730Z AUTO 33006KT 9999 NCD 00/M03 Q1024=
201902061800 METAR LRSM 061800Z AUTO 34006KT 9999 NCD 00/M03 Q1025=
201902061830 METAR LRSM 061830Z AUTO 22003KT 170V250 9999 NCD M01/M03
                        Q1025=
201902061900 METAR LRSM 061900Z AUTO 19003KT 9999 NCD M02/M03 Q1025=
201902061930 METAR LRSM 061930Z AUTO 00000KT 9999 NCD M01/M03 Q1025=
201902062000 METAR LRSM 062000Z AUTO 26004KT 9999 NCD M02/M03 Q1025=
201902062030 METAR LRSM 062030Z AUTO 23002KT 170V270 9999 NCD M02/M02
                        Q1025=
201902062100 METAR LRSM 062100Z AUTO 24002KT 190V250 9999 NCD M02/M03
                        Q1025=
201902062130 METAR LRSM 062130Z AUTO 20003KT 8000 NCD M02/M03 Q1025=
201902062200 METAR LRSM 062200Z AUTO 17003KT 9999 NCD M02/M02 Q1025=
201902062230 METAR LRSM 062230Z AUTO 18002KT 9999 NCD M03/M03 Q1026=
201902062300 METAR LRSM 062300Z AUTO 19003KT 9000 -SHSN NCD M03/M03 Q1025=
201902062330 METAR LRSM 062330Z AUTO 19004KT 8000 NCD M03/M03 Q1025 RESN=
201902070000 METAR LRSM 070000Z AUTO 16002KT 7000 NCD M03/M03 Q1025=
201902070030 METAR LRSM 070030Z AUTO 09004KT 9000 NCD M03/M03 Q1025=
201902070100 METAR LRSM 070100Z AUTO 09003KT 9999 NCD M04/M04 Q1025=
201902070130 METAR LRSM 070130Z AUTO 09005KT 9999 NCD M04/M04 Q1025=
201902070200 METAR LRSM 070200Z AUTO 10005KT 9999 SCT033/// M03/M03 Q1025=
201902070230 METAR LRSM 070230Z AUTO 09004KT 9999 FEW033/// M03/M03 Q1024=
201902070300 METAR LRSM 070300Z AUTO 07004KT 6000 NCD M04/M04 Q1024=
201902070330 METAR LRSM 070330Z 08006KT CAVOK M03/M04 Q1024=
201902070400 METAR LRSM 070400Z 08005KT CAVOK M03/M03 Q1024=
201902070430 METAR LRSM 070430Z 09005KT CAVOK M03/M03 Q1024=
201902070500 METAR LRSM 070500Z 12005KT CAVOK M03/M03 Q1024=
201902070530 METAR LRSM 070530Z 09005KT CAVOK M02/M03 Q1024=
201902070600 METAR LRSM 070600Z 09006KT CAVOK M03/M03 Q1024=
201902070630 METAR LRSM 070630Z 10006KT CAVOK M02/M03 Q1024=
201902070700 METAR LRSM 070700Z 11003KT CAVOK M01/M02 Q1024=
201902070730 METAR LRSM 070730Z 08005KT 9999 FEW035 M01/M01 Q1024=
201902070800 METAR LRSM 070800Z 07004KT 9999 BKN035 00/M01 Q1025=
201902070830 METAR LRSM 070830Z 08004KT 9999 FEW024 BKN039 01/M01 Q1025=
201902070900 METAR LRSM 070900Z 07004KT 9999 SCT022 BKN040 02/00 Q1024=
201902070930 METAR LRSM 070930Z 05003KT 9999 SCT022 BKN040 02/00 Q1024=
201902071000 METAR LRSM 071000Z 08003KT 040V150 9999 FEW022 BKN040 04/01
                        Q1024=
201902071030 METAR LRSM 071030Z VRB02KT 9999 BKN040 05/M01 Q1024=
201902071100 METAR LRSM 071100Z 00000KT 9999 BKN041 05/M00 Q1024=
201902071130 METAR LRSM 071130Z VRB02KT 9999 BKN040 05/M01 Q1024=
201902071200 METAR LRSM 071200Z 20003KT 150V240 9999 BKN041 06/M01 Q1023=
201902071230 METAR LRSM 071230Z 17003KT 140V210 9999 BKN041 06/M01 Q1023=
201902071300 METAR LRSM 071300Z 12006KT 9999 BKN043 06/M00 Q1023=
201902071330 METAR LRSM 071330Z 10005KT 9999 BKN042 06/00 Q1023=
201902071400 METAR LRSM 071400Z 12007KT 9999 BKN042 06/M01 Q1023=
201902071430 METAR LRSM 071430Z 13005KT 9999 BKN043 06/M01 Q1023=
201902071500 METAR LRSM 071500Z 12005KT 9999 BKN042 05/M01 Q1022=
201902071530 METAR LRSM 071530Z 16004KT 9999 BKN040 05/M01 Q1022=
201902071600 METAR LRSM 071600Z 23005KT 9999 BKN040 04/M01 Q1022=
201902071630 METAR LRSM 071630Z 26006KT 9999 BKN040 04/02 Q1022=
201902071700 METAR LRSM 071700Z 26003KT 9999 BKN038 03/02 Q1022=
201902071730 METAR LRSM 071730Z AUTO 00000KT 6000 OVC034/// 03/02 Q1022=
201902071800 METAR LRSM 071800Z AUTO 24003KT 7000 BKN034/// 03/02 Q1022=
201902071830 METAR LRSM 071830Z AUTO 20002KT 160V230 6000 BKN035/// 03/02
                        Q1022=
201902071900 METAR LRSM 071900Z AUTO 18002KT 6000 OVC037/// 03/02 Q1022=
201902071930 METAR LRSM 071930Z AUTO 11003KT 5000 BR BKN037/// 02/01 Q1022=
201902072000 METAR LRSM 072000Z AUTO 00000KT 6000 BKN037/// 02/02 Q1022=
201902072030 METAR LRSM 072030Z AUTO 00000KT 6000 BKN038/// 02/01 Q1022=
201902072100 METAR LRSM 072100Z AUTO 00000KT 5000 BR BKN038/// 01/01 Q1022=
201902072130 METAR LRSM 072130Z AUTO 00000KT 5000 BR BKN038/// 01/01 Q1022=
201902072200 METAR LRSM 072200Z AUTO 00000KT 4900 BR OVC040/// 01/01 Q1022=
201902072230 METAR LRSM 072230Z AUTO 00000KT 4400 BR BKN039/// 01/01 Q1022=
201902072300 METAR LRSM 072300Z AUTO 00000KT 5000 BR OVC039/// 01/01 Q1022=
201902072330 METAR LRSM 072330Z AUTO 00000KT 6000 BKN039/// 00/00 Q1022=
201902080000 METAR LRSM 080000Z AUTO 00000KT 7000 OVC039/// 00/00 Q1022=
201902080030 METAR LRSM 080030Z AUTO 00000KT 7000 BKN039/// 00/00 Q1021=
201902080100 METAR LRSM 080100Z AUTO 07002KT 8000 OVC039/// 00/00 Q1021=
201902080130 METAR LRSM 080130Z AUTO 08004KT 9999 OVC039/// 00/M00 Q1021=
201902080200 METAR LRSM 080200Z AUTO 03003KT 9999 OVC039/// 00/M00 Q1021=
201902080230 METAR LRSM 080230Z AUTO 00000KT 9000 OVC038/// 00/M00 Q1021=
201902080300 METAR LRSM 080300Z AUTO 00000KT 8000 BKN040/// 00/M00 Q1021=
201902080330 METAR LRSM 080330Z 00000KT 8000 BKN040 00/M01 Q1021=
201902080400 METAR LRSM 080400Z 00000KT 7000 BKN040 M00/M01 Q1021=
201902080430 METAR LRSM 080430Z 00000KT 6000 BKN040 M00/M01 Q1021=
201902080500 METAR LRSM 080500Z 00000KT 6000 BKN040 M00/M01 Q1021=
201902080530 METAR LRSM 080530Z 00000KT 6000 OVC039 M00/M00 Q1021=
201902080600 METAR LRSM 080600Z 00000KT 6000 OVC039 M00/M00 Q1021=
201902080630 METAR LRSM 080630Z 00000KT 5000 BR OVC038 00/M00 Q1022=
201902080700 METAR LRSM 080700Z 00000KT 6000 OVC039 00/00 Q1022=
201902080730 METAR LRSM 080730Z 00000KT 7000 OVC037 01/M00 Q1022=
201902080800 METAR LRSM 080800Z 00000KT 7000 OVC038 01/00 Q1022=
201902080830 METAR LRSM 080830Z 00000KT 8000 OVC036 02/00 Q1022=
201902080900 METAR LRSM 080900Z 00000KT 8000 OVC037 02/00 Q1022=
201902080930 METAR LRSM 080930Z VRB02KT 9999 OVC038 03/00 Q1023=
201902081000 METAR LRSM 081000Z VRB02KT 8000 OVC037 03/00 Q1023=
201902081030 METAR LRSM 081030Z VRB01KT 8000 OVC037 04/01 Q1022=
201902081100 METAR LRSM 081100Z 07003KT 030V120 9999 OVC038 04/00 Q1022=
201902081130 METAR LRSM 081130Z VRB02KT 9999 OVC038 04/M01 Q1022=
201902081200 METAR LRSM 081200Z 01003KT 330V060 9999 FEW024 OVC037 05/M01
                        Q1022=
201902081230 METAR LRSM 081230Z 35004KT 310V040 9999 FEW025 OVC037 05/M02
                        Q1022=
201902081300 METAR LRSM 081300Z 31005KT 270V340 9999 OVC033 05/M03 Q1022=
201902081330 METAR LRSM 081330Z 33003KT 280V010 9999 OVC031 04/M02 Q1022=
201902081400 METAR LRSM 081400Z 34003KT 9999 OVC032 04/M02 Q1022=
201902081430 METAR LRSM 081430Z 35004KT 9999 OVC033 04/M02 Q1022=
201902081500 METAR LRSM 081500Z 35004KT 9999 OVC034 04/M01 Q1022=
201902081530 METAR LRSM 081530Z 01003KT 9999 OVC036 04/M02 Q1022=
201902081600 METAR LRSM 081600Z 02003KT 9999 OVC036 03/M02 Q1022=
201902081630 METAR LRSM 081630Z 00000KT 9999 OVC034 03/M02 Q1022=
201902081700 METAR LRSM 081700Z 00000KT 9999 OVC035 03/M03 Q1022=
201902081730 METAR LRSM 081730Z AUTO 00000KT 9999 OVC036/// 03/M03 Q1022=
201902081800 METAR LRSM 081800Z AUTO 24002KT 200V260 9999 BKN036/// 03/M02
                        Q1022=
201902081830 METAR LRSM 081830Z AUTO 09001KT 9999 OVC036/// 03/M02 Q1022=
201902081900 METAR LRSM 081900Z AUTO VRB02KT 9999 OVC036/// 03/M03 Q1022=
201902081930 METAR LRSM 081930Z AUTO 24002KT 9999 OVC036/// 03/M02 Q1022=
201902082000 METAR LRSM 082000Z AUTO 17003KT 9999 OVC036/// 02/M02 Q1022=
201902082030 METAR LRSM 082030Z AUTO 25003KT 210V340 9999 OVC036/// 03/M02
                        Q1022=
201902082100 METAR LRSM 082100Z AUTO 24001KT 9999 OVC036/// 03/M03 Q1022=
201902082130 METAR LRSM 082130Z AUTO 20004KT 9999 OVC036/// 02/M02 Q1022=
201902082200 METAR LRSM 082200Z AUTO 18005KT 9999 OVC037/// 02/M02 Q1022=
201902082230 METAR LRSM 082230Z AUTO 17005KT 9999 OVC036/// 03/M03 Q1022=
201902082300 METAR LRSM 082300Z AUTO 16005KT 9999 OVC037/// 02/M02 Q1022=
201902082330 METAR LRSM 082330Z AUTO 00000KT 9999 OVC037/// 02/M02 Q1022=
201902090000 METAR LRSM 090000Z AUTO 00000KT 9999 OVC037/// 02/M02 Q1022=
201902090030 METAR LRSM 090030Z AUTO 13003KT 9999 OVC038/// 03/M03 Q1022=
201902090100 METAR LRSM 090100Z AUTO 17001KT 9999 OVC038/// 02/M02 Q1022=
201902090130 METAR LRSM 090130Z AUTO 08003KT 9999 BKN039/// 02/M02 Q1022=
201902090200 METAR LRSM 090200Z AUTO 07001KT 9999 OVC038/// 02/M02 Q1022=
201902090230 METAR LRSM 090230Z AUTO 10004KT 9999 BKN039/// 01/M01 Q1022=
201902090300 METAR LRSM 090300Z AUTO 09003KT 040V110 9999 OVC038/// 01/M01
                        Q1021=
201902090330 METAR LRSM 090330Z AUTO 12002KT 9999 BKN038/// 01/M02 Q1021=
201902090400 METAR LRSM 090400Z AUTO 12002KT 9999 OVC038/// 02/M02 Q1021=
201902090430 METAR LRSM 090430Z AUTO 00000KT 9999 BKN037/// 01/M02 Q1021=
201902090500 METAR LRSM 090500Z 00000KT 9999 OVC037 01/M02 Q1021=
201902090530 METAR LRSM 090530Z 00000KT 9999 OVC037 02/M02 Q1021=
201902090600 METAR LRSM 090600Z 00000KT 9999 OVC037 01/M02 Q1021=
201902090630 METAR LRSM 090630Z 00000KT 9999 BKN038 01/M02 Q1021=
201902090700 METAR LRSM 090700Z 00000KT 9999 BKN038 02/M01 Q1021=
201902090730 METAR LRSM 090730Z 00000KT 9999 BKN037 02/M02 Q1022=
201902090800 METAR LRSM 090800Z VRB02KT 9999 OVC038 02/M02 Q1022=
201902090830 METAR LRSM 090830Z 19003KT 9999 OVC038 03/M02 Q1022=
201902090900 METAR LRSM 090900Z 19004KT 9999 OVC038 03/M03 Q1022=
201902090930 METAR LRSM 090930Z 21004KT 190V250 9999 OVC038 03/M03 Q1022=
201902091000 METAR LRSM 091000Z 24005KT 9999 OVC038 04/M03 Q1022=
201902091030 METAR LRSM 091030Z 25005KT 220V280 9999 OVC038 04/M03 Q1022=
201902091100 METAR LRSM 091100Z 20004KT 170V230 9999 OVC036 04/M04 Q1022=
201902091130 METAR LRSM 091130Z 24005KT 220V280 9999 OVC034 04/M05 Q1021=
201902091200 METAR LRSM 091200Z 21005KT 190V250 9999 BKN035 04/M04 Q1021=
201902091230 METAR LRSM 091230Z 16005KT 140V200 9999 BKN036 04/M05 Q1021=
201902091300 METAR LRSM 091300Z 19003KT 160V220 9999 BKN034 04/M05 Q1021=
201902091330 METAR LRSM 091330Z 18004KT 160V220 9999 OVC032 04/M04 Q1021=
201902091400 METAR LRSM 091400Z 21003KT 170V250 9999 OVC032 04/M03 Q1021=
201902091430 METAR LRSM 091430Z 16003KT 9999 OVC031 04/M03 Q1021=
201902091500 METAR LRSM 091500Z 19004KT 9999 OVC031 03/M03 Q1021=
201902091530 METAR LRSM 091530Z 14004KT 9999 OVC031 03/M02 Q1021=
201902091600 METAR LRSM 091600Z 00000KT 9999 OVC032 03/M03 Q1021=
201902091630 METAR LRSM 091630Z 00000KT 9999 OVC032 03/M01 Q1021=
201902091700 METAR LRSM 091700Z 15002KT 9999 OVC033 03/M02 Q1021=
201902091730 METAR LRSM 091730Z AUTO 15003KT 9999 OVC033/// 03/M01 Q1021=
201902091800 METAR LRSM 091800Z AUTO 14002KT 9999 BKN033/// 02/M01 Q1021=
201902091830 METAR LRSM 091830Z AUTO 14002KT 9999 OVC034/// 02/M01 Q1021=
201902091900 METAR LRSM 091900Z AUTO 14003KT 9999 BKN034/// 02/M02 Q1022=
201902091930 METAR LRSM 091930Z AUTO 00000KT 9999 OVC034/// 02/M01 Q1022=
201902092000 METAR LRSM 092000Z AUTO 13003KT 9999 BKN034/// 02/M02 Q1022=
201902092030 METAR LRSM 092030Z AUTO 13005KT 9999 OVC033/// 02/M02 Q1021=
201902092100 METAR LRSM 092100Z AUTO 19003KT 170V230 9999 BKN032/// 01/M03
                        Q1022=
201902092130 METAR LRSM 092130Z AUTO 21003KT 9999 FEW032/// 00/M03 Q1022=
201902092200 METAR LRSM 092200Z AUTO 20006KT 9000 SCT033/// M01/M03 Q1022=
201902092230 METAR LRSM 092230Z AUTO 18003KT 120V210 9999 FEW033/// M00/M03
                        Q1022=
201902092300 METAR LRSM 092300Z AUTO 21004KT 9000 NCD M01/M03 Q1022=
201902092330 METAR LRSM 092330Z AUTO 23004KT 9000 FEW032/// M01/M02 Q1022=
201902100000 METAR LRSM 100000Z AUTO 21005KT 9000 NCD M01/M02 Q1022=
201902100030 METAR LRSM 100030Z AUTO 10003KT 050V190 8000 NCD M02/M03
                        Q1022=
201902100100 METAR LRSM 100100Z AUTO 04002KT 320V070 9000 NCD M02/M03
                        Q1022=
201902100130 METAR LRSM 100130Z AUTO 10002KT 7000 NCD M02/M03 Q1022=
201902100200 METAR LRSM 100200Z AUTO 11004KT 7000 NCD M02/M03 Q1022=
201902100230 METAR LRSM 100230Z AUTO 12001KT 6000 NCD M02/M03 Q1022=
201902100300 METAR LRSM 100300Z AUTO 12003KT 6000 SCT110/// M02/M02 Q1022=
201902100330 METAR LRSM 100330Z AUTO 13003KT 7000 FEW100/// M03/M03 Q1022=
201902100400 METAR LRSM 100400Z AUTO 11002KT 8000 SCT110/// M02/M03 Q1022=
201902100430 METAR LRSM 100430Z AUTO 05002KT 020V110 7000 FEW110/// M03/M03
                        Q1022=
201902100500 METAR LRSM 100500Z AUTO 11004KT 7000 NCD M02/M03 Q1021=
201902100530 METAR LRSM 100530Z AUTO 09003KT 8000 NCD M03/M03 Q1022=
201902100600 METAR LRSM 100600Z AUTO 11003KT 8000 NCD M03/M03 Q1021=
201902100630 METAR LRSM 100630Z AUTO 10003KT 8000 NCD M03/M03 Q1021=
201902100700 METAR LRSM 100700Z AUTO 11004KT 9999 NCD M01/M02 Q1021=
201902100730 METAR LRSM 100730Z AUTO 08003KT 9999 FEW130/// M00/M01 Q1021=
201902100800 METAR LRSM 100800Z AUTO 10005KT 9999 NCD 01/M01 Q1021=
201902100830 METAR LRSM 100830Z AUTO 10006KT 9999 NCD 02/M01 Q1021=
201902100900 METAR LRSM 100900Z AUTO 10007KT 9999 NCD 03/M02 Q1021=
201902100930 METAR LRSM 100930Z AUTO 09006KT 9999 NCD 04/M01 Q1021=
201902101000 METAR LRSM 101000Z AUTO 13011KT 9999 NCD 05/M02 Q1020=
201902101030 METAR LRSM 101030Z AUTO 14010KT 9999 NCD 05/M02 Q1020=
201902101100 METAR LRSM 101100Z AUTO 15009KT 9999 NCD 06/M03 Q1019=
201902101130 METAR LRSM 101130Z AUTO 14008KT 9999 NCD 06/M02 Q1018=
201902101200 METAR LRSM 101200Z AUTO 21004KT 160V300 9999 NCD 07/M03 Q1018=
201902101230 METAR LRSM 101230Z AUTO 19005KT 140V240 9999 NCD 07/M02 Q1017=
201902101300 METAR LRSM 101300Z AUTO 13005KT 100V220 9999 NCD 07/M02 Q1017=
201902101330 METAR LRSM 101330Z AUTO 14004KT 110V180 9999 NCD 07/M02 Q1017=
201902101400 METAR LRSM 101400Z AUTO 12004KT 090V160 9999 NCD 07/M03 Q1016=
201902101430 METAR LRSM 101430Z AUTO 14005KT 9999 FEW240/// 06/M02 Q1016=
201902101500 METAR LRSM 101500Z AUTO 16004KT 9999 NCD 06/M01 Q1016=
201902101530 METAR LRSM 101530Z AUTO 14004KT 9999 NCD 05/M01 Q1015=
201902101600 METAR LRSM 101600Z AUTO 12005KT 9999 NCD 03/M02 Q1015=
201902101630 METAR LRSM 101630Z AUTO 12006KT 9999 BKN160/// 03/M02 Q1014=
201902101700 METAR LRSM 101700Z AUTO 14008KT 9999 BKN170/// 04/M02 Q1014=
201902101730 METAR LRSM 101730Z AUTO 12008KT 9999 BKN200/// 03/M02 Q1013=
201902101800 METAR LRSM 101800Z AUTO 13008KT 9999 BKN190/// 04/M02 Q1013=
201902101830 METAR LRSM 101830Z AUTO 13007KT 9999 OVC180/// 04/M02 Q1013=
201902101900 METAR LRSM 101900Z AUTO 13009KT 9999 SCT070/// BKN180///
                        04/M02 Q1012=
201902101930 METAR LRSM 101930Z AUTO 13008KT 9999 OVC070/// 04/M02 Q1012=
201902102000 METAR LRSM 102000Z AUTO 14006KT 9999 BKN060/// OVC075///
                        04/M02 Q1011=
201902102030 METAR LRSM 102030Z AUTO 14005KT 9999 SCT050/// BKN075///
                        04/M02 Q1011=
201902102100 METAR LRSM 102100Z AUTO 13008KT 9999 BKN055/// OVC070///
                        04/M02 Q1010=
201902102130 METAR LRSM 102130Z AUTO 13010KT 9999 OVC055/// 05/M02 Q1010=
201902102200 METAR LRSM 102200Z AUTO 13009KT 9999 BKN055/// BKN080///
                        04/M02 Q1009=
201902102230 METAR LRSM 102230Z AUTO 13007KT 9999 SCT055/// BKN085///
                        05/M02 Q1009=
201902102300 METAR LRSM 102300Z AUTO 13005KT 9999 BKN055/// 04/M01 Q1008=
201902102330 METAR LRSM 102330Z AUTO 12006KT 9999 BKN055/// 05/M01 Q1008=
201902110000 METAR LRSM 110000Z AUTO 12005KT 9999 OVC055/// 05/M01 Q1007=
201902110030 METAR LRSM 110030Z AUTO 12006KT 9999 -RA BKN055/// 05/M01
                        Q1007=
201902110100 METAR LRSM 110100Z AUTO 12006KT 9999 BKN055/// 05/M01 Q1006
                        RERA=
201902110130 METAR LRSM 110130Z AUTO 12006KT 9999 -SHRA SCT060/// BKN075///
                        05/M01 Q1006=
201902110200 METAR LRSM 110200Z AUTO 15005KT 110V170 9999 -SHRA SCT055///
                        OVC070/// 05/M00 Q1005=
201902110230 METAR LRSM 110230Z AUTO 16009KT 9999 -SHRA OVC050/// 06/M00
                        Q1005=
201902110300 METAR LRSM 110300Z AUTO 17008KT 9999 -SHRA FEW043/// BKN050///
                        06/00 Q1005=
201902110330 METAR LRSM 110330Z 18009KT 9999 -RA BKN040 06/00 Q1005=
201902110400 METAR LRSM 110400Z 16009KT 9999 -RA BKN040 05/01 Q1005=
201902110430 METAR LRSM 110430Z 17011KT 9999 -RA BKN040 06/02 Q1004 R01/29//95=
201902110500 METAR LRSM 110500Z 19011KT 9999 -RA BKN037 06/02 Q1004 R01/29//95=
201902110530 METAR LRSM 110530Z 18012KT 9999 -RA SCT035 06/02 Q1004 R01/29//95=
201902110600 METAR LRSM 110600Z 18012KT 9999 BKN038 06/02 Q1004 R01/29//95=
201902110630 METAR LRSM 110630Z 17013KT 9999 SCT040 06/02 Q1004 R01/29//95=
201902110700 METAR LRSM 110700Z 17013KT 9999 SCT038 06/03 Q1004 R01/29//95=
201902110730 METAR LRSM 110730Z 18013KT 9999 BKN037 07/03 Q1004 R01/29//95=
201902110800 METAR LRSM 110800Z 18012KT 9999 BKN037 07/03 Q1004 R01/29//95=
201902110830 METAR LRSM 110830Z 21008KT 9999 BKN030 07/03 Q1004 R01/29//95=
201902110900 METAR LRSM 110900Z 20007KT 9999 BKN026 07/03 Q1004 R01/29//95=
201902110930 METAR LRSM 110930Z 21007KT 190V250 9999 BKN026 07/04 Q1004
                        R01/29//95=
201902111000 METAR LRSM 111000Z 19008KT 9999 -RA BKN024 07/03 Q1005 R01/29//95=
201902111030 METAR LRSM 111030Z 18008KT 9999 -RA SCT029 07/03 Q1004 R01/29//95=
201902111100 METAR LRSM 111100Z 19007KT 9999 -RA FEW025 SCT045 07/03 Q1004
                        R01/29//95=
201902111130 METAR LRSM 111130Z 21007KT 9999 FEW025 07/04 Q1004 R01/29//95=
201902111200 METAR LRSM 111200Z 24008KT 9999 FEW015 07/04 Q1004 R01/29//95=
201902111230 METAR LRSM 111230Z 25007KT 9999 FEW015 07/04 Q1004 R01/29//95=
201902111300 METAR LRSM 111300Z 24006KT 9999 FEW015 SCT032 06/04 Q1004
                        R01/29//95=
201902111330 METAR LRSM 111330Z 23006KT 9999 FEW011 BKN033 06/05 Q1004
                        R01/29//95=
201902111400 METAR LRSM 111400Z 22004KT 9999 -RA SCT010 OVC030 06/05 Q1005
                        R01/29//95=
201902111430 METAR LRSM 111430Z 21004KT 7000 -RA FEW010 OVC033 06/05 Q1005
                        R01/29//95=
201902111500 METAR LRSM 111500Z 22002KT 7000 -RA OVC026 06/05 Q1005 R01/29//95=
201902111530 METAR LRSM 111530Z 00000KT 4500 -RA BR SCT007 OVC023 06/05
                        Q1006 R01/29//95=
201902111600 METAR LRSM 111600Z 23001KT 3500 -RA BR FEW007 OVC023 05/05
                        Q1006 R01/29//95=
201902111630 METAR LRSM 111630Z 00000KT 4700 BR FEW007 SCT026 BKN046 05/05
                        Q1006 R01/29//95=
201902111700 METAR LRSM 111700Z 15002KT 4500 BR FEW006 OVC025 05/05 Q1006
                        R01/29//95=
201902111730 METAR LRSM 111730Z AUTO 00000KT 3800 -RA BKN006/// BKN008///
                        05/05 Q1007=
201902111800 METAR LRSM 111800Z AUTO VRB02KT 4100 -SHRA FEW004/// BKN006///
                        BKN049/// 05/05 Q1007=
201902111830 METAR LRSM 111830Z AUTO 36005KT 310V020 3600 FEW002/// SCT008///
                        BKN050/// 04/04 Q1007 RERA=
201902111900 METAR LRSM 111900Z AUTO 01004KT 4900 BR FEW006/// SCT008///
                        BKN013/// 04/04 Q1007=
201902111930 METAR LRSM 111930Z AUTO 02006KT 5000 BR SCT004/// BKN006///
                        BKN008/// 04/04 Q1007=
201902112000 METAR LRSM 112000Z AUTO 35007KT 5000 BR FEW006/// BKN070///
                        BKN110/// 04/04 Q1008=
201902112030 METAR LRSM 112030Z AUTO 35009KT 7000 FEW035/// BKN041///
                        BKN120/// 04/04 Q1008=
201902112100 METAR LRSM 112100Z AUTO 36008KT 8000 SCT034/// BKN039///
                        BKN075/// 04/04 Q1008=
201902112130 METAR LRSM 112130Z AUTO 36008KT 9999 FEW035/// SCT050///
                        BKN075/// 04/02 Q1008=
201902112200 METAR LRSM 112200Z AUTO 36010KT 9999 FEW055/// OVC120///
                        04/01 Q1008=
201902112230 METAR LRSM 112230Z AUTO 35012KT 9999 FEW060/// BKN120///
                        04/01 Q1008=
201902112300 METAR LRSM 112300Z AUTO 35010KT 9999 BKN110/// OVC130///
                        04/01 Q1009=
201902112330 METAR LRSM 112330Z AUTO 33009KT 9999 SCT100/// BKN120///
                        04/01 Q1009=
201902120000 METAR LRSM 120000Z AUTO 33010KT 9999 OVC090/// 03/01 Q1009=
201902120030 METAR LRSM 120030Z AUTO 34011KT 9999 SCT075/// BKN090///
                        04/01 Q1009=
201902120100 METAR LRSM 120100Z AUTO 34011KT 9999 OVC075/// 04/01 Q1009=
201902120130 METAR LRSM 120130Z AUTO 34012KT 9999 OVC075/// 04/00 Q1009=
201902120200 METAR LRSM 120200Z AUTO 34012KT 9999 OVC100/// 04/00 Q1010=
201902120230 METAR LRSM 120230Z AUTO 34012KT 9999 FEW055/// BKN110///
                        BKN130/// 04/00 Q1010=
201902120300 METAR LRSM 120300Z AUTO 33009KT 9999 SCT130/// OVC140///
                        03/00 Q1010=
201902120330 METAR LRSM 120330Z 34011KT CAVOK 03/M00 Q1010 R01/29//95=
201902120400 METAR LRSM 120400Z 34013KT CAVOK 03/M01 Q1010 R01/29//95=
201902120430 METAR LRSM 120430Z 34013KT CAVOK 03/M01 Q1010 R01/29//95=
201902120500 METAR LRSM 120500Z 34012KT CAVOK 03/M02 Q1011 R01/29//95=
201902120530 METAR LRSM 120530Z 33013KT CAVOK 03/M01 Q1011 R01/29//95=
201902120600 METAR LRSM 120600Z 33012KT CAVOK 03/M01 Q1011 R01/29//95=
201902120630 METAR LRSM 120630Z 33011KT CAVOK 03/M01 Q1012 R01/29//95=
201902120700 METAR LRSM 120700Z 33011KT CAVOK 03/M01 Q1012 R01/29//95=
201902120730 METAR LRSM 120730Z 33014KT CAVOK 03/M00 Q1013 R01/25//95=
201902120800 METAR LRSM 120800Z 34015KT CAVOK 04/M00 Q1013 R01/25//95=
201902120830 METAR LRSM 120830Z 33017KT CAVOK 04/M00 Q1013 R01/25//95=
201902120900 METAR LRSM 120900Z 34019KT 9999 BKN042 04/M01 Q1013 R01/25//95=
201902120930 METAR LRSM 120930Z 34023KT 9999 FEW025 BKN041 04/M02 Q1014
                        R01/25//95=
201902121000 METAR LRSM 121000Z 34020KT 9999 FEW025 BKN043 04/M01 Q1014
                        R01/25//95=
201902121030 METAR LRSM 121030Z 35022KT 9999 FEW026 BKN043 04/M03 Q1014
                        R01/25//95=
201902121100 METAR LRSM 121100Z 34022KT 9999 BKN043 04/M03 Q1014 R01/25//95=
201902121130 METAR LRSM 121130Z 34021KT 9999 BKN040 04/M03 Q1014 R01/25//95=
201902121200 METAR LRSM 121200Z 34021KT 9999 BKN040 04/M04 Q1015 R01/25//95=
201902121230 METAR LRSM 121230Z 35022KT 9999 SCT040 04/M05 Q1015 R01/CLRD//=
201902121300 METAR LRSM 121300Z 35021KT 9999 SCT040 05/M05 Q1015=
201902121330 METAR LRSM 121330Z 35020KT 9999 FEW040 05/M05 Q1016=
201902121400 METAR LRSM 121400Z 36019KT 9999 FEW040 04/M06 Q1016=
201902121430 METAR LRSM 121430Z 35017KT 9999 FEW045 04/M06 Q1017=
201902121500 METAR LRSM 121500Z 34017KT 9999 FEW045 03/M05 Q1017=
201902121530 METAR LRSM 121530Z 35017KT 9999 SCT045 03/M04 Q1018=
201902121600 METAR LRSM 121600Z 34018KT CAVOK 02/M04 Q1019=
201902121630 METAR LRSM 121630Z 34014KT CAVOK 01/M05 Q1019=
201902121700 METAR LRSM 121700Z 34012KT CAVOK 01/M04 Q1020=
201902121730 METAR LRSM 121730Z AUTO 33012KT 9999 NCD 01/M04 Q1021=
201902121800 METAR LRSM 121800Z AUTO 32011KT 9999 NCD 00/M04 Q1021=
201902121830 METAR LRSM 121830Z AUTO 33009KT 9999 FEW085/// 00/M04 Q1022=
201902121900 METAR LRSM 121900Z AUTO 33007KT 9999 FEW085/// M00/M04 Q1022=
201902121930 METAR LRSM 121930Z AUTO 32010KT 9999 FEW075/// M00/M04 Q1022=
201902122000 METAR LRSM 122000Z AUTO 33010KT 9999 NCD M01/M03 Q1023=
201902122030 METAR LRSM 122030Z AUTO 33010KT 9999 BKN065/// M00/M02 Q1023=
201902122100 METAR LRSM 122100Z AUTO 32008KT 9999 BKN055/// BKN150///
                        M01/M02 Q1024=
201902122130 METAR LRSM 122130Z AUTO 31009KT 9999 BKN150/// M01/M02 Q1024=
201902122200 METAR LRSM 122200Z AUTO 30006KT 9999 BKN065/// M01/M02 Q1024=
201902122230 METAR LRSM 122230Z AUTO 31009KT 9999 FEW065/// M01/M02 Q1025=
201902122300 METAR LRSM 122300Z AUTO 31010KT 9999 OVC070/// M01/M02 Q1025=
201902122330 METAR LRSM 122330Z AUTO 31009KT 9999 BKN050/// OVC075///
                        M01/M02 Q1025=
201902130000 METAR LRSM 130000Z AUTO 31008KT 9999 FEW050/// BKN130///
                        M01/M02 Q1026=
201902130030 METAR LRSM 130030Z AUTO 31008KT 9999 BKN120/// BKN160///
                        M01/M02 Q1026=
201902130100 METAR LRSM 130100Z AUTO 31008KT 9999 BKN065/// BKN120///
                        M01/M02 Q1026=
201902130130 METAR LRSM 130130Z AUTO 30008KT 9999 FEW070/// BKN110///
                        BKN160/// M01/M02 Q1026=
201902130200 METAR LRSM 130200Z AUTO 31007KT 9999 OVC110/// M01/M02 Q1027=
201902130230 METAR LRSM 130230Z AUTO 31007KT 9999 BKN110/// M01/M02 Q1027=
201902130300 METAR LRSM 130300Z AUTO 32007KT 9999 FEW120/// M02/M03 Q1028=
201902130330 METAR LRSM 130330Z 30006KT CAVOK M02/M03 Q1028=
201902130400 METAR LRSM 130400Z 32006KT CAVOK M02/M03 Q1029=
201902130430 METAR LRSM 130430Z 32005KT CAVOK M02/M03 Q1029=
201902130500 METAR LRSM 130500Z 31005KT CAVOK M03/M03 Q1029=
201902130530 METAR LRSM 130530Z 32006KT CAVOK M03/M03 Q1030=
201902130600 METAR LRSM 130600Z 31006KT CAVOK M03/M03 Q1030=
201902130630 METAR LRSM 130630Z 30005KT CAVOK M02/M03 Q1031=
201902130700 METAR LRSM 130700Z 31005KT CAVOK M01/M03 Q1031=
201902130730 METAR LRSM 130730Z 30005KT CAVOK 00/M03 Q1031=
201902130800 METAR LRSM 130800Z 33004KT CAVOK 01/M03 Q1031=
201902130830 METAR LRSM 130830Z 32005KT CAVOK 01/M03 Q1032=
201902130900 METAR LRSM 130900Z 31005KT 280V340 CAVOK 02/M03 Q1032=
201902130930 METAR LRSM 130930Z 31005KT CAVOK 02/M03 Q1032=
201902131000 METAR LRSM 131000Z 30005KT 270V340 CAVOK 03/M04 Q1033=
201902131030 METAR LRSM 131030Z 32005KT 270V010 CAVOK 03/M04 Q1033=
201902131100 METAR LRSM 131100Z 33007KT CAVOK 04/M05 Q1033=
201902131130 METAR LRSM 131130Z 33006KT 280V350 CAVOK 04/M05 Q1033=
201902131200 METAR LRSM 131200Z 33006KT 280V360 CAVOK 04/M04 Q1033=
201902131230 METAR LRSM 131230Z 32005KT 290V360 CAVOK 04/M05 Q1033=
201902131300 METAR LRSM 131300Z 35003KT 250V030 CAVOK 04/M05 Q1032=
201902131330 METAR LRSM 131330Z 25003KT 170V330 CAVOK 05/M05 Q1032=
201902131400 METAR LRSM 131400Z 26004KT 200V300 CAVOK 05/M04 Q1032=
201902131430 METAR LRSM 131430Z VRB01KT CAVOK 04/M04 Q1032=
201902131500 METAR LRSM 131500Z 24004KT CAVOK 04/M04 Q1032=
201902131530 METAR LRSM 131530Z 23005KT CAVOK 04/M04 Q1032=
201902131600 METAR LRSM 131600Z 23004KT CAVOK 03/M03 Q1032=
201902131630 METAR LRSM 131630Z 20005KT CAVOK 02/M03 Q1032=
201902131700 METAR LRSM 131700Z 20005KT CAVOK 01/M03 Q1032=
201902131730 METAR LRSM 131730Z AUTO 21005KT 9999 BKN060/// 01/M02 Q1032=
201902131800 METAR LRSM 131800Z AUTO 20006KT 9999 SCT050/// BKN065///
                        01/M02 Q1032=
201902131830 METAR LRSM 131830Z AUTO 22005KT 9999 OVC055/// 02/M03 Q1032=
201902131900 METAR LRSM 131900Z AUTO 22006KT 9999 BKN060/// 03/M04 Q1032=
201902131930 METAR LRSM 131930Z AUTO 22006KT 9999 OVC050/// 03/M04 Q1032=
201902132000 METAR LRSM 132000Z AUTO 23006KT 9999 BKN050/// 02/M03 Q1032=
201902132030 METAR LRSM 132030Z AUTO 23005KT 9999 OVC050/// 02/M03 Q1032=
201902132100 METAR LRSM 132100Z AUTO 25004KT 9999 BKN049/// 02/M03 Q1033=
201902132130 METAR LRSM 132130Z AUTO 23007KT 9999 SCT046/// OVC060///
                        02/M03 Q1032=
201902132200 METAR LRSM 132200Z AUTO 24007KT 9999 FEW040/// BKN047///
                        02/M03 Q1032=
201902132230 METAR LRSM 132230Z AUTO 24008KT 9999 SCT044/// OVC060///
                        02/M02 Q1032=
201902132300 METAR LRSM 132300Z AUTO 25009KT 9999 FEW044/// BKN060///
                        02/M02 Q1032=
201902132330 METAR LRSM 132330Z AUTO 25009KT 9999 FEW041/// OVC049///
                        02/M01 Q1032=
201902140000 METAR LRSM 140000Z AUTO 25010KT 9999 OVC050/// 02/M01 Q1031=
201902140030 METAR LRSM 140030Z AUTO 25008KT 9999 FEW044/// OVC055///
                        02/M01 Q1031=
201902140100 METAR LRSM 140100Z AUTO 25008KT 9999 FEW042/// OVC050///
                        02/M01 Q1031=
201902140130 METAR LRSM 140130Z AUTO 29006KT 9999 BKN041/// OVC050///
                        02/M01 Q1031=
201902140200 METAR LRSM 140200Z AUTO 29007KT 9999 BKN039/// 02/M01 Q1031=
201902140230 METAR LRSM 140230Z AUTO 28005KT 9999 BKN037/// 02/M01 Q1031=
201902140300 METAR LRSM 140300Z AUTO 28006KT 250V310 9999 BKN036/// OVC055///
                        02/M01 Q1031=
201902140330 METAR LRSM 140330Z VRB02KT 9999 OVC036 02/M01 Q1031=
201902140400 METAR LRSM 140400Z 32004KT 270V360 9999 BKN035 01/00 Q1032=
201902140430 METAR LRSM 140430Z 31004KT 9999 BKN040 01/M00 Q1032=
201902140500 METAR LRSM 140500Z 32004KT 9999 FEW011 01/M00 Q1032=
201902140530 METAR LRSM 140530Z 30005KT 8000 FEW010 01/00 Q1032=
201902140600 METAR LRSM 140600Z VRB02KT 8000 SCT010 01/00 Q1032=
201902140630 METAR LRSM 140630Z 26002KT 8000 BKN010 01/00 Q1032=
201902140700 METAR LRSM 140700Z 22002KT 8000 OVC010 01/00 Q1032=
201902140730 METAR LRSM 140730Z 26002KT 8000 OVC010 02/00 Q1032=
201902140800 METAR LRSM 140800Z 28006KT 250V320 8000 BKN010 02/00 Q1032=
201902140830 METAR LRSM 140830Z 29005KT 260V320 8000 BKN009 OVC048 02/00
                        Q1032=
201902140900 METAR LRSM 140900Z 27005KT 240V310 8000 BKN009 02/01 Q1032=
201902140930 METAR LRSM 140930Z 29003KT 250V320 8000 BKN009 02/01 Q1032=
201902141000 METAR LRSM 141000Z 29003KT 260V340 8000 OVC009 03/01 Q1032=
201902141030 METAR LRSM 141030Z 29004KT 240V310 8000 OVC010 03/01 Q1032=
201902141100 METAR LRSM 141100Z 28003KT 250V330 8000 BKN008 03/01 Q1032=
201902141130 METAR LRSM 141130Z 28003KT 240V310 8000 BKN009 03/01 Q1032=
201902141200 METAR LRSM 141200Z 28003KT 230V310 8000 SCT009 03/01 Q1031=
201902141230 METAR LRSM 141230Z 28005KT 8000 FEW010 OVC046 03/01 Q1031=
201902141300 METAR LRSM 141300Z 31003KT 270V350 8000 FEW010 OVC042 03/01
                        Q1031=
201902141330 METAR LRSM 141330Z 31003KT 8000 FEW010 BKN048 03/01 Q1031=
201902141400 METAR LRSM 141400Z 30004KT 270V340 8000 BKN048 04/01 Q1031=
201902141430 METAR LRSM 141430Z 32005KT 8000 NSC 04/01 Q1030=
201902141500 METAR LRSM 141500Z 35003KT 290V010 8000 NSC 04/01 Q1030=
201902141530 METAR LRSM 141530Z 05002KT 8000 NSC 03/00 Q1030=
201902141600 METAR LRSM 141600Z 04003KT 360V080 7000 NSC 02/00 Q1030=
201902141630 METAR LRSM 141630Z 05003KT 7000 NSC 02/01 Q1031=
201902141700 METAR LRSM 141700Z 36006KT 6000 NSC 02/01 Q1031=
201902141730 METAR LRSM 141730Z AUTO 02003KT 7000 BKN055/// 02/00 Q1031=
201902141800 METAR LRSM 141800Z AUTO 17001KT 5000 BR NCD 00/M00 Q1031=
201902141830 METAR LRSM 141830Z AUTO 17001KT 5000 BR NCD M00/M01 Q1031=
201902141900 METAR LRSM 141900Z AUTO 00000KT 5000 BR BKN055/// M00/M01
                        Q1031=
201902141930 METAR LRSM 141930Z AUTO 16003KT 5000 BR OVC055/// M00/M00
                        Q1031=
201902142000 METAR LRSM 142000Z AUTO 00000KT 5000 BR BKN055/// 00/M00
                        Q1030=
201902142030 METAR LRSM 142030Z AUTO 22003KT 190V260 5000 BR OVC050///
                        00/M00 Q1031=
201902142100 METAR LRSM 142100Z AUTO 24004KT 200V270 4200 BR OVC055///
                        00/M00 Q1031=
201902142130 METAR LRSM 142130Z AUTO 25002KT 4400 BR BKN055/// 00/00 Q1031=
201902142200 METAR LRSM 142200Z AUTO 21003KT 170V250 4500 BR BKN050///
                        00/M00 Q1031=
201902142230 METAR LRSM 142230Z AUTO 21004KT 4300 BR BKN055/// M00/M01
                        Q1031=
201902142300 METAR LRSM 142300Z AUTO 20005KT 4800 BR BKN050/// M00/M01
                        Q1031=
201902142330 METAR LRSM 142330Z AUTO 20004KT 5000 BR BKN050/// M00/M01
                        Q1031=
201902150000 METAR LRSM 150000Z AUTO 20004KT 4700 BR SCT050/// M01/M01
                        Q1031=
201902150030 METAR LRSM 150030Z AUTO 21003KT 4000 BR NCD M01/M01 Q1031=
201902150100 METAR LRSM 150100Z AUTO 16003KT 2200 R19/1800VP2000D BR FEW055///
                        M01/M01 Q1030=
201902150130 METAR LRSM 150130Z AUTO 00000KT 0900 R19/0450VP2000U BCFG
                        NCD M02/M02 Q1030=
201902150200 METAR LRSM 150200Z AUTO 00000KT 1200 R19/0900VP2000U FZFG
                        BKN055/// M01/M01 Q1030=
201902150230 METAR LRSM 150230Z AUTO 00000KT 3500 BKN055/// M01/M01 Q1030=
201902150300 METAR LRSM 150300Z AUTO VRB01KT 4400 BKN055/// M01/M01 Q1030=
201902150330 METAR LRSM 150330Z 17001KT 5000 BR NSC M01/M01 Q1030=
201902150400 METAR LRSM 150400Z 00000KT 5000 BR NSC M01/M01 Q1031=
201902150430 METAR LRSM 150430Z 36003KT 5000 BR NSC M00/M00 Q1031=
201902150500 METAR LRSM 150500Z 03004KT 7000 NSC M00/M00 Q1030=
201902150530 METAR LRSM 150530Z 15003KT 4000 BR NSC M01/M01 Q1031=
201902150600 METAR LRSM 150600Z 17004KT 5000 BR NSC M01/M01 Q1031=
201902150630 METAR LRSM 150630Z 07003KT 5000 MIFG BR NSC M00/M00 Q1032=
201902150700 METAR LRSM 150700Z 04003KT 5000 BR NSC 00/00 Q1032=
201902150730 METAR LRSM 150730Z VRB01KT 7000 NSC 01/01 Q1032=
201902150800 METAR LRSM 150800Z 05003KT 7000 NSC 02/02 Q1032=
201902150830 METAR LRSM 150830Z 05006KT CAVOK 04/01 Q1032=
201902150900 METAR LRSM 150900Z 09004KT 050V120 CAVOK 05/02 Q1033=
201902150930 METAR LRSM 150930Z 07003KT 350V110 CAVOK 07/02 Q1033=
201902151000 METAR LRSM 151000Z 09004KT 050V150 CAVOK 07/01 Q1033=
201902151030 METAR LRSM 151030Z 06005KT 030V100 CAVOK 08/00 Q1033=
201902151100 METAR LRSM 151100Z VRB02KT CAVOK 08/M02 Q1032=
201902151130 METAR LRSM 151130Z 02003KT 350V080 CAVOK 09/M03 Q1032=
201902151200 METAR LRSM 151200Z VRB03KT CAVOK 09/M03 Q1032=
201902151230 METAR LRSM 151230Z 35004KT CAVOK 09/M03 Q1032=
201902151300 METAR LRSM 151300Z VRB04KT CAVOK 09/M03 Q1032=
201902151330 METAR LRSM 151330Z 02003KT 330V070 CAVOK 09/M04 Q1032=
201902151400 METAR LRSM 151400Z 00000KT CAVOK 10/M04 Q1031=
201902151430 METAR LRSM 151430Z VRB02KT CAVOK 09/M03 Q1031=
201902151500 METAR LRSM 151500Z 00000KT CAVOK 09/M04 Q1031=
201902151530 METAR LRSM 151530Z 00000KT CAVOK 08/M03 Q1031=
201902151600 METAR LRSM 151600Z 00000KT CAVOK 07/M01 Q1031=
201902151630 METAR LRSM 151630Z 27003KT CAVOK 05/M02 Q1032=
201902151700 METAR LRSM 151700Z 27004KT CAVOK 04/M02 Q1032=
201902151730 METAR LRSM 151730Z AUTO 24004KT 9999 FEW240/// 03/M01 Q1032=
201902151800 METAR LRSM 151800Z AUTO 22004KT 9999 NCD 02/M02 Q1032=
201902151830 METAR LRSM 151830Z AUTO 22005KT 9000 FEW230/// 02/M02 Q1032=
201902151900 METAR LRSM 151900Z AUTO 23005KT 7000 NCD 01/M02 Q1032=
201902151930 METAR LRSM 151930Z AUTO 21005KT 9999 NCD 00/M02 Q1032=
201902152000 METAR LRSM 152000Z AUTO 20005KT 9999 NCD M00/M02 Q1032=
201902152030 METAR LRSM 152030Z AUTO VRB04KT 9999 NCD 01/M01 Q1032=
201902152100 METAR LRSM 152100Z AUTO 24006KT 9999 NCD M00/M02 Q1032=
201902152130 METAR LRSM 152130Z AUTO 21005KT 9999 NCD M00/M02 Q1032=
201902152200 METAR LRSM 152200Z AUTO 00000KT 9999 NCD M01/M03 Q1032=
201902152230 METAR LRSM 152230Z AUTO 00000KT 9000 NCD M01/M02 Q1032=
201902152300 METAR LRSM 152300Z AUTO 18003KT 7000 NCD M02/M02 Q1032=
201902152330 METAR LRSM 152330Z AUTO 17003KT 7000 NCD M02/M02 Q1032=
201902160000 METAR LRSM 160000Z AUTO 19002KT 8000 SCT200/// M02/M02 Q1032=
201902160030 METAR LRSM 160030Z AUTO 19004KT 9999 NCD M02/M02 Q1032=
201902160100 METAR LRSM 160100Z AUTO 19004KT 9000 NCD M02/M02 Q1032=
201902160130 METAR LRSM 160130Z AUTO 22003KT 9999 BKN041/// M02/M02 Q1031=
201902160200 METAR LRSM 160200Z AUTO 22003KT 9999 BKN041/// M01/M01 Q1031=
201902160230 METAR LRSM 160230Z AUTO 22004KT 9999 OVC039/// M01/M01 Q1031=
201902160300 METAR LRSM 160300Z AUTO 21005KT 9999 OVC039/// M00/M01 Q1031=
201902160330 METAR LRSM 160330Z AUTO 19003KT 9999 OVC039/// M00/M01 Q1031=
201902160400 METAR LRSM 160400Z AUTO 17001KT 9999 BKN039/// M00/M01 Q1031=
201902160430 METAR LRSM 160430Z AUTO 00000KT 9999 BKN039/// M00/M01 Q1031=
201902160500 METAR LRSM 160500Z 00000KT 8000 BKN038 M01/M01 Q1031=
201902160530 METAR LRSM 160530Z 00000KT 9999 BKN038 M01/M01 Q1031=
201902160600 METAR LRSM 160600Z 10001KT 9999 BKN037 M00/M01 Q1031=
201902160630 METAR LRSM 160630Z 08002KT 9999 BKN036 00/M00 Q1032=
201902160700 METAR LRSM 160700Z 00000KT 9999 BKN036 01/M00 Q1032=
201902160730 METAR LRSM 160730Z 19002KT 9999 BKN035 01/M00 Q1032=
201902160800 METAR LRSM 160800Z 00000KT 9999 BKN035 03/M00 Q1032=
201902160830 METAR LRSM 160830Z 06004KT 9999 FEW035 03/00 Q1032=
201902160900 METAR LRSM 160900Z VRB02KT 9999 FEW035 04/M00 Q1032=
201902160930 METAR LRSM 160930Z VRB02KT 9999 FEW035 04/M00 Q1032=
201902161000 METAR LRSM 161000Z VRB01KT CAVOK 06/M00 Q1032=
201902161030 METAR LRSM 161030Z 00000KT CAVOK 07/00 Q1032=
201902161100 METAR LRSM 161100Z 22003KT 160V280 CAVOK 08/00 Q1032=
201902161130 METAR LRSM 161130Z VRB03KT CAVOK 08/00 Q1031=
201902161200 METAR LRSM 161200Z VRB03KT CAVOK 09/01 Q1031=
201902161230 METAR LRSM 161230Z 28003KT 220V360 CAVOK 09/01 Q1031=
201902161300 METAR LRSM 161300Z VRB02KT CAVOK 10/01 Q1031=
201902161330 METAR LRSM 161330Z VRB02KT CAVOK 10/01 Q1031=
201902161400 METAR LRSM 161400Z VRB02KT CAVOK 10/01 Q1030=
201902161430 METAR LRSM 161430Z VRB01KT CAVOK 10/01 Q1030=
201902161500 METAR LRSM 161500Z 22003KT 190V270 CAVOK 09/02 Q1030=
201902161530 METAR LRSM 161530Z 17003KT CAVOK 08/02 Q1030=
201902161600 METAR LRSM 161600Z 15003KT CAVOK 07/02 Q1030=
201902161630 METAR LRSM 161630Z 11005KT CAVOK 05/01 Q1030=
201902161700 METAR LRSM 161700Z 12005KT CAVOK 04/01 Q1030=
201902161730 METAR LRSM 161730Z AUTO 12005KT 9999 NCD 03/00 Q1030=
201902161800 METAR LRSM 161800Z AUTO 12004KT 9999 NCD 03/M00 Q1030=
201902161830 METAR LRSM 161830Z AUTO 11004KT 7000 NCD 01/M00 Q1030=
201902161900 METAR LRSM 161900Z AUTO 19003KT 8000 NCD 01/00 Q1030=
201902161930 METAR LRSM 161930Z AUTO 20002KT 5000 BR NCD 01/00 Q1031=
201902162000 METAR LRSM 162000Z AUTO 00000KT 6000 NCD 00/M00 Q1031=
201902162030 METAR LRSM 162030Z AUTO 09003KT 6000 NCD M00/M01 Q1030=
201902162100 METAR LRSM 162100Z AUTO 10002KT 6000 NCD M01/M01 Q1030=
201902162130 METAR LRSM 162130Z AUTO 00000KT 4300 BR NCD M01/M01 Q1030=
201902162200 METAR LRSM 162200Z AUTO 10003KT 5000 BR NCD M01/M01 Q1030=
201902162230 METAR LRSM 162230Z AUTO 10003KT 6000 NCD M01/M01 Q1030=
201902162300 METAR LRSM 162300Z AUTO 10003KT 6000 NCD M02/M02 Q1030=
201902162330 METAR LRSM 162330Z AUTO 10002KT 5000 BR NCD M02/M02 Q1030=
201902170000 METAR LRSM 170000Z AUTO 00000KT 5000 BR NCD M02/M02 Q1030=
201902170030 METAR LRSM 170030Z AUTO 00000KT 6000 NCD M02/M02 Q1030=
201902170100 METAR LRSM 170100Z AUTO 10003KT 5000 BR NCD M03/M03 Q1030=
201902170130 METAR LRSM 170130Z AUTO 10003KT 6000 NCD M02/M02 Q1029=
201902170200 METAR LRSM 170200Z AUTO 08004KT 6000 NCD M02/M02 Q1029=
201902170230 METAR LRSM 170230Z AUTO 10003KT 6000 NCD M02/M02 Q1029=
201902170300 METAR LRSM 170300Z AUTO 13002KT 5000 BR NCD M02/M02 Q1029=
201902170330 METAR LRSM 170330Z AUTO 12002KT 6000 NCD M02/M03 Q1029=
201902170400 METAR LRSM 170400Z AUTO 00000KT 5000 BR NCD M03/M03 Q1029=
201902170430 METAR LRSM 170430Z AUTO 00000KT 3300 R19/0800VP2000U BCFG
                        NCD M03/M03 Q1029=
201902170500 METAR LRSM 170500Z AUTO 12003KT 3500 R19/1900VP2000D NCD
                        M03/M03 Q1029=
201902170530 METAR LRSM 170530Z AUTO 12002KT 5000 BR NCD M03/M03 Q1029=
201902170600 METAR LRSM 170600Z AUTO 00000KT 4900 BR NCD M03/M03 Q1030=
201902170630 METAR LRSM 170630Z AUTO 00000KT 7000 NCD M01/M01 Q1030=
201902170700 METAR LRSM 170700Z AUTO 00000KT 7000 NCD 00/00 Q1030=
201902170730 METAR LRSM 170730Z AUTO 00000KT 6000 NCD 02/01 Q1030=
201902170800 METAR LRSM 170800Z AUTO 00000KT 7000 NCD 04/01 Q1030=
201902170830 METAR LRSM 170830Z AUTO VRB01KT 7000 NCD 05/02 Q1030=
201902170900 METAR LRSM 170900Z AUTO 12002KT 010V180 9000 NCD 06/02 Q1030=
201902170930 METAR LRSM 170930Z AUTO 15003KT 120V230 9999 NCD 07/02 Q1030=
201902171000 METAR LRSM 171000Z AUTO 22003KT 130V290 9999 NCD 08/02 Q1029=
201902171030 METAR LRSM 171030Z AUTO 25003KT 200V300 9999 NCD 09/02 Q1029=
201902171100 METAR LRSM 171100Z AUTO VRB03KT 9999 NCD 09/02 Q1029=
201902171130 METAR LRSM 171130Z AUTO VRB03KT 9999 NCD 09/02 Q1028=
201902171200 METAR LRSM 171200Z AUTO VRB02KT 9999 NCD 11/02 Q1028=
201902171230 METAR LRSM 171230Z AUTO 21003KT 160V270 9999 NCD 11/01 Q1028=
201902171300 METAR LRSM 171300Z AUTO VRB03KT 9999 NCD 11/01 Q1028=
201902171330 METAR LRSM 171330Z AUTO 35002KT 270V050 9999 NCD 11/02 Q1027=
201902171400 METAR LRSM 171400Z AUTO 00000KT 9999 NCD 11/02 Q1027=
201902171430 METAR LRSM 171430Z AUTO 27003KT 240V320 9999 NCD 11/02 Q1027=
201902171500 METAR LRSM 171500Z AUTO 30002KT 230V330 9999 NCD 11/03 Q1027=
201902171530 METAR LRSM 171530Z AUTO 00000KT 9999 NCD 09/03 Q1027=
201902171600 METAR LRSM 171600Z AUTO 00000KT 9999 NCD 08/02 Q1027=
201902171630 METAR LRSM 171630Z AUTO 32002KT 9999 -SN NCD 06/02 Q1027=
201902171700 METAR LRSM 171700Z AUTO 13003KT 7000 -SN NCD 04/02 Q1027=
201902171730 METAR LRSM 171730Z AUTO 11005KT 9000 -SN NCD 03/01 Q1027=
201902171800 METAR LRSM 171800Z AUTO 11005KT 9000 -SN NCD 03/01 Q1027=
201902171830 METAR LRSM 171830Z AUTO 12004KT 7000 -SHSN NCD 02/01 Q1027=
201902171900 METAR LRSM 171900Z AUTO 12003KT 7000 -SHSN NCD 01/00 Q1027=
201902171930 METAR LRSM 171930Z AUTO 00000KT 6000 -SN NCD 01/00 Q1027=
201902172000 METAR LRSM 172000Z AUTO 00000KT 7000 -SN NCD 00/M00 Q1027=
201902172030 METAR LRSM 172030Z AUTO 09004KT 5000 -SN NCD M01/M01 Q1027=
201902172100 METAR LRSM 172100Z AUTO 08003KT 4500 -SN NCD M01/M01 Q1027=
201902172130 METAR LRSM 172130Z AUTO 08004KT 5000 -SN NCD M01/M02 Q1027=
201902172200 METAR LRSM 172200Z AUTO 10002KT 5000 -SN NCD M01/M01 Q1027=
201902172230 METAR LRSM 172230Z AUTO 06003KT 4700 -SN NCD M02/M02 Q1027=
201902172300 METAR LRSM 172300Z AUTO 12003KT 5000 -SN NCD M02/M02 Q1027=
201902172330 METAR LRSM 172330Z AUTO 12002KT 5000 -SN NCD M01/M01 Q1027=
201902180000 METAR LRSM 180000Z AUTO 12001KT 5000 -SN NCD M02/M02 Q1027=
201902180030 METAR LRSM 180030Z AUTO 00000KT 6000 -SN NCD M02/M02 Q1027=
201902180100 METAR LRSM 180100Z AUTO 00000KT 4600 -SN NCD M02/M02 Q1026=
201902180130 METAR LRSM 180130Z AUTO 12002KT 5000 -SN NCD M02/M02 Q1026=
201902180200 METAR LRSM 180200Z AUTO 00000KT 4800 -SN NCD M02/M02 Q1026=
201902180230 METAR LRSM 180230Z AUTO 12002KT 4600 -SN NCD M02/M02 Q1026=
201902180300 METAR LRSM 180300Z AUTO 08002KT 4600 -SN NCD M03/M03 Q1026=
201902180330 METAR LRSM 180330Z 08002KT 4000 BR NSC M03/M03 Q1026=
201902180400 METAR LRSM 180400Z 08001KT 2000 MIFG BR NSC M03/M03 Q1026=
201902180430 METAR LRSM 180430Z 08002KT 3000 BR NSC M04/M04 Q1025=
201902180500 METAR LRSM 180500Z 07004KT 3000 BR NSC M04/M04 Q1026=
201902180530 METAR LRSM 180530Z 08003KT 4000 BR NSC M04/M04 Q1026=
201902180600 METAR LRSM 180600Z 08002KT 5000 BR NSC M03/M03 Q1026=
201902180630 METAR LRSM 180630Z 00000KT 5000 BR NSC M02/M02 Q1026=
201902180700 METAR LRSM 180700Z 00000KT 5000 BR NSC M01/M01 Q1026=
201902180730 METAR LRSM 180730Z 00000KT 5000 BR NSC 00/00 Q1026=
201902180800 METAR LRSM 180800Z 00000KT 6000 NSC 03/02 Q1026=
201902180830 METAR LRSM 180830Z 07003KT 040V110 8000 NSC 04/03 Q1026=
201902180900 METAR LRSM 180900Z 01003KT 350V080 8000 NSC 06/03 Q1026=
201902180930 METAR LRSM 180930Z VRB02KT CAVOK 07/02 Q1026=
201902181000 METAR LRSM 181000Z VRB02KT CAVOK 09/01 Q1026=
201902181030 METAR LRSM 181030Z VRB01KT CAVOK 10/02 Q1026=
201902181100 METAR LRSM 181100Z VRB02KT CAVOK 10/02 Q1025=
201902181130 METAR LRSM 181130Z VRB01KT CAVOK 11/03 Q1025=
201902181200 METAR LRSM 181200Z VRB03KT CAVOK 12/02 Q1025=
201902181230 METAR LRSM 181230Z 28003KT 210V320 CAVOK 12/03 Q1024=
201902181300 METAR LRSM 181300Z VRB02KT CAVOK 12/03 Q1024=
201902181330 METAR LRSM 181330Z 00000KT CAVOK 12/02 Q1024=
201902181400 METAR COR LRSM 181400Z 00000KT CAVOK 12/02 Q1024=
201902181430 METAR LRSM 181430Z 00000KT CAVOK 12/02 Q1024=
201902181500 METAR LRSM 181500Z 00000KT CAVOK 11/02 Q1023=
201902181530 METAR LRSM 181530Z 00000KT CAVOK 11/03 Q1023=
201902181600 METAR LRSM 181600Z 00000KT CAVOK 09/02 Q1023=
201902181630 METAR LRSM 181630Z 00000KT CAVOK 07/02 Q1023=
201902181700 METAR LRSM 181700Z 08004KT CAVOK 06/02 Q1023=
201902181730 METAR LRSM 181730Z AUTO 10004KT 8000 -SN NCD 04/02 Q1023=
201902181800 METAR LRSM 181800Z AUTO 11003KT 6000 -SHSN NCD 03/02 Q1023=
201902181830 METAR LRSM 181830Z AUTO 20003KT 5000 -SHSN NCD 02/01 Q1023=
201902181900 METAR LRSM 181900Z AUTO 20001KT 5000 -SN NCD 02/02 Q1023=
201902181930 METAR LRSM 181930Z AUTO 00000KT 6000 -SN NCD 01/01 Q1023=
201902182000 METAR LRSM 182000Z AUTO 07003KT 5000 -SN NCD 00/M00 Q1023=
201902182030 METAR LRSM 182030Z AUTO 09004KT 6000 -SN NCD M00/M01 Q1023=
201902182100 METAR LRSM 182100Z AUTO 09003KT 5000 -SHSN NCD M01/M01 Q1023=
201902182130 METAR LRSM 182130Z AUTO 08002KT 5000 -SHSN NCD M01/M01 Q1023=
201902182200 METAR LRSM 182200Z AUTO 08002KT 5000 -SN NCD M01/M01 Q1023=
201902182230 METAR LRSM 182230Z AUTO 11002KT 5000 -SN NCD M01/M01 Q1023=
201902182300 METAR LRSM 182300Z AUTO 11003KT 5000 -SN NCD M01/M02 Q1023=
201902182330 METAR LRSM 182330Z AUTO 11002KT 5000 -SN NCD M02/M02 Q1023=
201902190000 METAR LRSM 190000Z AUTO 10003KT 5000 -SN NCD M01/M01 Q1023=
201902190030 METAR LRSM 190030Z AUTO 09003KT 5000 -SHSN NCD M01/M01 Q1023=
201902190100 METAR LRSM 190100Z AUTO 11004KT 5000 NCD M01/M01 Q1022 RESN=
201902190130 METAR LRSM 190130Z AUTO 08004KT 5000 NCD M02/M02 Q1022 RESN=
201902190200 METAR LRSM 190200Z AUTO 10004KT 5000 BR NCD M02/M02 Q1022=
201902190230 METAR LRSM 190230Z AUTO 11003KT 5000 BR NCD M02/M02 Q1022=
201902190300 METAR LRSM 190300Z AUTO 11003KT 5000 BR NCD M02/M02 Q1022=
201902190330 METAR LRSM 190330Z 00000KT 5000 BR NSC M02/M02 Q1022=
201902190400 METAR LRSM 190400Z 00000KT 5000 MIFG BR NSC M02/M02 Q1021=
201902190430 METAR LRSM 190430Z 00000KT 5000 MIFG BR NSC M03/M03 Q1021=
201902190500 METAR LRSM 190500Z 00000KT 5000 MIFG BR NSC M03/M03 Q1021=
201902190530 METAR LRSM 190530Z 00000KT 3500 MIFG BR NSC M03/M03 Q1021=
201902190600 METAR LRSM 190600Z 00000KT 3500 MIFG BR NSC M03/M03 Q1022=
201902190630 METAR LRSM 190630Z 00000KT 4500 BR NSC M01/M01 Q1022=
201902190700 METAR LRSM 190700Z 00000KT 5000 BR NSC 01/01 Q1022=
201902190730 METAR LRSM 190730Z VRB01KT 5000 BR NSC 03/02 Q1022=
201902190800 METAR LRSM 190800Z VRB01KT 7000 NSC 05/02 Q1021=
201902190830 METAR LRSM 190830Z VRB01KT 9000 NSC 07/02 Q1021=
201902190900 METAR LRSM 190900Z VRB01KT CAVOK 09/01 Q1021=
201902190930 METAR LRSM 190930Z VRB02KT CAVOK 09/02 Q1021=
201902191000 METAR LRSM 191000Z VRB02KT CAVOK 10/02 Q1021=
201902191030 METAR LRSM 191030Z VRB02KT CAVOK 11/02 Q1021=
201902191100 METAR LRSM 191100Z 11003KT 030V170 CAVOK 11/02 Q1020=
201902191130 METAR LRSM 191130Z 20004KT 160V250 CAVOK 12/01 Q1020=
201902191200 METAR LRSM 191200Z 21005KT 160V250 CAVOK 13/02 Q1020=
201902191230 METAR LRSM 191230Z 17003KT 120V230 CAVOK 13/02 Q1020=
201902191300 METAR LRSM 191300Z 17004KT 130V210 CAVOK 14/01 Q1019=
201902191330 METAR LRSM 191330Z 20003KT 120V260 CAVOK 14/M00 Q1019=
201902191400 METAR LRSM 191400Z 21003KT 160V260 CAVOK 14/01 Q1019=
201902191430 METAR LRSM 191430Z 16003KT 130V210 CAVOK 13/01 Q1018=
201902191500 METAR LRSM 191500Z 00000KT CAVOK 15/01 Q1018=
201902191530 METAR LRSM 191530Z 00000KT CAVOK 13/01 Q1018=
201902191600 METAR LRSM 191600Z 08002KT CAVOK 11/01 Q1018=
201902191630 METAR LRSM 191630Z 18003KT CAVOK 09/02 Q1018=
201902191700 METAR LRSM 191700Z 21004KT CAVOK 09/01 Q1018=
201902191730 METAR LRSM 191730Z AUTO 18003KT 9999 NCD 06/01 Q1018=
201902191800 METAR LRSM 191800Z AUTO 16004KT 9999 NCD 04/01 Q1018=
201902191830 METAR LRSM 191830Z AUTO 16002KT 9999 NCD 03/01 Q1018=
201902191900 METAR LRSM 191900Z AUTO 16002KT 050V180 9999 NCD 03/01 Q1018=
201902191930 METAR LRSM 191930Z AUTO 19004KT 9000 NCD 03/00 Q1018=
201902192000 METAR LRSM 192000Z AUTO 14003KT 050V190 8000 NCD 01/M00 Q1018=
201902192030 METAR LRSM 192030Z AUTO 19003KT 160V220 9000 NCD 02/00 Q1018=
201902192100 METAR LRSM 192100Z AUTO 15001KT 8000 NCD 00/M01 Q1018=
201902192130 METAR LRSM 192130Z AUTO 09004KT 6000 NCD 00/M01 Q1018=
201902192200 METAR LRSM 192200Z AUTO 09003KT 7000 NCD M00/M01 Q1017=
201902192230 METAR LRSM 192230Z AUTO VRB01KT 8000 NCD M00/M01 Q1017=
201902192300 METAR LRSM 192300Z AUTO 20002KT 150V270 7000 NCD M00/M01
                        Q1017=
201902192330 METAR LRSM 192330Z AUTO 27003KT 230V300 6000 NCD M01/M02
                        Q1017=
201902200000 METAR LRSM 200000Z AUTO 35002KT 6000 NCD M01/M01 Q1018=
201902200030 METAR LRSM 200030Z AUTO 00000KT 6000 NCD M01/M01 Q1017=
201902200100 METAR LRSM 200100Z AUTO 00000KT 6000 NCD M01/M01 Q1017=
201902200130 METAR LRSM 200130Z AUTO 16002KT 6000 NCD M01/M02 Q1017=
201902200200 METAR LRSM 200200Z AUTO 17003KT 5000 BR NCD M02/M02 Q1017=
201902200230 METAR LRSM 200230Z AUTO 20004KT 6000 NCD M01/M01 Q1017=
201902200300 METAR LRSM 200300Z AUTO 20004KT 6000 NCD M01/M01 Q1017=
201902200330 METAR LRSM 200330Z 18003KT 6000 NSC M01/M01 Q1017=
201902200400 METAR LRSM 200400Z 12002KT 7000 NSC M02/M02 Q1017=
201902200430 METAR LRSM 200430Z 12002KT 6000 NSC M02/M02 Q1017=
201902200500 METAR LRSM 200500Z 12001KT 6000 SCT047 M02/M02 Q1017=
201902200530 METAR LRSM 200530Z 11004KT 040V120 5000 BR BKN044 M02/M02
                        Q1017=
201902200600 METAR LRSM 200600Z 09004KT 5000 BR BKN044 M02/M02 Q1018=
201902200630 METAR LRSM 200630Z 16003KT 130V210 5000 BR SCT041 M01/M01
                        Q1018=
201902200700 METAR LRSM 200700Z 19006KT 6000 SCT041 00/M00 Q1018=
201902200730 METAR LRSM 200730Z 21004KT 6000 SCT043 02/01 Q1019=
201902200800 METAR LRSM 200800Z 25006KT 5000 BR FEW009 BKN040 02/01 Q1019=
201902200830 METAR LRSM 200830Z 24005KT 3500 BR FEW009 OVC036 02/02 Q1019=
201902200900 METAR LRSM 200900Z 24006KT 210V270 3500 BR BKN036 03/02 Q1020=
201902200930 METAR COR LRSM 200930Z 23006KT 190V250 4000 BR SCT040 05/03
                        Q1020=
201902201000 METAR LRSM 201000Z 25007KT 220V280 4000 BR SCT040 05/03 Q1020=
201902201030 METAR LRSM 201030Z 26007KT 240V300 4500 BR FEW009 SCT040
                        06/04 Q1020=
201902201100 METAR LRSM 201100Z 28004KT 240V330 6000 SCT040 07/04 Q1020=
201902201130 METAR LRSM 201130Z 29005KT 250V330 6000 SCT040 08/03 Q1020=
201902201200 METAR COR LRSM 201200Z 30006KT 260V320 8000 FEW040 09/03
                        Q1020=
201902201230 METAR LRSM 201230Z 30007KT 9999 FEW040 10/02 Q1020=
201902201300 METAR LRSM 201300Z 30007KT 260V340 9999 FEW040 10/02 Q1020=
201902201330 METAR LRSM 201330Z 36012KT 9999 VCSH BKN035CB SCT041 08/02
                        Q1020=
201902201400 METAR LRSM 201400Z 34006KT 9999 FEW035CB SCT043 07/02 Q1020=
201902201430 METAR LRSM 201430Z 34006KT 9999 SCT040 07/01 Q1020=
201902201500 METAR LRSM 201500Z 32006KT 9999 -RA BKN046 07/02 Q1021=
201902201530 METAR LRSM 201530Z 34007KT 9999 BKN044 06/02 Q1021 R01/19//95=
201902201600 METAR LRSM 201600Z 02004KT 320V040 9999 BKN042 06/01 Q1021
                        R01/19//95=
201902201630 METAR LRSM 201630Z 28004KT CAVOK 05/01 Q1021 R01/19//95=
201902201700 METAR LRSM 201700Z 26006KT CAVOK 05/01 Q1021 R01/19//95=
201902201730 METAR LRSM 201730Z AUTO 28007KT 9999 BKN060/// BKN075///
                        06/01 Q1021=
201902201800 METAR LRSM 201800Z AUTO 28006KT 9999 BKN075/// BKN090///
                        05/01 Q1021 RESN=
201902201830 METAR LRSM 201830Z AUTO 27004KT 9999 BKN080/// 05/01 Q1022=
201902201900 METAR LRSM 201900Z AUTO 25004KT 9999 BKN075/// BKN090///
                        04/01 Q1022=
201902201930 METAR LRSM 201930Z AUTO 26004KT 9999 FEW075/// 02/01 Q1022
                        REUP=
201902202000 METAR LRSM 202000Z AUTO 26004KT 9999 FEW080/// BKN230///
                        02/01 Q1022=
201902202030 METAR LRSM 202030Z AUTO 29005KT 9999 SCT220/// 01/M01 Q1022=
201902202100 METAR LRSM 202100Z AUTO 28005KT 9999 NCD 01/M01 Q1023=
201902202130 METAR LRSM 202130Z AUTO 28004KT 9999 NCD 00/M02 Q1023 REUP=
201902202200 METAR LRSM 202200Z AUTO 24004KT 9999 FEW075/// M00/M02 Q1023
                        RESN=
201902202230 METAR LRSM 202230Z AUTO 25004KT 9999 -SHSN FEW075/// 00/M02
                        Q1023=
201902202300 METAR LRSM 202300Z AUTO 24003KT 220V290 9999 SCT075/// 00/M02
                        Q1023 RESN=
201902202330 METAR LRSM 202330Z AUTO 21005KT 9999 BKN070/// 01/M01 Q1024=
201902210000 METAR LRSM 210000Z AUTO 22004KT 9999 BKN070/// 00/M02 Q1024=
201902210030 METAR LRSM 210030Z AUTO 25006KT 9999 BKN070/// 01/M01 Q1024=
201902210100 METAR LRSM 210100Z AUTO 24005KT 9999 OVC070/// 01/M01 Q1024=
201902210130 METAR LRSM 210130Z AUTO 24006KT 9999 BKN065/// 02/M01 Q1024=
201902210200 METAR LRSM 210200Z AUTO 22004KT 9999 OVC065/// 01/M01 Q1024=
201902210230 METAR LRSM 210230Z AUTO 23005KT 9999 BKN070/// 01/M01 Q1024=
201902210300 METAR LRSM 210300Z AUTO 23006KT 9999 SCT065/// 01/M02 Q1024=
201902210330 METAR LRSM 210330Z 22006KT CAVOK 00/M01 Q1024 R01/19//95=
201902210400 METAR LRSM 210400Z 22004KT CAVOK M00/M01 Q1024 R01/CLRD//=
201902210430 METAR LRSM 210430Z 20006KT CAVOK 00/M01 Q1025=
201902210500 METAR LRSM 210500Z 21005KT CAVOK 01/M01 Q1025=
201902210530 METAR LRSM 210530Z 21005KT CAVOK 01/M01 Q1025=
201902210600 METAR LRSM 210600Z 21005KT CAVOK 01/M01 Q1025=
201902210630 METAR LRSM 210630Z 21006KT CAVOK 01/M01 Q1025=
201902210700 METAR LRSM 210700Z 22005KT CAVOK 02/M01 Q1026=
201902210730 METAR LRSM 210730Z 22004KT CAVOK 03/M01 Q1026=
201902210800 METAR LRSM 210800Z 22004KT CAVOK 04/00 Q1026=
201902210830 METAR LRSM 210830Z 25007KT CAVOK 04/00 Q1026=
201902210900 METAR LRSM 210900Z 25008KT CAVOK 05/01 Q1026=
201902210930 METAR LRSM 210930Z 25007KT CAVOK 06/02 Q1026=
201902211000 METAR LRSM 211000Z 27005KT CAVOK 07/01 Q1026=
201902211030 METAR LRSM 211030Z 24007KT CAVOK 07/02 Q1026=
201902211100 METAR LRSM 211100Z 25008KT CAVOK 07/02 Q1026=
201902211130 METAR LRSM 211130Z 25008KT CAVOK 09/02 Q1025=
201902211200 METAR LRSM 211200Z 26010KT CAVOK 09/01 Q1025=
201902211230 METAR LRSM 211230Z 25010KT CAVOK 09/M01 Q1025=
201902211300 METAR LRSM 211300Z 25009KT CAVOK 09/00 Q1024=
201902211330 METAR LRSM 211330Z 25008KT CAVOK 09/01 Q1024=
201902211400 METAR LRSM 211400Z 25007KT CAVOK 09/01 Q1024=
201902211430 METAR LRSM 211430Z 26007KT CAVOK 09/00 Q1024=
201902211500 METAR LRSM 211500Z 27006KT CAVOK 08/00 Q1024=
201902211530 METAR LRSM 211530Z 25005KT CAVOK 08/01 Q1024=
201902211600 METAR LRSM 211600Z 23004KT CAVOK 08/00 Q1023=
201902211630 METAR LRSM 211630Z 24007KT CAVOK 07/00 Q1023=
201902211700 METAR LRSM 211700Z 24008KT CAVOK 07/M01 Q1023=
201902211730 METAR LRSM 211730Z AUTO 25005KT 9999 OVC100/// 05/00 Q1023=
201902211800 METAR LRSM 211800Z AUTO 22004KT 9999 BKN100/// 06/M00 Q1023=
201902211830 METAR LRSM 211830Z AUTO 23005KT 9999 OVC100/// 06/M00 Q1023=
201902211900 METAR LRSM 211900Z AUTO 22006KT 9999 BKN090/// BKN100///
                        06/M01 Q1022=
201902211930 METAR LRSM 211930Z AUTO 20006KT 9999 BKN080/// OVC100///
                        05/M00 Q1022=
201902212000 METAR LRSM 212000Z AUTO 20005KT 9999 UP OVC080/// 05/M00
                        Q1022=
201902212030 METAR LRSM 212030Z AUTO 19005KT 9999 BKN080/// OVC100///
                        05/M00 Q1022=
201902212100 METAR LRSM 212100Z AUTO 20005KT 9999 BKN075/// OVC090///
                        05/M00 Q1021 REUP=
201902212130 METAR LRSM 212130Z AUTO 20005KT 9999 SCT070/// OVC090///
                        04/00 Q1021=
201902212200 METAR LRSM 212200Z AUTO 20005KT 9999 FEW070/// BKN085///
                        04/M00 Q1021=
201902212230 METAR LRSM 212230Z AUTO 20005KT 9999 BKN055/// OVC075///
                        04/M00 Q1020=
201902212300 METAR LRSM 212300Z AUTO 21004KT 9999 SCT050/// BKN065///
                        OVC085/// 04/M00 Q1020=
201902212330 METAR LRSM 212330Z AUTO 25008KT 9999 -SHSN BKN041/// OVC049///
                        05/00 Q1020=
201902220000 METAR LRSM 220000Z AUTO 25009KT 9999 -SHRA BKN028/// BKN044///
                        04/02 Q1020=
201902220030 METAR LRSM 220030Z AUTO 28005KT 6000 RA BKN023/// OVC029///
                        04/03 Q1020=
201902220100 METAR LRSM 220100Z AUTO 28004KT 6000 RA BKN021/// 04/03 Q1019=
201902220130 METAR LRSM 220130Z AUTO 24006KT 6000 -RA BKN018/// OVC022///
                        04/03 Q1019=
201902220200 METAR LRSM 220200Z AUTO 24004KT 5000 -RA SCT016/// BKN019///
                        OVC022/// 03/03 Q1019=
201902220230 METAR LRSM 220230Z AUTO 28003KT 3800 -RA SCT012/// OVC017///
                        03/03 Q1018=
201902220300 METAR LRSM 220300Z AUTO 00000KT 5000 -RA FEW015/// BKN022///
                        OVC027/// 03/03 Q1018=
201902220330 METAR LRSM 220330Z 00000KT 5000 -RA BR OVC021 03/03 Q1018
                        R01/29//95=
201902220400 METAR LRSM 220400Z 00000KT 4000 -RA BR BKN018 OVC027 03/03
                        Q1018 R01/29//95=
201902220430 METAR LRSM 220430Z 00000KT 3500 -RA BR BKN020 OVC039 03/03
                        Q1017 R01/29//95=
201902220500 METAR LRSM 220500Z 00000KT 3000 -RA BR SCT003 BKN017 OVC030
                        03/03 Q1017 R01/29//95=
201902220530 METAR LRSM 220530Z 00000KT 2500 -RA BR BKN004 OVC018 03/03
                        Q1017 R01/29//95=
201902220600 METAR LRSM 220600Z 00000KT 1500 -RA BR BKN003 OVC016 03/03
                        Q1018 R01/29//95=
201902220630 METAR LRSM 220630Z 00000KT 1500 -RA BR SCT001 BKN003 OVC011
                        03/03 Q1018 R01/29//95=
201902220700 METAR LRSM 220700Z 00000KT 1500 -RA BR SCT001 OVC007 03/03
                        Q1017 R01/29//95=
201902220730 METAR LRSM 220730Z 26001KT 1400 R19/1500D -DZ BR SCT001 OVC003
                        04/04 Q1017 R01/29//95=
201902220800 METAR LRSM 220800Z 00000KT 1200 R19/1300D -DZ BR BKN001 OVC003
                        04/04 Q1017 R01/29//95=
201902220830 METAR LRSM 220830Z 29003KT 250V320 1500 -DZ BR BKN001 OVC003
                        04/04 Q1018 R01/29//95=
201902220900 METAR LRSM 220900Z 36004KT 2000 -RA BR BKN001 OVC003 04/04
                        Q1018 R01/29//95=
201902220930 METAR LRSM 220930Z 34004KT 2000 BR OVC002 04/04 Q1018 R01/29//95=
201902221000 METAR LRSM 221000Z 03006KT 1700 -RA BR BKN002 OVC003 04/04
                        Q1018 R01/29//95=
201902221030 METAR LRSM 221030Z 36012KT 1500 -RA BR BKN001 BKN003 04/04
                        Q1018 R01/29//95=
201902221100 METAR LRSM 221100Z 02014KT 9999 -RA SCT007 BKN044 04/02 Q1018
                        R01/29//95=
201902221130 METAR LRSM 221130Z 36015KT 9999 BKN026 04/M01 Q1019 R01/29//95=
201902221200 METAR LRSM 221200Z 01019KT 9999 FEW020 BKN026 03/M03 Q1019
                        R01/29//95=
201902221230 METAR LRSM 221230Z 01021KT 9999 FEW030 03/M03 Q1019 R01/29//95=
201902221300 METAR LRSM 221300Z 01022KT 9999 FEW033 04/M05 Q1020 R01/29//95=
201902221330 METAR LRSM 221330Z 01023KT 9999 FEW033 03/M07 Q1021 R01/29//95=
201902221400 METAR LRSM 221400Z 02021KT 9999 FEW040 02/M07 Q1022 R01/29//95=
201902221430 METAR LRSM 221430Z 02021KT CAVOK 02/M09 Q1022 R01/29//95=
201902221500 METAR LRSM 221500Z 02022G33KT CAVOK 01/M11 Q1023 R01/CLRD//=
201902221530 METAR LRSM 221530Z 02024KT CAVOK 00/M11 Q1024=
201902221600 METAR LRSM 221600Z 02019KT CAVOK M01/M12 Q1025=
201902221630 METAR LRSM 221630Z 02020KT CAVOK M01/M13 Q1026=
201902221700 METAR LRSM 221700Z 02019KT CAVOK M02/M12 Q1027=
201902221730 METAR LRSM 221730Z AUTO 02018KT 9999 -SHSN NCD M02/M11 Q1028=
201902221800 METAR LRSM 221800Z AUTO 02016KT 9999 -SN NCD M03/M12 Q1029=
201902221830 METAR LRSM 221830Z AUTO 03016KT 9999 -SN FEW060/// M03/M13
                        Q1029=
201902221900 METAR LRSM 221900Z AUTO 04016KT 9999 -SN FEW065/// M03/M13
                        Q1030=
201902221930 METAR LRSM 221930Z AUTO 04013KT 9999 -SN NCD M04/M13 Q1031=
201902222000 METAR LRSM 222000Z AUTO 03010KT 9999 -SN FEW065/// M04/M12
                        Q1031=
201902222030 METAR LRSM 222030Z AUTO 03011KT 9999 -SN NCD M04/M12 Q1032=
201902222100 METAR LRSM 222100Z AUTO 03012KT 9999 -SN NCD M04/M12 Q1032=
201902222130 METAR LRSM 222130Z AUTO 03012KT 9999 -SN NCD M04/M12 Q1032=
201902222200 METAR LRSM 222200Z AUTO 03013KT 9999 -SN NCD M04/M12 Q1033=
201902222230 METAR LRSM 222230Z AUTO 02013KT 9999 -SN NCD M04/M12 Q1033=
201902222300 METAR LRSM 222300Z AUTO 02012KT 9999 -SN NCD M04/M12 Q1033=
201902222330 METAR LRSM 222330Z AUTO 02010KT 9999 -SN NCD M04/M11 Q1034=
201902230000 METAR LRSM 230000Z AUTO 02010KT 9999 -SN NCD M04/M11 Q1034=
201902230030 METAR LRSM 230030Z AUTO 36007KT 9999 -SN NCD M04/M11 Q1035=
201902230100 METAR LRSM 230100Z AUTO 34006KT 9999 -SN NCD M05/M11 Q1035=
201902230130 METAR LRSM 230130Z AUTO 01010KT 9999 -SN NCD M04/M12 Q1035=
201902230200 METAR LRSM 230200Z AUTO 02010KT 9999 -SN NCD M04/M12 Q1036=
201902230230 METAR LRSM 230230Z AUTO 01010KT 9999 -SN NCD M04/M11 Q1036=
201902230300 METAR LRSM 230300Z AUTO 36007KT 9999 -SN NCD M05/M12 Q1036=
201902230330 METAR LRSM 230330Z AUTO 36009KT 9999 -SN NCD M05/M11 Q1036=
201902230400 METAR LRSM 230400Z AUTO 01008KT 9999 -SN NCD M05/M12 Q1036=
201902230430 METAR LRSM 230430Z AUTO 35007KT 9999 -SN NCD M05/M11 Q1037=
201902230500 METAR LRSM 230500Z 01010KT CAVOK M05/M12 Q1037=
201902230530 METAR LRSM 230530Z 36007KT CAVOK M05/M12 Q1037=
201902230600 METAR LRSM 230600Z 01009KT CAVOK M05/M12 Q1038=
201902230630 METAR LRSM 230630Z 01008KT CAVOK M04/M12 Q1038=
201902230700 METAR LRSM 230700Z 02008KT CAVOK M03/M12 Q1038=
201902230730 METAR LRSM 230730Z 03010KT CAVOK M03/M13 Q1038=
201902230800 METAR LRSM 230800Z 03011KT CAVOK M02/M13 Q1038=
201902230830 METAR LRSM 230830Z 04009KT CAVOK M01/M13 Q1038=
201902230900 METAR LRSM 230900Z 03010KT 360V060 CAVOK M01/M13 Q1039=
201902230930 METAR LRSM 230930Z 02008KT 340V050 CAVOK M01/M13 Q1039=
201902231000 METAR LRSM 231000Z 05008KT CAVOK M00/M14 Q1039=
201902231030 METAR LRSM 231030Z 34009KT CAVOK M00/M12 Q1039=
201902231100 METAR LRSM 231100Z 36007KT 320V020 CAVOK M00/M13 Q1039=
201902231130 METAR LRSM 231130Z 03010KT CAVOK 00/M13 Q1039=
201902231200 METAR LRSM 231200Z 34007KT CAVOK 01/M11 Q1039=
201902231230 METAR LRSM 231230Z 34011KT CAVOK 01/M10 Q1039=
201902231300 METAR LRSM 231300Z 34011KT CAVOK 01/M11 Q1039=
201902231330 METAR LRSM 231330Z 03009KT CAVOK 01/M12 Q1038=
201902231400 METAR LRSM 231400Z 35009KT CAVOK 01/M10 Q1038=
201902231430 METAR LRSM 231430Z 35009KT CAVOK 01/M11 Q1038=
201902231500 METAR LRSM 231500Z 35009KT CAVOK 01/M10 Q1038=
201902231530 METAR LRSM 231530Z 01007KT CAVOK 00/M10 Q1038=
201902231600 METAR LRSM 231600Z 35005KT CAVOK M01/M08 Q1038=
201902231630 METAR LRSM 231630Z 01005KT CAVOK M01/M09 Q1038=
201902231700 METAR LRSM 231700Z 01006KT CAVOK M01/M10 Q1038=
201902231730 METAR LRSM 231730Z AUTO 02008KT 9999 -SN BKN220/// M02/M09
                        Q1039=
201902231800 METAR LRSM 231800Z AUTO 02007KT 9999 -SN FEW220/// M02/M10
                        Q1039=
201902231830 METAR LRSM 231830Z AUTO 03008KT 9999 -SN BKN180/// M03/M09
                        Q1039=
201902231900 METAR LRSM 231900Z AUTO 03007KT 9999 -SN FEW190/// M04/M09
                        Q1039=
201902231930 METAR LRSM 231930Z AUTO 05009KT 9999 -SN NCD M03/M10 Q1039=
201902232000 METAR LRSM 232000Z AUTO 02006KT 9999 -SN NCD M03/M09 Q1039=
201902232030 METAR LRSM 232030Z AUTO 04007KT 9999 -SN BKN240/// M04/M09
                        Q1039=
201902232100 METAR LRSM 232100Z AUTO 03004KT 9999 -SN BKN240/// M04/M10
                        Q1039=
201902232130 METAR LRSM 232130Z AUTO 03003KT 340V060 9999 -SN BKN240///
                        M04/M10 Q1039=
201902232200 METAR LRSM 232200Z AUTO 01004KT 9999 -SN BKN210/// M04/M10
                        Q1039=
201902232230 METAR LRSM 232230Z AUTO 03006KT 9999 -SHSN FEW240/// M06/M11
                        Q1040=
201902232300 METAR LRSM 232300Z AUTO 03006KT 9999 -SHSN NCD M06/M11 Q1040=
201902232330 METAR LRSM 232330Z AUTO 06003KT 030V100 9999 -SHSN NCD M06/M10
                        Q1039=
201902240000 METAR LRSM 240000Z AUTO 07005KT 9999 -SN BKN120/// M06/M09
                        Q1039=
201902240030 METAR LRSM 240030Z AUTO 12003KT 080V160 9999 -SN OVC120///
                        M05/M09 Q1039=
201902240100 METAR LRSM 240100Z AUTO 09003KT 060V120 9999 -SN BKN120///
                        M05/M09 Q1039=
201902240130 METAR LRSM 240130Z AUTO 04002KT 9999 -SN SCT100/// BKN120///
                        M05/M09 Q1039=
201902240200 METAR LRSM 240200Z AUTO 35001KT 9999 -SN BKN095/// M05/M08
                        Q1039=
201902240230 METAR LRSM 240230Z AUTO 07003KT 9999 -SN FEW085/// BKN240///
                        M05/M09 Q1039=
201902240300 METAR LRSM 240300Z AUTO 07002KT 9999 -SN BKN120/// BKN240///
                        M06/M09 Q1038=
201902240330 METAR LRSM 240330Z AUTO 00000KT 9999 -SN BKN120/// M05/M08
                        Q1038=
201902240400 METAR LRSM 240400Z AUTO 04004KT 9999 -SN BKN120/// BKN130///
                        M06/M08 Q1038=
201902240430 METAR LRSM 240430Z AUTO 11002KT 9999 -SN FEW075/// BKN120///
                        M05/M08 Q1038=
201902240500 METAR LRSM 240500Z AUTO 11002KT 9999 -SN SCT070/// OVC085///
                        M05/M08 Q1038=
201902240530 METAR LRSM 240530Z AUTO 00000KT 9999 -SN OVC075/// M05/M07
                        Q1038=
201902240600 METAR LRSM 240600Z AUTO 00000KT 9999 -SN FEW070/// BKN085///
                        M04/M07 Q1038=
201902240630 METAR LRSM 240630Z AUTO 00000KT 9999 -SN BKN070/// OVC085///
                        M04/M07 Q1038=
201902240700 METAR LRSM 240700Z AUTO 00000KT 9999 -SN BKN070/// M03/M07
                        Q1038=
201902240730 METAR LRSM 240730Z AUTO 20002KT 160V220 9999 -SN BKN065///
                        M03/M08 Q1038=
201902240800 METAR LRSM 240800Z AUTO VRB02KT 9999 -SN BKN065/// M02/M08
                        Q1038=
201902240830 METAR LRSM 240830Z AUTO 33003KT 300V360 9999 -SN OVC060///
                        M02/M08 Q1038=
201902240900 METAR LRSM 240900Z AUTO 32002KT 270V360 9999 -SN BKN065///
                        M02/M09 Q1039=
201902240930 METAR LRSM 240930Z AUTO 34002KT 260V050 9999 -SN BKN060///
                        BKN075/// M01/M09 Q1039=
201902241000 METAR LRSM 241000Z AUTO 33002KT 240V040 9999 -SN SCT041///
                        BKN047/// M01/M09 Q1039=
201902241030 METAR LRSM 241030Z AUTO VRB02KT 9999 -SN BKN060/// M01/M09
                        Q1038=
201902241100 METAR LRSM 241100Z AUTO 31002KT 240V030 9999 -SN FEW036///
                        BKN050/// M01/M09 Q1038=
201902241130 METAR LRSM 241130Z AUTO 36003KT 320V050 9999 -SN BKN055///
                        M00/M10 Q1038=
201902241200 METAR LRSM 241200Z AUTO 03003KT 320V080 9999 -SN BKN047///
                        M01/M10 Q1038=
201902241230 METAR LRSM 241230Z AUTO 00000KT 9999 -SN BKN050/// M00/M10
                        Q1038=
201902241300 METAR LRSM 241300Z AUTO 33002KT 290V360 9999 -SN OVC050///
                        M00/M10 Q1038=
201902241330 METAR LRSM 241330Z AUTO VRB01KT 9999 -SN OVC050/// M00/M10
                        Q1037=
201902241400 METAR LRSM 241400Z AUTO VRB01KT 9999 -SN OVC050/// M00/M10
                        Q1037=
201902241430 METAR LRSM 241430Z AUTO 33002KT 9999 -SN OVC048/// M00/M09
                        Q1037=
201902241500 METAR LRSM 241500Z AUTO 35002KT 9999 -SN OVC049/// M00/M09
                        Q1037=
201902241530 METAR LRSM 241530Z AUTO 33004KT 9999 -SN OVC048/// M01/M09
                        Q1037=
201902241600 METAR LRSM 241600Z AUTO 34003KT 9999 -SN OVC046/// M01/M09
                        Q1037=
201902241630 METAR LRSM 241630Z AUTO 08003KT 040V110 9999 -SN OVC047///
                        M01/M09 Q1037=
201902241700 METAR LRSM 241700Z AUTO 11003KT 9999 -SN OVC046/// M01/M08
                        Q1036=
201902241730 METAR LRSM 241730Z AUTO 11001KT 9999 -SN OVC044/// M01/M09
                        Q1036=
201902241800 METAR LRSM 241800Z AUTO 00000KT 9999 -SN OVC045/// M01/M08
                        Q1036=
201902241830 METAR LRSM 241830Z AUTO 00000KT 9999 -SN OVC045/// M01/M08
                        Q1036=
201902241900 METAR LRSM 241900Z AUTO 00000KT 9999 -SN OVC046/// M01/M08
                        Q1036=
201902241930 METAR LRSM 241930Z AUTO 00000KT 9999 -SN OVC046/// M01/M07
                        Q1036=
201902242000 METAR LRSM 242000Z AUTO 00000KT 9999 -SN OVC047/// M01/M07
                        Q1037=
201902242030 METAR LRSM 242030Z AUTO 00000KT 9999 -SN OVC046/// M01/M06
                        Q1037=
201902242100 METAR LRSM 242100Z AUTO 22003KT 9999 -SN OVC046/// M01/M06
                        Q1036=
201902242130 METAR LRSM 242130Z AUTO 21004KT 9999 -SN BKN045/// M01/M06
                        Q1036=
201902242200 METAR LRSM 242200Z AUTO 20004KT 9999 -SN OVC044/// M01/M06
                        Q1036=
201902242230 METAR LRSM 242230Z AUTO 24002KT 9999 -SN BKN042/// M01/M06
                        Q1036=
201902242300 METAR LRSM 242300Z AUTO 24003KT 9999 -SN OVC042/// M01/M05
                        Q1036=
201902242330 METAR LRSM 242330Z AUTO 32003KT 9999 -SN BKN041/// M01/M05
                        Q1037=
201902250000 METAR LRSM 250000Z AUTO 32004KT 9999 -SN OVC041/// M01/M05
                        Q1037=
201902250030 METAR LRSM 250030Z AUTO 28001KT 9999 -SN BKN040/// M01/M05
                        Q1036=
201902250100 METAR LRSM 250100Z AUTO 10003KT 9999 -SN OVC039/// M01/M05
                        Q1036=
201902250130 METAR LRSM 250130Z AUTO 12003KT 9999 -SN BKN038/// M01/M05
                        Q1036=
201902250200 METAR LRSM 250200Z AUTO 15003KT 9999 -SN OVC037/// M01/M05
                        Q1036=
201902250230 METAR LRSM 250230Z AUTO 15003KT 9999 -SN BKN036/// M01/M05
                        Q1036=
201902250300 METAR LRSM 250300Z AUTO 00000KT 9999 -SN OVC036/// M01/M05
                        Q1036=
201902250330 METAR LRSM 250330Z 00000KT 9999 OVC037 M01/M05 Q1036=
201902250400 METAR LRSM 250400Z 12002KT 9999 OVC037 M01/M05 Q1035=
201902250430 METAR LRSM 250430Z 12001KT 9999 BKN038 M01/M05 Q1035=
201902250500 METAR LRSM 250500Z 00000KT 9999 BKN038 M02/M05 Q1035=
201902250530 METAR LRSM 250530Z 06001KT 9999 SCT038 M02/M04 Q1036=
201902250600 METAR LRSM 250600Z 15003KT 9999 SCT038 M01/M04 Q1036=
201902250630 METAR LRSM 250630Z 14002KT 9999 FEW040 M01/M05 Q1036=
201902250700 METAR LRSM 250700Z 00000KT CAVOK M01/M05 Q1036=
201902250730 METAR LRSM 250730Z VRB01KT CAVOK 01/M08 Q1036=
201902250800 METAR LRSM 250800Z 22004KT 190V260 CAVOK 01/M08 Q1036=
201902250830 METAR LRSM 250830Z 25003KT 150V310 CAVOK 01/M08 Q1036=
201902250900 METAR LRSM 250900Z 22003KT 140V310 CAVOK 02/M08 Q1036=
201902250930 METAR LRSM 250930Z 30003KT 230V010 CAVOK 03/M09 Q1036=
201902251000 METAR LRSM 251000Z VRB03KT CAVOK 03/M08 Q1036=
201902251030 METAR LRSM 251030Z 31003KT 270V030 CAVOK 03/M09 Q1036=
201902251100 METAR LRSM 251100Z 27005KT 210V320 CAVOK 04/M08 Q1035=
201902251130 METAR LRSM 251130Z 30004KT 230V020 CAVOK 05/M08 Q1035=
201902251200 METAR LRSM 251200Z VRB04KT CAVOK 05/M08 Q1035=
201902251230 METAR LRSM 251230Z 26005KT 200V330 CAVOK 05/M09 Q1034=
201902251300 METAR LRSM 251300Z 28007KT 240V330 CAVOK 06/M08 Q1034=
201902251330 METAR LRSM 251330Z 28006KT 250V330 CAVOK 06/M09 Q1034=
201902251400 METAR LRSM 251400Z 25004KT 200V320 CAVOK 06/M09 Q1033=
201902251430 METAR LRSM 251430Z 24005KT 9999 SCT047 06/M08 Q1033=
201902251500 METAR LRSM 251500Z 24004KT 9999 FEW047 05/M07 Q1032=
201902251530 METAR LRSM 251530Z 24004KT CAVOK 04/M05 Q1032=
201902251600 METAR LRSM 251600Z 23005KT CAVOK 03/M05 Q1032=
201902251630 METAR LRSM 251630Z 22004KT CAVOK 02/M06 Q1032=
201902251700 METAR LRSM 251700Z 24005KT CAVOK 01/M05 Q1032=
201902251730 METAR LRSM 251730Z AUTO 23005KT 9999 -SN NCD 00/M05 Q1032=
201902251800 METAR LRSM 251800Z AUTO 25003KT 9999 -SN NCD M01/M05 Q1032=
201902251830 METAR LRSM 251830Z AUTO VRB02KT 9999 -SN NCD M01/M05 Q1031=
201902251900 METAR LRSM 251900Z AUTO 19003KT 9999 -SN NCD M01/M05 Q1031=
201902251930 METAR LRSM 251930Z AUTO 18003KT 9999 -SN BKN140/// M01/M04
                        Q1031=
201902252000 METAR LRSM 252000Z AUTO 18002KT 9999 -SN BKN140/// M00/M04
                        Q1031=
201902252030 METAR LRSM 252030Z AUTO 19003KT 9999 -SN NCD M01/M04 Q1031=
201902252100 METAR LRSM 252100Z AUTO 16002KT 9999 -SHSN NCD M02/M04 Q1031=
201902252130 METAR LRSM 252130Z AUTO 00000KT 9000 -SHSN NCD M03/M04 Q1030=
201902252200 METAR LRSM 252200Z AUTO 00000KT 9999 -SN NCD M03/M05 Q1030=
201902252230 METAR LRSM 252230Z AUTO 00000KT 9000 -SN NCD M04/M05 Q1030=
201902252300 METAR LRSM 252300Z AUTO 00000KT 9999 -SHSN NCD M04/M04 Q1030=
201902252330 METAR LRSM 252330Z AUTO 00000KT 9999 -SHSN FEW046/// M03/M05
                        Q1030=
201902260000 METAR LRSM 260000Z AUTO 00000KT 9999 -SN NCD M03/M04 Q1029=
201902260030 METAR LRSM 260030Z AUTO 00000KT 9999 -SHSN NCD M04/M05 Q1028=
201902260100 METAR LRSM 260100Z AUTO 00000KT 9999 -SHSN NCD M04/M05 Q1028=
201902260130 METAR LRSM 260130Z AUTO 00000KT 9999 -SHSN NCD M04/M05 Q1028=
201902260200 METAR LRSM 260200Z AUTO 00000KT 9999 -SHSN NCD M05/M05 Q1028=
201902260230 METAR LRSM 260230Z AUTO 00000KT 9999 -SHSN NCD M05/M05 Q1027=
201902260300 METAR LRSM 260300Z AUTO 00000KT 9000 -SN NCD M05/M05 Q1027=
201902260330 METAR LRSM 260330Z 00000KT 8000 NSC M04/M05 Q1027=
201902260400 METAR LRSM 260400Z 00000KT 7000 NSC M04/M05 Q1027=
201902260430 METAR LRSM 260430Z 00000KT 8000 NSC M05/M06 Q1026=
201902260500 METAR LRSM 260500Z 00000KT 8000 NSC M04/M05 Q1026=
201902260530 METAR LRSM 260530Z 00000KT 8000 NSC M03/M04 Q1025=
201902260600 METAR LRSM 260600Z 00000KT 8000 NSC M03/M03 Q1025=
201902260630 METAR LRSM 260630Z 00000KT CAVOK M02/M02 Q1025=
201902260700 METAR LRSM 260700Z 00000KT CAVOK M01/M02 Q1024=
201902260730 METAR LRSM 260730Z 00000KT CAVOK 00/M03 Q1024=
201902260800 METAR LRSM 260800Z 00000KT CAVOK 01/M04 Q1024=
201902260830 METAR LRSM 260830Z 00000KT CAVOK 02/M03 Q1024=
201902260900 METAR LRSM 260900Z 30005KT 280V350 CAVOK 02/M03 Q1024=
201902260930 METAR LRSM 260930Z 32007KT CAVOK 03/M03 Q1023=
201902261000 METAR LRSM 261000Z 29008KT CAVOK 04/M03 Q1023=
201902261030 METAR LRSM 261030Z 31007KT CAVOK 05/M03 Q1023=
201902261100 METAR LRSM 261100Z 29008KT 260V320 9999 SCT045 06/M03 Q1022=
201902261130 METAR LRSM 261130Z 28007KT 9999 SCT044 06/M03 Q1021=
201902261200 METAR LRSM 261200Z 29008KT 260V320 9999 FEW044 07/M03 Q1021=
201902261230 METAR LRSM 261230Z 30008KT 280V340 CAVOK 08/M01 Q1021=
201902261300 METAR LRSM 261300Z 32009KT CAVOK 08/M01 Q1020=
201902261330 METAR LRSM 261330Z 32012KT 300V360 CAVOK 08/M01 Q1019=
201902261400 METAR LRSM 261400Z 34011KT CAVOK 08/M00 Q1019=
201902261430 METAR LRSM 261430Z 35008KT 330V030 CAVOK 08/M01 Q1019=
201902261500 METAR LRSM 261500Z 34006KT CAVOK 07/M00 Q1019=
201902261530 METAR LRSM 261530Z 33006KT CAVOK 06/M00 Q1019=
201902261600 METAR LRSM 261600Z 33003KT CAVOK 05/M00 Q1019=
201902261630 METAR LRSM 261630Z 29004KT CAVOK 04/M01 Q1019=
201902261700 METAR LRSM 261700Z 30006KT CAVOK 02/M01 Q1019=
201902261730 METAR LRSM 261730Z AUTO 30008KT 8000 -SN SCT065/// 02/M02
                        Q1019=
201902261800 METAR LRSM 261800Z AUTO 30010KT 8000 -SN BKN065/// 04/M01
                        Q1019=
201902261830 METAR LRSM 261830Z AUTO 32008KT 7000 -SN BKN055/// OVC070///
                        04/M01 Q1020=
201902261900 METAR LRSM 261900Z AUTO 32009KT 9999 -SN FEW055/// BKN090///
                        04/M01 Q1019=
201902261930 METAR LRSM 261930Z AUTO 33006KT 9999 -SN FEW055/// BKN080///
                        BKN095/// 04/M01 Q1019=
201902262000 METAR LRSM 262000Z AUTO 32005KT 280V350 9999 -SN SCT060///
                        BKN080/// 04/M01 Q1019=
201902262030 METAR LRSM 262030Z AUTO 33007KT 9999 -SN FEW060/// SCT090///
                        05/M01 Q1020=
201902262100 METAR LRSM 262100Z AUTO 34009KT 9999 -SN SCT075/// BKN090///
                        06/M01 Q1019=
201902262130 METAR LRSM 262130Z AUTO 31008KT 9999 -SN SCT065/// BKN080///
                        05/M01 Q1019=
201902262200 METAR LRSM 262200Z AUTO 34010KT 9999 -SN BKN065/// 06/M00
                        Q1019=
201902262230 METAR LRSM 262230Z AUTO 34008KT 9999 -SN OVC060/// 06/M00
                        Q1019=
201902262300 METAR LRSM 262300Z AUTO 35011KT 9999 -SN BKN055/// BKN070///
                        06/00 Q1020=
201902262330 METAR LRSM 262330Z AUTO 33010KT 9999 -SN SCT070/// 05/M00
                        Q1020=
201902270000 METAR LRSM 270000Z AUTO 33010KT 9999 -SN FEW070/// 05/M00
                        Q1020=
201902270030 METAR LRSM 270030Z AUTO 35009KT 9999 -SN BKN065/// 05/M00
                        Q1020=
201902270100 METAR LRSM 270100Z AUTO 35008KT 9999 -SN BKN060/// 05/M01
                        Q1021=
201902270130 METAR LRSM 270130Z AUTO 36007KT 9999 -SN OVC055/// 06/M01
                        Q1021=
201902270200 METAR LRSM 270200Z AUTO 35008KT 9999 -SN BKN055/// 05/M01
                        Q1021=
201902270230 METAR LRSM 270230Z AUTO 36007KT 9999 -SN OVC055/// 05/M01
                        Q1021=
201902270300 METAR LRSM 270300Z AUTO 32007KT 290V350 9999 -SN BKN060///
                        05/M01 Q1021=
201902270330 METAR LRSM 270330Z 29005KT CAVOK 04/M01 Q1021=
201902270400 METAR LRSM 270400Z 36005KT 320V030 CAVOK 05/M02 Q1021=
201902270430 METAR LRSM 270430Z 34006KT CAVOK 04/M01 Q1021=
201902270500 METAR LRSM 270500Z 31005KT CAVOK 03/M01 Q1021=
201902270530 METAR LRSM 270530Z 30007KT CAVOK 03/M00 Q1022=
201902270600 METAR LRSM 270600Z 30008KT CAVOK 04/00 Q1022=
201902270630 METAR LRSM 270630Z 33010KT CAVOK 05/00 Q1022=
201902270700 METAR LRSM 270700Z 33012KT CAVOK 05/00 Q1022=
201902270730 METAR LRSM 270730Z 33012KT CAVOK 06/00 Q1023=
201902270800 METAR LRSM 270800Z 34014KT CAVOK 07/00 Q1023=
201902270830 METAR LRSM 270830Z 35016KT CAVOK 08/00 Q1023=
201902270900 METAR LRSM 270900Z 35014KT CAVOK 08/01 Q1023=
201902270930 METAR LRSM 270930Z 35015KT CAVOK 09/00 Q1023=
201902271000 METAR LRSM 271000Z 35014KT CAVOK 09/M00 Q1023=
201902271030 METAR LRSM 271030Z 36013KT 320V030 9999 FEW040 09/M00 Q1023=
201902271100 METAR LRSM 271100Z 35013KT 9999 FEW045 10/M00 Q1023=
201902271130 METAR LRSM 271130Z 35014KT 320V020 9999 BKN045 10/M01 Q1022=
201902271200 METAR LRSM 271200Z 34012KT 9999 BKN045 10/M00 Q1022=
201902271230 METAR LRSM 271230Z 34012KT 9999 BKN045 09/M00 Q1022=
201902271300 METAR LRSM 271300Z 33010KT 9999 BKN045 09/M00 Q1022=
201902271330 METAR LRSM 271330Z 33012KT 9999 BKN045 08/01 Q1022=
201902271400 METAR LRSM 271400Z 33012KT 9999 BKN045 09/00 Q1022=
201902271430 METAR LRSM 271430Z 34009KT 9999 SCT045 09/00 Q1022=
201902271500 METAR LRSM 271500Z 34008KT 9999 SCT046 08/01 Q1021=
201902271530 METAR LRSM 271530Z 34009KT 9999 FEW045 08/M00 Q1021=
201902271600 METAR LRSM 271600Z 32007KT 9999 FEW047 07/00 Q1021=
201902271630 METAR LRSM 271630Z 32007KT 9999 FEW046 05/M00 Q1021=
201902271700 METAR LRSM 271700Z 32008KT CAVOK 04/M00 Q1021=
201902271730 METAR LRSM 271730Z AUTO 31006KT 9999 -SN NCD 03/M01 Q1021=
201902271800 METAR LRSM 271800Z AUTO 30007KT 9999 -SHSN NCD 01/M01 Q1021=
201902271830 METAR LRSM 271830Z AUTO 30006KT 9999 -SHSN NCD 01/M02 Q1020=
201902271900 METAR LRSM 271900Z AUTO 30006KT 9999 -SN SCT110/// 02/M02
                        Q1020=
201902271930 METAR LRSM 271930Z AUTO 21004KT 9999 -SN NCD 00/M02 Q1020=
201902272000 METAR LRSM 272000Z AUTO 23006KT 9999 -SN FEW120/// 01/M02
                        Q1020=
201902272030 METAR LRSM 272030Z AUTO 22007KT 9999 -SN BKN110/// 01/M02
                        Q1020=
201902272100 METAR LRSM 272100Z AUTO 19006KT 9999 -SN SCT110/// M01/M03
                        Q1019=
201902272130 METAR LRSM 272130Z AUTO 22006KT 9999 -SN NCD 00/M01 Q1019=
201902272200 METAR LRSM 272200Z AUTO 20006KT 9999 -SN NCD M01/M01 Q1019=
201902272230 METAR LRSM 272230Z AUTO 20005KT 9999 -SN FEW120/// M01/M02
                        Q1019=
201902272300 METAR LRSM 272300Z AUTO 21005KT 9999 -SN BKN120/// M00/M02
                        Q1018=
201902272330 METAR LRSM 272330Z AUTO 20004KT 9999 -SN BKN130/// M00/M02
                        Q1018=
201902280000 METAR LRSM 280000Z AUTO 16002KT 090V170 9999 -SN BKN130///
                        M00/M01 Q1018=
201902280030 METAR LRSM 280030Z AUTO 07004KT 9999 -SN BKN130/// M00/M01
                        Q1018=
201902280100 METAR LRSM 280100Z AUTO 08004KT 9999 -SN BKN130/// M00/M01
                        Q1017=
201902280130 METAR LRSM 280130Z AUTO 09006KT 9999 -SN BKN130/// M00/M01
                        Q1017=
201902280200 METAR LRSM 280200Z AUTO 10007KT 9999 -SN SCT130/// M01/M01
                        Q1017=
201902280230 METAR LRSM 280230Z AUTO 14004KT 9999 -SN SCT120/// M00/M01
                        Q1016=
201902280300 METAR LRSM 280300Z AUTO 10005KT 9999 -SN FEW120/// M01/M02
                        Q1015=
201902280330 METAR LRSM 280330Z 10007KT CAVOK M01/M02 Q1015=
201902280400 METAR LRSM 280400Z 08007KT CAVOK M01/M02 Q1015=
201902280430 METAR LRSM 280430Z 10004KT CAVOK M02/M03 Q1015=
201902280500 METAR LRSM 280500Z 10004KT CAVOK M02/M03 Q1014=
201902280530 METAR LRSM 280530Z 08003KT 040V100 CAVOK M02/M02 Q1014=
201902280600 METAR LRSM 280600Z VRB02KT CAVOK M01/M02 Q1014=
201902280630 METAR LRSM 280630Z 10002KT CAVOK M01/M01 Q1014=
201902280700 METAR LRSM 280700Z 09004KT CAVOK M00/M01 Q1013=
201902280730 METAR LRSM 280730Z 08006KT CAVOK 03/01 Q1013=
201902280800 METAR COR LRSM 280800Z 10005KT CAVOK 05/01 Q1013=
201902280830 METAR LRSM 280830Z 17004KT 130V220 CAVOK 07/M01 Q1013=
201902280900 METAR LRSM 280900Z 23008KT 200V260 CAVOK 08/00 Q1012=
201902280930 METAR COR LRSM 280930Z 23008KT 200V270 CAVOK 09/01 Q1011=
201902281000 METAR LRSM 281000Z 25014KT CAVOK 10/00 Q1010=
201902281030 METAR LRSM 281030Z 25015KT CAVOK 11/00 Q1010=
201902281100 METAR LRSM 281100Z 25013KT 220V280 CAVOK 12/00 Q1009=
201902281130 METAR LRSM 281130Z 24014KT CAVOK 12/00 Q1008=
201902281200 METAR LRSM 281200Z 25016KT CAVOK 12/01 Q1008=
201902281230 METAR LRSM 281230Z 26018KT CAVOK 12/02 Q1007=
201902281300 METAR LRSM 281300Z 25015KT CAVOK 13/02 Q1007=
201902281330 METAR LRSM 281330Z 25015KT CAVOK 14/02 Q1006=
201902281400 METAR LRSM 281400Z 25012KT CAVOK 15/02 Q1005=
201902281430 METAR LRSM 281430Z 23013KT CAVOK 15/03 Q1004=
201902281500 METAR LRSM 281500Z 24008KT CAVOK 15/02 Q1003=
201902281530 METAR LRSM 281530Z 27007KT CAVOK 15/01 Q1003=
201902281600 METAR LRSM 281600Z 02009KT CAVOK 10/03 Q1003=
201902281630 METAR LRSM 281630Z 01008KT CAVOK 09/02 Q1004=
201902281700 METAR LRSM 281700Z 05007KT CAVOK 08/01 Q1004=
201902281730 METAR LRSM 281730Z VRB01KT CAVOK 06/01 Q1004=
201902281800 METAR LRSM 281800Z AUTO 06002KT 8000 -SHSN FEW240/// 05/01
                        Q1004=
201902281830 METAR LRSM 281830Z AUTO 01003KT 6000 -SHSN FEW240/// 05/01
                        Q1004=
201902281900 METAR LRSM 281900Z AUTO 35003KT 7000 -SHSN NCD 05/01 Q1004=
201902281930 METAR LRSM 281930Z AUTO 36006KT 7000 -SHSN BKN240/// 04/01
                        Q1005=
201902282000 METAR LRSM 282000Z AUTO 25003KT 200V350 7000 -SHSN BKN240///
                        04/M00 Q1005=
201902282030 METAR LRSM 282030Z AUTO 27005KT 6000 -SHSN BKN240/// 03/00
                        Q1005=
201902282100 METAR LRSM 282100Z AUTO 34005KT 6000 -SN SCT240/// 03/M00
                        Q1005=
201902282130 METAR LRSM 282130Z AUTO 25005KT 6000 -SN NCD 03/M00 Q1005=
201902282200 METAR LRSM 282200Z AUTO 33005KT 7000 -SN NCD 03/M00 Q1005=
201902282230 METAR LRSM 282230Z AUTO 32004KT 270V010 8000 -SN NCD 04/M01
                        Q1005=
201902282300 METAR LRSM 282300Z AUTO 34008KT 9000 -SN NCD 05/M00 Q1005=
201902282330 METAR LRSM 282330Z AUTO 29009KT 8000 -SN NCD 05/M01 Q1006=
