201902010200 TAF LRSM 010200Z 0103/0112 14006KT 1500 BR BKN002 OVC005
                      TEMPO 0103/0106 0800 -RASN BCFG BKN001 OVC002
                       BECMG 0106/0108 3000 BKN005 OVC010
                      BECMG 0108/0110 5000 SCT010
                      BECMG 0110/0112 CAVOK=
201902010500 TAF LRSM 010500Z 0106/0115 VRB04KT 0600 DZ FG VV002
                      BECMG 0106/0108 1500 BR BKN005
                      BECMG 0108/0110 14010KT 5000 SCT010 BKN025
                       BECMG 0110/0112 9999 NSW
                      TEMPO 0112/0115 5000 -RA BR BKN010 OVC030=
201902010800 TAF LRSM 010800Z 0109/0118 12008KT 9999 BKN035
                      TEMPO 0110/0116 5000 -RA BR BKN010 OVC030=
201902011100 TAF LRSM 011100Z 0112/0121 14008KT CAVOK
                      TEMPO 0112/0117 5000 -SHRA BR SCT040CB=
201902011400 TAF LRSM 011400Z 0115/0124 14008KT CAVOK
                      TEMPO 0115/0117 5000 -SHRA BR SCT040CB=
201902011700 TAF LRSM 011700Z NIL=
201902012000 TAF LRSM 012000Z NIL=
201902012300 TAF LRSM 012300Z NIL=
201902020200 TAF LRSM 020200Z 0203/0212 14012KT CAVOK=
201902020500 TAF LRSM 020500Z 0206/0215 14014KT CAVOK=
201902020800 TAF LRSM 020800Z 0209/0218 14012KT CAVOK=
201902021100 TAF LRSM 021100Z 0212/0221 15012KT CAVOK=
201902021400 TAF LRSM 021400Z 0215/0224 14010KT CAVOK=
201902021700 TAF LRSM 021700Z NIL=
201902022000 TAF LRSM 022000Z NIL=
201902022300 TAF LRSM 022300Z NIL=
201902030200 TAF LRSM 030200Z NIL=
201902030500 TAF LRSM 030500Z NIL=
201902030800 TAF LRSM 030800Z NIL=
201902031100 TAF LRSM 031100Z NIL=
201902031400 TAF LRSM 031400Z NIL=
201902031700 TAF LRSM 031700Z NIL=
201902032000 TAF LRSM 032000Z NIL=
201902032300 TAF LRSM 032300Z NIL=
201902040200 TAF LRSM 040200Z 0403/0412 VRB04KT CAVOK
                      PROB30 TEMPO 0403/0406 3000 BR BKN005=
201902040500 TAF LRSM 040500Z 0406/0415 26008KT CAVOK
                      PROB30 TEMPO 0406/0408 3000 BR BKN010=
201902040756 TAF AMD LRSM 040756Z 0407/0415 27008KT 9999 OVC010
                      BECMG 0408/0410 CAVOK=
201902040800 TAF LRSM 040800Z 0409/0418 27008KT 9999 BKN010
                      BECMG 0409/0411 CAVOK=
201902041100 TAF LRSM 041100Z 0412/0421 VRB04KT 9999 OVC010
                      TEMPO 0412/0415 BKN015
                      BECMG 0419/0421 5000 BR=
201902041400 TAF LRSM 041400Z 0415/0424 VRB04KT 9999 OVC010
                      TEMPO 0415/0417 BKN015
                      BECMG 0419/0421 5000 BR=
201902041700 TAF LRSM 041700Z NIL=
201902042000 TAF LRSM 042000Z NIL=
201902042300 TAF LRSM 042300Z NIL=
201902050200 TAF LRSM 050200Z 0503/0512 VRB04KT 5000 BR BKN010
                      TEMPO 0503/0506 3000 BR BKN005
                      TEMPO 0508/0512 3000 -RA BR=
201902050500 TAF LRSM 050500Z 0506/0515 VRB04KT 9999 BKN015
                      TEMPO 0506/0507 5000 BR OVC005
                      TEMPO 0508/0512 3000 -RA BR BKN010 OVC025=
201902050800 TAF LRSM 050800Z 0509/0518 36006KT 9999 -RA BKN015 OVC030
                      TEMPO 0509/0512 3000 RA BKN010 OVC025=
201902051100 TAF LRSM 051100Z 0512/0521 01006KT 9999 BKN010
                      TEMPO 0512/0516 3000 RA BKN005 OVC025=
201902051400 TAF LRSM 051400Z 0515/0524 VRB04KT 9999 BKN030
                      TEMPO 0515/0519 3000 RA BKN010 OVC020=
201902051700 TAF LRSM 051700Z NIL=
201902052000 TAF LRSM 052000Z NIL=
201902052300 TAF LRSM 052300Z NIL=
201902060200 TAF LRSM 060200Z 0603/0612 VRB04KT 0600 FZFG OVC002
                      TEMPO 0603/0606 0150 FZFG VV001
                      BECMG 0607/0609 3000 BR BKN010
                      BECMG 0609/0611 CAVOK=
201902060349 TAF AMD LRSM 060349Z 0603/0612 VRB04KT 1500 BR NSC
                      TEMPO 0603/0606 0600 FZFG BKN001
                      PROB30 TEMPO 0604/0606 0350 FZFG
                      BECMG 0607/0609 5000
                      BECMG 0609/0611 CAVOK=
201902060500 TAF LRSM 060500Z 0606/0615 VRB04KT 3000 BR NSC
                      PROB30 TEMPO 0606/0607 0800 FZFG BKN002
                      BECMG 0607/0609 5000
                      BECMG 0609/0611 CAVOK=
201902060800 TAF LRSM 060800Z 0609/0618 34006KT 5000 BR NSC
                      TEMPO 0609/0610 3000 BR
                      BECMG 0610/0612 CAVOK=
201902061100 TAF LRSM 061100Z 0612/0621 34006KT CAVOK
                      BECMG 0618/0620 5000 BR BKN010=
201902061400 TAF LRSM 061400Z 0615/0624 34010KT CAVOK
                      BECMG 0616/0618 5000 BR BKN010
                      BECMG 0618/0620 VRB03KT 1500 BR BKN005
                      BECMG 0620/0622 0600 FG BKN002
                      TEMPO 0622/0624 0200 FG VV001=
201902061700 TAF LRSM 061700Z NIL=
201902062000 TAF LRSM 062000Z NIL=
201902062300 TAF LRSM 062300Z NIL=
201902070200 TAF LRSM 070200Z 0703/0712 VRB04KT CAVOK=
201902070500 TAF LRSM 070500Z 0706/0715 VRB04KT CAVOK=
201902070800 TAF LRSM 070800Z 0709/0718 VRB04KT 9999 BKN035
                      BECMG 0716/0718 5000 BR=
201902071100 TAF LRSM 071100Z 0712/0721 VRB04KT 9999 BKN035
                      TEMPO 0718/0721 5000 BR=
201902071400 TAF LRSM 071400Z 0715/0724 VRB04KT 9999 BKN040
                      TEMPO 0718/0721 5000 BR
                      BECMG 0721/0723 3000 BR=
201902071700 TAF LRSM 071700Z NIL=
201902072000 TAF LRSM 072000Z NIL=
201902072300 TAF LRSM 072300Z NIL=
201902080200 TAF LRSM 080200Z 0803/0812 VRB04KT 9999 BKN040
                      TEMPO 0803/0806 3000 BR BKN010=
201902080500 TAF LRSM 080500Z 0806/0815 VRB04KT 9999 BKN040
                      TEMPO 0806/0808 5000 BR=
201902080800 TAF LRSM 080800Z 0809/0818 VRB04KT 9999 BKN035=
201902081100 TAF LRSM 081100Z 0812/0821 VRB04KT 9999 BKN035=
201902081400 TAF LRSM 081400Z 0815/0824 VRB04KT 9999 OVC030=
201902081700 TAF LRSM 081700Z NIL=
201902082000 TAF LRSM 082000Z NIL=
201902082300 TAF LRSM 082300Z NIL=
201902090200 TAF LRSM 090200Z 0903/0912 VRB04KT 9999 OVC035=
201902090500 TAF LRSM 090500Z 0906/0915 VRB04KT 9999 OVC035=
201902090800 TAF LRSM 090800Z 0909/0918 VRB04KT 9999 OVC035=
201902091100 TAF LRSM 091100Z 0912/0921 VRB04KT 9999 OVC035=
201902091400 TAF LRSM 091400Z 0915/0924 VRB04KT 9999 OVC035=
201902091700 TAF LRSM 091700Z NIL=
201902092000 TAF LRSM 092000Z NIL=
201902092300 TAF LRSM 092300Z NIL=
201902100200 TAF LRSM 100200Z NIL=
201902100500 TAF LRSM 100500Z NIL=
201902100800 TAF LRSM 100800Z NIL=
201902101100 TAF LRSM 101100Z NIL=
201902101400 TAF LRSM 101400Z NIL=
201902101700 TAF LRSM 101700Z NIL=
201902102000 TAF LRSM 102000Z NIL=
201902102300 TAF LRSM 102300Z NIL=
201902110200 TAF LRSM 110200Z 1103/1112 17010KT 5000 -RA BR BKN010 OVC025
                      TEMPO 1106/1111 3000 RA BKN005 OVC015=
201902110500 TAF LRSM 110500Z 1106/1115 20012KT 9999 -RA BKN035
                      TEMPO 1111/1115 5000 RA BKN010 OVC025=
201902110800 TAF LRSM 110800Z 1109/1118 18011KT 9999 BKN035
                      BECMG 1110/1112 5000 RA
                      TEMPO 1114/1118 3000 RA BKN015 OVC035
                      BECMG 1116/1118 VRB04KT=
201902111100 TAF LRSM 111100Z 1112/1121 19010KT 9999 BKN030
                      PROB40 TEMPO 1112/1116 5000 RA BKN015 OVC030
                       BECMG 1116/1118 VRB04KT
                      BECMG 1119/1121 34012KT=
201902111400 TAF LRSM 111400Z 1115/1124 22005KT 9999 SCT010 BKN030
                      PROB30 TEMPO 1115/1117 5000 RA
                      BECMG 1119/1121 34011KT=
201902111700 TAF LRSM 111700Z NIL=
201902112000 TAF LRSM 112000Z NIL=
201902112300 TAF LRSM 112300Z NIL=
201902120200 TAF LRSM 120200Z 1203/1212 34012KT CAVOK=
201902120500 TAF LRSM 120500Z 1206/1215 34012KT 9999 SCT045
                      PROB40 TEMPO 1209/1213 33015G28KT 5000 -RASN=
201902120800 TAF LRSM 120800Z 1209/1218 34015KT 9999 SCT045
                      PROB40 TEMPO 1210/1213 33015G28KT 5000 -RASN=
201902121100 TAF LRSM 121100Z 1212/1221 34020KT 9999 BKN040
                      PROB40 TEMPO 1212/1214 33020G30KT 5000 -RASN
                       BECMG 1219/1221 33010KT=
201902121400 TAF LRSM 121400Z 1215/1224 34020KT 9999 SCT040
                      PROB30 TEMPO 1215/1216 33020G30KT
                      BECMG 1219/1221 33010KT=
201902121700 TAF LRSM 121700Z NIL=
201902122000 TAF LRSM 122000Z NIL=
201902122300 TAF LRSM 122300Z NIL=
201902130200 TAF LRSM 130200Z 1303/1312 32008KT CAVOK=
201902130500 TAF LRSM 130500Z 1306/1315 31007KT CAVOK=
201902130800 TAF LRSM 130800Z 1309/1318 31007KT CAVOK=
201902131100 TAF LRSM 131100Z 1312/1321 31007KT CAVOK=
201902131400 TAF LRSM 131400Z 1315/1324 VRB04KT CAVOK=
201902131700 TAF LRSM 131700Z NIL=
201902132000 TAF LRSM 132000Z NIL=
201902132300 TAF LRSM 132300Z NIL=
201902140200 TAF LRSM 140200Z 1403/1412 29006KT 9999 BKN040
                      PROB40 TEMPO 1406/1412 5000 -SN BR BKN015
                       BKN040=
201902140500 TAF LRSM 140500Z 1406/1415 VRB04KT 9999 SCT015 BKN035
                      TEMPO 1406/1412 5000 BR BKN015 BKN030=
201902140800 TAF LRSM 140800Z 1409/1418 28006KT 9999 BKN045
                      TEMPO 1409/1412 BKN010 BKN045
                      BECMG 1410/1412 35010KT=
201902141100 TAF LRSM 141100Z 1412/1421 35006KT 9999 BKN010
                      BECMG 1416/1418 5000 BR BKN005=
201902141327 TAF AMD LRSM 141327Z 1413/1421 35006KT 9999 OVC040
                      BECMG 1417/1419 5000 BR BKN010=
201902141400 TAF LRSM 141400Z 1415/1424 35006KT 9999 BKN045
                      BECMG 1418/1420 5000 BR BKN010=
201902141700 TAF LRSM 141700Z NIL=
201902142000 TAF LRSM 142000Z NIL=
201902142300 TAF LRSM 142300Z NIL=
201902150200 TAF LRSM 150200Z 1503/1512 VRB04KT 1500 BR BKN005
                      TEMPO 1503/1506 0600 FZFG OVC002
                      BECMG 1506/1508 3000 BR BKN010
                      BECMG 1508/1510 9999 BKN030=
201902150337 TAF AMD LRSM 150337Z 1503/1512 VRB04KT 5000 BR SCT015
                      TEMPO 1503/1506 1500 BR BKN005
                      BECMG 1506/1508 9999 BKN030=
201902150500 TAF LRSM 150500Z 1506/1515 03007KT 5000 BR NSC
                      TEMPO 1506/1508 1500 BR
                      BECMG 1508/1510 9999 NSW=
201902150800 TAF LRSM 150800Z 1509/1518 VRB04KT CAVOK=
201902151100 TAF LRSM 151100Z 1512/1521 VRB04KT CAVOK=
201902151400 TAF LRSM 151400Z 1515/1524 VRB04KT CAVOK=
201902151700 TAF LRSM 151700Z NIL=
201902152000 TAF LRSM 152000Z NIL=
201902152300 TAF LRSM 152300Z NIL=
201902160200 TAF LRSM 160200Z 1603/1612 VRB04KT 9999 BKN040=
201902160500 TAF LRSM 160500Z 1606/1615 VRB04KT 9999 BKN040=
201902160800 TAF LRSM 160800Z 1609/1618 VRB04KT CAVOK=
201902161100 TAF LRSM 161100Z 1612/1621 VRB04KT CAVOK=
201902161400 TAF LRSM 161400Z 1615/1624 VRB04KT CAVOK=
201902161700 TAF LRSM 161700Z NIL=
201902162000 TAF LRSM 162000Z NIL=
201902162300 TAF LRSM 162300Z NIL=
201902170200 TAF LRSM 170200Z 1703/1712 09004KT 5000 BR NSC
                      PROB30 TEMPO 1703/1706 3000 BR
                      BECMG 1706/1708 9999 NSW=
201902170500 TAF LRSM 170500Z NIL=
201902170800 TAF LRSM 170800Z NIL=
201902171100 TAF LRSM 171100Z NIL=
201902171400 TAF LRSM 171400Z NIL=
201902171700 TAF LRSM 171700Z NIL=
201902172000 TAF LRSM 172000Z NIL=
201902172300 TAF LRSM 172300Z NIL=
201902180200 TAF LRSM 180200Z 1803/1812 VRB04KT 5000 BR NSC
                      TEMPO 1803/1806 3000 BR
                      BECMG 1806/1808 CAVOK=
201902180500 TAF LRSM 180500Z 1806/1815 VRB04KT 3000 BR NSC
                      BECMG 1806/1808 CAVOK=
201902180800 TAF LRSM 180800Z 1809/1818 VRB04KT CAVOK=
201902181100 TAF LRSM 181100Z 1812/1821 VRB04KT CAVOK
                      BECMG 1817/1819 5000 BR
                      TEMPO 1819/1821 1500 BR=
201902181400 TAF LRSM 181400Z 1815/1824 VRB03KT CAVOK
                      BECMG 1817/1819 3000 BR
                      BECMG 1819/1821 1500 BR
                      TEMPO 1821/1824 0600 FZFG BKN002=
201902181700 TAF LRSM 181700Z NIL=
201902182000 TAF LRSM 182000Z NIL=
201902182300 TAF LRSM 182300Z NIL=
201902190200 TAF LRSM 190200Z 1903/1912 11007KT 5000 BR NSC
                      TEMPO 1903/1906 1500 BR BKN005
                      BECMG 1906/1908 CAVOK=
201902190500 TAF LRSM 190500Z 1906/1915 VRB04KT 5000 BR NSC
                      BECMG 1907/1909 CAVOK=
201902190800 TAF LRSM 190800Z 1909/1918 14006KT CAVOK=
201902191100 TAF LRSM 191100Z 1912/1921 14006KT CAVOK=
201902191400 TAF LRSM 191400Z 1915/1924 VRB04KT CAVOK
                      BECMG 1922/1924 5000 BR=
201902191700 TAF LRSM 191700Z NIL=
201902192000 TAF LRSM 192000Z NIL=
201902192300 TAF LRSM 192300Z NIL=
201902200200 TAF LRSM 200200Z 2003/2012 20005KT 5000 BR NSC
                      TEMPO 2003/2006 1500 BR
                      BECMG 2007/2009 9999 NSW=
201902200500 TAF LRSM 200500Z 2006/2015 VRB04KT 5000 BR SCT045
                      BECMG 2006/2008 9999 NSW=
201902200800 TAF LRSM 200800Z 2009/2018 26006KT 5000 BR BKN040
                      BECMG 2010/2012 9999 NSW
                      PROB30 TEMPO 2015/2018 5000 -RA BR=
201902201100 TAF LRSM 201100Z 2012/2021 29006KT 9999 SCT040
                      PROB30 TEMPO 2014/2017 5000 -RA BR=
201902201400 TAF LRSM 201400Z 2015/2024 33006KT 9999 SCT045
                      TEMPO 2015/2017 SCT035CB BKN045=
201902201700 TAF LRSM 201700Z NIL=
201902202000 TAF LRSM 202000Z NIL=
201902202300 TAF LRSM 202300Z NIL=
201902210200 TAF LRSM 210200Z 2103/2112 24006KT 9999 SCT045=
201902210500 TAF LRSM 210500Z 2106/2115 23006KT CAVOK=
201902210800 TAF LRSM 210800Z 2109/2118 23006KT CAVOK=
201902211100 TAF LRSM 211100Z 2112/2121 25007KT CAVOK=
201902211400 TAF LRSM 211400Z 2115/2124 25007KT CAVOK
                      BECMG 2121/2123 5000 -RA BR BKN015 OVC040=
201902211700 TAF LRSM 211700Z NIL=
201902212000 TAF LRSM 212000Z NIL=
201902212300 TAF LRSM 212300Z NIL=
201902220200 TAF LRSM 220200Z 2203/2212 VRB04KT 5000 -RA BR BKN015 OVC025
                      TEMPO 2203/2208 3000 RA BKN010 OVC025
                      BECMG 2208/2210 35010KT
                      BECMG 2210/2212 01016G26KT=
201902220500 TAF LRSM 220500Z 2206/2215 VRB04KT 5000 -RA BR BKN015 OVC025
                      TEMPO 2206/2208 3000 RA BKN005 OVC020
                      BECMG 2208/2210 35010KT
                      BECMG 2210/2212 01016G26KT 9999 NSW SCT025=
201902220800 TAF LRSM 220800Z 2209/2218 VRB04KT 1500 -DZ BR BKN002 OVC010
                      BECMG 2209/2211 36010KT 3000 BR BKN010 OVC020
                       BECMG 2211/2213 02020G30KT 9999 NSW SCT025=
201902221100 TAF LRSM 221100Z 2212/2221 02015KT 9999 SCT045
                      TEMPO 2212/2216 02020G30KT=
201902221400 TAF LRSM 221400Z 2215/2224 02020KT 9999 SCT040
                      TEMPO 2215/2217 02020G30KT
                      BECMG 2220/2222 02010KT=
201902221700 TAF LRSM 221700Z NIL=
201902222000 TAF LRSM 222000Z NIL=
201902222300 TAF LRSM 222300Z NIL=
201902230200 TAF LRSM 230200Z 2303/2312 02012KT 9999 BKN040
                      PROB40 TEMPO 2303/2306 5000 -SN BKN015 OVC030=
201902230500 TAF LRSM 230500Z 2306/2315 02010KT CAVOK=
201902230800 TAF LRSM 230800Z 2309/2318 02010KT CAVOK=
201902231100 TAF LRSM 231100Z 2312/2321 01008KT CAVOK=
201902231400 TAF LRSM 231400Z 2315/2324 01008KT CAVOK=
201902231700 TAF LRSM 231700Z NIL=
201902232000 TAF LRSM 232000Z NIL=
201902232300 TAF LRSM 232300Z NIL=
201902240200 TAF LRSM 240200Z 2403/2412 VRB04KT CAVOK=
201902240500 TAF LRSM 240500Z NIL=
201902240800 TAF LRSM 240800Z NIL=
201902241100 TAF LRSM 241100Z NIL=
201902241400 TAF LRSM 241400Z NIL=
201902241700 TAF LRSM 241700Z NIL=
201902242000 TAF LRSM 242000Z NIL=
201902242300 TAF LRSM 242300Z NIL=
201902250200 TAF LRSM 250200Z 2503/2512 VRB04KT 9999 BKN040=
201902250500 TAF LRSM 250500Z 2506/2515 VRB04KT 9999 BKN040=
201902250800 TAF LRSM 250800Z 2509/2518 VRB04KT CAVOK=
201902251100 TAF LRSM 251100Z 2512/2521 27006KT CAVOK=
201902251400 TAF LRSM 251400Z 2515/2524 VRB04KT CAVOK=
201902251700 TAF LRSM 251700Z NIL=
201902252000 TAF LRSM 252000Z NIL=
201902252300 TAF LRSM 252300Z NIL=
201902260200 TAF LRSM 260200Z 2603/2612 VRB04KT CAVOK=
201902260500 TAF LRSM 260500Z 2606/2615 VRB04KT CAVOK
                      TEMPO 2606/2608 5000 BR
                      BECMG 2610/2612 31010KT=
201902260800 TAF LRSM 260800Z 2609/2618 VRB04KT CAVOK
                      BECMG 2610/2612 31010KT=
201902261100 TAF LRSM 261100Z 2612/2621 30010KT 9999 SCT045=
201902261400 TAF LRSM 261400Z 2615/2624 34012KT CAVOK=
201902261700 TAF LRSM 261700Z NIL=
201902262000 TAF LRSM 262000Z NIL=
201902262300 TAF LRSM 262300Z NIL=
201902270200 TAF LRSM 270200Z 2703/2712 35010KT CAVOK=
201902270500 TAF LRSM 270500Z 2706/2715 32010KT CAVOK=
201902270800 TAF LRSM 270800Z 2709/2718 34015KT CAVOK
                      BECMG 2715/2717 28005KT=
201902271100 TAF LRSM 271100Z 2712/2721 34015KT 9999 SCT045
                      BECMG 2715/2717 28005KT=
201902271400 TAF LRSM 271400Z 2715/2724 33012KT CAVOK
                      BECMG 2716/2718 27007KT=
201902271700 TAF LRSM 271700Z NIL=
201902272000 TAF LRSM 272000Z NIL=
201902272300 TAF LRSM 272300Z NIL=
201902280200 TAF LRSM 280200Z 2803/2812 10007KT CAVOK
                      BECMG 2804/2806 22010KT=
201902280500 TAF LRSM 280500Z 2806/2815 10006KT CAVOK
                      BECMG 2807/2809 23010KT=
201902280800 TAF LRSM 280800Z 2809/2818 10006KT CAVOK
                      BECMG 2809/2811 23010KT=
201902281100 TAF LRSM 281100Z 2812/2821 25014KT CAVOK
                      BECMG 2816/2818 33010KT=
201902281400 TAF LRSM 281400Z 2815/2824 25014KT CAVOK
                      BECMG 2816/2818 31010KT=
201902281700 TAF LRSM 281700Z NIL=
201902282000 TAF LRSM 282000Z NIL=
201902282300 TAF LRSM 282300Z NIL=