201903010200 TAF LRSM 010200Z 0103/0112 29006KT CAVOK=
201903010500 TAF LRSM 010500Z 0106/0115 29006KT CAVOK=
201903010800 TAF LRSM 010800Z 0109/0118 32008KT CAVOK=
201903011100 TAF LRSM 011100Z 0112/0121 34008KT CAVOK
                      BECMG 0118/0120 5000 -RA BKN015 OVC030=
201903011400 TAF LRSM 011400Z 0115/0124 VRB04KT CAVOK
                      BECMG 0119/0121 5000 -RA BR BKN015 OVC030
                       TEMPO 0120/0123 3000 RA BR=
201903011700 TAF LRSM 011700Z NIL=
201903012000 TAF LRSM 012000Z NIL=
201903012300 TAF LRSM 012300Z NIL=
201903020200 TAF LRSM 020200Z 0203/0212 34008KT CAVOK=
201903020500 TAF LRSM 020500Z 0206/0215 35014KT CAVOK
                      BECMG 0213/0215 VRB04KT=
201903020800 TAF LRSM 020800Z 0209/0218 35012KT CAVOK
                      BECMG 0214/0216 VRB04KT=
201903021100 TAF LRSM 021100Z 0212/0221 35008KT CAVOK=
201903021400 TAF LRSM 021400Z 0215/0224 32010KT CAVOK
                      BECMG 0216/0218 VRB03KT=
201903021700 TAF LRSM 021700Z NIL=
201903022000 TAF LRSM 022000Z NIL=
201903022300 TAF LRSM 022300Z NIL=
201903030200 TAF LRSM 030200Z NIL=
201903030500 TAF LRSM 030500Z NIL=
201903030800 TAF LRSM 030800Z NIL=
201903031100 TAF LRSM 031100Z NIL=
201903031400 TAF LRSM 031400Z NIL=
201903031700 TAF LRSM 031700Z NIL=
201903032000 TAF LRSM 032000Z NIL=
201903032300 TAF LRSM 032300Z NIL=
201903040200 TAF LRSM 040200Z 0403/0412 17008KT 9999 BKN045=
201903040500 TAF LRSM 040500Z 0406/0415 13005KT CAVOK
                      BECMG 0406/0408 19012KT=
201903040800 TAF LRSM 040800Z 0409/0418 18012KT CAVOK=
201903041100 TAF LRSM 041100Z 0412/0421 22014KT CAVOK=
201903041400 TAF LRSM 041400Z 0415/0424 23015KT CAVOK=
201903041700 TAF LRSM 041700Z NIL=
201903042000 TAF LRSM 042000Z NIL=
201903042300 TAF LRSM 042300Z NIL=
201903050200 TAF LRSM 050200Z 0503/0512 25015KT CAVOK
                      TEMPO 0503/0507 25015G25KT
                      TEMPO 0507/0512 26020G30KT=
201903050500 TAF LRSM 050500Z 0506/0515 25010KT CAVOK
                      TEMPO 0507/0513 27015G25KT=
201903050800 TAF LRSM 050800Z 0509/0518 25010KT CAVOK
                      TEMPO 0509/0513 27015G25KT=
201903051100 TAF LRSM 051100Z 0512/0521 26012KT CAVOK
                      TEMPO 0512/0515 29015G25KT=
201903051400 TAF LRSM 051400Z 0515/0524 27015KT CAVOK
                      TEMPO 0515/0517 29015G25KT=
201903051700 TAF LRSM 051700Z NIL=
201903052000 TAF LRSM 052000Z NIL=
201903052300 TAF LRSM 052300Z NIL=
201903060200 TAF LRSM 060200Z 0603/0612 30008KT 9999 BKN030
                      TEMPO 0603/0606 27016G26KT 5000 -RA=
201903060500 TAF LRSM 060500Z 0606/0615 30008KT 9999 SCT035=
201903060800 TAF LRSM 060800Z 0609/0618 30008KT 9999 SCT025=
201903061100 TAF LRSM 061100Z 0612/0621 VRB04KT 9999 BKN035
                      BECMG 0617/0619 14010KT=
201903061400 TAF LRSM 061400Z 0615/0624 VRB04KT 9999 SCT045
                      BECMG 0617/0619 14010KT=
201903061700 TAF LRSM 061700Z NIL=
201903062000 TAF LRSM 062000Z NIL=
201903062300 TAF LRSM 062300Z NIL=
201903070200 TAF LRSM 070200Z 0703/0712 14012KT CAVOK=
201903070500 TAF LRSM 070500Z 0706/0715 15015KT CAVOK
                      TEMPO 0707/0712 16015G25KT=
201903070800 TAF LRSM 070800Z 0709/0718 15015KT CAVOK
                      TEMPO 0709/0712 16015G25KT=
201903071100 TAF LRSM 071100Z 0712/0721 14015KT CAVOK
                      PROB30 TEMPO 0712/0714 16015G25KT=
201903071400 TAF LRSM 071400Z 0715/0724 16012KT CAVOK=
201903071700 TAF LRSM 071700Z NIL=
201903072000 TAF LRSM 072000Z NIL=
201903072300 TAF LRSM 072300Z NIL=
201903080200 TAF LRSM 080200Z 0803/0812 15006KT CAVOK
                      BECMG 0803/0805 21012KT
                      TEMPO 0807/0812 5000 -SHRA SCT015 SCT040CB
                       BECMG 0810/0812 28007KT=
201903080500 TAF LRSM 080500Z 0806/0815 15006KT CAVOK
                      BECMG 0806/0808 21012KT
                      TEMPO 0808/0812 5000 -SHRA SCT015 SCT035CB
                       BECMG 0812/0814 27012KT 5000 -RA BKN015
                       BKN035=
201903080800 TAF LRSM 080800Z 0809/0818 VRB04KT CAVOK
                      BECMG 0809/0811 24010KT
                      PROB40 TEMPO 0811/0816 5000 -RA -SHRA BKN015
                       SCT030CB BKN035=
201903081100 TAF LRSM 081100Z 0812/0821 27004KT CAVOK
                      PROB40 TEMPO 0813/0816 26014KT 5000 -SHRA
                       SCT035CB=
201903081400 TAF LRSM 081400Z 0815/0824 24004KT CAVOK
                      PROB40 TEMPO 0815/0818 5000 -SHRA SCT045CB=
201903081700 TAF LRSM 081700Z NIL=
201903082000 TAF LRSM 082000Z NIL=
201903082300 TAF LRSM 082300Z NIL=
201903090200 TAF LRSM 090200Z 0903/0912 23008KT CAVOK=
201903090500 TAF LRSM 090500Z 0906/0915 24008KT CAVOK
                      TEMPO 0906/0908 -SHRA SCT030CB=
201903090800 TAF LRSM 090800Z 0909/0918 24008KT CAVOK=
201903091100 TAF LRSM 091100Z 0912/0921 26014KT CAVOK
                      TEMPO 0912/0915 5000 -SHRA SCT030CB=
201903091400 TAF LRSM 091400Z 0915/0924 25016KT CAVOK
                      PROB30 TEMPO 0915/0918 24015G25KT=
201903091700 TAF LRSM 091700Z NIL=
201903092000 TAF LRSM 092000Z NIL=
201903092300 TAF LRSM 092300Z NIL=
201903100200 TAF LRSM 100200Z 1003/1012 25020G30KT 9999 BKN030
                      TEMPO 1003/1006 5000 -RA
                      BECMG 1006/1008 24012KT=
201903100500 TAF LRSM 100500Z 1006/1015 25015KT CAVOK
                      TEMPO 1010/1013 25017G27KT
                      BECMG 1013/1015 5000 -RA BKN015 BKN040=
201903100532 TAF AMD LRSM 100532Z 1006/1015 CNL=
201903100800 TAF LRSM 100800Z NIL=
201903101100 TAF LRSM 101100Z NIL=
201903101400 TAF LRSM 101400Z NIL=
201903101700 TAF LRSM 101700Z NIL=
201903102000 TAF LRSM 102000Z NIL=
201903102300 TAF LRSM 102300Z NIL=
201903110200 TAF LRSM 110200Z 1103/1112 25016KT 9999 SCT045
                      TEMPO 1103/1108 30020G30KT=
201903110500 TAF LRSM 110500Z 1106/1115 25016KT 9999 SCT045
                      BECMG 1108/1110 33008KT
                      PROB30 TEMPO 1112/1115 5000 -SHRA SCT015
                       FEW035CB=
201903110800 TAF LRSM 110800Z 1109/1118 35014KT CAVOK
                      PROB30 TEMPO 1112/1116 5000 -SHRA SCT015
                       FEW035CB
                      BECMG 1116/1118 25010KT=
201903111100 TAF LRSM 111100Z 1112/1121 27008KT CAVOK
                      PROB30 TEMPO 1112/1116 5000 -SHRA SCT015
                       FEW035CB=
201903111400 TAF LRSM 111400Z 1115/1124 07008KT CAVOK
                      BECMG 1116/1118 26010KT=
201903111700 TAF LRSM 111700Z NIL=
201903112000 TAF LRSM 112000Z NIL=
201903112300 TAF LRSM 112300Z NIL=
201903120200 TAF LRSM 120200Z 1203/1212 33010KT CAVOK=
201903120500 TAF LRSM 120500Z 1206/1215 VRB04KT CAVOK
                      BECMG 1207/1209 34010KT=
201903120800 TAF LRSM 120800Z 1209/1218 VRB04KT CAVOK
                      BECMG 1209/1211 34010KT
                      BECMG 1216/1218 VRB04KT=
201903121100 TAF LRSM 121100Z 1212/1221 33010KT CAVOK
                      BECMG 1216/1218 VRB04KT=
201903121400 TAF LRSM 121400Z 1215/1224 33014KT CAVOK
                      BECMG 1216/1218 VRB04KT=
201903121700 TAF LRSM 121700Z NIL=
201903122000 TAF LRSM 122000Z NIL=
201903122300 TAF LRSM 122300Z NIL=
201903130200 TAF LRSM 130200Z 1303/1312 13006KT CAVOK=
201903130500 TAF LRSM 130500Z 1306/1315 13006KT CAVOK=
201903130800 TAF LRSM 130800Z 1309/1318 19006KT CAVOK=
201903131100 TAF LRSM 131100Z 1312/1321 26008KT CAVOK=
201903131400 TAF LRSM 131400Z 1315/1324 26008KT CAVOK=
201903131700 TAF LRSM 131700Z NIL=
201903132000 TAF LRSM 132000Z NIL=
201903132300 TAF LRSM 132300Z NIL=
201903140159 TAF LRSM 1312/1321 26008KT CAVOK=
201903140200 TAF LRSM 1312/1321 26008KT CAVOK=
201903140308 TAF LRSM 1315/1324 26008KT CAVOK=
201903140309 TAF LRSM 1315/1324 26008KT CAVOK=
201903140500 TAF LRSM 140500Z 1406/1415 21008KT CAVOK=
201903140800 TAF LRSM 140800Z 1409/1418 23008KT CAVOK
                      TEMPO 1414/1418 5000 -SHRA SCT040CB=
201903141100 TAF LRSM 141100Z 1412/1421 24008KT 9999 SCT045
                      TEMPO 1412/1418 5000 -SHRA SCT040CB=
201903141400 TAF LRSM 141400Z 1415/1424 24010KT 9999 SCT045
                      TEMPO 1415/1418 5000 -SHRA SCT040CB=
201903141700 TAF LRSM 141700Z NIL=
201903141943 TAF LRSM 141943Z 1419/1503 21008KT CAVOK=
201903142000 TAF LRSM 142000Z 1421/1506 21008KT CAVOK=
201903142300 TAF LRSM 142300Z NIL=
201903150200 TAF LRSM 150200Z 1503/1512 18008KT 9999 BKN045
                      TEMPO 1505/1509 5000 -RA BR BKN015 OVC035
                       PROB30 1505/1507 RASN=
201903150500 TAF LRSM 150500Z 1506/1515 21012KT 9999 BKN045
                      TEMPO 1506/1509 5000 -RA
                      PROB40 TEMPO 1509/1513 5000 SHRA SCT010 SCT030CB
                       BKN040=
201903150800 TAF LRSM 150800Z 1509/1518 21012KT 9999 SCT040
                      TEMPO 1509/1513 5000 SHRA SCT010 SCT030CB
                       BKN040=
201903151100 TAF LRSM 151100Z 1512/1521 25012KT 9999 BKN030
                      PROB40 TEMPO 1512/1516 5000 SHRA SCT010 SCT030CB
                       BKN040=
201903151400 TAF LRSM 151400Z 1515/1524 25012KT 9999 BKN030
                      PROB30 TEMPO 1515/1520 FEW030CB BKN040
                      BECMG 1520/1522 5000 -RA BR BKN015 BKN030=
201903151700 TAF LRSM 151700Z NIL=
201903152000 TAF LRSM 152000Z NIL=
201903152300 TAF LRSM 152300Z NIL=
201903160200 TAF LRSM 160200Z 1603/1612 22014KT 5000 -RA BR BKN015 BKN030
                      TEMPO 1603/1608 24016G26KT 3000 RA BKN010
                       BKN025
                      BECMG 1608/1610 7000 NSW BKN040
                      BECMG 1610/1612 28012KT=
201903160500 TAF LRSM 160500Z 1606/1615 31014KT 9999 BKN040
                      TEMPO 1606/1609 5000 -RA -SHRA BKN010 SCT030CB
                       BKN035=
201903160800 TAF LRSM 160800Z 1609/1618 27016KT CAVOK=
201903161100 TAF LRSM 161100Z 1612/1621 28014KT CAVOK=
201903161400 TAF LRSM 161400Z 1615/1624 30012KT CAVOK
                      BECMG 1621/1623 24008KT=
201903161700 TAF LRSM 161700Z NIL=
201903162000 TAF LRSM 162000Z NIL=
201903162300 TAF LRSM 162300Z NIL=
201903170200 TAF LRSM 170200Z NIL=
201903170500 TAF LRSM 170500Z NIL=
201903170800 TAF LRSM 170800Z NIL=
201903171100 TAF LRSM 171100Z NIL=
201903171400 TAF LRSM 171400Z NIL=
201903171700 TAF LRSM 171700Z NIL=
201903172000 TAF LRSM 172000Z NIL=
201903172300 TAF LRSM 172300Z NIL=
201903180200 TAF LRSM 180200Z 1803/1812 22010KT CAVOK=
201903180500 TAF LRSM 180500Z 1806/1815 19012KT CAVOK
                      BECMG 1812/1814 27008KT=
201903180800 TAF LRSM 180800Z 1809/1818 21012KT CAVOK
                      BECMG 1815/1817 34008KT=
201903181100 TAF LRSM 181100Z 1812/1821 26014KT CAVOK
                      BECMG 1815/1817 34010KT
                      TEMPO 1819/1821 5000 -SHRA SCT040CB=
201903181400 TAF LRSM 181400Z 1815/1824 26010KT CAVOK
                      BECMG 1815/1817 34010KT
                      TEMPO 1820/1824 5000 -SHRA SCT040CB=
201903181700 TAF LRSM 181700Z NIL=
201903182000 TAF LRSM 182000Z NIL=
201903182300 TAF LRSM 182300Z NIL=
201903190200 TAF LRSM 190200Z 1903/1912 25006KT 9999 SCT040
                      PROB40 TEMPO 1903/1906 5000 -SHRA SCT040CB
                       BECMG 1905/1907 34010KT=
201903190500 TAF LRSM 190500Z 1906/1915 VRB04KT 9999 SCT040
                      BECMG 1907/1909 34012KT=
201903190800 TAF LRSM 190800Z 1909/1918 VRB04KT 9999 BKN010 BKN025
                      BECMG 1910/1912 34012KT BKN035=
201903191100 TAF LRSM 191100Z 1912/1921 VRB04KT CAVOK
                      BECMG 1912/1914 34010KT=
201903191400 TAF LRSM 191400Z 1915/1924 05007KT CAVOK=
201903191700 TAF LRSM 191700Z NIL=
201903192000 TAF LRSM 192000Z NIL=
201903192300 TAF LRSM 192300Z NIL=
201903200200 TAF LRSM 200200Z 2003/2012 35008KT 9999 SCT030=
201903200500 TAF LRSM 200500Z 2006/2015 35010KT 9999 SCT040=
201903200800 TAF LRSM 200800Z 2009/2018 35010KT 9999 SCT040=
201903201100 TAF LRSM 201100Z 2012/2021 35009KT 9999 BKN040=
201903201400 TAF LRSM 201400Z 2015/2024 35008KT 9999 SCT045=
201903201700 TAF LRSM 201700Z NIL=
201903202000 TAF LRSM 202000Z NIL=
201903202300 TAF LRSM 202300Z NIL=
201903210200 TAF LRSM 210200Z 2103/2112 VRB04KT CAVOK=
201903210500 TAF LRSM 210500Z 2106/2115 VRB04KT CAVOK=
201903210800 TAF LRSM 210800Z 2109/2118 VRB04KT CAVOK=
201903211100 TAF LRSM 211100Z 2112/2121 30008KT CAVOK=
201903211400 TAF LRSM 211400Z 2115/2124 30008KT CAVOK=
201903211700 TAF LRSM 211700Z NIL=
201903212000 TAF LRSM 212000Z NIL=
201903212300 TAF LRSM 212300Z NIL=
201903220200 TAF LRSM 220200Z 2203/2212 VRB04KT CAVOK=
201903220500 TAF LRSM 220500Z 2206/2215 23006KT CAVOK=
201903220800 TAF LRSM 220800Z 2209/2218 VRB04KT CAVOK=
201903221100 TAF LRSM 221100Z 2212/2221 36010KT 9999 SCT040=
201903221400 TAF LRSM 221400Z 2215/2224 36008KT CAVOK
                      BECMG 2218/2220 5000 BR
                      TEMPO 2221/2224 1500 BR BKN005=
201903221700 TAF LRSM 221700Z NIL=
201903222000 TAF LRSM 222000Z NIL=
201903222300 TAF LRSM 222300Z NIL=
201903230200 TAF LRSM 230200Z NIL=
201903230418 TAF LRSM 230418Z 2304/2312 VRB04KT CAVOK
                      TEMPO 2304/2306 3000 BR=
201903230500 TAF LRSM 230500Z 2306/2315 VRB04KT CAVOK
                      BECMG 2309/2311 02010KT=
201903230800 TAF LRSM 230800Z 2309/2318 VRB04KT CAVOK
                      BECMG 2309/2311 02010KT=
201903231100 TAF LRSM 231100Z 2312/2321 02010KT CAVOK
                      BECMG 2316/2318 VRB04KT=
201903231400 TAF LRSM 231400Z 2315/2324 VRB04KT CAVOK=
201903231700 TAF LRSM 231700Z NIL=
201903232000 TAF LRSM 232000Z NIL=
201903232300 TAF LRSM 232300Z NIL=
201903240200 TAF LRSM 240200Z NIL=
201903240500 TAF LRSM 240500Z NIL=
201903240800 TAF LRSM 240800Z NIL=
201903241100 TAF LRSM 241100Z NIL=
201903241400 TAF LRSM 241400Z NIL=
201903241700 TAF LRSM 241700Z NIL=
201903242000 TAF LRSM 242000Z NIL=
201903242300 TAF LRSM 242300Z NIL=
201903250200 TAF LRSM 250200Z 2503/2512 20005KT CAVOK
                      PROB30 TEMPO 2503/2507 5000 -RA BR
                      BECMG 2505/2507 30010KT=
201903250500 TAF LRSM 250500Z 2506/2515 30010KT 9999 SCT045
                      TEMPO 2506/2508 SCT040CB=
201903250800 TAF LRSM 250800Z 2509/2518 29010KT 9999 SCT045
                      PROB40 TEMPO 2509/2512 5000 -SHRA SCT040CB=
201903251100 TAF LRSM 251100Z 2512/2521 31012KT CAVOK
                      BECMG 2516/2518 VRB04KT=
201903251400 TAF LRSM 251400Z 2515/2524 26008KT CAVOK
                      PROB40 TEMPO 2515/2518 5000 -SHRA SCT040CB=
201903251700 TAF LRSM 251700Z NIL=
201903252000 TAF LRSM 252000Z NIL=
201903252300 TAF LRSM 252300Z NIL=
201903260200 TAF LRSM 260200Z 2603/2612 34010KT CAVOK=
201903260500 TAF LRSM 260500Z 2606/2615 34010KT CAVOK=
201903260800 TAF LRSM 260800Z 2609/2618 36010KT CAVOK=
201903261100 TAF LRSM 261100Z 2612/2621 35012KT 9999 SCT045
                      PROB40 TEMPO 2612/2616 SCT035CB=
201903261400 TAF LRSM 261400Z 2615/2624 35012KT 9999 SCT045=
201903261700 TAF LRSM 261700Z NIL=
201903262000 TAF LRSM 262000Z NIL=
201903262300 TAF LRSM 262300Z NIL=
201903270200 TAF LRSM 270200Z 2703/2712 35015KT 9999 BKN030
                      TEMPO 2703/2707 3000 RA BKN010 OVC025=
201903270500 TAF LRSM 270500Z 2706/2715 35014KT CAVOK=
201903270800 TAF LRSM 270800Z 2709/2718 36014KT CAVOK
                      BECMG 2716/2718 VRB04KT=
201903271100 TAF LRSM 271100Z 2712/2721 01010KT CAVOK
                      BECMG 2715/2717 VRB04KT=
201903271400 TAF LRSM 271400Z 2715/2724 01010KT CAVOK
                      BECMG 2715/2717 VRB04KT=
201903271700 TAF LRSM 271700Z NIL=
201903272000 TAF LRSM 272000Z NIL=
201903272300 TAF LRSM 272300Z NIL=
201903280200 TAF LRSM 280200Z 2803/2812 VRB04KT CAVOK=
201903280500 TAF LRSM 280500Z 2806/2815 VRB04KT CAVOK=
201903280800 TAF LRSM 280800Z 2809/2818 VRB04KT CAVOK=
201903281100 TAF LRSM 281100Z 2812/2821 35006KT CAVOK=
201903281400 TAF LRSM 281400Z 2815/2824 35008KT CAVOK=
201903281700 TAF LRSM 281700Z NIL=
201903282000 TAF LRSM 282000Z NIL=
201903282300 TAF LRSM 282300Z NIL=
201903290200 TAF LRSM 290200Z 2903/2912 VRB04KT CAVOK=
201903290500 TAF LRSM 290500Z 2906/2915 VRB04KT CAVOK=
201903290800 TAF LRSM 290800Z 2909/2918 34006KT CAVOK=
201903291100 TAF LRSM 291100Z 2912/2921 02010KT CAVOK=
201903291400 TAF LRSM 291400Z 2915/2924 33006KT CAVOK=
201903291700 TAF LRSM 291700Z NIL=
201903292000 TAF LRSM 292000Z NIL=
201903292300 TAF LRSM 292300Z NIL=
201903300200 TAF LRSM 300200Z 3003/3012 21005KT CAVOK=
201903300500 TAF LRSM 300500Z 3006/3015 21005KT CAVOK=
201903300800 TAF LRSM 300800Z 3009/3018 VRB04KT CAVOK=
201903301100 TAF LRSM 301100Z 3012/3021 VRB04KT CAVOK=
201903301400 TAF LRSM 301400Z 3015/3024 VRB04KT CAVOK=
201903301700 TAF LRSM 301700Z NIL=
201903302000 TAF LRSM 302000Z NIL=
201903302300 TAF LRSM 302300Z NIL=
201903310200 TAF LRSM 310200Z NIL=
201903310408 TAF LRSM 310408Z 3104/3112 VRB04KT CAVOK=
201903310500 TAF LRSM 310500Z 3106/3115 VRB04KT CAVOK=
201903310800 TAF LRSM 310800Z 3109/3118 VRB04KT CAVOK=
201903311100 TAF LRSM 311100Z 3112/3121 VRB04KT CAVOK=
201903311400 TAF LRSM 311400Z 3115/3124 VRB04KT CAVOK=
201903311700 TAF LRSM 311700Z NIL=
201903312000 TAF LRSM 312000Z NIL=
201903312300 TAF LRSM 312300Z NIL=
