201906010000 METAR LRSM 010000Z AUTO 03004KT 9000 NCD 15/14 Q1018=
201906010030 METAR LRSM 010030Z AUTO 06003KT 8000 NCD 14/14 Q1018=
201906010100 METAR LRSM 010100Z AUTO 04004KT 8000 NCD 14/14 Q1018=
201906010130 METAR LRSM 010130Z AUTO 03003KT 7000 NCD 13/13 Q1018=
201906010200 METAR LRSM 010200Z AUTO 04004KT 7000 NCD 13/12 Q1018=
201906010230 METAR LRSM 010230Z AUTO 09004KT 060V120 9999 NCD 13/12 Q1018=
201906010300 METAR LRSM 010300Z AUTO 06004KT 9000 NCD 13/12 Q1017=
201906010330 METAR LRSM 010330Z AUTO 08004KT 9000 NCD 14/13 Q1017=
201906010400 METAR LRSM 010400Z AUTO 06003KT 030V110 9999 NCD 15/14 Q1017=
201906010430 METAR LRSM 010430Z AUTO 04002KT 9999 NCD 17/14 Q1017=
201906010500 METAR LRSM 010500Z AUTO 02004KT 9999 R19/1600VP2000U NCD
                        17/14 Q1017=
201906010530 METAR LRSM 010530Z AUTO 03005KT 350V050 9999 NCD 19/13 Q1017=
201906010600 METAR LRSM 010600Z AUTO 02008KT 9999 NCD 20/13 Q1017=
201906010630 METAR LRSM 010630Z AUTO 03009KT 9999 NCD 20/13 Q1017=
201906010700 METAR LRSM 010700Z AUTO 04009KT 9999 NCD 21/14 Q1017=
201906010730 METAR LRSM 010730Z AUTO 04009KT 010V070 9999 FEW070/// 22/12
                        Q1017=
201906010800 METAR LRSM 010800Z AUTO 06013KT 030V090 9999 NCD 23/11 Q1017=
201906010830 METAR LRSM 010830Z AUTO 06011KT 9999 NCD 23/12 Q1017=
201906010900 METAR LRSM 010900Z AUTO 05011KT 9999 FEW050/// 24/13 Q1017=
201906010930 METAR LRSM 010930Z AUTO 06009KT 020V090 9999 FEW050/// 23/13
                        Q1017=
201906011000 METAR LRSM 011000Z AUTO 09006KT 030V140 9999 FEW050/// 23/13
                        Q1017=
201906011030 METAR LRSM 011030Z AUTO 06009KT 030V090 9999 FEW050/// BKN080///
                        23/12 Q1017=
201906011100 METAR LRSM 011100Z AUTO 07007KT 040V100 9999 BKN085/// 24/13
                        Q1017=
201906011130 METAR LRSM 011130Z AUTO 08007KT 050V120 9999 FEW050/// BKN090///
                        25/13 Q1017=
201906011200 METAR LRSM 011200Z AUTO 07005KT 360V120 9999 NCD 25/12 Q1017=
201906011230 METAR LRSM 011230Z AUTO 07007KT 020V100 9999 SCT055/// 25/13
                        Q1016=
201906011300 METAR LRSM 011300Z AUTO 07010KT 9999 FEW050/// BKN085///
                        25/13 Q1016=
201906011330 METAR LRSM 011330Z AUTO 06010KT 9999 FEW075/// BKN100///
                        BKN120/// 25/13 Q1016=
201906011400 METAR LRSM 011400Z AUTO 08010G21KT 050V110 9999 FEW060///
                        SCT080/// BKN095/// 23/14 Q1016=
201906011430 METAR LRSM 011430Z AUTO 16010KT 9999 FEW060/// BKN075///
                        20/14 Q1017=
201906011500 METAR LRSM 011500Z AUTO 18009KT 9999 BKN075/// 18/14 Q1017=
201906011530 METAR LRSM 011530Z AUTO 19010KT 9999 SCT065/// BKN080///
                        18/15 Q1016=
201906011600 METAR LRSM 011600Z AUTO 20010KT 9999 BKN070/// BKN110///
                        18/14 Q1016=
201906011630 METAR LRSM 011630Z AUTO 20007KT 9999 BKN075/// OVC095///
                        18/14 Q1016=
201906011700 METAR LRSM 011700Z AUTO 20003KT 170V230 9999 BKN070/// 18/14
                        Q1016=
201906011730 METAR LRSM 011730Z AUTO 23003KT 210V280 9999 BKN060/// BKN075///
                        18/15 Q1016=
201906011800 METAR LRSM 011800Z AUTO 00000KT 9999 SCT070/// BKN095///
                        17/15 Q1017=
201906011830 METAR LRSM 011830Z AUTO 32002KT 9999 SCT075/// BKN095///
                        OVC120/// 17/16 Q1017=
201906011900 METAR LRSM 011900Z AUTO 30003KT 9999 SCT080/// BKN100///
                        17/16 Q1017=
201906011930 METAR LRSM 011930Z AUTO 33003KT 9999 FEW070/// OVC095///
                        17/16 Q1017=
201906012000 METAR LRSM 012000Z AUTO 00000KT 9999 BKN095/// 17/16 Q1017=
201906012030 METAR LRSM 012030Z AUTO VRB02KT 9999 SCT080/// 16/16 Q1017=
201906012100 METAR LRSM 012100Z AUTO 18001KT 9999 SCT075/// BKN090///
                        16/16 Q1017=
201906012130 METAR LRSM 012130Z AUTO 00000KT 9999 BKN085/// 15/15 Q1017=
201906012200 METAR LRSM 012200Z AUTO 21004KT 9999 BKN090/// 16/16 Q1017=
201906012230 METAR LRSM 012230Z AUTO 24003KT 9999 BKN085/// BKN110///
                        16/16 Q1017=
201906012300 METAR LRSM 012300Z AUTO 22003KT 9999 BKN090/// 16/16 Q1017=
201906012330 METAR LRSM 012330Z AUTO 25004KT 9999 BKN210/// 15/15 Q1017=
201906020000 METAR LRSM 020000Z AUTO 25003KT 9999 BKN160/// BKN220///
                        15/15 Q1017=
201906020030 METAR LRSM 020030Z AUTO 21005KT 9999 FEW130/// BKN160///
                        15/15 Q1017=
201906020100 METAR LRSM 020100Z AUTO 22004KT 9999 FEW110/// BKN120///
                        15/15 Q1017=
201906020130 METAR LRSM 020130Z AUTO 23003KT 9999 FEW100/// OVC120///
                        15/15 Q1017=
201906020200 METAR LRSM 020200Z AUTO 21001KT 9999 SCT110/// BKN130///
                        15/15 Q1017=
201906020230 METAR LRSM 020230Z AUTO 00000KT 9999 BKN130/// 15/15 Q1017=
201906020300 METAR LRSM 020300Z AUTO 21002KT 9999 SCT120/// BKN150///
                        15/15 Q1017=
201906020330 METAR LRSM 020330Z AUTO 05004KT 040V210 9000 SCT110/// BKN130///
                        15/15 Q1017=
201906020400 METAR LRSM 020400Z 05002KT CAVOK 15/15 Q1017=
201906020430 METAR LRSM 020430Z 19003KT 060V210 CAVOK 16/16 Q1017=
201906020500 METAR LRSM 020500Z VRB01KT CAVOK 16/16 Q1018=
201906020530 METAR LRSM 020530Z VRB02KT CAVOK 17/16 Q1018=
201906020600 METAR LRSM 020600Z VRB02KT CAVOK 17/17 Q1018=
201906020630 METAR LRSM 020630Z 00000KT CAVOK 17/16 Q1018=
201906020700 METAR LRSM 020700Z VRB02KT 9999 FEW040 18/16 Q1018=
201906020730 METAR LRSM 020730Z VRB02KT 9999 FEW040 19/17 Q1018=
201906020800 METAR LRSM 020800Z 31001KT 9999 FEW045 19/16 Q1019=
201906020830 METAR LRSM 020830Z 00000KT 9999 FEW045 20/16 Q1019=
201906020900 METAR LRSM 020900Z 00000KT CAVOK 20/17 Q1019=
201906020930 METAR LRSM 020930Z VRB02KT CAVOK 20/17 Q1019=
201906021000 METAR LRSM 021000Z VRB02KT CAVOK 21/15 Q1018=
201906021030 METAR LRSM 021030Z 35003KT 280V030 CAVOK 21/16 Q1018=
201906021100 METAR LRSM 021100Z 36003KT 310V030 CAVOK 22/15 Q1018=
201906021130 METAR LRSM 021130Z 02005KT 330V050 CAVOK 23/15 Q1018=
201906021200 METAR LRSM 021200Z 01005KT 340V060 CAVOK 23/14 Q1017=
201906021230 METAR LRSM 021230Z 01006KT 300V040 CAVOK 24/14 Q1017=
201906021300 METAR LRSM 021300Z 35005KT 290V030 CAVOK 25/14 Q1017=
201906021330 METAR LRSM 021330Z 02005KT 330V060 CAVOK 25/15 Q1016=
201906021400 METAR LRSM 021400Z 03006KT 340V070 CAVOK 26/14 Q1016=
201906021430 METAR LRSM 021430Z 03006KT 330V070 CAVOK 26/15 Q1016=
201906021500 METAR LRSM 021500Z 02008KT 350V050 CAVOK 25/13 Q1015=
201906021530 METAR LRSM 021530Z 02008KT CAVOK 25/15 Q1015=
201906021600 METAR LRSM 021600Z 01007KT CAVOK 25/15 Q1015=
201906021630 METAR LRSM 021630Z AUTO 36006KT 9999 NCD 24/15 Q1015=
201906021700 METAR LRSM 021700Z AUTO 36006KT 9999 NCD 23/16 Q1015=
201906021730 METAR LRSM 021730Z AUTO 35005KT 9999 NCD 22/14 Q1015=
201906021800 METAR LRSM 021800Z AUTO 32004KT 9999 NCD 20/15 Q1015=
201906021830 METAR LRSM 021830Z AUTO 31005KT 9999 NCD 19/16 Q1016=
201906021900 METAR LRSM 021900Z AUTO 32006KT 9999 NCD 18/16 Q1016=
201906021930 METAR LRSM 021930Z AUTO 33005KT 9999 NCD 17/16 Q1016=
201906022000 METAR LRSM 022000Z AUTO 35002KT 9999 NCD 16/16 Q1016=
201906022030 METAR LRSM 022030Z AUTO 00000KT 9999 NCD 16/16 Q1016=
201906022100 METAR LRSM 022100Z AUTO 15002KT 9999 NCD 16/16 Q1016=
201906022130 METAR LRSM 022130Z AUTO 00000KT 9999 NCD 15/15 Q1016=
201906022200 METAR LRSM 022200Z AUTO 00000KT 9999 NCD 15/15 Q1016=
201906022230 METAR LRSM 022230Z AUTO 00000KT 9999 NCD 15/14 Q1016=
201906022300 METAR LRSM 022300Z AUTO 00000KT 9999 NCD 14/14 Q1016=
201906022330 METAR LRSM 022330Z AUTO 00000KT 9999 NCD 14/14 Q1016=
201906030000 METAR LRSM 030000Z AUTO 00000KT 8000 NCD 14/14 Q1016=
201906030030 METAR LRSM 030030Z AUTO 00000KT 3000 R19/0800VP2000U BCFG
                        NCD 13/13 Q1016=
201906030100 METAR LRSM 030100Z AUTO 12002KT 080V160 9999 NCD 13/13 Q1015=
201906030130 METAR LRSM 030130Z AUTO 16003KT 9999 NCD 13/13 Q1015=
201906030200 METAR LRSM 030200Z AUTO 00000KT 6000 NCD 12/12 Q1015=
201906030230 METAR LRSM 030230Z AUTO 00000KT 6000 NCD 13/13 Q1015=
201906030300 METAR LRSM 030300Z AUTO 02003KT 8000 NCD 13/13 Q1015=
201906030330 METAR LRSM 030330Z AUTO 01006KT 9000 NCD 13/13 Q1015=
201906030400 METAR LRSM 030400Z 16003KT 110V180 CAVOK 15/15 Q1015=
201906030430 METAR LRSM 030430Z 00000KT CAVOK 16/15 Q1015=
201906030500 METAR LRSM 030500Z 02004KT CAVOK 16/16 Q1015=
201906030530 METAR LRSM 030530Z 07003KT 030V110 CAVOK 18/17 Q1015=
201906030600 METAR LRSM 030600Z 08005KT 050V130 CAVOK 21/16 Q1015=
201906030630 METAR LRSM 030630Z 08004KT 040V110 CAVOK 22/16 Q1015=
201906030700 METAR LRSM 030700Z 08006KT CAVOK 23/13 Q1015=
201906030730 METAR LRSM 030730Z 06006KT 030V100 CAVOK 24/14 Q1015=
201906030800 METAR LRSM 030800Z 07006KT 010V110 CAVOK 24/14 Q1015=
201906030830 METAR LRSM 030830Z 05006KT 360V080 CAVOK 24/13 Q1015=
201906030900 METAR LRSM 030900Z 04004KT 360V070 9999 FEW040 25/14 Q1015=
201906030930 METAR LRSM 030930Z 09004KT 020V140 9999 FEW040 26/13 Q1015=
201906031000 METAR LRSM 031000Z 07004KT 020V150 9999 FEW040 26/15 Q1015=
201906031030 METAR LRSM 031030Z VRB04KT 9999 FEW046 26/11 Q1015=
201906031100 METAR LRSM 031100Z 14004KT 060V230 9999 FEW046 27/14 Q1015=
201906031130 METAR LRSM 031130Z 18004KT 9999 FEW046 26/14 Q1015=
201906031200 METAR LRSM 031200Z 19003KT 150V230 9999 FEW046 26/14 Q1015=
201906031230 METAR LRSM 031230Z 18006KT 9999 FEW033CB 25/15 Q1015=
201906031300 METAR LRSM 031300Z 12011KT 8000 SHRA SCT035CB 20/18 Q1015
                        R01/29//95=
201906031330 METAR LRSM 031330Z 10004KT 070V130 9999 -SHRA SCT040CB 20/19
                        Q1015 RESHRA R01/29//95=
201906031400 METAR LRSM 031400Z 09007KT 060V120 9999 -SHRA SCT045CB 20/18
                        Q1015 R01/29//95=
201906031430 METAR LRSM 031430Z 10004KT 9999 -RA FEW036CB 20/18 Q1015
                        R01/29//95=
201906031500 METAR LRSM 031500Z 09004KT 9999 FEW045 21/19 Q1015 R01/29//95=
201906031530 METAR LRSM 031530Z 11005KT 080V150 CAVOK 21/16 Q1014 R01/29//95=
201906031600 METAR LRSM 031600Z 10004KT CAVOK 21/16 Q1014 R01/29//95=
201906031630 METAR LRSM 031630Z AUTO 08004KT 9999 SHRA FEW130/// SCT220///
                        21/17 Q1014=
201906031700 METAR LRSM 031700Z AUTO 07005KT 9999 RA FEW140/// 21/17 Q1014=
201906031730 METAR LRSM 031730Z AUTO 08005KT 9999 RA BKN160/// 20/17 Q1014=
201906031800 METAR LRSM 031800Z AUTO 06005KT 9999 +RA FEW120/// BKN150///
                        20/19 Q1014=
201906031830 METAR LRSM 031830Z AUTO 02004KT 9999 +RA FEW120/// OVC150///
                        19/19 Q1014=
201906031900 METAR LRSM 031900Z AUTO 05003KT 9999 +RA SCT130/// OVC150///
                        19/18 Q1015=
201906031930 METAR LRSM 031930Z AUTO 00000KT 9999 +RA OVC140/// 19/18
                        Q1015=
201906032000 METAR LRSM 032000Z AUTO 00000KT 9999 +RA FEW065/// OVC150///
                        18/18 Q1015=
201906032030 METAR LRSM 032030Z AUTO 00000KT 9999 +RA FEW080/// BKN150///
                        18/17 Q1015=
201906032100 METAR LRSM 032100Z AUTO 00000KT 9999 +RA FEW065/// BKN120///
                        BKN140/// 18/17 Q1015=
201906032130 METAR LRSM 032130Z AUTO 00000KT 9000 +RA OVC110/// 18/18
                        Q1014=
201906032200 METAR LRSM 032200Z AUTO 00000KT 6000 -RA BKN095/// OVC110///
                        18/18 Q1014=
201906032230 METAR LRSM 032230Z AUTO 00000KT 9999 -RA FEW075/// OVC100///
                        18/18 Q1014=
201906032300 METAR LRSM 032300Z AUTO 00000KT 6000 -RA BKN085/// 18/18
                        Q1014=
201906032330 METAR LRSM 032330Z AUTO 00000KT 6000 +RA FEW065/// BKN090///
                        BKN110/// 18/18 Q1014=
201906040000 METAR LRSM 040000Z AUTO 00000KT 3700 +RA FEW070/// SCT095///
                        BKN110/// 18/18 Q1014=
201906040030 METAR LRSM 040030Z AUTO 00000KT 3900 +RA FEW075/// BKN095///
                        17/17 Q1013=
201906040100 METAR LRSM 040100Z AUTO 00000KT 6000 +RA BKN065/// OVC100///
                        18/18 Q1013=
201906040130 METAR LRSM 040130Z AUTO 00000KT 6000 +RA OVC075/// 18/18
                        Q1013=
201906040200 METAR LRSM 040200Z AUTO 00000KT 6000 +RA BKN080/// BKN100///
                        18/18 Q1013=
201906040230 METAR LRSM 040230Z AUTO 05004KT 7000 +RA BKN085/// 17/17
                        Q1013=
201906040300 METAR LRSM 040300Z AUTO 16003KT 8000 +RA FEW090/// SCT120///
                        17/17 Q1013=
201906040330 METAR LRSM 040330Z AUTO 17003KT 6000 RA SCT100/// BKN190///
                        17/17 Q1013=
201906040400 METAR LRSM 040400Z 14004KT 100V170 CAVOK 18/18 Q1013 R01/29//95=
201906040430 METAR LRSM 040430Z 12004KT CAVOK 18/18 Q1013 R01/29//95=
201906040500 METAR LRSM 040500Z 17001KT CAVOK 19/18 Q1013 R01/29//95=
201906040530 METAR LRSM 040530Z 00000KT CAVOK 20/18 Q1013 R01/29//95=
201906040600 METAR LRSM 040600Z 13002KT CAVOK 20/17 Q1013 R01/29//95=
201906040630 METAR LRSM 040630Z 15003KT 090V200 CAVOK 23/16 Q1013 R01/29//95=
201906040700 METAR LRSM 040700Z 15003KT 110V200 CAVOK 23/15 Q1013 R01/29//95=
201906040730 METAR LRSM 040730Z VRB02KT CAVOK 23/15 Q1013 R01/29//95=
201906040800 METAR LRSM 040800Z 27003KT 200V350 CAVOK 24/14 Q1013 R01/29//95=
201906040830 METAR LRSM 040830Z VRB02KT CAVOK 25/15 Q1013 R01/29//95=
201906040900 METAR LRSM 040900Z 14004KT 070V200 9999 FEW043 25/15 Q1013
                        R01/29//95=
201906040930 METAR LRSM 040930Z VRB01KT 9999 FEW040 25/15 Q1013 R01/29//95=
201906041000 METAR LRSM 041000Z 06003KT 010V180 9999 FEW040 26/15 Q1013
                        R01/29//95=
201906041030 METAR LRSM 041030Z 20004KT 140V260 9999 FEW040 26/15 Q1013
                        R01/CLRD//=
201906041100 METAR LRSM 041100Z VRB01KT 9999 FEW043 27/16 Q1013=
201906041130 METAR LRSM 041130Z VRB02KT 9999 FEW045 27/15 Q1012=
201906041200 METAR LRSM 041200Z VRB02KT 9999 FEW047 27/14 Q1012=
201906041230 METAR LRSM 041230Z 06005KT 340V100 9999 FEW040CB 27/14 Q1012=
201906041300 METAR LRSM 041300Z 08005KT 040V130 9999 FEW040CB 27/14 Q1011=
201906041330 METAR LRSM 041330Z 06007KT 020V090 9999 FEW040CB 27/16 Q1011=
201906041400 METAR LRSM 041400Z 05007KT 020V090 9999 VCSH FEW040CB 25/15
                        Q1011=
201906041430 METAR LRSM 041430Z 08008KT 9999 VCSH FEW040CB 24/17 Q1011=
201906041500 METAR LRSM 041500Z 08006KT CAVOK 25/17 Q1010=
201906041530 METAR LRSM 041530Z 06009KT CAVOK 25/17 Q1010=
201906041600 METAR LRSM 041600Z 04008KT CAVOK 25/16 Q1011=
201906041630 METAR LRSM 041630Z AUTO 05005KT 020V080 9999 BKN150/// 25/16
                        Q1011=
201906041700 METAR LRSM 041700Z AUTO 05004KT 9999 FEW140/// SCT160///
                        25/16 Q1010=
201906041730 METAR LRSM 041730Z AUTO 03003KT 9999 NCD 23/18 Q1010=
201906041800 METAR LRSM 041800Z AUTO 05005KT 9999 NCD 22/17 Q1010=
201906041830 METAR LRSM 041830Z AUTO 06004KT 9999 NCD 20/17 Q1010=
201906041900 METAR LRSM 041900Z AUTO 06003KT 9999 NCD 20/17 Q1010=
201906041930 METAR LRSM 041930Z AUTO 00000KT 9999 NCD 19/17 Q1011=
201906042000 METAR LRSM 042000Z AUTO 11005KT 9999 NCD 19/17 Q1011=
201906042030 METAR LRSM 042030Z AUTO 21004KT 180V240 9999 FEW055/// SCT100///
                        19/18 Q1011=
201906042100 METAR LRSM 042100Z AUTO 26004KT 9999 VCTS FEW060/// BKN100///
                        19/17 Q1011=
201906042130 METAR LRSM 042130Z AUTO 20005KT 9999 FEW050/// SCT080///
                        BKN110/// 19/17 Q1011=
201906042200 METAR LRSM 042200Z AUTO 24004KT 200V290 9999 +RA BKN055///
                        BKN070/// 18/17 Q1011=
201906042230 METAR LRSM 042230Z AUTO 19003KT 9999 +RA FEW065/// BKN085///
                        BKN120/// 18/17 Q1012=
201906042300 METAR LRSM 042300Z AUTO 11004KT 9999 +RA FEW085/// BKN110///
                        BKN130/// 18/17 Q1011=
201906042330 METAR LRSM 042330Z AUTO 14002KT 9999 +RA SCT090/// BKN120///
                        BKN150/// 18/17 Q1011=
201906050000 METAR LRSM 050000Z AUTO 15005KT 9999 +RA SCT090/// BKN100///
                        18/17 Q1011=
201906050030 METAR LRSM 050030Z AUTO 16005KT 9999 +RA BKN095/// BKN140///
                        18/17 Q1011=
201906050100 METAR LRSM 050100Z AUTO 18005KT 9999 +RA SCT100/// BKN180///
                        18/16 Q1011=
201906050130 METAR LRSM 050130Z AUTO 17005KT 9999 +RA SCT100/// OVC110///
                        18/16 Q1011=
201906050200 METAR LRSM 050200Z AUTO 16004KT 9999 +RA FEW070/// BKN100///
                        17/15 Q1011=
201906050230 METAR LRSM 050230Z AUTO 12006KT 9999 +RA SCT100/// 17/15
                        Q1011=
201906050300 METAR LRSM 050300Z AUTO 12006KT 9999 +RA OVC110/// 17/16
                        Q1011=
201906050330 METAR LRSM 050330Z AUTO 13007KT 9999 +RA BKN110/// 18/16
                        Q1011=
201906050400 METAR LRSM 050400Z 13006KT CAVOK 19/15 Q1012=
201906050430 METAR LRSM 050430Z 12006KT CAVOK 18/14 Q1012=
201906050500 METAR LRSM 050500Z 13007KT CAVOK 19/14 Q1012=
201906050530 METAR LRSM 050530Z 13008KT CAVOK 21/14 Q1012=
201906050600 METAR LRSM 050600Z 14010KT CAVOK 21/13 Q1012=
201906050630 METAR LRSM 050630Z 14010KT CAVOK 21/13 Q1012=
201906050700 METAR LRSM 050700Z 14010KT CAVOK 22/13 Q1012=
201906050730 METAR LRSM 050730Z 14012KT 9999 FEW040 22/13 Q1012=
201906050800 METAR LRSM 050800Z 14013KT 9999 FEW040 22/13 Q1012=
201906050830 METAR LRSM 050830Z 14012KT 9999 FEW043 23/13 Q1012=
201906050900 METAR LRSM 050900Z 14012KT 110V170 9999 FEW043 23/13 Q1012=
201906050930 METAR LRSM 050930Z 14013KT 9999 FEW043 23/13 Q1012=
201906051000 METAR LRSM 051000Z 13011KT 9999 FEW043 24/14 Q1012=
201906051030 METAR LRSM 051030Z 15010KT 100V180 9999 SCT043 24/13 Q1012=
201906051100 METAR LRSM 051100Z 15010KT 9999 SCT043 24/13 Q1012=
201906051130 METAR LRSM 051130Z 14009KT 110V170 9999 SCT046 25/13 Q1011=
201906051200 METAR LRSM 051200Z 14011KT 9999 FEW046 25/12 Q1011=
201906051230 METAR LRSM 051230Z 15009KT 9999 FEW046 24/12 Q1011=
201906051300 METAR LRSM 051300Z 13009KT 9999 FEW040CB SCT046 24/13 Q1011=
201906051330 METAR LRSM 051330Z 13010KT 9999 FEW040CB 24/13 Q1011=
201906051400 METAR LRSM 051400Z 12010KT 9999 FEW040CB 24/14 Q1011=
201906051430 METAR LRSM 051430Z 13010KT 9999 FEW040CB 24/13 Q1011=
201906051500 METAR LRSM 051500Z 13009KT 9999 FEW040CB 24/14 Q1011=
201906051530 METAR LRSM 051530Z 25008KT 210V270 9999 FEW040CB 23/15 Q1011=
201906051600 METAR LRSM 051600Z 22006KT 9999 FEW040CB 22/15 Q1012=
201906051630 METAR LRSM 051630Z AUTO 18005KT 9999 FEW110/// 22/14 Q1011=
201906051700 METAR LRSM 051700Z AUTO 18003KT 150V220 9999 FEW110/// 22/14
                        Q1011=
201906051730 METAR LRSM 051730Z AUTO 12005KT 080V150 9999 FEW110/// 21/13
                        Q1012=
201906051800 METAR LRSM 051800Z AUTO 12004KT 9999 NCD 21/12 Q1012=
201906051830 METAR LRSM 051830Z AUTO 11006KT 080V160 9999 FEW140/// 20/13
                        Q1012=
201906051900 METAR LRSM 051900Z AUTO 14006KT 9999 FEW100/// BKN120///
                        20/13 Q1012=
201906051930 METAR LRSM 051930Z AUTO 14004KT 9999 BKN110/// OVC140///
                        19/13 Q1012=
201906052000 METAR LRSM 052000Z AUTO 14006KT 9999 SCT120/// BKN140///
                        19/13 Q1012=
201906052030 METAR LRSM 052030Z AUTO 15005KT 9999 FEW160/// 19/13 Q1012=
201906052100 METAR LRSM 052100Z AUTO 17004KT 9999 NCD 17/14 Q1012=
201906052130 METAR LRSM 052130Z AUTO 15006KT 9999 FEW085/// 18/13 Q1012=
201906052200 METAR LRSM 052200Z AUTO 10003KT 010V160 9999 BKN080/// 17/14
                        Q1013=
201906052230 METAR LRSM 052230Z AUTO 00000KT 9999 BKN150/// 16/15 Q1013=
201906052300 METAR LRSM 052300Z AUTO 00000KT 9999 -DZ FEW085/// BKN140///
                        BKN160/// 16/15 Q1013=
201906052330 METAR LRSM 052330Z AUTO 22004KT 190V250 9999 -RA FEW065///
                        BKN090/// 16/15 Q1013=
201906060000 METAR LRSM 060000Z AUTO 14005KT 9999 FEW080/// SCT140///
                        BKN160/// 16/15 Q1012 RERA=
201906060030 METAR LRSM 060030Z AUTO 15004KT 120V180 9999 FEW100/// SCT130///
                        BKN150/// 17/15 Q1012 REDZ=
201906060100 METAR LRSM 060100Z AUTO 10005KT 9999 BKN100/// OVC130///
                        17/16 Q1012=
201906060130 METAR LRSM 060130Z AUTO 12002KT 9999 BKN080/// BKN100///
                        17/15 Q1012=
201906060200 METAR LRSM 060200Z AUTO 09005KT 9999 SCT070/// OVC085///
                        17/15 Q1012=
201906060230 METAR LRSM 060230Z AUTO 10002KT 9999 SCT090/// BKN100///
                        BKN160/// 16/15 Q1012=
201906060300 METAR LRSM 060300Z AUTO 11005KT 9999 SCT075/// BKN090///
                        16/15 Q1012=
201906060330 METAR LRSM 060330Z AUTO 15004KT 120V190 9999 BKN080/// 16/15
                        Q1013=
201906060400 METAR LRSM 060400Z 12003KT CAVOK 17/15 Q1013=
201906060430 METAR LRSM 060430Z VRB02KT CAVOK 19/15 Q1013=
201906060500 METAR LRSM 060500Z 14004KT 110V170 CAVOK 19/14 Q1013=
201906060530 METAR LRSM 060530Z 14004KT 090V200 CAVOK 19/15 Q1013=
201906060600 METAR LRSM 060600Z 12004KT 090V150 CAVOK 20/15 Q1014=
201906060630 METAR LRSM 060630Z 10004KT 070V150 CAVOK 21/15 Q1014=
201906060700 METAR LRSM 060700Z 14005KT 100V180 CAVOK 21/15 Q1014=
201906060730 METAR LRSM 060730Z 13007KT 9999 FEW026 21/15 Q1014=
201906060800 METAR LRSM 060800Z 13009KT 9999 FEW026 20/15 Q1014=
201906060830 METAR LRSM 060830Z 15008KT 9999 FEW026 21/15 Q1014=
201906060900 METAR LRSM 060900Z 18008KT 140V200 9999 SCT028 22/15 Q1014=
201906060930 METAR LRSM 060930Z 17008KT 140V200 9999 SCT029 22/15 Q1014=
201906061000 METAR LRSM 061000Z 18008KT 9999 FEW026CB SCT029 22/15 Q1014=
201906061030 METAR LRSM 061030Z 20008KT 9999 -SHRA FEW026CB FEW030 21/15
                        Q1014=
201906061100 METAR LRSM 061100Z 20006KT 170V250 9999 FEW030 22/15 Q1014=
201906061130 METAR LRSM 061130Z 17006KT 130V220 9999 FEW030 23/15 Q1014=
201906061200 METAR LRSM 061200Z 18006KT 130V220 9999 FEW032 24/15 Q1014=
201906061230 METAR LRSM 061230Z 17006KT 130V210 9999 SCT033 24/16 Q1014=
201906061300 METAR LRSM 061300Z 23007KT 190V270 9999 SCT035 24/15 Q1013=
201906061330 METAR LRSM 061330Z 21007KT 180V240 9999 SCT040 25/14 Q1013=
201906061400 METAR LRSM 061400Z 22006KT 160V270 9999 SCT040 23/14 Q1013=
201906061430 METAR LRSM 061430Z 23007KT 200V260 9999 FEW040 24/14 Q1013=
201906061500 METAR LRSM 061500Z 23005KT 200V290 9999 FEW035CB FEW040 24/15
                        Q1013=
201906061530 METAR LRSM 061530Z 28005KT 230V340 9999 FEW035CB FEW040 24/14
                        Q1013=
201906061600 METAR LRSM 061600Z 28005KT 250V320 9999 FEW035CB 24/15 Q1013=
201906061630 METAR LRSM 061630Z AUTO 24004KT 190V280 9999 SCT095/// 24/14
                        Q1013=
201906061700 METAR LRSM 061700Z AUTO 22003KT 190V250 9999 FEW100/// 23/16
                        Q1014=
201906061730 METAR LRSM 061730Z AUTO 17002KT 9999 BKN100/// 23/16 Q1014=
201906061800 METAR LRSM 061800Z AUTO 15007KT 9999 SCT110/// BKN120///
                        21/15 Q1014=
201906061830 METAR LRSM 061830Z AUTO 19003KT 9999 BKN120/// 20/16 Q1014=
201906061900 METAR LRSM 061900Z AUTO 21003KT 9999 SCT110/// BKN130///
                        19/16 Q1014=
201906061930 METAR LRSM 061930Z AUTO 15003KT 100V190 9999 FEW180/// 18/16
                        Q1014=
201906062000 METAR LRSM 062000Z AUTO 13003KT 9999 SCT110/// BKN170///
                        18/15 Q1015=
201906062030 METAR LRSM 062030Z AUTO 11003KT 9999 BKN100/// OVC120///
                        18/16 Q1015=
201906062100 METAR LRSM 062100Z AUTO VRB01KT 9999 BKN110/// 18/16 Q1015=
201906062130 METAR LRSM 062130Z AUTO 09003KT 9999 FEW110/// 17/16 Q1015=
201906062200 METAR LRSM 062200Z AUTO 14002KT 9999 FEW110/// 17/16 Q1015=
201906062230 METAR LRSM 062230Z AUTO 22004KT 9999 NCD 16/15 Q1015=
201906062300 METAR LRSM 062300Z AUTO 21005KT 9999 NCD 16/15 Q1015=
201906062330 METAR LRSM 062330Z AUTO 21001KT 9999 FEW110/// 16/15 Q1015=
201906070000 METAR LRSM 070000Z AUTO 00000KT 8000 NCD 15/15 Q1015=
201906070030 METAR LRSM 070030Z AUTO 10001KT 9999 FEW060/// 15/15 Q1015=
201906070100 METAR LRSM 070100Z AUTO 08004KT 9999 FEW060/// 15/15 Q1015=
201906070130 METAR LRSM 070130Z AUTO 10004KT 9999 NCD 14/14 Q1015=
201906070200 METAR LRSM 070200Z AUTO 09004KT 9999 NCD 14/14 Q1015=
201906070230 METAR LRSM 070230Z AUTO 10004KT 9999 NCD 14/14 Q1015=
201906070300 METAR LRSM 070300Z AUTO 09003KT 9000 NCD 14/14 Q1016=
201906070330 METAR LRSM 070330Z AUTO 13001KT 9999 SCT025/// 15/15 Q1016=
201906070400 METAR LRSM 070400Z 07002KT 9999 BKN026 16/16 Q1016=
201906070430 METAR LRSM 070430Z 14003KT 110V170 9999 BKN026 18/17 Q1016=
201906070500 METAR LRSM 070500Z 09003KT 9999 BKN022 18/17 Q1016=
201906070530 METAR LRSM 070530Z 06004KT 9999 -SHRA SCT023 SCT030CB 19/17
                        Q1016=
201906070600 METAR LRSM 070600Z 00000KT 9999 -SHRA SCT024 BKN034CB 19/17
                        Q1017=
201906070630 METAR LRSM 070630Z 26003KT 220V290 6000 -TSRA SCT024 BKN033CB
                        18/18 Q1017 R01/29//95=
201906070700 METAR LRSM 070700Z 25005KT 4500 TSRA FEW025 SCT041CB 18/18
                        Q1018 R01/29//95=
201906070730 METAR LRSM 070730Z 00000KT 3500 TSRA SCT021 BKN040CB 18/18
                        Q1018 R01/29//95=
201906070800 METAR LRSM 070800Z 14006KT 110V170 8000 -RA FEW022 FEW036CB
                        BKN047 18/18 Q1018 RETSRA R01/29//95=
201906070830 METAR LRSM 070830Z 16008KT 9999 SCT028 19/19 Q1017 R01/29//95=
201906070900 METAR LRSM 070900Z 17008KT 9999 FEW028 21/19 Q1017 R01/29//95=
201906070930 METAR LRSM 070930Z 14006KT 110V180 9999 FEW012 SCT028 22/19
                        Q1018 R01/29//95=
201906071000 METAR LRSM 071000Z 15007KT 120V180 9999 FEW028 23/16 Q1018
                        R01/29//95=
201906071030 METAR LRSM 071030Z 11009KT 090V150 9999 FEW026 23/18 Q1017
                        R01/29//95=
201906071100 METAR LRSM 071100Z 12010KT 9999 FEW026 24/19 Q1017 R01/29//95=
201906071130 METAR LRSM 071130Z 13009KT 110V170 9999 FEW026 24/17 Q1017
                        R01/29//95=
201906071200 METAR LRSM 071200Z 15007KT 110V180 9999 FEW028 25/18 Q1017
                        R01/29//95=
201906071230 METAR LRSM 071230Z 18008KT 9999 FEW030 26/18 Q1016 R01/29//95=
201906071300 METAR LRSM 071300Z 15008KT 120V180 9999 FEW033CB SCT040 25/17
                        Q1016 R01/29//95=
201906071330 METAR LRSM 071330Z 17006KT 9999 VCTS FEW036CB BKN042 25/18
                        Q1016 R01/29//95=
201906071400 METAR LRSM 071400Z 18006KT 9999 TS FEW036CB BKN040 25/18
                        Q1016 R01/29//95=
201906071430 METAR LRSM 071430Z 16004KT 120V180 9999 FEW036CB SCT046 25/19
                        Q1016 RETS R01/29//95=
201906071500 METAR LRSM 071500Z 12006KT 070V150 9999 TS FEW036CB SCT044
                        26/19 Q1016 R01/29//95=
201906071530 METAR LRSM 071530Z 22003KT 170V260 9999 FEW040CB SCT046 25/18
                        Q1016 R01/25//95=
201906071600 METAR LRSM 071600Z 23008KT 9999 FEW040CB SCT046 25/18 Q1016
                        R01/25//95=
201906071630 METAR LRSM 071630Z 22005KT 9999 FEW040CB SCT046 25/17 Q1016
                        R01/25//95=
201906071700 METAR LRSM 071700Z AUTO 19006KT 9999 +RA FEW065/// SCT100///
                        24/17 Q1016=
201906071730 METAR LRSM 071730Z AUTO 17006KT 9999 +RA FEW065/// 23/17
                        Q1016=
201906071800 METAR LRSM 071800Z AUTO 18005KT 9999 +RA NCD 22/17 Q1016=
201906071830 METAR LRSM 071830Z AUTO 19006KT 9999 +RA FEW060/// 21/17
                        Q1016=
201906071900 METAR LRSM 071900Z AUTO 19006KT 9999 RA FEW060/// 20/18 Q1017=
201906071930 METAR LRSM 071930Z AUTO 20006KT 9999 RA FEW085/// SCT100///
                        20/17 Q1017=
201906072000 METAR LRSM 072000Z AUTO 20006KT 9999 RA FEW055/// BKN090///
                        BKN120/// 20/17 Q1017=
201906072030 METAR LRSM 072030Z AUTO 19005KT 9999 +RA BKN070/// 20/17
                        Q1017=
201906072100 METAR LRSM 072100Z AUTO 19007KT 9999 +RA SCT060/// BKN080///
                        20/17 Q1017=
201906072130 METAR LRSM 072130Z AUTO 19007KT 9999 +RA FEW060/// BKN085///
                        20/17 Q1017=
201906072200 METAR LRSM 072200Z AUTO 19007KT 9999 RA FEW060/// 20/17 Q1017=
201906072230 METAR LRSM 072230Z AUTO 19007KT 9999 RA NCD 19/17 Q1017=
201906072300 METAR LRSM 072300Z AUTO 19006KT 9999 RA NCD 19/18 Q1017=
201906072330 METAR LRSM 072330Z AUTO 15002KT 050V190 9999 RA NCD 19/17
                        Q1017=
201906080000 METAR LRSM 080000Z AUTO 09004KT 070V130 9999 NCD 18/17 Q1017
                        RERA=
201906080030 METAR LRSM 080030Z AUTO 06004KT 9000 NCD 16/16 Q1017 RERA=
201906080100 METAR LRSM 080100Z AUTO 12003KT 9000 NCD 17/17 Q1017=
201906080130 METAR LRSM 080130Z AUTO 00000KT 8000 NCD 16/16 Q1017=
201906080200 METAR LRSM 080200Z AUTO 00000KT 6000 NCD 16/16 Q1017=
201906080230 METAR LRSM 080230Z AUTO 09004KT 7000 NCD 16/16 Q1016=
201906080300 METAR LRSM 080300Z AUTO 09006KT 6000 NCD 16/16 Q1017=
201906080330 METAR LRSM 080330Z AUTO 09003KT 6000 NCD 17/17 Q1017=
201906080400 METAR LRSM 080400Z AUTO 09005KT 8000 NCD 18/18 Q1017=
201906080430 METAR LRSM 080430Z AUTO 12003KT 9999 NCD 20/18 Q1017=
201906080500 METAR LRSM 080500Z AUTO 11004KT 9999 NCD 21/19 Q1017=
201906080530 METAR LRSM 080530Z AUTO 12004KT 9999 NCD 22/19 Q1017=
201906080600 METAR LRSM 080600Z AUTO 13002KT 080V170 9999 FEW036/// 24/18
                        Q1018=
201906080630 METAR LRSM 080630Z AUTO 15002KT 100V190 9999 FEW036/// 25/18
                        Q1018=
201906080700 METAR LRSM 080700Z AUTO VRB01KT 9999 FEW065/// 26/18 Q1018=
201906080730 METAR LRSM 080730Z AUTO 12003KT 030V190 9999 NCD 26/17 Q1018=
201906080800 METAR LRSM 080800Z AUTO 13002KT 050V200 9999 NCD 26/18 Q1018=
201906080830 METAR LRSM 080830Z AUTO 09004KT 020V150 9999 NCD 26/18 Q1018=
201906080900 METAR LRSM 080900Z AUTO VRB04KT 9999 FEW190/// 27/18 Q1018=
201906080930 METAR LRSM 080930Z AUTO VRB02KT 9999 FEW034/// 27/17 Q1018=
201906081000 METAR LRSM 081000Z AUTO 12005KT 050V170 9999 FEW170/// 28/16
                        Q1018=
201906081030 METAR LRSM 081030Z AUTO 28002KT 250V320 9999 SCT043/// 27/16
                        Q1018=
201906081100 METAR LRSM 081100Z AUTO 33003KT 270V040 9999 FEW170/// 29/16
                        Q1018=
201906081130 METAR LRSM 081130Z AUTO VRB03KT 9999 FEW050/// 29/15 Q1017=
201906081200 METAR LRSM 081200Z AUTO 28006KT 240V320 9999 FEW210/// 29/16
                        Q1017=
201906081230 METAR LRSM 081230Z AUTO 30004KT 230V340 9999 NCD 29/16 Q1017=
201906081300 METAR LRSM 081300Z AUTO 29005KT 260V360 9999 NCD 29/16 Q1017=
201906081330 METAR LRSM 081330Z AUTO 31006KT 270V340 9999 NCD 29/16 Q1017=
201906081400 METAR LRSM 081400Z AUTO 36004KT 310V030 9999 FEW055/// 29/16
                        Q1017=
201906081430 METAR LRSM 081430Z AUTO 32003KT 250V020 9999 NCD 29/17 Q1017=
201906081500 METAR LRSM 081500Z AUTO 31005KT 270V340 9999 NCD 29/17 Q1018=
201906081530 METAR LRSM 081530Z AUTO 32005KT 290V020 9999 FEW055/// 29/17
                        Q1018=
201906081600 METAR LRSM 081600Z AUTO 01004KT 9999 NCD 28/17 Q1018=
201906081630 METAR LRSM 081630Z AUTO 34004KT 9999 NCD 28/18 Q1018=
201906081700 METAR LRSM 081700Z AUTO 35005KT 9999 NCD 27/18 Q1018=
201906081730 METAR LRSM 081730Z AUTO 03003KT 9999 NCD 26/18 Q1018=
201906081800 METAR LRSM 081800Z AUTO 03004KT 9999 NCD 25/18 Q1018=
201906081830 METAR LRSM 081830Z AUTO 34003KT 9999 NCD 23/18 Q1018=
201906081900 METAR LRSM 081900Z AUTO 34003KT 9999 NCD 22/17 Q1019=
201906081930 METAR LRSM 081930Z AUTO 34004KT 9999 NCD 22/18 Q1019=
201906082000 METAR LRSM 082000Z AUTO 32003KT 9999 BKN120/// 21/18 Q1019=
201906082030 METAR LRSM 082030Z AUTO 00000KT 9999 BKN120/// 21/20 Q1019=
201906082100 METAR LRSM 082100Z AUTO 00000KT 9999 SCT110/// BKN130///
                        21/20 Q1020=
201906082130 METAR LRSM 082130Z AUTO 00000KT 9999 FEW110/// BKN130///
                        21/20 Q1020=
201906082200 METAR LRSM 082200Z AUTO 22003KT 9999 FEW130/// 20/19 Q1020=
201906082230 METAR LRSM 082230Z AUTO 24003KT 6000 NCD 19/19 Q1020=
201906082300 METAR LRSM 082300Z AUTO 28003KT 5000 BR NCD 19/19 Q1020=
201906082330 METAR LRSM 082330Z AUTO 20004KT 6000 NCD 18/18 Q1020=
201906090000 METAR LRSM 090000Z AUTO 22004KT 7000 NCD 18/18 Q1020=
201906090030 METAR LRSM 090030Z AUTO 34005KT 300V070 7000 NCD 18/18 Q1020=
201906090100 METAR LRSM 090100Z AUTO 01004KT 8000 NCD 18/18 Q1021=
201906090130 METAR LRSM 090130Z AUTO 00000KT 6000 NCD 17/17 Q1021=
201906090200 METAR LRSM 090200Z AUTO 21003KT 190V250 7000 NCD 17/17 Q1021=
201906090230 METAR LRSM 090230Z AUTO 25004KT 4800 BR NCD 17/17 Q1021=
201906090300 METAR LRSM 090300Z AUTO 29004KT 5000 BR NCD 16/16 Q1021=
201906090330 METAR LRSM 090330Z AUTO 34002KT 6000 NCD 17/17 Q1021=
201906090400 METAR LRSM 090400Z 00000KT 8000 NSC 18/18 Q1021 R01/25//95=
201906090430 METAR LRSM 090430Z VRB02KT CAVOK 19/19 Q1022 R01/25//95=
201906090500 METAR LRSM 090500Z 01003KT 320V050 CAVOK 20/19 Q1022 R01/CLRD//=
201906090530 METAR LRSM 090530Z 04004KT 010V080 CAVOK 21/19 Q1022=
201906090600 METAR LRSM 090600Z 07003KT 020V120 CAVOK 23/19 Q1022=
201906090630 METAR LRSM 090630Z 06007KT 030V090 CAVOK 23/19 Q1022=
201906090700 METAR LRSM 090700Z 05005KT 030V110 CAVOK 24/19 Q1022=
201906090730 METAR LRSM 090730Z 10003KT 030V170 CAVOK 25/18 Q1022=
201906090800 METAR LRSM 090800Z 05006KT 020V090 CAVOK 26/18 Q1022=
201906090830 METAR LRSM 090830Z 04007KT 010V070 CAVOK 27/18 Q1022=
201906090900 METAR LRSM 090900Z 06005KT 360V120 CAVOK 28/18 Q1022=
201906090930 METAR LRSM 090930Z 05007KT 010V080 9999 FEW040 28/18 Q1022=
201906091000 METAR LRSM 091000Z VRB03KT 9999 FEW043 29/17 Q1022=
201906091030 METAR LRSM 091030Z 36003KT 300V080 9999 FEW043 29/16 Q1022=
201906091100 METAR LRSM 091100Z 07006KT 040V100 9999 FEW036 29/16 Q1021=
201906091130 METAR LRSM 091130Z VRB02KT 9999 FEW048 30/16 Q1021=
201906091200 METAR LRSM 091200Z 13003KT 9999 FEW048 30/16 Q1021=
201906091230 METAR LRSM 091230Z VRB02KT CAVOK 30/16 Q1021=
201906091300 METAR LRSM 091300Z 05003KT 010V140 CAVOK 30/17 Q1020=
201906091330 METAR LRSM 091330Z 35005KT 310V030 CAVOK 30/17 Q1020=
201906091400 METAR LRSM 091400Z 34005KT CAVOK 30/18 Q1020=
201906091430 METAR LRSM 091430Z 36006KT 310V040 CAVOK 30/17 Q1020=
201906091500 METAR LRSM 091500Z 36006KT 320V030 CAVOK 29/18 Q1020=
201906091530 METAR LRSM 091530Z 34007KT 300V360 CAVOK 29/19 Q1019=
201906091600 METAR LRSM 091600Z 34007KT CAVOK 28/19 Q1019=
201906091630 METAR LRSM 091630Z AUTO 35006KT 9999 NCD 28/19 Q1019=
201906091700 METAR LRSM 091700Z AUTO 32004KT 9999 NCD 28/20 Q1019=
201906091730 METAR LRSM 091730Z AUTO 34005KT 9999 NCD 26/20 Q1019=
201906091800 METAR LRSM 091800Z AUTO 35003KT 9999 FEW085/// 25/20 Q1019=
201906091830 METAR LRSM 091830Z AUTO 32002KT 9999 SCT085/// 25/20 Q1019=
201906091900 METAR LRSM 091900Z AUTO 31004KT 9999 FEW090/// 23/20 Q1019=
201906091930 METAR LRSM 091930Z AUTO 31004KT 9999 NCD 22/20 Q1020=
201906092000 METAR LRSM 092000Z AUTO 06003KT 020V080 9999 NCD 22/20 Q1020=
201906092030 METAR LRSM 092030Z AUTO 05003KT 020V080 8000 NCD 21/20 Q1020=
201906092100 METAR LRSM 092100Z AUTO 08001KT 7000 NCD 21/20 Q1020=
201906092130 METAR LRSM 092130Z AUTO 05006KT 7000 NCD 20/20 Q1020=
201906092200 METAR LRSM 092200Z AUTO 11004KT 9999 NCD 20/20 Q1020=
201906092230 METAR LRSM 092230Z AUTO 09004KT 070V160 9999 NCD 20/19 Q1020=
201906092300 METAR LRSM 092300Z AUTO 12004KT 9000 NCD 20/19 Q1020=
201906092330 METAR LRSM 092330Z AUTO 09005KT 9000 NCD 19/19 Q1020=
201906100000 METAR LRSM 100000Z AUTO 11004KT 9999 NCD 19/18 Q1020=
201906100030 METAR LRSM 100030Z AUTO 10004KT 9999 NCD 19/18 Q1020=
201906100100 METAR LRSM 100100Z AUTO 08006KT 9000 NCD 18/18 Q1020=
201906100130 METAR LRSM 100130Z AUTO 09005KT 9999 NCD 18/18 Q1019=
201906100200 METAR LRSM 100200Z AUTO 09004KT 9999 NCD 18/17 Q1019=
201906100230 METAR LRSM 100230Z AUTO 06005KT 9000 NCD 17/17 Q1019=
201906100300 METAR LRSM 100300Z AUTO 08006KT 9999 NCD 18/17 Q1019=
201906100330 METAR LRSM 100330Z AUTO 07005KT 9999 NCD 18/17 Q1019=
201906100400 METAR LRSM 100400Z 08006KT CAVOK 19/18 Q1019=
201906100430 METAR LRSM 100430Z 10006KT CAVOK 21/18 Q1019=
201906100500 METAR LRSM 100500Z 11006KT CAVOK 22/18 Q1019=
201906100530 METAR LRSM 100530Z 09007KT CAVOK 23/17 Q1019=
201906100600 METAR LRSM 100600Z 10008KT CAVOK 24/17 Q1019=
201906100630 METAR LRSM 100630Z 10007KT CAVOK 25/17 Q1019=
201906100700 METAR LRSM 100700Z 11006KT CAVOK 26/17 Q1019=
201906100730 METAR LRSM 100730Z 13006KT 090V150 CAVOK 27/18 Q1019=
201906100800 METAR LRSM 100800Z 15008KT CAVOK 27/17 Q1019=
201906100830 METAR LRSM 100830Z 13006KT 110V170 CAVOK 28/16 Q1019=
201906100900 METAR LRSM 100900Z 10004KT 050V150 CAVOK 28/15 Q1019=
201906100930 METAR LRSM 100930Z 10005KT 060V150 9999 FEW044 29/16 Q1018=
201906101000 METAR LRSM 101000Z 10006KT 080V140 9999 FEW044 29/16 Q1018=
201906101030 METAR LRSM 101030Z 08007KT 9999 FEW044 28/15 Q1018=
201906101100 METAR LRSM 101100Z 12006KT 070V160 9999 FEW048 29/15 Q1017=
201906101130 METAR LRSM 101130Z 16006KT 110V190 9999 FEW048 30/15 Q1017=
201906101200 METAR LRSM 101200Z 13004KT 030V170 9999 FEW048 30/14 Q1017=
201906101230 METAR LRSM 101230Z 19003KT 090V260 9999 FEW045 30/14 Q1016=
201906101300 METAR LRSM 101300Z VRB03KT 9999 FEW045 FEW048TCU 31/15 Q1016=
201906101330 METAR LRSM 101330Z VRB01KT 9999 FEW045 FEW048CB 31/15 Q1016=
201906101400 METAR LRSM 101400Z VRB01KT 9999 FEW045 FEW048CB 31/15 Q1016=
201906101430 METAR LRSM 101430Z 14003KT 110V210 9999 FEW045 FEW048CB 31/15
                        Q1016=
201906101500 METAR LRSM 101500Z 12005KT 070V160 9999 FEW045 FEW048CB 30/15
                        Q1015=
201906101530 METAR LRSM 101530Z 12006KT 9999 FEW045 27/19 Q1015=
201906101600 METAR LRSM 101600Z 12007KT 9999 FEW045 28/19 Q1015=
201906101630 METAR LRSM 101630Z 11007KT 9999 FEW045TCU 27/19 Q1015=
201906101700 METAR LRSM 101700Z AUTO 14007KT 9999 NCD 27/18 Q1015=
201906101730 METAR LRSM 101730Z AUTO 10004KT 9999 NCD 26/19 Q1015=
201906101800 METAR LRSM 101800Z AUTO 09006KT 9999 NCD 24/20 Q1015=
201906101830 METAR LRSM 101830Z AUTO 11005KT 9999 NCD 23/20 Q1015=
201906101900 METAR LRSM 101900Z AUTO 11004KT 9999 FEW090/// 22/20 Q1016=
201906101930 METAR LRSM 101930Z AUTO 16003KT 9000 SCT090/// BKN110///
                        22/20 Q1016=
201906102000 METAR LRSM 102000Z AUTO 12005KT 9999 SCT095/// 22/18 Q1016=
201906102030 METAR LRSM 102030Z AUTO 10005KT 070V140 9999 SCT075/// BKN240///
                        22/18 Q1016=
201906102100 METAR LRSM 102100Z AUTO 11006KT 9999 FEW130/// 21/18 Q1016=
201906102130 METAR LRSM 102130Z AUTO 07003KT 030V090 9999 NCD 21/18 Q1015=
201906102200 METAR LRSM 102200Z AUTO 14003KT 100V180 9999 FEW095/// 21/17
                        Q1016=
201906102230 METAR LRSM 102230Z AUTO 17001KT 9999 FEW090/// 20/17 Q1016=
201906102300 METAR LRSM 102300Z AUTO 16003KT 9999 NCD 20/17 Q1016=
201906102330 METAR LRSM 102330Z AUTO 15004KT 9999 NCD 20/16 Q1016=
201906110000 METAR LRSM 110000Z AUTO 10002KT 050V110 9999 NCD 19/16 Q1016=
201906110030 METAR LRSM 110030Z AUTO 08005KT 9999 NCD 18/16 Q1015=
201906110100 METAR LRSM 110100Z AUTO 10007KT 9999 NCD 18/16 Q1015=
201906110130 METAR LRSM 110130Z AUTO 08005KT 9999 NCD 18/16 Q1015=
201906110200 METAR LRSM 110200Z AUTO 11008KT 9999 NCD 18/16 Q1015=
201906110230 METAR LRSM 110230Z AUTO 10006KT 9999 NCD 17/15 Q1015=
201906110300 METAR LRSM 110300Z AUTO VRB02KT 9999 NCD 17/16 Q1015=
201906110330 METAR LRSM 110330Z AUTO 00000KT 9999 NCD 18/17 Q1015=
201906110400 METAR LRSM 110400Z 08004KT CAVOK 19/16 Q1016=
201906110430 METAR LRSM 110430Z 10004KT CAVOK 20/16 Q1015=
201906110500 METAR LRSM 110500Z 08004KT CAVOK 21/16 Q1015=
201906110530 METAR LRSM 110530Z 08003KT 060V120 CAVOK 23/17 Q1016=
201906110600 METAR LRSM 110600Z 08004KT 050V120 CAVOK 24/17 Q1015=
201906110630 METAR LRSM 110630Z 09004KT 060V120 CAVOK 25/17 Q1015=
201906110700 METAR LRSM 110700Z 09005KT CAVOK 26/16 Q1016=
201906110730 METAR LRSM 110730Z 07005KT 040V110 CAVOK 27/15 Q1015=
201906110800 METAR LRSM 110800Z 07005KT 050V110 CAVOK 27/16 Q1015=
201906110830 METAR LRSM 110830Z 08004KT 040V110 CAVOK 28/16 Q1015=
201906110900 METAR LRSM 110900Z 08004KT 020V170 CAVOK 29/17 Q1015=
201906110930 METAR LRSM 110930Z 12005KT 070V140 CAVOK 30/16 Q1015=
201906111000 METAR LRSM 111000Z 11007KT 080V160 9999 FEW046 30/15 Q1015=
201906111030 METAR LRSM 111030Z 10006KT 080V140 9999 FEW043CB 31/15 Q1015=
201906111100 METAR COR LRSM 111100Z 17009KT 140V210 9999 TS FEW043CB 30/15
                        Q1015=
201906111130 METAR LRSM 111130Z 18016KT 9999 TS SCT046CB 26/17 Q1015=
201906111200 METAR LRSM 111200Z 21008KT 9999 TS FEW046CB 26/17 Q1015=
201906111230 METAR LRSM 111230Z 20010KT 9999 FEW046CB 27/16 Q1015 RETS=
201906111300 METAR LRSM 111300Z 18006KT 9999 FEW046CB 27/16 Q1015=
201906111330 METAR LRSM 111330Z 21007KT 9999 FEW040 26/16 Q1015=
201906111400 METAR LRSM 111400Z 13002KT 9999 FEW040 27/15 Q1014=
201906111430 METAR LRSM 111430Z 11005KT 9999 SCT034 26/17 Q1014=
201906111500 METAR LRSM 111500Z 11001KT 9999 FEW035 27/17 Q1014=
201906111530 METAR LRSM 111530Z VRB01KT 9999 FEW035 28/17 Q1014=
201906111600 METAR LRSM 111600Z 04006KT 9999 FEW040 27/18 Q1014=
201906111630 METAR LRSM 111630Z AUTO 08004KT 9999 FEW110/// 26/18 Q1014=
201906111700 METAR LRSM 111700Z AUTO 07004KT 9999 FEW110/// 25/19 Q1015=
201906111730 METAR LRSM 111730Z AUTO 04004KT 9999 BKN110/// 25/20 Q1015=
201906111800 METAR LRSM 111800Z AUTO 03002KT 350V070 9999 BKN110/// BKN140///
                        24/20 Q1015=
201906111830 METAR LRSM 111830Z AUTO 35002KT 9999 BKN110/// BKN140///
                        24/19 Q1015=
201906111900 METAR LRSM 111900Z AUTO 00000KT 9999 SCT110/// BKN130///
                        23/20 Q1015=
201906111930 METAR LRSM 111930Z AUTO 00000KT 9999 FEW110/// 22/20 Q1015=
201906112000 METAR LRSM 112000Z AUTO 00000KT 9999 NCD 21/20 Q1015=
201906112030 METAR LRSM 112030Z AUTO 00000KT 9999 FEW090/// 21/20 Q1015=
201906112100 METAR LRSM 112100Z AUTO 00000KT 9999 FEW090/// 20/20 Q1015=
201906112130 METAR LRSM 112130Z AUTO 08003KT 9999 NCD 20/19 Q1015=
201906112200 METAR LRSM 112200Z AUTO 07004KT 9999 NCD 19/19 Q1015=
201906112230 METAR LRSM 112230Z AUTO 08005KT 9999 NCD 19/19 Q1015=
201906112300 METAR LRSM 112300Z AUTO 23005KT 9999 NCD 19/18 Q1015=
201906112330 METAR LRSM 112330Z AUTO 27004KT 9000 SCT130/// 18/18 Q1015=
201906120000 METAR LRSM 120000Z AUTO VRB01KT 8000 FEW120/// SCT130///
                        18/18 Q1015=
201906120030 METAR LRSM 120030Z AUTO 11003KT 070V140 9999 BKN120/// 18/18
                        Q1015=
201906120100 METAR LRSM 120100Z AUTO 12003KT 8000 SCT130/// 18/18 Q1015=
201906120130 METAR LRSM 120130Z AUTO 12002KT 9999 FEW120/// 18/18 Q1015=
201906120200 METAR LRSM 120200Z AUTO 11003KT 060V130 9999 NCD 18/17 Q1015=
201906120230 METAR LRSM 120230Z AUTO 10005KT 9000 NCD 17/17 Q1015=
201906120300 METAR LRSM 120300Z AUTO 10004KT 9999 NCD 18/18 Q1015=
201906120330 METAR LRSM 120330Z AUTO 04002KT 7000 NCD 18/18 Q1015=
201906120400 METAR LRSM 120400Z 00000KT CAVOK 19/18 Q1015=
201906120430 METAR LRSM 120430Z 08004KT CAVOK 20/19 Q1015=
201906120500 METAR LRSM 120500Z 07003KT 050V120 CAVOK 21/19 Q1015=
201906120530 METAR LRSM 120530Z 06003KT CAVOK 23/19 Q1015=
201906120600 METAR LRSM 120600Z 06002KT CAVOK 24/19 Q1015=
201906120630 METAR LRSM 120630Z VRB02KT CAVOK 26/18 Q1015=
201906120700 METAR LRSM 120700Z VRB02KT CAVOK 26/18 Q1015=
201906120730 METAR LRSM 120730Z VRB02KT CAVOK 27/18 Q1015=
201906120800 METAR LRSM 120800Z VRB02KT CAVOK 28/18 Q1016=
201906120830 METAR LRSM 120830Z 10004KT 040V170 9999 FEW040 29/18 Q1016=
201906120900 METAR LRSM 120900Z 14005KT 100V170 9999 FEW044 30/17 Q1015=
201906120930 METAR LRSM 120930Z 16005KT 130V200 9999 FEW044 30/16 Q1015=
201906121000 METAR LRSM 121000Z 15004KT 050V210 9999 FEW044 30/15 Q1015=
201906121030 METAR LRSM 121030Z VRB01KT 9999 FEW045 31/16 Q1015=
201906121100 METAR LRSM 121100Z VRB02KT 9999 FEW045 31/14 Q1014=
201906121130 METAR LRSM 121130Z 17004KT 100V240 9999 FEW045 31/12 Q1014=
201906121200 METAR LRSM 121200Z 15003KT 080V210 9999 FEW045 31/14 Q1014=
201906121230 METAR LRSM 121230Z VRB02KT 9999 FEW045CB 32/14 Q1014=
201906121300 METAR LRSM 121300Z 21004KT 140V260 9999 FEW045CB 32/13 Q1014=
201906121330 METAR LRSM 121330Z 19003KT 110V240 9999 FEW045CB 33/13 Q1014=
201906121400 METAR LRSM 121400Z 19003KT 160V320 9999 FEW045CB 32/12 Q1014=
201906121430 METAR LRSM 121430Z VRB02KT 9999 FEW045CB 32/14 Q1014=
201906121500 METAR LRSM 121500Z VRB02KT CAVOK 32/13 Q1014=
201906121530 METAR LRSM 121530Z VRB02KT CAVOK 31/16 Q1014=
201906121600 METAR LRSM 121600Z 10004KT 080V170 CAVOK 31/15 Q1014=
201906121630 METAR LRSM 121630Z AUTO 10007KT 9999 NCD 28/19 Q1014=
201906121700 METAR LRSM 121700Z AUTO 09005KT 9999 NCD 28/19 Q1014=
201906121730 METAR LRSM 121730Z AUTO 11004KT 9999 NCD 27/19 Q1014=
201906121800 METAR LRSM 121800Z AUTO 09004KT 9999 NCD 26/19 Q1014=
201906121830 METAR LRSM 121830Z AUTO 11006KT 9999 NCD 24/19 Q1014=
201906121900 METAR LRSM 121900Z AUTO 09005KT 9999 NCD 23/19 Q1014=
201906121930 METAR LRSM 121930Z AUTO 17002KT 150V210 9999 NCD 22/18 Q1014=
201906122000 METAR LRSM 122000Z AUTO 14003KT 9999 NCD 22/18 Q1014=
201906122030 METAR LRSM 122030Z AUTO 09002KT 9999 NCD 21/18 Q1014=
201906122100 METAR LRSM 122100Z AUTO 11005KT 9999 NCD 21/18 Q1014=
201906122130 METAR LRSM 122130Z AUTO 10004KT 9999 NCD 21/17 Q1014=
201906122200 METAR LRSM 122200Z AUTO 11005KT 9999 NCD 20/17 Q1015=
201906122230 METAR LRSM 122230Z AUTO 07004KT 9999 NCD 20/18 Q1015=
201906122300 METAR LRSM 122300Z AUTO 09004KT 9999 NCD 19/18 Q1015=
201906122330 METAR LRSM 122330Z AUTO 10005KT 9999 NCD 19/16 Q1015=
201906130000 METAR LRSM 130000Z AUTO 09004KT 9999 NCD 19/16 Q1015=
201906130030 METAR LRSM 130030Z AUTO 08006KT 9999 NCD 19/15 Q1015=
201906130100 METAR LRSM 130100Z AUTO 09004KT 9999 NCD 18/15 Q1015=
201906130130 METAR LRSM 130130Z AUTO 09005KT 9999 NCD 18/15 Q1015=
201906130200 METAR LRSM 130200Z AUTO 07005KT 9999 NCD 17/16 Q1015=
201906130230 METAR LRSM 130230Z AUTO 07006KT 9999 NCD 17/16 Q1015=
201906130300 METAR LRSM 130300Z AUTO 08004KT 9999 NCD 17/16 Q1015=
201906130330 METAR LRSM 130330Z AUTO 09003KT 060V120 9999 NCD 18/16 Q1015=
201906130400 METAR LRSM 130400Z 10002KT CAVOK 19/16 Q1015=
201906130430 METAR LRSM 130430Z 08004KT CAVOK 20/16 Q1015=
201906130500 METAR LRSM 130500Z 00000KT CAVOK 22/17 Q1015=
201906130530 METAR LRSM 130530Z 00000KT CAVOK 24/17 Q1015=
201906130600 METAR LRSM 130600Z 00000KT CAVOK 25/16 Q1016=
201906130630 METAR LRSM 130630Z 00000KT CAVOK 26/16 Q1016=
201906130700 METAR LRSM 130700Z 00000KT CAVOK 27/17 Q1016=
201906130730 METAR LRSM 130730Z 09003KT 010V150 CAVOK 27/16 Q1016=
201906130800 METAR LRSM 130800Z 11006KT CAVOK 28/16 Q1016=
201906130830 METAR LRSM 130830Z 13005KT 060V210 CAVOK 29/17 Q1016=
201906130900 METAR LRSM 130900Z 20003KT 100V260 CAVOK 29/18 Q1016=
201906130930 METAR LRSM 130930Z 11006KT 080V150 CAVOK 29/17 Q1016=
201906131000 METAR LRSM 131000Z 11005KT 050V170 CAVOK 30/17 Q1016=
201906131030 METAR LRSM 131030Z 11006KT 080V150 CAVOK 30/17 Q1016=
201906131100 METAR LRSM 131100Z 15006KT 090V190 CAVOK 30/16 Q1015=
201906131130 METAR LRSM 131130Z 14004KT 080V180 CAVOK 31/17 Q1015=
201906131200 METAR LRSM 131200Z 13005KT 090V180 CAVOK 31/17 Q1015=
201906131230 METAR LRSM 131230Z 20004KT 160V220 CAVOK 32/16 Q1015=
201906131300 METAR LRSM 131300Z 07003KT 030V140 CAVOK 31/17 Q1015=
201906131330 METAR LRSM 131330Z VRB03KT CAVOK 32/16 Q1015=
201906131400 METAR LRSM 131400Z 13004KT 090V190 CAVOK 32/15 Q1015=
201906131430 METAR COR LRSM 131430Z 13005KT 070V190 CAVOK 32/16 Q1014=
201906131500 METAR LRSM 131500Z 13005KT 110V180 CAVOK 32/15 Q1014=
201906131530 METAR LRSM 131530Z 16003KT 110V220 CAVOK 32/16 Q1014=
201906131600 METAR LRSM 131600Z 15004KT 110V170 CAVOK 31/16 Q1014=
201906131630 METAR LRSM 131630Z AUTO 16004KT 9999 NCD 31/17 Q1014=
201906131700 METAR LRSM 131700Z AUTO 16004KT 9999 NCD 30/18 Q1014=
201906131730 METAR LRSM 131730Z AUTO 13003KT 9999 NCD 29/20 Q1014=
201906131800 METAR LRSM 131800Z AUTO 11004KT 9999 NCD 27/21 Q1014=
201906131830 METAR LRSM 131830Z AUTO 12005KT 9999 NCD 26/20 Q1014=
201906131900 METAR LRSM 131900Z AUTO 12003KT 9999 NCD 25/20 Q1014=
201906131930 METAR LRSM 131930Z AUTO 14004KT 9999 NCD 23/20 Q1015=
201906132000 METAR LRSM 132000Z AUTO 13003KT 9999 NCD 23/20 Q1015=
201906132030 METAR LRSM 132030Z AUTO 06002KT 9999 NCD 22/20 Q1015=
201906132100 METAR LRSM 132100Z AUTO 11005KT 9999 NCD 22/20 Q1015=
201906132130 METAR LRSM 132130Z AUTO 10005KT 9999 NCD 21/20 Q1015=
201906132200 METAR LRSM 132200Z AUTO 09002KT 9999 NCD 20/19 Q1016=
201906132230 METAR LRSM 132230Z AUTO 09002KT 9999 NCD 20/19 Q1016=
201906132300 METAR LRSM 132300Z AUTO 08005KT 9999 NCD 20/19 Q1016=
201906132330 METAR LRSM 132330Z AUTO 09004KT 9999 NCD 20/18 Q1016=
201906140000 METAR LRSM 140000Z AUTO 00000KT 9999 NCD 19/19 Q1016=
201906140030 METAR LRSM 140030Z AUTO 08007KT 9999 NCD 19/18 Q1015=
201906140100 METAR LRSM 140100Z AUTO 10005KT 9999 NCD 19/18 Q1015=
201906140130 METAR LRSM 140130Z AUTO 09005KT 9999 NCD 19/18 Q1015=
201906140200 METAR LRSM 140200Z AUTO 08005KT 9999 NCD 19/18 Q1015=
201906140230 METAR LRSM 140230Z AUTO 08006KT 9999 NCD 19/17 Q1015=
201906140300 METAR LRSM 140300Z AUTO 10003KT 9999 NCD 19/17 Q1016=
201906140330 METAR LRSM 140330Z AUTO 10001KT 9999 NCD 20/18 Q1016=
201906140400 METAR LRSM 140400Z 00000KT CAVOK 20/19 Q1016=
201906140430 METAR LRSM 140430Z 00000KT CAVOK 22/19 Q1016=
201906140500 METAR LRSM 140500Z 00000KT CAVOK 25/18 Q1017=
201906140530 METAR LRSM 140530Z VRB01KT CAVOK 25/18 Q1017=
201906140600 METAR LRSM 140600Z VRB02KT CAVOK 26/18 Q1017=
201906140630 METAR LRSM 140630Z 12005KT CAVOK 27/17 Q1017=
201906140700 METAR LRSM 140700Z 11007KT CAVOK 27/18 Q1017=
201906140730 METAR LRSM 140730Z 15004KT 100V220 CAVOK 28/18 Q1017=
201906140800 METAR LRSM 140800Z 17004KT 110V260 CAVOK 29/19 Q1018=
201906140830 METAR LRSM 140830Z 19005KT 120V250 CAVOK 29/18 Q1018=
201906140900 METAR LRSM 140900Z 16004KT 060V220 CAVOK 29/19 Q1018=
201906140930 METAR LRSM 140930Z 23004KT 190V330 CAVOK 30/19 Q1018=
201906141000 METAR LRSM 141000Z VRB03KT CAVOK 31/19 Q1018=
201906141030 METAR LRSM 141030Z 20003KT 110V280 CAVOK 31/19 Q1018=
201906141100 METAR LRSM 141100Z VRB03KT 9999 FEW044 31/20 Q1018=
201906141130 METAR LRSM 141130Z 29003KT 240V360 9999 FEW045 32/19 Q1017=
201906141200 METAR LRSM 141200Z VRB01KT 9999 FEW045 32/19 Q1017=
201906141230 METAR LRSM 141230Z 33003KT 260V020 9999 FEW045 32/19 Q1017=
201906141300 METAR LRSM 141300Z 26004KT 200V310 9999 FEW045CB 33/18 Q1017=
201906141330 METAR LRSM 141330Z VRB02KT 9999 FEW045CB 34/16 Q1017=
201906141400 METAR LRSM 141400Z VRB03KT 9999 FEW045CB 33/18 Q1017=
201906141430 METAR LRSM 141430Z 25004KT 210V290 9999 FEW045CB 33/17 Q1017=
201906141500 METAR LRSM 141500Z 27001KT 9999 FEW045CB 34/16 Q1016=
201906141530 METAR LRSM 141530Z VRB01KT CAVOK 33/16 Q1016=
201906141600 METAR LRSM 141600Z 14004KT 110V190 CAVOK 32/17 Q1016=
201906141630 METAR LRSM 141630Z AUTO 15002KT 030V190 9999 NCD 32/18 Q1016=
201906141700 METAR LRSM 141700Z AUTO 11002KT 9999 NCD 31/18 Q1016=
201906141730 METAR LRSM 141730Z AUTO 06003KT 9999 NCD 30/19 Q1016=
201906141800 METAR LRSM 141800Z AUTO 08005KT 9999 NCD 27/20 Q1017=
201906141830 METAR LRSM 141830Z AUTO 12003KT 9999 NCD 26/20 Q1017=
201906141900 METAR LRSM 141900Z AUTO VRB01KT 9999 NCD 25/20 Q1017=
201906141930 METAR LRSM 141930Z AUTO 11004KT 070V150 9999 NCD 24/21 Q1017=
201906142000 METAR LRSM 142000Z AUTO VRB01KT 9999 SCT210/// 22/21 Q1017=
201906142030 METAR LRSM 142030Z AUTO 06007KT 9999 NCD 23/20 Q1017=
201906142100 METAR LRSM 142100Z AUTO 08003KT 9999 NCD 23/19 Q1017=
201906142130 METAR LRSM 142130Z AUTO 08003KT 9999 NCD 22/20 Q1017=
201906142200 METAR LRSM 142200Z AUTO 14004KT 9999 NCD 22/20 Q1017=
201906142230 METAR LRSM 142230Z AUTO 10004KT 9999 FEW240/// 21/20 Q1017=
201906142300 METAR LRSM 142300Z AUTO 00000KT 9999 FEW240/// 20/19 Q1016=
201906142330 METAR LRSM 142330Z AUTO 00000KT 8000 NCD 19/19 Q1017=
201906150000 METAR LRSM 150000Z AUTO 08001KT 9999 NCD 20/19 Q1017=
201906150030 METAR LRSM 150030Z AUTO 08003KT 9999 NCD 19/19 Q1017=
201906150100 METAR LRSM 150100Z AUTO 08003KT 7000 NCD 18/18 Q1016=
201906150130 METAR LRSM 150130Z AUTO 10006KT 8000 NCD 19/18 Q1017=
201906150200 METAR LRSM 150200Z AUTO 15003KT 120V180 8000 NCD 19/19 Q1016=
201906150230 METAR LRSM 150230Z AUTO 17002KT 8000 NCD 18/18 Q1016=
201906150300 METAR LRSM 150300Z AUTO 07003KT 8000 NCD 18/18 Q1016=
201906150330 METAR LRSM 150330Z AUTO 10004KT 7000 NCD 19/18 Q1016=
201906150400 METAR LRSM 150400Z AUTO 08003KT 030V100 9999 NCD 20/19 Q1016=
201906150430 METAR LRSM 150430Z AUTO 10004KT 070V140 9999 NCD 21/19 Q1016=
201906150500 METAR LRSM 150500Z AUTO 11003KT 9999 NCD 23/20 Q1016=
201906150530 METAR LRSM 150530Z AUTO VRB01KT 9999 R19/1700VP2000D NCD
                        25/18 Q1016=
201906150600 METAR LRSM 150600Z AUTO 00000KT 9999 NCD 25/19 Q1016=
201906150630 METAR LRSM 150630Z AUTO 00000KT 9999 NCD 26/19 Q1016=
201906150700 METAR LRSM 150700Z AUTO 00000KT 9999 NCD 28/20 Q1016=
201906150730 METAR LRSM 150730Z AUTO 00000KT 9999 NCD 28/19 Q1016=
201906150800 METAR LRSM 150800Z AUTO 00000KT 9999 NCD 29/19 Q1016=
201906150830 METAR LRSM 150830Z AUTO VRB02KT 9999 NCD 30/18 Q1016=
201906150900 METAR LRSM 150900Z AUTO VRB02KT 9999 NCD 30/18 Q1016=
201906150930 METAR LRSM 150930Z AUTO VRB02KT 9999 FEW230/// 31/19 Q1016=
201906151000 METAR LRSM 151000Z AUTO 36003KT 280V060 9999 NCD 31/19 Q1016=
201906151030 METAR LRSM 151030Z AUTO VRB02KT 9999 NCD 32/19 Q1016=
201906151100 METAR LRSM 151100Z AUTO 31004KT 240V010 9999 FEW190/// 32/18
                        Q1015=
201906151130 METAR LRSM 151130Z AUTO VRB02KT 9999 NCD 33/18 Q1015=
201906151200 METAR LRSM 151200Z AUTO VRB02KT 9999 FEW190/// 33/16 Q1014=
201906151230 METAR LRSM 151230Z AUTO VRB03KT 9999 FEW230/// 33/18 Q1014=
201906151300 METAR LRSM 151300Z AUTO VRB01KT 9999 NCD 34/18 Q1014=
201906151330 METAR LRSM 151330Z AUTO 23002KT 180V340 9999 NCD 34/17 Q1014=
201906151400 METAR LRSM 151400Z AUTO 36003KT 270V060 9999 NCD 33/17 Q1013=
201906151430 METAR LRSM 151430Z AUTO 29003KT 240V030 9999 NCD 33/17 Q1013=
201906151500 METAR LRSM 151500Z AUTO 30005KT 270V330 9999 NCD 33/17 Q1013=
201906151530 METAR LRSM 151530Z AUTO 29004KT 260V320 9999 NCD 32/19 Q1013=
201906151600 METAR LRSM 151600Z AUTO 35003KT 310V020 9999 NCD 32/18 Q1013=
201906151630 METAR LRSM 151630Z AUTO 34002KT 9999 NCD 33/20 Q1013=
201906151700 METAR LRSM 151700Z AUTO 34002KT 9999 NCD 32/21 Q1013=
201906151730 METAR LRSM 151730Z AUTO 00000KT 9999 NCD 31/18 Q1013=
201906151800 METAR LRSM 151800Z AUTO 04002KT 340V080 9999 NCD 29/19 Q1013=
201906151830 METAR LRSM 151830Z AUTO 00000KT 9999 NCD 26/21 Q1013=
201906151900 METAR LRSM 151900Z AUTO 14003KT 9999 NCD 25/21 Q1013=
201906151930 METAR LRSM 151930Z AUTO 17004KT 9999 NCD 25/20 Q1013=
201906152000 METAR LRSM 152000Z AUTO 21004KT 180V240 9999 NCD 24/20 Q1013=
201906152030 METAR LRSM 152030Z AUTO 18003KT 090V210 9999 NCD 24/20 Q1013=
201906152100 METAR LRSM 152100Z AUTO 08005KT 9999 NCD 23/20 Q1013=
201906152130 METAR LRSM 152130Z AUTO 09003KT 9999 NCD 22/21 Q1013=
201906152200 METAR LRSM 152200Z AUTO 09002KT 9999 NCD 22/20 Q1013=
201906152230 METAR LRSM 152230Z AUTO 16003KT 120V220 9999 NCD 21/20 Q1013=
201906152300 METAR LRSM 152300Z AUTO 23007KT 9999 NCD 22/20 Q1013=
201906152330 METAR LRSM 152330Z AUTO 20004KT 9999 NCD 21/20 Q1013=
201906160000 METAR LRSM 160000Z AUTO 20004KT 9999 NCD 21/20 Q1013=
201906160030 METAR LRSM 160030Z AUTO 11005KT 9999 NCD 21/20 Q1013=
201906160100 METAR LRSM 160100Z AUTO 10003KT 9999 NCD 21/19 Q1013=
201906160130 METAR LRSM 160130Z AUTO 07004KT 9999 NCD 20/19 Q1013=
201906160200 METAR LRSM 160200Z AUTO 08004KT 9999 NCD 19/19 Q1013=
201906160230 METAR LRSM 160230Z AUTO 07004KT 9999 NCD 19/19 Q1013=
201906160300 METAR LRSM 160300Z AUTO 11004KT 9999 NCD 19/19 Q1013=
201906160330 METAR LRSM 160330Z AUTO 10002KT 9999 NCD 20/19 Q1013=
201906160400 METAR LRSM 160400Z 00000KT CAVOK 22/19 Q1014=
201906160430 METAR LRSM 160430Z 00000KT CAVOK 23/19 Q1014=
201906160500 METAR LRSM 160500Z 16003KT 120V190 CAVOK 24/19 Q1014=
201906160530 METAR LRSM 160530Z VRB02KT CAVOK 25/18 Q1014=
201906160600 METAR LRSM 160600Z VRB01KT CAVOK 27/18 Q1014=
201906160630 METAR LRSM 160630Z VRB01KT CAVOK 27/19 Q1014=
201906160700 METAR LRSM 160700Z 23003KT 170V290 CAVOK 28/19 Q1014=
201906160730 METAR LRSM 160730Z 21003KT 160V280 CAVOK 29/19 Q1014=
201906160800 METAR LRSM 160800Z VRB03KT CAVOK 29/19 Q1014=
201906160830 METAR LRSM 160830Z VRB02KT CAVOK 30/19 Q1014=
201906160900 METAR LRSM 160900Z 15004KT CAVOK 30/19 Q1014=
201906160930 METAR LRSM 160930Z VRB03KT CAVOK 30/20 Q1014=
201906161000 METAR LRSM 161000Z 23004KT 110V270 CAVOK 31/20 Q1013=
201906161030 METAR LRSM 161030Z VRB03KT 9999 FEW045 31/20 Q1013=
201906161100 METAR LRSM 161100Z 29004KT 200V340 9999 FEW045 31/20 Q1013=
201906161130 METAR LRSM 161130Z VRB03KT 9999 FEW045 32/19 Q1013=
201906161200 METAR LRSM 161200Z VRB03KT 9999 FEW045 32/20 Q1012=
201906161230 METAR LRSM 161230Z VRB03KT 9999 FEW048 32/20 Q1012=
201906161300 METAR LRSM 161300Z 27005KT 220V340 9999 SCT048 33/20 Q1012=
201906161330 METAR LRSM 161330Z VRB02KT 9999 FEW045TCU SCT048 33/19 Q1012=
201906161400 METAR LRSM 161400Z 33004KT 280V020 9999 FEW048 33/19 Q1012=
201906161430 METAR LRSM 161430Z 35005KT 320V030 9999 FEW045CB 33/17 Q1012=
201906161500 METAR LRSM 161500Z 34005KT 9999 FEW045CB 33/20 Q1011=
201906161530 METAR LRSM 161530Z 35005KT 320V040 CAVOK 32/18 Q1011=
201906161600 METAR LRSM 161600Z 05006KT CAVOK 31/18 Q1011=
201906161630 METAR LRSM 161630Z AUTO 34004KT 9999 NCD 29/21 Q1011=
201906161700 METAR LRSM 161700Z AUTO 03004KT 9999 NCD 29/20 Q1012=
201906161730 METAR LRSM 161730Z AUTO 01003KT 9999 SCT120/// 28/21 Q1012=
201906161800 METAR LRSM 161800Z AUTO 29003KT 270V350 9999 SCT120/// 27/20
                        Q1012=
201906161830 METAR LRSM 161830Z AUTO 04005KT 9999 BKN140/// 26/19 Q1012=
201906161900 METAR LRSM 161900Z AUTO 09004KT 9999 FEW140/// 25/19 Q1011=
201906161930 METAR LRSM 161930Z AUTO 06004KT 9999 FEW130/// 25/20 Q1011=
201906162000 METAR LRSM 162000Z AUTO 36009KT 330V030 9999 FEW140/// 24/18
                        Q1012=
201906162030 METAR LRSM 162030Z AUTO 35009KT 320V020 9999 TS SCT060///
                        BKN170/// 24/18 Q1013=
201906162100 METAR LRSM 162100Z AUTO 28022KT 9999 TSRA SCT019/// BKN036///
                        BKN060/// 20/19 Q1014=
201906162130 METAR LRSM 162130Z AUTO 29010KT 9999 +RA FEW080/// BKN230///
                        19/18 Q1015=
201906162200 METAR LRSM 162200Z AUTO 30010KT 270V330 9999 +RA FEW055///
                        SCT120/// BKN220/// 18/17 Q1016=
201906162230 METAR LRSM 162230Z AUTO 32006KT 270V360 9999 +TSRA BKN060///
                        BKN110/// 17/17 Q1016=
201906162300 METAR LRSM 162300Z AUTO 35016KT 320V030 9999 RA VCTS FEW043///
                        BKN060/// BKN075/// 18/18 Q1016=
201906162330 METAR LRSM 162330Z AUTO 35013KT 9999 +RA BKN060/// 18/17
                        Q1016=
201906170000 METAR LRSM 170000Z AUTO 35009KT 9999 RA FEW070/// SCT120///
                        BKN200/// 18/17 Q1016=
201906170030 METAR LRSM 170030Z AUTO 01006KT 340V040 9999 +RA FEW070///
                        BKN085/// BKN200/// 18/17 Q1016=
201906170100 METAR LRSM 170100Z AUTO 03006KT 330V060 9999 +RA FEW055///
                        BKN095/// BKN110/// 19/18 Q1016=
201906170130 METAR LRSM 170130Z AUTO 05008KT 9999 RA SCT100/// BKN240///
                        18/17 Q1016=
201906170200 METAR LRSM 170200Z AUTO 04005KT 010V070 9999 +RA FEW011///
                        BKN240/// 18/17 Q1016=
201906170230 METAR LRSM 170230Z AUTO 05005KT 9999 RA FEW009/// BKN230///
                        18/17 Q1016=
201906170300 METAR LRSM 170300Z AUTO 10003KT 9999 RA FEW095/// SCT240///
                        18/17 Q1016=
201906170330 METAR LRSM 170330Z AUTO 17003KT 110V230 9999 RA SCT230///
                        18/18 Q1015=
201906170400 METAR LRSM 170400Z 22003KT 180V260 9999 FEW040 18/18 Q1015=
201906170430 METAR LRSM 170430Z 26005KT 9999 FEW040 19/18 Q1015=
201906170500 METAR LRSM 170500Z 29006KT 260V330 9999 FEW040 20/19 Q1015
                        R01/22//95=
201906170530 METAR LRSM 170530Z 30004KT 260V360 9999 FEW010 21/19 Q1015
                        R01/22//95=
201906170600 METAR LRSM 170600Z 28004KT 240V320 9999 SCT010 21/19 Q1016
                        R01/22//95=
201906170630 METAR LRSM 170630Z 28007KT 250V320 9999 BKN013 20/19 Q1016
                        R01/22//95=
201906170700 METAR LRSM 170700Z 29005KT 220V340 9999 BKN013 22/18 Q1016
                        R01/22//95=
201906170730 METAR LRSM 170730Z 27003KT 210V330 9999 SCT012 23/18 Q1016
                        R01/22//95=
201906170800 METAR LRSM 170800Z VRB02KT 9999 FEW016 23/18 Q1017 R01/22//95=
201906170830 METAR LRSM 170830Z 07003KT 360V130 9999 FEW023 24/18 Q1017
                        R01/22//95=
201906170900 METAR LRSM 170900Z 14005KT 9999 SCT023 25/18 Q1017 R01/22//95=
201906170930 METAR LRSM 170930Z VRB03KT 9999 FEW026 26/18 Q1017 R01/22//95=
201906171000 METAR LRSM 171000Z 27005KT 220V310 9999 FEW026 26/18 Q1016
                        R01/22//95=
201906171030 METAR LRSM 171030Z 26005KT 220V010 9999 SCT025 26/19 Q1016
                        R01/22//95=
201906171100 METAR LRSM 171100Z 25004KT 9999 SCT025 27/20 Q1016 R01/22//95=
201906171130 METAR LRSM 171130Z VRB05KT 9999 SCT028 27/19 Q1016 R01/CLRD//=
201906171200 METAR LRSM 171200Z 30006KT 210V010 9999 SCT028 27/19 Q1016=
201906171230 METAR LRSM 171230Z 30004KT 230V010 9999 SCT030 28/19 Q1016=
201906171300 METAR LRSM 171300Z VRB04KT 9999 SCT032 29/19 Q1016=
201906171330 METAR LRSM 171330Z 28005KT 240V310 9999 SCT034 29/19 Q1015=
201906171400 METAR LRSM 171400Z 31007KT 280V340 9999 FEW033CB SCT035 27/19
                        Q1015=
201906171430 METAR LRSM 171430Z 33009KT 9999 SCT035 27/20 Q1015=
201906171500 METAR LRSM 171500Z 33009KT 300V360 9999 FEW035 28/20 Q1015=
201906171530 METAR LRSM 171530Z 33007KT 9999 FEW035 28/20 Q1015=
201906171600 METAR LRSM 171600Z 33007KT 290V020 9999 FEW032 28/20 Q1015=
201906171630 METAR LRSM 171630Z AUTO 31008KT 9999 FEW190/// 26/20 Q1015=
201906171700 METAR LRSM 171700Z AUTO 31008KT 9999 NCD 25/20 Q1015=
201906171730 METAR LRSM 171730Z AUTO 31009KT 9999 NCD 24/19 Q1015=
201906171800 METAR LRSM 171800Z AUTO 32009KT 9999 NCD 23/18 Q1016=
201906171830 METAR LRSM 171830Z AUTO 33006KT 9999 FEW044/// SCT130///
                        22/18 Q1016=
201906171900 METAR LRSM 171900Z AUTO 32004KT 290V010 9999 FEW130/// 21/18
                        Q1016=
201906171930 METAR LRSM 171930Z AUTO 29004KT 9999 FEW130/// 20/19 Q1016=
201906172000 METAR LRSM 172000Z AUTO 29003KT 9999 FEW220/// 20/19 Q1016=
201906172030 METAR LRSM 172030Z AUTO 27003KT 9999 BKN210/// 19/19 Q1016=
201906172100 METAR LRSM 172100Z AUTO 26004KT 9999 FEW240/// 19/18 Q1016=
201906172130 METAR LRSM 172130Z AUTO 26004KT 9999 NCD 19/18 Q1016=
201906172200 METAR LRSM 172200Z AUTO 26004KT 9999 FEW040/// 18/17 Q1016=
201906172230 METAR LRSM 172230Z AUTO 26003KT 9999 SCT039/// 18/17 Q1017=
201906172300 METAR LRSM 172300Z AUTO 26003KT 9999 SCT036/// 18/17 Q1016=
201906172330 METAR LRSM 172330Z AUTO 25004KT 9999 FEW036/// 17/17 Q1016=
201906180000 METAR LRSM 180000Z AUTO 26004KT 9999 SCT043/// 17/17 Q1016=
201906180030 METAR LRSM 180030Z AUTO 24004KT 9999 FEW130/// 17/17 Q1016=
201906180100 METAR LRSM 180100Z AUTO 24001KT 9999 NCD 17/17 Q1016=
201906180130 METAR LRSM 180130Z AUTO 24003KT 9999 FEW028/// SCT038///
                        17/17 Q1016=
201906180200 METAR LRSM 180200Z AUTO 23003KT 9999 FEW028/// SCT034///
                        17/17 Q1016=
201906180230 METAR LRSM 180230Z AUTO 23002KT 8000 FEW025/// SCT031///
                        BKN041/// 17/17 Q1016=
201906180300 METAR LRSM 180300Z AUTO 00000KT 5000 BR FEW027/// BKN160///
                        17/17 Q1016=
201906180330 METAR LRSM 180330Z AUTO 23002KT 9999 NCD 18/18 Q1016=
201906180400 METAR LRSM 180400Z 23003KT CAVOK 18/18 Q1016=
201906180430 METAR LRSM 180430Z 00000KT CAVOK 19/18 Q1017=
201906180500 METAR LRSM 180500Z VRB02KT CAVOK 20/18 Q1017=
201906180530 METAR LRSM 180530Z VRB02KT CAVOK 21/18 Q1017=
201906180600 METAR LRSM 180600Z 08003KT 020V110 CAVOK 23/19 Q1017=
201906180630 METAR LRSM 180630Z VRB02KT CAVOK 24/18 Q1017=
201906180700 METAR LRSM 180700Z 12003KT 030V190 CAVOK 25/17 Q1017=
201906180730 METAR LRSM 180730Z 12004KT 070V200 CAVOK 26/18 Q1017=
201906180800 METAR LRSM 180800Z 11004KT 080V160 CAVOK 26/18 Q1017=
201906180830 METAR LRSM 180830Z VRB03KT 9999 FEW035 27/18 Q1017=
201906180900 METAR LRSM 180900Z VRB04KT 9999 FEW035 27/18 Q1017=
201906180930 METAR LRSM 180930Z VRB03KT 9999 SCT033 28/18 Q1017=
201906181000 METAR LRSM 181000Z 28003KT 210V360 9999 SCT034 28/19 Q1017=
201906181030 METAR LRSM 181030Z VRB03KT 9999 SCT037 29/17 Q1016=
201906181100 METAR LRSM 181100Z 18004KT 110V240 9999 SCT040 29/18 Q1016=
201906181130 METAR LRSM 181130Z 22003KT 150V320 9999 SCT042 29/18 Q1016=
201906181200 METAR LRSM 181200Z VRB04KT 9999 SCT042 29/18 Q1016=
201906181230 METAR LRSM 181230Z 25004KT 190V310 9999 FEW040CB SCT045 30/19
                        Q1016=
201906181300 METAR LRSM 181300Z 27004KT 9999 FEW040CB SCT044 29/18 Q1015=
201906181330 METAR LRSM 181330Z 27004KT 230V300 9999 VCSH FEW040CB SCT044
                        28/20 Q1015=
201906181400 METAR LRSM 181400Z 28004KT 9999 VCSH FEW040CB SCT045 28/20
                        Q1015=
201906181430 METAR LRSM 181430Z 28003KT 9999 FEW040CB SCT045 28/20 Q1015=
201906181500 METAR LRSM 181500Z 27004KT 9999 FEW040CB SCT045 28/20 Q1015=
201906181530 METAR LRSM 181530Z 30003KT 270V360 9999 VCTS FEW040CB SCT045
                        29/18 Q1015=
201906181600 METAR LRSM 181600Z 00000KT 9999 VCSH FEW040CB SCT045 27/18
                        Q1015=
201906181630 METAR LRSM 181630Z AUTO 28002KT 9999 FEW130/// 27/19 Q1015=
201906181700 METAR LRSM 181700Z AUTO 29005KT 9999 NCD 23/18 Q1015=
201906181730 METAR LRSM 181730Z AUTO 23004KT 9999 FEW120/// 23/18 Q1015=
201906181800 METAR LRSM 181800Z AUTO 11001KT 9999 FEW043/// BKN050///
                        24/18 Q1015=
201906181830 METAR LRSM 181830Z AUTO 36002KT 9999 FEW060/// SCT130///
                        23/19 Q1015=
201906181900 METAR LRSM 181900Z AUTO 36002KT 9999 BKN130/// 22/20 Q1016=
201906181930 METAR LRSM 181930Z AUTO 13003KT 090V190 9999 FEW120/// SCT220///
                        23/19 Q1016=
201906182000 METAR LRSM 182000Z AUTO 14001KT 9999 BKN120/// 21/18 Q1016=
201906182030 METAR LRSM 182030Z AUTO 11004KT 9999 BKN120/// 21/18 Q1016=
201906182100 METAR LRSM 182100Z AUTO 12004KT 9999 SCT130/// 21/18 Q1016=
201906182130 METAR LRSM 182130Z AUTO 14003KT 090V150 9999 FEW120/// 21/18
                        Q1015=
201906182200 METAR LRSM 182200Z AUTO 10005KT 9999 NCD 19/18 Q1015=
201906182230 METAR LRSM 182230Z AUTO 10004KT 9999 NCD 19/18 Q1015=
201906182300 METAR LRSM 182300Z AUTO 11003KT 9999 NCD 19/18 Q1015=
201906182330 METAR LRSM 182330Z AUTO 07003KT 9999 NCD 18/17 Q1015=
201906190000 METAR LRSM 190000Z AUTO 09004KT 9999 NCD 18/17 Q1015=
201906190030 METAR LRSM 190030Z AUTO 08006KT 9999 NCD 18/17 Q1015=
201906190100 METAR LRSM 190100Z AUTO 10005KT 9999 NCD 18/17 Q1015=
201906190130 METAR LRSM 190130Z AUTO 09005KT 9999 NCD 18/17 Q1015=
201906190200 METAR LRSM 190200Z AUTO 10005KT 9999 NCD 17/17 Q1014=
201906190230 METAR LRSM 190230Z AUTO 05003KT 9999 NCD 17/17 Q1015=
201906190300 METAR LRSM 190300Z AUTO 06003KT 9999 NCD 17/17 Q1015=
201906190330 METAR LRSM 190330Z AUTO 05001KT 9999 NCD 18/18 Q1015=
201906190400 METAR LRSM 190400Z 00000KT CAVOK 19/18 Q1015=
201906190430 METAR LRSM 190430Z VRB02KT CAVOK 20/18 Q1015=
201906190500 METAR LRSM 190500Z VRB02KT CAVOK 22/18 Q1015=
201906190530 METAR LRSM 190530Z VRB02KT CAVOK 24/18 Q1015=
201906190600 METAR LRSM 190600Z VRB01KT CAVOK 25/18 Q1015=
201906190630 METAR LRSM 190630Z 19004KT 140V240 CAVOK 25/18 Q1015=
201906190700 METAR LRSM 190700Z 21005KT 160V260 CAVOK 25/19 Q1015=
201906190730 METAR LRSM 190730Z 20007KT 170V230 CAVOK 26/18 Q1015=
201906190800 METAR LRSM 190800Z 18007KT 140V220 CAVOK 27/18 Q1015=
201906190830 METAR LRSM 190830Z 18006KT 130V250 CAVOK 28/18 Q1015=
201906190900 METAR LRSM 190900Z 20008KT 160V220 CAVOK 28/18 Q1014=
201906190930 METAR LRSM 190930Z 18006KT 150V220 CAVOK 30/18 Q1014=
201906191000 METAR LRSM 191000Z 22007KT 180V260 9999 FEW043 29/17 Q1014=
201906191030 METAR LRSM 191030Z 22005KT 140V290 9999 FEW046 30/16 Q1014=
201906191100 METAR LRSM 191100Z VRB05KT 9999 FEW046 30/17 Q1013=
201906191130 METAR LRSM 191130Z 24005KT 190V290 9999 SCT048 30/17 Q1013=
201906191200 METAR LRSM 191200Z VRB04KT 9999 SCT048 31/16 Q1012=
201906191230 METAR LRSM 191230Z VRB03KT 9999 SCT048 31/15 Q1012=
201906191300 METAR LRSM 191300Z 29003KT 230V320 9999 SCT048 30/17 Q1012=
201906191330 METAR LRSM 191330Z VRB02KT 9999 FEW040CB SCT048 32/15 Q1012=
201906191400 METAR LRSM 191400Z 11003KT 050V130 9999 TS SCT050CB 29/18
                        Q1012=
201906191430 METAR LRSM 191430Z 28008KT 260V340 9999 TS VCSH BKN050CB
                        26/17 Q1012=
201906191500 METAR LRSM 191500Z 02012KT 350V050 9999 TS VCSH SCT050CB
                        23/17 Q1012=
201906191530 METAR LRSM 191530Z 03013KT 9999 VCTS SCT050CB 25/16 Q1012=
201906191600 METAR LRSM 191600Z 09016KT 9999 VCTS SCT050CB 24/16 Q1013=
201906191630 METAR LRSM 191630Z AUTO 09005KT 050V140 9999 NCD 23/17 Q1012=
201906191700 METAR LRSM 191700Z AUTO 14006KT 090V260 9999 BKN100/// 23/17
                        Q1014=
201906191730 METAR LRSM 191730Z AUTO 24007KT 9999 VCTS FEW035/// SCT065///
                        BKN240/// 23/17 Q1014=
201906191800 METAR LRSM 191800Z AUTO 24010KT 9999 -SHRA VCTS SCT065///
                        BKN090/// BKN210/// 21/18 Q1015=
201906191830 METAR LRSM 191830Z AUTO 27009KT 9999 SHRA FEW065/// BKN100///
                        BKN120/// 20/19 Q1014=
201906191900 METAR LRSM 191900Z AUTO 27005KT 9999 -SHRA FEW090/// BKN120///
                        19/18 Q1014=
201906191930 METAR LRSM 191930Z AUTO 25003KT 210V290 9999 -SHRA FEW070///
                        BKN100/// 19/19 Q1014=
201906192000 METAR LRSM 192000Z AUTO VRB01KT 9999 -SHRA FEW060/// SCT085///
                        BKN120/// 20/18 Q1014=
201906192030 METAR LRSM 192030Z AUTO 11006KT 9999 SHRA SCT120/// BKN130///
                        OVC150/// 19/19 Q1013=
201906192100 METAR LRSM 192100Z AUTO 11003KT 080V140 9999 +SHRA BKN110///
                        19/19 Q1013=
201906192130 METAR LRSM 192130Z AUTO 12004KT 9999 +RA FEW120/// BKN150///
                        19/19 Q1013=
201906192200 METAR LRSM 192200Z AUTO 21003KT 9999 +RA FEW130/// SCT220///
                        19/19 Q1013=
201906192230 METAR LRSM 192230Z AUTO 27004KT 9000 +RA BKN200/// 18/18
                        Q1013=
201906192300 METAR LRSM 192300Z AUTO 28005KT 7000 +RA FEW190/// 18/18
                        Q1013=
201906192330 METAR LRSM 192330Z AUTO 32005KT 6000 +RA NCD 17/17 Q1013=
201906200000 METAR LRSM 200000Z AUTO VRB01KT 5000 +RA NCD 17/17 Q1013=
201906200030 METAR LRSM 200030Z AUTO 08003KT 4800 +RA NCD 17/17 Q1013=
201906200100 METAR LRSM 200100Z AUTO 08001KT 6000 +RA NCD 17/17 Q1013=
201906200130 METAR LRSM 200130Z AUTO 08002KT 6000 +RA NCD 17/17 Q1013=
201906200200 METAR LRSM 200200Z AUTO 10004KT 7000 +RA FEW060/// 17/17
                        Q1013=
201906200230 METAR LRSM 200230Z AUTO 10005KT 8000 +RA FEW001/// 17/17
                        Q1013=
201906200300 METAR LRSM 200300Z AUTO 09005KT 0300 R19/0400N +RA VV001
                        17/17 Q1013=
201906200330 METAR LRSM 200330Z AUTO 09007KT 0300 R19/0400N +RA VV001
                        18/18 Q1013=
201906200400 METAR LRSM 200400Z 08006KT 0800 R19/1100U FG BKN002 18/18
                        Q1013=
201906200430 METAR LRSM 200430Z 09005KT 8000 FEW002 19/19 Q1013=
201906200500 METAR LRSM 200500Z 09006KT CAVOK 20/20 Q1013 R01/22//95=
201906200530 METAR LRSM 200530Z 11004KT CAVOK 22/19 Q1013 R01/22//95=
201906200600 METAR LRSM 200600Z 16004KT 140V200 CAVOK 23/19 Q1013 R01/22//95=
201906200630 METAR LRSM 200630Z 24006KT 210V290 CAVOK 23/20 Q1013 R01/22//95=
201906200700 METAR LRSM 200700Z 19003KT 150V220 CAVOK 24/19 Q1013 R01/22//95=
201906200730 METAR LRSM 200730Z 24003KT 160V330 CAVOK 25/18 Q1013 R01/22//95=
201906200800 METAR LRSM 200800Z VRB04KT CAVOK 26/19 Q1013 R01/22//95=
201906200830 METAR LRSM 200830Z 22004KT 160V270 CAVOK 26/19 Q1013 R01/22//95=
201906200900 METAR LRSM 200900Z 24003KT 150V300 9999 FEW035 27/18 Q1013
                        R01/22//95=
201906200930 METAR LRSM 200930Z 31003KT 230V040 9999 FEW035 27/19 Q1013
                        R01/22//95=
201906201000 METAR LRSM 201000Z VRB04KT 9999 FEW035 27/18 Q1013 R01/22//95=
201906201030 METAR LRSM 201030Z 26003KT 200V330 9999 SCT035 28/18 Q1013
                        R01/22//95=
201906201100 METAR LRSM 201100Z 28003KT 200V010 9999 SCT036 29/18 Q1013
                        R01/22//95=
201906201130 METAR LRSM 201130Z VRB04KT 9999 FEW035CB SCT040 29/18 Q1012
                        R01/22//95=
201906201200 METAR LRSM 201200Z 29005KT 200V360 9999 FEW035CB SCT040 29/18
                        Q1012 R01/22//95=
201906201230 METAR LRSM 201230Z 29006KT 240V350 9999 FEW035CB SCT040 29/18
                        Q1012 R01/22//95=
201906201300 METAR LRSM 201300Z 25004KT 180V320 9999 FEW040CB SCT045 30/17
                        Q1011 R01/CLRD//=
201906201330 METAR LRSM 201330Z 28005KT 240V330 9999 SCT045 30/18 Q1011=
201906201400 METAR LRSM 201400Z 27005KT 220V310 9999 SCT048 30/18 Q1011=
201906201430 METAR LRSM 201430Z 27009KT 230V290 9999 FEW040TCU SCT045
                        29/19 Q1011=
201906201500 METAR LRSM 201500Z 26011KT 230V300 9999 TS VCSH FEW040CB
                        SCT045 28/19 Q1011=
201906201530 METAR LRSM 201530Z 28009KT 9999 VCTS FEW040CB SCT045 27/18
                        Q1011=
201906201600 METAR LRSM 201600Z 28006KT 250V330 9999 FEW040CB SCT045 28/19
                        Q1011=
201906201630 METAR LRSM 201630Z AUTO 29005KT 9999 NCD 27/18 Q1011=
201906201700 METAR LRSM 201700Z AUTO 27004KT 240V310 9999 NCD 27/18 Q1011=
201906201730 METAR LRSM 201730Z AUTO 26004KT 9999 BKN190/// 26/19 Q1012=
201906201800 METAR LRSM 201800Z AUTO 26005KT 9999 FEW085/// BKN230///
                        25/19 Q1012=
201906201830 METAR LRSM 201830Z AUTO 23003KT 9999 TS FEW070/// SCT100///
                        BKN230/// 24/19 Q1012=
201906201900 METAR LRSM 201900Z AUTO 26007KT 220V300 4800 R19/1800VP2000D
                        +TSRA FEW032/// BKN055/// 20/18 Q1013=
201906201930 METAR LRSM 201930Z AUTO 33007KT 290V010 5000 +TSRA FEW027///
                        SCT040/// BKN050/// 18/18 Q1013=
201906202000 METAR LRSM 202000Z AUTO 03003KT 350V080 9999 SHRA FEW090///
                        SCT120/// BKN140/// 19/19 Q1013=
201906202030 METAR LRSM 202030Z AUTO 16003KT 9999 +SHRA SCT110/// BKN120///
                        BKN150/// 20/19 Q1013=
201906202100 METAR LRSM 202100Z AUTO 17003KT 140V200 9999 SHRA FEW075///
                        BKN150/// 20/19 Q1013=
201906202130 METAR LRSM 202130Z AUTO 12003KT 9999 +SHRA SCT055/// BKN080///
                        20/19 Q1013=
201906202200 METAR LRSM 202200Z AUTO 10004KT 9999 +SHRA NCD 20/19 Q1013=
201906202230 METAR LRSM 202230Z AUTO 13008KT 9999 RA VCTS FEW065/// 20/19
                        Q1014=
201906202300 METAR LRSM 202300Z AUTO 12004KT 9999 RA FEW029/// SCT055///
                        BKN170/// 20/18 Q1014=
201906202330 METAR LRSM 202330Z AUTO 36003KT 9999 +RA FEW055/// BKN220///
                        19/18 Q1013=
201906210000 METAR LRSM 210000Z AUTO 06005KT 9999 RA BKN210/// 19/17 Q1013=
201906210030 METAR LRSM 210030Z AUTO 08009KT 9999 RA SCT240/// 18/18 Q1013=
201906210100 METAR LRSM 210100Z AUTO 12005KT 9999 FEW240/// 18/18 Q1014
                        RERA=
201906210130 METAR LRSM 210130Z AUTO 12004KT 9999 BKN160/// 19/18 Q1014
                        RERA=
201906210200 METAR LRSM 210200Z AUTO 18003KT 9999 FEW160/// 18/17 Q1014=
201906210230 METAR LRSM 210230Z AUTO 19004KT 9999 NCD 18/17 Q1014=
201906210300 METAR LRSM 210300Z AUTO 25004KT 9999 FEW160/// 18/17 Q1014=
201906210330 METAR LRSM 210330Z AUTO 26003KT 9999 FEW050/// 18/18 Q1014=
201906210400 METAR LRSM 210400Z 16003KT 120V190 CAVOK 19/19 Q1015=
201906210430 METAR LRSM 210430Z 14003KT 9999 SCT049 19/19 Q1015=
201906210500 METAR LRSM 210500Z 11003KT 9999 FEW049 20/19 Q1015 R01/21//95=
201906210530 METAR LRSM 210530Z 00000KT CAVOK 21/19 Q1015 R01/21//95=
201906210600 METAR LRSM 210600Z VRB02KT CAVOK 21/19 Q1015 R01/21//95=
201906210630 METAR LRSM 210630Z VRB02KT CAVOK 22/19 Q1015 R01/21//95=
201906210700 METAR LRSM 210700Z 14003KT 080V190 CAVOK 23/20 Q1015 R01/21//95=
201906210730 METAR COR LRSM 210730Z VRB01KT CAVOK 24/19 Q1016 R01/21//95=
201906210800 METAR LRSM 210800Z 26004KT 170V300 9999 FEW023 24/18 Q1015
                        R01/21//95=
201906210830 METAR LRSM 210830Z 20003KT 160V270 9999 FEW026 26/18 Q1016
                        R01/21//95=
201906210900 METAR LRSM 210900Z VRB02KT 9999 FEW023CB SCT025 26/19 Q1015
                        R01/21//95=
201906210930 METAR LRSM 210930Z VRB04KT 9999 FEW023CB SCT024 26/19 Q1015
                        R01/21//95=
201906211000 METAR LRSM 211000Z VRB03KT 9999 FEW023CB SCT024 26/19 Q1015
                        R01/21//95=
201906211030 METAR LRSM 211030Z VRB02KT 9999 VCTS FEW023CB SCT024 26/18
                        Q1015 R01/21//95=
201906211100 METAR LRSM 211100Z 11001KT 9999 VCTS FEW030CB SCT033 26/19
                        Q1015 R01/21//95=
201906211130 METAR LRSM 211130Z 23004KT 200V310 9999 VCTS FEW033CB SCT034
                        26/20 Q1015 R01/21//95=
201906211200 METAR LRSM 211200Z 24003KT 150V300 9999 FEW030CB SCT034 27/19
                        Q1014 RETS R01/21//95=
201906211230 METAR LRSM 211230Z 23008KT 9999 FEW029CB SCT030 27/19 Q1015
                        R01/21//95=
201906211300 METAR LRSM 211300Z 28017KT 240V300 9999 TS FEW026CB SCT030
                        23/18 Q1015 R01/21//95=
201906211330 METAR LRSM 211330Z 29010KT 260V330 9999 TS FEW026CB SCT030
                        23/17 Q1015 R01/21//95=
201906211400 METAR LRSM 211400Z 30008KT 270V330 9999 FEW026CB SCT030 22/17
                        Q1015 RETS R01/CLRD//=
201906211430 METAR LRSM 211430Z 30007KT 9999 FEW030 22/18 Q1015=
201906211500 METAR LRSM 211500Z 30007KT 9999 FEW030CB 22/18 Q1015=
201906211530 METAR LRSM 211530Z VRB02KT CAVOK 25/18 Q1015=
201906211600 METAR LRSM 211600Z 30003KT 250V360 CAVOK 25/18 Q1015=
201906211630 METAR LRSM 211630Z AUTO VRB01KT 9999 NCD 25/17 Q1014=
201906211700 METAR LRSM 211700Z AUTO 03002KT 9999 NCD 24/17 Q1014=
201906211730 METAR LRSM 211730Z AUTO 02003KT 9999 NCD 23/18 Q1015=
201906211800 METAR LRSM 211800Z AUTO 07001KT 9999 NCD 21/18 Q1015=
201906211830 METAR LRSM 211830Z AUTO VRB01KT 9999 BKN200/// 21/19 Q1015=
201906211900 METAR LRSM 211900Z AUTO 00000KT 9999 FEW130/// SCT200///
                        20/19 Q1015=
201906211930 METAR LRSM 211930Z AUTO 00000KT 9999 FEW120/// 20/19 Q1016=
201906212000 METAR LRSM 212000Z AUTO VRB04KT 6000 FEW130/// 19/18 Q1016=
201906212030 METAR LRSM 212030Z AUTO 31003KT 5000 BR NCD 18/18 Q1016=
201906212100 METAR LRSM 212100Z AUTO 00000KT 9000 NCD 18/18 Q1016=
201906212130 METAR LRSM 212130Z AUTO 18003KT 9999 NCD 18/18 Q1016=
201906212200 METAR LRSM 212200Z AUTO 21003KT 5000 BR NCD 18/18 Q1016=
201906212230 METAR LRSM 212230Z AUTO 15002KT 110V170 9999 NCD 18/18 Q1016=
201906212300 METAR LRSM 212300Z AUTO 08004KT 8000 NCD 17/17 Q1016=
201906212330 METAR LRSM 212330Z AUTO 15003KT 120V190 8000 NCD 17/17 Q1016=
201906220000 METAR LRSM 220000Z AUTO 22004KT 6000 NCD 17/17 Q1016=
201906220030 METAR LRSM 220030Z AUTO 22003KT 6000 NCD 17/17 Q1016=
201906220100 METAR LRSM 220100Z AUTO 23003KT 4400 BR NCD 17/17 Q1017=
201906220130 METAR LRSM 220130Z AUTO VRB01KT 4000 BR FEW001/// SCT005///
                        BKN007/// 16/16 Q1017=
201906220200 METAR LRSM 220200Z AUTO 19001KT 4800 R19/1500VP2000D BR VV001
                        17/17 Q1017=
201906220230 METAR LRSM 220230Z AUTO 19004KT 0300 R19/0350N FG VV001 18/18
                        Q1017=
201906220300 METAR LRSM 220300Z AUTO 23003KT 190V260 0450 R19/0550N FG
                        VV001 18/18 Q1017=
201906220330 METAR LRSM 220330Z AUTO 26003KT 0500 R19/0600N FG VV001 18/18
                        Q1017=
201906220400 METAR LRSM 220400Z AUTO VRB01KT 0250 R19/0350N FG VV001 18/18
                        Q1017=
201906220430 METAR LRSM 220430Z AUTO 17002KT 130V200 0250 R19/0325N FG
                        VV001 18/18 Q1017=
201906220500 METAR LRSM 220500Z AUTO 18002KT 1300 R19/1000V2000U FG VV001
                        19/19 Q1017=
201906220530 METAR LRSM 220530Z AUTO VRB01KT 1700 R19/1300VP2000U BKN001///
                        BKN003/// 19/19 Q1018=
201906220600 METAR LRSM 220600Z AUTO 14004KT 5000 SCT001/// BKN003///
                        19/19 Q1018=
201906220630 METAR LRSM 220630Z AUTO 16003KT 110V200 9000 SCT003/// OVC005///
                        20/20 Q1018=
201906220700 METAR LRSM 220700Z AUTO 27002KT 210V360 9000 FEW005/// SCT007///
                        BKN009/// 21/20 Q1018=
201906220730 METAR LRSM 220730Z AUTO 28003KT 9999 SCT009/// BKN011///
                        22/19 Q1018=
201906220800 METAR LRSM 220800Z AUTO VRB03KT 9999 BKN013/// 22/19 Q1018=
201906220830 METAR LRSM 220830Z AUTO 32003KT 270V030 9999 FEW014/// 23/19
                        Q1018=
201906220900 METAR LRSM 220900Z AUTO 34003KT 270V080 9999 FEW017/// 24/18
                        Q1018=
201906220930 METAR LRSM 220930Z AUTO VRB04KT 9999 FEW020/// 24/19 Q1018=
201906221000 METAR LRSM 221000Z AUTO 02004KT 310V080 9999 FEW200/// 25/18
                        Q1018=
201906221030 METAR LRSM 221030Z AUTO VRB05KT 9999 FEW028/// 26/18 Q1017=
201906221100 METAR LRSM 221100Z AUTO 26005KT 9999 NCD 27/19 Q1017=
201906221130 METAR LRSM 221130Z AUTO 28006KT 240V340 9999 FEW170/// 26/18
                        Q1017=
201906221200 METAR LRSM 221200Z AUTO 32003KT 270V070 9999 FEW033/// 28/18
                        Q1017=
201906221230 METAR LRSM 221230Z AUTO VRB04KT 9999 FEW034/// SCT044///
                        28/17 Q1016=
201906221300 METAR LRSM 221300Z AUTO 29003KT 240V350 9999 SCT039/// 27/17
                        Q1016=
201906221330 METAR LRSM 221330Z AUTO 01005KT 320V050 9999 FEW050/// 28/18
                        Q1016=
201906221400 METAR LRSM 221400Z AUTO 36004KT 300V070 9999 NCD 28/17 Q1016=
201906221430 METAR LRSM 221430Z AUTO VRB03KT 9999 FEW044/// 29/17 Q1016=
201906221500 METAR LRSM 221500Z AUTO 02007KT 350V060 9999 NCD 27/18 Q1015=
201906221530 METAR LRSM 221530Z AUTO 02007KT 350V050 9999 NCD 27/18 Q1015=
201906221600 METAR LRSM 221600Z AUTO 01005KT 340V050 9999 NCD 27/18 Q1015=
201906221630 METAR LRSM 221630Z AUTO 36006KT 340V040 9999 NCD 27/19 Q1015=
201906221700 METAR LRSM 221700Z AUTO 01004KT 9999 NCD 26/19 Q1015=
201906221730 METAR LRSM 221730Z AUTO 01005KT 9999 NCD 25/19 Q1015=
201906221800 METAR LRSM 221800Z AUTO 34005KT 9999 NCD 24/19 Q1015=
201906221830 METAR LRSM 221830Z AUTO 01004KT 9999 NCD 22/21 Q1015=
201906221900 METAR LRSM 221900Z AUTO 02004KT 9999 NCD 22/20 Q1015=
201906221930 METAR LRSM 221930Z AUTO 05004KT 9999 FEW046/// 21/19 Q1015=
201906222000 METAR LRSM 222000Z AUTO 13003KT 090V160 9999 FEW046/// 21/19
                        Q1015=
201906222030 METAR LRSM 222030Z AUTO 13003KT 9999 NCD 20/19 Q1015=
201906222100 METAR LRSM 222100Z AUTO 00000KT 9999 NCD 19/19 Q1015=
201906222130 METAR LRSM 222130Z AUTO 03003KT 9000 NCD 19/18 Q1015=
201906222200 METAR LRSM 222200Z AUTO 06003KT 9000 NCD 19/18 Q1015=
201906222230 METAR LRSM 222230Z AUTO 08004KT 9999 NCD 19/18 Q1015=
201906222300 METAR LRSM 222300Z AUTO 09005KT 9000 NCD 18/18 Q1015=
201906222330 METAR LRSM 222330Z AUTO 06003KT 9000 NCD 18/18 Q1015=
201906230000 METAR LRSM 230000Z AUTO 08003KT 050V120 9000 NCD 18/18 Q1015=
201906230030 METAR LRSM 230030Z AUTO 10005KT 9999 SCT100/// 18/18 Q1015=
201906230100 METAR LRSM 230100Z AUTO 10001KT 9000 FEW075/// 18/18 Q1015=
201906230130 METAR LRSM 230130Z AUTO 10001KT 5000 BR NCD 17/17 Q1015=
201906230200 METAR LRSM 230200Z AUTO 07001KT 7000 NCD 17/17 Q1014=
201906230230 METAR LRSM 230230Z AUTO 07005KT 9999 NCD 18/18 Q1014=
201906230300 METAR LRSM 230300Z AUTO 08006KT 9999 NCD 18/18 Q1014=
201906230330 METAR LRSM 230330Z AUTO 08007KT 9999 NCD 19/18 Q1014=
201906230400 METAR LRSM 230400Z 09006KT CAVOK 20/19 Q1014=
201906230430 METAR LRSM 230430Z 08007KT CAVOK 21/19 Q1015=
201906230500 METAR LRSM 230500Z 09005KT CAVOK 22/19 Q1015=
201906230530 METAR LRSM 230530Z 10004KT 060V130 CAVOK 23/18 Q1015=
201906230600 METAR LRSM 230600Z 11004KT 050V150 CAVOK 24/18 Q1015=
201906230630 METAR LRSM 230630Z 11004KT CAVOK 24/19 Q1015=
201906230700 METAR LRSM 230700Z 08003KT 050V110 CAVOK 25/19 Q1015=
201906230730 METAR LRSM 230730Z 16003KT 110V250 CAVOK 26/18 Q1015=
201906230800 METAR LRSM 230800Z VRB03KT CAVOK 27/18 Q1015=
201906230830 METAR LRSM 230830Z 11004KT 030V170 9999 FEW029 27/18 Q1015=
201906230900 METAR LRSM 230900Z VRB04KT 9999 FEW030 27/17 Q1015=
201906230930 METAR LRSM 230930Z 06003KT 360V170 9999 FEW030 28/18 Q1015=
201906231000 METAR LRSM 231000Z 15003KT 070V210 9999 SCT030 29/18 Q1014=
201906231030 METAR LRSM 231030Z 03003KT 300V090 9999 SCT037 28/18 Q1014=
201906231100 METAR LRSM 231100Z 02004KT 330V090 9999 BKN037 29/18 Q1014=
201906231130 METAR LRSM 231130Z 05006KT 9999 BKN040 29/18 Q1014=
201906231200 METAR LRSM 231200Z 04005KT 350V100 9999 BKN040 29/17 Q1014=
201906231230 METAR LRSM 231230Z 12004KT 060V160 9999 BKN040 29/18 Q1014=
201906231300 METAR LRSM 231300Z 12005KT 9999 -TSRA FEW040CB BKN044 28/18
                        Q1014=
201906231330 METAR LRSM 231330Z 36006KT 320V030 9999 TS FEW027CB BKN043
                        27/19 Q1013=
201906231400 METAR LRSM 231400Z 02005KT 9999 VCTS FEW030CB SCT043 28/18
                        Q1013=
201906231430 METAR LRSM 231430Z 35003KT 9999 TS VCSH SCT030CB SCT040 27/19
                        Q1013=
201906231500 METAR LRSM 231500Z 24012KT 9000 TSRA SCT033CB SCT040 21/19
                        Q1014 R01/29//95=
201906231530 METAR LRSM 231530Z 28010KT 9999 -SHRA VCTS SCT030CB 20/17
                        Q1014 RESHRA R01/29//95=
201906231600 METAR LRSM 231600Z 33012KT 9999 VCTS FEW033CB 20/19 Q1013
                        R01/29//95=
201906231630 METAR LRSM 231630Z AUTO 03012KT 360V060 9999 +SHRA FEW100///
                        BKN180/// 20/17 Q1015=
201906231700 METAR LRSM 231700Z AUTO 04010KT 9999 +SHRA FEW100/// 21/17
                        Q1014=
201906231730 METAR LRSM 231730Z AUTO 08007KT 9999 +SHRA FEW100/// 21/17
                        Q1015=
201906231800 METAR LRSM 231800Z AUTO 09006KT 9999 +SHRA BKN110/// 21/18
                        Q1014=
201906231830 METAR LRSM 231830Z AUTO 06006KT 040V100 9999 +RA FEW110///
                        20/18 Q1014=
201906231900 METAR LRSM 231900Z AUTO 08003KT 040V110 9999 +RA NCD 19/18
                        Q1014=
201906231930 METAR LRSM 231930Z AUTO 36004KT 340V100 9999 +RA NCD 18/18
                        Q1014=
201906232000 METAR LRSM 232000Z AUTO 32006KT 9999 +RA NCD 18/18 Q1014=
201906232030 METAR LRSM 232030Z AUTO 34005KT 9999 +RA NCD 18/18 Q1014=
201906232100 METAR LRSM 232100Z AUTO 01005KT 9999 +RA NCD 18/18 Q1014=
201906232130 METAR LRSM 232130Z AUTO 01006KT 9999 +RA NCD 18/18 Q1014=
201906232200 METAR LRSM 232200Z AUTO 02004KT 9999 +RA NCD 18/18 Q1014=
201906232230 METAR LRSM 232230Z AUTO 17002KT 9999 +RA NCD 18/18 Q1015=
201906232300 METAR LRSM 232300Z AUTO 22004KT 070V240 8000 +RA NCD 17/17
                        Q1015=
201906232330 METAR LRSM 232330Z AUTO 24003KT 7000 +RA NCD 17/17 Q1015=
201906240000 METAR LRSM 240000Z AUTO 23007KT 9000 +RA FEW140/// 18/18
                        Q1016=
201906240030 METAR LRSM 240030Z AUTO 25005KT 220V280 9000 +RA SCT060///
                        18/18 Q1016=
201906240100 METAR LRSM 240100Z AUTO 24004KT 7000 +RA FEW065/// 17/17
                        Q1016=
201906240130 METAR LRSM 240130Z AUTO 25003KT 220V290 8000 +RA NCD 17/17
                        Q1016=
201906240200 METAR LRSM 240200Z AUTO 21003KT 180V240 9999 +RA NCD 17/17
                        Q1016=
201906240230 METAR LRSM 240230Z AUTO 17003KT 9999 +RA NCD 17/17 Q1016=
201906240300 METAR LRSM 240300Z AUTO 17002KT 9999 +RA NCD 17/17 Q1016=
201906240330 METAR LRSM 240330Z AUTO 19003KT 9999 +RA NCD 17/17 Q1016=
201906240400 METAR LRSM 240400Z 19002KT CAVOK 18/18 Q1016 R01/29//95=
201906240430 METAR LRSM 240430Z 18002KT CAVOK 19/18 Q1016 R01/29//95=
201906240500 METAR LRSM 240500Z VRB02KT CAVOK 20/19 Q1016 R01/22//95=
201906240530 METAR LRSM 240530Z VRB02KT CAVOK 22/19 Q1016 R01/22//95=
201906240600 METAR LRSM 240600Z 05005KT 020V110 CAVOK 22/19 Q1017 R01/22//95=
201906240630 METAR LRSM 240630Z 03003KT 340V080 CAVOK 23/19 Q1017 R01/22//95=
201906240700 METAR LRSM 240700Z 04004KT 360V090 CAVOK 24/19 Q1017 R01/22//95=
201906240730 METAR LRSM 240730Z 04004KT 010V090 CAVOK 25/19 Q1017 R01/22//95=
201906240800 METAR LRSM 240800Z 06004KT 360V110 CAVOK 26/18 Q1017 R01/22//95=
201906240830 METAR LRSM 240830Z 09004KT 060V170 CAVOK 27/18 Q1017 R01/22//95=
201906240900 METAR LRSM 240900Z VRB02KT CAVOK 28/17 Q1017 R01/CLRD//=
201906240930 METAR LRSM 240930Z VRB03KT 9999 FEW040 28/18 Q1018=
201906241000 METAR LRSM 241000Z VRB03KT 9999 FEW040 29/17 Q1018=
201906241030 METAR LRSM 241030Z VRB03KT 9999 SCT044 29/18 Q1018=
201906241100 METAR LRSM 241100Z VRB03KT 9999 VCSH FEW040CB SCT045 30/18
                        Q1018=
201906241130 METAR LRSM 241130Z 25006KT 210V280 9999 VCSH FEW040CB SCT045
                        30/18 Q1018=
201906241200 METAR LRSM 241200Z VRB03KT 9999 VCSH FEW040CB BKN045 31/19
                        Q1018=
201906241230 METAR LRSM 241230Z 06009KT 040V110 9999 TS VCSH SCT040CB
                        BKN048 28/19 Q1018=
201906241300 METAR LRSM 241300Z 13014KT 100V160 9999 TS VCSH SCT040CB
                        BKN047 23/17 Q1018=
201906241330 METAR LRSM 241330Z 07007KT 030V140 9999 -TSRA SCT040CB 24/17
                        Q1019=
201906241400 METAR LRSM 241400Z 08003KT 360V140 9999 -SHRA VCTS SCT040CB
                        24/19 Q1019 R01/19//95=
201906241430 METAR LRSM 241430Z 23003KT 200V280 9999 FEW040CB 24/19 Q1019
                        RETS R01/19//95=
201906241500 METAR LRSM 241500Z 25003KT 200V280 9999 FEW040CB 24/19 Q1018
                        R01/19//95=
201906241530 METAR LRSM 241530Z 23003KT 190V270 9999 FEW040 25/19 Q1019
                        R01/19//95=
201906241600 METAR LRSM 241600Z VRB02KT 9999 FEW040 27/18 Q1018 R01/19//95=
201906241630 METAR LRSM 241630Z AUTO 21001KT 9999 NCD 27/19 Q1019=
201906241700 METAR LRSM 241700Z AUTO 21002KT 9999 FEW130/// 26/19 Q1019=
201906241730 METAR LRSM 241730Z AUTO 22001KT 9999 NCD 24/20 Q1019=
201906241800 METAR LRSM 241800Z AUTO 20004KT 9999 NCD 24/20 Q1019=
201906241830 METAR LRSM 241830Z AUTO 23001KT 9999 NCD 23/21 Q1020=
201906241900 METAR LRSM 241900Z AUTO 00000KT 9999 NCD 23/21 Q1020=
201906241930 METAR LRSM 241930Z AUTO 00000KT 9000 FEW080/// 22/22 Q1020=
201906242000 METAR LRSM 242000Z AUTO 00000KT 9000 NCD 21/21 Q1021=
201906242030 METAR LRSM 242030Z AUTO 09004KT 9000 FEW100/// 21/21 Q1021=
201906242100 METAR LRSM 242100Z AUTO 15002KT 130V190 8000 FEW100/// 21/21
                        Q1021=
201906242130 METAR LRSM 242130Z AUTO 26003KT 170V280 4000 R19/1700VP2000U
                        BR NCD 20/20 Q1021=
201906242200 METAR LRSM 242200Z AUTO 29003KT 2000 R19/1200VP2000D FG NCD
                        20/20 Q1021=
201906242230 METAR LRSM 242230Z AUTO 00000KT 6000 NCD 19/19 Q1021=
201906242300 METAR LRSM 242300Z AUTO 18003KT 3600 R19/1800VP2000D NCD
                        19/19 Q1022=
201906242330 METAR LRSM 242330Z AUTO 17002KT 6000 NCD 19/19 Q1022=
201906250000 METAR LRSM 250000Z AUTO 17002KT 6000 FEW001/// 19/19 Q1022=
201906250030 METAR LRSM 250030Z AUTO 04004KT 030V170 0800 R19/0800V1600U
                        FG FEW001/// 17/17 Q1022=
201906250100 METAR LRSM 250100Z AUTO 07004KT 2300 R19/1000VP2000D FG FEW002///
                        18/18 Q1022=
201906250130 METAR LRSM 250130Z AUTO 07003KT 5000 FEW140/// 17/17 Q1022=
201906250200 METAR LRSM 250200Z AUTO VRB01KT 5000 SCT130/// 17/17 Q1022=
201906250230 METAR LRSM 250230Z AUTO 04001KT 3300 R19/1200VP2000D BR NCD
                        17/17 Q1022=
201906250300 METAR LRSM 250300Z AUTO 06004KT 7000 NCD 17/17 Q1022=
201906250330 METAR LRSM 250330Z AUTO 09004KT 040V130 9000 NCD 19/19 Q1022=
201906250400 METAR LRSM 250400Z 06004KT 8000 NSC 20/19 Q1022 R01/19//95=
201906250430 METAR LRSM 250430Z 08003KT 040V100 CAVOK 21/20 Q1023 R01/CLRD//=
201906250500 METAR LRSM 250500Z 10004KT CAVOK 22/19 Q1023=
201906250530 METAR LRSM 250530Z 09004KT CAVOK 24/19 Q1023=
201906250600 METAR LRSM 250600Z 08004KT 050V110 CAVOK 25/18 Q1023=
201906250630 METAR LRSM 250630Z 08004KT 040V110 CAVOK 26/18 Q1023=
201906250700 METAR LRSM 250700Z 09006KT CAVOK 27/17 Q1023=
201906250730 METAR LRSM 250730Z 08005KT 060V120 CAVOK 27/17 Q1024=
201906250800 METAR LRSM 250800Z 08004KT 360V120 CAVOK 29/17 Q1024=
201906250830 METAR LRSM 250830Z 08004KT 030V120 CAVOK 29/17 Q1024=
201906250900 METAR LRSM 250900Z VRB03KT CAVOK 29/16 Q1024=
201906250930 METAR LRSM 250930Z 10005KT 040V200 9999 FEW046 30/17 Q1024=
201906251000 METAR LRSM 251000Z 12003KT 080V200 9999 FEW048 31/16 Q1024=
201906251030 METAR LRSM 251030Z VRB02KT 9999 FEW048 31/17 Q1024=
201906251100 METAR LRSM 251100Z VRB03KT 9999 FEW048 31/16 Q1024=
201906251130 METAR LRSM 251130Z VRB03KT 9999 FEW048 31/16 Q1024=
201906251200 METAR LRSM 251200Z 24004KT 190V290 9999 FEW048 31/15 Q1024=
201906251230 METAR LRSM 251230Z 35005KT 280V020 9999 FEW048 32/16 Q1024=
201906251300 METAR LRSM 251300Z VRB02KT 9999 FEW049 32/18 Q1024=
201906251330 METAR LRSM 251330Z 31003KT 240V010 CAVOK 32/17 Q1023=
201906251400 METAR LRSM 251400Z 34006KT 300V030 CAVOK 32/17 Q1023=
201906251430 METAR LRSM 251430Z 33005KT 260V030 CAVOK 32/17 Q1023=
201906251500 METAR LRSM 251500Z 31005KT 280V340 CAVOK 32/16 Q1023=
201906251530 METAR LRSM 251530Z 34005KT 290V030 CAVOK 32/16 Q1023=
201906251600 METAR LRSM 251600Z 33006KT 290V020 CAVOK 31/17 Q1023=
201906251630 METAR LRSM 251630Z AUTO 34005KT 320V020 9999 NCD 31/18 Q1023=
201906251700 METAR LRSM 251700Z AUTO 33004KT 9999 NCD 30/18 Q1023=
201906251730 METAR LRSM 251730Z AUTO 34005KT 9999 NCD 29/19 Q1023=
201906251800 METAR LRSM 251800Z AUTO 35004KT 9999 NCD 27/20 Q1023=
201906251830 METAR LRSM 251830Z AUTO 27003KT 9999 NCD 25/20 Q1023=
201906251900 METAR LRSM 251900Z AUTO 24003KT 9999 NCD 25/21 Q1024=
201906251930 METAR LRSM 251930Z AUTO 23002KT 9999 NCD 24/21 Q1024=
201906252000 METAR LRSM 252000Z AUTO 23001KT 9999 NCD 23/22 Q1024=
201906252030 METAR LRSM 252030Z AUTO 19004KT 9999 NCD 23/21 Q1024=
201906252100 METAR LRSM 252100Z AUTO 20002KT 9999 NCD 22/21 Q1024=
201906252130 METAR LRSM 252130Z AUTO 20001KT 9999 NCD 21/20 Q1024=
201906252200 METAR LRSM 252200Z AUTO 00000KT 8000 NCD 20/20 Q1024=
201906252230 METAR LRSM 252230Z AUTO 20002KT 7000 NCD 20/20 Q1024=
201906252300 METAR LRSM 252300Z AUTO 11003KT 9999 NCD 20/20 Q1025=
201906252330 METAR LRSM 252330Z AUTO 00000KT 9000 NCD 20/20 Q1024=
201906260000 METAR LRSM 260000Z AUTO VRB01KT 7000 NCD 19/19 Q1024=
201906260030 METAR LRSM 260030Z AUTO 00000KT 9000 NCD 19/19 Q1024=
201906260100 METAR LRSM 260100Z AUTO 11002KT 100V230 9999 NCD 19/19 Q1024=
201906260130 METAR LRSM 260130Z AUTO 14001KT 9999 NCD 18/18 Q1024=
201906260200 METAR LRSM 260200Z AUTO 13004KT 9999 NCD 19/18 Q1024=
201906260230 METAR LRSM 260230Z AUTO 11005KT 9999 NCD 19/18 Q1024=
201906260300 METAR LRSM 260300Z AUTO 10004KT 9999 NCD 19/18 Q1024=
201906260330 METAR LRSM 260330Z AUTO VRB01KT 9999 NCD 19/19 Q1024=
201906260400 METAR LRSM 260400Z VRB01KT CAVOK 20/19 Q1024=
201906260430 METAR LRSM 260430Z 08004KT CAVOK 21/19 Q1024=
201906260500 METAR LRSM 260500Z 04004KT CAVOK 23/20 Q1024=
201906260530 METAR LRSM 260530Z 11004KT 090V160 CAVOK 24/19 Q1025=
201906260600 METAR LRSM 260600Z 11003KT 080V140 CAVOK 26/19 Q1025=
201906260630 METAR LRSM 260630Z 14003KT 080V230 CAVOK 28/19 Q1025=
201906260700 METAR LRSM 260700Z 18008KT CAVOK 28/18 Q1025=
201906260730 METAR LRSM 260730Z 18006KT 130V230 CAVOK 29/18 Q1025=
201906260800 METAR LRSM 260800Z 15005KT 100V230 CAVOK 29/18 Q1025=
201906260830 METAR LRSM 260830Z 20004KT 150V240 CAVOK 30/19 Q1025=
201906260900 METAR LRSM 260900Z VRB02KT CAVOK 31/19 Q1025=
201906260930 METAR LRSM 260930Z VRB02KT CAVOK 31/19 Q1025=
201906261000 METAR LRSM 261000Z VRB02KT CAVOK 31/19 Q1024=
201906261030 METAR LRSM 261030Z VRB02KT CAVOK 32/18 Q1024=
201906261100 METAR LRSM 261100Z VRB03KT CAVOK 32/16 Q1024=
201906261130 METAR LRSM 261130Z 24004KT 200V340 CAVOK 32/16 Q1024=
201906261200 METAR LRSM 261200Z 22005KT 150V290 CAVOK 33/15 Q1023=
201906261230 METAR LRSM 261230Z 26005KT 210V300 CAVOK 33/14 Q1023=
201906261300 METAR LRSM 261300Z VRB04KT CAVOK 33/16 Q1023=
201906261330 METAR LRSM 261330Z VRB04KT CAVOK 34/15 Q1023=
201906261400 METAR LRSM 261400Z 34004KT 260V050 CAVOK 33/14 Q1022=
201906261430 METAR LRSM 261430Z 32004KT 230V030 CAVOK 33/15 Q1022=
201906261500 METAR LRSM 261500Z 36006KT CAVOK 33/15 Q1022=
201906261530 METAR LRSM 261530Z 29004KT 260V330 CAVOK 33/15 Q1021=
201906261600 METAR LRSM 261600Z 29003KT 250V340 CAVOK 33/16 Q1021=
201906261630 METAR LRSM 261630Z 01003KT 300V050 CAVOK 32/16 Q1021=
201906261700 METAR LRSM 261700Z 36003KT CAVOK 31/18 Q1021=
201906261730 METAR LRSM 261730Z AUTO 36003KT 9999 NCD 31/19 Q1021=
201906261800 METAR LRSM 261800Z AUTO 04002KT 9999 NCD 29/20 Q1021=
201906261830 METAR LRSM 261830Z AUTO 14003KT 9999 NCD 26/21 Q1021=
201906261900 METAR LRSM 261900Z AUTO 19003KT 9999 NCD 25/20 Q1021=
201906261930 METAR LRSM 261930Z AUTO 19003KT 9999 NCD 24/21 Q1021=
201906262000 METAR LRSM 262000Z AUTO 20004KT 9999 NCD 24/21 Q1021=
201906262030 METAR LRSM 262030Z AUTO 21006KT 9999 NCD 23/20 Q1021=
201906262100 METAR LRSM 262100Z AUTO 21004KT 9999 NCD 22/20 Q1021=
201906262130 METAR LRSM 262130Z AUTO 22005KT 9999 NCD 22/19 Q1021=
201906262200 METAR LRSM 262200Z AUTO 22004KT 200V260 9999 NCD 21/19 Q1020=
201906262230 METAR LRSM 262230Z AUTO 22004KT 9999 NCD 21/18 Q1020=
201906262300 METAR LRSM 262300Z AUTO 21004KT 9999 NCD 20/18 Q1020=
201906262330 METAR LRSM 262330Z AUTO 07002KT 040V210 9999 NCD 19/18 Q1020=
201906270000 METAR LRSM 270000Z AUTO 16003KT 9999 NCD 20/18 Q1020=
201906270030 METAR LRSM 270030Z AUTO 14003KT 9999 NCD 19/18 Q1019=
201906270100 METAR LRSM 270100Z AUTO 12002KT 9999 NCD 19/18 Q1019=
201906270130 METAR LRSM 270130Z AUTO 11002KT 9999 NCD 18/18 Q1019=
201906270200 METAR LRSM 270200Z AUTO 12003KT 9999 NCD 18/18 Q1019=
201906270230 METAR LRSM 270230Z AUTO 13004KT 9999 NCD 18/18 Q1019=
201906270300 METAR LRSM 270300Z AUTO 13003KT 9999 NCD 18/18 Q1019=
201906270330 METAR LRSM 270330Z AUTO VRB01KT 9999 SCT055/// 20/19 Q1018=
201906270400 METAR LRSM 270400Z 14001KT CAVOK 21/19 Q1018=
201906270430 METAR LRSM 270430Z 18004KT CAVOK 22/20 Q1018=
201906270500 METAR LRSM 270500Z 22003KT 200V270 CAVOK 23/21 Q1018=
201906270530 METAR LRSM 270530Z 23004KT 190V280 CAVOK 25/20 Q1018=
201906270600 METAR LRSM 270600Z 24006KT CAVOK 26/21 Q1018=
201906270630 METAR LRSM 270630Z 24009KT CAVOK 27/20 Q1018=
201906270700 METAR LRSM 270700Z 24008KT 210V270 CAVOK 28/21 Q1017=
201906270730 METAR LRSM 270730Z 24008KT CAVOK 29/21 Q1017=
201906270800 METAR LRSM 270800Z 26010KT 230V290 CAVOK 30/21 Q1017=
201906270830 METAR LRSM 270830Z 26012KT 9999 FEW033 30/21 Q1017=
201906270900 METAR LRSM 270900Z 26013KT 230V290 9999 FEW033 31/21 Q1016=
201906270930 METAR LRSM 270930Z 26012KT 220V280 9999 FEW040 31/19 Q1016=
201906271000 METAR LRSM 271000Z 25012KT 9999 FEW040 31/20 Q1015=
201906271030 METAR LRSM 271030Z 25013KT 220V280 9999 FEW040 31/21 Q1015=
201906271100 METAR LRSM 271100Z 25013KT 9999 FEW043 32/21 Q1014=
201906271130 METAR LRSM 271130Z 26013KT 230V290 9999 FEW043 32/20 Q1014=
201906271200 METAR LRSM 271200Z 25015KT 9999 FEW043 32/20 Q1013=
201906271230 METAR LRSM 271230Z 26011KT 9999 FEW030CB 30/20 Q1013=
201906271300 METAR LRSM 271300Z 34039G51KT 1500 +TSRA SCT010 BKN033CB
                        18/18 Q1017=
201906271330 METAR LRSM 271330Z 15004KT 080V190 9999 -TSRA FEW009 SCT028CB
                        BKN047 18/18 Q1014 RESHRA R01/29//94=
201906271400 METAR LRSM 271400Z 25005KT 200V290 9999 -TSRA SCT030CB SCT047
                        18/18 Q1014 R01/29//94=
201906271430 METAR LRSM 271430Z 25007KT 210V290 9999 -TSRA SCT030CB 18/18
                        Q1013 R01/29//94=
201906271500 METAR LRSM 271500Z 16007KT 130V190 9999 FEW030CB 19/19 Q1012
                        R01/29//94=
201906271530 METAR LRSM 271530Z 20004KT 170V230 9999 BKN030 20/20 Q1013
                        R01/29//94=
201906271600 METAR LRSM 271600Z 22006KT 9999 SCT030 20/20 Q1013 R01/29//94=
201906271630 METAR LRSM 271630Z 21006KT 9999 FEW030 20/20 Q1014 R01/29//94=
201906271700 METAR LRSM 271700Z AUTO 21004KT 9999 +RA FEW095/// 20/20
                        Q1014=
201906271730 METAR LRSM 271730Z AUTO 20006KT 9999 +RA NCD 21/20 Q1013=
201906271800 METAR LRSM 271800Z AUTO 24004KT 9999 RA NCD 20/19 Q1013=
201906271830 METAR LRSM 271830Z AUTO 26001KT 9999 +RA NCD 19/19 Q1014=
201906271900 METAR LRSM 271900Z AUTO 05002KT 9999 +RA NCD 19/19 Q1014=
201906271930 METAR LRSM 271930Z AUTO 07003KT 9999 +RA NCD 18/18 Q1014=
201906272000 METAR LRSM 272000Z AUTO 00000KT 9000 +RA NCD 18/18 Q1015=
201906272030 METAR LRSM 272030Z AUTO 07002KT 9999 +RA NCD 18/18 Q1015=
201906272100 METAR LRSM 272100Z AUTO 18004KT 080V200 7000 +RA FEW001///
                        17/17 Q1015=
201906272130 METAR LRSM 272130Z AUTO 20004KT 6000 +RA NCD 17/17 Q1015=
201906272200 METAR LRSM 272200Z AUTO 27004KT 5000 +RA BKN006/// 17/17
                        Q1015=
201906272230 METAR LRSM 272230Z AUTO 28002KT 7000 +RA BKN004/// OVC006///
                        18/18 Q1015=
201906272300 METAR LRSM 272300Z AUTO VRB01KT 3000 R19/2000 +RA BKN002///
                        18/18 Q1015=
201906272330 METAR LRSM 272330Z AUTO 33003KT 290V010 0900 R19/1100N +RA
                        VV002 19/19 Q1015=
201906280000 METAR LRSM 280000Z AUTO 00000KT 1800 R19/1700VP2000N +RA
                        VV002 19/19 Q1015=
201906280030 METAR LRSM 280030Z AUTO 01001KT 0300 R19/0375N +RA VV001
                        18/18 Q1014=
201906280100 METAR LRSM 280100Z AUTO 33003KT 2000 R19/0900VP2000U +RA
                        NCD 17/17 Q1015=
201906280130 METAR LRSM 280130Z AUTO 32006KT 6000 +RA NCD 16/16 Q1015=
201906280200 METAR LRSM 280200Z AUTO 31006KT 6000 +RA NCD 16/16 Q1015=
201906280230 METAR LRSM 280230Z AUTO 32005KT 6000 +RA NCD 15/15 Q1015=
201906280300 METAR LRSM 280300Z AUTO 32006KT 9999 +RA NCD 15/15 Q1015=
201906280330 METAR LRSM 280330Z AUTO 33006KT 9999 +RA NCD 15/15 Q1015=
201906280400 METAR LRSM 280400Z 34008KT CAVOK 16/16 Q1015 R01/29//94=
201906280430 METAR LRSM 280430Z 35009KT CAVOK 17/15 Q1015 R01/29//94=
201906280500 METAR LRSM 280500Z 36008KT CAVOK 18/15 Q1016 R01/21//95=
201906280530 METAR LRSM 280530Z 36011KT CAVOK 19/14 Q1016 R01/21//95=
201906280600 METAR LRSM 280600Z 35010KT CAVOK 20/14 Q1016 R01/21//95=
201906280630 METAR LRSM 280630Z 36010KT CAVOK 21/14 Q1016 R01/21//95=
201906280700 METAR LRSM 280700Z 02012KT 9999 FEW036 21/12 Q1016 R01/21//95=
201906280730 METAR LRSM 280730Z 01012KT 340V050 9999 FEW036 22/12 Q1016
                        R01/21//95=
201906280800 METAR LRSM 280800Z 34011KT 310V010 9999 SCT036 22/13 Q1016
                        R01/21//95=
201906280830 METAR LRSM 280830Z 34011KT 9999 SCT037 22/13 Q1016 R01/CLRD//=
201906280900 METAR LRSM 280900Z 36009KT 9999 SCT040 22/12 Q1016=
201906280930 METAR LRSM 280930Z 36010KT 340V040 9999 SCT045 23/12 Q1016=
201906281000 METAR LRSM 281000Z 33009KT 290V360 9999 SCT048 24/12 Q1016=
201906281030 METAR LRSM 281030Z 03014KT CAVOK 24/09 Q1016=
201906281100 METAR LRSM 281100Z 36013KT 310V030 CAVOK 24/07 Q1016=
201906281130 METAR LRSM 281130Z 01011KT 330V040 CAVOK 25/10 Q1016=
201906281200 METAR LRSM 281200Z 35013KT CAVOK 25/08 Q1016=
201906281230 METAR LRSM 281230Z 34014KT 310V020 CAVOK 25/09 Q1016=
201906281300 METAR LRSM 281300Z 35012KT CAVOK 25/08 Q1016=
201906281330 METAR LRSM 281330Z 34013KT CAVOK 25/08 Q1016=
201906281400 METAR LRSM 281400Z 35012KT 290V030 CAVOK 25/08 Q1016=
201906281430 METAR LRSM 281430Z 35013KT 310V020 CAVOK 25/08 Q1016=
201906281500 METAR LRSM 281500Z 34014KT CAVOK 25/08 Q1016=
201906281530 METAR LRSM 281530Z 35013KT CAVOK 24/08 Q1016=
201906281600 METAR LRSM 281600Z 34014KT CAVOK 24/07 Q1017=
201906281630 METAR LRSM 281630Z 35013KT CAVOK 23/07 Q1017=
201906281700 METAR LRSM 281700Z AUTO 36009KT 9999 NCD 23/08 Q1017=
201906281730 METAR LRSM 281730Z AUTO 02007KT 9999 NCD 21/09 Q1017=
201906281800 METAR LRSM 281800Z AUTO 02007KT 9999 NCD 20/09 Q1017=
201906281830 METAR LRSM 281830Z AUTO 02008KT 9999 NCD 19/09 Q1018=
201906281900 METAR LRSM 281900Z AUTO 02007KT 9999 NCD 17/10 Q1018=
201906281930 METAR LRSM 281930Z AUTO 02006KT 9999 NCD 17/10 Q1018=
201906282000 METAR LRSM 282000Z AUTO 06004KT 9999 NCD 16/10 Q1019=
201906282030 METAR LRSM 282030Z AUTO 03004KT 9999 NCD 16/09 Q1019=
201906282100 METAR LRSM 282100Z AUTO 01003KT 9999 NCD 14/10 Q1019=
201906282130 METAR LRSM 282130Z AUTO 24004KT 9999 NCD 14/10 Q1019=
201906282200 METAR LRSM 282200Z AUTO 29004KT 9999 NCD 14/10 Q1019=
201906282230 METAR LRSM 282230Z AUTO 23003KT 180V290 9999 NCD 13/10 Q1019=
201906282300 METAR LRSM 282300Z AUTO 25004KT 9999 NCD 12/11 Q1019=
201906282330 METAR LRSM 282330Z AUTO 22003KT 9999 NCD 12/11 Q1019=
201906290000 METAR LRSM 290000Z AUTO 19004KT 9999 NCD 11/10 Q1019=
201906290030 METAR LRSM 290030Z AUTO 20006KT 9999 NCD 12/11 Q1020=
201906290100 METAR LRSM 290100Z AUTO 22005KT 9999 NCD 12/11 Q1020=
201906290130 METAR LRSM 290130Z AUTO 22004KT 9999 NCD 11/11 Q1019=
201906290200 METAR LRSM 290200Z AUTO 21003KT 9999 NCD 11/10 Q1020=
201906290230 METAR LRSM 290230Z AUTO 23004KT 9999 NCD 11/11 Q1020=
201906290300 METAR LRSM 290300Z AUTO 22003KT 9999 NCD 11/11 Q1020=
201906290330 METAR LRSM 290330Z AUTO 21005KT 9999 NCD 11/11 Q1020=
201906290400 METAR LRSM 290400Z AUTO 21005KT 9999 FEW085/// 12/12 Q1020=
201906290430 METAR LRSM 290430Z AUTO 21003KT 9999 NCD 13/12 Q1020=
201906290500 METAR LRSM 290500Z AUTO 23003KT 210V270 9999 NCD 15/13 Q1020=
201906290530 METAR LRSM 290530Z AUTO 28003KT 240V330 9999 NCD 16/14 Q1020=
201906290600 METAR LRSM 290600Z AUTO 32006KT 280V350 9999 FEW070/// 17/12
                        Q1020=
201906290630 METAR LRSM 290630Z AUTO 35006KT 300V030 9999 BKN065/// 18/13
                        Q1020=
201906290700 METAR LRSM 290700Z AUTO 34006KT 290V030 9999 SCT060/// 19/12
                        Q1020=
201906290730 METAR LRSM 290730Z AUTO 35006KT 310V030 9999 FEW060/// 20/13
                        Q1020=
201906290800 METAR LRSM 290800Z AUTO 34009KT 310V020 9999 NCD 22/13 Q1020=
201906290830 METAR LRSM 290830Z AUTO 32011KT 270V360 9999 NCD 23/05 Q1020=
201906290900 METAR LRSM 290900Z AUTO 34012KT 300V010 9999 NCD 23/07 Q1020=
201906290930 METAR LRSM 290930Z AUTO 34012KT 310V010 9999 NCD 23/07 Q1020=
201906291000 METAR LRSM 291000Z AUTO 35011KT 320V030 9999 NCD 23/07 Q1020=
201906291030 METAR LRSM 291030Z AUTO 33012KT 300V010 9999 NCD 24/09 Q1020=
201906291100 METAR LRSM 291100Z AUTO 33012KT 270V350 9999 NCD 24/08 Q1020=
201906291130 METAR LRSM 291130Z AUTO 35013KT 310V020 9999 NCD 24/06 Q1020=
201906291200 METAR LRSM 291200Z AUTO 35011KT 310V020 9999 FEW230/// 25/07
                        Q1020=
201906291230 METAR LRSM 291230Z AUTO 34012KT 310V010 9999 NCD 25/06 Q1020=
201906291300 METAR LRSM 291300Z AUTO 34009KT 280V030 9999 FEW230/// 25/06
                        Q1020=
201906291330 METAR LRSM 291330Z AUTO 33009KT 280V010 9999 FEW070/// 25/06
                        Q1019=
201906291400 METAR LRSM 291400Z AUTO 34011KT 300V010 9999 FEW070/// 25/08
                        Q1019=
201906291430 METAR LRSM 291430Z AUTO 32009KT 280V020 9999 FEW075/// 25/09
                        Q1019=
201906291500 METAR LRSM 291500Z AUTO 32012KT 280V350 9999 NCD 25/09 Q1019=
201906291530 METAR LRSM 291530Z AUTO 30009KT 260V330 9999 NCD 24/11 Q1019=
201906291600 METAR LRSM 291600Z AUTO 32011KT 9999 FEW180/// 24/10 Q1019=
201906291630 METAR LRSM 291630Z AUTO 33009KT 9999 NCD 24/10 Q1019=
201906291700 METAR LRSM 291700Z AUTO 32008KT 9999 NCD 24/11 Q1019=
201906291730 METAR LRSM 291730Z AUTO 31006KT 9999 NCD 22/12 Q1019=
201906291800 METAR LRSM 291800Z AUTO 29005KT 9999 NCD 21/13 Q1019=
201906291830 METAR LRSM 291830Z AUTO 29005KT 260V330 9999 NCD 19/13 Q1020=
201906291900 METAR LRSM 291900Z AUTO 29004KT 9999 RA NCD 17/13 Q1020=
201906291930 METAR LRSM 291930Z AUTO 26005KT 9999 RA NCD 16/13 Q1020=
201906292000 METAR LRSM 292000Z AUTO 26006KT 9999 NCD 16/13 Q1020 RERA=
201906292030 METAR LRSM 292030Z AUTO 21005KT 9999 NCD 15/13 Q1020=
201906292100 METAR LRSM 292100Z AUTO 21006KT 9999 FEW120/// 16/13 Q1020=
201906292130 METAR LRSM 292130Z AUTO 21006KT 9999 FEW120/// 15/13 Q1020=
201906292200 METAR LRSM 292200Z AUTO 21005KT 9999 NCD 15/13 Q1020=
201906292230 METAR LRSM 292230Z AUTO 21006KT 9999 NCD 15/12 Q1020=
201906292300 METAR LRSM 292300Z AUTO 21006KT 9999 NCD 14/12 Q1020=
201906292330 METAR LRSM 292330Z AUTO 24003KT 9999 NCD 13/12 Q1020=
201906300000 METAR LRSM 300000Z AUTO VRB02KT 9999 NCD 13/12 Q1020=
201906300030 METAR LRSM 300030Z AUTO 05003KT 9999 NCD 12/12 Q1020=
201906300100 METAR LRSM 300100Z AUTO 11005KT 9999 NCD 13/12 Q1020=
201906300130 METAR LRSM 300130Z AUTO 10004KT 9999 NCD 12/12 Q1020=
201906300200 METAR LRSM 300200Z AUTO 00000KT 9999 NCD 12/11 Q1020=
201906300230 METAR LRSM 300230Z AUTO 07004KT 9999 NCD 13/12 Q1020=
201906300300 METAR LRSM 300300Z AUTO 11004KT 9999 NCD 12/12 Q1020=
201906300330 METAR LRSM 300330Z AUTO 11003KT 9999 NCD 13/13 Q1021=
201906300400 METAR LRSM 300400Z 12003KT CAVOK 14/13 Q1021=
201906300430 METAR LRSM 300430Z 16001KT CAVOK 16/14 Q1021=
201906300500 METAR LRSM 300500Z 00000KT CAVOK 18/13 Q1021=
201906300530 METAR LRSM 300530Z VRB02KT CAVOK 19/12 Q1021=
201906300600 METAR LRSM 300600Z VRB01KT CAVOK 21/12 Q1021=
201906300630 METAR LRSM 300630Z VRB02KT CAVOK 22/11 Q1021=
201906300700 METAR LRSM 300700Z 22003KT 170V280 CAVOK 22/10 Q1021=
201906300730 METAR LRSM 300730Z VRB03KT CAVOK 23/11 Q1022=
201906300800 METAR LRSM 300800Z 24004KT 190V320 CAVOK 23/11 Q1022=
201906300830 METAR LRSM 300830Z 22005KT 150V290 CAVOK 24/13 Q1021=
201906300900 METAR LRSM 300900Z 24007KT 190V260 CAVOK 25/13 Q1021=
201906300930 METAR LRSM 300930Z 23004KT 190V320 CAVOK 25/14 Q1021=
201906301000 METAR LRSM 301000Z 26004KT 190V330 CAVOK 27/15 Q1021=
201906301030 METAR LRSM 301030Z VRB05KT CAVOK 27/14 Q1021=
201906301100 METAR LRSM 301100Z 25007KT 210V320 CAVOK 27/14 Q1021=
201906301130 METAR LRSM 301130Z 26007KT 210V320 CAVOK 28/14 Q1021=
201906301200 METAR LRSM 301200Z 25007KT 210V290 CAVOK 28/14 Q1020=
201906301230 METAR LRSM 301230Z 25007KT 210V310 CAVOK 29/14 Q1020=
201906301300 METAR LRSM 301300Z 26007KT 210V290 CAVOK 29/13 Q1020=
201906301330 METAR LRSM 301330Z 25009KT 210V280 CAVOK 29/14 Q1020=
201906301400 METAR LRSM 301400Z 26010KT 230V290 CAVOK 29/14 Q1020=
201906301430 METAR LRSM 301430Z 27007KT 230V320 CAVOK 30/15 Q1020=
201906301500 METAR LRSM 301500Z 25004KT 200V300 CAVOK 30/14 Q1020=
201906301530 METAR LRSM 301530Z 24006KT 200V280 CAVOK 29/16 Q1019=
201906301600 METAR LRSM 301600Z 25006KT CAVOK 29/16 Q1019=
201906301630 METAR LRSM 301630Z AUTO 24006KT 9999 NCD 28/16 Q1019=
201906301700 METAR LRSM 301700Z AUTO 24005KT 9999 NCD 28/16 Q1019=
201906301730 METAR LRSM 301730Z AUTO 24003KT 9999 NCD 26/17 Q1019=
201906301800 METAR LRSM 301800Z AUTO 23005KT 9999 NCD 25/17 Q1019=
201906301830 METAR LRSM 301830Z AUTO 21005KT 9999 NCD 23/17 Q1019=
201906301900 METAR LRSM 301900Z AUTO 20005KT 9999 NCD 22/18 Q1019=
201906301930 METAR LRSM 301930Z AUTO 20006KT 9999 NCD 21/18 Q1020=
201906302000 METAR LRSM 302000Z AUTO 20006KT 9999 NCD 21/18 Q1020=
201906302030 METAR LRSM 302030Z AUTO 20006KT 9999 NCD 20/18 Q1020=
201906302100 METAR LRSM 302100Z AUTO 20006KT 9999 NCD 20/17 Q1020=
201906302130 METAR LRSM 302130Z AUTO 20006KT 9999 NCD 20/17 Q1019=
201906302200 METAR LRSM 302200Z AUTO 21006KT 9999 NCD 20/17 Q1020=
201906302230 METAR LRSM 302230Z AUTO 21006KT 9999 NCD 20/17 Q1020=
201906302300 METAR LRSM 302300Z AUTO 21006KT 9999 NCD 19/16 Q1020=
201906302330 METAR LRSM 302330Z AUTO 21006KT 9999 NCD 19/16 Q1020=
