201907010200 TAF LRSM 010200Z 0103/0112 20008KT CAVOK=
201907010500 TAF LRSM 010500Z 0106/0115 VRB04KT CAVOK
                      BECMG 0107/0109 24010KT=
201907010800 TAF LRSM 010800Z 0109/0118 24008KT CAVOK=
201907011100 TAF LRSM 011100Z 0112/0121 24008KT CAVOK=
201907011400 TAF LRSM 011400Z 0115/0124 24008KT CAVOK=
201907011700 TAF LRSM 011700Z NIL=
201907011710 TAF AMD LRSM 011710Z 0117/0124 CNL=
201907012000 TAF LRSM 012000Z NIL=
201907012300 TAF LRSM 012300Z NIL=
201907020200 TAF LRSM 020200Z 0203/0212 VRB04KT CAVOK
                      BECMG 0207/0209 24010KT
                      TEMPO 0210/0212 SCT040CB=
201907020500 TAF LRSM 020500Z 0206/0215 VRB04KT CAVOK
                      BECMG 0207/0209 27010KT
                      BECMG 0212/0214 34012KT SCT040CB=
201907020800 TAF LRSM 020800Z 0209/0218 28010KT CAVOK
                      BECMG 0212/0214 34012KT
                      TEMPO 0214/0217 SCT040CB=
201907021100 TAF LRSM 021100Z 0212/0221 34010KT CAVOK
                      TEMPO 0214/0217 34015G25KT SCT040CB=
201907021400 TAF LRSM 021400Z 0215/0224 32008KT CAVOK
                      PROB30 TEMPO 0215/0217 34015G25KT=
201907021700 TAF LRSM 021700Z NIL=
201907022000 TAF LRSM 022000Z NIL=
201907022300 TAF LRSM 022300Z NIL=
201907030200 TAF LRSM 030200Z 0303/0312 VRB04KT CAVOK
                      BECMG 0304/0306 33010KT=
201907030500 TAF LRSM 030500Z 0306/0315 33010KT CAVOK
                      TEMPO 0308/0313 33020G30KT SCT030CB=
201907030800 TAF LRSM 030800Z 0309/0318 33010KT CAVOK
                      TEMPO 0309/0313 33020G30KT SCT030CB=
201907031100 TAF LRSM 031100Z 0312/0321 33010KT CAVOK
                      TEMPO 0312/0315 33015G25KT SCT030CB=
201907031400 TAF LRSM 031400Z 0315/0324 31012KT CAVOK
                      BECMG 0317/0319 VRB04KT=
201907031646 TAF AMD LRSM 031646Z 0316/0324 CNL=
201907031700 TAF LRSM 031700Z NIL=
201907032000 TAF LRSM 032000Z NIL=
201907032300 TAF LRSM 032300Z NIL=
201907040200 TAF LRSM 040200Z 0403/0412 35006KT CAVOK
                      TEMPO 0410/0412 32015G25KT=
201907040500 TAF LRSM 040500Z 0406/0415 VRB04KT CAVOK
                      TEMPO 0410/0412 32014KT=
201907040800 TAF LRSM 040800Z 0409/0418 VRB04KT CAVOK
                      TEMPO 0410/0412 32014KT=
201907041100 TAF LRSM 041100Z 0412/0421 32008KT CAVOK=
201907041400 TAF LRSM 041400Z 0415/0424 32006KT CAVOK=
201907041700 TAF LRSM 041700Z NIL=
201907042000 TAF LRSM 042000Z NIL=
201907042300 TAF LRSM 042300Z NIL=
201907050200 TAF LRSM 050200Z 0503/0512 VRB04KT CAVOK
                      BECMG 0506/0508 28010KT
                      TEMPO 0509/0512 28015G25KT=
201907050500 TAF LRSM 050500Z 0506/0515 VRB04KT CAVOK
                      BECMG 0506/0508 26012KT
                      TEMPO 0509/0515 25015G25KT=
201907050800 TAF LRSM 050800Z 0509/0518 26012KT CAVOK
                      TEMPO 0509/0515 25015G25KT=
201907051100 TAF LRSM 051100Z 0512/0521 27012KT CAVOK
                      BECMG 0518/0520 VRB04KT=
201907051400 TAF LRSM 051400Z 0515/0524 25012KT CAVOK
                      BECMG 0519/0521 VRB04KT=
201907051700 TAF LRSM 051700Z NIL=
201907051704 TAF AMD LRSM 051704Z 0517/0524 CNL=
201907052000 TAF LRSM 052000Z NIL=
201907052300 TAF LRSM 052300Z NIL=
201907060200 TAF LRSM 060200Z 0603/0612 26006KT CAVOK=
201907060500 TAF LRSM 060500Z 0606/0615 VRB04KT CAVOK
                      BECMG 0610/0612 27010KT=
201907060800 TAF LRSM 060800Z 0609/0618 VRB04KT CAVOK
                      BECMG 0610/0612 27010KT=
201907061100 TAF LRSM 061100Z 0612/0621 26010KT CAVOK=
201907061400 TAF LRSM 061400Z 0615/0624 25008KT CAVOK=
201907061700 TAF LRSM 061700Z NIL=
201907062000 TAF LRSM 062000Z NIL=
201907062300 TAF LRSM 062300Z NIL=
201907070200 TAF LRSM 070200Z 0703/0712 VRB04KT CAVOK
                      TEMPO 0704/0710 5000 TSRA SCT015 BKN030CB
                       PROB40
                      TEMPO 0705/0709 VRB18G28KT 3000 TSRA=
201907070500 TAF LRSM 070500Z 0706/0715 03008KT CAVOK
                      TEMPO 0708/0711 VRB20G30KT 3000 TSRA BKN010
                       BKN030CB=
201907070800 TAF LRSM 070800Z 0709/0718 10008KT CAVOK
                      TEMPO 0710/0714 VRB20G30KT 3000 TSRA BKN010
                       BKN030CB=
201907071100 TAF LRSM 071100Z 0712/0721 22008KT CAVOK=
201907071400 TAF LRSM 071400Z 0715/0724 23010KT CAVOK
                      TEMPO 0722/0724 VRB20G30KT 3000 TSRA BKN010
                       BKN030CB
                      PROB30 0722/0724 1500 +TSRA=
201907071638 TAF AMD LRSM 071638Z 0716/0724 CNL=
201907071700 TAF LRSM 071700Z NIL=
201907072000 TAF LRSM 072000Z NIL=
201907072300 TAF LRSM 072300Z NIL=
201907080200 TAF LRSM 080200Z 0803/0812 30008KT CAVOK=
201907080500 TAF LRSM 080500Z 0806/0815 33010KT CAVOK=
201907080800 TAF LRSM 080800Z 0809/0818 33012KT CAVOK=
201907081100 TAF LRSM 081100Z 0812/0821 34012KT CAVOK
                      PROB30 TEMPO 0813/0817 SCT040CB
                      BECMG 0817/0819 VRB04KT=
201907081400 TAF LRSM 081400Z 0815/0824 32010KT CAVOK
                      BECMG 0817/0819 VRB04KT=
201907081700 TAF LRSM 081700Z NIL=
201907082000 TAF LRSM 082000Z NIL=
201907082300 TAF LRSM 082300Z NIL=
201907090200 TAF LRSM 090200Z 0903/0912 VRB04KT CAVOK
                      TEMPO 0903/0906 3000 BR=
201907090500 TAF LRSM 090500Z 0906/0915 VRB04KT CAVOK
                      BECMG 0908/0910 30010KT
                      PROB30 TEMPO 0911/0915 VRB18KT -TSRA FEW040CB=
201907090800 TAF LRSM 090800Z 0909/0918 30008KT CAVOK
                      TEMPO 0910/0917 FEW040CB
                      PROB30 TEMPO 0911/0916 VRB18KT -TSRA=
201907091100 TAF LRSM 091100Z 0912/0921 30007KT CAVOK
                      TEMPO 0912/0917 FEW040CB
                      PROB30 TEMPO 0913/0917 VRB18KT -TSRA=
201907091400 TAF LRSM 091400Z 0915/0924 VRB04KT CAVOK=
201907091700 TAF LRSM 091700Z NIL=
201907091703 TAF AMD LRSM 091703Z 0917/0924 CNL=
201907092000 TAF LRSM 092000Z NIL=
201907092300 TAF LRSM 092300Z NIL=
201907100200 TAF LRSM 100200Z 1003/1012 34008KT CAVOK=
201907100500 TAF LRSM 100500Z 1006/1015 VRB04KT CAVOK
                      BECMG 1007/1009 31010KT=
201907100800 TAF LRSM 100800Z 1009/1018 35008KT CAVOK=
201907101100 TAF LRSM 101100Z 1012/1021 34012KT CAVOK
                      TEMPO 1012/1015 SCT035CB
                      BECMG 1017/1019 VRB04KT=
201907101400 TAF LRSM 101400Z 1015/1024 33010KT CAVOK
                      BECMG 1017/1019 VRB04KT=
201907101700 TAF LRSM 101700Z NIL=
201907101702 TAF AMD LRSM 101702Z 1017/1024 CNL=
201907102000 TAF LRSM 102000Z NIL=
201907102300 TAF LRSM 102300Z NIL=
201907110200 TAF LRSM 110200Z 1103/1112 25004KT CAVOK
                      BECMG 1106/1108 31010KT
                      TEMPO 1108/1112 5000 -SHRA SCT040CB=
201907110500 TAF LRSM 110500Z 1106/1115 VRB04KT CAVOK
                      TEMPO 1109/1115 30015G25KT 5000 TSRA SCT040CB=
201907110800 TAF LRSM 110800Z 1109/1118 VRB04KT CAVOK
                      TEMPO 1109/1116 30015G25KT 5000 TSRA SCT040CB=
201907111100 TAF LRSM 111100Z 1112/1121 35012KT 9999 SCT040CB
                      TEMPO 1112/1118 32015G25KT 5000 TSRA
                      BECMG 1118/1120 VRB04KT NSC=
201907111400 TAF LRSM 111400Z 1115/1124 VRB04KT CAVOK
                      TEMPO 1115/1118 32015G25KT 5000 TSRA SCT040CB=
201907111647 TAF AMD LRSM 111647Z 1116/1124 CNL=
201907111700 TAF LRSM 111700Z NIL=
201907112000 TAF LRSM 112000Z NIL=
201907112300 TAF LRSM 112300Z NIL=
201907120200 TAF LRSM 120200Z 1203/1212 VRB04KT CAVOK
                      TEMPO 1203/1205 3000 BR=
201907120404 TAF AMD LRSM 120404Z 1204/1212 VRB04KT 0350 FG BKN001
                      BECMG 1204/1206 1500 BR SCT005
                      BECMG 1206/1208 CAVOK=
201907120500 TAF LRSM 120500Z 1206/1215 VRB04KT CAVOK
                      BECMG 1210/1212 30010KT=
201907120800 TAF LRSM 120800Z 1209/1218 VRB04KT CAVOK
                      BECMG 1210/1212 30010KT=
201907121100 TAF LRSM 121100Z 1212/1221 29006KT 9999 SCT045
                      PROB40 TEMPO 1212/1218 SCT040CB=
201907121400 TAF LRSM 121400Z 1215/1224 30006KT CAVOK=
201907121700 TAF LRSM 121700Z NIL=
201907121722 TAF AMD LRSM 121722Z 1217/1224 CNL=
201907122000 TAF LRSM 122000Z NIL=
201907122300 TAF LRSM 122300Z NIL=
201907130200 TAF LRSM 130200Z NIL=
201907130500 TAF LRSM 130500Z NIL=
201907130800 TAF LRSM 130800Z NIL=
201907131100 TAF LRSM 131100Z NIL=
201907131400 TAF LRSM 131400Z NIL=
201907131700 TAF LRSM 131700Z NIL=
201907132000 TAF LRSM 132000Z NIL=
201907132300 TAF LRSM 132300Z NIL=
201907140200 TAF LRSM 140200Z 1403/1412 VRB04KT 9999 SCT035
                      PROB40 TEMPO 1403/1405 3000 BR BKN010
                      TEMPO 1409/1412 5000 -TSRA SCT015 SCT035CB=
201907140500 TAF LRSM 140500Z 1406/1415 VRB04KT 9999 SCT025
                      TEMPO 1409/1415 5000 -TSRA SCT015 SCT040CB=
201907140800 TAF LRSM 140800Z 1409/1418 30006KT 9999 SCT025
                      TEMPO 1409/1415 5000 -TSRA SCT015 SCT040CB=
201907141100 TAF LRSM 141100Z 1412/1421 35006KT 9999 SCT025
                      TEMPO 1412/1415 5000 -TSRA SCT015 SCT030CB=
201907141400 TAF LRSM 141400Z 1415/1424 36006KT 9999 SCT030CB
                      TEMPO 1415/1417 5000 -TSRA
                      BECMG 1417/1419 CAVOK=
201907141631 TAF AMD LRSM 141631Z 1416/1424 CNL=
201907141700 TAF LRSM 141700Z NIL=
201907142000 TAF LRSM 142000Z NIL=
201907142300 TAF LRSM 142300Z NIL=
201907150200 TAF LRSM 150200Z 1503/1512 30008KT CAVOK=
201907150500 TAF LRSM 150500Z 1506/1515 VRB04KT CAVOK
                      BECMG 1508/1510 01014KT=
201907150800 TAF LRSM 150800Z 1509/1518 03010KT 9999 SCT035=
201907151100 TAF LRSM 151100Z 1512/1521 02008KT 9999 SCT040=
201907151400 TAF LRSM 151400Z 1515/1524 34010KT CAVOK
                      BECMG 1517/1519 VRB04KT=
201907151640 TAF AMD LRSM 151640Z 1516/1524 CNL=
201907151700 TAF LRSM 151700Z NIL=
201907152000 TAF LRSM 152000Z NIL=
201907152300 TAF LRSM 152300Z NIL=
201907160200 TAF LRSM 160200Z 1603/1612 VRB04KT CAVOK=
201907160500 TAF LRSM 160500Z 1606/1615 VRB04KT CAVOK
                      BECMG 1609/1611 30010KT=
201907160800 TAF LRSM 160800Z 1609/1618 VRB04KT CAVOK
                      BECMG 1609/1611 30010KT=
201907161100 TAF LRSM 161100Z 1612/1621 VRB04KT CAVOK
                      TEMPO 1612/1615 30010KT=
201907161400 TAF LRSM 161400Z 1615/1624 30005KT CAVOK=
201907161638 TAF AMD LRSM 161638Z 1616/1624 CNL=
201907161700 TAF LRSM 161700Z NIL=
201907162000 TAF LRSM 162000Z NIL=
201907162300 TAF LRSM 162300Z NIL=
201907170200 TAF LRSM 170200Z 1703/1712 30008KT CAVOK=
201907170500 TAF LRSM 170500Z 1706/1715 VRB04KT CAVOK
                      BECMG 1707/1709 31012KT=
201907170800 TAF LRSM 170800Z 1709/1718 33010KT CAVOK=
201907171100 TAF LRSM 171100Z 1712/1721 32010KT CAVOK
                      BECMG 1717/1719 VRB04KT=
201907171400 TAF LRSM 171400Z 1715/1724 32010KT CAVOK
                      BECMG 1716/1718 VRB04KT=
201907171700 TAF LRSM 171700Z NIL=
201907171702 TAF AMD LRSM 171702Z 1717/1724 CNL=
201907172000 TAF LRSM 172000Z NIL=
201907172300 TAF LRSM 172300Z NIL=
201907180200 TAF LRSM 180200Z 1803/1812 VRB04KT CAVOK=
201907180500 TAF LRSM 180500Z 1806/1815 VRB04KT CAVOK=
201907180800 TAF LRSM 180800Z 1809/1818 VRB04KT CAVOK=
201907181100 TAF LRSM 181100Z 1812/1821 VRB04KT CAVOK=
201907181400 TAF LRSM 181400Z 1815/1824 VRB04KT CAVOK=
201907181631 TAF AMD LRSM 181631Z 1816/1824 CNL=
201907181700 TAF LRSM 181700Z NIL=
201907182000 TAF LRSM 182000Z NIL=
201907182300 TAF LRSM 182300Z NIL=
201907190200 TAF LRSM 190200Z 1903/1912 VRB04KT CAVOK
                      BECMG 1910/1912 30010KT=
201907190417 TAF AMD LRSM 190417Z 1904/1912 VRB04KT CAVOK
                      TEMPO 1904/1906 5000 -TSRA SCT030CB
                      BECMG 1910/1912 30010KT=
201907190500 TAF LRSM 190500Z 1906/1915 VRB04KT CAVOK
                      TEMPO 1913/1915 SCT040CB
                      PROB30 TEMPO 1913/1915 TSRA=
201907190800 TAF LRSM 190800Z 1909/1918 VRB04KT CAVOK
                      TEMPO 1913/1916 SCT040CB
                      PROB30 TEMPO 1913/1915 TSRA=
201907191100 TAF LRSM 191100Z 1912/1921 VRB04KT CAVOK
                      TEMPO 1913/1916 SCT040CB
                      PROB30 TEMPO 1913/1915 TSRA=
201907191400 TAF LRSM 191400Z 1915/1924 34006KT CAVOK=
201907191635 TAF AMD LRSM 191635Z 1916/1924 CNL=
201907191700 TAF LRSM 191700Z NIL=
201907192000 TAF LRSM 192000Z NIL=
201907192300 TAF LRSM 192300Z NIL=
201907200200 TAF LRSM 200200Z NIL=
201907200500 TAF LRSM 200500Z NIL=
201907200800 TAF LRSM 200800Z NIL=
201907201100 TAF LRSM 201100Z NIL=
201907201400 TAF LRSM 201400Z NIL=
201907201700 TAF LRSM 201700Z NIL=
201907202000 TAF LRSM 202000Z NIL=
201907202300 TAF LRSM 202300Z NIL=
201907210200 TAF LRSM 210200Z 2103/2112 VRB04KT 9999 BKN045
                      TEMPO 2103/2107 5000 SHRA SCT035CB BKN040
                       PROB30
                      TEMPO 2103/2105 TSRA=
201907210500 TAF LRSM 210500Z 2106/2115 12008KT 9999 SCT040
                      TEMPO 2106/2108 5000 -TSRA SCT040CB
                      TEMPO 2111/2115 SCT040CB=
201907210800 TAF LRSM 210800Z 2109/2118 17007KT CAVOK
                      TEMPO 2111/2117 SCT040CB=
201907211100 TAF LRSM 211100Z 2112/2121 VRB04KT CAVOK
                      TEMPO 2116/2121 SCT040CB=
201907211400 TAF LRSM 211400Z 2115/2124 VRB04KT CAVOK
                      TEMPO 2116/2121 SCT040CB=
201907211700 TAF LRSM 211700Z NIL=
201907212000 TAF LRSM 212000Z NIL=
201907212300 TAF LRSM 212300Z NIL=
201907220200 TAF LRSM 220200Z 2203/2212 32007KT 3000 BR BKN002
                      TEMPO 2203/2205 0600 FG OVC001
                      BECMG 2205/2207 9999 NSW SCT025
                      TEMPO 2209/2212 SCT030CB=
201907220500 TAF LRSM 220500Z 2206/2215 VRB04KT 5000 BR BKN005
                      BECMG 2206/2208 33012KT CAVOK=
201907220800 TAF LRSM 220800Z 2209/2218 VRB04KT CAVOK
                      BECMG 2209/2211 35012KT=
201907221100 TAF LRSM 221100Z 2212/2221 35008KT CAVOK=
201907221400 TAF LRSM 221400Z 2215/2224 34006KT CAVOK=
201907221700 TAF LRSM 221700Z NIL=
201907221711 TAF AMD LRSM 221711Z 2217/2224 CNL=
201907222000 TAF LRSM 222000Z NIL=
201907222300 TAF LRSM 222300Z NIL=
201907230200 TAF LRSM 230200Z 2303/2312 VRB04KT CAVOK
                      BECMG 2306/2308 34012KT
                      PROB30 TEMPO 2309/2312 5000 -SHRA FEW040CB=
201907230500 TAF LRSM 230500Z 2306/2315 VRB04KT CAVOK
                      BECMG 2306/2308 34012KT
                      PROB30 TEMPO 2309/2312 5000 -TSRA SCT040CB=
201907230800 TAF LRSM 230800Z 2309/2318 33008KT CAVOK
                      TEMPO 2309/2314 33015G25KT 5000 -SHRA BKN010
                       BKN030CB
                      PROB30 2310/2314 TSRA=
201907231100 TAF LRSM 231100Z 2312/2321 33008KT CAVOK
                      PROB40 TEMPO 2312/2316 33015G25KT 5000 -TSRA
                       BKN010 BKN030CB=
201907231400 TAF LRSM 231400Z 2315/2324 33008KT CAVOK=
201907231637 TAF AMD LRSM 231637Z 2316/2324 CNL=
201907231700 TAF LRSM 231700Z NIL=
201907232000 TAF LRSM 232000Z NIL=
201907232300 TAF LRSM 232300Z NIL=
201907240200 TAF LRSM 240200Z 2403/2412 VRB04KT 1500 BR NSC
                      TEMPO 2403/2405 0600 FG VV002
                      BECMG 2405/2406 3000
                      BECMG 2406/2408 CAVOK=
201907240435 TAF AMD LRSM 240435Z 2404/2412 VRB04KT 0150 FG VV001
                      BECMG 2405/2407 0600 BKN002
                      BECMG 2407/2408 3000 BR SCT010
                      BECMG 2408/2409 CAVOK=
201907240500 TAF LRSM 240500Z 2406/2415 VRB04KT 0150 FG VV001
                      BECMG 2406/2407 0800 BKN002
                      BECMG 2407/2408 3000 BR BKN010
                      BECMG 2408/2409 CAVOK
                      BECMG 2410/2412 33010KT=
201907240800 TAF LRSM 240800Z 2409/2418 VRB04KT CAVOK
                      BECMG 2410/2412 33010KT=
201907241100 TAF LRSM 241100Z 2412/2421 35008KT CAVOK=
201907241400 TAF LRSM 241400Z 2415/2424 35008KT CAVOK=
201907241700 TAF LRSM 241700Z NIL=
201907242000 TAF LRSM 242000Z NIL=
201907242300 TAF LRSM 242300Z NIL=
201907250200 TAF LRSM 250200Z 2503/2512 VRB04KT 5000 BR SCT045
                      TEMPO 2503/2505 1500 BR
                      BECMG 2505/2507 CAVOK=
201907250444 TAF AMD LRSM 250444Z 2504/2512 VRB04KT 0300 FG VV001
                      TEMPO 2505/2507 5000 BR SCT010
                      BECMG 2507/2508 CAVOK=
201907250500 TAF LRSM 250500Z 2506/2515 VRB04KT 0300 FG VV002
                      TEMPO 2506/2507 5000 BR SCT010
                      BECMG 2507/2508 CAVOK=
201907250559 TAF COR LRSM 250559Z 2506/2515 VRB04KT 0300 FG VV002
                      BECMG 2506/2507 5000 BR SCT010
                      BECMG 2507/2508 CAVOK=
201907250800 TAF LRSM 250800Z 2509/2518 VRB04KT CAVOK=
201907251100 TAF LRSM 251100Z 2512/2521 VRB04KT 9999 SCT045=
201907251400 TAF LRSM 251400Z 2515/2524 VRB04KT 9999 SCT045=
201907251633 TAF AMD LRSM 251633Z 2516/2524 CNL=
201907251700 TAF LRSM 251700Z NIL=
201907252000 TAF LRSM 252000Z NIL=
201907252300 TAF LRSM 252300Z NIL=
201907260200 TAF LRSM 260200Z 2603/2612 VRB04KT 3000 BR NSC
                      TEMPO 2603/2606 0600 FG VV001
                      BECMG 2606/2608 CAVOK=
201907260500 TAF LRSM 260500Z 2606/2615 VRB04KT CAVOK=
201907260800 TAF LRSM 260800Z 2609/2618 VRB04KT CAVOK=
201907261100 TAF LRSM 261100Z 2612/2621 28008KT CAVOK=
201907261400 TAF LRSM 261400Z 2615/2624 VRB04KT CAVOK=
201907261700 TAF LRSM 261700Z NIL=
201907262000 TAF LRSM 262000Z NIL=
201907262300 TAF LRSM 262300Z NIL=
201907270200 TAF LRSM 270200Z NIL=
201907270500 TAF LRSM 270500Z NIL=
201907270800 TAF LRSM 270800Z 2709/2718 VRB04KT CAVOK
                      TEMPO 2709/2715 5000 -TSRA SCT040CB=
201907271100 TAF LRSM 271100Z 2712/2721 VRB04KT CAVOK
                      TEMPO 2712/2717 VRB15KT 5000 -TSRA SCT040CB=
201907271400 TAF LRSM 271400Z NIL=
201907271700 TAF LRSM 271700Z NIL=
201907272000 TAF LRSM 272000Z NIL=
201907272300 TAF LRSM 272300Z NIL=
201907280200 TAF LRSM 280200Z 2803/2812 09008KT CAVOK
                      PROB40 TEMPO 2803/2805 VRB18KT 5000 TSRA
                       SCT040CB=
201907280500 TAF LRSM 280500Z 2806/2815 13012KT CAVOK
                      TEMPO 2810/2815 FEW040CB=
201907280800 TAF LRSM 280800Z 2809/2818 14012KT CAVOK
                      TEMPO 2812/2814 FEW040CB
                      TEMPO 2814/2818 VRB20KT -TSRA SCT040CB=
201907281100 TAF LRSM 281100Z 2812/2821 14012KT CAVOK
                      TEMPO 2812/2814 FEW040CB
                      TEMPO 2814/2818 VRB20KT -TSRA SCT040CB=
201907281400 TAF LRSM 281400Z 2815/2824 12010KT CAVOK
                      TEMPO 2815/2818 SCT040CB
                      PROB30 TEMPO 2815/2818 VRB20KT -TSRA=
201907281635 TAF AMD LRSM 281635Z 2816/2824 CNL=
201907281700 TAF LRSM 281700Z NIL=
201907282000 TAF LRSM 282000Z NIL=
201907282300 TAF LRSM 282300Z NIL=
201907290200 TAF LRSM 290200Z 2903/2912 VRB04KT 9999 BKN040=
201907290500 TAF LRSM 290500Z 2906/2915 VRB04KT 9999 SCT040=
201907290800 TAF LRSM 290800Z 2909/2918 27007KT 9999 SCT025=
201907291100 TAF LRSM 291100Z 2912/2921 27007KT 9999 SCT035=
201907291400 TAF LRSM 291400Z 2915/2924 27007KT CAVOK=
201907291659 TAF AMD LRSM 291659Z 2916/2924 CNL=
201907291700 TAF LRSM 291700Z NIL=
201907292000 TAF LRSM 292000Z NIL=
201907292300 TAF LRSM 292300Z NIL=
201907300200 TAF LRSM 300200Z 3003/3012 VRB04KT CAVOK
                      TEMPO 3003/3005 3000 BR BKN005
                      BECMG 3009/3011 31010KT
                      TEMPO 3009/3012 SCT040CB
                      PROB40 TEMPO 3010/3012 -TSRA=
201907300500 TAF LRSM 300500Z 3006/3015 VRB03KT CAVOK
                      BECMG 3010/3012 30010KT
                      PROB30 TEMPO 3013/3015 VRB15G25KT 5000 -TSRA
                       SCT040CB=
201907300800 TAF LRSM 300800Z 3009/3018 VRB03KT CAVOK
                      BECMG 3010/3012 30010KT
                      PROB30 TEMPO 3013/3017 VRB15G25KT 5000 -TSRA
                       SCT040CB=
201907301100 TAF LRSM 301100Z 3012/3021 30008KT CAVOK
                      PROB30 TEMPO 3012/3017 VRB15G25KT 5000 -TSRA
                       SCT040CB=
201907301400 TAF LRSM 301400Z 3015/3024 27007KT CAVOK
                      TEMPO 3016/3021 VRB15G25KT 5000 -TSRA SCT040CB=
201907301700 TAF LRSM 301700Z NIL=
201907302000 TAF LRSM 302000Z NIL=
201907302300 TAF LRSM 302300Z NIL=
201907310200 TAF LRSM 310200Z 3103/3112 25006KT 5000 BR NSC
                      PROB30 TEMPO 3103/3105 3000 BR
                      BECMG 3105/3107 9999 NSW=
201907310500 TAF LRSM 310500Z 3106/3115 25006KT CAVOK
                      PROB30 TEMPO 3112/3115 VRB20KT 5000 TSRA
                       SCT040CB=
201907310800 TAF LRSM 310800Z 3109/3118 25006KT CAVOK
                      PROB40 TEMPO 3112/3115 VRB20KT 5000 TSRA
                       SCT040CB=
201907311100 TAF LRSM 311100Z 3112/3121 35006KT CAVOK
                      PROB40 TEMPO 3112/3115 VRB20KT 5000 TSRA
                       SCT040CB=
201907311400 TAF LRSM 311400Z 3115/3124 35006KT CAVOK
                      TEMPO 3115/3118 VRB20KT 3000 TSRA BKN015
                       BKN040CB=
201907311640 TAF AMD LRSM 311640Z 3116/3124 CNL=
201907311700 TAF LRSM 311700Z NIL=
201907312000 TAF LRSM 312000Z NIL=
201907312300 TAF LRSM 312300Z NIL=