201912010200 TAF LRSM 010200Z 0103/0112 30006KT CAVOK
                      TEMPO 0103/0107 3000 BR=
201912010500 TAF LRSM 010500Z 0106/0115 21005KT CAVOK=
201912010800 TAF LRSM 010800Z 0109/0118 21005KT CAVOK=
201912011100 TAF LRSM 011100Z 0112/0121 VRB04KT CAVOK=
201912011400 TAF LRSM 011400Z 0115/0124 VRB04KT CAVOK=
201912011700 TAF LRSM 011700Z NIL=
201912012000 TAF LRSM 012000Z NIL=
201912012300 TAF LRSM 012300Z NIL=
201912020200 TAF LRSM 020200Z 0203/0212 13008KT 7000 -SN BKN040
                      BECMG 0204/0206 3000 SN BR BKN015 OVC040
                       BECMG 0208/0210 1500 SN BR BKN005 OVC030=
201912020500 TAF LRSM 020500Z 0206/0215 13008KT 9999 SCT015 BKN040
                      TEMPO 0206/0212 5000 -SN BR BKN005 OVC030
                       BECMG 0213/0215 31006KT=
201912020800 TAF LRSM 020800Z 0209/0218 13008KT 7000 -SN SCT015 BKN040
                      TEMPO 0209/0211 5000 -RASN BR
                      TEMPO 0211/0216 3000 SN BR BKN010 OVC020=
201912021100 TAF LRSM 021100Z 0212/0221 13008KT 5000 -SN BR SCT015 BKN040
                      TEMPO 0212/0217 1500 SN BR BKN010 OVC020
                       BECMG 0218/0220 3000 BR=
201912021400 TAF LRSM 021400Z 0215/0224 VRB04KT 3000 -SN BR BKN010 OVC020
                      TEMPO 0215/0218 1500 SN BR BKN005 OVC015
                       BECMG 0219/0221 5000 BR
                      TEMPO 0221/0224 1500 BR BKN005=
201912021700 TAF LRSM 021700Z NIL=
201912021738 TAF LRSM 021738Z 0218/0303 CNL=
201912022000 TAF LRSM 022000Z NIL=
201912022300 TAF LRSM 022300Z NIL=
201912030200 TAF LRSM 030200Z 0303/0312 VRB04KT 1000 BR BKN005
                      TEMPO 0303/0306 0300 FZFG OVC001
                      BECMG 0306/0308 5000 BKN010
                      BECMG 0308/0310 9999 NSW BKN025=
201912030500 TAF LRSM 030500Z 0306/0315 VRB04KT 3000 BR BKN002 OVC005
                      BECMG 0306/0308 5000 BR BKN010
                      BECMG 0308/0310 9999 NSW BKN015
                      TEMPO 0311/0315 5000 -SN BR BKN025=
201912030800 TAF LRSM 030800Z 0309/0318 VRB04KT 3000 BR OVC005
                      BECMG 0309/0311 5000 BR BKN010
                      BECMG 0311/0313 9999 NSW BKN015
                      TEMPO 0313/0318 5000 -SN BR BKN025=
201912031100 TAF LRSM 031100Z 0312/0321 26005KT 7000 BKN020
                      TEMPO 0312/0316 5000 -SN BR OVC015
                      BECMG 0318/0320 5000 BR BKN010=
201912031400 TAF LRSM 031400Z 0315/0324 26005KT 5000 BR BKN010
                      BECMG 0318/0320 3000 BR BKN005=
201912031700 TAF LRSM 031700Z NIL=
201912032000 TAF LRSM 032000Z NIL=
201912032300 TAF LRSM 032300Z NIL=
201912040200 TAF LRSM 040200Z 0403/0412 VRB04KT 5000 BR BKN015
                      TEMPO 0403/0406 1500 BR BKN005
                      BECMG 0406/0408 9999 NSW BKN025=
201912040500 TAF LRSM 040500Z 0406/0415 VRB04KT 5000 BR OVC020
                      BECMG 0407/0409 9999 NSW=
201912040800 TAF LRSM 040800Z 0409/0418 VRB04KT CAVOK=
201912041100 TAF LRSM 041100Z 0412/0421 VRB04KT CAVOK
                      BECMG 0418/0420 3000 BR=
201912041400 TAF LRSM 041400Z 0415/0424 VRB04KT CAVOK
                      BECMG 0418/0420 3000 BR
                      BECMG 0422/0424 1500 BR=
201912041700 TAF LRSM 041700Z NIL=
201912042000 TAF LRSM 042000Z NIL=
201912042300 TAF LRSM 042300Z NIL=
201912050200 TAF LRSM 050200Z 0503/0512 VRB04KT 5000 BR NSC
                      PROB40 TEMPO 0503/0506 1500 BR BKN005
                      BECMG 0506/0508 9999 NSW=
201912050500 TAF LRSM 050500Z 0506/0515 VRB04KT CAVOK
                      PROB40 TEMPO 0506/0507 3000 BR BKN002=
201912050800 TAF LRSM 050800Z 0509/0518 VRB04KT CAVOK
                      BECMG 0516/0518 3000 BR=
201912051100 TAF LRSM 051100Z 0512/0521 VRB04KT CAVOK
                      BECMG 0516/0518 3000 BR
                      PROB40 TEMPO 0518/0521 1500 BR=
201912051400 TAF LRSM 051400Z 0515/0524 VRB04KT CAVOK
                      BECMG 0517/0519 3000 BR
                      BECMG 0519/0521 1500 BR BKN002
                      BECMG 0521/0523 0600 FZFG BKN001=
201912051700 TAF LRSM 051700Z NIL=
201912051738 TAF AMD LRSM 051738Z 0517/0524 CNL=
201912052000 TAF LRSM 052000Z NIL=
201912052300 TAF LRSM 052300Z NIL=
201912060200 TAF LRSM 060200Z 0603/0612 VRB04KT 5000 BR NSC
                      TEMPO 0603/0608 1500 BR BKN001
                      BECMG 0609/0611 9999 NSW=
201912060500 TAF LRSM 060500Z 0606/0615 VRB04KT 5000 BR NSC
                      TEMPO 0606/0608 1500 BR BKN001
                      BECMG 0608/0610 CAVOK=
201912060800 TAF LRSM 060800Z 0609/0618 VRB04KT 3000 BR NSC
                      BECMG 0609/0611 CAVOK
                      BECMG 0614/0616 3000 BR BKN010
                      BECMG 0616/0618 1500 BR BKN005=
201912061100 TAF LRSM 061100Z 0612/0621 VRB04KT 5000 BR NSC
                      BECMG 0615/0617 3000 BR BKN010
                      BECMG 0617/0619 1500 BR BKN005=
201912061400 TAF LRSM 061400Z 0615/0624 VRB04KT 3000 BR OVC010
                      BECMG 0616/0618 1500 BR BKN005
                      PROB40 TEMPO 0620/0624 0800 FZFG BKN002=
201912061700 TAF LRSM 061700Z NIL=
201912062000 TAF LRSM 062000Z NIL=
201912062300 TAF LRSM 062300Z NIL=
201912070200 TAF LRSM 070200Z NIL=
201912070500 TAF LRSM 070500Z NIL=
201912070800 TAF LRSM 070800Z NIL=
201912071100 TAF LRSM 071100Z NIL=
201912071400 TAF LRSM 071400Z NIL=
201912071700 TAF LRSM 071700Z NIL=
201912072000 TAF LRSM 072000Z NIL=
201912072300 TAF LRSM 072300Z NIL=
201912080200 TAF LRSM 080200Z 0803/0812 VRB04KT 0600 FG BKN002
                      TEMPO 0803/0806 0150 FZFG VV001
                      BECMG 0806/0808 1500 BR BKN005
                      BECMG 0808/0810 3000 BR BKN010=
201912080500 TAF LRSM 080500Z 0806/0815 VRB04KT 0400 FG VV002
                      BECMG 0807/0809 1500 BR BKN003 OVC005
                      BECMG 0809/0810 3000 BKN005 OVC010
                      TEMPO 0810/0815 5000 SCT010 OVC020=
201912080800 TAF LRSM 080800Z 0809/0818 VRB04KT 0400 FG VV002
                      BECMG 0809/0811 1500 BR BKN003 OVC005
                      PROB40 TEMPO 0811/0815 5000 OVC010=
201912081100 TAF LRSM 081100Z 0812/0821 VRB04KT 0400 FG BKN001 OVC003
                      TEMPO 0812/0815 0800 OVC005=
201912081400 TAF LRSM 081400Z 0815/0824 VRB04KT 3000 BR BKN015
                      BECMG 0815/0817 1500 BR OVC005
                      TEMPO 0817/0824 0600 FG OVC002=
201912081700 TAF LRSM 081700Z NIL=
201912082000 TAF LRSM 082000Z NIL=
201912082300 TAF LRSM 082300Z NIL=
201912090200 TAF LRSM 090200Z 0903/0912 VRB04KT 8000 BKN040
                      BECMG 0903/0905 3000 BR
                      TEMPO 0905/0908 1500 BR=
201912090500 TAF LRSM 090500Z 0906/0915 11005KT 9999 BKN045=
201912090800 TAF LRSM 090800Z 0909/0918 11007KT CAVOK=
201912091100 TAF LRSM 091100Z 0912/0921 11008KT CAVOK=
201912091400 TAF LRSM 091400Z 0915/0924 VRB04KT CAVOK=
201912091700 TAF LRSM 091700Z NIL=
201912092000 TAF LRSM 092000Z NIL=
201912092300 TAF LRSM 092300Z NIL=
201912100200 TAF LRSM 100200Z 1003/1012 VRB04KT CAVOK=
201912100500 TAF LRSM 100500Z 1006/1015 VRB04KT 9999 SCT045
                      TEMPO 1006/1008 5000 -RA
                      BECMG 1012/1014 5000 -RA BKN010 OVC040=
201912100800 TAF LRSM 100800Z 1009/1018 VRB04KT 9999 SCT045
                      BECMG 1012/1014 5000 -RA BKN010 OVC040
                      BECMG 1015/1017 35010KT=
201912101100 TAF LRSM 101100Z 1012/1021 35008KT 9999 SCT045
                      BECMG 1012/1014 5000 -RA BR BKN010 OVC040=
201912101400 TAF LRSM 101400Z 1015/1024 35008KT 9999 SCT015 SCT045
                      TEMPO 1015/1020 5000 -RA BR BKN010 OVC040=
201912101700 TAF LRSM 101700Z NIL=
201912102000 TAF LRSM 102000Z NIL=
201912102300 TAF LRSM 102300Z NIL=
201912110200 TAF LRSM 110200Z 1103/1112 VRB04KT 9999 BKN020=
201912110500 TAF LRSM 110500Z 1106/1115 VRB04KT 9999 OVC025
                      TEMPO 1106/1109 BKN005 OVC025=
201912110800 TAF LRSM 110800Z 1109/1118 VRB04KT 9999 BKN010 OVC025
                      TEMPO 1109/1112 5000 -RA BR BKN003 OVC025=
201912111100 TAF LRSM 111100Z 1112/1121 VRB04KT 9999 BKN015 OVC025
                      PROB40 TEMPO 1112/1117 5000 -RA BR BKN005
                       OVC025
                      TEMPO 1118/1121 3000 -RA BR BKN005 OVC020=
201912111400 TAF LRSM 111400Z 1115/1124 VRB04KT 9999 BKN015 OVC035
                      PROB40 TEMPO 1115/1118 5000 -RA BR BKN005
                       OVC030
                      BECMG 1120/1122 3000 BR BKN005 OVC020=
201912111700 TAF LRSM 111700Z NIL=
201912112000 TAF LRSM 112000Z NIL=
201912112300 TAF LRSM 112300Z NIL=
201912120200 TAF LRSM 120200Z 1203/1212 VRB04KT 3000 BR BKN015
                      TEMPO 1203/1206 1500 BR BKN005
                      BECMG 1206/1208 9999 NSW BKN025=
201912120500 TAF LRSM 120500Z 1206/1215 10006KT 3000 BR NSC
                      TEMPO 1206/1207 1500 BR
                      BECMG 1207/1209 9999 NSW=
201912120800 TAF LRSM 120800Z 1209/1218 14008KT CAVOK=
201912121100 TAF LRSM 121100Z 1212/1221 14008KT CAVOK=
201912121400 TAF LRSM 121400Z 1215/1224 14008KT CAVOK=
201912121700 TAF LRSM 121700Z NIL=
201912121754 TAF AMD LRSM 121754Z 1217/1224 CNL=
201912122000 TAF LRSM 122000Z NIL=
201912122300 TAF LRSM 122300Z NIL=
201912130200 TAF LRSM 130200Z 1303/1312 14008KT CAVOK=
201912130500 TAF LRSM 130500Z 1306/1315 15012KT 9999 SCT045
                      TEMPO 1306/1310 5000 -RA BR BKN015 BKN045=
201912130800 TAF LRSM 130800Z 1309/1318 15010KT 9999 BKN045
                      TEMPO 1309/1312 5000 -RA BR=
201912131100 TAF LRSM 131100Z 1312/1321 VRB04KT 9999 BKN040
                      BECMG 1312/1314 14010KT=
201912131400 TAF LRSM 131400Z 1315/1324 14008KT 9999 BKN045=
201912131700 TAF LRSM 131700Z NIL=
201912132000 TAF LRSM 132000Z NIL=
201912132300 TAF LRSM 132300Z NIL=
201912140200 TAF LRSM 140200Z NIL=
201912140500 TAF LRSM 140500Z NIL=
201912140800 TAF LRSM 140800Z NIL=
201912141100 TAF LRSM 141100Z NIL=
201912141400 TAF LRSM 141400Z NIL=
201912141700 TAF LRSM 141700Z NIL=
201912142000 TAF LRSM 142000Z NIL=
201912142300 TAF LRSM 142300Z NIL=
201912150200 TAF LRSM 150200Z 1503/1512 24008KT 5000 BR NSC
                      TEMPO 1503/1506 1500 BR BKN005
                      BECMG 1507/1509 9999 NSW=
201912150500 TAF LRSM 150500Z 1506/1515 VRB04KT CAVOK
                      TEMPO 1506/1508 5000 BR=
201912150800 TAF LRSM 150800Z 1509/1518 VRB04KT 7000 SCT010
                      TEMPO 1509/1511 5000 BR BKN010=
201912151100 TAF LRSM 151100Z 1512/1521 08006KT CAVOK=
201912151400 TAF LRSM 151400Z 1515/1524 VRB04KT CAVOK=
201912151700 TAF LRSM 151700Z NIL=
201912152000 TAF LRSM 152000Z NIL=
201912152300 TAF LRSM 152300Z NIL=
201912160200 TAF LRSM 160200Z 1603/1612 14008KT CAVOK
                      PROB30 TEMPO 1608/1612 5000 -RA BKN015 OVC025=
201912160500 TAF LRSM 160500Z 1606/1615 14008KT 9999 BR SCT015 BKN040
                      PROB30 TEMPO 1607/1610 5000 -RA BR=
201912160800 TAF LRSM 160800Z 1609/1618 VRB04KT 9999 BKN035
                      BECMG 1610/1612 16010KT=
201912161100 TAF LRSM 161100Z 1612/1621 18008KT 9999 SCT040=
201912161400 TAF LRSM 161400Z 1615/1624 16006KT 9999 SCT045=
201912161700 TAF LRSM 161700Z 1618/1703 16006KT 9999 BKN045=
201912162000 TAF LRSM 162000Z NIL=
201912162300 TAF LRSM 162300Z NIL=
201912170200 TAF LRSM 170200Z 1703/1712 VRB04KT CAVOK=
201912170500 TAF LRSM 170500Z 1706/1715 15008KT CAVOK=
201912170800 TAF LRSM 170800Z 1709/1718 VRB04KT CAVOK
                      BECMG 1709/1711 15010KT=
201912171100 TAF LRSM 171100Z 1712/1721 17008KT CAVOK=
201912171400 TAF LRSM 171400Z 1715/1724 18008KT CAVOK=
201912171700 TAF LRSM 171700Z NIL=
201912172000 TAF LRSM 172000Z NIL=
201912172300 TAF LRSM 172300Z NIL=
201912180200 TAF LRSM 180200Z 1803/1812 VRB04KT CAVOK
                      BECMG 1807/1809 15010KT=
201912180500 TAF LRSM 180500Z 1806/1815 VRB04KT CAVOK=
201912180800 TAF LRSM 180800Z 1809/1818 VRB04KT CAVOK=
201912181100 TAF LRSM 181100Z 1812/1821 19008KT CAVOK=
201912181400 TAF LRSM 181400Z 1815/1824 19008KT CAVOK=
201912181700 TAF LRSM 181700Z NIL=
201912181751 TAF AMD LRSM 181751Z 1817/1824 CNL=
201912182000 TAF LRSM 182000Z NIL=
201912182300 TAF LRSM 182300Z NIL=
201912190200 TAF LRSM 190200Z 1903/1912 VRB04KT CAVOK
                      TEMPO 1903/1906 3000 BR=
201912190500 TAF LRSM 190500Z 1906/1915 VRB04KT CAVOK=
201912190800 TAF LRSM 190800Z 1909/1918 VRB04KT CAVOK=
201912191100 TAF LRSM 191100Z 1912/1921 VRB04KT CAVOK=
201912191400 TAF LRSM 191400Z 1915/1924 VRB04KT CAVOK=
201912191700 TAF LRSM 191700Z NIL=
201912192000 TAF LRSM 192000Z NIL=
201912192300 TAF LRSM 192300Z NIL=
201912200200 TAF LRSM 200200Z 2003/2012 15004KT 5000 BR BKN005
                      TEMPO 2003/2005 1500 BR BKN010
                      BECMG 2006/2008 16014KT CAVOK=
201912200500 TAF LRSM 200500Z 2006/2015 VRB04KT CAVOK
                      BECMG 2012/2014 15010KT=
201912200800 TAF LRSM 200800Z 2009/2018 VRB04KT CAVOK
                      BECMG 2012/2014 15010KT=
201912201100 TAF LRSM 201100Z 2012/2021 VRB04KT CAVOK
                      BECMG 2014/2016 15010KT=
201912201400 TAF LRSM 201400Z 2015/2024 VRB04KT CAVOK=
201912201700 TAF LRSM 201700Z NIL=
201912202000 TAF LRSM 202000Z NIL=
201912202300 TAF LRSM 202300Z NIL=
201912210200 TAF LRSM 210200Z NIL=
201912210500 TAF LRSM 210500Z NIL=
201912210800 TAF LRSM 210800Z NIL=
201912211100 TAF LRSM 211100Z NIL=
201912211400 TAF LRSM 211400Z NIL=
201912211700 TAF LRSM 211700Z NIL=
201912212000 TAF LRSM 212000Z NIL=
201912212300 TAF LRSM 212300Z NIL=
201912220200 TAF LRSM 220200Z 2203/2212 20010KT 9999 SCT040
                      TEMPO 2203/2206 5000 -SHRA SCT040CB
                      BECMG 2208/2210 13006KT=
201912220500 TAF LRSM 220500Z 2206/2215 20010KT 9999 SCT040
                      TEMPO 2206/2207 5000 -SHRA SCT030CB
                      BECMG 2210/2212 12007KT=
201912220800 TAF LRSM 220800Z 2209/2218 20010KT CAVOK
                      BECMG 2213/2215 12007KT=
201912221100 TAF LRSM 221100Z 2212/2221 VRB04KT CAVOK
                      BECMG 2216/2218 5000 -RA BR BKN015 BKN040
                       TEMPO 2218/2221 3000 -RA BR BKN010 OVC035=
201912221400 TAF LRSM 221400Z 2215/2224 11010KT CAVOK
                      BECMG 2216/2218 5000 RA BR BKN015 BKN040
                       TEMPO 2218/2224 3000 RA BR BKN010 OVC035=
201912221700 TAF LRSM 221700Z NIL=
201912222000 TAF LRSM 222000Z NIL=
201912222300 TAF LRSM 222300Z NIL=
201912230200 TAF LRSM 230200Z 2303/2312 11010KT 9999 BKN040
                      PROB40 TEMPO 2304/2308 5000 RA BR BKN015
                       BKN040=
201912230500 TAF LRSM 230500Z 2306/2315 10006KT 9999 BKN030
                      PROB40 TEMPO 2306/2308 5000 RA BR BKN010
                       BKN030
                      BECMG 2310/2312 30010KT=
201912230800 TAF LRSM 230800Z 2309/2318 VRB04KT 9999 BKN035
                      BECMG 2309/2311 30010KT
                      PROB40 TEMPO 2310/2318 3000 -RA BR BKN010
                       BKN030=
201912231100 TAF LRSM 231100Z 2312/2321 30008KT 9999 BKN035
                      PROB40 TEMPO 2312/2318 3000 -RA BR BKN010
                       BKN030=
201912231400 TAF LRSM 231400Z 2315/2324 31010KT 3000 RA BKN005 BKN035
                      BECMG 2318/2320 5000 -RA BKN010 BKN040=
201912231700 TAF LRSM 231700Z NIL=
201912232000 TAF LRSM 232000Z NIL=
201912232300 TAF LRSM 232300Z NIL=
201912240200 TAF LRSM 240200Z 2403/2412 35012KT 9999 -RA BKN015 OVC030
                      TEMPO 2406/2411 35015G25KT 3000 RA BKN010
                       OVC020=
201912240500 TAF LRSM 240500Z 2406/2415 33016KT 9999 -RA SCT015 OVC040
                      TEMPO 2408/2412 3000 RA BKN010 OVC030=
201912240800 TAF LRSM 240800Z 2409/2418 33016KT 9999 -RA SCT015 OVC040=
201912241100 TAF LRSM 241100Z 2412/2421 33012KT 9999 SCT040=
201912241400 TAF LRSM 241400Z 2415/2424 33012KT 9999 OVC040
                      BECMG 2420/2422 5000 -RA BR BKN010 OVC035=
201912241700 TAF LRSM 241700Z NIL=
201912242000 TAF LRSM 242000Z NIL=
201912242300 TAF LRSM 242300Z NIL=
201912250200 TAF LRSM 250200Z NIL=
201912250431 TAF LRSM 250431Z 2504/2512 30006KT CAVOK
                      TEMPO 2504/2509 5000 BR=
201912250500 TAF LRSM 250500Z 2506/2515 29006KT 9999 SCT045=
201912250800 TAF LRSM 250800Z 2509/2518 26006KT 9999 SCT045=
201912251100 TAF LRSM 251100Z 2512/2521 29006KT 9999 SCT045
                      BECMG 2516/2518 3000 BR BKN005=
201912251400 TAF LRSM 251400Z 2515/2524 28006KT 9999 SCT045
                      BECMG 2516/2518 3000 BR BKN005
                      PROB30 TEMPO 2519/2524 1500 -RADZ BR BKN002
                       OVC010=
201912251700 TAF LRSM 251700Z NIL=
201912251733 TAF AMD LRSM 251733Z 2517/2524 CNL=
201912252000 TAF LRSM 252000Z NIL=
201912252300 TAF LRSM 252300Z NIL=
201912260200 TAF LRSM 260200Z 2603/2612 29008KT 5000 BR SCT045
                      TEMPO 2603/2606 3000 BR
                      BECMG 2606/2608 9999 NSW=
201912260500 TAF LRSM 260500Z 2606/2615 30010KT 5000 BR BKN040
                      PROB30 TEMPO 2606/2608 3000 RA BKN015 OVC030
                       BECMG 2608/2610 9999 NSW=
201912260800 TAF LRSM 260800Z 2609/2618 30010KT 9999 BKN040=
201912261100 TAF LRSM 261100Z 2612/2621 32010KT 9999 BKN040=
201912261400 TAF LRSM 261400Z 2615/2624 32008KT 9999 BKN040=
201912261700 TAF LRSM 261700Z NIL=
201912262000 TAF LRSM 262000Z NIL=
201912262300 TAF LRSM 262300Z NIL=
201912270200 TAF LRSM 270200Z NIL=
201912270500 TAF LRSM 270500Z 2706/2715 31006KT CAVOK
                      TEMPO 2706/2710 5000 -SN BKN015 BKN035=
201912270800 TAF LRSM 270800Z 2709/2718 31006KT CAVOK
                      TEMPO 2709/2712 5000 -SN BKN015 BKN035=
201912271100 TAF LRSM 271100Z 2712/2721 28008KT 9999 BKN035
                      TEMPO 2712/2715 5000 -SN BKN015 BKN030=
201912271400 TAF LRSM 271400Z 2715/2724 30008KT 9999 BKN035
                      TEMPO 2715/2718 5000 -SN BKN015 BKN030=
201912271700 TAF LRSM 271700Z NIL=
201912272000 TAF LRSM 272000Z NIL=
201912272300 TAF LRSM 272300Z NIL=
201912280200 TAF LRSM 280200Z 2803/2812 33010KT 9999 -SN BKN035
                      TEMPO 2804/2808 5000 -SN BKN015 BKN030=
201912280500 TAF LRSM 280500Z NIL=
201912280800 TAF LRSM 280800Z NIL=
201912281100 TAF LRSM 281100Z NIL=
201912281400 TAF LRSM 281400Z NIL=
201912281700 TAF LRSM 281700Z NIL=
201912282000 TAF LRSM 282000Z NIL=
201912282300 TAF LRSM 282300Z NIL=
201912290200 TAF LRSM 290200Z 2903/2912 35012KT CAVOK=
201912290500 TAF LRSM 290500Z 2906/2915 35012KT CAVOK=
201912290800 TAF LRSM 290800Z 2909/2918 35012KT CAVOK=
201912291100 TAF LRSM 291100Z 2912/2921 01014KT CAVOK=
201912291400 TAF LRSM 291400Z 2915/2924 34012KT CAVOK
                      BECMG 2920/2922 VRB04KT=
201912291700 TAF LRSM 291700Z NIL=
201912292000 TAF LRSM 292000Z NIL=
201912292300 TAF LRSM 292300Z NIL=
201912300200 TAF LRSM 300200Z 3003/3012 VRB04KT CAVOK=
201912300500 TAF LRSM 300500Z 3006/3015 VRB04KT CAVOK=
201912300800 TAF LRSM 300800Z 3009/3018 VRB04KT CAVOK=
201912301100 TAF LRSM 301100Z 3012/3021 VRB04KT CAVOK=
201912301400 TAF LRSM 301400Z 3015/3024 VRB04KT CAVOK
                      BECMG 3020/3022=
201912301601 TAF COR LRSM 301601Z 3015/3024 VRB04KT CAVOK=
201912301700 TAF LRSM 301700Z NIL=
201912302000 TAF LRSM 302000Z NIL=
201912302300 TAF LRSM 302300Z NIL=
201912310200 TAF LRSM 310200Z 3103/3112 VRB04KT CAVOK=
201912310500 TAF LRSM 310500Z 3106/3115 VRB04KT 9999 SCT035
                      PROB40 TEMPO 3106/3109 5000 -SN
                      BECMG 3109/3111 22010KT=
201912310800 TAF LRSM 310800Z 3109/3118 VRB04KT CAVOK
                      BECMG 3109/3111 22010KT=
201912311100 TAF LRSM 311100Z 3112/3121 24007KT CAVOK=
201912311400 TAF LRSM 311400Z 3115/3124 VRB04KT CAVOK
                      BECMG 3119/3121 3000 BR=
201912311700 TAF LRSM 311700Z NIL=
201912312000 TAF LRSM 312000Z NIL=
201912312300 TAF LRSM 312300Z NIL=
