201812010200 TAF LRSV 010200Z 0103/0112 VRB04KT CAVOK=
201812010500 TAF LRSV 010500Z 0106/0115 VRB04KT CAVOK=
201812010800 TAF LRSV 010800Z 0109/0118 VRB04KT CAVOK=
201812011100 TAF LRSV 011100Z 0112/0121 VRB04KT CAVOK
                      BECMG 0115/0117 3000 BR
                      TEMPO 0118/0121 1500 BR=
201812011400 TAF LRSV 011400Z 0115/0124 VRB04KT CAVOK
                      BECMG 0118/0120 3000 BR
                      TEMPO 0120/0124 1500 BR=
201812011700 TAF LRSV 011700Z 0118/0203 25004KT CAVOK
                      BECMG 0123/0201 3000 BR
                      BECMG 0201/0203 1500 BR=
201812012000 TAF LRSV 012000Z 0121/0206 25004KT CAVOK
                      BECMG 0200/0202 3000 BR
                      BECMG 0202/0204 1500 BR BKN005=
201812012300 TAF LRSV 012300Z 0200/0209 25004KT CAVOK
                      BECMG 0201/0203 3000 BR
                      TEMPO 0204/0209 1500 BR BKN005=
201812020200 TAF LRSV 020200Z 0203/0212 26008KT CAVOK
                      PROB40 TEMPO 0204/0209 3000 BR BKN010=
201812020500 TAF LRSV 020500Z 0206/0215 VRB04KT CAVOK
                      BECMG 0213/0215 5000 BR=
201812020800 TAF LRSV 020800Z 0209/0218 VRB04KT CAVOK
                      BECMG 0213/0215 5000 BR
                      BECMG 0216/0218 3000 BR BKN010=
201812021100 TAF LRSV 021100Z 0212/0221 21006KT CAVOK
                      BECMG 0215/0217 5000 BR
                      BECMG 0217/0219 3000 BR BKN010
                      PROB30 TEMPO 0219/0221 0800 FZFG VV002=
201812021400 TAF LRSV 021400Z 0215/0224 21006KT CAVOK
                      BECMG 0217/0219 5000 BR
                      BECMG 0219/0221 3000 BR BKN010
                      PROB40 TEMPO 0222/0224 0800 FZFG VV002=
201812021700 TAF LRSV 021700Z 0218/0303 21006KT CAVOK
                      BECMG 0222/0224 5000 BR
                      TEMPO 0300/0303 1500 BR=
201812022000 TAF LRSV 022000Z 0221/0306 23008KT CAVOK
                      BECMG 0223/0301 5000 BR
                      TEMPO 0301/0306 1500 BR=
201812022300 TAF LRSV 022300Z 0300/0309 22007KT CAVOK
                      BECMG 0300/0302 5000 BR
                      TEMPO 0302/0306 3000 BR
                      BECMG 0307/0309 9999 NSW=
201812030200 TAF LRSV 030200Z 0303/0312 22007KT CAVOK
                      TEMPO 0303/0306 5000 BR=
201812030500 TAF LRSV 030500Z 0306/0315 21007KT CAVOK=
201812030800 TAF LRSV 030800Z 0309/0318 23008KT CAVOK=
201812031100 TAF LRSV 031100Z 0312/0321 23008KT CAVOK
                      TEMPO 0312/0315 5000 -RA -RASN SCT010 BKN040
                       PROB30 0312/0315 -FZRA
                      BECMG 0319/0321 3000 BR BKN010=
201812031400 TAF LRSV 031400Z 0315/0324 23008KT CAVOK
                      BECMG 0316/0318 5000 BR
                      BECMG 0319/0321 1500 BR BKN010
                      BECMG 0322/0324 0600 FZFG OVC002=
201812031700 TAF LRSV 031700Z 0318/0403 23008KT 5000 BR NSC
                      BECMG 0319/0321 1500 BR BKN005
                      BECMG 0322/0324 0600 FZFG OVC002
                      TEMPO 0400/0403 0150=
201812032000 TAF LRSV 032000Z 0321/0406 22006KT 5000 BR NSC
                      BECMG 0322/0324 1500 BR BKN005
                      PROB30 TEMPO 0400/0406 0600 FZFG VV002=
201812032300 TAF LRSV 032300Z 0400/0409 24008KT 7000 NSC
                      TEMPO 0400/0406 1500 BR BKN005=
201812040200 TAF LRSV 040200Z 0403/0412 24008KT 7000 NSC
                      TEMPO 0403/0406 1500 BR BKN005=
201812040500 TAF LRSV 040500Z 0406/0415 24007KT 3000 BR NSC
                      BECMG 0406/0408 CAVOK=
201812040800 TAF LRSV 040800Z 0409/0418 22006KT 3000 BR NSC
                      TEMPO 0411/0415 7000 NSW
                      BECMG 0416/0418 1500 BR BKN005=
201812041100 TAF LRSV 041100Z 0412/0421 VRB04KT 3000 BR NSC
                      TEMPO 0412/0414 5000
                      BECMG 0419/0421 1500 -FZRA BR BKN005 BKN020=
201812041400 TAF LRSV 041400Z 0415/0424 VRB04KT 3000 BR NSC
                      TEMPO 0415/0419 1500 BR BKN005
                      BECMG 0419/0421 1500 -FZRA BR BKN005 BKN020=
201812041700 TAF LRSV 041700Z 0418/0503 VRB04KT 3000 BR NSC
                      BECMG 0419/0421 1500 -FZRA BR BKN005 OVC020
                       BECMG 0423/0501 33012KT 3000 -RA BR BKN010
                       BKN025=
201812042000 TAF LRSV 042000Z 0421/0506 VRB04KT 3000 BR NSC
                      TEMPO 0421/0424 1500 -FZRA BR BKN010 OVC020
                       BECMG 0500/0502 33014KT 1500 RA BR BKN005
                       OVC030=
201812042300 TAF LRSV 042300Z 0500/0509 VRB04KT 1500 -FZRA BR BKN015 OVC035
                       BECMG 0501/0503 34014KT 3000 -RA BR BKN010
                       OVC030
                      TEMPO 0503/0507 34015G25KT 1500 RA BR=
201812050200 TAF LRSV 050200Z 0503/0512 34012KT 9999 BKN015 OVC035
                      TEMPO 0503/0508 34015G25KT 5000 -RA BR BKN010
                       OVC025=
201812050500 TAF LRSV 050500Z 0506/0515 33020KT 5000 -RASN BKN010 OVC040
                      TEMPO 0506/0510 34020G30KT
                      BECMG 0510/0512 9999 NSW BKN020 BKN040=
201812050800 TAF LRSV 050800Z 0509/0518 32016KT 9999 BKN015 OVC030
                      BECMG 0510/0512 BKN020 BKN040=
201812051100 TAF LRSV 051100Z 0512/0521 32018KT 9999 BKN040
                      TEMPO 0514/0518 5000 -SN BKN015 OVC035=
201812051400 TAF LRSV 051400Z 0515/0524 32016KT 9999 BKN035
                      BECMG 0520/0522 BKN010 OVC025=
201812051700 TAF LRSV 051700Z 0518/0603 32012KT 9999 BKN040
                      TEMPO 0521/0603 3000 BR BKN010 OVC030=
201812052000 TAF LRSV 052000Z 0521/0606 32012KT 9999 BKN040
                      PROB30 TEMPO 0523/0606 3000 BR BKN010 OVC035=
201812052300 TAF LRSV 052300Z 0600/0609 32014KT 9999 BKN040
                      PROB30 TEMPO 0602/0606 3000 BR BKN010 OVC035=
201812060200 TAF LRSV 060200Z 0603/0612 32012KT 9999 BKN040=
201812060500 TAF LRSV 060500Z 0606/0615 31008KT 9999 BKN040=
201812060800 TAF LRSV 060800Z 0609/0618 31008KT 9999 BKN040=
201812061100 TAF LRSV 061100Z 0612/0621 33008KT CAVOK=
201812061400 TAF LRSV 061400Z 0615/0624 34010KT CAVOK
                      BECMG 0619/0621 VRB04KT
                      TEMPO 0621/0624 3000 BR=
201812061700 TAF LRSV 061700Z 0618/0703 VRB04KT CAVOK
                      TEMPO 0700/0703 3000 BR=
201812062000 TAF LRSV 062000Z 0621/0706 VRB04KT CAVOK
                      TEMPO 0623/0703 3000 BR=
201812062300 TAF LRSV 062300Z 0700/0709 VRB04KT CAVOK
                      TEMPO 0700/0703 3000 BR=
201812070200 TAF LRSV 070200Z 0703/0712 22005KT CAVOK
                      PROB40 TEMPO 0703/0706 3000 BR=
201812070500 TAF LRSV 070500Z 0706/0715 22006KT CAVOK=
201812070800 TAF LRSV 070800Z 0709/0718 22006KT CAVOK
                      PROB30 TEMPO 0709/0712 5000 -SN BR BKN010
                       BKN040=
201812071100 TAF LRSV 071100Z 0712/0721 22008KT 9999 BKN040=
201812071400 TAF LRSV 071400Z 0715/0724 VRB04KT 9999 BKN040=
201812071700 TAF LRSV 071700Z 0718/0803 VRB04KT 7000 NSC=
201812072000 TAF LRSV 072000Z 0721/0806 21006KT CAVOK
                      PROB40 TEMPO 0804/0806 -FZRA=
201812072300 TAF LRSV 072300Z 0800/0809 20006KT CAVOK
                      PROB40 TEMPO 0804/0806 -FZRA=
201812080200 TAF LRSV 080200Z 0803/0812 21006KT CAVOK
                      PROB40 TEMPO 0804/0806 -FZRA=
201812080500 TAF LRSV 080500Z 0806/0815 24010KT 9999 BKN045
                      TEMPO 0806/0811 5000 -RA BR
                      PROB40 0806/0808 -FZRA BKN015 BKN040=
201812080800 TAF LRSV 080800Z 0809/0818 24008KT CAVOK
                      BECMG 0814/0816 5000 -RA BR BKN015 BKN040
                       TEMPO 0816/0818 3000 -FZRA BR BKN010 OVC030=
201812081100 TAF LRSV 081100Z 0812/0821 22006KT CAVOK
                      BECMG 0814/0816 5000 -RA BR BKN015 BKN040
                       TEMPO 0816/0821 3000 -FZRA BR BKN010 OVC030=
201812081400 TAF LRSV 081400Z 0815/0824 24006KT 7000 -RA BKN045
                      TEMPO 0817/0822 3000 -FZRA BR BKN010 OVC035
                       BECMG 0822/0824 3000 -SN BR BKN005 OVC025=
201812081700 TAF LRSV 081700Z 0818/0903 24006KT 1500 -RA BR BKN035
                      TEMPO 0818/0822 0600 -FZRA FZFG BKN002 OVC035
                       BECMG 0822/0824 1500 -SN BR BKN005 OVC025=
201812082000 TAF LRSV 082000Z 0821/0906 35008KT 5000 -RA BR BKN010 BKN035
                      PROB30 TEMPO 0821/0823 1500 -FZRA BR BKN005
                       OVC035
                      TEMPO 0823/0903 1500 -RASN BR BKN002 OVC025=
201812082300 TAF LRSV 082300Z 0900/0909 35008KT 9999 SCT010 BKN035
                      TEMPO 0901/0905 5000 -RA BR BKN005 OVC020=
201812090200 TAF LRSV 090200Z 0903/0912 26005KT 9999 BKN035
                      TEMPO 0903/0905 5000 -RA BR BKN005 OVC020=
201812090500 TAF LRSV 090500Z 0906/0915 26005KT 9999 BKN035=
201812090800 TAF LRSV 090800Z 0909/0918 22005KT CAVOK=
201812091100 TAF LRSV 091100Z 0912/0921 19005KT CAVOK=
201812091400 TAF LRSV 091400Z 0915/0924 19005KT CAVOK=
201812091700 TAF LRSV 091700Z 0918/1003 21004KT CAVOK
                      TEMPO 1000/1003 3000 BR=
201812092000 TAF LRSV 092000Z 0921/1006 22006KT CAVOK
                      TEMPO 1000/1005 3000 BR=
201812092300 TAF LRSV 092300Z 1000/1009 21006KT CAVOK
                      TEMPO 1001/1005 3000 BR=
201812100200 TAF LRSV 100200Z 1003/1012 22006KT CAVOK
                      TEMPO 1004/1006 5000 BR=
201812100500 TAF LRSV 100500Z 1006/1015 22006KT CAVOK=
201812100800 TAF LRSV 100800Z 1009/1018 24006KT CAVOK
                      PROB30 TEMPO 1015/1018 5000 -RASN BKN010
                       BKN045=
201812101100 TAF LRSV 101100Z 1012/1021 24006KT CAVOK
                      PROB30 TEMPO 1016/1021 5000 -RASN BKN010
                       BKN045=
201812101400 TAF LRSV 101400Z 1015/1024 34008KT 9999 BKN040
                      PROB30 TEMPO 1018/1021 5000 -RASN BKN010
                       BKN035=
201812101700 TAF LRSV 101700Z 1018/1103 34008KT 9999 BKN045
                      PROB30 TEMPO 1018/1020 5000 -RA BKN025 BKN035=
201812101827 TAF COR LRSV 101827Z 1018/1103 34008KT 9999 BKN035
                      PROB30 TEMPO 1018/1020 5000 -RA=
201812102000 TAF LRSV 102000Z 1021/1106 32006KT 9999 BKN035=
201812102300 TAF LRSV 102300Z 1100/1109 32007KT 9999 SCT040=
201812110200 TAF LRSV 110200Z 1103/1112 32007KT 9999 SCT040=
201812110500 TAF LRSV 110500Z 1106/1115 31008KT 9999 BKN045=
201812110800 TAF LRSV 110800Z 1109/1118 31008KT CAVOK
                      BECMG 1116/1118 3000 BR BKN005=
201812111100 TAF LRSV 111100Z 1112/1121 33008KT CAVOK
                      BECMG 1116/1118 3000 BR BKN005
                      BECMG 1118/1120 1500 BR OVC002=
201812111400 TAF LRSV 111400Z 1115/1124 33008KT CAVOK
                      BECMG 1117/1119 3000 BR BKN005
                      BECMG 1119/1121 1500 BR OVC002=
201812111700 TAF LRSV 111700Z 1118/1203 VRB04KT CAVOK
                      TEMPO 1123/1203 3000 BR=
201812112000 TAF LRSV 112000Z 1121/1206 VRB04KT CAVOK
                      TEMPO 1200/1206 3000 BR=
201812112300 TAF LRSV 112300Z 1200/1209 VRB04KT CAVOK
                      TEMPO 1200/1206 3000 BR=
201812120200 TAF LRSV 120200Z 1203/1212 VRB04KT CAVOK
                      PROB30 TEMPO 1203/1206 5000 BR=
201812120500 TAF LRSV 120500Z 1206/1215 32008KT CAVOK=
201812120800 TAF LRSV 120800Z 1209/1218 VRB04KT CAVOK
                      BECMG 1209/1211 31012KT=
201812121100 TAF LRSV 121100Z 1212/1221 31012KT CAVOK
                      BECMG 1218/1220 5000 BR BKN010=
201812121400 TAF LRSV 121400Z 1215/1224 30012KT CAVOK
                      TEMPO 1221/1224 5000 -SN BR BKN015 BKN040=
201812121700 TAF LRSV 121700Z 1218/1303 31010KT CAVOK
                      BECMG 1220/1222 5000 BR BKN010 BKN030
                      TEMPO 1223/1303 3000 -SN BR BKN005 BKN025=
201812122000 TAF LRSV 122000Z 1221/1306 31010KT CAVOK
                      BECMG 1222/1224 5000 -SN BR BKN010 BKN030
                       TEMPO 1301/1306 3000 -SN BR BKN005 BKN025=
201812122300 TAF LRSV 122300Z 1300/1309 31012KT 9999 -SN BR BKN045
                      TEMPO 1300/1305 3000 -SN BR BKN010 BKN020=
201812130200 TAF LRSV 130200Z 1303/1312 31012KT 7000 BKN020
                      TEMPO 1303/1309 5000 -SN BR BKN010 BKN020=
201812130500 TAF LRSV 130500Z 1306/1315 30015KT 7000 -SN SCT015 BKN030
                      TEMPO 1306/1311 30016G26KT 3000 BLSN SN BKN010
                       OVC025=
201812130800 TAF LRSV 130800Z 1309/1318 30015KT 7000 -SN SCT015 BKN030
                      TEMPO 1309/1312 30017G27KT 3000 BLSN SN BKN010
                       OVC025=
201812131100 TAF LRSV 131100Z 1312/1321 30016KT 5000 -SN BR SCT015 BKN030
                      TEMPO 1312/1315 3000 SN BKN010 OVC025
                      BECMG 1316/1318 BKN010 OVC030=
201812131400 TAF LRSV 131400Z 1315/1324 30012KT 8000 -SN SCT010 BKN035
                      TEMPO 1315/1318 5000 -SN BR BKN010 OVC025
                       BECMG 1318/1320 5000 BR BKN010 OVC030=
201812131700 TAF LRSV 131700Z 1318/1403 30012KT 8000 -SN SCT015 BKN040
                      BECMG 1319/1321 5000 BR BKN010 OVC030
                      PROB30 TEMPO 1321/1403 3000 -SN BR BKN005
                       OVC025=
201812132000 TAF LRSV 132000Z 1321/1406 30012KT 8000 -SN SCT010 BKN030
                      PROB30 TEMPO 1321/1406 5000 -SN BR BKN005
                       OVC025=
201812132300 TAF LRSV 132300Z 1400/1409 31010KT 9999 SCT015 BKN035
                      TEMPO 1400/1406 5000 -SN BR BKN010 BKN030=
201812140200 TAF LRSV 140200Z 1403/1412 31010KT 9999 BKN015 BKN035
                      TEMPO 1403/1407 5000 -SN BKN010 BKN030=
201812140500 TAF LRSV 140500Z 1406/1415 32010KT 9999 BKN015 BKN035
                      TEMPO 1406/1409 5000 -SN BKN010 BKN030=
201812140800 TAF LRSV 140800Z 1409/1418 33008KT 9999 BKN025
                      TEMPO 1409/1412 5000 -SN BKN010 BKN030=
201812141100 TAF LRSV 141100Z 1412/1421 32008KT 9999 BKN030=
201812141400 TAF LRSV 141400Z 1415/1424 32008KT 9999 BKN030
                      PROB30 TEMPO 1415/1418 5000 -SN BKN015 BKN030=
201812141700 TAF LRSV 141700Z 1418/1503 32010KT 9999 BKN040
                      BECMG 1420/1422 VRB04KT
                      PROB30 TEMPO 1501/1503 5000 -SN BKN015 BKN030=
201812142000 TAF LRSV 142000Z 1421/1506 VRB04KT 9999 BKN040
                      TEMPO 1422/1506 BKN010 BKN040
                      PROB30 TEMPO 1503/1506 5000 -SN BKN005 BKN030=
201812142300 TAF LRSV 142300Z 1500/1509 VRB04KT 9999 BKN035
                      BECMG 1501/1503 BKN010 BKN035
                      PROB40 TEMPO 1505/1509 09010KT 5000 -SN BR
                       BKN005 BKN030=
201812150200 TAF LRSV 150200Z 1503/1512 VRB04KT 8000 SCT020 BKN035
                      BECMG 1507/1509 10010KT 5000 -SN BKN010 BKN020
                       TEMPO 1509/1512 3000 -SN BR BKN005 OVC025=
201812150500 TAF LRSV 150500Z 1506/1515 VRB04KT 9999 SCT020 BKN035
                      BECMG 1507/1509 10010KT 5000 -SN BR BKN015
                       BKN020
                      TEMPO 1510/1515 3000 -SN BR BKN005 OVC025=
201812150800 TAF LRSV 150800Z 1509/1518 VRB04KT 3000 -SN BR BKN015 BKN035
                      TEMPO 1510/1515 1500 -SN BR BKN005 OVC025=
201812151100 TAF LRSV 151100Z 1512/1521 VRB04KT 3000 -SN BR BKN015 BKN035
                      TEMPO 1512/1517 1500 -SN BR BKN005 OVC025=
201812151400 TAF LRSV 151400Z 1515/1524 11010KT 0800 -SN FZFG BKN003 OVC015
                       TEMPO 1515/1518 0350 -SN FZFG VV002=
201812151700 TAF LRSV 151700Z 1518/1603 11010KT 1500 -SN BR BKN005 OVC020
                      TEMPO 1518/1522 0600 SN VV002=
201812152000 TAF LRSV 152000Z 1521/1606 11010KT 3000 -SN BR BKN005 OVC030
                      TEMPO 1521/1524 0800 SN BKN002 OVC020=
201812152300 TAF LRSV 152300Z 1600/1609 11010KT 3000 -SN BR BKN005 OVC030
                      TEMPO 1600/1605 0800 SN BKN002 OVC020=
201812160200 TAF LRSV 160200Z 1603/1612 11012KT 1500 -SN BR BKN005 OVC020
                      TEMPO 1603/1607 0800 SN BKN002 OVC015
                      BECMG 1609/1611 5000 BKN010 OVC025=
201812160500 TAF LRSV 160500Z 1606/1615 12012KT 1500 SN BR BKN005 OVC020
                      PROB40 TEMPO 1606/1610 0800 +SN VV002
                      BECMG 1610/1612 5000 BKN010 OVC025=
201812160800 TAF LRSV 160800Z 1609/1618 10010KT 1500 SN BR BKN003 OVC020
                      BECMG 1610/1612 3000 -SN BR BKN010 OVC025=
201812161100 TAF LRSV 161100Z 1612/1621 11010KT 0800 -SN FZFG BKN002
                      TEMPO 1612/1615 0350 -SN FZFG OVC001=
201812161400 TAF LRSV 161400Z 1615/1624 11012KT 1500 -SN BR BKN002 OVC020
                      TEMPO 1615/1618 0600 -SN FZFG OVC001=
201812161700 TAF LRSV 161700Z 1618/1703 11010KT 3000 BR BKN010
                      PROB30 TEMPO 1618/1623 1500 -SN BR BKN002
                       OVC010=
201812161907 TAF AMD LRSV 161907Z 1619/1703 11010KT 0350 FZFG VV002
                      PROB30 TEMPO 1619/1623 0800 -SN FZFG BKN002
                       OVC010=
201812162000 TAF LRSV 162000Z 1621/1706 11010KT 0150 FZFG VV001
                      PROB30 TEMPO 1621/1624 0600 -SN FZFG BKN002
                       OVC010=
201812162300 TAF LRSV 162300Z 1700/1709 11010KT 0150 FZFG VV001
                      BECMG 1706/1708 0600 FZFG OVC002=
201812170200 TAF LRSV 170200Z 1703/1712 11010KT 0150 FZFG VV001
                      TEMPO 1703/1708 0600 -SN FZFG OVC002=
201812170500 TAF LRSV 170500Z 1706/1715 12010KT 0100 FZFG VV001
                      BECMG 1707/1709 0600 VV002
                      PROB30 TEMPO 1711/1715 1500 BR BKN005=
201812170800 TAF LRSV 170800Z 1709/1718 12010KT 0150 FZFG VV001
                      TEMPO 1709/1714 0600 -SN FZFG VV002
                      BECMG 1714/1716 1500 -SN BR BKN002 OVC005=
201812171100 TAF LRSV 171100Z 1712/1721 12010KT 0150 FZFG VV001
                      TEMPO 1712/1714 0800 VV002
                      BECMG 1714/1716 1500 BR BKN002 OVC005
                      TEMPO 1716/1721 0800 -SN FZFG OVC002=
201812171400 TAF LRSV 171400Z 1715/1724 10010KT 0150 FZFG VV001
                      BECMG 1715/1717 1500 BR BKN002 OVC005
                      TEMPO 1718/1724 0800 -SN FZFG OVC002=
201812171700 TAF LRSV 171700Z 1718/1803 09008KT 0150 FZFG VV001
                      TEMPO 1718/1724 0350 -SN FZFG OVC002
                      BECMG 1800/1802 SN FZFG=
201812171934 TAF AMD LRSV 171934Z 1719/1803 08008KT 1500 -SN BR OVC002
                      TEMPO 1720/1724 0600 SN FZFG VV001
                      BECMG 1800/1802 0600 SN FZFG VV001=
201812172000 TAF LRSV 172000Z 1721/1806 08008KT 1500 -SN BR BKN002
                      TEMPO 1721/1724 0800 SN FZFG VV001
                      BECMG 1800/1802 0600 SN FZFG VV001=
201812172300 TAF LRSV 172300Z 1800/1809 36007KT 1500 -SN BR BKN010
                      BECMG 1802/1804 0800 SN FZFG OVC002
                      PROB30 TEMPO 1805/1809 0350 SN=
201812180200 TAF LRSV 180200Z 1803/1812 36007KT 3000 -SN BR BKN010
                      BECMG 1803/1805 0800 SN FZFG OVC002
                      PROB30 TEMPO 1805/1809 0350 SN=
201812180500 TAF LRSV 180500Z 1806/1815 36006KT 3000 -SN BR SCT010 BKN025
                      TEMPO 1806/1809 1500 SN BR BKN005 OVC020
                       TEMPO 1812/1815 1500 SN BR OVC005=
201812180800 TAF LRSV 180800Z 1809/1818 36006KT 3000 -SN BR BKN020 BKN035
                      TEMPO 1809/1812 1500 SN BR BKN010 OVC020=
201812181100 TAF LRSV 181100Z 1812/1821 36006KT 3000 -SN BR BKN020 BKN035
                      TEMPO 1812/1814 1500 SN BR BKN010 OVC020=
201812181400 TAF LRSV 181400Z 1815/1824 36006KT 5000 BR BKN035
                      BECMG 1818/1820 1500 BR BKN010 OVC020=
201812181700 TAF LRSV 181700Z 1818/1903 35006KT 3000 BR BKN005 BKN030
                      TEMPO 1900/1903 1500 BR BKN002 OVC020=
201812182000 TAF LRSV 182000Z 1821/1906 35006KT 3000 -SN BR BKN005 BKN030
                      BECMG 1822/1824 1500 BR=
201812182300 TAF LRSV 182300Z 1900/1909 34008KT 3000 BR OVC005
                      TEMPO 1900/1905 1500 BR BKN002 OVC005=
201812190200 TAF LRSV 190200Z 1903/1912 34008KT 0800 -SN FZFG OVC002
                      TEMPO 1903/1905 0350 -SN FZFG VV001
                      BECMG 1905/1907 1500 BR BKN005
                      BECMG 1907/1909 3000 BR BKN010=
201812190500 TAF LRSV 190500Z 1906/1915 34006KT 0350 FZFG VV001
                      BECMG 1908/1910 0800 OVC002
                      BECMG 1910/1912 3000 BR BKN005
                      TEMPO 1912/1915 5000 BKN010=
201812190645 TAF AMD LRSV 190645Z 1906/1915 34006KT 2000 BR BKN002
                      BECMG 1908/1910 5000 BKN010
                      TEMPO 1910/1914 9999 NSW BKN025=
201812190800 TAF LRSV 190800Z 1909/1918 35006KT 3000 BR BKN005
                      TEMPO 1910/1914 7000 NSW BKN015=
201812191100 TAF LRSV 191100Z 1912/1921 03006KT 3000 BR OVC005
                      TEMPO 1912/1915 5000 OVC015=
201812191400 TAF LRSV 191400Z 1915/1924 03006KT 3000 BR BKN005
                      TEMPO 1915/1917 5000 SCT005=
201812191700 TAF LRSV 191700Z 1918/2003 VRB04KT 3000 BR BKN005
                      TEMPO 1918/1921 5000 BKN010
                      TEMPO 2000/2003 1500 BR BKN002=
201812192000 TAF LRSV 192000Z 1921/2006 VRB04KT 5000 BR OVC005
                      TEMPO 2000/2005 1500 BR OVC002=
201812192216 TAF AMD LRSV 192216Z 1922/2006 VRB04KT 0600 FZFG VV002
                      TEMPO 2000/2005 0350 FZFG VV001=
201812192300 TAF LRSV 192300Z 2000/2009 VRB04KT 0100 FZFG VV001
                      BECMG 2006/2008 0600 BKN002=
201812200200 TAF LRSV 200200Z 2003/2012 VRB04KT 0100 FZFG VV001
                      BECMG 2006/2008 0600 BKN002
                      BECMG 2008/2010 1500 BR BKN005
                      BECMG 2010/2012 5000 BKN015=
201812200500 TAF LRSV 200500Z 2006/2015 VRB04KT 0100 FZFG VV001
                      BECMG 2006/2008 0600 BKN002
                      BECMG 2008/2010 1500 BR BKN005
                      TEMPO 2010/2014 5000 BKN015=
201812200800 TAF LRSV 200800Z 2009/2018 14010KT 0300 FZFG VV001
                      BECMG 2009/2011 0600 BKN002
                      BECMG 2011/2012 1500 BR BKN005
                      TEMPO 2012/2014 5000 BKN015
                      BECMG 2014/2016 0600 FZFG BKN002
                      BECMG 2016/2018 0150=
201812201100 TAF LRSV 201100Z 2012/2021 14008KT 0200 FZFG VV001
                      TEMPO 2012/2015 0600 BKN002=
201812201400 TAF LRSV 201400Z 2015/2024 14008KT 0300 FZFG VV001
                      TEMPO 2015/2017 0600 OVC002
                      BECMG 2017/2019 0150 FZFG=
201812201700 TAF LRSV 201700Z 2018/2103 14008KT 0150 FZFG VV001
                      TEMPO 2018/2020 0600 OVC002=
201812202000 TAF LRSV 202000Z 2021/2106 19006KT 0350 FZFG VV001
                      TEMPO 2021/2024 0800 OVC002=
201812202300 TAF LRSV 202300Z 2100/2109 19006KT 0150 FZFG VV001
                      TEMPO 2100/2103 0600 VV001=
201812210200 TAF LRSV 210200Z 2103/2112 VRB04KT 1500 BR BKN002
                      TEMPO 2103/2107 0600 FZFG VV001=
201812210500 TAF LRSV 210500Z 2106/2115 VRB04KT 5000 BR SCT005
                      TEMPO 2106/2108 25010KT 3000 BR BKN005
                      BECMG 2108/2110 8000 NSW=
201812210800 TAF LRSV 210800Z 2109/2118 22006KT 7000 SCT005 SCT035
                      TEMPO 2109/2111 5000 BR BKN005=
201812211100 TAF LRSV 211100Z 2112/2121 25006KT CAVOK
                      BECMG 2116/2118 5000 BR
                      TEMPO 2119/2121 3000 BR BKN005=
201812211400 TAF LRSV 211400Z 2115/2124 25006KT 5000 BR SCT005 SCT035
                      BECMG 2116/2118 3000 BR
                      TEMPO 2120/2124 1500 BR BKN005=
201812211700 TAF LRSV 211700Z 2118/2203 25008KT 5000 BR SCT005 SCT035
                      TEMPO 2120/2124 3000 BR BKN005
                      PROB40 TEMPO 2200/2203 1500 -FZRA BR=
201812212000 TAF LRSV 212000Z 2121/2206 25010KT CAVOK
                      BECMG 2123/2201 3000 BR BKN010
                      PROB40 TEMPO 2202/2206 1500 -FZRA BR BKN005=
201812212300 TAF LRSV 212300Z 2200/2209 22008KT 5000 BR SCT035
                      TEMPO 2200/2202 3000 BR BKN010
                      PROB40 TEMPO 2202/2206 1500 -FZRA BR BKN005
                       OVC020
                      BECMG 2207/2209 9999 NSW=
201812220200 TAF LRSV 220200Z 2203/2212 18006KT CAVOK
                      PROB40 TEMPO 2203/2207 3000 -FZRA BR BKN010
                       BKN040=
201812220500 TAF LRSV 220500Z 2206/2215 22006KT CAVOK=
201812220800 TAF LRSV 220800Z 2209/2218 22006KT CAVOK=
201812221100 TAF LRSV 221100Z 2212/2221 22006KT CAVOK=
201812221400 TAF LRSV 221400Z 2215/2224 22006KT CAVOK=
201812221700 TAF LRSV 221700Z 2218/2303 23007KT CAVOK
                      TEMPO 2222/2303 5000 -RA BR=
201812222000 TAF LRSV 222000Z 2221/2306 23007KT CAVOK
                      TEMPO 2223/2303 5000 RA BR
                      BECMG 2300/2302 30010KT=
201812222300 TAF LRSV 222300Z 2300/2309 31010KT 9999 SCT035
                      TEMPO 2300/2303 25007KT 5000 RA BR=
201812230200 TAF LRSV 230200Z 2303/2312 31014KT 9999 BKN035
                      PROB40 TEMPO 2303/2307 31015G25KT=
201812230500 TAF LRSV 230500Z 2306/2315 31016KT 9999 BKN045
                      TEMPO 2306/2310 31020G30KT=
201812230800 TAF LRSV 230800Z 2309/2318 31012KT CAVOK
                      TEMPO 2309/2312 31015G25KT
                      BECMG 2316/2318 VRB04KT=
201812231100 TAF LRSV 231100Z 2312/2321 33014KT CAVOK
                      BECMG 2316/2318 VRB04KT=
201812231400 TAF LRSV 231400Z 2315/2324 33016KT CAVOK
                      BECMG 2317/2319 VRB04KT=
201812231700 TAF LRSV 231700Z 2318/2403 VRB04KT 9999 SCT035=
201812232000 TAF LRSV 232000Z 2321/2406 VRB04KT CAVOK=
201812232300 TAF LRSV 232300Z 2400/2409 20007KT CAVOK=
201812240200 TAF LRSV 240200Z 2403/2412 20008KT CAVOK=
201812240500 TAF LRSV 240500Z 2406/2415 VRB04KT CAVOK
                      TEMPO 2407/2410 5000 -RA BR BKN015 OVC030
                       BECMG 2410/2412 3000 RASN SN BKN010 OVC020
                       TEMPO 2412/2415 1500 SN BKN005 OVC020=
201812240800 TAF LRSV 240800Z 2409/2418 21008KT 9999 -RA BKN045
                      BECMG 2410/2412 3000 RASN SN BKN010 OVC020
                       BECMG 2412/2414 33016KT
                      TEMPO 2412/2418 1500 SN BKN005 OVC020=
201812241100 TAF LRSV 241100Z 2412/2421 20006KT 5000 RASN BKN015 BKN045
                      BECMG 2412/2414 33016KT
                      TEMPO 2412/2418 1500 SN BKN005 OVC020
                      BECMG 2418/2420 35020KT 7000 BKN025=
201812241400 TAF LRSV 241400Z 2415/2424 33016KT 1500 SN BKN005 BKN025
                      BECMG 2416/2418 5000 -SN BKN015 BKN030=
201812241700 TAF LRSV 241700Z 2418/2503 33020KT 9999 BKN010 BKN025
                      TEMPO 2418/2421 32030G40KT=
201812242000 TAF LRSV 242000Z 2421/2506 33020KT 9999 SCT015 BKN025
                      TEMPO 2421/2424 32030G40KT=
201812242300 TAF LRSV 242300Z 2500/2509 33016KT 9999 SCT015 BKN025
                      TEMPO 2500/2503 32025G35KT 3000 SN BKN010
                       OVC020=
201812250200 TAF LRSV 250200Z 2503/2512 33016KT 9999 SCT015 BKN030
                      TEMPO 2503/2506 5000 -SN=
201812250438 TAF AMD LRSV 250438Z 2504/2512 33020KT 9999 BKN020
                      TEMPO 2504/2507 32020G30KT 5000 -SN=
201812250500 TAF LRSV 250500Z 2506/2515 33016KT 9999 SCT010 BKN030
                      TEMPO 2506/2513 31020G30KT 5000 -SN DRSN=
201812250800 TAF LRSV 250800Z 2509/2518 33016KT 9999 SCT010 BKN030
                      TEMPO 2509/2514 31017G27KT 5000 -SN DRSN=
201812251100 TAF LRSV 251100Z 2512/2521 31016KT 9999 SCT015 BKN030
                      TEMPO 2512/2515 31017G27KT 3000 -SN DRSN=
201812251400 TAF LRSV 251400Z 2515/2524 31016KT 9999 SCT015 BKN030
                      TEMPO 2515/2517 31017G27KT 5000 -SN DRSN=
201812251700 TAF LRSV 251700Z 2518/2603 31015KT 9999 SCT015 BKN030
                      PROB40 TEMPO 2518/2520 31017G27KT 5000 -SN
                       DRSN
                      BECMG 2601/2603 30005KT=
201812252000 TAF LRSV 252000Z 2521/2606 31015KT 9999 SCT030
                      BECMG 2602/2604 30005KT=
201812252300 TAF LRSV 252300Z 2600/2609 31015KT 9999 BKN045
                      BECMG 2602/2604 30005KT
                      PROB40 TEMPO 2605/2609 5000 -SN=
201812260200 TAF LRSV 260200Z 2603/2612 28006KT 9999 BKN025
                      PROB40 TEMPO 2605/2612 5000 -SN=
201812260500 TAF LRSV 260500Z 2606/2615 28010KT 9999 BKN045
                      PROB30 TEMPO 2606/2610 5000 -SN BKN015 OVC030=
201812260800 TAF LRSV 260800Z 2609/2618 28010KT CAVOK=
201812261100 TAF LRSV 261100Z 2612/2621 29012KT CAVOK=
201812261400 TAF LRSV 261400Z 2615/2624 29012KT CAVOK
                      BECMG 2622/2624 5000 -SN BKN015 OVC035=
201812261700 TAF LRSV 261700Z 2618/2703 30016KT 9999 BKN035
                      PROB40 TEMPO 2619/2703 5000 -SNRA BKN015
                       OVC030=
201812262000 TAF LRSV 262000Z 2621/2706 30016KT 9999 BKN035
                      PROB30 TEMPO 2621/2702 5000 -SNRA BR BKN015
                       OVC025
                      BECMG 2702/2704 BKN010 OVC025=
201812262300 TAF LRSV 262300Z 2700/2709 30016KT 9999 BKN035
                      PROB30 TEMPO 2700/2702 5000 -SNRA BR BKN015
                       OVC025
                      BECMG 2702/2704 BKN010 OVC025
                      BECMG 2707/2709 BKN030=
201812270200 TAF LRSV 270200Z 2703/2712 32015KT 9999 BKN045
                      PROB30 TEMPO 2703/2707 32015G25KT BKN015
                       BKN040=
201812270500 TAF LRSV 270500Z 2706/2715 32014KT 9999 BKN040
                      TEMPO 2713/2715 5000 RASN BKN015 OVC035=
201812270800 TAF LRSV 270800Z 2709/2718 32012KT 9999 BKN030
                      BECMG 2714/2716 BKN015 OVC035
                      TEMPO 2716/2718 5000 RASN
                      PROB40 2716/2718 -FZRA=
201812271035 TAF AMD LRSV 271035Z 2710/2718 32012KT 9999 BKN010 BKN025
                      TEMPO 2710/2715 BKN030
                      TEMPO 2716/2718 5000 RASN
                      PROB40 2716/2718 -FZRA=
201812271100 TAF LRSV 271100Z 2712/2721 32012KT 9999 BKN010 BKN025
                      TEMPO 2712/2715 BKN030
                      TEMPO 2716/2718 5000 -RASN
                      PROB40 2716/2718 -FZRA
                      TEMPO 2718/2721 5000 -SN=
201812271400 TAF LRSV 271400Z 2715/2724 32008KT 9999 SCT015 BKN025
                      TEMPO 2716/2718 5000 -RASN BKN010 OVC020
                       PROB40 2716/2718 -FZRA
                      TEMPO 2718/2721 5000 -SN BKN010 OVC020=
201812271700 TAF LRSV 271700Z 2718/2803 VRB04KT 5000 -RA SCT015 BKN025
                      PROB30 TEMPO 2718/2721 3000 FZRA BKN010 OVC020
                       TEMPO 2723/2803 3000 SN BKN010 OVC020=
201812272000 TAF LRSV 272000Z 2721/2806 16006KT 9999 BKN050
                      PROB30 TEMPO 2721/2724 5000 -RA BKN015 OVC040
                       TEMPO 2800/2805 3000 -SN BKN010 OVC030=
201812272300 TAF LRSV 272300Z 2800/2809 25006KT 9999 BKN050
                      PROB40 TEMPO 2801/2806 3000 -SN BKN010 OVC030=
201812280200 TAF LRSV 280200Z 2803/2812 25006KT 9999 BKN035
                      TEMPO 2803/2807 5000 -RA BR BKN015 OVC030=
201812280500 TAF LRSV 280500Z 2806/2815 24006KT 9999 BKN035
                      TEMPO 2806/2810 5000 -RA BR BKN015 BKN030=
201812280800 TAF LRSV 280800Z 2809/2818 24006KT 9999 BKN035
                      TEMPO 2809/2815 5000 -RA BR BKN015 BKN030=
201812281100 TAF LRSV 281100Z 2812/2821 VRB04KT 9999 BKN030
                      TEMPO 2812/2815 5000 -RA BR
                      BECMG 2819/2821 32012KT=
201812281400 TAF LRSV 281400Z 2815/2824 34012KT 9999 BKN030
                      TEMPO 2820/2824 5000 -RA BR BKN015 OVC025=
201812281700 TAF LRSV 281700Z 2818/2903 31012KT 9999 BKN040
                      TEMPO 2822/2903 5000 -SN -RASN BKN010 OVC020=
201812282000 TAF LRSV 282000Z 2821/2906 31012KT 9999 BKN035
                      TEMPO 2900/2906 5000 -SN -RASN BKN010 OVC020=
201812282300 TAF LRSV 282300Z 2900/2909 31012KT 9999 BKN035
                      TEMPO 2900/2907 5000 -SN -RASN BKN010 OVC020=
201812290200 TAF LRSV 290200Z 2903/2912 32012KT 9999 OVC035
                      TEMPO 2903/2907 3000 RASN BKN010 OVC025=
201812290500 TAF LRSV 290500Z 2906/2915 32012KT 9999 OVC035
                      TEMPO 2906/2909 3000 -RA BR BKN010 OVC030=
201812290800 TAF LRSV 290800Z 2909/2918 32012KT 9999 OVC035
                      TEMPO 2909/2910 5000 -SN BR BKN010 OVC030=
201812291100 TAF LRSV 291100Z 2912/2921 33012KT 9999 OVC035
                      TEMPO 2914/2921 5000 -SN BR BKN010 OVC030=
201812291400 TAF LRSV 291400Z 2915/2924 33012KT 9999 OVC030
                      TEMPO 2916/2923 5000 -SN BR BKN010 OVC025=
201812291700 TAF LRSV 291700Z 2918/3003 33012KT 9999 SCT020 OVC025
                      TEMPO 2918/2924 5000 -SN BR BKN010 OVC025
                       BECMG 3000/3002 VRB04KT 3000 BR=
201812292000 TAF LRSV 292000Z 2921/3006 34008KT 9999 BKN020
                      TEMPO 2921/2924 5000 -SN BR BKN010 BKN020
                       TEMPO 3000/3006 5000 BR BKN010 BKN020=
201812292300 TAF LRSV 292300Z 3000/3009 33008KT 9999 BKN025
                      TEMPO 3000/3003 5000 -SN BR BKN010 OVC020
                       TEMPO 3003/3008 5000 BR BKN010 OVC020=
201812300200 TAF LRSV 300200Z 3003/3012 32006KT 9999 BKN030
                      TEMPO 3003/3008 5000 BR BKN010 BKN020=
201812300500 TAF LRSV 300500Z 3006/3015 32005KT 9999 BKN045=
201812300800 TAF LRSV 300800Z 3009/3018 VRB04KT 7000 BKN045=
201812301100 TAF LRSV 301100Z 3012/3021 VRB04KT CAVOK=
201812301400 TAF LRSV 301400Z 3015/3024 VRB04KT 3000 BR BKN010
                      TEMPO 3015/3018 5000 NSC=
201812301700 TAF LRSV 301700Z 3018/3103 VRB04KT 5000 BR NSC
                      BECMG 3019/3021 3000 BR BKN010
                      PROB40 TEMPO 3100/3103 0800 FG BKN002=
201812302000 TAF LRSV 302000Z 3021/3106 VRB04KT 1500 BR NSC
                      BECMG 3021/3023 0600 FG BKN002
                      PROB40 TEMPO 3100/3106 0350 FG VV001=
201812302300 TAF LRSV 302300Z 3100/3109 VRB04KT 0600 FZFG VV001
                      PROB40 TEMPO 3100/3106 0350 FG
                      TEMPO 3107/3109 1500 BR BKN002=
201812310200 TAF LRSV 310200Z 3103/3112 23007KT 0600 FZFG BKN001
                      TEMPO 3103/3107 1500 BR SCT005
                      BECMG 3107/3109 3000 BR BKN010=
201812310500 TAF LRSV 310500Z 3106/3115 VRB04KT 3000 BR NSC
                      TEMPO 3106/3108 1500 BR BKN005
                      BECMG 3108/3110 9999 NSW BKN030=
201812310800 TAF LRSV 310800Z 3109/3118 29008KT 9999 BKN030=
201812311100 TAF LRSV 311100Z 3112/3121 26006KT 9999 BKN035
                      BECMG 3116/3118 3000 BR BKN010=
201812311400 TAF LRSV 311400Z 3115/3124 VRB04KT 9999 BKN025
                      BECMG 3117/3119 3000 BR BKN010
                      TEMPO 3120/3124 1500 BR OVC005=
201812311700 TAF LRSV 311700Z 3118/0103 VRB04KT 9999 BKN045
                      TEMPO 3118/3120 5000 -RA -RASN BKN015 OVC030
                       TEMPO 3120/3124 3000 -SN BKN010 OVC030=
201812312000 TAF LRSV 312000Z 3121/0106 VRB04KT 9999 BKN045
                      PROB30 TEMPO 3121/3124 5000 -SN BR BKN010
                       OVC040
                      TEMPO 0102/0106 5000 BR=
201812312300 TAF LRSV 312300Z 0100/0109 VRB04KT 9999 SCT045
                      TEMPO 0101/0106 3000 BR BKN010=