201812010000 METAR LRSV 010000Z 33006KT CAVOK M10/M12 Q1020 R16/550395=
201812010030 METAR LRSV 010030Z AUTO 28003KT 9999 BKN050/// M11/M12 Q1020=
201812010100 METAR COR LRSV 010100Z 28005KT CAVOK M11/M13 Q1020 R16/550395=
201812010130 METAR LRSV 010130Z AUTO 30004KT 260V320 7000 OVC050/// M11/M12
                        Q1019=
201812010200 METAR LRSV 010200Z 00000KT CAVOK M11/M12 Q1019 R16/550395=
201812010230 METAR LRSV 010230Z 26003KT CAVOK M11/M13 Q1019 R16/550395=
201812010300 METAR LRSV 010300Z 00000KT CAVOK M12/M13 Q1019 R16/550395=
201812010330 METAR LRSV 010330Z 26002KT CAVOK M14/M16 Q1019 R16/550395=
201812010400 METAR LRSV 010400Z 27006KT CAVOK M13/M15 Q1018 R16/550395=
201812010430 METAR LRSV 010430Z 28005KT CAVOK M12/M13 Q1018 R16/550395=
201812010500 METAR LRSV 010500Z 32003KT 280V360 CAVOK M11/M13 Q1018 R16/550395=
201812010530 METAR LRSV 010530Z 31004KT 290V350 CAVOK M11/M13 Q1018 R16/550395=
201812010600 METAR LRSV 010600Z 27002KT CAVOK M12/M14 Q1018 R16/550395=
201812010630 METAR LRSV 010630Z 00000KT CAVOK M12/M14 Q1018 R16/550395=
201812010700 METAR LRSV 010700Z 25002KT CAVOK M12/M15 Q1018 R16/550395=
201812010730 METAR LRSV 010730Z 00000KT CAVOK M11/M13 Q1018 R16/550395=
201812010800 METAR LRSV 010800Z 00000KT CAVOK M09/M11 Q1018 R16/550395=
201812010830 METAR LRSV 010830Z 25002KT 220V280 CAVOK M11/M13 Q1018 R16/550395=
201812010900 METAR LRSV 010900Z 24003KT CAVOK M11/M13 Q1018 R16/550395=
201812010930 METAR COR LRSV 010930Z VRB01KT CAVOK M08/M11 Q1018 R16/550395=
201812011000 METAR LRSV 011000Z 00000KT CAVOK M09/M12 Q1018 R16/550395=
201812011030 METAR LRSV 011030Z 21004KT 8000 NSC M09/M12 Q1018 R16/550395=
201812011100 METAR LRSV 011100Z 00000KT 8000 NSC M07/M10 Q1018 R16/550395=
201812011130 METAR LRSV 011130Z 00000KT 8000 NSC M07/M11 Q1018 R16/550395=
201812011200 METAR COR LRSV 011200Z 34002KT 8000 NSC M07/M11 Q1017 R16/550395=
201812011230 METAR LRSV 011230Z 20005KT 8000 NSC M10/M13 Q1018 R16/550395=
201812011300 METAR COR LRSV 011300Z 24004KT 8000 NSC M10/M13 Q1018 R16/550395=
201812011330 METAR LRSV 011330Z VRB01KT 8000 NSC M08/M11 Q1018 R16/550395=
201812011400 METAR LRSV 011400Z 03003KT 360V060 CAVOK M07/M12 Q1018 R16/550395=
201812011430 METAR COR LRSV 011430Z 22003KT CAVOK M11/M13 Q1018 R16/550395=
201812011500 METAR LRSV 011500Z 25004KT CAVOK M10/M13 Q1018 R16/550395=
201812011530 METAR LRSV 011530Z 25004KT CAVOK M10/M13 Q1018 R16/550395=
201812011600 METAR LRSV 011600Z 26005KT CAVOK M10/M14 Q1019 R16/920395=
201812011630 METAR LRSV 011630Z 26006KT CAVOK M10/M13 Q1019 R16/920395=
201812011700 METAR LRSV 011700Z 25005KT CAVOK M11/M13 Q1019 R16/920395=
201812011730 METAR LRSV 011730Z 26006KT CAVOK M10/M13 Q1019 R16/920395=
201812011800 METAR LRSV 011800Z AUTO 25008KT 9999 NCD M10/M14 Q1019=
201812011830 METAR LRSV 011830Z 26007KT CAVOK M10/M13 Q1019 R16/920395=
201812011900 METAR LRSV 011900Z 25007KT CAVOK M10/M13 Q1019 R16/920395=
201812011930 METAR LRSV 011930Z 26004KT CAVOK M09/M11 Q1020 R16/920395=
201812012000 METAR LRSV 012000Z 26005KT CAVOK M09/M11 Q1020 R16/920395=
201812012030 METAR LRSV 012030Z 24003KT CAVOK M10/M12 Q1020 R16/920395=
201812012100 METAR LRSV 012100Z 25002KT CAVOK M09/M11 Q1020 R16/920395=
201812012130 METAR LRSV 012130Z 24003KT CAVOK M09/M12 Q1019 R16/920395=
201812012200 METAR LRSV 012200Z 23002KT CAVOK M10/M12 Q1019 R16/920395=
201812012230 METAR LRSV 012230Z 21004KT CAVOK M11/M13 Q1019 R16/920395=
201812012300 METAR LRSV 012300Z 24006KT CAVOK M13/M15 Q1019 R16/920395=
201812012330 METAR LRSV 012330Z 26008KT CAVOK M09/M12 Q1019 R16/920395=
201812020000 METAR LRSV 020000Z 25008KT CAVOK M10/M12 Q1019 R16/920395=
201812020030 METAR LRSV 020030Z AUTO 25008KT 9999 NCD M10/M13 Q1019=
201812020100 METAR LRSV 020100Z 27010KT CAVOK M09/M12 Q1019 R16/920395=
201812020130 METAR COR LRSV 020130Z 26008KT CAVOK M09/M13 Q1019 R16/920394=
201812020200 METAR LRSV 020200Z 26008KT CAVOK M08/M13 Q1019 R16/920394=
201812020230 METAR LRSV 020230Z 26008KT CAVOK M09/M13 Q1019 R16/920394=
201812020300 METAR LRSV 020300Z 28008KT CAVOK M09/M13 Q1019 R16/920394=
201812020330 METAR LRSV 020330Z 29006KT CAVOK M08/M13 Q1019 R16/920394=
201812020400 METAR LRSV 020400Z 27009KT CAVOK M09/M13 Q1020 R16/920394=
201812020430 METAR LRSV 020430Z 31005KT 290V350 CAVOK M08/M13 Q1020 R16/920394=
201812020500 METAR LRSV 020500Z 27005KT CAVOK M09/M14 Q1020 R16/920394=
201812020530 METAR LRSV 020530Z 26008KT CAVOK M08/M12 Q1020 R16/920394=
201812020600 METAR LRSV 020600Z 25008KT CAVOK M09/M13 Q1020 R16/920394=
201812020630 METAR LRSV 020630Z 24006KT CAVOK M11/M14 Q1021 R16/920394=
201812020700 METAR LRSV 020700Z 23005KT CAVOK M10/M13 Q1020 R16/920394=
201812020730 METAR LRSV 020730Z 24007KT CAVOK M09/M13 Q1020 R16/920394=
201812020800 METAR LRSV 020800Z 24008KT 9999 FEW025 M08/M12 Q1020 R16/920394=
201812020830 METAR LRSV 020830Z 23007KT 9999 FEW025 M08/M12 Q1020 R16/920394=
201812020900 METAR LRSV 020900Z 23005KT 9999 FEW025 M07/M11 Q1020 R16/920394=
201812020930 METAR LRSV 020930Z 24006KT CAVOK M06/M10 Q1020 R16/920394=
201812021000 METAR LRSV 021000Z 23005KT CAVOK M06/M09 Q1019 R16/920394=
201812021030 METAR LRSV 021030Z 24006KT CAVOK M05/M09 Q1019 R16/920394=
201812021100 METAR LRSV 021100Z 22006KT CAVOK M05/M08 Q1019 R16/920394=
201812021130 METAR LRSV 021130Z 23005KT CAVOK M05/M08 Q1019 R16/920394=
201812021200 METAR LRSV 021200Z 22004KT CAVOK M03/M08 Q1019 R16/920394=
201812021230 METAR LRSV 021230Z 20003KT CAVOK M03/M08 Q1019 R16/920394=
201812021300 METAR LRSV 021300Z 20005KT CAVOK M04/M09 Q1019 R16/920394=
201812021330 METAR LRSV 021330Z 18003KT 070V220 CAVOK M04/M09 Q1019 R16/920394=
201812021400 METAR LRSV 021400Z 20004KT CAVOK M04/M09 Q1019 R16/920394=
201812021430 METAR LRSV 021430Z 20004KT CAVOK M05/M09 Q1019 R16/920394=
201812021500 METAR LRSV 021500Z 18004KT CAVOK M06/M09 Q1018 R16/920394=
201812021530 METAR LRSV 021530Z 18004KT CAVOK M07/M10 Q1018 R16/920394=
201812021600 METAR LRSV 021600Z 21005KT CAVOK M06/M10 Q1018 R16/920394=
201812021630 METAR LRSV 021630Z 21006KT CAVOK M06/M10 Q1018 R16/920394=
201812021700 METAR LRSV 021700Z 21009KT CAVOK M07/M10 Q1018 R16/920394=
201812021730 METAR LRSV 021730Z 21008KT CAVOK M07/M10 Q1017 R16/920394=
201812021800 METAR COR LRSV 021800Z 20007KT CAVOK M06/M10 Q1017 R16/920394=
201812021830 METAR LRSV 021830Z 22009KT CAVOK M06/M10 Q1017 R16/920394=
201812021900 METAR LRSV 021900Z 22008KT CAVOK M07/M11 Q1017 R16/920394=
201812021930 METAR LRSV 021930Z 24009KT CAVOK M07/M10 Q1017 R16/920394=
201812022000 METAR LRSV 022000Z 22009KT CAVOK M05/M09 Q1017 R16/920394=
201812022030 METAR LRSV 022030Z 22009KT CAVOK M06/M09 Q1017 R16/920394=
201812022100 METAR LRSV 022100Z 22008KT CAVOK M06/M09 Q1017 R16/920394=
201812022130 METAR LRSV 022130Z 21007KT CAVOK M07/M09 Q1016 R16/920394=
201812022200 METAR LRSV 022200Z 21008KT CAVOK M07/M10 Q1016 R16/920394=
201812022230 METAR LRSV 022230Z 21006KT CAVOK M07/M09 Q1016 R16/920394=
201812022300 METAR LRSV 022300Z 22006KT CAVOK M07/M10 Q1015 R16/920394=
201812022330 METAR LRSV 022330Z 22006KT CAVOK M08/M10 Q1015 R16/920394=
201812030000 METAR LRSV 030000Z 23007KT CAVOK M07/M08 Q1015 R16/920394=
201812030030 METAR LRSV 030030Z AUTO 21009KT 9999 NCD M06/M08 Q1015=
201812030100 METAR LRSV 030100Z 21008KT CAVOK M06/M08 Q1014 R16/920394=
201812030130 METAR LRSV 030130Z AUTO 21006KT 9999 NCD M06/M08 Q1014=
201812030200 METAR LRSV 030200Z 23010KT CAVOK M06/M07 Q1014 R16/920394=
201812030230 METAR LRSV 030230Z 22009KT CAVOK M06/M08 Q1014 R16/920394=
201812030300 METAR LRSV 030300Z 21008KT CAVOK M05/M07 Q1014 R16/920394=
201812030330 METAR LRSV 030330Z 23008KT CAVOK M05/M06 Q1013 R16/920394=
201812030400 METAR LRSV 030400Z 21006KT CAVOK M05/M07 Q1013 R16/920394=
201812030430 METAR COR LRSV 030430Z 21006KT CAVOK M05/M07 Q1013 R16/920394=
201812030500 METAR LRSV 030500Z 21007KT CAVOK M05/M07 Q1013 R16/920394=
201812030530 METAR LRSV 030530Z 23008KT CAVOK M04/M06 Q1013 R16/920394=
201812030600 METAR LRSV 030600Z 23007KT CAVOK M03/M06 Q1013 R16/920394=
201812030630 METAR LRSV 030630Z 23008KT CAVOK M03/M06 Q1013 R16/920394=
201812030700 METAR LRSV 030700Z 24009KT CAVOK M03/M06 Q1013 R16/920394=
201812030730 METAR COR LRSV 030730Z 24009KT CAVOK M03/M06 Q1013 R16/920394=
201812030800 METAR LRSV 030800Z 25011KT CAVOK M01/M04 Q1013 R16/920394=
201812030830 METAR LRSV 030830Z 25011KT CAVOK M01/M04 Q1013 R16/920394=
201812030900 METAR LRSV 030900Z 25011KT CAVOK M01/M04 Q1012 R16/920394=
201812030930 METAR COR LRSV 030930Z 25009KT CAVOK M00/M03 Q1012 R16/920394=
201812031000 METAR LRSV 031000Z 25008KT CAVOK 00/M03 Q1012 R16/920394=
201812031030 METAR LRSV 031030Z 24009KT CAVOK 00/M03 Q1012 R16/920394=
201812031100 METAR COR LRSV 031100Z 24012KT CAVOK 01/M03 Q1011 R16/920394=
201812031130 METAR LRSV 031130Z 23010KT CAVOK 01/M02 Q1011 R16/920394=
201812031200 METAR LRSV 031200Z 23011KT CAVOK 01/M02 Q1011 R16/920394=
201812031230 METAR LRSV 031230Z AUTO 22011KT 8000 BKN050/// 02/M02 Q1011=
201812031300 METAR LRSV 031300Z 23011KT CAVOK 02/M02 Q1011 R16/920394=
201812031330 METAR LRSV 031330Z 23009KT CAVOK 02/M02 Q1011 R16/920394=
201812031400 METAR LRSV 031400Z 22006KT CAVOK 01/M02 Q1011 R16/920394=
201812031430 METAR LRSV 031430Z 20004KT 7000 NSC 01/M02 Q1011 R16/920394=
201812031500 METAR LRSV 031500Z 22006KT 6000 NSC 00/M02 Q1011 R16/920394=
201812031530 METAR LRSV 031530Z 23008KT 6000 NSC 01/M02 Q1011 R16/920394=
201812031600 METAR LRSV 031600Z 23008KT 7000 NSC 01/M02 Q1011 R16/920394=
201812031630 METAR LRSV 031630Z 22008KT 7000 NSC 01/M01 Q1011 R16/920394=
201812031700 METAR LRSV 031700Z 22007KT 5000 BR NSC 00/M02 Q1011 R16/920394=
201812031730 METAR LRSV 031730Z 23006KT 7000 FEW040 00/M02 Q1012 R16/920394=
201812031800 METAR LRSV 031800Z 22006KT 7000 SCT045 00/M02 Q1012 R16/920394=
201812031830 METAR LRSV 031830Z 22006KT 7000 FEW045 00/M02 Q1011 R16/920394=
201812031900 METAR LRSV 031900Z 21006KT 7000 NSC 00/M02 Q1011 R16/920394=
201812031930 METAR LRSV 031930Z 22006KT 7000 NSC M00/M02 Q1012 R16/920394=
201812032000 METAR LRSV 032000Z 23005KT 7000 NSC M00/M02 Q1011 R16/920394=
201812032030 METAR LRSV 032030Z 24008KT 7000 NSC 00/M02 Q1011 R16/920394=
201812032100 METAR LRSV 032100Z 24009KT 7000 NSC 00/M03 Q1011 R16/920394=
201812032130 METAR LRSV 032130Z 23008KT 7000 NSC M00/M03 Q1011 R16/920394=
201812032200 METAR LRSV 032200Z 23009KT 7000 NSC M00/M03 Q1011 R16/920394=
201812032230 METAR LRSV 032230Z 24011KT 7000 NSC 00/M02 Q1011 R16/920394=
201812032300 METAR LRSV 032300Z 24009KT 7000 NSC 00/M02 Q1011 R16/920394=
201812032330 METAR LRSV 032330Z 25011KT 7000 NSC 01/M02 Q1011 R16/920394=
201812040000 METAR LRSV 040000Z 25009KT 7000 NSC 01/M01 Q1011 R16/920394=
201812040030 METAR LRSV 040030Z 25008KT 8000 NSC 01/M01 Q1011 R16/920394=
201812040100 METAR LRSV 040100Z 23007KT 7000 NSC M00/M02 Q1011 R16/920394=
201812040130 METAR LRSV 040130Z 24006KT 7000 NSC M01/M03 Q1011 R16/920394=
201812040200 METAR LRSV 040200Z 24005KT 7000 NSC M00/M02 Q1011 R16/920394=
201812040230 METAR LRSV 040230Z 24009KT 5000 BR NSC M01/M03 Q1011 R16/920394=
201812040300 METAR LRSV 040300Z 24006KT 5000 BR NSC M01/M03 Q1011 R16/920394=
201812040330 METAR LRSV 040330Z 22006KT 7000 NSC M01/M02 Q1010 R16/920394=
201812040400 METAR LRSV 040400Z 23007KT 6000 NSC M01/M03 Q1011 R16/920394=
201812040430 METAR LRSV 040430Z 23007KT 5000 BR NSC M01/M03 Q1011 R16/920394=
201812040500 METAR LRSV 040500Z 24007KT 5000 BR NSC M02/M03 Q1011 R16/920394=
201812040530 METAR LRSV 040530Z 23006KT 5000 BR NSC M02/M03 Q1011 R16/920394=
201812040600 METAR LRSV 040600Z AUTO 22005KT 180V240 5000 BR NCD M01/M02
                        Q1011=
201812040630 METAR COR LRSV 040630Z 24006KT 5000 BR NSC M02/M03 Q1012
                        R16/920394=
201812040700 METAR COR LRSV 040700Z 24003KT 5000 BR NSC M01/M03 Q1012
                        R16/920394=
201812040730 METAR LRSV 040730Z 21005KT 5000 BR NSC M00/M02 Q1012 R16/920394=
201812040800 METAR LRSV 040800Z 22006KT 5000 BR NSC M01/M02 Q1012 R16/920394=
201812040830 METAR LRSV 040830Z 22006KT 5000 BR NSC M01/M02 Q1012 R16/920394=
201812040900 METAR LRSV 040900Z 22007KT 5000 BR NSC 00/M02 Q1012 R16/920394=
201812040930 METAR LRSV 040930Z 22006KT 5000 BR NSC 00/M02 Q1012 R16/920394=
201812041000 METAR LRSV 041000Z 20004KT 5000 BR NSC 00/M02 Q1011 R16/920394=
201812041030 METAR LRSV 041030Z 19004KT 5000 BR NSC 00/M02 Q1011 R16/920394=
201812041100 METAR LRSV 041100Z 20005KT 5000 BR NSC 01/M02 Q1011 R16/920394=
201812041130 METAR LRSV 041130Z 24002KT 4000 BR NSC 01/M02 Q1011 R16/12//95=
201812041200 METAR LRSV 041200Z 13005KT 4000 BR NSC M00/M03 Q1011 R16/12//95=
201812041230 METAR COR LRSV 041230Z 13007KT 4000 BR NSC M01/M03 Q1011
                        R16/12//95=
201812041300 METAR LRSV 041300Z 10005KT 4000 BR NSC M02/M03 Q1011 R16/12//95=
201812041330 METAR LRSV 041330Z 08004KT 4000 BR NSC M02/M04 Q1011 R16/12//95=
201812041400 METAR LRSV 041400Z 15006KT 3000 BR NSC M02/M03 Q1011 R16/12//95=
201812041430 METAR COR LRSV 041430Z 18003KT 3000 BR NSC M02/M03 Q1011
                        R16/12//95=
201812041500 METAR LRSV 041500Z 14006KT 3000 BR NSC M02/M03 Q1012 R16/12//95=
201812041530 METAR LRSV 041530Z 14006KT 3000 BR NSC M02/M03 Q1012 R16/12//95=
201812041600 METAR LRSV 041600Z 18002KT 140V220 3000 BR NSC M02/M03 Q1012
                        R16/12//95=
201812041630 METAR LRSV 041630Z 12004KT 3000 BR NSC M01/M02 Q1012 R16/12//95=
201812041700 METAR LRSV 041700Z VRB01KT 3000 BR NSC M01/M02 Q1012 R16/12//95=
201812041730 METAR LRSV 041730Z 13001KT 3000 BR NSC M01/M02 Q1012 R16/12//95=
201812041800 METAR LRSV 041800Z 10004KT 3000 BR NSC M01/M02 Q1012 R16/12//95=
201812041830 METAR LRSV 041830Z 13005KT 3000 BR NSC M01/M02 Q1013 R16/12//95=
201812041900 METAR LRSV 041900Z 13003KT 3000 BR NSC M01/M02 Q1013 R16/12//95=
201812041930 METAR LRSV 041930Z 00000KT 3000 BR NSC M01/M02 Q1013 R16/12//95=
201812042000 METAR LRSV 042000Z VRB01KT 3000 BR NSC M01/M02 Q1013 R16/12//95=
201812042030 METAR LRSV 042030Z 33004KT 3000 BR NSC M01/M02 Q1014 R16/12//95=
201812042100 METAR LRSV 042100Z 32004KT 3000 -FZRA BR BKN046 M00/M01 Q1014
                        R16/12//95=
201812042130 METAR LRSV 042130Z 33004KT 3000 BR BKN040 M00/M02 Q1014 R16/12//95=
201812042200 METAR LRSV 042200Z 35002KT 2000 BR BKN040 M00/M01 Q1014 R16/12//95=
201812042230 METAR LRSV 042230Z 36004KT 2000 -FZRA BR BKN042 M00/M01 Q1014
                        R16/12//95=
201812042300 METAR LRSV 042300Z 36005KT 2000 -FZRA BR BKN040 M00/M01 Q1014
                        R16/12//95=
201812042330 METAR LRSV 042330Z 34011KT 2000 -FZRA BR BKN041 M00/M01 Q1015
                        R16/12//95=
201812050000 METAR LRSV 050000Z 34010KT 2000 -FZRA BR BKN040 00/M01 Q1015
                        R16/12//95=
201812050030 METAR LRSV 050030Z AUTO 34007KT 2100 -FZDZ FEW010/// BKN026///
                        BKN037/// 00/M00 Q1015=
201812050100 METAR LRSV 050100Z 32008KT 1500 -DZ BR BKN005 02/01 Q1016
                        R16/12//95=
201812050130 METAR COR LRSV 050130Z 32017KT 5000 DZ BKN009 03/02 Q1016
                        R16/12//95=
201812050200 METAR LRSV 050200Z 32018KT 280V350 7000 -RA BKN010 BKN027
                        03/01 Q1016 R16/12//95=
201812050230 METAR LRSV 050230Z 32019KT 8000 -RA BKN010 BKN032 02/01 Q1016
                        R16/12//95=
201812050300 METAR LRSV 050300Z 32020KT 9999 -RA SCT009 BKN028 02/01 Q1016
                        R16/29//95=
201812050330 METAR LRSV 050330Z 32019KT 9999 -RA SCT011 BKN032 02/01 Q1017
                        R16/29//95=
201812050400 METAR LRSV 050400Z 32021G31KT 9999 -RA SCT012 BKN040 02/01
                        Q1017 R16/29//95=
201812050430 METAR LRSV 050430Z 32021KT 9999 -RA SCT008 BKN040 02/00 Q1017
                        R16/29//95=
201812050500 METAR LRSV 050500Z 33021KT 8000 -RASN BKN010 BKN040 01/00
                        Q1018 R16/29//95=
201812050530 METAR LRSV 050530Z 32018KT 5000 -RASN BKN010 BKN030 01/00
                        Q1018 R16/29//95=
201812050600 METAR LRSV 050600Z 32018KT 8000 -RASN BKN007 OVC025 01/00
                        Q1019 R16/29//95=
201812050630 METAR LRSV 050630Z 32019KT 9999 -RA SCT010 BKN025 02/00 Q1019
                        R16/29//95=
201812050700 METAR LRSV 050700Z 33018KT 9999 -RASN FEW008 BKN034 01/00
                        Q1020 R16/29//95=
201812050730 METAR LRSV 050730Z 32014KT 9999 -RASN FEW009 BKN012 01/00
                        Q1020 R16/29//95=
201812050800 METAR LRSV 050800Z 32016KT 9999 -RASN SCT011 BKN015 02/00
                        Q1020 R16/29//95=
201812050830 METAR COR LRSV 050830Z 33016KT 9999 SCT012 BKN015 OVC025
                        02/00 Q1021 R16/29//95=
201812050900 METAR LRSV 050900Z 33017KT 9999 -SN FEW011 SCT015 01/00 Q1021
                        R16/29//95=
201812050930 METAR LRSV 050930Z 33015KT 9999 -SN BKN011 01/00 Q1021 R16/29//95=
201812051000 METAR LRSV 051000Z 33016KT 6000 -SN BKN010 01/M00 Q1021 R16/29//95=
201812051030 METAR LRSV 051030Z 32014KT 6000 -SN FEW012 BKN024 01/M00
                        Q1021 R16/29//95=
201812051100 METAR LRSV 051100Z 32016KT 8000 -SN FEW012 BKN025 01/M01
                        Q1021 R16/29//95=
201812051130 METAR LRSV 051130Z 33018KT 9999 FEW015 SCT042 01/M01 Q1021
                        R16/29//95=
201812051200 METAR LRSV 051200Z 33019KT 9999 FEW019 01/M02 Q1021 R16/29//95=
201812051230 METAR LRSV 051230Z 32017KT 9999 FEW030 01/M02 Q1021 R16/29//95=
201812051300 METAR LRSV 051300Z 33017KT 9999 BKN032 01/M03 Q1022 R16/29//95=
201812051330 METAR LRSV 051330Z 33020KT 9999 BKN031 01/M03 Q1022 R16/29//95=
201812051400 METAR LRSV 051400Z 32019G29KT 9999 BKN031 01/M03 Q1022 R16/29//95=
201812051430 METAR LRSV 051430Z 32018KT 9999 BKN031 01/M04 Q1022 R16/29//95=
201812051500 METAR LRSV 051500Z 33016KT 9999 BKN034 00/M04 Q1023 R16/29//95=
201812051530 METAR LRSV 051530Z 33015KT 9999 BKN034 00/M04 Q1023 R16/19//95=
201812051600 METAR LRSV 051600Z 32015KT 9999 BKN035 00/M04 Q1023 R16/19//95=
201812051630 METAR LRSV 051630Z 32012KT 9999 SCT037 OVC043 00/M04 Q1023
                        R16/19//95=
201812051700 METAR LRSV 051700Z 32011KT 9999 FEW036 BKN043 00/M04 Q1024
                        R16/19//95=
201812051730 METAR LRSV 051730Z 32015KT 9999 FEW037 BKN044 00/M04 Q1024
                        R16/19//95=
201812051800 METAR LRSV 051800Z 32013KT 9999 FEW030 BKN043 00/M04 Q1024
                        R16/19//95=
201812051830 METAR LRSV 051830Z 32014KT 9999 BKN042 00/M04 Q1024 R16/19//95=
201812051900 METAR LRSV 051900Z 31012KT 9999 BKN044 00/M04 Q1024 R16/19//95=
201812051930 METAR LRSV 051930Z 32013KT 9999 BKN042 00/M04 Q1024 R16/19//95=
201812052000 METAR LRSV 052000Z 32011KT 9999 BKN043 00/M04 Q1025 R16/19//95=
201812052030 METAR LRSV 052030Z 32014KT 9999 BKN043 00/M04 Q1025 R16/19//95=
201812052100 METAR LRSV 052100Z 32014KT 9999 BKN040 00/M04 Q1025 R16/19//95=
201812052130 METAR LRSV 052130Z 31012KT 9999 BKN042 00/M04 Q1025 R16/19//95=
201812052200 METAR LRSV 052200Z 32013KT 9999 BKN035 00/M04 Q1025 R16/19//95=
201812052230 METAR LRSV 052230Z 32014KT 9999 BKN040 M00/M04 Q1025 R16/19//95=
201812052300 METAR LRSV 052300Z 33014KT 9999 BKN040 M00/M04 Q1025 R16/19//95=
201812052330 METAR LRSV 052330Z 33012KT 9999 BKN040 M00/M04 Q1025 R16/19//95=
201812060000 METAR LRSV 060000Z 33013KT 9999 BKN040 M00/M04 Q1025 R16/19//95=
201812060030 METAR LRSV 060030Z 32011KT 9999 BKN039 M01/M04 Q1025 R16/19//95=
201812060100 METAR LRSV 060100Z 33009KT 9999 BKN042 M01/M04 Q1025 R16/19//95=
201812060130 METAR LRSV 060130Z 33009KT 9999 BKN043 M00/M04 Q1025 R16/15//95=
201812060200 METAR LRSV 060200Z 32007KT 9999 BKN040 M01/M04 Q1025 R16/15//95=
201812060230 METAR LRSV 060230Z 31008KT 9999 BKN043 M01/M04 Q1025 R16/15//95=
201812060300 METAR LRSV 060300Z 31008KT 9999 BKN040 M01/M03 Q1025 R16/15//95=
201812060330 METAR LRSV 060330Z 32007KT 9999 BKN040 M01/M04 Q1025 R16/15//95=
201812060400 METAR LRSV 060400Z 30008KT 9999 BKN040 M01/M04 Q1025 R16/15//95=
201812060430 METAR LRSV 060430Z 31008KT 9999 BKN040 M01/M06 Q1024 R16/15//95=
201812060500 METAR LRSV 060500Z 30007KT 9999 BKN040 M01/M05 Q1025 R16/15//95=
201812060530 METAR LRSV 060530Z 31007KT 9999 BKN040 M01/M05 Q1025 R16/15//95=
201812060600 METAR LRSV 060600Z 31008KT 9999 BKN039 M01/M06 Q1025 R16/15//95=
201812060630 METAR LRSV 060630Z 31007KT 9999 BKN039 M01/M07 Q1025 R16/15//95=
201812060700 METAR LRSV 060700Z 31008KT 9999 BKN040 M01/M07 Q1025 R16/15//95=
201812060730 METAR COR LRSV 060730Z 31009KT 9999 BKN040 M01/M06 Q1025
                        R16/15//95=
201812060800 METAR LRSV 060800Z 31007KT 9999 BKN040 M01/M06 Q1025 R16/15//95=
201812060830 METAR LRSV 060830Z 31008KT 9999 BKN040 M00/M06 Q1025 R16/15//95=
201812060900 METAR COR LRSV 060900Z 32010KT 9999 BKN037 M00/M07 Q1025
                        R16/15//95=
201812060930 METAR LRSV 060930Z 32012KT 9999 FEW039 M01/M07 Q1025 R16/15//95=
201812061000 METAR LRSV 061000Z 33012KT 9999 FEW039 M00/M07 Q1025 R16/15//95=
201812061030 METAR LRSV 061030Z 33011KT 9999 FEW038 M00/M06 Q1024 R16/15//95=
201812061100 METAR LRSV 061100Z 33009KT 9999 FEW039 00/M06 Q1024 R16/CLRD//=
201812061130 METAR LRSV 061130Z 33011KT 9999 FEW039 00/M06 Q1024=
201812061200 METAR LRSV 061200Z 34009KT 9999 FEW040 00/M06 Q1024=
201812061230 METAR LRSV 061230Z 34008KT 9999 FEW040 M00/M06 Q1023=
201812061300 METAR LRSV 061300Z 34008KT 9999 FEW039 M01/M06 Q1024=
201812061330 METAR LRSV 061330Z 34010KT CAVOK M01/M06 Q1024=
201812061400 METAR LRSV 061400Z 34010KT CAVOK M02/M06 Q1024=
201812061430 METAR LRSV 061430Z 34008KT CAVOK M03/M06 Q1024=
201812061500 METAR LRSV 061500Z 36008KT CAVOK M03/M07 Q1024=
201812061530 METAR LRSV 061530Z 35009KT CAVOK M03/M07 Q1024=
201812061600 METAR LRSV 061600Z 36009KT CAVOK M04/M07 Q1024=
201812061630 METAR LRSV 061630Z 36008KT CAVOK M04/M06 Q1024=
201812061700 METAR LRSV 061700Z 36007KT CAVOK M05/M07 Q1024=
201812061730 METAR LRSV 061730Z 35005KT CAVOK M05/M07 Q1024=
201812061800 METAR LRSV 061800Z 30003KT CAVOK M06/M07 Q1024=
201812061830 METAR LRSV 061830Z 29002KT 250V310 CAVOK M06/M07 Q1024=
201812061900 METAR LRSV 061900Z 26002KT CAVOK M05/M06 Q1024=
201812061930 METAR LRSV 061930Z 29003KT CAVOK M06/M07 Q1024=
201812062000 METAR LRSV 062000Z 34002KT CAVOK M04/M05 Q1024=
201812062030 METAR LRSV 062030Z 30002KT CAVOK M04/M05 Q1024=
201812062100 METAR LRSV 062100Z VRB01KT CAVOK M06/M07 Q1023=
201812062130 METAR LRSV 062130Z 25003KT CAVOK M05/M06 Q1023=
201812062200 METAR LRSV 062200Z 22002KT CAVOK M05/M06 Q1023=
201812062230 METAR LRSV 062230Z 24002KT CAVOK M06/M07 Q1023=
201812062300 METAR LRSV 062300Z 24003KT CAVOK M06/M07 Q1022=
201812062330 METAR LRSV 062330Z 24004KT CAVOK M07/M08 Q1022=
201812070000 METAR LRSV 070000Z 21003KT CAVOK M06/M06 Q1022=
201812070030 METAR LRSV 070030Z AUTO 23003KT 6000 OVC160/// M06/M06 Q1022=
201812070100 METAR LRSV 070100Z 20003KT CAVOK M05/M06 Q1022=
201812070130 METAR LRSV 070130Z AUTO 20005KT 7000 SCT120/// BKN160///
                        M06/M07 Q1021=
201812070200 METAR LRSV 070200Z 22004KT CAVOK M07/M08 Q1021=
201812070230 METAR LRSV 070230Z 21005KT CAVOK M06/M07 Q1020=
201812070300 METAR LRSV 070300Z 21005KT CAVOK M06/M08 Q1020=
201812070330 METAR LRSV 070330Z 20006KT CAVOK M06/M08 Q1020=
201812070400 METAR COR LRSV 070400Z 21008KT CAVOK M06/M07 Q1020=
201812070430 METAR LRSV 070430Z 22007KT CAVOK M05/M07 Q1019=
201812070500 METAR LRSV 070500Z 22007KT CAVOK M05/M07 Q1019=
201812070530 METAR LRSV 070530Z 20007KT CAVOK M05/M07 Q1019=
201812070600 METAR LRSV 070600Z 21007KT CAVOK M05/M07 Q1019=
201812070630 METAR LRSV 070630Z 22007KT CAVOK M05/M07 Q1019=
201812070700 METAR LRSV 070700Z 20006KT CAVOK M04/M06 Q1019=
201812070730 METAR LRSV 070730Z 19006KT CAVOK M04/M06 Q1018=
201812070800 METAR LRSV 070800Z 20006KT CAVOK M03/M06 Q1018=
201812070830 METAR LRSV 070830Z 20005KT CAVOK M03/M06 Q1018=
201812070900 METAR LRSV 070900Z 20007KT CAVOK M03/M06 Q1018=
201812070930 METAR LRSV 070930Z 21007KT CAVOK M03/M06 Q1017=
201812071000 METAR LRSV 071000Z 22009KT CAVOK M02/M07 Q1017=
201812071030 METAR LRSV 071030Z 21008KT CAVOK M01/M06 Q1016=
201812071100 METAR LRSV 071100Z 21008KT 9999 FEW048 M01/M05 Q1016=
201812071130 METAR LRSV 071130Z 22008KT CAVOK M01/M05 Q1016=
201812071200 METAR LRSV 071200Z 22007KT 9999 SCT045 M01/M04 Q1016=
201812071230 METAR LRSV 071230Z 22006KT 9999 SCT045 M00/M04 Q1015=
201812071300 METAR LRSV 071300Z 24005KT 9999 SCT045 00/M04 Q1015=
201812071330 METAR LRSV 071330Z 24004KT 9999 SCT030 00/M03 Q1015=
201812071400 METAR LRSV 071400Z 24004KT 9999 SCT030 01/M03 Q1015=
201812071430 METAR LRSV 071430Z 18003KT 9999 SCT044 M00/M03 Q1015=
201812071500 METAR LRSV 071500Z 00000KT 9999 SCT043 M00/M03 Q1015=
201812071530 METAR LRSV 071530Z 16003KT 120V180 8000 FEW043 M01/M03 Q1014=
201812071600 METAR LRSV 071600Z 18002KT 8000 FEW043 M01/M03 Q1014=
201812071630 METAR LRSV 071630Z 13003KT 8000 NSC M01/M03 Q1014=
201812071700 METAR LRSV 071700Z 20003KT 8000 NSC M01/M03 Q1014=
201812071730 METAR LRSV 071730Z 20004KT 8000 NSC M01/M03 Q1013=
201812071800 METAR LRSV 071800Z 21007KT CAVOK M01/M04 Q1013=
201812071830 METAR LRSV 071830Z 20008KT CAVOK M01/M03 Q1013=
201812071900 METAR LRSV 071900Z 20006KT CAVOK M01/M03 Q1012=
201812071930 METAR LRSV 071930Z 21006KT CAVOK M01/M03 Q1012=
201812072000 METAR LRSV 072000Z 21008KT CAVOK M00/M03 Q1012=
201812072030 METAR LRSV 072030Z 20007KT CAVOK M00/M03 Q1011=
201812072100 METAR LRSV 072100Z 20007KT CAVOK M00/M03 Q1011=
201812072130 METAR LRSV 072130Z 21007KT 9999 FEW047 M00/M03 Q1010=
201812072200 METAR LRSV 072200Z 20008KT CAVOK M00/M02 Q1010=
201812072230 METAR LRSV 072230Z 20007KT CAVOK M00/M03 Q1010=
201812072300 METAR LRSV 072300Z 19006KT CAVOK M01/M03 Q1009=
201812072330 METAR LRSV 072330Z 19007KT CAVOK M01/M02 Q1009=
201812080000 METAR LRSV 080000Z 20008KT CAVOK M01/M02 Q1009=
201812080030 METAR LRSV 080030Z 21008KT CAVOK M01/M02 Q1009=
201812080100 METAR LRSV 080100Z 21008KT CAVOK M00/M02 Q1008=
201812080130 METAR LRSV 080130Z AUTO 21007KT 9000 OVC049/// M00/M02 Q1008=
201812080200 METAR LRSV 080200Z 21008KT CAVOK M00/M02 Q1008=
201812080230 METAR LRSV 080230Z 22007KT CAVOK M00/M02 Q1007=
201812080300 METAR LRSV 080300Z 23008KT 9999 BKN047 00/M02 Q1007=
201812080330 METAR LRSV 080330Z 25010KT 9999 BKN047 01/M01 Q1007=
201812080400 METAR LRSV 080400Z 24009KT 9999 BKN045 01/M01 Q1007=
201812080430 METAR LRSV 080430Z 24010KT 9999 BKN047 01/M01 Q1007=
201812080500 METAR LRSV 080500Z 25010KT 9999 -RA BKN047 01/M01 Q1008=
201812080530 METAR LRSV 080530Z 25009KT 9999 -RA BKN046 02/M00 Q1008=
201812080600 METAR LRSV 080600Z 25010KT 9000 -RA BKN049 02/00 Q1008=
201812080630 METAR LRSV 080630Z 25009KT 9000 -RA NSC 03/01 Q1008=
201812080700 METAR LRSV 080700Z 26008KT 9999 -RA NSC 03/01 Q1008 R16/29//95=
201812080730 METAR LRSV 080730Z 25009KT CAVOK 03/01 Q1008 R16/29//95=
201812080800 METAR LRSV 080800Z 24006KT CAVOK 03/01 Q1008 R16/29//95=
201812080830 METAR LRSV 080830Z 25007KT CAVOK 03/01 Q1008 R16/29//95=
201812080900 METAR LRSV 080900Z 24007KT CAVOK 02/01 Q1008 R16/29//95=
201812080930 METAR LRSV 080930Z 23004KT CAVOK 02/00 Q1007 R16/29//95=
201812081000 METAR LRSV 081000Z 21004KT CAVOK 02/00 Q1007 R16/29//95=
201812081030 METAR LRSV 081030Z 22004KT CAVOK 03/01 Q1007 R16/29//95=
201812081100 METAR LRSV 081100Z 21005KT CAVOK 03/01 Q1007 R16/29//95=
201812081130 METAR LRSV 081130Z 21005KT CAVOK 03/01 Q1007 R16/29//95=
201812081200 METAR LRSV 081200Z 24005KT CAVOK 02/00 Q1007 R16/29//95=
201812081230 METAR LRSV 081230Z 23006KT CAVOK 03/01 Q1006 R16/29//95=
201812081300 METAR LRSV 081300Z 22005KT 180V240 8000 -RA NSC 03/01 Q1006
                        R16/29//95=
201812081330 METAR LRSV 081330Z 24004KT 8000 -RA NSC 03/01 Q1007 R16/29//95=
201812081400 METAR LRSV 081400Z 25005KT 8000 -RA OVC049 03/01 Q1007 R16/29//95=
201812081430 METAR LRSV 081430Z 25009KT 8000 -RA FEW044 03/01 Q1007 R16/29//95=
201812081500 METAR LRSV 081500Z 24007KT 8000 -RA SCT042 03/01 Q1007 R16/29//95=
201812081530 METAR LRSV 081530Z 26006KT 8000 -RA BKN041 03/01 Q1007 R16/29//95=
201812081600 METAR LRSV 081600Z 26005KT 8000 -RA BKN040 03/02 Q1007 R16/29//95=
201812081630 METAR LRSV 081630Z 02007KT 3000 -RA BR BKN035 01/00 Q1007
                        R16/29//95=
201812081700 METAR LRSV 081700Z 02007KT 1500 -RA BR OVC037 00/M00 Q1007
                        R16/29//95=
201812081730 METAR LRSV 081730Z 35006KT 0800 R34/1600D -RA FG BKN034 00/00
                        Q1008 R16/29//95=
201812081800 METAR LRSV 081800Z 33006KT 1600 -RA BR FEW008 BKN032 01/01
                        Q1008 R16/29//95=
201812081830 METAR LRSV 081830Z 31007KT 3000 -RA BR SCT010 BKN031 03/03
                        Q1008 R16/29//95=
201812081900 METAR LRSV 081900Z 36007KT 3000 -RA BR SCT013 BKN023 03/02
                        Q1008 R16/29//95=
201812081930 METAR LRSV 081930Z 36007KT 2500 -RA BR SCT010 BKN024 03/02
                        Q1008 R16/29//95=
201812082000 METAR LRSV 082000Z 36007KT 2000 -RA BR BKN010 02/02 Q1008
                        R16/29//95=
201812082030 METAR COR LRSV 082030Z 35010KT 4000 -RA BR SCT010 BKN023
                        02/02 Q1008 R16/29//95=
201812082100 METAR LRSV 082100Z 34010KT 7000 -RA SCT010 BKN024 02/02 Q1008
                        R16/29//95=
201812082130 METAR LRSV 082130Z 34009KT 7000 -RA FEW010 BKN027 02/01 Q1008
                        R16/29//95=
201812082200 METAR LRSV 082200Z 33009KT 7000 -RA SCT010 BKN027 02/01 Q1008
                        R16/29//95=
201812082230 METAR LRSV 082230Z 32006KT 8000 -RA FEW010 BKN035 02/01 Q1008
                        R16/29//95=
201812082300 METAR LRSV 082300Z 30005KT 9999 -RA FEW010 BKN035 02/01 Q1008
                        R16/29//95=
201812082330 METAR LRSV 082330Z 30005KT 9999 -RA FEW019 BKN040 02/01 Q1008
                        R16/29//95=
201812090000 METAR LRSV 090000Z 29005KT 9999 -RA SCT019 BKN040 02/01 Q1008
                        R16/29//95=
201812090030 METAR LRSV 090030Z 29004KT 9999 -RA FEW019 BKN041 02/01 Q1008
                        R16/29//95=
201812090100 METAR LRSV 090100Z 29004KT 9999 FEW019 BKN042 02/01 Q1008
                        R16/29//95=
201812090130 METAR LRSV 090130Z 25005KT 9999 BKN043 01/01 Q1007 R16/29//95=
201812090200 METAR LRSV 090200Z 27004KT 9999 BKN041 02/01 Q1007 R16/29//95=
201812090230 METAR LRSV 090230Z 28006KT 9999 FEW020 BKN043 02/01 Q1007
                        R16/29//95=
201812090300 METAR LRSV 090300Z 28007KT 9999 FEW020 BKN042 02/01 Q1007
                        R16/29//95=
201812090330 METAR LRSV 090330Z 28004KT 9999 BKN041 02/01 Q1007 R16/29//95=
201812090400 METAR LRSV 090400Z 26006KT 9999 BKN040 02/01 Q1007 R16/29//95=
201812090430 METAR LRSV 090430Z 26007KT 9999 BKN040 02/01 Q1007 R16/29//95=
201812090500 METAR LRSV 090500Z 26008KT 9999 BKN035 02/01 Q1007 R16/29//95=
201812090530 METAR LRSV 090530Z 24006KT 9999 -RA SCT035 02/01 Q1006 R16/29//95=
201812090600 METAR LRSV 090600Z 24007KT CAVOK 01/00 Q1007 R16/29//95=
201812090630 METAR LRSV 090630Z 24006KT CAVOK 00/M00 Q1006 R16/29//95=
201812090700 METAR LRSV 090700Z 24008KT CAVOK 01/00 Q1006 R16/29//95=
201812090730 METAR LRSV 090730Z 23008KT CAVOK 02/00 Q1006 R16/29//95=
201812090800 METAR LRSV 090800Z 22008KT CAVOK 02/00 Q1006 R16/29//95=
201812090830 METAR LRSV 090830Z 22008KT CAVOK 03/00 Q1006 R16/29//95=
201812090900 METAR LRSV 090900Z 20007KT CAVOK 03/00 Q1005 R16/29//95=
201812090930 METAR LRSV 090930Z 20008KT CAVOK 03/00 Q1005 R16/29//95=
201812091000 METAR LRSV 091000Z 19007KT CAVOK 03/00 Q1005 R16/29//95=
201812091030 METAR LRSV 091030Z 21009KT CAVOK 03/00 Q1004 R16/29//95=
201812091100 METAR LRSV 091100Z 19007KT CAVOK 04/01 Q1004 R16/29//95=
201812091130 METAR LRSV 091130Z 19007KT CAVOK 04/01 Q1004 R16/29//95=
201812091200 METAR LRSV 091200Z 19005KT CAVOK 04/01 Q1003 R16/29//95=
201812091230 METAR LRSV 091230Z 20006KT CAVOK 04/01 Q1003 R16/29//95=
201812091300 METAR LRSV 091300Z 18004KT CAVOK 05/01 Q1003 R16/29//95=
201812091330 METAR LRSV 091330Z 20003KT CAVOK 04/00 Q1003 R16/29//95=
201812091400 METAR LRSV 091400Z 17005KT CAVOK 04/M00 Q1003 R16/29//95=
201812091430 METAR LRSV 091430Z 19005KT CAVOK 03/M01 Q1003 R16/29//95=
201812091500 METAR LRSV 091500Z 17003KT CAVOK 03/M01 Q1003 R16/29//95=
201812091530 METAR LRSV 091530Z 23009KT CAVOK 03/M01 Q1003 R16/29//95=
201812091600 METAR LRSV 091600Z 23006KT CAVOK 03/M01 Q1003 R16/19//95=
201812091630 METAR LRSV 091630Z 20006KT CAVOK 03/M01 Q1003 R16/19//95=
201812091700 METAR LRSV 091700Z 22008KT CAVOK 03/M01 Q1003 R16/19//95=
201812091730 METAR LRSV 091730Z 22009KT 9999 SCT045 03/M01 Q1003 R16/19//95=
201812091800 METAR LRSV 091800Z 22007KT CAVOK 02/M01 Q1003 R16/19//95=
201812091830 METAR LRSV 091830Z 22007KT CAVOK 02/M01 Q1003 R16/19//95=
201812091900 METAR LRSV 091900Z 21006KT 9999 -RA FEW036 OVC041 03/M01
                        Q1002 R16/19//95=
201812091930 METAR LRSV 091930Z 22005KT 9999 FEW044 03/M01 Q1003 R16/19//95=
201812092000 METAR LRSV 092000Z 21006KT CAVOK 03/M01 Q1002 R16/19//95=
201812092030 METAR LRSV 092030Z 22007KT CAVOK 02/M01 Q1002 R16/19//95=
201812092100 METAR LRSV 092100Z 22007KT CAVOK 02/M01 Q1002 R16/19//95=
201812092130 METAR LRSV 092130Z 23006KT CAVOK 02/M01 Q1003 R16/19//95=
201812092200 METAR LRSV 092200Z 22007KT CAVOK 02/M01 Q1002 R16/19//95=
201812092230 METAR LRSV 092230Z 22005KT CAVOK 01/M01 Q1002 R16/19//95=
201812092300 METAR LRSV 092300Z 19004KT CAVOK 01/M01 Q1002 R16/19//95=
201812092330 METAR LRSV 092330Z 21004KT CAVOK 01/M01 Q1002 R16/19//95=
201812100000 METAR LRSV 100000Z 20001KT CAVOK 01/M01 Q1002 R16/19//95=
201812100030 METAR LRSV 100030Z AUTO 20004KT 9999 SCT120/// BKN150///
                        01/M01 Q1002=
201812100100 METAR LRSV 100100Z 00000KT CAVOK 01/M01 Q1002 R16/19//95=
201812100130 METAR LRSV 100130Z AUTO 24005KT 9999 SCT170/// 02/M02 Q1002=
201812100200 METAR LRSV 100200Z 25006KT CAVOK 02/M02 Q1002 R16/19//95=
201812100230 METAR LRSV 100230Z 25006KT CAVOK 02/M02 Q1002 R16/19//95=
201812100300 METAR LRSV 100300Z 21004KT CAVOK 01/M02 Q1002 R16/19//95=
201812100330 METAR LRSV 100330Z 17003KT CAVOK 01/M02 Q1002 R16/19//95=
201812100400 METAR LRSV 100400Z 24004KT CAVOK 02/M02 Q1002 R16/19//95=
201812100430 METAR LRSV 100430Z 24005KT CAVOK 01/M02 Q1002 R16/19//95=
201812100500 METAR LRSV 100500Z 25005KT CAVOK 02/M02 Q1002 R16/19//95=
201812100530 METAR LRSV 100530Z 26004KT CAVOK 01/M02 Q1002 R16/19//95=
201812100600 METAR LRSV 100600Z 24005KT CAVOK 01/M02 Q1003 R16/19//95=
201812100630 METAR LRSV 100630Z 23004KT CAVOK 01/M02 Q1003 R16/19//95=
201812100700 METAR COR LRSV 100700Z 24003KT CAVOK 03/M01 Q1003 R16/19//95=
201812100730 METAR LRSV 100730Z 25006KT CAVOK 03/M01 Q1003 R16/19//95=
201812100800 METAR LRSV 100800Z 24005KT CAVOK 03/M01 Q1004 R16/19//95=
201812100830 METAR LRSV 100830Z 25006KT CAVOK 03/M01 Q1004 R16/19//95=
201812100900 METAR LRSV 100900Z 24006KT CAVOK 03/M01 Q1004 R16/19//95=
201812100930 METAR LRSV 100930Z 25007KT CAVOK 03/M01 Q1004 R16/19//95=
201812101000 METAR LRSV 101000Z 25007KT CAVOK 03/M00 Q1004 R16/19//95=
201812101030 METAR COR LRSV 101030Z 25007KT CAVOK 03/M00 Q1004 R16/19//95=
201812101100 METAR LRSV 101100Z 25006KT CAVOK 04/M00 Q1004 R16/19//95=
201812101130 METAR LRSV 101130Z 26005KT CAVOK 05/M00 Q1004 R16/19//95=
201812101200 METAR LRSV 101200Z 25005KT CAVOK 04/00 Q1004 R16/19//95=
201812101230 METAR LRSV 101230Z 27004KT CAVOK 05/M00 Q1004 R16/19//95=
201812101300 METAR LRSV 101300Z 31004KT 270V030 CAVOK 05/00 Q1004 R16/19//95=
201812101330 METAR LRSV 101330Z 34009KT 8000 FEW043 03/00 Q1005 R16/19//95=
201812101400 METAR LRSV 101400Z 36009KT 9999 -RA SCT040 03/00 Q1005 R16/19//95=
201812101430 METAR LRSV 101430Z 34010KT 9999 -RA BKN040 02/00 Q1005 R16/19//95=
201812101500 METAR LRSV 101500Z 35009KT 9999 -RA BKN045 02/00 Q1005 R16/19//95=
201812101530 METAR LRSV 101530Z 34009KT 9999 -RA BKN045 02/01 Q1006 R16/19//95=
201812101600 METAR LRSV 101600Z 34011KT 9999 -RA SCT020 BKN035 02/01 Q1006
                        R16/19//95=
201812101630 METAR LRSV 101630Z 34008KT 9999 -RA FEW017 BKN025 02/01 Q1006
                        R16/29//95=
201812101700 METAR LRSV 101700Z 33008KT 9999 -RA SCT019 BKN025 02/01 Q1006
                        R16/29//95=
201812101730 METAR LRSV 101730Z 32008KT 9999 -RA FEW020 BKN030 03/01 Q1006
                        R16/29//95=
201812101800 METAR LRSV 101800Z 30006KT 9999 -RA BKN037 02/01 Q1007 R16/29//95=
201812101830 METAR LRSV 101830Z 33011KT 9999 -RA SCT010 BKN035 02/00 Q1007
                        R16/29//95=
201812101900 METAR LRSV 101900Z 32012KT 9999 -RA BKN030 02/00 Q1007 R16/29//95=
201812101930 METAR LRSV 101930Z 32008KT 9999 BKN035 02/00 Q1008 R16/29//95=
201812102000 METAR LRSV 102000Z 30006KT 9999 BKN042 02/00 Q1008 R16/29//95=
201812102030 METAR LRSV 102030Z 31005KT 9999 -RA BKN040 02/00 Q1008 R16/29//95=
201812102100 METAR LRSV 102100Z 31005KT 9999 -RA BKN040 02/M00 Q1008 R16/29//95=
201812102130 METAR LRSV 102130Z 30004KT 9999 -RA FEW020 BKN040 01/00 Q1008
                        R16/29//95=
201812102200 METAR LRSV 102200Z 33006KT 9999 -RA BKN040 02/M00 Q1008 R16/29//95=
201812102230 METAR LRSV 102230Z 32008KT 9999 -RA SCT045 02/M00 Q1008 R16/29//95=
201812102300 METAR LRSV 102300Z 32007KT 9999 SCT042 02/M00 Q1008 R16/29//95=
201812102330 METAR LRSV 102330Z 32005KT 9999 BKN042 02/M01 Q1008 R16/29//95=
201812110000 METAR LRSV 110000Z 32004KT 9999 SCT045 02/M01 Q1008 R16/29//95=
201812110030 METAR LRSV 110030Z 32004KT 9999 BKN045 02/M01 Q1008 R16/29//95=
201812110100 METAR LRSV 110100Z 31005KT 9999 SCT045 02/M02 Q1008 R16/29//95=
201812110130 METAR LRSV 110130Z 30003KT 270V340 9999 BKN045 01/M02 Q1009
                        R16/29//95=
201812110200 METAR LRSV 110200Z 32006KT 9999 SCT045 01/M02 Q1008 R16/29//95=
201812110230 METAR LRSV 110230Z 30004KT CAVOK 01/M02 Q1009 R16/29//95=
201812110300 METAR LRSV 110300Z 31006KT 9999 BKN047 01/M02 Q1009 R16/29//95=
201812110330 METAR LRSV 110330Z 32007KT 9999 BKN049 01/M02 Q1009 R16/29//95=
201812110400 METAR LRSV 110400Z 29005KT 9999 BKN049 01/M02 Q1009 R16/29//95=
201812110430 METAR LRSV 110430Z 30007KT CAVOK 01/M02 Q1009 R16/29//95=
201812110500 METAR LRSV 110500Z 31008KT CAVOK 01/M02 Q1009 R16/29//95=
201812110530 METAR LRSV 110530Z 33009KT CAVOK 00/M02 Q1009 R16/29//95=
201812110600 METAR LRSV 110600Z 33008KT CAVOK 00/M02 Q1010 R16/29//95=
201812110630 METAR LRSV 110630Z 30005KT CAVOK 00/M02 Q1010 R16/29//95=
201812110700 METAR COR LRSV 110700Z 32007KT CAVOK 00/M02 Q1010 R16/29//95=
201812110730 METAR LRSV 110730Z 31007KT CAVOK 00/M02 Q1010 R16/29//95=
201812110800 METAR LRSV 110800Z 31008KT CAVOK 01/M02 Q1010 R16/29//95=
201812110830 METAR LRSV 110830Z 33008KT CAVOK 01/M01 Q1011 R16/29//95=
201812110900 METAR LRSV 110900Z 33008KT CAVOK 01/M01 Q1011 R16/29//95=
201812110930 METAR LRSV 110930Z 33007KT 9999 SCT040 01/M02 Q1011 R16/29//95=
201812111000 METAR LRSV 111000Z 35008KT 9999 FEW012 01/M01 Q1010 R16/29//95=
201812111030 METAR LRSV 111030Z 35009KT 9999 FEW014 02/M01 Q1010 R16/29//95=
201812111100 METAR LRSV 111100Z 33007KT CAVOK 02/M01 Q1010 R16/29//95=
201812111130 METAR LRSV 111130Z 34009KT CAVOK 02/M01 Q1011 R16/29//95=
201812111200 METAR LRSV 111200Z 36007KT 9999 FEW040 02/M02 Q1011 R16/29//95=
201812111230 METAR LRSV 111230Z 35008KT 9999 FEW017 02/M02 Q1011 R16/29//95=
201812111300 METAR LRSV 111300Z 35008KT 9999 FEW017 02/M02 Q1011 R16/29//95=
201812111330 METAR COR LRSV 111330Z 35006KT 9999 FEW020 01/M02 Q1011 R16/29//95=
201812111400 METAR LRSV 111400Z 03006KT CAVOK 01/M02 Q1012 R16/29//95=
201812111430 METAR LRSV 111430Z 03003KT CAVOK 00/M02 Q1012 R16/29//95=
201812111500 METAR LRSV 111500Z 00000KT CAVOK M00/M02 Q1012 R16/29//95=
201812111530 METAR LRSV 111530Z 00000KT CAVOK M00/M02 Q1012 R16/19//95=
201812111600 METAR LRSV 111600Z 00000KT CAVOK M01/M03 Q1013 R16/19//95=
201812111630 METAR LRSV 111630Z 00000KT CAVOK M01/M03 Q1013 R16/19//95=
201812111700 METAR LRSV 111700Z 31004KT CAVOK M01/M03 Q1013 R16/19//95=
201812111730 METAR LRSV 111730Z 31003KT CAVOK M01/M03 Q1013 R16/19//95=
201812111800 METAR LRSV 111800Z 26004KT 8000 NSC M02/M03 Q1013 R16/19//95=
201812111830 METAR LRSV 111830Z 28004KT 8000 NSC M01/M02 Q1013 R16/19//95=
201812111900 METAR LRSV 111900Z 31003KT 8000 NSC M01/M02 Q1013 R16/19//95=
201812111930 METAR LRSV 111930Z 29004KT CAVOK M01/M02 Q1013 R16/19//95=
201812112000 METAR LRSV 112000Z 31004KT CAVOK M01/M03 Q1013 R16/19//95=
201812112030 METAR LRSV 112030Z 28005KT CAVOK M02/M03 Q1013 R16/19//95=
201812112100 METAR LRSV 112100Z 33004KT CAVOK M02/M03 Q1013 R16/19//95=
201812112130 METAR LRSV 112130Z 32005KT CAVOK M01/M02 Q1013 R16/19//95=
201812112200 METAR LRSV 112200Z 34004KT CAVOK M02/M03 Q1013 R16/19//95=
201812112230 METAR LRSV 112230Z 35004KT CAVOK M01/M03 Q1013 R16/19//95=
201812112300 METAR LRSV 112300Z 34006KT CAVOK M01/M03 Q1013 R16/19//95=
201812112330 METAR LRSV 112330Z 33006KT CAVOK M01/M03 Q1013 R16/19//95=
201812120000 METAR LRSV 120000Z 34006KT CAVOK M01/M03 Q1013 R16/19//95=
201812120030 METAR LRSV 120030Z 32005KT CAVOK M00/M03 Q1013 R16/19//95=
201812120100 METAR LRSV 120100Z VRB01KT CAVOK M01/M03 Q1013 R16/19//95=
201812120130 METAR LRSV 120130Z 27004KT CAVOK M01/M03 Q1013 R16/19//95=
201812120200 METAR LRSV 120200Z 29004KT CAVOK M01/M02 Q1013 R16/19//95=
201812120230 METAR LRSV 120230Z 31005KT CAVOK M00/M03 Q1013 R16/19//95=
201812120300 METAR LRSV 120300Z 33006KT CAVOK M01/M03 Q1013 R16/19//95=
201812120330 METAR LRSV 120330Z 34005KT CAVOK M01/M03 Q1013 R16/CLRD//=
201812120400 METAR LRSV 120400Z 34005KT CAVOK M01/M03 Q1013=
201812120430 METAR LRSV 120430Z 32004KT CAVOK M00/M03 Q1014=
201812120500 METAR LRSV 120500Z 33004KT CAVOK M01/M03 Q1014=
201812120530 METAR LRSV 120530Z 33004KT CAVOK M01/M03 Q1014=
201812120600 METAR LRSV 120600Z 35004KT CAVOK M01/M03 Q1014=
201812120630 METAR LRSV 120630Z 33004KT CAVOK M01/M03 Q1014=
201812120700 METAR LRSV 120700Z VRB01KT CAVOK M01/M03 Q1014=
201812120730 METAR LRSV 120730Z 33004KT 300V020 CAVOK M00/M03 Q1014=
201812120800 METAR LRSV 120800Z 31005KT CAVOK M00/M03 Q1014=
201812120830 METAR LRSV 120830Z 26006KT CAVOK M00/M03 Q1014=
201812120900 METAR LRSV 120900Z 28007KT CAVOK M00/M03 Q1014=
201812120930 METAR LRSV 120930Z 30007KT CAVOK 01/M03 Q1014=
201812121000 METAR LRSV 121000Z 30006KT CAVOK 01/M03 Q1014=
201812121030 METAR LRSV 121030Z 31006KT CAVOK 01/M03 Q1014=
201812121100 METAR LRSV 121100Z 29008KT CAVOK 01/M03 Q1014=
201812121130 METAR LRSV 121130Z 28007KT CAVOK 01/M03 Q1014=
201812121200 METAR LRSV 121200Z 28008KT CAVOK 01/M03 Q1014=
201812121230 METAR LRSV 121230Z 29008KT CAVOK 01/M03 Q1014=
201812121300 METAR LRSV 121300Z 31007KT CAVOK 01/M04 Q1014=
201812121330 METAR LRSV 121330Z 33007KT CAVOK 01/M04 Q1014=
201812121400 METAR LRSV 121400Z 32007KT CAVOK 01/M04 Q1014=
201812121430 METAR COR LRSV 121430Z 32008KT CAVOK 01/M04 Q1014=
201812121500 METAR LRSV 121500Z 31007KT CAVOK 00/M04 Q1014=
201812121530 METAR LRSV 121530Z 31006KT CAVOK M01/M04 Q1015=
201812121600 METAR LRSV 121600Z 30008KT CAVOK M00/M04 Q1015=
201812121630 METAR LRSV 121630Z 31009KT CAVOK M00/M05 Q1015=
201812121700 METAR LRSV 121700Z 31009KT CAVOK M00/M05 Q1015=
201812121730 METAR LRSV 121730Z 31011KT CAVOK M00/M05 Q1015=
201812121800 METAR COR LRSV 121800Z 32012KT CAVOK M00/M05 Q1015=
201812121830 METAR LRSV 121830Z 31012KT CAVOK M00/M05 Q1015=
201812121900 METAR COR LRSV 121900Z 31012KT CAVOK M00/M05 Q1015=
201812121930 METAR COR LRSV 121930Z 31011KT CAVOK M01/M04 Q1015=
201812122000 METAR LRSV 122000Z 31012KT CAVOK M01/M04 Q1015=
201812122030 METAR LRSV 122030Z 30014KT CAVOK M01/M04 Q1015=
201812122100 METAR LRSV 122100Z 30014KT 9999 -SN NSC M00/M04 Q1015=
201812122130 METAR LRSV 122130Z 30017KT 9999 -SN NSC M00/M03 Q1014=
201812122200 METAR LRSV 122200Z 30016KT 9999 -SN NSC M01/M03 Q1015=
201812122230 METAR LRSV 122230Z 30014KT 9999 -SN NSC M01/M03 Q1014=
201812122300 METAR LRSV 122300Z 30015KT 9999 -SN NSC M01/M03 Q1014=
201812122330 METAR LRSV 122330Z 30015KT 9999 -SN NSC M01/M03 Q1014=
201812130000 METAR LRSV 130000Z 30015KT CAVOK M01/M03 Q1014=
201812130030 METAR LRSV 130030Z 30014KT 9999 FEW014 M01/M03 Q1014=
201812130100 METAR COR LRSV 130100Z 30015KT 8000 BKN013 M01/M03 Q1014=
201812130130 METAR LRSV 130130Z 30014KT 8000 -SN SCT012 BKN022 M01/M03
                        Q1014=
201812130200 METAR LRSV 130200Z 30014KT 8000 SCT013 BKN020 M01/M03 Q1014=
201812130230 METAR LRSV 130230Z 30016G27KT 8000 FEW013 BKN021 M01/M03
                        Q1014=
201812130300 METAR LRSV 130300Z 30017KT 8000 -SN BKN020 M01/M03 Q1014=
201812130330 METAR COR LRSV 130330Z 30017KT 8000 -SN DRSN BKN025 M01/M03
                        Q1014=
201812130400 METAR LRSV 130400Z 30015KT 8000 -SN DRSN FEW015 BKN022 M01/M03
                        Q1014 R16/09//95=
201812130430 METAR LRSV 130430Z 30017KT 9999 -SN DRSN FEW013 BKN025 M01/M03
                        Q1013 R16/09//95=
201812130500 METAR LRSV 130500Z 30016G26KT 9999 -SN DRSN FEW012 BKN030
                        M01/M03 Q1013 R16/09//95=
201812130530 METAR LRSV 130530Z 30017KT 7000 -SN DRSN FEW012 BKN030 M01/M03
                        Q1013 R16/09//95=
201812130600 METAR LRSV 130600Z 30018KT 6000 -SN DRSN FEW012 BKN032 M01/M03
                        Q1013 R16/09//95=
201812130630 METAR LRSV 130630Z 30017KT 6000 -SN DRSN FEW013 BKN032 M01/M03
                        Q1013 R16/09//95=
201812130700 METAR LRSV 130700Z 30016KT 6000 -SN DRSN FEW014 BKN032 M01/M02
                        Q1014 R16/09//95=
201812130730 METAR LRSV 130730Z 30014KT 5000 -SN DRSN FEW012 BKN032 M01/M02
                        Q1014 R16/09//95=
201812130800 METAR LRSV 130800Z 30017KT 5000 -SN DRSN FEW015 BKN030 M01/M02
                        Q1014 R16/09//95=
201812130830 METAR LRSV 130830Z 30016KT 5000 -SN DRSN FEW015 BKN032 M01/M02
                        Q1014 R16/09//95=
201812130900 METAR LRSV 130900Z 30013KT 3000 -SN DRSN BR FEW011 BKN029
                        M01/M02 Q1014 R16/09//95=
201812130930 METAR LRSV 130930Z 30015KT 3000 -SN DRSN BR FEW012 BKN024
                        M01/M02 Q1014 R16/29//95=
201812131000 METAR LRSV 131000Z 30015KT 3000 -SN DRSN BR FEW010 BKN024
                        M01/M02 Q1014 R16/29//95=
201812131030 METAR LRSV 131030Z 30015KT 3000 -SN DRSN BR FEW009 BKN023
                        M00/M02 Q1014 R16/29//95=
201812131100 METAR LRSV 131100Z 29016KT 3000 -SN BR SCT010 BKN025 M01/M02
                        Q1013 R16/29//95=
201812131130 METAR LRSV 131130Z 29017KT 3000 -SN BR SCT010 BKN023 M00/M02
                        Q1014 R16/29//95=
201812131200 METAR LRSV 131200Z 30015KT 3000 -SN BR SCT010 BKN025 M00/M02
                        Q1014 R16/29//95=
201812131230 METAR LRSV 131230Z 30015KT 3000 -SN BR SCT010 BKN025 M00/M01
                        Q1014 R16/29//95=
201812131300 METAR LRSV 131300Z 30015KT 3000 -SN BR SCT010 BKN030 M00/M01
                        Q1014 R16/29//95=
201812131330 METAR LRSV 131330Z 31014KT 5000 -SN SCT010 BKN030 M00/M02
                        Q1014 R16/29//95=
201812131400 METAR LRSV 131400Z 31014KT 8000 -SN SCT011 BKN038 M00/M02
                        Q1014 R16/29//95=
201812131430 METAR LRSV 131430Z 31014KT 8000 -SN FEW012 BKN038 M00/M02
                        Q1014 R16/29//95=
201812131500 METAR LRSV 131500Z 31013KT 8000 -SN FEW011 BKN038 M00/M02
                        Q1015 R16/29//95=
201812131530 METAR LRSV 131530Z 31012KT 6000 -SN FEW014 BKN038 M01/M02
                        Q1015 R16/29//95=
201812131600 METAR LRSV 131600Z 31009KT 5000 -SN SCT011 BKN038 M01/M02
                        Q1015 R16/29//95=
201812131630 METAR LRSV 131630Z 31011KT 280V340 8000 -SN SCT012 BKN040
                        M01/M02 Q1015 R16/590293=
201812131700 METAR LRSV 131700Z 31011KT 270V340 9999 -SN SCT015 BKN045
                        M01/M03 Q1015 R16/590293=
201812131730 METAR LRSV 131730Z 31011KT 9999 -SN FEW015 BKN040 M01/M03
                        Q1015 R16/590293=
201812131800 METAR LRSV 131800Z 31011KT 9999 -SN SCT014 BKN045 M01/M03
                        Q1015 R16/550294=
201812131830 METAR LRSV 131830Z 31012KT 9999 -SN SCT015 BKN040 M01/M03
                        Q1015 R16/550294=
201812131900 METAR LRSV 131900Z 31012KT 8000 -SN SCT014 BKN040 M01/M03
                        Q1016 R16/550294=
201812131930 METAR LRSV 131930Z 31011KT 8000 -SN SCT014 BKN040 M01/M03
                        Q1016 R16/550294=
201812132000 METAR LRSV 132000Z 31012KT 9999 -SN SCT012 BKN030 M01/M03
                        Q1016 R16/550294=
201812132030 METAR LRSV 132030Z 31011KT 9999 -SN SCT012 BKN030 M01/M03
                        Q1016 R16/550294=
201812132100 METAR LRSV 132100Z 31011KT 6000 -SN SCT012 BKN030 M01/M03
                        Q1016 R16/550294=
201812132130 METAR LRSV 132130Z 31011KT 9999 -SN SCT012 BKN030 M01/M03
                        Q1017 R16/550294=
201812132200 METAR LRSV 132200Z 31011KT 8000 -SN SCT010 BKN038 M01/M03
                        Q1017 R16/550294=
201812132230 METAR LRSV 132230Z 31012KT 9999 -SN SCT010 BKN038 M02/M03
                        Q1017 R16/550294=
201812132300 METAR LRSV 132300Z 31011KT 9999 -SN SCT015 BKN038 M02/M03
                        Q1017 R16/550294=
201812132330 METAR LRSV 132330Z 30011KT 9999 -SN SCT012 BKN040 M02/M03
                        Q1017 R16/550294=
201812140000 METAR LRSV 140000Z 30009KT 9999 -SN BKN016 BKN040 M02/M03
                        Q1017 R16/550294=
201812140030 METAR LRSV 140030Z 31010KT 8000 -SN SCT014 BKN030 M01/M03
                        Q1017 R16/550294=
201812140100 METAR LRSV 140100Z 32010KT 9999 -SN BKN012 BKN030 M01/M03
                        Q1018 R16/550294=
201812140130 METAR LRSV 140130Z 31008KT 9999 -SN BKN015 BKN030 M01/M03
                        Q1018 R16/550294=
201812140200 METAR LRSV 140200Z 31010KT 9999 -SN BKN015 BKN030 M01/M03
                        Q1018 R16/550294=
201812140230 METAR LRSV 140230Z 30010KT 9999 -SN BKN015 BKN029 M02/M03
                        Q1018 R16/550294=
201812140300 METAR LRSV 140300Z 32009KT 9999 -SN SCT014 BKN030 M02/M03
                        Q1018 R16/590194=
201812140330 METAR LRSV 140330Z 31010KT 9999 -SN SCT016 BKN026 M01/M04
                        Q1018 R16/590194=
201812140400 METAR LRSV 140400Z 31010KT 9999 -SN SCT016 BKN030 M01/M04
                        Q1018 R16/590194=
201812140430 METAR LRSV 140430Z 32009KT 9999 BKN013 BKN027 M02/M04 Q1018
                        R16/590194=
201812140500 METAR LRSV 140500Z 32009KT 9999 BKN011 BKN027 M02/M03 Q1019
                        R16/590194=
201812140530 METAR LRSV 140530Z 32010KT 9999 BKN012 BKN027 M02/M04 Q1019
                        R16/590194=
201812140600 METAR COR LRSV 140600Z 33009KT 5000 -SN BR SCT014 BKN034
                        M02/M04 Q1019 R16/590194=
201812140630 METAR LRSV 140630Z 32009KT 8000 -SN SCT015 BKN030 M02/M04
                        Q1019 R16/590194=
201812140700 METAR LRSV 140700Z 32008KT 9999 -SN SCT015 BKN030 M02/M04
                        Q1020 R16/590194=
201812140730 METAR LRSV 140730Z 33011KT 9999 -SN SCT014 BKN022 M02/M04
                        Q1020 R16/590194=
201812140800 METAR LRSV 140800Z 32008KT 9999 -SN SCT014 BKN018 M02/M04
                        Q1020 R16/590194=
201812140830 METAR COR LRSV 140830Z 31007KT 290V350 9999 SCT015 BKN018
                        M01/M04 Q1020 R16/590194=
201812140900 METAR COR LRSV 140900Z 31007KT 290V350 9999 SCT015 BKN018
                        M01/M04 Q1020 R16/590194=
201812140930 METAR LRSV 140930Z 31009KT 270V330 9999 SCT014 OVC033 M01/M04
                        Q1021 R16/590194=
201812141000 METAR LRSV 141000Z 31009KT 9999 SCT015 BKN036 M01/M04 Q1021
                        R16/520194=
201812141030 METAR LRSV 141030Z 31010KT 9999 FEW015 BKN038 M01/M04 Q1021
                        R16/520194=
201812141100 METAR LRSV 141100Z 31009KT 9999 FEW015 OVC041 M01/M04 Q1021
                        R16/520194=
201812141130 METAR LRSV 141130Z 32009KT 9999 FEW016 BKN028 M01/M04 Q1021
                        R16/520194=
201812141200 METAR LRSV 141200Z 32010KT 9999 BKN033 M01/M04 Q1021 R16/520194=
201812141230 METAR LRSV 141230Z 32009KT 9999 BKN038 M01/M04 Q1021 R16/520194=
201812141300 METAR LRSV 141300Z 32009KT 9999 BKN030 M01/M04 Q1021 R16/520194=
201812141330 METAR LRSV 141330Z 32007KT 9999 -SN BKN032 M01/M04 Q1022
                        R16/520194=
201812141400 METAR LRSV 141400Z 33007KT 9999 -SN BKN035 M01/M04 Q1022
                        R16/520194=
201812141430 METAR LRSV 141430Z 34009KT 9999 -SN BKN035 M02/M04 Q1022
                        R16/520194=
201812141500 METAR LRSV 141500Z 34010KT 9999 -SN BKN033 M02/M04 Q1022
                        R16/520194=
201812141530 METAR LRSV 141530Z 34009KT 9999 -SN SCT035 M02/M04 Q1022
                        R16/520194=
201812141600 METAR LRSV 141600Z 34010KT 9999 FEW012 BKN048 M02/M04 Q1023
                        R16/520194=
201812141630 METAR LRSV 141630Z 34012KT 9999 BKN046 M02/M04 Q1023 R16/520194=
201812141700 METAR LRSV 141700Z 34011KT 9999 BKN044 M02/M03 Q1023 R16/520194=
201812141730 METAR LRSV 141730Z 34010KT 9999 BKN045 M02/M03 Q1023 R16/520194=
201812141800 METAR LRSV 141800Z 34009KT 9999 BKN045 M02/M03 Q1023 R16/520194=
201812141830 METAR LRSV 141830Z 35008KT 9999 -SN FEW012 BKN045 M02/M03
                        Q1023 R16/520194=
201812141900 METAR LRSV 141900Z 35009KT 9999 -SN FEW010 BKN042 M02/M03
                        Q1023 R16/520194=
201812141930 METAR LRSV 141930Z 36009KT 9999 SCT007 BKN044 M02/M03 Q1023
                        R16/910295=
201812142000 METAR LRSV 142000Z 36007KT 9999 SCT006 BKN044 M02/M03 Q1024
                        R16/910295=
201812142030 METAR LRSV 142030Z 01007KT 9999 SCT006 BKN042 M02/M03 Q1024
                        R16/910295=
201812142100 METAR LRSV 142100Z 01006KT 9999 SCT010 BKN040 M02/M03 Q1024
                        R16/910295=
201812142130 METAR LRSV 142130Z 02007KT 8000 SCT009 BKN039 M02/M03 Q1024
                        R16/910295=
201812142200 METAR LRSV 142200Z 02006KT 8000 FEW009 BKN038 M02/M03 Q1024
                        R16/910295=
201812142230 METAR LRSV 142230Z 02005KT 8000 BKN037 M02/M03 Q1024 R16/910295=
201812142300 METAR LRSV 142300Z 03004KT 8000 BKN037 M02/M03 Q1024 R16/910295=
201812142330 METAR LRSV 142330Z 03004KT 8000 BKN038 M03/M03 Q1024 R16/910295=
201812150000 METAR LRSV 150000Z 03005KT 8000 OVC039 M03/M03 Q1024 R16/910295=
201812150030 METAR LRSV 150030Z 03005KT 8000 BKN040 M03/M04 Q1024 R16/910295=
201812150100 METAR LRSV 150100Z 03005KT 8000 BKN040 M03/M04 Q1024 R16/910295=
201812150130 METAR LRSV 150130Z 04004KT 9999 BKN040 M03/M04 Q1024 R16/910295=
201812150200 METAR LRSV 150200Z 04005KT 8000 BKN039 M03/M04 Q1024 R16/910295=
201812150230 METAR LRSV 150230Z 04005KT 8000 BKN0040 M04/M04 Q1024 R16/910295=
201812150300 METAR LRSV 150300Z 04005KT 7000 BKN039 M04/M04 Q1024 R16/910295=
201812150330 METAR COR LRSV 150330Z 04004KT 6000 BKN039 M04/M04 Q1024
                        R16/910295=
201812150400 METAR LRSV 150400Z 06004KT 7000 BKN040 M03/M04 Q1024 R16/910295=
201812150430 METAR LRSV 150430Z 05004KT 7000 BKN039 M03/M04 Q1024 R16/910295=
201812150500 METAR LRSV 150500Z 05005KT 9999 BKN039 M03/M04 Q1024 R16/910295=
201812150530 METAR LRSV 150530Z 06005KT 9999 BKN039 M03/M04 Q1024 R16/910295=
201812150600 METAR LRSV 150600Z 07004KT 8000 BKN040 M04/M05 Q1024 R16/910295=
201812150630 METAR LRSV 150630Z 09005KT 8000 BKN040 M04/M05 Q1025 R16/910295=
201812150700 METAR LRSV 150700Z 09005KT 7000 BKN030 M03/M04 Q1025 R16/910295=
201812150730 METAR LRSV 150730Z 08006KT 5000 -SN BKN030 M03/M04 Q1025
                        R16/910295=
201812150800 METAR LRSV 150800Z 09005KT 3000 -SN BR BKN030 M03/M04 Q1025
                        R16/910295=
201812150830 METAR LRSV 150830Z 09005KT 1000 R34/1400D SN BR BKN009 BKN030
                        M03/M04 Q1025 R16/590294=
201812150900 METAR LRSV 150900Z 09005KT 1500 SN BR BKN015 BKN030 M03/M04
                        Q1025 R16/590294=
201812150930 METAR LRSV 150930Z 09004KT 070V140 1500 -SN BR BKN015 BKN030
                        M03/M04 Q1025 R16/590294=
201812151000 METAR LRSV 151000Z 09006KT 1200 R34/1400 -SN BR BKN008 BKN030
                        M03/M04 Q1025 R16/590294=
201812151030 METAR LRSV 151030Z 11004KT 1500 -SN BR BKN006 BKN030 M03/M03
                        Q1025 R16/550394=
201812151100 METAR LRSV 151100Z 11005KT 1500 -SN BR BKN006 BKN030 M03/M03
                        Q1024 R16/550394=
201812151130 METAR LRSV 151130Z 10006KT 1500 -SN BR SCT006 BKN030 M03/M03
                        Q1024 R16/550394=
201812151200 METAR LRSV 151200Z 09006KT 1000 R34/1200 -SN BR BKN006 BKN030
                        M03/M03 Q1024 R16/550394=
201812151230 METAR LRSV 151230Z 08007KT 1000 R34/1200N -SN BR SCT003 BKN026
                        M03/M03 Q1024 R16/550394=
201812151300 METAR LRSV 151300Z 09009KT 0800 R34/1100N SN BR BKN003 BKN026
                        M03/M03 Q1024 R16/550394=
201812151330 METAR LRSV 151330Z 09009KT 0600 R34/1100D -SN FZFG BKN003
                        BKN026 M03/M03 Q1024 R16/550394=
201812151400 METAR LRSV 151400Z 09010KT 080V150 0400 R34/1500N -SN FZFG
                        VV002 M03/M03 Q1024 R16/550394=
201812151430 METAR LRSV 151430Z 09010KT 0300 R34/1000D -SN FZFG VV002
                        M03/M04 Q1024 R16/550394=
201812151500 METAR LRSV 151500Z 09010KT 0200 R34/0900D -SN FZFG VV002
                        M03/M03 Q1024 R16/390193=
201812151530 METAR LRSV 151530Z 10009KT 0300 R34/0800 -SN FZFG VV002 M03/M04
                        Q1024 R16/390193=
201812151600 METAR LRSV 151600Z 09010KT 0200 R34/0700N -SN FZFG VV002
                        M03/M04 Q1024 R16/390193=
201812151630 METAR LRSV 151630Z 10010KT 1000 R34/1400 -SN BR VV002 M03/M04
                        Q1024 R16/390193=
201812151700 METAR COR LRSV 151700Z 10009KT 1000 R34/1900D SN BR VV002
                        M03/M03 Q1024 R16/590393=
201812151730 METAR LRSV 151730Z 10010KT 1500 SN BR BKN003 BKN027 M04/M04
                        Q1024 R16/590393=
201812151800 METAR LRSV 151800Z 10010KT 1500 SN BR BKN003 M03/M04 Q1023
                        R16/590393=
201812151830 METAR LRSV 151830Z 10010KT 1500 SN BKN005 M03/M04 Q1023 R16/590393=
201812151900 METAR LRSV 151900Z 10011KT 1500 SN BKN005 M03/M04 Q1023 R16/490393=
201812151930 METAR COR LRSV 151930Z 11011KT 1500 SN BR BKN002 OVC033 M03/M04
                        Q1023 R16/490393=
201812152000 METAR LRSV 152000Z 11011KT 1500 -SN BR BKN002 OVC033 M03/M04
                        Q1023 R16/490393=
201812152030 METAR LRSV 152030Z 11012KT 1500 SN BR BKN002 OVC030 M03/M04
                        Q1023 R16/490393=
201812152100 METAR LRSV 152100Z 11010KT 2000 SN BR BKN003 OVC027 M03/M04
                        Q1023 R16/490393=
201812152130 METAR LRSV 152130Z 11010KT 2000 SN BR BKN003 OVC028 M03/M04
                        Q1023 R16/490393=
201812152200 METAR LRSV 152200Z 12010KT 2000 SN BR BKN002 OVC031 M03/M04
                        Q1022 R16/490393=
201812152230 METAR LRSV 152230Z 11010KT 2000 -SN BR BKN002 OVC033 M03/M04
                        Q1022 R16/490393=
201812152300 METAR LRSV 152300Z 11010KT 2000 -SN BR BKN001 OVC026 M03/M04
                        Q1022 R16/490393=
201812152330 METAR LRSV 152330Z 11011KT 0800 R34/1600U -SN FZFG BKN003
                        M03/M04 Q1022 R16/490393=
201812160000 METAR LRSV 160000Z 11012KT 1000 R34/1200 -SN BR BKN002 M03/M04
                        Q1022 R16/490393=
201812160030 METAR LRSV 160030Z 11013KT 1000 R34/1300D -SN BR BKN003 M04/M04
                        Q1022 R16/490393=
201812160100 METAR LRSV 160100Z 11012KT 1000 R34/1300D -SN BR BKN003 M04/M04
                        Q1022 R16/490393=
201812160130 METAR LRSV 160130Z 10013KT 1500 -SN BR BKN002 M04/M04 Q1022
                        R16/490393=
201812160200 METAR LRSV 160200Z 10014KT 1000 R34/1300 -SN BR BKN002 M04/M05
                        Q1022 R16/490393=
201812160230 METAR LRSV 160230Z 10013KT 1500 -SN BR BKN004 OVC025 M04/M05
                        Q1021 R16/490393=
201812160300 METAR LRSV 160300Z 11014KT 1500 -SN BR BKN002 M04/M05 Q1021
                        R16/490393=
201812160330 METAR LRSV 160330Z 10012KT 0800 R34/1200U -SN FZFG BKN002
                        M04/M05 Q1021 R16/490393=
201812160400 METAR LRSV 160400Z 10012KT 1000 R34/1600U SN BR BKN003 M04/M05
                        Q1021 R16/490393=
201812160430 METAR LRSV 160430Z 10011KT 1000 R34/1900U SN BR BKN004 M04/M05
                        Q1021 R16/490393=
201812160500 METAR LRSV 160500Z 10012KT 1500 SN BR BKN004 OVC031 M04/M05
                        Q1021 R16/490393=
201812160530 METAR LRSV 160530Z 10011KT 1500 SN BR BKN002 OVC033 M04/M05
                        Q1021 R16/490393=
201812160600 METAR LRSV 160600Z 10012KT 1500 SN BR BKN003 SCT033 M04/M05
                        Q1021 R16/490393=
201812160630 METAR LRSV 160630Z 10011KT 1000 R34/1400N SN BR BKN003 OVC030
                        M04/M05 Q1021 R16/490393=
201812160700 METAR COR LRSV 160700Z 10012KT 1000 R34/1300N SN BR BKN003
                        OVC030 M04/M05 Q1021 R16/490393=
201812160730 METAR LRSV 160730Z 10011KT 1000 R34/1400N SN DRSN BR BKN003
                        OVC030 M04/M05 Q1021 R16/490393=
201812160800 METAR LRSV 160800Z 11012KT 1300 R34/1900U -SN DRSN BR BKN003
                        OVC030 M04/M04 Q1021 R16/490393=
201812160830 METAR LRSV 160830Z 11012KT 1000 R34/1300D -SN DRSN BR BKN003
                        OVC030 M04/M04 Q1022 R16/490393=
201812160900 METAR LRSV 160900Z 11011KT 1400 R34/1600U -SN DRSN BR SCT004
                        BKN028 M04/M04 Q1021 R16/490393=
201812160930 METAR LRSV 160930Z 11011KT 1400 R34/1700N -SN BR SCT002 BKN026
                        M04/M04 Q1021 R16/490393=
201812161000 METAR LRSV 161000Z 11010KT 1400 R34/1400N -SN BR SCT002 OVC024
                        M03/M04 Q1021 R16/490393=
201812161030 METAR LRSV 161030Z 10012KT 1500 R34/1800D -SN DRSN BR SCT003
                        BKN021 M03/M04 Q1021 R16/490393=
201812161100 METAR LRSV 161100Z 11012KT 0600 R34/0800N -SN FZFG OVC003
                        M03/M04 Q1021 R16/490393=
201812161130 METAR LRSV 161130Z 10010KT 0600 R34/0900U -SN FZFG SCT002
                        BKN004 M03/M03 Q1021 R16/490393=
201812161200 METAR LRSV 161200Z 11012KT 0500 R34/0800N -SN FZFG BKN002
                        OVC007 M03/M03 Q1020 R16/590393=
201812161230 METAR LRSV 161230Z 11012KT 0400 R34/0700N -SN FZFG BKN002
                        OVC007 M03/M03 Q1020 R16/590393=
201812161300 METAR LRSV 161300Z 11010KT 0600 R34/1000D -SN FZFG BKN002
                        OVC016 M03/M03 Q1021 R16/590393=
201812161330 METAR LRSV 161330Z 11013KT 0600 R34/1000U -SN FZFG OVC002
                        M03/M03 Q1021 R16/590393=
201812161400 METAR LRSV 161400Z 11012KT 1500 -SN BR BKN002 OVC030 M03/M03
                        Q1021 R16/590393=
201812161430 METAR LRSV 161430Z 11012KT 1500 -SN BR SCT002 BKN020 M03/M03
                        Q1021 R16/590393=
201812161500 METAR LRSV 161500Z 11012KT 1600 -SN BR SCT001 BKN020 M03/M03
                        Q1021 R16/590393=
201812161530 METAR LRSV 161530Z 11010KT 1800 -SN BR SCT001 BKN006 M03/M03
                        Q1021 R16/590393=
201812161600 METAR LRSV 161600Z 11010KT 1800 -FZRA BR BKN001 OVC006 M02/M03
                        Q1021 R16/590393=
201812161630 METAR LRSV 161630Z 11010KT 1500 -FZRA BR BKN002 OVC006 M02/M03
                        Q1021 R16/590393=
201812161700 METAR LRSV 161700Z 11010KT 2000 -SN BR SCT002 BKN007 M02/M03
                        Q1021 R16/590393=
201812161730 METAR LRSV 161730Z 12011KT 5000 -FZDZ BR BKN005 OVC010 M02/M03
                        Q1022 R16/590393=
201812161800 METAR LRSV 161800Z 12011KT 6000 OVC004 M02/M03 Q1022 R16/590393=
201812161830 METAR LRSV 161830Z 12012KT 2000 BR OVC003 M02/M03 Q1021 R16/590393=
201812161900 METAR LRSV 161900Z 12012KT 0300 R34/1900D FZFG VV001 M02/M03
                        Q1022 R16/590393=
201812161930 METAR LRSV 161930Z 12012KT 0300 R34/1200D FZFG VV002 M02/M03
                        Q1022 R16/590393=
201812162000 METAR LRSV 162000Z 12011KT 0200 R34/1100 FZFG VV002 M02/M03
                        Q1022 R16/590393=
201812162030 METAR LRSV 162030Z 12011KT 0400 R34/1300N FZFG OVC002 M02/M03
                        Q1022 R16/590393=
201812162100 METAR LRSV 162100Z 12012KT 0300 R34/0900D FZFG VV002 M02/M03
                        Q1022 R16/590393=
201812162130 METAR LRSV 162130Z 11010KT 0200 R34/0500N FZFG VV001 M03/M03
                        Q1022 R16/590393=
201812162200 METAR LRSV 162200Z 12010KT 0100 R34/0600N FZFG VV001 M03/M03
                        Q1022 R16/590393=
201812162230 METAR LRSV 162230Z 12010KT 0150 R34/0550N FZFG VV001 M03/M03
                        Q1022 R16/590393=
201812162300 METAR LRSV 162300Z 12009KT 0150 R34/0500N FZFG VV001 M03/M03
                        Q1021 R16/590393=
201812162330 METAR LRSV 162330Z 12010KT 0150 R34/0550N FZFG VV001 M03/M03
                        Q1021 R16/590393=
201812170000 METAR LRSV 170000Z 12010KT 0100 R34/0450N FZFG VV001 M03/M03
                        Q1021 R16/590393=
201812170030 METAR LRSV 170030Z 12010KT 0100 R34/0450N FZFG VV001 M03/M03
                        Q1021 R16/590393=
201812170100 METAR LRSV 170100Z 12010KT 0100 R34/0450N FZFG VV001 M03/M03
                        Q1021 R16/590393=
201812170130 METAR LRSV 170130Z 11008KT 0100 R34/0450N -SN FZFG VV001
                        M04/M04 Q1021 R16/590393=
201812170200 METAR LRSV 170200Z 12010KT 0150 R34/0400N -SN FZFG VV001
                        M04/M04 Q1020 R16/590393=
201812170230 METAR LRSV 170230Z 12010KT 0100 R34/0500N -SN FZFG VV001
                        M03/M03 Q1020 R16/590393=
201812170300 METAR LRSV 170300Z 12011KT 0150 R34/0650N FZFG VV001 M03/M03
                        Q1020 R16/590393=
201812170330 METAR LRSV 170330Z 12010KT 0100 R34/0600N FZFG VV001 M03/M03
                        Q1020 R16/590393=
201812170400 METAR LRSV 170400Z 12009KT 0100 R34/0500N FZFG VV001 M03/M03
                        Q1020 R16/590393=
201812170430 METAR LRSV 170430Z 12011KT 0100 R34/0450N FZFG VV001 M03/M03
                        Q1020 R16/590393=
201812170500 METAR LRSV 170500Z 12010KT 0100 R34/0450N FZFG VV001 M03/M03
                        Q1020 R16/590393=
201812170530 METAR LRSV 170530Z 12010KT 0150 R34/0450N -SN FZFG VV001
                        M03/M03 Q1020 R16/590393=
201812170600 METAR LRSV 170600Z 11010KT 0200 R34/0400N -SN FZFG VV001
                        M03/M04 Q1021 R16/590393=
201812170630 METAR LRSV 170630Z 12009KT 0100 R34/0450N -SN FZFG VV001
                        M03/M04 Q1021 R16/590393=
201812170700 METAR LRSV 170700Z 12011KT 0100 R34/0350N -SN FZFG VV001
                        M03/M04 Q1021 R16/590393=
201812170730 METAR COR LRSV 170730Z 12009KT 0200 R34/0350N -SN FZFG VV001
                        M03/M04 Q1021 R16/590393=
201812170800 METAR LRSV 170800Z 11010KT 0100 R34/0375N -SN FZFG VV001
                        M03/M04 Q1021 R16/590393=
201812170830 METAR LRSV 170830Z 12006KT 0200 R34/0375N FZFG VV001 M03/M04
                        Q1021 R16/590393=
201812170900 METAR LRSV 170900Z 12008KT 0200 R34/0400N FZFG VV001 M03/M04
                        Q1021 R16/590393=
201812170930 METAR LRSV 170930Z 12008KT 0350 R34/0500N FZFG VV001 M03/M04
                        Q1021 R16/590393=
201812171000 METAR LRSV 171000Z 12007KT 0150 R34/300N FZFG VV001 M03/M04
                        Q1020 R16/590393=
201812171030 METAR LRSV 171030Z 12009KT 0200 R34/0375N FZFG VV001 M03/M04
                        Q1020 R16/590393=
201812171100 METAR LRSV 171100Z 11008KT 0150 R34/0325N FZFG VV001 M03/M04
                        Q1020 R16/590393=
201812171130 METAR LRSV 171130Z 11008KT 0200 R34/0375N FZFG VV001 M03/M04
                        Q1020 R16/590393=
201812171200 METAR LRSV 171200Z 10008KT 0100 R34/0225N FZFG VV001 M04/M04
                        Q1020 R16/590393=
201812171230 METAR LRSV 171230Z 10008KT 0100 R34/0300N FZFG VV001 M04/M04
                        Q1020 R16/590393=
201812171300 METAR LRSV 171300Z 09009KT 0100 R34/0225N FZFG VV001 M04/M04
                        Q1020 R16/590393=
201812171330 METAR LRSV 171330Z 10009KT 0100 R34/0250N FZFG VV001 M04/M04
                        Q1020 R16/590393=
201812171400 METAR LRSV 171400Z 10007KT 0100 R34/0300N FZFG VV001 M04/M04
                        Q1020 R16/590393=
201812171430 METAR LRSV 171430Z 11007KT 0100 R34/0325N FZFG VV001 M04/M04
                        Q1021 R16/590393=
201812171500 METAR LRSV 171500Z 10007KT 0150 R34/0450N FZFG VV001 M04/M04
                        Q1021 R16/590393=
201812171530 METAR LRSV 171530Z 10007KT 0150 R34/0500N FZFG VV001 M04/M04
                        Q1021 R16/590393=
201812171600 METAR LRSV 171600Z 09007KT 0150 R34/0450N FZFG VV001 M04/M05
                        Q1021 R16/590393=
201812171630 METAR LRSV 171630Z 09009KT 0150 R34/0450N -SN FZFG VV001
                        M04/M05 Q1021 R16/590393=
201812171700 METAR LRSV 171700Z 09008KT 0150 R34/0550N -SN FZFG VV001
                        M04/M05 Q1022 R16/590393=
201812171730 METAR LRSV 171730Z 09008KT 0150 R34/0500N -SN FZFG VV001
                        M04/M05 Q1022 R16/590393=
201812171800 METAR LRSV 171800Z 08007KT 0150 R34/0650N -SN FZFG VV001
                        M05/M05 Q1022 R16/590393=
201812171830 METAR LRSV 171830Z 07007KT 0500 R34/1400D -SN FZFG VV002
                        M05/M05 Q1023 R16/590393=
201812171900 METAR LRSV 171900Z 08008KT 0800 R34/1900U -SN FZFG OVC002
                        M05/M05 Q1023 R16/590393=
201812171930 METAR LRSV 171930Z 08008KT 1500 -SN BR OVC002 M05/M06 Q1023
                        R16/590393=
201812172000 METAR LRSV 172000Z 08007KT 1500 -SN BR BKN002 M05/M06 Q1023
                        R16/590393=
201812172030 METAR LRSV 172030Z 06006KT 1500 -SN BR BKN002 M05/M05 Q1023
                        R16/590393=
201812172100 METAR LRSV 172100Z 06005KT 1700 -SN BR BKN002 OVC028 M05/M05
                        Q1023 R16/590393=
201812172130 METAR LRSV 172130Z 06005KT 1500 -SB BR SCT002 BKN010 M05/M05
                        Q1024 R16/590393=
201812172200 METAR LRSV 172200Z 06005KT 1700 -SN BR SCT010 BKN044 M05/M06
                        Q1024 R16/590393=
201812172230 METAR LRSV 172230Z 05004KT 2000 -SN BR SCT010 BKN025 M05/M06
                        Q1024 R16/590393=
201812172300 METAR COR LRSV 172300Z 03004KT 1500 -SN BR BKN010 M05/M06
                        Q1024 R16/590393=
201812172330 METAR LRSV 172330Z 04004KT 1700 -SN BR BKN010 OVC033 M05/M06
                        Q1024 R16/590393=
201812180000 METAR LRSV 180000Z 02004KT 3000 -SN BR FEW020 BKN045 M05/M06
                        Q1024 R16/590393=
201812180030 METAR LRSV 180030Z 02005KT 4000 -SN BR BKN044 M05/M06 Q1024
                        R16/590393=
201812180100 METAR LRSV 180100Z 02006KT 4000 -SN BR FEW020 BKN044 M05/M06
                        Q1024 R16/590393=
201812180130 METAR LRSV 180130Z 01006KT 3000 -SN BR BKN020 M05/M06 Q1024
                        R16/590393=
201812180200 METAR LRSV 180200Z 36006KT 3000 -SN BR BKN013 M05/M06 Q1024
                        R16/590393=
201812180230 METAR LRSV 180230Z 01006KT 3000 -SN BR BKN020 OVC031 M05/M06
                        Q1024 R16/590393=
201812180300 METAR LRSV 180300Z 36005KT 4000 -SN BR FEW022 BKN033 M05/M06
                        Q1025 R16/590393=
201812180330 METAR LRSV 180330Z 36005KT 1500 -SN BR BKN010 M05/M06 Q1025
                        R16/590393=
201812180400 METAR LRSV 180400Z 36004KT 2000 -SN BR SCT013 BKN022 M05/M06
                        Q1025 R16/590393=
201812180430 METAR LRSV 180430Z 35004KT 2000 -SN BR SCT010 BKN022 M05/M06
                        Q1025 R16/590393=
201812180500 METAR LRSV 180500Z 34003KT 1500 -SN BR BKN005 M05/M06 Q1025
                        R16/590393=
201812180530 METAR LRSV 180530Z 32002KT 1500 -SN BR BKN010 M05/M06 Q1026
                        R16/590393=
201812180600 METAR LRSV 180600Z 32003KT 1500 -SN BR OVC010 M05/M05 Q1026
                        R16/590393=
201812180630 METAR LRSV 180630Z 33003KT 2000 -SN BR BKN016 BKN028 M05/M06
                        Q1026 R16/590393=
201812180700 METAR LRSV 180700Z 33003KT 2000 -SN BR BKN016 BKN028 M05/M06
                        Q1026 R16/590393=
201812180730 METAR LRSV 180730Z 33002KT 2000 -SN BR BKN020 BKN030 M05/M05
                        Q1027 R16/590393=
201812180800 METAR LRSV 180800Z 33002KT 1500 SN BR BKN020 BKN030 M05/M06
                        Q1027 R16/SNOCLO=
201812180830 METAR LRSV 180830Z 33003KT 1500 SN BR BKN010 BKN030 M05/M05
                        Q1027 R16/490393=
201812180900 METAR LRSV 180900Z 32002KT 1200 R34/1400D SN BR BKN015 BKN030
                        M05/M05 Q1027 R16/490393=
201812180930 METAR LRSV 180930Z 34003KT 300V070 1500 -SN BR BKN014 BKN030
                        M04/M05 Q1027 R16/490393=
201812181000 METAR LRSV 181000Z 32004KT 2000 -SN BR BKN020 BKN033 M05/M05
                        Q1027 R16/490393=
201812181030 METAR LRSV 181030Z 33005KT 3000 -SN BR BKN020 BKN031 M05/M05
                        Q1026 R16/490393=
201812181100 METAR COR LRSV 181100Z 34005KT 2500 -SN BR BKN014 BKN031
                        M04/M04 Q1026 R16/550494=
201812181130 METAR LRSV 181130Z 35005KT 2500 -SN BR BKN014 BKN031 M04/M05
                        Q1026 R16/550494=
201812181200 METAR LRSV 181200Z 34005KT 2500 -SN BR BKN013 BKN031 M04/M05
                        Q1026 R16/550494=
201812181230 METAR LRSV 181230Z 35006KT 6000 -SN FEW020 BKN037 M04/M05
                        Q1026 R16/550494=
201812181300 METAR LRSV 181300Z 36006KT 6000 SCT030 M05/M05 Q1026 R16/550494=
201812181330 METAR LRSV 181330Z 34004KT 5000 -SN BR BKN030 M05/M05 Q1026
                        R16/550494=
201812181400 METAR LRSV 181400Z 35005KT 6000 BKN040 M05/M05 Q1026 R16/550494=
201812181430 METAR LRSV 181430Z 01004KT 4000 BR BKN040 M05/M05 Q1027 R16/550494=
201812181500 METAR LRSV 181500Z 36004KT 4000 BR SCT008 BKN040 M05/M05
                        Q1027 R16/550494=
201812181530 METAR LRSV 181530Z 36001KT 3000 BR SCT006 BKN035 M05/M05
                        Q1027 R16/550494=
201812181600 METAR LRSV 181600Z 34003KT 3300 BR BKN008 BKN035 M04/M05
                        Q1027 R16/950493=
201812181630 METAR LRSV 181630Z 35003KT 3000 BR BKN008 BKN034 M04/M05
                        Q1027 R16/950493=
201812181700 METAR LRSV 181700Z 32003KT 3000 BR BKN005 BKN034 M04/M05
                        Q1028 R16/950493=
201812181730 METAR LRSV 181730Z 33005KT 3000 BR BKN005 BKN034 M04/M05
                        Q1027 R16/950493=
201812181800 METAR LRSV 181800Z 34006KT 2000 BR BKN008 OVC030 M04/M05
                        Q1028 R16/950493=
201812181830 METAR LRSV 181830Z 34006KT 3000 BR BKN033 M04/M05 Q1028 R16/950493=
201812181900 METAR LRSV 181900Z 34005KT 3000 -SN BR SCT010 BKN038 M04/M05
                        Q1028 R16/950493=
201812181930 METAR LRSV 181930Z 33006KT 3000 -SN BR BKN008 M04/M05 Q1028
                        R16/950493=
201812182000 METAR LRSV 182000Z 32004KT 3000 -SN BR BKN008 M04/M04 Q1028
                        R16/950493=
201812182030 METAR LRSV 182030Z 32005KT 3000 BR BKN008 M04/M04 Q1028 R16/950493=
201812182100 METAR LRSV 182100Z 32006KT 4000 BR BKN008 M04/M04 Q1028 R16/950493=
201812182130 METAR LRSV 182130Z 33006KT 4000 BR OVC008 M04/M04 Q1028 R16/950493=
201812182200 METAR LRSV 182200Z 34007KT 4000 BR OVC007 M04/M04 Q1028 R16/950493=
201812182230 METAR LRSV 182230Z 34008KT 4000 BR OVC006 M04/M04 Q1028 R16/950493=
201812182300 METAR LRSV 182300Z 34009KT 4000 BR BKN005 M04/M04 Q1027 R16/950493=
201812182330 METAR LRSV 182330Z 34010KT 3000 BR BKN003 M04/M04 Q1027 R16/950493=
201812190000 METAR LRSV 190000Z 34010KT 3000 BR BKN002 M04/M04 Q1027 R16/950493=
201812190030 METAR LRSV 190030Z 34009KT 3000 BR OVC002 M04/M04 Q1027 R16/950493=
201812190100 METAR COR LRSV 190100Z 35009KT 3000 -SN BKN003 M04/M04 Q1028
                        R16/950493=
201812190130 METAR LRSV 190130Z 35008KT 3000 -SN BR BKN002 M04/M04 Q1028
                        R16/950493=
201812190200 METAR LRSV 190200Z 36006KT 1500 -SN BR OVC002 M04/M05 Q1028
                        R16/950493=
201812190230 METAR LRSV 190230Z 03006KT 0200 R34/0450N FZFG VV001 M04/M05
                        Q1028 R16/950493=
201812190300 METAR LRSV 190300Z 01005KT 0200 R34/0650N FZFG VV001 M05/M05
                        Q1028 R16/950493=
201812190330 METAR LRSV 190330Z 36005KT 0200 R34/0800N FZFG VV002 M04/M05
                        Q1028 R16/950493=
201812190400 METAR LRSV 190400Z 01005KT 0200 R34/0750N FZFG VV001 M04/M05
                        Q1028 R16/950493=
201812190430 METAR LRSV 190430Z AUTO 01005KT 0700 R34/0800N FZFG VV002
                        M04/M05 Q1028=
201812190500 METAR LRSV 190500Z 01005KT 0300 R34/0900N FZFG VV001 M05/M05
                        Q1028 R16/950493=
201812190530 METAR LRSV 190530Z 01005KT 0400 R34/0900U FZFG VV001 M05/M05
                        Q1028 R16/950493=
201812190600 METAR LRSV 190600Z 36006KT 1500 BR OVC001 M05/M05 Q1028 R16/950493=
201812190630 METAR LRSV 190630Z 34005KT 2000 BR BKN002 M05/M05 Q1028 R16/950493=
201812190700 METAR LRSV 190700Z 36006KT 320V040 2000 BR BKN003 M05/M05
                        Q1028 R16/950493=
201812190730 METAR LRSV 190730Z 35006KT 2500 BR SCT003 BKN006 M05/M05
                        Q1028 R16/950493=
201812190800 METAR LRSV 190800Z 34006KT 3000 BR BKN005 M05/M05 Q1028 R16/950493=
201812190830 METAR LRSV 190830Z 36006KT 3000 BR BKN006 M05/M05 Q1028 R16/950493=
201812190900 METAR LRSV 190900Z 36006KT 3000 BR BKN006 M05/M05 Q1028 R16/950493=
201812190930 METAR LRSV 190930Z 01005KT 330V030 3000 BR BKN006 OVC010
                        M05/M05 Q1028 R16/950493=
201812191000 METAR LRSV 191000Z 02007KT 4000 BR BKN006 OVC011 M05/M05
                        Q1028 R16/950494=
201812191030 METAR LRSV 191030Z 03006KT 3000 BR SCT006 BKN020 M05/M05
                        Q1028 R16/950494=
201812191100 METAR LRSV 191100Z 03006KT 2500 BR BKN004 OVC010 M05/M05
                        Q1028 R16/950494=
201812191130 METAR LRSV 191130Z 04007KT 2500 BR BKN005 M05/M05 Q1028 R16/950494=
201812191200 METAR LRSV 191200Z 04007KT 2500 BR BKN005 M05/M05 Q1028 R16/950494=
201812191230 METAR LRSV 191230Z 04007KT 3000 BR BKN005 BKN040 M05/M06
                        Q1028 R16/950494=
201812191300 METAR LRSV 191300Z 03008KT 4000 BR SCT007 BKN040 M05/M06
                        Q1028 R16/950494=
201812191330 METAR LRSV 191330Z 03007KT 4000 BR BKN007 M06/M06 Q1028 R16/950494=
201812191400 METAR LRSV 191400Z 03006KT 3500 BR SCT007 M06/M06 Q1028 R16/950494=
201812191430 METAR COR LRSV 191430Z 04005KT 3500 BR FEW007 M06/M06 Q1028
                        R16/950494=
201812191500 METAR LRSV 191500Z 05004KT 3000 BR SCT005 M06/M07 Q1028 R16/950494=
201812191530 METAR LRSV 191530Z 05004KT 4000 BR BKN006 M06/M07 Q1028 R16/950494=
201812191600 METAR LRSV 191600Z 08003KT 4000 BR BKN006 M06/M07 Q1028 R16/950494=
201812191630 METAR LRSV 191630Z 06004KT 040V110 5000 BR BKN006 M07/M07
                        Q1027 R16/950494=
201812191700 METAR LRSV 191700Z 07004KT 5000 BR BKN006 M07/M07 Q1027 R16/950494=
201812191730 METAR LRSV 191730Z 04004KT 5000 BR BKN006 M07/M07 Q1028 R16/950494=
201812191800 METAR LRSV 191800Z 06004KT 5000 BR OVC005 M07/M07 Q1028 R16/950494=
201812191830 METAR LRSV 191830Z 05004KT 5000 BR OVC005 M07/M08 Q1028 R16/950494=
201812191900 METAR LRSV 191900Z 09005KT 4000 BR OVC005 M07/M08 Q1028 R16/950494=
201812191930 METAR LRSV 191930Z 09005KT 5000 BR OVC005 M07/M08 Q1027 R16/29//94=
201812192000 METAR LRSV 192000Z 09005KT 4000 BR OVC005 M07/M08 Q1027 R16/29//94=
201812192030 METAR LRSV 192030Z 09005KT 4000 BR OVC004 M07/M08 Q1027 R16/29//94=
201812192100 METAR LRSV 192100Z 10005KT 3000 BR OVC003 M07/M08 Q1027 R16/29//94=
201812192130 METAR LRSV 192130Z 09005KT 3000 BR OVC003 M07/M08 Q1027 R16/29//94=
201812192200 METAR LRSV 192200Z 10004KT 0600 R34/1500 FZFG VV002 M08/M08
                        Q1027 R16/29//94=
201812192230 METAR LRSV 192230Z 10004KT 0200 R34/0800 FZFG VV002 M08/M08
                        Q1026 R16/29//94=
201812192300 METAR LRSV 192300Z 12004KT 070V140 0100 R34/0650N FZFG VV001
                        M08/M09 Q1026 R16/29//94=
201812192330 METAR LRSV 192330Z 13005KT 0100 R34/0550N FZFG VV001 M08/M08
                        Q1026 R16/29//94=
201812200000 METAR LRSV 200000Z 12005KT 0100 R34/0600N FZFG VV001 M08/M08
                        Q1026 R16/29//94=
201812200030 METAR LRSV 200030Z 10004KT 0100 R34/0550N FZFG VV001 M08/M09
                        Q1026 R16/29//94=
201812200100 METAR LRSV 200100Z 09005KT 0100 R34/0500N FZFG VV001 M08/M08
                        Q1026 R16/29//94=
201812200130 METAR LRSV 200130Z 10005KT 0100 R34/0450N FZFG VV001 M08/M09
                        Q1026 R16/29//94=
201812200200 METAR LRSV 200200Z 12005KT 0100 R34/0450N FZFG VV001 M08/M09
                        Q1025 R16/29//94=
201812200230 METAR LRSV 200230Z 12005KT 0100 R34/0450N FZFG VV001 M09/M09
                        Q1025 R16/29//94=
201812200300 METAR LRSV 200300Z 12005KT 0100 R34/0400N FZFG VV001 M09/M09
                        Q1025 R16/19//95=
201812200330 METAR LRSV 200330Z 12004KT 0100 R34/0450D FZFG VV001 M09/M10
                        Q1025 R16/19//95=
201812200400 METAR LRSV 200400Z 13006KT 0100 R34/0400N FZFG VV001 M08/M09
                        Q1025 R16/19//95=
201812200430 METAR LRSV 200430Z AUTO 12005KT 0500 R34/0600N FZFG VV001
                        M09/M09 Q1025=
201812200500 METAR LRSV 200500Z 14006KT 120V180 0100 R34/0450N FZFG VV001
                        M08/M08 Q1025 R16/19//95=
201812200530 METAR LRSV 200530Z 13008KT 0100 R34/0600N FZFG VV001 M08/M09
                        Q1025 R16/19//95=
201812200600 METAR LRSV 200600Z 13010KT 0100 R34/0450N FZFG VV001 M09/M10
                        Q1025 R16/19//95=
201812200630 METAR LRSV 200630Z 13012KT 0100 R34/0400N FZFG VV001 M09/M10
                        Q1025 R16/19//95=
201812200700 METAR LRSV 200700Z 13011KT 0100 R34/0375N FZFG VV001 M09/M10
                        Q1025 R16/19//95=
201812200730 METAR LRSV 200730Z 14010KT 0200 R34/0400N FZFG VV001 M09/M10
                        Q1025 R16/19//95=
201812200800 METAR LRSV 200800Z 14010KT 0200 R34/0450N FZFG VV001 M09/M10
                        Q1025 R16/19//95=
201812200830 METAR LRSV 200830Z 14009KT 0200 R34/0450N FZFG VV001 M09/M10
                        Q1025 R16/19//95=
201812200900 METAR LRSV 200900Z 15007KT 0300 R34/0500U FZFG VV002 M08/M09
                        Q1025 R16/19//95=
201812200930 METAR LRSV 200930Z 14007KT 0200 R34/0450N FZFG VV001 M08/M09
                        Q1024 R16/920395=
201812201000 METAR LRSV 201000Z 13007KT 090V210 0200 R34/0350N FZFG VV001
                        M08/M08 Q1024 R16/920395=
201812201030 METAR LRSV 201030Z 13008KT 0200 R34/0450 FZFG VV002 M07/M08
                        Q1024 R16/920395=
201812201100 METAR LRSV 201100Z 14008KT 0300 R34/0500N FZFG VV001 M07/M08
                        Q1023 R16/920395=
201812201130 METAR LRSV 201130Z 14010KT 0400 R34/0650 FZFG VV001 M08/M09
                        Q1023 R16/920395=
201812201200 METAR LRSV 201200Z 13009KT 0200 R34/0400N FZFG VV001 M08/M09
                        Q1023 R16/920395=
201812201230 METAR COR LRSV 201230Z 14008KT 0300 R34/0500N FZFG VV001
                        M08/M08 Q1023 R16/920395=
201812201300 METAR LRSV 201300Z 14007KT 0300 R34/0650N FZFG VV001 M08/M09
                        Q1023 R16/920395=
201812201330 METAR LRSV 201330Z 14007KT 0400 R34/0700N FZFG VV001 M08/M09
                        Q1023 R16/920395=
201812201400 METAR LRSV 201400Z 15006KT 0300 R34/0800D FZFG VV001 M08/M09
                        Q1023 R16/920395=
201812201430 METAR LRSV 201430Z 14009KT 0400 R34/0900D FZFG VV001 M08/M09
                        Q1023 R16/920395=
201812201500 METAR LRSV 201500Z 14008KT 0800 R34/1600 FZFG OVC001 M08/M09
                        Q1023 R16/920395=
201812201530 METAR LRSV 201530Z 14009KT 0300 R34/0800D FZFG VV001 M08/M09
                        Q1023 R16/920395=
201812201600 METAR LRSV 201600Z 15007KT 0400 R34/1100 FZFG VV001 M08/M09
                        Q1023 R16/920395=
201812201630 METAR LRSV 201630Z 14009KT 0400 R34/1300 FZFG VV001 M08/M09
                        Q1023 R16/920395=
201812201700 METAR COR LRSV 201700Z 16006KT 0500 R34/1600 FZFG VV001 M08/M09
                        Q1022 R16/920395=
201812201730 METAR LRSV 201730Z 15007KT 0500 R34/1500U FZFG VV002 M08/M09
                        Q1023 R16/920395=
201812201800 METAR LRSV 201800Z 16007KT 1500 BR OVC001 M08/M09 Q1023 R16/920395=
201812201830 METAR LRSV 201830Z 15009KT 0700 R34/1800D FZFG VV002 M08/M09
                        Q1022 R16/920395=
201812201900 METAR LRSV 201900Z 16006KT 0600 R34/1300U FZFG VV001 M08/M09
                        Q1022 R16/920395=
201812201930 METAR LRSV 201930Z 16006KT 1500 BR OVC002 M08/M09 Q1022 R16/920395=
201812202000 METAR LRSV 202000Z 17006KT 1500 BR OVC002 M08/M09 Q1022 R16/920395=
201812202030 METAR LRSV 202030Z 19007KT 0500 R34/1500D FZFG VV002 M08/M09
                        Q1022 R16/920395=
201812202100 METAR LRSV 202100Z 19006KT 0500 R34/01200U FZFG VV002 M08/M09
                        Q1022 R16/920395=
201812202130 METAR LRSV 202130Z 18005KT 140V210 0300 R34/1000N FZFG VV001
                        M08/M09 Q1022 R16/920395=
201812202200 METAR LRSV 202200Z 18006KT 0300 R34/0800U FZFG VV001 M08/M09
                        Q1022 R16/920395=
201812202230 METAR LRSV 202230Z 20007KT 0200 R34/0800D FZFG VV001 M08/M08
                        Q1022 R16/920395=
201812202300 METAR LRSV 202300Z 19006KT 0200 R34/0700N FZFG VV001 M08/M08
                        Q1022 R16/920395=
201812202330 METAR LRSV 202330Z 19006KT 0200 R34/0650N FZFG VV001 M08/M08
                        Q1022 R16/920395=
201812210000 METAR LRSV 210000Z 20007KT 0200 R34/0750N FZFG VV001 M08/M08
                        Q1022 R16/920395=
201812210030 METAR LRSV 210030Z 22009KT 0600 R34/01400U FZFG VV001 M08/M08
                        Q1022 R16/920395=
201812210100 METAR LRSV 210100Z VRB06KT 0800 R34/1900U FZFG VV001 M08/M08
                        Q1022 R16/920395=
201812210130 METAR COR LRSV 210130Z 24005KT 220V280 1000 R34/1900 BR OVC001
                        M08/M09 Q1022 R16/920395=
201812210200 METAR COR LRSV 210200Z VRB01KT 1500 BR BKN001 M08/M09 Q1022
                        R16/920395=
201812210230 METAR LRSV 210230Z 00000KT 1500 BR BKN001 M08/M09 Q1022 R16/920395=
201812210300 METAR LRSV 210300Z VRB01KT 1000 R34/1800N BR BKM001 M08/M09
                        Q1022 R16/920395=
201812210330 METAR LRSV 210330Z 26003KT 230V300 2000 BR SCT002 M08/M09
                        Q1022 R16/920395=
201812210400 METAR LRSV 210400Z 24007KT 3000 BR FEW005 M07/M08 Q1022 R16/920395=
201812210430 METAR LRSV 210430Z 25012KT 4000 BR NSC M07/M08 Q1022 R16/920395=
201812210500 METAR LRSV 210500Z 25009KT 4000 BR NSC M07/M08 Q1022 R16/920395=
201812210530 METAR LRSV 210530Z 24006KT 4000 BR NSC M07/M07 Q1022 R16/920395=
201812210600 METAR LRSV 210600Z 24008KT 4000 BR NSC M06/M07 Q1022 R16/920395=
201812210630 METAR LRSV 210630Z 26005KT 4000 BR NSC M05/M06 Q1022 R16/920395=
201812210700 METAR LRSV 210700Z VRB05KT 4000 BR NSC M04/M05 Q1022 R16/920395=
201812210730 METAR LRSV 210730Z 20004KT 170V240 6000 BR NSC M05/M06 Q1022
                        R16/920395=
201812210800 METAR LRSV 210800Z 25006KT 7000 NSC M04/M05 Q1022 R16/920395=
201812210830 METAR LRSV 210830Z 26006KT CAVOK M03/M03 Q1022 R16/920395=
201812210900 METAR LRSV 210900Z 27005KT CAVOK M03/M03 Q1022 R16/920395=
201812210930 METAR LRSV 210930Z 26008KT CAVOK M00/M01 Q1022 R16/920395=
201812211000 METAR LRSV 211000Z 27009KT CAVOK 01/00 Q1022 R16/920395=
201812211030 METAR LRSV 211030Z 24006KT CAVOK 01/M00 Q1022 R16/920395=
201812211100 METAR LRSV 211100Z 26006KT CAVOK 02/00 Q1021 R16/920395=
201812211130 METAR LRSV 211130Z 26006KT CAVOK 02/01 Q1021 R16/920395=
201812211200 METAR COR LRSV 211200Z 25006KT 8000 3000S BR NSC 01/M00 Q1021
                        R16/19//95=
201812211230 METAR LRSV 211230Z 25004KT 8000 3000S BR NSC 00/M01 Q1021
                        R16/19//95=
201812211300 METAR LRSV 211300Z 24006KT 8000 3000S BR NSC M01/M03 Q1020
                        R16/19//95=
201812211330 METAR LRSV 211330Z VRB02KT 8000 3000S BR NSC M01/M02 Q1021
                        R16/19//95=
201812211400 METAR LRSV 211400Z 24007KT 8000 3000S BR NSC M00/M02 Q1021
                        R16/19//95=
201812211430 METAR LRSV 211430Z 25008KT 8000 3000S BR NSC M01/M03 Q1021
                        R16/19//95=
201812211500 METAR LRSV 211500Z 24008KT 6000 NSC M00/M03 Q1021 R16/19//95=
201812211530 METAR LRSV 211530Z 24008KT 6000 NSC M01/M03 Q1021 R16/19//95=
201812211600 METAR LRSV 211600Z 25009KT 5000 BR NSC M01/M03 Q1020 R16/19//95=
201812211630 METAR LRSV 211630Z 24008KT 7000 NSC M02/M04 Q1020 R16/19//95=
201812211700 METAR LRSV 211700Z 25010KT 7000 NSC M01/M03 Q1020 R16/19//95=
201812211730 METAR LRSV 211730Z 25009KT 7000 NSC M01/M03 Q1020 R16/19//95=
201812211800 METAR LRSV 211800Z 24009KT 7000 NSC M01/M04 Q1019 R16/19//95=
201812211830 METAR LRSV 211830Z 24010KT 7000 NSC M01/M03 Q1019 R16/19//95=
201812211900 METAR LRSV 211900Z 25009KT 8000 NSC M02/M03 Q1018 R16/19//95=
201812211930 METAR LRSV 211930Z 25010KT CAVOK 00/M03 Q1018 R16/19//95=
201812212000 METAR LRSV 212000Z 24011KT CAVOK M00/M03 Q1018 R16/19//95=
201812212030 METAR LRSV 212030Z 24009KT CAVOK M02/M04 Q1018 R16/19//95=
201812212100 METAR LRSV 212100Z 23008KT CAVOK M01/M04 Q1017 R16/19//95=
201812212130 METAR COR LRSV 212130Z 24009KT CAVOK M01/M03 Q1017 R16/19//95=
201812212200 METAR LRSV 212200Z 23008KT CAVOK M02/M04 Q1017 R16/19//95=
201812212230 METAR LRSV 212230Z 23007KT 8000 NSC M02/M04 Q1016 R16/19//95=
201812212300 METAR LRSV 212300Z 22009KT 8000 NSC M02/M04 Q1016 R16/19//95=
201812212330 METAR LRSV 212330Z 23009KT 8000 NSC M02/M03 Q1015 R16/19//95=
201812220000 METAR LRSV 220000Z 24009KT 8000 NSC M01/M03 Q1015 R16/19//95=
201812220030 METAR LRSV 220030Z 24008KT CAVOK 00/M02 Q1015 R16/19//95=
201812220100 METAR LRSV 220100Z 23006KT CAVOK 00/M02 Q1014 R16/19//95=
201812220130 METAR LRSV 220130Z 20005KT CAVOK 00/M02 Q1014 R16/19//95=
201812220200 METAR COR LRSV 220200Z 18005KT CAVOK M00/M02 Q1013 R16/19//95=
201812220230 METAR LRSV 220230Z 20006KT CAVOK M01/M02 Q1012 R16/19//95=
201812220300 METAR LRSV 220300Z 20005KT 170V230 CAVOK 00/M02 Q1012 R16/19//95=
201812220330 METAR LRSV 220330Z 20008KT CAVOK 01/M02 Q1012 R16/19//95=
201812220400 METAR COR LRSV 220400Z 20008KT CAVOK 01/M02 Q1012 R16/19//95=
201812220430 METAR LRSV 220430Z 18006KT CAVOK 00/M02 Q1011 R16/19//95=
201812220500 METAR LRSV 220500Z 20004KT 160V220 CAVOK 00/M02 Q1011 R16/19//95=
201812220530 METAR LRSV 220530Z 21006KT CAVOK 01/M02 Q1010 R16/19//95=
201812220600 METAR LRSV 220600Z 22005KT CAVOK 00/M02 Q1010 R16/19//95=
201812220630 METAR LRSV 220630Z 21009KT CAVOK M00/M02 Q1010 R16/19//95=
201812220700 METAR LRSV 220700Z 20011KT CAVOK 01/M02 Q1009 R16/19//95=
201812220730 METAR LRSV 220730Z 19007KT CAVOK 01/M02 Q1010 R16/19//95=
201812220800 METAR LRSV 220800Z 22004KT CAVOK 02/M02 Q1010 R16/19//95=
201812220830 METAR LRSV 220830Z 21005KT CAVOK 02/M01 Q1010 R16/19//95=
201812220900 METAR LRSV 220900Z 21005KT CAVOK 01/M02 Q1010 R16/19//95=
201812220930 METAR LRSV 220930Z 22008KT CAVOK 02/M01 Q1009 R16/19//95=
201812221000 METAR LRSV 221000Z 24008KT CAVOK 04/M00 Q1009 R16/19//95=
201812221030 METAR LRSV 221030Z 22008KT CAVOK 05/00 Q1008 R16/19//95=
201812221100 METAR LRSV 221100Z 23005KT CAVOK 05/00 Q1008 R16/19//95=
201812221130 METAR LRSV 221130Z 17004KT CAVOK 05/M00 Q1008 R16/19//95=
201812221200 METAR LRSV 221200Z 22005KT CAVOK 05/00 Q1008 R16/15//95=
201812221230 METAR LRSV 221230Z 19005KT CAVOK 05/00 Q1008 R16/15//95=
201812221300 METAR LRSV 221300Z 21005KT CAVOK 06/00 Q1008 R16/15//95=
201812221330 METAR LRSV 221330Z 22007KT CAVOK 05/00 Q1009 R16/15//95=
201812221400 METAR LRSV 221400Z 22008KT CAVOK 05/00 Q1008 R16/15//95=
201812221430 METAR LRSV 221430Z 24008KT CAVOK 05/00 Q1008 R16/15//95=
201812221500 METAR LRSV 221500Z 22010KT CAVOK 05/00 Q1008 R16/15//95=
201812221530 METAR LRSV 221530Z 24011KT CAVOK 06/00 Q1008 R16/15//95=
201812221600 METAR LRSV 221600Z 23009KT CAVOK 05/00 Q1008 R16/15//95=
201812221630 METAR LRSV 221630Z 22008KT CAVOK 06/00 Q1008 R16/15//95=
201812221700 METAR LRSV 221700Z 23008KT CAVOK 06/00 Q1008 R16/15//95=
201812221730 METAR LRSV 221730Z 23010KT CAVOK 06/00 Q1008 R16/15//95=
201812221800 METAR COR LRSV 221800Z 23007KT CAVOK 04/00 Q1008 R16/15//95=
201812221830 METAR LRSV 221830Z 22007KT CAVOK 04/00 Q1008 R16/15//95=
201812221900 METAR LRSV 221900Z 22009KT CAVOK 04/00 Q1007 R16/15//95=
201812221930 METAR COR LRSV 221930Z 22007KT CAVOK 04/00 Q1007 R16/15//95=
201812222000 METAR LRSV 222000Z 22007KT CAVOK 04/00 Q1007 R16/15//95=
201812222030 METAR LRSV 222030Z 23007KT CAVOK 05/00 Q1007 R16/15//95=
201812222100 METAR LRSV 222100Z 23006KT CAVOK 05/00 Q1007 R16/15//95=
201812222130 METAR LRSV 222130Z 23007KT CAVOK 04/00 Q1007 R16/15//95=
201812222200 METAR LRSV 222200Z 23007KT CAVOK 04/00 Q1007 R16/15//95=
201812222230 METAR LRSV 222230Z 26007KT 9999 -RA NSC 04/00 Q1007 R16/15//95=
201812222300 METAR LRSV 222300Z 26008KT 9999 -RA NSC 05/00 Q1007 R16/15//95=
201812222330 METAR LRSV 222330Z 26007KT 9999 -RA BKN042 06/01 Q1007 R16/15//95=
201812230000 METAR LRSV 230000Z 32006KT 9999 -RA BKN034 06/02 Q1008 R16/15//95=
201812230030 METAR LRSV 230030Z 33007KT 9999 -RA BKN035 04/02 Q1008 R16/15//95=
201812230100 METAR LRSV 230100Z 29010KT 9999 BKN035 05/02 Q1008 R16/15//95=
201812230130 METAR LRSV 230130Z 31009KT 9999 BKN035 05/02 Q1009 R16/15//95=
201812230200 METAR LRSV 230200Z 33012G23KT 310V010 9999 BKN035 04/01 Q1010
                        R16/15//95=
201812230230 METAR LRSV 230230Z 33016KT 9999 FEW015 BKN035 03/01 Q1010
                        R16/15//95=
201812230300 METAR LRSV 230300Z 33016KT 9999 FEW015 BKN040 03/00 Q1010
                        R16/29//95=
201812230330 METAR LRSV 230330Z 33015KT 9999 BKN047 03/M01 Q1010 R16/29//95=
201812230400 METAR LRSV 230400Z 33016KT 9999 BKN046 04/M01 Q1010 R16/29//95=
201812230430 METAR LRSV 230430Z 32019KT CAVOK 04/M02 Q1010 R16/29//95=
201812230500 METAR LRSV 230500Z 32019KT CAVOK 04/M02 Q1011 R16/29//95=
201812230530 METAR LRSV 230530Z 32016G27KT CAVOK 04/M02 Q1011 R16/29//95=
201812230600 METAR LRSV 230600Z 32015KT CAVOK 04/M02 Q1011 R16/29//95=
201812230630 METAR COR LRSV 230630Z 32012KT CAVOK 04/M02 Q1012 R16/29//95=
201812230700 METAR LRSV 230700Z 32011KT CAVOK 03/M02 Q1012 R16/29//95=
201812230730 METAR LRSV 230730Z 33014KT CAVOK 04/M02 Q1013 R16/29//95=
201812230800 METAR LRSV 230800Z 32012KT CAVOK 04/M02 Q1013 R16/29//95=
201812230830 METAR LRSV 230830Z 32012KT CAVOK 04/M02 Q1013 R16/29//95=
201812230900 METAR COR LRSV 230900Z 33019KT CAVOK 03/M02 Q1013 R16/29//95=
201812230930 METAR LRSV 230930Z 33019KT CAVOK 03/M02 Q1014 R16/29//95=
201812231000 METAR LRSV 231000Z 33017KT CAVOK 03/M02 Q1014 R16/29//95=
201812231030 METAR LRSV 231030Z 33018KT CAVOK 03/M02 Q1014 R16/29//95=
201812231100 METAR LRSV 231100Z 34013KT CAVOK 02/M02 Q1014 R16/29//95=
201812231130 METAR LRSV 231130Z 34015KT CAVOK 03/M03 Q1014 R16/19//95=
201812231200 METAR COR LRSV 231200Z 34016KT CAVOK 03/M03 Q1014 R16/19//95=
201812231230 METAR LRSV 231230Z 34015KT CAVOK 03/M02 Q1015 R16/19//95=
201812231300 METAR LRSV 231300Z 34018KT CAVOK 03/M02 Q1015 R16/19//95=
201812231330 METAR LRSV 231330Z 33017KT CAVOK 02/M02 Q1015 R16/19//95=
201812231400 METAR LRSV 231400Z 34016KT CAVOK 02/M02 Q1015 R16/19//95=
201812231430 METAR LRSV 231430Z 34014KT 9999 -SN SCT045 02/M02 Q1015 R16/19//95=
201812231500 METAR LRSV 231500Z 33014KT CAVOK 02/M02 Q1015 R16/19//95=
201812231530 METAR COR LRSV 231530Z 33014KT CAVOK 02/M02 Q1015 R16/19//95=
201812231600 METAR LRSV 231600Z 33010KT 9999 BKN048 01/M02 Q1016 R16/19//95=
201812231630 METAR LRSV 231630Z 31007KT 9999 SCT027 01/M02 Q1016 R16/19//95=
201812231700 METAR LRSV 231700Z 30007KT 9999 FEW028 01/M02 Q1016 R16/19//95=
201812231730 METAR LRSV 231730Z 30006KT CAVOK 01/M02 Q1016 R16/19//95=
201812231800 METAR LRSV 231800Z 23005KT CAVOK M01/M03 Q1016 R16/19//95=
201812231830 METAR LRSV 231830Z 25006KT CAVOK M00/M02 Q1016 R16/19//95=
201812231900 METAR LRSV 231900Z 24007KT CAVOK M01/M03 Q1016 R16/19//95=
201812231930 METAR LRSV 231930Z 24005KT CAVOK M01/M02 Q1016 R16/19//95=
201812232000 METAR LRSV 232000Z 25006KT CAVOK M01/M03 Q1016 R16/19//95=
201812232030 METAR LRSV 232030Z 23006KT CAVOK M02/M04 Q1015 R16/19//95=
201812232100 METAR LRSV 232100Z 23006KT CAVOK M02/M03 Q1015 R16/19//95=
201812232130 METAR LRSV 232130Z 24005KT CAVOK M01/M02 Q1015 R16/19//95=
201812232200 METAR LRSV 232200Z 23005KT CAVOK M02/M03 Q1015 R16/19//95=
201812232230 METAR LRSV 232230Z 21007KT CAVOK M02/M03 Q1014 R16/19//95=
201812232300 METAR LRSV 232300Z 21008KT CAVOK M02/M03 Q1014 R16/19//95=
201812232330 METAR LRSV 232330Z 22008KT CAVOK M01/M03 Q1013 R16/19//95=
201812240000 METAR LRSV 240000Z 21009KT CAVOK M01/M02 Q1013 R16/19//95=
201812240030 METAR LRSV 240030Z 21008KT CAVOK M01/M02 Q1012 R16/19//95=
201812240100 METAR LRSV 240100Z 20007KT CAVOK M01/M02 Q1012 R16/19//95=
201812240130 METAR LRSV 240130Z 19007KT CAVOK M01/M02 Q1011 R16/19//95=
201812240200 METAR LRSV 240200Z 21009KT CAVOK M01/M02 Q1010 R16/19//95=
201812240230 METAR LRSV 240230Z 20008KT CAVOK M00/M02 Q1010 R16/19//95=
201812240300 METAR LRSV 240300Z 23006KT CAVOK M00/M02 Q1009 R16/19//95=
201812240330 METAR LRSV 240330Z 23006KT CAVOK M00/M02 Q1008 R16/19//95=
201812240400 METAR LRSV 240400Z 20004KT 170V230 CAVOK 00/M02 Q1008 R16/19//95=
201812240430 METAR LRSV 240430Z 20003KT 180V240 CAVOK 01/M02 Q1008 R16/19//95=
201812240500 METAR LRSV 240500Z 17004KT CAVOK 00/M02 Q1007 R16/19//95=
201812240530 METAR LRSV 240530Z 18005KT CAVOK 01/M02 Q1007 R16/19//95=
201812240600 METAR LRSV 240600Z 21008KT CAVOK 01/M01 Q1007 R16/19//95=
201812240630 METAR LRSV 240630Z 23007KT CAVOK 01/M01 Q1006 R16/19//95=
201812240700 METAR LRSV 240700Z 23008KT 9999 -RA SCT044 02/M01 Q1006 R16/19//95=
201812240730 METAR LRSV 240730Z 23008KT 9999 BKN046 02/M01 Q1005 R16/19//95=
201812240800 METAR LRSV 240800Z 21005KT 180V260 9999 -RA BKN046 02/M01
                        Q1005 R16/19//95=
201812240830 METAR LRSV 240830Z 19003KT 160V230 9999 -RA BKN033 02/M01
                        Q1005 R16/29//95=
201812240900 METAR LRSV 240900Z 17004KT 8000 -RA BKN025 02/M00 Q1004 R16/29//95=
201812240930 METAR LRSV 240930Z 19003KT 6000 -RA SCT017 BKN026 02/M00
                        Q1004 R16/29//95=
201812241000 METAR LRSV 241000Z 19007KT 7000 -RA BKN015 BKN026 02/00 Q1003
                        R16/29//95=
201812241030 METAR LRSV 241030Z 20007KT 5000 -RASN BKN015 BKN026 01/00
                        Q1003 R16/29//95=
201812241100 METAR LRSV 241100Z 20004KT 4000 RASN BR BKN015 BKN026 01/00
                        Q1002 R16/29//95=
201812241130 METAR LRSV 241130Z 22003KT 200V260 4000 -RASN BR BKN015 BKN026
                        01/00 Q1002 R16/29//95=
201812241200 METAR LRSV 241200Z 32002KT 4000 RASN BR BKN015 BKN026 01/01
                        Q1002 R16/29//95=
201812241230 METAR LRSV 241230Z 32005KT 3000 RASN BR BKN015 BKN026 01/00
                        Q1003 R16/29//95=
201812241300 METAR LRSV 241300Z 33008KT 1000 R34/1700 SN BR BKN015 BKN026
                        01/00 Q1003 R16/29//95=
201812241330 METAR LRSV 241330Z 34013KT 1200 R34/1900U SN BR BKN010 BKN026
                        00/M00 Q1003 R16/29//95=
201812241400 METAR LRSV 241400Z 33013KT 2000 SN BR BKN005 BKN026 00/00
                        Q1004 R16/690194=
201812241430 METAR LRSV 241430Z 34016KT 2000 SN BR BKN010 BKN026 00/00
                        Q1004 R16/690194=
201812241500 METAR LRSV 241500Z 33018KT 2000 SN BR BKN010 BKN026 00/00
                        Q1005 R16/690194=
201812241530 METAR LRSV 241530Z 34022KT 2000 SN BR BKN010 BKN026 00/00
                        Q1005 R16/690194=
201812241600 METAR LRSV 241600Z 33022KT 2000 SN BR BKN010 OVC026 00/M00
                        Q1006 R16/590493=
201812241630 METAR LRSV 241630Z 33024KT 2000 SN BR BKN009 OVC026 M00/M01
                        Q1007 R16/590493=
201812241700 METAR LRSV 241700Z 32026G38KT 9999 BKN007 BKN026 M01/M01
                        Q1008 RESN R16/590194=
201812241730 METAR LRSV 241730Z 32028G38KT 9999 BKN008 BKN026 M01/M02
                        Q1008 R16/590194=
201812241800 METAR LRSV 241800Z 33025KT 9999 SCT010 BKN022 M01/M02 Q1008
                        R16/590194=
201812241830 METAR LRSV 241830Z 32025G37KT 9999 BKN024 M01/M03 Q1009 R16/590194=
201812241900 METAR LRSV 241900Z 32024G38KT 9999 BKN025 M01/M03 Q1009 R16/590194=
201812241930 METAR LRSV 241930Z 33022KT 9999 BKN030 M01/M03 Q1010 R16/690193=
201812242000 METAR LRSV 242000Z 33020KT 9999 FEW015 OVC034 M01/M03 Q1011
                        R16/690193=
201812242030 METAR LRSV 242030Z 33023KT 9999 FEW015 BKN027 M01/M03 Q1011
                        R16/690193=
201812242100 METAR COR LRSV 242100Z 33018KT 9999 FEW015 BKN028 M01/M03
                        Q1012 R16/690193=
201812242130 METAR LRSV 242130Z 32021G31KT 9999 FEW015 BKN046 M01/M03
                        Q1012 R16/690193=
201812242200 METAR LRSV 242200Z 32017G28KT 9999 -SN SCT014 BKN040 M01/M03
                        Q1013 R16/690193=
201812242230 METAR LRSV 242230Z 33017KT 6000 -SN SCT007 BKN020 M02/M03
                        Q1013 R16/690193=
201812242300 METAR LRSV 242300Z 31015KT 4000 -SN BR BKN015 OVC019 M02/M03
                        Q1014 R16/690193=
201812242330 METAR LRSV 242330Z 32016KT 4000 -SN BR BKN014 OVC018 M02/M03
                        Q1014 R16/690193=
201812250000 METAR LRSV 250000Z 31016KT 5000 -SN BR FEW013 BKN023 M03/M04
                        Q1014 R16/690193=
201812250030 METAR LRSV 250030Z 33019KT 2900 -SN FEW0113 BKN026 M03/M04
                        Q1014 R16/690193=
201812250100 METAR LRSV 250100Z 32016KT 6000 -SN FEW016 BKN020 M03/M04
                        Q1015 R16/690193=
201812250130 METAR LRSV 250130Z 32015KT 7000 -SN BKN021 M03/M05 Q1014
                        R16/690193=
201812250200 METAR LRSV 250200Z 31015KT 8000 -SN FEW015 BKN031 M03/M05
                        Q1014 R16/690193=
201812250230 METAR LRSV 250230Z 31017KT 8000 -SN BKN030 M03/M05 Q1014
                        R16/690193=
201812250300 METAR LRSV 250300Z 31018G28KT 8000 -SN FEW013 BKN033 M03/M05
                        Q1014 R16/690193=
201812250330 METAR LRSV 250330Z 31018KT 8000 -SN SCT014 BNK023 M02/M04
                        Q1014 R16/690193=
201812250400 METAR LRSV 250400Z 31017KT 9999 -SN DRSN FEW014 BKN042 M02/M04
                        Q1014 R16/690193=
201812250430 METAR LRSV 250430Z 31018G28KT 9999 -SN DRSN BKN020 M02/M05
                        Q1014 R16/690193=
201812250500 METAR LRSV 250500Z 31017KT 9999 -SN DRSN BKN023 M02/M05 Q1015
                        R16/690193=
201812250530 METAR LRSV 250530Z 30018KT 9999 -SN DRSN SCT012 BKN025 M02/M05
                        Q1015 R16/690193=
201812250600 METAR LRSV 250600Z 31020G31KT 9999 -SN BLSN FEW018 BKN045
                        M02/M04 Q1015 R16/690193=
201812250630 METAR LRSV 250630Z 31017G28KT 7000 -SN BLSN FEW017 SCT045
                        M02/M04 Q1015 R16/690193=
201812250700 METAR LRSV 250700Z 31016KT 9999 -SN BLSN FEW019 SCT030 M02/M04
                        Q1015 R16/490294=
201812250730 METAR LRSV 250730Z 31019G29KT 5000 -SN BLSN SCT019 BKN029
                        M02/M04 Q1015 R16/490294=
201812250800 METAR LRSV 250800Z 31017G27KT 5000 -SN BLSN SCT019 BKN030
                        M02/M04 Q1016 R16/490294=
201812250830 METAR LRSV 250830Z 31018G28KT 3000 -SN BLSN SCT019 BKN030
                        M02/M04 Q1015 R16/490294=
201812250900 METAR LRSV 250900Z 31019G29KT 3000 -SN BLSN SCT017 BKN045
                        M02/M04 Q1015 R16/490294=
201812250930 METAR LRSV 250930Z 31021G33KT 5000 -SN BLSN SCT014 BKN045
                        M02/M04 Q1015 R16/490294=
201812251000 METAR LRSV 251000Z 31018G28KT 5000 -SN BLSN FEW017 SCT025
                        M02/M04 Q1015 R16/490294=
201812251030 METAR LRSV 251030Z 31018G28KT 3000 -SN BLSN SCT015 BKN025
                        M02/M04 Q1016 R16/490294=
201812251100 METAR LRSV 251100Z 31018G28KT 3000 -SN BLSN SCT015 BKN030
                        M02/M04 Q1016 R16/490294=
201812251130 METAR LRSV 251130Z 31018G28KT 5000 -SN BLSN SCT016 BKN025
                        M02/M05 Q1016 R16/490294=
201812251200 METAR LRSV 251200Z 31016KT 5000 -SN BLSN SCT018 BKN030 M03/M05
                        Q1016 R16/490294=
201812251230 METAR LRSV 251230Z 31016G26KT 7000 -SN BLSN SCT015 BKN024
                        M02/M05 Q1016 R16/490294=
201812251300 METAR LRSV 251300Z 31017KT 6000 -SN BLSN SCT017 BKN025 M03/M05
                        Q1017 R16/490294=
201812251330 METAR LRSV 251330Z 31017G28KT 6000 -SN BLSN SCT014 BKN035
                        M03/M05 Q1017 R16/490294=
201812251400 METAR LRSV 251400Z 31016KT 9999 -SN BLSN FEW019 SCT045 M03/M05
                        Q1017 R16/490294=
201812251430 METAR LRSV 251430Z 31017KT 9999 -SN BLSN FEW018 M02/M06 Q1017
                        R16/490294=
201812251500 METAR LRSV 251500Z 31017KT 9999 -SN BLSN FEW048 M02/M05 Q1017
                        R16/490294=
201812251530 METAR LRSV 251530Z 31017KT 9999 -SN BLSN NSC M02/M06 Q1018
                        R16/490294=
201812251600 METAR LRSV 251600Z 32018G28KT 9999 -SN BLSN FEW048 M02/M06
                        Q1018 R16/490294=
201812251630 METAR LRSV 251630Z 31018G28KT 9999 BLSN BKN045 M02/M06 Q1018
                        R16/490294=
201812251700 METAR LRSV 251700Z 31017KT 9999 BLSN FEW048 M01/M06 Q1018
                        R16/490294=
201812251730 METAR LRSV 251730Z 32018G28KT 9999 BLSN FEW032 M02/M06 Q1018
                        R16/490294=
201812251800 METAR LRSV 251800Z 31015KT 9999 DRSN SCT033 M02/M06 Q1018
                        R16/490294=
201812251830 METAR LRSV 251830Z 31014KT 9999 DRSN FEW033 M02/M06 Q1019
                        R16/490294=
201812251900 METAR LRSV 251900Z 32016KT 9999 DRSN FEW026 M02/M06 Q1018
                        R16/490294=
201812251930 METAR LRSV 251930Z 31015KT 9999 DRSN SCT025 M02/M05 Q1018
                        R16/920294=
201812252000 METAR LRSV 252000Z 31013KT 9999 DRSN BKN048 M02/M05 Q1019
                        R16/920294=
201812252030 METAR LRSV 252030Z 32013KT 9999 DRSN SCT020 M02/M05 Q1019
                        R16/920294=
201812252100 METAR LRSV 252100Z 31011KT 9999 SCT020 M02/M05 Q1019 R16/920294=
201812252130 METAR LRSV 252130Z 31013KT 9999 SCT030 M01/M05 Q1019 R16/920294=
201812252200 METAR LRSV 252200Z 31012KT 9999 SCT030 M02/M05 Q1019 R16/920294=
201812252230 METAR LRSV 252230Z 31013KT 9999 SCT031 M02/M05 Q1019 R16/920294=
201812252300 METAR LRSV 252300Z 30012KT 9999 BKN031 M02/M05 Q1019 R16/920294=
201812252330 METAR LRSV 252330Z 30010KT 9999 BKN031 M01/M06 Q1019 R16/920294=
201812260000 METAR LRSV 260000Z 30010KT 9999 BKN029 M01/M05 Q1019 R16/920294=
201812260030 METAR LRSV 260030Z 30009KT 9999 BKN027 M01/M05 Q1019 R16/920294=
201812260100 METAR LRSV 260100Z 26006KT 9999 BKN030 M02/M05 Q1019 R16/920294=
201812260130 METAR LRSV 260130Z 25007KT 9999 BKN025 M02/M05 Q1019 R16/920294=
201812260200 METAR LRSV 260200Z 26006KT 9999 BKN023 M02/M05 Q1019 R16/920294=
201812260230 METAR LRSV 260230Z 28004KT 9999 BKN025 M01/M05 Q1018 R16/920294=
201812260300 METAR LRSV 260300Z 28006KT 9999 BKN040 M01/M05 Q1018 R16/920294=
201812260330 METAR LRSV 260330Z 27009KT 9999 BKN027 M01/M05 Q1018 R16/920294=
201812260400 METAR LRSV 260400Z 25008KT 9999 -SN SCT024 BKN040 M01/M05
                        Q1018 R16/920294=
201812260430 METAR LRSV 260430Z 27011KT 8000 -SN SCT024 BKN045 M01/M04
                        Q1018 R16/920294=
201812260500 METAR LRSV 260500Z 26009KT 9999 -SN BKN040 M01/M03 Q1018
                        R16/920294=
201812260530 METAR LRSV 260530Z 26008KT 9999 BKN030 M01/M03 Q1018 R16/920294=
201812260600 METAR LRSV 260600Z 25008KT 9999 -SN BKN030 M00/M03 Q1018
                        R16/920294=
201812260630 METAR LRSV 260630Z 25009KT 9999 -SN BKN030 M00/M03 Q1018
                        R16/920294=
201812260700 METAR LRSV 260700Z 28014KT 9999 BKN035 01/M03 Q1018 R16/920294=
201812260730 METAR COR LRSV 260730Z 27010KT 9999 BKN033 01/M03 Q1018 R16/920294=
201812260800 METAR LRSV 260800Z 27009KT 9999 SCT042 01/M03 Q1018 R16/920294=
201812260830 METAR LRSV 260830Z 26010KT 9999 SCT046 01/M03 Q1018 R16/920294=
201812260900 METAR LRSV 260900Z 26009KT CAVOK 01/M03 Q1018 R16/920294=
201812260930 METAR LRSV 260930Z 25008KT CAVOK 02/M03 Q1017 R16/920294=
201812261000 METAR LRSV 261000Z 24009KT CAVOK 02/M03 Q1017 R16/920294=
201812261030 METAR LRSV 261030Z 26008KT CAVOK 02/M03 Q1017 R16/920294=
201812261100 METAR LRSV 261100Z 29015KT CAVOK 03/M03 Q1017 R16/920294=
201812261130 METAR LRSV 261130Z 28011KT 9999 BKN042 03/M02 Q1016 R16/920294=
201812261200 METAR LRSV 261200Z 26008KT 9999 BKN045 03/M03 Q1016 R16/920294=
201812261230 METAR LRSV 261230Z 26008KT 9999 BKN045 03/M03 Q1016 R16/920294=
201812261300 METAR LRSV 261300Z 27011KT 9999 BKN042 03/M03 Q1016 R16/920294=
201812261330 METAR COR LRSV 261330Z 26009KT 9999 BKN038 02/M03 Q1016 R16/920294=
201812261400 METAR COR LRSV 261400Z 28012KT 9999 BKN038 03/M03 Q1016 R16/920294=
201812261430 METAR LRSV 261430Z 28011KT 9999 BKN038 03/M03 Q1016 R16/920294=
201812261500 METAR LRSV 261500Z 28011KT 9999 BKN037 03/M03 Q1015 R16/920294=
201812261530 METAR LRSV 261530Z 28013KT 9999 BKN035 03/M03 Q1015 R16/920294=
201812261600 METAR LRSV 261600Z 29016KT 9999 BKN036 03/M03 Q1015 R16/920294=
201812261630 METAR LRSV 261630Z 29016KT 9999 BKN035 03/M03 Q1015 R16/910295=
201812261700 METAR LRSV 261700Z 30016KT 9999 SCT033 03/M03 Q1016 R16/910295=
201812261730 METAR LRSV 261730Z 30019KT 9999 SCT033 03/M03 Q1015 R16/910295=
201812261800 METAR LRSV 261800Z 30019G29KT 9999 FEW043 03/M03 Q1015 R16/910295=
201812261830 METAR LRSV 261830Z 29016KT 9999 SCT045 02/M02 Q1015 R16/910295=
201812261900 METAR LRSV 261900Z 30019KT 9999 BKN035 02/M02 Q1016 R16/910295=
201812261930 METAR LRSV 261930Z 29020KT 9999 BKN034 02/M02 Q1016 R16/910295=
201812262000 METAR LRSV 262000Z 29018KT 9999 BKN025 02/M02 Q1016 R16/910295=
201812262030 METAR LRSV 262030Z 29018KT 9999 -DZ FEW018 BKN025 02/M01
                        Q1016 R16/910295=
201812262100 METAR LRSV 262100Z 30019KT 9999 FEW018 BKN025 02/M00 Q1016
                        R16/910295=
201812262130 METAR LRSV 262130Z 29015KT 9999 -DZ FEW012 BKN025 01/M00
                        Q1016 R16/910295=
201812262200 METAR LRSV 262200Z 29015KT 9999 -RA SCT014 BKN030 01/00 Q1016
                        R16/910295=
201812262230 METAR LRSV 262230Z 30014KT 8000 -RA SCT012 BKN028 01/00 Q1016
                        R16/910295=
201812262300 METAR LRSV 262300Z 31015KT 8000 -RA FEW012 BKN025 02/00 Q1016
                        R16/910295=
201812262330 METAR LRSV 262330Z 31015KT 9999 FEW012 SCT025 02/00 Q1017
                        R16/910295=
201812270000 METAR LRSV 270000Z 31013KT 9999 FEW016 BKN049 02/M00 Q1017
                        R16/910295=
201812270030 METAR LRSV 270030Z 31014KT 9999 BKN047 02/M00 Q1017 R16/910295=
201812270100 METAR LRSV 270100Z 31013KT 9999 FEW017 BKN048 02/M00 Q1017
                        R16/910295=
201812270130 METAR LRSV 270130Z 31015KT 9999 FEW018 BKN049 02/M00 Q1017
                        R16/910295=
201812270200 METAR LRSV 270200Z 32015KT 9999 FEW017 BKN048 02/M00 Q1017
                        R16/910295=
201812270230 METAR LRSV 270230Z 32015KT 9999 BKN047 02/M00 Q1017 R16/910295=
201812270300 METAR LRSV 270300Z 31015KT 9999 FEW014 BKN047 02/M01 Q1017
                        R16/910295=
201812270330 METAR LRSV 270330Z 31013KT 9999 FEW015 BKN042 02/M01 Q1017
                        R16/910295=
201812270400 METAR LRSV 270400Z 31013KT 9999 BKN040 02/M01 Q1018 R16/910295=
201812270430 METAR LRSV 270430Z 31014KT 9999 BKN040 02/M01 Q1018 R16/910295=
201812270500 METAR LRSV 270500Z 31014KT 9999 SCT040 02/M02 Q1018 R16/910295=
201812270530 METAR LRSV 270530Z 32015KT 9999 FEW040 02/M02 Q1019 R16/910295=
201812270600 METAR LRSV 270600Z 31013KT 9999 BKN046 02/M02 Q1019 R16/910295=
201812270630 METAR LRSV 270630Z 31012KT 9999 BKN046 02/M02 Q1019 R16/910295=
201812270700 METAR COR LRSV 270700Z 31012KT 9999 BKN033 02/M02 Q1019 R16/910295=
201812270730 METAR LRSV 270730Z 31012KT 9999 BKN033 02/M02 Q1019 R16/910295=
201812270800 METAR COR LRSV 270800Z 31012KT 9999 BKN030 02/M02 Q1019 R16/910295=
201812270830 METAR LRSV 270830Z 31011KT 9999 BKN025 01/M01 Q1019 R16/910295=
201812270900 METAR LRSV 270900Z 31011KT 9999 BKN025 01/M00 Q1020 R16/910295=
201812270930 METAR LRSV 270930Z 31010KT 6000 -SN BKN011 BKN025 01/M00
                        Q1019 R16/910295=
201812271000 METAR LRSV 271000Z 32010KT 9999 BKN010 BKN025 02/00 Q1019
                        R16/910295=
201812271030 METAR LRSV 271030Z 30011KT 9999 BKN011 BKN025 02/M00 Q1019
                        R16/910295=
201812271100 METAR LRSV 271100Z 31012KT 9999 BKN011 BKN040 02/00 Q1019
                        R16/910295=
201812271130 METAR LRSV 271130Z 32012KT 9999 FEW011 BKN040 02/M00 Q1019
                        R16/910295=
201812271200 METAR LRSV 271200Z 33013KT 9999 FEW011 BKN042 02/M00 Q1018
                        R16/910295=
201812271230 METAR LRSV 271230Z 34012KT 9999 FEW012 BKN041 02/00 Q1019
                        R16/910295=
201812271300 METAR LRSV 271300Z 34012KT 9999 FEW012 BKN038 02/00 Q1019
                        R16/910295=
201812271330 METAR LRSV 271330Z 33009KT 9999 FEW012 BKN039 02/00 Q1019
                        R16/910295=
201812271400 METAR LRSV 271400Z 33008KT 9999 BKN037 02/00 Q1019 R16/910295=
201812271430 METAR LRSV 271430Z 33006KT 8000 -RA SCT017 BKN037 02/00 Q1019
                        R16/910295=
201812271500 METAR LRSV 271500Z 35005KT 7000 -RA SCT017 BKN037 01/00 Q1019
                        R16/910295=
201812271530 METAR LRSV 271530Z 27003KT 8000 -RA SCT017 BKN037 01/00 Q1019
                        R16/910295=
201812271600 METAR LRSV 271600Z 26003KT 8000 -RA FEW017 BKN040 01/00 Q1019
                        R16/29//95=
201812271630 METAR LRSV 271630Z 25003KT 8000 -RA FEW017 BKN040 01/00 Q1019
                        R16/29//95=
201812271700 METAR LRSV 271700Z 22005KT 3000 -RA BR SCT017 BKN040 01/00
                        Q1019 R16/29//95=
201812271730 METAR LRSV 271730Z 21004KT 3000 BR BKN035 01/00 Q1019 R16/29//95=
201812271800 METAR LRSV 271800Z 22007KT 3000 BR OVC033 01/00 Q1019 R16/29//95=
201812271830 METAR LRSV 271830Z 22008KT 4000 BR BKN030 01/00 Q1018 R16/29//95=
201812271900 METAR LRSV 271900Z 23006KT 5000 BR BKN030 01/00 Q1018 R16/29//95=
201812271930 METAR LRSV 271930Z 23007KT 9999 BKN035 02/M00 Q1018 R16/29//95=
201812272000 METAR LRSV 272000Z 24006KT 9999 BKN030 01/M00 Q1018 R16/29//95=
201812272030 METAR LRSV 272030Z 24006KT 9999 SCT030 02/M01 Q1018 R16/29//95=
201812272100 METAR LRSV 272100Z 24005KT 9999 SCT032 02/M01 Q1018 R16/29//95=
201812272130 METAR COR LRSV 272130Z 24006KT 9999 SCT032 02/M01 Q1017 R16/29//95=
201812272200 METAR LRSV 272200Z 25007KT 9999 SCT035 02/M01 Q1017 R16/29//95=
201812272230 METAR LRSV 272230Z 24008KT 9999 FEW037 02/M01 Q1017 R16/29//95=
201812272300 METAR LRSV 272300Z 25006KT 9999 SCT035 02/M01 Q1017 R16/29//95=
201812272330 METAR LRSV 272330Z 25006KT 9999 -DZ OVC030 02/M01 Q1017 R16/29//95=
201812280000 METAR LRSV 280000Z 23005KT 8000 -RA OVC022 02/M00 Q1017 R16/29//95=
201812280030 METAR COR LRSV 280030Z 23005KT 9999 -RA BKN022 02/M00 Q1017
                        R16/29//95=
201812280100 METAR LRSV 280100Z 25006KT 9999 -RA BKN027 02/00 Q1017 R16/29//95=
201812280130 METAR LRSV 280130Z 24007KT 9999 -RA BKN027 02/00 Q1017 R16/29//95=
201812280200 METAR LRSV 280200Z 24007KT 9999 -RA BKN035 02/00 Q1016 R16/29//95=
201812280230 METAR LRSV 280230Z 23007KT 9999 -RA BKN030 02/00 Q1016 R16/29//95=
201812280300 METAR LRSV 280300Z 22006KT 9999 -RA OVC033 01/00 Q1016 R16/29//95=
201812280330 METAR LRSV 280330Z 22006KT 9999 BKN034 02/00 Q1016 R16/29//95=
201812280400 METAR LRSV 280400Z 23006KT 9999 BKN036 02/00 Q1016 R16/29//95=
201812280430 METAR LRSV 280430Z 24006KT 230V290 9999 -RA BKN036 02/M00
                        Q1016 R16/29//95=
201812280500 METAR LRSV 280500Z 25005KT 230V290 9999 BKN035 02/M00 Q1016
                        R16/29//95=
201812280530 METAR LRSV 280530Z 24003KT 9999 -RA BKN033 02/M00 Q1016 R16/29//95=
201812280600 METAR LRSV 280600Z 24006KT 9999 -RA BKN030 02/M00 Q1016 R16/29//95=
201812280630 METAR LRSV 280630Z 23006KT 9999 -RA BKN030 02/M00 Q1016 R16/29//95=
201812280700 METAR LRSV 280700Z 24005KT 9999 -RA BKN033 02/M00 Q1016 R16/29//95=
201812280730 METAR LRSV 280730Z 25003KT 9999 BKN034 03/M00 Q1016 R16/29//95=
201812280800 METAR LRSV 280800Z 27003KT 9999 BKN032 03/00 Q1016 R16/29//95=
201812280830 METAR LRSV 280830Z 25005KT 9999 BKN030 04/M00 Q1016 R16/29//95=
201812280900 METAR LRSV 280900Z 25003KT 9999 BKN030 04/M00 Q1016 R16/29//95=
201812280930 METAR LRSV 280930Z 30002KT 9999 BKN030 04/00 Q1016 R16/29//95=
201812281000 METAR LRSV 281000Z VRB02KT 9999 -RA BKN030 04/01 Q1016 R16/29//95=
201812281030 METAR LRSV 281030Z 00000KT 9999 BKN030 05/01 Q1015 R16/29//95=
201812281100 METAR LRSV 281100Z 21002KT 9999 BKN030 04/01 Q1015 R16/29//95=
201812281130 METAR LRSV 281130Z 00000KT 9999 SCT035 05/01 Q1015 R16/29//95=
201812281200 METAR LRSV 281200Z 32005KT 9999 BKN030 05/01 Q1015 R16/29//95=
201812281230 METAR LRSV 281230Z 35010KT 9999 BKN029 04/01 Q1015 R16/29//95=
201812281300 METAR LRSV 281300Z 34012KT 9999 -RA BKN029 04/02 Q1016 R16/29//95=
201812281330 METAR LRSV 281330Z 34009KT 9999 -RA SCT030 03/01 Q1016 R16/29//95=
201812281400 METAR LRSV 281400Z 32008KT 290V360 9999 SCT025 04/02 Q1016
                        R16/29//95=
201812281430 METAR LRSV 281430Z 31008KT 9999 -RA SCT025 03/01 Q1016 R16/29//95=
201812281500 METAR LRSV 281500Z 31008KT 9999 SCT044 04/01 Q1016 R16/29//95=
201812281530 METAR LRSV 281530Z 30005KT 9999 SCT045 03/01 Q1016 R16/29//95=
201812281600 METAR LRSV 281600Z 27006KT 9999 SCT045 03/01 Q1016 R16/29//95=
201812281630 METAR LRSV 281630Z 30007KT 9999 FEW045 03/01 Q1016 R16/29//95=
201812281700 METAR LRSV 281700Z 30007KT CAVOK 03/01 Q1016 R16/29//95=
201812281730 METAR LRSV 281730Z 27006KT CAVOK 02/01 Q1016 R16/29//95=
201812281800 METAR LRSV 281800Z 27007KT CAVOK 03/01 Q1016 R16/29//95=
201812281830 METAR LRSV 281830Z 29009KT CAVOK 03/01 Q1016 R16/29//95=
201812281900 METAR LRSV 281900Z 28010KT 9999 -RA SCT036 03/01 Q1016 R16/29//95=
201812281930 METAR LRSV 281930Z 28009KT CAVOK 03/01 Q1015 R16/29//95=
201812282000 METAR LRSV 282000Z 28009KT CAVOK 03/00 Q1015 R16/29//95=
201812282030 METAR LRSV 282030Z 31008KT 9999 SCT046 04/M00 Q1016 R16/29//95=
201812282100 METAR LRSV 282100Z 33009KT CAVOK 03/M00 Q1015 R16/29//95=
201812282130 METAR LRSV 282130Z 31007KT 9999 -RA SCT042 03/M00 Q1015 R16/29//95=
201812282200 METAR LRSV 282200Z 31009KT 9999 BKN044 03/M00 Q1016 R16/29//95=
201812282230 METAR LRSV 282230Z 29011KT 9999 -RA BKN045 03/00 Q1016 R16/29//95=
201812282300 METAR LRSV 282300Z 29012KT 9999 SCT035 03/00 Q1016 R16/29//95=
201812282330 METAR LRSV 282330Z 30012KT CAVOK 03/00 Q1016 R16/29//95=
201812290000 METAR LRSV 290000Z 31010KT CAVOK 03/00 Q1016 R16/29//95=
201812290030 METAR LRSV 290030Z 31012KT CAVOK 03/00 Q1016 R16/29//95=
201812290100 METAR LRSV 290100Z 31013KT CAVOK 03/00 Q1016 R16/29//95=
201812290130 METAR LRSV 290130Z AUTO 31012KT 9999 DZ FEW013/// SCT037///
                        BKN045/// 02/00 Q1016=
201812290200 METAR LRSV 290200Z AUTO 31012KT 9999 DZ FEW009/// SCT027///
                        BKN046/// 02/01 Q1016=
201812290230 METAR LRSV 290230Z AUTO 31012KT 9999 -RA SCT012/// BKN042///
                        BKN055/// 02/01 Q1016=
201812290300 METAR COR LRSV 290300Z 31011KT 9999 -RA SCT011 BKN040 02/00
                        Q1016 R16/29//95=
201812290330 METAR COR LRSV 290330Z 31011KT 9999 -TA SCT018 BKN030 02/00
                        Q1016 R16/29//95=
201812290400 METAR LRSV 290400Z 32012KT 8000 -RASN BKN011 BKN037 02/00
                        Q1017 R16/29//95=
201812290430 METAR COR LRSV 290430Z 32011KT 7000 -RA SCT007 BKN040 01/00
                        Q1017 R16/29//95=
201812290500 METAR COR LRSV 290500Z 33015KT 9999 -RA BKN011 BKN032 01/00
                        Q1017 R16/29//95=
201812290530 METAR LRSV 290530Z 33018KT 9999 SCT013 BKN044 01/M00 Q1018
                        R16/29//95=
201812290600 METAR LRSV 290600Z 33014KT 6000 -SN BKN006 OVC033 01/00 Q1018
                        R16/29//95=
201812290630 METAR LRSV 290630Z 33016KT 3000 -SN BR BKN006 OVC028 01/00
                        Q1018 R16/29//95=
201812290700 METAR LRSV 290700Z 33012KT 3000 BR BKN004 OVC025 01/00 Q1018
                        R16/29//95=
201812290730 METAR LRSV 290730Z 33013KT 3000 BR BKN008 01/00 Q1019 R16/29//95=
201812290800 METAR LRSV 290800Z 33013KT 5000 -SN BR BKN008 01/00 Q1019
                        R16/29//95=
201812290830 METAR COR LRSV 290830Z 33015KT 5000 -SN BR BKN007 01/00 Q1019
                        R16/29//95=
201812290900 METAR LRSV 290900Z 33015KT 8000 BKN010 01/00 Q1019 R16/29//95=
201812290930 METAR COR LRSV 290930Z 33015KT 2000 -SN BR BKN007 OVC018
                        01/M00 Q1019 R16/29//95=
201812291000 METAR LRSV 291000Z 34014KT 8000 -SN BKN008 01/M00 Q1019 R16/29//95=
201812291030 METAR COR LRSV 291030Z 34015KT 8000 -SN BKN007 OVC023 01/M00
                        Q1019 R16/29//95=
201812291100 METAR LRSV 291100Z 35013KT 9999 -SN BKN007 OVC023 01/M00
                        Q1019 R16/29//95=
201812291130 METAR LRSV 291130Z 35012KT 9999 BKN007 01/00 Q1019 R16/29//95=
201812291200 METAR LRSV 291200Z 34012KT 9999 -SN BKN006 01/00 Q1019 R16/29//95=
201812291230 METAR LRSV 291230Z 34015KT 9999 -SN BKN007 OVC018 01/M00
                        Q1020 R16/29//95=
201812291300 METAR LRSV 291300Z 34015KT 9999 -SN BKN008 01/M00 Q1020 R16/29//95=
201812291330 METAR LRSV 291330Z 34016KT 9999 -SN BKN011 BKN033 01/M01
                        Q1020 R16/29//95=
201812291400 METAR LRSV 291400Z 35017KT 9999 SCT008 BKN029 01/M01 Q1020
                        R16/29//95=
201812291430 METAR LRSV 291430Z 33013KT 9999 SCT008 01/M01 Q1021 R16/29//95=
201812291500 METAR LRSV 291500Z 33015KT 8000 -SN BKN030 00/M01 Q1021 R16/29//95=
201812291530 METAR LRSV 291530Z 34015KT 9999 -SN FEW015 BKN033 00/M00
                        Q1021 R16/29//95=
201812291600 METAR LRSV 291600Z 34015KT 9999 SCT010 BKN032 01/M00 Q1021
                        R16/29//95=
201812291630 METAR LRSV 291630Z 34013KT 9999 BKN006 OVC030 01/M00 Q1021
                        R16/29//95=
201812291700 METAR LRSV 291700Z 34012KT 9999 BKN006 OVC023 01/M00 Q1022
                        R16/29//95=
201812291730 METAR LRSV 291730Z 34011KT 9999 -SN SCT007 BKN025 00/M00
                        Q1021 R16/29//95=
201812291800 METAR LRSV 291800Z 34011KT 9999 -SN SCT007 BKN035 00/M00
                        Q1022 R16/29//95=
201812291830 METAR LRSV 291830Z 34009KT 9999 -SN SCT007 BKN034 00/M00
                        Q1021 R16/29//95=
201812291900 METAR LRSV 291900Z 34008KT 9999 -SN SCT007 BKN017 01/M00
                        Q1022 R16/29//95=
201812291930 METAR LRSV 291930Z 34007KT 9999 -SN SCT007 BKN017 01/M00
                        Q1022 R16/29//95=
201812292000 METAR LRSV 292000Z 33008KT 9999 -SN FEW006 BKN016 01/M00
                        Q1022 R16/29//95=
201812292030 METAR LRSV 292030Z 33009KT 9999 -SN BKN010 01/M00 Q1022 R16/29//95=
201812292100 METAR LRSV 292100Z 33007KT 9999 -SN BKN006 01/00 Q1022 R16/29//95=
201812292130 METAR LRSV 292130Z 32004KT 8000 -RASN BKN005 01/M00 Q1022
                        R16/29//95=
201812292200 METAR LRSV 292200Z 32006KT 9999 -SN BKN007 BKN027 01/00 Q1021
                        R16/29//95=
201812292230 METAR LRSV 292230Z 33007KT 9999 -SN FEW018 BKN030 01/00 Q1021
                        R16/29//95=
201812292300 METAR LRSV 292300Z 33006KT 9999 -SN FEW019 BKN030 01/00 Q1021
                        R16/29//95=
201812292330 METAR LRSV 292330Z 32006KT 9999 -SN FEW020 BKN033 01/00 Q1021
                        R16/29//95=
201812300000 METAR LRSV 300000Z 31003KT 9000 -SN SCT009 BKN023 01/00 Q1021
                        R16/29//95=
201812300030 METAR LRSV 300030Z 33005KT 9999 -SN SCT009 BKN023 01/00 Q1021
                        R16/29//95=
201812300100 METAR LRSV 300100Z 31005KT 9999 FEW009 BKN036 01/00 Q1021
                        R16/29//95=
201812300130 METAR LRSV 300130Z 29005KT 9999 BKN033 01/00 Q1020 R16/29//95=
201812300200 METAR LRSV 300200Z 31006KT 9999 BKN033 01/00 Q1020 R16/29//95=
201812300230 METAR LRSV 300230Z 31005KT 9999 FEW011 BKN036 01/00 Q1020
                        R16/29//95=
201812300300 METAR LRSV 300300Z 32005KT 9999 FEW015 BKN040 01/M00 Q1020
                        R16/29//95=
201812300330 METAR LRSV 300330Z 33004KT 9999 FEW015 OVC046 01/M00 Q1020
                        R16/29//95=
201812300400 METAR LRSV 300400Z 30003KT 9999 BKN046 01/M00 Q1020 R16/29//95=
201812300430 METAR LRSV 300430Z 31004KT 9999 BKN048 01/M00 Q1020 R16/29//95=
201812300500 METAR LRSV 300500Z 30003KT 9999 BKN048 01/M00 Q1020 R16/29//95=
201812300530 METAR LRSV 300530Z 32004KT 9999 BKN045 01/M00 Q1020 R16/29//95=
201812300600 METAR LRSV 300600Z 29003KT 240V320 9999 BKN046 01/M01 Q1020
                        R16/29//95=
201812300630 METAR LRSV 300630Z 25003KT 9999 BKN046 01/M00 Q1020 R16/29//95=
201812300700 METAR LRSV 300700Z 23004KT 9999 BKN046 00/M00 Q1020 R16/29//95=
201812300730 METAR LRSV 300730Z 23004KT 9999 BKN043 00/M00 Q1020 R16/29//95=
201812300800 METAR LRSV 300800Z VRB01KT 8000 BKN044 00/M00 Q1020 R16/29//95=
201812300830 METAR LRSV 300830Z 20002KT 8000 BKN045 01/M00 Q1020 R16/29//95=
201812300900 METAR LRSV 300900Z 21003KT 8000 BKN049 01/00 Q1020 R16/29//95=
201812300930 METAR LRSV 300930Z 21003KT 9000 BKN049 01/M00 Q1020 R16/29//95=
201812301000 METAR LRSV 301000Z VRB01KT 8000 BKN049 01/00 Q1020 R16/29//95=
201812301030 METAR LRSV 301030Z 00000KT CAVOK 02/00 Q1019 R16/29//95=
201812301100 METAR LRSV 301100Z 20003KT CAVOK 02/M00 Q1019 R16/29//95=
201812301130 METAR LRSV 301130Z VRB01KT CAVOK 02/M00 Q1019 R16/29//95=
201812301200 METAR LRSV 301200Z 00000KT 9999 BKN040 02/M00 Q1019 R16/29//95=
201812301230 METAR LRSV 301230Z 00000KT 8000 -RA BKN045 02/00 Q1019 R16/29//95=
201812301300 METAR LRSV 301300Z 16003KT 5000 BR BKN048 02/01 Q1019 R16/29//95=
201812301330 METAR LRSV 301330Z 16003KT 5000 BR BKN048 01/01 Q1019 R16/29//95=
201812301400 METAR LRSV 301400Z 17003KT 5000 BR NSC 01/01 Q1019 R16/29//95=
201812301430 METAR LRSV 301430Z 17004KT 4000 BR NSC 01/00 Q1019 R16/29//95=
201812301500 METAR LRSV 301500Z 14004KT 5000 BR NSC 01/00 Q1019 R16/29//95=
201812301530 METAR LRSV 301530Z 14003KT 5000 BR NSC 01/M00 Q1019 R16/29//95=
201812301600 METAR LRSV 301600Z 17002KT 5000 BR NSC 01/00 Q1019 R16/29//95=
201812301630 METAR LRSV 301630Z 17003KT 5000 BR NSC 01/M00 Q1019 R16/29//95=
201812301700 METAR LRSV 301700Z 19003KT 5000 BR NSC 01/00 Q1019 R16/29//95=
201812301730 METAR LRSV 301730Z 17002KT 5000 BR NSC 01/00 Q1019 R16/29//95=
201812301800 METAR LRSV 301800Z 16003KT 5000 BR NSC 00/M00 Q1019 R16/29//95=
201812301830 METAR LRSV 301830Z 19003KT 5000 BR NSC 00/M00 Q1019 R16/29//95=
201812301900 METAR LRSV 301900Z 18004KT CAVOK 01/M00 Q1019 R16/29//95=
201812301930 METAR COR LRSV 301930Z 17004KT CAVOK 00/M00 Q1019 R16/29//95=
201812302000 METAR LRSV 302000Z 16003KT 1500 BR NSC 00/M00 Q1019 R16/29//95=
201812302030 METAR LRSV 302030Z 18002KT 0600 R34/0700N FG VV001 00/M00
                        Q1019 R16/29//95=
201812302100 METAR LRSV 302100Z 18004KT 0450 R34/0500N FZFG VV001 M00/M00
                        Q1019 R16/29//95=
201812302130 METAR LRSV 302130Z 09003KT 050V150 0300 R34/0600D FZFG BKN001
                        M00/M00 Q1019 R16/29//95=
201812302200 METAR LRSV 302200Z 16003KT 130V220 0800 R34/2000D FZFG NSC
                        M00/M00 Q1019 R16/29//95=
201812302230 METAR LRSV 302230Z 19004KT 160V220 0900 R34/1000D FZFG NSC
                        M00/M00 Q1019 R16/29//95=
201812302300 METAR LRSV 302300Z 10004KT 080V140 0500 R34/0800U FZFG VV001
                        M00/M01 Q1019 R16/29//95=
201812302330 METAR LRSV 302330Z 11003KT 0300 R34/0350N FZFG VV001 M00/M01
                        Q1019 R16/29//95=
201812310000 METAR LRSV 310000Z 14004KT 0300 R34/0375N FZFG VV001 M01/M01
                        Q1019 R16/29//95=
201812310030 METAR LRSV 310030Z 18004KT 0200 R34/0375N FZFG VV001 M00/M01
                        Q1019 R16/29//95=
201812310100 METAR LRSV 310100Z 17004KT 0100 R34/0375N FZFG VV001 M01/M01
                        Q1019 R16/29//95=
201812310130 METAR LRSV 310130Z 20004KT 0100 R34/0400N FZFG VV001 M01/M01
                        Q1019 R16/29//95=
201812310200 METAR LRSV 310200Z 23004KT 0300 R34/0900U FZFG VV001 M00/M01
                        Q1019 R16/29//95=
201812310230 METAR LRSV 310230Z 23006KT 1500 BR NSC M00/M01 Q1019 R16/29//95=
201812310300 METAR LRSV 310300Z 24005KT 1500 BR NSC M00/M01 Q1018 R16/29//95=
201812310330 METAR LRSV 310330Z 23007KT 1500 BR NSC M00/M01 Q1019 R16/29//95=
201812310400 METAR LRSV 310400Z 31005KT 250V350 2000 BR NSC M00/M01 Q1019
                        R16/29//95=
201812310430 METAR LRSV 310430Z 28001KT 2000 BR NSC M01/M01 Q1019 R16/29//95=
201812310500 METAR LRSV 310500Z 00000KT 4000 BR NSC M00/M01 Q1019 R16/29//95=
201812310530 METAR LRSV 310530Z 00000KT 4000 BR NSC M00/M01 Q1020 R16/29//95=
201812310600 METAR LRSV 310600Z 21003KT 180V250 3000 BR NSC M01/M01 Q1020
                        R16/29//95=
201812310630 METAR LRSV 310630Z 24003KT 210V270 3000 0300S R34/0500N PRFG
                        NSC M01/M01 Q1020 R16/29//95=
201812310700 METAR LRSV 310700Z 26004KT 5000 1000S R34/1500U BR NSC M00/M01
                        Q1020 R16/29//95=
201812310730 METAR LRSV 310730Z 27006KT 8000 3000S BR NSC M00/M00 Q1020
                        R16/29//95=
201812310800 METAR LRSV 310800Z 29006KT 7000 FEW038 00/00 Q1020 R16/29//95=
201812310830 METAR LRSV 310830Z 29004KT 8000 SCT039 01/01 Q1020 R16/29//95=
201812310900 METAR LRSV 310900Z 23003KT 8000 3000S BR BKN042 01/01 Q1020
                        R16/29//95=
201812310930 METAR LRSV 310930Z 24004KT 8000 2000S BR SCT045 02/01 Q1020
                        R16/29//95=
201812311000 METAR LRSV 311000Z 26003KT 8000 FEW045 03/01 Q1020 R16/29//95=
201812311030 METAR LRSV 311030Z 28004KT 9999 FEW040 03/00 Q1020 R16/29//95=
201812311100 METAR LRSV 311100Z 27005KT 9999 FEW040 03/00 Q1020 R16/29//95=
201812311130 METAR LRSV 311130Z 28005KT 9999 SCT023 03/00 Q1020 R16/29//95=
201812311200 METAR LRSV 311200Z 04003KT 7000 FEW018 BKN026 03/01 Q1020
                        R16/29//95=
201812311230 METAR LRSV 311230Z 04004KT 7000 -DZ SCT019 BKN025 02/01 Q1020
                        R16/29//95=
201812311300 METAR LRSV 311300Z 02005KT 9999 -RA FEW013 BKN025 02/01 Q1021
                        R16/29//95=
201812311330 METAR LRSV 311330Z 01004KT 9999 -RA SCT010 BKN041 02/01 Q1021
                        R16/29//95=
201812311400 METAR LRSV 311400Z 02003KT 9999 FEW010 BKN040 02/01 Q1021
                        R16/29//95=
201812311430 METAR LRSV 311430Z 02003KT 9999 -RA BKN030 02/01 Q1021 R16/29//95=
201812311500 METAR LRSV 311500Z 03002KT 8000 -RA FEW019 BKN030 02/01 Q1022
                        R16/29//95=
201812311530 METAR LRSV 311530Z 36002KT 9999 -RA FEW019 BKN032 02/01 Q1022
                        R16/29//95=
201812311600 METAR LRSV 311600Z 00000KT 9999 -RA BKN032 01/01 Q1022 R16/29//95=
201812311630 METAR LRSV 311630Z 31002KT 9999 -RA FEW013 BKN035 01/01 Q1023
                        R16/29//95=
201812311700 METAR LRSV 311700Z 32004KT 9999 -RA FEW025 BKN045 01/00 Q1023
                        R16/29//95=
201812311730 METAR LRSV 311730Z 32005KT 9999 -RA FEW022 BKN042 01/00 Q1023
                        R16/29//95=
201812311800 METAR LRSV 311800Z 31005KT 9999 -RA BKN026 01/00 Q1024 R16/29//95=
201812311830 METAR LRSV 311830Z 30005KT 9999 BKN034 01/01 Q1024 R16/29//95=
201812311900 METAR COR LRSV 311900Z 30005KT 9999 BKN034 01/01 Q1024 R16/29//95=
201812311930 METAR LRSV 311930Z 32006KT 9999 FEW011 BKN049 01/00 Q1024
                        R16/29//95=
201812312000 METAR LRSV 312000Z 33008KT 9999 BKN046 01/M00 Q1025 R16/29//95=
201812312030 METAR LRSV 312030Z 32009KT 9999 BKN047 01/M01 Q1025 R16/29//95=
201812312100 METAR LRSV 312100Z 31008KT CAVOK 01/M01 Q1025 R16/29//95=
201812312130 METAR LRSV 312130Z 33009KT 9999 FEW015 BKN045 01/M01 Q1025
                        R16/29//95=
201812312200 METAR LRSV 312200Z 32006KT 9999 FEW017 BKN045 01/M01 Q1025
                        R16/29//95=
201812312230 METAR LRSV 312230Z 32008KT 9999 FEW016 BKN3700 01/M01 Q1025
                        R16/29//95=
201812312300 METAR LRSV 312300Z 32009KT 9999 SCT037 01/M01 Q1025 R16/29//95=
201812312330 METAR LRSV 312330Z 33008KT 9999 FEW014 BKN037 01/M01 Q1025
                        R16/29//95=