201807010000 METAR LROP 010000Z 08006KT 010V110 9999 -TSRA BKN010 SCT027CB
                        OVC040 17/16 Q1008 R88/29//95 NOSIG=
201807010030 METAR LROP 010030Z 09007KT 9999 SCT010 SCT030CB BKN038 16/15
                        Q1008 RETSRA R88/29//95 NOSIG=
201807010100 METAR LROP 010100Z 11005KT 9999 BKN008 FEW030CB BKN040 16/15
                        Q1008 R88/29//95 NOSIG=
201807010130 METAR LROP 010130Z 12005KT 9999 SCT009 FEW035CB BKN038 16/15
                        Q1008 R88/29//95 NOSIG=
201807010200 METAR LROP 010200Z 13005KT 9999 FEW010 BKN038 16/15 Q1009
                        R88/29//95 NOSIG=
201807010230 METAR LROP 010230Z 13004KT 9999 BKN040 15/14 Q1009 R88/29//95
                        NOSIG=
201807010300 METAR LROP 010300Z 13005KT 9999 BKN038 15/14 Q1009 R88/29//95
                        NOSIG=
201807010330 METAR LROP 010330Z 14004KT 9999 SCT022 BKN038 15/14 Q1010
                        R88/29//95 NOSIG=
201807010400 METAR COR LROP 010400Z 14004KT 9999 SCT022 BKN038 15/15 Q1010
                        R88/19//95 NOSIG=
201807010430 METAR LROP 010430Z 16005KT 9999 SCT023 FEW025CB BKN039 16/15
                        Q1011 R88/19//95 NOSIG=
201807010500 METAR LROP 010500Z 14005KT 9999 FEW021CB OVC023 16/15 Q1011
                        R88/19//95 NOSIG=
201807010530 METAR LROP 010530Z 13006KT 100V160 9999 FEW021CB BKN023 BKN044
                        17/16 Q1011 R88/19//95 NOSIG=
201807010600 METAR LROP 010600Z 15006KT 120V180 9999 FEW021CB OVC023 17/15
                        Q1012 R88/19//95 NOSIG=
201807010630 METAR LROP 010630Z 13006KT 9999 FEW022CB BKN024 19/15 Q1012
                        R88/CLRD// NOSIG=
201807010700 METAR LROP 010700Z 16006KT 9999 BKN019 FEW020CB OVC033 18/15
                        Q1012 NOSIG=
201807010730 METAR LROP 010730Z 15005KT 100V180 9999 FEW018CB OVC020 18/15
                        Q1012 NOSIG=
201807010800 METAR LROP 010800Z 11006KT 9999 OVC022 18/15 Q1013 NOSIG=
201807010830 METAR LROP 010830Z 12007KT 9999 OVC023 20/16 Q1013 NOSIG=
201807010900 METAR LROP 010900Z 13008KT 9999 SCT019 BKN023 20/15 Q1013
                        NOSIG=
201807010930 METAR LROP 010930Z 13007KT 100V160 9999 SCT020 BKN025 20/15
                        Q1013 NOSIG=
201807011000 METAR LROP 011000Z 14007KT 100V160 9999 SCT022 BKN028 21/15
                        Q1013 NOSIG=
201807011030 METAR LROP 011030Z 11008KT 9999 BKN027 BKN045 21/15 Q1013
                        NOSIG=
201807011100 METAR LROP 011100Z 10008KT 070V130 9999 FEW028 SCT037 22/15
                        Q1013 NOSIG=
201807011130 METAR LROP 011130Z 11005KT 050V170 9999 FEW031 SCT040 22/15
                        Q1013 NOSIG=
201807011200 METAR LROP 011200Z VRB03KT 9999 FEW035 SCT040 23/14 Q1012
                        NOSIG=
201807011230 METAR LROP 011230Z 15004KT 100V200 9999 SCT037 23/13 Q1013
                        NOSIG=
201807011300 METAR LROP 011300Z 16003KT 100V210 9999 SCT046 23/14 Q1012
                        NOSIG=
201807011330 METAR LROP 011330Z VRB02KT 9999 BKN041 23/14 Q1012 NOSIG=
201807011400 METAR LROP 011400Z VRB02KT 9999 BKN042 23/15 Q1013 NOSIG=
201807011430 METAR LROP 011430Z 35003KT 280V050 9999 SCT045 24/14 Q1012
                        NOSIG=
201807011500 METAR COR LROP 011500Z VRB02KT 9999 SCT046 24/14 Q1012 NOSIG=
201807011530 METAR COR LROP 011530Z 26007KT 210V280 9999 FEW049 24/15
                        Q1013 NOSIG=
201807011600 METAR LROP 011600Z 26007KT 220V280 9999 FEW049 24/15 Q1012
                        NOSIG=
201807011630 METAR LROP 011630Z 22004KT CAVOK 24/14 Q1013 NOSIG=
201807011700 METAR LROP 011700Z 25003KT 220V290 CAVOK 23/13 Q1013 NOSIG=
201807011730 METAR LROP 011730Z 19001KT CAVOK 21/13 Q1013 NOSIG=
201807011800 METAR LROP 011800Z 15003KT CAVOK 20/13 Q1013 NOSIG=
201807011830 METAR LROP 011830Z VRB02KT CAVOK 19/13 Q1013 NOSIG=
201807011900 METAR LROP 011900Z 12006KT CAVOK 19/14 Q1014 NOSIG=
201807011930 METAR LROP 011930Z 12003KT 080V170 CAVOK 19/15 Q1014 NOSIG=
201807012000 METAR LROP 012000Z 05005KT 010V070 CAVOK 19/15 Q1014 NOSIG=
201807012030 METAR LROP 012030Z 06006KT CAVOK 18/15 Q1014 NOSIG=
201807012100 METAR LROP 012100Z 05005KT 020V080 CAVOK 17/15 Q1014 NOSIG=
201807012130 METAR LROP 012130Z 05005KT CAVOK 17/15 Q1014 NOSIG=
201807012200 METAR LROP 012200Z 05004KT CAVOK 16/15 Q1014 NOSIG=
201807012230 METAR LROP 012230Z 04006KT CAVOK 17/14 Q1014 NOSIG=
201807012300 METAR LROP 012300Z 05006KT CAVOK 16/14 Q1014 NOSIG=
201807012330 METAR LROP 012330Z 05005KT CAVOK 15/14 Q1015 NOSIG=
201807020000 METAR LROP 020000Z 06004KT CAVOK 15/14 Q1014 NOSIG=
201807020030 METAR LROP 020030Z 08005KT 050V110 CAVOK 15/14 Q1014 NOSIG=
201807020100 METAR LROP 020100Z 09003KT CAVOK 14/13 Q1015 NOSIG=
201807020130 METAR LROP 020130Z 07003KT CAVOK 14/13 Q1015 NOSIG=
201807020200 METAR LROP 020200Z 05003KT CAVOK 14/13 Q1015 NOSIG=
201807020230 METAR LROP 020230Z 08004KT CAVOK 14/13 Q1015 NOSIG=
201807020300 METAR LROP 020300Z 02005KT CAVOK 14/13 Q1015 NOSIG=
201807020330 METAR LROP 020330Z VRB01KT CAVOK 14/13 Q1015 NOSIG=
201807020400 METAR COR LROP 020400Z VRB02KT CAVOK 15/14 Q1016 NOSIG=
201807020430 METAR LROP 020430Z 05004KT 010V090 CAVOK 17/15 Q1016 NOSIG=
201807020500 METAR LROP 020500Z 04004KT 360V070 CAVOK 17/16 Q1016 NOSIG=
201807020530 METAR LROP 020530Z VRB03KT CAVOK 18/15 Q1016 NOSIG=
201807020600 METAR LROP 020600Z 08004KT 020V130 CAVOK 20/15 Q1016 NOSIG=
201807020630 METAR LROP 020630Z VRB03KT CAVOK 19/15 Q1016 NOSIG=
201807020700 METAR LROP 020700Z 19003KT 120V240 CAVOK 20/15 Q1016 NOSIG=
201807020730 METAR LROP 020730Z VRB03KT 9999 FEW028 21/14 Q1016 NOSIG=
201807020800 METAR LROP 020800Z 12003KT 040V170 9999 FEW028 22/15 Q1016
                        NOSIG=
201807020830 METAR LROP 020830Z 22003KT 150V260 9999 SCT029 23/15 Q1016
                        NOSIG=
201807020900 METAR LROP 020900Z 21005KT 090V250 9999 BKN031 23/15 Q1016
                        NOSIG=
201807020930 METAR LROP 020930Z 23008KT 200V260 9999 FEW035 SCT044 23/15
                        Q1016 NOSIG=
201807021000 METAR LROP 021000Z 26006KT 230V300 9999 SCT038 24/14 Q1016
                        NOSIG=
201807021030 METAR LROP 021030Z 24009KT 9999 FEW042 24/12 Q1016 NOSIG=
201807021100 METAR LROP 021100Z 23009KT 9999 FEW048 25/11 Q1016 NOSIG=
201807021130 METAR LROP 021130Z 25010KT CAVOK 25/11 Q1016 NOSIG=
201807021200 METAR LROP 021200Z 26012KT CAVOK 25/09 Q1016 NOSIG=
201807021230 METAR LROP 021230Z 24009KT 210V270 CAVOK 25/10 Q1016 NOSIG=
201807021300 METAR LROP 021300Z 25009KT 220V280 CAVOK 26/11 Q1015 NOSIG=
201807021330 METAR LROP 021330Z 23008KT CAVOK 26/12 Q1015 NOSIG=
201807021400 METAR LROP 021400Z 26009KT 220V290 CAVOK 26/10 Q1015 NOSIG=
201807021430 METAR LROP 021430Z 26010KT CAVOK 26/11 Q1015 NOSIG=
201807021500 METAR LROP 021500Z 29011KT CAVOK 26/10 Q1015 NOSIG=
201807021530 METAR LROP 021530Z 28010KT CAVOK 26/10 Q1015 NOSIG=
201807021600 METAR LROP 021600Z 29009KT CAVOK 25/11 Q1015 NOSIG=
201807021630 METAR LROP 021630Z 27008KT 250V310 CAVOK 25/09 Q1015 NOSIG=
201807021700 METAR LROP 021700Z 26007KT CAVOK 24/09 Q1015 NOSIG=
201807021730 METAR LROP 021730Z 29005KT CAVOK 23/10 Q1015 NOSIG=
201807021800 METAR LROP 021800Z 25005KT CAVOK 21/10 Q1015 NOSIG=
201807021830 METAR LROP 021830Z 23002KT CAVOK 20/10 Q1015 NOSIG=
201807021900 METAR LROP 021900Z 22003KT CAVOK 19/11 Q1016 NOSIG=
201807021930 METAR LROP 021930Z 22003KT CAVOK 19/10 Q1016 NOSIG=
201807022000 METAR LROP 022000Z 23003KT CAVOK 17/12 Q1016 NOSIG=
201807022030 METAR COR LROP 022030Z 26002KT CAVOK 16/13 Q1016 NOSIG=
201807022100 METAR LROP 022100Z VRB01KT CAVOK 16/14 Q1015 NOSIG=
201807022130 METAR LROP 022130Z 14001KT CAVOK 16/13 Q1015 NOSIG=
201807022200 METAR LROP 022200Z VRB01KT CAVOK 15/13 Q1015 NOSIG=
201807022230 METAR LROP 022230Z 32003KT 280V050 CAVOK 15/13 Q1016 NOSIG=
201807022300 METAR LROP 022300Z 36003KT 330V030 CAVOK 15/13 Q1015 NOSIG=
201807022330 METAR LROP 022330Z VRB02KT CAVOK 14/13 Q1015 NOSIG=
201807030000 METAR LROP 030000Z 02003KT CAVOK 15/14 Q1015 NOSIG=
201807030030 METAR LROP 030030Z 03003KT CAVOK 14/13 Q1015 NOSIG=
201807030100 METAR LROP 030100Z VRB01KT CAVOK 14/13 Q1015 NOSIG=
201807030130 METAR LROP 030130Z 32002KT CAVOK 14/13 Q1015 NOSIG=
201807030200 METAR LROP 030200Z 36004KT CAVOK 14/13 Q1015 NOSIG=
201807030230 METAR LROP 030230Z 33004KT 290V350 CAVOK 14/13 Q1016 NOSIG=
201807030300 METAR LROP 030300Z 35004KT 310V040 CAVOK 15/14 Q1016 NOSIG=
201807030330 METAR COR LROP 030330Z 36004KT CAVOK 16/14 Q1016 NOSIG=
201807030400 METAR COR LROP 030400Z 06002KT CAVOK 16/14 Q1016 NOSIG=
201807030430 METAR LROP 030430Z 03003KT CAVOK 17/14 Q1016 NOSIG=
201807030500 METAR LROP 030500Z 08003KT 050V130 CAVOK 18/14 Q1016 NOSIG=
201807030530 METAR LROP 030530Z 02005KT 360V060 CAVOK 18/15 Q1016 NOSIG=
201807030600 METAR LROP 030600Z 06005KT CAVOK 19/15 Q1016 NOSIG=
201807030630 METAR LROP 030630Z 05006KT CAVOK 20/14 Q1016 NOSIG=
201807030700 METAR LROP 030700Z 06006KT 030V100 CAVOK 22/14 Q1016 NOSIG=
201807030730 METAR LROP 030730Z 11006KT CAVOK 23/13 Q1016 NOSIG=
201807030800 METAR LROP 030800Z VRB04KT CAVOK 24/13 Q1016 NOSIG=
201807030830 METAR LROP 030830Z 13003KT 090V210 CAVOK 24/12 Q1016 NOSIG=
201807030900 METAR LROP 030900Z 08004KT 030V120 CAVOK 25/11 Q1016 NOSIG=
201807030930 METAR LROP 030930Z 08004KT 010V110 CAVOK 25/12 Q1016 NOSIG=
201807031000 METAR LROP 031000Z VRB04KT CAVOK 26/13 Q1016 NOSIG=
201807031030 METAR LROP 031030Z 22006KT 140V270 CAVOK 26/13 Q1015 NOSIG=
201807031100 METAR LROP 031100Z 17005KT 110V220 CAVOK 27/13 Q1015 NOSIG=
201807031130 METAR LROP 031130Z 29006KT 240V320 CAVOK 27/15 Q1015 NOSIG=
201807031200 METAR COR LROP 031200Z 28005KT 220V020 CAVOK 28/14 Q1015
                        NOSIG=
201807031230 METAR LROP 031230Z 19005KT 150V290 CAVOK 28/14 Q1015 NOSIG=
201807031300 METAR LROP 031300Z 18005KT 140V230 CAVOK 28/15 Q1015 NOSIG=
201807031330 METAR LROP 031330Z 29006KT 240V330 CAVOK 28/16 Q1015 NOSIG=
201807031400 METAR LROP 031400Z VRB04KT CAVOK 29/17 Q1014 NOSIG=
201807031430 METAR LROP 031430Z VRB03KT CAVOK 29/16 Q1014 NOSIG=
201807031500 METAR LROP 031500Z 32005KT 290V350 CAVOK 28/15 Q1014 NOSIG=
201807031530 METAR LROP 031530Z VRB04KT CAVOK 28/15 Q1014 NOSIG=
201807031600 METAR LROP 031600Z 35004KT 280V050 CAVOK 28/16 Q1015 NOSIG=
201807031630 METAR LROP 031630Z VRB02KT CAVOK 28/16 Q1015 NOSIG=
201807031700 METAR LROP 031700Z 04003KT 010V100 CAVOK 27/15 Q1015 NOSIG=
201807031730 METAR LROP 031730Z 08004KT CAVOK 25/16 Q1015 NOSIG=
201807031800 METAR LROP 031800Z 09005KT CAVOK 25/17 Q1015 NOSIG=
201807031830 METAR LROP 031830Z 11005KT CAVOK 24/16 Q1015 NOSIG=
201807031900 METAR LROP 031900Z 10005KT CAVOK 23/16 Q1015 NOSIG=
201807031930 METAR LROP 031930Z 09004KT CAVOK 23/17 Q1015 NOSIG=
201807032000 METAR LROP 032000Z 10004KT CAVOK 21/18 Q1015 NOSIG=
201807032030 METAR LROP 032030Z 10003KT CAVOK 20/18 Q1016 NOSIG=
201807032100 METAR LROP 032100Z 10004KT CAVOK 20/18 Q1016 NOSIG=
201807032130 METAR LROP 032130Z 08005KT CAVOK 20/17 Q1016 NOSIG=
201807032200 METAR LROP 032200Z 02006KT CAVOK 21/17 Q1016 NOSIG=
201807032230 METAR LROP 032230Z 03007KT CAVOK 21/16 Q1016 NOSIG=
201807032300 METAR LROP 032300Z 02006KT CAVOK 20/17 Q1016 NOSIG=
201807032330 METAR LROP 032330Z 03007KT CAVOK 20/16 Q1016 NOSIG=
201807040000 METAR LROP 040000Z 03008KT CAVOK 20/16 Q1016 NOSIG=
201807040030 METAR LROP 040030Z 03007KT CAVOK 20/16 Q1016 NOSIG=
201807040100 METAR COR LROP 040100Z 04007KT CAVOK 20/15 Q1016 NOSIG=
201807040130 METAR COR LROP 040130Z 02006KT CAVOK 19/14 Q1016 NOSIG=
201807040200 METAR LROP 040200Z 04008KT CAVOK 19/14 Q1015 NOSIG=
201807040230 METAR LROP 040230Z 05006KT CAVOK 18/14 Q1015 NOSIG=
201807040300 METAR LROP 040300Z 05006KT 9999 SCT045 18/14 Q1015 NOSIG=
201807040330 METAR LROP 040330Z 05007KT 9999 FEW046 19/14 Q1015 NOSIG=
201807040400 METAR LROP 040400Z 05009KT CAVOK 19/13 Q1015 NOSIG=
201807040430 METAR LROP 040430Z 06009KT CAVOK 20/14 Q1015 NOSIG=
201807040500 METAR LROP 040500Z 05008KT 9999 SCT042 20/14 Q1016 NOSIG=
201807040530 METAR LROP 040530Z 05010KT CAVOK 21/14 Q1015 NOSIG=
201807040600 METAR LROP 040600Z 06010KT CAVOK 22/16 Q1015 NOSIG=
201807040630 METAR LROP 040630Z 08007KT 050V110 CAVOK 23/17 Q1015 NOSIG=
201807040700 METAR LROP 040700Z 08007KT 040V120 CAVOK 24/18 Q1015 NOSIG=
201807040730 METAR LROP 040730Z 08007KT 050V120 CAVOK 25/19 Q1015 NOSIG=
201807040800 METAR LROP 040800Z 08006KT 040V130 CAVOK 25/19 Q1015 NOSIG=
201807040830 METAR COR LROP 040830Z 11005KT CAVOK 25/19 Q1014 NOSIG=
201807040900 METAR LROP 040900Z 13003KT 080V180 CAVOK 27/20 Q1014 NOSIG=
201807040930 METAR LROP 040930Z 04004KT 010V080 CAVOK 27/20 Q1014 NOSIG=
201807041000 METAR LROP 041000Z VRB03KT 9999 BKN035 28/20 Q1014 NOSIG=
201807041030 METAR LROP 041030Z VRB02KT 9999 SCT038 28/20 Q1013 NOSIG=
201807041100 METAR LROP 041100Z 23006KT 9999 FEW040 SCT046 29/20 Q1013
                        NOSIG=
201807041130 METAR LROP 041130Z 21005KT 180V240 9999 SCT043 29/20 Q1013
                        NOSIG=
201807041200 METAR LROP 041200Z 24005KT 190V280 9999 SCT045 30/21 Q1013
                        NOSIG=
201807041230 METAR LROP 041230Z 23006KT 170V250 9999 SCT046 30/21 Q1012
                        NOSIG=
201807041300 METAR LROP 041300Z 25006KT 230V290 CAVOK 30/21 Q1012 NOSIG=
201807041330 METAR LROP 041330Z 24006KT CAVOK 30/20 Q1012 NOSIG=
201807041400 METAR LROP 041400Z 29007KT 250V330 CAVOK 30/18 Q1012 NOSIG=
201807041430 METAR LROP 041430Z 33007KT CAVOK 30/19 Q1012 NOSIG=
201807041500 METAR LROP 041500Z 31006KT CAVOK 30/19 Q1012 NOSIG=
201807041530 METAR LROP 041530Z 32005KT CAVOK 30/18 Q1012 NOSIG=
201807041600 METAR LROP 041600Z 33005KT CAVOK 29/18 Q1011 NOSIG=
201807041630 METAR LROP 041630Z 32004KT CAVOK 29/18 Q1012 NOSIG=
201807041700 METAR LROP 041700Z 32004KT CAVOK 29/18 Q1012 NOSIG=
201807041730 METAR LROP 041730Z 36005KT CAVOK 27/17 Q1012 NOSIG=
201807041800 METAR LROP 041800Z 36005KT 340V040 CAVOK 26/17 Q1012 NOSIG=
201807041830 METAR LROP 041830Z 36006KT CAVOK 25/17 Q1012 NOSIG=
201807041900 METAR LROP 041900Z 36008KT CAVOK 25/17 Q1012 NOSIG=
201807041930 METAR LROP 041930Z 35007KT 250V010 CAVOK 24/17 Q1012 NOSIG=
201807042000 METAR LROP 042000Z 35007KT CAVOK 24/16 Q1012 NOSIG=
201807042030 METAR LROP 042030Z 02009KT CAVOK 23/17 Q1012 NOSIG=
201807042100 METAR COR LROP 042100Z 02008KT CAVOK 23/17 Q1013 NOSIG=
201807042130 METAR LROP 042130Z 02007KT CAVOK 23/17 Q1013 NOSIG=
201807042200 METAR LROP 042200Z 05006KT CAVOK 22/17 Q1013 NOSIG=
201807042230 METAR LROP 042230Z 03008KT CAVOK 22/16 Q1013 NOSIG=
201807042300 METAR LROP 042300Z 02008KT CAVOK 22/17 Q1013 NOSIG=
201807042330 METAR LROP 042330Z 02008KT CAVOK 22/18 Q1012 NOSIG=
201807050000 METAR LROP 050000Z 03008KT CAVOK 22/19 Q1012 NOSIG=
201807050030 METAR LROP 050030Z 03007KT CAVOK 22/18 Q1012 NOSIG=
201807050100 METAR LROP 050100Z 03007KT CAVOK 22/18 Q1012 NOSIG=
201807050130 METAR LROP 050130Z 03009KT CAVOK 22/18 Q1012 NOSIG=
201807050200 METAR LROP 050200Z 04009KT CAVOK 21/16 Q1012 NOSIG=
201807050230 METAR LROP 050230Z 04008KT CAVOK 21/16 Q1012 NOSIG=
201807050300 METAR LROP 050300Z 05007KT 9999 VCTS FEW060CB 21/17 Q1012
                        TEMPO 5000 -TSRA=
201807050330 METAR COR LROP 050330Z 05007KT 9999 -TSRA SCT050CB 21/16
                        Q1012 R88/29//95 TEMPO 5000 -TSRA=
201807050400 METAR LROP 050400Z 25014KT 2000 +TSRA BR BKN037CB BKN047
                        18/17 Q1014 R88/29//95 NOSIG=
201807050430 METAR LROP 050430Z 35006KT 330V030 5000 SHRA VCTS BKN040CB
                        BKN046 17/16 Q1014 R88/29//95 TEMPO
                        3000 TSRA=
201807050500 METAR COR LROP 050500Z 34007KT 9999 SHRA BKN044CB 17/16 Q1014
                        R88/29//95 TEMPO 5000 -TSRA=
201807050530 METAR LROP 050530Z 02005KT 9999 SCT049CB 18/16 Q1013 R88/29//95
                        TEMPO 5000 -TSRA=
201807050600 METAR LROP 050600Z 01004KT 9999 VCTS SCT050CB 18/16 Q1013
                        R88/29//95 TEMPO 5000 -TSRA=
201807050630 METAR LROP 050630Z 04004KT 350V100 9999 -SHRA SCT047CB 18/17
                        Q1014 R88/29//95 TEMPO 5000 -TSRA=
201807050700 METAR LROP 050700Z 31004KT 270V350 9999 -SHRA SCT047CB 18/17
                        Q1014 R88/29//95 TEMPO 5000 -TSRA=
201807050730 METAR LROP 050730Z 33004KT 300V360 9999 SCT048CB 18/17 Q1014
                        R88/29//95 TEMPO 5000 -TSRA=
201807050800 METAR LROP 050800Z 35008KT 9999 -SHRA FEW035 SCT050CB 18/17
                        Q1014 R88/29//95 TEMPO 5000 -TSRA=
201807050830 METAR LROP 050830Z 36004KT 310V040 3500 SHRA FEW033 BKN050CB
                        17/16 Q1014 R88/29//95=
201807050900 METAR LROP 050900Z 35006KT 300V010 9000 BKN031 FEW050CB 18/17
                        Q1014 R88/29//95 TEMPO 5000 -TSRA=
201807050930 METAR LROP 050930Z 02005KT 350V050 9999 FEW015 FEW050CB 20/18
                        Q1014 R88/29//95 TEMPO 5000 -SHRA=
201807051000 METAR LROP 051000Z 03006KT 9999 FEW016 21/18 Q1014 R88/29//95
                        BECMG NSC=
201807051030 METAR LROP 051030Z 04005KT 360V070 9999 FEW015 22/19 Q1014
                        R88/29//95 NOSIG=
201807051100 METAR LROP 051100Z 05004KT 340V080 9999 BKN016 23/19 Q1014
                        R88/29//95 NOSIG=
201807051130 METAR COR LROP 051130Z 02005KT 9999 BKN018 23/19 Q1013 R88/29//95
                        NOSIG=
201807051200 METAR LROP 051200Z 01007KT 9999 BKN019 23/19 Q1013 R88/29//95
                        NOSIG=
201807051230 METAR LROP 051230Z 01005KT 350V050 9999 FEW020CB FEW022 23/19
                        Q1013 R88/29//95 NOSIG=
201807051300 METAR LROP 051300Z 09003KT 060V140 9999 FEW022CB FEW024 23/19
                        Q1013 R88/29//95 NOSIG=
201807051330 METAR COR LROP 051330Z VRB02KT 9999 -SHRA FEW022CB FEW023
                        24/20 Q1013 R88/29//95 NOSIG=
201807051400 METAR LROP 051400Z 10003KT 050V140 9999 FEW023 24/19 Q1013
                        R88/29//95 NOSIG=
201807051430 METAR LROP 051430Z VRB02KT CAVOK 24/19 Q1013 R88/29//95 NOSIG=
201807051500 METAR COR LROP 051500Z 32004KT 290V360 9999 FEW023 24/19
                        Q1013 R88/29//95 NOSIG=
201807051530 METAR LROP 051530Z 32003KT 280V360 9999 FEW024 24/19 Q1012
                        R88/29//95 NOSIG=
201807051600 METAR LROP 051600Z 31004KT 280V350 CAVOK 24/19 Q1012 R88/29//95
                        NOSIG=
201807051630 METAR LROP 051630Z 31003KT 280V340 CAVOK 24/20 Q1012 R88/29//95
                        NOSIG=
201807051700 METAR LROP 051700Z 29004KT 250V320 CAVOK 24/19 Q1012 R88/29//95
                        NOSIG=
201807051730 METAR LROP 051730Z 30003KT CAVOK 23/20 Q1012 R88/29//95 NOSIG=
201807051800 METAR LROP 051800Z 28003KT 250V320 CAVOK 22/19 Q1012 R88/29//95
                        NOSIG=
201807051830 METAR LROP 051830Z 30004KT CAVOK 21/19 Q1012 R88/29//95 NOSIG=
201807051900 METAR LROP 051900Z 29003KT CAVOK 21/19 Q1012 R88/29//95 NOSIG=
201807051930 METAR LROP 051930Z 29005KT 260V320 CAVOK 20/19 Q1012 R88/29//95
                        NOSIG=
201807052000 METAR COR LROP 052000Z 28004KT CAVOK 20/19 Q1012 R88/CLRD//
                        NOSIG=
201807052030 METAR LROP 052030Z 29004KT CAVOK 20/19 Q1012 R88/CLRD// NOSIG=
201807052100 METAR LROP 052100Z 27004KT 250V320 CAVOK 19/18 Q1012 NOSIG=
201807052130 METAR LROP 052130Z 25002KT CAVOK 19/18 Q1012 NOSIG=
201807052200 METAR LROP 052200Z 27005KT 8000 NSC 18/18 Q1012 NOSIG=
201807052230 METAR LROP 052230Z 29005KT CAVOK 18/17 Q1012 NOSIG=
201807052300 METAR LROP 052300Z 27005KT CAVOK 18/17 Q1012 NOSIG=
201807052330 METAR LROP 052330Z 28004KT CAVOK 17/16 Q1012 NOSIG=
201807060000 METAR LROP 060000Z 26005KT 8000 MIFG NSC 17/16 Q1012 NOSIG=
201807060030 METAR LROP 060030Z 27004KT 7000 MIFG NSC 17/16 Q1012 NOSIG=
201807060100 METAR LROP 060100Z 25004KT 8000 MIFG NSC 17/16 Q1012 NOSIG=
201807060130 METAR LROP 060130Z 29005KT 6000 MIFG NSC 16/15 Q1012 TEMPO
                        5000 BR=
201807060200 METAR LROP 060200Z 28004KT 8000 MIFG NSC 16/15 Q1012 TEMPO
                        5000 BR=
201807060230 METAR LROP 060230Z 25003KT 4000 BR NSC 16/15 Q1012 TEMPO
                        3000 BR=
201807060300 METAR LROP 060300Z 26003KT 8000 NSC 16/15 Q1012 NOSIG=
201807060330 METAR LROP 060330Z 26004KT 240V300 7000 NSC 16/16 Q1012 NOSIG=
201807060400 METAR LROP 060400Z 27005KT CAVOK 17/16 Q1012 NOSIG=
201807060430 METAR LROP 060430Z 26006KT CAVOK 19/18 Q1012 NOSIG=
201807060500 METAR LROP 060500Z 29005KT CAVOK 20/19 Q1012 NOSIG=
201807060530 METAR LROP 060530Z 28005KT CAVOK 21/18 Q1012 NOSIG=
201807060600 METAR LROP 060600Z 27005KT 230V300 CAVOK 23/19 Q1012 NOSIG=
201807060630 METAR LROP 060630Z 29006KT CAVOK 25/19 Q1012 NOSIG=
201807060700 METAR LROP 060700Z 28006KT 250V310 CAVOK 26/19 Q1012 NOSIG=
201807060730 METAR LROP 060730Z 27007KT CAVOK 26/19 Q1012 NOSIG=
201807060800 METAR LROP 060800Z 28007KT 240V300 CAVOK 27/18 Q1012 NOSIG=
201807060830 METAR LROP 060830Z 27006KT 240V300 CAVOK 27/18 Q1012 NOSIG=
201807060900 METAR LROP 060900Z 25005KT 220V290 CAVOK 28/18 Q1012 NOSIG=
201807060930 METAR LROP 060930Z 21004KT 160V240 CAVOK 28/18 Q1012 NOSIG=
201807061000 METAR LROP 061000Z 24004KT 200V300 CAVOK 29/15 Q1012 NOSIG=
201807061030 METAR COR LROP 061030Z 33003KT 230V040 CAVOK 28/16 Q1011
                        NOSIG=
201807061100 METAR LROP 061100Z VRB02KT CAVOK 29/17 Q1011 NOSIG=
201807061130 METAR LROP 061130Z 16004KT 120V210 CAVOK 30/18 Q1011 NOSIG=
201807061200 METAR LROP 061200Z 19005KT 160V230 CAVOK 30/16 Q1011 NOSIG=
201807061230 METAR LROP 061230Z 18004KT 150V240 CAVOK 30/17 Q1011 NOSIG=
201807061300 METAR LROP 061300Z 16005KT 120V190 CAVOK 30/17 Q1010 NOSIG=
201807061330 METAR LROP 061330Z 19004KT 150V230 CAVOK 30/17 Q1010 NOSIG=
201807061400 METAR LROP 061400Z VRB02KT CAVOK 30/16 Q1010 NOSIG=
201807061430 METAR LROP 061430Z 18004KT 140V250 CAVOK 30/15 Q1010 NOSIG=
201807061500 METAR LROP 061500Z 24005KT 180V280 CAVOK 30/16 Q1010 NOSIG=
201807061530 METAR LROP 061530Z 25005KT CAVOK 30/15 Q1010 NOSIG=
201807061600 METAR LROP 061600Z 30003KT CAVOK 30/17 Q1010 NOSIG=
201807061630 METAR LROP 061630Z 30003KT CAVOK 29/14 Q1010 NOSIG=
201807061700 METAR LROP 061700Z 30004KT CAVOK 28/15 Q1010 NOSIG=
201807061730 METAR LROP 061730Z 32002KT CAVOK 27/15 Q1010 NOSIG=
201807061800 METAR LROP 061800Z 35003KT CAVOK 25/14 Q1010 NOSIG=
201807061830 METAR LROP 061830Z 13002KT CAVOK 24/16 Q1010 NOSIG=
201807061900 METAR LROP 061900Z 20002KT CAVOK 23/17 Q1011 NOSIG=
201807061930 METAR LROP 061930Z 00000KT CAVOK 23/17 Q1011 NOSIG=
201807062000 METAR LROP 062000Z 21002KT CAVOK 22/17 Q1011 NOSIG=
201807062030 METAR LROP 062030Z 26004KT CAVOK 22/18 Q1011 NOSIG=
201807062100 METAR LROP 062100Z 30003KT 270V340 CAVOK 21/17 Q1011 NOSIG=
201807062130 METAR LROP 062130Z 36003KT 310V030 CAVOK 22/17 Q1011 NOSIG=
201807062200 METAR LROP 062200Z VRB02KT CAVOK 20/18 Q1011 NOSIG=
201807062230 METAR LROP 062230Z 34003KT 300V050 CAVOK 20/18 Q1011 NOSIG=
201807062300 METAR LROP 062300Z VRB02KT CAVOK 20/18 Q1011 NOSIG=
201807062330 METAR LROP 062330Z 01003KT CAVOK 20/17 Q1011 NOSIG=
201807070000 METAR LROP 070000Z VRB02KT CAVOK 19/17 Q1010 NOSIG=
201807070030 METAR LROP 070030Z VRB01KT CAVOK 19/17 Q1010 NOSIG=
201807070100 METAR LROP 070100Z 20001KT CAVOK 18/17 Q1010 NOSIG=
201807070130 METAR LROP 070130Z 00000KT CAVOK 18/17 Q1010 NOSIG=
201807070200 METAR LROP 070200Z 03002KT CAVOK 18/17 Q1010 NOSIG=
201807070230 METAR LROP 070230Z 02004KT CAVOK 18/17 Q1010 NOSIG=
201807070300 METAR LROP 070300Z 02004KT CAVOK 19/17 Q1011 NOSIG=
201807070330 METAR COR LROP 070330Z 29003KT 260V330 CAVOK 18/17 Q1011
                        NOSIG=
201807070400 METAR LROP 070400Z 03004KT CAVOK 20/18 Q1011 NOSIG=
201807070430 METAR LROP 070430Z 03004KT CAVOK 20/18 Q1011 NOSIG=
201807070500 METAR LROP 070500Z 05005KT CAVOK 21/19 Q1011 NOSIG=
201807070530 METAR LROP 070530Z 07008KT CAVOK 23/19 Q1011 NOSIG=
201807070600 METAR LROP 070600Z AUTO 08008KT 9999 FEW190/// 24/19 Q1011
                        NOSIG=
201807070630 METAR LROP 070630Z 09007KT CAVOK 25/19 Q1011 NOSIG=
201807070700 METAR LROP 070700Z 10007KT CAVOK 26/19 Q1011 NOSIG=
201807070730 METAR LROP 070730Z 08006KT CAVOK 26/19 Q1011 NOSIG=
201807070800 METAR LROP 070800Z 09006KT 050V120 CAVOK 27/19 Q1011 NOSIG=
201807070830 METAR LROP 070830Z 09006KT CAVOK 28/19 Q1011 NOSIG=
201807070900 METAR LROP 070900Z 12005KT 070V170 CAVOK 29/18 Q1011 NOSIG=
201807070930 METAR LROP 070930Z 09005KT 060V140 CAVOK 29/19 Q1011 NOSIG=
201807071000 METAR LROP 071000Z 10004KT 020V150 CAVOK 30/18 Q1010 NOSIG=
201807071030 METAR LROP 071030Z 08004KT 350V150 9999 FEW050TCU 30/18 Q1010
                        NOSIG=
201807071100 METAR LROP 071100Z 14004KT 110V190 9999 SCT040TCU SCT045
                        29/20 Q1010 NOSIG=
201807071130 METAR LROP 071130Z 14004KT 090V190 9999 VCTS SCT040CB 30/16
                        Q1009 NOSIG=
201807071200 METAR LROP 071200Z 17005G15KT 130V210 9999 TS BKN040CB 27/19
                        Q1010 TEMPO 5000 -TSRA=
201807071230 METAR LROP 071230Z 20011KT 170V230 7000 -TSRA BKN050CB 23/17
                        Q1011 WS ALL RWY TEMPO 5000 -TSRA=
201807071300 METAR LROP 071300Z 24007KT 180V270 3000 TSRA FEW019 BKN033
                        BKN035CB 19/18 Q1011 RESHRA WS ALL
                        RWY R26L/29//95 R26R/29//95 NOSIG=
201807071330 METAR LROP 071330Z 32011KT 8000 -TSRA BKN045CB 19/18 Q1012
                        RESHRA WS ALL RWY R26L/29//95 R26R/29//95
                        NOSIG=
201807071400 METAR LROP 071400Z 31012KT 7000 -TSRA BKN040CB 19/18 Q1012
                        WS ALL RWY R26L/29//95 R26R/29//95
                        NOSIG=
201807071430 METAR LROP 071430Z 31007KT 6000 -TSRA BKN040CB 19/18 Q1012
                        WS ALL RWY R26L/29//95 R26R/29//95
                        NOSIG=
201807071500 METAR LROP 071500Z 31006KT 6000 TSRA BKN040CB 19/18 Q1012
                        WS ALL RWY R26L/29//95 R26R/29//95
                        NOSIG=
201807071530 METAR COR LROP 071530Z 33006KT 9999 -SHRA SCT045CB 19/18
                        Q1011 RETSRA R26L/29//95 R26R/29//95
                        NOSIG=
201807071600 METAR LROP 071600Z 31007KT 9999 -SHRA FEW045CB 19/18 Q1010
                        R26L/29//95 R26R/29//95 NOSIG=
201807071630 METAR LROP 071630Z 32005KT 9999 SCT040 19/18 Q1010 R26L/29//95
                        R26R/29//95 NOSIG=
201807071700 METAR LROP 071700Z 34010KT 9999 FEW048 19/18 Q1010 R26L/29//95
                        R26R/29//95 NOSIG=
201807071730 METAR LROP 071730Z 35008KT 9999 SCT047 19/18 Q1010 R26L/29//95
                        R26R/29//95 NOSIG=
201807071800 METAR LROP 071800Z 14007KT 9999 -RA SCT049 19/18 Q1011 R26L/29//95
                        R26R/29//95 NOSIG=
201807071830 METAR LROP 071830Z VRB02KT 9999 FEW049 19/18 Q1011 R88/29//95
                        NOSIG=
201807071900 METAR LROP 071900Z 16003KT 9999 FEW049 19/18 Q1011 R88/29//95
                        NOSIG=
201807071930 METAR LROP 071930Z 18003KT 130V220 CAVOK 18/17 Q1011 R88/29//95
                        NOSIG=
201807072000 METAR LROP 072000Z 00000KT CAVOK 18/17 Q1011 R88/29//95 NOSIG=
201807072030 METAR LROP 072030Z 20001KT CAVOK 18/17 Q1011 R88/29//95 NOSIG=
201807072100 METAR LROP 072100Z VRB01KT CAVOK 19/18 Q1011 R88/29//95 NOSIG=
201807072130 METAR LROP 072130Z 01001KT 9999 -SHRA SCT045CB 19/18 Q1011
                        R88/29//95 NOSIG=
201807072200 METAR LROP 072200Z 00000KT 6000 -SHRA SCT040CB 19/18 Q1012
                        R88/29//95 TEMPO 5000 SHRA=
201807072230 METAR LROP 072230Z 03003KT 340V060 5000 -RA BR FEW015 BKN043
                        19/18 Q1012 R88/29//95 TEMPO 3000
                        SHRA=
201807072300 METAR LROP 072300Z 08003KT 030V100 6000 -RA BKN042 19/18
                        Q1012 R88/29//95 TEMPO 3000 SHRA=
201807072330 METAR LROP 072330Z 00000KT 9999 SCT042 18/18 Q1012 R88/29//95
                        NOSIG=
201807080000 METAR LROP 080000Z 00000KT CAVOK 18/17 Q1011 R88/29//95 NOSIG=
201807080030 METAR LROP 080030Z 00000KT 9000 -RA SCT048 18/18 Q1012 R88/29//95
                        NOSIG=
201807080100 METAR LROP 080100Z 00000KT 9000 -RA SCT048 18/17 Q1012 R88/29//95
                        NOSIG=
201807080130 METAR LROP 080130Z 00000KT 9999 -RA NSC 18/17 Q1012 R88/29//95
                        NOSIG=
201807080200 METAR LROP 080200Z 00000KT 9999 -RA NSC 18/17 Q1012 R88/29//95
                        NOSIG=
201807080230 METAR LROP 080230Z 00000KT 8000 -RA FEW049 18/17 Q1012 R88/29//95
                        NOSIG=
201807080300 METAR LROP 080300Z 00000KT 5000 -RA BR FEW048 18/17 Q1012
                        R88/29//95 NOSIG=
201807080330 METAR LROP 080330Z VRB02KT 5000 -RA BR FEW007 18/18 Q1012
                        R88/29//95 NOSIG=
201807080400 METAR LROP 080400Z 00000KT 8000 -RA FEW007 19/18 Q1012 R88/29//95
                        NOSIG=
201807080430 METAR LROP 080430Z 36003KT 8000 -RA FEW047 19/18 Q1012 R88/29//95
                        NOSIG=
201807080500 METAR LROP 080500Z 35003KT 330V030 9999 -RA NSC 19/18 Q1012
                        R88/29//95 NOSIG=
201807080530 METAR LROP 080530Z 36003KT 330V030 CAVOK 19/18 Q1012 R88/29//95
                        NOSIG=
201807080600 METAR LROP 080600Z 36006KT 9999 -RA NSC 20/19 Q1012 R88/29//95
                        NOSIG=
201807080630 METAR LROP 080630Z 36007KT CAVOK 20/19 Q1012 R88/29//95 NOSIG=
201807080700 METAR LROP 080700Z 01008KT CAVOK 21/19 Q1012 R88/19//95 NOSIG=
201807080730 METAR LROP 080730Z 02008KT CAVOK 21/19 Q1012 R88/19//95 NOSIG=
201807080800 METAR LROP 080800Z 02007KT CAVOK 22/19 Q1012 R88/19//95 NOSIG=
201807080830 METAR LROP 080830Z 02006KT 360V060 CAVOK 22/18 Q1012 R88/19//95
                        NOSIG=
201807080900 METAR LROP 080900Z 03006KT CAVOK 22/18 Q1012 R88/19//95 NOSIG=
201807080930 METAR LROP 080930Z 03005KT CAVOK 22/18 Q1012 R88/19//95 NOSIG=
201807081000 METAR LROP 081000Z 03005KT CAVOK 23/19 Q1012 R88/19//95 NOSIG=
201807081030 METAR LROP 081030Z 07005KT 010V110 9999 -RA FEW037 23/19
                        Q1012 R88/19//95 NOSIG=
201807081100 METAR LROP 081100Z 03005KT 350V050 9999 FEW030 23/19 Q1012
                        R88/19//95 NOSIG=
201807081130 METAR LROP 081130Z 05005KT 340V070 9999 FEW034 24/19 Q1011
                        R88/19//95 NOSIG=
201807081200 METAR LROP 081200Z 07006KT 030V100 9999 SCT023 24/19 Q1011
                        R88/CLRD// NOSIG=
201807081230 METAR LROP 081230Z 05006KT 020V080 9999 SCT024 25/20 Q1011
                        NOSIG=
201807081300 METAR LROP 081300Z 04006KT 350V080 9999 FEW040 25/18 Q1011
                        NOSIG=
201807081330 METAR LROP 081330Z 04005KT 360V070 CAVOK 25/17 Q1011 NOSIG=
201807081400 METAR LROP 081400Z 03006KT 9999 FEW050CB 26/18 Q1011 NOSIG=
201807081430 METAR LROP 081430Z 04007KT 9999 FEW050CB 25/18 Q1010 NOSIG=
201807081500 METAR LROP 081500Z 04007KT 010V070 9999 SCT040 FEW047CB 25/18
                        Q1010 NOSIG=
201807081530 METAR LROP 081530Z 07009KT 9999 VCSH SCT035 FEW045CB 24/17
                        Q1011 NOSIG=
201807081600 METAR LROP 081600Z 04005KT 360V070 9999 VCSH FEW050CB 24/17
                        Q1011 NOSIG=
201807081630 METAR LROP 081630Z 02009KT 9999 TS BKN035 FEW050CB 23/17
                        Q1011 NOSIG=
201807081700 METAR LROP 081700Z 31006KT 9999 VCTS SCT040CB BKN045 21/16
                        Q1011 RETS NOSIG=
201807081730 METAR LROP 081730Z 35006KT 9999 SCT035CB 20/17 Q1011 NOSIG=
201807081800 METAR LROP 081800Z 33005KT 300V360 9999 VCTS SCT040CB 20/18
                        Q1011 NOSIG=
201807081830 METAR LROP 081830Z 05008KT 9999 VCTS SCT040CB 20/17 Q1012
                        NOSIG=
201807081900 METAR LROP 081900Z 04005KT 9999 SCT050CB 20/17 Q1012 NOSIG=
201807081930 METAR LROP 081930Z 04006KT 9999 FEW050CB 20/17 Q1012 NOSIG=
201807082000 METAR LROP 082000Z 02006KT 9999 FEW050CB 19/17 Q1012 NOSIG=
201807082030 METAR LROP 082030Z 02005KT 9999 FEW050CB 19/17 Q1012 NOSIG=
201807082100 METAR LROP 082100Z 01005KT CAVOK 19/17 Q1012 NOSIG=
201807082130 METAR LROP 082130Z 02004KT CAVOK 19/17 Q1012 NOSIG=
201807082200 METAR LROP 082200Z 03003KT CAVOK 19/17 Q1012 NOSIG=
201807082230 METAR LROP 082230Z 02003KT CAVOK 19/17 Q1012 NOSIG=
201807082300 METAR LROP 082300Z VRB02KT CAVOK 19/18 Q1012 NOSIG=
201807082330 METAR LROP 082330Z 03003KT CAVOK 18/17 Q1011 NOSIG=
201807090000 METAR LROP 090000Z VRB02KT CAVOK 18/17 Q1011 NOSIG=
201807090030 METAR LROP 090030Z 23003KT 190V270 9999 SCT046 18/17 Q1011
                        NOSIG=
201807090100 METAR LROP 090100Z 28004KT 9999 BKN049 18/17 Q1011 NOSIG=
201807090130 METAR LROP 090130Z 27004KT 9999 BKN049 18/17 Q1011 NOSIG=
201807090200 METAR LROP 090200Z 27004KT 9999 BKN049 18/17 Q1011 NOSIG=
201807090230 METAR LROP 090230Z 27005KT 9999 FEW045CB BKN047 18/17 Q1011
                        NOSIG=
201807090300 METAR LROP 090300Z 25006KT 8000 SHRA SCT040CB BKN044 18/17
                        Q1011 R88/29//95 TEMPO 5000 SHRA=
201807090330 METAR LROP 090330Z 27005KT 250V320 9999 -SHRA SCT040CB BKN043
                        18/17 Q1011 RESHRA R88/29//95 TEMPO
                        5000 SHRA=
201807090400 METAR LROP 090400Z 25004KT 9999 -SHRA SCT049CB BKN045 18/17
                        Q1011 R88/29//95 NOSIG=
201807090430 METAR LROP 090430Z 28006KT 9999 SCT045CB 18/17 Q1012 R88/29//95
                        NOSIG=
201807090500 METAR LROP 090500Z 30007KT 9999 SCT050CB 18/17 Q1011 R88/29//95
                        NOSIG=
201807090530 METAR LROP 090530Z 31007KT 9999 SCT050CB 19/18 Q1012 R88/29//95
                        NOSIG=
201807090600 METAR LROP 090600Z 31008KT 9999 -SHRA BKN050CB 19/18 Q1012
                        R88/29//95 NOSIG=
201807090630 METAR LROP 090630Z 30008KT 9999 -SHRA BKN045CB BKN049 19/18
                        Q1012 R88/29//95 NOSIG=
201807090700 METAR LROP 090700Z 28007KT 9999 -SHRA BKN045CB BKN047 19/18
                        Q1012 R88/29//95 NOSIG=
201807090730 METAR LROP 090730Z 29007KT 7000 SHRA BKN043CB 19/18 Q1012
                        R88/29//95 NOSIG=
201807090800 METAR LROP 090800Z 29006KT 8000 -SHRA BKN047CB 19/18 Q1012
                        R88/29//95 NOSIG=
201807090830 METAR LROP 090830Z 31007KT 8000 -SHRA BKN048CB 19/18 Q1012
                        R88/29//95 NOSIG=
201807090900 METAR LROP 090900Z 32007KT 9999 -SHRA BKN049CB 20/19 Q1012
                        R88/29//95 NOSIG=
201807090930 METAR LROP 090930Z 33005KT 9999 BKN050CB 20/19 Q1012 R88/29//95
                        NOSIG=
201807091000 METAR LROP 091000Z 33005KT 9999 SCT050CB 21/20 Q1012 R88/29//95
                        NOSIG=
201807091030 METAR LROP 091030Z 34006KT 9999 SCT050CB 21/19 Q1012 R88/29//95
                        NOSIG=
201807091100 METAR LROP 091100Z 35006KT 310V010 9999 FEW050CB 22/20 Q1012
                        R88/29//95 NOSIG=
201807091130 METAR LROP 091130Z 34007KT 9999 FEW018 22/20 Q1012 R88/29//95
                        NOSIG=
201807091200 METAR LROP 091200Z 01009KT 340V040 9999 FEW018 23/20 Q1012
                        R88/29//95 NOSIG=
201807091230 METAR LROP 091230Z 01009KT 9999 FEW017 23/20 Q1012 R88/29//95
                        NOSIG=
201807091300 METAR LROP 091300Z 04009KT 020V080 9999 SCT018 23/20 Q1012
                        R88/29//95 NOSIG=
201807091330 METAR LROP 091330Z 03010KT 9999 SCT019 24/19 Q1012 R88/29//95
                        NOSIG=
201807091400 METAR LROP 091400Z 02009KT 9999 FEW022 FEW050CB 24/19 Q1012
                        R88/29//95 NOSIG=
201807091430 METAR LROP 091430Z 02008KT 9999 VCTS SCT044CB 24/19 Q1012
                        R88/29//95 TEMPO 5000 TSRA=
201807091500 METAR LROP 091500Z 02009KT 9999 VCTS SCT040CB 24/19 Q1011
                        R88/29//95 TEMPO 5000 TSRA=
201807091530 METAR LROP 091530Z 08007KT 040V100 3500 +SHRA SCT007 BKN040CB
                        BKN045 22/21 Q1012 R88/29//95 TEMPO
                        1500 +TSRA=
201807091600 METAR LROP 091600Z 10009KT 3000 +TSRA FEW007 BKN021 BKN030CB
                        19/18 Q1012 R88/29//95 BECMG 5000
                        -SHRA=
201807091630 METAR LROP 091630Z 03008KT 5000 SHRA BKN040 BKN045CB 18/17
                        Q1012 RETS R88/29//95 NOSIG=
201807091700 METAR LROP 091700Z 04007KT 8000 SHRA BKN045 BKN049CB 18/17
                        Q1012 R88/29//95 NOSIG=
201807091730 METAR LROP 091730Z 05006KT 9999 -SHRA SCT050CB 18/18 Q1012
                        RESHRA R88/29//95 NOSIG=
201807091800 METAR LROP 091800Z 02005KT 9999 -SHRA FEW050CB 19/18 Q1012
                        R88/29//95 NOSIG=
201807091830 METAR LROP 091830Z 36005KT 9999 FEW050CB 19/18 Q1012 R88/29//95
                        NOSIG=
201807091900 METAR LROP 091900Z 01003KT 340V050 9999 FEW050CB 19/18 Q1012
                        R88/29//95 NOSIG=
201807091930 METAR LROP 091930Z 01003KT 350V070 CAVOK 19/18 Q1013 R88/29//95
                        NOSIG=
201807092000 METAR LROP 092000Z 01006KT 340V040 CAVOK 19/18 Q1013 R88/29//95
                        NOSIG=
201807092030 METAR LROP 092030Z 03005KT 9999 FEW033 19/18 Q1012 R88/29//95
                        NOSIG=
201807092100 METAR LROP 092100Z 02005KT 9999 FEW034 19/18 Q1012 R88/29//95
                        NOSIG=
201807092130 METAR LROP 092130Z 36003KT 280V040 9999 FEW033 19/18 Q1012
                        R88/29//95 NOSIG=
201807092200 METAR LROP 092200Z 34005KT 9999 BKN033 19/18 Q1013 R88/29//95
                        NOSIG=
201807092230 METAR LROP 092230Z 36005KT 350V050 9999 FEW036 19/18 Q1012
                        R88/29//95 NOSIG=
201807092300 METAR LROP 092300Z VRB01KT 9999 FEW043 19/18 Q1012 R88/29//95
                        BECMG SCT045CB=
201807092330 METAR LROP 092330Z 06003KT 020V080 9999 FEW042CB 19/18 Q1012
                        R88/29//95 BECMG 5000 -SHRA=
201807100000 METAR LROP 100000Z VRB02KT 9999 FEW050CB 19/18 Q1012 R88/29//95
                        BECMG 5000 -SHRA=
201807100030 METAR LROP 100030Z 06004KT 9999 -SHRA FEW050CB 19/18 Q1012
                        R88/29//95 BECMG 5000 -SHRA=
201807100100 METAR LROP 100100Z VRB02KT 9999 -SHRA SCT050CB 19/18 Q1012
                        R88/29//95 BECMG 5000 -SHRA=
201807100130 METAR LROP 100130Z 21006KT 9999 -TSRA BKN042 SCT044CB 19/18
                        Q1012 R88/29//95 TEMPO 3000 TSRA=
201807100200 METAR LROP 100200Z 18004KT 140V200 9999 -TSRA BKN042 SCT045CB
                        19/18 Q1012 RETSRA R88/29//95 TEMPO
                        3000 TSRA=
201807100230 METAR LROP 100230Z 08006KT 050V110 7000 TSRA FEW017 BKN043
                        SCT049CB 18/18 Q1012 R88/29//95 TEMPO
                        3000 TSRA=
201807100300 METAR LROP 100300Z 07009KT 5000 SHRA SCT013 SCT040CB 18/17
                        Q1012 RETS R88/29//95 NOSIG=
201807100330 METAR LROP 100330Z 08005KT 7000 SHRA FEW015 SCT050CB 18/17
                        Q1012 R88/29//95 NOSIG=
201807100400 METAR LROP 100400Z 06009KT 8000 SHRA FEW015 SCT050CB 18/17
                        Q1012 R88/29//95 NOSIG=
201807100430 METAR LROP 100430Z 05007KT 9999 -RA FEW020 SCT050CB 18/17
                        Q1012 R88/29//95 NOSIG=
201807100500 METAR LROP 100500Z 04004KT 9999 -RA FEW020 SCT037 18/17 Q1012
                        R88/29//95 NOSIG=
201807100530 METAR LROP 100530Z 09004KT 9999 FEW027 SCT034 19/18 Q1012
                        R88/29//95 NOSIG=
201807100600 METAR LROP 100600Z 07008KT 9999 FEW027 SCT035 19/18 Q1012
                        R88/29//95 TEMPO 5000 SHRA=
201807100630 METAR LROP 100630Z 04006KT 5000 -SHRA FEW017 FEW045CB BKN032
                        19/18 Q1012 R88/29//95 TEMPO 3000
                        SHRA=
201807100700 METAR LROP 100700Z 03008KT 8000 -SHRA SCT017 FEW045CB BKN033
                        19/18 Q1012 R88/29//95 NOSIG=
201807100730 METAR LROP 100730Z 02009KT 7000 SHRA FEW015 BKN031 SCT042CB
                        19/18 Q1012 R88/29//95 NOSIG=
201807100800 METAR LROP 100800Z 01009KT 9999 -SHRA FEW010 BKN034 SCT037CB
                        19/18 Q1012 RESHRA R88/29//95 NOSIG=
201807100830 METAR LROP 100830Z 03006KT 360V060 9999 -SHRA FEW010 SCT035CB
                        BKN036 19/18 Q1013 R88/29//95 NOSIG=
201807100900 METAR LROP 100900Z 36006KT 330V050 9999 FEW013 BKN033 SCT040CB
                        20/19 Q1013 R88/29//95 NOSIG=
201807100930 METAR LROP 100930Z 30005KT 9999 -SHRA FEW010 BKN034 SCT040CB
                        19/18 Q1013 R88/29//95 TEMPO 5000
                        TSRA=
201807101000 METAR LROP 101000Z 31006KT 9999 -SHRA FEW011 SCT034 SCT039CB
                        19/18 Q1013 R88/29//95 TEMPO 5000
                        TSRA=
201807101030 METAR LROP 101030Z 32008KT 9999 FEW006 FEW040CB SCT046 20/19
                        Q1013 R88/29//95 TEMPO 5000 TSRA=
201807101100 METAR LROP 101100Z 31009KT 9999 FEW015 SCT046 20/19 Q1012
                        R88/19//95 TEMPO 5000 TSRA=
201807101130 METAR LROP 101130Z 33008KT 9999 -SHRA FEW017 SCT031 FEW050CB
                        20/19 Q1012 R88/19//95 NOSIG=
201807101200 METAR COR LROP 101200Z 35008KT 9999 FEW040 21/20 Q1012 R88/CLRD
                        NOSIG=
201807101230 METAR LROP 101230Z 32006KT CAVOK 22/20 Q1012 R88/CLRD// NOSIG=
201807101300 METAR LROP 101300Z 02005KT 340V070 CAVOK 23/20 Q1012 NOSIG=
201807101330 METAR LROP 101330Z 04005KT 340V070 CAVOK 23/20 Q1011 NOSIG=
201807101400 METAR LROP 101400Z 04005KT 350V080 CAVOK 24/20 Q1011 NOSIG=
201807101430 METAR LROP 101430Z 08004KT 050V110 CAVOK 24/19 Q1011 NOSIG=
201807101500 METAR LROP 101500Z VRB02KT 9999 FEW028 FEW050TCU 23/20 Q1011
                        NOSIG=
201807101530 METAR LROP 101530Z VRB02KT 9999 FEW039 FEW050TCU 24/19 Q1011
                        NOSIG=
201807101600 METAR LROP 101600Z VRB01KT 9999 SCT040 FEW050CB 24/20 Q1011
                        NOSIG=
201807101630 METAR LROP 101630Z 22002KT 9999 SCT040 FEW050CB 24/20 Q1012
                        NOSIG=
201807101700 METAR LROP 101700Z 19002KT 9999 SCT042 FEW050CB 24/19 Q1012
                        TEMPO VRB20KT 5000 TSRA=
201807101730 METAR LROP 101730Z VRB01KT 9999 SCT029 SCT045CB 23/19 Q1012
                        NOSIG=
201807101800 METAR LROP 101800Z 32002KT 9999 TS SCT030 SCT050CB 22/19
                        Q1012 NOSIG=
201807101830 METAR LROP 101830Z 36009KT 9999 SCT034 SCT050CB 21/19 Q1012
                        NOSIG=
201807101900 METAR LROP 101900Z 06010KT 9999 TS SCT023 SCT032CB BKN038
                        21/19 Q1012 NOSIG=
201807101930 METAR LROP 101930Z 09006KT 9999 SCT028 SCT039CB 20/18 Q1012
                        NOSIG=
201807102000 METAR LROP 102000Z VRB01KT 9999 FEW035CB BKN037 19/18 Q1013
                        NOSIG=
201807102030 METAR LROP 102030Z VRB02KT 9999 OVC029 19/18 Q1013 NOSIG=
201807102100 METAR LROP 102100Z 04004KT 9999 FEW030 SCT044 20/19 Q1013
                        NOSIG=
201807102130 METAR LROP 102130Z 04004KT 9999 FEW044 19/18 Q1013 NOSIG=
201807102200 METAR LROP 102200Z 29003KT 9999 SCT030 18/17 Q1013 NOSIG=
201807102230 METAR LROP 102230Z 30003KT 9999 BKN030 18/18 Q1013 TEMPO
                        5000 BR=
201807102300 METAR LROP 102300Z 00000KT 9999 BKN028 18/17 Q1013 TEMPO
                        5000 BR=
201807102330 METAR LROP 102330Z 35004KT 330V030 9999 BKN029 18/17 Q1013
                        TEMPO 5000 BR=
201807110000 METAR LROP 110000Z 35004KT 9999 BKN035 19/18 Q1013 TEMPO
                        5000 BR=
201807110030 METAR LROP 110030Z VRB01KT 8000 BKN034 18/17 Q1013 TEMPO
                        5000 BR=
201807110100 METAR LROP 110100Z 35004KT 9999 SCT037 18/17 Q1013 NOSIG=
201807110130 METAR LROP 110130Z 35003KT 9999 FEW032 18/17 Q1013 NOSIG=
201807110200 METAR LROP 110200Z 24002KT 5000 BR NSC 17/16 Q1013 TEMPO
                        3000 BR=
201807110230 METAR LROP 110230Z 29003KT 4000 MIFG BR NSC 17/16 Q1013 TEMPO
                        3000 BR=
201807110300 METAR LROP 110300Z 28003KT 6000 SCT002 17/16 Q1013 TEMPO
                        5000 BR=
201807110330 METAR LROP 110330Z 25002KT 5000 BR FEW003 17/16 Q1013 BECMG
                        CAVOK=
201807110400 METAR LROP 110400Z 27003KT 6000 SCT025 18/17 Q1013 NOSIG=
201807110430 METAR LROP 110430Z VRB02KT 9999 FEW026 19/18 Q1013 NOSIG=
201807110500 METAR LROP 110500Z VRB02KT CAVOK 20/19 Q1013 NOSIG=
201807110530 METAR LROP 110530Z VRB02KT CAVOK 22/20 Q1014 NOSIG=
201807110600 METAR LROP 110600Z VRB01KT CAVOK 23/19 Q1013 NOSIG=
201807110630 METAR LROP 110630Z VRB02KT 9999 SCT020 23/18 Q1013 NOSIG=
201807110700 METAR LROP 110700Z VRB02KT 9999 BKN020 23/19 Q1014 NOSIG=
201807110730 METAR LROP 110730Z 22003KT 180V290 9999 SCT021 23/19 Q1013
                        NOSIG=
201807110800 METAR LROP 110800Z 09002KT 9999 FEW023TCU SCT025 24/20 Q1013
                        NOSIG=
201807110830 METAR LROP 110830Z VRB03KT 9999 FEW027TCU BKN030 24/18 Q1013
                        NOSIG=
201807110900 METAR LROP 110900Z VRB03KT 9999 SCT030 FEW035TCU 25/19 Q1013
                        NOSIG=
201807110930 METAR LROP 110930Z 03003KT 340V080 9999 SCT030 FEW035TCU
                        25/18 Q1013 NOSIG=
201807111000 METAR LROP 111000Z VRB02KT 9999 SCT038 FEW040TCU 26/18 Q1013
                        NOSIG=
201807111030 METAR COR LROP 111030Z 26004KT 170V340 9999 SCT038 26/18
                        Q1013 NOSIG=
201807111100 METAR LROP 111100Z VRB04KT 9999 BKN040 27/18 Q1013 NOSIG=
201807111130 METAR LROP 111130Z 26004KT 210V320 9999 FEW040 27/19 Q1013
                        NOSIG=
201807111200 METAR LROP 111200Z 25005KT 140V310 9999 SCT045 26/17 Q1013
                        NOSIG=
201807111230 METAR LROP 111230Z 35003KT 310V030 9999 BKN041 25/20 Q1013
                        NOSIG=
201807111300 METAR LROP 111300Z 21004KT 9999 SCT041 FEW045TCU 25/20 Q1013
                        NOSIG=
201807111330 METAR LROP 111330Z 17005KT 150V210 CAVOK 27/19 Q1012 NOSIG=
201807111400 METAR LROP 111400Z VRB03KT CAVOK 27/18 Q1012 NOSIG=
201807111430 METAR LROP 111430Z 21007KT 170V230 CAVOK 27/18 Q1012 NOSIG=
201807111500 METAR LROP 111500Z 19005KT 160V240 CAVOK 28/18 Q1012 NOSIG=
201807111530 METAR LROP 111530Z 24004KT 210V280 CAVOK 27/19 Q1012 NOSIG=
201807111600 METAR LROP 111600Z 23005KT CAVOK 27/18 Q1012 NOSIG=
201807111630 METAR LROP 111630Z 24003KT 210V270 CAVOK 26/18 Q1012 NOSIG=
201807111700 METAR LROP 111700Z 25003KT CAVOK 26/19 Q1012 NOSIG=
201807111730 METAR LROP 111730Z 24003KT CAVOK 24/18 Q1012 NOSIG=
201807111800 METAR LROP 111800Z 23003KT CAVOK 23/18 Q1013 NOSIG=
201807111830 METAR LROP 111830Z 23002KT CAVOK 23/19 Q1013 NOSIG=
201807111900 METAR LROP 111900Z 24003KT CAVOK 22/19 Q1013 NOSIG=
201807111930 METAR LROP 111930Z 23002KT CAVOK 21/19 Q1013 NOSIG=
201807112000 METAR LROP 112000Z 23003KT CAVOK 21/20 Q1013 NOSIG=
201807112030 METAR LROP 112030Z 24003KT CAVOK 20/19 Q1013 NOSIG=
201807112100 METAR LROP 112100Z 25003KT CAVOK 20/19 Q1013 NOSIG=
201807112130 METAR LROP 112130Z 26003KT CAVOK 20/19 Q1013 NOSIG=
201807112200 METAR LROP 112200Z 26005KT CAVOK 19/18 Q1013 NOSIG=
201807112230 METAR LROP 112230Z 26004KT CAVOK 19/18 Q1013 NOSIG=
201807112300 METAR LROP 112300Z 25003KT CAVOK 19/18 Q1013 NOSIG=
201807112330 METAR LROP 112330Z 25002KT CAVOK 19/18 Q1013 NOSIG=
201807120000 METAR LROP 120000Z 26004KT CAVOK 19/18 Q1013 NOSIG=
201807120030 METAR LROP 120030Z 23002KT CAVOK 18/17 Q1013 NOSIG=
201807120100 METAR LROP 120100Z 27003KT CAVOK 18/17 Q1013 NOSIG=
201807120130 METAR LROP 120130Z 27004KT CAVOK 18/17 Q1013 NOSIG=
201807120200 METAR LROP 120200Z 28002KT CAVOK 18/17 Q1013 NOSIG=
201807120230 METAR LROP 120230Z 28003KT CAVOK 18/17 Q1013 NOSIG=
201807120300 METAR COR LROP 120300Z 28005KT 6000 NSC 17/17 Q1013 NOSIG=
201807120330 METAR LROP 120330Z 30003KT 270V340 8000 NSC 18/17 Q1013 NOSIG=
201807120400 METAR LROP 120400Z VRB02KT CAVOK 19/18 Q1014 NOSIG=
201807120430 METAR LROP 120430Z 27004KT CAVOK 20/19 Q1014 NOSIG=
201807120500 METAR LROP 120500Z 28003KT 240V310 CAVOK 21/20 Q1014 NOSIG=
201807120530 METAR LROP 120530Z 28003KT CAVOK 22/20 Q1014 NOSIG=
201807120600 METAR LROP 120600Z 30003KT 270V350 CAVOK 24/20 Q1014 NOSIG=
201807120630 METAR LROP 120630Z 29003KT 250V320 CAVOK 25/21 Q1014 NOSIG=
201807120700 METAR LROP 120700Z 30006KT CAVOK 26/20 Q1014 NOSIG=
201807120730 METAR LROP 120730Z 30006KT CAVOK 27/21 Q1014 NOSIG=
201807120800 METAR LROP 120800Z 29009KT CAVOK 28/21 Q1014 NOSIG=
201807120830 METAR LROP 120830Z 28008KT CAVOK 28/20 Q1014 NOSIG=
201807120900 METAR LROP 120900Z 27008KT CAVOK 28/20 Q1014 NOSIG=
201807120930 METAR LROP 120930Z 26008KT 240V300 9999 FEW042 29/19 Q1014
                        NOSIG=
201807121000 METAR LROP 121000Z 26008KT 210V300 9999 FEW042 28/19 Q1014
                        NOSIG=
201807121030 METAR LROP 121030Z 26006KT 230V290 9999 FEW045 29/21 Q1014
                        NOSIG=
201807121100 METAR LROP 121100Z 24008KT 210V270 9999 FEW049 30/21 Q1013
                        NOSIG=
201807121130 METAR LROP 121130Z 25006KT 200V290 CAVOK 30/19 Q1013 NOSIG=
201807121200 METAR LROP 121200Z 24006KT 210V290 CAVOK 30/19 Q1013 NOSIG=
201807121230 METAR LROP 121230Z 27007KT CAVOK 30/18 Q1013 NOSIG=
201807121300 METAR LROP 121300Z 24006KT 210V270 CAVOK 30/20 Q1013 NOSIG=
201807121330 METAR LROP 121330Z 26008KT CAVOK 30/21 Q1013 NOSIG=
201807121400 METAR LROP 121400Z 25007KT 230V290 CAVOK 30/19 Q1013 NOSIG=
201807121430 METAR LROP 121430Z 26008KT CAVOK 30/19 Q1012 NOSIG=
201807121500 METAR LROP 121500Z 25007KT 9999 FEW050CB 30/19 Q1012 NOSIG=
201807121530 METAR LROP 121530Z 25008KT 9999 FEW050CB 30/20 Q1012 NOSIG=
201807121600 METAR LROP 121600Z 25006KT CAVOK 29/19 Q1012 NOSIG=
201807121630 METAR LROP 121630Z 25003KT CAVOK 29/19 Q1012 NOSIG=
201807121700 METAR LROP 121700Z 26004KT CAVOK 29/20 Q1012 NOSIG=
201807121730 METAR LROP 121730Z 29005KT CAVOK 27/20 Q1012 NOSIG=
201807121800 METAR LROP 121800Z 31004KT CAVOK 25/21 Q1013 NOSIG=
201807121830 METAR LROP 121830Z 31005KT CAVOK 24/21 Q1012 NOSIG=
201807121900 METAR LROP 121900Z VRB02KT CAVOK 24/21 Q1013 NOSIG=
201807121930 METAR LROP 121930Z 25005KT CAVOK 23/21 Q1013 NOSIG=
201807122000 METAR LROP 122000Z 24004KT CAVOK 23/21 Q1013 NOSIG=
201807122030 METAR LROP 122030Z 26004KT CAVOK 22/21 Q1013 NOSIG=
201807122100 METAR LROP 122100Z 31004KT CAVOK 22/21 Q1013 NOSIG=
201807122130 METAR LROP 122130Z 24003KT 210V280 CAVOK 22/21 Q1013 NOSIG=
201807122200 METAR LROP 122200Z 30004KT 290V350 CAVOK 21/20 Q1013 NOSIG=
201807122230 METAR LROP 122230Z 26003KT CAVOK 21/20 Q1013 NOSIG=
201807122300 METAR COR LROP 122300Z 28003KT CAVOK 20/19 Q1013 NOSIG=
201807122330 METAR LROP 122330Z 28003KT CAVOK 20/19 Q1013 NOSIG=
201807130000 METAR LROP 130000Z 29004KT CAVOK 20/19 Q1013 NOSIG=
201807130030 METAR LROP 130030Z 29004KT CAVOK 20/19 Q1013 NOSIG=
201807130100 METAR LROP 130100Z VRB02KT CAVOK 20/19 Q1013 NOSIG=
201807130130 METAR LROP 130130Z 28007KT CAVOK 19/18 Q1013 NOSIG=
201807130200 METAR LROP 130200Z 30004KT 280V360 CAVOK 19/18 Q1013 NOSIG=
201807130230 METAR LROP 130230Z 30003KT CAVOK 19/18 Q1013 NOSIG=
201807130300 METAR LROP 130300Z VRB02KT CAVOK 19/18 Q1013 NOSIG=
201807130330 METAR LROP 130330Z VRB02KT CAVOK 19/18 Q1013 NOSIG=
201807130400 METAR LROP 130400Z 35004KT CAVOK 21/18 Q1013 NOSIG=
201807130430 METAR LROP 130430Z 34004KT 280V360 CAVOK 22/20 Q1013 NOSIG=
201807130500 METAR LROP 130500Z 02006KT CAVOK 24/19 Q1013 NOSIG=
201807130530 METAR LROP 130530Z VRB02KT CAVOK 25/19 Q1013 NOSIG=
201807130600 METAR LROP 130600Z 03003KT 350V060 CAVOK 26/18 Q1013 NOSIG=
201807130630 METAR LROP 130630Z 10004KT CAVOK 26/20 Q1013 NOSIG=
201807130700 METAR LROP 130700Z VRB02KT CAVOK 27/19 Q1013 NOSIG=
201807130730 METAR LROP 130730Z 09003KT 040V180 CAVOK 27/20 Q1013 NOSIG=
201807130800 METAR LROP 130800Z 15004KT 100V210 CAVOK 28/18 Q1013 NOSIG=
201807130830 METAR LROP 130830Z 20004KT CAVOK 28/19 Q1013 NOSIG=
201807130900 METAR LROP 130900Z 15002KT 090V190 CAVOK 29/20 Q1013 NOSIG=
201807130930 METAR LROP 130930Z 13004KT 090V200 CAVOK 29/19 Q1013 NOSIG=
201807131000 METAR LROP 131000Z 12004KT 060V180 CAVOK 30/17 Q1013 NOSIG=
201807131030 METAR LROP 131030Z VRB04KT CAVOK 30/18 Q1013 NOSIG=
201807131100 METAR LROP 131100Z 18007KT 140V210 9999 BKN048 30/21 Q1012
                        NOSIG=
201807131130 METAR LROP 131130Z 21006KT 9999 BKN049 29/21 Q1012 NOSIG=
201807131200 METAR LROP 131200Z 23006KT 180V270 CAVOK 30/19 Q1012 TEMPO
                        02015G25KT SCT045CB=
201807131230 METAR LROP 131230Z 28007KT 250V310 CAVOK 30/20 Q1012 TEMPO
                        02015G25KT SCT045CB=
201807131300 METAR LROP 131300Z 01018KT 9999 FEW050CB 28/19 Q1012 NOSIG=
201807131330 METAR LROP 131330Z 02011KT 9999 VCTS FEW050CB 26/18 Q1012
                        TEMPO VRB15G25KT 5000 TSRA=
201807131400 METAR LROP 131400Z 02009KT 9999 -SHRA SCT050CB 26/17 Q1012
                        TEMPO 5000 -TSRA=
201807131430 METAR LROP 131430Z 01005KT 310V060 9999 FEW025 FEW050CB 27/19
                        Q1012 NOSIG=
201807131500 METAR LROP 131500Z 03005KT 360V080 9999 FEW050CB 29/18 Q1012
                        NOSIG=
201807131530 METAR LROP 131530Z 01009KT 340V040 CAVOK 28/18 Q1012 NOSIG=
201807131600 METAR LROP 131600Z 02007KT CAVOK 28/17 Q1012 NOSIG=
201807131630 METAR LROP 131630Z 02006KT CAVOK 27/16 Q1012 NOSIG=
201807131700 METAR LROP 131700Z 03005KT CAVOK 27/17 Q1012 NOSIG=
201807131730 METAR LROP 131730Z 10004KT CAVOK 25/18 Q1012 NOSIG=
201807131800 METAR LROP 131800Z 11004KT CAVOK 24/18 Q1012 NOSIG=
201807131830 METAR LROP 131830Z 10004KT CAVOK 23/18 Q1013 NOSIG=
201807131900 METAR LROP 131900Z 11003KT CAVOK 23/19 Q1013 NOSIG=
201807131930 METAR LROP 131930Z VRB01KT CAVOK 23/18 Q1013 NOSIG=
201807132000 METAR LROP 132000Z 29004KT CAVOK 22/19 Q1013 NOSIG=
201807132030 METAR LROP 132030Z 31004KT CAVOK 21/19 Q1013 NOSIG=
201807132100 METAR LROP 132100Z 32003KT CAVOK 21/18 Q1013 NOSIG=
201807132130 METAR LROP 132130Z 30006KT CAVOK 21/19 Q1013 NOSIG=
201807132200 METAR LROP 132200Z 29005KT CAVOK 21/19 Q1013 NOSIG=
201807132230 METAR LROP 132230Z 32004KT CAVOK 21/18 Q1013 NOSIG=
201807132300 METAR LROP 132300Z 32006KT CAVOK 21/19 Q1013 NOSIG=
201807132330 METAR LROP 132330Z 31006KT CAVOK 21/18 Q1013 NOSIG=
201807140000 METAR LROP 140000Z 30005KT CAVOK 20/17 Q1013 NOSIG=
201807140030 METAR LROP 140030Z 31007KT CAVOK 19/17 Q1013 NOSIG=
201807140100 METAR LROP 140100Z 31006KT CAVOK 19/17 Q1012 NOSIG=
201807140130 METAR LROP 140130Z 31005KT CAVOK 19/16 Q1013 NOSIG=
201807140200 METAR LROP 140200Z 29004KT CAVOK 18/16 Q1013 NOSIG=
201807140230 METAR LROP 140230Z 27003KT 240V310 CAVOK 18/16 Q1013 NOSIG=
201807140300 METAR LROP 140300Z 32004KT CAVOK 18/16 Q1013 NOSIG=
201807140330 METAR LROP 140330Z 29004KT CAVOK 18/16 Q1013 NOSIG=
201807140400 METAR LROP 140400Z 29004KT CAVOK 18/17 Q1013 NOSIG=
201807140430 METAR LROP 140430Z 01003KT 310V070 CAVOK 19/16 Q1013 NOSIG=
201807140500 METAR LROP 140500Z VRB01KT CAVOK 20/17 Q1013 NOSIG=
201807140530 METAR LROP 140530Z VRB02KT CAVOK 20/17 Q1013 NOSIG=
201807140600 METAR LROP 140600Z VRB01KT CAVOK 24/17 Q1013 NOSIG=
201807140630 METAR LROP 140630Z VRB02KT 9999 FEW050TCU 24/17 Q1014 NOSIG=
201807140700 METAR LROP 140700Z VRB02KT 9999 FEW050TCU 26/16 Q1014 NOSIG=
201807140730 METAR LROP 140730Z VRB02KT CAVOK 25/17 Q1014 NOSIG=
201807140800 METAR LROP 140800Z 19004KT 150V220 CAVOK 27/17 Q1013 NOSIG=
201807140830 METAR LROP 140830Z 11004KT 050V150 CAVOK 27/18 Q1013 NOSIG=
201807140900 METAR LROP 140900Z VRB04KT CAVOK 28/17 Q1013 NOSIG=
201807140930 METAR LROP 140930Z 24007KT CAVOK 28/18 Q1013 NOSIG=
201807141000 METAR LROP 141000Z 21007KT 160V240 CAVOK 28/17 Q1013 NOSIG=
201807141030 METAR LROP 141030Z 22008KT 190V250 CAVOK 28/17 Q1013 NOSIG=
201807141100 METAR LROP 141100Z 24006KT 180V320 CAVOK 28/17 Q1013 NOSIG=
201807141130 METAR LROP 141130Z 25005KT 200V350 CAVOK 28/17 Q1012 NOSIG=
201807141200 METAR LROP 141200Z 19005KT 160V230 CAVOK 29/18 Q1011 NOSIG=
201807141230 METAR LROP 141230Z 30010KT CAVOK 29/17 Q1011 NOSIG=
201807141300 METAR LROP 141300Z 29008KT 270V330 CAVOK 30/18 Q1011 NOSIG=
201807141330 METAR COR LROP 141330Z 26009KT 9999 FEW050TCU 29/18 Q1011
                        NOSIG=
201807141400 METAR LROP 141400Z 26010KT 9999 FEW050CB 29/16 Q1011 NOSIG=
201807141430 METAR LROP 141430Z 25007KT 9999 FEW050CB 30/15 Q1011 NOSIG=
201807141500 METAR COR LROP 141500Z 26008KT 9999 FEW050CB 28/16 Q1010
                        TEMPO VRB16KT -TSRA=
201807141530 METAR LROP 141530Z 30007KT 260V350 9999 FEW049CB 27/17 Q1010
                        TEMPO VRB16KT -TSRA=
201807141600 METAR LROP 141600Z 31011KT 9999 SHRA SCT050CB 25/18 Q1010
                        NOSIG=
201807141630 METAR LROP 141630Z 32005KT 9999 FEW050CB 26/19 Q1010 NOSIG=
201807141700 METAR LROP 141700Z 30007KT CAVOK 26/19 Q1010 NOSIG=
201807141730 METAR LROP 141730Z 35010KT CAVOK 25/16 Q1011 NOSIG=
201807141800 METAR LROP 141800Z 34009KT CAVOK 24/16 Q1011 NOSIG=
201807141830 METAR LROP 141830Z 31005KT CAVOK 22/15 Q1011 NOSIG=
201807141900 METAR LROP 141900Z 33003KT CAVOK 21/16 Q1011 NOSIG=
201807141930 METAR LROP 141930Z 31005KT CAVOK 20/16 Q1011 NOSIG=
201807142000 METAR LROP 142000Z 32003KT 280V360 CAVOK 19/17 Q1011 NOSIG=
201807142030 METAR LROP 142030Z 27003KT CAVOK 19/17 Q1011 NOSIG=
201807142100 METAR LROP 142100Z 24003KT CAVOK 19/17 Q1012 NOSIG=
201807142130 METAR LROP 142130Z 30005KT CAVOK 18/17 Q1012 NOSIG=
201807142200 METAR LROP 142200Z 28003KT 240V300 CAVOK 18/16 Q1012 NOSIG=
201807142230 METAR COR LROP 142230Z 27005KT CAVOK 18/16 Q1012 NOSIG=
201807142300 METAR LROP 142300Z 26005KT CAVOK 18/16 Q1012 NOSIG=
201807142330 METAR LROP 142330Z 25005KT CAVOK 17/16 Q1011 NOSIG=
201807150000 METAR LROP 150000Z 25003KT CAVOK 17/16 Q1011 NOSIG=
201807150030 METAR LROP 150030Z 26005KT CAVOK 17/16 Q1011 NOSIG=
201807150100 METAR LROP 150100Z 25004KT CAVOK 17/16 Q1011 NOSIG=
201807150130 METAR LROP 150130Z 26005KT CAVOK 17/16 Q1011 NOSIG=
201807150200 METAR LROP 150200Z AUTO 26006KT 9000 FEW100/// 17/16 Q1011
                        NOSIG=
201807150230 METAR LROP 150230Z 25005KT CAVOK 16/15 Q1011 NOSIG=
201807150300 METAR LROP 150300Z 25005KT CAVOK 16/15 Q1011 NOSIG=
201807150330 METAR LROP 150330Z 25004KT CAVOK 17/16 Q1011 NOSIG=
201807150400 METAR LROP 150400Z 24004KT CAVOK 17/16 Q1011 NOSIG=
201807150430 METAR LROP 150430Z 27003KT 230V300 CAVOK 18/17 Q1011 NOSIG=
201807150500 METAR LROP 150500Z VRB02KT CAVOK 20/18 Q1011 NOSIG=
201807150530 METAR LROP 150530Z 28003KT 230V310 CAVOK 21/17 Q1012 NOSIG=
201807150600 METAR LROP 150600Z 22003KT CAVOK 23/18 Q1011 NOSIG=
201807150630 METAR LROP 150630Z VRB02KT CAVOK 26/16 Q1011 NOSIG=
201807150700 METAR LROP 150700Z VRB01KT CAVOK 26/16 Q1011 NOSIG=
201807150730 METAR LROP 150730Z VRB02KT CAVOK 26/16 Q1011 NOSIG=
201807150800 METAR LROP 150800Z AUTO VRB02KT 9999 NCD 26/13 Q1011 NOSIG=
201807150830 METAR LROP 150830Z VRB03KT CAVOK 27/15 Q1011 NOSIG=
201807150900 METAR LROP 150900Z 29004KT 250V350 CAVOK 27/15 Q1011 NOSIG=
201807150930 METAR LROP 150930Z 28006KT 230V310 CAVOK 28/15 Q1011 NOSIG=
201807151000 METAR LROP 151000Z 24007KT CAVOK 28/15 Q1011 NOSIG=
201807151030 METAR LROP 151030Z 30007KT 280V340 CAVOK 28/15 Q1011 NOSIG=
201807151100 METAR LROP 151100Z 28007KT 240V320 CAVOK 29/15 Q1011 NOSIG=
201807151130 METAR LROP 151130Z 31005KT 280V020 CAVOK 28/17 Q1010 NOSIG=
201807151200 METAR LROP 151200Z 26008KT CAVOK 29/16 Q1010 NOSIG=
201807151230 METAR LROP 151230Z 25004KT 190V290 CAVOK 28/17 Q1010 NOSIG=
201807151300 METAR LROP 151300Z 25006KT CAVOK 28/15 Q1010 NOSIG=
201807151330 METAR LROP 151330Z 25005KT CAVOK 29/15 Q1009 NOSIG=
201807151400 METAR LROP 151400Z 31008KT CAVOK 29/16 Q1010 NOSIG=
201807151430 METAR LROP 151430Z 28005KT CAVOK 29/15 Q1009 NOSIG=
201807151500 METAR LROP 151500Z 33004KT 300V010 CAVOK 29/15 Q1009 NOSIG=
201807151530 METAR LROP 151530Z 26006KT 240V300 CAVOK 29/14 Q1009 NOSIG=
201807151600 METAR LROP 151600Z 26007KT 9999 FEW048CB 28/16 Q1009 NOSIG=
201807151630 METAR COR LROP 151630Z 34023G33KT 9999 -TSRA SCT015 SCT040CB
                        22/16 Q1010 WS ALL RWY TEMPO 5000
                        -TSRA=
201807151700 METAR COR LROP 151700Z 01010G20KT 4000 TSRA SCT010 BKN040CB
                        21/16 Q1010 WS ALL RWY R88/29//95
                        TEMPO 5000 -TSRA=
201807151730 METAR LROP 151730Z 34011KT 5000 TSRA SCT014 BKN040CB 19/17
                        Q1011 WS ALL RWY R88/29//95 BECMG
                        9999 -TSRA=
201807151800 METAR LROP 151800Z 11006KT 9999 -SHRA SCT045CB 19/18 Q1010
                        RETS R88/29//95 NOSIG=
201807151830 METAR LROP 151830Z 10008KT 9999 FEW047CB 19/18 Q1009 R88/29//95
                        NOSIG=
201807151900 METAR LROP 151900Z VRB02KT 9000 -SHRA FEW047CB 19/18 Q1009
                        R88/29//95 NOSIG=
201807151930 METAR LROP 151930Z 26006KT 9999 FEW050CB 19/18 Q1009 R88/29//95
                        NOSIG=
201807152000 METAR LROP 152000Z 25007KT CAVOK 18/17 Q1010 R88/29//95 NOSIG=
201807152030 METAR LROP 152030Z 30006KT CAVOK 18/17 Q1010 R88/29//95 NOSIG=
201807152100 METAR LROP 152100Z 30006KT CAVOK 18/17 Q1010 R88/29//95 NOSIG=
201807152130 METAR LROP 152130Z 26003KT CAVOK 17/16 Q1010 R88/29//95 NOSIG=
201807152200 METAR LROP 152200Z 28006KT CAVOK 17/16 Q1010 R88/29//95 NOSIG=
201807152230 METAR LROP 152230Z 27006KT CAVOK 17/16 Q1010 R88/29//95 NOSIG=
201807152300 METAR LROP 152300Z 26004KT CAVOK 17/16 Q1010 R88/29//95 NOSIG=
201807152330 METAR COR LROP 152330Z 26005KT CAVOK 17/16 Q1010 R88/19//95
                        NOSIG=
201807160000 METAR LROP 160000Z 26005KT CAVOK 17/16 Q1010 R88/19//95 NOSIG=
201807160030 METAR LROP 160030Z 26006KT CAVOK 17/16 Q1010 R88/19//95 NOSIG=
201807160100 METAR LROP 160100Z 25004KT CAVOK 16/15 Q1010 R88/19//95 NOSIG=
201807160130 METAR COR LROP 160130Z 26006KT CAVOK 16/15 Q1010 R88/19//95
                        NOSIG=
201807160200 METAR LROP 160200Z 27006KT CAVOK 16/15 Q1010 R88/19//95 NOSIG=
201807160230 METAR LROP 160230Z 26005KT CAVOK 16/15 Q1010 R88/19//95 NOSIG=
201807160300 METAR COR LROP 160300Z 27004KT CAVOK 16/15 Q1010 R88/CLRD//
                        NOSIG=
201807160330 METAR LROP 160330Z 23002KT CAVOK 16/15 Q1010 R88/CLRD// NOSIG=
201807160400 METAR LROP 160400Z 23001KT CAVOK 17/16 Q1010 NOSIG=
201807160430 METAR LROP 160430Z 27003KT 250V310 CAVOK 18/17 Q1010 NOSIG=
201807160500 METAR LROP 160500Z 26003KT 220V290 CAVOK 20/19 Q1010 NOSIG=
201807160530 METAR LROP 160530Z 24004KT CAVOK 21/19 Q1010 NOSIG=
201807160600 METAR LROP 160600Z 23006KT CAVOK 23/19 Q1010 NOSIG=
201807160630 METAR LROP 160630Z 25005KT CAVOK 24/18 Q1010 NOSIG=
201807160700 METAR LROP 160700Z 22005KT CAVOK 24/16 Q1010 NOSIG=
201807160730 METAR LROP 160730Z 22005KT 190V250 CAVOK 26/17 Q1010 NOSIG=
201807160800 METAR LROP 160800Z 24007KT CAVOK 26/18 Q1010 NOSIG=
201807160830 METAR LROP 160830Z 23006KT 200V270 CAVOK 26/17 Q1009 NOSIG=
201807160900 METAR LROP 160900Z 24004KT 180V300 CAVOK 27/17 Q1009 NOSIG=
201807160930 METAR LROP 160930Z 25005KT 180V320 CAVOK 28/16 Q1010 NOSIG=
201807161000 METAR LROP 161000Z 23006KT 200V260 CAVOK 28/17 Q1010 NOSIG=
201807161030 METAR LROP 161030Z 23006KT 210V280 CAVOK 28/15 Q1009 NOSIG=
201807161100 METAR LROP 161100Z 28007KT 230V320 CAVOK 28/15 Q1009 NOSIG=
201807161130 METAR LROP 161130Z 31007KT 280V340 CAVOK 29/16 Q1009 NOSIG=
201807161200 METAR LROP 161200Z 31006KT 280V340 CAVOK 29/15 Q1009 NOSIG=
201807161230 METAR LROP 161230Z 30007KT 240V340 CAVOK 28/16 Q1009 NOSIG=
201807161300 METAR LROP 161300Z 30006KT CAVOK 30/17 Q1009 NOSIG=
201807161330 METAR LROP 161330Z 25009KT CAVOK 29/15 Q1009 NOSIG=
201807161400 METAR LROP 161400Z 29009KT CAVOK 29/15 Q1008 NOSIG=
201807161430 METAR LROP 161430Z 29009KT CAVOK 29/16 Q1008 NOSIG=
201807161500 METAR LROP 161500Z 27011KT 240V320 CAVOK 29/15 Q1008 NOSIG=
201807161530 METAR LROP 161530Z 29011KT CAVOK 28/16 Q1008 NOSIG=
201807161600 METAR LROP 161600Z 30008KT CAVOK 27/16 Q1008 NOSIG=
201807161630 METAR LROP 161630Z 32006KT CAVOK 28/17 Q1008 NOSIG=
201807161700 METAR LROP 161700Z 36005KT CAVOK 26/16 Q1008 NOSIG=
201807161730 METAR LROP 161730Z 35003KT 310V010 CAVOK 25/15 Q1008 NOSIG=
201807161800 METAR LROP 161800Z 35003KT 310V010 CAVOK 25/15 Q1008 NOSIG=
201807161830 METAR LROP 161830Z VRB02KT CAVOK 23/16 Q1008 NOSIG=
201807161900 METAR LROP 161900Z 00000KT CAVOK 23/15 Q1008 NOSIG=
201807161930 METAR LROP 161930Z VRB01KT CAVOK 22/17 Q1009 NOSIG=
201807162000 METAR LROP 162000Z 25002KT CAVOK 21/18 Q1008 NOSIG=
201807162030 METAR LROP 162030Z 23003KT CAVOK 20/18 Q1008 NOSIG=
201807162100 METAR LROP 162100Z 23002KT CAVOK 20/18 Q1008 NOSIG=
201807162130 METAR LROP 162130Z 22004KT CAVOK 20/18 Q1008 NOSIG=
201807162200 METAR LROP 162200Z 25002KT CAVOK 19/18 Q1008 NOSIG=
201807162230 METAR LROP 162230Z VRB02KT CAVOK 19/18 Q1008 NOSIG=
201807162300 METAR LROP 162300Z 33004KT CAVOK 18/17 Q1008 NOSIG=
201807162330 METAR LROP 162330Z 29004KT CAVOK 19/18 Q1007 NOSIG=
201807170000 METAR LROP 170000Z VRB02KT CAVOK 18/17 Q1007 NOSIG=
201807170030 METAR LROP 170030Z VRB02KT CAVOK 18/17 Q1007 NOSIG=
201807170100 METAR LROP 170100Z 00000KT CAVOK 18/17 Q1007 NOSIG=
201807170130 METAR LROP 170130Z 33004KT CAVOK 17/16 Q1007 NOSIG=
201807170200 METAR LROP 170200Z 28003KT CAVOK 17/16 Q1007 NOSIG=
201807170230 METAR LROP 170230Z 21004KT CAVOK 17/16 Q1007 NOSIG=
201807170300 METAR LROP 170300Z 25004KT CAVOK 17/16 Q1007 NOSIG=
201807170330 METAR LROP 170330Z 28003KT 220V310 CAVOK 17/16 Q1007 NOSIG=
201807170400 METAR LROP 170400Z 30003KT CAVOK 17/16 Q1007 NOSIG=
201807170430 METAR LROP 170430Z 30003KT CAVOK 19/18 Q1007 NOSIG=
201807170500 METAR LROP 170500Z 30004KT CAVOK 20/17 Q1007 NOSIG=
201807170530 METAR LROP 170530Z 23002KT CAVOK 22/18 Q1007 NOSIG=
201807170600 METAR LROP 170600Z VRB01KT CAVOK 24/17 Q1007 NOSIG=
201807170630 METAR LROP 170630Z 22003KT 180V260 CAVOK 25/17 Q1007 NOSIG=
201807170700 METAR LROP 170700Z 25003KT 200V280 CAVOK 26/17 Q1006 NOSIG=
201807170730 METAR LROP 170730Z 22004KT CAVOK 27/17 Q1006 NOSIG=
201807170800 METAR LROP 170800Z 22004KT 190V250 CAVOK 28/17 Q1006 NOSIG=
201807170830 METAR LROP 170830Z 21005KT CAVOK 28/17 Q1006 NOSIG=
201807170900 METAR LROP 170900Z 25007KT CAVOK 28/17 Q1006 NOSIG=
201807170930 METAR LROP 170930Z 25008KT CAVOK 29/17 Q1006 NOSIG=
201807171000 METAR LROP 171000Z 28011KT 250V310 CAVOK 29/16 Q1006 NOSIG=
201807171030 METAR LROP 171030Z 30010KT 260V330 CAVOK 29/16 Q1006 NOSIG=
201807171100 METAR LROP 171100Z 25008KT CAVOK 29/15 Q1005 NOSIG=
201807171130 METAR LROP 171130Z 24010KT 200V260 CAVOK 30/16 Q1005 NOSIG=
201807171200 METAR LROP 171200Z 24010KT 210V280 CAVOK 30/16 Q1005 NOSIG=
201807171230 METAR LROP 171230Z 24008KT CAVOK 30/16 Q1005 NOSIG=
201807171300 METAR LROP 171300Z 26011KT CAVOK 29/14 Q1004 NOSIG=
201807171330 METAR LROP 171330Z 24010KT CAVOK 29/14 Q1004 NOSIG=
201807171400 METAR LROP 171400Z 25011KT CAVOK 30/14 Q1004 NOSIG=
201807171430 METAR LROP 171430Z 25011KT CAVOK 29/14 Q1004 NOSIG=
201807171500 METAR LROP 171500Z 25012KT CAVOK 29/13 Q1004 NOSIG=
201807171530 METAR LROP 171530Z 25010KT CAVOK 28/16 Q1004 NOSIG=
201807171600 METAR LROP 171600Z 25011KT CAVOK 28/17 Q1004 NOSIG=
201807171630 METAR LROP 171630Z 25008KT CAVOK 27/16 Q1004 NOSIG=
201807171700 METAR LROP 171700Z 24006KT CAVOK 26/17 Q1004 NOSIG=
201807171730 METAR LROP 171730Z 25007KT CAVOK 25/16 Q1004 NOSIG=
201807171800 METAR COR LROP 171800Z 24007KT CAVOK 24/17 Q1004 NOSIG=
201807171830 METAR LROP 171830Z 25006KT CAVOK 23/16 Q1005 NOSIG=
201807171900 METAR LROP 171900Z 25006KT CAVOK 23/17 Q1005 NOSIG=
201807171930 METAR LROP 171930Z 24007KT CAVOK 22/18 Q1005 NOSIG=
201807172000 METAR LROP 172000Z 25005KT CAVOK 22/18 Q1005 NOSIG=
201807172030 METAR LROP 172030Z 26005KT CAVOK 22/17 Q1004 NOSIG=
201807172100 METAR LROP 172100Z 25005KT CAVOK 21/18 Q1004 NOSIG=
201807172130 METAR LROP 172130Z 25006KT CAVOK 21/18 Q1004 NOSIG=
201807172200 METAR LROP 172200Z 25005KT CAVOK 20/18 Q1004 NOSIG=
201807172230 METAR LROP 172230Z 26005KT CAVOK 20/18 Q1004 NOSIG=
201807172300 METAR LROP 172300Z 26005KT CAVOK 20/18 Q1004 NOSIG=
201807172330 METAR LROP 172330Z 25003KT CAVOK 20/18 Q1004 NOSIG=
201807180000 METAR LROP 180000Z 25004KT CAVOK 20/18 Q1004 NOSIG=
201807180030 METAR LROP 180030Z 25003KT CAVOK 20/19 Q1004 NOSIG=
201807180100 METAR LROP 180100Z 22004KT CAVOK 20/19 Q1004 NOSIG=
201807180130 METAR LROP 180130Z 24004KT CAVOK 20/19 Q1004 NOSIG=
201807180200 METAR LROP 180200Z 24004KT CAVOK 19/18 Q1004 NOSIG=
201807180230 METAR LROP 180230Z 25006KT CAVOK 19/18 Q1004 NOSIG=
201807180300 METAR LROP 180300Z 24005KT CAVOK 19/18 Q1004 NOSIG=
201807180330 METAR LROP 180330Z 25003KT CAVOK 19/18 Q1004 NOSIG=
201807180400 METAR LROP 180400Z VRB01KT CAVOK 19/18 Q1004 NOSIG=
201807180430 METAR LROP 180430Z 23003KT CAVOK 20/19 Q1004 NOSIG=
201807180500 METAR LROP 180500Z 24003KT CAVOK 20/19 Q1004 NOSIG=
201807180530 METAR LROP 180530Z 24004KT CAVOK 21/19 Q1004 NOSIG=
201807180600 METAR LROP 180600Z 25005KT CAVOK 21/19 Q1005 NOSIG=
201807180630 METAR LROP 180630Z 25005KT CAVOK 21/18 Q1004 NOSIG=
201807180700 METAR LROP 180700Z 23004KT 190V260 CAVOK 23/18 Q1005 NOSIG=
201807180730 METAR LROP 180730Z VRB02KT CAVOK 24/17 Q1004 NOSIG=
201807180800 METAR LROP 180800Z 21004KT 170V260 CAVOK 25/18 Q1004 NOSIG=
201807180830 METAR LROP 180830Z 21005KT 160V250 CAVOK 26/18 Q1004 NOSIG=
201807180900 METAR LROP 180900Z 21006KT 160V250 CAVOK 27/16 Q1004 NOSIG=
201807180930 METAR LROP 180930Z VRB05KT 9999 SCT039 27/17 Q1004 NOSIG=
201807181000 METAR LROP 181000Z 22005KT 160V270 9999 SCT040 28/17 Q1004
                        NOSIG=
201807181030 METAR COR LROP 181030Z 25005KT 170V290 9999 SCT047 27/17
                        Q1003 NOSIG=
201807181100 METAR LROP 181100Z 25007KT 210V270 9999 SCT047 29/17 Q1003
                        NOSIG=
201807181130 METAR LROP 181130Z 24007KT 160V290 9999 SCT046 28/17 Q1003
                        NOSIG=
201807181200 METAR LROP 181200Z 25006KT 9999 SCT045 29/17 Q1003 NOSIG=
201807181230 METAR LROP 181230Z 24007KT 180V270 CAVOK 28/16 Q1003 TEMPO
                        SCT045CB=
201807181300 METAR LROP 181300Z 27007KT 240V300 9999 FEW050CB 29/17 Q1002
                        TEMPO 5000 -TSRA=
201807181330 METAR LROP 181330Z 28018KT 9999 SCT050CB 26/17 Q1003 TEMPO
                        5000 -TSRA=
201807181400 METAR LROP 181400Z 28013KT 9999 FEW050CB 25/17 Q1002 NOSIG=
201807181430 METAR LROP 181430Z 31013KT 9999 FEW050CB 24/17 Q1003 NOSIG=
201807181500 METAR LROP 181500Z 31010KT 9999 FEW050CB 24/17 Q1003 NOSIG=
201807181530 METAR LROP 181530Z 29009KT 9999 FEW050CB 24/18 Q1003 NOSIG=
201807181600 METAR LROP 181600Z 27007KT 9999 FEW050CB 23/19 Q1003 BECMG
                        NSC=
201807181630 METAR LROP 181630Z 24006KT 9999 FEW050CB 24/18 Q1003 BECMG
                        NSC=
201807181700 METAR LROP 181700Z 27007KT 9999 FEW050CB 23/17 Q1003 BECMG
                        NSC=
201807181730 METAR LROP 181730Z 26006KT CAVOK 22/17 Q1003 NOSIG=
201807181800 METAR LROP 181800Z 25006KT CAVOK 21/18 Q1003 NOSIG=
201807181830 METAR LROP 181830Z 25007KT CAVOK 21/18 Q1004 NOSIG=
201807181900 METAR LROP 181900Z 25006KT CAVOK 20/17 Q1004 NOSIG=
201807181930 METAR LROP 181930Z 25005KT CAVOK 20/17 Q1004 NOSIG=
201807182000 METAR LROP 182000Z 26005KT CAVOK 19/17 Q1003 NOSIG=
201807182030 METAR LROP 182030Z 26006KT CAVOK 19/17 Q1003 NOSIG=
201807182100 METAR LROP 182100Z 25006KT CAVOK 19/17 Q1003 NOSIG=
201807182130 METAR LROP 182130Z 26006KT CAVOK 19/17 Q1003 NOSIG=
201807182200 METAR LROP 182200Z 25006KT CAVOK 18/17 Q1003 NOSIG=
201807182230 METAR LROP 182230Z 24005KT CAVOK 18/17 Q1003 NOSIG=
201807182300 METAR LROP 182300Z 22005KT CAVOK 18/17 Q1003 NOSIG=
201807182330 METAR LROP 182330Z 24006KT CAVOK 18/17 Q1003 NOSIG=
201807190000 METAR LROP 190000Z 25005KT CAVOK 17/16 Q1003 NOSIG=
201807190030 METAR LROP 190030Z 25005KT CAVOK 17/16 Q1003 NOSIG=
201807190100 METAR LROP 190100Z 25006KT CAVOK 17/16 Q1003 NOSIG=
201807190130 METAR LROP 190130Z 24004KT CAVOK 17/16 Q1003 NOSIG=
201807190200 METAR LROP 190200Z 25002KT CAVOK 17/16 Q1003 NOSIG=
201807190230 METAR LROP 190230Z 25004KT CAVOK 17/16 Q1003 NOSIG=
201807190300 METAR LROP 190300Z 26006KT CAVOK 17/16 Q1004 NOSIG=
201807190330 METAR LROP 190330Z 26002KT CAVOK 17/16 Q1004 NOSIG=
201807190400 METAR LROP 190400Z VRB01KT CAVOK 18/17 Q1004 TEMPO 5000 -SHRA=
201807190430 METAR LROP 190430Z 27001KT 9999 FEW050CB 18/17 Q1004 TEMPO
                        5000 -SHRA=
201807190500 METAR LROP 190500Z 29003KT 9999 FEW050CB 19/18 Q1004 TEMPO
                        5000 -SHRA=
201807190530 METAR LROP 190530Z 26003KT 9999 FEW050CB 20/19 Q1004 NOSIG=
201807190600 METAR COR LROP 190600Z 23004KT 200V260 CAVOK 21/18 Q1004
                        NOSIG=
201807190630 METAR LROP 190630Z 25003KT 220V290 CAVOK 22/19 Q1004 NOSIG=
201807190700 METAR LROP 190700Z 29003KT 250V340 9999 -RA NSC 22/19 Q1004
                        NOSIG=
201807190730 METAR LROP 190730Z 24005KT 9999 -RA NSC 22/20 Q1004 NOSIG=
201807190800 METAR LROP 190800Z 23006KT CAVOK 24/19 Q1004 NOSIG=
201807190830 METAR LROP 190830Z 24006KT 220V280 CAVOK 24/19 Q1005 NOSIG=
201807190900 METAR LROP 190900Z 25007KT CAVOK 25/20 Q1005 NOSIG=
201807190930 METAR LROP 190930Z 25006KT 220V290 CAVOK 25/19 Q1005 NOSIG=
201807191000 METAR LROP 191000Z 23004KT 9999 -SHRA FEW032 FEW050CB 24/20
                        Q1005 NOSIG=
201807191030 METAR LROP 191030Z 26007KT 220V290 CAVOK 25/19 Q1005=
201807191100 METAR LROP 191100Z 26006KT 230V290 9999 FEW025 25/19 Q1005
                        NOSIG=
201807191130 METAR LROP 191130Z 25008KT CAVOK 26/19 Q1005 NOSIG=
201807191200 METAR LROP 191200Z 24007KT CAVOK 26/19 Q1005 NOSIG=
201807191230 METAR COR LROP 191230Z 25010KT CAVOK 27/19 Q1005 NOSIG=
201807191300 METAR LROP 191300Z 25008KT 230V290 CAVOK 28/20 Q1005 NOSIG=
201807191330 METAR LROP 191330Z 28009KT 240V310 CAVOK 29/19 Q1005 TEMPO
                        SCT050CB=
201807191400 METAR LROP 191400Z 27006KT 220V310 9999 TS FEW045 FEW050CB
                        27/18 Q1005 TEMPO VRB15G25KT=
201807191430 METAR LROP 191430Z 33007KT 290V040 9999 -TSRA SCT040CB BKN047
                        25/21 Q1005 TEMPO VRB15G25KT 5000
                        TSRA=
201807191500 METAR LROP 191500Z 10011KT 9999 -TSRA FEW040CB BKN045 23/21
                        Q1005 BECMG NSW=
201807191530 METAR LROP 191530Z 16006KT 9999 SCT045 FEW050CB 24/21 Q1005
                        RETS WS ALL RWY R88/19//95 BECMG
                        NSC=
201807191600 METAR LROP 191600Z 17005KT 9999 SCT045CB 25/21 Q1006 WS ALL
                        RWY R88/19//95 NOSIG=
201807191630 METAR LROP 191630Z 23003KT 190V270 9999 -SHRA SCT050CB 24/21
                        Q1006 R88/19//95 NOSIG=
201807191700 METAR COR LROP 191700Z 19003KT 120V230 9999 FEW050CB 23/22
                        Q1006 R88/19//95 NOSIG=
201807191730 METAR LROP 191730Z 15003KT 9999 FEW050CB 23/22 Q1006 RERA
                        R88/CLRD// NOSIG=
201807191800 METAR LROP 191800Z 22004KT 9999 FEW050CB 22/21 Q1006 R88/CLRD//
                        BECMG NSC=
201807191830 METAR LROP 191830Z 00000KT 9999 SCT050CB 22/21 Q1007 R88/CLRD//
                        NOSIG=
201807191900 METAR LROP 191900Z 05006KT 9999 SHRA SCT045CB 23/22 Q1007
                        R88/29//95 NOSIG=
201807191930 METAR LROP 191930Z 12004KT 070V190 9999 -SHRA SCT047CB 22/21
                        Q1007 R88/29//95 NOSIG=
201807192000 METAR LROP 192000Z 13003KT 9999 FEW050CB 21/20 Q1007 R88/29//95
                        BECMG NSC=
201807192030 METAR LROP 192030Z VRB02KT 9999 -SHRA FEW050CB 21/20 Q1007
                        R88/29//95 NOSIG=
201807192100 METAR LROP 192100Z 26007KT 9999 FEW050CB 21/20 Q1007 R88/29//95
                        NOSIG=
201807192130 METAR LROP 192130Z 28005KT 9999 -SHRA FEW048CB 22/21 Q1007
                        R88/29//95 NOSIG=
201807192200 METAR LROP 192200Z 33004KT 280V010 CAVOK 21/20 Q1007 R88/29//95
                        NOSIG=
201807192230 METAR LROP 192230Z 34008KT CAVOK 22/21 Q1007 R88/29//95 NOSIG=
201807192300 METAR LROP 192300Z 32003KT 280V350 CAVOK 21/20 Q1007 R88/29//95
                        NOSIG=
201807192330 METAR LROP 192330Z 03003KT 330V070 CAVOK 21/20 Q1007 R88/29//95
                        NOSIG=
201807200000 METAR LROP 200000Z VRB01KT CAVOK 21/20 Q1007 R88/29//95 NOSIG=
201807200030 METAR LROP 200030Z 08003KT CAVOK 21/20 Q1007 R88/29//95 NOSIG=
201807200100 METAR LROP 200100Z 11004KT 6000 NSC 20/19 Q1007 R88/29//95
                        NOSIG=
201807200130 METAR LROP 200130Z 26005KT 6000 NSC 20/19 Q1007 R88/29//95
                        NOSIG=
201807200200 METAR LROP 200200Z 22003KT 180V240 8000 NSC 20/19 Q1007 R88/29//95
                        NOSIG=
201807200230 METAR LROP 200230Z 27004KT 8000 NSC 20/19 Q1008 R88/29//95
                        NOSIG=
201807200300 METAR LROP 200300Z 27003KT 220V310 CAVOK 20/19 Q1008 R88/29//95
                        NOSIG=
201807200330 METAR LROP 200330Z 26004KT CAVOK 20/19 Q1008 R88/19//95 NOSIG=
201807200400 METAR LROP 200400Z VRB01KT CAVOK 21/20 Q1008 R88/19//95 NOSIG=
201807200430 METAR LROP 200430Z 29002KT CAVOK 21/20 Q1008 R88/19//95 NOSIG=
201807200500 METAR LROP 200500Z 29005KT CAVOK 21/21 Q1008 R88/19//95 NOSIG=
201807200530 METAR LROP 200530Z 28005KT CAVOK 22/21 Q1008 R88/19//95 NOSIG=
201807200600 METAR LROP 200600Z 29004KT CAVOK 23/22 Q1009 R88/19//95 NOSIG=
201807200630 METAR LROP 200630Z 35003KT 320V020 9999 FEW050CB 23/21 Q1009
                        R88/19//95 TEMPO 5000 SHRA SCT035CB=
201807200700 METAR LROP 200700Z 01003KT 330V050 CAVOK 24/21 Q1009 R88/19//95
                        TEMPO 5000 SHRA SCT035CB=
201807200730 METAR LROP 200730Z VRB01KT CAVOK 26/22 Q1009 R88/19//95 NOSIG=
201807200800 METAR LROP 200800Z 33003KT 290V360 CAVOK 26/20 Q1009 R88/CLRD//
                        NOSIG=
201807200830 METAR LROP 200830Z 28003KT 240V320 CAVOK 26/20 Q1009 R88/CLRD//
                        NOSIG=
201807200900 METAR LROP 200900Z VRB02KT CAVOK 28/19 Q1009 NOSIG=
201807200930 METAR LROP 200930Z VRB02KT CAVOK 28/20 Q1009 NOSIG=
201807201000 METAR LROP 201000Z 26004KT 210V280 9999 FEW033 28/19 Q1009
                        NOSIG=
201807201030 METAR LROP 201030Z 26005KT 220V320 9999 FEW033 28/20 Q1009
                        NOSIG=
201807201100 METAR LROP 201100Z VRB04KT 9999 FEW040 29/20 Q1009 NOSIG=
201807201130 METAR LROP 201130Z 23006KT 210V270 9999 FEW042 29/20 Q1008
                        NOSIG=
201807201200 METAR LROP 201200Z 28006KT 240V310 9999 FEW044 29/20 Q1008
                        NOSIG=
201807201230 METAR LROP 201230Z 29008KT 9999 SCT045 31/20 Q1008 NOSIG=
201807201300 METAR LROP 201300Z 27006KT 240V320 9999 SCT045 31/20 Q1008
                        NOSIG=
201807201330 METAR LROP 201330Z 32004KT 280V020 9999 SCT049 30/20 Q1008
                        NOSIG=
201807201400 METAR LROP 201400Z 28005KT 240V330 9999 SCT049 30/20 Q1008
                        NOSIG=
201807201430 METAR LROP 201430Z 30006KT 280V350 9999 FEW048 FEW050CB 30/20
                        Q1008 NOSIG=
201807201500 METAR LROP 201500Z 32005KT 280V360 9999 FEW050CB 30/19 Q1007
                        NOSIG=
201807201530 METAR LROP 201530Z 31008KT 9999 SCT050CB 29/19 Q1008 TEMPO
                        VRB20G30KT 3000 TSRA BKN010 BKN030CB=
201807201600 METAR LROP 201600Z 32005KT 9999 SCT050CB 28/20 Q1008 TEMPO
                        VRB18G28KT 5000 TSRA=
201807201630 METAR LROP 201630Z 31008KT 9999 SCT050CB 25/19 Q1008 NOSIG=
201807201700 METAR LROP 201700Z 29006KT 9999 SCT050CB 25/20 Q1009 NOSIG=
201807201730 METAR LROP 201730Z 16004KT 110V200 9999 FEW050CB 24/19 Q1009
                        NOSIG=
201807201800 METAR LROP 201800Z 21003KT 170V250 9999 VCTS SCT050CB 24/18
                        Q1009 TEMPO VRB15KT 5000 TSRA=
201807201830 METAR LROP 201830Z VRB03KT 9999 VCTS SCT050CB 24/19 Q1009
                        NOSIG=
201807201900 METAR LROP 201900Z 13003KT 090V150 9999 VCTS SCT050CB 23/19
                        Q1010 NOSIG=
201807201930 METAR LROP 201930Z VRB02KT 9999 FEW050CB 23/19 Q1010 BECMG
                        NSC=
201807202000 METAR LROP 202000Z 23004KT CAVOK 22/19 Q1010 NOSIG=
201807202030 METAR LROP 202030Z 28004KT CAVOK 21/20 Q1010 NOSIG=
201807202100 METAR LROP 202100Z 26004KT CAVOK 21/20 Q1010 NOSIG=
201807202130 METAR LROP 202130Z 26003KT 240V300 CAVOK 20/19 Q1010 NOSIG=
201807202200 METAR LROP 202200Z 29005KT CAVOK 20/19 Q1010 NOSIG=
201807202230 METAR LROP 202230Z 25003KT CAVOK 20/19 Q1010 NOSIG=
201807202300 METAR LROP 202300Z 24003KT CAVOK 20/19 Q1010 NOSIG=
201807202330 METAR LROP 202330Z 25004KT CAVOK 20/19 Q1010 NOSIG=
201807210000 METAR LROP 210000Z 26005KT CAVOK 19/19 Q1010 NOSIG=
201807210030 METAR LROP 210030Z 24003KT CAVOK 19/18 Q1010 NOSIG=
201807210100 METAR LROP 210100Z 27002KT CAVOK 19/18 Q1010 NOSIG=
201807210130 METAR LROP 210130Z 25002KT CAVOK 19/18 Q1010 NOSIG=
201807210200 METAR LROP 210200Z 33001KT CAVOK 19/18 Q1010 NOSIG=
201807210230 METAR LROP 210230Z VRB01KT CAVOK 19/18 Q1011 NOSIG=
201807210300 METAR LROP 210300Z 31002KT CAVOK 19/18 Q1011 NOSIG=
201807210330 METAR LROP 210330Z 00000KT CAVOK 19/18 Q1011 NOSIG=
201807210400 METAR LROP 210400Z 33003KT CAVOK 20/19 Q1011 NOSIG=
201807210430 METAR LROP 210430Z 33002KT CAVOK 21/20 Q1011 NOSIG=
201807210500 METAR LROP 210500Z 00000KT CAVOK 24/20 Q1011 NOSIG=
201807210530 METAR LROP 210530Z 11003KT 080V140 CAVOK 25/20 Q1011 NOSIG=
201807210600 METAR LROP 210600Z 11004KT 080V150 CAVOK 26/20 Q1011 NOSIG=
201807210630 METAR LROP 210630Z 11006KT CAVOK 26/19 Q1011 NOSIG=
201807210700 METAR LROP 210700Z 09006KT 050V110 CAVOK 27/19 Q1012 NOSIG=
201807210730 METAR LROP 210730Z 10006KT 070V130 CAVOK 27/19 Q1011 NOSIG=
201807210800 METAR LROP 210800Z 10007KT 9999 FEW034 28/19 Q1012 NOSIG=
201807210830 METAR LROP 210830Z 09005KT 040V110 9999 FEW037 27/19 Q1012
                        NOSIG=
201807210900 METAR LROP 210900Z 14004KT 080V190 9999 SCT036 27/20 Q1012
                        NOSIG=
201807210930 METAR LROP 210930Z 11004KT 030V180 9999 SCT037 28/19 Q1011
                        NOSIG=
201807211000 METAR LROP 211000Z 09006KT 060V160 9999 SCT039 29/20 Q1011
                        NOSIG=
201807211030 METAR LROP 211030Z 16004KT 120V190 9999 SCT040 28/19 Q1011
                        NOSIG=
201807211100 METAR LROP 211100Z 17005KT 110V240 9999 BKN043 30/20 Q1011
                        NOSIG=
201807211130 METAR LROP 211130Z 14006KT 110V170 9999 SCT045 30/20 Q1011
                        NOSIG=
201807211200 METAR LROP 211200Z 12003KT 040V190 9999 BKN044 30/20 Q1011
                        NOSIG=
201807211230 METAR LROP 211230Z 14005KT 9999 FEW040TCU BKN044 29/19 Q1010
                        NOSIG=
201807211300 METAR LROP 211300Z 02006KT 9999 FEW045CB BKN047 29/20 Q1011
                        NOSIG=
201807211330 METAR LROP 211330Z 36013KT 9999 SCT049CB 26/17 Q1011 TEMPO
                        -TSRA=
201807211400 METAR LROP 211400Z 36016KT 9999 SCT044CB 25/18 Q1011 NOSIG=
201807211430 METAR LROP 211430Z 36009KT 9999 FEW050CB 25/19 Q1011 NOSIG=
201807211500 METAR LROP 211500Z 01006KT 9999 FEW055CB 25/19 Q1011 NOSIG=
201807211530 METAR COR LROP 211530Z 32005KT 290V360 9999 -SHRA FEW055CB
                        24/19 Q1011 R88/19//95 NOSIG=
201807211600 METAR LROP 211600Z 19009KT 9999 -SHRA SCT045CB 23/21 Q1012
                        R26L/29//95 R26R/29//95 TEMPO VRB20G30KT
                        5000 TSRA=
201807211630 METAR LROP 211630Z 20007KT 9999 FEW045CB 22/20 Q1011 R26L/29//95
                        R26R/29//95 NOSIG=
201807211700 METAR LROP 211700Z 17003KT CAVOK 23/20 Q1011 R26L/29//95
                        R26R/29//95 NOSIG=
201807211730 METAR LROP 211730Z 19003KT CAVOK 22/20 Q1011 R26L/29//95
                        R26R/29//95 NOSIG=
201807211800 METAR LROP 211800Z 34006KT CAVOK 21/19 Q1011 R26L/19//95
                        R26R/19//95 NOSIG=
201807211830 METAR LROP 211830Z 30004KT CAVOK 21/20 Q1011 R26L/19//95
                        R26R/19//95 NOSIG=
201807211900 METAR LROP 211900Z VRB01KT CAVOK 20/19 Q1011 R26L/19//95
                        R26R/19//95 NOSIG=
201807211930 METAR LROP 211930Z 27002KT CAVOK 20/19 Q1011 R26L/19//95
                        R26R/19//95 NOSIG=
201807212000 METAR LROP 212000Z 30003KT 270V350 CAVOK 20/19 Q1012 R26L/19//95
                        R26R/19//95 NOSIG=
201807212030 METAR LROP 212030Z 23004KT CAVOK 19/19 Q1012 R26L/19//95
                        R26R/19//95 NOSIG=
201807212100 METAR LROP 212100Z 09004KT 030V130 CAVOK 20/19 Q1012 R26L/19//95
                        R26R/19//95 NOSIG=
201807212130 METAR LROP 212130Z 18001KT CAVOK 19/18 Q1012 R26L/19//95
                        R26R/19//95 NOSIG=
201807212200 METAR LROP 212200Z 21001KT CAVOK 19/18 Q1011 R26L/19//95
                        R26R/19//95 NOSIG=
201807212230 METAR LROP 212230Z 00000KT CAVOK 19/18 Q1011 R26L/19//95
                        R26R/19//95 NOSIG=
201807212300 METAR LROP 212300Z 26002KT CAVOK 18/17 Q1011 R26L/19//95
                        R26R/19//95 NOSIG=
201807212330 METAR LROP 212330Z 00000KT CAVOK 18/17 Q1011 R26L/19//95
                        R26R/19//95 NOSIG=
201807220000 METAR LROP 220000Z 00000KT CAVOK 18/17 Q1011 R26L/19//95
                        R26R/19//95 NOSIG=
201807220030 METAR LROP 220030Z 26004KT CAVOK 18/17 Q1011 R26L/19//95
                        R26R/19//95 NOSIG=
201807220100 METAR LROP 220100Z 30004KT CAVOK 18/17 Q1011 R26L/19//95
                        R26R/19//95 NOSIG=
201807220130 METAR LROP 220130Z 34003KT 290V010 CAVOK 18/18 Q1011 R26L/19//95
                        R26R/19//95 NOSIG=
201807220200 METAR LROP 220200Z 29005KT CAVOK 18/17 Q1011 R26L/19//95
                        R26R/19//95 NOSIG=
201807220230 METAR LROP 220230Z 30004KT 9000 MIFG NSC 18/17 Q1010 R26L/19//95
                        R26R/19//95 TEMPO 5000 BR=
201807220300 METAR LROP 220300Z 29004KT 8000 NSC 18/17 Q1011 R26L/19//95
                        R26R/19//95 TEMPO 5000 BR=
201807220330 METAR LROP 220330Z 24004KT 8000 NSC 18/17 Q1011 R26L/19//95
                        R26R/19//95 TEMPO 5000 BR=
201807220400 METAR LROP 220400Z 25003KT 9000 NSC 19/18 Q1011 R88/CLRD//
                        NOSIG=
201807220430 METAR LROP 220430Z 28003KT 260V320 CAVOK 20/19 Q1011 R88/CLRD//
                        NOSIG=
201807220500 METAR LROP 220500Z VRB01KT CAVOK 21/20 Q1011 NOSIG=
201807220530 METAR LROP 220530Z 03003KT 360V080 CAVOK 23/20 Q1011 NOSIG=
201807220600 METAR LROP 220600Z 04003KT 360V070 CAVOK 23/21 Q1011 NOSIG=
201807220630 METAR LROP 220630Z 07004KT 030V100 CAVOK 24/20 Q1011 NOSIG=
201807220700 METAR LROP 220700Z 07004KT 010V130 CAVOK 25/20 Q1011 NOSIG=
201807220730 METAR LROP 220730Z 06003KT 010V130 CAVOK 26/20 Q1011 NOSIG=
201807220800 METAR LROP 220800Z VRB02KT CAVOK 27/20 Q1011 NOSIG=
201807220830 METAR LROP 220830Z 02003KT 290V070 CAVOK 28/21 Q1011 NOSIG=
201807220900 METAR LROP 220900Z VRB03KT CAVOK 29/20 Q1010 NOSIG=
201807220930 METAR LROP 220930Z 11004KT 080V180 CAVOK 29/19 Q1010 NOSIG=
201807221000 METAR LROP 221000Z VRB03KT CAVOK 29/19 Q1009 NOSIG=
201807221030 METAR LROP 221030Z VRB03KT CAVOK 30/20 Q1009 NOSIG=
201807221100 METAR LROP 221100Z 12003KT 070V180 CAVOK 30/21 Q1009 NOSIG=
201807221130 METAR LROP 221130Z 19003KT 130V250 9999 SCT045 31/20 Q1009
                        NOSIG=
201807221200 METAR LROP 221200Z 20005KT 9999 SCT045 FEW050CB 30/19 Q1008
                        NOSIG=
201807221230 METAR LROP 221230Z 24004KT 9999 SCT040 FEW050CB 31/19 Q1008
                        NOSIG=
201807221300 METAR LROP 221300Z 31008G18KT 9999 SCT040 FEW050CB 29/19
                        Q1008 NOSIG=
201807221330 METAR COR LROP 221330Z 36020KT 9999 -TSRA SCT030 SCT040CB
                        25/17 Q1009 R88/29//95 TEMPO 5000
                        TSRA=
201807221400 METAR LROP 221400Z 01008KT 7000 -SHRA FEW010 SCT034 SCT040CB
                        21/19 Q1009 RETSRA R88/29//95 BECMG
                        9999 NSW=
201807221430 METAR LROP 221430Z 03005KT 360V070 9999 FEW034 FEW043CB 24/20
                        Q1008 R88/29//95 NOSIG=
201807221500 METAR LROP 221500Z 07006KT 9999 SCT040 FEW050CB 25/21 Q1008
                        R88/29//95 NOSIG=
201807221530 METAR COR LROP 221530Z 04007KT 010V070 CAVOK 26/18 Q1008
                        R88/CLRD// NOSIG=
201807221600 METAR LROP 221600Z 03007KT CAVOK 25/18 Q1007 NOSIG=
201807221630 METAR LROP 221630Z 03006KT 360V060 CAVOK 25/17 Q1007 NOSIG=
201807221700 METAR LROP 221700Z 01004KT CAVOK 24/18 Q1007 NOSIG=
201807221730 METAR LROP 221730Z 36007KT CAVOK 23/19 Q1007 NOSIG=
201807221800 METAR LROP 221800Z 36005KT CAVOK 22/19 Q1008 NOSIG=
201807221830 METAR LROP 221830Z 02005KT CAVOK 22/19 Q1008 NOSIG=
201807221900 METAR LROP 221900Z 07004KT CAVOK 22/19 Q1008 NOSIG=
201807221930 METAR LROP 221930Z 09003KT CAVOK 21/20 Q1009 TEMPO VRB18KT
                        -TSRA SCT040CB=
201807222000 METAR COR LROP 222000Z 10006KT 9999 FEW055CB 21/20 Q1008
                        TEMPO VRB18KT -TSRA=
201807222030 METAR LROP 222030Z 00000KT 9999 FEW055CB 21/20 Q1008 NOSIG=
201807222100 METAR LROP 222100Z 09007KT 9999 TS FEW055CB 21/20 Q1008 NOSIG=
201807222130 METAR LROP 222130Z 13003KT 080V170 9999 VCTS FEW055CB 21/20
                        Q1007 NOSIG=
201807222200 METAR LROP 222200Z 28005KT CAVOK 20/19 Q1007 RETS NOSIG=
201807222230 METAR LROP 222230Z 29003KT CAVOK 20/19 Q1007 NOSIG=
201807222300 METAR LROP 222300Z 26005KT CAVOK 20/19 Q1007 NOSIG=
201807222330 METAR LROP 222330Z 34003KT 290V010 CAVOK 19/19 Q1008 NOSIG=
201807230000 METAR LROP 230000Z 35005KT 300V010 CAVOK 20/19 Q1007 TEMPO
                        VRB15G25KT 5000 -TSRA SCT040CB=
201807230030 METAR LROP 230030Z 27008KT 9999 FEW050CB 20/19 Q1007 TEMPO
                        VRB15G25KT 5000 -TSRA SCT040CB=
201807230100 METAR LROP 230100Z 30006KT 270V330 9999 TS FEW060CB 20/19
                        Q1007 TEMPO VRB15KT 5000 TSRA=
201807230130 METAR LROP 230130Z 30004KT 280V340 8000 TSRA SCT060CB 20/19
                        Q1007 R26L/29//95 R26R/29//95 TEMPO
                        5000 TSRA=
201807230200 METAR LROP 230200Z 31009KT 9000 TSRA FEW018 SCT050CB 19/18
                        Q1007 R26L/29//95 R26R/29//95 NOSIG=
201807230230 METAR LROP 230230Z 26013KT 9999 -TSRA FEW028 SCT050CB 19/18
                        Q1007 RERA R26L/29//95 R26R/29//95
                        NOSIG=
201807230300 METAR LROP 230300Z 26010KT 9999 -TSRA SCT060CB 19/18 Q1007
                        R26L/29//95 R26R/29//95 NOSIG=
201807230330 METAR LROP 230330Z 26008KT 9999 -SHRA SCT060CB 19/18 Q1007
                        RETS R26L/29//95 R26R/29//95 NOSIG=
201807230400 METAR LROP 230400Z 31006KT 9999 -SHRA SCT050CB 19/18 Q1007
                        R26L/29//95 R26R/29//95 NOSIG=
201807230430 METAR LROP 230430Z 31008KT 9999 -SHRA SCT050CB 19/18 Q1007
                        R26L/29//95 R26R/29//95 NOSIG=
201807230500 METAR LROP 230500Z 01005KT 330V040 9999 -SHRA SCT050CB 19/18
                        Q1006 R26L/29//95 R26R/29//95 NOSIG=
201807230530 METAR LROP 230530Z 36009KT 9999 -SHRA SCT050CB 20/19 Q1006
                        R26L/29//95 R26R/29//95 NOSIG=
201807230600 METAR LROP 230600Z 23003KT 200V260 9999 -SHRA SCT050CB 20/19
                        Q1006 R26L/29//95 R26R/29//95 NOSIG=
201807230630 METAR LROP 230630Z 00000KT 9999 -SHRA SCT050CB 20/19 Q1006
                        R26L/29//95 R26R/29//95 NOSIG=
201807230700 METAR LROP 230700Z 02005KT 9999 -SHRA FEW050CB 21/20 Q1006
                        R26L/29//95 R26R/29//95 NOSIG=
201807230730 METAR LROP 230730Z 08004KT 9999 FEW050CB 22/20 Q1006 R26L/29//95
                        R26R/29//95 NOSIG=
201807230800 METAR LROP 230800Z 03003KT 350V100 9999 FEW050CB 22/20 Q1006
                        R26L/29//95 R26R/29//95 NOSIG=
201807230830 METAR LROP 230830Z 24005KT 9999 FEW050CB 23/21 Q1006 R88/19//95
                        NOSIG=
201807230900 METAR LROP 230900Z 26007KT 9999 FEW050CB 24/21 Q1006 R88/19//95
                        NOSIG=
201807230930 METAR LROP 230930Z 26006KT 9999 FEW050CB 24/21 Q1006 R88/19//95
                        NOSIG=
201807231000 METAR LROP 231000Z 23006KT 190V260 9999 FEW050CB 25/21 Q1006
                        R88/19//95 NOSIG=
201807231030 METAR LROP 231030Z 21006KT 9999 FEW035 FEW050CB 25/21 Q1006
                        R88/19//95 NOSIG=
201807231100 METAR LROP 231100Z 22006KT CAVOK 25/21 Q1006 R88/19//95 NOSIG=
201807231130 METAR LROP 231130Z 23006KT CAVOK 25/20 Q1005 R88/19//95 NOSIG=
201807231200 METAR LROP 231200Z 23006KT 200V270 9999 FEW010 25/20 Q1005
                        R88/19//95 NOSIG=
201807231230 METAR LROP 231230Z 25007KT CAVOK 24/20 Q1005 R88/19//95 NOSIG=
201807231300 METAR LROP 231300Z 26008KT CAVOK 24/20 Q1005 R88/19//95 NOSIG=
201807231330 METAR LROP 231330Z 25006KT CAVOK 24/20 Q1005 R88/CLRD// NOSIG=
201807231400 METAR LROP 231400Z 26005KT CAVOK 24/20 Q1005 NOSIG=
201807231430 METAR LROP 231430Z 27005KT CAVOK 24/20 Q1005 NOSIG=
201807231500 METAR LROP 231500Z 31005KT CAVOK 24/20 Q1005 NOSIG=
201807231530 METAR LROP 231530Z 33004KT 280V360 9999 FEW012 FEW050CB 24/20
                        Q1005 NOSIG=
201807231600 METAR LROP 231600Z 35003KT 310V030 CAVOK 25/20 Q1004 NOSIG=
201807231630 METAR LROP 231630Z VRB02KT CAVOK 23/20 Q1004 NOSIG=
201807231700 METAR LROP 231700Z 33003KT CAVOK 23/20 Q1004 NOSIG=
201807231730 METAR LROP 231730Z 01006KT CAVOK 23/19 Q1005 NOSIG=
201807231800 METAR LROP 231800Z 35004KT CAVOK 23/19 Q1005 NOSIG=
201807231830 METAR LROP 231830Z 32003KT CAVOK 22/19 Q1005 NOSIG=
201807231900 METAR LROP 231900Z VRB02KT CAVOK 21/19 Q1005 NOSIG=
201807231930 METAR LROP 231930Z VRB01KT CAVOK 21/19 Q1005 NOSIG=
201807232000 METAR LROP 232000Z 27001KT CAVOK 21/20 Q1005 NOSIG=
201807232030 METAR LROP 232030Z 30003KT CAVOK 21/20 Q1005 NOSIG=
201807232100 METAR LROP 232100Z 31003KT CAVOK 20/19 Q1005 NOSIG=
201807232130 METAR LROP 232130Z VRB01KT CAVOK 20/19 Q1004 NOSIG=
201807232200 METAR LROP 232200Z 29004KT CAVOK 20/19 Q1004 NOSIG=
201807232230 METAR LROP 232230Z 29004KT CAVOK 20/19 Q1004 NOSIG=
201807232300 METAR LROP 232300Z 28004KT CAVOK 20/19 Q1004 NOSIG=
201807232330 METAR LROP 232330Z 35005KT CAVOK 20/19 Q1004 NOSIG=
201807240000 METAR LROP 240000Z VRB02KT CAVOK 20/19 Q1004 NOSIG=
201807240030 METAR LROP 240030Z 35004KT CAVOK 20/19 Q1004 NOSIG=
201807240100 METAR LROP 240100Z VRB02KT CAVOK 20/19 Q1004 NOSIG=
201807240130 METAR LROP 240130Z VRB01KT CAVOK 20/19 Q1004 NOSIG=
201807240200 METAR LROP 240200Z VRB01KT CAVOK 20/18 Q1004 NOSIG=
201807240230 METAR LROP 240230Z 35003KT 300V050 CAVOK 19/18 Q1003 NOSIG=
201807240300 METAR LROP 240300Z 32003KT 300V030 CAVOK 19/18 Q1004 NOSIG=
201807240330 METAR LROP 240330Z 34002KT CAVOK 20/19 Q1004 NOSIG=
201807240400 METAR LROP 240400Z 00000KT CAVOK 20/19 Q1004 NOSIG=
201807240430 METAR LROP 240430Z 04003KT CAVOK 22/20 Q1004 NOSIG=
201807240500 METAR LROP 240500Z 03004KT 010V070 CAVOK 22/18 Q1004 NOSIG=
201807240530 METAR LROP 240530Z 07003KT CAVOK 22/19 Q1004 NOSIG=
201807240600 METAR LROP 240600Z 06003KT 030V120 CAVOK 23/19 Q1004 NOSIG=
201807240630 METAR LROP 240630Z 02003KT 330V070 CAVOK 23/18 Q1004 NOSIG=
201807240700 METAR LROP 240700Z 04004KT 340V080 CAVOK 24/18 Q1004 NOSIG=
201807240730 METAR LROP 240730Z VRB03KT CAVOK 25/18 Q1004 NOSIG=
201807240800 METAR LROP 240800Z 05003KT 320V130 9999 FEW033 26/18 Q1005
                        NOSIG=
201807240830 METAR LROP 240830Z 08005KT 030V120 9999 FEW040 26/18 Q1005
                        NOSIG=
201807240900 METAR LROP 240900Z 06005KT 020V100 9999 FEW040 26/19 Q1004
                        NOSIG=
201807240930 METAR LROP 240930Z 05005KT 330V110 9999 SCT037 27/19 Q1004
                        NOSIG=
201807241000 METAR LROP 241000Z 31004KT 260V350 9999 SCT038 27/18 Q1004
                        NOSIG=
201807241030 METAR LROP 241030Z VRB04KT 9999 SCT040 FEW050CB 27/19 Q1004
                        NOSIG=
201807241100 METAR LROP 241100Z 36006KT 330V030 9999 SCT035 FEW050CB 27/19
                        Q1004 NOSIG=
201807241130 METAR LROP 241130Z 32011KT 9999 VCTS FEW041 FEW050CB 25/18
                        Q1004 TEMPO VRB15G25KT 5000 -TSRA
                        BKN035CB=
201807241200 METAR LROP 241200Z 31011KT 9999 FEW040 FEW050CB 25/19 Q1004
                        NOSIG=
201807241230 METAR LROP 241230Z 33010KT 9999 FEW040 FEW050CB 26/19 Q1004
                        NOSIG=
201807241300 METAR LROP 241300Z 31009KT 9999 FEW040 26/18 Q1003 NOSIG=
201807241330 METAR LROP 241330Z 30010KT 9999 FEW040 27/20 Q1003 NOSIG=
201807241400 METAR LROP 241400Z 29013KT 9999 FEW040 26/19 Q1003 NOSIG=
201807241430 METAR LROP 241430Z 30011KT CAVOK 26/19 Q1003 NOSIG=
201807241500 METAR LROP 241500Z 29012KT CAVOK 26/18 Q1003 NOSIG=
201807241530 METAR LROP 241530Z 29007KT 9999 FEW050CB 26/18 Q1003 NOSIG=
201807241600 METAR LROP 241600Z 32005KT 290V350 CAVOK 26/18 Q1003 NOSIG=
201807241630 METAR LROP 241630Z 33003KT 280V010 CAVOK 26/19 Q1003 TEMPO
                        5000 TSRA BKN040CB=
201807241700 METAR LROP 241700Z 33004KT 9999 FEW049 FEW050CB 25/19 Q1004
                        TEMPO 5000 TSRA BKN040CB=
201807241730 METAR LROP 241730Z 34005KT 290V360 9999 FEW050CB 25/19 Q1004
                        NOSIG=
201807241800 METAR LROP 241800Z 35008KT 9999 FEW050CB 23/19 Q1004 NOSIG=
201807241830 METAR LROP 241830Z 36007KT 9999 -SHRA FEW046 SCT050CB 22/19
                        Q1005 NOSIG=
201807241900 METAR LROP 241900Z 01006KT 9999 FEW050CB 21/20 Q1004 NOSIG=
201807241930 METAR LROP 241930Z 05005KT 9999 FEW050CB 21/20 Q1005 NOSIG=
201807242000 METAR LROP 242000Z 10003KT 060V140 9999 FEW050CB 21/20 Q1004
                        NOSIG=
201807242030 METAR LROP 242030Z 00000KT CAVOK 21/20 Q1004 NOSIG=
201807242100 METAR LROP 242100Z 36004KT CAVOK 21/20 Q1004 NOSIG=
201807242130 METAR LROP 242130Z 01003KT 340V040 CAVOK 21/19 Q1005 NOSIG=
201807242200 METAR LROP 242200Z 35005KT CAVOK 20/19 Q1005 NOSIG=
201807242230 METAR LROP 242230Z VRB02KT CAVOK 20/19 Q1005 NOSIG=
201807242300 METAR LROP 242300Z VRB01KT 9999 SCT036 20/19 Q1005 NOSIG=
201807242330 METAR LROP 242330Z 02003KT 9999 BKN034 21/19 Q1005 NOSIG=
201807250000 METAR LROP 250000Z 34005KT 290V350 9999 BKN032 21/19 Q1005
                        NOSIG=
201807250030 METAR LROP 250030Z 29004KT 9999 FEW030 BKN039 20/19 Q1005
                        NOSIG=
201807250100 METAR LROP 250100Z 30003KT 280V050 9999 FEW032 20/19 Q1004
                        NOSIG=
201807250130 METAR LROP 250130Z 34004KT 300V360 9999 BKN034 21/20 Q1004
                        NOSIG=
201807250200 METAR LROP 250200Z 30003KT 280V350 9999 BKN036 20/19 Q1004
                        NOSIG=
201807250230 METAR LROP 250230Z 27003KT 9999 FEW030 BKN041 20/19 Q1004
                        NOSIG=
201807250300 METAR LROP 250300Z 32004KT 300V020 9999 FEW031 20/19 Q1005
                        NOSIG=
201807250330 METAR LROP 250330Z 31004KT 280V350 CAVOK 20/19 Q1005 NOSIG=
201807250400 METAR LROP 250400Z 30003KT CAVOK 21/20 Q1005 NOSIG=
201807250430 METAR LROP 250430Z 30004KT 270V330 CAVOK 22/20 Q1005 NOSIG=
201807250500 METAR LROP 250500Z 30005KT CAVOK 22/20 Q1005 NOSIG=
201807250530 METAR LROP 250530Z 30005KT CAVOK 23/20 Q1005 NOSIG=
201807250600 METAR LROP 250600Z 31005KT CAVOK 24/20 Q1005 NOSIG=
201807250630 METAR LROP 250630Z 31004KT 290V360 CAVOK 25/20 Q1006 NOSIG=
201807250700 METAR LROP 250700Z 33004KT CAVOK 25/20 Q1006 NOSIG=
201807250730 METAR LROP 250730Z 30004KT 270V330 9999 BKN049 25/19 Q1006
                        NOSIG=
201807250800 METAR LROP 250800Z 34003KT 290V040 9999 BKN045 25/19 Q1006
                        NOSIG=
201807250830 METAR LROP 250830Z VRB02KT 9999 FEW036 26/19 Q1006 NOSIG=
201807250900 METAR LROP 250900Z 34005KT 300V040 9999 FEW037 27/19 Q1006
                        BECMG FEW040CB=
201807250930 METAR LROP 250930Z VRB03KT 9999 SCT041 27/18 Q1006 BECMG
                        FEW040CB=
201807251000 METAR LROP 251000Z 04005KT 350V120 9999 FEW041CB SCT043 27/19
                        Q1005 NOSIG=
201807251030 METAR LROP 251030Z VRB03KT 9999 FEW035 SCT039CB 28/19 Q1005
                        NOSIG=
201807251100 METAR LROP 251100Z 10011KT 9999 -SHRA SCT045CB BKN047 24/21
                        Q1005 TEMPO 5000 -TSRA=
201807251130 METAR LROP 251130Z 15005KT 9999 FEW030 SCT050CB 23/22 Q1005
                        NOSIG=
201807251200 METAR LROP 251200Z VRB02KT 9999 SCT050CB 26/20 Q1005 NOSIG=
201807251230 METAR LROP 251230Z VRB01KT 9999 FEW050CB 28/20 Q1005 NOSIG=
201807251300 METAR LROP 251300Z 22003KT 170V270 9999 FEW045CB 28/20 Q1004
                        NOSIG=
201807251330 METAR LROP 251330Z 06005KT 9999 FEW040CB SCT042 27/20 Q1005
                        NOSIG=
201807251400 METAR LROP 251400Z 35004KT 290V030 9999 FEW045CB 28/19 Q1005
                        NOSIG=
201807251430 METAR LROP 251430Z 36004KT 310V030 9999 FEW050CB 28/18 Q1005
                        NOSIG=
201807251500 METAR LROP 251500Z 35004KT 300V090 9999 SCT055CB 28/18 Q1005
                        NOSIG=
201807251530 METAR LROP 251530Z 09014KT 9999 TS SCT047CB 27/20 Q1005 TEMPO
                        5000 -TSRA=
201807251600 METAR COR LROP 251600Z 30014G24KT 9999 TSRA BKN030CB 20/19
                        Q1006 R08R/29//95 R08L/29//95 TEMPO
                        5000 TSRA=
201807251630 METAR COR LROP 251630Z 01005KT 9999 -SHRA SCT033CB 20/19
                        Q1006 RETSRA R26L/29//95 R26R/29//95
                        NOSIG=
201807251700 METAR LROP 251700Z 34003KT 280V020 9999 -SHRA SCT050CB 20/19
                        Q1006 R26L/29//95 R26R/29//95 NOSIG=
201807251730 METAR LROP 251730Z 25004KT 9999 -SHRA SCT050CB 20/19 Q1007
                        R26R/29//95 NOSIG=
201807251800 METAR LROP 251800Z 25005KT 9999 -SHRA FEW050CB 20/19 Q1007
                        R26L/29//95 R26R/29//95 NOSIG=
201807251830 METAR LROP 251830Z 26005KT 9999 FEW050CB 20/19 Q1007 R26L/29//95
                        R26R/19//95 NOSIG=
201807251900 METAR LROP 251900Z 26003KT 230V290 CAVOK 20/19 Q1007 R26L/29//95
                        R26R/19//95 NOSIG=
201807251930 METAR LROP 251930Z 32004KT CAVOK 19/19 Q1007 R26L/29//95
                        R26R/19//95 NOSIG=
201807252000 METAR LROP 252000Z 00000KT CAVOK 19/19 Q1007 R26L/CLRD//
                        R26R/CLRD// NOSIG=
201807252030 METAR LROP 252030Z 30004KT CAVOK 19/19 Q1007 NOSIG=
201807252100 METAR LROP 252100Z 29005KT CAVOK 19/19 Q1007 NOSIG=
201807252130 METAR LROP 252130Z 31005KT CAVOK 20/19 Q1007 NOSIG=
201807252200 METAR LROP 252200Z 31005KT CAVOK 19/18 Q1007 NOSIG=
201807252230 METAR LROP 252230Z VRB02KT CAVOK 19/18 Q1007 NOSIG=
201807252300 METAR LROP 252300Z 28003KT 260V320 CAVOK 19/18 Q1007 NOSIG=
201807252330 METAR LROP 252330Z 30002KT CAVOK 19/18 Q1007 NOSIG=
201807260000 METAR LROP 260000Z 23002KT CAVOK 19/18 Q1007 NOSIG=
201807260030 METAR LROP 260030Z 23002KT CAVOK 19/18 Q1007 NOSIG=
201807260100 METAR LROP 260100Z 22002KT CAVOK 19/18 Q1007 NOSIG=
201807260130 METAR LROP 260130Z 23003KT CAVOK 19/18 Q1007 NOSIG=
201807260200 METAR COR LROP 260200Z 25003KT CAVOK 19/18 Q1007 NOSIG=
201807260230 METAR LROP 260230Z 26004KT 9999 BKN046 19/18 Q1008 NOSIG=
201807260300 METAR LROP 260300Z 27002KT 9999 BKN045 19/18 Q1008 R26L/19//95
                        R26R/19//95 NOSIG=
201807260330 METAR LROP 260330Z 23002KT 9999 BKN047 19/18 Q1008 R26L/19//95
                        R26R/19//95 NOSIG=
201807260400 METAR LROP 260400Z 24001KT 9000 BKN047 19/19 Q1008 R26L/19//95
                        R26R/19//95 NOSIG=
201807260430 METAR LROP 260430Z 26004KT 9000 SCT047 20/19 Q1008 R26L/19//95
                        R26R/19//95 NOSIG=
201807260500 METAR LROP 260500Z VRB02KT CAVOK 20/19 Q1008 R26L/19//95
                        R26R/19//95 NOSIG=
201807260530 METAR LROP 260530Z VRB02KT CAVOK 21/20 Q1009 R26L/19//95
                        R26R/19//95 NOSIG=
201807260600 METAR LROP 260600Z 29004KT 250V320 CAVOK 21/20 Q1009 R88/CLRD//
                        NOSIG=
201807260630 METAR COR LROP 260630Z 26005KT 240V300 CAVOK 23/22 Q1009
                        R88/CLRD// NOSIG=
201807260700 METAR LROP 260700Z 25005KT 230V290 CAVOK 24/23 Q1009 R88/CLRD//
                        NOSIG=
201807260730 METAR LROP 260730Z 26006KT 220V280 CAVOK 25/22 Q1009 NOSIG=
201807260800 METAR LROP 260800Z 24006KT 200V270 9999 FEW030 26/22 Q1009
                        NOSIG=
201807260830 METAR LROP 260830Z 24006KT 9999 FEW030 26/21 Q1009 NOSIG=
201807260900 METAR LROP 260900Z 23005KT 190V270 9999 SCT030 27/21 Q1009
                        NOSIG=
201807260930 METAR LROP 260930Z 25005KT 210V280 9999 SCT032 27/21 Q1009
                        NOSIG=
201807261000 METAR LROP 261000Z 27005KT 220V310 9999 SCT032 28/21 Q1009
                        NOSIG=
201807261030 METAR LROP 261030Z 29004KT 220V360 9999 SCT035 28/20 Q1009
                        NOSIG=
201807261100 METAR LROP 261100Z 31003KT 190V360 9999 FEW035 28/18 Q1008
                        NOSIG=
201807261130 METAR LROP 261130Z VRB03KT 9999 FEW035 29/20 Q1008 NOSIG=
201807261200 METAR LROP 261200Z 33005KT 270V010 9999 FEW040 FEW045TCU
                        29/20 Q1008 NOSIG=
201807261230 METAR LROP 261230Z VRB03KT 9999 FEW025 FEW045TCU 29/18 Q1008
                        NOSIG=
201807261300 METAR LROP 261300Z VRB02KT 9999 FEW025 FEW045TCU 28/21 Q1008
                        NOSIG=
201807261330 METAR LROP 261330Z 20003KT 150V230 9999 FEW027 FEW045TCU
                        28/20 Q1008 NOSIG=
201807261400 METAR LROP 261400Z 22003KT 180V240 9999 SCT030 SCT043TCU
                        29/19 Q1008 NOSIG=
201807261430 METAR LROP 261430Z VRB02KT 9999 SCT030 SCT045CB 28/21 Q1008
                        NOSIG=
201807261500 METAR LROP 261500Z 08015G25KT 9999 -SHRA VCTS FEW012 SCT030CB
                        25/22 Q1008 R88/29//95 TEMPO 5000
                        TSRA=
201807261530 METAR LROP 261530Z 08015KT 9999 VCTS FEW010 SCT030CB 25/22
                        Q1009 R88/29//95 NOSIG=
201807261600 METAR LROP 261600Z 08008KT 9999 -TSRA FEW034CB 24/22 Q1009
                        R88/29//95 TEMPO 5000 TSRA=
201807261630 METAR LROP 261630Z 09004KT 9999 FEW045CB SCT048 24/23 Q1009
                        RETS R88/19//95 NOSIG=
201807261700 METAR LROP 261700Z VRB01KT 9999 FEW050CB 23/22 Q1010 R88/19//95
                        NOSIG=
201807261730 METAR LROP 261730Z 13002KT 9999 SCT042 23/22 Q1010 R88/19//95
                        NOSIG=
201807261800 METAR LROP 261800Z 27006KT 9999 SCT044 23/22 Q1010 R88/19//95
                        NOSIG=
201807261830 METAR LROP 261830Z 26004KT CAVOK 22/21 Q1010 R88/19//95 NOSIG=
201807261900 METAR LROP 261900Z 32003KT CAVOK 22/21 Q1010 R88/19//95 NOSIG=
201807261930 METAR LROP 261930Z 00000KT CAVOK 21/20 Q1010 R88/19//95 NOSIG=
201807262000 METAR LROP 262000Z 00000KT CAVOK 21/20 Q1010 R88/19//95 NOSIG=
201807262030 METAR LROP 262030Z 25003KT CAVOK 21/20 Q1010 R88/19//95 NOSIG=
201807262100 METAR LROP 262100Z 26004KT CAVOK 21/20 Q1010 R88/19//95 NOSIG=
201807262130 METAR LROP 262130Z 29006KT CAVOK 21/20 Q1010 R88/19//95 NOSIG=
201807262200 METAR LROP 262200Z VRB01KT CAVOK 20/19 Q1010 R88/CLRD// NOSIG=
201807262230 METAR LROP 262230Z 27005KT CAVOK 20/19 Q1010 NOSIG=
201807262300 METAR LROP 262300Z 25004KT 8000 NSC 20/19 Q1010 NOSIG=
201807262330 METAR LROP 262330Z 23004KT 200V260 8000 NSC 20/20 Q1010 NOSIG=
201807270000 METAR LROP 270000Z 23003KT 210V270 8000 NSC 21/20 Q1010 NOSIG=
201807270030 METAR LROP 270030Z 25003KT 8000 NSC 20/19 Q1010 NOSIG=
201807270100 METAR LROP 270100Z 24003KT 210V280 8000 NSC 20/19 Q1010 NOSIG=
201807270130 METAR LROP 270130Z 29001KT 9999 FEW049 20/19 Q1010 NOSIG=
201807270200 METAR LROP 270200Z VRB02KT CAVOK 20/19 Q1010 NOSIG=
201807270230 METAR LROP 270230Z 28003KT CAVOK 20/19 Q1010 NOSIG=
201807270300 METAR LROP 270300Z 25002KT 7000 NSC 20/19 Q1010 TEMPO 5000
                        BR=
201807270330 METAR LROP 270330Z 22001KT 6000 NSC 20/19 Q1010 TEMPO 5000
                        BR=
201807270400 METAR COR LROP 270400Z VRB02KT 7000 NSC 21/20 Q1010 NOSIG=
201807270430 METAR LROP 270430Z 10003KT 7000 FEW006 21/21 Q1011 NOSIG=
201807270500 METAR LROP 270500Z 11003KT 070V150 8000 FEW005 22/21 Q1011
                        NOSIG=
201807270530 METAR LROP 270530Z 15006KT 120V180 CAVOK 24/22 Q1010 NOSIG=
201807270600 METAR LROP 270600Z 14005KT 110V180 9999 FEW012 25/22 Q1011
                        NOSIG=
201807270630 METAR LROP 270630Z 19003KT 170V240 9999 BKN014 25/22 Q1011
                        NOSIG=
201807270700 METAR LROP 270700Z 08004KT 060V230 9999 FEW017 BKN020 24/21
                        Q1011 NOSIG=
201807270730 METAR LROP 270730Z VRB03KT CAVOK 25/22 Q1011 NOSIG=
201807270800 METAR LROP 270800Z VRB03KT CAVOK 26/22 Q1011 NOSIG=
201807270830 METAR LROP 270830Z 04003KT 340V090 9999 FEW025 26/22 Q1011
                        NOSIG=
201807270900 METAR LROP 270900Z VRB03KT 9999 SCT027 26/22 Q1011 NOSIG=
201807270930 METAR LROP 270930Z 26004KT 230V290 9999 FEW025 FEW060TCU
                        27/21 Q1010 TEMPO SCT050CB=
201807271000 METAR LROP 271000Z 31005KT 9999 SCT027 FEW055CB 27/22 Q1010
                        NOSIG=
201807271030 METAR LROP 271030Z 34007KT 9999 FEW015 FEW050CB 27/21 Q1010
                        NOSIG=
201807271100 METAR COR LROP 271100Z 11006KT 070V130 9999 -TSRA FEW037
                        SCT050CB 24/20 Q1010 R88/19//95 TEMPO
                        5000 TSRA=
201807271130 METAR LROP 271130Z 11008KT 9999 -SHRA FEW030 SCT050CB 24/22
                        Q1010 RETS R88/19//95 NOSIG=
201807271200 METAR LROP 271200Z 08009KT 9999 FEW028 FEW049CB 24/22 Q1010
                        R88/29//95 NOSIG=
201807271230 METAR LROP 271230Z 09009KT 9999 FEW050CB 24/22 Q1010 R88/29//95
                        NOSIG=
201807271300 METAR LROP 271300Z 07010KT 9999 FEW034 FEW050CB 25/22 Q1010
                        R88/19//95 NOSIG=
201807271330 METAR COR LROP 271330Z 06010KT 9999 FEW050CB 25/20 Q1010
                        R88/19//95 NOSIG=
201807271400 METAR LROP 271400Z 07009KT 9999 FEW023 FEW050CB 25/21 Q1010
                        R88/19//95 NOSIG=
201807271430 METAR LROP 271430Z 09006KT 9999 FEW050CB 25/21 Q1010 R88/CLRD//
                        NOSIG=
201807271500 METAR LROP 271500Z 08007KT 9999 BKN025 FEW050CB 25/21 Q1010
                        NOSIG=
201807271530 METAR LROP 271530Z 08007KT 9999 FEW024 FEW050CB 25/21 Q1010
                        NOSIG=
201807271600 METAR LROP 271600Z 08007KT 9999 FEW025 FEW050CB 25/22 Q1010
                        NOSIG=
201807271630 METAR LROP 271630Z 08004KT 9999 FEW025 FEW050CB 25/22 Q1010
                        NOSIG=
201807271700 METAR LROP 271700Z 05008KT 9999 SCT025 FEW050CB 25/21 Q1010
                        NOSIG=
201807271730 METAR LROP 271730Z 05006KT 9999 FEW050CB 24/21 Q1010 NOSIG=
201807271800 METAR LROP 271800Z 04004KT 9999 FEW050CB 24/21 Q1011 NOSIG=
201807271830 METAR COR LROP 271830Z 02003KT CAVOK 24/22 Q1011 NOSIG=
201807271900 METAR LROP 271900Z 31003KT CAVOK 23/22 Q1011 NOSIG=
201807271930 METAR LROP 271930Z 32004KT CAVOK 23/22 Q1010 NOSIG=
201807272000 METAR LROP 272000Z 33006KT CAVOK 22/21 Q1010 NOSIG=
201807272030 METAR LROP 272030Z 31004KT CAVOK 22/21 Q1010 NOSIG=
201807272100 METAR LROP 272100Z 29004KT 270V330 CAVOK 21/20 Q1010 NOSIG=
201807272130 METAR LROP 272130Z 25003KT 9999 FEW030 21/20 Q1010 NOSIG=
201807272200 METAR LROP 272200Z 31004KT 280V350 9999 FEW034 21/20 Q1010
                        NOSIG=
201807272230 METAR LROP 272230Z 30004KT CAVOK 21/20 Q1009 NOSIG=
201807272300 METAR LROP 272300Z 31004KT CAVOK 20/19 Q1009 NOSIG=
201807272330 METAR LROP 272330Z 28004KT CAVOK 20/19 Q1010 NOSIG=
201807280000 METAR LROP 280000Z 29004KT CAVOK 20/19 Q1010 NOSIG=
201807280030 METAR LROP 280030Z 30003KT CAVOK 20/19 Q1009 NOSIG=
201807280100 METAR LROP 280100Z 30004KT 270V330 CAVOK 20/19 Q1009 NOSIG=
201807280130 METAR LROP 280130Z 30004KT CAVOK 20/19 Q1009 NOSIG=
201807280200 METAR LROP 280200Z 29003KT 260V320 9999 FEW048 19/18 Q1009
                        NOSIG=
201807280230 METAR LROP 280230Z 30003KT CAVOK 19/18 Q1009 NOSIG=
201807280300 METAR LROP 280300Z VRB02KT CAVOK 19/18 Q1009 NOSIG=
201807280330 METAR LROP 280330Z 27004KT CAVOK 19/19 Q1009 NOSIG=
201807280400 METAR LROP 280400Z 25002KT CAVOK 20/19 Q1009 NOSIG=
201807280430 METAR LROP 280430Z 28004KT CAVOK 20/19 Q1009 NOSIG=
201807280500 METAR LROP 280500Z 27003KT CAVOK 21/20 Q1009 NOSIG=
201807280530 METAR LROP 280530Z 26005KT CAVOK 22/21 Q1009 NOSIG=
201807280600 METAR LROP 280600Z 28004KT 250V310 9999 FEW037 23/21 Q1009
                        NOSIG=
201807280630 METAR LROP 280630Z 32003KT 290V010 9999 SCT037 23/20 Q1009
                        NOSIG=
201807280700 METAR LROP 280700Z 29003KT 250V320 9999 SCT041 24/20 Q1009
                        NOSIG=
201807280730 METAR LROP 280730Z VRB01KT 9999 -RA SCT041 24/21 Q1009 NOSIG=
201807280800 METAR LROP 280800Z 25004KT 9999 SCT041 26/22 Q1009 NOSIG=
201807280830 METAR LROP 280830Z 24006KT 9999 FEW041 27/22 Q1009 NOSIG=
201807280900 METAR LROP 280900Z 26006KT 230V290 9999 FEW033TCU 28/21 Q1009
                        NOSIG=
201807280930 METAR LROP 280930Z 27004KT 210V350 9999 FEW035 SCT047 28/19
                        Q1009 NOSIG=
201807281000 METAR LROP 281000Z VRB03KT 9999 SCT035 29/21 Q1009 NOSIG=
201807281030 METAR LROP 281030Z 26005KT 220V310 9999 BKN034 29/20 Q1009
                        NOSIG=
201807281100 METAR LROP 281100Z 27006KT 9999 BKN035 28/21 Q1008 NOSIG=
201807281130 METAR LROP 281130Z 23008KT 200V260 9999 SCT037 30/21 Q1008
                        NOSIG=
201807281200 METAR LROP 281200Z 25007KT 210V270 9999 SCT037 29/20 Q1008
                        NOSIG=
201807281230 METAR LROP 281230Z 25006KT 220V280 9999 SCT037 30/21 Q1008
                        NOSIG=
201807281300 METAR LROP 281300Z 25006KT 9999 SCT040 30/20 Q1007 NOSIG=
201807281330 METAR LROP 281330Z 27007KT 240V310 9999 SCT042 30/20 Q1008
                        NOSIG=
201807281400 METAR LROP 281400Z 24006KT 210V290 9999 SCT045 30/20 Q1008
                        NOSIG=
201807281430 METAR LROP 281430Z 24006KT 9999 SCT046 30/20 Q1008 NOSIG=
201807281500 METAR LROP 281500Z 24005KT 9999 SCT045 30/20 Q1008 NOSIG=
201807281530 METAR LROP 281530Z 27007KT 9999 SCT045 29/20 Q1008 NOSIG=
201807281600 METAR LROP 281600Z 27007KT 9999 FEW050TCU 29/20 Q1008 NOSIG=
201807281630 METAR LROP 281630Z 28005KT 9999 FEW050TCU 29/20 Q1008 NOSIG=
201807281700 METAR LROP 281700Z 29004KT 9999 VCTS FEW047CB 28/21 Q1008
                        TEMPO VRB18KT TSRA=
201807281730 METAR LROP 281730Z 09008KT 9999 BKN043 FEW050CB 26/20 Q1009
                        TEMPO VRB18KT TSRA=
201807281800 METAR LROP 281800Z 14005KT 110V170 9999 FEW044 FEW050CB 25/21
                        Q1009 TEMPO 5000 -SHRA SCT045CB=
201807281830 METAR LROP 281830Z 13004KT 100V170 9999 FEW043 FEW050CB 24/21
                        Q1009 NOSIG=
201807281900 METAR LROP 281900Z 02005KT 9999 FEW050CB 24/21 Q1009 NOSIG=
201807281930 METAR LROP 281930Z VRB01KT CAVOK 23/21 Q1009 NOSIG=
201807282000 METAR LROP 282000Z VRB01KT CAVOK 23/21 Q1009 NOSIG=
201807282030 METAR LROP 282030Z VRB01KT CAVOK 23/21 Q1009 NOSIG=
201807282100 METAR LROP 282100Z 31002KT CAVOK 22/21 Q1009 NOSIG=
201807282130 METAR LROP 282130Z 31003KT CAVOK 22/21 Q1009 NOSIG=
201807282200 METAR LROP 282200Z 33003KT 280V360 CAVOK 22/20 Q1009 NOSIG=
201807282230 METAR LROP 282230Z 26003KT 220V320 CAVOK 21/20 Q1009 NOSIG=
201807282300 METAR LROP 282300Z 29004KT CAVOK 21/20 Q1009 NOSIG=
201807282330 METAR LROP 282330Z 34003KT 290V020 9999 FEW044 21/20 Q1009
                        NOSIG=
201807290000 METAR LROP 290000Z 30004KT 9999 SCT043 21/20 Q1009 NOSIG=
201807290030 METAR LROP 290030Z 32003KT 280V360 CAVOK 21/20 Q1008 NOSIG=
201807290100 METAR LROP 290100Z 29004KT CAVOK 20/19 Q1008 NOSIG=
201807290130 METAR LROP 290130Z 27004KT CAVOK 20/19 Q1008 NOSIG=
201807290200 METAR LROP 290200Z 35003KT 320V020 CAVOK 20/19 Q1008 NOSIG=
201807290230 METAR LROP 290230Z VRB01KT CAVOK 20/19 Q1008 NOSIG=
201807290300 METAR LROP 290300Z 02003KT 330V050 CAVOK 20/19 Q1008 NOSIG=
201807290330 METAR LROP 290330Z 02003KT CAVOK 20/19 Q1009 NOSIG=
201807290400 METAR LROP 290400Z 34003KT 320V020 CAVOK 21/20 Q1009 NOSIG=
201807290430 METAR LROP 290430Z 31003KT 270V340 CAVOK 21/20 Q1009 NOSIG=
201807290500 METAR LROP 290500Z VRB02KT CAVOK 22/21 Q1009 NOSIG=
201807290530 METAR LROP 290530Z VRB02KT CAVOK 23/20 Q1009 NOSIG=
201807290600 METAR LROP 290600Z 07004KT 040V110 CAVOK 25/20 Q1009 NOSIG=
201807290630 METAR LROP 290630Z 09007KT 050V120 CAVOK 26/21 Q1009 NOSIG=
201807290700 METAR LROP 290700Z 10005KT 070V140 CAVOK 26/21 Q1009 NOSIG=
201807290730 METAR LROP 290730Z 12004KT 070V150 CAVOK 26/21 Q1010 NOSIG=
201807290800 METAR LROP 290800Z 08003KT 340V120 9999 FEW020 27/22 Q1010
                        NOSIG=
201807290830 METAR LROP 290830Z VRB03KT 9999 FEW030 27/20 Q1009 NOSIG=
201807290900 METAR LROP 290900Z VRB02KT 9999 FEW033 28/20 Q1009 NOSIG=
201807290930 METAR LROP 290930Z VRB02KT 9999 SCT032 29/21 Q1009 BECMG
                        SCT030CB=
201807291000 METAR LROP 291000Z VRB01KT 9999 SCT035 29/19 Q1009 BECMG
                        SCT030CB=
201807291030 METAR LROP 291030Z 30003KT 240V010 9999 SCT043 29/19 Q1009
                        BECMG SCT030CB=
201807291100 METAR LROP 291100Z 28004KT 230V300 9999 SCT042 29/19 Q1008
                        TEMPO 5000 -TSRA SCT040CB=
201807291130 METAR LROP 291130Z VRB03KT 9999 FEW045CB SCT046 29/19 Q1008
                        TEMPO 5000 -TSRA=
201807291200 METAR LROP 291200Z 36003KT 310V050 9999 FEW041CB 30/21 Q1008
                        TEMPO 5000 -TSRA=
201807291230 METAR LROP 291230Z VRB03KT 9999 FEW040CB SCT043 29/21 Q1008
                        TEMPO 5000 -TSRA=
201807291300 METAR LROP 291300Z VRB02KT 9999 FEW045CB 31/21 Q1007 NOSIG=
201807291330 METAR LROP 291330Z VRB02KT 9999 FEW050CB 31/19 Q1008 NOSIG=
201807291400 METAR LROP 291400Z VRB02KT 9999 FEW050CB 31/19 Q1007 TEMPO
                        5000 -TSRA=
201807291430 METAR LROP 291430Z VRB02KT 9999 FEW050CB 31/18 Q1007 TEMPO
                        5000 -TSRA=
201807291500 METAR LROP 291500Z 36006KT 9999 SCT047CB 30/19 Q1007 TEMPO
                        5000 -TSRA=
201807291530 METAR LROP 291530Z 09011KT 9999 FEW028 BKN048CB 27/20 Q1008
                        TEMPO 5000 -TSRA=
201807291600 METAR LROP 291600Z 07011KT 9999 VCTS BKN033CB 28/20 Q1008
                        TEMPO VRB20KT 5000 TSRA=
201807291630 METAR LROP 291630Z 08011KT 9999 -TSRA SCT046CB 25/20 Q1009
                        TEMPO VRB18KT 5000 TSRA=
201807291700 METAR LROP 291700Z 03008KT 350V050 9999 -TSRA SCT043CB 24/21
                        Q1009 R88/29//95 TEMPO VRB20KT 5000
                        -TSRA=
201807291730 METAR LROP 291730Z 02005KT 350V050 8000 TSRA SCT036CB 23/22
                        Q1009 R88/29//95 BECMG -TSRA=
201807291800 METAR LROP 291800Z VRB01KT 8000 TSRA SCT036CB 22/22 Q1010
                        R88/29//95 BECMG -TSRA=
201807291830 METAR LROP 291830Z 16003KT 9999 SHRA SCT040CB 22/21 Q1010
                        RETSRA R88/29//95 BECMG -TSRA=
201807291900 METAR LROP 291900Z 17002KT 9999 -SHRA SCT040CB 22/21 Q1010
                        RESHRA R88/29//95 NOSIG=
201807291930 METAR LROP 291930Z 00000KT 9999 -SHRA FEW050CB 22/21 Q1010
                        R88/29//95 NOSIG=
201807292000 METAR LROP 292000Z 35003KT 330V040 9999 FEW050CB 22/21 Q1010
                        R88/29//95 NOSIG=
201807292030 METAR LROP 292030Z VRB02KT CAVOK 22/21 Q1010 R88/29//95 NOSIG=
201807292100 METAR LROP 292100Z 33004KT CAVOK 22/21 Q1010 R88/29//95 NOSIG=
201807292130 METAR LROP 292130Z 32003KT 280V360 CAVOK 22/21 Q1009 R88/29//95
                        NOSIG=
201807292200 METAR LROP 292200Z VRB01KT CAVOK 21/21 Q1009 R88/29//95 NOSIG=
201807292230 METAR LROP 292230Z 36003KT 330V030 CAVOK 21/21 Q1010 R88/29//95
                        NOSIG=
201807292300 METAR LROP 292300Z VRB01KT 8000 NSC 21/20 Q1009 R88/19//95
                        TEMPO 5000 BR=
201807292330 METAR LROP 292330Z VRB01KT 8000 SCT039 21/20 Q1010 R88/19//95
                        TEMPO 5000 BR=
201807300000 METAR COR LROP 300000Z VRB01KT 9999 SCT041 21/20 Q1010 R88/19//95
                        TEMPO 5000 BR=
201807300030 METAR LROP 300030Z AUTO 00000KT 9000 BKN045/// 21/20 Q1010
                        TEMPO 5000 BR=
201807300100 METAR LROP 300100Z 00000KT 9999 SCT047 21/20 Q1010 R88/19//95
                        TEMPO 5000 BR=
201807300130 METAR LROP 300130Z 06004KT 9000 NSC 21/20 Q1010 R88/19//95
                        TEMPO 5000 BR=
201807300200 METAR LROP 300200Z 04003KT 7000 FEW001 21/20 Q1010 R88/19//95
                        TEMPO 3000 BR=
201807300230 METAR LROP 300230Z 03003KT 6000 R08R/P2000 R26L/2000 R08L/P2000
                        R26R/1000N MIFG FEW001 21/20 Q1010
                        R88/19//95 TEMPO 3000 BR=
201807300300 METAR LROP 300300Z VRB02KT 5000 BR FEW001 21/20 Q1010 R88/19//95
                        TEMPO 3000 BR=
201807300330 METAR LROP 300330Z 28004KT 7000 FEW042 20/20 Q1010 R88/19//95
                        TEMPO 3000 BR=
201807300400 METAR LROP 300400Z 28003KT 250V310 8000 FEW042 21/20 Q1010
                        R88/19//95 NOSIG=
201807300430 METAR LROP 300430Z 28004KT 9000 NSC 21/20 Q1010 R88/19//95
                        NOSIG=
201807300500 METAR LROP 300500Z 29004KT 9000 SCT033 22/21 Q1010 R88/19//95
                        NOSIG=
201807300530 METAR LROP 300530Z 29004KT 9999 SCT035 22/21 Q1010 R88/19//95
                        NOSIG=
201807300600 METAR LROP 300600Z 26004KT 9999 SCT039 FEW050CB 22/21 Q1010
                        R88/CLRD// NOSIG=
201807300630 METAR LROP 300630Z 28004KT 9999 SCT043 22/22 Q1011 R88/CLRD//
                        NOSIG=
201807300700 METAR LROP 300700Z 28004KT CAVOK 24/23 Q1011 R88/CLRD// NOSIG=
201807300730 METAR LROP 300730Z 26004KT 230V290 CAVOK 25/23 Q1011 R88/CLRD//
                        NOSIG=
201807300800 METAR LROP 300800Z 22003KT 150V270 CAVOK 26/22 Q1011 NOSIG=
201807300830 METAR LROP 300830Z VRB04KT 9999 FEW021 SCT049 26/22 Q1011
                        NOSIG=
201807300900 METAR LROP 300900Z 31004KT 260V010 9999 SCT028 27/22 Q1011
                        NOSIG=
201807300930 METAR LROP 300930Z VRB03KT 9999 FEW033 SCT049 28/21 Q1011
                        NOSIG=
201807301000 METAR LROP 301000Z 34006KT 320V020 9999 -SHRA FEW040CB SCT045
                        27/21 Q1011 NOSIG=
201807301030 METAR LROP 301030Z 05006KT 020V110 9999 SCT045 27/20 Q1011
                        NOSIG=
201807301100 METAR COR LROP 301100Z 02008KT 020V110 9999 FEW040CB SCT045
                        28/21 Q1010 NOSIG=
201807301130 METAR LROP 301130Z 01006KT 340V040 3000 +SHRA FEW023 BKN035CB
                        24/22 Q1011 R88/29//95 BECMG 9999
                        NSW=
201807301200 METAR LROP 301200Z 27003KT 9999 -SHRA FEW045CB 23/22 Q1010
                        RERA R88/29//95 BECMG NSC=
201807301230 METAR LROP 301230Z 27004KT 9999 FEW048CB 24/23 Q1010 R88/29//95
                        NOSIG=
201807301300 METAR LROP 301300Z 34003KT 300V020 9999 FEW050CB 25/24 Q1010
                        R88/29//95 NOSIG=
201807301330 METAR LROP 301330Z 06006KT 9999 FEW050CB 26/25 Q1010 R26L/29//95
                        R26R/19//95 NOSIG=
201807301400 METAR LROP 301400Z 05005KT 9999 FEW047TCU 26/25 Q1010 R26L/29//95
                        R26R/19//95 NOSIG=
201807301430 METAR LROP 301430Z 01010KT 9999 FEW043 FEW047TCU 29/21 Q1010
                        R08R/29//95 R08L/19//95 NOSIG=
201807301500 METAR LROP 301500Z 36009KT 9999 -SHRA FEW031 FEW045CB 27/21
                        Q1010 RERA R08R/29//95 R08L/19//95
                        NOSIG=
201807301530 METAR COR LROP 301530Z 01008KT 9999 FEW034 FEW045CB 28/21
                        Q1010 R88/CLRD// R08L/19//95 TEMPO
                        5000 -TSRA=
201807301600 METAR LROP 301600Z 01009KT 9999 FEW050CB 26/20 Q1010 R88/CLRD//
                        TEMPO 5000 -TSRA=
201807301630 METAR LROP 301630Z 02009KT 9999 FEW050CB 25/20 Q1010 R88/CLRD//
                        NOSIG=
201807301700 METAR LROP 301700Z 02007KT 9999 FEW050CB 26/20 Q1010 NOSIG=
201807301730 METAR LROP 301730Z 10004KT 9999 FEW050CB 25/22 Q1011 NOSIG=
201807301800 METAR LROP 301800Z 10003KT 9999 VCTS FEW037CB 24/22 Q1011
                        TEMPO 5000 -TSRA=
201807301830 METAR LROP 301830Z 07008KT 9999 TS BKN028CB 24/22 Q1012 TEMPO
                        5000 -TSRA=
201807301900 METAR LROP 301900Z 10005KT 9999 FEW021CB 23/20 Q1012 RETS
                        NOSIG=
201807301930 METAR LROP 301930Z 10003KT 9999 FEW045CB 23/20 Q1012 NOSIG=
201807302000 METAR LROP 302000Z 03004KT 360V060 CAVOK 23/21 Q1012 NOSIG=
201807302030 METAR LROP 302030Z 06004KT CAVOK 23/20 Q1012 NOSIG=
201807302100 METAR LROP 302100Z 05005KT CAVOK 22/20 Q1012 NOSIG=
201807302130 METAR LROP 302130Z 09003KT CAVOK 22/20 Q1012 NOSIG=
201807302200 METAR LROP 302200Z VRB02KT CAVOK 21/20 Q1012 NOSIG=
201807302230 METAR LROP 302230Z 02004KT CAVOK 22/20 Q1012 NOSIG=
201807302300 METAR LROP 302300Z 01003KT CAVOK 22/20 Q1012 NOSIG=
201807302330 METAR LROP 302330Z 02004KT 360V060 CAVOK 20/19 Q1012 NOSIG=
201807310000 METAR LROP 310000Z 36005KT CAVOK 21/20 Q1012 NOSIG=
201807310030 METAR LROP 310030Z 35004KT CAVOK 21/20 Q1012 NOSIG=
201807310100 METAR LROP 310100Z 26003KT 230V310 CAVOK 20/19 Q1012 NOSIG=
201807310130 METAR LROP 310130Z VRB02KT CAVOK 20/19 Q1012 NOSIG=
201807310200 METAR LROP 310200Z 26003KT CAVOK 20/19 Q1012 NOSIG=
201807310230 METAR LROP 310230Z 29002KT CAVOK 20/19 Q1012 NOSIG=
201807310300 METAR LROP 310300Z VRB01KT CAVOK 20/19 Q1012 NOSIG=
201807310330 METAR LROP 310330Z 00000KT CAVOK 20/19 Q1012 NOSIG=
201807310400 METAR LROP 310400Z VRB01KT CAVOK 21/20 Q1012 NOSIG=
201807310430 METAR LROP 310430Z 27003KT 250V330 CAVOK 21/20 Q1012 NOSIG=
201807310500 METAR LROP 310500Z VRB02KT CAVOK 21/21 Q1012 NOSIG=
201807310530 METAR LROP 310530Z 27003KT CAVOK 22/21 Q1013 NOSIG=
201807310600 METAR LROP 310600Z 31003KT CAVOK 23/22 Q1012 NOSIG=
201807310630 METAR LROP 310630Z 31003KT CAVOK 24/22 Q1013 NOSIG=
201807310700 METAR LROP 310700Z VRB02KT CAVOK 24/22 Q1013 NOSIG=
201807310730 METAR LROP 310730Z 31004KT 280V360 CAVOK 25/22 Q1013 NOSIG=
201807310800 METAR LROP 310800Z 30004KT 250V340 CAVOK 26/21 Q1013 NOSIG=
201807310830 METAR LROP 310830Z 30004KT 250V340 CAVOK 27/21 Q1013 NOSIG=
201807310900 METAR LROP 310900Z 32004KT 250V020 9999 FEW035 27/23 Q1013
                        NOSIG=
201807310930 METAR LROP 310930Z 34005KT 240V020 9999 SCT035 27/21 Q1013
                        NOSIG=
201807311000 METAR LROP 311000Z VRB04KT 9999 SCT037 28/21 Q1013 NOSIG=
201807311030 METAR LROP 311030Z VRB04KT 9999 BKN036 28/20 Q1013 NOSIG=
201807311100 METAR LROP 311100Z 34003KT 9999 BKN036 29/20 Q1012 NOSIG=
201807311130 METAR LROP 311130Z 09005KT 350V150 9999 SCT038 29/21 Q1012
                        NOSIG=
201807311200 METAR LROP 311200Z 06004KT 350V130 9999 FEW037 29/20 Q1012
                        NOSIG=
201807311230 METAR LROP 311230Z 05004KT 360V090 9999 SCT040 29/21 Q1012
                        NOSIG=
201807311300 METAR LROP 311300Z 09004KT 050V130 9999 BKN039 30/21 Q1012
                        NOSIG=
201807311330 METAR COR LROP 311330Z 05005KT 010V100 9999 SCT040 FEW050CB
                        30/20 Q1011 TEMPO TS SCT040CB=
201807311400 METAR LROP 311400Z 09018KT 3000 TSRA BKN038CB 24/21 Q1012
                        R88/29//95 TEMPO 1500 +TSRA=
201807311430 METAR COR LROP 311430Z 34004KT 300V020 9999 -TSRA FEW034
                        BKN039CB 22/22 Q1011 RESHRA WS ALL
                        RWY R88/29//95 BECMG NSW=
201807311500 METAR LROP 311500Z 30008KT 280V340 9999 BKN033 SCT040CB 23/22
                        Q1012 RETS WS ALL RWY R88/29//95
                        BECMG NSW=
201807311530 METAR LROP 311530Z 31006KT 9999 SCT032 BKN050CB 23/22 Q1012
                        WS ALL RWY R88/29//95 BECMG NSC=
201807311600 METAR LROP 311600Z 33006KT 9999 BKN032 BKN050CB 23/22 Q1012
                        WS ALL RWY R88/19//95 BECMG NSC=
201807311630 METAR LROP 311630Z 32004KT 9999 BKN032 SCT050CB 23/22 Q1013
                        WS ALL RWY R88/19//95 BECMG NSC=
201807311700 METAR LROP 311700Z 33006KT 9999 BKN037 SCT050CB 23/22 Q1013
                        WS ALL RWY R88/19//95 NOSIG=
201807311730 METAR LROP 311730Z 34005KT 310V010 9999 SCT031 SCT050CB 22/21
                        Q1013 WS ALL RWY R88/19//95 NOSIG=
201807311800 METAR LROP 311800Z 29006KT 9999 SCT031 FEW050CB 22/21 Q1013
                        WS ALL RWY R88/19//95 NOSIG=
201807311830 METAR LROP 311830Z 30008KT 9999 SCT045 FEW050CB 22/21 Q1013
                        WS ALL RWY R88/19//95 NOSIG=
201807311900 METAR LROP 311900Z 32008KT 9999 FEW050CB 22/21 Q1013 R88/19//95
                        NOSIG=
201807311930 METAR LROP 311930Z 32007KT 9999 FEW050CB 22/21 Q1013 R88/19//95
                        NOSIG=
201807312000 METAR LROP 312000Z 32005KT 300V010 9999 FEW050CB 21/20 Q1013
                        R88/19//95 NOSIG=
201807312030 METAR LROP 312030Z 01004KT CAVOK 22/21 Q1013 R88/19//95 NOSIG=
201807312100 METAR LROP 312100Z 01004KT CAVOK 21/20 Q1014 R88/CLRD// NOSIG=
201807312130 METAR LROP 312130Z 03005KT CAVOK 22/21 Q1013 NOSIG=
201807312200 METAR LROP 312200Z 08004KT CAVOK 21/20 Q1013 NOSIG=
201807312230 METAR LROP 312230Z 04004KT CAVOK 22/21 Q1013 NOSIG=
201807312300 METAR LROP 312300Z VRB02KT CAVOK 21/20 Q1013 NOSIG=
201807312330 METAR LROP 312330Z 31003KT 280V010 CAVOK 20/20 Q1013 NOSIG=