201808010000 METAR LROP 010000Z 26005KT 6000 FEW044 20/19 Q1013 BECMG
                        5000 BR=
201808010030 METAR LROP 010030Z 27005KT 5000 BR FEW025 20/19 Q1014 BECMG
                        5000 BR=
201808010100 METAR COR LROP 010100Z 23003KT 5000 BR BKN021 20/19 Q1014
                        NOSIG=
201808010130 METAR LROP 010130Z 24004KT 5000 BR BKN026 20/20 Q1014 NOSIG=
201808010200 METAR COR LROP 010200Z 25004KT 5000 BR OVC028 21/20 Q1014
                        NOSIG=
201808010230 METAR LROP 010230Z 27004KT 6000 BKN032 21/20 Q1014 NOSIG=
201808010300 METAR LROP 010300Z 27003KT 7000 BKN035 21/20 Q1014 NOSIG=
201808010330 METAR LROP 010330Z 25003KT 210V280 7000 FEW036 BKN047 21/20
                        Q1014 NOSIG=
201808010400 METAR LROP 010400Z VRB02KT 9000 SCT045 21/20 Q1014 NOSIG=
201808010430 METAR LROP 010430Z 35004KT 320V020 9999 BKN041 22/21 Q1015
                        NOSIG=
201808010500 METAR LROP 010500Z 35005KT CAVOK 23/21 Q1015 NOSIG=
201808010530 METAR LROP 010530Z 03006KT 360V080 CAVOK 24/21 Q1015 NOSIG=
201808010600 METAR LROP 010600Z 05008KT 360V100 CAVOK 25/21 Q1015 NOSIG=
201808010630 METAR LROP 010630Z 05009KT 360V090 9999 FEW029 26/21 Q1015
                        NOSIG=
201808010700 METAR LROP 010700Z 05008KT 320V090 9999 BKN027 26/20 Q1015
                        NOSIG=
201808010730 METAR LROP 010730Z 06007KT 030V090 9999 BKN026 26/21 Q1015
                        NOSIG=
201808010800 METAR LROP 010800Z 07009KT 9999 BKN026 BKN046 26/21 Q1016
                        NOSIG=
201808010830 METAR LROP 010830Z 07009KT 9999 BKN028 OVC040 27/21 Q1016
                        NOSIG=
201808010900 METAR LROP 010900Z 07011KT 050V110 9999 SCT030 BKN038 28/22
                        Q1015 NOSIG=
201808010930 METAR LROP 010930Z 07014KT 9999 BKN030 28/23 Q1015 NOSIG=
201808011000 METAR LROP 011000Z 08012KT 9999 BKN031 28/22 Q1016 NOSIG=
201808011030 METAR LROP 011030Z 06012KT 9999 BKN033 BKN044 29/22 Q1016
                        NOSIG=
201808011100 METAR LROP 011100Z 07012KT 9999 BKN034 28/22 Q1016 NOSIG=
201808011130 METAR LROP 011130Z 07014KT 9999 BKN034 29/22 Q1015 NOSIG=
201808011200 METAR LROP 011200Z 07014KT 9999 SCT036 30/22 Q1015 NOSIG=
201808011230 METAR LROP 011230Z 07015KT 9999 SCT037 29/22 Q1015 NOSIG=
201808011300 METAR LROP 011300Z 07016KT 9999 SCT037 29/22 Q1015 NOSIG=
201808011330 METAR LROP 011330Z 06015KT 9999 FEW040 30/22 Q1015 TEMPO
                        VRB15G25KT 5000 TSRA=
201808011400 METAR LROP 011400Z 08016KT 9999 FEW040 FEW050CB 30/22 Q1015
                        TEMPO VRB15G25KT 5000 TSRA=
201808011430 METAR LROP 011430Z 13016KT 9999 VCSH TS SCT038 SCT040CB 26/20
                        Q1016 TEMPO VRB15G25KT 3000 TSRA=
201808011500 METAR LROP 011500Z 14007KT 9999 -TSRA SCT040CB 24/22 Q1016
                        R88/29//95 TEMPO VRB15G25KT 3000
                        TSRA=
201808011530 METAR LROP 011530Z 11005KT 9999 FEW040CB 25/23 Q1016 RETS
                        R88/29//95 NOSIG=
201808011600 METAR LROP 011600Z 08003KT 040V100 9999 FEW050CB 26/22 Q1016
                        R88/19//95 NOSIG=
201808011630 METAR LROP 011630Z 04007KT 9999 FEW050CB 26/22 Q1016 R88/19//95
                        NOSIG=
201808011700 METAR COR LROP 011700Z 06010KT 9999 FEW050CB 27/22 Q1016
                        R88/CLRD// NOSIG=
201808011730 METAR LROP 011730Z 05008KT CAVOK 27/22 Q1016 NOSIG=
201808011800 METAR LROP 011800Z 05008KT CAVOK 26/22 Q1017 NOSIG=
201808011830 METAR LROP 011830Z 05009KT CAVOK 26/22 Q1017 NOSIG=
201808011900 METAR LROP 011900Z 05008KT CAVOK 26/22 Q1017 NOSIG=
201808011930 METAR LROP 011930Z 04007KT CAVOK 25/22 Q1017 NOSIG=
201808012000 METAR LROP 012000Z 04008KT CAVOK 25/21 Q1017 NOSIG=
201808012030 METAR LROP 012030Z 04007KT CAVOK 24/21 Q1017 NOSIG=
201808012100 METAR LROP 012100Z 03006KT CAVOK 24/21 Q1017 NOSIG=
201808012130 METAR LROP 012130Z 04005KT CAVOK 24/21 Q1017 NOSIG=
201808012200 METAR LROP 012200Z 11003KT 050V130 CAVOK 23/21 Q1017 NOSIG=
201808012230 METAR LROP 012230Z VRB02KT CAVOK 22/21 Q1017 NOSIG=
201808012300 METAR LROP 012300Z 00000KT CAVOK 21/20 Q1017 NOSIG=
201808012330 METAR LROP 012330Z 03003KT CAVOK 22/21 Q1017 NOSIG=
201808020000 METAR LROP 020000Z 03003KT CAVOK 22/21 Q1017 NOSIG=
201808020030 METAR LROP 020030Z VRB01KT CAVOK 21/20 Q1017 NOSIG=
201808020100 METAR COR LROP 020100Z 05005KT CAVOK 21/20 Q1017 NOSIG=
201808020130 METAR LROP 020130Z 05005KT CAVOK 21/20 Q1017 NOSIG=
201808020200 METAR LROP 020200Z 08005KT CAVOK 21/20 Q1017 NOSIG=
201808020230 METAR LROP 020230Z 05007KT CAVOK 21/20 Q1017 NOSIG=
201808020300 METAR LROP 020300Z 05008KT CAVOK 21/19 Q1017 NOSIG=
201808020330 METAR LROP 020330Z 05007KT CAVOK 22/19 Q1017 NOSIG=
201808020400 METAR LROP 020400Z 06006KT CAVOK 22/19 Q1017 NOSIG=
201808020430 METAR LROP 020430Z 05010KT CAVOK 23/19 Q1018 NOSIG=
201808020500 METAR LROP 020500Z 05011KT CAVOK 24/19 Q1018 NOSIG=
201808020530 METAR LROP 020530Z 06013KT CAVOK 24/19 Q1018 NOSIG=
201808020600 METAR LROP 020600Z 06014KT CAVOK 25/18 Q1018 NOSIG=
201808020630 METAR LROP 020630Z 06013KT CAVOK 26/18 Q1018 NOSIG=
201808020700 METAR LROP 020700Z 06013KT CAVOK 26/16 Q1018 NOSIG=
201808020730 METAR LROP 020730Z 07015KT CAVOK 26/17 Q1018 NOSIG=
201808020800 METAR LROP 020800Z 07008KT CAVOK 27/17 Q1018 NOSIG=
201808020830 METAR LROP 020830Z 07016KT CAVOK 27/16 Q1018 NOSIG=
201808020900 METAR LROP 020900Z 06014KT CAVOK 28/17 Q1018 NOSIG=
201808020930 METAR LROP 020930Z 07014KT CAVOK 28/17 Q1018 NOSIG=
201808021000 METAR LROP 021000Z 07016KT CAVOK 28/17 Q1018 NOSIG=
201808021030 METAR LROP 021030Z 07015KT CAVOK 28/17 Q1018 NOSIG=
201808021100 METAR LROP 021100Z 07015KT CAVOK 29/17 Q1018 NOSIG=
201808021130 METAR LROP 021130Z 06015KT CAVOK 29/17 Q1018 NOSIG=
201808021200 METAR LROP 021200Z 07015KT CAVOK 29/17 Q1018 NOSIG=
201808021230 METAR LROP 021230Z 07015KT CAVOK 29/16 Q1017 NOSIG=
201808021300 METAR LROP 021300Z 06014KT CAVOK 29/16 Q1017 NOSIG=
201808021330 METAR LROP 021330Z 06014KT CAVOK 29/16 Q1017 NOSIG=
201808021400 METAR LROP 021400Z 05014KT CAVOK 29/16 Q1017 NOSIG=
201808021430 METAR LROP 021430Z 07014KT CAVOK 29/16 Q1017 NOSIG=
201808021500 METAR LROP 021500Z 07013KT CAVOK 29/15 Q1017 NOSIG=
201808021530 METAR LROP 021530Z 06012KT CAVOK 28/15 Q1017 NOSIG=
201808021600 METAR LROP 021600Z 06010KT CAVOK 28/15 Q1016 NOSIG=
201808021630 METAR LROP 021630Z 07011KT CAVOK 27/16 Q1017 NOSIG=
201808021700 METAR LROP 021700Z 06009KT CAVOK 26/16 Q1017 NOSIG=
201808021730 METAR LROP 021730Z 06007KT CAVOK 25/16 Q1017 NOSIG=
201808021800 METAR LROP 021800Z 05008KT CAVOK 25/15 Q1017 NOSIG=
201808021830 METAR LROP 021830Z 06006KT CAVOK 24/16 Q1018 NOSIG=
201808021900 METAR LROP 021900Z 04004KT CAVOK 23/15 Q1018 NOSIG=
201808021930 METAR LROP 021930Z 02005KT CAVOK 23/15 Q1018 NOSIG=
201808022000 METAR LROP 022000Z 02004KT CAVOK 23/15 Q1018 NOSIG=
201808022030 METAR LROP 022030Z 02005KT CAVOK 23/15 Q1018 NOSIG=
201808022100 METAR LROP 022100Z 01005KT CAVOK 23/15 Q1018 NOSIG=
201808022130 METAR LROP 022130Z 36006KT 330V030 CAVOK 21/15 Q1017 NOSIG=
201808022200 METAR LROP 022200Z 36006KT CAVOK 21/15 Q1017 NOSIG=
201808022230 METAR LROP 022230Z 36007KT CAVOK 21/15 Q1017 NOSIG=
201808022300 METAR LROP 022300Z 36006KT CAVOK 20/16 Q1017 NOSIG=
201808022330 METAR LROP 022330Z 35008KT CAVOK 20/17 Q1017 NOSIG=
201808030000 METAR LROP 030000Z 35007KT CAVOK 20/18 Q1017 NOSIG=
201808030030 METAR COR LROP 030030Z 34008KT CAVOK 20/17 Q1017 NOSIG=
201808030100 METAR LROP 030100Z 33006KT CAVOK 19/18 Q1017 NOSIG=
201808030130 METAR LROP 030130Z 34008KT CAVOK 20/17 Q1017 NOSIG=
201808030200 METAR COR LROP 030200Z 34007KT CAVOK 19/16 Q1016 NOSIG=
201808030230 METAR LROP 030230Z 34007KT CAVOK 19/16 Q1016 NOSIG=
201808030300 METAR LROP 030300Z 34007KT CAVOK 19/16 Q1017 NOSIG=
201808030330 METAR LROP 030330Z 35008KT CAVOK 19/16 Q1017 NOSIG=
201808030400 METAR LROP 030400Z 34007KT CAVOK 20/16 Q1017 NOSIG=
201808030430 METAR LROP 030430Z 34008KT CAVOK 20/16 Q1017 NOSIG=
201808030500 METAR LROP 030500Z 35008KT CAVOK 22/17 Q1017 NOSIG=
201808030530 METAR LROP 030530Z 36009KT CAVOK 23/17 Q1017 NOSIG=
201808030600 METAR LROP 030600Z 01008KT CAVOK 24/17 Q1017 NOSIG=
201808030630 METAR LROP 030630Z 03010KT CAVOK 26/17 Q1017 NOSIG=
201808030700 METAR LROP 030700Z 03012KT CAVOK 26/17 Q1018 NOSIG=
201808030730 METAR LROP 030730Z 05014KT CAVOK 27/16 Q1018 NOSIG=
201808030800 METAR LROP 030800Z 06016KT CAVOK 28/16 Q1018 NOSIG=
201808030830 METAR LROP 030830Z 05015KT CAVOK 28/16 Q1018 NOSIG=
201808030900 METAR LROP 030900Z 05015KT 020V080 CAVOK 29/15 Q1018 NOSIG=
201808030930 METAR LROP 030930Z 05015KT CAVOK 29/15 Q1017 NOSIG=
201808031000 METAR LROP 031000Z 05014KT CAVOK 29/15 Q1017 NOSIG=
201808031030 METAR LROP 031030Z 06014KT CAVOK 29/14 Q1017 NOSIG=
201808031100 METAR LROP 031100Z 05013KT CAVOK 30/15 Q1017 NOSIG=
201808031130 METAR LROP 031130Z 05012KT CAVOK 30/14 Q1017 NOSIG=
201808031200 METAR LROP 031200Z 06010KT CAVOK 30/15 Q1017 NOSIG=
201808031230 METAR LROP 031230Z 06012KT CAVOK 30/15 Q1016 NOSIG=
201808031300 METAR LROP 031300Z 06009KT CAVOK 30/15 Q1017 NOSIG=
201808031330 METAR LROP 031330Z 03011KT 360V070 CAVOK 30/14 Q1016 NOSIG=
201808031400 METAR LROP 031400Z 04012KT CAVOK 30/13 Q1017 NOSIG=
201808031430 METAR LROP 031430Z 04011KT CAVOK 29/13 Q1016 NOSIG=
201808031500 METAR LROP 031500Z 06010KT CAVOK 29/13 Q1016 NOSIG=
201808031530 METAR LROP 031530Z 07010KT CAVOK 29/14 Q1016 NOSIG=
201808031600 METAR LROP 031600Z 07012KT CAVOK 29/14 Q1016 NOSIG=
201808031630 METAR LROP 031630Z 06011KT CAVOK 28/15 Q1016 NOSIG=
201808031700 METAR LROP 031700Z 05009KT CAVOK 27/16 Q1016 NOSIG=
201808031730 METAR LROP 031730Z 05007KT CAVOK 26/16 Q1016 NOSIG=
201808031800 METAR LROP 031800Z 04006KT CAVOK 26/15 Q1016 NOSIG=
201808031830 METAR LROP 031830Z 04006KT CAVOK 25/15 Q1017 NOSIG=
201808031900 METAR LROP 031900Z 03006KT CAVOK 24/15 Q1017 NOSIG=
201808031930 METAR LROP 031930Z 02006KT CAVOK 24/15 Q1017 NOSIG=
201808032000 METAR LROP 032000Z 02007KT CAVOK 24/15 Q1017 NOSIG=
201808032030 METAR LROP 032030Z 01006KT CAVOK 23/15 Q1017 NOSIG=
201808032100 METAR LROP 032100Z 35007KT CAVOK 22/15 Q1017 NOSIG=
201808032130 METAR LROP 032130Z 34007KT CAVOK 21/15 Q1017 NOSIG=
201808032200 METAR LROP 032200Z 34007KT CAVOK 20/16 Q1017 NOSIG=
201808032230 METAR LROP 032230Z 35007KT CAVOK 21/16 Q1017 NOSIG=
201808032300 METAR LROP 032300Z 35007KT CAVOK 21/15 Q1017 NOSIG=
201808032330 METAR LROP 032330Z 35006KT CAVOK 21/15 Q1017 NOSIG=
201808040000 METAR LROP 040000Z 35007KT CAVOK 20/15 Q1017 NOSIG=
201808040030 METAR LROP 040030Z 35007KT CAVOK 20/14 Q1017 NOSIG=
201808040100 METAR LROP 040100Z 35007KT CAVOK 20/14 Q1016 NOSIG=
201808040130 METAR LROP 040130Z 35007KT CAVOK 20/14 Q1016 NOSIG=
201808040200 METAR LROP 040200Z 34008KT CAVOK 20/14 Q1016 NOSIG=
201808040230 METAR LROP 040230Z 34008KT CAVOK 19/14 Q1016 NOSIG=
201808040300 METAR LROP 040300Z 35007KT CAVOK 19/14 Q1016 NOSIG=
201808040330 METAR LROP 040330Z 35008KT CAVOK 19/14 Q1016 NOSIG=
201808040400 METAR LROP 040400Z 35008KT CAVOK 20/14 Q1016 NOSIG=
201808040430 METAR LROP 040430Z 36008KT CAVOK 21/14 Q1016 NOSIG=
201808040500 METAR LROP 040500Z 36007KT CAVOK 22/15 Q1017 NOSIG=
201808040530 METAR LROP 040530Z 36006KT CAVOK 24/16 Q1017 NOSIG=
201808040600 METAR COR LROP 040600Z 02007KT CAVOK 25/16 Q1017 NOSIG=
201808040630 METAR COR LROP 040630Z 02005KT CAVOK 25/16 Q1017 NOSIG=
201808040700 METAR LROP 040700Z 02004KT 350V050 CAVOK 26/17 Q1017 NOSIG=
201808040730 METAR LROP 040730Z 03008KT 010V070 CAVOK 27/17 Q1017 NOSIG=
201808040800 METAR LROP 040800Z 06010KT CAVOK 29/17 Q1017 NOSIG=
201808040830 METAR LROP 040830Z 05006KT 010V090 CAVOK 29/17 Q1017 NOSIG=
201808040900 METAR LROP 040900Z 05007KT 020V080 CAVOK 29/17 Q1017 NOSIG=
201808040930 METAR LROP 040930Z 08007KT CAVOK 30/16 Q1017 NOSIG=
201808041000 METAR LROP 041000Z 04007KT CAVOK 31/15 Q1017 NOSIG=
201808041030 METAR LROP 041030Z 08008KT CAVOK 31/16 Q1016 NOSIG=
201808041100 METAR LROP 041100Z 08009KT CAVOK 31/15 Q1016 NOSIG=
201808041130 METAR LROP 041130Z 03005KT 350V070 CAVOK 31/15 Q1016 NOSIG=
201808041200 METAR LROP 041200Z VRB06KT CAVOK 31/15 Q1016 NOSIG=
201808041230 METAR LROP 041230Z 09005KT 050V120 CAVOK 31/15 Q1016 NOSIG=
201808041300 METAR LROP 041300Z 07006KT CAVOK 30/15 Q1016 NOSIG=
201808041330 METAR LROP 041330Z 06006KT 030V100 CAVOK 31/14 Q1016 NOSIG=
201808041400 METAR LROP 041400Z 08007KT CAVOK 31/15 Q1016 NOSIG=
201808041430 METAR LROP 041430Z 09007KT CAVOK 29/16 Q1016 NOSIG=
201808041500 METAR LROP 041500Z 07006KT CAVOK 31/15 Q1016 NOSIG=
201808041530 METAR LROP 041530Z 07008KT CAVOK 31/15 Q1016 NOSIG=
201808041600 METAR LROP 041600Z 06006KT CAVOK 30/14 Q1015 NOSIG=
201808041630 METAR LROP 041630Z 06006KT CAVOK 30/15 Q1016 NOSIG=
201808041700 METAR LROP 041700Z 04006KT CAVOK 29/14 Q1016 NOSIG=
201808041730 METAR LROP 041730Z 04006KT CAVOK 28/15 Q1016 NOSIG=
201808041800 METAR LROP 041800Z 05005KT CAVOK 26/15 Q1016 NOSIG=
201808041830 METAR LROP 041830Z 10003KT CAVOK 24/16 Q1016 NOSIG=
201808041900 METAR LROP 041900Z 00000KT CAVOK 23/16 Q1016 NOSIG=
201808041930 METAR LROP 041930Z VRB02KT CAVOK 23/16 Q1016 NOSIG=
201808042000 METAR LROP 042000Z VRB01KT CAVOK 22/16 Q1016 NOSIG=
201808042030 METAR LROP 042030Z 05002KT CAVOK 22/16 Q1016 NOSIG=
201808042100 METAR LROP 042100Z VRB01KT CAVOK 22/16 Q1016 NOSIG=
201808042130 METAR LROP 042130Z 35003KT CAVOK 21/16 Q1016 NOSIG=
201808042200 METAR LROP 042200Z 33003KT 310V020 CAVOK 21/16 Q1016 NOSIG=
201808042230 METAR LROP 042230Z 31003KT CAVOK 20/16 Q1016 NOSIG=
201808042300 METAR LROP 042300Z 31003KT 280V350 CAVOK 20/18 Q1016 NOSIG=
201808042330 METAR LROP 042330Z 32003KT CAVOK 20/18 Q1016 NOSIG=
201808050000 METAR LROP 050000Z 31003KT 280V350 CAVOK 19/18 Q1016 NOSIG=
201808050030 METAR LROP 050030Z 25003KT 230V290 CAVOK 19/18 Q1016 NOSIG=
201808050100 METAR LROP 050100Z VRB02KT CAVOK 18/17 Q1016 NOSIG=
201808050130 METAR LROP 050130Z VRB01KT CAVOK 18/17 Q1016 NOSIG=
201808050200 METAR LROP 050200Z 28003KT CAVOK 18/17 Q1016 NOSIG=
201808050230 METAR LROP 050230Z VRB01KT CAVOK 18/17 Q1016 NOSIG=
201808050300 METAR LROP 050300Z 27003KT 250V320 CAVOK 18/17 Q1016 NOSIG=
201808050330 METAR LROP 050330Z VRB02KT CAVOK 18/17 Q1016 NOSIG=
201808050400 METAR LROP 050400Z VRB02KT CAVOK 18/17 Q1016 NOSIG=
201808050430 METAR LROP 050430Z VRB01KT CAVOK 20/18 Q1016 NOSIG=
201808050500 METAR LROP 050500Z 00000KT CAVOK 21/18 Q1016 NOSIG=
201808050530 METAR LROP 050530Z VRB01KT CAVOK 23/19 Q1016 NOSIG=
201808050600 METAR LROP 050600Z VRB01KT CAVOK 25/19 Q1016 NOSIG=
201808050630 METAR LROP 050630Z 03003KT CAVOK 26/18 Q1016 NOSIG=
201808050700 METAR LROP 050700Z VRB02KT CAVOK 27/18 Q1016 NOSIG=
201808050730 METAR LROP 050730Z VRB01KT CAVOK 28/16 Q1016 NOSIG=
201808050800 METAR LROP 050800Z VRB02KT CAVOK 29/17 Q1017 NOSIG=
201808050830 METAR LROP 050830Z VRB03KT CAVOK 29/19 Q1016 NOSIG=
201808050900 METAR LROP 050900Z 23004KT 180V280 CAVOK 30/19 Q1016 NOSIG=
201808050930 METAR LROP 050930Z 25006KT 210V290 CAVOK 30/19 Q1016 NOSIG=
201808051000 METAR LROP 051000Z 25004KT 150V290 CAVOK 30/18 Q1016 NOSIG=
201808051030 METAR LROP 051030Z 29006KT 250V340 CAVOK 30/18 Q1016 NOSIG=
201808051100 METAR LROP 051100Z 31005KT CAVOK 31/18 Q1016 NOSIG=
201808051130 METAR LROP 051130Z 25007KT 220V310 CAVOK 31/18 Q1015 NOSIG=
201808051200 METAR LROP 051200Z 23005KT 200V260 CAVOK 32/18 Q1015 NOSIG=
201808051230 METAR LROP 051230Z 24006KT 210V360 CAVOK 32/18 Q1015 NOSIG=
201808051300 METAR LROP 051300Z 26006KT 240V030 CAVOK 32/17 Q1015 NOSIG=
201808051330 METAR LROP 051330Z 23007KT CAVOK 32/17 Q1015 NOSIG=
201808051400 METAR LROP 051400Z 29005KT 220V010 CAVOK 32/16 Q1015 NOSIG=
201808051430 METAR LROP 051430Z 28006KT 240V310 CAVOK 31/17 Q1014 NOSIG=
201808051500 METAR LROP 051500Z 26007KT 220V290 CAVOK 31/17 Q1014 NOSIG=
201808051530 METAR LROP 051530Z 26007KT CAVOK 31/16 Q1014 NOSIG=
201808051600 METAR LROP 051600Z 26005KT CAVOK 30/17 Q1014 NOSIG=
201808051630 METAR LROP 051630Z 25004KT CAVOK 29/18 Q1014 NOSIG=
201808051700 METAR LROP 051700Z 25004KT CAVOK 27/18 Q1014 NOSIG=
201808051730 METAR LROP 051730Z 24004KT CAVOK 26/17 Q1014 NOSIG=
201808051800 METAR LROP 051800Z 26003KT CAVOK 25/17 Q1014 NOSIG=
201808051830 METAR LROP 051830Z 27004KT CAVOK 25/17 Q1015 NOSIG=
201808051900 METAR LROP 051900Z 27005KT CAVOK 24/17 Q1015 NOSIG=
201808051930 METAR LROP 051930Z 26004KT CAVOK 24/17 Q1015 NOSIG=
201808052000 METAR LROP 052000Z 25004KT CAVOK 23/17 Q1015 NOSIG=
201808052030 METAR LROP 052030Z 23004KT CAVOK 23/17 Q1015 NOSIG=
201808052100 METAR LROP 052100Z 24005KT CAVOK 22/18 Q1015 NOSIG=
201808052130 METAR LROP 052130Z 26005KT CAVOK 22/18 Q1015 NOSIG=
201808052200 METAR LROP 052200Z 27005KT CAVOK 21/18 Q1015 NOSIG=
201808052230 METAR LROP 052230Z 27005KT CAVOK 21/18 Q1015 NOSIG=
201808052300 METAR LROP 052300Z 29004KT CAVOK 20/19 Q1015 NOSIG=
201808052330 METAR LROP 052330Z 28003KT CAVOK 20/19 Q1015 NOSIG=
201808060000 METAR LROP 060000Z 28005KT CAVOK 20/18 Q1015 NOSIG=
201808060030 METAR LROP 060030Z 29004KT CAVOK 20/18 Q1015 NOSIG=
201808060100 METAR LROP 060100Z 30004KT CAVOK 20/18 Q1015 NOSIG=
201808060130 METAR LROP 060130Z 28003KT CAVOK 19/18 Q1015 NOSIG=
201808060200 METAR LROP 060200Z 28003KT CAVOK 19/18 Q1015 NOSIG=
201808060230 METAR LROP 060230Z 28003KT CAVOK 19/18 Q1015 NOSIG=
201808060300 METAR LROP 060300Z 28004KT CAVOK 18/17 Q1015 NOSIG=
201808060330 METAR LROP 060330Z 25004KT CAVOK 18/17 Q1015 NOSIG=
201808060400 METAR LROP 060400Z 28003KT CAVOK 18/17 Q1015 NOSIG=
201808060430 METAR LROP 060430Z 30003KT CAVOK 20/18 Q1015 NOSIG=
201808060500 METAR LROP 060500Z 31003KT 280V350 CAVOK 22/19 Q1015 NOSIG=
201808060530 METAR LROP 060530Z 34004KT 310V010 CAVOK 23/19 Q1016 NOSIG=
201808060600 METAR LROP 060600Z 01003KT 340V040 CAVOK 25/19 Q1016 NOSIG=
201808060630 METAR LROP 060630Z VRB02KT CAVOK 26/19 Q1016 NOSIG=
201808060700 METAR LROP 060700Z 07007KT CAVOK 28/16 Q1016 NOSIG=
201808060730 METAR LROP 060730Z 09007KT CAVOK 28/18 Q1016 NOSIG=
201808060800 METAR LROP 060800Z 09007KT CAVOK 29/18 Q1016 NOSIG=
201808060830 METAR LROP 060830Z 11006KT 070V140 CAVOK 29/18 Q1016 NOSIG=
201808060900 METAR LROP 060900Z 13005KT 100V160 CAVOK 29/19 Q1016 NOSIG=
201808060930 METAR LROP 060930Z 13005KT 090V190 CAVOK 30/18 Q1016 NOSIG=
201808061000 METAR LROP 061000Z 14004KT 070V230 CAVOK 31/19 Q1015 NOSIG=
201808061030 METAR LROP 061030Z 22003KT 190V250 CAVOK 31/18 Q1015 NOSIG=
201808061100 METAR LROP 061100Z VRB03KT CAVOK 31/17 Q1015 NOSIG=
201808061130 METAR LROP 061130Z VRB03KT CAVOK 31/16 Q1015 NOSIG=
201808061200 METAR LROP 061200Z VRB04KT CAVOK 32/18 Q1014 NOSIG=
201808061230 METAR LROP 061230Z 35005KT 290V060 9999 FEW051TCU 32/17 Q1014
                        TEMPO SCT045CB=
201808061300 METAR LROP 061300Z VRB04KT 9999 FEW052CB 32/17 Q1014 TEMPO
                        SCT045CB=
201808061330 METAR LROP 061330Z 26005KT 230V340 9999 FEW052CB 32/17 Q1014
                        TEMPO SCT045CB=
201808061400 METAR COR LROP 061400Z 30004KT 230V340 9999 FEW050CB 32/17
                        Q1014 NOSIG=
201808061430 METAR LROP 061430Z 01003KT 330V040 9999 FEW050CB 32/17 Q1014
                        NOSIG=
201808061500 METAR LROP 061500Z 33006KT 9999 FEW050CB 31/18 Q1014 NOSIG=
201808061530 METAR COR LROP 061530Z 31007KT CAVOK 30/18 Q1014 NOSIG=
201808061600 METAR LROP 061600Z 33004KT CAVOK 29/18 Q1014 NOSIG=
201808061630 METAR LROP 061630Z 02006KT CAVOK 29/18 Q1014 NOSIG=
201808061700 METAR LROP 061700Z 02007KT CAVOK 28/18 Q1014 NOSIG=
201808061730 METAR LROP 061730Z 04006KT CAVOK 28/18 Q1014 NOSIG=
201808061800 METAR LROP 061800Z 04006KT CAVOK 27/18 Q1014 NOSIG=
201808061830 METAR LROP 061830Z 02005KT CAVOK 26/18 Q1015 NOSIG=
201808061900 METAR LROP 061900Z 02005KT CAVOK 25/19 Q1015 NOSIG=
201808061930 METAR LROP 061930Z 04004KT CAVOK 25/18 Q1015 NOSIG=
201808062000 METAR LROP 062000Z 04004KT CAVOK 25/18 Q1015 NOSIG=
201808062030 METAR LROP 062030Z 02005KT CAVOK 24/18 Q1015 NOSIG=
201808062100 METAR LROP 062100Z 04004KT CAVOK 24/19 Q1015 NOSIG=
201808062130 METAR LROP 062130Z 06004KT CAVOK 23/19 Q1015 NOSIG=
201808062200 METAR LROP 062200Z 02004KT CAVOK 23/19 Q1015 NOSIG=
201808062230 METAR LROP 062230Z 01003KT CAVOK 22/19 Q1015 NOSIG=
201808062300 METAR LROP 062300Z 36005KT CAVOK 22/19 Q1015 NOSIG=
201808062330 METAR LROP 062330Z 34003KT CAVOK 22/19 Q1015 NOSIG=
201808070000 METAR LROP 070000Z 36003KT CAVOK 21/20 Q1015 NOSIG=
201808070030 METAR LROP 070030Z 34003KT CAVOK 21/20 Q1015 NOSIG=
201808070100 METAR LROP 070100Z 34004KT CAVOK 21/20 Q1015 NOSIG=
201808070130 METAR LROP 070130Z 35005KT CAVOK 21/19 Q1015 NOSIG=
201808070200 METAR COR LROP 070200Z 34004KT 270V360 CAVOK 20/19 Q1015
                        NOSIG=
201808070230 METAR LROP 070230Z 29003KT 260V010 CAVOK 20/19 Q1015 NOSIG=
201808070300 METAR LROP 070300Z VRB01KT CAVOK 20/19 Q1015 NOSIG=
201808070330 METAR LROP 070330Z VRB02KT CAVOK 20/19 Q1015 NOSIG=
201808070400 METAR LROP 070400Z 30003KT 240V360 CAVOK 20/19 Q1015 NOSIG=
201808070430 METAR LROP 070430Z VRB02KT CAVOK 21/20 Q1015 NOSIG=
201808070500 METAR LROP 070500Z 03003KT CAVOK 23/20 Q1016 NOSIG=
201808070530 METAR LROP 070530Z 05004KT 010V090 CAVOK 24/20 Q1016 NOSIG=
201808070600 METAR LROP 070600Z 07008KT CAVOK 26/20 Q1016 NOSIG=
201808070630 METAR LROP 070630Z 08010KT CAVOK 27/20 Q1016 NOSIG=
201808070700 METAR LROP 070700Z 09010KT CAVOK 27/19 Q1016 NOSIG=
201808070730 METAR LROP 070730Z 07011KT CAVOK 28/19 Q1017 NOSIG=
201808070800 METAR LROP 070800Z 09009KT CAVOK 28/20 Q1017 NOSIG=
201808070830 METAR LROP 070830Z 08009KT CAVOK 29/20 Q1017 NOSIG=
201808070900 METAR LROP 070900Z 10008KT 060V130 CAVOK 29/20 Q1016 NOSIG=
201808070930 METAR LROP 070930Z 10005KT 060V140 CAVOK 30/19 Q1016 NOSIG=
201808071000 METAR LROP 071000Z 06006KT 360V120 CAVOK 30/20 Q1016 NOSIG=
201808071030 METAR LROP 071030Z 11007KT 070V140 CAVOK 31/19 Q1016 NOSIG=
201808071100 METAR LROP 071100Z 07004KT 020V140 9999 SCT046 30/19 Q1015
                        NOSIG=
201808071130 METAR LROP 071130Z 11005KT 050V180 9999 SCT048 30/19 Q1015
                        NOSIG=
201808071200 METAR LROP 071200Z 07004KT 020V120 9999 SCT048 FEW055TCU
                        30/20 Q1015 NOSIG=
201808071230 METAR LROP 071230Z 02018KT 9999 TS SCT043 SCT050CB 26/17
                        Q1016 TEMPO VRB20G30KT 5000 TSRA=
201808071300 METAR LROP 071300Z 03017KT 8000 -TSRA SCT040 BKN048CB 22/20
                        Q1016 R88/29//95 TEMPO 5000 TSRA=
201808071330 METAR LROP 071330Z 04013KT 9999 TS SCT028 SCT047CB 24/20
                        Q1016 R88/29//95 TEMPO 5000 TSRA=
201808071400 METAR LROP 071400Z 36010KT 320V030 9999 FEW048CB 24/19 Q1016
                        RETS R88/29//95 NOSIG=
201808071430 METAR LROP 071430Z 35009KT 9999 FEW050CB 24/18 Q1016 R88/29//95
                        NOSIG=
201808071500 METAR LROP 071500Z 01009KT 9999 FEW050CB 24/19 Q1016 R88/CLRD//
                        NOSIG=
201808071530 METAR LROP 071530Z 03008KT 360V060 9999 FEW050CB 23/18 Q1016
                        NOSIG=
201808071600 METAR LROP 071600Z 01006KT 9999 FEW050CB 23/18 Q1016 NOSIG=
201808071630 METAR LROP 071630Z 35004KT 320V020 9999 FEW050CB 23/18 Q1016
                        NOSIG=
201808071700 METAR LROP 071700Z VRB02KT 9999 FEW050CB 23/19 Q1017 NOSIG=
201808071730 METAR LROP 071730Z 30005KT 280V350 9999 FEW050CB 22/19 Q1017
                        NOSIG=
201808071800 METAR LROP 071800Z 28003KT 240V330 CAVOK 22/20 Q1017 NOSIG=
201808071830 METAR LROP 071830Z 24003KT 190V280 CAVOK 21/20 Q1017 NOSIG=
201808071900 METAR LROP 071900Z VRB01KT CAVOK 21/19 Q1017 NOSIG=
201808071930 METAR LROP 071930Z 07005KT 030V100 CAVOK 22/20 Q1017 NOSIG=
201808072000 METAR LROP 072000Z 13003KT 080V180 CAVOK 21/20 Q1017 NOSIG=
201808072030 METAR LROP 072030Z VRB02KT CAVOK 21/20 Q1017 NOSIG=
201808072100 METAR LROP 072100Z VRB02KT CAVOK 20/19 Q1017 NOSIG=
201808072130 METAR LROP 072130Z 29003KT 260V320 CAVOK 20/19 Q1017 NOSIG=
201808072200 METAR LROP 072200Z 29004KT 260V320 CAVOK 20/19 Q1017 NOSIG=
201808072230 METAR LROP 072230Z VRB02KT CAVOK 20/19 Q1017 NOSIG=
201808072300 METAR LROP 072300Z 32003KT 260V360 CAVOK 20/19 Q1017 NOSIG=
201808072330 METAR LROP 072330Z 34004KT CAVOK 20/19 Q1017 NOSIG=
201808080000 METAR LROP 080000Z 32004KT 280V360 CAVOK 20/19 Q1017 NOSIG=
201808080030 METAR LROP 080030Z 34006KT CAVOK 20/19 Q1018 NOSIG=
201808080100 METAR LROP 080100Z 01004KT CAVOK 20/19 Q1017 NOSIG=
201808080130 METAR LROP 080130Z 03003KT 360V080 CAVOK 20/19 Q1017 NOSIG=
201808080200 METAR LROP 080200Z 01005KT CAVOK 20/19 Q1017 NOSIG=
201808080230 METAR LROP 080230Z 36006KT CAVOK 20/19 Q1018 NOSIG=
201808080300 METAR LROP 080300Z 01005KT 340V040 CAVOK 20/19 Q1017 NOSIG=
201808080330 METAR LROP 080330Z 02006KT CAVOK 20/18 Q1018 NOSIG=
201808080400 METAR LROP 080400Z 01006KT CAVOK 21/18 Q1018 NOSIG=
201808080430 METAR LROP 080430Z 04006KT CAVOK 21/18 Q1018 NOSIG=
201808080500 METAR LROP 080500Z 02006KT CAVOK 22/18 Q1018 NOSIG=
201808080530 METAR LROP 080530Z 05009KT CAVOK 23/17 Q1018 NOSIG=
201808080600 METAR LROP 080600Z 05010KT CAVOK 24/17 Q1018 NOSIG=
201808080630 METAR LROP 080630Z 07010KT CAVOK 25/16 Q1019 NOSIG=
201808080700 METAR LROP 080700Z 06010KT CAVOK 26/16 Q1019 NOSIG=
201808080730 METAR LROP 080730Z 08009KT CAVOK 27/17 Q1019 NOSIG=
201808080800 METAR LROP 080800Z 09009KT CAVOK 27/16 Q1019 NOSIG=
201808080830 METAR LROP 080830Z 08009KT CAVOK 28/16 Q1019 NOSIG=
201808080900 METAR LROP 080900Z 06010KT CAVOK 29/15 Q1019 NOSIG=
201808080930 METAR LROP 080930Z 06008KT CAVOK 29/16 Q1019 NOSIG=
201808081000 METAR LROP 081000Z 06007KT 030V110 CAVOK 29/16 Q1019 NOSIG=
201808081030 METAR LROP 081030Z 09006KT 030V140 CAVOK 29/16 Q1019 NOSIG=
201808081100 METAR LROP 081100Z 14004KT 080V250 CAVOK 29/16 Q1019 NOSIG=
201808081130 METAR LROP 081130Z VRB04KT CAVOK 29/17 Q1018 NOSIG=
201808081200 METAR LROP 081200Z VRB03KT CAVOK 30/17 Q1018 NOSIG=
201808081230 METAR LROP 081230Z 09004KT 020V160 CAVOK 30/17 Q1018 NOSIG=
201808081300 METAR LROP 081300Z 01004KT 340V090 CAVOK 29/16 Q1018 NOSIG=
201808081330 METAR LROP 081330Z 07004KT 360V150 CAVOK 30/17 Q1018 NOSIG=
201808081400 METAR LROP 081400Z VRB05KT CAVOK 30/19 Q1018 NOSIG=
201808081430 METAR LROP 081430Z VRB02KT CAVOK 30/17 Q1018 NOSIG=
201808081500 METAR LROP 081500Z 06005KT 350V120 CAVOK 30/17 Q1018 NOSIG=
201808081530 METAR LROP 081530Z 06006KT 010V110 CAVOK 30/17 Q1017 NOSIG=
201808081600 METAR LROP 081600Z 07005KT 050V120 CAVOK 30/17 Q1017 NOSIG=
201808081630 METAR LROP 081630Z 07005KT CAVOK 29/17 Q1018 NOSIG=
201808081700 METAR LROP 081700Z 06005KT CAVOK 28/17 Q1018 NOSIG=
201808081730 METAR COR LROP 081730Z 04005KT CAVOK 28/17 Q1018 NOSIG=
201808081800 METAR LROP 081800Z 05005KT CAVOK 27/17 Q1018 NOSIG=
201808081830 METAR LROP 081830Z 09004KT CAVOK 25/18 Q1018 NOSIG=
201808081900 METAR LROP 081900Z 08005KT CAVOK 25/17 Q1018 NOSIG=
201808081930 METAR LROP 081930Z 05005KT CAVOK 24/17 Q1018 NOSIG=
201808082000 METAR LROP 082000Z 06003KT 020V160 CAVOK 24/18 Q1018 NOSIG=
201808082030 METAR LROP 082030Z 08004KT CAVOK 22/17 Q1018 NOSIG=
201808082100 METAR LROP 082100Z 10002KT CAVOK 21/18 Q1019 NOSIG=
201808082130 METAR LROP 082130Z 03003KT CAVOK 22/17 Q1019 NOSIG=
201808082200 METAR LROP 082200Z 02004KT CAVOK 22/17 Q1019 NOSIG=
201808082230 METAR LROP 082230Z 02002KT CAVOK 21/17 Q1019 NOSIG=
201808082300 METAR LROP 082300Z 02004KT CAVOK 21/17 Q1019 NOSIG=
201808082330 METAR LROP 082330Z 01004KT CAVOK 21/17 Q1019 NOSIG=
201808090000 METAR LROP 090000Z 02004KT CAVOK 22/17 Q1019 NOSIG=
201808090030 METAR LROP 090030Z 08003KT 030V120 CAVOK 20/18 Q1019 NOSIG=
201808090100 METAR COR LROP 090100Z VRB02KT CAVOK 19/18 Q1019 NOSIG=
201808090130 METAR LROP 090130Z VRB01KT CAVOK 19/18 Q1019 NOSIG=
201808090200 METAR COR LROP 090200Z 03003KT 340V040 CAVOK 19/18 Q1019
                        NOSIG=
201808090230 METAR LROP 090230Z 01003KT CAVOK 19/18 Q1019 NOSIG=
201808090300 METAR COR LROP 090300Z 30001KT CAVOK 19/18 Q1019 NOSIG=
201808090330 METAR LROP 090330Z 01004KT CAVOK 19/18 Q1020 NOSIG=
201808090400 METAR LROP 090400Z 05005KT CAVOK 20/18 Q1020 NOSIG=
201808090430 METAR LROP 090430Z 05005KT CAVOK 22/18 Q1020 NOSIG=
201808090500 METAR LROP 090500Z 05006KT CAVOK 21/18 Q1020 NOSIG=
201808090530 METAR LROP 090530Z 06007KT CAVOK 22/17 Q1021 NOSIG=
201808090600 METAR LROP 090600Z 06011KT CAVOK 23/17 Q1021 NOSIG=
201808090630 METAR LROP 090630Z 05012KT CAVOK 24/17 Q1021 NOSIG=
201808090700 METAR LROP 090700Z 06012KT CAVOK 25/16 Q1021 NOSIG=
201808090730 METAR LROP 090730Z 08010KT CAVOK 26/17 Q1021 NOSIG=
201808090800 METAR LROP 090800Z 09010KT CAVOK 27/17 Q1021 NOSIG=
201808090830 METAR LROP 090830Z 05008KT CAVOK 27/17 Q1021 NOSIG=
201808090900 METAR LROP 090900Z 06008KT CAVOK 27/17 Q1021 NOSIG=
201808090930 METAR LROP 090930Z 06009KT 030V100 CAVOK 27/17 Q1021 NOSIG=
201808091000 METAR LROP 091000Z 08007KT 050V120 CAVOK 28/17 Q1021 NOSIG=
201808091030 METAR LROP 091030Z 08009KT 050V110 9999 FEW049 29/17 Q1021
                        NOSIG=
201808091100 METAR LROP 091100Z 06010KT CAVOK 29/16 Q1021 NOSIG=
201808091130 METAR LROP 091130Z 06009KT 030V090 CAVOK 29/16 Q1021 NOSIG=
201808091200 METAR LROP 091200Z 09008KT 070V130 CAVOK 30/16 Q1021 NOSIG=
201808091230 METAR LROP 091230Z 04009KT CAVOK 29/15 Q1021 NOSIG=
201808091300 METAR LROP 091300Z 07010KT 040V110 CAVOK 30/15 Q1021 NOSIG=
201808091330 METAR LROP 091330Z 04010KT 010V070 CAVOK 29/15 Q1021 NOSIG=
201808091400 METAR LROP 091400Z 08010KT CAVOK 30/15 Q1020 NOSIG=
201808091430 METAR LROP 091430Z 05010KT 010V070 CAVOK 30/15 Q1020 NOSIG=
201808091500 METAR LROP 091500Z 05011KT CAVOK 29/15 Q1020 NOSIG=
201808091530 METAR LROP 091530Z 07011KT CAVOK 29/14 Q1020 NOSIG=
201808091600 METAR LROP 091600Z 06012KT CAVOK 29/13 Q1020 NOSIG=
201808091630 METAR LROP 091630Z 05010KT CAVOK 28/13 Q1020 NOSIG=
201808091700 METAR LROP 091700Z 05007KT CAVOK 27/13 Q1020 NOSIG=
201808091730 METAR LROP 091730Z 05008KT CAVOK 27/13 Q1021 NOSIG=
201808091800 METAR LROP 091800Z 03006KT CAVOK 26/14 Q1021 NOSIG=
201808091830 METAR LROP 091830Z 04007KT CAVOK 25/14 Q1021=
201808091900 METAR LROP 091900Z 04007KT CAVOK 24/13 Q1021=
201808091930 METAR LROP 091930Z 03007KT CAVOK 23/13 Q1021=
201808092000 METAR LROP 092000Z 11007KT CAVOK 22/14 Q1022=
201808092030 METAR LROP 092030Z 07007KT CAVOK 21/13 Q1022 NOSIG=
201808092100 METAR LROP 092100Z 08005KT CAVOK 21/14 Q1022 NOSIG=
201808092130 METAR LROP 092130Z 06005KT CAVOK 21/14 Q1022 NOSIG=
201808092200 METAR LROP 092200Z 09002KT CAVOK 19/15 Q1022 NOSIG=
201808092230 METAR LROP 092230Z 06005KT CAVOK 19/14 Q1022 NOSIG=
201808092300 METAR LROP 092300Z 06005KT CAVOK 19/15 Q1022 NOSIG=
201808092330 METAR LROP 092330Z 03004KT CAVOK 19/15 Q1022 NOSIG=
201808100000 METAR LROP 100000Z 01004KT CAVOK 19/16 Q1022 NOSIG=
201808100030 METAR LROP 100030Z 01004KT CAVOK 19/16 Q1022 NOSIG=
201808100100 METAR LROP 100100Z 36006KT CAVOK 18/15 Q1022 NOSIG=
201808100130 METAR LROP 100130Z 01005KT CAVOK 18/15 Q1022 NOSIG=
201808100200 METAR LROP 100200Z 03003KT CAVOK 18/15 Q1022 NOSIG=
201808100230 METAR LROP 100230Z 03003KT CAVOK 18/15 Q1022 NOSIG=
201808100300 METAR LROP 100300Z 36005KT CAVOK 17/15 Q1022 NOSIG=
201808100330 METAR LROP 100330Z 03003KT 360V060 CAVOK 17/15 Q1023 NOSIG=
201808100400 METAR LROP 100400Z 03004KT CAVOK 18/15 Q1023 NOSIG=
201808100430 METAR LROP 100430Z 06004KT CAVOK 19/15 Q1023 NOSIG=
201808100500 METAR LROP 100500Z 03004KT CAVOK 20/15 Q1023 NOSIG=
201808100530 METAR LROP 100530Z 05005KT CAVOK 20/15 Q1024 NOSIG=
201808100600 METAR LROP 100600Z 06008KT CAVOK 22/15 Q1024 NOSIG=
201808100630 METAR LROP 100630Z 09007KT CAVOK 24/14 Q1024 NOSIG=
201808100700 METAR LROP 100700Z 09010KT CAVOK 25/14 Q1024 NOSIG=
201808100730 METAR LROP 100730Z 08010KT CAVOK 26/14 Q1024 NOSIG=
201808100800 METAR LROP 100800Z 06008KT CAVOK 26/14 Q1024 NOSIG=
201808100830 METAR LROP 100830Z 06008KT 030V100 CAVOK 27/15 Q1024 NOSIG=
201808100900 METAR LROP 100900Z 09011KT 050V120 CAVOK 28/12 Q1024 NOSIG=
201808100930 METAR LROP 100930Z 09013KT CAVOK 28/13 Q1024 NOSIG=
201808101000 METAR LROP 101000Z 07010KT 040V110 CAVOK 28/13 Q1024 NOSIG=
201808101030 METAR LROP 101030Z 10010KT 050V130 CAVOK 29/13 Q1023 NOSIG=
201808101100 METAR LROP 101100Z 08009KT 060V130 CAVOK 29/13 Q1023 NOSIG=
201808101130 METAR LROP 101130Z 08010KT 050V110 CAVOK 29/13 Q1023 NOSIG=
201808101200 METAR LROP 101200Z 08010KT CAVOK 30/13 Q1023 NOSIG=
201808101230 METAR LROP 101230Z 09009KT CAVOK 29/13 Q1023 NOSIG=
201808101300 METAR LROP 101300Z 09009KT CAVOK 30/12 Q1023 NOSIG=
201808101330 METAR LROP 101330Z 08005KT 040V130 CAVOK 30/13 Q1022 NOSIG=
201808101400 METAR LROP 101400Z 09008KT CAVOK 29/12 Q1022 NOSIG=
201808101430 METAR LROP 101430Z 08009KT 030V090 CAVOK 30/13 Q1022 NOSIG=
201808101500 METAR LROP 101500Z 07007KT 040V100 CAVOK 29/13 Q1022 NOSIG=
201808101530 METAR LROP 101530Z 03009KT 360V060 CAVOK 29/12 Q1022 NOSIG=
201808101600 METAR LROP 101600Z 06008KT CAVOK 29/12 Q1022 NOSIG=
201808101630 METAR LROP 101630Z 06008KT CAVOK 28/12 Q1022 NOSIG=
201808101700 METAR LROP 101700Z 05007KT CAVOK 27/11 Q1022 NOSIG=
201808101730 METAR LROP 101730Z 05006KT CAVOK 26/11 Q1022 NOSIG=
201808101800 METAR LROP 101800Z 03006KT CAVOK 25/11 Q1022 NOSIG=
201808101830 METAR LROP 101830Z 06006KT 030V110 CAVOK 24/12 Q1023 NOSIG=
201808101900 METAR COR LROP 101900Z 06005KT CAVOK 22/12 Q1023 NOSIG=
201808101930 METAR LROP 101930Z 09007KT CAVOK 22/13 Q1023 NOSIG=
201808102000 METAR LROP 102000Z 10005KT CAVOK 21/14 Q1023 NOSIG=
201808102030 METAR LROP 102030Z 10004KT CAVOK 20/15 Q1023 NOSIG=
201808102100 METAR LROP 102100Z 12003KT CAVOK 20/15 Q1023 NOSIG=
201808102130 METAR LROP 102130Z 12003KT CAVOK 19/15 Q1023 NOSIG=
201808102200 METAR LROP 102200Z 12002KT CAVOK 19/15 Q1023 NOSIG=
201808102230 METAR LROP 102230Z 02006KT CAVOK 19/15 Q1023 NOSIG=
201808102300 METAR LROP 102300Z 02006KT CAVOK 19/15 Q1023 NOSIG=
201808102330 METAR LROP 102330Z 05005KT CAVOK 19/15 Q1024 NOSIG=
201808110000 METAR LROP 110000Z 07005KT CAVOK 18/14 Q1023 NOSIG=
201808110030 METAR LROP 110030Z 06003KT CAVOK 18/14 Q1023 NOSIG=
201808110100 METAR LROP 110100Z 04005KT CAVOK 17/14 Q1023 NOSIG=
201808110130 METAR LROP 110130Z 02004KT CAVOK 17/14 Q1023 NOSIG=
201808110200 METAR LROP 110200Z 02003KT CAVOK 17/14 Q1023 NOSIG=
201808110230 METAR LROP 110230Z 02004KT CAVOK 16/14 Q1023 NOSIG=
201808110300 METAR LROP 110300Z 02004KT CAVOK 16/14 Q1023 NOSIG=
201808110330 METAR LROP 110330Z 34004KT 300V020 CAVOK 15/14 Q1023 NOSIG=
201808110400 METAR LROP 110400Z VRB02KT CAVOK 16/14 Q1023 NOSIG=
201808110430 METAR LROP 110430Z 02004KT CAVOK 18/15 Q1023 NOSIG=
201808110500 METAR LROP 110500Z 02004KT CAVOK 19/15 Q1023 NOSIG=
201808110530 METAR LROP 110530Z 01004KT CAVOK 20/15 Q1023 NOSIG=
201808110600 METAR LROP 110600Z 02005KT CAVOK 21/15 Q1023 NOSIG=
201808110630 METAR LROP 110630Z 03005KT 360V060 CAVOK 23/14 Q1023 NOSIG=
201808110700 METAR LROP 110700Z 03004KT 360V080 CAVOK 24/14 Q1023 NOSIG=
201808110730 METAR LROP 110730Z 03005KT 330V070 CAVOK 25/13 Q1023 NOSIG=
201808110800 METAR LROP 110800Z VRB05KT CAVOK 25/13 Q1023 NOSIG=
201808110830 METAR LROP 110830Z 04006KT 360V080 CAVOK 26/14 Q1023 NOSIG=
201808110900 METAR LROP 110900Z 06005KT 360V130 CAVOK 27/14 Q1023 NOSIG=
201808110930 METAR LROP 110930Z 11006KT 030V150 CAVOK 27/13 Q1023 NOSIG=
201808111000 METAR LROP 111000Z 07005KT 010V180 CAVOK 27/14 Q1022 NOSIG=
201808111030 METAR LROP 111030Z 05004KT 320V110 CAVOK 27/14 Q1022 NOSIG=
201808111100 METAR LROP 111100Z 08006KT 010V110 CAVOK 27/13 Q1022 NOSIG=
201808111130 METAR LROP 111130Z 14006KT 100V170 CAVOK 28/12 Q1021 NOSIG=
201808111200 METAR LROP 111200Z 06008KT 040V100 CAVOK 28/13 Q1021 NOSIG=
201808111230 METAR LROP 111230Z 11007KT 090V150 CAVOK 28/14 Q1021 NOSIG=
201808111300 METAR LROP 111300Z 35007KT 310V010 CAVOK 28/13 Q1020 NOSIG=
201808111330 METAR LROP 111330Z 04007KT CAVOK 28/13 Q1020 NOSIG=
201808111400 METAR LROP 111400Z VRB02KT CAVOK 29/13 Q1020 NOSIG=
201808111430 METAR LROP 111430Z 04005KT 010V080 CAVOK 29/13 Q1020 NOSIG=
201808111500 METAR LROP 111500Z 05003KT 350V100 CAVOK 27/14 Q1019 NOSIG=
201808111530 METAR LROP 111530Z VRB02KT CAVOK 28/15 Q1019 NOSIG=
201808111600 METAR LROP 111600Z 35004KT 320V030 CAVOK 28/14 Q1019 NOSIG=
201808111630 METAR LROP 111630Z VRB05KT CAVOK 27/14 Q1019 NOSIG=
201808111700 METAR LROP 111700Z 36005KT CAVOK 26/13 Q1019 NOSIG=
201808111730 METAR LROP 111730Z 34005KT CAVOK 25/13 Q1019 NOSIG=
201808111800 METAR LROP 111800Z 35005KT CAVOK 24/13 Q1019 NOSIG=
201808111830 METAR LROP 111830Z 34007KT CAVOK 23/13 Q1019 NOSIG=
201808111900 METAR LROP 111900Z 35006KT CAVOK 23/13 Q1019 NOSIG=
201808111930 METAR LROP 111930Z 35007KT CAVOK 23/13 Q1019 NOSIG=
201808112000 METAR LROP 112000Z 36005KT CAVOK 22/13 Q1019 NOSIG=
201808112030 METAR LROP 112030Z 01005KT 340V060 CAVOK 21/14 Q1019 NOSIG=
201808112100 METAR LROP 112100Z 34005KT 310V080 CAVOK 21/14 Q1019 NOSIG=
201808112130 METAR LROP 112130Z 33003KT 290V010 CAVOK 19/14 Q1019 NOSIG=
201808112200 METAR LROP 112200Z 29003KT 250V350 CAVOK 18/15 Q1019 NOSIG=
201808112230 METAR LROP 112230Z 30003KT 280V340 CAVOK 17/15 Q1019 NOSIG=
201808112300 METAR LROP 112300Z 10008KT CAVOK 17/15 Q1019 NOSIG=
201808112330 METAR LROP 112330Z VRB02KT CAVOK 17/15 Q1019 NOSIG=
201808120000 METAR LROP 120000Z 00000KT CAVOK 17/15 Q1019 NOSIG=
201808120030 METAR LROP 120030Z 28007KT CAVOK 16/14 Q1019 NOSIG=
201808120100 METAR LROP 120100Z 29004KT CAVOK 16/14 Q1019 NOSIG=
201808120130 METAR LROP 120130Z 30003KT CAVOK 15/14 Q1018 NOSIG=
201808120200 METAR LROP 120200Z 28005KT CAVOK 15/14 Q1018 NOSIG=
201808120230 METAR LROP 120230Z 29004KT CAVOK 15/14 Q1018 NOSIG=
201808120300 METAR LROP 120300Z 28004KT CAVOK 15/14 Q1018 NOSIG=
201808120330 METAR LROP 120330Z 30004KT CAVOK 15/14 Q1019 NOSIG=
201808120400 METAR LROP 120400Z 31004KT CAVOK 16/14 Q1019 NOSIG=
201808120430 METAR LROP 120430Z 31004KT CAVOK 17/15 Q1019 NOSIG=
201808120500 METAR LROP 120500Z 29005KT CAVOK 18/15 Q1019 NOSIG=
201808120530 METAR LROP 120530Z 30004KT CAVOK 19/15 Q1019 NOSIG=
201808120600 METAR LROP 120600Z 30003KT 270V350 CAVOK 20/16 Q1019 NOSIG=
201808120630 METAR LROP 120630Z 31003KT 270V330 CAVOK 22/16 Q1019 NOSIG=
201808120700 METAR LROP 120700Z VRB02KT CAVOK 24/16 Q1019 NOSIG=
201808120730 METAR LROP 120730Z VRB02KT CAVOK 26/16 Q1019 NOSIG=
201808120800 METAR LROP 120800Z VRB02KT CAVOK 27/16 Q1019 NOSIG=
201808120830 METAR LROP 120830Z 21005KT 180V290 CAVOK 28/16 Q1019 NOSIG=
201808120900 METAR LROP 120900Z 21005KT 150V270 CAVOK 28/15 Q1019 NOSIG=
201808120930 METAR LROP 120930Z 27004KT 200V330 CAVOK 28/14 Q1019 NOSIG=
201808121000 METAR LROP 121000Z VRB03KT CAVOK 29/14 Q1019 NOSIG=
201808121030 METAR LROP 121030Z 21004KT CAVOK 29/14 Q1018 NOSIG=
201808121100 METAR LROP 121100Z VRB04KT CAVOK 30/13 Q1018 NOSIG=
201808121130 METAR LROP 121130Z 24004KT 180V290 CAVOK 30/12 Q1018 NOSIG=
201808121200 METAR LROP 121200Z VRB03KT CAVOK 30/13 Q1018 NOSIG=
201808121230 METAR COR LROP 121230Z VRB04KT CAVOK 30/13 Q1018 NOSIG=
201808121300 METAR LROP 121300Z 21003KT 150V320 CAVOK 31/12 Q1017 NOSIG=
201808121330 METAR LROP 121330Z 10005KT 050V170 CAVOK 31/13 Q1017 NOSIG=
201808121400 METAR LROP 121400Z 30003KT 240V030 CAVOK 31/14 Q1017 NOSIG=
201808121430 METAR LROP 121430Z 09004KT CAVOK 30/11 Q1017 NOSIG=
201808121500 METAR LROP 121500Z VRB03KT CAVOK 30/14 Q1017 NOSIG=
201808121530 METAR LROP 121530Z VRB02KT CAVOK 30/13 Q1017 NOSIG=
201808121600 METAR LROP 121600Z VRB02KT CAVOK 29/12 Q1017 NOSIG=
201808121630 METAR LROP 121630Z 15003KT CAVOK 27/13 Q1017 NOSIG=
201808121700 METAR LROP 121700Z 14002KT CAVOK 27/12 Q1017 NOSIG=
201808121730 METAR LROP 121730Z VRB02KT CAVOK 25/13 Q1017 NOSIG=
201808121800 METAR LROP 121800Z 24003KT CAVOK 24/14 Q1017 NOSIG=
201808121830 METAR LROP 121830Z 28002KT CAVOK 23/13 Q1017 NOSIG=
201808121900 METAR LROP 121900Z 25003KT CAVOK 23/14 Q1017 NOSIG=
201808121930 METAR LROP 121930Z 00000KT CAVOK 22/14 Q1017 NOSIG=
201808122000 METAR LROP 122000Z 19001KT CAVOK 21/15 Q1017 NOSIG=
201808122030 METAR LROP 122030Z 00000KT CAVOK 20/14 Q1017 NOSIG=
201808122100 METAR LROP 122100Z 01003KT 340V050 CAVOK 21/15 Q1018 NOSIG=
201808122130 METAR LROP 122130Z 10005KT CAVOK 20/15 Q1018 NOSIG=
201808122200 METAR LROP 122200Z 07003KT 010V090 CAVOK 20/13 Q1018 NOSIG=
201808122230 METAR LROP 122230Z 09004KT CAVOK 19/13 Q1018 NOSIG=
201808122300 METAR LROP 122300Z 16004KT CAVOK 18/15 Q1017 NOSIG=
201808122330 METAR LROP 122330Z 18003KT CAVOK 18/15 Q1017 NOSIG=
201808130000 METAR LROP 130000Z 18002KT CAVOK 19/15 Q1017 NOSIG=
201808130030 METAR LROP 130030Z 00000KT CAVOK 18/15 Q1017 NOSIG=
201808130100 METAR LROP 130100Z 30002KT CAVOK 18/15 Q1017 NOSIG=
201808130130 METAR LROP 130130Z VRB02KT CAVOK 17/15 Q1017 NOSIG=
201808130200 METAR LROP 130200Z VRB02KT CAVOK 17/15 Q1017 NOSIG=
201808130230 METAR LROP 130230Z 00000KT CAVOK 17/15 Q1017=
201808130300 METAR LROP 130300Z VRB01KT CAVOK 16/15 Q1017 NOSIG=
201808130330 METAR LROP 130330Z 32003KT 270V360 CAVOK 16/15 Q1017 NOSIG=
201808130400 METAR LROP 130400Z VRB02KT CAVOK 16/15 Q1017 NOSIG=
201808130430 METAR LROP 130430Z VRB02KT CAVOK 18/16 Q1017 NOSIG=
201808130500 METAR LROP 130500Z VRB02KT CAVOK 20/17 Q1017 NOSIG=
201808130530 METAR LROP 130530Z 02003KT 330V050 CAVOK 22/16 Q1017 NOSIG=
201808130600 METAR LROP 130600Z 05003KT 360V100 CAVOK 24/17 Q1017 NOSIG=
201808130630 METAR LROP 130630Z 06003KT 030V120 CAVOK 24/17 Q1017 NOSIG=
201808130700 METAR LROP 130700Z 12003KT 050V170 CAVOK 26/16 Q1017 NOSIG=
201808130730 METAR LROP 130730Z 13003KT 080V160 CAVOK 27/17 Q1017 NOSIG=
201808130800 METAR LROP 130800Z 12003KT 050V180 CAVOK 27/16 Q1017 NOSIG=
201808130830 METAR LROP 130830Z 12004KT 050V150 CAVOK 28/17 Q1017 NOSIG=
201808130900 METAR LROP 130900Z 10004KT 040V150 CAVOK 28/15 Q1017 NOSIG=
201808130930 METAR LROP 130930Z 14006KT 100V180 CAVOK 29/16 Q1017 NOSIG=
201808131000 METAR LROP 131000Z 13006KT 080V160 CAVOK 29/16 Q1017 NOSIG=
201808131030 METAR LROP 131030Z 11006KT 060V160 CAVOK 29/16 Q1016 NOSIG=
201808131100 METAR LROP 131100Z 08004KT 020V150 CAVOK 30/13 Q1016 NOSIG=
201808131130 METAR LROP 131130Z 17004KT 110V220 CAVOK 30/13 Q1016 NOSIG=
201808131200 METAR LROP 131200Z VRB04KT CAVOK 30/13 Q1016 NOSIG=
201808131230 METAR LROP 131230Z 14006KT 110V170 CAVOK 31/13 Q1015 NOSIG=
201808131300 METAR LROP 131300Z 16005KT 060V220 CAVOK 30/14 Q1015 NOSIG=
201808131330 METAR LROP 131330Z 14006KT 110V180 CAVOK 31/13 Q1015 NOSIG=
201808131400 METAR LROP 131400Z 14006KT 120V190 CAVOK 31/14 Q1014 NOSIG=
201808131430 METAR LROP 131430Z 18005KT 120V240 CAVOK 31/15 Q1014 NOSIG=
201808131500 METAR LROP 131500Z 15005KT 110V200 CAVOK 30/15 Q1014 NOSIG=
201808131530 METAR LROP 131530Z 16005KT CAVOK 30/13 Q1014 NOSIG=
201808131600 METAR LROP 131600Z 16004KT CAVOK 30/14 Q1014 NOSIG=
201808131630 METAR LROP 131630Z 14004KT CAVOK 28/14 Q1014 NOSIG=
201808131700 METAR LROP 131700Z 15004KT CAVOK 26/14 Q1014 NOSIG=
201808131730 METAR LROP 131730Z 14005KT CAVOK 24/13 Q1014 NOSIG=
201808131800 METAR LROP 131800Z 15004KT CAVOK 23/12 Q1014 NOSIG=
201808131830 METAR LROP 131830Z 23003KT 190V280 CAVOK 23/12 Q1014 NOSIG=
201808131900 METAR LROP 131900Z VRB02KT CAVOK 23/12 Q1014 NOSIG=
201808131930 METAR LROP 131930Z 01001KT CAVOK 22/12 Q1014 NOSIG=
201808132000 METAR LROP 132000Z 09003KT 050V120 CAVOK 21/13 Q1014 NOSIG=
201808132030 METAR LROP 132030Z VRB02KT CAVOK 20/14 Q1014 NOSIG=
201808132100 METAR LROP 132100Z 13004KT CAVOK 20/14 Q1014 NOSIG=
201808132130 METAR LROP 132130Z 15002KT CAVOK 20/13 Q1015 NOSIG=
201808132200 METAR LROP 132200Z 12002KT CAVOK 19/13 Q1015 NOSIG=
201808132230 METAR LROP 132230Z 00000KT CAVOK 19/14 Q1015 NOSIG=
201808132300 METAR LROP 132300Z VRB01KT CAVOK 19/13 Q1015 NOSIG=
201808132330 METAR LROP 132330Z VRB01KT CAVOK 18/13 Q1015 NOSIG=
201808140000 METAR LROP 140000Z 29004KT CAVOK 19/12 Q1015 NOSIG=
201808140030 METAR LROP 140030Z VRB01KT CAVOK 18/12 Q1015 NOSIG=
201808140100 METAR LROP 140100Z VRB01KT CAVOK 18/12 Q1015 NOSIG=
201808140130 METAR LROP 140130Z VRB01KT CAVOK 17/13 Q1015 NOSIG=
201808140200 METAR LROP 140200Z 07003KT CAVOK 16/13 Q1015 NOSIG=
201808140230 METAR LROP 140230Z 07003KT CAVOK 16/14 Q1015 NOSIG=
201808140300 METAR LROP 140300Z 09003KT CAVOK 16/13 Q1015 NOSIG=
201808140330 METAR LROP 140330Z 06002KT CAVOK 16/14 Q1015 NOSIG=
201808140400 METAR LROP 140400Z 03003KT CAVOK 17/14 Q1015 NOSIG=
201808140430 METAR LROP 140430Z 04003KT CAVOK 19/15 Q1015 NOSIG=
201808140500 METAR LROP 140500Z 09003KT CAVOK 19/15 Q1015 NOSIG=
201808140530 METAR LROP 140530Z VRB02KT CAVOK 20/14 Q1015 NOSIG=
201808140600 METAR LROP 140600Z 11004KT CAVOK 22/14 Q1015 NOSIG=
201808140630 METAR LROP 140630Z 08003KT 020V120 CAVOK 24/13 Q1015 NOSIG=
201808140700 METAR LROP 140700Z VRB02KT CAVOK 25/13 Q1015 NOSIG=
201808140730 METAR LROP 140730Z 13004KT 090V170 CAVOK 26/13 Q1015 NOSIG=
201808140800 METAR LROP 140800Z 12004KT 050V160 CAVOK 27/12 Q1016 NOSIG=
201808140830 METAR LROP 140830Z 11004KT 060V150 CAVOK 28/14 Q1015 NOSIG=
201808140900 METAR LROP 140900Z 14007KT 100V160 CAVOK 28/13 Q1015 NOSIG=
201808140930 METAR LROP 140930Z 12006KT CAVOK 29/13 Q1015 NOSIG=
201808141000 METAR LROP 141000Z 16006KT 130V190 CAVOK 29/12 Q1015 NOSIG=
201808141030 METAR LROP 141030Z 14007KT CAVOK 30/13 Q1015 NOSIG=
201808141100 METAR LROP 141100Z 12007KT CAVOK 30/14 Q1014 NOSIG=
201808141130 METAR LROP 141130Z 15006KT 100V190 CAVOK 30/14 Q1014 NOSIG=
201808141200 METAR LROP 141200Z 12005KT 050V160 CAVOK 31/13 Q1014 NOSIG=
201808141230 METAR LROP 141230Z 10006KT 060V130 CAVOK 31/14 Q1013 NOSIG=
201808141300 METAR LROP 141300Z 11007KT CAVOK 31/13 Q1013 NOSIG=
201808141330 METAR LROP 141330Z 11008KT 080V140 CAVOK 32/13 Q1013 NOSIG=
201808141400 METAR LROP 141400Z 13006KT 100V180 CAVOK 32/13 Q1013 NOSIG=
201808141430 METAR LROP 141430Z 11006KT CAVOK 31/14 Q1013 NOSIG=
201808141500 METAR LROP 141500Z 14005KT 090V190 CAVOK 31/14 Q1013 NOSIG=
201808141530 METAR LROP 141530Z 12003KT 080V170 CAVOK 31/13 Q1013 NOSIG=
201808141600 METAR LROP 141600Z 12003KT CAVOK 30/15 Q1013 NOSIG=
201808141630 METAR LROP 141630Z 12004KT CAVOK 28/15 Q1013 NOSIG=
201808141700 METAR LROP 141700Z 15003KT CAVOK 28/15 Q1013 NOSIG=
201808141730 METAR LROP 141730Z 15004KT CAVOK 26/15 Q1013 NOSIG=
201808141800 METAR LROP 141800Z 14004KT CAVOK 25/16 Q1013 NOSIG=
201808141830 METAR LROP 141830Z 14004KT CAVOK 24/15 Q1013 NOSIG=
201808141900 METAR LROP 141900Z 16003KT CAVOK 23/14 Q1013 NOSIG=
201808141930 METAR LROP 141930Z 15004KT CAVOK 22/15 Q1013 NOSIG=
201808142000 METAR LROP 142000Z 16006KT CAVOK 22/14 Q1014 NOSIG=
201808142030 METAR LROP 142030Z 15003KT CAVOK 23/14 Q1013 NOSIG=
201808142100 METAR LROP 142100Z VRB01KT CAVOK 22/14 Q1014 NOSIG=
201808142130 METAR LROP 142130Z VRB01KT CAVOK 22/14 Q1014 NOSIG=
201808142200 METAR LROP 142200Z VRB01KT CAVOK 20/15 Q1014 NOSIG=
201808142230 METAR LROP 142230Z 33003KT 290V360 CAVOK 19/15 Q1014 NOSIG=
201808142300 METAR LROP 142300Z VRB02KT CAVOK 18/15 Q1014 NOSIG=
201808142330 METAR LROP 142330Z 01003KT 330V030 CAVOK 18/15 Q1014 NOSIG=
201808150000 METAR LROP 150000Z 01004KT CAVOK 19/15 Q1014 NOSIG=
201808150030 METAR LROP 150030Z 02005KT CAVOK 18/15 Q1014 NOSIG=
201808150100 METAR LROP 150100Z 02003KT CAVOK 18/15 Q1014 NOSIG=
201808150130 METAR LROP 150130Z 01004KT 350V070 CAVOK 17/15 Q1014 NOSIG=
201808150200 METAR LROP 150200Z 03004KT CAVOK 17/15 Q1014 NOSIG=
201808150230 METAR LROP 150230Z VRB02KT CAVOK 17/15 Q1014 NOSIG=
201808150300 METAR LROP 150300Z 04003KT CAVOK 17/14 Q1014 NOSIG=
201808150330 METAR LROP 150330Z 01004KT CAVOK 16/14 Q1014 NOSIG=
201808150400 METAR LROP 150400Z 03004KT CAVOK 18/15 Q1014 NOSIG=
201808150430 METAR LROP 150430Z 04004KT CAVOK 19/15 Q1014 NOSIG=
201808150500 METAR LROP 150500Z 08004KT CAVOK 20/16 Q1014 NOSIG=
201808150530 METAR LROP 150530Z 08004KT CAVOK 20/15 Q1014 NOSIG=
201808150600 METAR LROP 150600Z 06003KT 010V090 CAVOK 21/15 Q1014 NOSIG=
201808150630 METAR LROP 150630Z 04003KT 010V070 CAVOK 23/15 Q1015 NOSIG=
201808150700 METAR LROP 150700Z 04003KT 340V080 CAVOK 24/16 Q1015 NOSIG=
201808150730 METAR LROP 150730Z 06004KT 010V120 CAVOK 26/15 Q1015 NOSIG=
201808150800 METAR LROP 150800Z 04004KT 350V070 CAVOK 26/14 Q1015 NOSIG=
201808150830 METAR LROP 150830Z 07004KT 350V100 CAVOK 28/14 Q1015 NOSIG=
201808150900 METAR LROP 150900Z 10005KT CAVOK 27/14 Q1015 NOSIG=
201808150930 METAR LROP 150930Z 12004KT CAVOK 27/15 Q1015 NOSIG=
201808151000 METAR LROP 151000Z 11003KT 040V170 CAVOK 28/14 Q1015 NOSIG=
201808151030 METAR LROP 151030Z VRB02KT CAVOK 28/13 Q1015 NOSIG=
201808151100 METAR LROP 151100Z VRB01KT CAVOK 27/17 Q1015 NOSIG=
201808151130 METAR LROP 151130Z 01003KT 300V070 CAVOK 29/15 Q1014 NOSIG=
201808151200 METAR LROP 151200Z VRB02KT CAVOK 30/17 Q1014 NOSIG=
201808151230 METAR LROP 151230Z 31004KT 250V340 CAVOK 31/16 Q1014 NOSIG=
201808151300 METAR LROP 151300Z 35004KT 280V080 CAVOK 31/14 Q1013 NOSIG=
201808151330 METAR LROP 151330Z VRB02KT CAVOK 32/13 Q1013 NOSIG=
201808151400 METAR LROP 151400Z 17003KT 110V280 CAVOK 31/13 Q1013 NOSIG=
201808151430 METAR LROP 151430Z 28003KT 220V360 CAVOK 31/14 Q1013 NOSIG=
201808151500 METAR LROP 151500Z VRB03KT CAVOK 30/14 Q1013 NOSIG=
201808151530 METAR LROP 151530Z 11004KT CAVOK 30/14 Q1013 NOSIG=
201808151600 METAR LROP 151600Z 02009KT CAVOK 29/13 Q1013 NOSIG=
201808151630 METAR LROP 151630Z 36007KT CAVOK 28/14 Q1013 NOSIG=
201808151700 METAR LROP 151700Z 36006KT CAVOK 27/14 Q1014 NOSIG=
201808151730 METAR LROP 151730Z 36007KT CAVOK 26/13 Q1014 NOSIG=
201808151800 METAR LROP 151800Z 36006KT CAVOK 25/14 Q1014 NOSIG=
201808151830 METAR LROP 151830Z 35006KT CAVOK 23/14 Q1014 NOSIG=
201808151900 METAR LROP 151900Z VRB01KT CAVOK 22/14 Q1014 NOSIG=
201808151930 METAR LROP 151930Z 36003KT CAVOK 23/13 Q1014 NOSIG=
201808152000 METAR LROP 152000Z 36004KT CAVOK 21/14 Q1014 NOSIG=
201808152030 METAR LROP 152030Z 36005KT CAVOK 22/14 Q1014 NOSIG=
201808152100 METAR LROP 152100Z 36006KT CAVOK 22/15 Q1014 NOSIG=
201808152130 METAR LROP 152130Z 10006KT 050V130 CAVOK 21/15 Q1014 NOSIG=
201808152200 METAR LROP 152200Z VRB02KT CAVOK 19/15 Q1014 NOSIG=
201808152230 METAR LROP 152230Z 01004KT CAVOK 19/15 Q1014 NOSIG=
201808152300 METAR LROP 152300Z 34003KT 300V020 CAVOK 19/15 Q1014 NOSIG=
201808152330 METAR LROP 152330Z 34004KT CAVOK 19/14 Q1014 NOSIG=
201808160000 METAR LROP 160000Z VRB01KT CAVOK 18/14 Q1014 NOSIG=
201808160030 METAR LROP 160030Z 35004KT CAVOK 18/14 Q1014 NOSIG=
201808160100 METAR LROP 160100Z 01004KT CAVOK 18/14 Q1014 NOSIG=
201808160130 METAR LROP 160130Z 03006KT CAVOK 17/14 Q1014 NOSIG=
201808160200 METAR LROP 160200Z 02003KT CAVOK 17/14 Q1014 NOSIG=
201808160230 METAR LROP 160230Z 01003KT CAVOK 17/14 Q1014 NOSIG=
201808160300 METAR LROP 160300Z 32003KT 270V010 CAVOK 16/13 Q1014 NOSIG=
201808160330 METAR LROP 160330Z VRB02KT CAVOK 16/14 Q1014 NOSIG=
201808160400 METAR LROP 160400Z 35004KT 320V030 CAVOK 17/14 Q1015 NOSIG=
201808160430 METAR LROP 160430Z 35005KT CAVOK 18/13 Q1015 NOSIG=
201808160500 METAR LROP 160500Z 35004KT 320V030 CAVOK 20/14 Q1015 NOSIG=
201808160530 METAR LROP 160530Z 35004KT CAVOK 22/14 Q1015 NOSIG=
201808160600 METAR LROP 160600Z 01003KT 320V050 CAVOK 23/14 Q1015 NOSIG=
201808160630 METAR LROP 160630Z AUTO 07008KT 030V100 9999 NCD 25/14 Q1015
                        NOSIG=
201808160700 METAR LROP 160700Z 06010KT CAVOK 26/15 Q1015 NOSIG=
201808160730 METAR LROP 160730Z 06009KT 030V090 CAVOK 27/15 Q1015 NOSIG=
201808160800 METAR LROP 160800Z 06009KT CAVOK 28/15 Q1015 NOSIG=
201808160830 METAR LROP 160830Z 06007KT 030V090 CAVOK 29/16 Q1015 NOSIG=
201808160900 METAR LROP 160900Z 06008KT 030V100 CAVOK 30/16 Q1015 NOSIG=
201808160930 METAR LROP 160930Z 06008KT CAVOK 30/16 Q1015 NOSIG=
201808161000 METAR LROP 161000Z 08008KT 040V120 CAVOK 31/15 Q1014 NOSIG=
201808161030 METAR LROP 161030Z 08008KT CAVOK 31/15 Q1014 NOSIG=
201808161100 METAR LROP 161100Z 08007KT 040V200 CAVOK 32/14 Q1014 NOSIG=
201808161130 METAR LROP 161130Z 05009KT 020V080 CAVOK 32/15 Q1014 NOSIG=
201808161200 METAR LROP 161200Z 07007KT CAVOK 32/14 Q1014 NOSIG=
201808161230 METAR LROP 161230Z 08010KT CAVOK 32/14 Q1013 NOSIG=
201808161300 METAR LROP 161300Z 05010KT CAVOK 32/14 Q1013 NOSIG=
201808161330 METAR LROP 161330Z 05009KT 030V100 CAVOK 32/14 Q1013 NOSIG=
201808161400 METAR LROP 161400Z 04008KT 020V080 CAVOK 32/14 Q1013 NOSIG=
201808161430 METAR LROP 161430Z 04011KT CAVOK 33/15 Q1013 NOSIG=
201808161500 METAR LROP 161500Z 06008KT CAVOK 32/14 Q1013 NOSIG=
201808161530 METAR LROP 161530Z 04010KT CAVOK 32/13 Q1013 NOSIG=
201808161600 METAR LROP 161600Z 04007KT CAVOK 31/13 Q1013 NOSIG=
201808161630 METAR LROP 161630Z 05007KT CAVOK 31/14 Q1013 NOSIG=
201808161700 METAR LROP 161700Z 05007KT CAVOK 30/14 Q1013 NOSIG=
201808161730 METAR LROP 161730Z 03006KT CAVOK 29/14 Q1013 NOSIG=
201808161800 METAR LROP 161800Z 02007KT CAVOK 28/15 Q1013 NOSIG=
201808161830 METAR LROP 161830Z 02007KT CAVOK 27/15 Q1014 NOSIG=
201808161900 METAR LROP 161900Z 03007KT CAVOK 26/15 Q1014 NOSIG=
201808161930 METAR LROP 161930Z 02006KT CAVOK 26/15 Q1014 NOSIG=
201808162000 METAR LROP 162000Z 02007KT CAVOK 25/15 Q1014 NOSIG=
201808162030 METAR LROP 162030Z 01006KT CAVOK 25/15 Q1014 NOSIG=
201808162100 METAR LROP 162100Z 36005KT CAVOK 24/16 Q1014 NOSIG=
201808162130 METAR LROP 162130Z 35006KT CAVOK 23/16 Q1014 NOSIG=
201808162200 METAR LROP 162200Z 36006KT CAVOK 23/16 Q1014 NOSIG=
201808162230 METAR LROP 162230Z 36006KT CAVOK 22/16 Q1014 NOSIG=
201808162300 METAR LROP 162300Z 35005KT CAVOK 21/16 Q1014 NOSIG=
201808162330 METAR LROP 162330Z 35006KT CAVOK 21/16 Q1014 NOSIG=
201808170000 METAR LROP 170000Z 36006KT CAVOK 21/16 Q1014 NOSIG=
201808170030 METAR LROP 170030Z 01004KT CAVOK 20/15 Q1014 NOSIG=
201808170100 METAR LROP 170100Z 36004KT 350V050 CAVOK 20/16 Q1014 NOSIG=
201808170130 METAR LROP 170130Z 36005KT CAVOK 19/16 Q1013 NOSIG=
201808170200 METAR COR LROP 170200Z VRB01KT CAVOK 19/15 Q1014 NOSIG=
201808170230 METAR COR LROP 170230Z VRB02KT CAVOK 19/15 Q1014 NOSIG=
201808170300 METAR LROP 170300Z 28003KT 250V310 CAVOK 18/15 Q1014 NOSIG=
201808170330 METAR LROP 170330Z 26003KT 240V310 CAVOK 18/15 Q1014 NOSIG=
201808170400 METAR LROP 170400Z 26003KT CAVOK 18/15 Q1014 NOSIG=
201808170430 METAR LROP 170430Z 28004KT CAVOK 19/15 Q1014 NOSIG=
201808170500 METAR LROP 170500Z 26004KT CAVOK 21/17 Q1014 NOSIG=
201808170530 METAR LROP 170530Z 27004KT 250V320 CAVOK 22/17 Q1015 NOSIG=
201808170600 METAR COR LROP 170600Z 25003KT 220V350 CAVOK 24/18 Q1015
                        NOSIG=
201808170630 METAR LROP 170630Z 07005KT 030V100 CAVOK 26/17 Q1015 NOSIG=
201808170700 METAR LROP 170700Z 05011KT CAVOK 27/17 Q1015 NOSIG=
201808170730 METAR LROP 170730Z 05010KT CAVOK 28/18 Q1015 NOSIG=
201808170800 METAR LROP 170800Z 07008KT 040V100 CAVOK 29/18 Q1015 NOSIG=
201808170830 METAR LROP 170830Z 07009KT 030V090 CAVOK 29/18 Q1015 NOSIG=
201808170900 METAR LROP 170900Z 06008KT 040V120 CAVOK 30/19 Q1015 NOSIG=
201808170930 METAR LROP 170930Z 09007KT CAVOK 30/18 Q1015 NOSIG=
201808171000 METAR LROP 171000Z 07007KT 030V100 CAVOK 31/18 Q1014 NOSIG=
201808171030 METAR COR LROP 171030Z 07008KT CAVOK 31/17 Q1014 NOSIG=
201808171100 METAR LROP 171100Z 08006KT 040V130 CAVOK 32/18 Q1014 NOSIG=
201808171130 METAR LROP 171130Z 03007KT 330V080 CAVOK 32/17 Q1014 NOSIG=
201808171200 METAR LROP 171200Z 10005KT 060V130 CAVOK 32/17 Q1013 NOSIG=
201808171230 METAR LROP 171230Z 07008KT 040V100 CAVOK 32/15 Q1013 NOSIG=
201808171300 METAR LROP 171300Z 08007KT 040V140 9999 FEW060CB 33/17 Q1013
                        TEMPO VRB15G25KT 5000 TSRA SCT040CB=
201808171330 METAR LROP 171330Z 04008KT 010V070 9999 FEW060CB 33/14 Q1013
                        TEMPO VRB15G25KT 5000 TSRA SCT040CB=
201808171400 METAR LROP 171400Z 05006KT 350V100 9999 FEW050CB 33/16 Q1012
                        TEMPO VRB15G25KT 5000 TSRA SCT040CB=
201808171430 METAR LROP 171430Z 35013KT 9999 FEW050CB 30/17 Q1013 NOSIG=
201808171500 METAR LROP 171500Z 32007KT 9999 FEW050CB 28/17 Q1013 NOSIG=
201808171530 METAR LROP 171530Z 33006KT 9999 FEW050CB 27/16 Q1013 NOSIG=
201808171600 METAR LROP 171600Z 31007KT 9999 FEW050CB 27/16 Q1013 NOSIG=
201808171630 METAR LROP 171630Z 35006KT CAVOK 28/16 Q1013 NOSIG=
201808171700 METAR LROP 171700Z 01004KT 350V090 CAVOK 27/16 Q1013 NOSIG=
201808171730 METAR LROP 171730Z 35006KT 310V020 CAVOK 27/17 Q1014 NOSIG=
201808171800 METAR LROP 171800Z 36007KT CAVOK 26/17 Q1014 NOSIG=
201808171830 METAR LROP 171830Z 34007KT 300V360 CAVOK 26/16 Q1014 NOSIG=
201808171900 METAR LROP 171900Z 35006KT CAVOK 25/16 Q1014 NOSIG=
201808171930 METAR LROP 171930Z 34005KT CAVOK 24/16 Q1014 NOSIG=
201808172000 METAR LROP 172000Z 35007KT CAVOK 24/16 Q1014 NOSIG=
201808172030 METAR LROP 172030Z 21003KT 160V300 CAVOK 22/17 Q1015 NOSIG=
201808172100 METAR LROP 172100Z 33003KT 290V030 CAVOK 22/16 Q1015 NOSIG=
201808172130 METAR LROP 172130Z 18008KT CAVOK 21/17 Q1015 NOSIG=
201808172200 METAR LROP 172200Z VRB02KT CAVOK 22/16 Q1015 NOSIG=
201808172230 METAR LROP 172230Z 25008KT CAVOK 22/16 Q1015 NOSIG=
201808172300 METAR LROP 172300Z 26006KT CAVOK 20/17 Q1015 NOSIG=
201808172330 METAR LROP 172330Z 26006KT CAVOK 20/16 Q1015 NOSIG=
201808180000 METAR LROP 180000Z 25007KT 210V270 CAVOK 19/16 Q1015 NOSIG=
201808180030 METAR LROP 180030Z 27006KT CAVOK 19/16 Q1015 NOSIG=
201808180100 METAR LROP 180100Z 31005KT CAVOK 19/16 Q1015 NOSIG=
201808180130 METAR LROP 180130Z 30005KT CAVOK 18/15 Q1014 NOSIG=
201808180200 METAR LROP 180200Z 30005KT CAVOK 18/15 Q1014 NOSIG=
201808180230 METAR LROP 180230Z 30006KT CAVOK 18/15 Q1014 NOSIG=
201808180300 METAR LROP 180300Z 31003KT CAVOK 18/15 Q1015 NOSIG=
201808180330 METAR LROP 180330Z 28004KT 240V310 CAVOK 17/15 Q1015 NOSIG=
201808180400 METAR LROP 180400Z 31003KT CAVOK 18/15 Q1015 NOSIG=
201808180430 METAR LROP 180430Z VRB02KT CAVOK 19/16 Q1015 NOSIG=
201808180500 METAR LROP 180500Z 33004KT CAVOK 21/17 Q1015 NOSIG=
201808180530 METAR LROP 180530Z 33005KT CAVOK 24/16 Q1015 NOSIG=
201808180600 METAR LROP 180600Z 33005KT CAVOK 25/16 Q1016 NOSIG=
201808180630 METAR LROP 180630Z 33004KT 310V010 CAVOK 27/16 Q1016 NOSIG=
201808180700 METAR LROP 180700Z VRB02KT CAVOK 27/18 Q1016 NOSIG=
201808180730 METAR LROP 180730Z 03006KT 350V050 CAVOK 28/16 Q1016 NOSIG=
201808180800 METAR LROP 180800Z 06010KT 360V090 CAVOK 29/17 Q1016 NOSIG=
201808180830 METAR LROP 180830Z 05009KT CAVOK 30/17 Q1016 NOSIG=
201808180900 METAR LROP 180900Z 06014KT CAVOK 30/16 Q1016 NOSIG=
201808180930 METAR LROP 180930Z 05012KT CAVOK 31/16 Q1016 NOSIG=
201808181000 METAR LROP 181000Z 06011KT CAVOK 32/16 Q1016 NOSIG=
201808181030 METAR LROP 181030Z 06012KT 020V090 CAVOK 32/16 Q1015 NOSIG=
201808181100 METAR LROP 181100Z 06010KT CAVOK 33/16 Q1015 NOSIG=
201808181130 METAR LROP 181130Z 05009KT 010V080 CAVOK 33/16 Q1015 NOSIG=
201808181200 METAR LROP 181200Z 06010KT CAVOK 33/16 Q1015 NOSIG=
201808181230 METAR LROP 181230Z 09009KT 050V120 9999 FEW060TCU 34/15 Q1015
                        NOSIG=
201808181300 METAR LROP 181300Z 08009KT 040V100 9999 FEW055CB 33/14 Q1015
                        TEMPO VRB15G25KT 5000 -TSRA=
201808181330 METAR LROP 181330Z 06008KT 9999 FEW055CB 33/15 Q1015 TEMPO
                        VRB15G25KT 5000 -TSRA=
201808181400 METAR LROP 181400Z 08010KT 9999 FEW055CB 33/15 Q1015 TEMPO
                        VRB15G25KT 5000 -TSRA=
201808181430 METAR LROP 181430Z 35014KT 9999 SCT060CB 29/15 Q1015 TEMPO
                        VRB15G25KT 5000 -TSRA=
201808181500 METAR LROP 181500Z 35012KT 9999 TS SCT051CB 27/16 Q1015 TEMPO
                        VRB15G25KT 5000 -TSRA=
201808181530 METAR LROP 181530Z 33010KT 9999 SCT055CB 27/15 Q1015 RETS
                        NOSIG=
201808181600 METAR LROP 181600Z 34005KT 300V010 9999 -SHRA FEW050CB 26/16
                        Q1015 NOSIG=
201808181630 METAR LROP 181630Z 33005KT 9999 FEW050CB 26/15 Q1016 TEMPO
                        5000 SHRA SCT040CB=
201808181700 METAR LROP 181700Z VRB04KT 9999 TS SCT050CB 25/17 Q1016 TEMPO
                        5000 TSRA SCT040CB=
201808181730 METAR LROP 181730Z 21004KT 140V260 9999 TS SCT050CB 24/17
                        Q1016 TEMPO 5000 TSRA=
201808181800 METAR LROP 181800Z 32006KT 9999 TS SCT050CB 24/15 Q1016 TEMPO
                        5000 TSRA=
201808181830 METAR LROP 181830Z 01005KT 340V040 9999 FEW050CB 24/15 Q1017
                        RETS NOSIG=
201808181900 METAR LROP 181900Z 03008KT 9999 VCTS FEW050CB 25/15 Q1017
                        NOSIG=
201808181930 METAR LROP 181930Z 07011KT 020V090 9999 TS SCT050CB 25/14
                        Q1017 TEMPO 5000 TSRA=
201808182000 METAR LROP 182000Z 06012KT 9999 SCT050CB 24/16 Q1017 RETS
                        R88/29//95 TEMPO 5000 TSRA=
201808182030 METAR LROP 182030Z 02006KT 9999 FEW050CB 23/16 Q1017 R88/19//95
                        NOSIG=
201808182100 METAR LROP 182100Z 01008KT 9999 FEW050CB 23/16 Q1017 R88/19//95
                        NOSIG=
201808182130 METAR LROP 182130Z 01008KT 9999 FEW050CB 23/15 Q1017 R88/19//95
                        NOSIG=
201808182200 METAR LROP 182200Z 02007KT CAVOK 23/15 Q1017 R88/CLRD// NOSIG=
201808182230 METAR LROP 182230Z 05004KT CAVOK 22/15 Q1017 NOSIG=
201808182300 METAR LROP 182300Z 01003KT 350V050 CAVOK 21/15 Q1017 NOSIG=
201808182330 METAR LROP 182330Z 27006KT CAVOK 20/15 Q1017 NOSIG=
201808190000 METAR COR LROP 190000Z 27008KT CAVOK 19/15 Q1017 NOSIG=
201808190030 METAR LROP 190030Z 27007KT CAVOK 19/15 Q1017 NOSIG=
201808190100 METAR LROP 190100Z 27004KT CAVOK 19/15 Q1017 NOSIG=
201808190130 METAR LROP 190130Z 04007KT 340V060 CAVOK 19/15 Q1017 NOSIG=
201808190200 METAR LROP 190200Z 05005KT 360V100 CAVOK 20/15 Q1017 NOSIG=
201808190230 METAR LROP 190230Z 11003KT 090V210 CAVOK 20/15 Q1017 NOSIG=
201808190300 METAR LROP 190300Z VRB02KT CAVOK 19/16 Q1017 NOSIG=
201808190330 METAR LROP 190330Z 05007KT CAVOK 20/16 Q1018 NOSIG=
201808190400 METAR LROP 190400Z 07005KT CAVOK 19/16 Q1018 NOSIG=
201808190430 METAR LROP 190430Z VRB02KT CAVOK 20/17 Q1018 NOSIG=
201808190500 METAR LROP 190500Z 24003KT CAVOK 20/18 Q1018 NOSIG=
201808190530 METAR LROP 190530Z 26004KT CAVOK 20/17 Q1018 NOSIG=
201808190600 METAR LROP 190600Z 29004KT 240V320 CAVOK 22/18 Q1018 NOSIG=
201808190630 METAR LROP 190630Z VRB02KT CAVOK 24/17 Q1018 NOSIG=
201808190700 METAR LROP 190700Z 04004KT 340V070 CAVOK 25/18 Q1018 NOSIG=
201808190730 METAR LROP 190730Z 35005KT 310V030 CAVOK 26/18 Q1018 NOSIG=
201808190800 METAR LROP 190800Z 02006KT 350V050 CAVOK 27/18 Q1018 NOSIG=
201808190830 METAR LROP 190830Z 03006KT 350V070 CAVOK 27/18 Q1018 NOSIG=
201808190900 METAR LROP 190900Z 02004KT 320V060 CAVOK 29/18 Q1018 NOSIG=
201808190930 METAR LROP 190930Z 09004KT 030V140 CAVOK 29/17 Q1018 NOSIG=
201808191000 METAR LROP 191000Z 12004KT 050V210 CAVOK 30/17 Q1018 NOSIG=
201808191030 METAR LROP 191030Z 11004KT CAVOK 31/16 Q1017 NOSIG=
201808191100 METAR LROP 191100Z VRB03KT CAVOK 31/15 Q1017 NOSIG=
201808191130 METAR LROP 191130Z 04008KT CAVOK 32/16 Q1017 NOSIG=
201808191200 METAR LROP 191200Z 05007KT 010V070 9999 FEW050TCU 32/16 Q1017
                        NOSIG=
201808191230 METAR COR LROP 191230Z 36006KT 310V090 9999 FEW050CB 32/17
                        Q1016 NOSIG=
201808191300 METAR LROP 191300Z 36020KT 9999 FEW014 FEW050CB 28/17 Q1017
                        RMK WS ALL RWY TEMPO -TSRA=
201808191330 METAR LROP 191330Z 36016KT 9999 TS VCSH FEW009 SCT048CB 27/16
                        Q1017 WS ALL RWY TEMPO -TSRA=
201808191400 METAR LROP 191400Z 35009KT 9999 FEW050CB 27/18 Q1017 RETS
                        WS ALL RWY NOSIG=
201808191430 METAR LROP 191430Z 36013KT 9999 FEW050CB 29/15 Q1016 WS ALL
                        RWY NOSIG=
201808191500 METAR LROP 191500Z 36011KT CAVOK 29/14 Q1016 NOSIG=
201808191530 METAR LROP 191530Z 02011KT CAVOK 28/15 Q1016 NOSIG=
201808191600 METAR LROP 191600Z 01011KT 9999 FEW050CB 25/15 Q1016 NOSIG=
201808191630 METAR LROP 191630Z 01009KT 9999 FEW050CB 25/16 Q1016 NOSIG=
201808191700 METAR LROP 191700Z 36009KT CAVOK 25/15 Q1016 NOSIG=
201808191730 METAR LROP 191730Z 36008KT CAVOK 24/15 Q1016 NOSIG=
201808191800 METAR LROP 191800Z 05007KT 340V140 CAVOK 23/17 Q1017 NOSIG=
201808191830 METAR LROP 191830Z 15006KT CAVOK 22/17 Q1017 NOSIG=
201808191900 METAR LROP 191900Z 12005KT CAVOK 22/17 Q1017 NOSIG=
201808191930 METAR LROP 191930Z 01006KT CAVOK 23/16 Q1017 NOSIG=
201808192000 METAR LROP 192000Z 01007KT CAVOK 23/16 Q1017 NOSIG=
201808192030 METAR LROP 192030Z 01007KT CAVOK 23/16 Q1017 NOSIG=
201808192100 METAR LROP 192100Z 03005KT CAVOK 22/16 Q1017 NOSIG=
201808192130 METAR LROP 192130Z 02005KT CAVOK 21/16 Q1017 NOSIG=
201808192200 METAR LROP 192200Z 02004KT CAVOK 21/17 Q1017 NOSIG=
201808192230 METAR LROP 192230Z 01003KT CAVOK 21/17 Q1017 NOSIG=
201808192300 METAR LROP 192300Z 36005KT CAVOK 20/17 Q1017 NOSIG=
201808192330 METAR LROP 192330Z 35006KT CAVOK 19/17 Q1017 NOSIG=
201808200000 METAR LROP 200000Z 35005KT CAVOK 20/17 Q1017 NOSIG=
201808200030 METAR LROP 200030Z 35006KT CAVOK 19/17 Q1017 NOSIG=
201808200100 METAR LROP 200100Z 35005KT CAVOK 19/17 Q1016 NOSIG=
201808200130 METAR LROP 200130Z 33003KT 290V350 CAVOK 19/17 Q1016 NOSIG=
201808200200 METAR LROP 200200Z VRB02KT CAVOK 18/17 Q1016 NOSIG=
201808200230 METAR LROP 200230Z VRB02KT CAVOK 18/17 Q1016 NOSIG=
201808200300 METAR LROP 200300Z VRB01KT CAVOK 18/17 Q1016 NOSIG=
201808200330 METAR LROP 200330Z VRB02KT CAVOK 18/17 Q1016 NOSIG=
201808200400 METAR LROP 200400Z 36003KT 330V040 CAVOK 18/17 Q1016 NOSIG=
201808200430 METAR LROP 200430Z 00000KT CAVOK 19/17 Q1017 NOSIG=
201808200500 METAR LROP 200500Z VRB01KT CAVOK 20/18 Q1017 NOSIG=
201808200530 METAR LROP 200530Z VRB01KT CAVOK 22/18 Q1017 NOSIG=
201808200600 METAR LROP 200600Z 07004KT 030V100 CAVOK 23/18 Q1017 NOSIG=
201808200630 METAR LROP 200630Z 08006KT CAVOK 24/18 Q1017 NOSIG=
201808200700 METAR LROP 200700Z 06007KT CAVOK 25/19 Q1017 NOSIG=
201808200730 METAR LROP 200730Z 07009KT CAVOK 26/19 Q1017 NOSIG=
201808200800 METAR LROP 200800Z 06009KT CAVOK 27/18 Q1017 NOSIG=
201808200830 METAR LROP 200830Z 06008KT CAVOK 28/18 Q1017 NOSIG=
201808200900 METAR LROP 200900Z 10006KT 050V130 CAVOK 29/17 Q1017 NOSIG=
201808200930 METAR LROP 200930Z 10006KT 070V140 CAVOK 30/16 Q1016 NOSIG=
201808201000 METAR LROP 201000Z 09005KT 030V120 CAVOK 30/15 Q1016 NOSIG=
201808201030 METAR LROP 201030Z 12004KT 080V150 CAVOK 30/16 Q1016 NOSIG=
201808201100 METAR LROP 201100Z VRB03KT CAVOK 31/16 Q1016 NOSIG=
201808201130 METAR LROP 201130Z VRB03KT 9999 VCTS FEW050CB 31/16 Q1015
                        NOSIG=
201808201200 METAR LROP 201200Z 02003KT 310V100 9999 VCTS FEW050CB 30/16
                        Q1015 NOSIG=
201808201230 METAR LROP 201230Z 15006KT 120V220 9999 VCTS SCT050CB 31/17
                        Q1015 NOSIG=
201808201300 METAR LROP 201300Z 12003KT 060V170 9999 VCTS VCSH SCT050CB
                        31/16 Q1015 TEMPO VRB16G26KT -TSRA=
201808201330 METAR LROP 201330Z 01015KT 340V040 9999 VCTS SCT050CB 29/18
                        Q1015 TEMPO VRB18G28KT 5000 TSRA=
201808201400 METAR LROP 201400Z 01017KT 5000 +TSRA BKN040CB 25/18 Q1015
                        R88/29//95 BECMG 7000 TSRA=
201808201430 METAR LROP 201430Z 34008KT 9999 VCTS SCT050CB 26/20 Q1015
                        R88/29//95 NOSIG=
201808201500 METAR LROP 201500Z 36009KT 9999 VCTS SCT050CB 26/19 Q1015
                        R88/29//95 NOSIG=
201808201530 METAR LROP 201530Z 36008KT 9999 VCTS FEW050CB 25/20 Q1015
                        R88/19//95 NOSIG=
201808201600 METAR LROP 201600Z 34006KT 9999 FEW050CB 25/18 Q1015 RETS
                        R88/19//95 NOSIG=
201808201630 METAR COR LROP 201630Z 32003KT 290V010 CAVOK 24/19 Q1015
                        R88/CLRD// NOSIG=
201808201700 METAR LROP 201700Z 35005KT CAVOK 24/18 Q1015 R88/CLRD// NOSIG=
201808201730 METAR LROP 201730Z 36006KT CAVOK 24/18 Q1015 R88/CLRD// NOSIG=
201808201800 METAR LROP 201800Z 01005KT CAVOK 23/19 Q1015 R88/CLRD// NOSIG=
201808201830 METAR LROP 201830Z 02004KT CAVOK 23/19 Q1015 NOSIG=
201808201900 METAR LROP 201900Z 35006KT CAVOK 22/19 Q1015 NOSIG=
201808201930 METAR LROP 201930Z 01004KT CAVOK 22/19 Q1015 NOSIG=
201808202000 METAR LROP 202000Z 04003KT 010V070 CAVOK 22/19 Q1015 NOSIG=
201808202030 METAR LROP 202030Z 03004KT CAVOK 22/19 Q1015 NOSIG=
201808202100 METAR LROP 202100Z VRB02KT CAVOK 21/19 Q1015 NOSIG=
201808202130 METAR LROP 202130Z 03004KT CAVOK 21/19 Q1015 NOSIG=
201808202200 METAR LROP 202200Z 03003KT CAVOK 21/19 Q1015 NOSIG=
201808202230 METAR LROP 202230Z 06003KT CAVOK 20/19 Q1015 NOSIG=
201808202300 METAR LROP 202300Z 02006KT CAVOK 20/18 Q1015 NOSIG=
201808202330 METAR LROP 202330Z 02006KT CAVOK 20/18 Q1015 NOSIG=
201808210000 METAR LROP 210000Z 01006KT CAVOK 20/18 Q1015 NOSIG=
201808210030 METAR LROP 210030Z 01006KT CAVOK 19/18 Q1015 NOSIG=
201808210100 METAR LROP 210100Z 02003KT CAVOK 19/18 Q1015 NOSIG=
201808210130 METAR COR LROP 210130Z 35003KT CAVOK 19/18 Q1015 NOSIG=
201808210200 METAR COR LROP 210200Z 01003KT 350V050 CAVOK 18/17 Q1015
                        NOSIG=
201808210230 METAR COR LROP 210230Z 04002KT CAVOK 18/17 Q1015 NOSIG=
201808210300 METAR LROP 210300Z 07002KT CAVOK 18/17 Q1015 NOSIG=
201808210330 METAR LROP 210330Z 04002KT CAVOK 18/17 Q1016 NOSIG=
201808210400 METAR LROP 210400Z 06001KT CAVOK 18/17 Q1016 NOSIG=
201808210430 METAR LROP 210430Z 07002KT CAVOK 19/17 Q1016 NOSIG=
201808210500 METAR LROP 210500Z VRB01KT CAVOK 20/18 Q1016 NOSIG=
201808210530 METAR LROP 210530Z 05003KT 360V100 CAVOK 21/17 Q1016 NOSIG=
201808210600 METAR LROP 210600Z VRB02KT CAVOK 22/17 Q1016 NOSIG=
201808210630 METAR LROP 210630Z VRB01KT CAVOK 23/17 Q1016 NOSIG=
201808210700 METAR LROP 210700Z VRB01KT CAVOK 25/17 Q1017 NOSIG=
201808210730 METAR LROP 210730Z VRB01KT CAVOK 26/16 Q1017 NOSIG=
201808210800 METAR LROP 210800Z 26003KT 210V360 CAVOK 27/15 Q1017 NOSIG=
201808210830 METAR LROP 210830Z VRB02KT CAVOK 28/15 Q1017 NOSIG=
201808210900 METAR LROP 210900Z 26003KT 200V330 CAVOK 29/16 Q1016 NOSIG=
201808210930 METAR LROP 210930Z 32004KT 280V060 CAVOK 29/16 Q1016 NOSIG=
201808211000 METAR LROP 211000Z 18003KT 120V230 CAVOK 30/17 Q1016 NOSIG=
201808211030 METAR LROP 211030Z 23003KT 170V290 CAVOK 30/16 Q1016 NOSIG=
201808211100 METAR LROP 211100Z 20003KT CAVOK 31/17 Q1016 NOSIG=
201808211130 METAR LROP 211130Z 24003KT 190V300 CAVOK 31/16 Q1015 NOSIG=
201808211200 METAR LROP 211200Z VRB03KT CAVOK 31/16 Q1015 NOSIG=
201808211230 METAR LROP 211230Z VRB03KT CAVOK 31/16 Q1015 NOSIG=
201808211300 METAR LROP 211300Z 32004KT 230V030 CAVOK 31/15 Q1015 NOSIG=
201808211330 METAR LROP 211330Z VRB03KT CAVOK 32/16 Q1014 NOSIG=
201808211400 METAR LROP 211400Z 28004KT 180V350 CAVOK 32/17 Q1014 NOSIG=
201808211430 METAR LROP 211430Z VRB02KT CAVOK 31/17 Q1014 NOSIG=
201808211500 METAR LROP 211500Z VRB04KT CAVOK 32/18 Q1014 NOSIG=
201808211530 METAR LROP 211530Z VRB03KT CAVOK 31/17 Q1015 NOSIG=
201808211600 METAR LROP 211600Z 34007KT 9999 FEW050TCU 30/17 Q1015 NOSIG=
201808211630 METAR LROP 211630Z 35010KT 9999 FEW050TCU 28/19 Q1015 NOSIG=
201808211700 METAR LROP 211700Z 34007KT CAVOK 26/17 Q1015 NOSIG=
201808211730 METAR LROP 211730Z 35007KT CAVOK 24/17 Q1015 NOSIG=
201808211800 METAR LROP 211800Z 36004KT 270V030 CAVOK 24/17 Q1015 NOSIG=
201808211830 METAR LROP 211830Z VRB02KT CAVOK 23/18 Q1016 NOSIG=
201808211900 METAR LROP 211900Z 31004KT CAVOK 22/18 Q1016 NOSIG=
201808211930 METAR LROP 211930Z 32004KT CAVOK 21/18 Q1016 NOSIG=
201808212000 METAR LROP 212000Z 31003KT CAVOK 21/18 Q1016 NOSIG=
201808212030 METAR LROP 212030Z 34003KT CAVOK 21/19 Q1016 NOSIG=
201808212100 METAR LROP 212100Z 03003KT 330V090 CAVOK 21/19 Q1016 NOSIG=
201808212130 METAR LROP 212130Z 34004KT CAVOK 21/19 Q1016 NOSIG=
201808212200 METAR LROP 212200Z 33004KT CAVOK 20/19 Q1016 NOSIG=
201808212230 METAR LROP 212230Z 32003KT 210V350 CAVOK 19/18 Q1017 NOSIG=
201808212300 METAR LROP 212300Z 34004KT CAVOK 20/19 Q1017 NOSIG=
201808212330 METAR LROP 212330Z 32003KT CAVOK 20/19 Q1017 NOSIG=
201808220000 METAR COR LROP 220000Z 34005KT 290V010 CAVOK 20/19 Q1017
                        NOSIG=
201808220030 METAR LROP 220030Z 35005KT 340V040 CAVOK 20/18 Q1017 NOSIG=
201808220100 METAR LROP 220100Z 01004KT CAVOK 20/18 Q1017 NOSIG=
201808220130 METAR LROP 220130Z 03006KT CAVOK 21/18 Q1017 NOSIG=
201808220200 METAR LROP 220200Z 03005KT CAVOK 21/18 Q1017 NOSIG=
201808220230 METAR LROP 220230Z 05005KT CAVOK 20/18 Q1017 NOSIG=
201808220300 METAR LROP 220300Z 07003KT CAVOK 20/18 Q1017 NOSIG=
201808220330 METAR LROP 220330Z 01004KT CAVOK 20/18 Q1017 NOSIG=
201808220400 METAR LROP 220400Z 35005KT CAVOK 20/18 Q1017 NOSIG=
201808220430 METAR LROP 220430Z VRB02KT CAVOK 20/19 Q1018 NOSIG=
201808220500 METAR LROP 220500Z 28004KT CAVOK 21/19 Q1018 NOSIG=
201808220530 METAR LROP 220530Z 36004KT 350V050 CAVOK 23/19 Q1018 BECMG
                        06010KT=
201808220600 METAR LROP 220600Z 03005KT 360V070 CAVOK 24/19 Q1018 NOSIG=
201808220630 METAR LROP 220630Z 05010KT CAVOK 26/19 Q1018 NOSIG=
201808220700 METAR LROP 220700Z 06015KT CAVOK 27/18 Q1019 NOSIG=
201808220730 METAR LROP 220730Z 06015KT CAVOK 28/18 Q1019 NOSIG=
201808220800 METAR LROP 220800Z 06015KT CAVOK 29/18 Q1019 NOSIG=
201808220830 METAR LROP 220830Z 05015KT CAVOK 29/18 Q1019 NOSIG=
201808220900 METAR LROP 220900Z 05015KT CAVOK 30/18 Q1019 NOSIG=
201808220930 METAR LROP 220930Z 07015KT CAVOK 30/18 Q1019 NOSIG=
201808221000 METAR LROP 221000Z 06016KT CAVOK 30/18 Q1018 NOSIG=
201808221030 METAR LROP 221030Z 07014KT CAVOK 31/18 Q1018 NOSIG=
201808221100 METAR LROP 221100Z 06014KT CAVOK 31/17 Q1018 NOSIG=
201808221130 METAR LROP 221130Z 05013KT CAVOK 31/18 Q1018 NOSIG=
201808221200 METAR LROP 221200Z 10011KT 070V140 CAVOK 32/17 Q1017 NOSIG=
201808221230 METAR LROP 221230Z 09009KT 060V120 CAVOK 32/17 Q1017 NOSIG=
201808221300 METAR LROP 221300Z 08008KT 030V110 CAVOK 32/18 Q1017 NOSIG=
201808221330 METAR LROP 221330Z 04012KT 010V070 CAVOK 32/17 Q1017 NOSIG=
201808221400 METAR LROP 221400Z 03010KT 360V060 CAVOK 32/17 Q1017 NOSIG=
201808221430 METAR LROP 221430Z 04009KT 350V080 CAVOK 32/16 Q1017 NOSIG=
201808221500 METAR LROP 221500Z 04010KT CAVOK 31/16 Q1017 NOSIG=
201808221530 METAR LROP 221530Z 06010KT CAVOK 31/17 Q1017 NOSIG=
201808221600 METAR LROP 221600Z 05011KT CAVOK 30/17 Q1017 NOSIG=
201808221630 METAR LROP 221630Z 05011KT CAVOK 30/17 Q1017 NOSIG=
201808221700 METAR LROP 221700Z 04009KT CAVOK 29/16 Q1017 NOSIG=
201808221730 METAR LROP 221730Z 03007KT CAVOK 28/16 Q1017 NOSIG=
201808221800 METAR LROP 221800Z 07008KT CAVOK 28/16 Q1018 NOSIG=
201808221830 METAR LROP 221830Z 08006KT CAVOK 26/17 Q1018 NOSIG=
201808221900 METAR LROP 221900Z 04008KT CAVOK 26/16 Q1018 NOSIG=
201808221930 METAR LROP 221930Z 06008KT CAVOK 26/16 Q1019 NOSIG=
201808222000 METAR LROP 222000Z 06008KT CAVOK 25/16 Q1018 NOSIG=
201808222030 METAR LROP 222030Z 07006KT CAVOK 24/16 Q1019 NOSIG=
201808222100 METAR LROP 222100Z 03006KT CAVOK 24/16 Q1018 NOSIG=
201808222130 METAR LROP 222130Z 05003KT CAVOK 24/17 Q1019 NOSIG=
201808222200 METAR LROP 222200Z 03006KT CAVOK 23/17 Q1019 NOSIG=
201808222230 METAR LROP 222230Z 04005KT CAVOK 23/17 Q1019 NOSIG=
201808222300 METAR LROP 222300Z 03004KT CAVOK 23/17 Q1019 NOSIG=
201808222330 METAR LROP 222330Z 04006KT CAVOK 23/17 Q1019 NOSIG=
201808230000 METAR LROP 230000Z 04007KT CAVOK 22/17 Q1019 NOSIG=
201808230030 METAR LROP 230030Z 03005KT CAVOK 22/17 Q1018 NOSIG=
201808230100 METAR LROP 230100Z 02004KT CAVOK 21/17 Q1018 NOSIG=
201808230130 METAR LROP 230130Z 03004KT CAVOK 21/17 Q1018 NOSIG=
201808230200 METAR LROP 230200Z 05004KT CAVOK 20/17 Q1018 NOSIG=
201808230230 METAR LROP 230230Z 04004KT CAVOK 20/17 Q1018 NOSIG=
201808230300 METAR LROP 230300Z 03005KT CAVOK 20/17 Q1018 NOSIG=
201808230330 METAR LROP 230330Z 04006KT CAVOK 20/17 Q1018 NOSIG=
201808230400 METAR LROP 230400Z 03005KT CAVOK 20/17 Q1018 NOSIG=
201808230430 METAR LROP 230430Z 03006KT CAVOK 21/17 Q1019 NOSIG=
201808230500 METAR LROP 230500Z 05007KT CAVOK 21/17 Q1019 NOSIG=
201808230530 METAR LROP 230530Z 05008KT CAVOK 22/17 Q1019 NOSIG=
201808230600 METAR LROP 230600Z 06009KT CAVOK 23/17 Q1019 NOSIG=
201808230630 METAR LROP 230630Z 07010KT CAVOK 24/18 Q1019 NOSIG=
201808230700 METAR LROP 230700Z 08010KT CAVOK 25/18 Q1019 NOSIG=
201808230730 METAR LROP 230730Z 08008KT 050V110 CAVOK 26/18 Q1019 NOSIG=
201808230800 METAR LROP 230800Z 07007KT CAVOK 27/18 Q1019 NOSIG=
201808230830 METAR LROP 230830Z 08006KT 030V120 CAVOK 28/17 Q1019 NOSIG=
201808230900 METAR LROP 230900Z 08006KT 030V110 CAVOK 28/17 Q1019 NOSIG=
201808230930 METAR LROP 230930Z 10007KT 060V120 CAVOK 29/16 Q1018 NOSIG=
201808231000 METAR LROP 231000Z 08006KT 040V120 CAVOK 29/16 Q1018 NOSIG=
201808231030 METAR LROP 231030Z 07007KT 040V120 CAVOK 29/16 Q1018 NOSIG=
201808231100 METAR LROP 231100Z 08006KT 040V120 CAVOK 30/16 Q1017 NOSIG=
201808231130 METAR LROP 231130Z 11006KT 070V170 CAVOK 30/16 Q1017 NOSIG=
201808231200 METAR LROP 231200Z 05007KT 030V090 CAVOK 30/16 Q1017 NOSIG=
201808231230 METAR LROP 231230Z 08006KT 030V120 CAVOK 30/17 Q1016 NOSIG=
201808231300 METAR LROP 231300Z 08006KT 040V110 CAVOK 30/16 Q1016 NOSIG=
201808231330 METAR LROP 231330Z 09006KT 070V140 CAVOK 31/16 Q1016 NOSIG=
201808231400 METAR LROP 231400Z 10008KT 070V130 CAVOK 31/16 Q1016 NOSIG=
201808231430 METAR LROP 231430Z 08008KT CAVOK 31/16 Q1016 NOSIG=
201808231500 METAR LROP 231500Z 10007KT 070V140 CAVOK 30/16 Q1016 NOSIG=
201808231530 METAR LROP 231530Z 05008KT CAVOK 29/16 Q1016 NOSIG=
201808231600 METAR LROP 231600Z 09006KT CAVOK 29/16 Q1015 NOSIG=
201808231630 METAR LROP 231630Z 08008KT CAVOK 28/16 Q1015 NOSIG=
201808231700 METAR LROP 231700Z 07007KT CAVOK 27/16 Q1015 NOSIG=
201808231730 METAR LROP 231730Z 07006KT CAVOK 26/15 Q1015 NOSIG=
201808231800 METAR LROP 231800Z 07006KT CAVOK 26/15 Q1016 NOSIG=
201808231830 METAR LROP 231830Z 08004KT CAVOK 25/15 Q1016 NOSIG=
201808231900 METAR LROP 231900Z 10005KT CAVOK 24/15 Q1016 NOSIG=
201808231930 METAR LROP 231930Z 07005KT CAVOK 23/15 Q1016 NOSIG=
201808232000 METAR LROP 232000Z VRB01KT CAVOK 22/15 Q1016 NOSIG=
201808232030 METAR LROP 232030Z 09003KT CAVOK 22/15 Q1016 NOSIG=
201808232100 METAR LROP 232100Z 10003KT CAVOK 21/15 Q1016 NOSIG=
201808232130 METAR LROP 232130Z 07003KT CAVOK 21/15 Q1016 NOSIG=
201808232200 METAR LROP 232200Z 03004KT CAVOK 21/15 Q1016=
201808232230 METAR LROP 232230Z 01004KT CAVOK 21/15 Q1016 NOSIG=
201808232300 METAR LROP 232300Z 07002KT CAVOK 20/15 Q1016 NOSIG=
201808232330 METAR LROP 232330Z 04005KT CAVOK 19/15 Q1016 NOSIG=
201808240000 METAR LROP 240000Z 02005KT CAVOK 20/15 Q1016 NOSIG=
201808240030 METAR LROP 240030Z 03004KT CAVOK 19/15 Q1016 NOSIG=
201808240100 METAR LROP 240100Z 03004KT CAVOK 19/15 Q1016 NOSIG=
201808240130 METAR LROP 240130Z 01004KT CAVOK 19/15 Q1016 NOSIG=
201808240200 METAR LROP 240200Z 02005KT CAVOK 19/15 Q1015 NOSIG=
201808240230 METAR LROP 240230Z 02005KT CAVOK 18/15 Q1015 NOSIG=
201808240300 METAR LROP 240300Z 03004KT CAVOK 18/15 Q1015 NOSIG=
201808240330 METAR LROP 240330Z 07004KT CAVOK 18/15 Q1015 NOSIG=
201808240400 METAR LROP 240400Z 09003KT CAVOK 17/14 Q1016 NOSIG=
201808240430 METAR LROP 240430Z 09003KT CAVOK 17/15 Q1016 NOSIG=
201808240500 METAR LROP 240500Z 08004KT CAVOK 19/15 Q1016 NOSIG=
201808240530 METAR LROP 240530Z 07004KT 030V090 CAVOK 20/16 Q1016 NOSIG=
201808240600 METAR LROP 240600Z 05006KT CAVOK 22/16 Q1016 NOSIG=
201808240630 METAR LROP 240630Z 04005KT 020V090 CAVOK 23/17 Q1016 NOSIG=
201808240700 METAR LROP 240700Z 06005KT 020V090 CAVOK 24/15 Q1016 NOSIG=
201808240730 METAR LROP 240730Z 07007KT 030V100 CAVOK 25/13 Q1016 NOSIG=
201808240800 METAR LROP 240800Z 05007KT CAVOK 26/12 Q1015 NOSIG=
201808240830 METAR LROP 240830Z 07007KT CAVOK 27/12 Q1015 NOSIG=
201808240900 METAR LROP 240900Z 06007KT 340V090 CAVOK 27/13 Q1015 NOSIG=
201808240930 METAR LROP 240930Z 08008KT 040V110 CAVOK 28/14 Q1015 NOSIG=
201808241000 METAR LROP 241000Z 07009KT 030V120 CAVOK 28/14 Q1015 NOSIG=
201808241030 METAR LROP 241030Z 11006KT 060V180 CAVOK 28/15 Q1014 NOSIG=
201808241100 METAR COR LROP 241100Z 04008KT CAVOK 29/14 Q1014 NOSIG=
201808241130 METAR LROP 241130Z 06006KT 010V140 CAVOK 29/15 Q1014 NOSIG=
201808241200 METAR LROP 241200Z 08006KT 030V100 CAVOK 30/14 Q1013 NOSIG=
201808241230 METAR LROP 241230Z 06006KT 030V090 CAVOK 29/14 Q1013 NOSIG=
201808241300 METAR LROP 241300Z 09006KT 030V140 CAVOK 29/14 Q1013 NOSIG=
201808241330 METAR LROP 241330Z 10006KT CAVOK 30/14 Q1012 NOSIG=
201808241400 METAR LROP 241400Z 22004KT 150V280 CAVOK 30/14 Q1012 NOSIG=
201808241430 METAR LROP 241430Z 12003KT 040V210 CAVOK 30/14 Q1012 NOSIG=
201808241500 METAR LROP 241500Z 08005KT 030V120 CAVOK 30/15 Q1012 NOSIG=
201808241530 METAR LROP 241530Z 06003KT 330V120 CAVOK 29/15 Q1011 NOSIG=
201808241600 METAR LROP 241600Z 13003KT 100V170 CAVOK 28/16 Q1011 NOSIG=
201808241630 METAR LROP 241630Z 14003KT CAVOK 27/15 Q1011 NOSIG=
201808241700 METAR LROP 241700Z 13002KT CAVOK 26/15 Q1011 NOSIG=
201808241730 METAR LROP 241730Z VRB02KT CAVOK 25/15 Q1011 NOSIG=
201808241800 METAR LROP 241800Z 02003KT 340V080 CAVOK 25/15 Q1012 NOSIG=
201808241830 METAR LROP 241830Z VRB02KT CAVOK 24/15 Q1012 NOSIG=
201808241900 METAR LROP 241900Z 13007KT CAVOK 24/16 Q1012 NOSIG=
201808241930 METAR LROP 241930Z 12007KT CAVOK 24/16 Q1012 NOSIG=
201808242000 METAR LROP 242000Z 10005KT CAVOK 24/15 Q1012 NOSIG=
201808242030 METAR LROP 242030Z 09005KT CAVOK 22/15 Q1012 NOSIG=
201808242100 METAR LROP 242100Z 09005KT CAVOK 21/15 Q1012 NOSIG=
201808242130 METAR LROP 242130Z 10004KT CAVOK 20/15 Q1012 NOSIG=
201808242200 METAR LROP 242200Z 08005KT CAVOK 20/15 Q1012 NOSIG=
201808242230 METAR LROP 242230Z 08003KT CAVOK 20/15 Q1012 NOSIG=
201808242300 METAR LROP 242300Z 07004KT CAVOK 20/15 Q1012 NOSIG=
201808242330 METAR LROP 242330Z 06005KT CAVOK 20/15 Q1011 NOSIG=
201808250000 METAR LROP 250000Z 06004KT CAVOK 20/15 Q1011 NOSIG=
201808250030 METAR LROP 250030Z 03004KT CAVOK 20/15 Q1011 NOSIG=
201808250100 METAR LROP 250100Z 03004KT CAVOK 20/15 Q1011 NOSIG=
201808250130 METAR LROP 250130Z 02005KT CAVOK 20/15 Q1011=
201808250200 METAR LROP 250200Z 02005KT CAVOK 19/16 Q1011 NOSIG=
201808250230 METAR LROP 250230Z 03006KT CAVOK 19/16 Q1011 NOSIG=
201808250300 METAR LROP 250300Z 04006KT CAVOK 19/15 Q1011 NOSIG=
201808250330 METAR LROP 250330Z 04003KT CAVOK 18/15 Q1012 NOSIG=
201808250400 METAR LROP 250400Z 06005KT CAVOK 18/14 Q1012 NOSIG=
201808250430 METAR LROP 250430Z 07003KT CAVOK 19/14 Q1012 NOSIG=
201808250500 METAR LROP 250500Z 08004KT CAVOK 20/15 Q1011 NOSIG=
201808250530 METAR LROP 250530Z 08006KT CAVOK 22/15 Q1011 NOSIG=
201808250600 METAR LROP 250600Z 10006KT CAVOK 23/15 Q1011 NOSIG=
201808250630 METAR LROP 250630Z 11006KT CAVOK 24/15 Q1012 NOSIG=
201808250700 METAR LROP 250700Z 11006KT CAVOK 24/16 Q1012 NOSIG=
201808250730 METAR LROP 250730Z 10007KT 080V140 CAVOK 26/16 Q1011 NOSIG=
201808250800 METAR LROP 250800Z 14006KT 100V160 CAVOK 27/16 Q1011 NOSIG=
201808250830 METAR LROP 250830Z 14006KT 110V170 CAVOK 28/16 Q1011 NOSIG=
201808250900 METAR LROP 250900Z 14007KT 110V170 CAVOK 28/16 Q1011 NOSIG=
201808250930 METAR LROP 250930Z 14005KT CAVOK 29/15 Q1011 NOSIG=
201808251000 METAR LROP 251000Z 14006KT 090V180 CAVOK 30/17 Q1011 NOSIG=
201808251030 METAR LROP 251030Z 11005KT 090V150 CAVOK 30/16 Q1010 NOSIG=
201808251100 METAR LROP 251100Z 14007KT 110V180 CAVOK 30/16 Q1010 NOSIG=
201808251130 METAR LROP 251130Z VRB05KT CAVOK 30/16 Q1010 NOSIG=
201808251200 METAR LROP 251200Z 12005KT 070V170 CAVOK 30/15 Q1010 NOSIG=
201808251230 METAR LROP 251230Z 26005KT 200V320 CAVOK 31/16 Q1009 NOSIG=
201808251300 METAR LROP 251300Z 28004KT 200V330 CAVOK 31/15 Q1009 NOSIG=
201808251330 METAR LROP 251330Z 26005KT CAVOK 31/16 Q1009 NOSIG=
201808251400 METAR LROP 251400Z VRB02KT CAVOK 31/15 Q1009 NOSIG=
201808251430 METAR LROP 251430Z 23005KT 180V280 CAVOK 31/15 Q1008 NOSIG=
201808251500 METAR LROP 251500Z 24003KT 160V330 CAVOK 31/15 Q1008 NOSIG=
201808251530 METAR LROP 251530Z 28005KT 250V310 CAVOK 30/15 Q1008 NOSIG=
201808251600 METAR LROP 251600Z 30003KT 270V330 CAVOK 30/15 Q1008 NOSIG=
201808251630 METAR LROP 251630Z 32004KT CAVOK 28/15 Q1008 NOSIG=
201808251700 METAR LROP 251700Z 31003KT CAVOK 27/14 Q1008 NOSIG=
201808251730 METAR LROP 251730Z 30002KT CAVOK 26/15 Q1008 NOSIG=
201808251800 METAR LROP 251800Z VRB01KT CAVOK 24/15 Q1009 NOSIG=
201808251830 METAR LROP 251830Z VRB02KT CAVOK 24/15 Q1009 NOSIG=
201808251900 METAR LROP 251900Z 27004KT 250V310 CAVOK 24/15 Q1009 NOSIG=
201808251930 METAR LROP 251930Z VRB01KT CAVOK 22/16 Q1009 NOSIG=
201808252000 METAR LROP 252000Z 32003KT 260V030 CAVOK 22/16 Q1009 NOSIG=
201808252030 METAR LROP 252030Z 03003KT CAVOK 22/15 Q1009 NOSIG=
201808252100 METAR LROP 252100Z 36005KT CAVOK 22/16 Q1009 NOSIG=
201808252130 METAR LROP 252130Z 02004KT CAVOK 22/16 Q1009 NOSIG=
201808252200 METAR LROP 252200Z 02003KT 340V050 CAVOK 21/16 Q1009 NOSIG=
201808252230 METAR LROP 252230Z 35004KT 320V020 CAVOK 20/16 Q1009 NOSIG=
201808252300 METAR LROP 252300Z 36004KT CAVOK 21/16 Q1009 NOSIG=
201808252330 METAR LROP 252330Z 34004KT CAVOK 19/16 Q1009 NOSIG=
201808260000 METAR LROP 260000Z 36004KT 320V050 CAVOK 18/16 Q1009 NOSIG=
201808260030 METAR LROP 260030Z 02003KT CAVOK 19/16 Q1008 NOSIG=
201808260100 METAR LROP 260100Z 35004KT CAVOK 19/16 Q1008 NOSIG=
201808260130 METAR LROP 260130Z 36004KT CAVOK 18/16 Q1008 NOSIG=
201808260200 METAR LROP 260200Z 01005KT CAVOK 18/16 Q1008 NOSIG=
201808260230 METAR LROP 260230Z 01006KT CAVOK 19/16 Q1008 NOSIG=
201808260300 METAR LROP 260300Z 02006KT CAVOK 18/15 Q1008 NOSIG=
201808260330 METAR LROP 260330Z 01003KT 350V050 CAVOK 18/16 Q1009 NOSIG=
201808260400 METAR LROP 260400Z 01005KT CAVOK 18/16 Q1009 NOSIG=
201808260430 METAR LROP 260430Z 01006KT CAVOK 19/16 Q1009 NOSIG=
201808260500 METAR LROP 260500Z 01007KT CAVOK 20/16 Q1009 NOSIG=
201808260530 METAR LROP 260530Z 03005KT CAVOK 21/16 Q1009 NOSIG=
201808260600 METAR LROP 260600Z 04006KT CAVOK 22/16 Q1009 NOSIG=
201808260630 METAR LROP 260630Z 06007KT CAVOK 24/17 Q1009 NOSIG=
201808260700 METAR LROP 260700Z 06006KT 030V090 CAVOK 25/17 Q1009 NOSIG=
201808260730 METAR LROP 260730Z 05006KT CAVOK 26/16 Q1009 NOSIG=
201808260800 METAR LROP 260800Z 05005KT 020V100 CAVOK 27/16 Q1009 NOSIG=
201808260830 METAR LROP 260830Z 08005KT 020V120 CAVOK 28/17 Q1009 NOSIG=
201808260900 METAR LROP 260900Z 04004KT 350V140 CAVOK 29/17 Q1009 NOSIG=
201808260930 METAR LROP 260930Z 11004KT 060V170 CAVOK 30/17 Q1008 NOSIG=
201808261000 METAR LROP 261000Z 13004KT 090V180 CAVOK 30/17 Q1008 NOSIG=
201808261030 METAR LROP 261030Z VRB03KT CAVOK 30/16 Q1008 NOSIG=
201808261100 METAR LROP 261100Z VRB03KT CAVOK 31/16 Q1008 NOSIG=
201808261130 METAR LROP 261130Z VRB04KT CAVOK 32/16 Q1008 NOSIG=
201808261200 METAR COR LROP 261200Z 10004KT 040V170 CAVOK 32/15 Q1007
                        NOSIG=
201808261230 METAR LROP 261230Z VRB04KT CAVOK 32/16 Q1007 NOSIG=
201808261300 METAR LROP 261300Z 01005KT 320V110 CAVOK 32/15 Q1006 NOSIG=
201808261330 METAR LROP 261330Z VRB02KT CAVOK 32/15 Q1006 NOSIG=
201808261400 METAR LROP 261400Z VRB04KT CAVOK 32/15 Q1006 NOSIG=
201808261430 METAR LROP 261430Z 31006KT 260V030 CAVOK 32/16 Q1006 NOSIG=
201808261500 METAR LROP 261500Z 34006KT CAVOK 32/15 Q1006 NOSIG=
201808261530 METAR LROP 261530Z 35005KT 290V040 CAVOK 31/14 Q1006 NOSIG=
201808261600 METAR LROP 261600Z 32005KT CAVOK 30/15 Q1006 NOSIG=
201808261630 METAR LROP 261630Z 32004KT 290V350 CAVOK 29/15 Q1006 NOSIG=
201808261700 METAR LROP 261700Z 32003KT CAVOK 28/15 Q1006 NOSIG=
201808261730 METAR LROP 261730Z 35005KT 320V030 CAVOK 27/14 Q1007 NOSIG=
201808261800 METAR LROP 261800Z 35004KT CAVOK 27/16 Q1007 NOSIG=
201808261830 METAR LROP 261830Z 07003KT 010V100 CAVOK 25/15 Q1007 NOSIG=
201808261900 METAR LROP 261900Z VRB02KT CAVOK 25/15 Q1007 NOSIG=
201808261930 METAR LROP 261930Z 07006KT 040V110 CAVOK 24/15 Q1007 NOSIG=
201808262000 METAR LROP 262000Z 06005KT 030V090 CAVOK 25/14 Q1007 NOSIG=
201808262030 METAR LROP 262030Z 06004KT 030V090 CAVOK 25/14 Q1007 NOSIG=
201808262100 METAR LROP 262100Z 06005KT 030V090 CAVOK 24/15 Q1007 NOSIG=
201808262130 METAR LROP 262130Z 07005KT CAVOK 23/15 Q1007 NOSIG=
201808262200 METAR LROP 262200Z 08005KT 040V100 CAVOK 22/14 Q1007 NOSIG=
201808262230 METAR LROP 262230Z 05003KT 010V070 CAVOK 21/14 Q1007 NOSIG=
201808262300 METAR LROP 262300Z 02005KT CAVOK 21/15 Q1007 NOSIG=
201808262330 METAR LROP 262330Z 01005KT CAVOK 20/15 Q1008 NOSIG=
201808270000 METAR LROP 270000Z 36004KT CAVOK 21/15 Q1008 NOSIG=
201808270030 METAR LROP 270030Z 02005KT 350V050 CAVOK 20/15 Q1008 NOSIG=
201808270100 METAR LROP 270100Z 02005KT CAVOK 20/15 Q1008 NOSIG=
201808270130 METAR LROP 270130Z 02005KT 350V050 CAVOK 19/15 Q1008 NOSIG=
201808270200 METAR LROP 270200Z 03003KT 340V080 CAVOK 19/15 Q1008 NOSIG=
201808270230 METAR LROP 270230Z 05004KT 020V090 CAVOK 19/15 Q1008 NOSIG=
201808270300 METAR LROP 270300Z 05004KT 010V080 CAVOK 19/15 Q1008 NOSIG=
201808270330 METAR LROP 270330Z 04007KT CAVOK 19/15 Q1008 NOSIG=
201808270400 METAR LROP 270400Z 05009KT CAVOK 19/15 Q1008 NOSIG=
201808270430 METAR LROP 270430Z 07006KT CAVOK 20/16 Q1009 NOSIG=
201808270500 METAR LROP 270500Z 07008KT CAVOK 22/16 Q1009 NOSIG=
201808270530 METAR LROP 270530Z 08010KT CAVOK 22/16 Q1009 NOSIG=
201808270600 METAR LROP 270600Z 07010KT CAVOK 24/16 Q1009 NOSIG=
201808270630 METAR LROP 270630Z 08012KT CAVOK 25/16 Q1010 NOSIG=
201808270700 METAR LROP 270700Z 08014KT CAVOK 26/17 Q1010 NOSIG=
201808270730 METAR LROP 270730Z 08016KT CAVOK 26/17 Q1010 NOSIG=
201808270800 METAR LROP 270800Z 08014KT CAVOK 27/17 Q1010 NOSIG=
201808270830 METAR LROP 270830Z 08013KT CAVOK 28/18 Q1011 NOSIG=
201808270900 METAR LROP 270900Z 06012KT 030V090 CAVOK 28/18 Q1010 NOSIG=
201808270930 METAR LROP 270930Z 06012KT CAVOK 28/18 Q1011 NOSIG=
201808271000 METAR LROP 271000Z 07011KT CAVOK 29/18 Q1010 NOSIG=
201808271030 METAR LROP 271030Z 05011KT CAVOK 29/18 Q1010 NOSIG=
201808271100 METAR LROP 271100Z 06012KT CAVOK 30/17 Q1010 NOSIG=
201808271130 METAR LROP 271130Z 05011KT CAVOK 30/16 Q1010 NOSIG=
201808271200 METAR LROP 271200Z 07010KT 040V130 CAVOK 30/16 Q1010 NOSIG=
201808271230 METAR LROP 271230Z 08010KT 040V100 CAVOK 30/16 Q1010 NOSIG=
201808271300 METAR LROP 271300Z 07010KT 030V100 CAVOK 31/16 Q1009 NOSIG=
201808271330 METAR LROP 271330Z 08011KT CAVOK 30/17 Q1010 NOSIG=
201808271400 METAR LROP 271400Z 08011KT 050V110 CAVOK 30/16 Q1010 NOSIG=
201808271430 METAR LROP 271430Z 05014KT CAVOK 30/16 Q1010 NOSIG=
201808271500 METAR LROP 271500Z 05011KT CAVOK 30/16 Q1010 NOSIG=
201808271530 METAR LROP 271530Z 06012KT CAVOK 29/17 Q1010 NOSIG=
201808271600 METAR LROP 271600Z 06011KT CAVOK 29/16 Q1010 NOSIG=
201808271630 METAR LROP 271630Z 06009KT CAVOK 28/17 Q1010 NOSIG=
201808271700 METAR LROP 271700Z 06011KT CAVOK 28/17 Q1010 NOSIG=
201808271730 METAR LROP 271730Z 05010KT CAVOK 27/17 Q1011 NOSIG=
201808271800 METAR LROP 271800Z 06008KT CAVOK 27/17 Q1011 NOSIG=
201808271830 METAR LROP 271830Z 06006KT CAVOK 26/17 Q1011 NOSIG=
201808271900 METAR LROP 271900Z 04003KT 350V080 CAVOK 26/17 Q1011 NOSIG=
201808271930 METAR LROP 271930Z 04004KT 360V070 CAVOK 25/17 Q1012 NOSIG=
201808272000 METAR LROP 272000Z 04004KT 360V080 CAVOK 25/17 Q1012 NOSIG=
201808272030 METAR LROP 272030Z 04005KT 020V100 CAVOK 25/17 Q1012 NOSIG=
201808272100 METAR LROP 272100Z 07002KT CAVOK 25/17 Q1012 NOSIG=
201808272130 METAR LROP 272130Z 05003KT 010V110 9999 FEW050CB 24/17 Q1012
                        NOSIG=
201808272200 METAR LROP 272200Z 04003KT 360V100 9999 FEW050CB 24/17 Q1012
                        NOSIG=
201808272230 METAR LROP 272230Z 05003KT 320V120 9999 FEW050CB 24/17 Q1012
                        NOSIG=
201808272300 METAR LROP 272300Z 07005KT 010V090 9999 FEW050CB 24/17 Q1012
                        NOSIG=
201808272330 METAR LROP 272330Z 07004KT 030V090 9999 FEW055CB 23/17 Q1013
                        NOSIG=
201808280000 METAR LROP 280000Z 07003KT 020V090 9999 FEW060CB 23/17 Q1013
                        NOSIG=
201808280030 METAR LROP 280030Z 06004KT 360V080 9999 FEW060CB 23/17 Q1013
                        NOSIG=
201808280100 METAR LROP 280100Z VRB01KT CAVOK 22/17 Q1013 NOSIG=
201808280130 METAR LROP 280130Z 02004KT 9999 FEW060CB 22/17 Q1013 NOSIG=
201808280200 METAR LROP 280200Z 08001KT 9999 FEW060CB 21/17 Q1013 NOSIG=
201808280230 METAR LROP 280230Z 04001KT CAVOK 21/17 Q1013 NOSIG=
201808280300 METAR LROP 280300Z VRB02KT CAVOK 20/17 Q1014 NOSIG=
201808280330 METAR LROP 280330Z VRB02KT CAVOK 19/17 Q1014 NOSIG=
201808280400 METAR LROP 280400Z 29003KT 9999 FEW060CB 19/17 Q1014 NOSIG=
201808280430 METAR LROP 280430Z 27005KT 9999 FEW060CB 19/18 Q1014 NOSIG=
201808280500 METAR LROP 280500Z 27005KT CAVOK 20/18 Q1015 NOSIG=
201808280530 METAR LROP 280530Z 28006KT CAVOK 21/18 Q1015 NOSIG=
201808280600 METAR LROP 280600Z 27006KT CAVOK 22/18 Q1015 NOSIG=
201808280630 METAR LROP 280630Z 29006KT CAVOK 23/19 Q1015 NOSIG=
201808280700 METAR LROP 280700Z 27006KT CAVOK 24/18 Q1015 NOSIG=
201808280730 METAR LROP 280730Z 25005KT 210V280 CAVOK 24/19 Q1015 NOSIG=
201808280800 METAR LROP 280800Z 27006KT 230V290 CAVOK 26/20 Q1015 NOSIG=
201808280830 METAR LROP 280830Z 27006KT 230V290 CAVOK 26/20 Q1015 NOSIG=
201808280900 METAR LROP 280900Z 26004KT 220V310 CAVOK 27/17 Q1015 NOSIG=
201808280930 METAR LROP 280930Z VRB03KT CAVOK 28/17 Q1015 NOSIG=
201808281000 METAR LROP 281000Z 02003KT 340V120 CAVOK 28/17 Q1015 NOSIG=
201808281030 METAR LROP 281030Z VRB03KT CAVOK 29/16 Q1014 NOSIG=
201808281100 METAR LROP 281100Z 23004KT 160V270 CAVOK 30/16 Q1014 NOSIG=
201808281130 METAR LROP 281130Z VRB03KT CAVOK 30/15 Q1014 NOSIG=
201808281200 METAR LROP 281200Z 32004KT 270V040 CAVOK 31/12 Q1013 NOSIG=
201808281230 METAR LROP 281230Z VRB03KT CAVOK 31/13 Q1013 NOSIG=
201808281300 METAR LROP 281300Z 28004KT 230V330 9999 FEW060TCU 32/15 Q1013
                        NOSIG=
201808281330 METAR LROP 281330Z VRB04KT 9999 FEW060TCU 32/13 Q1013 NOSIG=
201808281400 METAR LROP 281400Z 21004KT 180V240 9999 FEW060TCU 32/13 Q1013
                        NOSIG=
201808281430 METAR LROP 281430Z VRB04KT 9999 FEW060TCU 32/15 Q1013 NOSIG=
201808281500 METAR LROP 281500Z 33006KT 290V030 9999 FEW060CB 32/13 Q1013
                        NOSIG=
201808281530 METAR LROP 281530Z 31005KT 270V340 9999 FEW060CB 31/14 Q1013
                        NOSIG=
201808281600 METAR LROP 281600Z 33003KT 290V030 9999 FEW060CB 29/17 Q1013
                        NOSIG=
201808281630 METAR LROP 281630Z 29007KT 270V330 9999 FEW060CB 28/18 Q1014
                        NOSIG=
201808281700 METAR LROP 281700Z 28006KT 250V320 9999 FEW060CB 26/17 Q1014
                        NOSIG=
201808281730 METAR LROP 281730Z 31005KT 9999 FEW060CB 25/17 Q1014 NOSIG=
201808281800 METAR LROP 281800Z 30007KT 9999 FEW060CB 24/17 Q1014 NOSIG=
201808281830 METAR LROP 281830Z 35007KT CAVOK 26/16 Q1014 NOSIG=
201808281900 METAR LROP 281900Z 34006KT CAVOK 24/16 Q1014 NOSIG=
201808281930 METAR LROP 281930Z 32005KT CAVOK 24/16 Q1014 NOSIG=
201808282000 METAR LROP 282000Z 32005KT CAVOK 22/16 Q1014 NOSIG=
201808282030 METAR LROP 282030Z 33004KT CAVOK 22/16 Q1014 NOSIG=
201808282100 METAR LROP 282100Z 28003KT 250V320 CAVOK 21/16 Q1015 NOSIG=
201808282130 METAR LROP 282130Z 29004KT CAVOK 21/17 Q1015 NOSIG=
201808282200 METAR LROP 282200Z 28003KT CAVOK 20/17 Q1015 NOSIG=
201808282230 METAR LROP 282230Z VRB02KT CAVOK 20/17 Q1015 NOSIG=
201808282300 METAR LROP 282300Z VRB02KT CAVOK 20/17 Q1015 NOSIG=
201808282330 METAR LROP 282330Z 00000KT CAVOK 19/17 Q1015 NOSIG=
201808290000 METAR LROP 290000Z 26002KT CAVOK 19/17 Q1015 NOSIG=
201808290030 METAR LROP 290030Z 13003KT 090V150 CAVOK 19/17 Q1015 NOSIG=
201808290100 METAR LROP 290100Z 11005KT CAVOK 20/17 Q1015 NOSIG=
201808290130 METAR LROP 290130Z VRB02KT CAVOK 19/17 Q1015 NOSIG=
201808290200 METAR LROP 290200Z 16002KT CAVOK 19/17 Q1015 NOSIG=
201808290230 METAR LROP 290230Z 18003KT CAVOK 19/17 Q1015 NOSIG=
201808290300 METAR LROP 290300Z VRB02KT CAVOK 18/17 Q1016 NOSIG=
201808290330 METAR LROP 290330Z 16002KT CAVOK 18/17 Q1016 NOSIG=
201808290400 METAR LROP 290400Z 16003KT CAVOK 19/17 Q1016 NOSIG=
201808290430 METAR LROP 290430Z 15003KT CAVOK 19/18 Q1016 NOSIG=
201808290500 METAR LROP 290500Z VRB02KT CAVOK 21/18 Q1016 NOSIG=
201808290530 METAR LROP 290530Z 13003KT 080V170 CAVOK 21/17 Q1016 NOSIG=
201808290600 METAR LROP 290600Z 11004KT 080V140 CAVOK 22/17 Q1017 NOSIG=
201808290630 METAR LROP 290630Z 12004KT 070V150 CAVOK 23/17 Q1017 NOSIG=
201808290700 METAR LROP 290700Z VRB03KT CAVOK 24/17 Q1017 NOSIG=
201808290730 METAR LROP 290730Z 14004KT 100V180 CAVOK 24/18 Q1017 NOSIG=
201808290800 METAR LROP 290800Z 19003KT 130V260 CAVOK 25/18 Q1017 NOSIG=
201808290830 METAR LROP 290830Z 22004KT 110V260 CAVOK 25/18 Q1017 NOSIG=
201808290900 METAR LROP 290900Z VRB03KT 9999 FEW033 26/18 Q1017 NOSIG=
201808290930 METAR LROP 290930Z VRB04KT 9999 FEW034 27/18 Q1017 NOSIG=
201808291000 METAR LROP 291000Z VRB05KT 9999 FEW036 27/18 Q1017 NOSIG=
201808291030 METAR LROP 291030Z 24005KT 9999 SCT040 28/18 Q1016 NOSIG=
201808291100 METAR LROP 291100Z 27006KT 160V330 9999 SCT042 28/18 Q1016
                        NOSIG=
201808291130 METAR LROP 291130Z 23005KT 160V330 9999 SCT044 28/17 Q1016
                        NOSIG=
201808291200 METAR LROP 291200Z 28006KT 230V340 9999 SCT046 29/18 Q1015
                        NOSIG=
201808291230 METAR LROP 291230Z 30004KT 9999 SCT048 29/18 Q1015 NOSIG=
201808291300 METAR LROP 291300Z VRB04KT CAVOK 30/18 Q1015 NOSIG=
201808291330 METAR LROP 291330Z 24004KT 170V290 9999 FEW050CB 29/17 Q1015
                        NOSIG=
201808291400 METAR LROP 291400Z 31005KT 270V340 9999 FEW050CB 30/17 Q1015
                        NOSIG=
201808291430 METAR LROP 291430Z VRB01KT 9999 FEW050CB 29/17 Q1015 NOSIG=
201808291500 METAR LROP 291500Z VRB02KT CAVOK 29/17 Q1015 NOSIG=
201808291530 METAR LROP 291530Z 05011KT 9999 FEW050CB 28/17 Q1015 NOSIG=
201808291600 METAR LROP 291600Z 07015KT 9999 TS SCT050CB 26/17 Q1015 TEMPO
                        VRB16G26KT 5000 -TSRA=
201808291630 METAR LROP 291630Z 08007KT 9999 VCTS VCSH FEW050CB 25/16
                        Q1015 NOSIG=
201808291700 METAR LROP 291700Z 09007KT 9999 VCSH FEW050CB 25/16 Q1016
                        NOSIG=
201808291730 METAR COR LROP 291730Z 08005KT 9999 VCTS FEW050CB 25/16 Q1016
                        NOSIG=
201808291800 METAR LROP 291800Z 08004KT 9999 FEW050CB 24/16 Q1016 NOSIG=
201808291830 METAR LROP 291830Z 07005KT 9999 VCTS FEW050CB 24/16 Q1016
                        NOSIG=
201808291900 METAR LROP 291900Z 07006KT 9999 FEW060CB 24/16 Q1016 NOSIG=
201808291930 METAR LROP 291930Z 06006KT 9999 VCTS FEW060CB 24/16 Q1016
                        NOSIG=
201808292000 METAR LROP 292000Z 06005KT 9999 FEW050CB 23/16 Q1016 NOSIG=
201808292030 METAR LROP 292030Z 05004KT 9999 FEW060CB 23/16 Q1017 NOSIG=
201808292100 METAR LROP 292100Z 05007KT CAVOK 22/15 Q1017 NOSIG=
201808292130 METAR LROP 292130Z 01004KT 340V060 CAVOK 22/15 Q1017 NOSIG=
201808292200 METAR LROP 292200Z 05006KT CAVOK 22/15 Q1017 NOSIG=
201808292230 METAR LROP 292230Z 06005KT CAVOK 21/15 Q1016 NOSIG=
201808292300 METAR LROP 292300Z 04003KT CAVOK 21/15 Q1016 NOSIG=
201808292330 METAR COR LROP 292330Z 02004KT CAVOK 21/15 Q1016 NOSIG=
201808300000 METAR LROP 300000Z VRB02KT CAVOK 19/16 Q1016 NOSIG=
201808300030 METAR LROP 300030Z VRB02KT CAVOK 19/16 Q1016 NOSIG=
201808300100 METAR LROP 300100Z 28002KT CAVOK 18/16 Q1016 NOSIG=
201808300130 METAR LROP 300130Z 05002KT CAVOK 18/16 Q1016 NOSIG=
201808300200 METAR LROP 300200Z 00000KT CAVOK 18/16 Q1016 NOSIG=
201808300230 METAR LROP 300230Z 26003KT CAVOK 17/16 Q1016 NOSIG=
201808300300 METAR LROP 300300Z 27004KT CAVOK 17/16 Q1016 NOSIG=
201808300330 METAR LROP 300330Z VRB02KT CAVOK 17/16 Q1017 NOSIG=
201808300400 METAR LROP 300400Z 28004KT 230V300 CAVOK 17/16 Q1017 NOSIG=
201808300430 METAR LROP 300430Z 26004KT CAVOK 17/16 Q1017 NOSIG=
201808300500 METAR LROP 300500Z 28005KT CAVOK 18/17 Q1017 NOSIG=
201808300530 METAR LROP 300530Z VRB02KT CAVOK 20/18 Q1017 NOSIG=
201808300600 METAR LROP 300600Z 06008KT CAVOK 22/15 Q1017 NOSIG=
201808300630 METAR LROP 300630Z 06013KT CAVOK 23/15 Q1017 NOSIG=
201808300700 METAR LROP 300700Z 08013KT CAVOK 24/14 Q1017 NOSIG=
201808300730 METAR LROP 300730Z 07012KT CAVOK 25/14 Q1018 NOSIG=
201808300800 METAR LROP 300800Z 06011KT CAVOK 26/14 Q1018 NOSIG=
201808300830 METAR LROP 300830Z 07010KT 040V100 CAVOK 26/14 Q1017 NOSIG=
201808300900 METAR LROP 300900Z 07008KT 040V100 CAVOK 27/14 Q1018 NOSIG=
201808300930 METAR COR LROP 300930Z 07008KT 040V100 CAVOK 27/14 Q1018
                        NOSIG=
201808301000 METAR LROP 301000Z 11006KT 080V160 CAVOK 28/14 Q1017 NOSIG=
201808301030 METAR LROP 301030Z VRB04KT CAVOK 28/15 Q1017 NOSIG=
201808301100 METAR LROP 301100Z VRB04KT CAVOK 29/14 Q1017 NOSIG=
201808301130 METAR LROP 301130Z 18004KT 080V240 CAVOK 29/15 Q1016 NOSIG=
201808301200 METAR LROP 301200Z 09004KT 030V160 CAVOK 30/15 Q1016 NOSIG=
201808301230 METAR LROP 301230Z 06005KT 020V100 CAVOK 30/15 Q1016 NOSIG=
201808301300 METAR LROP 301300Z 19004KT 140V240 CAVOK 30/15 Q1016 NOSIG=
201808301330 METAR LROP 301330Z 19003KT 150V290 CAVOK 30/15 Q1016 NOSIG=
201808301400 METAR LROP 301400Z 27005KT 240V310 CAVOK 30/15 Q1016 NOSIG=
201808301430 METAR LROP 301430Z 03004KT 340V090 CAVOK 30/16 Q1016 NOSIG=
201808301500 METAR LROP 301500Z 36004KT 310V030 CAVOK 30/15 Q1016 NOSIG=
201808301530 METAR LROP 301530Z 25003KT 200V010 CAVOK 30/16 Q1016 NOSIG=
201808301600 METAR LROP 301600Z 34003KT 290V030 CAVOK 28/15 Q1016 NOSIG=
201808301630 METAR LROP 301630Z 29004KT CAVOK 27/15 Q1016 NOSIG=
201808301700 METAR LROP 301700Z 34004KT 310V030 CAVOK 26/15 Q1016 NOSIG=
201808301730 METAR LROP 301730Z 03004KT CAVOK 26/16 Q1016 NOSIG=
201808301800 METAR LROP 301800Z 03004KT CAVOK 26/16 Q1016 NOSIG=
201808301830 METAR LROP 301830Z 15001KT CAVOK 24/16 Q1017 NOSIG=
201808301900 METAR LROP 301900Z 09002KT CAVOK 23/16 Q1017 NOSIG=
201808301930 METAR LROP 301930Z 10002KT CAVOK 23/16 Q1017 NOSIG=
201808302000 METAR LROP 302000Z 08001KT CAVOK 22/16 Q1017 NOSIG=
201808302030 METAR LROP 302030Z 00000KT CAVOK 22/16 Q1017 NOSIG=
201808302100 METAR LROP 302100Z 10002KT CAVOK 21/16 Q1017 NOSIG=
201808302130 METAR LROP 302130Z VRB02KT CAVOK 20/16 Q1017 NOSIG=
201808302200 METAR LROP 302200Z VRB01KT CAVOK 20/17 Q1017 NOSIG=
201808302230 METAR LROP 302230Z 01005KT CAVOK 20/17 Q1017 NOSIG=
201808302300 METAR LROP 302300Z 01005KT CAVOK 21/16 Q1017 NOSIG=
201808302330 METAR LROP 302330Z 01004KT CAVOK 20/16 Q1017 NOSIG=
201808310000 METAR LROP 310000Z 03003KT 010V080 CAVOK 20/16 Q1017 NOSIG=
201808310030 METAR LROP 310030Z VRB01KT CAVOK 19/16 Q1017 NOSIG=
201808310100 METAR LROP 310100Z VRB02KT CAVOK 18/16 Q1017 NOSIG=
201808310130 METAR LROP 310130Z VRB02KT CAVOK 18/16 Q1017 NOSIG=
201808310200 METAR LROP 310200Z 35003KT 300V010 CAVOK 18/16 Q1017 NOSIG=
201808310230 METAR LROP 310230Z 35005KT CAVOK 18/17 Q1017 NOSIG=
201808310300 METAR LROP 310300Z 00000KT CAVOK 17/16 Q1017 NOSIG=
201808310330 METAR LROP 310330Z 00000KT 9000 NSC 17/16 Q1017 NOSIG=
201808310400 METAR LROP 310400Z VRB02KT 9000 NSC 17/16 Q1017 NOSIG=
201808310430 METAR LROP 310430Z 02004KT CAVOK 18/17 Q1017 NOSIG=
201808310500 METAR LROP 310500Z 03004KT CAVOK 20/17 Q1018 NOSIG=
201808310530 METAR LROP 310530Z 02004KT CAVOK 21/17 Q1018 NOSIG=
201808310600 METAR LROP 310600Z 06005KT CAVOK 23/16 Q1018 NOSIG=
201808310630 METAR LROP 310630Z 08007KT CAVOK 24/15 Q1018 NOSIG=
201808310700 METAR LROP 310700Z 09005KT 060V120 CAVOK 25/14 Q1018 NOSIG=
201808310730 METAR LROP 310730Z 08006KT 050V110 CAVOK 26/14 Q1018 NOSIG=
201808310800 METAR LROP 310800Z 09006KT 050V130 CAVOK 27/13 Q1018 NOSIG=
201808310830 METAR LROP 310830Z 07005KT 040V130 CAVOK 28/14 Q1018 NOSIG=
201808310900 METAR LROP 310900Z 16003KT 100V240 CAVOK 29/14 Q1018 NOSIG=
201808310930 METAR LROP 310930Z 15005KT 090V190 CAVOK 29/14 Q1018 NOSIG=
201808311000 METAR LROP 311000Z VRB02KT CAVOK 29/15 Q1017 NOSIG=
201808311030 METAR LROP 311030Z 24004KT 190V290 CAVOK 30/16 Q1017 NOSIG=
201808311100 METAR LROP 311100Z 23005KT 200V270 CAVOK 30/15 Q1017 NOSIG=
201808311130 METAR LROP 311130Z VRB03KT CAVOK 31/16 Q1017 NOSIG=
201808311200 METAR LROP 311200Z 06004KT 310V120 CAVOK 31/15 Q1017 NOSIG=
201808311230 METAR LROP 311230Z VRB03KT CAVOK 31/14 Q1017 NOSIG=
201808311300 METAR LROP 311300Z 03003KT CAVOK 31/13 Q1016 NOSIG=
201808311330 METAR LROP 311330Z 31004KT CAVOK 31/16 Q1017 NOSIG=
201808311400 METAR LROP 311400Z 18003KT 120V230 CAVOK 30/17 Q1016 NOSIG=
201808311430 METAR LROP 311430Z 20005KT 170V230 CAVOK 31/14 Q1016 NOSIG=
201808311500 METAR LROP 311500Z 21004KT CAVOK 31/14 Q1016 NOSIG=
201808311530 METAR LROP 311530Z VRB01KT CAVOK 30/15 Q1016 NOSIG=
201808311600 METAR LROP 311600Z VRB02KT CAVOK 29/14 Q1016 NOSIG=
201808311630 METAR LROP 311630Z 07003KT 040V120 CAVOK 28/15 Q1017 NOSIG=
201808311700 METAR LROP 311700Z 04004KT CAVOK 26/15 Q1017 NOSIG=
201808311730 METAR LROP 311730Z 05005KT 020V080 CAVOK 25/14 Q1017 NOSIG=
201808311800 METAR LROP 311800Z 05005KT CAVOK 24/14 Q1017 NOSIG=
201808311830 METAR LROP 311830Z 03005KT CAVOK 24/14 Q1017 NOSIG=
201808311900 METAR LROP 311900Z 03005KT CAVOK 24/14 Q1017 NOSIG=
201808311930 METAR LROP 311930Z 02005KT 350V050 CAVOK 24/14 Q1017 NOSIG=
201808312000 METAR LROP 312000Z 02005KT CAVOK 25/14 Q1017 NOSIG=
201808312030 METAR LROP 312030Z 03005KT CAVOK 23/14 Q1017 NOSIG=
201808312100 METAR LROP 312100Z 01004KT 320V040 CAVOK 22/15 Q1018 NOSIG=
201808312130 METAR LROP 312130Z 35003KT 230V020 CAVOK 22/15 Q1018 NOSIG=
201808312200 METAR LROP 312200Z 36003KT CAVOK 21/15 Q1018 NOSIG=
201808312230 METAR LROP 312230Z 01005KT 340V040 CAVOK 21/15 Q1018 NOSIG=
201808312300 METAR LROP 312300Z 02003KT CAVOK 20/16 Q1018 NOSIG=
201808312330 METAR LROP 312330Z 03003KT 350V060 CAVOK 19/16 Q1018 NOSIG=