201810010000 METAR LROP 010000Z 02007KT CAVOK 10/03 Q1020 NOSIG=
201810010030 METAR LROP 010030Z 01006KT CAVOK 09/03 Q1020 NOSIG=
201810010100 METAR LROP 010100Z 02006KT CAVOK 09/03 Q1019 NOSIG=
201810010130 METAR LROP 010130Z 02005KT CAVOK 09/03 Q1019 NOSIG=
201810010200 METAR LROP 010200Z 01005KT CAVOK 10/03 Q1019 NOSIG=
201810010230 METAR LROP 010230Z 06003KT 030V090 CAVOK 10/04 Q1018 NOSIG=
201810010300 METAR LROP 010300Z 00000KT CAVOK 09/05 Q1018 NOSIG=
201810010330 METAR LROP 010330Z 36004KT 320V030 CAVOK 09/05 Q1018 NOSIG=
201810010400 METAR LROP 010400Z 36006KT CAVOK 10/05 Q1018 NOSIG=
201810010430 METAR LROP 010430Z 36005KT CAVOK 10/05 Q1017=
201810010500 METAR LROP 010500Z 36007KT CAVOK 10/05 Q1017=
201810010530 METAR LROP 010530Z 02006KT CAVOK 10/05 Q1017=
201810010600 METAR LROP 010600Z 02007KT CAVOK 11/05 Q1017=
201810010630 METAR LROP 010630Z 03006KT CAVOK 12/05 Q1017=
201810010700 METAR LROP 010700Z 03009KT CAVOK 13/05 Q1017=
201810010730 METAR LROP 010730Z 04008KT 9999 SCT027 BKN048 13/06 Q1017=
201810010800 METAR LROP 010800Z 02006KT 9999 SCT025 OVC047 13/06 Q1017=
201810010830 METAR LROP 010830Z 03006KT 9999 BKN024 OVC042 14/06 Q1016=
201810010900 METAR LROP 010900Z 03005KT 9999 -RA BKN022 OVC030 14/07 Q1016=
201810010930 METAR LROP 010930Z 05007KT 9999 -RA BKN021 OVC031 14/07 Q1016
                        TEMPO BKN015 OVC025=
201810011000 METAR LROP 011000Z 04006KT 9999 -RA BKN022 OVC034 14/08 Q1016
                        TEMPO BKN015 OVC025=
201810011030 METAR COR LROP 011030Z 04005KT 9999 -RA SCT019 OVC029 13/08
                        Q1016 R08R/19//95 R08L/19//95 TEMPO
                        BKN015 OVC025=
201810011100 METAR LROP 011100Z 01006KT 9999 -RA SCT016 OVC029 13/10 Q1015
                        R08R/19//95 R08L/19//95 TEMPO BKN015
                        OVC025=
201810011130 METAR LROP 011130Z 01007KT 9999 -RA FEW020 OVC030 13/11 Q1015
                        R08R/19//95 R08L/19//95 TEMPO BKN015
                        OVC025=
201810011200 METAR LROP 011200Z 02006KT 9999 -RA OVC025 13/11 Q1015 R08R/29//95
                        R08L/29//95 TEMPO BKN015 OVC025=
201810011230 METAR LROP 011230Z 04007KT 9999 -RA SCT024 BKN066 13/12 Q1014
                        R08R/29//95 R08L/29//95 TEMPO BKN015
                        OVC025=
201810011300 METAR LROP 011300Z 03006KT 9999 -RA SCT034 13/12 Q1014 R08R/29//95
                        R08L/29//95 TEMPO BKN015 OVC025=
201810011330 METAR LROP 011330Z 02005KT 9999 BKN016 13/12 Q1014 R08R/29//95
                        R08L/29//95 NOSIG=
201810011400 METAR COR LROP 011400Z 02006KT 9999 SCT016 BKN030 OVC041
                        14/12 Q1014 R08R/29//95 R08L/29//95
                        NOSIG=
201810011430 METAR LROP 011430Z 03006KT 9999 FEW029 14/12 Q1013 R08R/29//95
                        R08L/29//95 NOSIG=
201810011500 METAR LROP 011500Z 02005KT 9999 -RA NSC 14/12 Q1013 R08R/29//95
                        R08L/29//95 NOSIG=
201810011530 METAR LROP 011530Z 03004KT 9999 -RA OVC049 14/12 Q1013 R08R/29//95
                        R08L/29//95 NOSIG=
201810011600 METAR COR LROP 011600Z 01004KT 340V050 9999 -RA OVC049 14/13
                        Q1013 R08R/29//95 R08L/29//95 NOSIG=
201810011630 METAR LROP 011630Z 02005KT 9999 -RA BKN049 14/13 Q1013 R08R/29//95
                        R08L/29//95 NOSIG=
201810011700 METAR LROP 011700Z 02004KT 9999 -RA BKN047 13/13 Q1013 R08R/29//95
                        R08L/29//95 NOSIG=
201810011730 METAR LROP 011730Z 04004KT 9999 -RA BKN047 14/12 Q1013 R08R/29//95
                        R08L/29//95 NOSIG=
201810011800 METAR LROP 011800Z 02004KT 9999 OVC044 13/12 Q1013 R08R/29//95
                        R08L/29//95 NOSIG=
201810011830 METAR LROP 011830Z 02003KT 9999 OVC044 13/12 Q1014 R08R/29//95
                        R08L/29//95 NOSIG=
201810011900 METAR LROP 011900Z 30003KT 9000 OVC040 13/12 Q1014 R08R/29//95
                        R08L/29//95 NOSIG=
201810011930 METAR LROP 011930Z 33003KT 300V030 9000 SCT018 OVC040 13/12
                        Q1014 R08R/29//95 NOSIG=
201810012000 METAR LROP 012000Z 32003KT 280V010 9999 FEW018 OVC041 13/12
                        Q1014 R08R/29//95 NOSIG=
201810012030 METAR LROP 012030Z VRB02KT 9999 OVC039 13/12 Q1014 R08R/29//95
                        NOSIG=
201810012100 METAR LROP 012100Z 29004KT 9000 OVC037 13/12 Q1014 R08R/29//95
                        NOSIG=
201810012130 METAR LROP 012130Z 27004KT 9000 OVC037 13/12 Q1014 R08R/29//95
                        NOSIG=
201810012200 METAR LROP 012200Z VRB02KT 8000 OVC037 13/12 Q1014 R08R/29//95
                        NOSIG=
201810012230 METAR LROP 012230Z 24002KT 7000 -RA OVC036 13/12 Q1014 R08R/29//95
                        NOSIG=
201810012300 METAR LROP 012300Z 29005KT 8000 OVC039 13/12 Q1014 R08R/29//95
                        NOSIG=
201810012330 METAR LROP 012330Z 29005KT 8000 OVC045 13/12 Q1014 R08R/29//95
                        NOSIG=
201810020000 METAR LROP 020000Z 29004KT 270V330 9000 OVC041 13/12 Q1013
                        R08R/29//95 NOSIG=
201810020030 METAR LROP 020030Z 29005KT 9999 OVC041 13/12 Q1014 R08R/29//95
                        NOSIG=
201810020100 METAR LROP 020100Z 28006KT 9999 BKN045 12/11 Q1014 R08R/29//95
                        NOSIG=
201810020130 METAR LROP 020130Z 26005KT 9000 BKN042 12/11 Q1013 R08R/29//95
                        NOSIG=
201810020200 METAR LROP 020200Z 25005KT 9000 SCT042 12/11 Q1013 R08R/29//95
                        NOSIG=
201810020230 METAR LROP 020230Z 25007KT 9000 NSC 11/11 Q1013 R08R/19//95
                        R08L/19//95 NOSIG=
201810020300 METAR LROP 020300Z 24005KT CAVOK 11/10 Q1013 R08R/19//95
                        R08L/19//95 NOSIG=
201810020330 METAR LROP 020330Z 25005KT CAVOK 11/10 Q1013 R08R/19//95
                        R08L/19//95 NOSIG=
201810020400 METAR LROP 020400Z 24005KT CAVOK 10/09 Q1014 R08R/19//95
                        R08L/19//95 NOSIG=
201810020430 METAR LROP 020430Z 22005KT CAVOK 10/09 Q1014 R26L/19//95
                        R26R/19//95 NOSIG=
201810020500 METAR LROP 020500Z 23005KT CAVOK 11/10 Q1014 R26L/19//95
                        R26R/19//95 NOSIG=
201810020530 METAR LROP 020530Z 24007KT CAVOK 13/12 Q1014 R26L/19//95
                        R26R/19//95 NOSIG=
201810020600 METAR LROP 020600Z 25008KT CAVOK 14/13 Q1014 R26L/19//95
                        R26R/19//95=
201810020630 METAR LROP 020630Z 25009KT CAVOK 15/13 Q1015 R26L/19//95
                        R26R/CLRD//=
201810020700 METAR LROP 020700Z 24008KT CAVOK 16/13 Q1015 R26L/19//95
                        R26R/CLRD//=
201810020730 METAR LROP 020730Z 25009KT CAVOK 17/14 Q1015 R26L/19//95
                        R26R/CLRD// NOSIG=
201810020800 METAR LROP 020800Z 25009KT CAVOK 18/14 Q1015 R26L/19//95
                        R26R/CLRD// NOSIG=
201810020830 METAR LROP 020830Z 26011KT CAVOK 19/14 Q1016 R26L/19//95
                        R26R/CLRD// NOSIG=
201810020900 METAR LROP 020900Z 25009KT 9999 FEW027 19/14 Q1016 R26L/19//95
                        R26R/CLRD// NOSIG=
201810020930 METAR LROP 020930Z 24012KT 9999 SCT027 20/14 Q1016 R26L/19//95
                        R26R/CLRD// NOSIG=
201810021000 METAR LROP 021000Z 23011KT 190V250 9999 FEW028 20/14 Q1016
                        R88/CLRD// NOSIG=
201810021030 METAR LROP 021030Z 24011KT 200V270 CAVOK 21/13 Q1016 R88/CLRD//
                        NOSIG=
201810021100 METAR LROP 021100Z 26012KT CAVOK 21/12 Q1016 NOSIG=
201810021130 METAR LROP 021130Z 25012KT 220V280 CAVOK 21/12 Q1015 NOSIG=
201810021200 METAR LROP 021200Z 25011KT 200V270 CAVOK 21/12 Q1015 NOSIG=
201810021230 METAR LROP 021230Z 24011KT CAVOK 21/12 Q1015 NOSIG=
201810021300 METAR LROP 021300Z 23010KT CAVOK 21/13 Q1015 NOSIG=
201810021330 METAR LROP 021330Z 23010KT CAVOK 21/13 Q1015 NOSIG=
201810021400 METAR LROP 021400Z 22010KT CAVOK 21/13 Q1015 NOSIG=
201810021430 METAR LROP 021430Z 22009KT CAVOK 20/12 Q1015 NOSIG=
201810021500 METAR LROP 021500Z 23010KT CAVOK 19/12 Q1015 NOSIG=
201810021530 METAR LROP 021530Z 22008KT CAVOK 18/13 Q1015 NOSIG=
201810021600 METAR LROP 021600Z 21006KT CAVOK 17/13 Q1015 NOSIG=
201810021630 METAR LROP 021630Z 22008KT CAVOK 17/14 Q1015 NOSIG=
201810021700 METAR LROP 021700Z 21007KT CAVOK 16/14 Q1015 NOSIG=
201810021730 METAR LROP 021730Z 23008KT CAVOK 15/14 Q1015 NOSIG=
201810021800 METAR LROP 021800Z 22007KT CAVOK 15/13 Q1016 NOSIG=
201810021830 METAR LROP 021830Z 23008KT CAVOK 15/13 Q1016 NOSIG=
201810021900 METAR LROP 021900Z 23008KT CAVOK 14/13 Q1016 NOSIG=
201810021930 METAR LROP 021930Z 23009KT CAVOK 14/13 Q1016 NOSIG=
201810022000 METAR LROP 022000Z 23008KT CAVOK 14/13 Q1016 NOSIG=
201810022030 METAR LROP 022030Z 23009KT CAVOK 14/13 Q1016 NOSIG=
201810022100 METAR LROP 022100Z 23009KT CAVOK 13/12 Q1016 NOSIG=
201810022130 METAR LROP 022130Z 23009KT CAVOK 13/12 Q1016 NOSIG=
201810022200 METAR LROP 022200Z 24008KT 9999 FEW030 13/12 Q1016 NOSIG=
201810022230 METAR LROP 022230Z 23010KT CAVOK 13/12 Q1016 NOSIG=
201810022300 METAR LROP 022300Z 25009KT CAVOK 13/12 Q1016 NOSIG=
201810022330 METAR LROP 022330Z 24009KT CAVOK 13/12 Q1016 NOSIG=
201810030000 METAR LROP 030000Z 23009KT 8000 NSC 13/12 Q1016 NOSIG=
201810030030 METAR LROP 030030Z 24010KT 8000 NSC 13/11 Q1016 NOSIG=
201810030100 METAR LROP 030100Z 24011KT 8000 NSC 13/11 Q1016 NOSIG=
201810030130 METAR LROP 030130Z 25009KT CAVOK 13/10 Q1016 NOSIG=
201810030200 METAR LROP 030200Z 26008KT CAVOK 12/10 Q1017 NOSIG=
201810030230 METAR LROP 030230Z 25009KT CAVOK 12/09 Q1017 NOSIG=
201810030300 METAR LROP 030300Z 25007KT CAVOK 11/09 Q1018 NOSIG=
201810030330 METAR LROP 030330Z 26005KT CAVOK 10/09 Q1018 NOSIG=
201810030400 METAR LROP 030400Z 25006KT CAVOK 10/08 Q1018 NOSIG=
201810030430 METAR LROP 030430Z 25007KT CAVOK 09/08 Q1018 NOSIG=
201810030500 METAR LROP 030500Z 24008KT CAVOK 10/08 Q1018 NOSIG=
201810030530 METAR LROP 030530Z 25008KT CAVOK 11/08 Q1019 NOSIG=
201810030600 METAR LROP 030600Z 25008KT CAVOK 12/09 Q1019 NOSIG=
201810030630 METAR LROP 030630Z 25009KT CAVOK 12/08 Q1019 NOSIG=
201810030700 METAR LROP 030700Z 25009KT CAVOK 13/08 Q1019 NOSIG=
201810030730 METAR LROP 030730Z 25008KT CAVOK 14/09 Q1019 NOSIG=
201810030800 METAR LROP 030800Z 26006KT 240V300 CAVOK 15/09 Q1019 NOSIG=
201810030830 METAR LROP 030830Z 22005KT 170V270 CAVOK 15/08 Q1019 NOSIG=
201810030900 METAR LROP 030900Z 24006KT 200V280 CAVOK 17/07 Q1019 NOSIG=
201810030930 METAR LROP 030930Z 27008KT CAVOK 17/06 Q1019 NOSIG=
201810031000 METAR LROP 031000Z 26009KT CAVOK 18/06 Q1019 NOSIG=
201810031030 METAR LROP 031030Z 25010KT CAVOK 18/06 Q1018 NOSIG=
201810031100 METAR LROP 031100Z 24007KT 210V330 CAVOK 19/06 Q1018 NOSIG=
201810031130 METAR LROP 031130Z 23009KT 200V280 CAVOK 19/06 Q1017 NOSIG=
201810031200 METAR LROP 031200Z 24009KT CAVOK 20/05 Q1017 NOSIG=
201810031230 METAR LROP 031230Z 24011KT 220V280 CAVOK 20/04 Q1017 NOSIG=
201810031300 METAR LROP 031300Z 25011KT 220V280 CAVOK 20/04 Q1017 NOSIG=
201810031330 METAR LROP 031330Z 26012KT CAVOK 20/05 Q1017 NOSIG=
201810031400 METAR LROP 031400Z 25010KT CAVOK 20/04 Q1017 NOSIG=
201810031430 METAR LROP 031430Z 25011KT CAVOK 19/03 Q1017 NOSIG=
201810031500 METAR LROP 031500Z 25010KT CAVOK 18/04 Q1017 NOSIG=
201810031530 METAR LROP 031530Z 24008KT CAVOK 17/04 Q1017 NOSIG=
201810031600 METAR LROP 031600Z 24006KT CAVOK 15/05 Q1017 NOSIG=
201810031630 METAR LROP 031630Z 23007KT CAVOK 14/04 Q1018 NOSIG=
201810031700 METAR LROP 031700Z 25005KT CAVOK 13/04 Q1018 NOSIG=
201810031730 METAR LROP 031730Z 32007KT CAVOK 12/03 Q1019 NOSIG=
201810031800 METAR LROP 031800Z 32004KT CAVOK 13/03 Q1019 NOSIG=
201810031830 METAR LROP 031830Z VRB02KT CAVOK 13/04 Q1019 NOSIG=
201810031900 METAR LROP 031900Z VRB01KT CAVOK 11/05 Q1020 NOSIG=
201810031930 METAR LROP 031930Z 20002KT CAVOK 11/05 Q1020=
201810032000 METAR LROP 032000Z VRB01KT CAVOK 10/05 Q1019=
201810032030 METAR LROP 032030Z 00000KT CAVOK 10/05 Q1020 NOSIG=
201810032100 METAR LROP 032100Z 25004KT CAVOK 09/05 Q1020 NOSIG=
201810032130 METAR LROP 032130Z 25003KT CAVOK 08/05 Q1020 NOSIG=
201810032200 METAR LROP 032200Z 24004KT CAVOK 08/05 Q1021 NOSIG=
201810032230 METAR LROP 032230Z 27007KT CAVOK 07/04 Q1021 NOSIG=
201810032300 METAR LROP 032300Z 26005KT 240V300 CAVOK 07/04 Q1021 NOSIG=
201810032330 METAR LROP 032330Z 25005KT CAVOK 06/05 Q1022 NOSIG=
201810040000 METAR LROP 040000Z 22006KT CAVOK 07/05 Q1022 NOSIG=
201810040030 METAR LROP 040030Z VRB02KT CAVOK 07/04 Q1021 NOSIG=
201810040100 METAR LROP 040100Z 23008KT CAVOK 07/05 Q1021 NOSIG=
201810040130 METAR LROP 040130Z 23006KT CAVOK 07/04 Q1022 NOSIG=
201810040200 METAR LROP 040200Z 22005KT CAVOK 06/04 Q1022 NOSIG=
201810040230 METAR LROP 040230Z 25008KT CAVOK 07/04 Q1022 NOSIG=
201810040300 METAR LROP 040300Z 26007KT CAVOK 07/04 Q1023 NOSIG=
201810040330 METAR LROP 040330Z 30005KT 270V330 CAVOK 07/04 Q1023=
201810040400 METAR COR LROP 040400Z 26007KT CAVOK 06/03 Q1023 NOSIG=
201810040430 METAR LROP 040430Z 25006KT CAVOK 05/03 Q1024 NOSIG=
201810040500 METAR LROP 040500Z 26006KT CAVOK 06/03 Q1024 NOSIG=
201810040530 METAR LROP 040530Z 25005KT CAVOK 08/04 Q1024 NOSIG=
201810040600 METAR LROP 040600Z 26007KT CAVOK 10/05 Q1024 NOSIG=
201810040630 METAR LROP 040630Z 25007KT CAVOK 11/05 Q1024 NOSIG=
201810040700 METAR LROP 040700Z 26006KT CAVOK 13/05 Q1025 NOSIG=
201810040730 METAR LROP 040730Z 25006KT 210V280 CAVOK 15/05 Q1025 NOSIG=
201810040800 METAR LROP 040800Z 24005KT 190V290 CAVOK 17/04 Q1025 NOSIG=
201810040830 METAR LROP 040830Z VRB03KT CAVOK 18/03 Q1025 NOSIG=
201810040900 METAR LROP 040900Z 22006KT 190V260 CAVOK 18/03 Q1025 NOSIG=
201810040930 METAR LROP 040930Z VRB04KT CAVOK 18/03 Q1025 NOSIG=
201810041000 METAR LROP 041000Z 29006KT 240V330 CAVOK 19/03 Q1025 NOSIG=
201810041030 METAR LROP 041030Z VRB05KT CAVOK 19/03 Q1025 NOSIG=
201810041100 METAR LROP 041100Z 30004KT CAVOK 19/04 Q1025 NOSIG=
201810041130 METAR LROP 041130Z 30007KT 210V350 CAVOK 20/02 Q1025 NOSIG=
201810041200 METAR LROP 041200Z VRB02KT CAVOK 20/02 Q1025 NOSIG=
201810041230 METAR COR LROP 041230Z 29007KT 240V320 CAVOK 20/02 Q1025
                        NOSIG=
201810041300 METAR LROP 041300Z 24005KT 210V280 CAVOK 20/03 Q1025 NOSIG=
201810041330 METAR LROP 041330Z 27006KT 230V360 CAVOK 20/03 Q1025 NOSIG=
201810041400 METAR LROP 041400Z 26007KT 210V320 CAVOK 20/03 Q1025 NOSIG=
201810041430 METAR LROP 041430Z 25006KT CAVOK 19/04 Q1025 NOSIG=
201810041500 METAR LROP 041500Z 23004KT CAVOK 18/04 Q1025 NOSIG=
201810041530 METAR LROP 041530Z 24004KT CAVOK 16/04 Q1025 NOSIG=
201810041600 METAR LROP 041600Z 24004KT CAVOK 15/04 Q1025 NOSIG=
201810041630 METAR LROP 041630Z 05003KT CAVOK 14/03 Q1026 NOSIG=
201810041700 METAR LROP 041700Z 06004KT 040V110 CAVOK 13/03 Q1026 NOSIG=
201810041730 METAR LROP 041730Z VRB01KT CAVOK 14/02 Q1027 NOSIG=
201810041800 METAR LROP 041800Z 11004KT CAVOK 12/03 Q1027 NOSIG=
201810041830 METAR LROP 041830Z 08006KT CAVOK 12/02 Q1028 NOSIG=
201810041900 METAR LROP 041900Z 09006KT CAVOK 11/02 Q1028 NOSIG=
201810041930 METAR LROP 041930Z 06007KT CAVOK 11/02 Q1028 NOSIG=
201810042000 METAR LROP 042000Z 05004KT CAVOK 10/02 Q1029 NOSIG=
201810042030 METAR COR LROP 042030Z 08006KT CAVOK 10/02 Q1029 NOSIG=
201810042100 METAR LROP 042100Z 07005KT CAVOK 10/02 Q1030 NOSIG=
201810042130 METAR COR LROP 042130Z 07005KT CAVOK 09/01 Q1030 NOSIG=
201810042200 METAR LROP 042200Z 07005KT CAVOK 09/01 Q1030 NOSIG=
201810042230 METAR LROP 042230Z 09003KT CAVOK 08/03 Q1030 NOSIG=
201810042300 METAR LROP 042300Z 08006KT CAVOK 08/01 Q1031 NOSIG=
201810042330 METAR LROP 042330Z 07005KT CAVOK 07/01 Q1031 NOSIG=
201810050000 METAR LROP 050000Z 05004KT CAVOK 07/02 Q1031 NOSIG=
201810050030 METAR LROP 050030Z 04004KT CAVOK 07/01 Q1031 NOSIG=
201810050100 METAR LROP 050100Z 04004KT CAVOK 07/01 Q1031 NOSIG=
201810050130 METAR LROP 050130Z 05005KT CAVOK 07/01 Q1031 NOSIG=
201810050200 METAR LROP 050200Z 04006KT CAVOK 06/01 Q1031 NOSIG=
201810050230 METAR LROP 050230Z 04007KT CAVOK 06/01 Q1031 NOSIG=
201810050300 METAR LROP 050300Z 04006KT CAVOK 06/01 Q1031 NOSIG=
201810050330 METAR LROP 050330Z 04008KT CAVOK 06/01 Q1031 NOSIG=
201810050400 METAR LROP 050400Z 04007KT CAVOK 06/01 Q1031 NOSIG=
201810050430 METAR LROP 050430Z 04006KT CAVOK 06/01 Q1032 NOSIG=
201810050500 METAR LROP 050500Z 04007KT CAVOK 07/01 Q1032 NOSIG=
201810050530 METAR LROP 050530Z 04007KT CAVOK 08/01 Q1032 NOSIG=
201810050600 METAR LROP 050600Z 05007KT CAVOK 09/02 Q1032 NOSIG=
201810050630 METAR LROP 050630Z 06007KT CAVOK 11/03 Q1033 NOSIG=
201810050700 METAR LROP 050700Z 07009KT CAVOK 12/03 Q1033 NOSIG=
201810050730 METAR LROP 050730Z 07010KT CAVOK 13/03 Q1033 NOSIG=
201810050800 METAR LROP 050800Z 08009KT CAVOK 15/03 Q1033 NOSIG=
201810050830 METAR LROP 050830Z 09008KT CAVOK 15/03 Q1033 NOSIG=
201810050900 METAR LROP 050900Z 08009KT CAVOK 16/03 Q1032 NOSIG=
201810050930 METAR LROP 050930Z 11008KT 070V140 CAVOK 17/03 Q1032 NOSIG=
201810051000 METAR LROP 051000Z 11006KT 070V140 CAVOK 17/04 Q1032 NOSIG=
201810051030 METAR LROP 051030Z 09006KT CAVOK 18/04 Q1031 NOSIG=
201810051100 METAR LROP 051100Z 08004KT 020V140 CAVOK 18/04 Q1031 NOSIG=
201810051130 METAR LROP 051130Z 10005KT 060V150 CAVOK 19/04 Q1031 NOSIG=
201810051200 METAR LROP 051200Z VRB03KT CAVOK 19/04 Q1030 NOSIG=
201810051230 METAR LROP 051230Z VRB05KT CAVOK 20/04 Q1030 NOSIG=
201810051300 METAR LROP 051300Z VRB04KT CAVOK 20/04 Q1030 NOSIG=
201810051330 METAR LROP 051330Z 07005KT 050V110 CAVOK 20/05 Q1029 NOSIG=
201810051400 METAR LROP 051400Z 14003KT 070V190 CAVOK 20/04 Q1029 NOSIG=
201810051430 METAR LROP 051430Z 18003KT 140V220 CAVOK 19/05 Q1029 NOSIG=
201810051500 METAR LROP 051500Z VRB02KT CAVOK 18/05 Q1029 NOSIG=
201810051530 METAR LROP 051530Z 10003KT CAVOK 16/05 Q1029 NOSIG=
201810051600 METAR LROP 051600Z 07003KT CAVOK 15/05 Q1029 NOSIG=
201810051630 METAR LROP 051630Z 02006KT CAVOK 15/04 Q1029 NOSIG=
201810051700 METAR LROP 051700Z 02005KT CAVOK 13/06 Q1029 NOSIG=
201810051730 METAR LROP 051730Z 03004KT 360V060 CAVOK 13/04 Q1029 NOSIG=
201810051800 METAR LROP 051800Z 03004KT CAVOK 13/04 Q1029 NOSIG=
201810051830 METAR LROP 051830Z 03004KT CAVOK 12/05 Q1029 NOSIG=
201810051900 METAR LROP 051900Z 04003KT 350V060 CAVOK 12/04 Q1029 NOSIG=
201810051930 METAR LROP 051930Z 08004KT 040V140 CAVOK 11/04 Q1029 NOSIG=
201810052000 METAR LROP 052000Z 04004KT CAVOK 11/04 Q1029 NOSIG=
201810052030 METAR LROP 052030Z 04006KT CAVOK 10/04 Q1029 NOSIG=
201810052100 METAR LROP 052100Z 04004KT CAVOK 10/04 Q1029 NOSIG=
201810052130 METAR LROP 052130Z 03004KT CAVOK 10/05 Q1029 NOSIG=
201810052200 METAR LROP 052200Z 02007KT CAVOK 10/06 Q1029 NOSIG=
201810052230 METAR LROP 052230Z 02005KT CAVOK 09/06 Q1029 NOSIG=
201810052300 METAR LROP 052300Z 02005KT CAVOK 08/06 Q1029 NOSIG=
201810052330 METAR LROP 052330Z 01006KT CAVOK 08/06 Q1029 NOSIG=
201810060000 METAR LROP 060000Z 02004KT CAVOK 07/05 Q1029 NOSIG=
201810060030 METAR LROP 060030Z 02004KT CAVOK 07/05 Q1029 NOSIG=
201810060100 METAR LROP 060100Z 03005KT CAVOK 07/05 Q1029 NOSIG=
201810060130 METAR LROP 060130Z 02005KT CAVOK 07/05 Q1029 NOSIG=
201810060200 METAR LROP 060200Z 03005KT CAVOK 07/06 Q1029 NOSIG=
201810060230 METAR LROP 060230Z 04004KT CAVOK 06/05 Q1028 NOSIG=
201810060300 METAR LROP 060300Z 03004KT CAVOK 06/06 Q1028 NOSIG=
201810060330 METAR LROP 060330Z 03004KT CAVOK 06/05 Q1029 NOSIG=
201810060400 METAR LROP 060400Z 03004KT CAVOK 07/06 Q1029 NOSIG=
201810060430 METAR LROP 060430Z 03004KT CAVOK 06/05 Q1029 NOSIG=
201810060500 METAR LROP 060500Z 05004KT CAVOK 07/06 Q1029 NOSIG=
201810060530 METAR LROP 060530Z 06004KT CAVOK 08/07 Q1029 NOSIG=
201810060600 METAR LROP 060600Z 06006KT CAVOK 10/08 Q1029 NOSIG=
201810060630 METAR LROP 060630Z 08006KT CAVOK 11/09 Q1029 NOSIG=
201810060700 METAR LROP 060700Z 09005KT 060V120 CAVOK 13/10 Q1029 NOSIG=
201810060730 METAR LROP 060730Z 08005KT 040V120 CAVOK 14/10 Q1029 NOSIG=
201810060800 METAR LROP 060800Z 10006KT 080V140 CAVOK 16/10 Q1029 NOSIG=
201810060830 METAR LROP 060830Z 15006KT 090V190 CAVOK 17/10 Q1028 NOSIG=
201810060900 METAR LROP 060900Z 16007KT 120V200 CAVOK 18/10 Q1028 NOSIG=
201810060930 METAR LROP 060930Z 15007KT 120V190 CAVOK 19/09 Q1028 NOSIG=
201810061000 METAR LROP 061000Z 17007KT CAVOK 20/09 Q1028 NOSIG=
201810061030 METAR LROP 061030Z 16010KT CAVOK 20/08 Q1027 NOSIG=
201810061100 METAR LROP 061100Z 16004KT 110V210 9999 FEW049 20/08 Q1027
                        NOSIG=
201810061130 METAR LROP 061130Z 13005KT 090V190 9999 FEW049 20/08 Q1026
                        NOSIG=
201810061200 METAR LROP 061200Z 12007KT CAVOK 20/08 Q1026 NOSIG=
201810061230 METAR LROP 061230Z VRB05KT CAVOK 20/08 Q1026 NOSIG=
201810061300 METAR LROP 061300Z 13005KT CAVOK 21/08 Q1025 NOSIG=
201810061330 METAR LROP 061330Z 11007KT CAVOK 20/08 Q1025 NOSIG=
201810061400 METAR LROP 061400Z 11007KT CAVOK 20/07 Q1024 NOSIG=
201810061430 METAR LROP 061430Z 10008KT CAVOK 20/06 Q1024 NOSIG=
201810061500 METAR LROP 061500Z 10007KT CAVOK 19/06 Q1024 NOSIG=
201810061530 METAR LROP 061530Z 10006KT CAVOK 18/07 Q1024 NOSIG=
201810061600 METAR LROP 061600Z 11004KT CAVOK 15/07 Q1024 NOSIG=
201810061630 METAR LROP 061630Z 09003KT CAVOK 14/06 Q1024 NOSIG=
201810061700 METAR LROP 061700Z 08004KT CAVOK 14/05 Q1024 NOSIG=
201810061730 METAR LROP 061730Z 06004KT CAVOK 13/06 Q1023 NOSIG=
201810061800 METAR LROP 061800Z 07004KT CAVOK 12/06 Q1023 NOSIG=
201810061830 METAR LROP 061830Z 06005KT CAVOK 12/05 Q1023 NOSIG=
201810061900 METAR LROP 061900Z 08004KT CAVOK 12/05 Q1024 NOSIG=
201810061930 METAR LROP 061930Z 11004KT CAVOK 10/06 Q1024 NOSIG=
201810062000 METAR LROP 062000Z 11004KT CAVOK 09/07 Q1023 NOSIG=
201810062030 METAR LROP 062030Z 10004KT CAVOK 10/07 Q1023 NOSIG=
201810062100 METAR LROP 062100Z 07004KT CAVOK 10/07 Q1023 NOSIG=
201810062130 METAR LROP 062130Z 07004KT CAVOK 09/07 Q1023 NOSIG=
201810062200 METAR LROP 062200Z 07003KT CAVOK 09/07 Q1023 NOSIG=
201810062230 METAR LROP 062230Z 07004KT CAVOK 08/07 Q1023 NOSIG=
201810062300 METAR LROP 062300Z 02004KT CAVOK 09/07 Q1023 NOSIG=
201810062330 METAR LROP 062330Z 02006KT CAVOK 08/07 Q1023 NOSIG=
201810070000 METAR LROP 070000Z 01007KT CAVOK 09/08 Q1022 NOSIG=
201810070030 METAR LROP 070030Z 03005KT CAVOK 08/07 Q1022 NOSIG=
201810070100 METAR LROP 070100Z 04003KT 020V080 CAVOK 08/07 Q1022 NOSIG=
201810070130 METAR LROP 070130Z 03003KT CAVOK 07/06 Q1021 NOSIG=
201810070200 METAR LROP 070200Z 03003KT CAVOK 07/06 Q1022 NOSIG=
201810070230 METAR LROP 070230Z 03005KT CAVOK 07/06 Q1021 NOSIG=
201810070300 METAR LROP 070300Z 03005KT CAVOK 07/06 Q1021 NOSIG=
201810070330 METAR LROP 070330Z 03005KT CAVOK 08/07 Q1021 NOSIG=
201810070400 METAR LROP 070400Z 03003KT 9999 FEW030 07/06 Q1021 NOSIG=
201810070430 METAR LROP 070430Z 04003KT 9999 FEW031 07/06 Q1021 NOSIG=
201810070500 METAR LROP 070500Z 04003KT 9999 FEW030 07/06 Q1021 NOSIG=
201810070530 METAR COR LROP 070530Z 05005KT 9999 SCT031 10/09 Q1021 NOSIG=
201810070600 METAR COR LROP 070600Z 06004KT 9999 BKN032 10/09 Q1021 NOSIG=
201810070630 METAR LROP 070630Z 05005KT 9999 BKN033 11/10 Q1021 NOSIG=
201810070700 METAR LROP 070700Z 05007KT 9999 BKN034 13/11 Q1021 NOSIG=
201810070730 METAR LROP 070730Z 06006KT 9999 BKN034 14/11 Q1021 NOSIG=
201810070800 METAR LROP 070800Z 06006KT 040V100 9999 BKN034 15/11 Q1021
                        NOSIG=
201810070830 METAR LROP 070830Z 08006KT 030V130 9999 BKN034 16/11 Q1020
                        NOSIG=
201810070900 METAR LROP 070900Z 06005KT 010V130 9999 BKN034 17/11 Q1020
                        NOSIG=
201810070930 METAR LROP 070930Z 10005KT 010V130 9999 SCT034 18/10 Q1020
                        NOSIG=
201810071000 METAR LROP 071000Z 12005KT 080V170 9999 SCT032 18/10 Q1019
                        NOSIG=
201810071030 METAR LROP 071030Z VRB04KT 9999 SCT034 19/10 Q1019 NOSIG=
201810071100 METAR LROP 071100Z VRB03KT 9999 FEW036 20/10 Q1019 NOSIG=
201810071130 METAR LROP 071130Z 10008KT 9999 FEW037 20/10 Q1018 NOSIG=
201810071200 METAR LROP 071200Z 10008KT 9999 FEW037 20/10 Q1018 NOSIG=
201810071230 METAR LROP 071230Z 11005KT 080V150 CAVOK 21/10 Q1018 NOSIG=
201810071300 METAR LROP 071300Z 14005KT 090V180 CAVOK 21/10 Q1018 NOSIG=
201810071330 METAR LROP 071330Z 10007KT CAVOK 21/10 Q1017 NOSIG=
201810071400 METAR LROP 071400Z 14005KT 110V170 CAVOK 20/10 Q1017 NOSIG=
201810071430 METAR LROP 071430Z 13004KT 070V180 CAVOK 20/10 Q1017 NOSIG=
201810071500 METAR LROP 071500Z 12004KT CAVOK 19/10 Q1017 NOSIG=
201810071530 METAR LROP 071530Z 10005KT CAVOK 17/11 Q1017 NOSIG=
201810071600 METAR LROP 071600Z 11004KT CAVOK 16/10 Q1017 NOSIG=
201810071630 METAR LROP 071630Z 08003KT CAVOK 15/10 Q1017 NOSIG=
201810071700 METAR LROP 071700Z 03003KT CAVOK 14/09 Q1017 NOSIG=
201810071730 METAR LROP 071730Z 03003KT CAVOK 15/09 Q1017 NOSIG=
201810071800 METAR LROP 071800Z 01004KT CAVOK 14/09 Q1017 NOSIG=
201810071830 METAR LROP 071830Z 02003KT CAVOK 13/09 Q1017 NOSIG=
201810071900 METAR LROP 071900Z 02003KT CAVOK 13/09 Q1018 NOSIG=
201810071930 METAR LROP 071930Z VRB02KT CAVOK 12/09 Q1017 NOSIG=
201810072000 METAR LROP 072000Z 05004KT 020V090 CAVOK 11/09 Q1018 NOSIG=
201810072030 METAR LROP 072030Z 03003KT CAVOK 12/09 Q1018 NOSIG=
201810072100 METAR LROP 072100Z 36005KT CAVOK 12/09 Q1017 NOSIG=
201810072130 METAR LROP 072130Z 01005KT CAVOK 11/09 Q1017 NOSIG=
201810072200 METAR LROP 072200Z 35004KT 320V020 CAVOK 10/09 Q1017 NOSIG=
201810072230 METAR LROP 072230Z VRB01KT CAVOK 09/08 Q1017 NOSIG=
201810072300 METAR LROP 072300Z VRB02KT CAVOK 09/08 Q1018 NOSIG=
201810072330 METAR LROP 072330Z 29003KT 260V320 CAVOK 08/07 Q1017 NOSIG=
201810080000 METAR LROP 080000Z 00000KT CAVOK 08/07 Q1017 NOSIG=
201810080030 METAR LROP 080030Z 05002KT CAVOK 08/07 Q1017 NOSIG=
201810080100 METAR LROP 080100Z 00000KT CAVOK 07/06 Q1017 NOSIG=
201810080130 METAR LROP 080130Z 26001KT 5000 MIFG NSC 07/06 Q1017 NOSIG=
201810080200 METAR LROP 080200Z 00000KT 5000 MIFG NSC 07/06 Q1017 NOSIG=
201810080230 METAR LROP 080230Z 29001KT 5000 MIFG NSC 06/06 Q1017 NOSIG=
201810080300 METAR LROP 080300Z 00000KT 5000 1500NV R08R/P2000 R26L/P2000
                        R08L/P2000 R26R/0900 BCFG NSC 06/05
                        Q1017=
201810080330 METAR LROP 080330Z 00000KT 5000 1500NW R08R/P2000 R26L/P2000
                        R08L/P2000 R26R/0800 BCFG NSC 07/06
                        Q1017 TEMPO 3000 BR=
201810080400 METAR LROP 080400Z 35003KT 8000 MIFG NSC 07/06 Q1017 NOSIG=
201810080430 METAR LROP 080430Z 31002KT 7000 MIFG NSC 06/06 Q1017 NOSIG=
201810080500 METAR LROP 080500Z 00000KT 7000 MIFG NSC 07/06 Q1017 NOSIG=
201810080530 METAR LROP 080530Z VRB01KT 8000 NSC 09/08 Q1018 NOSIG=
201810080600 METAR LROP 080600Z 04004KT CAVOK 10/09 Q1018 NOSIG=
201810080630 METAR LROP 080630Z 05004KT CAVOK 11/09 Q1019 NOSIG=
201810080700 METAR LROP 080700Z 06005KT 030V090 CAVOK 12/10 Q1019 NOSIG=
201810080730 METAR LROP 080730Z 06006KT CAVOK 14/11 Q1019 NOSIG=
201810080800 METAR LROP 080800Z 06006KT 030V100 CAVOK 15/11 Q1019 NOSIG=
201810080830 METAR LROP 080830Z 07006KT 040V110 CAVOK 17/11 Q1019 NOSIG=
201810080900 METAR LROP 080900Z 09005KT 050V130 CAVOK 18/11 Q1020 NOSIG=
201810080930 METAR LROP 080930Z 03004KT 350V080 CAVOK 19/10 Q1020 NOSIG=
201810081000 METAR LROP 081000Z 05005KT 350V100 CAVOK 20/10 Q1020 NOSIG=
201810081030 METAR LROP 081030Z 07005KT 020V150 CAVOK 20/10 Q1019 NOSIG=
201810081100 METAR LROP 081100Z 07008KT 040V100 CAVOK 21/10 Q1019 NOSIG=
201810081130 METAR LROP 081130Z 05007KT 010V100 CAVOK 21/10 Q1019 NOSIG=
201810081200 METAR LROP 081200Z 07007KT 050V110 CAVOK 22/10 Q1019 NOSIG=
201810081230 METAR LROP 081230Z 07006KT 020V120 CAVOK 22/10 Q1019 NOSIG=
201810081300 METAR LROP 081300Z 08009KT CAVOK 22/10 Q1019 NOSIG=
201810081330 METAR LROP 081330Z 06010KT CAVOK 22/10 Q1019 NOSIG=
201810081400 METAR LROP 081400Z 08010KT 050V110 CAVOK 22/10 Q1019 NOSIG=
201810081430 METAR LROP 081430Z 08009KT CAVOK 21/10 Q1019 NOSIG=
201810081500 METAR LROP 081500Z 08009KT CAVOK 21/10 Q1019 NOSIG=
201810081530 METAR LROP 081530Z 06008KT CAVOK 19/09 Q1020 NOSIG=
201810081600 METAR LROP 081600Z 06005KT CAVOK 18/09 Q1020 NOSIG=
201810081630 METAR LROP 081630Z 04005KT CAVOK 17/09 Q1020 NOSIG=
201810081700 METAR LROP 081700Z 05006KT CAVOK 16/09 Q1020 NOSIG=
201810081730 METAR LROP 081730Z 05005KT CAVOK 14/10 Q1021 NOSIG=
201810081800 METAR LROP 081800Z 02004KT CAVOK 13/10 Q1021 NOSIG=
201810081830 METAR LROP 081830Z 03005KT CAVOK 15/09 Q1021 NOSIG=
201810081900 METAR LROP 081900Z 03006KT CAVOK 14/09 Q1021 NOSIG=
201810081930 METAR LROP NIL=
201810082000 METAR LROP 082000Z 04005KT CAVOK 13/08 Q1022 NOSIG=
201810082030 METAR LROP 082030Z VRB02KT CAVOK 13/08 Q1022 NOSIG=
201810082100 METAR LROP 082100Z 02004KT CAVOK 12/09 Q1022 NOSIG=
201810082130 METAR LROP 082130Z 01006KT CAVOK 12/09 Q1022 NOSIG=
201810082200 METAR LROP 082200Z 01004KT CAVOK 12/09 Q1022 NOSIG=
201810082230 METAR LROP 082230Z 36004KT CAVOK 11/09 Q1023 NOSIG=
201810082300 METAR LROP 082300Z 03003KT CAVOK 11/09 Q1023 NOSIG=
201810082330 METAR LROP 082330Z VRB01KT CAVOK 10/09 Q1023 NOSIG=
201810090000 METAR LROP 090000Z VRB02KT CAVOK 09/08 Q1022 NOSIG=
201810090030 METAR LROP 090030Z VRB02KT CAVOK 09/08 Q1022 NOSIG=
201810090100 METAR COR LROP 090100Z VRB02KT CAVOK 09/08 Q1022 NOSIG=
201810090130 METAR LROP 090130Z 27003KT CAVOK 08/07 Q1022 NOSIG=
201810090200 METAR LROP 090200Z 29002KT CAVOK 08/07 Q1022 NOSIG=
201810090230 METAR LROP 090230Z VRB01KT CAVOK 08/07 Q1022 NOSIG=
201810090300 METAR LROP 090300Z VRB01KT CAVOK 08/07 Q1023 NOSIG=
201810090330 METAR LROP 090330Z VRB02KT CAVOK 08/07 Q1022 NOSIG=
201810090400 METAR LROP 090400Z VRB02KT CAVOK 08/07 Q1023 NOSIG=
201810090430 METAR LROP 090430Z 30003KT 260V330 CAVOK 08/07 Q1023 NOSIG=
201810090500 METAR LROP 090500Z 28003KT 260V330 CAVOK 08/07 Q1023 NOSIG=
201810090530 METAR LROP 090530Z 28003KT 250V020 CAVOK 09/08 Q1023 NOSIG=
201810090600 METAR LROP 090600Z 27004KT CAVOK 11/10 Q1024 NOSIG=
201810090630 METAR LROP 090630Z VRB02KT CAVOK 14/11 Q1024 NOSIG=
201810090700 METAR LROP 090700Z 32003KT 290V350 CAVOK 16/11 Q1024 NOSIG=
201810090730 METAR LROP 090730Z VRB02KT CAVOK 17/12 Q1024 BECMG 05010KT=
201810090800 METAR LROP 090800Z 04007KT CAVOK 18/12 Q1024 BECMG 05010KT=
201810090830 METAR LROP 090830Z 03007KT 360V060 CAVOK 20/13 Q1024 NOSIG=
201810090900 METAR LROP 090900Z 04011KT CAVOK 20/11 Q1024 NOSIG=
201810090930 METAR LROP 090930Z 06009KT CAVOK 20/11 Q1024 NOSIG=
201810091000 METAR LROP 091000Z 06008KT 030V090 9999 FEW040 21/11 Q1024
                        NOSIG=
201810091030 METAR LROP 091030Z 05006KT 360V080 9999 FEW045 21/11 Q1024
                        NOSIG=
201810091100 METAR LROP 091100Z 04008KT 020V080 9999 BKN043 22/11 Q1024
                        NOSIG=
201810091130 METAR LROP 091130Z 07011KT 9999 SCT044 23/11 Q1024 NOSIG=
201810091200 METAR LROP 091200Z 06011KT 020V090 9999 BKN047 23/11 Q1023
                        NOSIG=
201810091230 METAR LROP 091230Z 06011KT 030V090 9999 SCT049 23/11 Q1023
                        NOSIG=
201810091300 METAR LROP 091300Z 07012KT 9999 FEW049 23/11 Q1023 NOSIG=
201810091330 METAR LROP 091330Z 07013KT 9999 SCT046 23/12 Q1023 NOSIG=
201810091400 METAR LROP 091400Z 06013KT 9999 SCT046 22/12 Q1023 NOSIG=
201810091430 METAR LROP 091430Z 06012KT CAVOK 22/12 Q1023 NOSIG=
201810091500 METAR LROP 091500Z 06009KT CAVOK 21/12 Q1023 NOSIG=
201810091530 METAR LROP 091530Z 06008KT CAVOK 20/11 Q1023 NOSIG=
201810091600 METAR LROP 091600Z 08007KT CAVOK 19/11 Q1023 NOSIG=
201810091630 METAR LROP 091630Z 03004KT CAVOK 18/11 Q1024 NOSIG=
201810091700 METAR LROP 091700Z 02005KT CAVOK 17/11 Q1024 NOSIG=
201810091730 METAR LROP 091730Z 02005KT CAVOK 17/11 Q1024 NOSIG=
201810091800 METAR LROP 091800Z 02005KT CAVOK 17/11 Q1024 NOSIG=
201810091830 METAR LROP 091830Z 04003KT CAVOK 16/11 Q1024 NOSIG=
201810091900 METAR LROP 091900Z 04005KT CAVOK 16/11 Q1024 NOSIG=
201810091930 METAR LROP 091930Z 05004KT 020V080 CAVOK 16/11 Q1025 NOSIG=
201810092000 METAR LROP 092000Z 03005KT CAVOK 15/11 Q1025 NOSIG=
201810092030 METAR LROP 092030Z 02004KT CAVOK 15/11 Q1025 NOSIG=
201810092100 METAR LROP 092100Z 02005KT CAVOK 15/11 Q1025 NOSIG=
201810092130 METAR LROP 092130Z 02005KT CAVOK 14/11 Q1025 NOSIG=
201810092200 METAR LROP 092200Z 03004KT CAVOK 15/11 Q1025 NOSIG=
201810092230 METAR LROP 092230Z 03004KT CAVOK 14/11 Q1025 NOSIG=
201810092300 METAR LROP 092300Z 04003KT CAVOK 14/11 Q1025 NOSIG=
201810092330 METAR LROP 092330Z 04007KT CAVOK 13/10 Q1025 NOSIG=
201810100000 METAR LROP 100000Z 05006KT CAVOK 13/10 Q1025 NOSIG=
201810100030 METAR LROP 100030Z 04004KT CAVOK 12/10 Q1025 NOSIG=
201810100100 METAR LROP 100100Z 05004KT CAVOK 12/10 Q1025 NOSIG=
201810100130 METAR LROP 100130Z 05006KT CAVOK 12/10 Q1025 NOSIG=
201810100200 METAR LROP 100200Z 05004KT CAVOK 11/09 Q1026 NOSIG=
201810100230 METAR LROP 100230Z 05004KT CAVOK 11/09 Q1026 NOSIG=
201810100300 METAR LROP 100300Z 05005KT CAVOK 11/10 Q1026 NOSIG=
201810100330 METAR LROP 100330Z 04006KT CAVOK 11/09 Q1026 NOSIG=
201810100400 METAR LROP 100400Z 05006KT CAVOK 11/09 Q1025 NOSIG=
201810100430 METAR LROP 100430Z 06006KT CAVOK 10/09 Q1026 NOSIG=
201810100500 METAR LROP 100500Z 06006KT CAVOK 10/09 Q1026 NOSIG=
201810100530 METAR LROP 100530Z 07007KT CAVOK 11/09 Q1026 NOSIG=
201810100600 METAR LROP 100600Z 08005KT CAVOK 12/10 Q1026 NOSIG=
201810100630 METAR LROP 100630Z 07009KT CAVOK 13/10 Q1027 NOSIG=
201810100700 METAR LROP 100700Z 08010KT CAVOK 14/10 Q1027 NOSIG=
201810100730 METAR LROP 100730Z 07009KT CAVOK 15/10 Q1027 NOSIG=
201810100800 METAR LROP 100800Z 07009KT CAVOK 15/10 Q1027 NOSIG=
201810100830 METAR LROP 100830Z 09008KT CAVOK 16/10 Q1027 NOSIG=
201810100900 METAR LROP 100900Z 09007KT CAVOK 17/10 Q1027 NOSIG=
201810100930 METAR LROP 100930Z 08008KT CAVOK 17/10 Q1027 NOSIG=
201810101000 METAR LROP 101000Z 11007KT 070V140 CAVOK 18/11 Q1027 NOSIG=
201810101030 METAR LROP 101030Z 09007KT 050V130 CAVOK 18/10 Q1026 NOSIG=
201810101100 METAR LROP 101100Z 09005KT 050V130 CAVOK 19/10 Q1026 NOSIG=
201810101130 METAR LROP 101130Z 14006KT CAVOK 19/10 Q1025 NOSIG=
201810101200 METAR LROP 101200Z 13005KT 090V220 CAVOK 20/10 Q1025 NOSIG=
201810101230 METAR LROP 101230Z VRB03KT CAVOK 20/10 Q1025 NOSIG=
201810101300 METAR LROP 101300Z 07004KT 350V120 9999 FEW038 20/10 Q1025
                        NOSIG=
201810101330 METAR LROP 101330Z 07006KT 9999 FEW038 20/10 Q1025 NOSIG=
201810101400 METAR LROP 101400Z 09007KT 9999 FEW039 20/10 Q1025 NOSIG=
201810101430 METAR LROP 101430Z 09009KT 9999 FEW040 19/10 Q1025 NOSIG=
201810101500 METAR LROP 101500Z 08010KT CAVOK 18/09 Q1025 NOSIG=
201810101530 METAR LROP 101530Z 07012KT CAVOK 17/07 Q1025 NOSIG=
201810101600 METAR LROP 101600Z 07010KT CAVOK 15/06 Q1026 NOSIG=
201810101630 METAR LROP 101630Z 08007KT CAVOK 14/05 Q1026 NOSIG=
201810101700 METAR LROP 101700Z 08006KT 9999 BKN045 14/05 Q1026 NOSIG=
201810101730 METAR LROP 101730Z 08009KT 9999 OVC045 15/06 Q1026 NOSIG=
201810101800 METAR LROP 101800Z 07008KT 9999 BKN047 14/06 Q1026 NOSIG=
201810101830 METAR LROP 101830Z 07005KT 9999 SCT048 14/06 Q1027 NOSIG=
201810101900 METAR LROP 101900Z 07005KT 9999 FEW049 13/06 Q1027 NOSIG=
201810101930 METAR LROP 101930Z 09004KT 070V130 CAVOK 12/06 Q1027 NOSIG=
201810102000 METAR LROP 102000Z 09004KT CAVOK 11/06 Q1027 NOSIG=
201810102030 METAR LROP 102030Z 07003KT CAVOK 11/06 Q1027 NOSIG=
201810102100 METAR LROP 102100Z 36003KT CAVOK 10/06 Q1027 NOSIG=
201810102130 METAR LROP 102130Z 33003KT 280V350 CAVOK 10/07 Q1027 NOSIG=
201810102200 METAR LROP 102200Z 34004KT 320V040 CAVOK 10/07 Q1027 NOSIG=
201810102230 METAR LROP 102230Z 35005KT CAVOK 10/07 Q1027 NOSIG=
201810102300 METAR LROP 102300Z 35004KT CAVOK 11/07 Q1027 NOSIG=
201810102330 METAR LROP 102330Z 01005KT CAVOK 10/07 Q1027 NOSIG=
201810110000 METAR LROP 110000Z 01004KT CAVOK 10/07 Q1027 NOSIG=
201810110030 METAR LROP 110030Z 01004KT CAVOK 09/07 Q1027 NOSIG=
201810110100 METAR LROP 110100Z 01004KT CAVOK 10/07 Q1026 NOSIG=
201810110130 METAR LROP 110130Z 35005KT CAVOK 10/07 Q1026 NOSIG=
201810110200 METAR LROP 110200Z 36005KT CAVOK 11/08 Q1026 NOSIG=
201810110230 METAR LROP 110230Z 35004KT 330V030 CAVOK 11/08 Q1026 NOSIG=
201810110300 METAR LROP 110300Z 35006KT CAVOK 11/08 Q1027 NOSIG=
201810110330 METAR LROP 110330Z 01006KT CAVOK 12/08 Q1027 NOSIG=
201810110400 METAR LROP 110400Z 36006KT CAVOK 12/08 Q1026 NOSIG=
201810110430 METAR LROP 110430Z 01006KT CAVOK 12/08 Q1026 NOSIG=
201810110500 METAR LROP 110500Z 01006KT CAVOK 12/08 Q1026 NOSIG=
201810110530 METAR LROP 110530Z 02007KT CAVOK 13/09 Q1027 NOSIG=
201810110600 METAR LROP 110600Z 02006KT CAVOK 13/09 Q1027 NOSIG=
201810110630 METAR LROP 110630Z 05007KT CAVOK 14/09 Q1027 NOSIG=
201810110700 METAR LROP 110700Z 05011KT CAVOK 16/09 Q1027 NOSIG=
201810110730 METAR LROP 110730Z 05011KT CAVOK 17/10 Q1027 NOSIG=
201810110800 METAR LROP 110800Z 05012KT CAVOK 18/09 Q1027 NOSIG=
201810110830 METAR LROP 110830Z 05010KT CAVOK 19/09 Q1027 NOSIG=
201810110900 METAR LROP 110900Z 06011KT CAVOK 18/09 Q1027 NOSIG=
201810110930 METAR LROP 110930Z 05010KT CAVOK 18/09 Q1027 NOSIG=
201810111000 METAR LROP 111000Z 05011KT CAVOK 19/09 Q1027 NOSIG=
201810111030 METAR LROP 111030Z 07011KT CAVOK 21/09 Q1027 NOSIG=
201810111100 METAR LROP 111100Z 07011KT CAVOK 21/09 Q1026 NOSIG=
201810111130 METAR LROP 111130Z 07009KT CAVOK 20/09 Q1026 NOSIG=
201810111200 METAR LROP 111200Z 07010KT CAVOK 21/09 Q1026 NOSIG=
201810111230 METAR LROP 111230Z 04010KT 010V070 CAVOK 22/08 Q1026 NOSIG=
201810111300 METAR LROP 111300Z 05010KT CAVOK 21/08 Q1026 NOSIG=
201810111330 METAR LROP 111330Z 07009KT CAVOK 20/08 Q1026 NOSIG=
201810111400 METAR LROP 111400Z 07007KT CAVOK 20/08 Q1025 NOSIG=
201810111430 METAR LROP 111430Z 09006KT CAVOK 19/08 Q1025 NOSIG=
201810111500 METAR LROP 111500Z 08006KT CAVOK 18/07 Q1025 NOSIG=
201810111530 METAR LROP 111530Z 06006KT CAVOK 17/07 Q1025 NOSIG=
201810111600 METAR LROP 111600Z 05006KT CAVOK 16/07 Q1026 NOSIG=
201810111630 METAR LROP 111630Z 05005KT CAVOK 16/07 Q1026 NOSIG=
201810111700 METAR LROP 111700Z 03003KT CAVOK 15/07 Q1026 NOSIG=
201810111730 METAR LROP 111730Z 03005KT CAVOK 16/07 Q1026 NOSIG=
201810111800 METAR LROP 111800Z 03005KT CAVOK 15/07 Q1026 NOSIG=
201810111830 METAR LROP 111830Z 02005KT CAVOK 15/07 Q1026 NOSIG=
201810111900 METAR LROP 111900Z 01006KT CAVOK 15/07 Q1026 NOSIG=
201810111930 METAR LROP 111930Z 36005KT 340V040 CAVOK 14/06 Q1027 NOSIG=
201810112000 METAR COR LROP 112000Z 36006KT CAVOK 13/07 Q1027 NOSIG=
201810112030 METAR LROP 112030Z 35006KT CAVOK 13/07 Q1027 NOSIG=
201810112100 METAR LROP 112100Z 35005KT CAVOK 13/07 Q1027 NOSIG=
201810112130 METAR LROP 112130Z 36006KT CAVOK 13/07 Q1027 NOSIG=
201810112200 METAR LROP 112200Z 36005KT 330V030 CAVOK 13/07 Q1027 NOSIG=
201810112230 METAR LROP 112230Z 36004KT CAVOK 12/07 Q1027 NOSIG=
201810112300 METAR LROP 112300Z 35005KT CAVOK 12/07 Q1027 NOSIG=
201810112330 METAR LROP 112330Z 35007KT CAVOK 12/07 Q1027 NOSIG=
201810120000 METAR LROP 120000Z 35007KT CAVOK 12/07 Q1026 NOSIG=
201810120030 METAR LROP 120030Z 34007KT CAVOK 10/07 Q1026 NOSIG=
201810120100 METAR LROP 120100Z 30003KT 250V010 CAVOK 09/07 Q1026 NOSIG=
201810120130 METAR LROP 120130Z 35005KT CAVOK 09/07 Q1026 NOSIG=
201810120200 METAR LROP 120200Z 36007KT CAVOK 11/08 Q1026 NOSIG=
201810120230 METAR LROP 120230Z 35006KT CAVOK 11/08 Q1027 NOSIG=
201810120300 METAR LROP 120300Z 36006KT 310V010 CAVOK 11/08 Q1027 NOSIG=
201810120330 METAR LROP 120330Z 36006KT CAVOK 11/07 Q1027 NOSIG=
201810120400 METAR LROP 120400Z 35004KT CAVOK 11/07 Q1027 NOSIG=
201810120430 METAR LROP 120430Z 34005KT CAVOK 10/07 Q1027 NOSIG=
201810120500 METAR LROP 120500Z 34004KT 320V030 CAVOK 09/07 Q1027 NOSIG=
201810120530 METAR LROP 120530Z 35005KT CAVOK 12/08 Q1028 NOSIG=
201810120600 METAR LROP 120600Z 36005KT CAVOK 13/08 Q1028 NOSIG=
201810120630 METAR LROP 120630Z 02006KT CAVOK 15/09 Q1028 NOSIG=
201810120700 METAR LROP 120700Z 04007KT 010V070 CAVOK 17/08 Q1028 NOSIG=
201810120730 METAR LROP 120730Z 05011KT CAVOK 18/07 Q1028 NOSIG=
201810120800 METAR LROP 120800Z 06013KT CAVOK 19/08 Q1028 NOSIG=
201810120830 METAR LROP 120830Z 05011KT CAVOK 20/08 Q1028 NOSIG=
201810120900 METAR LROP 120900Z 07011KT CAVOK 21/08 Q1029 NOSIG=
201810120930 METAR LROP 120930Z 07011KT 030V090 CAVOK 21/08 Q1028 NOSIG=
201810121000 METAR LROP 121000Z 07012KT CAVOK 22/08 Q1028 NOSIG=
201810121030 METAR LROP 121030Z 06015KT CAVOK 22/08 Q1028 NOSIG=
201810121100 METAR LROP 121100Z 07014KT CAVOK 22/08 Q1028 NOSIG=
201810121130 METAR LROP 121130Z 06015KT CAVOK 22/08 Q1028 NOSIG=
201810121200 METAR LROP 121200Z 07014KT CAVOK 22/08 Q1028 NOSIG=
201810121230 METAR LROP 121230Z 06014KT CAVOK 22/07 Q1028 NOSIG=
201810121300 METAR LROP 121300Z 06015KT CAVOK 22/07 Q1028 NOSIG=
201810121330 METAR LROP 121330Z 05015KT CAVOK 22/07 Q1027 NOSIG=
201810121400 METAR LROP 121400Z 07015KT CAVOK 22/07 Q1027 NOSIG=
201810121430 METAR LROP 121430Z 06014KT CAVOK 21/06 Q1027 NOSIG=
201810121500 METAR LROP 121500Z 05011KT CAVOK 21/05 Q1028 NOSIG=
201810121530 METAR LROP 121530Z 05008KT CAVOK 19/05 Q1028 NOSIG=
201810121600 METAR LROP 121600Z 06008KT CAVOK 18/04 Q1028 NOSIG=
201810121630 METAR LROP 121630Z 04007KT CAVOK 17/04 Q1028 NOSIG=
201810121700 METAR LROP 121700Z 02006KT 360V070 CAVOK 17/04 Q1028 NOSIG=
201810121730 METAR LROP 121730Z 03007KT CAVOK 16/05 Q1028 NOSIG=
201810121800 METAR LROP 121800Z 05008KT CAVOK 16/05 Q1028 NOSIG=
201810121830 METAR LROP 121830Z 08005KT 040V100 CAVOK 14/04 Q1029 NOSIG=
201810121900 METAR LROP 121900Z 04007KT CAVOK 14/05 Q1029 NOSIG=
201810121930 METAR LROP 121930Z 04009KT CAVOK 15/05 Q1029 NOSIG=
201810122000 METAR LROP 122000Z 06008KT CAVOK 14/05 Q1029 NOSIG=
201810122030 METAR LROP 122030Z 05008KT CAVOK 13/05 Q1029 NOSIG=
201810122100 METAR LROP 122100Z 04007KT CAVOK 13/05 Q1029 NOSIG=
201810122130 METAR LROP 122130Z 01007KT CAVOK 13/06 Q1029 NOSIG=
201810122200 METAR LROP 122200Z 02007KT CAVOK 13/06 Q1029 NOSIG=
201810122230 METAR LROP 122230Z 01008KT CAVOK 12/06 Q1029 NOSIG=
201810122300 METAR LROP 122300Z 01006KT CAVOK 12/06 Q1029 NOSIG=
201810122330 METAR LROP 122330Z 01008KT CAVOK 13/07 Q1029 NOSIG=
201810130000 METAR LROP 130000Z 01008KT CAVOK 12/07 Q1029 NOSIG=
201810130030 METAR LROP 130030Z 01007KT CAVOK 12/07 Q1029 NOSIG=
201810130100 METAR LROP 130100Z 36005KT CAVOK 11/07 Q1029 NOSIG=
201810130130 METAR LROP 130130Z 36007KT CAVOK 11/07 Q1029 NOSIG=
201810130200 METAR COR LROP 130200Z 01006KT CAVOK 12/07 Q1029 NOSIG=
201810130230 METAR LROP 130230Z 03007KT CAVOK 11/07 Q1029 NOSIG=
201810130300 METAR LROP 130300Z 04009KT CAVOK 12/07 Q1029 NOSIG=
201810130330 METAR LROP 130330Z 04009KT CAVOK 12/07 Q1029 NOSIG=
201810130400 METAR LROP 130400Z 04010KT CAVOK 12/07 Q1029 NOSIG=
201810130430 METAR LROP 130430Z 04006KT CAVOK 10/07 Q1029 NOSIG=
201810130500 METAR LROP 130500Z 04007KT CAVOK 10/07 Q1029 NOSIG=
201810130530 METAR LROP 130530Z 02004KT CAVOK 11/07 Q1030 BECMG 06014KT=
201810130600 METAR LROP 130600Z 07005KT 040V100 CAVOK 13/08 Q1030 BECMG
                        06015KT=
201810130630 METAR LROP 130630Z 06009KT CAVOK 14/08 Q1030 NOSIG=
201810130700 METAR LROP 130700Z 05013KT CAVOK 15/07 Q1030 NOSIG=
201810130730 METAR LROP 130730Z 05008KT 360V090 CAVOK 17/06 Q1030 NOSIG=
201810130800 METAR LROP 130800Z 05010KT 020V080 CAVOK 18/05 Q1030 NOSIG=
201810130830 METAR LROP 130830Z 06011KT CAVOK 19/04 Q1029 NOSIG=
201810130900 METAR LROP 130900Z 05011KT 030V090 CAVOK 19/04 Q1030 NOSIG=
201810130930 METAR LROP 130930Z 06017KT CAVOK 20/04 Q1030 NOSIG=
201810131000 METAR LROP 131000Z 06017KT CAVOK 21/04 Q1029 NOSIG=
201810131030 METAR LROP 131030Z 05017KT CAVOK 21/03 Q1029 NOSIG=
201810131100 METAR LROP 131100Z 06017KT CAVOK 21/03 Q1028 NOSIG=
201810131130 METAR LROP 131130Z 06016KT CAVOK 21/03 Q1028 NOSIG=
201810131200 METAR LROP 131200Z 04017KT CAVOK 21/03 Q1028 NOSIG=
201810131230 METAR LROP 131230Z 06017KT CAVOK 21/03 Q1027 NOSIG=
201810131300 METAR LROP 131300Z 06016KT CAVOK 21/03 Q1027 NOSIG=
201810131330 METAR LROP 131330Z 06017KT CAVOK 21/03 Q1027 NOSIG=
201810131400 METAR LROP 131400Z 07017KT CAVOK 21/02 Q1028 NOSIG=
201810131430 METAR LROP 131430Z 07015KT CAVOK 20/01 Q1028 NOSIG=
201810131500 METAR LROP 131500Z 06015KT CAVOK 19/01 Q1027 NOSIG=
201810131530 METAR LROP 131530Z 06011KT CAVOK 18/01 Q1028 NOSIG=
201810131600 METAR LROP 131600Z 05009KT CAVOK 17/01 Q1028 NOSIG=
201810131630 METAR LROP 131630Z 06006KT CAVOK 15/00 Q1028 NOSIG=
201810131700 METAR LROP 131700Z 05007KT CAVOK 15/00 Q1028 NOSIG=
201810131730 METAR LROP 131730Z 06006KT CAVOK 14/M00 Q1028 NOSIG=
201810131800 METAR LROP 131800Z 06009KT CAVOK 14/M01 Q1028 NOSIG=
201810131830 METAR LROP 131830Z 05007KT CAVOK 13/M01 Q1028 NOSIG=
201810131900 METAR LROP 131900Z 06009KT CAVOK 13/M00 Q1029 NOSIG=
201810131930 METAR LROP 131930Z 06008KT CAVOK 12/M01 Q1029 NOSIG=
201810132000 METAR LROP 132000Z 07008KT CAVOK 11/M01 Q1029 NOSIG=
201810132030 METAR LROP 132030Z 06008KT CAVOK 11/M01 Q1029 NOSIG=
201810132100 METAR LROP 132100Z 06005KT CAVOK 10/M01 Q1029 NOSIG=
201810132130 METAR LROP 132130Z 01004KT CAVOK 10/M01 Q1029 NOSIG=
201810132200 METAR LROP 132200Z 02007KT 350V050 CAVOK 11/M01 Q1029 NOSIG=
201810132230 METAR LROP 132230Z 01007KT CAVOK 10/M01 Q1029 NOSIG=
201810132300 METAR LROP 132300Z 01008KT CAVOK 10/M01 Q1029 NOSIG=
201810132330 METAR LROP 132330Z 02008KT CAVOK 09/M01 Q1029 NOSIG=
201810140000 METAR LROP 140000Z 02006KT CAVOK 09/M01 Q1029 NOSIG=
201810140030 METAR LROP 140030Z 01005KT 350V050 CAVOK 09/M01 Q1028 NOSIG=
201810140100 METAR COR LROP 140100Z 35003KT 320V040 CAVOK 07/M01 Q1028
                        NOSIG=
201810140130 METAR LROP 140130Z VRB01KT CAVOK 06/M01 Q1028 NOSIG=
201810140200 METAR LROP 140200Z 36005KT CAVOK 06/M01 Q1028=
201810140230 METAR LROP 140230Z 01007KT CAVOK 08/M01 Q1028 NOSIG=
201810140300 METAR LROP 140300Z 03005KT CAVOK 08/M01 Q1028 NOSIG=
201810140330 METAR LROP 140330Z 03004KT CAVOK 07/M01 Q1028 NOSIG=
201810140400 METAR LROP 140400Z 36004KT CAVOK 07/M02 Q1028 NOSIG=
201810140430 METAR LROP 140430Z 36005KT CAVOK 07/M01 Q1028 NOSIG=
201810140500 METAR LROP 140500Z 36004KT CAVOK 07/M00 Q1028 NOSIG=
201810140530 METAR LROP 140530Z 36006KT CAVOK 09/M01 Q1028 NOSIG=
201810140600 METAR LROP 140600Z 02006KT CAVOK 11/M00 Q1028 NOSIG=
201810140630 METAR LROP 140630Z 07004KT 040V100 CAVOK 12/M00 Q1029 NOSIG=
201810140700 METAR LROP 140700Z 06012KT CAVOK 14/M00 Q1029 NOSIG=
201810140730 METAR LROP 140730Z 06015KT CAVOK 16/00 Q1028 NOSIG=
201810140800 METAR LROP 140800Z 07016KT CAVOK 17/01 Q1028 NOSIG=
201810140830 METAR LROP 140830Z 06014KT CAVOK 18/02 Q1028 NOSIG=
201810140900 METAR LROP 140900Z 06016KT CAVOK 19/02 Q1028 NOSIG=
201810140930 METAR LROP 140930Z 08014KT CAVOK 19/02 Q1028 NOSIG=
201810141000 METAR LROP 141000Z 08013KT 040V100 CAVOK 20/02 Q1028 NOSIG=
201810141030 METAR LROP 141030Z 08015KT 050V110 CAVOK 20/02 Q1028 NOSIG=
201810141100 METAR LROP 141100Z 06015KT CAVOK 21/02 Q1027 NOSIG=
201810141130 METAR LROP 141130Z 07016KT CAVOK 22/03 Q1027 NOSIG=
201810141200 METAR LROP 141200Z 06018KT CAVOK 21/02 Q1027 NOSIG=
201810141230 METAR LROP 141230Z 06017KT CAVOK 21/03 Q1027 NOSIG=
201810141300 METAR LROP 141300Z 06019KT CAVOK 21/03 Q1026 NOSIG=
201810141330 METAR LROP 141330Z 05017KT CAVOK 21/03 Q1026 NOSIG=
201810141400 METAR LROP 141400Z 07015KT CAVOK 21/03 Q1026 NOSIG=
201810141430 METAR LROP 141430Z 06016KT CAVOK 21/03 Q1026 NOSIG=
201810141500 METAR LROP 141500Z 06013KT CAVOK 20/03 Q1026 NOSIG=
201810141530 METAR LROP 141530Z 05011KT CAVOK 18/03 Q1026 NOSIG=
201810141600 METAR LROP 141600Z 04009KT CAVOK 17/03 Q1026 NOSIG=
201810141630 METAR LROP 141630Z 04007KT CAVOK 16/03 Q1026 NOSIG=
201810141700 METAR LROP 141700Z 03007KT CAVOK 16/03 Q1026 NOSIG=
201810141730 METAR LROP 141730Z 03009KT CAVOK 16/03 Q1027 NOSIG=
201810141800 METAR LROP 141800Z 03009KT CAVOK 15/03 Q1027 NOSIG=
201810141830 METAR LROP 141830Z 04008KT CAVOK 14/02 Q1027 NOSIG=
201810141900 METAR LROP 141900Z 04009KT CAVOK 14/02 Q1027 NOSIG=
201810141930 METAR LROP 141930Z 03008KT CAVOK 13/02 Q1027 NOSIG=
201810142000 METAR LROP 142000Z 04006KT CAVOK 12/02 Q1027 NOSIG=
201810142030 METAR LROP 142030Z 04007KT CAVOK 12/02 Q1027 NOSIG=
201810142100 METAR LROP 142100Z 04006KT CAVOK 11/02 Q1027 NOSIG=
201810142130 METAR LROP 142130Z 02006KT CAVOK 11/02 Q1027 NOSIG=
201810142200 METAR LROP 142200Z 02007KT CAVOK 12/03 Q1027 NOSIG=
201810142230 METAR LROP 142230Z 02004KT 340V060 CAVOK 11/03 Q1027 NOSIG=
201810142300 METAR LROP 142300Z VRB02KT CAVOK 09/02 Q1027 NOSIG=
201810142330 METAR LROP 142330Z VRB01KT CAVOK 09/03 Q1027 NOSIG=
201810150000 METAR LROP 150000Z 00000KT CAVOK 08/03 Q1027 NOSIG=
201810150030 METAR LROP 150030Z 00000KT CAVOK 07/03 Q1026 NOSIG=
201810150100 METAR LROP 150100Z 29002KT CAVOK 07/03 Q1026 NOSIG=
201810150130 METAR LROP 150130Z 01004KT CAVOK 08/03 Q1026 NOSIG=
201810150200 METAR LROP 150200Z 02004KT CAVOK 09/03 Q1026 NOSIG=
201810150230 METAR LROP 150230Z 04002KT CAVOK 09/03 Q1026 NOSIG=
201810150300 METAR LROP 150300Z 03003KT CAVOK 09/03 Q1026 NOSIG=
201810150330 METAR LROP 150330Z 01005KT CAVOK 08/03 Q1026 NOSIG=
201810150400 METAR LROP 150400Z 03004KT CAVOK 09/03 Q1026 NOSIG=
201810150430 METAR LROP 150430Z 01004KT CAVOK 09/03 Q1026 NOSIG=
201810150500 METAR LROP 150500Z 02003KT CAVOK 08/04 Q1026 NOSIG=
201810150530 METAR LROP 150530Z 02004KT CAVOK 10/04 Q1026 NOSIG=
201810150600 METAR LROP 150600Z 03003KT CAVOK 12/04 Q1026 NOSIG=
201810150630 METAR LROP 150630Z 03004KT 360V060 CAVOK 13/04 Q1026 NOSIG=
201810150700 METAR LROP 150700Z 04007KT CAVOK 15/04 Q1026 NOSIG=
201810150730 METAR LROP 150730Z 06009KT CAVOK 17/05 Q1026 NOSIG=
201810150800 METAR LROP 150800Z 06011KT 030V090 CAVOK 18/05 Q1026 NOSIG=
201810150830 METAR LROP 150830Z 06011KT CAVOK 19/05 Q1026 NOSIG=
201810150900 METAR LROP 150900Z 06011KT CAVOK 20/05 Q1026 NOSIG=
201810150930 METAR LROP 150930Z 07010KT CAVOK 21/06 Q1026 NOSIG=
201810151000 METAR LROP 151000Z 06013KT CAVOK 22/05 Q1026 NOSIG=
201810151030 METAR LROP 151030Z 06012KT CAVOK 22/05 Q1026 NOSIG=
201810151100 METAR LROP 151100Z 05012KT CAVOK 22/05 Q1025 NOSIG=
201810151130 METAR LROP 151130Z 06013KT CAVOK 23/05 Q1025 NOSIG=
201810151200 METAR LROP 151200Z 06012KT 040V100 CAVOK 23/05 Q1025 NOSIG=
201810151230 METAR COR LROP 151230Z 07013KT CAVOK 23/05 Q1024 NOSIG=
201810151300 METAR LROP 151300Z 08013KT CAVOK 23/04 Q1024 NOSIG=
201810151330 METAR LROP 151330Z 07012KT CAVOK 22/04 Q1024 NOSIG=
201810151400 METAR LROP 151400Z 06012KT CAVOK 22/04 Q1024 NOSIG=
201810151430 METAR LROP 151430Z 06011KT CAVOK 22/04 Q1024 NOSIG=
201810151500 METAR LROP 151500Z 06008KT CAVOK 21/04 Q1024 NOSIG=
201810151530 METAR LROP 151530Z 04007KT CAVOK 19/04 Q1024 NOSIG=
201810151600 METAR LROP 151600Z 04008KT CAVOK 18/04 Q1024 NOSIG=
201810151630 METAR LROP 151630Z 05006KT CAVOK 17/03 Q1024 NOSIG=
201810151700 METAR LROP 151700Z 04007KT CAVOK 16/03 Q1024 NOSIG=
201810151730 METAR LROP 151730Z 03007KT CAVOK 16/03 Q1024 NOSIG=
201810151800 METAR LROP 151800Z 03005KT CAVOK 15/03 Q1025 NOSIG=
201810151830 METAR LROP 151830Z 03007KT CAVOK 15/03 Q1025 NOSIG=
201810151900 METAR LROP 151900Z 04004KT 360V060 CAVOK 13/02 Q1025 NOSIG=
201810151930 METAR LROP 151930Z 02005KT CAVOK 13/03 Q1025 NOSIG=
201810152000 METAR LROP 152000Z 04005KT CAVOK 13/03 Q1025 NOSIG=
201810152030 METAR LROP 152030Z 03005KT CAVOK 12/03 Q1025 NOSIG=
201810152100 METAR LROP 152100Z 03004KT 010V070 CAVOK 11/03 Q1025 NOSIG=
201810152130 METAR LROP 152130Z VRB01KT CAVOK 11/03 Q1025 NOSIG=
201810152200 METAR LROP 152200Z 03003KT 360V060 CAVOK 11/03 Q1025 NOSIG=
201810152230 METAR LROP 152230Z 03004KT CAVOK 11/03 Q1025 NOSIG=
201810152300 METAR LROP 152300Z 02004KT CAVOK 11/03 Q1025 NOSIG=
201810152330 METAR LROP 152330Z 03004KT CAVOK 10/03 Q1026 NOSIG=
201810160000 METAR LROP 160000Z 01004KT CAVOK 10/03 Q1025 NOSIG=
201810160030 METAR LROP 160030Z 00000KT CAVOK 09/03 Q1025 NOSIG=
201810160100 METAR LROP 160100Z 00000KT CAVOK 08/03 Q1025 NOSIG=
201810160130 METAR LROP 160130Z 28003KT 250V310 CAVOK 07/03 Q1025 NOSIG=
201810160200 METAR LROP 160200Z 31003KT 280V340 CAVOK 07/04 Q1024 NOSIG=
201810160230 METAR LROP 160230Z 00000KT CAVOK 07/04 Q1024 NOSIG=
201810160300 METAR LROP 160300Z VRB01KT CAVOK 06/04 Q1025 NOSIG=
201810160330 METAR LROP 160330Z 00000KT CAVOK 07/04 Q1024 NOSIG=
201810160400 METAR LROP 160400Z VRB02KT CAVOK 07/04 Q1024 NOSIG=
201810160430 METAR LROP 160430Z VRB01KT CAVOK 06/04 Q1024 NOSIG=
201810160500 METAR LROP 160500Z VRB02KT CAVOK 06/04 Q1024 NOSIG=
201810160530 METAR LROP 160530Z 28004KT CAVOK 07/04 Q1025 NOSIG=
201810160600 METAR LROP 160600Z VRB02KT CAVOK 09/05 Q1025 NOSIG=
201810160630 METAR LROP 160630Z VRB02KT CAVOK 12/05 Q1025 NOSIG=
201810160700 METAR LROP 160700Z VRB01KT CAVOK 15/06 Q1025 NOSIG=
201810160730 METAR LROP 160730Z 05004KT 010V090 CAVOK 16/05 Q1025 NOSIG=
201810160800 METAR LROP 160800Z 06009KT CAVOK 17/06 Q1025 NOSIG=
201810160830 METAR LROP 160830Z 05008KT CAVOK 18/06 Q1025 NOSIG=
201810160900 METAR LROP 160900Z 06009KT CAVOK 19/07 Q1025 NOSIG=
201810160930 METAR LROP 160930Z 07008KT CAVOK 20/07 Q1025 NOSIG=
201810161000 METAR LROP 161000Z 06007KT CAVOK 21/07 Q1024 NOSIG=
201810161030 METAR LROP 161030Z 07009KT 030V090 CAVOK 22/07 Q1024 NOSIG=
201810161100 METAR LROP 161100Z 06008KT CAVOK 22/06 Q1024 NOSIG=
201810161130 METAR LROP 161130Z 02008KT CAVOK 23/06 Q1024 NOSIG=
201810161200 METAR LROP 161200Z 06007KT CAVOK 23/06 Q1024 NOSIG=
201810161230 METAR LROP 161230Z 06009KT CAVOK 23/06 Q1023 NOSIG=
201810161300 METAR LROP 161300Z 07008KT CAVOK 23/06 Q1023 NOSIG=
201810161330 METAR LROP 161330Z 08009KT CAVOK 23/06 Q1023 NOSIG=
201810161400 METAR LROP 161400Z 07010KT CAVOK 23/06 Q1023 NOSIG=
201810161430 METAR LROP 161430Z 08008KT CAVOK 22/06 Q1023 NOSIG=
201810161500 METAR LROP 161500Z 08008KT CAVOK 21/06 Q1023 NOSIG=
201810161530 METAR LROP 161530Z 07005KT CAVOK 19/06 Q1023 NOSIG=
201810161600 METAR LROP 161600Z 07004KT CAVOK 17/06 Q1023 NOSIG=
201810161630 METAR LROP 161630Z 00000KT CAVOK 16/06 Q1024 NOSIG=
201810161700 METAR LROP 161700Z 34002KT 290V030 CAVOK 16/06 Q1023 NOSIG=
201810161730 METAR LROP 161730Z 31002KT 290V350 CAVOK 15/06 Q1023 NOSIG=
201810161800 METAR LROP 161800Z VRB01KT CAVOK 15/06 Q1023 NOSIG=
201810161830 METAR LROP 161830Z 29002KT 260V340 CAVOK 13/05 Q1023 NOSIG=
201810161900 METAR LROP 161900Z 30003KT 270V350 CAVOK 13/05 Q1024 NOSIG=
201810161930 METAR LROP 161930Z VRB01KT CAVOK 12/05 Q1024 NOSIG=
201810162000 METAR LROP 162000Z 27003KT CAVOK 11/05 Q1024 NOSIG=
201810162030 METAR LROP 162030Z 29003KT 260V330 CAVOK 11/05 Q1024 NOSIG=
201810162100 METAR LROP 162100Z 29002KT 250V310 CAVOK 11/05 Q1024 NOSIG=
201810162130 METAR COR LROP 162130Z 30003KT 250V010 CAVOK 11/05 Q1024
                        NOSIG=
201810162200 METAR COR LROP 162200Z 34004KT 310V030 CAVOK 11/05 Q1023
                        NOSIG=
201810162230 METAR LROP 162230Z 35006KT CAVOK 12/05 Q1023 NOSIG=
201810162300 METAR LROP 162300Z 33006KT CAVOK 10/05 Q1023 NOSIG=
201810162330 METAR LROP 162330Z 25003KT 230V020 CAVOK 10/05 Q1023 NOSIG=
201810170000 METAR LROP 170000Z VRB01KT CAVOK 10/05 Q1022 NOSIG=
201810170030 METAR LROP 170030Z 30002KT 270V330 CAVOK 10/05 Q1023 NOSIG=
201810170100 METAR LROP 170100Z 27005KT CAVOK 09/05 Q1022 NOSIG=
201810170130 METAR LROP 170130Z 29004KT CAVOK 09/05 Q1023 NOSIG=
201810170200 METAR LROP 170200Z 32003KT CAVOK 08/05 Q1022 NOSIG=
201810170230 METAR LROP 170230Z 25002KT CAVOK 08/05 Q1022 NOSIG=
201810170300 METAR LROP 170300Z 32002KT CAVOK 08/05 Q1022 NOSIG=
201810170330 METAR LROP 170330Z VRB01KT CAVOK 09/05 Q1022 NOSIG=
201810170400 METAR LROP 170400Z VRB01KT CAVOK 09/06 Q1022 NOSIG=
201810170430 METAR LROP 170430Z 00000KT CAVOK 08/06 Q1022 NOSIG=
201810170500 METAR LROP 170500Z 26002KT 240V340 CAVOK 09/06 Q1022 NOSIG=
201810170530 METAR LROP 170530Z VRB01KT CAVOK 10/06 Q1022 NOSIG=
201810170600 METAR LROP 170600Z 27003KT CAVOK 11/07 Q1023 NOSIG=
201810170630 METAR LROP 170630Z 04004KT 010V070 CAVOK 14/07 Q1023 NOSIG=
201810170700 METAR LROP 170700Z 06005KT 010V090 CAVOK 15/08 Q1022 NOSIG=
201810170730 METAR LROP 170730Z 06006KT 030V090 CAVOK 17/10 Q1023 NOSIG=
201810170800 METAR LROP 170800Z 07008KT 030V100 CAVOK 18/10 Q1023 NOSIG=
201810170830 METAR LROP 170830Z 08011KT 040V100 CAVOK 20/11 Q1023 NOSIG=
201810170900 METAR LROP 170900Z 07014KT CAVOK 20/11 Q1022 NOSIG=
201810170930 METAR LROP 170930Z 08014KT CAVOK 21/11 Q1022 NOSIG=
201810171000 METAR LROP 171000Z 07012KT CAVOK 21/11 Q1022 NOSIG=
201810171030 METAR LROP 171030Z 07012KT CAVOK 22/10 Q1022 NOSIG=
201810171100 METAR LROP 171100Z 06012KT CAVOK 22/10 Q1022 NOSIG=
201810171130 METAR LROP 171130Z 09010KT 060V120 CAVOK 23/10 Q1021 NOSIG=
201810171200 METAR LROP 171200Z 07011KT CAVOK 23/10 Q1021 NOSIG=
201810171230 METAR LROP 171230Z 09009KT CAVOK 23/10 Q1021 NOSIG=
201810171300 METAR LROP 171300Z 08010KT CAVOK 23/09 Q1021 NOSIG=
201810171330 METAR LROP 171330Z 08009KT CAVOK 23/10 Q1021 NOSIG=
201810171400 METAR LROP 171400Z 08009KT CAVOK 22/11 Q1021 NOSIG=
201810171430 METAR LROP 171430Z 08007KT CAVOK 22/11 Q1020 NOSIG=
201810171500 METAR LROP 171500Z 09006KT CAVOK 21/11 Q1020 NOSIG=
201810171530 METAR LROP 171530Z 07005KT CAVOK 19/10 Q1020 NOSIG=
201810171600 METAR LROP 171600Z 05006KT CAVOK 19/10 Q1020 NOSIG=
201810171630 METAR LROP 171630Z 03006KT CAVOK 18/10 Q1020 NOSIG=
201810171700 METAR LROP 171700Z 03006KT CAVOK 19/10 Q1021 NOSIG=
201810171730 METAR LROP 171730Z 03005KT CAVOK 19/10 Q1021 NOSIG=
201810171800 METAR LROP 171800Z 03006KT CAVOK 19/10 Q1020 NOSIG=
201810171830 METAR LROP 171830Z 02007KT CAVOK 19/10 Q1020 NOSIG=
201810171900 METAR LROP 171900Z 04009KT CAVOK 17/10 Q1021 NOSIG=
201810171930 METAR LROP 171930Z 05010KT CAVOK 17/10 Q1021 NOSIG=
201810172000 METAR LROP 172000Z 05007KT CAVOK 17/10 Q1021 NOSIG=
201810172030 METAR LROP 172030Z 05007KT CAVOK 16/09 Q1021 NOSIG=
201810172100 METAR LROP 172100Z 05008KT CAVOK 15/09 Q1021 NOSIG=
201810172130 METAR LROP 172130Z 04008KT CAVOK 15/09 Q1021 NOSIG=
201810172200 METAR LROP 172200Z 05006KT CAVOK 14/09 Q1020 NOSIG=
201810172230 METAR LROP 172230Z 05005KT CAVOK 14/09 Q1020 NOSIG=
201810172300 METAR LROP 172300Z 06004KT CAVOK 13/09 Q1020 NOSIG=
201810172330 METAR LROP 172330Z 05003KT CAVOK 13/09 Q1020 NOSIG=
201810180000 METAR LROP 180000Z 02003KT CAVOK 13/09 Q1020 NOSIG=
201810180030 METAR LROP 180030Z AUTO 01004KT 9999 BKN150/// 12/09 Q1020
                        NOSIG=
201810180100 METAR LROP 180100Z 03005KT CAVOK 13/09 Q1020 NOSIG=
201810180130 METAR COR LROP 180130Z 05002KT CAVOK 13/09 Q1020 NOSIG=
201810180200 METAR LROP 180200Z 07003KT CAVOK 13/10 Q1020 NOSIG=
201810180230 METAR LROP 180230Z 07003KT CAVOK 12/09 Q1020 NOSIG=
201810180300 METAR LROP 180300Z 05003KT CAVOK 12/09 Q1020 NOSIG=
201810180330 METAR LROP 180330Z 07003KT CAVOK 11/09 Q1020 NOSIG=
201810180400 METAR LROP 180400Z VRB02KT CAVOK 10/09 Q1020 NOSIG=
201810180430 METAR LROP 180430Z 08004KT CAVOK 11/08 Q1019 NOSIG=
201810180500 METAR COR LROP 180500Z 08004KT CAVOK 11/08 Q1020 NOSIG=
201810180530 METAR LROP 180530Z VRB01KT CAVOK 11/09 Q1020 NOSIG=
201810180600 METAR LROP 180600Z 08003KT 060V120 CAVOK 12/09 Q1020 NOSIG=
201810180630 METAR LROP 180630Z 09006KT CAVOK 14/10 Q1020 NOSIG=
201810180700 METAR LROP 180700Z 08010KT CAVOK 16/11 Q1020 NOSIG=
201810180730 METAR LROP 180730Z 08011KT CAVOK 17/12 Q1020 NOSIG=
201810180800 METAR LROP 180800Z 08012KT CAVOK 17/12 Q1020 NOSIG=
201810180830 METAR LROP 180830Z 08014KT CAVOK 17/13 Q1020 NOSIG=
201810180900 METAR LROP 180900Z 10011KT CAVOK 19/13 Q1020 NOSIG=
201810180930 METAR LROP 180930Z 12007KT CAVOK 18/13 Q1020 NOSIG=
201810181000 METAR LROP 181000Z 13006KT 090V150 CAVOK 18/12 Q1019 NOSIG=
201810181030 METAR LROP 181030Z 13006KT 100V170 CAVOK 18/13 Q1019 NOSIG=
201810181100 METAR LROP 181100Z 09006KT 050V130 CAVOK 19/13 Q1018 NOSIG=
201810181130 METAR LROP 181130Z 09009KT CAVOK 20/11 Q1018 NOSIG=
201810181200 METAR LROP 181200Z 06009KT 030V100 CAVOK 21/11 Q1018 NOSIG=
201810181230 METAR LROP 181230Z 10009KT CAVOK 21/11 Q1018 NOSIG=
201810181300 METAR LROP 181300Z 11008KT 080V140 CAVOK 21/12 Q1018 NOSIG=
201810181330 METAR COR LROP 181330Z 12007KT CAVOK 20/12 Q1017 NOSIG=
201810181400 METAR LROP 181400Z 13007KT 100V160 CAVOK 20/12 Q1017 NOSIG=
201810181430 METAR LROP 181430Z 14007KT CAVOK 19/12 Q1017 NOSIG=
201810181500 METAR LROP 181500Z 14006KT CAVOK 18/12 Q1017 NOSIG=
201810181530 METAR LROP 181530Z 15003KT CAVOK 17/13 Q1017 NOSIG=
201810181600 METAR LROP 181600Z 13001KT CAVOK 16/13 Q1017 NOSIG=
201810181630 METAR LROP 181630Z 16001KT CAVOK 16/13 Q1017 NOSIG=
201810181700 METAR LROP 181700Z 00000KT CAVOK 16/13 Q1017 NOSIG=
201810181730 METAR LROP 181730Z 00000KT CAVOK 16/13 Q1018 NOSIG=
201810181800 METAR LROP 181800Z 36003KT CAVOK 15/13 Q1018 NOSIG=
201810181830 METAR LROP 181830Z 01003KT 9999 -RA NSC 16/13 Q1018 NOSIG=
201810181900 METAR LROP 181900Z 01004KT CAVOK 15/13 Q1018 NOSIG=
201810181930 METAR LROP 181930Z 07003KT 040V140 CAVOK 15/13 Q1018 NOSIG=
201810182000 METAR LROP 182000Z 15001KT CAVOK 14/12 Q1018 NOSIG=
201810182030 METAR LROP 182030Z 00000KT CAVOK 14/12 Q1018 NOSIG=
201810182100 METAR LROP 182100Z 00000KT 9999 -RA NSC 14/13 Q1018 R88/19//95
                        NOSIG=
201810182130 METAR LROP 182130Z 00000KT 9000 -RA NSC 14/13 Q1018 R88/19//95
                        NOSIG=
201810182200 METAR LROP 182200Z 25001KT 8000 NSC 14/13 Q1018 R88/19//95
                        NOSIG=
201810182230 METAR LROP 182230Z 30002KT 7000 SCT033 13/12 Q1018 R88/19//95
                        NOSIG=
201810182300 METAR LROP 182300Z 00000KT 8000 SCT032 13/12 Q1018 R88/19//95
                        NOSIG=
201810182330 METAR LROP 182330Z 29002KT 8000 BKN033 13/12 Q1018 R88/19//95
                        NOSIG=
201810190000 METAR LROP 190000Z VRB02KT 7000 BKN034 13/12 Q1018 R88/19//95
                        NOSIG=
201810190030 METAR LROP 190030Z VRB01KT 6000 SCT034 13/12 Q1017 R88/19//95
                        TEMPO 3000 BR=
201810190100 METAR LROP 190100Z 36003KT 7000 NSC 13/12 Q1017 R88/19//95
                        TEMPO 3000 BR=
201810190130 METAR LROP 190130Z 34002KT 7000 NSC 12/11 Q1017 R88/19//95
                        TEMPO 3000 BR=
201810190200 METAR LROP 190200Z VRB01KT 6000 NSC 11/10 Q1017 R88/19//95
                        NOSIG=
201810190230 METAR COR LROP 190230Z 00000KT 6000 NSC 10/10 Q1017 R88/CLRD//
                        NOSIG=
201810190300 METAR LROP 190300Z 27003KT 5000 BR NSC 10/09 Q1017 R88/CLRD//
                        NOSIG=
201810190330 METAR LROP 190330Z 29003KT 260V320 5000 BR NSC 10/09 Q1017
                        NOSIG=
201810190400 METAR LROP 190400Z 00000KT 5000 BR NSC 10/09 Q1017 NOSIG=
201810190430 METAR LROP 190430Z VRB01KT 5000 BR NSC 10/09 Q1017 NOSIG=
201810190500 METAR LROP 190500Z 00000KT 5000 BR NSC 10/09 Q1017 NOSIG=
201810190530 METAR LROP 190530Z VRB01KT 5000 BR NSC 10/10 Q1017 NOSIG=
201810190600 METAR COR LROP 190600Z VRB02KT 5000 -SHRA BR SCT050CB 11/10
                        Q1018 R88/19//95 BECMG 9999 NSW=
201810190630 METAR COR LROP 190630Z VRB02KT 8000 FEW040CB SCT042 12/12
                        Q1018 R88/19//95 BECMG SCT045=
201810190700 METAR LROP 190700Z 06004KT 8000 FEW045CB 14/13 Q1018 R88/19//95
                        BECMG SCT045=
201810190730 METAR LROP 190730Z 05006KT 9000 NSC 15/13 Q1018 R88/19//95
                        NOSIG=
201810190800 METAR COR LROP 190800Z 09005KT 9000 NSC 16/13 Q1018 R88/CLRD//
                        NOSIG=
201810190830 METAR LROP 190830Z VRB01KT 9000 NSC 17/13 Q1018 R88/CLRD//
                        NOSIG=
201810190900 METAR LROP 190900Z VRB01KT 9000 SCT033 18/13 Q1018 R88/CLRD//
                        NOSIG=
201810190930 METAR LROP 190930Z VRB01KT 9999 FEW033 19/13 Q1018 R88/CLRD//
                        NOSIG=
201810191000 METAR COR LROP 191000Z VRB02KT CAVOK 19/14 Q1018 NOSIG=
201810191030 METAR LROP 191030Z VRB02KT 9999 FEW020 20/14 Q1017 NOSIG=
201810191100 METAR LROP 191100Z VRB02KT 9999 SCT030 20/14 Q1017 NOSIG=
201810191130 METAR LROP 191130Z VRB02KT 9999 SCT035 21/14 Q1017 NOSIG=
201810191200 METAR LROP 191200Z 15004KT 070V200 9999 BKN038 21/14 Q1017
                        NOSIG=
201810191230 METAR LROP 191230Z VRB02KT 9999 BKN035 22/13 Q1017 NOSIG=
201810191300 METAR LROP 191300Z 15004KT 120V190 9999 BKN036 22/13 Q1017
                        NOSIG=
201810191330 METAR LROP 191330Z VRB03KT 9999 SCT037 21/12 Q1017 NOSIG=
201810191400 METAR LROP 191400Z 16003KT 110V200 9999 SCT039 21/12 Q1017
                        NOSIG=
201810191430 METAR LROP 191430Z 17003KT 9999 FEW035 20/13 Q1016 NOSIG=
201810191500 METAR LROP 191500Z 14003KT CAVOK 18/13 Q1017 NOSIG=
201810191530 METAR LROP 191530Z 14001KT CAVOK 17/13 Q1017 NOSIG=
201810191600 METAR LROP 191600Z 06002KT CAVOK 17/12 Q1017 NOSIG=
201810191630 METAR LROP 191630Z VRB01KT CAVOK 17/12 Q1017 NOSIG=
201810191700 METAR LROP 191700Z 03003KT 7000 NSC 18/11 Q1018 NOSIG=
201810191730 METAR LROP 191730Z 06004KT 030V110 7000 NSC 17/12 Q1018 NOSIG=
201810191800 METAR LROP 191800Z 03003KT 7000 NSC 17/11 Q1018 NOSIG=
201810191830 METAR LROP 191830Z 04003KT 7000 NSC 16/12 Q1018 NOSIG=
201810191900 METAR LROP 191900Z VRB01KT 6000 NSC 15/12 Q1018 NOSIG=
201810191930 METAR LROP 191930Z 03002KT 7000 NSC 15/12 Q1018 NOSIG=
201810192000 METAR LROP 192000Z 00000KT 6000 NSC 15/12 Q1018 NOSIG=
201810192030 METAR LROP 192030Z 00000KT 6000 NSC 15/12 Q1018 NOSIG=
201810192100 METAR LROP 192100Z 26003KT 6000 NSC 14/12 Q1018 NOSIG=
201810192130 METAR LROP 192130Z VRB01KT 6000 NSC 14/12 Q1018 NOSIG=
201810192200 METAR LROP 192200Z 26003KT 6000 NSC 14/12 Q1018 NOSIG=
201810192230 METAR LROP 192230Z 27004KT 6000 NSC 14/12 Q1018 NOSIG=
201810192300 METAR LROP 192300Z 28004KT 6000 NSC 14/11 Q1018 NOSIG=
201810192330 METAR LROP 192330Z 28004KT 5000 BR 13/11 Q1018 NOSIG=
201810200000 METAR LROP 200000Z 28005KT 5000 BR FEW046 13/11 Q1018 NOSIG=
201810200030 METAR LROP 200030Z 31004KT 280V340 5000 BR SCT046 14/12 Q1018
                        NOSIG=
201810200100 METAR LROP 200100Z 35006KT 5000 BR SCT046 14/12 Q1018 NOSIG=
201810200130 METAR LROP 200130Z VRB02KT 5000 BR BKN047 14/12 Q1018 NOSIG=
201810200200 METAR LROP 200200Z 28003KT 190V330 5000 BR BKN048 14/12 Q1018
                        NOSIG=
201810200230 METAR COR LROP 200230Z 29005KT 5000 -RA BR OVC049 14/12 Q1019
                        NOSIG=
201810200300 METAR COR LROP 200300Z 24001KT 5000 BR BKN049 14/12 Q1019
                        NOSIG=
201810200330 METAR LROP 200330Z 25003KT 5000 BR SCT049 14/12 Q1019 NOSIG=
201810200400 METAR LROP 200400Z 26004KT 5000 BR SCT049 14/12 Q1019 NOSIG=
201810200430 METAR LROP 200430Z 23002KT 6000 BKN048 14/12 Q1019 NOSIG=
201810200500 METAR LROP 200500Z 25004KT 6000 BKN048 13/12 Q1019 NOSIG=
201810200530 METAR LROP 200530Z 23004KT 6000 -RA BKN048 14/13 Q1019 NOSIG=
201810200600 METAR LROP 200600Z 24003KT 6000 -RA BKN046 14/13 Q1019 NOSIG=
201810200630 METAR LROP 200630Z 31003KT 280V360 6000 -RA BKN045 14/14
                        Q1020 R26L/29//95 R26R/29//95 NOSIG=
201810200700 METAR LROP 200700Z VRB01KT 6000 BKN041 15/14 Q1020 R26L/29//95
                        R26R/29//95 NOSIG=
201810200730 METAR LROP 200730Z 29004KT 250V320 6000 BKN042 16/15 Q1020
                        R26L/29//95 R26R/29//95 NOSIG=
201810200800 METAR LROP 200800Z 29004KT 7000 BKN040 17/15 Q1020 R26L/29//95
                        R26R/29//95 NOSIG=
201810200830 METAR LROP 200830Z 25008KT 9999 BKN041 17/14 Q1020 R26L/29//95
                        R26R/29//95 NOSIG=
201810200900 METAR LROP 200900Z 24008KT 9999 FEW043 18/14 Q1020 R26L/29//95
                        R26R/29//95 NOSIG=
201810200930 METAR LROP 200930Z 25009KT CAVOK 18/13 Q1020 R88/CLRD// NOSIG=
201810201000 METAR LROP 201000Z 23010KT CAVOK 20/13 Q1020 NOSIG=
201810201030 METAR LROP 201030Z 24009KT CAVOK 20/11 Q1020 NOSIG=
201810201100 METAR LROP 201100Z 24010KT CAVOK 20/11 Q1019 NOSIG=
201810201130 METAR LROP 201130Z 23009KT CAVOK 21/11 Q1019 NOSIG=
201810201200 METAR LROP 201200Z 24009KT CAVOK 21/12 Q1019 NOSIG=
201810201230 METAR LROP 201230Z 23009KT 190V260 CAVOK 21/12 Q1019 NOSIG=
201810201300 METAR LROP 201300Z 22010KT 9999 FEW036 21/12 Q1019 NOSIG=
201810201330 METAR COR LROP 201330Z 26009KT 9999 FEW036 21/11 Q1019 NOSIG=
201810201400 METAR LROP 201400Z 25008KT 9999 FEW041 20/11 Q1019 NOSIG=
201810201430 METAR LROP 201430Z 25009KT 9999 FEW050CB 19/11 Q1018 TEMPO
                        VRB15G25KT 3000 TSRA BKN010 BKN030CB=
201810201500 METAR COR LROP 201500Z VRB06KT 9999 TS SCT040CB 19/11 Q1018
                        WS ALL RWY TEMPO VRB15G25KT 3000
                        TSRA BKN010 BKN030CB=
201810201530 METAR LROP 201530Z 18006KT 140V250 9999 VCTS FEW040CB 19/12
                        Q1019 WS ALL RWY NOSIG=
201810201600 METAR COR LROP 201600Z 22006KT 9999 FEW040CB 17/13 Q1019
                        WS ALL RWY NOSIG=
201810201630 METAR LROP 201630Z 15004KT 8000 SHRA FEW015 SCT040CB 17/14
                        Q1019 WS ALL RWY R88/29//95 NOSIG=
201810201700 METAR LROP 201700Z 31004KT 260V340 9999 -SHRA SCT010 SCT040CB
                        16/15 Q1020 RESHRA R88/29//95 NOSIG=
201810201730 METAR LROP 201730Z 25008KT 9999 FEW010 FEW040CB 15/14 Q1019
                        R88/29//95 NOSIG=
201810201800 METAR LROP 201800Z 25006KT 9999 FEW040CB 14/13 Q1019 R88/29//95
                        NOSIG=
201810201830 METAR LROP 201830Z 25007KT 9999 FEW050CB 14/13 Q1019 R88/29//95
                        NOSIG=
201810201900 METAR COR LROP 201900Z 25006KT 9999 FEW050CB 13/12 Q1020
                        R88/29//95 NOSIG=
201810201930 METAR LROP 201930Z 25006KT CAVOK 13/12 Q1020 R88/29//95 NOSIG=
201810202000 METAR LROP 202000Z 24004KT 8000 NSC 13/12 Q1020 R88/29//95
                        NOSIG=
201810202030 METAR LROP 202030Z 24005KT 7000 SCT049 13/12 Q1020 R88/29//95
                        NOSIG=
201810202100 METAR LROP 202100Z 23003KT 6000 BKN048 13/12 Q1020 R88/29//95
                        NOSIG=
201810202130 METAR LROP 202130Z VRB02KT 7000 VCTS FEW045CB BKN048 13/12
                        Q1019 R88/29//95 NOSIG=
201810202200 METAR LROP 202200Z VRB02KT 7000 VCTS FEW040CB SCT048 13/12
                        Q1019 R88/29//95 NOSIG=
201810202230 METAR LROP 202230Z 32003KT 7000 SCT040CB BKN042 13/12 Q1020
                        R88/29//95 NOSIG=
201810202300 METAR LROP 202300Z 06005KT 6000 -SHRA SCT040CB SCT042 13/12
                        Q1019 R88/29//95 NOSIG=
201810202330 METAR LROP 202330Z VRB02KT 5000 -SHRA BR SCT040CB 13/12 Q1019
                        R88/29//95 NOSIG=
201810210000 METAR LROP 210000Z 00000KT 5000 -SHRA BR SCT040CB 13/12 Q1019
                        R88/29//95 NOSIG=
201810210030 METAR LROP 210030Z 13004KT 4000 SHRA BR SCT030CB SCT040 13/13
                        Q1019 R88/29//95 TEMPO 3000 SHRA=
201810210100 METAR LROP 210100Z 17005KT 5000 -SHRA BR SCT035CB 13/13 Q1019
                        RESHRA R88/29//95 NOSIG=
201810210130 METAR LROP 210130Z 13004KT 4000 -SHRA BR FEW020 SCT040CB
                        13/13 Q1019 R88/29//95 NOSIG=
201810210200 METAR LROP 210200Z 12003KT 4000 -SHRA BR SCT040CB 13/13 Q1018
                        R88/29//95 NOSIG=
201810210230 METAR LROP 210230Z 10003KT 3500 -SHRA BR SCT040CB 13/13 Q1018
                        R88/29//95 NOSIG=
201810210300 METAR LROP 210300Z 17005KT 5000 SHRA VCTS SCT040CB 13/12
                        Q1018 R88/29//95 NOSIG=
201810210330 METAR LROP 210330Z 00000KT 5000 SHRA BKN040CB 13/13 Q1019
                        R88/29//95 NOSIG=
201810210400 METAR LROP 210400Z VRB02KT 3000 SHRA SCT050CB 13/12 Q1019
                        R88/29//95 NOSIG=
201810210430 METAR LROP 210430Z VRB01KT 3000 SHRA BR SCT050CB 13/12 Q1019
                        R88/29//95 NOSIG=
201810210500 METAR LROP 210500Z VRB01KT 3000 SHRA BR FEW003 BKN040CB 13/12
                        Q1019 R88/29//95 TEMPO 1500 SHRA=
201810210530 METAR LROP 210530Z VRB01KT 3500 -SHRA BR FEW022 FEW040CB
                        BKN041 13/12 Q1019 RERA R88/29//95
                        TEMPO 1500 -SHRA BR=
201810210600 METAR LROP 210600Z VRB01KT 2500 SHRA BR FEW013 FEW034CB 13/12
                        Q1019 R88/29//95 TEMPO 1500 -SHRA
                        BR=
201810210630 METAR LROP 210630Z 00000KT 3000 -SHRA BR FEW012 FEW035CB
                        BKN047 13/13 Q1019 RERA R88/29//95
                        TEMPO 1500 -SHRA BR=
201810210700 METAR LROP 210700Z 17003KT 3500 -SHRA BR FEW036CB BKN041
                        14/13 Q1019 R88/29//95 NOSIG=
201810210730 METAR LROP 210730Z 16003KT 4000 BR FEW030CB 14/13 Q1019 R88/29//95
                        NOSIG=
201810210800 METAR LROP 210800Z 12006KT 4000 BR SCT008 14/14 Q1020 R88/29//95
                        NOSIG=
201810210830 METAR LROP 210830Z 12005KT 4000 BR BKN008 15/14 Q1020 R88/29//95
                        NOSIG=
201810210900 METAR LROP 210900Z 13005KT 4000 BR BKN010 BKN022 15/14 Q1020
                        R88/29//95 NOSIG=
201810210930 METAR LROP 210930Z 12005KT 4000 BR BKN011 OVC020 15/14 Q1020
                        R88/19//95 NOSIG=
201810211000 METAR LROP 211000Z 11004KT 060V150 5000 BR BKN012 OVC022
                        16/15 Q1020 R88/19//95 NOSIG=
201810211030 METAR LROP 211030Z 08005KT 050V120 6000 BKN019 BKN024 16/14
                        Q1020 R88/19//95 NOSIG=
201810211100 METAR LROP 211100Z 11005KT 080V140 6000 BKN015 BKN023 16/14
                        Q1020 R88/19//95 NOSIG=
201810211130 METAR LROP 211130Z 11003KT 070V210 6000 FEW020 BKN024 BKN048
                        16/14 Q1020 R88/19//95 NOSIG=
201810211200 METAR LROP 211200Z 09004KT 7000 BKN023 OVC040 16/14 Q1020
                        R88/19//95 NOSIG=
201810211230 METAR LROP 211230Z 08003KT 8000 BKN025 16/13 Q1020 R88/19//95
                        NOSIG=
201810211300 METAR LROP 211300Z VRB01KT 8000 FEW032 16/13 Q1020 R88/19//95
                        NOSIG=
201810211330 METAR LROP 211330Z 03002KT 9000 SCT043 16/13 Q1020 R88/19//95
                        NOSIG=
201810211400 METAR LROP 211400Z 00000KT 9000 NSC 17/13 Q1020 R88/19//95
                        NOSIG=
201810211430 METAR LROP 211430Z 34003KT 9000 NSC 16/13 Q1020 R88/19//95
                        NOSIG=
201810211500 METAR LROP 211500Z 02004KT 360V060 9000 NSC 16/13 Q1020 R88/19//95
                        NOSIG=
201810211530 METAR LROP 211530Z 03005KT 9000 BKN026 16/13 Q1021 R88/19//95
                        NOSIG=
201810211600 METAR LROP 211600Z 06009KT 7000 FEW026 SCT035 15/11 Q1021
                        R88/19//95 NOSIG=
201810211630 METAR LROP 211630Z 07009KT 7000 SCT034 14/11 Q1022 R88/19//95
                        NOSIG=
201810211700 METAR LROP 211700Z 07011KT 7000 NSC 13/11 Q1022 R88/19//95
                        NOSIG=
201810211730 METAR LROP 211730Z 07007KT 6000 NSC 13/11 Q1022 R88/19//95
                        NOSIG=
201810211800 METAR LROP 211800Z 07006KT 6000 FEW044 12/11 Q1022 R88/09//95
                        NOSIG=
201810211830 METAR LROP 211830Z 06008KT 7000 FEW045 13/10 Q1022 R88/09//95
                        NOSIG=
201810211900 METAR LROP 211900Z 05010KT 8000 NSC 13/10 Q1023 R88/09//95
                        NOSIG=
201810211930 METAR LROP 211930Z 05008KT 9000 FEW043 13/09 Q1023 R88/09//95
                        NOSIG=
201810212000 METAR LROP 212000Z 05009KT 9999 FEW044 13/09 Q1023 R88/09//95
                        NOSIG=
201810212030 METAR LROP 212030Z 05006KT CAVOK 13/09 Q1023 R88/09//95 NOSIG=
201810212100 METAR LROP 212100Z 05007KT CAVOK 12/08 Q1023 R88/09//95 NOSIG=
201810212130 METAR LROP 212130Z 04006KT CAVOK 12/08 Q1023 R88/09//95 NOSIG=
201810212200 METAR LROP 212200Z 04006KT CAVOK 12/08 Q1023 R88/09//95 NOSIG=
201810212230 METAR LROP 212230Z 04008KT CAVOK 11/08 Q1023 R88/09//95 NOSIG=
201810212300 METAR LROP 212300Z 05008KT CAVOK 11/08 Q1023 R88/09//95 NOSIG=
201810212330 METAR LROP 212330Z 06007KT CAVOK 11/08 Q1023 R88/09//95 NOSIG=
201810220000 METAR LROP 220000Z 06006KT CAVOK 11/08 Q1024 R88/09//95 NOSIG=
201810220030 METAR LROP 220030Z 09008KT CAVOK 11/08 Q1023 R88/09//95 NOSIG=
201810220100 METAR LROP 220100Z 07007KT CAVOK 10/08 Q1023 R88/09//95 NOSIG=
201810220130 METAR LROP 220130Z 09006KT CAVOK 10/08 Q1023 R88/09//95 NOSIG=
201810220200 METAR LROP 220200Z 08003KT CAVOK 09/07 Q1023 R88/09//95 NOSIG=
201810220230 METAR LROP 220230Z 08004KT CAVOK 09/07 Q1023 R88/09//95 NOSIG=
201810220300 METAR LROP 220300Z 08005KT CAVOK 08/07 Q1023 R88/09//95 NOSIG=
201810220330 METAR LROP 220330Z 05004KT 9000 NSC 09/07 Q1023 R88/09//95
                        NOSIG=
201810220400 METAR LROP 220400Z 08005KT 8000 SCT044 09/08 Q1024 R88/09//95
                        NOSIG=
201810220430 METAR LROP 220430Z 09005KT 8000 SCT042 09/08 Q1024 R88/09//95
                        NOSIG=
201810220500 METAR LROP 220500Z 11008KT 7000 FEW041 09/08 Q1023 R88/09//95
                        NOSIG=
201810220530 METAR LROP 220530Z 05005KT CAVOK 10/08 Q1024 R88/09//95 NOSIG=
201810220600 METAR LROP 220600Z 06005KT 9999 BKN040 11/08 Q1024 R88/09//95
                        NOSIG=
201810220630 METAR LROP 220630Z 08008KT 9999 BKN041 12/08 Q1025 R88/09//95
                        NOSIG=
201810220700 METAR LROP 220700Z 08010KT 9999 BKN041 12/08 Q1024 R88/09//95
                        NOSIG=
201810220730 METAR LROP 220730Z 08014KT 9999 BKN042 13/08 Q1025 R88/09//95
                        NOSIG=
201810220800 METAR COR LROP 220800Z 08014KT 9999 SCT040 15/08 Q1025 R88/09//95
                        NOSIG=
201810220830 METAR LROP 220830Z 07013KT 9999 FEW043 15/07 Q1025 R88/09//95
                        NOSIG=
201810220900 METAR LROP 220900Z 08013KT 9999 FEW040 16/07 Q1025 R88/09//95
                        NOSIG=
201810220930 METAR LROP 220930Z 07012KT 9999 FEW037 16/07 Q1024 R88/09//95
                        NOSIG=
201810221000 METAR LROP 221000Z 06010KT 030V090 9999 FEW037 16/07 Q1024
                        R88/09//95 NOSIG=
201810221030 METAR LROP 221030Z 07008KT 030V120 9999 FEW035 17/08 Q1024
                        R88/09//95 NOSIG=
201810221100 METAR LROP 221100Z 06005KT 030V100 9999 FEW035 17/07 Q1023
                        R88/09//95 NOSIG=
201810221130 METAR LROP 221130Z 06006KT 350V090 9999 FEW038 17/07 Q1023
                        R88/09//95 NOSIG=
201810221200 METAR COR LROP 221200Z 04005KT 010V100 9999 FEW043 17/07
                        Q1023 R88/CLRD// NOSIG=
201810221230 METAR LROP 221230Z 01006KT 330V030 9999 SCT045 17/07 Q1023
                        R88/CLRD// NOSIG=
201810221300 METAR LROP 221300Z VRB01KT 9999 SCT048 17/07 Q1023 R88/CLRD//
                        NOSIG=
201810221330 METAR LROP 221330Z 01005KT 340V050 9999 SCT044 17/07 Q1022
                        NOSIG=
201810221400 METAR LROP 221400Z 36005KT 9999 FEW043 16/08 Q1022 NOSIG=
201810221430 METAR LROP 221430Z 01003KT CAVOK 15/08 Q1022 NOSIG=
201810221500 METAR LROP 221500Z 30002KT CAVOK 14/07 Q1022 NOSIG=
201810221530 METAR LROP 221530Z 31002KT CAVOK 14/07 Q1022 NOSIG=
201810221600 METAR LROP 221600Z 26003KT CAVOK 14/07 Q1022 NOSIG=
201810221630 METAR LROP 221630Z 28003KT CAVOK 13/08 Q1022 NOSIG=
201810221700 METAR LROP 221700Z VRB02KT CAVOK 12/09 Q1022 NOSIG=
201810221730 METAR LROP 221730Z VRB02KT CAVOK 12/08 Q1022 NOSIG=
201810221800 METAR LROP 221800Z 28004KT 8000 NSC 11/09 Q1022 NOSIG=
201810221830 METAR LROP 221830Z VRB04KT 8000 NSC 10/09 Q1022 NOSIG=
201810221900 METAR LROP 221900Z 06003KT 8000 NSC 09/09 Q1023 NOSIG=
201810221930 METAR LROP 221930Z 00000KT 8000 NSC 09/08 Q1022 NOSIG=
201810222000 METAR LROP 222000Z VRB01KT 8000 SCT045 09/08 Q1023 NOSIG=
201810222030 METAR LROP 222030Z VRB01KT 7000 NSC 09/08 Q1022 NOSIG=
201810222100 METAR LROP 222100Z VRB01KT 7000 NSC 09/08 Q1022 NOSIG=
201810222130 METAR LROP 222130Z 00000KT 6000 NSC 08/07 Q1022 NOSIG=
201810222200 METAR LROP 222200Z 00000KT 6000 NSC 08/07 Q1022 NOSIG=
201810222230 METAR LROP 222230Z 29003KT 5000 BR NSC 08/07 Q1022 NOSIG=
201810222300 METAR LROP 222300Z VRB01KT 6000 NSC 08/07 Q1022 NOSIG=
201810222330 METAR LROP 222330Z 27003KT 6000 NSC 08/07 Q1022 NOSIG=
201810230000 METAR LROP 230000Z 29002KT 6000 NSC 08/07 Q1022 NOSIG=
201810230030 METAR LROP 230030Z 30001KT 5000 BR NSC 07/07 Q1022 NOSIG=
201810230100 METAR LROP 230100Z 31002KT 4000 BR NSC 07/06 Q1021 NOSIG=
201810230130 METAR LROP 230130Z 29004KT 4000 BR NSC 07/06 Q1021 TEMPO
                        3000 BR=
201810230200 METAR LROP 230200Z 28003KT 4000 BR NSC 06/05 Q1021 TEMPO
                        3000 BR=
201810230230 METAR LROP 230230Z 22002KT 4000 BR NSC 06/05 Q1021 TEMPO
                        3000 BR=
201810230300 METAR LROP 230300Z 27003KT 4000 BR NSC 06/06 Q1021 NOSIG=
201810230330 METAR LROP 230330Z 26003KT 4000 BR NSC 06/05 Q1021 NOSIG=
201810230400 METAR LROP 230400Z 25004KT 4000 BR NSC 06/05 Q1021 NOSIG=
201810230430 METAR LROP 230430Z 25001KT 3500 BR NSC 05/05 Q1021 NOSIG=
201810230500 METAR LROP 230500Z 28003KT 2500 BR NSC 05/05 Q1021 NOSIG=
201810230530 METAR LROP 230530Z 26003KT 3000 BR NSC 06/06 Q1021 NOSIG=
201810230600 METAR LROP 230600Z 26005KT 4000 BR NSC 07/07 Q1021 NOSIG=
201810230630 METAR LROP 230630Z 26005KT 4500 BR NSC 08/08 Q1021 NOSIG=
201810230700 METAR LROP 230700Z 25006KT 5000 BR NSC 10/09 Q1021 NOSIG=
201810230730 METAR LROP 230730Z 26007KT 8000 NSC 12/10 Q1021 NOSIG=
201810230800 METAR LROP 230800Z 25008KT 9000 NSC 14/10 Q1021 NOSIG=
201810230830 METAR LROP 230830Z 24010KT CAVOK 15/10 Q1020 NOSIG=
201810230900 METAR LROP 230900Z 25010KT CAVOK 16/10 Q1020 NOSIG=
201810230930 METAR LROP 230930Z 25012KT CAVOK 17/08 Q1020 NOSIG=
201810231000 METAR LROP 231000Z 26012KT CAVOK 18/09 Q1019 NOSIG=
201810231030 METAR LROP 231030Z 25010KT 220V280 CAVOK 18/08 Q1019 NOSIG=
201810231100 METAR LROP 231100Z 24010KT CAVOK 19/09 Q1018 NOSIG=
201810231130 METAR LROP 231130Z 23012KT CAVOK 19/09 Q1018 NOSIG=
201810231200 METAR LROP 231200Z 23012KT CAVOK 19/08 Q1017 NOSIG=
201810231230 METAR LROP 231230Z 23012KT CAVOK 19/08 Q1017 NOSIG=
201810231300 METAR LROP 231300Z 23012KT CAVOK 19/08 Q1016 NOSIG=
201810231330 METAR LROP 231330Z 23013KT CAVOK 18/08 Q1016 NOSIG=
201810231400 METAR LROP 231400Z 24014KT CAVOK 18/08 Q1015 NOSIG=
201810231430 METAR COR LROP 231430Z 24012KT CAVOK 17/08 Q1015 NOSIG=
201810231500 METAR LROP 231500Z 24008KT CAVOK 16/07 Q1015 NOSIG=
201810231530 METAR LROP 231530Z 25008KT CAVOK 15/07 Q1014 NOSIG=
201810231600 METAR LROP 231600Z 23007KT CAVOK 13/07 Q1014 NOSIG=
201810231630 METAR LROP 231630Z 22006KT CAVOK 12/07 Q1014 NOSIG=
201810231700 METAR LROP 231700Z 22008KT CAVOK 12/07 Q1014 NOSIG=
201810231730 METAR LROP 231730Z 22010KT CAVOK 12/06 Q1013 NOSIG=
201810231800 METAR LROP 231800Z 22010KT CAVOK 12/06 Q1013 NOSIG=
201810231830 METAR LROP 231830Z 22012KT CAVOK 12/06 Q1012 NOSIG=
201810231900 METAR LROP 231900Z 22012KT CAVOK 11/06 Q1012 NOSIG=
201810231930 METAR LROP 231930Z 22011KT CAVOK 11/06 Q1012 NOSIG=
201810232000 METAR LROP 232000Z 22012KT CAVOK 11/05 Q1011 NOSIG=
201810232030 METAR LROP 232030Z 23011KT CAVOK 11/05 Q1011 RMK WS ALL RWY
                        NOSIG=
201810232100 METAR LROP 232100Z 23012KT CAVOK 11/06 Q1010 WS ALL RWY NOSIG=
201810232130 METAR LROP 232130Z 23011KT CAVOK 11/06 Q1010 WS ALL RWY NOSIG=
201810232200 METAR LROP 232200Z 23012KT CAVOK 10/07 Q1009 WS ALL RWY NOSIG=
201810232230 METAR LROP 232230Z 23011KT CAVOK 10/07 Q1008 WS ALL RWY NOSIG=
201810232300 METAR LROP 232300Z 23014KT CAVOK 10/08 Q1008 WS ALL RWY NOSIG=
201810232330 METAR LROP 232330Z 24012KT CAVOK 10/08 Q1007 WS ALL RWY NOSIG=
201810240000 METAR LROP 240000Z 24013KT CAVOK 10/08 Q1007 WS ALL RWY NOSIG=
201810240030 METAR LROP 240030Z 24013KT 7000 NSC 10/08 Q1006 WS ALL RWY
                        NOSIG=
201810240100 METAR LROP 240100Z 25015KT 7000 NSC 10/08 Q1005 WS ALL RWY
                        NOSIG=
201810240130 METAR LROP 240130Z 24015KT 7000 NSC 10/08 Q1005 WS ALL RWY
                        NOSIG=
201810240200 METAR LROP 240200Z 24016KT 7000 NSC 10/08 Q1005 WS ALL RWY
                        NOSIG=
201810240230 METAR LROP 240230Z 25014KT 7000 NSC 10/08 Q1004 WS ALL RWY
                        NOSIG=
201810240300 METAR LROP 240300Z 24016KT 7000 NSC 10/08 Q1004 WS ALL RWY
                        NOSIG=
201810240330 METAR LROP 240330Z 24017KT 8000 NSC 10/08 Q1003 WS ALL RWY
                        NOSIG=
201810240400 METAR LROP 240400Z 24015KT 9000 NSC 10/08 Q1003 WS ALL RWY
                        NOSIG=
201810240430 METAR LROP 240430Z 25017KT 9000 NSC 10/08 Q1003 BECMG 26020G30KT=
201810240500 METAR LROP 240500Z 24017KT 9000 NSC 10/07 Q1002 BECMG 26020G30KT=
201810240530 METAR LROP 240530Z 24016KT CAVOK 10/08 Q1001 BECMG 26020G30KT=
201810240600 METAR LROP 240600Z 24015KT CAVOK 11/08 Q1001 BECMG 26020G30KT=
201810240630 METAR LROP 240630Z 24018KT CAVOK 11/08 Q1001 NOSIG=
201810240700 METAR LROP 240700Z 25015KT CAVOK 11/08 Q1001 NOSIG=
201810240730 METAR LROP 240730Z 26019KT CAVOK 12/08 Q1000 NOSIG=
201810240800 METAR LROP 240800Z 26019KT CAVOK 13/08 Q1000 NOSIG=
201810240830 METAR LROP 240830Z 26019KT CAVOK 13/08 Q1000 NOSIG=
201810240900 METAR LROP 240900Z 26018KT 9999 FEW050CB 13/07 Q1000 NOSIG=
201810240930 METAR LROP 240930Z 25017KT 9999 FEW050CB 13/07 Q1000 TEMPO
                        5000 SHRA SCT030CB=
201810241000 METAR LROP 241000Z 25018KT 9999 FEW050CB 13/07 Q0999 TEMPO
                        5000 SHRA SCT030CB=
201810241030 METAR LROP 241030Z 25018KT CAVOK 14/07 Q0998 NOSIG=
201810241100 METAR LROP 241100Z 25019KT CAVOK 15/07 Q0998 NOSIG=
201810241130 METAR LROP 241130Z 25018KT CAVOK 16/07 Q0997 NOSIG=
201810241200 METAR LROP 241200Z 26019KT CAVOK 17/07 Q0997 NOSIG=
201810241230 METAR LROP 241230Z 25021KT CAVOK 18/06 Q0996 NOSIG=
201810241300 METAR LROP 241300Z 24020KT CAVOK 18/06 Q0996 NOSIG=
201810241330 METAR LROP 241330Z 25018KT CAVOK 18/06 Q0995 NOSIG=
201810241400 METAR LROP 241400Z 24020G30KT 9999 FEW050CB 18/06 Q0995 NOSIG=
201810241430 METAR LROP 241430Z 25020G30KT 9999 VCSH FEW050CB 17/06 Q0995
                        WS ALL RWY TEMPO 3000 SHRA SCT030CB=
201810241500 METAR LROP 241500Z 32012KT 9999 -SHRA SCT050CB 15/07 Q0995
                        WS ALL RWY TEMPO 3000 SHRA SCT030CB=
201810241530 METAR LROP 241530Z 35017KT 9999 -SHRA SCT042CB BKN049 09/05
                        Q0997 R88/29//95 TEMPO 3000 SHRA=
201810241600 METAR LROP 241600Z 36009KT 9999 FEW048CB 09/05 Q0997 R88/29//95
                        TEMPO 3000 SHRA=
201810241630 METAR LROP 241630Z 33008KT 9999 FEW050CB 09/04 Q0998 R88/29//95
                        BECMG NSC=
201810241700 METAR LROP 241700Z 30011KT 9999 FEW050CB 09/00 Q0999 R88/29//95
                        BECMG NSC=
201810241730 METAR LROP 241730Z 31009KT 9999 FEW060CB 09/01 Q1000 R88/29//95
                        BECMG NSC=
201810241800 METAR LROP 241800Z 29007KT 9999 FEW060CB 08/02 Q1000 R88/29//95
                        NOSIG=
201810241830 METAR LROP 241830Z 29008KT CAVOK 06/03 Q1001 R88/29//95 NOSIG=
201810241900 METAR LROP 241900Z 29005KT CAVOK 06/01 Q1002 R88/29//95 NOSIG=
201810241930 METAR LROP 241930Z 31008KT CAVOK 05/M01 Q1003 R26L/19//95
                        R26R/CLRD// NOSIG=
201810242000 METAR LROP 242000Z 31007KT CAVOK 05/M01 Q1004 R26L/19//95
                        NOSIG=
201810242030 METAR LROP 242030Z 30006KT CAVOK 05/M01 Q1004 R26L/19//95
                        NOSIG=
201810242100 METAR LROP 242100Z 32005KT CAVOK 07/M02 Q1005 R26L/19//95
                        NOSIG=
201810242130 METAR LROP 242130Z 32007KT CAVOK 06/M01 Q1005 R26L/19//95
                        R26R/CLRD// NOSIG=
201810242200 METAR LROP 242200Z 31008KT CAVOK 06/M01 Q1006 R26L/19//95
                        R26R/CLRD// NOSIG=
201810242230 METAR LROP 242230Z 31009KT CAVOK 05/M02 Q1006 R26L/19//95
                        R26R/CLRD// NOSIG=
201810242300 METAR LROP 242300Z 28010KT CAVOK 04/M01 Q1007 R26L/19//95
                        R26R/CLRD// NOSIG=
201810242330 METAR LROP 242330Z 26007KT CAVOK 04/M02 Q1007 R26L/19//95
                        R26R/CLRD// NOSIG=
201810250000 METAR LROP 250000Z 25008KT CAVOK 03/M02 Q1007 R26L/19//95
                        R26R/CLRD// NOSIG=
201810250030 METAR LROP 250030Z 27009KT CAVOK 02/M02 Q1007 R26L/19//95
                        R26R/CLRD// NOSIG=
201810250100 METAR LROP 250100Z 27010KT CAVOK 02/M01 Q1007 R26L/19//95
                        R26R/CLRD// NOSIG=
201810250130 METAR LROP 250130Z 27008KT CAVOK 03/M01 Q1007 R26L/19//95
                        R26R/CLRD// NOSIG=
201810250200 METAR LROP 250200Z 25007KT CAVOK 02/M00 Q1008 R26L/19//95
                        R26R/CLRD// NOSIG=
201810250230 METAR LROP 250230Z 24006KT CAVOK 01/M00 Q1008 R26L/19//95
                        R26R/CLRD// NOSIG=
201810250300 METAR LROP 250300Z 24007KT CAVOK 02/M00 Q1009 R26L/19//95
                        R26R/CLRD// NOSIG=
201810250330 METAR LROP 250330Z 25007KT CAVOK 02/M01 Q1009 R88/CLRD//
                        NOSIG=
201810250400 METAR LROP 250400Z 26008KT CAVOK 02/M01 Q1009 R88/CLRD//
                        NOSIG=
201810250430 METAR LROP 250430Z 25006KT CAVOK 03/M02 Q1009 NOSIG=
201810250500 METAR LROP 250500Z 24007KT CAVOK 03/M02 Q1010 NOSIG=
201810250530 METAR LROP 250530Z 24007KT CAVOK 04/M02 Q1010 NOSIG=
201810250600 METAR LROP 250600Z 26008KT CAVOK 05/M01 Q1011 NOSIG=
201810250630 METAR LROP 250630Z 27009KT CAVOK 06/M02 Q1011 NOSIG=
201810250700 METAR COR LROP 250700Z 28011KT CAVOK 08/M01 Q1011 NOSIG=
201810250730 METAR LROP 250730Z 29013KT CAVOK 09/M00 Q1011 NOSIG=
201810250800 METAR LROP 250800Z 28009KT CAVOK 11/M01 Q1011 NOSIG=
201810250830 METAR LROP 250830Z 30010KT CAVOK 12/M01 Q1012 NOSIG=
201810250900 METAR LROP 250900Z 33010KT CAVOK 12/M02 Q1012 NOSIG=
201810250930 METAR LROP 250930Z 32009KT CAVOK 13/M02 Q1012 NOSIG=
201810251000 METAR LROP 251000Z 29010KT CAVOK 13/M02 Q1012 NOSIG=
201810251030 METAR LROP 251030Z 29008KT 250V310 CAVOK 13/M02 Q1012 NOSIG=
201810251100 METAR COR LROP 251100Z 30009KT CAVOK 14/M02 Q1011 NOSIG=
201810251130 METAR LROP 251130Z 25009KT CAVOK 14/M02 Q1011 NOSIG=
201810251200 METAR LROP 251200Z 27011KT CAVOK 14/M02 Q1011 NOSIG=
201810251230 METAR LROP 251230Z 25013KT CAVOK 14/M03 Q1011 NOSIG=
201810251300 METAR LROP 251300Z 26014KT CAVOK 14/M03 Q1011 NOSIG=
201810251330 METAR LROP 251330Z 24011KT CAVOK 14/M04 Q1011 NOSIG=
201810251400 METAR LROP 251400Z 27011KT CAVOK 13/M04 Q1011 NOSIG=
201810251430 METAR LROP 251430Z 27012KT CAVOK 13/M04 Q1011 NOSIG=
201810251500 METAR LROP 251500Z 24010KT CAVOK 12/M03 Q1011 NOSIG=
201810251530 METAR LROP 251530Z 25013KT CAVOK 11/M04 Q1011 NOSIG=
201810251600 METAR LROP 251600Z 25013KT CAVOK 10/M04 Q1011 NOSIG=
201810251630 METAR LROP 251630Z 24011KT CAVOK 10/M04 Q1011 NOSIG=
201810251700 METAR LROP 251700Z 25012KT CAVOK 10/M03 Q1011 NOSIG=
201810251730 METAR LROP 251730Z 26015KT CAVOK 09/M03 Q1011 WS ALL RWY
                        NOSIG=
201810251800 METAR LROP 251800Z 25012KT CAVOK 09/M02 Q1011 WS ALL RWY
                        NOSIG=
201810251830 METAR LROP 251830Z 26013KT CAVOK 08/M02 Q1011 WS ALL RWY
                        NOSIG=
201810251900 METAR LROP 251900Z 26014KT CAVOK 08/M02 Q1010 WS ALL RWY
                        NOSIG=
201810251930 METAR LROP 251930Z 26014KT CAVOK 07/M02 Q1011 WS ALL RWY
                        NOSIG=
201810252000 METAR LROP 252000Z 26014KT CAVOK 06/M02 Q1011 WS ALL RWY
                        NOSIG=
201810252030 METAR LROP 252030Z 27012KT CAVOK 06/M02 Q1010 NOSIG=
201810252100 METAR LROP 252100Z 26012KT CAVOK 06/M02 Q1010 NOSIG=
201810252130 METAR LROP 252130Z 26013KT CAVOK 06/M01 Q1010 NOSIG=
201810252200 METAR LROP 252200Z 25014KT CAVOK 06/M01 Q1010 NOSIG=
201810252230 METAR LROP 252230Z 25010KT CAVOK 06/M00 Q1010 NOSIG=
201810252300 METAR LROP 252300Z 26009KT CAVOK 06/M00 Q1010 NOSIG=
201810252330 METAR LROP 252330Z 25012KT CAVOK 05/01 Q1010 NOSIG=
201810260000 METAR LROP 260000Z 24013KT CAVOK 06/01 Q1010 NOSIG=
201810260030 METAR LROP 260030Z 25010KT CAVOK 06/02 Q1010 NOSIG=
201810260100 METAR LROP 260100Z 26013KT CAVOK 08/02 Q1010 NOSIG=
201810260130 METAR LROP 260130Z 27013KT CAVOK 08/03 Q1010 NOSIG=
201810260200 METAR LROP 260200Z 26010KT CAVOK 08/03 Q1010 NOSIG=
201810260230 METAR LROP 260230Z 25010KT CAVOK 08/03 Q1010 NOSIG=
201810260300 METAR LROP 260300Z 24009KT CAVOK 08/03 Q1011 NOSIG=
201810260330 METAR LROP 260330Z 25009KT CAVOK 07/03 Q1011 NOSIG=
201810260400 METAR LROP 260400Z 25010KT CAVOK 07/03 Q1011 NOSIG=
201810260430 METAR LROP 260430Z 25009KT CAVOK 06/03 Q1011 NOSIG=
201810260500 METAR LROP 260500Z 24008KT CAVOK 05/03 Q1011 NOSIG=
201810260530 METAR LROP 260530Z 24006KT CAVOK 06/04 Q1012 NOSIG=
201810260600 METAR LROP 260600Z 25007KT CAVOK 08/04 Q1012 NOSIG=
201810260630 METAR LROP 260630Z 24010KT CAVOK 09/05 Q1013 NOSIG=
201810260700 METAR LROP 260700Z 26008KT CAVOK 11/05 Q1013 NOSIG=
201810260730 METAR LROP 260730Z 26005KT 220V320 CAVOK 12/04 Q1013 NOSIG=
201810260800 METAR LROP 260800Z VRB02KT CAVOK 14/04 Q1014 NOSIG=
201810260830 METAR LROP 260830Z 24003KT 180V270 CAVOK 15/05 Q1014 NOSIG=
201810260900 METAR LROP 260900Z VRB02KT CAVOK 16/04 Q1014 NOSIG=
201810260930 METAR LROP 260930Z 12005KT 080V160 CAVOK 17/05 Q1014 NOSIG=
201810261000 METAR LROP 261000Z 18008KT CAVOK 18/05 Q1014 NOSIG=
201810261030 METAR LROP 261030Z 18007KT 150V220 CAVOK 18/05 Q1014 NOSIG=
201810261100 METAR LROP 261100Z 19007KT CAVOK 18/05 Q1014 NOSIG=
201810261130 METAR LROP 261130Z 17007KT 140V200 CAVOK 19/05 Q1014 NOSIG=
201810261200 METAR LROP 261200Z 19006KT 150V230 CAVOK 19/05 Q1013 NOSIG=
201810261230 METAR LROP 261230Z 19005KT CAVOK 19/05 Q1013 NOSIG=
201810261300 METAR LROP 261300Z 17005KT 130V210 CAVOK 18/06 Q1013 NOSIG=
201810261330 METAR LROP 261330Z 12004KT CAVOK 18/05 Q1013 NOSIG=
201810261400 METAR LROP 261400Z 22010KT CAVOK 18/05 Q1013 NOSIG=
201810261430 METAR LROP 261430Z 21008KT CAVOK 18/05 Q1013 NOSIG=
201810261500 METAR LROP 261500Z 20006KT CAVOK 17/05 Q1013 NOSIG=
201810261530 METAR LROP 261530Z 22005KT CAVOK 15/05 Q1013 NOSIG=
201810261600 METAR LROP 261600Z 21005KT CAVOK 13/05 Q1014 NOSIG=
201810261630 METAR LROP 261630Z 22005KT CAVOK 12/04 Q1014 NOSIG=
201810261700 METAR LROP 261700Z 21004KT CAVOK 11/05 Q1014 NOSIG=
201810261730 METAR LROP 261730Z 21004KT CAVOK 11/05 Q1014 NOSIG=
201810261800 METAR LROP 261800Z 22004KT CAVOK 10/05 Q1014 NOSIG=
201810261830 METAR LROP 261830Z 22004KT CAVOK 10/05 Q1015 NOSIG=
201810261900 METAR LROP 261900Z 23004KT CAVOK 10/04 Q1015 NOSIG=
201810261930 METAR LROP 261930Z 24004KT CAVOK 10/04 Q1015 NOSIG=
201810262000 METAR LROP 262000Z 33005KT CAVOK 09/04 Q1015 NOSIG=
201810262030 METAR LROP 262030Z 22007KT CAVOK 08/05 Q1015 NOSIG=
201810262100 METAR LROP 262100Z 24004KT CAVOK 08/05 Q1015 NOSIG=
201810262130 METAR LROP 262130Z 31004KT CAVOK 07/04 Q1016 NOSIG=
201810262200 METAR LROP 262200Z 00000KT CAVOK 07/05 Q1015 NOSIG=
201810262230 METAR LROP 262230Z 25003KT CAVOK 07/05 Q1016 NOSIG=
201810262300 METAR LROP 262300Z 22003KT CAVOK 06/04 Q1016 NOSIG=
201810262330 METAR LROP 262330Z 24003KT CAVOK 06/04 Q1016 NOSIG=
201810270000 METAR LROP 270000Z 28003KT CAVOK 05/04 Q1016 NOSIG=
201810270030 METAR LROP 270030Z 27002KT CAVOK 05/04 Q1016 NOSIG=
201810270100 METAR LROP 270100Z VRB02KT CAVOK 05/04 Q1016 NOSIG=
201810270130 METAR LROP 270130Z 27004KT CAVOK 05/04 Q1016 NOSIG=
201810270200 METAR LROP 270200Z 30004KT CAVOK 04/03 Q1016 NOSIG=
201810270230 METAR LROP 270230Z VRB01KT CAVOK 05/04 Q1016 NOSIG=
201810270300 METAR LROP 270300Z 30004KT CAVOK 06/05 Q1016 NOSIG=
201810270330 METAR LROP 270330Z 27003KT CAVOK 06/05 Q1016 NOSIG=
201810270400 METAR LROP 270400Z 26001KT CAVOK 06/05 Q1016 NOSIG=
201810270430 METAR LROP 270430Z 20003KT CAVOK 06/04 Q1016 NOSIG=
201810270500 METAR LROP 270500Z 15002KT CAVOK 05/05 Q1016 NOSIG=
201810270530 METAR LROP 270530Z VRB01KT CAVOK 05/04 Q1016 NOSIG=
201810270600 METAR LROP 270600Z 23003KT CAVOK 07/06 Q1016 NOSIG=
201810270630 METAR LROP 270630Z 31002KT CAVOK 09/06 Q1016 NOSIG=
201810270700 METAR LROP 270700Z VRB01KT CAVOK 11/06 Q1016 NOSIG=
201810270730 METAR LROP 270730Z VRB02KT CAVOK 13/05 Q1016 NOSIG=
201810270800 METAR LROP 270800Z VRB02KT CAVOK 15/06 Q1016 NOSIG=
201810270830 METAR LROP 270830Z VRB02KT CAVOK 16/06 Q1016 NOSIG=
201810270900 METAR LROP 270900Z VRB02KT CAVOK 17/06 Q1016 NOSIG=
201810270930 METAR LROP 270930Z VRB02KT CAVOK 17/07 Q1016 NOSIG=
201810271000 METAR LROP 271000Z VRB02KT CAVOK 18/07 Q1015 NOSIG=
201810271030 METAR LROP 271030Z VRB02KT CAVOK 19/07 Q1015 NOSIG=
201810271100 METAR LROP 271100Z 27003KT 210V320 CAVOK 20/08 Q1015 NOSIG=
201810271130 METAR LROP 271130Z 22005KT CAVOK 20/08 Q1015 NOSIG=
201810271200 METAR LROP 271200Z 23005KT 200V270 CAVOK 20/08 Q1015 NOSIG=
201810271230 METAR LROP 271230Z 26005KT CAVOK 20/07 Q1014 NOSIG=
201810271300 METAR LROP 271300Z 23005KT 200V270 CAVOK 21/08 Q1014 NOSIG=
201810271330 METAR LROP 271330Z 24006KT CAVOK 21/08 Q1014 NOSIG=
201810271400 METAR LROP 271400Z 24004KT CAVOK 20/08 Q1014 NOSIG=
201810271430 METAR LROP 271430Z 25001KT CAVOK 18/08 Q1014 NOSIG=
201810271500 METAR LROP 271500Z VRB01KT CAVOK 18/08 Q1014 NOSIG=
201810271530 METAR LROP 271530Z 01003KT CAVOK 16/08 Q1014 NOSIG=
201810271600 METAR LROP 271600Z 11002KT CAVOK 15/08 Q1014 NOSIG=
201810271630 METAR LROP 271630Z 00000KT CAVOK 14/07 Q1014 NOSIG=
201810271700 METAR LROP 271700Z VRB01KT CAVOK 14/07 Q1014 NOSIG=
201810271730 METAR LROP 271730Z 00000KT CAVOK 13/07 Q1014 NOSIG=
201810271800 METAR LROP 271800Z 00000KT CAVOK 13/07 Q1014 NOSIG=
201810271830 METAR LROP 271830Z 00000KT CAVOK 11/08 Q1014 NOSIG=
201810271900 METAR LROP 271900Z 00000KT CAVOK 11/08 Q1015 NOSIG=
201810271930 METAR LROP 271930Z 00000KT CAVOK 10/07 Q1015 NOSIG=
201810272000 METAR LROP 272000Z 00000KT CAVOK 10/07 Q1015 NOSIG=
201810272030 METAR LROP 272030Z 00000KT 7000 NSC 10/08 Q1015 NOSIG=
201810272100 METAR LROP 272100Z 00000KT 7000 NSC 10/08 Q1015 NOSIG=
201810272130 METAR LROP 272130Z 00000KT 7000 NSC 09/07 Q1015 NOSIG=
201810272200 METAR LROP 272200Z 30003KT 7000 NSC 09/07 Q1015 NOSIG=
201810272230 METAR LROP 272230Z 00000KT 6000 NSC 09/07 Q1015 NOSIG=
201810272300 METAR LROP 272300Z VRB01KT 6000 NSC 09/07 Q1015 NOSIG=
201810272330 METAR LROP 272330Z VRB01KT 6000 NSC 08/07 Q1015 NOSIG=
201810280000 METAR LROP 280000Z 00000KT 6000 NSC 08/07 Q1015 NOSIG=
201810280030 METAR LROP 280030Z 26003KT 6000 NSC 08/07 Q1016 NOSIG=
201810280100 METAR LROP 280100Z 27003KT 6000 NSC 07/06 Q1016 NOSIG=
201810280130 METAR LROP 280130Z 29002KT 6000 NSC 07/07 Q1016 NOSIG=
201810280200 METAR LROP 280200Z 28004KT 7000 NSC 07/06 Q1016 NOSIG=
201810280230 METAR LROP 280230Z 22002KT 7000 NSC 07/06 Q1016 NOSIG=
201810280300 METAR LROP 280300Z 24002KT 7000 NSC 06/05 Q1016 NOSIG=
201810280330 METAR LROP 280330Z 28004KT 8000 NSC 06/05 Q1016 NOSIG=
201810280400 METAR LROP 280400Z 26004KT 7000 NSC 06/05 Q1016 NOSIG=
201810280430 METAR LROP 280430Z 27003KT 8000 NSC 07/06 Q1017 NOSIG=
201810280500 METAR LROP 280500Z VRB01KT 8000 NSC 06/05 Q1017 NOSIG=
201810280530 METAR LROP 280530Z 21002KT 8000 NSC 06/06 Q1017 NOSIG=
201810280600 METAR COR LROP 280600Z 28004KT 9000 NSC 08/07 Q1017 NOSIG=
201810280630 METAR LROP 280630Z 28002KT 9000 NSC 10/08 Q1017 NOSIG=
201810280700 METAR LROP 280700Z VRB02KT CAVOK 13/10 Q1017 NOSIG=
201810280730 METAR LROP 280730Z 22004KT CAVOK 16/09 Q1018 NOSIG=
201810280800 METAR LROP 280800Z 22006KT CAVOK 19/09 Q1017 NOSIG=
201810280830 METAR LROP 280830Z 25006KT CAVOK 20/09 Q1017 NOSIG=
201810280900 METAR LROP 280900Z 27006KT 220V300 CAVOK 22/10 Q1017 NOSIG=
201810280930 METAR LROP 280930Z 24005KT 220V290 CAVOK 22/10 Q1017 NOSIG=
201810281000 METAR LROP 281000Z 24004KT 210V280 CAVOK 24/10 Q1017 NOSIG=
201810281030 METAR LROP 281030Z 22003KT 170V260 CAVOK 23/10 Q1017 NOSIG=
201810281100 METAR LROP 281100Z 22004KT 170V260 CAVOK 25/10 Q1016 NOSIG=
201810281130 METAR LROP 281130Z VRB02KT CAVOK 25/11 Q1016 NOSIG=
201810281200 METAR LROP 281200Z 23003KT 160V300 CAVOK 25/11 Q1016 NOSIG=
201810281230 METAR LROP 281230Z VRB01KT CAVOK 25/10 Q1016 NOSIG=
201810281300 METAR LROP 281300Z 17003KT 140V210 CAVOK 25/10 Q1016 NOSIG=
201810281330 METAR LROP 281330Z 00000KT CAVOK 24/10 Q1016 NOSIG=
201810281400 METAR LROP 281400Z 00000KT CAVOK 22/10 Q1016 NOSIG=
201810281430 METAR LROP 281430Z 00000KT CAVOK 21/10 Q1015 NOSIG=
201810281500 METAR LROP 281500Z 00000KT CAVOK 19/09 Q1015 NOSIG=
201810281530 METAR LROP 281530Z VRB02KT CAVOK 18/09 Q1015 NOSIG=
201810281600 METAR LROP 281600Z 32005KT CAVOK 18/10 Q1016 NOSIG=
201810281630 METAR LROP 281630Z 30004KT CAVOK 16/10 Q1016 NOSIG=
201810281700 METAR LROP 281700Z 23004KT CAVOK 16/09 Q1016 NOSIG=
201810281730 METAR LROP 281730Z 23001KT CAVOK 14/10 Q1016 NOSIG=
201810281800 METAR LROP 281800Z 00000KT CAVOK 13/10 Q1016 NOSIG=
201810281830 METAR LROP 281830Z 00000KT CAVOK 13/10 Q1016 NOSIG=
201810281900 METAR LROP 281900Z 16002KT CAVOK 13/10 Q1016 NOSIG=
201810281930 METAR LROP 281930Z 24003KT CAVOK 12/10 Q1016 NOSIG=
201810282000 METAR LROP 282000Z 32006KT CAVOK 12/09 Q1016 NOSIG=
201810282030 METAR LROP 282030Z VRB02KT CAVOK 12/10 Q1016 NOSIG=
201810282100 METAR LROP 282100Z 29002KT CAVOK 12/09 Q1017 NOSIG=
201810282130 METAR LROP 282130Z 24002KT CAVOK 12/09 Q1016 NOSIG=
201810282200 METAR LROP 282200Z 27003KT CAVOK 11/09 Q1016 NOSIG=
201810282230 METAR LROP 282230Z 24002KT CAVOK 11/09 Q1016 NOSIG=
201810282300 METAR LROP 282300Z VRB02KT CAVOK 10/08 Q1016 NOSIG=
201810282330 METAR LROP 282330Z 28004KT CAVOK 10/08 Q1016 NOSIG=
201810290000 METAR LROP 290000Z VRB02KT CAVOK 10/08 Q1017 NOSIG=
201810290030 METAR LROP 290030Z 00000KT CAVOK 10/08 Q1016 NOSIG=
201810290100 METAR LROP 290100Z 00000KT CAVOK 09/08 Q1016 NOSIG=
201810290130 METAR LROP 290130Z 27003KT CAVOK 09/08 Q1016 NOSIG=
201810290200 METAR LROP 290200Z 27003KT CAVOK 09/08 Q1016 NOSIG=
201810290230 METAR LROP 290230Z 26003KT 8000 NSC 08/08 Q1016 NOSIG=
201810290300 METAR LROP 290300Z 25003KT 7000 NSC 08/08 Q1016 NOSIG=
201810290330 METAR LROP 290330Z 23004KT 7000 NSC 08/08 Q1016 NOSIG=
201810290400 METAR LROP 290400Z VRB02KT 7000 NSC 08/08 Q1016 NOSIG=
201810290430 METAR LROP 290430Z VRB02KT 7000 NSC 08/08 Q1016 NOSIG=
201810290500 METAR LROP 290500Z 26002KT 5000 BR NSC 08/07 Q1017 NOSIG=
201810290530 METAR LROP 290530Z 21003KT 7000 NSC 08/07 Q1017 NOSIG=
201810290600 METAR LROP 290600Z 24002KT 8000 NSC 09/09 Q1017 NOSIG=
201810290630 METAR LROP 290630Z 24002KT 7000 NSC 12/10 Q1017 NOSIG=
201810290700 METAR LROP 290700Z 27003KT 8000 NSC 13/10 Q1017 NOSIG=
201810290730 METAR LROP 290730Z 23004KT 9000 NSC 15/11 Q1017 NOSIG=
201810290800 METAR LROP 290800Z 24005KT 9000 NSC 17/12 Q1017 NOSIG=
201810290830 METAR LROP 290830Z 22007KT CAVOK 20/11 Q1017 NOSIG=
201810290900 METAR LROP 290900Z 22007KT CAVOK 21/12 Q1017 NOSIG=
201810290930 METAR LROP 290930Z 25008KT CAVOK 21/11 Q1017 NOSIG=
201810291000 METAR LROP 291000Z 25010KT CAVOK 22/11 Q1017 NOSIG=
201810291030 METAR LROP 291030Z 24007KT CAVOK 23/11 Q1017 NOSIG=
201810291100 METAR LROP 291100Z 23007KT CAVOK 24/12 Q1016 NOSIG=
201810291130 METAR LROP 291130Z 22008KT CAVOK 24/11 Q1016 NOSIG=
201810291200 METAR LROP 291200Z 23010KT CAVOK 25/12 Q1016 NOSIG=
201810291230 METAR LROP 291230Z 24008KT 200V270 CAVOK 24/11 Q1016 NOSIG=
201810291300 METAR LROP 291300Z 22009KT CAVOK 24/12 Q1016 NOSIG=
201810291330 METAR LROP 291330Z 22007KT CAVOK 24/12 Q1016 NOSIG=
201810291400 METAR LROP 291400Z 21006KT CAVOK 23/12 Q1016 NOSIG=
201810291430 METAR LROP 291430Z 20005KT CAVOK 22/12 Q1016 NOSIG=
201810291500 METAR LROP 291500Z 21005KT CAVOK 20/11 Q1017 NOSIG=
201810291530 METAR LROP 291530Z 18004KT CAVOK 19/11 Q1017 NOSIG=
201810291600 METAR COR LROP 291600Z 20004KT CAVOK 18/11 Q1017 NOSIG=
201810291630 METAR LROP 291630Z 18005KT CAVOK 18/11 Q1017 NOSIG=
201810291700 METAR LROP 291700Z 20004KT CAVOK 18/11 Q1017 NOSIG=
201810291730 METAR LROP 291730Z 21003KT CAVOK 17/11 Q1017 NOSIG=
201810291800 METAR LROP 291800Z 20003KT CAVOK 17/11 Q1017 NOSIG=
201810291830 METAR LROP 291830Z 18002KT CAVOK 17/11 Q1017 NOSIG=
201810291900 METAR LROP 291900Z 00000KT CAVOK 16/10 Q1017 NOSIG=
201810291930 METAR LROP 291930Z 21002KT CAVOK 15/11 Q1017 NOSIG=
201810292000 METAR LROP 292000Z 00000KT CAVOK 15/11 Q1017 NOSIG=
201810292030 METAR LROP 292030Z 36005KT CAVOK 15/11 Q1017 NOSIG=
201810292100 METAR LROP 292100Z 36003KT CAVOK 14/11 Q1017 NOSIG=
201810292130 METAR LROP 292130Z 08003KT CAVOK 13/11 Q1017 NOSIG=
201810292200 METAR LROP 292200Z 03004KT CAVOK 13/11 Q1017 NOSIG=
201810292230 METAR LROP 292230Z 02003KT CAVOK 12/11 Q1017 NOSIG=
201810292300 METAR LROP 292300Z 34003KT CAVOK 12/11 Q1017 NOSIG=
201810292330 METAR LROP 292330Z VRB01KT CAVOK 11/10 Q1017 NOSIG=
201810300000 METAR LROP 300000Z 04002KT CAVOK 13/11 Q1017 NOSIG=
201810300030 METAR LROP 300030Z 01004KT CAVOK 12/11 Q1017 NOSIG=
201810300100 METAR LROP 300100Z 34004KT 9000 NSC 12/11 Q1017 NOSIG=
201810300130 METAR LROP 300130Z 00000KT 9000 NSC 11/10 Q1017 NOSIG=
201810300200 METAR LROP 300200Z 13002KT 8000 NSC 10/09 Q1017 NOSIG=
201810300230 METAR LROP 300230Z 01001KT 8000 NSC 10/09 Q1017 NOSIG=
201810300300 METAR LROP 300300Z 00000KT 8000 NSC 10/10 Q1016 NOSIG=
201810300330 METAR LROP 300330Z 05002KT 8000 NSC 11/10 Q1017 NOSIG=
201810300400 METAR LROP 300400Z 36003KT 7000 NSC 10/09 Q1016 NOSIG=
201810300430 METAR LROP 300430Z 06002KT 7000 NSC 10/09 Q1016 NOSIG=
201810300500 METAR LROP 300500Z VRB01KT 5000 BR NSC 09/08 Q1016 NOSIG=
201810300530 METAR LROP 300530Z 09002KT 5000 BR NSC 09/08 Q1016 NOSIG=
201810300600 METAR LROP 300600Z 06002KT 5000 BR NSC 10/10 Q1017 NOSIG=
201810300630 METAR LROP 300630Z 35002KT 8000 NSC 13/12 Q1017 NOSIG=
201810300700 METAR LROP 300700Z VRB01KT 8000 NSC 14/12 Q1017 NOSIG=
201810300730 METAR LROP 300730Z 02004KT 340V070 9000 NSC 16/12 Q1017 NOSIG=
201810300800 METAR LROP 300800Z VRB02KT 9000 NSC 18/12 Q1017 NOSIG=
201810300830 METAR LROP 300830Z 06003KT 020V100 CAVOK 19/13 Q1017 NOSIG=
201810300900 METAR LROP 300900Z VRB02KT CAVOK 21/12 Q1017 NOSIG=
201810300930 METAR LROP 300930Z 10003KT 060V210 CAVOK 22/12 Q1017 NOSIG=
201810301000 METAR LROP 301000Z VRB01KT CAVOK 23/12 Q1017 NOSIG=
201810301030 METAR LROP 301030Z VRB01KT CAVOK 23/12 Q1017 NOSIG=
201810301100 METAR COR LROP 301100Z 08004KT 360V130 CAVOK 24/12 Q1016
                        NOSIG=
201810301130 METAR LROP 301130Z 09004KT CAVOK 24/12 Q1016 NOSIG=
201810301200 METAR LROP 301200Z 12004KT 100V160 CAVOK 24/12 Q1016 NOSIG=
201810301230 METAR LROP 301230Z 12004KT CAVOK 23/13 Q1015 NOSIG=
201810301300 METAR LROP 301300Z 14003KT 110V170 CAVOK 24/13 Q1015 NOSIG=
201810301330 METAR LROP 301330Z 10005KT CAVOK 24/12 Q1016 NOSIG=
201810301400 METAR LROP 301400Z 13003KT CAVOK 23/12 Q1016 NOSIG=
201810301430 METAR LROP 301430Z 14003KT CAVOK 22/12 Q1016 NOSIG=
201810301500 METAR LROP 301500Z VRB02KT CAVOK 21/12 Q1016 NOSIG=
201810301530 METAR LROP 301530Z VRB01KT CAVOK 20/12 Q1016 NOSIG=
201810301600 METAR LROP 301600Z 01002KT CAVOK 19/12 Q1017 NOSIG=
201810301630 METAR LROP 301630Z 00000KT CAVOK 18/12 Q1017 NOSIG=
201810301700 METAR LROP 301700Z VRB01KT CAVOK 18/12 Q1017 NOSIG=
201810301730 METAR LROP 301730Z 26004KT CAVOK 17/12 Q1018 NOSIG=
201810301800 METAR LROP 301800Z 30002KT CAVOK 16/11 Q1018 NOSIG=
201810301830 METAR LROP 301830Z 31004KT 280V340 CAVOK 17/12 Q1018 NOSIG=
201810301900 METAR LROP 301900Z 00000KT CAVOK 16/11 Q1018 NOSIG=
201810301930 METAR LROP 301930Z VRB01KT CAVOK 15/11 Q1018 NOSIG=
201810302000 METAR LROP 302000Z VRB01KT CAVOK 15/12 Q1018 NOSIG=
201810302030 METAR LROP 302030Z VRB01KT CAVOK 15/12 Q1018 NOSIG=
201810302100 METAR LROP 302100Z 21002KT CAVOK 15/12 Q1018 NOSIG=
201810302130 METAR LROP 302130Z 27003KT 9999 -SHRA FEW060CB 15/12 Q1019
                        NOSIG=
201810302200 METAR LROP 302200Z VRB02KT 9999 FEW052CB 15/13 Q1018 R88/19//95
                        NOSIG=
201810302230 METAR LROP 302230Z 06003KT 030V130 9999 FEW060CB 15/13 Q1018
                        R88/19//95 NOSIG=
201810302300 METAR LROP 302300Z 30003KT 270V340 CAVOK 15/13 Q1019 R88/19//95
                        NOSIG=
201810302330 METAR LROP 302330Z 21003KT CAVOK 14/12 Q1019 R88/19//95 NOSIG=
201810310000 METAR LROP 310000Z 23003KT 200V270 CAVOK 14/12 Q1019 R88/19//95
                        NOSIG=
201810310030 METAR LROP 310030Z 23002KT CAVOK 13/12 Q1020 R88/19//95 NOSIG=
201810310100 METAR LROP 310100Z 26004KT 8000 NSC 12/11 Q1020 R88/19//95
                        NOSIG=
201810310130 METAR LROP 310130Z 26006KT 7000 NSC 12/11 Q1020 R88/19//95
                        NOSIG=
201810310200 METAR LROP 310200Z 26005KT 8000 SCTNSC 12/11 Q1020 R88/19//95
                        NOSIG=
201810310230 METAR LROP 310230Z 27005KT 7000 NSC 12/11 Q1021 R88/19//95
                        NOSIG=
201810310300 METAR LROP 310300Z 23003KT 8000 NSC 11/10 Q1021 R88/19//95
                        NOSIG=
201810310330 METAR COR LROP 310330Z 19002KT 8000 NSC 11/10 Q1021 R88/CLRD//
                        NOSIG=
201810310400 METAR LROP 310400Z 24002KT 8000 NSC 11/10 Q1021 NOSIG=
201810310430 METAR LROP 310430Z 22004KT 8000 NSC 11/10 Q1021 NOSIG=
201810310500 METAR LROP 310500Z 24003KT 7000 NSC 11/10 Q1021 NOSIG=
201810310530 METAR LROP 310530Z 24003KT 6000 NSC 12/12 Q1022 NOSIG=
201810310600 METAR LROP 310600Z 24004KT 6000 NSC 12/12 Q1022 NOSIG=
201810310630 METAR LROP 310630Z 25006KT 7000 NCD 14/13 Q1023 NOSIG=
201810310700 METAR LROP 310700Z 28005KT 9000 NSC 17/14 Q1023 NOSIG=
201810310730 METAR LROP 310730Z 27005KT 9000 NSC 18/14 Q1023 NOSIG=
201810310800 METAR LROP 310800Z 31004KT 9000 NSC 20/14 Q1023 NOSIG=
201810310830 METAR LROP 310830Z 29005KT 260V320 CAVOK 21/13 Q1023 NOSIG=
201810310900 METAR LROP 310900Z 28005KT CAVOK 23/13 Q1024 NOSIG=
201810310930 METAR LROP 310930Z 28006KT 230V310 CAVOK 24/13 Q1024 NOSIG=
201810311000 METAR LROP 311000Z 28007KT CAVOK 25/14 Q1024 NOSIG=
201810311030 METAR LROP 311030Z 28006KT CAVOK 26/14 Q1024 NOSIG=
201810311100 METAR LROP 311100Z 29005KT 240V320 CAVOK 26/13 Q1023 NOSIG=
201810311130 METAR LROP 311130Z 31005KT CAVOK 27/13 Q1023 NOSIG=
201810311200 METAR LROP 311200Z 32005KT 290V350 CAVOK 27/13 Q1023 NOSIG=
201810311230 METAR LROP 311230Z 33004KT 300V360 CAVOK 27/12 Q1023 NOSIG=
201810311300 METAR LROP 311300Z 03006KT 330V070 CAVOK 27/12 Q1023 NOSIG=
201810311330 METAR LROP 311330Z 05009KT CAVOK 26/13 Q1023 NOSIG=
201810311400 METAR LROP 311400Z 06008KT CAVOK 25/13 Q1024 NOSIG=
201810311430 METAR LROP 311430Z 06007KT CAVOK 24/13 Q1024 NOSIG=
201810311500 METAR LROP 311500Z 06008KT CAVOK 23/12 Q1024 NOSIG=
201810311530 METAR LROP 311530Z 06008KT CAVOK 23/12 Q1024 NOSIG=
201810311600 METAR LROP 311600Z 06007KT CAVOK 20/12 Q1025 NOSIG=
201810311630 METAR LROP 311630Z 06008KT CAVOK 19/13 Q1025 NOSIG=
201810311700 METAR LROP 311700Z 05008KT CAVOK 19/13 Q1025 NOSIG=
201810311730 METAR LROP 311730Z 06005KT CAVOK 17/13 Q1025 NOSIG=
201810311800 METAR LROP 311800Z 07006KT CAVOK 17/14 Q1025 NOSIG=
201810311830 METAR LROP 311830Z 07006KT CAVOK 17/14 Q1026 NOSIG=
201810311900 METAR LROP 311900Z 06006KT CAVOK 16/14 Q1026 NOSIG=
201810311930 METAR LROP 311930Z 04006KT 8000 NSC 17/14 Q1027 NOSIG=
201810312000 METAR LROP 312000Z 04007KT 9000 NSC 16/14 Q1027 NOSIG=
201810312030 METAR LROP 312030Z 05009KT 9000 NSC 16/15 Q1027 NOSIG=
201810312100 METAR LROP 312100Z 05011KT 9000 NSC 16/15 Q1027 NOSIG=
201810312130 METAR LROP 312130Z 05011KT 9000 NSC 16/15 Q1027 NOSIG=
201810312200 METAR LROP 312200Z 06010KT 7000 NSC 16/15 Q1027 NOSIG=
201810312230 METAR LROP 312230Z 07009KT 7000 NSC 15/14 Q1027 NOSIG=
201810312300 METAR LROP 312300Z 07008KT 6000 NSC 15/14 Q1027 BECMG 5000
                        BR=
201810312330 METAR LROP 312330Z 07010KT 5000 BR FEW007 14/14 Q1028 BECMG
                        3000 BR BKN005=