201811010000 METAR LROP 010000Z 06011KT 4500 BR BKN005 14/14 Q1028 BECMG
                        3000 BR=
201811010030 METAR COR LROP 010030Z 07012KT 1500 R08R/2000 R26L/2000 R08L/P2000
                        R26R/1800V2000D BR OVC002 14/13 Q1027
                        TEMPO 0800 FG OVC001=
201811010100 METAR LROP 010100Z 07011KT 0500 R08R/1400D R26L/1100N R08L/1100N
                        R26R/1200D -DZ FG OVC001 14/13 Q1028
                        NOSIG=
201811010130 METAR LROP 010130Z 07010KT 0500 R08R/1000U R26L/1200V1800U
                        R08L/1300 R26R/1900 -DZ FG OVC001
                        14/13 Q1028 NOSIG=
201811010200 METAR LROP 010200Z 07011KT 0900 R08R/P2000 R26L/2000D R08L/P2000
                        R26R/P2000 -DZ FG OVC001 14/13 Q1028
                        TEMPO 0600 FG=
201811010230 METAR LROP 010230Z 07012KT 1500 R08R/P2000 R26L/2000 R08L/2000
                        R26R/2000 -DZ BR OVC002 14/14 Q1028
                        TEMPO 3000=
201811010300 METAR LROP 010300Z 07011KT 2000 BR OVC002 14/14 Q1028 NOSIG=
201811010330 METAR LROP 010330Z 06010KT 2800 BR OVC003 14/13 Q1029 NOSIG=
201811010400 METAR LROP 010400Z 07010KT 3600 BR OVC004 14/13 Q1029 BECMG
                        5000 OVC007=
201811010430 METAR LROP 010430Z 08012KT 3500 BR OVC004 14/13 Q1029 BECMG
                        5000 OVC007=
201811010500 METAR LROP 010500Z 06010KT 3000 BR OVC004 14/13 Q1029 NOSIG=
201811010530 METAR LROP 010530Z 07012KT 3000 BR BKN005 OVC012 14/13 Q1029
                        NOSIG=
201811010600 METAR LROP 010600Z 07012KT 4000 BR BKN006 OVC012 14/13 Q1030
                        BECMG 5000 BKN015=
201811010630 METAR COR LROP 010630Z 07012KT 5000 BR BKN007 OVC011 14/14
                        Q1029 BECMG BKN015=
201811010700 METAR LROP 010700Z 07014KT 6000 BKN009 OVC011 15/14 Q1030
                        BECMG BKN015=
201811010730 METAR LROP 010730Z 06012KT 7000 BKN009 OVC011 15/14 Q1030
                        BECMG BKN015=
201811010800 METAR LROP 010800Z 07014KT 8000 OVC010 15/14 Q1029 BECMG
                        BKN015=
201811010830 METAR LROP 010830Z 06013KT 9000 OVC010 15/14 Q1029 NOSIG=
201811010900 METAR LROP 010900Z 07012KT 9000 OVC011 15/14 Q1029 NOSIG=
201811010930 METAR LROP 010930Z 07013KT 9000 OVC011 15/14 Q1029 NOSIG=
201811011000 METAR LROP 011000Z 07010KT 9999 OVC012 15/14 Q1029 NOSIG=
201811011030 METAR LROP 011030Z 09010KT 9999 OVC014 15/13 Q1029 NOSIG=
201811011100 METAR LROP 011100Z 09011KT 9000 OVC014 16/13 Q1029 NOSIG=
201811011130 METAR LROP 011130Z 08011KT 9000 OVC015 16/13 Q1029 NOSIG=
201811011200 METAR LROP 011200Z 08008KT 9000 OVC017 16/13 Q1029 NOSIG=
201811011230 METAR LROP 011230Z 08010KT 9000 OVC017 16/13 Q1029 NOSIG=
201811011300 METAR LROP 011300Z 09009KT 9000 OVC017 16/13 Q1029 NOSIG=
201811011330 METAR LROP 011330Z 08010KT 9999 OVC019 16/13 Q1029 NOSIG=
201811011400 METAR LROP 011400Z 08009KT 9999 OVC018 16/13 Q1029 NOSIG=
201811011430 METAR LROP 011430Z 06009KT 9999 OVC018 16/13 Q1029 NOSIG=
201811011500 METAR LROP 011500Z 05010KT 9999 BKN021 16/13 Q1029 NOSIG=
201811011530 METAR LROP 011530Z 06006KT 9999 SCT024 15/13 Q1029 NOSIG=
201811011600 METAR LROP 011600Z 06006KT CAVOK 15/12 Q1029 NOSIG=
201811011630 METAR LROP 011630Z 04006KT 9000 SCT027 14/12 Q1029 NOSIG=
201811011700 METAR LROP 011700Z 06009KT 9999 BKN026 15/13 Q1029 NOSIG=
201811011730 METAR LROP 011730Z 05010KT 9999 BKN025 15/13 Q1029 NOSIG=
201811011800 METAR LROP 011800Z 05011KT 9999 OVC025 16/13 Q1029 NOSIG=
201811011830 METAR LROP 011830Z 06008KT 9999 OVC026 16/13 Q1029 NOSIG=
201811011900 METAR LROP 011900Z 06009KT 9999 BKN027 15/13 Q1029 NOSIG=
201811011930 METAR LROP 011930Z 06007KT 9999 SCT026 15/13 Q1030 NOSIG=
201811012000 METAR LROP 012000Z 06008KT 9999 FEW025 15/13 Q1030 NOSIG=
201811012030 METAR LROP 012030Z 06008KT 9000 SCT025 15/13 Q1030 NOSIG=
201811012100 METAR LROP 012100Z 07006KT 8000 OVC026 14/13 Q1030 NOSIG=
201811012130 METAR LROP 012130Z 07009KT 7000 OVC025 14/14 Q1029 NOSIG=
201811012200 METAR LROP 012200Z 06007KT 6000 BKN012 OVC025 14/14 Q1029
                        NOSIG=
201811012230 METAR LROP 012230Z 06009KT 6000 -RA BKN012 OVC025 14/14 Q1029
                        NOSIG=
201811012300 METAR COR LROP 012300Z 06009KT 6000 SCT012 OVC017 14/14 Q1029
                        NOSIG=
201811012330 METAR LROP 012330Z 07009KT 6000 -RA SCT015 OVC017 14/14 Q1029
                        NOSIG=
201811020000 METAR LROP 020000Z 07010KT 6000 -RA BKN012 OVC018 14/14 Q1029
                        R88/19//95 NOSIG=
201811020030 METAR LROP 020030Z 06008KT 8000 -RA BKN014 OVC018 14/14 Q1029
                        R88/19//95 NOSIG=
201811020100 METAR LROP 020100Z 06008KT 9999 BKN014 OVC018 14/13 Q1029
                        R88/19//95 NOSIG=
201811020130 METAR COR LROP 020130Z 06007KT 9999 BKN013 OVC020 14/13 Q1029
                        R88/CLRD// NOSIG=
201811020200 METAR LROP 020200Z 06007KT 9999 SCT015 OVC018 13/13 Q1029
                        R88/CLRD// NOSIG=
201811020230 METAR LROP 020230Z 06009KT 9999 SCT015 OVC019 14/13 Q1029
                        NOSIG=
201811020300 METAR LROP 020300Z 07008KT 9999 FEW015 OVC021 13/12 Q1029
                        NOSIG=
201811020330 METAR LROP 020330Z 06008KT 9999 BKN021 13/13 Q1029 NOSIG=
201811020400 METAR LROP 020400Z 06007KT 9999 SCT017 13/12 Q1029 NOSIG=
201811020430 METAR LROP 020430Z 05007KT 9999 BKN017 13/13 Q1029 NOSIG=
201811020500 METAR LROP 020500Z 06008KT 9999 SCT017 13/12 Q1029 NOSIG=
201811020530 METAR LROP 020530Z 07007KT 9999 BKN016 13/12 Q1029 NOSIG=
201811020600 METAR LROP 020600Z 06006KT 9999 BKN016 13/12 Q1029 NOSIG=
201811020630 METAR LROP 020630Z 06006KT 9999 OVC015 14/13 Q1029 NOSIG=
201811020700 METAR LROP 020700Z 07008KT 9999 OVC015 14/13 Q1029 NOSIG=
201811020730 METAR LROP 020730Z 07009KT 9999 OVC014 14/13 Q1029 NOSIG=
201811020800 METAR LROP 020800Z 08009KT 9999 FEW006 OVC013 15/13 Q1029
                        NOSIG=
201811020830 METAR LROP 020830Z 08009KT 060V120 9999 OVC014 15/13 Q1029
                        NOSIG=
201811020900 METAR LROP 020900Z 07009KT 9999 OVC014 15/13 Q1029 NOSIG=
201811020930 METAR LROP 020930Z 06008KT 030V090 9999 BKN015 16/13 Q1029
                        NOSIG=
201811021000 METAR LROP 021000Z 06009KT 9999 SCT016 16/13 Q1028 NOSIG=
201811021030 METAR LROP 021030Z 07010KT 050V110 9999 FEW016 18/13 Q1028
                        NOSIG=
201811021100 METAR LROP 021100Z 05008KT 030V090 CAVOK 18/13 Q1028 NOSIG=
201811021130 METAR LROP 021130Z 07008KT CAVOK 18/13 Q1027 NOSIG=
201811021200 METAR LROP 021200Z 07009KT CAVOK 19/13 Q1027 NOSIG=
201811021230 METAR LROP 021230Z 06010KT CAVOK 19/13 Q1027 NOSIG=
201811021300 METAR LROP 021300Z 04010KT CAVOK 18/13 Q1027 NOSIG=
201811021330 METAR LROP 021330Z 05010KT CAVOK 18/13 Q1027 NOSIG=
201811021400 METAR LROP 021400Z 08009KT CAVOK 19/12 Q1027 NOSIG=
201811021430 METAR LROP 021430Z 07010KT CAVOK 19/12 Q1027 NOSIG=
201811021500 METAR LROP 021500Z 06008KT CAVOK 17/12 Q1027 NOSIG=
201811021530 METAR LROP 021530Z 05007KT CAVOK 17/12 Q1027 NOSIG=
201811021600 METAR LROP 021600Z 05008KT CAVOK 16/12 Q1028 NOSIG=
201811021630 METAR LROP 021630Z 06007KT CAVOK 16/12 Q1028 NOSIG=
201811021700 METAR LROP 021700Z 06007KT CAVOK 16/12 Q1028 NOSIG=
201811021730 METAR LROP 021730Z 06007KT CAVOK 16/12 Q1028 NOSIG=
201811021800 METAR LROP 021800Z 06007KT CAVOK 15/11 Q1028 NOSIG=
201811021830 METAR LROP 021830Z 07007KT CAVOK 15/11 Q1028 NOSIG=
201811021900 METAR LROP 021900Z 08007KT CAVOK 14/11 Q1029 NOSIG=
201811021930 METAR LROP 021930Z 09007KT CAVOK 14/11 Q1029 NOSIG=
201811022000 METAR LROP 022000Z 08007KT CAVOK 13/11 Q1029 NOSIG=
201811022030 METAR LROP 022030Z 07007KT CAVOK 12/11 Q1029 NOSIG=
201811022100 METAR LROP 022100Z 05008KT CAVOK 12/11 Q1029 NOSIG=
201811022130 METAR LROP 022130Z 05007KT CAVOK 12/11 Q1029 NOSIG=
201811022200 METAR LROP 022200Z 06008KT CAVOK 12/11 Q1029 NOSIG=
201811022230 METAR LROP 022230Z 07007KT CAVOK 12/11 Q1030 NOSIG=
201811022300 METAR LROP 022300Z 07007KT CAVOK 11/11 Q1029 NOSIG=
201811022330 METAR LROP 022330Z 05006KT CAVOK 12/11 Q1029 NOSIG=
201811030000 METAR LROP 030000Z 05007KT CAVOK 12/11 Q1029 NOSIG=
201811030030 METAR LROP 030030Z 05007KT CAVOK 12/11 Q1029 NOSIG=
201811030100 METAR LROP 030100Z 05007KT CAVOK 11/11 Q1029 NOSIG=
201811030130 METAR COR LROP 030130Z 06005KT 9999 FEW014 11/10 Q1029 NOSIG=
201811030200 METAR LROP 030200Z 07004KT 9000 -RA SCT015 SCT050 11/11 Q1029
                        NOSIG=
201811030230 METAR LROP 030230Z 07006KT 8000 SCT014 11/10 Q1028 NOSIG=
201811030300 METAR COR LROP 030300Z 07005KT 9000 BKN015 11/10 Q1029 NOSIG=
201811030330 METAR LROP 030330Z 07005KT 9000 BKN015 11/10 Q1029 NOSIG=
201811030400 METAR LROP 030400Z 07005KT 9000 OVC015 11/11 Q1029 NOSIG=
201811030430 METAR LROP 030430Z 07005KT 9999 OVC015 12/11 Q1029 NOSIG=
201811030500 METAR LROP 030500Z 08005KT 9999 OVC015 12/11 Q1029 NOSIG=
201811030530 METAR LROP 030530Z 07005KT 9999 OVC015 12/11 Q1029 NOSIG=
201811030600 METAR LROP 030600Z 08007KT 9999 OVC014 12/11 Q1029 NOSIG=
201811030630 METAR LROP 030630Z 09007KT 9999 OVC014 12/11 Q1029 NOSIG=
201811030700 METAR LROP 030700Z 09007KT 9999 OVC014 13/11 Q1029 NOSIG=
201811030730 METAR LROP 030730Z 10009KT 9999 OVC013 13/11 Q1029 NOSIG=
201811030800 METAR LROP 030800Z 09009KT 9999 OVC013 13/11 Q1030 NOSIG=
201811030830 METAR LROP 030830Z 08008KT 9999 BKN013 OVC018 13/11 Q1029
                        NOSIG=
201811030900 METAR LROP 030900Z 09008KT 9999 BKN014 OVC017 13/11 Q1030
                        BECMG BKN020=
201811030930 METAR LROP 030930Z 08008KT 9999 BKN016 14/11 Q1029 NOSIG=
201811031000 METAR LROP 031000Z 08007KT 9999 BKN019 15/11 Q1029 NOSIG=
201811031030 METAR LROP 031030Z 08008KT 9999 BKN020 15/11 Q1029 NOSIG=
201811031100 METAR LROP 031100Z 08008KT 9999 BKN020 15/11 Q1028 NOSIG=
201811031130 METAR LROP 031130Z 08008KT 050V110 9999 SCT021 15/11 Q1028
                        NOSIG=
201811031200 METAR LROP 031200Z 07008KT 9999 FEW022 16/11 Q1028 NOSIG=
201811031230 METAR LROP 031230Z 05008KT CAVOK 16/11 Q1028 NOSIG=
201811031300 METAR LROP 031300Z 08007KT 040V100 CAVOK 16/11 Q1028 NOSIG=
201811031330 METAR LROP 031330Z 08007KT CAVOK 16/11 Q1028 NOSIG=
201811031400 METAR LROP 031400Z 09007KT CAVOK 16/10 Q1028 NOSIG=
201811031430 METAR LROP 031430Z 09006KT CAVOK 15/10 Q1027 NOSIG=
201811031500 METAR LROP 031500Z 06005KT CAVOK 14/10 Q1027 NOSIG=
201811031530 METAR LROP 031530Z 05004KT CAVOK 14/10 Q1027 NOSIG=
201811031600 METAR LROP 031600Z 04005KT CAVOK 13/10 Q1028 NOSIG=
201811031630 METAR LROP 031630Z 04004KT CAVOK 13/10 Q1028 NOSIG=
201811031700 METAR LROP 031700Z 04004KT CAVOK 12/10 Q1028 NOSIG=
201811031730 METAR LROP 031730Z 03003KT CAVOK 12/10 Q1028 NOSIG=
201811031800 METAR LROP 031800Z 03005KT CAVOK 12/10 Q1028 NOSIG=
201811031830 METAR LROP 031830Z 01006KT CAVOK 12/10 Q1028 NOSIG=
201811031900 METAR LROP 031900Z 02005KT CAVOK 11/10 Q1028 NOSIG=
201811031930 METAR LROP 031930Z 04007KT 9000 NSC 11/09 Q1028 NOSIG=
201811032000 METAR LROP 032000Z 04005KT 9000 NSC 10/09 Q1028 NOSIG=
201811032030 METAR LROP 032030Z 04007KT 9000 NSC 10/09 Q1028 NOSIG=
201811032100 METAR LROP 032100Z 04007KT CAVOK 10/09 Q1028 NOSIG=
201811032130 METAR LROP 032130Z 05004KT 8000 NSC 09/08 Q1028 NOSIG=
201811032200 METAR LROP 032200Z 04004KT 7000 NSC 09/08 Q1028 BECMG 5000
                        BR=
201811032230 METAR LROP 032230Z 03003KT 7000 NSC 09/08 Q1028 BECMG 5000
                        BR=
201811032300 METAR LROP 032300Z 05004KT 7000 NSC 09/08 Q1028 BECMG 5000
                        BR=
201811032330 METAR LROP 032330Z 05003KT 5000 BR NSC 08/07 Q1027 NOSIG=
201811040000 METAR LROP 040000Z 04004KT 5000 BR NSC 08/07 Q1027 NOSIG=
201811040030 METAR LROP 040030Z 04004KT 5000 BR NSC 08/07 Q1027 NOSIG=
201811040100 METAR LROP 040100Z 04004KT 4000 BR NSC 08/07 Q1027 BECMG
                        3000 BR=
201811040130 METAR LROP 040130Z 04003KT 4000 BR NSC 07/06 Q1027 BECMG
                        3000 BR=
201811040200 METAR LROP 040200Z 04004KT 4000 BR NSC 07/06 Q1027 BECMG
                        3000 BR=
201811040230 METAR LROP 040230Z 04004KT 4000 BR NSC 06/06 Q1027 NOSIG=
201811040300 METAR LROP 040300Z 04004KT 4000 BR NSC 06/06 Q1027 NOSIG=
201811040330 METAR LROP 040330Z 04005KT 3000 BR NSC 07/06 Q1027 NOSIG=
201811040400 METAR LROP 040400Z 04004KT 2500 BR PRFG NSC 06/06 Q1027 TEMPO
                        1500 BR=
201811040430 METAR LROP 040430Z 04004KT 2000 R08R/P2000 R26L/0450N R08L/0800N
                        R26R/0600N PRFG BR NSC 07/06 Q1027
                        TEMPO 1500 BR=
201811040500 METAR LROP 040500Z 02003KT 1500 0800E R08R/0800D R26L/0450N
                        PRFG BR SCT004 07/07 Q1027 TEMPO
                        0600 FG=
201811040530 METAR LROP 040530Z 01005KT 1500 0250E R08R/0800N R26L/0250N
                        PRFG BR SCT004 07/07 Q1027 TEMPO
                        0600 FG BKN001=
201811040600 METAR LROP 040600Z 02004KT 2000 0800E R08R/0800N R26L/0300N
                        PRFG BR BKN004 07/07 Q1028 TEMPO
                        0600 FG BKN001=
201811040630 METAR LROP 040630Z 04004KT 0300 R08R/0300N R26L/0300N FG
                        BKN001 07/07 Q1028 NOSIG=
201811040700 METAR LROP 040700Z 05004KT 0200 R08R/0300N R26L/0300N FG
                        OVC001 07/07 Q1028 BECMG 0800 BKN002=
201811040730 METAR LROP 040730Z 08004KT 0300 R08R/0300N R26L/0300N FG
                        OVC001 09/09 Q1028 BECMG 0800 BKN002=
201811040800 METAR LROP 040800Z 07004KT 0600 R08R/0600N R26L/0800U FG
                        OVC001 09/09 Q1028 BECMG 1500 BR
                        SCT002=
201811040830 METAR LROP 040830Z 09003KT 050V110 9999 SCT001 11/11 Q1028
                        NOSIG=
201811040900 METAR LROP 040900Z 11004KT 070V140 9999 SCT008 SCT012 13/13
                        Q1028 NOSIG=
201811040930 METAR LROP 040930Z 10006KT 070V140 9999 FEW003 SCT010 15/12
                        Q1027 NOSIG=
201811041000 METAR LROP 041000Z 10005KT 070V130 9999 SCT016 15/12 Q1027
                        NOSIG=
201811041030 METAR LROP 041030Z 09007KT 9999 FEW020 16/12 Q1027 NOSIG=
201811041100 METAR LROP 041100Z 10007KT CAVOK 16/12 Q1026 NOSIG=
201811041130 METAR LROP 041130Z 10007KT CAVOK 17/11 Q1026 NOSIG=
201811041200 METAR LROP 041200Z 11007KT CAVOK 17/11 Q1026 NOSIG=
201811041230 METAR LROP 041230Z 11007KT CAVOK 18/11 Q1026 NOSIG=
201811041300 METAR LROP 041300Z 12006KT CAVOK 18/09 Q1026 NOSIG=
201811041330 METAR LROP 041330Z 10007KT CAVOK 17/08 Q1025 NOSIG=
201811041400 METAR LROP 041400Z 11006KT CAVOK 17/08 Q1025 NOSIG=
201811041430 METAR LROP 041430Z 09004KT CAVOK 16/08 Q1025 NOSIG=
201811041500 METAR LROP 041500Z 08005KT CAVOK 15/08 Q1025 NOSIG=
201811041530 METAR LROP 041530Z 07005KT CAVOK 14/09 Q1025 NOSIG=
201811041600 METAR LROP 041600Z 06004KT CAVOK 13/09 Q1025 NOSIG=
201811041630 METAR LROP 041630Z 06004KT 8000 NSC 12/09 Q1025 NOSIG=
201811041700 METAR LROP 041700Z 05004KT 8000 NSC 11/09 Q1025 NOSIG=
201811041730 METAR LROP 041730Z 07004KT 9000 NSC 10/08 Q1025 NOSIG=
201811041800 METAR LROP 041800Z 05004KT 9000 NSC 10/09 Q1025 NOSIG=
201811041830 METAR LROP 041830Z 03004KT CAVOK 11/09 Q1025 NOSIG=
201811041900 METAR LROP 041900Z VRB02KT CAVOK 11/09 Q1026 NOSIG=
201811041930 METAR LROP 041930Z 06003KT CAVOK 09/08 Q1026 NOSIG=
201811042000 METAR LROP 042000Z 04007KT CAVOK 09/08 Q1026 NOSIG=
201811042030 METAR LROP 042030Z 04008KT CAVOK 09/08 Q1026 NOSIG=
201811042100 METAR LROP 042100Z 05005KT 8000 NSC 08/08 Q1026 NOSIG=
201811042130 METAR LROP 042130Z 04006KT 7000 NSC 08/07 Q1026 NOSIG=
201811042200 METAR LROP 042200Z 03007KT 8000 NSC 08/08 Q1026 NOSIG=
201811042230 METAR LROP 042230Z 03005KT 8000 NSC 08/07 Q1026 NOSIG=
201811042300 METAR LROP 042300Z 04005KT 7000 NSC 07/07 Q1026 NOSIG=
201811042330 METAR LROP 042330Z 04007KT 7000 NSC 07/06 Q1026 BECMG 5000
                        BR=
201811050000 METAR LROP 050000Z 04006KT 6000 NSC 07/06 Q1026 BECMG 3000
                        BR=
201811050030 METAR LROP 050030Z 04006KT 5000 BR NSC 06/06 Q1026 BECMG
                        3000 BR=
201811050100 METAR LROP 050100Z 04008KT 5000 BR NSC 07/06 Q1025 BECMG
                        3000 BR=
201811050130 METAR LROP 050130Z 04006KT 3500 BR BKN004 06/06 Q1025 BECMG
                        1500 BR OVC002=
201811050200 METAR LROP 050200Z 04005KT 3000 BR OVC003 07/06 Q1025 TEMPO
                        1500 BR OVC002=
201811050230 METAR LROP 050230Z 04006KT 3000 BR OVC002 07/06 Q1025 BECMG
                        1500 BR OVC001=
201811050300 METAR LROP 050300Z 05005KT 0500 R08R/1300D R26L/1500D R08L/1000D
                        R26R/1000D FG OVC001 07/06 Q1025
                        BECMG 0300 FG=
201811050330 METAR LROP 050330Z 06007KT 0100 R08R/0650U R26L/0700N R08L/0650N
                        R26R/1000U FG VV001 07/07 Q1025 NOSIG=
201811050400 METAR LROP 050400Z 07004KT 0500 R08R/0800V R26L/1200N R08L/1100D
                        R26R/1600N FG OVC001 07/07 Q1025
                        NOSIG=
201811050430 METAR LROP 050430Z 07006KT 0500 R08R/0700D R26L/0450N R08L/0700D
                        R26R/0550N FG OVC001 08/07 Q1025
                        NOSIG=
201811050500 METAR LROP 050500Z 07007KT 0200 R08R/0500N R26L/0550N R08L/0550N
                        R26R/0500N FG VV001 08/07 Q1025 NOSIG=
201811050530 METAR LROP 050530Z 07006KT 0200 R08R/0500N R26L/0400N R08L/0500N
                        R26R/0400V0600U FG VV001 07/07 Q1025
                        BECMG 0600 BKN002=
201811050600 METAR LROP 050600Z 06006KT 0200 R08R/0400N R26L/0550N FG
                        VV002 07/06 Q1026 BECMG 0600 BKN002=
201811050630 METAR LROP 050630Z 06006KT 0500 R08R/1200V1700U R26L/0900VP2000U
                        FG OVC002 07/06 Q1026 BECMG 0600
                        BKN002=
201811050700 METAR COR LROP 050700Z 06006KT 4000 BR OVC002 07/07 Q1026
                        BECMG 5000 BR BKN005=
201811050730 METAR LROP 050730Z 05005KT 3000 BR OVC002 08/07 Q1026 NOSIG=
201811050800 METAR LROP 050800Z 05005KT 3000 BR OVC003 08/08 Q1026 NOSIG=
201811050830 METAR LROP 050830Z 05006KT 5000 BR OVC004 09/08 Q1026 NOSIG=
201811050900 METAR LROP 050900Z 04006KT 7000 OVC004 09/09 Q1026 NOSIG=
201811050930 METAR LROP 050930Z 04006KT 7000 BKN005 10/09 Q1026 NOSIG=
201811051000 METAR LROP 051000Z 05007KT 9999 BKN007 11/10 Q1026 NOSIG=
201811051030 METAR LROP 051030Z 06007KT 9999 SCT008 OVC021 11/10 Q1026
                        NOSIG=
201811051100 METAR LROP 051100Z 05007KT 9999 SCT009 OVC022 12/11 Q1025
                        NOSIG=
201811051130 METAR LROP 051130Z 07009KT 9999 OVC020 12/10 Q1025 NOSIG=
201811051200 METAR LROP 051200Z 06010KT 9999 BKN023 13/09 Q1025 NOSIG=
201811051230 METAR LROP 051230Z 09009KT 9999 FEW020 BKN023 13/09 Q1025
                        NOSIG=
201811051300 METAR LROP 051300Z 08008KT 9999 BKN024 13/09 Q1024=
201811051330 METAR LROP 051330Z 07007KT 9999 FEW025 13/09 Q1024 NOSIG=
201811051400 METAR LROP 051400Z 10005KT CAVOK 13/08 Q1024 NOSIG=
201811051430 METAR LROP 051430Z 08007KT CAVOK 13/08 Q1024 NOSIG=
201811051500 METAR COR LROP 051500Z 08006KT CAVOK 11/08 Q1024 NOSIG=
201811051530 METAR LROP 051530Z 06005KT CAVOK 10/08 Q1024 NOSIG=
201811051600 METAR LROP 051600Z 06005KT CAVOK 10/08 Q1025 NOSIG=
201811051630 METAR LROP 051630Z 04006KT CAVOK 10/08 Q1025 NOSIG=
201811051700 METAR LROP 051700Z 04006KT 8000 NSC 10/08 Q1025 NOSIG=
201811051730 METAR LROP 051730Z 04007KT 7000 NSC 10/08 Q1025 NOSIG=
201811051800 METAR LROP 051800Z 04006KT 8000 NSC 10/08 Q1025 NOSIG=
201811051830 METAR LROP 051830Z 04006KT 8000 NSC 10/08 Q1025 NOSIG=
201811051900 METAR LROP 051900Z 04006KT 8000 NSC 09/08 Q1025 NOSIG=
201811051930 METAR LROP 051930Z 04006KT 8000 NSC 09/08 Q1026 NOSIG=
201811052000 METAR LROP 052000Z 04006KT 7000 NSC 08/08 Q1025 NOSIG=
201811052030 METAR LROP 052030Z 05007KT 7000 NSC 09/08 Q1025 NOSIG=
201811052100 METAR LROP 052100Z 04005KT 6000 NSC 08/07 Q1026 NOSIG=
201811052130 METAR LROP 052130Z 04004KT 6000 NSC 07/07 Q1026 NOSIG=
201811052200 METAR LROP 052200Z 04004KT 010V070 5000 BR NSC 07/07 Q1026
                        NOSIG=
201811052230 METAR LROP 052230Z 05004KT 5000 BR SCT017 07/07 Q1026 NOSIG=
201811052300 METAR LROP 052300Z 05008KT 4000 BR BKN011 08/08 Q1026 NOSIG=
201811052330 METAR LROP 052330Z 05006KT 4000 BR OVC011 09/09 Q1026 NOSIG=
201811060000 METAR LROP 060000Z 05006KT 4000 BR OVC011 09/09 Q1025 NOSIG=
201811060030 METAR LROP 060030Z 04006KT 4000 BR BKN010 OVC011 10/09 Q1026
                        NOSIG=
201811060100 METAR LROP 060100Z 05006KT 4000 BR SCT006 OVC010 10/09 Q1025
                        NOSIG=
201811060130 METAR LROP 060130Z 06006KT 4000 BR BKN005 OVC007 10/09 Q1025=
201811060200 METAR LROP 060200Z 06006KT 3000 BR SCT005 OVC007 10/10 Q1025
                        NOSIG=
201811060230 METAR LROP 060230Z 03004KT 3500 BR SCT005 OVC009 10/09 Q1025
                        NOSIG=
201811060300 METAR LROP 060300Z VRB02KT 3500 BR BKN010 OVC013 10/10 Q1025
                        TEMPO BKN015 OVC020=
201811060330 METAR LROP 060330Z 03003KT 4000 BR SCT010 OVC014 10/10 Q1025
                        TEMPO BKN015 OVC020=
201811060400 METAR LROP 060400Z 02003KT 4000 BR SCT010 OVC015 10/10 Q1025
                        NOSIG=
201811060430 METAR LROP 060430Z 02004KT 4000 BR SCT013 OVC015 10/10 Q1025
                        NOSIG=
201811060500 METAR LROP 060500Z 02004KT 350V080 4000 BR OVC016 11/10 Q1025
                        NOSIG=
201811060530 METAR COR LROP 060530Z 06004KT 4000 BR SCT011 OVC016 11/10
                        Q1026 TEMPO 3000 BR OVC010=
201811060600 METAR LROP 060600Z 06005KT 4000 BR SCT009 OVC012 11/10 Q1026
                        TEMPO 3000 BR OVC010=
201811060630 METAR LROP 060630Z 06005KT 3000 BR OVC009 11/10 Q1026 TEMPO
                        1500 BR OVC005=
201811060700 METAR LROP 060700Z 05006KT 1500 BR OVC004 11/10 Q1026 TEMPO
                        0800 FG OVC002=
201811060730 METAR LROP 060730Z 05006KT 1700 BR BKN004 OVC016 11/10 Q1026
                        R88/19//95 BECMG 3000 BKN005 OVC015=
201811060800 METAR LROP 060800Z 05006KT 1700 BR BKN004 OVC020 11/10 Q1026
                        R88/19//95 BECMG 3000 BKN005 OVC015=
201811060830 METAR LROP 060830Z 05006KT 2800 BR BKN005 OVC023 11/10 Q1026
                        R88/19//95 BECMG 4000 BKN010 OVC025=
201811060900 METAR LROP 060900Z 05006KT 2800 BR BKN007 OVC024 12/11 Q1026
                        R88/19//95 BECMG 4000 BKN010 OVC025=
201811060930 METAR LROP 060930Z 05007KT 2800 BR BKN007 OVC031 12/11 Q1026
                        R88/19//95 BECMG 5000 SCT010 OVC025=
201811061000 METAR LROP 061000Z 05006KT 4000 BR BKN008 OVC031 12/11 Q1026
                        R88/19//95 BECMG 7000 NSW SCT010
                        OVC030=
201811061030 METAR LROP 061030Z 04005KT 5000 BR SCT009 OVC028 12/11 Q1026
                        R88/19//95 BECMG 7000 NSW SCT010
                        OVC030=
201811061100 METAR LROP 061100Z 06007KT 5000 BR FEW010 SCT021 OVC031 13/11
                        Q1026 R88/19//95 NOSIG=
201811061130 METAR LROP 061130Z 06006KT 6000 FEW012 SCT021 OVC031 13/11
                        Q1025 R88/CLRD// NOSIG=
201811061200 METAR LROP 061200Z 04006KT 6000 FEW012 SCT021 OVC031 13/11
                        Q1025 NOSIG=
201811061230 METAR LROP 061230Z 06007KT 8000 FEW012 SCT021 OVC031 13/11
                        Q1025 NOSIG=
201811061300 METAR LROP 061300Z 04006KT 7000 FEW012 SCT016 OVC019 13/11
                        Q1025 NOSIG=
201811061330 METAR LROP 061330Z 05006KT 6000 SCT019 OVC029 13/11 Q1025
                        NOSIG=
201811061400 METAR LROP 061400Z 06006KT 7000 OVC028 13/11 Q1025 NOSIG=
201811061430 METAR LROP 061430Z 05006KT 7000 OVC030 13/11 Q1025 NOSIG=
201811061500 METAR LROP 061500Z 06006KT 7000 OVC030 12/11 Q1025 NOSIG=
201811061530 METAR LROP 061530Z 05005KT 7000 OVC030 12/11 Q1025 NOSIG=
201811061600 METAR LROP 061600Z 05006KT 7000 OVC031 12/11 Q1025 NOSIG=
201811061630 METAR LROP 061630Z 05006KT 6000 OVC031 12/10 Q1025 NOSIG=
201811061700 METAR LROP 061700Z 03005KT 360V060 6000 OVC032 12/10 Q1025
                        NOSIG=
201811061730 METAR LROP 061730Z 03005KT 8000 OVC031 12/10 Q1025 NOSIG=
201811061800 METAR LROP 061800Z 04005KT 8000 OVC031 12/10 Q1025 NOSIG=
201811061830 METAR LROP 061830Z 05004KT 030V090 8000 OVC031 12/10 Q1025
                        NOSIG=
201811061900 METAR LROP 061900Z 05005KT 8000 OVC031 12/10 Q1026 NOSIG=
201811061930 METAR LROP 061930Z 06004KT 7000 OVC030 12/10 Q1026 NOSIG=
201811062000 METAR LROP 062000Z 08005KT 8000 OVC030 11/10 Q1026 NOSIG=
201811062030 METAR LROP 062030Z 08006KT 9999 OVC030 12/10 Q1026 NOSIG=
201811062100 METAR LROP 062100Z 09003KT 9999 OVC030 11/10 Q1025 NOSIG=
201811062130 METAR LROP 062130Z 10004KT 9999 OVC030 11/10 Q1025 NOSIG=
201811062200 METAR LROP 062200Z 07003KT 9999 OVC030 11/09 Q1025 NOSIG=
201811062230 METAR LROP 062230Z 09006KT 9999 OVC030 11/09 Q1025 NOSIG=
201811062300 METAR LROP 062300Z 07005KT 9999 FEW014 OVC030 11/09 Q1025
                        NOSIG=
201811062330 METAR LROP 062330Z 07007KT 9999 FEW014 OVC030 10/08 Q1026
                        NOSIG=
201811070000 METAR LROP 070000Z 07007KT 9999 FEW014 OVC031 10/08 Q1025
                        NOSIG=
201811070030 METAR LROP 070030Z 09007KT 9999 FEW014 OVC030 10/08 Q1025
                        NOSIG=
201811070100 METAR LROP 070100Z 08004KT 9999 OVC030 10/08 Q1025 NOSIG=
201811070130 METAR LROP 070130Z 07005KT 9999 OVC030 10/08 Q1025 NOSIG=
201811070200 METAR LROP 070200Z 08004KT 9999 OVC030 10/08 Q1025 NOSIG=
201811070230 METAR COR LROP 070230Z 06004KT 9999 OVC029 10/08 Q1025 NOSIG=
201811070300 METAR LROP 070300Z 07005KT 9999 OVC030 10/08 Q1025 NOSIG=
201811070330 METAR LROP 070330Z 07006KT 9999 OVC030 09/07 Q1025 NOSIG=
201811070400 METAR LROP 070400Z 06005KT 9999 OVC030 09/07 Q1025 NOSIG=
201811070430 METAR LROP 070430Z 07004KT 9999 OVC030 09/07 Q1025 NOSIG=
201811070500 METAR LROP 070500Z 09005KT 9999 OVC029 09/07 Q1025 NOSIG=
201811070530 METAR LROP 070530Z 10006KT 9999 OVC029 09/07 Q1025 NOSIG=
201811070600 METAR LROP 070600Z 10006KT 9999 OVC030 09/07 Q1025 NOSIG=
201811070630 METAR LROP 070630Z 07003KT 9999 OVC029 09/07 Q1026 NOSIG=
201811070700 METAR LROP 070700Z 07004KT 9999 OVC029 10/07 Q1026 NOSIG=
201811070730 METAR LROP 070730Z 08004KT 9999 OVC029 10/07 Q1026 NOSIG=
201811070800 METAR LROP 070800Z 09005KT 9999 OVC029 10/06 Q1026 NOSIG=
201811070830 METAR LROP 070830Z 09007KT 9999 OVC030 11/06 Q1026 NOSIG=
201811070900 METAR LROP 070900Z 09009KT 9999 OVC031 11/05 Q1026 NOSIG=
201811070930 METAR LROP 070930Z 09009KT 9999 OVC032 12/03 Q1026 NOSIG=
201811071000 METAR LROP 071000Z 09009KT 9999 OVC034 12/04 Q1025 NOSIG=
201811071030 METAR LROP 071030Z 08011KT 9999 OVC036 12/04 Q1025 NOSIG=
201811071100 METAR LROP 071100Z 07012KT 9999 OVC036 12/04 Q1025 NOSIG=
201811071130 METAR LROP 071130Z 09010KT 9999 BKN037 12/03 Q1024 NOSIG=
201811071200 METAR LROP 071200Z 07005KT 020V120 9999 BKN038 13/03 Q1024
                        NOSIG=
201811071230 METAR LROP 071230Z 04005KT 350V080 9999 BKN037 12/03 Q1024
                        NOSIG=
201811071300 METAR LROP 071300Z 06004KT 010V100 9999 BKN038 12/03 Q1024
                        NOSIG=
201811071330 METAR LROP 071330Z 06007KT 9999 OVC037 12/03 Q1024 NOSIG=
201811071400 METAR LROP 071400Z 07004KT 9999 OVC037 12/03 Q1024 NOSIG=
201811071430 METAR LROP 071430Z 07004KT 020V110 9999 OVC037 12/03 Q1024
                        NOSIG=
201811071500 METAR LROP 071500Z 05006KT 020V080 9999 OVC036 12/03 Q1024
                        NOSIG=
201811071530 METAR LROP 071530Z 06004KT 030V090 9999 OVC037 11/03 Q1024
                        NOSIG=
201811071600 METAR LROP 071600Z 03004KT 9999 OVC037 11/03 Q1024 NOSIG=
201811071630 METAR LROP 071630Z 05005KT 030V090 9999 OVC038 11/03 Q1024
                        NOSIG=
201811071700 METAR LROP 071700Z 04005KT 9999 OVC038 11/03 Q1024 NOSIG=
201811071730 METAR LROP 071730Z 04006KT 9999 OVC038 11/04 Q1024 NOSIG=
201811071800 METAR LROP 071800Z 02006KT 9999 OVC039 11/04 Q1024 NOSIG=
201811071830 METAR LROP 071830Z 03006KT 9999 OVC039 11/04 Q1024 NOSIG=
201811071900 METAR LROP 071900Z 03006KT 9999 OVC039 11/04 Q1024 NOSIG=
201811071930 METAR LROP 071930Z 03004KT 9999 OVC039 11/03 Q1024 NOSIG=
201811072000 METAR LROP 072000Z 04005KT 9999 OVC039 11/03 Q1024 NOSIG=
201811072030 METAR LROP 072030Z 02006KT 9999 OVC039 11/04 Q1024 NOSIG=
201811072100 METAR LROP 072100Z 02006KT 9999 OVC039 11/04 Q1024 NOSIG=
201811072130 METAR LROP 072130Z 02004KT 9999 OVC039 10/04 Q1024 NOSIG=
201811072200 METAR LROP 072200Z 01005KT 9999 OVC039 10/04 Q1024 NOSIG=
201811072230 METAR LROP 072230Z 01005KT 9999 OVC039 10/04 Q1024 NOSIG=
201811072300 METAR LROP 072300Z 01005KT 9999 OVC039 10/04 Q1024 NOSIG=
201811072330 METAR LROP 072330Z 02003KT 9999 OVC039 10/04 Q1024 NOSIG=
201811080000 METAR LROP 080000Z 02003KT 9999 OVC039 10/04 Q1023 NOSIG=
201811080030 METAR LROP 080030Z 01006KT 9999 OVC039 10/04 Q1023 NOSIG=
201811080100 METAR LROP 080100Z 36006KT 9999 OVC041 10/03 Q1023 NOSIG=
201811080130 METAR LROP 080130Z 01005KT 9999 OVC041 10/03 Q1023 NOSIG=
201811080200 METAR LROP 080200Z 35004KT 9999 OVC041 10/03 Q1023 NOSIG=
201811080230 METAR LROP 080230Z 01004KT 9999 OVC041 10/03 Q1023 NOSIG=
201811080300 METAR LROP 080300Z 02004KT 9999 OVC041 10/03 Q1023 NOSIG=
201811080330 METAR LROP 080330Z 01003KT 9999 OVC041 10/03 Q1023 NOSIG=
201811080400 METAR LROP 080400Z 04004KT 020V080 9999 OVC041 10/03 Q1023
                        NOSIG=
201811080430 METAR LROP 080430Z 12003KT 9999 OVC041 09/04 Q1023 NOSIG=
201811080500 METAR LROP 080500Z 08005KT 9999 OVC042 09/04 Q1023 NOSIG=
201811080530 METAR LROP 080530Z 06005KT 9999 OVC042 09/04 Q1024 NOSIG=
201811080600 METAR LROP 080600Z 06005KT 9999 OVC042 09/04 Q1024 NOSIG=
201811080630 METAR LROP 080630Z 03005KT 9999 OVC042 10/04 Q1024 NOSIG=
201811080700 METAR LROP 080700Z 05006KT 9999 BKN042 10/03 Q1024 NOSIG=
201811080730 METAR LROP 080730Z 02006KT 9999 BKN040 10/03 Q1024 NOSIG=
201811080800 METAR LROP 080800Z 02006KT 9999 BKN041 10/03 Q1024 NOSIG=
201811080830 METAR LROP 080830Z 02005KT 9999 OVC041 11/03 Q1024 NOSIG=
201811080900 METAR LROP 080900Z 04005KT 9999 OVC041 11/03 Q1024 NOSIG=
201811080930 METAR LROP 080930Z 02006KT 360V060 9999 OVC041 12/03 Q1024
                        NOSIG=
201811081000 METAR LROP 081000Z 04005KT 9999 OVC040 12/03 Q1024 NOSIG=
201811081030 METAR LROP 081030Z 05007KT 9999 BKN039 12/03 Q1024 NOSIG=
201811081100 METAR LROP 081100Z 05006KT 9999 OVC040 12/03 Q1023 NOSIG=
201811081130 METAR LROP 081130Z 04005KT 010V070 9999 BKN043 13/04 Q1023
                        NOSIG=
201811081200 METAR LROP 081200Z 07005KT 040V110 9999 BKN044 13/04 Q1023
                        NOSIG=
201811081230 METAR LROP 081230Z 06005KT 040V100 9999 SCT046 13/04 Q1023
                        NOSIG=
201811081300 METAR LROP 081300Z 07004KT 340V150 9999 FEW045 13/04 Q1023
                        NOSIG=
201811081330 METAR LROP 081330Z VRB01KT 9999 SCT043 13/04 Q1023 NOSIG=
201811081400 METAR LROP 081400Z 03004KT 350V060 CAVOK 13/03 Q1023 NOSIG=
201811081430 METAR LROP 081430Z 03004KT 360V060 CAVOK 12/03 Q1022 NOSIG=
201811081500 METAR LROP 081500Z 04003KT CAVOK 10/04 Q1023 NOSIG=
201811081530 METAR LROP 081530Z 05002KT CAVOK 09/04 Q1023 NOSIG=
201811081600 METAR LROP 081600Z 05002KT CAVOK 09/04 Q1023 NOSIG=
201811081630 METAR LROP 081630Z 07002KT CAVOK 08/04 Q1023 NOSIG=
201811081700 METAR LROP 081700Z 00000KT CAVOK 07/04 Q1023 NOSIG=
201811081730 METAR LROP 081730Z 00000KT CAVOK 07/04 Q1023 NOSIG=
201811081800 METAR LROP 081800Z 00000KT CAVOK 07/04 Q1023 NOSIG=
201811081830 METAR LROP 081830Z 00000KT CAVOK 07/04 Q1023 NOSIG=
201811081900 METAR LROP 081900Z 01002KT CAVOK 06/04 Q1023 NOSIG=
201811081930 METAR LROP 081930Z 00000KT CAVOK 05/04 Q1023 NOSIG=
201811082000 METAR LROP 082000Z 00000KT CAVOK 05/04 Q1023 NOSIG=
201811082030 METAR LROP 082030Z 06005KT 020V090 CAVOK 04/03 Q1024 NOSIG=
201811082100 METAR LROP 082100Z 03004KT CAVOK 05/03 Q1024 NOSIG=
201811082130 METAR LROP 082130Z 01006KT CAVOK 05/04 Q1024 NOSIG=
201811082200 METAR LROP 082200Z 35005KT 8000 NSC 05/04 Q1023 NOSIG=
201811082230 METAR LROP 082230Z 31003KT 270V360 8000 NSC 04/03 Q1023 NOSIG=
201811082300 METAR LROP 082300Z VRB01KT 8000 NSC 03/02 Q1023 NOSIG=
201811082330 METAR LROP 082330Z VRB02KT 7000 NSC 03/02 Q1023 NOSIG=
201811090000 METAR LROP 090000Z 00000KT 7000 NSC 02/01 Q1023 NOSIG=
201811090030 METAR LROP 090030Z 29002KT 7000 NSC 02/01 Q1023 NOSIG=
201811090100 METAR LROP 090100Z 00000KT 7000 NSC 02/01 Q1023 NOSIG=
201811090130 METAR LROP 090130Z 00000KT 7000 NSC 01/01 Q1023 NOSIG=
201811090200 METAR LROP 090200Z 00000KT 6000 NSC 01/M00 Q1023 NOSIG=
201811090230 METAR LROP 090230Z 00000KT 6000 NSC 01/M00 Q1023 NOSIG=
201811090300 METAR LROP 090300Z 00000KT 6000 NSC 01/M00 Q1023 NOSIG=
201811090330 METAR LROP 090330Z 29001KT 6000 NSC 00/M00 Q1023 NOSIG=
201811090400 METAR LROP 090400Z 00000KT 6000 NSC M00/M01 Q1023 NOSIG=
201811090430 METAR LROP 090430Z 00000KT 7000 NSC 00/M01 Q1023 NOSIG=
201811090500 METAR LROP 090500Z 00000KT 7000 NSC 00/M01 Q1023 NOSIG=
201811090530 METAR LROP 090530Z 00000KT 7000 NSC 00/M00 Q1024 NOSIG=
201811090600 METAR LROP 090600Z 00000KT 7000 NSC 02/01 Q1024 NOSIG=
201811090630 METAR LROP 090630Z 02003KT 8000 NSC 04/03 Q1024 NOSIG=
201811090700 METAR LROP 090700Z VRB02KT 8000 NSC 05/04 Q1024 NOSIG=
201811090730 METAR LROP 090730Z 07003KT 040V100 8000 NSC 06/05 Q1024 NOSIG=
201811090800 METAR LROP 090800Z 10004KT 8000 NSC 07/05 Q1024 NOSIG=
201811090830 METAR LROP 090830Z 11003KT 070V130 9000 NSC 08/06 Q1024 NOSIG=
201811090900 METAR LROP 090900Z 11004KT 070V140 CAVOK 10/06 Q1024 NOSIG=
201811090930 METAR LROP 090930Z VRB02KT CAVOK 11/06 Q1024 NOSIG=
201811091000 METAR LROP 091000Z VRB02KT CAVOK 12/06 Q1024 NOSIG=
201811091030 METAR LROP 091030Z 00000KT CAVOK 12/04 Q1023 NOSIG=
201811091100 METAR LROP 091100Z VRB02KT CAVOK 13/04 Q1023 NOSIG=
201811091130 METAR LROP 091130Z VRB02KT CAVOK 14/04 Q1023 NOSIG=
201811091200 METAR LROP 091200Z 33003KT 280V020 CAVOK 14/04 Q1023 NOSIG=
201811091230 METAR LROP 091230Z VRB02KT CAVOK 14/04 Q1022 NOSIG=
201811091300 METAR LROP 091300Z VRB02KT CAVOK 14/04 Q1022 NOSIG=
201811091330 METAR LROP 091330Z VRB02KT CAVOK 13/04 Q1022 NOSIG=
201811091400 METAR LROP 091400Z VRB01KT CAVOK 13/04 Q1022 NOSIG=
201811091430 METAR LROP 091430Z 10004KT CAVOK 12/04 Q1022 NOSIG=
201811091500 METAR LROP 091500Z 10004KT CAVOK 10/04 Q1022 NOSIG=
201811091530 METAR LROP 091530Z 11003KT CAVOK 09/04 Q1022 NOSIG=
201811091600 METAR LROP 091600Z 00000KT CAVOK 08/04 Q1022 NOSIG=
201811091630 METAR LROP 091630Z 00000KT CAVOK 08/05 Q1023 NOSIG=
201811091700 METAR LROP 091700Z 00000KT 8000 NSC 07/05 Q1023 NOSIG=
201811091730 METAR LROP 091730Z 00000KT 7000 NSC 06/05 Q1023 NOSIG=
201811091800 METAR LROP 091800Z 00000KT 9000 NSC 06/05 Q1023 NOSIG=
201811091830 METAR LROP 091830Z 00000KT CAVOK 06/05 Q1023 NOSIG=
201811091900 METAR LROP 091900Z 00000KT CAVOK 06/04 Q1023 NOSIG=
201811091930 METAR LROP 091930Z 00000KT 8000 NSC 05/04 Q1023 NOSIG=
201811092000 METAR LROP 092000Z 00000KT 7000 NSC 05/04 Q1023 NOSIG=
201811092030 METAR LROP 092030Z 00000KT 6000 NSC 04/03 Q1023 NOSIG=
201811092100 METAR LROP 092100Z 00000KT 5000 BR NSC 04/03 Q1023 NOSIG=
201811092130 METAR LROP 092130Z 00000KT 5000 BR NSC 03/02 Q1023 BECMG
                        3000 BR=
201811092200 METAR LROP 092200Z 00000KT 5000 BR NSC 02/02 Q1023 BECMG
                        3000 BR=
201811092230 METAR LROP 092230Z 00000KT 5000 BR NSC 02/02 Q1022 BECMG
                        3000 BR=
201811092300 METAR LROP 092300Z 00000KT 5000 BR NSC 02/01 Q1022 BECMG
                        3000 BR=
201811092330 METAR LROP 092330Z 34002KT 5000 BR NSC 03/02 Q1022 BECMG
                        3000 BR=
201811100000 METAR LROP 100000Z 00000KT 4000 BR NSC 02/01 Q1022 BECMG
                        3000 BR=
201811100030 METAR LROP 100030Z 00000KT 3000 BR NSC 01/01 Q1022 BECMG
                        3000 BR=
201811100100 METAR LROP 100100Z 00000KT 3000 BR NSC 01/01 Q1022 TEMPO
                        1500 BR=
201811100130 METAR LROP 100130Z 00000KT 3000 R08R/P2000 R26L/P2000 R08L/P2000
                        R26R/1200VP2000D MIFG BR NSC 01/00
                        Q1022 TEMPO 1500 BR=
201811100200 METAR LROP 100200Z 00000KT 3000 BR NSC 01/00 Q1022 TEMPO
                        1500 BR=
201811100230 METAR LROP 100230Z 00000KT 3000 BR NSC 01/M00 Q1021 TEMPO
                        1500 BR=
201811100300 METAR LROP 100300Z 00000KT 3000 BR NSC 01/M00 Q1021 TEMPO
                        1500 BR=
201811100330 METAR LROP 100330Z 00000KT 3000 BR NSC 00/M01 Q1021 TEMPO
                        1500 BR=
201811100400 METAR LROP 100400Z 30001KT 3000 BR NSC M00/M01 Q1021 TEMPO
                        1500 BR=
201811100430 METAR LROP 100430Z 00000KT 4000 BR NSC M00/M01 Q1021 TEMPO
                        1500 BR=
201811100500 METAR LROP 100500Z 00000KT 4000 MIFG BR NSC 00/M01 Q1021
                        NOSIG=
201811100530 METAR LROP 100530Z 00000KT 2500 MIFG BR NSC 00/M01 Q1022
                        NOSIG=
201811100600 METAR LROP 100600Z 00000KT 4000 BR NSC 01/01 Q1022 NOSIG=
201811100630 METAR LROP 100630Z 00000KT 4000 BR NSC 03/03 Q1022 NOSIG=
201811100700 METAR LROP 100700Z 02002KT 6000 NSC 05/04 Q1022 NOSIG=
201811100730 METAR LROP 100730Z 02003KT 6000 NSC 06/05 Q1022 NOSIG=
201811100800 METAR LROP 100800Z VRB01KT 8000 NSC 07/05 Q1022 NOSIG=
201811100830 METAR LROP 100830Z 05003KT 010V080 CAVOK 09/05 Q1022 NOSIG=
201811100900 METAR LROP 100900Z 06004KT CAVOK 11/06 Q1022 NOSIG=
201811100930 METAR LROP 100930Z 06004KT 010V090 CAVOK 12/06 Q1021 NOSIG=
201811101000 METAR LROP 101000Z 04003KT 330V100 CAVOK 13/06 Q1021 NOSIG=
201811101030 METAR LROP 101030Z 05003KT CAVOK 14/06 Q1021 NOSIG=
201811101100 METAR LROP 101100Z 15003KT 090V210 CAVOK 14/06 Q1020 NOSIG=
201811101130 METAR LROP 101130Z 13003KT 080V180 CAVOK 15/06 Q1020 NOSIG=
201811101200 METAR LROP 101200Z 14004KT 090V200 CAVOK 15/06 Q1020 NOSIG=
201811101230 METAR LROP 101230Z 14004KT 090V180 CAVOK 15/06 Q1020 NOSIG=
201811101300 METAR LROP 101300Z 14004KT 100V180 CAVOK 15/06 Q1020 NOSIG=
201811101330 METAR LROP 101330Z 15003KT 110V190 CAVOK 15/06 Q1019 NOSIG=
201811101400 METAR LROP 101400Z VRB01KT CAVOK 15/06 Q1020 NOSIG=
201811101430 METAR LROP 101430Z 15003KT 120V190 CAVOK 13/06 Q1020 NOSIG=
201811101500 METAR LROP 101500Z VRB01KT CAVOK 12/06 Q1020 NOSIG=
201811101530 METAR LROP 101530Z 02002KT CAVOK 11/06 Q1020 NOSIG=
201811101600 METAR LROP 101600Z 00000KT CAVOK 10/07 Q1020 NOSIG=
201811101630 METAR LROP 101630Z 00000KT CAVOK 09/07 Q1020 NOSIG=
201811101700 METAR LROP 101700Z 00000KT CAVOK 09/07 Q1020 NOSIG=
201811101730 METAR LROP 101730Z 00000KT 8000 NSC 09/07 Q1020 NOSIG=
201811101800 METAR LROP 101800Z 00000KT 8000 NSC 09/07 Q1020 NOSIG=
201811101830 METAR LROP 101830Z 00000KT 9000 NSC 08/06 Q1020 NOSIG=
201811101900 METAR LROP 101900Z 00000KT 8000 NSC 08/06 Q1020 NOSIG=
201811101930 METAR LROP 101930Z 00000KT 9000 NSC 08/06 Q1021 NOSIG=
201811102000 METAR LROP 102000Z 02004KT 8000 NSC 07/05 Q1021 NOSIG=
201811102030 METAR LROP 102030Z 02004KT 7000 NSC 07/05 Q1021 BECMG 5000
                        BR=
201811102100 METAR LROP 102100Z 03001KT 7000 NSC 06/05 Q1021 BECMG 5000
                        BR=
201811102130 METAR LROP 102130Z 01003KT 6000 NSC 05/04 Q1021 BECMG 5000
                        BR=
201811102200 METAR LROP 102200Z 36004KT 6000 NSC 06/05 Q1021 BECMG 5000
                        BR=
201811102230 METAR LROP 102230Z 34005KT 6000 NSC 05/04 Q1021 BECMG 3000
                        BR=
201811102300 METAR LROP 102300Z 01003KT 6000 NSC 05/04 Q1021 BECMG 3000
                        BR=
201811102330 METAR LROP 102330Z 00000KT 6000 NSC 05/04 Q1021 NOSIG=
201811110000 METAR LROP 110000Z 01003KT 5000 BR NSC 04/03 Q1021 NOSIG=
201811110030 METAR LROP 110030Z 01005KT 5000 BR NSC 04/03 Q1021 NOSIG=
201811110100 METAR LROP 110100Z 02004KT 5000 BR NSC 03/03 Q1021 NOSIG=
201811110130 METAR LROP 110130Z 02003KT 5000 BR NSC 04/03 Q1021 BECMG
                        3000 BR=
201811110200 METAR LROP 110200Z 36003KT 5000 BR NSC 02/02 Q1021 TEMPO
                        1500 BR=
201811110230 METAR LROP 110230Z 00000KT 4000 BR NSC 02/01 Q1021 NOSIG=
201811110300 METAR LROP 110300Z 00000KT 4000 BR NSC 02/01 Q1021 NOSIG=
201811110330 METAR LROP 110330Z 00000KT 4000 BR NSC 02/01 Q1022 BECMG
                        3000 BR=
201811110400 METAR LROP 110400Z 00000KT 2000 MIFG NSC 01/01 Q1022 BECMG
                        1500 BR=
201811110430 METAR LROP 110430Z 00000KT 4000 MIFG NSC 01/01 Q1022 NOSIG=
201811110500 METAR LROP 110500Z 01003KT 330V050 2500 MIFG BR FEW003 BKN009
                        02/01 Q1022 TEMPO 1500 BR=
201811110530 METAR COR LROP 110530Z 05003KT 0350 R08R/0400N R26L/0225
                        FG OVC002 02/01 Q1022 TEMPO 0800
                        FG=
201811110600 METAR COR LROP 110600Z 00000KT 0150 R08R/0225 R26L/0125N
                        FG OVC001 03/02 Q1023 NOSIG=
201811110630 METAR LROP 110630Z 02003KT 0150 R08R/0275N R26L/0350N FG
                        VV001 03/02 Q1023 NOSIG=
201811110700 METAR LROP 110700Z VRB01KT 0250 R08R/0375N R26L/0350N FG
                        VV002 03/02 Q1023 BECMG 0600=
201811110730 METAR LROP 110730Z VRB01KT 0300 R08R/0400 R26L/0300N FG OVC001
                        04/03 Q1023 BECMG 0600=
201811110800 METAR LROP 110800Z VRB02KT 0300 R08R/0450 R26L/0350N FG OVC001
                        04/04 Q1023 BECMG 0600=
201811110830 METAR LROP 110830Z 00000KT 0350 R08R/0450 R26L/0500N R08L/0550
                        R26R/0600N FG OVC001 05/04 Q1024
                        BECMG 0600=
201811110900 METAR LROP 110900Z VRB01KT 0900 R08R/1400 R26L/1200 R08L/P2000
                        R26R/1100 FG SCT001 BKN002 06/05
                        Q1024 BECMG 1500 BR SCT003=
201811110930 METAR LROP 110930Z VRB01KT 5000 BR FEW008 07/06 Q1024 NOSIG=
201811111000 METAR LROP 111000Z VRB01KT 8000 NSC 10/09 Q1024 NOSIG=
201811111030 METAR LROP 111030Z VRB01KT 9000 NSC 12/08 Q1024 NOSIG=
201811111100 METAR LROP 111100Z 00000KT CAVOK 13/07 Q1023 NOSIG=
201811111130 METAR LROP 111130Z 00000KT CAVOK 14/08 Q1023 NOSIG=
201811111200 METAR LROP 111200Z VRB01KT CAVOK 15/07 Q1023 NOSIG=
201811111230 METAR LROP 111230Z VRB02KT CAVOK 15/07 Q1023 NOSIG=
201811111300 METAR LROP 111300Z VRB01KT CAVOK 15/07 Q1023 NOSIG=
201811111330 METAR LROP 111330Z 10002KT CAVOK 15/06 Q1023 NOSIG=
201811111400 METAR LROP 111400Z 11003KT CAVOK 15/06 Q1023 NOSIG=
201811111430 METAR LROP 111430Z 12003KT CAVOK 14/06 Q1024 NOSIG=
201811111500 METAR LROP 111500Z 12001KT CAVOK 12/06 Q1024 NOSIG=
201811111530 METAR LROP 111530Z 00000KT CAVOK 11/07 Q1024 NOSIG=
201811111600 METAR LROP 111600Z 00000KT CAVOK 10/07 Q1024 NOSIG=
201811111630 METAR LROP 111630Z 00000KT 8000 NSC 09/07 Q1024 NOSIG=
201811111700 METAR LROP 111700Z 00000KT 8000 NSC 08/07 Q1025 BECMG 5000
                        BR=
201811111730 METAR LROP 111730Z 00000KT 8000 NSC 08/07 Q1025 BECMG 5000
                        BR=
201811111800 METAR LROP 111800Z 30001KT 8000 NSC 08/07 Q1025 BECMG 5000
                        BR=
201811111830 METAR LROP 111830Z 00000KT 6000 NSC 06/06 Q1025 BECMG 5000
                        BR=
201811111900 METAR LROP 111900Z 00000KT 6000 NSC 06/05 Q1025 BECMG 5000
                        BR=
201811111930 METAR LROP 111930Z 00000KT 5000 BR NSC 06/05 Q1026 BECMG
                        3000 BR=
201811112000 METAR LROP 112000Z 36002KT 5000 BR NSC 06/05 Q1026 BECMG
                        3000 BR=
201811112030 METAR LROP 112030Z 02003KT 350V060 5000 BR NSC 05/04 Q1026
                        BECMG 3000 BR=
201811112100 METAR LROP 112100Z 04004KT 350V070 5000 BR NSC 06/05 Q1026
                        BECMG 3000 BR=
201811112130 METAR LROP 112130Z 08002KT 5000 BR NSC 05/04 Q1026 BECMG
                        3000 BR=
201811112200 METAR LROP 112200Z VRB02KT 5000 BR NSC 05/04 Q1026 BECMG
                        3000 BR=
201811112230 METAR COR LROP 112230Z 30002KT 4000 BR NSC 04/03 Q1026 BECMG
                        3000 BR=
201811112300 METAR LROP 112300Z VRB01KT 4000 BR NSC 04/03 Q1026 BECMG
                        3000 BR=
201811112330 METAR LROP 112330Z 00000KT 4000 BR NSC 04/03 Q1026 NOSIG=
201811120000 METAR LROP 120000Z 00000KT 4000 BR NSC 03/03 Q1026 NOSIG=
201811120030 METAR LROP 120030Z 33004KT 4000 BR NSC 03/02 Q1026 NOSIG=
201811120100 METAR LROP 120100Z VRB02KT 4000 BR NSC 04/03 Q1026 BECMG
                        1500 BR BKN002=
201811120130 METAR LROP 120130Z VRB01KT 3000 BR SCT002 04/03 Q1026 BECMG
                        0800 FG BKN002=
201811120200 METAR LROP 120200Z 34003KT 2500 BR BKN003 04/03 Q1027 BECMG
                        0800 FG BKN001=
201811120230 METAR LROP 120230Z 01004KT 0100 R08R/0400N R26L/2000 FG BKN001
                        OVC003 04/03 Q1027 NOSIG=
201811120300 METAR LROP 120300Z 04003KT 0100 R08R/0325N R26L/0325N FG
                        VV001 05/04 Q1027 NOSIG=
201811120330 METAR LROP 120330Z 04006KT 0100 R08R/0450N R26L/0300N FG
                        VV001 05/04 Q1027 NOSIG=
201811120400 METAR LROP 120400Z 04005KT 0100 R08R/0400N R26L/0350N FG
                        VV001 05/04 Q1027 NOSIG=
201811120430 METAR LROP 120430Z 04005KT 0150 R08R/0600N R26L/0450N FG
                        VV002 06/05 Q1028 BECMG 0350=
201811120500 METAR LROP 120500Z 05006KT 0100 R08R/0550U R26L/0650N R08L/0550N
                        R26R/0600N FG VV001 06/05 Q1028 NOSIG=
201811120530 METAR LROP 120530Z 05007KT 0100 R08R/0550N R26L/0500N R08L/0550N
                        R26R/0550N FG VV001 06/05 Q1028 NOSIG=
201811120600 METAR LROP 120600Z 08006KT 0100 R08R/0500N R26L/0500N R08L/0500N
                        R26R/0500N FG VV001 06/05 Q1029 NOSIG=
201811120630 METAR LROP 120630Z 05006KT 0100 R08R/0550V0800U R26L/0550N
                        R08L/0500N R26R/0550N FG VV001 06/05
                        Q1029 NOSIG=
201811120700 METAR LROP 120700Z 06007KT 0100 R08R/0350N R26L/0350N R08L/0350N
                        R26R/0350N FG VV001 06/06 Q1029 R88/19//95
                        NOSIG=
201811120730 METAR COR LROP 120730Z 05007KT 0100 R08R/0350N R26L/0350N
                        FG VV001 07/06 Q1029 R08R/19//95
                        NOSIG=
201811120800 METAR LROP 120800Z 03005KT 0100 R08R/0500N R26L/0500N FG
                        VV002 07/06 Q1030 R08R/19//95 BECMG
                        0350=
201811120830 METAR LROP 120830Z 04006KT 0100 R08R/0500N R26L/0500N R08L/0550N
                        R26R/0550N FG VV002 07/06 Q1030 R88/19//95
                        BECMG 0600=
201811120900 METAR LROP 120900Z 03004KT 0100 R08R/0550N R26L/0500N R08L/0500N
                        R26R/0600N FG VV002 08/07 Q1030 R88/19//95
                        BECMG 0600=
201811120930 METAR LROP 120930Z 09004KT 0800 R08R/0800V1500U R26L/0800U
                        R08L/0800V1600D R26R/1000U FG OVC001
                        08/07 Q1030 R88/19//95 BECMG 1500
                        BR BKN002=
201811121000 METAR COR LROP 121000Z 03005KT 360V070 2000 R08R/1800VP2000D
                        R26L/1100N R08L/1200V2000U R26R/1000V1700U
                        PRFG BR OVC001 08/07 Q1030 R88/19//95
                        BECMG 3000 BKN002=
201811121030 METAR LROP 121030Z 04003KT 360V080 3000 BR OVC002 08/08 Q1030
                        R88/19//95 BECMG 5000 BKN005=
201811121100 METAR LROP 121100Z 07004KT 030V120 3000 BR OVC003 08/08 Q1029
                        R88/19//95 BECMG 5000 BKN005=
201811121130 METAR LROP 121130Z 03004KT 4000 BR OVC003 09/08 Q1029 R88/19//95
                        BECMG 7000 NSW BKN005=
201811121200 METAR LROP 121200Z 07005KT 4000 BR OVC004 09/08 Q1029 R88/19//95
                        BECMG 7000 NSW BKN010=
201811121230 METAR LROP 121230Z 07005KT 5000 BR OVC005 09/08 Q1029 R88/CLRD//
                        BECMG 7000 NSW BKN010=
201811121300 METAR LROP 121300Z 05004KT 010V090 5000 BR OVC005 09/08 Q1029
                        BECMG 7000 NSW=
201811121330 METAR LROP 121330Z 03006KT 360V060 6000 OVC005 09/08 Q1030
                        NOSIG=
201811121400 METAR LROP 121400Z 02005KT 350V050 6000 OVC005 09/08 Q1029
                        NOSIG=
201811121430 METAR LROP 121430Z 02004KT 6000 BKN005 09/08 Q1029 BECMG
                        SCT005=
201811121500 METAR LROP 121500Z VRB01KT 6000 FEW006 08/07 Q1030 NOSIG=
201811121530 METAR LROP 121530Z VRB02KT 4000 MIFG BR FEW015 08/07 Q1030
                        BECMG 1500 BR=
201811121600 METAR LROP 121600Z VRB02KT 3000 R08R/P2000 R26L/0550V0900D
                        R08L/P2000 R26R/2000 MIFG BR SCT012
                        07/06 Q1030 BECMG 1500 BR=
201811121630 METAR LROP 121630Z 36004KT 3000 BR BKN014 08/07 Q1030 BECMG
                        1500 BR=
201811121700 METAR LROP 121700Z 01006KT 2300 MIFG BR SCT016 08/07 Q1030
                        NOSIG=
201811121730 METAR LROP 121730Z 04006KT 2500 BR SCT018 07/07 Q1030 NOSIG=
201811121800 METAR LROP 121800Z 03006KT 2500 BR BKN017 08/07 Q1030 NOSIG=
201811121830 METAR LROP 121830Z 04008KT 3000 BR BKN020 09/08 Q1031 NOSIG=
201811121900 METAR LROP 121900Z 05007KT 3500 BR BKN023 09/08 Q1031 NOSIG=
201811121930 METAR LROP 121930Z 06008KT 6000 BKN024 10/09 Q1031 NOSIG=
201811122000 METAR LROP 122000Z 07007KT 9999 BKN026 09/09 Q1031 NOSIG=
201811122030 METAR LROP 122030Z 07006KT 9999 BKN027 10/09 Q1031 NOSIG=
201811122100 METAR LROP 122100Z 05006KT 9999 OVC034 10/09 Q1032 NOSIG=
201811122130 METAR LROP 122130Z 06007KT 9999 OVC032 10/09 Q1032 NOSIG=
201811122200 METAR LROP 122200Z 09007KT 9999 FEW019 OVC038 10/09 Q1031
                        NOSIG=
201811122230 METAR LROP 122230Z 07006KT 9999 FEW019 OVC040 10/09 Q1032
                        NOSIG=
201811122300 METAR LROP 122300Z 05007KT 9999 OVC018 10/09 Q1032 NOSIG=
201811122330 METAR LROP 122330Z 05007KT 9999 FEW024 OVC042 10/09 Q1032
                        NOSIG=
201811130000 METAR LROP 130000Z 06008KT 9999 FEW019 OVC045 10/09 Q1032
                        NOSIG=
201811130030 METAR LROP 130030Z 06008KT 9999 SCT020 OVC038 10/09 Q1032
                        NOSIG=
201811130100 METAR LROP 130100Z 07010KT 9999 -DZ SCT020 OVC038 10/09 Q1032
                        NOSIG=
201811130130 METAR LROP 130130Z 07010KT 9999 SCT022 BKN034 OVC046 10/09
                        Q1032 NOSIG=
201811130200 METAR LROP 130200Z 07009KT 9999 BKN023 OVC039 09/09 Q1032
                        NOSIG=
201811130230 METAR LROP 130230Z 06008KT 9999 BKN019 OVC049 09/08 Q1032
                        NOSIG=
201811130300 METAR COR LROP 130300Z 06009KT 9999 BKN020 OVC049 09/08 Q1032
                        NOSIG=
201811130330 METAR LROP 130330Z 07009KT 9999 OVC021 09/08 Q1032 NOSIG=
201811130400 METAR LROP 130400Z 06009KT 9999 OVC021 09/08 Q1032 NOSIG=
201811130430 METAR COR LROP 130430Z 07008KT 9999 OVC014 09/08 Q1032 NOSIG=
201811130500 METAR LROP 130500Z 06008KT 9999 BKN010 OVC025 09/08 Q1033
                        NOSIG=
201811130530 METAR LROP 130530Z 07008KT 9999 OVC010 09/08 Q1033 NOSIG=
201811130600 METAR LROP 130600Z 07007KT 9999 OVC009 09/08 Q1033 NOSIG=
201811130630 METAR LROP 130630Z 08006KT 9999 OVC009 09/08 Q1033 NOSIG=
201811130700 METAR LROP 130700Z 08007KT 9999 OVC008 09/08 Q1033 NOSIG=
201811130730 METAR LROP 130730Z 06008KT 9000 OVC009 09/08 Q1033 NOSIG=
201811130800 METAR LROP 130800Z 07008KT 9999 OVC009 09/08 Q1033 NOSIG=
201811130830 METAR LROP 130830Z 07008KT 9000 BKN010 OVC013 09/08 Q1033
                        NOSIG=
201811130900 METAR LROP 130900Z 07009KT 9000 BKN010 OVC026 09/08 Q1033
                        NOSIG=
201811130930 METAR LROP 130930Z 07010KT 9999 BKN010 OVC027 09/08 Q1033
                        NOSIG=
201811131000 METAR LROP 131000Z 06009KT 9999 BKN011 OVC034 09/08 Q1032
                        NOSIG=
201811131030 METAR LROP 131030Z 06009KT 9999 OVC012 09/08 Q1032 NOSIG=
201811131100 METAR LROP 131100Z 05008KT 9999 OVC012 09/08 Q1032 NOSIG=
201811131130 METAR LROP 131130Z 05008KT 9999 OVC012 09/08 Q1032 NOSIG=
201811131200 METAR LROP 131200Z 05009KT 9000 OVC014 09/08 Q1032 NOSIG=
201811131230 METAR LROP 131230Z 04008KT 9999 OVC015 09/08 Q1032 NOSIG=
201811131300 METAR LROP 131300Z 05009KT 9999 OVC016 09/08 Q1032 NOSIG=
201811131330 METAR LROP 131330Z 06009KT 9000 OVC017 09/08 Q1031 NOSIG=
201811131400 METAR LROP 131400Z 05008KT 9000 OVC017 09/08 Q1031 NOSIG=
201811131430 METAR LROP 131430Z 04008KT 9000 OVC017 09/08 Q1031 NOSIG=
201811131500 METAR LROP 131500Z 04008KT 9999 OVC017 09/08 Q1031 NOSIG=
201811131530 METAR LROP 131530Z 04007KT 9999 OVC017 09/08 Q1031 NOSIG=
201811131600 METAR LROP 131600Z 03006KT 9999 OVC016 08/07 Q1031 NOSIG=
201811131630 METAR LROP 131630Z 03007KT 9999 OVC015 08/07 Q1031 NOSIG=
201811131700 METAR LROP 131700Z 06007KT 9999 OVC015 08/07 Q1031 NOSIG=
201811131730 METAR LROP 131730Z 08008KT 9999 OVC016 09/07 Q1031 NOSIG=
201811131800 METAR LROP 131800Z 07007KT 9999 OVC016 08/07 Q1031 NOSIG=
201811131830 METAR LROP 131830Z 07007KT 9999 OVC016 08/06 Q1031 NOSIG=
201811131900 METAR LROP 131900Z 08008KT 9999 BKN019 OVC042 08/06 Q1031
                        NOSIG=
201811131930 METAR LROP 131930Z 08006KT 9999 OVC019 08/06 Q1031 NOSIG=
201811132000 METAR LROP 132000Z 08006KT 9999 OVC017 08/06 Q1030 NOSIG=
201811132030 METAR LROP 132030Z 08007KT 9999 OVC018 08/06 Q1030 NOSIG=
201811132100 METAR COR LROP 132100Z 08006KT 9999 BKN018 OVC041 08/06 Q1030
                        NOSIG=
201811132130 METAR LROP 132130Z 07006KT 9999 FEW018 OVC039 08/06 Q1030
                        NOSIG=
201811132200 METAR LROP 132200Z 07005KT 9999 SCT018 OVC037 08/06 Q1030
                        NOSIG=
201811132230 METAR LROP 132230Z 07005KT 9999 SCT018 OVC038 08/06 Q1029
                        NOSIG=
201811132300 METAR LROP 132300Z 08004KT 9999 BKN019 OVC037 08/06 Q1029
                        NOSIG=
201811132330 METAR LROP 132330Z 07004KT 9999 BKN019 OVC036 08/06 Q1028
                        NOSIG=
201811140000 METAR LROP 140000Z 08005KT 9999 BKN019 OVC035 07/06 Q1028
                        NOSIG=
201811140030 METAR LROP 140030Z 07004KT 9999 FEW020 OVC036 07/06 Q1028
                        NOSIG=
201811140100 METAR LROP 140100Z 04004KT 9999 FEW019 OVC039 07/05 Q1028
                        NOSIG=
201811140130 METAR LROP 140130Z 04004KT 9999 FEW018 OVC039 07/05 Q1028
                        NOSIG=
201811140200 METAR LROP 140200Z 03004KT 9999 OVC043 07/05 Q1027 NOSIG=
201811140230 METAR LROP 140230Z 03004KT 9999 OVC043 07/05 Q1027 NOSIG=
201811140300 METAR LROP 140300Z 05004KT 9999 OVC044 07/05 Q1027 NOSIG=
201811140330 METAR LROP 140330Z 06004KT 9999 OVC043 07/05 Q1027 NOSIG=
201811140400 METAR LROP 140400Z 06003KT 9999 SCT043 06/05 Q1026 NOSIG=
201811140430 METAR LROP 140430Z 02003KT 9999 FEW043 06/05 Q1026 NOSIG=
201811140500 METAR LROP 140500Z 04002KT CAVOK 06/05 Q1026 NOSIG=
201811140530 METAR LROP 140530Z 01003KT 330V030 CAVOK 05/04 Q1026 NOSIG=
201811140600 METAR LROP 140600Z 01005KT 9999 SCT023 05/04 Q1027 NOSIG=
201811140630 METAR LROP 140630Z 03003KT 9999 BKN017 OVC021 06/05 Q1026
                        NOSIG=
201811140700 METAR LROP 140700Z 00000KT 9999 OVC017 07/05 Q1027 NOSIG=
201811140730 METAR LROP 140730Z VRB01KT 9999 OVC018 07/06 Q1026 NOSIG=
201811140800 METAR LROP 140800Z 21003KT 130V280 9999 OVC017 08/06 Q1026
                        NOSIG=
201811140830 METAR LROP 140830Z 25004KT 200V270 9999 OVC017 09/06 Q1026
                        NOSIG=
201811140900 METAR LROP 140900Z 26005KT 230V290 9999 OVC017 10/06 Q1026
                        NOSIG=
201811140930 METAR LROP 140930Z 26005KT 230V290 9999 OVC018 10/06 Q1026
                        NOSIG=
201811141000 METAR LROP 141000Z 27007KT 9999 OVC018 10/07 Q1025 NOSIG=
201811141030 METAR LROP 141030Z 27008KT 240V300 9999 OVC018 11/07 Q1025
                        NOSIG=
201811141100 METAR LROP 141100Z 29007KT 8000 BKN018 11/07 Q1025 NOSIG=
201811141130 METAR LROP 141130Z 28007KT 8000 SCT019 11/06 Q1025 NOSIG=
201811141200 METAR LROP 141200Z 30005KT 240V010 8000 BKN022 11/06 Q1025
                        NOSIG=
201811141230 METAR LROP 141230Z 31007KT 8000 SCT022 12/06 Q1024 NOSIG=
201811141300 METAR LROP 141300Z 26006KT 8000 FEW023 BKN041 12/06 Q1024
                        NOSIG=
201811141330 METAR LROP 141330Z 29004KT 250V320 8000 SCT040 12/06 Q1024
                        NOSIG=
201811141400 METAR LROP 141400Z 28003KT 240V330 8000 BKN037 11/06 Q1024
                        NOSIG=
201811141430 METAR LROP 141430Z VRB02KT 8000 BKN035 OVC049 11/07 Q1024
                        NOSIG=
201811141500 METAR LROP 141500Z 03005KT 8000 BKN034 BKN048 11/06 Q1024
                        NOSIG=
201811141530 METAR LROP 141530Z 06005KT 8000 OVC032 11/07 Q1024 NOSIG=
201811141600 METAR LROP 141600Z 06005KT 7000 OVC030 10/08 Q1024 NOSIG=
201811141630 METAR LROP 141630Z 09004KT 8000 -RA FEW030 BKN036 10/07 Q1024
                        NOSIG=
201811141700 METAR LROP 141700Z 10004KT 8000 -RA SCT028 BKN047 10/07 Q1024
                        NOSIG=
201811141730 METAR LROP 141730Z 10005KT 8000 -RA BKN028 09/07 Q1024 NOSIG=
201811141800 METAR LROP 141800Z 09004KT 7000 OVC027 09/07 Q1024 NOSIG=
201811141830 METAR LROP 141830Z 08004KT 7000 BKN030 OVC038 09/07 Q1024
                        NOSIG=
201811141900 METAR LROP 141900Z 09004KT 9000 FEW030 OVC036 09/07 Q1025
                        NOSIG=
201811141930 METAR LROP 141930Z 10004KT 9999 BKN029 OVC040 09/07 Q1024
                        NOSIG=
201811142000 METAR LROP 142000Z 10003KT 9999 -RA OVC040 08/06 Q1024 NOSIG=
201811142030 METAR LROP 142030Z 09004KT 9999 -RA OVC039 08/07 Q1024 NOSIG=
201811142100 METAR LROP 142100Z 08003KT 9000 -RA OVC037 08/07 Q1024 NOSIG=
201811142130 METAR LROP 142130Z 09003KT 5000 -RA BR BKN027 OVC031 08/07
                        Q1024 RERA R88/29//95 NOSIG=
201811142200 METAR LROP 142200Z 36003KT 240V020 5000 RA BR SCT006 BKN022
                        OVC031 07/06 Q1024 R88/29//95 NOSIG=
201811142230 METAR LROP 142230Z 18004KT 4000 RA BR SCT008 BKN020 OVC032
                        07/06 Q1024 R88/29//95 NOSIG=
201811142300 METAR LROP 142300Z VRB02KT 4000 RA BR SCT004 BKN024 OVC037
                        07/06 Q1024 R88/29//95 NOSIG=
201811142330 METAR LROP 142330Z 13003KT 4500 -RA BR SCT003 BKN019 OVC035
                        07/06 Q1024 RERA R88/29//95 NOSIG=
201811150000 METAR LROP 150000Z 20003KT 170V240 5000 -RA BR FEW003 OVC024
                        07/06 Q1023 R88/29//95 NOSIG=
201811150030 METAR LROP 150030Z 05002KT 5000 -RA BR SCT004 OVC024 07/06
                        Q1023 R88/29//95 NOSIG=
201811150100 METAR LROP 150100Z 32002KT 5000 BR BKN004 OVC023 07/06 Q1023
                        R88/29//95 NOSIG=
201811150130 METAR COR LROP 150130Z 34006KT 270V010 3000 SHRAGS BKN004
                        BKN025 FEW030CB 07/06 Q1024 R88/29//95
                        TEMPO 1500 SHRA=
201811150200 METAR LROP 150200Z 27004KT 230V310 5000 -SHRA BR BKN008 BKN036
                        SCT040CB 06/05 Q1024 R88/29//95 NOSIG=
201811150230 METAR LROP 150230Z 24004KT 5000 -SHRA BR BKN039 FEW044CB
                        06/05 Q1023 R88/29//95 NOSIG=
201811150300 METAR LROP 150300Z 27004KT 5000 BR FEW045 05/04 Q1023 R88/29//95
                        NOSIG=
201811150330 METAR LROP 150330Z 26005KT 5000 BR NSC 05/04 Q1023 R88/29//95
                        TEMPO 3000 BR=
201811150400 METAR LROP 150400Z 28004KT 6000 NSC 05/04 Q1024 R88/29//95
                        NOSIG=
201811150430 METAR LROP 150430Z 26005KT 7000 NSC 05/04 Q1024 R88/29//95
                        NOSIG=
201811150500 METAR LROP 150500Z 26005KT 7000 NSC 05/04 Q1024 R88/29//95
                        NOSIG=
201811150530 METAR LROP 150530Z 21004KT 170V260 4100 BR NSC 05/04 Q1024
                        R88/29//95 TEMPO 1500 BR=
201811150600 METAR LROP 150600Z 26005KT 3000 BR NSC 05/05 Q1024 R88/29//95
                        BECMG 5000=
201811150630 METAR LROP 150630Z 29006KT 2500 BR FEW004 SCT020 OVC049 07/06
                        Q1025 R88/29//95 BECMG 5000 -RA FEW040CB=
201811150700 METAR COR LROP 150700Z 28007KT 2900 -RA BR FEW004 OVC049
                        07/06 Q1024 R88/29//95 TEMPO 1500
                        -RA BR=
201811150730 METAR LROP 150730Z 28008KT 2900 -RA BR BKN004 OVC052 08/07
                        Q1025 R88/29//95 BECMG 5000 SCT005
                        OVC040=
201811150800 METAR LROP 150800Z 30009KT 3000 -RA BR BKN004 OVC037 08/07
                        Q1024 R88/29//95 BECMG 5000 SCT005
                        OVC040=
201811150830 METAR LROP 150830Z 28011KT 2500 -DZ BR SCT006 BKN011 08/08
                        Q1024 R88/29//95 BECMG 5000 SCT010
                        OVC040=
201811150900 METAR LROP 150900Z 28011KT 3000 BR FEW010 SCT075 09/08 Q1024
                        R88/29//95 BECMG 5000 SCT010 OVC040=
201811150930 METAR LROP 150930Z 27010KT 3000 BR FEW008 BKN010 10/09 Q1024
                        R88/29//95 BECMG 5000 SCT010=
201811151000 METAR LROP 151000Z 28008KT 3500 BR SCT010 10/09 Q1024 R88/29//95
                        BECMG 5000 SCT010=
201811151030 METAR LROP 151030Z 33006KT 310V010 3500 BR SCT010 OVC048
                        10/09 Q1024 R88/29//95 BECMG 5000=
201811151100 METAR LROP 151100Z 32006KT 280V340 4000 BR FEW010 SCT038
                        BKN047 10/09 Q1024 R88/29//95 BECMG
                        5000=
201811151130 METAR LROP 151130Z 34004KT 5000 BR BKN010 11/09 Q1024 R88/29//95
                        BECMG 06012KT=
201811151200 METAR LROP 151200Z 03004KT 360V090 6000 FEW013 SCT048 11/08
                        Q1023 R88/29//95 NOSIG=
201811151230 METAR LROP 151230Z 10007KT 5000 BR FEW012 SCT048 11/09 Q1024
                        R88/29//95 NOSIG=
201811151300 METAR LROP 151300Z 10006KT 8000 NSC 10/08 Q1023 R88/29//95
                        TEMPO SCT035CB=
201811151330 METAR LROP 151330Z 09005KT 9000 FEW015 10/08 Q1024 R88/CLRD//
                        TEMPO SCT035CB=
201811151400 METAR LROP 151400Z 10005KT 9999 FEW014 10/07 Q1023 R88/CLRD//
                        NOSIG=
201811151430 METAR LROP 151430Z 10006KT 9999 SCT049 09/07 Q1024 R88/CLRD//
                        NOSIG=
201811151500 METAR LROP 151500Z 11004KT 9999 SCT049 09/07 Q1024 R88/CLRD//
                        NOSIG=
201811151530 METAR LROP 151530Z 10004KT 9999 FEW048 08/07 Q1024 NOSIG=
201811151600 METAR LROP 151600Z 08005KT CAVOK 07/06 Q1024 NOSIG=
201811151630 METAR LROP 151630Z 08004KT 9999 SCT047 08/07 Q1024 NOSIG=
201811151700 METAR LROP 151700Z 09005KT 9999 SCT042 07/06 Q1025 NOSIG=
201811151730 METAR LROP 151730Z 07010KT CAVOK 07/06 Q1025 NOSIG=
201811151800 METAR LROP 151800Z 09007KT CAVOK 06/05 Q1025 NOSIG=
201811151830 METAR LROP 151830Z 09007KT 9999 FEW010 06/05 Q1025 TEMPO
                        BKN010=
201811151900 METAR LROP 151900Z 09010KT 9999 BKN008 06/05 Q1025 NOSIG=
201811151930 METAR LROP 151930Z 09006KT 8000 FEW010 05/04 Q1025 NOSIG=
201811152000 METAR LROP 152000Z 09006KT 8000 BKN010 05/04 Q1026 NOSIG=
201811152030 METAR LROP 152030Z 08007KT 8000 OVC009 05/04 Q1026 NOSIG=
201811152100 METAR LROP 152100Z 07009KT 030V100 9999 BKN010 04/03 Q1026
                        NOSIG=
201811152130 METAR LROP 152130Z 06008KT 9999 OVC010 04/03 Q1026 NOSIG=
201811152200 METAR LROP 152200Z 06008KT 9999 OVC009 04/03 Q1026 NOSIG=
201811152230 METAR LROP 152230Z 06011KT 030V090 9999 BKN009 OVC031 04/03
                        Q1026 NOSIG=
201811152300 METAR COR LROP 152300Z 06011G21KT 020V080 9999 -RA SCT012
                        OVC031 04/02 Q1027 R88/19//95 NOSIG=
201811152330 METAR LROP 152330Z 06015KT 9999 -RA SCT014 OVC031 04/02 Q1027
                        R88/19//95 NOSIG=
201811160000 METAR LROP 160000Z 06015KT 9999 -RA SCT030 OVC049 04/03 Q1027
                        R88/19//95 NOSIG=
201811160030 METAR LROP 160030Z 05014KT 9999 OVC031 04/02 Q1027 R88/19//95
                        NOSIG=
201811160100 METAR LROP 160100Z 05015KT 9999 FEW031 SCT044 04/02 Q1027
                        R88/19//95 NOSIG=
201811160130 METAR LROP 160130Z 05013KT CAVOK 04/02 Q1027 R88/19//95 NOSIG=
201811160200 METAR LROP 160200Z 05012KT 9999 -RA NSC 04/02 Q1027 R88/19//95
                        NOSIG=
201811160230 METAR LROP 160230Z 05007KT 9999 -RA OVC048 04/03 Q1027 R88/19//95
                        NOSIG=
201811160300 METAR LROP 160300Z 07007KT 9999 -RA OVC039 04/03 Q1027 R88/19//95
                        NOSIG=
201811160330 METAR LROP 160330Z 08006KT 9999 -RA OVC038 04/03 Q1027 R88/19//95
                        NOSIG=
201811160400 METAR LROP 160400Z 05005KT 9999 OVC042 04/03 Q1028 R88/19//95
                        NOSIG=
201811160430 METAR LROP 160430Z 06005KT 9999 SCT043 04/03 Q1028 R88/19//95
                        NOSIG=
201811160500 METAR LROP 160500Z 02005KT 9999 SCT033 04/03 Q1028 R88/19//95
                        NOSIG=
201811160530 METAR LROP 160530Z 35004KT 9999 FEW039 BKN046 04/03 Q1028
                        R88/19//95 NOSIG=
201811160600 METAR LROP 160600Z 01004KT 9999 SCT012 OVC017 04/03 Q1029
                        R88/19//95 NOSIG=
201811160630 METAR LROP 160630Z 05013KT 9000 -RA BKN009 OVC012 04/03 Q1029
                        R88/19//95 NOSIG=
201811160700 METAR LROP 160700Z 06009KT 9999 OVC050 04/03 Q1029 R88/19//95
                        NOSIG=
201811160730 METAR LROP 160730Z 08009KT 9999 FEW010 04/03 Q1029 R88/29//95
                        NOSIG=
201811160800 METAR LROP 160800Z 10006KT 9000 FEW010 04/03 Q1030 R88/29//95
                        NOSIG=
201811160830 METAR LROP 160830Z 11003KT 9999 FEW012 04/03 Q1029 R88/29//95
                        NOSIG=
201811160900 METAR LROP 160900Z VRB02KT CAVOK 05/02 Q1030 R88/19//95 NOSIG=
201811160930 METAR LROP 160930Z 05004KT CAVOK 05/02 Q1029 R88/19//95 NOSIG=
201811161000 METAR LROP 161000Z 04004KT CAVOK 05/01 Q1029 R88/CLRD// NOSIG=
201811161030 METAR LROP 161030Z 03003KT 350V080 CAVOK 05/01 Q1029 NOSIG=
201811161100 METAR LROP 161100Z 08004KT 9999 FEW010 06/01 Q1029 NOSIG=
201811161130 METAR COR LROP 161130Z 08006KT 9999 OVC013 06/M01 Q1029 NOSIG=
201811161200 METAR LROP 161200Z 06010KT 9999 FEW013 06/M04 Q1029 NOSIG=
201811161230 METAR LROP 161230Z 05007KT 9999 FEW015 06/M04 Q1029 NOSIG=
201811161300 METAR LROP 161300Z 07010KT 9999 FEW048 06/M05 Q1029 BECMG
                        5000 -SN BKN010 OVC030=
201811161330 METAR LROP 161330Z 06007KT 9999 FEW037 BKN048 06/M03 Q1029
                        BECMG 5000 -SN BKN010 OVC030=
201811161400 METAR LROP 161400Z 03008KT 360V060 9999 -RA OVC036 06/M01
                        Q1029 BECMG 5000 -SN BKN010 OVC030=
201811161430 METAR LROP 161430Z 10010KT 9999 SCT011 05/M02 Q1030 BECMG
                        5000 -SN BKN010 OVC030=
201811161500 METAR LROP 161500Z 12007KT CAVOK 04/M02 Q1030 BECMG 5000
                        -SN BKN010 OVC030=
201811161530 METAR LROP 161530Z 14007KT CAVOK 03/M01 Q1030 NOSIG=
201811161600 METAR LROP 161600Z 11006KT CAVOK 03/M01 Q1030 NOSIG=
201811161630 METAR LROP 161630Z 13005KT CAVOK 03/00 Q1030 NOSIG=
201811161700 METAR LROP 161700Z 15003KT CAVOK 02/00 Q1031 NOSIG=
201811161730 METAR LROP 161730Z VRB02KT CAVOK 02/00 Q1031 NOSIG=
201811161800 METAR LROP 161800Z 14003KT 110V170 CAVOK 02/00 Q1031 BECMG
                        5000 -SN BKN015 OVC040=
201811161830 METAR LROP 161830Z 17003KT 140V200 9999 SCT016 02/00 Q1031
                        BECMG 07010KT 5000 -SN BKN015 OVC040=
201811161900 METAR LROP 161900Z 15004KT 9999 SCT016 BKN018 02/01 Q1031
                        BECMG 07010KT 5000 -SN BKN015 OVC040=
201811161930 METAR LROP 161930Z 10007KT 9999 -SG BKN015 OVC020 02/00 Q1032
                        BECMG 5000 -SN BKN015 OVC040=
201811162000 METAR LROP 162000Z 08008KT 040V100 9999 -SN BKN015 OVC020
                        02/00 Q1032 BECMG 5000 -SN BKN010
                        OVC040=
201811162030 METAR COR LROP 162030Z 07007KT 9999 -SN SCT010 BKN014 OVC020
                        02/01 Q1032 BECMG 5000 -SN=
201811162100 METAR LROP 162100Z 06008KT 9999 -SN BKN010 OVC015 01/00 Q1031
                        NOSIG=
201811162130 METAR LROP 162130Z 07008KT 9999 -SN OVC009 01/00 Q1031 NOSIG=
201811162200 METAR LROP 162200Z 06009KT 9999 -SN BKN008 OVC010 01/00 Q1031
                        NOSIG=
201811162230 METAR LROP 162230Z 05014KT 8000 -SN OVC007 01/M00 Q1032 NOSIG=
201811162300 METAR COR LROP 162300Z 06016KT 4000 SG BR BKN007 OVC009 00/M01
                        Q1032 R88/29//95 NOSIG=
201811162330 METAR LROP 162330Z 06013KT 6000 -SN BKN008 OVC019 M00/M01
                        Q1032 RESG R88/29//95 NOSIG=
201811170000 METAR LROP 170000Z 06012KT 7000 -SN BKN008 OVC020 M00/M01
                        Q1032 R88/29//95 NOSIG=
201811170030 METAR LROP 170030Z 06013KT 7000 -SN SCT008 OVC022 M00/M01
                        Q1032 R88/29//95 NOSIG=
201811170100 METAR COR LROP 170100Z 06012KT 4000 SN BR SCT010 OVC027 M00/M01
                        Q1032 R88/29//95 TEMPO 3000 SN=
201811170130 METAR LROP 170130Z 07012KT 6000 -SN SCT010 OVC029 M00/M01
                        Q1032 RESN R88/29//95 NOSIG=
201811170200 METAR LROP 170200Z 07011KT 8000 -SN BKN010 OVC030 00/M01
                        Q1032 R88/29//95 NOSIG=
201811170230 METAR LROP 170230Z 07012KT 8000 -SN SCT012 OVC030 00/M01
                        Q1032 R88/29//95 NOSIG=
201811170300 METAR LROP 170300Z 06013KT 9999 -SN FEW010 OVC040 00/M01
                        Q1032 R88/29//95 NOSIG=
201811170330 METAR LROP 170330Z 06013KT 9999 -SN OVC045 01/M01 Q1032 R88/29//95
                        NOSIG=
201811170400 METAR LROP 170400Z 07013KT 9999 OVC046 01/M01 Q1032 R88/29//95
                        NOSIG=
201811170430 METAR LROP 170430Z 06014KT 9999 OVC046 01/M01 Q1032 R88/29//95
                        NOSIG=
201811170500 METAR LROP 170500Z 07014KT 9999 BKN046 01/M01 Q1032 R88/29//95
                        NOSIG=
201811170530 METAR LROP 170530Z 06013KT 9999 SCT040 01/M01 Q1033 R88/29//95
                        NOSIG=
201811170600 METAR LROP 170600Z 07014KT 9999 FEW015 BKN040 01/M01 Q1033
                        R88/29//95 NOSIG=
201811170630 METAR LROP 170630Z 07013KT 9999 FEW015 BKN039 01/M01 Q1033
                        R88/29//95 NOSIG=
201811170700 METAR LROP 170700Z 07014KT 9999 FEW015 OVC039 01/M01 Q1033
                        R88/19//95 NOSIG=
201811170730 METAR LROP 170730Z 07015KT 9999 FEW015 OVC039 01/M01 Q1033
                        R88/19//95 NOSIG=
201811170800 METAR LROP 170800Z 07016KT 9999 FEW015 BKN040 01/M01 Q1033
                        R88/19//95 NOSIG=
201811170830 METAR LROP 170830Z 07011KT 9999 FEW015 BKN038 01/M01 Q1033
                        R88/19//95 NOSIG=
201811170900 METAR LROP 170900Z 07012KT 9999 FEW015 OVC038 02/M01 Q1033
                        R88/19//95 NOSIG=
201811170930 METAR LROP 170930Z 06011KT 9999 FEW015 BKN037 OVC043 02/M01
                        Q1033 R88/19//95 NOSIG=
201811171000 METAR LROP 171000Z 06010KT 9999 FEW015 SCT037 BKN047 02/M01
                        Q1033 R88/CLRD// NOSIG=
201811171030 METAR LROP 171030Z 06015KT 9999 FEW015 BKN038 OVC045 02/M01
                        Q1033 NOSIG=
201811171100 METAR LROP 171100Z 06015KT 9999 FEW015 OVC039 02/M02 Q1033
                        NOSIG=
201811171130 METAR LROP 171130Z 07015KT 9999 FEW017 OVC039 02/M01 Q1032
                        NOSIG=
201811171200 METAR LROP 171200Z 07013KT 9999 FEW019 OVC044 02/M01 Q1033
                        NOSIG=
201811171230 METAR LROP 171230Z 07013KT 9999 FEW017 OVC045 02/M01 Q1033
                        NOSIG=
201811171300 METAR LROP 171300Z 07013KT 9999 OVC047 02/M01 Q1033 NOSIG=
201811171330 METAR LROP 171330Z 07015KT 9999 OVC045 02/M01 Q1033 NOSIG=
201811171400 METAR LROP 171400Z 08013KT 9999 OVC046 02/M01 Q1033 NOSIG=
201811171430 METAR LROP 171430Z 07014KT 9999 OVC047 02/M01 Q1033 NOSIG=
201811171500 METAR LROP 171500Z 06015KT 9999 BKN045 01/M02 Q1033 NOSIG=
201811171530 METAR LROP 171530Z 07015KT 9999 SCT044 01/M02 Q1032 NOSIG=
201811171600 METAR LROP 171600Z 07015KT 9999 SCT047 01/M02 Q1033 NOSIG=
201811171630 METAR LROP 171630Z 07016KT 9999 FEW046 01/M02 Q1033 NOSIG=
201811171700 METAR LROP 171700Z 07015KT CAVOK 01/M02 Q1033 NOSIG=
201811171730 METAR LROP 171730Z 07013KT 9999 FEW043 01/M02 Q1033 NOSIG=
201811171800 METAR LROP 171800Z 07013KT CAVOK 01/M02 Q1033 NOSIG=
201811171830 METAR LROP 171830Z 07013KT CAVOK 01/M02 Q1033 NOSIG=
201811171900 METAR LROP 171900Z 07012KT CAVOK 01/M02 Q1033 NOSIG=
201811171930 METAR LROP 171930Z 07009KT CAVOK 01/M02 Q1033 NOSIG=
201811172000 METAR LROP 172000Z 08010KT CAVOK 01/M02 Q1033 NOSIG=
201811172030 METAR LROP 172030Z 08010KT 9999 BKN030 01/M02 Q1033 NOSIG=
201811172100 METAR LROP 172100Z 07009KT 9999 OVC027 01/M02 Q1033 NOSIG=
201811172130 METAR LROP 172130Z 06010KT 9999 FEW026 01/M03 Q1033 NOSIG=
201811172200 METAR LROP 172200Z 07009KT CAVOK 01/M03 Q1033 NOSIG=
201811172230 METAR LROP 172230Z 07008KT CAVOK 01/M03 Q1033 NOSIG=
201811172300 METAR LROP 172300Z 08008KT CAVOK 00/M02 Q1033 NOSIG=
201811172330 METAR LROP 172330Z 08008KT CAVOK 00/M02 Q1032 NOSIG=
201811180000 METAR LROP 180000Z 07009KT CAVOK 00/M02 Q1032 NOSIG=
201811180030 METAR LROP 180030Z 08009KT CAVOK 00/M02 Q1032 NOSIG=
201811180100 METAR LROP 180100Z 07008KT CAVOK 00/M02 Q1032 NOSIG=
201811180130 METAR LROP 180130Z 08006KT CAVOK 00/M02 Q1031 NOSIG=
201811180200 METAR LROP 180200Z 08008KT CAVOK 00/M02 Q1031 NOSIG=
201811180230 METAR LROP 180230Z 09006KT CAVOK 00/M02 Q1031 NOSIG=
201811180300 METAR LROP 180300Z 08007KT 9000 NSC 00/M02 Q1031 NOSIG=
201811180330 METAR LROP 180330Z 08007KT 9000 NSC 00/M02 Q1031 NOSIG=
201811180400 METAR LROP 180400Z 09006KT 8000 NSC 00/M02 Q1030 NOSIG=
201811180430 METAR LROP 180430Z 09006KT 8000 NSC M00/M02 Q1030 NOSIG=
201811180500 METAR LROP 180500Z 08009KT 8000 NSC M00/M02 Q1030 NOSIG=
201811180530 METAR LROP 180530Z 07008KT 8000 NSC M00/M02 Q1030 NOSIG=
201811180600 METAR LROP 180600Z 09006KT 8000 NSC M00/M02 Q1030 NOSIG=
201811180630 METAR LROP 180630Z 08008KT 7000 SCT011 M00/M01 Q1030 TEMPO
                        BKN010=
201811180700 METAR LROP 180700Z 08010KT 8000 OVC010 00/M01 Q1029 NOSIG=
201811180730 METAR LROP 180730Z 08009KT 8000 OVC009 01/M01 Q1029 NOSIG=
201811180800 METAR LROP 180800Z 08011KT 8000 OVC010 01/M01 Q1029 NOSIG=
201811180830 METAR LROP 180830Z 09010KT 8000 OVC011 01/M01 Q1029 NOSIG=
201811180900 METAR LROP 180900Z 07010KT 9999 OVC011 01/M01 Q1029 NOSIG=
201811180930 METAR LROP 180930Z 09008KT 9999 OVC012 01/M01 Q1028 NOSIG=
201811181000 METAR LROP 181000Z 07006KT 050V120 9999 OVC011 01/M01 Q1028
                        NOSIG=
201811181030 METAR LROP 181030Z 06009KT 9999 OVC012 01/M01 Q1027 NOSIG=
201811181100 METAR LROP 181100Z 07007KT 9999 OVC012 01/M01 Q1026 NOSIG=
201811181130 METAR LROP 181130Z 06009KT 9999 OVC011 01/M01 Q1026 NOSIG=
201811181200 METAR LROP 181200Z 09006KT 9999 OVC012 01/M01 Q1025 NOSIG=
201811181230 METAR LROP 181230Z 05007KT 9999 OVC012 01/M01 Q1025 NOSIG=
201811181300 METAR LROP 181300Z 06010KT 9999 OVC012 01/M01 Q1024 NOSIG=
201811181330 METAR LROP 181330Z 07009KT 9999 OVC012 01/M01 Q1024 NOSIG=
201811181400 METAR LROP 181400Z 07008KT 9999 OVC012 01/M01 Q1024 TEMPO
                        5000 BR=
201811181430 METAR LROP 181430Z 06008KT 9999 OVC012 01/M01 Q1024 TEMPO
                        5000 BR=
201811181500 METAR LROP 181500Z 07008KT 9999 OVC012 01/M01 Q1023 TEMPO
                        5000 BR=
201811181530 METAR LROP 181530Z 05010KT 9999 OVC012 01/M01 Q1023 TEMPO
                        5000 BR=
201811181600 METAR LROP 181600Z 05010KT 9999 OVC013 01/M01 Q1022 TEMPO
                        5000 BR=
201811181630 METAR LROP 181630Z 06008KT 9999 OVC013 01/M01 Q1022 TEMPO
                        5000 BR=
201811181700 METAR LROP 181700Z 08007KT 9000 OVC015 01/M00 Q1022 TEMPO
                        5000 BR=
201811181730 METAR LROP 181730Z 09006KT 9000 SCT013 01/00 Q1022 BECMG
                        5000 SN=
201811181800 METAR LROP 181800Z 09008KT 9000 SCT014 01/00 Q1022 BECMG
                        5000 SN=
201811181830 METAR LROP 181830Z 10008KT 9000 BKN013 01/00 Q1022 BECMG
                        5000 SN=
201811181900 METAR LROP 181900Z 09009KT 9000 -SN SCT011 BKN024 01/00 Q1021
                        BECMG 5000 SN=
201811181930 METAR LROP 181930Z 08011KT 9000 -SN FEW013 SCT028 01/00 Q1021
                        BECMG 5000 SN=
201811182000 METAR LROP 182000Z 07012KT 7000 -SN BKN030 OVC044 01/M00
                        Q1020 BECMG 5000 SN=
201811182030 METAR LROP 182030Z 07011KT 4000 -SN BR OVC028 01/M00 Q1020
                        R08R/19//95 R08L/19//95 BECMG 1500
                        +SN=
201811182100 METAR LROP 182100Z 06010KT 2500 SN BR BKN005 OVC019 00/M01
                        Q1020 R08R/19//95 R08L/19//95 BECMG
                        0800 +SN BKN002 OVC015=
201811182130 METAR LROP 182130Z 06009KT 1500 SN BR BKN003 OVC010 00/M01
                        Q1020 R08R/690195 R08L/690195 BECMG
                        0600 +SN BKN002 OVC015=
201811182200 METAR LROP 182200Z 06012KT 1500 SN BR BKN003 OVC008 00/M01
                        Q1019 R08R/690195 R08L/690195 BECMG
                        07020G30KT 0600 +SN BLSN BKN002 OVC010=
201811182230 METAR LROP 182230Z 05012KT 2000 SN BR BKN003 OVC007 M00/M01
                        Q1019 R08R/590394 BECMG 07020G30KT
                        0800 +SN BLSN=
201811182300 METAR LROP 182300Z 05012KT 2000 SN BR BKN003 OVC010 M00/M01
                        Q1018 R08R/590394 BECMG 07020G30KT
                        0800 +SN BLSN=
201811182330 METAR LROP 182330Z 05014KT 2000 SN BR BKN004 OVC012 M00/M01
                        Q1017 R08R/590394 R08L/590394 NOSIG=
201811190000 METAR LROP 190000Z 05010KT 020V080 2000 SN BR BKN004 OVC007
                        M00/M01 Q1017 R08L/590394 NOSIG=
201811190030 METAR LROP 190030Z 05009KT 2000 SN BR BKN004 OVC007 M00/M01
                        Q1016 R08L/590394 NOSIG=
201811190100 METAR LROP 190100Z 05019KT 2000 SN BR OVC004 M00/M01 Q1015
                        R08R/590394 R08L/590394 TEMPO 0600
                        +SN=
201811190130 METAR LROP 190130Z 05018KT 1400 R08R/1300N R26L/1600N R08L/1700U
                        R26R/1700U SN BLSN OVC004 M00/M01
                        Q1015 R08R/590593 R08L/590394 TEMPO
                        0600 +SN BLSN=
201811190200 METAR LROP 190200Z 05018KT 1500 SN BLSN BKN004 OVC007 M00/M01
                        Q1014 R08R/590593 R08L/590394 NOSIG=
201811190230 METAR LROP 190230Z 05017KT 2000 SN BLSN BKN004 OVC019 M00/M01
                        Q1014 R08R/590593 R08L/590394 NOSIG=
201811190300 METAR LROP 190300Z 05021KT 3000 -SN BR BKN004 OVC019 00/M01
                        Q1013 RESN REBLSN R08R/590593 R08L/590394
                        NOSIG=
201811190330 METAR LROP 190330Z 04021KT 6000 -SN BKN005 OVC017 00/M01
                        Q1012 R08R/550294 R08L/590593 NOSIG=
201811190400 METAR LROP 190400Z 03024KT 7000 -FZRA BKN006 OVC035 00/M01
                        Q1012 R08R/550294 R08L/590593 TEMPO
                        3000 -FZRA=
201811190430 METAR LROP 190430Z 04021KT 6000 -FZRA BKN007 OVC024 00/M00
                        Q1012 R08R/550294 R08L/29//95 TEMPO
                        03025G35KT=
201811190500 METAR LROP 190500Z 04017KT 7000 -RA OVC007 01/M00 Q1011 R08R/550294
                        R08L/29//95 NOSIG=
201811190530 METAR LROP 190530Z 05017KT 7000 -RA OVC008 01/00 Q1011 R08R/650195
                        R08L/29//95 NOSIG=
201811190600 METAR LROP 190600Z 04018KT 8000 -RA OVC008 01/00 Q1012 R08R/650195
                        R08L/29//95 NOSIG=
201811190630 METAR LROP 190630Z 04018KT 5000 -RA BR OVC008 01/00 Q1012
                        R08R/650195 R08L/29//95 NOSIG=
201811190700 METAR LROP 190700Z 05014KT 4000 -RA BR BKN007 OVC011 01/00
                        Q1012 R88/29//95 NOSIG=
201811190730 METAR LROP 190730Z 08007KT 3000 -RA BR BKN007 OVC010 01/00
                        Q1013 R88/29//95 BECMG 27010KT=
201811190800 METAR LROP 190800Z VRB03KT 4000 -RA BR BKN004 OVC010 01/00
                        Q1013 R88/29//95 BECMG 27010KT=
201811190830 METAR LROP 190830Z 26009KT 4000 -RA BR SCT003 BKN004 OVC010
                        01/00 Q1013 R88/29//95 BECMG 27010KT=
201811190900 METAR LROP 190900Z 25010KT 4500 -DZ BR OVC004 01/00 Q1013
                        R88/29//95 NOSIG=
201811190930 METAR LROP 190930Z 25011KT 3500 -DZ BKN003 OVC004 01/00 Q1013
                        REDZ R88/29//95 NOSIG=
201811191000 METAR LROP 191000Z 25012KT 4000 -DZ BR SCT003 BKN004 OVC015
                        01/00 Q1013 R88/29//95 NOSIG=
201811191030 METAR LROP 191030Z 25013KT 6000 -DZ SCT004 BKN018 OVC020
                        01/01 Q1013 R88/29//95 NOSIG=
201811191100 METAR LROP 191100Z 25014KT 9999 SCT005 OVC026 02/01 Q1014
                        R88/29//95 NOSIG=
201811191130 METAR LROP 191130Z 25011KT 9000 FEW005 OVC020 02/01 Q1013
                        R88/29//95 NOSIG=
201811191200 METAR LROP 191200Z 24012KT 5000 BR SCT005 OVC017 02/01 Q1014
                        R88/29//95 NOSIG=
201811191230 METAR LROP 191230Z 24011KT 5000 BR SCT005 OVC017 02/01 Q1014
                        R88/29//95 NOSIG=
201811191300 METAR LROP 191300Z 24011KT 9000 OVC024 02/02 Q1014 R88/29//95
                        NOSIG=
201811191330 METAR LROP 191330Z 24012KT 9999 OVC025 02/02 Q1014 R88/29//95
                        NOSIG=
201811191400 METAR LROP 191400Z 25010KT 9999 SCT029 BKN038 02/01 Q1014
                        R88/29//95 NOSIG=
201811191430 METAR LROP 191430Z 25010KT 9999 SCT040 02/01 Q1015 R88/29//95
                        NOSIG=
201811191500 METAR LROP 191500Z 24009KT 9999 SCT047 02/01 Q1015 R88/29//95
                        NOSIG=
201811191530 METAR LROP 191530Z 23009KT 9000 SCT049 01/00 Q1016 R88/29//95
                        NOSIG=
201811191600 METAR LROP 191600Z 23010KT 9000 NSC 01/00 Q1016 R88/29//95
                        NOSIG=
201811191630 METAR LROP 191630Z 23008KT 9000 FEW027 01/M00 Q1017 R88/29//95
                        NOSIG=
201811191700 METAR LROP 191700Z 23010KT 8000 NSC 01/M00 Q1017 R88/29//95
                        TEMPO 5000 BR=
201811191730 METAR LROP 191730Z 23009KT 6000 NSC 00/M00 Q1017 R88/29//95
                        BECMG 5000 BR=
201811191800 METAR LROP 191800Z 23009KT 5000 BR NSC 00/M01 Q1018 R88/29//95
                        BECMG 3000 BR=
201811191830 METAR LROP 191830Z 23009KT 3000 BR SCT004 00/M00 Q1018 R88/29//95
                        BECMG BKN004=
201811191900 METAR COR LROP 191900Z 24013KT 3000 BR BKN003 00/M01 Q1018
                        R88/19//95 NOSIG=
201811191930 METAR LROP 191930Z 24009KT 3000 BR OVC002 00/M01 Q1019 R88/19//95
                        NOSIG=
201811192000 METAR LROP 192000Z 24007KT 3000 BR OVC003 M00/M01 Q1019 R88/19//95
                        TEMPO 5000 BKN005=
201811192030 METAR LROP 192030Z 26010KT 3500 BR OVC003 M00/M01 Q1019 R88/19//95
                        TEMPO 5000 BKN005=
201811192100 METAR LROP 192100Z 25009KT 2500 BR OVC002 M00/M01 Q1020 R88/19//95
                        NOSIG=
201811192130 METAR LROP 192130Z 25008KT 0500 R08R/0800 R26L/1400 R08L/1000
                        R26R/1200 FZFG VV002 M01/M01 Q1020
                        R88/19//95 BECMG 0350 FZFG VV001=
201811192200 METAR LROP 192200Z 25007KT 0400 R08R/0750N R26L/0700N R08L/0650N
                        R26R/0700N FZFG VV002 M00/M01 Q1020
                        R88/19//95 NOSIG=
201811192230 METAR LROP 192230Z 23006KT 0500 R08R/1100D R26L/0800N R08L/1300D
                        R26R/0800U FZFG VV001 M00/M01 Q1020
                        R88/19//95 NOSIG=
201811192300 METAR LROP 192300Z 25004KT 0500 R08R/0900N R26L/0750N R08L/1100N
                        R26R/0750N FZFG VV002 M01/M01 Q1021
                        R88/19//95 NOSIG=
201811192330 METAR LROP 192330Z 24004KT 200V260 0400 R08R/0800N R26L/0750N
                        R08L/0750N R26R/0800N FZFG VV002
                        M01/M01 Q1021 R88/19//95 NOSIG=
201811200000 METAR LROP 200000Z 21003KT 0350 R08R/0500N R26L/0750N R08L/0600N
                        R26R/0700N FZFG VV002 M01/M02 Q1021
                        R88/19//95 TEMPO 0150 FZFG VV001=
201811200030 METAR LROP 200030Z 00000KT 0350 R08R/0550N R26L/0650N R08L/0600N
                        R26R/0700N FZFG VV002 M01/M02 Q1021
                        R88/19//95 TEMPO 0150 FZFG VV001=
201811200100 METAR LROP 200100Z 06003KT 010V120 0400 R08R/0500U R26L/0650N
                        R08L/0550 R26R/0750N FZFG VV002 M01/M02
                        Q1021 R88/19//95 TEMPO 0150=
201811200130 METAR LROP 200130Z 05004KT 020V090 0300 R08R/0750N R26L/0750N
                        R08L/0800U R26R/0750N FZFG VV002
                        M01/M02 Q1021 R88/19//95 NOSIG=
201811200200 METAR LROP 200200Z 05003KT 360V110 0200 R08R/0800N R26L/0800N
                        R08L/0800U R26R/0800N FZFG VV002
                        M01/M02 Q1022 R88/19//95 NOSIG=
201811200230 METAR LROP 200230Z VRB02KT 0200 R08R/0800N R26L/0800N R08L/0800N
                        R26R/0800N FZFG VV002 M01/M02 Q1022
                        R88/19//95 NOSIG=
201811200300 METAR LROP 200300Z 07004KT 0200 R08R/0800N R26L/0800N R08L/0800N
                        R26R/0800N FZFG VV002 M01/M01 Q1022
                        R88/19//95 NOSIG=
201811200330 METAR LROP 200330Z 10002KT 0200 R08R/0750N R26L/0700N R08L/0700N
                        R26R/0700N FZFG VV002 M01/M01 Q1022
                        R88/19//95 NOSIG=
201811200400 METAR LROP 200400Z 07007KT 0200 R08R/0750N R26L/0750N R08L/0800N
                        R26R/0800N FZFG VV002 M00/M01 Q1022
                        R88/19//95 NOSIG=
201811200430 METAR LROP 200430Z 10005KT 0200 R08R/0800N R26L/0800V1000D
                        R08L/0800D R26R/0800V1100U FZFG VV002
                        M00/M01 Q1022 R88/19//95 BECMG 0600=
201811200500 METAR LROP 200500Z 08007KT 0200 R08R/0700N R26L/0800N R08L/0700N
                        R26R/0750 FZFG VV002 M00/M01 Q1022
                        R88/19//95 NOSIG=
201811200530 METAR LROP 200530Z 08006KT 0200 R08R/0650N R26L/0800D R08L/0800N
                        R26R/0600N FZFG VV002 M00/M01 Q1023
                        R88/19//95 NOSIG=
201811200600 METAR LROP 200600Z 08007KT 0200 R08R/0750N R26L/0550N R08L/0650N
                        R26R/0700N FZFG VV002 M00/M01 Q1023
                        R88/19//95 BECMG 0350=
201811200630 METAR COR LROP 200630Z 09007KT 0400 R08R/0800U R26L/1100U
                        R08L/0900U R26R/1100D FZFG OVC001
                        M00/M01 Q1024 R88/19//95 BECMG 0800
                        OVC002=
201811200700 METAR LROP 200700Z 08007KT 0500 R08R/0800N R26L/1200U R08L/1800U
                        R26R/1100N FZFG OVC001 M00/M01 Q1024
                        R88/19//95 BECMG 0800 OVC002=
201811200730 METAR LROP 200730Z 08009KT 0450 R08R/1100N R26L/2000U R08L/1900U
                        R26R/0600D FZFG OVC001 M00/M01 Q1023
                        R88/19//95 NOSIG=
201811200800 METAR COR LROP 200800Z 06007KT 0900 R08R/1700U R26L/P2000
                        R08L/P2000D R26R/P2000U FG OVC002
                        00/M01 Q1024 R88/19//95 BECMG 1500
                        BR OVC002=
201811200830 METAR COR LROP 200830Z 07008KT 1800 BR OVC002 00/M01 Q1024
                        R88/19//95 NOSIG=
201811200900 METAR LROP 200900Z 08009KT 3000 BR OVC002 00/M01 Q1024 R88/19//95
                        BECMG 5000 BKN005=
201811200930 METAR LROP 200930Z 08009KT 3800 BR OVC004 00/M00 Q1024 R88/19//95
                        BECMG 5000 OVC005=
201811201000 METAR LROP 201000Z 07008KT 4600 BR OVC005 01/M00 Q1024 R88/19//95
                        BECMG 5000=
201811201030 METAR LROP 201030Z 09008KT 4700 BR OVC006 01/00 Q1023 R88/19//95
                        BECMG 5000=
201811201100 METAR LROP 201100Z 10005KT 4900 BR OVC006 01/00 Q1023 R88/CLRD//
                        BECMG 5000=
201811201130 METAR LROP 201130Z 09005KT 4700 BR OVC007 01/01 Q1023 R88/CLRD//
                        BECMG 5000=
201811201200 METAR LROP 201200Z 07006KT 4000 BR OVC007 01/01 Q1023 BECMG
                        OVC010=
201811201230 METAR COR LROP 201230Z 06006KT 4000 -RA BR OVC007 02/01 Q1022
                        NOSIG=
201811201300 METAR LROP 201300Z 03007KT 3200 -RA BR BKN011 OVC013 02/01
                        Q1022 TEMPO 3000 -RA BR=
201811201330 METAR LROP 201330Z 04006KT 3000 -DZ BR BKN012 02/01 Q1022
                        NOSIG=
201811201400 METAR LROP 201400Z 04007KT 3400 -RA SCT014 02/01 Q1022 R88/29//95
                        NOSIG=
201811201430 METAR COR LROP 201430Z 06008KT 3500 -DZRA BR BKN013 02/01
                        Q1022 R88/29//95 NOSIG=
201811201500 METAR LROP 201500Z 08011KT 4000 BR BKN012 02/01 Q1022 R88/29//95
                        NOSIG=
201811201530 METAR LROP 201530Z 08011KT 4000 -DZ BR BKN008 OVC047 02/01
                        Q1021 R88/29//95 NOSIG=
201811201600 METAR LROP 201600Z 08012KT 3500 BR OVC008 02/01 Q1021 R88/29//95
                        NOSIG=
201811201630 METAR LROP 201630Z 09011KT 4000 BR BKN008 OVC010 02/01 Q1021
                        R88/29//95 NOSIG=
201811201700 METAR LROP 201700Z 09011KT 5000 BR OVC009 02/01 Q1022 R88/29//95
                        NOSIG=
201811201730 METAR LROP 201730Z 08012KT 5000 -DZ OVC009 02/01 Q1022 R88/29//95
                        NOSIG=
201811201800 METAR COR LROP 201800Z 07013KT 4000 -DZ BR BKN008 OVC010
                        02/01 Q1022 R88/29//95 NOSIG=
201811201830 METAR LROP 201830Z 07014KT 4000 DZ BR BKN007 OVC010 02/01
                        Q1022 R88/29//95 NOSIG=
201811201900 METAR LROP 201900Z 07017KT 3500 DZ BR BKN008 OVC009 01/01
                        Q1022 R88/29//95 BECMG 3000 DZ BR=
201811201930 METAR COR LROP 201930Z 06014KT 3000 DZ BR BKN005 OVC008 01/01
                        Q1022 R88/29//95 NOSIG=
201811202000 METAR LROP 202000Z 07014KT 2500 +DZ BR BKN004 OVC005 01/01
                        Q1022 R88/29//95 NOSIG=
201811202030 METAR LROP 202030Z 06016KT 2500 +DZ BR BKN005 OVC006 01/01
                        Q1021 R88/29//95 NOSIG=
201811202100 METAR LROP 202100Z 06015KT 2500 -RA BR BKN005 OVC006 01/00
                        Q1022 R88/29//95 NOSIG=
201811202130 METAR LROP 202130Z 06016KT 3000 -RA BR BKN005 OVC006 01/00
                        Q1022 R88/29//95 NOSIG=
201811202200 METAR LROP 202200Z 06016KT 3000 DZ BR BKN005 OVC006 01/00
                        Q1021 R88/29//95 NOSIG=
201811202230 METAR LROP 202230Z 06018KT 3000 DZ BR OVC005 01/00 Q1021
                        R88/29//95 NOSIG=
201811202300 METAR LROP 202300Z 06016KT 3000 DZ BR OVC005 01/00 Q1021
                        R88/29//95 NOSIG=
201811202330 METAR LROP 202330Z 06015KT 3000 DZ BR OVC005 01/00 Q1021
                        R88/29//95 NOSIG=
201811210000 METAR LROP 210000Z 06018KT 3500 DZ BR OVC005 01/00 Q1021
                        R88/29//95 NOSIG=
201811210030 METAR LROP 210030Z 06016KT 3500 -RA BR BKN004 OVC005 01/00
                        Q1020 R88/29//95 NOSIG=
201811210100 METAR LROP 210100Z 06020KT 3000 -RA BR BKN004 OVC005 01/00
                        Q1020 R88/29//95 NOSIG=
201811210130 METAR LROP 210130Z 06016KT 3500 -DZRA BR BKN004 OVC005 01/01
                        Q1020 R88/29//95 NOSIG=
201811210200 METAR LROP 210200Z 06016KT 4000 -DZRA BR BKN004 OVC007 01/01
                        Q1020 R88/29//95 NOSIG=
201811210230 METAR LROP 210230Z 06018KT 4000 -DZRA BR BKN004 OVC005 01/M00
                        Q1019 R88/29//95 NOSIG=
201811210300 METAR LROP 210300Z 06017KT 3000 DZRA OVC004 01/01 Q1019 R88/29//95
                        NOSIG=
201811210330 METAR LROP 210330Z 06017KT 4000 -DZRA BR BKN004 OVC005 01/01
                        Q1019 REDZRA R88/29//95 NOSIG=
201811210400 METAR COR LROP 210400Z 06017KT 5000 -DZRA BKN004 OVC005 01/01
                        Q1019 R88/29//95 NOSIG=
201811210430 METAR LROP 210430Z 06017KT 5000 -DZRA BR BKN004 OVC005 01/01
                        Q1018 R88/29//95 BECMG 3000 RADZ=
201811210500 METAR LROP 210500Z 06018KT 5000 -DZRA BR OVC005 01/M00 Q1018
                        R88/29//95 TEMPO 3000 RADZ=
201811210530 METAR LROP 210530Z 06016KT 4000 -DZRA BR OVC004 01/M00 Q1018
                        R88/29//95 TEMPO 3000 RADZ=
201811210600 METAR LROP 210600Z 06017KT 2500 -DZ BR OVC004 01/M00 Q1018
                        R88/29//95 NOSIG=
201811210630 METAR LROP 210630Z 06019KT 2500 -DZ BR OVC004 01/M00 Q1018
                        R88/29//95 NOSIG=
201811210700 METAR LROP 210700Z 05018KT 2000 -DZ BR OVC004 01/M00 Q1018
                        R88/29//95 NOSIG=
201811210730 METAR LROP 210730Z 05019KT 2000 -DZ BR OVC004 01/M00 Q1018
                        R88/29//95 NOSIG=
201811210800 METAR LROP 210800Z 06018KT 2000 -DZ BR OVC004 01/00 Q1018
                        R88/29//95 NOSIG=
201811210830 METAR LROP 210830Z 06019KT 1800 -DZ BR OVC004 01/00 Q1018
                        R88/29//95 NOSIG=
201811210900 METAR COR LROP 210900Z 05017KT 1500 -DZ BR SCT003 OVC004
                        01/00 Q1019 R88/29//95 TEMPO 06017G27KT=
201811210930 METAR LROP 210930Z 05017KT 2000 -DZ BR BKN003 OVC004 01/00
                        Q1018 R88/29//95 TEMPO 06017G27KT=
201811211000 METAR LROP 211000Z 05019KT 3000 -DZ BR BKN003 OVC005 01/00
                        Q1018 R88/29//95 TEMPO 06017G27KT=
201811211030 METAR LROP 211030Z 05019KT 4000 -DZ BR BKN004 OVC005 02/01
                        Q1018 R88/29//95 NOSIG=
201811211100 METAR LROP 211100Z 05019KT 4000 -DZ BR BKN004 OVC005 02/01
                        Q1018 R88/29//95 NOSIG=
201811211130 METAR LROP 211130Z 05017KT 4000 -DZ BR OVC005 02/01 Q1018
                        R88/29//95 NOSIG=
201811211200 METAR LROP 211200Z 05017KT 4000 -DZ BR OVC005 02/01 Q1018
                        WS ALL RWY R88/29//95 NOSIG=
201811211230 METAR LROP 211230Z 05020KT 5000 -RADZ BR BKN004 OVC005 02/01
                        Q1018 WS ALL RWY R88/29//95 NOSIG=
201811211300 METAR LROP 211300Z 05018KT 7000 -RADZ BKN005 OVC006 02/01
                        Q1018 WS ALL RWY R88/29//95 NOSIG=
201811211330 METAR LROP 211330Z 05018KT 4000 -RA BR BKN005 OVC006 02/01
                        Q1018 WS ALL RWY R88/29//95 BECMG
                        3000 -RA BR=
201811211400 METAR LROP 211400Z 05019KT 4000 -DZRA BR BKN005 OVC006 02/01
                        Q1018 WS ALL RWY R88/29//95 NOSIG=
201811211430 METAR LROP 211430Z 05019KT 4000 -DZRA BR BKN005 OVC006 02/01
                        Q1018 WS ALL RWY R88/29//95 NOSIG=
201811211500 METAR LROP 211500Z 05017KT 6000 -RADZ BKN005 OVC007 02/01
                        Q1018 WS ALL RWY R88/29//95 NOSIG=
201811211530 METAR LROP 211530Z 05018KT 5000 -RA BR BKN006 OVC008 02/01
                        Q1019 WS ALL RWY R88/29//95 NOSIG=
201811211600 METAR LROP 211600Z 05018KT 5000 -RA BR BKN006 OVC019 02/01
                        Q1019 WS ALL RWY R88/29//95 NOSIG=
201811211630 METAR LROP 211630Z 05019KT 5000 -RA BR BKN007 OVC017 02/01
                        Q1019 R88/29//95 NOSIG=
201811211700 METAR LROP 211700Z 05018KT 5000 -RA BR BKN008 OVC010 02/01
                        Q1019 R88/29//95 NOSIG=
201811211730 METAR COR LROP 211730Z 05018KT 8000 -RA BKN010 02/01 Q1020
                        R88/29//95 NOSIG=
201811211800 METAR LROP 211800Z 05017KT 9999 -RA BKN009 OVC020 02/01 Q1020
                        RMK WS R08R R88/29//95 NOSIG=
201811211830 METAR LROP 211830Z 05015KT 8000 -RA BKN011 BKN021 02/01 Q1020
                        RMK WS R08R R88/29//95 NOSIG=
201811211900 METAR LROP 211900Z 05015KT 9000 -RA BKN010 BKN022 01/01 Q1020
                        WS R08R R88/29//95 NOSIG=
201811211930 METAR COR LROP 211930Z 05015KT 9000 -RASN SCT009 OVC030 01/00
                        Q1021 WS R08R R88/29//95 NOSIG=
201811212000 METAR LROP 212000Z 05015KT 9999 -RASN FEW009 OVC026 01/00
                        Q1021 WS R08R R88/29//95 NOSIG=
201811212030 METAR LROP 212030Z 05015KT 9000 -SNRA SCT008 OVC028 01/00
                        Q1021 WS R08R R88/29//95 NOSIG=
201811212100 METAR LROP 212100Z 05017KT 8000 -SN SCT007 OVC027 01/M00
                        Q1021 R88/29//95 BECMG 5000 -SN BKN005
                        OVC025=
201811212130 METAR LROP 212130Z 05018KT 7000 -SN OVC006 01/M00 Q1021 R88/29//95
                        BECMG 5000 -SN=
201811212200 METAR LROP 212200Z 05018KT 7000 -SN BKN007 BKN021 OVC049
                        01/M00 Q1022 R88/29//95 BECMG 5000
                        -SN=
201811212230 METAR LROP 212230Z 05017KT 9999 -RASN BKN007 BKN041 01/M00
                        Q1022 R88/29//95 BECMG 5000 -SN=
201811212300 METAR LROP 212300Z 05016KT 9999 BKN007 OVC030 01/00 Q1022
                        R88/29//95 BECMG 5000 -SN=
201811212330 METAR LROP 212330Z 05015KT 9999 FEW009 OVC045 01/00 Q1022
                        R88/29//95 NOSIG=
201811220000 METAR LROP 220000Z 05016KT 9999 FEW045 01/00 Q1022 R88/29//95
                        BECMG 5000 -SN=
201811220030 METAR LROP 220030Z 05013KT 9999 SCT046 01/00 Q1022 R88/29//95
                        BECMG 5000 -SN=
201811220100 METAR COR LROP 220100Z 05014KT 9999 -SN OVC042 01/00 Q1022
                        R88/29//95 NOSIG=
201811220130 METAR LROP 220130Z 06014KT 9000 -SN BKN044 01/00 Q1023 R88/29//95=
201811220200 METAR LROP 220200Z 06013KT 8000 -SN BKN026 OVC037 01/00 Q1023
                        R88/29//95 NOSIG=
201811220230 METAR LROP 220230Z 05015KT 9000 -SN BKN027 OVC048 01/00 Q1023
                        R88/29//95 NOSIG=
201811220300 METAR LROP 220300Z 06013KT 8000 -SN OVC027 01/M00 Q1023 R88/29//95
                        NOSIG=
201811220330 METAR COR LROP 220330Z 06011KT 9000 -SN SCT026 OVC043 01/M00
                        Q1023 R88/29//95 NOSIG=
201811220400 METAR LROP 220400Z 06013KT 9000 -SN OVC018 01/00 Q1023 R88/29//95
                        NOSIG=
201811220430 METAR LROP 220430Z 06013KT 9999 -SN OVC018 01/00 Q1023 R88/29//95
                        NOSIG=
201811220500 METAR LROP 220500Z 06012KT 9999 -SN OVC017 01/M00 Q1024 R88/29//95
                        NOSIG=
201811220530 METAR LROP 220530Z 06012KT 8000 -SN OVC017 01/M00 Q1024 R88/29//95
                        NOSIG=
201811220600 METAR LROP 220600Z 06011KT 5000 -SN BR OVC017 01/M00 Q1024
                        R88/29//95 NOSIG=
201811220630 METAR LROP 220630Z 06011KT 5000 -SN BR OVC017 01/M00 Q1024
                        R88/29//95 NOSIG=
201811220700 METAR LROP 220700Z 06011KT 3000 -SN BR OVC017 01/M00 Q1024
                        R88/29//95 NOSIG=
201811220730 METAR LROP 220730Z 06010KT 3000 -SN BR FEW007 OVC018 01/M00
                        Q1025 R88/29//95 NOSIG=
201811220800 METAR LROP 220800Z 06011KT 4000 -SN BR SCT007 OVC018 01/00
                        Q1025 R88/29//95 NOSIG=
201811220830 METAR LROP 220830Z 06011KT 7000 -SN SCT008 OVC018 01/00 Q1025
                        R88/29//95 NOSIG=
201811220900 METAR LROP 220900Z 06013KT 8000 -SN SCT009 OVC020 02/01 Q1025
                        R88/29//95 NOSIG=
201811220930 METAR LROP 220930Z 06013KT 8000 -SN FEW010 SCT021 OVC031
                        02/01 Q1025 R88/29//95 NOSIG=
201811221000 METAR LROP 221000Z 06013KT 8000 FEW011 OVC033 02/01 Q1025
                        R88/29//95 NOSIG=
201811221030 METAR LROP 221030Z 06011KT 8000 SCT010 OVC034 02/01 Q1025
                        R88/29//95 NOSIG=
201811221100 METAR LROP 221100Z 05012KT 8000 FEW011 OVC034 02/01 Q1025
                        R88/29//95 NOSIG=
201811221130 METAR LROP 221130Z 05009KT 6000 -SN SCT010 OVC035 02/01 Q1025
                        R88/29//95 NOSIG=
201811221200 METAR COR LROP 221200Z 06009KT 7000 -SN SCT010 OVC035 02/01
                        Q1025 R88/29//95 NOSIG=
201811221230 METAR LROP 221230Z 07008KT 6000 -SN SCT010 OVC034 02/01 Q1025
                        R88/29//95 NOSIG=
201811221300 METAR LROP 221300Z 07008KT 7000 -SN SCT008 BKN037 02/01 Q1025
                        R88/29//95 NOSIG=
201811221330 METAR LROP 221330Z 08007KT 6000 -SN SCT007 BKN035 02/01 Q1025
                        R88/29//95 NOSIG=
201811221400 METAR LROP 221400Z 08005KT 6000 SCT008 BKN035 02/01 Q1025
                        R88/29//95 NOSIG=
201811221430 METAR LROP 221430Z 08004KT 6000 SCT008 BKN026 02/01 Q1025
                        R88/29//95 NOSIG=
201811221500 METAR LROP 221500Z 10003KT 5000 BR BKN008 OVC026 02/01 Q1025
                        R88/29//95 NOSIG=
201811221530 METAR LROP 221530Z 10003KT 5000 BR SCT010 OVC026 02/01 Q1025
                        R88/29//95 NOSIG=
201811221600 METAR COR LROP 221600Z 10003KT 6000 SCT010 OVC026 02/01 Q1025
                        R88/19//95 NOSIG=
201811221630 METAR LROP 221630Z 10003KT 6000 SCT009 OVC026 02/01 Q1025
                        R88/19//95 NOSIG=
201811221700 METAR LROP 221700Z 10003KT 6000 FEW009 OVC028 02/01 Q1026
                        R88/19//95 NOSIG=
201811221730 METAR LROP 221730Z 12002KT 5000 BR FEW008 OVC028 02/01 Q1026
                        R88/19//95 NOSIG=
201811221800 METAR LROP 221800Z 16002KT 6000 FEW008 OVC027 01/00 Q1026
                        R88/19//95 NOSIG=
201811221830 METAR LROP 221830Z 11002KT 6000 FEW009 OVC027 01/00 Q1026
                        R88/19//95 NOSIG=
201811221900 METAR LROP 221900Z 11002KT 5000 BR FEW012 OVC027 01/00 Q1026
                        R88/19//95 NOSIG=
201811221930 METAR LROP 221930Z 08002KT 5000 BR FEW009 OVC026 01/00 Q1026
                        R88/19//95 NOSIG=
201811222000 METAR LROP 222000Z 10002KT 5000 BR SCT010 BKN025 01/00 Q1026
                        R88/19//95 NOSIG=
201811222030 METAR LROP 222030Z 10003KT 5000 BR SCT010 OVC025 01/00 Q1026
                        R88/19//95 NOSIG=
201811222100 METAR LROP 222100Z 11003KT 6000 OVC024 01/00 Q1026 R88/19//95
                        NOSIG=
201811222130 METAR LROP 222130Z 00000KT 5000 BR OVC024 01/00 Q1026 R88/19//95
                        NOSIG=
201811222200 METAR LROP 222200Z 10002KT 6000 OVC023 01/00 Q1026 R88/19//95
                        NOSIG=
201811222230 METAR LROP 222230Z 11002KT 5000 BR FEW014 OVC022 01/00 Q1026
                        R88/19//95 NOSIG=
201811222300 METAR LROP 222300Z 00000KT 5000 BR BKN012 OVC022 01/00 Q1026
                        R88/19//95 NOSIG=
201811222330 METAR LROP 222330Z 13002KT 6000 SCT012 OVC019 01/00 Q1026
                        R88/19//95 NOSIG=
201811230000 METAR LROP 230000Z VRB01KT 5000 BR BKN018 OVC021 01/00 Q1026
                        R88/19//95 NOSIG=
201811230030 METAR LROP 230030Z 00000KT 5000 BR BKN010 OVC019 01/00 Q1026
                        R88/19//95 NOSIG=
201811230100 METAR LROP 230100Z 24001KT 5000 BR OVC010 01/00 Q1026 R88/19//95
                        NOSIG=
201811230130 METAR LROP 230130Z 24001KT 5000 BR SCT010 OVC017 01/00 Q1026
                        R88/19//95 NOSIG=
201811230200 METAR LROP 230200Z 00000KT 6000 SCT008 BKN017 OVC047 01/00
                        Q1026 R88/19//95 NOSIG=
201811230230 METAR LROP 230230Z 24003KT 5000 BR BKN006 OVC017 01/00 Q1026
                        R88/19//95 NOSIG=
201811230300 METAR LROP 230300Z 23004KT 5000 BR OVC007 01/00 Q1026 R88/19//95
                        NOSIG=
201811230330 METAR LROP 230330Z 23003KT 5000 BR OVC006 01/00 Q1026 R88/19//95
                        NOSIG=
201811230400 METAR LROP 230400Z 24004KT 5000 BR OVC006 01/00 Q1027 R88/19//95
                        NOSIG=
201811230430 METAR LROP 230430Z 23001KT 5000 BR SCT006 OVC016 01/00 Q1026
                        R88/19//95 NOSIG=
201811230500 METAR LROP 230500Z 22002KT 5000 BR OVC014 01/01 Q1027 R88/19//95
                        NOSIG=
201811230530 METAR LROP 230530Z 20001KT 3500 BR OVC015 02/01 Q1027 R88/19//95
                        NOSIG=
201811230600 METAR LROP 230600Z 00000KT 3500 BR OVC015 02/01 Q1027 R88/19//95
                        NOSIG=
201811230630 METAR LROP 230630Z 00000KT 4000 BR OVC015 02/01 Q1028 R88/19//95
                        NOSIG=
201811230700 METAR LROP 230700Z 11002KT 4000 BR OVC015 02/01 Q1028 R88/19//95
                        NOSIG=
201811230730 METAR LROP 230730Z VRB02KT 5000 BR OVC015 02/01 Q1028 R88/19//95
                        NOSIG=
201811230800 METAR LROP 230800Z VRB01KT 5000 BR SCT010 OVC015 03/02 Q1028
                        R88/19//95 NOSIG=
201811230830 METAR LROP 230830Z VRB02KT 5000 BR SCT010 OVC015 03/01 Q1028
                        R88/19//95 NOSIG=
201811230900 METAR LROP 230900Z 23004KT 6000 OVC015 04/01 Q1029 R88/19//95
                        NOSIG=
201811230930 METAR LROP 230930Z 25005KT 7000 OVC015 04/01 Q1028 R88/19//95
                        NOSIG=
201811231000 METAR LROP 231000Z 24004KT 210V300 7000 BKN013 OVC020 04/01
                        Q1028 R88/19//95 NOSIG=
201811231030 METAR LROP 231030Z 27004KT 8000 BKN013 SCT020 BKN048 04/00
                        Q1028 R88/19//95 NOSIG=
201811231100 METAR LROP 231100Z VRB02KT CAVOK 04/01 Q1028 R88/19//95 NOSIG=
201811231130 METAR LROP 231130Z VRB01KT 9000 FEW016 SCT047 04/01 Q1028
                        R88/19//95 NOSIG=
201811231200 METAR LROP 231200Z VRB01KT 9000 FEW016 SCT048 04/01 Q1028
                        R88/19//95 NOSIG=
201811231230 METAR LROP 231230Z VRB02KT 9000 FEW016 SCT048 04/01 Q1028
                        R88/19//95 NOSIG=
201811231300 METAR LROP 231300Z VRB01KT 8000 FEW015 SCT044 05/01 Q1028
                        R88/19//95 NOSIG=
201811231330 METAR LROP 231330Z VRB01KT 5000 BR FEW018 BKN044 05/02 Q1029
                        R88/19//95 NOSIG=
201811231400 METAR LROP 231400Z 08005KT 5000 BR SCT015 OVC018 04/02 Q1029
                        R88/19//95 NOSIG=
201811231430 METAR LROP 231430Z 09006KT 4500 BR BKN015 OVC018 04/02 Q1029
                        R88/19//95 NOSIG=
201811231500 METAR LROP 231500Z 09007KT 4500 BR BKN015 OVC017 04/03 Q1029
                        R88/19//95 NOSIG=
201811231530 METAR LROP 231530Z 09007KT 4500 BR SCT011 BKN015 OVC018 04/03
                        Q1029 R88/19//95 NOSIG=
201811231600 METAR LROP 231600Z 09009KT 4000 BR FEW005 BKN009 OVC010 03/02
                        Q1029 R88/19//95 NOSIG=
201811231630 METAR LROP 231630Z 09008KT 4000 BR BKN005 OVC009 03/02 Q1029
                        R88/19//95 NOSIG=
201811231700 METAR LROP 231700Z 09007KT 3500 BR OVC006 03/02 Q1030 R88/19//95
                        NOSIG=
201811231730 METAR LROP 231730Z 09008KT 3000 BR OVC005 02/01 Q1030 R88/19//95
                        NOSIG=
201811231800 METAR LROP 231800Z 09008KT 2500 BR OVC003 02/01 Q1030 R88/19//95
                        NOSIG=
201811231830 METAR COR LROP 231830Z 09007KT 2500 BR OVC003 02/01 Q1030
                        R88/CLRD// BECMG 1500 BR OVC002=
201811231900 METAR LROP 231900Z 08009KT 1200 R08R/1500 R26L/1300 R08L/1100
                        R26R/1100D PRFG OVC002 01/01 Q1030
                        R88/CLRD// NOSIG=
201811231930 METAR LROP 231930Z 09010KT 0250 R08R/0600N R26L/0750N R08L/0650N
                        R26R/0700N FG VV001 01/M00 Q1030
                        R88/CLRD// NOSIG=
201811232000 METAR LROP 232000Z 09008KT 0200 R08R/0550N R26L/0700N R08L/0550N
                        R26R/0650 FG VV001 01/M00 Q1030 NOSIG=
201811232030 METAR LROP 232030Z 09007KT 0200 R08R/0500N R26L/0650N R08L/0500N
                        R26R/0750N FG VV001 00/M01 Q1030
                        NOSIG=
201811232100 METAR LROP 232100Z 09008KT 0300 R08R/0600N R26L/0800N R08L/0600N
                        R26R/0750N FZFG VV002 M00/M01 Q1030
                        NOSIG=
201811232130 METAR LROP 232130Z 09007KT 0300 R08R/0650N R26L/0800N R08L/0600N
                        R26R/0900N FZFG VV002 M00/M01 Q1030
                        NOSIG=
201811232200 METAR LROP 232200Z 08007KT 0300 R08R/0650N R26L/0800U R08L/0800U
                        R26R/1100U FZFG VV002 M00/M01 Q1030
                        TEMPO 0600=
201811232230 METAR LROP 232230Z 09006KT 0500 R08R/1000U R26L/1000U R08L/1100N
                        R26R/1100D FZFG VV002 M01/M01 Q1030
                        TEMPO 0800 OVC002=
201811232300 METAR LROP 232300Z 10006KT 0600 R08R/1000D R26L/1300U R08L/1000N
                        R26R/1100D FZFG OVC001 M01/M02 Q1030
                        TEMPO 0800 OVC002=
201811232330 METAR LROP 232330Z 10007KT 0600 R08R/1100U R26L/1100U R08L/0900U
                        R26R/1000N FZFG OVC001 M01/M02 Q1030
                        NOSIG=
201811240000 METAR LROP 240000Z 10007KT 0600 R08R/1100U R26L/0900D R08L/0900N
                        R26R/1000N FZFG OVC001 M01/M02 Q1030
                        NOSIG=
201811240030 METAR LROP 240030Z 11006KT 0400 R08R/0800N R26L/1000N R08L/0900N
                        R26R/1000D FZFG OVC001 M01/M02 Q1030
                        NOSIG=
201811240100 METAR LROP 240100Z 11006KT 0500 R08R/1000U R26L/1100D R08L/0800D
                        R26R/0900N FZFG OVC001 M01/M02 Q1029
                        NOSIG=
201811240130 METAR LROP 240130Z 10006KT 0400 R08R/1200U R26L/1200U R08L/0800N
                        R26R/0800N FZFG VV001 M01/M02 Q1029
                        NOSIG=
201811240200 METAR LROP 240200Z 10006KT 0600 R08R/1300U R26L/1200U R08L/0800V1900U
                        R26R/0800V1900U FZFG VV001 M01/M02
                        Q1029 NOSIG=
201811240230 METAR COR LROP 240230Z 10006KT 1000 R08R/P2000 R26L/1700VP2000U
                        R08L/1200VP2000U R26R/0800V1700U
                        PRFG BR OVC001 M01/M02 Q1029 TEMPO
                        0600 FZFG=
201811240300 METAR LROP 240300Z 12005KT 1500 R08R/1500VP2000U R26L/1400V2000D
                        R08L/0800V1700D R26R/1600VP2000U
                        PRFG BR OVC001 M01/M02 Q1028 TEMPO
                        0600 FZFG=
201811240330 METAR COR LROP 240330Z 11003KT 1000 R08R/P2000 R26L/1300VP2000D
                        R08L/1300N R26R/1500U PRFG BR OVC001
                        M01/M02 Q1028 TEMPO 0600 FZFG=
201811240400 METAR LROP 240400Z 12003KT 1500 R08R/P2000 R26L/1000VP2000D
                        R08L/1000VP2000U R26R/1500VP2000U
                        PRFG BR OVC001 M01/M02 Q1028 TEMPO
                        0350 FZFG=
201811240430 METAR LROP 240430Z VRB01KT 1500 R08R/2000 R26L/P2000 R08L/0800N
                        R26R/1400N PRFG BR OVC002 M01/M02
                        Q1028 NOSIG=
201811240500 METAR LROP 240500Z 08001KT 2000 R08R/P2000 R26L/P2000 R08L/1700N
                        R26R/1400U PRFG BR OVC001 M01/M02
                        Q1028 NOSIG=
201811240530 METAR COR LROP 240530Z 09002KT 0800 R08R/1500N R26L/1800D
                        R08L/1400U R26R/1200D FZFG OVC001
                        M01/M02 Q1028 NOSIG=
201811240600 METAR LROP 240600Z 10004KT 0600 R08R/1300U R26L/1700U R08L/1800D
                        R26R/1000N FZFG OVC001 M01/M02 Q1028
                        NOSIG=
201811240630 METAR COR LROP 240630Z 14003KT 1500 BR OVC002 M01/M02 Q1028
                        NOSIG=
201811240700 METAR LROP 240700Z 13003KT 1600 BR OVC002 M01/M02 Q1028 NOSIG=
201811240730 METAR LROP 240730Z 14004KT 100V160 2500 BR OVC003 M01/M02
                        Q1027 NOSIG=
201811240800 METAR LROP 240800Z 11003KT 2700 BR OVC004 M01/M02 Q1027=
201811240830 METAR LROP 240830Z 09003KT 3500 BR OVC005 M00/M01 Q1027 BECMG
                        5000=
201811240900 METAR LROP 240900Z 13003KT 090V180 1800 BR OVC005 M00/M01
                        Q1027 BECMG 5000=
201811240930 METAR LROP 240930Z VRB01KT 2500 BR OVC006 00/M01 Q1027 BECMG
                        5000=
201811241000 METAR LROP 241000Z 15002KT 3500 BR OVC006 00/M01 Q1027 BECMG
                        5000 BKN010=
201811241030 METAR COR LROP 241030Z 00000KT 4600 BR BKN007 OVC049 01/01
                        Q1026 BECMG 5000 SCT010=
201811241100 METAR LROP 241100Z 00000KT 4600 BR BKN006 02/01 Q1026 BECMG
                        5000 SCT010=
201811241130 METAR LROP 241130Z 29003KT 260V330 4600 BR BKN008 02/01 Q1026
                        BECMG 5000 SCT010=
201811241200 METAR LROP 241200Z VRB02KT 4700 BR OVC009 02/01 Q1025 NOSIG=
201811241230 METAR LROP 241230Z 03001KT 4700 BR SCT009 OVC049 03/02 Q1025
                        NOSIG=
201811241300 METAR COR LROP 241300Z VRB02KT 5000 BR SCT010 03/02 Q1024
                        NOSIG=
201811241330 METAR LROP 241330Z 10003KT 4600 BR SCT011 BKN049 03/02 Q1024
                        NOSIG=
201811241400 METAR LROP 241400Z 08003KT 4600 BR FEW011 02/01 Q1024 NOSIG=
201811241430 METAR LROP 241430Z 06004KT 4000 BR NSC 02/01 Q1024 NOSIG=
201811241500 METAR LROP 241500Z 05004KT 4300 BR NSC 01/00 Q1024 BECMG
                        3000 BR=
201811241530 METAR LROP 241530Z 03004KT 4500 BR SCT012 01/M00 Q1024 BECMG
                        3000 BR=
201811241600 METAR LROP 241600Z 04003KT 4500 BR OVC010 01/M00 Q1024 BECMG
                        3000 BR=
201811241630 METAR LROP 241630Z 11002KT 4000 BR BKN009 00/M01 Q1023 BECMG
                        3000 BR=
201811241700 METAR LROP 241700Z 00000KT 3400 BR SCT008 M00/M01 Q1023 NOSIG=
201811241730 METAR COR LROP 241730Z 00000KT 3000 BR FEW006 SCT009 M00/M01
                        Q1023 BECMG 1500 BR=
201811241800 METAR LROP 241800Z 00000KT 3000 BR FEW006 M01/M01 Q1023 BECMG
                        1500 BR=
201811241830 METAR LROP 241830Z 00000KT 3000 BR NSC M01/M01 Q1023 BECMG
                        1500 BR=
201811241900 METAR LROP 241900Z 28001KT 3000 1200SE BR NSC M01/M01 Q1023
                        TEMPO 1500 BR=
201811241930 METAR LROP 241930Z VRB02KT 1500 BR BKN001 OVC002 M01/M01
                        Q1023 TEMPO 0800 FZFG=
201811242000 METAR LROP 242000Z 23004KT 0200 R08R/0200N R26L/0450N R08L/0550N
                        R26R/0800D FG VV001 00/M01 Q1023
                        NOSIG=
201811242030 METAR LROP 242030Z 23004KT 0300 R08R/0300N R26L/0300N R08L/0550N
                        R26R/0300N FG VV001 01/01 Q1022 NOSIG=
201811242100 METAR LROP 242100Z 23003KT 0300 R08R/0350U R26L/0350N R08L/0600U
                        R26R/0350N FG VV001 01/00 Q1022 NOSIG=
201811242130 METAR LROP 242130Z 24003KT 0300 R08R/0500U R26L/0450N R08L/0600N
                        R26R/0500N FG OVC001 01/01 Q1022
                        TEMPO 0600 BKN002=
201811242200 METAR LROP 242200Z 22003KT 0300 R08R/0400N R26L/0450N R08L/0550D
                        R26R/0550N FG VV001 02/01 Q1022 NOSIG=
201811242230 METAR LROP 242230Z 20004KT 0200 R08R/0400N R26L/0500N R08L/0550N
                        R26R/0450N FG VV001 02/01 Q1021 NOSIG=
201811242300 METAR LROP 242300Z 22004KT 0200 R08R/0400N R26L/0450D R08L/0550N
                        R26R/0500N FG VV001 02/01 Q1021 NOSIG=
201811242330 METAR LROP 242330Z 23004KT 0200 R08R/0350N R26L/0400N R08L/0550N
                        R26R/0600N FG VV002 01/01 Q1021 NOSIG=
201811250000 METAR LROP 250000Z 23004KT 0250 R08R/0450U R26L/0500U R08L/0500D
                        R26R/0600N FG VV001 01/00 Q1021 NOSIG=
201811250030 METAR LROP 250030Z 23005KT 0250 R08R/0500U R26L/0500N R08L/0500N
                        R26R/0600N FG VV001 01/00 Q1020 TEMPO
                        0150 FG=
201811250100 METAR LROP 250100Z 23005KT 0200 R08R/0250D R26L/0350N R08L/0300D
                        R26R/0400D FG VV001 02/01 Q1020 TEMPO
                        0150 FG=
201811250130 METAR LROP 250130Z 22004KT 0300 R08R/0300N R26L/0300N R08L/0500N
                        R26R/0500N FG VV001 02/02 Q1020 NOSIG=
201811250200 METAR LROP 250200Z 23005KT 0300 R08R/0300N R26L/0300N R08L/0300N
                        R26R/0300N FG BKN001 OVC002 02/02
                        Q1020 NOSIG=
201811250230 METAR LROP 250230Z 25006KT 0400 R08R/0550N R26L/0600N R08L/0550N
                        R26R/0600N FG BKN001 OVC002 02/02
                        Q1019 NOSIG=
201811250300 METAR LROP 250300Z 23006KT 0500 R08R/0600N R26L/0600N R08L/0600N
                        R26R/0750N FG BKN001 OVC002 02/02
                        Q1019 TEMPO 0600=
201811250330 METAR COR LROP 250330Z 25007KT 0600 R08R/0800U R26L/0800D
                        R08L/0800U R26R/0800U FG BKN001 OVC002
                        02/02 Q1019 TEMPO 0800=
201811250400 METAR LROP 250400Z 26007KT 0300 R08R/0500D R26L/0500N R08L/0600N
                        R26R/0600N FG BKN001 OVC002 02/02
                        Q1019 NOSIG=
201811250430 METAR LROP 250430Z 26008KT 0600 R08R/0800N R26L/0800N R08L/0800D
                        R26R/0800N FG BKN001 OVC002 02/02
                        Q1019 NOSIG=
201811250500 METAR LROP 250500Z 24007KT 0700 R08R/1300D R26L/1900U R08L/1500U
                        R26R/1300N FG BKN001 OVC002 02/01
                        Q1019 NOSIG=
201811250530 METAR LROP 250530Z 25004KT 0400 R08R/0800N R26L/0800D R08L/1300D
                        R26R/1000D FG OVC001 03/02 Q1019
                        NOSIG=
201811250600 METAR LROP 250600Z 25005KT 220V280 0400 R08R/1200D R26L/1000N
                        R08L/1700D R26R/1200N FG OVC001 03/02
                        Q1019 NOSIG=
201811250630 METAR LROP 250630Z 22005KT 0700 R08R/1900U R26L/1000N R08L/2000D
                        R26R/1000U FG BKN001 OVC002 03/02
                        Q1019 R88/19//95 BECMG 1500 BR BKN005=
201811250700 METAR LROP 250700Z 24006KT 190V270 0700 R08R/1700N R26L/1200N
                        R08L/P2000 R26R/2000D FG BKN001 OVC002
                        03/02 Q1019 R88/19//95 NOSIG=
201811250730 METAR LROP 250730Z 21005KT 0400 R08R/0800U R26L/0800U R08L/1300D
                        R26R/1200D FG OVC001 03/02 Q1018
                        R88/19//95 NOSIG=
201811250800 METAR LROP 250800Z 22005KT 200V260 0400 R08R/0800D R26L/0800U
                        R08L/1200D R26R/0800D FG OVC001 03/02
                        Q1018 R88/19//95 NOSIG=
201811250830 METAR LROP 250830Z 25007KT 0400 R08R/0800N R26L/0750D R08L/0800N
                        R26R/0800D FG OVC001 03/02 Q1019
                        R88/19//95 NOSIG=
201811250900 METAR LROP 250900Z 23005KT 0600 R08R/0800U R26L/1000U R08L/0800U
                        R26R/0800N FG OVC001 03/02 Q1018
                        R88/19//95 TEMPO 0800=
201811250930 METAR LROP 250930Z 22006KT 0600 R08R/0800N R26L/0800N R08L/1100D
                        R26R/1300U FG OVC001 03/02 Q1018
                        R88/19//95 TEMPO 0800=
201811251000 METAR COR LROP 251000Z 25006KT 1200 R08R/1700D R26L/0800U
                        R08L/1200U R26R/0800D BR OVC001 03/02
                        Q1018 R88/19//95 TEMPO 1500 BR BKN002=
201811251030 METAR LROP 251030Z 25004KT 210V280 0800 R08R/1200U R26L/1900D
                        R08L/1300N R26R/1300D FG BKN001 OVC002
                        03/02 Q1017 R88/19//95 NOSIG=
201811251100 METAR LROP 251100Z 21004KT 180V270 1500 BR BKN001 OVC002
                        03/02 Q1017 R88/19//95 TEMPO 3000
                        BKN005=
201811251130 METAR LROP 251130Z 20003KT 160V250 1700 BR BKN001 OVC002
                        03/02 Q1017 R88/19//95 NOSIG=
201811251200 METAR LROP 251200Z 21005KT 170V250 1600 BR OVC002 03/03 Q1016
                        R88/19//95 NOSIG=
201811251230 METAR LROP 251230Z 25004KT 1800 BR OVC003 03/03 Q1016 R88/19//95
                        NOSIG=
201811251300 METAR LROP 251300Z 30003KT 260V340 1800 BR OVC003 03/03 Q1016
                        R88/CLRD// NOSIG=
201811251330 METAR LROP 251330Z 17003KT 140V210 1500 BR BKN002 OVC003
                        03/03 Q1016 NOSIG=
201811251400 METAR LROP 251400Z 15003KT 1600 BR OVC002 03/02 Q1016 NOSIG=
201811251430 METAR LROP 251430Z VRB02KT 1600 BR OVC002 03/02 Q1015 BECMG
                        0800 FG OVC001=
201811251500 METAR LROP 251500Z 00000KT 1000 R08R/P2000 R08L/P2000 BR
                        BKN001 OVC002 03/02 Q1015 BECMG 0800
                        FG=
201811251530 METAR LROP 251530Z VRB02KT 1300 R08R/P2000 R26L/P2000 R08L/P2000
                        R26R/1600D BR OVC002 03/02 Q1015
                        BECMG 0800 FG=
201811251600 METAR COR LROP 251600Z 06004KT 0800 R08R/2000 R26L/0800D
                        R08L/1100N R26R/0800D FG BKN001 OVC002
                        03/02 Q1014 BECMG 0600 FG=
201811251630 METAR COR LROP 251630Z 07004KT 020V100 0500 R08R/0750D R26L/0800D
                        R08L/0800U R26R/0550D FG BKN001 OVC002
                        03/02 Q1015 BECMG 0350 FG=
201811251700 METAR LROP 251700Z 06005KT 0200 R08R/0650N R26L/0600N R08L/0650N
                        R26R/0600N FG VV002 03/02 Q1014 NOSIG=
201811251730 METAR LROP 251730Z 09005KT 0200 R08R/0550N R26L/0650N R08L/0550N
                        R26R/0500N FG VV002 03/02 Q1014 NOSIG=
201811251800 METAR LROP 251800Z 09004KT 060V120 0350 R08R/0600N R26L/1200N
                        R08L/0500N R26R/0600N FG VV002 02/02
                        Q1014 NOSIG=
201811251830 METAR LROP 251830Z 10005KT 0500 R08R/0700N R26L/0750D R08L/0600N
                        R26R/0800N FG VV002 02/02 Q1014 NOSIG=
201811251900 METAR LROP 251900Z 08006KT 0800 R08R/0900U R26L/0700N R08L/0700N
                        R26R/0750N FG VV002 02/02 Q1013 R88/19//95
                        NOSIG=
201811251930 METAR LROP 251930Z 05006KT 0600 R08R/0750N R26L/0900D R08L/0700U
                        R26R/0700N FG VV002 02/01 Q1013 R88/19//95
                        NOSIG=
201811252000 METAR LROP 252000Z 07007KT 0800 R08R/1000N R26L/0800U R08L/0750N
                        R26R/1000U FG VV002 02/01 Q1013 R88/19//95
                        NOSIG=
201811252030 METAR LROP 252030Z 04007KT 0700 R08R/0800N R26L/0800D R08L/1000U
                        R26R/0800N FG OVC001 02/01 Q1012
                        R88/19//95 NOSIG=
201811252100 METAR LROP 252100Z 04008KT 0800 R08R/1000U R26L/0750N R08L/0800D
                        R26R/0700N FG OVC001 02/01 Q1012
                        R88/19//95 NOSIG=
201811252130 METAR LROP 252130Z 06009KT 0800 R08R/0900U R26L/0750N R08L/0800N
                        R26R/0700N FG VV002 02/01 Q1012 R88/19//95
                        NOSIG=
201811252200 METAR LROP 252200Z 05008KT 0800 R08R/0900D R26L/0900N R08L/0900D
                        R26R/0900U FG VV002 02/01 Q1011 R88/19//95
                        NOSIG=
201811252230 METAR LROP 252230Z 05008KT 0900 R08R/0900D R26L/0700N R08L/1200U
                        R26R/0700N FG VV002 02/01 Q1011 R88/19//95
                        NOSIG=
201811252300 METAR LROP 252300Z 05008KT 0750 R08R/0900N R26L/0650N R08L/1400N
                        R26R/0700N FG VV001 02/01 Q1010 R88/19//95
                        NOSIG=
201811252330 METAR COR LROP 252330Z 06009KT 1100 R08R/1300U R26L/0900U
                        R08L/0700N R26R/1200D FG VV002 02/01
                        Q1010 R88/19//95 NOSIG=
201811260000 METAR LROP 260000Z 07007KT 0300 R08R/0700N R26L/0900N R08L/0650N
                        R26R/0800U FG VV002 02/01 Q1009 R88/19//95
                        NOSIG=
201811260030 METAR LROP 260030Z 07007KT 0500 R08R/0800N R26L/0900N R08L/0650N
                        R26R/0800U FG VV002 02/01 Q1009 R88/19//95
                        NOSIG=
201811260100 METAR LROP 260100Z 08007KT 0550 R08R/0650N R26L/0700N R08L/0650N
                        R26R/0700N FG VV002 02/01 Q1009 R88/19//95
                        NOSIG=
201811260130 METAR LROP 260130Z 11005KT 0200 R08R/0750N R26L/0800U R08L/0600N
                        R26R/0800N FG VV002 01/01 Q1008 R88/19//95
                        NOSIG=
201811260200 METAR LROP 260200Z 07006KT 0600 R08R/0800U R26L/1200U R08L/0800D
                        R26R/1000U FG VV002 01/00 Q1008 R88/19//95
                        NOSIG=
201811260230 METAR LROP 260230Z 06005KT 020V080 0600 R08R/0900N R26L/1100U
                        R08L/0800N R26R/1000N FG VV002 01/00
                        Q1007 R88/19//95 NOSIG=
201811260300 METAR LROP 260300Z 07007KT 0600 R08R/0900N R26L/1500U R08L/0800N
                        R26R/0900N FG VV002 01/00 Q1007 R88/19//95
                        NOSIG=
201811260330 METAR LROP 260330Z 06006KT 0800 R08R/1400U R26L/2000 R08L/0900N
                        R26R/1700D FG VV002 01/00 Q1007 R88/19//95
                        NOSIG=
201811260400 METAR LROP 260400Z 07005KT 1100 R08R/1600U R26L/1500D R08L/1100U
                        R26R/P2000 BR OVC002 01/00 Q1007
                        R88/19//95 NOSIG=
201811260430 METAR LROP 260430Z 07004KT 2000 BR BKN001 OVC002 01/00 Q1006
                        R88/CLRD//=
201811260500 METAR LROP 260500Z 08005KT 1000 R08R/1300VP2000N R26L/2000
                        R08L/P2000 R26R/P2000 BR BKN001 OVC002
                        01/00 Q1006 R88/CLRD// NOSIG=
201811260530 METAR LROP 260530Z 10004KT 1800 BR OVC002 01/00 Q1006 TEMPO
                        3000=
201811260600 METAR LROP 260600Z 09004KT 2500 BR OVC002 01/00 Q1006 BECMG
                        3000=
201811260630 METAR COR LROP 260630Z 09005KT 4000 -RA BR OVC002 01/00 Q1005
                        R88/19//95 NOSIG=
201811260700 METAR LROP 260700Z 10004KT 5000 -RA BR BKN003 BKN028 01/01
                        Q1005 R88/19//95 NOSIG=
201811260730 METAR LROP 260730Z 08004KT 4000 -RA BR BKN003 02/01 Q1005
                        R88/19//95 NOSIG=
201811260800 METAR LROP 260800Z 08005KT 5000 -RA BR BKN003 BKN027 02/01
                        Q1005 R88/19//95 NOSIG=
201811260830 METAR COR LROP 260830Z 07003KT 5000 -RA BR BKN003 OVC040
                        02/02 Q1005 R88/29//95 NOSIG=
201811260900 METAR LROP 260900Z 04005KT 5000 BR OVC004 03/02 Q1004 R88/29//95
                        NOSIG=
201811260930 METAR LROP 260930Z 03005KT 4000 BR BKN004 03/02 Q1004 R88/29//95
                        NOSIG=
201811261000 METAR LROP 261000Z 04004KT 5000 BR OVC004 03/02 Q1004 R88/29//95
                        NOSIG=
201811261030 METAR LROP 261030Z 02004KT 5000 BR BKN004 04/03 Q1003 R88/29//95
                        NOSIG=
201811261100 METAR LROP 261100Z 06005KT 5000 BR OVC004 04/03 Q1003 R88/29//95
                        NOSIG=
201811261130 METAR LROP 261130Z 04004KT 350V080 5000 BR OVC004 04/04 Q1003
                        R88/29//95 NOSIG=
201811261200 METAR LROP 261200Z 03005KT 5000 BR OVC005 05/04 Q1003 R88/29//95
                        NOSIG=
201811261230 METAR LROP 261230Z 05005KT 5000 BR OVC005 05/04 Q1002 R88/19//95
                        NOSIG=
201811261300 METAR LROP 261300Z 07005KT 4500 BR SCT005 05/04 Q1002 R88/19//95
                        NOSIG=
201811261330 METAR LROP 261330Z 08004KT 040V100 5000 BR FEW005 05/05 Q1002
                        R88/19//95 TEMPO 6000 NSW=
201811261400 METAR LROP 261400Z 11003KT 5000 BR FEW005 05/05 Q1002 R88/19//95
                        TEMPO 6000 NSW=
201811261430 METAR LROP 261430Z 07003KT 4500 BR FEW004 05/04 Q1002 R88/19//95
                        TEMPO 6000 NSW=
201811261500 METAR LROP 261500Z 05002KT 4000 BR FEW004 05/04 Q1002 R88/19//95
                        BECMG 3000 BR=
201811261530 METAR LROP 261530Z 09001KT 3000 BR FEW004 04/03 Q1003 R88/19//95
                        BECMG 1500 BR BKN005=
201811261600 METAR LROP 261600Z 07003KT 3000 BR FEW003 BKN005 04/04 Q1003
                        R88/19//95 NOSIG=
201811261630 METAR LROP 261630Z 06005KT 3000 BR SCT002 BKN004 05/04 Q1003
                        R88/19//95 BECMG 1500 BR BKN002=
201811261700 METAR COR LROP 261700Z 08003KT 0800 R08R/1100D R26L/0900D
                        R08L/0900D R26R/0800D FG BKN001 OVC002
                        05/04 Q1003 R88/19//95 BECMG 0350
                        FG=
201811261730 METAR LROP 261730Z 07005KT 0300 R08R/0500N R26L/0550N R08L/0600N
                        R26R/0500D FG OVC001 04/04 Q1003
                        R88/19//95 NOSIG=
201811261800 METAR LROP 261800Z 08004KT 0200 R08R/0500N R26L/0500N R08L/0500N
                        R26R/0450N FG VV001 05/04 Q1003 R88/19//95
                        NOSIG=
201811261830 METAR LROP 261830Z 07006KT 050V110 0200 R08R/0450N R26L/0700N
                        R08L/0700U R26R/0800D FG BKN001 OVC002
                        05/04 Q1003 R88/19//95 NOSIG=
201811261900 METAR LROP 261900Z 07006KT 0300 R08R/0900U R26L/0900N R08L/0700N
                        R26R/0800U FG BKN001 OVC002 04/03
                        Q1003 R88/19//95 NOSIG=
201811261930 METAR LROP 261930Z 04006KT 2500 BR BKN001 OVC002 04/03 Q1004
                        R88/19//95 TEMPO 3000 -RA BR=
201811262000 METAR LROP 262000Z 02002KT 3000 -SHRA BR BKN002 FEW040CB
                        04/03 Q1004 R88/19//95 NOSIG=
201811262030 METAR LROP 262030Z 09005KT 2000 -SHRA BR BKN002 FEW045CB
                        04/03 Q1004 R88/29//95 NOSIG=
201811262100 METAR LROP 262100Z 07010KT 3000 -RA BR BKN002 OVC005 04/03
                        Q1003 R88/29//95 NOSIG=
201811262130 METAR LROP 262130Z 08006KT 5000 BR BKN002 OVC008 03/03 Q1004
                        R88/29//95 NOSIG=
201811262200 METAR LROP 262200Z 09007KT 7000 BKN005 OVC009 03/02 Q1004
                        R88/29//95 NOSIG=
201811262230 METAR LROP 262230Z 10005KT 9000 BKN007 OVC010 03/02 Q1005
                        R88/29//95 NOSIG=
201811262300 METAR LROP 262300Z 11004KT 070V160 7000 -RA BKN010 OVC012
                        03/02 Q1006 R88/29//95 NOSIG=
201811262330 METAR LROP 262330Z 16007KT 7000 -RA BKN007 OVC010 03/02 Q1006
                        R88/29//95 NOSIG=
201811270000 METAR LROP 270000Z 11006KT 5000 -RA BR BKN008 OVC010 03/02
                        Q1005 R88/29//95 NOSIG=
201811270030 METAR LROP 270030Z 08007KT 5000 BR BKN004 OVC013 03/02 Q1005
                        R88/29//95 NOSIG=
201811270100 METAR LROP 270100Z 08006KT 5000 -RA BR BKN004 OVC012 03/02
                        Q1005 R88/29//95 NOSIG=
201811270130 METAR LROP 270130Z 09006KT 8000 SCT004 OVC012 03/02 Q1006
                        R88/29//95 NOSIG=
201811270200 METAR LROP 270200Z 08003KT 9999 SCT004 OVC012 03/02 Q1006
                        R88/29//95 NOSIG=
201811270230 METAR LROP 270230Z 12003KT 090V150 9999 SCT007 OVC014 03/02
                        Q1006 R88/29//95 NOSIG=
201811270300 METAR LROP 270300Z 14004KT 9999 OVC015 03/02 Q1006 R88/29//95
                        NOSIG=
201811270330 METAR LROP 270330Z 16004KT 9999 FEW007 OVC015 03/02 Q1006
                        R88/29//95 NOSIG=
201811270400 METAR LROP 270400Z VRB02KT 9999 OVC015 03/02 Q1007 R88/29//95
                        NOSIG=
201811270430 METAR LROP 270430Z 14002KT 9999 OVC013 03/02 Q1007 R88/29//95
                        NOSIG=
201811270500 METAR LROP 270500Z 14004KT 9999 OVC012 03/02 Q1007 R88/29//95
                        NOSIG=
201811270530 METAR LROP 270530Z 14003KT 9999 OVC010 03/02 Q1007 R88/29//95
                        NOSIG=
201811270600 METAR LROP 270600Z 11003KT 9999 OVC010 03/02 Q1008 R88/29//95
                        NOSIG=
201811270630 METAR LROP 270630Z 10004KT 9999 BKN010 OVC012 03/02 Q1008
                        R88/29//95 BECMG BKN015=
201811270700 METAR LROP 270700Z 09004KT 070V130 9999 SCT010 OVC013 03/02
                        Q1008 R88/29//95 BECMG BKN015=
201811270730 METAR LROP 270730Z 08005KT 9999 OVC010 04/03 Q1008 R88/29//95
                        BECMG BKN015=
201811270800 METAR LROP 270800Z 09006KT 9999 BKN010 OVC011 04/03 Q1008
                        R88/29//95 BECMG BKN015=
201811270830 METAR LROP 270830Z 09006KT 9999 SCT009 OVC010 04/03 Q1009
                        R88/29//95 NOSIG=
201811270900 METAR LROP 270900Z 08006KT 9999 SCT007 OVC009 04/03 Q1009
                        R88/29//95 NOSIG=
201811270930 METAR LROP 270930Z 08008KT 8000 SCT004 OVC007 04/04 Q1009
                        R88/29//95 NOSIG=
201811271000 METAR LROP 271000Z 09009KT 4000 BR OVC004 04/04 Q1009 R88/29//95
                        TEMPO 3000 BR=
201811271030 METAR COR LROP 271030Z 09008KT 2500 BR OVC003 04/04 Q1009
                        R88/29//95 NOSIG=
201811271100 METAR LROP 271100Z 07008KT 2500 BR OVC003 04/04 Q1009 R88/29//95
                        NOSIG=
201811271130 METAR LROP 271130Z 07007KT 2500 BR BKN003 OVC004 04/04 Q1009
                        R88/29//95 NOSIG=
201811271200 METAR LROP 271200Z 09007KT 3000 BR BKN003 OVC004 05/05 Q1009
                        R88/29//95 NOSIG=
201811271230 METAR LROP 271230Z 10008KT 6000 SCT003 OVC005 05/05 Q1010
                        R88/29//95 BECMG OVC010=
201811271300 METAR LROP 271300Z 09010KT 8000 BKN005 OVC008 05/04 Q1010
                        R88/29//95 BECMG OVC010=
201811271330 METAR LROP 271330Z 08009KT 9999 BKN009 OVC013 05/04 Q1010
                        R88/29//95 BECMG OVC015=
201811271400 METAR COR LROP 271400Z 08012KT 9999 SCT010 OVC014 05/04 Q1010
                        R88/29//95 NOSIG=
201811271430 METAR LROP 271430Z 08012KT 9999 BKN015 OVC020 05/04 Q1010
                        R88/19//95 NOSIG=
201811271500 METAR COR LROP 271500Z 08011KT 9999 -RA SCT015 OVC021 05/04
                        Q1010 R88/19//95 BECMG 5000 -RA=
201811271530 METAR LROP 271530Z 07013KT 9999 -RA OVC023 04/03 Q1011 R88/19//95
                        BECMG 5000 -RA=
201811271600 METAR COR LROP 271600Z 06013KT 9999 -RA SCT015 BKN022 OVC030
                        04/03 Q1011 R88/29//95 BECMG 5000
                        -RA=
201811271630 METAR LROP 271630Z 07016KT 9999 -RA BKN020 OVC030 03/02 Q1011
                        R88/29//95 BECMG 5000 -RA=
201811271700 METAR LROP 271700Z 08015KT 9999 -RA FEW028 SCT042 03/02 Q1011
                        R88/29//95 BECMG 5000 -RA=
201811271730 METAR LROP 271730Z 08014KT 9999 -RA SCT032 03/02 Q1011 R88/29//95
                        NOSIG=
201811271800 METAR LROP 271800Z 08014KT 9999 -RA NSC 03/02 Q1011 R88/29//95
                        NOSIG=
201811271830 METAR LROP 271830Z 08015KT 9999 -RA NSC 03/02 Q1011 R88/29//95
                        NOSIG=
201811271900 METAR LROP 271900Z 08017KT 9999 FEW043 02/01 Q1012 R88/29//95
                        NOSIG=
201811271930 METAR LROP 271930Z 08014KT 9999 FEW042 02/01 Q1012 R88/29//95
                        NOSIG=
201811272000 METAR COR LROP 272000Z 08016KT 9999 -RA FEW038 02/01 Q1012
                        R08R/19//95 R08L/29//95 NOSIG=
201811272030 METAR LROP 272030Z 08017KT 9999 -RA OVC038 02/01 Q1012 R08R/19//95
                        R08L/29//95 NOSIG=
201811272100 METAR COR LROP 272100Z 08017KT 9999 -RASN FEW011 SCT040 02/01
                        Q1013 R08R/29//95 R08L/29//95 NOSIG=
201811272130 METAR LROP 272130Z 08017KT 9999 -RASN SCT011 OVC042 01/00
                        Q1013 R08R/29//95 R08L/29//95 NOSIG=
201811272200 METAR LROP 272200Z 07017KT 8000 -RASN SCT010 OVC037 01/00
                        Q1013 R08R/29//95 R08L/29//95 NOSIG=
201811272230 METAR LROP 272230Z 08016KT 9999 -RASN SCT010 BKN027 01/00
                        Q1013 R08R/29//95 R08L/29//95 BECMG
                        07020G30KT 5000 -SN BKN010 OVC025=
201811272300 METAR LROP 272300Z 08016KT 9999 -RASN SCT011 OVC025 01/00
                        Q1013 R08R/29//95 R08L/29//95 BECMG
                        08020G30KT 5000 -SN BKN010 OVC025=
201811272330 METAR LROP 272330Z 08016KT 8000 -RASN SCT010 OVC025 01/M00
                        Q1013 R08R/29//95 R08L/29//95 BECMG
                        08020G30KT 5000 -SN BKN010 OVC025=
201811280000 METAR LROP 280000Z 08015KT 9999 RASN FEW011 OVC025 01/M00
                        Q1013 R08R/29//95 R08L/29//95 TEMPO
                        08015G25KT 5000 -SN BKN010 OVC025=
201811280030 METAR LROP 280030Z 08015KT 8000 -RASN OVC025 01/M00 Q1013
                        R08R/29//95 R08L/29//95 TEMPO 08015G25KT
                        3000 SN BKN005 OVC025=
201811280100 METAR LROP 280100Z 08017KT 9999 -RASN OVC025 01/M00 Q1013
                        R08R/29//95 R08L/29//95 TEMPO 08017G27KT
                        5000 SN BKN005 OVC025=
201811280130 METAR LROP 280130Z 07016KT 9999 -RASN OVC026 01/M00 Q1013
                        R08R/29//95 R08L/29//95 NOSIG=
201811280200 METAR LROP 280200Z 07017KT 9999 -PL OVC025 01/M00 Q1013 R08R/29//95
                        R08L/29//95 NOSIG=
201811280230 METAR LROP 280230Z 07015KT 9000 -SN PL OVC024 00/M01 Q1014
                        R08R/29//95 R08L/29//95 NOSIG=
201811280300 METAR LROP 280300Z 07017KT 7000 -SN OVC024 00/M01 Q1014 R08R/29//95
                        R08L/29//95 NOSIG=
201811280330 METAR LROP 280330Z 07016KT 7000 -SN OVC025 00/M01 Q1014 R08R/29//95
                        R08L/29//95 NOSIG=
201811280400 METAR LROP 280400Z 07019KT 7000 -SN OVC029 00/M01 Q1014 R08R/29//95
                        R08L/29//95 NOSIG=
201811280430 METAR LROP 280430Z 07015KT 7000 -SN OVC030 M00/M01 Q1014
                        R08R/29//95 R08L/29//95 NOSIG=
201811280500 METAR LROP 280500Z 08016KT 3000 SN BR OVC030 M01/M02 Q1015
                        R08R/29//95 R08L/29//95 TEMPO 1500
                        SN BKN010 OVC030=
201811280530 METAR LROP 280530Z 07017KT 1900 SN BR FEW007 OVC013 M01/M02
                        Q1015 R08R/690294 R08L/690294 TEMPO
                        1500 SN BKN010 OVC030=
201811280600 METAR COR LROP 280600Z 08017KT 1300 R08R/1700N R26L/1700D
                        R08L/1800N R26R/1800D SN BR OVC006
                        M02/M02 Q1017 R08R/690294 R08L/690294
                        TEMPO 0800 SN BKN010 OVC030=
201811280630 METAR LROP 280630Z 08017KT 0800 R08R/1700D R26L/1700D R08L/1700D
                        R26R/1700D SN BLSN OVC006 M02/M02
                        Q1017 R08R/690294 R08L/690294 NOSIG=
201811280700 METAR LROP 280700Z 07020KT 0800 R08R/1300U R26L/1500N R08L/1700U
                        R26R/2000U SN BLSN BKN019 OVC027
                        M02/M03 Q1017 R08R/690393 R08L/690294
                        NOSIG=
201811280730 METAR COR LROP 280730Z 08021KT 2400 -SN BR OVC035 M02/M02
                        Q1018 R08R/690393 R08L/690294 NOSIG=
201811280800 METAR LROP 280800Z 07018KT 5000 -SN BR OVC033 M01/M02 Q1018
                        R08R/690393 R08L/690294 NOSIG=
201811280830 METAR LROP 280830Z 07017KT 8000 -SN OVC038 M01/M02 Q1019
                        R08R/690393 R08L/690294 NOSIG=
201811280900 METAR LROP 280900Z 07016KT 9000 OVC050 M01/M02 Q1019 R08R/29//94
                        R08L/650194 NOSIG=
201811280930 METAR LROP 280930Z 07015KT CAVOK M01/M03 Q1020 R08R/29//94
                        R08L/650194 NOSIG=
201811281000 METAR LROP 281000Z 07017KT CAVOK M02/M03 Q1020 R08R/29//95
                        R08L/29//95 NOSIG=
201811281030 METAR LROP 281030Z 07017KT 9999 BKN034 OVC041 M01/M03 Q1020
                        R08R/29//95 R08L/29//95 NOSIG=
201811281100 METAR LROP 281100Z 07017KT 9999 BKN037 M01/M03 Q1021 R08R/29//95
                        R08L/29//95 NOSIG=
201811281130 METAR LROP 281130Z 08017KT 9999 BKN049 M01/M03 Q1021 R08R/29//95
                        R08L/29//95 NOSIG=
201811281200 METAR LROP 281200Z 07017KT 9999 SCT046 M01/M03 Q1021 R08R/29//95
                        R08L/29//95 NOSIG=
201811281230 METAR LROP 281230Z 06018KT CAVOK M00/M03 Q1021 R08R/29//95
                        R08L/29//95 NOSIG=
201811281300 METAR LROP 281300Z 07016KT CAVOK M00/M03 Q1021 R08R/29//95
                        R08L/29//95 NOSIG=
201811281330 METAR LROP 281330Z 06015KT CAVOK M00/M03 Q1022 R08R/29//95
                        R08L/29//95 NOSIG=
201811281400 METAR LROP 281400Z 07016KT CAVOK M00/M03 Q1023 R08R/29//95
                        R08L/29//95 NOSIG=
201811281430 METAR LROP 281430Z 07013KT CAVOK M01/M03 Q1023 R08R/29//95
                        R08L/29//95 NOSIG=
201811281500 METAR LROP 281500Z 08013KT CAVOK M01/M03 Q1024 R08R/29//95
                        R08L/29//95 NOSIG=
201811281530 METAR LROP 281530Z 07012KT CAVOK M00/M03 Q1024 R08R/29//95
                        R08L/29//95 NOSIG=
201811281600 METAR LROP 281600Z 08012KT CAVOK M01/M03 Q1025 R08R/29//95
                        R08L/29//95 NOSIG=
201811281630 METAR LROP 281630Z 08011KT CAVOK M01/M03 Q1025 R08R/29//95
                        R08L/29//95 NOSIG=
201811281700 METAR LROP 281700Z 08012KT CAVOK M00/M03 Q1026 R88/19//95
                        NOSIG=
201811281730 METAR LROP 281730Z 07013KT CAVOK M01/M03 Q1026 R08R/29//95
                        R08L/29//95 NOSIG=
201811281800 METAR LROP 281800Z 07012KT CAVOK M01/M04 Q1027 R08R/29//95
                        R08L/29//95 NOSIG=
201811281830 METAR LROP 281830Z 06011KT CAVOK M01/M04 Q1027 R08R/29//95
                        R08L/29//95 NOSIG=
201811281900 METAR LROP 281900Z 06012KT CAVOK M01/M04 Q1028 R08R/29//95
                        R08L/29//95 NOSIG=
201811281930 METAR LROP 281930Z 06010KT CAVOK M01/M04 Q1028 R08R/29//95
                        R08L/29//95 NOSIG=
201811282000 METAR LROP 282000Z 07010KT CAVOK M01/M04 Q1029 R08R/29//95
                        R08L/29//95 NOSIG=
201811282030 METAR LROP 282030Z 06008KT CAVOK M01/M04 Q1029 R08R/29//95
                        R08L/29//95 NOSIG=
201811282100 METAR LROP 282100Z 07009KT CAVOK M01/M04 Q1030 R08R/29//95
                        R08L/29//95 NOSIG=
201811282130 METAR LROP 282130Z 07011KT CAVOK M01/M04 Q1030 R08R/29//95
                        R08L/29//95 NOSIG=
201811282200 METAR LROP 282200Z 07011KT CAVOK M01/M05 Q1030 R08R/29//95
                        R08L/29//95 NOSIG=
201811282230 METAR LROP 282230Z 06011KT CAVOK M01/M05 Q1030 R08R/29//95
                        R08L/29//95 NOSIG=
201811282300 METAR LROP 282300Z 05009KT CAVOK M01/M06 Q1031 R08R/29//95
                        R08L/29//95 NOSIG=
201811282330 METAR LROP 282330Z 06009KT CAVOK M02/M07 Q1031 R08R/29//95
                        R08L/29//95 NOSIG=
201811290000 METAR LROP 290000Z 08007KT CAVOK M03/M06 Q1032 R08R/29//95
                        R08L/29//95 NOSIG=
201811290030 METAR LROP 290030Z 08009KT CAVOK M03/M07 Q1032 R08R/29//95
                        R08L/29//95 NOSIG=
201811290100 METAR LROP 290100Z 07008KT CAVOK M03/M07 Q1032 R08R/29//95
                        R08L/29//95 NOSIG=
201811290130 METAR LROP 290130Z 07008KT CAVOK M04/M07 Q1033 R08R/29//95
                        R08L/29//95 NOSIG=
201811290200 METAR LROP 290200Z 06012KT CAVOK M03/M07 Q1033 R08R/29//95
                        R08L/29//95 NOSIG=
201811290230 METAR LROP 290230Z 05014KT CAVOK M03/M08 Q1033 R08R/29//95
                        R08L/29//95 NOSIG=
201811290300 METAR LROP 290300Z 05017KT CAVOK M03/M09 Q1033 R08R/29//95
                        R08L/29//95 NOSIG=
201811290330 METAR LROP 290330Z 05016KT CAVOK M04/M09 Q1034 R08R/29//95
                        R08L/29//95 NOSIG=
201811290400 METAR LROP 290400Z 05014KT CAVOK M04/M09 Q1034 R08R/29//95
                        R08L/29//95 NOSIG=
201811290430 METAR LROP 290430Z 06013KT CAVOK M03/M08 Q1035 R08R/29//95
                        R08L/29//95 NOSIG=
201811290500 METAR LROP 290500Z 06013KT CAVOK M03/M08 Q1035 R08R/29//95
                        R08L/29//95 NOSIG=
201811290530 METAR LROP 290530Z 06013KT CAVOK M03/M08 Q1035 R08R/29//95
                        R08L/29//95 NOSIG=
201811290600 METAR LROP 290600Z 06016KT CAVOK M03/M08 Q1036 R08R/19//95
                        R08L/19//95 NOSIG=
201811290630 METAR LROP 290630Z 06018KT CAVOK M03/M08 Q1036 R08R/19//95
                        R08L/19//95 NOSIG=
201811290700 METAR LROP 290700Z 06016KT CAVOK M03/M08 Q1037 R08R/19//95
                        R08L/19//95 NOSIG=
201811290730 METAR LROP 290730Z 06016KT CAVOK M03/M07 Q1037 R08R/19//95
                        R08L/19//95 NOSIG=
201811290800 METAR LROP 290800Z 07015KT CAVOK M03/M07 Q1037 R08R/19//95
                        NOSIG=
201811290830 METAR LROP 290830Z 07015KT CAVOK M02/M07 Q1037 R08R/19//95
                        NOSIG=
201811290900 METAR LROP 290900Z 06012KT CAVOK M02/M07 Q1037 R08R/19//95
                        NOSIG=
201811290930 METAR LROP 290930Z 07013KT 9999 FEW028 M02/M06 Q1037 R08R/19//95
                        NOSIG=
201811291000 METAR LROP 291000Z 07016KT 9999 FEW027 M02/M06 Q1037 R08R/19//95
                        R08L/19//95 NOSIG=
201811291030 METAR LROP 291030Z 07015KT 9999 FEW027 M02/M06 Q1037 R08R/19//95
                        R08L/19//95 NOSIG=
201811291100 METAR LROP 291100Z 08017KT 9999 FEW030 M02/M06 Q1037 R08R/19//95
                        R08L/19//95 NOSIG=
201811291130 METAR LROP 291130Z 08015KT 9999 FEW030 M01/M06 Q1037 R08R/19//95
                        R08L/19//95 NOSIG=
201811291200 METAR LROP 291200Z 07017KT 9999 FEW030 M02/M07 Q1036 R08R/19//95
                        R08L/19//95 NOSIG=
201811291230 METAR LROP 291230Z 07018KT CAVOK M02/M07 Q1036 R08R/19//95
                        R08L/19//95 NOSIG=
201811291300 METAR LROP 291300Z 07017KT CAVOK M02/M07 Q1036 R08R/19//95
                        R08L/19//95 NOSIG=
201811291330 METAR LROP 291330Z 07020KT CAVOK M03/M08 Q1036 R08R/19//95
                        R08L/19//95 NOSIG=
201811291400 METAR LROP 291400Z 08019KT CAVOK M03/M08 Q1036 R08R/19//95
                        R08L/19//95 NOSIG=
201811291430 METAR LROP 291430Z 07018KT CAVOK M04/M09 Q1036 R08R/19//95
                        R08L/19//95 NOSIG=
201811291500 METAR LROP 291500Z 07016KT CAVOK M04/M09 Q1037 R08R/19//95
                        R08L/19//95 NOSIG=
201811291530 METAR LROP 291530Z 07016KT CAVOK M05/M09 Q1037 R08R/19//95
                        R08L/19//95 NOSIG=
201811291600 METAR LROP 291600Z 06019KT CAVOK M05/M10 Q1037 R08R/19//95
                        R08L/19//95 NOSIG=
201811291630 METAR LROP 291630Z 06018KT CAVOK M05/M10 Q1037 R08R/19//95
                        R08L/19//95 NOSIG=
201811291700 METAR LROP 291700Z 06019KT CAVOK M05/M10 Q1037 R08R/19//95
                        R08L/19//95 NOSIG=
201811291730 METAR LROP 291730Z 05017KT 9999 SCT046 M05/M10 Q1037 R08R/19//95
                        R08L/19//95 NOSIG=
201811291800 METAR LROP 291800Z 05017KT 9999 BKN046 M05/M10 Q1037 R08R/19//95
                        R08L/19//95 NOSIG=
201811291830 METAR LROP 291830Z 04015KT 9999 BKN045 M05/M10 Q1037 R88/CLRD//
                        NOSIG=
201811291900 METAR LROP 291900Z 04014KT CAVOK M05/M10 Q1037 NOSIG=
201811291930 METAR LROP 291930Z 04014KT CAVOK M05/M10 Q1037 NOSIG=
201811292000 METAR LROP 292000Z 03014KT CAVOK M05/M10 Q1037 NOSIG=
201811292030 METAR LROP 292030Z 04011KT CAVOK M05/M10 Q1037 NOSIG=
201811292100 METAR LROP 292100Z 04009KT CAVOK M06/M11 Q1037 NOSIG=
201811292130 METAR LROP 292130Z 04007KT CAVOK M06/M11 Q1037 NOSIG=
201811292200 METAR LROP 292200Z 05006KT CAVOK M06/M11 Q1036 NOSIG=
201811292230 METAR LROP 292230Z 06004KT CAVOK M07/M11 Q1036 NOSIG=
201811292300 METAR LROP 292300Z 06005KT CAVOK M07/M11 Q1036 NOSIG=
201811292330 METAR LROP 292330Z 04004KT 9999 BKN043 M07/M10 Q1035 NOSIG=
201811300000 METAR LROP 300000Z 07005KT 9999 FEW036 BKN048 M07/M11 Q1035
                        NOSIG=
201811300030 METAR LROP 300030Z 06007KT 9999 SCT045 M06/M10 Q1035 NOSIG=
201811300100 METAR LROP 300100Z 04008KT CAVOK M06/M10 Q1035 NOSIG=
201811300130 METAR LROP 300130Z 04009KT CAVOK M05/M10 Q1034 NOSIG=
201811300200 METAR LROP 300200Z 04011KT CAVOK M05/M09 Q1034 NOSIG=
201811300230 METAR LROP 300230Z 04009KT 9999 FEW044 M06/M09 Q1034 NOSIG=
201811300300 METAR LROP 300300Z 04007KT 9999 BKN042 M06/M10 Q1033 NOSIG=
201811300330 METAR LROP 300330Z 03008KT CAVOK M06/M09 Q1033 NOSIG=
201811300400 METAR LROP 300400Z 02007KT CAVOK M05/M09 Q1033 NOSIG=
201811300430 METAR COR LROP 300430Z 03007KT CAVOK M05/M09 Q1033 NOSIG=
201811300500 METAR LROP 300500Z 04007KT CAVOK M05/M09 Q1032 NOSIG=
201811300530 METAR LROP 300530Z 02005KT CAVOK M05/M09 Q1032 NOSIG=
201811300600 METAR LROP 300600Z 01004KT CAVOK M06/M09 Q1032 NOSIG=
201811300630 METAR LROP 300630Z 00000KT CAVOK M06/M09 Q1032 NOSIG=
201811300700 METAR COR LROP 300700Z 03003KT 350V060 9999 BKN047 M05/M10
                        Q1032 NOSIG=
201811300730 METAR LROP 300730Z 07003KT 040V110 9999 BKN048 M05/M10 Q1032
                        NOSIG=
201811300800 METAR LROP 300800Z 02003KT 9999 BKN047 M04/M10 Q1032 NOSIG=
201811300830 METAR LROP 300830Z 26004KT 9999 BKN048 M04/M10 Q1031 NOSIG=
201811300900 METAR LROP 300900Z 25003KT CAVOK M03/M10 Q1031 NOSIG=
201811300930 METAR LROP 300930Z VRB02KT CAVOK M03/M11 Q1030 NOSIG=
201811301000 METAR LROP 301000Z 24004KT 170V280 CAVOK M03/M11 Q1030 NOSIG=
201811301030 METAR LROP 301030Z 26003KT 210V350 CAVOK M02/M11 Q1029 NOSIG=
201811301100 METAR LROP 301100Z 25004KT 220V280 CAVOK M01/M10 Q1029 NOSIG=
201811301130 METAR LROP 301130Z 26004KT 230V290 CAVOK M02/M11 Q1028 NOSIG=
201811301200 METAR LROP 301200Z 26006KT CAVOK M01/M10 Q1028 NOSIG=
201811301230 METAR LROP 301230Z 24006KT CAVOK M01/M10 Q1027 NOSIG=
201811301300 METAR LROP 301300Z 26007KT CAVOK M02/M09 Q1027 NOSIG=
201811301330 METAR LROP 301330Z 26007KT CAVOK M02/M09 Q1027 NOSIG=
201811301400 METAR LROP 301400Z 25006KT CAVOK M03/M08 Q1027 NOSIG=
201811301430 METAR LROP 301430Z 24006KT CAVOK M03/M08 Q1027 NOSIG=
201811301500 METAR LROP 301500Z 24006KT CAVOK M04/M07 Q1027 NOSIG=
201811301530 METAR LROP 301530Z 23006KT CAVOK M05/M07 Q1027 NOSIG=
201811301600 METAR LROP 301600Z 22007KT 8000 NSC M06/M07 Q1027 NOSIG=
201811301630 METAR LROP 301630Z 22006KT 7000 NSC M06/M07 Q1027 NOSIG=
201811301700 METAR LROP 301700Z 23004KT 7000 NSC M07/M08 Q1027 NOSIG=
201811301730 METAR LROP 301730Z 21004KT 7000 NSC M07/M08 Q1026 NOSIG=
201811301800 METAR LROP 301800Z 20004KT 6000 NSC M07/M08 Q1026 NOSIG=
201811301830 METAR LROP 301830Z 14004KT 5000 BR NSC M07/M08 Q1026 NOSIG=
201811301900 METAR LROP 301900Z 15004KT 5000 BR FEW033 M08/M09 Q1026 NOSIG=
201811301930 METAR LROP 301930Z 15004KT 5000 BR FEW036 M08/M09 Q1026 NOSIG=
201811302000 METAR LROP 302000Z 20004KT 5000 BR SCT037 M08/M09 Q1026 NOSIG=
201811302030 METAR LROP 302030Z 19005KT 5000 BR FEW036 M08/M09 Q1025 NOSIG=
201811302100 METAR LROP 302100Z 20004KT 5000 BR NSC M09/M10 Q1025 NOSIG=
201811302130 METAR LROP 302130Z 20003KT 5000 BR NSC M09/M10 Q1025 NOSIG=
201811302200 METAR LROP 302200Z 21004KT 5000 BR NSC M09/M10 Q1025 NOSIG=
201811302230 METAR LROP 302230Z 21004KT 5000 BR NSC M10/M11 Q1025 NOSIG=
201811302300 METAR LROP 302300Z 22003KT 5000 BR NSC M10/M11 Q1024 NOSIG=
201811302330 METAR LROP 302330Z 23004KT 5000 BR NSC M10/M11 Q1024 NOSIG=

