201811010233 TAF AMD LROP 010233Z 0102/0124 07012KT 1500 BR OVC003
                      TEMPO 0103/0107 0600 FG OVC002
                      PROB30 0103/0105 0300 FG OVC001
                      BECMG 0107/0109 5000 BKN010
                      BECMG 0109/0111 9999 NSW SCT025=
201811010500 TAF LROP 010500Z 0106/0206 07010KT 5000 BR OVC005
                      TEMPO 0106/0108 1500 BR OVC002
                      BECMG 0108/0110 9999 NSW SCT025
                      TEMPO 0200/0206 3000 BR BKN010=
201811011100 TAF LROP 011100Z 0112/0212 07010KT 9999 BKN020
                      TEMPO 0112/0114 BKN015
                      TEMPO 0200/0206 3000 BR BKN010=
201811011700 TAF LROP 011700Z 0118/0218 06008KT 9999 BKN030
                      PROB30 TEMPO 0123/0205 5000 -RA BR BKN010
                       OVC020=
201811012300 TAF LROP 012300Z 0200/0224 06008KT 9999 SCT030
                      PROB30 TEMPO 0200/0205 5000 -RA BR BKN010
                       OVC020=
201811020500 TAF LROP 020500Z 0206/0306 06008KT 9999 SCT020
                      TEMPO 0206/0209 BKN015=
201811021100 TAF LROP 021100Z 0212/0312 06008KT CAVOK=
201811021700 TAF LROP 021700Z 0218/0318 06008KT CAVOK
                      TEMPO 0301/0306 3000 BR BKN010=
201811022300 TAF LROP 022300Z 0300/0324 06008KT CAVOK
                      TEMPO 0301/0306 3000 BR BKN010=
201811030500 TAF LROP 030500Z 0306/0406 06008KT 9999 OVC015
                      BECMG 0308/0310 NSC
                      BECMG 0321/0323 5000 BR BKN010
                      TEMPO 0400/0406 1500 BR OVC005
                      PROB30 TEMPO 0402/0405 0500 FG OVC002=
201811031100 TAF LROP 031100Z 0312/0412 08008KT 9999 SCT025
                      BECMG 0321/0323 5000 BR BKN010
                      BECMG 0400/0402 1500 BR OVC005
                      TEMPO 0402/0406 0350 FG OVC001
                      BECMG 0408/0410 CAVOK=
201811031700 TAF LROP 031700Z 0318/0418 08008KT CAVOK
                      BECMG 0321/0323 5000 BR
                      BECMG 0400/0402 1500 BR OVC005
                      PROB40 TEMPO 0402/0406 0350 FG OVC001
                      BECMG 0408/0410 CAVOK=
201811032300 TAF LROP 032300Z 0400/0424 VRB04KT 7000 NSC
                      BECMG 0400/0402 3000 BR OVC005
                      TEMPO 0402/0406 0600 FG VV001
                      BECMG 0408/0410 CAVOK=
201811040500 TAF LROP 040500Z 0406/0506 VRB04KT 1500 BR NSC
                      TEMPO 0406/0407 0350 FG BKN001
                      BECMG 0408/0410 CAVOK
                      BECMG 0502/0504 3000 BR BKN010
                      TEMPO 0504/0506 0800 FG BKN002=
201811041100 TAF LROP 041100Z 0412/0512 09006KT CAVOK
                      BECMG 0500/0502 3000 BR
                      BECMG 0502/0504 0800 FG BKN002
                      TEMPO 0504/0508 0350 FG VV001
                      BECMG 0508/0510 3000 BR BKN005
                      BECMG 0510/0511 CAVOK=
201811041700 TAF LROP 041700Z 0418/0518 06007KT CAVOK
                      BECMG 0500/0502 3000 BR
                      BECMG 0502/0504 0800 FG BKN002
                      TEMPO 0504/0507 0350 FG VV001
                      BECMG 0508/0510 3000 BR BKN005
                      BECMG 0510/0511 CAVOK=
201811042300 TAF LROP 042300Z 0500/0524 06007KT CAVOK
                      BECMG 0500/0502 3000 BR
                      BECMG 0502/0504 0800 FG BKN002
                      TEMPO 0504/0507 0350 FG VV001
                      BECMG 0508/0510 3000 BR BKN005
                      BECMG 0510/0511 CAVOK
                      BECMG 0518/0520 BKN015
                      TEMPO 0521/0524 5000 BR OVC005=
201811050500 TAF LROP 050500Z 0506/0606 06008KT 0150 FG VV001
                      BECMG 0507/0509 0800 OVC002
                      BECMG 0509/0511 3000 BR BKN005
                      BECMG 0511/0512 CAVOK
                      BECMG 0518/0520 BKN015
                      TEMPO 0522/0605 3000 BR OVC005=
201811050716 TAF AMD LROP 050716Z 0507/0606 06008KT 5000 BR BKN005
                      TEMPO 0507/0509 3000 BR OVC002
                      BECMG 0509/0511 9999 BKN025
                      BECMG 0518/0520 BKN015
                      TEMPO 0522/0605 3000 BR OVC005=
201811051100 TAF LROP 051100Z 0512/0612 06008KT 9999 BKN025
                      BECMG 0517/0519 5000 BR BKN010
                      TEMPO 0523/0605 3000 DZ BR OVC005
                      BECMG 0606/0608 9999 BKN020=
201811051700 TAF LROP 051700Z 0518/0618 04006KT CAVOK
                      BECMG 0521/0523 5000 BR BKN015
                      TEMPO 0600/0605 1500 DZ BR OVC005
                      BECMG 0607/0609 9999 NSW BKN025=
201811052300 TAF LROP 052300Z 0600/0624 04006KT 5000 BR BKN015
                      TEMPO 0600/0602 3000 BR BKN010
                      PROB40 TEMPO 0602/0605 1500 DZ BR OVC005
                       BECMG 0607/0609 9999 NSW BKN025=
201811060500 TAF LROP 060500Z 0606/0706 06007KT 5000 BR OVC015
                      TEMPO 0606/0609 3000 OVC010
                      BECMG 0609/0611 9999 NSW BKN025
                      BECMG 0621/0623 5000 BR BKN015
                      TEMPO 0623/0705 3000 BR OVC010=
201811060557 TAF COR LROP 060557Z 0606/0706 06007KT 5000 BR OVC015
                      TEMPO 0606/0609 3000 BR OVC010
                      BECMG 0609/0611 9999 NSW BKN025
                      BECMG 0621/0623 5000 BR BKN015
                      TEMPO 0623/0705 3000 BR OVC010=
201811060701 TAF AMD LROP 060701Z 0607/0706 06007KT 1500 BR OVC003
                      TEMPO 0607/0609 0600 FG OVC001
                      BECMG 0609/0611 5000 OVC010
                      BECMG 0611/0613 9999 NSW BKN020
                      BECMG 0621/0623 5000 BR BKN015
                      BECMG 0623/0701 3000 BR OVC010
                      TEMPO 0701/0706 1500 BR OVC005=
201811061100 TAF LROP 061100Z 0612/0712 06007KT 5000 BR SCT015 OVC030
                      TEMPO 0612/0617 8000 NSW
                      BECMG 0621/0623 3000 BR BKN010 OVC025
                      TEMPO 0623/0706 1500 -DZ BR OVC005
                      BECMG 0707/0709 9999 NSW SCT015 BKN030=
201811061700 TAF LROP 061700Z 0618/0718 06007KT 5000 SCT015 OVC030
                      BECMG 0620/0622 3000 BR OVC010
                      TEMPO 0623/0706 1500 -DZ BR OVC005
                      BECMG 0707/0709 9999 NSW SCT015 BKN030=
201811062300 TAF LROP 062300Z 0700/0724 08006KT 9999 BKN030
                      TEMPO 0700/0706 3000 BR OVC010=
201811070500 TAF LROP 070500Z 0706/0806 07008KT 9999 BKN030
                      BECMG 0800/0802 3000 BR BKN010 OVC025=
201811071100 TAF LROP 071100Z 0712/0812 07010KT 9999 BKN035
                      BECMG 0800/0802 5000 BR BKN015 OVC030
                      TEMPO 0803/0807 1500 BR BKN010 OVC025
                      BECMG 0807/0809 9999 NSW BKN035=
201811071700 TAF LROP 071700Z 0718/0818 05006KT 9999 BKN035=
201811072300 TAF LROP 072300Z 0800/0824 04006KT 9999 BKN035=
201811080500 TAF LROP 080500Z 0806/0906 05006KT 9999 BKN040
                      TEMPO 0900/0906 3000 BR BKN010=
201811081100 TAF LROP 081100Z 0812/0912 05006KT 9999 BKN040
                      TEMPO 0901/0906 3000 BR BKN010=
201811081700 TAF LROP 081700Z 0818/0918 VRB04KT CAVOK
                      BECMG 0822/0824 5000 BR
                      TEMPO 0902/0906 1500 BR BKN005
                      BECMG 0907/0909 9999 NSW=
201811082300 TAF LROP 082300Z 0900/0924 VRB04KT CAVOK
                      BECMG 0900/0902 5000 BR
                      TEMPO 0902/0906 1500 BR BKN005
                      BECMG 0907/0909 9999 NSW
                      BECMG 0921/0923 5000 BR=
201811090500 TAF LROP 090500Z 0906/1006 VRB04KT 5000 BR NSC
                      BECMG 0907/0909 CAVOK
                      BECMG 0921/0923 5000 BR
                      TEMPO 1001/1006 1500 BR=
201811091100 TAF LROP 091100Z 0912/1012 VRB04KT CAVOK
                      BECMG 0921/0923 3000 BR SCT010
                      TEMPO 1000/1006 1500 BR BKN005
                      BECMG 1006/1008 CAVOK=
201811091700 TAF LROP 091700Z 0918/1018 VRB04KT CAVOK
                      BECMG 0921/0923 5000 BR
                      TEMPO 1000/1006 1500 BR BKN005
                      BECMG 1006/1008 9999 NSW=
201811092300 TAF LROP 092300Z 1000/1024 VRB04KT 5000 BR NSC
                      TEMPO 1000/1006 1500 BR BKN005
                      BECMG 1007/1009 9999 NSW=
201811100500 TAF LROP 100500Z 1006/1106 VRB04KT 3000 BR NSC
                      BECMG 1007/1009 CAVOK
                      BECMG 1022/1024 5000 BR
                      BECMG 1100/1102 1500 BR BKN005
                      PROB40 TEMPO 1102/1105 0600 FG VV002=
201811101100 TAF LROP 101100Z 1012/1112 VRB04KT CAVOK
                      BECMG 1021/1023 5000 BR
                      BECMG 1023/1101 1500 BR BKN005
                      PROB40 TEMPO 1101/1105 0600 FG VV002
                      BECMG 1107/1109 3000 SCT010
                      BECMG 1109/1110 CAVOK=
201811101700 TAF LROP 101700Z 1018/1118 VRB03KT CAVOK
                      BECMG 1020/1022 3000 BR
                      BECMG 1022/1024 1500 BR OVC002
                      PROB40 TEMPO 1101/1105 0350 FG VV001
                      BECMG 1107/1109 3000 SCT010
                      BECMG 1109/1110 CAVOK=
201811102300 TAF AMD LROP 110343Z 1103/1124 VRB04KT 1500 BR NSC
                      TEMPO 1103/1106 0600 FG OVC002
                      BECMG 1106/1108 CAVOK
                      BECMG 1118/1120 3000 BR SCT010
                      BECMG 1121/1123 1500 BR BKN005=
201811110343 TAF AMD LROP 110343Z 1103/1124 VRB04KT 1500 BR NSC
                      TEMPO 1103/1106 0600 FG OVC002
                      BECMG 1106/1108 CAVOK
                      BECMG 1118/1120 3000 BR SCT010
                      BECMG 1121/1123 1500 BR BKN005=
201811110500 TAF LROP 110500Z 1106/1206 VRB04KT 1500 BR NSC
                      TEMPO 1106/1107 0600 FG BKN002
                      BECMG 1107/1109 9999 NSW
                      BECMG 1119/1121 5000 BR
                      BECMG 1123/1201 3000 BR
                      BECMG 1202/1204 0600 FG BKN002=
201811110616 TAF AMD LROP 110616Z 1106/1206 VRB04KT 0150 FG OVC001
                      BECMG 1106/1107 0350 BKN002
                      BECMG 1107/1109 9999 NSW
                      BECMG 1119/1121 5000 BR
                      BECMG 1123/1201 3000 BR
                      BECMG 1202/1204 0600 FG BKN002=
201811111100 TAF LROP 111100Z 1112/1212 VRB04KT CAVOK
                      BECMG 1120/1122 5000 BR
                      BECMG 1123/1201 3000 BR
                      BECMG 1202/1204 0600 FG BKN002
                      TEMPO 1204/1208 0150 FG VV001
                      BECMG 1209/1211 6000 NSW SCT008=
201811111700 TAF LROP 111700Z 1118/1218 VRB03KT 7000 NSC
                      BECMG 1118/1120 3000 BR
                      BECMG 1120/1122 1500 BR
                      BECMG 1122/1124 0600 FG BKN002
                      TEMPO 1200/1207 0150 FG VV001
                      BECMG 1207/1209 3000 BR SCT010
                      BECMG 1209/1211 CAVOK
                      BECMG 1216/1218 5000 BR=
201811112300 TAF AMD LROP 120345Z 1203/1224 VRB04KT 0100 FG VV001
                      BECMG 1205/1207 0500
                      BECMG 1207/1209 1000 BR BKN002
                      BECMG 1209/1211 5000 SCT007
                      TEMPO 1211/1214 9999 NSW
                      BECMG 1215/1217 1500 BR BKN005
                      PROB30 TEMPO 1217/1220 0600 FG OVC002
                      TEMPO 1220/1224 3000 BKN010=
201811120345 TAF AMD LROP 120345Z 1203/1224 VRB04KT 0100 FG VV001
                      BECMG 1205/1207 0500
                      BECMG 1207/1209 1000 BR BKN002
                      BECMG 1209/1211 5000 SCT007
                      TEMPO 1211/1214 9999 NSW
                      BECMG 1215/1217 1500 BR BKN005
                      PROB30 TEMPO 1217/1220 0600 FG OVC002
                      TEMPO 1220/1224 3000 BKN010=
201811120500 TAF LROP 120500Z 1206/1306 VRB04KT 0150 FG VV001
                      BECMG 1206/1208 0600 OVC002
                      BECMG 1208/1210 3000 BR BKN005
                      BECMG 1210/1212 CAVOK
                      BECMG 1215/1217 3000 BR BKN010
                      PROB30 TEMPO 1217/1221 0800 FG OVC002
                      BECMG 1221/1223 06010KT 5000 BKN015 BKN045
                       TEMPO 1300/1306 1500 -RA BR BKN005 OVC030=
201811121100 TAF LROP 121100Z 1212/1312 VRB04KT 5000 BR BKN005
                      BECMG 1212/1213 7000 NSW SCT010
                      BECMG 1215/1217 3000 BR
                      PROB30 TEMPO 1217/1221 0800 FG OVC002
                      BECMG 1221/1223 06010KT 5000 BKN010 BKN025
                       TEMPO 1303/1309 3000 -RA BR BKN005 OVC030
                       BECMG 1311/1312 6000 NSW BKN015=
201811121700 TAF LROP 121700Z 1218/1318 06007KT 3000 BR SCT010
                      TEMPO 1218/1223 1500 BR BKN005
                      BECMG 1223/1301 5000
                      BECMG 1304/1306 BKN015
                      TEMPO 1307/1311 3000 -RA BR BKN005 OVC030
                       BECMG 1311/1313 7000 NSW SCT020=
201811122300 TAF LROP 122300Z 1300/1324 06007KT 9999 BKN015
                      TEMPO 1300/1306 BKN007
                      TEMPO 1307/1311 3000 -DZRA BR BKN005 OVC010
                       BECMG 1312/1314 BKN020=
201811130500 TAF LROP 130500Z 1306/1406 06008KT 9999 OVC020
                      TEMPO 1306/1311 5000 -DZ BR BKN010 OVC020
                       TEMPO 1311/1315 BKN015=
201811131100 TAF LROP 131100Z 1312/1412 06008KT 9999 OVC015
                      BECMG 1316/1318 OVC010
                      BECMG 1407/1409 BKN035=
201811131700 TAF LROP 131700Z 1318/1418 VRB04KT 9999 BKN020
                      PROB40 TEMPO 1318/1321 OVC015
                      BECMG 1412/1414 BKN015
                      BECMG 1416/1418 5000 -RA BR BKN010 OVC040=
201811132300 TAF LROP 132300Z 1400/1424 VRB04KT 9999 BKN020
                      BECMG 1412/1414 BKN015
                      BECMG 1416/1418 5000 -RA BR BKN010 OVC040
                       TEMPO 1420/1424 3000 -RA BR BKN005 OVC035=
201811140500 TAF LROP 140500Z 1406/1506 VRB04KT 9999 SCT040
                      TEMPO 1417/1418 5000 -RA BR BKN015 BKN040
                       BECMG 1418/1420 5000 -RA BR BKN010 OVC030
                       TEMPO 1421/1503 3000 -RA BR BKN005 OVC030
                       TEMPO 1503/1506 1500 -RA BR OVC002=
201811141100 TAF LROP 141100Z 1412/1512 VRB04KT 9999 SCT020
                      PROB40 TEMPO 1415/1418 5000 -RA BR BKN015
                       BKN040
                      BECMG 1418/1420 5000 -RA BR BKN010 OVC030
                       TEMPO 1421/1503 3000 -RA BR BKN005 OVC030
                       TEMPO 1503/1507 1500 -RA BR OVC002
                      PROB30 TEMPO 1503/1506 0600 -DZ FG OVC001
                       TEMPO 1508/1512 -SHRA SCT015 SCT030CB BKN040=
201811141700 TAF LROP 141700Z 1418/1518 VRB04KT 5000 -RA BR BKN030
                      TEMPO 1421/1503 3000 -RA BR BKN005 OVC030
                       TEMPO 1503/1507 1500 -RADZ BR BKN002 OVC010
                       PROB30
                      TEMPO 1508/1511 SHRA BKN010 SCT030CB
                      BECMG 1512/1514 07010KT 9999 NSW=
201811142300 TAF AMD LROP 150144Z 1501/1524 VRB04KT 5000 -RA BR BKN035
                      TEMPO 1501/1503 1500 +SHRAGS BKN003 BKN025CB
                       OVC030
                      PROB30 TEMPO 1508/1511 3000 SHRA BKN010 SCT030CB
                       BECMG 1512/1514 07010KT 9999 NSW=
201811150144 TAF AMD LROP 150144Z 1501/1524 VRB04KT 5000 -RA BR BKN035
                      TEMPO 1501/1503 1500 +SHRAGS BKN003 BKN025CB
                       OVC030
                      PROB30 TEMPO 1508/1511 3000 SHRA BKN010 SCT030CB
                       BECMG 1512/1514 07010KT 9999 NSW=
201811150500 TAF LROP 150500Z 1506/1606 VRB04KT 5000 BR SCT040
                      TEMPO 1506/1508 0800 FG BKN002
                      TEMPO 1508/1512 3000 -SHRA SCT005 SCT040CB
                       BECMG 1512/1514 07010KT 9999 NSW
                      BECMG 1602/1604 5000 -RA BR BKN010 OVC035
                       TEMPO 1604/1606 3000 -RA BR BKN005 OVC030=
201811151100 TAF LROP 151100Z 1512/1612 30007KT 5000 BR SCT010 BKN040
                      BECMG 1512/1514 06012KT
                      BECMG 1514/1516 3000 -RA BR BKN010 BKN040
                       PROB30
                      TEMPO 1609/1612 1500 -RASN BR BKN005 OVC030=
201811151605 TAF AMD LROP 151605Z 1516/1612 VRB04KT 9999 SCT040
                      BECMG 1518/1520 06010KT
                      TEMPO 1523/1605 3000 BR BKN010 BKN035
                      BECMG 1605/1607 5000 -RA BKN010 OVC030
                      TEMPO 1609/1612 3000 -RASN BR BKN005 OVC025=
201811151700 TAF LROP 151700Z 1518/1618 VRB04KT 9999 SCT040
                      BECMG 1519/1521 06012KT
                      TEMPO 1600/1606 BKN010 BKN040
                      BECMG 1606/1608 5000 -RA BKN010 OVC035
                      TEMPO 1609/1615 3000 -RASN
                      BECMG 1615/1617 3000 -SN BKN005 OVC025=
201811152035 TAF AMD LROP 152035Z 1520/1618 07012KT 9999 BKN010 BKN040
                      TEMPO 1606/1615 5000 -RA
                      PROB40 TEMPO 1609/1615 3000 RASN
                      BECMG 1615/1617 3000 -SN BKN005 OVC025=
201811152300 TAF LROP 152300Z 1600/1624 07012KT 9999 BKN010 BKN040
                      TEMPO 1600/1603 5000 -RA
                      TEMPO 1606/1615 5000 -RA
                      PROB40 TEMPO 1609/1615 3000 RASN
                      BECMG 1615/1617 3000 -SN BKN005 OVC025
                      BECMG 1621/1623 5000 BKN010 OVC030=
201811160500 TAF LROP 160500Z 1606/1706 04008KT 9999 BKN040
                      TEMPO 1606/1612 5000 -RA BKN010 BKN030
                      PROB30 TEMPO 1609/1612 3000 RASN
                      BECMG 1614/1616 5000 -SN BKN010 OVC030
                      TEMPO 1616/1621 3000 -SN
                      PROB40 TEMPO 1703/1706 1500 -SN BKN005 OVC025=
201811161100 TAF LROP 161100Z 1612/1712 07008KT 9999 BKN040
                      TEMPO 1614/1621 3000 -SN BKN010 OVC030
                      TEMPO 1709/1712 3000 -SN BKN005 OVC025=
201811161700 TAF LROP 161700Z 1618/1718 09008KT 9999 BKN040
                      TEMPO 1619/1624 5000 -SN BKN015 OVC040
                      BECMG 1700/1702 5000 -SN BKN010 OVC035
                      TEMPO 1704/1710 3000 -SN BKN005 OVC025
                      BECMG 1712/1714 9999 NSW BKN025 OVC040=
201811162300 TAF AMD LROP 170419Z 1704/1724 07016KT 9999 SCT040=
201811170419 TAF AMD LROP 170419Z 1704/1724 07016KT 9999 SCT040=
201811170500 TAF LROP 170500Z 1706/1806 07016KT 9999 BKN035
                      PROB40 1706/1708 5000 -SN BKN015 OVC030
                      BECMG 1720/1722 07006KT 5000 BR BKN010
                      TEMPO 1800/1806 1500 BR BKN005=
201811171100 TAF LROP 171100Z 1712/1812 07016KT 9999 BKN035
                      BECMG 1718/1720 06006KT
                      TEMPO 1800/1806 3000 BR BKN010
                      BECMG 1809/1811 07015KT=
201811171700 TAF LROP 171700Z 1718/1818 07012KT CAVOK
                      PROB40 TEMPO 1722/1806 3000 BR BKN010=
201811172300 TAF LROP 172300Z 1800/1824 07010KT 9999 SCT025
                      PROB40 TEMPO 1803/1806 3000 BR BKN010
                      BECMG 1820/1822 3000 -SN BKN010 OVC030
                      TEMPO 1822/1824 06018G30KT 1500 SN BLSN BKN005
                       OVC020=
201811180500 TAF LROP 180500Z 1806/1906 08010KT 9999 SCT025
                      BECMG 1821/1823 3000 -SN BKN010 OVC030
                      TEMPO 1900/1906 06018G30KT 1500 SN BLSN BKN005
                       OVC020
                      PROB40 TEMPO 1903/1906 0600 +SN BLSN VV002=
201811180706 TAF AMD LROP 180706Z 1807/1906 08010KT 9999 BKN010
                      BECMG 1809/1811 SCT025
                      BECMG 1821/1823 3000 -SN BKN010 OVC030
                      TEMPO 1900/1906 06018G30KT 1500 SN BLSN BKN005
                       OVC020
                      PROB40 TEMPO 1903/1906 0600 +SN BLSN VV002=
201811181100 TAF LROP 181100Z 1812/1912 08008KT 7000 BKN010
                      BECMG 1820/1822 3000 -SN SCT005 BKN010 OVC030
                       BECMG 1823/1901 06018KT 0800 SN BLSN BKN005
                       OVC020
                      TEMPO 1902/1906 06020G30KT 0350 +SN BLSN
                       VV002
                      BECMG 1906/1908 3000 RASN BKN010 OVC025
                      BECMG 1908/1910 36008KT 5000 -RA BKN015 BKN030=
201811181700 TAF LROP 181700Z 1818/1918 08010KT 7000 BKN010 OVC030
                      BECMG 1819/1821 1500 SN BKN005 OVC025
                      TEMPO 1900/1906 07020G30KT 0600 +SN BLSN
                       BKN002 OVC020
                      BECMG 1906/1908 5000 RASN BKN010 OVC025
                      BECMG 1908/1910 34008KT 7000 -RA BKN015 BKN030
                       BECMG 1914/1916 25010KT 9999 NSW BKN035=
201811182300 TAF AMD LROP 190438Z 1904/1924 06015KT 5000 RASN BKN010 OVC025
                       TEMPO 1904/1906 07020G30KT 3000 -FZRA BKN005
                       OVC020
                      BECMG 1906/1908 RA BKN015 OVC030
                      BECMG 1913/1915 25010KT 9999 NSW BKN035
                      BECMG 1918/1920 VRB03KT 3000 BR BKN010
                      BECMG 1921/1923 1500 BR BKN005=
201811190438 TAF AMD LROP 190438Z 1904/1924 06015KT 5000 RASN BKN010 OVC025
                       TEMPO 1904/1906 07020G30KT 3000 -FZRA BKN005
                       OVC020
                      BECMG 1906/1908 RA BKN015 OVC030
                      BECMG 1913/1915 25010KT 9999 NSW BKN035
                      BECMG 1918/1920 VRB03KT 3000 BR BKN010
                      BECMG 1921/1923 1500 BR BKN005=
201811190500 TAF LROP 190500Z 1906/2006 04016KT 5000 -RA BR BKN005 OVC025
                      BECMG 1909/1911 25010KT 9999 NSW BKN010 OVC030
                       BECMG 1912/1914 SCT010 BKN030
                      BECMG 1918/1920 3000 BR BKN005
                      BECMG 1920/1922 VRB04KT 1500 BR BKN002
                      BECMG 1922/1924 0800 FZFG OVC001
                      PROB40 TEMPO 2000/2005 0350 FZFG
                      BECMG 2002/2005 08010KT=
201811191100 TAF LROP 191100Z 1912/2012 25010KT 9999 SCT005 OVC030
                      BECMG 1918/1920 5000 BR
                      BECMG 1920/1922 VRB04KT 1500 BR BKN002
                      BECMG 1922/1924 0800 FZFG OVC001
                      PROB40 TEMPO 2000/2005 0350 FZFG
                      BECMG 2002/2004 08010KT
                      BECMG 2005/2007 5000 BR BKN005
                      BECMG 2007/2009 9999 NSW SCT007 SCT025
                      PROB30 TEMPO 2010/2012 08015G25KT=
201811191700 TAF LROP 191700Z 1918/2018 24010KT 9000 NSC
                      BECMG 1919/1921 3000 BR
                      BECMG 1921/1923 VRB04KT 1500 BR BKN002
                      TEMPO 2000/2005 0600 FZFG OVC001
                      BECMG 2002/2004 08010KT
                      BECMG 2005/2007 5000 BKN005
                      BECMG 2007/2009 9999 NSW SCT007 SCT025
                      BECMG 2013/2015 5000 -RA BR BKN015 BKN025=
201811191859 TAF AMD LROP 191859Z 1918/2018 24010KT 3000 BR BKN004
                      BECMG 1921/1923 VRB04KT 1500 BR BKN002
                      TEMPO 2000/2005 0600 FZFG OVC001
                      BECMG 2002/2004 08010KT
                      BECMG 2005/2007 5000 BKN005
                      BECMG 2007/2009 9999 NSW SCT007 SCT025
                      BECMG 2013/2015 5000 -RA BR BKN015 BKN025=
201811192215 TAF AMD LROP 192215Z 1922/2018 24006KT 0350 FZFG VV002
                      TEMPO 2000/2002 0150 FZFG VV001
                      BECMG 2002/2004 08010KT 0600 FZFG
                      BECMG 2005/2007 3000 BR BKN005
                      BECMG 2007/2009 9999 NSW SCT007 SCT025
                      BECMG 2013/2015 5000 -RA BR BKN015 BKN025=
201811192300 TAF COR LROP 200053Z 2000/2024 24005KT 0350 FZFG VV002
                      TEMPO 2000/2002 0150 FZFG VV001
                      BECMG 2002/2005 08010KT 0800
                      BECMG 2005/2007 3000 BR BKN005
                      BECMG 2007/2009 9999 NSW SCT007 SCT025
                      PROB30 TEMPO 2010/2012 5000 -FZRA
                      BECMG 2012/2014 5000 -RA BR BKN015 BKN025
                       TEMPO 2018/2024 08015G25KT 3000 RA BR BKN005
                       BKN020=
201811200053 TAF COR LROP 200053Z 2000/2024 24005KT 0350 FZFG VV002
                      TEMPO 2000/2002 0150 FZFG VV001
                      BECMG 2002/2005 08010KT 0800
                      BECMG 2005/2007 3000 BR BKN005
                      BECMG 2007/2009 9999 NSW SCT007 SCT025
                      PROB30 TEMPO 2010/2012 5000 -FZRA
                      BECMG 2012/2014 5000 -RA BR BKN015 BKN025
                       TEMPO 2018/2024 08015G25KT 3000 RA BR BKN005
                       BKN020=
201811200500 TAF LROP 200500Z 2006/2106 08012KT 0200 FZFG VV001
                      BECMG 2006/2007 0800 BKN003
                      BECMG 2007/2009 3000 BR BKN010 BKN020
                      BECMG 2009/2011 9999 NSW BKN020
                      BECMG 2012/2014 5000 -RA BR BKN010 BKN025
                       TEMPO 2021/2103 3000 RA BR BKN005 BKN020
                       TEMPO 2102/2106 07015G25KT=
201811200943 TAF AMD LROP 200943Z 2009/2106 08012KT 4000 BR OVC005
                      BECMG 2011/2013 7000 NSW BKN010 BKN020
                      BECMG 2014/2016 5000 -RA BR
                      TEMPO 2021/2103 3000 RA BKN005 OVC020
                      TEMPO 2102/2106 07015G25KT=
201811201100 TAF LROP 201100Z 2012/2112 08012KT 5000 BR BKN005 BKN025
                      TEMPO 2012/2014 7000 NSW BKN010 BKN020
                      BECMG 2014/2016 -RA BKN010 BKN025
                      TEMPO 2016/2102 3000 RA BKN003 OVC020
                      TEMPO 2103/2112 07015G25KT=
201811201700 TAF LROP 201700Z 2018/2118 08012KT 5000 BR BKN010 OVC020
                      BECMG 2018/2020 3000 -RA BR
                      BECMG 2022/2024 BKN005 OVC015
                      PROB40 TEMPO 2101/2106 1500 -DZRA BR BKN002
                       OVC005
                      BECMG 2106/2108 07015G25KT 5000 BKN010 OVC020
                       PROB30
                      TEMPO 2114/2118 3000 RA BR=
201811202000 TAF AMD LROP 202000Z 2020/2118 08012KT 3000 -DZRA BR BKN005 OVC020
                       TEMPO 2020/2106 1500 -DZRA BR BKN002 OVC005
                       BECMG 2106/2108 07015G25KT 5000 BKN010 OVC020
                       PROB30
                      TEMPO 2114/2118 3000 RA BR=
201811202300 TAF LROP 202300Z 2100/2124 07014KT 3000 -DZRA BR BKN005 OVC020
                       TEMPO 2100/2106 1500 -DZRA BR BKN002 OVC005
                       BECMG 2106/2108 06015G25KT 5000 -RA BR BKN010
                       OVC020
                      TEMPO 2114/2121 3000 RA BR
                      BECMG 2121/2123 06013KT 7000 -RA=
201811210500 TAF LROP 210500Z 2106/2206 06016KT 3000 RADZ BR BKN005 OVC010
                      BECMG 2106/2108 7000 -RADZ
                      BECMG 2110/2112 06020G30KT BKN010 OVC020
                       TEMPO 2114/2119 3000 RADZ BR
                      BECMG 2121/2123 06014KT SCT010 BKN035
                      BECMG 2200/2202 5000 -RASN BR
                      PROB40 TEMPO 2203/2206 3000 -SN BR=
201811210823 TAF AMD LROP 210823Z 2108/2206 06016KT 1500 -DZ BR BKN003 OVC010
                       TEMPO 2109/2117 06020G30KT 3000 -RADZ BR
                       BKN010 OVC020
                      BECMG 2121/2123 3000 -RASN BR BKN005 OVC015
                       BECMG 2201/2203 1500 -SN BR=
201811211100 TAF LROP 211100Z 2112/2212 06016KT 3000 -DZ BR BKN005 OVC015
                      TEMPO 2112/2117 06020G30KT 1500 RADZ BR BKN002
                       OVC010
                      BECMG 2121/2123 -RASN BR
                      BECMG 2201/2203 1500 -SN BR
                      BECMG 2210/2212 5000 BR BKN010 BKN020=
201811211700 TAF LROP 211700Z 2118/2218 05016KT 7000 -RA BKN010 OVC020
                      TEMPO 2118/2124 3000 RA BKN005 OVC020
                      BECMG 2200/2202 3000 -SN BKN005 OVC015
                      BECMG 2206/2208 5000 BKN010 OVC020
                      BECMG 2212/2214 06006KT 7000 NSW BKN015 BKN030=
201811212300 TAF AMD LROP 220253Z 2202/2224 05014KT 9999 BKN025
                      TEMPO 2203/2207 3000 -SN BR BKN005 OVC025
                       TEMPO 2207/2212 5000 -SN BR
                      BECMG 2214/2216 VRB04KT
                      TEMPO 2220/2224 3000 BR BKN010=
201811220253 TAF AMD LROP 220253Z 2202/2224 05014KT 9999 BKN025
                      TEMPO 2203/2207 3000 -SN BR BKN005 OVC025
                       TEMPO 2207/2212 5000 -SN BR
                      BECMG 2214/2216 VRB04KT
                      TEMPO 2220/2224 3000 BR BKN010=
201811220500 TAF LROP 220500Z 2206/2306 06012KT 9999 BKN020
                      TEMPO 2206/2211 5000 -SN BR BKN010 OVC020
                       BECMG 2214/2216 VRB04KT
                      BECMG 2220/2222 3000 BR BKN010
                      TEMPO 2300/2306 1500 BR BKN005=
201811221100 TAF LROP 221100Z 2212/2312 05010KT 9999 SCT015 OVC030
                      BECMG 2215/2217 VRB04KT
                      BECMG 2220/2222 5000 BR BKN010
                      TEMPO 2300/2306 1500 BR BKN005
                      BECMG 2307/2309 9999 NSW BKN030=
201811221700 TAF LROP 221700Z 2218/2318 VRB04KT 5000 BR BKN010 OVC025
                      TEMPO 2223/2306 1500 BR OVC005
                      BECMG 2308/2310 9999 NSW BKN030
                      BECMG 2316/2318 5000 BR BKN010 OVC020=
201811222300 TAF LROP 222300Z 2300/2324 VRB04KT 5000 BR SCT010 OVC020
                      TEMPO 2300/2306 1500 BR OVC005
                      BECMG 2308/2310 9999 NSW BKN030
                      BECMG 2316/2318 5000 BR BKN010 OVC020
                      TEMPO 2321/2324 1500 BR OVC005=
201811230500 TAF LROP 230500Z 2306/2406 VRB04KT 5000 BR BKN015 OVC020
                      BECMG 2308/2310 9999 NSW BKN030
                      BECMG 2316/2318 5000 BR BKN010 OVC020
                      TEMPO 2322/2406 1500 BR OVC005=
201811231100 TAF LROP 231100Z 2312/2412 VRB04KT 9999 SCT015 OVC040
                      BECMG 2315/2317 5000 BR BKN010 OVC030
                      TEMPO 2322/2406 1500 BR OVC005
                      BECMG 2409/2411 24010KT 9999 NSW SCT035=
201811231700 TAF LROP 231700Z 2318/2418 09006KT 3000 BR OVC005
                      BECMG 2319/2321 1500 BR
                      TEMPO 2323/2406 0800 FG OVC002
                      BECMG 2407/2409 3000 BKN010
                      BECMG 2409/2411 24010KT 9999 NSW SCT015
                      BECMG 2416/2418 5000 BR BKN010=
201811231949 TAF AMD LROP 231949Z 2319/2418 09010KT 0150 FG VV001
                      TEMPO 2320/2324 0600 FZFG OVC002
                      BECMG 2404/2406 VRB04KT 0600 OVC002
                      BECMG 2406/2408 1500 BR BKN005
                      BECMG 2408/2410 3000 BKN010
                      BECMG 2409/2411 9999 NSW SCT015
                      BECMG 2416/2418 25010KT 5000 BR BKN010=
201811232300 TAF LROP 232300Z 2400/2424 09006KT 0600 FZFG OVC002
                      TEMPO 2400/2405 0150 FZFG VV001
                      BECMG 2407/2409 3000 BR BKN010
                      BECMG 2409/2411 9999 NSW SCT015
                      BECMG 2416/2418 25010KT 5000 BR BKN010
                      BECMG 2419/2421 1500 BR OVC005=
201811240500 TAF LROP 240500Z 2406/2506 VRB04KT 1500 BR OVC001
                      BECMG 2406/2408 3000 BKN005
                      BECMG 2408/2410 9999 NSW SCT015
                      BECMG 2416/2418 25010KT 5000 BR BKN010
                      BECMG 2418/2420 1500 BR OVC005
                      PROB40 TEMPO 2422/2506 0600 FZFG OVC002=
201811241100 TAF LROP 241100Z 2412/2512 VRB04KT 5000 BR BKN010
                      TEMPO 2412/2416 9999 NSW SCT015
                      BECMG 2416/2418 25010KT
                      BECMG 2418/2420 1500 BR OVC005
                      PROB40 TEMPO 2422/2506 0600 FZFG OVC002
                      BECMG 2506/2508 3000 BKN010
                      BECMG 2508/2510 CAVOK=
201811241700 TAF LROP 241700Z 2418/2518 VRB04KT 3000 BR SCT010
                      BECMG 2418/2420 1500 BR BKN005
                      BECMG 2420/2422 25010KT
                      PROB40 TEMPO 2422/2506 0600 FZFG OVC002
                      BECMG 2507/2509 5000 BKN010
                      BECMG 2509/2511 9999 NSW BKN020
                      BECMG 2516/2518 3000 BR OVC005=
201811242000 TAF AMD LROP 242000Z 2420/2518 24006KT 0200 FZFG VV001
                      PROB40 TEMPO 2421/2506 0600 FZFG OVC002
                      BECMG 2507/2509 3000 BKN005
                      BECMG 2509/2511 9999 NSW BKN020
                      BECMG 2516/2518 3000 BR OVC005=
201811242300 TAF LROP 242300Z 2500/2524 23006KT 0100 FG VV001
                      TEMPO 2500/2506 0600 OVC002
                      BECMG 2506/2507 0800 BKN002
                      BECMG 2507/2509 3000 BR BKN005
                      BECMG 2509/2511 9999 NSW BKN020
                      BECMG 2516/2518 3000 BR OVC005
                      BECMG 2521/2523 0600 FG OVC001=
201811250500 TAF LROP 250500Z 2506/2606 23006KT 0800 FG OVC002
                      TEMPO 2506/2508 0350 DZ FG VV001
                      BECMG 2508/2510 1500 BR BKN005
                      BECMG 2510/2512 9999 NSW BKN020
                      BECMG 2516/2518 3000 BR OVC005
                      BECMG 2521/2523 0600 FG OVC001
                      TEMPO 2523/2606 0200 FG=
201811250847 TAF AMD LROP 250847Z 2508/2606 23006KT 0350 FG VV001
                      PROB30 TEMPO 2510/2513 1500 BR BKN002
                      TEMPO 2514/2520 0600 FG OVC001=
201811251100 TAF LROP 251100Z 2512/2612 VRB04KT 1500 BR BKN001
                      BECMG 2514/2516 0600 FG
                      BECMG 2516/2518 0350 FG
                      TEMPO 2522/2606 0150 DZ FG
                      BECMG 2608/2610 3000 BR BKN005
                      BECMG 2610/2612 9999 NSW BKN030=
201811251700 TAF LROP 251700Z 2518/2618 VRB04KT 0150 FG VV001
                      BECMG 2606/2608 0600 BKN002
                      BECMG 2608/2610 1500 BR BKN005
                      BECMG 2610/2612 5000 BKN015
                      PROB30 TEMPO 2614/2618 3000 -RA BR BKN010
                       OVC030=
201811252012 TAF AMD LROP 252012Z 2520/2618 VRB04KT 0800 FG VV002
                      PROB30 TEMPO 2520/2606 0150 FG VV001
                      BECMG 2608/2610 1500 BR BKN005
                      BECMG 2610/2612 5000 BKN015
                      PROB30 TEMPO 2614/2618 3000 -RA BR BKN010
                       OVC030=
201811252300 TAF LROP 252300Z 2600/2624 05008KT 0600 FG VV002
                      PROB30 TEMPO 2600/2606 0150 FG VV001
                      BECMG 2606/2608 0800
                      BECMG 2608/2610 1500 BR BKN005
                      BECMG 2610/2612 5000 BKN015
                      PROB30 TEMPO 2614/2618 3000 -RA BR BKN010
                       OVC030
                      BECMG 2620/2622 3000 BR BKN010=
201811260500 TAF LROP 260500Z 2606/2706 06006KT 1500 BR OVC003
                      PROB30 TEMPO 2606/2608 0600 FG BKN001
                      TEMPO 2608/2611 3000 RADZ BKN005
                      BECMG 2611/2612 5000 BKN005 BKN020
                      PROB40 TEMPO 2612/2615 3000 -RA BKN010 OVC025
                       BECMG 2618/2620 3000 BR BKN002
                      BECMG 2620/2622 0600 FG OVC001
                      TEMPO 2700/2706 1500 -DZ BR BKN002=
201811261100 TAF LROP 261100Z 2612/2712 VRB04KT 5000 BR BKN005
                      PROB40 TEMPO 2612/2616 BKN010
                      BECMG 2617/2619 3000 BR BKN002
                      BECMG 2619/2621 1500 BR OVC001
                      BECMG 2700/2702 3000 -RA BR
                      BECMG 2704/2706 08012KT 9999 NSW BKN005 OVC020
                       BECMG 2710/2712 BKN020=
201811261700 TAF LROP 261700Z 2618/2718 VRB04KT 0600 FG BKN002
                      TEMPO 2618/2624 0150 FG OVC001
                      BECMG 2700/2702 1500 -RA BR BKN002
                      BECMG 2705/2707 08012KT 3000 BR BKN005 OVC020
                       BECMG 2708/2710 9999 NSW BKN035
                      BECMG 2716/2718 07015G30KT=
201811262012 TAF AMD LROP 262012Z 2620/2718 VRB04KT 3000 -RA BR BKN002 OVC010
                       TEMPO 2622/2705 1500 BR OVC001
                      BECMG 2705/2707 08010KT 5000 BR BKN005 OVC020
                       BECMG 2708/2710 9999 NSW BKN035
                      BECMG 2716/2718 07015G25KT=
201811262300 TAF LROP 262300Z 2700/2724 07008KT 7000 BKN015 OVC035
                      TEMPO 2700/2706 3000 RA BR BKN002 OVC010
                       BECMG 2716/2718 07015G25KT 5000 -RA BR BKN010
                       OVC030
                      PROB30 TEMPO 2720/2722 -FZRA
                      TEMPO 2722/2724 07025G40KT 3000 -RASN BR
                       BKN005 OVC020=
201811270500 TAF LROP 270500Z 2706/2806 VRB04KT 9999 BKN010 OVC035
                      BECMG 2708/2710 07012KT BKN015 OVC040
                      BECMG 2716/2718 07015G25KT 5000 -RA BKN010
                       OVC030
                      TEMPO 2720/2724 3000 -RASN BKN005 OVC020
                       PROB40 2720/2724 -FZRA
                      BECMG 2800/2802 07025G40KT 1500 SN BLSN
                      TEMPO 2802/2806 0600 +SN BLSN BKN002 OVC010=
201811271004 TAF AMD LROP 271004Z 2710/2806 08012KT 5000 BR BKN005 OVC025
                      TEMPO 2710/2713 1500 BR BKN002 OVC020
                      BECMG 2716/2718 07015G25KT RA BKN010 OVC030
                       TEMPO 2720/2724 3000 RASN BKN005 OVC020
                       PROB40 2720/2724 -FZRA
                      BECMG 2800/2802 07025G40KT 1500 SN BLSN
                      TEMPO 2802/2806 0600 +SN BLSN BKN002 OVC010=
201811271100 TAF LROP 271100Z 2712/2812 08012KT 3000 BR BKN005 OVC020
                      BECMG 2716/2718 07015G25KT RA
                      BECMG 2720/2722 1500 RASN
                      BECMG 2800/2802 07025G35KT SN BLSN
                      TEMPO 2803/2809 0600 +SN BLSN BKN002 OVC010
                       BECMG 2810/2812 06015G25KT 3000 -SN DRSN
                       BKN010 OVC030=
201811271502 TAF AMD LROP 271502Z 2715/2812 08012KT 9999 BKN025
                      BECMG 2716/2718 07015G25KT 5000 -RA BKN015
                       OVC035
                      BECMG 2720/2722 1500 RASN BKN010 OVC030
                      BECMG 2800/2802 07025G35KT SN BLSN
                      TEMPO 2803/2809 0600 +SN BLSN BKN003 OVC010
                       BECMG 2810/2812 06015G25KT 3000 -SN=
201811271700 TAF LROP 271700Z 2718/2818 07020KT 9999 -RA BKN020 OVC030
                      BECMG 2719/2721 5000 -RASN
                      BECMG 2722/2724 07020G35KT 3000 SN BLSN BKN005
                       OVC020
                      TEMPO 2803/2809 0600 +SN BLSN
                      BECMG 2810/2812 06018KT 5000 -SN DRSN BKN015
                       OVC035
                      BECMG 2812/2814 9999 DRSN BKN040=
201811272300 TAF LROP 272300Z 2800/2824 07015G25KT 5000 -SN BKN010 OVC040
                      TEMPO 2801/2806 07025G35KT 1500 SN BLSN BKN005
                       OVC020
                      PROB30 TEMPO 2803/2806 0800 +SN BLSN VV002
                       BECMG 2808/2810 9999 DRSN SCT045
                      BECMG 2815/2817 06015KT=
201811280500 TAF LROP 280500Z 2806/2906 07016KT 5000 -SN OVC030
                      TEMPO 2806/2810 07025G35KT 1500 SN BLSN BKN005
                       OVC025
                      TEMPO 2810/2818 07020G30KT
                      BECMG 2812/2814 9999 NSW=
201811281100 TAF LROP 281100Z 2812/2912 07016KT 9999 BKN040=
201811281700 TAF LROP 281700Z 2818/2918 07012KT CAVOK=
201811282300 TAF LROP 282300Z 2900/2924 06011KT CAVOK=
201811290500 TAF LROP 290500Z 2906/3006 06016KT CAVOK=
201811291100 TAF LROP 291100Z 2912/3012 07016KT 9999 BKN035=
201811291700 TAF LROP 291700Z 2918/3018 06016KT CAVOK
                      BECMG 3014/3016 VRB04KT=
201811292300 TAF LROP 292300Z 3000/3024 04010KT CAVOK
                      BECMG 3014/3016 VRB04KT=
201811300500 TAF LROP 300500Z 3006/0106 05008KT CAVOK=
201811301100 TAF LROP 301100Z 3012/0112 23007KT CAVOK
                      PROB30 TEMPO 0102/0107 3000 BR BKN010=
201811301700 TAF LROP 301700Z 3018/0118 25006KT 7000 SCT035
                      BECMG 3018/3020 5000 BR
                      PROB30 TEMPO 3023/0105 1500 BR BKN005
                      BECMG 0106/0108 CAVOK=
201811302300 TAF LROP 302300Z 0100/0124 25006KT 5000 BR NSC
                      PROB30 TEMPO 0100/0105 1500 BR BKN010
                      BECMG 0106/0108 9999 NSW=
