201812010000 METAR LRAR 010000Z AUTO 20002KT 9999 NCD M09/M10 Q1023=
201812010030 METAR LRAR 010030Z AUTO 18001KT 9999 NCD M09/M10 Q1023=
201812010100 METAR LRAR 010100Z AUTO 15002KT 120V190 9999 NCD M08/M08
                        Q1023=
201812010130 METAR LRAR 010130Z AUTO 15001KT 9999 NCD M08/M09 Q1023=
201812010200 METAR LRAR 010200Z AUTO 21001KT 9999 NCD M08/M09 Q1023=
201812010230 METAR LRAR 010230Z AUTO 17002KT 9999 NCD M08/M09 Q1022=
201812010300 METAR LRAR 010300Z AUTO 15004KT 9999 NCD M08/M09 Q1022=
201812010330 METAR LRAR 010330Z AUTO 13004KT 9999 NCD M07/M09 Q1022=
201812010400 METAR LRAR 010400Z AUTO VRB01KT 9999 NCD M08/M10 Q1022=
201812010430 METAR LRAR 010430Z AUTO 13001KT 9999 NCD M09/M10 Q1022=
201812010500 METAR LRAR 010500Z 15001KT CAVOK M09/M10 Q1022=
201812010530 METAR LRAR 010530Z 14004KT CAVOK M08/M10 Q1022=
201812010600 METAR LRAR 010600Z 13004KT CAVOK M08/M10 Q1022=
201812010630 METAR LRAR 010630Z 13003KT CAVOK M08/M10 Q1023=
201812010700 METAR LRAR 010700Z 12004KT CAVOK M06/M09 Q1023=
201812010730 METAR LRAR 010730Z 12003KT CAVOK M05/M08 Q1023=
201812010800 METAR LRAR 010800Z 11004KT CAVOK M05/M08 Q1023=
201812010830 METAR LRAR 010830Z 12005KT 9999 BKN047 M04/M07 Q1023=
201812010900 METAR LRAR 010900Z 13005KT 9999 BKN046 M04/M08 Q1023=
201812010930 METAR LRAR 010930Z 14004KT 110V170 9999 BKN045 M04/M08 Q1023=
201812011000 METAR LRAR 011000Z VRB02KT 9999 BKN045 M03/M08 Q1023=
201812011030 METAR LRAR 011030Z 13003KT 060V180 9999 BKN047 M03/M07 Q1023=
201812011100 METAR LRAR 011100Z VRB02KT 9999 BKN048 M02/M06 Q1023=
201812011130 METAR LRAR 011130Z VRB02KT CAVOK M02/M07 Q1023=
201812011200 METAR LRAR 011200Z VRB02KT 9999 BKN046 M02/M07 Q1023=
201812011230 METAR LRAR 011230Z VRB02KT 9999 BKN045 M02/M07 Q1023=
201812011300 METAR LRAR 011300Z VRB02KT 9999 BKN045 M02/M07 Q1023=
201812011330 METAR LRAR 011330Z VRB02KT 9999 BKN045 M02/M07 Q1023=
201812011400 METAR LRAR 011400Z VRB02KT 9999 BKN044 M02/M07 Q1023=
201812011430 METAR LRAR 011430Z VRB02KT 9999 SCT044 M02/M06 Q1023=
201812011500 METAR LRAR 011500Z VRB02KT 9999 SCT045 M02/M06 Q1023=
201812011530 METAR LRAR 011530Z VRB01KT CAVOK M02/M06 Q1023=
201812011600 METAR LRAR 011600Z 17001KT 9999 BKN043 M02/M06 Q1023=
201812011630 METAR LRAR 011630Z VRB02KT 9999 BKN041 M02/M06 Q1024=
201812011700 METAR LRAR 011700Z VRB01KT 9999 BKN039 M02/M06 Q1024=
201812011730 METAR LRAR 011730Z AUTO VRB01KT 9999 BKN038/// M01/M06 Q1024=
201812011800 METAR LRAR 011800Z AUTO 00000KT 9999 BKN037/// M01/M05 Q1024=
201812011830 METAR LRAR 011830Z AUTO 00000KT 9999 BKN036/// M01/M06 Q1024=
201812011900 METAR LRAR 011900Z AUTO 00000KT 9999 BKN035/// M01/M06 Q1024=
201812011930 METAR LRAR 011930Z AUTO 00000KT 9999 SCT076/// M01/M05 Q1024=
201812012000 METAR LRAR 012000Z AUTO 31002KT 9999 BKN035/// BKN076///
                        M01/M05 Q1024=
201812012030 METAR LRAR 012030Z AUTO 02002KT 340V070 9999 FEW035/// BKN040///
                        M01/M05 Q1024=
201812012100 METAR LRAR 012100Z AUTO 07003KT 9999 SCT037/// BKN042///
                        M01/M04 Q1024=
201812012130 METAR LRAR 012130Z AUTO 11004KT 9999 SCT039/// BKN071///
                        M01/M05 Q1024=
201812012200 METAR LRAR 012200Z AUTO 13004KT 9999 SCT071/// M01/M04 Q1024=
201812012230 METAR LRAR 012230Z AUTO 13004KT 9999 BKN066/// M01/M04 Q1024=
201812012300 METAR LRAR 012300Z AUTO 14002KT 9999 BKN036/// BKN071///
                        M01/M04 Q1024=
201812012330 METAR LRAR 012330Z AUTO 18002KT 9999 OVC035/// M02/M04 Q1023=
201812020000 METAR LRAR 020000Z AUTO 16002KT 9999 BKN033/// M01/M04 Q1023=
201812020030 METAR LRAR 020030Z AUTO 14001KT 9999 OVC032/// M01/M04 Q1024=
201812020100 METAR LRAR 020100Z AUTO 13002KT 9999 BKN031/// M01/M04 Q1023=
201812020130 METAR LRAR 020130Z AUTO 12003KT 9999 OVC031/// M01/M05 Q1023=
201812020200 METAR LRAR 020200Z AUTO 12003KT 9999 SCT031/// M02/M05 Q1023=
201812020230 METAR LRAR 020230Z AUTO 13002KT 9999 FEW029/// M02/M05 Q1023=
201812020300 METAR LRAR 020300Z AUTO 10003KT 9999 BKN027/// M02/M05 Q1024=
201812020330 METAR LRAR 020330Z AUTO 10003KT 9999 SCT028/// M02/M05 Q1023=
201812020400 METAR LRAR 020400Z AUTO 10003KT 9999 SCT026/// M03/M05 Q1023=
201812020430 METAR LRAR 020430Z AUTO 07003KT 9999 BKN024/// M02/M04 Q1023=
201812020500 METAR LRAR 020500Z 07002KT 9999 BKN024 M02/M03 Q1023=
201812020530 METAR LRAR 020530Z 09002KT 9999 BKN022 M03/M04 Q1023=
201812020600 METAR LRAR 020600Z 08003KT 9999 FEW023 M03/M04 Q1023=
201812020630 METAR LRAR 020630Z VRB03KT 8000 NSC M02/M04 Q1023=
201812020700 METAR LRAR 020700Z 10004KT 9000 NSC M01/M03 Q1023=
201812020730 METAR LRAR 020730Z 12006KT CAVOK M00/M04 Q1023=
201812020800 METAR LRAR 020800Z 12008KT CAVOK 00/M05 Q1023=
201812020830 METAR LRAR 020830Z 13007KT CAVOK 01/M05 Q1022=
201812020900 METAR LRAR 020900Z 12007KT CAVOK 02/M05 Q1022=
201812020930 METAR LRAR 020930Z 13007KT CAVOK 02/M05 Q1022=
201812021000 METAR LRAR 021000Z 16006KT CAVOK 03/M04 Q1021=
201812021030 METAR LRAR 021030Z 14008KT CAVOK 04/M04 Q1021=
201812021100 METAR LRAR 021100Z 16009KT CAVOK 05/M04 Q1020=
201812021130 METAR LRAR 021130Z 16007KT 130V190 CAVOK 05/M04 Q1020=
201812021200 METAR LRAR 021200Z 16006KT 130V210 CAVOK 06/M04 Q1020=
201812021230 METAR LRAR 021230Z 14006KT 100V160 CAVOK 06/M03 Q1020=
201812021300 METAR LRAR 021300Z 14006KT CAVOK 06/M02 Q1020=
201812021330 METAR LRAR 021330Z 14005KT 100V170 CAVOK 06/M02 Q1020=
201812021400 METAR LRAR 021400Z 15006KT CAVOK 06/M02 Q1019=
201812021430 METAR LRAR 021430Z 18004KT CAVOK 05/M02 Q1019=
201812021500 METAR LRAR 021500Z 12005KT CAVOK 03/M02 Q1018=
201812021530 METAR LRAR 021530Z 12005KT CAVOK 03/M02 Q1018=
201812021600 METAR LRAR 021600Z 14006KT CAVOK 02/M02 Q1018=
201812021630 METAR LRAR 021630Z 14008KT CAVOK 02/M02 Q1017=
201812021700 METAR LRAR 021700Z 14009KT CAVOK 03/M02 Q1017=
201812021730 METAR LRAR 021730Z AUTO 14008KT 9999 NCD 02/M03 Q1017=
201812021800 METAR LRAR 021800Z AUTO 14007KT 9999 NCD 02/M03 Q1017=
201812021830 METAR LRAR 021830Z AUTO 13010KT 9999 NCD 01/M03 Q1017=
201812021900 METAR LRAR 021900Z AUTO 14011KT 9999 FEW081/// 02/M02 Q1017=
201812021930 METAR LRAR 021930Z AUTO 14010KT 9999 BKN076/// 02/M02 Q1017=
201812022000 METAR LRAR 022000Z AUTO 14012KT 9999 SCT076/// 03/M02 Q1017=
201812022030 METAR LRAR 022030Z AUTO 14013KT 9999 FEW076/// 03/M02 Q1017=
201812022100 METAR LRAR 022100Z AUTO 14013KT 9999 FEW076/// 03/M02 Q1016=
201812022130 METAR LRAR 022130Z AUTO 14012KT 9999 NCD 02/M02 Q1016=
201812022200 METAR LRAR 022200Z AUTO 14011KT 9999 NCD 02/M02 Q1016=
201812022230 METAR LRAR 022230Z AUTO 14012KT 9999 SCT076/// 02/M02 Q1016=
201812022300 METAR LRAR 022300Z AUTO 14012KT 9999 BKN071/// 03/M02 Q1016=
201812022330 METAR LRAR 022330Z AUTO 15013KT 9999 SCT071/// 03/M02 Q1015=
201812030000 METAR LRAR 030000Z AUTO 15012KT 9999 SCT061/// 03/M02 Q1015=
201812030030 METAR LRAR 030030Z AUTO 15012KT 9999 FEW071/// 02/M01 Q1015=
201812030100 METAR LRAR 030100Z AUTO 15011KT 9999 NCD 03/M01 Q1015=
201812030130 METAR LRAR 030130Z AUTO 15013KT 9999 NCD 03/M01 Q1015=
201812030200 METAR LRAR 030200Z AUTO 15012KT 9999 NCD 03/M01 Q1015=
201812030230 METAR LRAR 030230Z AUTO 15012KT 9999 NCD 03/M01 Q1015=
201812030300 METAR LRAR 030300Z AUTO 15010KT 9999 FEW100/// 03/M01 Q1015=
201812030330 METAR LRAR 030330Z AUTO 15009KT 9999 FEW061/// SCT100///
                        03/M01 Q1015=
201812030400 METAR LRAR 030400Z AUTO 15009KT 9999 FEW056/// 03/M01 Q1014=
201812030430 METAR LRAR 030430Z AUTO 15008KT 9999 FEW091/// 03/M00 Q1015=
201812030500 METAR LRAR 030500Z 15008KT CAVOK 03/M00 Q1015=
201812030530 METAR LRAR 030530Z 15007KT CAVOK 03/M00 Q1015=
201812030600 METAR LRAR 030600Z 16007KT CAVOK 03/M00 Q1014=
201812030630 METAR LRAR 030630Z 15006KT CAVOK 03/M00 Q1015=
201812030700 METAR LRAR 030700Z 14005KT CAVOK 04/00 Q1015=
201812030730 METAR LRAR 030730Z 16008KT CAVOK 06/00 Q1015=
201812030800 METAR LRAR 030800Z 16009KT CAVOK 06/00 Q1015=
201812030830 METAR LRAR 030830Z 16007KT CAVOK 06/01 Q1015=
201812030900 METAR LRAR 030900Z 17009KT CAVOK 07/01 Q1015=
201812030930 METAR LRAR 030930Z 18013KT CAVOK 08/00 Q1015=
201812031000 METAR LRAR 031000Z 18014KT CAVOK 08/01 Q1015=
201812031030 METAR LRAR 031030Z 17014KT CAVOK 08/01 Q1014=
201812031100 METAR LRAR 031100Z 19014KT CAVOK 08/02 Q1014=
201812031130 METAR LRAR 031130Z 18011KT CAVOK 09/02 Q1014=
201812031200 METAR LRAR 031200Z 19010KT CAVOK 09/02 Q1014=
201812031230 METAR LRAR 031230Z 19009KT CAVOK 09/03 Q1014=
201812031300 METAR LRAR 031300Z 18008KT CAVOK 09/03 Q1013=
201812031330 METAR LRAR 031330Z 18006KT 140V200 9999 BKN048 09/03 Q1013=
201812031400 METAR LRAR 031400Z 16005KT 9999 BKN048 09/04 Q1013=
201812031430 METAR LRAR 031430Z 16004KT 9999 BKN047 09/04 Q1013=
201812031500 METAR LRAR 031500Z 17005KT 9999 BKN047 09/04 Q1013=
201812031530 METAR LRAR 031530Z 16005KT 9999 BKN042 09/04 Q1013=
201812031600 METAR LRAR 031600Z 17005KT 9999 BKN042 08/04 Q1013=
201812031630 METAR LRAR 031630Z 16004KT 9999 BKN044 08/04 Q1014=
201812031700 METAR LRAR 031700Z 17004KT 9999 BKN045 08/04 Q1014=
201812031730 METAR LRAR 031730Z AUTO 17004KT 9999 BKN044/// 08/04 Q1014=
201812031800 METAR LRAR 031800Z AUTO 15007KT 9999 SCT045/// 08/04 Q1013=
201812031830 METAR LRAR 031830Z AUTO 16005KT 9999 -SHRA FEW046/// 08/04
                        Q1013=
201812031900 METAR LRAR 031900Z AUTO 16006KT 9999 FEW050/// SCT076///
                        08/04 Q1013 REDZ=
201812031930 METAR LRAR 031930Z AUTO 15006KT 9999 BKN049/// 07/04 Q1013=
201812032000 METAR LRAR 032000Z AUTO 16006KT 9999 -SHRA SCT046/// BKN061///
                        08/03 Q1013=
201812032030 METAR LRAR 032030Z AUTO 16004KT 9999 BKN040/// 07/03 Q1013=
201812032100 METAR LRAR 032100Z AUTO 18005KT 9999 -SHRA FEW010/// SCT015///
                        BKN039/// 07/04 Q1013=
201812032130 METAR LRAR 032130Z AUTO 18005KT 9999 DZ SCT010/// BKN013///
                        07/04 Q1013=
201812032200 METAR LRAR 032200Z AUTO 18008KT 9999 DZ FEW009/// SCT014///
                        BKN018/// 07/04 Q1013=
201812032230 METAR LRAR 032230Z AUTO 16007KT 9999 -RA FEW009/// SCT013///
                        BKN016/// 06/05 Q1012=
201812032300 METAR LRAR 032300Z AUTO 17006KT 9999 DZ FEW009/// BKN012///
                        BKN015/// 06/05 Q1012=
201812032330 METAR LRAR 032330Z AUTO 16006KT 8000 -RA VV013 06/05 Q1012=
201812040000 METAR LRAR 040000Z AUTO 13005KT 7000 -SN FEW010/// BKN013///
                        BKN017/// 06/05 Q1012=
201812040030 METAR LRAR 040030Z AUTO 13007KT 8000 SG FEW009/// BKN013///
                        BKN017/// 06/05 Q1012=
201812040100 METAR LRAR 040100Z AUTO 13006KT 8000 SG FEW012/// BKN015///
                        BKN021/// 06/05 Q1012=
201812040130 METAR LRAR 040130Z AUTO 13007KT 9999 UP FEW009/// SCT014///
                        BKN056/// 06/05 Q1012=
201812040200 METAR LRAR 040200Z AUTO 14007KT 9999 BKN050/// 06/05 Q1012
                        REDZ=
201812040230 METAR LRAR 040230Z AUTO 14008KT 9999 BKN048/// 06/05 Q1012=
201812040300 METAR LRAR 040300Z AUTO 14009KT 9999 BKN043/// 06/05 Q1012=
201812040330 METAR LRAR 040330Z AUTO 14009KT 9999 BKN043/// 06/05 Q1012=
201812040400 METAR LRAR 040400Z AUTO 14007KT 9999 BKN039/// BKN044///
                        06/05 Q1012=
201812040430 METAR LRAR 040430Z AUTO 13008KT 9999 SCT036/// BKN061///
                        06/05 Q1012=
201812040500 METAR LRAR 040500Z 14008KT 9999 SCT035 06/05 Q1012=
201812040530 METAR COR LRAR 040530Z 14007KT 9999 FEW033 06/05 Q1012=
201812040600 METAR LRAR 040600Z 14006KT 9999 BKN033 06/05 Q1012=
201812040630 METAR LRAR 040630Z 14007KT 9999 BKN030 06/05 Q1012 R09/19//95=
201812040700 METAR LRAR 040700Z 14009KT 9999 SCT028 06/05 Q1013 R09/19//95=
201812040730 METAR LRAR 040730Z 14009KT 9999 FEW030 SCT045 07/05 Q1013
                        R09/19//95=
201812040800 METAR LRAR 040800Z 14009KT 9999 FEW013 SCT048 07/05 Q1013
                        R09/19//95=
201812040830 METAR LRAR 040830Z 14007KT 9999 -RA FEW010 BKN032 07/06 Q1013
                        R09/19//95=
201812040900 METAR LRAR 040900Z 14009KT 9999 -RA FEW009 SCT013 BKN040
                        08/06 Q1013 R09/19//95=
201812040930 METAR LRAR 040930Z 15005KT 9999 BKN030 08/06 Q1013 R09/19//95=
201812041000 METAR LRAR 041000Z 16004KT 130V190 9999 BKN029 08/07 Q1013
                        R09/19//95=
201812041030 METAR LRAR 041030Z 19003KT 160V230 9999 BKN029 08/07 Q1013
                        R09/19//95=
201812041100 METAR COR LRAR 041100Z VRB02KT 9999 SCT026 BKN029 08/07 Q1013
                        R09/19//95=
201812041130 METAR LRAR 041130Z 15004KT 9999 SCT020 BKN027 08/07 Q1013
                        R09/19//95=
201812041200 METAR LRAR 041200Z 25003KT 200V280 5000 -DZ FEW007 BKN018
                        BKN026 08/07 Q1013 R09/19//95=
201812041230 METAR LRAR 041230Z 24004KT 210V270 5000 -DZ BR FEW006 BKN010
                        BKN015 08/08 Q1013 R09/19//95=
201812041300 METAR LRAR 041300Z 20006KT 150V230 4000 -DZ BR FEW006 BKN010
                        OVC035 08/07 Q1013 R09/19//95=
201812041330 METAR LRAR 041330Z 19003KT 160V230 5000 BR SCT023 BKN033
                        08/08 Q1013 R09/19//95=
201812041400 METAR COR LRAR 041400Z 21003KT 5000 BR FEW004 SCT010 BKN030
                        07/07 Q1014 R09/19//95=
201812041430 METAR LRAR 041430Z 23003KT 170V260 3000 -DZ BR FEW003 SCT006
                        BKN011 07/07 Q1014 R09/19//95=
201812041500 METAR LRAR 041500Z 21002KT 3000 BR FEW008 BKN035 07/07 Q1014
                        R09/19//95=
201812041530 METAR LRAR 041530Z 23002KT 3000 -RA BR BKN040 07/07 Q1014
                        R09/19//95=
201812041600 METAR LRAR 041600Z 21002KT 3000 -RA BR BKN043 07/07 Q1015
                        R09/19//95=
201812041630 METAR LRAR 041630Z 22002KT 3000 -RA BR BKN032 BKN046 07/07
                        Q1015 R09/19//95=
201812041700 METAR LRAR 041700Z 21002KT 3000 -RA BR BKN032 07/07 Q1015
                        R09/19//95=
201812041730 METAR LRAR 041730Z AUTO 18002KT 3000 BKN031/// ///// Q1015
                        REDZ=
201812041800 METAR LRAR 041800Z AUTO 24002KT 1800 R27/1300VP2000D FG BKN033///
                        ///// Q1015=
201812041830 METAR LRAR 041830Z AUTO 22002KT 1300 R27/0900V1800U FG BKN030///
                        ///// Q1016=
201812041900 METAR LRAR 041900Z AUTO 22003KT 2700 BKN031/// ///// Q1016=
201812041930 METAR LRAR 041930Z AUTO 23003KT 1600 R27/1100VP2000D FG FEW017///
                        SCT031/// ///// Q1016=
201812042000 METAR LRAR 042000Z AUTO VRB01KT 0550 R27/0650N FG FEW016///
                        SCT022/// BKN027/// ///// Q1016=
201812042030 METAR LRAR 042030Z AUTO 28005KT 1600 R27/1700U FG FEW015///
                        BKN018/// ///// Q1017=
201812042100 METAR LRAR 042100Z AUTO 29006KT 3200 R27/2000 FEW014/// BKN017///
                        BKN031/// ///// Q1017=
201812042130 METAR LRAR 042130Z AUTO 30007KT 4000 FEW010/// OVC014///
                        ///// Q1017=
201812042200 METAR LRAR 042200Z AUTO 30006KT 3800 BR FEW005/// BKN012///
                        ///// Q1018=
201812042230 METAR LRAR 042230Z AUTO 30007KT 2900 R27/2000 BR FEW003///
                        BKN009/// BKN011/// ///// Q1018=
201812042300 METAR LRAR 042300Z AUTO 31008KT 2000 R27/1600VP2000U FG BKN001///
                        BKN003/// OVC005/// ///// Q1018=
201812042330 METAR LRAR 042330Z AUTO 33009KT 2400 UP OVC001/// ///// Q1018=
201812050000 METAR LRAR 050000Z AUTO 36011KT 4700 -SN FEW001/// SCT003///
                        BKN005/// ///// Q1019=
201812050030 METAR LRAR 050030Z AUTO 36009KT 5000 -SHSN FEW005/// BKN029///
                        06/06 Q1019=
201812050100 METAR LRAR 050100Z AUTO 01010KT 8000 -SHRA FEW016/// BKN034///
                        06/05 Q1020=
201812050130 METAR LRAR 050130Z AUTO 01011KT 9999 -SHSN FEW008/// SCT032///
                        BKN040/// 06/05 Q1020=
201812050200 METAR LRAR 050200Z AUTO 34008KT 9999 -SHRA FEW013/// BKN038///
                        06/05 Q1020=
201812050230 METAR LRAR 050230Z AUTO 35008KT 9999 -SHRA FEW011/// SCT029///
                        BKN044/// 06/04 Q1021=
201812050300 METAR LRAR 050300Z AUTO 35012KT 9999 FEW032/// BKN047///
                        05/04 Q1021=
201812050330 METAR LRAR 050330Z AUTO 36013KT 9999 FEW027/// 05/03 Q1022
                        REUP=
201812050400 METAR LRAR 050400Z AUTO 36013KT 9999 -SHRA FEW010/// SCT050///
                        05/03 Q1022=
201812050430 METAR LRAR 050430Z AUTO 01012KT 9999 -SHRA FEW007/// SCT017///
                        BKN043/// 05/03 Q1022=
201812050500 METAR LRAR 050500Z 35008KT 9999 SCT028 05/03 Q1023 R09/19//95=
201812050530 METAR LRAR 050530Z 33010KT CAVOK 04/03 Q1023 R09/19//95=
201812050600 METAR LRAR 050600Z 32010KT CAVOK 04/02 Q1024 R09/29//95=
201812050630 METAR LRAR 050630Z 32009KT CAVOK 04/03 Q1024 R09/29//95=
201812050700 METAR LRAR 050700Z 33010KT CAVOK 04/03 Q1025 R09/19//95=
201812050730 METAR LRAR 050730Z 34010KT CAVOK 05/03 Q1025 R09/19//95=
201812050800 METAR LRAR 050800Z 34010KT CAVOK 06/02 Q1025 R09/19//95=
201812050830 METAR LRAR 050830Z 35011KT CAVOK 06/02 Q1025 R09/19//95=
201812050900 METAR LRAR 050900Z 36014KT CAVOK 06/01 Q1026 R09/CLRD//=
201812050930 METAR LRAR 050930Z 36012KT CAVOK 06/01 Q1026=
201812051000 METAR LRAR 051000Z 36013KT 9999 SCT035 06/01 Q1026=
201812051030 METAR LRAR 051030Z 36012KT 330V030 9999 SCT035 06/01 Q1026=
201812051100 METAR LRAR 051100Z 36011KT 9999 FEW038 06/01 Q1026=
201812051130 METAR LRAR 051130Z 35010KT 9999 FEW040 07/01 Q1026=
201812051200 METAR LRAR 051200Z 01012KT 340V040 CAVOK 07/00 Q1026=
201812051230 METAR LRAR 051230Z 01014KT CAVOK 07/M01 Q1026=
201812051300 METAR LRAR 051300Z 02011KT 350V050 CAVOK 07/M01 Q1026=
201812051330 METAR LRAR 051330Z 02011KT CAVOK 06/M02 Q1026=
201812051400 METAR LRAR 051400Z 02010KT 330V050 CAVOK 06/M01 Q1026=
201812051430 METAR LRAR 051430Z 01010KT CAVOK 06/M01 Q1027=
201812051500 METAR LRAR 051500Z 35004KT CAVOK 04/M01 Q1027=
201812051530 METAR LRAR 051530Z 35003KT CAVOK 03/M01 Q1027=
201812051600 METAR LRAR 051600Z 01003KT CAVOK 02/M01 Q1027=
201812051630 METAR LRAR 051630Z 34003KT CAVOK 01/M01 Q1028=
201812051700 METAR LRAR 051700Z 35004KT CAVOK 02/M01 Q1028=
201812051730 METAR LRAR 051730Z AUTO 35004KT 9999 BKN045/// 02/M01 Q1028=
201812051800 METAR LRAR 051800Z AUTO 01004KT 9999 FEW048/// 02/M01 Q1028=
201812051830 METAR LRAR 051830Z AUTO 02005KT 9999 NCD 02/M01 Q1028=
201812051900 METAR LRAR 051900Z AUTO 03006KT 9999 NCD 02/M02 Q1028=
201812051930 METAR LRAR 051930Z AUTO 32004KT 9999 NCD M02/M03 Q1028=
201812052000 METAR LRAR 052000Z AUTO 32004KT 9999 NCD M02/M02 Q1028=
201812052030 METAR LRAR 052030Z AUTO 33003KT 9999 NCD M02/M02 Q1028=
201812052100 METAR LRAR 052100Z AUTO 25002KT 200V330 9999 NCD M02/M03
                        Q1029=
201812052130 METAR LRAR 052130Z AUTO VRB01KT 9999 NCD M01/M02 Q1029=
201812052200 METAR LRAR 052200Z AUTO 32003KT 9999 NCD M02/M03 Q1029=
201812052230 METAR LRAR 052230Z AUTO 27002KT 230V320 9999 NCD M03/M03
                        Q1029=
201812052300 METAR LRAR 052300Z AUTO VRB02KT 9999 NCD M01/M03 Q1028=
201812052330 METAR LRAR 052330Z AUTO VRB01KT 9999 NCD M03/M03 Q1028=
201812060000 METAR LRAR 060000Z AUTO VRB01KT 9999 NCD M02/M03 Q1028=
201812060030 METAR LRAR 060030Z AUTO 29003KT 270V350 9000 NCD M04/M05
                        Q1029=
201812060100 METAR LRAR 060100Z AUTO 21002KT 140V240 9000 NCD M04/M05
                        Q1029=
201812060130 METAR LRAR 060130Z AUTO VRB01KT 9000 NCD M04/M05 Q1028=
201812060200 METAR LRAR 060200Z AUTO 24002KT 190V280 8000 NCD M04/M04
                        Q1028=
201812060230 METAR LRAR 060230Z AUTO 25002KT 220V290 9000 NCD M05/M05
                        Q1028=
201812060300 METAR LRAR 060300Z AUTO 24002KT 9999 NCD M05/M05 Q1028=
201812060330 METAR LRAR 060330Z AUTO 28002KT 8000 NCD M06/M06 Q1027=
201812060400 METAR LRAR 060400Z AUTO 33002KT 7000 NCD M05/M05 Q1027=
201812060430 METAR LRAR 060430Z AUTO VRB01KT 8000 NCD M05/M05 Q1027=
201812060500 METAR LRAR 060500Z 08003KT CAVOK M05/M05 Q1027=
201812060530 METAR LRAR 060530Z VRB01KT CAVOK M06/M06 Q1027=
201812060600 METAR LRAR 060600Z 25003KT CAVOK M06/M07 Q1027=
201812060630 METAR LRAR 060630Z 13001KT 9000 NSC M07/M07 Q1027=
201812060700 METAR LRAR 060700Z VRB02KT 7000 NSC M06/M06 Q1027=
201812060730 METAR LRAR 060730Z VRB01KT 6000 NSC M04/M04 Q1027=
201812060800 METAR LRAR 060800Z VRB01KT 9000 NSC M01/M02 Q1027=
201812060830 METAR LRAR 060830Z VRB02KT CAVOK M01/M03 Q1028=
201812060900 METAR LRAR 060900Z AUTO VRB01KT 9999 NCD 00/M02 Q1028=
201812060930 METAR LRAR 060930Z VRB01KT CAVOK 01/M02 Q1027=
201812061000 METAR LRAR 061000Z VRB01KT CAVOK 02/M02 Q1027=
201812061030 METAR LRAR 061030Z VRB02KT CAVOK 03/M02 Q1027=
201812061100 METAR LRAR 061100Z 34003KT 300V040 CAVOK 03/M03 Q1027=
201812061130 METAR LRAR 061130Z VRB04KT CAVOK 03/M03 Q1026=
201812061200 METAR LRAR 061200Z 34004KT CAVOK 03/M03 Q1026=
201812061230 METAR LRAR 061230Z 01005KT 340V050 CAVOK 04/M04 Q1026=
201812061300 METAR LRAR 061300Z 02004KT 320V050 CAVOK 03/M04 Q1026=
201812061330 METAR LRAR 061330Z 04004KT 360V070 CAVOK 03/M04 Q1026=
201812061400 METAR LRAR 061400Z 03005KT 350V060 CAVOK 03/M04 Q1026=
201812061430 METAR LRAR 061430Z 04003KT CAVOK 02/M04 Q1026=
201812061500 METAR LRAR 061500Z 03003KT CAVOK 01/M04 Q1026=
201812061530 METAR LRAR 061530Z 05003KT CAVOK 01/M04 Q1026=
201812061600 METAR LRAR 061600Z 16001KT CAVOK M01/M04 Q1026=
201812061630 METAR LRAR 061630Z VRB01KT CAVOK M02/M05 Q1026=
201812061700 METAR LRAR 061700Z 10001KT CAVOK M02/M04 Q1026=
201812061730 METAR LRAR 061730Z AUTO 16001KT 9999 NCD M03/M05 Q1026=
201812061800 METAR LRAR 061800Z AUTO 25002KT 150V280 9999 NCD M04/M05
                        Q1026=
201812061830 METAR LRAR 061830Z AUTO 28003KT 9000 NCD M04/M05 Q1026=
201812061900 METAR LRAR 061900Z AUTO 27002KT 9000 NCD M05/M05 Q1026=
201812061930 METAR LRAR 061930Z AUTO 14002KT 9000 NCD M04/M05 Q1026=
201812062000 METAR LRAR 062000Z AUTO 26001KT 6000 NCD M05/M05 Q1026=
201812062030 METAR LRAR 062030Z AUTO 00000KT 8000 NCD M05/M06 Q1026=
201812062100 METAR LRAR 062100Z AUTO 22001KT 8000 NCD M05/M06 Q1026=
201812062130 METAR LRAR 062130Z AUTO 14002KT 6000 NCD M05/M06 Q1026=
201812062200 METAR LRAR 062200Z AUTO 14002KT 5000 BR NCD M05/M06 Q1026=
201812062230 METAR LRAR 062230Z AUTO 15002KT 5000 BR NCD M05/M06 Q1026=
201812062300 METAR LRAR 062300Z AUTO 14003KT 4900 BR NCD M05/M05 Q1026=
201812062330 METAR LRAR 062330Z AUTO 15001KT 4800 BR FEW061/// M04/M04
                        Q1025=
201812070000 METAR LRAR 070000Z AUTO 13002KT 5000 BR BKN061/// M03/M03
                        Q1025=
201812070030 METAR LRAR 070030Z AUTO 13003KT 5000 BR SCT050/// M02/M03
                        Q1025=
201812070100 METAR LRAR 070100Z AUTO 14003KT 7000 FEW056/// M02/M03 Q1025=
201812070130 METAR LRAR 070130Z AUTO 14003KT 8000 BKN050/// M02/M03 Q1025=
201812070200 METAR LRAR 070200Z AUTO 19002KT 9999 BKN050/// M02/M03 Q1025=
201812070230 METAR LRAR 070230Z AUTO 16002KT 130V200 9999 BKN050/// M01/M03
                        Q1025=
201812070300 METAR LRAR 070300Z AUTO 14003KT 9999 FEW050/// SCT071///
                        M01/M02 Q1025=
201812070330 METAR LRAR 070330Z AUTO 16003KT 9999 FEW071/// M01/M02 Q1025=
201812070400 METAR LRAR 070400Z AUTO 15004KT 9999 BKN046/// M01/M02 Q1024=
201812070430 METAR LRAR 070430Z AUTO 17003KT 9999 BKN045/// M01/M03 Q1024=
201812070500 METAR LRAR 070500Z 17003KT 9999 BKN045 M01/M02 Q1024=
201812070530 METAR COR LRAR 070530Z 15004KT CAVOK M01/M02 Q1024=
201812070600 METAR LRAR 070600Z VRB02KT 9999 BKN048 M01/M02 Q1024=
201812070630 METAR LRAR 070630Z 18003KT 150V210 9999 BKN048 M01/M02 Q1024=
201812070700 METAR LRAR 070700Z 17004KT 140V200 9999 BKN045 M01/M02 Q1024=
201812070730 METAR LRAR 070730Z 17007KT 9999 SCT037 BKN042 M01/M02 Q1023=
201812070800 METAR LRAR 070800Z 18008KT 9999 BKN035 M00/M02 Q1023=
201812070830 METAR LRAR 070830Z 18006KT 150V220 9999 BKN033 00/M02 Q1023=
201812070900 METAR LRAR 070900Z 20007KT 9999 BKN033 00/M02 Q1023=
201812070930 METAR LRAR 070930Z 18006KT 140V210 9999 BKN031 01/M02 Q1023=
201812071000 METAR LRAR 071000Z 18007KT 150V210 9999 OVC031 01/M02 Q1023=
201812071030 METAR LRAR 071030Z 17005KT 9999 BKN030 01/M02 Q1023=
201812071100 METAR LRAR 071100Z 18007KT 150V210 9999 BKN032 02/M02 Q1022=
201812071130 METAR LRAR 071130Z 16007KT 9999 BKN030 02/M02 Q1022=
201812071200 METAR LRAR 071200Z 16008KT 9999 SCT029 BKN033 02/M02 Q1021=
201812071230 METAR LRAR 071230Z 16008KT 9999 FEW034 SCT048 03/M02 Q1020=
201812071300 METAR LRAR 071300Z 15008KT 9999 SCT032 BKN042 03/M01 Q1020=
201812071330 METAR LRAR 071330Z 16008KT 9999 FEW030 BKN042 03/M01 Q1020=
201812071400 METAR LRAR 071400Z 16009KT 9999 SCT029 BKN044 03/M01 Q1020=
201812071430 METAR LRAR 071430Z 16011KT 9999 BKN033 03/M02 Q1019=
201812071500 METAR LRAR 071500Z 16009KT 9999 BKN036 02/M01 Q1019=
201812071530 METAR LRAR 071530Z 15010KT 9999 BKN042 02/M02 Q1019=
201812071600 METAR LRAR 071600Z 15010KT 9999 BKN045 02/M02 Q1019=
201812071630 METAR LRAR 071630Z 15009KT 9999 BKN046 02/M02 Q1018=
201812071700 METAR LRAR 071700Z 16009KT 9999 BKN047 02/M02 Q1018=
201812071730 METAR LRAR 071730Z AUTO 16010KT 9999 BKN066/// 03/M02 Q1017=
201812071800 METAR LRAR 071800Z AUTO 16011KT 9999 BKN066/// 03/M02 Q1017=
201812071830 METAR LRAR 071830Z AUTO 15010KT 9999 BKN066/// 03/M02 Q1016=
201812071900 METAR LRAR 071900Z AUTO 15009KT 9999 BKN066/// 03/M02 Q1016=
201812071930 METAR LRAR 071930Z AUTO 15009KT 9999 BKN071/// 03/M02 Q1015=
201812072000 METAR LRAR 072000Z AUTO 15009KT 9999 BKN071/// 03/M03 Q1015=
201812072030 METAR LRAR 072030Z AUTO 15010KT 9999 BKN071/// 03/M03 Q1015=
201812072100 METAR LRAR 072100Z AUTO 15011KT 9999 FEW071/// 03/M03 Q1014=
201812072130 METAR LRAR 072130Z AUTO 14009KT 9999 NCD 02/M03 Q1014=
201812072200 METAR LRAR 072200Z AUTO 15010KT 9999 NCD 02/M03 Q1013=
201812072230 METAR LRAR 072230Z AUTO 14010KT 9999 NCD 02/M03 Q1013=
201812072300 METAR LRAR 072300Z AUTO 15010KT 9999 NCD 02/M03 Q1012=
201812072330 METAR LRAR 072330Z AUTO 14010KT 9999 NCD 03/M03 Q1012=
201812080000 METAR LRAR 080000Z AUTO 15012KT 9999 NCD 03/M02 Q1011=
201812080030 METAR LRAR 080030Z AUTO 15012KT 9999 NCD 03/M02 Q1011=
201812080100 METAR LRAR 080100Z AUTO 15011KT 9999 NCD 03/M01 Q1011=
201812080130 METAR LRAR 080130Z AUTO 15010KT 9999 NCD 03/M01 Q1011=
201812080200 METAR LRAR 080200Z AUTO 16010KT 9999 NCD 03/M01 Q1010=
201812080230 METAR LRAR 080230Z AUTO 22004KT 9999 NCD 03/M01 Q1011=
201812080300 METAR LRAR 080300Z AUTO 21004KT 9999 NCD 03/M01 Q1011=
201812080330 METAR LRAR 080330Z AUTO 19008KT 9999 NCD 04/M02 Q1011=
201812080400 METAR LRAR 080400Z AUTO 17012KT 9999 NCD 04/M02 Q1010=
201812080430 METAR LRAR 080430Z AUTO 17013KT 9999 FEW081/// 05/M02 Q1010=
201812080500 METAR LRAR 080500Z 16012KT CAVOK 05/M02 Q1010=
201812080530 METAR LRAR 080530Z 17011KT 9999 -RA FEW013 05/M01 Q1010=
201812080600 METAR LRAR 080600Z 17009KT 9999 -RA FEW010 SCT015 BKN025
                        04/M00 Q1010=
201812080630 METAR LRAR 080630Z 17013KT 9999 SCT025 BKN045 04/M00 Q1010=
201812080700 METAR LRAR 080700Z 16010KT 9999 BKN043 04/M00 Q1010 R09/29//95=
201812080730 METAR LRAR 080730Z 16010KT 9999 FEW022 BKN045 04/M00 Q1010
                        R09/29//95=
201812080800 METAR LRAR 080800Z 21006KT 170V240 7000 -RA FEW017 SCT025
                        BKN045 04/00 Q1011 R09/29//95=
201812080830 METAR LRAR 080830Z 16008KT 8000 -RA SCT015 BKN025 BKN035
                        03/01 Q1010 R09/29//95=
201812080900 METAR LRAR 080900Z 18009KT 9999 -RA FEW009 SCT017 BKN030
                        03/02 Q1010 R09/29//95=
201812080930 METAR LRAR 080930Z 19007KT 9999 -RA FEW007 BKN015 BKN033
                        04/02 Q1010 R09/29//95=
201812081000 METAR LRAR 081000Z 20006KT 9999 FEW013 BKN025 04/03 Q1010
                        R09/29//95=
201812081030 METAR LRAR 081030Z 21006KT 5000 -RADZ BKN010 OVC019 04/03
                        Q1010 R09/29//95=
201812081100 METAR LRAR 081100Z 21006KT 5000 -RADZ BR BKN010 BKN018 04/03
                        Q1010 R09/29//95=
201812081130 METAR LRAR 081130Z 21005KT 6000 SCT012 BKN022 04/04 Q1010
                        R09/29//95=
201812081200 METAR LRAR 081200Z 20005KT 7000 BKN014 04/04 Q1010 R09/29//95=
201812081230 METAR LRAR 081230Z 22005KT 190V250 7000 BKN015 05/04 Q1010
                        R09/29//95=
201812081300 METAR LRAR 081300Z 22005KT 7000 FEW008 BKN011 05/04 Q1010
                        R09/29//95=
201812081330 METAR LRAR 081330Z 24005KT 6000 BKN007 BKN010 05/04 Q1010
                        R09/29//95=
201812081400 METAR LRAR 081400Z 25004KT 5000 BR BKN005 OVC008 05/05 Q1010
                        R09/29//95=
201812081430 METAR LRAR 081430Z 29008KT 3000 BR BKN004 BKN006 05/05 Q1011
                        R09/29//95=
201812081500 METAR LRAR 081500Z 32009KT 3000 BR FEW008 SCT010 BKN025 04/04
                        Q1011 R09/29//95=
201812081530 METAR LRAR 081530Z 31007KT 4500 BR FEW011 SCT016 BKN026 04/04
                        Q1011 R09/29//95=
201812081600 METAR LRAR 081600Z 32007KT 4500 BR FEW007 SCT029 BKN034 04/04
                        Q1011 R09/29//95=
201812081630 METAR LRAR 081630Z 33006KT 4500 BR BKN007 BKN035 04/04 Q1011
                        R09/29//95=
201812081700 METAR LRAR 081700Z 32005KT 4500 BR SCT005 BKN008 04/04 Q1012
                        R09/29//95=
201812081730 METAR LRAR 081730Z AUTO 34004KT 4600 BR BKN005/// BKN007///
                        03/03 Q1012=
201812081800 METAR LRAR 081800Z AUTO 30003KT 3800 BR FEW005/// BKN041///
                        03/03 Q1012=
201812081830 METAR LRAR 081830Z AUTO 28004KT 2800 BR SCT019/// 03/03 Q1013=
201812081900 METAR LRAR 081900Z AUTO 26004KT 3000 BR OVC016/// 03/03 Q1013=
201812081930 METAR LRAR 081930Z AUTO 26003KT 2900 BR BKN014/// BKN031///
                        03/03 Q1013=
201812082000 METAR LRAR 082000Z AUTO 28002KT 2500 BR SCT013/// BKN036///
                        ///// Q1013=
201812082030 METAR LRAR 082030Z AUTO 00000KT 0350 R27/0400N FG NCD /////
                        Q1013=
201812082100 METAR LRAR 082100Z AUTO 24002KT 200V260 0300 R27/0300V0450N
                        FG NCD ///// Q1013=
201812082130 METAR LRAR 082130Z AUTO 22004KT 1100 R27/1100V1600D FG NCD
                        ///// Q1013=
201812082200 METAR LRAR 082200Z AUTO 24004KT 0250 R27/0300N FG NCD /////
                        Q1013=
201812082230 METAR LRAR 082230Z AUTO 17003KT 0300 R27/0350N FG NCD /////
                        Q1013=
201812082300 METAR LRAR 082300Z AUTO 18002KT 140V200 0250 R27/0275N FG
                        BKN001/// ///// Q1013=
201812082330 METAR LRAR 082330Z AUTO 19003KT 0300 R27/0375N FG BKN001///
                        ///// Q1013=
201812090000 METAR LRAR 090000Z AUTO 24004KT 0350 R27/0450N FG OVC001///
                        ///// Q1013=
201812090030 METAR LRAR 090030Z AUTO 19004KT 0350 R27/0400N FG BKN001///
                        ///// Q1013=
201812090100 METAR LRAR 090100Z AUTO 15005KT 0400 R27/0450N FG OVC001///
                        ///// Q1013=
201812090130 METAR LRAR 090130Z AUTO 16004KT 0450 R27/0500N FG VV001 /////
                        Q1013=
201812090200 METAR LRAR 090200Z AUTO 15004KT 0450 R27/0550N FG VV001 /////
                        Q1012=
201812090230 METAR LRAR 090230Z AUTO 16004KT 0550 R27/0650N FG BKN001///
                        ///// Q1012=
201812090300 METAR LRAR 090300Z AUTO 15004KT 2800 SCT001/// ///// Q1012=
201812090330 METAR LRAR 090330Z AUTO 15007KT 1900 R27/1600VP2000D FG SCT001///
                        ///// Q1012=
201812090400 METAR LRAR 090400Z AUTO 14005KT 1700 R27/1400VP2000U FG BKN001///
                        ///// Q1011=
201812090430 METAR LRAR 090430Z AUTO 14005KT 4700 FEW002/// ///// Q1011=
201812090500 METAR LRAR 090500Z 15007KT 4000 BR NSC M01/M01 Q1011 R09/29//95=
201812090530 METAR LRAR 090530Z 16010KT 1000 R09/1200 R27/1400D BR BKN002
                        M01/M01 Q1011 R09/29//95=
201812090600 METAR LRAR 090600Z 16007KT 0600 R09/0800 R27/0700N FZFG OVC001
                        M01/M01 Q1011 R09/29//95=
201812090630 METAR COR LRAR 090630Z 15011KT 0500 R09/0600 R27/0600N FZFG
                        VV001 M00/M00 Q1011 R09/29//95=
201812090700 METAR LRAR 090700Z 15010KT 0400 R09/0600 R27/0650N FG VV001
                        00/00 Q1011 R09/19//95=
201812090730 METAR LRAR 090730Z 16009KT 0300 R09/0500 R27/0450N FG VV001
                        00/00 Q1011 R09/19//95=
201812090800 METAR LRAR 090800Z 16009KT 0400 R09/0600 R27/0600N FG VV001
                        00/00 Q1011 R09/19//95=
201812090830 METAR LRAR 090830Z 17009KT 0400 R09/0600 R27/0500N FG VV001
                        01/01 Q1010 R09/19//95=
201812090900 METAR LRAR 090900Z 16012KT 0600 R09/0800 R27/0650N FG BKN002
                        02/02 Q1009 R09/19//95=
201812090930 METAR LRAR 090930Z 16014KT 1000 R09/1200 R27/1100U BR BKN002
                        02/02 Q1008 R09/19//95=
201812091000 METAR LRAR 091000Z 16010KT 8000 SCT001 BKN003 04/04 Q1008
                        R09/19//95=
201812091030 METAR LRAR 091030Z 17013KT 9999 BKN004 04/04 Q1007 R09/19//95=
201812091100 METAR LRAR 091100Z 17013KT 9999 FEW006 05/05 Q1007 R09/19//95=
201812091130 METAR LRAR 091130Z 18013KT CAVOK 06/06 Q1007 R09/CLRD//=
201812091200 METAR LRAR 091200Z 18011KT 150V210 CAVOK 07/05 Q1007=
201812091230 METAR LRAR 091230Z 19011KT 160V220 CAVOK 07/05 Q1006=
201812091300 METAR LRAR 091300Z 19010KT CAVOK 08/05 Q1006=
201812091330 METAR LRAR 091330Z 18008KT CAVOK 07/05 Q1005=
201812091400 METAR LRAR 091400Z 19007KT CAVOK 07/04 Q1005=
201812091430 METAR LRAR 091430Z 19006KT 160V230 CAVOK 07/04 Q1005=
201812091500 METAR LRAR 091500Z 18007KT CAVOK 07/04 Q1005=
201812091530 METAR LRAR 091530Z 19007KT CAVOK 06/04 Q1005=
201812091600 METAR LRAR 091600Z 18005KT CAVOK 06/04 Q1005=
201812091630 METAR LRAR 091630Z 19007KT CAVOK 06/03 Q1005=
201812091700 METAR LRAR 091700Z 16003KT 070V200 CAVOK 06/03 Q1005=
201812091730 METAR LRAR 091730Z AUTO 08004KT 060V130 9999 FEW056/// 06/03
                        Q1005=
201812091800 METAR LRAR 091800Z AUTO 16006KT 9999 FEW061/// 06/03 Q1005=
201812091830 METAR LRAR 091830Z AUTO 16006KT 9999 SCT056/// 06/03 Q1005=
201812091900 METAR LRAR 091900Z AUTO 17005KT 9999 SCT050/// 06/03 Q1005=
201812091930 METAR LRAR 091930Z AUTO 17003KT 150V220 9999 FEW050/// SCT071///
                        06/03 Q1005=
201812092000 METAR LRAR 092000Z AUTO 19003KT 170V230 9999 FEW056/// SCT071///
                        06/03 Q1006=
201812092030 METAR LRAR 092030Z AUTO 20005KT 9999 FEW050/// SCT066///
                        05/03 Q1006=
201812092100 METAR LRAR 092100Z AUTO 22004KT 190V270 9999 SCT050/// 05/03
                        Q1006=
201812092130 METAR LRAR 092130Z AUTO 21003KT 9999 BKN050/// 05/03 Q1006=
201812092200 METAR LRAR 092200Z AUTO 21005KT 9999 FEW048/// SCT071///
                        05/03 Q1006=
201812092230 METAR LRAR 092230Z AUTO 21005KT 9999 SCT048/// 05/03 Q1006=
201812092300 METAR LRAR 092300Z AUTO 19004KT 9999 BKN049/// 05/03 Q1006=
201812092330 METAR LRAR 092330Z AUTO 20005KT 8000 FEW066/// 04/03 Q1006=
201812100000 METAR LRAR 100000Z AUTO 19004KT 7000 FEW076/// 04/03 Q1006=
201812100030 METAR LRAR 100030Z AUTO 17003KT 150V210 9000 FEW076/// 04/03
                        Q1006=
201812100100 METAR LRAR 100100Z AUTO 16004KT 9000 FEW081/// 04/03 Q1006=
201812100130 METAR LRAR 100130Z AUTO 22004KT 8000 FEW050/// 04/03 Q1007=
201812100200 METAR LRAR 100200Z AUTO 21002KT 7000 SCT049/// 03/03 Q1007=
201812100230 METAR LRAR 100230Z AUTO 17003KT 7000 SCT045/// 03/03 Q1007=
201812100300 METAR LRAR 100300Z AUTO 17003KT 150V220 7000 FEW061/// 03/03
                        Q1007=
201812100330 METAR LRAR 100330Z AUTO 20003KT 180V240 8000 -FZDZ FEW013///
                        SCT040/// 03/03 Q1007=
201812100400 METAR LRAR 100400Z AUTO 17003KT 6000 FEW011/// BKN038///
                        03/03 Q1007 REFZRA=
201812100430 METAR LRAR 100430Z AUTO 27007KT 9999 FEW037/// SCT043///
                        05/03 Q1007 REUP=
201812100500 METAR LRAR 100500Z 28007KT 9999 FEW038 SCT046 05/04 Q1007=
201812100530 METAR LRAR 100530Z 28009KT 9999 SCT045 05/03 Q1007=
201812100600 METAR LRAR 100600Z 28008KT 9999 SCT035 BKN048 04/03 Q1007=
201812100630 METAR LRAR 100630Z 28008KT 9999 FEW038 BKN046 04/04 Q1008=
201812100700 METAR LRAR 100700Z 27009KT 9999 FEW045 04/03 Q1008=
201812100730 METAR LRAR 100730Z 27009KT 9999 FEW040 05/04 Q1008=
201812100800 METAR LRAR 100800Z 28011KT CAVOK 06/04 Q1008=
201812100830 METAR LRAR 100830Z 28012KT CAVOK 07/04 Q1009=
201812100900 METAR LRAR 100900Z 28013KT CAVOK 07/04 Q1009=
201812100930 METAR LRAR 100930Z 30014KT 9999 FEW024 08/04 Q1009=
201812101000 METAR LRAR 101000Z 31015KT 9999 FEW025 08/04 Q1009=
201812101030 METAR LRAR 101030Z 31015KT 9999 SCT030 08/03 Q1009=
201812101100 METAR LRAR 101100Z 31017KT 9999 BKN030 08/03 Q1009=
201812101130 METAR LRAR 101130Z 31017KT 9999 FEW029 BKN035 08/03 Q1009=
201812101200 METAR LRAR 101200Z 31018KT 9999 SCT030 BKN039 08/02 Q1010=
201812101230 METAR LRAR 101230Z 31016KT 9999 BKN037 BKN044 08/02 Q1010=
201812101300 METAR LRAR 101300Z 32013KT 9999 SCT035 BKN040 08/02 Q1010=
201812101330 METAR LRAR 101330Z 31014KT 9999 SCT036 BKN041 08/02 Q1010=
201812101400 METAR LRAR 101400Z 32014KT 9999 FEW034 BKN045 07/02 Q1010=
201812101430 METAR LRAR 101430Z 32014KT 9999 SCT045 06/01 Q1011=
201812101500 METAR LRAR 101500Z 31011KT CAVOK 05/01 Q1011=
201812101530 METAR LRAR 101530Z 30009KT CAVOK 04/01 Q1011=
201812101600 METAR LRAR 101600Z 28008KT CAVOK 03/00 Q1011=
201812101630 METAR LRAR 101630Z 31009KT CAVOK 04/01 Q1011=
201812101700 METAR LRAR 101700Z 31009KT CAVOK 04/01 Q1011=
201812101730 METAR LRAR 101730Z AUTO 28006KT 9999 BKN048/// 02/01 Q1011=
201812101800 METAR LRAR 101800Z AUTO 31006KT 9999 SCT050/// 03/01 Q1012=
201812101830 METAR LRAR 101830Z AUTO 31005KT 9999 SCT056/// 03/01 Q1012=
201812101900 METAR LRAR 101900Z AUTO 29004KT 9999 BKN061/// 02/01 Q1012=
201812101930 METAR LRAR 101930Z AUTO 31005KT 9999 FEW066/// 02/00 Q1012=
201812102000 METAR LRAR 102000Z AUTO 30004KT 9999 NCD 01/M00 Q1012=
201812102030 METAR LRAR 102030Z AUTO 29003KT 9999 NCD 00/M01 Q1012=
201812102100 METAR LRAR 102100Z AUTO 28005KT 9999 NCD M02/M02 Q1013=
201812102130 METAR LRAR 102130Z AUTO 28003KT 9999 NCD M01/M01 Q1013=
201812102200 METAR LRAR 102200Z AUTO 26003KT 9999 NCD M01/M01 Q1013=
201812102230 METAR LRAR 102230Z AUTO 27006KT 9999 NCD M02/M02 Q1013=
201812102300 METAR LRAR 102300Z AUTO 28006KT 9999 NCD M02/M02 Q1013=
201812102330 METAR LRAR 102330Z AUTO 27005KT 9999 NCD M02/M02 Q1013=
201812110000 METAR LRAR 110000Z AUTO 27004KT 9999 NCD M02/M02 Q1013=
201812110030 METAR LRAR 110030Z AUTO 27005KT 9999 NCD M02/M02 Q1013=
201812110100 METAR LRAR 110100Z AUTO 25003KT 9999 NCD M02/M02 Q1013=
201812110130 METAR LRAR 110130Z AUTO 26004KT 9999 NCD M01/M01 Q1013=
201812110200 METAR LRAR 110200Z AUTO 27008KT 9999 NCD M02/M02 Q1013=
201812110230 METAR LRAR 110230Z AUTO 27008KT 9999 NCD M02/M02 Q1013=
201812110300 METAR LRAR 110300Z AUTO 28007KT 9999 NCD M02/M03 Q1013=
201812110330 METAR LRAR 110330Z AUTO 28007KT 9999 NCD M03/M03 Q1013=
201812110400 METAR LRAR 110400Z AUTO 27006KT 9999 NCD M03/M03 Q1013=
201812110430 METAR LRAR 110430Z AUTO 27005KT 9999 NCD M03/M03 Q1013=
201812110500 METAR LRAR 110500Z 27005KT 9999 FEW044 M03/M03 Q1014=
201812110530 METAR LRAR 110530Z 27005KT CAVOK M04/M04 Q1014=
201812110600 METAR LRAR 110600Z 26003KT CAVOK M04/M04 Q1014=
201812110630 METAR LRAR 110630Z VRB02KT CAVOK M04/M04 Q1014=
201812110700 METAR LRAR 110700Z 17003KT CAVOK M02/M02 Q1015=
201812110730 METAR LRAR 110730Z 17003KT CAVOK M01/M02 Q1015=
201812110800 METAR LRAR 110800Z 20004KT 160V240 9999 FEW003 M01/M01 Q1015=
201812110830 METAR LRAR 110830Z 20004KT 170V230 9999 FEW003 00/M01 Q1015=
201812110900 METAR LRAR 110900Z 27006KT 9999 FEW002 01/M00 Q1015=
201812110930 METAR LRAR 110930Z 27006KT 9999 FEW005 02/M00 Q1015=
201812111000 METAR LRAR 111000Z 27006KT 240V300 9999 SCT010 03/M00 Q1015=
201812111030 METAR LRAR 111030Z 27005KT 230V300 9999 SCT010 03/00 Q1015=
201812111100 METAR LRAR 111100Z 28004KT 240V320 9999 SCT013 04/00 Q1015=
201812111130 METAR LRAR 111130Z 25005KT 9999 SCT017 04/M00 Q1015=
201812111200 METAR LRAR 111200Z 26004KT 220V310 9999 SCT018 04/M00 Q1015=
201812111230 METAR LRAR 111230Z 25004KT 210V290 9999 SCT020 BKN027 04/M00
                        Q1015=
201812111300 METAR LRAR 111300Z 24004KT 9999 BKN030 04/00 Q1015=
201812111330 METAR LRAR 111330Z 25003KT 190V300 9999 BKN033 05/00 Q1015=
201812111400 METAR LRAR 111400Z 27006KT 9999 BKN033 BKN040 04/00 Q1015=
201812111430 METAR LRAR 111430Z 25004KT 9999 BKN038 04/00 Q1015=
201812111500 METAR LRAR 111500Z 20003KT 9999 -RA BKN031 04/00 Q1016=
201812111530 METAR LRAR 111530Z 27008KT 9999 -RA BKN030 03/01 Q1016=
201812111600 METAR LRAR 111600Z 27006KT 9999 SCT013 BKN025 03/01 Q1016=
201812111630 METAR LRAR 111630Z 27009KT 9999 SCT010 BKN032 02/02 Q1016=
201812111700 METAR LRAR 111700Z 28006KT 9999 SCT028 BKN045 02/01 Q1016=
201812111730 METAR LRAR 111730Z AUTO 24004KT 9999 FEW017/// SCT050///
                        02/01 Q1016=
201812111800 METAR LRAR 111800Z AUTO 20003KT 9999 FEW016/// BKN061///
                        02/01 Q1016=
201812111830 METAR LRAR 111830Z AUTO 21004KT 9999 SCT017/// BKN061///
                        02/01 Q1016=
201812111900 METAR LRAR 111900Z AUTO 21004KT 9999 FEW003/// BKN056///
                        01/01 Q1016=
201812111930 METAR LRAR 111930Z AUTO 22004KT 9999 FEW003/// BKN056///
                        01/01 Q1016=
201812112000 METAR LRAR 112000Z AUTO 21004KT 9999 FEW020/// SCT029///
                        BKN033/// 01/01 Q1016 REFZRA=
201812112030 METAR LRAR 112030Z AUTO 22005KT 8000 UP FEW011/// SCT014///
                        BKN041/// 01/01 Q1016=
201812112100 METAR LRAR 112100Z AUTO 23005KT 7000 -SN FEW005/// BKN011///
                        BKN016/// 01/01 Q1016=
201812112130 METAR LRAR 112130Z AUTO 23005KT 3400 -SN SCT003/// BKN006///
                        BKN008/// 01/01 Q1016=
201812112200 METAR LRAR 112200Z AUTO 20005KT 5000 SG FEW001/// BKN008///
                        BKN012/// ///// Q1016=
201812112230 METAR LRAR 112230Z AUTO 20005KT 5000 -SN FEW002/// BKN009///
                        ///// Q1016=
201812112300 METAR LRAR 112300Z AUTO 21006KT 5000 -SN FEW002/// BKN009///
                        BKN011/// ///// Q1016=
201812112330 METAR LRAR 112330Z AUTO 23005KT 6000 -SHSN FEW006/// BKN009///
                        BKN011/// ///// Q1016=
201812120000 METAR LRAR 120000Z AUTO 24006KT 9999 -SHSN FEW005/// SCT008///
                        BKN011/// ///// Q1016=
201812120030 METAR LRAR 120030Z AUTO 24006KT 7000 -SN FEW003/// BKN009///
                        BKN013/// 02/02 Q1016=
201812120100 METAR LRAR 120100Z AUTO 25008KT 9999 FEW007/// BKN015///
                        02/02 Q1016 RESN=
201812120130 METAR LRAR 120130Z AUTO 25009KT 9999 -SHSN FEW008/// SCT010///
                        BKN015/// 02/02 Q1015=
201812120200 METAR LRAR 120200Z AUTO 24007KT 9999 -SHSN FEW006/// BKN015///
                        02/02 Q1015=
201812120230 METAR LRAR 120230Z AUTO 23008KT 9999 SG FEW011/// BKN017///
                        02/02 Q1015=
201812120300 METAR LRAR 120300Z AUTO 24009KT 5000 -SN FEW006/// SCT009///
                        BKN015/// 02/02 Q1015=
201812120330 METAR LRAR 120330Z AUTO 24007KT 6000 -SN FEW004/// SCT006///
                        BKN009/// 01/01 Q1015=
201812120400 METAR LRAR 120400Z AUTO 23008KT 9999 FEW005/// BKN010///
                        02/02 Q1015 RESN=
201812120430 METAR LRAR 120430Z AUTO 25006KT 9999 FEW008/// BKN010///
                        BKN013/// 02/02 Q1015=
201812120500 METAR LRAR 120500Z 26008KT 9999 FEW008 SCT010 BKN025 02/02
                        Q1015=
201812120530 METAR LRAR 120530Z 26008KT 9999 SCT012 BKN025 02/02 Q1015=
201812120600 METAR LRAR 120600Z 26007KT 9999 BKN025 02/02 Q1016 R09/29//95=
201812120630 METAR LRAR 120630Z 27007KT 9999 BKN025 02/02 Q1016 R09/29//95=
201812120700 METAR LRAR 120700Z 27007KT 9999 SCT025 BKN029 02/02 Q1016
                        R09/29//95=
201812120730 METAR LRAR 120730Z 28008KT 9999 FEW016 BKN020 02/02 Q1016
                        R09/29//95=
201812120800 METAR LRAR 120800Z 28010KT 9999 BKN015 02/01 Q1016 R09/29//95=
201812120830 METAR LRAR 120830Z 28011KT 9000 -RASN SCT010 BKN014 02/01
                        Q1017 R09/29//95=
201812120900 METAR LRAR 120900Z 28010KT 9999 SCT009 OVC011 02/02 Q1017
                        R09/29//95=
201812120930 METAR LRAR 120930Z 30011KT 9999 FEW007 BKN009 OVC011 02/02
                        Q1017 R09/29//95=
201812121000 METAR LRAR 121000Z 30009KT 9999 SCT007 BKN010 02/02 Q1017
                        R09/29//95=
201812121030 METAR LRAR 121030Z 30011KT 9999 SCT007 BKN009 02/02 Q1017
                        R09/29//95=
201812121100 METAR LRAR 121100Z 30010KT 9999 -RA SCT008 BKN010 02/02 Q1017
                        R09/29//95=
201812121130 METAR LRAR 121130Z 30010KT 9999 -RA FEW008 BKN016 03/02 Q1017
                        R09/29//95=
201812121200 METAR LRAR 121200Z 30010KT 9999 FEW008 SCT018 BKN026 03/02
                        Q1017 R09/29//95=
201812121230 METAR LRAR 121230Z 30011KT 6000 -RA FEW009 SCT016 BKN019
                        02/01 Q1017 R09/29//95=
201812121300 METAR LRAR 121300Z 30006KT 6000 -RA FEW006 SCT013 BKN022
                        02/02 Q1018 R09/29//95=
201812121330 METAR LRAR 121330Z 31009KT 9999 FEW009 BKN024 03/02 Q1018
                        R09/29//95=
201812121400 METAR LRAR 121400Z 31010KT 9999 FEW009 SCT012 BKN025 03/02
                        Q1018 R09/29//95=
201812121430 METAR LRAR 121430Z 32006KT 9999 FEW010 SCT014 BKN026 02/02
                        Q1018 R09/29//95=
201812121500 METAR LRAR 121500Z 30008KT 9999 FEW009 SCT012 BKN033 02/02
                        Q1018 R09/29//95=
201812121530 METAR LRAR 121530Z 29007KT 7000 SCT025 BKN035 02/02 Q1018
                        R09/29//95=
201812121600 METAR LRAR 121600Z 28006KT 6000 SCT028 BKN035 02/02 Q1019
                        R09/29//95=
201812121630 METAR LRAR 121630Z 29006KT 7000 SCT031 BKN036 02/02 Q1019
                        R09/29//95=
201812121700 METAR LRAR 121700Z 31004KT 6000 SCT010 BKN031 02/02 Q1019
                        R09/29//95=
201812121730 METAR LRAR 121730Z AUTO 31006KT 6000 SCT007/// BKN009///
                        BKN041/// 02/02 Q1019=
201812121800 METAR LRAR 121800Z AUTO 31006KT 6000 FEW007/// BKN035///
                        02/02 Q1019=
201812121830 METAR LRAR 121830Z AUTO 32006KT 6000 FEW005/// BKN032///
                        02/02 Q1020=
201812121900 METAR LRAR 121900Z AUTO 31003KT 6000 FEW005/// SCT007///
                        BKN009/// 02/02 Q1020 REUP=
201812121930 METAR LRAR 121930Z AUTO 31004KT 5000 FEW008/// BKN044///
                        BKN050/// 02/02 Q1020 REUP=
201812122000 METAR LRAR 122000Z AUTO 31004KT 5000 BR FEW036/// BKN049///
                        01/01 Q1020=
201812122030 METAR LRAR 122030Z AUTO 33003KT 5000 BR BKN046/// 01/01 Q1020=
201812122100 METAR LRAR 122100Z AUTO 31004KT 5000 BR BKN045/// ///// Q1020=
201812122130 METAR LRAR 122130Z AUTO 31004KT 4800 BR BKN044/// ///// Q1020=
201812122200 METAR LRAR 122200Z AUTO 27005KT 4100 BR SCT039/// BKN044///
                        ///// Q1020=
201812122230 METAR LRAR 122230Z AUTO 28005KT 5000 BR FEW042/// BKN048///
                        ///// Q1021=
201812122300 METAR LRAR 122300Z AUTO 28004KT 4200 BR BKN048/// ///// Q1021=
201812122330 METAR LRAR 122330Z AUTO 26005KT 4600 BR BKN049/// ///// Q1021=
201812130000 METAR LRAR 130000Z AUTO 29005KT 4000 BR BKN049/// ///// Q1021=
201812130030 METAR LRAR 130030Z AUTO 30003KT 3100 R27/2000 BR SCT046///
                        ///// Q1021=
201812130100 METAR LRAR 130100Z AUTO VRB01KT 2000 R27/1300VP2000N FG FEW005///
                        SCT007/// BKN050/// ///// Q1021=
201812130130 METAR LRAR 130130Z AUTO 27004KT 2600 FEW004/// BKN050///
                        ///// Q1021=
201812130200 METAR LRAR 130200Z AUTO 28005KT 3100 R27/2000 BKN049/// /////
                        Q1021=
201812130230 METAR LRAR 130230Z AUTO 28003KT 3100 BR BKN049/// ///// Q1021=
201812130300 METAR LRAR 130300Z AUTO 31002KT 2400 BR FEW009/// SCT011///
                        BKN050/// ///// Q1021=
201812130330 METAR LRAR 130330Z AUTO 34002KT 320V050 0800 R27/0650V1400D
                        FG FEW002/// SCT023/// ///// Q1021=
201812130400 METAR LRAR 130400Z AUTO 30001KT 0400 R27/0500N FG FEW002///
                        SCT020/// ///// Q1021=
201812130430 METAR LRAR 130430Z AUTO 24003KT 0350 R27/0450N FG VV001 /////
                        Q1021=
201812130500 METAR LRAR 130500Z 22002KT 0100 R09/0300 R27/0325N FZFG BKN001
                        M02/M02 Q1021 R09/29//95=
201812130530 METAR LRAR 130530Z 00000KT 0200 R09/0400 R27/0450N FZFG BKN001
                        M02/M02 Q1021 R09/29//95=
201812130600 METAR LRAR 130600Z 00000KT 0300 R09/0500 R27/0350N FZFG OVC001
                        M02/M02 Q1021 R09/19//95=
201812130630 METAR LRAR 130630Z 00000KT 0400 R09/0600 R27/0500N FZFG SCT001
                        BKN029 M02/M02 Q1021 R09/19//95=
201812130700 METAR LRAR 130700Z 00000KT 0400 R09/0600 R27/0500N FZFG SCT001
                        BKN017 BKN032 M02/M02 Q1021 R09/19//95=
201812130730 METAR LRAR 130730Z 00000KT 0200 R09/0400 R27/0250N FZFG BKN001
                        M02/M02 Q1021 R09/19//95=
201812130800 METAR LRAR 130800Z 00000KT 0200 R09/0400 R27/0300N FZFG BKN001
                        M01/M01 Q1021 R09/19//95=
201812130830 METAR LRAR 130830Z 21003KT 0200 R09/0400 R27/0325N FZFG BKN001
                        M01/M01 Q1021 R09/19//95=
201812130900 METAR LRAR 130900Z 23003KT 0200 R09/0400 R27/0275N FG BKN001
                        M01/M01 Q1022 R09/19//95=
201812130930 METAR LRAR 130930Z 21003KT 180V240 0200 R09/0400 R27/0275N
                        FZFG BKN001 M01/M01 Q1021 R09/19//95=
201812131000 METAR LRAR 131000Z VRB02KT 0200 R09/0400 R27/0325N FZFG OVC001
                        M01/M01 Q1021 R09/19//95=
201812131030 METAR LRAR 131030Z VRB02KT 0200 R09/0400 R27/0325N FZFG OVC001
                        M01/M01 Q1021 R09/19//95=
201812131100 METAR LRAR 131100Z VRB01KT 0300 R09/0500 R27/0400N FZFG OVC001
                        M00/M00 Q1021 R09/19//95=
201812131130 METAR LRAR 131130Z VRB02KT 0600 R09/0800 R27/0700N FZFG SCT001
                        OVC003 M00/M00 Q1021 R09/19//95=
201812131200 METAR LRAR 131200Z VRB01KT 1500 BR SCT001 BKN003 00/00 Q1021
                        R09/19//95=
201812131230 METAR LRAR 131230Z VRB01KT 3000 BR SCT003 01/01 Q1020 R09/19//95=
201812131300 METAR LRAR 131300Z VRB02KT 4000 BR SCT005 01/01 Q1020 R09/19//95=
201812131330 METAR LRAR 131330Z 26003KT 240V300 4000 BR FEW003 01/01 Q1021
                        R09/19//95=
201812131400 METAR LRAR 131400Z 28003KT 3500 BR FEW012 01/01 Q1020 R09/19//95=
201812131430 METAR LRAR 131430Z VRB02KT 3000 BR FEW011 01/01 Q1020 R09/19//95=
201812131500 METAR LRAR 131500Z 06005KT 3000 BR FEW006 SCT008 01/01 Q1020
                        R09/CLRD//=
201812131530 METAR LRAR 131530Z 06006KT 5000 BR SCT008 M00/M00 Q1020=
201812131600 METAR LRAR 131600Z 05006KT 6000 FEW010 M00/M00 Q1020=
201812131630 METAR LRAR 131630Z 05005KT 5000 BR NSC M01/M01 Q1020=
201812131700 METAR LRAR 131700Z 04003KT 5000 BR NSC M01/M01 Q1020=
201812131730 METAR LRAR 131730Z AUTO 05003KT 4700 BR NCD ///// Q1020=
201812131800 METAR LRAR 131800Z AUTO 03003KT 3500 BR NCD ///// Q1020=
201812131830 METAR LRAR 131830Z AUTO 05005KT 4500 BR NCD ///// Q1020=
201812131900 METAR LRAR 131900Z AUTO 05005KT 4500 BR NCD ///// Q1020=
201812131930 METAR LRAR 131930Z AUTO 05004KT 4700 BR NCD ///// Q1020=
201812132000 METAR LRAR 132000Z AUTO 03005KT 4300 BR NCD ///// Q1020=
201812132030 METAR LRAR 132030Z AUTO 11002KT 060V160 2800 R27/2000 BR
                        NCD ///// Q1020=
201812132100 METAR LRAR 132100Z AUTO 07002KT 2200 R27/1800VP2000D BR FEW004///
                        ///// Q1021=
201812132130 METAR LRAR 132130Z AUTO 02005KT 3500 BR VV002 ///// Q1021=
201812132200 METAR LRAR 132200Z AUTO 03005KT 0500 R27/0600N FG VV001 /////
                        Q1020=
201812132230 METAR LRAR 132230Z NIL=
201812132300 METAR LRAR 132300Z AUTO 34002KT 0600 R27/0700N FG NCD /////
                        Q1020=
201812132330 METAR LRAR 132330Z AUTO 02003KT 350V050 0800 R27/0900N FG
                        VV001 ///// Q1020=
201812140000 METAR LRAR 140000Z AUTO 02004KT 1400 R27/1300V1800D FG FEW001///
                        ///// Q1020=
201812140030 METAR LRAR 140030Z AUTO 02004KT 2500 R27/1700VP2000U NCD
                        ///// Q1020=
201812140100 METAR LRAR 140100Z AUTO 04003KT 4000 NCD ///// Q1020=
201812140130 METAR LRAR 140130Z AUTO 06005KT 5000 BR NCD ///// Q1020=
201812140200 METAR LRAR 140200Z AUTO 06006KT 6000 NCD ///// Q1020=
201812140230 METAR LRAR 140230Z AUTO 06004KT 8000 NCD ///// Q1020=
201812140300 METAR LRAR 140300Z AUTO 06005KT 9000 NCD ///// Q1019=
201812140330 METAR LRAR 140330Z AUTO 07003KT 9999 NCD ///// Q1019=
201812140400 METAR LRAR 140400Z AUTO 06005KT 9999 NCD M04/M04 Q1019=
201812140430 METAR LRAR 140430Z AUTO 05004KT 9999 NCD M04/M04 Q1019=
201812140500 METAR LRAR 140500Z VRB02KT CAVOK M04/M04 Q1019=
201812140530 METAR LRAR 140530Z 05005KT CAVOK M04/M04 Q1019=
201812140600 METAR LRAR 140600Z 04004KT CAVOK M04/M04 Q1019=
201812140630 METAR LRAR 140630Z VRB02KT CAVOK M04/M05 Q1020=
201812140700 METAR LRAR 140700Z VRB02KT 8000 NSC M05/M05 Q1020=
201812140730 METAR LRAR 140730Z 04002KT 360V090 6000 NSC M04/M04 Q1020=
201812140800 METAR LRAR 140800Z 04003KT 010V070 6000 NSC M03/M04 Q1020=
201812140830 METAR LRAR 140830Z 04004KT 010V070 6000 NSC M03/M03 Q1020=
201812140900 METAR LRAR 140900Z 05003KT 6000 NSC M02/M03 Q1020=
201812140930 METAR LRAR 140930Z 35002KT 290V040 6000 NSC M02/M03 Q1020=
201812141000 METAR LRAR 141000Z 02003KT 7000 NSC M02/M02 Q1020=
201812141030 METAR LRAR 141030Z 03004KT 8000 NSC M01/M02 Q1020=
201812141100 METAR LRAR 141100Z 04006KT 8000 NSC M01/M01 Q1020=
201812141130 METAR LRAR 141130Z 07005KT 030V090 9000 NSC M00/M01 Q1019=
201812141200 METAR LRAR 141200Z 06005KT 9000 NSC M00/M01 Q1019=
201812141230 METAR LRAR 141230Z 07004KT CAVOK 00/M01 Q1019=
201812141300 METAR LRAR 141300Z 06006KT 030V090 CAVOK 01/M00 Q1019=
201812141330 METAR LRAR 141330Z 06008KT CAVOK 01/M00 Q1019=
201812141400 METAR LRAR 141400Z 05007KT CAVOK 00/M01 Q1019=
201812141430 METAR LRAR 141430Z 05008KT CAVOK 00/M01 Q1019=
201812141500 METAR LRAR 141500Z 04008KT CAVOK 00/M01 Q1019=
201812141530 METAR LRAR 141530Z 04006KT CAVOK 00/M01 Q1019=
201812141600 METAR LRAR 141600Z 03005KT CAVOK 00/M00 Q1019=
201812141630 METAR LRAR 141630Z 03003KT 360V060 5000 BR SCT005 00/00 Q1019=
201812141700 METAR LRAR 141700Z 04004KT 4300 BR NSC SCT004 00/00 Q1019=
201812141730 METAR LRAR 141730Z AUTO 04003KT 4200 BR NCD M00/M00 Q1019=
201812141800 METAR LRAR 141800Z AUTO 04003KT 3300 -FZRA FEW009/// BKN012///
                        M00/M00 Q1019=
201812141830 METAR LRAR 141830Z AUTO 02003KT 2000 -SN VV007 ///// Q1019=
201812141900 METAR LRAR 141900Z AUTO 03004KT 1600 R27/1700U -SN FEW007///
                        BKN009/// ///// Q1019=
201812141930 METAR LRAR 141930Z AUTO 04005KT 1800 R27/1900D -SN SCT003///
                        BKN005/// OVC009/// ///// Q1019=
201812142000 METAR LRAR 142000Z AUTO 04005KT 010V070 1900 R27/2000D -SN
                        SCT002/// BKN005/// BKN009/// /////
                        Q1019=
201812142030 METAR LRAR 142030Z AUTO 04006KT 1900 R27/2000D -SN BKN002///
                        BKN007/// ///// Q1019=
201812142100 METAR LRAR 142100Z AUTO 05004KT 2000 -SN BKN002/// OVC010///
                        ///// Q1019=
201812142130 METAR LRAR 142130Z AUTO 05005KT 2200 -SN BKN002/// BKN004///
                        OVC008/// ///// Q1019=
201812142200 METAR LRAR 142200Z AUTO 06004KT 2200 -SN SCT002/// BKN006///
                        BKN009/// ///// Q1019=
201812142230 METAR LRAR 142230Z AUTO 06004KT 2200 -SN SCT002/// BKN004///
                        OVC009/// ///// Q1018=
201812142300 METAR LRAR 142300Z AUTO 06003KT 1900 R27/2000D -SN FEW002///
                        SCT004/// BKN008/// ///// Q1018=
201812142330 METAR LRAR 142330Z AUTO 06004KT 1800 R27/1700VP2000D -SN
                        FEW002/// BKN007/// OVC009/// /////
                        Q1018=
201812150000 METAR LRAR 150000Z AUTO 06004KT 2600 -SN SCT002/// BKN004///
                        BKN008/// ///// Q1018=
201812150030 METAR LRAR 150030Z AUTO 07003KT 2400 -SN BKN002/// BKN005///
                        ///// Q1018=
201812150100 METAR LRAR 150100Z AUTO 06004KT 2800 -SN SCT002/// BKN005///
                        BKN007/// ///// Q1018=
201812150130 METAR LRAR 150130Z AUTO 06004KT 2400 -SN BKN002/// BKN005///
                        ///// Q1018=
201812150200 METAR LRAR 150200Z AUTO 06003KT 2400 -SN BKN002/// BKN006///
                        ///// Q1017=
201812150230 METAR LRAR 150230Z AUTO 06003KT 2500 -SN BKN002/// OVC006///
                        ///// Q1017=
201812150300 METAR LRAR 150300Z AUTO 06003KT 2900 -SN SCT002/// BKN005///
                        BKN007/// ///// Q1017=
201812150330 METAR LRAR 150330Z AUTO 06002KT 3800 -SN SCT002/// BKN004///
                        BKN006/// ///// Q1017=
201812150400 METAR LRAR 150400Z AUTO 06003KT 3200 R27/2000 -SN FEW001///
                        BKN003/// BKN005/// ///// Q1017=
201812150430 METAR LRAR 150430Z AUTO 07003KT 2900 -SN SCT002/// BKN004///
                        BKN007/// ///// Q1017=
201812150500 METAR LRAR 150500Z 07003KT 2000 SN BR BKN002 OVC006 00/00
                        Q1017=
201812150530 METAR LRAR 150530Z VRB02KT 2000 SN BR SCT001 BKN006 OVC008
                        00/00 Q1018=
201812150600 METAR LRAR 150600Z 07002KT 2000 SN BR SCT001 BKN004 OVC007
                        00/00 Q1018=
201812150630 METAR LRAR 150630Z 06002KT 2000 SN BR FEW001 BKN004 OVC007
                        00/00 Q1018=
201812150700 METAR LRAR 150700Z 06001KT 1500 SN BR FEW002 BKN004 OVC007
                        00/00 Q1018=
201812150730 METAR LRAR 150730Z 07001KT 1200 R09/1400 R27/1300N SN BR
                        FEW001 BKN003 OVC005 01/01 Q1018=
201812150800 METAR LRAR 150800Z 10001KT 0800 R09/1000 R27/1100N SN FG
                        SCT002 BKN004 OVC009 01/01 Q1018=
201812150830 METAR LRAR 150830Z 12002KT 0800 R09/1000 R27/1000N SN FG
                        SCT002 BKN004 OVC009 01/01 Q1018=
201812150900 METAR LRAR 150900Z VRB02KT 0800 R09/1000 R27/1200D SN FG
                        FEW002 BKN008 OVC010 00/00 Q1018=
201812150930 METAR LRAR 150930Z VRB01KT 0800 R09/1000 R27/1100N SN FG
                        FEW002 BKN008 OVC010 01/01 Q1018=
201812151000 METAR LRAR 151000Z 13003KT 1500 SN BR FEW001 BKN003 OVC005
                        01/01 Q1018=
201812151030 METAR LRAR 151030Z VRB02KT 1500 SN BR SCT001 OVC003 01/01
                        Q1018=
201812151100 METAR LRAR 151100Z 14002KT 1000 R09/1200 R27/1100D SN BR
                        SCT002 BKN007 OVC009 01/01 Q1018=
201812151130 METAR LRAR 151130Z 11003KT 1000 R09/1200 R27/1100D SN BR
                        FEW002 BKN008 OVC010 00/00 Q1017=
201812151200 METAR LRAR 151200Z 12003KT 1000 R09/1200 R27/1200D SN BR
                        FEW002 BKN008 OVC010 01/01 Q1017
                        R09/69//95=
201812151230 METAR LRAR 151230Z 12003KT 1000 R09/1200 R27/1100U SN BR
                        SCT002 OVC007 00/00 Q1017 R09/69//95=
201812151300 METAR COR LRAR 151300Z 13002KT 0800 R09/1000 R27/1000D SN
                        FG FEW002 BKN007 OVC009 00/00 Q1017
                        R09/69//95=
201812151330 METAR LRAR 151330Z VRB02KT 0800 R09/1000 R27/0750N SN FG
                        SCT001 BKN006 OVC008 00/00 Q1017
                        R09/69//95=
201812151400 METAR LRAR 151400Z 30003KT 210V020 0700 R09/0900 R27/0900U
                        SN FG SCT002 OVC004 00/00 Q1017 R09/69//95=
201812151430 METAR LRAR 151430Z 32004KT 0800 R09/1000 R27/1000N SN FG
                        SCT002 OVC003 00/00 Q1018 R09/69//95=
201812151500 METAR LRAR 151500Z 30004KT 0800 R09/1000 R27/0800U SN FG
                        OVC002 00/00 Q1018 R09/69//95=
201812151530 METAR LRAR 151530Z 31003KT 0800 R09/1000 R27/1100D SN FG
                        OVC004 00/00 Q1018 R09/69//95=
201812151600 METAR LRAR 151600Z 30004KT 0800 R09/1000 R27/1200N SN FG
                        OVC003 00/00 Q1018 R09/694092=
201812151630 METAR LRAR 151630Z 29003KT 1500 SN BR OVC003 00/00 Q1018
                        R09/694092=
201812151700 METAR LRAR 151700Z 28003KT 1200 R09/1400 R27/1400U SN BR
                        OVC002 00/00 Q1018 R09/694092=
201812151730 METAR LRAR 151730Z AUTO 27003KT 1400 R27/1500U -SN VV003
                        ///// Q1018=
201812151800 METAR LRAR 151800Z AUTO 28003KT 2000 -SN VV004 ///// Q1018=
201812151830 METAR LRAR 151830Z AUTO 28003KT 2100 -SN VV007 ///// Q1018=
201812151900 METAR LRAR 151900Z AUTO 27002KT 1700 R27/1800D -SN BKN001///
                        OVC003/// ///// Q1018=
201812151930 METAR LRAR 151930Z AUTO 25002KT 2000 -SN SCT001/// BKN003///
                        BKN008/// ///// Q1018=
201812152000 METAR LRAR 152000Z AUTO 00000KT 1600 R27/1700N -SN VV004
                        ///// Q1018=
201812152030 METAR LRAR 152030Z AUTO 00000KT 1100 R27/1200N -SN FEW001///
                        SCT003/// BKN005/// ///// Q1018=
201812152100 METAR LRAR 152100Z AUTO 00000KT 1000 R27/1100N -SN SCT003///
                        BKN008/// BKN011/// ///// Q1018=
201812152130 METAR LRAR 152130Z AUTO 00000KT 2000 -SN FEW003/// SCT009///
                        BKN011/// ///// Q1018=
201812152200 METAR LRAR 152200Z AUTO 00000KT 1900 R27/2000D -SN BKN010///
                        BKN013/// ///// Q1018=
201812152230 METAR LRAR 152230Z AUTO 00000KT 2000 R27/1600VP2000N -SN
                        FEW009/// OVC012/// ///// Q1018=
201812152300 METAR LRAR 152300Z AUTO 00000KT 3000 R27/2000 -SN FEW003///
                        OVC011/// ///// Q1018=
201812152330 METAR LRAR 152330Z AUTO 00000KT 3800 R27/2000 -SN FEW004///
                        BKN010/// BKN013/// ///// Q1018=
201812160000 METAR LRAR 160000Z AUTO 00000KT 5000 -SN FEW007/// OVC010///
                        ///// Q1018=
201812160030 METAR LRAR 160030Z AUTO VRB01KT 6000 -SN FEW007/// BKN010///
                        BKN013/// ///// Q1018=
201812160100 METAR LRAR 160100Z AUTO 13003KT 4900 SG FEW002/// BKN010///
                        BKN013/// ///// Q1018=
201812160130 METAR LRAR 160130Z AUTO 13002KT 4000 -SN FEW002/// SCT008///
                        BKN010/// ///// Q1018=
201812160200 METAR LRAR 160200Z AUTO 12003KT 3500 -SN FEW002/// BKN007///
                        OVC009/// ///// Q1018=
201812160230 METAR LRAR 160230Z AUTO 12002KT 3600 -SN FEW002/// BKN007///
                        OVC009/// ///// Q1018=
201812160300 METAR LRAR 160300Z AUTO 12002KT 3100 R27/1900VP2000U -SN
                        FEW002/// BKN007/// OVC009/// /////
                        Q1017=
201812160330 METAR LRAR 160330Z AUTO 00000KT 2300 R27/1900VP2000U -SN
                        FEW001/// SCT003/// BKN007/// /////
                        Q1017=
201812160400 METAR LRAR 160400Z AUTO 00000KT 2400 R27/1900VP2000U -SN
                        SCT002/// OVC009/// ///// Q1017=
201812160430 METAR LRAR 160430Z AUTO 00000KT 1900 R27/2000N -SN VV007
                        ///// Q1017=
201812160500 METAR LRAR 160500Z 00000KT 2200 SN BR SCT002 BKN006 M00/M00
                        Q1018=
201812160530 METAR LRAR 160530Z 00000KT 2300 SN BR SCT001 BKN006 M01/M01
                        Q1018 R09/694092=
201812160600 METAR LRAR 160600Z 00000KT 1800 -SN BR BKN006 M01/M01 Q1018
                        RESN R09/697092=
201812160630 METAR LRAR 160630Z VRB01KT 1800 -SN BR BKN002 BKN011 M01/M01
                        Q1018 R09/697092=
201812160700 METAR LRAR 160700Z VRB02KT 2100 -SN BR SCT002 BKN010 M01/M01
                        Q1019 R09/697092=
201812160730 METAR LRAR 160730Z VRB02KT 2100 -SN BR SCT002 BKN009 M01/M01
                        Q1019 R09/697092=
201812160800 METAR LRAR 160800Z VRB02KT 2300 -SN SCT002 BKN008 M01/M01
                        Q1019 R09/697092=
201812160830 METAR LRAR 160830Z VRB01KT 2400 -SN BR BKN003 BKN008 M01/M01
                        Q1019 R09/697092=
201812160900 METAR LRAR 160900Z VRB01KT 2100 -SNBR BKN003 BKN012 M01/M01
                        Q1020 R09/697092=
201812160930 METAR LRAR 160930Z VRB01KT 2100 -SN BR SCT002 BKN004 M00/M00
                        Q1020 R09/697092=
201812161000 METAR COR LRAR 161000Z VRB02KT 2300 -SN BR BKN003 M01/M01
                        Q1020 R09/697092=
201812161030 METAR LRAR 161030Z 00000KT 1900 -SN BR BKN003 M01/M01 Q1019
                        R09/697092=
201812161100 METAR LRAR 161100Z 00000KT 2400 -SN BR SCT002 BKN004 M00/M00
                        Q1019 R09/697092=
201812161130 METAR LRAR 161130Z 00000KT 2800 -SN BR BKN003 BKN006 M00/M00
                        Q1019 R09/69//93=
201812161200 METAR LRAR 161200Z 00000KT 2500 -SN BR BKN003 BKN008 M00/M00
                        Q1019 R09/690593=
201812161230 METAR LRAR 161230Z 00000KT 2600 BR FEW004 BKN006 M00/M00
                        Q1019 R09/690593=
201812161300 METAR LRAR 161300Z 00000KT 3000 BR BKN004 OVC006 M00/M00
                        Q1019 R09/690593=
201812161330 METAR LRAR 161330Z 00000KT 3000 BR BKN004 BKN006 M00/M00
                        Q1020 R09/29//95=
201812161400 METAR LRAR 161400Z 00000KT 3000 BR BKN003 OVC005 M00/M00
                        Q1020 R09/29//95=
201812161430 METAR LRAR 161430Z 00000KT 3000 BR SCT004 OVC007 M01/M01
                        Q1020 R09/29//95=
201812161500 METAR LRAR 161500Z 00000KT 3000 BR OVC006 M01/M01 Q1021 R09/29//95=
201812161530 METAR LRAR 161530Z 00000KT 1700 BR SCT003 OVC005 M01/M01
                        Q1021 R09/29//95=
201812161600 METAR LRAR 161600Z 00000KT 1400 R09/1500 R27/1400N BR OVC002
                        M01/M01 Q1021 R09/29//95=
201812161630 METAR LRAR 161630Z 00000KT 2500 BR OVC003 M01/M01 Q1021 R09/29//95=
201812161700 METAR LRAR 161700Z 00000KT 2000 BR SCT002 OVC004 M01/M01
                        Q1021 R09/29//95=
201812161730 METAR LRAR 161730Z AUTO 00000KT 2500 BR FEW001/// BKN003///
                        BKN007/// ///// Q1021=
201812161800 METAR LRAR 161800Z AUTO 00000KT 3500 BR FEW006/// OVC010///
                        ///// Q1021=
201812161830 METAR LRAR 161830Z AUTO 00000KT 3100 R27/2000 BR BKN009///
                        ///// Q1021=
201812161900 METAR LRAR 161900Z AUTO 00000KT 4100 BR BKN009/// OVC011///
                        ///// Q1021=
201812161930 METAR LRAR 161930Z AUTO 00000KT 4000 BR BKN009/// BKN011///
                        ///// Q1021=
201812162000 METAR LRAR 162000Z AUTO 00000KT 3900 BR BKN009/// OVC011///
                        ///// Q1021=
201812162030 METAR LRAR 162030Z AUTO 00000KT 5000 BR BKN009/// BKN011///
                        ///// Q1021=
201812162100 METAR LRAR 162100Z AUTO 00000KT 5000 BR BKN009/// OVC011///
                        ///// Q1021=
201812162130 METAR LRAR 162130Z AUTO 00000KT 5000 BR BKN010/// ///// Q1022=
201812162200 METAR LRAR 162200Z AUTO 00000KT 6000 OVC010/// ///// Q1022=
201812162230 METAR LRAR 162230Z AUTO 00000KT 9000 BKN010/// ///// Q1022=
201812162300 METAR LRAR 162300Z AUTO 00000KT 6000 BKN008/// OVC010///
                        ///// Q1021=
201812162330 METAR LRAR 162330Z AUTO 00000KT 6000 BKN008/// BKN010///
                        ///// Q1021=
201812170000 METAR LRAR 170000Z AUTO 00000KT 6000 BKN008/// OVC010///
                        ///// Q1021=
201812170030 METAR LRAR 170030Z AUTO 32003KT 7000 BKN008/// ///// Q1021=
201812170100 METAR LRAR 170100Z AUTO 00000KT 5000 OVC007/// ///// Q1021=
201812170130 METAR LRAR 170130Z AUTO 00000KT 5000 BKN006/// ///// Q1021=
201812170200 METAR LRAR 170200Z AUTO 00000KT 7000 OVC006/// ///// Q1021=
201812170230 METAR LRAR 170230Z AUTO 00000KT 6000 BKN006/// M02/M02 Q1021=
201812170300 METAR LRAR 170300Z AUTO 00000KT 5000 OVC006/// ///// Q1021=
201812170330 METAR LRAR 170330Z AUTO 00000KT 6000 BKN006/// M02/M02 Q1021=
201812170400 METAR LRAR 170400Z AUTO 00000KT 5000 BR BKN005/// OVC007///
                        ///// Q1021=
201812170430 METAR LRAR 170430Z AUTO 00000KT 5000 BR BKN004/// ///// Q1021=
201812170500 METAR LRAR 170500Z 00000KT 5000 BR OVC004 M02/M02 Q1021 R09/29//95=
201812170530 METAR LRAR 170530Z 00000KT 5000 BR BKN004 M02/M02 Q1021 R09/29//95=
201812170600 METAR LRAR 170600Z 00000KT 4500 BR OVC004 M02/M02 Q1021 R09/29//95=
201812170630 METAR LRAR 170630Z 03003KT 340V060 2800 BR BKN003 M02/M02
                        Q1021 R09/CLRD//=
201812170700 METAR LRAR 170700Z 01003KT 310V050 3700 BR OVC004 M02/M02
                        Q1021=
201812170730 METAR LRAR 170730Z 05005KT 2600 BR BKN003 OVC005 M02/M02
                        Q1021=
201812170800 METAR LRAR 170800Z 02006KT 350V060 4000 BR SCT002 OVC004
                        M02/M02 Q1021=
201812170830 METAR LRAR 170830Z 02006KT 3500 BR SCT004 OVC006 M02/M02
                        Q1021=
201812170900 METAR LRAR 170900Z 34003KT 4000 BR SCT003 OVC005 M02/M02
                        Q1022=
201812170930 METAR LRAR 170930Z 36004KT 4000 BR BKN005 OVC007 M02/M02
                        Q1022=
201812171000 METAR LRAR 171000Z 35003KT 3500 BR SCT003 OVC005 M01/M01
                        Q1022=
201812171030 METAR LRAR 171030Z 35003KT 5000 BR SCT003 BKN005 M01/M02
                        Q1021=
201812171100 METAR LRAR 171100Z 35004KT 5000 BR SCT005 OVC007 M01/M01
                        Q1021=
201812171130 METAR LRAR 171130Z 35003KT 310V010 5000 BR SCT004 BKN007
                        M01/M02 Q1021=
201812171200 METAR LRAR 171200Z 35002KT 5000 BR SCT007 BKN009 OVC011 M01/M01
                        Q1021=
201812171230 METAR LRAR 171230Z VRB01KT 5000 BR SCT006 OVC008 M01/M02
                        Q1022=
201812171300 METAR LRAR 171300Z 33004KT 6000 SCT006 OVC009 M02/M02 Q1022=
201812171330 METAR LRAR 171330Z 32006KT 6000 SCT007 OVC009 M02/M02 Q1022=
201812171400 METAR LRAR 171400Z 31006KT 5000 BR SCT007 OVC009 M02/M02
                        Q1022=
201812171430 METAR LRAR 171430Z 32006KT 4000 BR SCT006 OVC009 M02/M02
                        Q1023=
201812171500 METAR LRAR 171500Z 32006KT 3000 BR OVC010 M02/M02 Q1023=
201812171530 METAR LRAR 171530Z 33004KT 4000 BR OVC010 M02/M02 Q1023=
201812171600 METAR LRAR 171600Z 33004KT 4000 BR OVC011 M02/M02 Q1023=
201812171630 METAR LRAR 171630Z 32006KT 5000 BR BKN010 OVC013 M03/M03
                        Q1023=
201812171700 METAR LRAR 171700Z 33005KT 4000 BR SCT009 OVC011 M03/M03
                        Q1024=
201812171730 METAR LRAR 171730Z AUTO 33006KT 5000 BR OVC012/// M02/M03
                        Q1024=
201812171800 METAR LRAR 171800Z AUTO 32008KT 5000 BR BKN011/// M03/M03
                        Q1024=
201812171830 METAR LRAR 171830Z AUTO 32007KT 5000 BR OVC011/// M03/M03
                        Q1025=
201812171900 METAR LRAR 171900Z AUTO 32007KT 5000 BR OVC011/// M03/M03
                        Q1025=
201812171930 METAR LRAR 171930Z AUTO 32006KT 5000 BR OVC011/// M03/M03
                        Q1025=
201812172000 METAR LRAR 172000Z AUTO 33006KT 5000 BR OVC010/// M03/M03
                        Q1025=
201812172030 METAR LRAR 172030Z AUTO 33006KT 4500 BR OVC010/// M03/M03
                        Q1025=
201812172100 METAR LRAR 172100Z AUTO 33004KT 4400 BR OVC011/// M03/M03
                        Q1026=
201812172130 METAR LRAR 172130Z AUTO 33004KT 4200 BR OVC012/// M03/M03
                        Q1026=
201812172200 METAR LRAR 172200Z AUTO 32005KT 3300 R27/2000 BR FEW004///
                        BKN013/// M04/M04 Q1026=
201812172230 METAR LRAR 172230Z AUTO 32006KT 1000 R27/1100D -SN BKN002///
                        BKN004/// OVC012/// ///// Q1026=
201812172300 METAR LRAR 172300Z AUTO 31006KT 1000 R27/1200D -SHSN SCT003///
                        BKN007/// OVC011/// ///// Q1026=
201812172330 METAR LRAR 172330Z AUTO 31005KT 1200 R27/0900V2000U -SHSN
                        BKN003/// BKN007/// ///// Q1026=
201812180000 METAR LRAR 180000Z AUTO 27005KT 1600 R27/1200VP2000U -SHSN
                        VV002 ///// Q1026=
201812180030 METAR LRAR 180030Z AUTO 28005KT 2000 FG VV002 ///// Q1026=
201812180100 METAR LRAR 180100Z AUTO 29005KT 2400 VV002 M06/M06 Q1027=
201812180130 METAR LRAR 180130Z AUTO 28004KT 1300 R27/1400N FZFG VV001
                        M06/M06 Q1027=
201812180200 METAR LRAR 180200Z AUTO 28005KT 1700 R27/1800N FZFG VV001
                        M06/M06 Q1027=
201812180230 METAR LRAR 180230Z AUTO 29004KT 1300 R27/1400U FZFG VV002
                        M06/M06 Q1027=
201812180300 METAR LRAR 180300Z AUTO 31004KT 2400 OVC001/// M06/M06 Q1027=
201812180330 METAR LRAR 180330Z AUTO 31004KT 1400 R27/1500D FZFG VV002
                        M06/M06 Q1028=
201812180400 METAR LRAR 180400Z AUTO 30004KT 2000 R27/1500VP2000D VV002
                        M07/M07 Q1028=
201812180430 METAR LRAR 180430Z AUTO 30003KT 0800 R27/0750V1200D FZFG
                        VV001 M07/M07 Q1028=
201812180500 METAR LRAR 180500Z 27002KT 0500 R09/0600 R27/0550 FZFG VV001
                        M06/M06 Q1028=
201812180530 METAR LRAR 180530Z 28003KT 0500 R09/0600 R27/0600N FZFG VV001
                        M06/M06 Q1028=
201812180600 METAR LRAR 180600Z 28003KT 0500 R09/0600 R27/0700N FZFG VV001
                        M06/M06 Q1028=
201812180630 METAR LRAR 180630Z 29003KT 0400 R09/0550 R27/0650D FZFG VV001
                        M07/M07 Q1029=
201812180700 METAR LRAR 180700Z 28004KT 0300 R09/0400 R27/0500N FZFG VV001
                        M07/M07 Q1029=
201812180730 METAR LRAR 180730Z 29003KT 0450 R09/0600 R27/0550N FZFG VV001
                        M06/M06 Q1029=
201812180800 METAR LRAR 180800Z 29003KT 0400 R09/0600 R27/0550D FZFG VV001
                        M06/M06 Q1029=
201812180830 METAR LRAR 180830Z 28002KT 0300 R09/0500 R27/0400N FZFG VV001
                        M06/M06 Q1030=
201812180900 METAR LRAR 180900Z VRB01KT 0350 R09/0500 R27/0500N FZFG VV001
                        M06/M06 Q1030=
201812180930 METAR LRAR 180930Z 30001KT 0300 R09/0400 R27/0500N FZFG VV001
                        M06/M06 Q1030=
201812181000 METAR LRAR 181000Z 00000KT 0300 R09/0400 R27/0400N FZFG VV001
                        M05/M05 Q1030=
201812181030 METAR COR LRAR 181030Z VRB01KT 0300 R09/0400 R27/0400N FZFG
                        VV001 M06/M06 Q1029=
201812181100 METAR LRAR 181100Z 28001KT 0500 R09/0800 R27/0650N FZFG BKN002
                        OVC005 M06/M06 Q1029=
201812181130 METAR LRAR 181130Z 29002KT 0350 R09/0800 R27/0500N FZFG BKN002
                        OVC005 M06/M06 Q1029=
201812181200 METAR COR LRAR 181200Z 29002KT 0300 R09/0700 R27/0350V0500N
                        FZFG BKN002 OVC005 M06/M06 Q1029=
201812181230 METAR LRAR 181230Z 29002KT 0250 R09/200 R27/0325N FZFG VV001
                        M06/M06 Q1029=
201812181300 METAR LRAR 181300Z 00000KT 0250 R09/100 R27/0325N FZFG VV001
                        M06/M06 Q1029=
201812181330 METAR LRAR 181330Z 00000KT 0700 R09/0800 R27/0550V0800U FZFG
                        SCT001 OVC002 M05/M05 Q1029=
201812181400 METAR LRAR 181400Z 00000KT 1500 BR BKN001 OVC002 M05/M05
                        Q1029=
201812181430 METAR LRAR 181430Z 00000KT 1800 BR BKN002 OVC003 M05/M05
                        Q1029=
201812181500 METAR LRAR 181500Z VRB02KT 2100 BR SCT002 OVC003 M05/M05
                        Q1029=
201812181530 METAR LRAR 181530Z VRB02KT 3000 BR OVC003 M06/M06 Q1029=
201812181600 METAR LRAR 181600Z VRB02KT 3800 BR FEW002 BKN003 M06/M06
                        Q1029=
201812181630 METAR LRAR 181630Z VRB01KT 3400 BR SCT002 OVC003 M06/M06
                        Q1029=
201812181700 METAR LRAR 181700Z VRB03KT 0800 R09/0500 R27/0650V1300D FZFG
                        VV001 M06/M06 Q1030=
201812181730 METAR LRAR 181730Z AUTO 23002KT 0650 R27/0750U FZFG VV001
                        M06/M06 Q1030=
201812181800 METAR LRAR 181800Z AUTO VRB02KT 0400 R27/0450N FZFG VV001
                        M07/M07 Q1030=
201812181830 METAR LRAR 181830Z AUTO VRB01KT 0550 R27/0650N FZFG VV001
                        M07/M07 Q1030=
201812181900 METAR LRAR 181900Z AUTO VRB02KT 0400 R27/0450N FZFG VV001
                        M08/M08 Q1030=
201812181930 METAR LRAR 181930Z AUTO 23002KT 0450 R27/0400V0650U FZFG
                        VV001 M08/M08 Q1030=
201812182000 METAR LRAR 182000Z AUTO VRB01KT 0550 R27/0650U FZFG VV001
                        M08/M08 Q1030=
201812182030 METAR LRAR 182030Z AUTO 23002KT 1400 R27/1500D FZFG BKN001///
                        OVC003/// M08/M08 Q1030=
201812182100 METAR LRAR 182100Z AUTO 00000KT 2500 R27/1800VP2000U BKN002///
                        BKN004/// M08/M08 Q1030=
201812182130 METAR LRAR 182130Z AUTO 00000KT 2900 R27/2000 OVC002/// M08/M08
                        Q1030=
201812182200 METAR LRAR 182200Z AUTO VRB01KT 3300 BR BKN002/// M08/M08
                        Q1030=
201812182230 METAR LRAR 182230Z AUTO 24001KT 4500 BR OVC003/// M08/M08
                        Q1030=
201812182300 METAR LRAR 182300Z AUTO 16001KT 4700 BR BKN003/// M08/M08
                        Q1029=
201812182330 METAR LRAR 182330Z AUTO VRB01KT 4200 BR BKN002/// OVC004///
                        M08/M09 Q1029=
201812190000 METAR LRAR 190000Z AUTO 00000KT 3500 BR BKN001/// M08/M09
                        Q1029=
201812190030 METAR LRAR 190030Z AUTO 00000KT 3400 BR OVC001/// M08/M09
                        Q1029=
201812190100 METAR LRAR 190100Z AUTO 00000KT 4300 BR BKN001/// M09/M09
                        Q1029=
201812190130 METAR LRAR 190130Z AUTO 00000KT 4000 BR BKN001/// OVC004///
                        M09/M09 Q1029=
201812190200 METAR LRAR 190200Z AUTO 00000KT 3700 BR BKN001/// M09/M09
                        Q1029=
201812190230 METAR LRAR 190230Z AUTO 00000KT 2800 BR VV001 M08/M09 Q1029=
201812190300 METAR LRAR 190300Z AUTO 00000KT 1400 R27/0800VP2000U BCFG
                        VV001 M08/M09 Q1029=
201812190330 METAR LRAR 190330Z AUTO 00000KT 2600 VV001 M08/M09 Q1029=
201812190400 METAR LRAR 190400Z AUTO 00000KT 2200 R27/1800VP2000U FZFG
                        VV002 M08/M08 Q1029=
201812190430 METAR LRAR 190430Z AUTO 00000KT 2200 VV002 M08/M08 Q1029=
201812190500 METAR LRAR 190500Z 00000KT 2000 BR SCT001 BKN003 M08/M08
                        Q1029=
201812190530 METAR LRAR 190530Z 00000KT 2000 BR SCT002 BKN040 M07/M08
                        Q1029=
201812190600 METAR LRAR 190600Z 00000KT 2500 BR BKN039 M07/M07 Q1029=
201812190630 METAR LRAR 190630Z 00000KT 1700 BR BKN039 M06/M06 Q1029=
201812190700 METAR LRAR 190700Z 00000KT 1700 BR BKN040 M06/M06 Q1030=
201812190730 METAR LRAR 190730Z 00000KT 1500 BR BKN039 M06/M06 Q1030=
201812190800 METAR LRAR 190800Z 00000KT 1500 BR BKN038 M06/M06 Q1030=
201812190830 METAR LRAR 190830Z 25001KT 1700 BR BKN037 M06/M06 Q1030=
201812190900 METAR LRAR 190900Z 29002KT 1700 BR BKN035 M07/M07 Q1030=
201812190930 METAR LRAR 190930Z 31002KT 1800 BR BKN035 M07/M07 Q1030=
201812191000 METAR LRAR 191000Z 30002KT 0200 R09/0400 R27/0450N FZFG SCT006
                        BKN035 M07/M07 Q1030=
201812191030 METAR LRAR 191030Z 32001KT 0300 R09/0500 R27/0900U FZFG OVC006
                        M06/M07 Q1030=
201812191100 METAR LRAR 191100Z 31001KT 0900 R09/1100 R27/1100U FZFG BKN006
                        M06/M06 Q1029=
201812191130 METAR LRAR 191130Z 35002KT 1500 BR OVC007 M06/M06 Q1029=
201812191200 METAR LRAR 191200Z 35002KT 1500 BR OVC007 M05/M05 Q1029=
201812191230 METAR LRAR 191230Z VRB02KT 2000 BR OVC007 M05/M05 Q1029=
201812191300 METAR LRAR 191300Z VRB02KT 2000 BR OVC007 M05/M05 Q1029=
201812191330 METAR LRAR 191330Z 06002KT 2000 BR BKN007 BKN034 M05/M05
                        Q1029=
201812191400 METAR LRAR 191400Z VRB02KT 2000 BR SCT006 BKN032 M05/M05
                        Q1029=
201812191430 METAR LRAR 191430Z 05002KT 2000 BR SCT007 BKN033 M05/M05
                        Q1029=
201812191500 METAR LRAR 191500Z 02002KT 2000 BR SCT008 BKN033 M05/M05
                        Q1029=
201812191530 METAR LRAR 191530Z 04003KT 2500 BR FEW006 SCT008 BKN035 M05/M05
                        Q1029=
201812191600 METAR LRAR 191600Z 07003KT 2500 BR BKN007 M05/M05 Q1028=
201812191630 METAR LRAR 191630Z 09003KT 2000 BR OVC006 M05/M05 Q1028=
201812191700 METAR LRAR 191700Z 08002KT 2000 BR OVC004 M05/M05 Q1028=
201812191730 METAR LRAR 191730Z AUTO 00000KT 2900 BR BKN003/// M05/M05
                        Q1028=
201812191800 METAR LRAR 191800Z AUTO 15002KT 120V240 2700 BR BKN002///
                        ///// Q1028=
201812191830 METAR LRAR 191830Z AUTO VRB02KT 2200 BR OVC001/// ///// Q1028=
201812191900 METAR LRAR 191900Z AUTO 15002KT 130V230 0900 R27/1000U FG
                        VV001 ///// Q1027=
201812191930 METAR LRAR 191930Z AUTO 13003KT 1500 R27/1200V2000U FG VV002
                        ///// Q1027=
201812192000 METAR LRAR 192000Z AUTO 13004KT 1000 R27/1200N FG VV001 /////
                        Q1027=
201812192030 METAR LRAR 192030Z AUTO VRB01KT 0600 R27/0700N FG VV001 /////
                        Q1027=
201812192100 METAR LRAR 192100Z AUTO 00000KT 0550 R27/0650U FG VV001 /////
                        Q1027=
201812192130 METAR LRAR 192130Z AUTO 13003KT 0550 R27/0650N FG VV001 /////
                        Q1027=
201812192200 METAR LRAR 192200Z AUTO 12004KT 0800 R27/1000D -FZRA VV001
                        ///// Q1026=
201812192230 METAR LRAR 192230Z AUTO 16002KT 0600 R27/0700N -SHSN VV001
                        ///// Q1027=
201812192300 METAR LRAR 192300Z AUTO 00000KT 0800 R27/0900U FG VV001 /////
                        Q1027=
201812192330 METAR LRAR 192330Z AUTO 00000KT 1600 R27/1300V2000D FG OVC001///
                        ///// Q1026=
201812200000 METAR LRAR 200000Z AUTO 12004KT 1700 R27/1800D FG VV002 /////
                        Q1026=
201812200030 METAR LRAR 200030Z AUTO 10003KT 040V130 2200 UP OVC001///
                        ///// Q1026=
201812200100 METAR LRAR 200100Z AUTO 10005KT 1400 R27/1500N -FZDZ VV001
                        ///// Q1025=
201812200130 METAR LRAR 200130Z AUTO 10004KT 0800 R27/0900N IC VV001 /////
                        Q1025=
201812200200 METAR LRAR 200200Z AUTO 07003KT 1000 R27/0900V1300U FZFG
                        VV001 M06/M06 Q1025=
201812200230 METAR LRAR 200230Z AUTO 36003KT 0650 R27/0750N FZFG VV001
                        M07/M07 Q1025=
201812200300 METAR LRAR 200300Z AUTO 05002KT 020V080 0600 R27/0750N FZFG
                        VV001 M07/M07 Q1025=
201812200330 METAR LRAR 200330Z AUTO 03002KT 360V060 1400 R27/1100V1800U
                        FZFG VV001 M08/M08 Q1025=
201812200400 METAR LRAR 200400Z AUTO 07002KT 3600 BKN001/// M08/M08 Q1025=
201812200430 METAR LRAR 200430Z AUTO 09003KT 3200 R27/2000 SCT001/// M08/M08
                        Q1025=
201812200500 METAR LRAR 200500Z 10001KT 3700 BR NSC M08/M08 Q1025=
201812200530 METAR LRAR 200530Z 10003KT 4200 BR NSC M07/M07 Q1025=
201812200600 METAR LRAR 200600Z 11004KT 4600 BR NSC M07/M07 Q1024=
201812200630 METAR LRAR 200630Z 00000KT 3400 BR NSC M07/M07 Q1025=
201812200700 METAR LRAR 200700Z 00000KT 3600 BR NSC M07/M07 Q1025=
201812200730 METAR LRAR 200730Z 00000KT 3400 BR NSC M06/M06 Q1025=
201812200800 METAR LRAR 200800Z 00000KT 3100 BR NSC M06/M06 Q1025=
201812200830 METAR LRAR 200830Z 00000KT 2600 BR NSC M06/M06 Q1026=
201812200900 METAR LRAR 200900Z 00000KT 3000 BR NSC M05/M05 Q1026=
201812200930 METAR LRAR 200930Z 00000KT 2500 BR NSC M05/M05 Q1025=
201812201000 METAR LRAR 201000Z 00000KT 2300 BR NSC M04/M04 Q1026=
201812201030 METAR LRAR 201030Z 00000KT 2700 BR SCT030 M04/M04 Q1025=
201812201100 METAR LRAR 201100Z 00000KT 2500 BR NSC M03/M03 Q1025=
201812201130 METAR LRAR 201130Z 00000KT 2500 BR NSC M02/M02 Q1025=
201812201200 METAR LRAR 201200Z 08002KT 2900 BR NSC M03/M03 Q1024=
201812201230 METAR LRAR 201230Z 10002KT 3200 BR NSC M03/M03 Q1025=
201812201300 METAR LRAR 201300Z 11003KT 3700 BR NSC M03/M03 Q1025=
201812201330 METAR LRAR 201330Z 16001KT 3500 BR NSC M02/M02 Q1025=
201812201400 METAR LRAR 201400Z 14004KT 2900 BR NSC M03/M03 Q1025=
201812201430 METAR LRAR 201430Z 14004KT 2700 BR NSC M03/M03 Q1025=
201812201500 METAR LRAR 201500Z 14003KT 2900 BR NSC M03/M03 Q1025=
201812201530 METAR LRAR 201530Z 16004KT 140V220 5000 BR NSC M02/M02 Q1025=
201812201600 METAR LRAR 201600Z 15004KT 5000 BR NSC M02/M02 Q1025=
201812201630 METAR LRAR 201630Z 15005KT 6000 NSC M02/M02 Q1025=
201812201700 METAR LRAR 201700Z 16005KT 5000 BR NSC M02/M02 Q1025=
201812201730 METAR LRAR 201730Z AUTO 15004KT 5000 FEW039/// SCT076///
                        M01/M01 Q1025=
201812201800 METAR LRAR 201800Z AUTO 15004KT 5000 BR BKN039/// M01/M01
                        Q1026=
201812201830 METAR LRAR 201830Z AUTO 16004KT 6000 FEW039/// SCT071///
                        M01/M01 Q1026=
201812201900 METAR LRAR 201900Z AUTO 16003KT 6000 FEW038/// BKN071///
                        M01/M01 Q1026=
201812201930 METAR LRAR 201930Z AUTO 15003KT 5000 BR FEW041/// BKN061///
                        M01/M01 Q1026=
201812202000 METAR LRAR 202000Z AUTO VRB01KT 6000 SCT050/// M01/M01 Q1026=
201812202030 METAR LRAR 202030Z AUTO 17003KT 6000 FEW050/// M01/M01 Q1027=
201812202100 METAR LRAR 202100Z AUTO 14004KT 5000 BR FEW037/// BKN049///
                        M01/M01 Q1026=
201812202130 METAR LRAR 202130Z AUTO 14006KT 6000 BKN040/// OVC046///
                        M01/M01 Q1026=
201812202200 METAR LRAR 202200Z AUTO 15005KT 120V190 7000 BKN039/// 00/M00
                        Q1026=
201812202230 METAR LRAR 202230Z AUTO 14006KT 6000 FEW044/// BKN056///
                        00/M00 Q1026=
201812202300 METAR LRAR 202300Z AUTO 14005KT 6000 BKN056/// 00/M00 Q1026=
201812202330 METAR LRAR 202330Z AUTO 14005KT 6000 BKN056/// 00/M01 Q1026=
201812210000 METAR LRAR 210000Z AUTO 15006KT 7000 BKN056/// 00/M01 Q1026=
201812210030 METAR LRAR 210030Z AUTO 13005KT 8000 BKN056/// 00/M01 Q1026=
201812210100 METAR LRAR 210100Z AUTO 14004KT 7000 SCT061/// 00/M01 Q1026=
201812210130 METAR LRAR 210130Z AUTO 13004KT 7000 SCT050/// 00/M01 Q1026=
201812210200 METAR LRAR 210200Z AUTO 19004KT 150V220 9000 FEW027/// BKN045///
                        01/M00 Q1026=
201812210230 METAR LRAR 210230Z AUTO 19004KT 150V230 9999 FEW024/// BKN043///
                        00/M00 Q1026=
201812210300 METAR LRAR 210300Z AUTO 13004KT 8000 UP FEW024/// BKN040///
                        01/M00 Q1026=
201812210330 METAR LRAR 210330Z AUTO 17006KT 9999 FEW009/// SCT031///
                        BKN040/// 01/M00 Q1026=
201812210400 METAR LRAR 210400Z AUTO 14007KT 9999 FEW038/// SCT056///
                        01/M00 Q1026 REUP=
201812210430 METAR LRAR 210430Z AUTO 13005KT 9999 FEW037/// SCT061///
                        01/M00 Q1026=
201812210500 METAR LRAR 210500Z 15006KT 9999 FEW045 01/M01 Q1026=
201812210530 METAR LRAR 210530Z 16007KT 9999 BKN040 01/M01 Q1026=
201812210600 METAR LRAR 210600Z 14008KT 9999 BKN040 01/M01 Q1026=
201812210630 METAR LRAR 210630Z 16010KT 9999 SCT039 BKN044 01/M01 Q1026=
201812210700 METAR LRAR 210700Z 15007KT 9999 BKN039 01/M01 Q1026=
201812210730 METAR LRAR 210730Z VRB01KT 9999 SCT039 01/M00 Q1026=
201812210800 METAR LRAR 210800Z 14005KT 9999 SCT038 01/M00 Q1026=
201812210830 METAR LRAR 210830Z 15006KT 9999 FEW039 02/M00 Q1026=
201812210900 METAR LRAR 210900Z 14008KT 9999 SCT044 02/M00 Q1026=
201812210930 METAR LRAR 210930Z 14007KT 9999 FEW040 02/00 Q1026=
201812211000 METAR LRAR 211000Z 15007KT 9999 BKN039 02/00 Q1026=
201812211030 METAR LRAR 211030Z 15006KT 9999 BKN039 02/00 Q1025=
201812211100 METAR LRAR 211100Z 16008KT 9999 BKN040 02/00 Q1024=
201812211130 METAR LRAR 211130Z 15009KT CAVOK 02/00 Q1024=
201812211200 METAR LRAR 211200Z 16009KT 9999 BKN040 02/00 Q1024=
201812211230 METAR LRAR 211230Z 17008KT 9999 FEW037 03/00 Q1024=
201812211300 METAR LRAR 211300Z AUTO 17007KT 9999 FEW033/// SCT049///
                        02/00 Q1024=
201812211330 METAR LRAR 211330Z 18011KT 9999 SCT033 BKN046 02/M00 Q1024=
201812211400 METAR LRAR 211400Z 17009KT 9999 FEW032 SCT040 02/M00 Q1024=
201812211430 METAR LRAR 211430Z 16009KT 9999 SCT044 02/M00 Q1024=
201812211500 METAR LRAR 211500Z 15007KT 9999 SCT049 01/M00 Q1023=
201812211530 METAR LRAR 211530Z 15008KT CAVOK 01/M00 Q1023=
201812211600 METAR LRAR 211600Z 15008KT CAVOK 01/M00 Q1023=
201812211630 METAR LRAR 211630Z 15008KT CAVOK 01/M00 Q1022=
201812211700 METAR LRAR 211700Z 16011KT CAVOK 01/M00 Q1022=
201812211730 METAR LRAR 211730Z AUTO 15010KT 9999 FEW056/// 01/M00 Q1022=
201812211800 METAR LRAR 211800Z AUTO 15009KT 9999 FEW045/// SCT056///
                        01/M00 Q1021=
201812211830 METAR LRAR 211830Z AUTO 14008KT 9999 FEW048/// 01/M00 Q1021=
201812211900 METAR LRAR 211900Z AUTO 14009KT 9999 FEW045/// 02/00 Q1021=
201812211930 METAR LRAR 211930Z AUTO 14007KT 9999 NCD 01/M00 Q1020=
201812212000 METAR LRAR 212000Z AUTO 15009KT 9999 NCD 01/00 Q1020=
201812212030 METAR LRAR 212030Z AUTO 16009KT 9999 NCD 02/00 Q1020=
201812212100 METAR LRAR 212100Z AUTO 17009KT 9999 NCD 03/01 Q1020=
201812212130 METAR LRAR 212130Z AUTO 17010KT 9999 NCD 03/01 Q1019=
201812212200 METAR LRAR 212200Z AUTO 18012KT 9999 NCD 03/01 Q1019=
201812212230 METAR LRAR 212230Z AUTO 19012KT 9999 NCD 03/01 Q1019=
201812212300 METAR LRAR 212300Z AUTO 19012KT 9999 FEW061/// 03/01 Q1019=
201812212330 METAR LRAR 212330Z AUTO 19014KT 9999 SCT050/// 03/01 Q1018=
201812220000 METAR LRAR 220000Z AUTO 19014KT 9999 BKN049/// 03/01 Q1018=
201812220030 METAR LRAR 220030Z AUTO 19014KT 9999 BKN045/// 03/01 Q1018=
201812220100 METAR LRAR 220100Z AUTO 19013KT 9999 BKN043/// 03/01 Q1018=
201812220130 METAR LRAR 220130Z AUTO 20012KT 9999 SCT042/// 03/01 Q1018=
201812220200 METAR LRAR 220200Z AUTO 20012KT 8000 -FZRA FEW010/// SCT018///
                        03/01 Q1018=
201812220230 METAR LRAR 220230Z AUTO 19012KT 8000 FEW007/// SCT022///
                        BKN028/// 03/01 Q1018=
201812220300 METAR LRAR 220300Z AUTO 19013KT 9999 BKN043/// BKN049///
                        03/01 Q1018 REUP=
201812220330 METAR LRAR 220330Z AUTO 19012KT 9999 FEW049/// 03/01 Q1017=
201812220400 METAR LRAR 220400Z AUTO 19013KT 9999 FEW056/// 03/01 Q1017=
201812220430 METAR LRAR 220430Z AUTO 20012KT 9999 FEW061/// 03/01 Q1017=
201812220500 METAR LRAR 220500Z 20013KT CAVOK 03/01 Q1017=
201812220530 METAR LRAR 220530Z 20013KT CAVOK 03/01 Q1017=
201812220600 METAR LRAR 220600Z 19013KT CAVOK 03/01 Q1017 R09/29//95=
201812220630 METAR LRAR 220630Z 20013KT CAVOK 03/01 Q1017 R09/29//95=
201812220700 METAR LRAR 220700Z 19012KT CAVOK 03/01 Q1017 R09/29//95=
201812220730 METAR LRAR 220730Z 19013KT CAVOK 03/01 Q1017 R09/29//95=
201812220800 METAR LRAR 220800Z 19014KT CAVOK 04/02 Q1017 R09/29//95=
201812220830 METAR LRAR 220830Z 19013KT CAVOK 04/02 Q1017 R09/29//95=
201812220900 METAR LRAR 220900Z 19014KT CAVOK 05/02 Q1017 R09/29//95=
201812220930 METAR LRAR 220930Z 19014KT CAVOK 04/02 Q1016 R09/29//95=
201812221000 METAR LRAR 221000Z 19015KT CAVOK 05/02 Q1016 R09/29//95=
201812221030 METAR LRAR 221030Z 20013KT CAVOK 05/02 Q1016 R09/29//95=
201812221100 METAR LRAR 221100Z 20014KT CAVOK 04/02 Q1016 R09/29//95=
201812221130 METAR LRAR 221130Z 19015KT CAVOK 04/02 Q1015 R09/29//95=
201812221200 METAR LRAR 221200Z 20013KT 9999 -RA FEW007 SCT024 04/02 Q1015
                        R09/29//95=
201812221230 METAR LRAR 221230Z 21011KT 9999 FEW008 SCT025 04/02 Q1016
                        R09/29//95=
201812221300 METAR LRAR 221300Z 19011KT 9999 FEW013 04/01 Q1016 R09/29//95=
201812221330 METAR LRAR 221330Z 21012KT 9999 FEW011 04/02 Q1016 R09/29//95=
201812221400 METAR LRAR 221400Z 21012KT CAVOK 04/01 Q1015 R09/29//95=
201812221430 METAR LRAR 221430Z 21013KT CAVOK 04/02 Q1015 R09/29//95=
201812221500 METAR LRAR 221500Z 21011KT CAVOK 04/02 Q1016 R09/29//95=
201812221530 METAR LRAR 221530Z 21010KT 9000 FEW009 SCT021 04/02 Q1016
                        R09/29//95=
201812221600 METAR LRAR 221600Z 21013KT CAVOK 04/02 Q1016 R09/29//95=
201812221630 METAR LRAR 221630Z 22011KT CAVOK 04/02 Q1016 R09/29//95=
201812221700 METAR LRAR 221700Z 23009KT 9999 SCT016 04/02 Q1017 R09/29//95=
201812221730 METAR LRAR 221730Z AUTO 21010KT 8000 FEW056/// 03/02 Q1016
                        REUP=
201812221800 METAR LRAR 221800Z AUTO 22012KT 9000 NCD 04/02 Q1016=
201812221830 METAR LRAR 221830Z AUTO 21010KT 9000 NCD 04/02 Q1016=
201812221900 METAR LRAR 221900Z AUTO 22010KT 9000 FEW071/// 03/02 Q1016=
201812221930 METAR LRAR 221930Z AUTO 20011KT 9000 NCD 03/01 Q1016=
201812222000 METAR LRAR 222000Z AUTO 20011KT 9000 NCD 03/02 Q1016=
201812222030 METAR LRAR 222030Z AUTO 20010KT 9999 FEW066/// 03/02 Q1016=
201812222100 METAR LRAR 222100Z AUTO 21009KT 9999 NCD 03/02 Q1017=
201812222130 METAR LRAR 222130Z AUTO 22009KT 9000 NCD 03/02 Q1017=
201812222200 METAR LRAR 222200Z AUTO 21008KT 8000 NCD 03/02 Q1017=
201812222230 METAR LRAR 222230Z AUTO 23008KT 7000 NCD 03/02 Q1017=
201812222300 METAR LRAR 222300Z AUTO 22007KT 7000 NCD 03/02 Q1017=
201812222330 METAR LRAR 222330Z AUTO 24007KT 8000 NCD 04/03 Q1017=
201812230000 METAR LRAR 230000Z AUTO 26011KT 9999 NCD 06/03 Q1017=
201812230030 METAR LRAR 230030Z AUTO 26012KT 9999 NCD 06/03 Q1017=
201812230100 METAR LRAR 230100Z AUTO 27012KT 9999 NCD 05/03 Q1018=
201812230130 METAR LRAR 230130Z AUTO 27010KT 9999 NCD 05/03 Q1018=
201812230200 METAR LRAR 230200Z AUTO 28013KT 9999 NCD 05/03 Q1018=
201812230230 METAR LRAR 230230Z AUTO 27014KT 9999 NCD 04/03 Q1018=
201812230300 METAR LRAR 230300Z AUTO 28008KT 9999 NCD 03/02 Q1018=
201812230330 METAR LRAR 230330Z AUTO 28007KT 9999 NCD 03/02 Q1018=
201812230400 METAR LRAR 230400Z AUTO 28007KT 9999 NCD 03/02 Q1019=
201812230430 METAR LRAR 230430Z AUTO 28007KT 9999 FEW086/// 03/02 Q1019=
201812230500 METAR LRAR 230500Z 27009KT CAVOK 03/02 Q1019 R09/29//95=
201812230530 METAR LRAR 230530Z 27008KT CAVOK 03/02 Q1019 R09/29//95=
201812230600 METAR LRAR 230600Z 26008KT CAVOK 05/03 Q1019 R09/29//95=
201812230630 METAR LRAR 230630Z 26010KT CAVOK 05/03 Q1020 R09/29//95=
201812230700 METAR LRAR 230700Z 23005KT CAVOK 03/02 Q1020 R09/29//95=
201812230730 METAR LRAR 230730Z 26009KT CAVOK 05/03 Q1020 R09/29//95=
201812230800 METAR LRAR 230800Z 26011KT 9999 FEW040 06/03 Q1021 R09/19//95=
201812230830 METAR LRAR 230830Z 25004KT 9999 FEW045 05/03 Q1021 R09/19//95=
201812230900 METAR LRAR 230900Z 27008KT 240V300 CAVOK 07/03 Q1021 R09/19//95=
201812230930 METAR LRAR 230930Z 27011KT CAVOK 07/04 Q1021 R09/19//95=
201812231000 METAR LRAR 231000Z 27015KT CAVOK 08/04 Q1021 R09/19//95=
201812231030 METAR COR LRAR 231030Z 28013KT CAVOK 08/04 Q1021 R09/CLRD//=
201812231100 METAR LRAR 231100Z 27013KT CAVOK 09/05 Q1020=
201812231130 METAR LRAR 231130Z 28015KT CAVOK 09/05 Q1020=
201812231200 METAR LRAR 231200Z 28014KT CAVOK 10/05 Q1020=
201812231230 METAR LRAR 231230Z 28013KT CAVOK 10/05 Q1020=
201812231300 METAR LRAR 231300Z 28011KT CAVOK 09/05 Q1021=
201812231330 METAR LRAR 231330Z 28007KT 250V310 9999 FEW037 BKN040 09/05
                        Q1021=
201812231400 METAR LRAR 231400Z 25007KT 9999 SCT037 08/05 Q1021=
201812231430 METAR LRAR 231430Z 23003KT 210V290 9999 BKN036 05/03 Q1021=
201812231500 METAR LRAR 231500Z 22005KT 9999 SCT039 05/02 Q1021=
201812231530 METAR LRAR 231530Z 19006KT CAVOK 04/02 Q1021=
201812231600 METAR LRAR 231600Z 20006KT CAVOK 03/02 Q1022=
201812231630 METAR LRAR 231630Z 20008KT CAVOK 02/01 Q1021=
201812231700 METAR LRAR 231700Z 17006KT 110V200 CAVOK 02/01 Q1021=
201812231730 METAR LRAR 231730Z AUTO 16003KT 8000 NCD 02/01 Q1021=
201812231800 METAR LRAR 231800Z AUTO 18009KT 9999 NCD 03/02 Q1021=
201812231830 METAR LRAR 231830Z AUTO 18009KT 9000 NCD 02/02 Q1021=
201812231900 METAR LRAR 231900Z AUTO 18007KT 8000 NCD 02/02 Q1020=
201812231930 METAR LRAR 231930Z AUTO 19006KT 8000 NCD 02/02 Q1020=
201812232000 METAR LRAR 232000Z AUTO 21009KT 8000 NCD 02/02 Q1020=
201812232030 METAR LRAR 232030Z AUTO 17007KT 9000 NCD 03/02 Q1019=
201812232100 METAR LRAR 232100Z AUTO 21007KT 9000 NCD 03/02 Q1020=
201812232130 METAR LRAR 232130Z AUTO 20006KT 7000 -FZDZ FEW009/// SCT016///
                        03/02 Q1020=
201812232200 METAR LRAR 232200Z AUTO 20007KT 6000 SG FEW009/// SCT014///
                        BKN019/// 03/02 Q1019=
201812232230 METAR LRAR 232230Z AUTO 18005KT 6000 -SN FEW010/// SCT015///
                        BKN018/// 03/03 Q1019=
201812232300 METAR LRAR 232300Z AUTO 14004KT 6000 -SN FEW010/// SCT013///
                        BKN016/// 03/03 Q1018=
201812232330 METAR LRAR 232330Z AUTO 11007KT 6000 -SN FEW009/// 03/03
                        Q1017=
201812240000 METAR LRAR 240000Z AUTO 12008KT 8000 NCD 03/03 Q1016 RESN=
201812240030 METAR LRAR 240030Z AUTO 13007KT 8000 -SN FEW011/// 03/03
                        Q1016=
201812240100 METAR LRAR 240100Z AUTO 20016KT 160V220 6000 SG FEW005///
                        SCT015/// BKN022/// 03/02 Q1016=
201812240130 METAR LRAR 240130Z AUTO 17008KT 8000 -SN FEW006/// SCT014///
                        BKN018/// 03/02 Q1015=
201812240200 METAR LRAR 240200Z AUTO 16012KT 9999 FEW011/// BKN050///
                        04/02 Q1013=
201812240230 METAR LRAR 240230Z AUTO 16013KT 9999 FEW011/// 04/02 Q1012
                        REUP=
201812240300 METAR LRAR 240300Z AUTO 16011KT 9999 BKN050/// 04/03 Q1010=
201812240330 METAR LRAR 240330Z AUTO 18013KT 9999 BKN046/// 05/03 Q1010=
201812240400 METAR LRAR 240400Z AUTO 17013KT 9999 -DZ SCT040/// BKN046///
                        06/03 Q1009=
201812240430 METAR LRAR 240430Z AUTO 19014KT 9999 SCT042/// 05/03 Q1008
                        REDZ=
201812240500 METAR LRAR 240500Z 19015KT 9999 BKN044 05/03 Q1007=
201812240530 METAR LRAR 240530Z 19014KT 9999 OVC044 05/03 Q1007=
201812240600 METAR LRAR 240600Z 19014KT 9999 -RA FEW010 OVC042 05/03 Q1006=
201812240630 METAR LRAR 240630Z 20014KT 9999 -RA FEW016 OVC041 05/03 Q1006
                        R09/29//95=
201812240700 METAR LRAR 240700Z 20013KT 9999 -RA FEW013 OVC043 05/03 Q1005
                        R09/29//95=
201812240730 METAR LRAR 240730Z 20013KT 9999 FEW009 OVC048 05/03 Q1004
                        R09/29//95=
201812240800 METAR LRAR 240800Z 21012KT 9999 -RA FEW024 OVC046 05/03 Q1005
                        R09/29//95=
201812240830 METAR LRAR 240830Z 22013KT 8000 -RA OVC046 05/03 Q1005 R09/29//95=
201812240900 METAR LRAR 240900Z 22013KT 9000 -RA FEW009 SCT011 04/03 Q1005
                        R09/29//95=
201812240930 METAR LRAR 240930Z 23012KT 8000 -RA FEW009 SCT016 OVC042
                        04/04 Q1005 R09/29//95=
201812241000 METAR LRAR 241000Z 25013KT 9999 -RA FEW006 SCT012 05/04 Q1005
                        R09/29//95=
201812241030 METAR LRAR 241030Z 28017KT 4000 BR SCT008 BKN010 06/06 Q1005
                        R09/29//95=
201812241100 METAR LRAR 241100Z 30018KT 7000 FEW006 OVC008 07/06 Q1006
                        R09/29//95=
201812241130 METAR LRAR 241130Z 31020KT 9999 SCT008 BKN013 06/05 Q1006
                        R09/29//95=
201812241200 METAR LRAR 241200Z 33022KT 9999 FEW010 BKN013 06/04 Q1007
                        R09/29//95=
201812241230 METAR LRAR 241230Z 34019G29KT 9999 -RA SCT011 BKN014 05/04
                        Q1009 R09/29//95=
201812241300 METAR LRAR 241300Z 34014KT 9999 BKN010 BKN015 05/04 Q1010
                        R09/29//95=
201812241330 METAR LRAR 241330Z 34014KT 9999 SCT013 BKN016 05/03 Q1011
                        R09/29//95=
201812241400 METAR LRAR 241400Z 34012KT 9999 -SHRA FEW012 SCT018 SCT027CB
                        05/03 Q1012 R09/29//95=
201812241430 METAR LRAR 241430Z 33012KT 9999 -SHRA SCT015 SCT027CB 04/04
                        Q1013 R09/29//95=
201812241500 METAR LRAR 241500Z 33012KT 9999 SCT015 FEW025CB 04/03 Q1014
                        R09/29//95=
201812241530 METAR LRAR 241530Z 33011KT 9999 SCT016 SCT026CB 04/03 Q1015
                        R09/29//95=
201812241600 METAR LRAR 241600Z 35009KT 9999 SCT017 BKN027 05/03 Q1016
                        R09/29//95=
201812241630 METAR LRAR 241630Z 02015KT 350V050 9999 SCT016 BKN034 04/02
                        Q1017 R09/29//95=
201812241700 METAR LRAR 241700Z 03015KT 9999 -RA SCT010 SCT019 OVC030
                        04/01 Q1017 R09/29//95=
201812241730 METAR LRAR 241730Z AUTO 36012KT 9999 -FZRA FEW015/// BKN044///
                        03/M01 Q1018=
201812241800 METAR LRAR 241800Z AUTO 36015G27KT 9999 +UP VV011 02/M00
                        Q1019=
201812241830 METAR LRAR 241830Z AUTO 01012KT 340V040 9999 FEW009/// BKN050///
                        03/M01 Q1019 REFZRA=
201812241900 METAR LRAR 241900Z AUTO 34007KT 310V010 9999 BKN048/// 02/M01
                        Q1020 REDZ=
201812241930 METAR LRAR 241930Z AUTO 31008KT 9999 BKN056/// 02/M00 Q1021=
201812242000 METAR LRAR 242000Z AUTO 32009KT 9999 FEW038/// BKN046///
                        02/00 Q1021=
201812242030 METAR LRAR 242030Z AUTO 31007KT 9999 FEW027/// BKN046///
                        02/01 Q1022=
201812242100 METAR LRAR 242100Z AUTO 31007KT 9999 FEW022/// BKN056///
                        01/01 Q1022=
201812242130 METAR LRAR 242130Z AUTO 31008KT 9999 BKN056/// 01/00 Q1022=
201812242200 METAR LRAR 242200Z AUTO 32007KT 9999 BKN061/// 01/00 Q1022=
201812242230 METAR LRAR 242230Z AUTO 31007KT 9999 BKN061/// 01/00 Q1023=
201812242300 METAR LRAR 242300Z AUTO 31007KT 9999 BKN061/// 01/M00 Q1023=
201812242330 METAR LRAR 242330Z AUTO 30006KT 9999 BKN061/// 01/M00 Q1023=
201812250000 METAR LRAR 250000Z AUTO 31007KT 9999 BKN061/// 01/M01 Q1023=
201812250030 METAR LRAR 250030Z AUTO 31007KT 9999 BKN061/// 01/M01 Q1024=
201812250100 METAR LRAR 250100Z AUTO 31008KT 9999 BKN066/// 01/M01 Q1024=
201812250130 METAR LRAR 250130Z AUTO 32008KT 9999 BKN061/// 01/M01 Q1025=
201812250200 METAR LRAR 250200Z AUTO 31006KT 9999 BKN066/// 00/M01 Q1025=
201812250230 METAR LRAR 250230Z AUTO 32007KT 9999 FEW076/// M00/M01 Q1025=
201812250300 METAR LRAR 250300Z AUTO 31006KT 9999 FEW076/// M00/M01 Q1024=
201812250330 METAR LRAR 250330Z AUTO 32009KT 9999 BKN071/// M00/M01 Q1024=
201812250400 METAR LRAR 250400Z AUTO 32008KT 9999 BKN071/// M00/M02 Q1025=
201812250430 METAR LRAR 250430Z AUTO 32008KT 9999 SCT071/// M00/M02 Q1025=
201812250500 METAR LRAR 250500Z 31007KT CAVOK M00/M02 Q1025 R09/29//95=
201812250530 METAR LRAR 250530Z 31008KT CAVOK M00/M02 Q1025 R09/29//95=
201812250600 METAR LRAR 250600Z 29007KT CAVOK M01/M02 Q1025 R09/29//95=
201812250630 METAR LRAR 250630Z 30006KT CAVOK M01/M02 Q1025 R09/29//95=
201812250700 METAR LRAR 250700Z 29005KT CAVOK M01/M02 Q1025 R09/29//95=
201812250730 METAR COR LRAR 250730Z 31007KT CAVOK M00/M03 Q1026 R09/CLRD//=
201812250800 METAR LRAR 250800Z 31008KT CAVOK M00/M03 Q1026=
201812250830 METAR LRAR 250830Z 32008KT CAVOK M00/M03 Q1026=
201812250900 METAR LRAR 250900Z 31008KT CAVOK M00/M03 Q1026=
201812250930 METAR LRAR 250930Z 32008KT CAVOK M00/M03 Q1026=
201812251000 METAR LRAR 251000Z 32007KT CAVOK M00/M03 Q1026=
201812251030 METAR LRAR 251030Z 32006KT CAVOK 01/M02 Q1026=
201812251100 METAR LRAR 251100Z 34004KT 300V020 CAVOK 01/M03 Q1025=
201812251130 METAR LRAR 251130Z 35003KT 310V110 CAVOK 01/M03 Q1025=
201812251200 METAR LRAR 251200Z VRB01KT CAVOK 02/M03 Q1026=
201812251230 METAR LRAR 251230Z 25004KT 220V290 CAVOK 02/M03 Q1026=
201812251300 METAR LRAR 251300Z 25005KT CAVOK 02/M03 Q1026=
201812251330 METAR LRAR 251330Z 24004KT CAVOK 02/M03 Q1026=
201812251400 METAR LRAR 251400Z 25006KT CAVOK 01/M03 Q1026=
201812251430 METAR LRAR 251430Z 25005KT CAVOK 00/M03 Q1026=
201812251500 METAR LRAR 251500Z 26007KT CAVOK M01/M03 Q1027=
201812251530 METAR LRAR 251530Z 25006KT CAVOK M00/M03 Q1027=
201812251600 METAR LRAR 251600Z 25006KT CAVOK M01/M04 Q1027=
201812251630 METAR LRAR 251630Z 25005KT CAVOK M01/M04 Q1027=
201812251700 METAR LRAR 251700Z 24005KT CAVOK M01/M04 Q1027=
201812251730 METAR LRAR 251730Z AUTO 24006KT 9999 NCD M01/M04 Q1027=
201812251800 METAR LRAR 251800Z AUTO 25006KT 9999 NCD M01/M04 Q1027=
201812251830 METAR LRAR 251830Z AUTO 23005KT 9999 NCD M01/M03 Q1027=
201812251900 METAR LRAR 251900Z AUTO 25005KT 9999 NCD M01/M04 Q1027=
201812251930 METAR LRAR 251930Z AUTO 26006KT 9999 NCD M00/M03 Q1027=
201812252000 METAR LRAR 252000Z AUTO 25005KT 9999 FEW071/// 00/M03 Q1027=
201812252030 METAR LRAR 252030Z AUTO 24004KT 9999 FEW066/// 00/M02 Q1027=
201812252100 METAR LRAR 252100Z AUTO 25007KT 9999 SCT061/// 01/M02 Q1027=
201812252130 METAR LRAR 252130Z AUTO 22004KT 9999 FEW056/// 00/M02 Q1027=
201812252200 METAR LRAR 252200Z AUTO 23004KT 9999 FEW021/// M00/M01 Q1027=
201812252230 METAR LRAR 252230Z AUTO 21003KT 9999 SCT017/// BKN021///
                        BKN027/// 00/M01 Q1027=
201812252300 METAR LRAR 252300Z AUTO 22004KT 9999 FEW017/// BKN023///
                        01/M00 Q1027=
201812252330 METAR LRAR 252330Z AUTO 22004KT 9999 SCT019/// BKN022///
                        01/00 Q1027=
201812260000 METAR LRAR 260000Z AUTO 19003KT 9999 BKN020/// 01/01 Q1027=
201812260030 METAR LRAR 260030Z AUTO 16004KT 6000 BKN020/// 01/01 Q1027=
201812260100 METAR LRAR 260100Z AUTO 16003KT 140V200 6000 BKN020/// 01/01
                        Q1027=
201812260130 METAR LRAR 260130Z AUTO 14005KT 6000 SCT019/// BKN023///
                        01/01 Q1027=
201812260200 METAR LRAR 260200Z AUTO 16004KT 120V210 6000 FEW010/// BKN021///
                        BKN026/// 01/01 Q1027=
201812260230 METAR LRAR 260230Z AUTO 15004KT 7000 FEW010/// BKN024///
                        00/00 Q1027=
201812260300 METAR LRAR 260300Z AUTO 17004KT 9999 FEW009/// SCT019///
                        BKN025/// 00/00 Q1027=
201812260330 METAR LRAR 260330Z AUTO 17004KT 6000 FEW009/// SCT011///
                        BKN023/// 00/00 Q1027=
201812260400 METAR LRAR 260400Z AUTO 16005KT 7000 SCT009/// BKN011///
                        BKN019/// 00/00 Q1026=
201812260430 METAR LRAR 260430Z AUTO 17005KT 9999 FEW009/// BKN011///
                        BKN018/// 00/00 Q1027=
201812260500 METAR LRAR 260500Z 16003KT 150V220 9999 FEW009 BKN011 01/01
                        Q1027=
201812260530 METAR LRAR 260530Z 16004KT 9999 FEW011 BKN020 00/00 Q1026=
201812260600 METAR LRAR 260600Z 21004KT 9999 FEW010 BKN021 00/00 Q1027=
201812260630 METAR LRAR 260630Z 17004KT 120V200 9999 SCT021 00/00 Q1027=
201812260700 METAR LRAR 260700Z 20005KT 9999 BKN019 01/00 Q1027=
201812260730 METAR LRAR 260730Z 21006KT 9999 BKN021 01/00 Q1027=
201812260800 METAR LRAR 260800Z 22007KT 9999 BKN021 01/00 Q1027=
201812260830 METAR LRAR 260830Z 21008KT 9999 SCT022 BKN026 01/00 Q1027=
201812260900 METAR LRAR 260900Z 22007KT 9999 BKN024 00/M00 Q1027=
201812260930 METAR LRAR 260930Z 21006KT 9999 FEW027 01/M00 Q1027=
201812261000 METAR LRAR 261000Z 21006KT CAVOK 01/00 Q1027=
201812261030 METAR LRAR 261030Z 22006KT CAVOK 01/00 Q1026=
201812261100 METAR LRAR 261100Z 22005KT CAVOK 02/00 Q1026=
201812261130 METAR LRAR 261130Z 22003KT 9999 FEW037 02/00 Q1026=
201812261200 METAR LRAR 261200Z 22006KT CAVOK 02/01 Q1026=
201812261230 METAR LRAR 261230Z 20006KT CAVOK 03/01 Q1025=
201812261300 METAR LRAR 261300Z 19006KT CAVOK 03/01 Q1025=
201812261330 METAR LRAR 261330Z 22006KT CAVOK 03/01 Q1025=
201812261400 METAR LRAR 261400Z VRB04KT 9999 BKN046 03/02 Q1025=
201812261430 METAR LRAR 261430Z 20003KT 9999 BKN037 03/02 Q1025=
201812261500 METAR LRAR 261500Z 21006KT 9999 OVC032 03/02 Q1025=
201812261530 METAR LRAR 261530Z 22006KT 9999 OVC037 03/02 Q1025=
201812261600 METAR LRAR 261600Z 23005KT 9999 OVC044 03/01 Q1025=
201812261630 METAR LRAR 261630Z 25007KT 9999 SCT031 OVC047 03/01 Q1025=
201812261700 METAR LRAR 261700Z 27008KT 9999 OVC031 03/01 Q1025=
201812261730 METAR LRAR 261730Z AUTO 27007KT 9999 FEW033/// BKN046///
                        03/01 Q1025=
201812261800 METAR LRAR 261800Z AUTO 27007KT 9999 BKN044/// 03/01 Q1025=
201812261830 METAR LRAR 261830Z AUTO 28006KT 9999 BKN045/// 03/01 Q1025=
201812261900 METAR LRAR 261900Z AUTO 27006KT 9999 BKN044/// 02/01 Q1025=
201812261930 METAR LRAR 261930Z AUTO 28006KT 9999 BKN043/// 02/01 Q1025=
201812262000 METAR LRAR 262000Z AUTO 28005KT 9999 BKN043/// 02/00 Q1025=
201812262030 METAR LRAR 262030Z AUTO 28005KT 9999 BKN042/// 02/00 Q1025=
201812262100 METAR LRAR 262100Z AUTO 27004KT 9999 BKN040/// 01/00 Q1025=
201812262130 METAR LRAR 262130Z AUTO 23002KT 110V270 9999 BKN041/// 01/00
                        Q1025=
201812262200 METAR LRAR 262200Z AUTO 24003KT 9999 SCT040/// 02/M01 Q1025=
201812262230 METAR LRAR 262230Z AUTO 23003KT 9999 NCD 01/M01 Q1025=
201812262300 METAR LRAR 262300Z AUTO 21003KT 9999 NCD 00/M01 Q1025=
201812262330 METAR LRAR 262330Z AUTO 19003KT 8000 NCD M01/M02 Q1025=
201812270000 METAR LRAR 270000Z AUTO 19003KT 8000 NCD M01/M01 Q1025=
201812270030 METAR LRAR 270030Z AUTO 19003KT 5000 BR NCD M01/M01 Q1025=
201812270100 METAR LRAR 270100Z AUTO 21003KT 5000 BR NCD ///// Q1026=
201812270130 METAR LRAR 270130Z AUTO 20003KT 5000 BR FEW050/// ///// Q1026=
201812270200 METAR LRAR 270200Z AUTO 19003KT 4500 BR BKN050/// ///// Q1026=
201812270230 METAR LRAR 270230Z AUTO 19003KT 3100 R27/2000 BR BKN049///
                        ///// Q1026=
201812270300 METAR LRAR 270300Z AUTO 20004KT 5000 BR SCT049/// ///// Q1026=
201812270330 METAR LRAR 270330Z AUTO 22004KT 5000 BR SCT048/// ///// Q1026=
201812270400 METAR LRAR 270400Z AUTO 22004KT 5000 BR FEW048/// ///// Q1026=
201812270430 METAR LRAR 270430Z AUTO 20005KT 5000 BR NCD ///// Q1026=
201812270500 METAR LRAR 270500Z VRB05KT 6000 NSC M02/M02 Q1026=
201812270530 METAR LRAR 270530Z 13002KT 4500 BR NSC M02/M02 Q1026=
201812270600 METAR LRAR 270600Z 16003KT 3000 BR NSC M03/M03 Q1027=
201812270630 METAR LRAR 270630Z 16004KT 140V230 3000 BR NSC M03/M03 Q1027=
201812270700 METAR LRAR 270700Z 18004KT 3000 BR NSC M03/M03 Q1027=
201812270730 METAR LRAR 270730Z 17003KT 4500 BR NSC M02/M02 Q1027=
201812270800 METAR LRAR 270800Z 19005KT 7000 NSC M01/M01 Q1027=
201812270830 METAR LRAR 270830Z 18005KT 7000 NSC M01/M01 Q1027=
201812270900 METAR LRAR 270900Z 18004KT 9000 NSC M00/M00 Q1027=
201812270930 METAR LRAR 270930Z 18005KT 9000 NSC 00/M00 Q1027=
201812271000 METAR LRAR 271000Z 18005KT CAVOK 01/00 Q1027=
201812271030 METAR LRAR 271030Z 20007KT CAVOK 02/01 Q1027=
201812271100 METAR LRAR 271100Z 18008KT 9999 SCT007 02/00 Q1026=
201812271130 METAR LRAR 271130Z 20007KT 9999 BKN007 02/01 Q1026=
201812271200 METAR LRAR 271200Z 20008KT 9999 BKN008 02/01 Q1026=
201812271230 METAR LRAR 271230Z 20006KT 170V240 9999 SCT006 BKN008 02/01
                        Q1026=
201812271300 METAR LRAR 271300Z 20008KT 9999 BKN007 02/01 Q1026=
201812271330 METAR LRAR 271330Z 20006KT 9999 BKN008 BKN010 03/01 Q1026=
201812271400 METAR LRAR 271400Z 18007KT 9999 BKN009 02/01 Q1026=
201812271430 METAR LRAR 271430Z 19006KT 9999 BKN009 OVC011 02/01 Q1026=
201812271500 METAR LRAR 271500Z 19005KT 9999 BKN010 BKN022 02/01 Q1026=
201812271530 METAR LRAR 271530Z 18008KT 9999 FEW010 BKN022 02/01 Q1026=
201812271600 METAR LRAR 271600Z 17008KT 9999 BKN024 02/01 Q1026=
201812271630 METAR LRAR 271630Z 17008KT 9999 BKN023 BKN028 03/02 Q1026=
201812271700 METAR LRAR 271700Z 18008KT 9000 SCT015 BKN026 03/02 Q1026=
201812271730 METAR LRAR 271730Z AUTO 19007KT 8000 FEW015/// BKN020///
                        03/02 Q1026=
201812271800 METAR LRAR 271800Z AUTO 19007KT 8000 BKN023/// 03/02 Q1026=
201812271830 METAR LRAR 271830Z AUTO 19007KT 7000 BKN024/// 03/02 Q1026=
201812271900 METAR LRAR 271900Z AUTO 19008KT 7000 BKN024/// 03/02 Q1025=
201812271930 METAR LRAR 271930Z AUTO 19006KT 7000 BKN025/// 03/02 Q1025=
201812272000 METAR LRAR 272000Z AUTO 19007KT 7000 BKN026/// 03/02 Q1025=
201812272030 METAR LRAR 272030Z AUTO 19007KT 7000 BKN025/// 03/02 Q1025=
201812272100 METAR LRAR 272100Z AUTO 18008KT 8000 BKN020/// BKN024///
                        03/02 Q1025=
201812272130 METAR LRAR 272130Z AUTO 18008KT 8000 BKN021/// 03/02 Q1025=
201812272200 METAR LRAR 272200Z AUTO 18008KT 8000 BKN020/// 03/02 Q1025=
201812272230 METAR LRAR 272230Z AUTO 18008KT 7000 BKN018/// BKN021///
                        03/02 Q1025=
201812272300 METAR LRAR 272300Z AUTO 18010KT 6000 FEW013/// SCT016///
                        OVC019/// 03/02 Q1024=
201812272330 METAR LRAR 272330Z AUTO 19008KT 5000 SCT008/// BKN011///
                        BKN019/// 03/03 Q1024=
201812280000 METAR LRAR 280000Z AUTO 18009KT 5000 BR FEW007/// BKN018///
                        BKN021/// 03/03 Q1024=
201812280030 METAR LRAR 280030Z AUTO 19009KT 4900 BR BKN006/// BKN019///
                        03/03 Q1024=
201812280100 METAR LRAR 280100Z AUTO 18008KT 4900 BR FEW003/// BKN017///
                        03/03 Q1024=
201812280130 METAR LRAR 280130Z AUTO 19007KT 5000 BR OVC019/// 03/03 Q1024=
201812280200 METAR LRAR 280200Z AUTO 19007KT 5000 BR BKN017/// 03/03 Q1024=
201812280230 METAR LRAR 280230Z AUTO 19008KT 5000 BR FEW004/// BKN020///
                        03/03 Q1024=
201812280300 METAR LRAR 280300Z AUTO 18009KT 4600 BR SCT003/// BKN022///
                        03/03 Q1023=
201812280330 METAR LRAR 280330Z AUTO 18008KT 4800 BR BKN023/// 03/03 Q1023=
201812280400 METAR LRAR 280400Z AUTO 19009KT 5000 BR FEW025/// BKN030///
                        03/03 Q1023=
201812280430 METAR LRAR 280430Z AUTO 19009KT 6000 FEW029/// BKN033///
                        03/03 Q1023=
201812280500 METAR LRAR 280500Z 19008KT 5000 BR BKN031 03/03 Q1023=
201812280530 METAR LRAR 280530Z 18006KT 6000 BKN031 03/03 Q1023=
201812280600 METAR LRAR 280600Z 19008KT 6000 FEW031 BKN040 03/03 Q1023=
201812280630 METAR LRAR 280630Z 19008KT 5000 BR FEW031 BKN036 03/02 Q1023=
201812280700 METAR LRAR 280700Z 20007KT 170V230 6000 BKN034 03/02 Q1023=
201812280730 METAR LRAR 280730Z 19007KT 6000 BKN038 03/03 Q1023=
201812280800 METAR LRAR 280800Z 20007KT 8000 BKN039 03/03 Q1023=
201812280830 METAR LRAR 280830Z 20005KT 9999 BKN038 04/02 Q1023=
201812280900 METAR LRAR 280900Z 21007KT 9999 BKN045 04/02 Q1023=
201812280930 METAR LRAR 280930Z 21006KT CAVOK 05/03 Q1022=
201812281000 METAR LRAR 281000Z 20007KT 9999 FEW012 05/03 Q1022=
201812281030 METAR LRAR 281030Z 22005KT 180V240 5000 -SHRA BR SCT012 SCT025CB
                        05/03 Q1022=
201812281100 METAR LRAR 281100Z 22002KT 190V250 7000 -SHRA SCT010 SCT025CB
                        OVC038 05/04 Q1022 R09/19//95=
201812281130 METAR LRAR 281130Z 22003KT 190V250 8000 -SHRA SCT009 SCT025CB
                        BKN030 05/04 Q1022 R09/19//95=
201812281200 METAR LRAR 281200Z 20005KT 8000 -SHRA SCT008 SCT025CB OVC030
                        05/04 Q1021 R09/19//95=
201812281230 METAR LRAR 281230Z 22007KT 9000 -SHRA SCT007 SCT025CB OVC030
                        05/04 Q1021 R09/19//95=
201812281300 METAR LRAR 281300Z 23006KT 8000 FEW007 SCT014 OVC030 05/04
                        Q1021 R09/19//95=
201812281330 METAR LRAR 281330Z 22005KT 6000 -RA FEW008 SCT018 OVC046
                        05/05 Q1021 R09/19//95=
201812281400 METAR LRAR 281400Z 23004KT 7000 -RA FEW006 SCT015 OVC029
                        05/05 Q1021 R09/19//95=
201812281430 METAR LRAR 281430Z 22004KT 8000 SCT015 OVC031 05/05 Q1021
                        R09/19//95=
201812281500 METAR LRAR 281500Z 21005KT 7000 SCT026 OVC034 05/05 Q1021
                        R09/19//95=
201812281530 METAR LRAR 281530Z 23005KT 7000 FEW019 OVC035 05/05 Q1021
                        R09/19//95=
201812281600 METAR LRAR 281600Z 24006KT 7000 -RA FEW010 SCT013 OVC035
                        05/05 Q1021 R09/19//95=
201812281630 METAR LRAR 281630Z 25005KT 5000 -RA BR FEW009 SCT012 OVC035
                        05/05 Q1021 R09/19//95=
201812281700 METAR LRAR 281700Z 26003KT 230V290 4800 -RA FEW006 SCT009
                        OVC035 05/05 Q1021 R09/19//95=
201812281730 METAR LRAR 281730Z AUTO 25003KT 3500 R27/2000 -SN SCT004///
                        BKN006/// BKN010/// 05/05 Q1021=
201812281800 METAR LRAR 281800Z AUTO 24005KT 5000 -SN SCT003/// BKN005///
                        ///// Q1021=
201812281830 METAR LRAR 281830Z AUTO 27007KT 5000 FEW005/// SCT008///
                        BKN012/// 05/05 Q1021 RESN=
201812281900 METAR LRAR 281900Z AUTO 28005KT 4500 BR FEW005/// SCT007///
                        BKN011/// 05/05 Q1021=
201812281930 METAR LRAR 281930Z AUTO 26003KT 4100 BR FEW004/// BKN019///
                        ///// Q1021=
201812282000 METAR LRAR 282000Z AUTO 26004KT 3100 R27/2000 BR SCT019///
                        BKN022/// ///// Q1021=
201812282030 METAR LRAR 282030Z AUTO 28005KT 3200 R27/2000 BR SCT019///
                        BKN022/// ///// Q1021=
201812282100 METAR LRAR 282100Z AUTO 28004KT 3700 -SHRA FEW006/// BKN023///
                        ///// Q1021=
201812282130 METAR LRAR 282130Z AUTO 29005KT 4400 SCT011/// BKN024///
                        ///// Q1021 REDZ=
201812282200 METAR LRAR 282200Z AUTO 29004KT 4500 SCT009/// OVC015///
                        ///// Q1021=
201812282230 METAR LRAR 282230Z AUTO 27006KT 4500 UP SCT007/// BKN009///
                        BKN036/// ///// Q1021=
201812282300 METAR LRAR 282300Z AUTO 31007KT 5000 SCT007/// BKN009///
                        BKN036/// ///// Q1022 REFZRA=
201812282330 METAR LRAR 282330Z AUTO 32007KT 6000 BKN005/// BKN007///
                        04/04 Q1022=
201812290000 METAR LRAR 290000Z AUTO 33006KT 4800 BR SCT002/// OVC004///
                        04/04 Q1022=
201812290030 METAR LRAR 290030Z AUTO 33006KT 2400 BR BKN001/// ///// Q1022=
201812290100 METAR LRAR 290100Z AUTO 34005KT 1400 R27/1500U FG VV002 /////
                        Q1023=
201812290130 METAR LRAR 290130Z AUTO 35006KT 1700 R27/1600VP2000D FG BKN001///
                        ///// Q1023=
201812290200 METAR LRAR 290200Z AUTO 33005KT 2900 VV002 ///// Q1023=
201812290230 METAR LRAR 290230Z AUTO 34006KT 1000 R27/0900V1800D FG VV001
                        ///// Q1023=
201812290300 METAR LRAR 290300Z AUTO 35006KT 2100 R27/1700VP2000D BKN001///
                        BKN003/// ///// Q1023=
201812290330 METAR LRAR 290330Z AUTO 33007KT 0900 R27/0800V1200U FG VV001
                        ///// Q1023=
201812290400 METAR LRAR 290400Z AUTO 34005KT 1600 R27/1200VP2000D FG BKN001///
                        OVC003/// ///// Q1023=
201812290430 METAR LRAR 290430Z AUTO 34004KT 2800 VV001 ///// Q1023=
201812290500 METAR LRAR 290500Z 34004KT 1800 BR SCT001 OVC003 03/03 Q1024
                        R09/19//95=
201812290530 METAR LRAR 290530Z 31005KT 0700 R09/0800 R27/0800N FG BKN001
                        OVC003 03/03 Q1024 R09/19//95=
201812290600 METAR LRAR 290600Z 34004KT 0600 R09/0700 R27/0800D FG BKN001
                        OVC003 03/03 Q1024 R09/29//95=
201812290630 METAR LRAR 290630Z 34003KT 0200 R09/0300 R27/0550D FG BKN001
                        OVC003 03/03 Q1025 R09/29//95=
201812290700 METAR LRAR 290700Z 31006KT 0200 R09/0400 R27/0450N FG BKN001
                        OVC002 03/03 Q1025 R09/29//95=
201812290730 METAR LRAR 290730Z 33004KT 0500 R09/0700 R27/0800N FG BKN001
                        BKN002 03/03 Q1025 R09/29//95=
201812290800 METAR LRAR 290800Z 34003KT 290V040 1500 BR SCT001 BKN002
                        03/03 Q1025 R09/29//95=
201812290830 METAR LRAR 290830Z 03003KT 360V070 3000 BR BKN003 BKN005
                        03/03 Q1025 R09/29//95=
201812290900 METAR LRAR 290900Z 31005KT 270V350 5000 BR FEW003 BKN005
                        04/04 Q1025 R09/29//95=
201812290930 METAR LRAR 290930Z 31003KT 280V350 5000 BR BKN005 04/04 Q1025
                        R09/29//95=
201812291000 METAR LRAR 291000Z 30003KT 5000 BR BKN005 04/04 Q1025 R09/29//95=
201812291030 METAR LRAR 291030Z 23003KT 190V290 6000 SCT005 BKN007 04/04
                        Q1025 R09/29//95=
201812291100 METAR LRAR 291100Z 23006KT 7000 SCT006 BKN008 05/05 Q1025
                        R09/29//95=
201812291130 METAR LRAR 291130Z 23005KT 7000 SCT007 05/05 Q1025 R09/29//95=
201812291200 METAR LRAR 291200Z 23005KT 8000 BKN008 05/05 Q1025 R09/29//95=
201812291230 METAR LRAR 291230Z 26005KT 9000 SCT010 05/04 Q1025 R09/29//95=
201812291300 METAR LRAR 291300Z 27006KT 9999 SCT011 05/04 Q1025 R09/29//95=
201812291330 METAR LRAR 291330Z 26005KT 9999 FEW015 05/04 Q1026 R09/29//95=
201812291400 METAR LRAR 291400Z 24003KT 9999 FEW011 05/04 Q1026 R09/29//95=
201812291430 METAR LRAR 291430Z 13003KT 9000 FEW009 BKN011 05/04 Q1026
                        R09/29//95=
201812291500 METAR LRAR 291500Z 15003KT 5000 BR FEW009 SCT012 05/04 Q1026
                        R09/29//95=
201812291530 METAR LRAR 291530Z 22001KT 5000 BR SCT015 04/04 Q1026 R09/29//95=
201812291600 METAR LRAR 291600Z 21002KT 5000 BR FEW018 04/04 Q1026 R09/29//95=
201812291630 METAR LRAR 291630Z 20003KT 5000 BR NSC 04/04 Q1026 R09/29//95=
201812291700 METAR LRAR 291700Z 21005KT 5000 BR NSC 04/04 Q1026 R09/29//95=
201812291730 METAR LRAR 291730Z AUTO 22003KT 4700 BR SCT008/// BKN066///
                        04/04 Q1026=
201812291800 METAR LRAR 291800Z AUTO 21005KT 4900 BR SCT008/// BKN066///
                        04/04 Q1026=
201812291830 METAR LRAR 291830Z AUTO 20005KT 4900 BR BKN066/// 04/04 Q1026=
201812291900 METAR LRAR 291900Z AUTO 20002KT 5000 BR BKN066/// 04/04 Q1026=
201812291930 METAR LRAR 291930Z AUTO 21002KT 4600 BR BKN066/// 03/03 Q1026=
201812292000 METAR LRAR 292000Z AUTO 19002KT 4400 BR BKN066/// 03/03 Q1026=
201812292030 METAR LRAR 292030Z AUTO 19003KT 4300 BR BKN066/// 03/03 Q1026=
201812292100 METAR LRAR 292100Z AUTO 18002KT 4000 BR BKN061/// 03/03 Q1026=
201812292130 METAR LRAR 292130Z AUTO 19002KT 140V230 4000 BR BKN061///
                        03/03 Q1026=
201812292200 METAR LRAR 292200Z AUTO 18003KT 2700 BR BKN066/// 03/03 Q1025=
201812292230 METAR LRAR 292230Z AUTO 17003KT 3400 BR BKN066/// 03/03 Q1025=
201812292300 METAR LRAR 292300Z AUTO 17003KT 3500 BR BKN066/// 03/03 Q1025=
201812292330 METAR LRAR 292330Z AUTO 17003KT 2700 BR SCT002/// BKN066///
                        03/03 Q1025=
201812300000 METAR LRAR 300000Z AUTO 18006KT 1900 R27/2000D FG VV002 03/03
                        Q1025=
201812300030 METAR LRAR 300030Z AUTO 18006KT 1900 R27/2000U FG VV002 03/03
                        Q1025=
201812300100 METAR LRAR 300100Z AUTO 19005KT 3000 BKN001/// BKN040///
                        03/03 Q1024=
201812300130 METAR LRAR 300130Z AUTO 18005KT 3500 FEW002/// SCT009///
                        BKN037/// 03/03 Q1024=
201812300200 METAR LRAR 300200Z AUTO 18005KT 3000 R27/2000 BR BKN001///
                        BKN032/// 03/03 Q1023=
201812300230 METAR LRAR 300230Z AUTO 21005KT 170V240 1100 R27/1000V1600D
                        FG VV001 03/03 Q1023=
201812300300 METAR LRAR 300300Z AUTO 20004KT 0750 R27/0800U FG VV001 03/03
                        Q1023=
201812300330 METAR LRAR 300330Z AUTO 22005KT 0750 R27/0900N FG VV001 03/03
                        Q1023=
201812300400 METAR LRAR 300400Z AUTO 18003KT 140V230 1800 R27/1100VP2000U
                        FG VV002 03/03 Q1022=
201812300430 METAR LRAR 300430Z AUTO 20003KT 2200 BKN001/// BKN007///
                        03/03 Q1023=
201812300500 METAR LRAR 300500Z 22002KT 3200 BR OVC006 03/03 Q1023 R09/29//95=
201812300530 METAR LRAR 300530Z 24003KT 4100 BR SCT009 OVC011 02/02 Q1023
                        R09/29//95=
201812300600 METAR COR LRAR 300600Z 22002KT 4600 -RA BR BKN010 02/02 Q1023
                        R09/29//95=
201812300630 METAR LRAR 300630Z 20003KT 2900 -RA BR BKN011 02/02 Q1023
                        R09/29//95=
201812300700 METAR LRAR 300700Z 22004KT 3000 -RA BR SCT002 BKN009 02/02
                        Q1023 R09/29//95=
201812300730 METAR LRAR 300730Z 25005KT 3200 -RA BR FEW002 BKN011 02/02
                        Q1023 R09/29//95=
201812300800 METAR LRAR 300800Z 25005KT 3300 -RA BR FEW005 BKN011 02/02
                        Q1023 R09/29//95=
201812300830 METAR LRAR 300830Z 24004KT 3400 -RA BR FEW009 BKN013 02/02
                        Q1023 R09/29//95=
201812300900 METAR LRAR 300900Z 24004KT 190V260 4300 BR FEW011 OVC015
                        02/02 Q1023 R09/29//95=
201812300930 METAR LRAR 300930Z 25005KT 220V290 6000 SCT008 OVC017 03/03
                        Q1023 R09/29//95=
201812301000 METAR LRAR 301000Z 27005KT 230V300 6000 FEW006 BKN009 03/03
                        Q1023 R09/29//95=
201812301030 METAR LRAR 301030Z 29009KT 8000 FEW006 BKN011 03/03 Q1023
                        R09/29//95=
201812301100 METAR LRAR 301100Z 29006KT 8000 FEW009 SCT014 OVC023 03/03
                        Q1022 R09/29//95=
201812301130 METAR LRAR 301130Z 26004KT 7000 -RA SCT006 SCT009 03/02 Q1022
                        R09/29//95=
201812301200 METAR LRAR 301200Z 23003KT 7000 -RA FEW006 BKN008 03/03 Q1022
                        R09/29//95=
201812301230 METAR LRAR 301230Z 22002KT 8000 SCT009 BKN011 03/03 Q1022
                        R09/29//95=
201812301300 METAR LRAR 301300Z 22005KT 8000 FEW007 BKN010 04/03 Q1022
                        R09/29//95=
201812301330 METAR LRAR 301330Z 23005KT 200V260 8000 SCT008 SCT010 04/03
                        Q1022 R09/29//95=
201812301400 METAR LRAR 301400Z 00000KT 9000 FEW008 BKN010 04/03 Q1022
                        R09/29//95=
201812301430 METAR LRAR 301430Z 20004KT 8000 FEW008 BKN010 04/03 Q1022
                        R09/29//95=
201812301500 METAR LRAR 301500Z 20004KT 7000 FEW008 BKN010 OVC040 04/03
                        Q1022 R09/29//95=
201812301530 METAR LRAR 301530Z 19005KT 7000 SCT010 OVC033 04/03 Q1022
                        R09/29//95=
201812301600 METAR COR LRAR 301600Z 19006KT 7000 BKN028 OVC034 04/03 Q1022
                        R09/29//95=
201812301630 METAR LRAR 301630Z 21006KT 6000 BKN029 04/03 Q1023 R09/29//95=
201812301700 METAR LRAR 301700Z 20006KT 5000 -RA BR FEW010 OVC030 04/04
                        Q1023 R09/29//95=
201812301730 METAR LRAR 301730Z AUTO 20006KT 6000 -FZDZ FEW010/// BKN026///
                        04/03 Q1023=
201812301800 METAR LRAR 301800Z AUTO 21006KT 6000 BKN026/// 04/03 Q1022
                        REFZRA=
201812301830 METAR LRAR 301830Z AUTO 21004KT 6000 FEW022/// BKN028///
                        BKN033/// 04/03 Q1022=
201812301900 METAR LRAR 301900Z AUTO 21004KT 6000 SCT021/// BKN031///
                        04/03 Q1022=
201812301930 METAR LRAR 301930Z AUTO 22004KT 5000 SCT021/// BKN025///
                        04/03 Q1022=
201812302000 METAR LRAR 302000Z AUTO 23004KT 5000 SCT020/// BKN024///
                        04/04 Q1022=
201812302030 METAR LRAR 302030Z AUTO 22004KT 6000 FEW019/// BKN022///
                        BKN027/// 04/04 Q1022=
201812302100 METAR LRAR 302100Z AUTO 22004KT 4500 -SN FEW008/// BKN026///
                        03/03 Q1022=
201812302130 METAR LRAR 302130Z AUTO 23004KT 3700 SG FEW007/// SCT009///
                        BKN015/// ///// Q1022=
201812302200 METAR LRAR 302200Z AUTO 22004KT 3300 R27/2000 -SN FEW002///
                        BKN013/// ///// Q1022=
201812302230 METAR LRAR 302230Z AUTO 21004KT 3100 R27/2000 -SN SCT002///
                        BKN007/// ///// Q1021=
201812302300 METAR LRAR 302300Z AUTO 20004KT 3000 R27/2000 -SN BKN001///
                        ///// Q1021=
201812302330 METAR LRAR 302330Z AUTO 21003KT 2600 SCT001/// BKN022///
                        BKN029/// ///// Q1021 RESN=
201812310000 METAR LRAR 310000Z AUTO 21003KT 2800 BR BKN001/// BKN019///
                        ///// Q1021=
201812310030 METAR LRAR 310030Z AUTO 19004KT 2400 SG FEW001/// SCT007///
                        BKN016/// ///// Q1021=
201812310100 METAR LRAR 310100Z AUTO 19004KT 3000 R27/2000 -SN BKN001///
                        OVC013/// ///// Q1021=
201812310130 METAR LRAR 310130Z AUTO 19004KT 3100 R27/2000 FEW001/// SCT003///
                        BKN005/// ///// Q1021=
201812310200 METAR LRAR 310200Z AUTO 18004KT 3100 R27/2000 FEW002/// SCT004///
                        BKN008/// ///// Q1021=
201812310230 METAR LRAR 310230Z AUTO 19003KT 2300 -SN BKN002/// OVC004///
                        ///// Q1021=
201812310300 METAR LRAR 310300Z AUTO 18003KT 2100 SG BKN001/// OVC004///
                        ///// Q1021=
201812310330 METAR LRAR 310330Z AUTO 15002KT 1900 R27/2000D FG SCT001///
                        BKN003/// ///// Q1021=
201812310400 METAR LRAR 310400Z AUTO 14002KT 1400 R27/1500D FG BKN001///
                        ///// Q1021=
201812310430 METAR LRAR 310430Z AUTO 14003KT 1800 R27/1900D FG OVC001///
                        ///// Q1021=
201812310500 METAR LRAR 310500Z 11005KT 0600 R09/0800 R27/1500D FG OVC001
                        03/03 Q1021 R09/29//95=
201812310530 METAR COR LRAR 310530Z 12004KT 0350 R09/0500 R27/1200N FG
                        OVC001 03/03 Q1022 R09/29//95=
201812310600 METAR LRAR 310600Z 11004KT 0600 R09/0800 R27/1100N -DZ FG
                        OVC001 03/03 Q1022 R09/19//95=
201812310630 METAR LRAR 310630Z 10004KT 0600 R09/0900 R27/1200N -DZ FG
                        OVC001 03/03 Q1022 R09/19//95=
201812310700 METAR LRAR 310700Z 10004KT 1500 BR BKN001 OVC003 03/03 Q1023
                        R09/19//95=
201812310730 METAR LRAR 310730Z 10006KT 2500 BR SCT002 BKN004 OVC006 03/03
                        Q1023 R09/19//95=
201812310800 METAR LRAR 310800Z 11005KT 4000 -DZ BR SCT003 BKN005 03/03
                        Q1023 R09/19//95=
201812310830 METAR LRAR 310830Z 06004KT 300V100 5000 BR SCT003 BKN004
                        04/04 Q1023 R09/19//95=
201812310900 METAR LRAR 310900Z 10004KT 7000 FEW003 BKN006 BKN014 04/04
                        Q1023 R09/19//95=
201812310930 METAR LRAR 310930Z 06004KT 8000 FEW006 BKN010 OVC014 04/04
                        Q1023 R09/19//95=
201812311000 METAR LRAR 311000Z 01003KT 340V050 9000 FEW006 SCT010 BKN013
                        04/04 Q1024 R09/19//95=
201812311030 METAR LRAR 311030Z 36003KT 8000 FEW006 BKN009 OVC011 04/04
                        Q1023 R09/19//95=
201812311100 METAR LRAR 311100Z 36007KT 9000 FEW015 BKN018 04/04 Q1023
                        R09/19//95=
201812311130 METAR LRAR 311130Z 01007KT 340V040 7000 FEW013 SCT018 BKN021
                        05/04 Q1023 R09/19//95=
201812311200 METAR LRAR 311200Z 01007KT 340V050 8000 FEW008 SCT013 BKN024
                        05/04 Q1023 R09/19//95=
201812311230 METAR LRAR 311230Z 02007KT 9999 FEW010 BKN015 OVC030 05/04
                        Q1024 R09/19//95=
201812311300 METAR LRAR 311300Z 01009KT 9999 FEW011 SCT021 OVC030 05/04
                        Q1024 R09/19//95=
201812311330 METAR LRAR 311330Z 01006KT 9999 -RA BKN013 BKN020 OVC033
                        05/04 Q1024 R09/19//95=
201812311400 METAR LRAR 311400Z 00000KT 9999 -RA FEW010 BKN014 OVC035
                        05/04 05/04 Q1024 R09/19//95=
201812311430 METAR LRAR 311430Z 01007KT 7000 SCT011 BKN041 04/04 Q1025
                        R09/19//95=
201812311500 METAR LRAR 311500Z 36007KT 5000 -RA BR BKN033 04/04 Q1025
                        R09/19//95=
201812311530 METAR LRAR 311530Z 36005KT 5000 -RA BR SCT008 BKN043 04/04
                        Q1025 R09/19//95=
201812311600 METAR COR LRAR 311600Z 35005KT 5000 -RA BR SCT015 BKN039
                        04/04 Q1025 R09/19//95=
201812311630 METAR LRAR 311630Z 35005KT 5000 -RA BR SCT007 BKN040 04/04
                        Q1026 R09/19//95=
201812311700 METAR LRAR 311700Z 36006KT 5000 -RA BR SCT015 BKN041 04/04
                        Q1026 R09/19//95=
201812311730 METAR LRAR 311730Z AUTO 01007KT 6000 -SN NCD 04/03 Q1026=
201812311800 METAR LRAR 311800Z AUTO 03008KT 9999 -SN FEW015/// 04/03
                        Q1027=
201812311830 METAR LRAR 311830Z AUTO 04011KT 9999 -SN FEW013/// SCT024///
                        03/02 Q1027=
201812311900 METAR LRAR 311900Z AUTO 03008KT 360V060 9999 FEW010/// SCT032///
                        03/02 Q1027 RESN=
201812311930 METAR LRAR 311930Z AUTO 02007KT 9999 NCD 03/02 Q1027 RESN=
201812312000 METAR LRAR 312000Z AUTO 02006KT 9999 NCD 03/02 Q1027=
201812312030 METAR LRAR 312030Z AUTO 01007KT 9999 NCD 03/02 Q1028=
201812312100 METAR LRAR 312100Z AUTO 35004KT 9999 NCD 02/02 Q1028=
201812312130 METAR LRAR 312130Z AUTO 35004KT 9999 NCD 02/02 Q1028=
201812312200 METAR LRAR 312200Z NIL=
201812312230 METAR LRAR 312230Z NIL=
201812312300 METAR LRAR 312300Z AUTO 36007KT 9999 NCD 01/00 Q1028=
201812312330 METAR LRAR 312330Z AUTO 36006KT 9999 NCD 01/M00 Q1028=