201901010300 METAR LRTZ 010300Z VRB03KT 3000 BR BKN020 02/01 Q1027 YLO
                        YLO=
201901010400 METAR LRTZ 010400Z VRB03KT 3000 BR BKN015 02/01 Q1027 YLO
                        YLO=
201901010500 METAR LRTZ 010500Z 36006KT 6000 SCT100 00/M00 Q1027 WHT WHT=
201901010600 METAR LRTZ 010600Z 01006KT 6000 FEW020 SCT100 00/M00 Q1027
                        WHT WHT=
201901010700 METAR LRTZ 010700Z 01006KT 3000 BR SCT020 01/M00 Q1027 YLO
                        YLO=
201901010800 METAR LRTZ 010800Z 01006KT 4000 BR BKN025 01/00 Q1027 GRN
                        GRN=
201901010900 METAR LRTZ 010900Z 01006KT 5000 BR SCT025 BKN050 03/02 Q1027
                        WHT WHT=
201901011000 METAR LRTZ 011000Z 03008KT 8000 SCT025 06/03 Q1025 BLU BLU=
201901011100 METAR LRTZ 011100Z 03006KT 9999 BKN025 06/02 Q1025 BLU BLU=
201901011200 METAR LRTZ 011200Z 03004KT 9999 BKN025 06/01 Q1024 BLU BLU=
201901011300 METAR LRTZ 011300Z 04006KT 9999 BKN025 BKN050 07/01 Q1023
                        BLU BLU=
201901011400 METAR LRTZ 011400Z 06006KT 9999 SCT025 BKN050 07/01 Q1023
                        BLU BLU=
201901011500 METAR LRTZ 011500Z 33008KT 8000 BKN025 OVC030 04/03 Q1023
                        BLU BLU=
201901011600 METAR LRTZ 011600Z 33008KT 9999 SCT020 BKN040 03/01 Q1022
                        BLU BLU=
201901011700 METAR LRTZ 011700Z 33008KT 4000 BR SCT020 01/M01 Q1022 GRN
                        GRN=
201901011800 METAR LRTZ 011800Z 33008KT 5000 BR SCT020 M00/M02 Q1021 WHT
                        WHT=
201901011900 METAR LRTZ 011900Z 33008KT 5000 BR BKN020 M00/M02 Q1021 WHT
                        WHT=
201901012000 METAR LRTZ 012000Z 33008KT 5000 BR BKN020 M00/M02 Q1020 WHT
                        WHT=
201901012100 METAR LRTZ 012100Z 33008KT 5000 BR BKN020 M00/M02 Q1019 WHT
                        WHT=
201901012200 METAR LRTZ 012200Z 33008KT 5000 BR BKN020 M00/M02 Q1018 WHT
                        WHT=
201901012300 METAR LRTZ 012300Z 31008KT 5000 BR BKN020 M00/M02 Q1018 WHT
                        WHT=
201901020400 METAR LRTZ 020400Z 27008KT 6000 SCT020 M02/M04 Q1015 WHT
                        WHT=
201901020500 METAR LRTZ 020500Z 27008KT 7000 SCT020 M03/M04 Q1013 WHT
                        BLU=
201901020600 METAR LRTZ 020600Z 21006KT 8000 FEW020 SCT200 M04/M05 Q1013
                        BLU BLU=
201901020700 METAR LRTZ 020700Z 20006KT 9999 BKN200 M02/M04 Q1013 BLU
                        BLU=
201901020800 METAR LRTZ 020800Z 23006KT 9999 BKN200 00/M02 Q1012 BLU BLU=
201901020900 METAR LRTZ 020900Z 25008KT 9999 BKN200 02/M01 Q1011 BLU BLU=
201901021000 METAR LRTZ 021000Z 27012KT 9999 FEW100 BKN200 04/00 Q1010
                        BLU BLU=
201901021100 METAR LRTZ 021100Z 27012KT 9999 FEW020 BKN200 05/M00 Q1009
                        BLU BLU=
201901021200 METAR LRTZ 021200Z 28010KT 9999 SCT020 BKN200 05/M00 Q1009
                        BLU BLU=
201901021300 METAR LRTZ 021300Z 28010KT 9999 BKN020 BKN200 04/M00 Q1009
                        WHT WHT=
201901021400 METAR LRTZ 021400Z 27010KT 9999 SCT025 BKN200 04/00 Q1009
                        BLU BLU=
201901021500 METAR LRTZ 021500Z 26004KT 9999 SCT050 OVC200 02/M00 Q1009
                        BLU BLU=
201901021600 METAR LRTZ 021600Z 27004KT 9999 FEW080 OVC200 02/M00 Q1009
                        BLU BLU=
201901021700 METAR LRTZ 021700Z 31004KT 9999 SCT100 OVC200 02/M00 Q1010
                        BLU BLU=
201901021800 METAR LRTZ 021800Z 31004KT 9999 SCT100 BKN200 01/M01 Q1010
                        BLU BLU=
201901021900 METAR LRTZ 021900Z 28004KT 9999 SCT100 BKN200 01/M01 Q1010
                        BLU BLU=
201901022000 METAR LRTZ 022000Z 30004KT 9999 SCT100 BKN200 M00/M02 Q1010
                        BLU BLU=
201901022100 METAR LRTZ 022100Z 33004KT 9999 SCT100 BKN200 M01/M03 Q1010
                        BLU BLU=
201901022300 METAR LRTZ 022300Z 32004KT 8000 SCT100 BKN200 M01/M03 Q1010
                        BLU WHT=
201901030400 METAR LRTZ 030400Z 34008KT 8000 FEW100 SCT200 M01/M03 Q1012
                        BLU BLU=
201901030500 METAR LRTZ 030500Z 34008KT 8000 FEW100 BKN200 M02/M04 Q1012
                        BLU BLU=
201901030600 METAR LRTZ 030600Z 33006KT 9999 OVC200 M02/M03 Q1013 BLU
                        BLU=
201901030700 METAR LRTZ 030700Z 34006KT 9999 BKN140 M02/M03 Q1014 BLU
                        BLU=
201901030800 METAR LRTZ 030800Z 35010KT 9999 BKN120 M00/M02 Q1014 BLU
                        BLU=
201901031000 METAR LRTZ 031000Z 03010KT 9999 FEW100 BKN200 03/M01 Q1014
                        BLU BLU=
201901031100 METAR LRTZ 031100Z 03010KT 9999 FEW100 BKN200 04/M00 Q1014
                        BLU BLU=
201901031200 METAR LRTZ 031200Z 04012KT 9999 FEW040 BKN120 04/M00 Q1014
                        BLU BLU=
201901031300 METAR LRTZ 031300Z 04012KT 9999 FEW050 BKN140 04/M01 Q1015
                        BLU BLU=
201901031400 METAR LRTZ 031400Z 04012KT 9999 BKN100 03/M01 Q1015 BLU BLU=
201901031500 METAR LRTZ 031500Z 04010KT 9999 FEW035 OVC100 03/M01 Q1015
                        BLU BLU=
201901031600 METAR LRTZ 031600Z 05012KT 9999 FEW020 OVC100 03/M01 Q1015
                        BLU BLU=
201901031700 METAR LRTZ 031700Z 04014KT 9999 FEW020 OVC100 03/M01 Q1014
                        BLU BLU=
201901031800 METAR LRTZ 031800Z 04014KT 9999 FEW015 OVC100 03/M01 Q1014
                        BLU BLU=
201901031900 METAR LRTZ 031900Z 04016KT 9999 FEW017 OVC080 03/M02 Q1014
                        BLU BLU=
201901032000 METAR LRTZ 032000Z 04018KT 9999 SCT020 OVC080 02/M02 Q1013
                        BLU BLU=
201901032100 METAR LRTZ 032100Z 04022KT 9999 SCT020 OVC070 02/M01 Q1014
                        BLU BLU=
201901032200 METAR LRTZ 032200Z 04024KT 9999 SCT017 OVC060 02/M01 Q1013
                        BLU WHT=
201901032300 METAR LRTZ 032300Z 03020G30KT 9999 BKN015 OVC070 01/M02 Q1013
                        WHT WHT=
201901040400 METAR LRTZ 040400Z 03020G30KT 9999 SCT020 OVC090 M01/M06
                        Q1014 BLU BLU=
201901040500 METAR LRTZ 040500Z 01017G27KT 9999 FEW020 OVC095 M01/M07
                        Q1015 BLU BLU=
201901040700 METAR LRTZ 040700Z 01017G27KT 9999 FEW020 OVC100 M02/M08
                        Q1018 BLU BLU=
201901040800 METAR LRTZ 040800Z 01017G27KT 9999 FEW020 OVC100 M02/M08
                        Q1019 BLU BLU=
201901040900 METAR LRTZ 040900Z 01016G26KT 9999 SCT100 BKN200 M01/M08
                        Q1020 BLU BLU=
201901041000 METAR LRTZ 041000Z 01016G26KT 9999 SCT100 BKN200 M01/M07
                        Q1021 BLU BLU=
201901041100 METAR LRTZ 041100Z 01016G26KT 9999 SCT100 BKN200 M00/M07
                        Q1021 BLU BLU=
201901041200 METAR LRTZ 041200Z 01012G22KT 9999 SCT100 BKN200 M00/M08
                        Q1022 BLU BLU=
201901041400 METAR LRTZ 041400Z 33010G20KT 9999 SCT100 BKN200 M01/M09
                        Q1023 BLU BLU=
201901041600 METAR LRTZ 041600Z 33010KT 9999 SCT100 BKN200 M03/M09 Q1024
                        BLU BLU=
201901041700 METAR LRTZ 041700Z 33008KT 9999 FEW100 SCT200 M04/M07 Q1025
                        BLU BLU=
201901041800 METAR LRTZ 041800Z 33008KT 9999 FEW500 SCT200 M04/M07 Q1025
                        BLU BLU=
201901041900 METAR LRTZ 041900Z 33008KT 9999 FEW500 SCT200 M04/M07 Q1025
                        BLU BLU=
201901042000 METAR LRTZ 042000Z 33008KT 9999 SCT200 M06/M08 Q1025 BLU
                        BLU=
201901042100 METAR LRTZ 042100Z 33008KT 9999 SCT200 M06/M08 Q1025 BLU
                        BLU=
201901042200 METAR LRTZ 042200Z 33008KT 9999 SCT200 M06/M08 Q1025 BLU
                        BLU=
201901042300 METAR LRTZ 042300Z 33008KT 9999 SCT200 M06/M08 Q1025 BLU
                        BLU=
201901050400 METAR LRTZ 050400Z 33008KT 9999 SCT200 M07/M09 Q1022 BLU
                        BLU=
201901050500 METAR LRTZ 050500Z 31008KT 9999 SCT200 M08/M09 Q1021 BLU
                        BLU=
201901050600 METAR LRTZ 050600Z 31008KT 9999 SCT200 M08/M09 Q1021 BLU
                        BLU=
201901050700 METAR LRTZ 050700Z 33012KT 2000 BR SCT002 M07/M08 Q1021 YLO
                        AMB=
201901050800 METAR LRTZ 050800Z 33014KT 2000 BR BKN003 M05/M06 Q1020 YLO
                        YLO=
201901050900 METAR LRTZ 050900Z 33014KT 4000 BR BKN003 M04/M05 Q1020 YLO
                        YLO=
201901051000 METAR LRTZ 051000Z 33012KT 6000 SCT004 M02/M04 Q1018 WHT
                        WHT=
201901051100 METAR LRTZ 051100Z 33014KT 9999 SCT004 M01/M05 Q1017 BLU
                        BLU=
201901051200 METAR LRTZ 051200Z 31016KT 9999 SCT005 M01/M05 Q1016 BLU
                        BLU=
201901051300 METAR LRTZ 051300Z 31016KT 9999 SCT200 M02/M06 Q1015 BLU
                        BLU=
201901051400 METAR LRTZ 051400Z 31010KT 9999 BKN200 M02/M06 Q1015 BLU
                        BLU=
201901051500 METAR LRTZ 051500Z 30008KT 9999 BKN160 M03/M05 Q1014 BLU
                        BLU=
201901051600 METAR LRTZ 051600Z 28004KT 9999 BKN160 M04/M06 Q1014 BLU
                        BLU=
201901051700 METAR LRTZ 051700Z 27004KT 9999 BKN140 M05/M07 Q1014 BLU
                        BLU=
201901051800 METAR LRTZ 051800Z 27004KT 9999 BKN160 M06/M07 Q1014 BLU
                        BLU=
201901051900 METAR LRTZ 051900Z VRB03KT 9999 SCT140 M05/M07 Q1014 BLU
                        BLU=
201901052000 METAR LRTZ 052000Z VRB03KT 9999 FEW160 M06/M09 Q1013 BLU
                        BLU=
201901052100 METAR LRTZ 052100Z VRB03KT 9999 FEW160 M06/M09 Q1013 BLU
                        BLU=
201901052200 METAR LRTZ 052200Z VRB03KT 9999 SCT160 M06/M08 Q1013 BLU
                        BLU=
201901052300 METAR LRTZ 052300Z VRB03KT 9999 SCT160 M06/M08 Q1012 BLU
                        BLU=
201901060100 METAR LRTZ 060100Z VRB03KT 9999 SCT100 BKN200 M06/M07 Q1011
                        BLU BLU=
201901060300 METAR LRTZ 060300Z 26004KT 9999 SCT100 BKN200 M05/M07 Q1010
                        BLU BLU=
201901060400 METAR LRTZ 060400Z 26006KT 9999 SKC M07/M10 Q1009 BLU BLU=
201901060500 METAR LRTZ 060500Z 32006KT 9999 SKC M08/M11 Q1009 BLU BLU=
201901060600 METAR LRTZ 060600Z 33006KT 9999 SCT200 M08/M11 Q1008 BLU
                        BLU=
201901060700 METAR LRTZ 060700Z 33010KT 9999 SCT200 M06/M09 Q1009 BLU
                        BLU=
201901060800 METAR LRTZ 060800Z 33012KT 9999 SCT200 M04/M07 Q1009 BLU
                        BLU=
201901060900 METAR LRTZ 060900Z 34010KT 9999 SCT200 M02/M06 Q1009 BLU
                        BLU=
201901061000 METAR LRTZ 061000Z 34010KT 9999 SCT100 BKN200 M00/M05 Q1009
                        BLU BLU=
201901061100 METAR LRTZ 061100Z 34012KT 9999 FEW010 BKN040 OVC100 M01/M04
                        Q1009 BLU BLU=
201901061200 METAR LRTZ 061200Z 34014KT 1500 -SN BR BKN010 OVC020 M02/M03
                        Q1009 AMB AMB=
201901061300 METAR LRTZ 061300Z 34014KT 1500 -SN BR BKN010 OVC020 M02/M03
                        Q1009 AMB AMB=
201901061400 METAR LRTZ 061400Z 34014KT 3000 -SN BR BKN025 OVC040 M01/M03
                        Q1010 YLO GRN=
201901061500 METAR LRTZ 061500Z 34014KT 5000 BR BKN040 OVC060 M01/M03
                        Q1010 WHT BLU=
201901061600 METAR LRTZ 061600Z 34014KT 5000 BR BKN040 OVC090 M02/M04
                        Q1011 WHT WHT=
201901061700 METAR LRTZ 061700Z 34014KT 9999 BKN030 OVC090 M02/M04 Q1012
                        BLU BLU=
201901061800 METAR LRTZ 061800Z 34016KT 9999 BKN050 OVC090 M02/M05 Q1013
                        BLU BLU=
201901061900 METAR LRTZ 061900Z 34014KT 9999 BKN050 OVC090 M04/M07 Q1013
                        BLU BLU=
201901062000 METAR LRTZ 062000Z 34014KT 9999 BKN090 M04/M07 Q1014 BLU
                        BLU=
201901062100 METAR LRTZ 062100Z 34014KT 9999 BKN090 M04/M07 Q1014 BLU
                        BLU=
201901062300 METAR LRTZ 062300Z 34016KT 9999 BKN020 OVC070 M04/M06 Q1015
                        WHT WHT=
201901070300 METAR LRTZ 070300Z 34010G20KT 9999 BKN015 OVC040 M05/M07
                        Q1016 WHT WHT=
201901070400 METAR LRTZ 070400Z 34014KT 3000 -SN BR BKN020 OVC030 M04/M05
                        Q1016 YLO YLO=
201901070500 METAR LRTZ 070500Z 34014KT 1500 -SN BR BKN010 OVC020 M04/M05
                        Q1016 AMB AMB=
201901070700 METAR LRTZ 070700Z 01016KT 0600 SN BKN005 OVC020 M04/M05
                        Q1018 RED AMB=
201901070800 METAR LRTZ 070800Z 02018KT 3000 BR BKN007 OVC020 M04/M06
                        Q1019 YLO GRN=
201901070900 METAR LRTZ 070900Z 02018KT 3000 BR BKN007 OVC020 M04/M06
                        Q1019 YLO GRN=
201901071000 METAR LRTZ 071000Z 02018KT 7000 SCT010 BKN020 OVC040 M04/M06
                        Q1019 WHT WH=
201901071100 METAR LRTZ 071100Z 02018KT 9999 FEW020 SCT050 BKN200 M04/M06
                        Q1019 BLU BLU=
201901071200 METAR LRTZ 071200Z 01018KT 9999 SCT020 SCT060 BKN200 M03/M05
                        Q1020 BLU BLU=
201901071300 METAR LRTZ 071300Z 36018KT 9999 BKN020 BKN060 M03/M05 Q1020
                        WHT WHT=
201901071400 METAR LRTZ 071400Z 35016KT 9999 BKN020 OVC060 M03/M05 Q1021
                        WHT WHT=
201901071500 METAR LRTZ 071500Z 36020KT 8000 BKN020 OVC060 M03/M05 Q1021
                        WHT WHT=
201901071600 METAR LRTZ 071600Z 36018KT 8000 BKN020 OVC060 M03/M05 Q1021
                        WHT WHT=
201901071700 METAR LRTZ 071700Z 36018KT 4000 -SN SCT010 BKN020 OVC040
                        M04/M05 Q1022 WHT WHT=
201901071800 METAR LRTZ 071800Z 01016KT 4000 -SN SCT010 BKN020 OVC040
                        M04/M05 Q1022 GRN GRN=
201901071900 METAR LRTZ 071900Z 36016KT 7000 BKN020 OVC040 M03/M05 Q1023
                        WHT WHT=
201901072000 METAR LRTZ 072000Z 36014KT 8000 BKN020 OVC040 M03/M05 Q1023
                        WHT WHT=
201901072100 METAR LRTZ 072100Z 02016KT 8000 BKN020 OVC040 M03/M05 Q1023
                        WHT WHT=
201901072200 METAR LRTZ 072200Z 02016KT 8000 BKN020 OVC040 M03/M05 Q1023
                        WHT WHT=
201901072300 METAR LRTZ 072300Z 36014KT 9999 BKN020 OVC040 M03/M05 Q1023
                        WHT WHT=
201901080400 METAR LRTZ 080400Z 33010KT 9999 FEW020 BKN040 BKN100 M06/M09
                        Q1022 BLU BLU=
201901080500 METAR LRTZ 080500Z 33010KT 9999 FEW050 BKN100 M07/M10 Q1022
                        BLU BLU=
201901080600 METAR LRTZ 080600Z 33012KT 9999 FEW050 SCT100 M09/M11 Q1022
                        BLU BLU=
201901080700 METAR LRTZ 080700Z 32010KT 9999 FEW050 BKN160 M07/M09 Q1021
                        BLU BLU=
201901080800 METAR LRTZ 080800Z 34014KT 9999 BKN140 M06/M09 Q1021 BLU
                        BLU=
201901080900 METAR LRTZ 080900Z 34014KT 9999 FEW020 BKN140 M05/M08 Q1020
                        BLU BLU=
201901081000 METAR LRTZ 081000Z 33010KT 9999 BKN025 BKN100 M04/M07 Q1019
                        BLU BLU=
201901081100 METAR LRTZ 081100Z 30010KT 9999 FEW015 BKN140 M04/M07 Q1018
                        BLU BLU=
201901081200 METAR LRTZ 081200Z 30010KT 9999 SCT015 BKN140 M03/M07 Q1017
                        BLU BLU=
201901081300 METAR LRTZ 081300Z 30010KT 9999 SCT017 BKN160 M03/M07 Q1017
                        BLU BLU=
201901081400 METAR LRTZ 081400Z 30008KT 9999 FEW015 BKN200 M04/M08 Q1016
                        BLU BLU=
201901081500 METAR LRTZ 081500Z 26003KT 9999 BKN160 M06/M09 Q1015 BLU
                        BLU=
201901081600 METAR LRTZ 081600Z VRB03KT 9999 SCT200 M07/M10 Q1015 BLU
                        BLU=
201901081700 METAR LRTZ 081700Z VRB03KT 9999 SKC M09/M11 Q1015 BLU BLU=
201901081800 METAR LRTZ 081800Z 27004KT 9999 SCT200 M09/M12 Q1015 BLU
                        BLU=
201901081900 METAR LRTZ 081900Z 24003KT 9999 FEW200 M09/M12 Q1014 BLU
                        BLU=
201901082000 METAR LRTZ 082000Z 26006KT 9999 BKN200 M09/M12 Q1014 BLU
                        BLU=
201901082100 METAR LRTZ 082100Z 26006KT 9999 BKN200 M09/M12 Q1013 BLU
                        BLU=
201901082300 METAR LRTZ 082300Z 25003KT 9999 SCT200 M08/M11 Q1012 BLU
                        BLU=
201901090400 METAR LRTZ 090400Z 24006KT 9999 BKN160 M07/M10 Q1010 BLU
                        BLU=
201901090500 METAR LRTZ 090500Z 21006KT 9999 BKN140 M07/M10 Q1010 BLU
                        BLU=
201901090600 METAR LRTZ 090600Z 21006KT 9999 BKN100 M07/M10 Q1010 BLU
                        BLU=
201901090700 METAR LRTZ 090700Z 21006KT 9999 FEW050 BKN100 M05/M10 Q1010
                        BLU BLU=
201901090800 METAR LRTZ 090800Z 21006KT 9999 SCT050 BKN100 M03/M18 Q1010
                        BLU BLU=
201901090900 METAR LRTZ 090900Z 21010KT 9999 FEW025 SCT050 OVC090 M01/M06
                        Q1010 BLU BLU=
201901091000 METAR LRTZ 091000Z 21010KT 9999 SCT040 OVC070 00/M06 Q1010
                        BLU BLU=
201901091100 METAR LRTZ 091100Z 21010KT 9999 SCT040 BKN070 01/M04 Q1010
                        BLU BLU=
201901091200 METAR LRTZ 091200Z 21010KT 9999 FEW040 BKBN090 03/M04 Q1009
                        BLU BLU=
201901091300 METAR LRTZ 091300Z 21010KT 9999 FEW040 BKBN090 03/M04 Q1009
                        BLU BLU=
201901091400 METAR LRTZ 091400Z 21010KT 9999 FEW040 BKBN090 02/M04 Q1009
                        BLU BLU=
201901091500 METAR LRTZ 091500Z 21008KT 9999 FEW040 BKN090 00/M04 Q1009
                        BLU BLU=
201901091600 METAR LRTZ 091600Z 21008KT 9999 SCT040 BKN090 M00/M05 Q1009
                        BLU BLU=
201901091700 METAR LRTZ 091700Z 21008KT 9999 SCT040 BKN090 M01/M05 Q1009
                        BLU BLU=
201901091800 METAR LRTZ 091800Z 21008KT 9999 SCT040 BKN090 M01/M05 Q1009
                        BLU BLU=
201901091900 METAR LRTZ 091900Z 21008KT 9999 SCT040 BKN090 M01/M03 Q1009
                        BLU BLU=
201901092000 METAR LRTZ 092000Z 21008KT 9999 SCT040 BKN090 02/M02 Q1009
                        BLU BLU=
201901092100 METAR LRTZ 092100Z 18008KT 6000 -RA SCT020 OVC090 03/01 Q1009
                        BLU GRN=
201901092300 METAR LRTZ 092300Z 18020KT 4000 RA BR BKN015 OVC050 04/02
                        Q1009 GRN GRN=
201901100400 METAR LRTZ 100400Z 18022KT 4000 RA BR BKN015 OVC050 06/04
                        Q1005 GRN GRN=
201901100500 METAR LRTZ 100500Z 18022KT 5000 -RA BR OVC020 06/04 Q1004
                        WHT WHT=
201901100600 METAR LRTZ 100600Z 18022KT 8000 -RA OVC020 06/04 Q1004 WHT
                        WHT=
201901100700 METAR LRTZ 100700Z 23010KT 8000 OVC020 05/04 Q1006 WHT WHT=
201901100800 METAR LRTZ 100800Z 30004KT 2000 DZ BR SCT 007 OVC015 05/04
                        Q1005 YLO YLO=
201901100900 METAR LRTZ 100900Z 30008KT 4000 -DZ BR SCT007 OVC018 06/05
                        Q1006 GRN GRN=
201901101000 METAR LRTZ 101000Z 33014KT 8000 FEW006 OVC020 05/03 Q1006
                        WHT WHT=
201901101100 METAR LRTZ 101100Z 33010KT 9999 FEW007 OVC040 05/03 Q1007
                        BLU BLU=
201901101200 METAR LRTZ 101200Z 33010KT 9999 FEW007 BKN035 05/03 Q1007
                        BLU BLU=
201901101300 METAR LRTZ 101300Z 33014KT 5000 BR SCT005 BKN035 03/02 Q1007
                        WHT WHT=
201901101400 METAR LRTZ 101400Z 33016KT 5000 BR BKN004 OVC025 02/01 Q1008
                        YLO YLO=
201901101500 METAR LRTZ 101500Z 35010KT 4000 BR SCT002 OVC020 01/00 Q1008
                        GRN GRN=
201901101600 METAR LRTZ 101600Z 35006KT 3000 BR BKN004 OVC020 01/M00 Q1008
                        YLO YLO=
201901101700 METAR LRTZ 101700Z 36004KT 1200 RA BR BKN002 OVC015 00/M00
                        Q1008 AMB AMB=
201901101800 METAR LRTZ 101800Z 36006KT 1200 -SHRA OVC015 00/M01 Q1008
                        AMB AMB=
201901101900 METAR LRTZ 101900Z 02004KT 0900 RASN OVC015 00/M00 Q1007
                        AMB AMB=
201901102000 METAR LRTZ 102000Z 01004KT 0900 -RA OVC010 01/00 Q1007 AMB
                        AMB=
201901102100 METAR LRTZ 102100Z 33010KT 0800 RASN BKN002 OVC005 00/M00
                        Q1008 AMB AMB=
201901102200 METAR LRTZ 102200Z 33010KT 0800 RASN BKN002 OVC005 00/M00
                        Q1008 AMB AMB=
201901102300 METAR LRTZ 102300Z 33010KT 0800 RASN BKN002 OVC005 00M/00
                        Q1008 AMB AMB=
201901110500 METAR LRTZ 110500Z 30020KT 8000 BKN007 BKN015 M01/M02 Q1008
                        GRN GRN=
201901110600 METAR LRTZ 110600Z 33015G25KT 8000 SCT007 BKN015 M01/M03
                        Q1010 WHT WHT=
201901110700 METAR LRTZ 110700Z 33015G25KT 8000 BKN007 OVC015 M02/M03
                        Q1011 GRN GRN=
201901110800 METAR LRTZ 110800Z 33015G25KT 8000 BKN007 OVC010 M02/M03
                        Q1012 GRN GRN=
201901110900 METAR LRTZ 110900Z 33012G22KT 8000 BKN008 OVC010 M01/M03
                        Q1013 WHT WHT=
201901111000 METAR LRTZ 111000Z 33010G20KT 8000 SCT009 BKN030 M01/M03
                        Q1013 BLU BLU=
201901111100 METAR LRTZ 111100Z 34010G20KT 8000 SCT015 BKN030 BKN100 M00/M03
                        Q1013 BLU BLU=
201901111200 METAR LRTZ 111200Z 34014KT 8000 SCT010 BKN015 OVC100 M00/M03
                        Q1014 WHT WHT=
201901111300 METAR LRTZ 111300Z 34010KT 8000 SCT010 OVC015 M00/M02 Q1014
                        WHT WHT=
201901111400 METAR LRTZ 111400Z 31008KT 6000 SCT009 OVC015 M00/M02 Q1015
                        WHT GRN=
201901111500 METAR LRTZ 111500Z 31008KT 6000 BKN009 OVC012 00/M02 Q1015
                        GRN GRN=
201901111600 METAR LRTZ 111600Z 34008KT 2000 BR BKN003 OVC005 M02/M02
                        Q1016 YLO YLO=
201901111700 METAR LRTZ 111700Z 34010KT 3000 BR BKN005 OVC010 M02/M03
                        Q1016 YLO YLO=
201901111800 METAR LRTZ 111800Z 34008KT 4000 BR SCT005 BKN030 M02/M03
                        Q1017 GRN GRN=
201901111900 METAR LRTZ 111900Z 34008KT 5000 BR FEW005 BKN030 M02/M03
                        Q1017 WHT WHT=
201901112000 METAR LRTZ 112000Z 34008KT 5000 BR SCT020 BKN030 M02/M03
                        Q1017 WHT WHT=
201901112100 METAR LRTZ 112100Z 34008KT 5000 BR SCT020 BKN030 M02/M03
                        Q1017 WHT WHT=
201901112200 METAR LRTZ 112200Z 34008KT 5000 BR SCT020 BKN030 M02/M03
                        Q1017 WHT WHT=
201901112300 METAR LRTZ 112300Z 34008KT 5000 BR SCT020 BKN030 M03/M04
                        Q1017 WHT WHT=
201901120200 METAR LRTZ 120200Z 34010KT 5000 BR SCT020 BKN050 M03/M04
                        Q1017 WHT WHT=
201901120300 METAR LRTZ 120300Z 34010KT 5000 BR SCT020 BKN090 M04/M06
                        Q1017 WHT BLU=
201901120400 METAR LRTZ 120400Z 34008KT 7000 SCT020 BKN090 M03/M05 Q1016
                        WHT BLU=
201901120500 METAR LRTZ 120500Z 32008KT 7000 BKN015 BKN090 M03/M05 Q1015
                        WHT WHT=
201901120600 METAR LRTZ 120600Z 32008KT 7000 BKN015 M03/M05 Q1015 WHT
                        WHT=
201901120700 METAR LRTZ 120700Z 30008KT 7000 FEW015 M03/M05 Q1015 WHT
                        BLU=
201901120800 METAR LRTZ 120800Z 32014KT 6000 SCT010 M02/M05 Q1015 WHT
                        WHT=
201901120900 METAR LRTZ 120900Z 29010KT 7000 FEW015 M02/M04 Q1014 WHT
                        BLU=
201901121000 METAR LRTZ 121000Z 29010KT 7000 FEW015 M02/M04 Q1014 WHT
                        BLU=
201901121100 METAR LRTZ 121100Z 29018T 9999 FEW017 SCT200 01/M04 Q1013
                        BLU BLU=
201901121200 METAR LRTZ 121200Z 30020KT 9999 FEW017 BKN200 01/M04 Q1012
                        BLU BLU=
201901121300 METAR LRTZ 121300Z 32016G26KT 9999 FEW017 BKN200 01/M04 Q1012
                        BLU BLU=
201901121500 METAR LRTZ 121500Z 31012G22KT 9999 BKN200 M00/M05 Q1012 BLU
                        BLU=
201901121600 METAR LRTZ 121600Z 32014G24KT 9999 BKN200 M01/M05 Q1012 BLU
                        BLU=
201901121700 METAR LRTZ 121700Z 33012G22KT 9999 BKN200 M01/M05 Q1012 BLU
                        BLU=
201901121800 METAR LRTZ 121800Z 32010G20KT 9999 BKN200 M01/M05 Q1012 BLU
                        BLU=
201901121900 METAR LRTZ 121900Z 32014KT 9999 BKN200 M02/M05 Q1013 BLU
                        BLU=
201901122000 METAR LRTZ 122000Z 33014KT 9999 SCT200 M02/M05 Q1013 BLU
                        BLU=
201901122100 METAR LRTZ 122100Z 32012KT 9999 SCT200 M03/M06 Q1013 BLU
                        BLU=
201901122300 METAR LRTZ 122300Z 31010KT 9999 SCT200 M03/M06 Q1013 BLU
                        BLU=
201901130200 METAR LRTZ 130200Z 30012KT 9999 SCT200 M04/M06 Q1012 BLU
                        BLU=
201901130300 METAR LRTZ 130300Z 28010KT 9999 SCT200 M04/M07 Q1012 BLU
                        BLU=
201901130400 METAR LRTZ 130400Z 31008KT 9999 SCT200 M05/M07 Q1011 BLU
                        BLU=
201901130500 METAR LRTZ 130500Z 33008KT 9999 SCT200 M05/M07 Q1011 BLU
                        BLU=
201901130600 METAR LRTZ 130600Z 33006KT 9999 SCT200 M05/M07 Q1011 BLU
                        BLU=
201901130700 METAR LRTZ 130700Z 31008KT 9999 SCT200 M04/M07 Q1012 BLU
                        BLU=
201901130800 METAR LRTZ 130800Z 31010KT 9999 SCT200 M02/M05 Q1012 BLU
                        BLU=
201901130900 METAR LRTZ 130900Z 31010KT 9999 SCT200 M00/M04 Q1011 BLU
                        BLU=
201901131000 METAR LRTZ 131000Z 30010KT 9999 SCT200 01/M03 Q1010 BLU BLU=
201901131100 METAR LRTZ 131100Z 25008KT 9999 SCT200 03/M03 Q1009 BLU BLU=
201901131200 METAR LRTZ 131200Z 25008KT 9999 SCT200 03/M02 Q1009 BLU BLU=
201901131300 METAR LRTZ 131300Z 26006KT 9999 SCT200 03/M02 Q1009 BLU BLU=
201901131400 METAR LRTZ 131400Z 27004KT 9999 BKN200 02/M02 Q1008 BLU BLU=
201901131500 METAR LRTZ 131500Z 28004KT 9999 BKN200 00/M02 Q1007 BLU BLU=
201901131600 METAR LRTZ 131600Z VRB03KT 9999 BKN200 M01/M03 Q1007 BLU
                        BLU=
201901131700 METAR LRTZ 131700Z VRB03KT 8000 FEW200 M02/M03 Q1007 BLU
                        BLU=
201901131800 METAR LRTZ 131800Z 23002KT 8000 FEW200 M01/M02 Q1006 BLU
                        BLU=
201901131900 METAR LRTZ 131900Z 21003KT 9999 FEW200 M01/M02 Q1006 BLU
                        BLU=
201901132000 METAR LRTZ 132000Z 24002KT 9999 BKN200 M02/M03 Q1006 BLU
                        BLU=
201901132100 METAR LRTZ 132100Z 24002KT 9999 BKN200 M02/M03 Q1005 BLU
                        BLU=
201901132200 METAR LRTZ 132200Z 24003KT 9999 FEW100 BKN200 M02/M03 Q1005
                        BLU BLU=
201901132300 METAR LRTZ 132300Z 24003KT 9999 FEW100 BKN200 M02/M03 Q1004
                        BLU BLU=
201901140400 METAR LRTZ 140400Z 24008KT 9999 FEW200 M01/M03 Q1000 BLU
                        BLU=
201901140500 METAR LRTZ 140500Z 24006KT 9999 FEW200 M02/M03 Q0999 BLU
                        BLU=
201901140600 METAR LRTZ 140600Z 23006KT 9999 SCT200 M03/M04 Q0999 BLU
                        BLU=
201901140700 METAR LRTZ 140700Z 23008KT 9999 SCT200 M01/M03 Q0999 BLU
                        BLU=
201901140800 METAR LRTZ 140800Z 23010KT 9999 SCT200 01/M02 Q0999 BLU BLU=
201901140900 METAR LRTZ 140900Z 23010KT 9999 SCT200 03/M01 Q0998 BLU BLU=
201901141000 METAR LRTZ 141000Z 23010KT 9999 FEW100 BKN200 05/01 Q0997
                        BLU BLU=
201901141100 METAR LRTZ 141100Z 23010KT 9999 FEW100 BKN200 06/01 Q0997
                        BLU BLU=
201901141200 METAR LRTZ 141200Z 23010KT 9999 FEW100 BKN200 06/01 Q0996
                        BLU BLU=
201901141300 METAR LRTZ 141300Z 23010KT 9999 SCT100 BKN200 06/01 Q0996
                        BLU BLU=
201901141400 METAR LRTZ 141400Z 23010KT 9999 SCT100 BKN200 05/01 Q0996
                        BLU BLU=
201901141500 METAR LRTZ 141500Z 23010KT 9999 SCT100 BKN200 03/00 Q0996
                        BLU BLU=
201901141600 METAR LRTZ 141600Z 23010KT 9999 SCT050 BKN090 02/M00 Q0996
                        BLU BLU=
201901141700 METAR LRTZ 141700Z 24010KT 9999 SCT030 BKN090 02/M01 Q0997
                        BLU BLU=
201901141800 METAR LRTZ 141800Z 24010KT 9999 SCT030 BKN090 02/M01 Q0997
                        BLU BLU=
201901141900 METAR LRTZ 141900Z 24010KT 9999 SCT030 BKN090 02/M01 Q0997
                        BLU BLU=
201901142000 METAR LRTZ 142000Z 30012KT 9999 SCT030 BKN090 02/M01 Q0998
                        BLU BLU=
201901142100 METAR LRTZ 142100Z 30012KT 9999 SCT030 BKN090 02/M01 Q0998
                        BLU BLU=
201901142200 METAR LRTZ 142200Z 30012KT 9999 SCT030 BKN090 02/M01 Q0998
                        BLU BLU=
201901142300 METAR LRTZ 142300Z 30012KT 9999 SCT030 BKN090 01/M01 Q0999
                        BLU BLU=
201901150400 METAR LRTZ 150400Z 32012KT 9999 SCT030 BKN090 M00/M02 Q1000
                        BLU BLU=
201901150500 METAR LRTZ 150500Z 33012KT 9999 SCT025 BKN090 01/M02 Q1000
                        BLU BLU=
201901150600 METAR LRTZ 150600Z 33016KT 9999 SCT020 BKN090 00/M02 Q1001
                        BLU WHT=
201901150700 METAR LRTZ 150700Z 33014KT 5000 -SN BR BKN010 BKN025 OVC050
                        00/M02 Q1003 WHT WHT=
201901150800 METAR LRTZ 150800Z 36018KT 4000 -SN BR FEW005 BKN008 OVC015
                        00/M01 Q1004 GRN GRN=
201901150900 METAR LRTZ 150900Z 03018KT 7000 -SN BR FEW007 BKN010 OVC015
                        00/M02 Q1004 GRN GRN=
201901151000 METAR LRTZ 151000Z 03018KT 9999 -RASN BKN010 OVC015 00/M02
                        Q1004 GRN GRN=
201901151100 METAR LRTZ 151100Z 01010G20KT 9999 -SN BKN010 OVC015 00/M02
                        Q1005 GRN GRN=
201901151200 METAR LRTZ 151200Z 01010G20KT 9999 FEW015 BKN040 OVC055 00/M03
                        Q1005 BLU BLU=
201901151300 METAR LRTZ 151300Z 01012G22KT 9999 SCT055 BKN100 01/M02 Q1006
                        BLU BLU=
201901151400 METAR LRTZ 151400Z 01018KT 9999 FEW050 BKN100 01/M06 Q1007
                        BLU BLU=
201901151500 METAR LRTZ 151500Z 01016KT 9999 BKN100 M00/M06 Q1007 BLU
                        BLU=
201901151600 METAR LRTZ 151600Z 36016KT 9999 BKN100 M01/M05 Q1007 BLU
                        BLU=
201901151700 METAR LRTZ 151700Z 36014KT 9999 SCT200 M02/M05 Q1008 BLU
                        BLU=
201901151800 METAR LRTZ 151800Z 363012KT 9999 SCT200 M02/M05 Q1009 BLU
                        BLU=
201901151900 METAR LRTZ 151900Z 35016KT 8000 SCT200 M02/M04 Q1009 BLU
                        BLU=
201901152000 METAR LRTZ 152000Z 35016KT 8000 SCT200 M03/M05 Q1010 BLU
                        BLU=
201901152100 METAR LRTZ 152100Z 33016KT 8000 SCT200 M03/M05 Q1010 BLU
                        WHT=
201901152300 METAR LRTZ 152300Z 33014KT 6000 SCT200 M03/M05 Q1011 WHT
                        WHT=
201901160400 METAR LRTZ 160400Z 27014KT 8000 FEW100 M05/M07 Q1011 BLU
                        BLU=
201901160500 METAR LRTZ 160500Z 27010KT 9999 SKC M05/M07 Q1011 BLU WHT=
201901160600 METAR LRTZ 160600Z 27010KT 9999 FEW200 M05/M07 Q1011 BLU
                        BLU=
201901160700 METAR LRTZ 160700Z 27014KT 9999 SCT200 M02/M05 Q1011 BLU
                        BLU=
201901160800 METAR LRTZ 160800Z 27018KT 9999 BKN200 00/M03 Q1010 BLU BLU=
201901160900 METAR LRTZ 160900Z 27018KT 9999 BKN100 OVC200 01/M02 Q1010
                        BLU BLU=
201901161000 METAR LRTZ 161000Z 27016KT 9999 BKN070 BKN200 02/M02 Q1009
                        BLU BLU=
201901161100 METAR LRTZ 161100Z 27016KT 9999 SCT090 04/M01 Q1008 BLU BLU=
201901161200 METAR LRTZ 161200Z 29018KT 9999 SCT090 06/M01 Q1008 BLU BLU=
201901161400 METAR LRTZ 161400Z 29012G22KT 9999 SCT100 04/M01 Q1009 BLU
                        BLU=
201901161500 METAR LRTZ 161500Z 29014G24KT 9999 BKN100 03/M01 Q1010 BLU
                        BLU=
201901161600 METAR LRTZ 161600Z 29010G20KT 9999 SCT100 02/M01 Q1011 BLU
                        BLU=
201901161700 METAR LRTZ 161700Z 29012KT 9999 SCT100 02/M01 Q1012 BLU BLU=
201901161800 METAR LRTZ 161800Z 29010KT 9999 SCT100 01/M02 Q1013 BLU BLU=
201901161900 METAR LRTZ 161900Z 29008KT 9999 SCT100 01/M01 Q1013 BLU BLU=
201901162000 METAR LRTZ 162000Z 29008KT 9999 SCT100 00/M01 Q1014 BLU BLU=
201901162100 METAR LRTZ 162100Z 29008KT 9999 SCT100 00/M01 Q1015 BLU BLU=
201901162200 METAR LRTZ 162200Z 29006KT 9999 SCT100 M00/M02 Q1015 BLU
                        BLU=
201901162300 METAR LRTZ 162300Z 24006KT 9999 SCT100 M00/M02 Q1016 BLU
                        BLU=
201901170100 METAR LRTZ 170100Z 21006KT 9999 SCT070 M00/M02 Q1017 BLU
                        BLU=
201901170200 METAR LRTZ 170200Z 21006KT 9999 SCT070 M01/M03 Q1018 BLU
                        BLU=
201901170300 METAR LRTZ 170300Z 21006KT 9999 SCT070 M02/M04 Q1019 BLU
                        BLU=
201901170400 METAR LRTZ 170400Z VRB03KT 7000 SCT040 M01/M02 Q1018 WHT
                        WHT=
201901170500 METAR LRTZ 170500Z VRB03KT 4000 BR SCT040 M02/M03 Q1018 GRN
                        WHT=
201901170600 METAR LRTZ 170600Z VRB03KT 8000 BKN070 M02/M03 Q1018 BLU
                        BLU=
201901170700 METAR LRTZ 170700Z VRB02KT 9999 FEW100 SCT200 M00/M02 Q1018
                        BLU BLU=
201901170800 METAR LRTZ 170800Z 22004KT 9999 FEW200 02/M01 Q1018 BLU BLU=
201901170900 METAR LRTZ 170900Z 20006KT 9999 FEW200 04/01 Q1019 BLU BLU=
201901171000 METAR LRTZ 171000Z 21010KT 9999 SKC 06/02 Q1018 BLU BLU=
201901171100 METAR LRTZ 171100Z 20010KT 9999 SKC 07/03 Q1017 BLU BLU=
201901171200 METAR LRTZ 171200Z 21008KT 9999 SKC 08/04Q1017 BLU BLU=
201901171300 METAR LRTZ 171300Z 19008KT 9999 SKC 08/04 Q1016 BLU BLU=
201901171400 METAR LRTZ 171400Z 21012KT 9999 SKC 07/02 Q1016 BLU BLU=
201901171600 METAR LRTZ 171600Z 20004KT 9999 FEW200 03/M01 Q1016 BLU BLU=
201901171700 METAR LRTZ 171700Z 20004KT 9999 FEW200 02/M00 Q1016 BLU BLU=
201901171800 METAR LRTZ 171800Z 20004KT 9999 FEW200 02/M00 Q1016 BLU BLU=
201901171900 METAR LRTZ 171900Z 21004KT 9999 FEW200 01/M01 Q1016 BLU BLU=
201901172000 METAR LRTZ 172000Z 19004KT 9999 FEW200 01/M01 Q1016 BLU BLU=
201901172100 METAR LRTZ 172100Z 20004KT 9999 FEW200 01/M01 Q1016 BLU BLU=
201901172300 METAR LRTZ 172300Z 19004KT 9999 SCT200 00/M02 Q1015 BLU BLU=
201901180300 METAR LRTZ 180300Z 18004KT 6000 SCT200 M02/M03 Q1015 WHT
                        WHT=
201901180400 METAR LRTZ 180400Z 19004KT 9999 FEW200 02/M02 Q1015 BLU BLU=
201901180500 METAR LRTZ 180500Z 29006KT 9999 FEW200 03/M02 Q1015 BLU BLU=
201901180600 METAR LRTZ 180600Z 24004KT 9999 FEW200 00/M02 Q1015 BLU BLU=
201901180700 METAR LRTZ 180700Z 28008KT 9999 FEW200 04/M01 Q1015 BLU BLU=
201901180800 METAR LRTZ 180800Z 20006KT 9999 SCT200 04/00 Q1016 BLU BLU=
201901180900 METAR LRTZ 180900Z 23003KT 9999 SCT200 06/01 Q1016 BLU BLU=
201901181000 METAR LRTZ 181000Z 22006KT 9999 FEW200 09/03 Q1015 BLU BLU=
201901181100 METAR LRTZ 181100Z 21004KT 9999 FEW200 11/05 Q1014 BLU BLU=
201901181200 METAR LRTZ 181200Z 21004KT 9999 FEW200 11/05 Q1014 BLU BLU=
201901181300 METAR LRTZ 181300Z 20006KT 9999 FEW200 09/04 Q1014 BLU BLU=
201901181400 METAR LRTZ 181400Z 20006KT 9999 FEW200 09/04 Q1014 BLU BLU=
201901181500 METAR LRTZ 181500Z 21003KT 9999 FEW200 07/04 Q1014 BLU BLU=
201901181600 METAR LRTZ 181600Z 21003KT 9999 FEW200 05/03 Q1014 BLU BLU=
201901181700 METAR LRTZ 181700Z 21003KT 9999 SCT200 04/01 Q1014 BLU BLU=
201901181800 METAR LRTZ 181800Z 20003KT 9999 FEW200 03/01 Q1014 BLU BLU=
201901182000 METAR LRTZ 182000Z 27003KT 9999 BKN200 02/M01 Q1014 BLU BLU=
201901182100 METAR LRTZ 182100Z 32004KT 9999 BKN200 03/M00 Q1014 BLU BLU=
201901182200 METAR LRTZ 182200Z 31006KT 9999 BKN200 03/M00 Q1014 BLU BLU=
201901182300 METAR LRTZ 182300Z 31006KT 9999 SCT200 03/M00 Q1015 BLU BLU=
201901190400 METAR LRTZ 190400Z 35008KT 6000 SCT200 00/M01 Q1017 WHT WHT=
201901190500 METAR LRTZ 190500Z 36006KT 7000 SCT140 M00/M01 Q1018 WHT
                        BLU=
201901190600 METAR LRTZ 190600Z 36006KT 7000 SCT120 00/M01 Q1018 WHT BLU=
201901190700 METAR LRTZ 190700Z 36010KT 9999 BKN100 02/M00 Q1018 BLU BLU=
201901190800 METAR LRTZ 190800Z 36010KT 9999 SCT050 BKN100 02/M00 Q1021
                        BLU BLU=
201901190900 METAR LRTZ 190900Z 36010KT 9999 SCT050 BKN100 03/M00 Q1022
                        BLU BLU=
201901191000 METAR LRTZ 191000Z 36012KT 9999 SCT020 BKN100 03/00 Q1022
                        BLU BLU=
201901191100 METAR LRTZ 191100Z 06012KT 9999 SCT015 BKN050 BKN090 03/00
                        Q1022 BLU BLU=
201901191200 METAR LRTZ 191200Z 06012KT 9999 BKN015 BKN090 03/00 Q1022
                        WHT WHT=
201901191300 METAR LRTZ 191300Z 06012KT 9999 BKN015 BKN090 03/00 Q1023
                        WHT WHT=
201901191400 METAR LRTZ 191400Z 06012KT 9999 BKN015 BKN090 03/00 Q1023
                        WHT WHT=
201901191500 METAR LRTZ 191500Z 06012KT 9999 BKN015 OVC050 02/00 Q1023
                        WHT WHT=
201901191600 METAR LRTZ 191600Z 06012KT 9999 BKN015 OVC050 02/M00 Q1023
                        WHT WHT=
201901191700 METAR LRTZ 191700Z 06012KT 9999 BKN015 OVC050 03/00 Q1023
                        WHT WHT=
201901191800 METAR LRTZ 191800Z 06012KT 8000 BKN015 OVC050 03/00 Q1023
                        WHT WHT=
201901191900 METAR LRTZ 191900Z 06012KT 8000 BKN015 OVC050 03/00 Q1023
                        WHT WHT=
201901192000 METAR LRTZ 192000Z 06012KT 8000 BKN015 OVC050 03/00 Q1023
                        WHT WHT=
201901192100 METAR LRTZ 192100Z 06012KT 8000 BKN015 OVC050 03/00 Q1023
                        WHT WHT=
201901192300 METAR LRTZ 192300Z 06012KT 6000 -RA BKN015 OVC050 03/00 Q1023
                        WHT WHT=
201901200400 METAR LRTZ 200400Z 09010KT 8000 BKN015 OVC050 06/03 Q1021
                        WHT WHT=
201901200500 METAR LRTZ 200500Z 14010KT 8000 -DZ BKN015 OVC050 05/03 Q1020
                        WHT WHT=
201901200600 METAR LRTZ 200600Z 14010KT 8000 -RA BKN015 OVC050 05/03 Q1020
                        WHT WHT=
201901200700 METAR LRTZ 200700Z 15008KT 8000 SCT 008 BKN015 OVC050 06/05
                        Q1020 WHT WHT=
201901200800 METAR LRTZ 200800Z 16010KT 8000 SCT 008 BKN015 OVC050 06/05
                        Q1020 WHT WHT=
201901200900 METAR LRTZ 200900Z 16012KT 9999 FEW008 BKN020 BKN040 08/06
                        Q1020 WHT WHT=
201901201000 METAR LRTZ 201000Z 16014KT 9999 FEW009 BKN015 07/05 Q1019
                        WHT WHT=
201901201100 METAR LRTZ 201100Z 16012KT 9999 BKN015 OVC020 07/05 Q1018
                        WHT WHT=
201901201200 METAR LRTZ 201200Z 15012KT 9999 BKN010 OVC015 07/05 Q1017
                        GRN GRN=
201901201300 METAR LRTZ 201300Z 15010KT 7000 OVC008 07/05 Q1017 GRN GRN=
201901201400 METAR LRTZ 201400Z 15006KT 4000 BR BKN004 OVC008 07/05 Q1016
                        YLO YLO=
201901201600 METAR LRTZ 201600Z 18010KT 2500 BR BKN005 OVC008 06/06 Q1015
                        YLO YLO=
201901201700 METAR LRTZ 201700Z 18008KT 2000 BR BKN004 OVC008 06/06 Q1015
                        YLO YLO=
201901201800 METAR LRTZ 201800Z 18006KT 2000 BR BKN003 OVC008 07/06 Q1015
                        YLO YLO=
201901201900 METAR LRTZ 201900Z 24004KT 2000 BR BKN004 OVC008 07/06 Q1015
                        YLO YLO=
201901202000 METAR LRTZ 202000Z 24004KT 2000 -DZ BR BKN004 OVC008 07/06
                        Q1014 YLO YLO=
201901202100 METAR LRTZ 202100Z 24006KT 2000 -DZ BR BKN004 OVC008 07/06
                        Q1014 YLO YLO=
201901202300 METAR LRTZ 202300Z 24006KT 2000 -RA BR BKN004 OVC008 06/06
                        Q1014 YLO YLO=
201901210400 METAR LRTZ 210400Z 33010G20KT 6000 BKN004 02/01 Q1015 YLO
                        YLO=
201901210500 METAR LRTZ 210500Z 33010G20KT 7000 BKN004 01/00 Q1016 YLO
                        YLO=
201901210600 METAR LRTZ 210600Z 33012G22KT 5000 BR BKN004 OVC010 01/00
                        Q1017 YLO YLO=
201901210700 METAR LRTZ 210700Z 33015G25KT 5000 BR BKN004 OVC010 01/00
                        Q1017 YLO YLO=
201901210800 METAR LRTZ 210800Z 33015G25KT 5000 BR BKN004 BKN010 02/00
                        Q1018 YLO YLO=
201901210900 METAR LRTZ 210900Z 33010G20KT 8000 BKN006 OVC010 02/M00 Q1019
                        YLO YLO=
201901211000 METAR LRTZ 211000Z 33010G20KT 9999 SCT010 BKN015 BKN040 02/M01
                        Q1019 WHT WHT=
201901211100 METAR LRTZ 211100Z 34016KT 9999 SCT010 BKN015 BKN040 02/M01
                        Q1019 WHT WHT=
201901211200 METAR LRTZ 211200Z 36014KT 9999 SCT010 BKN015 BKN040 03/M01
                        Q1019 WHT WHT=
201901211300 METAR LRTZ 211300Z 36010KT 9999 SCT010 BKN020 BKN040 03/M01
                        Q1020 WHT WHT=
201901211400 METAR LRTZ 211400Z 03010KT 9999 BKN020 BKN040 02/M01 Q1020
                        WHT WHT=
201901211500 METAR LRTZ 211500Z 03010KT 9999 BKN015 OVC040 01/M02 Q1021
                        WHT WHT=
201901211600 METAR LRTZ 211600Z 03010KT 9999 BKN015 OVC040 01/M02 Q1022
                        WHT WHT=
201901211700 METAR LRTZ 211700Z 03010KT 9999 BKN015 OVC025 00/M03 Q1022
                        WHT WHT=
201901211800 METAR LRTZ 211800Z 03010KT 9999 BKN015 OVC025 M00/M03 Q1022
                        WHT WHT=
201901211900 METAR LRTZ 211900Z 03010KT 9999 BKN015 OVC025 M01/M04 Q1023
                        WHT WHT=
201901212000 METAR LRTZ 212000Z 03008KT 9999 BKN015 OVC025 M01/M03 Q1023
                        WHT WHT=
201901212100 METAR LRTZ 212100Z 03006KT 9999 BKN015 OVC025 M01/M03 Q1023
                        WHT WHT=
201901212200 METAR LRTZ 212200Z 03006KT 9999 BKN015 OVC025 M01/M03 Q1023
                        WHT WHT=
201901212300 METAR LRTZ 212300Z VRB03KT 9999 BKN015 OVC025 M01/M03 Q1022
                        WHT WHT=
201901220100 METAR LRTZ 220100Z VRB03KT 9999 BKN015 OVC025 M02/M04 Q1022
                        WHT WHT=
201901220200 METAR LRTZ 220200Z VRB03KT 8000 BKN015 OVC025 M02/M04 Q1022
                        WHT WHT=
201901220300 METAR LRTZ 220300Z VRB03KT 6000 BKN010 OVC020 M03/M05 Q1022
                        GRN YLO=
201901220400 METAR LRTZ 220400Z 36006KT 8000 BKN015 OVC020 M02/M05 Q1022
                        WHT WHT=
201901220500 METAR LRTZ 220500Z 36006KT 8000 BKN015 OVC020 M02/M05 Q1022
                        WHT WHT=
201901220600 METAR LRTZ 220600Z 36006KT 9999 OVC020 M01/M04 Q1022 WHT
                        WHT=
201901220700 METAR LRTZ 220700Z 01006KT 9999 BKN020 OVC040 M01/M04 Q1022
                        WHT WHT=
201901220800 METAR LRTZ 220800Z 01006KT 8000 BKN020 OVC050 M01/M04 Q1022
                        WHT WHT=
201901220900 METAR LRTZ 220900Z 04006KT 8000 BKN020 OVC050 01/M02 Q1021
                        WHT WHT=
201901221000 METAR LRTZ 221000Z 06006KT 8000 BKN020 OVC050 02/M02 Q1020
                        WHT WHT=
201901221100 METAR LRTZ 221100Z 06006KT 9999 BKN020 OVC050 03/M01 Q1019
                        WHT WHT=
201901221200 METAR LRTZ 221200Z 12006KT 9999 BKN020 OVC050 04/M01 Q1018
                        WHT WHT=
201901221300 METAR LRTZ 221300Z 15012KT 9999 BKN020 OVC050 04/M00 Q1017
                        WHT WHT=
201901221400 METAR LRTZ 221400Z 16012KT 9999 BKN023 OVC050 04/M00 Q1017
                        WHT WHT=
201901221500 METAR LRTZ 221500Z 17010KT 9999 BKN022 OVC050 04/00 Q1016
                        WHT WHT=
201901221600 METAR LRTZ 221600Z 15012KT 9999 BKN021 OVC050 04/00 Q1016
                        WHT WHT=
201901221700 METAR LRTZ 221700Z 17010KT 9999 BKN021 OVC050 04/01 Q1015
                        WHT WHT=
201901221800 METAR LRTZ 221800Z 17014KT 9999 BKN020 OVC050 05/01 Q1015
                        WHT WHT=
201901221900 METAR LRTZ 221900Z 16014KT 9999 BKN020 OVC050 05/02 Q1014
                        WHT WHT=
201901222000 METAR LRTZ 222000Z 17016KT 9999 BKN020 OVC050 05/02 Q1013
                        WHT WHT=
201901222100 METAR LRTZ 222100Z 17014KT 9999 BKN020 OVC040 05/02 Q1013
                        WHT WHT=
201901222300 METAR LRTZ 222300Z 16014KT 9999 BKN020 OVC040 05/02 Q1012
                        WHT WHT=
201901230200 METAR LRTZ 230200Z 17012KT 9999 BKN020 OVC040 05/03 Q1009
                        WHT WH=
201901230300 METAR LRTZ 230300Z 16014KT 8000 BKN020 OVC040 06/04 Q1008
                        WHT WHT=
201901230400 METAR LRTZ 230400Z 17014KT 9999 SCT010 OVC020 06/05 Q1006
                        WHT GRN=
201901230500 METAR LRTZ 230500Z 19016KT 5000 RA BR BKN007 OVC020 06/05
                        Q1006 GRN GRN=
201901230600 METAR LRTZ 230600Z 20014KT 4000 BR SCT003 BKN006 OVC020 06/06
                        Q1005 YLO YLO=
201901230700 METAR LRTZ 230700Z 21014KT 5000 BR SCT007 BKN010 OVC020 07/06
                        Q1005 GRN WHT=
201901230800 METAR LRTZ 230800Z 22016KT 6000 SCT009 BKN015 BKN200 08/06
                        Q1006 WHT WHT=
201901230900 METAR LRTZ 230900Z 22014KT 7000 FEW010 BKN025 BKN200 09/07
                        Q1004 WHT BLU=
201901231000 METAR LRTZ 231000Z 23016KT 9999 SCT020 BKN100 10/07 Q1004
                        BLU BLU=
201901231100 METAR LRTZ 231100Z 23010KT 9999 SCT020 BKN150 11/08 Q1003
                        BLU BLU=
201901231200 METAR LRTZ 231200Z 24010KT 9999 SCT020 BKN160 11/08 Q1003
                        BLU BLU=
201901231300 METAR LRTZ 231300Z 23008KT 9999 SCT020 BKN160 11/08 Q1003
                        BLU BLU=
201901231400 METAR LRTZ 231400Z 20006KT 9999 FEW030 BKN160 10/07 Q1003
                        BLU BLU=
201901231500 METAR LRTZ 231500Z 21006KT 9999 FEW100 BKN200 09/07 Q1003
                        BLU BLU=
201901231600 METAR LRTZ 231600Z 20003KT 9999 SCT070 BKN200 07/05 Q1003
                        BLU BLU=
201901231700 METAR LRTZ 231700Z 21004KT 7000 SCT080 BKN200 06/05 Q1003
                        WHT WHT=
201901231800 METAR LRTZ 231800Z 21008KT 4000 BR FEW100 SCT200 06/05 Q1003
                        GRN WHT=
201901231900 METAR LRTZ 231900Z 19008KT 4000 BR SCT200 06/05 Q1003 GRN
                        WHT=
201901232100 METAR LRTZ 232100Z 19008KT 5000 BR SCT040 BKN100 06/05 Q1003
                        WHT WHT=
201901232300 METAR LRTZ 232300Z 18012KT 6000 SCT020 BKN070 05/04 Q1003
                        WHT WHT=
201901240400 METAR LRTZ 240400Z 06008KT 0300 FG VV001 04/04 Q1002 RED
                        RED=
201901240500 METAR LRTZ 240500Z 04008KT 0300 FG VV001 05/04 Q1002 RED
                        RED=
201901240600 METAR LRTZ 240600Z 06010KT 0300 FG VV001 05/05 Q1002 RED
                        RED=
201901240700 METAR LRTZ 240700Z 06010KT 0200 FG VV001 05/05 Q1002 RED
                        RED=
201901240800 METAR LRTZ 240800Z 06010KT 0200 FG VV002 05/05 Q1002 RED
                        AMB=
201901240900 METAR LRTZ 240900Z 06010KT 1000 BR OVC002 06/06 Q1002 AMB
                        YLO=
201901241000 METAR LRTZ 241000Z 06010KT 3000 BR SCT030 BKN090 07/06 Q1002
                        YLO WHT=
201901241100 METAR LRTZ 241100Z 04010KT 5000 BR SCT020 BKN090 06/05 Q1001
                        YLO WHT=
201901241200 METAR LRTZ 241200Z 04010KT 4000 BR SCT010 BKN090 05/05 Q1001
                        GRN GRN=
201901241300 METAR LRTZ 241300Z 04010KT 3000 BR BKN010 OVC090 05/04 Q1000
                        YLO YLO=
201901241400 METAR LRTZ 241400Z 04012KT 1000 BR OVC002 05/04 Q1001 AMB
                        AMB=
201901241500 METAR LRTZ 241500Z 04012KT 0300 FG VV001 05/04 Q1001 RED
                        RED=
201901241600 METAR LRTZ 241600Z 04012KT 0300 FG VV001 05/04 Q1002 RED
                        RED=
201901241700 METAR LRTZ 241700Z 04012KT 0300 FG VV001 04/04 Q1002 RED
                        RED=
201901241800 METAR LRTZ 241800Z 04012KT 0300 FG VV001 04/04 Q1002 RED
                        RED=
201901241900 METAR LRTZ 241900Z 04012KT 0300 FG VV001 04/04 Q1003 RED
                        RED=
201901242000 METAR LRTZ 242000Z 04012KT 0300 FG VV001 05/05 Q1003 RED
                        RED=
201901242100 METAR LRTZ 242100Z 04012KT 0300 FG VV001 05/05 Q1004 RED
                        RED=
201901242200 METAR LRTZ 242200Z 04012KT 0300 FG VV001 05/05 Q1004 RED
                        RED=
201901242300 METAR LRTZ 242300Z 04012KT 0300 FG VV001 05/05 Q1004 RED
                        RED=
201901250400 METAR LRTZ 250400Z 04014KT 0300 FG VV001 05/05 Q1006 RED
                        RED=
201901250500 METAR LRTZ 250500Z 04016KT 0300 FG -DZ VV001 05/04 Q1007
                        RED RED=
201901250600 METAR LRTZ 250600Z 04016KT 0300 FG -DZ VV001 04/04 Q1007
                        RED RED=
201901250700 METAR LRTZ 250700Z 06018KT 0200 FG DZ VV001 05/04 Q1007 RED
                        RED=
201901250800 METAR LRTZ 250800Z 06016KT 0200 FG -DZ VV001 05/04 Q1008
                        RED RED=
201901250900 METAR LRTZ 250900Z 06016KT 0200 FG -DZ VV001 04/03 Q1009
                        RED RED=
201901251000 METAR LRTZ 251000Z 06016KT 0200 FG DZ VV001 03/03 Q1008 RED
                        RED=
201901251100 METAR LRTZ 251100Z 06014KT 0200 FG DZ VV001 03/03 Q1008 RED
                        RED=
201901251200 METAR LRTZ 251200Z 06014KT 0200 FG -DZ VV001 03/03 Q1008
                        RED RED=
201901251300 METAR LRTZ 251300Z 06014KT 0300 FG -DZ VV001 03/03 Q1008
                        RED RED=
201901251400 METAR LRTZ 251400Z 06014KT 0300 FG -DZ VV001 03/03 Q1008
                        RED RED=
201901251500 METAR LRTZ 251500Z 06016KT 0300 FG VV001 03/03 Q1008 RED
                        RED=
201901251600 METAR LRTZ 251600Z 06018KT 0300 FG -DZ VV001 03/03 Q1008
                        RED RED=
201901251700 METAR LRTZ 251700Z 06016KT 0300 FG -DZ VV001 04/04 Q1008
                        RED RED=
201901251800 METAR LRTZ 251800Z 06016KT 0300 FG -DZ VV001 04/04 Q1008
                        RED RED=
201901251900 METAR LRTZ 251900Z 06018KT 0300 FG -DZ VV001 05/05 Q1007
                        RED RED=
201901252100 METAR LRTZ 252100Z 06014KT 0300 FG -DZ VV001 05/05 Q1007
                        RED RED=
201901252200 METAR LRTZ 252200Z 06012KT 0500 FG -DZ VV001 05/05 Q1007
                        RED AMB=
201901252300 METAR LRTZ 252300Z 06012KT 0800 FG -DZ VV001 05/05 Q1007
                        AMB AMB=
201901260400 METAR LRTZ 260400Z 04014KT 0500 FG RA BKN003 OVC015 04/04
                        Q1004 RED RED=
201901260500 METAR LRTZ 260500Z 04016KT 0200 FG RA VV001 02/02 Q1004 RED
                        RED=
201901260600 METAR LRTZ 260600Z 04018KT 0200 FG -RA VV001 02/02 Q1004
                        RED RED=
201901260700 METAR LRTZ 260700Z 06018KT 0200 FG VV001 02/02 Q1004 RED
                        RED=
201901260800 METAR LRTZ 260800Z 06020KT 0200 FG VV001 02/02 Q1003 RED
                        RED=
201901260900 METAR LRTZ 260900Z 06018KT 0400 FG VV001 02/02 Q1003 RED
                        RED=
201901261000 METAR LRTZ 261000Z 06020KT 0800 FG VV002 02/02 Q1003 RED
                        RED=
201901261100 METAR LRTZ 261100Z 06020KT 0800 FG VV002 02/02 Q1003 RED
                        RED=
201901261200 METAR LRTZ 261200Z 06016KT 0800 FG VV002 02/02 Q1003 RED
                        RED=
201901261300 METAR LRTZ 261300Z 06014KT 0400 FG VV002 02/02 Q1003 RED
                        RED=
201901261400 METAR LRTZ 261400Z 06012KT 0400 FG -DZ VV001 01/01 Q1003
                        RED RED=
201901261500 METAR LRTZ 261500Z 04012KT 0400 FG -DZ VV001 01/01 Q1004
                        RED RED=
201901261600 METAR LRTZ 261600Z 01010KT 0400 FG BKN002 OVC005 01/01 Q1004
                        RED RED=
201901261700 METAR LRTZ 261700Z 33010KT 0400 FG -DZ VV002 01/01 Q1004
                        RED RED=
201901261900 METAR LRTZ 261900Z 33010KT 3500 -DZ BR BKN003 OVC010 00/M00
                        Q1004 YLO YLO=
201901262000 METAR LRTZ 262000Z 33014KT 5000 BR BKN003 OVC020 00/M01 Q1005
                        YLO YLO=
201901262100 METAR LRTZ 262100Z 33012KT 5000 BR BKN003 OVC020 00/M01 Q1005
                        YLO YLO=
201901262200 METAR LRTZ 262200Z 33012KT 5000 BR BKN003 OVC020 00/M01 Q1005
                        YLO YLO=
201901262300 METAR LRTZ 262300Z 33012KT 5000 BR BKN003 OVC020 00/M01 Q1005
                        YLO YLO=
201901270000 METAR LRTZ 270000Z 33010KT 3500 BR BKN003 OVC020 00/M01 Q1005
                        YLO YLO=
201901270100 METAR LRTZ 270100Z 33010KT 3500 BR BKN003 OVC020 00/M01 Q1005
                        YLO YLO=
201901270300 METAR LRTZ 270300Z 33010KT 3500 BR BKN003 OVC020 00/M01 Q1005
                        YLO GRN=
201901270400 METAR LRTZ 270400Z 33010KT 4000 BR BKN010 OVC025 01/M01 Q1006
                        GRN WHT=
201901270500 METAR LRTZ 270500Z 33010KT 4000 BR BKN010 OVC025 01/M01 Q1007
                        GRN GRN=
201901270600 METAR LRTZ 270600Z 33012KT 4000 BR BKN007 OVC025 00/M01 Q1008
                        GRN GRN=
201901270700 METAR LRTZ 270700Z 33014KT 2000 BR BKN006 OVC030 00/M01 Q1008
                        YLO GRN=
201901270800 METAR LRTZ 270800Z 34012KT 3000 BR SCT005 BKN015 OVC040 01/M00
                        Q1008 YLO GRN=
201901270900 METAR LRTZ 270900Z 34012KT 3000 BR BKN005 BKN015 OVC040 00/M01
                        Q1009 YLO YLO=
201901271000 METAR LRTZ 271000Z 35010KT 3000 BR BKN005 BKN012 OVC040 01/M00
                        Q1009=
201901271100 METAR LRTZ 271100Z 34008KT 3000 BR BKN005 BKN012 OVC040 01/M00
                        Q1009 YLO YLO=
201901271200 METAR LRTZ 271200Z 32006KT 4000 BR BKN005 BKN012 OVC040 02/00
                        Q1009 YLO YLO=
201901271300 METAR LRTZ 271300Z 30004KT 5000 BR BKN006 BKN015 OVC040 02/M00
                        Q1009 YLO YLO=
201901271400 METAR LRTZ 271400Z 32004KT 6000 BKN008 OVC040 02/M00 Q1009
                        GRN GRN=
201901271500 METAR LRTZ 271500Z 26004KT 6000 SCT008 OVC035 02/M00 Q1009
                        WHT WHT=
201901271600 METAR LRTZ 271600Z VRB02KT 5000 BR SCT010 OVC035 02/00 Q1009
                        WHT WHT=
201901271700 METAR LRTZ 271700Z VRB02KT 4000 BR SCT010 OVC030 02/00 Q1009
                        GRN GRN=
201901271800 METAR LRTZ 271800Z 20004KT 4000 BR BKN010 BKN020 01/00 Q1009
                        GRN GRN=
201901271900 METAR LRTZ 271900Z 21004KT 3000 BR BKN010 00/M00 Q1010 YLO
                        YLO=
201901272000 METAR LRTZ 272000Z 20004KT 3000 BR SCT010 00/M01 Q1010 YLO
                        YLO=
201901272100 METAR LRTZ 272100Z 19004KT 3000 BR SCT010 00/M01 Q1010 YLO
                        YLO=
201901272200 METAR LRTZ 272200Z 20004KT 3000 BR SCT010 00/M01 Q1010 YLO
                        YLO=
201901272300 METAR LRTZ 272300Z 18004KT 3000 BR SCT010 00/M01 Q1010 YLO
                        YLO=
201901280400 METAR LRTZ 280400Z 17004KT 5000 BR SCT008 OVC020 02/01 Q1008
                        WHT WHT=
201901280500 METAR LRTZ 280500Z 17004KT 7000 SCT010 OVC020 03/02 Q1008
                        WHT WHT=
201901280600 METAR LRTZ 280600Z 19010KT 9999 SCT010 OVC020 04/02 Q1008
                        WHT WHT=
201901280700 METAR LRTZ 280700Z 19012KT 9999 SCT010 OVC020 05/03 Q1007
                        WHT WHT=
201901280800 METAR LRTZ 280800Z 20012KT 9999 BKN015 OVC020 06/04 Q1007
                        WHT WHT=
201901280900 METAR LRTZ 280900Z 20012KT 9999 BKN015 OVC020 06/04 Q1007
                        WHT WHT=
201901281000 METAR LRTZ 281000Z 20014KT 9999 BKN009 OVC013 06/04 Q1007
                        GRN GRN=
201901281100 METAR LRTZ 281100Z 20014KT 9999 SCT010 BKN020 BKN140 07/05
                        Q1006 WHT WHT=
201901281200 METAR LRTZ 281200Z 20018KT 9999 SCT010 BKN020 BKN100 07/05
                        Q1006 WHT WHT=
201901281300 METAR LRTZ 281300Z 20016KT 9999 SCT010 BKN020 OVC070 07/05
                        Q1005 WHT WHT=
201901281400 METAR LRTZ 281400Z 20018KT 7000 SCT015 BKN025 BKN040 07/06
                        Q1005 WHT WHT=
201901281500 METAR LRTZ 281500Z 20016KT 6000 SCT015 BKN200 06/05 Q1005
                        WHT WHT=
201901281600 METAR LRTZ 281600Z 20010KT 5000 BR FEW005 BKN010 BKN200 06/05
                        Q1005 GRN GRN=
201901281700 METAR LRTZ 281700Z 20012KT 4000 BR FEW004 BKN007 OVC200 06/05
                        Q1005 GRN GRN=
201901281800 METAR LRTZ 281800Z 20010KT 3000 BR BKN007 BKN200 06/05 Q1005
                        YLO YLO=
201901281900 METAR LRTZ 281900Z 19008KT 3000 BR SCT007 BKN200 06/05 Q1005
                        YLO YLO=
201901282000 METAR LRTZ 282000Z 19008KT 3000 BR SCT007 BKN200 06/05 Q1005
                        YLO YLO=
201901282100 METAR LRTZ 282100Z 20008KT 3000 BR FEW007 BKN200 06/05 Q1005
                        YLO YLO=
201901282200 METAR LRTZ 282200Z 20010KT 3000 BR SCT007 BKN200 06/05 Q1005
                        YLO YLO=
201901282300 METAR LRTZ 282300Z 19010KT 3000 BR SCT010 BKN200 06/05 Q1004
                        YLO YLO=
201901290400 METAR LRTZ 290400Z 20006KT 4000 BR SCT010 BKN200 04/03 Q1005
                        GRN GRN=
201901290500 METAR LRTZ 290500Z 20006KT 4000 BR BKN200 05/04 Q1005 GRN
                        GRN=
201901290600 METAR LRTZ 290600Z 21006KT 5000 BR BKN200 05/04 Q1005 WHT
                        WHT=
201901290700 METAR LRTZ 290700Z 21006KT 7000 BKN200 05/04 Q1006 WHT WHT=
201901290800 METAR LRTZ 290800Z 21010KT 9999 BKN200 10/07 Q1007 BLU BLU=
201901290900 METAR LRTZ 290900Z 21010KT 9999 SCT200 12/08 Q1007 BLU BLU=
201901291000 METAR LRTZ 291000Z 21010KT 9999 BKN050 12/09 Q1007 BLU BLU=
201901291100 METAR LRTZ 291100Z 18014KT 9999 BKN050 12/09 Q1007 BLU BLU=
201901291200 METAR LRTZ 291200Z 18014KT 9999 BKN050 BKN200 11/08 Q1007
                        BLU BLU=
201901291300 METAR LRTZ 291300Z 18012KT 9999 BKN050 BKN090 10/08 Q1007
                        BLU BLU=
201901291400 METAR LRTZ 291400Z 18012KT 9999 BKN050 BKN090 10/08 Q1007
                        BLU BLU=
201901291500 METAR LRTZ 291500Z 18012KT 9999 BKN050 BKN090 08/06 Q1007
                        BLU BLU=
201901291600 METAR LRTZ 291600Z 18010KT 9999 BKN060 BKN090 08/06 Q1007
                        BLU BLU=
201901291700 METAR LRTZ 291700Z 18010KT 9999 SCT060 BKN090 08/06 Q1007
                        BLU BLU=
201901291800 METAR LRTZ 291800Z 18010KT 9999 SCT060 BKN090 08/06 Q1007
                        BLU BLU=
201901291900 METAR LRTZ 291900Z 18010KT 9999 FEW060 BKN090 07/06 Q1008
                        BLU BLU=
201901292000 METAR LRTZ 292000Z 18010KT 9999 BKN090 07/06 Q1008 BLU BLU=
201901292100 METAR LRTZ 292100Z 18010KT 9999 SCT050 BKN090 08/07 Q1008
                        BLU BLU=
201901292300 METAR LRTZ 292300Z 18010KT 9999 SCT050 BKN090 08/07 Q1008
                        BLU BLU=
201901300400 METAR LRTZ 300400Z 18010KT 9999 FEW100 BKN200 07/05 Q1007
                        BLU BLU=
201901300500 METAR LRTZ 300500Z 17010KT 9999 BKN150 07/05 Q1006 BLU BLU=
201901300600 METAR LRTZ 300600Z 17008KT 9999 SCT050 BKN150 07/05 Q1006
                        BLU BLU=
201901300700 METAR LRTZ 300700Z 15006KT 9999 BKN150 08/06 Q1006 BLU BLU=
201901300800 METAR LRTZ 300800Z 17008KT 9999 SCT050 BKN150 09/07 Q1006
                        BLU BLU=
201901300900 METAR LRTZ 300900Z 17008KT 9999 SCT050 BKN150 09/07 Q1006
                        BLU BLU=
201901301000 METAR LRTZ 301000Z 18008KT 9999 FEW050 BKN150 11/08 Q1005
                        BLU BLU=
201901301100 METAR LRTZ 301100Z 18012KT 9999 SCT050 BKN150 12/07 Q1005
                        BLU BLU=
201901301200 METAR LRTZ 301200Z 18014KT 9999 SCT050 BKN150 12/07 Q1004
                        BLU BLU=
201901301300 METAR LRTZ 301300Z 18014KT 9999 SCT050 BKN150 11/07 Q1004
                        BLU BLU=
201901301400 METAR LRTZ 301400Z 15010KT 9999 SCT080 BKN200 09/06 Q1004
                        BLU BLU=
201901301500 METAR LRTZ 301500Z 13008KT 9999 SCT070 BKN200 09/07 Q1004
                        BLU BLU=
201901301600 METAR LRTZ 301600Z 15008KT 9999 SCT070 BKN200 07/06 Q1004
                        BLU BLU=
201901301700 METAR LRTZ 301700Z 15008KT 9999 SCT070 BKN150 07/06 Q1004
                        BLU BLU=
201901301800 METAR LRTZ 301800Z 15008KT 9999 BKN150 07/06 Q1004 BLU BLU=
201901301900 METAR LRTZ 301900Z 15008KT 9999 BKN150 07/06 Q1004 BLU BLU=
201901302000 METAR LRTZ 302000Z 15008KT 9999 BKN150 07/06 Q1004 BLU BLU=
201901302100 METAR LRTZ 302100Z 15008KT 9999 BKN100 07/06 Q1004 BLU BLU=
201901302200 METAR LRTZ 302200Z 15008KT 9999 OVC100 07/06 Q1004 BLU BLU=
201901302300 METAR LRTZ 302300Z 16008KT 9999 OVC100 07/06 Q1004 BLU BLU=
201901310000 METAR LRTZ 310000Z 16008KT 9999 OVC100 07/06 Q1003 BLU BLU=
201901310100 METAR LRTZ 310100Z 16008KT 9999 OVC100 07/06 Q1003 BLU BLU=
201901310300 METAR LRTZ 310300Z 16008KT 7000 OVC100 07/06 Q1003 WHY GRN=
201901310400 METAR LRTZ 310400Z 18006KT 8000 OVC150 06/05 Q1002 BLU BLU=
201901310500 METAR LRTZ 310500Z 18006KT 9999 BKN150 06/05 Q1003 BLU BLU=
201901310600 METAR LRTZ 310600Z 210006KT 9999 SCT150 05/04 Q1003 BLU BLU=
201901310700 METAR LRTZ 310700Z 21010KT 9999 BKN060 BKN150 07/06 Q1003
                        BLU BLU=
201901310800 METAR LRTZ 310800Z 18012KT 9999 BKN060 BKN150 09/07 Q1003
                        BLU BLU=
201901310900 METAR LRTZ 310900Z 18012KT 9999 BKN060 BKN120 09/07 Q1004
                        BLU BLU=
201901311000 METAR LRTZ 311000Z 19012KT 9999 FEW025 BKN060 BKN120 11/07
                        Q1004 BLU BLU=
201901311100 METAR LRTZ 311100Z 19012KT 9999 SCT025 BKN150 11/07 Q1003
                        BLU BLU=
201901311200 METAR LRTZ 311200Z 19010KT 9999 SCT025 BKN150 10/07 Q1003
                        BLU BLU=
201901311300 METAR LRTZ 311300Z 18012KT 9999 FEW025 SCT200 11/07 Q1003
                        BLU BLU=
201901311400 METAR LRTZ 311400Z 18012KT 9999 SCT025 BKN200 10/06 Q1003
                        BLU BLU=
201901311500 METAR LRTZ 311500Z 18010KT 9999 FEW025 BKN200 08/06 Q1003
                        BLU BL=
201901311600 METAR LRTZ 311600Z 18008KT 9999 FEW025 BKN200 08/06 Q1003
                        BLU BLU=
201901311800 METAR LRTZ 311800Z 18008KT 9999 BKN100 07/06 Q1003 BLU BLU=
201901311900 METAR LRTZ 311900Z 18008KT 8000 -RA BKN035 BKN090 07/06 Q1004
                        BLU WHT=
201901312000 METAR LRTZ 312000Z 18008KT 8000 -RA BKN035 BKN090 07/06 Q1004
                        BLU WHT=
201901312300 METAR LRTZ 312300Z 24008KT 5000 -RA BR BKN020 OVC040 06/05
                        Q1005 WHT WHT=
