201902010400 METAR LRTZ 010400Z 31014KT 5000 -RA BR FEW005 BKN015 OVC040
                        04/03 Q1007 WHT WHT=
201902010500 METAR LRTZ 010500Z 32016KT 3000 BR BKN040 05/04 Q1008 YLO
                        GRN=
201902010600 METAR LRTZ 010600Z 33016KT 5000 BR BKN080 05/04 Q1008 WHT
                        BLU=
201902010700 METAR LRTZ 010700Z 33016KT 8000 SCT006 OVC080 05/04 Q1009
                        BLU BLU=
201902010800 METAR LRTZ 010800Z 32014G24KT 8000 BKN006 OVC080 05/04 Q1011
                        YLO YLO=
201902010900 METAR LRTZ 010900Z 32018KT 8000 BKN006 OVC080 05/04 Q1012
                        YLO YLO=
201902011000 METAR LRTZ 011000Z 32018KT 8000 BKN006 OVC080 06/04 Q1012
                        YLO YLO=
201902011100 METAR LRTZ 011100Z 33016KT 9999 BKN008 06/04 Q1012 GRN WHT=
201902011200 METAR LRTZ 011200Z 33018KT 9999 SCT008 06/04 Q1012 BLU BLU=
201902011300 METAR LRTZ 011300Z 34014KT 9999 SCT008 07/04 Q1013 BLU BLU=
201902011400 METAR LRTZ 011400Z 35012KT 9999 SCT008 06/04 Q1013 BLU BLU=
201902011500 METAR LRTZ 011500Z 34008KT 8000 FEW007 SCT200 05/03 Q1014
                        BLU WHT=
201902011600 METAR LRTZ 011600Z 01006KT 6000 SCT200 03/02 Q1015 WHT GRN=
201902011700 METAR LRTZ 011700Z 34006KT 4000 BR SCT200 02/02 Q1015 GRN
                        YLO=
201902011800 METAR LRTZ 011800Z 18002KT 0500 FG SKC 01/01 Q1015 RED AMB=
201902011900 METAR LRTZ 011900Z VRB02KT 0200 FZFG SKC M00/M00 Q1016 RED
                        RED=
201902012000 METAR LRTZ 012000Z 26003KT 0200 FG SKC 01/01 Q1016 RED RED=
201902012100 METAR LRTZ 012100Z 24003KT 0100 FG SKC 00/M00 Q1016 RED RED=
201902012200 METAR LRTZ 012200Z 23003KT 0200 FG SCT200 00/M00 Q1016 RED
                        RED=
201902012300 METAR LRTZ 012300Z 21003KT 0200 FG SCT200 01/00 Q1016 RED
                        RED=
201902020400 METAR LRTZ 020400Z 14003KT 0200 FG VV002 01/01 Q1016 RED
                        RED=
201902020500 METAR LRTZ 020500Z 15003KT 0100 FG SCT200 02/02 Q1015 RED
                        RED=
201902020600 METAR LRTZ 020600Z VRB03KT 0100 FG SCT200 01/01 Q1016 RED
                        RED=
201902020700 METAR LRTZ 020700Z 18008KT 2000 BR SCT200 04/03 Q1016 YLO
                        WHT=
201902020800 METAR LRTZ 020800Z 20010KT 9999 BKN200 06/05 Q1016 BLU BLU=
201902020900 METAR LRTZ 020900Z 20010KT 9999 BKN200 08/05 Q1016 BLU BLU=
201902021000 METAR LRTZ 021000Z 17010KT 9999 BKN200 09/05 Q1015 BLU BLU=
201902021100 METAR LRTZ 021100Z 15012KT 9999 BKN200 10/07 Q1015 BLU BLU=
201902021200 METAR LRTZ 021200Z 15014KT 9999 BKN200 10/07 Q1014 BLU BLU=
201902021300 METAR LRTZ 021300Z 15012KT 9999 BKN200 09/07 Q1014 BLU BLU=
201902021400 METAR LRTZ 021400Z 15014KT 9999 BKN200 09/07 Q1014 BLU BLU=
201902021500 METAR LRTZ 021500Z 16010KT 9999 BKN200 08/06 Q1014 BLU BLU=
201902021600 METAR LRTZ 021600Z 15006KT 9999 BKN200 07/05 Q1014 BLU BLU=
201902021700 METAR LRTZ 021700Z 15008KT 9999 BKN200 07/06 Q1014 BLU BLU=
201902021800 METAR LRTZ 021800Z 16008KT 9999 BKN200 06/05 Q1014 BLU BLU=
201902021900 METAR LRTZ 021900Z 18006KT 9999 BKN200 06/05 Q1014 BLU BLU=
201902022000 METAR LRTZ 022000Z 18006KT 9999 BKN200 06/05 Q1014 BLU BLU=
201902022100 METAR LRTZ 022100Z 18006KT 9999 BKN200 06/05 Q1014 BLU BLU=
201902022300 METAR LRTZ 022300Z 18006KT 9999 BKN200 06/05 Q1015 BLU BLU=
201902030400 METAR LRTZ 030400Z 20004KT 6000 SCT200 05/04 Q1014 WHT WHT=
201902030500 METAR LRTZ 030500Z 20006KT 5000 BR SCT200 05/05 Q1014 WHT
                        WHT=
201902030600 METAR LRTZ 030600Z 19004KT 5000 BR BKN200 05/05 Q1014 WHT
                        WHT=
201902030700 METAR LRTZ 030700Z 19008KT 7000 BKN200 07/06 Q1015 WHT BLU=
201902030800 METAR LRTZ 030800Z 18010KT 9999 BKN200 09/08 Q1015 BLU BLU=
201902030900 METAR LRTZ 030900Z 18012KT 9999 BKN200 11/09 Q1015 BLU BLU=
201902031000 METAR LRTZ 031000Z 18012KT 9999 BKN200 13/10 Q1015 BLU BLU=
201902031100 METAR LRTZ 031100Z 18014KT 9999 BKN200 13/10 Q1014 BLU BLU=
201902031200 METAR LRTZ 031200Z 18012KT 9999 BKN200 12/09 Q1014 BLU BLU=
201902031300 METAR LRTZ 031300Z 18012KT 9999 BKN200 12/09 Q1015 BLU BLU=
201902031400 METAR LRTZ 031400Z 18010KT 9999 BKN200 10/08 Q1015 BLU BLU=
201902031500 METAR LRTZ 031500Z 15008KT 9999 FEW100 BKN200 09/07 Q1015
                        BLU BLU=
201902031600 METAR LRTZ 031600Z 16004KT 9999 FEW100 BKN200 08/06 Q1015
                        BLU BLU=
201902031700 METAR LRTZ 031700Z 18008KT 9999 FEW100 SCT200 08/06 Q1015
                        BLU BLU=
201902031800 METAR LRTZ 031800Z 18008KT 9999 FEW100 SCT200 07/06 Q1016
                        BLU BLU=
201902031900 METAR LRTZ 031900Z 18006KT 9999 FEW100 BKN200 07/06 Q1016
                        BLU BLU=
201902032000 METAR LRTZ 032000Z 18006KT 9999 FEW100 BKN200 07/06 Q1016
                        BLU BLU=
201902032100 METAR LRTZ 032100Z 18006KT 9999 SCT100 BKN200 07/06 Q1016
                        BLU BLU=
201902032300 METAR LRTZ 032300Z 19004KT 9999 SCT100 BKN200 06/05 Q1017
                        BLU BLU=
201902040300 METAR LRTZ 040300Z 20004KT 8000 SCT100 BKN200 05/04 Q1018
                        BLU WHT=
201902040400 METAR LRTZ 040400Z 20004KT 6000 SCT200 05/05 Q1018 WHT WHT=
201902040500 METAR LRTZ 040500Z 20004KT 8000 SCT200 04/04 Q1018 BLU BLU=
201902040700 METAR LRTZ 040700Z 19004KT 9999 SCT100 BKN200 08/07 Q1020
                        BLU BLU=
201902040800 METAR LRTZ 040800Z 19006KT 9999 SCT100 BKN200 12/09 Q1020
                        BLU BLU=
201902040900 METAR LRTZ 040900Z 21008KT 9999 BKN200 14/10 Q1020 BLU BLU=
201902041000 METAR LRTZ 041000Z 21008KT 9999 BKN200 15/10 Q1020 BLU BLU=
201902041100 METAR LRTZ 041100Z 27008KT 9999 BKN200 16/10 Q1020 BLU BLU=
201902041200 METAR LRTZ 041200Z 18006KT 9999 BKN200 14/10 Q1020 BLU BLU=
201902041300 METAR LRTZ 041300Z 14006KT 9999 BKN200 16/10 Q1020 BLU BLU=
201902041400 METAR LRTZ 041400Z 14004KT 9999 BKN200 14/09 Q1021 BLU BLU=
201902041500 METAR LRTZ 041500Z VRB03KT 9999 BKN200 11/08 Q1021 BLU BLU=
201902041600 METAR LRTZ 041600Z VRB03KT 9999 BKN200 09/07 Q1021 BLU BLU=
201902041700 METAR LRTZ 041700Z 05006KT 4000 BR BKN200 08/06 Q1022 GRN
                        GRN=
201902041800 METAR LRTZ 041800Z 05006KT 4000 BR SCT200 07/06 Q1022 GRN
                        GRN=
201902041900 METAR LRTZ 041900Z 05006KT 3000 BR SCT200 06/06 Q1022 YLO
                        YLO=
201902042000 METAR LRTZ 042000Z 05006KT 2000 BR SCT200 06/06 Q1023 YLO
                        AMB=
201902042100 METAR LRTZ 042100Z 05006KT 1500 BR SCT200 05/05 Q1023 AMB
                        AMB=
201902042200 METAR LRTZ 042200Z 05006KT 1500 BR SCT200 05/05 Q1023 AMB
                        AMB=
201902042300 METAR LRTZ 042300Z 05006KT 0800 FG BKN005 05/05 Q1024 AMB
                        RED=
201902050000 METAR LRTZ 050000Z 05008KT 0400 FG VV002 05/05 Q1024 RED
                        RED=
201902050400 METAR LRTZ 050400Z 05008KT 0400 FG VV002 06/06 Q1025 RED
                        RED=
201902050500 METAR LRTZ 050500Z 05012KT 0400 FG VV002 06/06 Q1025 RED
                        RED=
201902050600 METAR LRTZ 050600Z 05012KT 0100 FG VV002 06/06 Q1025 RED
                        RED=
201902050800 METAR LRTZ 050800Z 04012KT 0600 FG VV001 06/06 Q1026 RED
                        RED=
201902050900 METAR LRTZ 050900Z 05014KT 0700 FG VV002 06/06 Q1026 RED
                        AMB=
201902051100 METAR LRTZ 051100Z 04014KT 0600 FG VV001 06/06 Q1025 RED
                        RED=
201902051200 METAR LRTZ 051200Z 06014KT 0700 FG VV001 06/06 Q1025 RED
                        RED=
201902051400 METAR LRTZ 051400Z 05014KT 0800 FG VV002 06/05 Q1024 AMB
                        AMB=
201902051500 METAR LRTZ 051500Z 04014KT 2000 BR OVC003 06/05 Q1025 YLO
                        YLO=
201902051600 METAR LRTZ 051600Z 04014KT 4000 BR OVC003 06/05 Q1024 YLO
                        YLO=
201902051700 METAR LRTZ 051700Z 05014KT 4000 BR OVC003 05/04 Q1024 YLO
                        YLO=
201902051800 METAR LRTZ 051800Z 06016KT 1500 BR OVC003 05/04 Q1024 AMB
                        RED=
201902051900 METAR LRTZ 051900Z 06016KT 0800 FG VV001 04/03 Q1024 RED
                        RED=
201902052000 METAR LRTZ 052000Z 06016KT 1000 BR OVC002 03/03 Q1024 AMB
                        AMB=
201902052100 METAR LRTZ 052100Z 06016KT 1000 BR OVC002 03/03 Q1023 AMB
                        AMB=
201902052200 METAR LRTZ 052200Z 06014KT 1000 BR OVC002 03/03 Q1023 AMB
                        AMB=
201902060400 METAR LRTZ 060400Z 06014KT 3000 BR BKN002 OVC004 03/02 Q1020
                        AMB AMB=
201902060500 METAR LRTZ 060500Z 06014KT 4000 BR BKN002 OVC004 03/02 Q1020
                        AMB AMB=
201902060600 METAR LRTZ 060600Z 06014KT 5000 BR BKN003 OVC006 03/02 Q1021
                        YLO YLO=
201902060700 METAR LRTZ 060700Z 06014KT 8000 BKN005 OVC010 03/02 Q1021
                        YLO YLO=
201902060800 METAR LRTZ 060800Z 06014KT 8000 BKN005 OVC010 03/02 Q1021
                        YLO YLO=
201902060900 METAR LRTZ 060900Z 06014KT 7000 BKN005 OVC010 04/02 Q1020
                        YLO YLO=
201902061000 METAR LRTZ 061000Z 06014KT 7000 BKN005 OVC010 03/02 Q1021
                        YLO YLO=
201902061700 METAR LRTZ 061700Z 06016KT 7000 BKN003 OVC008 04/02 Q1021
                        YLO YLO=
201902061800 METAR LRTZ 061800Z 01016KT 6000 BKN003 OVC008 04/02 Q1022
                        YLO YLO=
201902061900 METAR LRTZ 061900Z 01016KT 6000 BKN003 OVC008 04/02 Q1023
                        YLO YLO=
201902062100 METAR LRTZ 062100Z 01018KT 6000 BKN003 OVC008 04/02 Q1023
                        YLO YLO=
201902062200 METAR LRTZ 062200Z 01018KT 6000 BKN003 OVC008 04/02 Q1023
                        YLO YLO=
201902062300 METAR LRTZ 062300Z 01018KT 6000 BKN003 OVC008 04/02 Q1023
                        YLO YLO=
201902070400 METAR LRTZ 070400Z 01020KT 8000 BKN007 OVC030 02/M02 Q1024
                        GRN GRN=
201902070500 METAR LRTZ 070500Z 06020KT 9999 BKN010 OVC030 02/M03 Q1024
                        GRN GRN=
201902070600 METAR LRTZ 070600Z 03020KT 9999 BKN010 OVC030 02/M02 Q1024
                        GRN GRN=
201902070700 METAR LRTZ 070700Z 05016KT 9999 SCT012 BKN018 OVC040 02/M02
                        Q1024 WHT WHT=
201902070800 METAR LRTZ 070800Z 04016KT 9999 SCT012 BKN018 OVC040 03/M01
                        Q1024 WHT WHT=
201902070900 METAR LRTZ 070900Z 05014KT 9999 SCT014 BKN018 BKN100 03/M01
                        Q1023 WHT WHT=
201902071000 METAR LRTZ 071000Z 04012KT 9999 SCT015 BKN020 BKN100 03/M01
                        Q1024 WHT WHT=
201902071100 METAR LRTZ 071100Z 08014KT 9999 SCT015 BKN020 BKN100 03/M01
                        Q1024 WHT WHT=
201902071200 METAR LRTZ 071200Z 04012KT 9999 SCT020 BKN100 BKN200 04/M01
                        Q1023 BLU BLU=
201902071300 METAR LRTZ 071300Z 05014KT 9999 FEW020 BKN100 04/M03 Q1023
                        BLU BLU=
201902071400 METAR LRTZ 071400Z 07014KT 9999 FEW020 BKN100 04/M03 Q1023
                        BLU BLU=
201902071500 METAR LRTZ 071500Z 06014KT 9999 FEW020 BKN100 03/M03 Q1023
                        BLU BLU=
201902071600 METAR LRTZ 071600Z 08012KT 9999 FEW020 BKN100 BKN200 03/M02
                        Q1023 BLU BLU=
201902071700 METAR LRTZ 071700Z 07012KT 9999 FEW020 BKN100 BKN200 03/M02
                        Q1023 BLU BLU=
201902071800 METAR LRTZ 071800Z 05012KT 9999 FEW020 BKN100 BKN200 03/M02
                        Q1022 BLU BLU=
201902071900 METAR LRTZ 071900Z 06012KT 9999 FEW020 OVC100 03/M03 Q1022
                        BLU BLU=
201902072000 METAR LRTZ 072000Z 05012KT 9999 FEW020 OVC100 03/M02 Q1022
                        BLU BLU=
201902072100 METAR LRTZ 072100Z 07010KT 9999 FEW020 OVC100 02/M02 Q1022
                        BLU BLU=
201902072300 METAR LRTZ 072300Z 05010KT 9999 SCT020 OVC100 03/M02 Q1023
                        BLU BLU=
201902080400 METAR LRTZ 080400Z 04010KT 9999 OVC020 02/M02 Q1021 WHT WHT=
201902080500 METAR LRTZ 080500Z 02008KT 9999 OVC025 02/M02 Q1021 BLU BLU=
201902080600 METAR LRTZ 080600Z 03008KT 9999 OVC025 02/M01 Q1021 BLU BLU=
201902080700 METAR LRTZ 080700Z 03010KT 9999 OVC030 02/M01 Q1021 BLU BLU=
201902080800 METAR LRTZ 080800Z 03012KT 9999 BKN030 OVC090 03/M01 Q1021
                        BLU BLU=
201902081000 METAR LRTZ 081000Z 03012KT 9999 OVC030 03/M01 Q1022 BLU BLU=
201902081100 METAR LRTZ 081100Z 03012KT 9999 OVC030 03/M01 Q1021 BLU BLU=
201902081200 METAR LRTZ 081200Z 03012KT 9999 SCT015 OVC030 03/M01 Q1021
                        BLU BLU=
201902081300 METAR LRTZ 081300Z 03012KT 9999 SCT015 OVC030 03/M01 Q1021
                        BLU BLU=
201902081400 METAR LRTZ 081400Z 03012KT 9999 SCT015 OVC030 03/M01 Q1021
                        BLU BLU=
201902081500 METAR LRTZ 081500Z 03012KT 9999 SCT015 OVC030 03/M01 Q1021
                        BLU BLU=
201902081600 METAR LRTZ 081600Z 03010KT 9999 SCT015 OVC025 03/M01 Q1022
                        BLU BLU=
201902081700 METAR LRTZ 081700Z 03010KT 9999 SCT015 OVC025 02/M02 Q1022
                        BLU BLU=
201902081800 METAR LRTZ 081800Z 03008KT 9999 FEW015 OVC025 02/M02 Q1022
                        BLU BLU=
201902081900 METAR LRTZ 081900Z 03008KT 9999 OVC025 02/M02 Q1022 BLU BLU=
201902082000 METAR LRTZ 082000Z 03008KT 9999 BKN020 OVC025 02/M02 Q1022
                        WHT WHT=
201902082100 METAR LRTZ 082100Z 03008KT 9999 BKN020 OVC025 02/M02 Q1022
                        WHT WHT=
201902082300 METAR LRTZ 082300Z 03008KT 9999 OVC025 02/M02 Q1023 BLU BLU=
201902090300 METAR LRTZ 090300Z 33010KT 9999 BKN015 OVC025 00/M02 Q1023
                        WHT WHT=
201902090400 METAR LRTZ 090400Z 01006KT 9999 OVC030 00/M04 Q1022 BLU BLU=
201902090500 METAR LRTZ 090500Z VRB04KT 9999 OVC030 00/M04 Q1022 BLU BLU=
201902090600 METAR LRTZ 090600Z VRB04KT 9999 OVC030 M00/M04 Q1023 BLU
                        BLU=
201902090700 METAR LRTZ 090700Z 36006KT 9999 OVC030 00/M04 Q1023 BLU BLU=
201902090800 METAR LRTZ 090800Z 02008KT 9999 OVC030 01/M04 Q1023 BLU BLU=
201902090900 METAR LRTZ 090900Z 03006KT 9999 OVC030 02/M05 Q1023 BLU BLU=
201902091000 METAR LRTZ 091000Z 02004KT 9999 OVC035 02/M05 Q1023 BLU BLU=
201902091100 METAR LRTZ 091100Z 02004KT 9999 BKN035 03/M05 Q1022 BLU BLU=
201902091300 METAR LRTZ 091300Z 06004KT 9999 BKN030 03/M04 Q1021 BLU BLU=
201902091400 METAR LRTZ 091400Z 09006KT 9999 SCT030 02/M04 Q1021 BLU BLU=
201902091500 METAR LRTZ 091500Z 12004KT 9999 SCT030 01/M04 Q1021 BLU BLU=
201902091600 METAR LRTZ 091600Z 15004KT 9999 BKN035 00/M04 Q1021 BLU BLU=
201902091700 METAR LRTZ 091700Z VRB02KT 9999 BKN035 01/M03 Q1022 BLU BLU=
201902091800 METAR LRTZ 091800Z VRB03KT 9999 OVC035 01/M03 Q1022 BLU BLU=
201902091900 METAR LRTZ 091900Z 18004KT 9999 BKN035 02/M02 Q1022 BLU BLU=
201902092000 METAR LRTZ 092000Z VRB03KT 9999 SCT035 00/M02 Q1022 BLU BLU=
201902092100 METAR LRTZ 092100Z VRB03KT 9999 FEW035 SCT200 00/M02 Q1021
                        BLU BLU=
201902092200 METAR LRTZ 092200Z VRB02KT 9999 FEW035 SCT200 M00/M02 Q1021
                        BLU BLU=
201902092300 METAR LRTZ 092300Z VRB02KT 9999 SCT200 M00/M02 Q1021 BLU
                        BLU=
201902100400 METAR LRTZ 100400Z 00000KT 6000 FEW200 M02/M03 Q1021 WHT
                        WHT=
201902100500 METAR LRTZ 100500Z VRB03KT 8000 SCT200 M03/M04 Q1021 BLU
                        BLU=
201902100600 METAR LRTZ 100600Z VRB03KT 9999 BKN035 M00/M03 Q1022 BLU
                        BLU=
201902100700 METAR LRTZ 100700Z VRB03KT 9999 SCT035 00/M02 Q1022 BLU BLU=
201902100800 METAR LRTZ 100800Z VRB03KT 9999 FEW200 03/M01 Q1022 BLU BLU=
201902100900 METAR LRTZ 100900Z VRB03KT 9999 FEW200 06/M01 Q1022 BLU BLU=
201902101000 METAR LRTZ 101000Z VRB03KT 9999 FEW200 06/M01 Q1022 BLU BLU=
201902101100 METAR LRTZ 101100Z 18006KT 9999 SCT030 07/M01 Q1021 BLU BLU=
201902101200 METAR LRTZ 101200Z 16008KT 9999 FEW030 06/M00 Q1020 BLU BLU=
201902101300 METAR LRTZ 101300Z 16010KT 9999 FEW030 07/01 Q1020 BLU BLU=
201902101400 METAR LRTZ 101400Z 16010KT 9999 FEW030 06/02 Q1020 BLU BLU=
201902101500 METAR LRTZ 101500Z 16010KT 9999 FEW030 05/02 Q1020 BLU BLU=
201902101600 METAR LRTZ 101600Z 16010KT 9999 FEW100 04/00 Q1020 BLU BLU=
201902101700 METAR LRTZ 101700Z 16008KT 9999 FEW200 04/01 Q1019 BLU BLU=
201902101800 METAR LRTZ 101800Z 16006KT 7000 FEW200 02/01 Q1019 WHT GRN=
201902101900 METAR LRTZ 101900Z 19006KT 5000 BR FEW200 01/00 Q1019 WHT
                        WHT=
201902102000 METAR LRTZ 102000Z 19006KT 3500 BR SKC 01/M00 Q1018 YLO YLO=
201902102100 METAR LRTZ 102100Z VRB03KT 3500 BR SKC 01/M00 Q1018 YLO YLO=
201902102200 METAR LRTZ 102200Z VRB03KT 3500 BR SKC 01/M00 Q1018 YLO YLO=
201902102300 METAR LRTZ 102300Z VRB03KT 3500 BR SKC 01/M00 Q1017 YLO YLO=
201902110400 METAR LRTZ 110400Z 18008KT 2000 BR SCT200 02/01 Q1014 YLO
                        YLO=
201902110500 METAR LRTZ 110500Z 18008KT 4000 BR BKN200 03/01 Q1013 GRN
                        WHT=
201902110800 METAR LRTZ 110800Z 18010KT 8000 BKN200 07/04 Q1012 BLU BLU=
201902110900 METAR LRTZ 110900Z 18010KT 8000 BKN200 08/04 Q1012 BLU BLU=
201902111000 METAR LRTZ 111000Z 18010KT 9999 BKN200 10/05 Q1011 BLU BLU=
201902111100 METAR LRTZ 111100Z 20010KT 9999 BKN200 10/04 Q1010 BLU BLU=
201902111200 METAR LRTZ 111200Z 20010KT 9999 BKN200 09/05 Q1009 BLU BLU=
201902111300 METAR LRTZ 111300Z 20010KT 9999 BKN200 09/05 Q1008 BLU BLU=
201902111400 METAR LRTZ 111400Z 20010KT 9999 BKN200 09/05 Q1008 BLU BLU=
201902111500 METAR LRTZ 111500Z 20010KT 9999 BKN200 08/05 Q1008 BLU BLU=
201902111600 METAR LRTZ 111600Z 20010KT 7000 BKN200 08/05 Q1008 WHT WHT=
201902111700 METAR LRTZ 111700Z 20010KT 7000 FEW100 BKN200 08/05 Q1008
                        WHT WHT=
201902111800 METAR LRTZ 111800Z 20010KT 6000 SCT100 BKN200 06/04 Q1008
                        WHT WHT=
201902111900 METAR LRTZ 111900Z 20010KT 5000 BR SCT100 BKN200 06/04 Q1007
                        WHT WHT=
201902112000 METAR LRTZ 112000Z 20010KT 5000 BR SCT100 BKN200 05/04 Q1007
                        WHT WHT=
201902112100 METAR LRTZ 112100Z 20010KT 5000 BR SCT100 BKN200 05/04 Q1007
                        WHT WHT=
201902112300 METAR LRTZ 112300Z 20010KT 5000 BR SCT100 BKN200 05/04 Q1006
                        WHT WHT=
201902120300 METAR LRTZ 120300Z 20010KT 5000 BR SCT050 BKN090 05/04 Q1004
                        WHT WHT=
201902120400 METAR LRTZ 120400Z 20010KT 7000 SCT050 BKN090 07/05 Q1004
                        WHT WHT=
201902120500 METAR LRTZ 120500Z 25010KT 7000 SCT050 BKN090 07/05 Q1004
                        WHT WHT=
201902120600 METAR LRTZ 120600Z 27010KT 9999 SCT040 BKN090 08/05 Q1005
                        BLU BLU=
201902120700 METAR LRTZ 120700Z 29008KT 7000 -RA BKN020 OVC045 08/05 Q1006
                        WHT WHT=
201902120800 METAR LRTZ 120800Z 31018KT 5000 -RA BR SCT010 BKN020 OVC040
                        06/05 Q1007 WHT GRN=
201902121000 METAR LRTZ 121000Z 30015G25KT 9999 FEW008 SCT020 OVC080 06/03
                        Q1007 BLU BLU=
201902121100 METAR LRTZ 121100Z 30018KT 9999 FEW010 SCT030 BKN090 06/03
                        Q1007 BLU BLU=
201902121200 METAR LRTZ 121200Z 30018KT 9999 SCT020 OVC100 06/03 Q1008
                        BLU BLU=
201902121300 METAR LRTZ 121300Z 31016KT 9999 SCT024 OVC100 05/03 Q1008
                        BLU BLU=
201902121400 METAR LRTZ 121400Z 31014KT 9999 FEW012 BKN023 OVC100 05/02
                        Q1010 WHT WHT=
201902121500 METAR LRTZ 121500Z 33012KT 9999 BKN010 BKN030 OVC100 04/02
                        Q1011 GRN GRN=
201902121600 METAR LRTZ 121600Z 31016KT 9999 BKN010 BKN020 OVC100 04/02
                        Q1012 GRN GRN=
201902121700 METAR LRTZ 121700Z 33014KT 9999 BKN010 BKN020 OVC100 03/02
                        Q1012 GRN GRN=
201902121800 METAR LRTZ 121800Z 33014KT 9999 BKN010 BKN020 OVC100 03/01
                        Q1014 GRN GRN=
201902121900 METAR LRTZ 121900Z 34012KT 9999 FEW010 SCT020 OVC100 04/01
                        Q1016 BLU BLU=
201902122000 METAR LRTZ 122000Z 36016KT 9999 FEW010 SCT020 BKN090 04/01
                        Q1017 BLU BLU=
201902122100 METAR LRTZ 122100Z 35012KT 9999 SCT020 BKN090 04/01 Q1017
                        BLU BLU=
201902122200 METAR LRTZ 122200Z 34012KT 9999 SCT020 BKN080 03/01 Q1018
                        BLU BLU=
201902122300 METAR LRTZ 122300Z 36012KT 9999 SCT020 BKN080 03/01 Q1018
                        BLU BLU=
201902130400 METAR LRTZ 130400Z 36010KT 9999 SCT025 BKN100 00/M02 Q1023
                        BLU BLU=
201902130500 METAR LRTZ 130500Z 36010KT 9999 SCT030 BKN100 00/M02 Q1024
                        BLU BLU=
201902130700 METAR LRTZ 130700Z 02014KT 9999 FEW040 BKN140 02/M03 Q1026
                        BLU BLU=
201902130800 METAR LRTZ 130800Z 03016KT 9999 FEW100 BKN180 03/M03 Q1027
                        BLU BLU=
201902130900 METAR LRTZ 130900Z 03016KT 9999 FEW030 BKN160 03/M01 Q1027
                        BLU BLU=
201902131000 METAR LRTZ 131000Z 03014KT 9999 FEW030 BKN160 04/M01 Q1027
                        BLU BLU=
201902131100 METAR LRTZ 131100Z 03016KT 9999 FEW030 BKN160 05/M02 Q1027
                        BLU BLU=
201902131200 METAR LRTZ 131200Z 06014KT 9999 SCT025 BKN160 06/M01 Q1028
                        BLU BLU=
201902131300 METAR LRTZ 131300Z 04014KT 9999 SCT030 BKN160 06/M02 Q1028
                        BLU BLU=
201902131400 METAR LRTZ 131400Z 04014KT 9999 BKN035 BKN160 05/M02 Q1028
                        BLU BLU=
201902131500 METAR LRTZ 131500Z 01014KT 9999 FEW050 SCT200 05/M02 Q1028
                        BLU BLU=
201902131600 METAR LRTZ 131600Z 02010KT 9999 SCT035 SCT200 03/M03 Q1029
                        BLU BLU=
201902131700 METAR LRTZ 131700Z 01006KT 9999 FEW035 02/M03 Q1030 BLU BLU=
201902131800 METAR LRTZ 131800Z 01006KT 9999 FEW035 00/M04 Q1030 BLU BLU=
201902131900 METAR LRTZ 131900Z 33006KT 9999 FEW200 M01/M04 Q1030 BLU
                        BLU=
201902132000 METAR LRTZ 132000Z 34004KT 9999 FEW200 M01/M04 Q1030 BLU
                        BLU=
201902132100 METAR LRTZ 132100Z 34004KT 9999 FEW200 M01/M04 Q1030 BLU
                        BLU=
201902132300 METAR LRTZ 132300Z 33004KT 9999 SCT200 M02/M04 Q1031 BLU
                        BLU=
201902140400 METAR LRTZ 140400Z 32008KT 8000 SCT075 M03/M04 Q1028 BLU
                        BLU=
201902140500 METAR LRTZ 140500Z 32010KT 7000 SCT050 BKN080 M02/M03 Q1027
                        WHT BLU=
201902140600 METAR LRTZ 140600Z 32010KT 9999 SCT030 OVC050 M00/M02 Q1027
                        BLU BLU=
201902140700 METAR LRTZ 140700Z 32010KT 9999 SCT030 OVC050 00/M02 Q1027
                        BLU BLU=
201902140800 METAR LRTZ 140800Z 32012KT 9999 SCT030 OVC050 02/M01 Q1027
                        BLU BLU=
201902140900 METAR LRTZ 140900Z 32012KT 9999 SCT030 OVC050 02/M02 Q1027
                        BLU BLU=
201902141000 METAR LRTZ 141000Z 32014KT 9999 SCT030 OVC070 03/M02 Q1026
                        BLU BLU=
201902141100 METAR LRTZ 141100Z 32014KT 9999 SCT030 OVC070 03/M02 Q1026
                        BLU BLU=
201902141200 METAR LRTZ 141200Z 32014KT 9999 SCT030 OVC070 03/M02 Q1025
                        BLU BLU=
201902141300 METAR LRTZ 141300Z 32014KT 9999 -RA SCT020 OVC030 02/M01
                        Q1025 BLU WHT=
201902141400 METAR LRTZ 141400Z 32014KT 5000 -RA BR BKN015 OVC020 02/01
                        Q1025 WHT WHT=
201902141500 METAR LRTZ 141500Z 32014KT 5000 -RA BR BKN015 OVC025 02/01
                        Q1025 WHT WHT=
201902141600 METAR LRTZ 141600Z 32010KT 8000 BKN015 OVC025 02/01 Q1025
                        WHT WHT=
201902141700 METAR LRTZ 141700Z 32012KT 8000 SCT015 BKN030 OVC060 03/02
                        Q1025 BLU BLU=
201902141800 METAR LRTZ 141800Z 32012KT 8000 SCT017 BKN030 OVC060 03/02
                        Q1024 BLU BLU=
201902141900 METAR LRTZ 141900Z 32012KT 8000 SCT017 BKN030 OVC060 03/02
                        Q1024 BLU BLU=
201902142000 METAR LRTZ 142000Z 32012KT 6000 BKN015 OVC030 03/02 Q1024
                        WHT WHT=
201902142100 METAR LRTZ 142100Z 34012KT 6000 BKN015 OVC030 03/02 Q1024
                        WHT WHT=
201902142200 METAR LRTZ 142200Z 34012KT 6000 BKN015 OVC030 03/02 Q1024
                        WHT WHT=
201902142300 METAR LRTZ 142300Z 34012KT 6000 BKN015 OVC030 03/02 Q1025
                        WHT WHT=
201902150400 METAR LRTZ 150400Z 34012KT 7000 BKN025 OVC050 03/02 Q1026
                        WHT WHT=
201902150500 METAR LRTZ 150500Z 03012KT 7000 BKN025 OVC050 03/02 Q1026
                        WHT WHT=
201902150600 METAR LRTZ 150600Z 03012KT 9999 SCT030 OVC060 03/02 Q1027
                        BLU BLU=
201902150700 METAR LRTZ 150700Z 03012KT 9999 BKN030 OVC060 03/01 Q1028
                        BLU BLU=
201902150800 METAR LRTZ 150800Z 03012KT 9999 BKN030 OVC060 03/01 Q1028
                        BLU BLU=
201902150900 METAR LRTZ 150900Z 05016KT 9999 SCT014 SCT022 BKN060 04/01
                        Q1029 BLU BLU=
201902151000 METAR LRTZ 151000Z 04016KT 9999 SCT013 BKN027 04/01 Q1029
                        BLU BLU=
201902151100 METAR LRTZ 151100Z 04016KT 9999 BKN027 04/01 Q1029 BLU BLU=
201902151300 METAR LRTZ 151300Z 07014KT 9999 SCT027 05M/02 Q1028 BLU BLU=
201902151500 METAR LRTZ 151500Z 06014KT 9999 FEW030 05/M01 Q1028 BLU BLU=
201902151600 METAR LRTZ 151600Z 04008KT 9999 SCT100 03/M01 Q1029 BLU BLU=
201902151700 METAR LRTZ 151700Z 04008KT 9999 FEW050 SCT100 03/M01 Q1029
                        BLU BLU=
201902151800 METAR LRTZ 151800Z 03004KT 9999 SCT0400 SCT100 03/M01 Q1030
                        BLU BLU=
201902151900 METAR LRTZ 151900Z 02004KT 9999 BKN040 03/M00 Q1030 BLU BLU=
201902152000 METAR LRTZ 152000Z 02004KT 8000 BKN040 03/00 Q1030 BLU WHT=
201902152100 METAR LRTZ 152100Z 02004KT 8000 BKN040 03/00 Q1030 BLU WHT=
201902152200 METAR LRTZ 152200Z 02004KT 6000 BKN040 02/00 Q1030 WHT WHT=
201902152300 METAR LRTZ 152300Z 01004KT 6000 BKN040 02/00 Q1030 WHT WHT=
201902160400 METAR LRTZ 160400Z 35008KT 8000 OVC030 02/M00 Q1030 BLU WHT=
201902160500 METAR LRTZ 160500Z 34008KT 9999 OVC030 02/M01 Q1029 BLU BLU=
201902160600 METAR LRTZ 160600Z 35008KT 9999 OVC030 02/M01 Q1029 BLU BLU=
201902160700 METAR LRTZ 160700Z 33012KT 9999 OVC030 03/M00 Q1030 BLU BLU=
201902160800 METAR LRTZ 160800Z 34014KT 9999 OVC030 04/00 Q1030 BLU BLU=
201902160900 METAR LRTZ 160900Z 34016KT 9999 OVC030 05/00 Q1030 BLU BLU=
201902161000 METAR LRTZ 161000Z 34016KT 9999 BKN020 OVC030 04/M01 Q1030
                        WHT WHT=
201902161100 METAR LRTZ 161100Z 34016KT 9999 BKN020 OVC030 04/M01 Q1030
                        WHT WHT=
201902161200 METAR LRTZ 161200Z 01010KT 9999 BKN020 OVC030 06/M01 Q1029
                        WHT WHT=
201902161300 METAR LRTZ 161300Z 34010KT 9999 OVC030 06/M00 Q1028 BLU BLU=
201902161400 METAR LRTZ 161400Z 35012KT 9999 OVC030 06/01 Q1028 BLU BLU=
201902161500 METAR LRTZ 161500Z 35008KT 9999 OVC030 06/01 Q1028 BLU BLU=
201902161700 METAR LRTZ 161700Z VRB04KT 9999 OVC040 05/01 Q1028 BLU BLU=
201902161800 METAR LRTZ 161800Z VRB03KT 9999 OVC040 04/01 Q1028 BLU BLU=
201902161900 METAR LRTZ 161900Z VRB03KT 9999 BKN040 03/01 Q1028 BLU BLU=
201902162000 METAR LRTZ 162000Z VRB03KT 9999 SCT040 02/00 Q1028 BLU BLU=
201902162100 METAR LRTZ 162100Z VRB03KT 9999 SCT040 02/M00 Q1028 BLU BLU=
201902162300 METAR LRTZ 162300Z VRB03KT 9999 FEW040 01/M00 Q1028 BLU BLU=
201902170400 METAR LRTZ 170400Z 330006KT 9999 SKC M00/M02 Q1026 BLU BLU=
201902170500 METAR LRTZ 170500Z 33008KT 9999 SKC M00/M02 Q1026 BLU BLU=
201902170600 METAR LRTZ 170600Z 310010KT 9999 SKC 01/M01 Q1026 BLU BLU=
201902170700 METAR LRTZ 170700Z 310010KT 9999 SKC 03/01 Q1027 BLU BLU=
201902170800 METAR LRTZ 170800Z 32010KT 9999 SKC 05/01 Q1026 BLU BLU=
201902170900 METAR LRTZ 170900Z 32010KT 9999 SKC 08/02 Q1026 BLU BLU=
201902171000 METAR LRTZ 171000Z 32010KT 9999 SKC 10/03 Q1026 BLU BLU=
201902171100 METAR LRTZ 171100Z 33010KT 9999 SKC 12/03 Q1025 BLU BLU=
201902171200 METAR LRTZ 171200Z 33010KT 9999 SKC 13/03 Q1024 BLU BLU=
201902171300 METAR LRTZ 171300Z 33010KT 9999 SKC 13/03 Q1024 BLU BLU=
201902171400 METAR LRTZ 171400Z 33010KT 9999 SKC 13/03 Q1024 BLU BLU=
201902171500 METAR LRTZ 171500Z 33010KT 9999 SKC 12/03 Q1023 BLU BLU=
201902171600 METAR LRTZ 171600Z 33010KT 9999 SKC 09/02 Q1023 BLU BLU=
201902171700 METAR LRTZ 171700Z 31010KT 9999 SKC 07/02 Q1023 BLU BLU=
201902171800 METAR LRTZ 171800Z 29010KT 9999 SKC 04/01 Q1023 BLU BLU=
201902172300 METAR LRTZ 172300Z 27010KT 9999 SKC 05/02 Q1023 BLU BLU=
201902180400 METAR LRTZ 180400Z 30010KT 9999 SKC 03/01 Q1023 BLU BLU=
201902180500 METAR LRTZ 180500Z 30010KT 9999 SKC 02/00 Q1023 BLU BLU=
201902180600 METAR LRTZ 180600Z 30010KT 9999 SKC 03/01 Q1023 BLU BLU=
201902180700 METAR LRTZ 180700Z 33010KT 8000 FEW200 05/02 Q1024 BLU BLU=
201902180800 METAR LRTZ 180800Z 32012KT 8000 SKC 09/04 Q1024 BLU BLU=
201902180900 METAR LRTZ 180900Z 34012KT 9999 SKC 13/03 Q1024 BLU BLU=
201902181000 METAR LRTZ 181000Z 02012KT 9999 SKC 13/02 Q1024 BLU BLU=
201902181100 METAR LRTZ 181100Z 02012KT 9999 SKC 13/03 Q1024 BLU BLU=
201902181200 METAR LRTZ 181200Z 06012KT 9999 SKC 11/03 Q1024 BLU BLU=
201902181300 METAR LRTZ 181300Z 07012KT 9999 SKC 10/02 Q1024 BLU BLU=
201902181400 METAR LRTZ 181400Z 08010KT 9999 SKC 10/02 Q1023 BLU BLU=
201902181500 METAR LRTZ 181500Z 09006KT 9999 SKC 09/02 Q1023 BLU BLU=
201902181600 METAR LRTZ 181600Z 12004KT 9999 SKC 06/02 Q1023 BLU BLU=
201902181700 METAR LRTZ 181700Z 15004KT 9999 SKC 04/01 Q1024 BLU WHT=
201902181800 METAR LRTZ 181800Z VRB02KT 7000 SKC 03/M00 Q1024 WHT WHT=
201902181900 METAR LRTZ 181900Z VRB02KT 7000 SKC 03/01 Q1024 WHT WHT=
201902182000 METAR LRTZ 182000Z VRB02KT 5000 BR SKC 02/00 Q1024 WHT WHT=
201902182100 METAR LRTZ 182100Z VRB02KT 5000 BR SKC 02/00 Q1024 WHT WHT=
201902182300 METAR LRTZ 182300Z VRB02KT 4000 BR SKC 02/00 Q1024 GRN GRN=
201902190400 METAR LRTZ 190400Z VRB02KT 0200 FG SKC 01/01 Q1024 RED RED=
201902190500 METAR LRTZ 190500Z VRB02KT 0100 FG SKC 00/00 Q1024 RED RED=
201902190600 METAR LRTZ 190600Z VRB02KT 0200 FG SKC 02/01 Q1024 RED YLO=
201902190700 METAR LRTZ 190700Z VRB04KT 0800 FG SKC 04/04 Q1025 AMB YLO=
201902190800 METAR LRTZ 190800Z 14004KT 0100 FG VV001 06/06 Q1025 RED
                        AMB=
201902190900 METAR LRTZ 190900Z 18010KT 8000 FEW001 09/07 Q1025 BLU BLU=
201902191000 METAR LRTZ 191000Z 16012KT 9999 FEW025 09/05 Q1024 BLU BLU=
201902191100 METAR LRTZ 191100Z 16012KT 9999 FEW200 09/05 Q1024 BLU BLU=
201902191200 METAR LRTZ 191200Z 16014KT 9999 FEW200 09/04 Q1023 BLU BLU=
201902191300 METAR LRTZ 191300Z 14016KT 9999 SCT200 09/05 Q1023 BLU BLU=
201902191400 METAR LRTZ 191400Z 14014KT 9999 FEW015 SCT200 09/05 Q1023
                        BLU BLU=
201902191500 METAR LRTZ 191500Z 16014KT 9999 FEW200 08/05 Q1022 BLU BLU=
201902191600 METAR LRTZ 191600Z 16012KT 9999 SKC 07/04 Q1022 BLU BLU=
201902191700 METAR LRTZ 191700Z 16010KT 9999 SKC 06/04 Q1022 BLU BLU=
201902191800 METAR LRTZ 191800Z 16010KT 9999 SKC 05/04 Q1022 BLU BLU=
201902191900 METAR LRTZ 191900Z 16010KT 9999 SKC 05/03 Q1021 BLU BLU=
201902192000 METAR LRTZ 192000Z 18008KT 9999 SKC 04/03 Q1021 BLU BLU=
201902192100 METAR LRTZ 192100Z 18008KT 9999 SKC 04/03 Q1021 BLU BLU=
201902192200 METAR LRTZ 192200Z 18008KT 8000 FEW010 04/03 Q1020 BLU WHT=
201902192300 METAR LRTZ 192300Z 18008KT 7000 FEW010 04/02 Q1020 WHT WHT=
201902200200 METAR LRTZ 200200Z 20010KT 4000 BR BKN010 03/02 Q1019 GRN
                        GRN=
201902200400 METAR LRTZ 200400Z 21010KT 4000 BR BKN010 02/02 Q1017 GRN
                        GRN=
201902200500 METAR LRTZ 200500Z 21012KT 0200 FG VV001 04/03 Q1017 RED
                        RED=
201902200600 METAR LRTZ 200600Z 20010KT 0200 FG VV001 04/03 Q1017 RED
                        RED=
201902200700 METAR LRTZ 200700Z 20010KT 0200 FG VV001 04/04 Q1017 RED
                        RED=
201902200800 METAR LRTZ 200800Z 20010KT 8000 07/06 Q1017 BLU BLU=
201902200900 METAR LRTZ 200900Z 20010KT 9999 SKC 11/06 Q1017 BLU BLU=
201902201000 METAR LRTZ 201000Z 20010KT 9999 SKC 14/05 Q1017 BLU BLU=
201902201100 METAR LRTZ 201100Z 27010KT 9999 SKC 15/04 Q1017 BLU BLU=
201902201200 METAR LRTZ 201200Z 28012KT 9999 SKC 16/02 Q1016 BLU BLU=
201902201300 METAR LRTZ 201300Z 28012KT 9999 SKC 16/02 Q1015 BLU BLU=
201902201400 METAR LRTZ 201400Z 29012KT 9999 SKC 15/03 Q1015 BLU BLU=
201902201500 METAR LRTZ 201500Z 29012KT 9999 SKC 14/03 Q1016 BLU BLU=
201902201600 METAR LRTZ 201600Z 30010KT 9999 SKC 11/03 Q1016 BLU BLU=
201902201700 METAR LRTZ 201700Z 33010KT 8000 SKC 09/03 Q1017 BLU BLU=
201902201800 METAR LRTZ 201800Z 33010KT 8000 SKC 09/02 Q1017 BLU BLU=
201902201900 METAR LRTZ 201900Z 33010KT 9999 SKC 08/02 Q1018 BLU BLU=
201902202000 METAR LRTZ 202000Z 33010KT 9999 SKC 07/02 Q1018 BLU BLU=
201902202100 METAR LRTZ 202100Z 33010KT 9999 SKC 07/02 Q1019 BLU BLU=
201902202200 METAR LRTZ 202200Z 33010KT 9999 SKC 06/02 Q1019 BLU BLU=
201902202300 METAR LRTZ 202300Z 33010KT 9999 SKC 06/02 Q1019 BLU BLU=
201902210400 METAR LRTZ 210400Z 33008KT 9999 SCT100 04/01 Q1022 BLU BLU=
201902210500 METAR LRTZ 210500Z VRB04KT 9999 SCT100 04/01 Q1022 BLU BLU=
201902210700 METAR LRTZ 210700Z VRB03KT 9999 SCT100 06/01 Q1024 BLU BLU=
201902210800 METAR LRTZ 210800Z 36006KT 9999 FEW200 09/00 Q1024 BLU BLU=
201902210900 METAR LRTZ 210900Z 34010KT 9999 SKC 10/M01 Q1024 BLU BLU=
201902211000 METAR LRTZ 211000Z 36010KT 9999 SCT040 12/M01 Q1024 BLU BLU=
201902211100 METAR LRTZ 211100Z 34010KT 9999 SCT040 12/M02 Q1023 BLU BLU=
201902211200 METAR LRTZ 211200Z 34012KT 9999 FEW030 SCT200 12/M02 Q1023
                        BLU BLU=
201902211300 METAR LRTZ 211300Z 34014KT 9999 FEW050 SCT200 13/M03 Q1023
                        BLU BLU=
201902211400 METAR LRTZ 211400Z 34014KT 9999 BKN030 12/M03 Q1023 BLU BLU=
201902211500 METAR LRTZ 211500Z 32010KT 9999 FEW030 BKN060 12/M02 Q1022
                        BLU BLU=
201902211600 METAR LRTZ 211600Z 29008KT 9999 FEW060 SCT200 09/M02 Q1022
                        BLU BLU=
201902211700 METAR LRTZ 211700Z VRB03KT 9999 FEW060 SCT200 06/M02 Q1023
                        BLU BLU=
201902211800 METAR LRTZ 211800Z VRB03KT 9999 FEW060 BKN200 06/M02 Q1022
                        BLU BLU=
201902211900 METAR LRTZ 211900Z 27006KT 9999 FEW060 BKN200 05/M02 Q1022
                        BLU BLU=
201902212000 METAR LRTZ 212000Z 27006KT 9999 BKN070 05/M02 Q1022 BLU BLU=
201902212100 METAR LRTZ 212100Z 27006KT 9999 BKN070 05/M02 Q1022 BLU BLU=
201902212200 METAR LRTZ 212200Z 27006KT 9999 BKN070 05/M02 Q1021 BLU BLU=
201902212300 METAR LRTZ 212300Z 27006KT 9999 BKN070 05/M02 Q1021 BLU BLU=
201902220400 METAR LRTZ 220400Z 29010KT 9999 FEW040 BKN100 03/M01 Q1018
                        BLU BLU=
201902220500 METAR LRTZ 220500Z 29010KT 9999 BKN200 03/M02 Q1018 BLU BLU=
201902220600 METAR LRTZ 220600Z 29010KT 9999 OVC200 04/M01 Q1016 BLU BLU=
201902220700 METAR LRTZ 220700Z 27010KT 9999 BKN100 BKN200 06/M01 Q1016
                        BLU BLU=
201902220800 METAR LRTZ 220800Z 30010KT 9999 BKN100 BKN200 07/M00 Q1016
                        BLU BLU=
201902220900 METAR LRTZ 220900Z 28012KT 9999 SCT100 OVC200 09/M01 Q1015
                        BLU BLU=
201902221000 METAR LRTZ 221000Z 30012KT 9999 SCT100 BKN200 09/M01 Q1014
                        BLU BLU=
201902221100 METAR LRTZ 221100Z 30012KT 9999 BKN100 10/M02 Q1013 BLU BLU=
201902221300 METAR LRTZ 221300Z 04014KT 9999 FEW025 SCT045 OVC090 07/M00
                        Q1013 BLU BLU=
201902221400 METAR LRTZ 221400Z 02012KT 9999 -DZ SCT025 BKN040 OVC080
                        06/01 Q1014 BLU BLU=
201902221500 METAR LRTZ 221500Z 35010KT 5000 -RA BR SCT011 BKN018 OVC040
                        04/02 Q1014 WHT WHT=
201902221600 METAR LRTZ 221600Z 01010KT 5000 -RA BR BKN010 BKN018 OVC040
                        04/03 Q1015 GRN GRN=
201902221700 METAR LRTZ 221700Z 04018G28KT 2500 -RASN BR SCT004 BKN009
                        OVC020 01/M00 Q1017 YLO YLO=
201902221800 METAR LRTZ 221800Z 04018G28KT 2500 -RASN BR SCT004 BKN009
                        OVC020 01/M00 Q1017 YLO YLO=
201902221900 METAR LRTZ 221900Z 06022G32KT 3000 -SN BR SCT004 BKN009 OVC020
                        M01/M04 Q1020 YLO YLO=
201902222000 METAR LRTZ 222000Z 04022G32KT 3000 -SN BR SCT006 BKN014 OVC020
                        M02/M04 Q1021 YLO GRN=
201902222100 METAR LRTZ 222100Z 05022G32KT 4000 -SN BR SCT006 BKN014 OVC020
                        M02/M04 Q1022 GRN WHT=
201902222300 METAR LRTZ 222300Z 06024G34KT 8000 SCT008 BKN015 OVC030 M02/M04
                        Q1024 WHT WHT=
201902230400 METAR LRTZ 230400Z 04016G26KT 9999 FEW010 BKN025 OVC040 M05/M10
                        Q1028 BLU BLU=
201902230500 METAR LRTZ 230500Z 04016G26KT 9999 FEW010 BKN023 OVC040 M05/M10
                        Q1029 WHT WHT=
201902230600 METAR LRTZ 230600Z 04016G26KT 9999 BKN023 OVC040 M05/M10
                        Q1031 WHT WHT=
201902230700 METAR LRTZ 230700Z 03016G26KT 9999 BKN023 OVC040 M06/M11
                        Q1032 WHT WHT=
201902230800 METAR LRTZ 230800Z 03014G24KT 9999 -SN BKN023 BKN030 M05/M10
                        Q1032 WHT WHT=
201902230900 METAR LRTZ 230900Z 03010G20KT 9999 SCT025 BKN035 M05/M11
                        Q1033 BLU BLU=
201902231000 METAR LRTZ 231000Z 03012G22KT 9999 SCT025 BKN035 M04/M11
                        Q1034 BLU BLU=
201902231100 METAR LRTZ 231100Z 03012G22KT 9999 BKN027 M04/M11 Q1034 BLU
                        BLU=
201902231200 METAR LRTZ 231200Z 03012G22KT 9999 BKN030 M04/M11 Q1034 BLU
                        BLU=
201902231300 METAR LRTZ 231300Z 03010G20KT 9999 BKN030 M04/M11 Q1034 BLU
                        BLU=
201902231400 METAR LRTZ 231400Z 03010G20KT 9999 -SN BKN030 M04/M11 Q1034
                        BLU BLU=
201902231500 METAR LRTZ 231500Z 05010G20KT 9999 -SN SCT030 BKN040 M03/M11
                        Q1035 BLU BLU=
201902231600 METAR LRTZ 231600Z 01016KT 9999 -SN BKN040 M03/M11 Q1036
                        BLU BLU=
201902231700 METAR LRTZ 231700Z 01016KT 9999 BKN035 M03/M11 Q1036 BLU
                        BLU=
201902231800 METAR LRTZ 231800Z 01016KT 9999 BKN040 BKN200 M04/M10 Q1036
                        BLU BLU=
201902231900 METAR LRTZ 231900Z 36016KT 9999 BKN040 M05/M10 Q1037 BLU
                        BLU=
201902232000 METAR LRTZ 232000Z 36016KT 9999 SCT025 BKN200 M05/M09 Q1037
                        BLU BLU=
201902232100 METAR LRTZ 232100Z 36016KT 9999 SCT025 BKN200 M05/M09 Q1037
                        BLU BLU=
201902232200 METAR LRTZ 232200Z 36016KT 9999 SCT025 BKN040 M05/M09 Q1037
                        BLU BLU=
201902232300 METAR LRTZ 232300Z 01016KT 9999 -SN BKN025 BKN040 M05/M09
                        Q1036 BLU BLU=
201902240000 METAR LRTZ 240000Z 01016KT 9999 -SN BKN025 BKN040 M05/M09
                        Q1036 BLU BLU=
201902240300 METAR LRTZ 240300Z 01014KT 9999 FEW025 SCT040 BKN100 M06/M08
                        Q1036 BLU BLU=
201902240400 METAR LRTZ 240400Z 35012KT 9999 BKN100 M06/M08 Q1036 BLU
                        BLU=
201902240500 METAR LRTZ 240500Z 35012KT 9999 BKN140 M06/M08 Q1036 BLU
                        BLU=
201902240600 METAR LRTZ 240600Z 35012KT 9999 BKN140 M06/M08 Q1036 BLU
                        BLU=
201902240800 METAR LRTZ 240800Z 35012KT 9999 SCT050 BKN100 M03/M06 Q1036
                        BLU BLU=
201902240900 METAR LRTZ 240900Z 35012KT 9999 SCT030 BKN100 M02/M08 Q1036
                        BLU BLU=
201902241000 METAR LRTZ 241000Z 35012KT 9999 SCT025 BKN100 M02/M09 Q1036
                        BLU BLU=
201902241100 METAR LRTZ 241100Z 35012KT 9999 SCT025 BKN100 M02/M098 Q1036
                        BLU BLU=
201902241200 METAR LRTZ 241200Z 35012KT 9999 SCT025 BKN100 M01/M08 Q1035
                        BLU BLU=
201902241300 METAR LRTZ 241300Z 35012KT 9999 SCT025 BKN100 M02/M09 Q1035
                        BLU BLU=
201902241400 METAR LRTZ 241400Z 35010KT 9999 SCT025 BKN100 M02/M08 Q1035
                        BLU BLU=
201902241500 METAR LRTZ 241500Z 35010KT 9999 SCT025 BKN100 M02/M08 Q1035
                        BLU BLU=
201902241600 METAR LRTZ 241600Z 35010KT 9999 SCT025 BKN100 M02/M08 Q1035
                        BLU BLU=
201902241700 METAR LRTZ 241700Z 35010KT 9999 FEW025 BKN100 M02/M08 Q1035
                        BLU BLU=
201902241800 METAR LRTZ 241800Z 35008KT 9999 FEW050 BKN100 M02/M08 Q1035
                        BLU BLU=
201902241900 METAR LRTZ 241900Z 35008KT 9999 FEW050 BKN100 M02/M08 Q1035
                        BLU BLU=
201902242000 METAR LRTZ 242000Z 35008KT 9999 SCT050 BKN100 M02/M08 Q1035
                        BLU BLU=
201902242100 METAR LRTZ 242100Z 35008KT 9999 SCT050 BKN100 M02/M08 Q1035
                        BLU BLU=
201902242300 METAR LRTZ 242300Z 35008KT 9999 SCT050 BKN100 M03/M08 Q1035
                        BLU BLU=
201902250300 METAR LRTZ 250300Z 35008KT 9999 SCT050 BKN100 M05/M08 Q1035
                        BLU BLU=
201902250400 METAR LRTZ 250400Z 34008KT 9999 BKN090 M04/M08 Q1035 BLU
                        BLU=
201902250500 METAR LRTZ 250500Z 34010KT 9999 BKN090 M04/M08 Q1035 BLU
                        BLU=
201902250700 METAR LRTZ 250700Z 34010KT 9999 BKN090 M03/M08 Q1035 BLU
                        BLU=
201902250800 METAR LRTZ 250800Z 34014KT 9999 BKN090 M00/M06 Q1034 BLU
                        BLU=
201902250900 METAR LRTZ 250900Z 34014KT 9999 SCT090 02/M07 Q1034 BLU BLU=
201902251000 METAR LRTZ 251000Z 34018KT 9999 SCT090 03/M05 Q1033 BLU BLU=
201902251100 METAR LRTZ 251100Z 34018KT 9999 SCT200 05/M05 Q1032 BLU BLU=
201902251200 METAR LRTZ 251200Z 34020KT 9999 FEW200 05/M06 Q1031 BLU BLU=
201902251300 METAR LRTZ 251300Z 34018KT 9999 FEW200 06/M06 Q1030 BLU BLU=
201902251400 METAR LRTZ 251400Z 34018KT 9999 FEW200 06/M06 Q1029 BLU BLU=
201902251500 METAR LRTZ 251500Z 34016KT 9999 SCT200 05/M06 Q1028 BLU BLU=
201902251600 METAR LRTZ 251600Z 34014KT 9999 FEW200 03/M05 Q1028 BLU BLU=
201902251700 METAR LRTZ 251700Z 32012KT 9999 FEW200 00/M05 Q1027 BLU BLU=
201902251800 METAR LRTZ 251800Z 32014KT 9999 FEW200 00/M05 Q1026 BLU BLU=
201902251900 METAR LRTZ 251900Z 32016KT 9999 FEW200 00/M05 Q1026 BLU BLU=
201902252000 METAR LRTZ 252000Z 32016KT 9999 FEW200 M00/M05 Q1026 BLU
                        BLU=
201902252200 METAR LRTZ 252200Z 32014G24KT 9999 FEW200 M02/M05 Q1025 BLU
                        BLU=
201902252300 METAR LRTZ 252300Z 32014G24KT 9999 FEW200 M02/M05 Q1024 BLU
                        BLU=
201902260400 METAR LRTZ 260400Z 32014KT 9999 SCT200 M02/M05 Q1022 BLU
                        BLU=
201902260500 METAR LRTZ 260500Z 32014KT 9999 FEW200 M02/M07 Q1021 BLU
                        BLU=
201902260600 METAR LRTZ 260600Z 32012KT 9999 FEW200 M02/M07 Q1020 BLU
                        BLU=
201902260700 METAR LRTZ 260700Z 32020KT 9999 BKN200 02/M05 Q1019 BLU BLU=
201902260800 METAR LRTZ 260800Z 32015G25KT 9999 BKN200 04/M05 Q1019 BLU
                        BLU=
201902260900 METAR LRTZ 260900Z 32012G22KT 9999 BKN200 06/M04 Q1017 BLU
                        BLU=
201902261000 METAR LRTZ 261000Z 32014G24KT 9999 BKN200 08/M04 Q1017 BLU
                        BLU=
201902261100 METAR LRTZ 261100Z 32012G22KT 9999 FEW100 BKN200 09/M04 Q1015
                        BLU BLU=
201902261200 METAR LRTZ 261200Z 32018KT 9999 FEW100 BKN200 10/M04 Q1014
                        BLU BLU=
201902261300 METAR LRTZ 261300Z 32020KT 9999 BKN090 BKN200 08/M04 Q1013
                        BLU BLU=
201902261400 METAR LRTZ 261400Z 31016KT 9999 OVC090 07/M04 Q1012 BLU BLU=
201902261500 METAR LRTZ 261500Z 30018KT 9999 FEW050 OVC100 06/M03 Q1012
                        BLU BLU=
201902261600 METAR LRTZ 261600Z 31014KT 9999 BKN040 OVC100 05/M03 Q1012
                        BLU BLU=
201902261700 METAR LRTZ 261700Z 30010KT 9999 BKN060 OVC100 04/M03 Q1012
                        BLU BLU=
201902261800 METAR LRTZ 261800Z 29008KT 9999 BKN055 BKN100 04/M03 Q1012
                        BLU BLU=
201902261900 METAR LRTZ 261900Z 32008KT 9999 BKN050 BKN100 03/M02 Q1012
                        BLU BLU=
201902262000 METAR LRTZ 262000Z 34012KT 9999 BKN045 BKN090 04/M03 Q1013
                        BLU BLU=
201902262100 METAR LRTZ 262100Z 34010KT 9999 SCT025 BKN050 03/M03 Q1013
                        BLU BLU=
201902262300 METAR LRTZ 262300Z 34010KT 9999 SCT025 BKN050 03/M03 Q1013
                        BLU BLU=
201902270400 METAR LRTZ 270400Z 33012KT 9000 -DZ BKN020 OVC060 02/00 Q1014
                        WHT WHT=
201902270500 METAR LRTZ 270500Z 34010KT 9999 BKN020 OVC055 02/00 Q1015
                        WHT WHT=
201902270700 METAR LRTZ 270700Z 34012KT 9999 SCT020 BKN050 03/00 Q1016
                        BLU BLU=
201902281000 METAR LRTZ 281000Z 27020KT 9999 SCT150 10/M01 Q1011 BLU BLU=
201902281100 METAR LRTZ 281100Z 30022KT 9999 SCT100 12/M02 Q1009 BLU BLU=
201902281200 METAR LRTZ 281200Z 30024KT 9999 FEW100 14/M02 Q1008 BLU BLU=
201902281300 METAR LRTZ 281300Z 33016G26KT 9999 SCT200 14/M04 Q1007 BLU
                        BLU=
201902281400 METAR LRTZ 281400Z 33012G22KT 9999 SCT200 15/M04 Q1006 BLU
                        BLU=
201902281500 METAR LRTZ 281500Z 30012G22KT 9999 FEW200 14/M03 Q1005 BLU
                        BLU=
201902281600 METAR LRTZ 281600Z 30018KT 9999 FEW200 12/M03 Q1004 BLU BLU=
201902281700 METAR LRTZ 281700Z 27014KT 9999 FEW200 09/M04 Q1004 BLU BLU=
201902281800 METAR LRTZ 281800Z 27018KT 9999 SCT200 09/M01 Q1003 BLU BLU=
201902282100 METAR LRTZ 282100Z 27016KT 9999 BKN200 07/M01 Q1002 BLU BLU=
201902282200 METAR LRTZ 282200Z 27014KT 9999 BKN200 07/M01 Q1002 BLU BLU=
201902282300 METAR LRTZ 282300Z 27014KT 9999 BKN200 06/M01 Q1003 BLU BLU=