201903010400 METAR LRTZ 010400Z 33010KT 9999 BKN200 05/M02 Q1003 BLU BLU=
201903010500 METAR LRTZ 010500Z 30010KT 9999 BKN200 05/M03 Q1003 BLU BLU=
201903010600 METAR LRTZ 010600Z 30012KT 9999 BKN200 06/M03 Q1004 BLU BLU=
201903010700 METAR LRTZ 010700Z 30012KT 9999 BKN100 09/M02 Q1005 BLU BLU=
201903010800 METAR LRTZ 010800Z 30012KT 9999 BKN100 11/M01 Q1005 BLU BLU=
201903010900 METAR LRTZ 010900Z 30012KT 9999 SCT100 BKN200 12/M01 Q1006
                        BLU BLU=
201903011000 METAR LRTZ 011000Z 08010KT 9999 SCT100 BKN200 12/M01 Q1006
                        BLU BLU=
201903011100 METAR LRTZ 011100Z 15010KT 9999 SCT200 12/M01 Q1006 BLU BLU=
201903011200 METAR LRTZ 011200Z 19010KT 9999 SCT200 11/M01 Q1005 BLU BLU=
201903011300 METAR LRTZ 011300Z 15010KT 9999 SCT200 12/M01 Q1005 BLU BLU=
201903011400 METAR LRTZ 011400Z 15014KT 9999 SCT200 10/M02 Q1005 BLU BLU=
201903011500 METAR LRTZ 011500Z 20010KT 9999 SCT090 BKN200 09/M01 Q1005
                        BLU BLU=
201903011600 METAR LRTZ 011600Z 20010KT 9999 SCT200 07/02 Q1005 BLU BLU=
201903011700 METAR LRTZ 011700Z 20010KT 9999 SCT100 BKN200 06/03 Q1005
                        BLU BLU=
201903011800 METAR LRTZ 011800Z 20010KT 9999 SCT100 BKN200 06/03 Q1005
                        BLU BLU=
201903011900 METAR LRTZ 011900Z 20010KT 9999 SCT100 BKN200 06/03 Q1005
                        BLU BLU=
201903012100 METAR LRTZ 012100Z 20010KT 9999 SCT100 BKN200 05/03 Q1005
                        BLU BLU=
201903012300 METAR LRTZ 012300Z 20010KT 9999 BKN100 05/03 Q1005 BLU BLU=
201903020400 METAR LRTZ 020400Z 34010KT 9999 SCT020 BKN100 03/02 Q1006
                        BLU BLU=
201903020500 METAR LRTZ 020500Z 03010KT 9999 SCT020 BKN100 05/02 Q1006
                        BLU BLU=
201903020600 METAR LRTZ 020600Z 03014KT 9999 SCT020 BKN080 04/00 Q1008
                        BLU BLU=
201903020700 METAR LRTZ 020700Z 03010G20KT 9999 BKN010 BKN080 03/01 Q1010
                        GRN GRN=
201903020800 METAR LRTZ 020800Z 03014KT 8000 BKN007 OVC015 02/01 Q1011
                        GRN WHT=
201903020900 METAR LRTZ 020900Z 03014KT 8000 BKN010 OVC040 03/01 Q1011
                        GRN WHT=
201903021000 METAR LRTZ 021000Z 03010KT 9999 BKN015 OVC040 04/01 Q101
                        WHT BLU=
201903021100 METAR LRTZ 021100Z 03010KT 9999 SCT015 BKN100 04/00 Q1012
                        BLU BLU=
201903021200 METAR LRTZ 021200Z 03010KT 9999 SCT025 BKN100 05/00 Q1013
                        BLU BLU=
201903021300 METAR LRTZ 021300Z 03008KT 9999 SCT030 BKN100 05/M02 Q1013
                        BLU BLU=
201903021400 METAR LRTZ 021400Z 03008KT 9999 SCT030 BKN100 05/M03 Q1013
                        BLU BLU=
201903021500 METAR LRTZ 021500Z 03008KT 9999 FEW040 SCT100 05/M03 Q1014
                        BLU BLU=
201903021600 METAR LRTZ 021600Z VRB03KT 9999 FEW040 SCT100 04/M04 Q1014
                        BLU BLU=
201903021700 METAR LRTZ 021700Z VRB03KT 9999 FEW100 01/M04 Q1015 BLU BLU=
201903021800 METAR LRTZ 021800Z VRB03KT 9999 FEW100 M01/M04 Q1016 BLU
                        BLU=
201903021900 METAR LRTZ 021900Z VRB03KT 9999 FEW040 M01/M04 Q1017 BLU
                        BLU=
201903022000 METAR LRTZ 022000Z VRB04KT 9999 FEW200 M01/M04 Q1017 BLU
                        BLU=
201903022100 METAR LRTZ 022100Z VRB04KT 9999 FEW200 M02/M04 Q1017 BLU
                        BLU=
201903022200 METAR LRTZ 022200Z VRB04KT 9999 FEW200 M02/M04 Q1018 BLU
                        BLU=
201903022300 METAR LRTZ 022300Z VRB04KT 9999 FEW200 M01/M04 Q1018 BLU
                        BLU=
201903030000 METAR LRTZ 030000Z 03006KT 9999 FEW200 M00/M04 Q1019 BLU
                        BLU=
201903030300 METAR LRTZ 030300Z 03008KT 9999 FEW040 SCT200 M00/M04 Q1020
                        BLU BLU=
201903030400 METAR LRTZ 030400Z 03006KT 9999 FEW100 M01/M05 Q1019 BLU
                        BLU=
201903030500 METAR LRTZ 030500Z 03004KT 9999 FEW100 M01/M05 Q1019 BLU
                        BLU=
201903030600 METAR LRTZ 030600Z VRB03KT 9999 FEW200 02/M04 Q1020 BLU BLU=
201903030700 METAR LRTZ 030700Z 10006KT 9999 FEW100 04/M04 Q1020 BLU BLU=
201903030800 METAR LRTZ 030800Z 12008KT 9999 FEW100 04/M04 Q1020 BLU BLU=
201903030900 METAR LRTZ 030900Z 14008KT 9999 FEW100 05/M04 Q1020 BLU BLU=
201903031000 METAR LRTZ 031000Z 14010KT 9999 FEW100 05/M03 Q1021 BLU BLU=
201903031100 METAR LRTZ 031100Z 16010KT 9999 FEW030 SCT200 06/M03 Q1020
                        BLU BLU=
201903031200 METAR LRTZ 031200Z 16012KT 9999 FEW030 07/M02 Q1020 BLU BLU=
201903031300 METAR LRTZ 031300Z 16012KT 9999 FEW030 07/M01 Q1019 BLU BLU=
201903031400 METAR LRTZ 031400Z 16012KT 9999 FEW050 06/M01 Q1019 BLU BLU=
201903031500 METAR LRTZ 031500Z 16014KT 9999 FEW050 06/M01 Q1019 BLU BLU=
201903031600 METAR LRTZ 031600Z 18010KT 9999 FEW050 05/M01 Q1019 BLU BLU=
201903031700 METAR LRTZ 031700Z 20008KT 9999 FEW100 04/M01 Q1019 BLU BLU=
201903031800 METAR LRTZ 031800Z 21008KT 9999 FEW200 02/M01 Q1019 BLU BLU=
201903031900 METAR LRTZ 031900Z 21005KT 9999 FEW200 00/M04 Q1019 BLU BLU=
201903032000 METAR LRTZ 032000Z 20006KT 9999 BKN040 02/M02 Q1018 BLU BLU=
201903032100 METAR LRTZ 032100Z 20006KT 9999 BKN040 02/M02 Q1018 BLU BLU=
201903032300 METAR LRTZ 032300Z 21008KT 9999 SKC 01/M04 Q1018 BLU BLU=
201903040300 METAR LRTZ 040300Z 21010KT 9999 BKN200 02/M04 Q1017 BLU BLU=
201903040400 METAR LRTZ 040400Z 24008KT 9999 FEW200 M01/M04 Q1016 BLU
                        BLU=
201903040500 METAR LRTZ 040500Z 30006KT 9999 BKN200 M02/M04 Q1016 BLU
                        BLU=
201903040600 METAR LRTZ 040600Z 24008KT 9999 SCT200 01/M02 Q1016 BLU BLU=
201903040700 METAR LRTZ 040700Z 26008KT 9999 SCT200 06/00 Q1016 BLU BLU=
201903040800 METAR LRTZ 040800Z 26010KT 9999 SCT200 09/00 Q1016 BLU BLU=
201903040900 METAR LRTZ 040900Z 26010KT 9999 SCT200 11/M02 Q1015 BLU BLU=
201903041000 METAR LRTZ 041000Z 26010KT 9999 SCT200 11/M02 Q1015 BLU BLU=
201903041100 METAR LRTZ 041100Z 26010KT 9999 FEW200 13/M04 Q1014 BLU BLU=
201903041200 METAR LRTZ 041200Z 23010KT 9999 FEW200 11/01 Q1013 BLU BLU=
201903041300 METAR LRTZ 041300Z 23012KT 9999 FEW200 11/01 Q1012 BLU BLU=
201903041400 METAR LRTZ 041400Z 23012KT 9999 FEW200 10/02 Q1011 BLU BLU=
201903041500 METAR LRTZ 041500Z 22012KT 9999 FEW200 09/02 Q1011 BLU BLU=
201903041600 METAR LRTZ 041600Z 22014KT 9999 SCT200 08/00 Q1011 BLU BLU=
201903041700 METAR LRTZ 041700Z 22014KT 9999 SCT200 06/00 Q1011 BLU BLU=
201903041800 METAR LRTZ 041800Z 22014KT 9999 SCT200 05/00 Q1011 BLU BLU=
201903041900 METAR LRTZ 041900Z 22010KT 9999 SCT200 05/M01 Q1011 BLU BLU=
201903042000 METAR LRTZ 042000Z 22010KT 9999 SCT200 05/M01 Q1010 BLU BLU=
201903042100 METAR LRTZ 042100Z 22010KT 9999 SCT200 05/M01 Q1010 BLU BLU=
201903042200 METAR LRTZ 042200Z 22010KT 9999 SCT200 05/M01 Q1010 BLU BLU=
201903042300 METAR LRTZ 042300Z 22010KT 9999 BKN200 05/M01 Q1010 BLU BLU=
201903050400 METAR LRTZ 050400Z 22010KT 9999 BKN200 03/01 Q1007 BLU BLU=
201903050500 METAR LRTZ 050500Z 22010KT 9999 BKN200 03/01 Q1006 BLU BLU=
201903050600 METAR LRTZ 050600Z 22010KT 9999 BKN200 06/02 Q1007 BLU BLU=
201903050700 METAR LRTZ 050700Z 22010KT 9999 BKN200 10/03 Q1007 BLU BLU=
201903050800 METAR LRTZ 050800Z 22010KT 9999 SCT200 10/03 Q1007 BLU BLU=
201903050900 METAR LRTZ 050900Z 29014KT 9999 SCT200 18/00 Q1007 BLU BLU=
201903051000 METAR LRTZ 051000Z 29016G26KT 9999 BKN200 20/00 Q1006 BLU
                        BLU=
201903051100 METAR LRTZ 051100Z 29016G26KT 9999 BKN200 20/00 Q1006 BLU
                        BLU=
201903051200 METAR LRTZ 051200Z 29020G30KT 9999 BKN200 20/M00 Q1006 BLU
                        BLU=
201903051300 METAR LRTZ 051300Z 29020G30KT 9999 BKN200 20/00 Q1007 BLU
                        BLU=
201903051400 METAR LRTZ 051400Z 29020G30KT 9999 BKN200 20/01 Q1007 BLU
                        BLU=
201903051500 METAR LRTZ 051500Z 29018G28KT 9999 FEW100 BKN200 18/01 Q1008
                        BLU BLU=
201903051600 METAR LRTZ 051600Z 29012G22KT 9999 SCT100 BKN200 16/00 Q1009
                        BLU BLU=
201903051700 METAR LRTZ 051700Z 29010KT 9999 SCT100 BKN200 13/00 Q1009
                        BLU BLU=
201903051800 METAR LRTZ 051800Z 27008KT 9999 OVC200 12/00 Q1010 BLU BLU=
201903051900 METAR LRTZ 051900Z 27008KT 9999 OVC200 11/00 Q1011 BLU BLU=
201903052000 METAR LRTZ 052000Z 32008KT 9999 SCT100 OVC200 10/01 Q1012
                        BLU BLU=
201903052100 METAR LRTZ 052100Z 31008KT 9999 SCT100 OVC200 10/01 Q1012
                        BLU BLU=
201903052300 METAR LRTZ 052300Z 29008KT 9999 SCT100 OVC200 10/01 Q1013
                        BLU BLU=
201903060200 METAR LRTZ 060200Z 31010KT 9999 BKN100 08/03 Q1014 BLU BLU=
201903060300 METAR LRTZ 060300Z 31010KT 9999 BKN100 08/03 Q1015 BLU BLU=
201903060400 METAR LRTZ 060400Z 31010KT 9999 OVC100 09/02 Q1014 BLU BLU=
201903060500 METAR LRTZ 060500Z 31010KT 9999 OVC100 09/02 Q1014 BLU BLU=
201903060600 METAR LRTZ 060600Z 31010KT 9999 OVC100 09/02 Q1014 BLU BLU=
201903060700 METAR LRTZ 060700Z 30010KT 9999 SCT100 BKN200 10/03 Q1015
                        BLU BLU=
201903060800 METAR LRTZ 060800Z 29012KT 9999 FEW100 SCT200 12/03 Q1015
                        BLU BLU=
201903060900 METAR LRTZ 060900Z 28010KT 9999 FEW100 16/00 Q1015 BLU BLU=
201903061000 METAR LRTZ 061000Z 29014KT 9999 FEW100 17/M04 Q1015 BLU BLU=
201903061100 METAR LRTZ 061100Z 29010KT 9999 SCT100 SCT200 15/03 Q1015
                        BLU BLU=
201903061200 METAR LRTZ 061200Z 28014KT 9999 FEW040 SCT100 BKN200 18/M06
                        Q1014 BLU BLU=
201903061300 METAR LRTZ 061300Z 30010KT 9999 SCT040 BKN100 16/M04 Q1014
                        BLU BLU=
201903061500 METAR LRTZ 061500Z 27014KT 9999 FEW040 BKN090 13/00 Q1016
                        BLU BLU=
201903061700 METAR LRTZ 061700Z 02012KT 9999 SCT060 SCT100 11/02 Q1018
                        BLU BLU=
201903061800 METAR LRTZ 061800Z 04008KT 9999 FEW065 08/02 Q1020 BLU BLU=
201903062000 METAR LRTZ 062000Z 04008KT 9999 FEW065 08/00 Q1021 BLU BLU=
201903062100 METAR LRTZ 062100Z 09006KT 9999 SKC 07/M00 Q1021 BLU BLU=
201903062300 METAR LRTZ 062300Z 12008KT 9999 SKC 07/M01 Q1022 BLU BLU=
201903070400 METAR LRTZ 070400Z VRB03KT 9999 SCT200 02/M01 Q1024 BLU BLU=
201903070500 METAR LRTZ 070500Z 27004KT 9999 FEW100 BKN200 01/M02 Q1024
                        BLU BLU=
201903070600 METAR LRTZ 070600Z 21004KT 9999 FEW100 BKN200 06/01 Q1024
                        BLU BLU=
201903070700 METAR LRTZ 070700Z 21008KT 9999 FEW100 BKN200 08/01 Q1025
                        BLU BLU=
201903070800 METAR LRTZ 070800Z 20012KT 9999 BKN200 09/01 Q1025 BLU BLU=
201903070900 METAR LRTZ 070900Z 20014KT 9999 BKN200 10/02 Q1025 BLU BLU=
201903071000 METAR LRTZ 071000Z 16016KT 9999 BKN200 10/03 Q1025 BLU BLU=
201903071100 METAR LRTZ 071100Z 16018KT 9999 BKN200 10/04 Q1024 BLU BLU=
201903071200 METAR LRTZ 071200Z 16018KT 9999 BKN200 10/05 Q1023 BLU BLU=
201903071300 METAR LRTZ 071300Z 16018KT 9999 BKN200 10/05 Q1023 BLU BLU=
201903071400 METAR LRTZ 071400Z 18020KT 9999 BKN200 10/04 Q1022 BLU BLU=
201903071500 METAR LRTZ 071500Z 18018KT 9999 BKN200 09/04 Q1022 BLU BLU=
201903071600 METAR LRTZ 071600Z 18014KT 9999 BKN200 07/05 Q1021 BLU BLU=
201903071700 METAR LRTZ 071700Z 18014KT 9999 BKN200 07/05 Q1021 BLU BLU=
201903071800 METAR LRTZ 071800Z 18014KT 9999 BKN200 07/05 Q1021 BLU BLU=
201903071900 METAR LRTZ 071900Z 18012KT 9999 BKN200 07/05 Q1021 BLU BLU=
201903072000 METAR LRTZ 072000Z 18014KT 9999 BKN200 07/05 Q1021 BLU BLU=
201903072100 METAR LRTZ 072100Z 19014KT 9999 BKN200 06/05 Q1021 BLU BLU=
201903072200 METAR LRTZ 072200Z 19014KT 9999 BKN200 06/04 Q1020 BLU BLU=
201903072300 METAR LRTZ 072300Z 20014KT 9999 BKN200 05/04 Q1020 BLU BLU=
201903080400 METAR LRTZ 080400Z 21008KT 9999 BKN200 05/04 Q1019 BLU BLU=
201903080500 METAR LRTZ 080500Z 21006KT 9999 BKN200 05/04 Q1019 BLU BLU=
201903080600 METAR LRTZ 080600Z 19006KT 9999 SCT200 06/05 Q1019 BLU BLU=
201903080700 METAR LRTZ 080700Z 20008KT 9999 SCT200 10/06 Q1019 BLU BLU=
201903080800 METAR LRTZ 080800Z 19010KT 9999 SCT200 12/07 Q1018 BLU BLU=
201903080900 METAR LRTZ 080900Z 19012KT 9999 SCT200 13/07 Q1018 BLU BLU=
201903081000 METAR LRTZ 081000Z 18010KT 9999 SCT200 14/07 Q1018 BLU BLU=
201903081100 METAR LRTZ 081100Z 19012KT 9999 SCT200 16/07 Q1017 BLU BLU=
201903081200 METAR LRTZ 081200Z 18014KT 9999 SCT200 15/07 Q1017 BLU BLU=
201903081300 METAR LRTZ 081300Z 18014KT 9999 BKN200 16/08 Q1016 BLU BLU=
201903081400 METAR LRTZ 081400Z 19016KT 9999 BKN200 15/07 Q1016 BLU BLU=
201903081500 METAR LRTZ 081500Z 19010KT 9999 SCT200 14/07 Q1016 BLU BLU=
201903081600 METAR LRTZ 081600Z 20010KT 9999 BKN200 13/07 Q1016 BLU BLU=
201903081700 METAR LRTZ 081700Z 21010KT 9999 BKN200 13/07 Q1017 BLU BLU=
201903081800 METAR LRTZ 081800Z 21008KT 9999 BKN200 13/07 Q1017 BLU BLU=
201903081900 METAR LRTZ 081900Z 20008KT 9999 BKN160 13/07 Q1017 BLU BLU=
201903082000 METAR LRTZ 082000Z 21008KT 9999 BKN160 11/06 Q1017 BLU BLU=
201903082100 METAR LRTZ 082100Z 22006KT 9999 BKN160 11/06 Q1017 BLU BLU=
201903082200 METAR LRTZ 082200Z 24004KT 9999 BKN160 11/06 Q1017 BLU BLU=
201903082300 METAR LRTZ 082300Z 24004KT 9999 BKN160 10/06 Q1017 BLU BLU=
201903090000 METAR LRTZ 090000Z 26004KT 9999 BKN160 10/06 Q1017 BLU BLU=
201903090100 METAR LRTZ 090100Z 27003KT 9999 BKN160 09/06 Q1017 BLU BLU=
201903090400 METAR LRTZ 090400Z 36004KT 9999 SCT200 10/04 Q1017 BLU BLU=
201903090500 METAR LRTZ 090500Z 00000KT 9999 SCT200 07/03 Q1017 BLU BLU=
201903090600 METAR LRTZ 090600Z 33006KT 9999 BKN160 10/04 Q1018 BLU BLU=
201903090700 METAR LRTZ 090700Z 32012KT 9999 FEW100 OVC200 15/05 Q1018
                        BLU BLU=
201903090800 METAR LRTZ 090800Z 35010KT 9999 FEW100 BKN200 17/04 Q1018
                        BLU BLU=
201903091000 METAR LRTZ 091000Z 04010KT 9999 FEW100 BKN200 17/04 Q1019
                        BLU BLU=
201903091100 METAR LRTZ 091100Z 07010KT 9999 OVC200 17/04 Q1018 BLU BLU=
201903091200 METAR LRTZ 091200Z 07010KT 9999 FEW100 BKN200 18/04 Q1017
                        BLU BLU=
201903091300 METAR LRTZ 091300Z 11008KT 9999 FEW100 BKN200 17/04 Q1017
                        BLU BLU=
201903091400 METAR LRTZ 091400Z 13006KT 9999 BKN200 16/04 Q1016 BLU BLU=
201903091500 METAR LRTZ 091500Z 15006KT 9999 SCT200 15/04 Q1016 BLU BLU=
201903091600 METAR LRTZ 091600Z 15006KT 9999 SCT200 15/04 Q1016 BLU BLU=
201903091700 METAR LRTZ 091700Z 17004KT 9999 FEW100 11/04 Q1016 BLU BLU=
201903091800 METAR LRTZ 091800Z 19004KT 9999 FEW100 10/03 Q1016 BLU BLU=
201903091900 METAR LRTZ 091900Z 26006KT 9999 SCT100 12/03 Q1016 BLU BLU=
201903092000 METAR LRTZ 092000Z 25008KT 9999 FEW100 12/04 Q1016 BLU BLU=
201903092100 METAR LRTZ 092100Z 27008KT 9999 FEW100 11/03 Q1015 BLU BLU=
201903092200 METAR LRTZ 092200Z 26008KT 9999 SCT100 SCT200 11/04 Q1015
                        BLU BLU=
201903092300 METAR LRTZ 092300Z 25008KT 9999 SCT100 SCT200 11/05 Q1015
                        BLU BLU=
201903100400 METAR LRTZ 100400Z 29006KT 9999 FEW100 BKN200 08/04 Q1014
                        BLU BLU=
201903100500 METAR LRTZ 100500Z 26008KT 9999 FEW100 BKN200 08/04 Q1013
                        BLU BLU=
201903100600 METAR LRTZ 100600Z 26008KT 9999 FEW100 BKN200 10/05 Q1014
                        BLU BLU=
201903100700 METAR LRTZ 100700Z 26008KT 9999 FEW100 BKN200 15/06 Q1013
                        BLU BLU=
201903100800 METAR LRTZ 100800Z 26022G32KT 9999 SCT100 OVC200 17/06 Q1013
                        BLU BLU=
201903100900 METAR LRTZ 100900Z 26022G32KT 9999 BKN090 OVC200 17/04 Q1013
                        BLU BLU=
201903101000 METAR LRTZ 101000Z 26020G30KT 9999 BKN090 BKN200 18/05 Q1013
                        BLU BLU=
201903101100 METAR LRTZ 101100Z 26020G30KT 9999 SCT090 BKN200 19/03 Q1013
                        BLU BLU=
201903101200 METAR LRTZ 101200Z 29018G28KT 9999 FEW200 19/M05 Q1012 BLU
                        BLU=
201903101300 METAR LRTZ 101300Z 29018G28KT 9999 FEW030 SCT200 20/M05 Q1012
                        BLU BLU=
201903101400 METAR LRTZ 101400Z 29018G28KT 9999 FEW030 SCT200 20/M03 Q1012
                        BLU BLU=
201903101500 METAR LRTZ 101500Z 29016G26KT 9999 FEW090 SCT200 19/M02 Q1012
                        BLU BLU=
201903101600 METAR LRTZ 101600Z 29016KT 9999 FEW090 BKN200 18/M01 Q1012
                        BLU BLU=
201903101700 METAR LRTZ 101700Z 29008KT 9999 FEW200 12/M02 Q1012 BLU BLU=
201903101800 METAR LRTZ 101800Z 29006KT 9999 FEW200 11/M02 Q1012 BLU BLU=
201903101900 METAR LRTZ 101900Z 27006KT 9999 FEW200 11/M03 Q1012 BLU BLU=
201903102000 METAR LRTZ 102000Z 21006KT 9999 FEW200 10/M03 Q1011 BLU BLU=
201903102100 METAR LRTZ 102100Z 21006KT 9999 FEW200 09/M03 Q1011 BLU BLU=
201903102300 METAR LRTZ 102300Z 21006KT 9999 FEW100 SCT200 08/M02 Q1010
                        BLU BLU=
201903110300 METAR LRTZ 110300Z 24008KT 9999 BKN090 09/01 Q1009 BLU BLU=
201903110400 METAR LRTZ 110400Z 27010KT 9999 BKN090 11/01 Q1007 BLU BLU=
201903110500 METAR LRTZ 110500Z 27014KT 9999 BKN090 12/M00 Q1007 BLU BLU=
201903110600 METAR LRTZ 110600Z 27014KT 9999 SCT090 12/01 Q1008 BLU BLU=
201903110700 METAR LRTZ 110700Z 27018KT 9999 SCT090 16/03 Q1008 BLU BLU=
201903110800 METAR LRTZ 110800Z 29012G22KT 9999 FEW090 SCT200 18/02 Q1008
                        BLU BLU=
201903110900 METAR LRTZ 110900Z 31012G22KT 9999 SCT100 BKN200 19/02 Q1008
                        BLU BLU=
201903111000 METAR LRTZ 111000Z 30016KT 9999 SCT100 BKN200 20/02 Q1008
                        BLU BLU=
201903111100 METAR LRTZ 111100Z 27016KT 9999 SCT100 BKN200 20/02 Q1008
                        BLU BLU=
201903111300 METAR LRTZ 111300Z 30016KT 9999 BKN100 BKN200 20/01 Q1007
                        BLU BLU=
201903111400 METAR LRTZ 111400Z 30016KT 9999 BKN080 BKN200 20/02 Q1007
                        BLU BLU=
201903111500 METAR LRTZ 111500Z 30012KT 9999 BKN100 19/01 Q1007 BLU BLU=
201903111600 METAR LRTZ 111600Z 30006KT 9999 BKN090 17/01 Q1007 BLU BLU=
201903111700 METAR LRTZ 111700Z 30006KT 9999 BKN090 BKN200 15/01 Q1008
                        BLU BLU=
201903111800 METAR LRTZ 111800Z 30006KT 9999 BKN090 BKN20014/01 Q1008
                        BLU BLU=
201903111900 METAR LRTZ 111900Z 35006KT 9999 BKN090 BKN200 13/03 Q1007
                        BLU BLU=
201903112000 METAR LRTZ 112000Z 09020KT 9999 BKN090 BKN100 10/04 Q1008
                        BLU BLU=
201903112100 METAR LRTZ 112100Z 09015G25KT 8000 RA BKN060 BKN080 09/04
                        Q1009 BLU BLU=
201903112300 METAR LRTZ 112300Z 09015G25KT 8000 RA BKN060 BKN080 10/04
                        Q1008 BLU WHT=
201903120400 METAR LRTZ 120400Z 06016G26KT 6000 RA BKN015 OVC025 04/03
                        Q1011 WHT WHT=
201903120500 METAR LRTZ 120500Z 06014G24KT 6000 RA SCT006 BKN010 OVC020
                        04/03 Q1011 GRN GRN=
201903120600 METAR LRTZ 120600Z 06014G24KT 7000 -RA SCT006 BKN010 OVC20
                        04/02 Q1010 GRN GRN=
201903120700 METAR LRTZ 120700Z 06015G25KT 7000 -RA SCT005 BKN009 OVC015
                        04/02 Q1011 GRN GRN=
201903120800 METAR LRTZ 120800Z 06014G24KT 7000 RA SCT007 BKN010 OVC015
                        04/02 Q1012 GRN GRN=
201903120900 METAR LRTZ 120900Z 06012G22KT 7000 RA SCT006 BKN009 OVC015
                        04/02 Q1013 GRN GRN=
201903121000 METAR LRTZ 121000Z 06010G20KT 9999 -RA SCT007 BKN010 OVC015
                        04/02 Q1014 GRN GRN=
201903121100 METAR LRTZ 121100Z 06010G20KT 9999 FEW009 BKN012 OVC020 04/02
                        Q1014 GRN WHT=
201903121200 METAR LRTZ 121200Z 05016KT 9999 SCT009 BKN015 OVC060 05/02
                        Q1014 WHT WHT=
201903121300 METAR LRTZ 121300Z 05016KT 9999 SCT010 BKN015 OVC065 05/02
                        Q1015 WHT WHT=
201903121400 METAR LRTZ 121400Z 05016KT 9999 SCT015 BKN020 BKN200 05/02
                        Q1015 WHT WHT=
201903121500 METAR LRTZ 121500Z 06014KT 9999 SCT015 BKN022 OVC140 05/01
                        Q1015 WHT WHT=
201903121600 METAR LRTZ 121600Z 06012KT 9999 SCT020 BKN050 BKN200 05/01
                        Q1016 BLU BLU=
201903121700 METAR LRTZ 121700Z 04008KT 9999 SCT040 OVC100 05/02 Q1016
                        BLU BLU=
201903121800 METAR LRTZ 121800Z 04006KT 9999 SCT030 BKN200 05/02 Q1017
                        BLU BLU=
201903121900 METAR LRTZ 121900Z 03004KT 9999 BKN200 04/01 Q1017 BLU BLU=
201903122000 METAR LRTZ 122000Z 02004KT 9999 OVC200 04/01 Q1018 BLU BLU=
201903122100 METAR LRTZ 122100Z 02004KT 9999 OVC200 04/01 Q1018 BLU BLU=
201903122200 METAR LRTZ 122200Z 02004KT 9999 OVC200 04/01 Q1018 BLU BLU=
201903122300 METAR LRTZ 122300Z 36004KT 9999 BKN200 03/01 Q1018 BLU BLU=
201903130400 METAR LRTZ 130400Z 01008KT 9999 FEW200 02/M00 Q1018 BLU BLU=
201903130500 METAR LRTZ 130500Z 03010KT 9999 SKC 02/M00 Q1018 BLU BLU=
201903130600 METAR LRTZ 130600Z 03012KT 9999 SKC 05/M01 Q1019 BLU BLU=
201903130700 METAR LRTZ 130700Z 03012KT 9999 SKC 05/01 Q1019 BLU BLU=
201903130800 METAR LRTZ 130800Z 03014KT 9999 SKC 06/M00 Q1019 BLU BLU=
201903131000 METAR LRTZ 131000Z 06014KT 9999 SKC 07/01 Q1019 BLU BLU=
201903131100 METAR LRTZ 131100Z 07012KT FEW025 07/02 Q1019 BLU BLU=
201903131200 METAR LRTZ 131200Z 09012KT FEW025 07/01 Q1019 BLU BLU=
201903131300 METAR LRTZ 131300Z 09012KT FEW025 07/00 Q1019 BLU BLU=
201903131400 METAR LRTZ 131400Z 09012KT SKC 07/M00 Q1018 BLU BLU=
201903131600 METAR LRTZ 131600Z 15008KT SKC 05/00 Q1018 BLU BLU=
201903131700 METAR LRTZ 131700Z 15006KT 9999 FEW200 04/00 Q1018 BLU BLU=
201903131800 METAR LRTZ 131800Z 15006KT 9999 FEW200 04/M00 Q1018 BLU BLU=
201903132000 METAR LRTZ 132000Z 15006KT 9999 FEW200 04/M00 Q1018 BLU BLU=
201903132100 METAR LRTZ 132100Z 15006KT 9999 FEW200 04/M00 Q1018 BLU BLU=
201903132200 METAR LRTZ 132200Z 15006KT 9999 SCT200 03/M00 Q1017 BLU BLU=
201903132300 METAR LRTZ 132300Z 15006KT 9999 SCT200 03/M00 Q1017 BLU BLU=
201903140400 METAR LRTZ 140400Z VRB03KT 9999 OVC200 01/M02 Q1015 BLU BLU=
201903140600 METAR LRTZ 140600Z VRB03KT 9999 OVC200 03/M01 Q1015 BLU BLU=
201903140700 METAR LRTZ 140700Z 15008KT 9999 SCT100 BKN200 06/M01 Q1015
                        BLU BLU=
201903140800 METAR LRTZ 140800Z 14008KT 9999 SCT100 BKN200 06/M01 Q1015
                        BLU BLU=
201903140900 METAR LRTZ 140900Z 16008KT 9999 SCT100 BKN200 07/M00 Q1014
                        BLU BLU=
201903141000 METAR LRTZ 141000Z 16008KT 9999 SCT100 BKN200 07/M01 Q1014
                        BLU BLU=
201903141100 METAR LRTZ 141100Z 16008KT 9999 BKN200 07/M01 Q1014 BLU BLU=
201903141200 METAR LRTZ 141200Z 14008KT 9999 FEW035 BKN200 07/M01 Q1013
                        BLU BLU=
201903141300 METAR LRTZ 141300Z 12010KT 9999 FEW035 OVC200 06/M01 Q1012
                        BLU BLU=
201903141400 METAR LRTZ 141400Z 17010KT 9999 FEW045 OVC200 06/M00 Q1012
                        BLU BLU=
201903141500 METAR LRTZ 141500Z 14006KT 9999 FEW100 OVC200 06/M00 Q1012
                        BLU BLU=
201903141600 METAR LRTZ 141600Z 14006KT 9999 SCT100 OVC200 06/01 Q1011
                        BLU BLU=
201903141700 METAR LRTZ 141700Z 14006KT 9999 SCT100 OVC200 05/01 Q1011
                        BLU BLU=
201903141800 METAR LRTZ 141800Z 19008KT 9999 SCT100 OVC200 06/00 Q1011
                        BLU BLU=
201903141900 METAR LRTZ 141900Z 22004KT 9999 SCT100 OVC200 04/01 Q1011
                        BLU BLU=
201903142000 METAR LRTZ 142000Z 22004KT 9999 FEW050 BKN100 OVC200 03/00
                        Q1010 BLU BLU=
201903142100 METAR LRTZ 142100Z VRB03KT 9999 SCT050 OVC100 03/00 Q1010
                        BLU BLU=
201903142200 METAR LRTZ 142200Z VRB03KT 9999 SCT050 OVC100 03/00 Q1010
                        BLU BLU=
201903142300 METAR LRTZ 142300Z VRB03KT 9999 SCT050 OVC100 03/00 Q1010
                        BLU BLU=
201903150000 METAR LRTZ 150000Z 20006KT 9999 BKN040 OVC090 03/00 Q1009
                        BLU BLU=
201903150100 METAR LRTZ 150100Z 18004KT 9999 BKN030 OVC080 03/00 Q1009
                        BLU BLU=
201903150200 METAR LRTZ 150200Z 17006KT 9999 BKN025 OVC080 03/00 Q1009
                        BLU BLU=
201903150300 METAR LRTZ 150300Z 18008KT 9999 BKN025 OVC080 03/00 Q1009
                        BLU BLU=
201903150400 METAR LRTZ 150400Z 24004KT 9999 FEW025 SCT070 BKN200 02/M00
                        Q1008 BLU BLU=
201903150500 METAR LRTZ 150500Z 24004KT 9999 BKN070 BKN200 02/00 Q1008
                        BLU BLU=
201903150600 METAR LRTZ 150600Z 28004KT 9999 SCT070 BKN200 04/02 Q1008
                        BLU BLU=
201903150700 METAR LRTZ 150700Z 33004KT 9999 FEW070 BKN200 06/03 Q1008
                        BLU BLU=
201903150800 METAR LRTZ 150800Z 27006KT 9999 FEW035 BKN200 09/03 Q1009
                        BLU BLU=
201903150900 METAR LRTZ 150900Z 33004KT 9999 SCT025 BKN035 10/02 Q1009
                        BLU BLU=
201903151000 METAR LRTZ 151000Z 16008KT 9999 SCT025 BKN045 07/03 Q1009
                        BLU BLU=
201903151100 METAR LRTZ 151100Z 18010KT 9999 SCT025 BKN060 07/03 Q1008
                        BLU BLU=
201903151200 METAR LRTZ 151200Z 19010KT 9999 SCT030 BKN070 08/03 Q1008
                        BLU BLU=
201903151300 METAR LRTZ 151300Z 20012KT 9999 SCT030 FEW045CB BKN075 08/03
                        Q1008 BLU BLU=
201903151400 METAR LRTZ 151400Z 20010KT 9999 SCT035 FEW050CB BKN080 08/04
                        Q1008 BLU BLU=
201903151500 METAR LRTZ 151500Z 20008KT 9999 SCT050 BKN080 09/03 Q1008
                        BLU BLU=
201903151600 METAR LRTZ 151600Z 21006KT 9999 FEW050 BKN080 08/03 Q1008
                        BLU BLU=
201903151700 METAR LRTZ 151700Z 21004KT 9999 FEW080 SCT100 05/03 Q1009
                        BLU BLU=
201903151800 METAR LRTZ 151800Z 21004KT 9999 SCT200 04/02 Q1010 BLU BLU=
201903151900 METAR LRTZ 151900Z 27008KT 9999 FEW200 04/02 Q1010 BLU BLU=
201903152000 METAR LRTZ 152000Z 27008KT 9999 FEW200 05/02 Q1010 BLU BLU=
201903152100 METAR LRTZ 152100Z 26008KT 9999 FEW200 05/02 Q1010 BLU BLU=
201903152300 METAR LRTZ 152300Z 24006KT 9999 SCT200 04/02 Q1011 BLU BLU=
201903160400 METAR LRTZ 160400Z 24004KT 9999 FEW200 01/M01 Q1009 BLU BLU=
201903160500 METAR LRTZ 160500Z 24004KT 9999 SCT200 01/M01 Q1009 BLU BLU=
201903160600 METAR LRTZ 160600Z 26008KT 9999 SCT200 04/00 Q1009 BLU BLU=
201903160800 METAR LRTZ 160800Z 26018KT 9999 BKN200 11/02 Q1008 BLU BLU=
201903161000 METAR LRTZ 161000Z 27012G22KT 9999 BKN200 15/02 Q1008 BLU
                        BLU=
201903161100 METAR LRTZ 161100Z 28012G22KT 9999 SCT040 BKN100 BKN200 15/M00
                        Q1007 BLU BLU=
201903161200 METAR LRTZ 161200Z 27012G22KT 9999 BKN080 BKN200 14/01 Q1006
                        BLU BLU=
201903161300 METAR LRTZ 161300Z 25016KT 9999 BKN100 BKN200 14/01 Q1005
                        BLU BLU=
201903161400 METAR LRTZ 161400Z 24018KT 9999 BKN100 14/01 Q1005 BLU BLU=
201903161600 METAR LRTZ 161600Z 25010KT 9999 BKN100 BKN200 13/04 Q1004
                        BLU BLU=
201903161700 METAR LRTZ 161700Z 01010KT 9999 -SHRA BKN040 SCT050CB BKN080
                        12/05 Q1006 BLU BLU=
201903161900 METAR LRTZ 161900Z 03006KT 9999 -SHRA SCT040 SCT050CB BKN080
                        07/04 Q1009 BLU BLU=
201903162000 METAR LRTZ 162000Z VRB03KT 9999 BKN080 BKN200 07/04 Q1010
                        BLU BLU=
201903162100 METAR LRTZ 162100Z VRB03KT 9999 BKN100 BKN200 07/04 Q1010
                        BLU BLU=
201903162200 METAR LRTZ 162200Z VRB03KT 9999 SCT100 BKN200 06/04 Q1011
                        BLU BLU=
201903162300 METAR LRTZ 162300Z 3306KT 9999 SCT100 BKN200 06/04 Q1011
                        BLU BLU=
201903170400 METAR LRTZ 170400Z 25008KT 9999 SCT100 BKN200 05/01 Q1015
                        BLU BLU=
201903170500 METAR LRTZ 170500Z 27008KT 9999 BKN080 05/02 Q1015 BLU BLU=
201903170600 METAR LRTZ 170600Z 29008KT 9999 SCT070 BKN200 08/03 Q1016
                        BLU BLU=
201903170700 METAR LRTZ 170700Z 24010KT 9999 BKN070 BKN200 10/04 Q1016
                        BLU BLU=
201903170800 METAR LRTZ 170800Z 23010KT 9999 SCT100 BKN200 12/04 Q1016
                        BLU BLU=
201903170900 METAR LRTZ 170900Z 21016KT 9999 SCT100 SCT200 15/02 Q1016
                        BLU BLU=
201903171000 METAR LRTZ 171000Z 21016KT 9999 FEW040 SCT100 16/02 Q1016
                        BLU BLU=
201903171100 METAR LRTZ 171100Z 22018KT 9999 SCT040 SCT100 16/02 Q1015
                        BLU BLU=
201903171200 METAR LRTZ 171200Z 19016KT 9999 SCT040 15/02 Q1014 BLU BLU=
201903171300 METAR LRTZ 171300Z 21018KT 9999 BKN040 14/02 Q1014 BLU BLU=
201903171500 METAR LRTZ 171500Z 19014KT 9999 FEW200 12/04 Q1014 BLU BLU=
201903171600 METAR LRTZ 171600Z 18010KT 9999 FEW200 11/04 Q1015 BLU BLU=
201903171700 METAR LRTZ 171700Z 20006KT 9999 FEW200 09/03 Q1015 BLU BLU=
201903171800 METAR LRTZ 171800Z 19008KT 9999 FEW200 09/03 Q1015 BLU BLU=
201903171900 METAR LRTZ 171900Z 20006KT 9999 FEW200 08/03 Q1015 BLU BLU=
201903172000 METAR LRTZ 172000Z 19006KT 9999 FEW200 07/02 Q1015 BLU BLU=
201903172100 METAR LRTZ 172100Z 20006KT 9999 FEW200 07/02 Q1015 BLU BLU=
201903172200 METAR LRTZ 172200Z 19006KT 9999 FEW200 07/02 Q1015 BLU BLU=
201903172300 METAR LRTZ 172300Z 19006KT 9999 SKC 06/02 Q1015 BLU BLU=
201903180200 METAR LRTZ 180200Z 19006KT 9999 SKC 06/02 Q1014 BLU BLU=
201903180300 METAR LRTZ 180300Z 18004KT 8000 SKC 06/04 Q1014 BLU WHT=
201903180400 METAR LRTZ 180400Z 18006KT 7000 SKC 07/06 Q1014 WHT WHT=
201903180500 METAR LRTZ 180500Z 16006KT 9999 SKC 07/06 Q1014 BLU BLU=
201903180600 METAR LRTZ 180600Z 18008KT 9999 SKC 09/08 Q1015 BLU BLU=
201903180700 METAR LRTZ 180700Z 18010KT 9999 SKC 10/08 Q1015 BLU BLU=
201903180800 METAR LRTZ 180800Z 18012KT 9999 SKC 12/08 Q1015 BLU BLU=
201903180900 METAR LRTZ 180900Z 18012KT 9999 SKC 12/08 Q1015 BLU BLU=
201903181100 METAR LRTZ 181100Z 15018KT 9999 FEW200 13/08 Q1015 BLU BLU=
201903181200 METAR LRTZ 181200Z 15018KT 9999 FEW200 13/08 Q1015 BLU BLU=
201903181300 METAR LRTZ 181300Z 15018KT 9999 FEW200 12/08 Q1014 BLU BLU=
201903181400 METAR LRTZ 181400Z 15018KT 9999 FEW200 11/08 Q1014 BLU BLU=
201903181500 METAR LRTZ 181500Z 16016KT 9999 FEW200 11/07 Q1014 BLU BLU=
201903181600 METAR LRTZ 181600Z 16012KT 9999 FEW200 10/07 Q1014 BLU BLU=
201903181700 METAR LRTZ 181700Z 16012KT 9999 FEW200 10/07 Q1014 BLU BLU=
201903181800 METAR LRTZ 181800Z 18012KT 9999 SKC 09/06 Q1015 BLU BLU=
201903181900 METAR LRTZ 181900Z 18010KT 9999 SKC 09/06 Q1016 BLU BLU=
201903182000 METAR LRTZ 182000Z 16010KT 9999 SKC 09/06 Q1016 BLU BLU=
201903182100 METAR LRTZ 182100Z 16010KT 9999 SKC 09/06 Q1016 BLU BLU=
201903182200 METAR LRTZ 182200Z 15008KT 9999 FEW200 08/06 Q1016 BLU BLU=
201903190400 METAR LRTZ 190400Z 15008KT 8000 FEW200 08/07 Q1016 BLU BLU=
201903190500 METAR LRTZ 190500Z 14008KT 9999 FEW200 08/06 Q1016 BLU BLU=
201903190600 METAR LRTZ 190600Z 14010KT 9999 FEW200 09/07 Q1016 BLU BLU=
201903190700 METAR LRTZ 190700Z 16014KT 9999 FEW200 10/07 Q1017 BLU BLU=
201903190900 METAR LRTZ 190900Z 14018KT 9999 FEW200 11/07 Q1018 BLU BLU=
201903191000 METAR LRTZ 191000Z 14016KT 9999 FEW200 11/07 Q1018 BLU BLU=
201903191100 METAR LRTZ 191100Z 13016KT 9999 SCT200 11/07 Q1018 BLU BLU=
201903191200 METAR LRTZ 191200Z 12016KT 9999 BKN200 11/07 Q1018 BLU BLU=
201903191300 METAR LRTZ 191300Z 12014KT 9999 FEW010 BKN200 11/07 Q1018
                        BLU BLU=
201903191400 METAR LRTZ 191400Z 12014KT 9999 FEW010 BKN200 10/07 Q1018
                        BLU BLU=
201903191500 METAR LRTZ 191500Z 11012KT 9999 FEW010 BKN200 10/07 Q1018
                        BLU BLU=
201903191600 METAR LRTZ 191600Z 11010KT 9999 BKN200 09/07 Q1019 BLU BLU=
201903191700 METAR LRTZ 191700Z 15010KT 9999 BKN200 08/06 Q1019 BLU BLU=
201903191800 METAR LRTZ 191800Z 15010KT 9999 BKN200 08/06 Q1020 BLU BLU=
201903191900 METAR LRTZ 191900Z 15008KT 9999 SCT200 07/06 Q1020 BLU BLU=
201903192000 METAR LRTZ 192000Z 10006KT 9999 SCT200 07/06 Q1021 BLU BLU=
201903192100 METAR LRTZ 192100Z 09006KT 9999 SCT200 07/06 Q1021 BLU BLU=
201903192200 METAR LRTZ 192200Z 09006KT 9999 SCT200 07/06 Q1021 BLU BLU=
201903192300 METAR LRTZ 192300Z 09004KT 7000 SCT200 06/05 Q1022 WHT GRN=
201903200400 METAR LRTZ 200400Z 03006KT 5000 BR BKN015 07/06 Q1023 WHT
                        WHT=
201903200500 METAR LRTZ 200500Z 03006KT 5000 BR BKN005 07/06 Q1023 YLO
                        YLO=
201903200600 METAR LRTZ 200600Z 03008KT 8000 BKN005 07/06 Q1024 YLO YLO=
201903200700 METAR LRTZ 200700Z 03010KT 9999 BKN005 08/06 Q1025 YLO YLO=
201903200800 METAR LRTZ 200800Z 03010KT 9999 FEW005 BKN007 08/05 Q1026
                        GRN GRN=
201903200900 METAR LRTZ 200900Z 03010KT 9999 SCT100 10/04 Q1026 BLU BLU=
201903201100 METAR LRTZ 201100Z 06012KT 9999 SCT100 12/03 Q1026 BLU BLU=
201903201200 METAR LRTZ 201200Z 07012KT 9999 SCT100 12/01 Q1026 BLU BLU=
201903201300 METAR LRTZ 201300Z 09010KT 9999 SCT100 12/00 Q1026 BLU BLU=
201903201400 METAR LRTZ 201400Z 09008KT 9999 BKN090 13/02 Q1026 BLU BLU=
201903201500 METAR LRTZ 201500Z 09006KT 9999 BKN100 12/02 Q1026 BLU BLU=
201903201600 METAR LRTZ 201600Z 09004KT 9999 BKN050 09/03 Q1027 BLU BLU=
201903201700 METAR LRTZ 201700Z 03004KT 9999 FEW070 BKN200 09/04 Q1028
                        BLU BLU=
201903201800 METAR LRTZ 201800Z 03006KT 9999 FEW040 BKN200 09/05 Q1028
                        BLU BLU=
201903201900 METAR LRTZ 201900Z 03006KT 9999 SCT035 BKN200 09/05 Q1029
                        BLU BLU=
201903202100 METAR LRTZ 202100Z 03006KT 9999 SCT025 BKN200 09/06 Q1030
                        BLU BLU=
201903202300 METAR LRTZ 202300Z 01005KT 9999 SCT035 BKN200 08/05 Q1030
                        BLU BLU=
201903210500 METAR LRTZ 210500Z 36006KT 9999 BKN060 04/02 Q1031 BLU BLU=
201903210600 METAR LRTZ 210600Z 01008KT 9999 SCT100 07/03 Q1032 BLU BLU=
201903210700 METAR LRTZ 210700Z 04010KT 9999 BKN100 09/02 Q1032 BLU BLU=
201903210800 METAR LRTZ 210800Z 07012KT 9999 BKN100 10/02 Q1033 BLU BLU=
201903210900 METAR LRTZ 210900Z 05012KT 9999 FEW040 SCT100 10/00 Q1033
                        BLU BLU=
201903211000 METAR LRTZ 211000Z 08012KT 9999 FEW040 SCT100 11/01 Q1033
                        BLU BLU=
201903211100 METAR LRTZ 211100Z 06012KT 9999 FEW040 SCT100 11/M00 Q1032
                        BLU BLU=
201903211200 METAR LRTZ 211200Z 08010KT 9999 FEW050 SCT100 12/M03 Q1031
                        BLU BLU=
201903211300 METAR LRTZ 211300Z 12008KT 9999 FEW050 SCT100 11/M03 Q1030
                        BLU BLU=
201903211400 METAR LRTZ 211400Z 14008KT 9999 SCT050 SCT100 10/M03 Q1030
                        BLU BLU=
201903211500 METAR LRTZ 211500Z 13006KT 9999 SCT060 10/M02 Q1030 BLU BLU=
201903211700 METAR LRTZ 211700Z 19004KT 9999 FEW060 06/M02 Q1030 BLU BLU=
201903211800 METAR LRTZ 211800Z 20004KT 9999 FEW060 05/M02 Q1030 BLU BLU=
201903211900 METAR LRTZ 211900Z 25004KT 9999 FEW060 04/M02 Q1031 BLU BLU=
201903212000 METAR LRTZ 212000Z 24004KT 9999 FEW060 04/M02 Q1030 BLU BLU=
201903212100 METAR LRTZ 212100Z 21004KT 9999 FEW200 03/M03 Q1030 BLU BLU=
201903212200 METAR LRTZ 212200Z 23004KT 9999 FEW200 03/M03 Q1030 BLU BLU=
201903212300 METAR LRTZ 212300Z 22004KT 9999 FEW200 03/M03 Q1030 BLU BLU=
201903220400 METAR LRTZ 220400Z 30008KT 8000 SCT070 SCT200 04/02 Q1029
                        BLU BLU=
201903220600 METAR LRTZ 220600Z 29008KT 9999 SCT070 BKN200 06/03 Q1030
                        BLU BLU=
201903220700 METAR LRTZ 220700Z 32010KT 9999 SCT070 BKN200 09/04 Q1030
                        BLU BLU=
201903220800 METAR LRTZ 220800Z 34010KT 9999 SCT070 BKN200 10/03 Q1030
                        BLU BLU=
201903220900 METAR LRTZ 220900Z 03012KT 9999 FEW070 SCT200 14/04 Q1029
                        BLU BLU=
201903221000 METAR LRTZ 221000Z 33012KT 9999 FEW040 BKN200 14/03 Q1028
                        BLU BLU=
201903221100 METAR LRTZ 221100Z 33012KT 9999 FEW040 BKN200 15/03 Q1028
                        BLU BLU=
201903221200 METAR LRTZ 221200Z 02012KT 9999 SCT040 BKN200 14/03 Q1027
                        BLU BLU=
201903221300 METAR LRTZ 221300Z 02008KT 9999 SCT040 13/03 Q1026 BLU BLU=
201903221400 METAR LRTZ 221400Z 15008KT 9999 SCT040 12/03 Q1026 BLU BLU=
201903221500 METAR LRTZ 221500Z 18008KT 9999 SCT200 12/02 Q1025 BLU BLU=
201903221600 METAR LRTZ 221600Z 21006KT 9999 SCT200 11/03 Q1025 BLU BLU=
201903221700 METAR LRTZ 221700Z 21006KT 9999 SCT200 09/03 Q1025 BLU BLU=
201903221800 METAR LRTZ 221800Z VRB03KT 9999 SCT200 07/03 Q1025 BLU BLU=
201903221900 METAR LRTZ 221900Z VRB03KT 9999 SCT200 07/02 Q1025 BLU BLU=
201903222000 METAR LRTZ 222000Z 32006KT 9999 SCT200 07/01 Q1025 BLU BLU=
201903222100 METAR LRTZ 222100Z 32006KT 9999 SCT200 07/01 Q1025 BLU BLU=
201903222300 METAR LRTZ 222300Z 34006KT 9999 SCT200 07/01 Q1025 BLU BLU=
201903230400 METAR LRTZ 230400Z 34008KT 9999 FEW200 06/03 Q1024 BLU BLU=
201903230500 METAR LRTZ 230500Z 36008KT 9999 FEW200 06/03 Q1023 BLU BLU=
201903230600 METAR LRTZ 230600Z 36008KT 9999 FEW090 SCT200 10/04 Q1024
                        BLU BLU=
201903230700 METAR LRTZ 230700Z 36014KT 9999 SCT090 BKN200 11/02 Q1024
                        BLU BLU=
201903230800 METAR LRTZ 230800Z 36014KT 9999 SCT090 BKN200 11/02 Q1024
                        BLU BLU=
201903231000 METAR LRTZ 231000Z 03016KT 9999 SCT090 BKN200 12/M01 Q1023
                        BLU BLU=
201903231100 METAR LRTZ 231100Z 03010G20KT 9999 SCT200 13/M05 Q1023 BLU
                        BLU=
201903231200 METAR LRTZ 231200Z 03010G20KT 9999 SCT200 12/M05 Q1022 BLU
                        BLU=
201903231300 METAR LRTZ 231300Z 03010G20KT 9999 SCT200 12/M05 Q1022 BLU
                        BLU=
201903231400 METAR LRTZ 231400Z 03010G20KT 9999 SCT200 12/M05 Q1022 BLU
                        BLU=
201903231500 METAR LRTZ 231500Z 03014KT 9999 SCT200 11/M03 Q1022 BLU BLU=
201903231600 METAR LRTZ 231600Z 03010KT 9999 SCT200 09/00 Q1023 BLU BLU=
201903231700 METAR LRTZ 231700Z VRB03KT 9999 SCT200 07/01 Q1023 BLU BLU=
201903231800 METAR LRTZ 231800Z VRB03KT 9999 SCT200 06/01 Q1023 BLU BLU=
201903231900 METAR LRTZ 231900Z VRB03KT 9999 SCT200 03/01 Q1024 BLU BLU=
201903232000 METAR LRTZ 232000Z VRB03KT 9999 SCT200 01/M02 Q1024 BLU BLU=
201903232100 METAR LRTZ 232100Z VRB03KT 9999 SCT200 01/M02 Q1024 BLU BLU=
201903232200 METAR LRTZ 232200Z VRB03KT 9999 SCT200 01/M02 Q1024 BLU BLU=
201903232300 METAR LRTZ 232300Z VRB03KT 9999 SCT200 01/M02 Q1024 BLU BLU=
201903240100 METAR LRTZ 240100Z VRB03KT 9999 SCT200 01/M02 Q1023 BLU BLU=
201903240200 METAR LRTZ 240200Z VRB03KT 9999 SCT200 01/M03 Q1023 BLU BLU=
201903240300 METAR LRTZ 240300Z VRB03KT 9999 SCT200 01/M03 Q1023 BLU BLU=
201903240400 METAR LRTZ 240400Z 34006KT 9999 SCT200 01/M03 Q1022 BLU BLU=
201903240500 METAR LRTZ 240500Z 34008KT 9999 FEW200 01/M05 Q1023 BLU BLU=
201903240600 METAR LRTZ 240600Z 34008KT 9999 SKC 05/M02 Q1023 BLU BLU=
201903240700 METAR LRTZ 240700Z 03008KT 9999 SKC 08/02 Q1023 BLU BLU=
201903240800 METAR LRTZ 240800Z 03008KT 9999 SKC 10/02 Q1023 BLU BL=
201903241000 METAR LRTZ 241000Z 09010KT 9999 SKC 10/M00 Q1022 BLU BLU=
201903241100 METAR LRTZ 241100Z 09010KT 9999 SKC 10/00 Q1022 BLU BLU=
201903241200 METAR LRTZ 241200Z 140102KT 9999 SKC 10/00 Q10221 BLU BLU=
201903241300 METAR LRTZ 241300Z 16012KT 9999 SKC 10/M00 Q1020 BLU BLU=
201903241600 METAR LRTZ 241600Z 18020KT 9999 SKC 08/00 Q1019 BLU BLU=
201903241700 METAR LRTZ 241700Z 18012KT 9999 FEW200 07/01 Q1019 BLU BLU=
201903241900 METAR LRTZ 241900Z 18010KT 9999 SKC 05/M00 Q1019 BLU BLU=
201903242000 METAR LRTZ 242000Z 20010KT 9999 SKC 05/00 Q1019 BLU BLU=
201903242100 METAR LRTZ 242100Z 20010KT 9999 SKC 05/00 Q1019 BLU BLU=
201903242300 METAR LRTZ 242300Z 21008KT 9999 SKC 04/M00 Q1019 BLU BLU=
201903250300 METAR LRTZ 250300Z 22006KT 9999 FEW200 03/M00 Q1017 BLU BLU=
201903250400 METAR LRTZ 250400Z 21008KT 9999 SKC 03/00 Q1015 BLU BLU=
201903250500 METAR LRTZ 250500Z 21010KT 9999 SKC 04/01 Q1015 BLU BLU=
201903250600 METAR LRTZ 250600Z 22012KT 9999 SKC 07/02 Q1014 BLU BLU=
201903250700 METAR LRTZ 250700Z 20014KT 9999 SKC 12/01 Q1014 BLU BLU=
201903250800 METAR LRTZ 250800Z 22016KT 9999 SKC 15/M00 Q1013 BLU BLU=
201903250900 METAR LRTZ 250900Z 18012KT 9999 SKC 16/04 Q1013 BLU BLU=
201903251000 METAR LRTZ 251000Z 19016KT 9999 SKC 17/03 Q1012 BLU BLU=
201903251100 METAR LRTZ 251100Z 17018KT 9999 SKC 16/03 Q1011 BLU BLU=
201903251200 METAR LRTZ 251200Z 18018KT 9999 SKC 16/02 Q1010 BLU BLU=
201903251300 METAR LRTZ 251300Z 19014G24KT 9999 SKC 14/03 Q1010 BLU BLU=
201903251500 METAR LRTZ 251500Z 19018KT 9999 SKC 12/03 Q1009 BLU BLU=
201903251600 METAR LRTZ 251600Z 20016KT 9999 SKC 11/02 Q1008 BLU BLU=
201903251800 METAR LRTZ 251800Z 17010KT 9999 SKC 09/M02 Q1008 BLU BLU=
201903251900 METAR LRTZ 251900Z 18010KT 9999 SKC 08/M01 Q1009 BLU BLU=
201903252000 METAR LRTZ 252000Z 19012KT 9999 SKC 08/M00 Q1009 BLU BLU=
201903252100 METAR LRTZ 252100Z 18010KT 9999 SKC 08/M00 Q1009 BLU BLU=
201903252200 METAR LRTZ 252200Z 20010KT 9999 SKC 07/01 Q1009 BLU BLU=
201903252300 METAR LRTZ 252300Z 19010KT 9999 SKC 07/01 Q1009 BLU BLU=
201903260400 METAR LRTZ 260400Z 20010KT 9999 SCT004 SCT200 06/05 Q1010
                        BLU BLU=
201903260500 METAR LRTZ 260500Z 21004KT 9999 FEW007 SCT200 06/05 Q1010
                        BLU BLU=
201903260600 METAR LRTZ 260600Z 36004KT 9999 SCT007 SCT200 08/06 Q1011
                        BLU BLU=
201903260700 METAR LRTZ 260700Z 06006KT 9999 SCT007 BKN010 09/06 Q1011
                        GRN GRN=
201903260800 METAR LRTZ 260800Z 06006KT 9999 SCT006 BKN012 09/06 Q1012
                        GRN GRN=
201903260900 METAR LRTZ 260900Z 07008KT 9999 SCT008 BKN013 11/07 Q1012
                        GRN GRN=
201903261000 METAR LRTZ 261000Z 09010KT 9999 SCT008 BKN015 11/07 Q1013
                        WHT WHT=
201903261100 METAR LRTZ 261100Z 04014KT 9999 SCT010 BKN020 11/07 Q1014
                        WHT WHT=
201903261200 METAR LRTZ 261200Z 05016KT 9999 SCT012 BKN022 10/06 Q1014
                        WHT WHT=
201903261300 METAR LRTZ 261300Z 05016KT 9999 SCT020 BKN140 10/06 Q1014
                        BLU WHT=
201903261400 METAR LRTZ 261400Z 07010KT 9999 BKN035 BKN140 10/06 Q1015
                        BLU BLU=
201903261500 METAR LRTZ 261500Z 08014KT 9999 SCT030 BKN140 09/05 Q1015
                        BLU BLU=
201903261600 METAR LRTZ 261600Z 04012KT 9999 SCT025 BKN035 08/05 Q1016
                        BLU BLU=
201903261700 METAR LRTZ 261700Z 04010KT 9999 SCT030 BKN120 08/05 Q1017
                        BLU BLU=
201903261900 METAR LRTZ 261900Z 03010KT 9999 FEW030 BKN080 OVC140 07/04
                        Q1018 BLU BLU=
201903262000 METAR LRTZ 262000Z 01006KT 9999 SCT060 BKN100 06/03 Q1018
                        BLU BLU=
201903262100 METAR LRTZ 262100Z 36004KT 9999 SCT060 BKN100 05/03 Q1018
                        BLU BLU=
201903262300 METAR LRTZ 262300Z 34004KT 9999 FEW060 BKN100 05/03 Q1019
                        BLU BLU=
201903270400 METAR LRTZ 270400Z 31008KT 6000 BKN100 05/03 Q1019 WHT WHT=
201903270500 METAR LRTZ 270500Z 33008KT 7000 BKN100 05/03 Q1020 WHT BLU=
201903270600 METAR LRTZ 270600Z 32014KT 9999 BKN080 07/04 Q1020 BLU BLU=
201903270700 METAR LRTZ 270700Z 32014KT 9999 BKN080 10/05 Q1020 BLU BLU=
201903270800 METAR LRTZ 270800Z 32014KT 9999 SCT080 11/05 Q1020 BLU BLU=
201903270900 METAR LRTZ 270900Z 32014KT 9999 SCT080 13/02 Q1020 BLU BLU=
201903271000 METAR LRTZ 271000Z 32014G24KT 9999 SCT035 13/M01 Q1021 BLU
                        BLU=
201903271100 METAR LRTZ 271100Z 32014G24KT 9999 BKN035 BKN200 14/M01 Q1021
                        BLU BLU=
201903271200 METAR LRTZ 271200Z 32014G24KT 9999 BKN035 BKN200 09/00 Q1022
                        BLU BLU=
201903271300 METAR LRTZ 271300Z 32016KT 9999 BKN035 BKN200 09/M01 Q1022
                        BLU BLU=
201903271400 METAR LRTZ 271400Z 32016KT 9999 SCT035 BKN100 09/M01 Q1023
                        BLU BLU=
201903271500 METAR LRTZ 271500Z 09010KT 9999 SCT040 BKN100 09/M01 Q1023
                        BLU BLU=
201903271600 METAR LRTZ 271600Z 06008KT 9999 SCT040 BKN100 BKN200 08/M01
                        Q1023 BLU BLU=
201903271700 METAR LRTZ 271700Z 03008KT 9999 SCT100 BKN200 07/01 Q1024
                        BLU BLU=
201903271800 METAR LRTZ 271800Z 34008KT 9999 BKN200 07/M02 Q1026 BLU BLU=
201903271900 METAR LRTZ 271900Z 34008KT 9999 BKN200 07/M03 Q1027 BLU BLU=
201903272000 METAR LRTZ 272000Z 34008KT 9999 BKN200 07/M03 Q1027 BLU BLU=
201903272300 METAR LRTZ 272300Z 34008KT 9999 SCT200 07/M03 Q1028 BLU BLU=
201903280400 METAR LRTZ 280400Z 33006KT 9999 SKC M02/M07 Q1029 BLU BLU=
201903280500 METAR LRTZ 280500Z 33006KT 9999 SKC M01/M06 Q1029 BLU BLU=
201903280600 METAR LRTZ 280600Z 35010KT 9999 SKC 03/M04 Q1029 BLU BLU=
201903280700 METAR LRTZ 280700Z 34012KT 9999 SKC 07/M04 Q1029 BLU BLU=
201903280800 METAR LRTZ 280800Z 34012KT 9999 SKC 08/M05 Q1030 BLU BLU=
201903281200 METAR LRTZ 281200Z 13012KT 9999 FEW035 09/M06 Q1028 BLU BLU=
201903281300 METAR LRTZ 281300Z 13012KT 9999 FEW040 09/M04 Q1028 BLU BLU=
201903281400 METAR LRTZ 281400Z 13012KT 9999 FEW040 09/M05 Q1028 BLU BLU=
201903281500 METAR LRTZ 281500Z 15010KT 9999 FEW200 08/M05 Q1027 BLU BLU=
201903281600 METAR LRTZ 281600Z 16008KT 9999 FEW200 07/M04 Q1027 BLU BLU=
201903281700 METAR LRTZ 281700Z 18006KT 9999 FEW200 06/M05 Q1027 BLU BLU=
201903281800 METAR LRTZ 281800Z VRB03KT 9999 SCT200 03/M06 Q1028 BLU BLU=
201903281900 METAR LRTZ 281900Z VRB02KT 9999 SCT200 02/M05 Q1028 BLU BLU=
201903282000 METAR LRTZ 282000Z VRB02KT 9999 SCT100 BKN200 03/M05 Q1028
                        BLU BLU=
201903282100 METAR LRTZ 282100Z VRB03KT 9999 SCT100 BKN200 03/M05 Q1028
                        BLU BLU=
201903282200 METAR LRTZ 282200Z VRB03KT 9999 SCT100 BKN200 03/M05 Q1028
                        BLU BLU=
201903282300 METAR LRTZ 282300Z VRB02KT 9999 SCT080 BKN200 03/M05 Q1028
                        BLU BLU=
201903290300 METAR LRTZ 290300Z VRB03KT 9999 BKN020 OVC050 03/M05 Q1028
                        WHT WHT=
201903290400 METAR LRTZ 290400Z VRB03KT 9999 SCT040 BKN055 04/M03 Q1028
                        BLU BLU=
201903290500 METAR LRTZ 290500Z VRB03KT 9999 BKN040 03/M02 Q1028 BLU BLU=
201903290600 METAR LRTZ 290600Z 34006KT 9999 BKN040 06/M00 Q1028 BLU BLU=
201903290700 METAR LRTZ 290700Z 02010KT 9999 SCT020 BKN050 07/02 Q1028
                        BLU BLU=
201903290800 METAR LRTZ 290800Z 07008KT 9999 SCT015 BKN060 07/02 Q1028
                        BLU BLU=
201903291000 METAR LRTZ 291000Z 09012KT 9999 SCT020 BKN030 BKN100 09/02
                        Q1029 BLU BLU=
201903291100 METAR LRTZ 291100Z 07012KT 9999 SCT020 BKN060 08/01 Q1028
                        BLU BLU=
201903291200 METAR LRTZ 291200Z 08012KT 9999 SCT020 BKN060 08/01 Q1028
                        BLU BLU=
201903291300 METAR LRTZ 291300Z 09010KT 9999 SCT020 SCT060 08/01 Q1027
                        BLU BLU=
201903291400 METAR LRTZ 291400Z 09010KT 9999 SCT020 SCT060 08/01 Q1027
                        BLU BLU=
201903291500 METAR LRTZ 291500Z 09008KT 9999 FEW040 SCT200 07/M02 Q1027
                        BLU BLU=
201903291600 METAR LRTZ 291600Z 09006KT 9999 SCT200 06/M01 Q1026 BLU BLU=
201903291700 METAR LRTZ 291700Z 11003KT 9999 FEW200 05/M03 Q1026 BLU BLU=
201903291900 METAR LRTZ 291900Z VRB03KT 9999 SKC 04/M02 Q1027 BLU BLU=
201903292000 METAR LRTZ 292000Z VRB03KT 9999 SKC 04/M03 Q1027 BLU BLU=
201903292100 METAR LRTZ 292100Z VRB03KT 9999 SKC 04/M03 Q1027 BLU BLU=
201903292300 METAR LRTZ 292300Z VRB03KT 9999 SKC 03/M02 Q1027 BLU BLU=
201903300100 METAR LRTZ 300100Z 03010KT 9999 SKC 12/M02 Q1024 BLU BLU=
201903300300 METAR LRTZ 300300Z VRB03KT 9999 SKC 02/M02 Q1026 BLU BLU=
201903300400 METAR LRTZ 300400Z 33006KT 9999 SCT050 M01/M03 Q1025 BLU
                        BLU=
201903300500 METAR LRTZ 300500Z 33006KT 9999 BKN050 01/M02 Q1025 BLU BLU=
201903300600 METAR LRTZ 300600Z 36010KT 9999 FEW050 06/M01 Q1025 BLU BLU=
201903300700 METAR LRTZ 300700Z 33010KT 9999 FEW100 10/M02 Q1025 BLU BLU=
201903300800 METAR LRTZ 300800Z 34008KT 9999 SKC 11/M03 Q1025 BLU BLU=
201903300900 METAR LRTZ 300900Z 03010KT 9999 SKC 12/M02 Q1024 BLU BLU=
201903301100 METAR LRTZ 301100Z 12010KT 9999 FEW040 11/M00 Q1024 BLU BLU=
201903301200 METAR LRTZ 301200Z 13008KT 9999 FEW040 11/01 Q1023 BLU BLU=
201903301300 METAR LRTZ 301300Z 14006KT 9999 SKC 11/01 Q1023 BLU BLU=
201903301400 METAR LRTZ 301400Z 15008KT 9999 SKC 10/M00 Q1022 BLU BLU=
201903301500 METAR LRTZ 301500Z 16008KT 9999 SKC 10/01 Q1022 BLU BLU=
201903301600 METAR LRTZ 301600Z 18008KT 9999 SKC 08/02 Q1022 BLU BLU=
201903301700 METAR LRTZ 301700Z 19008KT 9999 SKC 08/02 Q1022 BLU BLU=
201903301800 METAR LRTZ 301800Z 21004KT 9999 SKC 05/M00 Q1022 BLU BLU=
201903301900 METAR LRTZ 301900Z VRB02KT 9999 SKC 04/00 Q1023 BLU BLU=
201903302000 METAR LRTZ 302000Z VRB02KT 9999 SKC 04/00 Q1023 BLU BLU=
201903302100 METAR LRTZ 302100Z VRB02KT 9999 SKC 03/00 Q1023 BLU BLU=
201903302200 METAR LRTZ 302200Z 27004KT 9999 SKC 03/00 Q1022 BLU BLU=
201903302300 METAR LRTZ 302300Z 30004KT 9999 SKC 02/M00 Q1022 BLU BLU=
201903310300 METAR LRTZ 310300Z 01004KT 9999 SKC 01/M02 Q1020 BLU BLU=
201903310400 METAR LRTZ 310400Z 02004KT 9999 FEW050 03/M00 Q1020 BLU BLU=
201903310500 METAR LRTZ 310500Z 02004KT 9999 FEW080 05/M00 Q1020 BLU BLU=
201903310600 METAR LRTZ 310600Z 02006KT 9999 FEW080 08/01 Q1020 BLU BLU=
201903310700 METAR LRTZ 310700Z 02006KT 9999 SKC 11/02 Q1019 BLU BLU=
201903310800 METAR LRTZ 310800Z 02006KT 9999 SKC 13/03 Q1019 BLU BLU=
201903310900 METAR LRTZ 310900Z 02010KT 9999 SKC 13/02 Q1019 BLU BLU=
201903311000 METAR LRTZ 311000Z 02010KT 9999 FEW035 13/02 Q1019 BLU BLU=
201903311100 METAR LRTZ 311100Z 02010KT 9999 FEW035 13/02 Q1018 BLU BLU=
201903311200 METAR LRTZ 311200Z 06010KT 9999 FEW035 14/02 Q1017 BLU BLU=
201903311300 METAR LRTZ 311300Z 15010KT 9999 SKC 12/04 Q1017 BLU BLU=
201903311400 METAR LRTZ 311400Z 18010KT 9999 SKC 12/04 Q1016 BLU BLU=
201903311500 METAR LRTZ 311500Z 21010KT 9999 SKC 11/04 Q1016 BLU BLU=
201903311600 METAR LRTZ 311600Z 22008KT 9999 SKC 10/04 Q1016 BLU BLU=
201903311700 METAR LRTZ 311700Z VRB03KT 9999 SKC 08/03 Q1015 BLU BLU=
201903311800 METAR LRTZ 311800Z VRB03KT 9999 SKC 06/02 Q1016 BLU BLU=
201903311900 METAR LRTZ 311900Z VRB03KT 9999 SKC 05/02 Q1016 BLU BLU=
201903312000 METAR LRTZ 312000Z 33004KT 9999 SKC 05/02 Q1016 BLU BLU=
201903312100 METAR LRTZ 312100Z 33004KT 9999 SKC 05/02 Q1016 BLU BLU=
201903312300 METAR LRTZ 312300Z 33004KT 9999 SKC 05/02 Q1016 BLU BLU=