201904010500 TAF LRTZ 010500Z 0106/0206 03010KT 9999 SKC
                      TEMPO 0110/0113 SCT035
                      BECMG 0118/0120 SCT020 BKN090=
201904011100 TAF LRTZ 011100Z 0112/0212 09008KT 9999 SKC
                      TEMPO 0112/0116 SCT035
                      BECMG 0118/0120 SCT050
                      BECMG 0122/0200 03020KT=
201904011700 TAF LRTZ 011700Z 0118/0218 36006KT 9999 SKC
                      BECMG 0120/0122 SCT050
                      BECMG 0200/0202 03020KT
                      BECMG 0214/0216 03010KT SCT200=
201904012300 TAF LRTZ 012300Z 0200/0300 36010KT 9999 SKC
                      BECMG 0201/0203 03020KT
                      BECMG 0208/0210 SCT200
                      BECMG 0214/0216 06010KT=
201904020500 TAF LRTZ 020500Z 0206/0306 03020KT 9999 SCT200
                      BECMG 0214/0216 06010KT=
201904021100 TAF LRTZ 021100Z 0212/0312 06010G20KT 9999 SCT150
                      BECMG 0216/0218 06010KT
                      TEMPO 0302/0306 34010KT BKN100=
201904030500 TAF LRTZ 030500Z 0306/0406 06012KT 9999 SKC
                      TEMPO 0309/0313 SCT050
                      BECMG 0317/0319 VRB03KT SCT200=
201904031100 TAF LRTZ 031100Z 0312/0412 09012KT 9999 SCT020
                      BECMG 0314/0316 SKC
                      PROB30 TEMPO 0402/0406 15010KT 4000 BR SCT010=
201904031700 TAF LRTZ 031700Z 0318/0418 12010KT 9999 SKC
                      PROB30 TEMPO 0402/0406 VRB03KT 4000 BR SCT010
                       TEMPO 0408/0414 SCT020=
201904032300 TAF LRTZ 032300Z 0400/0500 13010KT 9999 SKC
                      PROB30 TEMPO 0402/0406 VRB03KT 4000 BR SCT010
                       TEMPO 0408/0414 BKN0200=
201904040500 TAF LRTZ 040500Z 0406/0506 13014KT 9999 BKN020
                      BECMG 0415/0417 SCT200
                      PROB40 TEMPO 0502/0506 VRB03KT 4000 BR SCT010=
201904041100 TAF LRTZ 041100Z 0412/0512 15012KT 9999 SCT030
                      TEMPO 0418/0423 BKN200
                      BECMG 0502/0504 BKN030=
201904041700 TAF LRTZ 041700Z 0418/0518 15012KT 9999 BKN200
                      BECMG 0502/0504 BKN025=
201904042300 TAF LRTZ 042300Z 0500/0600 15012KT 9999 BKN025
                      BECMG 0515/0517 VRB04KT BKN100=
201904050500 TAF LRTZ 050500Z 0506/0606 15012KT 9999 BKN025
                      BECMG 0518/0520 VRB04KT 3000 BR BKN010
                      TEMPO 0600/0604 0800 FG OVC005=
201904051100 TAF LRTZ 051100Z 0512/0612 15012KT 9999 BKN025
                      BECMG 0518/0520 VRB04KT 3000 BR BKN010
                      PROB30 TEMPO 0600/0604 0800 FG OVC005
                      BECMG 0606/0608 15012KT 9999 SCT020 BKN090=
201904051700 TAF LRTZ 051700Z 0518/0618 15012KT 9999 BKN010
                      TEMPO 0522/0603 3000 BR
                      PROB30 TEMPO 0603/0605 0800 FG OVC005
                      BECMG 0606/0608 SCT020 BKN090
                      BECMG 0612/0614 03014KT=
201904060500 TAF LRTZ 060500Z 0606/0706 15010KT 9999 BKN015 OVC090
                      BECMG 0612/0614 03014KT SCT020 BKN090
                      TEMPO 0700/0705 3000 BR OVC010
                      PROB30 TEMPO 0703/0705 0800 FG OVC005=
201904061100 TAF LRTZ 061100Z 0612/0712 06014KT 9999 SCT020 BKN100
                      BECMG 0616/0618 06004KT
                      TEMPO 0702/0706 5000 BR BKN010
                      BECMG 0706/0708 06014KT=
201904061700 TAF LRTZ 061700Z 0618/0718 06004KT 9999 BKN200
                      PROB30 TEMPO 0702/0706 5000 BR BKN010
                      BECMG 0706/0708 06014KT SCT020 BKN100=
201904062300 TAF LRTZ 062300Z 0700/0800 09004KT 9999 SCT015 BKN200
                      PROB30 TEMPO 0702/0706 5000 BR BKN010
                      BECMG 0706/0708 06014KT SCT020 BKN100=
201904070500 TAF LRTZ 070500Z 0706/0806 06010KT 9999 OVC100
                      BECMG 0718/0720 18010KT BKN020 OVC040=
201904071100 TAF LRTZ 071100Z 0712/0812 09014KT 9999 BKN100
                      BECMG 0717/0719 18012KT BKN030 OVC070
                      TEMPO 0804/0810 5000 RA BR BKN020 OVC050=
201904071700 TAF LRTZ 071700Z 0718/0818 15010KT 8000 OVC100
                      BECMG 0720/0722 BKN030 OVC070
                      TEMPO 0803/0809 5000 RA BR BKN020 OVC050=
201904080500 TAF LRTZ 080500Z 0806/0906 15012KT 4000 RA BR SCT005 BKN020 OVC040
                       BECMG 0812/0814 9999 BKN025 BKN080
                      BECMG 0800/0802 03012KT=
201904081100 TAF LRTZ 081100Z 0812/0912 16012KT 9999 BKN025 BKN080
                      BECMG 0900/0902 03012KT
                      TEMPO 0906/0912 4000 RA BR BKN010 OVC030=
201904081700 TAF LRTZ 081700Z 0818/0918 12012KT 5000 BR BKN015 OVC080
                      BECMG 0900/0902 03012KT
                      TEMPO 0905/0911 4000 RA BR BKN010 OVC030
                       BECMG 0912/0914 9999=
201904082300 TAF LRTZ 082300Z 0900/1000 03012KT 5000 BR BKN015 OVC080
                      TEMPO 0905/0911 4000 RA BR BKN010 OVC030
                       BECMG 0912/0914 9999
                      TEMPO 0918/1000 16010KT 4000 BR SCT020 BKN090=
201904090500 TAF LRTZ 090500Z 0906/1006 03012KT 9999
                      TEMPO 0907/0913 4000 RA BR SCT010 BKN020
                       OVC050
                      BECMG 0918/0920 16010KT 5000 BR OVC005
                      TEMPO 1002/1004 0350 FG=
201904091100 TAF LRTZ 091100Z 0912/1012 09012KT 9999 SCT040 BKN200
                      PROB30 TEMPO 0912/0915 6000 RA BKN015 OVC040=
201904091700 TAF LRTZ 091700Z 0918/1018 09008KT 9999 SCT080 OVC200
                      PROB30 TEMPO 0919/1002 6000 RA BKN015 OVC040
                       TEMPO 1002/1004 5000 BR=
201904092300 TAF LRTZ 092300Z 1000/1100 09004KT 7000 BKN040
                      TEMPO 1000/1002 -RA BKN020 OVC080
                      TEMPO 1002/1004 5000 BR
                      BECMG 1010/1012 18010KT SCT040
                      TEMPO 1011/1015 6000 RA BKN015 OVC040=
201904100500 TAF LRTZ 100500Z 1006/1106 VRB02KT 1500 BR BKN004 OVC040
                      BECMG 1007/1009 18010KT 8000 SCT040
                      TEMPO 1011/1015 5000 RA BKN015 OVC040
                      PROB30 TEMPO 1018/1020 4000 BR=
201904101100 TAF LRTZ 101100Z 1012/1112 16008KT 9999 SCT100
                      TEMPO 1012/1016 SCT040TCU
                      PROB30 TEMPO 1013/1015 -SHRA BKN040TCU
                      BECMG 1018/1020 4000 BR BKN010 OVC040
                      TEMPO 1100/1104 0800 FG OVC004=
201904101700 TAF LRTZ 101700Z 1018/1118 VRB02KT 0400 FG OVC002
                      BECMG 1104/1106 2000 BR OVC008
                      BECMG 1108/1110 9999 BKN040=
201904102300 TAF LRTZ 102300Z 1100/1200 VRB03KT 3000 BR OVC010
                      PROB40 TEMPO 1102/1106 0800 FG OVC005
                      BECMG 1108/1110 9999 BKN040=
201904110500 TAF LRTZ 110500Z 1106/1206 VRB03KT 0800 FG BKN002 BKN150
                      TEMPO 1106/1108 3000 BR SCT004 BKN015
                      BECMG 1108/1110 15008KT 9999 SCT040 BKN150
                       BECMG 1117/1119 5000 BR BKN010=
201904111100 TAF LRTZ 111100Z 1112/1212 15010KT 8000 BKN003
                      BECMG 1117/1119 4000 RA BR SCT010 BKN020
                       BKN050
                      BECMG 1200/1202 03012KT 7000 BKN005
                      TEMPO 1202/1206 0800 FG OVC002=
201904120500 TAF LRTZ 120500Z 1206/1306 03010KT 8000 BKN010 BKN020
                      BECMG 1210/1212 10014KT
                      PROB40 TEMPO 1215/1220 4000 RA BR SCT005
                       BKN010 OVC020
                      TEMPO 1302/1305 1500 BR BKN005=
201904121100 TAF LRTZ 121100Z 1212/1312 10014KT 9999 SCT015 BKN090
                      PROB40 TEMPO 1215/1220 4000 RA BR SCT005
                       BKN010 OVC020
                      TEMPO 1302/1305 1500 BR BKN005=
201904121700 TAF LRTZ 121700Z 1218/1318 14010KT 9999 SCT025 BKN090
                      BECMG 1220/1222 4000 RA BR BKN010 OVC030
                       TEMPO 1304/1310 6000 -RA SCT020 BKN050
                      BECMG 1306/1308 03010KT=
201904130500 TAF LRTZ 130500Z 1306/1406 03012KT 2000 BR BKN004 OVC020
                      BECMG 1310/1312 4000 RA SCT010 BKN025 OVC040=
201904131100 TAF LRTZ 131100Z 1312/1412 09012KT 8000 BKN003 OVC015
                      TEMPO 1312/1315 4000 RA BR SCT004 BKN015
                       OVC040
                      BECMG 1316/1318 VRB02KT 0500 FG OVC002
                      BECMG 1406/1408 03018KT 8000 SCT010 BKN020
                       OVC040=
201904131700 TAF LRTZ 131700Z 1318/1418 03006KT 0500 FG OVC002
                      BECMG 1406/1408 36018KT 8000 SCT010 BKN020
                       OVC040
                      TEMPO 1413/1417 4000 RA BR BKN010 OVC020=
201904132300 TAF LRTZ 132300Z 1400/1500 03008KT 2000 BR BKN002 OVC006
                      TEMPO 1402/1405 0500 FG VV002
                      BECMG 1406/1408 36018KT 8000 SCT010 BKN020
                       OVC040
                      TEMPO 1413/1417 4000 RA BR BKN010 OVC020=
201904140500 TAF LRTZ 140500Z 1406/1506 03014KT 8000 SCT010 BKN020 BKN040
                      TEMPO 1406/1409 2000 BR BKN002 OVC004
                      TEMPO 1413/1417 4000 RA BR BKN010 OVC020=
201904141100 TAF LRTZ 141100Z 1412/1512 03012KT 3000 -DZ BR SCT005 BKN008 OVC015
                       BECMG 1415/1417 9999 SCT008 BKN015
                      TEMPO 1416/1419 7000 -RA BKN008 OVC015
                      BECMG 1420/1422 9999 BKN015 OVC040
                      TEMPO 1500/1504 4000 -RA BR BKN010 OVC020=
201904141700 TAF LRTZ 141700Z 1412/1512 03012KT 5000 -DZ BR SCT005 BKN008 OVC015
                       BECMG 1420/1422 9999 BKN015 OVC040
                      TEMPO 1500/1504 4000 -RA BR BKN010 OVC020=
201904142300 TAF LRTZ 142300Z 1500/1600 03016KT 5000 -DZ BR SCT005 BKN008 OVC015
                       BECMG 1503/1505 9999 SCT015 BKN040
                      BECMG 1512/1514 SCT040 BKN090=
201904150500 TAF LRTZ 150500Z 1506/1606 03016KT SCT015 BKN020
                      PROB30 TEMPO 1506/1509 5000 -RA BR BKN008
                       OVC015
                      BECMG 1512/1514 SCT040 BKN090=
201904151100 TAF LRTZ 151100Z 1512/1612 34012KT 9999 SCT040 BKN090=
201904151700 TAF LRTZ 151700Z 1518/1618 34012KT 9999 SCT090 BKN200
                      TEMPO 1610/1614 SCT030 BKN090=
201904152300 TAF LRTZ 152300Z 1600/1700 34012KT 9999 SCT090 BKN200
                      TEMPO 1610/1614 SCT030 BKN090=
201904160500 TAF LRTZ 160500Z 1606/1706 34012KT 9999 SCT090 BKN200
                      TEMPO 1610/1614 SCT030 BKN090
                      BECMG 1618/1620 SCT025 BKN080=
201904161100 TAF LRTZ 161100Z 1612/1712 33012G22KT 9999
                      BECMG 1614/1616 BKN080 1706/1708 09014 SCT025
                       BKN070=
201904161700 TAF LRTZ 161700Z 1618/1718 02010KT BKN080
                      BECMG 1705/1707 10014KT SCT025 BKN070
                      TEMPO 1712/1716 5000 RA BR BKN020 OVC050=
201904170500 TAF LRTZ 170500Z 1706/1806 06014KT SCT035 BKN080
                      PROB30 TEMPO 1712/1716 5000 RA BR BKN020
                       OVC050
                      TEMPO 1802/1806 VRB03KT BKN005 OVC020=
201904171100 TAF LRTZ 171100Z 1712/1812 08008KT FEW035 BKN080
                      BECMG 1717/1719 VRB03KT
                      BECMG 1800/1802 35008KT
                      BECMG 1808/18010 5000 RA BR BKN005 OVC025=
201904171700 TAF LRTZ 171700Z 1718/1818 36006KT FEW020 BKN080
                      BECMG 1806/1808 03016KT
                      TEMPO 1806/1812 5000 RA BR BKN005 OVC025
                       BECMG 1812/1814 SCT020 OVC080=
201904172300 TAF LRTZ 172300Z 1800/1900 03006KT 9999 SCT020 BKN070
                      BECMG 1806/1808 03016KT
                      TEMPO 1806/18012 5000 RA BR BKN015 OVC025
                       BECMG 1812/1814 SCT020 OVC080
                      BECMG 1818/1820 33010KT SCT200=
201904180500 TAF LRTZ 180500Z 1806/1906 36006KT 8000 BKN050 OVC080
                      BECMG 1806/1808 03016KT
                      TEMPO 1806/18012 5000 RA BR BKN015 OVC025
                       BECMG 1812/1814 SCT020 OVC080
                      BECMG 1818/1820 33010KT SCT200=
201904181100 TAF LRTZ 181100Z 1812/1912 06016KT 9999 SCT040 BKN080
                      BECMG 1816/1818 VRB03KT SCT100
                      BECMG 1904/1906 33012KT=
201904181700 TAF LRTZ 181700Z 1818/1918 VRB03KT 9999 SCT100
                      BECMG 1904/1906 33012KT
                      TEMPO 1909/1911 SCT040CB
                      PROB40 TEMPO 1912/1915 04010G20KT 5000 SHRA
                       BKN040CB=
201904182300 TAF LRTZ 182300Z 1900/2000 VRB03KT 9999 SCT200
                      BECMG 1904/1906 33012KT SCT035 BKN100
                      PROB40 TEMPO 1912/1915 04010G20KT 5000 SHRA
                       BKN040CB=
201904190500 TAF LRTZ 190500Z 1906/2006 33012KT 9999 BKN200
                      BECMG 1909/1911 SCT040
                      PROB40 TEMPO 1912/1918 04010G20KT 4000 SHRA
                       BKN040CB
                      BECMG 1918/1910 VRB03KT SCT200=
201904191100 TAF LRTZ 191100Z 1912/2012 33012KT 9999 SCT030 BKN090
                      TEMPO 1912/1918 06012KT
                      TEMPO 1922/2002 5000 -SHRA BKN025 BKN070
                       BECMG 2006/2008 SCT200=
201904191700 TAF LRTZ 191700Z 1918/2018 33012KT 9999 SCT030 BKN090
                      TEMPO 1922/2002 VRB10G20KT 5000 -SHRA BR
                       BKN025CB BKN070
                      BECMG 2006/2008 04010KT SCT200
                      TEMPO 2010/2014 BKN030=
201904192300 TAF LRTZ 192300Z 2000/2100 33012KT 9999 SCT030 BKN090
                      TEMPO 2000/2002 VRB10G20KT 5000 -SHRA BR
                       BKN025CB BKN070
                      BECMG 2006/2008 04010KT SCT200
                      TEMPO 2010/2014 BKN030=
201904200500 TAF LRTZ 200500Z 2006/2106 04012KT 9999 SCT200
                      TEMPO 2010/2014 BKN030
                      PROB30 TEMPO 2011/2013 6000 -SHRA SCT025CB
                       BKN050=
201904201100 TAF LRTZ 201100Z 2012/2112 04014KT 9999 SCT035 BKN100
                      PROB30 TEMPO 2013/2016 6000 -SHRA SCT025CB
                       BKN050
                      BECMG 2016/2018 30006KT SCT200
                      BECMG 2107/2109 06010KT SCT100=
201904201700 TAF LRTZ 201700Z 2018/2118 33004KT 9999 SKC
                      BECMG 2107/2109 12012KT SCT100
                      TEMPO 2110/2114 SCT040CB=
201904210500 TAF LRTZ 210500Z 2106/2206 33010KT 9999 SCT200
                      BECMG 2107/2109 12010KT SCT035 BKN100
                      TEMPO 2110/2114 SCT040CB=
201904211100 TAF LRTZ 211100Z 2112/2212 13010KT 9999 BKN070 BKN200=
201904211700 TAF LRTZ 211700Z 2118/2218 18010KT 9999 SCT080 BKN200
                      BECMG 2202/2204 12010KT SCT200=
201904220500 TAF LRTZ 220500Z 2206/2306 09008KT 9999 SCT200
                      BECMG 2304/2306 BKN040 OVC200=
201904221100 TAF LRTZ 221100Z 2212/2312 11010KT 9999 SCT200
                      BECMG 2215/22187 VRB03KT SKC
                      TEMPO 2301/2305 4000 BR
                      BECMG 2305/2307 12014KT FEW100 BKN200=
201904221700 TAF LRTZ 221700Z 2218/2318 VRB03KT 9999 SKC
                      TEMPO 2301/2305 4000 BR
                      BECMG 2305/2307 06014KT FEW100 BKN200=
201904222300 TAF LRTZ 222300Z 2300/2400 06010KT 9999 SKC
                      TEMPO 2301/2305 4000 BR
                      BECMG 2305/2307 FEW100 BKN200
                      BECMG 2313/2315 12010KT SCT200=
201904230500 TAF LRTZ 230500Z 2306/2406 06010KT 9999 SCT200
                      TEMPO 2306/2308 4000 BR
                      BECMG 2308/2310 FEW100 BKN200
                      TEMPO 2323/2404 3000 BR=
201904231100 TAF LRTZ 231100Z 2312/2412 06010KT 9999 SCT090 BKN200
                      TEMPO 2323/2404 3000 BR BKN040 OVC090=
201904231700 TAF LRTZ 231700Z 2318/2418 12010KT 9999 SCT090 BKN200
                      TEMPO 2323/2404 3000 BR BKN040 OVC090
                      BECMG 2412/2414 SCT200=
201904232300 TAF LRTZ 232300Z 2400/2500 12010KT 9999 SCT040 BKN090
                      TEMPO 2400/2404 3000 BR
                      BECMG 2412/2414 SCT200=
201904240500 TAF LRTZ 240500Z 2406/2506 12010KT 9999 SCT040 BKN090
                      BECMG 2412/2414 SCT200
                      PROB30 TEMPO 2423/2504 5000 BR=
201904241100 TAF LRTZ 241100Z 2412/2512 12014KT 9999 SCT200
                      BECMG 2416/2418 16004KT SKC
                      PROB30 TEMPO 2500/2504 3000 BR
                      BECMG 2508/2510 12014KT FEW040 SCT200=
201904241700 TAF LRTZ 241700Z 2418/2518 14004KT 9999 SKC
                      PROB30 TEMPO 2500/2504 3000 BR
                      BECMG 2508/2510 12014KT FEW040 SCT200=
201904242300 TAF LRTZ 242300Z 2500/2600 12012KT 9999 SKC
                      PROB30 TEMPO 2501/2504 3000 BR
                      BECMG 2508/2510 FEW040 SCT200=
201904250500 TAF LRTZ 250500Z 2506/2606 12012KT 9999 FEW015
                      BECMG 2508/2510 SCT200
                      PROB30 TEMPO 2501/2504 0800 MIFG=
201904251100 TAF LRTZ 251100Z 2512/2612 16016KT 9999 FEW050 SCT200
                      BECMG 2519/2521 16004KT
                      PROB40 TEMPO 2600/264 0800 FG VV002=
201904251700 TAF LRTZ 251700Z 2518/2618 12008KT 9999 BKN005
                      BECMG 2520/2522 5000 BR
                      PROB40 TEMPO 2600/2604 0800 FG VV002
                      BECMG 2605/2607 9999 SCT200=
201904252300 TAF LRTZ 252300Z 2600/2700 12008KT 9999 BKN005 OVC200
                      PROB30 TEMPO 2600/2604 0800 FG VV002
                      BECMG 2605/2607 9999 SCT200=
201904260500 TAF LRTZ 260500Z 2606/2706 14008KT 9999 BKN005 BKN200
                      BECMG 2607/2609 SCT200
                      PROB30 TEMPO 2702/2705 5000 BR BKN005 BKN200=
201904261100 TAF LRTZ 261100Z 2612/2712 15014KT 9999 SKC
                      BECMG 2618/2620 15004KT 5000 BR BKN005
                      PROB30 TEMPO 2702/2706 1200 BR BKN002
                      BECMG 2706/0708 15014KT 9999 BKN200=
201904261700 TAF LRTZ 261700Z 2618/2718 15004KT 9999 SKC
                      BECMG 2619/2621 5000 BR BKN005
                      PROB30 TEMPO 2702/2706 1200 BR BKN002
                      BECMG 2706/0708 15014KT 9999 BKN200=
201904270500 TAF LRTZ 270500Z 2706/2806 18014KT 9999 BKN200
                      TEMPO 2709/2715 15014G24KT
                      BECMG 2718/2720 18004KT
                      BECMG 2800/2802 SCT040
                      TEMPO 2802/2806 5000 BR SCT005 BKN040=
201904271100 TAF LRTZ 271100Z 2712/2812 18012G22KT 9999 BKN200
                      BECMG 2717/2719 15008KT
                      TEMPO 2723/2802 5000 BR
                      BECMG 2803/2805 SCT040 BKN100
                      PROB30 TEMPO 2806/2809 4000 -SHRA BR BKN025CB
                       BKN070=
201904271700 TAF LRTZ 271700Z 2718/2818 18012KT 9999 BKN200
                      BECMG 2801/2803 SCT040 BKN080
                      TEMPO 2806/2809 4000 -SHRA BKN025CB BKN050
                       BECMG 2812/2814 24010KT SCT100=
201904272300 TAF LRTZ 272300Z 2800/2900 18012KT 9999 FEW100 BKN200
                      BECMG 2802/2804 SCT040 BKN080
                      TEMPO 2806/2809 4000 -SHRA BKN025CB BKN050
                       BECMG 2812/2814 24010KT SCT100=
201904280500 TAF LRTZ 280500Z 2806/2906 24012KT 6000 -SHRA BKN025CB BKN050
                      BECMG 2812/2814 9999 NSW SCT100=
201904281100 TAF LRTZ 281100Z 2812/2912 21012KT 9999 SCT040 BKN070
                      BECMG 2814/2816 SCT200
                      BECMG 2906/2908 15010KT SCT100=
201904281700 TAF LRTZ 281700Z 2818/2918 21006KT 9999 SCT200
                      BECMG 2907/2909 15010KT SCT040 BKN100=
201904282300 TAF LRTZ 282300Z 2900/3000 21006KT 9999 SCT200
                      BECMG 2907/2909 15010KT SCT040 BKN100=
201904291100 TAF LRTZ 291100Z 2912/3012 15010KT 9999 BKN200
                      TEMPO 2912/2914 SCT040
                      PROB30 TEMPO 3000/3004 -SHRA BKN030CB
                      BECMG 3010/2912 18010G20KT=
201904291700 TAF LRTZ 291700Z 2918/3018 15010KT 9999 SCT200
                      PROB30 TEMPO 3000/3004 -SHRA BKN030CB
                      BECMG 3010/2912 18010G20KT SCT040 BKN200=
201904300500 TAF LRTZ 300500Z 3006/0106 15006KT 9999 BKN200
                      TEMPO 3011/3015 15016KT
                      TEMPO 3018/0100 VRB10G20KT 4000 TSRA SCT020
                       BKN040CB
                      BECMG 0101/0103 BKN090=
201904301100 TAF LRTZ 301100Z 3012/0112 15012KT 9999 BKN200
                      TEMPO 3018/0100 VRB10G20KT 4000 TSRA BR SCT020
                       BKN040CB
                      BECMG 0101/0103 22012KT BKN090=
201904301700 TAF LRTZ 301700Z 3018/0118 22016KT 9999 SCT050 BKN090
                      TEMPO 3018/0100 VRB10G20KT 4000 TSRA BR SCT020
                       BKN040CB
                      TEMPO 0106/0112 22030G40KT
                      TEMPO 0110/0116 4000 TSRA BR SCT015 BKN030CB=
201904302300 TAF LRTZ 302300Z 0100/0200 22016KT 9999 SCT040 BKN090
                      TEMPO 0106/0112 22030G40KT
                      TEMPO 0110/0116 4000 TSRA BR SCT015 BKN030CB=