201904010300 METAR LRTZ 010300Z 33004KT 9999 SKC 02/M01 Q1014 BLU BLU=
201904010400 METAR LRTZ 010400Z 33006KT 9999 SKC 02/M01 Q1014 BLU BLU=
201904010500 METAR LRTZ 010500Z 03008KT 9999 SKC 04/M01 Q1015 BLU BLU=
201904010600 METAR LRTZ 010600Z 02006KT 9999 SKC 09/02 Q1015 BLU BLU=
201904010700 METAR LRTZ 010700Z 03008KT 9999 SKC 13/03 Q1015 BLU BLU=
201904010800 METAR LRTZ 010800Z 06008KT 9999 SKC 15/03 Q1015 BLU BLU=
201904011000 METAR LRTZ 011000Z 06010KT 9999 SKC 17/04 Q1015 BLU BLU=
201904011100 METAR LRTZ 011100Z 08010KT 9999 FEW035 17/04 Q1015 BLU BLU=
201904011200 METAR LRTZ 011200Z 09010KT 9999 FEW035 17/04 Q1014 BLU BLU=
201904011300 METAR LRTZ 011300Z 11008KT 9999 FEW035 17/04 Q1014 BLU BLU=
201904011400 METAR LRTZ 011400Z 13006KT 9999 SKC 17/05 Q1014 BLU BLU=
201904011500 METAR LRTZ 011500Z 10006KT 9999 SKC 16/04 Q1014 BLU BLU=
201904011600 METAR LRTZ 011600Z 08004KT 9999 SKC 16/03 Q1014 BLU BLU=
201904011700 METAR LRTZ 011700Z 01004KT 9999 SKC 13/04 Q1014 BLU BLU=
201904011800 METAR LRTZ 011800Z 36004KT 9999 SCT080 11/04 Q1015 BLU BLU=
201904011900 METAR LRTZ 011900Z 36006KT 9999 BKN075 11/03 Q1015 BLU BLU=
201904012000 METAR LRTZ 012000Z 36008KT 9999 BKN050 11/03 Q1016 BLU BLU=
201904012300 METAR LRTZ 012300Z 36012KT 9999 SKC 10/04 Q1017 BLU BLU=
201904020300 METAR LRTZ 020300Z 01016KT 9999 SKC 08/M01 Q1020 BLU BLU=
201904020400 METAR LRTZ 020400Z 01014KT 9999 SKC 07/M02 Q1020 BLU BLU=
201904020500 METAR LRTZ 020500Z 03016KT 9999 FEW200 07/M03 Q1021 BLU BLU=
201904020600 METAR LRTZ 020600Z 03010G20KT 9999 FEW200 08/M04 Q1021 BLU
                        BLU=
201904020700 METAR LRTZ 020700Z 06012G22KT 9999 FEW200 09/M03 Q1022 BLU
                        BLU=
201904020800 METAR LRTZ 020800Z 06012G22KT 9999 FEW150 10/M03 Q1022 BLU
                        BLU=
201904020900 METAR LRTZ 020900Z 06012G22KT 9999 SCT100 11/M03 Q1022 BLU
                        BLU=
201904021000 METAR LRTZ 021000Z 06012G22KT 9999 SCT100 11/M05 Q1022 BLU
                        BLU=
201904021100 METAR LRTZ 021100Z 06018KT 9999 SCT150 12/M04 Q1022 BLU BLU=
201904021200 METAR LRTZ 021200Z 08016KT 9999 SCT200 12/M02 Q1022 BLU BLU=
201904021300 METAR LRTZ 021300Z 09020KT 9999 SCT200 11/M02 Q1022 BLU BLU=
201904021400 METAR LRTZ 021400Z 10018KT 9999 BKN200 10/M01 Q1022 BLU BLU=
201904021500 METAR LRTZ 021500Z 10014KT 9999 BKN200 09/00 Q1022 BLU BLU=
201904021600 METAR LRTZ 021600Z 10014KT 9999 BKN200 08/M02 Q1022 BLU BLU=
201904021800 METAR LRTZ 021800Z VRB03KT 9999 SCT200 07/M02 Q1023 BLU BLU=
201904021900 METAR LRTZ 021900Z VRB03KT 9999 SCT200 07/M02 Q1023 BLU BLU=
201904022000 METAR LRTZ 022000Z VRB03KT 9999 SCT200 07/M02 Q1023 BLU BLU=
201904022100 METAR LRTZ 022100Z VRB03KT 9999 SCT200 07/M02 Q1023 BLU BLU=
201904022300 METAR LRTZ 022300Z VRB03KT 9999 SCT200 06/M02 Q1023 BLU BLU=
201904030300 METAR LRTZ 030300Z 01004KT 9999 SCT200 02/M04 Q1022 BLU BLU=
201904030400 METAR LRTZ 030400Z 01004KT 9999 FEW200 01/M03 Q1022 BLU BLU=
201904030500 METAR LRTZ 030500Z 01004KT 9999 SKC 01/M03 Q1022 BLU BLU=
201904030600 METAR LRTZ 030600Z 05008KT 9999 FEW040 07/02 Q1022 BLU BLU=
201904030700 METAR LRTZ 030700Z 04010KT 9999 FEW040 09/04 Q1022 BLU BLU=
201904030800 METAR LRTZ 030800Z 08012KT 9999 FEW035 10/03 Q1023 BLU BLU=
201904030900 METAR LRTZ 030900Z 09014KT 9999 SCT020 10/03 Q1023 BLU BLU=
201904031000 METAR LRTZ 031000Z 11012KT 9999 SCT020 11/03 Q1022 BLU BLU=
201904031100 METAR LRTZ 031100Z 10012KT 9999 SCT020 10/01 Q1022 BLU BLU=
201904031200 METAR LRTZ 031200Z 08012KT 9999 SCT020 11/04 Q1021 BLU BLU=
201904031300 METAR LRTZ 031300Z 09012KT 9999 SCT020 11/04 Q1021 BLU BLU=
201904031400 METAR LRTZ 031400Z 10014KT 9999 FEW020 10/01 Q1021 BLU BLU=
201904031500 METAR LRTZ 031500Z 11014KT 9999 FEW020 09/M01 Q1021 BLU BLU=
201904031600 METAR LRTZ 031600Z 11010KT 9999 SKC 08/M02 Q1021 BLU BLU=
201904031700 METAR LRTZ 031700Z 10008KT 9999 SKC 06/M02 Q1021 BLU BLU=
201904031800 METAR LRTZ 031800Z 12006KT 9999 SKC 06/M03 Q1021 BLU BLU=
201904031900 METAR LRTZ 031900Z 13006KT 9999 SKC 05/M03 Q1021 BLU BLU=
201904032000 METAR LRTZ 032000Z 13004KT 9999 SKC 05/M04 Q1021 BLU BLU=
201904032100 METAR LRTZ 032100Z 12004KT 9999 SKC 05/M04 Q1021 BLU BLU=
201904032200 METAR LRTZ 032200Z 14004KT 9999 SKC 05/M04 Q1021 BLU BLU=
201904032300 METAR LRTZ 032300Z 13004KT 9999 SKC 04/M03 Q1021 BLU BLU=
201904040000 METAR LRTZ 040000Z 14004KT 9999 SKC 04/M03 Q1020 BLU BLU=
201904040200 METAR LRTZ 040200Z 14006KT 9999 SKC 02/M02 Q1020 BLU BLU=
201904040300 METAR LRTZ 040300Z 16004KT 9999 FEW030 03/M03 Q1019 BLU BLU=
201904040400 METAR LRTZ 040400Z 14004KT 9999 FEW030 04/M02 Q1019 BLU BLU=
201904040500 METAR LRTZ 040500Z 130084KT 9999 SCT030 06/M02 Q1019 BLU
                        BLU=
201904040600 METAR LRTZ 040600Z 16010KT 9999 SCT030 08/M02 Q1019 BLU BLU=
201904040700 METAR LRTZ 040700Z 13012KT 9999 SCT030 09/M02 Q1019 BLU BLU=
201904040800 METAR LRTZ 040800Z 14012KT 9999 SCT030 09/M01 Q1020 BLU BLU=
201904040900 METAR LRTZ 040900Z 16012KT 9999 SCT030 10/M01 Q1020 BLU BLU=
201904041000 METAR LRTZ 041000Z 16012KT 9999 SCT030 10/M01 Q1020 BLU BLU=
201904041100 METAR LRTZ 041100Z 14014KT 9999 SCT030 10/M01 Q1020 BLU BLU=
201904041200 METAR LRTZ 041200Z 15014KT 9999 SCT030 10/M02 Q1019 BLU BLU=
201904041300 METAR LRTZ 041300Z 14014KT 9999 SCT030 10/M02 Q1019 BLU BLU=
201904041400 METAR LRTZ 041400Z 14014KT 9999 SCT030 10/M01 Q1018 BLU BLU=
201904041500 METAR LRTZ 041500Z 15014KT 9999 SCT030 09/M00 Q1018 BLU BLU=
201904041600 METAR LRTZ 041600Z 16010KT 9999 SCT030 09/01 Q1018 BLU BLU=
201904041700 METAR LRTZ 041700Z 16008KT 9999 SCT030 08/01 Q1018 BLU BLU=
201904041800 METAR LRTZ 041800Z 16010KT 9999 FEW030 SCT200 08/M01 Q1018
                        BLU BLU=
201904041900 METAR LRTZ 041900Z 15010KT 9999 BKN200 08/M00 Q1017 BLU BLU=
201904042000 METAR LRTZ 042000Z 15010KT 9999 BKN200 07/M00 Q1017 BLU BLU=
201904042100 METAR LRTZ 042100Z 16012KT 9999 BKN200 07/M01 Q1017 BLU BLU=
201904042300 METAR LRTZ 042300Z 16010KT 9999 BKN200 06/M01 Q1016 BLU BLU=
201904050300 METAR LRTZ 050300Z 15010KT 9999 BKN030 08/03 Q1016 BLU BLU=
201904050400 METAR LRTZ 050400Z 15010KT 9999 BKN030 08/03 Q1017 BLU BLU=
201904050500 METAR LRTZ 050500Z 15010KT 9999 BKN030 08/04 Q1017 BLU BLUU=
201904050600 METAR LRTZ 050600Z 15010KT 9999 BKN025 09/03 Q1018 BLU BLU=
201904050700 METAR LRTZ 050700Z 15012KT 9999 BKN025 09/02 Q1018 BLU BLU=
201904050800 METAR LRTZ 050800Z 15012KT 9999 BKN025 10/02 Q1018 BLU BLU=
201904050900 METAR LRTZ 050900Z 15012KT 9999 BKN025 10/02 Q1018 BLU BLU=
201904051000 METAR LRTZ 051000Z 15012KT 9999 BKN025 10/02 Q1018 BLU BLU=
201904051100 METAR LRTZ 051100Z 15012KT 9999 BKN025 10/03 Q1018 BLU BLU=
201904051200 METAR LRTZ 051200Z 15012KT 9999 BKN025 10/03 Q1018 BLU BLU=
201904051300 METAR LRTZ 051300Z 15012KT 9999 BKN025 10/03 Q1017 BLU BLU=
201904051400 METAR LRTZ 051400Z 15012KT 9999 SCT030 SCT200 10/03 Q1017
                        BLU BLU=
201904051500 METAR LRTZ 051500Z 15012KT 9999 SCT030 SCT200 10/05 Q1016
                        BLU BLU=
201904051600 METAR LRTZ 051600Z 15012KT 9999 SCT015 BKN200 09/05 Q1016
                        BLU WHT=
201904051800 METAR LRTZ 051800Z 15012KT 9999 BKN015 09/05 Q1016 WHT WHT=
201904051900 METAR LRTZ 051900Z 15012KT 9999 BKN015 09/04 Q1016 WHT WHT=
201904052000 METAR LRTZ 052000Z 15012KT 9999 BKN015 09/04 Q1016 WHT WHT=
201904052100 METAR LRTZ 052100Z 15012KT 9999 BKN015 08/04 Q1016 WHT WHT=
201904052200 METAR LRTZ 052200Z 15010KT 9999 BKN015 08/04 Q1016 WHT WHT=
201904052300 METAR LRTZ 052300Z 15012KT 8000 BKN015 06/04 Q1016 WHT WHT=
201904060200 METAR LRTZ 060200Z 15010KT 4000 BR BKN010 06/04 Q1016 GRN
                        GRN=
201904060300 METAR LRTZ 060300Z 15010KT 7000 OVC015 07/04 Q1015 WHT WHT=
201904060400 METAR LRTZ 060400Z 15010KT 8000 OVC015 08/03 Q1015 WHT WHT=
201904060500 METAR LRTZ 060500Z 15010KT 8000 OVC015 08/04 Q1015 WHT WHT=
201904060600 METAR LRTZ 060600Z 12010KT 8000 SCT015 OVC020 09/04 Q1015
                        WHT WHT=
201904060700 METAR LRTZ 060700Z 13012KT 9999 SCT015 OVC020 09/04 Q1016
                        WHT WHT=
201904060800 METAR LRTZ 060800Z 12012KT 9999 OVC020 09/04 Q1016 WHT WHT=
201904060900 METAR LRTZ 060900Z 12012KT 9999 SCT015 BKN023 10/05 Q1016
                        WHT BLU=
201904061000 METAR LRTZ 061000Z 13012KT 9999 SCT015 BKN023 10/05 Q1016
                        WHT WHT=
201904061200 METAR LRTZ 061200Z 10014KT 9999 SCT015 BKN022 10/05 Q1015
                        WHT WHT=
201904061300 METAR LRTZ 061300Z 09014KT 9999 SCT020 BKN200 11/04 Q1015
                        BLU BLU=
201904061400 METAR LRTZ 061400Z 08012KT 9999 FEW020 BKN200 10/05 Q1014
                        BLU BLU=
201904061500 METAR LRTZ 061500Z 09010KT 9999 BKN200 10/05 Q1014 BLU BLU=
201904061600 METAR LRTZ 061600Z 09008KT 9999 BKN200 09/06 Q1014 BLU BLU=
201904061700 METAR LRTZ 061700Z 07006KT 9999 BKN200 08/06 Q1014 BLU BLU=
201904061800 METAR LRTZ 061800Z 08006KT 9999 BKN200 07/06 Q1014 BLU BLU=
201904061900 METAR LRTZ 061900Z 09006KT 9999 SCT200 07/05 Q1014 BLU BLU=
201904062000 METAR LRTZ 062000Z 09004KT 9999 SCT200 07/05 Q1014 BLU BLU=
201904062300 METAR LRTZ 062300Z 10006KT 9999 FEW015 BKN200 07/05 Q1013
                        BLU BLU=
201904070300 METAR LRTZ 070300Z 06006KT 9999 FEW020 OVC100 08/07 Q1011
                        BLU BLU=
201904070400 METAR LRTZ 070400Z 07008KT 9999 BKN100 09/07 Q1011 BLU BLU=
201904070500 METAR LRTZ 070500Z 06006KT 9999 OVC100 09/07 Q1011 BLU BLU=
201904070600 METAR LRTZ 070600Z 06010KT 9999 FEW020 OVC100 10/07 Q1011
                        BLU BLU=
201904070700 METAR LRTZ 070700Z 07012KT 9999 FEW020 BKN100 12/06 Q1011
                        BLU BLU=
201904070800 METAR LRTZ 070800Z 09012KT 9999 FEW020 BKN100 12/07 Q1011
                        BLU BLU=
201904070900 METAR LRTZ 070900Z 10012KT 9999 BKN100 13/07 Q1011 BLU BLU=
201904071100 METAR LRTZ 071100Z 11012KT 9999 BKN100 14/08 Q1010 BLU BLU=
201904071200 METAR LRTZ 071200Z 08010KT 9999 OVC100 12/07 Q1010 BLU BLU=
201904071300 METAR LRTZ 071300Z 11012KT 9999 OVC100 12/07 Q1009 BLU BLU=
201904071400 METAR LRTZ 071400Z 10008KT 9999 OVC100 11/07 Q1009 BLU BLU=
201904071500 METAR LRTZ 071500Z 12006KT 9999 FEW010 SCT040 BKN100 11/08
                        Q1009 BLU BLU=
201904071600 METAR LRTZ 071600Z 14004KT 9999 FEW008 SCT100 BKN200 10/08
                        Q1009 BLU BLU=
201904071700 METAR LRTZ 071700Z 14004KT 8000 SCT100 BKN200 09/08 Q1009
                        BLU BLU=
201904071800 METAR LRTZ 071800Z 17004KT 8000 FEW070 BKN100 09/08 Q1009
                        BLU BLU=
201904071900 METAR LRTZ 071900Z 18004KT 8000 SCT060 BKN100 09/08 Q1010
                        BLU BL=
201904072000 METAR LRTZ 072000Z 20004KT 8000 FEW060 BKN100 09/08 Q1010
                        BLU BLU=
201904072100 METAR LRTZ 072100Z 19004KT 8000 FEW060 BKN100 09/08 Q1009
                        BLU BLU=
201904072200 METAR LRTZ 072200Z 18004KT 8000 FEW060 BKN100 09/08 Q1009
                        BLU BLU=
201904072300 METAR LRTZ 072300Z 20004KT 8000 SCT060 BKN100 09/08 Q1009
                        BLU BLU=
201904080300 METAR LRTZ 080300Z 17006KT 4000 BR SCT008 BKN040 OVC080 10/09
                        Q1008 GRN YLO=
201904080400 METAR LRTZ 080400Z 13006KT 1500 BR SCT005 BKN020 OVC040 10/09
                        Q1008 AMB YLO=
201904080500 METAR LRTZ 080500Z 16006KT 2500 -RA BR SCT005 BKN020 OVC040
                        10/09 Q1008 YLO YLO=
201904080600 METAR LRTZ 080600Z 16012KT 2500 BR SCT005 BKN020 OVC040 10/09
                        Q1008 YLO GRN=
201904080700 METAR LRTZ 080700Z 16012KT 3000 BR SCT005 BKN020 OVC040 10/09
                        Q1008 YLO GRN=
201904080800 METAR LRTZ 080800Z 16012KT 4000 BR SCT005 BKN020 OVC040 10/09
                        Q1008 GRN GRN=
201904080900 METAR LRTZ 080900Z 16012KT 6000 SCT005 BKN020 OVC040 10/09
                        Q1008 WHT WHT=
201904081000 METAR LRTZ 081000Z 16012KT 7000 SCT010 BKN020 OVC040 11/09
                        Q1008 WHT WHT=
201904081100 METAR LRTZ 081100Z 16012KT 8000 SCT020 BKN040 12/09 Q1007
                        BLU BLU=
201904081200 METAR LRTZ 081200Z 16012KT 9999 SCT020 BKN040 12/09 Q1007
                        BLU BLU=
201904081300 METAR LRTZ 081300Z 16012KT 9999 SCT020 BKN090 13/09 Q1006
                        BLU BLU=
201904081400 METAR LRTZ 081400Z 16012KT 9999 SCT020 BKN090 12/09 Q1006
                        BLU BLU=
201904081500 METAR LRTZ 081500Z 16010KT 9999 BKN020 BKN090 11/09 Q1006
                        WHT WHT=
201904081600 METAR LRTZ 081600Z 16010KT 9999 BKN015 BKN090 11/09 Q1006
                        WHT WHT=
201904081700 METAR LRTZ 081700Z 12010KT 6000 BKN015 OVC080 10/09 Q1006
                        WHT WHT=
201904081800 METAR LRTZ 081800Z 12010KT 5000 BR BKN015 OVC080 09/09 Q1006
                        WHT WHT=
201904081900 METAR LRTZ 081900Z 09010KT 5000 BR BKN015 OVC080 09/08 Q1006
                        WHT WHT=
201904082000 METAR LRTZ 082000Z 06010KT 5000 BR BKN015 OVC080 09/08 Q1006
                        WHT WHT=
201904082100 METAR LRTZ 082100Z 06010KT 5000 BR BKN015 OVC080 09/08 Q1006
                        WHT WHT=
201904082200 METAR LRTZ 082200Z 06010KT 5000 BR SCT015 OVC080 09/08 Q1005
                        WHT WHT=
201904082300 METAR LRTZ 082300Z 06010KT 5000 BR SCT015 OVC080 09/08 Q1005
                        WHT WHT=
201904090000 METAR LRTZ 090000Z 03010KT 5000 BR SCT015 OVC080 09/08 Q1005
                        WHT WHT=
201904090200 METAR LRTZ 090200Z 03010KT 5000 BR SCT015 OVC080 08/07 Q1004
                        WHT WHT=
201904090300 METAR LRTZ 090300Z 03010KT 7000 SCT020 BKN090 09/07 Q1003
                        WHT WHT=
201904090400 METAR LRTZ 090400Z 03010KT 7000 SCT020 BKN090 09/02 Q1002
                        WHT WHT=
201904090500 METAR LRTZ 090500Z 03010KT 7000 SCT020 BKN090 10/02 Q1003
                        WHT WHT=
201904090700 METAR LRTZ 090700Z 06016KT 9999 BKN090 BKN200 12/09 Q1003
                        BLU BLU=
201904090800 METAR LRTZ 090800Z 06018KT 9999 SCT090 BKN200 13/09 Q1002
                        BLU BLU=
201904090900 METAR LRTZ 090900Z 09016G26KT 9999 SCT090 BKN200 12/08 Q1002
                        BLU BLU=
201904091000 METAR LRTZ 091000Z 09018KT 9999 FEW035 SCT090 BKN200 13/09
                        Q1002 BLU BLU=
201904091100 METAR LRTZ 091100Z 09018KT 9999 SCT040 BKN200 14/10 Q1003
                        BLU BLU=
201904091200 METAR LRTZ 091200Z 09018KT 9999 SCT040 BKN200 13/09 Q1002
                        BLU BLU=
201904091300 METAR LRTZ 091300Z 09016KT 9999 SCT040 BKN100 BKN200 13/08
                        Q1002 BLU BLU=
201904091500 METAR LRTZ 091500Z 07016KT 9999 SCT100 BKN200 12/08 Q1002
                        BLU BLU=
201904091600 METAR LRTZ 091600Z 06012KT 9999 BKN100 BKN200 11/08 Q1002
                        BLU BLU=
201904091700 METAR LRTZ 091700Z 06008KT 9999 BKN080 OVC200 10/08 Q1003
                        BLU BLU=
201904091800 METAR LRTZ 091800Z 07006KT 9999 BKN070 OVC200 10/09 Q1003
                        BLU BLU=
201904091900 METAR LRTZ 091900Z 07006KT 8000 BKN070 OVC200 10/09 Q1004
                        BLU WHT=
201904092000 METAR LRTZ 092000Z 07006KT 7000 BKN060 OVC200 10/09 Q1004
                        WHT WHT=
201904092100 METAR LRTZ 092100Z 06004KT 7000 BKN040 BKN100 OVC200 10/09
                        Q1004 WHT WHT=
201904092200 METAR LRTZ 092200Z 06004KT 7000 BKN040 OVC100 10/09 Q1004
                        WHT WHT=
201904092300 METAR LRTZ 092300Z 07004KT 7000 BKN040 OVC100 10/09 Q1004
                        WHT WHT=
201904100300 METAR LRTZ 100300Z VRB03KT 3000 -RA BR BKN015 OVC070 09/09
                        Q1004 YLO YLO=
201904100400 METAR LRTZ 100400Z VRB03KT 1500 -RA BR SCT005 BKN020 OVC040
                        09/09 Q1004 AMB AMB=
201904100500 METAR LRTZ 100500Z VRB02KT 1500 BR BKN004 OVC040 10/09 Q1005
                        AMB AMB=
201904100600 METAR LRTZ 100600Z VRB02KT 4000 BR SCT004 BKN010 OVC070 10/10
                        Q1005 GRN GRN=
201904100700 METAR LRTZ 100700Z VRB02KT 6000 SCT004 OVC060 12/10 Q1006
                        WHT WHT=
201904100800 METAR LRTZ 100800Z 20006KT 6000 SCT007 BKN009 OVC060 13/11
                        Q1005 GRN GRN=
201904100900 METAR LRTZ 100900Z 16008KT 6000 0800W FG FEW004 SCT010 BKN060
                        13/11 Q1005 WHT WHT=
201904101000 METAR LRTZ 101000Z 16006KT 9999 FEW010 BKN100 14/11 Q1005
                        BLU BLU=
201904101100 METAR LRTZ 101100Z 16008KT 9999 SCT040 14/11 Q1006 BLU BLU=
201904101200 METAR LRTZ 101200Z 16008KT 9999 SCT040 13/10 Q1006 BLU BLU=
201904101300 METAR LRTZ 101300Z 18008KT 9999 SCT040 13/10 Q1006 BLU BLU=
201904101400 METAR LRTZ 101400Z 16008KT 9999 SCT040 13/10 Q1006 BLU BLU=
201904101500 METAR LRTZ 101500Z 16008KT 9999 SCT040 13/10 Q1006 BLU BLU=
201904101600 METAR LRTZ 101600Z 18006KT 9999 SCT100 12/10 Q1006 BLU BLU=
201904101700 METAR LRTZ 101700Z 16004KT 4000 BR 0800W BKN007 10/09 Q1006
                        GRN YLO=
201904101800 METAR LRTZ 101800Z VRB03KT 1500 BR BKN007 10/09 Q1007 AMB
                        AMB=
201904101900 METAR LRTZ 101900Z VRB03KT 1500 BR BKN007 10/10 Q1007 AMB
                        AMB=
201904102000 METAR LRTZ 102000Z VRB03KT 1500 BR OVC007 09/09 Q1007 AMB
                        YLO=
201904102100 METAR LRTZ 102100Z VRB03KT 2000 BR OVC008 09/09 Q1006 YLO
                        YLO=
201904102300 METAR LRTZ 102300Z VRB03KT 3000 BR OVC010 09/09 Q1006 YLO
                        YLO=
201904110300 METAR LRTZ 110300Z VRB03KT 5000 BR BKN010 07/07 Q1007 GRN
                        WHT=
201904110400 METAR LRTZ 110400Z VRB03KT 5000 BR SCT010 BKN150 07/06 Q1007
                        WHT WHT=
201904110500 METAR LRTZ 110500Z VRB03KT 0400 FG BKN002 BKN150 08/07 Q1008
                        RED AMB=
201904110700 METAR LRTZ 110700Z 16008KT 0500 FG VV002 09/09 Q1008 RED
                        RED=
201904110800 METAR LRTZ 110800Z 15008KT 5000 BR OVC002 10/10 Q1008 AMB
                        YLO=
201904110900 METAR LRTZ 110900Z 17006KT 4000 BR OVC002 10/10 Q1008 AMB
                        YLO=
201904111000 METAR LRTZ 111000Z 15008KT 5000 BR OVC002 11/09 Q1008 AMB
                        YLO=
201904111100 METAR LRTZ 111100Z 13008KT 7000 2000E BR OVC002 11/09 Q1008
                        AMB YLO=
201904111200 METAR LRTZ 111200Z 14010KT 3000 BR 0500E FG VV002 10/09 Q1008
                        AMB YLO=
201904111300 METAR LRTZ 111300Z 14010KT 8000 SCT001 BKN003 OVC005 11/09
                        Q1008 YLO YLO=
201904111400 METAR LRTZ 111400Z 14010KT 7000 BKN002 OVC004 10/09 Q1008
                        AMB AMB=
201904111500 METAR LRTZ 111500Z 15008KT 4000 BR 1200E BKN002 OVC004 10/09
                        Q1008 AMB AMB=
201904111600 METAR LRTZ 111600Z 16008KT 3000 BR 1200E BKN002 OVC004 10/10
                        Q1008=
201904111700 METAR LRTZ 111700Z 13008KT 3000 BR 1200E BKN002 OVC004 10/10
                        Q1008 AMB AMB=
201904111800 METAR LRTZ 111800Z 12006KT 2000 BR BKN001 OVC003 10/10 Q1009
                        RED RED=
201904111900 METAR LRTZ 111900Z 11006KT 1200 BR BKN001 OVC003 10/10 Q1009
                        RED RED=
201904112000 METAR LRTZ 112000Z 08006KT 0800 FG BKN001 OVC003 10/10 Q1009
                        RED RED=
201904112100 METAR LRTZ 112100Z 09006KT 0800 FG BKN001 OVC003 10/10 Q1009
                        RED RED=
201904112200 METAR LRTZ 112200Z 08006KT 0800 FG BKN001 OVC003 10/10 Q1009
                        RED RED=
201904120400 METAR LRTZ 120400Z 35004KT 2000 BR SCT002 BKN005 OVC010 10/10
                        Q1010 YLO YLO=
201904120500 METAR LRTZ 120500Z 36006KT 2500 BR SCT005 BKN010 OVC020 10/10
                        Q1011 YLO GRN=
201904120600 METAR LRTZ 120600Z 35004KT 3000 BR SCT004 BKN010 OVC020 11/10
                        Q1011 YLO YLO=
201904120700 METAR LRTZ 120700Z 35004KT 4000 BR SCT006 BKN010 OVC020 12/10
                        Q1011 GRN GRN=
201904120800 METAR LRTZ 120800Z 35004KT 5000 BR SCT008 BKN015 OVC020 12/10
                        Q1011 WHT WHT=
201904120900 METAR LRTZ 120900Z 11010KT 5000 BR SCT008 BKN015 OVC020 12/10
                        Q1012 WHT WHT=
201904121000 METAR LRTZ 121000Z 11006KT 7000 SCT008 BKN015 OVC020 12/10
                        Q1012 WHT WHT=
201904121100 METAR LRTZ 121100Z 11006KT 7000 SCT015 OVC020 13/10 Q1012
                        WHT WHT=
201904121200 METAR LRTZ 121200Z 11006KT 7000 SCT015 OVC030 13/10 Q1012
                        WHT WHT=
201904121300 METAR LRTZ 121300Z 11006KT 8000 SCT020 BKN040 13/10 Q1012
                        BLU BLU=
201904121400 METAR LRTZ 121400Z 11008KT 8000 SCT030 BKN090 14/10 Q1012
                        BLU BLU=
201904121500 METAR LRTZ 121500Z 11008KT 8000 SCT030 BKN090 13/09 Q1012
                        BLU BLU=
201904121600 METAR LRTZ 121600Z 11008KT 8000 SCT030 BKN090 12/09 Q1012
                        BLU BLU=
201904121700 METAR LRTZ 121700Z 14008KT 8000 SCT030 BKN090 11/09 Q1012
                        BLU BLU=
201904121800 METAR LRTZ 121800Z 14010KT 8000 SCT015 BKN090 11/09 Q1013
                        BLU WHT=
201904121900 METAR LRTZ 121900Z 14008KT 6000 SCT015 BKN090 11/09 Q1013
                        WHT WHT=
201904122000 METAR LRTZ 122000Z 14008KT 5000 BR SCT015 BKN050 11/09 Q1013
                        WHT WHT=
201904122100 METAR LRTZ 122100Z 14008KT 4000 RA BR BKN015 OVC050 11/09
                        Q1013 WHT GRN=
201904122200 METAR LRTZ 122200Z 14008KT 4000 RA BR BKN015 OVC050 11/09
                        Q1013 GRN GRN=
201904130300 METAR LRTZ 130300Z 14008KT 3000 RA BR BKN010 OVC020 10/09
                        Q1012 YLO YLO=
201904130400 METAR LRTZ 130400Z 14008KT 2000 BR BKN003 OVC010 10/10 Q1012
                        YLO YLO=
201904130500 METAR LRTZ 130500Z 03010KT 2000 BR BKN003 OVC010 10/10 Q1012
                        YLO YLO=
201904130600 METAR LRTZ 130600Z 07010KT 0500 FG VV002 10/10 Q1012 RED
                        RED=
201904130700 METAR LRTZ 130700Z 05008KT 0600 FG VV002 10/10 Q1012 RED
                        RED=
201904130800 METAR LRTZ 130800Z 07010KT 0400 FG VV002 10/10 Q1013 RED
                        RED=
201904130900 METAR LRTZ 130900Z 03010KT 0500 FG VV002 11/10 Q1013 RED
                        AMB=
201904131000 METAR LRTZ 131000Z 08006KT 1000 -RA BKN002 BKN005 OVC015
                        11/10 Q1013 AMB AMB=
201904131100 METAR LRTZ 131100Z 10010KT 5000 BR BKN002 BKN004 OVC015 11/10
                        Q1012 AMB YLO=
201904131200 METAR LRTZ 131200Z 11010KT 8000 -RA BKN003 BKN005 OVC015
                        11/10 Q1012 YLO YLO=
201904131300 METAR LRTZ 131300Z 16006KT 3500 RA BR BKN002 BKN005 OVC015
                        11/10 Q1012 AMB AMB=
201904131400 METAR LRTZ 131400Z 18006KT 8000 2500E -RA BR BKN003 BKN006
                        OVC020 11/10 Q1012 YLO YLO=
201904131500 METAR LRTZ 131500Z 09006KT 8000 BKN002 BKN005 OVC020 11/11
                        Q1012 AMB AMB=
201904131600 METAR LRTZ 131600Z 06006KT 9999 BKN002 BKN004 OVC020 11/10
                        Q1012 AMB AMB=
201904131700 METAR LRTZ 131700Z 03006KT 2000 BR BKN002 OVC004 11/10 Q1012
                        AMB AMB=
201904131800 METAR LRTZ 131800Z 03006KT 4000 BR BKN002 OVC004 10/10 Q1013
                        AMB AMB=
201904131900 METAR LRTZ 131900Z 04006KT 5000 BR BKN002 BKN004 OVC010 11/10
                        Q1013 AMB AMB=
201904132000 METAR LRTZ 132000Z 05006KT 7000 BKN002 BKN007 OVC010 10/10
                        Q1013 AMB AMB=
201904132100 METAR LRTZ 132100Z 04006KT 5000 BR BKN002 BKN006 10/10 Q1013
                        AMB AMB=
201904132200 METAR LRTZ 132200Z 06006KT 4000 BR BKN002 OVC006 10/10 Q1013
                        AMB AMB=
201904132300 METAR LRTZ 132300Z 05006KT 3000 BR BKN002 OVC006 10/10 Q1013
                        AMB AMB=
201904140100 METAR LRTZ 140100Z 03006KT 2000 BR BKN002 OVC006 10/10 Q1013
                        AMB AMB=
201904140200 METAR LRTZ 140200Z 05006KT 1200 BR BKN002 OVC006 10/10 Q1013
                        AMB AMB=
201904140300 METAR LRTZ 140300Z 03010KT 4000 BR BKN003 OVC007 09/08 Q1012
                        YLO YLO=
201904140400 METAR LRTZ 140400Z 04010KT 5000 BR BKN003 OVC005 09/08 Q1011
                        YLO YLO=
201904140500 METAR LRTZ 140500Z 03012KT 4000 BR BKN002 OVC004 09/08 Q1011
                        AMB AMB=
201904140600 METAR LRTZ 140600Z 03014KT 4000 BR BKN003 OVC005 09/08 Q1011
                        YLO YLO=
201904140700 METAR LRTZ 140700Z 03016KT 5000 BR BKN003 OVC005 09/08 Q1011
                        YLO YLO=
201904140800 METAR LRTZ 140800Z 03012KT 7000 SCT005 BKN007 OVC009 09/07
                        Q1012 GRN GRN=
201904140900 METAR LRTZ 140900Z 01012KT 7000 SCT006 BKN008 OVC011 09/07
                        Q1012 GRN GRN=
201904141000 METAR LRTZ 141000Z 01014KT 6000 SCT005 BKN008 OVC011 09/08
                        Q1012 GRN GRN=
201904141100 METAR LRTZ 141100Z 01014KT 6000 -DZ SCT003 BKN008 OVC011
                        09/08 Q1012 GRN GRN=
201904141200 METAR LRTZ 141200Z 01010KT 4000 -RA SCT004 BKN007 OVC011
                        09/08 Q1012 GRN GRN=
201904141300 METAR LRTZ 141300Z 01014KT 3000 RA SCT005 BKN008 OVC015 09/08
                        Q1012 GRN GRN=
201904141400 METAR LRTZ 141400Z 01016KT 3000 DZ SCT005 BKN008 OVC015 09/08
                        Q1011 GRN GRN=
201904141600 METAR LRTZ 141600Z 01016KT 4000 -RA BR SCT005 BKN009 OVC015
                        09/08 Q1012 GRN GRN=
201904141700 METAR LRTZ 141700Z 01016KT 5000 -DZ BR SCT005 BKN009 OVC015
                        08/07 Q1012 GRN GRN=
201904141800 METAR LRTZ 141800Z 01018KT 5000 -RA BR SCT007 BKN009 OVC015
                        08/07 Q1013 GRN GRN=
201904141900 METAR LRTZ 141900Z 01014KT 3000 -RA BR SCT005 BKN009 OVC015
                        08/07 Q1013 GRN GRN=
201904142000 METAR LRTZ 142000Z 01014KT 3000 -DZ BR SCT005 BKN009 OVC015
                        08/07 Q1013 GRN GRN=
201904142100 METAR LRTZ 142100Z 01014KT 4000 -RA BR SCT005 BKN009 OVC015
                        08/07 Q1014 GRN GRN=
201904142200 METAR LRTZ 142200Z 02014KT 5000 -RA BR SCT005 BKN009 OVC015
                        08/07 Q1014 GRN GRN=
201904142300 METAR LRTZ 142300Z 02016KT 5000 -DZ BR SCT005 BKN009 OVC015
                        08/07 Q1014GRN GRN=
201904150300 METAR LRTZ 150300Z 03014KT 9999 BKN010 OVC020 OVC015 07/04
                        Q1016 GRN WHT=
201904150400 METAR LRTZ 150400Z 01018KT 9999 BKN015 OVC020 07/04 Q1015
                        WHT WHT=
201904150500 METAR LRTZ 150500Z 01018KT 9999 BKN015 OVC020 07/03 Q1015
                        WHT WHT=
201904150600 METAR LRTZ 150600Z 01014KT 9999 BKN015 OVC025 07/03 Q1015
                        WHT WHT=
201904150700 METAR LRTZ 150700Z 01014KT 9999 BKN015 OVC025 07/03 Q1015
                        WHT WHT=
201904150800 METAR LRTZ 150800Z 01014KT 9999 BKN020 OVC040 08/03 Q1016
                        WHT WHT=
201904150900 METAR LRTZ 150900Z 01014KT 9999 BKN020 OVC040 08/03 Q1016
                        WHT WHT=
201904151000 METAR LRTZ 151000Z 01014KT 9999 BKN020 OVC030 08/03 Q1016
                        WHT WHT=
201904151100 METAR LRTZ 151100Z 35012KT 9999 BKN020 OVC060 09/03 Q1016
                        WHT WHT=
201904151200 METAR LRTZ 151200Z 35012KT 9999 SCT030 OVC080 09/03 Q1017
                        BLU BLU=
201904151300 METAR LRTZ 151300Z 35012KT 9999 SCT030 BKN090 10/01 Q1016
                        BLU BLU=
201904151400 METAR LRTZ 151400Z 35012KT 9999 SCT030 BKN090 11/02 Q1016
                        BLU BLU=
201904151500 METAR LRTZ 151500Z 35012KT 9999 SCT030 BKN090 11/02 Q1016
                        BLU BLU=
201904151600 METAR LRTZ 151600Z 35012KT 9999 SCT030 SCT090 BKN200 10/00
                        Q1016 BLU BLU=
201904151700 METAR LRTZ 151700Z 35010KT 9999 SCT090 BKN200 07/02 Q1016
                        BLU BLU=
201904151800 METAR LRTZ 151800Z 35008KT 9999 SCT090 BKN200 04/01 Q1017
                        BLU BLU=
201904151900 METAR LRTZ 151900Z 35008KT 9999 SCT090 BKN200 04/01 Q1018
                        BLU BLU=
201904152000 METAR LRTZ 152000Z 35008KT 9999 SCT090 BKN200 04/01 Q1018
                        BLU BLU=
201904152100 METAR LRTZ 152100Z 35008KT 9999 SCT090 BKN200 04/01 Q1018
                        BLU BLU=
201904152300 METAR LRTZ 152300Z 35008KT 9999 SCT090 BKN200 04/01 Q1018
                        BLU BLU=
201904160300 METAR LRTZ 160300Z 35010KT 9999 FEW090 BKN200 03/00 Q1017
                        BLU BLU=
201904160400 METAR LRTZ 160400Z 35010KT 9999 SCT090 BKN200 01/00 Q1017
                        BLU BLU=
201904160500 METAR LRTZ 160500Z 35010KT 9999 SCT090 BKN200 03/00 Q1017
                        BLU BLU=
201904160600 METAR LRTZ 160600Z 34012KT 9999 FEW100 SCT200 07/01 Q1017
                        BLU BLU=
201904160700 METAR LRTZ 160700Z 36014G24KT 9999 FEW100 SCT200 09/-02 Q1017
                        BLU BLU=
201904160800 METAR LRTZ 160800Z 35014G24KT 9999 FEW100 10/M01 Q1017 BLU
                        BLU=
201904160900 METAR LRTZ 160900Z 35012G22KT 9999 FEW050 SCT100 11/M03 Q1016
                        BLU BLU=
201904161000 METAR LRTZ 161000Z 36012G22KT 9999 FEW050 12/M02 Q1016 BLU
                        BLU=
201904161100 METAR LRTZ 161100Z 34012G22KT 9999 FEW050 13/M02 Q1016 BLU
                        BLU=
201904161200 METAR LRTZ 161200Z 36012G22KT 9999 FEW050 14/M02 Q1016 BLU
                        BLU=
201904161300 METAR LRTZ 161300Z 36010G20KT 9999 FEW050 14/M03 Q1015 BLU
                        BLU=
201904161400 METAR LRTZ 161400Z 36014KT 9999 SCT070 12/04 Q1015 BLU BLU=
201904161500 METAR LRTZ 161500Z 07010KT 9999 BKN070 10/03 Q1016 BLU BLU=
201904161600 METAR LRTZ 161600Z 06012KT 9999 BKN075 08/03 Q1016 BLU BLU=
201904161700 METAR LRTZ 161700Z 06006KT 9999 BKN080 08/02 Q1016 BLU BLU=
201904161800 METAR LRTZ 161800Z 05006KT 9999 BKN080 08/03 Q1017 BLU BLU=
201904161900 METAR LRTZ 161900Z 03004KT 9999 BKN080 07/03 Q1017 BLU BLU=
201904162000 METAR LRTZ 162000Z VRB03KT 9999 BKN080 07/03 Q1017 BLU BLU=
201904162200 METAR LRTZ 162200Z VRB03KT 9999 BKN080 07/03 Q1017 BLU BLU=
201904162300 METAR LRTZ 162300Z 30003KT 9999 BKN080 07/03 Q1017 BLU BLU=
201904170300 METAR LRTZ 170300Z 36006KT 9999 SCT080 BKN200 03/01 Q1015
                        BLU BLU=
201904170500 METAR LRTZ 170500Z 35006KT 9999 FEW040 BKN080 05/03 Q1016
                        BLU BLU=
201904170600 METAR LRTZ 170600Z 35010KT 9999 FEW040 BKN075 06/03 Q1016
                        BLU BLU=
201904170700 METAR LRTZ 170700Z 35010KT 9999 BKN075 08/04 Q1016 BLU BLU=
201904170800 METAR LRTZ 170800Z 35010KT 9999 SCT040 BKN080 09/04 Q1017
                        BLU BLU=
201904170900 METAR LRTZ 170900Z 01008KT 9999 SCT020 BKN060 10/05 Q1017
                        BLU BLU=
201904171000 METAR LRTZ 171000Z 03008KT 9999 FEW020 BKN060 12/06 Q1017
                        BLU BLU=
201904171100 METAR LRTZ 171100Z 09008KT 9999 FEW035 BKN080 12/06 Q1018
                        BLU BLU=
201904171200 METAR LRTZ 171200Z 09014KT 9999 FEW035 BKN080 11/05 Q1018
                        BLU BLU=
201904171300 METAR LRTZ 171300Z 10012KT 9999 FEW030 BKN080 10/05 Q1018
                        BLU BLU=
201904171400 METAR LRTZ 171400Z 10010KT 9999 FEW030 BKN100 10/06 Q1019
                        BLU BLU=
201904171500 METAR LRTZ 171500Z 09010KT 9999 FEW020 10/05 Q1019 BLU BLU=
201904171600 METAR LRTZ 171600Z 09008KT 9999 FEW200 09/05 Q1019 BLU BLU=
201904171700 METAR LRTZ 171700Z 09006KT 9999 FEW020 SCT100 08/05 Q1020
                        BLU BLU=
201904171800 METAR LRTZ 171800Z 09006KT 9999 FEW020 SCT100 07/05 Q1021
                        BLU BLU=
201904171900 METAR LRTZ 171900Z VRB03KT 9999 FEW020 SCT100 06/05 Q1021
                        BLU BLU=
201904172000 METAR LRTZ 172000Z VRB03KT 9999 FEW020 SCT100 06/05 Q1021
                        BLU BLU=
201904172100 METAR LRTZ 172100Z VRB03KT 9999 FEW020 SCT080 06/04 Q1021
                        BLU BLU=
201904172200 METAR LRTZ 172200Z 06004KT 9999 SCT020 BKN080 06/04 Q1021
                        BLU BLU=
201904180100 METAR LRTZ 180100Z 03006KT 9999 SCT020 BKN070 06/05 Q1021
                        BLU BLU=
201904180300 METAR LRTZ 180300Z 36006KT 9999 BKN070 BKN100 06/05 Q1021
                        BLU BLU=
201904180400 METAR LRTZ 180400Z 34006KT 9999 BKN080 OVC100 07/06 Q1021
                        BLU BLU=
201904180500 METAR LRTZ 180500Z 36008KT 8000 BKN050 OVC100 07/06 Q1022
                        BLU BLU=
201904180600 METAR LRTZ 180600Z 02008KT 6000 -RA BKN035 OVC045 08/07 Q1022
                        WHT WHT=
201904180700 METAR LRTZ 180700Z 02008KT 2000 -RA BR SCT003 BKN010 OVC020
                        08/08 Q1023 YLO YLO=
201904180800 METAR LRTZ 180800Z 09014KT 3000 RA BR SCT003 BKN005 OVC010
                        08/08 Q1023 YLO YLO=
201904180900 METAR LRTZ 180900Z 07016KT 9999 -RA SCT006 BKN010 OVC030
                        09/08 Q1024 GRN WHT=
201904181000 METAR LRTZ 181000Z 07016KT 9999 -RA SCT008 BKN015 OVC040
                        09/07 Q1024 WHT WHT=
201904181100 METAR LRTZ 181100Z 08016KT 9999 SCT010 BKN020 OVC045 09/07
                        Q1025 WHT BLU=
201904181200 METAR LRTZ 181200Z 05014KT 9999 SCT015 BKN040 OVC065 10/06
                        Q1025 BLU BLU=
201904181300 METAR LRTZ 181300Z 04012KT 9999 SCT015 BKN030 OVC050 09/05
                        Q1025 BLU BLU=
201904181400 METAR LRTZ 181400Z 07010KT 9999 SCT020 BKN030 OVC040 08/05
                        Q1025 BLU BLU=
201904181500 METAR LRTZ 181500Z 09012KT 9999 SCT020 BKN035 OVC045 09/05
                        Q1025 BLU BLU=
201904181600 METAR LRTZ 181600Z 08010KT 9999 FEW020 BKN035 BKN100 08/03
                        Q1025 BLU BLU=
201904181700 METAR LRTZ 181700Z 06008KT 9999 FEW035 SCT100 BKN200 08/02
                        Q1025 BLU BLU=
201904181800 METAR LRTZ 181800Z 04006KT 9999 FEW045 SCT100 07/01 Q1025
                        BLU BLU=
201904181900 METAR LRTZ 181900Z 04005KT 9999 SCT200 07/01 Q1025 BLU BLU=
201904182000 METAR LRTZ 182000Z 04004KT 9999 SCT200 07/01 Q1026 BLU BLU=
201904182100 METAR LRTZ 182100Z 03004KT 9999 SCT200 06/01 Q1026 BLU BLU=
201904182200 METAR LRTZ 182200Z VRB03KT 9999 SCT200 06/01 Q1025 BLU BLU=
201904182300 METAR LRTZ 182300Z VRB03KT 9999 SCT200 06/01 Q1025 BLU BLU=
201904190300 METAR LRTZ 190300Z 33006KT 9999 FEW200 02/M00 Q1023 BLU BLU=
201904190400 METAR LRTZ 190400Z 33006KT 9999 FEW050 BKN200 02/00 Q1023
                        BLU BLU=
201904190500 METAR LRTZ 190500Z 33008KT 9999 BKN160 05/02 Q1023 BLU BLU=
201904190600 METAR LRTZ 190600Z 33008KT 9999 SCT050 BKN090 08/06 Q1023
                        BLU BLU=
201904190700 METAR LRTZ 190700Z 33010KT 9999 SCT050 BKN090 10/06 Q1023
                        BLU BLU=
201904190800 METAR LRTZ 190800Z 33010KT 9999 SCT030 BKN090 12/05 Q1023
                        BLU BLU=
201904190900 METAR LRTZ 190900Z 06010KT 9999 BKN030 BKN090 12/05 Q1023
                        BLU BLU=
201904191000 METAR LRTZ 191000Z 06010KT 9999 BKN030TCU BKN080 10/05 Q1023
                        BLU BLU=
201904191100 METAR LRTZ 191100Z 06010KT 9999 BKN030TCU BKN080 11/05 Q1023
                        BLU BLU=
201904191200 METAR LRTZ 191200Z 08010KT 9999 BKN030TCU BKN080 11/05 Q1023
                        BLU BLU=
201904191300 METAR LRTZ 191300Z 06010KT 9999 BKN030TCU BKN080 10/06 Q1023
                        BLU BLU=
201904191400 METAR LRTZ 191400Z 06010KT 9999 BKN030TCU BKN080 09/05 Q1023
                        BLU BLU=
201904191500 METAR LRTZ 191500Z 06010KT 9999 BKN030TCU BKN080 09/05 Q1024
                        BLU BLU=
201904191600 METAR LRTZ 191600Z 06010KT 9999 SCT030 BKN090 09/02 Q1024
                        BLU BLU=
201904191700 METAR LRTZ 191700Z 33010KT 9999 SCT030 BKN090 08/02 Q1024
                        BLU BLU=
201904191800 METAR LRTZ 191800Z 01006KT 9999 SCT030 BKN090 07/02 Q1025
                        BLU BLU=
201904192000 METAR LRTZ 192000Z 34006KT 9999 SCT030 BKN090 04/02 Q1026
                        BLU BLU=
201904192300 METAR LRTZ 192300Z 33008KT 9999 SCT030 BKN090 04/02 Q1026
                        BLU BLU=
201904200300 METAR LRTZ 200300Z 33012KT 8000 SCT025 BKN090 04/02 Q1025
                        BLU BLU=
201904200400 METAR LRTZ 200400Z 33012KT 8000 SCT090 BKN200 04/02 Q1024
                        BLU BLU=
201904200500 METAR LRTZ 200500Z 36012KT 9999 SCT090 BKN200 06/04 Q1024
                        BLU BLU=
201904200600 METAR LRTZ 200600Z 01014KT 9999 BKN140 09/04 Q1024 BLU BLU=
201904200700 METAR LRTZ 200700Z 03014KT 9999 BKN100 10/01 Q1025 BLU BLU=
201904200800 METAR LRTZ 200800Z 04010KT 9999 BKN100 10/02 Q1025 BLU BLU=
201904200900 METAR LRTZ 200900Z 05014KT 9999 FEW035 BKN100 11/01 Q1025
                        BLU BLU=
201904201000 METAR LRTZ 201000Z 05014KT 9999 FEW035 BKN090 11/M01 Q1025
                        BLU BLU=
201904201100 METAR LRTZ 201100Z 04014KT 9999 FEW035 BKN090 11/M01 Q1025
                        BLU BLU=
201904201200 METAR LRTZ 201200Z 08014KT 9999 FEW035 BKN090 10/00 Q1026
                        BLU BLU=
201904201300 METAR LRTZ 201300Z 09014KT 9999 FEW035 OVC090 10/00 Q1026
                        BLU BLU=
201904201400 METAR LRTZ 201400Z 07014KT 9999 BKN090 BKN200 11/M01 Q1025
                        BLU BLU=
201904201500 METAR LRTZ 201500Z 09012KT 9999 SCT100 10/M01 Q1025 BLU BLU=
201904201600 METAR LRTZ 201600Z 09008KT 9999 FEW100 09/M01 Q1025 BLU BLU=
201904201700 METAR LRTZ 201700Z 36003KT 9999 SKC 07/00 Q1026 BLU BLU=
201904201800 METAR LRTZ 201800Z 34004KT 9999 SKC 05/00 Q1026 BLU BLU=
201904201900 METAR LRTZ 201900Z 34004KT 9999 SKC 04/M01 Q1026 BLU BLU=
201904202000 METAR LRTZ 202000Z 34004KT 9999 SKC 03/M01 Q1026 BLU BLU=
201904202100 METAR LRTZ 202100Z 34004KT 9999 SKC 03/M01 Q1026 BLU BLU=
201904202300 METAR LRTZ 202300Z 33003KT 9999 SKC 02/M01 Q1025 BLU BLU=
201904210300 METAR LRTZ 210300Z 33008KT 9999 SKC 02/M02 Q1024 BLU BLU=
201904210400 METAR LRTZ 210400Z 33010KT 9999 FEW200 02/M01 Q1024 BLU BLU=
201904210500 METAR LRTZ 210500Z 33008KT 9999 FEW200 04/M00 Q1024 BLU BLU=
201904210700 METAR LRTZ 210700Z 35010KT 9999 BKN200 11/03 Q1024 BLU BLU=
201904210800 METAR LRTZ 210800Z 06010KT 9999 BKN200 14/M00 Q1024 BLU BLU=
201904210900 METAR LRTZ 210900Z 09010KT 9999 BKN200 14/M00 Q1024 BLU BLU=
201904211000 METAR LRTZ 211000Z 10010KT 9999 FEW080 BKN200 11/01 Q1024
                        BLU BLU=
201904211100 METAR LRTZ 211100Z 12010KT 9999 BKN080 BKN200 12/M00 Q1023
                        BLU BLU=
201904211200 METAR LRTZ 211200Z 15010KT 9999 BKN080 BKN200 12/04 Q1023
                        BLU BLU=
201904211300 METAR LRTZ 211300Z 16012KT 9999 SCT080 BKN200 13/01 Q1023
                        BLU BLU=
201904211400 METAR LRTZ 211400Z 16014KT 9999 SCT080 BKN200 12/02 Q1023
                        BLU BLU=
201904211500 METAR LRTZ 211500Z 18012KT 9999 FEW080 BKN200 12/04 Q1023
                        BLU BLU=
201904211600 METAR LRTZ 211600Z 18010KT 9999 SCT080 BKN200 11/03 Q1023
                        BLU BLU=
201904211700 METAR LRTZ 211700Z 18008KT 9999 SCT080 BKN200 10/05 Q1023
                        BLU BLU=
201904211800 METAR LRTZ 211800Z 18004KT 9999 SCT080 BKN200 09/05 Q1023
                        BLU BLU=
201904211900 METAR LRTZ 211900Z VRB03KT 9999 SCT080 BKN200 08/04 Q1023
                        BLU BLU=
201904212000 METAR LRTZ 212000Z VRB02KT 9999 SCT080 BKN200 07/04 Q1023
                        BLU BLU=
201904212200 METAR LRTZ 212200Z VRB03KT 9999 SCT080 BKN200 07/03 Q1023
                        BLU BLU=
201904212300 METAR LRTZ 212300Z VRB03KT 9999 FEW080 BKN200 06/03 Q1023
                        BLU BLU=
201904220300 METAR LRTZ 220300Z 00000KT 9999 FEW200 04/03 Q1022 BLU BLU=
201904220400 METAR LRTZ 220400Z VRB02KT 9999 FEW200 06/05 Q1022 BLU BLU=
201904220500 METAR LRTZ 220500Z 09004KT 9999 SCT200 09/06 Q1023 BLU BLU=
201904220600 METAR LRTZ 220600Z 14006KT 9999 FEW100 BKN200 11/06 Q1023
                        BLU BLU=
201904220700 METAR LRTZ 220700Z 09006KT 9999 FEW100 BKN200 12/03 Q1023
                        BLU BLU=
201904220800 METAR LRTZ 220800Z 07006KT 9999 FEW100 BKN200 12/M01 Q1024
                        BLU BLU=
201904220900 METAR LRTZ 220900Z 12010KT 9999 BKN200 13/M01 Q1024 BLU BLU=
201904221000 METAR LRTZ 221000Z 11010KT 9999 FEW100 SCT200 13/M01 Q1024
                        BLU BLU=
201904221100 METAR LRTZ 221100Z 13010KT 9999 FEW050 SCT200 13/M01 Q1024
                        BLU BLU=
201904221200 METAR LRTZ 221200Z 13010KT 9999 SCT200 14/M04 Q1024 BLU BLU=
201904221300 METAR LRTZ 221300Z 12008KT 9999 SCT200 13/M02 Q1024 BLU BLU=
201904221400 METAR LRTZ 221400Z 10008KT 9999 FEW200 13/M00 Q1024 BLU BLU=
201904221500 METAR LRTZ 221500Z 11008KT 9999 FEW200 13/M01 Q1024 BLU BLU=
201904221600 METAR LRTZ 221600Z 11006KT 9999 FEW200 12/03 Q1024 BLU BLU=
201904221700 METAR LRTZ 221700Z 08004KT 9999 FEW200 10/04 Q1024 BLU BLU=
201904221800 METAR LRTZ 221800Z 10004KT 9999 FEW200 08/04 Q1025 BLU BLU=
201904221900 METAR LRTZ 221900Z 08003KT 9999 SKC 08/04 Q1025 BLU BLU=
201904222000 METAR LRTZ 222000Z 07003KT 9999 SKC 08/05 Q1025 BLU BLU=
201904222300 METAR LRTZ 222300Z 09004KT 9999 SKC 07/04 Q1026 BLU BLU=
201904230300 METAR LRTZ 230300Z 02003KT 0400 FG VV002 04/04 Q1026 RED
                        RED=
201904230400 METAR LRTZ 230400Z 01003KT 0100 FG VV001 05/05 Q1026 RED
                        RED=
201904230500 METAR LRTZ 230500Z 03004KT 0100 FG VV001 07/07 Q1027 RED
                        YLO=
201904230600 METAR LRTZ 230600Z 05010KT 9999 SCT004 SCT200 10/09 Q1027
                        BLU BLU=
201904230700 METAR LRTZ 230700Z 05010KT 9999 BKN200 12/07 Q1027 BLU BLU=
201904230800 METAR LRTZ 230800Z 09010KT 9999 BKN200 13/06 Q1028 BLU BLU=
201904230900 METAR LRTZ 230900Z 09010KT 9999 BKN200 13/04 Q1028 BLU BLU=
201904231000 METAR LRTZ 231000Z 09012KT 9999 BKN200 13/05 Q1028 BLU BLU=
201904231100 METAR LRTZ 231100Z 09012KT 9999 FEW100 BKN200 13/05 Q1028
                        BLU BLU=
201904231200 METAR LRTZ 231200Z 09010KT 9999 SCT100 BKN200 13/05 Q1028
                        BLU BLU=
201904231300 METAR LRTZ 231300Z 09010KT 9999 SCT100 BKN200 13/05 Q1028
                        BLU BLU=
201904231400 METAR LRTZ 231400Z 10010KT 9999 SCT100 BKN200 12/06 Q1027
                        BLU BLU=
201904231500 METAR LRTZ 231500Z 10010KT 9999 SCT100 BKN200 12/06 Q1027
                        BLU BLU=
201904231600 METAR LRTZ 231600Z 10010KT 9999 SCT100 BKN200 11/08 Q1027
                        BLU BLU=
201904231700 METAR LRTZ 231700Z 12010KT 9999 SCT100 BKN200 10/08 Q1027
                        BLU BLU=
201904231800 METAR LRTZ 231800Z 12008KT 9999 SCT100 BKN200 10/08 Q1027
                        BLU BLU=
201904231900 METAR LRTZ 231900Z 12008KT 9999 SCT100 BKN200 10/08 Q1027
                        BLU BLU=
201904232000 METAR LRTZ 232000Z 12010KT 9999 SCT100 BKN200 10/08 Q1027
                        BLU BLU=
201904232100 METAR LRTZ 232100Z 12010KT 9999 SCT100 BKN200 10/08 Q1027
                        BLU BLU=
201904232200 METAR LRTZ 232200Z 12010KT 8000 SCT050 SCT100 BKN200 10/08
                        Q1027 BLU WHT=
201904232300 METAR LRTZ 232300Z 12010KT 7000 SCT050 BKN100 10/08 Q1027
                        WHT WHT=
201904240200 METAR LRTZ 240200Z 12010KT 5000 BR SCT050 BKN100 10908 Q1027
                        WHT WHT=
201904240300 METAR LRTZ 240300Z 12012KT 7000 -RA SCT040 BKN090 09/08 Q1026
                        WHT WHT=
201904240400 METAR LRTZ 240400Z 12012KT 8000 SCT040 BKN090 10/07 Q1026
                        BLU BLU=
201904240500 METAR LRTZ 240500Z 12012KT 9999 SCT040 BKN090 10/07 Q1027
                        BLU BLU=
201904240600 METAR LRTZ 240600Z 15010KT 9999 SCT040 BKN090 11/08 Q1027
                        BLU BLU=
201904240700 METAR LRTZ 240700Z 15010KT 9999 SCT040 BKN090 11/07 Q1027
                        BLU BLU=
201904240800 METAR LRTZ 240800Z 15010KT 9999 FEW040 BKN090 13/08 Q1026
                        BLU BLU=
201904240900 METAR LRTZ 240900Z 15010KT 9999 FEW040 BKN090 13/08 Q1026
                        BLU BLU=
201904241000 METAR LRTZ 241000Z 15010KT 9999 FEW040 BKN090 13/08 Q1026
                        BLU BLU=
201904241100 METAR LRTZ 241100Z 12014KT 9999 BKN150 14/06 Q1026 BLU BLU=
201904241200 METAR LRTZ 241200Z 12014KT 9999 SCT200 14/06 Q1027 BLU BLU=
201904241300 METAR LRTZ 241300Z 12014KT 9999 SCT200 13/07 Q1027 BLU BLU=
201904241400 METAR LRTZ 241400Z 12014KT 9999 FEW200 13/06 Q1027 BLU BLU=
201904241500 METAR LRTZ 241500Z 12014KT 9999 FEW200 12/07 Q1027 BLU BLU=
201904241600 METAR LRTZ 241600Z 12010KT 9999 SKC 12/07 Q1027 BLU BLU=
201904241700 METAR LRTZ 241700Z 12004KT 9999 SKC 11/08 Q1027 BLU BLU=
201904241800 METAR LRTZ 241800Z 14004KT 9999 SKC 11/08 Q1027 BLU BLU=
201904241900 METAR LRTZ 241900Z 14004KT 9999 SKC 11/08 Q1027 BLU BLU=
201904242000 METAR LRTZ 242000Z 13004KT 9999 SKC 10/08 Q1026 BLU BLU=
201904242100 METAR LRTZ 242100Z 13005KT 9999 SKC 10/07 Q1026 BLU BLU=
201904242200 METAR LRTZ 242200Z 12004KT 9999 SKC 10/07 Q1026 BLU BLU=
201904242300 METAR LRTZ 242300Z 14004KT 9999 SKC 09/07 Q1026 BLU BLU=
201904250300 METAR LRTZ 250300Z 12004KT 9999 SKC 08/07 Q1026 BLU BLU=
201904250400 METAR LRTZ 250400Z 12004KT 9999 SKC 09/08 Q1026 BLU BLU=
201904250500 METAR LRTZ 250500Z 12008KT 9999 FEW015 11/09 Q1026 BLU BLU=
201904250600 METAR LRTZ 250600Z 14012KT 9999 FEW010 12/09 Q1026 BLU BLU=
201904250700 METAR LRTZ 250700Z 14012KT 9999 FEW010 12/09 Q1026 BLU BLU=
201904250800 METAR LRTZ 250800Z 12012KT 9999 FEW010 SCT200 13/09 Q1027
                        BLU BLU=
201904250900 METAR LRTZ 250900Z 14016KT 9999 SCT200 13/08 Q1027 BLU BLU=
201904251000 METAR LRTZ 251000Z 14016KT 9999 SCT200 14/08 Q1026 BLU BLU=
201904251100 METAR LRTZ 251100Z 16016KT 9999 FEW050 SCT200 13/07 Q1026
                        BLU BLU=
201904251200 METAR LRTZ 251200Z 16016KT 9999 FEW080 SCT200 14/08 Q1026
                        BLU BLU=
201904251300 METAR LRTZ 251300Z 14014KT 9999 SCT200 13/09 Q1025 BLU BLU=
201904251400 METAR LRTZ 251400Z 14014KT 9999 SCT200 13/09 Q1024 BLU BLU=
201904251500 METAR LRTZ 251500Z 14012KT 9999 FEW010 SCT200 12/09 Q1024
                        BLU BLU=
201904251600 METAR LRTZ 251600Z 14012KT 9999 SCT005 SCT200 12/09 Q1024
                        BLU BLU=
201904251700 METAR LRTZ 251700Z 16010KT 9999 BKN005 11/09 Q1024 YLO YLO=
201904251800 METAR LRTZ 251800Z 16010KT 9999 BKN005 11/09 Q1024 YLO YLO=
201904251900 METAR LRTZ 251900Z 16010KT 9999 BKN005 11/09 Q1024 YLO YLO=
201904252000 METAR LRTZ 252000Z 16008KT 9999 BKN005 OVC200 11/09 Q1024
                        YLO YLO=
201904252300 METAR LRTZ 252300Z 14008KT 7000 BKN005 OVC200 09/08 Q1023
                        YLO YLO=
201904260300 METAR LRTZ 260300Z 14004KT 7000 BKN005 OVC200 09/08 Q1021
                        YLO YLO=
201904260400 METAR LRTZ 260400Z 14004KT 9999 BKN005 BKN200 10/09 Q1022
                        YLO YLO=
201904260500 METAR LRTZ 260500Z 14008KT 9999 BKN005 BKN200 11/09 Q1022
                        YLO YLO=
201904260600 METAR LRTZ 260600Z 16008KT 9999 BKN005 BKN200 11/09 Q1022
                        YLO YLO=
201904260800 METAR LRTZ 260800Z 17012KT 9999 SCT007 BKN200 13/10 Q1022
                        BLU BLU=
201904260900 METAR LRTZ 260900Z 17014KT 9999 FEW010 SCT200 14/10 Q1022
                        BLU BLU=
201904261000 METAR LRTZ 261000Z 17014KT 9999 SCT200 14/09 Q1022 BLU BLU=
201904261100 METAR LRTZ 261100Z 16014KT 9999 SKC 15/09 Q1022 BLU BLU=
201904261200 METAR LRTZ 261200Z 16014KT 9999 SKC 15/09 Q1021 BLU BLU=
201904261300 METAR LRTZ 261300Z 16014KT 9999 SKC 15/09 Q1021 BLU BLU=
201904261400 METAR LRTZ 261400Z 16014KT 9999 SKC 15/09 Q1021 BLU BLU=
201904261500 METAR LRTZ 261500Z 17010KT 9999 SKC 14/09 Q1020 BLU BLU=
201904261600 METAR LRTZ 261600Z 16008KT 9999 SKC 13/09 Q1020 BLU BLU=
201904261700 METAR LRTZ 261700Z 16006KT 9999 SKC 12/09 Q1019 BLU BLU=
201904261800 METAR LRTZ 261800Z 17004KT 9999 SKC 11/09 Q1020 BLU BLU=
201904261900 METAR LRTZ 261900Z 18004KT 9999 SKC 11/09 Q1020 BLU BLU=
201904262000 METAR LRTZ 262000Z 18004KT 9999 SKC 11/09 Q1020 BLU BL=
201904262100 METAR LRTZ 262100Z 18004KT 9999 SKC 11/09 Q1021 BLU BLU=
201904270300 METAR LRTZ 270300Z 17006KT 6000 SKC 09/08 Q1017 WHT WHT=
201904270400 METAR LRTZ 270400Z 17006KT 7000 SKC 09/08 Q1017 WHT BLU=
201904270500 METAR LRTZ 270500Z 17012KT 9999 SCT200 12/09 Q1017 BLU BLU=
201904270600 METAR LRTZ 270600Z 15012KT 9999 SCT200 14/08 Q1017 BLU BLU=
201904270700 METAR LRTZ 270700Z 16014KT 9999 SCT200 14/08 Q1017 BLU BLU=
201904270800 METAR LRTZ 270800Z 17016KT 9999 SCT200 15/08 Q1017 BLU BLU=
201904270900 METAR LRTZ 270900Z 16016KT 9999 BKN200 16/08 Q1016 BLU BLU=
201904271000 METAR LRTZ 271000Z 16016KT 9999 BKN200 16/08 Q1016 BLU BLU=
201904271100 METAR LRTZ 271100Z 16012G22KT 9999 BKN200 16/06 Q1015 BLU
                        BLU=
201904271200 METAR LRTZ 271200Z 15012G22KT 9999 BKN200 16/07 Q1015 BLU
                        BLU=
201904271300 METAR LRTZ 271300Z 16018KT 9999 BKN200 15/09 Q1014 BLU BLU=
201904271400 METAR LRTZ 271400Z 17016KT 9999 BKN200 14/09 Q1013 BLU BLU=
201904271500 METAR LRTZ 271500Z 16016KT 9999 BKN200 13/10 Q1013 BLU BLU=
201904271600 METAR LRTZ 271600Z 18010KT 9999 BKN200 12/10 Q1013 BLU BLU=
201904271700 METAR LRTZ 271700Z 17012KT 9999 BKN200 12/10 Q1012 BLU BLU=
201904271800 METAR LRTZ 271800Z 16010KT 9999 BKN200 11/10 Q1012 BLU BLU=
201904271900 METAR LRTZ 271900Z 17012KT 9999 BKN200 11/10 Q1013 BLU BLU=
201904272000 METAR LRTZ 272000Z 17012KT 9999 BKN200 11/10 Q1012 BLU BLU=
201904280200 METAR LRTZ 280200Z 17012KT 9999 FEW100 BKN200 10/08 Q1011
                        BLU BLU=
201904280300 METAR LRTZ 280300Z 22008KT 9999 SCT050 BKN200 10/09 Q1010
                        BLU BLU=
201904280400 METAR LRTZ 280400Z 22006KT 9999 BKN050 BKN200 11/09 Q1010
                        BLU BLU=
201904280500 METAR LRTZ 280500Z 26010KT 9999 FEW025 BKN050 BKN200 14/12
                        Q1010 BLU BLU=
201904280600 METAR LRTZ 280600Z 26008KT 8000 -RA SCT025 BKN040 OVC060
                        15/13 Q1011 BLU BLU=
201904280700 METAR LRTZ 280700Z 30012KT 9999 SCT050 BKN100 17/13 Q1011
                        BLU BLU=
201904280800 METAR LRTZ 280800Z 30012KT 9999 SCT060 BKN100 19/12 Q1011
                        BLU BLU=
201904280900 METAR LRTZ 280900Z 30010KT 9999 BKN070 20/12 Q1011 BLU BLU=
201904281000 METAR LRTZ 281000Z 30010KT 9999 BKN070 21/10 Q1011 BLU BLU=
201904281100 METAR LRTZ 281100Z 20010KT 9999 SCT040 BKN070 19/12 Q1011
                        BLU BLU=
201904281200 METAR LRTZ 281200Z 19010KT 9999 SCT050 BKN075 19/12 Q1011
                        BLU BLU=
201904281300 METAR LRTZ 281300Z 20012KT 9999 SCT040 BKN090 BKN200 19/12
                        Q1010 BLU BLU=
201904281500 METAR LRTZ 281500Z 21010KT 9999 SCT070 BKN200 18/10 Q1010
                        BLU BLU=
201904281600 METAR LRTZ 281600Z 19008KT 9999 FEW070 SCT200 17/11 Q1010
                        BLU BLU=
201904281700 METAR LRTZ 281700Z VRB03KT 9999 SCT070 BKN200 17/08 Q1010
                        BLU BLU=
201904281800 METAR LRTZ 281800Z VRB03KT 9999 SCT070 BKN200 14/10 Q1011
                        BLU BLU=
201904281900 METAR LRTZ 281900Z VRB03KT 9999 FEW070 SCT200 13/09 Q1011
                        BLU BLU=
201904282000 METAR LRTZ 282000Z VRB03KT 9999 SCT200 13/09 Q1012 BLU BLU=
201904282300 METAR LRTZ 282300Z 21004KT 9999 SCT200 12/08 Q1013 BLU BLU=
201904290300 METAR LRTZ 290300Z 30008KT 9999 SCT070 BKN100 12/06 Q1011
                        BLU BLU=
201904290400 METAR LRTZ 290400Z 30008KT 9999 SCT070 BKN100 13/06 Q1012
                        BLU BLU=
201904290500 METAR LRTZ 290500Z 30008KT 9999 BKN080 13/07 Q1012 BLU BLU=
201904290600 METAR LRTZ 290600Z 27008KT 9999 BKN060 BKN120 16/08 Q1012
                        BLU BLU=
201904290700 METAR LRTZ 290700Z 29008KT 9999 BKN060 BKN200 18/09 Q1012
                        BLU BLU=
201904290800 METAR LRTZ 290800Z 29008KT 9999 SCT060 BKN200 20/07 Q1012
                        BLU BLU=
201904290900 METAR LRTZ 290900Z 29008KT 9999 SCT060 BKN200 20/07 Q1012
                        BLU BLU=
201904291000 METAR LRTZ 291000Z 18008KT 9999 FEW060 OVC200 20/09 Q1012
                        BLU BLU=
201904291100 METAR LRTZ 291100Z 15010KT 9999 BKN200 21/08 Q1012 BLU BLU=
201904291200 METAR LRTZ 291200Z 15012KT 9999 FEW040 BKN200 20/06 Q1011
                        BLU BLU=
201904291300 METAR LRTZ 291300Z 16014KT 9999 FEW040 BKN200 19/07 Q1011
                        BLU BLU=
201904291400 METAR LRTZ 291400Z 18014KT 9999 SCT040 BKN200 17/10 Q1011
                        BLU BLU=
201904291600 METAR LRTZ 291600Z 18010KT 9999 SCT080 BKN200 16/10 Q1010
                        BLU BLU=
201904291700 METAR LRTZ 291700Z 18008KT 9999 FEW080 BKN200 15/10 Q1010
                        BLU BLU=
201904291800 METAR LRTZ 291800Z 18006KT 9999 BKN200 14/10 Q1010 BLU BLU=
201904291900 METAR LRTZ 291900Z 18004KT 9999 SCT200 13/10 Q1010 BLU BLU=
201904292000 METAR LRTZ 292000Z VRB03KT 9999 SCT200 13/10 Q1010 BLU BLU=
201904292100 METAR LRTZ 292100Z VRB03KT 9999 SCT200 13/10 Q1010 BLU BLU=
201904300300 METAR LRTZ 300300Z 18004KT 2500 BR BKN200 11/11 Q1008BLU
                        BLU=
201904300400 METAR LRTZ 300400Z 13004KT 0500 MIFG BKN003 12/11 Q1008 RED
                        RED=
201904300500 METAR LRTZ 300500Z 13006KT 7000 BKN200 13/12 Q1008 WHT BLU=
201904300600 METAR LRTZ 300600Z 13008KT 8000 BKN200 14/12 Q1007 BLU BLU=
201904300700 METAR LRTZ 300700Z 13008KT 9999 BKN200 17/12 Q1007 BLU BLU=
201904300800 METAR LRTZ 300800Z 13008KT 9999 BKN200 17/12 Q1007 BLU BLU=
201904300900 METAR LRTZ 300900Z 14010KT 9999 BKN200 19/12 Q1007 BLU BLU=
201904301000 METAR LRTZ 301000Z 14010KT 9999 BKN200 19/12 Q1007 BLU BLU=
201904301100 METAR LRTZ 301100Z 14016KT 9999 BKN200 20/12 Q1006 BLU BLU=
201904301200 METAR LRTZ 301200Z 14016KT 9999 FEW040 BKN200 20/12 Q1006
                        BLU BLU=
201904301300 METAR LRTZ 301300Z 14016KT 9999 FEW040 BKN200 18/12 Q1005
                        BLU BLU=
201904301400 METAR LRTZ 301400Z 14016KT 9999 FEW040 BKN200 18/11 Q1004
                        BLU BLU=
201904301500 METAR LRTZ 301500Z 14016KT 9999 BKN200 18/11 Q1004 BLU BLU=
201904301600 METAR LRTZ 301600Z 15016KT 9999 BKN200 17/10 Q1004 BLU BLU=
201904301700 METAR LRTZ 301700Z 22016KT 9999 SCT060 BKN200 16/11 Q1005
                        BLU BLU=
201904301800 METAR LRTZ 301800Z 22016KT 9999 SCT060 BKN150 15/11 Q1006
                        BLU BLU=
201904301900 METAR LRTZ 301900Z 22016KT 9999 SCT040 BKN090 14/11 Q1007
                        BLU BLU=
201904302000 METAR LRTZ 302000Z 22016KT 9999 SCT040 BKN090 14/11 Q1007
                        BLU BLU=
201904302300 METAR LRTZ 302300Z 22016KT 9999 SCT040 BKN090 13/10 Q1007
                        BLU BLU=
