201905010200 METAR LRTZ 010200Z 22016KT 9999 SCT040 BKN090 12/10 Q1006
                        BLU BLU=
201905010400 METAR LRTZ 010400Z 25014KT 9999 SCT090 11/08 Q1007 BLU BLU=
201905010500 METAR LRTZ 010500Z 25014KT 9999 SCT090 12/08 Q1007 BLU BLU=
201905010600 METAR LRTZ 010600Z 29014KT 9999 SCT090 15/07 Q1007 BLU BLU=
201905010700 METAR LRTZ 010700Z 29014KT 9999 BKN070 17/07 Q1007 BLU BLU=
201905010800 METAR LRTZ 010800Z 27016KT 9999 SCT040 BKN070 BKN200 18/07
                        Q1006 BLU BLU=
201905010900 METAR LRTZ 010900Z 27020G30KT 9999 SCT040 20/05 Q1006 BLU
                        BLU=
201905011000 METAR LRTZ 011000Z 27022KT 9999 SCT040 21/06 Q1006 BLU BLU=
201905011100 METAR LRTZ 011100Z 27018KT 9999 SCT050 20/06 Q1005 BLU BLU=
201905011200 METAR LRTZ 011200Z 27018KT 9999 SCT050 BKN075 21/06 Q1005
                        BLU BLU=
201905011300 METAR LRTZ 011300Z 27015G25KT 9999 SCT050 BKN075 20/06 Q1004
                        BLU BLU=
201905011400 METAR LRTZ 011400Z 27015G25KT 9999 SCT050 BKN075 22/07 Q1004
                        BLU BLU=
201905011500 METAR LRTZ 011500Z 27015G25KT 9999 SCT050 21/05 Q1004 BLU
                        BLU=
201905011600 METAR LRTZ 011600Z 27018KT 9999 FEW050 20/06 Q1004 BLU BLU=
201905011700 METAR LRTZ 011700Z 27010KT 9999 FEW050 SCT100 18/06 Q1004
                        BLU BLU=
201905011800 METAR LRTZ 011800Z 27006KT 9999 FEW050 SCT100 14/07 Q1005
                        BLU BLU=
201905011900 METAR LRTZ 011900Z 29008KT 9999 SCT070 BKN100 13/07 Q1006
                        BLU BLU=
201905012000 METAR LRTZ 012000Z 31008KT 9999 BKN050 13/07 Q1006 BLU BLU=
201905012300 METAR LRTZ 012300Z 31008KT 9999 BKN040 12/08 Q1006 BLU BLU=
201905020300 METAR LRTZ 020300Z 32004KT 9999 OVC050 10/09 Q1007 BLU WHT=
201905020400 METAR LRTZ 020400Z 32004KT 9999 BKN050 OVC070 11/09 Q1007
                        BLU WHT=
201905020500 METAR LRTZ 020500Z 32004KT 9999 BKN050 BKN080 12/09 Q1007
                        BLU WHT=
201905020600 METAR LRTZ 020600Z 33008KT 9999 BKN050 OVC080 13/10 Q1008
                        BLU WHT=
201905020700 METAR LRTZ 020700Z 35008KT 5000 -RA BR BKN035 OVC045 12/11
                        Q1008 WHT WHT=
201905020800 METAR LRTZ 020800Z 02004KT 6000 -RA BKN035 OVC050 13/11 Q1009
                        WHT WHT=
201905020900 METAR LRTZ 020900Z 15004KT 9999 -RA SCT040 BKN050 OVC075
                        13/09 Q1009 BLU BLU=
201905021000 METAR LRTZ 021000Z 20010KT 9999 SCT040 BKN060 BNK100 14/10
                        Q1009 BLU BLU=
201905021100 METAR LRTZ 021100Z 20010KT 9999 SCT040 BKN100 16/09 Q1009
                        BLU BLU=
201905021200 METAR LRTZ 021200Z 19012KT 9999 SCT040 SCT100 17/09 Q1008
                        BLU BLU=
201905021300 METAR LRTZ 021300Z 19012KT 9999 FEW035 SCT200 17/09 Q1008
                        BLU BLU=
201905021400 METAR LRTZ 021400Z 19014KT 9999 VCTS SCT025 SCT040CB BKN200
                        17/09 Q1008 BLU WHT=
201905021500 METAR LRTZ 021500Z 03014KT 6000 TSRA SCT025 BKN040CB OVC080
                        13/10 Q1009 WHT BLU=
201905021600 METAR LRTZ 021600Z 15010KT 9999 SCT060 BKN100 13/09 Q1008
                        BLU BLU=
201905021700 METAR LRTZ 021700Z 21010KT 9999 FEW060 SCT100 BKN200 12/10
                        Q1008 BLU BLU=
201905021800 METAR LRTZ 021800Z 21004KT 9999 SCT100 BKN200 10/09 Q1009
                        BLU BLU=
201905021900 METAR LRTZ 021900Z 22006KT 9999 SCT100 BKN200 10/09 Q1009
                        BLU BLU=
201905022000 METAR LRTZ 022000Z 23006KT 9999 SCT100 BKN200 10/09 Q1009
                        BLU BLU=
201905022100 METAR LRTZ 022100Z 24006KT 9999 SCT100 BKN200 10/09 Q1009
                        BLU BLU=
201905022200 METAR LRTZ 022200Z 24006KT 9999 FEW100 SCT200 09/08 Q1009
                        BLU BLU=
201905022300 METAR LRTZ 022300Z 26004KT 8000 FEW100 SCT200 09/08 Q1010
                        BLU WHT=
201905030300 METAR LRTZ 030300Z 33006KT 9999 FEW100 SCT200 10/08 Q1009
                        BLU BLU=
201905030400 METAR LRTZ 030400Z 33008KT 9999 SCT200 10/08 Q1009 BLU BLU=
201905030500 METAR LRTZ 030500Z 33010KT 9999 SCT200 12/09 Q1010 BLU BLU=
201905030600 METAR LRTZ 030600Z 33010KT 9999 SCT200 15/11 Q1010 BLU BLU=
201905030700 METAR LRTZ 030700Z 01006KT 9999 SCT200 17/12 Q1010 BLU BLU=
201905030800 METAR LRTZ 030800Z 15008KT 9999 SCT200 18/11 Q1013 BLU BLU=
201905030900 METAR LRTZ 030900Z 15008KT 9999 SCT200 18/11 Q1013 BLU BLU=
201905031000 METAR LRTZ 031000Z 15010KT 9999 FEW040 SCT200 17/12 Q1011
                        BLU BLU=
201905031100 METAR LRTZ 031100Z 15012KT 9999 SCT040 SCT200 19/12 Q1010
                        BLU BLU=
201905031200 METAR LRTZ 031200Z 16014KT 9999 SCT040 19/09 Q1010 BLU BLU=
201905031300 METAR LRTZ 031300Z 16016KT 9999 SCT040 20/10 Q1010 BLU BLU=
201905031400 METAR LRTZ 031400Z 18016KT 9999 SCT040 20/11 Q1009 BLU BLU=
201905031500 METAR LRTZ 031500Z 18012KT 9999 SCT040CB 18/11 Q1009 BLU
                        BLU=
201905031600 METAR LRTZ 031600Z 18012KT 9999 SCT040 18/11 Q1009 BLU BLU=
201905031700 METAR LRTZ 031700Z 18012KT 9999 SCT100 17/11 Q1009 BLU BLU=
201905031800 METAR LRTZ 031800Z 18008KT 9999 SCT090 SCT200 14/11 Q1009
                        BLU BLU=
201905031900 METAR LRTZ 031900Z 18008KT 9999 FEW100 SCT200 14/10 Q1010
                        BLU BLU=
201905032000 METAR LRTZ 032000Z 18006KT 9999 FEW100 SCT200 14/10 Q1010
                        BLU BLU=
201905032100 METAR LRTZ 032100Z 18006KT 9999 FEW100 SCT200 13/10 Q1010
                        BLU BLU=
201905032300 METAR LRTZ 032300Z 18006KT 9999 SCT100 BKN200 12/09 Q1009
                        BLU BLU=
201905040000 METAR LRTZ 040000Z 18008KT 9999 SCT100 BKN200 12/09 Q1009
                        BLU BLU=
201905040200 METAR LRTZ 040200Z 18006KT 9999 FEW100 11/08 Q1009 BLU BLU=
201905040300 METAR LRTZ 040300Z VRB03KT 9999 SCT200 12/08 Q1009 BLU BLU=
201905040400 METAR LRTZ 040400Z VRB03KT 9999 FEW100 SCT200 11/08 Q1009
                        BLU BLU=
201905040500 METAR LRTZ 040500Z VRB03KT 9999 FEW100 SCT200 11/08 Q1009
                        BLU BLU=
201905040600 METAR LRTZ 040600Z 21006KT 9999 FEW100 SCT200 17/10 Q1010
                        BLU BLU=
201905040700 METAR LRTZ 040700Z 21006KT 9999 FEW100 SCT200 20/11 Q1010
                        BLU BLU=
201905040800 METAR LRTZ 040800Z 21010KT 9999 FEW100 BKN200 21/08 Q1010
                        BLU BLU=
201905040900 METAR LRTZ 040900Z 21010KT 9999 SCT100 BKN200 21/08 Q1009
                        BLU BLU=
201905041000 METAR LRTZ 041000Z 21010KT 9999 FEW035 SCT100 SCT200 20/13
                        Q1009 BLU BLU=
201905041100 METAR LRTZ 041100Z 16010KT 9999 FEW035 SCT100 BKN200 19/11
                        Q1009 BLU BLU=
201905041200 METAR LRTZ 041200Z 16014KT 9999 FEW035TCU SCT100 BKN200 20/11
                        Q1009 BLU BLU=
201905041300 METAR LRTZ 041300Z 16014KT 9999 FEW035TCU SCT100 BKN200 20/11
                        Q1008 BLU BLU=
201905041400 METAR LRTZ 041400Z 16014KT 9999 FEW040 SCT100 BKN200 19/11
                        Q1008 BLU BLU=
201905041500 METAR LRTZ 041500Z 16014KT 9999 SCT100 BKN200 17/12 Q1008
                        BLU BLU=
201905041600 METAR LRTZ 041600Z 16014KT 9999 SCT100 BKN200 16/12 Q1008
                        BLU BLU=
201905041700 METAR LRTZ 041700Z 16012KT 9999 SCT100 BKN200 15/12 Q1008
                        BLU BLU=
201905041800 METAR LRTZ 041800Z 16012KT 9999 SCT100 BKN200 14/11 Q1008
                        BLU BLU=
201905041900 METAR LRTZ 041900Z 16012KT 9999 SCT100 BKN200 14/11 Q1008
                        BLU BLU=
201905042000 METAR LRTZ 042000Z 16012KT 9999 SCT100 BKN200 14/11 Q1008
                        BLU BLU=
201905042100 METAR LRTZ 042100Z 16012KT 9999 SCT100 BKN200 13/10 Q1008
                        BLU BLU=
201905042200 METAR LRTZ 042200Z 16012KT 9999 SCT100 BKN200 13/10 Q1008
                        BLU BLU=
201905042300 METAR LRTZ 042300Z 16012KT 9999 SCT100 BKN200 13/10 Q1008
                        BLU BLU=
201905050300 METAR LRTZ 050300Z 16012KT 9999 SCT050 BKN090 13/10 Q1007
                        BLU BLU=
201905050400 METAR LRTZ 050400Z 16012KT 9999 SCT050 BKN090 14/10 Q1007
                        BLU BLU=
201905050500 METAR LRTZ 050500Z 16014KT 9999 SCT050 BKN090 14/10 Q1007
                        BLU BLU=
201905050600 METAR LRTZ 050600Z 18014KT 9999 SCT050 BKN090 16/11 Q1007
                        BLU BLU=
201905050700 METAR LRTZ 050700Z 18010G20KT 9999 FEW100 17/12 Q1007 BLU
                        BL=
201905050800 METAR LRTZ 050800Z 18010G20KT 9999 FEW025 SCT100 17/12 Q1008
                        BLU BLU=
201905050900 METAR LRTZ 050900Z 18014G24KT 9999 FEW025 SCT100 17/12 Q1008
                        BLU BL=
201905051000 METAR LRTZ 051000Z 18012G22KT 9999 FEW025 18/11 Q1007 BLU
                        BLU=
201905051100 METAR LRTZ 051100Z 18012G22KT 9999 FEW025 18/11 Q1007 BLU
                        BLU=
201905051200 METAR LRTZ 051200Z 18022KT 9999 FEW025 BKN100 17/12 Q1007
                        BLU BLU=
201905051300 METAR LRTZ 051300Z 18018KT 9999 BKN100 16/12 Q1007 BLU WHT=
201905051500 METAR LRTZ 051500Z 18012KT 9999 OVC100 14/11 Q1006 BLU BLU=
201905051600 METAR LRTZ 051600Z 18012KT 8000 -RA BKN040 OVC100 14/12 Q1007
                        BLU BLU=
201905051700 METAR LRTZ 051700Z 16008KT OVC100 13/12 Q1007 BLU BLU=
201905051800 METAR LRTZ 051800Z 16008KT BKN100 13/12 Q1007 BLU BLU=
201905052000 METAR LRTZ 052000Z 16010KT BKN070 OVC100 13/12 Q1007 BLU
                        BLU=
201905052100 METAR LRTZ 052100Z 16010KT BKN070 OVC100 13/12 Q1006 BLU
                        BLU=
201905052200 METAR LRTZ 052200Z 16010KT BKN070 OVC100 13/12 Q1006 BLU
                        BLU=
201905052300 METAR LRTZ 052300Z 16010KT BKN070 OVC100 13/12 Q1005 BLU
                        BLU=
201905060300 METAR LRTZ 060300Z 16010KT 6000 SCT100 13/11 Q1004 WHT WHT=
201905060500 METAR LRTZ 060500Z 21010KT 9999 SCT100 15/14 Q1005 BLU BLU=
201905060600 METAR LRTZ 060600Z 21014KT 9999 SCT100 17/13 Q1005 BLU BLU=
201905060700 METAR LRTZ 060700Z 20012G22KT 9999 BKN100 17/13 Q1005 BLU
                        BLU=
201905060800 METAR LRTZ 060800Z 18016KT 9999 BKN100 17/14 Q1005 BLU BLU=
201905060900 METAR LRTZ 060900Z 18016KT 9999 FEW045 FEW100 17/13 Q1005
                        BLU BLU=
201905061000 METAR LRTZ 061000Z 17014KT 9999 FEW045 18/13 Q1005 BLU BLU=
201905061100 METAR LRTZ 061100Z 17018KT 9999 FEW040 20/13 Q1004 BLU BLU=
201905061200 METAR LRTZ 061200Z 17018KT 9999 FEW040 18/13 Q1004 BLU BLU=
201905061300 METAR LRTZ 061300Z 17018KT 9999 FEW040 17/13 Q1003 BLU BLU=
201905061400 METAR LRTZ 061400Z 17016KT 9999 FEW040 17/12 Q1002 BLU BLU=
201905061500 METAR LRTZ 061500Z 17016KT 9999 SKC 16/12 Q1002 BLU BLU=
201905061600 METAR LRTZ 061600Z 18014KT 9999 SKC 16/12 Q1001 BLU BLU=
201905061700 METAR LRTZ 061700Z 18016KT 9999 FEW040 SCT100 15/11 Q1001
                        BLU BLU=
201905061800 METAR LRTZ 061800Z 2012KT 9999 SCT040CB BKN100 14/11 Q1002
                        BLU WHT=
201905061900 METAR LRTZ 061900Z 23008KT 7000 -SHRA SCT040CB BKN070 OVC120
                        14/12 Q1003 WHT BLU=
201905062000 METAR LRTZ 062000Z 30010KT 9999 SCT015 BKN120 13/12 Q1003
                        BLU BLU=
201905062100 METAR LRTZ 062100Z 30008KT 9999 SCT015 BKN120 13/10 Q1003
                        BLU BLU=
201905062300 METAR LRTZ 062300Z 28010KT 9999 SCT015 BKN100 12/10 Q1004
                        BLU BLU=
201905070300 METAR LRTZ 070300Z 32010KT 8000 FEW015 SCT050 10/08 Q1004
                        BLU BLU=
201905070400 METAR LRTZ 070400Z 30012KT 8000 SCT012 BKN050 BKN100 09/08
                        Q1004 BLU WHT=
201905070500 METAR LRTZ 070500Z 31014KT 9999 SCT015 BKN060 BKN100 10/07
                        Q1005 BLU BLU=
201905070600 METAR LRTZ 070600Z 30016KT 9999 BKN015 OVC100 10/07 Q1006
                        BLU BLU=
201905070700 METAR LRTZ 070700Z 29018KT 9999 BKN015 OVC050 11/07 Q1006
                        WHT WHT=
201905070800 METAR LRTZ 070800Z 29016KT 9999 BKN015 OVC050 11/07 Q1006
                        WHT WHT=
201905070900 METAR LRTZ 070900Z 29016KT 9999 BKN015 OVC050 12/07 Q1006
                        WHT WHT=
201905071000 METAR LRTZ 071000Z 31018KT 9999 BKN015 OVC020 12/07 Q1007
                        WHT WHT=
201905071100 METAR LRTZ 071100Z 31014KT 9999 BKN015 OVC020 13/07 Q1007
                        WHT WHT=
201905071200 METAR LRTZ 071200Z 31014KT 9999 BKN015 OVC020 13/07 Q1007
                        WHT BLU=
201905071300 METAR LRTZ 071300Z 30012KT 9999 BKN020 OVC050 12/07 Q1008
                        WHT WHT=
201905071400 METAR LRTZ 071400Z 30010KT 9999 BKN020 OVC070 12/07 Q1008
                        WHT WHT=
201905071500 METAR LRTZ 071500Z 33016KT 9999 BKN020 OVC070 12/07 Q1008
                        WHT WHT=
201905071600 METAR LRTZ 071600Z 31014KT 9999 FEW010 BKN020 OVC070 11/08
                        Q1008 WHT BLU=
201905071700 METAR LRTZ 071700Z 31012KT 9999 BKN040 OVC070 11/09 Q1009
                        BLU BLU=
201905071800 METAR LRTZ 071800Z 31010KT 9999 BKN040 OVC080 11/09 Q1010
                        BLU BLU=
201905071900 METAR LRTZ 071900Z 31008KT 9999 BKN040 OVC080 11/09 Q1010
                        BLU BLU=
201905072000 METAR LRTZ 072000Z 33012KT 9999 BKN040 OVC080 10/09 Q1010
                        BLU BLU=
201905072100 METAR LRTZ 072100Z 33012KT 9999 BKN040 OVC080 10/09 Q1011
                        BLU BLU=
201905072200 METAR LRTZ 072200Z 33012KT 9999 BKN040 OVC080 10/08 Q1011
                        BLU BLU=
201905072300 METAR LRTZ 072300Z 33012KT 9999 SCT020 BKN040 OVC080 10/08
                        Q1011 BLU BLU=
201905080100 METAR LRTZ 080100Z 33014KT 9999 BKN020 OVC040 09/07 Q1012
                        WHT WHT=
201905080200 METAR LRTZ 080200Z 33014KT 9999 BKN020 OVC040 09/07 Q1012
                        WHT WHT=
201905080300 METAR LRTZ 080300Z 33010KT 9999 BKN050 OVC080 07/04 Q1013
                        BLU BLU=
201905080400 METAR LRTZ 080400Z 33006KT 9999 BKN050 BKN080 08/04 Q1014
                        BLU BLU=
201905080500 METAR LRTZ 080500Z 30008KT 9999 BKN050 BKN080 08/05 Q1014
                        BLU BLU=
201905080600 METAR LRTZ 080600Z 30012KT 9999 FEW090 SCT200 10/06 Q1014
                        BLU BLU=
201905080700 METAR LRTZ 080700Z 30014KT 9999 SCT025 BKN050 BKN090 11/06
                        Q1014 BLU BLU=
201905080800 METAR LRTZ 080800Z 30018KT 9999 SCT025 BKN050 BKN090 10/06
                        Q1014 BLU WHT=
201905080900 METAR LRTZ 080900Z 30020KT 9999 BKN020 BKN090 11/05 Q1014
                        WHT WHT=
201905081000 METAR LRTZ 081000Z 30020KT 9999 BKN020 BKN090 11/04 Q1014
                        WHT WHT=
201905081100 METAR LRTZ 081100Z 34014G24KT 9999 BKN020 BKN090 11/04 Q1015
                        WHT WHT=
201905081200 METAR LRTZ 081200Z 34014G24KT 9999 BKN020 BKN090 10/05 Q1015
                        WHT WHT=
201905081300 METAR LRTZ 081300Z 34012G22KT 9999 BKN020 BKN090 10/05 Q1015
                        WHT WHT=
201905081400 METAR LRTZ 081400Z 34018KT 9999 BKN020 BKN090 10/05 Q1015
                        WHT BLU=
201905081500 METAR LRTZ 081500Z 34018KT 9999 SCT020 BKN090 10/05 Q1015
                        BLU BLU=
201905081600 METAR LRTZ 081600Z 34018KT 9999 SCT025 BKN090 11/06 Q1015
                        BLU BLU=
201905081700 METAR LRTZ 081700Z 34018KT 9999 SCT040 BKN090 10/07 Q1015
                        BLU BLU=
201905081800 METAR LRTZ 081800Z 34012KT 9999 SCT050 BKN100 10/07 Q1015
                        BLU BLU=
201905081900 METAR LRTZ 081900Z 34012KT 9999 SCT050 BKN100 10/07 Q1015
                        BLU BLU=
201905082000 METAR LRTZ 082000Z 33012KT 9999 SCT050 BKN100 10/06 Q1015
                        BLU BLU=
201905082100 METAR LRTZ 082100Z 33010KT 9999 SCT050 BKN100 10/06 Q1015
                        BLU BLU=
201905082200 METAR LRTZ 082200Z 33010KT 9999 SCT050 BKN100 10/06 Q1015
                        BLU BLU=
201905082300 METAR LRTZ 082300Z 33010KT 9999 SCT050 BKN100 10/06 Q1015
                        BLU BLU=
201905090300 METAR LRTZ 090300Z 33008KT 9999 BKN100 09/06 Q1014 BLU BLU=
201905090400 METAR LRTZ 090400Z 33008KT 9999 BKN090 09/06 Q1014 BLU BLU=
201905090500 METAR LRTZ 090500Z 33008KT 9999 BKN090 10/06 Q1014 BLU BLU=
201905090600 METAR LRTZ 090600Z 33008KT 9999 BKN070 12/07 Q1013 BLU BLU=
201905090700 METAR LRTZ 090700Z 35010KT 9999 BKN080 13/06 Q1013 BLU BLU=
201905090800 METAR LRTZ 090800Z VRB02KT 9999 FEW040 BKN080 15/04 Q1013
                        BLU BLU=
201905090900 METAR LRTZ 090900Z VRB03KT 9999 FEW040 SCT080 16/03 Q1013
                        BLU BLU=
201905091000 METAR LRTZ 091000Z 15010KT 9999 SCT045 14/06 Q1013 BLU BLU=
201905091100 METAR LRTZ 091100Z 15016KT 9999 BKN040 15/07 Q1012 BLU BLU=
201905091200 METAR LRTZ 091200Z 17016KT 9999 BKN050 14/07 Q1012 BLU BLU=
201905091300 METAR LRTZ 091300Z 17016KT 9999 BKN060 14/06 Q1011 BLU BLU=
201905091400 METAR LRTZ 091400Z 17016KT 9999 SCT060 15/07 Q1011 BLU BLU=
201905091500 METAR LRTZ 091500Z 18016KT 9999 FEW060 SCT200 14/07 Q1010
                        BLU BLU=
201905091600 METAR LRTZ 091600Z 18016KT 9999 SCT200 13/08 Q1010 BLU BLU=
201905091700 METAR LRTZ 091700Z 18012KT 9999 BKN200 12/08 Q1010 BLU BLU=
201905091800 METAR LRTZ 091800Z 18012KT 9999 BKN200 12/08 Q1009 BLU BLU=
201905091900 METAR LRTZ 091900Z 18010KT 9999 BKN200 12/09 Q1009 BLU BLU=
201905092000 METAR LRTZ 092000Z 18010KT 9999 BKN200 12/09 Q1009 BLU BLU=
201905092100 METAR LRTZ 092100Z 18010KT 9999 BKN060 12/09 Q1009 BLU BLU=
201905092200 METAR LRTZ 092200Z 18010KT 9999 BKN060 12/09 Q1009 BLU BLU=
201905092300 METAR LRTZ 092300Z 18010KT 9999 BKN060 12/08 Q1009 BLU BLU=
201905100200 METAR LRTZ 100200Z 18010KT 9999 BKN020 BKN060 10/09 Q1007
                        WHT WHT=
201905100300 METAR LRTZ 100300Z VRB03KT 9999 SCT060 B080KN 12/11 Q1007
                        BLU BLU=
201905100400 METAR LRTZ 100400Z 15004KT 9999 SCT060 BKN080 12/11 Q1007
                        BLU BLU=
201905100500 METAR LRTZ 100500Z 15004KT 9999 SCT040 OVC060 12/11 Q1007
                        BLU BLU=
201905100600 METAR LRTZ 100600Z 22008KT 8000 -RA SCT040 OVC060 13/11 Q1007
                        BLU BLU=
201905100700 METAR LRTZ 100700Z 18004KT 9999 SCT040 OVC060 13/10 Q1007
                        BLU BLU=
201905100800 METAR LRTZ 100800Z 18006KT 9999 FEW015 OVC040 13/11 Q1008
                        BLU BLU=
201905100900 METAR LRTZ 100900Z 18008KT 7000 -DZ FEW005 BKN030 OVC040
                        13/11 Q1008=
201905101000 METAR LRTZ 101000Z 18010KT 9999 FEW005 BKN025 OVC70 15/11
                        Q1007 WHT WHT=
201905101200 METAR LRTZ 101200Z 16010KT 9999 BKN030 BKN200 16/11 Q1007
                        BLU BLU=
201905101300 METAR LRTZ 101300Z 16010KT 9999 SCT040 BKN200 17/11 Q1007
                        BLU BLU=
201905101400 METAR LRTZ 101400Z 18010KT 9999 SCT040TCU BKN050 16/12 Q1007
                        BLU WHT=
201905101500 METAR LRTZ 101500Z 32008KT 7000 -TSRA SCT030CB BKN040 OVC060
                        14/10 Q1008 WHT WHT=
201905101600 METAR LRTZ 101600Z 32008KT 9999 SCT030 BKN200 13/12 Q1008
                        BLU BLU=
201905101700 METAR LRTZ 101700Z 32008KT 9999 BKN030 BKN100 12/11 Q1008
                        BLU BLU=
201905101800 METAR LRTZ 101800Z VRB03KT 9999 BKN040 BKN100 12/11 Q1008
                        BLU BLU=
201905101900 METAR LRTZ 101900Z VRB03KT 9999 BKN070 OVC100 12/11 Q1009
                        BLU BLU=
201905102000 METAR LRTZ 102000Z VRB03KT 8000 BKN070 OVC100 12/11 Q1009
                        BLU BLU=
201905102300 METAR LRTZ 102300Z VRB03KT 8000 BKN070 OVC100 12/11 Q1010
                        BLU WHT=
201905110300 METAR LRTZ 110300Z 34008KT 5000 BR BKN050 OVC090 12/11 Q1010
                        WHT WHT=
201905110400 METAR LRTZ 110400Z 34006KT 5000 BR BKN050 BKN090 12/11 Q1011
                        WHT WHT=
201905110500 METAR LRTZ 110500Z 34008KT 4000 BR BKN004 OVC090 12/12 Q1011
                        YLO YLO=
201905110600 METAR LRTZ 110600Z 34010KT 5000 BR BKN005 OVC090 13/12 Q1012
                        YLO YLO=
201905110700 METAR LRTZ 110700Z 34010KT 9999 SCT015 BKN090 14/11 Q1012
                        BLU BLU=
201905110800 METAR LRTZ 110800Z 34010KT 9999 SCT020 BKN090 16/11 Q1012
                        BLU BLU=
201905110900 METAR LRTZ 110900Z 34010KT 9999 SCT030 BKN090 16/11 Q1013
                        BLU BLU=
201905111000 METAR LRTZ 111000Z 34010KT 9999 BKN030 BKN090 16/11 Q1013
                        BLU BLU=
201905111100 METAR LRTZ 111100Z 34010KT 9999 BKN030 BKN090 18/10 Q1013
                        BLU BLU=
201905111200 METAR LRTZ 111200Z 34010KT 9999 BKN030TCU BKN090 18/10 Q1013
                        BLU BLU=
201905111300 METAR LRTZ 111300Z 34010KT 9999 BKN030TCU BKN090 19/10 Q1013
                        BLU BLU=
201905111400 METAR LRTZ 111400Z 12010KT 9999 SCT025CB BKN040 BKN090 18/10
                        Q1013 BLU BLU=
201905111500 METAR LRTZ 111500Z 12010KT 9999 SCT025CB BKN040 BKN090 17/10
                        Q1014 BLU BLU=
201905111600 METAR LRTZ 111600Z 22004KT 9999 SCT030 BKN090 15/11 Q1014
                        BLU BLU=
201905111700 METAR LRTZ 111700Z 22004KT 9999 FEW040 SCT090 14/12 Q1015
                        BLU BLU=
201905111800 METAR LRTZ 111800Z VRB03KT 9999 FEW090 12/10 Q1015 BLU BLU=
201905111900 METAR LRTZ 111900Z VRB03KT 9999 SKC 12/11 Q1016 BLU BLU=
201905112000 METAR LRTZ 112000Z VRB03KT 9999 SKC 12/11 Q1016 BLU BLU=
201905112100 METAR LRTZ 112100Z VRB03KT 9999 SKC 12/11 Q1016 BLU BLU=
201905112200 METAR LRTZ 112200Z VRB03KT 9999 SKC 12/11 Q1016 BLU BLU=
201905112300 METAR LRTZ 112300Z VRB03KT 9999 SKC 12/11 Q1016 BLU WHT=
201905120400 METAR LRTZ 120400Z VRB03KT 9999 SKC 10/08 Q1018 BLU BLU=
201905120500 METAR LRTZ 120500Z VRB03KT 9999 SKC 13/10 Q1018 BLU BLU=
201905120600 METAR LRTZ 120600Z 04006KT 9999 SKC 16/11 Q1019 BLU BLU=
201905120700 METAR LRTZ 120700Z 06006KT 9999 SKC 17/10 Q1019 BLU BLU=
201905120800 METAR LRTZ 120800Z 09008KT 9999 FEW040 18/11 Q1019 BLU BLU=
201905120900 METAR LRTZ 120900Z 09010KT 9999 FEW040 18/11 Q1019 BLU BLU=
201905121000 METAR LRTZ 121000Z 10012KT 9999 FEW040 SCT200 18/12 Q1019
                        BLU BLU=
201905121100 METAR LRTZ 121100Z 12014KT 9999 FEW040 SCT200 18/11 Q1020
                        BLU BLU=
201905121200 METAR LRTZ 121200Z 12012KT 9999 FEW040 SCT200 18/11 Q1020
                        BLU BLU=
201905121300 METAR LRTZ 121300Z 16010KT 9999 FEW040 BKN200 18/11 Q1020
                        BLU BLU=
201905121400 METAR LRTZ 121400Z 14010KT 9999 BKN200 17/12 Q1020 BLU BLU=
201905121500 METAR LRTZ 121500Z 14010KT 9999 BKN200 17/11 Q1020 BLU BLU=
201905121600 METAR LRTZ 121600Z 14008KT 9999 SCT200 16/13 Q1020 BLU BLU=
201905121700 METAR LRTZ 121700Z 14008KT 9999 BKN200 15/12 Q1020 BLU BLU=
201905121800 METAR LRTZ 121800Z VRB03KT 9999 BKN200 13/12 Q1020 BLU BLU=
201905121900 METAR LRTZ 121900Z VRB03KT 9999 BKN200 12/11 Q1020 BLU BLU=
201905122000 METAR LRTZ 122000Z VRB03KT 9999 SCT 12/11 Q1020 BLU BLU=
201905122100 METAR LRTZ 122100Z VRB03KT 9999 SKC 12/10 Q1020 BLU BLU=
201905122200 METAR LRTZ 122200Z VRB03KT 9999 SKC 12/10 Q1020 BLU BLU=
201905122300 METAR LRTZ 122300Z VRB03KT 9999 SKC 11/10 Q1020 BLU BLU=
201905130200 METAR LRTZ 130200Z VRB03KT 8000 SCT200 11/10 Q1020 BLU BLU=
201905130300 METAR LRTZ 130300Z VRB03KT 0500 FG SCT200 11/11 Q1020 RED
                        RED=
201905130400 METAR LRTZ 130400Z VRB03KT 0150 FG SCT200 10/10 Q1020 RED
                        RED=
201905130500 METAR LRTZ 130500Z 01004KT 0150 FG BKN010 12/12 Q1021 RED
                        RED=
201905130600 METAR LRTZ 130600Z 03004KT 9999 BKN015 14/13 Q1021 WHT WHT=
201905130700 METAR LRTZ 130700Z 06010KT 9999 BKN015 16/12 Q1021 WHT WHT=
201905130800 METAR LRTZ 130800Z 06010KT 9999 BKN010 17/13 Q1021 GRN GRN=
201905130900 METAR LRTZ 130900Z 08010KT 9999 BKN015 17/13 Q1021 WHT WHT=
201905131000 METAR LRTZ 131000Z 09010KT 9999 BKN020 17/12 Q1021 WHT WHT=
201905131100 METAR LRTZ 131100Z 09008KT 9999 FEW020 SCT200 18/12 Q1021
                        BLU BLU=
201905131200 METAR LRTZ 131200Z 09008KT 9999 FEW020 SCT200 19/11 Q1021
                        BLU BLU=
201905131300 METAR LRTZ 131300Z 09008KT 9999 FEW020 BKN200 19/10 Q1020
                        BLU BLU=
201905131400 METAR LRTZ 131400Z 09008KT 9999 BKN200 18/10 Q1020 BLU BLU=
201905131500 METAR LRTZ 131500Z 11006KT 9999 BKN200 18/10 Q1020 BLU BLU=
201905131600 METAR LRTZ 131600Z VRB03KT 9999 BKN200 18/10 Q1019 BLU BLU=
201905131700 METAR LRTZ 131700Z VRB03KT 9999 FEW100 BKN200 17/10 Q1019
                        BLU BLU=
201905131800 METAR LRTZ 131800Z 00000KT 9999 FEW100 SCT200 14/10 Q1019
                        BLU BLU=
201905131900 METAR LRTZ 131900Z 00000KT 9999 SCT200 14/10 Q1019 BLU BLU=
201905132000 METAR LRTZ 132000Z 00000KT 9999 SCT200 13/10 Q1019 BLU BLU=
201905132100 METAR LRTZ 132100Z VRB03KT 9999 SCT200 13/10 Q1019 BLU BLU=
201905132300 METAR LRTZ 132300Z VRB03KT 8000 SCT200 12/11 Q1019 BLU WHT=
201905140300 METAR LRTZ 140300Z 04004KT 6000 BKN100 13/11 Q1018 WHT BLU=
201905140400 METAR LRTZ 140400Z 06004KT 8000 BKN100 14/12 Q1017 BLU BLU=
201905140500 METAR LRTZ 140500Z 09006KT 8000 SCT002 BKN007 BKN100 15/14
                        Q1018 GRN YLO=
201905140600 METAR LRTZ 140600Z 11004KT 4000 BR BKN003 BKN100 15/14 Q1018
                        YLO YLO=
201905140700 METAR LRTZ 140700Z 10012KT 9999 BKN004 BKN100 17/14 Q1017
                        YLO YLO=
201905140800 METAR LRTZ 140800Z 09008KT 9999 BKN005 BKN100 16/14 Q1017
                        YLO YLO=
201905140900 METAR LRTZ 140900Z 10012KT 9999 FEW007 BKN100 17/12 Q1018
                        BLU BLU=
201905141000 METAR LRTZ 141000Z 08012KT 9999 FEW050 BKN100 17/12 Q1017
                        BLU BLU=
201905141100 METAR LRTZ 141100Z 10010KT 9999 FEW050 BKN100 16/12 Q1017
                        BLU BLU=
201905141200 METAR LRTZ 141200Z 10010KT 9999 FEW020 BKN100 16/13 Q1017
                        BLU BLU=
201905141400 METAR LRTZ 141400Z 09010KT 9999 FEW010 SCT020 BKN100 16/13
                        Q1016 BLU BLU=
201905141500 METAR LRTZ 141500Z 08010KT 9999 FEW010 BKN020 OVC100 15/13
                        Q1016 WHT BLU=
201905141600 METAR LRTZ 141600Z 07010KT 9999 FEW010 SCT020 BKN100 15/13
                        Q1015 BLU BLU=
201905141700 METAR LRTZ 141700Z 09010KT 9999 -RA FEW010 SCT040 BKN100
                        15/13 Q1015 BLU BLU=
201905141800 METAR LRTZ 141800Z 10010KT 9999 FEW010 SCT040 OVC100 15/13
                        Q1015 BLU BLU=
201905141900 METAR LRTZ 141900Z 09008KT 9999 FEW010 SCT040 OVC100 14/13
                        Q1014 BLU BLU=
201905142000 METAR LRTZ 142000Z 10006KT 9999 FEW010 SCT040 OVC100 14/13
                        Q1014 BLU BLU=
201905142100 METAR LRTZ 142100Z 08008KT 9999 FEW010 SCT040 OVC100 14/13
                        Q1013 BLU BLU=
201905142300 METAR LRTZ 142300Z 10008KT 7000 FEW010 SCT040 OVC100 14/13
                        Q1013 WHT WHT=
201905150300 METAR LRTZ 150300Z 04004KT 6000 FEW010 SCT040 OVC100 14/14
                        Q1012 WHT GRN=
201905150500 METAR LRTZ 150500Z 05006KT 9999 FEW010 SCT040 OVC100 15/14
                        Q1012 BLU BLU=
201905150600 METAR LRTZ 150600Z 07008KT 9999 FEW010 BKN035 OVC100 16/14
                        Q1013 BLU BLU=
201905150700 METAR LRTZ 150700Z 05010KT 9999 FEW010 BKN030 BKN100 16/14
                        Q1012 BLU BLU=
201905150800 METAR LRTZ 150800Z 07012KT 9999 -SHRA BKN040 FEW050CB BKN100
                        16/14 Q1013 BLU BLU=
201905150900 METAR LRTZ 150900Z 08016KT 9999 BKN040 BKN100 18/14 Q1012
                        BLU BLU=
201905151000 METAR LRTZ 151000Z 08016KT 9999 SCT040 BKN100 17/13 Q1012
                        BLU BLU=
201905151100 METAR LRTZ 151100Z 10016KT 9999 SCT025 SCT040 OVC100 17/13
                        Q1012 BLU BLU=
201905151200 METAR LRTZ 151200Z 09014KT 9999 -SHRA SCT035 FEW040CB OVC100
                        18/12 Q1014 BLU BLU=
201905151300 METAR LRTZ 151300Z 09008KT 9999 SCT040 BKN100 18/12 Q1013
                        BLU BLU=
201905151400 METAR LRTZ 151400Z 07012KT 9999 SCT040 BKN100 17/12 Q1013
                        BLU BLU=
201905151500 METAR LRTZ 151500Z 06008KT 9999 BKN040 BKN100 16/12 Q1014
                        BLU BLU=
201905151600 METAR LRTZ 151600Z 08014KT 9999 SCT040 BKN100 BKN200 16/12
                        Q1012 BLU BLU=
201905151700 METAR LRTZ 151700Z 09016KT 9999 BKN100 BKN200 16/12 Q1011
                        BLU BLU=
201905151800 METAR LRTZ 151800Z 10008KT 9999 BKN120 15/12 Q1013 BLU BLU=
201905151900 METAR LRTZ 151900Z 07008KT 9999 BKN120 15/12 Q1013 BLU BLU=
201905152000 METAR LRTZ 152000Z 09006KT 9999 BKN120 15/12 Q1014 BLU BLU=
201905152100 METAR LRTZ 152100Z 08004KT 9999 BKN120 15/12 Q1014 BLU BLU=
201905152300 METAR LRTZ 152300Z 09004KT 9999 BKN100 15/12 Q1014 BLU BLU=
201905160300 METAR LRTZ 160300Z 31004KT 9999 BKN100 BKN200 12/11 Q1011
                        BLU BLU=
201905160400 METAR LRTZ 160400Z 03006KT 9999 BKN100 BKN200 13/12 Q1011
                        BLU BLU=
201905160500 METAR LRTZ 160500Z 34004KT 9999 BKN100 OVC200 14/12 Q1011
                        BLU BLU=
201905160600 METAR LRTZ 160600Z 34006KT 9999 BKN100 15/12 Q1012 BLU BLU=
201905160700 METAR LRTZ 160700Z 34008KT 9999 BKN100 15/12 Q1012 BLU BLU=
201905160800 METAR LRTZ 160800Z 34008KT 9999 -RA SCT050 OVC070 16/12 Q1012
                        BLU BLU=
201905160900 METAR LRTZ 160900Z 04006KT 9999 BKN070 18/12 Q1011 BLU BLU=
201905161000 METAR LRTZ 161000Z 04006KT 9999 BKN100 19/13 Q1011 BLU BLU=
201905161100 METAR LRTZ 161100Z 06008KT 9999 BKN100 21/12 Q1010 BLU BLU=
201905161200 METAR LRTZ 161200Z 06010KT 9999 BKN100 21/13 Q1010 BLU BLU=
201905161300 METAR LRTZ 161300Z 06012KT 9999 BKN200 21/12 Q1010 BLU BLU=
201905161400 METAR LRTZ 161400Z 09012KT 9999 SCT200 21/13 Q1010 BLU BLU=
201905161500 METAR LRTZ 161500Z 08010KT 9999 SCT200 21/13 Q1010 BLU BLU=
201905161600 METAR LRTZ 161600Z 09006KT 9999 SKC 19/14 Q1010 BLU BLU=
201905161700 METAR LRTZ 161700Z VRB03KT 9999 SKC 17/14 Q1010 BLU BLU=
201905161900 METAR LRTZ 161900Z VRB03KT 9999 SKC 13/12 Q1011 BLU BLU=
201905162100 METAR LRTZ 162100Z VRB03KT 9999 SKC 13/12 Q1011 BLU BLU=
201905162300 METAR LRTZ 162300Z VRB03KT 5000 BR SCT100 12/11 Q1011 WHT
                        WHT=
201905170300 METAR LRTZ 170300Z 36006KT 3000 BR BKN200 12/11 Q10110 YLO
                        YLO=
201905170400 METAR LRTZ 170400Z 01006KT 5000 BR BKN200 13/12 Q10110 WHT
                        BLU=
201905170500 METAR LRTZ 170500Z 01006KT 6000 BKN200 14/123 Q10110 WHT
                        BLU=
201905170600 METAR LRTZ 170600Z 03006KT 9999 BKN200 17/14 Q1010 BLU BLU=
201905170700 METAR LRTZ 170700Z 03006KT 9999 BKN200 18/14 Q1011 BLU BLU=
201905170800 METAR LRTZ 170800Z 03010KT 8000 BKN002 OVC004 16/14 Q1011
                        AMB AMB=
201905170900 METAR LRTZ 170900Z 03010KT 9999 FEW002 BKN200 16/14 Q1010
                        BLU BLU=
201905171000 METAR LRTZ 171000Z 03010KT 9999 SCT200 20/12 Q1010 BLU BLU=
201905171100 METAR LRTZ 171100Z 06010KT 9999 FEW030 SCT100 19/14 Q1011
                        BLU BLU=
201905171200 METAR LRTZ 171200Z 16008KT 9999 SCT100 19/14 Q1011 BLU BLU=
201905171300 METAR LRTZ 171300Z 01008KT 9999 FEW030 SCT100 21/12 Q1010
                        BLU BLU=
201905171400 METAR LRTZ 171400Z 03006KT 9999 SCT100 BKN200 23/13 Q1010
                        BLU BLU=
201905171500 METAR LRTZ 171500Z 06008KT 9999 BKN100 18/13 Q1010 BLU WHT=
201905171600 METAR LRTZ 171600Z 04006KT 9999 OVC100 19/14 Q1010 BLU WHT=
201905171700 METAR LRTZ 171700Z 34016KT 9999 SCT070 OVC100 20/16 Q1010
                        BLU BLU=
201905171800 METAR LRTZ 171800Z 34012KT 9999 OVC100 19/15 Q1009 BLU BLU=
201905171900 METAR LRTZ 171900Z 34012KT 9999 OVC100 19/15 Q1009 BLU BLU=
201905172000 METAR LRTZ 172000Z 34010KT 9999 OVC100 18/15 Q1009 BLU BLU=
201905172100 METAR LRTZ 172100Z 34010KT 9999 OVC100 18/15 Q1009 BLU BLU=
201905172200 METAR LRTZ 172200Z 34010KT 9999 OVC100 17/15 Q1009 BLU BLU=
201905180300 METAR LRTZ 180300Z 34012KT 9999 SCT100 OVC150 17/12 Q1008
                        BLU BLU=
201905180400 METAR LRTZ 180400Z 34012KT 9999 SCT030TCU OVC100 17/13 Q1007
                        BLU BLU=
201905180500 METAR LRTZ 180500Z 34012KT 9999 SCT030TCU BKN100 17/13 Q1007
                        BLU BLU=
201905180600 METAR LRTZ 180600Z 34012G22KT 9999 SCT050 BKN100 21/15 Q1007
                        BLU BLU=
201905180700 METAR LRTZ 180700Z 34012G22KT 9999 SCT050 BKN100 20/15 Q1007
                        BLU BLU=
201905180800 METAR LRTZ 180800Z 36012G22KT 9999 BKN100 21/16 Q1007 BLU
                        BLU=
201905180900 METAR LRTZ 180900Z 35018KT 9999 FEW040 SCT100 BKN200 23/16
                        Q1006 BLU BLU=
201905181000 METAR LRTZ 181000Z 34018KT 9999 FEW030 BKN200 24/17 Q1006
                        BLU BLU=
201905181100 METAR LRTZ 181100Z 33012G22KT 9999 FEW035 BKN200 24/17 Q1006
                        BLU BLU=
201905181200 METAR LRTZ 181200Z 34012G22KT 9999 FEW035 BKN200 25/17 Q1006
                        BLU BLU=
201905181400 METAR LRTZ 181400Z 36012KT 9999 BKN025 BKN100 24/17 Q1005
                        BLU BLU=
201905181500 METAR LRTZ 181500Z 33016KT 9999 BKN030 BKN100 25/17 Q1006
                        BLU BLU=
201905181600 METAR LRTZ 181600Z 33016KT 9999 SCT030 BKN100 24/15 Q1006
                        BLU BLU=
201905181700 METAR LRTZ 181700Z 33008KT 9999 SCT050 BKN200 23/16 Q1006
                        BLU BLU=
201905181800 METAR LRTZ 181800Z 31006KT 9999 SCT040 BKN200 21/16 Q1006
                        BLU BLU=
201905181900 METAR LRTZ 181900Z 31006KT 9999 SCT040 BKN150 19/16 Q1007
                        BLU BLU=
201905182000 METAR LRTZ 182000Z 30006KT 9999 BKN040 BKN150 19/16 Q1007
                        BLU BLU=
201905182300 METAR LRTZ 182300Z 24004KT 9999 BKN040 BKN150 18/16 Q1007
                        BLU WHT=
201905190300 METAR LRTZ 190300Z 30012KT 9999 BKN200 15/14 Q1007 BLU BLU=
201905190400 METAR LRTZ 190400Z 34010KT 9999 SCT100 BKN200 16/15 Q1008
                        BLU BLU=
201905190500 METAR LRTZ 190500Z 34010KT 9999 SCT100 BKN200 17/15 Q1008
                        BLU BLU=
201905190600 METAR LRTZ 190600Z 32012KT 9999 FEW020 BKN200 19/16 Q1008
                        BLU BLU=
201905190700 METAR LRTZ 190700Z 30010KT 9999 BKN200 22/17 Q1009 BLU BLU=
201905190800 METAR LRTZ 190800Z 32010KT 9999 BKN200 23/16 Q1009 BLU BLU=
201905190900 METAR LRTZ 190900Z 33010KT 9999 BKN200 25/17 Q1009 BLU BLU=
201905191000 METAR LRTZ 191000Z 34012KT 9999 BKN200 26/16 Q1009 BLU BLU=
201905191100 METAR LRTZ 191100Z 34010KT 9999 FEW020 SCT200 28/14 Q1009
                        BLU BLU=
201905191200 METAR LRTZ 191200Z 35008KT 9999 FEW020 SCT200 28/14 Q1009
                        BLU BLU=
201905191300 METAR LRTZ 191300Z 14010KT 9999 FEW020 SCT200 26/16 Q1009
                        BLU BLU=
201905191400 METAR LRTZ 191400Z 16010KT 9999 FEW020 SCT200 26/16 Q1009
                        BLU BLU=
201905191500 METAR LRTZ 191500Z 16010KT 9999 SCT200 24/16 Q1009 BLU BLU=
201905191600 METAR LRTZ 191600Z 18010KT 9999 SCT200 24/16 Q1009 BLU BLU=
201905191700 METAR LRTZ 191700Z 19010KT 9999 BKN200 22/15 Q1009 BLU BLU=
201905191800 METAR LRTZ 191800Z 20006KT 9999 BKN200 20/15 Q1009 BLU BLU=
201905191900 METAR LRTZ 191900Z 17004KT 9999 BKN200 19/14 Q1009 BLU BLU=
201905192100 METAR LRTZ 192100Z 16004KT 9999 BKN200 18/14 Q1010 BLU BLU=
201905192300 METAR LRTZ 192300Z 16004KT 9999 BKN200 17/14 Q1010 BLU BLU=
201905200300 METAR LRTZ 200300Z 15008KT 8000 FEW100 SCT200 17/16 Q1009
                        BLU BLU=
201905200400 METAR LRTZ 200400Z 16008KT 8000 FEW100 SCT200 17/16 Q1009
                        BLU BLU=
201905200500 METAR LRTZ 200500Z 15008KT 8000 FEW100 SCT200 18/16 Q1010
                        BLU BLU=
201905200600 METAR LRTZ 200600Z 18012KT 9999 SCT100 BKN200 19/15 Q1010
                        BLU BLU=
201905200700 METAR LRTZ 200700Z 18012KT 9999 SCT100 BKN200 20/15 Q1010
                        BLU BLU=
201905200800 METAR LRTZ 200800Z 17014KT 9999 FEW100 BKN200 21/15 Q1010
                        BLU BLU=
201905200900 METAR LRTZ 200900Z 17016KT 9999 FEW100 BKN200 21/15 Q1010
                        BLU BLU=
201905201000 METAR LRTZ 201000Z 17016KT 9999 SCT100 BKN200 21/14 Q1010
                        BLU BLU=
201905201100 METAR LRTZ 201100Z 16016KT 9999 FEW100 OVC200 20/15 Q1010
                        BLU BLU=
201905201200 METAR LRTZ 201200Z 16014KT 9999 FEW100 OVC200 19/16 Q1010
                        BLU BLU=
201905201300 METAR LRTZ 201300Z 17018KT 9999 FEW007 SCT100 BKN200 19/15
                        Q1010 BLU BLU=
201905201400 METAR LRTZ 201400Z 16018KT 9999 FEW007 FEW100 BKN200 19/15
                        Q1010 BLU BLU=
201905201600 METAR LRTZ 201600Z 17018KT 9999 FEW007 SCT035 BKN160 18/15
                        Q1008 BLU BLU=
201905201700 METAR LRTZ 201700Z 16014KT 9999 FEW007 SCT100 BKN200 18/15
                        Q1008 BLU BLU=
201905201800 METAR LRTZ 201800Z 19010KT 9999 FEW100 BKN200 17/15 Q1008
                        BLU BLU=
201905202000 METAR LRTZ 202000Z 20010KT 9999 FEW070 BKN200 17/15 Q1009
                        BLU BLU=
201905202100 METAR LRTZ 202100Z 21008KT 9999 FEW050 BKN200 16/14 Q1009
                        BLU BLU=
201905202300 METAR LRTZ 202300Z 24008KT 9999 FEW050 BKN200 16/14 Q1010
                        BLU BLU=
201905210300 METAR LRTZ 210300Z VRB02KT 9999 FEW140 14/12 Q1011 BLU BLU=
201905210400 METAR LRTZ 210400Z 24004KT 9999 FEW100 FEW200 13/11 Q1011
                        BLU BLU=
201905210500 METAR LRTZ 210500Z 24006KT 9999 FEW100 SCT200 17/13 Q1012
                        BLU BLU=
201905210600 METAR LRTZ 210600Z 24008KT 9999 FEW100 BKN200 21/12 Q1012
                        BLU BLU=
201905210700 METAR LRTZ 210700Z 24008KT 9999 FEW100 BKN200 22/12 Q1012
                        BLU BLU=
201905210800 METAR LRTZ 210800Z 22010KT 9999 FEW040 BKN200 21/16 Q1012
                        BLU BLU=
201905211000 METAR LRTZ 211000Z 22010KT 9999 SCT040 BKN200 23/12 Q1012
                        BLU BLU=
201905211100 METAR LRTZ 211100Z 14012KT 9999 SCT040 BKN200 21/14 Q1012
                        BLU BLU=
201905211200 METAR LRTZ 211200Z 14012KT 9999 SCT030 BKN200 22/15 Q1011
                        BLU BLU=
201905211300 METAR LRTZ 211300Z 17012KT 9999 VCTS SCT030TCU BKN200 21/15
                        Q1010 BLU BLU=
201905211400 METAR LRTZ 211400Z 17012KT 9999 VCTS SCT030TCU BKN200 21/15
                        Q1010 BLU BLU=
201905211500 METAR LRTZ 211500Z 14012KT 9999 VCTS SCT025CB BKN090 20/15
                        Q1011 BLU BLU=
201905211600 METAR LRTZ 211600Z VRB10G20KT 5000 TSRA SCT015 BKN025CB BKN090
                        17/13 Q1011 WHT WHT=
201905211700 METAR LRTZ 211700Z VRB10G20KT 5000 TSRA SCT015 BKN025CB BKN090
                        17/13 Q1011 WHT WHT=
201905211800 METAR LRTZ 211800Z VRB10G20KT 5000 TSRA SCT015 BKN025CB BKN090
                        15/13 Q1011 WHT WHT=
201905211900 METAR LRTZ 211900Z VRB10G20KT 5000 TSRA SCT015 BKN025CB BKN090
                        15/13 Q1013 WHT WHT=
201905212000 METAR LRTZ 212000Z VRB10G20KT 5000 TSRA SCT015 BKN025CB BKN090
                        15/13 Q1013 WHT BLU=
201905212100 METAR LRTZ 212100Z 24010KT 8000 -TSRA SCT030CB BKN090 14/12
                        Q1013 BLU BLU=
201905212300 METAR LRTZ 212300Z 24010KT 9999 FEW030 BKN090 14/12 Q1013
                        BLU BLU=
201905220300 METAR LRTZ 220300Z 26010KT 9999 SCT200 12/10 Q1012 BLU BLU=
201905220400 METAR LRTZ 220400Z 26010KT 9999 SCT200 13/10 Q1012 BLU BLU=
201905220500 METAR LRTZ 220500Z 26010KT 9999 SCT200 16/10 Q1012 BLU BLU=
201905220600 METAR LRTZ 220600Z 30010KT 9999 FEW200 18/12 Q1012 BLU BLU=
201905220700 METAR LRTZ 220700Z 27006KT 9999 FEW200 22/13 Q1012 BLU BLU=
201905220800 METAR LRTZ 220800Z 27006KT 9999 FEW200 23/12 Q1012 BLU BLU=
201905220900 METAR LRTZ 220900Z 27008KT 9999 FEW030 BKN100 24/12 Q1012
                        BLU BLU=
201905221000 METAR LRTZ 221000Z 27008KT 9999 FEW030 SCT100 24/12 Q1012
                        BLU BLU=
201905221100 METAR LRTZ 221100Z 27008KT 9999 BKN030 23/15 Q1012 BLU BLU=
201905221200 METAR LRTZ 221200Z 21010KT 9999 BKN040 22/14 Q1012 BLU BLU=
201905221300 METAR LRTZ 221300Z 21012KT 9999 BKN040 21/15 Q1012 BLU BLU=
201905221400 METAR LRTZ 221400Z 20008KT 9999 BKN040 21/15 Q1011 BLU BLU=
201905221500 METAR LRTZ 221500Z 20008KT 9999 SCT040 23/16 Q1011 BLU BLU=
201905221600 METAR LRTZ 221600Z 27008KT 9999 FEW040 SCT200 24/12 Q1011
                        BLU BLU=
201905221700 METAR LRTZ 221700Z VRB03KT 9999 FEW040 SCT200 23/14 Q1011
                        BLU BLU=
201905221800 METAR LRTZ 221800Z 24006KT 9999 FEW040 SCT200 20/13 Q1011
                        BLU BLU=
201905221900 METAR LRTZ 221900Z 27004KT 9999 SCT100 19/12 Q1012 BLU BLU=
201905222000 METAR LRTZ 222000Z 27004KT 9999 SCT100 18/12 Q1012 BLU BLU=
201905222100 METAR LRTZ 222100Z VRB03KT 9999 SCT100 17/13 Q1012 BLU BLU=
201905222300 METAR LRTZ 222300Z VRB03KT 9999 FEW100 17/13 Q1011 BLU BLU=
201905230300 METAR LRTZ 230300Z 29010KT 9999 FEW200 14/11 Q1010 BLU BLU=
201905230400 METAR LRTZ 230400Z 29008KT 9999 FEW200 15/11 Q1010 BLU BLU=
201905230500 METAR LRTZ 230500Z 29010KT 9999 FEW200 17/12 Q1010 BLU BLU=
201905230600 METAR LRTZ 230600Z 29010KT 9999 FEW200 17/13 Q1010 BLU BLU=
201905230700 METAR LRTZ 230700Z 29010KT 9999 SCT100 22/14 Q1010 BLU BLU=
201905230800 METAR LRTZ 230800Z 30016KT 9999 FEW100 24/13 Q1011 BLU BLU=
201905230900 METAR LRTZ 230900Z 30016KT 9999 FEW035 24/13 Q1011 BLU BLU=
201905231000 METAR LRTZ 231000Z 30014KT 9999 SCT040 25/13 Q1011 BLU BLU=
201905231100 METAR LRTZ 231100Z 31014KT 9999 BKN050 25/12 Q1010 BLU BLU=
201905231200 METAR LRTZ 231200Z 18012KT 9999 BKN050 23/15 Q1010 BLU BLU=
201905231300 METAR LRTZ 231300Z 18014KT 9999 BKN050 23/14 Q1010 BLU BLU=
201905231400 METAR LRTZ 231400Z 20012KT 9999 BKN050 22/15 Q1009 BLU BLU=
201905231500 METAR LRTZ 231500Z 21012KT 9999 BKN060 21/13 Q1009 BLU BLU=
201905231600 METAR LRTZ 231600Z 21014KT 9999 SCT060 BKN200 21/13 Q1009
                        BLU BLU=
201905231800 METAR LRTZ 231800Z 21006KT 9999 FEW100 BKN200 18/15 Q1009
                        BLU BLU=
201905231900 METAR LRTZ 231900Z VRB03KT 9999 FEW100 BKN200 17/14 Q1010
                        BLU BLU=
201905232000 METAR LRTZ 232000Z 22004KT 9999 FEW100 BKN200 17/14 Q1010
                        BLU BLU=
201905232100 METAR LRTZ 232100Z 24004KT 9999 SCT100 BKN200 17/14 Q1010
                        BLU BLU=
201905232200 METAR LRTZ 232200Z 24004KT 9999 BKN100 16/14 Q1010 BLU BLU=
201905232300 METAR LRTZ 232300Z 26004KT 9999 BKN100 16/14 Q1010 BLU BLU=
201905240200 METAR LRTZ 240200Z 27004KT 9999 SCT030 BKN100 15/13 Q1009
                        BLU BLU=
201905240300 METAR LRTZ 240300Z 31006KT 9999 FEW030 BKN100 14/11 Q1008
                        BLU BLU=
201905240400 METAR LRTZ 240400Z 31006KT 9999 BKN090 14/12 Q1008 BLU BLU=
201905240500 METAR LRTZ 240500Z 31010KT 9999 BKN100 15/12 Q1008 BLU BLU=
201905240600 METAR LRTZ 240600Z 30012KT 9999 FEW040 BKN100 17/12 Q1008
                        BLU BLU=
201905240700 METAR LRTZ 240700Z 30012KT 9999 FEW040 BKN100 18/13 Q1008
                        BLU BLU=
201905240800 METAR LRTZ 240800Z 32010KT 9999 FEW040 BKN100 20/13 Q1008
                        BLU BLU=
201905240900 METAR LRTZ 240900Z 32010KT 9999 SCT030 SCT060 BKN090 19/13
                        Q1009 BLU BLU=
201905241100 METAR LRTZ 241100Z 25008KT 9000 -RA SCT020CB BKN040 BKN080
                        18/14 Q1008 BLU BLU=
201905241200 METAR LRTZ 241200Z 25008KT 9999 FEW025 SCT040 BKN080 20/15
                        Q1008 BLU BLU=
201905241300 METAR LRTZ 241300Z 28008KT 9999 SCT040 BKN100 21/13 Q1007
                        BLU BLU=
201905241400 METAR LRTZ 241400Z 29008KT 9999 FEW050 SCT100 BKN200 23/13
                        Q1007 BLU BLU=
201905241500 METAR LRTZ 241500Z 30008KT 9999 FEW050 BKN100 22/14 Q1007
                        BLU BLU=
201905241600 METAR LRTZ 241600Z 26006KT 9999 FEW070 SCT100 BKN200 22/13
                        Q1007 BLU BLU=
201905241700 METAR LRTZ 241700Z 26006KT 9999 SCT60 BKN200 18/16 Q1007
                        BLU BLU=
201905241800 METAR LRTZ 241800Z 21006KT 9999 SCT060 BKN200 17/15 Q1007
                        BLU BLU=
201905241900 METAR LRTZ 241900Z 19004KT 9999 FEW080 BKN200 16/15 Q1007
                        BLU BLU=
201905242000 METAR LRTZ 242000Z 20004KT 9999 FEW080 BKN200 16/14 Q1007
                        BLU BLU=
201905242300 METAR LRTZ 242300Z 22004KT 9999 FEW080 BKN200 15/13 Q1007
                        BLU BLU=
201905250300 METAR LRTZ 250300Z 30010KT 7000 SCT050 BKN100 BKN200 14/13
                        Q1008 WHT BLU=
201905250400 METAR LRTZ 250400Z 29010KT 6000 SCT050 BKN100 15/14 Q1008
                        WHT BLU=
201905250500 METAR LRTZ 250500Z 31014KT 9999 SCT050 BKN100 16/14 Q1008
                        BLU BLU=
201905250600 METAR LRTZ 250600Z 31016KT 9999 BKN010 BKN100 16/13 Q1009
                        GRN GRN=
201905250700 METAR LRTZ 250700Z 33016KT 9999 BKN010 OVC080 17/13 Q1009
                        GRN GRN=
201905250800 METAR LRTZ 250800Z 33016KT 9999 SCT015 BKN020 BKN090 18/14
                        Q1010 WHT WHT=
201905250900 METAR LRTZ 250900Z 32016KT 9999 BKN020 BKN090 19/14 Q1010
                        WHT WHT=
201905251000 METAR LRTZ 251000Z 33016KT 9999 BKN020 BKN050 19/14 Q1010
                        WHT BLU=
201905251100 METAR LRTZ 251100Z 32014KT 9999 SCT020 BKN050 BKN100 21/14
                        Q1010 BLU BLU=
201905251200 METAR LRTZ 251200Z 31014KT 9999 BKN025 SCT050CB BKN100 22/14
                        Q1010 BLU BLU=
201905251300 METAR LRTZ 251300Z 30010KT 9999 -SHRA BKN025 SCT040CB BKN070
                        17/14 Q1010 BLU BLU=
201905251400 METAR LRTZ 251400Z 29006KT 9999 SCT020 BKN40CB BKN090 18/15
                        Q1010 BLU BLU=
201905251500 METAR LRTZ 251500Z 21004KT 9999 BKN030 SCT40CB BKN090 19/16
                        Q1010 BLU BLU=
201905251600 METAR LRTZ 251600Z 23004KT 9999 SCT035 SCT100 BKN200 20/16
                        Q1010 BLU BLU=
201905251700 METAR LRTZ 251700Z 27003KT 9999 FEW035 SCT100 BKN200 20/17
                        Q1011 BLU BLU=
201905251800 METAR LRTZ 251800Z 25003KT 9999 SCT100 BKN200 17/15 Q1011
                        BLU BLU=
201905251900 METAR LRTZ 251900Z 00000KT 9999 FEW100 SCT200 16/14 Q1011
                        BLU BLU=
201905252000 METAR LRTZ 252000Z VRB02KT 9999 FEW200 15/14 Q1012 BLU BLU=
201905252100 METAR LRTZ 252100Z VRB03KT 9999 FEW200 15/14 Q1012 BLU BLU=
201905252300 METAR LRTZ 252300Z 29003KT 9999 SCT200 14/13 Q1013 BLU BLU=
201905260300 METAR LRTZ 260300Z 33008KT 9999 SKC 14/12 Q1013 BLU BLU=
201905260400 METAR LRTZ 260400Z 33008KT 9999 SKC 14/12 Q1014 BLU BLU=
201905260500 METAR LRTZ 260500Z 33008KT 9999 SKC 17/14 Q1014 BLU BLU=
201905260600 METAR LRTZ 260600Z 33108KT 9999 SKC 20/14 Q1015 BLU BLU=
201905260700 METAR LRTZ 260700Z 33010KT 9999 SKC 22/14 Q1015 BLU BLU=
201905260800 METAR LRTZ 260800Z 03010KT 9999 FEW200 23/14 Q1015 BLU BLU=
201905260900 METAR LRTZ 260900Z 03010KT 9999 SCT035 SCT200 24/14 Q1015
                        BLU BLU=
201905261000 METAR LRTZ 261000Z 03010KT 9999 SCT035 SCT200 25/14 Q1015
                        BLU BLU=
201905261100 METAR LRTZ 261100Z 18010KT 9999 SCT035 SCT200 24/15 Q1015
                        BLU BLU=
201905261200 METAR LRTZ 261200Z 18010KT 9999 SCT035 SCT200 24/15 Q1016
                        BLU BLU=
201905261300 METAR LRTZ 261300Z 18010KT 9999 SCT040 BKN200 24/15 Q1016
                        BLU BLU=
201905261400 METAR LRTZ 261400Z 18010KT 9999 SCT040 BKN200 24215 Q1015
                        BLU BLU=
201905261500 METAR LRTZ 261500Z 18010KT 9999 FEW040 BKN200 22/14 Q1015
                        BLU BLU=
201905261600 METAR LRTZ 261600Z 18010KT 9999 BKN200 22/15 Q1015 BLU BLU=
201905261700 METAR LRTZ 261700Z 18010KT 9999 BKN200 21/15 Q1015 BLU BLU=
201905261800 METAR LRTZ 261800Z 18008KT 9999 BKN200 19/15 Q1016 BLU BLU=
201905261900 METAR LRTZ 261900Z 18008KT 9999 BKN200 18/14 Q1016 BLU BLU=
201905262000 METAR LRTZ 262000Z 18006KT 9999 BKN200 18/14 Q1016 BLU BLU=
201905262100 METAR LRTZ 262100Z 18006KT 9999 BKN200 18/14 Q1016 BLU BLU=
201905262300 METAR LRTZ 262300Z 18006KT 9999 BKN200 17/14 Q1016 BLU BLU=
201905270300 METAR LRTZ 270300Z 18006KT 9999 BKN200 15/11 Q1016 BLU BLU=
201905270400 METAR LRTZ 270400Z 18006KT 9999 BKN200 15/11 Q1016 BLU BLU=
201905270500 METAR LRTZ 270500Z 18006KT 9999 BKN200 19/13 Q1017 BLU BLU=
201905270600 METAR LRTZ 270600Z 15006KT 9999 SCT200 21/14 Q1017 BLU BLU=
201905270700 METAR LRTZ 270700Z 15006KT 9999 FEW200 21/14 Q1017 BLU BLU=
201905270800 METAR LRTZ 270800Z 15008KT 9999 SCT200 22/17 Q1017 BLU BLU=
201905270900 METAR LRTZ 270900Z 15010KT 9999 SCT200 22/15 Q1018 BLU BLU=
201905271000 METAR LRTZ 271000Z 16010KT 9999 FEW030 SCT200 23/13 Q1018
                        BLU BLU=
201905271100 METAR LRTZ 271100Z 18010KT 9999 FEW030 SCT200 23/14 Q1018
                        BLU BLU=
201905271200 METAR LRTZ 271200Z 18012KT 9999 BKN200 23/14 Q1018 BLU BLU=
201905271300 METAR LRTZ 271300Z 18012KT 9999 BKN200 22/15 Q1017 BLU BLU=
201905271400 METAR LRTZ 271400Z 18010KT 9999 BKN200 21/15 Q1017 BLU BLU=
201905271500 METAR LRTZ 271500Z 18010KT 9999 BKN200 20/15 Q1017 BLU BLU=
201905271600 METAR LRTZ 271600Z 18008KT 9999 BKN200 19/16 Q1016 BLU BLU=
201905271700 METAR LRTZ 271700Z 18008KT 9999 BKN200 19/16 Q1016 BLU BLU=
201905271800 METAR LRTZ 271800Z 18004KT 9999 BKN200 18/16 Q1016 BLU BLU=
201905271900 METAR LRTZ 271900Z 18004KT 9999 BKN200 17/16 Q1017 BLU BLU=
201905272000 METAR LRTZ 272000Z 18004KT 9999 BKN200 17/16 Q1017 BLU BLU=
201905272100 METAR LRTZ 272100Z 18004KT 9999 BKN200 17/16 Q1017 BLU BLU=
201905272200 METAR LRTZ 272200Z VRB03KT 9999 BKN200 16/15 Q1017 BLU BLU=
201905272300 METAR LRTZ 272300Z VRB03KT 9999 BKN200 16/15 Q1017 BLU BLU=
201905280200 METAR LRTZ 280200Z 16004KT 5000 BR FEW007 SCT200 16/15 Q1016
                        WHT WHT=
201905280300 METAR LRTZ 280300Z 16004KT 8000 FEW200 17/16 Q1015 BLU BLU=
201905280400 METAR LRTZ 280400Z 14004KT 9999 FEW200 18/17 Q1015 BLU BLU=
201905280500 METAR LRTZ 280500Z 14008KT 9999 FEW200 20/17 Q1015 BLU BLU=
201905280600 METAR LRTZ 280600Z 12014KT 9999 FEW200 20/17 Q1014 BLU BLU=
201905280700 METAR LRTZ 280700Z 12016KT 9999 FEW200 21/17 Q1014 BLU BLU=
201905280800 METAR LRTZ 280800Z 14016KT 9999 FEW200 21/16 Q1014 BLU BLU=
201905280900 METAR LRTZ 280900Z 14016KT 9999 SCT200 21/17 Q1014 BLU BLU=
201905281000 METAR LRTZ 281000Z 15016KT 9999 SCT200 21/17 Q1014 BLU BLU=
201905281100 METAR LRTZ 281100Z 14016KT 9999 SCT200 21/17 Q1013 BLU BLU=
201905281200 METAR LRTZ 281200Z 15016KT 9999 SCT150 21/17 Q1013 BLU BLU=
201905281300 METAR LRTZ 281300Z 15016KT 9999 FEW010 SCT150 21/17 Q1012
                        BLU BLU=
201905281400 METAR LRTZ 281400Z 16014KT 9999 SCT020 20/17 Q1012 BLU BLU=
201905281500 METAR LRTZ 281500Z 15014KT 9999 SCT015 20/17 Q1011 BLU BLU=
201905281600 METAR LRTZ 281600Z 15010KT 9999 SCT010 20/17 Q1011 BLU BLU=
201905281700 METAR LRTZ 281700Z 15010KT 9999 SCT010 19/17 Q1010 BLU BLU=
201905281800 METAR LRTZ 281800Z 15008KT 9999 SCT010 18/17 Q1010 BLU BLU=
201905281900 METAR LRTZ 281900Z 16008KT 9999 SKC 18/17 Q1010 BLU BLU=
201905282000 METAR LRTZ 282000Z 16008KT 8000 SKC 18/17 Q1010 BLU WHT=
201905282100 METAR LRTZ 282100Z 16006KT 7000 SKC 18/17 Q1010 WHT WHT=
201905282300 METAR LRTZ 282300Z 16004KT 5000 BR SCT005 18/17 Q1010 WHT
                        WHT=
201905290400 METAR LRTZ 290400Z 18006KT 4000 BR BKN004 18/17 Q1009 YLO
                        YLO=
201905290500 METAR LRTZ 290500Z 18008KT 6000 BKN003 /18 Q1009 YLO YLO=
201905290600 METAR LRTZ 290600Z 19006KT 9999 FEW007 21/18 Q1009 BLU BLU=
201905290700 METAR LRTZ 290700Z 24008KT 9999 SKC 23/17 Q1009 BLU BLU=
201905290800 METAR LRTZ 290800Z 22006KT 9999 SKC 26/18 Q1009 BLU BLU=
201905290900 METAR LRTZ 290900Z 22008KT 9999 SKC 25/19 Q1010 BLU BLU=
201905291000 METAR LRTZ 291000Z 18008KT 9999 FEW035 25/18 Q1010 BLU BLU=
201905291100 METAR LRTZ 291100Z 17008KT 9999 FEW035 25/17 Q1010 BLU BLU=
201905291200 METAR LRTZ 291200Z 18008KT 9999 FEW035 25/17 Q1010 BLU BLU=
201905291300 METAR LRTZ 291300Z 17010KT 9999 FEW035 24/18 Q1010 BLU BLU=
201905291400 METAR LRTZ 291400Z 16010KT 9999 FEW035 23/18 Q1010 BLU BLU=
201905291500 METAR LRTZ 291500Z 18010KT 9999 FEW035 22/18 Q1011 BLU BLU=
201905291600 METAR LRTZ 291600Z 17008KT 9999 FEW045 21/18 Q1011 BLU BLU=
201905291700 METAR LRTZ 291700Z 18006KT 9999 FEW055 20/18 Q1011 BLU BLU=
201905291800 METAR LRTZ 291800Z 19006KT 9999 SCT060 20/18 Q1011 BLU BLU=
201905291900 METAR LRTZ 291900Z 17004KT 9999 FEW060 SCT100 20/17 Q1012
                        BLU BLU=
201905292000 METAR LRTZ 292000Z 18004KT 9999 FEW060 SCT100 19/17 Q1012
                        BLU BLU=
201905292300 METAR LRTZ 292300Z 18004KT 9999 SKC 18/16 Q1012 BLU BLU=
201905300300 METAR LRTZ 300300Z VRB02KT 4000 BR FEW200 16/15 Q1013 GRN
                        WHT=
201905300400 METAR LRTZ 300400Z 21004KT 6000 FEW200 17/16 Q1014 WHT BLU=
201905300500 METAR LRTZ 300500Z 30004KT 9999 FEW200 20/17 Q1014 BLU BLU=
201905300600 METAR LRTZ 300600Z 06004KT 9999 FEW200 24/18 Q1014 BLU BLU=
201905300700 METAR LRTZ 300700Z 10004KT 9999 FEW200 25/17 Q1014 BLU BLU=
201905300800 METAR LRTZ 300800Z 10006KT 9999 FEW200 26/17 Q1015 BLU BLU=
201905300900 METAR LRTZ 300900Z NIL=
201905301000 METAR LRTZ 301000Z 16010KT 9999 FEW035 BNK200 24/17 Q1015
                        BLU BLU=
201905301100 METAR LRTZ 301100Z 16010KT 9999 FEW035 BNK200 25/16 Q1015
                        BLU BLU=
201905301200 METAR LRTZ 301200Z 17010KT 9999 FEW035 SCT200 25/16 Q1015
                        BLU BLU=
201905301300 METAR LRTZ 301300Z 17010KT 9999 FEW035 SCT200 24/17 Q1015
                        BLU BLU=
201905301400 METAR LRTZ 301400Z 17010KT 9999 FEW035 FEW200 24/16 Q1015
                        BLU BLU=
201905301500 METAR LRTZ 301500Z 17008KT 9999 FEW035 FEW200 24/18 Q1015
                        BLU BLU=
201905301600 METAR LRTZ 301600Z 17006KT 9999 FEW035 FEW200 22/18 Q1015
                        BLU BLU=
201905301700 METAR LRTZ 301700Z 18004KT 9999 FEW200 21/18 Q1015 BLU BLU=
201905301800 METAR LRTZ 301800Z VRB03KT 9999 FEW050 FEW200 20/18 Q1015
                        BLU BLU=
201905301900 METAR LRTZ 301900Z 00000KT 9999 FEW050 19/18 Q1016 BLU BLU=
201905302000 METAR LRTZ 302000Z 00000KT 9999 FEW075 19/18 Q1016 BLU BLU=
201905302100 METAR LRTZ 302100Z VRB03KT 9999 SKC 19/18 Q1016 BLU BLU=
201905302300 METAR LRTZ 302300Z 24003KT 9999 SKC 18/17 Q1016 BLU BLU=
201905310300 METAR LRTZ 310300Z 33008KT 9999 FEW160 17/15 Q1015 BLU BLU=
201905310400 METAR LRTZ 310400Z 33008KT 9999 FEW100 18/16 Q1016 BLU BLU=
201905310500 METAR LRTZ 310500Z 32010KT 9999 FEW100 20/17 Q1016 BLU BLU=
201905310600 METAR LRTZ 310600Z 32010KT 9999 SCT100 22/18 Q1016 BLU BLU=
201905310700 METAR LRTZ 310700Z 06010KT 9999 FEW015 SCT100 23/17 Q1016
                        BLU BLU=
201905310800 METAR LRTZ 310800Z 06010KT 9999 FEW025 SCT100 24/18 Q1016
                        BLU BLU=
201905310900 METAR LRTZ 310900Z 06010KT 9999 FEW025 SCT100 24/18 Q1016
                        BLU BLU=
201905311000 METAR LRTZ 311000Z 06010KT 9999 SCT035 24/18 Q1016 BLU BLU=
201905311100 METAR LRTZ 311100Z 06012KT 9999 SCT035 24/18 Q1016 BLU BLU=
201905311200 METAR LRTZ 311200Z 06012KT 9999 SCT035TCU 24/16 Q1016 BLU
                        BLU=
201905311300 METAR LRTZ 311300Z 06012KT 9999 SCT035TCU BKN150 23/16 Q1015
                        BLU BLU=
201905311400 METAR LRTZ 311400Z 09012KT 9999 FEW035TCU SCT150 23/16 Q1015
                        BLU BLU=
201905311500 METAR LRTZ 311500Z 09012KT 9999 FEW035 23/16 Q1014 BLU BLU=
201905311600 METAR LRTZ 311600Z 09008KT 9999 FEW035 23/16 Q1014 BLU BLU=
201905311700 METAR LRTZ 311700Z 09008KT 9999 FEW035 23/16 Q1014 BLU BLU=
201905311800 METAR LRTZ 311800Z 33006KT 9999 SCT035 18/16 Q1014 BLU BLU=
201905312000 METAR LRTZ 312000Z 33006KT 9999 SCT035 17/16 Q1015 BLU BLU=
201905312100 METAR LRTZ 312100Z 33006KT 9999 FEW035 17/16 Q1015 BLU BLU=
201905312200 METAR LRTZ 312200Z 33006KT 9999 FEW035 17/16 Q1015 BLU BL=
201905312300 METAR LRTZ 312300Z 33006KT 9999 SKC 17/16 Q1015 BLU BLU=