201906010100 METAR LRTZ 010100Z 33006KT 9999 SKC 17/16 Q1015 BLU BLU=
201906010200 METAR LRTZ 010200Z 33006KT 9999 SKC 17/16 Q1015 BLU BLU=
201906010300 METAR LRTZ 010300Z 33008KT 9999 SCT020 18/16 Q1014 BLU BLU=
201906010400 METAR LRTZ 010400Z 33008KT 9999 BKN020 19/16 Q1014 WHT WHT=
201906010500 METAR LRTZ 010500Z 33010KT 9999 SCT020 BKN090 19/17 Q1014
                        BLU BLU=
201906010600 METAR LRTZ 010600Z 35006KT 9999 SCT015 BKN090 21/17 Q1015
                        BLU BLU=
201906010700 METAR LRTZ 010700Z 35006KT 9999 SCT015 BKN090 21/17 Q1015
                        BLU BLU=
201906010900 METAR LRTZ 010900Z 31010KT 9999 SCT015 BKN020 23/17 Q1015
                        WHT WHT=
201906011000 METAR LRTZ 011000Z 33012KT 9999 FEW015 BKN025 25/18 Q1015
                        BLU BLU=
201906011100 METAR LRTZ 011100Z 33012KT 9999 SCT020 BKN035 25/18 Q1015
                        BLU BLU=
201906011200 METAR LRTZ 011200Z 31010KT 9999 SCT035 27/17 Q1015 BLU BLU=
201906011300 METAR LRTZ 011300Z 15008KT 9999 SCT040 26/17 Q1014 BLU BLU=
201906011400 METAR LRTZ 011400Z 15008KT 9999 SCT045 24/19 Q1014 BLU BLU=
201906011500 METAR LRTZ 011500Z 16012KT 9999 SCT050 22/19 Q1014 BLU BLU=
201906011600 METAR LRTZ 011600Z 19006KT 9999 FEW030 22/19 Q1014 BLU BLU=
201906011700 METAR LRTZ 011700Z 21004KT 9999 SKC 22/19 Q1014 BLU BLU=
201906011900 METAR LRTZ 011900Z VRB02KT 9999 SKC 19/18 Q1015 BLU BLU=
201906012000 METAR LRTZ 012000Z VRB02KT 9999 SKC 19/18 Q1015 BLU BLU=
201906012100 METAR LRTZ 012100Z VRB02KT 9999 SKC 19/18 Q1014 BLU BLU=
201906012200 METAR LRTZ 012200Z VRB02KT 9999 SKC 19/18 Q1014 BLU BLU=
201906020300 METAR LRTZ 020300Z 36006KT 9999 SCT200 17/16 Q1015 BLU BLU=
201906020400 METAR LRTZ 020400Z 36008KT 9999 SCT200 17/16 Q1015 BLU BLU=
201906020500 METAR LRTZ 020500Z 01010KT 9999 BKN200 19/16 Q1015 BLU BLU=
201906020600 METAR LRTZ 020600Z 34006KT 9999 FEW100 BKN200 20/16 Q1015
                        BLU BLU=
201906020700 METAR LRTZ 020700Z 36006KT 9999 FEW100 BKN200 22/16 Q1015
                        BLU BLU=
201906020800 METAR LRTZ 020800Z 32006KT 9999 BKN200 25/16 Q1015 BLU BLU=
201906020900 METAR LRTZ 020900Z 02006KT 9999 BKN200 26/16 Q1015 BLU BLU=
201906021000 METAR LRTZ 021000Z 05008KT 9999 FEW090 BKN200 27/16 Q1015
                        BLU BLU=
201906021100 METAR LRTZ 021100Z 08008KT 9999 FEW040 BKN200 25/18 Q1015
                        BLU BLU=
201906021200 METAR LRTZ 021200Z 06010KT 9999 SCT040 BKN200 24/19 Q1014
                        BLU BLU=
201906021300 METAR LRTZ 021300Z 09010KT 9999 FEW040TCU SCT100 BKN200 24/17
                        Q1014 BLU BLU=
201906021400 METAR LRTZ 021400Z 09010KT 9999 FEW040TCU SCT100 BKN200 23/17
                        Q1013 BLU BLU=
201906021600 METAR LRTZ 021600Z 10004KT 9999 FEW050 BKN100 BKN200 22/18
                        Q1013 BLU BLU=
201906021700 METAR LRTZ 021700Z 13004KT 9999 BKN100 BKN200 21/18 Q1013
                        BLU BLU=
201906021800 METAR LRTZ 021800Z VRB02KT 9999 BKN100 BKN200 20/18 Q1013
                        BLU BLU=
201906021900 METAR LRTZ 021900Z VRB02KT 9999 BKN100 BKN200 19/18 Q1013
                        BLU BLU=
201906022000 METAR LRTZ 022000Z VRB02KT 9999 BKN100 BKN200 19/17 Q1013
                        BLU BLU=
201906022100 METAR LRTZ 022100Z VRB02KT 9999 SCT100 BKN200 19/17 Q1013
                        BLU BLU=
201906022200 METAR LRTZ 022200Z VRB03KT 9999 SCT100 SCT200 19/17 Q1012
                        BLU BLU=
201906022300 METAR LRTZ 022300Z 18004KT 9999 SCT100 SCT200 18/16 Q1012
                        BLU BLU=
201906030000 METAR LRTZ 030000Z 17006KT 9999 SCT100 SCT200 18/16 Q1012
                        BLU BLU=
201906030200 METAR LRTZ 030200Z 18006KT 9999 SCT100 17/15 Q1011 BLU BLU=
201906030300 METAR LRTZ 030300Z VRB02KT 9999 SCT100 17/16 Q1012 BLU BLU=
201906030400 METAR LRTZ 030400Z 19004KT 8000 FEW100 17/16 Q1012 BLU BLU=
201906030500 METAR LRTZ 030500Z 21006KT 9999 FEW100 20/18 Q1012 BLU BLU=
201906030600 METAR LRTZ 030600Z 19006KT 9999 FEW007 SCT100 21/18 Q1013
                        BLU BLU=
201906030700 METAR LRTZ 030700Z 19006KT 9999 SCT020 24/18 Q1013 BLU BLU=
201906030800 METAR LRTZ 030800Z 16010KT 9999 BKN020 24/19 Q1013 BLU BLU=
201906030900 METAR LRTZ 030900Z 16010KT 9999 SCT020 24/19 Q1013 BLU BLU=
201906031000 METAR LRTZ 031000Z 16010KT 9999 SCT020 24/19 Q1013 BLU BLU=
201906031100 METAR LRTZ 031100Z 16014KT 9999 SCT025 24/18 Q1013 BLU BLU=
201906031200 METAR LRTZ 031200Z 16016KT 9999 SCT025 24/18 Q1013 BLU BLU=
201906031300 METAR LRTZ 031300Z 16016KT 9999 SCT025 24/18 Q1012 BLU BLU=
201906031400 METAR LRTZ 031400Z 16016KT 9999 SCT025 23/18 Q1012 BLU BLU=
201906031500 METAR LRTZ 031500Z 16016KT 9999 SCT025 22/18 Q1012 BLU BLU=
201906031600 METAR LRTZ 031600Z 16012KT 9999 FEW030 22/19 Q1012 BLU BLU=
201906031700 METAR LRTZ 031700Z 16012KT 9999 FEW020 21/19 Q1012 BLU WHT=
201906031900 METAR LRTZ 031900Z 16006KT 7000 FEW030 19/18 Q1013 WHT WHT=
201906032000 METAR LRTZ 032000Z 16008KT 5000 FEW100 19/19 Q1013 WHT WHT=
201906032300 METAR LRTZ 032300Z 21008KT 5000 BR FEW100 19/19 Q1014 WHT
                        WHT=
201906040300 METAR LRTZ 040300Z VRB03KT 3000 BR SCT100 18/17 Q1013 YLO
                        YLO=
201906040400 METAR LRTZ 040400Z VRB03KT 1000 BR SCT025TCU BKN100 18/17
                        Q1012 AMB YLO=
201906040500 METAR LRTZ 040500Z 20006KT 9999 SCT030 BKN100 19/17 Q1013
                        BLU BLU=
201906040600 METAR LRTZ 040600Z 25006KT 9999 SCT040 BKN100 21/16 Q1013
                        BLU BLU=
201906040700 METAR LRTZ 040700Z 27008KT 9999 SCT040 BKN100 21/12 Q1014
                        BLU BLU=
201906040800 METAR LRTZ 040800Z 25006KT 9999 -RA BKN030 BKN060 19/15 Q1014
                        BLU WHT=
201906040900 METAR LRTZ 040900Z 14006KT 9999 SCT030 BKN060 20/15 Q1014
                        BLU BLU=
201906041000 METAR LRTZ 041000Z 12008KT 9999 FEW040 BKN200 22/14 Q1014
                        BLU BLU=
201906041100 METAR LRTZ 041100Z 06008KT 9999 BKN100 23/14 Q1013 BLU BLU=
201906041200 METAR LRTZ 041200Z 13010KT 9999 FEW040 SCT200 23/17 Q1013
                        BLU BLU=
201906041300 METAR LRTZ 041300Z 15014KT 9999 FEW040 SCT200 22/16 Q1013
                        BLU BLU=
201906041400 METAR LRTZ 041400Z 15014KT 9999 FEW040 BKN200 22/16 Q1013
                        BLU BLU=
201906041500 METAR LRTZ 041500Z 18010KT 9999 SCT040 BKN200 21/15 Q1013
                        BLU BLU=
201906041600 METAR LRTZ 041600Z 20012KT 9999 SCT040 BKN200 21/15 Q1013
                        BLU BLU=
201906041700 METAR LRTZ 041700Z 20010KT 9999 SCT200 20/16 Q1013 BLU BLU=
201906041800 METAR LRTZ 041800Z 20006KT 9999 SCT200 19/16 Q1013 BLU BLU=
201906041900 METAR LRTZ 041900Z 18004KT 9999 SCT200 18/15 Q1013 BLU BLU=
201906042000 METAR LRTZ 042000Z 18004KT 9999 SCT200 18/16 Q1013 BLU BLU=
201906042100 METAR LRTZ 042100Z VRB03KT 9999 SCT200 18/16 Q1014BLU BLU=
201906042300 METAR LRTZ 042300Z VRB03KT 9999 SCT200 18/16 Q1014 BLU BLU=
201906050300 METAR LRTZ 050300Z VRB02KT 0400 FG SCT200 17/16 Q1013 RED
                        RE=
201906050400 METAR LRTZ 050400Z VRB02KT 0800 FG SCT200 18/18 Q1013 AMB
                        YLO=
201906050500 METAR LRTZ 050500Z 18004KT 8000 SCT005 20/18 Q1013 BLU BLU=
201906050600 METAR LRTZ 050600Z 15006KT 9999 FEW013 23/17 Q1014 BLU BLU=
201906050700 METAR LRTZ 050700Z 13008KT 9999 SCT020 23/18 Q1014 BLU BLU=
201906050800 METAR LRTZ 050800Z 11010KT 9999 FEW012 SCT020 23/18 Q1014
                        BLU BLU=
201906050900 METAR LRTZ 050900Z 10008KT 9999 FEW015 SCT020 23/18 Q1014
                        BLU BLU=
201906051000 METAR LRTZ 051000Z 11012KT 9999 FEW017 23/18 Q1014 BLU BLU=
201906051100 METAR LRTZ 051100Z 12012KT 9999 FEW017 23/17 Q1014 BLU BLU=
201906051200 METAR LRTZ 051200Z 10012KT 9999 FEW017 24/17 Q1014 BLU BLU=
201906051300 METAR LRTZ 051300Z 12012KT 9999 FEW020 23/17 Q1014 BLU BLU=
201906051400 METAR LRTZ 051400Z 12010KT 9999 FEW020 24/19 Q1013 BLU BLU=
201906051500 METAR LRTZ 051500Z 14010KT 9999 FEW100 23/18 Q1013 BLU BLU=
201906051600 METAR LRTZ 051600Z 15008KT 9999 SKC 22/17 Q1013 BLU BLU=
201906051700 METAR LRTZ 051700Z 16008KT 9999 FEW200 21/17 Q1013 BLU BLU=
201906051800 METAR LRTZ 051800Z 17004KT 9999 SKC 19/16 Q1013 BLU BLU=
201906051900 METAR LRTZ 051900Z VRB02KT 9999 SKC 18/17 Q1014 BLU BLU=
201906052000 METAR LRTZ 052000Z VRB03KT 9999 SKC 18/16 Q1014 BLU BLU=
201906052100 METAR LRTZ 052100Z VRB02KT 9999 SKC 18/16 Q1014 BLU BLU=
201906052200 METAR LRTZ 052200Z VRB03KT 9999 SKC 17/16 Q1014 BLU BLU=
201906052300 METAR LRTZ 052300Z VRB03KT 9999 SKC 17/16 Q1014 BLU BLU=
201906060400 METAR LRTZ 060400Z 07004KT 5000 BR SKC 17/16 Q1014 WHT WH=
201906060500 METAR LRTZ 060500Z 09004KT 9999 FEW007 21/18 Q1015 BLU BLU=
201906060600 METAR LRTZ 060600Z 09006KT 9999 FEW090 23/17 Q1015 BLU BLU=
201906060700 METAR LRTZ 060700Z 12006KT 9999 FEW090 23/17 Q1015 BLU BLU=
201906060800 METAR LRTZ 060800Z 12008KT 9999 FEW050 24/18 Q1015 BLU BLU=
201906060900 METAR LRTZ 060900Z 12008KT 9999 FEW040 SCT200 24/17 Q1016
                        BLU BLU=
201906061000 METAR LRTZ 061000Z 14010KT 9999 FEW035 SCT200 24/17 Q1016
                        BLU BLU=
201906061100 METAR LRTZ 061100Z 14012KT 9999 FEW035 SCT200 24/17 Q1015
                        BLU BLU=
201906061200 METAR LRTZ 061200Z 14012KT 9999 FEW035 SCT200 24/17 Q1015
                        BLU BLU=
201906061300 METAR LRTZ 061300Z 14012KT 9999 FEW035 SCT200 24/17 Q1015
                        BLU BLU=
201906061400 METAR LRTZ 061400Z 14012KT 9999 FEW035 SCT200 24/17 Q1015
                        BLU BLU=
201906061500 METAR LRTZ 061500Z 14012KT 9999 SCT035 BKN200 22/18 Q1014
                        BLU BLU=
201906061600 METAR LRTZ 061600Z 14012KT 9999 FEW035 BKN200 22/18 Q1015
                        BLU BLU=
201906061700 METAR LRTZ 061700Z 16012KT 9999 FEW035 BKN200 22/18 Q1015
                        BLU BLU=
201906061800 METAR LRTZ 061800Z 16010KT 9999 BKN200 20/18 Q1015 BLU BLU=
201906061900 METAR LRTZ 061900Z 16004KT 9999 BKN200 20/18 Q1015 BLU BLU=
201906062000 METAR LRTZ 062000Z VRB03KT 9999 BKN200 19/18 Q1016 BLU BLU=
201906062100 METAR LRTZ 062100Z VRB03KT 9999 BKN200 19/18 Q1016 BLU BLU=
201906062300 METAR LRTZ 062300Z VRB03KT 9999 SCT200 19/18 Q1016 BLU BLU=
201906070300 METAR LRTZ 070300Z VRB03KT 7000 FEW200 17/15 Q1015 WHT BLU=
201906070400 METAR LRTZ 070400Z 01008KT 9999 FEW200 18/16 Q1015 BLU BLU=
201906070500 METAR LRTZ 070500Z 01008KT 9999 FEW200 20/17 Q1016 BLU BLU=
201906070600 METAR LRTZ 070600Z 33006KT 9999 FEW200 24/18 Q1016 BLU BLU=
201906070700 METAR LRTZ 070700Z 33008KT 9999 FEW200 26/17 Q1016 BLU BLU=
201906070800 METAR LRTZ 070800Z 33008KT 9999 SCT040 28/17 Q1017 BLU BLU=
201906070900 METAR LRTZ 070900Z 12008KT 9999 SCT040 24/19 Q1017 BLU BLU=
201906071000 METAR LRTZ 071000Z 12008KT 9999 SCT040 28/19 Q1018 BLU BLU=
201906071100 METAR LRTZ 071100Z 15010KT 9999 SCT050 26/19 Q1018 BLU BLU=
201906071200 METAR LRTZ 071200Z 15008KT 9999 SCT050 BKN200 27/18 Q1017
                        BLU BLU=
201906071300 METAR LRTZ 071300Z 15008KT 9999 SCT050 BKN200 26/17 Q1016
                        BLU BLU=
201906071400 METAR LRTZ 071400Z 18008KT 9999 SCT040 BKN200 26/18 Q1016
                        BLU BLU=
201906071500 METAR LRTZ 071500Z 20010KT 9999 VCTS SCT050CB BKN150 25/20
                        Q1016 BLU BLU=
201906071600 METAR LRTZ 071600Z 27004KT 9999 SCT040CB BKN150 27/19 Q1016
                        BLU BLU=
201906071700 METAR LRTZ 071700Z VRB03KT 9999 SCT040 BKN200 26/19 Q1016
                        BLU BLU=
201906071800 METAR LRTZ 071800Z VRB03KT 9999 FEW050 BKN200 24/20 Q1016
                        BLU BLU=
201906071900 METAR LRTZ 071900Z VRB03KT 9999 BKN200 21/18 Q1017 BLU BLU=
201906072100 METAR LRTZ 072100Z VRB03KT 9999 SCT200 20/18 Q1017 BLU BLU=
201906072200 METAR LRTZ 072200Z VRB03KT 9999 SCT200 20/18 Q1017 BLU BLU=
201906072300 METAR LRTZ 072300Z VRB03KT 9999 SCT200 20/18 Q1017 BLU BLU=
201906080000 METAR LRTZ 080000Z VRB03KT 9999 SCT200 19/18 Q1017 BLU BLU=
201906080100 METAR LRTZ 080100Z VRB03KT 9999 SCT200 19/18 Q1017 BLU BLU=
201906080200 METAR LRTZ 080200Z VRB03KT 9999 SCT200 18/17 Q1017 BLU BLU=
201906080300 METAR LRTZ 080300Z 33004KT 9999 FEW200 18/16 Q1017 BLU BLU=
201906080400 METAR LRTZ 080400Z 33004KT 9999 SKC 20/18 Q1017 BLU BLU=
201906080500 METAR LRTZ 080500Z VRB03KT 9999 SKC 21/18 Q1017 BLU BLU=
201906080600 METAR LRTZ 080600Z 03006KT 9999 SKC 25/18 Q1017 BLU BLU=
201906080700 METAR LRTZ 080700Z 02006KT 9999 SKC 27/18 Q1017 BLU BLU=
201906080800 METAR LRTZ 080800Z 12006KT 9999 SKC 27/20 Q1017 BLU BLU=
201906080900 METAR LRTZ 080900Z 11008KT 9999 FEW030 27/20 Q1017 BLU BLU=
201906081000 METAR LRTZ 081000Z NIL=
201906081100 METAR LRTZ 081100Z 11008KT 9999 SCT030 BKN100 27/20 Q1017
                        BLU BLU=
201906081200 METAR LRTZ 081200Z 13008KT 8000 -SHRA SCT007 SCT025CB BKN050
                        21/20 Q1018 BLU BLU=
201906081300 METAR LRTZ 081300Z 24008KT 9999 FEW025 BKN100 21/20 Q1017
                        BLU BLU=
201906081400 METAR LRTZ 081400Z 20004KT 9999 BKN025 BKN080 22/20 Q1017
                        BLU BLU=
201906081500 METAR LRTZ 081500Z VRB03KT 9999 BKN200 24/19 Q1016 BLU BLU=
201906081600 METAR LRTZ 081600Z VRB02KT 9999 SCT200 24/20 Q1016 BLU BLU=
201906081700 METAR LRTZ 081700Z VRB02KT 9999 BKN200 22/20 Q1016 BLU BLU=
201906081800 METAR LRTZ 081800Z VRB02KT 9999 BKN200 22/21 Q1016 BLU BLU=
201906081900 METAR LRTZ 081900Z VRB02KT 8000 BKN200 22/21 Q1017 BLU BLU=
201906082000 METAR LRTZ 082000Z VRB02KT 5000 BR BKN200 21/21 Q1017 WHT
                        WHT=
201906082100 METAR LRTZ 082100Z VRB02KT 5000 BR BKN200 21/21 Q1017 WHT
                        WHT=
201906082300 METAR LRTZ 082300Z VRB02KT 3000 BR SCT200 21/21 Q1017 YLO
                        YLO=
201906090300 METAR LRTZ 090300Z VRB02KT 4000 BR BKN100 20/19 Q1017 GRN
                        WHT=
201906090400 METAR LRTZ 090400Z 01004KT 5000 BR SCT010 BKN200 21/20 Q1018
                        GRN WHT=
201906090500 METAR LRTZ 090500Z 03006KT 9999 SCT020 BKN200 23/20 Q1018
                        BLU BLU=
201906090600 METAR LRTZ 090600Z 03006KT 9999 SCT020 BKN200 23/20 Q1018
                        BLU BLU=
201906090700 METAR LRTZ 090700Z 03010KT 9999 SCT010 BKN025 23/20 Q1018
                        BLU BLU=
201906090800 METAR LRTZ 090800Z 03012KT 9999 BKN025 24/19 Q1019 BLU BLU=
201906090900 METAR LRTZ 090900Z 03012KT 9999 SCT030 SCT100 25/17 Q1019
                        BLU BLU=
201906091000 METAR LRTZ 091000Z 03012KT 9999 SCT030 SCT100 26/14 Q1018
                        BLU BLU=
201906091100 METAR LRTZ 091100Z 06012KT 9999 SCT030 SCT100 27/17 Q1018
                        BLU BLU=
201906091200 METAR LRTZ 091200Z 06012KT 9999 SCT030 SCT100 26/17 Q1018
                        BLU BLU=
201906091300 METAR LRTZ 091300Z 06012KT 9999 SCT030 26/16 Q1017 BLU BLU=
201906091400 METAR LRTZ 091400Z 06012KT 9999 SCT030 26/19 Q1017 BLU BLU=
201906091700 METAR LRTZ 091700Z 060086KT 9999 SCT150 23/19 Q1017 BLU BLU=
201906091800 METAR LRTZ 091800Z 06006KT 9999 SCT150 23/18 Q1017 BLU BLU=
201906091900 METAR LRTZ 091900Z 06006KT 9999 SCT150 22/18 Q1017 BLU BLU=
201906092000 METAR LRTZ 092000Z 06006KT 9999 FEW150 22/19 Q1017 BLU BLU=
201906092100 METAR LRTZ 092100Z 06006KT 9999 SKC 22/19 Q1017 BLU BLU=
201906092300 METAR LRTZ 092300Z 06006KT 9999 SKC 21/19 Q1017 BLU BLU=
201906100300 METAR LRTZ 100300Z 04006KT 9999 SCT020 19/17 Q1015 BLU BLU=
201906100400 METAR LRTZ 100400Z 04006KT 9999 FEW030 19/17 Q1015 BLU BLU=
201906100500 METAR LRTZ 100500Z 06010KT 9999 SCT030 22/17 Q1015 BLU BLU=
201906100600 METAR LRTZ 100600Z 04012KT 9999 SCT010 BKN015 BKN020 23/20
                        Q1015 WHT WHT=
201906100700 METAR LRTZ 100700Z 04014KT 9999 SCT020 BKN030 24/20 Q1015
                        BLU BLU=
201906100800 METAR LRTZ 100800Z 04012KT 9999 SCT010 BKN020 25/21 Q1015
                        WHT WHT=
201906100900 METAR LRTZ 100900Z 04012KT 9999 SCT012 BKN015 26/21 Q1015
                        WHT WHT=
201906101000 METAR LRTZ 101000Z 04012KT 9999 SCT015 BKN100 27/21 Q1015
                        BLU BLU=
201906101100 METAR LRTZ 101100Z 07014KT 9999 SCT200 27/19 Q1014 BLU BLU=
201906101200 METAR LRTZ 101200Z 07012KT 9999 SCT015 BKN200 26/20 Q1014
                        BLU BLU=
201906101300 METAR LRTZ 101300Z 07012KT 9999 FEW020 BKN200 27/17 Q1013
                        BLU BLU=
201906101400 METAR LRTZ 101400Z 07012KT 9999 FEW020 BKN200 27/20 Q1013
                        BLU BLU=
201906101500 METAR LRTZ 101500Z 07014KT 9999 FEW020 BKN200 25/20 Q1012
                        BLU BLU=
201906101600 METAR LRTZ 101600Z 03006KT 9999 -RA FEW020 SCT060 BKN100
                        25/17 Q1012 BLU BLU=
201906101700 METAR LRTZ 101700Z 35008KT 9999 -RA SCT035 BKN050 OVC100
                        23/18 Q1011 BLU BLU=
201906101800 METAR LRTZ 101800Z 35008KT 9999 -RA SCT035 BKN075 OVC100
                        22/17 Q1011 BLU BLU=
201906102000 METAR LRTZ 102000Z 35006KT 9999 BKN100 22/17 Q1011 BLU BLU=
201906102100 METAR LRTZ 102100Z 35006KT 9999 BKN100 21/17 Q1011 BLU BLU=
201906102300 METAR LRTZ 102300Z 35006KT 9999 SCT200 21/17 Q1011 BLU BLU=
201906110300 METAR LRTZ 110300Z 10006KT 9999 SCT200 22/21 Q1009 BLU BLU=
201906110400 METAR LRTZ 110400Z 10006KT 9999 SCT200 23/21 Q1010 BLU BLU=
201906110500 METAR LRTZ 110500Z 10008KT 9999 BKN007 24/22 Q1010 BLU BLU=
201906110600 METAR LRTZ 110600Z 09008KT 9999 SCT007 BKN015 25/21 Q1010
                        BLU BLU=
201906110800 METAR LRTZ 110800Z 09008KT 9999 FEW015 BKN100 BKN200 26/21
                        Q1011 BLU BLU=
201906110900 METAR LRTZ 110900Z 04008KT 9999 FEW015 BKN200 26/20 Q1011
                        BLU BLU=
201906111000 METAR LRTZ 111000Z 09008KT 9999 FEW015 BKN020 BKN200 27/21
                        Q1011 BLU BLU=
201906111100 METAR LRTZ 111100Z 09008KT 9999 BKN015 BKN200 27/21 Q1011
                        BLU BLU=
201906111200 METAR LRTZ 111200Z 09008KT 9999 BKN015 BKN200 26/21 Q1010
                        BLU BLU=
201906111300 METAR LRTZ 111300Z 09008KT 9999 BKN015 27/21 Q1010 WHT WHT=
201906111400 METAR LRTZ 111400Z 09010KT 9999 FEW015 BKN200 26/20 Q1010
                        BLU BLU=
201906111500 METAR LRTZ 111500Z 05008KT 9999 BKN150 26/20 Q1010 BLU BLU=
201906111600 METAR LRTZ 111600Z 05008KT 9999 BKN150 26/18 Q1010 BLU BLU=
201906111700 METAR LRTZ 111700Z 04008KT 9999 BKN150 26/19 Q1010 BLU BLU=
201906111800 METAR LRTZ 111800Z 04006KT 9999 SCT150 24/19 Q1010 BLU BLU=
201906111900 METAR LRTZ 111900Z 04004KT 9999 FEW150 23/20 Q1010 BLU BLU=
201906112000 METAR LRTZ 112000Z 04004KT 9999 FEW150 23/20 Q1011 BLU BLU=
201906112100 METAR LRTZ 112100Z 04004KT 9999 FEW150 23/20 Q1011 BLU BLU=
201906112300 METAR LRTZ 112300Z 04004KT 6000 -RA FEW020 BKN050 22/20 Q1011
                        WHT BLU=
201906120300 METAR LRTZ 120300Z 02006KT 9999 SCT150 20/19 Q1011 BLU BLU=
201906120400 METAR LRTZ 120400Z 36006KT 9999 SCT150 21/20 Q1010 BLU BLU=
201906120500 METAR LRTZ 120500Z 36006KT 9999 SCT150 21/20 Q1010 BLU BLU=
201906120600 METAR LRTZ 120600Z 36006KT 9999 BKN150 23/18 Q1011 BLU BLU=
201906120700 METAR LRTZ 120700Z 03008KT 9999 BKN150 26/17 Q1011 BLU BLU=
201906120800 METAR LRTZ 120800Z 05010KT 9999 BKN150 26/17 Q1011 BLU BLU=
201906120900 METAR LRTZ 120900Z 05010KT 9999 BKN150 28/15 Q1011 BLU BLU=
201906121000 METAR LRTZ 121000Z 05008KT 9999 SCT100 BKN200 30/18 Q1011
                        BLU BLU=
201906121100 METAR LRTZ 121100Z 05008KT 9999 FEW030 SCT100 BKN200 29/16
                        Q1011 BLU BLU=
201906121200 METAR LRTZ 121200Z 05008KT 9999 FEW030 SCT100 31/14 Q1011
                        BLU BLU=
201906121300 METAR LRTZ 121300Z 05010KT 9999 FEW030 SCT100 31/14 Q1011
                        BLU BLU=
201906121400 METAR LRTZ 121400Z 05010KT 9999 FEW030 SCT100 31/14 Q1011
                        BLU BLU=
201906121500 METAR LRTZ 121500Z 06010KT 9999 FEW030 BKN100 31/14 Q1010
                        BLU BLU=
201906121600 METAR LRTZ 121600Z 09006KT 9999 FEW030 BKN100 28/15 Q1010
                        BLU BLU=
201906121700 METAR LRTZ 121700Z 05006KT 9999 FEW030 SCT100 27/15 Q1010
                        BLU BLU=
201906121800 METAR LRTZ 121800Z VRB03KT 9999 SCT200 25/17 Q1011 BLU BLU=
201906121900 METAR LRTZ 121900Z VRB03KT 9999 SCT200 23/17 Q1012 BLU BLU=
201906122000 METAR LRTZ 122000Z VRB03KT 9999 SCT100 22/16 Q1012 BLU BLU=
201906122100 METAR LRTZ 122100Z VRB03KT 9999 FEW200 21/15 Q1012 BLU BLU=
201906122200 METAR LRTZ 122200Z VRB03KT 9999 FEW200 21/14 Q1012 BLU BLU=
201906122300 METAR LRTZ 122300Z VRB03KT 9999 FEW200 21/14 Q1012 BLU BLU=
201906130300 METAR LRTZ 130300Z VRB03KT 9999 FEW200 20/17 Q1011 BLU BLU=
201906130400 METAR LRTZ 130400Z 33006KT 9999 FEW200 20/17 Q1012 BLU BLU=
201906130500 METAR LRTZ 130500Z 35008KT 9999 SCT100 24/18 Q1012 BLU BLU=
201906130600 METAR LRTZ 130600Z 35012KT 9999 SCT100 27/17 Q1013 BLU BLU=
201906130700 METAR LRTZ 130700Z 03012KT 9999 SCT100 29/17 Q1013 BLU BLU=
201906130800 METAR LRTZ 130800Z 03010KT 9999 FEW040 SCT100 30/17 Q1014
                        BLU BLU=
201906130900 METAR LRTZ 130900Z 03012KT 9999 SCT040 BKN100 28/19 Q1014
                        BLU BLU=
201906131000 METAR LRTZ 131000Z 08010KT 9999 SCT040 BKN100 29/18 Q1014
                        BLU BLU=
201906131100 METAR LRTZ 131100Z 08010KT 9999 FEW040 SCT100 30/14 Q1014
                        BLU BLU=
201906131200 METAR LRTZ 131200Z 09010KT 9999 FEW040 SCT100 30/15 Q1014
                        BLU BLU=
201906131300 METAR LRTZ 131300Z 09010KT 9999 FEW030CB SCT100 29/13 Q1014
                        BLU BLU=
201906131400 METAR LRTZ 131400Z 03006KT 9999 SCT030CB BKN100 BKN200 26/15
                        Q1014 BLU BLU=
201906131500 METAR LRTZ 131500Z 09008KT 9999 SCT040 BKN100 BKN200 26/17
                        Q1014 BLU BLU=
201906131600 METAR LRTZ 131600Z 09008KT 9999 FEW040 SCT100 BKN200 28/18
                        Q1014 BLU BLU=
201906131700 METAR LRTZ 131700Z 03006KT 9999 SCT030CB BKN100 26/16 Q1014
                        BLU BLU=
201906131800 METAR LRTZ 131800Z VRB03KT 9999 FEW030CB BKN100 23/18 Q1014
                        BLU BLU=
201906131900 METAR LRTZ 131900Z VRB03KT 9999 FEW030CB SCT100 BKN200 24/17
                        Q1015 BLU BLU=
201906132000 METAR LRTZ 132000Z VRB02KT 9999 BKN200 21/17 Q1015 BLU BLU=
201906132100 METAR LRTZ 132100Z VRB02KT 9999 SCT200 21/17 Q1015 BLU BLU=
201906132200 METAR LRTZ 132200Z VRB03KT 9999 SCT200 21/17 Q1015 BLU BLU=
201906132300 METAR LRTZ 132300Z VRB03KT 9999 SCT200 20/17 Q1014 BLU BLU=
201906140200 METAR LRTZ 140200Z VRB03KT 9999 SCT200 19/16 Q1015 BLU BLU=
201906140300 METAR LRTZ 140300Z 33008KT 9999 FEW200 19/16 Q1014 BLU BLU=
201906140400 METAR LRTZ 140400Z 33010KT 9999 FEW200 20/16 Q1014 BLU BLU=
201906140500 METAR LRTZ 140500Z 03010KT 9999 FEW200 23/16 Q1014 BLU BLU=
201906140600 METAR LRTZ 140600Z 01014KT 9999 FEW150 25/16 Q1015 BLU BLU=
201906140700 METAR LRTZ 140700Z 03010KT 9999 FEW150 26/17 Q1015 BLU BLU=
201906140800 METAR LRTZ 140800Z 03010KT 9999 FEW050 BKN150 25/17 Q1015
                        BLU BLU=
201906140900 METAR LRTZ 140900Z 03010KT 9999 BKN150 28/17 Q1015 BLU BLU=
201906141100 METAR LRTZ 141100Z 06010KT 9999 SCT150 28/19 Q1015 BLU BLU=
201906141200 METAR LRTZ 141200Z 06012KT 9999 FEW030 BKN090 29/19 Q1015
                        BLU WHT=
201906141300 METAR LRTZ 141300Z 07012KT 9999 FEW030 BKN090 28/20 Q1015
                        BLU BLU=
201906141400 METAR LRTZ 141400Z 08010KT 9999 FEW030 SCT150 28/20 Q1014
                        BLU BLU=
201906141600 METAR LRTZ 141600Z 06012KT 9999 SCT090 BKN150 25/20 Q1014
                        BLU BLU=
201906141700 METAR LRTZ 141700Z 06012KT 9999 SCT090 BKN150 25/20 Q1014
                        BLU BLU=
201906141800 METAR LRTZ 141800Z 06008KT 9999 BKN100 24/21 Q1015 BLU BLU=
201906141900 METAR LRTZ 141900Z 04006KT 9999 BKN100 24/21 Q1015 BLU BLU=
201906142000 METAR LRTZ 142000Z 04006KT 8000 -RA SCT040 BKN100 24/22 Q1015
                        BLU BLU=
201906142300 METAR LRTZ 142300Z 02006KT 9999 BKN100 23/20 Q1014 BLU BLU=
201906150300 METAR LRTZ 150300Z 03010KT 9999 SCT150 23/20 Q1014 BLU BLU=
201906150400 METAR LRTZ 150400Z 06012KT 9999 SCT200 24/21 Q1014 BLU BLU=
201906150500 METAR LRTZ 150500Z 08012KT 9999 SCT200 24/20 Q1014 BLU BLU=
201906150600 METAR LRTZ 150600Z 06014KT 9999 SCT200 26/19 Q1014 BLU BLU=
201906150700 METAR LRTZ 150700Z 06014KT 9999 SCT200 27/19 Q1015 BLU BLU=
201906150800 METAR LRTZ 150800Z 06014KT 9999 BKN200 27/18 Q1015 BLU BLU=
201906151000 METAR LRTZ 151000Z 06016KT 9999 FEW030 SCT200 29/17 Q1015
                        BLU BLU=
201906151100 METAR LRTZ 151100Z 09016KT 9999 SCT200 29/16 Q1014 BLU BLU=
201906151200 METAR LRTZ 151200Z 09016KT 9999 SCT200 29/12 Q1014 BLU BLU=
201906151300 METAR LRTZ 151300Z 09016KT 9999 SCT200 29/12 Q1014 BLU BLU=
201906151400 METAR LRTZ 151400Z 10010KT 9999 SCT200 29/13 Q1013 BLU BLU=
201906151500 METAR LRTZ 151500Z 13006KT 9999 BKN200 27/15 Q1013 BLU BLU=
201906151600 METAR LRTZ 151600Z 07006KT 9999 BKN200 27/14 Q1013 BLU BLU=
201906151700 METAR LRTZ 151700Z 07004KT 9999 BKN200 26/14 Q1013 BLU BLU=
201906151800 METAR LRTZ 151800Z 07004KT 9999 BKN065 24/16 Q1013 BLU BLU=
201906151900 METAR LRTZ 151900Z VRB03KT 9999 FEW065 BKN200 23/16 Q1013
                        BLU BLU=
201906152100 METAR LRTZ 152100Z VRB03KT 9999 SCT200 22/16 Q1013 BLU BLU=
201906152300 METAR LRTZ 152300Z VRB03KT 9999 SCT200 22/16 Q1013 BLU BLU=
201906160300 METAR LRTZ 160300Z 33006KT 9999 FEW200 19/16 Q1011 BLU BLU=
201906160400 METAR LRTZ 160400Z 33006KT 9999 FEW200 19/17 Q1012 BLU BLU=
201906160500 METAR LRTZ 160500Z 36006KT 9999 FEW200 23/18 Q1012 BLU BLU=
201906160600 METAR LRTZ 160600Z 01010KT 9999 FEW200 25/18 Q1012 BLU BLU=
201906160700 METAR LRTZ 160700Z 01010KT 9999 SKC 27/18 Q1012 BLU BLU=
201906160800 METAR LRTZ 160800Z 06010KT 9999 SKC 29/18 Q1012 BLU BLU=
201906160900 METAR LRTZ 160900Z 07012KT 9999 FEW030 30/18 Q1012 BLU BLU=
201906161000 METAR LRTZ 161000Z 07012KT 9999 FEW030 SCT200 29/20 Q1012
                        BLU BLU=
201906161100 METAR LRTZ 161100Z 11012KT 9999 FEW030 SCT200 29/16 Q1012
                        BLU BLU=
201906161200 METAR LRTZ 161200Z 11012KT 9999 FEW030 SCT150 31/12 Q1012
                        BLU BLU=
201906161300 METAR LRTZ 161300Z 11010KT 9999 FEW030 SCT150 29/14 Q1012
                        BLU BLU=
201906161400 METAR LRTZ 161400Z 09008KT 9999 FEW030 SCT150 29/16 Q1011
                        BLU BLU=
201906161500 METAR LRTZ 161500Z 08006KT 9999 FEW030 SCT150 29/15 Q1011
                        BLU BLU=
201906161600 METAR LRTZ 161600Z 08006KT 9999 FEW030 SCT150 28/15 Q1011
                        BLU BLU=
201906161700 METAR LRTZ 161700Z 09006KT 9999 FEW040 SCT200 26/16 Q1011
                        BLU BLU=
201906161800 METAR LRTZ 161800Z 03004KT 9999 FEW040 SCT200 25/17 Q1011
                        BLU BLU=
201906161900 METAR LRTZ 161900Z 01004KT 9999 SCT200 22/17 Q1011 BLU BLU=
201906162000 METAR LRTZ 162000Z 30004KT 9999 SCT150 23/20 Q1013 BLU BLU=
201906162100 METAR LRTZ 162100Z 01004KT 9999 FEW200 21/15 Q1011 BLU BLU=
201906162200 METAR LRTZ 162200Z 36004KT 9999 SKC 21/15 Q1011 BLU BLU=
201906162300 METAR LRTZ 162300Z 36004KT 9999 SKC 21/15 Q1012 BLU BLU=
201906170200 METAR LRTZ 170200Z 03006KT 9999 FEW200 19/15 Q1012 BLU BLU=
201906170300 METAR LRTZ 170300Z 01004KT 9999 FEW080 SCT200 19/13 Q1012
                        BLU BLU=
201906170400 METAR LRTZ 170400Z 01004KT 9999 FEW200 21/14 Q1012 BLU BLU=
201906170500 METAR LRTZ 170500Z 03008KT 9999 FEW200 26/16 Q1012 BLU BLU=
201906170600 METAR LRTZ 170600Z 03008KT 9999 FEW100 27/19 Q1012 BLU BLU=
201906170700 METAR LRTZ 170700Z 05010KT 9999 FEW100 27/20 Q1012 BLU BLU=
201906170800 METAR LRTZ 170800Z 03010KT 9999 SKC 28/21 Q1012 BLU BLU=
201906170900 METAR LRTZ 170900Z 06012KT 9999 FEW040 FEW200 28/21 Q1013
                        BLU BLU=
201906171000 METAR LRTZ 171000Z 09014KT 9999 FEW040 SCT200 29/19 Q1013
                        BLU BLU=
201906171100 METAR LRTZ 171100Z 09014KT 9999 FEW040 SCT200 29/19 Q1013
                        BLU BLU=
201906171300 METAR LRTZ 171300Z 10012KT 9999 FEW040 BKN200 29/17 Q1012
                        BLU BLU=
201906171400 METAR LRTZ 171400Z 09014KT 9999 FEW040 BKN200 28/16 Q1012
                        BLU BLU=
201906171500 METAR LRTZ 171500Z 08012KT 9999 SCT200 27/18 Q1012 BLU BLU=
201906171600 METAR LRTZ 171600Z 09010KT 9999 FEW200 26/19 Q1013 BLU BLU=
201906171700 METAR LRTZ 171700Z 09008KT 9999 FEW200 25/18 Q1013 BLU BLU=
201906171900 METAR LRTZ 171900Z 03003KT 9999 FEW200 24/19 Q1013 BLU BLU=
201906172000 METAR LRTZ 172000Z 01004KT 9999 SKC 23/19 Q1013 BLU BLU=
201906172100 METAR LRTZ 172100Z 36004KT 9999 SKC 23/19 Q1014 BLU BLU=
201906172300 METAR LRTZ 172300Z 35004KT 9999 SKC 22/18 Q1014 BLU BLU=
201906180300 METAR LRTZ 180300Z 36004KT 9999 SKC 19/15 Q1013 BLU BLU=
201906180400 METAR LRTZ 180400Z 36004KT 9999 SKC 20/16 Q1013 BLU BLU=
201906180500 METAR LRTZ 180500Z 36004KT 9999 SKC 20/16 Q1013 BLU BLU=
201906180600 METAR LRTZ 180600Z 04010KT 9999 SKC 26/19 Q1014 BLU BLU=
201906180700 METAR LRTZ 180700Z 06014KT 9999 SKC 26/19 Q1014 BLU BLU=
201906180800 METAR LRTZ 180800Z 06014KT 9999 SKC 27/19 Q1015 BLU BLU=
201906180900 METAR LRTZ 180900Z 06014KT 9999 FEW030 28/20 Q1015 BLU BLU=
201906181000 METAR LRTZ 181000Z 06014KT 9999 FEW030 28/21 Q1015 BLU BLU=
201906181100 METAR LRTZ 181100Z 06014KT 9999 FEW030 28/21 Q1015 BLU BLU=
201906181200 METAR LRTZ 181200Z 09014KT 9999 FEW030 29/17 Q1015 BLU BLU=
201906181300 METAR LRTZ 181300Z 09010KT 9999 FEW030 29/17 Q1014 BLU BLU=
201906181400 METAR LRTZ 181400Z 06008KT 9999 FEW200 29/17 Q1013 BLU BLU=
201906181500 METAR LRTZ 181500Z 07008KT 9999 FEW200 28/15 Q1013 BLU BLU=
201906181600 METAR LRTZ 181600Z 07008KT 9999 FEW200 27/16 Q1013 BLU BLU=
201906181700 METAR LRTZ 181700Z 12004KT 9999 SKC 25/19 Q1013 BLU BLU=
201906181800 METAR LRTZ 181800Z VRB03KT 9999 FEW050 23/18 Q1013 BLU BLU=
201906181900 METAR LRTZ 181900Z VRB03KT 9999 SKC 23/19 Q1014 BLU BLU=
201906182000 METAR LRTZ 182000Z VRB03KT 9999 SKC 23/19 Q1014 BLU BLU=
201906182100 METAR LRTZ 182100Z VRB03KT 9999 SKC 23/19 Q1014 BLU BLU=
201906182300 METAR LRTZ 182300Z VRB03KT 9999 SKC 22/19 Q1015 BLU BLU=
201906190300 METAR LRTZ 190300Z 36006KT 9999 FEW050 19/15 Q1013 BLU BLU=
201906190400 METAR LRTZ 190400Z 36004KT 9999 BKN080 19/15 Q1013 BLU BLU=
201906190500 METAR LRTZ 190500Z 36006KT 9999 BKN080 23/17 Q1013 BLU BLU=
201906190600 METAR LRTZ 190600Z 03010KT 9999 SCT080 26/19 Q1014 BLU BLU=
201906190700 METAR LRTZ 190700Z 06012KT 9999 BKN090 26/20 Q1014 BLU BLU=
201906190800 METAR LRTZ 190800Z 06012KT 9999 BKN090 27/21 Q1014 BLU BLU=
201906190900 METAR LRTZ 190900Z 06012KT 9999 BKN090 29/19 Q1014 BLU BLU=
201906191000 METAR LRTZ 191000Z 06012KT 9999 FEW030 BKN090 30/16 Q1013
                        BLU BLU=
201906191100 METAR LRTZ 191100Z 06012KT 9999 FEW030 BKN090 30/14 Q1013
                        BLU BLU=
201906191200 METAR LRTZ 191200Z 06012KT 9999 FEW030 SCT090 31/14 Q1012
                        BLU BLU=
201906191300 METAR LRTZ 191300Z 06012KT 9999 FEW030 SCT090 31/14 Q1012
                        BLU BLU=
201906191400 METAR LRTZ 191400Z 09016KT 9999 FEW030 31/15 Q1011 BLU BLU=
201906191500 METAR LRTZ 191500Z 09012KT 9999 FEW030 SCT100 30/14 Q1012
                        BLU BLU=
201906191600 METAR LRTZ 191600Z 09010KT 9999 SCT100 28/21 Q1011 BLU BLU=
201906191700 METAR LRTZ 191700Z 09010KT 9999 SCT100 27/21 Q1011 BLU BLU=
201906191800 METAR LRTZ 191800Z 09004KT 9999 SCT100 24/21 Q1011 BLU BLU=
201906191900 METAR LRTZ 191900Z 03004KT 9999 SCT100 23/20 Q1012 BLU BLU=
201906192000 METAR LRTZ 192000Z 33004KT 9999 SCT100 21/19 Q1012 BLU BLU=
201906192100 METAR LRTZ 192100Z 33004KT 9999 SCT100 21/19 Q1012 BLU BLU=
201906192300 METAR LRTZ 192300Z 33004KT 9999 SCT100 21/19 Q1012 BLU BLU=
201906200100 METAR LRTZ 200100Z 33004KT 9999 SCT020 BKN100 21/19 Q1012
                        BLU BLU=
201906200200 METAR LRTZ 200200Z 33004KT 9999 SCT020 BKN100 20/19 Q1012
                        BLU BLU=
201906200300 METAR LRTZ 200300Z 33004KT 9999 SCT020 BKN200 20/17 Q1011
                        BLU BLU=
201906200400 METAR LRTZ 200400Z 33004KT 9999 SCT020 BKN100 BKN200 21/17
                        Q1011 BLU BLU=
201906200500 METAR LRTZ 200500Z 33004KT 9999 SCT020 BKN100 BKN200 23/18
                        Q1011 BLU BLU=
201906200600 METAR LRTZ 200600Z 36010KT 9999 SCT025 BKN080 BKN200 26/18
                        Q1011 BLU BLU=
201906200700 METAR LRTZ 200700Z 01008KT 9999 SCT030 BKN100 BKN200 28/18
                        Q1011 BLU BLU=
201906200800 METAR LRTZ 200800Z 06012KT 9999 FEW030 BKN100 BKN200 30/20
                        Q1011 BLU BLU=
201906200900 METAR LRTZ 200900Z 07012KT 9999 SCT030 BKN160 29/21 Q1011
                        BLU BLU=
201906201000 METAR LRTZ 201000Z 07012KT 9999 FEW035CB SCT100 BKN200 29/21
                        Q1010 BLU BLU=
201906201100 METAR LRTZ 201100Z 09012KT 9999 FEW035CB SCT100 BKN200 29/17
                        Q1010 BLU BLU=
201906201200 METAR LRTZ 201200Z 07014KT 9999 SCT035 BNK100 BKN200 28/19
                        Q1010 BLU BLU=
201906201300 METAR LRTZ 201300Z 07014KT 9999 SCT035 BNK100 BKN200 27/19
                        Q1011 BLU BLU=
201906201400 METAR LRTZ 201400Z 07008KT 9999 FEW035 BNK100 BKN200 28/14
                        Q1010 BLU BLU=
201906201500 METAR LRTZ 201500Z 03008KT 9999 FEW040 BNK100 BKN200 27/16
                        Q1011 BLU BLU=
201906201600 METAR LRTZ 201600Z 33008KT 9999 BNK100 BKN200 26/15 Q1011
                        BLU BLU=
201906201700 METAR LRTZ 201700Z 33008KT 9999 BNK100 BKN200 25/16 Q1011
                        BLU BLU=
201906201800 METAR LRTZ 201800Z 33010KT 9999 BNK100 BKN200 23/17 Q1011
                        BLU BLU=
201906201900 METAR LRTZ 201900Z 33010KT 9999 BNK100 BKN200 22/17 Q1012
                        BLU BLU=
201906202000 METAR LRTZ 202000Z 33008KT 9999 BNK100 BKN200 21/17 Q1012
                        BLU BLU=
201906202100 METAR LRTZ 202100Z 33008KT 9999 BNK100 BKN200 21/17 Q1012
                        BLU BLU=
201906202300 METAR LRTZ 202300Z 33006KT 9999 SCT100 BKN200 20/16 Q1012
                        BLU BLU=
201906210300 METAR LRTZ 210300Z 33008KT 9999 FEW050 BKN100 BKN200 19/17
                        Q1012 BLU BLU=
201906210400 METAR LRTZ 210400Z 33010KT 9999 FEW050 BKN100 BKN200 20/17
                        Q1012 BLU BLU=
201906210500 METAR LRTZ 210500Z 33010KT 9999 BKN100 BKN200 22/18 Q1012
                        BLU BLU=
201906210600 METAR LRTZ 210600Z 33010KT 9999 FEW040 OVC100 23/18 Q1013
                        BLU BLU=
201906210700 METAR LRTZ 210700Z 33010KT 9999 FEW050 OVC100 24/18 Q1013
                        BLU BLU=
201906210800 METAR LRTZ 210800Z 33010KT 9999 BKN090 BKN200 27/18 Q1013
                        BLU BLU=
201906210900 METAR LRTZ 210900Z 33010KT 9999 SCT090 BKN200 30/18 Q1013
                        BLU BLU=
201906211000 METAR LRTZ 211000Z 03008KT 9999 SCT200 31/16 Q1013 BLU BLU=
201906211100 METAR LRTZ 211100Z 06008KT 9999 FEW040 SCT200 33/16 Q1012
                        BLU BLU=
201906211200 METAR LRTZ 211200Z 06008KT 9999 FEW035TCU SCT200 33/15 Q1012
                        BLU BLU=
201906211300 METAR LRTZ 211300Z 06008KT 9999 VCTS FEW035CB SCT200 32/19
                        Q1012 BLU BLU=
201906211400 METAR LRTZ 211400Z 09010KT 9999 FEW035 SCT200 32/18 Q1012
                        BLU BLU=
201906211500 METAR LRTZ 211500Z 09008KT 9999 FEW035 SCT200 30/17 Q1012
                        BLU BLU=
201906211600 METAR LRTZ 211600Z 03006KT 9999 SCT200 29/19 Q1012 BLU BLU=
201906211700 METAR LRTZ 211700Z 03006KT 9999 SCT200 29/19 Q1012 BLU BLU=
201906211800 METAR LRTZ 211800Z 03004KT 9999 SCT100 BKN200 27/16 Q1012
                        BLU BLU=
201906211900 METAR LRTZ 211900Z VRB03KT 9999 BKN200 23/16 Q1013 BLU BLU=
201906212000 METAR LRTZ 212000Z VRB03KT 9999 BKN200 23/16 Q1013 BLU BLU=
201906212100 METAR LRTZ 212100Z VRB03KT 9999 BKN200 23/16 Q1013 BLU BLU=
201906212300 METAR LRTZ 212300Z VRB03KT 9999 BKN200 22/16 Q1013 BLU BLU=
201906220300 METAR LRTZ 220300Z 36004KT 9999 FEW200 20/17 Q1013 BLU BLU=
201906220400 METAR LRTZ 220400Z 36006KT 9999 SCT200 21/18 Q1013 BLU BLU=
201906220500 METAR LRTZ 220500Z 36008KT 9999 SCT200 25/18 Q1013 BLU BLU=
201906220600 METAR LRTZ 220600Z 34010KT 9999 SCT200 28/18 Q1014 BLU BLU=
201906220700 METAR LRTZ 220700Z 36010KT 9999 SCT200 32/15 Q1013 BLU BLU=
201906220800 METAR LRTZ 220800Z 02010KT 9999 SCT200 32/15 Q1013 BLU BLU=
201906220900 METAR LRTZ 220900Z 04010KT 9999 SCT200 32/18 Q1013 BLU BLU=
201906221000 METAR LRTZ 221000Z 06010KT 9999 SCT040 BKN200 32/18 Q1014
                        BLU BLU=
201906221100 METAR LRTZ 221100Z 06014KT 9999 VCTS SCT050CB BKN080 30/20
                        Q1014 BLU BLU=
201906221200 METAR LRTZ 221200Z 06014KT 9999 VCTS SCT030 SCT050CB BKN080
                        29/18 Q1014 BLU BLU=
201906221300 METAR LRTZ 221300Z 06008KT 9999 SCT030 BKN080 29/16 Q1014
                        BLU BLU=
201906221500 METAR LRTZ 221500Z 09005KT 9999 SCT030 BKN080 29/17 Q1014
                        BLU BLU=
201906221600 METAR LRTZ 221600Z 09006KT 9999 SCT080 BKN200 29/21 Q1013
                        BLU BLU=
201906221700 METAR LRTZ 221700Z 09006KT 9999 SCT080 BKN200 27/23 Q1014
                        BLU BLU=
201906221800 METAR LRTZ 221800Z 12004KT 9999 SCT200 24/21 Q1014 BLU BLU=
201906221900 METAR LRTZ 221900Z VRB03KT 9999 SCT200 23/21 Q1015 BLU BLU=
201906222000 METAR LRTZ 222000Z VRB03KT 9999 SCT200 23/20 Q1014 BLU BLU=
201906222100 METAR LRTZ 222100Z VRB03KT 9999 SCT200 23/19 Q1014 BLU BLU=
201906222200 METAR LRTZ 222200Z VRB03KT 9999 SKC 23/18 Q1014 BLU BLU=
201906230300 METAR LRTZ 230300Z 33004KT 9999 SCT200 20/18 Q1014 BLU BLU=
201906230500 METAR LRTZ 230500Z 33004KT 9999 SCT200 22/19 Q1015 BLU BLU=
201906230600 METAR LRTZ 230600Z 30004KT 9999 BKN200 27/22 Q1015 BLU BLU=
201906230700 METAR LRTZ 230700Z VRB03KT 9999 SCT200 28/20 Q1014 BLU BLU=
201906230900 METAR LRTZ 230900Z 13010KT 9999 SCT200 28/22 Q1014 BLU BLU=
201906231000 METAR LRTZ 231000Z 14010KT 9999 FEW040 28/22 Q1014 BLU BLU=
201906231100 METAR LRTZ 231100Z 14012KT 9999 FEW040TCU 29/21 Q1014 BLU
                        BLU=
201906231200 METAR LRTZ 231200Z 18010KT 9999 FEW035CB SCT100 28/17 Q1014
                        BLU BLU=
201906231300 METAR LRTZ 231300Z 20008KT 9999 SCT035CB BKN200 27/20 Q1014
                        BLU BLU=
201906231400 METAR LRTZ 231400Z 21010KT 9999 SCT035CB BKN160 28/21 Q1014
                        BLU BLU=
201906231500 METAR LRTZ 231500Z 14006KT 9999 FEW035CB BKN200 28/19 Q1013
                        BLU BLU=
201906231600 METAR LRTZ 231600Z 16006KT 9999 BKN200 28/20 Q1013 BLU BLU=
201906231800 METAR LRTZ 231800Z 19004KT 9999 FEW200 25/22 Q1013 BLU BLU=
201906231900 METAR LRTZ 231900Z 16004KT 9999 FEW200 24/21 Q1013 BLU BLU=
201906232000 METAR LRTZ 232000Z 15004KT 9999 SKC 24/21 Q1013 BLU BLU=
201906232300 METAR LRTZ 232300Z 24004KT 9999 FEW200 23/20 Q1013 BLU BLU=
201906240300 METAR LRTZ 240300Z 36003KT 9999 SCT200 21/20 Q1013 BLU BLU=
201906240400 METAR LRTZ 240400Z 03004KT 0100 FG VV001 21/21 Q1014 RED
                        RED=
201906240500 METAR LRTZ 240500Z 33003KT 0800 FG BKN200 23/22 Q1014 AMB
                        YLO=
201906240600 METAR LRTZ 240600Z 02004KT 8000 BKN200 26/20 Q1014 BLU BLU=
201906240700 METAR LRTZ 240700Z 03006KT 9999 FEW035 BKN200 30/16 Q1014
                        BLU BLU=
201906240800 METAR LRTZ 240800Z 06006KT 9999 FEW035 BKN200 30/16 Q1015
                        BLU BLU=
201906240900 METAR LRTZ 240900Z 07010KT 9999 FEW030 BKN200 29/21 Q1015
                        BLU BLU=
201906241000 METAR LRTZ 241000Z 07010KT 9999 FEW030 BKN200 30/20 Q1015
                        BLU BLU=
201906241100 METAR LRTZ 241100Z 08008KT 9999 SCT025 FEW030CB BKN200 29/19
                        Q1015 BLU BLU=
201906241200 METAR LRTZ 241200Z 08008KT 9999 SCT025 FEW030CB BKN200 29/19
                        Q1015 BLU BLU=
201906241300 METAR LRTZ 241300Z 09010KT 9999 FEW030 BKN200 29/19 Q1015
                        BLU BLU=
201906241400 METAR LRTZ 241400Z 08012KT 9999 FEW030 BKN200 29/21 Q1015
                        BLU BLU=
201906241500 METAR LRTZ 241500Z 11008KT 9999 FEW030 BKN200 28/21 Q1015
                        BLU BLU=
201906241600 METAR LRTZ 241600Z 09006KT 9999 FEW030 SCT100 BKN200 28/20
                        Q1016 BLU BLU=
201906241700 METAR LRTZ 241700Z 05004KT 9999 SCT100 BKN200 27/19 Q1016
                        BLU BLU=
201906241800 METAR LRTZ 241800Z 02004KT 9999 SCT100 BKN200 25/19 Q1016
                        BLU BLU=
201906241900 METAR LRTZ 241900Z 02004KT 9999 SCT100 BKN200 22/18 Q1017
                        BLU BLU=
201906242000 METAR LRTZ 242000Z 02004KT 9999 SCT100 BKN200 22/17 Q1017
                        BLU BLU=
201906242300 METAR LRTZ 242300Z 01010KT 9999 FEW100 SCT200 22/17 Q1017
                        BLU BLU=
201906250300 METAR LRTZ 250300Z 35008KT 9999 FEW050 SCT100 20/18 Q1017
                        BLU BLU=
201906250400 METAR LRTZ 250400Z 36010KT 9999 FEW050 SCT100 SCT200 22/19
                        Q1016 BLU BLU=
201906250500 METAR LRTZ 250500Z 01012KT 9999 FEW100 BKN200 24/19 Q1016
                        BLU BLU=
201906250600 METAR LRTZ 250600Z 03010KT 9999 SCT200 26/19 Q1017 BLU BLU=
201906250700 METAR LRTZ 250700Z 03016KT 9999 SCT200 27/20 Q1017 BLU BLU=
201906250800 METAR LRTZ 250800Z 03016KT 9999 SCT025 BKN200 28/20 Q1017
                        BLU BLU=
201906250900 METAR LRTZ 250900Z 03010G20KT 9999 SCT025 BKN070 26/20 Q1018
                        BLU BLU=
201906251000 METAR LRTZ 251000Z 05010G20KT 9999 SCT025 BKN200 28/21 Q1017
                        BLU BLU=
201906251100 METAR LRTZ 251100Z 05010G20KT 9999 SCT025 BKN200 28/21 Q1017
                        BLU BLU=
201906251200 METAR LRTZ 251200Z 05010G20KT 9999 SCT025 BKN200 28/22 Q1018
                        BLU BLU=
201906251300 METAR LRTZ 251300Z 07016KT 9999 SCT020 BKN200 28/22 Q1018
                        BLU BLU=
201906251400 METAR LRTZ 251400Z 07014KT 9999 FEW020 BKN200 29/22 Q1018
                        BLU BLU=
201906251500 METAR LRTZ 251500Z 11014KT 9999 FEW020 BKN200 27/21 Q1018
                        BLU BLU=
201906251600 METAR LRTZ 251600Z 08012KT 9999 FEW020 BKN200 27/21 Q1018
                        BLU BLU=
201906251700 METAR LRTZ 251700Z 08008KT 9999 BKN200 27/20 Q1019 BLU BLU=
201906251800 METAR LRTZ 251800Z 04006KT 9999 BKN200 26/21 Q1019 BLU BLU=
201906251900 METAR LRTZ 251900Z 36004KT 9999 BKN200 24/21 Q1019 BLU BLU=
201906252000 METAR LRTZ 252000Z 36008KT 9999 BKN200 24/19 Q1020 BLU BLU=
201906252100 METAR LRTZ 252100Z 02008KT 9999 BKN200 24/19 Q1020 BLU BLU=
201906252300 METAR LRTZ 252300Z 02010KT 9999 SCT200 23/19 Q1021 BLU BLU=
201906260200 METAR LRTZ 260200Z 03012KT 9999 FEW200 22/17 Q1021 BLU BLU=
201906260300 METAR LRTZ 260300Z 03012KT 9999 SKC 24/20 Q1020 BLU BLU=
201906260400 METAR LRTZ 260400Z 03012KT 9999 SCT010 26/22 Q1020 BLU BLU=
201906260500 METAR LRTZ 260500Z 04012KT 9999 SCT010 25/20 Q1020 BLU BLU=
201906260600 METAR LRTZ 260600Z 04014KT 9999 SCT200 26/20 Q1021 BLU BLU=
201906260700 METAR LRTZ 260700Z 06014KT 9999 SCT200 27/20 Q1021 BLU BLU=
201906260800 METAR LRTZ 260800Z 05014KT 9999 SCT200 27/20 Q1021 BLU BLU=
201906260900 METAR LRTZ 260900Z 04014KT 9999 SKC 28/20 Q1022 BLU BLU=
201906261000 METAR LRTZ 261000Z 06014KT 9999 FEW035 28/20 Q1022 BLU BLU=
201906261100 METAR LRTZ 261100Z 07014KT 9999 FEW035 29/20 Q1021 BLU BLU=
201906261200 METAR LRTZ 261200Z 07016KT 9999 FEW035 28/21 Q1021 BLU BLU=
201906261300 METAR LRTZ 261300Z 07014KT 9999 FEW035 28/22 Q1021 BLU BLU=
201906261400 METAR LRTZ 261400Z 08014KT 9999 FEW200 28/22 Q1020 BLU BLU=
201906261500 METAR LRTZ 261500Z 07016KT 9999 SKC 28/20 Q1020 BLU BLU=
201906261600 METAR LRTZ 261600Z 09014KT 9999 SKC 27/20 Q1020 BLU BLU=
201906261700 METAR LRTZ 261700Z 09008KT 9999 SKC 26/20 Q1020 BLU BLU=
201906261800 METAR LRTZ 261800Z VRB03KT 9999 SKC 24/20 Q1020 BLU BLU=
201906261900 METAR LRTZ 261900Z VRB03KT 9999 SKC 23/20 Q1020 BLU BLU=
201906262000 METAR LRTZ 262000Z VRB03KT 9999 SKC 24/20 Q1020 BLU BLU=
201906262100 METAR LRTZ 262100Z VRB03KT 9999 SKC 23/20 Q1020 BLU BLU=
201906270300 METAR LRTZ 270300Z 33004KT 8000 SKC 19/17 Q1018 BLU BLU=
201906270500 METAR LRTZ 270500Z 32006KT 9999 SKC 23/18 Q1017 BLU BLU=
201906270600 METAR LRTZ 270600Z 35006KT 9999 SKC 27/17 Q1017 BLU BLU=
201906270700 METAR LRTZ 270700Z 36006KT 9999 SKC 29/15 Q1017 BLU BLU=
201906270800 METAR LRTZ 270800Z 01012KT 9999 SKC 30/13 Q1016 BLU BLU=
201906270900 METAR LRTZ 270900Z 33008KT 9999 FEW035 31/13 Q1016 BLU BLU=
201906271000 METAR LRTZ 271000Z 15008KT 9999 FEW025 30/18 Q1015 BLU BLU=
201906271100 METAR LRTZ 271100Z 15008KT 9999 FEW025 30/19 Q1014 BLU BLU=
201906271200 METAR LRTZ 271200Z 156010KT 9999 SKC 29/18 Q1013 BLU BLU=
201906271300 METAR LRTZ 271300Z 16012KT 9999 SKC 29/18 Q1013 BLU BLU=
201906271400 METAR LRTZ 271400Z 17012KT 9999 SKC 29/18 Q1012 BLU BLU=
201906271500 METAR LRTZ 271500Z 19012KT 9999 SKC 29/19 Q1011 BLU BLU=
201906271600 METAR LRTZ 271600Z 18012KT 9999 FEW040 28/19 Q1010 BLU BLU=
201906271800 METAR LRTZ 271800Z 19010KT 9999 FEW040 27/20 Q1010 BLU BLU=
201906271900 METAR LRTZ 271900Z 21006KT 9999 SKC 24/18 Q1010 BLU BLU=
201906272000 METAR LRTZ 272000Z 27004KT 9999 SKC 23/16 Q1010 BLU BLU=
201906272100 METAR LRTZ 272100Z 27004KT 9999 SKC 23/16 Q1010 BLU BLU=
201906272200 METAR LRTZ 272200Z 28008KT 9999 SKC 22/16 Q1010 BLU BLU=
201906272300 METAR LRTZ 272300Z 30010KT 9999 FEW100 22/16 Q1009 BLU BLU=
201906280300 METAR LRTZ 280300Z 33010KT 9999 FEW100 21/17 Q1009 BLU BLU=
201906280400 METAR LRTZ 280400Z 36008KT 9999 SCT100 22/17 Q1009 BLU BLU=
201906280500 METAR LRTZ 280500Z 03014KT 9999 FEW050 SCT100 24/16 Q1010
                        BLU BLU=
201906280600 METAR LRTZ 280600Z 03018KT 9999 FEW050 BKN100 24/15 Q1010
                        BLU BLU=
201906280700 METAR LRTZ 280700Z 03010G20KT 9999 FEW050 BKN100 26/14 Q1010
                        BLU BLU=
201906280800 METAR LRTZ 280800Z 03010G20KT 9999 FEW050 BKN100 27/15 Q1011
                        BLU BLU=
201906280900 METAR LRTZ 280900Z 03008G18KT 9999 FEW030 SCT100 27/13 Q1011
                        BLU BLU=
201906281000 METAR LRTZ 281000Z 03008G18KT 9999 SCT030 BKN100 27/15 Q1011
                        BLU BLU=
201906281100 METAR LRTZ 281100Z 06018KT 9999 SCT100 28/14 Q1011 BLU BLU=
201906281200 METAR LRTZ 281200Z 07016KT 9999 FEW040 SCT100 27/14 Q1011
                        BLU BLU=
201906281300 METAR LRTZ 281300Z 07016KT 9999 FEW040 SCT100 28/13 Q1010
                        BLU BLU=
201906281400 METAR LRTZ 281400Z 07016KT 9999 FEW040 SCT100 27/14 Q1011
                        BLU BLU=
201906281500 METAR LRTZ 281500Z 07016KT 9999 BKN100 27/15 Q1010 BLU BLU=
201906281600 METAR LRTZ 281600Z 03014KT 9999 SCT040 SCT100 27/10 Q1011
                        BLU BLU=
201906281700 METAR LRTZ 281700Z 03014KT 9999 SCT100 26/08 Q1011 BLU BLU=
201906281800 METAR LRTZ 281800Z 01010KT 9999 SCT100 24/08 Q1012 BLU BLU=
201906281900 METAR LRTZ 281900Z 36010KT 9999 SCT100 23/07 Q1013 BLU BLU=
201906282000 METAR LRTZ 282000Z 07016KT 9999 SCT100 SCT200 22/08 Q1013
                        BLU BLU=
201906282300 METAR LRTZ 282300Z 07016KT 9999 SCT100 BKN200 21/07 Q1014
                        BLU BLU=
201906290300 METAR LRTZ 290300Z 34012KT 9999 SCT200 19/06 Q1015 BLU BLU=
201906290400 METAR LRTZ 290400Z 34012KT 9999 BKN150 18/08 Q1015 BLU BLU=
201906290500 METAR LRTZ 290500Z 34012KT 9999 BKN150 18/08 Q1015 BLU BLU=
201906290600 METAR LRTZ 290600Z 03012KT 9999 FEW150 21/06 Q1016 BLU BLU=
201906290700 METAR LRTZ 290700Z 03012KT 9999 SKC 23/05 Q1016 BLU BLU=
201906290800 METAR LRTZ 290800Z 03014KT 9999 SKC 24/04 Q1016 BLU BLU=
201906290900 METAR LRTZ 290900Z 03014KT 9999 FEW050 25/06 Q1016 BLU BLU=
201906291000 METAR LRTZ 291000Z 03014KT 9999 SCT050 25/06 Q1016 BLU BLU=
201906291100 METAR LRTZ 291100Z 06012KT 9999 SCT070 25/07 Q1016 BLU BLU=
201906291200 METAR LRTZ 291200Z 06012KT 9999 SCT070 24/09 Q1016 BLU BLU=
201906291300 METAR LRTZ 291300Z 06008KT 9999 SCT070 25/10 Q1015 BLU BLU=
201906291400 METAR LRTZ 291400Z 12006KT 9999 BKN070 25/09 Q1015 BLU BLU=
201906291500 METAR LRTZ 291500Z 36012KT 9999 BKN090 25/04 Q1016 BLU BLU=
201906291600 METAR LRTZ 291600Z 36012KT 9999 SCT090 25/05 Q1016 BLU BLU=
201906291700 METAR LRTZ 291700Z 36012KT 9999 FEW090 25/06 Q1016 BLU BLU=
201906291800 METAR LRTZ 291800Z VRB03KT 9999 FEW090 20/07 Q1016 BLU BLU=
201906291900 METAR LRTZ 291900Z VRB03KT 9999 BKN100 20/10 Q1016 BLU BLU=
201906292000 METAR LRTZ 292000Z VRB03KT 9999 BKN100 19/10 Q1016 BLU BLU=
201906292100 METAR LRTZ 292100Z VRB03KT 9999 BKN100 19/10 Q1016 BLU BLU=
201906292300 METAR LRTZ 292300Z 36006KT 9999 SCT100 18/10 Q1016 BLU BLU=
201906300100 METAR LRTZ 300100Z 36008KT 9999 FEW100 17/10 Q1017 BLU BLU=
201906300200 METAR LRTZ 300200Z 36008KT 9999 FEW100 16/12 Q1017 BLU BLU=
201906300300 METAR LRTZ 300300Z 34006KT 9999 SKC 15/10 Q1017 BLU BLU=
201906300400 METAR LRTZ 300400Z 34008KT 9999 FEW100 17/12 Q1017 BLU BLU=
201906300500 METAR LRTZ 300500Z 34010KT 9999 FEW200 19/12 Q1017 BLU BLU=
201906300600 METAR LRTZ 300600Z 33012KT 9999 FEW200 23/11 Q1018 BLU BLU=
201906300700 METAR LRTZ 300700Z 35014KT 9999 FEW020 SCT200 24/11 Q1018
                        BLU BLU=
201906300800 METAR LRTZ 300800Z 35014KT 9999 SCT035 25/09 Q1018 BLU BLU=
201906300900 METAR LRTZ 300900Z 36016KT 9999 SCT035 26/11 Q1018 BLU BLU=
201906301000 METAR LRTZ 301000Z 06012KT 9999 SCT035 25/11 Q1019 BLU BLU=
201906301100 METAR LRTZ 301100Z 07012KT 9999 SCT035 25/11 Q1019 BLU BLU=
201906301200 METAR LRTZ 301200Z 08012KT 9999 SCT035 25/10 Q1019 BLU BLU=
201906301300 METAR LRTZ 301300Z 08012KT 9999 SCT035 25/10 Q1019 BLU BLU=
201906301400 METAR LRTZ 301400Z 12008KT 9999 FEW040 25/11 Q1019 BLU BLU=
201906301500 METAR LRTZ 301500Z 12008KT 9999 FEW040 25/11 Q1019 BLU BLU=
201906301600 METAR LRTZ 301600Z 18008KT 9999 FEW060 24/12 Q1018 BLU BLU=
201906301700 METAR LRTZ 301700Z 20008KT 9999 SKC 23/12 Q1018 BLU BLU=
201906301800 METAR LRTZ 301800Z 19006KT 9999 SKC 21/13 Q1018 BLU BLU=
201906301900 METAR LRTZ 301900Z 21006KT 9999 SKC 19/12 Q1018 BLU BLU=
201906302000 METAR LRTZ 302000Z 22006KT 9999 SKC 19/12 Q1019 BLU BLU=
201906302300 METAR LRTZ 302300Z 20006KT 9999 SKC 18/12 Q1019 BLU BLU=