201907010300 METAR LRTZ 010300Z VRB03KT 9999 SKC 17/12 Q1018 BLU BLU=
201907010400 METAR LRTZ 010400Z 30004KT 9999 SKC 19/13 Q1018 BLU BLU=
201907010500 METAR LRTZ 010500Z 30004KT 9999 SKC 22/14 Q1018 BLU BLU=
201907010600 METAR LRTZ 010600Z 33008KT 9999 SKC 25/14 Q1018 BLU BLU=
201907010700 METAR LRTZ 010700Z 24004KT 9999 SKC 28/15 Q1018 BLU BLU=
201907010800 METAR LRTZ 010800Z 15008KT 9999 SKC 28/17 Q1018 BLU BLU=
201907010900 METAR LRTZ 010900Z 15010KT 9999 SKC 28/18 Q1018 BLU BLU=
201907011000 METAR LRTZ 011000Z 16010KT 9999 SKC 28/17 Q1018 BLU BLU=
201907011100 METAR LRTZ 011100Z 16010KT 9999 SKC 28/17 Q1018 BLU BLU=
201907011200 METAR LRTZ 011200Z 18012KT 9999 SKC 28/18 Q1017 BLU BLU=
201907011300 METAR LRTZ 011300Z 18012KT 9999 SKC 28/17 Q1017 BLU BLU=
201907011400 METAR LRTZ 011400Z 19014KT 9999 SKC 28/17 Q1017 BLU BLU=
201907011500 METAR LRTZ 011500Z 20014KT 9999 SKC 27/18 Q1016 BLU BLU=
201907011600 METAR LRTZ 011600Z 21012KT 9999 SKC 27/18 Q1016 BLU BLU=
201907011700 METAR LRTZ 011700Z 21010KT 9999 SKC 26/19 Q1016 BLU BLU=
201907011800 METAR LRTZ 011800Z 21008KT 9999 SKC 25/20 Q1016 BLU BLU=
201907011900 METAR LRTZ 011900Z 21008KT 9999 SKC 23/16 Q1016 BLU BLU=
201907012000 METAR LRTZ 012000Z 21008KT 9999 SKC 21/17 Q1017 BLU BLU=
201907012100 METAR LRTZ 012100Z 21006KT 9999 SKC 21/16 Q1017 BLU BLU=
201907012300 METAR LRTZ 012300Z 21006KT 9999 SKC 20/15 Q1016 BLU BLU=
201907020200 METAR LRTZ 020200Z 23004KT 9999 SKC 18/14 Q1014 BLU BLU=
201907020300 METAR LRTZ 020300Z 21004KT 9999 SKC 18/16 Q1015 BLU BLU=
201907020400 METAR LRTZ 020400Z 22004KT 9999 SKC 19/17 Q1015 BLU BLU=
201907020500 METAR LRTZ 020500Z 21008KT 9999 SKC 23/17 Q1015 BLU BLU=
201907020600 METAR LRTZ 020600Z 21010KT 9999 SKC 25/17 Q1014 BLU BLU=
201907020700 METAR LRTZ 020700Z 21008KT 9999 SKC 27/19 Q1014 BLU BLU=
201907020800 METAR LRTZ 020800Z 19008KT 9999 SKC 27/19 Q1014 BLU BLU=
201907020900 METAR LRTZ 020900Z 19012KT 9999 FEW200 28/18 Q1014 BLU BLU=
201907021000 METAR LRTZ 021000Z 19012KT 9999 SKC 28/15 Q1014 BLU BLU=
201907021100 METAR LRTZ 021100Z 19012KT 9999 SKC 29/15 Q1014 BLU BLU=
201907021200 METAR LRTZ 021200Z 19014KT 9999 SKC 28/17 Q1013 BLU BLU=
201907021300 METAR LRTZ 021300Z 19014KT 9999 SKC 28/17 Q1013 BLU BLU=
201907021500 METAR LRTZ 021500Z 18012KT 9999 SKC 28/18 Q1012 BLU BLU=
201907021600 METAR LRTZ 021600Z 19010KT 9999 SKC 27/18 Q1012 BLU BLU=
201907021700 METAR LRTZ 021700Z 19010KT 9999 SKC 25/18 Q1012 BLU BLU=
201907021800 METAR LRTZ 021800Z 21010KT 9999 SKC 24/18 Q1012 BLU BLU=
201907021900 METAR LRTZ 021900Z 21010KT 9999 SKC 23/18 Q1012 BLU BLU=
201907022000 METAR LRTZ 022000Z 21010KT 9999 SKC 23/18 Q1012 BLU BLU=
201907022100 METAR LRTZ 022100Z 21008KT 9999 SKC 22/17 Q1012 BLU BLU=
201907022300 METAR LRTZ 022300Z 23006KT 9999 SKC 21/16 Q1012 BLU BLU=
201907030300 METAR LRTZ 030300Z 24004KT 9999 SKC 18/16 Q1011 BLU BLU=
201907030400 METAR LRTZ 030400Z VRB03KT 9999 SKC 21/15 Q1012 BLU BLU=
201907030500 METAR LRTZ 030500Z VRB03KT 9999 SKC 21/16 Q1012 BLU BLU=
201907030700 METAR LRTZ 030700Z VRB03KT 9999 SKC 28/18 Q1012 BLU BLU=
201907030800 METAR LRTZ 030800Z 12008KT 9999 SKC 27/18 Q1012 BLU BLU=
201907030900 METAR LRTZ 030900Z 15008KT 9999 SKC 28/17 Q1012 BLU BLU=
201907031000 METAR LRTZ 031000Z 18012KT 9999 SKC 30/19 Q1012 BLU BLU=
201907031200 METAR LRTZ 031200Z 19014KT 9999 FEW040 30/18 Q1012 BLU BLU=
201907031300 METAR LRTZ 031300Z 19014KT 9999 SCT040 FEW050CB SCT200 30/16
                        Q1012 BLU BLU=
201907031400 METAR LRTZ 031400Z 20010KT 9999 VCTS FEW040 SCT050CB BKN200
                        28/14 Q1012 BLU BLU=
201907031500 METAR LRTZ 031500Z 20010KT 9999 FEW040 SCT050CB BKN200 28/15
                        Q1012 BLU BLU=
201907031600 METAR LRTZ 031600Z 15014KT 9999 SCT050CB BKN200 26/19 Q1013
                        BLU BLU=
201907031700 METAR LRTZ 031700Z 01018G28KT 9999 -TSRA SCT020 BKN0435CB
                        BKN200 25/17 Q1013 BLU WHT=
201907031800 METAR LRTZ 031800Z 04012G22KT 9999 -TSRA BKN03CB BKN100 21/19
                        Q1016 BLU BLU=
201907031900 METAR LRTZ 031900Z 18014KT 9999 SCT030CB BKN100 21/19 Q1016
                        BLU BLU=
201907032000 METAR LRTZ 032000Z 21006KT 9999 SCT030 SCT100 BKN200 20/18
                        Q1014 BLU BLU=
201907032300 METAR LRTZ 032300Z 33010KT 9999 SCT030 BKN100 19/17 Q1015
                        BLU BLU=
201907040300 METAR LRTZ 040300Z 04010KT 9999 FEW050 BKN100 20/18 Q1015
                        BLU BLU=
201907040400 METAR LRTZ 040400Z 05010KT 9999 FEW050 BKN100 22/18 Q1016
                        BLU BLU=
201907040500 METAR LRTZ 040500Z 06010KT 9999 FEW050 BKN100 22/18 Q1016
                        BLU BLU=
201907040600 METAR LRTZ 040600Z 06008KT 9999 FEW050 BKN100 24/19 Q1017
                        BLU BLU=
201907040700 METAR LRTZ 040700Z 03010KT 9999 FEW020 SCT200 25/19 Q1017
                        BLU BLU=
201907040800 METAR LRTZ 040800Z 03010KT 9999 FEW020 SCT200 25/18 Q1018
                        BLU BLU=
201907040900 METAR LRTZ 040900Z 03010KT 9999 FEW020 SCT200 26/18 Q1018
                        BLU BLU=
201907041100 METAR LRTZ 041100Z 06010KT 9999 FEW020 SCT200 26/19 Q1018
                        BLU BLU=
201907041200 METAR LRTZ 041200Z 09010KT 9999 FEW020 SCT200 27/17 Q1018
                        BLU BLU=
201907041300 METAR LRTZ 041300Z 09014KT 9999 FEW020 SCT200 27/16 Q1018
                        BLU BLU=
201907041400 METAR LRTZ 041400Z 09014KT 9999 FEW020 BKN100 27/16 Q1017
                        BLU BLU=
201907041600 METAR LRTZ 041600Z 10012KT 9999 SKC 26/16 Q1017 BLU BLU=
201907041700 METAR LRTZ 041700Z 12010KT 9999 SKC 25/16 Q1017 BLU BLU=
201907041800 METAR LRTZ 041800Z 12010KT 9999 SKC 23/15 Q1017 BLU BLU=
201907041900 METAR LRTZ 041900Z 12010KT 9999 SKC 22/16 Q1017 BLU BLU=
201907042100 METAR LRTZ 042100Z 12008KT 9999 SKC 21/16 Q1017 BLU BLU=
201907042200 METAR LRTZ 042200Z 12006KT 9999 SKC 21/16 Q1017 BLU BLU=
201907050300 METAR LRTZ 050300Z VRB03KT 8000 FEW100 18/17 Q1017 BLU BLU=
201907050400 METAR LRTZ 050400Z VRB03KT 8000 SCT100 20/18 Q1017 BLU BLU=
201907050500 METAR LRTZ 050500Z VRB03KT 9999 BKN200 24/19 Q1017 BLU BLU=
201907050600 METAR LRTZ 050600Z 23004KT 9999 BKN200 25/17 Q1016 BLU BLU=
201907050700 METAR LRTZ 050700Z 19008KT 9999 BKN200 26/14 Q1017 BLU BLU=
201907050800 METAR LRTZ 050800Z 17010KT 9999 FEW040 BKN140 26/15 Q1016
                        BLU BLU=
201907050900 METAR LRTZ 050900Z 17012KT 9999 FEW050 BKN200 26/16 Q1016
                        BLU BLU=
201907051000 METAR LRTZ 051000Z 20012KT 9999 FEW035 BKN200 27/16 Q1016
                        BLU BLU=
201907051100 METAR LRTZ 051100Z 20012KT 9999 FEW040 BKN200 27/16 Q1016
                        BLU BLU=
201907051200 METAR LRTZ 051200Z 16010KT 9999 SCT040 BKN140 25/17 Q1015
                        BLU BLU=
201907051300 METAR LRTZ 051300Z 18010KT 9999 SCT040 FEW050CB BKN140 25/16
                        Q1015 BLU BLU=
201907051400 METAR LRTZ 051400Z 15012KT 9999 FEW040 BKN100 BKN200 26/15
                        Q1014 BLU BLU=
201907051500 METAR LRTZ 051500Z 16010KT 9999 BKN100 BKN200 26/14 Q1013
                        BLU BLU=
201907051600 METAR LRTZ 051600Z 20008KT 9999 SCT100 BKN200 25/15 Q1013
                        BLU BLU=
201907051700 METAR LRTZ 051700Z 19010KT 9999 SCT200 25/15 Q1013 BLU BLU=
201907051800 METAR LRTZ 051800Z 19006KT 9999 FEW200 23/16 Q1012 BLU BLU=
201907051900 METAR LRTZ 051900Z 20004KT 9999 FEW200 21/16 Q1012 BLU BLU=
201907052000 METAR LRTZ 052000Z 24003KT 9999 SKC 20/15 Q1013 BLU BLU=
201907052100 METAR LRTZ 052100Z VRB03KT 9999 SKC 20/15 Q1013 BLU BLU=
201907060000 METAR LRTZ 060000Z VRB03KT 9999 SKC 18/14 Q1013 BLU BLU=
201907060200 METAR LRTZ 060200Z VRB03KT 9999 FEW050 SCT200 17/14 Q1013
                        BLU BLU=
201907060300 METAR LRTZ 060300Z 27004KT 9999 SCT200 17/15 Q1011 BLU BLU=
201907060500 METAR LRTZ 060500Z 27004KT 9999 SCT050 BKN080 21/16 Q1011
                        BLU BLU=
201907060600 METAR LRTZ 060600Z 28006KT 9999 FEW050 SCT090 24/17 Q1011
                        BLU BLU=
201907060700 METAR LRTZ 060700Z 26004KT 9999 BKN050 26/16 Q1011 BLU BLU=
201907060800 METAR LRTZ 060800Z 12008KT 9999 FEW025 SCT075 28/19 Q1011
                        BLU BLU=
201907060900 METAR LRTZ 060900Z 06010KT 9999 SCT035 SCT100 28/17 Q1011
                        BLU BLU=
201907061000 METAR LRTZ 061000Z 08010KT 9999 SCT035 SCT100 27/13 Q1011
                        BLU BLU=
201907061100 METAR LRTZ 061100Z 10010KT 9999 SCT035 28/16 Q1011 BLU BLU=
201907061200 METAR LRTZ 061200Z 14010KT 9999 SCT035 27/17 Q1011 BLU BLU=
201907061300 METAR LRTZ 061300Z 15010KT 9999 SCT050 26/18 Q1011 BLU BLU=
201907061400 METAR LRTZ 061400Z 16008KT 9999 SCT075 27/19 Q1011 BLU BLU=
201907061500 METAR LRTZ 061500Z 13008KT 9999 FEW075 27/18 Q1011 BLU BLU=
201907061600 METAR LRTZ 061600Z 15006KT 9999 FEW100 26/20 Q1011 BLU BLU=
201907061700 METAR LRTZ 061700Z 16006KT 9999 FEW100 25/20 Q1011 BLU BLU=
201907061800 METAR LRTZ 061800Z 18004KT 9999 FEW100 23/20 Q1012 BLU BLU=
201907061900 METAR LRTZ 061900Z VRB02KT 9999 FEW100 22/19 Q1012 BLU BLU=
201907062000 METAR LRTZ 062000Z 19003KT 9999 FEW100 20/18 Q1012 BLU BLU=
201907062100 METAR LRTZ 062100Z 20003KT 9999 FEW100 20/18 Q1012 BLU BLU=
201907062300 METAR LRTZ 062300Z 19003KT 9999 SKC 20/18 Q1012 BLU BLU=
201907070300 METAR LRTZ 070300Z VRB02KT 0500 FG SKC 19/18 Q1011 RED YLO=
201907070400 METAR LRTZ 070400Z VRB02KT 5000 BR SKC 20/20 Q1012 WHT BLU=
201907070500 METAR LRTZ 070500Z 24004KT 8000 SKC 23/20 Q1011 BLU BLU=
201907070600 METAR LRTZ 070600Z 24006KT 9999 SKC 25/20 Q1011 BLU BLU=
201907070700 METAR LRTZ 070700Z 18010KT 9999 SKC 27/21 Q1011 BLU BLU=
201907070800 METAR LRTZ 070800Z 18010KT 9999 FEW040 27/21 Q1011 BLU BLU=
201907070900 METAR LRTZ 070900Z 18014KT 9999 FEW040 27/21 Q1011 BLU BLU=
201907071000 METAR LRTZ 071000Z 18014KT 9999 SCT040 28/19 Q1010 BLU BLU=
201907071100 METAR LRTZ 071100Z 18010G20KT 9999 SCT040 28/20 Q1010 BLU
                        BLU=
201907071200 METAR LRTZ 071200Z 18010G20KT 9999 SCT040 28/19 Q1009 BLU
                        BLU=
201907071300 METAR LRTZ 071300Z 18012G22KT 9999 FEW040 28/19 Q1009 BLU
                        BLU=
201907071400 METAR LRTZ 071400Z 18010G20KT 9999 FEW040 27/19 Q1008 BLU
                        BLU=
201907071500 METAR LRTZ 071500Z 18012G22KT 9999 SKC 27/19 Q1008 BLU BLU=
201907071600 METAR LRTZ 071600Z 18012G22KT 9999 SKC 26/19 Q1007 BLU BLU=
201907071700 METAR LRTZ 071700Z 18010G20KT 9999 FEW200 25/18 Q1007 BLU
                        BLU=
201907071800 METAR LRTZ 071800Z 18014KT 9999 SCT100 24/19 Q1007 BLU BLU=
201907071900 METAR LRTZ 071900Z 18012KT 9999 FEW100 24/18 Q1007 BLU BLU=
201907072000 METAR LRTZ 072000Z 18012KT 9999 FEW090 23/18 Q1007 BLU BLU=
201907072100 METAR LRTZ 072100Z 18012KT 9999 FEW070 22/19 Q1006 BLU BLU=
201907072300 METAR LRTZ 072300Z 21012KT 9999 FEW070 21/18 Q1006 BLU BLU=
201907080100 METAR LRTZ 080100Z 27012KT 9999 BKN070 20/18 Q1005 BLU BLU=
201907080200 METAR LRTZ 080200Z 29012KT 9999 BKN070 20/18 Q1005 BLU BLU=
201907080300 METAR LRTZ 080300Z 31012KT 8000 -TSRA SCT025CB BKN040 OVC070
                        21/18 Q1005 BLU WHT=
201907080400 METAR LRTZ 080400Z 30012KT 9999 BKN070 BKN120 22/18 Q1006
                        BLU BLU=
201907080500 METAR LRTZ 080500Z 30012KT 9999 BKN070 BKN120 22/18 Q1006
                        BLU BLU=
201907080600 METAR LRTZ 080600Z 30016KT 9999 BKN100 23/17 Q1006 BLU BLU=
201907080700 METAR LRTZ 080700Z 30018KT 9999 SCT030 BKN100 26/17 Q1006
                        BLU BLU=
201907080800 METAR LRTZ 080800Z 30020KT 9999 BKN030 25/17 Q1007 BLU BLU=
201907080900 METAR LRTZ 080900Z 30020KT 9999 SCT030 BKN200 27/17 Q1007
                        BLU BLU=
201907081000 METAR LRTZ 081000Z 33018KT 9999 BKN030 BKN200 27/18 Q1008
                        BLU BLU=
201907081100 METAR LRTZ 081100Z 33018KT 9999 SCT030 BKN100 28/16 Q1008
                        BLU BLU=
201907081200 METAR LRTZ 081200Z 34018KT 9999 SCT040 BKN140 29/16 Q1009
                        BLU BLU=
201907081300 METAR LRTZ 081300Z 33018KT 9999 SCT040 BKN100 29/16 Q1009
                        BLU BLU=
201907081400 METAR LRTZ 081400Z 34014KT 9999 SCT045 BKN160 28/14 Q1009
                        BLU BLU=
201907081500 METAR LRTZ 081500Z 01012KT 9999 SCT050 BKN160 28/15 Q1009
                        BLU BLU=
201907081600 METAR LRTZ 081600Z 06008KT 9999 SCT050 BKN100 26/17 Q1010
                        BLU BLU=
201907081800 METAR LRTZ 081800Z VRB03KT 9999 SCT050 BKN100 23/18 Q1011
                        BLU BLU=
201907081900 METAR LRTZ 081900Z VRB03KT 9999 BKN100 23/19 Q1011 BLU BLU=
201907082000 METAR LRTZ 082000Z VRB03KT 9999 BKN100 20/18 Q1012 BLU BLU=
201907082100 METAR LRTZ 082100Z VRB03KT 9999 FEW050 BKN100 21/18 Q1012
                        BLU BLU=
201907082200 METAR LRTZ 082200Z VRB03KT 9999 SCT100 20/18 Q1012 BLU BLU=
201907082300 METAR LRTZ 082300Z VRB03KT 9999 SCT100 19/17 Q1013 BLU BLU=
201907090200 METAR LRTZ 090200Z VRB03KT 9999 FEW050 BKN100 17/15 Q1012
                        BLU BLU=
201907090300 METAR LRTZ 090300Z 01004KT 9999 FEW070 FEW200 19/16 Q1012
                        BLU BLU=
201907090400 METAR LRTZ 090400Z 36004KT 9999 FEW070 SCT200 19/16 Q1013
                        BLU BLU=
201907090500 METAR LRTZ 090500Z 06010KT 9999 FEW070 SCT200 23/17 Q1013
                        BLU BLU=
201907090600 METAR LRTZ 090600Z 02012KT 9999 FEW050 SCT200 24/17 Q1013
                        BLU BLU=
201907090700 METAR LRTZ 090700Z 05014KT 9999 FEW040 BKN200 25/17 Q1013
                        BLU BLU=
201907090800 METAR LRTZ 090800Z 06014KT 9999 FEW035 SCT100 SCT200 26/18
                        Q1013 BLU BLU=
201907090900 METAR LRTZ 090900Z 08012KT 9999 SCT030 FEW050CB BKN100 25/18
                        Q1013 BLU BLU=
201907091000 METAR LRTZ 091000Z 10010KT 9999 SCT020 BKN100 25/19 Q1012
                        BLU BLU=
201907091100 METAR LRTZ 091100Z 11008KT 9999 SCT020 BKN100 26/19 Q101
                        BLU BLU=
201907091200 METAR LRTZ 091200Z 12016KT 9999 -TSRA SCT020 SCT035CB BKN100
                        25/18 Q1011 BLU BLU=
201907091300 METAR LRTZ 091300Z 18008KT 9999 SCT020 FEW040CB BKN100 21/19
                        Q1011 BLU BLU=
201907091400 METAR LRTZ 091400Z 15006KT 9999 FEW020 SCT050 BKN100 23/18
                        Q1011 BLU BLU=
201907091500 METAR LRTZ 091500Z 16006KT 9999 FEW020 SCT050CB BKN100 23/18
                        Q1011 BLU BLU=
201907091600 METAR LRTZ 091600Z 20004KT 7000 -SHRA FEW020 BKN030CB BKN085
                        23/21 Q1010 WHT BLU=
201907091700 METAR LRTZ 091700Z VRB03KT 9999 FEW020 SCT050 BKN100 22/19
                        Q1010 BLU BLU=
201907091800 METAR LRTZ 091800Z VRB03KT 9999 FEW050 BKN100 21/19 Q1010
                        BLU BLU=
201907091900 METAR LRTZ 091900Z 33004KT 9999 FEW050 BKN100 21/19 Q1011
                        BLU BLU=
201907092000 METAR LRTZ 092000Z 34004KT 9999 FEW050 BKN100 21/19 Q1011
                        BLU BLU=
201907092100 METAR LRTZ 092100Z 35006KT 9999 FEW050 BKN100 20/19 Q1011
                        BLU BLU=
201907092200 METAR LRTZ 092200Z 35004KT 9999 FEW050 BKN100 20/18 Q1010
                        BLU BLU=
201907092300 METAR LRTZ 092300Z 36006KT 9999 FEW050 BKN100 19/18 Q1010
                        BLU BLU=
201907100000 METAR LRTZ 100000Z 34006KT 9999 FEW050 BKN100 19/18 Q1010
                        BLU BLU=
201907100100 METAR LRTZ 100100Z 35006KT 9999 FEW050 BKN100 18/16 Q1010
                        BLU BLU=
201907100200 METAR LRTZ 100200Z 33006KT 8000 FEW050 BKN100 18/16 Q1010
                        BLU WHT=
201907100300 METAR LRTZ 100300Z 35004KT 9999 SCT100 BKN200 18/15 Q1010
                        BLU BLU=
201907100400 METAR LRTZ 100400Z 34004KT 9999 BKN100 BKN200 18/15 Q1010
                        BLU BLU=
201907100500 METAR LRTZ 100500Z 34006KT 9999 BKN100 BKN200 19/15 Q1009
                        BLU BLU=
201907100600 METAR LRTZ 100600Z 36006KT 9999 BKN100 OVC200 21/15 Q1009
                        BLU BLU=
201907100700 METAR LRTZ 100700Z 34004KT 9999 SCT070 OVC100 21/15 Q1010
                        BLU BLU=
201907100800 METAR LRTZ 100800Z 04004KT 9999 FEW070 BKN100 24/15 Q1010
                        BLU BLU=
201907100900 METAR LRTZ 100900Z 09006KT 9999 FEW070 BKN200 25/16 Q1010
                        BLU BLU=
201907101000 METAR LRTZ 101000Z 12008KT 9999 SCT040 BKN200 24/15 Q1009
                        BLU BLU=
201907101100 METAR LRTZ 101100Z 12010KT 9999 SCT040 BKN200 25/17 Q1009
                        BLU BLU=
201907101200 METAR LRTZ 101200Z 12010KT 9999 SCT040 BKN100 24/17 Q1009
                        BLU BLU=
201907101300 METAR LRTZ 101300Z 16010KT 9999 SCT040 BKN090 24/16 Q1008
                        BLU BLUU=
201907101500 METAR LRTZ 101500Z 18012KT 9999 SCT030 OVC080 23/17 Q1008
                        BLU BLU=
201907101600 METAR LRTZ 101600Z 18012KT 7000 -SHRA SCT030CB OVC080 23/17
                        Q1007 WHT WHT=
201907101700 METAR LRTZ 101700Z 32014KT 9999 SCT030 OVC080 19/15 Q1007
                        BLU BLU=
201907101800 METAR LRTZ 101800Z 03010KT 9999 SCT050 OVC080 20/16 Q1008
                        BLU BLU=
201907101900 METAR LRTZ 101900Z 12006KT 9999 OVC080 19/17 Q1009 BLU BLU=
201907102000 METAR LRTZ 102000Z 08006KT 8000 -RA BKN050 OVC080 19/17 Q1009
                        BLU BLU=
201907102300 METAR LRTZ 102300Z 34006KT 9999 OVC080 19/17 Q1010 BLU BLU=
201907110100 METAR LRTZ 110100Z 34008KT 9999 BKN070 OVC100 17/15 Q1009
                        BLU BLU=
201907110300 METAR LRTZ 110300Z 36008KT 9999 FEW020 SCT200 16/13 Q1008
                        BLU BLU=
201907110400 METAR LRTZ 110400Z 34008KT 9999 FEW200 15/12 Q1009 BLU BLU=
201907110500 METAR LRTZ 110500Z 34008KT 9999 FEW200 16/12 Q1009 BLU BLU=
201907110600 METAR LRTZ 110600Z 02012KT 9999 BKN200 18/12 Q1010 BLU BLU=
201907110800 METAR LRTZ 110800Z 02014KT 9999 FEW025 SCT200 21/10 Q1010
                        BLU BLU=
201907110900 METAR LRTZ 110900Z 06014KT 9999 SCT035 SCT200 22/11 Q1009
                        BLU BLU=
201907111000 METAR LRTZ 111000Z 06012KT 9999 SCT040 SCT200 24/11 Q1009
                        BLU BLU=
201907111100 METAR LRTZ 111100Z 06012KT 9999 SCT040 SCT200 23/11 Q1009
                        BLU BLU=
201907111200 METAR LRTZ 111200Z 06014KT 9999 SCT050 SCT200 23/11 Q1009
                        BLU BLU=
201907111300 METAR LRTZ 111300Z 07014KT 9999 SCT050 SCT200 24/12 Q1009
                        BLU BLU=
201907111400 METAR LRTZ 111400Z 08008KT 9999 SCT050 BKN100 22/11 Q1009
                        BLU BLU=
201907111500 METAR LRTZ 111500Z 14006KT 9999 SCT065 23/12 Q1009 BLU BLU=
201907111600 METAR LRTZ 111600Z 12006KT 9999 BKN065 22/12 Q1009 BLU BLU=
201907111700 METAR LRTZ 111700Z 12006KT 9999 BKN080 22/12 Q1009 BLU BLU=
201907111800 METAR LRTZ 111800Z VRB03KT 9999 BKN100 20/12 Q1010 BLU BLU=
201907111900 METAR LRTZ 111900Z 00000KT 9999 BKN100 18/14 Q1010 BLU BLU=
201907112100 METAR LRTZ 112100Z 30003KT 9999 SCT100 18/13 Q1010 BLU BLU=
201907112300 METAR LRTZ 112300Z 30006KT 9999 SCT090 17/13 Q1011 BLU BLU=
201907120300 METAR LRTZ 120300Z 01010KT 9999 SCT050 BKN100 15/12 Q1010
                        BLU BLU=
201907120400 METAR LRTZ 120400Z 01006KT 9999 SCT040 BKN100 15/12 Q1010
                        BLU BLU=
201907120600 METAR LRTZ 120600Z 03008KT 9999 BKN100 18/13 Q1011 BLU BLU=
201907120700 METAR LRTZ 120700Z 03008KT 9999 BKN100 19/13 Q1011 BLU BLU=
201907120800 METAR LRTZ 120800Z 36008KT 9999 BKN030 BKN200 21/11 Q1011
                        BLU BLU=
201907120900 METAR LRTZ 120900Z 06008KT 5000 RA BKN030 OVC040 20/12 Q1011
                        WHT BLU=
201907121000 METAR LRTZ 121000Z 12006KT 8000 RA BKN030 20/12 Q1011 BLU
                        BLU=
201907121100 METAR LRTZ 121100Z 15006KT 9999 BKN030 BKN100 20/13 Q1011
                        BLU BLU=
201907121200 METAR LRTZ 121200Z 15006KT 9999 BKN030 BKN100 20/13 Q1011
                        BLU BLU=
201907121300 METAR LRTZ 121300Z VRB03KT 9999 SCT030 21/14 Q1011 BLU BLU=
201907121500 METAR LRTZ 121500Z 18006KT 9999 FEW040 22/12 Q1011 BLU BLU=
201907121600 METAR LRTZ 121600Z 15008KT 9999 FEW040 21/12 Q1011 BLU BLU=
201907121700 METAR LRTZ 121700Z 21003KT 9999 FEW040 20/13 Q1011 BLU BLU=
201907121800 METAR LRTZ 121800Z VRB03KT 9999 FEW050 18/13 Q1011 BLU BLU=
201907121900 METAR LRTZ 121900Z VRB03KT 9999 FEW050 18/13 Q1011 BLU BLU=
201907122000 METAR LRTZ 122000Z VRB03KT 9999 SKC 15/12 Q1012 BLU BLU=
201907122100 METAR LRTZ 122100Z VRB03KT 9999 SKC 15/12 Q1012 BLU BLU=
201907122200 METAR LRTZ 122200Z VRB03KT 9999 SKC 15/12 Q1012 BLU BLU=
201907122300 METAR LRTZ 122300Z VRB03KT 9999 SKC 15/12 Q1012 BLU BLU=
201907130300 METAR LRTZ 130300Z 33006KT 9999 SKC 13/11 Q1011 BLU BLU=
201907130400 METAR LRTZ 130400Z 33006KT 9999 SKC 15/12 Q1011 BLU BLU=
201907130500 METAR LRTZ 130500Z 33006KT 9999 SKC 19/13 Q1011 BLU BLU=
201907130600 METAR LRTZ 130600Z 32006KT 9999 SKC 23/12 Q1012 BLU BLU=
201907130700 METAR LRTZ 130700Z 03006KT 9999 SKC 24/09 Q1012 BLU BLU=
201907130800 METAR LRTZ 130800Z 06006KT 9999 SCT030 25/12 Q1011 BLU BLU=
201907131000 METAR LRTZ 131000Z 16006KT 9999 BKN030 25/10 Q1011 BLU BLU=
201907131100 METAR LRTZ 131100Z 16008KT 9999 BKN030 24/12 Q1011 BLU BLU=
201907131200 METAR LRTZ 131200Z 16008KT 9999 BKN030 23/11 Q1011 BLU BLU=
201907131300 METAR LRTZ 131300Z 16012KT 9999 SCT030 BKN070 24/11 Q1011
                        BLU BLU=
201907131400 METAR LRTZ 131400Z 18010KT 9999 SCT030 BKN070 24/10 Q1010
                        BLU BLU=
201907131500 METAR LRTZ 131500Z 16012KT 9999 SCT040 BKN100 24/10 Q1010
                        BLU BLU=
201907131600 METAR LRTZ 131600Z 16012KT 9999 SCT040 BKN100 24/10 Q1010
                        BLU BLU=
201907131700 METAR LRTZ 131700Z 18008KT 9999 BKN100 22/14 Q1010 BLU BLU=
201907131900 METAR LRTZ 131900Z 24005KT 9999 SCT100 BKN200 20/15 Q1010
                        BLU BLU=
201907132000 METAR LRTZ 132000Z VRB03KT 9999 SCT100 BKN200 18/14 Q1009
                        BLU BLU=
201907132100 METAR LRTZ 132100Z VRB03KT 9999 SCT100 BKN200 18/14 Q1009
                        BLU BLU=
201907140300 METAR LRTZ 140300Z VRB03KT 9999 SCT100 BKN200 17/14 Q1008
                        BLU BLU=
201907140500 METAR LRTZ 140500Z VRB03KT 9999 SCT100 BKN200 21/17 Q1007
                        BLU BLU=
201907140600 METAR LRTZ 140600Z 14008KT 9999 FEW035 BKN200 23/15 Q1007
                        BLU BLU=
201907140700 METAR LRTZ 140700Z 16010KT 9999 SCT035 BKN200 23/16 Q1007
                        BLU BLU=
201907140800 METAR LRTZ 140800Z 15008KT 9999 SCT035 BKN200 24/16 Q1007
                        BLU BLU=
201907140900 METAR LRTZ 140900Z 17010KT 9999 BKN030 BKN200 22/15 Q1007
                        BLU BLU=
201907141000 METAR LRTZ 141000Z 17014KT 9999 SCT030 SCT100 BKN200 23/15
                        Q1007 BLU BLU=
201907141100 METAR LRTZ 141100Z 15012KT 9999 SCT030 SCT100 BKN200 23/15
                        Q1007 BLU BLU=
201907141200 METAR LRTZ 141200Z 14012KT 9999 SCT030 SCT100 BKN200 24/16
                        Q1007 BLU BLU=
201907141300 METAR LRTZ 141300Z 30012KT 9999 BKN030 BKN200 22/14 Q1007
                        BLU BLU=
201907141400 METAR LRTZ 141400Z 31008KT 9999 SCT030 SCT085 BKN200 23/14
                        Q1007 BLU BLU=
201907141600 METAR LRTZ 141600Z 30006KT 9999 SCT030 SCT085 BKN200 21/14
                        Q1007 BLU BLU=
201907141700 METAR LRTZ 141700Z 31006KT 9999 FEW040 SCT100 BKN200 20/15
                        Q1007 BLU BLU=
201907141800 METAR LRTZ 141800Z 32004KT 9999 FEW100 BKN200 19/14 Q1007
                        BLU BLU=
201907141900 METAR LRTZ 141900Z 33004KT 9999 FEW100 BKN200 18/15 Q1007
                        BLU BLU=
201907142000 METAR LRTZ 142000Z 32004KT 9999 FEW100 BKN200 18/15 Q1007
                        BLU BLU=
201907142300 METAR LRTZ 142300Z 31004KT 9999 FEW100 BKN200 17/14 Q1007
                        BLU BLU=
201907150200 METAR LRTZ 150200Z 02004KT 9999 FEW100 BKN200 16/14 Q1007
                        BLU BLU=
201907150300 METAR LRTZ 150300Z 31008KT 9999 FEW100 SCT200 15/13 Q1006
                        BLU BLU=
201907150400 METAR LRTZ 150400Z 29008KT 9999 FEW100 SCT200 16/14 Q1007
                        BLU BLU=
201907150500 METAR LRTZ 150500Z 33010KT 9999 FEW100 SCT200 18/14 Q1007
                        BLU BLU=
201907150600 METAR LRTZ 150600Z 33010KT 9999 FEW040 SCT200 21/15 Q1007
                        BLU BLU=
201907150700 METAR LRTZ 150700Z 33012KT 9999 FEW040 22/15 Q1007 BLU BLU=
201907150800 METAR LRTZ 150800Z 03010KT 9999 SCT040 24/13 Q1007 BLU BLU=
201907150900 METAR LRTZ 150900Z 03012KT 9999 SCT040 25/12 Q1007 BLU BLU=
201907151000 METAR LRTZ 151000Z 03012KT 9999 SCT040 26/12 Q1007 BLU BLU=
201907151100 METAR LRTZ 151100Z 03012KT 9999 SCT040 BKN100 26/12 Q1007
                        BLU BLU=
201907151200 METAR LRTZ 151200Z 36012KT 9999 SCT040 BKN100 22/12 Q1008
                        BLU WHT=
201907151300 METAR LRTZ 151300Z 33006KT 9999 SCT040 BKN100 22/12 Q1008
                        BLU BLU=
201907151400 METAR LRTZ 151400Z 27006KT 9999 BKN090 21/13 Q1008 BLU BLU=
201907151500 METAR LRTZ 151500Z 27008KT 9999 SCT040 BKN090 22/13 Q1008
                        BLU BLU=
201907151600 METAR LRTZ 151600Z 29004KT 9999 SCT090 23/11 Q1008 BLU BLU=
201907151800 METAR LRTZ 151800Z 32006KT 9999 BKN090 20/14 Q1009 BLU BLU=
201907151900 METAR LRTZ 151900Z 32006KT 9999 BKN090 19/14 Q1009 BLU BLU=
201907152000 METAR LRTZ 152000Z 32004KT 9999 BKN090 19/14 Q1009 BLU BLU=
201907152100 METAR LRTZ 152100Z 32004KT 9999 SCT090 19/14 Q1009 BLU BLU=
201907152300 METAR LRTZ 152300Z 33004KT 9999 SCT090 18/15 Q1010 BLU BLU=
201907160300 METAR LRTZ 160300Z 33006KT 9999 SCT100 17/15 Q1010 BLU BLU=
201907160400 METAR LRTZ 160400Z 33006KT 9999 FEW100 16/15 Q1010 BLU BLU=
201907160500 METAR LRTZ 160500Z 33008KT 9999 SKC 18/15 Q1010 BLU BLU=
201907160700 METAR LRTZ 160700Z 03008KT 9999 BKN200 23/14 Q1010 BLU BLU=
201907160800 METAR LRTZ 160800Z 06008KT 9999 FEW040 SCT200 24/14 Q1010
                        BLU BLU=
201907160900 METAR LRTZ 160900Z 08010KT 9999 SCT035 SCT200 24/15 Q1010
                        BLU BLU=
201907161000 METAR LRTZ 161000Z 10012KT 9999 BKN040 25/15 Q1010 BLU BLU=
201907161100 METAR LRTZ 161100Z 10010KT 9999 BKN040 BKN100 24/15 Q1010
                        BLU BLU=
201907161200 METAR LRTZ 161200Z 12008KT 9999 BKN040 BKN100 23/15 Q1010
                        BLU BLU=
201907161300 METAR LRTZ 161300Z 12010KT 9999 BKN040 FEW050CB BKN100 23/15
                        Q1010 BLU BLU=
201907161400 METAR LRTZ 161400Z 15003KT 6000 SHRA SCT030 BKN040CB OVC060
                        20/17 Q1010 WHT BLU=
201907161500 METAR LRTZ 161500Z 24006KT 9999 -SHRA SCT040 SCT050CB BKN090
                        19/17 Q1010 BLU BLU=
201907161600 METAR LRTZ 161600Z 24003KT 9999 SCT035 FEW050CB BKN100 19/17
                        Q1009 BLU BLU=
201907161700 METAR LRTZ 161700Z VRB03KT 9999 BKN100 21/17 Q1009 BLU BLU=
201907161800 METAR LRTZ 161800Z VRB03KT 9999 BKN100 20/16 Q1009 BLU BLU=
201907161900 METAR LRTZ 161900Z VRB03KT 9999 SCT100 18/16 Q1010 BLU BLU=
201907162000 METAR LRTZ 162000Z VRB03KT 9999 SCT100 18/16 Q1010 BLU BLU=
201907170300 METAR LRTZ 170300Z 35003KT 9999 FEW200 15/12 Q1009 BLU BLU=
201907170400 METAR LRTZ 170400Z 36004KT 9999 SKC 17/13 Q1009 BLU BLU=
201907170500 METAR LRTZ 170500Z 36006KT 9999 SKC 20/13 Q1009 BLU BLU=
201907170600 METAR LRTZ 170600Z 01006KT 9999 SKC 22/13 Q1009 BLU BLU=
201907170700 METAR LRTZ 170700Z 06006KT 9999 SKC 25/12 Q1009 BLU BLU=
201907170800 METAR LRTZ 170800Z 09006KT 9999 SKC 26/10 Q1010 BLU BLU=
201907170900 METAR LRTZ 170900Z 12008KT 9999 FEW040 27/11 Q1009 BLU BLU=
201907171000 METAR LRTZ 171000Z 12006KT 9999 SCT040 27/12 Q1009 BLU BLU=
201907171100 METAR LRTZ 171100Z 12008KT 9999 SCT040 SC7070 27/13 Q1009
                        BLU BLU=
201907171200 METAR LRTZ 171200Z 12006KT 9999 SCT040 26/14 Q1008 BLU BLU=
201907171300 METAR LRTZ 171300Z 12006KT 9999 SCT040 26/12 Q1009 BLU BLU=
201907171400 METAR LRTZ 171400Z 12010KT 9999 SCT040 27/11 Q1008 BLU BLU=
201907171500 METAR LRTZ 171500Z 12008KT 9999 SCT040 25/13 Q1008 BLU BLU=
201907171600 METAR LRTZ 171600Z 16008KT 9999 SCT040 26/15 Q1008 BLU BLU=
201907171700 METAR LRTZ 171700Z 21004KT 9999 SCT040 26/14 Q1008 BLU BLU=
201907171800 METAR LRTZ 171800Z VRB03KT 9999 SKC 21/16 Q1008 BLU BLU=
201907171900 METAR LRTZ 171900Z VRB03KT 9999 SKC 20/16 Q1009 BLU BLU=
201907172000 METAR LRTZ 172000Z VRB03KT 9999 SKC 19/16 Q1009 BLU BLU=
201907172100 METAR LRTZ 172100Z VRB03KT 9999 SKC 19/15 Q1009 BLU BLU=
201907172200 METAR LRTZ 172200Z VRB03KT 9999 SKC 19/15 Q1009 BLU BLU=
201907172300 METAR LRTZ 172300Z VRB03KT 9999 SKC 19/14 Q1009 BLU BLU=
201907180300 METAR LRTZ 180300Z VRB03KT 9999 SKC 18/13 Q1009 BLU BLU=
201907180400 METAR LRTZ 180400Z 04008KT 9999 SCT100 21/15 Q1010 BLU BLU=
201907180500 METAR LRTZ 180500Z 04008KT 9999 SCT100 22/16 Q1010 BLU BLU=
201907180600 METAR LRTZ 180600Z 03014KT 9999 FEW100 24/15 Q1010 BLU BLU=
201907180700 METAR LRTZ 180700Z 04014KT 9999 FEW100 24/16 Q1011 BLU BLU=
201907181200 METAR LRTZ 181200Z 07012KT 9999 FEW040 25/17 Q1012 BLU BLU=
201907181300 METAR LRTZ 181300Z 08014KT 9999 FEW040 25/17 Q1012 BLU BLU=
201907181400 METAR LRTZ 181400Z 08012KT 9999 FEW040 SCT200 25/17 Q1013
                        BLU BLU=
201907181500 METAR LRTZ 181500Z 10012KT 9999 FEW050 SCT200 25/18 Q1013
                        BLU BLU=
201907181600 METAR LRTZ 181600Z 10010KT 9999 SCT200 24/18 Q1013 BLU BLU=
201907181700 METAR LRTZ 181700Z 15008KT 9999 FEW200 23/18 Q1013 BLU BLU=
201907181800 METAR LRTZ 181800Z 12008KT 9999 FEW200 22/18 Q1013 BLU BLU=
201907181900 METAR LRTZ 181900Z 11006KT 9999 FEW200 21/18 Q1014 BLU BLU=
201907182000 METAR LRTZ 182000Z 13004KT 9999 SKC 21/18 Q1014 BLU BLU=
201907182100 METAR LRTZ 182100Z 12004KT 9999 SKC 21/18 Q1014 BLU BLU=
201907182200 METAR LRTZ 182200Z 14004KT 9999 SKC 20/17 Q1014 BLU BLU=
201907182300 METAR LRTZ 182300Z 15004KT 9999 SKC 20/17 Q1014 BLU BLU=
201907190200 METAR LRTZ 190200Z 17004KT 7000 SKC 17/16 Q1014 WHT WHT=
201907190300 METAR LRTZ 190300Z VRB02KT 0500 FG SKC 16/16 Q1015 RED WHT=
201907190400 METAR LRTZ 190400Z VRB02KT 0300 FG SKC 18/17 Q1016 RED WHT=
201907190500 METAR LRTZ 190500Z 33003KT 9999 SKC 20/19 Q1016 BLU BLU=
201907190600 METAR LRTZ 190600Z 21003KT 9999 FEW010 BKN015 23/21 Q1016
                        BLU BLU=
201907190700 METAR LRTZ 190700Z 13006KT 9999 FEW015 25/18 Q1016 BLU BLU=
201907190800 METAR LRTZ 190800Z 18008KT 9999 FEW030 25/19 Q1017 BLU BLU=
201907190900 METAR LRTZ 190900Z 17010KT 9999 FEW030 26/19 Q1017 BLU BLU=
201907191000 METAR LRTZ 191000Z 17008KT 9999 FEW030 26/18 Q1017 BLU BLU=
201907191100 METAR LRTZ 191100Z 17012KT 9999 SCT030 26/16 Q1017 BLU BLU=
201907191200 METAR LRTZ 191200Z 17014KT 9999 FEW030 26/15 Q1016 BLU BLU=
201907191300 METAR LRTZ 191300Z 17014KT 9999 FEW030 26/16 Q1016 BLU BLU=
201907191400 METAR LRTZ 191400Z 17014KT 9999 FEW030 25/17 Q1016 BLU BLU=
201907191500 METAR LRTZ 191500Z 17014KT 9999 FEW030 25/17 Q1016 BLU BLU=
201907191600 METAR LRTZ 191600Z 18012KT 9999 SKC 25/17 Q1016 BLU BLU=
201907191700 METAR LRTZ 191700Z 18012KT 9999 SKC 24/18 Q1017 BLU BLU=
201907191800 METAR LRTZ 191800Z 18006KT 9999 FEW150 23/18 Q1017 BLU BLU=
201907192000 METAR LRTZ 192000Z 21004KT 9999 FEW150 21/17 Q1017 BLU BLU=
201907192100 METAR LRTZ 192100Z 21004KT 9999 FEW150 21/17 Q1017 BLU BLU=
201907192300 METAR LRTZ 192300Z 21004KT 9999 FEW150 19/17 Q1018 BLU BLU=
201907200300 METAR LRTZ 200300Z VRB03KT 7000 SKC 17/16 Q1018 WHT BLU=
201907200500 METAR LRTZ 200500Z VRB03KT 9999 SKC 22/17 Q1019 BLU BLU=
201907200600 METAR LRTZ 200600Z 12006KT 9999 SKC 24/19 Q1019 BLU BLU=
201907200700 METAR LRTZ 200700Z 12008KT 9999 SKC 25/17 Q1019 BLU BLU=
201907200800 METAR LRTZ 200800Z 13010KT 9999 SKC 26/17 Q1019 BLU BLU=
201907200900 METAR LRTZ 200900Z 12010KT 9999 SKC 26/17 Q1019 BLU BLU=
201907201000 METAR LRTZ 201000Z 14010KT 9999 SKC 26/16 Q1020 BLU BLU=
201907201100 METAR LRTZ 201100Z 12010KT 9999 FEW040 26/17 Q1019 BLU BLU=
201907201300 METAR LRTZ 201300Z 15010KT 9999 FEW040 26/18 Q1019 BLU BLU=
201907201400 METAR LRTZ 201400Z 15010KT 9999 FEW040 26/17 Q1019 BLU BLU=
201907201500 METAR LRTZ 201500Z 14010KT 9999 FEW040 FEW200 26/17 Q1019
                        BLU BLU=
201907201600 METAR LRTZ 201600Z 14010KT 9999 FEW040 FEW200 25/17 Q1018
                        BLU BLU=
201907201700 METAR LRTZ 201700Z 17006KT 9999 FEW040 SCT200 23/17 Q1018
                        BLU BLU=
201907201800 METAR LRTZ 201800Z 21004KT 9999 FEW040 SCT200 22/18 Q1019
                        BLU BLU=
201907201900 METAR LRTZ 201900Z 00000KT 9999 SCT200 21/17 Q1019 BLU BLU=
201907202000 METAR LRTZ 202000Z 21002KT 9999 SCT200 20/17 Q1019 BLU BLU=
201907202100 METAR LRTZ 202100Z VRB02KT 9999 FEW200 20/17 Q1019 BLU BLU=
201907202300 METAR LRTZ 202300Z VRB03KT 9999 SKC 19/16 Q1019 BLU BLU=
201907210200 METAR LRTZ 210200Z VRB03KT 9999 FEW200 17/15 Q1019 BLU BLU=
201907210300 METAR LRTZ 210300Z 00000KT 9999 SKC 16/15 Q1018 BLU BLU=
201907210400 METAR LRTZ 210400Z 00000KT 9999 SKC 17/15 Q1019 BLU BLU=
201907210500 METAR LRTZ 210500Z 31003KT 9999 SKC 21/17 Q1019 BLU BLU=
201907210600 METAR LRTZ 210600Z 21004KT 9999 SKC 25/16 Q1019 BLU BLU=
201907210700 METAR LRTZ 210700Z 20004KT 9999 SKC 27/15 Q1019 BLU BLU=
201907210800 METAR LRTZ 210800Z 18006KT 9999 SKC 27/16 Q1019 BLU BLU=
201907210900 METAR LRTZ 210900Z 15010KT 9999 FEW035 27/16 Q1019 BLU BLU=
201907211000 METAR LRTZ 211000Z 13010KT 9999 FEW035 27/14 Q1019 BLU BLU=
201907211100 METAR LRTZ 211100Z 15010KT 9999 FEW035 28/15 Q1019 BLU BLU=
201907211200 METAR LRTZ 211200Z 13012KT 9999 SCT035 28/15 Q1018 BLU BLU=
201907211300 METAR LRTZ 211300Z 14010KT 9999 FEW050 27/17 Q1018 BLU BLU=
201907211400 METAR LRTZ 211400Z 17012KT 9999 FEW070 27/17 Q1018 BLU BLU=
201907211500 METAR LRTZ 211500Z 15010KT 9999 FEW080 26/16 Q1018 BLU BLU=
201907211600 METAR LRTZ 211600Z 15008KT 9999 FEW100 26/16 Q1018 BLU BLU=
201907211700 METAR LRTZ 211700Z 19008KT 9999 FEW200 25/17 Q1018 BLU BLU=
201907211900 METAR LRTZ 211900Z VRB03KT 9999 FEW200 21/19 Q1018 BLU BLU=
201907212000 METAR LRTZ 212000Z 21004KT 9999 SKC 21/18 Q1018 BLU BLU=
201907212300 METAR LRTZ 212300Z 26004KT 9999 SKC 20/17 Q1018 BLU BLU=
201907220300 METAR LRTZ 220300Z 30004KT 9999 SKC 18/13 Q1018 BLU BLU=
201907220500 METAR LRTZ 220500Z VRB03KT 9999 SKC 23/15 Q1018 BLU BLU=
201907220600 METAR LRTZ 220600Z 18004KT 9999 SKC 25/16 Q1018 BLU BLU=
201907220700 METAR LRTZ 220700Z 18004KT 9999 FEW200 27/16 Q1018 BLU BLU=
201907220800 METAR LRTZ 220800Z 18008KT 9999 SCT200 29/15 Q1018 BLU BLU=
201907220900 METAR LRTZ 220900Z 18010KT 9999 FEW030 SCT100 29/16 Q1018
                        BLU BLU=
201907221100 METAR LRTZ 221100Z 18010KT 9999 SCT030 29/17 Q1017 BLU BLU=
201907221200 METAR LRTZ 221200Z 15010KT 9999 SCT030 29/15 Q1017 BLU BLU=
201907221300 METAR LRTZ 221300Z 15012KT 9999 SCT030 29/15 Q1016 BLU BLU=
201907221400 METAR LRTZ 221400Z 15014KT 9999 SCT030 30/10 Q1016 BLU BLU=
201907221500 METAR LRTZ 221500Z 15014KT 9999 SCT030 29/12 Q1016 BLU BLU=
201907221600 METAR LRTZ 221600Z 15012KT 9999 SCT030 SCT090 28/15 Q1016
                        BLU BLU=
201907221700 METAR LRTZ 221700Z 16010KT 9999 SCT030 BKN090 26/18 Q1016
                        BLU BLU=
201907221800 METAR LRTZ 221800Z 17010KT 9999 SCT030 BKN090 24/19 Q1016
                        BLU BLU=
201907221900 METAR LRTZ 221900Z 17006KT 9999 SCT030 BKN090 23/19 Q1016
                        BLU BLU=
201907222000 METAR LRTZ 222000Z 17006KT 9999 SCT030 BKN090 23/14 Q1016
                        BLU BLU=
201907222100 METAR LRTZ 222100Z 27006KT 9999 SCT030 BKN090 23/14 Q1016
                        BLU BLU=
201907222200 METAR LRTZ 222200Z 30006KT 9999 SCT030 BKN090 23/14 Q1016
                        BLU BLU=
201907222300 METAR LRTZ 222300Z 33006KT 9999 SCT030 BKN090 23/14 Q1016
                        BLU BLU=
201907230300 METAR LRTZ 230300Z 36010KT 9999 SCT030 BKN090 23/19 Q1014
                        BLU BLU=
201907230400 METAR LRTZ 230400Z 02010KT 9999 SCT030 BKN090 24/19 Q1014
                        BLU BLU=
201907230500 METAR LRTZ 230500Z 02010KT 9999 SCT030 BKN090 25/19 Q1014
                        BLU BLU=
201907230600 METAR LRTZ 230600Z 03010KT 9999 FEW200 26/18 Q1014 BLU BLU=
201907230700 METAR LRTZ 230700Z 06010KT 9999 BKN070 26/18 Q1014 BLU BLU=
201907230800 METAR LRTZ 230800Z 03010KT 9999 BKN070 25/18 Q1014 BLU BLU=
201907230900 METAR LRTZ 230900Z 03010G20KT 9999 BKN050 OVC080 24/19 Q1015
                        BLU BLU=
201907231000 METAR LRTZ 231000Z 03012KT 5000 SHRA SCT020CB BKN050 OVC080
                        21/19 Q1016 WHT WHT=
201907231100 METAR LRTZ 231100Z 03008KT 9999 SCT020 BKN040 BKN100 21/18
                        Q1014 BLU BLU=
201907231200 METAR LRTZ 231200Z 03008KT 9999 FEW040 SCT200 24/18 Q1014
                        BLU BLU=
201907231300 METAR LRTZ 231300Z 06006KT 9999 FEW040 BKN100 26/18 Q1013
                        BLU BLU=
201907231400 METAR LRTZ 231400Z 06008KT 9999 SCT035 BKN100 27/18 Q1013
                        BLU BLU=
201907231500 METAR LRTZ 231500Z 06008KT 9999 SCT035 SCT100 26/16 Q1013
                        BLU BLU=
201907231600 METAR LRTZ 231600Z 03014KT 4000 TSRA SCT035CB BKN100 23/18
                        Q1014 GRN WHT=
201907231700 METAR LRTZ 231700Z 03006KT 9999 FEW035 BKN090 21/18 Q10143
                        BLU BLU=
201907231800 METAR LRTZ 231800Z 02004KT 9999 BKN090 21/19 Q1013 BLU BLU=
201907231900 METAR LRTZ 231900Z 02004KT 9999 BKN090 21/19 Q1013 BLU BLU=
201907232000 METAR LRTZ 232000Z 02004KT 9999 BKN100 21/19 Q1013 BLU BLU=
201907232100 METAR LRTZ 232100Z 02004KT 9999 BKN090 21/19 Q1013 BLU BLU=
201907232300 METAR LRTZ 232300Z 01004KT 9999 BKN100 20/17 Q1014 BLU BLU=
201907240200 METAR LRTZ 240200Z 34006KT 9999 BKN100 18/15 Q1014 BLU BLU=
201907240300 METAR LRTZ 240300Z 34008KT 9999 BKN200 18/16 Q1013 BLU BLU=
201907240400 METAR LRTZ 240400Z 36008KT 9999 SCT200 19/16 Q1013 BLU BLU=
201907240500 METAR LRTZ 240500Z 36008KT 9999 FEW100 20/16 Q1013 BLU BLU=
201907240600 METAR LRTZ 240600Z 01010KT 9999 FEW100 SCT200 22/16 Q1013
                        BLU BLU=
201907240700 METAR LRTZ 240700Z 04010KT 9999 FEW100 24/14 Q1013 BLU BLU=
201907240800 METAR LRTZ 240800Z 02012KT 9999 FEW030 25/12 Q1013 BLU BLU=
201907240900 METAR LRTZ 240900Z 02012KT 9999 FEW030 SCT200 26/12 Q1013
                        BLU BLU=
201907241000 METAR LRTZ 241000Z 04010KT 9999 SCT030 27/11 Q1013 BLU BLU=
201907241100 METAR LRTZ 241100Z 04012KT 9999 SCT030 27/12 Q1013 BLU BLU=
201907241200 METAR LRTZ 241200Z 06014KT 9999 SCT030 27/12 Q1013 BLU BLU=
201907241300 METAR LRTZ 241300Z 07014KT 9999 FEW035 SCT090 27/11 Q1013
                        BLU BLU=
201907241400 METAR LRTZ 241400Z 09010KT 9999 FEW035 SCT090 27/14 Q1013
                        BLU BLU=
201907241500 METAR LRTZ 241500Z 06008KT 9999 FEW035 SCT080 27/11 Q1013
                        BLU BLU=
201907241600 METAR LRTZ 241600Z 12004KT 9999 FEW035 SCT080 25/14 Q1013
                        BLU BLU=
201907241700 METAR LRTZ 241700Z 16004KT 9999 FEW080 24/15 Q1014 BLU BLU=
201907241800 METAR LRTZ 241800Z 21004KT 9999 FEW080 23/16 Q1014 BLU BLU=
201907241900 METAR LRTZ 241900Z 33004KT 9999 FEW075 23/13 Q1014 BLU BLU=
201907242000 METAR LRTZ 242000Z 34004KT 9999 FEW070 21/14 Q1015 BLU BLU=
201907242100 METAR LRTZ 242100Z 32004KT 9999 FEW070 21/15 Q1015 BLU BLU=
201907242300 METAR LRTZ 242300Z 35004KT 9999 SKC 19/14 Q1015 BLU BLU=
201907250300 METAR LRTZ 250300Z 34008KT 9999 FEW100 17/13 Q1015 BLU BLU=
201907250400 METAR LRTZ 250400Z 33008KT 9999 FEW100 18/13 Q1015 BLU BLU=
201907250500 METAR LRTZ 250500Z 33008KT 9999 SKC 21/14 Q1016 BLU BLU=
201907250700 METAR LRTZ 250700Z 02014KT 9999 SKC 26/14 Q1016 BLU BLU=
201907250800 METAR LRTZ 250800Z 04012KT 9999 SKC 27/13 Q1016 BLU BLU=
201907250900 METAR LRTZ 250900Z 08010KT 9999 FEW040 28/14 Q1016 BLU BLU=
201907251000 METAR LRTZ 251000Z 09012KT 9999 FEW040 28/14 Q1016 BLU BLU=
201907251100 METAR LRTZ 251100Z 09012KT 9999 FEW040 28/14 Q1016 BLU BLU=
201907251200 METAR LRTZ 251200Z 09014KT 9999 SCT040 28/14 Q1016 BLU BLU=
201907251300 METAR LRTZ 251300Z 09014KT 9999 SCT040 28/14 Q1016 BLU BLU=
201907251400 METAR LRTZ 251400Z 15008KT 9999 SCT050 BKN100 26/15 Q1015
                        BLU BLU=
201907251500 METAR LRTZ 251500Z 18008KT 9999 FEW050 SCT100 27/16 Q1015
                        BLU BLU=
201907251600 METAR LRTZ 251600Z 22008KT 9999 FEW050 SCT100 26/15 Q1015
                        BLU BLU=
201907251700 METAR LRTZ 251700Z 22008KT 9999 FEW050 SCT100 26/16 Q1015
                        BLU BLU=
201907251800 METAR LRTZ 251800Z 21003KT 9999 SCT100 23/15 Q1016 BLU BLU=
201907251900 METAR LRTZ 251900Z 24004KT 9999 FEW070 22/13 Q1016 BLU BLU=
201907252000 METAR LRTZ 252000Z 27004KT 9999 FEW070 21/14 Q1016 BLU BLU=
201907252300 METAR LRTZ 252300Z 30004KT 9999 SKC 19/14 Q1015 BLU BLU=
201907260300 METAR LRTZ 260300Z 33004KT 9999 SKC 17/12 Q1014 BLU BLU=
201907260400 METAR LRTZ 260400Z 33004KT 9999 SKC 18/13 Q1014 BLU BLU=
201907260500 METAR LRTZ 260500Z 33006KT 9999 SKC 22/14 Q1014 BLU BLU=
201907260600 METAR LRTZ 260600Z 33006KT 9999 SKC 25/15 Q1014 BLU BLU=
201907260700 METAR LRTZ 260700Z VRB02KT 9999 SKC 29/12 Q1014 BLU BLU=
201907260800 METAR LRTZ 260800Z 14006KT 9999 SKC 29/12 Q1014 BLU BLU=
201907260900 METAR LRTZ 260900Z 14008KT 9999 SCT050 28/12 Q1013 BLU BLU=
201907261000 METAR LRTZ 261000Z 12010KT 9999 SCT040 29/12 Q1013 BLU BLU=
201907261100 METAR LRTZ 261100Z 15010KT 9999 SCT040 29/14 Q1013 BLU BLU=
201907261200 METAR LRTZ 261200Z 15012KT 9999 SCT040 29/15 Q1012 BLU BLU=
201907261300 METAR LRTZ 261300Z 18012KT 9999 SCT050 28/16 Q1012 BLU BLU=
201907261400 METAR LRTZ 261400Z 18012KT 9999 SCT050 27/16 Q1019 BLU BLU=
201907261500 METAR LRTZ 261500Z 20012KT 9999 FEW040 27/17 Q1011 BLU BLU=
201907261600 METAR LRTZ 261600Z 20010KT 9999 FEW040 26/18 Q1011 BLU BLU=
201907261700 METAR LRTZ 261700Z 19010KT 9999 SKC 25/18 Q1011 BLU BLU=
201907261800 METAR LRTZ 261800Z 19010KT 9999 FEW100 24/19 Q1011 BLU BLU=
201907261900 METAR LRTZ 261900Z 19008KT 9999 FEW100 23/19 Q1011 BLU BLU=
201907262000 METAR LRTZ 262000Z 19006KT 9999 FEW100 22/19 Q1011 BLU BLU=
201907262300 METAR LRTZ 262300Z 19004KT 9999 SKC 21/17 Q1010 BLU BLU=
201907270300 METAR LRTZ 270300Z VRB02KT 9999 SKC 17/16 Q1009 BLU BLU=
201907270400 METAR LRTZ 270400Z VRB02KT 9999 SKC 19/17 Q1009 BLU BLU=
201907270500 METAR LRTZ 270500Z VRB02KT 9999 SKC 22/19 Q1009 BLU BLU=
201907270600 METAR LRTZ 270600Z 18008KT 9999 SKC 25/21 Q1009 BLU BLU=
201907270700 METAR LRTZ 270700Z 18010KT 9999 SKC 26/20 Q1010 BLU BLU=
201907270800 METAR LRTZ 270800Z 18010KT 9999 FEW035 27/21 Q1010 BLU BLU=
201907271000 METAR LRTZ 271000Z 18010KT 9999 FEW035 28/17 Q1010 BLU BLU=
201907271100 METAR LRTZ 271100Z 18010KT 9999 FEW035 28/17 Q1010 BLU BLU=
201907271300 METAR LRTZ 271300Z 18012KT 9999 FEW035 27/18 Q1009 BLU BLU=
201907271400 METAR LRTZ 271400Z 16012KT 9999 SKC 27/19 Q1009 BLU BLU=
201907271500 METAR LRTZ 271500Z 16012KT 9999 SKC 27/18 Q1009 BLU BLU=
201907271600 METAR LRTZ 271600Z 16010KT 9999 SKC 26/17 Q1009 BLU BLU=
201907271700 METAR LRTZ 271700Z 16008KT 9999 SKC 25/18 Q1009 BLU BLU=
201907271800 METAR LRTZ 271800Z 16004KT 9999 SKC 24/18 Q1009 BLU BLU=
201907271900 METAR LRTZ 271900Z VRB03KT 9999 SKC 22/18 Q1009 BLU BLU=
201907272200 METAR LRTZ 272200Z VRB03KT 9999 SKC 20/18 Q1009 BLU BLU=
201907272300 METAR LRTZ 272300Z VRB03KT 9999 SKC 19/18 Q1009 BLU BLU=
201907280200 METAR LRTZ 280200Z VRB03KT 9999 SKC 18/16 Q1010 BLU BLU=
201907280300 METAR LRTZ 280300Z 00000KT 9999 SKC 18/16 Q1009 BLU BLU=
201907280400 METAR LRTZ 280400Z 00000KT 9999 SKC 20/18 Q1009 BLU BLU=
201907280500 METAR LRTZ 280500Z VRB03KT 9999 SKC 22/18 Q1009 BLU BLU=
201907280600 METAR LRTZ 280600Z 09006KT 9999 SKC 26/19 Q1010 BLU BLU=
201907280700 METAR LRTZ 280700Z 16008KT 9999 SKC 27/19 Q1010 BLU BLU=
201907280800 METAR LRTZ 280800Z 16008KT 9999 SKC 27/18 Q1010 BLU BLU=
201907280900 METAR LRTZ 280900Z 16010KT 9999 SKC 28/17 Q1010 BLU BLU=
201907281000 METAR LRTZ 281000Z 16010KT 9999 SKC 28/19 Q1010 BLU BLU=
201907281100 METAR LRTZ 281100Z 16010KT 9999 SKC 28/19 Q1009 BLU BLU=
201907281200 METAR LRTZ 281200Z 16010KT 9999 SKC 28/15 Q1009 BLU BLU=
201907281300 METAR LRTZ 281300Z 16010KT 9999 SKC 28/18 Q1009 BLU BLU=
201907281400 METAR LRTZ 281400Z 16010KT 9999 SKC 27/18 Q1009 BLU BLU=
201907281500 METAR LRTZ 281500Z 16010KT 9999 SKC 27/18 Q1008 BLU BLU=
201907281700 METAR LRTZ 281700Z 16008KT 9999 SKC 25/18 Q1007 BLU BLU=
201907281800 METAR LRTZ 281800Z 16008KT 9999 SKC 25/18 Q1007 BLU BLU=
201907281900 METAR LRTZ 281900Z VRB03KT 9999 SKC 21/18 Q1008 BLU BLU=
201907282000 METAR LRTZ 282000Z VRB03KT 9999 SKC 22/18 Q1008 BLU BLU=
201907282100 METAR LRTZ 282100Z VRB03KT 9999 SKC 22/18 Q1008 BLU BLU=
201907282300 METAR LRTZ 282300Z VRB03KT 9999 SKC 22/18 Q1008 BLU BLU=
201907290300 METAR LRTZ 290300Z 16006KT 7000 FEW090 SCT200 21/19 Q1006
                        WHT WHT=
201907290400 METAR LRTZ 290400Z 16006KT 9999 FEW090 SCT200 21/17 Q1005
                        BLU BLU=
201907290500 METAR LRTZ 290500Z 16006KT 9999 FEW090 SCT200 21/17 Q1005
                        BLU BLU=
201907290600 METAR LRTZ 290600Z 13006KT 9999 FEW030 SCT100 26/20 Q1005
                        BLU BLU=
201907290700 METAR LRTZ 290700Z 10006KT 9999 FEW030 SCT100 27/20 Q1005
                        BLU BLU=
201907290800 METAR LRTZ 290800Z 09008KT 9999 FEW030 BKN100 27/20 Q1005
                        BLU BLU=
201907290900 METAR LRTZ 290900Z 08008KT 9999 FEW030 BKN100 27/20 Q1005
                        BLU BLU=
201907291000 METAR LRTZ 291000Z 11010KT 9999 FEW030 BKN100 28/19 Q1005
                        BLU BLU=
201907291100 METAR LRTZ 291100Z 10010KT 9999 FEW030 BKN100 27/20 Q1005
                        BLU BLU=
201907291200 METAR LRTZ 291200Z 11008KT 9999 SCT030 BKN100 28/20 Q1005
                        BLU BLU=
201907291300 METAR LRTZ 291300Z 10008KT 9999 SCT030 BKN100 28/19 Q1005
                        BLU BLU=
201907291400 METAR LRTZ 291400Z 07008KT 9999 SCT030 BKN100 28/19 Q1005
                        BLU BLU=
201907291500 METAR LRTZ 291500Z 07006KT 9999 SCT030 BKN100 27/18 Q1004
                        BLU BLU=
201907291600 METAR LRTZ 291600Z 05006KT 9999 FEW040 BKN100 26/20 Q1004
                        BLU BLU=
201907291700 METAR LRTZ 291700Z 07004KT 9999 FEW050 BKN100 25/18 Q1004
                        BLU BLU=
201907291800 METAR LRTZ 291800Z 06004KT 9999 BKN100 24/19 Q1004 BLU BLU=
201907291900 METAR LRTZ 291900Z 03004KT 9999 BKN100 24/19 Q1005 BLU BLU=
201907292000 METAR LRTZ 292000Z 01004KT 9999 BKN100 23/19 Q1005 BLU BLU=
201907292100 METAR LRTZ 292100Z 35004KT 9999 BKN100 23/19 Q1005 BLU BLU=
201907292300 METAR LRTZ 292300Z 34004KT 9999 BKN100 22/19 Q1005 BLU BLU=
201907300200 METAR LRTZ 300200Z 32004KT 7000 SCT100 20/18 Q1006 WHT WHT=
201907300300 METAR LRTZ 300300Z 35004KT 7000 BKN100 18/17 Q1005 WHT BLU=
201907300400 METAR LRTZ 300400Z 32004KT 9999 BKN100 20/18 Q1005 BLU BLU=
201907300500 METAR LRTZ 300500Z 33006KT 9999 BKN100 22/18 Q1005 BLU BLU=
201907300600 METAR LRTZ 300600Z 33010KT 9999 BKN100 25/17 Q1006 BLU BLU=
201907300700 METAR LRTZ 300700Z 34010KT 9999 FEW050TCU BKN100 26/17 Q1006
                        BLU BLU=
201907300800 METAR LRTZ 300800Z 33010KT 9999 FEW040 BKN100 27/16 Q1006
                        BLU BLU=
201907300900 METAR LRTZ 300900Z 33012KT 9999 FEW040 SCT100 BKN200 29/16
                        Q1006 BLU BLU=
201907301000 METAR LRTZ 301000Z 34010KT 9999 SCT040 BKN200 29/16 Q1006
                        BLU BLU=
201907301100 METAR LRTZ 301100Z 33010KT 9999 BKN040 BKN200 30/16 Q1006
                        BLU BLU=
201907301200 METAR LRTZ 301200Z 16008KT 9999 BKN050 BKN080 27/19 Q1006
                        BLU BLU=
201907301300 METAR LRTZ 301300Z 18012KT 9999 BKN050 BKN100 28/19 Q1005
                        BLU BLU=
201907301500 METAR LRTZ 301500Z 27014KT 9999 FEW050 SCT100 BKN200 27/18
                        Q1005 BLU BLU=
201907301600 METAR LRTZ 301600Z 27010KT 9999 FEW100 SCT200 27/17 Q1005
                        BLU BLU=
201907301700 METAR LRTZ 301700Z 27006KT 9999 FEW100 SCT200 28/17 Q1005
                        BLU BLU=
201907301800 METAR LRTZ 301800Z 27004KT 9999 SCT200 25/17 Q1005 BLU BLU=
201907301900 METAR LRTZ 301900Z 29008KT 9999 SCT200 25/17 Q1006 BLU BLU=
201907302000 METAR LRTZ 302000Z 30008KT 9999 FEW200 25/17 Q1006 BLU BLU=
201907302100 METAR LRTZ 302100Z 31006KT 9999 FEW200 24/17 Q1006 BLU BLU=
201907302300 METAR LRTZ 302300Z 30004KT 9999 SKC 23/17 Q1007 BLU BLU=
201907310300 METAR LRTZ 310300Z 33006KT 9999 SKC 20/17 Q1006 BLU BLU=
201907310400 METAR LRTZ 310400Z 31008KT 9999 SKC 21/17 Q1006 BLU BLU=
201907310500 METAR LRTZ 310500Z 33010KT 9999 SKC 23/18 Q1007 BLU BLU=
201907310600 METAR LRTZ 310600Z 33010KT 9999 SKC 27/17 Q1007 BLU BLU=
201907310700 METAR LRTZ 310700Z 33010KT 9999 SKC 30/18 Q1007 BLU BLU=
201907310800 METAR LRTZ 310800Z 33012KT 9999 SKC 31/18 Q1008 BLU BLU=
201907310900 METAR LRTZ 310900Z 01008KT 9999 FEW040 32/17 Q1008 BLU BLU=
201907311000 METAR LRTZ 311000Z 18012KT 9999 FEW050 31/20 Q1008 BLU BLU=
201907311100 METAR LRTZ 311100Z 16010KT 9999 SCT060 31/18 Q1008 BLU BLU=
201907311200 METAR LRTZ 311200Z 16010KT 9999 SCT060 31/17 Q1008 BLU BLU=
201907311300 METAR LRTZ 311300Z 16010KT 9999 SCT060 31/18 Q1008 BLU BLU=
201907311400 METAR LRTZ 311400Z 16010KT 9999 SCT060 30/17 Q1007 BLU BLU=
201907311500 METAR LRTZ 311500Z 18008KT 9999 FEW080 30/17 Q1008 BLU BLU=
201907311600 METAR LRTZ 311600Z 18006KT 9999 FEW080 30/17 Q1008 BLU BLU=
201907311700 METAR LRTZ 311700Z 20006KT 9999 SCT070 29/17 Q1008 BLU BLU=
201907311800 METAR LRTZ 311800Z VRB03KT 9999 SCT050 27/17 Q1008 BLU BLU=
201907311900 METAR LRTZ 311900Z VRB02KT 9999 SCT060 26/16 Q1009 BLU BLU=
201907312000 METAR LRTZ 312000Z VRB03KT 9999 SCT060 26/17 Q1009 BLU BLU=
201907312100 METAR LRTZ 312100Z VRB03KT 9999 SCT060 25/17 Q1009 BLU BLU=
201907312200 METAR LRTZ 312200Z VRB03KT 9999 SCT060 25/18 Q1009 BLU BLU=
201907312300 METAR LRTZ 312300Z VRB03KT 9999 SCT060 25/18 Q1009 BLU BLU=