201908010300 METAR LRTZ 010300Z 33006KT 9999 SCT070 BKN150 25/20 Q1010
                        BLU BLU=
201908010400 METAR LRTZ 010400Z 03008KT 9999 BKN100 26/18 Q1010 BLU BLU=
201908010500 METAR LRTZ 010500Z 06010KT 9999 SCT060 BKN150 26/19 Q1010
                        BLU BLU=
201908010600 METAR LRTZ 010600Z 06010KT 9999 SCT050 BKN100 27/19 Q1010
                        BLU BLU=
201908010700 METAR LRTZ 010700Z 05010KT 9999 SCT050 BKN150 27/19 Q1011
                        BLU BLU=
201908010800 METAR LRTZ 010800Z 03010KT 9999 BKN100 28/18 Q1011 BLU BLU=
201908010900 METAR LRTZ 010900Z 34012KT 9999 SCT035 BKN100 25/18 Q1012
                        BLU BLU=
201908011000 METAR LRTZ 011000Z 36010KT 8000 -RA FEW035 BKN100 22/20 Q1011
                        BLU BLU=
201908011100 METAR LRTZ 011100Z 36010KT 9999 FEW035 BKN100 23/20 Q1011
                        BLU BLU=
201908011200 METAR LRTZ 011200Z 03010KT 9999 SCT150 28/20 Q1011 BLU BLU=
201908011300 METAR LRTZ 011300Z 06010KT 9999 FEW035 SCT150 30/17 Q1011
                        BLU BLU=
201908011400 METAR LRTZ 011400Z 09010KT 9999 FEW035 BKN150 29/17 Q1010
                        BLU BLU=
201908011500 METAR LRTZ 011500Z 09010KT 9999 FEW035 BKN150 28/19 Q1010
                        BLU BLU=
201908011600 METAR LRTZ 011600Z 06006KT 9999 BKN090 27/20 Q1010 BLU BLU=
201908011700 METAR LRTZ 011700Z 06004KT 9999 SCT060 BKN100 26/21 Q1011
                        BLU BLU=
201908011800 METAR LRTZ 011800Z 06006KT 9999 SCT060 BKN100 26/20 Q1011
                        BLU BLU=
201908012000 METAR LRTZ 012000Z 06006KT 9999 BKN060 BKN100 24/19 Q1011
                        BLU BLU=
201908012100 METAR LRTZ 012100Z VRB03KT 9999 BKN060 23/19 Q1011 BLU BLU=
201908012300 METAR LRTZ 012300Z VRB03KT 9999 BKN060 23/19 Q1011 BLU BLU=
201908020400 METAR LRTZ 020400Z 34006KT 9999 SKC 19/17 Q1011 BLU BLU=
201908020600 METAR LRTZ 020600Z 30006KT 9999 SKC 25/18 Q1012 BLU BLU=
201908020700 METAR LRTZ 020700Z 33010KT 9999 SKC 25/17 Q1012 BLU BLU=
201908020800 METAR LRTZ 020800Z 33012KT 9999 FEW030 27/16 Q1012 BLU BLU=
201908020900 METAR LRTZ 020900Z 31008KT 9999 SCT030 28/16 Q1011 BLU BLU=
201908021100 METAR LRTZ 021100Z 08008KT 9999 BKN030 29/17 Q1011 BLU BLU=
201908021200 METAR LRTZ 021200Z 10010KT 9999 BKN030 29/15 Q1011 BLU BLU=
201908021300 METAR LRTZ 021300Z 14012KT 9999 SCT030 28/15 Q1010 BLU BLU=
201908021400 METAR LRTZ 021400Z 15012KT 9999 SCT030 28/18 Q1010 BLU BLU=
201908021500 METAR LRTZ 021500Z 14010KT 9999 FEW040 27/18 Q1010 BLU BLU=
201908021600 METAR LRTZ 021600Z 16010KT 9999 FEW050 26/18 Q1009 BLU BLU=
201908021700 METAR LRTZ 021700Z 18010KT 9999 FEW060 SCT200 25/19 Q1009
                        BLU BLU=
201908021800 METAR LRTZ 021800Z 20008KT 9999 FEW060 SCT200 25/19 Q1010
                        BLU BLU=
201908021900 METAR LRTZ 021900Z 21008KT 9999 SCT200 24/19 Q1009 BLU BLU=
201908022000 METAR LRTZ 022000Z 21006KT 9999 FEW200 23/19 Q1009 BLU BLU=
201908022300 METAR LRTZ 022300Z 19006KT 9999 FEW200 22/18 Q1008 BLU BLU=
201908030300 METAR LRTZ 030300Z 20006KT 9999 SCT100 BKN200 21/20 Q1007
                        BLU BLU=
201908030400 METAR LRTZ 030400Z 21004KT 9999 FEW050 BKN100 22/20 Q1007
                        BLU BLU=
201908030500 METAR LRTZ 030500Z 20006KT 9999 FEW050 BKN100 24/21 Q1007
                        BLU BLU=
201908030600 METAR LRTZ 030600Z 20010KT 9999 FEW050 BKN100 28/20 Q1006
                        BLU BLU=
201908030700 METAR LRTZ 030700Z 21012KT 9999 BKN100 27/20 Q1006 BLU BLU=
201908030800 METAR LRTZ 030800Z 21014KT 9999 FEW050 BKN100 28/21 Q1005
                        BLU BLU=
201908030900 METAR LRTZ 030900Z 18018KT 9999 SCT050 BKN100 27/22 Q1004
                        BLU BLU=
201908031000 METAR LRTZ 031000Z 18014G24KT 9999 SCT050 BKN100 27/22 Q1004
                        BLU BLU=
201908031100 METAR LRTZ 031100Z 18014G24KT 9999 BKN050 BKN100 26/22 Q1003
                        BLU BLU=
201908031200 METAR LRTZ 031200Z 18013G23KT 9999 BKN050 BKN100 26/23 Q1002
                        BLU BLU=
201908031300 METAR LRTZ 031300Z 20014G24KT 9999 SCT050 BKN100 27/22 Q1001
                        BLU BLU=
201908031400 METAR LRTZ 031400Z 20016G26KT 9999 VCTS SCT030TCU BKN050
                        28/22 Q1000 BLU BLU=
201908031500 METAR LRTZ 031500Z 21016G26KT 9999 VCTS SCT020 SCT025CB BKN050
                        29/20 Q1000 BLU BLU=
201908031600 METAR LRTZ 031600Z 33012KT 8000 TSRA BKN020 BKN025CB OVC050
                        21/19 Q1002 WHT WHT=
201908031700 METAR LRTZ 031700Z 01014KT 9999 FEW005 BKN035 BKN100 20/19
                        Q1002 BLU BLU=
201908031800 METAR LRTZ 031800Z 27008KT 9999 BKN035 BKN100 19/18 Q1003
                        BLU BLU=
201908031900 METAR LRTZ 031900Z 25004KT 9999 BKN035 BKN100 19/18 Q1003
                        BLU BLU=
201908032000 METAR LRTZ 032000Z 30004KT 9999 BKN020 BKN050 19/18 Q1003
                        BLU BLU=
201908032100 METAR LRTZ 032100Z 30004KT 9999 BKN020 BKN050 19/18 Q1003
                        WHT WHT=
201908032300 METAR LRTZ 032300Z 30012KT 9999 BKN020 BKN050 19/18 Q1003
                        WHT WHT=
201908040200 METAR LRTZ 040200Z 33014G24KT 9999 BKN020 BKN050 19/16 Q1004
                        WHT WHT=
201908040300 METAR LRTZ 040300Z 33018KT 9999 FEW010 SCT020 17/15 Q1005
                        BLU BLU=
201908040400 METAR LRTZ 040400Z 33018KT 9999 FEW020 SCT100 17/15 Q1006
                        BLU BLU=
201908040500 METAR LRTZ 040500Z 33020KT 9999 FEW020 SCT100 18/15 Q1006
                        BLU BLU=
201908040600 METAR LRTZ 040600Z 34020KT 9999 SCT020 BKN025 18/15 Q1008
                        BLU BLU=
201908040800 METAR LRTZ 040800Z 35020KT 9999 BKN025 BKN200 22/15 Q1008
                        BLU BLU=
201908040900 METAR LRTZ 040900Z 34022KT 9999 BKN030 23/14 Q1008 BLU BLU=
201908041000 METAR LRTZ 041000Z 36017G27KT 9999 BKN035 25/12 Q1009 BLU
                        BLU=
201908041100 METAR LRTZ 041100Z 36015G25KT 9999 BKN040 26/11 Q1009 BLU
                        BLU=
201908041200 METAR LRTZ 041200Z 36022KT 9999 BKN045 25/10 Q1009 BLU BLU=
201908041300 METAR LRTZ 041300Z 36022KT 9999 BKN045 26/10 Q1009 BLU BLU=
201908041500 METAR LRTZ 041500Z 36018KT 9999 SCT040 FEW050CB BKN100 25/09
                        Q1010 BLU BLU=
201908041600 METAR LRTZ 041600Z 01014KT 9999 SCT050 BKN100 25/07 Q1010
                        BLU BLU=
201908041700 METAR LRTZ 041700Z 33010KT 9999 BKN100 23/09 Q1011 BLU BLU=
201908041900 METAR LRTZ 041900Z 33008KT 9999 SCT100 20/10 Q1011 BLU BLU=
201908042000 METAR LRTZ 042000Z 33010KT 9999 SCT100 20/10 Q1011 BLU BLU=
201908042100 METAR LRTZ 042100Z 33008KT 9999 FEW100 19/10 Q1012 BLU BLU=
201908042300 METAR LRTZ 042300Z 33008KT 9999 SKC 18/10 Q1012 BLU BLU=
201908050300 METAR LRTZ 050300Z 33008KT 9999 SKC 15/12 Q1013 BLU BLU=
201908050400 METAR LRTZ 050400Z 33008KT 9999 SKC 15/12 Q1014 BLU BLU=
201908050500 METAR LRTZ 050500Z 33010KT 9999 SKC 18/14 Q1014 BLU BLU=
201908050600 METAR LRTZ 050600Z 33010KT 9999 SKC 22/12 Q1014 BLU BLU=
201908050700 METAR LRTZ 050700Z 33010KT 9999 SKC 23/09 Q1014 BLU BLU=
201908050800 METAR LRTZ 050800Z 33008KT 9999 SKC 24/10 Q1015 BLU BLU=
201908050900 METAR LRTZ 050900Z 36008KT 9999 SKC 26/11 Q1015 BLU BLU=
201908051000 METAR LRTZ 051000Z 03010KT 9999 SCT035 25/10 Q1014 BLU BLU=
201908051100 METAR LRTZ 051100Z 15010KT 9999 SCT035 26/11 Q1014 BLU BLU=
201908051200 METAR LRTZ 051200Z 15012KT 9999 SCT035 26/10 Q1014 BLU BLU=
201908051300 METAR LRTZ 051300Z 15012KT 9999 SCT035 26/12 Q1013 BLU BLU=
201908051400 METAR LRTZ 051400Z 15012KT 9999 SCT035 25/12 Q1013 BLU BLU=
201908051500 METAR LRTZ 051500Z 15010KT 9999 SCT050 24/12 Q1013 BLU BLU=
201908051600 METAR LRTZ 051600Z 15008KT 9999 FEW050 24/12 Q1013 BLU BLU=
201908051700 METAR LRTZ 051700Z 15006KT 9999 FEW050 23/12 Q1014 BLU BLU=
201908051800 METAR LRTZ 051800Z VRB03KT 9999 FEW100 21/12 Q1014 BLU BLU=
201908051900 METAR LRTZ 051900Z VRB03KT 9999 SKC 20/12 Q1015 BLU BLU=
201908052000 METAR LRTZ 052000Z VRB03KT 9999 SKC 19/11 Q1015 BLU BLU=
201908052100 METAR LRTZ 052100Z VRB03KT 9999 SKC 19/11 Q1015 BLU BLU=
201908052300 METAR LRTZ 052300Z VRB03KT 9999 SKC 18/11 Q1015 BLU BLU=
201908060300 METAR LRTZ 060300Z VRB03KT 9999 SKC 16/12 Q1015 BLU BLU=
201908060400 METAR LRTZ 060400Z VRB03KT 9999 SKC 18/12 Q1015 BLU BLU=
201908060500 METAR LRTZ 060500Z 03006KT 9999 SKC 20/13 Q1016 BLU BLU=
201908060600 METAR LRTZ 060600Z 03006KT 9999 SKC 23/15 Q1016 BLU BLU=
201908060700 METAR LRTZ 060700Z VRB03KT 9999 SKC 25/16 Q1016 BLU BLU=
201908060800 METAR LRTZ 060800Z 06008KT 9999 SKC 25/17 Q1016 BLU BLU=
201908060900 METAR LRTZ 060900Z 12010KT 9999 FEW025 27/17 Q1016 BLU BLU=
201908061000 METAR LRTZ 061000Z 12010KT 9999 FEW035 26/16 Q1016 BLU BLU=
201908061100 METAR LRTZ 061100Z 12014KT 9999 SCT035 26/16 Q1016 BLU BLU=
201908061200 METAR LRTZ 061200Z 12012KT 9999 SCT035 27/16 Q1016 BLU BLU=
201908061300 METAR LRTZ 061300Z 15012KT 9999 SCT035 27/16 Q1016 BLU BLU=
201908061400 METAR LRTZ 061400Z 15010KT 9999 BKN100 25/16 Q1016 BLU BLU=
201908061500 METAR LRTZ 061500Z 16010KT 9999 SCT100 25/17 Q1015 BLU BLU=
201908061600 METAR LRTZ 061600Z 18008KT 9999 SCT100 25/16 Q1015 BLU BLU=
201908061700 METAR LRTZ 061700Z 20006KT 9999 SCT100 24/17 Q1015 BLU BLU=
201908061800 METAR LRTZ 061800Z 18006KT 9999 FEW100 23/17 Q1015 BLU BLU=
201908061900 METAR LRTZ 061900Z 18004KT 9999 FEW100 22/15 Q1016 BLU BLU=
201908062000 METAR LRTZ 062000Z VRB03KT 9999 SKC 20/14 Q1016 BLU BLU=
201908062100 METAR LRTZ 062100Z VRB03KT 9999 SKC 20/14 Q1016 BLU BLU=
201908062300 METAR LRTZ 062300Z VRB03KT 9999 SKC 19/13 Q1016 BLU BLU=
201908070200 METAR LRTZ 070200Z VRB03KT 9999 SKC 18/12 Q1017 BLU BLU=
201908070300 METAR LRTZ 070300Z VRB03KT 9999 SKC 17/14 Q1016 BLU BLU=
201908070400 METAR LRTZ 070400Z VRB03KT 9999 SKC 17/14 Q1016 BLU BLU=
201908070500 METAR LRTZ 070500Z 23006KT 9999 SKC 22/14 Q1016 BLU BLU=
201908070600 METAR LRTZ 070600Z 24008KT 9999 FEW200 26/11 Q1017 BLU BLU=
201908070700 METAR LRTZ 070700Z 21008KT 9999 FEW200 28/11 Q1017 BLU BLU=
201908070800 METAR LRTZ 070800Z 19010KT 9999 FEW200 29/14 Q1017 BLU BLU=
201908071000 METAR LRTZ 071000Z 16014KT 9999 FEW040 SCT200 27/18 Q1017
                        BLU BLU=
201908071100 METAR LRTZ 071100Z 17016KT 9999 FEW040 BKN200 29/15 Q1016
                        BLU BLU=
201908071200 METAR LRTZ 071200Z 18010G20KT 9999 FEW040 BKN200 27/15 Q1016
                        BLU BLU=
201908071300 METAR LRTZ 071300Z 18010G20KT 9999 FEW040 BKN200 27/16 Q1016
                        BLU BLU=
201908071400 METAR LRTZ 071400Z 18010G20KT 9999 FEW040 BKN200 27/17 Q1016
                        BLU BLU=
201908071500 METAR LRTZ 071500Z 18010G20KT 9999 SCT200 26/17 Q1016 BLU
                        BLU=
201908071600 METAR LRTZ 071600Z 19016KT 9999 SCT200 25/18 Q1015 BLU BLU=
201908071700 METAR LRTZ 071700Z 19014KT 9999 FEW200 24/18 Q1015 BLU BLU=
201908071800 METAR LRTZ 071800Z 19012KT 9999 FEW200 23/18 Q1015 BLU BLU=
201908071900 METAR LRTZ 071900Z 19012KT 9999 FEW200 23/18 Q1016 BLU BLU=
201908072000 METAR LRTZ 072000Z 20012KT 9999 FEW200 23/18 Q1016 BLU BLU=
201908072300 METAR LRTZ 072300Z 19008KT 9999 SKC 21/18 Q1017 BLU BLU=
201908080300 METAR LRTZ 080300Z 20003KT 9999 SKC 18/16 Q1014 BLU BLU=
201908080400 METAR LRTZ 080400Z 21004KT 9999 SKC 19/17 Q1015 BLU BLU=
201908080500 METAR LRTZ 080500Z 21006KT 9999 SKC 23/18 Q1015 BLU BLU=
201908080600 METAR LRTZ 080600Z 18012KT 9999 SKC 25/18 Q1015 BLU BLU=
201908080700 METAR LRTZ 080700Z 18012KT 9999 SKC 26/18 Q1015 BLU BLU=
201908080800 METAR LRTZ 080800Z 18014KT 9999 SKC 27/18 Q1015 BLU BLU=
201908080900 METAR LRTZ 080900Z 18014KT 9999 SKC 27/18 Q1015 BLU BLU=
201908081000 METAR LRTZ 081000Z 18014KT 9999 SKC 27/18 Q1014 BLU BLU=
201908081100 METAR LRTZ 081100Z 18014KT 9999 SKC 27/19 Q1014 BLU BLU=
201908081200 METAR LRTZ 081200Z 18014KT 9999 SKC 26/19 Q1014 BLU BLU=
201908081300 METAR LRTZ 081300Z 18014KT 9999 SKC 26/19 Q1014 BLU BLU=
201908081400 METAR LRTZ 081400Z 18014KT 9999 SKC 26/19 Q1013 BLU BLU=
201908081500 METAR LRTZ 081500Z 18014KT 9999 SKC 26/19 Q1013 BLU BLU=
201908081600 METAR LRTZ 081600Z 18014KT 9999 SKC 25/19 Q1013 BLU BLU=
201908081700 METAR LRTZ 081700Z 18014KT 9999 SKC 24/19 Q1013 BLU BLU=
201908081800 METAR LRTZ 081800Z 21010KT 9999 FEW200 23/19 Q1013 BLU BLU=
201908081900 METAR LRTZ 081900Z 21008KT 9999 SCT200 22/19 Q1013 BLU BLU=
201908082000 METAR LRTZ 082000Z 21006KT 9999 SCT200 22/19 Q1013 BLU BLU=
201908082100 METAR LRTZ 082100Z 21006KT 9999 SCT200 21/19 Q1013 BLU BLU=
201908082300 METAR LRTZ 082300Z 21006KT 9999 SCT200 21/19 Q1013 BLU BLU=
201908090200 METAR LRTZ 090200Z VRB03KT 9999 SCT200 20/18 Q1013 BLU BLU=
201908090300 METAR LRTZ 090300Z VRB03KT 9999 SKC 18/17 Q1013 BLU BLU=
201908090400 METAR LRTZ 090400Z VRB03KT 9999 SKC 18/17 Q1013 BLU BLU=
201908090500 METAR LRTZ 090500Z VRB03KT 9999 FEW200 24/20 Q1013 BLU BLU=
201908090600 METAR LRTZ 090600Z 20008KT 9999 SCT200 25/19 Q1013 BLU BLU=
201908090700 METAR LRTZ 090700Z 18010KT 9999 SCT200 26/20 Q1013 BLU BLU=
201908090800 METAR LRTZ 090800Z 16010KT 9999 SCT200 27/20 Q1013 BLU BLU=
201908090900 METAR LRTZ 090900Z 14010KT 9999 BKN200 27/20 Q1013 BLU BLU=
201908091000 METAR LRTZ 091000Z 14012KT 9999 BKN200 27/19 Q1013 BLU BLU=
201908091100 METAR LRTZ 091100Z 15012KT 9999 BKN200 27/20 Q1013 BLU BLU=
201908091300 METAR LRTZ 091300Z 14014KT 9999 BKN200 27/20 Q1012 BLU BLU=
201908091400 METAR LRTZ 091400Z 15014KT 9999 FEW050 SCT200 26/19 Q1012
                        BLU BLU=
201908091500 METAR LRTZ 091500Z 17012KT 9999 FEW050 SCT200 27/19 Q1012
                        BLU BLU=
201908091600 METAR LRTZ 091600Z 16010KT 9999 FEW080 SCT200 26/19 Q1012
                        BLU BLU=
201908091700 METAR LRTZ 091700Z 17010KT 9999 SCT200 25/19 Q1012 BLU BLU=
201908091800 METAR LRTZ 091800Z 18006KT 9999 FEW200 24/19 Q1012 BLU BLU=
201908091900 METAR LRTZ 091900Z 19004KT 9999 SKC 23/19 Q1013 BLU BLU=
201908092000 METAR LRTZ 092000Z 21004KT 9999 SKC 22/19 Q1013 BLU BLU=
201908092100 METAR LRTZ 092100Z 20004KT 9999 SKC 22/19 Q1013 BLU BLU=
201908092300 METAR LRTZ 092300Z 19004KT 9999 SKC 21/18 Q1013 BLU BLU=
201908100300 METAR LRTZ 100300Z 31004KT 9999 FEW200 19/18 Q1013 BLU BLU=
201908100400 METAR LRTZ 100400Z 32004KT 9999 FEW200 20/17 Q1014 BLU BLU=
201908100500 METAR LRTZ 100500Z 02008KT 9999 FEW200 23/17 Q1014 BLU BLU=
201908100600 METAR LRTZ 100600Z 05010KT 9999 FEW100 25/19 Q1015 BLU BLU=
201908100700 METAR LRTZ 100700Z 05012KT 9999 FEW100 25/20 Q1015 BLU BLU=
201908100800 METAR LRTZ 100800Z 05014KT 9999 SKC 25/20 Q1016 BLU BLU=
201908100900 METAR LRTZ 100900Z 09014KT 9999 SKC 26/20 Q1016 BLU BLU=
201908101000 METAR LRTZ 101000Z 06012KT 9999 FEW035 27/19 Q1016 BLU BLU=
201908101100 METAR LRTZ 101100Z 09012KT 9999 FEW035 27/18 Q1016 BLU BLU=
201908101200 METAR LRTZ 101200Z 09012KT 9999 FEW035 SCT200 28/16 Q1016
                        BLU BLU=
201908101300 METAR LRTZ 101300Z 12012KT 9999 FEW035 SCT200 28/14 Q1016
                        BLU BLU=
201908101400 METAR LRTZ 101400Z 12010KT 9999 FEW035 SCT200 27/19 Q1016
                        BLU BLU=
201908101500 METAR LRTZ 101500Z 12008KT 9999 SCT200 27/18 Q1016 BLU BLU=
201908101600 METAR LRTZ 101600Z 14008KT 9999 SCT200 26/19 Q1016 BLU BLU=
201908101700 METAR LRTZ 101700Z 16004KT 9999 SCT200 25/20 Q1016 BLU BLU=
201908101800 METAR LRTZ 101800Z 18004KT 9999 FEW200 23/20 Q1016 BLU BLU=
201908101900 METAR LRTZ 101900Z VRB03KT 9999 SKC 23/20 Q1017 BLU BLU=
201908102000 METAR LRTZ 102000Z VRB03KT 9999 SKC 22/19 Q1017 BLU BLU=
201908102300 METAR LRTZ 102300Z VRB032KT 9999 SKC 21/18 Q1017 BLU BLU=
201908110400 METAR LRTZ 110400Z VRB03KT 7000 FEW005 19/18 Q1017 WHT WHT=
201908110500 METAR LRTZ 110500Z 33004KT 9999 SKC 22/20 Q1017 BLU BLU=
201908110600 METAR LRTZ 110600Z 02004KT 9999 SKC 25/19 Q1018 BLU BLU=
201908110700 METAR LRTZ 110700Z 08004KT 9999 SKC 28/17 Q1018 BLU BLU=
201908110800 METAR LRTZ 110800Z 10006KT 9999 SKC 28/17 Q1019 BLU BLU=
201908110900 METAR LRTZ 110900Z 14010KT 9999 SKC 28/17 Q1019 BLU BLU=
201908111000 METAR LRTZ 111000Z 15010KT 9999 SKC 28/18 Q1018 BLU BLU=
201908111100 METAR LRTZ 111100Z 15010KT 9999 SKC 28/18 Q1018 BLU BLU=
201908111200 METAR LRTZ 111200Z 15012KT 9999 SKC 28/19 Q1018 BLU BLU=
201908111300 METAR LRTZ 111300Z 15012KT 9999 SKC 28/14 Q1018 BLU BLU=
201908111400 METAR LRTZ 111400Z 16012KT 9999 SKC 28/17 Q1017 BLU BLU=
201908111500 METAR LRTZ 111500Z 18010KT 9999 SKC 27/17 Q1017 BLU BLU=
201908111600 METAR LRTZ 111600Z 19008KT 9999 SKC 27/17 Q1017 BLU BLU=
201908111700 METAR LRTZ 111700Z 19008KT 9999 SKC 26/18 Q1017 BLU BLU=
201908111800 METAR LRTZ 111800Z 18004KT 9999 SKC 24/18 Q1017 BLU BLU=
201908111900 METAR LRTZ 111900Z 18003KT 9999 SKC 22/19 Q1017 BLU BLU=
201908112000 METAR LRTZ 112000Z 18002KT 9999 SKC 22/19 Q1017 BLU BLU=
201908112300 METAR LRTZ 112300Z VRB03KT 9999 SKC 21/18 Q1018 BLU BLU=
201908120200 METAR LRTZ 120200Z 33003KT 9999 SKC 20/16 Q1017 BLU BLU=
201908120300 METAR LRTZ 120300Z 35003KT 9999 SKC 19/14 Q1017 BLU BLU=
201908120400 METAR LRTZ 120400Z 36004KT 9999 SKC 19/15 Q1017 BLU BLU=
201908120500 METAR LRTZ 120500Z 34004KT 9999 SKC 22/16 Q1017 BLU BLU=
201908120600 METAR LRTZ 120600Z 36004KT 9999 SKC 25/16 Q1018 BLU BLU=
201908120700 METAR LRTZ 120700Z 03006KT 9999 SKC 27/17 Q1018 BLU BLU=
201908120800 METAR LRTZ 120800Z 07010KT 9999 SKC 28/16 Q1018 BLU BLU=
201908120900 METAR LRTZ 120900Z 08010KT 9999 SKC 29/16 Q1018 BLU BLU=
201908121000 METAR LRTZ 121000Z 08010KT 9999 SKC 29/18 Q1018 BLU BLU=
201908121100 METAR LRTZ 121100Z 09010KT 9999 SKC 29/17 Q1018 BLU BLU=
201908121200 METAR LRTZ 121200Z 10010KT 9999 SKC 29/17 Q1018 BLU BLU=
201908121300 METAR LRTZ 121300Z 11008KT 9999 SKC 29/16 Q1017 BLU BLU=
201908121400 METAR LRTZ 121400Z 11008KT 9999 SKC 29/15 Q1017 BLU BLU=
201908121500 METAR LRTZ 121500Z 10010KT 9999 SKC 28/17 Q1017 BLU BLU=
201908121600 METAR LRTZ 121600Z 11010KT 9999 SKC 27/18 Q1016 BLU BLU=
201908121700 METAR LRTZ 121700Z 10008KT 9999 SKC 26/19 Q1016 BLU BLU=
201908121800 METAR LRTZ 121800Z 10004KT 9999 SKC 25/20 Q1016 BLU BLU=
201908121900 METAR LRTZ 121900Z 11004KT 9999 SKC 24/20 Q1017 BLU BLU=
201908122000 METAR LRTZ 122000Z 10004KT 9999 SKC 23/20 Q1017 BLU BLU=
201908122100 METAR LRTZ 122100Z 11004KT 9999 SKC 23/20 Q1017 BLU BLU=
201908122300 METAR LRTZ 122300Z 09004KT 9999 SKC 22/19 Q1016 BLU BLU=
201908130200 METAR LRTZ 130200Z 06004KT 8000 SKC 21/20 Q1015 BLU WHT=
201908130300 METAR LRTZ 130300Z 04004KT 7000 SKC 21/20 Q1015 WHT BLU=
201908130400 METAR LRTZ 130400Z 03004KT 9999 SKC 22/21 Q1015 BLU BLU=
201908130500 METAR LRTZ 130500Z 03004KT 9999 SKC 22/21 Q1015 BLU BLU=
201908130600 METAR LRTZ 130600Z 07012KT 9999 SKC 27/20 Q1016 BLU BLU=
201908130700 METAR LRTZ 130700Z 09012KT 9999 SKC 27/20 Q1015 BLU BLU=
201908130800 METAR LRTZ 130800Z 09014KT 9999 SKC 28/20 Q1016 BLU BLU=
201908130900 METAR LRTZ 130900Z 07014KT 9999 SKC 29/20 Q1016 BLU BLU=
201908131100 METAR LRTZ 131100Z 06014KT 9999 SKC 29/20 Q1015 BLU BLU=
201908131200 METAR LRTZ 131200Z 06014KT 9999 SKC 28/19 Q1015 BLU BLU=
201908131300 METAR LRTZ 131300Z 06014KT 9999 SKC 28/19 Q1014 BLU BLU=
201908131400 METAR LRTZ 131400Z 07014KT 9999 SKC 28/18 Q1014 BLU BLU=
201908131500 METAR LRTZ 131500Z 07014KT 9999 SKC 27/18 Q1014 BLU BLU=
201908131600 METAR LRTZ 131600Z 07010KT 9999 SKC 27/17 Q1014 BLU BLU=
201908131700 METAR LRTZ 131700Z 07010KT 9999 SKC 26/17 Q1013 BLU BLU=
201908131800 METAR LRTZ 131800Z 07004KT 9999 SKC 23/17 Q1013 BLU BLU=
201908131900 METAR LRTZ 131900Z 07004KT 9999 SKC 23/17 Q1013 BLU BLU=
201908132000 METAR LRTZ 132000Z 07004KT 9999 SKC 22/17 Q1013 BLU BLU=
201908132100 METAR LRTZ 132100Z 07004KT 9999 SKC 22/17 Q1013 BLU BLU=
201908132300 METAR LRTZ 132300Z 07004KT 9999 SKC 22/17 Q1013 BLU BLU=
201908140300 METAR LRTZ 140300Z VRB03KT 6000 SKC 20/18 Q1012 WHT WHT=
201908140400 METAR LRTZ 140400Z 06004KT 9999 SKC 20/18 Q1011 BLU BLU=
201908140600 METAR LRTZ 140600Z 03008KT 9999 SKC 25/21 Q1011 BLU BLU=
201908140700 METAR LRTZ 140700Z 07008KT 9999 FEW030 27/20 Q1011 BLU BLU=
201908140800 METAR LRTZ 140800Z 04010KT 9999 FEW030 27/19 Q1010 BLU BLU=
201908140900 METAR LRTZ 140900Z 08010KT 9999 SKC 28/17 Q1010 BLU BLU=
201908141000 METAR LRTZ 141000Z 08010KT 9999 SKC 29/17 Q1009 BLU BLU=
201908141100 METAR LRTZ 141100Z 08010KT 9999 SKC 29/17 Q1009 BLU BLU=
201908141200 METAR LRTZ 141200Z 08010KT 9999 SKC 28/19 Q1009 BLU BLU=
201908141300 METAR LRTZ 141300Z 08010KT 9999 SKC 28/18 Q1009 BLU BLU=
201908141400 METAR LRTZ 141400Z 09010KT 9999 SKC 27/20 Q1008 BLU BLU=
201908141500 METAR LRTZ 141500Z 09014KT 9999 SKC 27/19 Q1008 BLU BLU=
201908141600 METAR LRTZ 141600Z 12008KT 9999 SKC 26/18 Q1007 BLU BLU=
201908141700 METAR LRTZ 141700Z 12008KT 9999 SKC 26/17 Q1007 BLU BLU=
201908141800 METAR LRTZ 141800Z 12006KT 9999 SKC 25/19 Q1007 BLU BLU=
201908141900 METAR LRTZ 141900Z VRB03KT 9999 FEW30 23/18 Q1007 BLU BLU=
201908142000 METAR LRTZ 142000Z VRB03KT 9999 FEW30 22/18 Q1007 BLU BLU=
201908142100 METAR LRTZ 142100Z VRB03KT 9999 FEW30 22/18 Q1007 BLU BLU=
201908142200 METAR LRTZ 142200Z VRB03KT 9999 FEW30 20/18 Q1008 BLU BLU=
201908142300 METAR LRTZ 142300Z VRB03KT 9999 SKC 20/18 Q1008 BLU BLU=
201908150300 METAR LRTZ 150300Z 32006KT 9999 SCT100 20/17 Q1008 BLU BLU=
201908150400 METAR LRTZ 150400Z 32012KT 9999 SCT100 21/17 Q1007 BLU BLU=
201908150500 METAR LRTZ 150500Z 32012KT 9999 BKN200 22/16 Q1007 BLU BLU=
201908150600 METAR LRTZ 150600Z 05012KT 9999 BKN200 24/18 Q1009 BLU BLU=
201908150700 METAR LRTZ 150700Z 06012KT 9999 BKN200 24/18 Q1010 BLU BLU=
201908150800 METAR LRTZ 150800Z 05014KT 9999 FEW050 BKN200 24/17 Q1010
                        BLU BLU=
201908150900 METAR LRTZ 150900Z 03014KT 9999 FEW050 BKN200 24/16 Q1010
                        BLU BLU=
201908151000 METAR LRTZ 151000Z 06014KT 9999 FEW050 BKN200 26/16 Q1010
                        BLU BLU=
201908151100 METAR LRTZ 151100Z 07012KT 9999 FEW050 SCT200 27/17 Q1009
                        BLU BLU=
201908151200 METAR LRTZ 151200Z 07014KT 9999 FEW060 SCT200 27/16 Q1009
                        BLU BLU=
201908151300 METAR LRTZ 151300Z 08014KT 9999 FEW060 SCT200 27/17 Q1009
                        BLU BLU=
201908151400 METAR LRTZ 151400Z 08012KT 9999 FEW060 SCT200 27/17 Q1009
                        BLU BLU=
201908151500 METAR LRTZ 151500Z 07012KT 9999 FEW050 SCT200 26/17 Q1009
                        BLU BLU=
201908151600 METAR LRTZ 151600Z 06012KT 9999 FEW050 SCT200 26/17 Q1009
                        BLU BLU=
201908151700 METAR LRTZ 151700Z 06012KT 9999 FEW100 SCT200 25/15 Q1010
                        BLU BLU=
201908151800 METAR LRTZ 151800Z 03012KT 9999 FEW100 SCT200 24/15 Q1011
                        BLU BLU=
201908151900 METAR LRTZ 151900Z 03010KT 9999 SCT200 23/15 Q1011 BLU BLU=
201908152000 METAR LRTZ 152000Z 01008KT 9999 SCT200 22/14 Q1012 BLU BLU=
201908152100 METAR LRTZ 152100Z 36010KT 9999 SCT200 21/13 Q1012 BLU BLU=
201908152300 METAR LRTZ 152300Z 33012KT 9999 FEW100 BKN200 19/13 Q1013
                        BLU BLU=
201908160200 METAR LRTZ 160200Z 33012KT 9999 SCT050 SCT100 16/12 Q1013
                        BLU BLU=
201908160300 METAR LRTZ 160300Z 35010KT 9999 FEW050 BKN100 BKN200 17/12
                        Q1012 BLU BLU=
201908160400 METAR LRTZ 160400Z 36010KT 9999 FEW040CB BKN100 17/12 Q1013
                        BLU BLU=
201908160500 METAR LRTZ 160500Z 33010KT 9999 BKN100 17/12 Q1013 BLU BLU=
201908160600 METAR LRTZ 160600Z 35012KT 9999 BKN100 18/12 Q1013 BLU BLU=
201908160700 METAR LRTZ 160700Z 35014KT 9999 BKN100 18/11 Q1013 BLU BLU=
201908160800 METAR LRTZ 160800Z 01012KT 9999 SCT060 BKN100 19/12 Q1013
                        BLU BLU=
201908160900 METAR LRTZ 160900Z 35006KT 9999 -RA SCT050 BKN080 18/14 Q1014
                        BLU BLU=
201908161000 METAR LRTZ 161000Z 35010KT 9999 FEW020 SCT040 BKN070 20/13
                        Q1013 BLU BLU=
201908161100 METAR LRTZ 161100Z 06004KT 9999 BKN100 21/13 Q1013 BLU BLU=
201908161200 METAR LRTZ 161200Z 12004KT 9999 FEW025 BKN100 21/13 Q1013
                        BLU BL=
201908161300 METAR LRTZ 161300Z 18004KT 9999 BKN100 22/14 Q1013 BLU BLU=
201908161400 METAR LRTZ 161400Z 16006KT 9999 BKN080 22/14 Q1013 BLU BLU=
201908161500 METAR LRTZ 161500Z 16006KT 9999 SCT080 22/14 Q1013 BLU BLU=
201908161600 METAR LRTZ 161600Z 16006KT 9999 BKN080 22/14 Q1012 BLU BLU=
201908161700 METAR LRTZ 161700Z VRB03KT 9999 BKN100 21/15 Q1013 BLU BLU=
201908161800 METAR LRTZ 161800Z VRB03KT 9999 BKN100 20/15 Q1013 BLU BLU=
201908161900 METAR LRTZ 161900Z VRB03KT 9999 BKN100 19/15 Q1013 BLU BLU=
201908162000 METAR LRTZ 162000Z VRB03KT 9999 BKN100 19/15 Q1013 BLU BLU=
201908162100 METAR LRTZ 162100Z VRB03KT 9999 SCT100 19/15 Q1013 BLU BLU=
201908162300 METAR LRTZ 162300Z VRB03KT 9999 SCT100 19/15 Q1013 BLU BLU=
201908170300 METAR LRTZ 170300Z 36006KT 9999 FEW100 SCT200 17/10 Q1014
                        BLU BLU=
201908170400 METAR LRTZ 170400Z 35006KT 9999 FEW100 SCT200 17/10 Q1014
                        BLU BLU=
201908170500 METAR LRTZ 170500Z 35008KT 9999 FEW100 SCT200 19/11 Q1014
                        BLU BLU=
201908170600 METAR LRTZ 170600Z 36010KT 9999 FEW100 BKN200 22/10 Q1014
                        BLU BLU=
201908170700 METAR LRTZ 170700Z 01010KT 9999 FEW100 BKN200 24/07 Q1015
                        BLU BLU=
201908170800 METAR LRTZ 170800Z 03010KT 9999 FEW080 BKN200 25/08 Q1015
                        BLU BLU=
201908170900 METAR LRTZ 170900Z 05014KT 9999 FEW080 BKN200 25/08 Q1014
                        BLU BLU=
201908171000 METAR LRTZ 171000Z 07014KT 9999 FEW050 BKN200 26/08 Q1014
                        BLU BLU=
201908171100 METAR LRTZ 171100Z 06014KT 9999 FEW050 BKN200 26/09 Q1014
                        BLU BLU=
201908171200 METAR LRTZ 171200Z 07012KT 9999 FEW050 BKN200 25/09 Q1014
                        BLU BLU=
201908171300 METAR LRTZ 171300Z 07012KT 9999 FEW050 BKN200 25/10 Q1014
                        BLU BLU=
201908171400 METAR LRTZ 171400Z 07012KT 9999 FEW050 BKN200 25/10 Q1014
                        BLU BLU=
201908171500 METAR LRTZ 171500Z 08010KT 9999 FEW050 BKN200 24/11 Q1014
                        BLU BLU=
201908171600 METAR LRTZ 171600Z 06006KT 9999 FEW050 BKN200 24/10 Q1014
                        BLU BLU=
201908171700 METAR LRTZ 171700Z 08004KT 9999 FEW080 BKN200 23/11 Q1014
                        BLU BLU=
201908171800 METAR LRTZ 171800Z VRB03KT 9999 FEW080 SCT200 20/11 Q1014
                        BLU BLU=
201908171900 METAR LRTZ 171900Z VRB03KT 9999 FEW080 SCT200 20/10 Q1014
                        BLU BLU=
201908172000 METAR LRTZ 172000Z 31003KT 9999 FEW080 SCT200 18/10 Q1014
                        BLU BLU=
201908172200 METAR LRTZ 172200Z 30004KT 9999 FEW080 SCT200 18/10 Q1015
                        BLU BLU=
201908172300 METAR LRTZ 172300Z 31006KT 9999 SCT200 17/10 Q1015 BLU BLU=
201908180300 METAR LRTZ 180300Z 31006KT 9999 FEW100 15/07 Q1015 BLU BLU=
201908180400 METAR LRTZ 180400Z 31006KT 9999 FEW100 16/07 Q1015 BLU BLU=
201908180500 METAR LRTZ 180500Z 33008KT 9999 FEW100 19/07 Q1015 BLU BLU=
201908180700 METAR LRTZ 180700Z 06012KT 9999 SKC 24/08 Q1016 BLU BLU=
201908180800 METAR LRTZ 180800Z 06012KT 9999 SKC 25/09 Q1016 BLU BLU=
201908180900 METAR LRTZ 180900Z 06012KT 9999 SKC 26/09 Q1016 BLU BLU=
201908181000 METAR LRTZ 181000Z 06012KT 9999 SCT050 26/09 Q1016 BLU BLU=
201908181100 METAR LRTZ 181100Z 06012KT 9999 SCT050 26/10 Q1016 BLU BLU=
201908181200 METAR LRTZ 181200Z 06012KT 9999 FEW050 26/11 Q1016 BLU BLU=
201908181300 METAR LRTZ 181300Z 06012KT 9999 FEW050 25/11 Q1016 BLU BLU=
201908181400 METAR LRTZ 181400Z 08012KT 9999 FEW050 25/11 Q1016 BLU BLU=
201908181500 METAR LRTZ 181500Z 08010KT 9999 FEW100 25/11 Q1016 BLU BLU=
201908181600 METAR LRTZ 181600Z 18006KT 9999 SKC 24/11 Q1016 BLU BLU=
201908181700 METAR LRTZ 181700Z 18006KT 9999 SKC 23/12 Q1016 BLU BLU=
201908181800 METAR LRTZ 181800Z VRB03KT 9999 SKC 20/12 Q1016 BLU BLU=
201908181900 METAR LRTZ 181900Z VRB03KT 9999 SKC 20/12 Q1016 BLU BLU=
201908182000 METAR LRTZ 182000Z VRB03KT 9999 SKC 18/10 Q1017 BLU BLU=
201908182100 METAR LRTZ 182100Z VRB03KT 9999 SKC 18/10 Q1017 BLU BLU=
201908182300 METAR LRTZ 182300Z VRB03KT 9999 SKC 18/10 Q1017 BLU BLU=
201908190200 METAR LRTZ 190200Z VRB03KT 9999 SKC 16/10 Q1017 BLU BLU=
201908190300 METAR LRTZ 190300Z VRB03KT 9999 SKC 16/10 Q1017 BLU BLU=
201908190400 METAR LRTZ 190400Z VRB03KT 9999 SKC 17/11 Q1017 BLU BLU=
201908190500 METAR LRTZ 190500Z 03006KT 9999 SKC 20/11 Q1018 BLU BLU=
201908190600 METAR LRTZ 190600Z 01006KT 9999 SKC 24/11 Q1018 BLU BLU=
201908190800 METAR LRTZ 190800Z 06010KT 9999 SKC 27/10 Q1018 BLU BLU=
201908190900 METAR LRTZ 190900Z 07010KT 9999 SKC 28/10 Q1018 BLU BLU=
201908191000 METAR LRTZ 191000Z 07010KT 9999 FEW100 28/10 Q1018 BLU BLU=
201908191100 METAR LRTZ 191100Z 09010KT 9999 FEW200 28/10 Q1018 BLU BLU=
201908191200 METAR LRTZ 191200Z 12010KT 9999 SKC 27/13 Q1018 BLU BLU=
201908191300 METAR LRTZ 191300Z 09010KT 9999 SKC 28/13 Q1018 BLU BLU=
201908191400 METAR LRTZ 191400Z 09010KT 9999 SKC 27/13 Q1019 BLU BLU=
201908191500 METAR LRTZ 191500Z 09010KT 9999 SKC 26/13 Q1019 BLU BLU=
201908191700 METAR LRTZ 191700Z VRB03KT 9999 SKC 24/15 Q1019 BLU BLU=
201908191800 METAR LRTZ 191800Z VRB03KT 9999 SKC 21/15 Q1019 BLU BLU=
201908191900 METAR LRTZ 191900Z VRB03KT 9999 SKC 21/15 Q1019 BLU BLU=
201908192000 METAR LRTZ 192000Z VRB03KT 9999 SKC 21/15 Q1019 BLU BLU=
201908192100 METAR LRTZ 192100Z VRB03KT 9999 SKC 21/15 Q1019 BLU BLU=
201908200300 METAR LRTZ 200300Z VRB03KT 9999 SKC 16/12 Q1019 BLU BLU=
201908200400 METAR LRTZ 200400Z 01004KT 9999 SKC 17/12 Q1020 BLU BLU=
201908200500 METAR LRTZ 200500Z 03005KT 9999 SKC 20/14 Q1020 BLU BLU=
201908200600 METAR LRTZ 200600Z 03006KT 9999 SKC 24/13 Q1020 BLU BLU=
201908200700 METAR LRTZ 200700Z 07008KT 9999 SKC 26/14 Q1020 BLU BLU=
201908200800 METAR LRTZ 200800Z 07008KT 9999 SKC 26/15 Q1021 BLU BLU=
201908200900 METAR LRTZ 200900Z 07008KT 9999 SKC 27/13 Q1021 BLU BLU=
201908201000 METAR LRTZ 201000Z 09010KT 9999 FEW040 27/11 Q1021 BLU BLU=
201908201100 METAR LRTZ 201100Z 09010KT 9999 FEW040 27/14 Q1021 BLU BLU=
201908201200 METAR LRTZ 201200Z 09010KT 9999 FEW040 28/13 Q1020 BLU BLU=
201908201300 METAR LRTZ 201300Z 09008KT 9999 FEW040 28/11 Q1020 BLU BLU=
201908201400 METAR LRTZ 201400Z 09008KT 9999 SKC 27/12 Q1020 BLU BLU=
201908201500 METAR LRTZ 201500Z 10008KT 9999 SKC 27/13 Q1020 BLU BLU=
201908201600 METAR LRTZ 201600Z 12005KT 9999 SKC 27/14 Q1019 BLU BLU=
201908201700 METAR LRTZ 201700Z 12005KT 9999 SKC 27/14 Q1019 BLU BLU=
201908201800 METAR LRTZ 201800Z VRB03KT 9999 SKC 22/14 Q1020 BLU BLU=
201908201900 METAR LRTZ 201900Z VRB03KT 9999 SKC 24/14 Q1020 BLU BLU=
201908202000 METAR LRTZ 202000Z VRB03KT 9999 SKC 23/15 Q1020 BLU BLU=
201908202100 METAR LRTZ 202100Z VRB03KT 9999 SKC 22/15 Q1020 BLU BLU=
201908202300 METAR LRTZ 202300Z VRB03KT 9999 SKC 21/16 Q1019 BLU BLU=
201908210200 METAR LRTZ 210200Z 32006KT 9999 FEW200 20/17 Q1019 BLU BLU=
201908210300 METAR LRTZ 210300Z 32006KT 9999 SCT050 21/14 Q1018 BLU BLU=
201908210400 METAR LRTZ 210400Z 34006KT 9999 SCT080 21/12 Q1018 BLU BLU=
201908210500 METAR LRTZ 210500Z 01008KT 9999 SCT100 23/12 Q1018 BLU BLU=
201908210600 METAR LRTZ 210600Z 03008KT BKN080 24/13 Q1018 BLU BLU=
201908210700 METAR LRTZ 210700Z 03012KT BKN080 27/16 Q1018 BLU BLU=
201908210800 METAR LRTZ 210800Z 06014KT BKN100 27/16 Q1018 BLU BLU=
201908210900 METAR LRTZ 210900Z 06014KT BKN100 27/17 Q1018 BLU BLU=
201908211000 METAR LRTZ 211000Z 06014KT 9999 SCT100 29/16 Q1018 BLU BLU=
201908211100 METAR LRTZ 211100Z 08014KT 9999 SCT200 29/16 Q1018 BLU BLU=
201908211200 METAR LRTZ 211200Z 08012KT 9999 SCT200 30/15 Q1017 BLU BLU=
201908211300 METAR LRTZ 211300Z 09012KT 9999 FEW100 BKN200 31/15 Q1017
                        BLU BLU=
201908211400 METAR LRTZ 211400Z 06012KT 9999 SCT200 30/14 Q1017 BLU BLU=
201908211500 METAR LRTZ 211500Z 06010KT 9999 SKC 29/15 Q1016 BLU BLU=
201908211600 METAR LRTZ 211600Z 09008KT 9999 SKC 28/17 Q1016 BLU BLU=
201908211700 METAR LRTZ 211700Z 06006KT 9999 SKC 26/19 Q1016 BLU BLU=
201908211800 METAR LRTZ 211800Z 03004KT 9999 SKC 26/19 Q1016 BLU BLU=
201908211900 METAR LRTZ 211900Z VRB03KT 9999 SKC 25/17 Q1017 BLU BLU=
201908212000 METAR LRTZ 212000Z VRB03KT 9999 SKC 24/17 Q1017 BLU BLU=
201908212100 METAR LRTZ 212100Z VRB03KT 9999 SKC 24/17 Q1017 BLU BLU=
201908212300 METAR LRTZ 212300Z 35008KT 9999 SKC 23/16 Q1016 BLU BLU=
201908220300 METAR LRTZ 220300Z 35006KT 9999 SCT200 22/15 Q1016 BLU BLU=
201908220400 METAR LRTZ 220400Z 36006KT 9999 BKN150 22/15 Q1017 BLU BLU=
201908220500 METAR LRTZ 220500Z 01006KT 9999 BKN100 24/14 Q1017 BLU BLU=
201908220600 METAR LRTZ 220600Z 01010KT 9999 BKN100 26/14 Q1017 BLU BLU=
201908220700 METAR LRTZ 220700Z 01012KT 9999 BKN100 28/13 Q1018 BLU BLU=
201908220800 METAR LRTZ 220800Z 03014KT 9999 SKC 31/12 Q1018 BLU BLU=
201908221000 METAR LRTZ 221000Z 04016KT 9999 SKC 31/14 Q1018 BLU BLU=
201908221100 METAR LRTZ 221100Z 06016KT 9999 SKC 31/15 Q1018 BLU BLU=
201908221200 METAR LRTZ 221200Z 06016KT 9999 FEW200 32/13 Q1018 BLU BLU=
201908221300 METAR LRTZ 221300Z 06016KT 9999 SKC 32/13 Q1018 BLU BLU=
201908221400 METAR LRTZ 221400Z 08012KT 9999 SKC 32/13 Q1018 BLU BLU=
201908221500 METAR LRTZ 221500Z 09010KT 9999 SKC 30/11 Q1018 BLU BLU=
201908221600 METAR LRTZ 221600Z 04006KT 9999 SKC 30/11 Q1017 BLU BLU=
201908221700 METAR LRTZ 221700Z 04006KT 9999 SKC 29/12 Q1018 BLU BLU=
201908221800 METAR LRTZ 221800Z 04003KT 9999 SKC 27/12 Q1018 BLU BLU=
201908221900 METAR LRTZ 221900Z 01006KT 9999 SKC 27/14 Q1019 BLU BLU=
201908222000 METAR LRTZ 222000Z 36010KT 9999 SKC 26/14 Q1019 BLU BLU=
201908222100 METAR LRTZ 222100Z 35012KT 9999 SKC 26/14 Q1019 BLU BLU=
201908222300 METAR LRTZ 222300Z 34016KT 9999 SKC 24/15 Q1019 BLU BLU=
201908230400 METAR LRTZ 230400Z 36010KT 9999 SKC 21/15 Q1019 BLU BLU=
201908230500 METAR LRTZ 230500Z 36010KT 9999 SKC 22/15 Q1020 BLU BLU=
201908230600 METAR LRTZ 230600Z 36018KT 9999 SKC 24/16 Q1020 BLU BLU=
201908230700 METAR LRTZ 230700Z 06018KT 9999 SKC 25/16 Q1020 BLU BLU=
201908230800 METAR LRTZ 230800Z 06016KT 9999 SKC 26/16 Q1020 BLU BLU=
201908230900 METAR LRTZ 230900Z 06016KT 9999 SKC 27/16 Q1020 BLU BLU=
201908231000 METAR LRTZ 231000Z 06016KT 9999 SKC 27/16 Q1020 BLU BLU=
201908231100 METAR LRTZ 231100Z 08014KT 9999 SKC 29/18 Q1020 BLU BLU=
201908231200 METAR LRTZ 231200Z 09014KT 9999 SKC 29/18 Q1019 BLU BLU=
201908231300 METAR LRTZ 231300Z 09014KT 9999 SKC 30/17 Q1019 BLU BLU=
201908231400 METAR LRTZ 231400Z 09014KT 9999 SKC 30/17 Q1019 BLU BLU=
201908231500 METAR LRTZ 231500Z 09014KT 9999 SKC 29/18 Q1019 BLU BLU=
201908231600 METAR LRTZ 231600Z 09010KT 9999 SKC 28/19 Q1019 BLU BLU=
201908231700 METAR LRTZ 231700Z 09008KT 9999 SKC 27/18 Q1019 BLU BLU=
201908231800 METAR LRTZ 231800Z VRB03KT 9999 SKC 26/18 Q1019 BLU BLU=
201908231900 METAR LRTZ 231900Z VRB03KT 9999 SKC 26/18 Q1019 BLU BLU=
201908232000 METAR LRTZ 232000Z VRB03KT 9999 SKC 25/17 Q1019 BLU BLU=
201908232300 METAR LRTZ 232300Z VRB03KT 9999 SKC 25/17 Q1020 BLU BLU=
201908240300 METAR LRTZ 240300Z 34012KT 9999 SKC 24/17 Q1019 BLU BLU=
201908240400 METAR LRTZ 240400Z 35014KT 9999 SKC 24/17 Q1020 BLU BLU=
201908240500 METAR LRTZ 240500Z 35016KT 9999 SKC 25/17 Q1020 BLU BLU=
201908240600 METAR LRTZ 240600Z 05014KT 9999 SCT070 26/17 Q1020 BLU BLU=
201908240700 METAR LRTZ 240700Z 05014KT 9999 FEW150 26/17 Q1020 BLU BLU=
201908240800 METAR LRTZ 240800Z 05014KT 9999 SKC 27/18 Q1020 BLU BLU=
201908240900 METAR LRTZ 240900Z 05014KT 9999 SKC 28/18 Q1020 BLU BLU=
201908241000 METAR LRTZ 241000Z 05012KT 9999 SKC 28/18 Q1020 BLU BLU=
201908241100 METAR LRTZ 241100Z 05012KT 9999 FEW040 28/18 Q1020 BLU BLU=
201908241200 METAR LRTZ 241200Z 05012KT 9999 FEW040 29/18 Q1020 BLU BLU=
201908241300 METAR LRTZ 241300Z 05012KT 9999 SKC 29/18 Q1019 BLU BLU=
201908241400 METAR LRTZ 241400Z 06012KT 9999 SKC 29/19 Q1019 BLU BLU=
201908241500 METAR LRTZ 241500Z 07012KT 9999 SKC 28/20 Q1019 BLU BLU=
201908241600 METAR LRTZ 241600Z 08010KT 9999 SKC 27/19 Q1019 BLU BLU=
201908241700 METAR LRTZ 241700Z 08006KT 9999 SKC 26/19 Q1019 BLU BLU=
201908241800 METAR LRTZ 241800Z VRB03KT 9999 SKC 25/19 Q1019 BLU BLU=
201908241900 METAR LRTZ 241900Z VRB03KT 9999 SKC 25/19 Q1019 BLU BLU=
201908242000 METAR LRTZ 242000Z VRB03KT 9999 SKC 24/19 Q1019 BLU BLU=
201908242300 METAR LRTZ 242300Z VRB03KT 9999 SKC 23/17 Q1019 BLU BLU=
201908250200 METAR LRTZ 250200Z VRB03KT 9999 SKC 22/16 Q1019 BLU BLU=
201908250300 METAR LRTZ 250300Z 03006KT 9999 SKC 23/15 Q1018 BLU BLU=
201908250400 METAR LRTZ 250400Z 03010KT 9999 SKC 25/17 Q1017 BLU BLU=
201908250500 METAR LRTZ 250500Z 05012KT 9999 SKC 25/18 Q1018 BLU BLU=
201908250600 METAR LRTZ 250600Z 03014KT 9999 SKC 26/20 Q1018 BLU BLU=
201908250700 METAR LRTZ 250700Z 03016KT 9999 SKC 27/20 Q1018 BLU BLU=
201908250800 METAR LRTZ 250800Z 05012KT 9999 BKN010 27/22 Q1018 GRN GRN=
201908250900 METAR LRTZ 250900Z 09014KT 9999 SCT010 27/23 Q1018 BLU BLU=
201908251000 METAR LRTZ 251000Z 09016KT 9999 FEW040 29/22 Q1019 BLU BLU=
201908251100 METAR LRTZ 251100Z 09014KT 9999 FEW200 29/22 Q1019 BLU BLU=
201908251200 METAR LRTZ 251200Z 09016KT 9999 FEW200 28/22 Q1019 BLU BLU=
201908251300 METAR LRTZ 251300Z 09016KT 9999 FEW200 28/22 Q1019 BLU BLU=
201908251400 METAR LRTZ 251400Z 09014KT 9999 FEW200 28/22 Q1019 BLU BLU=
201908251500 METAR LRTZ 251500Z 09014KT 9999 FEW200 27/22 Q1018 BLU BLU=
201908251600 METAR LRTZ 251600Z 09012KT 9999 SCT200 27/21 Q1018 BLU BLU=
201908251700 METAR LRTZ 251700Z 09010KT 9999 SCT200 25/21 Q1019 BLU BLU=
201908251800 METAR LRTZ 251800Z 09006KT 9999 SCT200 25/21 Q1019 BLU BLU=
201908251900 METAR LRTZ 251900Z 09006KT 9999 SKC 25/22 Q1019 BLU BLU=
201908252000 METAR LRTZ 252000Z 06006KT 9999 SKC 25/22 Q1019 BLU BLU=
201908252100 METAR LRTZ 252100Z 06006KT 9999 SKC 25/22 Q1019 BLU BLU=
201908252300 METAR LRTZ 252300Z 03006KT 9999 SKC 24/21 Q1019 BLU BLU=
201908260100 METAR LRTZ 260100Z 03006KT 9999 SKC 23/20 Q1019 BLU BLU=
201908260200 METAR LRTZ 260200Z 03006KT 9999 SKC 23/20 Q1019 BLU BLU=
201908260300 METAR LRTZ 260300Z 03008KT 9999 SKC 24/20 Q1019 BLU BLU=
201908260400 METAR LRTZ 260400Z 03006KT 9999 SKC 24/20 Q1019 BLU BLU=
201908260500 METAR LRTZ 260500Z 06010KT 9999 SKC 25/20 Q1020 BLU BLU=
201908260600 METAR LRTZ 260600Z 06010KT 9999 SKC 27/21 Q1020 BLU BLU=
201908260700 METAR LRTZ 260700Z 06010KT 9999 SKC 28/21 Q1020 BLU BLU=
201908260900 METAR LRTZ 260900Z 09012KT 9999 SKC 29/21 Q1021 BLU BLU=
201908261000 METAR LRTZ 261000Z 06012KT 9999 FEW040 29/20 Q1021 BLU BLU=
201908261100 METAR LRTZ 261100Z 06014KT 9999 FEW040 29/20 Q1021 BLU BLU=
201908261200 METAR LRTZ 261200Z 06014KT 9999 FEW040 29/20 Q1021 BLU BLU=
201908261300 METAR LRTZ 261300Z 06012KT 9999 FEW040 29/18 Q1020 BLU BLU=
201908261400 METAR LRTZ 261400Z 06010KT 9999 FEW040 28/19 Q1020 BLU BLU=
201908261500 METAR LRTZ 261500Z 06012KT 9999 FEW040 27/20 Q1020 BLU BLU=
201908261600 METAR LRTZ 261600Z 06010KT 9999 SKC 26/20 Q1019 BLU BLU=
201908261700 METAR LRTZ 261700Z 06008KT 9999 SKC 25/20 Q1019 BLU BLU=
201908261800 METAR LRTZ 261800Z 06008KT 9999 SKC 25/20 Q1019 BLU BLU=
201908261900 METAR LRTZ 261900Z 06004KT 9999 SKC 24/20 Q1020 BLU BLU=
201908262000 METAR LRTZ 262000Z 03004KT 9999 SKC 24/20 Q1020 BLU BLU=
201908262300 METAR LRTZ 262300Z 03004KT 9999 SKC 22/20 Q1020 BLU BLU=
201908270100 METAR LRTZ 270100Z 03004KT 9999 SKC 21/19 Q1020 BLU BLU=
201908270300 METAR LRTZ 270300Z 03006KT 9999 SKC 20/15 Q1019 BLU BLU=
201908270400 METAR LRTZ 270400Z 03006KT 9999 SCT100 20/14 Q1019 BLU BLU=
201908270500 METAR LRTZ 270500Z 03006KT 9999 SCT100 22/14 Q1019 BLU BLU=
201908270600 METAR LRTZ 270600Z 06010KT 9999 SCT100 25/18 Q1020 BLU BLU=
201908270700 METAR LRTZ 270700Z 06012KT 9999 SCT100 26/20 Q1020 BLU BLU=
201908270800 METAR LRTZ 270800Z 07014KT 9999 SCT100 SCT200 28/20 Q1020
                        BLU BLU=
201908270900 METAR LRTZ 270900Z 09014KT 9999 FEW100 SCT160 28/22 Q1020
                        BLU BLU=
201908271100 METAR LRTZ 271100Z 08012KT 9999 FEW040 30/17 Q1020 BLU BLU=
201908271200 METAR LRTZ 271200Z 09012KT 9999 FEW040 30/16 Q1020 BLU BLU=
201908271300 METAR LRTZ 271300Z 09014KT 9999 FEW040 29/18 Q1020 BLU BLU=
201908271400 METAR LRTZ 271400Z 09012KT 9999 FEW040 28/17 Q1020 BLU BLU=
201908271500 METAR LRTZ 271500Z 12014KT 9999 SKC 28/17 Q1020 BLU BLU=
201908271600 METAR LRTZ 271600Z 12008KT 9999 SKC 26/20 Q1020 BLU BLU=
201908271700 METAR LRTZ 271700Z 12004KT 9999 SKC 25/20 Q1019 BLU BLU=
201908271800 METAR LRTZ 271800Z 09003KT 9999 SKC 23/21 Q1020 BLU BLU=
201908271900 METAR LRTZ 271900Z 06003KT 9999 SKC 24/21 Q1020 BLU BLU=
201908272000 METAR LRTZ 272000Z VRB03KT 9999 SKC 23/20 Q1020 BLU BLU=
201908272100 METAR LRTZ 272100Z VRB03KT 9999 SKC 22/20 Q1020 BLU BLU=
201908272300 METAR LRTZ 272300Z VRB03KT 9999 SKC 20/18 Q1020 BLU BLU=
201908280200 METAR LRTZ 280200Z VRB03KT 9999 SKC 18/16 Q1021 BLU WHT=
201908280500 METAR LRTZ 280500Z 01006KT 9999 SKC 20/17 Q1021 BLU BLU=
201908280600 METAR LRTZ 280600Z 01008KT 9999 SKC 24/18 Q1021 BLU BLU=
201908280700 METAR LRTZ 280700Z 06010KT 9999 SKC 27/13 Q1021 BLU BLU=
201908280800 METAR LRTZ 280800Z 06012KT 9999 SKC 27/13 Q1021 BLU BLU=
201908280900 METAR LRTZ 280900Z 06012KT 9999 SKC 27/18 Q1021 BLU BLU=
201908281000 METAR LRTZ 281000Z 06012KT 9999 SKC 28/20 Q1020 BLU BLU=
201908281100 METAR LRTZ 281100Z 06012KT 9999 SKC 28/20 Q1020 BLU BLU=
201908281200 METAR LRTZ 281200Z 06014KT 9999 SKC 27/20 Q1020 BLU BLU=
201908281300 METAR LRTZ 281300Z 06014KT 9999 SKC 28/21 Q1019 BLU BLU=
201908281400 METAR LRTZ 281400Z 06014KT 9999 SKC 27/21 Q1019 BLU BLU=
201908281500 METAR LRTZ 281500Z 06014KT 9999 SKC 26/20 Q1019 BLU BLU=
201908281600 METAR LRTZ 281600Z 06014KT 9999 SKC 26/19 Q1019 BLU BLU=
201908281700 METAR LRTZ 281700Z 09008KT 9999 SKC 25/19 Q1019 BLU BLU=
201908281800 METAR LRTZ 281800Z 09004KT 9999 SKC 23/19 Q1019 BLU BLU=
201908281900 METAR LRTZ 281900Z VRB03KT 9999 SKC 23/18 Q1020 BLU BLU=
201908282000 METAR LRTZ 282000Z VRB03KT 9999 SKC 23/18 Q1020 BLU BLU=
201908282300 METAR LRTZ 282300Z VRB03KT 9999 SKC 22/18 Q1019 BLU BLU=
201908290300 METAR LRTZ 290300Z VRB03KT 5000 BR SKC 17/16 Q1019 WHT WHT=
201908290400 METAR LRTZ 290400Z VRB03KT 5000 BR SKC 17/16 Q1019 WHT WHT=
201908290500 METAR LRTZ 290500Z 05006KT 7000 SKC 20/18 Q1019 WHT BLU=
201908290600 METAR LRTZ 290600Z 05006KT 9999 SKC 24/18 Q1019 BLU BLU=
201908290700 METAR LRTZ 290700Z 05008KT 9999 SKC 25/19 Q1019 BLU BLU=
201908290800 METAR LRTZ 290800Z 05010KT 9999 SKC 26/15 Q1019 BLU BLU=
201908290900 METAR LRTZ 290900Z 05010KT 9999 SKC 27/14 Q1019 BLU BLU=
201908291000 METAR LRTZ 291000Z 06012KT 9999 SKC 28/12 Q1019 BLU BLU=
201908291100 METAR LRTZ 291100Z 06012KT 9999 FEW090 29/10 Q1019 BLU BLU=
201908291200 METAR LRTZ 291200Z 09012KT 9999 FEW090 29/11 Q1019 BLU BLU=
201908291300 METAR LRTZ 291300Z 12010KT 9999 FEW090 28/14 Q1019 BLU BLU=
201908291400 METAR LRTZ 291400Z 12010KT 9999 FEW090 28/16 Q1018 BLU BLU=
201908291500 METAR LRTZ 291500Z 12008KT 9999 SKC 27/15 Q1018 BLU BLU=
201908291600 METAR LRTZ 291600Z 12006KT 9999 SKC 26/17 Q1018 BLU BLU=
201908291700 METAR LRTZ 291700Z VRB03KT 9999 SKC 25/20 Q1018 BLU BLU=
201908291800 METAR LRTZ 291800Z VRB03KT 9999 SKC 23/19 Q1018 BLU BLU=
201908291900 METAR LRTZ 291900Z VRB03KT 9999 SKC 23/19 Q1018 BLU BLU=
201908292000 METAR LRTZ 292000Z 00000KT 9999 SKC 23/19 Q1018 BLU BLU=
201908292100 METAR LRTZ 292100Z 00000KT 9999 SKC 22/19 Q1018 BLU BLU=
201908292200 METAR LRTZ 292200Z 00000KT 9999 SKC 22/19 Q1018 BLU BLU=
201908292300 METAR LRTZ 292300Z 00000KT 9999 SKC 21/19 Q1018 BLU BLU=
201908300200 METAR LRTZ 300200Z VRB03KT 8000 SKC 21/19 Q1018 BLU WHT=
201908300300 METAR LRTZ 300300Z VRB03KT 9999 FEW015 20/17 Q1018 BLU BLU=
201908300400 METAR LRTZ 300400Z VRB03KT 9999 FEW020 20/18 Q1018 BLU BLU=
201908300500 METAR LRTZ 300500Z VRB03KT 9999 FEW020 21/19 Q1018 BLU BLU=
201908300600 METAR LRTZ 300600Z 09008KT 9999 SCT025 25/20 Q1018 BLU BLU=
201908300700 METAR LRTZ 300700Z 09010KT 9999 FEW025 SCT200 27/13 Q1019
                        BLU BLU=
201908300800 METAR LRTZ 300800Z 09012KT 9999 FEW025 SCT200 26/16 Q1019
                        BLU BLU=
201908300900 METAR LRTZ 300900Z 09014KT 9999 FEW025 26/14 Q1020 BLU BLU=
201908301000 METAR LRTZ 301000Z 09014KT 9999 FEW030 26/15 Q1020 BLU BLU=
201908301100 METAR LRTZ 301100Z 09014KT 9999 FEW035 26/15 Q1020 BLU BLU=
201908301200 METAR LRTZ 301200Z 09012KT 9999 FEW035 SCT200 26/13 Q1020
                        BLU BLU=
201908301300 METAR LRTZ 301300Z 09014KT 9999 FEW035 SCT200 26/12 Q1019
                        BLU BLU=
201908301400 METAR LRTZ 301400Z 09014KT 9999 FEW200 25/13 Q1019 BLU BLU=
201908301500 METAR LRTZ 301500Z 09010KT 9999 FEW200 25/12 Q1019 BLU BLU=
201908301600 METAR LRTZ 301600Z 09010KT 9999 SKC 24/12 Q1018 BLU BLU=
201908301700 METAR LRTZ 301700Z 09006KT 9999 SKC 23/12 Q1019 BLU BLU=
201908301800 METAR LRTZ 301800Z 09004KT 9999 SKC 22/11 Q1019 BLU BLU=
201908301900 METAR LRTZ 301900Z VRB03KT 9999 SKC 22/11 Q1019 BLU BLU=
201908302200 METAR LRTZ 302200Z VRB03KT 9999 SKC 21/11 Q1019 BLU BLU=
201908310300 METAR LRTZ 310300Z 01006KT 9999 SKC 16/11 Q1017 BLU BLU=
201908310400 METAR LRTZ 310400Z 36006KT 9999 SKC 16/10 Q1018 BLU BLU=
201908310500 METAR LRTZ 310500Z 01008KT 9999 SKC 19/11 Q1018 BLU BLU=
201908310600 METAR LRTZ 310600Z 01010KT 9999 SKC 23/10 Q1018 BLU BLU=
201908310700 METAR LRTZ 310700Z 06014KT 9999 SKC 24/14 Q1018 BLU BLU=
201908310800 METAR LRTZ 310800Z 06014KT 9999 SKC 25/14 Q1018 BLU BLU=
201908310900 METAR LRTZ 310900Z 06014KT 9999 SKC 26/16 Q1018 BLU BLU=
201908311000 METAR LRTZ 311000Z 06014KT 9999 FEW040 26/17 Q1018 BLU BLU=
201908311100 METAR LRTZ 311100Z 06014KT 9999 FEW035 27/15 Q1018 BLU BLU=
201908311200 METAR LRTZ 311200Z 06014KT 9999 FEW035 27/15 Q1018 BLU BLU=
201908311300 METAR LRTZ 311300Z 06014KT 9999 SKC 27/15 Q1017 BLU BLU=
201908311400 METAR LRTZ 311400Z 06014KT 9999 SKC 27/15 Q1017 BLU BLU=
201908311500 METAR LRTZ 311500Z 06014KT 9999 SKC 25/15 Q1017 BLU BLU=
201908311600 METAR LRTZ 311600Z 06010KT 9999 SKC 24/16 Q1016 BLU BLU=
201908311700 METAR LRTZ 311700Z 06008KT 9999 SKC 24/15 Q1016 BLU BLU=
201908311800 METAR LRTZ 311800Z 06006KT 9999 SKC 23/14 Q1016 BLU BLU=
201908311900 METAR LRTZ 311900Z 06004KT 9999 SKC 22/14 Q1016 BLU BLU=
201908312000 METAR LRTZ 312000Z VRB03KT 9999 SKC 22/14 Q1016 BLU BLU=
201908312300 METAR LRTZ 312300Z VRB03KT 9999 SKC 21/14 Q1016 BLU BLU=
