201908010500 TAF LRTZ 010500Z 0106/0206 06010KT 9999 SCT060 BKN150
                      BECMG 0107/0109 6000 SHRA BKN015 BKN025CB
                       OVC040
                      TEMPO 0108/0112 VRB10G20 4000 TSRA
                      BECMG 0118/0120 VRB03KT 9999 BKN050
                      PROB30 TEMPO 0201/0203 0800 FG=
201908011700 TAF LRTZ 011700Z 0118/0218 VRB03KT 9999 SCT060 BKN100
                      BECMG 0204/0206 03008KT
                      PROB40 TEMPO 0208/0214 34010KT -SHRA SCT050CB
                       BKN100=
201908012300 TAF LRTZ 012300Z 0200/0300 34008KT 9999 BKN060
                      PROB40 TEMPO 0208/0214 34010KT -SHRA SCT050CB
                       BKN100
                      BECMG 0206/0208 SCT070=
201908020500 TAF LRTZ 020500Z 0206/0306 34010KT 9999 SKC
                      TEMPO 0210/0216 06010KT SCT050
                      PROB30 TEMPO 0211/0214 SCT040TCU
                      BECMG 0218/0220 SCT100 BKN200=
201908021100 TAF LRTZ 021100Z 0212/0312 15012KT 9999 BKN030
                      BECMG 0218/0220 21010KT SCT200
                      BECMG 0305/0307 SCT030 BKN100
                      TEMPO 0309/0311 5000 SHRA BKN025CB BKN070=
201908021700 TAF LRTZ 021700Z 0218/0318 21010KT SCT200
                      BECMG 0305/0307 SCT030 BKN100
                      TEMPO 0309/0315 5000 SHRA BKN025CB=
201908022300 TAF LRTZ 022300Z 0300/0400 18008KT SCT200
                      PROB30 TEMPO 0302/0305 4000 BR
                      BECMG 0306/0308 SCT030 BKN100
                      TEMPO 0309/0315 5000 SHRA BKN025CB BKN090
                       BECMG 30020G30KT BKN020 BKN070=
201908030500 TAF LRTZ 030500Z 0306/0406 20012KT SCT030 BKN100
                      TEMPO 0309/0315 3000 TSRA SCT010 BKN025CB
                       BKN080
                      BECMG 0318/0320 30025G35KT BKN015 BKN050=
201908031100 TAF LRTZ 031100Z 0312/0412 18012G24KT BKN050 BKN100
                      PROB30 TEMPO 0315/0320 3000 TSRA BR SCT010
                       BKN025CB BKN080
                      BECMG 0318/0320 30025G35KT BKN040 BKN100=
201908031700 TAF LRTZ 031700Z 0318/0418 33014KT 9999 BKN035 BKN100
                      TEMPO 0400/04046 33020G30KT
                      BECMG 0413/0415 SCT100=
201908032300 TAF LRTZ 032300Z 0400/0500 33018KT 9999 BKN020 BKN050
                      TEMPO 0401/0406 33020G30KT
                      BECMG 0413/0415 SCT100
                      BECMG 0416/0418 36008KT=
201908040500 TAF LRTZ 040500Z 0406/0506 33020KT 9999 FEW020 SCT100
                      BECMG 0416/0418 36008KT=
201908041100 TAF LRTZ 041100Z 0412/0512 36015G25KT 9999 BKN035
                      BECMG 0416/0418 33010KT SCT100 ,
                      BECMG 0506/0508 06012KT SCT030=
201908041700 TAF LRTZ 041700Z 0418/0518 33008KT 9999 SCT100
                      BECMG 0506/0508 06010KT
                      TEMPO 0508/0514 SCT030
                      BECMG 0514/0516 15010KT=
201908050500 TAF LRTZ 050500Z 0506/0606 03012KT 9999 SCT100
                      TEMPO 0508/0514 SCT030
                      BECMG 0514/0516 15010KT
                      BECMG 0516/0518 30006KT SKC
                      PROB30 TEMPO 0602/0606 5000 BR=
201908051100 TAF LRTZ 051100Z 0512/0612 15012KT 9999 SKC
                      TEMPO 0512/0514 SCT030
                      BECMG 0517/0519 VRB03KT
                      PROB30 TEMPO 0602/0606 5000 BR
                      BECMG 0606/0608 18012KT
                      TEMPO 0608/0612 SCT035=
201908051700 TAF LRTZ 051700Z 0518/0618 VRB03KT 9999 SKC
                      PROB30 TEMPO 0602/0606 5000 BR
                      BECMG 0606/0608 18012KT
                      TEMPO 0608/0614 SCT035=
201908052300 TAF LRTZ 052300Z 0600/0700 VRB03KT 9999 SKC
                      PROB30 TEMPO 0602/0606 5000 BR
                      BECMG 0606/0608 18012KT
                      TEMPO 0608/0614 SCT035
                      BECMG 0618/0620 VRB03KT=
201908060500 TAF LRTZ 060500Z 0600/0700 03012KT 9999 SKC
                      TEMPO 0608/0614 SCT035
                      BECMG 0612/0614 18012KT
                      BECMG 0618/0620 VRB03KT
                      PROB30 TEMPO 0702/0705 5000 BR=
201908061100 TAF LRTZ 061100Z 0612/0712 12014KT 9999 SCT035
                      BECMG 0618/0620 VRB03KT SKC
                      BECMG 0707/0710 16012KT SCT035=
201908061700 TAF LRTZ 061700Z 0618/0718 20006KT 9999 SCT100
                      BECMG 0619/0621 VRB03KT
                      BECMG 0709/0711 16014KT SCT040=
201908062300 TAF LRTZ 062300Z 0700/0800 VRB03KT 9999 SKC
                      BECMG 0708/0710 16014KT
                      TEMPO 0709/0715 SCT040
                      BECMG 0718/0720 16004KT=
201908070500 TAF LRTZ 070500Z 0706/0806 23008KT 9999 SKC
                      BECMG 0707/0709 16008KT
                      TEMPO 0709/0715 SCT040
                      TEMPO 0712/0718 16018KT=
201908071100 TAF LRTZ 071100Z 0712/0812 18020KT 9999 SCT040 BNK200
                      BECMG 0718/0720 18010KT SKC
                      BECMG 0806/0808 12016KT
                      BECMG 0808/0810 SCT040=
201908071700 TAF LRTZ 071700Z 0718/0818 18010KT 9999 SKC
                      PROB30 TEMPO 0802/0806 5000 BR BKN015
                      BECMG 0806/0808 12016KT
                      TEMPO 0809/0815 SCT040=
201908072300 TAF LRTZ 072300Z 0800/0900 18010KT 9999 SKC
                      PROB30 TEMPO 0802/0806 5000 BR BKN015
                      BECMG 0806/0808 12016KT
                      TEMPO 0809/0815 SCT040=
201908080500 TAF LRTZ 080500Z 0806/0906 21010KT 9999 SKC
                      TEMPO 0809/0815 15010G20KT SCT040
                      PROB30 TEMPO 0900/0904 VRB03KT 3000 BR=
201908081100 TAF LRTZ 081100Z 0812/0912 16016KT 9999 SKC
                      BECMG 0817/0819 21010KT SCT200
                      PROB30 TEMPO 0900/0904 VRB03KT 3000 BR=
201908081700 TAF LRTZ 081700Z 0818/0918 21010KT 9999 SCT200
                      PROB30 TEMPO 0900/0904 VRB03KT 3000 BR
                      TEMPO 0909/0915 15012KT SCT035=
201908082300 TAF LRTZ 082300Z 0900/1000 21010KT 9999 SCT200
                      PROB30 TEMPO 0900/0904 VRB03KT 3000 BR
                      TEMPO 0909/0915 15012KT SCT035
                      BECMG 0918/0920 VRB03KT SKC=
201908090500 TAF LRTZ 090500Z 0906/1006 15010KT 9999 SCT200
                      TEMPO 0909/0915 SCT040
                      BECMG 0918/0920 VRB03KT SKC=
201908091100 TAF LRTZ 091100Z 0912/1012 15012KT 9999 BKN200
                      BECMG 0916/0918 VRB03KT SKC
                      TEMPO 1002/1005 4000 BR
                      BECMG 1005/1007 06012KT=
201908091700 TAF LRTZ 091700Z 0918/1018 21006KT 9999 SKC
                      TEMPO 1002/1005 4000 BR
                      BECMG 1005/1007 06012KT
                      TEMPO 1008/1013 SCT035=
201908092300 TAF LRTZ 092300Z 1000/1100 21006KT 9999 SKC
                      TEMPO 1002/1005 4000 BR
                      BECMG 1005/1007 06012KT
                      TEMPO 1008/1013 SCT035
                      BECMG 1015/1017 24006KT=
201908100500 TAF LRTZ 100500Z 1006/1106 06012KT 9999 SKC
                      TEMPO 1008/1013 SCT035
                      BECMG 1015/1017 24006KT=
201908101100 TAF LRTZ 101100Z 1012/1112 09012KT 9999 SCT035
                      BECMG 1018/1020 21006KT SKC
                      TEMPO 1100/1106 VRB03KT
                      BECMG 1108/1110 09014KT SCT035=
201908101700 TAF LRTZ 101700Z 1018/1118 18004KT 9999
                      TEMPO 1100/1106 VRB03KT
                      BECMG 1104/1106 33008KT
                      TEMPO 1108/1114 12012KT SCT035=
201908110500 TAF LRTZ 110500Z 1106/1206 33008KT 9999 SKC
                      TEMPO 1109/1115 12012KT SCT035
                      BECMG 1116/1118 18006KT
                      BECMG 1202/1204 5000 BR
                      PROB40 TEMPO 1104/1106 VRB03KT 0800 FG BKN005=
201908111100 TAF LRTZ 111100Z 1112/1212 15012KT 9999 SKC
                      BECMG 1116/1118 21004KT
                      BECMG 1206/1208 06010KT=
201908111700 TAF LRTZ 111700Z 1118/1218 21006KT 9999 SKC
                      PROB30 TEMPO 1202/1204 5000 BR
                      BECMG 1206/1208 06010KT
                      BECMG 1211/1213 12012KT=
201908112300 TAF LRTZ 112300Z 1200/1300 VRB03KT 9999 SKC
                      PROB30 TEMPO 1202/1204 5000 BR
                      BECMG 1206/1208 06010KT
                      BECMG 1211/1213 12012KT=
201908120500 TAF LRTZ 120500Z 1206/1306 06010KT 9999 SKC
                      BECMG 1211/1213 12012KT
                      BECMG 1216/1218 VRB03KT=
201908121100 TAF LRTZ 121100Z 1212/1312 12012KT 9999 SKC
                      BECMG 1223/1301 06010KT
                      PROB30 TEMPO 1302/1305 VRB02KT 4000 BR=
201908121700 TAF LRTZ 121700Z 1218/1318 12008KT 9999 SKC
                      BECMG 1223/1301 04010KT
                      PROB30 TEMPO 1302/1305 VRB02KT 4000 BR=
201908122300 TAF LRTZ 122300Z 1300/1400 06002KT 9999 SKC
                      PROB30 TEMPO 1302/1305 VRB02KT 4000 BR=
201908130500 TAF LRTZ 130500Z 1306/1406 06012KT 9999 SKC
                      PROB30 TEMPO 1402/1405 VRB02KT 4000 BR=
201908131700 TAF LRTZ 131700Z 1318/1418 07012KT 9999 SKC
                      PROB30 TEMPO 1402/1405 VRB02KT 4000 BR=
201908132300 TAF LRTZ 132300Z 1400/1500 VRB03KT 9999 SKC
                      PROB30 TEMPO 1402/1405 4000 BR
                      BECMG 1406/1408 06010KT
                      BECMG 14201422 33014KT=
201908140500 TAF LRTZ 140500Z 1406/1506 06012KT 9999 SKC
                      BECMG 14161418 VRB03KT 5000 BR
                      PROB30 TEMPO 1502/1504 0800 FG VV003
                      BECMG 15004/1506 34014KT 9999=
201908141100 TAF LRTZ 141100Z 1412/1512 06010KT 9999 SKC
                      BECMG 1416/1418 VRB03KT SCT070
                      PROB30 TEMPO 1502/1504 0800 FG BKN005
                      BECMG 1504/1506 35014KT 9999 SCT030=
201908141700 TAF LRTZ 141700Z 1418/1518 13008KT 9999 SKC
                      PROB30 TEMPO 1502/1504 VRB03KT 0800 FG BKN005
                       BECMG 1504/1506 35014KT SCT030=
201908150500 TAF LRTZ 150500Z 1506/1606 36016KT 9999 BKN100
                      TEMPO 1508/1513 SCT030
                      BECMG 1513/1515 06010KT
                      BECMG 1516/1518 03012G22KT BKN030=
201908151100 TAF LRTZ 151100Z 1512/1612 06012KT 9999 FEW050 BKN200
                      BECMG 1516/1518 33012G22KT SCT030 BKN100
                       PROB30
                      TEMPO 1602/1606 5000 SHRA BR SCT020 BKN035CB
                       BECMG 1606/1608 36010KT SCT100=
201908151700 TAF LRTZ 151700Z 1518/1618 06012KT 9999 FEW100 BKN200
                      BECMG 1519/1521 33016KT SCT040 BKN100
                      PROB30 TEMPO 1602/1606 5000 SHRA BR SCT020
                       BKN035CB
                      BECMG 1606/1608 03010KT SCT100=
201908152300 TAF LRTZ 152300Z 1600/1700 33012KT 9999 SCT040 BKN100
                      PROB30 TEMPO 1603/1606 5000 SHRA BR SCT020
                       BKN035CB
                      BECMG 1606/1608 03010KT SCT100=
201908160500 TAF LRTZ 160500Z 1606/1706 33012KT 9999 BKN100
                      PROB30 TEMPO 1607/1609 5000 SHRA BR SCT020
                       BKN035CB
                      PROB30 TEMPO 1611/1615 SCT035CB
                      BECMG 1616/1618 VRB03KT SCT200=
201908161700 TAF LRTZ 161700Z 1618/1718 VRB03KT 9999 BKN100
                      BECMG 1620/1622 SCT100
                      BECMG 1702/1704 03010KT
                      TEMPO 1708/1714 SCT030=
201908162300 TAF LRTZ 162300Z 1700/1800 VRB03KT 9999 SCT100
                      BECMG 1702/1704 03010KT
                      BECMG 1708/1710 BKN040
                      PROB30 TEMPO 1711/1713 8000 RA BKN020
                      BECMG 1718/1720 SCT200=
201908170500 TAF LRTZ 170500Z 1706/1806 35010KT 9999 FEW100 SCT200
                      BECMG 1708/1710 BKN100
                      PROB30 TEMPO 1711/1713 8000 RA BKN020
                      BECMG 1800/1802 SCT200=
201908171100 TAF LRTZ 171100Z 1712/1812 07014KT 9999 SCT050 BKN200
                      BECMG 1716/1718 VRB03KT SCT200
                      BECMG 1805/1807 06012KT=
201908171700 TAF LRTZ 171700Z 1718/1818 VRB03KT 9999 SCT200
                      BECMG 1805/1807 06012KT=
201908172300 TAF LRTZ 172300Z 1800/1900 33008KT 9999 SCT200
                      BECMG 1805/1807 06012KT
                      TEMPO 1808/1814 SCT050
                      BECMG 1815/1817 VRB03KT SKC=
201908180500 TAF LRTZ 180500Z 1806/1906 06012KT 9999 SKC
                      TEMPO 1808/1814 SCT050
                      BECMG 1815/1817 VRB03KT=
201908181100 TAF LRTZ 181100Z 1812/1912 06012KT 9999 SKC
                      TEMPO 1812/1814 SCT050
                      BECMG 1815/1817 VRB03KT
                      BECMG 1905/1907 06012KT=
201908181700 TAF LRTZ 181700Z 1818/1918 VRB03KT 9999 SKC
                      PROB30 1902/1905 5000 BR
                      BECMG 1905/1907 06012KT
                      TEMPO 1909/1915 SCT040=
201908182300 TAF LRTZ 182300Z 1900/2000 VRB03KT 9999 SKC
                      PROB30 1902/1905 5000 BR
                      BECMG 1905/1907 06012KT
                      TEMPO 1909/1915 SCT040
                      BECMG 1917/1919 VRB03KT=
201908190500 TAF LRTZ 190500Z 1906/2006 06012KT 9999 SKC
                      TEMPO 1909/1915 SCT040
                      BECMG 1917/1919 VRB03KT=
201908191100 TAF LRTZ 191100Z 1912/2012 12010KT 9999 SKC
                      BECMG 1917/1919 VRB03KT
                      PROB30 2002/1205 5000 BR
                      BECMG 2006/2008 06012KT=
201908201700 TAF LRTZ 201700Z 2018/2118 VRB03KT 9999
                      BECMG 2103/2105 32008KT SCT200=
201908202300 TAF LRTZ 202300Z 2100/2200 VRB03KT 9999
                      BECMG 2103/2105 32008KT SCT200=
201908210500 TAF LRTZ 210500Z 2106/2206 03012KT 9999 SCT100
                      BECMG 2114/2116 VRB03KT SCT200=
201908211100 TAF LRTZ 211100Z 2112/2212 08012KT 9999 SCT200
                      BECMG 2116/2118 VRB03KT
                      BECMG 2121/2123 33014KT=
201908211700 TAF LRTZ 211700Z 2118/2218 06008KT 9999 SKC
                      BECMG 2121/2123 33014KT
                      TEMPO 2208/2214 SCT035=
201908212300 TAF LRTZ 212300Z 2118/2218 330012KT 9999 SKC
                      TEMPO 2208/2214 SCT035
                      BECMG 2214/2216 03006KT
                      BECMG 2220/2222 33016KT=
201908220500 TAF LRTZ 220500Z 2206/2306 030010KT 9999 SKC
                      TEMPO 2208/2214 SCT035
                      BECMG 2214/2216 03006KT
                      BECMG 2220/2222 33016KT=
201908221100 TAF LRTZ 221100Z 2212/2312 06016KT 9999 SKC
                      TEMPO 2216/2220 06006KT
                      BECMG 2221/2223 35015G25KT
                      TEMPO 2308/2312 SCT035=
201908221700 TAF LRTZ 221700Z 2218/2318 06004KT 9999 SKC
                      BECMG 2221/2223 35015G25KT
                      TEMPO 2308/2312 SCT035=
201908231100 TAF LRTZ 231100Z 2312/2412 09014KT 9999 SKC
                      BECMG 2316/2318 VRB03KT
                      BECMG 2400/2402 33016KT=
201908231700 TAF LRTZ 231700Z 2318/2418 VRG03KT 9999 SKC
                      BECMG 2400/2402 33016KT
                      BECMG 2406/2408 04014KT=
201908232300 TAF LRTZ 232300Z 2400/2500 VRG03KT 9999 SKC
                      TEMPO 2400/2406 33016KT
                      BECMG 2406/2408 04014KT
                      PROB30 TEMPO 2409/2414 SCT040
                      BECMG 2417/2419 VRB03KT=
201908240500 TAF LRTZ 240500Z 2406/2506 06016KT 9999 SKC
                      TEMPO 2409/2413 SCT150
                      BECMG 2417/2419 VRB03KT=
201908241100 TAF LRTZ 241100Z 2412/2512 06016KT 9999 SKC
                      TEMPO 2412/2416 SCT040
                      BECMG 2418/2420 36008KT=
201908241700 TAF LRTZ 241700Z 2418/2518 08006KT 9999 SKC
                      BECMG 2420/2422 VRB03KT
                      TEMPO 2510/2516 FEW040=
201908242300 TAF LRTZ 242300Z 2500/2600 VRB03KT 9999 SKC
                      BECMG 2508/2510 06008KT
                      TEMPO 2510/2516 FEW040=
201908250500 TAF LRTZ 250500Z 2506/2606 05014KT 9999 SKC
                      TEMPO 2510/2516 FEW040=
201908251100 TAF LRTZ 251100Z 2512/2612 09014KT 9999 FEW200
                      BECMG 2516/2518 SKC=
201908251700 TAF LRTZ 251700Z 2518/2618 09008KT 9999 SCT200
                      BECMG 2601/2603 03014KT
                      TEMPO 2610/2616 FEW040=
201908252300 TAF LRTZ 252300Z 2600/2700 09008KT 9999 SCT200
                      BECMG 2606/2608 06016KT
                      TEMPO 2608/2614 SCT035=
201908260500 TAF LRTZ 260500Z 2606/2706 06010KT 9999 SKC
                      BECMG 2607/2609 06016KT
                      TEMPO 2608/2614 SCT035
                      BECMG 2617/2619 03006KT=
201908261100 TAF LRTZ 261100Z 2612/2712 06016KT 9999 SKC
                      TEMPO 2612/2615 SCT035
                      TEMPO 2618/2622 36008KT
                      BECMG 2709/2711 SCT030=
201908261700 TAF LRTZ 261700Z 2618/2718 06006KT 9999 SKC
                      BECMG 2706/2708 06016KT
                      TEMPO 2712/2716 SCT035=
201908262300 TAF LRTZ 262300Z 2700/2800 06004KT 9999 SKC
                      BECMG 2706/2708 06016KT
                      TEMPO 2712/2716 SCT035
                      BECMG 2720/2722 06004KT=
201908270500 TAF LRTZ 270500Z 2706/2806 06006KT 9999 SCT100
                      BECMG 2710/2712 06016KT SCT030
                      BECMG 2718/2720 03006KT SCT100
                      PROB30 TEMPO 2723/2803 VRB03KT 5000 BR=
201908271100 TAF LRTZ 271100Z 2712/2812 09016KT 9999 SCT035
                      BECMG 2718/2720 VRB03KT SKC
                      PROB30 TEMPO 2800/2804 5000 BR
                      BECMG 2806/2808 06014KT SCT100=
201908271700 TAF LRTZ 271700Z 2718/2818 VRB03KT 9999 SKC
                      PROB40 TEMPO 2800/2804 5000 BR
                      BECMG 2806/2808 06014KT SCT100=
201908272300 TAF LRTZ 272300Z 2800/2900 VRB03KT 9999 SKC
                      PROB30 TEMPO 2802/2805 5000 BR
                      BECMG 2806/2808 06014KT
                      TEMPO 2810/2814 SCT030
                      BECMG 2815/2817 03004KT=
201908280500 TAF LRTZ 280500Z 2806/2906 03014KT 9999 SKC
                      TEMPO 2810/2814 SCT030
                      BECMG 2815/2817 03004KT
                      PROB30 TEMPO 2902/2805 5000 BR=
201908281100 TAF LRTZ 281100Z 2812/2912 03014KT 9999 SKC
                      BECMG 2815/2817 VRB03KT
                      PROB30 TEMPO 2902/2905 5000 BR
                      BECMG 2905/2907 05014KT=
201908281700 TAF LRTZ 281700Z 2818/2918 VRB03KT 9999 SKC
                      PROB30 TEMPO 2902/2905 5000 BR
                      BECMG 2905/2907 05014KT=
201908282300 TAF LRTZ 282300Z 2900/3000 VRB03KT 9999 SKC
                      PROB30 TEMPO 2902/2905 5000 BR
                      BECMG 2905/2907 05014KT=
201908290500 TAF LRTZ 290500Z 2906/3006 05012KT 9999 SKC
                      BECMG 2917/2919 VRB03KT
                      PROB30 TEMPO 3002/3004 0800 FG VV003=
201908291100 TAF LRTZ 291100Z 2912/3012 05012KT 9999 SKC
                      TEMPO 2912/2918 FEW040 SCT100
                      BECMG 2919/2921 VRB03KT
                      PROB30 TEMPO 3002/3004 0800 FG VV003=
201908291700 TAF LRTZ 291700Z 2918/3018 VRB03KT 9999 SKC
                      PROB30 TEMPO 3002/3004 4000 BR FEW010=
201908292300 TAF LRTZ 292300Z 3000/3100 VRB03KT 9999 SKC
                      PROB30 TEMPO 3002/3004 4000 BR FEW010
                      BECMG 3006/3008 05010KT=
201908300500 TAF LRTZ 300500Z 3006/3106 06010KT 9999 SKC
                      TEMPO 3006/3008 36006KT SCT070
                      BECMG 3018/3020 VRB03KT
                      PROB30 TEMPO 3102/3104 4000 BR FEW010=
201908301100 TAF LRTZ 301100Z 3012/3112 09014KT 9999 FEW035
                      BECMG 3018/3020 VRB03KT
                      PROB30 TEMPO 3102/0104 4000 BR FEW010
                      BECMG 3106/310806014KT SCT035=
201908301700 TAF LRTZ 301700Z 3018/3118 09006KT 9999 SKC
                      BECMG 3019/3021 VRB03KT
                      BECMG 3107/3109 06014KT
                      TEMPO 3108/3116 SCT035=
201908302300 TAF LRTZ 302300Z 3100/0100 VRB03KT 9999 SKC
                      BECMG 3107/3109 06014KT
                      TEMPO 3108/3116 SCT035
                      BECMG 3118/3120 VRB03KT=
201908310500 TAF LRTZ 310500Z 3106/0106 01008KT 9999 SKC
                      BECMG 3107/3109 06014KT
                      TEMPO 3108/3116 SCT035
                      BECMG 3118/3120 VRB03KT=
201908311100 TAF LRTZ 311100Z 3112/0112 06014KT 9999 SKC
                      TEMPO 3112/3114 SCT035
                      BECMG 3118/3120 VRB03KT
                      BECMG 0106/0108 02012KT=
201908311700 TAF LRTZ 311700Z 3118/0118 VRB03KT 9999 SKC
                      BECMG 0106/0108 02012KT
                      TEMPO 0110/0114 SCT035=
201908312300 TAF LRTZ 312300Z 0100/0200 VRB03KT 9999 SKC
                      BECMG 0106/0108 02012KT
                      TEMPO 0110/0114 SCT035=
