201909010300 METAR LRTZ 010300Z VRB03KT 9999 SKC 18/14 Q1017 BLU BLU=
201909010500 METAR LRTZ 010500Z 02006KT 9999 SKC 19/10 Q1015 BLU BLU=
201909010600 METAR LRTZ 010600Z 02006KT 9999 SKC 23/12 Q1014 BLU BLU=
201909010700 METAR LRTZ 010700Z 04010KT 9999 SKC 24/13 Q1014 BLU BLU=
201909010800 METAR LRTZ 010800Z 04010KT 9999 SKC 26/17 Q1014 BLU BLU=
201909010900 METAR LRTZ 010900Z 06012KT 9999 SKC 26/18 Q1015 BLU BLU=
201909011000 METAR LRTZ 011000Z 09012KT 9999 SKC 27/17 Q1014 BLU BLU=
201909011100 METAR LRTZ 011100Z 09014KT 9999 SKC 27/17 Q1014 BLU BLU=
201909011200 METAR LRTZ 011200Z 12014KT 9999 SKC 27/18 Q1014 BLU BLU=
201909011300 METAR LRTZ 011300Z 12012KT 9999 SKC 27/18 Q1014 BLU BLU=
201909011400 METAR LRTZ 011400Z 12010KT 9999 SKC 26/18 Q1014 BLU BLU=
201909011500 METAR LRTZ 011500Z 12010KT 9999 SKC 26/18 Q1014 BLU BLU=
201909011600 METAR LRTZ 011600Z 09006KT 9999 SKC 25/18 Q1014 BLU BLU=
201909011700 METAR LRTZ 011700Z 14004KT 9999 SKC 24/18 Q1014 BLU BLU=
201909011800 METAR LRTZ 011800Z VRB03KT 9999 SKC 22/18 Q1014 BLU BLU=
201909011900 METAR LRTZ 011900Z VRB03KT 9999 SKC 22/17 Q1014 BLU BLU=
201909012000 METAR LRTZ 012000Z VRB03KT 9999 SKC 21/17 Q1014 BLU BLU=
201909012100 METAR LRTZ 012100Z VRB03KT 9999 SKC 20/17 Q1014 BLU BLU=
201909012300 METAR LRTZ 012300Z VRB03KT 9999 SKC 19/16 Q1014 BLU BLU=
201909020200 METAR LRTZ 020200Z VRB03KT 9999 SKC 18/16 Q1014 BLU WHT=
201909020300 METAR LRTZ 020300Z 02004KT 7000 SKC 17/16 Q1015 WHT WHT=
201909020400 METAR LRTZ 020400Z 02004KT 5000 BR SKC 17/16 Q1015 WHT BLU=
201909020500 METAR LRTZ 020500Z 02004KT 9999 SKC 17/16 Q1015 BLU BLU=
201909020600 METAR LRTZ 020600Z 02008KT 9999 SKC 23/17 Q1015 BLU BLU=
201909020700 METAR LRTZ 020700Z 07010KT 9999 SKC 26/10 Q1015 BLU BLU=
201909020800 METAR LRTZ 020800Z 07012KT 9999 SKC 27/12 Q1015 BLU BLU=
201909020900 METAR LRTZ 020900Z 07012KT 9999 SKC 27/17 Q1015 BLU BLU=
201909021000 METAR LRTZ 021000Z 07012KT 9999 SKC 27/20 Q1016 BLU BLU=
201909021100 METAR LRTZ 021100Z 07014KT 9999 SKC 27/20 Q1015 BLU BLU=
201909021200 METAR LRTZ 021200Z 12012KT 9999 SKC 28/15 Q1015 BLU BLU=
201909021300 METAR LRTZ 021300Z 10012KT 9999 SKC 27/14 Q1015 BLU BLU=
201909021400 METAR LRTZ 021400Z 10012KT 9999 FEW200 27/14 Q1015 BLU BLU=
201909021500 METAR LRTZ 021500Z 10012KT 9999 SCT200 27/14 Q1015 BLU BLU=
201909021600 METAR LRTZ 021600Z 10012KT 9999 SCT200 25/16 Q1015 BLU BLU=
201909021700 METAR LRTZ 021700Z VRB03KT 9999 SCT200 24/16 Q1015 BLU BLU=
201909021800 METAR LRTZ 021800Z VRB03KT 9999 SCT200 22/17 Q1015 BLU BLU=
201909021900 METAR LRTZ 021900Z VRB03KT 9999 FEW200 22/17 Q1015 BLU BLU=
201909022000 METAR LRTZ 022000Z VRB03KT 9999 SCT200 22/18 Q1015 BLU BLU=
201909022200 METAR LRTZ 022200Z VRB03KT 9999 SCT200 21/18 Q1015 BLU BLU=
201909022300 METAR LRTZ 022300Z VRB03KT 9999 SCT200 21/18 Q1015 BLU BLU=
201909030300 METAR LRTZ 030300Z VRB03KT 8000 SCT200 16/14 Q1015 BLU BLU=
201909030400 METAR LRTZ 030400Z VRB03KT 9999 SCT200 16/14 Q1015 BLU BLU=
201909030500 METAR LRTZ 030500Z 03006KT 9999 SCT200 18/15 Q1015 BLU BLU=
201909030600 METAR LRTZ 030600Z 35004KT 9999 SCT200 22/16 Q1015 BLU BLU=
201909030700 METAR LRTZ 030700Z 35004KT 9999 SCT200 26/13 Q1016 BLU BLU=
201909030800 METAR LRTZ 030800Z 03004KT 9999 SCT200 28/10 Q1016 BLU BLU=
201909030900 METAR LRTZ 030900Z 06006KT 9999 SCT200 30/10 Q1015 BLU BLU=
201909031000 METAR LRTZ 031000Z 12008KT 9999 SCT200 30/10 Q1015 BLU BLU=
201909031100 METAR LRTZ 031100Z 12010KT 9999 SCT200 39/11 Q1015 BLU BLU=
201909031300 METAR LRTZ 031300Z 15010KT 9999 SCT200 28/13 Q1=
201909031400 METAR LRTZ 031400Z 16008KT 9999 SCT200 28/14 Q1014 BLU BLU=
201909031500 METAR LRTZ 031500Z 16008KT 9999 SCT200 27/14 Q1014 BLU BLU=
201909031600 METAR LRTZ 031600Z 18008KT 9999 FEW200 26/16 Q1014 BLU BLU=
201909031700 METAR LRTZ 031700Z 18006KT 9999 FEW200 25/17 Q1014 BLU BLU=
201909031800 METAR LRTZ 031800Z 21004KT 9999 FEW200 22/15 Q1014 BLU BLU=
201909031900 METAR LRTZ 031900Z VRB03KT 9999 FEW200 21/14 Q1014 BLU BLU=
201909032000 METAR LRTZ 032000Z VRB03KT 9999 FEW200 21/14 Q1014 BLU BLU=
201909032100 METAR LRTZ 032100Z VRB03KT 9999 SCT200 21/14 Q1014 BLU BLU=
201909032300 METAR LRTZ 032300Z VRB03KT 9999 SCT200 20/14 Q1014 BLU BLU=
201909040300 METAR LRTZ 040300Z 03006KT 9999 BKN100 22/13 Q1014 BLU BLU=
201909040400 METAR LRTZ 040400Z 03010KT 9999 BKN100 22/15 Q1014 BLU BLU=
201909040500 METAR LRTZ 040500Z 03014KT 9999 BKN100 22/16 Q1015 BLU BLU=
201909040600 METAR LRTZ 040600Z 04014KT 9999 BKN100 23/16 Q1015 BLU BLU=
201909040700 METAR LRTZ 040700Z 04018KT 9999 BKN140 23/16 Q1016 BLU BLU=
201909040800 METAR LRTZ 040800Z 05016KT 9999 BKN140 24/16 Q1016 BLU BLU=
201909040900 METAR LRTZ 040900Z 06016KT 9999 BKN100 23/16 Q1016 BLU BLU=
201909041100 METAR LRTZ 041100Z 05016KT 9999 BKN100 24/16 Q1016 BLU BLU=
201909041200 METAR LRTZ 041200Z 06016KT 9999 FEW040 BKN100 24/16 Q1015
                        BLU BLU=
201909041300 METAR LRTZ 041300Z 06016KT 9999 FEW040 SCT100 BKN200 25/16
                        Q1015 BLU BLU=
201909041400 METAR LRTZ 041400Z 04016KT 9999 FEW040 BKN140 23/16 Q1015
                        BLU BLU=
201909041500 METAR LRTZ 041500Z 06012KT 9999 BKN160 24/16 Q1015 BLU BLU=
201909041600 METAR LRTZ 041600Z 06014KT 9999 BKN160 23/16 Q1015 BLU BLU=
201909041700 METAR LRTZ 041700Z 06012KT 9999 BKN140 22/15 Q1015 BLU BLU=
201909041800 METAR LRTZ 041800Z 06012KT 9999 FEW025 BKN160 22/15 Q1016
                        BLU BLU=
201909041900 METAR LRTZ 041900Z 01010KT 9999 SCT100 20/15 Q1016 BLU BLU=
201909042000 METAR LRTZ 042000Z 03008KT 9999 SCT100 20/15 Q1016 BLU BLU=
201909042100 METAR LRTZ 042100Z 01006KT 9999 BKN100 21/15 Q1016 BLU BLU=
201909042300 METAR LRTZ 042300Z 36010KT 9999 BKN100 20/15 Q1016 BLU BLU=
201909050200 METAR LRTZ 050200Z 01012KT 9999 SCT100 19/14 Q1015 BLU BLU=
201909050300 METAR LRTZ 050300Z 03010KT 9999 BKN090 19/14 Q1015 BLU BLU=
201909050400 METAR LRTZ 050400Z 02010KT 9999 BKN090 18/13 Q1015 BLU BLU=
201909050500 METAR LRTZ 050500Z 03010KT 9999 SCT070 BKN090 18/13 Q1015
                        BLU BLU=
201909050600 METAR LRTZ 050600Z 03010KT 9999 SCT030 BKN080 17/14 Q1016
                        BLU BLU=
201909050800 METAR LRTZ 050800Z 03010KT 9999 SCT030 BKN080 18/14 Q1016
                        BLU BLU=
201909050900 METAR LRTZ 050900Z 03010KT 9999 SCT030 BKN080 19/14 Q1016
                        BLU BLU=
201909051000 METAR LRTZ 051000Z 03012KT 9999 SCT030 BKN080 20/14 Q1016
                        BLU BLU=
201909051100 METAR LRTZ 051100Z 04012KT 9999 SCT030 BKN080 21/14 Q1016
                        BLU BLU=
201909051200 METAR LRTZ 051200Z 04012KT 9999 SCT030 BKN090 23/12 Q1015
                        BLU BLU=
201909051300 METAR LRTZ 051300Z 04010KT 9999 FEW030 SCT090 24/11 Q1015
                        BLU BLU=
201909051400 METAR LRTZ 051400Z 04010KT 9999 SCT090 24/11 Q1015 BLU BLU=
201909051500 METAR LRTZ 051500Z 04010KT 9999 SCT090 23/12 Q1014 BLU BLU=
201909051600 METAR LRTZ 051600Z 10010KT 9999 SCT090 23/12 Q1014 BLU BLU=
201909051700 METAR LRTZ 051700Z 10010KT 9999 SCT100 21/12 Q1014 BLU BLU=
201909051800 METAR LRTZ 051800Z VRB03KT 9999 FEW100 SCT200 20/12 Q1015
                        BLU BLU=
201909051900 METAR LRTZ 051900Z VRB03KT 9999 SCT200 18/11 Q1015 BLU BLU=
201909052000 METAR LRTZ 052000Z VRB03KT 9999 SCT200 17/11 Q1015 BLU BLU=
201909052100 METAR LRTZ 052100Z VRB03KT 9999 SCT200 17/11 Q1015 BLU BLU=
201909052300 METAR LRTZ 052300Z VRB03KT 9999 SCT200 17/11 Q1015 BLU BLU=
201909060400 METAR LRTZ 060400Z 02006KT 9999 FEW200 13/10 Q1016 BLU BLU=
201909060500 METAR LRTZ 060500Z 03008KT 9999 FEW200 15/12 Q1016 BLU BLU=
201909060600 METAR LRTZ 060600Z 33012KT 9999 SKC 19/14 Q1016 BLU BLU=
201909060700 METAR LRTZ 060700Z 33010KT 9999 SKC 22/14 Q1016 BLU BLU=
201909060800 METAR LRTZ 060800Z 03010KT 9999 SKC 24/12 Q1017 BLU BLU=
201909060900 METAR LRTZ 060900Z 06012KT FEW100 24/13 Q1017 BLU BLU=
201909061000 METAR LRTZ 061000Z 09012KT SCT150 25/09 Q1017 BLU BLU=
201909061100 METAR LRTZ 061100Z 09012KT FEW150 25/10 Q1017 BLU BLU=
201909061200 METAR LRTZ 061200Z 09012KT 9999 FEW150 25/10 Q1017 BLU BLU=
201909061300 METAR LRTZ 061300Z 10014KT 9999 FEW150 25/12 Q1017 BLU BLU=
201909061400 METAR LRTZ 061400Z 10012KT 9999 FEW150 24/13 Q1017 BLU BLU=
201909061500 METAR LRTZ 061500Z 09010KT 9999 FEW150 24/13 Q1017 BLU BLU=
201909061600 METAR LRTZ 061600Z 09006KT 9999 FEW200 23/13 Q1017 BLU BLU=
201909061700 METAR LRTZ 061700Z VRB02KT 9999 FEW200 21/14 Q1017 BLU BLU=
201909061800 METAR LRTZ 061800Z VRB02KT 9999 FEW200 20/14 Q1017 BLU BLU=
201909061900 METAR LRTZ 061900Z VRB02KT 9999 SKC 21/15 Q1017 BLU BLU=
201909062000 METAR LRTZ 062000Z VRB02KT 9999 SKC 20/14 Q1017 BLU BLU=
201909062100 METAR LRTZ 062100Z VRB03KT 9999 SKC 19/14 Q1017 BLU BLU=
201909062300 METAR LRTZ 062300Z VRB03KT 9999 SKC 18/13 Q1017 BLU BLU=
201909070300 METAR LRTZ 070300Z 01004KT 9999 SKC 16/12 Q1017 BLU BLU=
201909070400 METAR LRTZ 070400Z 01004KT 9999 FEW200 16/12 Q1017 BLU BLU=
201909070500 METAR LRTZ 070500Z 01006KT 9999 SKC 18/12 Q1017 BLU BLU=
201909070600 METAR LRTZ 070600Z 03008KT 9999 SKC 22/15 Q1017 BLU BLU=
201909070700 METAR LRTZ 070700Z 04010KT 9999 SKC 24/16 Q1018 BLU BLU=
201909070800 METAR LRTZ 070800Z 04010KT 9999 SKC 24/17 Q1018 BLU BLU=
201909070900 METAR LRTZ 070900Z 05012KT 9999 SKC 25/19 Q1018 BLU BLU=
201909071000 METAR LRTZ 071000Z 06012KT 9999 FEW040 26/19 Q1018 BLU BLU=
201909071100 METAR LRTZ 071100Z 06012KT 9999 SCT020 26/19 Q1017 BLU BLU=
201909071200 METAR LRTZ 071200Z 07014KT 9999 SCT020 26/19 Q1017 BLU BLU=
201909071300 METAR LRTZ 071300Z 09014KT 9999 SCT020 25/19 Q1017 BLU BLU=
201909071400 METAR LRTZ 071400Z 07012KT 9999 SKC 26/13 Q1017 BLU BLU=
201909071500 METAR LRTZ 071500Z 09010KT 9999 SKC 25/18 Q1017 BLU BLU=
201909071600 METAR LRTZ 071600Z 09008KT 9999 SKC 23/18 Q1017 BLU BLU=
201909071700 METAR LRTZ 071700Z 09004KT 9999 SKC 22/17 Q1017 BLU BLU=
201909071800 METAR LRTZ 071800Z 09004KT 9999 SKC 21/17 Q1018 BLU BLU=
201909071900 METAR LRTZ 071900Z 09004KT 9999 SKC 22/18 Q1018 BLU BLU=
201909072000 METAR LRTZ 072000Z 09004KT 9999 SKC 22/18 Q1018 BLU BLU=
201909072300 METAR LRTZ 072300Z 09006KT 9999 SKC 21/18 Q1017 BLU BLU=
201909080300 METAR LRTZ 080300Z 01004KT 9999 FEW020 SCT050 19/16 Q1017
                        BLU BLU=
201909080400 METAR LRTZ 080400Z 36004KT 9999 FEW020 SCT050 BKN200 18/15
                        Q1018 BLU BLU=
201909080500 METAR LRTZ 080500Z 05006KT 9999 SCT020 BKN050 21/17 Q1018
                        BLU BLU=
201909080600 METAR LRTZ 080600Z 12010KT 9999 SCT020 BKN050 24/17 Q1019
                        BLU BLU=
201909080700 METAR LRTZ 080700Z 12010KT 9999 SCT020 BKN200 25/17 Q1019
                        BLU BLU=
201909080800 METAR LRTZ 080800Z 12010KT 9999 SCT025 BKN200 25/16 Q1019
                        BLU BLU=
201909080900 METAR LRTZ 080900Z 12012KT 9999 SCT025 BKN200 26/16 Q1019
                        BLU BLU=
201909081000 METAR LRTZ 081000Z 12014KT 9999 SCT025 BKN200 26/17 Q1019
                        BLU BLU=
201909081100 METAR LRTZ 081100Z 09014KT 9999 SCT025 BKN200 26/17 Q1020
                        BLU BLU=
201909081200 METAR LRTZ 081200Z 09014KT 9999 SCT025 BKN200 27/17 Q1020
                        BLU BLU=
201909081300 METAR LRTZ 081300Z 09014KT 9999 SCT025 BKN200 26/15 Q1019
                        BLU BLU=
201909081400 METAR LRTZ 081400Z 09014KT 9999 SCT025 BKN200 25/15 Q1019
                        BLU BLU=
201909081500 METAR LRTZ 081500Z 09014KT 9999 SCT030 BKN200 25/15 Q1020
                        BLU BLU=
201909081600 METAR LRTZ 081600Z 09010KT 9999 BKN200 24/13 Q1020 BLU BLU=
201909081700 METAR LRTZ 081700Z 09008KT 9999 SCT200 23/13 Q1020 BLU BLU=
201909081800 METAR LRTZ 081800Z 09006KT 9999 SCT200 23/14 Q1020 BLU BLU=
201909081900 METAR LRTZ 081900Z 09004KT 9999 SCT200 22/14 Q1020 BLU BLU=
201909082000 METAR LRTZ 082000Z 09004KT 9999 SCT200 21/14 Q1020 BLU BLU=
201909082100 METAR LRTZ 082100Z 09004KT 9999 SCT200 21/14 Q1020 BLU BLU=
201909082300 METAR LRTZ 082300Z 09004KT 9999 SCT200 21/14 Q1019 BLU BLU=
201909090100 METAR LRTZ 090100Z 09004KT 9999 SCT200 19/14 Q1019 BLU BLU=
201909090200 METAR LRTZ 090200Z 09004KT 9999 SCT200 18/14 Q1019 BLU BLU=
201909090300 METAR LRTZ 090300Z 09006KT 9999 SCT200 20/14 Q1018 BLU BLU=
201909090400 METAR LRTZ 090400Z 09010KT 9999 FEW030 SCT200 22/14 Q1018
                        BLU BLU=
201909090500 METAR LRTZ 090500Z 06010KT 9999 SCT025 23/14 Q1018 BLU BLU=
201909090600 METAR LRTZ 090600Z 09014KT 9999 SCT025 24/17 Q1018 BLU BLU=
201909090700 METAR LRTZ 090700Z 09014KT 9999 SCT020 25/17 Q1018 BLU BLU=
201909090800 METAR LRTZ 090800Z 10018KT 9999 FEW020 26/13 Q1018 BLU BLU=
201909090900 METAR LRTZ 090900Z 10018KT 9999 FEW020 26/11 Q1018 BLU BLU=
201909091000 METAR LRTZ 091000Z 10020KT 9999 FEW025 26/10 Q1018 BLU BLU=
201909091100 METAR LRTZ 091100Z 09020KT 9999 SCT025 26/11 Q1017 BLU BLU=
201909091200 METAR LRTZ 091200Z 09018KT 9999 FEW025 SCT200 26/13 Q1017
                        BLU BLU=
201909091300 METAR LRTZ 091300Z 08016KT 9999 FEW025 SCT200 25/13 Q1017
                        BLU BLU=
201909091400 METAR LRTZ 091400Z 12012KT 9999 SCT025 BKN200 25/14 Q1016
                        BLU BLU=
201909091500 METAR LRTZ 091500Z 12012KT 9999 SCT025 BKN200 24/14 Q1016
                        BLU BLU=
201909091600 METAR LRTZ 091600Z 12010KT 9999 SCT030 BKN200 23/14 Q1016
                        BLU BLU=
201909091700 METAR LRTZ 091700Z 12010KT 9999 SCT050 BKN200 23/13 Q1016
                        BLU BLU=
201909091800 METAR LRTZ 091800Z 09006KT 9999 BKN200 21/13 Q1017 BLU BLU=
201909091900 METAR LRTZ 091900Z VRB03KT 9999 SCT200 21/12 Q1017 BLU BLU=
201909092000 METAR LRTZ 092000Z VRB03KT 9999 SCT200 21/12 Q1017 BLU BLU=
201909092100 METAR LRTZ 092100Z VRB03KT 9999 SCT150 21/12 Q1017 BLU BLU=
201909092300 METAR LRTZ 092300Z VRB03KT 9999 SCT100 21/13 Q1017 BLU BLU=
201909100200 METAR LRTZ 100200Z VRB03KT 9999 SCT100 20/13 Q1017 BLU BLU=
201909100300 METAR LRTZ 100300Z 01004KT 9999 SCT100 17//15 Q1016 BLU BLU=
201909100400 METAR LRTZ 100400Z 03004KT 9999 BKN200 19//17 Q1016 BLU BLU=
201909100500 METAR LRTZ 100500Z 36006KT 9999 BKN200 18/17 Q1016 BLU BLU=
201909100600 METAR LRTZ 100600Z 06010KT 9999 BKN160 23/15 Q1017 BLU BLU=
201909100700 METAR LRTZ 100700Z 08012KT 9999 FEW025 BKN200 24/16 Q1017
                        BLU BLU=
201909100800 METAR LRTZ 100800Z 08012KT 9999 FEW025 BKN200 24/16 Q1017
                        BLU BLU=
201909100900 METAR LRTZ 100900Z 08014KT 9999 SCT025 BKN200 25/16 Q1017
                        BLU BLU=
201909101000 METAR LRTZ 101000Z 09014KT 9999 SCT025 BKN200 25/15 Q1017
                        BLU BLU=
201909101100 METAR LRTZ 101100Z 09014KT 9999 SCT025 BKN200 25/15 Q1017
                        BLU BLU=
201909101200 METAR LRTZ 101200Z 09014KT 9999 SCT027 BKN200 25/16 Q1017
                        BLU BLU=
201909101300 METAR LRTZ 101300Z 09014KT 9999 SCT030 BKN200 25/15 Q1017
                        BLU BLU=
201909101400 METAR LRTZ 101400Z 09014KT 9999 SCT030 BKN200 25/14 Q1017
                        BLU BLU=
201909101500 METAR LRTZ 101500Z 09012KT 9999 FEW030 BKN200 24/14 Q1018
                        BLU BLU=
201909101600 METAR LRTZ 101600Z 09010KT 9999 FEW030 BKN200 23/12 Q1018
                        BLU BLU=
201909101700 METAR LRTZ 101700Z 07008KT 9999 BKN200 22/12 Q1018 BLU BLU=
201909101800 METAR LRTZ 101800Z 06006KT 9999 BKN200 22/14 Q1018 BLU BLU=
201909101900 METAR LRTZ 101900Z 06008KT 9999 BKN200 22/14 Q1018 BLU BLU=
201909102000 METAR LRTZ 102000Z 06008KT 9999 BKN200 22/14 Q1018 BLU BLU=
201909102100 METAR LRTZ 102100Z 04006KT 9999 BKN200 21/14 Q1018 BLU BLU=
201909102300 METAR LRTZ 102300Z 01006KT 9999 BKN200 20/15 Q1018 BLU BLU=
201909110300 METAR LRTZ 110300Z 07010KT 9999 SCT025 SCT200 21/17 Q1019
                        BLU BLU=
201909110400 METAR LRTZ 110400Z 09012KT 9999 SCT025 SCT200 22/16 Q1019
                        BLU BLU=
201909110500 METAR LRTZ 110500Z 09014KT 9999 SCT025 BKN200 22/17 Q1019
                        BLU BLU=
201909110600 METAR LRTZ 110600Z 09014KT 9999 SCT025 BKN50 24/16 Q1020
                        BLU BLU=
201909110700 METAR LRTZ 110700Z 09014KT 9999 BKN020 24/17 Q1020 BLU BLU=
201909110800 METAR LRTZ 110800Z 09014KT 9999 SCT020 25/17 Q1021 BLU BLU=
201909110900 METAR LRTZ 110900Z 09014KT 9999 SCT020 25/17 Q1021 BLU BLU=
201909111000 METAR LRTZ 111000Z 09014KT 9999 SCT020 26/17 Q1021 BLU BLU=
201909111100 METAR LRTZ 111100Z 09016KT 9999 SCT020 25/17 Q1021 BLU BLU=
201909111200 METAR LRTZ 111200Z 09018KT 9999 SCT020 26/11 Q1021 BLU BLU=
201909111300 METAR LRTZ 111300Z 09016KT 9999 FEW020 26/11 Q1021 BLU BLU=
201909111400 METAR LRTZ 111400Z 07016KT 9999 FEW020 SCT200 25/11 Q1021
                        BLU BLU=
201909111500 METAR LRTZ 111500Z 07014KT 9999 SCT200 24/14 Q1021 BLU BLU=
201909111600 METAR LRTZ 111600Z 06012KT 9999 SCT200 23/15 Q1021 BLU BLU=
201909111700 METAR LRTZ 111700Z 06012KT 9999 FEW200 23/15 Q1021 BLU BLU=
201909111800 METAR LRTZ 111800Z 06010KT 9999 FEW030 SCT200 23/16 Q1021
                        BLU BLU=
201909111900 METAR LRTZ 111900Z 06010KT 9999 FEW030 SCT200 23/16 Q1021
                        BLU BLU=
201909112000 METAR LRTZ 112000Z 06010KT 9999 SCT030 SCT200 22/16 Q1021
                        BLU BLU=
201909112300 METAR LRTZ 112300Z 06010KT 9999 BKN025 22/16 Q1021 BLU BLU=
201909120300 METAR LRTZ 120300Z 01006KT 8000 SCT010 BKN200 19/18 Q1021
                        BLU BLU=
201909120400 METAR LRTZ 120400Z 01008KT 9999 SCT015 BKN200 19/18 Q1021
                        BLU BLU=
201909120500 METAR LRTZ 120500Z 01008KT 9999 SCT020 BKN200 20/18 Q1022
                        BLU BLU=
201909120700 METAR LRTZ 120700Z 01010KT 9999 FEW020 BKN200 22/18 Q1022
                        BLU BLU=
201909120800 METAR LRTZ 120800Z 01010KT 9999 BKN200 23/18 Q1022 BLU BLU=
201909120900 METAR LRTZ 120900Z 01010KT 9999 BKN200 25/19 Q1023 BLU BLU=
201909121000 METAR LRTZ 121000Z 06012KT 9999 SCT020 BKN200 26/19 Q1023
                        BLU BLU=
201909121100 METAR LRTZ 121100Z 06012KT 9999 SCT020 BKN200 25/19 Q1023
                        BLU BLU=
201909121200 METAR LRTZ 121200Z 06012KT 9999 SCT020 BKN200 25/16 Q1023
                        BLU BLU=
201909121300 METAR LRTZ 121300Z 06012KT 9999 FEW020 BKN200 25/16 Q1023
                        BLU BLU=
201909121400 METAR LRTZ 121400Z 06012KT 9999 BKN200 25/15 Q1022 BLU BLU=
201909121500 METAR LRTZ 121500Z 06012KT 9999 BKN200 24/14 Q1022 BLU BLU=
201909121600 METAR LRTZ 121600Z 06012KT 9999 BKN200 24/13 Q1022 BLU BLU=
201909121700 METAR LRTZ 121700Z 06014KT 9999 BKN200 23/13 Q1023 BLU BLU=
201909121800 METAR LRTZ 121800Z 10014KT 9999 SCT200 23/14 Q1023 BLU BLU=
201909121900 METAR LRTZ 121900Z 10014KT 9999 SCT200 23/14 Q1023 BLU BLU=
201909122000 METAR LRTZ 122000Z 10014KT 9999 SCT200 22/14 Q1023 BLU BLU=
201909122300 METAR LRTZ 122300Z 10014KT 9999 SCT200 21/14 Q1023 BLU BLU=
201909130200 METAR LRTZ 130200Z 10014KT 9999 SCT200 19/14 Q1023 BLU BLU=
201909130300 METAR LRTZ 130300Z 10010KT 9999 SCT200 18/14 Q1023 BLU BLU=
201909130400 METAR LRTZ 130400Z 02010KT 9999 SCT200 17/14 Q1023 BLU BLU=
201909130500 METAR LRTZ 130500Z 03010KT 9999 SCT200 20/12 Q1023 BLU BLU=
201909130600 METAR LRTZ 130600Z 04014KT 9999 BNK200 22/14 Q1024 BLU BLU=
201909130800 METAR LRTZ 130800Z 06016KT 9999 BKN200 24/15 Q1024 BLU BLU=
201909130900 METAR LRTZ 130900Z 06014KT 9999 BKN200 25/15 Q1024 BLU BLU=
201909131000 METAR LRTZ 131000Z 06014KT 9999 SCT200 26/11 Q1024 BLU BLU=
201909131100 METAR LRTZ 131100Z 06014KT 9999 FEW200 26/13 Q1024 BLU BLU=
201909131200 METAR LRTZ 131200Z 05012KT 9999 SKC 27/08 Q1024 BLU BLU=
201909131400 METAR LRTZ 131400Z 07010KT 9999 SKC 26/12 Q1023 BLU BLU=
201909131500 METAR LRTZ 131500Z 07010KT 9999 SKC 26/12 Q1023 BLU BLU=
201909131600 METAR LRTZ 131600Z 09006KT 9999 SKC 23/16 Q1023 BLU BLU=
201909131700 METAR LRTZ 131700Z 00000KT 9999 SKC 22/14 Q1023 BLU BLU=
201909131800 METAR LRTZ 131800Z 00000KT 9999 SKC 21/12 Q1023 BLU BLU=
201909131900 METAR LRTZ 131900Z 36003KT 9999 SKC 19/11 Q1023 BLU BLU=
201909132000 METAR LRTZ 132000Z VRB03KT 9999 SKC 20/11 Q1023 BLU BLU=
201909132100 METAR LRTZ 132100Z VRB03KT 9999 SKC 20/09 Q1023 BLU BLU=
201909132200 METAR LRTZ 132200Z VRB03KT 9999 SKC 19/09 Q1023 BLU BLU=
201909132300 METAR LRTZ 132300Z VRB03KT 9999 SKC 18/08 Q1023 BLU BLU=
201909140400 METAR LRTZ 140400Z 33008KT 9999 SKC 15/07 Q1022 BLU BLU=
201909140500 METAR LRTZ 140500Z 33010KT 9999 SKC 18/06 Q1022 BLU BLU=
201909140600 METAR LRTZ 140600Z 33010KT 9999 SKC 22/07 Q1022 BLU BLU=
201909140700 METAR LRTZ 140700Z 36010KT 9999 SKC 24/07 Q1022 BLU BLU=
201909140800 METAR LRTZ 140800Z 03010KT 9999 SKC 28/06 Q1022 BLU BLU=
201909140900 METAR LRTZ 140900Z 04012KT 9999 SKC 28/07 Q1022 BLU BLU=
201909141000 METAR LRTZ 141000Z 08012KT 9999 FEW035 28/10 Q1022 BLU BLU=
201909141100 METAR LRTZ 141100Z 09010KT 9999 FEW035 27/14 Q1022 BLU BLU=
201909141200 METAR LRTZ 141200Z 09012KT 9999 BKN100 26/14 Q1022 BLU BLU=
201909141300 METAR LRTZ 141300Z 07012KT 9999 BKN100 26/13 Q1022 BLU BLU=
201909141400 METAR LRTZ 141400Z 07012KT 9999 BKN080 25/13 Q1022 BLU BLU=
201909141500 METAR LRTZ 141500Z 11006KT 9999 BKN100 25/15 Q1021 BLU BLU=
201909141600 METAR LRTZ 141600Z 11006KT 9999 BKN100 24/17 Q1021 BLU BLU=
201909141700 METAR LRTZ 141700Z 11006KT 9999 BKN100 23/16 Q1022 BLU BLU=
201909141800 METAR LRTZ 141800Z 03010KT 9999 BKN100 24/14 Q1023 BLU BLU=
201909141900 METAR LRTZ 141900Z 03012KT 9999 BKN100 23/13 Q1023 BLU BLU=
201909142000 METAR LRTZ 142000Z 03012KT 9999 BKN100 22/13 Q1023 BLU BLU=
201909142100 METAR LRTZ 142100Z 03012KT 9999 BKN100 21/13 Q1024 BLU BLU=
201909142300 METAR LRTZ 142300Z 03012KT 9999 BKN100 19/13 Q1024 BLU BLU=
201909150300 METAR LRTZ 150300Z 03010KT 9999 SCT200 17/07 Q1025 BLU BLU=
201909150400 METAR LRTZ 150400Z 03010KT 9999 FEW200 17/08 Q1025 BLU BLU=
201909150600 METAR LRTZ 150600Z 03010KT 9999 FEW200 19/09 Q1026 BLU BLU=
201909150700 METAR LRTZ 150700Z 06012KT 9999 SKC 20/10 Q1026 BLU BLU=
201909150800 METAR LRTZ 150800Z 04012KT 9999 SKC 21/10 Q1027 BLU BLU=
201909150900 METAR LRTZ 150900Z 04012KT 9999 SKC 22/08 Q1026 BLU BLU=
201909151000 METAR LRTZ 151000Z 06012KT 9999 SKC 23/06 Q1026 BLU BLU=
201909151100 METAR LRTZ 151100Z 06010KT 9999 SKC 23/05 Q1026 BLU BLU=
201909151200 METAR LRTZ 151200Z 09012KT 9999 SKC 22/06 Q1025 BLU BLU=
201909151300 METAR LRTZ 151300Z 09012KT 9999 SKC 22/07 Q1025 BLU BLU=
201909151400 METAR LRTZ 151400Z 09010KT 9999 SKC 22/08 Q1024 BLU BLU=
201909151600 METAR LRTZ 151600Z 12010KT 9999 SKC 21/08 Q1023 BLU BLU=
201909151700 METAR LRTZ 151700Z 13004KT 9999 SKC 19/08 Q1023 BLU BLU=
201909151800 METAR LRTZ 151800Z 13004KT 9999 SKC 19/08 Q1023 BLU BLU=
201909151900 METAR LRTZ 151900Z VRB03KT 9999 SKC 18/08 Q1023 BLU BLU=
201909152000 METAR LRTZ 152000Z VRB03KT 9999 SKC 17/08 Q1022 BLU BLU=
201909152300 METAR LRTZ 152300Z VRB03KT 9999 SKC 16/10 Q1022 BLU BLU=
201909160200 METAR LRTZ 160200Z VRB03KT 9999 SKC 14/10 Q1021 BLU BLU=
201909160300 METAR LRTZ 160300Z VRB03KT 9999 SKC 12/08 Q1020 BLU BLU=
201909160400 METAR LRTZ 160400Z VRB03KT 9999 SKC 11/06 Q1019 BLU BLU=
201909160500 METAR LRTZ 160500Z VRB03KT 9999 SKC 11/06 Q1019 BLU BLU=
201909160600 METAR LRTZ 160600Z 27006KT 9999 SKC 17/09 Q1018 BLU BLU=
201909160700 METAR LRTZ 160700Z 21008KT 9999 SKC 22/09 Q1018 BLU BLU=
201909160900 METAR LRTZ 160900Z 21010KT 9999 SCT200 25/11 Q1017 BLU BLU=
201909161000 METAR LRTZ 161000Z 21010KT 9999 BKN200 26/12 Q1016 BLU BLU=
201909161100 METAR LRTZ 161100Z 21010KT 9999 BKN200 25/12 Q1016 BLU BLU=
201909161200 METAR LRTZ 161200Z 21010KT 9999 BKN200 25/13 Q1015 BLU BLU=
201909161300 METAR LRTZ 161300Z 21010KT 9999 BKN200 25/12 Q1014 BLU BLU=
201909161400 METAR LRTZ 161400Z 21010KT 9999 SCT200 25/12 Q1014 BLU BLU=
201909161500 METAR LRTZ 161500Z 21010KT 9999 SCT200 24/11 Q1014 BLU BLU=
201909161600 METAR LRTZ 161600Z 21010KT 9999 SCT200 23/13 Q1014 BLU BLU=
201909161700 METAR LRTZ 161700Z 21010KT 9999 SCT200 21/10 Q1014 BLU BLU=
201909161800 METAR LRTZ 161800Z 21010KT 9999 SCT200 20/11 Q1014 BLU BLU=
201909161900 METAR LRTZ 161900Z 21010KT 9999 SCT200 19/11 Q1014 BLU BLU=
201909162000 METAR LRTZ 162000Z 21010KT 9999 SCT200 19/11 Q1014 BLU BLU=
201909162100 METAR LRTZ 162100Z 21010KT 9999 SCT200 19/11 Q1014 BLU BLU=
201909162300 METAR LRTZ 162300Z 21010KT 9999 SCT200 18/11 Q1013 BLU BLU=
201909170300 METAR LRTZ 170300Z 24006KT 9999 SCT200 15/10 Q1012 BLU BLU=
201909170400 METAR LRTZ 170400Z 24010KT 9999 SCT200 16/10 Q1012 BLU BLU=
201909170500 METAR LRTZ 170500Z 24010KT 9999 SCT200 16/09 Q1012 BLU BLU=
201909170600 METAR LRTZ 170600Z 31010KT 9999 SKC 22/09 Q1012 BLU BLU=
201909170700 METAR LRTZ 170700Z 33010KT 9999 FEW200 26/08 Q1012 BLU BLU=
201909170800 METAR LRTZ 170800Z 02006KT 9999 BKN200 28/09 Q1012 BLU BLU=
201909170900 METAR LRTZ 170900Z 10008KT 9999 BKN200 29/09 Q1012 BLU BLU=
201909171000 METAR LRTZ 171000Z 12010KT 9999 BKN200 28/10 Q1012 BLU BLU=
201909171100 METAR LRTZ 171100Z 12012KT 9999 BKN200 28/10 Q1012 BLU BLU=
201909171200 METAR LRTZ 171200Z 14014KT 9999 BKN200 27/12 Q1012 BLU BLU=
201909171300 METAR LRTZ 171300Z 16014KT 9999 BKN200 25/14 Q1011 BLU BLU=
201909171600 METAR LRTZ 171600Z 15006KT 9999 SCT200 23/17 Q1011 BLU BLU=
201909171700 METAR LRTZ 171700Z 15004KT 9999 BKN120 22/18 Q1011 BLU BLU=
201909171800 METAR LRTZ 171800Z 15004KT 9999 BKN120 22/18 Q1011 BLU BLU=
201909172000 METAR LRTZ 172000Z 18004KT 9999 BKN180 21/17 Q1011 BLU BLU=
201909172100 METAR LRTZ 172100Z 21003KT 9999 BKN180 20/16 Q1011 BLU BLU=
201909172300 METAR LRTZ 172300Z VRB03KT 9999 BKN180 19/15 Q1011 BLU BLU=
201909180300 METAR LRTZ 180300Z 33006KT 9999 SCT120 18/07 Q1009 BLU BLU=
201909180400 METAR LRTZ 180400Z 34004KT 9999 SCT200 18/07 Q1009 BLU BLU=
201909180500 METAR LRTZ 180500Z 32004KT 9999 BKN200 19/08 Q1010 BLU BLU=
201909180600 METAR LRTZ 180600Z 32004KT 9999 BKN200 20/08 Q1010 BLU BLU=
201909180700 METAR LRTZ 180700Z 32010KT 9999 BKN200 23/09 Q1010 BLU BLU=
201909180800 METAR LRTZ 180800Z 36010KT 9999 BKN200 26/09 Q1011 BLU BLU=
201909180900 METAR LRTZ 180900Z 36010KT 9999 BKN200 29/08 Q1011 BLU BLU=
201909181000 METAR LRTZ 181000Z 34012KT 9999 SCT200 29/08 Q1011 BLU BLU=
201909181100 METAR LRTZ 181100Z 34018KT 9999 FEW040 SCT100 30/09 Q1011
                        BLU BLU=
201909181200 METAR LRTZ 181200Z 36014KT 9999 FEW040 BKN100 29/09 Q1011
                        BLU BLU=
201909181300 METAR LRTZ 181300Z 36015G25KT 9999 FEW040 BKN100 24/13 Q1013
                        BLU BLU=
201909181500 METAR LRTZ 181500Z 06010G20KT 9999 BKN100 21/11 Q1014 BLU
                        BLU=
201909181600 METAR LRTZ 181600Z 06016KT 9999 BKN100 20/11 Q1016 BLU BLU=
201909181700 METAR LRTZ 181700Z 06010KT 9999 BKN100 19/10 Q1017 BLU BLU=
201909181800 METAR LRTZ 181800Z 06010KT 9999 BKN100 19/10 Q1018 BLU BLU=
201909181900 METAR LRTZ 181900Z 06010KT 9999 BKN100 19/10 Q1018 BLU BLU=
201909182000 METAR LRTZ 182000Z 05010KT 9999 BKN100 19/10 Q1019 BLU BLU=
201909182300 METAR LRTZ 182300Z 05008KT 9999 BKN070 18/11 Q1020 BLU BLU=
201909190200 METAR LRTZ 190200Z 05008KT 9999 BKN050 18/11 Q1021 BLU BLU=
201909190300 METAR LRTZ 190300Z 05010KT 9999 BKN070 17/09 Q1021 BLU BLU=
201909190400 METAR LRTZ 190400Z 09012KT 9999 BKN070 OVC200 18/09 Q1021
                        BLU BLU=
201909190500 METAR LRTZ 190500Z 09012KT 9999 BKN050 18/09 Q1021 BLU BLU=
201909190700 METAR LRTZ 190700Z 10012KT 9999 SCT035 BKN075 BKN100 19/09
                        Q1021 BLU BLU=
201909190800 METAR LRTZ 190800Z 09012KT 9999 SCT035 BKN075 BKN100 19/09
                        Q1021 BLU BLU=
201909190900 METAR LRTZ 190900Z 10012KT 9999 SCT040 BKN070 BKN100 19/09
                        Q1021 BLU BLU=
201909191000 METAR LRTZ 191000Z 09012KT 9999 SCT040 BKN070 BKN100 19/10
                        Q1021 BLU BLU=
201909191100 METAR LRTZ 191100Z 13012KT 9999 SCT035 BKN070 BKN100 18/11
                        Q1021 BLU BLU=
201909191200 METAR LRTZ 191200Z 11008KT 9999 SCT040 BKN070 BKN100 17/12
                        Q1020 BLU BLU=
201909191300 METAR LRTZ 191300Z 10006KT 9999 SCT035 OVC080 17/12 Q1020
                        BLU BLU=
201909191400 METAR LRTZ 191400Z 14008KT 9999 FEW020 SCT035 BKN080 17/13
                        Q1020 BLU BLU=
201909191500 METAR LRTZ 191500Z 13008KT 9999 FEW020 BKN040 BKN090 18/12
                        Q1020 BLU BLU=
201909191600 METAR LRTZ 191600Z 12008KT 9999 FEW020 SCT040 BKN100 18/12
                        Q1019 BLU BLU=
201909191700 METAR LRTZ 191700Z 11006KT 9999 FEW020 SCT040 BKN100 18/12
                        Q1019 BLU BLU=
201909191800 METAR LRTZ 191800Z 15006KT 9999 SCT025 SCT040 BKN090 19/12
                        Q1020 BLU BLU=
201909191900 METAR LRTZ 191900Z 21006KT 9999 -RA SCT025 SCT040CB BKN080
                        18/11 Q1020 BLU BLU=
201909192300 METAR LRTZ 192300Z 32008KT 9999 SCT025 SCT040 BKN080 17/11
                        Q1020 BLU BLU=
201909200300 METAR LRTZ 200300Z 02012KT 5000 RA BR SCT005 BKN020 OVC070
                        14/13 Q1019 WHT WHT=
201909200400 METAR LRTZ 200400Z 04014KT 7000 RA SCT010 BKN020 OVC070 13/11
                        Q1019 WHT WHT=
201909200500 METAR LRTZ 200500Z 03014KT 5000 RA BR SCT012 BKN020 OVC070
                        13/11 Q1019 WHT WHT=
201909200600 METAR LRTZ 200600Z 03014KT 5000 RA BR SCT012 BKN020 OVC070
                        13/10 Q1019 WHT WHT=
201909200700 METAR LRTZ 200700Z 03012KT 9999 SCT020 OVC070 14/10 Q1020
                        BLU BLU=
201909200800 METAR LRTZ 200800Z 03012KT 9999 SCT020 OVC080 14/08 Q1020
                        BLU BLU=
201909200900 METAR LRTZ 200900Z 03012KT 9999 SCT030 BKN090 16/09 Q1020
                        BLU BLU=
201909201000 METAR LRTZ 201000Z 03014KT 9999 BKN100 17/07 Q1020 BLU BLU=
201909201100 METAR LRTZ 201100Z 03014KT 9999 SCT100 17/06 Q1020 BLU BLU=
201909201200 METAR LRTZ 201200Z 03014KT 9999 SCT100 18/06 Q1020 BLU BLU=
201909201300 METAR LRTZ 201300Z 03012KT 9999 SCT100 18/06 Q1020 BLU BLU=
201909201400 METAR LRTZ 201400Z 03012KT 9999 FEW050 SCT100 18/06 Q1020
                        BLU BLU=
201909201500 METAR LRTZ 201500Z 03012KT 9999 FEW050 SCT150 18/06 Q1021
                        BLU BLU=
201909201600 METAR LRTZ 201600Z 03008KT 9999 SCT200 16/05 Q1021 BLU BLU=
201909201700 METAR LRTZ 201700Z 01006KT 9999 SCT200 13/08 Q1022 BLU BLU=
201909201900 METAR LRTZ 201900Z 01006KT 9999 SCT200 13/06 Q1023 BLU BLU=
201909202000 METAR LRTZ 202000Z 01006KT 9999 SCT200 13/06 Q1023 BLU BLU=
201909202300 METAR LRTZ 202300Z 01006KT 9999 SCT200 12/06 Q1023 BLU BLU=
201909210300 METAR LRTZ 210300Z 33006KT 9999 SCT200 09/04 Q1025 BLU BLU=
201909210500 METAR LRTZ 210500Z 33008KT 9999 BKN200 08/04 Q1026 BLU BLU=
201909210600 METAR LRTZ 210600Z 35008KT 9999 BKN200 11/04 Q1026 BLU BLU=
201909210700 METAR LRTZ 210700Z 01010KT 9999 SCT200 13/04 Q1027 BLU BLU=
201909210800 METAR LRTZ 210800Z 36010KT 9999 FEW200 14/05 Q1027 BLU BLU=
201909210900 METAR LRTZ 210900Z 02010KT 9999 FEW030 16/02 Q1027 BLU BLU=
201909211000 METAR LRTZ 211000Z 01012KT 9999 BKN045 15/03 Q1027 BLU BLU=
201909211100 METAR LRTZ 211100Z 01012KT 9999 BKN045 17/02 Q1027 BLU BLU=
201909211200 METAR LRTZ 211200Z 03012KT 9999 BKN045 17/01 Q1026 BLU BLU=
201909211300 METAR LRTZ 211300Z 01012KT 9999 BKN045 17/01 Q1026 BLU BLU=
201909211400 METAR LRTZ 211400Z 36012KT 9999 SCT050 BKN200 17/01 Q1026
                        BLU BLU=
201909211500 METAR LRTZ 211500Z 35010KT 9999 FEW060 BKN200 16/01 Q1026
                        BLU BLU=
201909211600 METAR LRTZ 211600Z 03004KT 9999 SCT200 15/02 Q1026 BLU BLU=
201909211700 METAR LRTZ 211700Z 03004KT 9999 SCT200 14/02 Q1026 BLU BLU=
201909211800 METAR LRTZ 211800Z 05003KT 9999 FEW200 14/01 Q1026 BLU BLU=
201909211900 METAR LRTZ 211900Z 21002KT 9999 SKC 10/04 Q1026 BLU BLU=
201909212000 METAR LRTZ 212000Z VRB02KT 9999 SKC 12/02 Q1026 BLU BLU=
201909212300 METAR LRTZ 212300Z VRB03KT 9999 SKC 10/04 Q1026 BLU BLU=
201909220200 METAR LRTZ 220200Z 24004KT 9999 SKC 09/05 Q1025 BLU BLU=
201909220300 METAR LRTZ 220300Z 32006KT 9999 SKC 08/05 Q1024 BLU BLU=
201909220400 METAR LRTZ 220400Z 28008KT 9999 SKC 09/05 Q1024 BLU BLU=
201909220500 METAR LRTZ 220500Z 28008KT 9999 SKC 10/05 Q1024 BLU BLU=
201909220600 METAR LRTZ 220600Z 27010KT 9999 FEW025 13/07 Q1024 BLU BLU=
201909220700 METAR LRTZ 220700Z 26010KT 9999 FEW025 17/08 Q1024 BLU BLU=
201909220800 METAR LRTZ 220800Z 25010KT 9999 FEW025 19/05 Q1024 BLU BLU=
201909220900 METAR LRTZ 220900Z 24008KT 9999 FEW025 20/03 Q1023 BLU BLU=
201909221100 METAR LRTZ 221100Z 17012KT 9999 FEW030 21/07 Q1022 BLU BLU=
201909221200 METAR LRTZ 221200Z 18014KT 9999 SKC 20/09 Q1021 BLU BLU=
201909221300 METAR LRTZ 221300Z 17016KT 9999 SKC 20/09 Q1020 BLU BLU=
201909221400 METAR LRTZ 221400Z 16018KT 9999 SKC 20/10 Q1020 BLU BLU=
201909221500 METAR LRTZ 221500Z 18018KT 9999 SKC 19/09 Q1019 BLU BLU=
201909221600 METAR LRTZ 221600Z 19012KT 9999 SKC 18/08 Q1019 BLU BLU=
201909221700 METAR LRTZ 221700Z 18010KT 9999 SKC 16/08 Q1019 BLU BLU=
201909221800 METAR LRTZ 221800Z 17008KT 9999 SKC 15/08 Q1019 BLU BLU=
201909222000 METAR LRTZ 222000Z 19006KT 9999 SKC 13/09 Q1019 BLU BLU=
201909222100 METAR LRTZ 222100Z 20006KT 9999 SKC 13/09 Q1019 BLU BLU=
201909222300 METAR LRTZ 222300Z 22006KT 9999 SKC 13/09 Q1018 BLU BLU=
201909230300 METAR LRTZ 230300Z 22004KT 9999 FEW200 10/08 Q1017 BLU BLU=
201909230500 METAR LRTZ 230500Z 22004KT 9999 BKN200 12/08 Q1016 BLU BLU=
201909230600 METAR LRTZ 230600Z 22006KT 9999 BKN200 16/12 Q1017 BLU BLU=
201909230700 METAR LRTZ 230700Z 22006KT 9999 BKN200 18/12 Q1017 BLU BLU=
201909230800 METAR LRTZ 230800Z 22010KT 9999 BKN200 20/12 Q1017 BLU BL=
201909230900 METAR LRTZ 230900Z 22012KT 9999 BKN200 21/12 Q1016 BLU BLU=
201909231000 METAR LRTZ 231000Z 22012KT 9999 BKN200 21/11 Q1016 BLU BLU=
201909231100 METAR LRTZ 231100Z 17014KT 9999 BKN200 22/13 Q1015 BLU BLU=
201909231200 METAR LRTZ 231200Z 17014KT 9999 BKN150 21/12 Q1015 BLU BLU=
201909231300 METAR LRTZ 231300Z 17014KT 9999 BKN150 21/14 Q1015 BLU BLU=
201909231400 METAR LRTZ 231400Z 17014KT 9999 BKN150 21/14 Q1014 BLU BLU=
201909231500 METAR LRTZ 231500Z 17014KT 9999 BKN090 20/13 Q1014 BLU BLU=
201909231600 METAR LRTZ 231600Z 17012KT 9999 BKN090 19/13 Q1014 BLU BLU=
201909231700 METAR LRTZ 231700Z 17012KT 9999 BKN090 19/13 Q1014 BLU BLU=
201909231800 METAR LRTZ 231800Z 17012KT 9999 BKN090 18/13 Q1014 BLU BLU=
201909231900 METAR LRTZ 231900Z 17010KT 9999 BKN090 18/13 Q1015 BLU BLU=
201909232000 METAR LRTZ 232000Z 17010KT 9999 FEW040 BKN090 17/13 Q1015
                        BLU BLU=
201909232100 METAR LRTZ 232100Z 17010KT 9999 FEW040 BKN090 17/13 Q1015
                        BLU BLU=
201909232300 METAR LRTZ 232300Z 17010KT 9999 SCT040 BKN090 17/13 Q1015
                        BLU BLU=
201909240200 METAR LRTZ 240200Z 17012KT 9999 SCT030 BKN090 16/13 Q1013
                        BLU BLU=
201909240300 METAR LRTZ 240300Z 17010KT 9999 SCT020 BKN090 18/14 Q1013
                        BLU BLU=
201909240400 METAR LRTZ 240400Z 17010KT 9999 -RA SCT015 BKN030 OVC090
                        19/14 Q1013 BLU WHT=
201909240500 METAR LRTZ 240500Z 10010KT 9999 -RA BKN015 OVC090 19/14 Q1013
                        WHT WHT=
201909240600 METAR LRTZ 240600Z 12010KT 9999 -RA SCT015 BKN020 OVC090
                        19/14 Q1014 WHT WHT=
201909240700 METAR LRTZ 240700Z 12010KT 8000 -RA SCT015 BKN020 OVC090
                        18/16 Q1014 WHT WHT=
201909240800 METAR LRTZ 240800Z 12012KT 9999 -RA SCT015 BKN025 OVC060
                        18/15 Q1014 BLU BLU=
201909240900 METAR LRTZ 240900Z 12010KT 9999 SCT015 BKN030 OVC090 18/15
                        Q1014 BLU BLU=
201909241000 METAR LRTZ 241000Z 12010KT 9999 SCT020 BKN030 OVC090 19/14
                        Q1014 BLU BLU=
201909241100 METAR LRTZ 241100Z 12010KT 9999 SCT020 OVC070 19/13 Q1013
                        BLU BLU=
201909241200 METAR LRTZ 241200Z 09010KT 9999 SCT020 OVC070 19/13 Q1013
                        BLU BLU=
201909241300 METAR LRTZ 241300Z 09010KT 9999 -RA SCT020 OVC070 17/15 Q1013
                        BLU BLU=
201909241400 METAR LRTZ 241400Z 09010KT 9999 FEW020 BKN035 OVC070 17/15
                        Q1012 BLU BLU=
201909241500 METAR LRTZ 241500Z 09006KT 8000 -DZ BKN010 OVC050 17/15 Q1012
                        GRN GRN=
201909241600 METAR LRTZ 241600Z 09006KT 3000 -RA BR BKN010 OVC035 17/15
                        Q1012 YLO YLO=
201909241700 METAR LRTZ 241700Z 09006KT 4500 -RA BR SCT007 BKN030 OVC060
                        17/15 Q1012 GRN YLO=
201909241800 METAR LRTZ 241800Z VRB03KT 5000 RA BR SCT007 BKN15 OVC030
                        16/15 Q1013 WHT WHT=
201909241900 METAR LRTZ 241900Z VRB03KT 5000 RA BR SCT007 BKN15 OVC030
                        15/14 Q1012 WHT WHT=
201909242000 METAR LRTZ 242000Z VRB03KT 3000 RA BR SCT007 BKN15 OVC030
                        15/14 Q1013 GRN WHT=
201909242300 METAR LRTZ 242300Z 34006KT 7000 -RA SCT007 BKN015 OVC030
                        15/14 Q1012 WHT WHT=
201909250300 METAR LRTZ 250300Z 06010KT 9999 FEW007 BKN100 18/12 Q1011
                        BLU BLU=
201909250400 METAR LRTZ 250400Z 06010KT 9999 FEW007 BKN070 18/11 Q1011
                        BLU BLU=
201909250500 METAR LRTZ 250500Z 06008KT 9999 FEW015 BKN070 BKN100 18/11
                        Q1012 BLU BLU=
201909250700 METAR LRTZ 250700Z 09010KT 9999 FEW030 BKN090 21/14 Q1012
                        BLU BLU=
201909250800 METAR LRTZ 250800Z 09010KT 9999 FEW030 BKN090 20/13 Q1013
                        BLU BLU=
201909250900 METAR LRTZ 250900Z 09010KT 9999 SCT025 BKN090 20/14 Q1013
                        BLU BLU=
201909251000 METAR LRTZ 251000Z 09010KT 9999 SCT025 BKN090 20/12 Q1013
                        BLU BLU=
201909251100 METAR LRTZ 251100Z 09010KT 9999 SCT025 BKN090 20/13 Q1013
                        BLU BLU=
201909251200 METAR LRTZ 251200Z 09010KT 9999 SCT025 BKN090 20/14 Q1013
                        BLU BLU=
201909251400 METAR LRTZ 251400Z 09010KT 9999 SCT025 BKN090 19/14 Q1013
                        BLU BLU=
201909251500 METAR LRTZ 251500Z 09010KT 9999 SCT025 BKN090 19/14 Q1013
                        BLU BLU=
201909251600 METAR LRTZ 251600Z 09010KT 9999 SCT025 BKN090 18/14 Q1013
                        BLU BLU=
201909251700 METAR LRTZ 251700Z 09010KT 9999 SCT022 BKN090 18/14 Q1013
                        BLU BLU=
201909251800 METAR LRTZ 251800Z 09010KT 9999 SCT020 BKN090 18/14 Q1014
                        BLU BLU=
201909251900 METAR LRTZ 251900Z 09010KT 9999 SCT020 BKN090 18/14 Q1014
                        BLU BLU=
201909252000 METAR LRTZ 252000Z 110010KT 9999 SCT020 BKN090 18/14 Q1014
                        BLU BLU=
201909252100 METAR LRTZ 252100Z 11010KT 9999 SCT020 BKN090 18/14 Q1014
                        BLU BLU=
201909252300 METAR LRTZ 252300Z 11010KT 9999 SCT020 BKN090 17/13 Q1014
                        BLU BLU=
201909260300 METAR LRTZ 260300Z 11010KT 7000 SCT020 OVC090 17/14 Q1013
                        WHT WHT=
201909260400 METAR LRTZ 260400Z 11010KT 9999 SCT020 OVC090 18/14 Q1012
                        BLU BLU=
201909260500 METAR LRTZ 260500Z 11010KT 9999 SCT020 OVC090 18/14 Q1013
                        BLU BLU=
201909260600 METAR LRTZ 260600Z 13010KT 9999 BKN020 OVC070 19/15 Q1013
                        BLU BLU=
201909260700 METAR LRTZ 260700Z 13010KT 9999 BKN020 OVC050 19/15 Q1013
                        WHT BLU=
201909260800 METAR LRTZ 260800Z 13008KT 6000 -RA SCT010 OVC020 18/15 Q1013
                        WHT WHT=
201909260900 METAR LRTZ 260900Z 14008KT 9999 BKN020 OVC070 19/16 Q1013
                        WHT WHT=
201909261000 METAR LRTZ 261000Z 14012KT 9999 -RA BKN020 OVC070 20/17 Q1013
                        WHT WHT=
201909261100 METAR LRTZ 261100Z 14012KT 9999 SCT020 BKN070 21/17 Q1013
                        BLU BLU=
201909261200 METAR LRTZ 261200Z 16014KT 9999 SCT020 BKN070 21/17 Q1012
                        BLU BLU=
201909261300 METAR LRTZ 261300Z 16012KT 9999 SCT015 BKN050 21/17 Q1012
                        BLU BLU=
201909261400 METAR LRTZ 261400Z 16014KT 9999 SCT015 BKN050 OVC090 20/17
                        Q1011 BLU WHT=
201909261500 METAR LRTZ 261500Z 16012KT 9999 FEW010 BKN015 OVC050 20/17
                        Q1011 WHT WHT=
201909261600 METAR LRTZ 261600Z 16012KT 9999 -TSRA SCT015CB BKN020 OVC050
                        20/18 Q1011 WHT WHT=
201909261700 METAR LRTZ 261700Z 16008KT 9999 -RA SCT015 BKN020 OVC050
                        19/18 Q1011 WHT WHT=
201909261800 METAR LRTZ 261800Z 16008KT 9999 SCT015 BKN020 OVC090 20/18
                        Q1011 WHT WHT=
201909261900 METAR LRTZ 261900Z 20006KT 9999 VCTS FEW010CB BKN020 OVC100
                        19/18 Q1011 WHT WHT=
201909262000 METAR LRTZ 262000Z 22006KT 8000 -RA SCT010 BKN020 OVC100
                        19/18 Q1010 WHT WHT=
201909262100 METAR LRTZ 262100Z 24006KT 9999 SCT010 BKN020 OVC100 18/17
                        Q1010 WHT WHT=
201909262300 METAR LRTZ 262300Z 25008KT 9999 SCT010 BKN025 BKN100 18/17
                        Q1010 BLU BLU=
201909270300 METAR LRTZ 270300Z 30012KT 8000 SCT100 16/14 Q1010 BLU BLU=
201909270400 METAR LRTZ 270400Z 30016KT 8000 SCT040 BKN100 16/14 Q1010
                        BLU BLU=
201909270500 METAR LRTZ 270500Z 30016KT 9999 BKN015 BKN030 16/14 Q1011
                        WHT WHT=
201909270600 METAR LRTZ 270600Z 30016KT 9999 BKN020 17/14 Q1011 WHT WHT=
201909270700 METAR LRTZ 270700Z 30010G20KT 9999 SCT015 BK100 18/14 Q1012
                        BLU BLU=
201909270800 METAR LRTZ 270800Z 30020KT 9999 BKN020 18/14 Q1012 BLU BLU=
201909270900 METAR LRTZ 270900Z 30020G30KT 9999 SCT010 BKN020 18/15 Q1012
                        BLU BLU=
201909271000 METAR LRTZ 271000Z 30015G25KT 9999 SCT015 BKN025 18/14 Q1012
                        BLU BLU=
201909271100 METAR LRTZ 271100Z 30020G30KT 9999 BKN025 20/14 Q1012 BLU
                        BLU=
201909271200 METAR LRTZ 271200Z 30020G30KT 9999 SCT020 BKN040 19/13 Q1012
                        BLU BLU=
201909271300 METAR LRTZ 271300Z 30020G30KT 9999 SCT020 BKN040 17/13 Q1012
                        BLU BLU=
201909271400 METAR LRTZ 271400Z 30020G30KT 7000 -RA SCT010 BKN015 OVC020
                        15/14 Q1013 WHT WHT=
201909271500 METAR LRTZ 271500Z 30015G25KT 9999 BKN010 OVC020 15/14 Q1014
                        GRN WHT=
201909271600 METAR LRTZ 271600Z 30016KT 9999 BKN010 BKN020 16/14 Q1015
                        GRN WHT=
201909271700 METAR LRTZ 271700Z 30016KT 9999 BKN025 BKN100 15/14 Q1016
                        BLU BLU=
201909271800 METAR LRTZ 271800Z 30010KT 9999 BKN100 15/13 Q1017 BLU BLU=
201909271900 METAR LRTZ 271900Z 30010KT 9999 SCT100 14/13 Q1017 BLU BLU=
201909272000 METAR LRTZ 272000Z 30010KT 9999 SCT100 14/13 Q1017 BLU BLU=
201909272300 METAR LRTZ 272300Z 30010KT 9999 SCT200 13/12 Q1018 BLU BLU=
201909280300 METAR LRTZ 280300Z 33006KT 9999 SCT200 11/10 Q1019 BLU WHT=
201909280400 METAR LRTZ 280400Z VRB03KT 9999 FEW200 11/10 Q1019 BLU WHT=
201909280500 METAR LRTZ 280500Z 33006KT 9999 SKC 11/10 Q1019 BLU BLU=
201909280600 METAR LRTZ 280600Z 30004KT 9999 FEW200 15/11 Q1020 BLU BLU=
201909280700 METAR LRTZ 280700Z 27004KT 9999 FEW200 18/13 Q1020 BLU BLU=
201909280800 METAR LRTZ 280800Z 20004KT 9999 SCT200 20/12 Q1020 BLU BLU=
201909281000 METAR LRTZ 281000Z 19010KT 9999 BKN200 21/13 Q1020 BLU BLU=
201909281100 METAR LRTZ 281100Z 15012KT 9999 FEW035 BKN200 21/13 Q1020
                        BLU BLU=
201909281300 METAR LRTZ 281300Z 16014KT 9999 FEW035 BKN200 21/14 Q1019
                        BLU BLU=
201909281400 METAR LRTZ 281400Z 17010KT 9999 FEW035 BKN200 21/15 Q1018
                        BLU BLU=
201909281500 METAR LRTZ 281500Z 18010KT 9999 BKN200 21/15 Q1018 BLU BLU=
201909281600 METAR LRTZ 281600Z 17010KT 9999 BKN200 19/15 Q1018 BLU BLU=
201909281700 METAR LRTZ 281700Z 18008KT 9999 SCT200 18/14 Q1018 BLU BLU=
201909281800 METAR LRTZ 281800Z 18008KT 9999 FEW200 18/15 Q1018 BLU BLU=
201909281900 METAR LRTZ 281900Z 18006KT 9999 FEW200 18/15 Q1018 BLU BLU=
201909282000 METAR LRTZ 282000Z 17006KT 9999 FEW200 17/14 Q1018 BLU BLU=
201909282100 METAR LRTZ 282100Z 18006KT 9999 FEW200 17/14 Q1017 BLU BLU=
201909282300 METAR LRTZ 282300Z 18004KT 9999 FEW200 16/14 Q1017 BLU BLU=
201909290100 METAR LRTZ 290100Z 18004KT 7000 FEW200 15/13 Q1016 WHT WHT=
201909290200 METAR LRTZ 290200Z 19004KT 7000 FEW200 15/13 Q1015 WHT WHT=
201909290300 METAR LRTZ 290300Z 18004KT 8000 FEW200 15/14 Q1015 BLU BLU=
201909290400 METAR LRTZ 290400Z VRB03KT 8000 SCT200 14/14 Q1015 BLU BLU=
201909290500 METAR LRTZ 290500Z 22004KT 9999 SCT200 15/14 Q1015 BLU BLU=
201909290600 METAR LRTZ 290600Z 27008KT 9999 FEW200 18/14 Q1015 BLU BLU=
201909290700 METAR LRTZ 290700Z 27008KT 9999 SKC 21/14 Q1015 BLU BLU=
201909290800 METAR LRTZ 290800Z 27008KT 9999 SKC 24/13 Q1015 BLU BLU=
201909290900 METAR LRTZ 290900Z 36008KT 9999 FEW200 25/13 Q1015 BLU BLU=
201909291000 METAR LRTZ 291000Z 36012KT 9999 FEW200 25/12 Q1015 BLU BLU=
201909291100 METAR LRTZ 291100Z 03010KT 9999 FEW200 25/13 Q1015 BLU BLU=
201909291200 METAR LRTZ 291200Z 02008KT 9999 FEW200 26/12 Q1015 BLU BLU=
201909291300 METAR LRTZ 291300Z 08006KT 9999 SCT200 25/13 Q1014 BLU BLU=
201909291400 METAR LRTZ 291400Z 09006KT 9999 SCT200 23/14 Q1014 BLU BLU=
201909291500 METAR LRTZ 291500Z 15008KT 9999 BKN200 22/15 Q1014 BLU BLU=
201909291600 METAR LRTZ 291600Z VRB03KT 9999 SCT200 21/16 Q1014 BLU BLU=
201909291700 METAR LRTZ 291700Z VRB03KT 9999 FEW200 20/14 Q1014 BLU BLU=
201909291800 METAR LRTZ 291800Z 00000KT 9999 FEW200 19/15 Q1014 BLU BLU=
201909291900 METAR LRTZ 291900Z 00000KT 9999 SKC 18/15 Q1015 BLU BLU=
201909292000 METAR LRTZ 292000Z 00000KT 9999 SKC 18/15 Q1014 BLU BLU=
201909292100 METAR LRTZ 292100Z 00000KT 9999 SKC 18/15 Q1014 BLU BLU=
201909292300 METAR LRTZ 292300Z VRB03KT 9999 FEW200 18/15 Q1013 BLU BLU=
201909300300 METAR LRTZ 300300Z 18006KT 9999 BKN090 19/17 Q1012 BLU BLU=
201909300400 METAR LRTZ 300400Z 19006KT 9999 OVC070 19/17 Q1011 BLU BLU=
201909300500 METAR LRTZ 300500Z 19012KT 9999 OVC080 20/18 Q1011 BLU BLU=
201909300600 METAR LRTZ 300600Z 21012KT 9999 BKN100 21/19 Q1011 BLU BLU=
201909300700 METAR LRTZ 300700Z 22014KT 9999 SCT160 22/18 Q1011 BLU BLU=
201909300800 METAR LRTZ 300800Z 21016KT 9999 FEW200 25/17 Q1011 BLU BLU=
201909300900 METAR LRTZ 300900Z 21014KT 9999 FEW200 26/18 Q1010 BLU BLU=
201909301000 METAR LRTZ 301000Z 19016KT 9999 SCT080 BKN200 27/16 Q1009
                        BLU BLU=
201909301100 METAR LRTZ 301100Z 20018KT 9999 SCT060 BKN200 27/16 Q1009
                        BLU BLU=
201909301200 METAR LRTZ 301200Z 20016KT 9999 SCT070 BKN200 26/18 Q1009
                        BLU BLU=
201909301300 METAR LRTZ 301300Z 20016KT 9999 SCT070 BKN100 25/18 Q1008
                        BLU BLU=
201909301400 METAR LRTZ 301400Z 20016KT 9999 SCT100 24/18 Q1007 BLU BLU=
201909301500 METAR LRTZ 301500Z 19014KT 9999 BKN090 23/17 Q1007 BLU BLU=
201909301600 METAR LRTZ 301600Z 20010KT 9999 BKN080 22/17 Q1007 BLU BLU=
201909301700 METAR LRTZ 301700Z 20008KT 9999 SCT080 21/15 Q1007 BLU BLU=
201909301800 METAR LRTZ 301800Z 21008KT 9999 SCT085 21/15 Q1008 BLU BLU=
201909301900 METAR LRTZ 301900Z 21006KT 9999 SCT080 20/15 Q1008 BLU BLU=
201909302000 METAR LRTZ 302000Z 22006KT 9999 SCT090 20/15 Q1008 BLU BLU=
201909302100 METAR LRTZ 302100Z 24006KT 9999 SCT090 19/14 Q1008 BLU BLU=
201909302300 METAR LRTZ 302300Z 28006KT 9999 FEW100 18/13 Q1009 BLU BLU=