201909010500 TAF LRTZ 010500Z 0106/0206 02012KT 9999 SKC
                      TEMPO 0110/0114 SCT035
                      BECMG 0117/0119 VRB03KT
                      TEMPO 0200/0204 4000 BR=
201909011700 TAF LRTZ 011700Z 0118/0218 VRB03KT 9999 SKC
                      PROB40 TEMPO 0200/0204 3000 BR
                      BECMG 0203/0205 04010KT=
201909012300 TAF LRTZ 012300Z 0200/0300 VRB03K 9999 SKC
                      PROB40 TEMPO 0200/0204 3000 BR
                      BECMG 0203/0205 04010KT=
201909020500 TAF LRTZ 020500Z 0206/0306 07010KT 9999 SKC
                      BECMG 0216/0218 VRB03KT
                      TEMPO 0300/0304 3000 BR=
201909021100 TAF LRTZ 021100Z 0212/0312 07010KT 9999 SKC
                      BECMG 0216/0218 VRB03KT SCT200
                      TEMPO 0300/0305 3000 BR
                      PROB30 TEMPO 0302/0304 0800 FG VV003
                      BECMG 0306/0308 03014KT=
201909021700 TAF LRTZ 021700Z 0218/0318 VRB03KT 9999 SCT200
                      TEMPO 0300/0305 3000 BR
                      PROB30 TEMPO 0302/0304 0800 FG VV003
                      BECMG 0306/0308 SCT040 03014KT=
201909030500 TAF LRTZ 030500Z 0306/0406 03010KT 9999 SCT200
                      TEMPO 0310/0314 SCT040
                      BECMG 0318/0320 21006KT SCT100 BKN200
                      BECMG 0402/0404 36016KT BKN040=
201909031100 TAF LRTZ 031100Z 0312/0412 12010KT 9999 SCT200
                      BECMG 0404/0406 02015G25KT BKN090
                      TEMPO 0406/0412 5000 SHRA SCT015 BKN020CB
                       BKN070=
201909031700 TAF LRTZ 031700Z 0318/0418 18006KT 9999 FEW200
                      BECMG 0404/0406 02015G25KT BKN090
                      PROB30 TEMPO 0410/0416 5000 SHRA SCT015 BKN020CB
                       BKN070=
201909032300 TAF LRTZ 032300Z 0400/0500 VRB03KT 9999 SCT100 BKN200
                      BECMG 0404/0406 02014KT
                      PROB40 TEMPO 0409/0415 02015G25KT 5000 SHRA
                       SCT015 BKN020CB BKN070=
201909040500 TAF LRTZ 040500Z 0406/0506 03014KT 9999 BKN100
                      TEMPO 0408/0414 01010G20KT SCT040 BKN090
                       BECMG 0418/0420 05006KT=
201909041100 TAF LRTZ 041100Z 0412/0512 06018KT 9999 BKN100
                      TEMPO 0412/0416 SCT030
                      BECMG 0418/0420 34014KT SCT100
                      BECMG 0504/0506 04012KT SCT200=
201909041700 TAF LRTZ 041700Z 0418/0518 06014KT 9999 BKN100
                      BECMG 0419/0421 34012KT SCT100
                      BECMG 0504/0506 04012KT SCT200=
201909050500 TAF LRTZ 050500Z 0506/0606 06016KT 9999 BNK090
                      PROB30 TEMPO 0506/0508 8000 -SHRA SCT040CB
                       BECMG 0508/0510 14012KT SCT100=
201909051100 TAF LRTZ 051100Z 0512/0612 04012KT 9999 SCT030 BKN090
                      BECMG 0516/0518 SCT200=
201909051700 TAF LRTZ 051700Z 0518/0618 VRB03KT 9999 SCT200
                      BECMG 0605/0607 04012KT
                      TEMPO 0610/0615 SCT040=
201909060500 TAF LRTZ 060500Z 0606/0706 04012KT 9999 SCT200
                      PROB30 TEMPO 0610/0615 10012KT SCT040
                      BECMG 0618/0620 VRB03KT=
201909061100 TAF LRTZ 061100Z 0612/0712 09014KT 9999 SCT150
                      BECMG 0616/0618 03006KT
                      BECMG 0620/0622 VRB03KT SCT050 BKN100
                      PROB30 TEMPO 0702/0704 5000 BR
                      BECMG 0706/0708 03016KT BKN040=
201909061700 TAF LRTZ 061700Z 0618/0718 VRB03KT 9999 SCT100
                      BECMG 0704/0706 03010KT SCT030 BKN090
                      PROB40 TEMPO 0708/0712 06010G20KT 7000 -SHRA
                       SCT020CB BKN040=
201909062300 TAF LRTZ 062300Z 0700/0800 VRB03KT 9999 FEW200
                      BECMG 0704/0706 01010KT SCT050
                      BECMG 0712/0714 07016KT SCT100=
201909071100 TAF LRTZ 071100Z 0712/0812 06014KT 9999 SCT025
                      BECMG 0715/0717 06004KT
                      BECMG 0802/0804 09012KT BKN030
                      TEMPO 0804/0810 5000 -SHRA RA BKN020 SCT030CB
                       BKN090=
201909071700 TAF LRTZ 071700Z 0718/0818 06004KT 9999 SKC
                      BECMG 0800/0802 09010KT BKN030
                      TEMPO 0803/0809 7000 -SHRA RA BKN020 SCT030CB
                       BKN090
                      BECMG 0809/0811 09010G20KT SCT050=
201909080500 TAF LRTZ 080500Z 0806/0906 09010KT 9999 SCT020 BKN035CB
                      BECMG 0810/0812 09010G20KT SCT200
                      BECMG 0815/0817 VRB03KT=
201909081100 TAF LRTZ 081100Z 0812/0912 09014KT 9999 SCT025 BKN200
                      BECMG 0815/0817 VRB03KTSCT200
                      BECMG 0906/0908 06014KT BKN030=
201909081700 TAF LRTZ 081700Z 0818/0918 VRB03KT 9999 SCT200
                      BECMG 0906/0908 06014KT BKN030=
201909082300 TAF LRTZ 082300Z 0900/1000 09004KT 9999 SCT200
                      BECMG 0906/0908 06014KT BKN030=
201909090500 TAF LRTZ 090500Z 0906/1006 06014KT 9999 BKN025
                      TEMPO 1001/1005 4000 BR=
201909091100 TAF LRTZ 091100Z 0912/1012 06018KT 9999 SCT030
                      BECMG 0918/0920 09008KT BKN070
                      BECMG 1000/1002 VRB03KT 5000 BR
                      PROB40 TEMPO 1002/1006 0800 FG BKN005
                      BECMG 1007/1009 09018KT 9999 SCT030=
201909091700 TAF LRTZ 091700Z 0918/1018 12010KT 9999 SCT030
                      TEMPO 1000/1006 VRB03KT 5000 BR
                      PROB30 TEMPO 1002/1006 0800 FG BKN005
                      BECMG 1010/1012 06018KT=
201909100500 TAF LRTZ 100500Z 1006/1106 36008KT 9999 BKN200
                      BECMG 1009/1011 06014KT SCT030
                      PROB30 TEMPO 1102/1104 5000 BR=
201909101100 TAF LRTZ 101100Z 1012/1112 09014KT 9999 SCT025 BKN200
                      BECMG 1016/1018 02004KT SCT200
                      BECMG 1106/1108 06014KT BKN030=
201909101700 TAF LRTZ 101700Z 1018/1118 03006KT 9999 BKN200
                      PROB30 TEMPO 1101/1105 5000 BR BKN010
                      BECMG 1106/1108 06016KT BKN030=
201909102300 TAF LRTZ 102300Z 1100/1200 06006KT 9999 BKN200
                      PROB30 TEMPO 1102/1105 5000 BR BKN010
                      BECMG 1106/1108 06016KT BKN030=
201909110500 TAF LRTZ 110500Z 1106/1206 09018KT 9999 BKN025 BKN200
                      BECMG 1117/1119 06008KT SCT200
                      PROB30 TEMPO 1202/1205 5000 BR BKN010=
201909111100 TAF LRTZ 111100Z 1112/1212 09016KT 9999 SCT020
                      BECMG 1117/1119 03012KT SCT200
                      PROB30 TEMPO 1202/1205 5000 BR BKN010=
201909111700 TAF LRTZ 111700Z 1118/1218 06010KT 9999 FEW200
                      PROB30 TEMPO 1202/1205 5000 BR BKN010
                      BECMG 1205/1207 BKN020 BKN090=
201909112300 TAF LRTZ 112300Z 1200/1300 06012KT 9999 BKN025 BKN100
                      PROB30 TEMPO 1202/1205 5000 BR BKN010
                      BECMG 1205/1207 BKN020 BKN090
                      TEMPO 1209/1215 05010G20KT=
201909120500 TAF LRTZ 120500Z 1206/1306 06012KT 9999 BKN200
                      TEMPO 1206/1210 FEW020 SCT040
                      TEMPO 1210/1214 05010G20KT=
201909121100 TAF LRTZ 121100Z 1212/1312 06012KT 9999 SCT020 BKN200
                      BECMG 1216/1218 SCT200=
201909121700 TAF LRTZ 121700Z 1218/1318 10014KT 9999 SCT200
                      BECMG 1308/1310 02010KT SKC=
201909122300 TAF LRTZ 122300Z 1300/1400 10014KT 9999 SCT200
                      BECMG 1308/1310 02010KT SKC=
201909130500 TAF LRTZ 130500Z 1306/1406 03012KT 9999 SKC
                      TEMPO 1306/1309 SCT200
                      BECMG 1320/1322 33006KT
                      PROB30 TEMPO 1402/1406 3000 BR=
201909131100 TAF LRTZ 131100Z 1312/1412 06014KT 9999 SKC
                      BECMG 1316/1318 33006KT
                      BECMG 1406/1408 06010KT
                      TEMPO 1409/1412 SCT030=
201909131700 TAF LRTZ 131700Z 1318/1418 VRB03KT 9999 SKC
                      BECMG 1406/1408 06010KT
                      TEMPO 1410/1414 SCT030=
201909132300 TAF LRTZ 132300Z 1400/1500 VRB03KT 9999 SKC
                      BECMG 1406/1408 03008KT
                      TEMPO 1410/1416 BKN050
                      BECMG 1418/1420 06018KT=
201909140500 TAF LRTZ 140500Z 1406/1506 33010KT 9999 SKC
                      BECMG 1410/1412 03010KT BKN040
                      BECMG 1419/1421 06020KT SKC=
201909141100 TAF LRTZ 141100Z 1412/1512 09010KT 9999 FEW035
                      BECMG 1419/1421 36016KT BKN100
                      BECMG 1504/1506 SKC
                      TEMPO 1508/1512 SCT035=
201909141700 TAF LRTZ 141700Z 1418/1518 36014KT 9999 BKN080
                      BECMG 1506/1508 SKC
                      TEMPO 1508/1514 SCT035=
201909142300 TAF LRTZ 142300Z 1500/1600 03014KT 9999 BKN100
                      BECMG 1506/1508 SKC
                      TEMPO 1508/1514 SCT035
                      BECMG 1516/1518 VRB03KT=
201909150500 TAF LRTZ 150500Z 1506/1606 03010KT 9999 SKC
                      TEMPO 1508/1514 SCT035
                      BECMG 1516/1518 VRB03KT=
201909151100 TAF LRTZ 151100Z 1512/1612 06010KT 9999 SKC
                      BECMG 1516/1518 VRB03KT=
201909151700 TAF LRTZ 151700Z 1518/1618 VRB03KT 9999 SKC
                      BECMG 1604/1606 21008KT
                      PROB30 TEMPO 1608/1614 SCT030
                      BECMG 1616/1618 23018KT=
201909152300 TAF LRTZ 152300Z 1600/1700 VRB03KT 9999 SKC
                      BECMG 1604/1606 21008KT
                      PROB30 TEMPO 1608/1614 SCT030
                      TEMPO 1618/1622 23018KT=
201909160500 TAF LRTZ 160500Z 1606/1706 VRB03KT 9999 SKC
                      BECMG 1610/1612 21008KT
                      PROB30 TEMPO 1608/1614 SCT030=
201909161100 TAF LRTZ 161100Z 1612/1712 21010KT 9999 SCT200=
201909161700 TAF LRTZ 161700Z 1618/1718 21010KT 9999 SCT200=
201909162300 TAF LRTZ 162300Z 1700/1800 21010KT 9999 SCT200=
201909170500 TAF LRTZ 170500Z 1706/1806 21010KT 9999 SCT200
                      BECMG 1716/1718 SCT090 BKN200=
201909171100 TAF LRTZ 171100Z 1712/1812 12012KT 9999 BKN200
                      BECMG 1718/1720 VRB03KT
                      BECMG 1806/1808 03010G20KT SCT030 BKN080=
201909180500 TAF LRTZ 180500Z 1806/1906 03010G20KT 9999 BKN200
                      BECMG 1809/1811 SCT030 BKN080
                      PROB30 TEMPO 1814/1818 7000 -RA BKN015 OVC040=
201909181100 TAF LRTZ 181100Z 1812/1912 06012KT 9999 BKN100
                      TEMPO 1812/1816 35018KT SCT030
                      BECMG 1818/1820 BKN035=
201909181700 TAF LRTZ 181700Z 1818/1918 03010KT 9999 BKN100
                      BECMG 1906/1908 BKN050
                      BECMG 1910/1912 15010KT
                      PROB30 TEMPO 1916/1918 7000 -RA BKN015 OVC040=
201909182300 TAF LRTZ 182300Z 1900/2000 03010KT 9999 BKN100
                      BECMG 1906/1908 BKN050
                      BECMG 1910/1912 15010KT
                      PROB30 TEMPO 1916/1918 7000 -RA BKN015 OVC040=
201909190500 TAF LRTZ 190500Z 1906/2006 12016KT 9999 BKN040
                      PROB30 TEMPO 1906/1908 7000 -RA BKN020 OVC060
                       BECMG 1920/1922 18012KT 5000 RA BKN015 OVC040=
201909191100 TAF LRTZ 191100Z 1912/2012 12016KT 9999 SCT035 BKN070
                      BECMG 1918/1920 36014KT 6000 -RA BKN020 OVC050
                       PROB30
                      TEMPO 2001/2006 VRB18KT 4000 -SHRA SCT017CB
                       BKN070=
201909191700 TAF LRTZ 191700Z 1918/2018 15012KT 9999 BKN035 BKN080
                      TEMPO 1919/2001 VRB18KT 4000 -SHRA SCT025CB
                       BKN070
                      BECMG 1921/1923 36014KT
                      BECMG 2011/2013 SCT050 BKN100=
201909192300 TAF LRTZ 192300Z 2000/2100 36014KT 9999 SCT025 BKN080
                      TEMPO 2002/2008 VRB18KT 5000 -SHRA SCT025CB
                       BKN050
                      BECMG 2011/2013 SCT050 BKN100=
201909200500 TAF LRTZ 200500Z 2006/2106 03014KT 5000 RA BR SCT015 BKN020 OVC070
                       BECMG 2007/2009 9999 NSW SCT025 BKN100=
201909201100 TAF LRTZ 201100Z 2012/2112 03014KT 9999 SCT100
                      TEMPO 2109/2114 SCT035=
201909201700 TAF LRTZ 201700Z 2018/2118 33008KT 9999 SCT200
                      TEMPO 2109/2114 SCT035
                      BECMG 2114/216 22010KT=
201909202300 TAF LRTZ 202300Z 2100/2200 33008KT 9999 SCT200
                      TEMPO 2109/2114 SCT035
                      BECMG 2114/216 22010KT=
201909210500 TAF LRTZ 210500Z 2106/2206 33010KT 9999 BKN200
                      TEMPO 2109/2114 SCT035
                      BECMG 2114/216 22010KT=
201909211100 TAF LRTZ 211100Z 2112/2212 03012KT 9999 BKN040
                      BECMG 2116/2118 24008KT SKC
                      TEMPO 2209/2212 SCT035=
201909211700 TAF LRTZ 211700Z 2118/2218 03004KT 9999 SCT200
                      BECMG 2119/2121 VRB03KT SKC
                      BECMG 2206/2208 24010KT
                      TEMPO 2210/2214 SCT035
                      TEMPO 2214/2217 18016KT=
201909212300 TAF LRTZ 212300Z 2200/2300 VRB03KT 9999 SKC
                      BECMG 2206/2208 24010KT
                      TEMPO 2210/2214 SCT035
                      TEMPO 2214/2217 18016KT=
201909220500 TAF LRTZ 220500Z 2206/2306 24010KT 9999 SKC
                      TEMPO 2212/2215 18016KT=
201909221100 TAF LRTZ 221100Z 2212/2312 15016KT 9999 SKC
                      TEMPO 2212/2214 FEW030
                      TEMPO 2300/2306 21010KT
                      BECMG 2308/2310 SCT040=
201909221700 TAF LRTZ 221700Z 2218/2318 24010KT 9999 SKC
                      BECMG 2308/2310 15016KT SCT040
                      BECMG 2316/2318 SCT025 BKN100=
201909230500 TAF LRTZ 230500Z 2306/2406 21006KT 9999 BKN200
                      BECMG 2308/2310 17016KT
                      BECMG 2316/2318 SCT025 BKN100=
201909231100 TAF LRTZ 231100Z 2312/2412 17014KT 9999 BKN200
                      BECMG 2316/2318 SCT025 BKN100
                      BECMG 2406/2408 09014KT 4000 SHRA BR SCT010
                       BKN025CB OVC060=
201909231700 TAF LRTZ 231700Z 2318/2418 17014KT 9999 SCT025 BKN090
                      BECMG 2406/2408 09014KT 4000 SHRA BR SCT010
                       BKN025CB OVC060=
201909240500 TAF LRTZ 240500Z 2406/2506 09014KT 5000 RA BR BKN015 OVC060
                      BECMG 2416/2418 9999 SCT020 BKN090=
201909241100 TAF LRTZ 241100Z 2412/2512 08008KT
                      TEMPO 2412/1418 14010KT 8000 -RA BKN025 OVC060
                       BECMG 2418/2420 9999 FEW020 BKN100=
201909241700 TAF LRTZ 241700Z 2418/2518 08008KT 9999 SCT015 BKN030 OVC070
                      TEMPO 2418/2500 04008KT 5000 -RA BR BKN010
                       OVC040
                      BECMG 2502/2504 9999 SCT010 BKN040 OVC100=
201909242300 TAF LRTZ 242300Z 2500/2600 34006KT 9999 SCT015 BKN030 OVC070
                      TEMPO 2500/2504 04008KT 5000 -RA BR BKN010
                       OVC040
                      BECMG 2510/2512 7000 -RA SCT010 BKN020 OVC090=
201909250500 TAF LRTZ 250500Z 2506/2606 09014KT 9999 BKN090
                      TEMPO 2508/2514 8000 -RA SCT010 BKN020 BKN090=
201909260500 TAF LRTZ 260500Z 2606/2706 12014KT 9999 SCT020 BKN090
                      BECMG 2608/2610 4000 TSRA SHRA BR SCT010
                       BKN025CB OVC060=
201909261100 TAF LRTZ 261100Z 2612/2712 15014KT 9999 BKN020 BKN070
                      TEMPO 2614/2618 8000 -RA SCT015 BKN030
                      BECMG 2618/2620 4000 TSRA SHRA SCT010 BKN025CB
                       OVC060=
201909261700 TAF LRTZ 261700Z 2618/2718 21006KT 9999 FEW007 BKN015 BKN070
                      TEMPO 2619/2701 4000 TSRA SCT010 BKN025CB
                       OVC060
                      BECMG 2703/2705 27016KT SCT015 BKN100
                      BECMG 2710/2712 27015G25KT=
201909262300 TAF LRTZ 262300Z 2700/2800 27010KT 9999 SCT015 BKN025 OVC100
                      BECMG 2704/2706 27016KT SCT015 BKN100
                      BECMG 2710/2712 27015G25KT
                      BECMG 2718/2720 32010KT SCT200=
201909270500 TAF LRTZ 270500Z 2706/2806 30010G20KT 9999 BKN015 BKN030 OVC070
                       TEMPO 2710/2716 SCT020 BKN090 30020G30KT
                       BECMG 2720/2722 32008KT SCT100
                      PROB40 TEMPO 2802/2804 VRB03KT 800 FG VV002=
201909271100 TAF LRTZ 271100Z 2712/2812 30020G30KT 9999 SCT015 BKN025
                      BECMG 2716/2718 33016KT
                      BECMG 2720/2722 33006KT SCT040
                      PROB40 TEMPO 2802/2804 VRB03KT 0800 FG VV002
                       BECMG 2808/2810 18008KT SCT100=
201909271700 TAF LRTZ 271700Z 2718/2818 33016KT 9999 SCT020 BKN100
                      BECMG 2720/2722 33006KT SCT100
                      PROB40 TEMPO 2802/2806 VRB03KT 0800 FG VV002
                       BECMG 2808/2810 18014KT=
201909272300 TAF LRTZ 272300Z 2800/2900 33010KT 9999 SCT200
                      PROB40 TEMPO 2802/2806 VRB03KT 0800 FG VV002
                       BECMG 2808/2810 18014KT
                      TEMPO 2810/2814 SCT040=
201909280500 TAF LRTZ 280500Z 2806/2906 33008KT 9999 SKC
                      TEMPO 2810/2814 SCT030
                      BECMG 2815/2817 18012KT=
201909281100 TAF LRTZ 281100Z 2812/2912 15014KT 9999 FEW035 BKN200
                      BECMG 2815/2817 SCT200
                      PROB40 TEMPO 2901/2905 VRB03KT 5000 BR
                      BECMG 2906/2908 27012KT=
201909281700 TAF LRTZ 281700Z 2818/2918 18008KT 9999 FEW200
                      PROB40 TEMPO 2901/2905 VRB03KT 5000 BR
                      BECMG 2906/2908 27012KT=
201909282300 TAF LRTZ 282300Z 2900/3000 18006KT 9999 SCT200
                      PROB40 TEMPO 2901/2905 VRB03KT 5000 BR
                      BECMG 2906/2908 27012KT
                      TEMPO 2908/2913 SCT045=
201909290500 TAF LRTZ 290500Z 2906/3006 18012KT 9999 SCT200
                      TEMPO 2908/2913 27014KT SCT040
                      BECMG 2920/2922 VRB03KT 4000 BR
                      PROB30 TEMPO 3001/3005 0800 FG VV001=
201909291100 TAF LRTZ 291100Z 2912/3012 06010KT 9999 SCT200
                      BECMG 2920/2922 VRB03KT 4000 BR
                      PROB30 TEMPO 3001/3005 0800 FG VV001=
201909291700 TAF LRTZ 291700Z 2918/3018 VRB03KT 9999 FEW200
                      PROB30 TEMPO 3000/3004 3500 BR FEW007
                      BECMG 3004/3006 18008KT SCT100=
201909300500 TAF LRTZ 300500Z 3006/0106 20012KT 9999 SCT100
                      TEMPO 3006/3008 BKN080
                      BECMG 3020/3022 27010KT=
201909301100 TAF LRTZ 301100Z 3012/0112 20018KT 9999 SCT060 BKN200
                      BECMG 3018/3020 27010KT SCT200
                      BECMG 0106/0108 06012KT=
201909301700 TAF LRTZ 301700Z 3018/0118 20008KT 9999 SCT080
                      BECMG 3020/3022 33008KT SCT200
                      BECMG 0106/0108 06012KT SCT070=
201909302300 TAF LRTZ 302300Z 0100/0200 33008KT 9999 SCT100
                      BECMG 0107/0109 06012KT
                      BECMG 0112/0114 12008KT=