201910010300 METAR LRTZ 010300Z 33008KT 9999 FEW100 16/11 Q1010 BLU BLU=
201910010400 METAR LRTZ 010400Z 31010KT 9999 SKC 16/11 Q1010 BLU BLU=
201910010500 METAR LRTZ 010500Z 33010KT 9999 SKC 17/11 Q1011 BLU BLU=
201910010600 METAR LRTZ 010600Z 33010KT 9999 SCT200 19/12 Q1012 BLU BLU=
201910010800 METAR LRTZ 010800Z 06018KT 9999 FEW200 21/12 Q1014 BLU BLU=
201910010900 METAR LRTZ 010900Z 06018KT 9999 FEW200 21/10 Q1015 BLU BLU=
201910011000 METAR LRTZ 011000Z 06018KT 9999 FEW200 21/11 Q1015 BLU BLU=
201910011200 METAR LRTZ 011200Z 09014KT 9999 FEW200 21/11 Q1015 BLU BLU=
201910011300 METAR LRTZ 011300Z 09012KT 9999 FEW200 21/12 Q1015 BLU BLU=
201910011400 METAR LRTZ 011400Z 09012KT 9999 FEW200 21/11 Q1015 BLU BLU=
201910011500 METAR LRTZ 011500Z 09012KT 9999 FEW200 20/12 Q1014 BLU BLU=
201910011600 METAR LRTZ 011600Z 09012KT 9999 SCT200 19/12 Q1014 BLU BLU=
201910011700 METAR LRTZ 011700Z 14010KT 9999 SCT200 18/13 Q1014 BLU BLU=
201910011800 METAR LRTZ 011800Z 14008KT 9999 SCT200 18/13 Q1015 BLU BLU=
201910011900 METAR LRTZ 011900Z 14008KT 9999 SCT200 18/13 Q1015 BLU BLU=
201910012000 METAR LRTZ 012000Z 14008KT 9999 SCT200 18/13 Q1015 BLU BLU=
201910012100 METAR LRTZ 012100Z 14008KT 9999 SCT200 18/13 Q1015 BLU BLU=
201910012300 METAR LRTZ 012300Z 14008KT 9999 SCT200 18/13 Q1015 BLU BLU=
201910020300 METAR LRTZ 020300Z 16010KT 9999 SKC 17/15 Q1013 BLU BLU=
201910020400 METAR LRTZ 020400Z 16010KT 9999 SKC 18/15 Q1013 BLU BLU=
201910020500 METAR LRTZ 020500Z 13010KT 9999 SKC 19/15 Q1012 BLU BLU=
201910020600 METAR LRTZ 020600Z 18016KT 9999 SKC 20/15 Q1012 BLU BLU=
201910020700 METAR LRTZ 020700Z 18016KT 9999 SKC 21/15 Q1013 BLU BLU=
201910020800 METAR LRTZ 020800Z 18016KT 9999 SKC 22/15 Q1013 BLU BLU=
201910020900 METAR LRTZ 020900Z 18016KT 9999 SKC 22/15 Q1012 BLU BLU=
201910021000 METAR LRTZ 021000Z 18016KT 9999 SKC 22/15 Q1012 BLU BLU=
201910021100 METAR LRTZ 021100Z 18016KT 9999 SKC 22/15 Q1011 BLU BLU=
201910021200 METAR LRTZ 021200Z 18016KT 9999 SKC 22/15 Q1011 BLU BLU=
201910021300 METAR LRTZ 021300Z 18014KT 9999 SKC 22/15 Q1011 BLU BLU=
201910021400 METAR LRTZ 021400Z 18014KT 9999 SKC 21/16 Q1010 BLU BLU=
201910021500 METAR LRTZ 021500Z 18014KT 9999 SKC 21/17 Q1010 BLU BLU=
201910021600 METAR LRTZ 021600Z 18012KT 9999 FEW015 19/17 Q1010 BLU BLU=
201910021700 METAR LRTZ 021700Z 18012KT 9999 FEW015 19/16 Q1010 BLU BLU=
201910021800 METAR LRTZ 021800Z 18012KT 9999 SKC 19/16 Q1010 BLU BLU=
201910021900 METAR LRTZ 021900Z 18008KT 9999 SKC 19/16 Q1009 BLU BLU=
201910022000 METAR LRTZ 022000Z 18008KT 9999 SKC 19/16 Q1009 BLU BLU=
201910022300 METAR LRTZ 022300Z 16008KT 9999 SKC 18/16 Q1008 BLU BLU=
201910030300 METAR LRTZ 030300Z 16008KT 9999 SCT010 18/17 Q1007 BLU BLU=
201910030400 METAR LRTZ 030400Z 18008KT 9999 BKN015 19/17 Q1007 WHT BLU=
201910030500 METAR LRTZ 030500Z 18008KT 9999 BKN015 19/17 Q1007 WHT BLU=
201910030600 METAR LRTZ 030600Z 18010KT 9999 BKN015 20/17 Q1007 WHT WHT=
201910030700 METAR LRTZ 030700Z 18014KT 9999 BKN015 21/17 Q1007 WHT WHT=
201910030800 METAR LRTZ 030800Z 19016KT 9999 BKN017 22/17 Q1007 WHT WHT=
201910030900 METAR LRTZ 030900Z 20016KT 9999 SCT017 23/18 Q1007 BLU BLU=
201910031000 METAR LRTZ 031000Z 20020KT 9999 SCT015 23/18 Q1007 BLU BLU=
201910031100 METAR LRTZ 031100Z 18020KT 9999 FEW015 23/18 Q1006 BLU BLU=
201910031200 METAR LRTZ 031200Z 19018KT 9999 SKC 24/17 Q1006 BLU BLU=
201910031400 METAR LRTZ 031400Z 18014KT 9999 FEW200 23/18 Q1005 BLU BLU=
201910031500 METAR LRTZ 031500Z 18014KT 9999 FEW200 23/18 Q1005 BLU BLU=
201910031600 METAR LRTZ 031600Z 18010KT 9999 SCT200 21/18 Q1005 BLU BLU=
201910031700 METAR LRTZ 031700Z 18010KT 9999 FEW100 SCT200 21/18 Q1005
                        BLU BLU=
201910031800 METAR LRTZ 031800Z 21006KT 9999 SCT150 20/18 Q1005 BLU BLU=
201910031900 METAR LRTZ 031900Z 22006KT 9999 BKN150 20/17 Q1006 BLU BLU=
201910032000 METAR LRTZ 032000Z 22006KT 9999 BKN130 20/18 Q1006 BLU BLU=
201910032300 METAR LRTZ 032300Z 24006KT 9999 BKN100 19/17 Q1006 BLU BLU=
201910040200 METAR LRTZ 040200Z 27010KT 9999 BKN050 17/16 Q1007 BLU BLU=
201910040300 METAR LRTZ 040300Z 33010KT 8000 BKN050 BKN100 16/14 Q1008
                        BLU WHT=
201910040400 METAR LRTZ 040400Z 33010KT 7000 -RA BKN007 BKN015 15/13 Q1008
                        GRN WHT=
201910040500 METAR LRTZ 040500Z 36008KT 9999 SCT005 BKN007 OVC030 14/13
                        Q1009 GRN WHT=
201910040600 METAR LRTZ 040600Z 02006KT 9999 SCT004 BKN006 OVC020 15/13
                        Q1010 YLO WHT=
201910040700 METAR LRTZ 040700Z 35006KT 8000 -DZ SCT005 BKN007 OVC020
                        14/13 Q1011 GRN WHT=
201910040800 METAR LRTZ 040800Z 35006KT 7000 -DZ SCT003 BKN005 OVC020
                        13/12 Q1011 YLO YLO=
201910040900 METAR LRTZ 040900Z 35008KT 4000 -DZ BR SCT002 BKN004 OVC012
                        13/12 Q1011 YLO YLO=
201910041000 METAR LRTZ 041000Z 34008KT 7000 BKN003 BKN006 OVC012 13/12
                        Q1011 YLO YLO=
201910041100 METAR LRTZ 041100Z 35008KT 9999 SCT004 BKN007 OVC015 14/12
                        Q1011 YLO YLO=
201910041200 METAR LRTZ 041200Z 33006KT 8000 -RA SCT004 BKN006 OVC020
                        14/12 Q1012 YLO YLO=
201910041300 METAR LRTZ 041300Z 34006KT 8000 -RA SCT006 BKN009 OVC025
                        14/12 Q1010 GRN GRN=
201910041400 METAR LRTZ 041400Z 35008KT 9999 BKN010 OVC040 14/12 Q1010
                        GRN GRN=
201910041500 METAR LRTZ 041500Z 34008KT 9999 -RA BKN009 BKN015 OVC040
                        14/12 Q1009 GRN GRN=
201910041600 METAR LRTZ 041600Z 36008KT 4000 TSRA SCT007 BKN020CB OVC040
                        13/12 Q1010 GRN GRN=
201910041700 METAR LRTZ 041700Z 02008KT 8000 -RA SCT007 BKN014 OVC040
                        13/12 Q1009 GRN GRN=
201910041800 METAR LRTZ 041800Z 01006KT 9999 SCT004 BKN007 OVC015 13/12
                        Q1010 GRN GRN=
201910041900 METAR LRTZ 041900Z 34010KT 7000 -RA FEW005 BKN010 OVC020
                        13/12 Q1010 GRN GRN=
201910042000 METAR LRTZ 042000Z 35012KT 5000 -RA BR SCT005 BKN010 OVC020
                        12/11 Q1009 GRN GRN=
201910042300 METAR LRTZ 042300Z 33012KT 6000 -RA SCT005 BKN010 OVC040
                        11/10 Q1008 GRN GRN=
201910050100 METAR LRTZ 050100Z 34010KT 5000 -RA BR SCT005 BKN010 OVC040
                        10/09 Q1008 GRN GRN=
201910050200 METAR LRTZ 050200Z 32010KT 5000 -RA BR SCT005 BKN010 OVC040
                        10/09 Q1008 GRN GRN=
201910050300 METAR LRTZ 050300Z 32012KT 5000 -RA BR SCT004 BKN015 OVC040
                        11/10 Q1007 WHT WHT=
201910050400 METAR LRTZ 050400Z 33012KT 4000 DZ BR SCT004 BKN007 OVC017
                        11/10 Q1007 GRN GRN=
201910050500 METAR LRTZ 05050Z 33012KT 4000 -RA BR SCT002 BKN005 OVC012
                        10/10 Q1007 GRN GRN=
201910050600 METAR LRTZ 050600Z 33016KT 4000 -RA BR SCT002 BKN005 OVC010
                        10/09 Q10087 GRN GRN=
201910050700 METAR LRTZ 050700Z 35018KT 7000 -DZ SCT005 BKN015 OVC030
                        11/10 Q1008 WHT WHT=
201910050800 METAR LRTZ 050800Z 34018KT 9999 SCT007 BKN015 OVC040 11/10
                        Q1008 WHT WHT=
201910050900 METAR LRTZ 050900Z 35016KT 9999 SCT008 BKN015 OVC045 12/09
                        Q1008 WHT WHT=
201910051000 METAR LRTZ 051000Z 35016KT 9999 SCT010 BKN015 OVC025 12/09
                        Q1008 WHT WHT=
201910051100 METAR LRTZ 051100Z 35014KT 9999 BKN020 BKN070 13/09 Q1008
                        WHT WHT=
201910051200 METAR LRTZ 051200Z 35014KT 9999 BKN022 BKN070 14/09 Q1008
                        WHT WHT=
201910051300 METAR LRTZ 051300Z 34014KT 9999 BKN025 BKN075 15/08 Q1008
                        BLU BLU=
201910051400 METAR LRTZ 051400Z 35014KT 9999 BKN025 BKN090 15/08 Q1009
                        BLU BLU=
201910051500 METAR LRTZ 051500Z 34014KT 9999 SCT027 BKN180 14/08 Q1009
                        BLU BLU=
201910051600 METAR LRTZ 051600Z 33006KT 9999 SCT100 BKN180 13/08 Q1009
                        BLU BLU=
201910051700 METAR LRTZ 051700Z 30004KT 9999 BKN180 11/09 Q1010 BLU BLU=
201910051800 METAR LRTZ 051800Z 28004KT 9999 OVC160 11/09 Q1010 BLU BLU=
201910051900 METAR LRTZ 051900Z 30003KT 9999 OVC140 10/09 Q1011 BLU BLU=
201910052000 METAR LRTZ 052000Z 30003KT 9999 FEW060 OVC140 11/09 Q1010
                        BLU BLU=
201910052100 METAR LRTZ 052100Z 33004KT 9999 SCT060 OVC120 11/09 Q1011
                        BLU BLU=
201910052300 METAR LRTZ 052300Z 31004KT 9999 BKN050 OVC100 10/08 Q1011
                        BLU BLU=
201910060300 METAR LRTZ 060300Z 33004KT 9999 SCT050 BKN140 09/08 Q1009
                        BLU BLU=
201910060400 METAR LRTZ 060400Z 33004KT 9999 BKN080 10/09 Q1009 BLU BLU=
201910060500 METAR LRTZ 060500Z 33004KT 7000 FEW100 SCT200 09/08 Q1009
                        WHT BLU=
201910060600 METAR LRTZ 060600Z 33004KT 9999 FEW100 BKN200 11/09 Q1009
                        BLU BLU=
201910060700 METAR LRTZ 060700Z 33010KT 9999 FEW100 BKN200 13/10 Q1010
                        BLU BLU=
201910060800 METAR LRTZ 060800Z 33010KT 9999 SCT025 BKN090 14/10 Q1010
                        BLU BLU=
201910060900 METAR LRTZ 060900Z 33010KT 9999 BKN025 BKN090 15/09 Q1010
                        BLU BLU=
201910061000 METAR LRTZ 061000Z 33010KT 9999 BKN025 BKN090 15/09 Q1011
                        BLU BLU=
201910061100 METAR LRTZ 061100Z 33010KT 9999 BKN025 BKN090 15609 Q1011
                        BLU BLU=
201910061200 METAR LRTZ 061200Z 33010KT 9999 BKN025 BKN090 16/09 Q1010
                        BLU BLU=
201910061300 METAR LRTZ 061300Z VRB12KT 9999 BKN025CB BKN090 16/09 Q1010
                        BLU WHT=
201910061500 METAR LRTZ 061500Z 30010KT 9999 SCT040 BKN100 14/09 Q1011
                        BLU BLU=
201910061600 METAR LRTZ 061600Z VRB03KT 9999 SCT040 BKN100 13/10 Q1011
                        BLU BLU=
201910061700 METAR LRTZ 061700Z 33010KT 9999 -RA SCT030 BKN100 12/09 Q1011
                        BLU BLU=
201910061800 METAR LRTZ 061800Z 33008KT 9999 SCT040 BKN100 11/09 Q1012
                        BLU BLU=
201910061900 METAR LRTZ 061900Z 33008KT 9999 FEW040 SCT100 11/09 Q1012
                        BLU BLU=
201910062000 METAR LRTZ 062000Z 33008KT 9999 SCT100 11/09 Q1012 BLU BLU=
201910070300 METAR LRTZ 070300Z 33010KT 9999 BKN010 10/08 Q1013 GRN GRN=
201910070400 METAR LRTZ 070400Z 33010KT 9999 BKN010 OVC03010/08 Q1013
                        GRN GRN=
201910070500 METAR LRTZ 070500Z 33010KT 9999 SCT010 BKN090 09/08 Q1013
                        BLU BLU=
201910070600 METAR LRTZ 070600Z 33008KT 9999 SCT010 BKN090 10/08 Q1014
                        BLU BLU=
201910070700 METAR LRTZ 070700Z 33010KT 9999 FEW010 SCT090 11/08 Q1014
                        BLU BLU=
201910070800 METAR LRTZ 070800Z 33010KT 9999 FEW010 BKN015 OVC090 11/08
                        Q1015 WHT WHT=
201910070900 METAR LRTZ 070900Z 33010KT 9999 FEW010 BKN015 OVC090 11/08
                        Q1015 WHT WHT=
201910071000 METAR LRTZ 071000Z 34010KT 9999 BKN015 OVC090 11/07 Q1015
                        WHT WHT=
201910071100 METAR LRTZ 071100Z 34010KT 9999 BKN015 OVC090 11/07 Q1015
                        WHT WHT=
201910071200 METAR LRTZ 071200Z 03010KT 9999 BKN020 12/07 Q1015 WHT WHT=
201910071300 METAR LRTZ 071300Z 02010KT 9999 BKN020 OVC030 12/07 Q1015
                        WHT WHT=
201910071400 METAR LRTZ 071400Z 02008KT 9999 BKN025 12/07 Q1015 BLU BLU=
201910071500 METAR LRTZ 071500Z 02008KT 9999 BKN030 12/07 Q1016 BLU BLU=
201910071600 METAR LRTZ 071600Z 02008KT 9999 BKN040 11/07 Q1017 BLU BLU=
201910071700 METAR LRTZ 071700Z 02008KT 9999 BKN040 11/07 Q1017 BLU BLU=
201910071800 METAR LRTZ 071800Z 02008KT 9999 SCT040 BKN200 10/07 Q1017
                        BLU BLU=
201910071900 METAR LRTZ 071900Z 02008KT 9999 SCT040 BKN100 10/07 Q1018
                        BLU BLU=
201910072000 METAR LRTZ 072000Z 02008KT 9999 SCT040 BKN100 10/07 Q1018
                        BLU BLU=
201910072300 METAR LRTZ 072300Z 02010KT 9999 FEW040 SCT100 10/07 Q1019
                        BLU BLU=
201910080200 METAR LRTZ 080200Z 02014KT 9999 SCT100 10/07 Q1019 BLU BLU=
201910080300 METAR LRTZ 080300Z 03014KT 9999 SCT030 BKN150 10/06 Q1020
                        BLU BLU=
201910080400 METAR LRTZ 080400Z 03016KT 9999 FEW030 BKN150 09/06 Q1020
                        BLU BLU=
201910080500 METAR LRTZ 080500Z 03016KT 9999 SCT030 BKN100 09/06 Q1021
                        BLU BLU=
201910080600 METAR LRTZ 080600Z 04012KT 9999 SCT020 OVC100 12/07 Q1022
                        BLU BLU=
201910080700 METAR LRTZ 080700Z 04014KT 9999 SCT025 OVC100 12/06 Q1022
                        BLU BLU=
201910080800 METAR LRTZ 080800Z 04012KT 9999 SCT025 BKN100 14/05 Q1022
                        BLU BLU=
201910080900 METAR LRTZ 080900Z 05012KT 9999 FEW030 BKN100 14/07 Q1023
                        BLU BLU=
201910081000 METAR LRTZ 081000Z 04012KT 9999 BKN025 14/07 Q1023 BLU BLU=
201910081100 METAR LRTZ 081100Z 03012KT 9999 BKN025 15/06 Q1023 BLU BLU=
201910081200 METAR LRTZ 081200Z 05014KT 9999 BKN025 14/06 Q1023 BLU BLU=
201910081300 METAR LRTZ 081300Z 05012KT 9999 BKN030 14/06 Q1023 BLU BLU=
201910081600 METAR LRTZ 081600Z 08004KT 9999 FEW035 SCT200 12/05 Q1024
                        BLU BLU=
201910081700 METAR LRTZ 081700Z 05004KT 9999 SCT200 11/05 Q1025 BLU BLU=
201910081900 METAR LRTZ 081900Z 13004KT 9999 SCT200 12/05 Q1025 BLU BLU=
201910082000 METAR LRTZ 082000Z 15004KT 9999 SCT200 10/05 Q1025 BLU BLU=
201910082300 METAR LRTZ 082300Z 15004KT 9999 SCT200 11/06 Q1024 BLU BLU=
201910090300 METAR LRTZ 090300Z 20004KT 9999 FEW200 09/07 Q1023 BLU BLU=
201910090400 METAR LRTZ 090400Z 19004KT 9999 FEW035 09/07 Q1023 BLU BLU=
201910090500 METAR LRTZ 090500Z 20004KT 9999 SCT030 10/08 Q1023 BLU BLU=
201910090600 METAR LRTZ 090600Z 24004KT 9999 BKN030 12/09 Q1024 BLU BLU=
201910090700 METAR LRTZ 090700Z 22008KT 9999 SCT040 14/11 Q1024 BLU BLU=
201910090900 METAR LRTZ 090900Z 20016KT 9999 FEW025 BKN035 18/10 Q1023
                        BLU BLU=
201910091000 METAR LRTZ 091000Z 20018KT 9999 SCT040 19/10 Q1022 BLU BLU=
201910091100 METAR LRTZ 091100Z 20018KT 9999 FEW040 SCT200 20/09 Q1021
                        BLU BLU=
201910091200 METAR LRTZ 091200Z 20018KT 9999 SCT200 20/09 Q1020 BLU BLU=
201910091300 METAR LRTZ 091300Z 20020KT 9999 SCT200 19/11 Q1020 BLU BLU=
201910091400 METAR LRTZ 091400Z 18018KT 9999 FEW200 19/11 Q1019 BLU BLU=
201910091500 METAR LRTZ 091500Z 18018KT 9999 FEW200 18/11 Q1019 BLU BLU=
201910091600 METAR LRTZ 091600Z 18012KT 9999 FEW200 17/11 Q1019 BLU BLU=
201910091700 METAR LRTZ 091700Z 20010KT 9999 SKC 16/12 Q1019 BLU BLU=
201910091800 METAR LRTZ 091800Z 20008KT 9999 SKC 15/12 Q1019 BLU BLU=
201910091900 METAR LRTZ 091900Z 20008KT 9999 SKC 15/12 Q1019 BLU BLU=
201910092000 METAR LRTZ 092000Z 20008KT 9999 SKC 15/12 Q1019 BLU BLU=
201910092100 METAR LRTZ 092100Z 20008KT 9999 SKC 15/12 Q1019 BLU BLU=
201910092300 METAR LRTZ 092300Z 20008KT 9999 SKC 14/12 Q1018 BLU BLU=
201910100300 METAR LRTZ 100300Z 20004KT 9999 SKC 12/11 Q1016 BLU BLU=
201910100400 METAR LRTZ 100400Z 20004KT 9999 SKC 12/11 Q1015 BLU BLU=
201910100500 METAR LRTZ 100500Z 20004KT 9999 SKC 11/09 Q1015 BLU BLU=
201910100600 METAR LRTZ 100600Z 24008KT 9999 SKC 15/12 Q1015 BLU BLU=
201910100700 METAR LRTZ 100700Z 23012KT 9999 SKC 17/13 Q1015 BLU BLU=
201910100800 METAR LRTZ 100800Z 25010KT 9999 SKC 19/12 Q1015 BLU BLU=
201910100900 METAR LRTZ 100900Z 28010KT 9999 FEW200 21/12 Q1016 BLU BLU=
201910101000 METAR LRTZ 101000Z 31010KT 9999 SKC 22/12 Q1015 BLU BLU=
201910101100 METAR LRTZ 101100Z 33010KT 9999 SKC 23/11 Q1014 BLU BLU=
201910101200 METAR LRTZ 101200Z 30012KT 9999 SKC 24/11 Q1015 BLU BLU=
201910101300 METAR LRTZ 101300Z 30012KT 9999 FEW200 24/10 Q1014 BLU BLU=
201910101400 METAR LRTZ 101400Z 28010KT 9999 SCT200 24/09 Q1014 BLU BLU=
201910101500 METAR LRTZ 101500Z 28006KT 9999 SCT200 22/10 Q1014 BLU BLU=
201910101600 METAR LRTZ 101600Z 31004KT 9999 SCT200 20/10 Q1014 BLU BLU=
201910101700 METAR LRTZ 101700Z 00000KT 9999 SCT200 18/09 Q1015 BLU BLU=
201910101800 METAR LRTZ 101800Z 00000KT 9999 SCT200 16/10 Q1015 BLU BLU=
201910101900 METAR LRTZ 101900Z 00000KT 9999 SCT200 16/10 Q1015 BLU BLU=
201910102000 METAR LRTZ 102000Z 27004KT 9999 SCT180 17/11 Q1015 BLU BLU=
201910102100 METAR LRTZ 102100Z 28004KT 9999 SCT160 16/10 Q1016 BLU BLU=
201910102300 METAR LRTZ 102300Z 28004KT 9999 BKN100 16/10 Q1017 BLU BLU=
201910110300 METAR LRTZ 110300Z 35014KT 9999 BKN050 OVC100 14/11 Q1018
                        BLU BLU=
201910110400 METAR LRTZ 110400Z 33010KT 9999 BKN080 OVC150 14/10 Q1018
                        BLU BLU=
201910110500 METAR LRTZ 110500Z 31010KT 9999 SCT030 BKN140 14/10 Q1019
                        BLU BLU=
201910110600 METAR LRTZ 110600Z 33010KT 9999 BKN030 BKN140 14/10 Q1020
                        BLU BLU=
201910110700 METAR LRTZ 110700Z 33010KT 9999 BKN030 BKN100 15/11 Q1021
                        BLU BLU=
201910110800 METAR LRTZ 110800Z 33010KT 9999 SCT030 BKN100 17/11 Q1022
                        BLU BLU=
201910110900 METAR LRTZ 110900Z 33010KT 9999 FEW030 SCT100 18/12 Q1022
                        BLU BLU=
201910111000 METAR LRTZ 111000Z 03010KT 9999 SCT030 19/12 Q1023 BLU BLU=
201910111100 METAR LRTZ 111100Z 06010KT 9999 SCT030 20/12 Q1023 BLU BLU=
201910111200 METAR LRTZ 111200Z 06010KT 9999 SCT030 20/11 Q1023 BLU BLU=
201910111300 METAR LRTZ 111300Z 06010KT 9999 SCT030 19/11 Q1023 BLU BLU=
201910111400 METAR LRTZ 111400Z 06010KT 9999 SCT030 19/11 Q1023 BLU BLU=
201910111500 METAR LRTZ 111500Z 06008KT 9999 SCT030 18/11 Q1024 BLU BLU=
201910111600 METAR LRTZ 111600Z VRB03KT 9999 SCT200 16/10 Q1024 BLU BLU=
201910111700 METAR LRTZ 111700Z VRB03KT 9999 SCT200 14/10 Q1024 BLU BLU=
201910111800 METAR LRTZ 111800Z VRB03KT 9999 SCT200 14/10 Q1025 BLU BLU=
201910111900 METAR LRTZ 111900Z VRB03KT 9999 SCT200 13/10 Q1025 BLU BLU=
201910112000 METAR LRTZ 112000Z VRB03KT 9999 SCT200 13/10 Q1025 BLU BLU=
201910112100 METAR LRTZ 112100Z VRB03KT 9999 SCT200 13/10 Q1025 BLU BLU=
201910112300 METAR LRTZ 112300Z VRB03KT 9999 SCT200 12/09 Q1026 BLU BLU=
201910120300 METAR LRTZ 120300Z VRB03KT 9999 FEW200 10/09 Q1026 BLU BLU=
201910120400 METAR LRTZ 120400Z VRB03KT 9999 FEW200 11/10 Q1026 BLU BLU=
201910120500 METAR LRTZ 120500Z VRB03KT 9999 FEW200 11/10 Q1026 BLU BLU=
201910120600 METAR LRTZ 120600Z 21006KT 9999 SKC 14/12 Q1027 BLU BLU=
201910120700 METAR LRTZ 120700Z 21008KT 9999 SKC 18/14 Q1027 BLU BLU=
201910120800 METAR LRTZ 120800Z 21010KT 9999 FEW020 19/13 Q1027 BLU BLU=
201910120900 METAR LRTZ 120900Z 19012KT 9999 FEW020 20/12 Q1027 BLU BLU=
201910121000 METAR LRTZ 121000Z 19012KT 9999 FEW020 20/13 Q1027 BLU BLU=
201910121100 METAR LRTZ 121100Z 19014KT 9999 FEW030 21/11 Q1026 BLU BLU=
201910121200 METAR LRTZ 121200Z 19016KT 9999 FEW030 20/12 Q1026 BLU BLU=
201910121300 METAR LRTZ 121300Z 19018KT 9999 SKC 20/12 Q1025 BLU BLU=
201910121400 METAR LRTZ 121400Z 19018KT 9999 SKC 19/11 Q1025 BLU BLU=
201910121500 METAR LRTZ 121500Z 19014KT 9999 SKC 18/12 Q1025 BLU BLU=
201910121600 METAR LRTZ 121600Z 19012KT 9999 SKC 17/11 Q1025 BLU BLU=
201910121700 METAR LRTZ 121700Z 19012KT 9999 SKC 17/12 Q1025 BLU BLU=
201910121800 METAR LRTZ 121800Z 19008KT 9999 SKC 16/12 Q1025 BLU BLU=
201910121900 METAR LRTZ 121900Z 19008KT 9999 SKC 15/12 Q1025 BLU BLU=
201910122000 METAR LRTZ 122000Z 19008KT 9999 SKC 14/12 Q1025 BLU BLU=
201910122300 METAR LRTZ 122300Z 19006KT 9999 SKC 14/12 Q1025 BLU BLU=
201910130300 METAR LRTZ 130300Z 21004KT 8000 SKC 11/10 Q1024 BLU BLU=
201910130400 METAR LRTZ 130400Z VRB03KT 5000 BR SKC 10/09 Q1024 WHT WHT=
201910130500 METAR LRTZ 130500Z VRB03KT 9999 SKC 10/09 Q1024 BLU BLU=
201910130600 METAR LRTZ 130600Z 21004KT 9999 FEW200 14/12 Q1024 BLU BLU=
201910130700 METAR LRTZ 130700Z 21008KT 9999 FEW200 18/14 Q1025 BLU BLU=
201910130800 METAR LRTZ 130800Z 21010KT 9999 FEW200 19/13 Q1025 BLU BLU=
201910130900 METAR LRTZ 130900Z 18012KT 9999 FEW200 20/14 Q1025 BLU BLU=
201910131000 METAR LRTZ 131000Z 18012KT 9999 FEW200 20/13 Q1024 BLU BLU=
201910131100 METAR LRTZ 131100Z 18014KT 9999 FEW200 20/14 Q1024 BLU BLU=
201910131200 METAR LRTZ 131200Z 18016KT 9999 SKC 20/13 Q1024 BLU BLU=
201910131300 METAR LRTZ 131300Z 18014KT 9999 SKC 20/14 Q1023 BLU BLU=
201910131400 METAR LRTZ 131400Z 18014KT 9999 SKC 19/14 Q1023 BLU BLU=
201910131500 METAR LRTZ 131500Z 18012KT 9999 SKC 18/14 Q1023 BLU BLU=
201910131600 METAR LRTZ 131600Z 18010KT 9999 SKC 17/13 Q1023 BLU BLU=
201910131700 METAR LRTZ 131700Z 18008KT 9999 FEW100 17/13 Q1024 BLU BLU=
201910131800 METAR LRTZ 131800Z 18008KT 9999 SKC 17/14 Q1024 BLU BLU=
201910131900 METAR LRTZ 131900Z 18008KT 9999 FEW200 16/14 Q1024 BLU BLU=
201910132000 METAR LRTZ 132000Z 18004KT 9999 FEW200 13/11 Q1024 BLU BLU=
201910132300 METAR LRTZ 132300Z VRB03KT 9999 SCT200 13/11 Q1024 BLU BLU=
201910140100 METAR LRTZ 140100Z VRB03KT 9999 SCT200 12/10 Q1024 BLU BLU=
201910140200 METAR LRTZ 140200Z VRB03KT 8000 SCT200 12/11 Q1024 BLU WHT=
201910140300 METAR LRTZ 140300Z VRB02KT 9999 BKN015 13/12 Q1023 WHT WHT=
201910140400 METAR LRTZ 140400Z VRB02KT 9999 SCT15 SCT100 13/12 Q1023
                        BLUT WHT=
201910140500 METAR LRTZ 140500Z VRB02KT 8000 BKN015 13/12 Q1023 WHT WHT=
201910140600 METAR LRTZ 140600Z 32003KT 9999 BKN015 14/13 Q1024 WHT WHT=
201910140700 METAR LRTZ 140700Z 21003KT 9999 BKN017 17/15 Q1024 WHT WHT=
201910140800 METAR LRTZ 140800Z 19010KT 9999 BKN018 18/13 Q1024 WHT WHT=
201910140900 METAR LRTZ 140900Z 16010KT 9999 BKN020 19/13 Q1024 WHT WHT=
201910141000 METAR LRTZ 141000Z 18012KT 9999 SCT020 19/13 Q1024 BLU BLU=
201910141100 METAR LRTZ 141100Z 15012KT 9999 FEW020 19/13 Q1023 BLU BLU=
201910141200 METAR LRTZ 141200Z 18012KT 9999 FEW020 19/13 Q1023 BLU BLU=
201910141300 METAR LRTZ 141300Z 18010KT 9999 SKC 19/13 Q1022 BLU BLU=
201910141400 METAR LRTZ 141400Z 16008KT 9999 SKC 19/13 Q1022 BLU BLU=
201910141500 METAR LRTZ 141500Z 16006KT 9999 SKC 18/13 Q1022 BLU BLU=
201910141600 METAR LRTZ 141600Z 15004KT 9999 FEW020 16/13 Q1022 BLU BLU=
201910141700 METAR LRTZ 141700Z 15004KT 9999 SKC 16/13 Q1022 BLU BLU=
201910141900 METAR LRTZ 141900Z 15004KT 9999 SCT015 16/13 Q1022 BLU WHT=
201910142000 METAR LRTZ 142000Z 15004KT 9999 BKN015 16/13 Q1022 WHT WHT=
201910142100 METAR LRTZ 142100Z 15004KT 7000 BKN015 15/13 Q1022 WHT WHT=
201910142300 METAR LRTZ 142300Z 15004KT 5000 BR BKN015 15/13 Q1021 WHT
                        WHT=
201910150400 METAR LRTZ 150400Z 00000KT 9999 BKN017 14/12 Q1020 WHT WHT=
201910150500 METAR LRTZ 150500Z 16003KT 9999 BKN017 15/12 Q1020 WHT WHT=
201910150600 METAR LRTZ 150600Z 16004KT 9999 BKN017 17/12 Q1021 WHT WHT=
201910150700 METAR LRTZ 150700Z 16008KT 9999 BKN018 17/12 Q1021 WHT WHT=
201910150800 METAR LRTZ 150800Z 16008KT 9999 BKN018 17/12 Q1021 WHT WHT=
201910150900 METAR LRTZ 150900Z 16010KT 9999 BKN018 17/12 Q1021 WHT WHT=
201910151100 METAR LRTZ 151100Z 16010KT 9999 BKN018 18/12 Q1020 WHT WHT=
201910151200 METAR LRTZ 151200Z 16010KT 9999 BKN018 18/12 Q1020 WHT WHT=
201910151300 METAR LRTZ 151300Z 16010KT 9999 BKN018 17/12 Q1020 WHT WHT=
201910151400 METAR LRTZ 151400Z 16010KT 9999 BKN018 17/12 Q1019 WHT WHT=
201910151500 METAR LRTZ 151500Z 16010KT 9999 BKN018 17/12 Q1019 WHT WHT=
201910151600 METAR LRTZ 151600Z 16010KT 9999 BKN018 16/12 Q1019 WHT WHT=
201910151700 METAR LRTZ 151700Z 16006KT 9999 BKN018 16/12 Q1019 WHT WHT=
201910151800 METAR LRTZ 151800Z VRB03KT 9999 BKN018 16/12 Q1019 WHT WHT=
201910151900 METAR LRTZ 151900Z VRB03KT 9999 BKN018 16/12 Q1019 WHT WHT=
201910152000 METAR LRTZ 152000Z VRB03KT 9999 BKN018 16/12 Q1019 WHT WHT=
201910152100 METAR LRTZ 152100Z VRB03KT 9999 BKN018 15/12 Q1019 WHT WHT=
201910152300 METAR LRTZ 152300Z VRB03KT 9999 BKN018 15/12 Q1020 WHT WHT=
201910160300 METAR LRTZ 160300Z VRB03KT 7000 BKN010 14/12 Q1019 GRN WHT=
201910160400 METAR LRTZ 160400Z VRB03KT 7000 BKN017 14/12 Q1018 WHT WHT=
201910160500 METAR LRTZ 160500Z VRB03KT 9999 BKN017 14/12 Q1019 WHT WHT=
201910160600 METAR LRTZ 160600Z VRB03KT 9999 BKN018 16/12 Q1019 WHT WHT=
201910160700 METAR LRTZ 160700Z 10004KT 9999 BKN018 17/12 Q1019 WHT WHT=
201910160800 METAR LRTZ 160800Z 09008KT 9999 BKN018 17/12 Q1019 WHT WHT=
201910160900 METAR LRTZ 160900Z 09006KT 9999 BKN018 18/12 Q1019 WHT WHT=
201910161000 METAR LRTZ 161000Z 10008KT 9999 BKN018 18/12 Q1019 WHT BLU=
201910161100 METAR LRTZ 161100Z 12008KT 9999 SCT020 18/12 Q1019 BLU BLU=
201910161200 METAR LRTZ 161200Z 15008KT 9999 SCT020 18/13 Q1018 BLU BLU=
201910161300 METAR LRTZ 161300Z 12010KT 9999 BKN020 18/13 Q1018 WHT WHT=
201910161400 METAR LRTZ 161400Z 12008KT 9999 BKN020 17/12 Q1018 WHT WHT=
201910161700 METAR LRTZ 161700Z 10004KT 9999 BKN020 16/12 Q1018 WHT WHT=
201910161800 METAR LRTZ 161800Z 18004KT 9999 BKN020 16/11 Q1018 WHT WHT=
201910161900 METAR LRTZ 161900Z VRB03KT 9999 BKN020 15/12 Q1019 WHT WHT=
201910162000 METAR LRTZ 162000Z VRB03KT 9999 BKN020 15/12 Q1019 WHT WHT=
201910162100 METAR LRTZ 162100Z VRB03KT 9999 BKN020 15/12 Q1019 WHT WHT=
201910162300 METAR LRTZ 162300Z VRB03KT 7000 BKN020 14/12 Q1018 WHT WHT=
201910170300 METAR LRTZ 170300Z VRB03KT 8000 BKN020 13/11 Q1018 WHT WHT=
201910170500 METAR LRTZ 170500Z 30004KT 9999 BKN020 11/10 Q1018 WHT WHT=
201910170600 METAR LRTZ 170600Z 31003KT 9999 SCT020 BKN200 13/11 Q1019
                        BLU BLU=
201910170700 METAR LRTZ 170700Z 29004KT 9999 BKN020 15/11 Q1019 WHT WHT=
201910170800 METAR LRTZ 170800Z 29004KT 9999 BKN020 15/11 Q1019 WHT WHT=
201910170900 METAR LRTZ 170900Z 12008KT 9999 BKN020 17/11 Q1019 WHT WHT=
201910171000 METAR LRTZ 171000Z 18008KT 9999 BKN020 18/11 Q1019 WHT WHT=
201910171100 METAR LRTZ 171100Z 15008KT 9999 SCT020 SCT200 18/12 Q1019
                        BLU BLU=
201910171200 METAR LRTZ 171200Z 15008KT 9999 FEW020 SCT200 18/12 Q1019
                        BLU BLU=
201910171300 METAR LRTZ 171300Z 15008KT 9999 FEW020 SCT200 18/12 Q1019
                        BLU BLU=
201910171400 METAR LRTZ 171400Z 14008KT 9999 SKC 18/12 Q1018 BLU BLU=
201910171500 METAR LRTZ 171500Z 14006KT 9999 FEW200 17/12 Q1018 BLU BLU=
201910171600 METAR LRTZ 171600Z 10003KT 9999 SKC 15/12 Q1019 BLU BLU=
201910171700 METAR LRTZ 171700Z 00000KT 9999 SKC 14/11 Q1019 BLU BLU=
201910171800 METAR LRTZ 171800Z 00000KT 9999 SKC 14/12 Q1019 BLU BLU=
201910171900 METAR LRTZ 171900Z 00000KT 9999 SKC 14/12 Q1019 BLU BLU=
201910172000 METAR LRTZ 172000Z 00000KT 9999 SKC 12/10 Q1019 BLU BLU=
201910172100 METAR LRTZ 172100Z VRB03KT 9999 SKC 12/10 Q1019 BLU WHT=
201910172300 METAR LRTZ 172300Z 33004KT 6000 FEW200 12/11 Q1019 WHT WHT=
201910180300 METAR LRTZ 180300Z 35003KT 3000 BR BKN015 11/10 Q1018 YLO
                        AMB=
201910180500 METAR LRTZ 180500Z 33005KT 0800 FG BKN018 10/09 Q1019 AMB
                        YLO=
201910180600 METAR LRTZ 180600Z 33005KT 0400 FG BKN002 BKN015 10/10 Q1019
                        RED AMB=
201910180700 METAR LRTZ 180700Z 33005KT 0400 FG BKN002 BKN015 12/11 Q1019
                        RED RED=
201910180800 METAR LRTZ 180800Z 36005KT 9999 SCT005 BKN020 15/14 Q1019
                        WHT BLU=
201910180900 METAR LRTZ 180900Z 27006KT 9999 BKN020 18/13 Q1019 WHT WHT=
201910181000 METAR LRTZ 181000Z VRB03KT 9999 BKN020 19/13 Q1019 WHT WHT=
201910181100 METAR LRTZ 181100Z 15006KT 9999 SCT020 BKN200 19/14 Q1019
                        BLU BLU=
201910181200 METAR LRTZ 181200Z 15008KT 9999 SCT020 BKN200 19/14 Q1018
                        BLU BLU=
201910181300 METAR LRTZ 181300Z 15008KT 9999 SCT200 19/14 Q1018 BLU BLU=
201910181400 METAR LRTZ 181400Z 15008KT 9999 SCT200 18/14 Q1018 BLU BLU=
201910181500 METAR LRTZ 181500Z 15006KT 9999 SCT200 18/14 Q1018 BLU BLU=
201910181600 METAR LRTZ 181600Z VRB03KT 9999 FEW200 16/13 Q1018 BLU BLU=
201910181700 METAR LRTZ 181700Z VRB03KT 8000 SKC 15/13 Q1018 BLU BLU=
201910181800 METAR LRTZ 181800Z VRB03KT 3000 BR SKC 13/13 Q1018 YLO YLO=
201910181900 METAR LRTZ 181900Z 00000KT 0500 FG SKC 13/13 Q1018 RED RED=
201910182000 METAR LRTZ 182000Z 00000KT 0500 FG SKC 13/13 Q1018 RED RED=
201910182300 METAR LRTZ 182300Z 00000KT 0300 FG BKN003 12/12 Q1018 RED
                        RED=
201910190200 METAR LRTZ 190200Z VRB03KT 0100 FG VV001 10/10 Q1019 RED
                        RED=
201910190300 METAR LRTZ 190300Z 33004KT 1500 BR SCT015 11/11 Q1019 AMB
                        AMB=
201910190400 METAR LRTZ 190400Z 06004KT 1500 BR SCT015 11/11 Q1019 AMB
                        AMB=
201910190500 METAR LRTZ 190500Z 36004KT 0400 FG BKN003 11/11 Q1019 RED
                        RED=
201910190600 METAR LRTZ 190600Z 36004KT 0400 FG OVC002 12/12 Q1020 RED
                        RED=
201910190700 METAR LRTZ 190700Z 36004KT 0400 FG OVC002 14/14 Q1020 RED
                        RED=
201910190800 METAR LRTZ 190800Z VRB03KT 2000 BR BKN003 17/16 Q1020 YLO
                        GRN=
201910190900 METAR LRTZ 190900Z 16008KT 7000 BKN013 18/15 Q1020 GRN WHT=
201910191000 METAR LRTZ 191000Z 16008KT 9999 BKN015 19/15 Q1020 WHT WHT=
201910191100 METAR LRTZ 191100Z 16008KT 9999 BKN015 19/15 Q1019 WHT WHT=
201910191200 METAR LRTZ 191200Z 16008KT 9999 BKN015 19/15 Q1019 WHT WHT=
201910191300 METAR LRTZ 191300Z 16008KT 9999 BKN015 18/14 Q1019 WHT WHT=
201910191400 METAR LRTZ 191400Z 16008KT 9999 BKN015 18/14 Q1019 WHT WHT=
201910191500 METAR LRTZ 191500Z 16008KT 9999 SCT015 18/14 Q1020 BLU BLU=
201910191600 METAR LRTZ 191600Z 16006KT 9999 SKC 16/13 Q1020 BLU WHT=
201910191700 METAR LRTZ 191700Z VRB03KT 8000 SKC 16/13 Q1020 BLU WHT=
201910191800 METAR LRTZ 191800Z VRB03KT 8000 BKN010 16/13 Q1020 GRN GRN=
201910191900 METAR LRTZ 191900Z VRB03KT 8000 BKN010 16/13 Q1021 GRN GRN=
201910192000 METAR LRTZ 192000Z VRB03KT 7000 BKN010 16/13 Q1021 GRN GRN=
201910192100 METAR LRTZ 192100Z VRB03KT 5000 BR BKN010 16/14 Q1021 GRN
                        GRN=
201910192300 METAR LRTZ 192300Z VRB03KT 4000 BR BKN010 15/14 Q1021 GRN
                        YLO=
201910200300 METAR LRTZ 200300Z VRB03KT 4000 BR BKN005 13/13 Q1021 YLO
                        YLO=
201910200400 METAR LRTZ 200400Z VRB03KT 4000 BR BKN005 14/13 Q1021 YLO
                        GRN=
201910200500 METAR LRTZ 200500Z VRB03KT 8000 BKN015 15/13 Q1021 WHT BLU=
201910200600 METAR LRTZ 200600Z VRB03KT 8000 BKN015 15/13 Q1022 WHT BLU=
201910200700 METAR LRTZ 200700Z 14006KT 9999 BKN015 18/14 Q1022 WHT WHT=
201910200800 METAR LRTZ 200800Z 14006KT 9999 BKN015 18/14 Q1022 WHT WHT=
201910200900 METAR LRTZ 200900Z 14008KT 9999 SCT025 19/14 Q1023 BLU BLU=
201910201000 METAR LRTZ 201000Z 18010KT 9999 FEW200 19/14 Q1023 BLU BLU=
201910201100 METAR LRTZ 201100Z 18010KT 9999 FEW200 19/14 Q1022 BLU BLU=
201910201200 METAR LRTZ 201200Z 15010KT 9999 FEW200 19/14 Q1022 BLU BLU=
201910201300 METAR LRTZ 201300Z 16010KT 9999 FEW200 19/15 Q1022 BLU BLU=
201910201400 METAR LRTZ 201400Z 17010KT 9999 FEW200 19/15 Q1022 BLU BLU=
201910201500 METAR LRTZ 201500Z 17010KT 9999 FEW200 18/15 Q1022 BLU BLU=
201910201600 METAR LRTZ 201600Z 17006KT 9999 SKC 17/14 Q1022 BLU BLU=
201910201700 METAR LRTZ 201700Z 18004KT 9999 SKC 17/14 Q1022 BLU BLU=
201910201800 METAR LRTZ 201800Z 18004KT 9999 SCT010 17/15 Q1022 BLU BLU=
201910201900 METAR LRTZ 201900Z 18004KT 9999 BKN015 17/15 Q1023 BLU BLU=
201910202000 METAR LRTZ 202000Z 18004KT 8000 BKN015 16/15 Q1022 WHT WHT=
201910202300 METAR LRTZ 202300Z VRB03KT 3000 BR BKN010 15/14 Q1022 YLO
                        YLO=
201910210200 METAR LRTZ 210200Z VRB03KT 3000 BR BKN005 13/13 Q1022 YLO
                        YLO=
201910210300 METAR LRTZ 210300Z VRB03KT 4000 BR BKN015 15/14 Q1023 GRN
                        GRN=
201910210400 METAR LRTZ 210400Z VRB03KT 0200 FG BKN015 12/12 Q1023 RED
                        RED=
201910210500 METAR LRTZ 210500Z VRB03KT 3000 BR BKN015 13/13 Q1023 YLO
                        YLO=
201910210600 METAR LRTZ 210600Z VRB03KT 8000 BKN015 14/13 Q1024 WHT WHT=
201910210700 METAR LRTZ 210700Z 18006KT 9999 FEW015 18/15 Q1024 BLU BLU=
201910210800 METAR LRTZ 210800Z 18010KT 9999 FEW015 19/14 Q1024 BLU BLU=
201910210900 METAR LRTZ 210900Z 15010KT 9999 FEW015 19/14 Q1024 BLU BLU=
201910211000 METAR LRTZ 211000Z 15010KT 9999 FEW015 19/14 Q1024 BLU BLU=
201910211100 METAR LRTZ 211100Z 15010KT 9999 SCT015 19/14 Q1024 BLU BLU=
201910211200 METAR LRTZ 211200Z 15010KT 9999 SCT015 19/14 Q1024 BLU BLU=
201910211300 METAR LRTZ 211300Z 12008KT 9999 SKC 18/13 Q1023 BLU BLU=
201910211500 METAR LRTZ 211500Z 12006KT 9999 FEW020 17/13 Q1023 BLU BLU=
201910211600 METAR LRTZ 211600Z VRB03KT 9999 SKC 16/13 Q1023 BLU BLU=
201910211700 METAR LRTZ 211700Z VRB03KT 9999 SKC 16/13 Q1023 BLU BLU=
201910211800 METAR LRTZ 211800Z VRB03KT 9999 SKC 15/13 Q1023 BLU BLU=
201910211900 METAR LRTZ 211900Z VRB03KT 9999 SKC 15/13 Q1024 BLU BLU=
201910212000 METAR LRTZ 212000Z VRB03KT 8000 SKC 14/13 Q1024 BLU WHT=
201910212300 METAR LRTZ 212300Z VRB03KT 4000 BR SCT010 13/12 Q1024 GRN
                        GRN=
201910220300 METAR LRTZ 220300Z VRB03KT 2000 BR BKN015 12/12 Q1024 YLO
                        YLO=
201910220400 METAR LRTZ 220400Z 36004KT 4000 BR BKN015 12/11 Q1024 GRN
                        GRN=
201910220500 METAR LRTZ 220500Z 36004KT 7000 BR BKN015 12/11 Q1024 WHT
                        WHT=
201910220600 METAR LRTZ 220600Z 36004KT 3000 BR BKN015 BKN150 13/12 Q1024
                        YLO WHT=
201910220700 METAR LRTZ 220700Z 01004KT 5000 BR BKN015 15/13 Q1025 WHT
                        WHT=
201910220800 METAR LRTZ 220800Z 03004KT 7000 BKN015 17/14 Q1025 WHT WHT=
201910220900 METAR LRTZ 220900Z 09010KT 9999 BKN020 17/13 Q1025 WHT WHT=
201910221000 METAR LRTZ 221000Z 06006KT 9999 BKN020 18/12 Q1025 WHT WHT=
201910221100 METAR LRTZ 221100Z 09010KT 9999 BKN020 18/12 Q1025 WHT WHT=
201910221200 METAR LRTZ 221200Z 09008KT 9999 BKN020 18/12 Q1024 WHT WHT=
201910221300 METAR LRTZ 221300Z 09008KT 9999 BKN020 17/12 Q1024 WHT WHT=
201910221400 METAR LRTZ 221400Z 09008KT 9999 SCT020 17/12 Q1024 WHT WHT=
201910221500 METAR LRTZ 221500Z 09006KT 9999 SCT020 BKN200 16/12 Q1024
                        BLU BLU=
201910221600 METAR LRTZ 221600Z 06004KT 9999 SCT020 BKN200 15/12 Q1024
                        BLU BLU=
201910221700 METAR LRTZ 221700Z 06004KT 9999 BKN015 15/12 Q1024 WHT WHT=
201910221800 METAR LRTZ 221800Z VRB03KT 9999 BKN015 15/13 Q1025 WHT WHT=
201910221900 METAR LRTZ 221900Z VRB03KT 9999 BKN015 14/12 Q1025 WHT WHT=
201910222000 METAR LRTZ 222000Z VRB03KT 9999 BKN015 14/12 Q1025 WHT WHT=
201910222300 METAR LRTZ 222300Z VRB03KT 7000 BKN015 14/12 Q1024 WHT WHT=
201910230200 METAR LRTZ 230200Z VRB03KT 5000 BR BKN015 12/11 Q1024 WHT
                        WHT=
201910230300 METAR LRTZ 230300Z VRB03KT 7000 BKN015 14/12 Q1024 WHT WHT=
201910230400 METAR LRTZ 230400Z VRB03KT 8000 BKN015 13/12 Q1024 WHT WHT=
201910230500 METAR LRTZ 230500Z VRB03KT 6000 BKN015 13/12 Q1024 WHT WHT=
201910230600 METAR LRTZ 230600Z VRB03KT 7000 BKN013 15/12 Q1024 GRN WHT=
201910230700 METAR LRTZ 230700Z 02006KT 9999 BKN013 16/12 Q1024 GRN GRN=
201910230800 METAR LRTZ 230800Z 07006KT 9999 BKN014 17/12 Q1024 GRN WHT=
201910230900 METAR LRTZ 230900Z 04006KT 9999 SCT015 BKN200 17/12 Q1024
                        BLU BLU=
201910231000 METAR LRTZ 231000Z 09008KT 9999 SCT015 BKN200 17/12 Q1023
                        BLU BLU=
201910231100 METAR LRTZ 231100Z 09006KT 9999 FEW015 BKN200 17/12 Q1023
                        BLU BLU=
201910231200 METAR LRTZ 231200Z 10008KT 9999 SCT200 17/12 Q1023 BLU BLU=
201910231400 METAR LRTZ 231400Z 11006KT 9999 SCT200 17/12 Q1022 BLU BLU=
201910231500 METAR LRTZ 231500Z 10004KT 9999 FEW200 15/12 Q1022 BLU BLU=
201910231600 METAR LRTZ 231600Z 09003KT 9999 SKC 14/12 Q1022 BLU BLU=
201910231700 METAR LRTZ 231700Z VRB03KT 9999 SKC 14/12 Q1022 BLU BLU=
201910231800 METAR LRTZ 231800Z VRB03KT 9999 SKC 14/12 Q1022 BLU BLU=
201910231900 METAR LRTZ 231900Z VRB03KT 9999 SKC 14/12 Q1022 BLU WHT=
201910232000 METAR LRTZ 232000Z VRB03KT 7000 SKC 14/12 Q1022 WHT WHT=
201910232100 METAR LRTZ 232100Z VRB03KT 5000 BR SKC 13/11 Q1023 WHT WHT=
201910240300 METAR LRTZ 240300Z 36004KT 0050 FG BKN002 10/10 Q1021 RED
                        RED=
201910240400 METAR LRTZ 240400Z 01004KT 0200 FG BKN012 10/10 Q1021 RED
                        RED=
201910240500 METAR LRTZ 240500Z 01004KT 1800 BR BKN015 11/10 Q1021 YLO
                        YLO=
201910240600 METAR LRTZ 240600Z 01004KT 0150 FG VV001 12/12 Q1022 RED
                        RED=
201910240700 METAR LRTZ 240700Z 01004KT 0800 FG BKN005 15/15 Q1022 AMB
                        WHT=
201910240800 METAR LRTZ 240800Z 12008KT 8000 BKN15 BK200 18/13 Q1022 WHT
                        WHT=
201910240900 METAR LRTZ 240900Z 12008KT 9999 BKN015 BK200 18/13 Q1022
                        WHT WHT=
201910241000 METAR LRTZ 241000Z 12010KT 9999 BKN015 BKN200 18/13 Q1021
                        WHT WHT=
201910241100 METAR LRTZ 241100Z 12010KT 9999 SCT020 BKN200 19/13 Q1021
                        BLU BLU=
201910241200 METAR LRTZ 241200Z 12010KT 9999 SCT020 SCT200 19/13 Q1020
                        BLU BLU=
201910241300 METAR LRTZ 241300Z 12010KT 9999 SCT020 SCT200 18/13 Q1020
                        BLU BLU=
201910241400 METAR LRTZ 241400Z 12008KT 9999 FEW020 SCT200 18/13 Q1020
                        BLU BLU=
201910241500 METAR LRTZ 241500Z 12006KT 9999 SCT200 17/13 Q1020 BLU BLU=
201910241700 METAR LRTZ 241700Z VRB03KT 9999 SCT200 15/13 Q1020 BLU BLU=
201910241800 METAR LRTZ 241800Z VRB03KT 9999 SCT200 15/12 Q1020 BLU BLU=
201910241900 METAR LRTZ 241900Z VRB03KT 9999 SCT200 15/12 Q1020 BLU BLU=
201910242000 METAR LRTZ 242000Z VRB03KT 9999 SCT200 14/13 Q1020 BLU WHT=
201910242300 METAR LRTZ 242300Z VRB03KT 5000 BR SCT015 14/13 Q1020 WHT
                        GRN=
201910250300 METAR LRTZ 250300Z VRB03KT 2000 BR BKN015 15/13 Q1020 YLO
                        YLO=
201910250400 METAR LRTZ 250400Z VRB03KT 5000 BR BKN015 16/13 Q1019 WHT
                        WHT=
201910250500 METAR LRTZ 250500Z 12004KT 8000 BKN015 16/13 Q1019 WHT WHT=
201910250600 METAR LRTZ 250600Z 12004KT 9999 BKN015 16/14 Q1020 WHT WHT=
201910250700 METAR LRTZ 250700Z 06004KT 9999 OVC015 16/12 Q1021 WHT WHT=
201910250800 METAR LRTZ 250800Z 09006KT 9999 OVC015 16/12 Q1021 WHT WHT=
201910250900 METAR LRTZ 250900Z 12006KT 9999 OVC020 17/12 Q1021 WHT WHT=
201910251000 METAR LRTZ 251000Z 06006KT 9999 FEW010 OVC020 16/13 Q1021
                        WHT WHT=
201910251100 METAR LRTZ 251100Z 06006KT 9999 FEW010 BKN020 16/13 Q1021
                        WHT BLU=
201910251200 METAR LRTZ 251200Z 06006KT 9999 BKN020 17/13 Q1020 WHT BLU=
201910251300 METAR LRTZ 251300Z 06006KT 9999 OVC020 16/13 Q1020 WHT WHT=
201910251400 METAR LRTZ 251400Z 06006KT 9999 OVC020 16/13 Q1020 WHT WHT=
201910251500 METAR LRTZ 251500Z 06006KT 9999 OVC020 16/13 Q1020 WHT WHT=
201910251600 METAR LRTZ 251600Z 06004KT 9999 OVC020 15/12 Q1021 WHT WHT=
201910251700 METAR LRTZ 251700Z VRB03KT 9999 OVC015 15/12 Q1021 WHT WHT=
201910251800 METAR LRTZ 251800Z VRB03KT 9999 OVC015 14/12 Q1022 WHT WHT=
201910251900 METAR LRTZ 251900Z VRB03KT 5000 BR OVC015 13/11 Q1022 WHT
                        WHT=
201910252000 METAR LRTZ 252000Z VRB03KT 5000 BR OVC015 13/11 Q1022 WHT
                        WHT=
201910252100 METAR LRTZ 252100Z VRB03KT 5000 BR OVC015 13/12 Q1022 WHT
                        WHT=
201910252300 METAR LRTZ 252300Z VRB03KT 5000 BR OVC015 13/12 Q1023 WHT
                        GRN=
201910260300 METAR LRTZ 260300Z VRB03KT 5000 BR OVC020 13/11 Q1023 WHT
                        WHT=
201910260400 METAR LRTZ 260400Z 03006KT 7000 OVC020 13/10 Q1023 WHT BLU=
201910260500 METAR LRTZ 260500Z 03006KT 8000 OVC025 14/10 Q1023 BLU BLU=
201910260600 METAR LRTZ 260600Z 36008KT 9999 OVC022 14/10 Q1024 WHT WHT=
201910260700 METAR LRTZ 260700Z 36006KT 9999 OVC022 13/10 Q1024 WHT WHT=
201910260800 METAR LRTZ 260800Z 02006KT 9999 OVC020 14/11 Q1024 WHT WHT=
201910260900 METAR LRTZ 260900Z 03008KT 9999 BKN015 OVC020 14/10 Q1024
                        WHT WHT=
201910261000 METAR LRTZ 261000Z 04008KT 9999 BKN015 OVC020 14/10 Q1024
                        WHT WHT=
201910261100 METAR LRTZ 261100Z 09008KT 9999 BKN022 OVC027 15/10 Q1024
                        WHT BLU=
201910261200 METAR LRTZ 261200Z 04008KT 9999 BKN027 15/10 Q1024 BLU BLU=
201910261300 METAR LRTZ 261300Z 04008KT 9999 BKN027 14/09 Q1024 BLU BLU=
201910261400 METAR LRTZ 261400Z 04006KT 9999 BKN026 14/08 Q1024 BLU BLU=
201910261500 METAR LRTZ 261500Z 03004KT 9999 BKN027 14/09 Q1024 BLU BLU=
201910261600 METAR LRTZ 261600Z 05004KT 9999 BKN023 13/08 Q1024 WHT WHT=
201910261700 METAR LRTZ 261700Z 06004KT 9999 SCT022 12/08 Q1023 BLU BLU=
201910261800 METAR LRTZ 261800Z 00000KT 9999 FEW023 12/08 Q1023 BLU BLU=
201910261900 METAR LRTZ 261900Z 00000KT 9999 SKC 12/08 Q1023 BLU BLU=
201910262000 METAR LRTZ 262000Z 00000KT 9999 SKC 12/08 Q1023 BLU BLU=
201910262300 METAR LRTZ 262300Z VRB03KT 7000 SCT020 11/09 Q1023 WHT WHT=
201910270500 METAR LRTZ 270500Z 34004KT 7000 BKN020 11/09 Q1022 WHT WHT=
201910270600 METAR LRTZ 270600Z 34004KT 7000 FEW030 11/09 Q1022 WHT BLU=
201910270700 METAR LRTZ 270700Z 01004KT 9999 FEW030 14/11 Q1022 BLU BLU=
201910270800 METAR LRTZ 270800Z 01004KT 9999 BKN020 15/10 Q1022 BLU BLU=
201910270900 METAR LRTZ 270900Z 21004KT 9999 BKN020 16/10 Q1022 BLU BLU=
201910271000 METAR LRTZ 271000Z 18010KT 9999 BKN020 16/09 Q1021 BLU BLU=
201910271100 METAR LRTZ 271100Z 16010KT 9999 SCT025 17/10 Q1021 BLU BLU=
201910271200 METAR LRTZ 271200Z 16010KT 9999 SCT025 17/10 Q1020 BLU BLU=
201910271300 METAR LRTZ 271300Z 15010KT 9999 FEW025 17/10 Q1020 BLU BLU=
201910271400 METAR LRTZ 271400Z 18010KT 9999 SKC 17/11 Q1019 BLU BLU=
201910271500 METAR LRTZ 271500Z 18008KT 9999 SKC 16/11 Q1019 BLU BLU=
201910271600 METAR LRTZ 271600Z 18006KT 9999 SKC 14/10 Q1019 BLU BLU=
201910271700 METAR LRTZ 271700Z VBR03KT 9999 FEW025 12/09 Q1019 BLU BLU=
201910271800 METAR LRTZ 271800Z VBR03KT 9999 FEW025 12/09 Q1018 BLU BLU=
201910271900 METAR LRTZ 271900Z VBR03KT 9999 SKC 11/09 Q1018 BLU BLU=
201910272000 METAR LRTZ 272000Z VBR03KT 9999 SKC 10/09 Q1018 BLU BLU=
201910272100 METAR LRTZ 272100Z VBR03KT 9999 SKC 11/09 Q1018 BLU BLU=
201910272200 METAR LRTZ 272200Z VBR03KT 9999 SKC 11/09 Q1018 BLU BLU=
201910272300 METAR LRTZ 272300Z VBR03KT 9999 SKC 10/09 Q1018 BLU BLU=
201910280300 METAR LRTZ 280300Z VBR03KT 9999 SKC 10/09 Q1016 BLU BLU=
201910280400 METAR LRTZ 280400Z VBR03KT 9999 SKC 10/09 Q1015 BLU BLU=
201910280500 METAR LRTZ 280500Z 36004KT 6000 FEW100 09/08 Q1015 WHT BLU=
201910280600 METAR LRTZ 280600Z 36004KT 8000 FEW100 10/09 Q1016 BLU BLU=
201910280700 METAR LRTZ 280700Z 36004KT 8000 SCT100 15/11 Q1016 BLU BLU=
201910280800 METAR LRTZ 280800Z 21006KT 9999 SCT100 17/11 Q1016 BLU BLU=
201910280900 METAR LRTZ 280900Z 21008KT 9999 SCT040 18/11 Q1016 BLU BLU=
201910281000 METAR LRTZ 281000Z 20008KT 9999 SCT040 18/11 Q1015 BLU BLU=
201910281100 METAR LRTZ 281100Z 15008KT 9999 SCT040 18/11 Q1015 BLU BLU=
201910281200 METAR LRTZ 281200Z 15010KT 9999 SCT040 18/12 Q1014 BLU BLU=
201910281300 METAR LRTZ 281300Z 15010KT 9999 SCT040 18/12 Q1014 BLU BLU=
201910281400 METAR LRTZ 281400Z 15010KT 9999 FEW200 17/12 Q1014 BLU BLU=
201910281500 METAR LRTZ 281500Z 15008KT 9999 FEW200 16/12 Q1014 BLU BLU=
201910281600 METAR LRTZ 281600Z VRB03KT 9999 SCT200 15/12 Q1014 BLU BLU=
201910281700 METAR LRTZ 281700Z VRB03KT 9999 SCT200 14/11 Q1015 BLU BLU=
201910281800 METAR LRTZ 281800Z VRB03KT 9999 SCT200 13/11 Q1015 BLU BLU=
201910281900 METAR LRTZ 281900Z VRB03KT 9999 SCT200 12/11 Q1015 BLU BLU=
201910282000 METAR LRTZ 282000Z VRB03KT 6000 SCT200 11/10 Q1015 WHT WHT=
201910282100 METAR LRTZ 282100Z VRB03KT 5000 BR SCT200 11/10 Q1015 WHT
                        WHT=
201910282300 METAR LRTZ 282300Z VRB03KT 5000 BR SCT200 11/10 Q1015 WHT
                        WHT=
201910290400 METAR LRTZ 290400Z VRB03KT 2000 BR SCT200 10/10 Q1017 YLO
                        AMB=
201910290500 METAR LRTZ 290500Z VRB03KT 0350 FG VV002 09/09 Q1016 RED
                        RED=
201910290600 METAR LRTZ 290600Z VRB03KT 0350 FG OVC003 10/09 Q1016 RED
                        AMB=
201910290700 METAR LRTZ 290700Z 33010KT 0350 FG VV002 11/11 Q1017 RED
                        RED=
201910290800 METAR LRTZ 290800Z 33010KT 0350 FG VV002 11/11 Q1017 RED
                        RED=
201910290900 METAR LRTZ 290900Z 33008KT 4000 BR VV002 12/12 Q1018 AMB
                        GRN=
201910291000 METAR LRTZ 291000Z 36008KT 6000 OVC005 13/12 Q1017 YLO GRN=
201910291100 METAR LRTZ 291100Z 03008KT 8000 OVC005 13/11 Q1017 YLO YLO=
201910291200 METAR LRTZ 291200Z 03008KT 8000 OVC007 13/11 Q1017 GRN GRN=
201910291300 METAR LRTZ 291300Z 03008KT 8000 OVC007 14/11 Q1017 GRN GRN=
201910291400 METAR LRTZ 291400Z 06006KT 9999 BKN007 OVC012 14/11 Q1017
                        GRN GRN=
201910291500 METAR LRTZ 291500Z VRB03KT 9999 OVC010 14/11 Q1017 GRN GRN=
201910291600 METAR LRTZ 291600Z 06004KT 9999 OVC010 13/11 Q1017 GRN GRN=
201910291700 METAR LRTZ 291700Z 06004KT 8000 BKN015 OVC020 13/11 Q1017
                        WHT WHT=
201910291800 METAR LRTZ 291800Z 04004KT 6000 BKN015 OVC020 13/11 Q1017
                        WHT WHT=
201910291900 METAR LRTZ 291900Z 04004KT 6000 BKN015 OVC020 13/11 Q1018
                        WHT WHT=
201910292000 METAR LRTZ 292000Z 04004KT 6000 OVC020 13/11 Q1018 WHT WHT=
201910292100 METAR LRTZ 292100Z 04004KT 6000 OVC020 13/11 Q1018 WHT WHT=
201910292300 METAR LRTZ 292300Z 04008KT 6000 OVC020 12/11 Q1019 WHT WHT=
201910300400 METAR LRTZ 300400Z 04014KT 8000 -DZ BKN010 OVC015 11/10 Q1020
                        GRN GRN=
201910300500 METAR LRTZ 300500Z 04014KT 8000 BKN010 OVC015 11/10 Q1020
                        GRN GRN=
201910300600 METAR LRTZ 300600Z 04014KT 8000 BKN010 OVC015 11/10 Q1021
                        GRN GRN=
201910300700 METAR LRTZ 300700Z 03010KT 8000 -RA BKN010 OVC015 10/09 Q1022
                        GRN GRN=
201910300800 METAR LRTZ 300800Z 05012KT 9999 BKN010 OVC015 11/08 Q1023
                        GRN GRN=
201910300900 METAR LRTZ 300900Z 03014KT 9999 BKN010 OVC015 10/08 Q1023
                        GRN GRN=
201910301100 METAR LRTZ 301100Z 03012KT 9999 SCT015 OVC030 11/07 Q1023
                        BLU BLU=
201910301200 METAR LRTZ 301200Z 06012KT 9999 SCT025 OVC030 12/06 Q1023
                        BLU BLU=
201910301300 METAR LRTZ 301300Z 06010KT 9999 FEW025 OVC030 12/05 Q1023
                        BLU BLU=
201910301400 METAR LRTZ 301400Z 06008KT 9999 OVC035 12/04 Q1023 BLU BLU=
201910301500 METAR LRTZ 301500Z 06008KT 9999 FEW015 OVC035 12/05 Q1023
                        BLU BLU=
201910301600 METAR LRTZ 301600Z 06008KT 9999 OVC035 12/05 Q1023 BLU BLU=
201910301700 METAR LRTZ 301700Z 06010KT 9999 DZ OVC035 12/05 Q1023 BLU
                        BLU=
201910301800 METAR LRTZ 301800Z 06008KT 9999 -RA OVC030 11/06 Q1023 BLU
                        WHT=
201910301900 METAR LRTZ 301900Z 06008KT 8000 -RA SCT025 OVC30 11/08 Q1023
                        BLU WHT=
201910302000 METAR LRTZ 302000Z 06008KT 5000 -RA BR SCT020 OVC30 11/08
                        Q1023 WHT WHT=
201910302100 METAR LRTZ 302100Z 06008KT 5000 -RA BR SCT020 OVC030 11/08
                        Q1024 WHT WHT=
201910302300 METAR LRTZ 302300Z 06008KT 5000 -RA BR SCT020 OVC030 11/08
                        Q1023 WHT WHT=
201910310300 METAR LRTZ 310300Z 06008KT 5000 -RA BR SCT020 OVC030 10/08
                        Q1023 WHT WHT=
201910310400 METAR LRTZ 310400Z 06018KT 3000 -RA BR SCT008 OVC015 08/06
                        Q1023 YLO YLO=
201910310500 METAR LRTZ 310500Z 06012G22KT 5000 -RA BR SCT008 OVC015 08/06
                        Q1023 WHT WH=
201910310600 METAR LRTZ 310600Z 06012G22KT 5000 -RA BR SCT007 OVC015 08/07
                        Q1023 WHT WHT=
201910310700 METAR LRTZ 310700Z 06012G22KT 5000 -RA BR SCT007 OVC015 08/07
                        Q1024 WHT WHT=
201910310800 METAR LRTZ 310800Z 04014G24KT 4000 RA BR BKN007 OVC015 08/07
                        Q1024 GRN GRN=
201910310900 METAR LRTZ 310900Z 05012G22KT 5000 RA BR BKN009 OVC015 08/07
                        Q1024 GRN WHT=
201910311000 METAR LRTZ 311000Z 04012G22KT 7000 -RA BKN007 OVC013 08/06
                        Q1024 GRN GRN=
201910311100 METAR LRTZ 311100Z 04012G22KT 7000 -RA BKN008 OVC015 08/06
                        Q1024 GRN GRN=
201910311200 METAR LRTZ 311200Z 05018KT 9999 -RA BKN010 OVC022 08/06 Q1024
                        GRN WHT=
201910311300 METAR LRTZ 311300Z 06018KT 9999 -RA BKN012 OVC018 08/06 Q1024
                        GRN GRN=
201910311400 METAR LRTZ 311400Z 06010G20KT 9999 BKN014 OVC020 09/06 Q1023
                        GRN WHT=
201910311500 METAR LRTZ 311500Z 06016KT 9999 BKN017 OVC021 09/06 Q1023
                        WHT WHT=
201910311600 METAR LRTZ 311600Z 05014KT 9999 BKN020 OVC030 09/05 Q1024
                        WHT WHT=
201910311700 METAR LRTZ 311700Z 06014KT 9999 SCT020 BKN025 OVC070 09/04
                        Q1024 BLU BLU=
201910311800 METAR LRTZ 311800Z 06016KT 9999 BKN025 OVC070 09/04 Q1024
                        BLU BLU=
201910311900 METAR LRTZ 311900Z 06010G20KT 9999 BKN026 OVC070 09/03 Q1024
                        BLU BLU=
201910312000 METAR LRTZ 312000Z 06018KT 9999 SCT027 OVC065 09/03 Q1024
                        BLU BLU=
201910312100 METAR LRTZ 312100Z 06018KT 9999 SCT025 OVC070 09/03 Q1024
                        BLU BLU=
201910312300 METAR LRTZ 312300Z 06016KT 9999 SCT030 OVC070 08/03 Q1024
                        BLU BLU=