201910011100 TAF LRTZ 011100Z 0112/0212 09016KT 9999 FEW200
                      BECMG 0118/0120 12010KT
                      PROB30 TEMPO 0202/0206 VRB03KT 0800 FG VV003
                       TEMPO 0208/0212 SCT040=
201910011700 TAF LRTZ 011700Z 0118/0218 14010KT 9999 SCT200
                      PROB30 TEMPO 0202/0206 VRB03KT 0800 FG VV003
                       TEMPO 0208/0212 SCT040=
201910020500 TAF LRTZ 020500Z 0206/0306 18012KT 9999 SCT200
                      TEMPO 0208/0214 12018KT SCT040
                      BECMG 0220/0222 VRB03KT 4000 BR
                      TEMPO 0302/0306 0800 FG VV003=
201910021100 TAF LRTZ 021100Z 0212/0312 18014KT 9999 SKC
                      TEMPO 0212/0216 12018KT FEW040 SCT200
                      BECMG 0220/0222 VRB03KT 5000 BR
                      PROB30 TEMPO 0302/0306 0800 FG VV003=
201910021700 TAF LRTZ 021700Z 0218/0318 18010KT 9999 SKC
                      TEMPO 0218/0222 FEW015
                      PROB30 TEMPO 0302/0306 4000 BR BKN005=
201910022300 TAF LRTZ 022300Z 0300/0400 16010KT 9999 SKC
                      PROB30 TEMPO 0302/0306 4000 BR BKN005
                      TEMPO 0310/0314 FEW030=
201910030500 TAF LRTZ 030500Z 0306/0406 18014KT 9999 SCT015
                      BECMG 0309/0311 SCT030
                      BECMG 0322/0400 BKN025 OVC090=
201910031100 TAF LRTZ 031100Z 0312/0412 18014KT 9999 FEW015
                      BECMG 0309/0311 SCT030
                      BECMG 0322/0400 27010KT BKN025 OVC090
                      BECMG 0408/0410 36010KT=
201910031700 TAF LRTZ 031700Z 0318/0418 18010KT 9999 FEW100 SCT200
                      BECMG 0415/0417 36020KT 6000 RA BKN015 OVC020=
201910032300 TAF LRTZ 032300Z 0400/0500 27006KT 9999 BKN100
                      PROB30 TEMPO 0404/0406 6000 -RA BKN015
                      BECMG 0415/0417 36020KT 6000 RA BKN015 OVC020
                       PROB30
                      TEMPO 0418/0500 36020G30KT 3000 SHRA BR BKN010
                       BKN020CB OVC030=
201910040500 TAF LRTZ 040500Z 0406/0506 36008KT 9999 BKN020
                      TEMPO 0406/0408 BKN007 BKN015
                      BECMG 0415/0417 36020KT 6000 RA BKN015 OVC020
                       PROB30
                      TEMPO 0418/0500 36020G30KT 3000 SHRA BKN010
                       BKN020CB OVC030=
201910041100 TAF LRTZ 041100Z 0412/0512 36010KT 9999 SCT005 BKN010 OVC020
                      BECMG 0415/0417 36020KT 6000 RA SCT010 BKN020
                       OVC040
                      PROB30 TEMPO 0418/0500 36020G30KT 4000 SHRA
                       BKN010 BKN020CB
                      BECMG 0509/0511 30012KT BKN025 BKN070=
201910041700 TAF LRTZ 041700Z 0418/0518 36012KT 6000 RA SCT007 BKN014 OVC040
                       TEMPO 0420/0500 36018G28KT 4000 SHRA BKN010
                       BKN020CB
                      BECMG 0509/0511 30012KT BKN025 BKN070=
201910042300 TAF LRTZ 042300Z 0500/0600 33012KT 5000 RA BR SCT005 BKN010 OVC040
                       BECMG 0510/0512 9999 NSW BKN020 OVC070=
201910050500 TAF LRTZ 050500Z 0506/0606 35014KT 4000 RA BR SCT002 BKN005 OVC012
                       BECMG 0511/0513 9999 NSW BKN020 OVC070
                      BECMG 0517/0519 5000 BR BKN007 OVC020
                      PROB30 TEMPO 0601/0605 4000 RA BR BKN005
                       OVC015=
201910051100 TAF LRTZ 051100Z 0512/0612 35014KT 9999 BKN020 BKN070
                      BECMG 0516/0518 27006KT SCT010 BKN070
                      BECMG 0600/0602 BKN015 BKN040
                      PROB30 TEMPO 0608/0612 4000 SHRA RA SCT007
                       BKN020CB OVC040=
201910051700 TAF LRTZ 051700Z 0518/0618 27006KT 9999 OVC160
                      BECMG 0600/0602 BKN020 BKN070
                      PROB40 TEMPO 0609/0615 4000 TSRA RA SCT010
                       BKN025CB BKN050=
201910052300 TAF LRTZ 052300Z 0600/0700 30008KT 9999 BKN050 OVC100
                      BECMG 0606/0608 5000 -RA BR BKN015 OVC025
                       PROB30
                      TEMPO 0612/0616 4000 TSRA RA SCT010 BKN025CB
                       BKN050=
201910060500 TAF LRTZ 060500Z 0606/0706 30010KT 9999 SCT100
                      BECMG 0608/0610 SCT020 BKN070
                      PROB30 TEMPO 0612/0616 21010KT 4000 TSRA
                       RA SCT010 BKN025CB BKN050
                      BECMG 0618/0620 SCT100
                      TEMPO 0702/0706 5000 BR=
201910061100 TAF LRTZ 061100Z 0612/0712 30010KT 9999 BKN025 BKN090
                      PROB40 TEMPO 0612/0616 VRB18KT 4000 TSRA
                       RA SCT010 BKN025CB BKN050
                      BECMG 0618/0620 SCT100
                      PROB40 TEMPO 0702/0706 0800 FG VV004=
201910061700 TAF LRTZ 061700Z 0618/0718 30010KT 9999 SCT100
                      TEMPO 0618/0620 SCT040 BKN100
                      PROB40 TEMPO 0702/0706 4000 BR=
201910062300 TAF LRTZ 070500Z 0706/0806 33010KT 9999 SCT020 BKN090
                      PROB30 TEMPO 0712/0714 -TSRA SCT025CB BKN070=
201910070500 TAF LRTZ 070500Z 0706/0806 33010KT 9999 SCT020 BKN090
                      PROB30 TEMPO 0712/0714 -TSRA SCT025CB BKN070=
201910071100 TAF LRTZ 071100Z 0712/0812 33010KT 9999 BKN020 BKN090
                      PROB30 TEMPO 0712/0714 -TSRA=
201910071700 TAF LRTZ 071700Z 0718/0818 03010KT 9999 BKN050
                      BECMG 0804/0806 SCT100 03018KT
                      BECMG 0816/0818 FEW100=
201910072300 TAF LRTZ 072300Z 0800/0900 03010KT 9999 BKN050
                      BECMG 0804/0806 SCT100 03018KT
                      BECMG 0816/0818 FEW100=
201910080500 TAF LRTZ 080500Z 0806/0906 03016KT 9999 SCT030 BKN100
                      BECMG 0817/0819 VRB03KT FEW100=
201910081100 TAF LRTZ 081100Z 0812/0912 06014KT 9999 BKN025
                      BECMG 0816/0818 18008KT SCT200
                      PROB30 TEMPO 0902/0905 5000 BR SCT010=
201910081700 TAF LRTZ 081700Z 0818/0918 18008KT 9999 SCT200
                      PROB30 TEMPO 0902/0905 5000 BR BKN010=
201910082300 TAF LRTZ 082300Z 0900/1000 20014KT 9999 SCT200
                      PROB30 TEMPO 0902/0905 VRB03KT 5000 BR BKN010=
201910090500 TAF LRTZ 090500Z 0906/1006 20016KT 9999 BKN025
                      BECMG 0912/0914 18006KT SCT200
                      PROB40 TEMPO 1002/1005 VRB03KT 4000 BR BKN010=
201910091100 TAF LRTZ 091100Z 0912/1012 20018KT 9999 SCT200
                      TEMPO 0912/0914 SCT030
                      BECMG 0920/0922 20008KT
                      PROB40 TEMPO 1002/1006 VRB03KT 4000 BR BKN010
                       TEMPO 1004/1006 0800 FG VV003=
201910091700 TAF LRTZ 091700Z 0918/1018 20008KT 9999 SKC
                      PROB30 TEMPO 1002/1006 VRB03KT 4000 BR BKN010
                       BECMG 1008/1010 27006KT
                      TEMPO 1010/1014 SCT030=
201910092300 TAF LRTZ 092300Z 1000/1100 20008KT 9999 SKC
                      PROB30 TEMPO 1002/1006 VRB03KT 4000 BR BKN010
                       BECMG 1008/1010 27006KT
                      TEMPO 1010/1014 SCT030
                      BECMG 1018/1020 VRB03KT=
201910100500 TAF LRTZ 100500Z 1006/1106 21014KT 9999 SKC
                      TEMPO 1006/1008 21004KT
                      BECMG 1012/1014 27008KT SCT030
                      BECMG 1018/1020 BKN050
                      TEMPO 1102/1106 35016KT 4000 -SHRA BKN015CB
                       BKN030=
201910101100 TAF LRTZ 101100Z 1012/1112 27010KT 9999 SCT200
                      BECMG 1018/1020 BKN100
                      TEMPO 1102/1108 33016KT 4000 -SHRA BKN025CB
                       BKN050
                      BECMG 1108/1110 33010KT SCT020 BKN070=
201910101700 TAF LRTZ 101700Z 1018/1118 30004KT 9999 SCT200
                      BECMG 1100/1102 35014KT BKN100
                      TEMPO 1102/1108 4000 -SHRA RA BKN025CB BKN050
                       BECMG 1108/1110 SCT020 BKN070=
201910102300 TAF LRTZ 102300Z 1100/1200 33016KT 9999 BKN100
                      TEMPO 1102/1108 4000 -SHRA RA BKN025CB BKN050
                       BECMG 1108/1110 01010KT SCT020 BKN070=
201910110500 TAF LRTZ 110500Z 1106/1206 33010KT 9999 SCT035 BKN100
                      BECMG 1108/1110 BKN035
                      BECMG 1114/1116 SCT200=
201910111100 TAF LRTZ 111100Z 1112/1212 06010KT 9999 SCT035
                      BECMG 1116/1118 VRB03KT SCT200
                      PROB30 TEMPO 1201/1205 5000 BR=
201910111700 TAF LRTZ 111700Z 1118/1218 VRB03KT 9999 SCT200
                      PROB30 TEMPO 1201/1205 5000 BR
                      BECMG 1206/1208 16010KT SKC
                      TEMPO 1208/1214 SCT030=
201910112300 TAF LRTZ 112300Z 1200/1300 VRB03KT 9999 SCT200
                      PROB30 TEMPO 1201/1205 5000 BR
                      BECMG 1206/1208 16010KT SKC
                      TEMPO 1208/1214 SCT030=
201910120500 TAF LRTZ 120500Z 1206/1306 16010KT 9999 SKC
                      TEMPO 1208/1214 SCT030
                      TEMPO 1223/1305 0350 FG VV002=
201910121100 TAF LRTZ 121100Z 1212/1312 16016KT 9999 SCT030
                      BECMG 1218/1220 VRB03KT SKC
                      PROB30 TEMPO 1223/1305 0350 FG VV002=
201910122300 TAF LRTZ 122300Z 1300/1400 19010KT 9999 SKC
                      PROB40 TEMPO 1302/1306 0800 FG BKN003
                      TEMPO 1309/1315 BKN025=
201910130500 TAF LRTZ 130500Z 1306/1406 19010KT 9999 SKC
                      TEMPO 1309/1315 SCT025
                      BECMG 1318/1320 VRB03KT
                      BECMG 1323/1401 4500 BR
                      PROB40 TEMPO 1402/1406 0200 FG VV002=
201910131100 TAF LRTZ 131100Z 1312/1412 18014KT 9999 SKC
                      BECMG 1318/1320 VRB03KT
                      BECMG 1323/1401 3000 BR BKN015
                      PROB40 TEMPO 1402/1406 0800 FG VV002
                      BECMG 1406/1408 15010KT 9999 SCT040=
201910131700 TAF LRTZ 131700Z 1318/1418 18008KT 9999 SCT100
                      BECMG 1323/1401 VRB03KT 3000 BR BKN070
                      PROB40 TEMPO 1402/1406 0800 FG VV002
                      BECMG 1406/1408 15010KT 9999 SCT040=
201910132300 TAF LRTZ 132300Z 1400/1500 VRB03KT 9999 SCT200
                      TEMPO 1402/1406 3000 BR
                      PROB30 TEMPO 1404/1406 0800FG VV003
                      BECMG 1406/1408 15010KT 9999 SCT040=
201910140500 TAF LRTZ 140500Z 1406/1506 16008KT 9999 SCT040
                      BECMG 1420/1422 VRB03KT
                      BECMG 1423/1501 3000 BR
                      TEMPO 1502/1506 0800FG VV002=
201910141100 TAF LRTZ 141100Z 1412/1512 15010KT 9999 SCT020
                      BECMG 1416/1418 VRB03KT 4000 BR BKN015
                      TEMPO 1502/1506 0500 FG VV002
                      BECMG 1507/1509 12010KT 9999 SCT020=
201910141700 TAF LRTZ 141700Z 1418/1518 15004KT 9999 SKC
                      BECMG 1420/1422 5000 BR BKN015
                      PROB30 TEMPO 1502/1506 0500 FG VV002
                      BECMG 1507/1509 12010KT 9999 SCT020=
201910150500 TAF LRTZ 150500Z 1506/1606 10010KT 9999 BKN015
                      BECMG 1507/1509 SCT020 SCT200
                      BECMG 1518/1520 VRB03KT BKN015
                      PROB30 TEMPO 1602/1606 5000 BR=
201910151100 TAF LRTZ 151100Z 1512/1612 16010KT 9999 BKN015
                      BECMG 1518/1520 VRB03KT BKN015
                      PROB40 TEMPO 1602/1606 5000 BR BKN005=
201910151700 TAF LRTZ 151700Z 1518/1618 VRB03KT 9999 BKN015
                      PROB40 TEMPO 1602/1606 5000 BR BKN005
                      BECMG 1606/1608 04008KT=
201910152300 TAF LRTZ 152300Z 1600/1700 VRB03KT 9999 BKN015
                      PROB40 TEMPO 1602/1606 5000 BR BKN005
                      BECMG 1606/1608 04008KT
                      TEMPO 1612/1618 SCT030=
201910160500 TAF LRTZ 160500Z 1606/1706 04008KT 9999 BKN017
                      TEMPO 1612/1618 SCT030=
201910161100 TAF LRTZ 161100Z 1612/1712 12010KT 9999 SCT020
                      BECMG 1620/1622 VRB03KT 5000 BR BKN015
                      BECMG 17000/1702 35004KT
                      TEMPO 1702/1704 0800 FG VV003
                      BECMG 1706/1708 03010KT 9999 BKN040=
201910161700 TAF LRTZ 161700Z 1618/1718 VRB03KT 9999 BKN020
                      BECMG 1700/1702 5000 BR
                      TEMPO 1702/1706 0800 FG VV003
                      BECMG 1706/1708 03010KT 9999 BKN040=
201910162300 TAF LRTZ 162300Z 1700/1800 VRB03KT 5000 BR BKN020
                      TEMPO 1703/1705 0800 FG VV003
                      BECMG 1706/1708 9999
                      BECMG 1712/1714 03010KT 9999 BKN040=
201910170500 TAF LRTZ 170500Z 1706/1806 30004KT 9999 BKN020
                      BECMG 1710/1712 12006KT SCT040
                      BECMG 1720/1722 31006KT BKN020
                      PROB30 TEMPO 1803/1805 0800 FG VV003=
201910171100 TAF LRTZ 171100Z 1712/1812 15010KT 9999 SCT020 SCT200
                      BECMG 1718/1720 VRB03KT BKN015
                      PROB30 TEMPO 1802/1806 5000 BR
                      BECMG 1806/1808 15008KT SCT200=
201910171700 TAF LRTZ 171700Z 1718/1818 VRB03KT 9999 SKC
                      BECMG 1800/1802 5000 BR SCT200
                      PROB30 TEMPO 1803/1806 0800 FG BKN005
                      BECMG 1806/1808 12008KT 9999 NSW
                      TEMPO 1812/1815 SCT020=
201910172300 TAF LRTZ 172300Z 1800/1900 VRB03KT 5000 BR SCT200
                      PROB30 TEMPO 1803/1806 0800 FG BKN005
                      BECMG 1806/1808 12008KT 9999 NSW
                      TEMPO 1812/1815 SCT020=
201910181100 TAF LRTZ 181100Z 1812/1912 16008KT 9999 SKC
                      TEMPO 1812/1816 FEW020 SCT200
                      BECMG 1816/1818 VRB03KT
                      TEMPO 1902/1906 3000 BR=
201910181700 TAF LRTZ 181700Z 1818/1918 VRB03KT 5000 BR SKC
                      TEMPO 1902/1906 0800 FG BKN005
                      BECMG 1910/1912 FEW020 SCT200=
201910182300 TAF LRTZ 182300Z 1900/2000 VRB03KT 0200 FG VV002
                      BECMG 1908/1910 16008KT 9999 FEW020 SCT200
                       BECMG 1918/1920 VRB03KT 3500 BR SKC=
201910190500 TAF LRTZ 190500Z 1906/2006 36006KT 0400 FG BKN003
                      BECMG 1908/1910 16008KT 9999 BKN015
                      BECMG 1916/1920 VRB03KT 3500 BR SKC
                      PROB40 TEMPO 2004/2006 0400 FG BKN003=
201910191100 TAF LRTZ 191100Z 1912/2012 16008KT 9999 BKN015
                      BECMG 1916/1918 VRB03KT 4000 BR SKC
                      PROB40 TEMPO 2000/2006 0150 FG VV001
                      BECMG 2008/2010 8000 BKN015=
201910191700 TAF LRTZ 191700Z 1918/2018 VRB03KT 4000 BR SKC
                      PROB40 TEMPO 2000/2006 0150 FG VV001
                      BECMG 2008/2010 16008KT 8000 BKN015=
201910192300 TAF LRTZ 192300Z 2000/2100 VRB03KT 4000 BR SKC
                      PROB40 TEMPO 2000/2006 0150 FG VV001
                      BECMG 2008/2010 16008KT 8000 BKN015
                      BECMG 2116/2118 VRB03KT 4000 BR SKC=
201910200500 TAF LRTZ 200500Z 2006/2106 VRB03KT 9999 BKN015 2008/2010 16008KT
                       SCT030
                      BECMG 2116/2118 VRB03KT 4000 BR SKC
                      PROB40 TEMPO 2102/2106 0350FG VV002=
201910201100 TAF LRTZ 201100Z 2012/2112 16010KT SCT200
                      BECMG 2016/2018 VRB03KT 4000 BR
                      PROB40 TEMPO 2102/2106 0350 FG VV002
                      BECMG 2106/2108 9999 BKN015=
201910201700 TAF LRTZ 201700Z 2018/2118 VRB03KT 5000 BR
                      PROB40 TEMPO 2102/2106 0300 FG VV002
                      BECMG 2106/2108 9999 BKN015
                      BECMG 2109/2111 SKC=
201910202300 TAF LRTZ 202300Z 2100/2200 VRB03KT 3000 BR
                      PROB40 TEMPO 2102/2106 0300 FG VV002
                      BECMG 2106/2108 9999 BKN015
                      TEMPO 2109/2115 SKC
                      BECMG 2121/2122 3000 BR BKN010=
201910210500 TAF LRTZ 210500Z 2106/2206 16010KT 9999 BKN015
                      TEMPO 2109/2115 SKC
                      BECMG 2121/2122 VRB03KT 3000 BR BKN010
                      PROB40 TEMPO 2202/2206 0300 FG VV002=
201910211100 TAF LRTZ 211100Z 2112/2212 14010KT 9999 SCT015
                      BECMG 2121/2122 VRB03KT 3000 BR BKN010
                      PROB40 TEMPO 2202/2206 0300 FG VV002=
201910211700 TAF LRTZ 211700Z 2118/2218 VRB03KT 9999 SKC
                      BECMG 2122/2200 SCT015 4500 BR BKN010
                      PROB40 TEMPO 2102/2106 0300 FG VV002=
201910212300 TAF LRTZ 212300Z 2200/2300 VRB03KT 4500 BR SCT015
                      PROB40 TEMPO 2202/2206 0300 FG VV002
                      BECMG 2207/2209 9999 06008KT FEW015
                      BECMG 2218/2220 VRB03KT SKC=
201910220500 TAF LRTZ 220500Z 2206/2306 36004KT 9999 BKN015
                      BECMG 2208/2210 9999 06008KT SCT015
                      BECMG 2218/2220 VRB03KT 5000 BR
                      PROB30 TEMPO 2304/2306 0800 FG BKN004=
201910221100 TAF LRTZ 221100Z 2212/2312 09010KT 9999 BKN020
                      BECMG 2218/2220 VRB03KT 5000 BR
                      PROB30 TEMPO 2304/2306 0800 FG BKN003
                      BECMG 2307/2309 03008KT 9999=
201910221700 TAF LRTZ 221700Z 2218/2318 VRB03KT 9999 BKN015
                      BECMG 2220/2222 5000 BR
                      PROB30 TEMPO 2304/2306 0800 FG BKN003
                      BECMG 2307/2309 06008KT 9999 BKN025=
201910222300 TAF LRTZ 222300Z 2300/2400 VRB03KT 5000 BR
                      PROB30 TEMPO 2304/2306 0800 FG BKN003
                      BECMG 2307/2309 06008KT 9999 BKN025=
201910230500 TAF LRTZ 230500Z 2306/2406 03008KT 9999 BKN020
                      PROB30 TEMPO 2306/2308 VRB03KT 5000 BR OVC015
                       BECMG 2320/2322 15006KT 5000 BR
                      PROB30 TEMPO 2404/2406 0800 FG VV003=
201910231100 TAF LRTZ 231100Z 2312/2412 10008KT 9999 SCT200
                      BECMG 2318/2320 VRB03KT 4000 BR BKN015
                      TEMPO 2402/2406 33004KT 0300 FG BKN003
                      BECMG 2406/2408 08008KT 9999 BKN020=
201910231700 TAF LRTZ 231700Z 2318/2418 VRB03KT 9999 SKC
                      BECMG 2320/2322 4000 BR BKN015
                      TEMPO 2402/2406 33004KT 0300 FG BKN003
                      BECMG 2406/2408 08008KT 9999 BKN020
                      BECMG 2408/2410 12008KT SCT200=
201910240500 TAF LRTZ 240500Z 2406/2506 01004KT 3000 BR BKN015
                      BECMG 2407/2409 08008KT 9999 BKN020
                      BECMG 2410/2412 12008KT SCT020 SCT200
                      BECMG 2416/2418 VRB03KT 4000 BR BKN015
                      TEMPO 2502/2506 36004KT 0100 FG VV003=
201910241100 TAF LRTZ 241100Z 2412/2512 12010KT SCT020 SCT200
                      BECMG 2416/2418 VRB03KT 4000 BR BKN015
                      TEMPO 2502/2506 0100 FG VV003
                      BECMG 2506/2508 9999 SCT030=
201910241700 TAF LRTZ 241700Z 2418/2518 12010KT VRB03KT 9999 SCT200
                      BECMG 2420/2422 4000 BR BKN015
                      TEMPO 2502/2506 0100 FG VV003
                      BECMG 2506/2508 12010KT 9999 SCT030=
201910242300 TAF LRTZ 242300Z 2500/2600 VRB03KT 4000 BR BKN015
                      TEMPO 2502/2506 0100 FG VV003
                      BECMG 2506/2508 12010KT 9999 SCT030
                      BECMG 2516/2518 VRB03KT SCT200=
201910250500 TAF LRTZ 250500Z 2506/2606 12010KT 9999 BKN015
                      BECMG 2516/2518 VRB03KT SCT200
                      TEMPO 2602/2606 0800 FG OVC003=
201910251100 TAF LRTZ 251100Z 2512/2612 06008KT 9999 FEW015
                      BECMG 2516/2518 VRB03KT SCT020
                      BECMG 2522/2600 4000 BR BKN015
                      PROB30 TEMPO 2602/2606 0800 FG OVC003=
201910251700 TAF LRTZ 251700Z 2518/2618 VRB03KT 8000 OVC015
                      BECMG 2522/2600 4000 BR BKN015
                      PROB30 TEMPO 2602/2606 0800 FG OVC003=
201910252300 TAF LRTZ 252300Z 2600/2700 VRB03KT 4000 BR OVC015
                      PROB30 TEMPO 2602/2606 0800 FG OVC003
                      BECMG 2606/2608 34010KT 9999 BKN015=
201910260500 TAF LRTZ 260500Z 2606/2706 03010KT 9999 OVC020
                      BECMG 2612/2614 BKN025
                      PROB40 TEMPO 2622/2700 4000 BR=
201910261100 TAF LRTZ 261100Z 2612/2712 03010KT 9999 BKN025
                      BECMG 2616/2618 VRB03KT OVC015
                      PROB40 TEMPO 2622/2702 4000 BR
                      BECMG 2706/2708 06010KT BKN020=
201910261700 TAF LRTZ 261700Z 2618/2718 VRB03KT 9999 SCT020
                      BECMG 2620/2622 BKN015
                      PROB40 TEMPO 2622/2704 4000 BR
                      BECMG 2707/2709 12010KT BKN020
                      TEMPO 2712/2716 SCT025=
201910262300 TAF LRTZ 262300Z 2700/2800 VRB03KT 4000 BR BKN015
                      BECMG 2706/2708 12010KT 9999 BKN020
                      TEMPO 2712/2716 SCT025=
201910270500 TAF LRTZ 270500Z 2706/2806 35004KT 6000 BKN020
                      BECMG 2707/2709 12010KT 9999 SCT025 BKN200
                       BECMG 2716/2718 21004KT
                      TEMPO 2802/2806 4000 BR BKN015=
201910271100 TAF LRTZ 271100Z 2712/2812 16010KT 9999 SCT025
                      BECMG 2713/2715 SKC
                      TEMPO 2802/2806 4000 BR BKN015
                      BECMG 2805/2807 36004KT SCT025=
201910271700 TAF LRTZ 271700Z 2718/2818 VRB03KT 9999 SCT025
                      TEMPO 2802/2806 4000 BR BKN015
                      BECMG 2804/2806 36010KT=
201910280500 TAF LRTZ 280500Z 2806/2906 03010KTKT 9999 SKC
                      TEMPO 2808/2814 SCT030
                      BECMG 2817/2819 VRB03KT BKN200
                      TEMPO 2902/2906 3000 BR=
201910281100 TAF LRTZ 281100Z 2812/2912 15010KT 9999 SKC
                      TEMPO 2812/2814 SCT030
                      BECMG 2817/2819 VRB03KT BKN200
                      TEMPO 2902/2906 3000 BR=
201910281700 TAF LRTZ 281700Z 2818/2918 VRB03KT 9999 BKN200
                      TEMPO 2902/2906 3000 BR
                      BECMG 2908/2910 15010KT
                      TEMPO 2909/2914 SCT030=
201910282300 TAF LRTZ 282300Z 2900/3000 VRB03KT 5000 BR SCT200
                      BECMG 2908/2910 15010KT 9999 SCT030 BKN090
                       BECMG 2918/2920 03014KT=
201910290500 TAF LRTZ 290500Z 2906/3006 VRB03KT 2000 BR SCT200
                      TEMPO 2906/2908 0800 FG OVC003
                      BECMG 2908/2910 15010KT 9999 SCT030 BKN090
                       BECMG 2918/2920 03014KT=
201910291100 TAF LRTZ 291100Z 2912/3012 06010KT 9999 BKN005 OVC020
                      BECMG 2916/2918 15010KT 9999 BKN030 BKN090
                       BECMG 2918/2920 03014KT=
201910291700 TAF LRTZ 291700Z 2918/3018 06004KT 8000 BKN015 BKN025
                      BECMG 2922/3000 03012KT 9999 BKN015 OVC050
                       PROB30
                      TEMPO 3006/3012 04016KT 6000 -DZ BKN010=
201910292300 TAF LRTZ 292300Z 3000/3100 06012KT 8000 BKN015 OVC040
                      PROB30 TEMPO 3004/3008 04016KT 6000 -DZ BKN010
                       BECMG 3008/3012 9999 06016KT BKN020 OVC050
                       BECMG 3020/3022 7000 -RA BKN020 OVC040=
201910300500 TAF LRTZ 300500Z 3006/3106 06014KT 9999 BKN010 OVC015
                      TEMPO 3006/3010 7000 -DZ
                      BECMG 3008/3012 BKN015 OVC050
                      BECMG 3020/3022 5000 RA BKN020 OVC040=
201910301100 TAF LRTZ 301100Z 3012/3112 03014KT 9999 SCT015 OVC030
                      BECMG 3020/3022 5000 RA BKN010 OVC020=
201910301700 TAF LRTZ 301700Z 3018/3118 06010KT 8000 RA BKN010 OVC020
                      TEMPO 3020/3102 3000=
201910302300 TAF LRTZ 302300Z 3100/0100 06008KT 5000 -RA SCT020 OVC030
                      TEMPO 3100/3102 3000
                      BECMG 3118/3120 9999 SCT030 BKN100=
201910310500 TAF LRTZ 310500Z 3106/0106 06015G25KT 5000 -RA SCT008 OVC015
                      BECMG 3118/3120 03010KT
                      BECMG 3122/0100 9999 SCT030 BKN100=
201910311100 TAF LRTZ 311100Z 3112/0112 03014G24KT 5000 -RA BR BKN007 OVC015
                       BECMG 3118/3120 03012KT
                      BECMG 3122/0100 9999 SCT030 BKN100
                      PROB30 TEMPO 0108/0112 5000 -RA BR BKN010
                       OVC020=
201910311700 TAF LRTZ 311700Z 3118/0118 06018KT 9999 BKN025 OVC070
                      PROB30 TEMPO 0106/0110 5000 -RA BR BKN010
                       OVC020
                      BECMG 0110/0112 03008KT SCT030 BKN100=
201910312300 TAF LRTZ 312300Z 0100/0200 03012KT 9999 SCT025 OVC070
                      BECMG 0112/0114 09008KT SCT030 BKN100=