201911010400 METAR LRTZ 010400Z 03012KT 9999 SCT030 OVC040 06/M01 Q1023
                        BLU BLU=
201911010500 METAR LRTZ 010500Z 02012KT 9999 SCT040 OVC070 05/M01 Q1023
                        BLU BLU=
201911010600 METAR LRTZ 010600Z 36010KT 9999 SCT040 OVC080 05/M01 Q1024
                        BLU BLU=
201911010700 METAR LRTZ 010700Z 36010KT 9999 SCT050 OVC090 05/M00 Q1024
                        BLU BLU=
201911010800 METAR LRTZ 010800Z 36012KT 9999 OVC090 06/M00 Q1024 BLU BLU=
201911010900 METAR LRTZ 010900Z 36012KT 9999 SCT020 OVC090 07/02 Q1025
                        BLU BLU=
201911011000 METAR LRTZ 011000Z 36012KT 9999 SCT020 OVC090 08/02 Q1024
                        BLU BLU=
201911011100 METAR LRTZ 011100Z 03012KT 9999 SCT030 OVC090 10/06 Q1024
                        BLU BLU=
201911011200 METAR LRTZ 011200Z 03012KT 9999 -RA SCT020 OVC090 09/06 Q1024
                        BLU BLU=
201911011300 METAR LRTZ 011300Z 03010KT 9999 SCT020 OVC090 09/06 Q1024
                        BLU BLU=
201911011400 METAR LRTZ 011400Z 03010KT 9999 SCT020 OVC090 08/06 Q1024
                        BLU BLU=
201911011500 METAR LRTZ 011500Z 12008KT 9999 BKN020 OVC090 08/06 Q1024
                        WHT WHT=
201911011600 METAR LRTZ 011600Z 12008KT 9999 BKN020 OVC090 08/06 Q1024
                        WHT WHT=
201911011700 METAR LRTZ 011700Z 12008KT 9999 -RA BKN020 OVC050 08/06 Q1025
                        WHT WHT=
201911011800 METAR LRTZ 011800Z 12008KT 9999 BKN020 OVC050 08/06 Q1025
                        WHT WHT=
201911011900 METAR LRTZ 011900Z 12008KT 9999 -DZ BKN020 OVC050 08/06 Q1025
                        WHT WHT=
201911012000 METAR LRTZ 012000Z 12008KT 9999 -DZ BKN020 OVC050 07/05 Q1025
                        WHT WHT=
201911012100 METAR LRTZ 012100Z 12008KT 9999 -DZ BKN020 OVC050 07/05 Q1025
                        WHT WHT=
201911012300 METAR LRTZ 012300Z 12008KT 9999 -DZ BKN020 OVC050 07/05 Q1025
                        WHT WHT=
201911020400 METAR LRTZ 020400Z 12010KT 9999 BKN020 OVC050 08/04 Q1023
                        WHT WHT=
201911020500 METAR LRTZ 020500Z 12010KT 9999 BKN020 OVC050 10/04 Q1023
                        WHT WHT=
201911020600 METAR LRTZ 020600Z 12010KT 9999 BKN020 OVC050 10/04 Q1023
                        WHT WHT=
201911020700 METAR LRTZ 020700Z 18012KT 9999 BKN030 OVC060 11/04 Q1023
                        BLU BLU=
201911020800 METAR LRTZ 020800Z 18014KT 9999 SCT030 BKN060 11/04 Q1022
                        BLU BLU=
201911020900 METAR LRTZ 020900Z 18014KT 9999 SCT030 BKN100 13/05 Q1022
                        BLU BLU=
201911021000 METAR LRTZ 021000Z 18014KT 9999 SCT030 BKN200 13/05 Q1021
                        BLU BLU=
201911021100 METAR LRTZ 021100Z 18014KT 9999 SCT035 BKN200 14/06 Q1020
                        BLU BLU=
201911021200 METAR LRTZ 021200Z 18016KT 9999 SCT035 BKN200 13/07 Q1020
                        BLU BLU=
201911021300 METAR LRTZ 021300Z 18016KT 9999 SCT035 BKN200 13/06 Q1019
                        BLU BLU=
201911021400 METAR LRTZ 021400Z 18016KT 9999 SCT035 BKN200 13/07 Q1019
                        BLU BLU=
201911021500 METAR LRTZ 021500Z 19010KT 9999 FEW035 BKN200 11/07 Q1019
                        BLU BLU=
201911021600 METAR LRTZ 021600Z 19008KT 9999 FEW035 BKN200 09/06 Q1019
                        BLU BLU=
201911021700 METAR LRTZ 021700Z 19008KT 9999 FEW035 SCT200 09/05 Q1019
                        BLU BLU=
201911021800 METAR LRTZ 021800Z 19008KT 9999 SCT200 09/04 Q1018 BLU BLU=
201911021900 METAR LRTZ 021900Z 21008KT 9999 SCT200 10/05 Q1018 BLU BLU=
201911022000 METAR LRTZ 022000Z 21008KT 9999 SCT200 09/06 Q1018 BLU BLU=
201911022100 METAR LRTZ 022100Z 21008KT 9999 SCT200 09/06 Q1018 BLU BLU=
201911022300 METAR LRTZ 022300Z 21010KT 9999 BKN200 09/06 Q1017 BLU BLU=
201911030400 METAR LRTZ 030400Z 21012KT 9999 BKN100 11/08 Q1015 BLU BLU=
201911030600 METAR LRTZ 030600Z 21012KT 9999 BKN150 12/07 Q1015 BLU BLU=
201911030700 METAR LRTZ 030700Z 21014KT 9999 BKN150 14/09 Q1015 BLU BLU=
201911030800 METAR LRTZ 030800Z 21018KT 9999 BKN200 15/10 Q1014 BLU BLU=
201911030900 METAR LRTZ 030900Z 21018KT 9999 BKN200 16/09 Q1014 BLU BLU=
201911031000 METAR LRTZ 031000Z 21012G22KT 9999 BKN200 16/09 Q1013 BLU
                        BLU=
201911031100 METAR LRTZ 031100Z 19012G22KT 9999 BKN200 17/09 Q1012 BLU
                        BLU=
201911031200 METAR LRTZ 031200Z 19014G24KT 9999 BKN200 16/09 Q1012 BLU
                        BLU=
201911031300 METAR LRTZ 031300Z 20016KT 9999 BKN200 16/10 Q1012 BLU BLU=
201911031500 METAR LRTZ 031500Z 20018KT 9999 BKN200 15/10 Q1011 BLU BLU=
201911031600 METAR LRTZ 031600Z 20018KT 9999 BKN200 15/10 Q1011 BLU BLU=
201911031700 METAR LRTZ 031700Z 21016KT 9999 BKN150 15/10 Q1011 BLU BLU=
201911031800 METAR LRTZ 031800Z 21012KT 9999 BKN200 15/10 Q1011 BLU BLU=
201911031900 METAR LRTZ 031900Z 21014KT 9999 SCT200 15/11 Q1011 BLU BLU=
201911032000 METAR LRTZ 032000Z 21016KT 9999 SCT200 15/12 Q1011 BLU BLU=
201911032100 METAR LRTZ 032100Z 21016KT 9999 SCT200 15/11 Q1010 BLU BLU=
201911032300 METAR LRTZ 032300Z 21016KT 9999 SCT200 15/11 Q1010 BLU BLU=
201911040300 METAR LRTZ 040300Z 21016KT 9999 SCT200 13/10 Q1009 BLU BLU=
201911040400 METAR LRTZ 040400Z 20012KT 9999 BKN200 13/10 Q1009 BLU BLU=
201911040500 METAR LRTZ 040500Z 21014KT 9999 BKN150 14/10 Q1008 BLU BLU=
201911040600 METAR LRTZ 040600Z 21014KT 9999 BKN150 15/11 Q1008 BLU BLU=
201911040700 METAR LRTZ 040700Z 22016KT 9999 BKN150 16/12 Q1008 BLU BLU=
201911040800 METAR LRTZ 040800Z 23012G22KT 9999 SCT140 18/14 Q1008 BLU
                        BLU=
201911040900 METAR LRTZ 040900Z 22018G28KT 9999 SCT140 BKN200 19/14 Q1008
                        BLU BLU=
201911041000 METAR LRTZ 041000Z 22016G26KT 9999 SCT140 BKN200 18/13 Q1008
                        BLU BLU=
201911041100 METAR LRTZ 041100Z 22016G26KT 9999 SCT100 BKN200 20/15 Q1007
                        BLU BLU=
201911041200 METAR LRTZ 041200Z 22016G26KT 9999 SCT100 BKN200 21/15 Q1007
                        BLU BLU=
201911041300 METAR LRTZ 041300Z 22022KT 9999 BKN100 19/14 Q1006 BLU BLU=
201911041400 METAR LRTZ 041400Z 21020KT 9999 BKN100 19/14 Q1006 BLU BLU=
201911041500 METAR LRTZ 041500Z 21012G22KT 9999 BKN100 17/14 Q1006 BLU
                        BLU=
201911041600 METAR LRTZ 041600Z 21018KT 9999 BKN100 18/14 Q1006 BLU BLU=
201911041700 METAR LRTZ 041700Z 21018KT 9999 BKN100 17/15 Q1006 BLU BLU=
201911041800 METAR LRTZ 041800Z 21016KT 9999 BKN100 17/14 Q1006 BLU BLU=
201911041900 METAR LRTZ 041900Z 21018KT 9999 BKN140 18/14 Q1006 BLU BLU=
201911042000 METAR LRTZ 042000Z 21016KT 9999 BKN120 17/14 Q1005 BLU BLU=
201911042100 METAR LRTZ 042100Z 21016KT 9999 BKN100 18/14 Q1006 BLU BLU=
201911042300 METAR LRTZ 042300Z 20014KT 7000 -RA SCT025 BKN040 OVC070
                        17/15 Q1007 WHT WHT=
201911050400 METAR LRTZ 050400Z 26008KT 9999 BKN100 16/13 Q1008 BLU BLU=
201911050500 METAR LRTZ 050500Z 26008KT 9999 FEW090 14/12 Q1009 BLU BLU=
201911050600 METAR LRTZ 050600Z 27010KT 9999 SKC 15/11 Q1010 BLU BLU=
201911050700 METAR LRTZ 050700Z 27010KT 9999 SKC 16/11 Q1010 BLU BLU=
201911050800 METAR LRTZ 050800Z 27010KT 9999 SKC 19/12 Q1010 BLU BLU=
201911050900 METAR LRTZ 050900Z 27012KT 9999 SKC 20/11 Q1011 BLU BLU=
201911051000 METAR LRTZ 051000Z 27012KT 9999 SKC 21/10 Q1011 BLU BLU=
201911051100 METAR LRTZ 051100Z 27012KT 9999 SKC 22/10 Q1010 BLU BLU=
201911051200 METAR LRTZ 051200Z 23012KT 9999 SKC 22/10 Q1010 BLU BLU=
201911051300 METAR LRTZ 051300Z 21012KT 9999 SKC 22/10 Q1010 BLU BLU=
201911051400 METAR LRTZ 051400Z 18012KT 9999 SKC 19/11 Q1010 BLU BLU=
201911051500 METAR LRTZ 051500Z 18008KT 9999 SKC 16/11 Q1010 BLU BLU=
201911051600 METAR LRTZ 051600Z 18008KT 9999 SKC 15/13 Q1010 BLU BLU=
201911051700 METAR LRTZ 051700Z 18008KT 9999 SKC 13/12 Q1011 BLU BLU=
201911051800 METAR LRTZ 051800Z 20008KT 9999 SKC 13/12 Q1010 BLU BLU=
201911051900 METAR LRTZ 051900Z 20008KT 9999 SKC 13/12 Q1010 BLU BLU=
201911052000 METAR LRTZ 052000Z 20006KT 9999 SKC 13/12 Q1010 BLU BLU=
201911052100 METAR LRTZ 052100Z 18006KT 9999 SKC 13/12 Q1010 BLU BLU=
201911052300 METAR LRTZ 052300Z 18006KT 9999 SKC 13/12 Q1010 BLU BLU=
201911060400 METAR LRTZ 060400Z 18008KT 9999 SKC 13/11 Q1008 BLU BLU=
201911060500 METAR LRTZ 060500Z 20008KT 9999 SCT200 12/10 Q1007 BLU BLU=
201911060600 METAR LRTZ 060600Z 20010KT 9999 BKN200 14/12 Q1007 BLU BLU=
201911060700 METAR LRTZ 060700Z 20010KT 9999 BKN200 16/13 Q1008 BLU BLU=
201911060800 METAR LRTZ 060800Z 20016KT 9999 SCT200 18/13 Q1007 BLU BLU=
201911060900 METAR LRTZ 060900Z 20016KT 9999 SCT200 20/13 Q1007 BLU BLU=
201911061000 METAR LRTZ 061000Z 20016KT 9999 SCT200 21/13 Q1007 BLU BLU=
201911061100 METAR LRTZ 061100Z 20014KT 9999 SCT200 23/14 Q1007 BLU BLU=
201911061200 METAR LRTZ 061200Z 22012KT 9999 SCT200 24/14 Q1006 BLU BLU=
201911061300 METAR LRTZ 061300Z 20010KT 9999 SCT200 22/14 Q1006 BLU BLU=
201911061500 METAR LRTZ 061500Z 20008KT 9999 SCT200 16/13 Q1007 BLU BLU=
201911061600 METAR LRTZ 061600Z 20006KT 9999 BKN200 16/13 Q1008 BLU BLU=
201911061700 METAR LRTZ 061700Z 20008KT 9999 BKN150 16/12 Q1009 BLU BLU=
201911061800 METAR LRTZ 061800Z 24006KT 9999 BKN150 15/12 Q1009 BLU BLU=
201911061900 METAR LRTZ 061900Z 24004KT 9999 BKN150 14/11 Q1009 BLU BLU=
201911062000 METAR LRTZ 062000Z 24004KT 9999 BKN150 13/11 Q1009 BLU BLU=
201911062100 METAR LRTZ 062100Z 24004KT 9999 BKN150 13/11 Q1009 BLU BLU=
201911062300 METAR LRTZ 062300Z 24004KT 9999 BKN150 14/11 Q1009 BLU BLU=
201911070400 METAR LRTZ 070400Z 21014KT 9999 BKN150 15/13 Q1009 BLU BLU=
201911070500 METAR LRTZ 070500Z 21012KT 9999 SCT150 15/13 Q1009 BLU BLU=
201911070600 METAR LRTZ 070600Z 21010KT 9999 BKN150 15/14 Q1009 BLU BLU=
201911070700 METAR LRTZ 070700Z 09010KT 9999 BKN150 17/15 Q1009 BLU BLU=
201911070800 METAR LRTZ 070800Z 19012KT 9999 BKN150 19/16 Q1009 BLU BLU=
201911070900 METAR LRTZ 070900Z 22018KT 9999 FEW020 BKN150 20/16 Q1009
                        BLU BLU=
201911071000 METAR LRTZ 071000Z 22014KT 9999 SCT200 22/16 Q1008 BLU BLU=
201911071100 METAR LRTZ 071100Z 22018KT 9999 SCT200 22/16 Q1008 BLU BLU=
201911071200 METAR LRTZ 071200Z 19010KT 9999 BKN200 21/16 Q1008 BLU BLU=
201911071300 METAR LRTZ 071300Z 18010KT 9999 BKN200 20/15 Q1009 BLU BLU=
201911071400 METAR LRTZ 071400Z 19010KT 9999 BKN200 19/15 Q1009 BLU BLU=
201911071500 METAR LRTZ 071500Z 19004KT 9999 BKN200 17/15 Q1009 BLU BLU=
201911071600 METAR LRTZ 071600Z 18004KT 9999 BKN200 16/15 Q1010 BLU BLU=
201911071700 METAR LRTZ 071700Z 18004KT 9999 BKN200 16/14 Q1010 BLU BLU=
201911071800 METAR LRTZ 071800Z 20006KT 9999 BKN200 15/14 Q1010 BLU BLU=
201911071900 METAR LRTZ 071900Z VRB03KT 9999 BKN200 14/13 Q1010 BLU BLU=
201911072000 METAR LRTZ 072000Z VRB03KT 9999 BKN200 14/13 Q1010 BLU BLU=
201911072100 METAR LRTZ 072100Z VRB03KT 9999 BKN200 15/13 Q1010 BLU BLU=
201911072200 METAR LRTZ 072200Z VRB03KT 9999 BKN200 14/13 Q1011 BLU BLU=
201911072300 METAR LRTZ 072300Z VRB03KT 9999 BKN200 14/13 Q1011 BLU BLU=
201911080400 METAR LRTZ 080400Z VRB03KT 7000 SCT200 12/11 Q1012 WHT WHT=
201911080500 METAR LRTZ 080500Z VRB03KT 8000 SCT200 13/12 Q1012 BLU BLU=
201911080600 METAR LRTZ 080600Z VRB03KT 8000 SCT200 13/12 Q1012 BLU BLU=
201911080700 METAR LRTZ 080700Z 08004KT 9999 BKN200 17/14 Q1013 BLU BLU=
201911080800 METAR LRTZ 080800Z 11004KT 9999 BKN200 18/15 Q1013 BLU BLU=
201911080900 METAR LRTZ 080900Z 18008KT 9999 SCT200 19/16 Q1013 BLU BLU=
201911081000 METAR LRTZ 081000Z 19010KT 9999 BKN200 20/16 Q1013 BLU BLU=
201911081100 METAR LRTZ 081100Z 18010KT 9999 SCT100 BKN200 19/16 Q1013
                        BLU BLU=
201911081200 METAR LRTZ 081200Z 18010KT 9999 BKN100 BKN200 18/16 Q1013
                        BLU BLU=
201911081300 METAR LRTZ 081300Z 18010KT 9999 SCT100 SCT200 18/16 Q1013
                        BLU BLU=
201911081400 METAR LRTZ 081400Z 19010KT 9999 SCT140 18/16 Q1013 BLU BLU=
201911081500 METAR LRTZ 081500Z 20008KT 8000 SCT100 16/15 Q1013 BLU WHT=
201911081600 METAR LRTZ 081600Z 18006KT 5000 BR FEW100 15/14 Q1013 WHT
                        WHT=
201911081700 METAR LRTZ 081700Z 18006KT 7000 FEW100 15/14 Q1014 WHT BLU=
201911081800 METAR LRTZ 081800Z 21006KT 8000 FEW100 15/14 Q1014 BLU BLU=
201911081900 METAR LRTZ 081900Z 18004KT 4000 BR FEW100 15/14 Q1014 GRN
                        YLO=
201911082000 METAR LRTZ 082000Z 21004KT 3000 BR BKN100 15/14 Q1014 YLO
                        YLO=
201911082100 METAR LRTZ 082100Z 20004KT 2000 BR SCT100 15/14 Q1014 YLO
                        YLO=
201911082300 METAR LRTZ 082300Z VRB03KT 1500 BR SKC 14/13 Q1015 AMB AMB=
201911090400 METAR LRTZ 090400Z 21003KT 2000 BR BKN100 14/13 Q1015 YLO
                        YLO=
201911090500 METAR LRTZ 090500Z 21003KT 1200 BR SCT100 14/13 Q1015 AMB
                        AMB=
201911090600 METAR LRTZ 090600Z 20004KT 1000 BR FEW100 14/13 Q1016 AMB
                        AMB=
201911090700 METAR LRTZ 090700Z 20006KT 8000 SKC 16/14 Q1016 BLU BLU=
201911090800 METAR LRTZ 090800Z 20010KT 9999 SKC 19/15 Q1016 BLU BLU=
201911090900 METAR LRTZ 090900Z 20010KT 9999 SKC 20/15 Q1016 BLU BLU=
201911091000 METAR LRTZ 091000Z 20010KT 9999 SCT200 20/15 Q1016 BLU BLU=
201911091100 METAR LRTZ 091100Z 20010KT 9999 SCT200 20/15 Q1015 BLU BLU=
201911091200 METAR LRTZ 091200Z 20010KT 9999 SCT200 20/15 Q1015 BLU BLU=
201911091300 METAR LRTZ 091300Z 15010KT 9999 BKN200 19/15 Q1015 BLU BLU=
201911091400 METAR LRTZ 091400Z 15010KT 9999 BKN200 18/15 Q1015 BLU BLU=
201911091500 METAR LRTZ 091500Z 15010KT 9999 BKN200 16/14 Q1015 BLU BLU=
201911091600 METAR LRTZ 091600Z 15006KT 9999 BKN200 15/14 Q1016 BLU BLU=
201911091700 METAR LRTZ 091700Z 15006KT 9999 BKN200 15/14 Q1016 BLU BLU=
201911091800 METAR LRTZ 091800Z 15006KT 9999 BKN200 15/14 Q1016 BLU BLU=
201911091900 METAR LRTZ 091900Z 15006KT 9999 BKN200 15/14 Q1016 BLU BLU=
201911092000 METAR LRTZ 092000Z 15006KT 9999 BKN200 15/14 Q1016 BLU BLU=
201911092100 METAR LRTZ 092100Z 15006KT 9999 BKN200 15/14 Q1016 BLU BLU=
201911092300 METAR LRTZ 092300Z 15006KT 9999 BKN200 15/14 Q1016 BLU WHT=
201911100200 METAR LRTZ 100200Z VRB03KT 5000 BR SCT010 BKN200 14/13 Q1015
                        WHT GRN=
201911100300 METAR LRTZ 100300Z VRB03KT 5000 BR BKN010 BKN200 14/13 Q1015
                        GRN GRN=
201911100400 METAR LRTZ 100400Z VRB03KT 4000 BR SCT010 BKN200 14/13 Q1014
                        GRN GRN=
201911100500 METAR LRTZ 100500Z 15006KT 4000 BR SCT010 BKN200 15/14 Q1014
                        GRN WHT=
201911100600 METAR LRTZ 100600Z 15010KT 7000 SCT010 BKN200 16/14 Q1014
                        WHT WHT=
201911100700 METAR LRTZ 100700Z 15014KT 2000 BR BKN005 BKN200 16/15 Q1014
                        YLO WHT=
201911100800 METAR LRTZ 100800Z 15014KT 2000 BR BKN002 BKN200 16/15 Q1014
                        AMB WHT=
201911100900 METAR LRTZ 100900Z 15014KT 9999 SCT004 BKN200 18/16 Q1014
                        BLU BLU=
201911101000 METAR LRTZ 101000Z 15014KT 9999 BKN200 19/16 Q1013 BLU BLU=
201911101100 METAR LRTZ 101100Z 20014KT 9999 SCT200 19/16 Q1013 BLU BLU=
201911101200 METAR LRTZ 101200Z 20014KT 9999 SCT200 18/16 Q1013 BLU BLU=
201911101300 METAR LRTZ 101300Z 20014KT 9999 SCT200 18/16 Q1012 BLU BLU=
201911101400 METAR LRTZ 101400Z 20014KT 9999 SCT200 18/14 Q1012 BLU BLU=
201911101500 METAR LRTZ 101500Z 18014KT 7000 FEW100 16/15 Q1013 WHT WHT=
201911101600 METAR LRTZ 101600Z 18008KT 5000 BR FEW100 16/15 Q1013 WHT
                        WHT=
201911101700 METAR LRTZ 101700Z 18008KT 4000 BR SKC 16/15 Q1013 GRN YLO=
201911101800 METAR LRTZ 101800Z 18008KT 2000 BR SKC 16/15 Q1013 YLO YLO=
201911101900 METAR LRTZ 101900Z 18008KT 2000 BR SCT100 16/15 Q1014 YLO
                        YLO=
201911102000 METAR LRTZ 102000Z 18008KT 3000 BR SCT100 15/14 Q1014 YLO
                        YLO=
201911102100 METAR LRTZ 102100Z 18008KT 3000 BR SCT100 15/14 Q1014 YLO
                        YLO=
201911102300 METAR LRTZ 102300Z 18008KT 3000 BR SCT100 15/14 Q1014 YLO
                        YLO=
201911110400 METAR LRTZ 110400Z 33004KT 5000 BR SCT100 11/09 Q1017 WHT
                        BLU=
201911110500 METAR LRTZ 110500Z 33004KT 8000 SKC 11/09 Q1017 BLU BLU=
201911110600 METAR LRTZ 110600Z 33008KT 9999 SKC 11/08 Q1018 BLU BLU=
201911110700 METAR LRTZ 110700Z 30010KT 9999 SKC 13/09 Q1018 BLU BLU=
201911110800 METAR LRTZ 110800Z 30012KT 9999 SKC 15/10 Q1019 BLU BLU=
201911110900 METAR LRTZ 110900Z 30012KT 9999 SKC 18/11 Q1019 BLU BLU=
201911111000 METAR LRTZ 111000Z 30008KT 9999 SKC 19/10 Q1019 BLU BLU=
201911111100 METAR LRTZ 111100Z 30010KT 9999 SKC 20/10 Q1018 BLU BLU=
201911111200 METAR LRTZ 111200Z 30010KT 9999 FEW200 20/09 Q1018 BLU BLU=
201911111300 METAR LRTZ 111300Z VRB03KT 9999 FEW200 20/08 Q1018 BLU BLU=
201911111400 METAR LRTZ 111400Z 18006KT 9999 SCT200 17/11 Q1018 BLU BLU=
201911111500 METAR LRTZ 111500Z 18006KT 9999 SCT200 15/12 Q1019 BLU BLU=
201911111600 METAR LRTZ 111600Z VRB02KT 9999 SCT200 13/12 Q1019 BLU BLU=
201911111700 METAR LRTZ 111700Z VRB02KT 9999 SCT200 12/11 Q1019 BLU BLU=
201911111900 METAR LRTZ 111900Z VRB02KT 9999 SCT200 11/09 Q1020 BLU BLU=
201911112000 METAR LRTZ 112000Z VRB02KT 9999 SKC 11/09 Q1019 BLU BLU=
201911112100 METAR LRTZ 112100Z VRB02KT 9999 SKC 12/10 Q1019 BLU BLU=
201911112300 METAR LRTZ 112300Z VRB02KT 9999 SKC 12/10 Q1019 BLU BLU=
201911120300 METAR LRTZ 120300Z VRB03KT 5000 BR BKN005 12/10 Q1019 YLO
                        YLO=
201911120400 METAR LRTZ 120400Z VRB02KT 0800 FG BKN005 12/11Q101012 AMB
                        AMB=
201911120500 METAR LRTZ 120500Z VRB02KT 1000 MIFG SCT200 13/13 Q1020 AMB
                        YLO=
201911120600 METAR LRTZ 120600Z 10004KT 5000 BR SCT200 15/14 Q1020 WHT
                        WHT=
201911120700 METAR LRTZ 120700Z 13006KT 9999 BKN200 16/15 Q1020 BLU BLU=
201911120800 METAR LRTZ 120800Z 13010KT 9999 BKN200 17/15 Q1020 BLU BLU=
201911120900 METAR LRTZ 120900Z 14012KT 9999 BKN200 18/15 Q1020 BLU BLU=
201911121000 METAR LRTZ 121000Z 13012KT 9999 SCT200 18/14 Q1020 BLU BLU=
201911121100 METAR LRTZ 121100Z 13014KT 9999 SCT200 18/15 Q1019 BLU BLU=
201911121200 METAR LRTZ 121200Z 13014KT 9999 FEW005 17/15 Q1019 BLU BLU=
201911121300 METAR LRTZ 121300Z 13014KT 9999 SCT200 17/15 Q1019 BLU BLU=
201911121400 METAR LRTZ 121400Z 12010KT 8000 SCT003 SCT200 17/15 Q1019
                        BLU WHT=
201911121500 METAR LRTZ 121500Z 12008KT 5000 BR FEW003 SCT200 15/14 Q1018
                        WHT WHT=
201911121700 METAR LRTZ 121700Z 12006KT 6000 SCT010 BKN015 15/14 Q1018
                        WHT WHT=
201911121800 METAR LRTZ 121800Z 15010KT 8000 SCT010 BKN017 16/14 Q1018
                        WHT WHT=
201911121900 METAR LRTZ 121900Z 15008KT 8000 BKN014 16/14 Q1018 GRN GRN=
201911122000 METAR LRTZ 122000Z 15008KT 9999 BKN015 16/13 Q1018 WHT WHT=
201911122100 METAR LRTZ 122100Z 15010KT 9999 BKN015 16/13 Q1018 WHT WHT=
201911122300 METAR LRTZ 122300Z 15012KT 9999 BKN013 16/13 Q1018 GRN GRN=
201911130400 METAR LRTZ 130400Z 14006KT 8000 SCT009 BKN012 16/14 Q1015
                        GRN GRN=
201911130500 METAR LRTZ 130500Z 15012KT 9999 BKN010 OVC015 16/14 Q1015
                        GRN GRN=
201911130600 METAR LRTZ 130600Z 15012KT 9999 BKN010 OVC015 16/14 Q1015
                        GRN GRN=
201911130700 METAR LRTZ 130700Z 15012KT 9999 OVC010 16/14 Q1015 GRN GRN=
201911130800 METAR LRTZ 130800Z 15012KT 9999 OVC010 16/14 Q1015 GRN GRN=
201911130900 METAR LRTZ 130900Z 15012KT 9999 OVC010 17/15 Q1015 GRN GRN=
201911131000 METAR LRTZ 131000Z 15012KT 9999 OVC010 17/15 Q1015 GRN GRN=
201911131100 METAR LRTZ 131100Z 15012KT 9999 OVC010 17/15 Q1015 GRN GRN=
201911131200 METAR LRTZ 131200Z 15012KT 9999 BKN010 OVC100 17/15 Q1014
                        GRN GRN=
201911131300 METAR LRTZ 131300Z 15012KT 9999 BKN010 OVC100 17/15 Q1014
                        GRN GRN=
201911131400 METAR LRTZ 131400Z 15012KT 9999 BKN010 OVC100 17/15 Q1014
                        GRN GRN=
201911131500 METAR LRTZ 131500Z 15012KT 5000 BR BKN010 OVC100 16/15 Q1014
                        GRN GRN=
201911131600 METAR LRTZ 131600Z 15012KT 5000 BR BKN010 OVC100 16/15 Q1014
                        GRN GRN=
201911131700 METAR LRTZ 131700Z 15012KT 5000 BR BKN010 OVC100 16/15 Q1014
                        GRN GRN=
201911131800 METAR LRTZ 131800Z 15012KT 5000 BR BKN010 OVC100 16/15 Q1014
                        GRN GRN=
201911131900 METAR LRTZ 131900Z 15012KT 5000 BR BKN010 OVC100 16/15 Q1014
                        GRN GRN=
201911132000 METAR LRTZ 132000Z 15012KT 5000 BR BKN010 OVC100 16/15 Q1014
                        GRN GRN=
201911132100 METAR LRTZ 132100Z 15012KT 5000 BR BKN010 OVC100 16/15 Q1014
                        GRN GRN=
201911132300 METAR LRTZ 132300Z 15012KT 5000 BR BKN010 OVC100 15/14 Q1014
                        GRN GRN=
201911140200 METAR LRTZ 140200Z 15012KT 5000 BR BKN010 OVC100 14/13 Q1013
                        GRN GRN=
201911140300 METAR LRTZ 140300Z 15012KT 5000 BR BKN010 OVC100 14/13 Q1013
                        GRN GRN=
201911140400 METAR LRTZ 140400Z 15010KT 5000 BR BKN010 OVC100 15/12 Q1012
                        GRN GRN=
201911140500 METAR LRTZ 140500Z 09010KT 7000 BKN010 OVC100 15/12 Q1012
                        GRN GRN=
201911140600 METAR LRTZ 140600Z 09010KT 9999 BKN010 OVC100 15/12 Q1012
                        GRN GRN=
201911140700 METAR LRTZ 140700Z 09010KT 9999 OVC015 16/13 Q1012 WHT WHT=
201911140800 METAR LRTZ 140800Z 09010KT 9999 OVC015 16/13 Q1012 WHT WHT=
201911140900 METAR LRTZ 140900Z 09012KT 9999 OVC020 16/13 Q1012 WHT WHT=
201911141000 METAR LRTZ 141000Z 09012KT 9999 OVC020 16/13 Q1012 WHT WHT=
201911141100 METAR LRTZ 141100Z 11012KT 9999 BKN020 OVC040 17/13 Q1012
                        WHT BLU=
201911141200 METAR LRTZ 141200Z 11012KT 9999 BKN020 OVC040 16/14 Q1012
                        WHT BLU=
201911141300 METAR LRTZ 141300Z 11012KT 9999 BKN025 OVC070 16/14 Q1011
                        BLU BLU=
201911141400 METAR LRTZ 141400Z 11012KT 9999 BKN015 OVC070 16/14 Q1011
                        WHT WHT=
201911141500 METAR LRTZ 141500Z 11010KT 9999 BKN015 OVC070 16/14 Q1012
                        WHT WHT=
201911141600 METAR LRTZ 141600Z 11010KT 9999 BKN015 OVC040 16/14 Q1012
                        WHT WHT=
201911141700 METAR LRTZ 141700Z 11010KT 9999 BKN020 OVC035 16/14 Q1012
                        WHT WHT=
201911141800 METAR LRTZ 141800Z 11010KT 9999 BKN015 OVC035 16/14 Q1012
                        WHT WHT=
201911141900 METAR LRTZ 141900Z 12008KT 9999 BKN015 OVC035 16/14 Q1012
                        WHT WHT=
201911142000 METAR LRTZ 142000Z 12008KT 9999 BKN015 OVC100 15/14 Q1012
                        WHT WHT=
201911142100 METAR LRTZ 142100Z 12006KT 9999 BKN015 OVC100 15/14 Q1012
                        WHT WHT=
201911142300 METAR LRTZ 142300Z 12006KT 8000 BKN015 OVC030 15/14 Q1012
                        WHT WHT=
201911150400 METAR LRTZ 150400Z 16008KT 8000 BKN020 OVC070 15/14 Q1014
                        WHT BLU=
201911150500 METAR LRTZ 150500Z VRB03KT 5000 BR FEW005 SCT020 15/14 Q1014
                        WHT WHT=
201911150600 METAR LRTZ 150600Z VRB03KT 3000 BR FEW010 15/14 Q1015 YLO
                        WHT=
201911150700 METAR LRTZ 150700Z VRB03KT 5000 BR FEW010 BKN020 16/15 Q1016
                        WHT WHT=
201911150900 METAR LRTZ 150900Z 24006KT 9999 FEW020 BKN040 17/15 Q1016
                        BLU BLU=
201911151000 METAR LRTZ 151000Z 21008KT 9999 SCT040 18/14 Q1017 BLU BLU=
201911151200 METAR LRTZ 151200Z 21006KT 9999 SCT020 BKN30 19/14 Q1017
                        BLU BLU=
201911151300 METAR LRTZ 151300Z 27010KT 9999 SCT020 BKN050 19/14 Q1018
                        BLU BLU=
201911151400 METAR LRTZ 151400Z 33010KT 9999 FEW050 17/14 Q1018 BLU BLU=
201911151500 METAR LRTZ 151500Z 33006KT 9999 FEW100 15/13 Q1019 BLU BLU=
201911151600 METAR LRTZ 151600Z 33004KT 9999 SKC 13/11 Q1020 BLU BLU=
201911151700 METAR LRTZ 151700Z VRB03KT 9999 SKC 13/11 Q1020 BLU BLU=
201911151800 METAR LRTZ 151800Z VRB03KT 9999 SKC 11/10 Q1020 BLU BLU=
201911151900 METAR LRTZ 151900Z VRB03KT 9999 SKC 11/10 Q1021 BLU BLU=
201911152000 METAR LRTZ 152000Z VRB03KT 9999 SKC 11/10 Q1021 BLU BLU=
201911152100 METAR LRTZ 152100Z VRB03KT 9999 SKC 11/10 Q1021 BLU BLU=
201911152300 METAR LRTZ 152300Z VRB03KT 9999 SKC 11/10 Q1022 BLU WHT=
201911160400 METAR LRTZ 160400Z VRB03KT 5000 BR BKN010 13/13 Q1022 GRN
                        GRN=
201911160500 METAR LRTZ 160500Z VRB03KT 0300 FG SCT200 12/12 Q1022 RED
                        RED=
201911160600 METAR LRTZ 160600Z 14004KT 0800 FG SCT200 14/14 Q1023 AMB
                        AMB=
201911160700 METAR LRTZ 160700Z 18006KT 3000 BR SCT006 BKN160 16/15 Q1023
                        YLO YLO=
201911160800 METAR LRTZ 160800Z 19008KT 5000 BR BKN004 BKN160 17/15 Q1024
                        YLO YLO=
201911160900 METAR LRTZ 160900Z 18010KT 6000 BKN005 BKN160 17/15 Q1024
                        YLO YLO=
201911161000 METAR LRTZ 161000Z 20008KT 7000 BKN007 BKN160 17/15 Q1023
                        GRN WHT=
201911161100 METAR LRTZ 161100Z 16008KT 8000 FEW005 BKN160 17/15 Q1023
                        BLU WHT=
201911161200 METAR LRTZ 161200Z 18010KT 7000 BKN005 BKN160 17/15 Q1023
                        YLO YLO=
201911161300 METAR LRTZ 161300Z 17010KT 8000 SCT005 BKN160 17/15 Q1023
                        BLU YLO=
201911161400 METAR LRTZ 161400Z 16008KT 8000 FEW005 BKN180 16/15 Q1023
                        BLU BLU=
201911161500 METAR LRTZ 161500Z 17006KT 7000 FEW005 BKN180 15/14 Q1023
                        WHT WHT=
201911161600 METAR LRTZ 161600Z 16008KT 4000 BR BKN005 15/14 Q1023 YLO
                        YLO=
201911161700 METAR LRTZ 161700Z 176008KT 5000 BR OVC005 14/13 Q1024 YLO
                        YLO=
201911161800 METAR LRTZ 161800Z 18008KT 5000 BR BKN004 14/13 Q1024 YLO
                        YLO=
201911161900 METAR LRTZ 161900Z 18006KT 7000 BKN005 14/13 Q1024 YLO YLO=
201911162000 METAR LRTZ 162000Z 16006KT 8000 BKN005 14/13 Q1024 YLO GRN=
201911162100 METAR LRTZ 162100Z 15006KT 7000 BKN007 14/13 Q1024 GRN GRN=
201911162300 METAR LRTZ 162300Z 12008KT 5000 BR BKN007 13/12 Q1023 GRN
                        GRN=
201911170500 METAR LRTZ 170500Z 09010KT 9999 BKN017 15/12 Q1023 WHT WHT=
201911170600 METAR LRTZ 170600Z 10010KT 9999 BKN015 15/12 Q1024 WHT WHT=
201911170700 METAR LRTZ 170700Z 10012KT 9999 BKN017 15/12 Q1024 WHT WHT=
201911170800 METAR LRTZ 170800Z 10012KT 9999 BKN017 15/12 Q1024 WHT WHT=
201911170900 METAR LRTZ 170900Z 10012KT 9999 BKN017 15/12 Q1024 WHT WHT=
201911171000 METAR LRTZ 171000Z 10012KT 9999 BKN017 15/12 Q1024 WHT WHT=
201911171100 METAR LRTZ 171100Z 10010KT 9999 OVC015 15/12 Q1023 WHT WHT=
201911171200 METAR LRTZ 171200Z 10010KT 9999 BKN010 OVC020 15/12 Q1023
                        GRN GRN=
201911171300 METAR LRTZ 171300Z 10010KT 9999 BKN010 OVC020 15/12 Q1022
                        GRN GRN=
201911171400 METAR LRTZ 171400Z 12010KT 9999 BKN010 OVC020 14/11 Q1022
                        GRN GRN=
201911171500 METAR LRTZ 171500Z 12010KT 9999 BKN010 OVC020 14/11 Q1022
                        GRN GRN=
201911171600 METAR LRTZ 171600Z 12010KT 9999 BKN010 OVC020 14/11 Q1022
                        GRN GRN=
201911171700 METAR LRTZ 171700Z 16010KT 9999 BKN008 OVC015 14/11 Q1022
                        GRN GRN=
201911171800 METAR LRTZ 171800Z 16010KT 9999 BKN008 OVC015 14/11 Q1022
                        GRN GRN=
201911171900 METAR LRTZ 171900Z 16010KT 9999 BKN008 OVC015 14/10 Q1022
                        GRN GRN=
201911172000 METAR LRTZ 172000Z 16010KT 9999 BKN008 OVC015 14/10 Q1022
                        GRN GRN=
201911172100 METAR LRTZ 172100Z 16010KT 9999 BKN008 OVC015 14/10 Q1022
                        GRN GRN=
201911172300 METAR LRTZ 172300Z 16010KT 9999 BKN008 OVC015 14/10 Q1022
                        GRN GRN=
201911180200 METAR LRTZ 180200Z 16010KT 9999 BKN008 OVC015 12/10 Q1022
                        GRN GRN=
201911180300 METAR LRTZ 180300Z 16010KT 9999 BKN008 OVC015 12/10 Q1022
                        GRN GRN=
201911180400 METAR LRTZ 180400Z 16008KT 9999 BKN010 OVC020 13/11 Q1021
                        GRN GRN=
201911180500 METAR LRTZ 180500Z 16008KT 9999 BKN010 OVC030 14/11 Q1021
                        GRN WHT=
201911180600 METAR LRTZ 180600Z 16008KT 9999 BKN015 OVC030 15/11 Q1021
                        WHT WHT=
201911180700 METAR LRTZ 180700Z 16008KT 9999 BKN025 15/11 Q1021 BLU BLU=
201911180800 METAR LRTZ 180800Z 16008KT 9999 BKN025 16/11 Q1021 BLU BLU=
201911180900 METAR LRTZ 180900Z 16008KT 9999 BKN025 16/11 Q1021 BLU BLU=
201911181000 METAR LRTZ 181000Z 16008KT 9999 BKN025 16/11 Q1021 BLU BLU=
201911181100 METAR LRTZ 181100Z 16008KT 9999 BKN025 16/12 Q1021 BLU BLU=
201911181200 METAR LRTZ 181200Z 16008KT 9999 BKN025 16/12 Q1021 BLU BLU=
201911181300 METAR LRTZ 181300Z 16008KT 9999 BKN025 16/13 Q1021 BLU BLU=
201911181400 METAR LRTZ 181400Z 16008KT 9999 BKN020 16/13 Q1021 WHT WHT=
201911181500 METAR LRTZ 181500Z 16008KT 9999 BKN020 16/13 Q1021 WHT WHT=
201911181600 METAR LRTZ 181600Z 16008KT 9999 BKN015 16/13 Q1022 WHT WHT=
201911181700 METAR LRTZ 181700Z 16008KT 9999 BKN015 16/12 Q1022 WHT WHT=
201911181800 METAR LRTZ 181800Z 16010KT 9999 BKN015 15/13 Q1022 WHT WHT=
201911181900 METAR LRTZ 181900Z 16010KT 9999 BKN015 15/13 Q1022 WHT WHT=
201911182000 METAR LRTZ 182000Z 16010KT 8000 BKN015 15/13 Q1023 WHT WHT=
201911182100 METAR LRTZ 182100Z 18008KT 8000 BKN015 15/13 Q1023 WHT WHT=
201911182300 METAR LRTZ 182300Z 18008KT 6000 BKN015 15/13 Q1023 WHT WHT=
201911190300 METAR LRTZ 190300Z 18008KT 5000 BKN015 14/13 Q1023 WHT WHT=
201911190400 METAR LRTZ 190400Z 18008KT 5000 BKN015 15/14 Q1023 WHT WHT=
201911190500 METAR LRTZ 190500Z 16008KT 6000 BKN020 16/14 Q1024 WHT WHT=
201911190600 METAR LRTZ 190600Z 16008KT 6000 BKN020 16/14 Q1024 WHT WHT=
201911190700 METAR LRTZ 190700Z 16008KT 8000 BKN015 OVC020 16/14 Q1025
                        WHT WHT=
201911190800 METAR LRTZ 190800Z 15008KT 8000 BKN015 OVC020 16/14 Q1025
                        WHT WHT=
201911190900 METAR LRTZ 190900Z 15008KT 8000 OVC017 16/14 Q1025 WHT WHT=
201911191000 METAR LRTZ 191000Z 15010KT 9999 BKN015 BKN030 16/14 Q1025
                        WHT WHT=
201911191100 METAR LRTZ 191100Z 15010KT 9999 BKN015 OVC030 16/14 Q1025
                        WHT WHT=
201911191200 METAR LRTZ 191200Z 15010KT 9999 BKN015 OVC030 16/14 Q1025
                        WHT WHT=
201911191300 METAR LRTZ 191300Z 15010KT 9999 SCT010 OVC030 16/14 Q1025
                        BLU BLU=
201911191400 METAR LRTZ 191400Z 15010KT 9999 SCT010 OVC030 16/13 Q1025
                        BLU BLU=
201911191500 METAR LRTZ 191500Z 15010KT 9999 BKN015 OVC030 16/13 Q1025
                        WHT WHT=
201911191600 METAR LRTZ 191600Z 15010KT 9999 BKN015 BKN030 15/13 Q1025
                        WHT WHT=
201911191700 METAR LRTZ 191700Z 15012KT 9999 BKN015 BKN020 15/13 Q1025
                        WHT GRN=
201911191800 METAR LRTZ 191800Z 15012KT 9999 BKN015 BKN020 15/13 Q1025
                        WHT WHT=
201911191900 METAR LRTZ 191900Z 15012KT 9999 BKN015 OVC020 15/13 Q1025
                        WHT WHT=
201911192000 METAR LRTZ 192000Z 15012KT 9999 OVC020 14/12 Q1025 WHT WHT=
201911192100 METAR LRTZ 192100Z 15010KT 9999 OVC020 14/12 Q1025 WHT GRN=
201911192200 METAR LRTZ 192200Z 15012KT 8000 BKN010 OVC020 14/12 Q1025
                        GRN GRN=
201911192300 METAR LRTZ 192300Z 15012KT 8000 BKN010 OVC020 14/12 Q1025
                        GRN GRN=
201911200400 METAR LRTZ 200400Z 15010KT 9999 OVC015 13/11 Q1025 WHT WHT=
201911200500 METAR LRTZ 200500Z 12010KT 9999 OVC015 13/11 Q1025 WHT WHT=
201911200600 METAR LRTZ 200600Z 12010KT 9999 OVC015 13/11 Q1024 WHT WHT=
201911200700 METAR LRTZ 200700Z 11012KT 9999 OVC015 13/10 Q1024 WHT WHT=
201911200800 METAR LRTZ 200800Z 11012KT 9999 OVC015 13/10 Q1024 WHT WHT=
201911200900 METAR LRTZ 200900Z 12010KT 9999 OVC015 13/10 Q1024 WHT WHT=
201911201200 METAR LRTZ 201200Z 12010KT 9999 SCT013 BKN020 14/10 Q1023
                        WHT WHT=
201911201300 METAR LRTZ 201300Z 12008KT 9999 SCT015 BKN020 14/10 Q1023
                        WHT WHT=
201911201400 METAR LRTZ 201400Z 12008KT 9999 SCT018 BKN022 14/10 Q1023
                        WHT WHT=
201911201500 METAR LRTZ 201500Z 13008KT 9999 SCT020 BKN025 14/10 Q1022
                        BLU BLU=
201911201600 METAR LRTZ 201600Z 12012KT 9999 SCT017 BKN024 14/10 Q1022
                        WHT WHT=
201911201700 METAR LRTZ 201700Z 11010KT 9999 SCT017 OVC024 14/10 Q1022
                        WHT WHT=
201911201800 METAR LRTZ 201800Z 12012KT 9999 SCT014 BKN020 OVC026 14/10
                        Q1022 WHT WHT=
201911201900 METAR LRTZ 201900Z 12014KT 9999 OVC028 14/10 Q1022 BLU BLU=
201911202000 METAR LRTZ 202000Z 13014KT 9999 SCT017 OVC027 14/10 Q1022
                        BLU BLU=
201911202100 METAR LRTZ 202100Z 13014KT 9999 SCT017 OVC027 14/10 Q1022
                        BLU BLU=
201911202300 METAR LRTZ 202300Z 13015KT 9999 SCT015 OVC028 14/10 Q1022
                        BLU BLU=
201911210400 METAR LRTZ 210400Z 10018KT 9999 BKN015 OVC020 13/10 Q1021
                        WHT GRN=
201911210500 METAR LRTZ 210500Z 10018KT 9999 BKN013 OVC018 13/10 Q1021
                        GRN GRN=
201911210600 METAR LRTZ 210600Z 10016KT 9999 BKN012 OVC016 13/10 Q1022
                        GRN GRN=
201911210700 METAR LRTZ 210700Z 10016KT 7000 -RA BKN012 OVC020 13/10 Q1022
                        GRN GRN=
201911210800 METAR LRTZ 210800Z 11016KT 8000 -RA SCT010 BKN020 OVC030
                        14/11 Q1022 WHT WHT=
201911210900 METAR LRTZ 210900Z 11016KT 8000 SCT010 BKN020 OVC030 14/11
                        Q1022 WHT WHT=
201911211000 METAR LRTZ 211000Z 12016KT 9999 BKN020 OVC035 14/10 Q1022
                        WHT WHT=
201911211100 METAR LRTZ 211100Z 10016KT 9999 BKN020 OVC035 14/10 Q1021
                        WHT WHT=
201911211200 METAR LRTZ 211200Z 10016KT 9999 BKN015 OVC035 13/10 Q1021
                        WHT WHT=
201911211300 METAR LRTZ 211300Z 08020KT 6000 -RA BKN015 OVC035 13/10 Q1021
                        WHT WHT=
201911211400 METAR LRTZ 211400Z 07020KT 6000 -RA BKN015 OVC035 13/10 Q1021
                        WHT WHT=
201911211500 METAR LRTZ 211500Z 07020KT 6000 -RA BKN015 OVC035 13/10 Q1021
                        WHT WHT=
201911211600 METAR LRTZ 211600Z 07024KT 6000 -RA BKN010 OVC025 12/10 Q1022
                        GRN GRN=
201911211700 METAR LRTZ 211700Z 06016G26KT 5000 -RA BR BKN010 OVC025 11/09
                        Q1022 GRN GRN=
201911211800 METAR LRTZ 211800Z 06016G26KT 5000 -RA BR BKN010 OVC025 11/09
                        Q1022 GRN GRN=
201911211900 METAR LRTZ 211900Z 06014G28KT 5000 -RA BR BKN010 OVC025 10/09
                        Q1023 GRN GRN=
201911212000 METAR LRTZ 212000Z 13008KT 6000 -DZ SCT005 OVC015 01/00 Q1030
                        WHT GRN=
201911212100 METAR LRTZ 212100Z 06014G28KT 5000 -RA BR BKN010 OVC025 10/09
                        Q1023 GRN GRN=
201911212200 METAR LRTZ 212200Z 06014G28KT 5000 -RA BR BKN010 OVC025 10/09
                        Q1023 GRN GRN=
201911212300 METAR LRTZ 212300Z 06014G28KT 5000 -RA BR BKN010 OVC025 10/09
                        Q1023 GRN GRN=
201911220500 METAR LRTZ 220500Z 06014G28KT 9999 BKN010 OVC025 09/05 Q1023
                        GRN GRN=
201911220600 METAR LRTZ 220600Z 06014G24KT 9999 BKN010 OVC025 09/05 Q1023
                        GRN GRN=
201911220700 METAR LRTZ 220700Z 09012G22KT 9999 BKN010 OVC025 08/04 Q1024
                        GRN GRN=
201911220800 METAR LRTZ 220800Z 09010G20KT 9999 BKN010 OVC025 08/03 Q1024
                        GRN GRN=
201911220900 METAR LRTZ 220900Z 09014G24KT 9999 BKN010 OVC025 08/03 Q1024
                        GRN GRN=
201911221000 METAR LRTZ 221000Z 09014KT 9999 BKN015 OVC025 08/04 Q1024
                        WHT WHT=
201911221100 METAR LRTZ 221100Z 03016KT 7000 SCT005 OVC025 05/04 Q1024
                        WHT WHT=
201911221200 METAR LRTZ 221200Z 01016KT 7000 SCT004 OVC020 03/02 Q1024
                        WHT GRN=
201911221300 METAR LRTZ 221300Z 01018KT 5000 BR BKN004 OVC020 03/02 Q1023
                        YLO GRN=
201911221400 METAR LRTZ 221400Z 01018KT 5000 BR BKN003 OVC020 03/02 Q1023
                        YLO YLO=
201911221500 METAR LRTZ 221500Z 01018KT 5000 BR BKN003 OVC020 03/02 Q1024
                        YLO YLO=
201911221600 METAR LRTZ 221600Z 01018KT 5000 BR BKN003 OVC020 03/02 Q1024
                        YLO YLO=
201911221700 METAR LRTZ 221700Z 01016KT 5000 BR BKN003 OVC020 02/01 Q1024
                        YLO YLO=
201911221800 METAR LRTZ 221800Z 010118KT 5000 BR BKN003 OVC020 02/01 Q1024
                        YLO YLO=
201911221900 METAR LRTZ 221900Z 01018KT 5000 BR BKN003 OVC020 01/00 Q1024
                        YLO YLO=
201911222000 METAR LRTZ 222000Z 36018KT 4000 BR OVC003 02/01 Q1025 YLO
                        YLO=
201911222100 METAR LRTZ 222100Z 36016KT 4000 BR OVC003 02/01 Q1025 YLO
                        YLO=
201911222200 METAR LRTZ 222200Z 36016KT 4000 BR OVC003 02/01 Q1025 YLO
                        YLO=
201911222300 METAR LRTZ 222300Z 01016KT 4000 BR OVC003 02/01 Q1024 YLO
                        YLO=
201911230500 METAR LRTZ 230500Z 03012KT 5000 BR OVC002 05/05 Q1024 AMB
                        YLO=
201911230600 METAR LRTZ 230600Z 03012KT 5000 -DZ BR OVC002 05/04 Q1024
                        AMB AMB=
201911230800 METAR LRTZ 230800Z 03012KT 5000 -RA BR OVC001 05/04 Q1024
                        RED AMB=
201911230900 METAR LRTZ 230900Z 01012KT 4000 -RA BR BKN001 OVC003 05/04
                        Q1024 RED AMB=
201911231000 METAR LRTZ 231000Z 01012KT 5000 OVC002 06/05 Q1023 AMB AMB=
201911231100 METAR LRTZ 231100Z 01012KT 4000 -DZ BR OVC002 07/06 Q1023
                        AMB AMB=
201911231200 METAR LRTZ 231200Z 01012KT 3000 -DZ BR OVC002 08/07 Q1022
                        AMB AMB=
201911231300 METAR LRTZ 231300Z 01012KT 1000 -RA BR BKN001 OVC003 08/08
                        Q1022 RED RED=
201911231400 METAR LRTZ 231400Z 07012KT 6000 SCT004 BKN010 OVC015 09/08
                        Q1022 GRN GRN=
201911231500 METAR LRTZ 231500Z 07010KT 8000 BKN015 OVC025 10/08 Q1022
                        WHT WHT=
201911231600 METAR LRTZ 231600Z 07010KT 9999 BKN015 OVC020 10/07 Q1022
                        WHT WHT=
201911231700 METAR LRTZ 231700Z 07008KT 9999 SCT015 OVC020 10/07 Q1023
                        WHT WHT=
201911231800 METAR LRTZ 231800Z 07008KT 9999 BKN015 OVC020 10/08 Q1023
                        WHT WHT=
201911231900 METAR LRTZ 231900Z 07012KT 9999 BKN015 OVC020 10/07 Q1023
                        WHT WHT=
201911232000 METAR LRTZ 232000Z 07012KT 9999 OVC015 10/07 Q1023 WHT WHT=
201911232100 METAR LRTZ 232100Z 07012KT 9999 OVC015 10/07 Q1023 WHT WHT=
201911232300 METAR LRTZ 232300Z 07012KT 9999 OVC015 09/07 Q1023 WHT WHT=
201911240200 METAR LRTZ 240200Z 06012KT 9999 OVC015 08/06 Q1023 WHT WHT=
201911240300 METAR LRTZ 240300Z 06012KT 9999 OVC015 08/06 Q1023 WHT WHT=
201911240400 METAR LRTZ 240400Z 07010KT 9999 OVC015 09/06 Q1022 WHT WHT=
201911240500 METAR LRTZ 240500Z 07010KT 9999 OVC015 09/06 Q1022 WHT WHT=
201911240600 METAR LRTZ 240600Z 07010KT 9999 BKN020 OVC025 10/06 Q1022
                        WHT BLU=
201911240700 METAR LRTZ 240700Z 09010KT 9999 BKN023 OVC027 10/07 Q1023
                        WHT WHT=
201911240800 METAR LRTZ 240800Z 10012KT 9999 BKN020 11/07 Q1023 WHT WHT=
201911240900 METAR LRTZ 240900Z 09010KT 9999 BKN020 11/07 Q1023 WHT WHT=
201911241000 METAR LRTZ 241000Z 10010KT 9999 BKN020 11/07 Q1022 WHT WHT=
201911241100 METAR LRTZ 241100Z 10012KT 9999 BKN020 11/07 Q1022 WHT WHT=
201911241200 METAR LRTZ 241200Z 09012KT 9999 SCT016 BKN020 11/07 Q1022
                        WHT WHT=
201911241300 METAR LRTZ 241300Z 10012KT 9999 SCT016 BKN020 11/07 Q1021
                        WHT WHT=
201911241400 METAR LRTZ 241400Z 09012KT 9999 BKN019 BKN030 10/07 Q1021
                        WHT WHT=
201911241500 METAR LRTZ 241500Z 09010KT 9999 BKN019 OVC025 10/08 Q1021
                        WHT WHT=
201911241600 METAR LRTZ 241600Z 09010KT 9999 BKN015 OVC023 11/08 Q1021
                        WHT WHT=
201911241700 METAR LRTZ 241700Z 07012KT 9999 BKN015 OVC023 11/08 Q1021
                        WHT WHT=
201911241800 METAR LRTZ 241800Z 09012KT 9999 BKN016 OVC028 11/08 Q1021
                        WHT WHT=
201911241900 METAR LRTZ 241900Z 09012KT 9999 BKN020 OVC080 11/08 Q1021
                        WHT WHT=
201911242000 METAR LRTZ 242000Z 12014KT 9999 SCT020 BKN060 11/08 Q1020
                        BLU WHT=
201911242100 METAR LRTZ 242100Z 12012KT 9999 BKN022 11/08 Q1020 WHT WHT=
201911242200 METAR LRTZ 242200Z 11012KT 9999 BKN020 11/08 Q1020 WHT WHT=
201911242300 METAR LRTZ 242300Z 12010KT 9999 BKN020 11/08 Q1020 WHT WHT=
201911250300 METAR LRTZ 250300Z 10010KT 9999 SCT010 BKN020 10/07 Q1019
                        WHT WHT=
201911250400 METAR LRTZ 250400Z 10012KT 9999 SCT013 BKN020 12/10 Q1017
                        WHT WHT=
201911250500 METAR LRTZ 250500Z 12014KT 9999 SCT013 BKN022 BKN40 13/10
                        Q1017 WHT WHT=
201911250600 METAR LRTZ 250600Z 12014KT 9999 SCT013 BKN022 BKN35 13/10
                        Q1018 WHT WHT=
201911250700 METAR LRTZ 250700Z 10016KT 9999 BKN015 OVC030 13/10 Q1017
                        WHT WHT=
201911250800 METAR LRTZ 250800Z 10014KT 9999 BKN015 OVC030 13/10 Q1017
                        WHT WHT=
201911250900 METAR LRTZ 250900Z 10014KT 9999 SCT015 OVC030 13/10 Q1017
                        BLU BLU=
201911251000 METAR LRTZ 251000Z 10012KT 9999 SCT015 OVC030 13/10 Q1017
                        BLU BLU=
201911251100 METAR LRTZ 251100Z 10014KT 9999 BKN030 13/10 Q1017 BLU BLU=
201911251200 METAR LRTZ 251200Z 12012KT 9999 FEW020 OVC030 13/09 Q1017
                        BLU BLU=
201911251300 METAR LRTZ 251300Z 12012KT 9999 FEW020 BKN030 13/09 Q1015
                        BLU BLU=
201911251400 METAR LRTZ 251400Z 12014KT 9999 FEW020 BKN030 12/09 Q1015
                        BLU BLU=
201911251500 METAR LRTZ 251500Z 10014KT 9999 FEW020 BKN030 12/08 Q1015
                        BLU BLU=
201911251600 METAR LRTZ 251600Z 10012KT 9999 FEW020 BKN030 12/08 Q1015
                        BLU BLU=
201911251700 METAR LRTZ 251700Z 10012KT 9999 FEW020 OVC030 12/08 Q1015
                        BLU BLU=
201911251800 METAR LRTZ 251800Z 09012KT 9999 FEW020 OVC030 12/07 Q1015
                        BLU BLU=
201911251900 METAR LRTZ 251900Z 09014KT 9999 SCT025 OVC030 12/07 Q1015
                        BLU BLU=
201911252000 METAR LRTZ 252000Z 09014KT 9999 OVC025 11/07 Q1015 BLU BLU=
201911252100 METAR LRTZ 252100Z 09014KT 9999 OVC025 11/07 Q1015 BLU BLU=
201911252300 METAR LRTZ 252300Z 09016KT 9999 OVC020 11/08 Q1015 WHT WHT=
201911260400 METAR LRTZ 260400Z 05010G20KT 9999 SCT015 OVC020 11/07 Q1012
                        WHT WHT=
201911260500 METAR LRTZ 260500Z 04010G22KT 4000 -DZ BR BKN006 OVC015 08/07
                        Q1012 YLO AMB=
201911260600 METAR LRTZ 260600Z 04010G22KT 2000 -DZ BR BKN003 OVC005 08/07
                        Q1012 YLO AMB=
201911260700 METAR LRTZ 260700Z 04012G22KT 3000 BR BKN002 OVC005 08/07
                        Q1012 AMB AMB=
201911260800 METAR LRTZ 260800Z 06012G22KT 2000 -DZ BR BKN002 OVC005 07/06
                        Q1012 AMB AMB=
201911260900 METAR LRTZ 260900Z 06010G20KT 1500 -DZ BR BKN002 OVC005 06/05
                        Q1012 AMB AMB=
201911261000 METAR LRTZ 261000Z 04010G20KT 2000 BR BKN002 OVC005 06/05
                        Q1011 AMB AMB=
201911261100 METAR LRTZ 261100Z 04010G20KT 3000 BR BKN002 OVC005 06/05
                        Q1011 AMB AMB=
201911261200 METAR LRTZ 261200Z 04010G20KT 3000 BR BKN002 OVC005 06/05
                        Q1011 AMB AMB=
201911261300 METAR LRTZ 261300Z 04016KT 4000 BR BKN002 OVC005 06/05 Q1011
                        AMB AMB=
201911261400 METAR LRTZ 261400Z 04014KT 3000 BR BKN002 OVC005 06/05 Q1011
                        AMB AMB=
201911261500 METAR LRTZ 261500Z 03014KT 1500 BR BKN002 OVC005 06/05 Q1011
                        AMB AMB=
201911261600 METAR LRTZ 261600Z 03010KT 0800 FG VV001 05/05 Q1012 RED
                        RED=
201911261700 METAR LRTZ 261700Z 03012KT 0600 FG VV001 05/05 Q1012 RED
                        RED=
201911261800 METAR LRTZ 261800Z 03012KT 1500 BR BKN001 OVC003 05/04 Q1012
                        RED AMB=
201911261900 METAR LRTZ 261900Z 03012KT 5000 BR BKN003 OVC005 04/04 Q1013
                        YLO YLO=
201911262000 METAR LRTZ 262000Z 03012KT 7000 BKN007 BKN015 04/02 Q1013
                        GRN WHT=
201911262100 METAR LRTZ 262100Z 01012KT 8000 SCT007 BKN015 04/02 Q1013
                        WHT WHT=
201911262200 METAR LRTZ 262200Z 01012KT 9999 SCT010 BKN020 04/02 Q1013
                        WHT BLU=
201911262300 METAR LRTZ 262300Z 35012KT 9999 SCT010 BKN025 04/02 Q1013
                        BLU BLU=
201911270200 METAR LRTZ 270200Z 35012KT 9999 SCT007 BKN030 04/03 Q1013
                        BLU BLU=
201911270300 METAR LRTZ 270300Z 35012KT 9999 SCT007 BKN030 04/03 Q1013
                        BLU WHT=
201911270400 METAR LRTZ 270400Z 35016KT 3000 BR BKN003 02/01 Q1012 YLO
                        AMB=
201911270500 METAR LRTZ 270500Z 35014KT 2000 BR BKN002 OVC005 02/01 Q1013
                        AMB AMB=
201911270600 METAR LRTZ 270600Z 35014KT 2000 BR BKN003 OVC005 02/01 Q1013
                        YLO GRN=
201911270700 METAR LRTZ 270700Z 34016KT 2000 BR OVC003 02/01 Q1013 YLO
                        YLO=
201911270800 METAR LRTZ 270800Z 36014KT 4000 BR BKN003 BKN005 03/02 Q1014
                        YLO YLO=
201911270900 METAR LRTZ 270900Z 35014KT 5000 BR BKN004 BKN006 03/02 Q1014
                        YLO YLO=
201911271000 METAR LRTZ 271000Z 36014KT 5000 BR BKN004 BKN007 05/03 Q1013
                        YLO YLO=
201911271100 METAR LRTZ 271100Z 33012KT 7000 BKN007 BKN010 05/03 Q1013
                        GRN GRN=
201911271200 METAR LRTZ 271200Z 32012KT 8000 BKN007 05/03 Q1013 GRN GRN=
201911271300 METAR LRTZ 271300Z 32012KT 8000 BKN005 OVC007 05/03 Q1013
                        YLO YLO=
201911271400 METAR LRTZ 271400Z 31010KT 8000 OVC006 04/03 Q1014 YLO YLO=
201911271500 METAR LRTZ 271500Z 30008KT 5000 BR OVC004 04/03 Q1014 YLO
                        YLO=
201911271600 METAR LRTZ 271600Z 32006KT 3000 BR OVC002 04/03 Q1014 AMB
                        AMB=
201911271700 METAR LRTZ 271700Z 31004KT 1500 BR OVC002 03/03 Q1014 AMB
                        RED=
201911271800 METAR LRTZ 271800Z 29004KT 0300 FG VV001 03/03 Q1014 RED
                        RED=
201911271900 METAR LRTZ 271900Z 27003KT 0200 FG VV001 03/03 Q1014 RED
                        RED=
201911272000 METAR LRTZ 272000Z 00000KT 0200 FG VV001 02/02 Q1014 RED
                        RED=
201911272100 METAR LRTZ 272100Z 00000KT 0200 FG VV001 02/02 Q1014 RED
                        RED=
201911272200 METAR LRTZ 272200Z VRB03KT 0200 FG VV001 02/02 Q1014 RED
                        RED=
201911272300 METAR LRTZ 272300Z VRB03KT 0200 FG VV001 02/02 Q1014 RED
                        RED=
201911280500 METAR LRTZ 280500Z 31006KT 0500 FG VV002 01/01 Q1011 RED
                        RED=
201911280600 METAR LRTZ 280600Z 33008KT 1000 BR BKN200 01/01 Q1012 AMB
                        AMB=
201911280700 METAR LRTZ 280700Z 33008KT 3000 BR SCT010 BKN200 02/02 Q1012
                        GRN WHT=
201911280800 METAR LRTZ 280800Z 33006KT 5000 BR BKN200 05/04 Q1012 WHT
                        WHT=
201911280900 METAR LRTZ 280900Z 30006KT 7000 BKN200 08/06 Q1011 WHT BLU=
201911281000 METAR LRTZ 281000Z 27006KT 9999 BKN200 11/08 Q1011 BLU BLU=
201911281100 METAR LRTZ 281100Z 24006KT 9999 BKN200 12/09 Q1010 BLU BLU=
201911281200 METAR LRTZ 281200Z 12006KT 9999 BKN200 12/09 Q1010 BLU BLU=
201911281300 METAR LRTZ 281300Z 15004KT 9999 BKN200 12/09 Q1010 BLU BLU=
201911281400 METAR LRTZ 281400Z 18004KT 9999 SCT200 11/09 Q1010 BLU BLU=
201911281500 METAR LRTZ 281500Z 21004KT 7000 SCT200 09/08 Q1009 WHT WHT=
201911281600 METAR LRTZ 281600Z 21004KT 5000 BR SCT200 09/08 Q1009 WHT
                        WHT=
201911281700 METAR LRTZ 281700Z VRB03KT 3000 BR SCT200 08/08 Q1009 YLO
                        YLO=
201911281800 METAR LRTZ 281800Z VRB03KT 3000 BR SCT200 08/07 Q1008 YLO
                        YLO=
201911281900 METAR LRTZ 281900Z 21004KT 0800 FG SCT200 08/07 Q1008 AMB
                        AMB=
201911282000 METAR LRTZ 282000Z 21004KT 0600 FG SCT200 08/07 Q1008 RED
                        RED=
201911282100 METAR LRTZ 282100Z 21004KT 1000 BR BKN200 08/08 Q1007 AMB
                        YLO=
201911282200 METAR LRTZ 282200Z 21004KT 2000 BR BKN150 08/08 Q1007 YLO
                        YLO=
201911282300 METAR LRTZ 282300Z 21004KT 2000 BR BKN100 08/08 Q1006 YLO
                        YLO=
201911290400 METAR LRTZ 290400Z 27004KT 3000 BR BKN100 09/08 Q1004 YLO
                        YLO=
201911290500 METAR LRTZ 290500Z 24004KT 8000 BKN100 09/08 Q1004 BLU BLU=
201911290600 METAR LRTZ 290600Z 24004KT 8000 BKN100 09/08 Q1004 BLU BLU=
201911290700 METAR LRTZ 290700Z 27006KT 8000 BKN100 10/09 Q1004 BLU BLU=
201911290800 METAR LRTZ 290800Z 27012KT 9999 BKN100 12/10 Q1004 BLU BLU=
201911290900 METAR LRTZ 290900Z 31012KT 9999 SCT015 BKN070 12/09 Q1005
                        BLU BLU=
201911291000 METAR LRTZ 291000Z 31010G20KT 9999 SCT015 BKN100 12/09 Q1004
                        BLU BLU=
201911291100 METAR LRTZ 291100Z 31016KT 9999 SCT015 OVC070 11/09 Q1004
                        BLU BLU=
201911291200 METAR LRTZ 291200Z 31016KT 9999 OVC070 11/09 Q1004 BLU BLU=
201911291300 METAR LRTZ 291300Z 31012KT 8000 -RA SCT020 OVC060 11/09 Q1004
                        BLU BLU=
201911291400 METAR LRTZ 291400Z 31012KT 8000 -RA SCT020 OVC050 10/08 Q1005
                        BLU BLU=
201911291500 METAR LRTZ 291500Z 31014KT 8000 SCT020 OVC050 10/08 Q1005
                        BLU BLU=
201911291600 METAR LRTZ 291600Z 31014KT 9999 BKN100 09/08 Q1006 BLU BLU=
201911291700 METAR LRTZ 291700Z 31014KT 9999 BKN100 09/08 Q1006 BLU BLU=
201911291800 METAR LRTZ 291800Z 31010KT 7000 BKN100 09/08 Q1006 WHT WHT=
201911291900 METAR LRTZ 291900Z 31008KT 8000 BKN070 10/08 Q1007 BLU BLU=
201911292000 METAR LRTZ 292000Z 31008KT 9999 SCT070 09/08 Q1007 BLU BLU=
201911292100 METAR LRTZ 292100Z 31008KT 9999 FEW070 08/07 Q1008 BLU BLU=
201911292300 METAR LRTZ 292300Z 31010KT 9999 FEW070 08/07 Q1009 BLU BLU=
201911300400 METAR LRTZ 300400Z 32008KT 9999 FEW200 07/04 Q1010 BLU BLU=
201911300500 METAR LRTZ 300500Z 31010KT 9999 FEW200 05/04 Q1010 BLU BLU=
201911300600 METAR LRTZ 300600Z 31010KT 9999 SCT200 04/03 Q1010 BLU BLU=
201911300700 METAR LRTZ 300700Z 33004KT 9999 BKN200 07/05 Q1011 BLU BLU=
201911300800 METAR LRTZ 300800Z 31006KT 9999 BKN200 09/07 Q1011 BLU BLU=
201911300900 METAR LRTZ 300900Z 31006KT 9999 BKN200 10/08 Q1011 BLU BLU=
201911301000 METAR LRTZ 301000Z 32006KT 9999 SCT100 BKN200 10/07 Q1011
                        BLU BLU=
201911301100 METAR LRTZ 301100Z 32005KT 9999 BKN100 OVC200 11/08 Q1011
                        BLU BLU=
201911301200 METAR LRTZ 301200Z 32004KT 9999 BKN100 OVC200 11/08 Q1010
                        BLU BLU=
201911301300 METAR LRTZ 301300Z 33004KT 9999 SCT050 BKN080 OVC140 10/08
                        Q1011 BLU BLU=
201911301400 METAR LRTZ 301400Z 35006KT 9999 SCT050 OVC100 10/08 Q1011
                        BLU BLU=
201911301500 METAR LRTZ 301500Z 34008KT 9999 SCT040 OVC070 09/07 Q1011
                        BLU BLU=
201911301600 METAR LRTZ 301600Z 35012KT 9999 SCT035 OVC060 09/07 Q1012
                        BLU BLU=
201911301700 METAR LRTZ 301700Z 35012KT 9999 -RA SCT015 OVC060 08/07 Q1013
                        BLU BLU=
201911301800 METAR LRTZ 301800Z 35010KT 8000 -RA SCT015 OVC045 08/06 Q1013
                        BLU WHT=
201911301900 METAR LRTZ 301900Z 35008KT 6000 -RA BKN010 OVC060 08/07 Q1014
                        GRN GRN=
201911302000 METAR LRTZ 302000Z 35010KT 6000 -RA BKN008 OVC020 08/07 Q1015
                        GRN GRN=
201911302100 METAR LRTZ 302100Z 01014KT 5000 -RA BR BKN007 OVC015 07/06
                        Q1016 GRN YLO=
201911302300 METAR LRTZ 302300Z 36016KT 4000 -RA BR BKN005 OVC020 06/05
                        Q1018 YLO YLO=