201911010500 TAF LRTZ 010500Z 0106/0206 03014KT 9999 SCT025 OVC070
                      PROB30 TEMPO 0112/0116 -RA BKN010 OVC030
                       BECMG 0116/0118 12004KT BKN040=
201911011100 TAF LRTZ 011100Z 0112/0212 03014KT 9999 SCT030 BKN090=
201911011700 TAF LRTZ 011700Z 0118/0218 12010KT 9999 BKN020 OVC050
                      TEMPO 0118/0200 8000 -RA
                      BECMG 0212/0214 SCT020 BKN090=
201911012300 TAF LRTZ 012300Z 0200/0300 12010KT 9999 BKN020 OVC050
                      BECMG 0212/0214 SCT020 BKN090
                      BECMG 0218/0220 SCT200=
201911020500 TAF LRTZ 020500Z 0206/0306 12010KT 9999 BKN020 OVC050
                      BECMG 0212/0214 SCT020 BKN090
                      BECMG 0218/0220 SCT200=
201911021100 TAF LRTZ 021100Z 0212/0312 18014KT 9999 SCT035 BKN200
                      BECMG 0218/0220 SCT200=
201911021700 TAF LRTZ 021700Z 0218/0318 18012KT 9999 FEW035 SCT200
                      TEMPO 0218/0222 VRB03KT
                      BECMG 0304/0306 18010G20KT SCT030 BKN200=
201911022300 TAF LRTZ 022300Z 0300/0400 18012KT 9999 FEW035 BKN100
                      BECMG 0305/0307 18010G20KT=
201911030500 TAF LRTZ 030500Z 0306/0406 21012KT 9999 SCT150
                      BECMG 0307/0308 19010G20KT
                      TEMPO 0309/0315 FEW035=
201911031100 TAF LRTZ 031100Z 0312/0412 19012G22KT 9999 BKN200
                      BECMG 0407/0409 19025G35KT BKN100=
201911031700 TAF LRTZ 031700Z 0318/0418 21016KT 9999 BKN150
                      BECMG 0407/0409 19025G35KT BKN100=
201911032300 TAF LRTZ 032300Z 0400/0500 21018KT 9999 SCT200
                      BECMG 0407/0409 19025G35KT BKN100
                      PROB30 TEMPO 0418/0500 6000 SCT010 BKN025CB
                       OVC050=
201911040500 TAF LRTZ 040500Z 0406/0506 21014KT 9999 BKN100
                      BECMG 0407/0409 19025G35KT
                      PROB30 TEMPO 0418/0500 6000 SCT010 BKN025CB
                       OVC050
                      BECMG 0502/0504 21010KT=
201911041100 TAF LRTZ 041100Z 0412/0512 22020G30KT 9999 BKN100
                      PROB30 TEMPO 0415/0418 -SHRA BKN025CB OVC070
                       TEMPO 0423/0503 5000 -RA SHRA BR SCT010
                       BKN025CB OVC050
                      BECMG 0503/0505 21010KT SCT070=
201911041700 TAF LRTZ 041700Z 0418/0518 21020KT 9999 BKN100
                      TEMPO 0422/0502 5000 RA SHRA BR SCT010 BKN025CB
                       OVC050
                      BECMG 0503/0505 27010KT SCT070=
201911050500 TAF LRTZ 050500Z 0506/0606 27008KT 9999 SKC
                      TEMPO 0508/0512 26018KT
                      BECMG 0512/0514 18008KT
                      TEMPO 0514/0518 SCT050=
201911051100 TAF LRTZ 051100Z 0512/0612 27010KT 9999 SKC
                      BECMG 0514/0516 18008KT
                      BECMG 0606/0608 SCT200=
201911051700 TAF LRTZ 051700Z 0518/0618 18008KT 9999 SKC
                      BECMG 0606/0608 SCT200=
201911052300 TAF LRTZ 052300Z 0600/0700 18008KT 9999 SKC
                      BECMG 0606/0608 SCT200=
201911060500 TAF LRTZ 060500Z 0606/0706 20012KT 9999 BKN200
                      TEMPO 0702/0706 0800 FG OVC003=
201911061100 TAF LRTZ 061100Z 0612/0712 20012KT 9999 SCT200
                      BECMG 0700/0702 BKN040
                      PROB30 TEMPO 0702/0706 0800 FG OVC003
                      BECMG 0706/0708 20012G22KT=
201911061700 TAF LRTZ 061700Z 0618/0718 24010KT 9999 BKN150
                      BECMG 0700/0702 BKN040
                      BECMG 0703/0705 20015G25KT
                      BECMG 0712/0714 20010KT SCT100=
201911062300 TAF LRTZ 062300Z 0700/0800 20010KT 9999 BKN150
                      PROB30 TEMPO 0703/0707 5000 BR
                      BECMG 0707/0709 20015G25KT SCT100
                      BECMG 0712/0714 20010KT=
201911070500 TAF LRTZ 070500Z 0706/0806 20010KT 9999 SCT200
                      TEMPO 0706/0712 20012G22KT FEW030 BKN100
                       BECMG 0800/0802 VRB03KT
                      PROB30 TEMPO 0702/0706 0800 FG VV003=
201911071100 TAF LRTZ 071100Z 0712/0812 22016KT 9999 SCT200
                      BECMG 0717/0719 VRB02KT
                      TEMPO 0800/0806 3000 BR BKN005
                      PROB30 TEMPO 0802/0806 0800 FG VV003
                      BECMG 0806/0808 9999 21010KT=
201911071700 TAF LRTZ 071700Z 0718/0818 19004KT 9999 BKN200
                      TEMPO 0800/0806 3000 BR BKN005
                      PROB30 TEMPO 0802/0806 0800 FG VV003
                      BECMG 0806/0808 9999 21010KT=
201911072300 TAF LRTZ 072300Z 0800/0900 VRB03KT 9999 BKN200
                      TEMPO 0800/0806 3000 BR BKN005
                      PROB30 TEMPO 0802/0806 0800 FG VV003
                      BECMG 0806/0808 9999 18010KT=
201911081100 TAF LRTZ 081100Z 0812/0912 18010KT 9999 SCT100 BKN200
                      BECMG 0818/0820 VRB03KT 5000 BR BKN015
                      PROB30 TEMPO 0902/0906 0300 FG VV003
                      BECMG 0906/0908 15010KT 9999 SCT025=
201911081700 TAF LRTZ 081700Z 0818/0918 18004KT 9999 SKC
                      BECMG 0820/0822 VRB03KT 5000 BR
                      PROB30 TEMPO 0902/0906 0300 FG VV003
                      BECMG 0906/0908 15010KT 9999 SCT025=
201911082300 TAF LRTZ 082300Z 0900/1000 VRB03KT 1500 BR SCT100
                      PROB30 TEMPO 0902/0906 0300 FG VV003
                      BECMG 0906/0908 15010KT 9999 SKC
                      BECMG 0912/0914 BKN200=
201911090500 TAF LRTZ 090500Z 0906/1006 21003KT 1000 BR SCT100
                      BECMG 0907/0909 15010KT 9999 SKC
                      BECMG 0912/0914 BKN200
                      TEMPO 1002/1006 VRB03KT 3000 BR BKN010=
201911091700 TAF LRTZ 091700Z 0918/1018 15010KT 9999 BKN200
                      TEMPO 1002/1006 VRB03KT 3000 BR BKN010=
201911092300 TAF LRTZ 092300Z 1000/1100 VRB03KT 3000 BR BKN010 BKN200
                      BECMG 1006/1008 15010KT SCT200=
201911100500 TAF LRTZ 100500Z 1006/1106 15010KT 9999 BKN200
                      TEMPO 1006/1008 5000 BR
                      PROB30 TEMPO 1102/1106 4000 BR BKN010=
201911101700 TAF LRTZ 101700Z 1018/1118 18008KT 1500 BR SKC
                      BECMG 1022/1100 FEW015 SCT100
                      PROB40 TEMPO 1101/1105 0200 FG VV002
                      BECMG 1108/1110 9999 SCT200=
201911102300 TAF LRTZ 102300Z 1100/1200 20008KT 3000 BR SCT100
                      PROB40 TEMPO 1102/1106 0200 FG VV002
                      BECMG 1108/1110 9999 SCT200
                      BECMG 1110/1112 14010KT=
201911110500 TAF LRTZ 110500Z 1106/1206 32010KT 9999 SKC
                      PROB30 TEMPO 1106/1108 0800 FG BKN003
                      BECMG 1116/1118 15006KT SCT200
                      PROB30 1200/1206 VRB03KT 3000 BR=
201911111100 TAF LRTZ 111100Z 1112/1212 30010KT 9999 SKC
                      BECMG 1116/1118 15006KT SCT200
                      PROB30 TEMPO 1200/1206 VRB03KT 3000 BR=
201911111700 TAF LRTZ 111700Z 1118/1218 VRB02KT 9999 SCT200
                      PROB30 TEMPO 1200/1206 VRB03KT 3000 BR
                      BECMG 1204/1206 12008KT=
201911112300 TAF LRTZ 112300Z 1200/1300 VRB02KT 9999 SKC
                      PROB30 TEMPO 1200/1206 3000 BR BKN005
                      BECMG 1204/1206 12008KT=
201911120500 TAF LRTZ 120500Z 1206/1306 09012KT 9999 SCT200
                      BECMG 1218/1220 5000 BR BKN005
                      PROB30 TEMPO 1302/1306 0800 FG VV002
                      BECMG 1306/1308 9999 SCT100 BKN200=
201911121100 TAF LRTZ 121100Z 1212/1312 13014KT 9999 SCT200
                      BECMG 1216/1218 12004KT 3000 BR BKN010
                      PROB30 TEMPO 1302/1306 0500 FG VV002
                      BECMG 1306/1308 13014KT 9999 BKN200=
201911121700 TAF LRTZ 121700Z 1218/1318 12006KT 3000 BR BKN007
                      PROB30 TEMPO 1302/1306 0500 FG VV002
                      BECMG 1306/1308 13016KT 9999 SCT100 BKN200=
201911130500 TAF LRTZ 130500Z 1306/1406 15016KT 9999 BKN010
                      TEMPO 1308/1312 SCT025 BKN200
                      BECMG 1312/1314 BKN010 BKN100
                      BECMG 1320/1322 09006KT BKN100=
201911131100 TAF LRTZ 131100Z 1312/1412 15016KT 9999 BKN010 OVC100
                      BECMG 1405/1407 09012KT=
201911131700 TAF LRTZ 131700Z 1318/1418 15010KT 5000 BR BKN010 OVC100
                      BECMG 1405/1407 09012KT=
201911132300 TAF LRTZ 132300Z 1400/1500 15010KT 5000 BR BKN010 OVC100
                      BECMG 1405/1407 09012KT
                      TEMPO 1420/1500 -DZ BKN005 OVC050=
201911140500 TAF LRTZ 140500Z 1406/1506 09012KT 9999 BKN010 OVC100
                      TEMPO 1500/1506 15008KT 5000 -DZ BR BKN005
                       OVC050=
201911140600 TAF LRTZ 140600Z 1406/1506 09012KT 9999 BKN010 OVC100
                      TEMPO 1500/1506 15008KT 5000 -DZ BR BKN005
                       OVC050=
201911141100 TAF LRTZ 141100Z 1412/1512 11012KT 9999 BKN025 OVC070
                      BECMG 1421/1423 15006KT 5000 -RA BKN015 OVC050
                       BECMG 1505/1507 18010KT 9999 SCT025 BKN070=
201911141700 TAF LRTZ 141700Z 1418/1518 10010KT 9999 BKN015 OVC030
                      BECMG 1422/1502 16006KT 3500 -RA BR BKN010
                       OVC020
                      BECMG 1508/1510 9999 SCT030 BKN070=
201911142300 TAF LRTZ 142300Z 1500/1600 15006KT 8000 BKN020 OVC040
                      PROB40 TEMPO 1500/1504 5000 -RA BR BKN015
                       OVC025
                      BECMG 1508/1510 9999 SCT030 BKN070=
201911150500 TAF LRTZ 150500Z 1506/1606 VRB03KT 5000 BR SCT020
                      BECMG 1507/1509 18010KT 9999 BKN030
                      PROB40 TEMPO 1522/1604 VRB03KT 3000 BR BKN020=
201911151100 TAF LRTZ 151100Z 1512/1612 21008KT 9999 SCT015 BKN025
                      BECMG 1517/1519 VBR03KT
                      PROB40 TEMPO 1522/1604 3000 BR BKN005
                      BECMG 1606/1608 15006KT=
201911151700 TAF LRTZ 151700Z 1518/1618 VRB03KT 9999 SKC
                      TEMPO 1522/1604 3000 BR BKN005
                      PROB30 TEMPO 1604/1606 0500 FG VV002
                      BECMG 1606/1608 15006KT BKN010=
201911152300 TAF LRTZ 152300Z 1600/1700 5000 BR SKC
                      PROB30 TEMPO 1604/1606 0500 FG VV002
                      BECMG 1606/1608 15006KT BKN010=
201911160500 TAF LRTZ 160500Z 1606/1706 VRB03KT 3000 BR SCT200
                      BECMG 1607/1609 12008KT 9999
                      TEMPO 1700/1706 3000 BR BKN010
                      PROB40 TEMPO 1704/1706 0500 FG VV002=
201911161100 TAF LRTZ 161100Z 1612/1712 14008KT 7000 SCT200
                      BECMG 1615/1617 4000 BR BKN007
                      BECMG 1700/1702 08004KT
                      PROB40 TEMPO 1703/1706 0500 FG VV002
                      BECMG 1707/1709 09014KT 9999=
201911161700 TAF LRTZ 161700Z 1618/1718 18008KT 4000 BR BKN005
                      BECMG 1700/1702 09008KT
                      PROB40 TEMPO 1703/1706 0500 FG VV002
                      BECMG 1707/1709 9999 BKN015=
201911170500 TAF LRTZ 170500Z 1706/1806 09012KT 9999 BKN015
                      TEMPO 1708/1711 SCT025
                      BECMG 1716/1718 15008KT BKN007
                      PROB30 TEMPO 1803/1806 5000 BR=
201911171100 TAF LRTZ 171100Z 1712/1812 10010KT 9999 OVC020
                      BECMG 1716/1718 16010KT BKN005 OVC015
                      PROB30 TEMPO 1803/1806 5000 BR=
201911171700 TAF LRTZ 171700Z 1718/1818 16010KT 9999 BKN005 OVC015
                      PROB30 TEMPO 1803/1806 5000 BR=
201911172300 TAF LRTZ 172300Z 1800/1900 16010KT 9999 BKN005 OVC015
                      PROB30 TEMPO 1803/1806 5000 BR
                      BECMG 1818/1820 BKN020 OVC090=
201911180500 TAF LRTZ 180500Z 1806/1906 16010KT 9999 BKN010 OVC030
                      BECMG 1818/1820 BKN020 OVC090
                      TEMPO 1900/1906 5000 -RA BR BKN010 OVC050=
201911181100 TAF LRTZ 181100Z 1812/1912 16010KT 9999 BKN025
                      TEMPO 1820/1900 5000 -DZ BKN010 OVC050=
201911181700 TAF LRTZ 181700Z 1818/1918 16010KT 9999 OVC015
                      TEMPO 1822/1902 5000 -DZ BKN010 OVC050
                      BECMG 1906/1908 BKN030=
201911182300 TAF LRTZ 182300Z 1900/2000 18008KT 5000 BKN015
                      BECMG 1908/1910 9999 BKN030=
201911190500 TAF LRTZ 190500Z 1906/2006 16010KT 9999 BKN030
                      TEMPO 1906/1908 5000 BR BKN015 1920/2002
                       5000 BR BKN010=
201911191100 TAF LRTZ 191100Z 1912/2012 12010KT 9999 SCT015 OVC030
                      BECMG 1920/2002 5000 BR BKN010=
201911192300 TAF LRTZ 192300Z 2000/2100 13012KT 8000 BKN010 BKN100
                      PROB30 TEMPO 2003/2007 5000 BR BKN007
                      BECMG 2010/2012 BKN020
                      BECMG 2018/2020 14010G20KT
                      PROB40 TEMPO 2102/2106 4000 -DZ BKN007 OVC020=
201911200500 TAF LRTZ 200500Z 2006/2106 11012KT 9999 OVC020
                      BECMG 2010/2012 BKN020 OVC100
                      BECMG 2018/2020 12012G22KT
                      PROB40 TEMPO 2102/2106 4000 -DZ BKN007 OVC020=
201911201100 TAF LRTZ 201100Z 2012/2112 12012KT 9999 BKN020
                      BECMG 2015/2017 6000 OVC010
                      BECMG 2020/2022 12012G22KT
                      BECMG 2104/2106 4000 -RA BR BKN005 OVC015=
201911201700 TAF LRTZ 201700Z 2018/2118 12012KT 9999 OVC020
                      PROB30 TEMPO 2022/2102 4000 -DZ BR BKN005
                       OVC020
                      BECMG 2104/2106 10012G22KT
                      TEMPO 2106/2112 5000 -RA BR BKN005 OVC015=
201911202300 TAF LRTZ 202300Z 2100/2200 12014KT 9999 BKN015 OVC025
                      PROB30 TEMPO 2102/2106 4000 -DZ BR BKN005
                       OVC020
                      TEMPO 2108/2112 5000 -RA BR BKN005 OVC015
                       BECMG 2112/2114 06014G24KT=
201911210500 TAF LRTZ 210500Z 2106/2206 12020KT 9999 BKN015 OVC020
                      PROB30 TEMPO 2106/2109 5000 -RA BR BKN005
                       OVC015
                      BECMG 2112/2114 06016G26KT
                      TEMPO 2115/2119 5000 -RA BR BKN005 OVC015=
201911211100 TAF LRTZ 211100Z 2112/2212 06016G26KT 9999 BKN015 OVC025
                      TEMPO 2115/2121 5000 -RA BR BKN005 OVC015=
201911211700 TAF LRTZ 211700Z 2118/2218 06016G26KT 9999 BKN015 OVC025
                      TEMPO 2118/2123 4000 RA BR BKN005 OVC015
                       TEMPO 2212/2215 6000 -RA BKN010 OVC025=
201911212300 TAF LRTZ 212300Z 2200/2300 06016G26KT 9999 BKN015 OVC025
                      TEMPO 2200/2204 4000 RA BR BKN005 OVC015
                       TEMPO 2212/2215 6000 -RA BKN010 OVC025=
201911220500 TAF LRTZ 220500Z 2206/2306 06016G26KT 9999 BKN015 OVC050
                      TEMPO 2212/2215 6000 -RA BKN010 OVC025=
201911221100 TAF LRTZ 221100Z 2212/2312 36014KT 9999 SCT007 OVC025
                      TEMPO 2216/2220 6000 DZ BKN005 OVC015
                      BECMG 2305/2307 06012KT 4000 -RA SCT005 BKN010
                       OVC020=
201911221700 TAF LRTZ 221700Z 2218/2318 36014KT 5000 BR BKN003 OVC020
                      TEMPO 2218/2222 3000 DZ BKN005 OVC015
                      BECMG 2305/2307 06012KT 4000 -RA SCT005 BKN010
                       OVC020=
201911222300 TAF LRTZ 222300Z 2300/2400 01016KT 4000 BR OVC003
                      TEMPO 2306/2312 06012KT 4000 -RA SCT005 BKN010
                       OVC020
                      BECMG 2312/2314 9999 SCT010 BKN020=
201911230500 TAF LRTZ 230500Z 2306/2406 03012KT 7000 BR OVC003
                      TEMPO 2308/2312 4000 -RA BR SCT003 BKN007
                       OVC015
                      BECMG 2312/2314 9999 SCT007 BKN015=
201911231100 TAF LRTZ 231100Z 2312/2412 03012KT 5000 BR OVC003
                      TEMPO 2312/2316 3000 -DZ BR=
201911231700 TAF LRTZ 231700Z 2318/2418 07008KT 9999 SCT015 OVC020
                      PROB30 TEMPO 2411/2415 06010G20KT 5000 -DZ
                       BR BKN003 OVC010=
201911232300 TAF LRTZ 232300Z 2400/2500 06012KT 9999 OVC015
                      PROB30 BECMG 2409/2411 SCT015 OVC025
                      TEMPO 2411/2415 06010G20KT 5000 -DZ BR BKN003
                       OVC010=
201911240500 TAF LRTZ 240500Z 2406/2506 06012KT 9999 OVC015
                      BECMG 2409/2411 SCT015 OVC020
                      PROB30 TEMPO 2411/2415 5000 -RA BR BKN007
                       OVC015=
201911241100 TAF LRTZ 241100Z 2412/2512 10010KT 9999 BKN020
                      PROB30 TEMPO 2503/2507 5000 -RA BR BKN005
                       OVC015=
201911241700 TAF LRTZ 241700Z 2418/2518 10010KT 9999 BKN015 OVC020
                      PROB30 TEMPO 2503/2507 5000 -RA BR BKN005
                       OVC015
                      BECMG 2512/2514 08010G20KT=
201911242300 TAF LRTZ 242300Z 2500/2600 12012KT 9999 BKN020
                      PROB30 TEMPO 2503/2507 5000 -RA BR BKN005
                       OVC015
                      BECMG 2516/2518 06010G20KT=
201911250500 TAF LRTZ 250500Z 2506/2606 12016KT 9999 SCT010 BKN020 BKN070
                      BECMG 2516/2518 06012G22KT BKN015=
201911251100 TAF LRTZ 251100Z 2512/2612 10016KT 9999 FEW015 BKN030
                      BECMG 2516/2518 06012G22KT
                      BECMG 2603/2605 5000 -RA BR BKN020 OVC040=
201911251700 TAF LRTZ 251700Z 2518/2618 11014KT 9999 SCT015 OVC025
                      BECMG 2603/2605 05010G20KT 5000 -RA BR SCT003
                       BKN007 OVC020=
201911260500 TAF LRTZ 260500Z 2606/2706 05010G22KT 4000 -RA BR SCT002 BKN004
                       OVC007
                      BECMG 2619/2621 9999 34012KT BKN030=
201911261100 TAF LRTZ 261100Z 2612/2712 05012G22KT 4000 BR BKN002 OVC005
                      TEMPO 2612/2616 2000 -DZ BR
                      BECMG 2622/2700 7000 34012KT BKN020
                      PROB30 TEMPO 2702/2706 0800 FG VV002
                      BECMG 2709/2711 9999 SCT070=
201911261700 TAF LRTZ 261700Z 2618/2718 03010KT 0800 FG VV001
                      BECMG 2620/2622 35010KT 7000 SCT007 BKN030
                       PROB30
                      TEMPO 2702/2706 0800 FG VV002
                      BECMG 2709/2711 9999 SCT070
                      BECMG 2715/2717 15006KT SCT200=
201911262300 TAF LRTZ 262300Z 2700/2800 9999 35012KT SCT010 BKN030
                      PROB30 TEMPO 2703/2707 1000 BR BKN003
                      BECMG 2709/2711 SCT070
                      BECMG 2715/2717 15006KT SCT200=
201911270500 TAF LRTZ 270500Z 2706/2806 9999 35014KT SCT007 BKN050
                      TEMPO 2706/2710 3000 BR BKN003 BKN007
                      BECMG 2715/2717 21010KT SCT200
                      PROB30 TEMPO 2802/2806 1000 BR BKN003=
201911271100 TAF LRTZ 271100Z 2712/2812 33014KT 7000 BKN007 BKN020
                      BECMG 2715/2717 21004KT SCT020 SCT200
                      BECMG 2718/2720 4000 BR BKN015
                      PROB30 TEMPO 2802/2806 0500 FG BKN002
                      BECMG 2807/2809 18014KT 9999 SCT070=
201911271700 TAF LRTZ 271700Z 2718/2818 30004KT 1500 BR OVC002
                      BECMG 2719/2721 21004KT
                      TEMPO 2802/2806 0100 FG VV001
                      BECMG 2807/2809 18014KT 9999 BKN007=
201911272300 TAF LRTZ 272300Z 2800/2900 VRB03KT 0200 FG VV001
                      BECMG 2806/2808 4000 BR BKN005
                      BECMG 2808/2810 18010KT 9999 BKN015=
201911280500 TAF LRTZ 280500Z 2806/2906 21010KT 5000 BR BKN010
                      TEMPO 2806/2808 0500 FG VV001
                      BECMG 2808/2810 9999 BKN025
                      BECMG 2815/2817 4000 BR BKN005=
201911281100 TAF LRTZ 281100Z 2812/2912 21006KT 9999 BKN200
                      BECMG 2816/2818 18012KT 7000 BKN100
                      TEMPO 2820/2902 3000 BR
                      TEMPO 2904/2910 27016KT 3000 -RA BR SCT005
                       BKN010 OVC020=
201911281700 TAF LRTZ 281700Z 2818/2918 VRB03KT 2000 BR SCT200
                      TEMPO 2904/2908 21010KT 4000 -RA BR SCT005
                       BKN015 OVC025
                      BECMG 2908/2910 27012G22KT 9999 SCT050=
201911282300 TAF LRTZ 282300Z 2900/3000 21004KT 2000 BR BKN100
                      BECMG 2902/2904 27010KT
                      PROB30 TEMPO 2904/2908 27010KT 4000 -RA BR
                       SCT005 BKN015 OVC025
                      BECMG 2910/2912 27012G22KT 9999 BKN050=
201911290500 TAF LRTZ 290500Z 2906/3006 24008KT 9999 BKN100
                      PROB30 TEMPO 2906/2908 5000 -RA SCT005 BKN015
                       OVC025
                      BECMG 2910/2912 27012G22KT 9999 BKN050=
201911291100 TAF LRTZ 291100Z 2912/3012 31016KT 9999 OVC070
                      PROB40 TEMPO 2912/2916 6000 -RA FEW010 BKN020
                       OVC040
                      BECMG 2920/2922 25010KT BKN100=
201911291700 TAF LRTZ 291700Z 2918/3018 32012KT 8000 BKN100
                      PROB40 TEMPO 3000/3006 26008KT 3500 BR SCT100
                       BECMG 3009/3011 BKN100=
201911292300 TAF LRTZ 292300Z 3000/0100 31012KT 9999 FEW100
                      PROB40 TEMPO 3000/3006 26008KT 3500 BR SCT100
                       BECMG 3009/3011 BKN100
                      BECMG 3018/3020 32012G22KT 6000 -RA=
201911300500 TAF LRTZ 300500Z 3006/0106 29012KT 9999 BKN070 OVC200
                      BECMG 3016/3020 36012G22KT 6000 -RA BKN025
                       OVC050=
201911301100 TAF LRTZ 301100Z 3012/0112 30010KT 9999 BKN100 OVC200
                      BECMG 3015/3017 6000 -RA BKN020 OVC050
                      BECMG 3019/3021 36012G22KT
                      TEMPO 3021/0101 3000 RA BR BKN007 OVC020
                       BECMG 0104/0106 35012KT 9999 SCT050=
201911301700 TAF LRTZ 301700Z 3018/0118 35014G24KT 6000 -RA BKN010 OVC040
                      BECMG 0103/0105 35014KT 9999 SCT050=
201911302300 TAF LRTZ 302300Z 0100/0200 35020KT 5000 -RA BR BKN005 OVC015
                      BECMG 0103/0105 9999 SCT020 BKN050
                      BECMG 0112/0114 33010KT SCT035=
