201912010400 METAR LRTZ 010400Z 36014KT 9999 BKN022 OVC080 04/01 Q1021
                        WHT BLU=
201912010500 METAR LRTZ 010500Z 36012KT 9999 SCT025 BKN080 03/01 Q1022
                        BLU BLU=
201912010600 METAR LRTZ 010600Z 36012KT 9999 FEW025 BKN090 03/00 Q1023
                        BLU BLU=
201912010700 METAR LRTZ 010700Z 36012KT 9999 BKN090 02/M00 Q1024 BLU BLU=
201912010800 METAR LRTZ 010800Z 36014KT 9999 SCT070 BKN090 03/M00 Q1025
                        BLU BLU=
201912010900 METAR LRTZ 010900Z 36014KT 9999 BKN070 04/M00 Q1025 BLU BLU=
201912011000 METAR LRTZ 011000Z 36014KT 9999 BKN090 05/M01 Q1025 BLU BLU=
201912011100 METAR LRTZ 011100Z 36014KT 9999 BKN090 06/M03 Q1025 BLU BLU=
201912011200 METAR LRTZ 011200Z 36014KT 9999 BKN090 06/M03 Q1026 BLU BLU=
201912011300 METAR LRTZ 011300Z 36010KT 9999 SCT090 06/M03 Q1026 BLU BLU=
201912011400 METAR LRTZ 011400Z 36010KT 9999 SCT090 06/M03 Q1026 BLU BLU=
201912011500 METAR LRTZ 011500Z VRB03KT 9999 FEW090 00/M03 Q1028 BLU BLU=
201912011600 METAR LRTZ 011600Z VRB03KT 9999 FEW200 M00/M03 Q1028 BLU
                        BLU=
201912011700 METAR LRTZ 011700Z VRB03KT 9999 SCT200 00/M03 Q1028 BLU BLU=
201912011800 METAR LRTZ 011800Z VRB03KT 9999 SCT200 M01/M04 Q1028 BLU
                        BLU=
201912011900 METAR LRTZ 011900Z VRB03KT 9999 SCT200 M01/M04 Q1029 BLU
                        BLU=
201912012000 METAR LRTZ 012000Z VRB03KT 9999 SCT200 M02/M04 Q1029 BLU
                        BLU=
201912012100 METAR LRTZ 012100Z VRB03KT 9999 SCT200 M02/M04 Q1029 BLU
                        BLU=
201912012300 METAR LRTZ 012300Z VRB03KT 9999 SCT200 M02/M04 Q1029 BLU
                        BLU=
201912020300 METAR LRTZ 020300Z VRB03KT 6000 SCT200 M02/M04 Q1029 WHT
                        WHT=
201912020400 METAR LRTZ 020400Z VRB03KT 8000 SCT200 M01/M04 Q1028 BLU
                        BLU=
201912020500 METAR LRTZ 020500Z VRB03KT 9999 SCT200 M02/M04 Q1027 BLU
                        BLU=
201912020600 METAR LRTZ 020600Z 36006KT 9999 SCT200 M02/M05 Q1027 BLU
                        BLU=
201912020800 METAR LRTZ 020800Z VRB03KT 9999 FEW020 BKN200 04/M00 Q1026
                        BLU BLU=
201912020900 METAR LRTZ 020900Z 18006KT 9999 FEW020 BKN200 07/02 Q1025
                        BLU BLU=
201912021000 METAR LRTZ 021000Z 20012KT 9999 FEW020 SCT200 09/03 Q1024
                        BLU BLU=
201912021100 METAR LRTZ 021100Z 20014KT 9999 BKN030 09/03 Q1023 BLU BLU=
201912021200 METAR LRTZ 021200Z 20016KT 9999 BKN030 09/02 Q1021 BLU BLU=
201912021300 METAR LRTZ 021300Z 21016KT 9999 FEW030 SCT200 09/03 Q1020
                        BLU BLU=
201912021400 METAR LRTZ 021400Z 21014KT 9999 SCT100 08/02 Q1020 BLU BLU=
201912021500 METAR LRTZ 021500Z 20008KT 9999 FEW100 SCT200 05/02 Q1019
                        BLU BLU=
201912021600 METAR LRTZ 021600Z 20008KT 9999 BKN100 05/02 Q1018 BLU BLU=
201912021700 METAR LRTZ 021700Z 21008KT 9999 SCT100 05/02 Q1018 BLU BLU=
201912021800 METAR LRTZ 021800Z 21008KT 9999 BKN100 05/03 Q1017 BLU BLU=
201912021900 METAR LRTZ 021900Z 21008KT 9999 BKN100 06/03 Q1017 BLU BLU=
201912022000 METAR LRTZ 022000Z 22008KT 9999 BKN100 06/03 Q1016 BLU BLU=
201912022100 METAR LRTZ 022100Z 22008KT 9999 BKN070 06/03 Q1016 BLU BLU=
201912022300 METAR LRTZ 022300Z 24008KT 9999 BKN070 05/03 Q1017 BLU BLU=
201912030400 METAR LRTZ 030400Z 33010KT 9999 BKN070 04/01 Q1019 BLU BLU=
201912030500 METAR LRTZ 030500Z 33010KT 9999 SCT050 SCT080 04/01 Q1019
                        BLU BLU=
201912030600 METAR LRTZ 030600Z 34008KT 9999 BKN030 OVC040 03/01 Q1020
                        BLU WHT=
201912030700 METAR LRTZ 030700Z 34008KT 9999 -DZ BKN020 OVC030 03/01 Q1021
                        WHT WHT=
201912030800 METAR LRTZ 030800Z 34008KT 9999 BKN030 OVC040 04/01 Q1022
                        BLU BLU=
201912030900 METAR LRTZ 030900Z 33008KT 9999 SCT030 OVC045 04/01 Q1022
                        BLU BLU=
201912031000 METAR LRTZ 031000Z 33006KT 9999 SCT030 OVC040 04/01 Q1022
                        BLU BLU=
201912031100 METAR LRTZ 031100Z 33006KT 9999 SCT030 OVC040 04/M01 Q1022
                        BLU BLU=
201912031200 METAR LRTZ 031200Z 34008KT 9999 OVC050 05/M01 Q1023 BLU BLU=
201912031400 METAR LRTZ 031400Z 30010KT 9999 OVC045 03/01 Q1023 BLU BLU=
201912031500 METAR LRTZ 031500Z 31008KT 9999 SCT045 OVC100 03/01 Q1023
                        BLU BLU=
201912031600 METAR LRTZ 031600Z 32010KT 9999 SCT070 OVC090 02/00 Q1024
                        BLU BLU=
201912031700 METAR LRTZ 031700Z 33010KT 9999 OVC070 02/01 Q1025 BLU BLU=
201912031800 METAR LRTZ 031800Z 33008KT 9999 OVC075 02/01 Q1025 BLU BLU=
201912031900 METAR LRTZ 031900Z 33008KT 9999 BKN080 01/M00 Q1026 BLU BLU=
201912032000 METAR LRTZ 032000Z 33008KT 9999 SCT120 00/M01 Q1026 BLU BLU=
201912032200 METAR LRTZ 032200Z 33010KT 7000 FEW180 M00/M01 Q1026 WHT
                        WHT=
201912032300 METAR LRTZ 032300Z 33008KT 6000 FEW200 M00/M01 Q1027 WHT
                        WHT=
201912040400 METAR LRTZ 040400Z 36010KT 7000 SKC M02/M03 Q1028 WHT BLU=
201912040500 METAR LRTZ 040500Z 35012KT 9999 FEW010 FEW200 M02/M03 Q1029
                        BLU BLU=
201912040600 METAR LRTZ 040600Z 36012KT 9999 FEW015 FEW200 M02/M04 Q1029
                        BLU BLU=
201912040700 METAR LRTZ 040700Z 36010KT 9999 FEW015 M01/M03 Q1030 BLU
                        BLU=
201912040800 METAR LRTZ 040800Z 02010KT 9999 FEW020 02/M02 Q1030 BLU BLU=
201912040900 METAR LRTZ 040900Z 02012KT 9999 BKN020 02/M02 Q1030 BLU BLU=
201912041000 METAR LRTZ 041000Z 02014KT 9999 BKN020 02/M03 Q1030 BLU BLU=
201912041100 METAR LRTZ 041100Z 02014KT 9999 BKN020 03/M02 Q1030 BLU BLU=
201912041200 METAR LRTZ 041200Z 02014KT 9999 BKN030 04/M02 Q1030 BLU BLU=
201912041300 METAR LRTZ 041300Z 02012KT 9999 SCT025 04/M02 Q1030 BLU BLU=
201912041400 METAR LRTZ 041400Z 02008KT 9999 FEW025 03/M02 Q1030 BLU BLU=
201912041500 METAR LRTZ 041500Z 02010KT 9999 FEW025 M01/M04 Q1031 BLU
                        BLU=
201912041600 METAR LRTZ 041600Z 34010KT 9999 SKC M01/M05 Q1031 BLU BLU=
201912041700 METAR LRTZ 041700Z 34006KT 9999 SKC M02/M05 Q1031 BLU BLU=
201912041800 METAR LRTZ 041800Z VRB03KT 9999 SKC M03/M06 Q1032 BLU BLU=
201912041900 METAR LRTZ 041900Z VRB03KT 9999 SKC M04/M07 Q1032 BLU BLU=
201912042000 METAR LRTZ 042000Z 34004KT 9999 SKC M04/M07 Q1032 BLU BLU=
201912042100 METAR LRTZ 042100Z 34004KT 9999 SKC M04/M07 Q1032 BLU BLU=
201912042300 METAR LRTZ 042300Z 34004KT 9999 SKC M04/M06 Q1033 BLU BLU=
201912050400 METAR LRTZ 050400Z 32004KT 9999 SKC M05/M07 Q1033 BLU BLU=
201912050500 METAR LRTZ 050500Z 32004KT 9999 SKC M05/M07 Q1032 BLU BLU=
201912050600 METAR LRTZ 050600Z 32004KT 9999 SKC M04/M07 Q1033 BLU BLU=
201912050700 METAR LRTZ 050700Z 32004KT 9999 SKC M02/M05 Q1032 BLU BLU=
201912050800 METAR LRTZ 050800Z 32005KT 9999 SKC 00/M03 Q1033 BLU BLU=
201912050900 METAR LRTZ 050900Z 32006KT 9999 SKC 03/M01 Q1033 BLU BLU=
201912051000 METAR LRTZ 051000Z 32006KT 9999 SKC 04/M02 Q1032 BLU BLU=
201912051100 METAR LRTZ 051100Z 32006KT 9999 SKC 05/M03 Q1031 BLU BLU=
201912051200 METAR LRTZ 051200Z 30006KT 9999 SKC 06/M02 Q1031 BLU BLU=
201912051300 METAR LRTZ 051300Z 22006KT 9999 SKC 06/M04 Q1031 BLU BLU=
201912051400 METAR LRTZ 051400Z 21006KT 9999 SKC 05/M02 Q10309 BLU BLU=
201912051500 METAR LRTZ 051500Z 21006KT 9999 SKC 01/M02 Q1030 BLU BLU=
201912051700 METAR LRTZ 051700Z 21006KT 9999 SKC M01/M04 Q1030 BLU BLU=
201912051800 METAR LRTZ 051800Z 21006KT 9999 SKC M01/M04 Q1030 BLU BLU=
201912051900 METAR LRTZ 051900Z 21006KT 9999 SKC M02/M04 Q1030 BLU BLU=
201912052000 METAR LRTZ 052000Z 21006KT 9999 SKC M02/M04 Q1030 BLU BLU=
201912052100 METAR LRTZ 052100Z 21006KT 9999 SKC M02/M04 Q1030 BLU BLU=
201912052300 METAR LRTZ 052300Z 21006KT 9999 SKC M02/M04 Q1030 BLU BLU=
201912060400 METAR LRTZ 060400Z 21006KT 9999 SKC M02/M04 Q1028 BLU BLU=
201912060500 METAR LRTZ 060500Z 21006KT 9999 SKC M02/M04 Q1027 BLU BLU=
201912060600 METAR LRTZ 060600Z 21004KT 9999 SKC M01/M03 Q1027 BLU BLU=
201912060700 METAR LRTZ 060700Z 26004KT 9999 SKC 01/M01 Q1027 BLU BLU=
201912060800 METAR LRTZ 060800Z 24006KT 9999 SKC 06/02 Q1028 BLU BLU=
201912060900 METAR LRTZ 060900Z 24006KT 9999 SKC 06/02 Q1028 BLU BLU=
201912061000 METAR LRTZ 061000Z 24014KT 9999 SKC 09/03 Q1026 BLU BLU=
201912061100 METAR LRTZ 061100Z 24012KT 9999 SKC 10/03 Q1025 BLU BLU=
201912061200 METAR LRTZ 061200Z 22012KT 9999 SKC 10/03 Q1025 BLU BLU=
201912061300 METAR LRTZ 061300Z 21012KT 9999 SKC 10/03 Q1024 BLU BLU=
201912061400 METAR LRTZ 061400Z 21008KT 9999 SKC 08/03 Q1024 BLU BLU=
201912061500 METAR LRTZ 061500Z 21004KT 9999 SKC 04/01 Q1024 BLU BLU=
201912061600 METAR LRTZ 061600Z 21004KT 9999 SKC 03/01 Q1024 BLU BLU=
201912061700 METAR LRTZ 061700Z 21004KT 9999 SKC 01/M00 Q1023 BLU BLU=
201912061800 METAR LRTZ 061800Z 21004KT 9999 SKC 02/00 Q1023 BLU BLU=
201912061900 METAR LRTZ 061900Z 21004KT 9999 SKC M00/M01 Q1023 BLU BLU=
201912062000 METAR LRTZ 062000Z 21004KT 9999 SKC M01/M02 Q1023 BLU BLU=
201912062100 METAR LRTZ 062100Z 21004KT 9999 SKC M01/M02 Q1023 BLU BLU=
201912062200 METAR LRTZ 062200Z 21004KT 9999 SKC M01/M02 Q1022 BLU BLU=
201912062300 METAR LRTZ 062300Z 21004KT 9999 SKC M01/M02 Q1022 BLU BLU=
201912070400 METAR LRTZ 070400Z 21004KT 9999 SKC M03/M05 Q1018 BLU BLU=
201912070500 METAR LRTZ 070500Z 21004KT 9999 SKC M01/M03 Q1018 BLU BLU=
201912070600 METAR LRTZ 070600Z 21004KT 9999 SCT200 00/M02 Q1018 BLU BLU=
201912070700 METAR LRTZ 070700Z VRB03KT 9999 SCT200 01/M02 Q1018 BLU BLU=
201912070800 METAR LRTZ 070800Z 21004KT 9999 SKC 05/01 Q1018 BLU BLU=
201912070900 METAR LRTZ 070900Z 21006KT 9999 SCT200 08/03 Q1017 BLU BLU=
201912071000 METAR LRTZ 071000Z 21006KT 9999 SCT100 BKN200 10/03 Q1016
                        BLU BLU=
201912071100 METAR LRTZ 071100Z 21006KT 9999 SCT200 11/04 Q1016 BLU BLU=
201912071200 METAR LRTZ 071200Z 21006KT 9999 BKN200 11/04 Q1014 BLU BLU=
201912071300 METAR LRTZ 071300Z 30004KT 9999 BKN200 10/05 Q1014 BLU BLU=
201912071400 METAR LRTZ 071400Z 30004KT 9999 SCT100 BKN200 07/03 Q1015
                        BLU BLU=
201912071500 METAR LRTZ 071500Z 30004KT 9999 SCT100 OVC150 06/03 Q1015
                        BLU BLU=
201912071600 METAR LRTZ 071600Z 30008KT 9999 OVC100 06/01 Q1015 BLU BLU=
201912071700 METAR LRTZ 071700Z 31008KT 9999 OVC070 05/01 Q1015 BLU BLU=
201912071800 METAR LRTZ 071800Z 31006KT 9999 OVC070 04/01 Q1015 BLU BLU=
201912071900 METAR LRTZ 071900Z 31006KT 9999 OVC070 04/02 Q1015 BLU BLU=
201912072100 METAR LRTZ 072100Z 31008KT 9999 OVC070 05/02 Q1015 BLU BLU=
201912072300 METAR LRTZ 072300Z 31008KT 9999 BKN070 03/01 Q1015 BLU BLU=
201912080200 METAR LRTZ 080200Z 31008KT 9999 SCT090 02/00 Q1016 BLU BLU=
201912080300 METAR LRTZ 080300Z 31008KT 9999 SCT090 01/M01 Q1016 BLU BLU=
201912080400 METAR LRTZ 080400Z 31010KT 8000 FEW090 01/M01 Q1016 BLU WHT=
201912080500 METAR LRTZ 080500Z 31012KT 5000 BR SCT090 01/M00 Q1016 WHT
                        GRN=
201912080600 METAR LRTZ 080600Z 31012KT 0500 FG VV002 00/M00 Q1017 RED
                        AMB=
201912080700 METAR LRTZ 080700Z 33012KT 3000 BR SCT004 BKN200 01/00 Q1017
                        YLO WHT=
201912080800 METAR LRTZ 080800Z 33012KT 3000 BR SCT004 BKN200 01/00 Q1017
                        YLO WHT=
201912081000 METAR LRTZ 081000Z 32014KT 9999 BKN100 BKN200 08/03 Q1017
                        BLU BLU=
201912081100 METAR LRTZ 081100Z 32014KT 9999 BKN100 09/04 Q1017 BLU BLU=
201912081200 METAR LRTZ 081200Z 32014KT 9999 BKN100 09/04 Q1017 BLU BLU=
201912081300 METAR LRTZ 081300Z 32012KT 9999 BKN100 08/04 Q1017 BLU BLU=
201912081500 METAR LRTZ 081500Z 32008KT 9999 SCT200 04/02 Q1018 BLU BLU=
201912081700 METAR LRTZ 081700Z 32006KT 5000 BR BKN090 03/02 Q1019 WHT
                        GRN=
201912081800 METAR LRTZ 081800Z 32006KT 3000 BR BKN090 02/01 Q1019 YLO
                        YLO=
201912081900 METAR LRTZ 081900Z 32006KT 3000 BR BKN090 02/01 Q1019 YLO
                        YLO=
201912082000 METAR LRTZ 082000Z 32006KT 3000 BR BKN090 02/01 Q1018 YLO
                        YLO=
201912082200 METAR LRTZ 082200Z 32006KT 2500 BR BKN090 01/M00 Q1019 YLO
                        YLO=
201912082300 METAR LRTZ 082300Z 32006KT 2000 BR BKN005 BKN090 01/M00 Q1018
                        YLO YLO=
201912090600 METAR LRTZ 090600Z 21005KT 9999 SKC 01/M02 Q1016 BLU BLU=
201912090700 METAR LRTZ 090700Z 21003KT 9999 SKC 02/00 Q1016 BLU BLU=
201912090800 METAR LRTZ 090800Z 21008KT 9999 SKC 07/04 Q1016 BLU BLU=
201912090900 METAR LRTZ 090900Z 21008KT 9999 SKC 10/06 Q1016 BLU BLU=
201912091000 METAR LRTZ 091000Z 23010KT 9999 SKC 11/05 Q1015 BLU BLU=
201912091100 METAR LRTZ 091100Z 23012KT 9999 FEW200 12/06 Q1014 BLU BLU=
201912091200 METAR LRTZ 091200Z 22012KT 9999 FEW200 12/05 Q1014 BLU BLU=
201912091300 METAR LRTZ 091300Z 22012KT 9999 FEW200 11/04 Q1013 BLU BLU=
201912091400 METAR LRTZ 091400Z 21010KT 9999 FEW200 10/05 Q1013 BLU BLU=
201912091500 METAR LRTZ 091500Z 21006KT 9999 FEW200 07/05 Q1013 BLU BLU=
201912091600 METAR LRTZ 091600Z 24004KT 8000 SKC 05/03 Q1013 BLU WHT=
201912091700 METAR LRTZ 091700Z 21003KT 7000 SKC 04/03 Q1013 WHT BLU=
201912091800 METAR LRTZ 091800Z 22004KT 7000 SKC 04/03 Q1013 WHT WHT=
201912091900 METAR LRTZ 091900Z 21004KT 7000 SKC 04/03 Q1014 WHT WHT=
201912092000 METAR LRTZ 092000Z 21004KT 6000 SKC 05/04 Q1013 WHT WHT=
201912092100 METAR LRTZ 092100Z 21004KT 6000 SKC 05/04 Q1013 WHT WHT=
201912092300 METAR LRTZ 092300Z 20004KT 5000 BR SKC 05/04 Q1013 WHT WHT=
201912100400 METAR LRTZ 100400Z VRB02KT 7000 FEW010 05/04 Q1013 WHT WHT=
201912100500 METAR LRTZ 100500Z 00000KT 7000 FEW025 05/04 Q1013 WHT BLU=
201912100600 METAR LRTZ 100600Z 00000KT 7000 SCT023 06/04 Q1013 WHT BLU=
201912100700 METAR LRTZ 100700Z VRB03KT 9999 SCT025 05/04 Q1013 BLU BLU=
201912100800 METAR LRTZ 100800Z VRB03KT 9999 SCT030 09/06 Q1013 BLU BLU=
201912100900 METAR LRTZ 100900Z 21006KT 9999 FEW030 12/08 Q1013 BLU BLU=
201912101000 METAR LRTZ 101000Z 21010KT 9999 FEW030 12/07 Q1013 BLU BLU=
201912101100 METAR LRTZ 101100Z 21010KT 9999 FEW030 12/07 Q1013 BLU BLU=
201912101200 METAR LRTZ 101200Z 21010KT 9999 SCT020 12/07 Q1013 BLU BLU=
201912101300 METAR LRTZ 101300Z 19012KT 9999 SCT020 12/07 Q1013 BLU BLU=
201912101400 METAR LRTZ 101400Z 19006KT 9999 FEW020 11/07 Q1013 BLU BLU=
201912101500 METAR LRTZ 101500Z VRB03KT 8000 FEW020 SCT200 09/06 Q1014
                        BLU WHT=
201912101600 METAR LRTZ 101600Z VRB03KT 5000 BR FEW025 09/07 Q1014 WHT
                        WHT=
201912101700 METAR LRTZ 101700Z VRB03KT 5000 BR FEW025 09/07 Q1014 WHT
                        WHT=
201912101800 METAR LRTZ 101800Z VRB03KT 7000 FEW200 09/06 Q1015 WHT WHT=
201912101900 METAR LRTZ 101900Z VRB03KT 5000 BR FEW020 SCT200 07/05 Q1016
                        WHT WHT=
201912102000 METAR LRTZ 102000Z VRB03KT 4000 BR FEW020 05/04 Q1016 GRN
                        GRN=
201912102100 METAR LRTZ 102100Z VRB03KT 4000 BR SCT020 05/04 Q1016 GRN
                        GRN=
201912102300 METAR LRTZ 102300Z VRB03KT 4000 BR SCT020 06/05 Q1015 GRN
                        GRN=
201912110400 METAR LRTZ 110400Z 32006KT 2000 BR BKN005 OVC010 08/08 Q1017
                        YLO YLO=
201912110500 METAR LRTZ 110500Z 03008KT 3500 BR BKN005 OVC010 09/09 Q1017
                        YLO YLO=
201912110600 METAR LRTZ 110600Z 03010KT 3500 BR OVC003 09/09 Q1018 YLO
                        YLO=
201912110700 METAR LRTZ 110700Z 06012KT 7000 SCT003 BKN010 10/09 Q1018
                        GRN WHT=
201912110800 METAR LRTZ 110800Z 06012KT 9999 SCT003 BKN010 11/09 Q1018
                        GRN WHT=
201912110900 METAR LRTZ 110900Z 06014KT 7000 SCT003 BKN007 OVC020 10/09
                        Q1018 GRN GRN=
201912111000 METAR LRTZ 111000Z 06014KT 7000 SCT003 BKN007 OVC015 10/09
                        Q1017 GRN GRN=
201912111100 METAR LRTZ 111100Z 06014KT 7000 SCT003 BKN007 OVC015 10/09
                        Q1017 GRN GRN=
201912111200 METAR LRTZ 111200Z 09016KT 9999 SCT005 BKN020 BKN050 11/07
                        Q1017 WHT WHT=
201912111500 METAR LRTZ 111500Z 09018KT 9999 SCT005 BKN020 BKN050 10/06
                        Q1016 WHT WHT=
201912111600 METAR LRTZ 111600Z 09016KT 9999 FEW005 BKN020 BKN050 10/07
                        Q1016 WHT WHT=
201912111700 METAR LRTZ 111700Z 09016KT 9999 FEW005 BKN015 OVC050 10/06
                        Q1016 WHT WHT=
201912111800 METAR LRTZ 111800Z 09014KT 9999 FEW005 BKN015 OVC040 10/07
                        Q1016 WHT WHT=
201912111900 METAR LRTZ 111900Z 09016KT 9999 BKN015 OVC025 10/07 Q1016
                        WHT WHT=
201912112000 METAR LRTZ 112000Z 09014KT 9999 BKN020 OVC030 10/06 Q1016
                        WHT WHT=
201912112100 METAR LRTZ 112100Z 09014KT 9999 BKN020 OVC030 10/07 Q1016
                        WHT GRN=
201912112200 METAR LRTZ 112200Z 09014KT 9999 BKN010 OVC020 10/08 Q1015
                        GRN GRN=
201912112300 METAR LRTZ 112300Z 09014KT 7000 BKN007 OVC015 10/08 Q1015
                        GRN GRN=
201912120400 METAR LRTZ 120400Z 09016KT 9999 BKN010 OVC020 10/07 Q1012
                        GRN GRN=
201912120500 METAR LRTZ 120500Z 09016KT 9999 SCT010 BKN020 OVC050 10/07
                        Q1012 WHT WHT=
201912120600 METAR LRTZ 120600Z 09018KT 9999 SCT010 BKN020 10/07 Q1012
                        WHT WHT=
201912120700 METAR LRTZ 120700Z 09018KT 9999 BKN010 BKN020 10/07 Q1012
                        GRN GRN=
201912120800 METAR LRTZ 120800Z 09018KT 9999 BKN012 OVC030 10/07 Q1012
                        GRN WHT=
201912120900 METAR LRTZ 120900Z 09018KT 9999 SCT010 BKN015 OVC035 10/08
                        Q1011 WHT WHT=
201912121000 METAR LRTZ 121000Z 08020KT 9999 SCT010 OVC040 11/08 Q1011
                        BLU BLU=
201912121100 METAR LRTZ 121100Z 08018KT 9999 SCT010 BKN015 OVC035 11/08
                        Q1010 WHT WHT=
201912121200 METAR LRTZ 121200Z 09018KT 9999 SCT010 BKN020 OVC040 10/07
                        Q1010 WHT WHT=
201912121300 METAR LRTZ 121300Z 08016KT 9999 SCT010 BKN020 OVC045 10/07
                        Q1010 WHT WHT=
201912121500 METAR LRTZ 121500Z 03010KT 9999 SCT010 OVC020 08/06 Q1010
                        WHT GRN=
201912121600 METAR LRTZ 121600Z 03012KT 7000 BKN008 OVC015 08/06 Q1010
                        GRN GRN=
201912121700 METAR LRTZ 121700Z 03012KT 6000 -DZ BKN005 OVC010 08/06 Q1009
                        YLO YLO=
201912121800 METAR LRTZ 121800Z 04012KT 5000 -DZ BR BKN004 OVC006 08/07
                        Q1009 YLO YLO=
201912121900 METAR LRTZ 121900Z 03012KT 6000 BKN007 OVC015 07/06 Q1009
                        GRN GRN=
201912122000 METAR LRTZ 122000Z 03010KT 5000 BR BKN007 OVC015 07/06 Q1009
                        GRN GRN=
201912122300 METAR LRTZ 122300Z 03010KT 6000 BKN008 OVC017 08/06 Q1007
                        GRN GRN=
201912130400 METAR LRTZ 130400Z 03010KT 2000 DZ BR OVC002 07/07 Q1005
                        AMB AMB=
201912130500 METAR LRTZ 130500Z 03010KT 1300 DZ BR OVC002 07/07 Q1005
                        AMB AMB=
201912130600 METAR LRTZ 130600Z 04010KT 1500 -RA BR OVC002 07/07 Q1005
                        AMB AMB=
201912130700 METAR LRTZ 130700Z 06008KT 2000 DZ BR BKN002 OVC004 09/08
                        Q1005 AMB AMB=
201912130800 METAR LRTZ 130800Z 06010KT 5000 BR BKN003 OVC006 10/09 Q1005
                        YLO GRN=
201912130900 METAR LRTZ 130900Z 06010KT 7000 FEW003 BKN007 OVC012 11/10
                        Q1004 GRN GRN=
201912131000 METAR LRTZ 131000Z 12010KT 9999 SCT008 BKN012 OVC025 11/10
                        Q1004 GRN WHT=
201912131100 METAR LRTZ 131100Z 09010KT 9999 BKN009 OVC017 12/10 Q1003
                        GRN WHT=
201912131200 METAR LRTZ 131200Z 09010KT 9999 BKN009 OVC060 12/10 Q1002
                        GRN WHT=
201912131300 METAR LRTZ 131300Z 09009KT 9999 SCT009 BKN020 OVC060 13/10
                        Q1002 WHT WHT=
201912131400 METAR LRTZ 131400Z 10008KT 9999 SCT020 BKN060 11/10 Q1002
                        WHT BLU=
201912131500 METAR LRTZ 131500Z 12008KT 9999 BKN020 BKN060 12/10 Q1002
                        WHT WHT=
201912131600 METAR LRTZ 131600Z 12010KT 9999 SCT020 BKN060 11/10 Q1002
                        BLU BLU=
201912131700 METAR LRTZ 131700Z 12006KT 9999 BKN060 11/10 Q1002 BLU BLU=
201912131800 METAR LRTZ 131800Z 12006KT 9999 SCT015 BKN060 11/10 Q1002
                        BLU BLU=
201912131900 METAR LRTZ 131900Z 14006KT 9999 BKN015 OVC060 11/10 Q1001
                        WHT GRN=
201912132000 METAR LRTZ 132000Z 14006KT 9999 BKN015 OVC060 11/10 Q1001
                        WHT WHT=
201912132100 METAR LRTZ 132100Z 17006KT 7000 SCT007 BKN010 OVC015 11/10
                        Q1001 GRN GRN=
201912132300 METAR LRTZ 132300Z 16006KT 4000 BR BKN005 OVC010 10/09 Q1001
                        YLO YLO=
201912140500 METAR LRTZ 140500Z 17004KT 0200 FG SCT001 09/09 Q1000 RED
                        AMB=
201912140600 METAR LRTZ 140600Z 17004KT 0800 BR SCT001 09/09 Q1000 AMB
                        YLO=
201912140700 METAR LRTZ 140700Z 17010KT 3000 BR BKN010 11/10 Q1001 YLO
                        GRN=
201912140800 METAR LRTZ 140800Z 17010KT 7000 BKN010 12/10 Q1002 GRN GRN=
201912140900 METAR LRTZ 140900Z 17010KT 9999 BKN010 13/10 Q1002 GRN GRN=
201912141000 METAR LRTZ 141000Z 17010KT 9999 SCT010 14/10 Q1002 BLU BLU=
201912141100 METAR LRTZ 141100Z 17010KT 9999 SCT025 14/10 Q1002 BLU BLU=
201912141200 METAR LRTZ 141200Z 17010KT 9999 SCT025 SCT200 14/10 Q1001
                        BLU BLU=
201912141300 METAR LRTZ 141300Z 17010KT 9999 SCT025 SCT200 13/10 Q1002
                        BLU BLU=
201912141400 METAR LRTZ 141400Z 17010KT 9999 SCT025 BKN200 12/10 Q1003
                        BLU BLU=
201912141500 METAR LRTZ 141500Z 17010KT 9999 SCT025 SCT090 BKN200 11/10
                        Q1003 BLU BLU=
201912141600 METAR LRTZ 141600Z 17008KT 9999 SCT025 SCT090 BKN200 09/08
                        Q1004 BLU BLU=
201912141700 METAR LRTZ 141700Z 20006KT 9999 SCT025 BKN090 OVC200 09/08
                        Q1004 BLU BLU=
201912141800 METAR LRTZ 141800Z 23006KT 9999 SCT025 BKN090 OVC200 09/08
                        Q1005 BLU BLU=
201912141900 METAR LRTZ 141900Z 23006KT 9999 SCT025 BKN090 OVC200 09/08
                        Q1005 BLU BLU=
201912142000 METAR LRTZ 142000Z 24006KT 9999 SCT025 BKN090 OVC200 08/07
                        Q1006 BLU WHT=
201912142100 METAR LRTZ 142100Z 25006KT 7000 SCT025 BKN090 OVC200 08/07
                        Q1006 WHT WHT=
201912142300 METAR LRTZ 142300Z 25006KT 5000 BR SCT025 OVC090 08/07 Q1006
                        WHT GRN=
201912150400 METAR LRTZ 150400Z 26010KT 6000 -RA SCT020 BKN070 08/07 Q1010
                        WHT WHT=
201912150500 METAR LRTZ 150500Z 26010KT 6000 SCT020 BKN090 08/07 Q1012
                        WHT WHT=
201912150600 METAR LRTZ 150600Z 28010KT 7000 BKN015 BKN090 08/07 Q1014
                        WHT WHT=
201912150700 METAR LRTZ 150700Z 33012KT 7000 SCT010 BKN100 BKN090 08/06
                        Q1015 WHT BLU=
201912150800 METAR LRTZ 150800Z 33010KT 7000 FEW010 SCT100 08/06 Q1016
                        WHT BLU=
201912150900 METAR LRTZ 150900Z 33016KT 9999 FEW200 09/06 Q1016 BLU BLU=
201912151000 METAR LRTZ 151000Z 33014KT 9999 FEW200 11/07 Q1016 BLU BLU=
201912151100 METAR LRTZ 151100Z 33014KT 9999 FEW200 12/05 Q1017 BLU BLU=
201912151200 METAR LRTZ 151200Z 31014KT 9999 SCT200 12/04 Q1018 BLU BLU=
201912151300 METAR LRTZ 151300Z 33010KT 9999 SCT200 11/05 Q1019 BLU BLU=
201912151400 METAR LRTZ 151400Z 33006KT 9999 SCT200 10/07 Q1019 BLU BLU=
201912151500 METAR LRTZ 151500Z 33004KT 9999 BKN200 08/05 Q1020 BLU BLU=
201912151600 METAR LRTZ 151600Z VRB02KT 9999 SCT200 06/03 Q1021 BLU BLU=
201912151700 METAR LRTZ 151700Z VRB02KT 9999 FEW200 06/03 Q1021 BLU BLU=
201912151800 METAR LRTZ 151800Z VRB03KT 9999 SKC 05/03 Q1022 BLU BLU=
201912151900 METAR LRTZ 151900Z 21004KT 9999 SKC 04/02 Q1022 BLU BLU=
201912152000 METAR LRTZ 152000Z 21004KT 9999 SCT200 05/02 Q1022 BLU BLU=
201912152100 METAR LRTZ 152100Z 21004KT 9999 SCT200 04/01 Q1023 BLU BLU=
201912152300 METAR LRTZ 152300Z 21004KT 9999 SCT200 03/01 Q1023 BLU BLU=
201912160300 METAR LRTZ 160300Z 21004KT 9999 SCT200 03/02 Q1024 BLU BLU=
201912160400 METAR LRTZ 160400Z 21004KT 7000 BR SCT200 03/02 Q1023 WHT
                        GRN=
201912160500 METAR LRTZ 160500Z 21006KT 9999 SCT200 05/04 Q1023 BLU BLU=
201912160600 METAR LRTZ 160600Z 21006KT 9999 SCT200 04/03 Q1023 BLU BLU=
201912160700 METAR LRTZ 160700Z 21006KT 9999 SCT200 04/03 Q1023 BLU BLU=
201912160800 METAR LRTZ 160800Z 24008KT 9999 FEW200 09/07 Q1024 BLU BLU=
201912160900 METAR LRTZ 160900Z 27008KT 9999 SCT200 11/08 Q1024 BLU BLU=
201912161000 METAR LRTZ 161000Z 27008KT 9999 SCT200 13/08 Q1023 BLU BLU=
201912161100 METAR LRTZ 161100Z 27008KT 9999 SCT200 14/07 Q1023 BLU BLU=
201912161200 METAR LRTZ 161200Z 27008KT 9999 SCT200 14/07 Q1022 BLU BLU=
201912161300 METAR LRTZ 161300Z 27008KT 9999 SCT200 14/08 Q1022 BLU BLU=
201912161500 METAR LRTZ 161500Z 28004KT 9999 SCT200 08/05 Q1023 BLU BLU=
201912161600 METAR LRTZ 161600Z 28004KT 9999 SCT200 07/05 Q1023 BLU BLU=
201912161700 METAR LRTZ 161700Z VRB02KT 9999 SCT200 07/05 Q1023 BLU BLU=
201912161800 METAR LRTZ 161800Z VRB02KT 9999 SCT200 07/03 Q1023 BLU BLU=
201912161900 METAR LRTZ 161900Z VRB02KT 9999 SCT200 08/04 Q1023 BLU BLU=
201912162000 METAR LRTZ 162000Z VRB02KT 9999 SCT200 06/03 Q1023 BLU BLU=
201912162100 METAR LRTZ 162100Z VRB02KT 9999 SCT200 06/03 Q1023 BLU BLU=
201912162200 METAR LRTZ 162200Z VRB02KT 9999 SCT200 05/03 Q1023 BLU BLU=
201912162300 METAR LRTZ 162300Z VRB02KT 9999 SCT200 05/03 Q1023 BLU BLU=
201912170400 METAR LRTZ 170400Z VRB02KT 8000 SCT200 04/01 Q1022 BLU BLU=
201912170500 METAR LRTZ 170500Z VRB02KT 9999 SCT200 05/01 Q1022 BLU BLU=
201912170600 METAR LRTZ 170600Z VRB02KT 9999 SCT200 04/00 Q1022 BLU BLU=
201912170700 METAR LRTZ 170700Z 34008KT 9999 BKN200 05/02 Q1023 BLU BLU=
201912170800 METAR LRTZ 170800Z 34006KT 9999 BKN200 07/03 Q1023 BLU BLU=
201912171000 METAR LRTZ 171000Z 30006KT 9999 BKN200 12/06 Q1022 BLU BLU=
201912171100 METAR LRTZ 171100Z 34006KT 9999 SCT200 13/06 Q1022 BLU BLU=
201912171200 METAR LRTZ 171200Z 34006KT 9999 SCT200 15/05 Q1021 BLU BLU=
201912171300 METAR LRTZ 171300Z 30006KT 9999 SCT200 15/06 Q1022 BLU BLU=
201912171400 METAR LRTZ 171400Z 24006KT 9999 SCT200 13/08 Q1022 BLU BLU=
201912171600 METAR LRTZ 171600Z 21003KT 9999 SCT200 08/06 Q1022 BLU BLU=
201912171700 METAR LRTZ 171700Z 21003KT 9999 SCT200 07/04 Q1022 BLU BLU=
201912171800 METAR LRTZ 171800Z 21003KT 9999 SCT200 07/05 Q1022 BLU BLU=
201912171900 METAR LRTZ 171900Z VRB03KT 9999 FEW200 06/04 Q1022 BLU BLU=
201912172000 METAR LRTZ 172000Z VRB03KT 9999 FEW200 06/04 Q1022 BLU BLU=
201912172100 METAR LRTZ 172100Z VRB03KT 9999 SKC 05/03 Q1022 BLU BLU=
201912172300 METAR LRTZ 172300Z VRB03KT 9999 SKC 04/02 Q1022 BLU BLU=
201912180400 METAR LRTZ 180400Z 21003KT 9999 SCT200 02/00 Q1023 BLU BLU=
201912180500 METAR LRTZ 180500Z VRB03KT 9999 FEW200 04/M00 Q1022 BLU BLU=
201912180600 METAR LRTZ 180600Z 34003KT 9999 FEW200 05/M00 Q1022 BLU BLU=
201912180700 METAR LRTZ 180700Z 34006KT 9999 FEW200 07/02 Q1023 BLU BLU=
201912180800 METAR LRTZ 180800Z 29006KT 9999 SCT200 11/03 Q1023 BLU BLU=
201912180900 METAR LRTZ 180900Z 25004KT 9999 FEW200 14/07 Q1023 BLU BLU=
201912181000 METAR LRTZ 181000Z 24006KT 9999 FEW200 16/07 Q1023 BLU BLU=
201912181100 METAR LRTZ 181100Z 26004KT 9999 FEW200 18/08 Q1022 BLU BLU=
201912181200 METAR LRTZ 181200Z 25008KT 9999 FEW200 18/08 Q1022 BLU BLU=
201912181300 METAR LRTZ 181300Z 28006KT 9999 FEW200 17/10 Q1022 BLU BLU=
201912181400 METAR LRTZ 181400Z 24004KT 9999 FEW200 15/09 Q1023 BLU BLU=
201912181500 METAR LRTZ 181500Z 24004KT 9999 FEW200 11/07 Q1023 BLU BLU=
201912181600 METAR LRTZ 181600Z 25004KT 9999 FEW200 10/06 Q1023 BLU BLU=
201912181700 METAR LRTZ 181700Z 25004KT 9999 FEW200 08/05 Q1023 BLU BLU=
201912181800 METAR LRTZ 181800Z 26006KT 9999 FEW200 09/05 Q1023 BLU BLU=
201912181900 METAR LRTZ 181900Z 28004KT 9999 FEW200 08/04 Q1024 BLU BLU=
201912182000 METAR LRTZ 182000Z 27006KT 9999 FEW200 08/04 Q1024 BLU BLU=
201912182100 METAR LRTZ 182100Z 28006KT 9999 FEW200 07/04 Q1024 BLU BLU=
201912182300 METAR LRTZ 182300Z 30006KT 9999 SCT200 06/03 Q1024 BLU BLU=
201912190400 METAR LRTZ 190400Z 34004KT 9999 SCT200 03/00 Q1026 BLU BLU=
201912190600 METAR LRTZ 190600Z VRB03KT 9999 BKN200 03/01 Q1027 BLU BLU=
201912190700 METAR LRTZ 190700Z 33006KT 9999 BKN200 05/02 Q1027 BLU BLU=
201912190800 METAR LRTZ 190800Z 33012KT 9999 BKN200 07/03 Q1027 BLU BLU=
201912190900 METAR LRTZ 190900Z 33010KT 9999 BKN200 09/06 Q1027 BLU BLU=
201912191000 METAR LRTZ 191000Z 33008KT 9999 BKN200 11/07 Q1027 BLU BLU=
201912191100 METAR LRTZ 191100Z 33006KT 9999 SCT200 12/06 Q1027 BLU BLU=
201912191200 METAR LRTZ 191200Z 33006KT 9999 SCT200 12/07 Q1026 BLU BLU=
201912191400 METAR LRTZ 191400Z 09004KT 8000 BKN200 10/07 Q1026 BLU WHT=
201912191500 METAR LRTZ 191500Z 09004KT 2000 BR BKN200 09/08 Q1026 YLO
                        YLO=
201912191600 METAR LRTZ 191600Z VRB03KT 0100 FG VV003 08/08 Q1026 RED
                        RED=
201912191700 METAR LRTZ 191700Z VRB03KT 0100 FG VV003 07/07 Q1026 RED
                        RED=
201912191800 METAR LRTZ 191800Z VRB03KT 0100 FG VV003 08/07 Q1026 RED
                        RED=
201912191900 METAR LRTZ 191900Z VRB03KT 0100 FG VV003 06/05 Q1026 RED
                        RED=
201912192000 METAR LRTZ 192000Z VRB03KT 0100 FG VV002 04/03 Q1026 RED
                        RED=
201912192100 METAR LRTZ 192100Z VRB03KT 0100 FG VV002 04/03 Q1026 RED
                        RED=
201912192300 METAR LRTZ 192300Z VRB03KT 0100 FG VV002 03/02 Q1025 RED
                        RED=
201912200400 METAR LRTZ 200400Z VRB03KT 0100 FG VV002 05/04 Q1023 RED
                        RED=
201912200500 METAR LRTZ 200500Z VRB03KT 0100 FG VV002 07/07 Q1022 RED
                        RED=
201912200600 METAR LRTZ 200600Z VRB03KT 0300 FG VV002 10/09 Q1022 RED
                        RED=
201912200700 METAR LRTZ 200700Z 18008KT 3000 BR SCT003 BKN005 OVC008 10/10
                        Q1021 YLO YLO=
201912200800 METAR LRTZ 200800Z 20010KT 4000 BR SCT003 BKN005 OVC008 11/10
                        Q1021 YLO YLO=
201912200900 METAR LRTZ 200900Z 20012KT 4000 BR BKN003 OVC007 11/10 Q1021
                        YLO YLO=
201912201000 METAR LRTZ 201000Z 20010KT 6000 BKN005 BKN200 11/10 Q1019
                        YLO YLO=
201912201100 METAR LRTZ 201100Z 20012KT 6000 SCT005 BKN200 12/10 Q1018
                        WHT WHT=
201912201200 METAR LRTZ 201200Z 20012KT 6000 SCT005 BKN200 12/11 Q1017
                        WHT WHT=
201912201300 METAR LRTZ 201300Z 21010KT 7000 SCT007 BKN200 13/10 Q1017
                        WHT WHT=
201912201400 METAR LRTZ 201400Z 22010KT 7000 FEW009 BKN180 11/10 Q1016
                        WHT WHT=
201912201500 METAR LRTZ 201500Z 22008KT 5000 BR BKN200 10/09 Q1016 WHT
                        GRN=
201912201600 METAR LRTZ 201600Z 21005KT 3000 BR BKN180 09/09 Q1016 YLO
                        YLO=
201912201700 METAR LRTZ 201700Z 21006KT 2000 BR BKN200 09/08 Q1016 YLO
                        YLO=
201912201800 METAR LRTZ 201800Z 20006KT 1600 BR BKN180 09/09 Q1015 YLO
                        AMB=
201912201900 METAR LRTZ 201900Z 21006KT 2000 BR BKN180 09/08 Q1015 YLO
                        YLO=
201912202000 METAR LRTZ 202000Z 22004KT 2000 BR SCT200 08/08 Q1015 YLO
                        YLO=
201912202100 METAR LRTZ 202100Z 23003KT 2000 BR SCT200 08/08 Q1014 YLO
                        AMB=
201912202300 METAR LRTZ 202300Z VRB03KT 1200 BR FEW200 07/07 Q1014 AMB
                        YLO=
201912210200 METAR LRTZ 210200Z VRB03KT 0800 FG SCT004 SCT200 05/05 Q1014
                        AMB AMB=
201912210500 METAR LRTZ 210500Z 23004KT 1500 BR SKC 05/05 Q1012 AMB AMB=
201912210600 METAR LRTZ 210600Z 23004KT 2000 BR FEW200 06/05 Q1012 YLO
                        YLO=
201912210700 METAR LRTZ 210700Z 23004KT 7000 FEW200 06/05 Q1012 WHT BLU=
201912210800 METAR LRTZ 210800Z 23006KT 9999 FEW200 09/08 Q1011 BLU BLU=
201912210900 METAR LRTZ 210900Z 23010KT 9999 BKN200 13/09 Q1011 BLU BLU=
201912211000 METAR LRTZ 211000Z 23010KT 9999 BKN200 14/10 Q1010 BLU BLU=
201912211100 METAR LRTZ 211100Z 22010KT 9999 BKN200 14/11 Q1010 BLU BLU=
201912211200 METAR LRTZ 211200Z 22010KT 9999 BKN200 14/11 Q1008 BLU BLU=
201912211300 METAR LRTZ 211300Z 22008KT 9999 BKN200 13/11 Q1008 BLU BLU=
201912211400 METAR LRTZ 211400Z 22008KT 9999 BKN200 13/10 Q1008 BLU BLU=
201912211500 METAR LRTZ 211500Z 22008KT 9999 OVC200 11/09 Q1007 BLU BLU=
201912211600 METAR LRTZ 211600Z 22008KT 9999 OVC200 10/09 Q1007 BLU BLU=
201912211700 METAR LRTZ 211700Z 19008KT 9999 OVC200 10/09 Q1007 BLU BLU=
201912211800 METAR LRTZ 211800Z 19008KT 9999 OVC200 10/09 Q1006 BLU BLU=
201912211900 METAR LRTZ 211900Z 18010KT 8000 OVC200 11/10 Q1006 BLU BLU=
201912220500 METAR LRTZ 220500Z 18014KT 9999 SCT100 12/09 Q1001 BLU BLU=
201912220600 METAR LRTZ 220600Z 18010KT 9999 FEW100 11/08 Q1001 BLU BLU=
201912220700 METAR LRTZ 220700Z 220010KT 9999 SKC 11/09 Q1001 BLU BLU=
201912220800 METAR LRTZ 220800Z 240016KT 9999 SKC 14/09 Q1001 BLU BLU=
201912220900 METAR LRTZ 220900Z 24016KT 9999 SKC 16/11 Q1001 BLU BLU=
201912221000 METAR LRTZ 221000Z 21018KT 9999 SKC 17/10 Q1000 BLU BLU=
201912221100 METAR LRTZ 221100Z 21016KT 9999 FEW200 18/12 Q1000 BLU BLU=
201912221200 METAR LRTZ 221200Z 21014KT 9999 SCT200 18/12 Q0999 BLU BLU=
201912221300 METAR LRTZ 221300Z 21014KT 9999 BKN200 17/11 Q0999 BLU BLU=
201912221400 METAR LRTZ 221400Z 18006KT 9999 BKN200 14/11 Q0999 BLU BLU=
201912221500 METAR LRTZ 221500Z 21008KT 9999 BKN200 13/10 Q0998 BLU BLU=
201912221600 METAR LRTZ 221600Z 21014KT 9999 BKN200 14/11 Q0998 BLU BLU=
201912221700 METAR LRTZ 221700Z 21016KT 9999 BKN200 15/11 Q0997 BLU BLU=
201912221800 METAR LRTZ 221800Z 18016KT 9999 BKN200 14/11 Q0997 BLU BLU=
201912221900 METAR LRTZ 221900Z 18018KT 9999 SCT040 BKN100 15/10 Q0997
                        BLU BLU=
201912222000 METAR LRTZ 222000Z 18020KT 9999 SCT035 BKN100 14/11 Q0997
                        BLU BLU=
201912222100 METAR LRTZ 222100Z 18020KT 9999 BKN035 BKN070 14/11 Q0996
                        BLU BLU=
201912222200 METAR LRTZ 222200Z 18016G26KT 9999 BKN025 OVC070 14/11 Q0996
                        BLU BLU=
201912222300 METAR LRTZ 222300Z 18016G26KT 9999 BKN025 OVC070 14/11 Q0995
                        BLU BLU=
201912230000 METAR LRTZ 230000Z 18018G28KT 9999 BKN025 OVC070 13/11 Q0994
                        BLU BLU=
201912230100 METAR LRTZ 230100Z 18018G28KT 9999 BKN025 OVC070 13/11 Q0994
                        BLU BLU=
201912230400 METAR LRTZ 230400Z 18022G32KT 9999 SCT025 BKN100 14/10 Q0992
                        BLU BLU=
201912230500 METAR LRTZ 230500Z 18020G30KT 9999 SCT045 BKN100 14/10 Q0992
                        BLU BLU=
201912230600 METAR LRTZ 230600Z 18016G26KT 9999 SCT040 BKN100 13/10 Q0992
                        BLU BLU=
201912230700 METAR LRTZ 230700Z 18020KT 9999 SCT045 BKN100 13/10 Q0992
                        BLU BLU=
201912230800 METAR LRTZ 230800Z 18020KT 9999 SCT045 BKN100 13/10 Q0992
                        BLU BLU=
201912230900 METAR LRTZ 230900Z 18016KT 9999 SCT045 BKN100 13/10 Q0992
                        BLU BLU=
201912231000 METAR LRTZ 231000Z 18016KT 9999 SCT045 BKN100 14/10 Q0992
                        BLU BLU=
201912231100 METAR LRTZ 231100Z 19016KT 9999 SCT025 BKN100 14/10 Q0992
                        BLU BLU=
201912231200 METAR LRTZ 231200Z 21016KT 9999 SCT025 BKN090 14/11 Q0992
                        BLU BLU=
201912231300 METAR LRTZ 231300Z 21016KT 9999 SCT025 BKN090 14/11 Q0991
                        BLU BLU=
201912231400 METAR LRTZ 231400Z 21016KT 9999 SCT025 BKN090 12/10 Q0992
                        BLU BLU=
201912231500 METAR LRTZ 231500Z 24016KT 9999 SCT025 BKN090 10/09 Q0992
                        BLU BLU=
201912231600 METAR LRTZ 231600Z 24010KT 9999 SCT025 BKN090 09/08 Q0993
                        BLU BLU=
201912231700 METAR LRTZ 231700Z 27010KT 9999 SCT025 BKN090 09/08 Q0993
                        BLU BLU=
201912231800 METAR LRTZ 231800Z 27010KT 9999 SCT025 BKN090 08/07 Q0994
                        BLU BLU=
201912231900 METAR LRTZ 231900Z 28010KT 9999 SCT025 BKN090 08/07 Q0994
                        BLU BLU=
201912232000 METAR LRTZ 232000Z 33007KT 5000 -RA BR BKN002 OVC020 06/05
                        Q0994 AMB AMB=
201912232100 METAR LRTZ 232100Z 28010KT 9999 SCT020 BKN090 09/07 Q0995
                        BLU BLU=
201912232200 METAR LRTZ 232200Z 28010KT 9999 SCT020 BKN090 09/07 Q0995
                        BLU BLU=
201912232300 METAR LRTZ 232300Z 28010KT 9999 SCT020 BKN090 09/07 Q0995
                        BLU BLU=
201912240500 METAR LRTZ 240500Z 30010KT 9999 SCT020 BKN090 07/05 Q0998
                        BLU BLU=
201912240600 METAR LRTZ 240600Z 30012KT 9999 BKN020 BKN090 07/04 Q0998
                        WHT WHT=
201912240700 METAR LRTZ 240700Z 30014KT 9999 BKN040 07/05 Q0999 BLU BLU=
201912240800 METAR LRTZ 240800Z 30014KT 9999 OVC050 07/05 Q1000 BLU BLU=
201912240900 METAR LRTZ 240900Z 30014KT 9999 OVC050 07/05 Q1000 BLU BLU=
201912241000 METAR LRTZ 241000Z 30016KT 9999 OVC050 07/05 Q1000 BLU BLU=
201912241100 METAR LRTZ 241100Z 30014KT 9999 OVC050 07/05 Q1000 BLU BLU=
201912241200 METAR LRTZ 241200Z 30014KT 9999 OVC035 07/05 Q1000 BLU BLU=
201912241300 METAR LRTZ 241300Z 30014KT 9999 OVC035 07/05 Q1001 BLU BLU=
201912241400 METAR LRTZ 241400Z 30014KT 8000 OVC035 07/06 Q1001 BLU BLU=
201912241500 METAR LRTZ 241500Z 30014KT 8000 OVC030 07/06 Q1001 BLU BLU=
201912241600 METAR LRTZ 241600Z 32012KT 5000 -DZ BR BKN015 OVC020 07/06
                        Q1002 WHT GRN=
201912241700 METAR LRTZ 241700Z 32012KT 6000 -DZ FEW005 BKN007 OVC010
                        08/07 Q1002 GRN GRN=
201912241800 METAR LRTZ 241800Z 32010G20KT 5000 BR BKN005 OVC010 08/07
                        Q1002 YLO YLO=
201912241900 METAR LRTZ 241900Z 32010G20KT 4000 -RA BR BKN012 OVC020 08/07
                        Q1003 GRN GRN=
201912242000 METAR LRTZ 242000Z 32010G20KT 4000 -RA BR BKN012 OVC020 08/07
                        Q1003 GRN GRN=
201912242100 METAR LRTZ 242100Z 32010G20KT 4000 -DZ BR BKN012 OVC020 08/07
                        Q1003 GRN GRN=
201912242300 METAR LRTZ 242300Z 32014KT 5000 BR BKN015 OVC020 08/06 Q1003
                        WHT BLU=
201912250400 METAR LRTZ 250400Z 32014KT 9999 BKN050 OVC100 06/05 Q1004
                        BLU BLU=
201912250600 METAR LRTZ 250600Z 32016KT 9999 OVC080 06/04 Q1004 BLU BLU=
201912250700 METAR LRTZ 250700Z 30016KT 9999 BKN100 06/04 Q1005 BLU BLU=
201912250800 METAR LRTZ 250800Z 30016KT 9999 BKN100 07/04 Q1006 BLU BLU=
201912250900 METAR LRTZ 250900Z 30016KT 9999 BKN100 07/04 Q1006 BLU BLU=
201912251000 METAR LRTZ 251000Z 30018KT 9999 BKN100 07/04 Q1006 BLU BLU=
201912251100 METAR LRTZ 251100Z 31018KT 9999 BKN100 08/04 Q1006 BLU BLU=
201912251200 METAR LRTZ 251200Z 33018KT 9999 FEW050 BKN100 08/05 Q1006
                        BLU BLU=
201912251300 METAR LRTZ 251300Z 33018KT 9999 FEW030 BKN090 08/05 Q1006
                        BLU BLU=
201912251400 METAR LRTZ 251400Z 33018KT 9999 FEW030 BKN090 07/04 Q1006
                        BLU BLU=
201912251500 METAR LRTZ 251500Z 33012KT 9999 BKN080 06/04 Q1007 BLU BLU=
201912251600 METAR LRTZ 251600Z 33012KT 9999 BKN080 06/04 Q1007 BLU BLU=
201912251700 METAR LRTZ 251700Z 33012KT 9999 BKN100 04/03 Q1007 BLU BLU=
201912251800 METAR LRTZ 251800Z 33012KT 9999 BKN100 05/03 Q1007 BLU BLU=
201912251900 METAR LRTZ 251900Z 33012KT 9999 BKN100 04/03 Q1008 BLU BLU=
201912252000 METAR LRTZ 252000Z 33010KT 9999 BKN100 05/03 Q1008 BLU BLU=
201912252100 METAR LRTZ 252100Z 33010KT 9999 BKN100 05/04 Q1008 BLU BLU=
201912252200 METAR LRTZ 252200Z 33010KT 9999 BKN100 05/04 Q1008 BLU BLU=
201912252300 METAR LRTZ 252300Z 33010KT 9999 BKN100 05/04 Q1009 BLU BLU=
201912260400 METAR LRTZ 260400Z 33010KT 9999 SCT090 BKN150 03/01 Q1010
                        BLU BLU=
201912260500 METAR LRTZ 260500Z 33008KT 9999 SCT090 BKN150 02/00 Q1010
                        BLU BLU=
201912260600 METAR LRTZ 260600Z 33008KT 9999 SCT090 BKN150 02/00 Q1010
                        BLU BLU=
201912260700 METAR LRTZ 260700Z 32008KT 9999 BKN095 BKN200 03/01 Q1012
                        BLU BLU=
201912260800 METAR LRTZ 260800Z 34012KT 9999 BKN090 BKN200 05/01 Q1012
                        BLU BLU=
201912260900 METAR LRTZ 260900Z 34014KT 9999 BKN090 06/00 Q1012 BLU BLU=
201912261000 METAR LRTZ 261000Z 34014KT 9999 SCT090 BKN200 07/00 Q1012
                        BLU BLU=
201912261100 METAR LRTZ 261100Z 33014KT 9999 SCT100 BKN200 08/01 Q1012
                        BLU BLU=
201912261200 METAR LRTZ 261200Z 33014KT 9999 FEW035 SCT100 08/M00 Q1012
                        BLU BLU=
201912261300 METAR LRTZ 261300Z 34014KT 9999 FEW035 SCT100 07/M00 Q1012
                        BLU BLU=
201912261400 METAR LRTZ 261400Z 33010KT 9999 FEW100 BKN200 06/01 Q1013
                        BLU BLU=
201912261500 METAR LRTZ 261500Z 30006KT 9999 SCT050 SCT100 04/01 Q1013
                        BLU BLU=
201912261600 METAR LRTZ 261600Z 32006KT 9999 SCT060 SCT100 04/01 Q1014
                        BLU BLU=
201912261700 METAR LRTZ 261700Z 30006KT 9999 SCT060 SCT100 04/02 Q1014
                        BLU BLU=
201912261800 METAR LRTZ 261800Z 29006KT 9999 SCT060 SCT100 05/02 Q1014
                        BLU BLU=
201912261900 METAR LRTZ 261900Z 30006KT 9999 SCT060 SCT100 04/03 Q1015
                        BLU BLU=
201912262000 METAR LRTZ 262000Z 29006KT 9999 SCT060 SCT100 05/03 Q1015
                        BLU BLU=
201912262100 METAR LRTZ 262100Z 30006KT 9999 SCT060 SCT100 05/03 Q1015
                        BLU BLU=
201912262300 METAR LRTZ 262300Z 31006KT 9999 SCT060 SCT100 04/02 Q1016
                        BLU BLU=
201912270300 METAR LRTZ 270300Z 28006KT 9999 SCT060 SCT100 03/01 Q1016
                        BLU BLU=
201912270400 METAR LRTZ 270400Z 29006KT 9999 SCT025 OVC050 04/01 Q1016
                        BLU BLU=
201912270500 METAR LRTZ 270500Z 30006KT 9999 SCT025 OVC060 04/02 Q1016
                        BLU BLU=
201912270600 METAR LRTZ 270600Z 30006KT 9999 SCT025 OVC060 04/02 Q1016
                        BLU BLU=
201912270700 METAR LRTZ 270700Z 30008KT 9999 SCT025 OVC080 04/02 Q1016
                        BLU BLU=
201912270800 METAR LRTZ 270800Z 30010KT 9999 SCT025 OVC080 04/01 Q1016
                        BLU BLU=
201912270900 METAR LRTZ 270900Z 30010KT 9999 SCT040 OVC080 05/01 Q1017
                        BLU BLU=
201912271000 METAR LRTZ 271000Z 30010KT 9999 SCT040 OVC080 05/01 Q1017
                        BLU BLU=
201912271100 METAR LRTZ 271100Z 30010KT 9999 SCT040 OVC090 05/01 Q1016
                        BLU BLU=
201912271200 METAR LRTZ 271200Z 30012KT 9999 SCT040 OVC090 05/01 Q1016
                        BLU BLU=
201912271300 METAR LRTZ 271300Z 30012KT 9999 SCT040 OVC090 05/01 Q1016
                        BLU BLU=
201912271500 METAR LRTZ 271500Z 30008KT 9999 SCT040 BKN090 03/01 Q1016
                        BLU BLU=
201912271600 METAR LRTZ 271600Z 32008KT 9999 SCT040 BKN090 03/01 Q1016
                        BLU BLU=
201912271700 METAR LRTZ 271700Z 30008KT 9999 SCT040 BKN090 03/01 Q1017
                        BLU BLU=
201912271800 METAR LRTZ 271800Z 30010KT 9999 SCT030 BKN090 03/01 Q1017
                        BLU BLU=
201912271900 METAR LRTZ 271900Z 30010KT 9999 SCT030 BKN090 02/01 Q1017
                        BLU BLU=
201912272000 METAR LRTZ 272000Z 30010KT 9999 SCT030 BKN090 02/01 Q1017
                        BLU BLU=
201912272100 METAR LRTZ 272100Z 30010KT 9999 SCT030 BKN090 02/01 Q1017
                        BLU BLU=
201912272300 METAR LRTZ 272300Z 30010KT 8000 SCT020 BKN090 02/01 Q1017
                        BLU WHT=
201912280400 METAR LRTZ 280400Z 30010KT 7000 SCT040 BKN090 00/M01 Q1017
                        WHT BLU=
201912280500 METAR LRTZ 280500Z 30010KT 9999 SCT040 BKN090 00/M02 Q1018
                        BLU BLU=
201912280600 METAR LRTZ 280600Z 30010KT 9999 SCT020 BKN040 OVC090 00/M02
                        Q1019 BLU BLU=
201912280700 METAR LRTZ 280700Z 31008KT 9999 SCT020 BKN040 BKN100 01/M00
                        Q1019 BLU WHT=
201912280800 METAR LRTZ 280800Z 33008KT 9999 FEW020 SCT040 BKN100 03/00
                        Q1019 BLU BLU=
201912280900 METAR LRTZ 280900Z 02012KT 9999 FEW020 SCT050 04/M03 Q1019
                        BLU BLU=
201912281000 METAR LRTZ 281000Z 35012KT 9999 FEW020 SCT060 05/M04 Q1019
                        BLU BLU=
201912281100 METAR LRTZ 281100Z 01012KT 9999 FEW020 SCT060 05/M03 Q1018
                        BLU BLU=
201912281200 METAR LRTZ 281200Z 36012KT 9999 FEW020 SCT060 05/M03 Q1018
                        BLU BLU=
201912281300 METAR LRTZ 281300Z 34012KT 9999 FEW020 SCT080 05/M02 Q1019
                        BLU BLU=
201912281500 METAR LRTZ 281500Z 30006KT 9999 FEW020 BKN050 01/M02 Q1019
                        BLU BLU=
201912281600 METAR LRTZ 281600Z 32004KT 9999 FEW020 SCT050 00/M02 Q1020
                        BLU BLU=
201912281700 METAR LRTZ 281700Z 30004KT 9999 FEW020 BKN045 00/M02 Q1020
                        BLU BLU=
201912281800 METAR LRTZ 281800Z 32004KT 9999 FEW020 BKN045 00/M02 Q1021
                        BLU BLU=
201912281900 METAR LRTZ 281900Z 33008KT 9999 SCT020 BKN040 02/M00 Q1021
                        BLU BLU=
201912282000 METAR LRTZ 282000Z 33010KT 9999 BKN020 OVC040 02/M00 Q1021
                        WHT WHT=
201912282100 METAR LRTZ 282100Z 32012KT 9999 BKN020 OVC040 02/M00 Q1021
                        WHT WHT=
201912282300 METAR LRTZ 282300Z 33012KT 9999 BKN020 OVC040 01/M01 Q1021
                        WHT WHT=
201912290400 METAR LRTZ 290400Z 35016KT 6000 -RASN SCT004 BKN019 OVC030
                        00/M02 Q1021 WHT WHT=
201912290500 METAR LRTZ 290500Z 33016KT 6000 -RASN BKN004 BKN015 OVC035
                        00/M00 Q1021 YLO YLO=
201912290600 METAR LRTZ 290600Z 33014KT 6000 -RASN BKN004 BKN015 OVC035
                        01/M01 Q1022 YLO YLO=
201912290700 METAR LRTZ 290700Z 35014KT 6000 -RASN BKN004 BKN020 BKN035
                        01/M01 Q1022 YLO YLO=
201912290800 METAR LRTZ 290800Z 35016KT 7000 -RASN SCT005 BKN020 BKN040
                        01/M01 Q1023 WHT WHT=
201912290900 METAR LRTZ 290900Z 36018KT 9999 SCT010 BKN020 02/00 Q1023
                        WHT WHT=
201912291000 METAR LRTZ 291000Z 36018KT 9999 SCT008 BKN015 BKN020 03/00
                        Q1023 WHT WHT=
201912291100 METAR LRTZ 291100Z 35018KT 9999 SCT008 BKN015 OVC020 03/01
                        Q1023 WHT WHT=
201912291200 METAR LRTZ 291200Z 35016KT 9999 -DZ SCT007 BKN013 OVC025
                        02/00 Q1023 GRN GRN=
201912291400 METAR LRTZ 291400Z 36016KT 9999 SCT007 BKN015 OVC020 02/00
                        Q1024 WHT WHT=
201912291500 METAR LRTZ 291500Z 36014KT 9999 SCT009 BKN013 OVC020 02/00
                        Q1024 GRN GRN=
201912291600 METAR LRTZ 291600Z 36014KT 9999 OVC008 02/00 Q1025 GRN GRN=
201912291700 METAR LRTZ 291700Z 36014KT 5000 -RASN BKN004 OVC008 01/00
                        Q1025 YLO YLO=
201912291800 METAR LRTZ 291800Z 36016KT 7000 -RASN BKN006 OVC008 02/00
                        Q1026 YLO YLO=
201912291900 METAR LRTZ 291900Z 36016KT 7000 -DZ BKN005 OVC008 01/00 Q1026
                        YLO YLO=
201912292000 METAR LRTZ 292000Z 36016KT 8000 BKN006 OVC008 02/01 Q1026
                        YLO YLO=
201912292100 METAR LRTZ 292100Z 01016KT 9999 BKN006 OVC008 02/00 Q1026
                        YLO YLO=
201912292200 METAR LRTZ 292200Z 01018KT 9999 BKN006 OVC008 02/00 Q1027
                        YLO GRN=
201912292300 METAR LRTZ 292300Z 02020KT 9999 BKN007 OVC010 02/00 Q1027
                        GRN GRN=
201912300400 METAR LRTZ 300400Z 02022KT 4000 -DZ BR BKN005 OVC007 03/01
                        Q1029 YLO YLO=
201912300500 METAR LRTZ 300500Z 02022KT 4000 -DZ BR BKN005 OVC007 03/01
                        Q1029 YLO YLO=
201912300600 METAR LRTZ 300600Z 03022KT 5000 BR BKN006 OVC009 03/01 Q1029
                        YLO GRN=
201912300700 METAR LRTZ 300700Z 03022KT 5000 BR BKN006 OVC008 03/01 Q1030
                        YLO GRN=
201912300800 METAR LRTZ 300800Z 03022KT 5000 BR BKN007 OVC008 03/01 Q1031
                        GRN GRN=
201912300900 METAR LRTZ 300900Z 03022KT 5000 BR BKN007 OVC008 03/01 Q1031
                        GRN GRN=
201912301000 METAR LRTZ 301000Z 03022KT 5000 BR BKN007 OVC008 03/01 Q1030
                        GRN GRN=
201912301100 METAR LRTZ 301100Z 03018G28KT 7000 BKN009 OVC015 03/00 Q1030
                        GRN WHT=
201912301200 METAR LRTZ 301200Z 03014G24KT 9999 SCT010 BKN020 03/M01 Q1031
                        WHT WHT=
201912301300 METAR LRTZ 301300Z 03012G22KT 9999 SCT010 BKN020 02/M01 Q1031
                        WHT WHT=
201912301400 METAR LRTZ 301400Z 03018KT 9999 SCT010 BKN020 02/M02 Q1031
                        WHT WHT=
201912301500 METAR LRTZ 301500Z 03018KT 9999 SCT010 BKN020 01/M02 Q1030
                        WHT WHT=
201912301600 METAR LRTZ 301600Z 03016KT 9999 SCT015 BKN025 01/M02 Q1031
                        BLU BLU=
201912301700 METAR LRTZ 301700Z 34016KT 9999 FEW015 BKN025 01/M02 Q1031
                        BLU BLU=
201912301800 METAR LRTZ 301800Z 33012KT 9999 BKN025 01/M02 Q1031 BLU BLU=
201912301900 METAR LRTZ 301900Z 33012KT 9999 BKN025 01/M03 Q1031 BLU BLU=
201912302000 METAR LRTZ 302000Z 32012KT 9999 BKN025 01/M03 Q1031 BLU BLU=
201912302100 METAR LRTZ 302100Z 32012KT 9999 SCT025 00/M03 Q1031 BLU BLU=
201912302300 METAR LRTZ 302300Z 32012KT 9999 SKC M01/M05 Q1031 BLU BLU=
201912310300 METAR LRTZ 310300Z 33010KT 9999 SKC M03/M06 Q1029 BLU BLU=
201912310400 METAR LRTZ 310400Z 33010KT 9999 SKC M03/M06 Q1028 BLU BLU=
201912310500 METAR LRTZ 310500Z 33012KT 9999 SCT010 M02/M04 Q1027 BLU
                        WHT=
201912310600 METAR LRTZ 310600Z 33012KT 6000 SCT008 BKN015 M03/M04 Q1026
                        WHT WHT=
201912310700 METAR LRTZ 310700Z 32014KT 9999 SKC M02/M05 Q1026 BLU BLU=
201912310800 METAR LRTZ 310800Z 32014KT 9999 SKC M01/M04 Q1026 BLU BLU=
201912310900 METAR LRTZ 310900Z 32018KT 9999 SKC 01/M04 Q1025 BLU BLU=
201912311000 METAR LRTZ 311000Z 31018KT 9999 SKC 02/M04 Q1024 BLU BLU=
201912311100 METAR LRTZ 311100Z 30018KT 9999 SKC 04/M03 Q1023 BLU BLU=
201912311200 METAR LRTZ 311200Z 30018KT 9999 SKC 05/M04 Q1022 BLU BLU=
201912311300 METAR LRTZ 311300Z 29016KT 9999 SKC 05/M03 Q1021 BLU BLU=
201912311400 METAR LRTZ 311400Z 30016KT 9999 SCT200 03/M03 Q1021 BLU BLU=
201912311500 METAR LRTZ 311500Z 29014KT 9999 BKN200 02/M03 Q1020 BLU BLU=
201912311600 METAR LRTZ 311600Z 29016KT 9999 BKN200 02/M04 Q1020 BLU BLU=
201912311700 METAR LRTZ 311700Z 28016KT 9999 BKN120 02/M03 Q1019 BLU BLU=
201912311800 METAR LRTZ 311800Z 28014KT 9999 BKN100 02/M03 Q1019 BLU BLU=
201912311900 METAR LRTZ 311900Z 29010KT 9999 BKN060 OVC080 02/M03 Q1019
                        BLU BLU=
201912312000 METAR LRTZ 312000Z 31012KT 9999 -RA BKN050 OVC070 02/M01
                        Q1019 BLU BLU=
201912312100 METAR LRTZ 312100Z 31010KT 9999 -RA BKN050 OVC070 02/M01
                        Q1019 BLU BLU=
201912312200 METAR LRTZ 312200Z 31012KT 9999 -RA BKN050 OVC070 02/M01
                        Q1019 BLU BLU=
201912312300 METAR LRTZ 312300Z 31014KT 9999 BKN050 OVC070 02/M01 Q1020
                        BLU BLU=
