201812010000 METAR LRCK 010000Z 29007KT 9999 SCT043 M08/M09 Q1023 R36/910295
                        NOSIG=
201812010030 METAR LRCK 010030Z 29006KT 9999 BKN043 M07/M09 Q1023 R36/910295
                        NOSIG=
201812010100 METAR LRCK 010100Z 29010KT 9999 SCT043 M07/M09 Q1023 R36/910295
                        NOSIG=
201812010130 METAR LRCK 010130Z 29009KT 9999 SCT943 M08/M10 Q1022 R36/910295
                        NOSIG=
201812010200 METAR LRCK 010200Z 28008KT CAVOK M09/M10 Q1022 R36/910295
                        NOSIG=
201812010230 METAR LRCK 010230Z 27007KT CAVOK M10/M11 Q1022 R36/910295
                        NOSIG=
201812010300 METAR LRCK 010300Z 28009KT 8000 NSC M10/M11 Q1022 R36/910295
                        NOSIG=
201812010330 METAR LRCK 010330Z 28010KT 7000 NSC M10/M11 Q1022 R36/910295
                        NOSIG=
201812010400 METAR LRCK 010400Z 27010KT 7000 NSC M11/M12 Q1022 R36/910295
                        NOSIG=
201812010430 METAR LRCK 010430Z 28009KT 7000 NSC M11/M12 Q1022 R36/910295
                        NOSIG=
201812010500 METAR LRCK 010500Z 29009KT 7000 NSC M11/M12 Q1023 R36/910295
                        NOSIG=
201812010530 METAR LRCK 010530Z 29009KT 7000 NSC M11/M12 Q1023 R36/910295
                        NOSIG=
201812010600 METAR LRCK 010600Z 29009KT 7000 NSC M11/M13 Q1023 R36/910295
                        NOSIG=
201812010630 METAR LRCK 010630Z 29008KT 8000 NSC M10/M12 Q1023 R36/910295
                        NOSIG=
201812010700 METAR LRCK 010700Z 29010KT 8000 NSC M09/M11 Q1023 R36/910295
                        NOSIG=
201812010730 METAR LRCK 010730Z 29011KT 8000 NSC M08/M11 Q1023 R36/910295
                        NOSIG=
201812010800 METAR LRCK 010800Z 28011KT 8000 NSC M07/M10 Q1024 R36/910295
                        NOSIG=
201812010830 METAR LRCK 010830Z 27012KT 8000 NSC M06/M10 Q1023 R36/910295
                        NOSIG=
201812010900 METAR LRCK 010900Z 27012KT CAVOK M06/M10 Q1023 R36/910295
                        NOSIG=
201812010930 METAR LRCK 010930Z 27010KT CAVOK M05/M10 Q1023 R36/910295
                        NOSIG=
201812011000 METAR LRCK 011000Z 27011KT CAVOK M05/M09 Q1023 R36/910295
                        NOSIG=
201812011030 METAR LRCK 011030Z 26010KT CAVOK M05/M09 Q1023 R36/910295
                        NOSIG=
201812011100 METAR LRCK 011100Z 26010KT CAVOK M05/M09 Q1023 R36/910295
                        NOSIG=
201812011130 METAR LRCK 011130Z 26010KT CAVOK M04/M08 Q1023 R36/910295
                        NOSIG=
201812011200 METAR LRCK 011200Z 27009KT CAVOK M04/M08 Q1023 R36/910295
                        NOSIG=
201812011230 METAR LRCK 011230Z 27009KT CAVOK M04/M08 Q1023 R36/910295
                        NOSIG=
201812011300 METAR LRCK 011300Z 28008KT CAVOK M04/M09 Q1023 R36/910295
                        NOSIG=
201812011330 METAR LRCK 011330Z 27007KT CAVOK M04/M09 Q1023 R36/910295
                        NOSIG=
201812011400 METAR LRCK 011400Z 28007KT CAVOK M05/M09 Q1023 R36/910295
                        NOSIG=
201812011430 METAR LRCK 011430Z 29006KT CAVOK M05/M09 Q1023 R36/910295
                        NOSIG=
201812011500 METAR LRCK 011500Z 29007KT CAVOK M06/M10 Q1023 R36/910295
                        NOSIG=
201812011530 METAR LRCK 011530Z 29005KT CAVOK M07/M09 Q1023 R36/910295
                        NOSIG=
201812011600 METAR LRCK 011600Z 24002KT CAVOK M08/M10 Q1023 R36/910295
                        NOSIG=
201812011630 METAR LRCK 011630Z 27001KT CAVOK M07/M10 Q1023 R36/910295
                        NOSIG=
201812011700 METAR LRCK 011700Z 21004KT 8000 NSC M08/M10 Q1023 R18/910295
                        NOSIG=
201812011730 METAR LRCK 011730Z 23005KT 8000 NSC M09/M11 Q1023 R18/910295
                        NOSIG=
201812011800 METAR LRCK 011800Z 25005KT 5000 BR NSC M09/M11 Q1023 R18/910295
                        NOSIG=
201812011830 METAR LRCK 011830Z 27004KT 260V330 4000 MIFG BR NSC M09/M11
                        Q1023 R18/910295 NOSIG=
201812011900 METAR LRCK 011900Z 26005KT 5000 MIFG BR NSC M08/M10 Q1024
                        R18/910295 NOSIG=
201812011930 METAR LRCK 011930Z 25005KT 5000 MIFG BR NSC M07/M10 Q1024
                        R18/910295 NOSIG=
201812012000 METAR LRCK 012000Z 25004KT 6000 NSC M07/M10 Q1023 R18/910295
                        NOSIG=
201812012030 METAR LRCK 012030Z 29002KT 6000 NSC M09/M11 Q1023 R18/910295
                        NOSIG=
201812012100 METAR LRCK 012100Z VRB01KT 5000 BR NSC M08/M09 Q1024 R18/910295
                        NOSIG=
201812012130 METAR LRCK 012130Z 31004KT 5000 BR NSC M09/M11 Q1024 R18/910295
                        NOSIG=
201812012200 METAR LRCK 012200Z 30005KT 6000 NSC M09/M11 Q1024 R18/910295
                        NOSIG=
201812012230 METAR LRCK 012230Z 28007KT 7000 NSC M08/M10 Q1024 R18/910295
                        NOSIG=
201812012300 METAR LRCK 012300Z 28008KT 7000 NSC M07/M10 Q1023 R18/910295
                        NOSIG=
201812012330 METAR LRCK 012330Z 29007KT 8000 NSC M07/M10 Q1023 R18/910295
                        NOSIG=
201812020000 METAR LRCK 020000Z 29007KT CAVOK M07/M10 Q1023 R18/910295
                        NOSIG=
201812020030 METAR LRCK 020030Z 29007KT CAVOK M07/M10 Q1023 R18/910295
                        NOSIG=
201812020100 METAR LRCK 020100Z 29007KT CAVOK M07/M10 Q1023 R18/910295
                        NOSIG=
201812020130 METAR LRCK 020130Z 28007KT CAVOK M07/M10 Q1023 R18/910295
                        NOSIG=
201812020200 METAR LRCK 020200Z 29008KT 8000 NSC M07/M09 Q1023 R18/910295
                        NOSIG=
201812020230 METAR LRCK 020230Z 28008KT 6000 NSC M07/M09 Q1023 R18/910295
                        NOSIG=
201812020300 METAR LRCK 020300Z 28007KT 6000 NSC M07/M09 Q1023 R18/910295
                        NOSIG=
201812020330 METAR LRCK 020330Z 28007KT 5000 BR NSC M08/M09 Q1023 R18/910295
                        NOSIG=
201812020400 METAR LRCK 020400Z 29007KT 5000 BR NSC M08/M09 Q1023 R18/910295
                        NOSIG=
201812020430 METAR LRCK 020430Z 28007KT 5000 BR NSC M08/M09 Q1023 R18/910295
                        NOSIG=
201812020500 METAR LRCK 020500Z 29008KT 5000 BR SCT023 M07/M09 Q1023 R18/910295
                        NOSIG=
201812020530 METAR LRCK 020530Z 29008KT 5000 BR BKN023 M07/M09 Q1023 R18/910295
                        NOSIG=
201812020600 METAR LRCK 020600Z 29007KT 5000 BR BKN022 M07/M09 Q1024 R18/910295
                        NOSIG=
201812020630 METAR LRCK 020630Z 29008KT 5000 BR BKN021 M07/M09 Q1024 R18/910295
                        NOSIG=
201812020700 METAR LRCK 020700Z 29009KT 5000 BR SCT021 M06/M08 Q1024 R18/910295
                        NOSIG=
201812020730 METAR LRCK 020730Z 29009KT 5000 BR FEW020 M06/M08 Q1024 R18/910295
                        NOSIG=
201812020800 METAR LRCK 020800Z 29010KT 6000 FEW020 M05/M08 Q1024 R18/910295
                        NOSIG=
201812020830 METAR LRCK 020830Z 29008KT 7000 FEW021 M04/M07 Q1024 R18/910295
                        NOSIG=
201812020900 METAR LRCK 020900Z 29007KT 8000 NSC M03/M07 Q1024 R18/910295
                        NOSIG=
201812020930 METAR LRCK 020930Z 29007KT 8000 NSC M02/M07 Q1024 R18/910295
                        NOSIG=
201812021000 METAR LRCK 021000Z 28008KT 6000 NSC M02/M06 Q1024 R18/910295
                        NOSIG=
201812021030 METAR LRCK 021030Z 29010KT 8000 BR NSC M03/M06 Q1024 R18/910295
                        NOSIG=
201812021100 METAR LRCK 021100Z 28007KT 8000 NSC M02/M06 Q1023 R18/910295
                        NOSIG=
201812021130 METAR LRCK 021130Z 28007KT CAVOK M02/M06 Q1023 R18/910295
                        NOSIG=
201812021200 METAR LRCK 021200Z 28009KT CAVOK M02/M06 Q1023 R18/910295
                        NOSIG=
201812021230 METAR LRCK 021230Z 28008KT CAVOK M02/M05 Q1023 R36/910295
                        NOSIG=
201812021300 METAR LRCK 021300Z 28007KT CAVOK M03/M06 Q1023 R36/910295
                        NOSIG=
201812021330 METAR LRCK 021330Z 28006KT 8000 NSC M03/M06 Q1023 R36/910295
                        NOSIG=
201812021400 METAR LRCK 021400Z 27006KT 8000 NSC M03/M07 Q1023 R36/910295
                        NOSIG=
201812021430 METAR LRCK 021430Z 29007KT 8000 NSC M03/M07 Q1023 R36/910295
                        NOSIG=
201812021500 METAR LRCK 021500Z 29007KT 7000 NSC M04/M06 Q1023 R36/910295
                        NOSIG=
201812021530 METAR LRCK 021530Z 30008KT 7000 NSC M04/M06 Q1023 R36/910295
                        NOSIG=
201812021600 METAR LRCK 021600Z 30007KT 5000 BR NSC M04/M07 Q1023 R36/910295
                        NOSIG=
201812021630 METAR LRCK 021630Z 30007KT 5000 BR NSC M05/M07 Q1023 R36/910295
                        BECMG 3000 BR=
201812021700 METAR LRCK 021700Z 29006KT 4500 BR NSC M05/M07 Q1023 R36/910295
                        BECMG 3000 BR=
201812021730 METAR LRCK 021730Z 30006KT 4000 BR NSC M05/M07 Q1023 R36/910295
                        BECMG 3000 BR=
201812021800 METAR LRCK 021800Z 27006KT 3000 BR NSC M07/M08 Q1023 R36/910295
                        NOSIG=
201812021830 METAR LRCK 021830Z 27006KT 2000 BR NSC M07/M08 Q1023 R36/910295
                        NOSIG=
201812021900 METAR LRCK 021900Z 26006KT 2500 BR NSC M07/M08 Q1023 R36/910295
                        NOSIG=
201812021930 METAR LRCK 021930Z 27005KT 3000 BR NSC M08/M09 Q1023 R36/910295
                        NOSIG=
201812022000 METAR LRCK 022000Z 28006KT 2000 BR NSC M07/M08 Q1023 R36/910295
                        NOSIG=
201812022030 METAR LRCK 022030Z 30007KT 1500 BR NSC M06/M08 Q1022 R36/910295
                        NOSIG=
201812022100 METAR LRCK 022100Z 29006KT 1500 BR NSC M07/M08 Q1022 R36/910295
                        NOSIG=
201812022130 METAR LRCK 022130Z 27004KT 1500 BR NSC M07/M08 Q1022 R36/910295
                        NOSIG=
201812022200 METAR LRCK 022200Z 27005KT 1500 BR NSC M08/M09 Q1022 R36/910295
                        NOSIG=
201812022230 METAR LRCK 022230Z 25005KT 2000 BR NSC M07/M08 Q1022 R36/910295
                        NOSIG=
201812022300 METAR LRCK 022300Z 26005KT 2500 BR NSC M07/M08 Q1022 R36/910295
                        NOSIG=
201812022330 METAR LRCK 022330Z 27007KT 2500 BR SCT002 M07/M09 Q1022 R36/910295
                        NOSIG=
201812030000 METAR LRCK 030000Z 28006KT 1500 BR SCT002 BKN005 M05/M06
                        Q1022 R36/910295 NOSIG=
201812030030 METAR LRCK 030030Z 30008KT 1500 BR BKN004 M04/M05 Q1021 R36/910295
                        NOSIG=
201812030100 METAR LRCK 030100Z 30006KT 4000 BR BKN004 M04/M05 Q1021 R36/910295
                        NOSIG=
201812030130 METAR LRCK 030130Z 28006KT 5000 BR BKN004 M02/M04 Q1021 R36/910295
                        NOSIG=
201812030200 METAR LRCK 030200Z 26004KT 4000 BR BKN003 M01/M02 Q1021 R36/910295
                        NOSIG=
201812030230 METAR COR LRCK 030230Z 26005KT 0800 R36/1200D FZFG BKN001
                        M01/M02 Q1020 R36/910295 BECMG 0600
                        FZFG=
201812030300 METAR LRCK 030300Z 25004KT 0150 R36/0450N FZFG VV002 M01/M01
                        Q1020 R36/910295 BECMG OVC001=
201812030330 METAR LRCK 030330Z 26005KT 0150 R36/0400N FZFG VV001 M01/M01
                        Q1020 R36/910295 NOSIG=
201812030400 METAR LRCK 030400Z 25004KT 0250 R36/0750N FZFG VV002 M01/M01
                        Q1020 R36/910295 NOSIG=
201812030430 METAR LRCK 030430Z 24004KT 0250 R36/0450N FZFG VV002 M01/M01
                        Q1020 R36/910295 NOSIG=
201812030500 METAR LRCK 030500Z 23004KT 0250 R36/0550N FZFG BKN002 OVC005
                        M01/M01 Q1020 R36/910295 BECMG 0600
                        SCT002 OVC005=
201812030530 METAR LRCK 030530Z 15004KT 0150 R36/0275N FZFG VV002 M02/M02
                        Q1020 R36/910295 NOSIG=
201812030600 METAR LRCK 030600Z 16003KT 0100 R18/0250N R36/0175N FZFG
                        VV002 M02/M03 Q1020 R18/910295 NOSIG=
201812030630 METAR LRCK 030630Z 23003KT 0100 R18/0225N FZFG VV001 M02/M02
                        Q1020 R18/910295 NOSIG=
201812030700 METAR LRCK 030700Z 26005KT 220V300 0100 R18/0325N FZFG VV002
                        M01/M01 Q1020 R18/910295 NOSIG=
201812030730 METAR LRCK 030730Z 27006KT 0100 R18/0250N FZFG VV002 M01/M01
                        Q1020 R18/910295 NOSIG=
201812030800 METAR LRCK 030800Z 25005KT 0100 R18/0325N FZFG VV001 M00/M00
                        Q1020 R18/910295 NOSIG=
201812030830 METAR COR LRCK 030830Z 28004KT 0200 R18/0550N FG VV001 00/00
                        Q1020 R18/910295 BECMG 0800=
201812030900 METAR LRCK 030900Z 27003KT 0800 R18/1200D FG VV001 01/01
                        Q1020 R18/910295 BECMG 1500 BR BKN005=
201812030930 METAR COR LRCK 030930Z 26004KT 0200 R18/0450N R36/0250N FG
                        VV001 01/01 Q1019 R18/910295 NOSIG=
201812031000 METAR LRCK 031000Z 27005KT 0200 R18/0300N R36/0275N FG VV001
                        01/01 Q1019 R18/910295 NOSIG=
201812031030 METAR LRCK 031030Z 26006KT 0350 R18/0800U R36/0600D FG VV001
                        02/02 Q1019 R18/910295 NOSIG=
201812031100 METAR LRCK 031100Z 24007KT 0200 R18/0250N R36/0350N FG VV001
                        01/01 Q1019 R18/910295 NOSIG=
201812031130 METAR COR LRCK 031130Z 26006KT 0150 R18/0200N R36/0375N FG
                        VV001 01/01 Q1018 R18/910295 NOSIG=
201812031200 METAR LRCK 031200Z 25005KT 0200 R18/0225N R36/0400N FG VV001
                        01/01 Q1018 R18/910295 NOSIG=
201812031230 METAR LRCK 031230Z 27001KT 0200 R18/0225N R36/0275N FG VV001
                        01/01 Q1018 R18/910295 NOSIG=
201812031300 METAR LRCK 031300Z VRB01KT 0100 R18/0225N FG VV001 01/01
                        Q1018 R18/910295 NOSIG=
201812031330 METAR LRCK 031330Z VRB01KT 0200 R18/0750U R36/0400U FG SCT002
                        BKN025 00/00 Q1018 R18/910295 NOSIG=
201812031400 METAR LRCK 031400Z 27005KT 0800 R18/1000U R36/1700N FG FEW002
                        SCT025 01/01 Q1018 R18/910295 NOSIG=
201812031430 METAR LRCK 031430Z 25004KT 220V280 1500 BR FEW002 SCT024
                        00/00 Q1018 R18/910295 TEMPO 3000=
201812031500 METAR LRCK 031500Z 21004KT 1500 BR FEW002 SCT024 M00/M00
                        Q1017 R18/910295 NOSIG=
201812031530 METAR LRCK 031530Z 16006KT 110V190 1500 BR SCT024 M00/M00
                        Q1017 R18/910295 BECMG 0800 FZFG=
201812031600 METAR LRCK 031600Z 12004KT 0800 R18/0900D R36/1000D FZFG
                        FEW002 M01/M01 Q1017 R18/910295 BECMG
                        0600 FZFG VV001=
201812031630 METAR LRCK 031630Z 23003KT 180V260 1500 BR SCT002 M01/M01
                        Q1018 R18/910295 NOSIG=
201812031700 METAR LRCK 031700Z 22003KT 180V260 1500 BR NSC M00/M00 Q1018
                        R18/910295 NOSIG=
201812031730 METAR LRCK 031730Z 25004KT 1500 BR NSC M01/M01 Q1018 R18/910295
                        NOSIG=
201812031800 METAR LRCK 031800Z 25003KT 210V280 0800 R18/0550N R36/2000
                        FZFG NSC M02/M02 Q1018 R18/910295
                        BECMG 0300 FZFG VV001=
201812031830 METAR LRCK 031830Z 22003KT 0600 R18/0550U R36/1000U FZFG
                        NSC M03/M03 Q1017 R18/910295 BECMG
                        0300 FZFG VV001=
201812031900 METAR LRCK 031900Z 17006KT 1500 BCFG BR NSC M00/M00 Q1017
                        R18/910295 NOSIG=
201812031930 METAR LRCK 031930Z 20005KT 170V230 0800 R18/1000N R36/2000
                        FZFG NSC M01/M01 Q1017 R18/910295
                        NOSIG=
201812032000 METAR LRCK 032000Z 25004KT 210V270 1500 BCFG BR BKN025 M02/M02
                        Q1017 R18/910295 NOSIG=
201812032030 METAR LRCK 032030Z 19004KT 170V240 2000 BR SCT025 M02/M02
                        Q1017 R18/910295 NOSIG=
201812032100 METAR LRCK 032100Z 18004KT 3000 BR SCT025 M02/M02 Q1017 R18/910295
                        NOSIG=
201812032130 METAR LRCK 032130Z 17004KT 1500 BCFG BR FEW025 M02/M02 Q1017
                        R18/910295 NOSIG=
201812032200 METAR LRCK 032200Z 28006KT 0800 R18/0800D R36/0350N FZFG
                        BKN001 M03/M03 Q1016 R18/910295 TEMPO
                        0350 FZFG VV001=
201812032230 METAR LRCK 032230Z 27003KT 0100 R18/0275N R36/0350N FZFG
                        SCT002 M04/M04 Q1016 R18/910295 NOSIG=
201812032300 METAR LRCK 032300Z 27007KT 0400 R18/0450U R36/1400U FZFG
                        SCT001 M04/M04 Q1016 R18/910295 NOSIG=
201812032330 METAR LRCK 032330Z 27007KT 0100 R18/0450N R36/0500N FZFG
                        BKN001 M03/M03 Q1016 R18/910295 NOSIG=
201812040000 METAR LRCK 040000Z 28006KT 0100 R18/0375N R36/0450N FZFG
                        VV001 M03/M03 Q1016 R18/910295 NOSIG=
201812040030 METAR LRCK 040030Z 28005KT 0300 R18/0450N R36/0750U FZFG
                        SCT002 M03/M03 Q1016 R18/910295 NOSIG=
201812040100 METAR COR LRCK 040100Z 28005KT 0500 R18/0550U R36/0800U FZFG
                        BKN025 M02/M02 Q1016 R18/910295 NOSIG=
201812040130 METAR LRCK 040130Z 30002KT 1500 BR BKN024 M02/M02 Q1015 R18/910295
                        NOSIG=
201812040200 METAR LRCK 040200Z VRB02KT 3000 BR BKN024 M02/M02 Q1015 R18/910295
                        NOSIG=
201812040230 METAR COR LRCK 040230Z VRB02KT 5000 BR BKN024 M01/M01 Q1015
                        R18/910295 NOSIG=
201812040300 METAR LRCK 040300Z 27004KT 4000 BR BKN023 M01/M01 Q1015 R18/910295
                        NOSIG=
201812040330 METAR LRCK 040330Z 27006KT 3000 BR BKN023 M01/M01 Q1015 R18/910295
                        NOSIG=
201812040400 METAR LRCK 040400Z 27008KT 4000 BR BKN024 M01/M01 Q1015 R18/910295
                        NOSIG=
201812040430 METAR LRCK 040430Z 28007KT 3000 BR BKN024 M01/M01 Q1015 R18/910295
                        NOSIG=
201812040500 METAR LRCK 040500Z 28007KT 2000 BR BKN024 M01/M01 Q1015 R18/910295
                        NOSIG=
201812040530 METAR LRCK 040530Z 28005KT 2000 BR BKN023 M01/M01 Q1015 R18/910295
                        NOSIG=
201812040600 METAR LRCK 040600Z 27006KT 2000 BR BKN022 M01/M01 Q1015 R18/910295
                        NOSIG=
201812040630 METAR LRCK 040630Z 28006KT 2200 BR BKN022 M00/M00 Q1015 R18/910295
                        NOSIG=
201812040700 METAR LRCK 040700Z 28004KT 2000 BR BKN023 00/00 Q1015 R18/910295
                        NOSIG=
201812040730 METAR LRCK 040730Z 27006KT 2000 BR BKN025 01/01 Q1015 R18/910295
                        NOSIG=
201812040800 METAR LRCK 040800Z 28005KT 2000 BR BKN024 01/01 Q1015 R18/910295
                        NOSIG=
201812040830 METAR COR LRCK 040830Z 28005KT 1500 BR BKN024 02/02 Q1015
                        R18/CLRD// NOSIG=
201812040900 METAR LRCK 040900Z 28005KT 250V310 1700 BR BKN022 02/01 Q1015
                        NOSIG=
201812040930 METAR COR LRCK 040930Z 31005KT 2000 BR SCT014 BKN022 02/02
                        Q1015 NOSIG=
201812041000 METAR LRCK 041000Z 30005KT 2000 BR FEW017 BKN024 02/02 Q1015
                        NOSIG=
201812041030 METAR LRCK 041030Z 33004KT 2500 BR BKN022 03/02 Q1015 NOSIG=
201812041100 METAR LRCK 041100Z 32004KT 290V350 5000 BR BKN022 04/03 Q1015
                        NOSIG=
201812041130 METAR LRCK 041130Z 30004KT 4000 BR BKN022 04/03 Q1014 NOSIG=
201812041200 METAR LRCK 041200Z 31004KT 3000 BR BKN022 04/03 Q1014 NOSIG=
201812041230 METAR LRCK 041230Z 34004KT 3000 BR BKN021 04/03 Q1014 NOSIG=
201812041300 METAR LRCK 041300Z 34004KT 280V030 4000 BR BKN021 03/02 Q1014
                        NOSIG=
201812041330 METAR LRCK 041330Z 33004KT 300V360 3000 BR BKN022 03/02 Q1014
                        NOSIG=
201812041400 METAR LRCK 041400Z 32004KT 2000 BR BKN023 03/02 Q1014 NOSIG=
201812041430 METAR LRCK 041430Z 29005KT 2000 BR OVC022 02/01 Q1014 NOSIG=
201812041500 METAR LRCK 041500Z 27004KT 1500 BR OVC021 02/01 Q1014 NOSIG=
201812041530 METAR LRCK 041530Z 30005KT 1500 BR OVC021 02/01 Q1014 NOSIG=
201812041600 METAR LRCK 041600Z 29005KT 1500 BR OVC022 02/01 Q1015 NOSIG=
201812041630 METAR LRCK 041630Z 30006KT 1500 BR OVC021 02/01 Q1015 NOSIG=
201812041700 METAR LRCK 041700Z 29007KT 1500 BR OVC023 02/01 Q1015 NOSIG=
201812041730 METAR LRCK 041730Z 31006KT 1500 BR OVC024 01/01 Q1015 NOSIG=
201812041800 METAR LRCK 041800Z 32005KT 1500 BR BKN025 01/00 Q1015 NOSIG=
201812041830 METAR LRCK 041830Z 33004KT 1500 BR SCT025 01/00 Q1015 NOSIG=
201812041900 METAR LRCK 041900Z 27004KT 1500 BR SCT025 01/00 Q1015 NOSIG=
201812041930 METAR LRCK 041930Z 29007KT 1500 BR SCT027 00/M00 Q1015 NOSIG=
201812042000 METAR LRCK 042000Z 28008KT 1500 BR SCT028 M00/M01 Q1015 NOSIG=
201812042030 METAR LRCK 042030Z 30009KT 1500 BR SCT030 M00/M00 Q1015 NOSIG=
201812042100 METAR LRCK 042100Z 30007KT 1500 BR BKN025 01/00 Q1015 NOSIG=
201812042130 METAR LRCK 042130Z 29007KT 1500 BR BKN025 00/M00 Q1015 NOSIG=
201812042200 METAR LRCK 042200Z 29009KT 1500 BR SCT027 00/M00 Q1015 NOSIG=
201812042230 METAR LRCK 042230Z 29009KT 1500 BR BKN026 00/M00 Q1015 NOSIG=
201812042300 METAR LRCK 042300Z 29009KT 1500 BR BKN024 00/M00 Q1015 NOSIG=
201812042330 METAR LRCK 042330Z 29010KT 1500 BR BKN023 00/M00 Q1015 NOSIG=
201812050000 METAR LRCK 050000Z 29012KT 1500 BR BKN021 00/M01 Q1015 NOSIG=
201812050030 METAR LRCK 050030Z 29012KT 1500 BR OVC022 M00/M01 Q1016 NOSIG=
201812050100 METAR LRCK 050100Z 29012KT 1500 BR OVC023 M00/M01 Q1015 NOSIG=
201812050130 METAR LRCK 050130Z 29012KT 1500 BR OVC022 M00/M01 Q1015 NOSIG=
201812050200 METAR LRCK 050200Z 29011KT 1500 BR OVC021 M00/M01 Q1015 NOSIG=
201812050230 METAR LRCK 050230Z 28013KT 1500 BR OVC025 M00/M01 Q1016 NOSIG=
201812050300 METAR LRCK 050300Z 28011KT 1500 BR OVC026 M00/M01 Q1016 NOSIG=
201812050330 METAR LRCK 050330Z 28012KT 1500 BR OVC026 M00/M01 Q1016 NOSIG=
201812050400 METAR LRCK 050400Z 29012KT 1500 BR OVC023 M01/M01 Q1016 NOSIG=
201812050430 METAR LRCK 050430Z 30012KT 1500 BR OVC023 M01/M01 Q1016 NOSIG=
201812050500 METAR LRCK 050500Z 29010KT 1500 BR OVC020 M01/M01 Q1017 NOSIG=
201812050530 METAR LRCK 050530Z 30013KT 1500 BR FEW003 OVC021 M00/M01
                        Q1017 NOSIG=
201812050600 METAR LRCK 050600Z 28012KT 1500 BR OVC020 00/M01 Q1017 NOSIG=
201812050630 METAR LRCK 050630Z 28011KT 1500 BR SCT005 OVC022 M00/M01
                        Q1018 NOSIG=
201812050700 METAR LRCK 050700Z 29011KT 1500 BR FEW006 OVC023 M00/M01
                        Q1018 NOSIG=
201812050730 METAR LRCK 050730Z 28013KT 1500 BR OVC024 M00/M01 Q1018 NOSIG=
201812050800 METAR LRCK 050800Z 28014KT 1200 R18/1500D R36/P2000 BR FEW003
                        BKN028 M01/M02 Q1018 BECMG 3000=
201812050830 METAR LRCK 050830Z 29011KT 1500 BR OVC027 M01/M02 Q1018 BECMG
                        3000=
201812050900 METAR LRCK 050900Z 28011KT 1500 BR OVC027 M01/M02 Q1018 BECMG
                        3000=
201812050930 METAR LRCK 050930Z 29012KT 2500 BR BKN027 M00/M02 Q1018 BECMG
                        3000=
201812051000 METAR LRCK 051000Z 29014KT 2500 BR BKN027 00/M01 Q1018 BECMG
                        3000=
201812051030 METAR LRCK 051030Z 30016KT 1500 BR FEW006 BKN026 01/M01 Q1017
                        BECMG 3000=
201812051100 METAR LRCK 051100Z 30012KT 1500 BR SCT016 OVC024 01/M01 Q1018
                        BECMG 3000=
201812051130 METAR LRCK 051130Z 31012KT 2500 BR BKN015 OVC024 02/00 Q1018
                        BECMG 3000=
201812051200 METAR LRCK 051200Z 32012KT 2500 BR OVC015 02/00 Q1018 BECMG
                        3000=
201812051230 METAR LRCK 051230Z 34013KT 1500 BR OVC016 02/01 Q1018 BECMG
                        3000=
201812051300 METAR LRCK 051300Z 34012KT 3000 BR OVC019 02/01 Q1018 BECMG
                        5000=
201812051330 METAR LRCK 051330Z 34010KT 5000 BR OVC020 02/01 Q1019 BECMG
                        9999 NSW=
201812051400 METAR LRCK 051400Z 34013KT 9999 OVC022 03/01 Q1019 NOSIG=
201812051430 METAR LRCK 051430Z 35014KT 9999 SCT017 OVC025 03/01 Q1019
                        BECMG BKN015 OVC030=
201812051500 METAR LRCK 051500Z 34011KT 9999 BKN015 OVC033 03/01 Q1019
                        NOSIG=
201812051530 METAR LRCK 051530Z 32008KT 9999 BKN016 OVC036 02/01 Q1020
                        NOSIG=
201812051600 METAR LRCK 051600Z 33010KT 9999 OVC015 03/01 Q1020 NOSIG=
201812051630 METAR LRCK 051630Z 33010KT 9999 OVC016 02/01 Q1020 TEMPO
                        5000 -RA=
201812051700 METAR LRCK 051700Z 33011KT 9999 -RA BKN018 OVC030 02/01 Q1021
                        TEMPO 5000 -RA BKN015 OVC025=
201812051730 METAR LRCK 051730Z 33012KT 9999 BKN016 OVC027 02/01 Q1021
                        TEMPO 5000 -RA BKN015 OVC025=
201812051800 METAR LRCK 051800Z 34014KT 9999 -RA BKN016 02/01 Q1021 TEMPO
                        5000 -RA BKN015 OVC025=
201812051830 METAR LRCK 051830Z 33013KT 9999 -RA BKN015 OVC040 02/01 Q1021
                        R36/290195 TEMPO 5000 -RA=
201812051900 METAR LRCK 051900Z 33014KT 9999 -RA SCT014 BKN045 02/01 Q1022
                        R36/290195 NOSIG=
201812051930 METAR LRCK 051930Z 34016KT 9999 FEW015 SCT048 02/01 Q1022
                        R36/290195 NOSIG=
201812052000 METAR LRCK 052000Z 34017KT 9999 FEW049 01/00 Q1022 R36/290195
                        NOSIG=
201812052030 METAR LRCK 052030Z 34015KT CAVOK 01/M00 Q1022 R36/290195
                        NOSIG=
201812052100 METAR LRCK 052100Z 34015KT CAVOK 01/M01 Q1023 R36/290195
                        NOSIG=
201812052130 METAR LRCK 052130Z 34015KT CAVOK 01/M01 Q1023 R36/290195
                        NOSIG=
201812052200 METAR LRCK 052200Z 34015KT CAVOK 01/M01 Q1023 R36/15//95
                        NOSIG=
201812052230 METAR LRCK 052230Z 34014KT CAVOK 01/M02 Q1023 R36/15//95
                        NOSIG=
201812052300 METAR LRCK 052300Z 34016KT CAVOK 01/M02 Q1023 R36/15//95
                        NOSIG=
201812052330 METAR LRCK 052330Z 34014KT CAVOK 01/M02 Q1023 R36/15//95
                        NOSIG=
201812060000 METAR LRCK 060000Z 33013KT CAVOK 01/M02 Q1023 R36/15//95
                        NOSIG=
201812060030 METAR LRCK 060030Z 34013KT CAVOK 01/M02 Q1023 R36/15//95
                        NOSIG=
201812060100 METAR LRCK 060100Z 34014KT CAVOK 00/M03 Q1023 R36/15//95
                        NOSIG=
201812060130 METAR LRCK 060130Z 33014KT CAVOK 00/M03 Q1023 R36/15//95
                        NOSIG=
201812060200 METAR LRCK 060200Z 33014KT CAVOK 00/M03 Q1024 R36/15//95
                        NOSIG=
201812060230 METAR LRCK 060230Z 33014KT CAVOK M00/M03 Q1024 R36/15//95
                        NOSIG=
201812060300 METAR LRCK 060300Z 33013KT CAVOK M00/M03 Q1024 R36/CLRD//
                        NOSIG=
201812060330 METAR LRCK 060330Z 33012KT CAVOK M00/M03 Q1024 NOSIG=
201812060400 METAR LRCK 060400Z 33012KT CAVOK M01/M03 Q1024 NOSIG=
201812060430 METAR LRCK 060430Z 32013KT CAVOK M01/M03 Q1024 NOSIG=
201812060500 METAR LRCK 060500Z 32013KT CAVOK M01/M03 Q1024 NOSIG=
201812060530 METAR LRCK 060530Z 32012KT CAVOK M01/M03 Q1024 NOSIG=
201812060600 METAR LRCK 060600Z 33010KT CAVOK M01/M03 Q1024 NOSIG=
201812060630 METAR LRCK 060630Z 33010KT CAVOK 00/M03 Q1025 NOSIG=
201812060700 METAR LRCK 060700Z 33010KT CAVOK 01/M03 Q1025 NOSIG=
201812060730 METAR LRCK 060730Z 33011KT CAVOK 01/M03 Q1025 NOSIG=
201812060800 METAR LRCK 060800Z 33011KT CAVOK 02/M02 Q1025 NOSIG=
201812060830 METAR LRCK 060830Z 33013KT CAVOK 02/M02 Q1025 NOSIG=
201812060900 METAR LRCK 060900Z 32014KT 9999 FEW025 03/M03 Q1024 NOSIG=
201812060930 METAR LRCK 060930Z 32015KT 9999 FEW023 03/M02 Q1024 NOSIG=
201812061000 METAR LRCK 061000Z 32014KT 9999 FEW023 04/M02 Q1024 NOSIG=
201812061030 METAR LRCK 061030Z 33013KT 9999 FEW038 04/M03 Q1024 NOSIG=
201812061100 METAR LRCK 061100Z 33013KT 9999 FEW038 BKN045 03/M03 Q1024
                        NOSIG=
201812061130 METAR LRCK 061130Z 34012KT 9999 BKN042 03/M04 Q1024 NOSIG=
201812061200 METAR LRCK 061200Z 34012KT 9999 BKN042 03/M04 Q1024 NOSIG=
201812061230 METAR LRCK 061230Z 34012KT 9999 BKN044 03/M04 Q1024 NOSIG=
201812061300 METAR LRCK 061300Z 34009KT 9999 BKN045 03/M04 Q1024 NOSIG=
201812061330 METAR LRCK 061330Z 33009KT 9999 BKN045 02/M04 Q1024 NOSIG=
201812061400 METAR LRCK 061400Z 34008KT 9999 BKN046 02/M04 Q1024 NOSIG=
201812061430 METAR LRCK 061430Z 33008KT 9999 BKN047 01/M04 Q1024 NOSIG=
201812061500 METAR LRCK 061500Z 35010KT 9999 FEW048 00/M05 Q1024 NOSIG=
201812061530 METAR LRCK 061530Z 35011KT 9999 FEW049 M00/M06 Q1024 NOSIG=
201812061600 METAR LRCK 061600Z 32007KT CAVOK M01/M05 Q1024 NOSIG=
201812061630 METAR LRCK 061630Z 33008KT 9999 FEW049 M01/M06 Q1025 NOSIG=
201812061700 METAR LRCK 061700Z 33008KT 9999 FEW049 M01/M06 Q1025 NOSIG=
201812061730 METAR LRCK 061730Z 33008KT CAVOK M01/M06 Q1025 NOSIG=
201812061800 METAR LRCK 061800Z 33007KT CAVOK M01/M06 Q1025 NOSIG=
201812061830 METAR LRCK 061830Z 33008KT CAVOK M02/M06 Q1025 NOSIG=
201812061900 METAR LRCK 061900Z 33007KT CAVOK M02/M06 Q1025 NOSIG=
201812061930 METAR LRCK 061930Z 33009KT CAVOK M02/M06 Q1025 NOSIG=
201812062000 METAR LRCK 062000Z 33007KT CAVOK M02/M06 Q1025 NOSIG=
201812062030 METAR LRCK 062030Z 32008KT CAVOK M02/M07 Q1025 NOSIG=
201812062100 METAR LRCK 062100Z 30008KT CAVOK M03/M06 Q1025 NOSIG=
201812062130 METAR LRCK 062130Z 29007KT CAVOK M04/M06 Q1025 NOSIG=
201812062200 METAR LRCK 062200Z 30006KT CAVOK M04/M06 Q1025 NOSIG=
201812062230 METAR LRCK 062230Z 30007KT CAVOK M04/M06 Q1025 NOSIG=
201812062300 METAR LRCK 062300Z 30008KT CAVOK M04/M06 Q1024 NOSIG=
201812062330 METAR LRCK 062330Z 30007KT CAVOK M04/M06 Q1024 NOSIG=
201812070000 METAR LRCK 070000Z 29006KT CAVOK M04/M06 Q1024 NOSIG=
201812070030 METAR LRCK 070030Z 29006KT CAVOK M05/M06 Q1024 NOSIG=
201812070100 METAR LRCK 070100Z 27005KT CAVOK M06/M07 Q1024 NOSIG=
201812070130 METAR LRCK 070130Z 29005KT CAVOK M06/M07 Q1024 NOSIG=
201812070200 METAR LRCK 070200Z 27004KT CAVOK M06/M07 Q1024 NOSIG=
201812070230 METAR LRCK 070230Z 28005KT CAVOK M06/M07 Q1024 NOSIG=
201812070300 METAR LRCK 070300Z 28004KT CAVOK M06/M07 Q1024 NOSIG=
201812070330 METAR LRCK 070330Z 27004KT CAVOK M07/M08 Q1024 NOSIG=
201812070400 METAR LRCK 070400Z 25005KT CAVOK M06/M07 Q1024 NOSIG=
201812070430 METAR LRCK 070430Z 28005KT CAVOK M06/M08 Q1024 NOSIG=
201812070500 METAR LRCK 070500Z 28006KT CAVOK M07/M08 Q1024 NOSIG=
201812070530 METAR LRCK 070530Z 28006KT CAVOK M05/M07 Q1024 NOSIG=
201812070600 METAR LRCK 070600Z 30006KT CAVOK M05/M07 Q1024 NOSIG=
201812070630 METAR LRCK 070630Z 30006KT CAVOK M04/M06 Q1024 NOSIG=
201812070700 METAR LRCK 070700Z 29006KT 8000 NSC M03/M05 Q1024 NOSIG=
201812070730 METAR LRCK 070730Z 30004KT CAVOK M02/M04 Q1023 NOSIG=
201812070800 METAR LRCK 070800Z 30006KT CAVOK M01/M04 Q1023 NOSIG=
201812070830 METAR LRCK 070830Z 29008KT CAVOK 00/M03 Q1023 NOSIG=
201812070900 METAR COR LRCK 070900Z 28008KT 260V320 8000 NSC 00/M03 Q1023
                        NOSIG=
201812070930 METAR LRCK 070930Z 29009KT 7000 FEW009 01/M02 Q1023 NOSIG=
201812071000 METAR LRCK 071000Z 29009KT 6000 SCT007 01/M02 Q1022 NOSIG=
201812071030 METAR LRCK 071030Z 28009KT 250V310 6000 SCT009 01/M02 Q1022
                        NOSIG=
201812071100 METAR LRCK 071100Z 26009KT 6000 SCT009 02/M02 Q1022 NOSIG=
201812071130 METAR LRCK 071130Z 28010KT 3000 BR SCT005 00/M02 Q1022 BECMG
                        1500 BR BKN005=
201812071200 METAR LRCK 071200Z 27011KT 2000 BR BKN002 M01/M02 Q1021 TEMPO
                        0800=
201812071230 METAR COR LRCK 071230Z 27011KT 1500 BR BKN002 M01/M02 Q1021
                        NOSIG=
201812071300 METAR LRCK 071300Z 28011KT 1500 BR BKN003 M00/M01 Q1021 NOSIG=
201812071330 METAR LRCK 071330Z 27011KT 1500 BR BKN002 M01/M02 Q1021 NOSIG=
201812071400 METAR LRCK 071400Z 28010KT 1500 BR BKN002 M01/M02 Q1021 NOSIG=
201812071430 METAR LRCK 071430Z 28010KT 1500 BR SCT002 M01/M02 Q1021 NOSIG=
201812071500 METAR LRCK 071500Z 28006KT 1500 BR SCT002 M02/M02 Q1020 NOSIG=
201812071530 METAR LRCK 071530Z 27007KT 1500 BR FEW002 M02/M02 Q1020 NOSIG=
201812071600 METAR LRCK 071600Z 27006KT 1500 BR FEW002 M02/M03 Q1020 NOSIG=
201812071630 METAR LRCK 071630Z 28005KT 1500 BR FEW001 M02/M02 Q1020 NOSIG=
201812071700 METAR LRCK 071700Z VRB02KT 1500 BR SCT004 M01/M02 Q1020 NOSIG=
201812071730 METAR LRCK 071730Z 25005KT 2000 BR SCT003 M01/M02 Q1020 NOSIG=
201812071800 METAR LRCK 071800Z 24004KT 2000 BR SCT002 M02/M02 Q1020 NOSIG=
201812071830 METAR LRCK 071830Z 25004KT 1500 BR BKN001 M01/M02 Q1020 NOSIG=
201812071900 METAR LRCK 071900Z 24004KT 1500 BR BKN001 M01/M02 Q1019 NOSIG=
201812071930 METAR LRCK 071930Z 00000KT 2000 BR SCT001 M01/M01 Q1019 NOSIG=
201812072000 METAR LRCK 072000Z VRB01KT 2000 BR SCT002 M01/M01 Q1018 NOSIG=
201812072030 METAR LRCK 072030Z 00000KT 3000 BR NSC M01/M01 Q1018 NOSIG=
201812072100 METAR COR LRCK 072100Z 22002KT 3000 BR NSC M01/M01 Q1018
                        NOSIG=
201812072130 METAR LRCK 072130Z 25003KT 3000 BR NSC M01/M01 Q1018 NOSIG=
201812072200 METAR LRCK 072200Z 20003KT 3000 BR NSC M00/M01 Q1017 NOSIG=
201812072230 METAR COR LRCK 072230Z 22003KT 3000 BR NSC M00/M01 Q1017
                        NOSIG=
201812072300 METAR LRCK 072300Z 22003KT 4000 BR NSC M00/M01 Q1016 NOSIG=
201812072330 METAR LRCK 072330Z 21005KT 4000 BR NSC M00/M01 Q1016 NOSIG=
201812080000 METAR COR LRCK 080000Z 22004KT 4000 BR NSC M00/M01 Q1016
                        NOSIG=
201812080030 METAR LRCK 080030Z 20005KT 4000 BR NSC M01/M01 Q1015 NOSIG=
201812080100 METAR COR LRCK 080100Z 21005KT 4000 BR NSC M00/M01 Q1015
                        NOSIG=
201812080130 METAR LRCK 080130Z 21005KT 4000 BR NSC M00/M01 Q1015 NOSIG=
201812080200 METAR LRCK 080200Z 23007KT 4000 BR NSC M00/M01 Q1015 NOSIG=
201812080230 METAR LRCK 080230Z 23007KT 5000 BR NSC M01/M02 Q1014 NOSIG=
201812080300 METAR LRCK 080300Z 23007KT 5000 BR NSC M02/M02 Q1014 NOSIG=
201812080330 METAR LRCK 080330Z 24005KT 5000 BR NSC M02/M03 Q1014 NOSIG=
201812080400 METAR LRCK 080400Z 22005KT 4000 BR NSC M03/M03 Q1014 BECMG
                        3000 BR=
201812080430 METAR COR LRCK 080430Z 22005KT 4000 BR NSC M03/M03 Q1014
                        NOSIG=
201812080500 METAR LRCK 080500Z 21006KT 4000 BR NSC M02/M03 Q1014 NOSIG=
201812080530 METAR LRCK 080530Z 21005KT 4000 BR NSC M02/M02 Q1014 NOSIG=
201812080600 METAR LRCK 080600Z 23004KT 4000 BR NSC M01/M02 Q1014 NOSIG=
201812080630 METAR LRCK 080630Z 23006KT 3000 BR NSC M01/M01 Q1014 NOSIG=
201812080700 METAR LRCK 080700Z 22005KT 120V240 4000 BR NSC 00/M01 Q1014
                        BECMG 9999 NSW=
201812080730 METAR LRCK 080730Z 21004KT 5000 BR NSC 01/M01 Q1014 BECMG
                        9999 NSW=
201812080800 METAR LRCK 080800Z 23007KT 7000 NSC 02/M02 Q1014 NOSIG=
201812080830 METAR LRCK 080830Z 25006KT 8000 NSC 03/M01 Q1014 NOSIG=
201812080900 METAR LRCK 080900Z 25005KT CAVOK 05/M02 Q1013 NOSIG=
201812080930 METAR LRCK 080930Z 26005KT CAVOK 06/M02 Q1013 NOSIG=
201812081000 METAR LRCK 081000Z 20006KT 170V230 CAVOK 06/M01 Q1013 NOSIG=
201812081030 METAR LRCK 081030Z 20007KT CAVOK 06/M02 Q1012 NOSIG=
201812081100 METAR LRCK 081100Z 19007KT CAVOK 07/M02 Q1012 NOSIG=
201812081130 METAR LRCK 081130Z 17006KT CAVOK 08/01 Q1012 NOSIG=
201812081200 METAR LRCK 081200Z 19007KT CAVOK 08/01 Q1012 NOSIG=
201812081230 METAR LRCK 081230Z 19007KT CAVOK 08/02 Q1012 NOSIG=
201812081300 METAR LRCK 081300Z 19007KT CAVOK 08/03 Q1011 NOSIG=
201812081330 METAR LRCK 081330Z 18005KT CAVOK 07/03 Q1011 NOSIG=
201812081400 METAR LRCK 081400Z 18007KT CAVOK 06/03 Q1011 NOSIG=
201812081430 METAR LRCK 081430Z 19007KT CAVOK 05/02 Q1011 NOSIG=
201812081500 METAR LRCK 081500Z 20006KT CAVOK 04/01 Q1011 NOSIG=
201812081530 METAR LRCK 081530Z 20007KT CAVOK 03/01 Q1011 NOSIG=
201812081600 METAR LRCK 081600Z 20007KT 8000 NSC 03/01 Q1011 NOSIG=
201812081630 METAR LRCK 081630Z 18008KT 8000 NSC 03/01 Q1011 NOSIG=
201812081700 METAR LRCK 081700Z 18007KT 7000 NSC 03/01 Q1011 NOSIG=
201812081730 METAR LRCK 081730Z 19007KT 8000 NSC 03/01 Q1011 NOSIG=
201812081800 METAR LRCK 081800Z 24006KT 210V270 8000 NSC 02/01 Q1011 NOSIG=
201812081830 METAR LRCK 081830Z 21005KT 8000 NSC 02/01 Q1011 NOSIG=
201812081900 METAR LRCK 081900Z 21006KT CAVOK 04/02 Q1011 NOSIG=
201812081930 METAR LRCK 081930Z 22006KT CAVOK 04/01 Q1011 NOSIG=
201812082000 METAR LRCK 082000Z 25006KT CAVOK 03/01 Q1011 NOSIG=
201812082030 METAR LRCK 082030Z 26006KT 7000 NSC 03/01 Q1011 NOSIG=
201812082100 METAR LRCK 082100Z 26006KT 7000 NSC 03/01 Q1010 NOSIG=
201812082130 METAR LRCK 082130Z VRB02KT 7000 NSC 02/01 Q1010 NOSIG=
201812082200 METAR LRCK 082200Z VRB01KT 7000 NSC 02/01 Q1010 NOSIG=
201812082230 METAR LRCK 082230Z 26005KT 7000 NSC 02/01 Q1010 NOSIG=
201812082300 METAR LRCK 082300Z 23002KT 7000 NSC 02/01 Q1010 NOSIG=
201812082330 METAR LRCK 082330Z 26006KT 7000 NSC 03/01 Q1010 NOSIG=
201812090000 METAR LRCK 090000Z 27008KT 7000 NSC 03/00 Q1010 NOSIG=
201812090030 METAR LRCK 090030Z 27007KT 6000 NSC 03/00 Q1010 NOSIG=
201812090100 METAR LRCK 090100Z 25003KT 220V280 7000 SCT044 02/00 Q1010
                        NOSIG=
201812090130 METAR LRCK 090130Z AUTO 27005KT 5000 BR FEW071/// FEW085///
                        OVC120/// 03/M00 Q1010 NOSIG=
201812090200 METAR LRCK 090200Z AUTO 26007KT 7000 OVC058/// 02/M01 Q1010
                        NOSIG=
201812090230 METAR LRCK 090230Z 24006KT 8000 NSC 02/M00 Q1010 NOSIG=
201812090300 METAR LRCK 090300Z 25005KT 8000 SCT046 02/M00 Q1009 NOSIG=
201812090330 METAR LRCK 090330Z 27007KT 7000 BKN048 02/M00 Q1010 NOSIG=
201812090400 METAR LRCK 090400Z 27009KT 7000 BKN042 02/M01 Q1010 NOSIG=
201812090430 METAR LRCK 090430Z 27009KT 7000 SCT043 02/M01 Q1010 NOSIG=
201812090500 METAR LRCK 090500Z 27010KT 7000 NSC 02/M01 Q1010 NOSIG=
201812090530 METAR LRCK 090530Z 26011KT 8000 NSC 02/M01 Q1010 NOSIG=
201812090600 METAR LRCK 090600Z 27012KT 8000 NSC 03/M01 Q1010 NOSIG=
201812090630 METAR LRCK 090630Z 27012KT CAVOK 03/M00 Q1010 NOSIG=
201812090700 METAR LRCK 090700Z 27012KT CAVOK 03/00 Q1010 NOSIG=
201812090730 METAR LRCK 090730Z 27012KT CAVOK 03/01 Q1010 NOSIG=
201812090800 METAR LRCK 090800Z 27012KT 7000 NSC 04/01 Q1010 NOSIG=
201812090830 METAR LRCK 090830Z 27015KT 7000 FEW009 05/02 Q1010 NOSIG=
201812090900 METAR LRCK 090900Z 27014KT 5000 BR BKN009 05/02 Q1010 NOSIG=
201812090930 METAR LRCK 090930Z 26012KT 5000 BR BKN008 04/02 Q1009 NOSIG=
201812091000 METAR LRCK 091000Z 26016KT 6000 BKN009 05/03 Q1009 NOSIG=
201812091030 METAR LRCK 091030Z 25015KT 7000 SCT009 05/03 Q1009 NOSIG=
201812091100 METAR LRCK 091100Z 26014KT 7000 NSC 06/03 Q1008 NOSIG=
201812091130 METAR LRCK 091130Z 27010KT 7000 FEW009 06/03 Q1008 NOSIG=
201812091200 METAR LRCK 091200Z 27011KT 6000 FEW009 06/03 Q1008 NOSIG=
201812091230 METAR LRCK 091230Z 27006KT 240V310 6000 -RA SCT049 05/04
                        Q1008 NOSIG=
201812091300 METAR LRCK 091300Z 23004KT 190V270 5000 BR BKN047 05/04 Q1008
                        NOSIG=
201812091330 METAR LRCK 091330Z 28006KT 5000 -RA BR BKN047 05/04 Q1008
                        NOSIG=
201812091400 METAR LRCK 091400Z VRB01KT 3000 -RA BR BKN045 05/04 Q1008
                        R36/19//95 NOSIG=
201812091430 METAR LRCK 091430Z 26003KT 2500 BR SCT045 04/04 Q1008 R36/19//95
                        NOSIG=
201812091500 METAR LRCK 091500Z 24002KT 2500 BR NSC 04/03 Q1008 R36/19//95
                        NOSIG=
201812091530 METAR LRCK 091530Z 17003KT 2500 -RA BR SCT049 04/04 Q1008
                        R36/19//95 NOSIG=
201812091600 METAR LRCK 091600Z 21002KT 2000 -RA BR BKN040 04/03 Q1008
                        R36/19//95 NOSIG=
201812091630 METAR LRCK 091630Z 23002KT 1500 -RA BR BKN038 04/03 Q1008
                        R18/19//95 NOSIG=
201812091700 METAR LRCK 091700Z 22004KT 1500 -RA BR BKN044 04/03 Q1008
                        R18/19//95 NOSIG=
201812091730 METAR LRCK 091730Z 21003KT 1500 -RA BR BKN040 04/04 Q1008
                        R18/19//95 NOSIG=
201812091800 METAR LRCK 091800Z 20004KT 1500 -RA BR BKN040 04/03 Q1007
                        R18/19//95 NOSIG=
201812091830 METAR LRCK 091830Z 19005KT 1500 BR BKN045 03/03 Q1007 R18/19//95
                        NOSIG=
201812091900 METAR LRCK 091900Z 19004KT 1500 BR SCT040 03/03 Q1007 R18/19//95
                        NOSIG=
201812091930 METAR LRCK 091930Z 17005KT 1300 BR FEW040 03/03 Q1007 R18/19//95
                        NOSIG=
201812092000 METAR LRCK 092000Z 17004KT 1300 BR NSC 03/03 Q1006 R18/19//95
                        NOSIG=
201812092030 METAR LRCK 092030Z 17006KT 1200 R18/0800D BR NSC 03/03 Q1006
                        R18/19//95 NOSIG=
201812092100 METAR LRCK 092100Z 23004KT 200V270 1500 BR SCT025 03/03 Q1007
                        R18/19//95 NOSIG=
201812092130 METAR LRCK 092130Z 26005KT 1500 BR BKN025 03/03 Q1007 R18/19//95
                        NOSIG=
201812092200 METAR LRCK 092200Z 26005KT 1500 BR BKN025 04/04 Q1006 R18/19//95
                        NOSIG=
201812092230 METAR LRCK 092230Z 28004KT 1500 BR BKN024 04/04 Q1006 R18/19//95
                        NOSIG=
201812092300 METAR LRCK 092300Z 28005KT 1500 BR BKN025 03/03 Q1006 R18/19//95
                        NOSIG=
201812092330 METAR LRCK 092330Z 20003KT 170V240 0800 R18/0600D FG BKN022
                        03/03 Q1006 R18/19//95 NOSIG=
201812100000 METAR LRCK 100000Z 23005KT 0500 R18/0375N FG OVC020 02/02
                        Q1006 R18/19//95 NOSIG=
201812100030 METAR LRCK 100030Z 28005KT 0300 R18/0350N FG BKN004 01/01
                        Q1006 R18/19//95 NOSIG=
201812100100 METAR LRCK 100100Z 28004KT 0350 R18/0400N FG BKN003 01/01
                        Q1006 R18/19//95 BECMG 0600=
201812100130 METAR LRCK 100130Z 25003KT 0300 R18/0400N FG BKN002 01/01
                        Q1006 R18/19//95 NOSIG=
201812100200 METAR LRCK 100200Z 29004KT 260V320 0200 R18/0250N FZFG OVC001
                        M00/M00 Q1005 R18/19//95 NOSIG=
201812100230 METAR LRCK 100230Z 24005KT 0200 R18/0225N FZFG VV001 M01/M00
                        Q1005 R18/19//95 NOSIG=
201812100300 METAR LRCK 100300Z 30005KT 0300 R18/0375N FZFG OVC005 M01/M01
                        Q1005 R18/19//95 NOSIG=
201812100330 METAR LRCK 100330Z 28004KT 1200 BR OVC004 01/01 Q1005 R18/19//95
                        BECMG 1500 BR=
201812100400 METAR LRCK 100400Z 28004KT 1300 BR OVC002 01/01 Q1005 R18/19//95
                        NOSIG=
201812100430 METAR LRCK 100430Z 26005KT 1300 BR OVC002 02/02 Q1005 R18/19//95
                        NOSIG=
201812100500 METAR LRCK 100500Z 26004KT 1200 R18/0800D BR OVC002 02/02
                        Q1005 R18/19//95 TEMPO 0800 FG=
201812100530 METAR LRCK 100530Z 26010KT 0400 R18/0550N FG VV002 02/02
                        Q1005 R18/19//95 TEMPO 0200 FG=
201812100600 METAR LRCK 100600Z 27012KT 0300 R18/0450N FG VV002 02/02
                        Q1005 R18/19//95 TEMPO 0200 FG=
201812100630 METAR LRCK 100630Z 27012KT 0200 R18/0550N R36/0600N FG VV002
                        01/01 Q1006 R18/19//95 NOSIG=
201812100700 METAR LRCK 100700Z 28012KT 0200 R18/0400N R36/0400N FG VV002
                        01/01 Q1006 R18/19//95 NOSIG=
201812100730 METAR LRCK 100730Z 28009KT 0200 R18/0400N R36/0400N FG VV002
                        02/02 Q1006 R18/19//95 NOSIG=
201812100800 METAR LRCK 100800Z 26009KT 0200 R18/0350N R36/0550N FG VV002
                        02/02 Q1006 R18/19//95 BECMG 0350=
201812100830 METAR LRCK 100830Z 27010KT 0150 R18/0300N R36/0400N FG VV002
                        02/02 Q1006 R18/19//95 NOSIG=
201812100900 METAR LRCK 100900Z 29009KT 0200 R18/0400N R36/0500N FG VV002
                        03/03 Q1006 R18/19//95 NOSIG=
201812100930 METAR LRCK 100930Z 26010KT 0200 R18/0350N R36/0500N FG VV002
                        03/03 Q1006 R18/19//95 NOSIG=
201812101000 METAR LRCK 101000Z 27010KT 0250 R18/0350N R36/0500U FG VV002
                        03/03 Q1006 R18/19//95 NOSIG=
201812101030 METAR LRCK 101030Z 27013KT 0250 R18/0375N R36/0600U FG VV002
                        03/03 Q1006 R18/19//95 TEMPO 0600=
201812101100 METAR LRCK 101100Z 28014KT 0250 R18/0400N R36/0400N FG OVC002
                        03/03 Q1006 R18/19//95 TEMPO 0600=
201812101130 METAR LRCK 101130Z 28008KT 0250 R18/0500N R36/0450N FG OVC002
                        03/03 Q1006 R18/19//95 NOSIG=
201812101200 METAR LRCK 101200Z 31009KT 0250 R18/0375N R36/0500N FG OVC002
                        02/02 Q1006 R18/19//95 NOSIG=
201812101230 METAR LRCK 101230Z 29008KT 0200 R18/0400N R36/0500N FG OVC001
                        02/02 Q1006 R18/19//95 NOSIG=
201812101300 METAR LRCK 101300Z 29006KT 270V330 0200 R18/0550N R36/0550N
                        FG OVC001 02/02 Q1006 R18/19//95
                        NOSIG=
201812101330 METAR LRCK 101330Z 29007KT 0400 R18/0800U R36/0800U FG OVC001
                        02/02 Q1006 R18/19//95 TEMPO 0600=
201812101400 METAR LRCK 101400Z 31007KT 0300 R18/0800N R36/0800N FG OVC001
                        02/02 Q1006 R18/19//95 NOSIG=
201812101430 METAR LRCK 101430Z 29008KT 0300 R18/0800N R36/0900N FG OVC001
                        02/02 Q1006 R18/19//95 NOSIG=
201812101500 METAR LRCK 101500Z 28008KT 0250 R18/0650N R36/0800N FG VV002
                        01/01 Q1006 R18/19//95 NOSIG=
201812101530 METAR LRCK 101530Z 30004KT 0200 R18/0550N R36/0600N FG VV002
                        01/01 Q1007 R18/19//95 NOSIG=
201812101600 METAR LRCK 101600Z 34004KT 0200 R18/0550N R36/0650N FG VV002
                        01/01 Q1006 R18/19//95 NOSIG=
201812101630 METAR LRCK 101630Z 34004KT 310V010 0200 R18/0450N R36/0650N
                        FG VV001 01/01 Q1006 R18/19//95 NOSIG=
201812101700 METAR LRCK 101700Z 36004KT 320V040 0150 R18/0400N R36/0550N
                        FG VV001 01/01 Q1007 R18/19//95 NOSIG=
201812101730 METAR LRCK 101730Z 33005KT 0150 R18/0450N FG VV001 00/00
                        Q1006 R18/19//95 NOSIG=
201812101800 METAR LRCK 101800Z 33006KT 0150 R18/0500N FG VV001 00/00
                        Q1006 R18/19//95 NOSIG=
201812101830 METAR LRCK 101830Z 35005KT 0150 R18/0550D FZFG VV001 M00/M00
                        Q1007 R18/19//95 NOSIG=
201812101900 METAR LRCK 101900Z 34005KT 0150 R18/0450N FZFG VV001 M00/M00
                        Q1006 R18/19//95 NOSIG=
201812101930 METAR LRCK 101930Z 36006KT 0150 R18/0450N R36/0550N FZFG
                        VV002 M00/M00 Q1007 R36/19//95 NOSIG=
201812102000 METAR LRCK 102000Z 01003KT 340V040 0150 R18/0500N R36/0600N
                        FZFG VV002 M00/M00 Q1006 R36/19//95
                        NOSIG=
201812102030 METAR LRCK 102030Z 31004KT 280V340 0150 R18/0500N R36/0500N
                        FZFG VV002 M00/M00 Q1007 R36/19//95
                        NOSIG=
201812102100 METAR LRCK 102100Z 29003KT 0150 R18/0550N R36/0600N FZFG
                        VV002 M01/M01 Q1007 R36/19//95 NOSIG=
201812102130 METAR LRCK 102130Z 29005KT 0200 R18/0700N R36/0800N FZFG
                        VV002 M00/M00 Q1007 R36/19//95 NOSIG=
201812102200 METAR LRCK 102200Z 30005KT 0150 R18/0650N R36/0650N FZFG
                        VV002 M01/M01 Q1007 R36/19//95 NOSIG=
201812102230 METAR LRCK 102230Z 31006KT 0150 R18/0750N R36/0700N FZFG
                        VV002 M01/M01 Q1007 R36/19//95 NOSIG=
201812102300 METAR LRCK 102300Z 32006KT 0450 R18/1600U R36/1600U FZFG
                        VV002 M00/M00 Q1007 R36/19//95 BECMG
                        0800=
201812102330 METAR LRCK 102330Z 33006KT 0350 R18/1000N R36/1200D FZFG
                        VV002 M00/M00 Q1007 R36/19//95 NOSIG=
201812110000 METAR LRCK 110000Z 33006KT 0350 R18/1100N R36/1200D FZFG
                        VV002 M01/M01 Q1007 R36/19//95 NOSIG=
201812110030 METAR LRCK 110030Z 34006KT 0300 R18/0900N R36/0900D FZFG
                        VV002 M00/M00 Q1007 R36/19//95 NOSIG=
201812110100 METAR LRCK 110100Z 31006KT 0350 R18/1100D R36/1200N FZFG
                        VV002 M00/M00 Q1007 R36/19//95 NOSIG=
201812110130 METAR LRCK 110130Z 30007KT 0450 R18/1300U R36/1300U FZFG
                        VV002 M01/M01 Q1007 R36/19//95 BECMG
                        1500 BR=
201812110200 METAR LRCK 110200Z 29008KT 0800 R18/P2000 R36/P2000 FZFG
                        OVC002 M00/M00 Q1007 R36/19//95 BECMG
                        1500 BR=
201812110230 METAR LRCK 110230Z 30009KT 0800 R28/P2000 R36/P2000 FZFG
                        OVC002 M00/M00 Q1007 R36/19//95 BECMG
                        1500 BR=
201812110300 METAR LRCK 110300Z 30010KT 1500 BR OVC002 M00/M00 Q1007 R36/19//95
                        BECMG 3000 BKN004=
201812110330 METAR LRCK 110330Z 29007KT 3000 BR BKN004 M00/M00 Q1007 R36/19//95
                        BECMG 5000 BKN005=
201812110400 METAR LRCK 110400Z 29010KT 4000 BR BKN004 M00/M00 Q1007 R36/19//95
                        BECMG 5000 BKN005=
201812110430 METAR LRCK 110430Z 29013KT 2500 BR BKN003 M01/M01 Q1008 R36/19//95
                        BECMG 5000 BKN005=
201812110500 METAR LRCK 110500Z 30014KT 1500 BR BKN003 M01/M01 Q1007 R36/19//95
                        BECMG 5000 BKN005=
201812110530 METAR LRCK 110530Z 28009KT 1500 BR BKN002 M01/M01 Q1008 R36/19//95
                        BECMG 5000 BKN005=
201812110600 METAR LRCK 110600Z 27007KT 2500 BR BKN002 M01/M01 Q1008 R36/19//95
                        BECMG 5000 BKN005=
201812110630 METAR LRCK 110630Z 30009KT 3000 BR SCT003 M00/M00 Q1009 R36/19//95
                        BECMG 7000 NSW=
201812110700 METAR LRCK 110700Z 30008KT 3000 BR FEW003 00/00 Q1009 R36/19//95
                        BECMG 7000 NSW=
201812110730 METAR LRCK 110730Z 32008KT 3000 BR NSC 01/01 Q1009 R36/CLRD//
                        BECMG 7000 NSW=
201812110800 METAR LRCK 110800Z 32008KT 3000 BR NSC 02/02 Q1009 BECMG
                        7000 NSW=
201812110830 METAR LRCK 110830Z 32010KT 4000 BR NSC 02/02 Q1010 BECMG
                        7000 NSW=
201812110900 METAR LRCK 110900Z 31010KT 5000 BR NSC 03/03 Q1010 BECMG
                        7000 NSW=
201812110930 METAR LRCK 110930Z 31009KT 7000 NSC 03/03 Q1010 NOSIG=
201812111000 METAR LRCK 111000Z 29007KT 260V320 8000 NSC 04/03 Q1010 NOSIG=
201812111030 METAR LRCK 111030Z 30010KT 9999 SCT008 BKN042 04/03 Q1010
                        NOSIG=
201812111100 METAR LRCK 111100Z 29010KT 6000 -RA BKN031 03/03 Q1011 TEMPO
                        5000 -RA BR BKN010 BKN030=
201812111130 METAR LRCK 111130Z 30010KT 4000 -RA BR FEW007 BKN033 03/03
                        Q1011 TEMPO 3000 -RA BR BKN010 BKN030=
201812111200 METAR LRCK 111200Z 30011KT 4000 -RA BR FEW007 BKN030 04/03
                        Q1011 R36/29//95 TEMPO 3000 -RA BR
                        BKN010 BKN030=
201812111230 METAR LRCK 111230Z 30009KT 5000 -RA BR BKN031 04/03 Q1011
                        R36/29//95 NOSIG=
201812111300 METAR LRCK 111300Z 30008KT 7000 -RA BKN043 04/03 Q1012 R36/29//95
                        NOSIG=
201812111330 METAR LRCK 111330Z 29007KT 8000 BKN045 04/03 Q1012 R36/29//95
                        NOSIG=
201812111400 METAR LRCK 111400Z 28009KT 8000 FEW045 04/03 Q1012 R36/29//95
                        NOSIG=
201812111430 METAR LRCK 111430Z 28008KT 8000 NSC 03/02 Q1012 R36/29//95
                        NOSIG=
201812111500 METAR LRCK 111500Z 28007KT 8000 NSC 03/02 Q1012 R36/29//95
                        NOSIG=
201812111530 METAR LRCK 111530Z 28010KT 8000 NSC 03/02 Q1013 R36/29//95
                        NOSIG=
201812111600 METAR LRCK 111600Z 28007KT 180V300 8000 NSC 02/01 Q1013 R36/29//95
                        NOSIG=
201812111630 METAR LRCK 111630Z 28009KT CAVOK 02/01 Q1013 R36/29//95 NOSIG=
201812111700 METAR LRCK 111700Z 28008KT CAVOK 02/01 Q1013 R36/29//95 NOSIG=
201812111730 METAR LRCK 111730Z 28008KT 4000 BR NSC 02/01 Q1013 R36/29//95
                        TEMPO 3000 BR=
201812111800 METAR LRCK 111800Z 28008KT 3500 BR NSC 02/01 Q1014 R36/29//95
                        TEMPO 3000 BR=
201812111830 METAR LRCK 111830Z 27009KT 2000 BR FEW005 02/01 Q1014 R36/29//95
                        TEMPO 1500 BR=
201812111900 METAR LRCK 111900Z 29009KT 1500 BR SCT004 02/02 Q1014 R36/29//95
                        NOSIG=
201812111930 METAR LRCK 111930Z 30008KT 2000 BR FEW004 02/01 Q1014 R36/29//95
                        NOSIG=
201812112000 METAR LRCK 112000Z 28008KT 3000 BR NSC 01/01 Q1014 R36/29//95
                        NOSIG=
201812112030 METAR LRCK 112030Z 28008KT 3000 BR NSC 02/01 Q1014 R36/29//95
                        NOSIG=
201812112100 METAR LRCK 112100Z 28008KT 2500 BR NSC 01/01 Q1014 R36/29//95
                        NOSIG=
201812112130 METAR LRCK 112130Z 29007KT 1500 BR NSC 01/01 Q1014 R36/29//95
                        NOSIG=
201812112200 METAR LRCK 112200Z 29008KT 1500 BR NSC 01/01 Q1014 R36/29//95
                        NOSIG=
201812112230 METAR LRCK 112230Z 29008KT 1500 BR FEW002 01/01 Q1014 R36/29//95
                        NOSIG=
201812112300 METAR LRCK 112300Z 29007KT 1500 BR FEW003 01/01 Q1014 R36/29//95
                        NOSIG=
201812112330 METAR LRCK 112330Z 29007KT 1500 BR FEW002 01/01 Q1014 R36/29//95
                        NOSIG=
201812120000 METAR LRCK 120000Z 29007KT 1500 BR FEW002 01/01 Q1014 R36/29//95
                        NOSIG=
201812120030 METAR LRCK 120030Z 31007KT 2000 BR FEW002 01/00 Q1014 R36/29//95
                        NOSIG=
201812120100 METAR LRCK 120100Z 30007KT 3000 BR NSC 01/00 Q1014 R36/29//95
                        NOSIG=
201812120130 METAR LRCK 120130Z 32006KT 5000 BR NSC 01/M00 Q1014 R36/29//95
                        NOSIG=
201812120200 METAR LRCK 120200Z 31008KT 5000 BR NSC 01/M00 Q1014 R36/29//95
                        NOSIG=
201812120230 METAR LRCK 120230Z 31008KT 6000 NSC 01/M00 Q1014 R36/29//95
                        NOSIG=
201812120300 METAR LRCK 120300Z 32007KT 6000 NSC 01/M01 Q1014 R36/29//95
                        NOSIG=
201812120330 METAR LRCK 120330Z 29005KT 6000 NSC 00/M01 Q1014 R36/29//95
                        NOSIG=
201812120400 METAR LRCK 120400Z 27005KT 6000 NSC 00/M01 Q1014 R36/29//95
                        NOSIG=
201812120430 METAR LRCK 120430Z 30007KT 7000 NSC 00/M01 Q1014 R36/29//95
                        NOSIG=
201812120500 METAR LRCK 120500Z 29006KT 7000 NSC 00/M01 Q1015 R36/29//95
                        NOSIG=
201812120530 METAR LRCK 120530Z 30008KT 7000 NSC 00/M01 Q1015 R36/29//95
                        NOSIG=
201812120600 METAR LRCK 120600Z 29007KT 7000 NSC 00/M01 Q1015 R36/29//95
                        NOSIG=
201812120630 METAR LRCK 120630Z 31007KT 7000 NSC 00/M01 Q1015 R36/29//95
                        NOSIG=
201812120700 METAR LRCK 120700Z 29007KT 7000 NSC 01/M00 Q1015 R36/29//95
                        NOSIG=
201812120730 METAR LRCK 120730Z 28007KT 7000 NSC 01/00 Q1016 R36/29//95
                        NOSIG=
201812120800 METAR LRCK 120800Z 29006KT 8000 NSC 01/00 Q1016 R36/29//95
                        NOSIG=
201812120830 METAR LRCK 120830Z 29008KT 8000 NSC 01/00 Q1016 R36/29//95
                        NOSIG=
201812120900 METAR LRCK 120900Z 30007KT 8000 FEW007 02/01 Q1016 R36/29//95
                        NOSIG=
201812120930 METAR LRCK 120930Z 30012KT 7000 SCT007 02/01 Q1016 R36/CLRD//
                        NOSIG=
201812121000 METAR LRCK 121000Z 31010KT 8000 SCT007 02/01 Q1016 NOSIG=
201812121030 METAR LRCK 121030Z 31009KT 8000 SCT010 02/01 Q1016 NOSIG=
201812121100 METAR LRCK 121100Z 31010KT 9999 SCT010 02/01 Q1016 NOSIG=
201812121130 METAR LRCK 121130Z 29012KT 9999 -RA SCT035 02/01 Q1016 NOSIG=
201812121200 METAR LRCK 121200Z 30012KT 9999 FEW040 02/01 Q1016 NOSIG=
201812121230 METAR LRCK 121230Z 30010KT 9999 FEW045 02/00 Q1016 NOSIG=
201812121300 METAR LRCK 121300Z 30009KT 9999 FEW048 02/00 Q1017 NOSIG=
201812121330 METAR LRCK 121330Z 29009KT 9999 FEW048 02/01 Q1017 NOSIG=
201812121400 METAR LRCK 121400Z 28009KT 9999 FEW048 01/00 Q1017 NOSIG=
201812121430 METAR LRCK 121430Z 28007KT 9999 FEW012 01/00 Q1017 NOSIG=
201812121500 METAR LRCK 121500Z 28006KT 8000 SCT015 01/00 Q1017 NOSIG=
201812121530 METAR LRCK 121530Z 28010KT 9999 SCT014 02/00 Q1017 NOSIG=
201812121600 METAR LRCK 121600Z 26007KT 9999 SCT010 01/00 Q1017 NOSIG=
201812121630 METAR LRCK 121630Z 27008KT 8000 SCT010 01/00 Q1017 NOSIG=
201812121700 METAR LRCK 121700Z 27009KT 8000 FEW010 00/M00 Q1018 NOSIG=
201812121730 METAR LRCK 121730Z 27009KT 8000 NSC M00/M00 Q1018 NOSIG=
201812121800 METAR LRCK 121800Z 28009KT 8000 NSC M00/M01 Q1018 NOSIG=
201812121830 METAR LRCK 121830Z 27010KT CAVOK 00/M00 Q1018 NOSIG=
201812121900 METAR LRCK 121900Z 26010KT CAVOK 00/M00 Q1018 NOSIG=
201812121930 METAR LRCK 121930Z 27008KT CAVOK M00/M01 Q1018 NOSIG=
201812122000 METAR LRCK 122000Z 26008KT CAVOK M00/M01 Q1018 NOSIG=
201812122030 METAR LRCK 122030Z 24007KT CAVOK M01/M02 Q1018 NOSIG=
201812122100 METAR LRCK 122100Z 25006KT CAVOK M02/M02 Q1018 NOSIG=
201812122130 METAR LRCK 122130Z 27003KT CAVOK M01/M02 Q1018 NOSIG=
201812122200 METAR LRCK 122200Z 27003KT CAVOK M02/M02 Q1018 NOSIG=
201812122230 METAR LRCK 122230Z 26004KT CAVOK M02/M03 Q1018 TEMPO 5000
                        -SN BR BKN010 OVC020=
201812122300 METAR LRCK 122300Z 27006KT CAVOK M02/M03 Q1018 TEMPO 5000
                        -SN BR BKN010 OVC020=
201812122330 METAR LRCK 122330Z 25007KT CAVOK M01/M02 Q1018 TEMPO 5000
                        -SN BR BKN010 OVC020=
201812130000 METAR LRCK 130000Z 24008KT 8000 -SN SCT007 M01/M01 Q1018
                        TEMPO 5000 -SN BR BKN010 OVC020=
201812130030 METAR LRCK 130030Z 25005KT 9999 -SN BKN009 M01/M01 Q1018
                        TEMPO 5000 -SN BR BKN010 OVC020=
201812130100 METAR LRCK 130100Z 30008KT 9999 SCT007 M01/M01 Q1018 NOSIG=
201812130130 METAR COR LRCK 130130Z 27006KT 9999 FEW009 M01/M01 Q1018
                        NOSIG=
201812130200 METAR LRCK 130200Z 27007KT 8000 FEW027 M01/M01 Q1018 TEMPO
                        5000 BR=
201812130230 METAR LRCK 130230Z 28007KT 7000 NSC M02/M03 Q1018 TEMPO 3000
                        BR=
201812130300 METAR LRCK 130300Z 26008KT 9999 4000N MIFG FEW011 M02/M02
                        Q1018 TEMPO 3000 BR=
201812130330 METAR LRCK 130330Z 27008KT 2500 0500N R18/0600N R36/P2000
                        PRFG BR FEW001 M02/M03 Q1018 TEMPO
                        0800 FZFG BKN001=
201812130400 METAR LRCK 130400Z 27011KT 6000 3000N MIFG BR SCT003 M01/M01
                        Q1018 NOSIG=
201812130430 METAR LRCK 130430Z 27011KT 6000 0800N R18/P2000D R36/P2000
                        PRFG BR BKN002 M00/M00 Q1018 NOSIG=
201812130500 METAR LRCK 130500Z 26013KT 3500 BR BKN002 M00/M00 Q1018 NOSIG=
201812130530 METAR LRCK 130530Z 27012KT 2300 BR BKN002 M00/M00 Q1018 R18/520195
                        NOSIG=
201812130600 METAR LRCK 130600Z 26012KT 1800 BR OVC002 M00/M00 Q1018 R18/520195
                        NOSIG=
201812130630 METAR LRCK 130630Z 26011KT 1500 BR OVC002 M00/M00 Q1018 R18/520195
                        TEMPO 0800 FZFG=
201812130700 METAR LRCK 130700Z 26014KT 1500 BR OVC002 M00/M00 Q1018 R18/520195
                        TEMPO 0800 FZFG=
201812130730 METAR LRCK 130730Z 26015KT 2500 0800N R18/1100N R36/1900N
                        PRFG BR OVC002 M00/M00 Q1018 R18/520195
                        TEMPO 0800 FZFG=
201812130800 METAR COR LRCK 130800Z 26015KT 3000 BR OVC003 M00/M00 Q1019
                        R18/29//95 BECMG 5000=
201812130830 METAR LRCK 130830Z 26014KT 2500 BR OVC003 M00/M00 Q1019 R18/29//95
                        BECMG 5000 BKN005=
201812130900 METAR LRCK 130900Z 26013KT 1200 R18/1300D R36/P2000 BR OVC002
                        M00/M00 Q1018 R18/29//95 NOSIG=
201812130930 METAR LRCK 130930Z 26013KT 1500 BR OVC002 00/M00 Q1018 R18/29//95
                        NOSIG=
201812131000 METAR LRCK 131000Z 26013KT 2500 BR BKN003 00/M00 Q1018 R18/29//95
                        NOSIG=
201812131030 METAR LRCK 131030Z 26012KT 2500 BR BKN003 00/M00 Q1018 R18/29//95
                        BECMG 5000=
201812131100 METAR COR LRCK 131100Z 26012KT 4000 BR SCT003 BKN005 01/00
                        Q1018 R18/29//95 BECMG 7000 NSW=
201812131130 METAR LRCK 131130Z 26014KT 5000 BR BKN005 02/00 Q1018 R18/29//95
                        BECMG 7000 NSW SCT010=
201812131200 METAR LRCK 131200Z 27014KT 4000 BR BKN004 01/00 Q1018 R18/CLRD//
                        BECMG 7000 NSW SCT010=
201812131230 METAR LRCK 131230Z 26012KT 5000 BR BKN004 02/00 Q1018 BECMG
                        7000 NSW SCT010=
201812131300 METAR COR LRCK 131300Z 27010KT 5000 BR SCT005 01/M00 Q1018
                        BECMG 7000 NSW=
201812131330 METAR COR LRCK 131330Z 27011KT 6000 FEW005 01/00 Q1018 NOSIG=
201812131400 METAR LRCK 131400Z 26009KT 5000 BR NSC 01/00 Q1018 NOSIG=
201812131430 METAR LRCK 131430Z 24007KT 4000 BR NSC 00/M01 Q1019 NOSIG=
201812131500 METAR LRCK 131500Z 25007KT 3000 BR NSC M01/M01 Q1019 NOSIG=
201812131530 METAR LRCK 131530Z 25007KT 2500 BR NSC M01/M02 Q1019 NOSIG=
201812131600 METAR LRCK 131600Z 25006KT 2500 BR NSC M01/M02 Q1019 NOSIG=
201812131630 METAR LRCK 131630Z 27008KT 4000 BR NSC M01/M02 Q1019 NOSIG=
201812131700 METAR LRCK 131700Z 26006KT 5000 BR NSC M02/M02 Q1019 NOSIG=
201812131730 METAR LRCK 131730Z 25007KT 6000 NSC M02/M02 Q1019 NOSIG=
201812131800 METAR LRCK 131800Z 25007KT 3000 BR NSC M02/M02 Q1019 NOSIG=
201812131830 METAR LRCK 131830Z 25007KT 3000 BR NSC M02/M03 Q1019 NOSIG=
201812131900 METAR LRCK 131900Z 25007KT 3000 BR NSC M02/M02 Q1019 NOSIG=
201812131930 METAR LRCK 131930Z 25008KT 5000 BR NSC M02/M03 Q1019 NOSIG=
201812132000 METAR LRCK 132000Z 26007KT 8000 NSC M02/M03 Q1019 NOSIG=
201812132030 METAR LRCK 132030Z 25008KT 8000 NSC M01/M02 Q1019 NOSIG=
201812132100 METAR LRCK 132100Z 25007KT 8000 NSC M02/M03 Q1019 NOSIG=
201812132130 METAR LRCK 132130Z 26007KT 6000 NSC M03/M03 Q1019 NOSIG=
201812132200 METAR LRCK 132200Z 27007KT 6000 NSC M02/M03 Q1019 TEMPO 5000
                        BR=
201812132230 METAR LRCK 132230Z 27007KT 6000 NSC M03/M03 Q1019 TEMPO 5000
                        BR=
201812132300 METAR LRCK 132300Z 27007KT 5000 BR NSC M02/M03 Q1019 NOSIG=
201812132330 METAR LRCK 132330Z 25007KT 5000 BR NSC M03/M04 Q1019 NOSIG=
201812140000 METAR LRCK 140000Z 25007KT 5000 BR NSC M04/M04 Q1020 NOSIG=
201812140030 METAR LRCK 140030Z 26007KT 5000 BR NSC M04/M04 Q1020 NOSIG=
201812140100 METAR LRCK 140100Z 27008KT 5000 BR NSC M04/M04 Q1020 NOSIG=
201812140130 METAR LRCK 140130Z 27008KT 4000 BR NSC M04/M05 Q1020 NOSIG=
201812140200 METAR LRCK 140200Z 28008KT 3000 BR NSC M03/M04 Q1020 NOSIG=
201812140230 METAR LRCK 140230Z 28008KT 3000 BR NSC M04/M04 Q1020 NOSIG=
201812140300 METAR LRCK 140300Z 32006KT 300V360 3000 BR NSC M04/M04 Q1020
                        NOSIG=
201812140330 METAR COR LRCK 140330Z 23005KT 3000 BR NSC M04/M04 Q1020
                        NOSIG=
201812140400 METAR LRCK 140400Z 24005KT 3000 BR NSC M04/M04 Q1020 NOSIG=
201812140430 METAR LRCK 140430Z 24005KT 3000 BR NSC M04/M04 Q1021 NOSIG=
201812140500 METAR LRCK 140500Z 30006KT 3000 BR NSC M04/M05 Q1021 NOSIG=
201812140530 METAR LRCK 140530Z 31006KT 4000 BR NSC M05/M05 Q1021 BECMG
                        5000=
201812140600 METAR LRCK 140600Z VRB02KT 4000 BR NSC M04/M05 Q1021 BECMG
                        5000=
201812140630 METAR LRCK 140630Z 36006KT 4000 BR NSC M05/M05 Q1022 NOSIG=
201812140700 METAR LRCK 140700Z 36005KT 5000 BR NSC M02/M03 Q1022 NOSIG=
201812140730 METAR COR LRCK 140730Z 36007KT 6000 NSC M00/M02 Q1022 BECMG
                        06010=
201812140800 METAR LRCK 140800Z 02007KT 8000 NSC M01/M02 Q1022 NOSIG=
201812140830 METAR LRCK 140830Z 03006KT CAVOK 00/M02 Q1022 NOSIG=
201812140900 METAR LRCK 140900Z 04007KT CAVOK 01/M01 Q1022 NOSIG=
201812140930 METAR LRCK 140930Z 05006KT 340V070 CAVOK 02/M01 Q1022 NOSIG=
201812141000 METAR LRCK 141000Z 06006KT CAVOK 02/M01 Q1022 NOSIG=
201812141030 METAR LRCK 141030Z 06007KT CAVOK 02/M01 Q1022 NOSIG=
201812141100 METAR LRCK 141100Z 05006KT CAVOK 02/M00 Q1022 NOSIG=
201812141130 METAR LRCK 141130Z 06007KT CAVOK 02/M01 Q1022 NOSIG=
201812141200 METAR LRCK 141200Z 06007KT CAVOK 02/M01 Q1022 NOSIG=
201812141230 METAR LRCK 141230Z 05006KT 010V070 CAVOK 02/M01 Q1022 NOSIG=
201812141300 METAR LRCK 141300Z 07006KT 9999 SCT039 02/M01 Q1023 NOSIG=
201812141330 METAR LRCK 141330Z 06007KT 9999 SCT038 02/M01 Q1023 NOSIG=
201812141400 METAR LRCK 141400Z 06007KT 9999 BKN036 02/M01 Q1023 NOSIG=
201812141430 METAR LRCK 141430Z 07007KT 9999 BKN035 01/M01 Q1023 NOSIG=
201812141500 METAR LRCK 141500Z 06008KT 9999 BKN034 01/M02 Q1023 NOSIG=
201812141530 METAR LRCK 141530Z 05007KT 9999 BKN035 01/M02 Q1024 NOSIG=
201812141600 METAR LRCK 141600Z 05008KT 9999 BKN034 01/M02 Q1024 NOSIG=
201812141630 METAR LRCK 141630Z 05007KT 9999 OVC034 01/M02 Q1024 NOSIG=
201812141700 METAR LRCK 141700Z 03009KT 9999 OVC032 01/M02 Q1024 NOSIG=
201812141730 METAR LRCK 141730Z 04010KT 9999 OVC034 01/M02 Q1024 NOSIG=
201812141800 METAR LRCK 141800Z 03010KT 9999 OVC033 01/M02 Q1024 NOSIG=
201812141830 METAR LRCK 141830Z 03010KT 9999 OVC033 01/M02 Q1024 NOSIG=
201812141900 METAR LRCK 141900Z 03010KT 6000 -SN OVC032 01/M01 Q1024 TEMPO
                        3000 RASN=
201812141930 METAR LRCK 141930Z 04012KT 9999 -RASN OVC031 01/M02 Q1024
                        TEMPO 3000 RASN=
201812142000 METAR LRCK 142000Z 03012KT 9999 -RASN OVC033 01/M01 Q1024
                        TEMPO 3000 RASN=
201812142030 METAR LRCK 142030Z 03012KT 7000 -SN OVC033 01/M01 Q1024 TEMPO
                        3000 -RASN BR=
201812142100 METAR LRCK 142100Z 03013KT 9999 OVC030 01/M01 Q1024 TEMPO
                        3000 -RASN BR=
201812142130 METAR LRCK 142130Z 03013KT 6000 -SN OVC028 00/M01 Q1024 TEMPO
                        3000 -RASN BR=
201812142200 METAR LRCK 142200Z 03013KT 5000 -SN BR BKN026 00/M01 Q1024
                        TEMPO 3000 -RASN BR=
201812142230 METAR LRCK 142230Z 04012KT 8000 -SN BKN022 00/M01 Q1023 TEMPO
                        3000 -RASN BR=
201812142300 METAR LRCK 142300Z 04013KT 6000 -RASN FEW019 BKN021 00/M01
                        Q1023 TEMPO 3000 -RASN BR=
201812142330 METAR LRCK 142330Z 04015KT 6000 -RASN SCT017 BKN021 00/M02
                        Q1023 R36/19//95 TEMPO 3000 -RASN
                        BR=
201812150000 METAR COR LRCK 150000Z 04016KT 2500 -SN BR BKN016 BKN020
                        M00/M01 Q1023 R36/19//95 TEMPO 1500
                        -RASN BR=
201812150030 METAR LRCK 150030Z 04017KT 1500 -SN BR SCT016 OVC023 M00/M01
                        Q1023 R36/19//95 BECMG 3000 -SNRA
                        BR=
201812150100 METAR LRCK 150100Z 04017KT 1500 -SN BR BKN016 OVC025 M00/M01
                        Q1023 R36/19//95 BECMG 3000 -SNRA
                        BR=
201812150130 METAR LRCK 150130Z 04017KT 2500 -SN BR SCT005 OVC023 M00/M01
                        Q1023 R36/19//95 BECMG 3000=
201812150200 METAR LRCK 150200Z 04017KT 4000 BR BKN004 OVC022 M00/M01
                        Q1023 R36/19//95 BECMG 5000=
201812150230 METAR LRCK 150230Z 04017KT 5000 BR BKN003 M00/M01 Q1022 R36/19//95
                        NOSIG=
201812150300 METAR LRCK 150300Z 04018KT 5000 BR BKN008 M00/M01 Q1022 R36/19//95
                        NOSIG=
201812150330 METAR LRCK 150330Z 04019KT 7000 SCT007 BKN010 M00/M00 Q1022
                        R36/19//95 NOSIG=
201812150400 METAR LRCK 150400Z 04020KT 4000 -RASN BR BKN004 M00/M01 Q1022
                        R36/19//95 NOSIG=
201812150430 METAR LRCK 150430Z 04020KT 2500 -RASN BR BKN003 M00/M01 Q1022
                        R36/590394 NOSIG=
201812150500 METAR LRCK 150500Z 04020KT 1500 -RASN BR BKN002 M00/M00 Q1022
                        R36/590394 NOSIG=
201812150530 METAR LRCK 150530Z 04019KT 1500 -FZDZ BR OVC002 M00/M00 Q1022
                        R36/590394 NOSIG=
201812150600 METAR LRCK 150600Z 04019KT 1500 -DZ BR OVC002 00/M00 Q1022
                        R36/590394 NOSIG=
201812150630 METAR LRCK 150630Z 04017KT 1500 -DZ BR OVC001 00/00 Q1022
                        R36/590394 TEMPO 0800 -DZ FG=
201812150700 METAR LRCK 150700Z 04016KT 0800 0350N R18/0800D R36/1800D
                        -DZ FG OVC001 00/00 Q1022 R36/590394
                        TEMPO 0600 -DZ FG=
201812150730 METAR LRCK 150730Z 04016KT 0600 0200N R18/0550N R36/1600U
                        -DZ FG OVC001 00/00 Q1022 R36/590394
                        NOSIG=
201812150800 METAR LRCK 150800Z 05016KT 0600 0200N R18/0550N R36/1200D
                        -DZRA FG OVC001 01/01 Q1022 R36/590394
                        NOSIG=
201812150830 METAR LRCK 150830Z 04015KT 0500 0200N R18/0600N R36/1100D
                        -DZRA FG VV002 01/01 Q1022 R36/29//95
                        NOSIG=
201812150900 METAR LRCK 150900Z 04016KT 0400 R18/0450N R36/0900N -DZRA
                        FG VV002 01/01 Q1022 R36/29//95 NOSIG=
201812150930 METAR LRCK 150930Z 05015KT 0400 R18/0450N R36/1000N -DZRA
                        FG VV002 01/01 Q1021 R36/29//95 NOSIG=
201812151000 METAR LRCK 151000Z 04014KT 0400 R18/0600N R36/1100U -DZRA
                        FG VV002 01/01 Q1021 R36/29//95 NOSIG=
201812151030 METAR LRCK 151030Z 04014KT 0400 R18/0500N R36/1000D -DZRA
                        FG VV001 01/01 Q1021 R36/29//95 NOSIG=
201812151100 METAR LRCK 151100Z 04015KT 0400 R18/0400N R36/0700N -DZRA
                        FG VV001 02/02 Q1021 R36/29//95 NOSIG=
201812151130 METAR LRCK 151130Z 04015KT 0600 R18/0650N R36/1700U -DZRA
                        FG VV001 02/02 Q1021 R36/29//95 NOSIG=
201812151200 METAR LRCK 151200Z 03015KT 0600 R18/0600N R36/1000D -DZ FG
                        OVC001 02/02 Q1021 R36/29//95 NOSIG=
201812151230 METAR LRCK 151230Z 04017KT 0500 R18/0550N R36/1100U -DZ FG
                        OVC001 02/02 Q1020 R36/29//95 BECMG
                        0800 FG BKN002=
201812151300 METAR LRCK 151300Z 04017KT 0600 R18/0600N R36/1300U -DZ FG
                        OVC001 03/03 Q1021 R36/29//95 BECMG
                        0800 FG BKN002=
201812151330 METAR LRCK 151330Z 04016KT 0600 R18/0500N R36/1100D -DZ FG
                        OVC001 03/03 Q1021 R36/29//95 NOSIG=
201812151400 METAR LRCK 151400Z 04015KT 0500 R18/0600N R36/1500U -DZ FG
                        OVC002 03/03 Q1021 R36/29//95 NOSIG=
201812151430 METAR LRCK 151430Z 04016KT 0350 R18/0550N R36/0750N -DZRA
                        FG VV002 04/04 Q1021 R36/29//95 NOSIG=
201812151500 METAR LRCK 151500Z 04015KT 0400 R18/0550N R36/0800N -DZ FG
                        VV002 04/04 Q1021 R36/29//95 NOSIG=
201812151530 METAR LRCK 151530Z 04013KT 0600 R18/0450N R36/0800N -DZ FG
                        VV002 04/04 Q1021 R36/29//95 NOSIG=
201812151600 METAR LRCK 151600Z 04013KT 0400 R18/0400N R36/0750N -RADZ
                        FG VV002 04/04 Q1021 R36/29//95 NOSIG=
201812151630 METAR LRCK 151630Z 04014KT 0400 R18/0450N R36/0800N -RADZ
                        FG VV002 05/05 Q1021 R36/29//95 NOSIG=
201812151700 METAR LRCK 151700Z 06014KT 0300 R18/0400N R36/0800N -RADZ
                        FG VV002 05/05 Q1021 R36/29//95 NOSIG=
201812151730 METAR COR LRCK 151730Z 05014KT 0500 R18/0400N R36/0900U -RADZ
                        FG VV002 05/05 Q1020 R36/29//95 BECMG
                        0800=
201812151800 METAR LRCK 151800Z 05013KT 0500 R18/0400N R36/0800N -RADZ
                        FG VV002 05/05 Q1020 R36/29//95 NOSIG=
201812151830 METAR LRCK 151830Z 05012KT 0400 R18/0400N R36/0800N -RADZ
                        FG VV002 06/06 Q1020 R36/29//95 BECMG
                        0600=
201812151900 METAR LRCK 151900Z 05011KT 0400 R18/0500N R36/1000U -RADZ
                        FG VV002 06/06 Q1020 R36/29//95 BECMG
                        0600=
201812151930 METAR LRCK 151930Z 05012KT 0400 R18/0500N R36/1600D -RADZ
                        FG VV002 06/06 Q1020 R36/29//95 BECMG
                        0600=
201812152000 METAR COR LRCK 152000Z 06012KT 0400 R18/0350N R36/1400N -RADZ
                        FG VV002 06/06 Q1020 R36/29//95 NOSIG=
201812152030 METAR LRCK 152030Z 06012KT 0400 R18/0800D R36/0750D FG VV002
                        07/07 Q1020 R36/29//95 NOSIG=
201812152100 METAR LRCK 152100Z 07012KT 0800 R18/1000U R36/1800D FG VV002
                        07/07 Q1020 R36/29//95 NOSIG=
201812152130 METAR LRCK 152130Z 07011KT 1500 BR VV002 08/08 Q1020 R36/29//95
                        NOSIG=
201812152200 METAR LRCK 152200Z 07013KT 0800 R18/1500D R36/2000D FG VV002
                        08/08 Q1019 R36/29//95 NOSIG=
201812152230 METAR LRCK 152230Z 09013KT 0800 R18/1400D R36/P2000 FG VV002
                        08/08 Q1019 R36/29//95 NOSIG=
201812152300 METAR LRCK 152300Z 10014KT 0800 R18/1200U R36/P2000 FG VV002
                        08/08 Q1019 R36/29//95 NOSIG=
201812152330 METAR LRCK 152330Z 10014KT 1500 BR VV002 08/08 Q1019 R36/29//95
                        NOSIG=
201812160000 METAR LRCK 160000Z 08014KT 1200 R18/1100D R36/P2000 -RADZ
                        BR VV002 08/08 Q1019 R36/29//95 NOSIG=
201812160030 METAR LRCK 160030Z 09012KT 1500 BR VV002 08/08 Q1019 R36/29//95
                        NOSIG=
201812160100 METAR LRCK 160100Z 10016KT 1500 BR VV002 08/08 Q1019 R36/29//95
                        NOSIG=
201812160130 METAR LRCK 160130Z 10014KT 1000 R18/1200D R36/2000 BR VV002
                        08/08 Q1019 R36/29//95 TEMPO 0800
                        FG=
201812160200 METAR LRCK 160200Z 10016KT 1500 BR VV002 08/08 Q1019 R36/29//95
                        NOSIG=
201812160230 METAR LRCK 160230Z 11016KT 1500 BR VV002 08/08 Q1019 R36/29//95
                        NOSIG=
201812160300 METAR LRCK 160300Z 10016KT 1500 BR VV002 08/08 Q1019 R36/29//95
                        NOSIG=
201812160330 METAR LRCK 160330Z 10015KT 1500 BR VV002 08/08 Q1019 R36/29//95
                        NOSIG=
201812160400 METAR LRCK 160400Z 09014KT 1500 BR VV002 08/08 Q1019 R36/29//95
                        NOSIG=
201812160430 METAR LRCK 160430Z 09015KT 1500 BR VV002 08/08 Q1019 R36/29//95
                        NOSIG=
201812160500 METAR LRCK 160500Z 09015KT 1500 BR VV003 08/08 Q1019 R36/29//95
                        NOSIG=
201812160530 METAR LRCK 160530Z 09015KT 1500 BR VV002 08/08 Q1019 R36/29//95
                        NOSIG=
201812160600 METAR LRCK 160600Z 09014KT 1500 BR VV003 08/08 Q1019 R36/29//95
                        NOSIG=
201812160630 METAR LRCK 160630Z 10013KT 1500 BR VV003 08/08 Q1019 R36/29//95
                        NOSIG=
201812160700 METAR LRCK 160700Z 10017KT 3000 BR OVC003 08/08 Q1019 R36/29//95
                        NOSIG=
201812160730 METAR LRCK 160730Z 09015KT 3000 BR OVC003 08/08 Q1019 R36/29//95
                        NOSIG=
201812160800 METAR LRCK 160800Z 09015KT 3000 BR OVC004 08/08 Q1019 R36/29//95
                        NOSIG=
201812160830 METAR LRCK 160830Z 10014KT 3000 BR OVC004 08/08 Q1019 R36/29//95
                        NOSIG=
201812160900 METAR LRCK 160900Z 09014KT 3000 BR OVC003 08/08 Q1019 R36/29//95
                        NOSIG=
201812160930 METAR LRCK 160930Z 09014KT 2500 BR OVC003 08/08 Q1019 R36/29//95
                        NOSIG=
201812161000 METAR LRCK 161000Z 09013KT 1500 BR OVC002 08/08 Q1019 R36/29//95
                        NOSIG=
201812161030 METAR LRCK 161030Z 09014KT 1500 -DZ BR OVC002 08/08 Q1018
                        R36/29//95 TEMPO 0800 -DZ FG VV001=
201812161100 METAR LRCK 161100Z 09014KT 0800 -DZ FG R18/1000D R36/P2000
                        OVC002 08/08 Q1018 R36/29//95 NOSIG=
201812161130 METAR LRCK 161130Z 08014KT 1500 BR OVC002 08/08 Q1018 R36/29//95
                        NOSIG=
201812161200 METAR LRCK 161200Z 09016KT 1500 BR OVC002 08/08 Q1018 R36/29//95
                        NOSIG=
201812161230 METAR LRCK 161230Z 09015KT 1500 BR OVC003 08/08 Q1018 R36/29//95
                        NOSIG=
201812161300 METAR LRCK 161300Z 09015KT 1500 BR OVC003 08/08 Q1018 R36/29//95
                        NOSIG=
201812161330 METAR LRCK 161330Z 08014KT 1500 BR OVC003 08/08 Q1018 R36/29//95
                        NOSIG=
201812161400 METAR COR LRCK 161400Z 09014KT 1500 -DZ BR OVC003 08/08 Q1018
                        R36/29//95 NOSIG=
201812161430 METAR LRCK 161430Z 09016KT 1500 -DZ BR OVC003 08/08 Q1018
                        R36/29//95 NOSIG=
201812161500 METAR LRCK 161500Z 09015KT 1500 -DZ BR OVC003 08/08 Q1018
                        R36/29//95 NOSIG=
201812161530 METAR LRCK 161530Z 09015KT 1500 -DZ BR OVC003 08/08 Q1018
                        R36/29//95 NOSIG=
201812161600 METAR LRCK 161600Z 08014KT 1500 -DZ BR OVC003 08/08 Q1018
                        R36/29//95 NOSIG=
201812161630 METAR LRCK 161630Z 07016KT 0800 R18/1800U R36/P2000U -DZ
                        FG OVC002 07/07 Q1018 R36/29//95
                        NOSIG=
201812161700 METAR LRCK 161700Z 08017KT 1200 -DZ BR OVC002 07/07 Q1019
                        R36/29//95 NOSIG=
201812161730 METAR LRCK 161730Z 08016KT 1500 -DZ BR BKN010 07/07 Q1019
                        R36/29//95 NOSIG=
201812161800 METAR LRCK 161800Z 08015KT 2000 -DZ BR BKN010 07/07 Q1019
                        R36/29//95 NOSIG=
201812161830 METAR LRCK 161830Z 06013KT 0800 R18/0600U R36/1300D -DZ FG
                        OVC002 07/07 Q1019 R36/29//95 TEMPO
                        0350 DZ FG VV002=
201812161900 METAR LRCK 161900Z 07014KT 0700 R18/1500U R36/P2000U DZ FG
                        OVC001 07/07 Q1019 R36/29//95 NOSIG=
201812161930 METAR LRCK 161930Z 06013KT 0600 R18/0550N R36/1100D DZ FG
                        VV002 06/06 Q1019 R36/29//95 NOSIG=
201812162000 METAR LRCK 162000Z 05014KT 0600 R18/0650N R36/1400D DZ FG
                        VV002 06/06 Q1019 R36/29//95 NOSIG=
201812162030 METAR LRCK 162030Z 04015KT 0800 R18/0600N R36/1700U DZ FG
                        VV002 05/05 Q1019 R36/29//95 NOSIG=
201812162100 METAR LRCK 162100Z 05017KT 0800 R18/0650N R36/P2000U DZ FG
                        VV002 05/05 Q1019 R36/29//95 NOSIG=
201812162130 METAR LRCK 162130Z 05017KT 1500 0300N R18/0800U R36/P2000
                        -DZ PRFG BR OVC002 05/05 Q1019 R36/29//95
                        NOSIG=
201812162200 METAR LRCK 162200Z 04018KT 1500 0400N R18/0800D R36/P2000
                        -DZ PRFG BR OVC001 05/05 Q1019 R36/29//95
                        TEMPO 0800 FG DZ=
201812162230 METAR LRCK 162230Z 04016KT 1500 0500N R18/1100U R36/P2000
                        -DZ PRFG BR OVC001 05/05 Q1019 R36/29//95
                        TEMPO 0800 FG DZ=
201812162300 METAR LRCK 162300Z 04017KT 1500 0500N R18/0900N R36/P2000
                        DZ PRFG BR OVC001 05/05 Q1019 R36/29//95
                        NOSIG=
201812162330 METAR LRCK 162330Z 04018KT 1500 0500N R18/1400U R36/P2000
                        DZ PRFG BR OVC001 05/05 Q1019 R36/29//95
                        NOSIG=
201812170000 METAR LRCK 170000Z 04017KT 1300 0600N R18/1400D R36/P2000
                        DZ PRFG BR OVC001 05/05 Q1019 R36/29//95
                        NOSIG=
201812170030 METAR LRCK 170030Z 04017KT 1500 -DZ BR OVC001 05/05 Q1019
                        R36/29//95 NOSIG=
201812170100 METAR LRCK 170100Z 04018KT 1500 DZ BR OVC001 04/04 Q1019
                        R36/29//95 NOSIG=
201812170130 METAR LRCK 170130Z 04017KT 1800 0700N DZ PRFG BR OVC002 04/04
                        Q1018 R36/29//95 NOSIG=
201812170200 METAR LRCK 170200Z 03016KT 2000 0600N DZ PRFG BR OVC002 04/04
                        Q1018 R36/29//95 NOSIG=
201812170230 METAR LRCK 170230Z 03016KT 1500 0600N DZ PRFG BR OVC001 04/04
                        Q1018 R36/29//95 NOSIG=
201812170300 METAR LRCK 170300Z 03016KT 0800 R18/1600D R36/P2000 DZ FG
                        OVC001 04/04 Q1018 R36/29//95 NOSIG=
201812170330 METAR LRCK 170330Z 03016KT 0900 R18/1700U R36/1900D DZ FG
                        OVC001 04/04 Q1018 R36/29//95 NOSIG=
201812170400 METAR LRCK 170400Z 03018KT 1500 DZ BR OVC001 04/04 Q1018
                        R36/29//95 NOSIG=
201812170430 METAR LRCK 170430Z 03017KT 1600 DZ BR OVC002 04/04 Q1018
                        R36/29//95 NOSIG=
201812170500 METAR LRCK 170500Z 02016KT 1500 DZ BR OVC001 03/03 Q1019
                        R36/29//95 NOSIG=
201812170530 METAR LRCK 170530Z 02017KT 0800 R18/1400N R36/1800D DZ FG
                        OVC001 03/03 Q1019 R36/29//95 NOSIG=
201812170600 METAR LRCK 170600Z 02018KT 1000 R18/1300D R36/1500D -DZ FG
                        OVC001 02/02 Q1019 R36/29//95 NOSIG=
201812170630 METAR LRCK 170630Z 02016KT 0800 R18/1300U R36/1500U -DZ FG
                        OVC001 02/02 Q1019 R36/29//95 NOSIG=
201812170700 METAR LRCK 170700Z 02016KT 0800 R18/1300N R36/1500D FG OVC002
                        02/02 Q1019 R36/29//95 NOSIG=
201812170730 METAR LRCK 170730Z 02015KT 0800 R18/1500U R36/1700N FG OVC002
                        02/02 Q1019 R36/29//95 NOSIG=
201812170800 METAR LRCK 170800Z 02017KT 1000 R18/1500U R36/1700N BR OVC002
                        02/02 Q1019 R36/29//95 NOSIG=
201812170830 METAR LRCK 170830Z 02015KT 1000 R18/1500N R36/1800U BR OVC002
                        02/02 Q1019 R36/29//95 NOSIG=
201812170900 METAR LRCK 170900Z 02015KT 0800 R18/1700N R36/1800D FG OVC002
                        02/02 Q1019 R36/29//95 NOSIG=
201812170930 METAR LRCK 170930Z 02014KT 0800 R18/1200D R36/1500D FG OVC002
                        02/02 Q1019 R36/29//95 NOSIG=
201812171000 METAR LRCK 171000Z 02014KT 0650 R18/1000N R36/1400D FG OVC001
                        02/02 Q1019 R36/29//95 NOSIG=
201812171030 METAR LRCK 171030Z 02014KT 0650 R18/0800D R36/1200D FG OVC001
                        02/02 Q1018 R36/29//95 NOSIG=
201812171100 METAR LRCK 171100Z 03017KT 0450 R18/0650N R36/0800D -DZ FG
                        OVC001 02/02 Q1018 R36/29//95 NOSIG=
201812171130 METAR LRCK 171130Z 02015KT 0450 R18/1000D R36/1000D -DZ FG
                        OVC001 02/02 Q1018 R36/29//95 NOSIG=
201812171200 METAR LRCK 171200Z 02014KT 0650 R18/1100U R36/1200U FG OVC001
                        02/02 Q1018 R36/29//95 NOSIG=
201812171230 METAR LRCK 171230Z 02015KT 0650 R18/0900U R36/1500D -DZ FG
                        OVC002 02/02 Q1018 R36/29//95 NOSIG=
201812171300 METAR LRCK 171300Z 02015KT 0650 R18/1300D R36/1500D -DZ FG
                        OVC002 02/02 Q1018 R36/29//95 NOSIG=
201812171330 METAR LRCK 171330Z 02013KT 1000 R18/1600D R36/1800U BR OVC002
                        02/02 Q1019 R36/29//95 NOSIG=
201812171400 METAR COR LRCK 171400Z 02015KT 1200 R18/1800N R36/1900D -DZ
                        BR OVC002 02/02 Q1019 R36/29//95
                        BECMG 3000=
201812171430 METAR COR LRCK 171430Z 02016KT 0800 R18/1800D R36/1900D -DZ
                        FG OVC002 02/02 Q1019 R36/29//95
                        NOSIG=
201812171500 METAR LRCK 171500Z 02016KT 0800 R18/1900D R36/1800D -DZ FG
                        OVC001 02/02 Q1019 R36/29//95 NOSIG=
201812171530 METAR LRCK 171530Z 02015KT 0800 R18/1800D R36/1900D -DZ FG
                        OVC001 02/02 Q1019 R36/29//95 NOSIG=
201812171600 METAR LRCK 171600Z 02016KT 0800 R18/1700D R36/1500N -DZ FG
                        OVC001 01/01 Q1019 R36/29//95 NOSIG=
201812171630 METAR LRCK 171630Z 02016KT 0800 R18/1100D R36/1600D -DZRA
                        FG OVC001 01/01 Q1020 R36/29//95
                        NOSIG=
201812171700 METAR LRCK 171700Z 02017KT 1000 R18/1700U R36/1900N -RADZ
                        BR OVC001 01/01 Q1020 R36/29//95
                        NOSIG=
201812171730 METAR LRCK 171730Z 02016KT 0800 R18/1500D R36/1800D -DZRA
                        FG OVC001 01/01 Q1020 R36/29//95
                        NOSIG=
201812171800 METAR LRCK 171800Z 02015KT 1500 -DZ BR OVC002 01/01 Q1020
                        R36/29//95 NOSIG=
201812171830 METAR LRCK 171830Z 02016KT 1200 -DZ BR OVC002 01/01 Q1020
                        R36/29//95 NOSIG=
201812171900 METAR LRCK 171900Z 02015KT 1200 -DZ BR OVC002 01/01 Q1021
                        R36/29//95 NOSIG=
201812171930 METAR LRCK 171930Z 02015KT 1200 -DZ RA OVC002 01/01 Q1021
                        R36/29//95 NOSIG=
201812172000 METAR LRCK 172000Z 01015KT 1500 -DZ BR OVC002 01/01 Q1021
                        R36/29//95 NOSIG=
201812172030 METAR LRCK 172030Z 01015KT 1500 -DZ BR OVC003 01/01 Q1021
                        R36/29//95 NOSIG=
201812172100 METAR LRCK 172100Z 01015KT 1500 -RA BR OVC003 01/01 Q1021
                        R36/29//95 NOSIG=
201812172130 METAR LRCK 172130Z 01013KT 1500 -RA BR OVC004 00/00 Q1022
                        R36/290095 NOSIG=
201812172200 METAR LRCK 172200Z 01014KT 1500 -RA BR OVC005 01/01 Q1022
                        R36/290095 NOSIG=
201812172230 METAR LRCK 172230Z 01014KT 1500 -RA BR OVC005 00/00 Q1021
                        R36/290095 NOSIG=
201812172300 METAR LRCK 172300Z 01014KT 1500 -RA BR OVC004 00/00 Q1021
                        R36/290095 NOSIG=
201812172330 METAR LRCK 172330Z 02014KT 1500 BR OVC003 00/00 Q1022 R36/290095
                        NOSIG=
201812180000 METAR LRCK 180000Z 01014KT 1500 -DZ BR OVC003 00/00 Q1022
                        R36/290095 NOSIG=
201812180030 METAR LRCK 180030Z 01015KT 1500 -DZ BR OVC002 00/00 Q1022
                        R36/290095 NOSIG=
201812180100 METAR LRCK 180100Z 36016KT 1300 -DZ BR OVC002 M00/M00 Q1022
                        R36/290095 NOSIG=
201812180130 METAR LRCK 180130Z 36015KT 1300 -DZ BR OVC002 M00/M00 Q1022
                        R36/290095 NOSIG=
201812180200 METAR LRCK 180200Z 36015KT 1300 BR OVC002 M00/M00 Q1022 R36/290095
                        NOSIG=
201812180230 METAR LRCK 180230Z 36015KT 1300 R18/1600D R36/2000D BR OVC002
                        M00/M00 Q1022 R36/290095 NOSIG=
201812180300 METAR LRCK 180300Z 01014KT 1300 R18/1200D R36/1600D BR OVC001
                        M00/M00 Q1022 R36/19//95 NOSIG=
201812180330 METAR COR LRCK 180330Z 01014KT 1200 R18/1400N R36/1500N BR
                        OVC001 M00/M00 Q1023 R36/19//95 NOSIG=
201812180400 METAR LRCK 180400Z 01014KT 1200 R18/1000U R36/1400U -SN BR
                        OVC001 M00/M00 Q1023 R36/19//95 NOSIG=
201812180430 METAR LRCK 180430Z 01013KT 1400 R18/1400U R36/1700N -SN BR
                        OVC001 M00/M00 Q1024 R36/19//95 NOSIG=
201812180500 METAR LRCK 180500Z 02015KT 1500 -SN BR OVC001 M00/M00 Q1024
                        R36/19//95 NOSIG=
201812180530 METAR LRCK 180530Z 01013KT 1500 -SN BR OVC004 M00/M00 Q1024
                        R36/19//95 NOSIG=
201812180600 METAR LRCK 180600Z 01014KT 1500 -SN BR OVC004 M00/M00 Q1024
                        R36/19//95 NOSIG=
201812180630 METAR LRCK 180630Z 01012KT 1500 -SN BR OVC004 M01/M01 Q1024
                        R36/19//95 NOSIG=
201812180700 METAR LRCK 180700Z 01013KT 1500 -SN BR OVC004 M01/M01 Q1025
                        R36/19//95 NOSIG=
201812180730 METAR LRCK 180730Z 36011KT 1500 -SN BR OVC004 M01/M01 Q1025
                        R36/19//95 NOSIG=
201812180800 METAR LRCK 180800Z 36012KT 1500 -SN BR OVC004 M01/M01 Q1025
                        R36/19//95 NOSIG=
201812180830 METAR LRCK 180830Z 36014KT 1500 -SN BR OVC004 M01/M01 Q1025
                        R36/19//95 NOSIG=
201812180900 METAR LRCK 180900Z 36014KT 1500 -SN BR OVC005 M01/M01 Q1025
                        R36/690294 NOSIG=
201812180930 METAR LRCK 180930Z 36013KT 1500 -SN OVC006 M01/M01 Q1025
                        R36/690294 NOSIG=
201812181000 METAR LRCK 181000Z 36015KT 1300 R36/1400D -SN BR BKN007 M01/M01
                        Q1024 R36/690294 NOSIG=
201812181030 METAR LRCK 181030Z 36015KT 1500 -SN BR BKN006 M01/M01 Q1024
                        R36/290295 NOSIG=
201812181100 METAR LRCK 181100Z 36016KT 1500 -SN BR BKN007 M01/M01 Q1024
                        R36/290295 NOSIG=
201812181130 METAR LRCK 181130Z 36015KT 1500 -SN BR BKN008 M01/M01 Q1024
                        R36/290295 NOSIG=
201812181200 METAR LRCK 181200Z 35013KT 1000 R18/1400N R36/1200D -SN BR
                        BKN007 M01/M02 Q1025 R36/690294 NOSIG=
201812181230 METAR LRCK 181230Z 36016KT 0800 R18/1200D R36/0900D SN BKN007
                        M01/M02 Q1025 R36/690294 NOSIG=
201812181300 METAR COR LRCK 181300Z 36018KT 1500 -SN BR BKN008 M01/M02
                        Q1025 R36/590394 NOSIG=
201812181330 METAR LRCK 181330Z 01016KT 1500 -SN BR BKN007 M01/M02 Q1024
                        R36/590394 NOSIG=
201812181400 METAR LRCK 181400Z 36015KT 1500 -SN BR BKN006 M01/M02 Q1025
                        R36/590394 NOSIG=
201812181430 METAR LRCK 181430Z 36015KT 1500 -SN BR BKN005 M02/M02 Q1025
                        R36/590394 NOSIG=
201812181500 METAR LRCK 181500Z 01014KT 1500 -SN BR BKN004 M02/M02 Q1025
                        R36/590394 NOSIG=
201812181530 METAR LRCK 181530Z 01016KT 3000 -SG BR OVC006 M02/M02 Q1025
                        R36/590394 NOSIG=
201812181600 METAR LRCK 181600Z 01013KT 5000 -SG BR OVC008 M02/M02 Q1025
                        R36/590394 NOSIG=
201812181630 METAR LRCK 181630Z 01015KT 8000 -SG OVC009 M02/M03 Q1025
                        R36/890294 NOSIG=
201812181700 METAR LRCK 181700Z 01015KT 8000 OVC011 M02/M03 Q1026 R36/890294
                        NOSIG=
201812181730 METAR LRCK 181730Z 01014KT 8000 OVC013 M02/M03 Q1026 R36/890294
                        NOSIG=
201812181800 METAR LRCK 181800Z 01015KT 8000 OVC012 M02/M03 Q1026 R36/890294
                        NOSIG=
201812181830 METAR LRCK 181830Z 01015KT 8000 OVC010 M02/M03 Q1026 R36/890294
                        NOSIG=
201812181900 METAR LRCK 181900Z 01016KT 7000 OVC010 M02/M03 Q1026 R36/890293
                        NOSIG=
201812181930 METAR LRCK 181930Z 01016KT 8000 OVC010 M02/M03 Q1026 R36/890293
                        NOSIG=
201812182000 METAR LRCK 182000Z 36017KT 8000 SCT010 OVC021 M02/M04 Q1026
                        R36/890293 NOSIG=
201812182030 METAR LRCK 182030Z 36017KT 9999 SCT013 OVC023 M02/M04 Q1026
                        R36/890293 NOSIG=
201812182100 METAR LRCK 182100Z 36017KT 9999 OVC019 M02/M04 Q1026 R36/890294
                        NOSIG=
201812182130 METAR LRCK 182130Z 36017KT 8000 OVC015 M02/M04 Q1026 R36/890294
                        NOSIG=
201812182200 METAR LRCK 182200Z 36018KT 7000 OVC016 M02/M04 Q1026 R36/890294
                        NOSIG=
201812182230 METAR LRCK 182230Z 36019KT 7000 OVC016 M03/M04 Q1026 R36/890294
                        NOSIG=
201812182300 METAR LRCK 182300Z 36019KT 5000 BR OVC016 M03/M04 Q1025 R36/890294
                        NOSIG=
201812182330 METAR LRCK 182330Z 36019KT 5000 BR OVC012 M03/M05 Q1025 R36/890294
                        NOSIG=
201812190000 METAR LRCK 190000Z 35020KT 5000 BR OVC013 M03/M05 Q1025 R36/890294
                        NOSIG=
201812190030 METAR LRCK 190030Z 36018KT 7000 OVC014 M03/M05 Q1025 R36/890294
                        NOSIG=
201812190100 METAR LRCK 190100Z 36020KT 7000 OVC014 M03/M05 Q1025 R36/890294
                        NOSIG=
201812190130 METAR LRCK 190130Z 36019KT 8000 OVC014 M03/M05 Q1025 R36/890294
                        NOSIG=
201812190200 METAR LRCK 190200Z 35019KT 8000 OVC013 M03/M05 Q1025 R36/890294
                        NOSIG=
201812190230 METAR LRCK 190230Z 35017KT 7000 OVC012 M03/M05 Q1025 R36/890294
                        NOSIG=
201812190300 METAR COR LRCK 190300Z 01017KT 8000 OVC014 M04/M05 Q1025
                        R36/890294 NOSIG=
201812190330 METAR LRCK 190330Z 01017KT 8000 OVC013 M04/M05 Q1025 R36/890294
                        NOSIG=
201812190400 METAR LRCK 190400Z 01018KT 8000 OVC013 M03/M05 Q1025 R36/890294
                        NOSIG=
201812190430 METAR LRCK 190430Z 01015KT 7000 OVC013 M03/M05 Q1026 R36/890294
                        NOSIG=
201812190500 METAR LRCK 190500Z 36021KT 6000 OVC011 M03/M05 Q1026 R36/890294
                        NOSIG=
201812190530 METAR LRCK 190530Z 36019KT 7000 OVC011 M04/M06 Q1026 R36/890294
                        NOSIG=
201812190600 METAR LRCK 190600Z 35021KT 7000 OVC014 M04/M06 Q1026 R36/890294
                        NOSIG=
201812190630 METAR LRCK 190630Z 35022KT 8000 OVC014 M04/M06 Q1026 R36/890294
                        BECMG BKN020=
201812190700 METAR LRCK 190700Z 35022KT 8000 OVC013 M04/M06 Q1026 R36/890294
                        BECMG BKN020=
201812190730 METAR LRCK 190730Z 35020KT 8000 OVC014 M04/M06 Q1026 R36/890294
                        BECMG BKN020=
201812190800 METAR LRCK 190800Z 35017KT 7000 OVC014 M04/M06 Q1027 R36/890294
                        NOSIG=
201812190830 METAR LRCK 190830Z 35018KT 5000 -SN BR OVC013 M04/M06 Q1027
                        R36/890294 NOSIG=
201812190900 METAR LRCK 190900Z 34015KT 5000 -SN BR OVC014 M04/M06 Q1027
                        R36/890294 NOSIG=
201812190930 METAR LRCK 190930Z 34016KT 8000 OVC015 M04/M06 Q1026 R36/890294
                        NOSIG=
201812191000 METAR LRCK 191000Z 34016KT 9999 OVC014 M04/M07 Q1026 R36/890294
                        NOSIG=
201812191030 METAR LRCK 191030Z 34015KT 9999 OVC015 M04/M07 Q1026 R36/890294
                        NOSIG=
201812191100 METAR LRCK 191100Z 33017KT 9999 OVC015 M04/M07 Q1025 R36/890294
                        NOSIG=
201812191130 METAR LRCK 191130Z 33017KT 9999 OVC015 M04/M07 Q1026 R36/890294
                        NOSIG=
201812191200 METAR LRCK 191200Z 33015KT 9999 BKN016 M04/M07 Q1026 R36/890294
                        NOSIG=
201812191230 METAR LRCK 191230Z 33014KT 9999 BKN017 M04/M07 Q1026 R36/890294
                        NOSIG=
201812191300 METAR LRCK 191300Z 34013KT 9999 BKN016 M04/M06 Q1026 R36/890294
                        NOSIG=
201812191330 METAR LRCK 191330Z 34013KT 9999 OVC015 M04/M06 Q1026 R36/890294
                        NOSIG=
201812191400 METAR LRCK 191400Z 35017KT 9999 OVC012 M04/M06 Q1027 R36/890294
                        NOSIG=
201812191430 METAR LRCK 191430Z 35016KT 7000 OVC012 M05/M06 Q1027 R36/890294
                        NOSIG=
201812191500 METAR LRCK 191500Z 35016KT 8000 OVC012 M05/M07 Q1027 R36/890294
                        NOSIG=
201812191530 METAR LRCK 191530Z 34016KT 9999 OVC013 M05/M07 Q1027 R36/890294
                        NOSIG=
201812191600 METAR LRCK 191600Z 35013KT 9999 OVC012 M05/M06 Q1027 R36/890294
                        NOSIG=
201812191630 METAR LRCK 191630Z 36015KT 9999 OVC012 M04/M06 Q1028 R36/890294
                        NOSIG=
201812191700 METAR LRCK 191700Z 36013KT 9999 OVC012 M05/M06 Q1028 R36/890294
                        NOSIG=
201812191730 METAR LRCK 191730Z 35014KT 9999 OVC012 M05/M06 Q1028 R36/890294
                        NOSIG=
201812191800 METAR LRCK 191800Z 36015KT 9999 OVC011 M05/M07 Q1028 R36/890294
                        NOSIG=
201812191830 METAR LRCK 191830Z 35015KT 9999 OVC011 M05/M06 Q1028 R36/890294
                        NOSIG=
201812191900 METAR LRCK 191900Z 35014KT 9999 OVC011 M05/M06 Q1028 R36/890294
                        NOSIG=
201812191930 METAR LRCK 191930Z 34013KT 9999 OVC011 M05/M06 Q1028 R36/890294
                        NOSIG=
201812192000 METAR LRCK 192000Z 34010KT 9999 OVC011 M05/M06 Q1028 R36/890294
                        NOSIG=
201812192030 METAR LRCK 192030Z 34010KT 9999 OVC011 M05/M06 Q1028 R36/890294
                        NOSIG=
201812192100 METAR LRCK 192100Z 33010KT 9999 OVC011 M05/M06 Q1028 R36/990294
                        NOSIG=
201812192130 METAR LRCK 192130Z 33010KT 9999 OVC010 M05/M06 Q1028 R36/990294
                        NOSIG=
201812192200 METAR COR LRCK 192200Z 32012KT 9999 OVC010 M05/M06 Q1028
                        R36/990294 NOSIG=
201812192230 METAR LRCK 192230Z 32013KT 9999 OVC009 M05/M06 Q1027 R36/990294
                        NOSIG=
201812192300 METAR COR LRCK 192300Z 32013KT 9999 OVC009 M05/M06 Q1027
                        R36/990294 NOSIG=
201812192330 METAR LRCK 192330Z 32012KT 9999 OVC008 M05/M06 Q1027 R36/990294
                        NOSIG=
201812200000 METAR LRCK 200000Z 32012KT 9999 OVC008 M05/M06 Q1027 R36/990294
                        NOSIG=
201812200030 METAR LRCK 200030Z 32012KT 8000 OVC007 M05/M06 Q1027 R36/990294
                        NOSIG=
201812200100 METAR LRCK 200100Z 31011KT 8000 OVC007 M05/M06 Q1027 R36/990294
                        NOSIG=
201812200130 METAR LRCK 200130Z 32010KT 8000 OVC007 M05/M06 Q1028 R36/990294
                        NOSIG=
201812200200 METAR LRCK 200200Z 32009KT 6000 OVC006 M05/M06 Q1028 R36/990294
                        NOSIG=
201812200230 METAR COR LRCK 200230Z 33008KT 5000 BR OVC006 M05/M05 Q1028
                        R36/990294 NOSIG=
201812200300 METAR LRCK 200300Z 33009KT 4000 BR OVC006 M05/M05 Q1028 R36/990294
                        NOSIG=
201812200330 METAR COR LRCK 200330Z 32008KT 4000 BR OVC006 M05/M05 Q1028
                        R36/990294 NOSIG=
201812200400 METAR LRCK 200400Z 32007KT 4000 BR OVC005 M05/M05 Q1028 R36/990294
                        NOSIG=
201812200430 METAR LRCK 200430Z 31007KT 290V350 3500 BR OVC004 M05/M05
                        Q1028 R36/990294 NOSIG=
201812200500 METAR LRCK 200500Z 30008KT 4000 BR OVC004 M05/M05 Q1028 R36/990294
                        NOSIG=
201812200530 METAR LRCK 200530Z 31008KT 4000 BR OVC005 M05/M05 Q1029 R36/990294
                        NOSIG=
201812200600 METAR LRCK 200600Z 31009KT 4000 BR OVC005 M05/M05 Q1029 R36/990294
                        BECMG 5000 BKN010=
201812200630 METAR LRCK 200630Z 31009KT 5000 BR OVC005 M05/M05 Q1029 R36/990294
                        BECMG 9999 NSW BKN010=
201812200700 METAR LRCK 200700Z 31008KT 4000 BR OVC005 M04/M05 Q1029 R36/990294
                        BECMG 5000 BKN010=
201812200730 METAR LRCK 200730Z 30007KT 3000 BR OVC005 M04/M05 Q1029 R36/990294
                        BECMG 5000 BKN010=
201812200800 METAR LRCK 200800Z 30009KT 2000 BR OVC005 M04/M04 Q1029 R36/990294
                        BECMG 3000=
201812200830 METAR LRCK 200830Z 00000KT 3000 BR OVC010 M04/M04 Q1029 R36/990294
                        BECMG 5000 BKN015=
201812200900 METAR LRCK 200900Z 30009KT 5000 BR OVC010 M03/M04 Q1029 R36/990294
                        BECMG 9999 NSW BKN015=
201812200930 METAR LRCK 200930Z 31009KT 7000 OVC007 M03/M04 Q1029 R36/990294
                        BECMG 9999 NSW BKN015=
201812201000 METAR LRCK 201000Z 30009KT 8000 OVC010 M03/M04 Q1028 R36/990294
                        NOSIG=
201812201030 METAR LRCK 201030Z 30009KT 9999 BKN015 M02/M04 Q1028 R36/990294
                        BECMG BKN015=
201812201100 METAR LRCK 201100Z 30009KT 9999 BKN014 M02/M04 Q1028 R36/990294
                        BECMG BKN015=
201812201130 METAR LRCK 201130Z 29008KT 8000 BKN011 M02/M04 Q1028 R36/990294
                        NOSIG=
201812201200 METAR LRCK 201200Z 30010KT 8000 BKN010 M03/M04 Q1028 R36/29//95
                        NOSIG=
201812201230 METAR LRCK 201230Z 30009KT 5000 BR OVC006 M03/M04 Q1028 R36/29//95
                        TEMPO 7000 NSW BKN010=
201812201300 METAR LRCK 201300Z 30007KT 5000 BR OVC005 M03/M03 Q1028 R36/29//95
                        TEMPO 7000 NSW BKN010=
201812201330 METAR LRCK 201330Z 30007KT 4000 BR OVC005 M03/M04 Q1028 R36/29//95
                        NOSIG=
201812201400 METAR LRCK 201400Z 30007KT 4000 BR OVC010 M03/M04 Q1028 R36/29//95
                        TEMPO 5000=
201812201430 METAR LRCK 201430Z 29006KT 4000 BR OVC012 M03/M04 Q1028 R36/29//95
                        TEMPO 5000=
201812201500 METAR LRCK 201500Z 29005KT 4000 BR OVC010 M03/M04 Q1028 R36/29//95
                        TEMPO 5000=
201812201530 METAR LRCK 201530Z 30004KT 3000 BR OVC008 M03/M04 Q1028 R36/29//95
                        NOSIG=
201812201600 METAR LRCK 201600Z 29004KT 3000 BR OVC005 M03/M03 Q1028 R36/710195
                        NOSIG=
201812201630 METAR LRCK 201630Z 26005KT 2000 BR OVC010 M03/M03 Q1028 R36/710195
                        NOSIG=
201812201700 METAR LRCK 201700Z VRB02KT 2000 BR BKN015 M03/M03 Q1028 R36/710195
                        NOSIG=
201812201730 METAR LRCK 201730Z 26005KT 2000 BR OVC015 M03/M03 Q1029 R36/710195
                        NOSIG=
201812201800 METAR LRCK 201800Z 25005KT 3000 BR OVC003 M03/M04 Q1029 R36/710195
                        NOSIG=
201812201830 METAR LRCK 201830Z 25005KT 2000 BR OVC003 M03/M04 Q1028 R36/710195
                        NOSIG=
201812201900 METAR LRCK 201900Z 26006KT 2000 BR OVC003 M03/M04 Q1028 R36/710195
                        NOSIG=
201812201930 METAR LRCK 201930Z 27005KT 2000 BR OVC002 M03/M04 Q1028 R36/710195
                        NOSIG=
201812202000 METAR LRCK 202000Z 28004KT 250V310 2500 BR OVC002 M03/M04
                        Q1028 R36/710195 NOSIG=
201812202030 METAR LRCK 202030Z VRB02KT 3000 BR BKN002 OVC012 M03/M03
                        Q1028 R36/710195 NOSIG=
201812202100 METAR LRCK 202100Z 25005KT 4000 BR BKN002 OVC011 M03/M03
                        Q1028 R36/710195 NOSIG=
201812202130 METAR LRCK 202130Z 23008KT 4000 BR BKN003 OVC011 M03/M04
                        Q1028 R36/710195 NOSIG=
201812202200 METAR LRCK 202200Z 24008KT 1500 BR OVC002 M03/M03 Q1028 R36/710195
                        NOSIG=
201812202230 METAR LRCK 202230Z 23006KT 0800 R18/1400D R36/1300U FZFG
                        OVC002 M03/M03 Q1028 R36/710195 TEMPO
                        0600 FZFG=
201812202300 METAR LRCK 202300Z 26005KT 0800 R18/1700U R36/1700D FZFG
                        OVC002 M03/M03 Q1028 R36/710195 NOSIG=
201812202330 METAR LRCK 202330Z 26005KT 2000 BR OVC002 M03/M03 Q1028 R36/710195
                        NOSIG=
201812210000 METAR LRCK 210000Z 25005KT 2500 BR OVC002 M03/M03 Q1028 R36/710195
                        NOSIG=
201812210030 METAR LRCK 210030Z 25005KT 2000 BR OVC003 M03/M03 Q1028 R36/710195
                        NOSIG=
201812210100 METAR LRCK 210100Z 25005KT 3000 BR OVC003 M03/M03 Q1028 R36/710195
                        NOSIG=
201812210130 METAR LRCK 210130Z 25006KT 3000 BR OVC003 M03/M03 Q1028 R36/710195
                        NOSIG=
201812210200 METAR LRCK 210200Z 25005KT 3000 BR OVC003 M03/M03 Q1027 R36/710195
                        NOSIG=
201812210230 METAR LRCK 210230Z 25007KT 2500 BR OVC002 M03/M03 Q1027 R36/710195
                        NOSIG=
201812210300 METAR LRCK 210300Z 25008KT 2000 BR OVC002 M03/M03 Q1027 R36/710195
                        TEMPO 1500 BR=
201812210330 METAR LRCK 210330Z 27009KT 0600 R18/1000U R36/1000D FZFG
                        VV002 M03/M03 Q1027 R36/710195 TEMPO
                        0350 FZFG VV001=
201812210400 METAR LRCK 210400Z 26008KT 1500 BR OVC002 M03/M04 Q1027 R36/710195
                        NOSIG=
201812210430 METAR LRCK 210430Z 26008KT 3000 BR OVC002 M04/M04 Q1027 R36/710195
                        NOSIG=
201812210500 METAR LRCK 210500Z 26007KT 4000 BR OVC003 M04/M04 Q1027 R36/710195
                        NOSIG=
201812210530 METAR LRCK 210530Z 25007KT 220V280 3000 BR OVC003 M04/M04
                        Q1027 R36/710195 NOSIG=
201812210600 METAR LRCK 210600Z 25007KT 2300 BR OVC002 M04/M04 Q1027 R36/710195
                        NOSIG=
201812210630 METAR LRCK 210630Z 25006KT 1500 BR OVC002 M04/M04 Q1028 R36/710195
                        NOSIG=
201812210700 METAR COR LRCK 210700Z 25007KT 0500 R18/0650D R36/0800D FZFG
                        OVC002 M04/M04 Q1028 R36/710195 NOSIG=
201812210730 METAR LRCK 210730Z 26007KT 0500 R18/0600N R36/0800N FZFG
                        OVC001 M04/M04 Q1028 R36/710195 NOSIG=
201812210800 METAR LRCK 210800Z 26007KT 0400 R18/0800N R36/0800N FZFG
                        OVC002 M03/M04 Q1028 R36/710195 NOSIG=
201812210830 METAR LRCK 210830Z 25009KT 0400 R18/0650N R36/0800N FZFG
                        OVC002 M03/M04 Q1028 R36/710195 NOSIG=
201812210900 METAR LRCK 210900Z 25007KT 0600 R18/0800U R36/1000U FZFG
                        OVC002 M03/M03 Q1027 R36/710195 NOSIG=
201812210930 METAR LRCK 210930Z 23008KT 0800 R18/1200N R36/P2000 FZFG
                        OVC002 M03/M04 Q1027 R36/710195 NOSIG=
201812211000 METAR LRCK 211000Z 25008KT 1000 R18/1000N R36/P2000 BR OVC002
                        M03/M03 Q1027 R36/710195 BECMG 1500=
201812211030 METAR LRCK 211030Z 26008KT 1200 R18/1100U R36/P2000 BR OVC002
                        M03/M03 Q1026 R36/710195 BECMG 1500=
201812211100 METAR COR LRCK 211100Z 26008KT 1400 R18/1500N R36/P2000 BR
                        OVC002 M03/M03 Q1026 R36/710195 BECMG
                        3000=
201812211130 METAR LRCK 211130Z 26009KT 1500 BR SCT002 OVC003 M03/M03
                        Q1026 R36/710195 TEMPO 3000=
201812211200 METAR LRCK 211200Z 26008KT 1000 R18/1500D R36/P2000 BR OVC002
                        M03/M03 Q1025 R36/710195 TEMPO 3000=
201812211230 METAR LRCK 211230Z 27007KT 250V320 0800 R18/1000N R36/1400N
                        FZFG OVC002 M03/M03 Q1025 R36/710195
                        TEMPO 3000=
201812211300 METAR LRCK 211300Z 26006KT 0600 R18/0900U R36/1100U FZFG
                        OVC002 M03/M03 Q1025 R36/710195 NOSIG=
201812211330 METAR LRCK 211330Z 24008KT 0800 R18/1200U R36/1600U FZFG
                        OVC002 M03/M03 Q1025 R36/710195 NOSIG=
201812211400 METAR LRCK 211400Z 26007KT 230V300 0500 R18/1100D R36/1600D
                        FZFG BKN001 OVC002 M03/M03 Q1025
                        R36/710195 NOSIG=
201812211430 METAR LRCK 211430Z 26010KT 0500 R18/1200D R36/1800D FZFG
                        SCT001 OVC002 M03/M03 Q1025 R36/710195
                        NOSIG=
201812211500 METAR LRCK 211500Z 26008KT 0400 R18/1400D R36/1600D FZFG
                        SCT001 OVC002 M03/M03 Q1025 R36/710195
                        NOSIG=
201812211530 METAR LRCK 211530Z 26009KT 0300 R18/0800D R36/1100D FZFG
                        OVC001 M03/M03 Q1025 R36/710195 NOSIG=
201812211600 METAR LRCK 211600Z 27010KT 0300 R18/0700N R36/0800N FZFG
                        VV002 M03/M03 Q1025 R36/710195 NOSIG=
201812211630 METAR LRCK 211630Z 29007KT 260V320 0250 R18/0600N R36/0700N
                        FZFG VV002 M03/M03 Q1025 R36/710195
                        NOSIG=
201812211700 METAR LRCK 211700Z 27008KT 0250 R18/0550N R36/0700N FZFG
                        VV002 M03/M03 Q1025 R36/710195 NOSIG=
201812211730 METAR LRCK 211730Z 28009KT 0200 R18/0600N R36/0600N FZFG
                        VV002 M03/M03 Q1025 R36/710195 NOSIG=
201812211800 METAR LRCK 211800Z 26008KT 0200 R18/0600N R36/0700N FZFG
                        VV002 M03/M03 Q1025 R36/710195 NOSIG=
201812211830 METAR LRCK 211830Z 27007KT 0300 R18/0650D R36/0800N FZFG
                        VV002 M03/M03 Q1024 R36/710195 TEMPO
                        0600 OVC002=
201812211900 METAR LRCK 211900Z 26009KT 0300 R18/1000U R36/0800N FZFG
                        VV002 M03/M03 Q1024 R36/710195 TEMPO
                        0600 OVC002=
201812211930 METAR LRCK 211930Z 27008KT 0400 R18/1600U R36/1100N FZFG
                        VV002 M03/M03 Q1024 R36/710195 TEMPO
                        0600 OVC002=
201812212000 METAR LRCK 212000Z 26007KT 0600 R18/2000D R36/1500D FZFG
                        VV002 M03/M03 Q1024 R36/710195 NOSIG=
201812212030 METAR LRCK 212030Z 26007KT 0400 R18/1000D R36/0900D FZFG
                        VV002 M03/M03 Q1023 R36/710195 NOSIG=
201812212100 METAR LRCK 212100Z 26007KT 240V320 0300 R18/0700N R36/0750N
                        FZFG VV002 M03/M03 Q1023 R36/710195
                        NOSIG=
201812212130 METAR LRCK 212130Z 25006KT 0300 R18/0750U R36/0700N FZFG
                        VV002 M03/M03 Q1023 R36/710195 NOSIG=
201812212200 METAR LRCK 212200Z 25005KT 0300 R18/0700N R36/0650U FZFG
                        VV002 M03/M03 Q1023 R36/710195 NOSIG=
201812212230 METAR LRCK 212230Z 26005KT 0300 R36/0650N FZFG VV002 M03/M03
                        Q1023 R36/710195 NOSIG=
201812212300 METAR LRCK 212300Z 24005KT 0300 R36/0600N FZFG VV001 M03/M03
                        Q1023 R36/710195 NOSIG=
201812212330 METAR LRCK 212330Z 24005KT 0200 R36/0500N FZFG VV001 M03/M03
                        Q1022 R36/710195 NOSIG=
201812220000 METAR LRCK 220000Z 24006KT 0200 R36/0450N FZFG VV001 M03/M03
                        Q1022 R36/710195 NOSIG=
201812220030 METAR LRCK 220030Z 24006KT 0200 R36/0450N FZFG VV001 M03/M03
                        Q1022 R36/710195 NOSIG=
201812220100 METAR LRCK 220100Z 23007KT 0200 R36/0600N FZFG VV002 M03/M03
                        Q1022 R36/710195 NOSIG=
201812220130 METAR LRCK 220130Z 24007KT 0200 R36/0650N FZFG VV002 M03/M03
                        Q1021 R36/710195 NOSIG=
201812220200 METAR LRCK 220200Z 22007KT 0200 R36/0450N FZFG VV001 M03/M03
                        Q1021 R36/710195 NOSIG=
201812220230 METAR LRCK 220230Z 21009KT 0200 R36/0400N FZFG VV001 M04/M04
                        Q1021 R36/710195 NOSIG=
201812220300 METAR LRCK 220300Z 22007KT 0200 R36/0550N FZFG VV001 M04/M04
                        Q1020 R36/710195 NOSIG=
201812220330 METAR LRCK 220330Z 22005KT 0800 R36/2000U FZFG SCT003 M04/M04
                        Q1020 R36/710195 BECMG 3000 BR=
201812220400 METAR LRCK 220400Z 25005KT 3000 BR NSC M03/M04 Q1020 R36/710195
                        BECMG 5000=
201812220430 METAR LRCK 220430Z 22006KT 5000 BR NSC M03/M04 Q1020 R36/710195
                        BECMG 9999 NSW=
201812220500 METAR LRCK 220500Z 23008KT 6000 NSC M03/M03 Q1019 R36/710195
                        NOSIG=
201812220530 METAR LRCK 220530Z 24007KT 6000 NSC M03/M03 Q1019 R36/710195
                        NOSIG=
201812220600 METAR LRCK 220600Z 23004KT 6000 NSC M03/M03 Q1019 R36/710195
                        NOSIG=
201812220630 METAR LRCK 220630Z 26004KT 7000 NSC M02/M02 Q1019 R36/710195
                        NOSIG=
201812220700 METAR LRCK 220700Z 26006KT 8000 NSC M01/M01 Q1019 R36/710195
                        NOSIG=
201812220730 METAR LRCK 220730Z 25006KT 8000 NSC M01/M01 Q1018 R36/710195
                        NOSIG=
201812220800 METAR LRCK 220800Z 25005KT 8000 NSC M00/M00 Q1019 R36/710195
                        NOSIG=
201812220830 METAR LRCK 220830Z 25006KT CAVOK 00/00 Q1019 R36/710195 NOSIG=
201812220900 METAR LRCK 220900Z 26008KT CAVOK 01/01 Q1019 R36/710195 NOSIG=
201812220930 METAR LRCK 220930Z 26007KT CAVOK 01/01 Q1018 R36/710195 NOSIG=
201812221000 METAR LRCK 221000Z 25009KT CAVOK 02/01 Q1017 R36/710195 NOSIG=
201812221030 METAR LRCK 221030Z 23011KT CAVOK 03/01 Q1016 R36/22//95 NOSIG=
201812221100 METAR LRCK 221100Z 24014KT CAVOK 03/02 Q1016 R36/22//95 NOSIG=
201812221130 METAR LRCK 221130Z 25015KT CAVOK 04/02 Q1016 R36/22//95 NOSIG=
201812221200 METAR LRCK 221200Z 24017KT CAVOK 05/02 Q1016 R36/22//95 NOSIG=
201812221230 METAR LRCK 221230Z 25012KT CAVOK 05/02 Q1016 R36/22//95 NOSIG=
201812221300 METAR LRCK 221300Z 25012KT CAVOK 04/02 Q1016 R36/22//95 NOSIG=
201812221330 METAR LRCK 221330Z 25012KT CAVOK 04/02 Q1015 R36/22//95 NOSIG=
201812221400 METAR LRCK 221400Z 26014KT CAVOK 04/02 Q1015 R36/22//95 NOSIG=
201812221430 METAR LRCK 221430Z 26013KT CAVOK 04/02 Q1016 R36/22//95 NOSIG=
201812221500 METAR LRCK 221500Z 27013KT CAVOK 04/01 Q1016 R36/22//95 NOSIG=
201812221530 METAR LRCK 221530Z 26011KT CAVOK 04/01 Q1016 R36/22//95 NOSIG=
201812221600 METAR LRCK 221600Z 27012KT CAVOK 04/01 Q1016 R36/22//95 NOSIG=
201812221630 METAR LRCK 221630Z 26013KT CAVOK 04/01 Q1015 R36/22//95 NOSIG=
201812221700 METAR LRCK 221700Z 26014KT CAVOK 05/02 Q1015 R36/22//95 NOSIG=
201812221730 METAR LRCK 221730Z 26015KT CAVOK 06/02 Q1015 R36/22//95 NOSIG=
201812221800 METAR LRCK 221800Z 26014KT CAVOK 05/01 Q1014 R36/22//95 NOSIG=
201812221830 METAR LRCK 221830Z 26014KT CAVOK 04/01 Q1014 R36/22//95 NOSIG=
201812221900 METAR LRCK 221900Z 26012KT CAVOK 05/02 Q1014 R36/22//95 NOSIG=
201812221930 METAR LRCK 221930Z 25013KT CAVOK 04/01 Q1014 R36/22//95 NOSIG=
201812222000 METAR LRCK 222000Z 26012KT CAVOK 05/02 Q1014 R36/22//95 NOSIG=
201812222030 METAR LRCK 222030Z 26010KT CAVOK 05/02 Q1014 R36/22//95 NOSIG=
201812222100 METAR LRCK 222100Z 25010KT CAVOK 04/01 Q1014 R36/22//95 NOSIG=
201812222130 METAR LRCK 222130Z 24012KT CAVOK 03/01 Q1013 R36/22//95 NOSIG=
201812222200 METAR LRCK 222200Z 24011KT CAVOK 04/02 Q1013 R36/22//95 NOSIG=
201812222230 METAR LRCK 222230Z 24016KT CAVOK 05/02 Q1013 R36/22//95 NOSIG=
201812222300 METAR LRCK 222300Z 24015KT CAVOK 06/03 Q1012 R36/22//95 NOSIG=
201812222330 METAR LRCK 222330Z 25012KT CAVOK 05/03 Q1012 R36/22//95 NOSIG=
201812230000 METAR LRCK 230000Z 25012KT CAVOK 05/03 Q1012 R36/22//95 NOSIG=
201812230030 METAR LRCK 230030Z 27012KT CAVOK 06/03 Q1012 R36/22//95 NOSIG=
201812230100 METAR LRCK 230100Z 26013KT CAVOK 06/04 Q1012 R36/22//95 NOSIG=
201812230130 METAR LRCK 230130Z 25009KT CAVOK 04/03 Q1012 R36/22//95 NOSIG=
201812230200 METAR LRCK 230200Z 25010KT CAVOK 04/03 Q1012 R36/22//95 NOSIG=
201812230230 METAR LRCK 230230Z 25009KT CAVOK 05/03 Q1012 R36/22//95 NOSIG=
201812230300 METAR LRCK 230300Z 25010KT CAVOK 05/03 Q1013 R36/22//95 NOSIG=
201812230330 METAR LRCK 230330Z 25010KT CAVOK 04/03 Q1013 R36/22//95 NOSIG=
201812230400 METAR LRCK 230400Z 26014KT CAVOK 04/03 Q1012 R36/22//95 NOSIG=
201812230430 METAR LRCK 230430Z 27012KT CAVOK 04/02 Q1012 R36/22//95 NOSIG=
201812230500 METAR LRCK 230500Z 26014KT CAVOK 04/02 Q1013 R36/22//95 NOSIG=
201812230530 METAR LRCK 230530Z 26013KT CAVOK 04/02 Q1013 R36/22//95 NOSIG=
201812230600 METAR LRCK 230600Z 26011KT CAVOK 04/02 Q1013 R36/22//95 NOSIG=
201812230630 METAR LRCK 230630Z 27012KT CAVOK 04/02 Q1013 R36/22//95 NOSIG=
201812230700 METAR LRCK 230700Z 27013KT CAVOK 04/03 Q1013 R36/22//95 NOSIG=
201812230730 METAR LRCK 230730Z 27009KT CAVOK 05/03 Q1014 R36/22//95 NOSIG=
201812230800 METAR LRCK 230800Z 27013KT CAVOK 05/04 Q1014 R36/22//95 NOSIG=
201812230830 METAR LRCK 230830Z 27012KT CAVOK 06/04 Q1015 R36/22//95 NOSIG=
201812230900 METAR LRCK 230900Z 28009KT CAVOK 06/04 Q1015 R36/22//95 NOSIG=
201812230930 METAR LRCK 230930Z 30008KT 280V340 CAVOK 06/04 Q1016 R36/22//95
                        NOSIG=
201812231000 METAR LRCK 231000Z 29009KT CAVOK 06/04 Q1016 R36/22//95 NOSIG=
201812231030 METAR LRCK 231030Z 28006KT CAVOK 07/04 Q1016 R36/22//95 NOSIG=
201812231100 METAR LRCK 231100Z 27006KT CAVOK 08/04 Q1017 R36/22//95 NOSIG=
201812231130 METAR LRCK 231130Z 27006KT CAVOK 08/03 Q1017 R36/CLRD// NOSIG=
201812231200 METAR LRCK 231200Z 23007KT CAVOK 09/04 Q1017 NOSIG=
201812231230 METAR LRCK 231230Z 23006KT CAVOK 09/04 Q1017 NOSIG=
201812231300 METAR LRCK 231300Z 23008KT CAVOK 08/05 Q1017 NOSIG=
201812231330 METAR LRCK 231330Z 25007KT CAVOK 08/05 Q1017 NOSIG=
201812231400 METAR LRCK 231400Z 26008KT CAVOK 07/05 Q1018 NOSIG=
201812231430 METAR LRCK 231430Z 27010KT CAVOK 07/05 Q1018 NOSIG=
201812231500 METAR LRCK 231500Z 27008KT CAVOK 06/04 Q1018 NOSIG=
201812231530 METAR LRCK 231530Z 27008KT CAVOK 05/03 Q1018 NOSIG=
201812231600 METAR LRCK 231600Z 28008KT CAVOK 04/03 Q1018 NOSIG=
201812231630 METAR LRCK 231630Z 26006KT CAVOK 04/02 Q1018 NOSIG=
201812231700 METAR LRCK 231700Z 27007KT CAVOK 03/02 Q1019 NOSIG=
201812231730 METAR LRCK 231730Z 26007KT CAVOK 03/02 Q1019 NOSIG=
201812231800 METAR LRCK 231800Z 25008KT CAVOK 03/02 Q1019 NOSIG=
201812231830 METAR LRCK 231830Z 27009KT CAVOK 03/03 Q1019 NOSIG=
201812231900 METAR LRCK 231900Z 27009KT CAVOK 04/04 Q1019 NOSIG=
201812231930 METAR LRCK 231930Z 36004KT 320V030 CAVOK 03/03 Q1019 NOSIG=
201812232000 METAR LRCK 232000Z 32004KT 290V020 CAVOK 02/02 Q1019 NOSIG=
201812232030 METAR LRCK 232030Z 36005KT CAVOK 03/02 Q1019 NOSIG=
201812232100 METAR LRCK 232100Z 08001KT 8000 FEW012 02/02 Q1019 NOSIG=
201812232130 METAR LRCK 232130Z VRB01KT 8000 FEW012 02/02 Q1019 NOSIG=
201812232200 METAR LRCK 232200Z 35002KT 8000 NSC 01/01 Q1019 NOSIG=
201812232230 METAR LRCK 232230Z 10001KT 8000 NSC 03/03 Q1019 NOSIG=
201812232300 METAR COR LRCK 232300Z VRB01KT 8000 NSC 01/01 Q1018 NOSIG=
201812232330 METAR LRCK 232330Z 26003KT 8000 NSC 01/01 Q1018 NOSIG=
201812240000 METAR COR LRCK 240000Z VRB04KT 6000 MIFG NSC 01/01 Q1018
                        NOSIG=
201812240030 METAR LRCK 240030Z 13002KT 5000 R18/P2000 R36/0800D BCFG
                        BR NSC 01/01 Q1018 NOSIG=
201812240100 METAR LRCK 240100Z 17007KT 3000 R18/1100U R36/P2000 BCFG
                        BR NSC 01/01 Q1018 TEMPO 1500 BR=
201812240130 METAR LRCK 240130Z 22006KT 1500 R18/0800D R36/1000D BCFG
                        BR NSC M00/M00 Q1018 NOSIG=
201812240200 METAR LRCK 240200Z 23007KT 0300 R18/0800D R36/0750D FG BKN001
                        00/00 Q1018 NOSIG=
201812240230 METAR LRCK 240230Z 23006KT 0200 R18/0550N FZFG VV001 M00/M00
                        Q1017 NOSIG=
201812240300 METAR COR LRCK 240300Z 22006KT 0300 R18/1200D R36/0600N FG
                        BKN002 00/00 Q1016 NOSIG=
201812240330 METAR LRCK 240330Z 21007KT 0800 R18/P2000 R36/1200U FG FEW002
                        00/00 Q1016=
201812240400 METAR LRCK 240400Z 22006KT 1500 BR NSC M00/M00 Q1015 NOSIG=
201812240430 METAR LRCK 240430Z 23008KT 3000 BR NSC 00/00 Q1015 NOSIG=
201812240500 METAR LRCK 240500Z 23008KT 5000 BR NSC M00/M00 Q1015 NOSIG=
201812240530 METAR LRCK 240530Z 22006KT 6000 NSC M00/M00 Q1014 NOSIG=
201812240600 METAR LRCK 240600Z 24009KT CAVOK 01/01 Q1014 NOSIG=
201812240630 METAR LRCK 240630Z 24009KT CAVOK 01/01 Q1014 NOSIG=
201812240700 METAR LRCK 240700Z 23010KT CAVOK 02/01 Q1014 NOSIG=
201812240730 METAR LRCK 240730Z 22007KT CAVOK 02/01 Q1012 NOSIG=
201812240800 METAR LRCK 240800Z 21008KT CAVOK 01/01 Q1012 NOSIG=
201812240830 METAR LRCK 240830Z 18007KT 150V210 CAVOK 02/01 Q1012 NOSIG=
201812240900 METAR LRCK 240900Z 21006KT CAVOK 03/02 Q1011 NOSIG=
201812240930 METAR LRCK 240930Z 19007KT CAVOK 04/03 Q1010 NOSIG=
201812241000 METAR LRCK 241000Z 20007KT CAVOK 06/04 Q1009 NOSIG=
201812241030 METAR LRCK 241030Z 19010KT CAVOK 07/04 Q1008 NOSIG=
201812241100 METAR LRCK 241100Z 18010KT CAVOK 07/05 Q1007 NOSIG=
201812241130 METAR LRCK 241130Z 18012KT CAVOK 08/05 Q1006 NOSIG=
201812241200 METAR LRCK 241200Z 19013KT CAVOK 08/05 Q1005 NOSIG=
201812241230 METAR LRCK 241230Z 19011KT 9999 -RA NSC 08/05 Q1005 NOSIG=
201812241300 METAR LRCK 241300Z 19011KT 9999 -RA NSC 08/05 Q1004 NOSIG=
201812241330 METAR LRCK 241330Z 19010KT 9999 -RA NSC 08/05 Q1004 NOSIG=
201812241400 METAR LRCK 241400Z 19009KT 9999 -RA NSC 08/05 Q1003 R18/19//95
                        NOSIG=
201812241430 METAR LRCK 241430Z 20010KT CAVOK 08/05 Q1003 R18/19//95 NOSIG=
201812241500 METAR LRCK 241500Z 21010KT 9999 -RA NSC 07/05 Q1002 R18/19//95
                        NOSIG=
201812241530 METAR LRCK 241530Z 22010KT 9999 -RA NSC 07/05 Q1002 R18/19//95
                        NOSIG=
201812241600 METAR LRCK 241600Z 22012KT 9999 -RA BKN048 08/05 Q1002 R18/19//95
                        NOSIG=
201812241630 METAR LRCK 241630Z 23012KT 9999 -RA BKN034 08/05 Q1002 R18/19//95
                        NOSIG=
201812241700 METAR LRCK 241700Z 24011KT 8000 -RA BKN029 07/06 Q1002 R18/290095
                        NOSIG=
201812241730 METAR LRCK 241730Z 25015KT 9999 -RA BKN029 07/06 Q1002 R18/290095
                        NOSIG=
201812241800 METAR LRCK 241800Z 26020KT 9999 FEW029 SCT042 09/07 Q1002
                        R18/290095 NOSIG=
201812241830 METAR LRCK 241830Z 27023KT 9999 -RA SCT016 SCT042 08/07 Q1003
                        R18/290095 NOSIG=
201812241900 METAR LRCK 241900Z 30019KT 9999 SCT014 BKN042 05/03 Q1004
                        R18/290095 NOSIG=
201812241930 METAR LRCK 241930Z 31020KT 9999 FEW010 SCT032 OVC039 03/02
                        Q1006 R18/290095 NOSIG=
201812242000 METAR LRCK 242000Z 31018KT 9999 BKN011 OVC039 03/02 Q1006
                        R36/290095 NOSIG=
201812242030 METAR LRCK 242030Z 31020KT 9999 BKN011 OVC036 03/01 Q1006
                        R36/290095 NOSIG=
201812242100 METAR LRCK 242100Z 32019KT 9999 BKN013 BKN046 03/01 Q1007
                        R36/290095 NOSIG=
201812242130 METAR LRCK 242130Z 32020G30KT 9999 SCT012 BKN049 02/01 Q1009
                        R36/290095 NOSIG=
201812242200 METAR LRCK 242200Z 32022G32KT 9999 FEW049 02/00 Q1009 R36/290095
                        NOSIG=
201812242230 METAR LRCK 242230Z 32020KT 9999 FEW013 02/M00 Q1010 R36/290095
                        NOSIG=
201812242300 METAR LRCK 242300Z 32018KT CAVOK 02/M00 Q1010 R36/290095
                        NOSIG=
201812242330 METAR LRCK 242330Z 33016KT CAVOK 01/M01 Q1011 R36/290095
                        NOSIG=
201812250000 METAR LRCK 250000Z 33015KT CAVOK 01/M02 Q1011 R36/290095
                        NOSIG=
201812250030 METAR LRCK 250030Z 32019KT CAVOK 01/M02 Q1012 R36/290095
                        NOSIG=
201812250100 METAR LRCK 250100Z 33014KT CAVOK 01/M02 Q1013 R36/290095
                        NOSIG=
201812250130 METAR LRCK 250130Z 32016KT CAVOK 01/M02 Q1013 R36/290095
                        NOSIG=
201812250200 METAR LRCK 250200Z 33017KT CAVOK 01/M03 Q1013 R36/290095
                        NOSIG=
201812250230 METAR LRCK 250230Z 32019KT CAVOK 01/M03 Q1013 R36/290095
                        NOSIG=
201812250300 METAR LRCK 250300Z 33018KT CAVOK 01/M03 Q1013 R36/290095
                        NOSIG=
201812250330 METAR LRCK 250330Z 34019G30KT CAVOK 01/M03 Q1014 R36/290095
                        NOSIG=
201812250400 METAR LRCK 250400Z 35026KT CAVOK 01/M04 Q1014 R36/290095
                        NOSIG=
201812250430 METAR LRCK 250430Z 35022KT CAVOK 00/M04 Q1014 R36/290095
                        NOSIG=
201812250500 METAR LRCK 250500Z 35020KT CAVOK 00/M04 Q1015 R36/290095
                        NOSIG=
201812250530 METAR LRCK 250530Z 33013KT CAVOK 00/M04 Q1016 R36/CLRD//
                        NOSIG=
201812250600 METAR LRCK 250600Z 33011KT CAVOK 00/M04 Q1017 NOSIG=
201812250630 METAR LRCK 250630Z 32009KT CAVOK 00/M04 Q1017 NOSIG=
201812250700 METAR LRCK 250700Z 33011KT CAVOK M00/M05 Q1018 NOSIG=
201812250730 METAR LRCK 250730Z 34015KT CAVOK 01/M05 Q1018 NOSIG=
201812250800 METAR LRCK 250800Z 34017G29KT CAVOK 02/M04 Q1018 NOSIG=
201812250830 METAR LRCK 250830Z 33016KT CAVOK 02/M04 Q1018 NOSIG=
201812250900 METAR LRCK 250900Z 34017KT CAVOK 03/M04 Q1018 NOSIG=
201812250930 METAR LRCK 250930Z 33016KT CAVOK 03/M04 Q1018 NOSIG=
201812251000 METAR LRCK 251000Z 32015KT CAVOK 04/M05 Q1018 NOSIG=
201812251030 METAR LRCK 251030Z 30013KT 270V330 CAVOK 04/M04 Q1018 NOSIG=
201812251100 METAR LRCK 251100Z 29013KT CAVOK 04/M04 Q1018 NOSIG=
201812251130 METAR LRCK 251130Z 27015KT 9999 FEW030 04/M03 Q1018 NOSIG=
201812251200 METAR LRCK 251200Z 27012KT 9999 FEW035 04/M03 Q1018 NOSIG=
201812251230 METAR LRCK 251230Z 27013KT 9999 FEW040 03/M02 Q1018 NOSIG=
201812251300 METAR LRCK 251300Z 27012KT 9999 SCT040 03/M02 Q1018 NOSIG=
201812251330 METAR LRCK 251330Z 26009KT 9999 SCT048 02/M01 Q1018 NOSIG=
201812251400 METAR LRCK 251400Z 24009KT 9999 SCT045 02/M01 Q1019 NOSIG=
201812251430 METAR LRCK 251430Z 26011KT 9999 FEW045 01/M02 Q1019 NOSIG=
201812251500 METAR LRCK 251500Z 26008KT 9999 FEW048 01/M03 Q1019 NOSIG=
201812251530 METAR LRCK 251530Z 27009KT CAVOK 00/M03 Q1019 NOSIG=
201812251600 METAR LRCK 251600Z 28008KT CAVOK 00/M03 Q1019 NOSIG=
201812251630 METAR LRCK 251630Z 28009KT CAVOK 00/M03 Q1020 NOSIG=
201812251700 METAR LRCK 251700Z 29008KT CAVOK 01/M03 Q1020 NOSIG=
201812251730 METAR LRCK 251730Z 28008KT CAVOK 01/M03 Q1020 NOSIG=
201812251800 METAR LRCK 251800Z 29008KT CAVOK 00/M03 Q1021 NOSIG=
201812251830 METAR COR LRCK 251830Z 30009KT CAVOK 01/M03 Q1021 NOSIG=
201812251900 METAR LRCK 251900Z 32010KT CAVOK 01/M03 Q1021 NOSIG=
201812251930 METAR LRCK 251930Z 32009KT CAVOK 01/M03 Q1021 NOSIG=
201812252000 METAR LRCK 252000Z 33013KT CAVOK 00/M03 Q1021 NOSIG=
201812252030 METAR LRCK 252030Z 33012KT CAVOK 00/M04 Q1021 NOSIG=
201812252100 METAR LRCK 252100Z 34012KT CAVOK M00/M04 Q1021 NOSIG=
201812252130 METAR LRCK 252130Z 34011KT CAVOK M00/M04 Q1021 NOSIG=
201812252200 METAR LRCK 252200Z 34008KT CAVOK M01/M04 Q1021 NOSIG=
201812252230 METAR LRCK 252230Z 32005KT CAVOK M02/M04 Q1021 NOSIG=
201812252300 METAR LRCK 252300Z 31008KT CAVOK M00/M04 Q1022 NOSIG=
201812252330 METAR LRCK 252330Z 28007KT CAVOK M01/M04 Q1022 NOSIG=
201812260000 METAR LRCK 260000Z 28007KT CAVOK M01/M04 Q1023 NOSIG=
201812260030 METAR LRCK 260030Z 28006KT CAVOK M02/M04 Q1023 NOSIG=
201812260100 METAR LRCK 260100Z 27007KT CAVOK M01/M03 Q1023 NOSIG=
201812260130 METAR LRCK 260130Z 27007KT CAVOK M01/M03 Q1022 NOSIG=
201812260200 METAR LRCK 260200Z 28008KT CAVOK M01/M03 Q1022 NOSIG=
201812260230 METAR LRCK 260230Z 28007KT CAVOK M01/M03 Q1022 NOSIG=
201812260300 METAR LRCK 260300Z 26007KT CAVOK M01/M04 Q1022 NOSIG=
201812260330 METAR LRCK 260330Z 27009KT CAVOK M01/M04 Q1022 NOSIG=
201812260400 METAR LRCK 260400Z 27010KT CAVOK M01/M03 Q1022 NOSIG=
201812260430 METAR LRCK 260430Z 27010KT CAVOK M01/M03 Q1023 NOSIG=
201812260500 METAR LRCK 260500Z 27010KT CAVOK M01/M03 Q1023 NOSIG=
201812260530 METAR LRCK 260530Z 27012KT CAVOK M01/M03 Q1023 NOSIG=
201812260600 METAR LRCK 260600Z 27011KT CAVOK M02/M03 Q1023 NOSIG=
201812260630 METAR LRCK 260630Z 27010KT CAVOK M02/M03 Q1023 NOSIG=
201812260700 METAR LRCK 260700Z 27011KT CAVOK M02/M03 Q1023 NOSIG=
201812260730 METAR LRCK 260730Z 26013KT CAVOK M01/M04 Q1023 NOSIG=
201812260800 METAR LRCK 260800Z 27013KT CAVOK M00/M04 Q1023 NOSIG=
201812260830 METAR LRCK 260830Z 26014KT CAVOK 01/M03 Q1023 NOSIG=
201812260900 METAR LRCK 260900Z 27013KT CAVOK 01/M04 Q1023 NOSIG=
201812260930 METAR LRCK 260930Z 27012KT CAVOK 02/M04 Q1023 NOSIG=
201812261000 METAR LRCK 261000Z 27014KT CAVOK 02/M03 Q1022 NOSIG=
201812261030 METAR LRCK 261030Z 26014KT CAVOK 03/M04 Q1022 NOSIG=
201812261100 METAR LRCK 261100Z 26013KT CAVOK 03/M03 Q1022 NOSIG=
201812261130 METAR LRCK 261130Z 26012KT CAVOK 03/M03 Q1022 NOSIG=
201812261200 METAR LRCK 261200Z 27011KT CAVOK 03/M03 Q1022 NOSIG=
201812261230 METAR LRCK 261230Z 26012KT CAVOK 03/M03 Q1021 NOSIG=
201812261300 METAR LRCK 261300Z 26012KT CAVOK 03/M03 Q1021 NOSIG=
201812261330 METAR LRCK 261330Z 26011KT CAVOK 03/M02 Q1021 NOSIG=
201812261400 METAR LRCK 261400Z 26012KT CAVOK 02/M03 Q1021 NOSIG=
201812261430 METAR LRCK 261430Z 26011KT CAVOK 01/M03 Q1020 NOSIG=
201812261500 METAR LRCK 261500Z 26011KT CAVOK 01/M02 Q1021 NOSIG=
201812261530 METAR LRCK 261530Z 26012KT CAVOK 01/M02 Q1020 NOSIG=
201812261600 METAR LRCK 261600Z 27012KT CAVOK 00/M02 Q1020 NOSIG=
201812261630 METAR LRCK 261630Z 26013KT CAVOK 00/M02 Q1020 NOSIG=
201812261700 METAR LRCK 261700Z 26009KT CAVOK 00/M01 Q1020 NOSIG=
201812261730 METAR LRCK 261730Z 26010KT CAVOK 00/M01 Q1020 NOSIG=
201812261800 METAR LRCK 261800Z 27007KT CAVOK 01/M01 Q1020 NOSIG=
201812261830 METAR LRCK 261830Z 28008KT CAVOK 01/M01 Q1020 NOSIG=
201812261900 METAR LRCK 261900Z 27011KT CAVOK 01/M01 Q1020 NOSIG=
201812261930 METAR LRCK 261930Z 26011KT CAVOK 00/M01 Q1020 NOSIG=
201812262000 METAR LRCK 262000Z 26012KT CAVOK 01/M01 Q1019 NOSIG=
201812262030 METAR LRCK 262030Z 26013KT CAVOK 01/M01 Q1019 NOSIG=
201812262100 METAR LRCK 262100Z 27013KT CAVOK 01/M00 Q1019 NOSIG=
201812262130 METAR LRCK 262130Z 26011KT CAVOK 01/M00 Q1019 NOSIG=
201812262200 METAR LRCK 262200Z 26010KT CAVOK 01/M00 Q1019 NOSIG=
201812262230 METAR LRCK 262230Z 26010KT CAVOK 01/M00 Q1019 NOSIG=
201812262300 METAR LRCK 262300Z 27011KT CAVOK 01/M00 Q1019 NOSIG=
201812262330 METAR LRCK 262330Z 27013KT CAVOK 01/M00 Q1019 NOSIG=
201812270000 METAR LRCK 270000Z 28013KT CAVOK 01/M00 Q1019 NOSIG=
201812270030 METAR LRCK 270030Z 27012KT 9999 FEW049 01/M00 Q1019 NOSIG=
201812270100 METAR LRCK 270100Z 28011KT 9999 FEW049 01/M00 Q1019 NOSIG=
201812270130 METAR LRCK 270130Z 27012KT 9999 SCT049 01/M00 Q1019 NOSIG=
201812270200 METAR LRCK 270200Z 28011KT 9999 FEW049 01/M00 Q1019 NOSIG=
201812270230 METAR LRCK 270230Z 28011KT 8000 NSC 01/M00 Q1019 NOSIG=
201812270300 METAR LRCK 270300Z 28009KT 8000 NSC 01/M00 Q1019 NOSIG=
201812270330 METAR LRCK 270330Z 28011KT 8000 SCT041 01/M00 Q1019 NOSIG=
201812270400 METAR LRCK 270400Z 28011KT 9999 BKN043 01/M00 Q1020 NOSIG=
201812270430 METAR LRCK 270430Z 27011KT 9999 BKN045 01/M00 Q1020 NOSIG=
201812270500 METAR LRCK 270500Z 27012KT 9999 SCT047 01/M01 Q1020 NOSIG=
201812270530 METAR LRCK 270530Z 28011KT 9999 SCT049 01/M00 Q1020 NOSIG=
201812270600 METAR LRCK 270600Z 28011KT 9999 SCT049 01/M01 Q1021 NOSIG=
201812270630 METAR LRCK 270630Z 28010KT CAVOK 01/M00 Q1021 NOSIG=
201812270700 METAR LRCK 270700Z 28009KT CAVOK 01/M00 Q1022 NOSIG=
201812270730 METAR LRCK 270730Z 27011KT CAVOK 01/M00 Q1021 NOSIG=
201812270800 METAR LRCK 270800Z 27011KT CAVOK 01/M00 Q1022 NOSIG=
201812270830 METAR LRCK 270830Z 29010KT CAVOK 02/M00 Q1022 NOSIG=
201812270900 METAR LRCK 270900Z 29010KT CAVOK 02/M00 Q1022 NOSIG=
201812270930 METAR LRCK 270930Z 28010KT CAVOK 02/M00 Q1022 NOSIG=
201812271000 METAR LRCK 271000Z 28011KT CAVOK 03/00 Q1022 NOSIG=
201812271030 METAR LRCK 271030Z 28010KT CAVOK 03/00 Q1021 NOSIG=
201812271100 METAR LRCK 271100Z 28009KT CAVOK 03/00 Q1021 NOSIG=
201812271130 METAR LRCK 271130Z 29009KT CAVOK 03/00 Q1021 NOSIG=
201812271200 METAR LRCK 271200Z 28010KT CAVOK 04/01 Q1021 NOSIG=
201812271230 METAR LRCK 271230Z 28008KT CAVOK 04/01 Q1021 NOSIG=
201812271300 METAR LRCK 271300Z 28009KT CAVOK 04/01 Q1022 NOSIG=
201812271330 METAR LRCK 271330Z 28008KT CAVOK 05/02 Q1022 NOSIG=
201812271400 METAR LRCK 271400Z 27008KT 250V310 CAVOK 05/02 Q1022 NOSIG=
201812271430 METAR LRCK 271430Z 27006KT CAVOK 04/02 Q1022 NOSIG=
201812271500 METAR LRCK 271500Z 26006KT 130V280 CAVOK 04/02 Q1022 NOSIG=
201812271530 METAR LRCK 271530Z 26006KT CAVOK 03/02 Q1022 NOSIG=
201812271600 METAR LRCK 271600Z 28004KT CAVOK 03/02 Q1022 NOSIG=
201812271630 METAR LRCK 271630Z 25006KT 230V290 CAVOK 02/01 Q1022 NOSIG=
201812271700 METAR LRCK 271700Z 25008KT CAVOK 02/01 Q1023 NOSIG=
201812271730 METAR LRCK 271730Z 25007KT CAVOK 01/00 Q1023 NOSIG=
201812271800 METAR LRCK 271800Z 27008KT CAVOK 01/M00 Q1023 NOSIG=
201812271830 METAR LRCK 271830Z 25008KT CAVOK 01/00 Q1023 NOSIG=
201812271900 METAR LRCK 271900Z 27008KT CAVOK 01/00 Q1023 NOSIG=
201812271930 METAR LRCK 271930Z 27010KT CAVOK 01/00 Q1023 NOSIG=
201812272000 METAR LRCK 272000Z 26009KT CAVOK 01/00 Q1022 NOSIG=
201812272030 METAR LRCK 272030Z 25011KT 8000 NSC 01/01 Q1022 NOSIG=
201812272100 METAR LRCK 272100Z 27011KT 8000 NSC 01/00 Q1022 NOSIG=
201812272130 METAR LRCK 272130Z 27012KT 8000 NSC 02/01 Q1022 NOSIG=
201812272200 METAR LRCK 272200Z 28009KT 8000 NSC 02/01 Q1022 NOSIG=
201812272230 METAR LRCK 272230Z 27009KT 8000 NSC 02/01 Q1022 NOSIG=
201812272300 METAR LRCK 272300Z 27010KT 8000 NSC 02/00 Q1022 NOSIG=
201812272330 METAR LRCK 272330Z 27011KT 8000 NSC 01/00 Q1021 NOSIG=
201812280000 METAR LRCK 280000Z 27010KT 8000 NSC 01/M00 Q1022 NOSIG=
201812280030 METAR COR LRCK 280030Z 27010KT 8000 NSC 00/M01 Q1021 NOSIG=
201812280100 METAR LRCK 280100Z 26010KT 7000 NSC 00/M01 Q1021 NOSIG=
201812280130 METAR LRCK 280130Z 26011KT 7000 NSC M00/M01 Q1021 NOSIG=
201812280200 METAR LRCK 280200Z 27012KT 7000 NSC 00/M01 Q1021 NOSIG=
201812280230 METAR LRCK 280230Z 27012KT 8000 NSC M00/M01 Q1020 NOSIG=
201812280300 METAR COR LRCK 280300Z 27011KT 8000 NSC M00/M01 Q1020 NOSIG=
201812280330 METAR LRCK 280330Z 26010KT 8000 NSC M00/M01 Q1020 NOSIG=
201812280400 METAR LRCK 280400Z 26011KT 7000 NSC M01/M01 Q1020 NOSIG=
201812280430 METAR LRCK 280430Z 26011KT 8000 NSC M00/M01 Q1020 NOSIG=
201812280500 METAR COR LRCK 280500Z 27012KT 8000 NSC 00/M01 Q1020 NOSIG=
201812280530 METAR LRCK 280530Z 25009KT 8000 NSC M00/M01 Q1020 NOSIG=
201812280600 METAR LRCK 280600Z 26009KT 8000 NSC M00/M01 Q1021 NOSIG=
201812280630 METAR LRCK 280630Z 25008KT 7000 NSC M00/M01 Q1020 NOSIG=
201812280700 METAR LRCK 280700Z 23006KT 7000 NSC M00/M01 Q1020 NOSIG=
201812280730 METAR LRCK 280730Z 25011KT CAVOK 01/M00 Q1020 NOSIG=
201812280800 METAR LRCK 280800Z 25011KT CAVOK 01/00 Q1020 NOSIG=
201812280830 METAR LRCK 280830Z 26009KT CAVOK 02/00 Q1020 NOSIG=
201812280900 METAR LRCK 280900Z 27012KT CAVOK 02/00 Q1020 NOSIG=
201812280930 METAR LRCK 280930Z 27014KT CAVOK 03/00 Q1019 NOSIG=
201812281000 METAR LRCK 281000Z 27015KT 9999 BKN049 03/01 Q1019 NOSIG=
201812281030 METAR LRCK 281030Z 27014KT 9999 SCT049 04/01 Q1018 NOSIG=
201812281100 METAR LRCK 281100Z 28012KT CAVOK 04/01 Q1018 NOSIG=
201812281130 METAR LRCK 281130Z 27012KT CAVOK 05/02 Q1018 NOSIG=
201812281200 METAR LRCK 281200Z 27011KT CAVOK 06/02 Q1018 NOSIG=
201812281230 METAR LRCK 281230Z 26010KT CAVOK 05/02 Q1018 NOSIG=
201812281300 METAR LRCK 281300Z 27012KT CAVOK 06/02 Q1018 NOSIG=
201812281330 METAR LRCK 281330Z 27013KT 9999 FEW047 06/02 Q1018 NOSIG=
201812281400 METAR LRCK 281400Z 27011KT 9999 SCT047 06/02 Q1018 NOSIG=
201812281430 METAR LRCK 281430Z 27012KT 9999 SCT049 05/02 Q1018 NOSIG=
201812281500 METAR LRCK 281500Z 28011KT 9999 SCT046 05/02 Q1018 NOSIG=
201812281530 METAR LRCK 281530Z 27011KT 9999 BKN047 04/02 Q1018 NOSIG=
201812281600 METAR LRCK 281600Z 27011KT 9999 -RA BKN048 04/02 Q1018 NOSIG=
201812281630 METAR LRCK 281630Z 28009KT 9999 -RA FEW042 04/02 Q1018 R36/19//95
                        NOSIG=
201812281700 METAR LRCK 281700Z 27009KT 9999 -RA SCT040 04/03 Q1018 R36/19//95
                        NOSIG=
201812281730 METAR LRCK 281730Z 28009KT 8000 SCT033 BKN043 04/03 Q1018
                        R36/19//95 NOSIG=
201812281800 METAR LRCK 281800Z 28010KT 5000 -RA BR BKN037 04/03 Q1018
                        R36/19//95 TEMPO 3000 BR=
201812281830 METAR LRCK 281830Z 27012KT 7000 -RA OVC032 04/03 Q1018 R36/19//95
                        TEMPO 3000 BR=
201812281900 METAR LRCK 281900Z 28011KT 7000 -RA BKN039 OVC049 04/03 Q1018
                        R36/29//95 TEMPO 3000 BR=
201812281930 METAR LRCK 281930Z 28010KT 6000 -RA OVC046 04/03 Q1018 R36/29//95
                        TEMPO 3000 BR=
201812282000 METAR LRCK 282000Z 29009KT 5000 -RA BR OVC043 04/03 Q1018
                        R36/29//95 NOSIG=
201812282030 METAR LRCK 282030Z 29008KT 4000 -RA BR FEW034 OVC040 04/03
                        Q1018 R36/29//95 TEMPO 3000 RA BKN015
                        OVC040=
201812282100 METAR LRCK 282100Z 30008KT 4000 -RA BR FEW026 OVC032 03/03
                        Q1018 R36/29//95 NOSIG=
201812282130 METAR LRCK 282130Z 30007KT 3500 -RA BR BKN030 03/03 Q1018
                        R36/29//95 NOSIG=
201812282200 METAR LRCK 282200Z 29007KT 3500 -RA BR SCT018 OVC030 03/03
                        Q1017 R36/29//95 NOSIG=
201812282230 METAR LRCK 282230Z 30008KT 3500 -RA BR OVC018 03/03 Q1017
                        R36/29//95 NOSIG=
201812282300 METAR LRCK 282300Z 30008KT 3500 -RA BR OVC020 03/03 Q1017
                        R36/29//95 NOSIG=
201812282330 METAR LRCK 282330Z 30005KT 3500 -RA BR BKN026 OVC046 03/03
                        Q1017 R36/29//95 NOSIG=
201812290000 METAR LRCK 290000Z 29006KT 3500 -RA BR SCT031 OVC043 03/03
                        Q1017 R36/29//95 NOSIG=
201812290030 METAR LRCK 290030Z 28007KT 2000 BR OVC034 03/03 Q1017 R36/29//95
                        NOSIG=
201812290100 METAR LRCK 290100Z 28008KT 2500 -RA BR OVC027 03/03 Q1017
                        R36/29//95 NOSIG=
201812290130 METAR LRCK 290130Z 29008KT 2000 0600N R18/1500U R36/P2000
                        PRFG BR FEW002 BKN031 03/03 Q1017
                        R36/29//95 NOSIG=
201812290200 METAR LRCK 290200Z 29007KT 1700 -RA BR SCT001 OVC027 03/03
                        Q1017 R36/29//95 NOSIG=
201812290230 METAR LRCK 290230Z 30008KT 2500 -RA BR SCT001 OVC029 03/03
                        Q1017 R36/29//95 NOSIG=
201812290300 METAR LRCK 290300Z 29007KT 3000 -RA BR FEW001 BKN029 03/03
                        Q1017 R36/29//95 NOSIG=
201812290330 METAR LRCK 290330Z 30006KT 3000 BR BKN030 03/03 Q1017 R36/29//95
                        NOSIG=
201812290400 METAR LRCK 290400Z 29005KT 3000 BR OVC030 03/03 Q1017 R36/29//95
                        NOSIG=
201812290430 METAR LRCK 290430Z 28005KT 3000 -RA BR BKN029 03/03 Q1017
                        R36/29//95 NOSIG=
201812290500 METAR LRCK 290500Z 28005KT 3000 -RA BR FEW001 SCT018 BKN039
                        03/03 Q1017 R36/29//95 NOSIG=
201812290530 METAR LRCK 290530Z 29006KT 0350 R18/0500N R36/0750N FG BKN001
                        03/03 Q1018 R36/29//95 NOSIG=
201812290600 METAR LRCK 290600Z 29007KT 0250 R18/0600N R36/0700D FG BKN001
                        03/03 Q1018 R36/29//95 NOSIG=
201812290630 METAR COR LRCK 290630Z 30008KT 0300 R18/0700N R36/0800U FG
                        BKN001 03/03 Q1018 R36/29//95 BECMG
                        0800 BKN002=
201812290700 METAR COR LRCK 290700Z 29009KT 1500 BR SCT001 BKN030 03/03
                        Q1018 R36/29//95 BECMG 3000=
201812290730 METAR LRCK 290730Z 30009KT 0800 R18/1600D R36/1300D -RADZ
                        FG BKN003 BKN027 03/03 Q1018 R36/29//95
                        TEMPO 1500 BR=
201812290800 METAR LRCK 290800Z 30009KT 0800 R18/1700N R36/1600N -DZRA
                        FG BKN002 BKN027 04/04 Q1018 R36/29//95
                        TEMPO 1500 BR=
201812290830 METAR LRCK 290830Z 30008KT 0800 R18/1600N R36/1800N -DZRA
                        FG BKN002 BKN028 04/04 Q1019 R36/29//95
                        TEMPO 1500 BR=
201812290900 METAR LRCK 290900Z 30007KT 1000 R18/1500U R36/P2000 BR BKN002
                        BKN035 04/04 Q1019 R36/29//95 TEMPO
                        3000 BKN005 BKN040=
201812290930 METAR LRCK 290930Z 29008KT 1000 R18/1600U R36/1500D BR BKN002
                        BKN030 04/04 Q1019 R36/29//95 TEMPO
                        3000 BKN005 BKN040=
201812291000 METAR LRCK 291000Z 31006KT 3000 -RA BR FEW003 BKN026 05/04
                        Q1018 R36/29//95 BECMG 5000=
201812291030 METAR LRCK 291030Z 32009KT 8000 FEW015 SCT027 06/04 Q1018
                        R36/29//95 NOSIG=
201812291100 METAR LRCK 291100Z 33012KT 9999 SCT022 06/04 Q1018 R36/29//95
                        NOSIG=
201812291130 METAR LRCK 291130Z 32012KT 9999 FEW015 SCT045 06/03 Q1018
                        R36/29//95 NOSIG=
201812291200 METAR LRCK 291200Z 33014KT 9999 SCT022 06/02 Q1019 R36/29//95
                        NOSIG=
201812291230 METAR LRCK 291230Z 32015KT 9999 SCT020 06/02 Q1019 R36/29//95
                        NOSIG=
201812291300 METAR LRCK 291300Z 32013KT 9999 SCT021 05/02 Q1019 R36/29//95
                        NOSIG=
201812291330 METAR LRCK 291330Z 32012KT 9999 BKN025 05/02 Q1019 R36/29//95
                        NOSIG=
201812291400 METAR LRCK 291400Z 31013KT 9999 FEW015 BKN021 05/02 Q1020
                        R36/29//95 NOSIG=
201812291430 METAR LRCK 291430Z 33011KT 9999 FEW016 SCT025 04/02 Q1020
                        R36/CLRD// NOSIG=
201812291500 METAR LRCK 291500Z 32010KT 9999 FEW025 04/02 Q1020 NOSIG=
201812291530 METAR LRCK 291530Z 32011KT 9999 FEW030 04/01 Q1020 NOSIG=
201812291600 METAR LRCK 291600Z 32011KT 9999 FEW035 04/01 Q1021 NOSIG=
201812291630 METAR LRCK 291630Z 32010KT CAVOK 03/01 Q1021 NOSIG=
201812291700 METAR LRCK 291700Z 32009KT CAVOK 03/01 Q1021 NOSIG=
201812291730 METAR LRCK 291730Z 31008KT CAVOK 03/01 Q1021 NOSIG=
201812291800 METAR LRCK 291800Z 31008KT CAVOK 03/01 Q1021 NOSIG=
201812291830 METAR LRCK 291830Z 31008KT CAVOK 03/01 Q1021 NOSIG=
201812291900 METAR LRCK 291900Z 31007KT CAVOK 02/01 Q1021 NOSIG=
201812291930 METAR LRCK 291930Z 31012KT 9999 SCT047 03/01 Q1021 NOSIG=
201812292000 METAR LRCK 292000Z 31009KT 9999 BKN048 03/01 Q1022 NOSIG=
201812292030 METAR LRCK 292030Z 29007KT 9999 SCT022 BKN048 02/01 Q1022
                        NOSIG=
201812292100 METAR LRCK 292100Z 30008KT 9999 BKN021 02/01 Q1022 NOSIG=
201812292130 METAR LRCK 292130Z 29008KT 9999 SCT020 02/01 Q1022 NOSIG=
201812292200 METAR LRCK 292200Z 29009KT 9999 BKN047 02/01 Q1022 NOSIG=
201812292230 METAR LRCK 292230Z 32010KT 9999 BKN045 02/01 Q1022 NOSIG=
201812292300 METAR LRCK 292300Z 32011KT 9999 OVC043 03/01 Q1021 NOSIG=
201812292330 METAR LRCK 292330Z 31010KT 9999 BKN048 02/01 Q1022 NOSIG=
201812300000 METAR LRCK 300000Z 32009KT 9999 BKN044 02/00 Q1022 NOSIG=
201812300030 METAR LRCK 300030Z 32008KT 9999 BKN046 02/00 Q1022 NOSIG=
201812300100 METAR LRCK 300100Z 32011KT 9999 BKN045 02/00 Q1022 NOSIG=
201812300130 METAR LRCK 300130Z 33010KT 9999 BKN045 02/00 Q1021 NOSIG=
201812300200 METAR LRCK 300200Z 32010KT 9999 BKN044 02/01 Q1021 NOSIG=
201812300230 METAR LRCK 300230Z 31009KT 9999 BKN044 02/00 Q1021 NOSIG=
201812300300 METAR COR LRCK 300300Z 30009KT 9999 BKN034 01/00 Q1021 NOSIG=
201812300330 METAR LRCK 300330Z 30009KT 9999 BKN032 01/00 Q1021 NOSIG=
201812300400 METAR LRCK 300400Z 28006KT 250V310 9999 BKN030 01/00 Q1022
                        NOSIG=
201812300430 METAR LRCK 300430Z 27005KT 9999 BKN027 01/00 Q1022 NOSIG=
201812300500 METAR LRCK 300500Z 27006KT 9999 SCT027 01/M00 Q1022 NOSIG=
201812300530 METAR LRCK 300530Z 30006KT 9999 SCT021 01/M00 Q1022 NOSIG=
201812300600 METAR LRCK 300600Z 31006KT 9999 SCT023 01/M00 Q1022 NOSIG=
201812300630 METAR LRCK 300630Z 27005KT 9999 SCT024 01/M00 Q1022 NOSIG=
201812300700 METAR LRCK 300700Z 24004KT 210V280 9999 SCT025 01/M00 Q1023
                        NOSIG=
201812300730 METAR LRCK 300730Z 29006KT 9999 FEW025 02/M00 Q1023 NOSIG=
201812300800 METAR LRCK 300800Z 33006KT 9999 FEW025 02/00 Q1023 NOSIG=
201812300830 METAR LRCK 300830Z 32007KT 9999 FEW024 03/00 Q1023 NOSIG=
201812300900 METAR LRCK 300900Z 33009KT 9999 FEW024 03/M00 Q1023 NOSIG=
201812300930 METAR LRCK 300930Z 31010KT 9999 FEW024 03/M00 Q1022 NOSIG=
201812301000 METAR LRCK 301000Z 31008KT 9999 FEW025 03/M01 Q1022 NOSIG=
201812301030 METAR LRCK 301030Z 31008KT 9999 FEW016 04/M00 Q1022 NOSIG=
201812301100 METAR LRCK 301100Z 32009KT 9999 FEW015 04/00 Q1022 NOSIG=
201812301130 METAR LRCK 301130Z 31009KT 9999 FEW014 04/01 Q1022 NOSIG=
201812301200 METAR COR LRCK 301200Z 30008KT 270V330 9999 SCT014 04/01
                        Q1022 NOSIG=
201812301230 METAR LRCK 301230Z 30008KT 9999 SCT013 04/01 Q1022 NOSIG=
201812301300 METAR LRCK 301300Z 30007KT 9999 BKN012 04/01 Q1022 NOSIG=
201812301330 METAR LRCK 301330Z 33005KT 9999 FEW013 03/01 Q1022 NOSIG=
201812301400 METAR LRCK 301400Z 33005KT 9999 FEW015 03/01 Q1022 NOSIG=
201812301430 METAR LRCK 301430Z 33003KT 9999 FEW048 03/01 Q1022 NOSIG=
201812301500 METAR LRCK 301500Z 32003KT 9999 BKN049 02/01 Q1022 NOSIG=
201812301530 METAR LRCK 301530Z VRB01KT 9999 SCT049 02/01 Q1022 NOSIG=
201812301600 METAR LRCK 301600Z 28002KT 9999 SCT042 02/01 Q1023 NOSIG=
201812301630 METAR LRCK 301630Z 26005KT 9999 FEW012 01/01 Q1023 NOSIG=
201812301700 METAR LRCK 301700Z 24004KT 9999 SCT011 01/01 Q1023 BECMG
                        5000 BR BKN010=
201812301730 METAR LRCK 301730Z 25003KT 8000 SCT010 BKN046 02/01 Q1023
                        BECMG 5000 BR BKN010=
201812301800 METAR LRCK 301800Z 23003KT 8000 SCT015 BKN048 01/01 Q1023
                        BECMG 5000 BR BKN010=
201812301830 METAR LRCK 301830Z 24004KT 7000 SCT014 BKN033 01/01 Q1023
                        BECMG 5000 BR BKN010=
201812301900 METAR LRCK 301900Z 00000KT 7000 FEW014 BKN035 01/01 Q1023
                        BECMG 5000 BR BKN010=
201812301930 METAR LRCK 301930Z 00000KT 7000 SCT015 BKN034 01/01 Q1022
                        NOSIG=
201812302000 METAR LRCK 302000Z 00000KT 7000 SCT014 BKN038 01/01 Q1022
                        NOSIG=
201812302030 METAR LRCK 302030Z 00000KT 7000 SCT014 OVC038 01/01 Q1022
                        NOSIG=
201812302100 METAR LRCK 302100Z 00000KT 7000 SCT014 OVC039 01/01 Q1022
                        NOSIG=
201812302130 METAR LRCK 302130Z 00000KT 7000 SCT014 OVC045 01/01 Q1022
                        NOSIG=
201812302200 METAR LRCK 302200Z 00000KT 8000 SCT015 01/01 Q1022 NOSIG=
201812302230 METAR LRCK 302230Z 22001KT 8000 BKN014 01/01 Q1022 NOSIG=
201812302300 METAR LRCK 302300Z 00000KT 7000 SCT013 01/00 Q1022 NOSIG=
201812302330 METAR LRCK 302330Z 16003KT 5000 BR FEW013 01/01 Q1022 NOSIG=
201812310000 METAR LRCK 310000Z 18002KT 3000 BR FEW013 01/00 Q1022 NOSIG=
201812310030 METAR LRCK 310030Z 18005KT 3000 BR NSC 00/M00 Q1022 NOSIG=
201812310100 METAR LRCK 310100Z 19004KT 3000 BR NSC 00/00 Q1022 NOSIG=
201812310130 METAR LRCK 310130Z VRB02KT 3000 BR NSC M00/M00 Q1022 NOSIG=
201812310200 METAR LRCK 310200Z 00000KT 3000 BR NSC 00/00 Q1022 NOSIG=
201812310230 METAR LRCK 310230Z 25004KT 3000 BR NSC M01/M01 Q1022 NOSIG=
201812310300 METAR LRCK 310300Z 29004KT 2500 BR NSC M00/M00 Q1022 NOSIG=
201812310330 METAR LRCK 310330Z 27005KT 2500 BR NSC M01/M02 Q1021 NOSIG=
201812310400 METAR LRCK 310400Z 30003KT 3000 BR NSC 00/M00 Q1022 NOSIG=
201812310430 METAR LRCK 310430Z 28004KT 3000 BR NSC M01/M01 Q1022 NOSIG=
201812310500 METAR LRCK 310500Z 00000KT 3000 BR NSC M00/M01 Q1022 NOSIG=
201812310530 METAR LRCK 310530Z 27004KT 2500 BR NSC M00/M00 Q1023 NOSIG=
201812310600 METAR LRCK 310600Z 28004KT 2500 BR NSC 00/M00 Q1023 NOSIG=
201812310630 METAR LRCK 310630Z 29005KT 2500 BR NSC 01/00 Q1023 NOSIG=
201812310700 METAR LRCK 310700Z 28004KT 2800 BR NSC 01/01 Q1023 NOSIG=
201812310730 METAR LRCK 310730Z 26004KT 3000 BR NSC 02/02 Q1023 NOSIG=
201812310800 METAR LRCK 310800Z 27004KT 3000 BR NSC 03/02 Q1023 NOSIG=
201812310830 METAR LRCK 310830Z 27005KT 3500 BR NSC 03/02 Q1023 NOSIG=
201812310900 METAR LRCK 310900Z 27004KT 3500 BR NSC 03/02 Q1023 NOSIG=
201812310930 METAR LRCK 310930Z 26005KT 4500 BR NSC 04/03 Q1023 NOSIG=
201812311000 METAR LRCK 311000Z 26006KT 4500 BR FEW004 04/02 Q1023 NOSIG=
201812311030 METAR LRCK 311030Z 26006KT 4500 BR SCT004 04/03 Q1022 NOSIG=
201812311100 METAR LRCK 311100Z 25006KT 3000 BR BKN004 04/03 Q1022 NOSIG=
201812311130 METAR LRCK 311130Z 25005KT 4000 BR BKN003 04/03 Q1022 NOSIG=
201812311200 METAR LRCK 311200Z 29004KT 260V320 5000 BR SCT005 04/02 Q1022
                        NOSIG=
201812311230 METAR LRCK 311230Z 31004KT 6000 SCT007 05/02 Q1022 NOSIG=
201812311300 METAR LRCK 311300Z 32003KT 7000 FEW008 05/02 Q1022 NOSIG=
201812311330 METAR LRCK 311330Z VRB02KT 7000 SCT008 05/02 Q1023 NOSIG=
201812311400 METAR LRCK 311400Z 26003KT 6000 SCT008 04/02 Q1023 NOSIG=
201812311430 METAR LRCK 311430Z 24002KT 5000 BR FEW010 04/02 Q1023 NOSIG=
201812311500 METAR LRCK 311500Z 00000KT 4000 BR FEW010 03/02 Q1023 BECMG
                        3000 BR=
201812311530 METAR LRCK 311530Z VRB03KT 5000 BR NSC 03/02 Q1024 NOSIG=
201812311600 METAR LRCK 311600Z 03003KT 5000 BR NSC 03/02 Q1024 NOSIG=
201812311630 METAR LRCK 311630Z 34003KT 6000 NSC 02/01 Q1024 NOSIG=
201812311700 METAR LRCK 311700Z 36004KT 6000 FEW013 02/01 Q1025 TEMPO
                        5000 BR BKN015=
201812311730 METAR LRCK 311730Z 01006KT 4500 BR BKN012 03/02 Q1025 NOSIG=
201812311800 METAR LRCK 311800Z VRB02KT 4000 BR BKN014 03/02 Q1025 NOSIG=
201812311830 METAR LRCK 311830Z 07002KT 3500 BR FEW015 02/02 Q1025 NOSIG=
201812311900 METAR LRCK 311900Z 09003KT 3000 BR NSC 03/02 Q1025 NOSIG=
201812311930 METAR LRCK 311930Z 11002KT 3000 BR NSC 02/02 Q1026 NOSIG=
201812312000 METAR LRCK 312000Z 01004KT 3000 BR NSC 01/01 Q1026 NOSIG=
201812312030 METAR LRCK 312030Z 35003KT 3000 BR FEW016 01/01 Q1026 TEMPO
                        1500 BR=
201812312100 METAR LRCK 312100Z 36005KT 3000 BR FEW016 M00/M00 Q1026 NOSIG=
201812312130 METAR LRCK 312130Z 35005KT 4000 BR SCT016 00/00 Q1026 NOSIG=
201812312200 METAR LRCK 312200Z 35005KT 4000 BR SCT017 00/00 Q1026 NOSIG=
201812312230 METAR LRCK 312230Z 01008KT 5000 BR NSC 01/01 Q1026 NOSIG=
201812312300 METAR LRCK 312300Z 36008KT 5000 BR SCT014 01/01 Q1027 NOSIG=
201812312330 METAR LRCK 312330Z 36008KT 6000 SCT008 01/00 Q1027 NOSIG=
