201812010200 TAF LRTM 010200Z NIL=
201812010500 TAF LRTM 010500Z 0106/0115 09004KT CAVOK
                      TEMPO 0106/0108 5000 BR=
201812010800 TAF LRTM 010800Z 0109/0118 09004KT CAVOK
                      TEMPO 0109/0110 5000 BR=
201812011100 TAF LRTM 011100Z 0112/0121 09004KT 9999 FEW010=
201812011400 TAF LRTM 011400Z 0115/0124 VRB03KT 9999 FEW015
                      BECMG 0121/0123 5000 BR=
201812011700 TAF LRTM 011700Z NIL=
201812012000 TAF LRTM 012000Z NIL=
201812012300 TAF LRTM 012300Z NIL=
201812020200 TAF LRTM 020200Z NIL=
201812020500 TAF LRTM 020500Z NIL=
201812020609 TAF LRTM 020609Z 0206/0215 VRB04KT 9999 BKN035=
201812020800 TAF LRTM 020800Z 0209/0218 07005KT CAVOK=
201812021100 TAF LRTM 021100Z 0212/0221 07008KT CAVOK=
201812021400 TAF LRTM 021400Z 0215/0224 07006KT CAVOK
                      BECMG 0220/0222 3000 BR=
201812021700 TAF LRTM 021700Z 0218/0303 08005KT CAVOK
                      BECMG 0220/0222 5000 BR
                      TEMPO 0300/0303 3000 BR=
201812022000 TAF LRTM 022000Z 0221/0306 08005KT 7000 NSC
                      BECMG 0221/0223 5000 BR
                      TEMPO 0301/0306 3000 BR=
201812022300 TAF LRTM 022300Z 0300/0309 08005KT 7000 NSC
                      BECMG 0300/0302 5000 BR
                      TEMPO 0303/0306 3000 BR
                      PROB30 TEMPO 0308/0309 -FZRA=
201812030200 TAF LRTM 030200Z 0303/0312 09006KT CAVOK
                      PROB40 TEMPO 0303/0306 5000 BR
                      PROB30 TEMPO 0307/0310 -FZRA=
201812030500 TAF LRTM 030500Z 0306/0315 09006KT 9999 BKN045
                      PROB30 TEMPO 0307/0310 -FZRA BKN015 OVC040=
201812030800 TAF LRTM 030800Z 0309/0318 09006KT 9999 BKN045=
201812031100 TAF LRTM 031100Z 0312/0321 VRB04KT 9999 BKN045
                      BECMG 0315/0317 3000 BR BKN010=
201812031400 TAF LRTM 031400Z 0315/0324 VRB04KT 9999 BKN045
                      BECMG 0315/0317 3000 BR BKN010
                      BECMG 0318/0320 1500 BR BKN005 OVC020
                      TEMPO 0321/0324 0600 FZFG VV001=
201812031700 TAF LRTM 031700Z NIL=
201812032000 TAF LRTM 032000Z NIL=
201812032300 TAF LRTM 032300Z NIL=
201812040200 TAF LRTM 040200Z NIL=
201812040500 TAF LRTM 040500Z 0406/0415 VRB04KT 5000 BR BKN035
                      BECMG 0408/0410 9999 NSW=
201812040800 TAF LRTM 040800Z 0409/0418 VRB04KT 7000 BKN035
                      TEMPO 0415/0418 5000 -RA BR BKN015 OVC040=
201812041100 TAF LRTM 041100Z 0412/0421 VRB04KT 5000 BR BKN040
                      BECMG 0416/0418 5000 -RA BR BKN015 OVC030
                       TEMPO 0418/0421 3000 -FZRA BR BKN010 OVC025=
201812041400 TAF LRTM 041400Z 0415/0424 VRB04KT 9999 SCT045
                      TEMPO 0420/0424 5000 -RA BR BKN015 OVC030
                       PROB30
                      TEMPO 0422/0424 3000 -FZRA BR BKN010 OVC025=
201812041700 TAF LRTM 041700Z 0418/0503 VRB04KT 5000 -RA BR BKN040
                      PROB30 TEMPO 0419/0423 1500 -FZRA BR BKN010
                       OVC025
                      TEMPO 0500/0503 3000 -RA BR BKN010 OVC025=
201812042000 TAF LRTM 042000Z NIL=
201812042300 TAF LRTM 042300Z NIL=
201812050200 TAF LRTM 050200Z NIL=
201812050500 TAF LRTM 050500Z 0506/0515 VRB04KT 2000 -DZ BR BKN005 OVC010
                      PROB40 TEMPO 0506/0508 0600 FG VV002
                      BECMG 0509/0511 30010KT 5000 BR SCT010 BKN025=
201812050800 TAF LRTM 050800Z 0509/0518 31012KT 9999 SCT015 OVC035=
201812051100 TAF LRTM 051100Z 0512/0521 30008KT 9999 SCT015 OVC025
                      TEMPO 0512/0514 5000 -RA BR=
201812051400 TAF LRTM 051400Z 0515/0524 30010KT 9999 SCT015 OVC025=
201812051700 TAF LRTM 051700Z NIL=
201812052000 TAF LRTM 052000Z NIL=
201812052300 TAF LRTM 052300Z NIL=
201812060200 TAF LRTM 060200Z NIL=
201812060500 TAF LRTM 060500Z 0606/0615 VRB03KT CAVOK
                      PROB30 TEMPO 0606/0608 3000 BR BKN010=
201812060732 TAF AMD LRTM 060732Z 0607/0615 VRB03KT 0600 FZFG BKN001
                      BECMG 0607/0609 1500 BR BKN005
                      BECMG 0609/0611 7000 NSW BKN015=
201812060800 TAF LRTM 060800Z 0609/0618 VRB03KT 0350 FZFG BKN001
                      BECMG 0609/0610 0800 BKN002
                      BECMG 0610/0612 3000 BR BKN010
                      BECMG 0612/0613 7000 NSW NSC=
201812060935 TAF AMD LRTM 060935Z 0609/0618 VRB03KT 3000 BR SCT005
                      BECMG 0609/0611 CAVOK=
201812061100 TAF LRTM 061100Z 0612/0621 VRB03KT CAVOK
                      BECMG 0616/0618 3000 BR
                      TEMPO 0618/0621 0800 FZFG VV002=
201812061400 TAF LRTM 061400Z 0615/0624 VRB03KT CAVOK
                      BECMG 0616/0618 3000 BR
                      TEMPO 0619/0624 0800 FZFG VV002=
201812061700 TAF LRTM 061700Z 0618/0703 VRB03KT 8000 NSC
                      BECMG 0621/0623 3000 BR=
201812062000 TAF LRTM 062000Z 0621/0706 VRB03KT 6000 NSC
                      BECMG 0621/0623 3000 BR
                      TEMPO 0623/0706 0600 FZFG BKN002=
201812062300 TAF LRTM 070037Z 0700/0709 08006KT 5000 BR NSC
                      TEMPO 0700/0706 1500 BR
                      PROB30 TEMPO 0702/0706 0600 FZFG BKN001
                      BECMG 0707/0709 8000 NSW=
201812070037 TAF LRTM 070037Z 0700/0709 08006KT 5000 BR NSC
                      TEMPO 0700/0706 1500 BR
                      PROB30 TEMPO 0702/0706 0600 FZFG BKN001
                      BECMG 0707/0709 8000 NSW=
201812070200 TAF LRTM 070200Z 0703/0712 08005KT 5000 BR NSC
                      PROB40 TEMPO 0703/0706 1500 BR
                      BECMG 0707/0709 9999 NSW=
201812070500 TAF LRTM 070500Z 0706/0715 08005KT 5000 BR NSC
                      BECMG 0707/0709 9999 NSW=
201812070800 TAF LRTM 070800Z 0709/0718 08005KT 9999 SCT025
                      TEMPO 0709/0710 5000 BR BKN010
                      TEMPO 0714/0718 5000 -SN BR BKN015 OVC025=
201812071100 TAF LRTM 071100Z 0712/0721 VRB04KT 9999 SCT015 BKN040
                      PROB40 TEMPO 0713/0716 5000 -SN BR BKN010
                       OVC025=
201812071400 TAF LRTM 071400Z 0715/0724 VRB04KT 9999 SCT015 BKN040
                      PROB40 TEMPO 0721/0724 5000 -FZRA BKN010
                       OVC030=
201812071700 TAF LRTM 071700Z NIL=
201812072000 TAF LRTM 072000Z NIL=
201812072300 TAF LRTM 072300Z NIL=
201812080200 TAF LRTM 080200Z NIL=
201812080500 TAF LRTM 080500Z NIL=
201812080606 TAF LRTM 080606Z 0806/0815 VRB04KT 5000 BR SCT030
                      TEMPO 0810/0812 3000 -FZRA BR BKN010 BKN035
                       BECMG 0812/0814 3000 -RA BKN010 BKN035=
201812080800 TAF LRTM 080800Z 0809/0818 VRB04KT 9999 SCT010 BKN050
                      BECMG 0809/0811 3000 RA BR BKN010 BKN035=
201812081100 TAF LRTM 081100Z 0812/0821 VRB04KT 7000 -RA SCT015 BKN045
                      TEMPO 0812/0816 3000 -RASN BR BKN010 BKN035
                       BECMG 0816/0818 3000 -SN BR BKN010 OVC030=
201812081400 TAF LRTM 081400Z 0815/0824 VRB04KT 3000 -RA SCT010 BKN040
                      TEMPO 0815/0817 1500 -RASN BR BKN005 BKN035
                       BECMG 0817/0819 1500 -SN BR BKN005 OVC030=
201812081700 TAF LRTM 081700Z 0818/0903 VRB04KT 1500 -RA BR SCT010 BKN035
                      TEMPO 0820/0824 0600 RADZ FG BKN002 OVC020
                       BECMG 0900/0902 0600 FZFG BKN002=
201812082000 TAF LRTM 082000Z NIL=
201812082007 TAF AMD LRTM 082007Z 0820/0903 CNL=
201812082300 TAF LRTM 082300Z NIL=
201812090200 TAF LRTM 090200Z NIL=
201812090500 TAF LRTM 090500Z 0906/0915 VRB04KT 1500 BR BKN010 BKN040
                      PROB30 0906/0908 0800 FG OVC002
                      BECMG 0908/0910 5000 BKN015 BKN040
                      TEMPO 0910/0914 9999 NSW SCT015 SCT040=
201812090800 TAF LRTM 090800Z 0909/0918 VRB04KT 1500 BR BKN005 BKN040
                      BECMG 0909/0911 3000 BKN010 BKN040
                      TEMPO 0911/0914 7000 NSW SCT015 SCT040
                      BECMG 0914/0916 1500 BR BKN005=
201812091100 TAF LRTM 091100Z 0912/0921 VRB04KT 5000 BR BKN010
                      TEMPO 0912/0915 9999 NSW SCT015 SCT040
                      BECMG 0915/0917 3000 BR BKN005
                      TEMPO 0918/0921 1500 BR OVC002=
201812091400 TAF LRTM 091400Z 0915/0924 VRB04KT 9999 SCT015
                      BECMG 0917/0919 3000 BR BKN010
                      TEMPO 0919/0921 1500 BR BKN005
                      PROB40 TEMPO 0921/0924 1500 -FZRA BKN005=
201812091700 TAF LRTM 091700Z 0918/1003 VRB04KT 7000 SCT030
                      BECMG 0920/0922 3000 BR BKN010
                      PROB40 TEMPO 0922/1003 1500 -FZRA BR BKN005=
201812092000 TAF LRTM 092000Z 0921/1006 VRB04KT 7000 SCT030
                      BECMG 0921/0923 3000 BR BKN010
                      PROB40 TEMPO 0923/1006 1500 -FZRA BR BKN005=
201812092300 TAF LRTM 092300Z 1000/1009 VRB04KT 5000 BR BKN010
                      TEMPO 1000/1006 1500 -FZRA BR BKN005
                      BECMG 1006/1008 -RA BR=
201812100200 TAF LRTM 100200Z 1003/1012 VRB04KT 7000 BKN040
                      PROB30 TEMPO 1003/1006 3000 -FZRA BR BKN010
                       BECMG 1006/1008 5000 -RA BR=
201812100500 TAF LRTM 100500Z 1006/1015 VRB04KT 5000 BR BKN030
                      TEMPO 1006/1008 1500 BR BKN005
                      TEMPO 1012/1015 1500 RASN BKN010 OVC025=
201812100800 TAF LRTM 100800Z 1009/1018 VRB04KT 5000 BR BKN010 OVC030
                      TEMPO 1012/1016 1500 RA RASN BKN005 OVC025=
201812101100 TAF LRTM 101100Z 1012/1021 VRB04KT 5000 BR BKN010 OVC025
                      TEMPO 1012/1016 3000 -RA BR BKN005 OVC020=
201812101400 TAF LRTM 101400Z 1015/1024 VRB04KT 5000 BR BKN030
                      TEMPO 1015/1019 3000 RA BKN010 OVC020=
201812101700 TAF LRTM 101700Z NIL=
201812102000 TAF LRTM 102000Z NIL=
201812102300 TAF LRTM 102300Z NIL=
201812110200 TAF LRTM 110200Z NIL=
201812110500 TAF LRTM 110500Z 1106/1115 VRB04KT 9999 BKN020=
201812110800 TAF LRTM 110800Z 1109/1118 VRB03KT CAVOK
                      PROB30 TEMPO 1109/1114 5000 -SN RASN BKN010
                       OVC020=
201812111100 TAF LRTM 111100Z 1112/1121 33006KT 9999 SCT015
                      TEMPO 1112/1116 5000 -SN BR BKN010 OVC020
                       BECMG 1118/1120 1500 BR BKN005=
201812111400 TAF LRTM 111400Z 1115/1124 35006KT 9999 BKN025
                      BECMG 1115/1117 5000 BR BKN010
                      TEMPO 1118/1124 1500 BR BKN005=
201812111700 TAF LRTM 111700Z 1118/1203 VRB04KT 9999 BKN025
                      BECMG 1118/1120 3000 BR BKN010 OVC020
                      TEMPO 1200/1203 1500 BR BKN005 OVC015=
201812112000 TAF LRTM 112000Z NIL=
201812112300 TAF LRTM 112300Z NIL=
201812120200 TAF LRTM 120200Z NIL=
201812120500 TAF LRTM 120500Z 1206/1215 VRB04KT 5000 BR SCT035
                      BECMG 1207/1209 9999 NSW=
201812120800 TAF LRTM 120800Z 1209/1218 VRB04KT 5000 BR SCT015
                      BECMG 1209/1211 9999 NSW=
201812121100 TAF LRTM 121100Z 1212/1221 VRB04KT 9999 SCT015 SCT045=
201812121400 TAF LRTM 121400Z 1215/1224 VRB04KT 9999 SCT035
                      BECMG 1217/1219 5000 BR BKN015=
201812121700 TAF LRTM 121700Z NIL=
201812122000 TAF LRTM 122000Z NIL=
201812122300 TAF LRTM 122300Z NIL=
201812130200 TAF LRTM 130200Z NIL=
201812130500 TAF LRTM 130500Z 1306/1315 27006KT 5000 BR BKN020
                      BECMG 1306/1308 9999
                      TEMPO 1311/1315 5000 -SN BKN015 BKN025=
201812130800 TAF LRTM 130800Z 1309/1318 27006KT 9999 SCT015 SCT035
                      TEMPO 1311/1315 5000 -SN BKN015 BKN030
                      TEMPO 1315/1318 3000 -SN BR BKN010 OVC025=
201812131100 TAF LRTM 131100Z 1312/1321 27006KT 9999 SCT015 SCT030
                      TEMPO 1313/1317 4000 -SN BKN010 BKN030=
201812131400 TAF LRTM 131400Z 1315/1324 VRB04KT 9999 SCT015 BKN025
                      TEMPO 1315/1319 4000 -SN BKN010 BKN020=
201812131700 TAF LRTM 131700Z 1318/1403 VRB04KT 9999 BKN030
                      BECMG 1323/1401 5000 BR BKN010 OVC030
                      TEMPO 1401/1403 1500 BR BKN005 OVC020=
201812132000 TAF LRTM 132000Z 1321/1406 VRB04KT 9999 OVC025
                      BECMG 1323/1401 BKN010 OVC020
                      TEMPO 1401/1406 3000 BR BKN005 OVC015=
201812132300 TAF LRTM 132300Z 1400/1409 VRB04KT 9999 OVC025
                      BECMG 1400/1402 BKN010 OVC020
                      TEMPO 1402/1408 3000 BR BKN005 OVC015=
201812140200 TAF LRTM 140200Z 1403/1412 VRB04KT 9999 OVC025
                      TEMPO 1403/1408 BKN010 OVC025=
201812140500 TAF LRTM 140500Z 1406/1415 VRB04KT 9999 OVC025=
201812140800 TAF LRTM 140800Z 1409/1418 VRB04KT 9999 OVC025=
201812141100 TAF LRTM 141100Z 1412/1421 VRB04KT 9999 OVC025=
201812141400 TAF LRTM 141400Z 1415/1424 VRB04KT 9999 OVC025=
201812141700 TAF LRTM 141700Z NIL=
201812142000 TAF LRTM 142000Z NIL=
201812142300 TAF LRTM 142300Z NIL=
201812150200 TAF LRTM 150200Z NIL=
201812150500 TAF LRTM 150500Z 1506/1515 08005KT 5000 -SN SCT010 OVC025
                      TEMPO 1506/1509 1500 SN BKN005 OVC020=
201812150800 TAF LRTM 150800Z 1509/1518 05006KT 3000 -SN BKN010 OVC030
                      TEMPO 1509/1512 1500 SN BKN005 OVC025=
201812151100 TAF LRTM 151100Z 1512/1521 06008KT 3000 -SN BKN010 OVC025
                      TEMPO 1512/1516 1500 SN BR BKN005 OVC020=
201812151400 TAF LRTM 151400Z 1515/1524 08006KT 3000 -SN BKN005 OVC025
                      TEMPO 1515/1519 1500 SN BR BKN002 OVC020=
201812151700 TAF LRTM 151700Z NIL=
201812152000 TAF LRTM 152000Z NIL=
201812152300 TAF LRTM 152300Z NIL=
201812160200 TAF LRTM 160200Z NIL=
201812160500 TAF LRTM 160500Z 1606/1615 24006KT 5000 BR BKN010 OVC020
                      TEMPO 1607/1611 1500 SN BKN002 OVC010=
201812160800 TAF LRTM 160800Z 1609/1618 24006KT 5000 BR BKN010 OVC020
                      TEMPO 1609/1612 1500 -SN BR BKN002 OVC010=
201812161100 TAF LRTM 161100Z 1612/1621 24006KT 9999 BKN010 OVC020
                      TEMPO 1612/1616 3000 -SN BKN005 OVC010=
201812161400 TAF LRTM 161400Z 1615/1624 24006KT 9999 BKN010 OVC020
                      TEMPO 1615/1619 3000 -SN BR BKN005 OVC010=
201812161700 TAF LRTM 161700Z 1618/1703 24006KT 5000 -SN BKN005 OVC025
                      TEMPO 1618/1624 1500 SN BKN003 OVC020=
201812162000 TAF LRTM 162000Z 1621/1706 VRB04KT 5000 BR BKN010 OVC025
                      TEMPO 1621/1623 1500 -FZDZ BKN005 OVC020
                       BECMG 1700/1702 0800 FZFG OVC002=
201812162300 TAF AMD LRTM 170103Z 1701/1709 VRB04KT 5000 BR BKN015 BKN030
                      TEMPO 1701/1705 1500 SN BR BKN005 OVC020=
201812170103 TAF AMD LRTM 170103Z 1701/1709 VRB04KT 5000 BR BKN015 BKN030
                      TEMPO 1701/1705 1500 SN BR BKN005 OVC020=
201812170200 TAF LRTM 170200Z 1703/1712 VRB04KT 5000 BR BKN015 BKN030
                      TEMPO 1703/1706 1500 -SN BR BKN002 OVC015=
201812170500 TAF LRTM 170500Z 1706/1715 VRB04KT 5000 -SN BR BKN010 OVC025
                      TEMPO 1706/1710 1500 SN BKN005 OVC020
                      TEMPO 1711/1714 9999 NSW SCT010 BKN035=
201812170800 TAF LRTM 170800Z 1709/1718 VRB04KT 5000 -SN BR BKN010 OVC025
                      TEMPO 1709/1711 1500 -SN BR BKN003 OVC020
                       TEMPO 1711/1714 9999 NSW SCT010 BKN035=
201812171100 TAF LRTM 171100Z 1712/1721 VRB04KT 3000 -SN BR BKN010 OVC025
                      TEMPO 1712/1715 1500 -SN BR BKN003 OVC020
                       BECMG 1715/1717 1500 -SN BR BKN005 OVC010=
201812171400 TAF LRTM 171400Z 1715/1724 VRB04KT 1500 -SN BR BKN005 OVC020
                      TEMPO 1715/1719 0600 -SN FZFG BKN002 OVC015=
201812171700 TAF LRTM 171700Z NIL=
201812172000 TAF LRTM 172000Z NIL=
201812172300 TAF LRTM 172300Z NIL=
201812180200 TAF LRTM 180200Z NIL=
201812180500 TAF LRTM 180500Z 1806/1815 VRB04KT 3000 -SN BR SCT015 OVC030
                      TEMPO 1806/1809 1500 -SN BR BKN005 OVC020
                       BECMG 1809/1811 5000 BR=
201812180800 TAF LRTM 180800Z 1809/1818 VRB04KT 3000 -SN BR SCT015 OVC030
                      TEMPO 1809/1811 1500 -SN BR BKN005 OVC020
                       BECMG 1811/1813 5000 BR=
201812181100 TAF LRTM 181100Z 1812/1821 VRB04KT 5000 BR SCT015 OVC030
                      TEMPO 1812/1815 3000 -SN BR BKN010 OVC025=
201812181400 TAF LRTM 181400Z 1815/1824 VRB04KT 5000 BR OVC010
                      BECMG 1816/1818 3000 BR BKN005
                      BECMG 1819/1821 1500 BR BKN002
                      TEMPO 1822/1824 0600 FZFG VV001=
201812181700 TAF LRTM 181700Z 1818/1903 VRB04KT 5000 BR OVC010
                      BECMG 1818/1820 3000 BR BKN005
                      BECMG 1820/1822 1500 BR BKN002
                      TEMPO 1822/1903 0600 FZFG VV001=
201812182000 TAF LRTM 182000Z NIL=
201812182300 TAF LRTM 182300Z NIL=
201812190200 TAF LRTM 190200Z NIL=
201812190500 TAF LRTM 190500Z 1906/1915 VRB04KT 3000 BR BKN010 OVC020
                      TEMPO 1906/1908 1500 BR OVC005
                      BECMG 1908/1910 5000 BR BKN025=
201812190800 TAF LRTM 190800Z 1909/1918 VRB04KT 3000 BR BKN010 BKN030
                      TEMPO 1909/1912 5000 BR BKN005
                      BECMG 1916/1918 0600 FZFG OVC002=
201812191100 TAF LRTM 191100Z 1912/1921 VRB04KT 3000 BR BKN010
                      BECMG 1914/1916 1500 BR BKN005
                      BECMG 1917/1919 0600 FZFG OVC002
                      TEMPO 1919/1921 0350 FZFG VV001=
201812191400 TAF LRTM 191400Z 1915/1924 VRB04KT 3000 BR BKN010
                      BECMG 1917/1919 1500 BR BKN005
                      BECMG 1920/1922 0600 FZFG OVC002=
201812191700 TAF LRTM 191700Z 1918/2003 VRB04KT 3000 BR BKN010
                      BECMG 1918/1920 1500 BR OVC005
                      TEMPO 1921/2003 0600 FZFG OVC002=
201812192000 TAF LRTM 192000Z NIL=
201812192011 TAF AMD LRTM 192011Z 1920/2003 CNL=
201812192300 TAF LRTM 192300Z NIL=
201812200200 TAF LRTM 200200Z NIL=
201812200500 TAF LRTM 200500Z 2006/2015 08006KT 3000 BR OVC010
                      TEMPO 2006/2007 1500 BR BKN005
                      BECMG 2007/2009 5000 BKN015=
201812200800 TAF LRTM 200800Z 2009/2018 VRB04KT 5000 BR OVC010
                      TEMPO 2009/2014 7000 NSW BKN015
                      BECMG 2015/2017 3000 BR BKN005=
201812201100 TAF LRTM 201100Z 2012/2021 VRB04KT 5000 BR OVC010
                      BECMG 2014/2016 3000 BR BKN005
                      BECMG 2016/2018 1500 BKN002
                      TEMPO 2018/2021 0600=
201812201400 TAF LRTM 201400Z 2015/2024 VRB04KT 5000 BR OVC005
                      BECMG 2015/2017 1500 BR OVC002
                      BECMG 2017/2019 0600 FZFG VV001
                      TEMPO 2020/2024 0150 FZFG=
201812201700 TAF LRTM 201700Z 2018/2103 VRB04KT 3000 BR OVC005
                      BECMG 2018/2020 1500 BR
                      BECMG 2020/2022 0600 FZFG VV002
                      TEMPO 2022/2103 0150=
201812202000 TAF LRTM 202000Z 2021/2106 VRB04KT 3000 BR OVC005
                      BECMG 2022/2024 1500 BR OVC002
                      PROB30 TEMPO 2100/2105 0600 FZFG VV001=
201812202300 TAF LRTM 202300Z 2100/2109 VRB04KT 1500 BR BKN003
                      PROB40 TEMPO 2102/2106 0600 FZFG VV001
                      BECMG 2107/2109 5000 BKN025=
201812210200 TAF LRTM 210200Z 2103/2112 VRB04KT 0600 FZFG OVC002
                      TEMPO 2103/2107 0150 FZFG VV001
                      BECMG 2107/2109 1500 BR BKN005
                      BECMG 2109/2111 5000 BKN010=
201812210500 TAF LRTM 210500Z 2106/2115 VRB04KT 0600 FZFG OVC002
                      TEMPO 2106/2108 0350 FZFG VV001
                      BECMG 2108/2110 1500 BR BKN005
                      TEMPO 2110/2114 3000 BR BKN015=
201812210800 TAF LRTM 210800Z 2109/2118 VRB04KT 1500 BR BKN005
                      TEMPO 2110/2114 5000 BKN015
                      BECMG 2116/2118 0800 FZFG OVC002=
201812211100 TAF LRTM 211100Z 2112/2121 VRB04KT 3000 BR SCT010 BKN045
                      TEMPO 2112/2114 5000
                      BECMG 2116/2118 0800 FZFG OVC002
                      TEMPO 2118/2121 0350 FZFG VV001=
201812211400 TAF LRTM 211400Z 2115/2124 VRB04KT 3000 BR BKN010
                      BECMG 2116/2118 0800 FZFG OVC002
                      TEMPO 2118/2124 0350 FZFG VV001=
201812211700 TAF LRTM 211700Z 2118/2203 VRB04KT 3000 BR SCT010 BKN045
                      BECMG 2118/2120 0800 FZFG OVC002
                      TEMPO 2120/2124 0350 FZFG VV001=
201812212000 TAF LRTM 212000Z NIL=
201812212005 TAF AMD LRTM 212005Z 2120/2203 CNL=
201812212300 TAF LRTM 212300Z NIL=
201812220200 TAF LRTM 220200Z NIL=
201812220500 TAF LRTM 220500Z NIL=
201812220606 TAF LRTM 220606Z 2206/2215 VRB04KT CAVOK
                      TEMPO 2206/2208 5000 BR=
201812220800 TAF LRTM 220800Z 2209/2218 24010KT CAVOK
                      BECMG 2216/2218 VRB04KT=
201812221100 TAF LRTM 221100Z 2212/2221 24010KT CAVOK
                      TEMPO 2217/2221 5000 -RA BR BKN015 BKN040=
201812221400 TAF LRTM 221400Z 2215/2224 VRB04KT CAVOK
                      BECMG 2216/2218 24010KT
                      TEMPO 2216/2221 5000 -RA BR BKN015 BKN040=
201812221700 TAF LRTM 221700Z NIL=
201812222000 TAF LRTM 222000Z NIL=
201812222300 TAF LRTM 222300Z NIL=
201812230200 TAF LRTM 230200Z NIL=
201812230500 TAF LRTM 230500Z 2306/2315 27008KT 9999 BKN030=
201812230800 TAF LRTM 230800Z 2309/2318 28006KT 9999 BKN030
                      PROB30 TEMPO 2309/2312 3000 RA BKN010 OVC025=
201812231100 TAF LRTM 231100Z 2312/2321 24006KT 9999 BKN030
                      TEMPO 2312/2316 3000 RA BKN010 OVC025=
201812231400 TAF LRTM 231400Z 2315/2324 34006KT 9999 BKN030
                      TEMPO 2315/2319 5000 RA BKN015 OVC025=
201812231700 TAF LRTM 231700Z 2318/2403 VRB04KT 5000 BR BKN035
                      TEMPO 2318/2321 3000 -RA BR BKN015 OVC030
                       PROB40
                      TEMPO 2400/2403 3000 -FZRA BKN010 OVC035=
201812232000 TAF LRTM 232000Z 2321/2406 VRB04KT 5000 BR BKN030
                      TEMPO 2321/2324 3000 BR
                      PROB40 TEMPO 2402/2406 5000 -FZRA BR BKN010
                       OVC035=
201812232300 TAF LRTM 232300Z 2400/2409 VRB04KT 1500 BR SCT035
                      TEMPO 2400/2402 0600 FG
                      PROB40 TEMPO 2402/2406 5000 -FZRA BKN015
                       OVC035
                      BECMG 2406/2408 5000 -RA BR BKN015 OVC035=
201812240200 TAF LRTM 240200Z 2403/2412 VRB04KT 3000 BR SCT035
                      TEMPO 2403/2405 0800 FG VV002
                      BECMG 2405/2407 5000 -RA BR BKN015 OVC035=
201812240500 TAF LRTM 240500Z 2406/2415 VRB04KT 5000 -RA BR OVC035
                      TEMPO 2406/2412 3000 RA BKN015 OVC030
                      BECMG 2412/2414 31015KT 3000 -RASN BKN015
                       OVC035=
201812240800 TAF LRTM 240800Z 2409/2418 VRB04KT 5000 -RA BR OVC035
                      TEMPO 2409/2412 3000 -SHRA BR BKN010 SCT025CB
                       OVC030
                      BECMG 2412/2414 31014KT
                      TEMPO 2412/2415 3000 -RASN BKN010 OVC035
                       TEMPO 2415/2418 32018G30KT=
201812241100 TAF LRTM 241100Z 2412/2421 VRB04KT 5000 -RA BR BKN015 OVC030
                      BECMG 2412/2414 31014KT
                      TEMPO 2412/2415 3000 -RASN BKN005 OVC025
                       BECMG 2415/2417 SCT015 BKN040
                      TEMPO 2415/2421 32018G30KT=
201812241400 TAF LRTM 241400Z 2415/2424 30014KT 9999 SCT015 OVC035
                      TEMPO 2415/2418 5000 -RASN BKN010 OVC025
                       PROB40
                      TEMPO 2415/2424 32015G25KT=
201812241700 TAF LRTM 241700Z 2418/2503 31018KT 9999 SCT015 BKN035
                      PROB40 TEMPO 2418/2424 31020G30KT=
201812242000 TAF LRTM 242000Z NIL=
201812242300 TAF LRTM 242300Z NIL=
201812250200 TAF LRTM 250200Z NIL=
201812250500 TAF LRTM 250500Z 2506/2515 32015KT CAVOK
                      PROB30 TEMPO 2506/2512 31017G27KT=
201812250800 TAF LRTM 250800Z 2509/2518 32015KT 9999 SCT015 BKN025
                      PROB30 TEMPO 2509/2512 31015G25KT 5000 -SN=
201812251100 TAF LRTM 251100Z 2512/2521 31015KT 9999 SCT015 BKN025
                      PROB30 TEMPO 2512/2516 31015G25KT 5000 -SN
                       BECMG 2519/2521 31005KT=
201812251400 TAF LRTM 251400Z 2515/2524 28012KT 9999 SCT015 BKN035
                      TEMPO 2515/2521 5000 -SN
                      BECMG 2520/2522 VRB04KT=
201812251700 TAF LRTM 251700Z 2518/2603 28008KT 9999 BKN035
                      TEMPO 2518/2521 5000 -SN BR=
201812252000 TAF LRTM 252000Z NIL=
201812252006 TAF AMD LRTM 252006Z 2520/2603 CNL=
201812252300 TAF LRTM 252300Z NIL=
201812260200 TAF LRTM 260200Z NIL=
201812260500 TAF LRTM 260500Z 2606/2615 20008KT 9999 BKN035
                      PROB30 TEMPO 2606/2610 5000 -SN BKN015 BKN030=
201812260800 TAF LRTM 260800Z 2609/2618 VRB04KT 9999 BKN030
                      PROB30 TEMPO 2609/2614 5000 -SN BKN015 BKN030=
201812261100 TAF LRTM 261100Z 2612/2621 VRB04KT 9999 BKN030
                      PROB40 TEMPO 2612/2615 5000 -SN=
201812261400 TAF LRTM 261400Z 2615/2624 VRB04KT 9999 BKN030
                      PROB30 TEMPO 2615/2617 5000 -SN BKN015 OVC025=
201812261700 TAF LRTM 261700Z 2618/2703 24006KT 5000 BR BKN040
                      BECMG 2620/2622 BKN015 OVC030=
201812262000 TAF LRTM 262000Z NIL=
201812262011 TAF AMD LRTM 262011Z 2620/2703 CNL=
201812262300 TAF LRTM 262300Z NIL=
201812270200 TAF LRTM 270200Z NIL=
201812270500 TAF LRTM 270500Z 2706/2715 24008KT 9999 OVC025
                      TEMPO 2706/2709 BKN015=
201812270800 TAF LRTM 270800Z 2709/2718 25006KT 9999 BKN025=
201812271100 TAF LRTM 271100Z 2712/2721 29008KT 9999 BKN025=
201812271400 TAF LRTM 271400Z 2715/2724 VRB04KT 9999 BKN035
                      BECMG 2720/2722 3000 BR BKN010=
201812271700 TAF LRTM 271700Z 2718/2803 VRB04KT 9999 BKN040
                      BECMG 2720/2722 3000 BR BKN010
                      PROB30 TEMPO 2800/2803 1500 -SN BR BKN005
                       OVC020=
201812272000 TAF LRTM 272000Z NIL=
201812272009 TAF AMD LRTM 272009Z 2720/2803 CNL=
201812272300 TAF LRTM 272300Z NIL=
201812280200 TAF LRTM 280200Z NIL=
201812280500 TAF LRTM 280500Z 2806/2815 VRB04KT 5000 BR BKN025
                      BECMG 2807/2809 3000 -SN BR BKN010 OVC025=
201812280800 TAF LRTM 280800Z 2809/2818 VRB04KT 3000 -RA BR SCT010 BKN025
                      BECMG 2809/2811 1500 -SN BR BKN003 OVC025=
201812281100 TAF LRTM 281100Z 2812/2821 VRB04KT 3000 BR SCT005 BKN025
                      TEMPO 2812/2814 1500 -RA BR BKN005 OVC020
                       BECMG 2814/2816 1500 -SN BR BKN003 OVC025=
201812281400 TAF LRTM 281400Z 2815/2824 VRB04KT 3000 -RA BR SCT005 BKN015
                      BECMG 2815/2817 1500 -SN BR BKN003 OVC015
                       TEMPO 2818/2821 0800 SN BKN002 OVC010
                      BECMG 2822/2824 3000 BR BKN005 OVC020=
201812281700 TAF LRTM 281700Z 2818/2903 VRB04KT 3000 -SN BR BKN005 BKN020
                      TEMPO 2818/2821 1500 SHRASN BR BKN002 SCT020CB
                       OVC025=
201812281835 TAF AMD LRTM 281835Z 2818/2903 CNL=
201812282000 TAF LRTM 282000Z NIL=
201812282300 TAF LRTM 282300Z NIL=
201812290200 TAF LRTM 290200Z NIL=
201812290500 TAF LRTM 290500Z 2906/2915 VRB04KT 9999 BKN010 OVC025
                      TEMPO 2906/2908 BKN005 OVC025
                      BECMG 2908/2910 31010KT BKN020 OVC030=
201812290800 TAF LRTM 290800Z 2909/2918 30010KT 9999 BKN010 OVC040
                      BECMG 2910/2912 NSC=
201812291100 TAF LRTM 291100Z 2912/2921 30010KT 9999 BKN015 OVC040
                      TEMPO 2912/2916 SCT015 OVC040=
201812291400 TAF LRTM 291400Z 2915/2924 30007KT 9999 BKN020 BKN040
                      TEMPO 2920/2924 5000 -SNRA BKN010 OVC035=
201812291700 TAF LRTM 291700Z 2918/3003 29005KT 9999 BKN020 BKN040
                      TEMPO 2922/3003 5000 -SNRA BKN010 OVC035=
201812291846 TAF AMD LRTM 291846Z 2918/3003 CNL=
201812292000 TAF LRTM 292000Z NIL=
201812292300 TAF LRTM 292300Z NIL=
201812300200 TAF LRTM 300200Z NIL=
201812300500 TAF LRTM 300500Z 3006/3015 25006KT 5000 BR BKN045
                      TEMPO 3006/3008 1500 BR BKN005
                      BECMG 3008/3010 9999 NSW=
201812300800 TAF LRTM 300800Z 3009/3018 25006KT 3000 BR NSC
                      TEMPO 3009/3010 1500 BR
                      BECMG 3010/3012 9999 NSW
                      BECMG 3014/3016 3000 BR BKN010=
201812301100 TAF LRTM 301100Z 3012/3021 07005KT 5000 BR SCT040
                      TEMPO 3012/3014 9999 NSW
                      BECMG 3014/3016 3000 BR BKN010=
201812301400 TAF LRTM 301400Z 3015/3024 07004KT 5000 BR SCT010 BKN035
                      BECMG 3015/3017 3000 BR BKN010=
201812301700 TAF LRTM 301700Z 3018/3103 07004KT 3000 BR SCT015 BKN040
                      BECMG 3020/3022 BKN010 BKN030=
201812301945 TAF AMD LRTM 301945Z 3019/3103 CNL=
201812302000 TAF LRTM 302000Z NIL=
201812302300 TAF LRTM 302300Z NIL=
201812310200 TAF LRTM 310200Z NIL=
201812310500 TAF LRTM 310500Z 3106/3115 VRB04KT 5000 BR OVC010
                      BECMG 3108/3110 9999 NSW OVC020=
201812310800 TAF LRTM 310800Z 3109/3118 VRB04KT 9999 OVC020
                      TEMPO 3109/3111 3000 BR BKN010
                      TEMPO 3115/3118 5000 -SN BKN010 OVC020=
201812311100 TAF LRTM 311100Z 3112/3121 VRB04KT 9999 BKN015
                      TEMPO 3113/3115 5000 -SNRA BKN005 OVC020
                       TEMPO 3115/3121 5000 -SN BKN005 OVC020=
201812311400 TAF LRTM 311400Z 3115/3124 VRB04KT 9999 BKN015
                      TEMPO 3115/3121 5000 -SN -RASN BKN005 OVC020=
201812311700 TAF LRTM 311700Z 3118/0103 VRB04KT 5000 -RA BR SCT015 OVC025
                      TEMPO 3121/3124 3000 -RASN -SN BKN010 OVC020
                       BECMG 0100/0102 1500 BR BKN005 OVC015=
201812311838 TAF AMD LRTM 311838Z 3118/0103 CNL=
201812312000 TAF LRTM 312000Z NIL=
201812312300 TAF LRTM 312300Z NIL=