201812010200 TAF LRSM 010200Z 0103/0112 VRB04KT 9999 BKN035=
201812010500 TAF LRSM 010500Z 0106/0115 VRB04KT CAVOK=
201812010800 TAF LRSM 010800Z 0109/0118 VRB04KT CAVOK=
201812011100 TAF LRSM 011100Z 0112/0121 VRB04KT CAVOK=
201812011400 TAF LRSM 011400Z 0115/0124 VRB04KT CAVOK=
201812011700 TAF LRSM 011700Z NIL=
201812012000 TAF LRSM 012000Z NIL=
201812012300 TAF LRSM 012300Z NIL=
201812020200 TAF LRSM 020200Z NIL=
201812020500 TAF LRSM 020500Z NIL=
201812020800 TAF LRSM 020800Z NIL=
201812021100 TAF LRSM 021100Z NIL=
201812021400 TAF LRSM 021400Z NIL=
201812021700 TAF LRSM 021700Z NIL=
201812022000 TAF LRSM 022000Z NIL=
201812022300 TAF LRSM 022300Z NIL=
201812030200 TAF LRSM 030200Z 0303/0312 14008KT 9999 SCT040
                      PROB30 TEMPO 0308/0312 5000 -RA=
201812030500 TAF LRSM 030500Z 0306/0315 13007KT 9999 BKN035
                      TEMPO 0306/0312 5000 RA RASN BKN015 OVC040
                       PROB40
                      TEMPO 0306/0308 FZRA=
201812030800 TAF LRSM 030800Z 0309/0318 13007KT 9999 BKN035
                      BECMG 0315/0317 5000 -RA BR BKN015 OVC030=
201812031100 TAF LRSM 031100Z 0312/0321 13007KT 9999 BKN035
                      PROB30 TEMPO 0312/0315 5000 -RA BR BKN015
                       OVC035
                      BECMG 0315/0317 5000 -RA BR BKN015 OVC030=
201812031400 TAF LRSM 031400Z 0315/0324 13007KT 9999 BKN035
                      BECMG 0315/0317 5000 -RA BR BKN015 OVC030
                       PROB40
                      TEMPO 0321/0324 3000 RA BR BKN010 OVC025=
201812031700 TAF LRSM 031700Z NIL=
201812032000 TAF LRSM 032000Z NIL=
201812032300 TAF LRSM 032300Z NIL=
201812040200 TAF LRSM 040200Z 0403/0412 17004KT 9999 BKN030
                      TEMPO 0407/0412 5000 -RA BR BKN010 OVC025=
201812040500 TAF LRSM 040500Z 0406/0415 VRB04KT 9999 BKN030
                      PROB30 TEMPO 0410/0413 5000 -RA BR BKN015
                       OVC025
                      BECMG 0413/0415 5000 -RA BKN010 OVC025=
201812040800 TAF LRSM 040800Z 0409/0418 VRB04KT 9999 BKN020
                      PROB30 TEMPO 0412/0415 5000 -RA BKN015 OVC025
                       BECMG 0415/0417 3000 RA BKN005 OVC020=
201812041100 TAF LRSM 041100Z 0412/0421 VRB04KT 9999 BKN020
                      PROB40 TEMPO 0414/0416 5000 -RA BKN015 OVC025
                       BECMG 0416/0418 5000 -RA BKN010 OVC020
                      TEMPO 0418/0421 3000 RA BKN005 OVC015=
201812041400 TAF LRSM 041400Z 0415/0424 VRB04KT 9999 BKN020
                      PROB40 TEMPO 0415/0417 5000 -RA BKN015 OVC025
                       BECMG 0417/0419 5000 -RA BKN010 OVC020
                      TEMPO 0419/0422 3000 RADZ BR BKN005 OVC015
                       BECMG 0422/0424 32010KT 9999 NSW SCT020=
201812041700 TAF LRSM 041700Z NIL=
201812042000 TAF LRSM 042000Z NIL=
201812042300 TAF LRSM 042300Z NIL=
201812050200 TAF LRSM 050200Z 0503/0512 36010KT 9999 BKN025
                      TEMPO 0506/0509 3000 -SN BR BKN015 OVC025=
201812050500 TAF LRSM 050500Z 0506/0515 34011KT 9999 SCT035=
201812050800 TAF LRSM 050800Z 0509/0518 34011KT CAVOK=
201812051100 TAF LRSM 051100Z 0512/0521 35014KT CAVOK
                      BECMG 0519/0521 34004KT=
201812051400 TAF LRSM 051400Z 0515/0524 34010KT CAVOK
                      BECMG 0522/0524 VRB03KT 5000 BR=
201812051700 TAF LRSM 051700Z NIL=
201812052000 TAF LRSM 052000Z NIL=
201812052300 TAF LRSM 052300Z NIL=
201812060200 TAF LRSM 060200Z 0603/0612 VRB04KT 9999 BKN045=
201812060500 TAF LRSM 060500Z 0606/0615 VRB04KT CAVOK=
201812060800 TAF LRSM 060800Z 0609/0618 VRB04KT CAVOK=
201812061100 TAF LRSM 061100Z 0612/0621 VRB04KT CAVOK
                      BECMG 0617/0619 3000 BR=
201812061400 TAF LRSM 061400Z 0615/0624 VRB04KT CAVOK
                      BECMG 0617/0619 3000 BR
                      PROB30 TEMPO 0620/0624 0600 FZFG OVC002=
201812061700 TAF LRSM 061700Z NIL=
201812062000 TAF LRSM 062000Z NIL=
201812062300 TAF LRSM 062300Z NIL=
201812070200 TAF LRSM 070200Z 0703/0712 VRB04KT CAVOK
                      PROB30 TEMPO 0709/0712 5000 -SN BKN015 BKN040=
201812070500 TAF LRSM 070500Z 0706/0715 20005KT 9999 SCT045
                      TEMPO 0706/0709 5000 -SN
                      BECMG 0709/0711 5000 -RASN BR BKN015 BKN040=
201812070800 TAF LRSM 070800Z 0709/0718 16005KT 9999 -SN SCT045
                      TEMPO 0709/0714 5000 -RASN BR BKN015 BKN040
                       PROB30
                      TEMPO 0715/0718 -FZRA=
201812071100 TAF LRSM 071100Z 0712/0721 16005KT 9999 -SN SCT045
                      BECMG 0712/0714 5000 -RASN BR BKN015 BKN040
                       TEMPO 0717/0721 -FZRA=
201812071400 TAF LRSM 071400Z 0715/0724 16005KT 9999 SCT045
                      TEMPO 0715/0720 5000 -RASN BR BKN015 BKN040
                       PROB30
                      TEMPO 0716/0720 -FZRA=
201812071700 TAF LRSM 071700Z NIL=
201812072000 TAF LRSM 072000Z NIL=
201812072300 TAF LRSM 072300Z NIL=
201812080200 TAF LRSM 080200Z 0803/0812 14005KT 9999 BKN040
                      BECMG 0807/0809 5000 -RA BKN010 OVC035
                      TEMPO 0809/0812 3000 RA BKN005 OVC030=
201812080500 TAF LRSM 080500Z 0806/0815 14006KT 9999 BKN045
                      BECMG 0807/0809 5000 -RA BKN010 OVC030
                      TEMPO 0809/0812 3000 RA BKN005 OVC020=
201812080800 TAF LRSM 080800Z 0809/0818 VRB04KT 7000 -RA BKN030
                      TEMPO 0809/0811 5000 -SHRA BKN015 FEW025CB
                       OVC030
                      BECMG 0814/0816 3000 BR BKN010 BKN030=
201812081100 TAF LRSM 081100Z 0812/0821 VRB04KT 5000 -RA BKN030
                      BECMG 0815/0817 3000 BR BKN010 BKN025
                      TEMPO 0818/0821 0800 FG BKN002=
201812081400 TAF LRSM 081400Z 0815/0824 VRB04KT 1500 -RADZ BR BKN010
                      BECMG 0816/0818 0800 FG OVC005
                      PROB40 TEMPO 0819/0824 0350 FG VV001=
201812081700 TAF LRSM 081700Z NIL=
201812082000 TAF LRSM 082000Z NIL=
201812082300 TAF LRSM 082300Z NIL=
201812090200 TAF LRSM 090200Z NIL=
201812090434 TAF LRSM 090434Z 0904/0912 16005KT 5000 BR BKN010 OVC030
                      TEMPO 0904/0908 1500 -SN BR BKN002 OVC010
                       BECMG 0908/0910 3000 -RA BR BKN005 OVC020=
201812090500 TAF LRSM 090500Z 0906/0915 VRB04KT 5000 BR BKN040
                      TEMPO 0906/0908 17010KT 1500 BR BKN005 OVC025
                       BECMG 0910/0912 20010KT 7000 NSW=
201812090800 TAF LRSM 090800Z 0909/0918 19008KT 9999 BKN045=
201812091100 TAF LRSM 091100Z NIL=
201812091400 TAF LRSM 091400Z NIL=
201812091700 TAF LRSM 091700Z NIL=
201812092000 TAF LRSM 092000Z NIL=
201812092300 TAF LRSM 092300Z NIL=
201812100200 TAF LRSM 100200Z 1003/1012 20007KT 8000 -RA BKN035
                      TEMPO 1005/1010 5000 -RA BKN015 OVC035=
201812100500 TAF LRSM 100500Z 1006/1015 22006KT 9999 BKN030
                      TEMPO 1006/1010 5000 -RA BKN015 OVC030=
201812100800 TAF LRSM 100800Z 1009/1018 26006KT 9999 BKN035=
201812101100 TAF LRSM 101100Z 1012/1021 28006KT 9999 BKN035
                      TEMPO 1012/1016 3000 RA BKN010 OVC030=
201812101400 TAF LRSM 101400Z 1015/1024 28006KT 9999 BKN035
                      TEMPO 1015/1017 3000 RA BKN010 OVC030
                      BECMG 1017/1019 5000 BR
                      BECMG 1020/1022 3000 BR BKN010=
201812101700 TAF LRSM 101700Z NIL=
201812102000 TAF LRSM 102000Z NIL=
201812102300 TAF LRSM 102300Z NIL=
201812110200 TAF LRSM 110200Z 1103/1112 VRB04KT 3000 BR BKN035
                      PROB40 TEMPO 1103/1106 0800 -SN FZFG BKN002
                       OVC015
                      BECMG 1107/1109 7000 NSW=
201812110500 TAF LRSM 110500Z 1106/1115 21008KT 1500 BR BKN010
                      PROB40 TEMPO 1106/1108 0600 FZFG BKN002 OVC015
                       BECMG 1108/1110 5000 -SN BKN015 OVC035=
201812110800 TAF LRSM 110800Z 1109/1118 21008KT 5000 BR BKN010 BKN040
                      PROB40 TEMPO 1109/1113 3000 -SN BR BKN005
                       OVC035=
201812111100 TAF LRSM 111100Z 1112/1121 21006KT 9999 BKN010 BKN040=
201812111400 TAF LRSM 111400Z 1115/1124 21006KT 5000 BR BKN005 BKN025
                      TEMPO 1115/1118 3000 BR BKN002 OVC020=
201812111700 TAF LRSM 111700Z NIL=
201812112000 TAF LRSM 112000Z NIL=
201812112300 TAF LRSM 112300Z NIL=
201812120200 TAF LRSM 120200Z 1203/1212 10006KT 9999 BKN015 OVC035
                      TEMPO 1203/1207 3000 -SN BKN005 OVC025=
201812120500 TAF LRSM 120500Z 1206/1215 VRB04KT 9999 BKN035
                      TEMPO 1206/1210 5000 -SN BR BKN010 OVC025=
201812120800 TAF LRSM 120800Z 1209/1218 VRB04KT 9999 BKN035=
201812121100 TAF LRSM 121100Z 1212/1221 VRB04KT CAVOK=
201812121400 TAF LRSM 121400Z 1215/1224 VRB04KT CAVOK=
201812121700 TAF LRSM 121700Z NIL=
201812122000 TAF LRSM 122000Z NIL=
201812122300 TAF LRSM 122300Z NIL=
201812130200 TAF LRSM 130200Z 1303/1312 29006KT 5000 BR SCT025
                      TEMPO 1303/1307 1500 BR BKN005
                      BECMG 1307/1309 9999 NSW=
201812130500 TAF LRSM 130500Z 1306/1315 29006KT 5000 BR SCT025
                      TEMPO 1306/1307 1500 BR BKN005
                      PROB30 1307/1309 9999 NSW=
201812130800 TAF LRSM 130800Z 1309/1318 26006KT 5000 BR SCT025
                      TEMPO 1311/1316 9999 NSW=
201812131100 TAF LRSM 131100Z 1312/1321 29006KT 5000 BR SCT025
                      TEMPO 1312/1316 9999 NSW=
201812131400 TAF LRSM 131400Z 1315/1324 29006KT CAVOK
                      BECMG 1318/1320 5000 BR BKN005=
201812131700 TAF LRSM 131700Z 1318/1403 29006KT CAVOK=
201812132000 TAF LRSM 132000Z NIL=
201812132300 TAF LRSM 132300Z NIL=
201812140200 TAF LRSM 140200Z 1403/1412 VRB04KT 5000 BR NSC
                      TEMPO 1403/1407 1500 BR
                      BECMG 1408/1410 9999 NSW=
201812140347 TAF AMD LRSM 140347Z 1403/1412 VRB04KT 5000 BR BKN010
                      TEMPO 1403/1407 1500 BR BKN005
                      BECMG 1408/1410 9999 NSW BKN020=
201812140500 TAF LRSM 140500Z 1406/1415 VRB04KT 5000 BR NSC
                      TEMPO 1406/1408 1500 BR BKN005
                      BECMG 1408/1410 9999 NSW=
201812140800 TAF LRSM 140800Z 1409/1418 08005KT 5000 BR NSC
                      BECMG 1410/1412 9999 NSW=
201812141100 TAF LRSM 141100Z 1412/1421 08006KT CAVOK=
201812141400 TAF LRSM 141400Z 1415/1424 07006KT 9999 BKN035=
201812141700 TAF LRSM 141700Z NIL=
201812142000 TAF LRSM 142000Z NIL=
201812142300 TAF LRSM 142300Z NIL=
201812150200 TAF LRSM 150200Z 1503/1512 09006KT 9999 SCT045
                      BECMG 1504/1506 5000 -SN=
201812150500 TAF LRSM 150500Z 1506/1515 09006KT 9999 -SN BKN045
                      BECMG 1506/1508 5000 -SN
                      TEMPO 1511/1515 1500 SN BR BKN010 OVC025=
201812150800 TAF LRSM 150800Z 1509/1518 09006KT 9999 -SN BKN045
                      BECMG 1511/1513 3000 -SN BR BKN010 OVC025
                       TEMPO 1514/1518 1500 SN BKN005 OVC010=
201812150951 TAF AMD LRSM 150951Z 1509/1518 09010KT 1500 SN BR SCT010 OVC020
                       TEMPO 1511/1513 0600 +SN BKN002 OVC015=
201812151100 TAF LRSM 151100Z 1512/1521 09006KT 3000 SN BKN010 OVC020
                      TEMPO 1514/1518 1500 SN BKN005 OVC015
                      BECMG 1518/1520 0800 +SN BKN002 OVC010=
201812151400 TAF LRSM 151400Z 1515/1524 06005KT 5000 BR BKN015 OVC020
                      BECMG 1516/1518 1500 SN BKN005 OVC010
                      TEMPO 1520/1524 0600 +SN VV001=
201812151700 TAF LRSM 151700Z NIL=
201812152000 TAF LRSM 152000Z NIL=
201812152300 TAF LRSM 152300Z NIL=
201812160200 TAF LRSM 160200Z NIL=
201812160500 TAF LRSM 160500Z NIL=
201812160800 TAF LRSM 160800Z NIL=
201812161100 TAF LRSM 161100Z NIL=
201812161400 TAF LRSM 161400Z NIL=
201812161700 TAF LRSM 161700Z NIL=
201812162000 TAF LRSM 162000Z NIL=
201812162300 TAF LRSM 162300Z NIL=
201812170200 TAF LRSM 170200Z NIL=
201812170313 TAF LRSM 170313Z 1703/1712 VRB04KT 3000 BR OVC005
                      TEMPO 1703/1706 1500 -SN BR OVC002
                      BECMG 1707/1709 5000 BKN010=
201812170500 TAF LRSM 170500Z 1706/1715 VRB04KT 1500 BR BKN002 OVC010
                      BECMG 1707/1709 3000 BKN005 OVC020
                      BECMG 1709/1711 5000 BKN010 BKN030=
201812170641 TAF AMD LRSM 170641Z 1706/1715 32005KT 0350 FZFG VV001
                      BECMG 1707/1709 0800 BKN002 BKN005
                      BECMG 1709/1711 3000 BR SCT002 BKN005
                      BECMG 1711/1712 5000 SCT005 BKN030=
201812170800 TAF LRSM 170800Z 1709/1718 32005KT 0600 -SN FZFG BKN001 OVC003
                       BECMG 1709/1711 1500 -SN BR SCT002 OVC005
                       BECMG 1711/1713 3000 SCT005 BKN030
                      BECMG 1716/1718 1500 -SN BR BKN005 BKN015=
201812171100 TAF LRSM 171100Z 1712/1721 34005KT 5000 -SN BR BKN010 BKN045
                      BECMG 1713/1715 7000 NSW SCT010 BKN045
                      BECMG 1716/1718 3000 BR BKN005 BKN030=
201812171400 TAF LRSM 171400Z 1715/1724 31005KT 3000 -SN BR BKN005 OVC025
                      TEMPO 1715/1718 1500 SN BR BKN002 OVC020
                       BECMG 1718/1720 5000 BR SCT005 BKN025
                      BECMG 1722/1724 1500 BR BKN003 SCT020=
201812171700 TAF LRSM 171700Z NIL=
201812172000 TAF LRSM 172000Z NIL=
201812172300 TAF LRSM 172300Z NIL=
201812180200 TAF LRSM 180200Z 1803/1812 VRB04KT 5000 BR BKN005 BKN030
                      TEMPO 1803/1806 3000 -SN BR BKN002 BKN020
                       BECMG 1808/1810 9999 NSW SCT015=
201812180500 TAF LRSM 180500Z 1806/1815 25006KT 0800 FZFG BKN002
                      TEMPO 1806/1808 0350 FZFG VV001
                      BECMG 1808/1810 3000 BR BKN005
                      BECMG 1810/1812 5000 BKN010=
201812180800 TAF LRSM 180800Z 1809/1818 25006KT 1500 BR OVC002
                      BECMG 1809/1811 3000 BKN005
                      TEMPO 1811/1814 7000 NSW SCT020=
201812180911 TAF AMD LRSM 180911Z 1809/1818 25006KT 0600 FZFG OVC002
                      TEMPO 1809/1811 0350 -SN FZFG VV001
                      PROB30 TEMPO 1811/1814 1500 BR BKN005=
201812181100 TAF LRSM 181100Z 1812/1821 VRB04KT 3000 BR OVC035
                      BECMG 1813/1815 1500 BR BKN005
                      BECMG 1815/1817 0600 FZFG OVC002=
201812181400 TAF LRSM 181400Z 1815/1824 VRB04KT 3000 BR OVC035
                      BECMG 1815/1817 1500 BR BKN005
                      BECMG 1817/1819 0600 FZFG OVC002=
201812181700 TAF LRSM 181700Z NIL=
201812182000 TAF LRSM 182000Z NIL=
201812182300 TAF LRSM 182300Z NIL=
201812190200 TAF LRSM 190200Z 1903/1912 VRB04KT 0600 FZFG OVC001
                      TEMPO 1903/1906 0350 FZFG
                      BECMG 1907/1909 1500 BR BKN005=
201812190500 TAF LRSM 190500Z 1906/1915 VRB04KT 0800 FZFG OVC002
                      TEMPO 1906/1907 0400 FZFG OVC001
                      BECMG 1907/1909 1500 BR SCT002 BKN005
                      BECMG 1909/1911 5000 SCT005 OVC010
                      PROB40 TEMPO 1911/1915 -SG=
201812190800 TAF LRSM 190800Z 1909/1918 VRB04KT 0300 FZFG VV001
                      BECMG 1909/1911 1500 BR SCT002 BKN005
                      TEMPO 1911/1913 3000 SCT005 OVC010
                      PROB40 TEMPO 1911/1915 -SG=
201812191100 TAF LRSM 191100Z 1912/1921 VRB04KT 0300 FZFG VV001
                      PROB40 TEMPO 1912/1915 0800 -SG FZFG OVC002=
201812191400 TAF LRSM 191400Z 1915/1924 VRB04KT 0300 FZFG VV001
                      PROB40 TEMPO 1915/1918 0800 -SG FZFG OVC002=
201812191700 TAF LRSM 191700Z NIL=
201812192000 TAF LRSM 192000Z NIL=
201812192300 TAF LRSM 192300Z NIL=
201812200200 TAF LRSM 200200Z 2003/2012 VRB04KT 0800 FZFG VV002
                      TEMPO 2003/2006 0300 FZFG VV001
                      BECMG 2006/2008 1500 BR BKN005
                      BECMG 2008/2010 5000 NSC=
201812200426 TAF AMD LRSM 200426Z 2004/2012 VRB04KT 5000 BR OVC025
                      TEMPO 2004/2006 1500 BR VV002
                      BECMG 2007/2009 CAVOK=
201812200500 TAF LRSM 200500Z 2006/2015 VRB04KT 5000 BR SCT025
                      BECMG 2006/2008 9999 NSW=
201812200800 TAF LRSM 200800Z 2009/2018 VRB04KT 3000 BR NSC
                      TEMPO 2009/2011 1500 BR BKN005
                      TEMPO 2011/2014 7000 NSW
                      BECMG 2014/2016 1500 BR BKN005=
201812201100 TAF LRSM 201100Z 2012/2021 VRB04KT 3000 BR NSC
                      TEMPO 2012/2014 5000
                      BECMG 2015/2017 1500 BR BKN005=
201812201400 TAF LRSM 201400Z 2015/2024 VRB04KT 3000 BR NSC
                      TEMPO 2018/2024 1500 BR BKN005=
201812201700 TAF LRSM 201700Z NIL=
201812202000 TAF LRSM 202000Z NIL=
201812202300 TAF LRSM 202300Z NIL=
201812210200 TAF LRSM 210200Z 2103/2112 VRB04KT 3000 BR BKN025
                      TEMPO 2103/2106 1500 -SN BKN010 BKN025=
201812210500 TAF LRSM 210500Z 2106/2115 VRB04KT 3000 BR BKN025
                      TEMPO 2106/2107 1500 -SN BR BKN010 OVC025
                       PROB30
                      TEMPO 2107/2109 1500 -FZRA BKN010 OVC025
                       BECMG 2109/2111 5000=
201812210800 TAF LRSM 210800Z 2109/2118 14006KT 3000 BR BKN030
                      PROB30 TEMPO 2109/2110 1500 -SN BR BKN015
                       OVC025
                      TEMPO 2110/2114 5000=
201812211100 TAF LRSM 211100Z 2112/2121 14006KT 5000 BR BKN040=
201812211400 TAF LRSM 211400Z 2115/2124 VRB04KT 4000 BR BKN035
                      BECMG 2115/2117 1500 BR
                      BECMG 2117/2119 16010KT=
201812211700 TAF LRSM 211700Z 2118/2203 VRB04KT 5000 BR OVC035
                      BECMG 2118/2120 16010KT
                      BECMG 2123/2201 22012KT 3000 -RA BR BKN010
                       OVC030=
201812212000 TAF LRSM 212000Z NIL=
201812212006 TAF AMD LRSM 212006Z 2120/2203 CNL=
201812212300 TAF LRSM 212300Z NIL=
201812220200 TAF LRSM 220200Z 2203/2212 20012KT 8000 BKN030
                      TEMPO 2203/2205 3000 -RA BR BKN010 OVC030
                       BECMG 2206/2208 5000 -RA BR BKN015 OVC030=
201812220500 TAF LRSM 220500Z 2206/2215 22010KT 9999 BKN040
                      TEMPO 2211/2215 5000 -RA BR BKN015 OVC030=
201812220800 TAF LRSM 220800Z 2209/2218 20008KT 9999 BKN030
                      TEMPO 2211/2216 5000 -RA BR BKN015 OVC030=
201812221100 TAF LRSM 221100Z 2212/2221 VRB03KT 9999 BKN030
                      TEMPO 2212/2218 5000 -RA BR BKN015 OVC030=
201812221400 TAF LRSM 221400Z 2215/2224 24010KT 9999 BKN030
                      TEMPO 2215/2218 5000 -RA BR BKN015 OVC030=
201812221700 TAF LRSM 221700Z NIL=
201812222000 TAF LRSM 222000Z NIL=
201812222300 TAF LRSM 222300Z NIL=
201812230200 TAF LRSM 230200Z NIL=
201812230500 TAF LRSM 230500Z NIL=
201812230800 TAF LRSM 230800Z NIL=
201812231100 TAF LRSM 231100Z NIL=
201812231400 TAF LRSM 231400Z NIL=
201812231700 TAF LRSM 231700Z NIL=
201812232000 TAF LRSM 232000Z NIL=
201812232300 TAF LRSM 232300Z NIL=
201812240200 TAF LRSM 240200Z 2403/2412 22010KT 9999 SCT040
                      BECMG 2403/2405 3000 -RA BR BKN010 OVC030
                       BECMG 2410/2412 VRB04KT 5000 BR BKN015=
201812240500 TAF LRSM 240500Z 2406/2415 18008KT 7000 -RA SCT020 BKN035
                      TEMPO 2406/2409 3000 RA BR BKN010 OVC030
                       BECMG 2409/2411 34010KT 5000 -RASN BR BKN015
                       OVC035
                      TEMPO 2411/2413 34015G25KT 3000 SN BKN005
                       OVC025
                      BECMG 2413/2415 9999 NSW SCT025=
201812240800 TAF LRSM 240800Z 2409/2418 12008KT 7000 -RA SCT020 BKN035
                      BECMG 2409/2411 34010KT 5000 -RASN BR BKN015
                       OVC035
                      TEMPO 2411/2413 34015G25KT 3000 SN BKN005
                       OVC025
                      BECMG 2414/2416 9999 NSW SCT025=
201812241100 TAF LRSM 241100Z 2412/2421 34012KT 5000 -SN BR BKN015 BKN030
                      TEMPO 2412/2415 34015G25KT 3000 SN BKN010
                       OVC025
                      BECMG 2415/2417 9999 NSW SCT030=
201812241400 TAF LRSM 241400Z 2415/2424 34012KT 9999 BKN010 BKN030
                      BECMG 2415/2417 SCT030=
201812241700 TAF LRSM 241700Z NIL=
201812242000 TAF LRSM 242000Z NIL=
201812242300 TAF LRSM 242300Z NIL=
201812250200 TAF LRSM 250200Z 2503/2512 30008KT CAVOK=
201812250500 TAF LRSM 250500Z 2506/2515 30008KT CAVOK
                      TEMPO 2512/2515 3000 -SN BR BKN015 OVC030=
201812250800 TAF LRSM 250800Z 2509/2518 30008KT CAVOK
                      TEMPO 2514/2518 5000 -SN BR BKN015 OVC030=
201812251100 TAF LRSM 251100Z 2512/2521 33010KT 9999 BKN030
                      TEMPO 2514/2521 5000 -SN BR BKN015 OVC030
                       BECMG 2519/2521 26008KT=
201812251400 TAF LRSM 251400Z 2515/2524 33010KT 8000 -SN SCT015 BKN035
                      BECMG 2519/2521 26008KT
                      TEMPO 2519/2524 5000 -SN BR BKN015 OVC030=
201812251700 TAF LRSM 251700Z NIL=
201812252000 TAF LRSM 252000Z NIL=
201812252300 TAF LRSM 252300Z NIL=
201812260200 TAF LRSM 260200Z 2603/2612 26010KT 5000 -SN BR BKN015 BKN035
                      TEMPO 2603/2607 3000 SN BR BKN005 BKN015=
201812260500 TAF LRSM 260500Z 2606/2615 26010KT 9999 BKN015 BKN035
                      TEMPO 2606/2609 5000 -SN BKN005 OVC020=
201812260800 TAF LRSM 260800Z 2609/2618 26010KT 9999 BKN010 OVC020
                      BECMG 2611/2613 BKN015 OVC020=
201812261100 TAF LRSM 261100Z 2612/2621 26008KT 9999 OVC010
                      TEMPO 2612/2615 OVC015=
201812261400 TAF LRSM 261400Z 2615/2624 26008KT 9999 BKN005
                      TEMPO 2615/2618 BKN015=
201812261700 TAF LRSM 261700Z NIL=
201812262000 TAF LRSM 262000Z NIL=
201812262300 TAF LRSM 262300Z NIL=
201812270200 TAF LRSM 270200Z 2703/2712 27010KT 9999 OVC030=
201812270500 TAF LRSM 270500Z 2706/2715 26010KT 9999 OVC030=
201812270800 TAF LRSM 270800Z 2709/2718 26010KT 9999 BKN030=
201812271100 TAF LRSM 271100Z 2712/2721 29008KT CAVOK=
201812271400 TAF LRSM 271400Z 2715/2724 24008KT 9999 BKN015
                      PROB30 TEMPO 2719/2722 3000 -SN BKN010 OVC025=
201812271700 TAF LRSM 271700Z NIL=
201812272000 TAF LRSM 272000Z NIL=
201812272300 TAF LRSM 272300Z NIL=
201812280200 TAF LRSM 280200Z 2803/2812 VRB04KT 3000 BR BKN015 BKN035
                      TEMPO 2803/2808 1500 -RA -RASN BKN010 OVC030
                       BECMG 2808/2810 5000 -RA BR=
201812280411 TAF AMD LRSM 280411Z 2804/2812 VRB04KT 1500 -RA BR BKN002 OVC020
                       BECMG 2807/2809 5000 BKN010 OVC020=
201812280500 TAF LRSM 280500Z 2806/2815 VRB04KT 3000 BR BKN010 OVC020
                      TEMPO 2806/2809 1500 -RA BR BKN002 OVC020
                       BECMG 2809/2811 5000 -RA=
201812280800 TAF LRSM 280800Z 2809/2818 VRB04KT 3000 BR BKN010 OVC020
                      TEMPO 2809/2815 1500 -RA BR BKN005 OVC015
                       TEMPO 2815/2818 3000 -RASN BKN005 OVC015=
201812280837 TAF COR LRSM 280837Z 2809/2818 VRB04KT 3000 BR BKN010 OVC020
                      TEMPO 2809/2815 1500 -RA BR BKN005 OVC015
                       TEMPO 2815/2818 1500 -RASN BKN005 OVC015=
201812281100 TAF LRSM 281100Z 2812/2821 VRB04KT 5000 BR BKN010 OVC020
                      TEMPO 2812/2815 3000 -RA BR BKN005 OVC015
                       TEMPO 2815/2821 1500 -RASN BKN005 OVC015=
201812281400 TAF LRSM 281400Z 2815/2824 VRB04KT 5000 BR BKN010 OVC020
                      TEMPO 2815/2824 1500 -RASN BKN005 OVC015=
201812281700 TAF LRSM 281700Z NIL=
201812282000 TAF LRSM 282000Z NIL=
201812282300 TAF LRSM 282300Z NIL=
201812290200 TAF LRSM 290200Z 2903/2912 32006KT 1500 BR BKN005
                      TEMPO 2903/2907 0600 FG OVC002
                      BECMG 2908/2910 5000 BR BKN025=
201812290500 TAF LRSM 290500Z 2906/2915 VRB04KT 3000 BR OVC010
                      TEMPO 2906/2908 1500 BR OVC005
                      BECMG 2908/2910 5000 BKN020
                      TEMPO 2910/2914 9999 NSW=
201812290800 TAF LRSM 290800Z 2909/2918 VRB04KT 7000 SCT010 BKN040
                      BECMG 2915/2917 3000 BR BKN010 BKN030=
201812291100 TAF LRSM 291100Z 2912/2921 VRB04KT 9999 SCT010 BKN040
                      BECMG 2915/2917 5000 BR BKN010 BKN030
                      BECMG 2918/2920 3000 BR OVC005=
201812291400 TAF LRSM 291400Z 2915/2924 VRB04KT CAVOK
                      BECMG 2916/2918 5000 BR
                      BECMG 2919/2921 3000 BR BKN010
                      BECMG 2922/2924 1500 BR BKN005=
201812291700 TAF LRSM 291700Z NIL=
201812292000 TAF LRSM 292000Z NIL=
201812292300 TAF LRSM 292300Z NIL=
201812300200 TAF LRSM 300200Z NIL=
201812300500 TAF LRSM 300500Z NIL=
201812300800 TAF LRSM 300800Z NIL=
201812301100 TAF LRSM 301100Z NIL=
201812301400 TAF LRSM 301400Z NIL=
201812301700 TAF LRSM 301700Z NIL=
201812302000 TAF LRSM 302000Z NIL=
201812302300 TAF LRSM 302300Z NIL=
201812310200 TAF LRSM 310200Z 3103/3112 VRB04KT 5000 BR BKN015 BKN040
                      TEMPO 3103/3107 3000 -DZ BR BKN010 OVC030=
201812310500 TAF LRSM 310500Z 3106/3115 VRB04KT 3000 -RA BR BKN015 OVC030
                      TEMPO 3106/3109 1500 -DZ BR BKN005 OVC025
                       TEMPO 3109/3115 5000 BR SCT015 OVC030=
201812310800 TAF LRSM 310800Z 3109/3118 VRB04KT 5000 BR BKN015
                      TEMPO 3111/3115 3000 -SNRA BR BKN010 OVC020=
201812311100 TAF LRSM 311100Z 3112/3121 VRB04KT 5000 BR BKN010
                      TEMPO 3112/3115 3000 -RA BR BKN002 OVC020
                       BECMG 3117/3119 1500 BR BKN002=
201812311400 TAF LRSM 311400Z 3115/3124 35006KT 9999 BKN025
                      TEMPO 3115/3118 5000 -RA BR BKN015 OVC020
                       BECMG 3119/3121 3000 BR BKN010=
201812311700 TAF LRSM 311700Z NIL=
201812312000 TAF LRSM 312000Z NIL=
201812312300 TAF LRSM 312300Z NIL=
