201901010200 TAF LRBC 010200Z 0103/0112 VRB03KT 1500 BR BKN040
                      TEMPO 0103/0107 0800 FG BKN002
                      PROB30 TEMPO 0103/0106 0350 FG OVC001
                      BECMG 0107/0109 3000
                      BECMG 0109/0111 9999 NSW=
201901010500 TAF LRBC 010500Z 0106/0115 VRB03KT 1500 BR BKN040
                      TEMPO 0106/0108 0600 FG BKN002
                      BECMG 0108/0110 3000
                      BECMG 0110/0112 9999 NSW=
201901010800 TAF LRBC 010800Z 0109/0118 VRB03KT 3000 BR NSC
                      BECMG 0109/0111 CAVOK=
201901011100 TAF LRBC 011100Z 0112/0121 18008KT CAVOK=
201901011400 TAF LRBC 011400Z 0115/0124 21010KT CAVOK=
201901011700 TAF LRBC 011700Z 0118/0203 18006KT CAVOK
                      TEMPO 0200/0203 3000 BR=
201901012000 TAF LRBC 012000Z 0121/0206 16006KT 9999 BKN035
                      TEMPO 0201/0205 3000 BR BKN010=
201901012300 TAF LRBC 012300Z 0200/0209 17010KT 5000 BR NSC
                      TEMPO 0200/0205 3000 BR BKN010
                      BECMG 0206/0208 CAVOK=
201901020200 TAF LRBC 020200Z 0203/0212 17010KT 5000 BR NSC
                      TEMPO 0203/0206 1500 BR BKN010
                      BECMG 0206/0208 CAVOK=
201901020500 TAF LRBC 020500Z 0206/0215 16008KT 5000 BR BKN035
                      PROB30 TEMPO 0206/0208 3000 -SN BR BKN010
                       OVC030
                      BECMG 0208/0210 9999 NSW=
201901020800 TAF LRBC 020800Z 0209/0218 16008KT 9999 BKN060
                      PROB30 TEMPO 0209/0211 5000 -SN=
201901021100 TAF LRBC 021100Z 0212/0221 VRB04KT 9999 BKN060
                      TEMPO 0212/0214 25010KT
                      PROB30 0214/0218 5000 -SN=
201901021400 TAF LRBC 021400Z 0215/0224 VRB04KT 9999 BKN060
                      TEMPO 0215/0218 26010KT=
201901021700 TAF LRBC 021700Z 0218/0303 35006KT 9999 BKN060
                      PROB30 TEMPO 0223/0303 5000 -SN BR=
201901022000 TAF LRBC 022000Z 0221/0306 35006KT 9999 BKN050
                      TEMPO 0301/0306 5000 -SN BR BKN010 BKN040=
201901022300 TAF LRBC 022300Z 0300/0309 33006KT 9999 BKN040
                      TEMPO 0302/0308 5000 -SN BR BKN015 BKN040=
201901030200 TAF LRBC 030200Z 0303/0312 VRB04KT 9999 BKN050
                      TEMPO 0303/0308 5000 -SN BR BKN015 BKN040=
201901030500 TAF LRBC 030500Z 0306/0315 VRB04KT 9999 BKN035
                      TEMPO 0306/0309 5000 -SN BR
                      PROB40 TEMPO 0309/0312 5000 -SN BKN005 OVC040=
201901030800 TAF LRBC 030800Z 0309/0318 35009KT 5000 -SN SCT020 BKN035
                      PROB40 TEMPO 0309/0313 3000 SHSN BKN005 SCT030CB
                       OVC035
                      BECMG 0316/0318 9999 NSW=
201901031100 TAF LRBC 031100Z 0312/0321 34009KT 9999 BKN035
                      PROB30 TEMPO 0312/0315 5000 -SN BKN010 OVC035=
201901031400 TAF LRBC 031400Z 0315/0324 VRB04KT 9999 BKN035
                      TEMPO 0315/0318 5000 -SN
                      BECMG 0318/0320 34010KT=
201901031700 TAF LRBC 031700Z 0318/0403 34012KT 9999 BKN030
                      TEMPO 0318/0321 5000 -SN=
201901032000 TAF LRBC 032000Z 0321/0406 34012KT 9999 BKN050=
201901032300 TAF LRBC 032300Z 0400/0409 34012KT 9999 BKN050=
201901040200 TAF LRBC 040200Z 0403/0412 36012KT 9999 OVC060=
201901040500 TAF LRBC 040500Z 0406/0415 36012KT 9999 BKN050=
201901040800 TAF LRBC 040800Z 0409/0418 36014KT 9999 BKN040
                      BECMG 0416/0418 VRB04KT=
201901041100 TAF LRBC 041100Z 0412/0421 34012KT 9999 BKN040
                      TEMPO 0412/0415 5000 -SN BKN010 OVC030
                      BECMG 0416/0418 VRB04KT=
201901041400 TAF LRBC 041400Z 0415/0424 33008KT 9999 BKN040
                      PROB40 TEMPO 0415/0418 5000 -SN BKN015 OVC030=
201901041700 TAF LRBC 041700Z 0418/0503 34005KT 9999 BKN045=
201901042000 TAF LRBC 042000Z 0421/0506 VRB04KT 9999 SCT025 BKN045=
201901042300 TAF LRBC 042300Z 0500/0509 VRB04KT CAVOK
                      PROB30 TEMPO 0502/0506 3000 BR=
201901050200 TAF LRBC 050200Z 0503/0512 VRB04KT CAVOK=
201901050500 TAF LRBC 050500Z 0506/0515 VRB04KT CAVOK=
201901050800 TAF LRBC 050800Z 0509/0518 VRB04KT CAVOK=
201901051100 TAF LRBC 051100Z 0512/0521 26012KT CAVOK
                      BECMG 0514/0516 VRB04KT=
201901051400 TAF LRBC 051400Z 0515/0524 25010KT CAVOK
                      BECMG 0515/0517 VRB04KT
                      BECMG 0522/0524 5000 -SN BR BKN015 OVC030=
201901051700 TAF LRBC 051700Z 0518/0603 26014KT CAVOK
                      BECMG 0518/0520 VRB04KT
                      BECMG 0522/0524 5000 -SN BR BKN015 BKN030
                       TEMPO 0600/0603 3000 SN BR BKN010 OVC025=
201901052000 TAF LRBC 052000Z 0521/0606 VRB04KT CAVOK
                      BECMG 0522/0524 5000 -SN BR BKN015 BKN030
                       TEMPO 0601/0606 3000 SN BR BKN010 OVC025=
201901052300 TAF LRBC 052300Z 0600/0609 VRB04KT 5000 -SN BR BKN015 BKN040
                      TEMPO 0601/0606 3000 SN BKN010 OVC025
                      BECMG 0607/0609 35012KT 9999 NSW=
201901060200 TAF LRBC 060200Z 0603/0612 VRB04KT 5000 -SN BKN015 OVC025
                      TEMPO 0603/0607 1500 SN BKN005 OVC020
                      BECMG 0607/0609 34012KT 9999 NSW BKN030=
201901060500 TAF LRBC 060500Z 0606/0615 35012KT 5000 -SN SCT010 OVC025
                      TEMPO 0606/0609 3000 SN BKN010 OVC020
                      BECMG 0611/0612 9999 NSW=
201901060800 TAF LRBC 060800Z 0609/0618 34012KT 9999 SCT015 BKN030
                      TEMPO 0609/0612 5000 -SN BKN015 OVC025=
201901061100 TAF LRBC 061100Z 0612/0621 34016KT 9999 SCT030 BKN060
                      PROB40 TEMPO 0620/0621 5000 -SN BKN015 BKN030=
201901061400 TAF LRBC 061400Z 0615/0624 34016KT 9999 SCT030 BKN060
                      TEMPO 0621/0624 5000 -SN BKN015 BKN030=
201901061700 TAF LRBC 061700Z 0618/0703 34018KT 9999 SCT040 BKN045
                      PROB30 TEMPO 0621/0624 5000 -SN BKN015 BKN030
                       BECMG 0700/0702 3000 -SN BKN010 OVC025=
201901062000 TAF LRBC 062000Z 0621/0706 34014KT 8000 -SN BKN020 BKN045
                      TEMPO 0700/0706 3000 SN BKN010 BKN030=
201901062300 TAF LRBC 062300Z 0700/0709 34015KT 5000 -SN BKN015 BKN030
                      TEMPO 0702/0706 3000 SN BKN010 OVC025=
201901070200 TAF LRBC 070200Z 0703/0712 34014KT 5000 -SN SCT015 BKN030
                      TEMPO 0703/0706 3000 SN BKN010 OVC025=
201901070500 TAF LRBC 070500Z 0706/0715 34015KT 5000 -SN SCT010 BKN030
                      TEMPO 0707/0709 9999 NSW
                      BECMG 0711/0713 9999 NSW=
201901070800 TAF LRBC 070800Z 0709/0718 34018KT 9999 SCT020
                      TEMPO 0709/0712 3000 SN BKN015 OVC030=
201901071100 TAF LRBC 071100Z 0712/0721 34018KT 9999 DRSN BKN025
                      TEMPO 0712/0715 3000 SN BKN015 OVC025=
201901071400 TAF LRBC 071400Z 0715/0724 34014KT 9999 BKN035
                      TEMPO 0715/0718 5000 -SN DRSN BKN015 OVC030=
201901071700 TAF LRBC 071700Z 0718/0803 34013KT 9999 BKN025
                      BECMG 0800/0803 30003KT 5000 BR=
201901072000 TAF LRBC 072000Z 0721/0806 33010KT 9999 BKN030
                      PROB30 TEMPO 0721/0723 5000 -SN
                      BECMG 0801/0803 VRB03KT 5000 BR
                      TEMPO 0803/0806 1500 BR=
201901072300 TAF LRBC 072300Z 0800/0809 33010KT 9999 BKN030
                      BECMG 0801/0803 VRB03KT 5000 BR
                      TEMPO 0803/0806 1500 BR=
201901080200 TAF LRBC 080200Z 0803/0812 VRB04KT CAVOK
                      PROB30 TEMPO 0803/0806 5000 BR=
201901080500 TAF LRBC 080500Z 0806/0815 VRB04KT CAVOK
                      TEMPO 0806/0809 5000 BR=
201901080800 TAF LRBC 080800Z 0809/0818 VRB04KT 6000 BKN035
                      BECMG 0815/0817 3000 BR BKN010=
201901081100 TAF LRBC 081100Z 0812/0821 VRB04KT 9999 BKN025
                      BECMG 0815/0817 3000 BR BKN010=
201901081400 TAF LRBC 081400Z 0815/0824 17008KT 9999 BKN025
                      BECMG 0815/0817 3000 BR BKN010=
201901081700 TAF LRBC 081700Z 0818/0903 16008KT CAVOK
                      BECMG 0819/0821 3000 BR
                      TEMPO 0823/0903 0600 FZFG VV002=
201901082000 TAF LRBC 082000Z 0821/0906 16010KT 3000 BR BKN001
                      BECMG 0821/0823 1500 BR
                      TEMPO 0823/0904 0600 FZFG VV001
                      TEMPO 0904/0906 0350 -SN=
201901082300 TAF LRBC 082300Z 0900/0909 16010KT 1500 BR BKN002
                      TEMPO 0900/0904 0600 FZFG VV001
                      PROB30 TEMPO 0904/0907 0350 -SN FZFG VV001
                       BECMG 0907/0909 3000 BKN005=
201901090200 TAF LRBC 090200Z 0903/0912 17010KT 1500 BR OVC002
                      TEMPO 0903/0907 0600 FZFG VV001
                      PROB30 TEMPO 0904/0907 0350 -SN FZFG
                      BECMG 0908/0910 5000 BKN010=
201901090500 TAF LRBC 090500Z 0906/0915 17010KT 3000 -SN BR OVC030
                      TEMPO 0906/0908 1500 -SN BR BKN005 OVC020
                       BECMG 0908/0910 5000 BR=
201901090800 TAF LRBC 090800Z 0909/0918 17010KT 5000 BR BKN060
                      BECMG 0909/0911 7000 NSW=
201901091100 TAF LRBC 091100Z 0912/0921 17010KT 7000 SCT060
                      BECMG 0918/0920 5000 BR BKN015=
201901091400 TAF LRBC 091400Z 0915/0924 16008KT 7000 NSC
                      BECMG 0918/0920 5000 BR BKN015=
201901091700 TAF LRBC 091700Z 0918/1003 VRB04KT 7000 BKN060
                      BECMG 0920/0922 5000 BR BKN010
                      TEMPO 1000/1003 1500 BR BKN005=
201901092000 TAF LRBC 092000Z 0921/1006 VRB04KT 3000 BR NSC
                      TEMPO 1000/1005 1500 BR BKN005=
201901092300 TAF LRBC 092300Z 1000/1009 35008KT 5000 BR NSC
                      TEMPO 1003/1008 3000 -SN BR BKN010 BKN025=
201901100200 TAF LRBC 100200Z 1003/1012 35008KT 3000 -SN BR BKN010 BKN025
                      TEMPO 1004/1009 1500 -SN BR BKN005 OVC020=
201901100500 TAF LRBC 100500Z 1006/1015 35008KT 3000 -SN BR BKN015 BKN025
                      TEMPO 1006/1010 1500 -SN BR BKN010 OVC020=
201901100800 TAF LRBC 100800Z 1009/1018 35012KT 3000 -SN BR BKN015 BKN025
                      TEMPO 1009/1011 0800 SN BKN005 OVC010=
201901101100 TAF LRBC 101100Z 1012/1021 35012KT 3000 -SN BR BKN010 OVC015
                      TEMPO 1012/1015 5000 BKN015 BKN025=
201901101400 TAF LRBC 101400Z 1015/1024 35012KT 5000 -SN BR BKN015 BKN025
                      TEMPO 1015/1017 3000 -SN BR BKN010 OVC020
                       BECMG 1020/1022 1500 SN BR BKN005 OVC015
                       TEMPO 1022/1024 0800 SN FG BKN002 OVC010=
201901101700 TAF LRBC 101700Z 1018/1103 35012KT 3000 -SN BR SCT015 OVC030
                      BECMG 1020/1022 1500 SN BKN005 OVC015
                      TEMPO 1100/1103 35015G25KT 0800 +SN DRSN
                       OVC002=
201901102000 TAF LRBC 102000Z 1021/1106 35012KT 3000 -SN BR BKN010 OVC030
                      BECMG 1021/1023 1500 SN OVC005
                      TEMPO 1100/1106 35015G25KT 0800 +SN=
201901102300 TAF LRBC 102300Z 1100/1109 35012KT 1500 SN BKN005 OVC015
                      TEMPO 1101/1106 35015G25KT 0800 +SN DRSN
                       OVC002=
201901110200 TAF LRBC 110200Z 1103/1112 35015KT 1500 SN OVC005
                      TEMPO 1103/1107 0800 +SN DRSN VV002=
201901110500 TAF LRBC 110500Z 1106/1115 33012KT 1500 SN OVC005
                      TEMPO 1106/1109 0600 +SN VV002
                      BECMG 1110/1112 3000 -SN BR BKN010 BKN020=
201901110710 TAF AMD LRBC 110710Z 1107/1115 32016KT 0350 +SN BLSN VV002
                      BECMG 1108/1110 0800 OVC005
                      BECMG 1111/1113 3000 -SN BR BKN010 BKN020=
201901110800 TAF LRBC 110800Z 1109/1118 32015KT 1500 SN BLSN BKN005 OVC010
                      TEMPO 1109/1112 0600 +SN BLSN VV002
                      BECMG 1112/1114 3000 -SN BLSN BKN010 OVC020
                       BECMG 1116/1118 32005KT 5000 -SN BR BKN015
                       BKN020=
201901111100 TAF LRBC 111100Z 1112/1121 32014KT 1500 SN BLSN BKN010 BKN025
                      TEMPO 1112/1115 0600 +SN BLSN VV002
                      BECMG 1115/1117 5000
                      BECMG 1118/1120 VRB04KT 9999 NSW BKN025=
201901111400 TAF LRBC 111400Z 1115/1124 32012KT 5000 -SN BLSN BKN015 BKN025
                       TEMPO 1115/1117 1500 SN BLSN BKN010 BKN025
                       BECMG 1118/1120 VRB04KT 9999 NSW BKN025=
201901111700 TAF LRBC 111700Z 1118/1203 32010KT 5000 -SN BR BKN035
                      BECMG 1119/1121 VRB04KT 7000 NSW
                      BECMG 1121/1123 3000 BR OVC010
                      TEMPO 1123/1203 1500 BR OVC005=
201901112000 TAF LRBC 112000Z 1121/1206 VRB04KT CAVOK
                      BECMG 1121/1123 3000 BR
                      TEMPO 1123/1206 1500 BR OVC005=
201901112300 TAF AMD LRBC 120210Z 1202/1209 VRB04KT 0200 FZFG VV001
                      BECMG 1205/1207 0800 BKN002
                      BECMG 1207/1209 3000 BR BKN005=
201901120200 TAF LRBC 120200Z 1203/1212 13010KT 0300 FZFG VV001
                      BECMG 1205/1207 VRB04KT 0800 BKN002
                      BECMG 1207/1209 3000 BR BKN005
                      BECMG 1209/1211 7000 NSW SCT025=
201901120210 TAF AMD LRBC 120210Z 1202/1209 VRB04KT 0200 FZFG VV001
                      BECMG 1205/1207 0800 BKN002
                      BECMG 1207/1209 3000 BR BKN005=
201901120500 TAF LRBC 120500Z 1206/1215 14010KT 9999 SCT040
                      BECMG 1207/1209 VRB04KT
                      PROB30 TEMPO 1209/1213 5000 -SN=
201901120800 TAF LRBC 120800Z 1209/1218 27012KT 9999 SCT040
                      PROB30 TEMPO 1209/1213 5000 -SN=
201901121100 TAF LRBC 121100Z 1212/1221 27016KT 9999 BKN040
                      TEMPO 1212/1216 3000 -SN BR BKN010 BKN035
                       BECMG 1216/1218 VRB04KT=
201901121400 TAF LRBC 121400Z 1215/1224 27014KT 9999 BKN040
                      BECMG 1216/1218 VRB04KT=
201901121700 TAF LRBC 121700Z 1218/1303 33006KT 9999 BKN040
                      TEMPO 1300/1303 3000 BR=
201901122000 TAF LRBC 122000Z 1221/1306 VRB04KT CAVOK
                      TEMPO 1300/1306 3000 BR=
201901122300 TAF LRBC 122300Z 1300/1309 VRB04KT CAVOK
                      TEMPO 1302/1306 3000 BR=
201901130200 TAF LRBC 130200Z 1303/1312 VRB04KT CAVOK
                      TEMPO 1303/1306 3000 BR=
201901130500 TAF LRBC 130500Z 1306/1315 VRB04KT CAVOK=
201901130800 TAF LRBC 130800Z 1309/1318 16006KT CAVOK=
201901131100 TAF LRBC 131100Z 1312/1321 18008KT CAVOK=
201901131400 TAF LRBC 131400Z 1315/1324 17010KT CAVOK=
201901131700 TAF LRBC 131700Z 1318/1403 16013KT CAVOK=
201901132000 TAF LRBC 132000Z 1321/1406 16010KT 5000 BR NSC
                      BECMG 1321/1323 3000 BR
                      TEMPO 1400/1406 1500 BR BKN005
                      PROB30 1401/1405 0600 FZFG OVC002=
201901132300 TAF LRBC 132300Z 1400/1409 16010KT 3000 BR NSC
                      TEMPO 1400/1406 1500 BR BKN005
                      PROB30 1401/1405 0600 FZFG OVC002
                      BECMG 1406/1408 9999 NSW=
201901140200 TAF LRBC 140200Z 1403/1412 16010KT 3000 BR NSC
                      TEMPO 1403/1406 1500 BR BKN005
                      BECMG 1406/1408 9999 NSW
                      TEMPO 1409/1412 5000 -SN BKN015 BKN040=
201901140500 TAF LRBC 140500Z 1406/1415 16014KT 3000 BR NSC
                      PROB40 TEMPO 1406/1408 1500 BR BKN002
                      BECMG 1408/1410 9999 NSW
                      PROB30 TEMPO 1409/1412 5000 -FZRA BKN015
                       BKN040=
201901140800 TAF LRBC 140800Z 1409/1418 17014KT 7000 BKN040
                      TEMPO 1409/1412 5000 -FZRA BKN015 BKN040
                       BECMG 1415/1417 VRB04KT=
201901141100 TAF LRBC 141100Z 1412/1421 17012KT 9999 SCT040
                      PROB30 TEMPO 1412/1414 5000 BR
                      BECMG 1414/1416 VRB04KT
                      BECMG 1417/1419 33010KT=
201901141400 TAF LRBC 141400Z 1415/1424 VRB04KT 9999 SCT040
                      BECMG 1417/1419 33010KT
                      PROB40 TEMPO 1420/1424 5000 -SN=
201901141700 TAF LRBC 141700Z 1418/1503 VRB04KT 9999 SCT040
                      BECMG 1421/1423 33010KT 5000 -SN BKN015 BKN035
                       TEMPO 1423/1503 3000 -SN BKN010 OVC030=
201901142000 TAF LRBC 142000Z 1421/1506 VRB04KT 7000 BKN040
                      BECMG 1421/1423 33010KT 5000 -SN BKN015 BKN035
                       TEMPO 1423/1503 1500 SN BKN010 OVC030=
201901142300 TAF LRBC 142300Z 1500/1509 35012KT 5000 -SN BR BKN015 BKN035
                      TEMPO 1500/1504 1500 SN BKN010 OVC030
                      BECMG 1505/1507 9999 NSW SCT025
                      BECMG 1507/1509 VRB04KT=
201901150200 TAF LRBC 150200Z 1503/1512 33008KT 5000 -SN BR BKN015 BKN040
                      TEMPO 1503/1504 1500 SN OVC010
                      BECMG 1505/1507 9999 NSW SCT025=
201901150500 TAF LRBC 150500Z 1506/1515 34010KT 9999 BKN040
                      TEMPO 1506/1508 5000 -SN=
201901150800 TAF LRBC 150800Z 1509/1518 VRB04KT 9999 BKN050=
201901151100 TAF LRBC 151100Z 1512/1521 VRB04KT CAVOK=
201901151400 TAF LRBC 151400Z 1515/1524 20006KT CAVOK=
201901151633 TAF AMD LRBC 151633Z 1516/1524 26017KT CAVOK
                      BECMG 1521/1523 20006KT=
201901151700 TAF LRBC 151700Z 1518/1603 26016KT CAVOK
                      BECMG 1521/1523 20006KT=
201901152000 TAF LRBC 152000Z 1521/1606 VRB04KT CAVOK
                      PROB30 TEMPO 1603/1606 5000 -SN=
201901152300 TAF LRBC 152300Z 1600/1609 19010KT CAVOK
                      PROB30 TEMPO 1603/1606 5000 -SN=
201901160200 TAF LRBC 160200Z 1603/1612 25012KT CAVOK
                      PROB30 TEMPO 1607/1610 5000 -SN
                      TEMPO 1610/1612 33010KT 5000 -SHSNRA SCT015
                       SCT030CB=
201901160500 TAF LRBC 160500Z 1606/1615 18010KT 9999 BKN050
                      PROB30 TEMPO 1606/1609 5000 -SN
                      BECMG 1608/1610 34012KT
                      TEMPO 1609/1614 5000 -SHSNRA SCT015 SCT030CB=
201901160800 TAF LRBC 160800Z 1609/1618 28018KT 9999 BKN050
                      TEMPO 1609/1614 5000 -SHRA SCT015 SCT030CB=
201901161100 TAF LRBC 161100Z 1612/1621 28025KT 9999 BKN050
                      TEMPO 1612/1616 28020G30KT 5000 -SHRA SCT015
                       SCT030CB
                      BECMG 1616/1618 VRB04KT=
201901161400 TAF LRBC 161400Z 1615/1624 34010KT 9999 BKN050
                      BECMG 1616/1618 VRB04KT=
201901161700 TAF LRBC 161700Z 1618/1703 VRB04KT 9999 BKN060
                      BECMG 1621/1623 5000 BR
                      TEMPO 1700/1703 0600 FZFG OVC002=
201901162000 TAF LRBC 162000Z 1621/1706 VRB04KT 9999 BKN050
                      BECMG 1622/1624 5000 BR
                      PROB30 TEMPO 1700/1706 0800 FZFG OVC002=
201901162300 TAF LRBC 162300Z 1700/1709 VRB04KT 9999 BKN050
                      TEMPO 1701/1706 3000 BR=
201901170200 TAF LRBC 170200Z 1703/1712 17012KT 9999 BKN050=
201901170500 TAF LRBC 170500Z 1706/1715 17014KT CAVOK=
201901170800 TAF LRBC 170800Z 1709/1718 16016KT CAVOK
                      BECMG 1715/1717 17006KT=
201901171100 TAF LRBC 171100Z 1712/1721 17016KT CAVOK
                      BECMG 1717/1719 17006KT
                      TEMPO 1719/1721 3000 BR=
201901171400 TAF LRBC 171400Z 1715/1724 16009KT CAVOK
                      TEMPO 1719/1724 3000 BR=
201901171700 TAF LRBC 171700Z 1718/1803 17010KT CAVOK
                      BECMG 1718/1720 VRB04KT 5000 BR
                      TEMPO 1722/1803 1500 BR=
201901172000 TAF LRBC 172000Z 1721/1806 17008KT 3000 BR NSC
                      BECMG 1721/1723 VRB04KT 1500 BR BKN005
                      TEMPO 1723/1805 0600 FZFG OVC002=
201901172300 TAF LRBC 172300Z 1800/1809 17008KT 5000 BR NSC
                      TEMPO 1801/1805 1500 BR BKN005
                      BECMG 1806/1808 CAVOK=
201901180200 TAF LRBC 180200Z 1803/1812 17008KT 5000 BR NSC
                      TEMPO 1803/1805 3000 BR
                      BECMG 1806/1808 CAVOK=
201901180500 TAF LRBC 180500Z 1806/1815 11008KT 5000 BR NSC
                      BECMG 1806/1808 CAVOK=
201901180800 TAF LRBC 180800Z 1809/1818 17008KT CAVOK
                      BECMG 1815/1816 3000 BR
                      PROB40 TEMPO 1816/1818 0800 FZFG OVC001=
201901181100 TAF LRBC 181100Z 1812/1821 17008KT CAVOK
                      BECMG 1815/1816 3000 BR
                      PROB40 TEMPO 1816/1819 0800 FZFG OVC001
                      BECMG 1819/1821 35010KT -SN BR BKN010 OVC030=
201901181400 TAF LRBC 181400Z 1815/1824 17008KT 8000 NSC
                      BECMG 1815/1817 3000 BR
                      PROB40 TEMPO 1817/1821 0800 FZFG OVC001
                      BECMG 1821/1823 35010KT -SN BR BKN010 OVC030=
201901181700 TAF LRBC 181700Z 1818/1903 17008KT 5000 BR NSC
                      TEMPO 1818/1821 1500 BR
                      BECMG 1821/1823 35010KT 3000 -SN BR BKN010
                       OVC030=
201901182000 TAF LRBC 182000Z 1821/1906 35010KT 5000 BR NSC
                      BECMG 1822/1824 3000 -SN BR BKN010 OVC030
                       BECMG 1904/1906 7000 NSW BKN020 BKN035=
201901182300 TAF LRBC 182300Z 1900/1909 35014KT 9999 BKN015 BKN040
                      TEMPO 1900/1903 5000 -SN BR BKN010 OVC030
                       BECMG 1906/1908 BKN020 BKN045=
201901190200 TAF LRBC 190200Z 1903/1912 35012KT 9999 SCT025 BKN045
                      TEMPO 1903/1905 5000 -SN BR BKN015 BKN035=
201901190500 TAF LRBC 190500Z 1906/1915 35010KT 9999 BKN045
                      BECMG 1913/1915 VRB04KT=
201901190800 TAF LRBC 190800Z 1909/1918 35010KT 9999 BKN045
                      BECMG 1913/1915 VRB04KT=
201901191100 TAF LRBC 191100Z 1912/1921 VRB04KT 9999 SCT025=
201901191400 TAF LRBC 191400Z 1915/1924 VRB04KT 9999 BKN045=
201901191700 TAF LRBC 191700Z 1918/2003 VRB04KT 9999 OVC040
                      PROB40 TEMPO 1918/1921 5000 -SN
                      BECMG 1920/1922 16010KT=
201901192000 TAF LRBC 192000Z 1921/2006 16008KT 9999 OVC045
                      PROB40 TEMPO 2000/2003 5000 -SN
                      TEMPO 2003/2006 5000 -SN BR BKN010 OVC035=
201901192300 TAF LRBC 192300Z 2000/2009 16008KT 9999 OVC045
                      PROB40 TEMPO 2000/2003 5000 -SN
                      TEMPO 2003/2006 5000 -SN BR BKN010 OVC035
                       BECMG 2006/2008 BKN010 OVC035=
201901200200 TAF LRBC 200200Z 2003/2012 16010KT 9999 BKN070
                      TEMPO 2003/2006 5000 -SN BR BKN015 OVC050
                       BECMG 2006/2008 BKN010 OVC035=
201901200500 TAF LRBC 200500Z 2006/2015 16010KT 9999 BKN010 OVC025
                      PROB40 TEMPO 2008/2015 5000 -SN BKN005 OVC020=
201901200723 TAF AMD LRBC 200723Z 2007/2015 17010KT 3000 BR BKN005
                      TEMPO 2007/2010 1000 BR OVC002
                      TEMPO 2010/2014 5000 -SN BKN010 OVC020=
201901200800 TAF LRBC 200800Z 2009/2018 17012KT 1500 BR OVC001
                      TEMPO 2009/2011 0600 FZFG
                      BECMG 2015/2017 VRB04KT -SN BKN002 OVC010=
201901201100 TAF LRBC 201100Z 2012/2021 17012KT 3000 BR BKN001
                      BECMG 2014/2016 VRB04KT 1500 -SN BKN002 OVC010=
201901201322 TAF AMD LRBC 201322Z 2013/2021 17012KT 0350 FG VV001
                      TEMPO 2013/2015 0600
                      BECMG 2015/2017 VRB04KT 0800 -SN FZFG BKN002
                       OVC010=
201901201400 TAF LRBC 201400Z 2015/2024 17012KT 0150 FG VV001
                      TEMPO 2015/2017 0600 BKN002
                      BECMG 2017/2019 VRB04KT 0800 SN FZFG BKN002
                       OVC010
                      BECMG 2021/2023 32012KT 1500 -SN BR BKN005
                       OVC015=
201901201700 TAF LRBC 201700Z 2018/2103 VRB04KT 1500 -RA BR BKN010
                      PROB30 TEMPO 2018/2020 0800 FG BKN002
                      BECMG 2020/2022 34012KT 1500 -SN BR BKN005
                       OVC020
                      BECMG 2100/2102 3000 BR=
201901201913 TAF AMD LRBC 201913Z 2019/2103 35012KT 5000 -RA BR BKN010 BKN030
                       BECMG 2020/2022 3000 -SN BKN005 OVC025
                      PROB30 TEMPO 2020/2024 1500 SN
                      BECMG 2102/2103 5000 BR BKN010 OVC030=
201901202000 TAF LRBC 202000Z 2021/2106 35012KT 5000 -RASN BR BKN005 BKN015
                       OVC025
                      BECMG 2021/2022 3000 -SN
                      PROB30 TEMPO 2022/2101 1500 SN BKN002 BKN020
                       BECMG 2102/2104 5000 BR BKN010 OVC030
                      BECMG 2104/2106 9999 NSW BKN020=
201901202300 TAF LRBC 202300Z 2100/2109 34012KT 3000 -SN BR BKN015 OVC025
                      PROB30 TEMPO 2100/2103 1500 SN BKN005 BKN020
                       BECMG 2103/2105 5000 BR
                      BECMG 2105/2106 9999 NSW BKN020=
201901210200 TAF LRBC 210200Z 2103/2112 34014KT 9999 BKN040
                      TEMPO 2103/2106 5000 -SN BR BKN015 OVC030=
201901210500 TAF LRBC 210500Z 2106/2115 34014KT 5000 -SN BR BKN015 OVC040
                      BECMG 2106/2108 7000 NSW SCT015 BKN030=
201901210800 TAF LRBC 210800Z 2109/2118 35012KT 7000 -SN SCT015 BKN050=
201901211100 TAF LRBC 211100Z 2112/2121 35010KT 9999 SCT015 BKN050
                      BECMG 2116/2118 VRB04KT=
201901211400 TAF LRBC 211400Z 2115/2124 35010KT 9999 BKN050
                      BECMG 2118/2120 5000 BR OVC010=
201901211700 TAF LRBC 211700Z 2118/2203 34006KT 9999 BKN025
                      TEMPO 2122/2203 5000 BR OVC010=
201901212000 TAF LRBC 212000Z 2121/2206 VRB04KT 9999 BKN025
                      TEMPO 2123/2205 5000 BR OVC010=
201901212300 TAF LRBC 212300Z 2200/2209 VRB04KT 9999 BKN025
                      TEMPO 2200/2205 5000 BR OVC010
                      BECMG 2206/2208 16010KT=
201901220200 TAF LRBC 220200Z 2203/2212 VRB04KT 9999 BKN025
                      TEMPO 2203/2205 5000 BR OVC010
                      BECMG 2206/2208 16010KT=
201901220500 TAF LRBC 220500Z 2206/2215 VRB04KT 9999 OVC020
                      BECMG 2206/2208 16012KT
                      BECMG 2208/2210 5000 -SN BKN010 OVC020=
201901220800 TAF LRBC 220800Z 2209/2218 16015KT 5000 -SN BR BKN015 OVC040
                      TEMPO 2209/2213 1500 -SN BR BKN010 OVC020
                       BECMG 2214/2216 1500 SN BKN005 OVC015=
201901221100 TAF LRBC 221100Z 2212/2221 15016KT 7000 BKN010 OVC040
                      BECMG 2214/2216 3000 -SN BR BKN005 OVC030=
201901221400 TAF LRBC 221400Z 2215/2224 16015KT 3000 -SN BR BKN015 OVC030
                      TEMPO 2215/2220 1500 SN BR BKN005 OVC020=
201901221700 TAF LRBC 221700Z 2218/2303 15010KT 3000 -SN BR BKN010 OVC020
                      TEMPO 2218/2303 1500 -SN BR BKN005 OVC015
                       PROB30
                      TEMPO 2223/2303 0600 -SG FZFG OVC002=
201901222000 TAF LRBC 222000Z 2221/2306 18008KT 3000 -SN BR OVC002
                      TEMPO 2221/2306 1500 -SN BR OVC001
                      PROB30 TEMPO 2300/2306 0600 -SG=
201901222300 TAF LRBC 222300Z 2300/2309 16010KT 3000 -SN BR OVC002
                      TEMPO 2300/2306 0600 -SG FZFG OVC001
                      BECMG 2307/2309 VRB04KT 5000 BR BKN010=
201901230200 TAF LRBC 230200Z 2303/2312 19008KT 3000 BR OVC002
                      TEMPO 2303/2306 1500 -SN BR OVC001
                      BECMG 2307/2309 5000 BR BKN010=
201901230500 TAF LRBC 230500Z 2306/2315 VRB04KT 3000 -SN BR BKN005 OVC025
                      TEMPO 2306/2309 1500 -SN BR BKN002 OVC015
                       BECMG 2309/2311 35010KT 7000 NSW BKN010
                       BKN030=
201901230800 TAF LRBC 230800Z 2309/2318 35010KT 3000 BR BKN005 OVC025
                      BECMG 2309/2311 7000 NSW BKN015=
201901231100 TAF LRBC 231100Z 2312/2321 35008KT 5000 BR OVC005
                      TEMPO 2312/2314 OVC010
                      BECMG 2314/2316 1500 BR
                      TEMPO 2316/2321 0600 FZFG OVC002=
201901231400 TAF LRBC 231400Z 2315/2324 35008KT 7000 OVC015
                      BECMG 2315/2317 1500 BR OVC010
                      TEMPO 2317/2321 0600 FZFG OVC002=
201901231609 TAF AMD LRBC 231609Z 2316/2324 35008KT 7000 NSC
                      BECMG 2316/2318 3000 BR
                      TEMPO 2318/2321 0600 FZFG OVC002=
201901231700 TAF LRBC 231700Z 2318/2403 35008KT 5000 BR NSC
                      TEMPO 2318/2322 1500 BR
                      BECMG 2322/2324 1500 -SN BR BKN005 OVC020=
201901232000 TAF LRBC 232000Z 2321/2406 34008KT 5000 BR NSC
                      TEMPO 2321/2323 BKN010 OVC040
                      BECMG 2323/2401 3000 -SN BR
                      TEMPO 2402/2406 1500 SN BR BKN005 OVC020=
201901232300 TAF LRBC 232300Z 2400/2409 VRB04KT 5000 BR BKN015
                      BECMG 2400/2402 34012KT 3000 SN BR BKN010
                       OVC030
                      BECMG 2404/2406 1500 SN BR BKN005 OVC020=
201901240200 TAF LRBC 240200Z 2403/2412 34010KT 5000 -SN BR BKN015 BKN050
                      TEMPO 2404/2408 1500 SN BKN005 OVC025=
201901240500 TAF LRBC 240500Z 2406/2415 35012KT 3000 -SN BR SCT015 OVC030
                      TEMPO 2406/2412 1500 SN BKN005 OVC025=
201901240800 TAF LRBC 240800Z 2409/2418 34014KT 3000 -SN BR SCT015 OVC030
                      TEMPO 2409/2414 1500 SN BR BKN010 OVC020=
201901241100 TAF LRBC 241100Z 2412/2421 34014KT 1500 -SN DRSN SCT015 OVC030
                       TEMPO 2412/2418 0800 SN DRSN BKN005 OVC020=
201901241400 TAF LRBC 241400Z 2415/2424 35010KT 3000 -SN BR BKN010 OVC030
                      TEMPO 2415/2418 1500 SN BKN005 OVC020=
201901241700 TAF LRBC 241700Z 2418/2503 34012KT 3000 -SN SCT010 OVC030
                      TEMPO 2418/2424 1500 SN BKN005 OVC020=
201901242000 TAF LRBC 242000Z 2421/2506 34012KT 5000 -SN SCT010 OVC030
                      TEMPO 2421/2503 1500 SN BKN005 OVC020=
201901242300 TAF LRBC 242300Z 2500/2509 34012KT 5000 -SN SCT010 OVC030
                      TEMPO 2500/2503 1500 SN BKN005 OVC020
                      TEMPO 2506/2509 3000 SN=
201901250200 TAF LRBC 250200Z 2503/2512 34010KT 5000 -SN SCT010 OVC030
                      TEMPO 2503/2509 1500 SN BKN005 OVC030=
201901250500 TAF LRBC 250500Z 2506/2515 34010KT 5000 -SN OVC025
                      TEMPO 2506/2509 3000 SN BKN005 OVC020=
201901250800 TAF LRBC 250800Z 2509/2518 34008KT 7000 SCT015 OVC025
                      TEMPO 2509/2511 3000 -SN BR BKN010 OVC020=
201901251100 TAF LRBC 251100Z 2512/2521 04006KT 5000 BR BKN005 BKN015
                      TEMPO 2512/2515 7000 NSW BKN015 OVC020=
201901251400 TAF LRBC 251400Z 2515/2524 04006KT 5000 BR SCT005 BKN020
                      BECMG 2516/2518 1500 BR BKN002 BKN015=
201901251700 TAF LRBC 251700Z 2518/2603 VRB04KT 1500 BR BKN005 OVC010
                      BECMG 2519/2521 0600 FZFG OVC002
                      TEMPO 2523/2603 0800 -SN FZFG=
201901252000 TAF LRBC 252000Z 2521/2606 VRB04KT 0800 FZFG BKN002 OVC010
                      TEMPO 2521/2524 0300 FZFG VV001
                      PROB30 TEMPO 2600/2605 1500 -SN BR=
201901252209 TAF AMD LRBC 252209Z 2522/2606 VRB04KT 3000 BR BKN003 OVC010
                      TEMPO 2522/2524 0800 FZFG VV001
                      PROB30 TEMPO 2600/2605 1500 -SN BR=
201901252300 TAF LRBC 252300Z 2600/2609 VRB04KT 1500 BR BKN003 OVC005
                      TEMPO 2600/2605 0800 -SN FZFG BKN002 OVC010=
201901260200 TAF LRBC 260200Z 2603/2612 35010KT 3000 BR BKN005
                      PROB40 TEMPO 2603/2605 0800 -SN FZFG OVC001
                       BECMG 2605/2607 1500 SN BR BKN002 OVC010=
201901260500 TAF LRBC 260500Z 2606/2615 35010KT 3000 -SN BR BKN015 OVC030
                      TEMPO 2606/2609 1500 SN BR BKN005 OVC010
                       BECMG 2611/2613 5000 BR=
201901260800 TAF LRBC 260800Z 2609/2618 35010KT 3000 -SN BR BKN015 OVC030
                      BECMG 2611/2613 5000 BR SCT015 OVC035=
201901261100 TAF LRBC 261100Z 2612/2621 35010KT 8000 BKN055
                      BECMG 2614/2616 5000 BR BKN015
                      TEMPO 2618/2621 1500 BR OVC002=
201901261400 TAF LRBC 261400Z 2615/2624 VRB04KT 8000 BKN065
                      BECMG 2615/2617 5000 BR
                      PROB40 TEMPO 2620/2624 3000 -SN BR BKN015
                       OVC035=
201901261700 TAF LRBC 261700Z 2618/2703 VRB04KT 5000 BR SCT065
                      PROB40 TEMPO 2620/2702 3000 -SN BR BKN015
                       OVC035=
201901262000 TAF LRBC 262000Z 2621/2706 34006KT 5000 BR SCT045
                      TEMPO 2621/2624 3000 -SN BR BKN015 OVC035
                       TEMPO 2700/2706 1500 BR=
201901262300 TAF LRBC 262300Z 2700/2709 34006KT 3000 BR BKN015 BKN045
                      TEMPO 2700/2702 1500 SN BKN005 OVC015=
201901270200 TAF LRBC 270200Z 2703/2712 34005KT 3000 BR SCT015 BKN040
                      PROB30 TEMPO 2703/2707 1500 BR BKN005 BKN040
                       BECMG 2708/2710 5000=
201901270500 TAF LRBC 270500Z 2706/2715 VRB04KT 5000 BR BKN045
                      TEMPO 2706/2709 1500 BR BKN005 BKN045
                      BECMG 2709/2711 9999 NSW=
201901270618 TAF AMD LRBC 270618Z 2706/2715 VRB04KT 0150 FZFG VV001
                      BECMG 2708/2710 0800 OVC003
                      BECMG 2710/2712 3000 BR BKN010
                      TEMPO 2712/2715 7000 NSW NSC=
201901270800 TAF LRBC 270800Z 2709/2718 VRB04KT 0100 FZFG VV001
                      BECMG 2710/2712 0600 BKN003
                      BECMG 2712/2714 3000 BR BKN010=
201901271040 TAF AMD LRBC 271040Z 2710/2718 VRB04KT 2000 BR NSC
                      BECMG 2711/2713 5000
                      TEMPO 2713/2716 9999 NSW=
201901271100 TAF LRBC 271100Z 2712/2721 VRB04KT 3000 BR NSC
                      TEMPO 2712/2715 5000
                      BECMG 2718/2720 1500 BR BKN005=
201901271400 TAF LRBC 271400Z 2715/2724 16012KT 5000 BR NSC
                      BECMG 2717/2719 1500 BR BKN005=
201901271700 TAF LRBC 271700Z 2718/2803 16010KT 3000 BR NSC
                      BECMG 2720/2722 1500 BR BKN005
                      TEMPO 2722/2803 0600 FZFG BKN002=
201901272000 TAF LRBC 272000Z 2721/2806 17010KT 1500 BR BKN001
                      BECMG 2721/2723 0350 FZFG
                      TEMPO 2723/2805 0150 FZFG=
201901272300 TAF LRBC 272300Z 2800/2809 17010KT 0350 FZFG VV001
                      BECMG 2805/2807 0800 BKN002
                      BECMG 2807/2809 3000 BR SCT005 BKN020=
201901280200 TAF LRBC 280200Z 2803/2812 18008KT 1500 BR BKN005
                      TEMPO 2803/2806 0350 FZFG VV001
                      BECMG 2806/2808 5000 SCT010=
201901280500 TAF LRBC 280500Z 2806/2815 18010KT 1500 BR BKN002
                      TEMPO 2806/2808 0600 FZFG VV001
                      BECMG 2808/2810 5000 SCT010=
201901280800 TAF LRBC 280800Z 2809/2818 18010KT 0350 FZFG VV002
                      TEMPO 2810/2814 0800 FZFG BKN005=
201901281100 TAF LRBC 281100Z 2812/2821 18010KT 0350 FZFG VV002
                      TEMPO 2812/2815 0800 FZFG BKN005=
201901281400 TAF LRBC 281400Z 2815/2824 18016KT 0150 FZFG VV001=
201901281700 TAF LRBC 281700Z 2818/2903 17012KT 0150 FZFG VV001
                      TEMPO 2818/2820 0600 FG OVC002=
201901282000 TAF LRBC 282000Z 2821/2906 17010KT 0150 FZFG VV001
                      PROB30 TEMPO 2821/2824 0600 FG OVC002=
201901282300 TAF LRBC 282300Z 2900/2909 18006KT 0800 FZFG VV001
                      TEMPO 2900/2903 0600 OVC002
                      BECMG 2905/2907 3000 BR BKN005=
201901290200 TAF LRBC 290200Z 2903/2912 18006KT 0150 FG VV001
                      TEMPO 2903/2906 0600 FZFG
                      BECMG 2906/2908 1500 BR BKN002
                      BECMG 2908/2910 5000 BKN005=
201901290500 TAF LRBC 290500Z 2906/2915 18008KT 0350 FZFG VV001
                      BECMG 2908/2910 0800 FG OVC002
                      BECMG 2910/2912 3000 BR BKN005=
201901290800 TAF LRBC 290800Z 2909/2918 VRB04KT 0200 FG VV001
                      BECMG 2910/2912 0800 OVC002=
201901291100 TAF LRBC 291100Z 2912/2921 VRB04KT 3000 BR NSC
                      BECMG 2912/2914 5000
                      BECMG 2915/2917 1500 BR BKN005
                      BECMG 2918/2920 0800 -FZDZ FZFG OVC002=
201901291400 TAF LRBC 291400Z 2915/2924 VRB04KT 3000 BR NSC
                      BECMG 2916/2918 1500 BR BKN010
                      BECMG 2919/2921 0800 FZFG OVC005
                      TEMPO 2921/2924 0600 -FZDZ FZFG OVC002=
201901291700 TAF LRBC 291700Z 2918/3003 VRB04KT 3000 BR BKN040
                      BECMG 2918/2920 1500 BR BKN030
                      PROB40 TEMPO 2920/2922 0600 FZFG BKN002
                      BECMG 2922/2924 3000 RA RASN BKN005 OVC020
                       PROB30
                      TEMPO 3000/3003=
201901292000 TAF LRBC 292000Z 2921/3006 VRB04KT 3000 BR BKN040
                      BECMG 2922/2924 3000 RA RASN BKN005 OVC020
                       PROB30
                      TEMPO 3000/3003 FZRA=
201901292045 TAF AMD LRBC 292045Z 2921/3006 VRB04KT 1500 BR BKN010
                      TEMPO 2921/2923 0600 FG BKN002
                      BECMG 2923/3001 RA RASN BKN005 OVC020
                      PROB30 TEMPO 3000/3003 FZRA=
201901292300 TAF LRBC 292300Z 3000/3009 VRB04KT 3000 BR BKN035
                      TEMPO 3002/3007 1500 -RA BR BKN010 OVC025=
201901300200 TAF LRBC 300200Z 3003/3012 VRB04KT 3000 -RA BR BKN005 OVC020
                      PROB40 TEMPO 3003/3006 0800 -FZRA FZFG BKN002
                       OVC010
                      BECMG 3009/3011 5000 BKN010 BKN030=
201901300500 TAF LRBC 300500Z 3006/3015 VRB04KT 3000 BR BKN010 OVC020
                      PROB40 TEMPO 3006/3009 0800 FG OVC002
                      BECMG 3009/3011 16010KT 5000 BKN010 BKN030
                       TEMPO 3012/3015 BKN015 BKN030=
201901300800 TAF LRBC 300800Z 3009/3018 VRB04KT 0350 FG BKN001
                      BECMG 3009/3011 16010KT
                      PROB40 TEMPO 3010/3015 1000 BR BKN005=
201901301100 TAF LRBC 301100Z 3012/3021 VRB04KT 0600 FG OVC002
                      TEMPO 3012/3015 1500 BR BKN005
                      BECMG 3015/3017 16010KT 0350 FG OVC001=
201901301400 TAF LRBC 301400Z 3015/3024 17008KT 0300 FG OVC001
                      PROB30 TEMPO 3016/3019 1000 BR BKN003=
201901301700 TAF LRBC 301700Z 3018/3103 17008KT 0150 FG OVC001
                      PROB30 TEMPO 3020/3024 0800 BKN002=
201901302000 TAF LRBC 302000Z 3021/3106 VRB04KT 0150 FG OVC001
                      PROB30 TEMPO 3023/3103 0800 BKN002=
201901302300 TAF LRBC 302300Z 3100/3109 VRB04KT 0150 FG OVC001
                      PROB40 TEMPO 3100/3106 0600 BKN002
                      BECMG 3106/3108 0800 -DZRA FG BKN005 OVC020=
201901310200 TAF LRBC 310200Z 3103/3112 VRB04KT 0300 FG VV001
                      PROB40 TEMPO 3103/3106 0600 BKN002
                      BECMG 3106/3108 0800 -DZRA FG BKN005 OVC020
                       BECMG 3108/3110 16010KT 1500 BR BKN010 OVC030=
201901310500 TAF LRBC 310500Z 3106/3115 VRB04KT 0150 FG VV001
                      BECMG 3106/3108 0800 -DZRA FG BKN002 OVC020
                       BECMG 3109/3111 1500 BR BKN005 OVC030=
201901310800 TAF LRBC 310800Z 3109/3118 VRB04KT 0150 FG VV001
                      BECMG 3110/3111 0600 -DZRA FG BKN002 OVC020
                       PROB30
                      TEMPO 3111/3114 1500 -RA BR BKN005 OVC030
                       BECMG 3115/3117 0100 FG VV001=
201901311100 TAF LRBC 311100Z 3112/3121 VRB04KT 0800 FG BKN002
                      TEMPO 3112/3114 1500 -RA BR BKN005 OVC030
                       BECMG 3115/3117 0300 FG VV001=
201901311219 TAF AMD LRBC 311219Z 3112/3121 VRB04KT 0150 FG BKN001 BKN005
                      PROB40 TEMPO 3112/3115 0800 -RADZ BR BKN005
                       OVC030=
201901311400 TAF LRBC 311400Z 3115/3124 VRB04KT 0150 FG VV001=
201901311700 TAF LRBC 311700Z 3118/0103 VRB04KT 0200 FG OVC001
                      PROB30 TEMPO 3118/3122 0600 -RADZ FG OVC002
                       BECMG 3123/0101 FZFG=
201901312000 TAF LRBC 312000Z 3121/0106 VRB04KT 0200 FG OVC001
                      PROB30 TEMPO 3121/3123 0600 -DZ FG OVC002
                       BECMG 0100/0102 FZFG=
201901312300 TAF LRBC 312300Z 0100/0109 VRB04KT 0350 FG OVC001
                      BECMG 0101/0103 0150 FZFG
                      BECMG 0107/0109 0800 FG BKN003=