201902010200 TAF LRBC 010200Z 0103/0112 VRB04KT 0800 FG SCT002 OVC005
                      TEMPO 0103/0107 0150 FZFG OVC001
                      BECMG 0107/0109 1500 BR
                      BECMG 0110/0112 3000 SCT005 BKN015=
201902010415 TAF AMD LRBC 010415Z 0104/0112 VRB04KT 3000 BR SCT002 OVC010
                      PROB40 TEMPO 0104/0107 0800 BCFG BKN002 BKN005
                       BECMG 0108/0110 5000
                      TEMPO 0110/0112 8000 NSW SCT010 BKN055=
201902010500 TAF LRBC 010500Z 0106/0115 VRB04KT 9999 BKN035
                      TEMPO 0106/0109 3000 BR BKN010 BKN040=
201902010800 TAF LRBC 010800Z 0109/0118 VRB04KT 1500 BR BKN001 OVC005
                      BECMG 0110/0112 3000 BR BKN015 BKN040=
201902010929 TAF AMD LRBC 010929Z 0109/0118 VRB04KT 0350 FG VV001
                      BECMG 0109/0111 0800 FG BKN002 OVC005
                      BECMG 0111/0113 1500 BR BKN005 OVC010
                      TEMPO 0113/0115 3000 BKN010=
201902011100 TAF LRBC 011100Z 0112/0121 VRB04KT 5000 BR NSC
                      BECMG 0115/0117 1500 BR BKN002 OVC005
                      BECMG 0117/0119 0600 FG VV002=
201902011400 TAF LRBC 011400Z 0115/0124 VRB04KT 5000 BR NSC
                      BECMG 0115/0117 1500 BR BKN002 OVC005
                      BECMG 0117/0119 0600 FG VV002=
201902011700 TAF LRBC 011700Z 0118/0203 16010KT 0350 FG VV001
                      TEMPO 0118/0122 0800 BKN002=
201902012000 TAF LRBC 012000Z 0121/0206 16014KT 0350 FG VV001
                      TEMPO 0122/0203 0150 FZFG BKN002
                      BECMG 0204/0206 0600 BKN002=
201902012300 TAF LRBC 012300Z 0200/0209 16014KT 0350 FG VV001
                      TEMPO 0200/0203 0150 FZFG BKN002
                      BECMG 0204/0206 0800 BKN002
                      BECMG 0206/0208 3000 BR BKN005=
201902020200 TAF LRBC 020200Z 0203/0212 17010KT 0350 FG VV001
                      TEMPO 0203/0205 0150 FZFG
                      BECMG 0205/0207 0800 BKN002
                      BECMG 0207/0209 3000 BR BKN005
                      BECMG 0209/0210 CAVOK=
201902020500 TAF LRBC 020500Z 0206/0215 17012KT 0350 FG VV001
                      BECMG 0206/0207 0800 BKN002
                      BECMG 0207/0209 3000 BR BKN015
                      BECMG 0209/0211 CAVOK=
201902020800 TAF LRBC 020800Z 0209/0218 17012KT 0300 FG VV001
                      BECMG 0209/0210 0800 BKN002
                      BECMG 0210/0211 3000 BR BKN010
                      BECMG 0211/0213 9999 NSW SCT020=
201902021100 TAF LRBC 021100Z 0212/0221 17012KT 0600 FG VV002
                      TEMPO 0212/0215 1500 BR BKN005
                      BECMG 0215/0217 0200 FG VV001=
201902021102 TAF AMD LRBC 021102Z 0211/0218 17014KT 0350 FG VV001
                      BECMG 0211/0212 0800 BKN002
                      BECMG 0212/0213 3000 BR BKN010=
201902021400 TAF LRBC 021400Z 0215/0224 17012KT 0300 FG VV001
                      TEMPO 0215/0217 0800 BKN002
                      BECMG 0217/0219 0150 FG=
201902021700 TAF LRBC 021700Z 0218/0303 17010KT 0600 FG VV001
                      TEMPO 0218/0220 1500 BR BKN002
                      BECMG 0220/0222 0150 FZFG=
201902022000 TAF LRBC 022000Z 0221/0306 17008KT 1500 BR OVC005
                      BECMG 0221/0223 0600 FZFG VV001=
201902022300 TAF LRBC 022300Z 0300/0309 17008KT 0300 FG VV001
                      BECMG 0305/0307 0800 BKN002
                      BECMG 0307/0309 3000 BR BKN010=
201902030200 TAF LRBC 030200Z 0303/0312 17006KT 0350 FG VV001
                      BECMG 0306/0308 0600 FG OVC002
                      BECMG 0308/0310 1500 BR BKN005
                      TEMPO 0310/0312 3000 BR BKN010=
201902030500 TAF LRBC 030500Z 0306/0315 17006KT 0350 FG VV001
                      BECMG 0307/0309 0600 OVC002
                      BECMG 0309/0311 1500 BR BKN005
                      TEMPO 0311/0314 3000 SCT010=
201902030800 TAF LRBC 030800Z 0309/0318 17006KT 0350 FG VV001
                      TEMPO 0311/0314 0600 OVC002=
201902031100 TAF LRBC 031100Z 0312/0321 17006KT 0350 FG VV001
                      PROB30 TEMPO 0315/0319 0600 VV002=
201902031400 TAF LRBC 031400Z 0315/0324 17006KT 1500 BR SCT005
                      BECMG 0315/0317 0800 FG BKN002
                      BECMG 0317/0319 0350 FG VV001=
201902031558 TAF AMD LRBC 031558Z 0315/0324 17006KT 0200 FG VV001
                      PROB30 TEMPO 0315/0318 0600=
201902031700 TAF LRBC 031700Z 0318/0403 18006KT 1500 BR BKN005
                      BECMG 0319/0321 0600 FG BKN002
                      TEMPO 0321/0403 0150 FG VV001=
201902032000 TAF LRBC 032000Z 0321/0406 18008KT 0150 FG VV001
                      TEMPO 0321/0323 0600 BKN002=
201902032300 TAF LRBC 032300Z 0400/0409 18008KT 0150 FG VV001
                      BECMG 0406/0408 0600 BKN002=
201902040200 TAF LRBC 040200Z 0403/0412 18008KT 0150 FG VV001
                      BECMG 0406/0408 0600 BKN002
                      BECMG 0408/0410 3000 BR BKN010
                      BECMG 0410/0412 9999 NSW SCT020=
201902040500 TAF LRBC 040500Z 0406/0415 11008KT 0150 FG VV001
                      BECMG 0408/0410 0600 BKN002
                      BECMG 0410/0412 3000 BR BKN015=
201902040800 TAF LRBC 040800Z 0409/0418 VRB04KT 0150 FG VV001
                      BECMG 0410/0412 0600 BKN002
                      BECMG 0413/0415 35012KT 1500 BR BKN005
                      TEMPO 0415/0418 3000 BKN010=
201902041006 TAF AMD LRBC 041006Z 0410/0418 VRB04KT 5000 BR NSC
                      BECMG 0410/0412 9999 NSW
                      BECMG 0413/0415 35012KT=
201902041100 TAF LRBC 041100Z 0412/0421 VRB04KT 5000 BR NSC
                      BECMG 0413/0415 35012KT 9999 NSW=
201902041400 TAF LRBC 041400Z 0415/0424 35014KT CAVOK=
201902041700 TAF LRBC 041700Z 0418/0503 35010KT CAVOK
                      BECMG 0422/0424 5000 BR BKN010
                      PROB40 TEMPO 0500/0503 1500 BR BKN005 OVC010=
201902042000 TAF LRBC 042000Z 0421/0506 34009KT 9999 BKN020
                      BECMG 0422/0424 BKN015
                      TEMPO 0501/0506 5000 BR BKN010 OVC015=
201902042300 TAF LRBC 042300Z 0500/0509 34009KT 9999 BKN025
                      TEMPO 0501/0506 5000 BR BKN010 OVC015=
201902050200 TAF LRBC 050200Z 0503/0512 34010KT 9999 BKN015
                      PROB30 TEMPO 0503/0506 5000 BR BKN010
                      BECMG 0507/0509 BKN025=
201902050500 TAF LRBC 050500Z 0506/0515 35012KT 9999 BKN015=
201902050800 TAF LRBC 050800Z 0509/0518 35012KT 9999 BKN015=
201902051100 TAF LRBC 051100Z 0512/0521 35012KT 9999 BKN010=
201902051400 TAF LRBC 051400Z 0515/0524 35008KT 9999 BKN020=
201902051700 TAF LRBC 051700Z 0518/0603 VRB04KT 5000 BR NSC
                      BECMG 0520/0522 BKN010
                      BECMG 0523/0601 1500 BR BKN005=
201902052000 TAF LRBC 052000Z 0521/0606 VRB04KT 5000 BR NSC
                      BECMG 0521/0523 BKN010
                      PROB30 TEMPO 0523/0605 1500 BR BKN005=
201902052300 TAF LRBC 052300Z 0600/0609 VRB04KT 3000 BR NSC
                      PROB30 TEMPO 0600/0605 1500 BR BKN005
                      BECMG 0605/0607 35012KT 5000=
201902060200 TAF LRBC 060200Z 0603/0612 34008KT 3000 BR BKN005
                      PROB40 TEMPO 0603/0606 0800 FZFG BKN002
                      BECMG 0607/0609 5000 BKN015=
201902060500 TAF LRBC 060500Z 0606/0615 35014KT 3000 BR OVC005
                      BECMG 0607/0609 7000 NSW BKN015
                      TEMPO 0611/0615 SCT020=
201902060800 TAF LRBC 060800Z 0609/0618 34014KT 3000 BR BKN010
                      BECMG 0609/0611 5000 BKN015
                      TEMPO 0611/0616 7000 NSW SCT020=
201902061100 TAF LRBC 061100Z 0612/0621 34014KT 9999 BKN030
                      BECMG 0616/0618 5000 BR BKN015=
201902061400 TAF LRBC 061400Z 0615/0624 34018KT 9999 BKN045
                      BECMG 0616/0618 5000 BR BKN015
                      BECMG 0621/0623 35008KT=
201902061700 TAF LRBC 061700Z 0618/0703 34010KT 9999 BKN030
                      BECMG 0620/0622 5000 BR OVC020=
201902062000 TAF LRBC 062000Z 0621/0706 34010KT 9999 BKN030
                      TEMPO 0700/0704 5000 BR OVC020=
201902062300 TAF LRBC 062300Z 0700/0709 34010KT 9999 BKN030=
201902070200 TAF LRBC 070200Z 0703/0712 34010KT 9999 BKN030=
201902070500 TAF LRBC 070500Z 0706/0715 VRB04KT 9999 SCT045=
201902070800 TAF LRBC 070800Z 0709/0718 VRB04KT CAVOK=
201902071100 TAF LRBC 071100Z 0712/0721 VRB04KT CAVOK=
201902071400 TAF LRBC 071400Z 0715/0724 VRB04KT CAVOK
                      BECMG 0717/0719 16010KT 3000 BR BKN010=
201902071700 TAF LRBC 071700Z 0718/0803 VRB04KT CAVOK
                      BECMG 0718/0720 16010KT 3000 BR BKN010
                      PROB30 TEMPO 0721/0803 1500 BR=
201902072000 TAF LRBC 072000Z 0721/0806 16008KT CAVOK
                      PROB30 TEMPO 0723/0806 3000 BR=
201902072300 TAF LRBC 072300Z 0800/0809 16008KT CAVOK
                      TEMPO 0801/0806 3000 BR BKN010=
201902080200 TAF LRBC 080200Z 0803/0812 17008KT CAVOK
                      TEMPO 0803/0807 3000 BR=
201902080500 TAF LRBC 080500Z 0806/0815 17010KT CAVOK
                      PROB30 TEMPO 0806/0807 5000 BR=
201902080800 TAF LRBC 080800Z 0809/0818 17010KT CAVOK=
201902081100 TAF LRBC 081100Z 0812/0821 17010KT 9999 BKN025
                      BECMG 0815/0817 VRB04KT
                      BECMG 0817/0819 5000 BR BKN010=
201902081400 TAF LRBC 081400Z 0815/0824 16006KT 9999 BKN025
                      BECMG 0817/0819 5000 BR BKN015
                      TEMPO 0820/0824 1500 BR BKN005=
201902081700 TAF LRBC 081700Z 0818/0903 16006KT 9999 BKN025
                      BECMG 0818/0820 5000 BR BKN015
                      TEMPO 0822/0903 1500 BR BKN005=
201902082000 TAF LRBC 082000Z 0821/0906 16006KT 9999 BKN025
                      BECMG 0822/0824 5000 BR BKN015
                      TEMPO 0901/0906 1500 BR BKN005=
201902082300 TAF LRBC 082300Z 0900/0909 16005KT 9999 BKN020
                      TEMPO 0902/0907 3000 BR BKN010 OVC020=
201902090200 TAF LRBC 090200Z 0903/0912 16005KT CAVOK
                      BECMG 0903/0905 4000 BR
                      PROB30 TEMPO 0905/0907 0800 FZFG
                      BECMG 0907/0909 9999 NSW=
201902090500 TAF LRBC 090500Z 0906/0915 16006KT CAVOK=
201902090800 TAF LRBC 090800Z 0909/0918 15008KT CAVOK
                      TEMPO 0909/0910 5000 BR BKN010=
201902091100 TAF LRBC 091100Z 0912/0921 16012KT CAVOK
                      BECMG 0915/0917 VRB04KT 5000 BR BKN010=
201902091400 TAF LRBC 091400Z 0915/0924 16012KT CAVOK
                      BECMG 0916/0918 VRB04KT 5000 BR BKN015
                      BECMG 0919/0921 1500 BR BKN005=
201902091700 TAF LRBC 091700Z 0918/1003 17010KT 5000 BR NSC
                      BECMG 0919/0921 VRB04KT 1500 BR BKN005
                      PROB30 TEMPO 0923/1003 0600 FZFG VV002=
201902092000 TAF LRBC 092000Z 0921/1006 17010KT 5000 BR SCT010
                      BECMG 0922/0924 VRB04KT 1500 BR BKN005
                      PROB30 TEMPO 1000/1006 0600 FZFG VV002=
201902092300 TAF LRBC 092300Z 1000/1009 19006KT 5000 BR NSC
                      BECMG 1000/1002 1500 BR BKN005
                      PROB30 TEMPO 1000/1006 0600 FZFG VV002
                      BECMG 1007/1009 5000 SCT010=
201902100200 TAF LRBC 100200Z 1003/1012 VRB04KT 5000 BR NSC
                      PROB30 TEMPO 1003/1006 1500 BR BKN005
                      BECMG 1007/1009 CAVOK=
201902100432 TAF AMD LRBC 100432Z 1004/1012 VRB04KT 0150 FZFG VV001
                      BECMG 1005/1007 0800 BKN002
                      BECMG 1007/1008 3000 BR BKN005
                      BECMG 1008/1010 CAVOK=
201902100500 TAF LRBC 100500Z 1006/1015 VRB04KT 0350 FZFG VV001
                      BECMG 1006/1008 0800 BKN002
                      BECMG 1008/1009 3000 BR BKN010
                      BECMG 1009/1011 CAVOK=
201902100800 TAF LRBC 100800Z 1009/1018 VRB04KT 0800 FZFG BKN002
                      TEMPO 1009/1011 0350 FZFG VV001
                      BECMG 1011/1013 5000 BR BKN010
                      BECMG 1016/1018 17010KT 1500 BR BKN005=
201902101100 TAF LRBC 101100Z 1012/1021 16008KT 7000 NSC
                      BECMG 1016/1018 1500 BR BKN005
                      BECMG 1019/1021 0800 FZFG BKN002=
201902101400 TAF LRBC 101400Z 1015/1024 16010KT CAVOK
                      BECMG 1016/1018 3000 BR BKN010
                      TEMPO 1020/1024 0600 FZFG BKN002=
201902101700 TAF LRBC 101700Z 1018/1103 16010KT 5000 BR NSC
                      BECMG 1019/1021 1500 BR BKN010
                      TEMPO 1022/1103 0600 FZFG BKN002=
201902102000 TAF LRBC 102000Z 1021/1106 16012KT 3000 BR NSC
                      BECMG 1021/1023 1500 BR BKN010
                      TEMPO 1102/1106 0600 FZFG BKN002=
201902102155 TAF AMD LRBC 102155Z 1021/1106 16012KT 0800 FG BKN002
                      TEMPO 1022/1104 0350 FZFG VV001=
201902102300 TAF AMD LRBC 110027Z 1100/1109 16012KT 1500 BR BKN002
                      TEMPO 1100/1104 0600 FZFG VV001
                      BECMG 1106/1108 3000 BR BKN005=
201902110027 TAF AMD LRBC 110027Z 1100/1109 16012KT 1500 BR BKN002
                      TEMPO 1100/1104 0600 FZFG VV001
                      BECMG 1106/1108 3000 BR BKN005=
201902110200 TAF LRBC 110200Z 1103/1112 16014KT 5000 BR BKN010
                      TEMPO 1103/1106 1500 BR BKN005
                      PROB30 TEMPO 1103/1105 0600 FZFG VV001
                      BECMG 1108/1110 9999 NSW BKN020=
201902110500 TAF LRBC 110500Z 1106/1115 17014KT 5000 BR NSC
                      BECMG 1106/1108 9999 NSW=
201902110800 TAF LRBC 110800Z 1109/1118 17014KT 4000 BR NSC
                      BECMG 1110/1112 7000 NSW
                      BECMG 1116/1118 VRB04KT=
201902111100 TAF LRBC 111100Z 1112/1121 17014KT 7000 NSC
                      BECMG 1116/1118 34006KT 5000 BR=
201902111400 TAF LRBC 111400Z 1115/1124 17014KT 7000 NSC
                      BECMG 1116/1118 34006KT 5000 BR
                      BECMG 1121/1123 3000 -RA BR BKN010 OVC040=
201902111700 TAF LRBC 111700Z 1118/1203 18010KT 5000 BR NSC
                      BECMG 1119/1121 34008KT
                      BECMG 1121/1123 5000 -RA BR BKN010 OVC040
                       BECMG 1201/1203 3000 -RASN BR=
201902112000 TAF LRBC 112000Z 1121/1206 33008KT 5000 BR NSC
                      TEMPO 1121/1124 3000 -RA BR
                      BECMG 1201/1203 3000 -RASN BR BKN010 OVC030
                       TEMPO 1203/1206 1500 -SNRA BR BKN005 OVC020=
201902112300 TAF LRBC 112300Z 1200/1209 33008KT 5000 -RA BR SCT015 BKN055
                      BECMG 1201/1203 3000 -RASN BR BKN010 OVC030
                       TEMPO 1203/1207 1500 -SNRA BR BKN005 OVC020=
201902120200 TAF LRBC 120200Z 1203/1212 33010KT 5000 -RA BR BKN010 BKN055
                      TEMPO 1203/1207 1500 RA BKN005 OVC020=
201902120500 TAF LRBC 120500Z 1206/1215 33014KT 5000 -RA BKN010 OVC040
                      TEMPO 1206/1209 3000 RA RASN BKN005 OVC020
                       BECMG 1213/1215 9999 NSW=
201902120800 TAF LRBC 120800Z 1209/1218 33018KT 9999 -RA BKN015 OVC020
                      TEMPO 1209/1213 3000 RA RASN BKN005 OVC020
                       BECMG 1215/1217 5000 -SN BKN010 OVC020=
201902121100 TAF LRBC 121100Z 1212/1221 33014KT 7000 -RA BKN010 OVC020
                      TEMPO 1212/1215 3000 RA RASN BKN005 OVC020
                       BECMG 1215/1217 5000 -SN
                      BECMG 1219/1221 9999 NSW BKN030=
201902121400 TAF LRBC 121400Z 1215/1224 33018KT 7000 -RA BKN015 OVC020
                      BECMG 1216/1218 5000 -SN BKN010 OVC020
                      TEMPO 1218/1222 33018G28KT
                      BECMG 1220/1222 9999 NSW BKN030=
201902121700 TAF LRBC 121700Z 1218/1303 33020KT 9999 BKN030
                      TEMPO 1218/1221 33023G33KT 5000 -SN BLSN
                       BKN015 BKN050
                      BECMG 1300/1302 33010KT=
201902122000 TAF LRBC 122000Z 1221/1306 33016KT CAVOK=
201902122300 TAF LRBC 122300Z 1300/1309 33016KT CAVOK=
201902130200 TAF LRBC 130200Z 1303/1312 33008KT CAVOK=
201902130500 TAF LRBC 130500Z 1306/1315 35008KT CAVOK
                      PROB30 TEMPO 1306/1309 5000 -SN BKN015 BKN045=
201902130800 TAF LRBC 130800Z 1309/1318 34015KT 9999 BKN030
                      BECMG 1315/1317 VRB04KT=
201902131100 TAF LRBC 131100Z 1312/1321 34008KT 9999 BKN030=
201902131400 TAF LRBC 131400Z 1315/1324 VRB04KT CAVOK
                      BECMG 1320/1322 5000 BR BKN010 OVC025=
201902131700 TAF LRBC 131700Z 1318/1403 25015KT CAVOK
                      BECMG 1320/1322 VRB04KT=
201902132000 TAF LRBC 132000Z 1321/1406 25015KT CAVOK
                      BECMG 1322/1324 VRB04KT=
201902132300 TAF LRBC 132300Z 1400/1409 VRB04KT CAVOK
                      TEMPO 1406/1409 5000 -SN -RASN BKN015 BKN040=
201902140200 TAF LRBC 140200Z 1403/1412 29008KT 9999 BKN045
                      PROB40 TEMPO 1403/1406 5000 -RA -RASN
                      TEMPO 1406/1412 5000 -RA -RASN BKN015 BKN040
                       BECMG 1410/1412 35016KT=
201902140500 TAF LRBC 140500Z 1406/1415 33006KT 9999 BKN045
                      TEMPO 1406/1409 5000 -RA -RASN BKN015 BKN040
                       BECMG 1409/1411 35016KT 5000 -RA BR BKN010
                       OVC030=
201902140800 TAF LRBC 140800Z 1409/1418 VRB04KT 9999 BKN045
                      BECMG 1409/1411 35016KT 5000 -RA BR BKN015
                       OVC030=
201902141100 TAF LRBC 141100Z 1412/1421 32018KT 9999 BKN035
                      TEMPO 1412/1416 5000 -RA BR BKN010 OVC030=
201902141400 TAF LRBC 141400Z 1415/1424 33015KT 9999 BKN035
                      PROB30 TEMPO 1415/1418 5000 -RA BR BKN015
                       OVC030=
201902141700 TAF LRBC 141700Z 1418/1503 34009KT 9999 BKN030
                      TEMPO 1418/1422 5000 -RA BKN015 OVC025
                      TEMPO 1500/1503 3000 BR BKN010=
201902142000 TAF LRBC 142000Z 1421/1506 34010KT 9999 -DZ BKN015 OVC025
                      TEMPO 1422/1424 3000 -RASN BR BKN010 OVC015
                       BECMG 1500/1502 1500 SN BKN005 OVC010=
201902142300 TAF LRBC 142300Z 1500/1509 34010KT 9999 BKN015 OVC025
                      TEMPO 1500/1503 3000 RA RASN BKN005 OVC010=
201902150200 TAF LRBC 150200Z 1503/1512 34012KT 9999 BKN010 BKN030
                      TEMPO 1503/1507 3000 -RA BR BKN005 OVC020=
201902150500 TAF LRBC 150500Z 1506/1515 34010KT 9999 SCT010 BKN045=
201902150800 TAF LRBC 150800Z 1509/1518 34012KT 9999 SCT010 BKN045
                      TEMPO 1509/1511 BKN010=
201902151100 TAF LRBC 151100Z 1512/1521 35010KT 9999 SCT010 BKN030=
201902151400 TAF LRBC 151400Z 1515/1524 35010KT 9999 SCT035=
201902151700 TAF LRBC 151700Z 1518/1603 33006KT 9999 BKN035=
201902152000 TAF LRBC 152000Z 1521/1606 34006KT CAVOK
                      TEMPO 1600/1606 3000 BR BKN010=
201902152300 TAF LRBC 152300Z 1600/1609 VRB04KT CAVOK
                      PROB30 TEMPO 1601/1606 3000 BR BKN010=
201902160200 TAF LRBC 160200Z 1603/1612 35006KT CAVOK
                      PROB40 TEMPO 1603/1606 3000 BR=
201902160500 TAF LRBC 160500Z 1606/1615 VRB04KT 9999 BKN030
                      TEMPO 1610/1613 34010KT=
201902160800 TAF LRBC 160800Z 1609/1618 VRB04KT 9999 BKN030=
201902161037 TAF AMD LRBC 161037Z 1610/1618 34014KT 9999 SCT025
                      BECMG 1614/1616 VRB04KT=
201902161100 TAF LRBC 161100Z 1612/1621 34012KT CAVOK
                      BECMG 1614/1616 VRB03KT
                      BECMG 1618/1620 3000 BR=
201902161400 TAF LRBC 161400Z 1615/1624 VRB03KT CAVOK
                      BECMG 1618/1620 3000 BR=
201902161700 TAF LRBC 161700Z 1618/1703 VRB04KT CAVOK
                      BECMG 1620/1622 3000 BR
                      TEMPO 1623/1703 0800 FG BKN001=
201902162000 TAF LRBC 162000Z 1621/1706 VRB04KT 7000 NSC
                      BECMG 1621/1623 3000 BR
                      TEMPO 1700/1706 0800 FG BKN001=
201902162300 TAF LRBC 162300Z 1700/1709 VRB04KT 5000 BR NSC
                      TEMPO 1703/1706 0800=
201902170200 TAF LRBC 170200Z 1703/1712 VRB04KT 5000 BR NSC
                      BECMG 1703/1705 3000 BR
                      PROB40 TEMPO 1705/1707 0800 BCFG BKN001
                      BECMG 1707/1709 5000
                      BECMG 1709/1711 8000 NSW=
201902170500 TAF LRBC 170500Z 1706/1715 VRB04KT CAVOK
                      TEMPO 1706/1707 3000 BR=
201902170800 TAF LRBC 170800Z 1709/1718 VRB04KT CAVOK=
201902171100 TAF LRBC 171100Z 1712/1721 VRB04KT CAVOK=
201902171400 TAF LRBC 171400Z 1715/1724 VRB04KT CAVOK=
201902171700 TAF LRBC 171700Z 1718/1803 VRB04KT CAVOK
                      TEMPO 1800/1803 3000 BR=
201902172000 TAF LRBC 172000Z 1721/1806 VRB04KT CAVOK
                      TEMPO 1802/1805 3000 BR=
201902172300 TAF LRBC 172300Z 1800/1809 VRB04KT CAVOK
                      TEMPO 1802/1805 3000 BR=
201902180200 TAF LRBC 180200Z 1803/1812 VRB04KT CAVOK
                      TEMPO 1803/1805 3000 BR=
201902180500 TAF LRBC 180500Z 1806/1815 VRB04KT CAVOK=
201902180800 TAF LRBC 180800Z 1809/1818 VRB04KT CAVOK
                      TEMPO 1816/1818 5000 BR=
201902181100 TAF LRBC 181100Z 1812/1821 VRB04KT CAVOK
                      TEMPO 1816/1821 5000 BR=
201902181400 TAF LRBC 181400Z 1815/1824 VRB04KT CAVOK
                      TEMPO 1818/1824 5000 BR=
201902181700 TAF LRBC 181700Z 1818/1903 VRB04KT 5000 BR NSC
                      TEMPO 1819/1901 1500 BR BKN005=
201902182000 TAF LRBC 182000Z 1821/1906 VRB04KT CAVOK
                      TEMPO 1900/1904 3000 BR=
201902182300 TAF LRBC 182300Z 1900/1909 VRB04KT CAVOK
                      TEMPO 1900/1904 3000 BR
                      BECMG 1906/1908 16010KT=
201902190200 TAF LRBC 190200Z 1903/1912 VRB04KT 0600 FG SCT002
                      TEMPO 1903/1906 0350 FG VV001
                      BECMG 1906/1908 16010KT 3000 BR
                      BECMG 1908/1910 CAVOK=
201902190334 TAF AMD LRBC 190334Z 1903/1912 VRB04KT 0600 FZFG SCT002
                      TEMPO 1903/1906 0150 FZFG VV001
                      BECMG 1906/1908 16010KT 3000 BR
                      BECMG 1908/1910 CAVOK=
201902190500 TAF LRBC 190500Z 1906/1915 VRB04KT 3000 BR NSC
                      TEMPO 1906/1907 0800=
201902190800 TAF LRBC 190800Z 1909/1918 18016KT CAVOK=
201902191100 TAF LRBC 191100Z 1912/1921 16018KT CAVOK
                      BECMG 1918/1920 VRB04KT 3000 BR=
201902191400 TAF LRBC 191400Z 1915/1924 15018KT CAVOK
                      BECMG 1918/1920 VRB04KT 3000 BR
                      BECMG 1921/1923 1500 BR=
201902191700 TAF LRBC 191700Z 1918/2003 16012KT CAVOK
                      BECMG 1919/1921 VRB04KT 3000 BR
                      BECMG 1922/1924 0800 FG BKN002
                      BECMG 2000/2002 0300 FZFG VV001=
201902192000 TAF LRBC 192000Z 1921/2006 16010KT 5000 BR NSC
                      BECMG 1921/1923 1500 BR
                      BECMG 1923/2001 VRB04KT 0600 FG BKN002
                      TEMPO 2001/2006 0150=
201902192300 TAF LRBC 192300Z 2000/2009 17008KT 0350 FG VV002
                      TEMPO 2000/2003 0150 FG VV001
                      TEMPO 2003/2005 0150 FZFG VV001
                      BECMG 2005/2007 0800 BKN002
                      BECMG 2007/2009 3000 BR SCT010=
201902200200 TAF LRBC 200200Z 2003/2012 VRB04KT 0350 FG VV001
                      TEMPO 2003/2007 0150 FZFG
                      BECMG 2007/2009 0800 BKN002
                      BECMG 2009/2011 3000 BR SCT010
                      BECMG 2011/2012 32010KT 9999 NSW=
201902200500 TAF LRBC 200500Z 2006/2015 VRB04KT 0350 FZFG VV001
                      BECMG 2006/2008 0800 BKN002
                      BECMG 2008/2010 3000 BR SCT005
                      BECMG 2010/2012 9999 NSW=
201902200604 TAF COR LRBC 200604Z 2006/2015 VRB04KT 0350 FG VV001
                      BECMG 2006/2008 0800 BKN002
                      BECMG 2008/2010 3000 BR SCT005
                      BECMG 2010/2012 9999 NSW=
201902200800 TAF LRBC 200800Z 2009/2018 VRB04KT 0350 FG VV001
                      BECMG 2009/2011 35010KT 0800 BKN002
                      BECMG 2011/2012 3000 BR SCT005
                      BECMG 2012/2013 9999 NSW=
201902200924 TAF AMD LRBC 200924Z 2009/2018 VRB04KT 5000 BR NSC
                      BECMG 2009/2011 35010KT 9999 NSW=
201902201100 TAF LRBC 201100Z 2012/2021 35010KT CAVOK
                      BECMG 2018/2020 VRB04KT 3000 BR=
201902201400 TAF LRBC 201400Z 2015/2024 35010KT CAVOK
                      BECMG 2018/2020 VRB04KT 3000 BR
                      BECMG 2020/2022 0800 FZFG BKN002=
201902201700 TAF LRBC 201700Z 2018/2103 33008KT 9999 BKN050
                      BECMG 2100/2102 3000 BR=
201902202000 TAF LRBC 202000Z 2021/2106 VRB04KT 9999 BKN050
                      BECMG 2100/2102 3000 BR
                      TEMPO 2103/2106 1500 BR=
201902202300 TAF LRBC 202300Z 2100/2109 VRB04KT 9999 SCT050
                      BECMG 2100/2102 3000 BR
                      TEMPO 2103/2107 1500 BR
                      BECMG 2107/2109 9999 NSW=
201902210200 TAF LRBC 210200Z 2103/2112 VRB04KT 9999 SCT050
                      TEMPO 2103/2107 3000 BR=
201902210500 TAF LRBC 210500Z 2106/2115 28010KT 9999 BKN060=
201902210800 TAF LRBC 210800Z 2109/2118 VRB04KT 9999 BKN060=
201902211100 TAF LRBC 211100Z 2112/2121 34008KT 9999 BKN060=
201902211400 TAF LRBC 211400Z 2115/2124 VRB04KT 9999 BKN060=
201902211700 TAF LRBC 211700Z 2118/2203 26012KT CAVOK=
201902212000 TAF LRBC 212000Z 2121/2206 26012KT 9999 BKN060
                      BECMG 2203/2205 5000 -SN BKN015 OVC050=
201902212300 TAF LRBC 212300Z 2200/2209 26012KT 9999 BKN050
                      BECMG 2203/2205 5000 -SN BKN015 OVC050
                      TEMPO 2206/2209 1500 SN BKN005 OVC040=
201902220200 TAF LRBC 220200Z 2203/2212 VRB04KT 9999 BKN050
                      BECMG 2203/2205 5000 -RA BR BKN015 OVC030
                       TEMPO 2205/2209 3000 RA BKN010 OVC030
                      BECMG 2209/2211 36020G30KT 3000 -SN BLSN
                       BKN010 OVC020=
201902220500 TAF LRBC 220500Z 2206/2215 VRB04KT 9999 BKN030
                      TEMPO 2206/2209 5000 -RA BR BKN015 OVC030
                       BECMG 2209/2211 36020G40KT 3000 -SN BLSN
                       BKN010 OVC020
                      BECMG 2213/2215 9999 NSW BKN030=
201902220800 TAF LRBC 220800Z 2209/2218 VRB04KT 7000 -RA BKN025
                      BECMG 2209/2211 36020G40KT 3000 -SN BLSN
                       BKN010 OVC020
                      BECMG 2215/2217 02015G25KT 9999 NSW BKN030=
201902221100 TAF LRBC 221100Z 2212/2221 35025G35KT 5000 -SN BR BKN015 OVC020
                       TEMPO 2212/2214 1500 SN BLSN OVC005
                      BECMG 2215/2217 02015G25KT 9999 NSW BKN030=
201902221400 TAF LRBC 221400Z 2215/2224 35018KT 5000 -SN BR BKN015 OVC020
                      TEMPO 2215/2218 35018G28KT 1500 SN BLSN OVC005
                       BECMG 2218/2220 9999 NSW BKN030=
201902221700 TAF LRBC 221700Z 2218/2303 36016KT 9999 BKN040
                      TEMPO 2218/2303 36016G26KT=
201902222000 TAF LRBC 222000Z 2221/2306 35016KT 9999 BKN040
                      TEMPO 2221/2304 36020G30KT=
201902222300 TAF LRBC 222300Z 2300/2309 36012KT 9999 BKN040
                      TEMPO 2303/2309 36016G26KT
                      PROB40 2303/2309 5000 -SN BKN010 OVC040=
201902230200 TAF LRBC 230200Z 2303/2312 36012KT 9999 BKN040
                      TEMPO 2303/2309 36016G26KT
                      PROB40 TEMPO 2303/2309 5000 -SN BKN010 OVC040=
201902230500 TAF LRBC 230500Z 2306/2315 34016KT 9999 BKN030
                      TEMPO 2306/2311 5000 -SN BKN015 OVC025=
201902230800 TAF LRBC 230800Z 2309/2318 34016KT 9999 BKN030
                      TEMPO 2309/2313 3000 -SN BKN010 OVC025=
201902231100 TAF LRBC 231100Z 2312/2321 35020KT 8000 -SN BKN035
                      TEMPO 2312/2317 3000 -SN BKN010 FEW025CB
                       OVC030
                      BECMG 2318/2320 34010KT=
201902231400 TAF LRBC 231400Z 2315/2324 35020KT 8000 -SN BKN035
                      TEMPO 2315/2318 3000 -SN BKN010 OVC030
                      BECMG 2318/2320 34010KT=
201902231700 TAF LRBC 231700Z 2318/2403 34012KT 5000 BR BKN040
                      TEMPO 2318/2324 1500 -SN BR BKN010 BKN035=
201902232000 TAF LRBC 232000Z 2321/2406 34012KT 9999 BKN040
                      TEMPO 2321/2324 3000 -SN BR BKN015 BKN035=
201902232300 TAF LRBC 232300Z 2400/2409 34014KT 9999 SCT040=
201902240200 TAF LRBC 240200Z 2403/2412 34010KT 9999 SCT045
                      TEMPO 2409/2412 5000 -SN BR BKN015 BKN030=
201902240500 TAF LRBC 240500Z 2406/2415 VRB04KT CAVOK
                      BECMG 2406/2408 35010KT
                      PROB40 TEMPO 2412/2415 5000 -SN BR BKN015
                       BKN040=
201902240800 TAF LRBC 240800Z 2409/2418 35010KT CAVOK
                      PROB30 TEMPO 2412/2415 5000 -SN BR BKN015
                       BKN040=
201902241100 TAF LRBC 241100Z 2412/2421 35015KT 9999 BKN030
                      PROB30 TEMPO 2412/2415 5000 -SN BR BKN015
                       BKN030
                      BECMG 2418/2420 VRB04KT=
201902241400 TAF LRBC 241400Z 2415/2424 35008KT 9999 SCT030=
201902241700 TAF LRBC 241700Z 2418/2503 VRB04KT CAVOK
                      TEMPO 2500/2503 3000 BR=
201902242000 TAF LRBC 242000Z 2421/2506 VRB04KT CAVOK
                      TEMPO 2501/2505 3000 BR=
201902242300 TAF LRBC 242300Z 2500/2509 VRB04KT CAVOK
                      TEMPO 2501/2505 3000 BR=
201902250200 TAF LRBC 250200Z 2503/2512 VRB04KT CAVOK
                      TEMPO 2503/2505 3000 BR=
201902250500 TAF LRBC 250500Z 2506/2515 18008KT CAVOK=
201902250800 TAF LRBC 250800Z 2509/2518 18008KT CAVOK=
201902251100 TAF LRBC 251100Z 2512/2521 16008KT CAVOK=
201902251400 TAF LRBC 251400Z 2515/2524 16008KT CAVOK=
201902251700 TAF LRBC 251700Z 2518/2603 VRB04KT CAVOK=
201902252000 TAF LRBC 252000Z 2521/2606 VRB04KT CAVOK=
201902252300 TAF LRBC 252300Z 2600/2609 VRB04KT CAVOK=
201902260200 TAF LRBC 260200Z 2603/2612 VRB04KT CAVOK=
201902260500 TAF LRBC 260500Z 2606/2615 VRB04KT CAVOK
                      BECMG 2612/2614 34014KT=
201902260800 TAF LRBC 260800Z 2609/2618 VRB04KT CAVOK
                      BECMG 2612/2614 34014KT
                      BECMG 2614/2616 5000 -RA BR BKN015 BKN040
                       TEMPO 2616/2618 3000 RA BR BKN010 OVC030=
201902261100 TAF LRBC 261100Z 2612/2621 28012KT CAVOK
                      BECMG 2612/2614 34017KT
                      BECMG 2614/2616 5000 -RA BR BKN015 BKN040
                       TEMPO 2617/2621 3000 RA BR BKN010 OVC030=
201902261400 TAF LRBC 261400Z 2615/2624 34017KT 9999 BKN040
                      BECMG 2615/2617 5000 -RA BR BKN015 BKN040
                       TEMPO 2617/2621 3000 RA BR BKN010 OVC030
                       BECMG 2621/2623 3000 -SN BKN010 OVC025=
201902261700 TAF LRBC 261700Z 2618/2703 34015KT 9999 BKN045
                      TEMPO 2618/2620 34018G28KT 5000 -RA BR BKN015
                       BKN040
                      BECMG 2620/2622 5000 -SN BKN015 OVC035
                      TEMPO 2622/2703 3000 SN BKN010 OVC025=
201902262000 TAF LRBC 262000Z 2621/2706 34015KT 9999 -RA BKN045
                      TEMPO 2622/2624 -RASN BKN015 OVC035
                      BECMG 2700/2702 5000 SN BKN010 OVC025=
201902262300 TAF LRBC 262300Z 2700/2709 34015KT 9999 BKN035
                      PROB30 TEMPO 2700/2704 5000 SN BKN010 OVC025=
201902270200 TAF LRBC 270200Z 2703/2712 34015KT 9999 BKN035
                      PROB30 TEMPO 2703/2706 5000 -SN BKN010 OVC025=
201902270500 TAF LRBC 270500Z 2706/2715 34017KT 9999 OVC035
                      TEMPO 2706/2712 34017G27KT
                      PROB30 TEMPO 2707/2712 5000 -SHSN FEW030CB
                       OVC040=
201902270800 TAF LRBC 270800Z 2709/2718 34017KT 9999 SCT015 OVC025
                      PROB30 TEMPO 2709/2714 34017G27KT 5000 -SHSN
                       SCT015 FEW025CB OVC030
                      BECMG 2715/2717 BKN010 OVC020=
201902271100 TAF LRBC 271100Z 2712/2721 34017KT 9999 SCT015 OVC030
                      PROB30 TEMPO 2712/2714 34017G27KT SCT015
                       FEW025CB OVC030
                      BECMG 2715/2717 BKN010 OVC020=
201902271400 TAF LRBC 271400Z 2715/2724 34017KT 9999 SCT015 OVC030
                      PROB40 TEMPO 2715/2716 34017G27KT
                      BECMG 2717/2719 BKN010 OVC020=
201902271700 TAF LRBC 271700Z 2718/2803 32010KT 9999 SCT015 BKN030
                      BECMG 2720/2722 BKN015 OVC030
                      BECMG 2800/2802 VRB04KT=
201902272000 TAF LRBC 272000Z 2721/2806 33005KT 9999 BKN020
                      TEMPO 2800/2805 5000 BR=
201902272300 TAF LRBC 272300Z 2800/2809 VRB04KT CAVOK
                      TEMPO 2800/2805 5000 BR=
201902280200 TAF LRBC 280200Z 2803/2812 33010KT 9999 BKN030
                      TEMPO 2803/2805 5000 BR=
201902280500 TAF LRBC 280500Z 2806/2815 VRB03KT CAVOK
                      BECMG 2810/2812 26010KT=
201902280800 TAF LRBC 280800Z 2809/2818 VRB03KT CAVOK
                      BECMG 2810/2812 26010KT=
201902281100 TAF LRBC 281100Z 2812/2821 26016KT CAVOK
                      TEMPO 2812/2818 26016G26KT=
201902281400 TAF LRBC 281400Z 2815/2824 28018KT CAVOK
                      TEMPO 2815/2820 28020G30KT=
201902281700 TAF LRBC 281700Z 2818/0103 29015KT CAVOK
                      PROB30 TEMPO 2818/2821 29015G25KT
                      BECMG 2822/2824 35010KT=
201902282000 TAF LRBC 282000Z 2821/0106 29012KT CAVOK
                      BECMG 2822/2824 35008KT=
201902282300 TAF LRBC 282300Z 0100/0109 26015KT CAVOK
                      BECMG 0100/0102 35008KT=
