201904010000 METAR LRBC 010000Z AUTO 01004KT 9999 NCD 06/00 Q1016=
201904010030 METAR LRBC 010030Z AUTO 02003KT 9999 NCD 07/01 Q1016=
201904010100 METAR LRBC 010100Z 02003KT 340V070 CAVOK 05/01 Q1016=
201904010130 METAR COR LRBC 010130Z 01004KT 320V050 CAVOK 07/01 Q1016=
201904010200 METAR LRBC 010200Z 35006KT CAVOK 04/00 Q1016=
201904010230 METAR LRBC 010230Z 02005KT CAVOK 06/01 Q1016=
201904010300 METAR LRBC 010300Z 03006KT CAVOK 06/01 Q1017=
201904010330 METAR LRBC 010330Z 03006KT CAVOK 06/00 Q1017=
201904010400 METAR LRBC 010400Z 04006KT CAVOK 06/00 Q1017=
201904010430 METAR LRBC 010430Z 02004KT CAVOK 06/01 Q1017=
201904010500 METAR LRBC 010500Z 02003KT 350V050 CAVOK 07/01 Q1018=
201904010530 METAR LRBC 010530Z 02005KT CAVOK 09/02 Q1018=
201904010600 METAR LRBC 010600Z 03006KT 350V060 CAVOK 10/03 Q1018=
201904010630 METAR LRBC 010630Z 02005KT CAVOK 13/04 Q1018=
201904010700 METAR LRBC 010700Z 34016KT CAVOK 15/04 Q1018=
201904010730 METAR LRBC 010730Z 35015KT 320V020 CAVOK 16/04 Q1018=
201904010800 METAR LRBC 010800Z 35018KT CAVOK 16/04 Q1019=
201904010830 METAR LRBC 010830Z 34019KT CAVOK 17/04 Q1019=
201904010900 METAR LRBC 010900Z 35016KT 320V020 CAVOK 17/04 Q1019=
201904010930 METAR LRBC 010930Z 35016KT 330V030 CAVOK 18/04 Q1019=
201904011000 METAR LRBC 011000Z 36015KT CAVOK 18/04 Q1019=
201904011030 METAR LRBC 011030Z 35016G26KT CAVOK 18/04 Q1018=
201904011100 METAR LRBC 011100Z 35016G26KT 330V030 CAVOK 19/05 Q1019=
201904011130 METAR LRBC 011130Z 35017KT CAVOK 18/04 Q1019=
201904011200 METAR LRBC 011200Z 35018KT CAVOK 18/04 Q1019=
201904011230 METAR LRBC 011230Z 35018KT CAVOK 18/04 Q1019=
201904011300 METAR LRBC 011300Z 36016KT CAVOK 18/03 Q1019=
201904011330 METAR LRBC 011330Z 35021KT CAVOK 17/03 Q1019=
201904011400 METAR LRBC 011400Z 01016KT 340V040 9999 FEW055 16/01 Q1019=
201904011430 METAR LRBC 011430Z 01015KT 340V040 CAVOK 16/01 Q1019=
201904011500 METAR LRBC 011500Z 36015KT CAVOK 15/01 Q1020=
201904011530 METAR LRBC 011530Z 35019KT CAVOK 14/01 Q1020=
201904011600 METAR LRBC 011600Z 35019KT CAVOK 13/01 Q1020=
201904011630 METAR LRBC 011630Z 36017KT CAVOK 12/M00 Q1020=
201904011700 METAR LRBC 011700Z 35014KT CAVOK 11/M01 Q1021=
201904011730 METAR LRBC 011730Z 33010KT 9999 SCT050 11/M01 Q1021=
201904011800 METAR LRBC 011800Z 33013KT 9999 BKN050 11/M02 Q1022=
201904011830 METAR LRBC 011830Z 32011KT 9999 BKN060 11/M01 Q1022=
201904011900 METAR LRBC 011900Z 32011KT 9999 BKN055 11/M01 Q1022=
201904011930 METAR LRBC 011930Z 32010KT 9999 BKN055 11/M02 Q1022=
201904012000 METAR LRBC 012000Z 32011KT 9999 BKN055 11/M02 Q1022=
201904012030 METAR LRBC 012030Z 32012KT 9999 BKN060 11/M02 Q1023=
201904012100 METAR LRBC 012100Z 33013KT 9999 BKN065 11/M02 Q1023=
201904012130 METAR LRBC 012130Z 33014KT 9999 OVC065 11/M03 Q1023=
201904012200 METAR LRBC 012200Z 33014KT 9999 BKN065 10/M03 Q1023=
201904012230 METAR LRBC 012230Z AUTO 34015KT 9999 OVC065/// 10/M03 Q1023=
201904012300 METAR LRBC 012300Z 34013KT 9999 BKN065 10/M03 Q1023=
201904012330 METAR LRBC 012330Z AUTO 34013KT 9999 OVC065/// 10/M03 Q1023=
201904020000 METAR LRBC 020000Z 35013KT 9999 OVC065 10/M04 Q1024=
201904020030 METAR LRBC 020030Z 35012KT 9999 BKN065 09/M04 Q1024=
201904020100 METAR LRBC 020100Z 34012KT 9999 OVC065 08/M05 Q1024=
201904020130 METAR LRBC 020130Z 34011KT 9999 BKN065 08/M05 Q1024=
201904020200 METAR LRBC 020200Z 34011KT 9999 BKN065 07/M05 Q1025=
201904020230 METAR LRBC 020230Z 35009KT 9999 BKN065 07/M06 Q1025=
201904020300 METAR LRBC 020300Z 34010KT 9999 BKN060 07/M06 Q1025=
201904020330 METAR LRBC 020330Z 35010KT 9999 BKN065 07/M07 Q1025=
201904020400 METAR LRBC 020400Z 35009KT 9999 BKN060 07/M08 Q1026=
201904020430 METAR LRBC 020430Z 35009KT 9999 BKN060 06/M07 Q1026=
201904020500 METAR LRBC 020500Z 35010KT 9999 BKN060 07/M07 Q1026=
201904020530 METAR LRBC 020530Z 35010KT 9999 SCT065 07/M08 Q1026=
201904020600 METAR LRBC 020600Z 34011KT CAVOK 06/M07 Q1027=
201904020630 METAR LRBC 020630Z 34009KT CAVOK 07/M08 Q1027=
201904020700 METAR LRBC 020700Z 34010KT 310V030 CAVOK 08/M07 Q1027=
201904020730 METAR LRBC 020730Z 34012KT CAVOK 08/M08 Q1027=
201904020800 METAR LRBC 020800Z 35009KT 320V030 CAVOK 09/M07 Q1027=
201904020830 METAR LRBC 020830Z 36009KT 330V050 CAVOK 10/M08 Q1026=
201904020900 METAR LRBC 020900Z 36010KT 320V040 CAVOK 10/M09 Q1026=
201904020930 METAR LRBC 020930Z 36009KT 330V050 CAVOK 10/M08 Q1026=
201904021000 METAR LRBC 021000Z 02009KT 330V070 CAVOK 11/M08 Q1026=
201904021030 METAR LRBC 021030Z 01005KT 320V050 CAVOK 11/M08 Q1025=
201904021100 METAR LRBC 021100Z 33014KT 300V010 CAVOK 12/M07 Q1025=
201904021130 METAR LRBC 021130Z 33010KT 300V360 CAVOK 12/M08 Q1024=
201904021200 METAR LRBC 021200Z 35009KT 310V030 CAVOK 12/M08 Q1024=
201904021230 METAR LRBC 021230Z 34012KT 310V010 CAVOK 12/M10 Q1024=
201904021300 METAR LRBC 021300Z 32007KT 280V340 CAVOK 12/M10 Q1024=
201904021330 METAR LRBC 021330Z 32009KT 300V010 CAVOK 12/M10 Q1024=
201904021400 METAR LRBC 021400Z 34008KT 310V080 CAVOK 13/M09 Q1023=
201904021430 METAR LRBC 021430Z 35009KT 320V020 CAVOK 12/M10 Q1023=
201904021500 METAR LRBC 021500Z 02005KT 320V080 CAVOK 12/M10 Q1023=
201904021530 METAR LRBC 021530Z 01006KT 340V060 CAVOK 12/M10 Q1023=
201904021600 METAR LRBC 021600Z 01004KT 290V060 CAVOK 12/M11 Q1023=
201904021630 METAR LRBC 021630Z 01004KT 330V040 CAVOK 11/M11 Q1023=
201904021700 METAR LRBC 021700Z 01004KT CAVOK 10/M11 Q1023=
201904021730 METAR LRBC 021730Z 32004KT CAVOK 06/M08 Q1023=
201904021800 METAR LRBC 021800Z 32004KT CAVOK 05/M08 Q1024=
201904021830 METAR LRBC 021830Z 32005KT CAVOK 04/M08 Q1024=
201904021900 METAR LRBC 021900Z 32003KT CAVOK 04/M08 Q1024=
201904021930 METAR LRBC 021930Z 32004KT CAVOK 04/M08 Q1024=
201904022000 METAR LRBC 022000Z 33005KT CAVOK 04/M09 Q1024=
201904022030 METAR LRBC 022030Z 34005KT CAVOK 03/M09 Q1024=
201904022100 METAR LRBC 022100Z AUTO VRB01KT 9999 NCD 03/M09 Q1024=
201904022130 METAR LRBC 022130Z 33003KT CAVOK 02/M09 Q1024=
201904022200 METAR LRBC 022200Z 00000KT CAVOK 02/M09 Q1024=
201904022230 METAR LRBC 022230Z 09001KT CAVOK 02/M06 Q1024=
201904022300 METAR LRBC 022300Z 35001KT CAVOK 01/M09 Q1024=
201904022330 METAR COR LRBC 022330Z 35001KT CAVOK 01/M09 Q1024=
201904030000 METAR LRBC 030000Z 36002KT CAVOK M00/M09 Q1023=
201904030030 METAR LRBC 030030Z 32001KT CAVOK 00/M08 Q1023=
201904030100 METAR LRBC 030100Z 00000KT CAVOK M00/M07 Q1023=
201904030130 METAR LRBC 030130Z 00000KT CAVOK M02/M09 Q1023=
201904030200 METAR LRBC 030200Z AUTO 36001KT 9999 NCD M01/M08 Q1023=
201904030230 METAR LRBC 030230Z 00000KT CAVOK M02/M09 Q1023=
201904030300 METAR LRBC 030300Z 00000KT CAVOK M02/M08 Q1023=
201904030330 METAR LRBC 030330Z 00000KT CAVOK M02/M08 Q1023=
201904030400 METAR LRBC 030400Z 00000KT CAVOK M02/M08 Q1023=
201904030430 METAR LRBC 030430Z 00000KT CAVOK M02/M08 Q1023=
201904030500 METAR LRBC 030500Z 00000KT CAVOK M00/M06 Q1023=
201904030530 METAR LRBC 030530Z 00000KT CAVOK 03/M05 Q1023=
201904030600 METAR LRBC 030600Z 00000KT CAVOK 05/M05 Q1023=
201904030630 METAR LRBC 030630Z 16003KT CAVOK 06/M05 Q1023=
201904030700 METAR LRBC 030700Z 16004KT CAVOK 07/M07 Q1023=
201904030730 METAR LRBC 030730Z 16009KT CAVOK 09/M08 Q1023=
201904030800 METAR LRBC 030800Z 17011KT CAVOK 10/M08 Q1023=
201904030830 METAR LRBC 030830Z 17013KT CAVOK 11/M09 Q1023=
201904030900 METAR LRBC 030900Z 17012KT CAVOK 11/M08 Q1022=
201904030930 METAR LRBC 030930Z 17013KT CAVOK 12/M09 Q1022=
201904031000 METAR LRBC 031000Z 16011KT CAVOK 12/M09 Q1022=
201904031030 METAR LRBC 031030Z 16011KT CAVOK 12/M08 Q1021=
201904031100 METAR LRBC 031100Z 16010KT CAVOK 12/M09 Q1021=
201904031130 METAR LRBC 031130Z AUTO 18009KT 160V220 9999 NCD 13/M08 Q1021=
201904031200 METAR COR LRBC 031200Z 18011KT 140V210 CAVOK 13/M08 Q1020=
201904031230 METAR LRBC 031230Z AUTO 16011KT 130V190 9999 NCD 13/M08 Q1020=
201904031300 METAR LRBC 031300Z 18011KT 140V210 CAVOK 13/M08 Q1020=
201904031330 METAR LRBC 031330Z 17013KT CAVOK 14/M09 Q1019=
201904031400 METAR LRBC 031400Z 17012KT CAVOK 13/M08 Q1019=
201904031430 METAR LRBC 031430Z 16013KT CAVOK 13/M08 Q1019=
201904031500 METAR LRBC 031500Z 16011KT CAVOK 13/M08 Q1019=
201904031530 METAR LRBC 031530Z 16013KT CAVOK 13/M07 Q1019=
201904031600 METAR LRBC 031600Z 15011KT CAVOK 12/M07 Q1019=
201904031630 METAR LRBC 031630Z 15008KT CAVOK 11/M06 Q1018=
201904031700 METAR LRBC 031700Z 15008KT CAVOK 11/M06 Q1018=
201904031730 METAR LRBC 031730Z 15008KT CAVOK 11/M06 Q1018=
201904031800 METAR LRBC 031800Z 15006KT CAVOK 09/M04 Q1019=
201904031830 METAR LRBC 031830Z 14006KT CAVOK 08/M05 Q1019=
201904031900 METAR LRBC 031900Z 17008KT CAVOK 07/M04 Q1019=
201904031930 METAR LRBC 031930Z 17009KT CAVOK 06/M05 Q1019=
201904032000 METAR LRBC 032000Z 16011KT CAVOK 07/M04 Q1019=
201904032030 METAR LRBC 032030Z 16012KT CAVOK 07/M03 Q1019=
201904032100 METAR LRBC 032100Z 15012KT CAVOK 06/M03 Q1019=
201904032130 METAR LRBC 032130Z 15014KT CAVOK 06/M02 Q1019=
201904032200 METAR LRBC 032200Z 15013KT CAVOK 05/M02 Q1019=
201904032230 METAR LRBC 032230Z AUTO 16009KT 9999 NCD 04/M03 Q1019=
201904032300 METAR LRBC 032300Z 15008KT CAVOK 04/M02 Q1019=
201904032330 METAR LRBC 032330Z 15007KT CAVOK 03/M02 Q1019=
201904040000 METAR LRBC 040000Z 17006KT CAVOK 02/M02 Q1019=
201904040030 METAR LRBC 040030Z 16006KT CAVOK 01/M02 Q1018=
201904040100 METAR LRBC 040100Z 16007KT CAVOK 02/M02 Q1018=
201904040130 METAR LRBC 040130Z 17007KT CAVOK 01/M03 Q1018=
201904040200 METAR LRBC 040200Z 16008KT CAVOK 02/M03 Q1018=
201904040230 METAR LRBC 040230Z 17009KT CAVOK 02/M03 Q1018=
201904040300 METAR LRBC 040300Z 18007KT CAVOK 01/M04 Q1018=
201904040330 METAR LRBC 040330Z 17008KT CAVOK 01/M04 Q1018=
201904040400 METAR LRBC 040400Z 17008KT CAVOK 01/M04 Q1018=
201904040430 METAR LRBC 040430Z 17007KT CAVOK 02/M03 Q1018=
201904040500 METAR LRBC 040500Z 16007KT CAVOK 04/M03 Q1018=
201904040530 METAR LRBC 040530Z 16013KT CAVOK 04/M02 Q1018=
201904040600 METAR LRBC 040600Z 16014KT CAVOK 05/M01 Q1018=
201904040630 METAR LRBC 040630Z 16015KT CAVOK 06/M01 Q1018=
201904040700 METAR LRBC 040700Z 17016KT CAVOK 07/M01 Q1018=
201904040730 METAR LRBC 040730Z 16015KT CAVOK 08/M00 Q1018=
201904040800 METAR LRBC 040800Z 16015KT CAVOK 08/M01 Q1018=
201904040830 METAR LRBC 040830Z 15016KT CAVOK 09/M02 Q1018=
201904040900 METAR LRBC 040900Z 15016KT CAVOK 10/M02 Q1018=
201904040930 METAR LRBC 040930Z 15018KT CAVOK 11/M03 Q1018=
201904041000 METAR LRBC 041000Z 15016KT CAVOK 11/M03 Q1017=
201904041030 METAR LRBC 041030Z 14017KT CAVOK 12/M04 Q1017=
201904041100 METAR LRBC 041100Z 15019KT CAVOK 12/M04 Q1017=
201904041130 METAR LRBC 041130Z 14018KT CAVOK 13/M04 Q1016=
201904041200 METAR LRBC 041200Z 15019KT CAVOK 13/M04 Q1016=
201904041230 METAR LRBC 041230Z 14018KT 110V170 CAVOK 13/M05 Q1016=
201904041300 METAR LRBC 041300Z 15018KT CAVOK 13/M05 Q1015=
201904041330 METAR LRBC 041330Z 14018KT CAVOK 13/M05 Q1015=
201904041400 METAR LRBC 041400Z 14018KT CAVOK 13/M05 Q1015=
201904041430 METAR LRBC 041430Z 15017KT CAVOK 13/M05 Q1014=
201904041500 METAR LRBC 041500Z 14018KT CAVOK 13/M05 Q1014=
201904041530 METAR LRBC 041530Z 15016KT CAVOK 13/M04 Q1014=
201904041600 METAR LRBC 041600Z 15015KT CAVOK 12/M04 Q1014=
201904041630 METAR LRBC 041630Z 15013KT CAVOK 11/M03 Q1014=
201904041700 METAR LRBC 041700Z 15012KT CAVOK 10/M03 Q1014=
201904041730 METAR LRBC 041730Z 16010KT CAVOK 10/M02 Q1015=
201904041800 METAR LRBC 041800Z 16012KT CAVOK 09/M03 Q1015=
201904041830 METAR LRBC 041830Z 15012KT CAVOK 09/M00 Q1015=
201904041900 METAR LRBC 041900Z 15015KT CAVOK 09/M00 Q1015=
201904041930 METAR LRBC 041930Z 15017KT CAVOK 08/00 Q1015=
201904042000 METAR LRBC 042000Z 15019KT CAVOK 08/01 Q1015=
201904042030 METAR LRBC 042030Z 15017KT CAVOK 07/01 Q1015=
201904042100 METAR LRBC 042100Z 15017KT CAVOK 07/01 Q1015=
201904042130 METAR LRBC 042130Z 15019KT CAVOK 07/01 Q1016=
201904042200 METAR LRBC 042200Z 15016KT CAVOK 06/01 Q1016=
201904042230 METAR LRBC 042230Z 16015KT CAVOK 06/01 Q1016=
201904042300 METAR LRBC 042300Z 17014KT CAVOK 05/01 Q1016=
201904042330 METAR LRBC 042330Z 16015KT CAVOK 05/01 Q1015=
201904050000 METAR LRBC 050000Z 17013KT CAVOK 04/01 Q1016=
201904050030 METAR LRBC 050030Z 17012KT CAVOK 04/01 Q1015=
201904050100 METAR LRBC 050100Z 17010KT CAVOK 03/01 Q1015=
201904050130 METAR LRBC 050130Z 17010KT CAVOK 03/01 Q1015=
201904050200 METAR LRBC 050200Z 17010KT CAVOK 03/01 Q1015=
201904050230 METAR LRBC 050230Z 16010KT CAVOK 03/01 Q1015=
201904050300 METAR LRBC 050300Z AUTO 17009KT 9999 NCD 02/01 Q1015=
201904050330 METAR COR LRBC 050330Z 15009KT CAVOK 03/01 Q1015=
201904050400 METAR LRBC 050400Z 16009KT CAVOK 02/01 Q1015=
201904050430 METAR LRBC 050430Z 16009KT CAVOK 03/01 Q1016=
201904050500 METAR LRBC 050500Z 15011KT CAVOK 04/02 Q1016=
201904050530 METAR LRBC 050530Z 15013KT CAVOK 05/02 Q1016=
201904050600 METAR LRBC 050600Z 15015KT CAVOK 06/03 Q1016=
201904050630 METAR LRBC 050630Z 15016KT CAVOK 07/03 Q1016=
201904050700 METAR LRBC 050700Z 15019KT CAVOK 09/04 Q1016=
201904050730 METAR LRBC 050730Z 15019KT CAVOK 09/04 Q1016=
201904050800 METAR LRBC 050800Z 14021KT CAVOK 10/03 Q1016=
201904050830 METAR LRBC 050830Z 14021KT CAVOK 11/04 Q1016=
201904050900 METAR LRBC 050900Z 15022KT CAVOK 11/04 Q1016=
201904050930 METAR LRBC 050930Z 14022KT 9999 FEW028 11/03 Q1015=
201904051000 METAR LRBC 051000Z 14020KT 9999 FEW028 12/03 Q1015=
201904051030 METAR LRBC 051030Z 15022KT 9999 FEW028 12/03 Q1015=
201904051100 METAR COR LRBC 051100Z 15022KT 9999 FEW028 12/03 Q1015=
201904051130 METAR LRBC 051130Z 14021KT CAVOK 14/03 Q1015=
201904051200 METAR LRBC 051200Z 14020KT CAVOK 14/03 Q1015=
201904051230 METAR LRBC 051230Z 15021KT CAVOK 14/03 Q1014=
201904051300 METAR LRBC 051300Z 14021KT CAVOK 14/04 Q1014=
201904051330 METAR LRBC 051330Z 14020KT CAVOK 14/04 Q1014=
201904051400 METAR LRBC 051400Z 15019KT CAVOK 15/04 Q1013=
201904051430 METAR LRBC 051430Z 14020KT CAVOK 15/04 Q1013=
201904051500 METAR LRBC 051500Z 15019KT CAVOK 14/04 Q1013=
201904051530 METAR LRBC 051530Z 15020KT CAVOK 14/04 Q1013=
201904051600 METAR LRBC 051600Z 15018KT CAVOK 13/04 Q1013=
201904051630 METAR LRBC 051630Z 15017KT CAVOK 13/04 Q1013=
201904051700 METAR LRBC 051700Z 15014KT CAVOK 12/04 Q1014=
201904051730 METAR LRBC 051730Z 15013KT CAVOK 11/04 Q1014=
201904051800 METAR LRBC 051800Z 15012KT CAVOK 10/03 Q1014=
201904051830 METAR LRBC 051830Z 15013KT CAVOK 09/03 Q1014=
201904051900 METAR LRBC 051900Z 16012KT CAVOK 08/03 Q1014=
201904051930 METAR LRBC 051930Z 16013KT CAVOK 07/03 Q1015=
201904052000 METAR LRBC 052000Z 17015KT CAVOK 07/03 Q1015=
201904052030 METAR LRBC 052030Z 15011KT CAVOK 07/03 Q1015=
201904052100 METAR LRBC 052100Z 16012KT CAVOK 06/03 Q1015=
201904052130 METAR LRBC 052130Z 16013KT CAVOK 06/03 Q1015=
201904052200 METAR LRBC 052200Z 16013KT CAVOK 06/03 Q1015=
201904052230 METAR LRBC 052230Z AUTO 16012KT 9999 NCD 06/03 Q1015=
201904052300 METAR LRBC 052300Z AUTO 17010KT 9999 NCD 05/03 Q1015=
201904052330 METAR LRBC 052330Z 17011KT CAVOK 05/03 Q1015=
201904060000 METAR LRBC 060000Z 15011KT 9999 FEW019 06/04 Q1015=
201904060030 METAR LRBC 060030Z 15014KT 9999 BKN018 07/04 Q1015=
201904060100 METAR LRBC 060100Z 15014KT 9999 BKN018 07/04 Q1015=
201904060130 METAR LRBC 060130Z 15013KT 9999 BKN018 07/04 Q1015=
201904060200 METAR LRBC 060200Z 16013KT 9999 BKN020 07/04 Q1015=
201904060230 METAR LRBC 060230Z 16013KT 9999 BKN018 07/04 Q1015=
201904060300 METAR LRBC 060300Z 15012KT 9999 OVC018 07/04 Q1015=
201904060330 METAR LRBC 060330Z 16013KT 9999 BKN018 07/04 Q1015=
201904060400 METAR LRBC 060400Z 16013KT 9999 OVC019 07/04 Q1015=
201904060430 METAR LRBC 060430Z 16014KT 9999 OVC019 07/04 Q1015=
201904060500 METAR LRBC 060500Z 16015KT 9999 BKN019 OVC022 07/03 Q1016=
201904060530 METAR LRBC 060530Z 16013KT 9999 OVC020 07/03 Q1016=
201904060600 METAR LRBC 060600Z 15013KT 9999 OVC020 08/03 Q1016=
201904060630 METAR LRBC 060630Z 16016KT 9999 OVC021 08/03 Q1016=
201904060700 METAR LRBC 060700Z 16014KT 9999 OVC022 09/03 Q1016=
201904060730 METAR LRBC 060730Z 16014KT 9999 OVC024 09/03 Q1016=
201904060800 METAR LRBC 060800Z 15014KT 9999 BKN024 09/03 Q1016=
201904060830 METAR LRBC 060830Z 16015KT 9999 OVC024 10/03 Q1016=
201904060900 METAR LRBC 060900Z 16016KT 9999 BKN025 10/04 Q1016=
201904060930 METAR LRBC 060930Z 16015KT 9999 SCT025 BKN029 10/04 Q1016=
201904061000 METAR LRBC 061000Z 17016KT 9999 BKN028 12/05 Q1016=
201904061030 METAR LRBC 061030Z 17017KT 130V190 9999 SCT030 12/03 Q1016=
201904061100 METAR LRBC 061100Z 16015KT 9999 FEW033 13/04 Q1015=
201904061130 METAR LRBC 061130Z 17016KT 9999 FEW035 13/04 Q1015=
201904061200 METAR LRBC 061200Z 17016KT 9999 FEW035 14/04 Q1015=
201904061230 METAR LRBC 061230Z 17014KT CAVOK 14/04 Q1014=
201904061300 METAR LRBC 061300Z 16014KT 130V190 CAVOK 15/04 Q1014=
201904061330 METAR LRBC 061330Z 17014KT 130V190 CAVOK 15/04 Q1014=
201904061400 METAR LRBC 061400Z 17013KT 130V190 CAVOK 15/04 Q1013=
201904061430 METAR LRBC 061430Z 16014KT CAVOK 15/04 Q1013=
201904061500 METAR LRBC 061500Z 16013KT CAVOK 15/04 Q1013=
201904061530 METAR LRBC 061530Z 16011KT CAVOK 15/04 Q1013=
201904061600 METAR LRBC 061600Z 16010KT CAVOK 14/04 Q1013=
201904061630 METAR LRBC 061630Z 15007KT CAVOK 13/03 Q1013=
201904061700 METAR LRBC 061700Z 15008KT CAVOK 12/04 Q1013=
201904061730 METAR LRBC 061730Z 16005KT CAVOK 10/03 Q1013=
201904061800 METAR LRBC 061800Z 17006KT CAVOK 09/03 Q1014=
201904061830 METAR LRBC 061830Z 16007KT CAVOK 09/03 Q1014=
201904061900 METAR LRBC 061900Z 16007KT CAVOK 08/03 Q1014=
201904061930 METAR LRBC 061930Z 15006KT CAVOK 08/03 Q1014=
201904062000 METAR LRBC 062000Z 16008KT CAVOK 08/03 Q1014=
201904062030 METAR LRBC 062030Z 17009KT CAVOK 08/02 Q1014=
201904062100 METAR LRBC 062100Z 17008KT CAVOK 07/02 Q1014=
201904062130 METAR LRBC 062130Z 17008KT CAVOK 07/03 Q1014=
201904062200 METAR LRBC 062200Z 16008KT CAVOK 07/03 Q1013=
201904062230 METAR LRBC 062230Z 18009KT CAVOK 06/02 Q1013=
201904062300 METAR LRBC 062300Z 18009KT CAVOK 06/03 Q1013=
201904062330 METAR LRBC 062330Z AUTO 18009KT 9999 BKN180/// 06/03 Q1012=
201904070000 METAR LRBC 070000Z 17011KT CAVOK 07/03 Q1012=
201904070030 METAR LRBC 070030Z AUTO 17010KT 9999 OVC180/// 07/04 Q1012=
201904070100 METAR LRBC 070100Z 17010KT CAVOK 07/04 Q1012=
201904070130 METAR LRBC 070130Z 17009KT CAVOK 06/04 Q1011=
201904070200 METAR LRBC 070200Z 18009KT CAVOK 06/03 Q1011=
201904070230 METAR LRBC 070230Z 17011KT CAVOK 06/03 Q1011=
201904070300 METAR LRBC 070300Z 17010KT CAVOK 06/03 Q1011=
201904070330 METAR LRBC 070330Z 17010KT CAVOK 05/03 Q1011=
201904070400 METAR LRBC 070400Z 17009KT CAVOK 05/03 Q1011=
201904070430 METAR LRBC 070430Z 17009KT CAVOK 06/03 Q1011=
201904070500 METAR LRBC 070500Z 17008KT CAVOK 06/03 Q1011=
201904070530 METAR LRBC 070530Z 17009KT CAVOK 07/03 Q1011=
201904070600 METAR LRBC 070600Z 17009KT CAVOK 08/03 Q1011=
201904070630 METAR LRBC 070630Z 17010KT CAVOK 09/03 Q1011=
201904070700 METAR LRBC 070700Z 16010KT CAVOK 10/03 Q1011=
201904070730 METAR LRBC 070730Z 16011KT CAVOK 11/03 Q1011=
201904070800 METAR LRBC 070800Z 16014KT CAVOK 12/03 Q1011=
201904070830 METAR LRBC 070830Z 16013KT CAVOK 12/04 Q1011=
201904070900 METAR LRBC 070900Z 16014KT CAVOK 14/04 Q1011=
201904070930 METAR LRBC 070930Z 16016KT CAVOK 15/03 Q1011=
201904071000 METAR LRBC 071000Z 15016KT CAVOK 16/04 Q1011=
201904071030 METAR LRBC 071030Z 15016KT CAVOK 16/04 Q1011=
201904071100 METAR LRBC 071100Z 16016KT CAVOK 19/03 Q1010=
201904071130 METAR LRBC 071130Z 15017KT CAVOK 19/03 Q1010=
201904071200 METAR LRBC 071200Z 15014KT CAVOK 20/04 Q1009=
201904071230 METAR LRBC 071230Z 16018KT CAVOK 19/03 Q1009=
201904071300 METAR LRBC 071300Z 15020KT CAVOK 18/03 Q1009=
201904071330 METAR LRBC 071330Z 16018KT CAVOK 18/02 Q1009=
201904071400 METAR LRBC 071400Z 16013KT CAVOK 19/02 Q1009=
201904071430 METAR LRBC 071430Z 16013KT CAVOK 19/01 Q1009=
201904071500 METAR LRBC 071500Z 16012KT CAVOK 19/01 Q1009=
201904071530 METAR LRBC 071530Z 15011KT CAVOK 19/01 Q1009=
201904071600 METAR LRBC 071600Z 15012KT CAVOK 18/01 Q1009=
201904071630 METAR LRBC 071630Z 15008KT CAVOK 17/01 Q1009=
201904071700 METAR LRBC 071700Z 16006KT CAVOK 15/02 Q1009=
201904071730 METAR COR LRBC 071730Z 16006KT CAVOK 14/03 Q1010=
201904071800 METAR LRBC 071800Z 17008KT CAVOK 14/03 Q1010=
201904071830 METAR LRBC 071830Z 16007KT CAVOK 14/03 Q1010=
201904071900 METAR LRBC 071900Z 17009KT CAVOK 14/02 Q1010=
201904071930 METAR LRBC 071930Z 17007KT CAVOK 14/02 Q1010=
201904072000 METAR LRBC 072000Z 16005KT CAVOK 14/02 Q1010=
201904072030 METAR LRBC 072030Z 17006KT CAVOK 13/02 Q1010=
201904072100 METAR LRBC 072100Z 17004KT CAVOK 13/02 Q1009=
201904072130 METAR LRBC 072130Z 15003KT CAVOK 14/01 Q1009=
201904072200 METAR LRBC 072200Z VRB02KT CAVOK 13/03 Q1009=
201904072230 METAR LRBC 072230Z AUTO 35003KT 330V030 9999 BKN090/// BKN110///
                        12/02 Q1008=
201904072300 METAR LRBC 072300Z 00000KT CAVOK 11/03 Q1008=
201904072330 METAR LRBC 072330Z 00000KT CAVOK 11/02 Q1008=
201904080000 METAR LRBC 080000Z AUTO 00000KT 9999 BKN095/// 12/02 Q1008=
201904080030 METAR LRBC 080030Z 00000KT CAVOK 12/02 Q1008=
201904080100 METAR LRBC 080100Z 15005KT CAVOK 11/03 Q1008=
201904080130 METAR LRBC 080130Z 18007KT 9999 -RA OVC065 11/04 Q1008=
201904080200 METAR LRBC 080200Z 18005KT 9999 SCT065 10/04 Q1007=
201904080230 METAR LRBC 080230Z 17009KT 9999 -RA SCT065 10/05 Q1008=
201904080300 METAR LRBC 080300Z 17007KT 9999 SCT065 09/06 Q1008=
201904080330 METAR LRBC 080330Z 16008KT 9999 FEW065 09/06 Q1008=
201904080400 METAR LRBC 080400Z 16007KT CAVOK 09/06 Q1008=
201904080430 METAR LRBC 080430Z 16007KT CAVOK 09/07 Q1008=
201904080500 METAR LRBC 080500Z 16007KT CAVOK 10/07 Q1008=
201904080530 METAR LRBC 080530Z 16005KT CAVOK 10/08 Q1008=
201904080600 METAR LRBC 080600Z 16004KT CAVOK 11/08 Q1008=
201904080630 METAR LRBC 080630Z 15006KT 9999 FEW015 12/08 Q1008=
201904080700 METAR LRBC 080700Z 14006KT 100V160 9999 SCT015 BKN019 12/08
                        Q1008=
201904080730 METAR LRBC 080730Z 14006KT 100V180 9999 BKN014 OVC020 12/08
                        Q1008=
201904080800 METAR LRBC 080800Z 15006KT 9999 SCT015 BKN022 12/09 Q1009=
201904080830 METAR LRBC 080830Z 12006KT 090V150 9999 SCT015 BKN021 13/08
                        Q1008=
201904080900 METAR LRBC 080900Z 13007KT 100V160 9999 -RA FEW016 BKN023
                        12/09 Q1008=
201904080930 METAR LRBC 080930Z 11005KT 050V150 9999 SCT016 BKN025 13/08
                        Q1008=
201904081000 METAR LRBC 081000Z 14006KT 100V170 9999 -RA SCT018 OVC021
                        13/09 Q1008=
201904081030 METAR LRBC 081030Z 16007KT 9999 -RA FEW019 SCT023 BKN039
                        13/09 Q1008=
201904081100 METAR LRBC 081100Z 15005KT 6000 -SHRA SCT023 BKN042CB 12/10
                        Q1008=
201904081130 METAR LRBC 081130Z 16006KT 120V190 7000 -RA BKN032 BKN055
                        12/10 Q1008 R16/220295=
201904081200 METAR LRBC 081200Z 14005KT 7000 -RA SCT011 BKN031 12/11 Q1008
                        R16/220295=
201904081230 METAR LRBC 081230Z 17007KT 5000 -RA BR SCT009 SCT022 BKN031
                        12/11 Q1008 R16/220295=
201904081300 METAR LRBC 081300Z 16006KT 7000 SCT018 BKN029 12/11 Q1008
                        R16/220295=
201904081330 METAR LRBC 081330Z 17005KT 7000 -RA BKN007 OVC029 12/11 Q1008
                        R16/220295=
201904081400 METAR LRBC 081400Z 18004KT 150V210 5000 -RA BR BKN006 OVC020
                        12/11 Q1008 R16/220295=
201904081430 METAR LRBC 081430Z 17003KT 140V200 5000 -RA BR FEW004 SCT015
                        BKN018 12/11 Q1008 R16/220295=
201904081500 METAR LRBC 081500Z VRB02KT 5000 -RA BR BKN004 BKN015 12/11
                        Q1008 R16/220295=
201904081530 METAR LRBC 081530Z VRB01KT 6000 -RA BKN013 BKN017 12/11 Q1008
                        R16/220295=
201904081600 METAR COR LRBC 081600Z 00000KT 8000 -RA BKN014 BKN019 11/11
                        Q1007 R16/220295=
201904081630 METAR LRBC 081630Z 00000KT 9999 -RA BKN013 11/11 Q1007 R16/220295=
201904081700 METAR LRBC 081700Z 00000KT 5000 -RA BKN012 11/11 Q1007 R16/220295=
201904081730 METAR LRBC 081730Z 00000KT 6000 OVC010 11/11 Q1008 R16/220295=
201904081800 METAR LRBC 081800Z 30001KT 7000 OVC011 11/11 Q1008 R16/220295=
201904081830 METAR LRBC 081830Z 33003KT 5000 BR BKN008 11/11 Q1007 R16/220295=
201904081900 METAR LRBC 081900Z 35003KT 6000 BKN006 OVC008 11/11 Q1008
                        R16/220295=
201904081930 METAR LRBC 081930Z 34003KT 3000 BR OVC007 11/11 Q1007 R16/220295=
201904082000 METAR LRBC 082000Z 34003KT 2000 BR FEW002 OVC008 11/11 Q1007
                        R16/220295=
201904082030 METAR LRBC 082030Z 35003KT 2500 BR FEW003 OVC006 11/11 Q1007
                        R16/220295=
201904082100 METAR LRBC 082100Z 33003KT 1500 BR OVC004 11/11 Q1007 R16/220295=
201904082130 METAR LRBC 082130Z 31003KT 1500 -RA BR OVC002 11/11 Q1007
                        R16/220295=
201904082200 METAR LRBC 082200Z 31003KT 2000 -RA VV002 11/11 Q1007 R16/220295=
201904082230 METAR LRBC 082230Z 34004KT 3000 -RA BR OVC005 11/11 Q1007
                        R16/220295=
201904082300 METAR LRBC 082300Z 36003KT 4000 -RA BR OVC006 11/11 Q1007
                        R16/220295=
201904082330 METAR LRBC 082330Z 31003KT 5000 BR BKN002 OVC004 11/11 Q1006
                        R16/220295=
201904090000 METAR LRBC 090000Z 33004KT 5000 OVC002 11/11 Q1006 R16/220295=
201904090030 METAR LRBC 090030Z AUTO 35003KT 4300 -RA BKN002/// OVC011///
                        ///// Q1006=
201904090100 METAR LRBC 090100Z 34002KT 5000 -RA SCT002 OVC010 11/11 Q1006
                        R16/220295=
201904090130 METAR LRBC 090130Z AUTO 35002KT 5000 SCT002/// BKN004///
                        BKN008/// ///// Q1006 REDZ=
201904090200 METAR COR LRBC 090200Z 00000KT 3500 BR BKN003 11/11 Q1006
                        R16/220295=
201904090230 METAR LRBC 090230Z AUTO 31003KT 3900 BR SCT003/// BKN005///
                        BKN009/// ///// Q1006=
201904090300 METAR COR LRBC 090300Z VRB02KT 3500 BR SCT004 BKN049 11/11
                        Q1006 R16/220295=
201904090330 METAR LRBC 090330Z 06001KT 3000 BR BKN003 OVC048 11/11 Q1006
                        R16/220295=
201904090400 METAR LRBC 090400Z 03002KT 2000 BR SCT003 BKN007 11/11 Q1006
                        R16/220295=
201904090430 METAR LRBC 090430Z 03002KT 2000 BR SCT003 BKN007 11/11 Q1006
                        R16/220295=
201904090500 METAR LRBC 090500Z VRB02KT 2000 BR SCT003 BKN009 12/12 Q1006
                        R16/220295=
201904090530 METAR LRBC 090530Z 32004KT 4800 BR FEW004 SCT006 BKN008 12/12
                        Q1006 R16/220295=
201904090600 METAR LRBC 090600Z 33004KT 7000 FEW011 SCT014 12/12 Q1006
                        R16/220295=
201904090630 METAR LRBC 090630Z 35003KT 320V020 9999 FEW014 13/11 Q1006
                        R16/220295=
201904090700 METAR LRBC 090700Z 31003KT 270V350 9999 FEW011 SCT050 14/11
                        Q1006 R16/220295=
201904090730 METAR LRBC 090730Z 36004KT 300V060 9999 BKN049 14/11 Q1006
                        R16/220295=
201904090800 METAR LRBC 090800Z 05003KT 290V090 9999 BKN049 15/11 Q1006
                        R16/220295=
201904090830 METAR LRBC 090830Z VRB02KT 9999 BKN048 16/10 Q1006 R16/220295=
201904090900 METAR LRBC 090900Z AUTO 33004KT 270V040 9999 BKN050/// 17/09
                        Q1006=
201904090930 METAR LRBC 090930Z VRB02KT 9999 SCT055 17/07 Q1006 R16/CLRD//=
201904091000 METAR LRBC 091000Z 24004KT 190V270 9999 FEW055 18/08 Q1006=
201904091030 METAR LRBC 091030Z 19004KT 140V250 9999 FEW055 19/08 Q1006=
201904091100 METAR LRBC 091100Z 19006KT 140V250 9999 FEW043 19/08 Q1006=
201904091130 METAR LRBC 091130Z 16007KT 120V210 9999 FEW043 19/08 Q1006=
201904091200 METAR LRBC 091200Z VRB02KT 9999 FEW050 20/07 Q1005=
201904091230 METAR LRBC 091230Z VRB01KT 9999 SCT065 19/07 Q1005=
201904091300 METAR LRBC 091300Z VRB01KT 9999 SCT065 19/07 Q1005=
201904091330 METAR LRBC 091330Z 19004KT 9999 SCT066 19/07 Q1005=
201904091400 METAR LRBC 091400Z VRB02KT 9999 SCT065 19/08 Q1005=
201904091430 METAR LRBC 091430Z 17004KT 9999 SCT065 19/08 Q1005=
201904091500 METAR LRBC 091500Z 17005KT 9999 BKN065 18/09 Q1005=
201904091530 METAR LRBC 091530Z 00000KT 9999 FEW039 BKN060 18/07 Q1005=
201904091600 METAR LRBC 091600Z 00000KT 9999 FEW039 18/09 Q1005=
201904091630 METAR LRBC 091630Z 15003KT 9999 FEW060 17/09 Q1005=
201904091700 METAR LRBC 091700Z 16007KT CAVOK 15/06 Q1006=
201904091730 METAR LRBC 091730Z 21004KT CAVOK 15/07 Q1006=
201904091800 METAR LRBC 091800Z 24004KT CAVOK 15/07 Q1006=
201904091830 METAR LRBC 091830Z 31003KT CAVOK 13/09 Q1006=
201904091900 METAR LRBC 091900Z 36004KT CAVOK 13/08 Q1006=
201904091930 METAR LRBC 091930Z 01003KT CAVOK 13/08 Q1006=
201904092000 METAR LRBC 092000Z 01003KT CAVOK 13/08 Q1006=
201904092030 METAR LRBC 092030Z 02003KT CAVOK 13/08 Q1006=
201904092100 METAR LRBC 092100Z 33005KT CAVOK 11/08 Q1006=
201904092130 METAR LRBC 092130Z 36004KT CAVOK 12/09 Q1006=
201904092200 METAR LRBC 092200Z AUTO 01003KT 9999 BKN100/// 12/09 Q1006=
201904092230 METAR LRBC 092230Z AUTO 03004KT 9999 FEW090/// BKN100///
                        12/09 Q1006=
201904092300 METAR LRBC 092300Z 02005KT CAVOK 12/09 Q1006=
201904092330 METAR LRBC 092330Z 01005KT 9999 SCT055 12/08 Q1006=
201904100000 METAR LRBC 100000Z 36005KT 9999 FEW055 11/08 Q1006=
201904100030 METAR LRBC 100030Z 01005KT 9999 FEW055 11/08 Q1006=
201904100100 METAR LRBC 100100Z 02004KT 9999 FEW060 10/08 Q1006=
201904100130 METAR LRBC 100130Z 03004KT 9999 FEW060 10/08 Q1006=
201904100200 METAR LRBC 100200Z 03005KT CAVOK 10/08 Q1006=
201904100230 METAR LRBC 100230Z 02005KT CAVOK 10/08 Q1006=
201904100300 METAR LRBC 100300Z 05004KT CAVOK 10/08 Q1006=
201904100330 METAR LRBC 100330Z 03003KT CAVOK 10/08 Q1007=
201904100400 METAR LRBC 100400Z 01005KT CAVOK 11/09 Q1007=
201904100430 METAR LRBC 100430Z 36006KT CAVOK 11/09 Q1007=
201904100500 METAR LRBC 100500Z 36006KT CAVOK 12/10 Q1007=
201904100530 METAR LRBC 100530Z 36006KT 330V030 CAVOK 13/10 Q1007=
201904100600 METAR LRBC 100600Z 36010KT CAVOK 15/11 Q1007=
201904100630 METAR LRBC 100630Z 35012KT CAVOK 15/11 Q1007=
201904100700 METAR LRBC 100700Z 35011KT 320V020 9999 FEW060 15/11 Q1007=
201904100730 METAR LRBC 100730Z 35011KT 9999 FEW060 16/11 Q1007=
201904100800 METAR LRBC 100800Z 36012KT 320V030 9999 SCT060 18/11 Q1007=
201904100830 METAR LRBC 100830Z 35013KT 9999 FEW060 19/11 Q1007=
201904100900 METAR LRBC 100900Z 36012KT 330V030 CAVOK 19/10 Q1007=
201904100930 METAR LRBC 100930Z 36012KT 330V030 CAVOK 19/10 Q1007=
201904101000 METAR COR LRBC 101000Z 35014KT 320V020 CAVOK 20/11 Q1007=
201904101030 METAR LRBC 101030Z 34014KT 320V020 9999 FEW040 21/10 Q1006=
201904101100 METAR LRBC 101100Z 35014KT 320V030 9999 FEW055 20/10 Q1006=
201904101130 METAR LRBC 101130Z 36012KT 340V040 9999 SCT060 20/09 Q1006=
201904101200 METAR LRBC 101200Z 35012KT 330V030 9999 BKN065 20/09 Q1006=
201904101230 METAR COR LRBC 101230Z 35012KT 320V020 9999 BKN065 20/09
                        Q1006=
201904101300 METAR LRBC 101300Z 01010KT 340V040 9999 BKN060 21/07 Q1006=
201904101330 METAR LRBC 101330Z 01008KT 340V050 9999 SCT065 21/07 Q1006=
201904101400 METAR LRBC 101400Z 36011KT 330V040 9999 FEW065 21/08 Q1006=
201904101430 METAR LRBC 101430Z 36008KT 330V040 9999 FEW065 21/08 Q1005=
201904101500 METAR LRBC 101500Z 02006KT 350V060 9999 BKN065 21/07 Q1005=
201904101530 METAR LRBC 101530Z 34014KT 9999 BKN065 20/08 Q1005=
201904101600 METAR LRBC 101600Z 35010KT 9999 BKN065 19/08 Q1005=
201904101630 METAR LRBC 101630Z 34011KT 9999 BKN065 18/08 Q1006=
201904101700 METAR LRBC 101700Z 34014KT 9999 SCT065 18/08 Q1006=
201904101730 METAR LRBC 101730Z 33010KT 9999 FEW065 16/09 Q1006=
201904101800 METAR LRBC 101800Z 01005KT 9999 FEW065 16/09 Q1007=
201904101830 METAR LRBC 101830Z 35008KT 9999 FEW065 16/09 Q1007=
201904101900 METAR LRBC 101900Z 35006KT 9999 FEW065 15/09 Q1007=
201904101930 METAR LRBC 101930Z VRB02KT 9999 SCT065 15/10 Q1007=
201904102000 METAR LRBC 102000Z VRB02KT 9999 SCT065 15/10 Q1007=
201904102030 METAR LRBC 102030Z 34007KT 9999 SCT065 15/10 Q1007=
201904102100 METAR LRBC 102100Z 35010KT 9999 FEW065 15/10 Q1007=
201904102130 METAR LRBC 102130Z 36011KT 9999 FEW031 15/10 Q1007=
201904102200 METAR LRBC 102200Z 36012KT 9999 FEW027 BKN033 15/10 Q1007=
201904102230 METAR LRBC 102230Z 35014KT 9999 -RA BKN025 BKN036 13/10 Q1008=
201904102300 METAR LRBC 102300Z 33015KT 7000 RA SCT022 BKN060 12/11 Q1007=
201904102330 METAR LRBC 102330Z 35012KT 7000 RA FEW043 BKN055 12/11 Q1007=
201904110000 METAR LRBC 110000Z 34014KT 6000 RA FEW012 BKN055 12/11 Q1007=
201904110030 METAR LRBC 110030Z 34015KT 6000 -RA FEW012 BKN060 12/11 Q1007=
201904110100 METAR LRBC 110100Z 34013KT 5000 RA FEW017 BKN024 BKN060 12/11
                        Q1007=
201904110130 METAR LRBC 110130Z 35011KT 6000 RA SCT018 BKN026 BKN060 12/11
                        Q1007=
201904110200 METAR LRBC 110200Z 01009KT 5000 RA BR BKN010 BKN013 12/11
                        Q1007=
201904110230 METAR LRBC 110230Z 36011KT 330V030 5000 RA SCT006 BKN013
                        11/11 Q1007=
201904110300 METAR LRBC 110300Z AUTO 05005KT 350V100 3900 RA SCT003///
                        BKN007/// 11/11 Q1007=
201904110330 METAR LRBC 110330Z 36003KT 4700 -RA FEW004 SCT007 BKN014
                        11/11 Q1007 RERA=
201904110400 METAR LRBC 110400Z 02004KT 4000 -RA BR SCT013 BKN023 11/11
                        Q1007 R16/250395=
201904110430 METAR LRBC 110430Z 02005KT 5000 -RA BR SCT011 OVC024 12/12
                        Q1008 R16/250395=
201904110500 METAR LRBC 110500Z 36005KT 5000 -RA BR SCT008 BKN022 12/12
                        Q1008 R16/250395=
201904110530 METAR LRBC 110530Z 34009KT 5000 BR SCT004 BKN023 11/11 Q1008
                        R16/250395=
201904110600 METAR LRBC 110600Z 35008KT 5000 BR SCT004 BKN022 12/11 Q1008
                        R16/250395=
201904110630 METAR LRBC 110630Z 35008KT 5000 BR SCT008 BKN013 12/11 Q1009
                        R16/250395=
201904110700 METAR LRBC 110700Z 35009KT 5000 BR FEW005 BKN010 12/12 Q1009
                        R16/250395=
201904110730 METAR LRBC 110730Z 35011KT 8000 SCT007 BKN037 12/11 Q1009
                        R16/250395=
201904110800 METAR LRBC 110800Z 34012KT 8000 SCT006 BKN040 12/11 Q1009
                        R16/250395=
201904110830 METAR LRBC 110830Z 34011KT 8000 SCT010 BKN017 12/11 Q1009
                        R16/250395=
201904110900 METAR LRBC 110900Z 34011KT 8000 -RA SCT008 BKN022 12/11 Q1009
                        R16/250395=
201904110930 METAR LRBC 110930Z 34010KT 5000 -RA FEW008 BKN011 12/11 Q1009
                        R16/250395=
201904111000 METAR LRBC 111000Z 35009KT 8000 -RA BKN010 BKN041 12/11 Q1010
                        R16/220295=
201904111030 METAR LRBC 111030Z 34011KT 9999 SCT007 BKN020 12/11 Q1010
                        R16/220295=
201904111100 METAR LRBC 111100Z 35012KT 9999 FEW008 BKN013 12/11 Q1010
                        R16/15//95=
201904111130 METAR LRBC 111130Z 34011KT 8000 BKN010 BKN016 12/11 Q1010
                        R16/15//95=
201904111200 METAR LRBC 111200Z 35012KT 9999 -DZ BKN010 OVC017 12/10 Q1010
                        R16/11//95=
201904111230 METAR LRBC 111230Z 35011KT 9999 -RA FEW009 BKN011 12/10 Q1010
                        R16/11//95=
201904111300 METAR LRBC 111300Z 34013KT 9999 -RA OVC011 12/10 Q1010 R16/11//95=
201904111330 METAR LRBC 111330Z 35010KT 9999 OVC010 11/10 Q1010 R16/11//95=
201904111400 METAR LRBC 111400Z 34010KT 9999 OVC010 11/09 Q1011 R16/11//95=
201904111430 METAR LRBC 111430Z 34009KT 9999 -RA BKN010 OVC013 11/10 Q1011
                        R16/11//95=
201904111500 METAR LRBC 111500Z 35011KT 9999 -RA BKN011 11/10 Q1010 R16/19//95=
201904111530 METAR LRBC 111530Z 35011KT 7000 -RA OVC009 11/10 Q1010 R16/19//95=
201904111600 METAR LRBC 111600Z 34012KT 6000 -RA FEW008 BKN011 10/09 Q1010
                        R16/19//95=
201904111630 METAR LRBC 111630Z 34013KT 7000 -RA BKN012 OVC015 10/09 Q1011
                        R16/19//95=
201904111700 METAR LRBC 111700Z 34012KT 7000 -RA BKN013 10/09 Q1011 R16/19//95=
201904111730 METAR LRBC 111730Z 34012KT 6000 -RA BKN013 BKN016 10/09 Q1011
                        R16/19//95=
201904111800 METAR LRBC 111800Z 35012KT 8000 DZ FEW012 BKN015 09/08 Q1012
                        R16/19//95=
201904111830 METAR LRBC 111830Z 34011KT 8000 FEW011 BKN018 09/08 Q1012
                        REDZ R16/19//95=
201904111900 METAR LRBC 111900Z 34010KT 8000 FEW011 SCT017 BKN022 09/08
                        Q1012 R16/19//95=
201904111930 METAR LRBC 111930Z 33009KT 9000 FEW013 BKN017 09/08 Q1012
                        R16/19//95=
201904112000 METAR LRBC 112000Z 33007KT 8000 BKN017 09/08 Q1012 R16/19//95=
201904112030 METAR LRBC 112030Z 35004KT 330V030 9000 FEW013 BKN019 09/08
                        Q1012 R16/19//95=
201904112100 METAR LRBC 112100Z 01005KT 340V040 7000 DZ SCT011 BKN015
                        09/08 Q1012 R16/19//95=
201904112130 METAR LRBC 112130Z 34008KT 6000 -RA BKN021 09/08 Q1012 R16/19//95=
201904112200 METAR LRBC 112200Z 34007KT 6000 SCT017 BKN020 09/08 Q1012
                        R16/19//95=
201904112230 METAR LRBC 112230Z 32009KT 6000 BKN016 BKN019 09/08 Q1012
                        R16/19//95=
201904112300 METAR LRBC 112300Z 34006KT 7000 BKN016 BKN019 09/08 Q1012
                        R16/19//95=
201904112330 METAR LRBC 112330Z AUTO 33008KT 7000 UP SCT016/// OVC019///
                        09/08 Q1012=
201904120000 METAR LRBC 120000Z 35006KT 9000 SCT016 BKN019 09/08 Q1012
                        R16/19//95=
201904120030 METAR LRBC 120030Z AUTO 35008KT 330V030 9999 OVC013/// 09/08
                        Q1012 REUP=
201904120100 METAR LRBC 120100Z 36008KT 9999 OVC012 09/08 Q1012 R16/19//95=
201904120130 METAR LRBC 120130Z 36008KT 330V030 9999 BKN012 09/08 Q1012
                        R16/19//95=
201904120200 METAR LRBC 120200Z 36008KT 9000 -DZ FEW008 OVC012 09/08 Q1012
                        R16/19//95=
201904120230 METAR LRBC 120230Z 35010KT 9000 -DZ BKN012 OVC015 09/08 Q1012
                        R16/19//95=
201904120300 METAR LRBC 120300Z 36008KT 9999 -DZ SCT010 OVC013 09/08 Q1013
                        R16/19//95=
201904120330 METAR LRBC 120330Z 36010KT 6000 -DZ BKN011 OVC014 09/08 Q1013
                        R16/19//95=
201904120400 METAR LRBC 120400Z 36008KT 6000 RA BKN013 BKN017 09/08 Q1013
                        R16/19//95=
201904120430 METAR LRBC 120430Z 35010KT 6000 RA SCT013 OVC017 08/08 Q1013
                        R16/ 210195=
201904120500 METAR LRBC 120500Z 34010KT 6000 -RA FEW012 BKN015 OVC018
                        09/08 Q1013 RERA R16/ 210195=
201904120530 METAR COR LRBC 120530Z 34011KT 6000 -RADZ BKN013 OVC016 08/08
                        Q1013 R16/210195=
201904120600 METAR LRBC 120600Z 34009KT 6000 -DZ BKN012 OVC015 08/07 Q1013
                        R16/210195=
201904120630 METAR LRBC 120630Z 34010KT 6000 -RA OVC012 08/07 Q1013 R16/210195=
201904120700 METAR LRBC 120700Z 34011KT 9999 OVC013 09/07 Q1014 R16/210195=
201904120730 METAR LRBC 120730Z 35013KT 9999 BKN011 BKN024 09/07 Q1014
                        R16/210195=
201904120800 METAR LRBC 120800Z 35012KT 9999 OVC014 09/07 Q1014 R16/210195=
201904120830 METAR LRBC 120830Z 35013KT 330V030 9999 BKN013 OVC016 09/07
                        Q1014 R16/210195=
201904120900 METAR LRBC 120900Z 35012KT 9999 SCT013 OVC016 09/07 Q1014
                        R16/210195=
201904120930 METAR LRBC 120930Z 34012KT 9999 BKN011 BKN014 08/07 Q1015
                        R16/19//95=
201904121000 METAR LRBC 121000Z 35013KT 9999 SCT010 BKN019 09/07 Q1015
                        R16/19//95=
201904121030 METAR LRBC 121030Z 35012KT 9999 BKN011 BKN022 09/07 Q1015
                        R16/19//95=
201904121100 METAR LRBC 121100Z 35012KT 9999 OVC013 09/06 Q1015 R16/19//95=
201904121130 METAR LRBC 121130Z 35012KT 330V030 9999 BKN012 BKN015 09/06
                        Q1015 R16/CLRD//=
201904121200 METAR LRBC 121200Z 35011KT 330V030 9999 OVC014 09/06 Q1015=
201904121230 METAR LRBC 121230Z 01010KT 330V040 9999 SCT014 BKN018 09/06
                        Q1015=
201904121300 METAR LRBC 121300Z 36008KT 340V040 9999 SCT014 OVC023 09/06
                        Q1015=
201904121330 METAR LRBC 121330Z 36008KT 330V040 9999 BKN014 BKN017 09/06
                        Q1015=
201904121400 METAR LRBC 121400Z 36008KT 340V040 9999 BKN016 BKN023 09/06
                        Q1015=
201904121430 METAR LRBC 121430Z 36010KT 330V040 9999 SCT014 BKN017 09/06
                        Q1015=
201904121500 METAR LRBC 121500Z 01009KT 9999 SCT013 OVC026 09/06 Q1015=
201904121530 METAR LRBC 121530Z 36009KT 9999 SCT014 BKN028 09/06 Q1015=
201904121600 METAR LRBC 121600Z 36011KT 9999 FEW014 OVC028 08/06 Q1015=
201904121630 METAR LRBC 121630Z 36010KT 9999 OVC028 08/06 Q1015=
201904121700 METAR LRBC 121700Z 36012KT 9999 SCT016 BKN028 08/05 Q1015=
201904121730 METAR LRBC 121730Z 35012KT 9999 BKN016 OVC019 08/05 Q1016=
201904121800 METAR LRBC 121800Z 34011KT 9999 SCT014 OVC017 08/05 Q1016=
201904121830 METAR LRBC 121830Z 35012KT 9999 SCT014 OVC020 07/05 Q1017=
201904121900 METAR LRBC 121900Z 35013KT 9999 FEW014 BKN021 07/05 Q1017=
201904121930 METAR LRBC 121930Z 34008KT 9999 BKN014 OVC022 07/05 Q1017=
201904122000 METAR LRBC 122000Z 33010KT 9999 BKN012 OVC017 07/05 Q1017=
201904122030 METAR LRBC 122030Z 33012KT 9999 BKN013 OVC016 07/05 Q1017=
201904122100 METAR LRBC 122100Z 34012KT 9999 OVC012 07/05 Q1016=
201904122130 METAR LRBC 122130Z 33010KT 9999 OVC012 07/05 Q1016=
201904122200 METAR LRBC 122200Z 33008KT 9999 BKN015 07/05 Q1016=
201904122230 METAR LRBC 122230Z 34009KT 9999 OVC017 07/05 Q1016=
201904122300 METAR LRBC 122300Z 34009KT 9999 OVC017 07/05 Q1016=
201904122330 METAR LRBC 122330Z 34010KT 9999 OVC017 08/05 Q1016=
201904130000 METAR LRBC 130000Z AUTO 34010KT 8000 OVC016/// 08/05 Q1016=
201904130030 METAR LRBC 130030Z AUTO 33010KT 8000 SCT017/// OVC020///
                        08/05 Q1016=
201904130100 METAR LRBC 130100Z AUTO 34009KT 8000 FEW015/// OVC022///
                        08/05 Q1016=
201904130130 METAR LRBC 130130Z 34009KT 9999 BKN016 08/05 Q1016=
201904130200 METAR COR LRBC 130200Z 34009KT 9999 OVC014 08/06 Q1016=
201904130230 METAR LRBC 130230Z 34012KT 9999 OVC015 08/06 Q1016=
201904130300 METAR LRBC 130300Z 34011KT 9999 BKN011 08/06 Q1015=
201904130330 METAR LRBC 130330Z 34012KT 9999 OVC014 08/06 Q1015=
201904130400 METAR LRBC 130400Z 34014KT 9999 BKN011 BKN025 08/06 Q1015=
201904130430 METAR LRBC 130430Z 34012KT 9999 OVC011 08/06 Q1016=
201904130500 METAR LRBC 130500Z 34010KT 9999 OVC011 08/06 Q1016=
201904130530 METAR LRBC 130530Z 35012KT 9999 OVC012 08/06 Q1016=
201904130600 METAR LRBC 130600Z 34012KT 9999 OVC012 08/06 Q1016=
201904130630 METAR LRBC 130630Z 35012KT 9999 BKN011 OVC014 08/06 Q1016=
201904130700 METAR LRBC 130700Z 35012KT 320V020 9999 BKN010 OVC014 08/06
                        Q1016=
201904130730 METAR LRBC 130730Z 35012KT 9999 BKN009 OVC012 08/06 Q1016=
201904130800 METAR LRBC 130800Z 35011KT 9999 BKN012 OVC016 08/06 Q1016=
201904130830 METAR LRBC 130830Z 35013KT 9999 -DZ BKN011 OVC015 09/07 Q1016=
201904130900 METAR LRBC 130900Z 35012KT 9999 OVC011 09/07 Q1016=
201904130930 METAR LRBC 130930Z 35009KT 8000 -RA SCT010 OVC013 09/07 Q1016=
201904131000 METAR LRBC 131000Z 35010KT 9000 -DZ BKN009 BKN016 09/07 Q1016
                        R16/19//95=
201904131030 METAR LRBC 131030Z 34012KT 9999 FEW011 BKN015 09/07 Q1016
                        R16/19//95=
201904131100 METAR LRBC 131100Z 35010KT 9999 -RA FEW011 SCT014 OVC018
                        09/07 Q1016 R16/19//95=
201904131130 METAR LRBC 131130Z 35010KT 9000 -RA BKN011 BKN019 09/07 Q1016
                        R16/19//95=
201904131200 METAR LRBC 131200Z 34012KT 8000 -RA FEW010 BKN019 OVC022
                        09/08 Q1016 R16/19//95=
201904131230 METAR LRBC 131230Z 36010KT 8000 -RA FEW007 BKN011 BKN019
                        09/07 Q1016 R16/19//95=
201904131300 METAR LRBC 131300Z 36011KT 8000 -RA SCT007 OVC017 09/08 Q1016
                        R16/19//95=
201904131330 METAR LRBC 131330Z 36009KT 6000 RA SCT007 BKN013 09/08 Q1016
                        R16/220295=
201904131400 METAR LRBC 131400Z 35010KT 6000 RA FEW008 BKN015 OVC022 09/08
                        Q1016 R16/220295=
201904131430 METAR LRBC 131430Z 36010KT 7000 RA SCT009 BKN021 09/08 Q1016
                        R16/220295=
201904131500 METAR LRBC 131500Z 35012KT 6000 RA SCT008 OVC024 09/08 Q1016
                        R16/220295=
201904131530 METAR LRBC 131530Z 35011KT 7000 RA SCT007 BKN025 09/08 Q1016
                        R16/220295=
201904131600 METAR LRBC 131600Z 34010KT 6000 -RA BKN007 BKN016 08/08 Q1016
                        R16/220295=
201904131630 METAR LRBC 131630Z 35011KT 6000 -RADZ BKN007 BKN033 08/08
                        Q1016 R16/220295=
201904131700 METAR LRBC 131700Z 35011KT 8000 -RA BKN007 BKN036 08/08 Q1016
                        R16/220295=
201904131730 METAR LRBC 131730Z 34012KT 8000 -RA SCT007 BKN037 08/07 Q1016
                        R16/220295=
201904131800 METAR LRBC 131800Z 35010KT 8000 -RA BKN008 BKN028 08/07 Q1017
                        R16/220295=
201904131830 METAR LRBC 131830Z 35011KT 8000 -RA BKN007 BKN029 08/07 Q1017
                        R16/220295=
201904131900 METAR LRBC 131900Z 35010KT 7000 -RA BKN007 BKN027 08/07 Q1017
                        R16/220295=
201904131930 METAR LRBC 131930Z 35009KT 7000 -RA BKN007 BKN028 08/07 Q1017
                        R16/220295=
201904132000 METAR LRBC 132000Z 35009KT 7000 -RA BKN008 BKN025 08/07 Q1017
                        R16/220295=
201904132030 METAR LRBC 132030Z 35007KT 8000 -RA BKN005 BKN034 08/07 Q1017
                        R16/220295=
201904132100 METAR LRBC 132100Z 34008KT 8000 -RA OVC024 08/07 Q1017 R16/220295=
201904132130 METAR LRBC 132130Z 34009KT 7000 -RA FEW005 BKN023 08/07 Q1017
                        R16/220295=
201904132200 METAR LRBC 132200Z 33008KT 7000 -RA FEW006 OVC033 07/07 Q1017
                        R16/220295=
201904132230 METAR LRBC 132230Z AUTO 34009KT 6000 -SHRA SCT007/// BKN028///
                        BKN037/// 07/07 Q1017=
201904132300 METAR LRBC 132300Z AUTO 34007KT 6000 -RA FEW005/// BKN007///
                        BKN022/// 07/07 Q1016=
201904132330 METAR LRBC 132330Z 35009KT 5000 -RA BR BKN005 BKN013 07/07
                        Q1016 R16/220295=
201904140000 METAR LRBC 140000Z 35009KT 5000 BR BKN006 BKN014 07/07 Q1016
                        R16/220295=
201904140030 METAR LRBC 140030Z 34011KT 6000 FEW006 SCT013 BKN018 07/06
                        Q1015 R16/220295=
201904140100 METAR LRBC 140100Z 35009KT 7000 -RA FEW006 BKN018 07/06 Q1015
                        R16/220295=
201904140130 METAR LRBC 140130Z 35009KT 7000 FEW012 BKN015 07/06 Q1016
                        R16/220295=
201904140200 METAR LRBC 140200Z 34008KT 6000 -RA BKN009 BKN015 07/06 Q1016
                        R16/220295=
201904140230 METAR LRBC 140230Z 35007KT 4000 -RADZ BR BKN007 OVC013 07/06
                        Q1015 R16/220295=
201904140300 METAR LRBC 140300Z 35008KT 4000 -RADZ BR BKN007 OVC013 07/06
                        Q1015 R16/220295=
201904140330 METAR LRBC 140330Z 35007KT 2500 -RADZ BR FEW005 SCT007 BKN010
                        06/06 Q1016 R16/220295=
201904140400 METAR LRBC 140400Z 35009KT 2500 -RADZ BR BKN005 OVC013 06/06
                        Q1016 R16/250395=
201904140430 METAR LRBC 140430Z 35009KT 3000 -RA BR BKN007 BKN019 07/06
                        Q1016 R16/250395=
201904140500 METAR LRBC 140500Z 35010KT 4000 -RA BR BKN008 OVC017 07/06
                        Q1016 R16/250395=
201904140530 METAR LRBC 140530Z 35013KT 4000 -RA BR FEW007 OVC013 07/06
                        Q1016 R16/250395=
201904140600 METAR LRBC 140600Z 34012KT 6000 SCT014 OVC017 07/06 Q1016
                        R16/250395=
201904140630 METAR LRBC 140630Z 34011KT 8000 SCT014 BKN017 OVC020 07/06
                        Q1016 R16/250395=
201904140700 METAR LRBC 140700Z 34010KT 9999 BKN013 OVC016 07/06 Q1016
                        R16/250395=
201904140730 METAR LRBC 140730Z 34014KT 9999 BKN013 OVC016 07/06 Q1016
                        R16/250395=
201904140800 METAR LRBC 140800Z 35013KT 9999 -RA BKN011 07/06 Q1016 R16/250395=
201904140830 METAR LRBC 140830Z 35012KT 6000 DZ SCT012 BKN016 07/06 Q1016
                        R16/250395=
201904140900 METAR LRBC 140900Z 35013KT 5000 RA BR FEW009 SCT011 BKN015
                        07/06 Q1016 R16/250395=
201904140930 METAR LRBC 140930Z 35014KT 5000 -RA BR FEW009 SCT019 BKN023
                        07/07 Q1016 RERA R16/250395=
201904141000 METAR LRBC 141000Z 35014KT 7000 -DZ FEW007 SCT020 BKN026
                        07/06 Q1016 R16/250395=
201904141030 METAR LRBC 141030Z 34015KT 8000 -DZ FEW012 BKN020 BKN033
                        08/06 Q1016 R16/250395=
201904141100 METAR LRBC 141100Z 34014KT 8000 -DZ SCT015 BKN018 07/06 Q1016
                        R16/250395=
201904141130 METAR LRBC 141130Z 34012KT 8000 -DZ FEW011 BKN020 08/06 Q1017
                        R16/250395=
201904141200 METAR LRBC 141200Z 34012KT 9999 FEW016 SCT022 BKN026 08/06
                        Q1016 R16/250395=
201904141230 METAR LRBC 141230Z 34011KT 9999 SCT024 OVC028 09/06 Q1016
                        R16/250395=
201904141300 METAR COR LRBC 141300Z 35008KT 9999 SCT019 BKN023 BKN027
                        09/07 Q1016 R16/250395=
201904141330 METAR LRBC 141330Z 34010KT 9999 SCT022 BKN031 BKN039 09/06
                        Q1016 R16/250395=
201904141400 METAR LRBC 141400Z 36006KT 9999 -DZ SCT027 BKN031 BKN039
                        09/06 Q1016 R16/250395=
201904141430 METAR LRBC 141430Z 33007KT 9999 FEW036 BKN049 09/07 Q1016
                        R16/250395=
201904141500 METAR LRBC 141500Z 33008KT 9999 FEW044 BKN055 10/07 Q1016
                        R16/250395=
201904141530 METAR LRBC 141530Z 34007KT 9999 FEW044 BKN050 10/07 Q1016
                        R16/250395=
201904141600 METAR LRBC 141600Z 34007KT 9999 FEW050 BKN065 09/07 Q1016
                        R16/250395=
201904141630 METAR LRBC 141630Z 33005KT 9999 BKN065 BKN100 09/07 Q1016
                        R16/250395=
201904141700 METAR LRBC 141700Z 34006KT 9999 BKN065 09/07 Q1017 R16/250395=
201904141730 METAR LRBC 141730Z 34007KT 9999 BKN050 09/06 Q1017 R16/250395=
201904141800 METAR LRBC 141800Z 34008KT 9999 FEW065 09/06 Q1017 R16/15//95=
201904141830 METAR LRBC 141830Z 34008KT 9999 FEW065 09/05 Q1017 R16/15//95=
201904141900 METAR LRBC 141900Z 34007KT 9999 FEW055 08/05 Q1017 R16/15//95=
201904141930 METAR LRBC 141930Z 34008KT 9999 FEW055 08/05 Q1017 R16/15//95=
201904142000 METAR LRBC 142000Z 33008KT 9999 FEW055 08/05 Q1017 R16/15//95=
201904142030 METAR LRBC 142030Z 33007KT 9999 FEW060 07/05 Q1018 R16/15//95=
201904142100 METAR LRBC 142100Z 33006KT 9999 BKN060 07/05 Q1018 R16/15//95=
201904142130 METAR LRBC 142130Z 34005KT 9999 FEW060 07/05 Q1018 R16/15//95=
201904142200 METAR LRBC 142200Z 34007KT 9999 FEW045 07/05 Q1018 R16/15//95=
201904142230 METAR LRBC 142230Z 33006KT 9999 FEW041 07/05 Q1018 R16/15//95=
201904142300 METAR LRBC 142300Z 33007KT 9999 BKN040 07/05 Q1018 R16/15//95=
201904142330 METAR LRBC 142330Z 34007KT 9999 FEW042 06/05 Q1018 R16/15//95=
201904150000 METAR LRBC 150000Z AUTO 34009KT 9999 BKN065/// BKN110///
                        07/04 Q1018=
201904150030 METAR LRBC 150030Z 35010KT 9999 BKN060 07/03 Q1018 R16/15//95=
201904150100 METAR LRBC 150100Z AUTO 34010KT 9999 BKN060/// BKN110///
                        06/03 Q1018=
201904150130 METAR LRBC 150130Z 34011KT 9999 SCT065 05/02 Q1018 R16/15//95=
201904150200 METAR LRBC 150200Z 34010KT 9999 FEW065 05/01 Q1018 R16/15//95=
201904150230 METAR LRBC 150230Z 33010KT 9999 FEW065 04/01 Q1019 R16/15//95=
201904150300 METAR LRBC 150300Z 34010KT 9999 FEW065 04/01 Q1019 R16/15//95=
201904150330 METAR LRBC 150330Z 35011KT CAVOK 05/01 Q1019 R16/CLRD//=
201904150400 METAR LRBC 150400Z 34011KT CAVOK 05/01 Q1019=
201904150430 METAR LRBC 150430Z 34011KT CAVOK 05/01 Q1019=
201904150500 METAR LRBC 150500Z 34011KT CAVOK 05/01 Q1020=
201904150530 METAR LRBC 150530Z 35012KT 320V020 CAVOK 06/00 Q1020=
201904150600 METAR LRBC 150600Z 35014KT 9999 FEW028 06/M00 Q1020=
201904150630 METAR LRBC 150630Z 36013KT 340V040 CAVOK 07/M01 Q1020=
201904150700 METAR LRBC 150700Z 35014KT 9999 FEW035 07/01 Q1020=
201904150730 METAR LRBC 150730Z 34016KT 9999 FEW034 08/01 Q1020=
201904150800 METAR LRBC 150800Z 34014KT 9999 FEW036 09/01 Q1020=
201904150830 METAR LRBC 150830Z 35017KT 9999 FEW039 08/M01 Q1020=
201904150900 METAR LRBC 150900Z 36014KT 330V050 9999 FEW040 10/M00 Q1019=
201904150930 METAR LRBC 150930Z 34016KT 9999 SCT044 09/M00 Q1019=
201904151000 METAR LRBC 151000Z 36014G24KT 330V030 9999 FEW043 SCT055
                        10/M00 Q1019=
201904151030 METAR LRBC 151030Z 36017KT 340V040 9999 BKN050 09/M01 Q1019=
201904151100 METAR LRBC 151100Z 36016KT 330V040 9999 SCT050 10/M00 Q1019=
201904151130 METAR LRBC 151130Z 36016KT 9999 BKN055 10/M01 Q1019=
201904151200 METAR LRBC 151200Z 35015KT 320V030 9999 SCT050 11/00 Q1018=
201904151230 METAR LRBC 151230Z 36016G26KT 330V030 9999 SCT050 11/M02
                        Q1018=
201904151300 METAR LRBC 151300Z 36017KT 330V040 9999 SCT050 12/M00 Q1018=
201904151330 METAR LRBC 151330Z 35020KT 9999 FEW050 12/M02 Q1018=
201904151400 METAR LRBC 151400Z 36016KT 330V030 9999 SCT055 12/M02 Q1018=
201904151430 METAR LRBC 151430Z 35015KT 330V040 9999 SCT055 13/M01 Q1018=
201904151500 METAR LRBC 151500Z 34019KT 9999 SCT060 12/M02 Q1018=
201904151530 METAR LRBC 151530Z 36015G26KT 340V040 9999 SCT060 12/M03
                        Q1018=
201904151600 METAR LRBC 151600Z 35017KT 9999 SCT060 11/M02 Q1018=
201904151630 METAR LRBC 151630Z 34017KT 9999 FEW060 11/M02 Q1018=
201904151700 METAR LRBC 151700Z 34013KT CAVOK 10/M01 Q1018=
201904151730 METAR LRBC 151730Z 33010KT CAVOK 08/M01 Q1018=
201904151800 METAR LRBC 151800Z 33009KT CAVOK 07/M01 Q1019=
201904151830 METAR LRBC 151830Z 33008KT CAVOK 07/M01 Q1019=
201904151900 METAR LRBC 151900Z 33008KT CAVOK 07/M01 Q1019=
201904151930 METAR LRBC 151930Z 33009KT CAVOK 06/M01 Q1019=
201904152000 METAR LRBC 152000Z 32009KT CAVOK 06/M01 Q1019=
201904152030 METAR LRBC 152030Z AUTO 33008KT 9999 NCD 05/M01 Q1019=
201904152100 METAR COR LRBC 152100Z 32011KT CAVOK 06/M01 Q1019=
201904152130 METAR LRBC 152130Z 31012KT CAVOK 06/M01 Q1019=
201904152200 METAR LRBC 152200Z 31012KT CAVOK 06/M02 Q1019=
201904152230 METAR LRBC 152230Z 31011KT CAVOK 05/M01 Q1019=
201904152300 METAR LRBC 152300Z 33010KT CAVOK 05/M02 Q1019=
201904152330 METAR COR LRBC 152330Z 35016G26KT CAVOK 11/M02 Q1018=
201904160000 METAR LRBC 160000Z 32012KT CAVOK 05/M02 Q1018=
201904160030 METAR LRBC 160030Z 32012KT CAVOK 05/M02 Q1018=
201904160100 METAR LRBC 160100Z 32012KT CAVOK 05/M03 Q1018=
201904160130 METAR LRBC 160130Z 34010KT CAVOK 05/M03 Q1018=
201904160200 METAR LRBC 160200Z 33013KT CAVOK 05/M03 Q1018=
201904160230 METAR LRBC 160230Z 33013KT CAVOK 05/M03 Q1018=
201904160300 METAR LRBC 160300Z 32012KT CAVOK 05/M03 Q1018=
201904160330 METAR LRBC 160330Z 33013KT CAVOK 05/M03 Q1018=
201904160400 METAR LRBC 160400Z 33011KT CAVOK 04/M03 Q1018=
201904160430 METAR LRBC 160430Z 33011KT CAVOK 05/M02 Q1018=
201904160500 METAR LRBC 160500Z 35008KT 310V020 CAVOK 06/M03 Q1018=
201904160530 METAR LRBC 160530Z 34013KT CAVOK 07/M02 Q1018=
201904160600 METAR LRBC 160600Z 35014KT CAVOK 08/M04 Q1018=
201904160630 METAR LRBC 160630Z 35013KT CAVOK 08/M03 Q1017=
201904160700 METAR LRBC 160700Z 36017G27KT CAVOK 08/M04 Q1017=
201904160730 METAR LRBC 160730Z 36018G29KT 9999 SCT055 08/M04 Q1017=
201904160800 METAR LRBC 160800Z 35019G29KT 9999 SCT055 08/M03 Q1017=
201904160830 METAR LRBC 160830Z 35018KT 9999 SCT060 09/M03 Q1017=
201904160900 METAR LRBC 160900Z 35019KT 9999 BKN046 BKN060 08/M03 Q1017=
201904160930 METAR LRBC 160930Z 36016KT 9999 BKN050 08/M03 Q1017=
201904161000 METAR LRBC 161000Z 35013KT 9999 OVC048 07/M03 Q1017=
201904161030 METAR LRBC 161030Z 34016KT 9999 OVC050 08/M02 Q1017=
201904161100 METAR LRBC 161100Z 34015KT 300V360 9999 OVC055 09/M02 Q1017=
201904161130 METAR LRBC 161130Z 36012KT 330V030 9999 BKN046 BKN060 09/M01
                        Q1017=
201904161200 METAR LRBC 161200Z 35013KT 320V020 9999 OVC050 08/00 Q1017=
201904161230 METAR LRBC 161230Z 36013KT 330V030 9999 OVC050 07/02 Q1017=
201904161300 METAR LRBC 161300Z 36014KT 9999 OVC048 07/02 Q1017=
201904161330 METAR LRBC 161330Z 36014KT 330V030 9999 -RA SCT029 BKN047
                        07/03 Q1018=
201904161400 METAR LRBC 161400Z 34013KT 9999 -RA BKN019 BKN033 06/04 Q1018
                        R16/19//95=
201904161430 METAR LRBC 161430Z 34012KT 9999 BKN017 BKN045 06/04 Q1018
                        R16/19//95=
201904161500 METAR LRBC 161500Z 33011KT 9999 BKN018 BKN040 06/04 Q1018
                        R16/19//95=
201904161530 METAR LRBC 161530Z 33013KT 9999 SCT019 OVC041 06/03 Q1018
                        R16/19//95=
201904161600 METAR LRBC 161600Z 34012KT 9999 -RA BKN016 OVC037 06/04 Q1018
                        R16/19//95=
201904161630 METAR LRBC 161630Z 34010KT 9999 -RA SCT017 OVC030 05/04 Q1018
                        R16/19//95=
201904161700 METAR LRBC 161700Z 34010KT 9999 -RA SCT016 OVC021 06/04 Q1018
                        R16/19//95=
201904161730 METAR LRBC 161730Z 36009KT 330V030 9999 -RA SCT012 OVC023
                        05/04 Q1018 R16/19//95=
201904161800 METAR LRBC 161800Z 36009KT 9999 -RA FEW017 SCT023 OVC065
                        05/04 Q1018 R16/19//95=
201904161830 METAR LRBC 161830Z AUTO 36009KT 9999 -RA FEW018/// OVC049///
                        05/04 Q1018=
201904161900 METAR LRBC 161900Z 36011KT 9999 -RA SCT039 OVC050 05/04 Q1018
                        R16/210195=
201904161930 METAR LRBC 161930Z 34011KT 9999 -RA FEW017 BKN041 OVC049
                        05/04 Q1018 R16/210195=
201904162000 METAR LRBC 162000Z 35008KT 9999 -RA SCT060 05/04 Q1017 R16/210195=
201904162030 METAR LRBC 162030Z 35007KT 9999 BKN029 05/04 Q1017 R16/210195=
201904162100 METAR LRBC 162100Z 34007KT 9999 OVC027 05/04 Q1017 R16/210195=
201904162130 METAR LRBC 162130Z 34007KT 9999 OVC024 05/04 Q1017 R16/210195=
201904162200 METAR LRBC 162200Z 34008KT 9999 BKN024 05/04 Q1017 R16/210195=
201904162230 METAR LRBC 162230Z 35007KT 9999 OVC024 06/04 Q1017 R16/210195=
201904162300 METAR LRBC 162300Z AUTO 34008KT 9999 OVC021/// 06/04 Q1017=
201904162330 METAR LRBC 162330Z AUTO 35007KT 9999 BKN017/// OVC021///
                        06/04 Q1016=
201904170000 METAR COR LRBC 170000Z 35004KT 9999 FEW014 OVC020 06/04 Q1016
                        R16/210195=
201904170030 METAR LRBC 170030Z 35004KT 320V020 9999 FEW013 OVC016 06/05
                        Q1016 R16/210195=
201904170100 METAR LRBC 170100Z 35005KT 9999 -RA SCT014 OVC019 06/05 Q1016
                        R16/210195=
201904170130 METAR COR LRBC 170130Z 34007KT 9999 -RA BKN015 OVC019 06/05
                        Q1016 R16/210195=
201904170200 METAR LRBC 170200Z 35009KT 9999 -RA BKN014 OVC017 06/05 Q1015
                        R16/210195=
201904170230 METAR LRBC 170230Z 34010KT 9999 -RA SCT015 OVC018 06/05 Q1015
                        R16/210195=
201904170300 METAR LRBC 170300Z 34010KT 9999 -RA OVC017 06/05 Q1015 R16/210195=
201904170330 METAR LRBC 170330Z 32012KT 9999 -RA BKN015 OVC018 06/05 Q1015
                        R16/210195=
201904170400 METAR LRBC 170400Z 33011KT 9999 -RA OVC015 06/05 Q1016 R16/210195=
201904170430 METAR LRBC 170430Z 34012KT 9999 -RA OVC014 06/05 Q1016 R16/210195=
201904170500 METAR LRBC 170500Z 32010KT 9999 -RA BKN014 06/05 Q1016 R16/210195=
201904170530 METAR LRBC 170530Z 32011KT 9999 -RA OVC011 06/05 Q1016 R16/210195=
201904170600 METAR LRBC 170600Z 32012KT 9999 -RA BKN011 OVC014 06/05 Q1016
                        R16/210195=
201904170630 METAR COR LRBC 170630Z 32011KT 9000 -RA BKN009 OVC015 07/06
                        Q1017 R16/210195=
201904170700 METAR LRBC 170700Z 32012KT 9999 -RA BKN011 OVC014 07/06 Q1017
                        R16/210195=
201904170730 METAR LRBC 170730Z 34009KT 9999 -RA BKN009 OVC011 07/06 Q1018
                        R16/210195=
201904170800 METAR LRBC 170800Z 33012KT 9999 -RA SCT007 BKN012 OVC022
                        07/06 Q1018 R16/210195=
201904170830 METAR LRBC 170830Z 33011KT 9999 -RA SCT008 BKN022 07/06 Q1018
                        R16/210195=
201904170900 METAR LRBC 170900Z 33012KT 9999 -RA SCT009 OVC020 08/07 Q1018
                        R16/210195=
201904170930 METAR LRBC 170930Z 34012KT 9999 FEW008 OVC022 08/07 Q1019
                        R16/210195=
201904171000 METAR LRBC 171000Z 34010KT 9999 SCT010 BKN025 08/07 Q1019
                        R16/210195=
201904171030 METAR LRBC 171030Z 34010KT 9999 BKN011 OVC023 08/07 Q1019
                        R16/210195=
201904171100 METAR LRBC 171100Z 34009KT 9999 FEW012 SCT017 OVC023 08/07
                        Q1019 R16/210195=
201904171130 METAR LRBC 171130Z 34010KT 5000 BR SCT010 BKN024 08/07 Q1020
                        R16/210195=
201904171200 METAR LRBC 171200Z 34010KT 3900 -RA BR FEW008 SCT010 BKN017
                        08/07 Q1020 R16/210195=
201904171230 METAR LRBC 171230Z 34008KT 5000 -RA BR SCT010 BKN020 08/08
                        Q1020 R16/210195=
201904171300 METAR LRBC 171300Z 35005KT 8000 -RA SCT010 BKN024 08/08 Q1020
                        R16/210195=
201904171330 METAR LRBC 171330Z 35005KT 8000 -RA SCT010 BKN024 08/08 Q1020
                        R16/19//95=
201904171400 METAR LRBC 171400Z 32008KT 9999 FEW007 SCT014 BKN037 09/08
                        Q1021 R16/19//95=
201904171430 METAR LRBC 171430Z 32007KT 9999 SCT028 BKN036 09/08 Q1021
                        R16/19//95=
201904171500 METAR LRBC 171500Z 32008KT 9999 -RA BKN030 BKN042 09/08 Q1021
                        R16/19//95=
201904171530 METAR LRBC 171530Z 32008KT 9999 SCT038 BKN050 09/08 Q1021
                        R16/19//95=
201904171600 METAR LRBC 171600Z 32009KT 9999 FEW015 SCT032 OVC039 09/07
                        Q1022 R16/19//95=
201904171630 METAR LRBC 171630Z 33008KT 9999 SCT021 BKN025 09/08 Q1022
                        R16/19//95=
201904171700 METAR LRBC 171700Z 32008KT 9999 BKN023 OVC033 09/07 Q1022
                        R16/19//95=
201904171730 METAR LRBC 171730Z 32006KT 9999 BKN024 BKN036 08/07 Q1022
                        R16/19//95=
201904171800 METAR LRBC 171800Z 32007KT 9999 BKN034 OVC065 08/07 Q1023
                        R16/19//95=
201904171830 METAR LRBC 171830Z 32008KT 9999 SCT050 BKN065 08/07 Q1023
                        R16/19//95=
201904171900 METAR LRBC 171900Z 32007KT 9999 OVC055 08/07 Q1023 R16/19//95=
201904171930 METAR LRBC 171930Z 32005KT 9999 OVC060 08/07 Q1024 R16/19//95=
201904172000 METAR LRBC 172000Z 34006KT 9999 OVC055 08/07 Q1024 R16/19//95=
201904172030 METAR LRBC 172030Z 34006KT 9999 SCT050 OVC065 08/07 Q1024
                        R16/19//95=
201904172100 METAR LRBC 172100Z 34006KT 9999 BKN030 OVC049 08/07 Q1024
                        R16/19//95=
201904172130 METAR LRBC 172130Z 34005KT 9999 FEW030 BKN036 BKN045 08/07
                        Q1024 R16/19//95=
201904172200 METAR LRBC 172200Z 34006KT 9999 FEW025 BKN055 08/07 Q1024
                        R16/19//95=
201904172230 METAR LRBC 172230Z AUTO 35005KT 9999 FEW017/// BKN055///
                        08/07 Q1024=
201904172300 METAR LRBC 172300Z AUTO 34005KT 9999 -RA BKN012/// 09/07
                        Q1024=
201904172330 METAR LRBC 172330Z VRB02KT 6000 -RA BKN010 OVC050 08/08 Q1024
                        R16/19//95=
201904180000 METAR LRBC 180000Z 34005KT 6000 -RA OVC010 09/08 Q1024 R16/19//95=
201904180030 METAR LRBC 180030Z 35006KT 8000 -DZ BKN008 OVC010 09/08 Q1024
                        R16/19//95=
201904180100 METAR LRBC 180100Z 35005KT 8000 -DZRA OVC007 09/09 Q1024
                        R16/19//95=
201904180130 METAR LRBC 180130Z 34006KT 8000 -DZRA BKN007 OVC009 09/09
                        Q1024 R16/19//95=
201904180200 METAR LRBC 180200Z 34006KT 4000 -RADZ BR SCT005 BKN007 09/09
                        Q1024 R16/19//95=
201904180230 METAR LRBC 180230Z 35005KT 4500 -RADZ BR SCT003 OVC007 09/09
                        Q1024 R16/19//95=
201904180300 METAR LRBC 180300Z 36005KT 6000 -RA BKN003 BKN011 09/09 Q1024
                        R16/19//95=
201904180330 METAR LRBC 180330Z 36005KT 5000 -RA BR FEW002 BKN009 BKN015
                        09/09 Q1024 R16/19//95=
201904180400 METAR LRBC 180400Z 36006KT 4000 -RA BR BKN012 OVC025 10/10
                        Q1025 R16/210295=
201904180430 METAR LRBC 180430Z 36006KT 6000 -RA BKN010 OVC023 09/09 Q1025
                        R16/210295=
201904180500 METAR LRBC 180500Z 02005KT 340V050 9999 -RA BKN010 OVC025
                        09/09 Q1025 R16/210295=
201904180530 METAR LRBC 180530Z 01006KT 340V040 9999 OVC010 09/09 Q1026
                        R16/210295=
201904180600 METAR LRBC 180600Z 36005KT 320V040 8000 FEW008 OVC011 09/09
                        Q1026 R16/210295=
201904180630 METAR LRBC 180630Z 01006KT 340V040 8000 FEW011 OVC014 09/08
                        Q1027 R16/210295=
201904180700 METAR LRBC 180700Z 01005KT 330V050 8000 -RA SCT013 BKN016
                        09/08 Q1027 R16/210295=
201904180730 METAR LRBC 180730Z 01004KT 350V060 9999 -RA FEW012 BKN015
                        OVC018 09/08 Q1028 R16/210295=
201904180800 METAR LRBC 180800Z 36006KT 9999 SCT015 BKN019 10/09 Q1028
                        R16/210295=
201904180830 METAR LRBC 180830Z 01006KT 9999 SCT018 OVC021 10/08 Q1029
                        R16/210295=
201904180900 METAR LRBC 180900Z 34007KT 9999 FEW016 SCT023 BKN029 10/09
                        Q1028 R16/210295=
201904180930 METAR LRBC 180930Z 33008KT 9999 FEW015 BKN046 11/10 Q1028
                        R16/210295=
201904181000 METAR LRBC 181000Z 33010KT 9999 FEW012 SCT021 BKN043 11/08
                        Q1028 R16/210295=
201904181030 METAR LRBC 181030Z 32011KT 9999 FEW017 SCT033 BKN065 11/08
                        Q1028 R16/210295=
201904181100 METAR LRBC 181100Z 34013KT 9999 FEW015 SCT044 BKN060 11/08
                        Q1028 R16/210295=
201904181130 METAR LRBC 181130Z 35012KT 9999 BKN060 12/08 Q1028 R16/210295=
201904181200 METAR LRBC 181200Z 34013KT 9999 BKN065 12/08 Q1028 R16/19//95=
201904181230 METAR LRBC 181230Z 34011KT 9999 BKN065 14/08 Q1027 R16/19//95=
201904181300 METAR LRBC 181300Z 34011KT 9999 FEW029 SCT050 BKN065 13/07
                        Q1027 R16/19//95=
201904181330 METAR LRBC 181330Z 32011KT 9999 FEW030CB SCT060 13/08 Q1027
                        R16/19//95=
201904181400 METAR LRBC 181400Z 33011KT 9999 SCT033 SCT044 13/07 Q1026
                        R16/19//95=
201904181430 METAR LRBC 181430Z 32010KT 9999 BKN041 14/08 Q1026 R16/19//95=
201904181500 METAR LRBC 181500Z 33013KT 9999 BKN060 14/07 Q1026 R16/CLRD//=
201904181530 METAR LRBC 181530Z 35013KT 9999 SCT065 14/05 Q1026=
201904181600 METAR LRBC 181600Z 34011KT 9999 FEW065 13/06 Q1026=
201904181630 METAR LRBC 181630Z 33009KT 9999 FEW065 12/06 Q1026=
201904181700 METAR LRBC 181700Z 33008KT 9999 FEW065 10/06 Q1026=
201904181730 METAR LRBC 181730Z 34006KT 9999 SCT060 10/06 Q1026=
201904181800 METAR LRBC 181800Z 33007KT 9999 SCT060 08/05 Q1027=
201904181830 METAR LRBC 181830Z 32006KT 9999 BKN065 08/06 Q1027=
201904181900 METAR LRBC 181900Z 03003KT 350V060 9999 BKN065 10/05 Q1027=
201904181930 METAR LRBC 181930Z 01003KT 9999 SCT060 10/05 Q1027=
201904182000 METAR LRBC 182000Z AUTO 34005KT 9999 SCT060/// 09/05 Q1027=
201904182030 METAR LRBC 182030Z 35004KT 9999 FEW060 09/05 Q1026=
201904182100 METAR LRBC 182100Z 04003KT 9999 SCT060 08/05 Q1026=
201904182130 METAR LRBC 182130Z VRB02KT 9999 BKN055 08/05 Q1026=
201904182200 METAR LRBC 182200Z 00000KT 9999 FEW055 08/06 Q1026=
201904182230 METAR LRBC 182230Z AUTO 00000KT 9999 SCT055/// BKN075///
                        07/05 Q1026=
201904182300 METAR LRBC 182300Z 00000KT 9999 SCT060 07/05 Q1026=
201904182330 METAR LRBC 182330Z 00000KT 9999 FEW060 06/05 Q1025=
201904190000 METAR COR LRBC 190000Z 00000KT CAVOK 06/05 Q1025=
201904190030 METAR LRBC 190030Z 33003KT CAVOK 05/05 Q1024=
201904190100 METAR LRBC 190100Z 35002KT CAVOK 05/05 Q1024=
201904190130 METAR LRBC 190130Z 30001KT CAVOK 04/04 Q1024=
201904190200 METAR LRBC 190200Z 29002KT CAVOK 04/03 Q1023=
201904190230 METAR LRBC 190230Z 00000KT CAVOK 05/05 Q1023=
201904190300 METAR LRBC 190300Z VRB01KT 9000 FEW065 04/04 Q1023=
201904190330 METAR LRBC 190330Z 01002KT 8000 FEW065 05/05 Q1023=
201904190400 METAR LRBC 190400Z 02003KT 7000 SCT065 04/04 Q1023=
201904190430 METAR LRBC 190430Z 33003KT 8000 SCT065 05/05 Q1023=
201904190500 METAR LRBC 190500Z 04003KT 360V080 9999 FEW065 06/06 Q1023=
201904190530 METAR LRBC 190530Z VRB02KT 9999 FEW055 07/06 Q1023=
201904190600 METAR LRBC 190600Z 24004KT 200V280 CAVOK 09/07 Q1022=
201904190630 METAR LRBC 190630Z VRB02KT 9999 FEW060 11/07 Q1023=
201904190700 METAR LRBC 190700Z 35004KT 320V020 9999 FEW043 SCT060 11/07
                        Q1023=
201904190730 METAR LRBC 190730Z 36010KT 340V040 9999 FEW045 SCT060 11/06
                        Q1023=
201904190800 METAR LRBC 190800Z 36010KT 9999 FEW065 12/05 Q1024=
201904190830 METAR LRBC 190830Z 35010KT 9999 FEW036 12/06 Q1024=
201904190900 METAR LRBC 190900Z 36011KT 330V040 9999 FEW040 13/05 Q1024=
201904190930 METAR LRBC 190930Z 36014KT 9999 FEW040 13/06 Q1024=
201904191000 METAR LRBC 191000Z 35014KT 330V030 9999 FEW035 14/06 Q1024=
201904191030 METAR LRBC 191030Z 36014KT 330V030 9999 FEW039 15/06 Q1024=
201904191100 METAR LRBC 191100Z 36010KT 330V040 9999 SCT045 15/06 Q1024=
201904191130 METAR LRBC 191130Z 36009KT 290V030 9999 SCT044 16/05 Q1024=
201904191200 METAR LRBC 191200Z 36011KT 330V040 9999 FEW043 15/04 Q1024=
201904191230 METAR LRBC 191230Z 36014KT 330V050 9999 FEW045TCU 17/03 Q1023=
201904191300 METAR LRBC 191300Z 05016G28KT 020V080 9999 FEW045CB SCT060
                        12/05 Q1025=
201904191330 METAR LRBC 191330Z 06017G32KT 010V090 9999 -SHRA FEW015 SCT050CB
                        09/06 Q1025=
201904191400 METAR LRBC 191400Z 36007KT 330V030 9999 FEW018 BKN049CB 09/06
                        Q1026=
201904191430 METAR LRBC 191430Z 32004KT 290V020 9999 FEW050CB BKN060 09/07
                        Q1026 R16/19//95=
201904191500 METAR LRBC 191500Z 01007KT 340V040 CAVOK 10/05 Q1026 R16/19//95=
201904191530 METAR LRBC 191530Z 02005KT 340V060 9999 FEW060 10/06 Q1027
                        R16/19//95=
201904191600 METAR LRBC 191600Z 36003KT 9999 SCT065 10/06 Q1027 R16/19//95=
201904191630 METAR LRBC 191630Z 35005KT 9999 FEW020 BKN065 10/06 Q1027
                        R16/19//95=
201904191700 METAR LRBC 191700Z 32006KT 9999 -RA FEW050 BKN065 09/07 Q1027
                        R16/19//95=
201904191730 METAR LRBC 191730Z 33004KT 9999 BKN065 08/06 Q1027 R16/CLRD//=
201904191800 METAR LRBC 191800Z 34005KT 9999 BKN065 08/06 Q1028=
201904191830 METAR LRBC 191830Z 35006KT 9999 BKN050 OVC065 09/06 Q1028=
201904191900 METAR LRBC 191900Z 35009KT 9999 RA SCT033 BKN055 09/06 Q1028=
201904191930 METAR LRBC 191930Z 33006KT 9999 -RA SCT033 BKN055 07/06 Q1028=
201904192000 METAR LRBC 192000Z 32005KT 9999 BKN055 07/06 Q1028=
201904192030 METAR LRBC 192030Z 34004KT 9999 FEW043 BKN055 07/06 Q1028
                        R16/19//95=
201904192100 METAR LRBC 192100Z 34006KT 9999 FEW043 BKN065 06/05 Q1028
                        R16/19//95=
201904192130 METAR LRBC 192130Z 33005KT 9999 BKN065 06/05 Q1028 R16/19//95=
201904192200 METAR LRBC 192200Z 02004KT 9999 BKN065 07/06 Q1028 R16/19//95=
201904192230 METAR LRBC 192230Z 02004KT 9999 BKN065 07/06 Q1028 R16/19//95=
201904192300 METAR LRBC 192300Z 36002KT 9999 SCT065 06/06 Q1028 R16/19//95=
201904192330 METAR LRBC 192330Z AUTO 02004KT 9999 SCT080/// BKN110///
                        06/06 Q1028=
201904200000 METAR LRBC 200000Z AUTO 35004KT 9999 FEW085/// BKN110///
                        06/05 Q1028=
201904200030 METAR LRBC 200030Z 04004KT 8000 SCT060 06/05 Q1028 R16/19//95=
201904200100 METAR LRBC 200100Z 33003KT 7000 BKN065 05/04 Q1028 R16/19//95=
201904200130 METAR LRBC 200130Z 35006KT 6000 FEW065 05/05 Q1027 R16/19//95=
201904200200 METAR LRBC 200200Z 36004KT 7000 NSC 05/05 Q1027 R16/19//95=
201904200230 METAR LRBC 200230Z 36004KT 7000 NSC 05/05 Q1027 R16/19//95=
201904200300 METAR LRBC 200300Z 02003KT 6000 NSC 05/05 Q1027 R16/CLRD//=
201904200330 METAR LRBC 200330Z 36004KT 4100 BR NSC 05/05 Q1028=
201904200400 METAR LRBC 200400Z 01004KT 8000 NSC 05/05 Q1028=
201904200430 METAR LRBC 200430Z 02004KT 7000 NSC 06/05 Q1028=
201904200500 METAR LRBC 200500Z 03003KT 350V060 CAVOK 07/06 Q1028=
201904200530 METAR LRBC 200530Z 03004KT 360V060 CAVOK 08/07 Q1028=
201904200600 METAR LRBC 200600Z 35009KT 330V030 CAVOK 09/06 Q1028=
201904200630 METAR LRBC 200630Z 34009KT CAVOK 10/06 Q1028=
201904200700 METAR LRBC 200700Z 35010KT 330V030 CAVOK 11/06 Q1028=
201904200730 METAR LRBC 200730Z 35010KT 320V030 9999 FEW040 12/07 Q1028=
201904200800 METAR LRBC 200800Z 35010KT 9999 FEW033 13/03 Q1028=
201904200830 METAR LRBC 200830Z 36010KT 320V030 9999 FEW038 13/02 Q1028=
201904200900 METAR LRBC 200900Z 35010KT 310V030 9999 SCT043 13/02 Q1028=
201904200930 METAR LRBC 200930Z 01008KT 330V060 9999 BKN050 13/M00 Q1028=
201904201000 METAR LRBC 201000Z 36011KT 330V030 9999 SCT055 13/00 Q1028=
201904201030 METAR LRBC 201030Z 35009KT 320V040 9999 SCT060 13/M01 Q1028=
201904201100 METAR LRBC 201100Z 34011KT 9999 FEW065 13/M00 Q1028=
201904201130 METAR LRBC 201130Z 02009KT 340V080 CAVOK 14/M01 Q1028=
201904201200 METAR LRBC 201200Z 03008KT 320V070 CAVOK 14/M02 Q1028=
201904201230 METAR LRBC 201230Z 36009KT 330V030 CAVOK 15/M01 Q1028=
201904201300 METAR LRBC 201300Z 36008KT 340V040 CAVOK 15/M01 Q1027=
201904201330 METAR LRBC 201330Z 02009KT CAVOK 15/M02 Q1027=
201904201400 METAR LRBC 201400Z 36006KT 310V060 CAVOK 15/M02 Q1027=
201904201430 METAR LRBC 201430Z 35007KT 290V070 CAVOK 15/M01 Q1027=
201904201500 METAR LRBC 201500Z 35005KT 300V040 CAVOK 15/M02 Q1027=
201904201530 METAR LRBC 201530Z 05005KT 360V090 CAVOK 14/M02 Q1027=
201904201600 METAR LRBC 201600Z 05003KT 360V090 CAVOK 14/M02 Q1026=
201904201630 METAR LRBC 201630Z 02001KT CAVOK 14/M03 Q1026=
201904201700 METAR LRBC 201700Z VRB01KT CAVOK 13/M02 Q1026=
201904201730 METAR LRBC 201730Z 25004KT CAVOK 10/02 Q1026=
201904201800 METAR LRBC 201800Z 27002KT CAVOK 09/02 Q1027=
201904201830 METAR LRBC 201830Z 29002KT CAVOK 08/02 Q1027=
201904201900 METAR LRBC 201900Z 30002KT CAVOK 08/02 Q1026=
201904201930 METAR LRBC 201930Z 00000KT CAVOK 07/01 Q1026=
201904202000 METAR LRBC 202000Z 32001KT CAVOK 07/01 Q1026=
201904202030 METAR LRBC 202030Z VRB01KT CAVOK 06/01 Q1026=
201904202100 METAR LRBC 202100Z 11003KT CAVOK 06/02 Q1026=
201904202130 METAR LRBC 202130Z 13003KT CAVOK 06/01 Q1025=
201904202200 METAR LRBC 202200Z 00000KT CAVOK 04/01 Q1025=
201904202230 METAR LRBC 202230Z AUTO 00000KT 9999 NCD 04/01 Q1025=
201904202300 METAR LRBC 202300Z VRB01KT CAVOK 04/01 Q1025=
201904202330 METAR LRBC 202330Z 12001KT CAVOK 04/01 Q1024=
201904210000 METAR LRBC 210000Z AUTO 27001KT 9999 FEW080/// BKN190///
                        04/01 Q1024=
201904210030 METAR LRBC 210030Z VRB02KT CAVOK 04/01 Q1024=
201904210100 METAR LRBC 210100Z 17006KT CAVOK 03/01 Q1024=
201904210130 METAR LRBC 210130Z 19005KT CAVOK 04/02 Q1024=
201904210200 METAR LRBC 210200Z 19005KT CAVOK 03/01 Q1024=
201904210230 METAR LRBC 210230Z 23003KT CAVOK 02/01 Q1024=
201904210300 METAR LRBC 210300Z 20003KT CAVOK 04/01 Q1023=
201904210330 METAR LRBC 210330Z 21001KT CAVOK 02/01 Q1023=
201904210400 METAR LRBC 210400Z 25002KT CAVOK 02/01 Q1023=
201904210430 METAR LRBC 210430Z 14002KT CAVOK 03/01 Q1023=
201904210500 METAR LRBC 210500Z 00000KT CAVOK 05/03 Q1023=
201904210530 METAR LRBC 210530Z 17003KT 130V210 CAVOK 06/04 Q1023=
201904210600 METAR LRBC 210600Z 00000KT CAVOK 08/04 Q1023=
201904210630 METAR LRBC 210630Z 21003KT 150V250 CAVOK 09/04 Q1023=
201904210700 METAR LRBC 210700Z 18003KT 140V240 CAVOK 11/04 Q1023=
201904210730 METAR LRBC 210730Z 14005KT 100V170 CAVOK 13/04 Q1023=
201904210800 METAR LRBC 210800Z 15008KT CAVOK 14/03 Q1023=
201904210830 METAR LRBC 210830Z 14010KT CAVOK 16/00 Q1023=
201904210900 METAR LRBC 210900Z 16010KT 120V180 CAVOK 16/M01 Q1022=
201904210930 METAR LRBC 210930Z 14008KT 110V180 CAVOK 17/M00 Q1022=
201904211000 METAR LRBC 211000Z 15009KT 120V190 CAVOK 17/00 Q1022=
201904211030 METAR LRBC 211030Z VRB05KT 9999 FEW040 17/M00 Q1021=
201904211100 METAR LRBC 211100Z 16008KT 120V190 9999 FEW050 18/00 Q1021=
201904211130 METAR LRBC 211130Z 17011KT 9999 FEW060 18/00 Q1021=
201904211200 METAR LRBC 211200Z 17011KT 140V200 9999 FEW060 17/M00 Q1021=
201904211230 METAR LRBC 211230Z 16011KT 9999 SCT060 16/00 Q1021=
201904211300 METAR LRBC 211300Z 17012KT 140V200 9999 BKN065 17/00 Q1020=
201904211330 METAR LRBC 211330Z 17010KT 9999 FEW065 17/00 Q1020=
201904211400 METAR LRBC 211400Z 15008KT 9999 FEW065 17/01 Q1020=
201904211430 METAR LRBC 211430Z 16009KT 9999 FEW065 16/01 Q1020=
201904211500 METAR LRBC 211500Z 17009KT 9999 FEW065 16/01 Q1020=
201904211530 METAR LRBC 211530Z 24006KT 210V270 9999 FEW065 15/04 Q1020=
201904211600 METAR LRBC 211600Z 28004KT 240V330 9999 FEW065 15/04 Q1020=
201904211630 METAR LRBC 211630Z VRB01KT CAVOK 14/05 Q1020=
201904211700 METAR LRBC 211700Z VRB02KT CAVOK 14/05 Q1020=
201904211730 METAR LRBC 211730Z 16006KT 130V210 9999 FEW065 13/05 Q1021=
201904211800 METAR LRBC 211800Z 21005KT 130V280 9999 FEW065 13/05 Q1021=
201904211830 METAR LRBC 211830Z 16004KT 140V220 CAVOK 12/05 Q1021=
201904211900 METAR LRBC 211900Z 17004KT CAVOK 12/05 Q1021=
201904211930 METAR LRBC 211930Z 18008KT CAVOK 12/05 Q1021=
201904212000 METAR LRBC 212000Z 09003KT 9999 FEW065 12/06 Q1021=
201904212030 METAR LRBC 212030Z 13007KT 9999 FEW065 11/06 Q1021=
201904212100 METAR LRBC 212100Z 17007KT CAVOK 10/06 Q1021=
201904212130 METAR LRBC 212130Z 16007KT CAVOK 10/05 Q1021=
201904212200 METAR LRBC 212200Z 15008KT CAVOK 10/04 Q1021=
201904212230 METAR LRBC 212230Z AUTO 16010KT 9999 FEW050/// BKN080///
                        10/04 Q1021=
201904212300 METAR LRBC 212300Z AUTO 16008KT 9999 BKN048/// OVC085///
                        10/05 Q1021=
201904212330 METAR LRBC 212330Z 16010KT 9999 BKN047 09/05 Q1021=
201904220000 METAR LRBC 220000Z 15008KT 9999 -RA BKN046 09/06 Q1021=
201904220030 METAR LRBC 220030Z 17011KT 9999 -RA BKN049 09/07 Q1021=
201904220100 METAR LRBC 220100Z 21012KT 9999 -RA FEW041 BKN060 09/08 Q1021=
201904220130 METAR LRBC 220130Z 17011KT 9999 -RA BKN050 09/07 Q1021=
201904220200 METAR LRBC 220200Z 17009KT 9999 -RA SCT042 BKN050 08/07 Q1021=
201904220230 METAR LRBC 220230Z 15009KT 9999 -RA BKN041 BKN055 08/07 Q1021=
201904220300 METAR LRBC 220300Z 20008KT 9999 -RA OVC049 08/07 Q1021 R16/220395=
201904220330 METAR LRBC 220330Z 20006KT 9999 -RA SCT050 BKN065 08/07 Q1021
                        R16/220395=
201904220400 METAR LRBC 220400Z 20006KT 9999 -RA SCT033 BKN050 08/07 Q1022
                        R16/220395=
201904220430 METAR LRBC 220430Z 20005KT 9999 -RA BKN030 OVC060 08/07 Q1022
                        R16/220395=
201904220500 METAR LRBC 220500Z 19007KT 9999 -RA FEW020 BKN035 08/06 Q1023
                        R16/220395=
201904220530 METAR LRBC 220530Z 19010KT 9999 -RA OVC036 08/06 Q1023 R16/220395=
201904220600 METAR LRBC 220600Z 18009KT 9999 -RA OVC035 08/06 Q1023 R16/220395=
201904220630 METAR LRBC 220630Z 17008KT 9999 -RA SCT038 OVC050 08/06 Q1023
                        R16/220395=
201904220700 METAR LRBC 220700Z 18006KT 9999 OVC060 08/06 Q1023 R16/220395=
201904220730 METAR LRBC 220730Z 14005KT 110V170 9999 BKN060 08/06 Q1024
                        R16/220395=
201904220800 METAR LRBC 220800Z 13005KT 9999 BKN060 09/06 Q1024 R16/220395=
201904220830 METAR LRBC 220830Z 14004KT 100V180 9999 BKN065 09/05 Q1024
                        R16/220395=
201904220900 METAR LRBC 220900Z VRB02KT 9999 BKN065 09/06 Q1025 R16/210195=
201904220930 METAR LRBC 220930Z 24003KT 8000 BKN060 09/06 Q1025 R16/210195=
201904221000 METAR LRBC 221000Z 19005KT 150V220 9999 FEW050 BKN065 10/06
                        Q1025 R16/210195=
201904221030 METAR LRBC 221030Z 18007KT 150V210 9999 BKN060 11/05 Q1025
                        R16/210195=
201904221100 METAR LRBC 221100Z 13008KT 100V180 9999 BKN050 11/02 Q1025
                        R16/210195=
201904221130 METAR LRBC 221130Z 18009KT 130V210 9999 SCT047 11/01 Q1025
                        R16/210195=
201904221200 METAR LRBC 221200Z 14006KT 110V170 9999 SCT065 11/01 Q1025
                        R16/15//95=
201904221230 METAR LRBC 221230Z 14009KT 120V180 9999 BKN065 11/02 Q1025
                        R16/15//95=
201904221300 METAR LRBC 221300Z 13008KT 9999 BKN065 12/01 Q1025 R16/CLRD//=
201904221330 METAR LRBC 221330Z 13007KT 9999 SCT065 12/01 Q1024=
201904221400 METAR LRBC 221400Z 13006KT CAVOK 12/01 Q1024=
201904221430 METAR LRBC 221430Z 13004KT CAVOK 12/01 Q1024=
201904221500 METAR LRBC 221500Z 17005KT CAVOK 12/04 Q1024=
201904221530 METAR LRBC 221530Z 22007KT CAVOK 12/04 Q1024=
201904221600 METAR LRBC 221600Z 23008KT CAVOK 11/04 Q1024=
201904221630 METAR LRBC 221630Z 24010KT CAVOK 10/04 Q1025=
201904221700 METAR LRBC 221700Z 24008KT CAVOK 09/04 Q1025=
201904221730 METAR LRBC 221730Z 22007KT CAVOK 09/03 Q1025=
201904221800 METAR LRBC 221800Z VRB04KT CAVOK 10/03 Q1025=
201904221830 METAR LRBC 221830Z 10004KT CAVOK 10/03 Q1025=
201904221900 METAR LRBC 221900Z 07004KT CAVOK 09/04 Q1025=
201904221930 METAR LRBC 221930Z 13003KT 9999 BKN090 08/04 Q1025=
201904222000 METAR LRBC 222000Z 05003KT CAVOK 08/04 Q1026=
201904222030 METAR LRBC 222030Z 09003KT CAVOK 08/04 Q1026=
201904222100 METAR LRBC 222100Z 30005KT CAVOK 06/04 Q1026=
201904222130 METAR LRBC 222130Z 36002KT CAVOK 07/04 Q1026=
201904222200 METAR LRBC 222200Z 04004KT CAVOK 07/04 Q1026=
201904222230 METAR LRBC 222230Z VRB02KT CAVOK 06/04 Q1026=
201904222300 METAR LRBC 222300Z 30003KT CAVOK 05/04 Q1026=
201904222330 METAR LRBC 222330Z 34003KT CAVOK 06/04 Q1026=
201904230000 METAR LRBC 230000Z 34004KT CAVOK 05/03 Q1026=
201904230030 METAR LRBC 230030Z 35003KT CAVOK 04/02 Q1026=
201904230100 METAR LRBC 230100Z VRB02KT CAVOK 04/03 Q1026=
201904230130 METAR LRBC 230130Z 00000KT CAVOK 04/03 Q1026=
201904230200 METAR LRBC 230200Z 00000KT CAVOK 04/03 Q1026=
201904230230 METAR LRBC 230230Z 28002KT CAVOK 04/03 Q1026=
201904230300 METAR LRBC 230300Z 33002KT CAVOK 04/03 Q1026=
201904230330 METAR LRBC 230330Z 29003KT CAVOK 04/03 Q1026=
201904230400 METAR LRBC 230400Z 34002KT CAVOK 04/03 Q1027=
201904230430 METAR LRBC 230430Z 00000KT CAVOK 05/04 Q1027=
201904230500 METAR LRBC 230500Z 00000KT CAVOK 06/04 Q1027=
201904230530 METAR LRBC 230530Z 00000KT CAVOK 07/05 Q1027=
201904230600 METAR LRBC 230600Z 19001KT CAVOK 08/06 Q1027=
201904230630 METAR LRBC 230630Z VRB02KT CAVOK 09/05 Q1027=
201904230700 METAR LRBC 230700Z 17003KT 130V220 CAVOK 10/05 Q1028=
201904230730 METAR LRBC 230730Z AUTO 17005KT 130V200 9999 BKN095/// 11/05
                        Q1028=
201904230800 METAR LRBC 230800Z AUTO 16008KT 9999 SCT100/// 13/04 Q1028=
201904230830 METAR LRBC 230830Z 15010KT CAVOK 15/02 Q1028=
201904230900 METAR LRBC 230900Z 16012KT CAVOK 16/03 Q1028=
201904230930 METAR LRBC 230930Z 16015KT CAVOK 16/01 Q1027=
201904231000 METAR LRBC 231000Z 17016KT CAVOK 17/02 Q1027=
201904231030 METAR LRBC 231030Z 16015KT CAVOK 16/00 Q1027=
201904231100 METAR LRBC 231100Z 16014KT CAVOK 16/01 Q1027=
201904231130 METAR LRBC 231130Z 16015KT CAVOK 16/M00 Q1027=
201904231200 METAR LRBC 231200Z 17015KT CAVOK 16/01 Q1027=
201904231230 METAR LRBC 231230Z 17014KT CAVOK 17/02 Q1026=
201904231300 METAR LRBC 231300Z 16015KT CAVOK 17/01 Q1026=
201904231330 METAR LRBC 231330Z 17014KT CAVOK 17/01 Q1026=
201904231400 METAR LRBC 231400Z 17013KT CAVOK 16/00 Q1026=
201904231430 METAR LRBC 231430Z 16013KT CAVOK 16/01 Q1025=
201904231500 METAR LRBC 231500Z 16014KT CAVOK 16/M00 Q1025=
201904231530 METAR LRBC 231530Z 16012KT CAVOK 16/M01 Q1025=
201904231600 METAR LRBC 231600Z 15012KT CAVOK 15/M01 Q1025=
201904231630 METAR LRBC 231630Z 15010KT CAVOK 14/00 Q1025=
201904231700 METAR LRBC 231700Z 15008KT CAVOK 13/01 Q1025=
201904231730 METAR LRBC 231730Z 15008KT CAVOK 13/02 Q1025=
201904231800 METAR LRBC 231800Z 16008KT CAVOK 13/03 Q1025=
201904231830 METAR LRBC 231830Z 16010KT CAVOK 13/04 Q1026=
201904231900 METAR LRBC 231900Z 16012KT CAVOK 13/04 Q1026=
201904231930 METAR LRBC 231930Z 15012KT CAVOK 12/03 Q1026=
201904232000 METAR LRBC 232000Z 15010KT CAVOK 12/04 Q1026=
201904232030 METAR LRBC 232030Z 15010KT CAVOK 11/04 Q1026=
201904232100 METAR LRBC 232100Z AUTO 15008KT 9999 OVC100/// 11/04 Q1026=
201904232130 METAR LRBC 232130Z 15009KT CAVOK 11/04 Q1026=
201904232200 METAR LRBC 232200Z 14010KT CAVOK 11/04 Q1026=
201904232230 METAR LRBC 232230Z 14011KT CAVOK 11/04 Q1026=
201904232300 METAR LRBC 232300Z 15010KT CAVOK 10/04 Q1026=
201904232330 METAR COR LRBC 232330Z 15009KT CAVOK 10/04 Q1026=
201904240000 METAR LRBC 240000Z 15009KT CAVOK 10/04 Q1025=
201904240030 METAR LRBC 240030Z AUTO 15009KT 9999 OVC095/// 10/04 Q1025=
201904240100 METAR LRBC 240100Z 15008KT CAVOK 10/05 Q1025=
201904240130 METAR LRBC 240130Z 15009KT CAVOK 10/04 Q1025=
201904240200 METAR LRBC 240200Z 16009KT CAVOK 10/04 Q1025=
201904240230 METAR LRBC 240230Z 16007KT CAVOK 09/04 Q1025=
201904240300 METAR LRBC 240300Z 16007KT CAVOK 09/05 Q1025=
201904240330 METAR LRBC 240330Z 16006KT CAVOK 09/05 Q1026=
201904240400 METAR LRBC 240400Z 16008KT CAVOK 09/05 Q1026=
201904240430 METAR LRBC 240430Z 15010KT 9999 -RA BKN065 09/05 Q1026=
201904240500 METAR LRBC 240500Z 15007KT 9999 -RA NSC 09/06 Q1027=
201904240530 METAR LRBC 240530Z 16008KT 9999 -RA NSC 09/06 Q1027=
201904240600 METAR LRBC 240600Z 15008KT 9999 BKN060 09/07 Q1027=
201904240630 METAR LRBC 240630Z 16008KT 9999 OVC065 09/07 Q1027=
201904240700 METAR LRBC 240700Z 15009KT 9999 OVC065 10/07 Q1028=
201904240730 METAR LRBC 240730Z 15010KT 9999 BKN050 10/07 Q1028=
201904240800 METAR LRBC 240800Z 16012KT 9999 BKN055 10/07 Q1028=
201904240830 METAR LRBC 240830Z 16012KT 9999 BKN055 11/08 Q1028=
201904240900 METAR LRBC 240900Z 16012KT 9999 BKN055 11/07 Q1028=
201904240930 METAR LRBC 240930Z 15012KT 9999 SCT050 BKN065 11/07 Q1028=
201904241000 METAR LRBC 241000Z 15013KT 9999 OVC060 12/07 Q1028=
201904241030 METAR LRBC 241030Z 15012KT 9999 BKN048 12/07 Q1028=
201904241100 METAR LRBC 241100Z 15012KT 9999 BKN050 13/06 Q1028=
201904241130 METAR LRBC 241130Z 14013KT 9999 BKN055 13/06 Q1027=
201904241200 METAR LRBC 241200Z 15013KT 9999 SCT060 14/06 Q1027=
201904241230 METAR LRBC 241230Z 14015KT CAVOK 15/06 Q1027=
201904241300 METAR LRBC 241300Z 15016KT CAVOK 15/06 Q1026=
201904241330 METAR LRBC 241330Z 15017KT CAVOK 16/06 Q1026=
201904241400 METAR LRBC 241400Z 15015KT CAVOK 16/06 Q1026=
201904241430 METAR LRBC 241430Z 15014KT 130V190 CAVOK 16/06 Q1026=
201904241500 METAR LRBC 241500Z 16013KT CAVOK 16/06 Q1026=
201904241530 METAR LRBC 241530Z 16012KT CAVOK 16/06 Q1025=
201904241600 METAR LRBC 241600Z 16012KT CAVOK 16/06 Q1025=
201904241630 METAR LRBC 241630Z 16012KT CAVOK 15/05 Q1025=
201904241700 METAR LRBC 241700Z 17009KT CAVOK 14/06 Q1025=
201904241730 METAR LRBC 241730Z 15006KT CAVOK 13/06 Q1025=
201904241800 METAR LRBC 241800Z 14006KT CAVOK 12/06 Q1026=
201904241830 METAR LRBC 241830Z 15006KT CAVOK 11/06 Q1026=
201904241900 METAR LRBC 241900Z 15007KT CAVOK 11/06 Q1026=
201904241930 METAR LRBC 241930Z 16007KT CAVOK 10/06 Q1026=
201904242000 METAR LRBC 242000Z 16011KT CAVOK 11/05 Q1026=
201904242030 METAR LRBC 242030Z 16011KT CAVOK 10/05 Q1026=
201904242100 METAR LRBC 242100Z 16010KT CAVOK 10/05 Q1025=
201904242130 METAR LRBC 242130Z 16010KT CAVOK 09/05 Q1026=
201904242200 METAR LRBC 242200Z 16010KT CAVOK 15/03 Q1028=
201904242230 METAR LRBC 242230Z AUTO 15008KT 9999 NCD 08/04 Q1025=
201904242300 METAR LRBC 242300Z 17009KT CAVOK 07/04 Q1025=
201904242330 METAR LRBC 242330Z 17010KT CAVOK 07/04 Q1025=
201904250000 METAR LRBC 250000Z 17010KT CAVOK 07/04 Q1025=
201904250030 METAR LRBC 250030Z 18010KT CAVOK 07/03 Q1025=
201904250100 METAR LRBC 250100Z 17010KT CAVOK 07/03 Q1025=
201904250130 METAR LRBC 250130Z 16008KT CAVOK 07/03 Q1025=
201904250200 METAR LRBC 250200Z 17008KT CAVOK 06/03 Q1025=
201904250230 METAR LRBC 250230Z 16008KT CAVOK 06/03 Q1025=
201904250300 METAR LRBC 250300Z 17007KT CAVOK 05/03 Q1024=
201904250330 METAR LRBC 250330Z 17009KT CAVOK 06/04 Q1024=
201904250400 METAR LRBC 250400Z 17009KT CAVOK 07/04 Q1025=
201904250430 METAR LRBC 250430Z 17010KT CAVOK 08/04 Q1025=
201904250500 METAR LRBC 250500Z 16011KT CAVOK 09/05 Q1025=
201904250530 METAR LRBC 250530Z 16012KT CAVOK 10/05 Q1025=
201904250600 METAR LRBC 250600Z 16014KT CAVOK 11/05 Q1025=
201904250630 METAR LRBC 250630Z 16015KT CAVOK 12/06 Q1025=
201904250700 METAR LRBC 250700Z 16013KT CAVOK 13/07 Q1025=
201904250730 METAR LRBC 250730Z 16016KT CAVOK 14/06 Q1025=
201904250800 METAR LRBC 250800Z 17017KT CAVOK 15/07 Q1025=
201904250830 METAR LRBC 250830Z 16018KT CAVOK 17/06 Q1024=
201904250900 METAR LRBC 250900Z 16016KT CAVOK 17/06 Q1024=
201904250930 METAR LRBC 250930Z 15017KT CAVOK 19/06 Q1024=
201904251000 METAR LRBC 251000Z 15018KT CAVOK 19/05 Q1024=
201904251030 METAR LRBC 251030Z 15018KT CAVOK 19/06 Q1023=
201904251100 METAR LRBC 251100Z 15017KT CAVOK 20/06 Q1023=
201904251130 METAR LRBC 251130Z 15017KT CAVOK 20/06 Q1023=
201904251200 METAR LRBC 251200Z 15018KT CAVOK 20/06 Q1023=
201904251230 METAR LRBC 251230Z 15017KT CAVOK 21/07 Q1022=
201904251300 METAR LRBC 251300Z 14018KT CAVOK 21/07 Q1022=
201904251330 METAR LRBC 251330Z 15019KT CAVOK 21/07 Q1021=
201904251400 METAR LRBC 251400Z 15017KT CAVOK 21/07 Q1021=
201904251430 METAR LRBC 251430Z 15016KT CAVOK 21/07 Q1021=
201904251500 METAR LRBC 251500Z 15017KT CAVOK 21/08 Q1021=
201904251530 METAR LRBC 251530Z 14017KT CAVOK 21/08 Q1021=
201904251600 METAR LRBC 251600Z 15013KT CAVOK 20/08 Q1021=
201904251630 METAR LRBC 251630Z 15013KT CAVOK 19/08 Q1021=
201904251700 METAR LRBC 251700Z 15010KT CAVOK 19/08 Q1021=
201904251730 METAR LRBC 251730Z 16010KT CAVOK 17/09 Q1021=
201904251800 METAR LRBC 251800Z 16010KT CAVOK 16/08 Q1021=
201904251830 METAR COR LRBC 251830Z 16011KT CAVOK 16/08 Q1022=
201904251900 METAR LRBC 251900Z 16011KT CAVOK 16/07 Q1022=
201904251930 METAR LRBC 251930Z 15010KT CAVOK 15/07 Q1021=
201904252000 METAR LRBC 252000Z 15014KT CAVOK 15/06 Q1021=
201904252030 METAR LRBC 252030Z 16014KT CAVOK 14/06 Q1021=
201904252100 METAR LRBC 252100Z 17013KT CAVOK 13/06 Q1021=
201904252130 METAR LRBC 252130Z 17012KT CAVOK 12/05 Q1021=
201904252200 METAR LRBC 252200Z 17012KT CAVOK 11/05 Q1021=
201904252230 METAR LRBC 252230Z 17013KT CAVOK 11/05 Q1021=
201904252300 METAR LRBC 252300Z 17012KT CAVOK 10/05 Q1021=
201904252330 METAR LRBC 252330Z AUTO 16012KT 9999 NCD 10/05 Q1020=
201904260000 METAR COR LRBC 260000Z 17011KT CAVOK 10/05 Q1020=
201904260030 METAR LRBC 260030Z 17011KT CAVOK 09/05 Q1020=
201904260100 METAR LRBC 260100Z 17011KT CAVOK 09/06 Q1021=
201904260130 METAR COR LRBC 260130Z 17010KT CAVOK 09/06 Q1020=
201904260200 METAR LRBC 260200Z 17009KT CAVOK 08/06 Q1020=
201904260230 METAR LRBC 260230Z 17009KT CAVOK 08/06 Q1020=
201904260300 METAR LRBC 260300Z 16008KT CAVOK 08/06 Q1020=
201904260330 METAR LRBC 260330Z 17009KT CAVOK 08/06 Q1020=
201904260400 METAR COR LRBC 260400Z 18008KT CAVOK 08/07 Q1020=
201904260430 METAR LRBC 260430Z 17010KT 9999 FEW006 09/08 Q1020=
201904260500 METAR LRBC 260500Z 17012KT 9999 SCT005 10/08 Q1020=
201904260530 METAR LRBC 260530Z 17012KT 9999 BKN005 10/08 Q1020=
201904260600 METAR COR LRBC 260600Z 17012KT 9999 FEW005 11/09 Q1020=
201904260630 METAR LRBC 260630Z 17013KT CAVOK 12/09 Q1020=
201904260700 METAR LRBC 260700Z 17013KT CAVOK 14/09 Q1020=
201904260730 METAR LRBC 260730Z 16014KT CAVOK 15/09 Q1020=
201904260800 METAR LRBC 260800Z 17014KT CAVOK 16/09 Q1020=
201904260830 METAR LRBC 260830Z 16012KT CAVOK 17/10 Q1020=
201904260900 METAR LRBC 260900Z 16014KT 9999 FEW045 18/10 Q1019=
201904260930 METAR LRBC 260930Z 16014KT 9999 FEW035 19/09 Q1019=
201904261000 METAR LRBC 261000Z 17014KT 9999 FEW035 20/10 Q1019=
201904261030 METAR LRBC 261030Z 17015KT 9999 FEW035 20/10 Q1019=
201904261100 METAR LRBC 261100Z 16016KT CAVOK 22/10 Q1019=
201904261130 METAR LRBC 261130Z 16016KT 9999 FEW030 22/09 Q1018=
201904261200 METAR LRBC 261200Z 15014KT 9999 FEW030 23/11 Q1018=
201904261230 METAR LRBC 261230Z 15014KT CAVOK 24/10 Q1017=
201904261300 METAR LRBC 261300Z 15015KT CAVOK 24/11 Q1017=
201904261330 METAR LRBC 261330Z 16015KT CAVOK 24/11 Q1016=
201904261400 METAR LRBC 261400Z 15016KT CAVOK 24/10 Q1016=
201904261430 METAR LRBC 261430Z 14016KT CAVOK 24/10 Q1016=
201904261500 METAR LRBC 261500Z 15018KT CAVOK 23/10 Q1016=
201904261530 METAR LRBC 261530Z 15017KT CAVOK 23/10 Q1016=
201904261600 METAR LRBC 261600Z 15014KT 9999 FEW035CB 22/10 Q1016=
201904261630 METAR LRBC 261630Z 15012KT 9999 FEW035CB 21/10 Q1016=
201904261700 METAR LRBC 261700Z 15011KT 9999 FEW035CB 21/11 Q1016=
201904261730 METAR LRBC 261730Z 16008KT 9999 FEW035CB 19/11 Q1016=
201904261800 METAR LRBC 261800Z 15011KT 9999 FEW040 19/11 Q1016=
201904261830 METAR LRBC 261830Z 15014KT 9999 FEW040 19/10 Q1016=
201904261900 METAR LRBC 261900Z 16014KT CAVOK 18/08 Q1016=
201904261930 METAR LRBC 261930Z 19012KT CAVOK 17/09 Q1017=
201904262000 METAR LRBC 262000Z 15012KT CAVOK 16/08 Q1017=
201904262030 METAR LRBC 262030Z 17013KT CAVOK 15/08 Q1016=
201904262100 METAR LRBC 262100Z 18013KT CAVOK 14/07 Q1016=
201904262130 METAR LRBC 262130Z 17015KT CAVOK 14/07 Q1016=
201904262200 METAR LRBC 262200Z AUTO 16012KT 9999 BKN130/// 13/07 Q1016=
201904262230 METAR LRBC 262230Z AUTO 16011KT 9999 BKN130/// 13/07 Q1016=
201904262300 METAR LRBC 262300Z 18010KT CAVOK 13/07 Q1016=
201904262330 METAR LRBC 262330Z AUTO 18012KT 9999 BKN130/// 12/07 Q1015=
201904270000 METAR LRBC 270000Z 17012KT CAVOK 12/06 Q1015=
201904270030 METAR LRBC 270030Z 17013KT CAVOK 11/06 Q1015=
201904270100 METAR LRBC 270100Z 17013KT CAVOK 11/06 Q1015=
201904270130 METAR LRBC 270130Z 17011KT CAVOK 10/06 Q1015=
201904270200 METAR COR LRBC 270200Z 17012KT CAVOK 10/06 Q1014=
201904270230 METAR LRBC 270230Z 17011KT CAVOK 10/06 Q1014=
201904270300 METAR LRBC 270300Z 18011KT CAVOK 09/06 Q1014=
201904270330 METAR LRBC 270330Z 18012KT CAVOK 09/06 Q1014=
201904270400 METAR LRBC 270400Z 17011KT CAVOK 09/06 Q1014=
201904270430 METAR LRBC 270430Z 17014KT CAVOK 10/06 Q1014=
201904270500 METAR LRBC 270500Z 17015KT CAVOK 11/07 Q1014=
201904270530 METAR LRBC 270530Z 17015KT CAVOK 11/07 Q1014=
201904270600 METAR LRBC 270600Z 16014KT CAVOK 13/07 Q1014=
201904270630 METAR LRBC 270630Z 17016KT CAVOK 13/07 Q1014=
201904270700 METAR LRBC 270700Z 17016KT CAVOK 14/07 Q1013=
201904270730 METAR LRBC 270730Z 16014KT CAVOK 16/08 Q1013=
201904270800 METAR LRBC 270800Z 16017KT CAVOK 16/08 Q1013=
201904270830 METAR LRBC 270830Z 16017KT CAVOK 18/09 Q1013=
201904270900 METAR LRBC 270900Z 16015KT CAVOK 19/10 Q1013=
201904270930 METAR LRBC 270930Z 15015KT CAVOK 20/10 Q1012=
201904271000 METAR LRBC 271000Z 15017KT CAVOK 21/10 Q1012=
201904271030 METAR LRBC 271030Z 16018KT CAVOK 22/10 Q1012=
201904271100 METAR LRBC 271100Z 16015KT 9999 FEW060 23/11 Q1012=
201904271130 METAR LRBC 271130Z 16014KT 9999 SCT040 24/10 Q1011=
201904271200 METAR LRBC 271200Z 15014KT 9999 SCT040 24/11 Q1011=
201904271230 METAR LRBC 271230Z 15012KT 9999 SCT040 24/11 Q1011=
201904271300 METAR LRBC 271300Z 16012KT 9999 SCT040 24/11 Q1011=
201904271330 METAR LRBC 271330Z 15013KT 9999 SCT040 24/12 Q1010=
201904271400 METAR LRBC 271400Z 14013KT 9999 SCT050 24/12 Q1010=
201904271430 METAR LRBC 271430Z 15010KT CAVOK 24/12 Q1010=
201904271500 METAR LRBC 271500Z 16010KT CAVOK 23/12 Q1009=
201904271530 METAR LRBC 271530Z 15009KT CAVOK 23/12 Q1009=
201904271600 METAR LRBC 271600Z 14009KT CAVOK 23/11 Q1009=
201904271630 METAR LRBC 271630Z 15011KT CAVOK 22/11 Q1008=
201904271700 METAR LRBC 271700Z 17008KT CAVOK 19/11 Q1008=
201904271730 METAR LRBC 271730Z 16009KT CAVOK 20/11 Q1009=
201904271800 METAR LRBC 271800Z 18012KT CAVOK 19/11 Q1009=
201904271830 METAR LRBC 271830Z 17012KT CAVOK 18/11 Q1009=
201904271900 METAR COR LRBC 271900Z 17014KT CAVOK 18/10 Q1009=
201904271930 METAR LRBC 271930Z 16015KT CAVOK 18/09 Q1009=
201904272000 METAR LRBC 272000Z 16013KT CAVOK 17/09 Q1009=
201904272030 METAR LRBC 272030Z 16012KT CAVOK 16/09 Q1009=
201904272100 METAR LRBC 272100Z 17010KT CAVOK 15/08 Q1009=
201904272130 METAR LRBC 272130Z 18010KT CAVOK 14/08 Q1009=
201904272200 METAR LRBC 272200Z 20009KT CAVOK 13/08 Q1009=
201904272230 METAR LRBC 272230Z 17012KT CAVOK 14/08 Q1009=
201904272300 METAR LRBC 272300Z 16012KT CAVOK 13/07 Q1009=
201904272330 METAR LRBC 272330Z 17009KT CAVOK 12/08 Q1009=
201904280000 METAR LRBC 280000Z 16009KT CAVOK 12/07 Q1009=
201904280030 METAR LRBC 280030Z 19006KT CAVOK 12/07 Q1008=
201904280100 METAR LRBC 280100Z 20007KT CAVOK 11/07 Q1008=
201904280130 METAR LRBC 280130Z 18008KT CAVOK 11/07 Q1008=
201904280200 METAR LRBC 280200Z 16008KT CAVOK 11/07 Q1008=
201904280230 METAR LRBC 280230Z AUTO 19005KT 9999 BKN200/// 10/07 Q1008=
201904280300 METAR COR LRBC 280300Z 19004KT CAVOK 09/07 Q1008=
201904280330 METAR LRBC 280330Z 19005KT CAVOK 09/06 Q1008=
201904280400 METAR LRBC 280400Z 18005KT CAVOK 10/08 Q1008=
201904280430 METAR LRBC 280430Z 17007KT 9999 FEW035 11/08 Q1008=
201904280500 METAR LRBC 280500Z 16008KT 9999 FEW040 12/07 Q1008=
201904280530 METAR LRBC 280530Z 16009KT CAVOK 12/08 Q1008=
201904280600 METAR LRBC 280600Z 13004KT 110V170 9999 FEW050 12/08 Q1008=
201904280630 METAR LRBC 280630Z VRB02KT 9999 FEW050 14/08 Q1008=
201904280700 METAR LRBC 280700Z VRB02KT 9999 FEW050 14/08 Q1008=
201904280730 METAR LRBC 280730Z 18005KT 150V220 9999 FEW050 17/10 Q1008=
201904280800 METAR LRBC 280800Z 19005KT 140V210 9999 FEW055 18/10 Q1008=
201904280830 METAR LRBC 280830Z VRB03KT 9999 FEW060 19/11 Q1008=
201904280900 METAR LRBC 280900Z VRB02KT 9999 SCT050 19/11 Q1008=
201904280930 METAR LRBC 280930Z VRB02KT 9999 FEW050 SCT065 20/12 Q1008=
201904281000 METAR LRBC 281000Z 26010KT 220V290 9999 SCT048 21/12 Q1008=
201904281030 METAR LRBC 281030Z 26015KT 230V290 9999 SCT050 21/10 Q1008=
201904281100 METAR LRBC 281100Z 26013KT 9999 SCT055 21/11 Q1008=
201904281130 METAR LRBC 281130Z 27012KT 9999 SCT060 22/10 Q1008=
201904281200 METAR LRBC 281200Z 23010KT 210V270 9999 SCT055 22/10 Q1008=
201904281230 METAR LRBC 281230Z 24010KT 200V270 9999 SCT060 23/09 Q1007=
201904281300 METAR LRBC 281300Z 24012KT 9999 SCT060 23/07 Q1007=
201904281330 METAR LRBC 281330Z 28007KT 250V320 9999 FEW060 23/07 Q1007=
201904281400 METAR LRBC 281400Z 24010KT 9999 FEW065 22/06 Q1007=
201904281430 METAR LRBC 281430Z 23011KT CAVOK 23/07 Q1007=
201904281500 METAR LRBC 281500Z 26010KT CAVOK 23/07 Q1007=
201904281530 METAR LRBC 281530Z 25012KT CAVOK 22/07 Q1007=
201904281600 METAR LRBC 281600Z 24014KT CAVOK 21/07 Q1007=
201904281630 METAR LRBC 281630Z 25013KT CAVOK 20/07 Q1007=
201904281700 METAR LRBC 281700Z 26015KT CAVOK 20/07 Q1007=
201904281730 METAR LRBC 281730Z 26017KT 9999 FEW050 19/06 Q1008=
201904281800 METAR LRBC 281800Z 27014KT 9999 FEW050 19/06 Q1008=
201904281830 METAR LRBC 281830Z 26012KT 9999 FEW055 19/06 Q1009=
201904281900 METAR LRBC 281900Z 07003KT CAVOK 18/07 Q1009=
201904281930 METAR LRBC 281930Z VRB06KT 9999 -RA SCT060 18/06 Q1009=
201904282000 METAR COR LRBC 282000Z 25008KT CAVOK 17/07 Q1009=
201904282030 METAR LRBC 282030Z 27008KT CAVOK 16/07 Q1010=
201904282100 METAR LRBC 282100Z 30005KT CAVOK 14/07 Q1010=
201904282130 METAR COR LRBC 282130Z 27010KT CAVOK 16/07 Q1010=
201904282200 METAR LRBC 282200Z 27010KT CAVOK 16/07 Q1010=
201904282230 METAR LRBC 282230Z AUTO 27008KT 9999 NCD 15/07 Q1010=
201904282300 METAR LRBC 282300Z 27009KT CAVOK 14/07 Q1010=
201904282330 METAR LRBC 282330Z AUTO 03006KT 340V070 9999 NCD 13/07 Q1010=
201904290000 METAR LRBC 290000Z 33005KT 310V010 CAVOK 12/07 Q1010=
201904290030 METAR LRBC 290030Z AUTO VRB02KT 9999 FEW075/// 12/07 Q1010=
201904290100 METAR LRBC 290100Z 01004KT CAVOK 12/08 Q1010=
201904290130 METAR COR LRBC 290130Z VRB02KT CAVOK 11/07 Q1010=
201904290200 METAR LRBC 290200Z VRB01KT CAVOK 10/07 Q1010=
201904290230 METAR LRBC 290230Z 08003KT CAVOK 10/08 Q1010=
201904290300 METAR LRBC 290300Z 00000KT CAVOK 09/07 Q1010=
201904290330 METAR LRBC 290330Z VRB02KT CAVOK 09/07 Q1010=
201904290400 METAR LRBC 290400Z 00000KT CAVOK 10/08 Q1011=
201904290430 METAR LRBC 290430Z 00000KT CAVOK 13/09 Q1011=
201904290500 METAR LRBC 290500Z 00000KT CAVOK 12/09 Q1011=
201904290530 METAR LRBC 290530Z 05003KT 340V100 CAVOK 13/08 Q1011=
201904290600 METAR LRBC 290600Z VRB02KT CAVOK 16/08 Q1011=
201904290630 METAR LRBC 290630Z 17003KT 110V210 CAVOK 17/08 Q1011=
201904290700 METAR LRBC 290700Z 15005KT 100V200 CAVOK 18/09 Q1011=
201904290730 METAR LRBC 290730Z 15004KT 090V210 CAVOK 19/07 Q1011=
201904290800 METAR LRBC 290800Z VRB03KT 9999 FEW050 19/08 Q1011=
201904290830 METAR LRBC 290830Z VRB05KT 9999 FEW050 20/08 Q1010=
201904290900 METAR LRBC 290900Z 17003KT 080V220 9999 FEW060 20/08 Q1010=
201904290930 METAR LRBC 290930Z 15006KT 110V210 9999 FEW060 21/08 Q1010=
201904291000 METAR LRBC 291000Z 14008KT 9999 FEW065 20/07 Q1010=
201904291030 METAR LRBC 291030Z 16009KT 130V190 9999 SCT060 21/09 Q1009=
201904291100 METAR LRBC 291100Z 19007KT 9999 SCT060 22/08 Q1009=
201904291130 METAR LRBC 291130Z 17005KT 120V230 9999 SCT060 22/07 Q1009=
201904291200 METAR LRBC 291200Z 15006KT 9999 SCT065 21/08 Q1009=
201904291230 METAR LRBC 291230Z 15003KT 100V250 9999 SCT065 22/05 Q1009=
201904291300 METAR LRBC 291300Z 26005KT 210V340 9999 BKN065 23/05 Q1008=
201904291330 METAR LRBC 291330Z 24006KT 190V260 9999 SCT065 23/02 Q1008=
201904291400 METAR LRBC 291400Z 19007KT 9999 SCT065 23/04 Q1008=
201904291430 METAR LRBC 291430Z 23007KT 210V270 9999 SCT065 23/02 Q1008=
201904291500 METAR LRBC 291500Z 14005KT CAVOK 23/04 Q1008=
201904291530 METAR LRBC 291530Z 15015KT CAVOK 21/08 Q1008=
201904291600 METAR LRBC 291600Z 16014KT CAVOK 21/07 Q1008=
201904291630 METAR LRBC 291630Z 16009KT CAVOK 19/09 Q1008=
201904291700 METAR LRBC 291700Z 15007KT CAVOK 18/08 Q1008=
201904291730 METAR LRBC 291730Z 16008KT CAVOK 16/07 Q1008=
201904291800 METAR LRBC 291800Z 20006KT CAVOK 15/07 Q1008=
201904291830 METAR LRBC 291830Z 17003KT 140V220 CAVOK 16/06 Q1009=
201904291900 METAR LRBC 291900Z 15005KT CAVOK 15/07 Q1009=
201904291930 METAR LRBC 291930Z 16006KT CAVOK 14/09 Q1009=
201904292000 METAR LRBC 292000Z 17005KT CAVOK 14/09 Q1009=
201904292030 METAR LRBC 292030Z 15003KT 9999 BKN240 14/09 Q1009=
201904292100 METAR LRBC 292100Z 19002KT CAVOK 14/09 Q1009=
201904292130 METAR LRBC 292130Z 34004KT CAVOK 14/09 Q1010=
201904292200 METAR LRBC 292200Z AUTO 33003KT 310V020 9999 NCD 13/08 Q1010=
201904292230 METAR LRBC 292230Z VRB01KT CAVOK 12/08 Q1010=
201904292300 METAR LRBC 292300Z AUTO VRB02KT 9999 NCD 10/07 Q1010=
201904292330 METAR COR LRBC 292330Z 29003KT CAVOK 10/07 Q1010=
201904300000 METAR LRBC 300000Z 34004KT CAVOK 11/07 Q1010=
201904300030 METAR COR LRBC 300030Z 36003KT CAVOK 11/07 Q1010=
201904300100 METAR COR LRBC 300100Z 35005KT CAVOK 09/06 Q1009=
201904300130 METAR LRBC 300130Z 36004KT CAVOK 10/07 Q1009=
201904300200 METAR LRBC 300200Z 36005KT CAVOK 10/07 Q1009=
201904300230 METAR LRBC 300230Z 02004KT CAVOK 10/07 Q1009=
201904300300 METAR LRBC 300300Z 01004KT CAVOK 10/07 Q1009=
201904300330 METAR LRBC 300330Z 01005KT CAVOK 10/07 Q1009=
201904300400 METAR LRBC 300400Z 36005KT 340V080 CAVOK 11/07 Q1009=
201904300430 METAR LRBC 300430Z 35005KT 9999 FEW060 11/08 Q1009=
201904300500 METAR LRBC 300500Z 01004KT 9999 SCT065 12/07 Q1009=
201904300530 METAR LRBC 300530Z 03004KT 350V050 9999 SCT065 13/08 Q1009=
201904300600 METAR LRBC 300600Z 36004KT 9999 -RA BKN065 13/08 Q1009=
201904300630 METAR LRBC 300630Z 35006KT 9999 BKN065 13/08 Q1009=
201904300700 METAR LRBC 300700Z 35006KT 9999 SCT065 14/09 Q1009=
201904300730 METAR LRBC 300730Z 33005KT 9999 BKN065 14/09 Q1009=
201904300800 METAR LRBC 300800Z 33005KT 9999 -RA SCT055 BKN065 14/09 Q1009=
201904300830 METAR LRBC 300830Z 02004KT 350V050 9999 -RA BKN055 14/10
                        Q1009=
201904300900 METAR LRBC 300900Z 34006KT 9999 BKN055 15/11 Q1009 R16/19//95=
201904300930 METAR LRBC 300930Z 34007KT 9999 SCT060 15/12 Q1009 R16/19//95=
201904301000 METAR LRBC 301000Z 34006KT 9999 BKN065 15/11 Q1009 R16/19//95=
201904301030 METAR LRBC 301030Z 36004KT 310V060 9999 BKN050 16/12 Q1009
                        R16/CLRD//=
201904301100 METAR LRBC 301100Z 36006KT 9999 BKN048 16/12 Q1008=
201904301130 METAR LRBC 301130Z 35007KT 9999 BKN043 17/12 Q1008=
201904301200 METAR LRBC 301200Z 35007KT 9999 SCT044 17/12 Q1007=
201904301230 METAR LRBC 301230Z 34007KT 9999 SCT044 16/12 Q1006=
201904301300 METAR LRBC 301300Z 35008KT 9999 SCT037 BKN065 17/13 Q1006=
201904301330 METAR LRBC 301330Z 33009KT 9999 SCT037 BKN065 17/12 Q1006=
201904301400 METAR LRBC 301400Z 33010KT 9999 SCT037 BKN060 16/12 Q1005=
201904301430 METAR LRBC 301430Z 33009KT 9999 FEW040CB BKN060 16/12 Q1005=
201904301500 METAR LRBC 301500Z 32010KT 9999 FEW040CB BKN060 16/13 Q1005=
201904301530 METAR LRBC 301530Z 32010KT 9999 FEW040CB BKN060 16/13 Q1004=
201904301600 METAR LRBC 301600Z 30009KT 9999 -SHRA FEW030CB BKN043 15/13
                        Q1004=
201904301630 METAR LRBC 301630Z 27020G30KT 9999 -TSRA SCT016 OVC042CB
                        14/12 Q1004=
201904301700 METAR LRBC 301700Z 31010KT 270V330 9999 -TSRA FEW010 OVC040CB
                        13/12 Q1004 R16/220295=
201904301730 METAR LRBC 301730Z 08005KT 050V120 8000 -TSRA OVC043CB 13/12
                        Q1005 R16/220295=
201904301800 METAR LRBC 301800Z 05005KT 020V090 7000 -TSRA SCT028 OVC041CB
                        12/12 Q1004 R16/220295=
201904301830 METAR LRBC 301830Z 03009G19KT 330V060 6000 -TSRA SCT036 OVC044CB
                        12/12 Q1002 R16/250395=
201904301900 METAR LRBC 301900Z VRB05KT 9999 -RA SCT048CB 12/12 Q1003
                        RETS R16/220295=
201904301930 METAR LRBC 301930Z 28011KT 9999 FEW060 12/12 Q1003 R16/220295=
201904302000 METAR LRBC 302000Z 30006KT 9999 FEW065 12/12 Q1003 R16/220295=
201904302030 METAR LRBC 302030Z 29005KT 9999 BKN060 13/11 Q1003 R16/220295=
201904302100 METAR LRBC 302100Z 08004KT 050V130 9999 BKN050 12/12 Q1003
                        R16/220295=
201904302130 METAR LRBC 302130Z 14004KT 100V170 9999 FEW047 BKN065 12/11
                        Q1002 R16/220295=
201904302200 METAR LRBC 302200Z AUTO 14005KT 9999 FEW060/// SCT220///
                        11/11 Q1002=
201904302230 METAR LRBC 302230Z AUTO 14005KT 9999 FEW041/// BKN055///
                        BKN070/// 12/12 Q1002=
201904302300 METAR LRBC 302300Z 17007KT 9999 SCT050 11/11 Q1002 R16/220295=
201904302330 METAR LRBC 302330Z 18007KT 9999 SCT050 BKN065 11/11 Q1001
                        R16/220295=
