201904010200 TAF LRBC 010200Z 0103/0112 35012KT CAVOK
                      TEMPO 0107/0112 35017G27KT
                      PROB40 TEMPO 0110/0112 FEW035CB=
201904010500 TAF LRBC 010500Z 0106/0115 01005KT CAVOK
                      BECMG 0106/0108 01015KT
                      TEMPO 0109/0115 35017G27KT=
201904010800 TAF LRBC 010800Z 0109/0118 36016KT CAVOK
                      TEMPO 0109/0115 36018G28KT=
201904011100 TAF LRBC 011100Z 0112/0121 35016KT CAVOK
                      TEMPO 0112/0116 35018G28KT=
201904011400 TAF LRBC 011400Z 0115/0124 36018KT CAVOK
                      TEMPO 0115/0117 01018G28KT
                      BECMG 0120/0122 01008KT=
201904011700 TAF LRBC 011700Z 0118/0203 35012KT CAVOK=
201904012023 TAF COR LRBC 012023Z 0121/0206 35012KT 9999 BKN060=
201904012300 TAF LRBC 012300Z 0200/0209 35012KT 9999 BKN060=
201904020200 TAF LRBC 020200Z 0203/0212 35012KT 9999 BKN060=
201904020500 TAF LRBC 020500Z 0206/0215 36012KT 9999 BKN060=
201904020800 TAF LRBC 020800Z 0209/0218 36012KT CAVOK=
201904021100 TAF LRBC 021100Z 0212/0221 36012KT CAVOK=
201904021400 TAF LRBC 021400Z 0215/0224 34010KT CAVOK=
201904021700 TAF LRBC 021700Z 0218/0303 01006KT CAVOK=
201904022000 TAF LRBC 022000Z 0221/0306 VRB04KT CAVOK=
201904022300 TAF LRBC 022300Z 0300/0309 VRB04KT CAVOK=
201904030200 TAF LRBC 030200Z 0303/0312 VRB04KT CAVOK=
201904030500 TAF LRBC 030500Z 0306/0315 14006KT CAVOK=
201904030800 TAF LRBC 030800Z 0309/0318 16010KT CAVOK=
201904031100 TAF LRBC 031100Z 0312/0321 16010KT CAVOK=
201904031400 TAF LRBC 031400Z 0315/0324 17010KT CAVOK=
201904031700 TAF LRBC 031700Z 0318/0403 17010KT CAVOK=
201904032000 TAF LRBC 032000Z 0321/0406 16014KT CAVOK=
201904032300 TAF LRBC 032300Z 0400/0409 15006KT CAVOK
                      BECMG 0403/0405 16016KT
                      PROB40 TEMPO 0407/0409 16016G26KT=
201904040200 TAF LRBC 040200Z 0403/0412 15006KT CAVOK
                      BECMG 0405/0407 16018KT=
201904040500 TAF LRBC 040500Z 0406/0415 17012KT CAVOK
                      PROB40 TEMPO 0406/0410 17015G25KT=
201904040800 TAF LRBC 040800Z 0409/0418 17012KT CAVOK
                      PROB40 TEMPO 0409/0412 17015G25KT=
201904041100 TAF LRBC 041100Z 0412/0421 17016KT CAVOK
                      BECMG 0418/0420 17006KT=
201904041400 TAF LRBC 041400Z 0415/0424 17018KT CAVOK
                      BECMG 0418/0420 17008KT=
201904041700 TAF LRBC 041700Z 0418/0503 15012KT CAVOK=
201904042000 TAF LRBC 042000Z 0421/0506 15015KT CAVOK=
201904042300 TAF LRBC 042300Z 0500/0509 16013KT CAVOK=
201904050200 TAF LRBC 050200Z 0503/0512 17012KT CAVOK
                      TEMPO 0509/0512 17015G25KT=
201904050500 TAF LRBC 050500Z 0506/0515 16015KT CAVOK=
201904050800 TAF LRBC 050800Z 0509/0518 16020KT CAVOK
                      BECMG 0515/0517 16010KT=
201904051100 TAF LRBC 051100Z 0512/0521 16020KT CAVOK
                      BECMG 0516/0518 16010KT=
201904051400 TAF LRBC 051400Z 0515/0524 15020KT CAVOK
                      BECMG 0516/0518 15010KT=
201904051700 TAF LRBC 051700Z 0518/0603 15012KT CAVOK
                      TEMPO 0600/0603 5000 BR=
201904052000 TAF LRBC 052000Z 0521/0606 15012KT CAVOK
                      TEMPO 0600/0604 5000 BR BKN005=
201904052300 TAF LRBC 052300Z 0600/0609 16010KT CAVOK
                      TEMPO 0601/0605 5000 BR BKN005=
201904060200 TAF LRBC 060200Z 0603/0612 16012KT 9999 BKN020
                      TEMPO 0603/0605 BKN010=
201904060500 TAF LRBC 060500Z 0606/0615 16016KT 9999 BKN020=
201904060800 TAF LRBC 060800Z 0609/0618 16016KT 9999 BKN025=
201904061100 TAF LRBC 061100Z 0612/0621 17014KT 9999 SCT035
                      TEMPO 0612/0615 16015G25KT=
201904061400 TAF LRBC 061400Z 0615/0624 17014KT CAVOK=
201904061700 TAF LRBC 061700Z 0618/0703 16008KT CAVOK=
201904062000 TAF LRBC 062000Z 0621/0706 16008KT CAVOK=
201904062300 TAF LRBC 062300Z 0700/0709 17008KT CAVOK=
201904070200 TAF LRBC 070200Z 0703/0712 17012KT CAVOK=
201904070500 TAF LRBC 070500Z 0706/0715 17012KT CAVOK=
201904070800 TAF LRBC 070800Z 0709/0718 16014KT CAVOK=
201904071100 TAF LRBC 071100Z 0712/0721 16015KT CAVOK
                      BECMG 0718/0720 VRB04KT=
201904071400 TAF LRBC 071400Z 0715/0724 16012KT CAVOK
                      BECMG 0718/0720 VRB04KT=
201904071700 TAF LRBC 071700Z 0718/0803 15008KT CAVOK
                      BECMG 0723/0801 5000 -RA BR BKN015 BKN035=
201904072000 TAF LRBC 072000Z 0721/0806 16008KT CAVOK
                      BECMG 0723/0801 5000 -RA BR BKN015 BKN035=
201904072300 TAF LRBC 072300Z 0800/0809 16006KT 9999 SCT040
                      BECMG 0800/0802 5000 -RA BR BKN015 OVC035
                       TEMPO 0802/0805 3000 RA BR BKN010 OVC025=
201904080200 TAF LRBC 080200Z 0803/0812 16008KT 9999 -RA BKN015 OVC040
                      TEMPO 0809/0812 3000 RA BR BKN010 OVC025=
201904080500 TAF LRBC 080500Z 0806/0815 16008KT 9999 BKN060
                      BECMG 0807/0809 5000 -RA BR BKN015 OVC040=
201904080800 TAF LRBC 080800Z 0809/0818 16007KT 9999 BKN020
                      TEMPO 0809/0815 5000 -RA BR BKN010 OVC030=
201904081100 TAF LRBC 081100Z 0812/0821 VRB04KT 7000 -RA BKN020 BKN040
                      TEMPO 0812/0815 3000 -SHRA BR BKN010 SCT035CB=
201904081400 TAF LRBC 081400Z 0815/0824 VRB04KT 5000 -RA BR BKN010 OVC020
                      TEMPO 0817/0821 1500 -DZRA BR BKN005 OVC015
                       BECMG 0821/0823 0600 FG BKN002 OVC010=
201904081700 TAF LRBC 081700Z 0818/0903 VRB04KT 5000 BKN010 OVC020
                      TEMPO 0818/0821 1500 -DZRA BR BKN005 OVC015
                       BECMG 0821/0823 1500 BR BKN002 OVC010
                      TEMPO 0823/0903 0600 FG VV001=
201904082000 TAF LRBC 082000Z 0821/0906 VRB04KT 3000 BR BKN010
                      BECMG 0821/0823 1500 BR BKN005
                      PROB40 TEMPO 0823/0905 0600 FG VV001=
201904082300 TAF LRBC 082300Z 0900/0909 VRB04KT 3000 BR BKN005
                      TEMPO 0900/0905 0800 -DZ FG BKN002
                      BECMG 0907/0909 CAVOK=
201904090200 TAF LRBC 090200Z 0903/0912 VRB04KT 3000 BR BKN005
                      TEMPO 0903/0906 1500 BR BKN002
                      BECMG 0906/0908 CAVOK=
201904090500 TAF LRBC 090500Z 0906/0915 VRB04KT 3000 BR BKN010
                      BECMG 0906/0908 CAVOK=
201904090800 TAF LRBC 090800Z 0909/0918 VRB04KT CAVOK
                      TEMPO 0909/0912 5000 -SHRA SCT035CB=
201904091100 TAF LRBC 091100Z 0912/0921 19006KT 9999 SCT040=
201904091400 TAF LRBC 091400Z 0915/0924 VRB04KT 9999 SCT065
                      PROB40 TEMPO 0915/0917 SCT040CB=
201904091700 TAF LRBC 091700Z 0918/1003 VRB04KT CAVOK
                      TEMPO 0918/0920 FEW060CB
                      BECMG 0922/0924 34010KT=
201904092000 TAF LRBC 092000Z 0921/1006 VRB04KT CAVOK
                      BECMG 0922/0924 34010KT=
201904092300 TAF LRBC 092300Z 1000/1009 VRB04KT CAVOK
                      BECMG 1001/1003 34010KT=
201904100200 TAF LRBC 100200Z 1003/1012 01008KT CAVOK=
201904100500 TAF LRBC 100500Z 1006/1015 01010KT CAVOK=
201904100800 TAF LRBC 100800Z 1009/1018 36012KT CAVOK=
201904101100 TAF LRBC 101100Z 1012/1021 36012KT 9999 SCT045
                      BECMG 1019/1021 VRB04KT=
201904101400 TAF LRBC 101400Z 1015/1024 36010KT 9999 SCT045
                      BECMG 1019/1021 VRB04KT
                      PROB40 TEMPO 1021/1024 5000 -SHRA SCT035CB
                       BKN040=
201904101700 TAF LRBC 101700Z 1018/1103 34012KT 9999 BKN065
                      BECMG 1019/1021 VRB04KT
                      BECMG 1022/1024 5000 -SHRA SCT035CB BKN050
                       TEMPO 1100/1103 3000 SHRA BKN010 BKN030CB=
201904102000 TAF LRBC 102000Z 1021/1106 VRB04KT 9999 SCT065
                      BECMG 1022/1024 5000 -SHRA SCT035CB BKN050
                       TEMPO 1100/1106 3000 SHRA BKN010 BKN030CB
                       BECMG 1104/1106 34010KT=
201904102300 TAF LRBC 102300Z 1100/1109 34014KT 9999 SCT035CB BKN050
                      TEMPO 1100/1106 3000 SHRA BKN010 BKN030CB=
201904110200 TAF LRBC 110200Z 1103/1112 34012KT 5000 -RA BR BKN010 BKN025
                      TEMPO 1103/1105 3000 RA BR BKN005 BKN020
                       BECMG 1106/1108 9999 NSW BKN030=
201904110500 TAF LRBC 110500Z 1106/1115 35010KT 5000 -RA BR SCT010 BKN025
                      BECMG 1106/1108 VRB04KT 9999 NSW
                      TEMPO 1111/1115 5000 -SHRA SCT030CB=
201904110800 TAF LRBC 110800Z 1109/1118 35010KT 9999 SCT010 BKN040
                      TEMPO 1111/1117 5000 -SHRA SCT010 SCT030CB
                       OVC040
                      PROB30 TEMPO 1112/1115 3000 TSRA BKN010 BKN030CB=
201904111100 TAF LRBC 111100Z 1112/1121 35010KT 9999 SCT010 BKN040
                      TEMPO 1112/1118 5000 -SHRA BKN010 SCT030CB
                       OVC040
                      PROB30 TEMPO 1112/1115 3000 TSRA
                      BECMG 1118/1120 3000 BR BKN010=
201904111400 TAF LRBC 111400Z 1115/1124 35010KT 9999 BKN010
                      TEMPO 1115/1118 5000 -SHRA BKN005 SCT025CB
                       BECMG 1118/1120 3000 BR
                      TEMPO 1121/1124 1500 BR BKN005=
201904111700 TAF LRBC 111700Z 1118/1203 32008KT 9999 OVC015
                      TEMPO 1118/1120 5000 -RA BKN010 OVC025
                      BECMG 1201/1203 3000 RA BKN005 OVC020=
201904112000 TAF LRBC 112000Z 1121/1206 34008KT 9999 BKN015
                      BECMG 1202/1204 3000 RA BKN005 OVC025=
201904112300 TAF LRBC 112300Z 1200/1209 30008KT 5000 BR BKN015
                      BECMG 1202/1204 3000 RA BR BKN005 OVC025=
201904120200 TAF LRBC 120200Z 1203/1212 35008KT 9999 OVC015
                      TEMPO 1203/1205 3000 BR OVC005
                      BECMG 1205/1207 5000 RA BKN010 OVC030=
201904120500 TAF LRBC 120500Z 1206/1215 35014KT 9999 BKN015 OVC020
                      TEMPO 1206/1208 5000 -RA BR BKN010 OVC020
                       BECMG 1210/1212 SCT015 OVC025=
201904120800 TAF LRBC 120800Z 1209/1218 35014KT 9999 BKN015 OVC020
                      TEMPO 1209/1212 5000 -RA BR BKN010 OVC020
                       TEMPO 1212/1215 SCT015 OVC025=
201904121100 TAF LRBC 121100Z 1212/1221 35014KT 9999 BKN015 OVC025
                      TEMPO 1212/1215 SCT015 OVC025
                      BECMG 1217/1219 5000 -RA BR BKN010 OVC020=
201904121400 TAF LRBC 121400Z 1215/1224 35010KT 9999 BKN015 OVC025
                      PROB40 TEMPO 1215/1217 SCT015 OVC025
                      BECMG 1218/1220 5000 -RA BR BKN010 OVC020
                       TEMPO 1221/1224 3000 -RA BR=
201904121700 TAF LRBC 121700Z 1218/1303 35010KT 9999 SCT015 OVC030
                      BECMG 1218/1220 5000 BR BKN010 OVC025
                      TEMPO 1221/1303 3000 -RADZ BR OVC005=
201904122000 TAF LRBC 122000Z 1221/1306 34008KT 9999 BKN010 BKN020
                      BECMG 1222/1224 5000 BR
                      PROB40 TEMPO 1300/1303 3000 -RADZ BR OVC005=
201904122300 TAF LRBC 122300Z 1300/1309 35010KT 5000 BR BKN010 OVC025
                      PROB40 TEMPO 1300/1303 3000 -RADZ BR OVC005
                       BECMG 1306/1308 9999 NSW BKN020=
201904130200 TAF LRBC 130200Z 1303/1312 35010KT 9999 OVC015
                      BECMG 1306/1308 BKN020=
201904130500 TAF LRBC 130500Z 1306/1315 35012KT 9999 OVC015
                      BECMG 1307/1309 BKN025=
201904130800 TAF LRBC 130800Z 1309/1318 35012KT 9999 OVC015
                      BECMG 1309/1311 BKN025=
201904131100 TAF LRBC 131100Z 1312/1321 35012KT 9999 OVC020
                      PROB30 TEMPO 1312/1314 5000 -SHRA BKN025
                       SCT030CB BKN035
                      BECMG 1319/1321 3000 -RA BR BKN005 OVC020=
201904131339 TAF AMD LRBC 131339Z 1313/1321 36010KT 9999 BKN010
                      PROB30 TEMPO 1313/1315 5000 -RA BR BKN015
                       BKN025
                      BECMG 1319/1321 3000 -RA BR BKN005 OVC020=
201904131400 TAF LRBC 131400Z 1315/1324 36010KT 5000 -RA BR BKN015 OVC025
                      TEMPO 1315/1319 BKN010 BKN020
                      BECMG 1319/1321 3000 -RA BR BKN005 OVC015=
201904131700 TAF LRBC 131700Z 1318/1403 35011KT 8000 -RA BKN007 OVC035
                      TEMPO 1319/1324 4000 -RA BR BKN005 OVC015=
201904132000 TAF LRBC 132000Z 1321/1406 35010KT 7000 -RA BKN007 OVC025
                      TEMPO 1321/1401 4000 -RA BR BKN005 OVC020=
201904132300 TAF LRBC 132300Z 1400/1409 34010KT 7000 -RA BKN007 OVC035
                      TEMPO 1400/1405 4000 -RA BR BKN005 OVC020
                       BECMG 1406/1408 9999 NSW BKN015 BKN035
                      BECMG 1408/1409 35015G25KT BKN020 BKN035=
201904140200 TAF LRBC 140200Z 1403/1412 34010KT 5000 -RA BKN007 OVC035
                      TEMPO 1403/1405 3000 -RA BR BKN005 OVC020
                       BECMG 1406/1408 9999 NSW BKN015 BKN035
                      BECMG 1408/1410 35015G25KT SCT015 BKN035=
201904140500 TAF LRBC 140500Z 1406/1415 34010KT 5000 BR BKN015 OVC035
                      TEMPO 1406/1411 3000 -RA BR BKN005 OVC030
                       BECMG 1413/1415 9999 NSW BKN025=
201904140800 TAF LRBC 140800Z 1409/1418 34014KT 9999 BKN015 OVC035
                      TEMPO 1409/1411 3000 -RA BR BKN005 OVC030=
201904141100 TAF LRBC 141100Z 1412/1421 34014KT 9999 BKN015 OVC035
                      TEMPO 1412/1415 5000 -DZ BR BKN010 OVC030=
201904141400 TAF LRBC 141400Z 1415/1424 34014KT 9999 BKN015 OVC035
                      TEMPO 1415/1417 5000 -DZ BR BKN010 OVC030=
201904141700 TAF LRBC 141700Z 1418/1503 34010KT 9999 SCT045=
201904142000 TAF LRBC 142000Z 1421/1506 34008KT CAVOK=
201904142300 TAF LRBC 142300Z 1500/1509 34008KT 9999 BKN040=
201904150200 TAF LRBC 150200Z 1503/1512 35010KT CAVOK
                      TEMPO 1509/1512 35015G25KT=
201904150500 TAF LRBC 150500Z 1506/1515 35012KT CAVOK
                      TEMPO 1509/1515 35015G25KT=
201904150800 TAF LRBC 150800Z 1509/1518 35014KT 9999 SCT035
                      TEMPO 1509/1515 35015G25KT=
201904151100 TAF LRBC 151100Z 1512/1521 36015KT 9999 SCT050
                      TEMPO 1512/1515 36016G26KT=
201904151400 TAF LRBC 151400Z 1515/1524 36015KT 9999 SCT050
                      TEMPO 1515/1517 36016G26KT=
201904151700 TAF LRBC 151700Z 1518/1603 34010KT CAVOK
                      BECMG 1601/1603 32020KT=
201904152000 TAF LRBC 152000Z 1521/1606 32008KT 9999 BKN035
                      BECMG 1601/1603 34018KT
                      TEMPO 1604/1606 3000 RA BKN010 OVC025=
201904152300 TAF LRBC 152300Z 1600/1609 32010KT CAVOK
                      BECMG 1602/1604 34020KT
                      BECMG 1606/1608 3000 RA BKN010 OVC025=
201904160200 TAF LRBC 160200Z 1603/1612 32016KT CAVOK
                      TEMPO 1603/1606 32020G30KT
                      BECMG 1606/1608 3000 RA BKN010 OVC025=
201904160500 TAF LRBC 160500Z 1606/1615 34012KT CAVOK
                      TEMPO 1608/1612 32015G25KT
                      TEMPO 1612/1615 5000 -RA BR BKN015 BKN030=
201904160800 TAF LRBC 160800Z 1609/1618 35016G26KT 9999 SCT050
                      PROB30 TEMPO 1609/1610 5000 -RA BR
                      TEMPO 1611/1614 5000 -SHRA
                      TEMPO 1616/1618 5000 -RA BR
                      BECMG 1616/1618 31012KT BKN015 OVC030=
201904161100 TAF LRBC 161100Z 1612/1621 35014KT 9999 -RA BKN050
                      PROB40 TEMPO 1612/1616 35016G26KT 5000 -SHRA
                       BECMG 1616/1618 5000 -RA BR BKN015 OVC025=
201904161400 TAF LRBC 161400Z 1615/1624 33012KT 9999 -RA BKN020 OVC033
                      BECMG 1616/1618 BKN015 OVC025
                      TEMPO 1621/1624 5000 -RADZ BR BKN010 OVC020=
201904161700 TAF LRBC 161700Z 1618/1703 34010KT 9999 -RA BKN020 OVC033
                      BECMG 1618/1620 BKN015 OVC025
                      TEMPO 1622/1703 5000 -RADZ BR BKN010 OVC020=
201904162000 TAF LRBC 162000Z 1621/1706 34010KT 9999 BKN030
                      TEMPO 1623/1706 5000 -RADZ BR BKN010 OVC020=
201904162300 TAF LRBC 162300Z 1700/1709 36008KT 5000 -RA BR BKN020 OVC033
                      TEMPO 1700/1706 3000 -RADZ BR BKN010 OVC020=
201904170200 TAF LRBC 170200Z 1703/1712 35009KT 5000 -RA BR BKN020 OVC033
                      TEMPO 1703/1707 3000 -RADZ BR BKN010 OVC020=
201904170500 TAF LRBC 170500Z 1706/1715 34010KT 9999 BKN015 BKN030
                      TEMPO 1706/1709 3000 RA BKN010 OVC025
                      TEMPO 1712/1715 5000 RA=
201904170800 TAF LRBC 170800Z 1709/1718 34012KT 9999 BKN015 BKN025
                      TEMPO 1709/1713 5000 RA BKN010 OVC025=
201904171100 TAF LRBC 171100Z 1712/1721 35012KT 9999 SCT010 BKN025
                      TEMPO 1712/1716 5000 -RA BR BKN010 OVC025=
201904171400 TAF LRBC 171400Z 1715/1724 35008KT 9999 BKN035
                      PROB30 TEMPO 1715/1718 5000 -RA BR BKN010
                       OVC035
                      BECMG 1722/1724 5000 -RA BR BKN010 OVC020=
201904171700 TAF LRBC 171700Z 1718/1803 32008KT 9999 BKN020 BKN035
                      BECMG 1723/1801 5000 -RA BR BKN015 OVC030
                       TEMPO 1801/1803 3000 -RADZ BR BKN010 OVC020=
201904172000 TAF LRBC 172000Z 1721/1806 34008KT 9999 BKN050
                      BECMG 1723/1801 5000 -RA BR BKN015 OVC030
                       TEMPO 1801/1806 1500 RADZ BR BKN007 OVC020=
201904172300 TAF LRBC 172300Z 1800/1809 34008KT 5000 -RA BR BKN015 OVC030
                      TEMPO 1801/1806 1500 RADZ BR BKN007 OVC020
                       BECMG 1807/1809 9999 NSW SCT015 BKN035=
201904180200 TAF LRBC 180200Z 1803/1812 34008KT 5000 -RA BR BKN010 OVC030
                      TEMPO 1803/1806 1500 RADZ BR BKN005 OVC020
                       BECMG 1807/1809 9999 NSW SCT015 BKN035=
201904180500 TAF LRBC 180500Z 1806/1815 01008KT 9999 BKN010 OVC030
                      TEMPO 1807/1811 5000 -RA BR BKN005 OVC020
                       BECMG 1811/1813 SCT015 BKN035=
201904180800 TAF LRBC 180800Z 1809/1818 01008KT 9999 SCT015 BKN030
                      TEMPO 1810/1814 5000 -RA BR BKN005 OVC020=
201904181100 TAF LRBC 181100Z 1812/1821 34012KT 9999 SCT015 BKN040
                      TEMPO 1812/1815 5000 -RA BR BKN010 OVC030=
201904181400 TAF LRBC 181400Z 1815/1824 34010KT 9999 SCT025 BKN040=
201904181700 TAF LRBC 181700Z 1818/1903 34008KT CAVOK=
201904182000 TAF LRBC 182000Z 1821/1906 34008KT CAVOK=
201904182300 TAF LRBC 182300Z 1900/1909 34008KT CAVOK
                      PROB40 TEMPO 1906/1909 5000 -SHRA SCT030CB=
201904190200 TAF LRBC 190200Z 1903/1912 34006KT CAVOK
                      PROB40 TEMPO 1909/1912 5000 -SHRA SCT030CB=
201904190500 TAF LRBC 190500Z 1906/1915 35012KT CAVOK
                      BECMG 1909/1911 SCT035CB
                      TEMPO 1911/1915 VRB16G26KT 3000 TSRA BKN010
                       BKN030CB BKN045=
201904190800 TAF LRBC 190800Z 1909/1918 35012KT 9999 SCT040 BKN060
                      BECMG 1909/1911 SCT035CB BKN050
                      TEMPO 1911/1915 VRB16G26KT 3000 TSRA BKN010
                       BKN030CB BKN045=
201904191100 TAF LRBC 191100Z 1912/1921 35012KT 9999 SCT040CB BKN060
                      TEMPO 1912/1916 VRB16G26KT 3000 TSRA BKN010
                       BKN030CB BKN045
                      TEMPO 1916/1918 5000 -SHRA
                      BECMG 1919/1921 NSC=
201904191400 TAF LRBC 191400Z 1915/1924 02010KT 9999 SCT040CB
                      TEMPO 1915/1917 VRB15G25KT 5000 -TSRA BKN010
                       BKN030CB BKN045
                      BECMG 1919/1921 NSC=
201904191700 TAF LRBC 191700Z 1918/2003 35006KT 9999 SCT045
                      TEMPO 1918/1921 5000 -SHRA SCT040CB=
201904192000 TAF LRBC 192000Z 1921/2006 34008KT 9999 SCT030 BKN045
                      TEMPO 1921/1923 5000 -RA=
201904192300 TAF LRBC 192300Z 2000/2009 34008KT 9999 SCT040=
201904200200 TAF LRBC 200200Z 2003/2012 34008KT 5000 BR NSC
                      TEMPO 2003/2004 1500 BR
                      BECMG 2004/2006 9999 NSW=
201904200500 TAF LRBC 200500Z 2006/2015 36008KT CAVOK=
201904200800 TAF LRBC 200800Z 2009/2018 36010KT 9999 SCT040
                      PROB30 TEMPO 2010/2015 FEW030CB BKN040=
201904201100 TAF LRBC 201100Z 2012/2021 36010KT 9999 SCT040
                      PROB30 TEMPO 2012/2015 FEW030CB BKN040
                      BECMG 2017/2019 VRB04KT=
201904201400 TAF LRBC 201400Z 2015/2024 36010KT CAVOK
                      BECMG 2016/2018 VRB04KT=
201904201700 TAF LRBC 201700Z 2018/2103 VRB03KT CAVOK=
201904202000 TAF LRBC 202000Z 2021/2106 VRB03KT CAVOK=
201904202300 TAF LRBC 202300Z 2100/2109 VRB03KT CAVOK=
201904210200 TAF LRBC 210200Z 2103/2112 VRB03KT CAVOK
                      BECMG 2110/2112 17010KT=
201904210500 TAF LRBC 210500Z 2106/2115 VRB03KT CAVOK
                      BECMG 2109/2111 16010KT
                      PROB30 TEMPO 2112/2115 5000 -TSRA SCT040CB=
201904210800 TAF LRBC 210800Z 2109/2118 16010KT CAVOK
                      PROB30 TEMPO 2112/2115 5000 -TSRA SCT040CB=
201904211100 TAF LRBC 211100Z 2112/2121 15010KT CAVOK
                      PROB30 TEMPO 2112/2115 5000 -TSRA SCT040CB=
201904211400 TAF LRBC 211400Z 2115/2124 16010KT CAVOK
                      PROB40 TEMPO 2115/2117 5000 -SHRA SCT040CB=
201904211700 TAF LRBC 211700Z 2118/2203 VRB04KT 9999 SCT050
                      PROB30 2118/2120 FEW040CB BKN050
                      BECMG 2121/2123 15010KT 5000 -RA BKN015 BKN040
                       TEMPO 2123/2203 3000 SHRA BKN010 SCT030CB
                       OVC040=
201904212000 TAF LRBC 212000Z 2121/2206 VRB04KT 9999 SCT050
                      BECMG 2121/2123 15010KT 5000 -RA BKN015 BKN040
                       TEMPO 2123/2204 3000 SHRA BKN010 SCT030CB
                       OVC040=
201904212300 TAF LRBC 212300Z 2200/2209 15010KT 9999 BKN040
                      TEMPO 2200/2203 5000 SHRA BKN015 SCT035CB
                       OVC040=
201904220200 TAF LRBC 220200Z 2203/2212 16010KT 9999 BKN040
                      TEMPO 2203/2206 5000 SHRA BKN015 SCT035CB
                       OVC040=
201904220500 TAF LRBC 220500Z 2206/2215 14008KT 9999 BKN020
                      PROB30 TEMPO 2206/2209 5000 -SHRA BKN010
                       SCT025CB BKN040=
201904220800 TAF LRBC 220800Z 2209/2218 14008KT 9999 BKN020
                      PROB30 TEMPO 2209/2213 5000 -SHRA BKN010
                       SCT025CB BKN040=
201904221100 TAF LRBC 221100Z 2212/2221 13008KT CAVOK=
201904221400 TAF LRBC 221400Z 2215/2224 13008KT CAVOK=
201904221700 TAF LRBC 221700Z 2218/2303 24006KT CAVOK=
201904222000 TAF LRBC 222000Z 2221/2306 VRB04KT CAVOK=
201904222300 TAF LRBC 222300Z 2300/2309 VRB04KT CAVOK
                      BECMG 2307/2309 15012KT=
201904230200 TAF LRBC 230200Z 2303/2312 VRB04KT CAVOK
                      BECMG 2307/2309 15012KT=
201904230500 TAF LRBC 230500Z 2306/2315 VRB03KT CAVOK
                      BECMG 2307/2309 16012KT=
201904230800 TAF LRBC 230800Z 2309/2318 16010KT CAVOK=
201904231100 TAF LRBC 231100Z 2312/2321 16016KT CAVOK=
201904231400 TAF LRBC 231400Z 2315/2324 16012KT CAVOK=
201904231700 TAF LRBC 231700Z 2318/2403 16008KT CAVOK=
201904232000 TAF LRBC 232000Z 2321/2406 16010KT CAVOK=
201904232300 TAF LRBC 232300Z 2400/2409 16010KT CAVOK=
201904240200 TAF LRBC 240200Z 2403/2412 15012KT CAVOK=
201904240500 TAF LRBC 240500Z 2406/2415 16014KT 9999 BKN055
                      TEMPO 2406/2410 5000 -RA BR=
201904240800 TAF LRBC 240800Z 2409/2418 16016KT 9999 BKN050
                      BECMG 2416/2418 18006KT=
201904241100 TAF LRBC 241100Z 2412/2421 16016KT 9999 BKN050
                      BECMG 2416/2418 18006KT=
201904241400 TAF LRBC 241400Z 2415/2424 16018KT CAVOK
                      BECMG 2416/2418 16008KT=
201904241700 TAF LRBC 241700Z 2418/2503 16008KT CAVOK=
201904242000 TAF LRBC 242000Z 2421/2506 16010KT CAVOK=
201904242300 TAF LRBC 242300Z 2500/2509 16010KT CAVOK=
201904250200 TAF LRBC 250200Z 2503/2512 16010KT CAVOK
                      TEMPO 2508/2512 18015G25KT=
201904250500 TAF LRBC 250500Z 2506/2515 16010KT CAVOK
                      TEMPO 2508/2514 18015G25KT=
201904250800 TAF LRBC 250800Z 2509/2518 17017KT CAVOK
                      BECMG 2516/2518 18007KT=
201904251100 TAF LRBC 251100Z 2512/2521 15018KT CAVOK
                      BECMG 2516/2518 18008KT=
201904251400 TAF LRBC 251400Z 2515/2524 15018KT CAVOK
                      BECMG 2517/2519 18008KT=
201904251700 TAF LRBC 251700Z 2518/2603 15008KT CAVOK=
201904252000 TAF LRBC 252000Z 2521/2606 15010KT CAVOK=
201904252300 TAF LRBC 252300Z 2600/2609 15008KT CAVOK=
201904260200 TAF LRBC 260200Z 2603/2612 17012KT CAVOK=
201904260500 TAF LRBC 260500Z 2606/2615 16014KT CAVOK
                      TEMPO 2611/2615 SCT030CB
                      PROB30 2612/2615 VRB15G25KT 3000 TSRA BKN010
                       BKN025CB=
201904260800 TAF LRBC 260800Z 2609/2618 16014KT CAVOK
                      TEMPO 2611/2615 VRB15G25KT 3000 TSRA BKN010
                       BKN030CB=
201904261100 TAF LRBC 261100Z 2612/2621 16015KT CAVOK
                      TEMPO 2612/2616 VRB15G25KT 3000 TSRA BKN010
                       BKN025CB=
201904261400 TAF LRBC 261400Z 2615/2624 15015KT CAVOK
                      PROB30 TEMPO 2615/2618 VRB15G25KT 5000 TSRA
                       BKN010 BKN030CB=
201904261700 TAF LRBC 261700Z 2618/2703 18008KT CAVOK=
201904262000 TAF LRBC 262000Z 2621/2706 16010KT CAVOK=
201904262300 TAF LRBC 262300Z 2700/2709 17010KT CAVOK=
201904270200 TAF LRBC 270200Z 2703/2712 17012KT CAVOK=
201904270500 TAF LRBC 270500Z 2706/2715 17015KT CAVOK
                      TEMPO 2708/2715 17015G25KT=
201904270800 TAF LRBC 270800Z 2709/2718 16015KT CAVOK
                      PROB40 TEMPO 2709/2715 16017G27KT=
201904271100 TAF LRBC 271100Z 2712/2721 16017KT CAVOK=
201904271400 TAF LRBC 271400Z 2715/2724 15014KT CAVOK=
201904271700 TAF LRBC 271700Z 2718/2803 17010KT CAVOK=
201904272000 TAF LRBC 272000Z 2721/2806 16012KT CAVOK=
201904272300 TAF LRBC 272300Z 2800/2809 16012KT CAVOK=
201904280200 TAF LRBC 280200Z 2803/2812 16010KT CAVOK=
201904280500 TAF LRBC 280500Z 2806/2815 16008KT 9999 SCT040
                      PROB40 TEMPO 2811/2815 VRB20G30KT 5000 TSRA
                       SCT040CB BKN065=
201904280800 TAF LRBC 280800Z 2809/2818 VRB04KT 9999 SCT040
                      PROB40 TEMPO 2810/2815 VRB20G30KT 5000 TSRA
                       SCT040CB BKN065=
201904281100 TAF LRBC 281100Z 2812/2821 VRB04KT 9999 SCT055
                      PROB40 TEMPO 2812/2815 26015KT -TSRA SCT040CB
                       BKN055=
201904281400 TAF LRBC 281400Z 2815/2824 VRB04KT 9999 SCT055
                      TEMPO 2815/2818 26010KT -TSRA SCT040CB BKN055=
201904281700 TAF LRBC 281700Z 2818/2903 26014KT CAVOK=
201904282000 TAF LRBC 282000Z 2821/2906 26008KT CAVOK=
201904282300 TAF LRBC 282300Z 2900/2909 27010KT CAVOK=
201904290200 TAF LRBC 290200Z 2903/2912 VRB04KT CAVOK=
201904290500 TAF LRBC 290500Z 2906/2915 VRB04KT CAVOK
                      BECMG 2909/2911 18010KT=
201904290800 TAF LRBC 290800Z 2909/2918 VRB04KT CAVOK
                      BECMG 2911/2913 18010KT=
201904291100 TAF LRBC 291100Z 2912/2921 18010KT CAVOK
                      BECMG 2915/2917 VRB04KT=
201904291400 TAF LRBC 291400Z 2915/2924 18010KT CAVOK
                      BECMG 2915/2917 VRB04KT=
201904291700 TAF LRBC 291700Z 2918/3003 16006KT CAVOK
                      TEMPO 3000/3003 5000 BR=
201904292000 TAF LRBC 292000Z 2921/3006 VRB04KT CAVOK
                      TEMPO 3000/3004 5000 BR=
201904292300 TAF LRBC 292300Z 3000/3009 VRB04KT CAVOK
                      TEMPO 3000/3004 5000 BR=
201904300200 TAF LRBC 300200Z 3003/3012 VRB04KT CAVOK
                      TEMPO 3003/3005 5000 BR
                      TEMPO 3009/3012 5000 -SHRA SCT015 SCT040CB=
201904300500 TAF LRBC 300500Z 3006/3015 VRB04KT 9999 BKN035
                      PROB40 TEMPO 3010/3012 5000 -SHRA SCT015
                       SCT040CB
                      TEMPO 3012/3015 VRB15G25KT 3000 TSRA BKN010
                       BKN035CB=
201904300800 TAF LRBC 300800Z 3009/3018 VRB04KT 9999 BKN045
                      TEMPO 3009/3012 5000 -SHRA SCT015 SCT040CB
                       PROB40
                      TEMPO 3012/3016 VRB15G25KT 3000 TSRA BKN010
                       BKN035CB=
201904301100 TAF LRBC 301100Z 3012/3021 VRB04KT 9999 BKN045
                      PROB40 TEMPO 3012/3015 VRB15G25KT 5000 TSRA
                       SCT035CB
                      TEMPO 3015/3019 VRB20G30KT 3000 TSRA BKN010
                       BKN030CB=
201904301400 TAF LRBC 301400Z 3015/3024 VRB04KT 9999 BKN035
                      TEMPO 3015/3018 5000 SHRA SCT035CB
                      TEMPO 3018/3022 VRB15G25KT 5000 TSRA SCT010
                       BKN030CB=
201904301642 TAF AMD LRBC 301642Z 3016/3024 27010KT 9999 -TSRA SCT015 BKN040CB
                       BECMG 3016/3018 3000 SHRA
                      BECMG 3019/3021 VRB04KT CAVOK=
201904301700 TAF LRBC 301700Z 3018/0103 VRB04KT 9999 -TSRA SCT010 BKN040CB
                      TEMPO 3018/3020 3000 TSRA
                      BECMG 3020/3021 CAVOK=
201904302000 TAF LRBC 302000Z 3021/0106 VRB04KT 9999 SCT060=
201904302300 TAF LRBC 302300Z 0100/0109 17007KT 9999 SCT045=