201905010000 METAR LRBC 010000Z 16006KT 9999 BKN047 11/11 Q1001 R16/220295=
201905010030 METAR LRBC 010030Z 16006KT 9999 SCT049 11/11 Q1001 R16/220295=
201905010100 METAR LRBC 010100Z 17007KT CAVOK 11/10 Q1001 R16/220295=
201905010130 METAR LRBC 010130Z 17005KT CAVOK 10/09 Q1000 R16/220295=
201905010200 METAR LRBC 010200Z 18005KT 140V220 9999 FEW043 11/09 Q1000
                        R16/220295=
201905010230 METAR LRBC 010230Z 21008KT 9999 FEW040 11/08 Q1000 R16/220295=
201905010300 METAR LRBC 010300Z 17005KT 140V200 CAVOK 10/08 Q1000 R16/19//95=
201905010330 METAR LRBC 010330Z 20009KT CAVOK 10/08 Q1000 R16/19//95=
201905010400 METAR LRBC 010400Z 20004KT 150V250 CAVOK 10/08 Q1000 R16/19//95=
201905010430 METAR LRBC 010430Z 18005KT 150V250 9999 FEW060 10/08 Q1000
                        R16/19//95=
201905010500 METAR LRBC 010500Z 17006KT 9999 FEW060 10/08 Q1000 R16/19//95=
201905010530 METAR LRBC 010530Z 16007KT 9999 FEW065 12/09 Q1000 R16/19//95=
201905010600 METAR LRBC 010600Z 17008KT 140V200 9999 FEW065 12/09 Q1000
                        R16/19//95=
201905010630 METAR LRBC 010630Z 17010KT 9999 SCT065 12/08 Q1000 R16/19//95=
201905010700 METAR LRBC 010700Z 17012KT 9999 SCT060 13/09 Q1000 R16/19//95=
201905010730 METAR LRBC 010730Z 18009KT 130V200 9999 SCT060 15/09 Q1000
                        R16/19//95=
201905010800 METAR LRBC 010800Z 16010KT 9999 SCT039 15/10 Q1000 R16/19//95=
201905010830 METAR LRBC 010830Z 22009KT 9999 VCSH FEW041CB BKN047 16/08
                        Q1000 R16/19//95=
201905010900 METAR LRBC 010900Z 25006KT 200V290 9999 FEW040CB BKN046 16/08
                        Q1000 RESHRA R16/19//95=
201905010930 METAR LRBC 010930Z 33006KT 9999 FEW044CB BKN050 16/08 Q1000
                        R16/19//95=
201905011000 METAR LRBC 011000Z 35003KT 280V040 9999 FEW046CB BKN065 17/07
                        Q1000 R16/19//95=
201905011030 METAR LRBC 011030Z 24012KT 9999 BKN050 17/07 Q0999 R16/19//95=
201905011100 METAR LRBC 011100Z 26012KT 9999 SCT050 BKN065 18/07 Q1000
                        R16/19//95=
201905011130 METAR LRBC 011130Z 32005KT 260V010 9999 VCSH FEW040CB BKN050
                        17/09 Q1000 R16/CLRD//=
201905011200 METAR LRBC 011200Z 27014KT 9999 -SHRA FEW043 BKN050CB 17/08
                        Q1000=
201905011230 METAR LRBC 011230Z 36009KT 9999 SCT043 SCT050CB 15/09 Q1001=
201905011300 METAR LRBC 011300Z 32005KT 290V360 9999 -SHRA SCT038 BKN050CB
                        15/10 Q1001=
201905011330 METAR LRBC 011330Z 29007KT 9999 FEW029 SCT041 BKN050CB 16/10
                        Q1001=
201905011400 METAR LRBC 011400Z 29007KT 260V330 9999 BKN050 SCT065 16/09
                        Q1001=
201905011430 METAR LRBC 011430Z 32004KT 9999 BKN055 16/09 Q1002=
201905011500 METAR LRBC 011500Z 34007KT 9999 BKN060 15/10 Q1002=
201905011530 METAR LRBC 011530Z 35007KT 9999 BKN055 15/09 Q1002=
201905011600 METAR LRBC 011600Z 36010KT 9999 BKN065 14/09 Q1003=
201905011630 METAR LRBC 011630Z 36009KT 9999 BKN050 14/09 Q1003=
201905011700 METAR LRBC 011700Z 01005KT 340V040 9999 BKN060 13/09 Q1003=
201905011730 METAR LRBC 011730Z 35009KT 9999 BKN065 13/09 Q1004=
201905011800 METAR LRBC 011800Z 36006KT 9999 OVC065 13/09 Q1004=
201905011830 METAR LRBC 011830Z 34006KT 9999 FEW055 BKN065 12/09 Q1005=
201905011900 METAR LRBC 011900Z 22002KT 9999 FEW050 SCT065 11/09 Q1005=
201905011930 METAR LRBC 011930Z 36002KT 9999 SCT065 11/09 Q1005=
201905012000 METAR LRBC 012000Z 32006KT 9999 SCT065 09/08 Q1006=
201905012030 METAR LRBC 012030Z 34004KT 9999 SCT065 09/08 Q1006=
201905012100 METAR LRBC 012100Z 34003KT 9999 SCT065 09/08 Q1006=
201905012130 METAR LRBC 012130Z 17002KT 9999 FEW065 08/08 Q1006=
201905012200 METAR LRBC 012200Z 20006KT 9999 FEW065 08/07 Q1006=
201905012230 METAR LRBC 012230Z 15004KT CAVOK 08/08 Q1006=
201905012300 METAR LRBC 012300Z 15004KT CAVOK 09/08 Q1006=
201905012330 METAR LRBC 012330Z VRB02KT CAVOK 08/07 Q1006=
201905020000 METAR LRBC 020000Z 10001KT CAVOK 08/08 Q1005=
201905020030 METAR LRBC 020030Z 04003KT CAVOK 07/07 Q1005=
201905020100 METAR LRBC 020100Z 06003KT 9999 FEW060 08/08 Q1005=
201905020130 METAR LRBC 020130Z 07005KT 9000 FEW060 08/08 Q1005=
201905020200 METAR LRBC 020200Z 09005KT 9999 FEW060 08/08 Q1005=
201905020230 METAR LRBC 020230Z 09003KT 8000 NSC 07/07 Q1005=
201905020300 METAR COR LRBC 020300Z 24001KT 5000 BR NSC 07/07 Q1005=
201905020330 METAR LRBC 020330Z VRB01KT 4000S BR NSC 07/07 Q1005=
201905020400 METAR LRBC 020400Z VRB02KT 9000 NSC 08/08 Q1006=
201905020430 METAR LRBC 020430Z VRB02KT 9000 NSC 10/09 Q1006=
201905020500 METAR LRBC 020500Z VRB02KT CAVOK 11/09 Q1006=
201905020530 METAR LRBC 020530Z VRB02KT CAVOK 12/09 Q1006=
201905020600 METAR LRBC 020600Z VRB02KT CAVOK 14/09 Q1006=
201905020630 METAR LRBC 020630Z 13004KT CAVOK 14/09 Q1006=
201905020700 METAR LRBC 020700Z VRB01KT CAVOK 16/09 Q1007=
201905020730 METAR LRBC 020730Z VRB01KT CAVOK 17/08 Q1007=
201905020800 METAR LRBC 020800Z 04003KT 9999 FEW060 18/07 Q1007=
201905020830 METAR LRBC 020830Z 34008KT 9999 SCT060 19/04 Q1007=
201905020900 METAR LRBC 020900Z 35007KT 9999 SCT060 19/04 Q1007=
201905020930 METAR LRBC 020930Z 34008KT 9999 SCT060 19/04 Q1007=
201905021000 METAR LRBC 021000Z 31007KT 9999 BKN060 18/03 Q1007=
201905021030 METAR LRBC 021030Z 34007KT CAVOK 18/04 Q1006=
201905021100 METAR LRBC 021100Z 33003KT CAVOK 19/03 Q1006=
201905021130 METAR LRBC 021130Z 26007KT CAVOK 19/04 Q1006=
201905021200 METAR LRBC 021200Z 27007KT CAVOK 19/04 Q1006=
201905021230 METAR LRBC 021230Z 26008KT CAVOK 20/05 Q1006=
201905021300 METAR LRBC 021300Z 31006KT CAVOK 20/06 Q1006=
201905021330 METAR LRBC 021330Z 30008KT CAVOK 19/04 Q1006=
201905021400 METAR LRBC 021400Z 32008KT CAVOK 19/06 Q1006=
201905021430 METAR LRBC 021430Z 34005KT CAVOK 19/08 Q1006=
201905021500 METAR LRBC 021500Z 36005KT CAVOK 20/06 Q1006=
201905021530 METAR LRBC 021530Z 28011KT CAVOK 20/05 Q1005=
201905021600 METAR LRBC 021600Z 28008KT CAVOK 19/06 Q1006=
201905021630 METAR LRBC 021630Z 29005KT CAVOK 18/08 Q1006=
201905021700 METAR LRBC 021700Z 30002KT CAVOK 18/06 Q1006=
201905021730 METAR LRBC 021730Z VRB01KT CAVOK 15/08 Q1006=
201905021800 METAR LRBC 021800Z 26003KT CAVOK 14/07 Q1006=
201905021830 METAR LRBC 021830Z 25003KT CAVOK 14/07 Q1007=
201905021900 METAR LRBC 021900Z 27004KT 230V330 CAVOK 15/06 Q1007=
201905021930 METAR LRBC 021930Z 26008KT CAVOK 15/07 Q1007=
201905022000 METAR LRBC 022000Z VRB02KT CAVOK 13/07 Q1007=
201905022030 METAR LRBC 022030Z VRB02KT CAVOK 13/07 Q1007=
201905022100 METAR LRBC 022100Z 09004KT 060V120 CAVOK 13/07 Q1007=
201905022130 METAR LRBC 022130Z 06003KT 360V130 CAVOK 12/07 Q1008=
201905022200 METAR LRBC 022200Z 10004KT 070V170 CAVOK 12/07 Q1008=
201905022230 METAR LRBC 022230Z 08003KT CAVOK 12/07 Q1008=
201905022300 METAR LRBC 022300Z 11003KT 090V150 CAVOK 10/07 Q1008=
201905022330 METAR LRBC 022330Z 09004KT CAVOK 11/07 Q1008=
201905030000 METAR LRBC 030000Z 09003KT 030V130 CAVOK 11/07 Q1008=
201905030030 METAR LRBC 030030Z AUTO 17003KT 130V230 9999 FEW130/// 11/07
                        Q1008=
201905030100 METAR LRBC 030100Z VRB01KT CAVOK 10/06 Q1008=
201905030130 METAR LRBC 030130Z 09003KT 020V130 CAVOK 10/07 Q1008=
201905030200 METAR LRBC 030200Z VRB01KT CAVOK 09/07 Q1008=
201905030230 METAR LRBC 030230Z VRB01KT CAVOK 09/07 Q1008=
201905030300 METAR LRBC 030300Z 14001KT CAVOK 10/08 Q1008=
201905030330 METAR LRBC 030330Z VRB02KT CAVOK 09/08 Q1008=
201905030400 METAR LRBC 030400Z VRB01KT CAVOK 10/08 Q1008=
201905030430 METAR LRBC 030430Z VRB02KT CAVOK 12/09 Q1008=
201905030500 METAR LRBC 030500Z 13002KT CAVOK 14/10 Q1008=
201905030530 METAR LRBC 030530Z 14004KT CAVOK 15/10 Q1009=
201905030600 METAR LRBC 030600Z 13004KT CAVOK 16/11 Q1009=
201905030630 METAR LRBC 030630Z 13005KT CAVOK 18/11 Q1009=
201905030700 METAR LRBC 030700Z 14004KT 110V170 CAVOK 19/09 Q1009=
201905030730 METAR LRBC 030730Z 16004KT CAVOK 21/11 Q1009=
201905030800 METAR LRBC 030800Z 21008KT CAVOK 21/10 Q1009=
201905030830 METAR LRBC 030830Z 20006KT 160V260 CAVOK 20/09 Q1008=
201905030900 METAR COR LRBC 030900Z 22008KT CAVOK 22/08 Q1008=
201905030930 METAR LRBC 030930Z 18005KT 140V230 9999 FEW055 23/08 Q1008=
201905031000 METAR COR LRBC 031000Z 19005KT 150V290 9999 FEW065 24/09
                        Q1007=
201905031030 METAR LRBC 031030Z 18005KT 110V240 9999 SCT065 24/07 Q1007=
201905031100 METAR LRBC 031100Z 21009KT 170V230 9999 SCT065 24/09 Q1007=
201905031130 METAR LRBC 031130Z 16007KT 110V210 9999 SCT065 24/08 Q1007=
201905031200 METAR LRBC 031200Z 17009KT 130V210 9999 SCT065 24/06 Q1006=
201905031230 METAR LRBC 031230Z 18011KT 9999 SCT065 24/08 Q1006=
201905031300 METAR LRBC 031300Z 07005KT 020V100 9999 FEW040CB SCT065 24/08
                        Q1006=
201905031330 METAR LRBC 031330Z 20012KT 160V240 9999 FEW040CB SCT065 23/09
                        Q1005=
201905031400 METAR LRBC 031400Z 17016KT 9999 SCT040CB SCT065 22/11 Q1006=
201905031430 METAR LRBC 031430Z 20009KT 170V230 9999 FEW040CB SCT065 24/07
                        Q1005=
201905031500 METAR LRBC 031500Z 17006KT 140V200 9999 FEW040CB SCT065 22/07
                        Q1005=
201905031530 METAR LRBC 031530Z 15011KT 9999 FEW040 22/10 Q1006=
201905031600 METAR LRBC 031600Z 15010KT 9999 FEW040 22/11 Q1005=
201905031630 METAR LRBC 031630Z 15011KT 9999 FEW040 20/11 Q1005=
201905031700 METAR LRBC 031700Z 16011KT 9999 FEW040 19/11 Q1006=
201905031730 METAR LRBC 031730Z 23013KT 9999 FEW040 20/08 Q1006=
201905031800 METAR LRBC 031800Z 25020KT 9999 SCT040 20/06 Q1006=
201905031830 METAR LRBC 031830Z 25020KT 9999 SCT040 20/05 Q1007=
201905031900 METAR LRBC 031900Z 26020KT 9999 SCT040 19/05 Q1007=
201905031930 METAR LRBC 031930Z 26011KT 9999 SCT050 19/06 Q1007=
201905032000 METAR LRBC 032000Z 04007KT 9999 SCT055 19/06 Q1008=
201905032030 METAR LRBC 032030Z 29005KT 9999 SCT060 19/05 Q1008=
201905032100 METAR LRBC 032100Z VRB02KT 9999 SCT060 18/06 Q1008=
201905032130 METAR LRBC 032130Z VRB04KT 9999 SCT060 18/05 Q1008=
201905032200 METAR LRBC 032200Z VRB02KT 9999 SCT060 16/06 Q1008=
201905032230 METAR LRBC 032230Z 23003KT 9999 SCT060 17/06 Q1008=
201905032300 METAR LRBC 032300Z 22005KT 9999 SCT060 16/07 Q1008=
201905032330 METAR LRBC 032330Z AUTO VRB02KT 9999 FEW110/// SCT200///
                        16/06 Q1008=
201905040000 METAR COR LRBC 040000Z 28004KT 220V330 CAVOK 15/07 Q1008=
201905040030 METAR LRBC 040030Z AUTO 25006KT 220V280 9999 FEW160/// 15/07
                        Q1008=
201905040100 METAR LRBC 040100Z 05003KT 020V080 CAVOK 16/07 Q1008=
201905040130 METAR LRBC 040130Z AUTO 27005KT 220V330 9999 NCD 15/06 Q1009=
201905040200 METAR COR LRBC 040200Z 03004KT 350V070 CAVOK 14/07 Q1009=
201905040230 METAR COR LRBC 040230Z 32004KT CAVOK 11/07 Q1009=
201905040300 METAR LRBC 040300Z 30005KT CAVOK 10/08 Q1009=
201905040330 METAR LRBC 040330Z VRB02KT CAVOK 11/08 Q1009=
201905040400 METAR LRBC 040400Z 09003KT CAVOK 13/09 Q1009=
201905040430 METAR LRBC 040430Z 16003KT CAVOK 12/09 Q1009=
201905040500 METAR LRBC 040500Z VRB01KT CAVOK 13/09 Q1009=
201905040530 METAR LRBC 040530Z 19005KT CAVOK 15/09 Q1009=
201905040600 METAR LRBC 040600Z 17006KT 150V210 CAVOK 17/10 Q1009=
201905040630 METAR LRBC 040630Z 15006KT CAVOK 18/09 Q1009=
201905040700 METAR LRBC 040700Z 15006KT 130V190 CAVOK 19/09 Q1009=
201905040730 METAR LRBC 040730Z 16006KT 130V190 9999 FEW030 20/09 Q1009=
201905040800 METAR LRBC 040800Z 15007KT 110V180 9999 FEW030 21/09 Q1009=
201905040830 METAR LRBC 040830Z 12007KT 090V180 9999 FEW025 21/10 Q1008=
201905040900 METAR LRBC 040900Z 13006KT 080V200 9999 SCT045 22/09 Q1008=
201905040930 METAR LRBC 040930Z 14011KT 110V170 9999 SCT050 23/09 Q1008=
201905041000 METAR LRBC 041000Z 14011KT 9999 SCT050 23/09 Q1007=
201905041030 METAR LRBC 041030Z 15012KT 120V180 9999 VCSH FEW050CB SCT060
                        22/08 Q1007=
201905041100 METAR LRBC 041100Z 15016KT 110V170 9999 VCSH SCT040CB SCT050
                        23/08 Q1007=
201905041130 METAR LRBC 041130Z NIL=
201905041200 METAR LRBC 041200Z 12013KT 090V150 9999 -SHRA BKN050CB BKN065
                        20/10 Q1008=
201905041230 METAR COR LRBC 041230Z 14010KT 110V170 9999 BKN050CB SCT060
                        22/09 Q1007=
201905041300 METAR LRBC 041300Z 18007KT 150V210 9999 -SHRA BKN050CB BKN060
                        20/09 Q1007=
201905041330 METAR LRBC 041330Z 23018G31KT 200V270 5000 +TSRA BKN055CB
                        BKN065 16/12 Q1007=
201905041400 METAR LRBC 041400Z 18003KT 130V250 9999 VCSH FEW014 SCT031
                        BKN055CB 17/12 Q1007 R16/250395=
201905041430 METAR LRBC 041430Z 12004KT 080V160 9999 FEW055CB SCT065 18/12
                        Q1007 R16/250395=
201905041500 METAR LRBC 041500Z 15006KT 9999 SCT055 18/12 Q1006 R16/210295=
201905041530 METAR LRBC 041530Z 18005KT 9999 SCT050 18/12 Q1006 R16/210295=
201905041600 METAR LRBC 041600Z 18005KT 9999 SCT050 18/13 Q1006 R16/210295=
201905041630 METAR LRBC 041630Z 16006KT 9999 SCT050 18/13 Q1006 R16/210295=
201905041700 METAR LRBC 041700Z 20006KT 9999 -RA FEW040CB SCT055 17/13
                        Q1006 R16/CLRD//=
201905041730 METAR LRBC 041730Z 14006KT 9999 FEW040CB SCT055 17/14 Q1006=
201905041800 METAR LRBC 041800Z 13005KT 9999 -SHRA FEW040CB SCT055 16/13
                        Q1006=
201905041830 METAR LRBC 041830Z 15005KT 9999 FEW040CB SCT055 15/13 Q1006
                        R16/15//95=
201905041900 METAR LRBC 041900Z 15005KT 9999 SCT055 15/13 Q1006 R16/15//95=
201905041930 METAR LRBC 041930Z 18006KT 9999 SCT055 14/12 Q1006 R16/15//95=
201905042000 METAR LRBC 042000Z 15005KT 9999 SCT065 14/12 Q1006 R16/15//95=
201905042030 METAR LRBC 042030Z 18007KT 9999 SCT065 13/11 Q1006 R16/CLRD//=
201905042100 METAR LRBC 042100Z 18007KT CAVOK 13/11 Q1006 R16/CLRD//=
201905042130 METAR LRBC 042130Z 21003KT 120V240 CAVOK 13/11 Q1006=
201905042200 METAR LRBC 042200Z 15009KT CAVOK 16/12 Q1006=
201905042230 METAR LRBC 042230Z 14006KT CAVOK 14/12 Q1005=
201905042300 METAR LRBC 042300Z 17006KT CAVOK 14/12 Q1005=
201905042330 METAR LRBC 042330Z 18006KT CAVOK 13/11 Q1005=
201905050000 METAR LRBC 050000Z 16007KT CAVOK 13/12 Q1005=
201905050030 METAR LRBC 050030Z 15008KT CAVOK 13/11 Q1005=
201905050100 METAR LRBC 050100Z 17008KT CAVOK 12/11 Q1005=
201905050130 METAR LRBC 050130Z 17011KT CAVOK 12/11 Q1005=
201905050200 METAR LRBC 050200Z 18005KT CAVOK 11/10 Q1005=
201905050230 METAR LRBC 050230Z 15007KT 8000 NSC 12/11 Q1005=
201905050300 METAR LRBC 050300Z 16008KT 5000 BR NSC 11/11 Q1005=
201905050330 METAR LRBC 050330Z 16009KT 3800 BR BKN006 11/11 Q1005=
201905050400 METAR LRBC 050400Z 16010KT 3800 BR FEW007 12/11 Q1006=
201905050430 METAR LRBC 050430Z 17011KT 5000 BR FEW007 13/12 Q1006=
201905050500 METAR LRBC 050500Z 16014KT 5000 BR FEW006 13/12 Q1006=
201905050530 METAR LRBC 050530Z 17013KT 8000 FEW009 14/12 Q1006=
201905050600 METAR LRBC 050600Z 16014KT 9999 FEW010 15/12 Q1006=
201905050630 METAR LRBC 050630Z 16013KT CAVOK 15/11 Q1006=
201905050700 METAR LRBC 050700Z 15014KT CAVOK 15/12 Q1006=
201905050730 METAR LRBC 050730Z 15015KT CAVOK 17/12 Q1006=
201905050800 METAR LRBC 050800Z 15017KT CAVOK 17/12 Q1006=
201905050830 METAR LRBC 050830Z 15017KT CAVOK 17/12 Q1006=
201905050900 METAR LRBC 050900Z 16018KT CAVOK 18/11 Q1006=
201905050930 METAR LRBC 050930Z 15017KT 9999 SCT040 18/12 Q1006=
201905051000 METAR LRBC 051000Z 15016KT 9999 FEW032 18/12 Q1006=
201905051030 METAR LRBC 051030Z 16018KT 9999 BKN035 18/12 Q1005=
201905051100 METAR LRBC 051100Z 15017KT 9999 BKN045 19/12 Q1005=
201905051130 METAR LRBC 051130Z 16019KT 9999 BKN040 20/12 Q1005=
201905051200 METAR LRBC 051200Z 16019KT 9999 SCT043 21/13 Q1005=
201905051230 METAR LRBC 051230Z 15017KT 9999 SCT040 20/12 Q1005=
201905051300 METAR LRBC 051300Z 14016KT 9999 SCT045 20/12 Q1004=
201905051330 METAR LRBC 051330Z 15017KT 9999 SCT045 20/12 Q1004=
201905051400 METAR LRBC 051400Z 15016KT 9999 SCT040 21/12 Q1004=
201905051430 METAR LRBC 051430Z 17014KT 9999 -SHRA FEW035CB SCT040 20/12
                        Q1004=
201905051500 METAR LRBC 051500Z 17011KT 9999 -SHRA FEW040CB SCT050 18/13
                        Q1004=
201905051530 METAR LRBC 051530Z 17008KT 9999 FEW045CB 18/14 Q1004=
201905051600 METAR LRBC 051600Z 17008KT 9999 FEW045CB 19/13 Q1004=
201905051630 METAR LRBC 051630Z 15007KT 9999 FEW045CB 19/13 Q1004=
201905051700 METAR LRBC 051700Z 15007KT 9999 -RA BKN065 18/14 Q1004=
201905051730 METAR LRBC 051730Z 14005KT 9999 BKN050 18/14 Q1004=
201905051800 METAR LRBC 051800Z 16008KT 9999 BKN050 18/13 Q1004=
201905051830 METAR LRBC 051830Z 14009KT 9999 SCT038 17/13 Q1004=
201905051900 METAR LRBC 051900Z 15009KT 9999 BKN055 17/13 Q1005=
201905051930 METAR LRBC 051930Z 14012KT 9999 SCT055 17/13 Q1004=
201905052000 METAR LRBC 052000Z 15012KT 9999 SCT050 17/13 Q1004=
201905052030 METAR LRBC 052030Z 16010KT 9999 BKN055 16/13 Q1004=
201905052100 METAR LRBC 052100Z 17008KT 9999 BKN060 16/13 Q1004=
201905052130 METAR LRBC 052130Z 17009KT 9999 BKN060 16/13 Q1004=
201905052200 METAR LRBC 052200Z 17009KT 9999 SCT065 16/13 Q1004=
201905052230 METAR LRBC 052230Z 17006KT 9999 -RA BKN045 14/13 Q1004=
201905052300 METAR LRBC 052300Z 17008KT 9999 FEW017 SCT023 14/13 Q1003=
201905052330 METAR LRBC 052330Z 17009KT 9999 SCT020 BKN030 14/13 Q1003=
201905060000 METAR LRBC 060000Z 15007KT 9999 BKN095 14/13 Q1003=
201905060030 METAR LRBC 060030Z 14006KT CAVOK 14/13 Q1003=
201905060100 METAR LRBC 060100Z AUTO 16004KT 9999 -RA SCT075/// BKN095///
                        BKN110/// 14/13 Q1003=
201905060130 METAR LRBC 060130Z 16005KT 9999 -RA FEW017 BKN065 14/13 Q1003=
201905060200 METAR LRBC 060200Z 18004KT 8000 FEW017 BKN060 14/13 Q1003=
201905060230 METAR LRBC 060230Z 21003KT 9000 SCT018 BKN065 14/13 Q1003=
201905060300 METAR LRBC 060300Z 12003KT 7000 SCT021 OVC065 13/13 Q1003=
201905060330 METAR COR LRBC 060330Z 14003KT 8000 SCT022 OVC065 14/13 Q1003=
201905060400 METAR LRBC 060400Z 18003KT 9000 SCT024 BKN065 14/14 Q1003=
201905060430 METAR LRBC 060430Z 17003KT 9999 FEW026 BKN065 14/13 Q1003=
201905060500 METAR COR LRBC 060500Z 14004KT 110V170 9999 SCT065 15/13
                        Q1003=
201905060530 METAR LRBC 060530Z 14005KT 110V180 9999 SCT019 BKN065 15/13
                        Q1003=
201905060600 METAR LRBC 060600Z 14004KT 080V180 9999 FEW009 BKN017 16/14
                        Q1003=
201905060630 METAR LRBC 060630Z 15006KT 9999 BKN017 16/14 Q1003=
201905060700 METAR LRBC 060700Z 16005KT 130V200 9999 FEW010 BKN019 17/14
                        Q1003=
201905060730 METAR LRBC 060730Z 17004KT 140V210 9999 FEW013 BKN019 17/14
                        Q1003=
201905060800 METAR LRBC 060800Z 16003KT 120V220 9999 SCT017 BKN020 18/14
                        Q1003=
201905060830 METAR COR LRBC 060830Z VRB01KT 9999 FEW018 BKN022 OVC026
                        18/14 Q1003=
201905060900 METAR LRBC 060900Z 00000KT 9999 SCT021 BKN027 19/14 Q1003=
201905060930 METAR LRBC 060930Z 04004KT 350V080 9999 BKN021 OVC029 17/14
                        Q1003=
201905061000 METAR LRBC 061000Z 35008KT 320V020 9999 SCT023 BKN029 17/15
                        Q1003=
201905061030 METAR LRBC 061030Z 36007KT 330V030 9999 SCT030 BKN055 18/15
                        Q1003=
201905061100 METAR LRBC 061100Z 34010KT 9999 SCT035 BKN060 19/15 Q1003=
201905061130 METAR LRBC 061130Z 35008KT 320V020 9999 VCTS FEW019 SCT040CB
                        19/15 Q1003=
201905061200 METAR LRBC 061200Z 33013KT 9999 TS SCT020 SCT035CB 17/14
                        Q1003=
201905061230 METAR LRBC 061230Z 33013KT 9999 TS SCT035CB SCT065 16/14
                        Q1002=
201905061300 METAR LRBC 061300Z 33014KT 9999 TS VCSH FEW012 BKN035CB 15/13
                        Q1003=
201905061330 METAR LRBC 061330Z 31012KT 4000 TSRA BKN009 BKN040CB 14/14
                        Q1003=
201905061400 METAR LRBC 061400Z 36013KT 8000 -SHRA FEW005 BKN045CB 14/14
                        Q1002 RETS=
201905061430 METAR LRBC 061430Z 35012KT 9999 BKN005 BKN046CB 14/13 Q1002
                        R16/220395=
201905061500 METAR LRBC 061500Z 34012KT 9999 BKN007 BKN045CB 14/13 Q1003
                        R16/220395=
201905061530 METAR LRBC 061530Z 33012KT 9999 -RA BKN008 BKN049CB 14/13
                        Q1002 R16/220395=
201905061600 METAR LRBC 061600Z 32011KT 9999 -RA BKN009 OVC018 13/12 Q1003
                        R16/220395=
201905061630 METAR LRBC 061630Z 34013KT 9999 SCT012 OVC016 13/12 Q1002
                        R16/220395=
201905061700 METAR LRBC 061700Z 35010KT 310V020 9999 BKN011 OVC017 13/12
                        Q1002 R16/220395=
201905061730 METAR LRBC 061730Z 35015KT 310V020 9999 -TSRA BKN007 OVC015
                        12/12 Q1003 R16/220395=
201905061800 METAR LRBC 061800Z 35015KT 9999 -TSRA SCT010 BKN028CB 11/10
                        Q1003 R16/220395=
201905061830 METAR LRBC 061830Z 34015KT 9999 -TSRA BKN010 OVC026CB 11/11
                        Q1003 R16/220395=
201905061900 METAR LRBC 061900Z 33016KT 7000 -TSRA BKN010 OVC026CB 10/10
                        Q1004 R16/220395=
201905061930 METAR LRBC 061930Z 35014KT 320V030 8000 -TSRA FEW006 BKN009
                        OVC025CB 10/10 Q1005 R16/220395=
201905062000 METAR LRBC 062000Z 34013KT 6000 -SHRA SCT008 OVC020 09/09
                        Q1005 RETS R16/220395=
201905062030 METAR LRBC 062030Z 35011KT 9999 -SHRA FEW005 OVC015 09/09
                        Q1004 R16/220395=
201905062100 METAR LRBC 062100Z 34012KT 9999 -RA BKN011 OVC019 09/09 Q1004
                        R16/220395=
201905062130 METAR LRBC 062130Z 35013G24KT 9999 -SHRA BKN011 OVC016 09/08
                        Q1005 R16/220395=
201905062200 METAR LRBC 062200Z 33015KT 9999 -SHRA OVC015 08/07 Q1005
                        R16/220395=
201905062230 METAR LRBC 062230Z 34011KT 310V010 9999 -RA FEW013 OVC020
                        08/08 Q1005 R16/220395=
201905062300 METAR COR LRBC 062300Z 34013KT 9999 FEW013 OVC021 08/07 Q1004
                        R16/220395=
201905062330 METAR COR LRBC 062330Z 34014KT 9999 FEW013 OVC020 08/07 Q1004
                        R16/220395=
201905070000 METAR LRBC 070000Z AUTO 34014KT 5000 -RA SCT016/// OVC021///
                        07/07 Q1004=
201905070030 METAR COR LRBC 070030Z 34010KT 9999 -RA FEW006 OVC029 07/07
                        Q1004 R16/220395=
201905070100 METAR LRBC 070100Z 35010KT 9999 -RA FEW006 SCT020 OVC030
                        07/07 Q1004 R16/220395=
201905070130 METAR LRBC 070130Z AUTO 35012KT 9999 -RA FEW015/// BKN033///
                        07/07 Q1004=
201905070200 METAR COR LRBC 070200Z 34010KT 9999 -RA FEW015 OVC025 07/06
                        Q1005 R16/220395=
201905070230 METAR LRBC 070230Z 33011KT 9999 -RA SCT013 OVC023 07/06 Q1005
                        R16/220395=
201905070300 METAR LRBC 070300Z 33011KT 9000 -SHRA SCT016 OVC019 07/06
                        Q1005 R16/220395=
201905070330 METAR LRBC 070330Z 34011KT 9999 -SHRA FEW016 BKN025CB 07/06
                        Q1005 R16/220395=
201905070400 METAR LRBC 070400Z 33015KT 9999 -RA SCT021 BKN025 07/06 Q1005
                        R16/220395=
201905070430 METAR LRBC 070430Z 35014KT 9999 OVC025 07/05 Q1005 R16/220295=
201905070500 METAR LRBC 070500Z 34012KT 9999 OVC027 08/06 Q1005 R16/220295=
201905070530 METAR LRBC 070530Z 34011KT 9999 OVC029 08/06 Q1005 R16/19//95=
201905070600 METAR LRBC 070600Z 34011KT 9999 OVC030 09/06 Q1006 R16/19//95=
201905070630 METAR LRBC 070630Z 33011KT 9999 OVC030 09/06 Q1006 R16/19//95=
201905070700 METAR LRBC 070700Z 34012KT 9999 OVC032 10/06 Q1006 R16/19//95=
201905070730 METAR LRBC 070730Z 35011KT 9999 OVC033 10/06 Q1006 R16/19//95=
201905070800 METAR LRBC 070800Z 34014KT 9999 OVC028 11/06 Q1006 R16/19//95=
201905070830 METAR LRBC 070830Z 34013KT 9999 OVC028 11/06 Q1006 R16/19//95=
201905070900 METAR LRBC 070900Z 34014KT 9999 OVC029 11/06 Q1006 R16/19//95=
201905070930 METAR LRBC 070930Z 36011KT 9999 SCT028 BKN040 11/06 Q1006
                        R16/19//95=
201905071000 METAR LRBC 071000Z 35011KT 9999 OVC032 12/07 Q1006 R16/19//95=
201905071030 METAR LRBC 071030Z 35012KT 9999 OVC032 11/05 Q1007 R16/19//95=
201905071100 METAR LRBC 071100Z 36010KT 9999 OVC030 11/06 Q1007 R16/19//95=
201905071130 METAR LRBC 071130Z 36010KT 9999 OVC030 11/05 Q1008 R16/19//95=
201905071200 METAR LRBC 071200Z 35013KT 9999 -RA FEW025 BKN035 10/06 Q1008
                        R16/19//95=
201905071230 METAR LRBC 071230Z 36011KT 9999 -RA SCT023 BKN038 10/06 Q1008
                        R16/19//95=
201905071300 METAR LRBC 071300Z 36011KT 9999 -RA SCT023 BKN038 10/06 Q1008
                        R16/19//95=
201905071330 METAR LRBC 071330Z 35013KT 9999 -RA SCT021 BKN033 10/06 Q1008
                        R16/19//95=
201905071400 METAR LRBC 071400Z 35013KT 9999 -RA SCT026 BKN035 11/05 Q1009
                        R16/19//95=
201905071430 METAR LRBC 071430Z 33015KT 9999 BKN035 10/05 Q1009 R16/19//95=
201905071500 METAR LRBC 071500Z 34018KT 9999 BKN035 10/04 Q1009 R16/19//95=
201905071530 METAR LRBC 071530Z 34017KT 9999 BKN045 10/05 Q1009 R16/19//95=
201905071600 METAR LRBC 071600Z 34017KT 9999 BKN050 09/04 Q1010 R16/19//95=
201905071630 METAR LRBC 071630Z 34015KT 9999 BKN060 09/04 Q1010 R16/19//95=
201905071700 METAR LRBC 071700Z 33013KT 9999 FEW050 BKN060 09/05 Q1010
                        R16/19//95=
201905071730 METAR LRBC 071730Z 34015KT 9999 OVC050 09/04 Q1010 R16/19//95=
201905071800 METAR LRBC 071800Z 34016KT 9999 OVC047 09/03 Q1011 R16/19//95=
201905071830 METAR LRBC 071830Z 33016KT 9999 OVC047 09/04 Q1011 R16/19//95=
201905071900 METAR LRBC 071900Z 33017G27KT 9999 OVC044 09/03 Q1011 R16/19//95=
201905071930 METAR LRBC 071930Z 32016KT 9999 -RA BKN043 OVC060 08/04 Q1012
                        R16/19//95=
201905072000 METAR LRBC 072000Z 32013KT 9999 -RA OVC039 08/05 Q1012 R16/19//95=
201905072030 METAR LRBC 072030Z 32013KT 9999 -RA FEW034 OVC040 08/04 Q1012
                        R16/CLRD//=
201905072100 METAR LRBC 072100Z 32012KT 9999 -RA BKN031 OVC044 08/05 Q1012=
201905072130 METAR LRBC 072130Z 32014KT 9999 -RA BKN033 OVC041 08/04 Q1012=
201905072200 METAR LRBC 072200Z 31011KT 9999 -RA BKN032 OVC043 07/05 Q1012=
201905072230 METAR LRBC 072230Z AUTO 31010KT 9999 -RA BKN032/// OVC041///
                        07/05 Q1012=
201905072300 METAR COR LRBC 072300Z 32020KT 9999 -RA BKN024 OVC037 08/05
                        Q1012=
201905072330 METAR LRBC 072330Z 32020KT 9999 -RA BKN024 OVC035 08/05 Q1013=
201905080000 METAR LRBC 080000Z 32019KT 9000 -RA BKN028 OVC038 07/05 Q1013=
201905080030 METAR LRBC 080030Z 32017KT 9999 -RA BKN023 OVC033 07/05 Q1013=
201905080100 METAR LRBC 080100Z 32018G28KT 9999 -RA OVC023 07/05 Q1013=
201905080130 METAR LRBC 080130Z 33020KT 9999 -RA FEW021 SCT025 BKN030
                        07/05 Q1013=
201905080200 METAR LRBC 080200Z 32019KT 9999 -RA FEW027 BKN041 07/05 Q1012=
201905080230 METAR LRBC 080230Z 32019KT 9999 -RA SCT025 OVC034 08/05 Q1013
                        R16/210295=
201905080300 METAR LRBC 080300Z 32019KT 9999 -RA SCT031 OVC039 08/06 Q1013
                        R16/210295=
201905080330 METAR LRBC 080330Z 32019KT 9999 -RA BKN028 OVC047 08/06 Q1013
                        R16/210295=
201905080400 METAR LRBC 080400Z 32022KT 9999 -RA BKN028 BKN042 08/05 Q1013
                        R16/19//95=
201905080430 METAR LRBC 080430Z 33019KT 9999 -RA BKN028 OVC032 08/05 Q1013
                        R16/19//95=
201905080500 METAR LRBC 080500Z 32018KT 9999 -RA BKN028 OVC032 09/06 Q1013
                        R16/19//95=
201905080530 METAR LRBC 080530Z 33017KT 9999 -RA BKN028 BKN050 09/06 Q1014
                        R16/19//95=
201905080600 METAR LRBC 080600Z 33017KT 9999 -RA BKN031 BKN043 09/06 Q1014
                        R16/19//95=
201905080630 METAR LRBC 080630Z 33021KT 9999 SCT031 BKN043 10/06 Q1014
                        R16/19//95=
201905080700 METAR LRBC 080700Z 33021KT 9999 SCT031 BKN043 11/05 Q1014
                        R16/19//95=
201905080730 METAR LRBC 080730Z 34021KT 9999 FEW032 BKN053 11/05 Q1014
                        R16/19//95=
201905080800 METAR LRBC 080800Z 34019KT 9999 FEW034 BKN055 12/06 Q1014
                        R16/19//95=
201905080830 METAR LRBC 080830Z 34018KT 9999 SCT033 BKN047 12/06 Q1014
                        R16/19//95=
201905080900 METAR LRBC 080900Z 35017KT 9999 FEW038 BKN060 12/05 Q1014
                        R16/19//95=
201905080930 METAR LRBC 080930Z 35018KT 9999 SCT035 BKN060 12/05 Q1014
                        R16/CLRD//=
201905081000 METAR LRBC 081000Z 35015KT 330V030 9999 FEW043 BKN055 13/04
                        Q1014=
201905081030 METAR LRBC 081030Z 35017KT 330V030 9999 FEW046 BKN065 13/05
                        Q1014=
201905081100 METAR LRBC 081100Z 35012KT 320V030 9999 SCT050 BKN065 14/06
                        Q1014=
201905081130 METAR LRBC 081130Z 35014KT 320V030 9999 SCT041 BKN065 14/05
                        Q1015=
201905081200 METAR LRBC 081200Z 36014G25KT 340V040 9999 SCT041 BKN060
                        13/04 Q1015=
201905081230 METAR LRBC 081230Z 36015KT 9999 FEW045 BKN060 13/04 Q1015=
201905081300 METAR LRBC 081300Z 36010KT 9999 BKN050 BKN065 13/06 Q1015=
201905081330 METAR LRBC 081330Z 35012KT 9999 SCT039 BKN047 13/04 Q1015=
201905081400 METAR LRBC 081400Z 35011KT 320V020 9999 SCT050 BKN065 14/06
                        Q1015=
201905081430 METAR LRBC 081430Z 35014KT 9999 SCT050 BKN065 13/04 Q1015=
201905081500 METAR LRBC 081500Z 35011KT 330V030 9999 SCT050 BKN065 13/04
                        Q1015=
201905081530 METAR LRBC 081530Z 35012KT 9999 BKN065 13/04 Q1015=
201905081600 METAR LRBC 081600Z 34011KT 9999 OVC060 12/05 Q1015=
201905081630 METAR LRBC 081630Z 35010KT 9999 BKN060 12/04 Q1015=
201905081700 METAR LRBC 081700Z 34008KT 9999 BKN065 11/05 Q1015=
201905081730 METAR LRBC 081730Z 31006KT 9999 BKN065 11/06 Q1015=
201905081800 METAR LRBC 081800Z 33005KT CAVOK 10/06 Q1015=
201905081830 METAR LRBC 081830Z 34005KT CAVOK 10/06 Q1015=
201905081900 METAR LRBC 081900Z 34005KT CAVOK 09/06 Q1015=
201905081930 METAR LRBC 081930Z 33005KT CAVOK 09/06 Q1015=
201905082000 METAR LRBC 082000Z 34005KT CAVOK 09/06 Q1015=
201905082030 METAR LRBC 082030Z 36003KT CAVOK 09/05 Q1015=
201905082100 METAR LRBC 082100Z 02003KT CAVOK 08/05 Q1015=
201905082130 METAR LRBC 082130Z 06001KT CAVOK 07/05 Q1015=
201905082200 METAR LRBC 082200Z 04002KT CAVOK 07/05 Q1015=
201905082230 METAR LRBC 082230Z 00000KT CAVOK 06/05 Q1015=
201905082300 METAR LRBC 082300Z 32004KT CAVOK 04/04 Q1015=
201905082330 METAR LRBC 082330Z AUTO 35003KT 9999 NCD 05/04 Q1014=
201905090000 METAR LRBC 090000Z 32004KT CAVOK 04/04 Q1015=
201905090030 METAR LRBC 090030Z AUTO VRB01KT 9999 NCD 04/04 Q1014=
201905090100 METAR LRBC 090100Z AUTO 29004KT 9999 NCD 04/04 Q1014=
201905090130 METAR LRBC 090130Z 32004KT CAVOK 04/04 Q1014=
201905090200 METAR LRBC 090200Z VRB01KT CAVOK 04/04 Q1014=
201905090230 METAR LRBC 090230Z 00000KT CAVOK 03/03 Q1014=
201905090300 METAR LRBC 090300Z 01002KT CAVOK 03/03 Q1014=
201905090330 METAR LRBC 090330Z 01002KT CAVOK 04/04 Q1014=
201905090400 METAR LRBC 090400Z 01002KT CAVOK 05/04 Q1014=
201905090430 METAR LRBC 090430Z 00000KT CAVOK 07/05 Q1014=
201905090500 METAR LRBC 090500Z 00000KT CAVOK 07/05 Q1013=
201905090530 METAR LRBC 090530Z 00000KT CAVOK 09/06 Q1013=
201905090600 METAR LRBC 090600Z VRB01KT CAVOK 10/06 Q1013=
201905090630 METAR LRBC 090630Z 24002KT 200V320 9999 FEW035 11/07 Q1013=
201905090700 METAR LRBC 090700Z 10002KT 040V170 9999 FEW035 12/07 Q1012=
201905090730 METAR LRBC 090730Z VRB02KT 9999 SCT035 13/06 Q1012=
201905090800 METAR LRBC 090800Z 13004KT 070V180 9999 SCT030 14/06 Q1012=
201905090830 METAR LRBC 090830Z 17004KT 090V230 9999 SCT030 15/06 Q1011=
201905090900 METAR LRBC 090900Z 16005KT 120V200 9999 SCT040 15/02 Q1011=
201905090930 METAR LRBC 090930Z 13005KT 060V190 9999 SCT040 15/04 Q1011=
201905091000 METAR LRBC 091000Z 17009KT 140V210 9999 FEW040 16/06 Q1010=
201905091030 METAR LRBC 091030Z 16005KT 110V210 9999 FEW040 16/06 Q1010=
201905091100 METAR LRBC 091100Z 11009KT 090V170 9999 FEW035 17/06 Q1010=
201905091130 METAR LRBC 091130Z 11009KT 090V170 9999 FEW035 17/06 Q1010=
201905091200 METAR LRBC 091200Z 17010KT 9999 FEW035 17/06 Q1009=
201905091230 METAR LRBC 091230Z 16010KT 120V190 9999 FEW035 18/07 Q1009=
201905091300 METAR LRBC 091300Z 17011KT 9999 FEW035 17/08 Q1008=
201905091330 METAR LRBC 091330Z 16012KT 130V200 9999 FEW040 18/08 Q1008=
201905091400 METAR LRBC 091400Z 16012KT 9999 FEW040 17/08 Q1007=
201905091430 METAR LRBC 091430Z 15011KT CAVOK 17/08 Q1007=
201905091500 METAR LRBC 091500Z 15014KT CAVOK 17/08 Q1007=
201905091530 METAR LRBC 091530Z 15013KT 120V180 CAVOK 17/08 Q1006=
201905091600 METAR LRBC 091600Z 15012KT CAVOK 17/08 Q1006=
201905091630 METAR LRBC 091630Z 14013KT CAVOK 16/08 Q1006=
201905091700 METAR LRBC 091700Z 15012KT CAVOK 15/08 Q1006=
201905091730 METAR LRBC 091730Z 14008KT CAVOK 15/08 Q1006=
201905091800 METAR LRBC 091800Z 13006KT CAVOK 14/08 Q1006=
201905091830 METAR LRBC 091830Z AUTO 15005KT 9999 BKN240/// 13/08 Q1006=
201905091900 METAR LRBC 091900Z 19005KT CAVOK 11/09 Q1006=
201905091930 METAR LRBC 091930Z 17006KT CAVOK 11/08 Q1006=
201905092000 METAR LRBC 092000Z 17007KT CAVOK 11/08 Q1006=
201905092030 METAR LRBC 092030Z 17009KT CAVOK 11/09 Q1006=
201905092100 METAR LRBC 092100Z 17009KT CAVOK 11/09 Q1006=
201905092130 METAR LRBC 092130Z 17010KT CAVOK 11/09 Q1006=
201905092200 METAR LRBC 092200Z 17010KT CAVOK 11/09 Q1006=
201905092230 METAR LRBC 092230Z 17010KT CAVOK 11/09 Q1005=
201905092300 METAR LRBC 092300Z AUTO 16011KT 9999 OVC200/// 11/09 Q1005=
201905092330 METAR LRBC 092330Z 16010KT CAVOK 11/09 Q1005=
201905100000 METAR LRBC 100000Z 16011KT CAVOK 10/09 Q1005=
201905100030 METAR LRBC 100030Z 17012KT CAVOK 10/09 Q1005=
201905100100 METAR LRBC 100100Z 16010KT CAVOK 10/09 Q1005=
201905100130 METAR LRBC 100130Z 16010KT CAVOK 10/09 Q1005=
201905100200 METAR LRBC 100200Z 16009KT 8000 FEW007 10/09 Q1005=
201905100230 METAR LRBC 100230Z 17010KT 7000 BKN006 10/09 Q1005=
201905100300 METAR LRBC 100300Z 17009KT 7000 SCT006 10/09 Q1005=
201905100330 METAR LRBC 100330Z 17010KT 5000 BR FEW003 SCT005 10/09 Q1006=
201905100400 METAR LRBC 100400Z 17009KT 5000 -RA BR FEW003 BKN005 10/10
                        Q1006=
201905100430 METAR LRBC 100430Z 18010KT 6000 -RA BKN003 OVC006 10/10 Q1006=
201905100500 METAR LRBC 100500Z 16009KT 6000 OVC003 11/11 Q1006=
201905100530 METAR LRBC 100530Z 16009KT 6000 SCT003 OVC006 11/11 Q1006=
201905100600 METAR LRBC 100600Z 16009KT 6000 SCT004 OVC011 12/11 Q1006=
201905100630 METAR LRBC 100630Z 15010KT 8000 FEW008 OVC011 13/11 Q1007=
201905100700 METAR LRBC 100700Z 15010KT 9999 -RA BKN012 OVC046 13/12 Q1007=
201905100730 METAR LRBC 100730Z 16010KT 9999 -RA BKN011 OVC055 13/12 Q1007
                        R16/19//95=
201905100800 METAR LRBC 100800Z 15009KT 9999 FEW011 BKN019 OVC055 13/12
                        Q1007 R16/19//95=
201905100830 METAR LRBC 100830Z 15009KT 9999 SCT013 OVC050 13/11 Q1007
                        R16/19//95=
201905100900 METAR LRBC 100900Z 14008KT 9999 SCT011 OVC046 14/11 Q1007
                        R16/19//95=
201905100930 METAR LRBC 100930Z 15007KT 8000 -RA FEW013 OVC046 13/12 Q1008
                        R16/19//95=
201905101000 METAR LRBC 101000Z 15008KT 8000 -RA FEW006 OVC044 13/12 Q1008
                        R16/19//95=
201905101030 METAR LRBC 101030Z 14007KT 110V170 9999 FEW008 SCT042 OVC050
                        14/12 Q1008 R16/19//95=
201905101100 METAR LRBC 101100Z 12006KT 090V160 9999 SCT012 BKN044 OVC050
                        14/12 Q1008 R16/19//95=
201905101130 METAR LRBC 101130Z 13005KT 070V180 9999 FEW016 SCT040 BKN050
                        16/13 Q1007 R16/2102=
201905101200 METAR LRBC 101200Z 14003KT 030V200 9999 BKN014 BKN050 16/12
                        Q1007 R16/2102=
201905101230 METAR LRBC 101230Z 18006KT 9999 FEW018 BKN048 16/11 Q1008
                        R16/19//95=
201905101300 METAR LRBC 101300Z 27005KT 250V310 9999 SCT015 BKN050 15/12
                        Q1008 R16/19//95=
201905101330 METAR LRBC 101330Z 15006KT 120V180 9999 SCT015 BKN035 15/12
                        Q1008 R16/19//95=
201905101400 METAR LRBC 101400Z 15004KT 9999 VCSH FEW016 FEW040CB BKN055
                        15/12 Q1008 R16/19//95=
201905101430 METAR LRBC 101430Z 04004KT 360V080 9999 -RA SCT016 BKN029
                        OVC065 14/13 Q1008 R16/19//95=
201905101500 METAR LRBC 101500Z 05003KT 360V080 9999 -RA FEW019 OVC048
                        14/12 Q1008 R16/19//95=
201905101530 METAR LRBC 101530Z 36003KT 9999 -RA FEW019 SCT040 BKN048
                        13/12 Q1009 R16/19//95=
201905101600 METAR LRBC 101600Z 34005KT 9000 -RA FEW005 SCT023 BKN055
                        13/13 Q1009 R16/19//95=
201905101630 METAR LRBC 101630Z 35004KT 8000 -RA SCT003 BKN011 BKN055
                        13/13 Q1009 R16/220295=
201905101700 METAR LRBC 101700Z 02002KT 340V080 8000 -RA FEW010 BKN014
                        BKN029 13/13 Q1009 R16/220295=
201905101730 METAR LRBC 101730Z 12003KT 7000 RA FEW004 SCT028 BKN036 13/12
                        Q1009 R16/220295=
201905101800 METAR LRBC 101800Z 17004KT 7000 RA FEW003 SCT026 BKN050 12/12
                        Q1010 R16/220295=
201905101830 METAR LRBC 101830Z 18003KT 9000 -RA FEW010 BKN026 BKN030
                        12/12 Q1010 RERA R16/220295=
201905101900 METAR LRBC 101900Z 18002KT 9999 -RA FEW013 BKN031 BKN060
                        12/12 Q1010 R16/220295=
201905101930 METAR LRBC 101930Z 00000KT 8000 -RA BKN055 12/12 Q1010 R16/220295=
201905102000 METAR LRBC 102000Z 00000KT 7000 -RA FEW008 SCT039 BKN055
                        12/12 Q1010 R16/220295=
201905102030 METAR LRBC 102030Z 17003KT 5000 RA BR FEW005 SCT018 BKN060
                        12/12 Q1010 R16/220295=
201905102100 METAR LRBC 102100Z 16004KT 5000 RA BR FEW019 OVC055 12/12
                        Q1010 R16/220295=
201905102130 METAR COR LRBC 102130Z 14003KT 8000 DZ BKN065 12/12 Q1011
                        R16/220295=
201905102200 METAR LRBC 102200Z 15002KT 8000 -RA BKN055 12/12 Q1011 R16/220295=
201905102230 METAR LRBC 102230Z 00000KT 5000 -RA BKN050 12/12 Q1011 R16/220295=
201905102300 METAR LRBC 102300Z 00000KT 5000 -RA OVC050 12/12 Q1011 R16/220295=
201905102330 METAR LRBC 102330Z 00000KT 6000 -RA BKN050 12/12 Q1011 R16/220295=
201905110000 METAR COR LRBC 110000Z 00000KT 6000 -RA OVC055 10/10 Q1011
                        R16/220295=
201905110030 METAR LRBC 110030Z AUTO VRB01KT 2900 FEW002/// BKN050///
                        10/10 Q1011 REDZ=
201905110100 METAR LRBC 110100Z 00000KT 5000 BR FEW002 SCT010 BKN050 10/10
                        Q1011 R16/220295=
201905110130 METAR LRBC 110130Z 27002KT 6000 BKN010 BKN048 10/10 Q1011
                        R16/220295=
201905110200 METAR LRBC 110200Z 00000KT 6000 FEW009 BKN050 OVC065 10/10
                        Q1011 R16/220295=
201905110230 METAR LRBC 110230Z 00000KT 8000 FEW011 SCT017 OVC055 10/10
                        Q1011 R16/220295=
201905110300 METAR LRBC 110300Z 00000KT 8000 BKN010 OVC055 10/10 Q1011
                        R16/220295=
201905110330 METAR LRBC 110330Z 00000KT 7000 -RA BR FEW010 BKN055 10/10
                        Q1012 R16/220295=
201905110400 METAR LRBC 110400Z 00000KT 5000 DZ BR SCT009 OVC011 10/10
                        Q1012 R16/220295=
201905110430 METAR LRBC 110430Z 19003KT 170V230 5000 DZ BR FEW002 BKN012
                        11/10 Q1012 R16/220295=
201905110500 METAR LRBC 110500Z 17002KT 6000 -RA FEW002 SCT014 OVC021
                        11/11 Q1012 R16/220295=
201905110530 METAR LRBC 110530Z 15003KT 7000 FEW003 BKN022 13/13 Q1013
                        R16/220295=
201905110600 METAR LRBC 110600Z 15004KT 8000 BKN005 OVC009 13/13 Q1013
                        R16/220295=
201905110630 METAR LRBC 110630Z 14003KT 100V180 9999 FEW006 SCT028 OVC038
                        14/13 Q1013 R16/220295=
201905110700 METAR LRBC 110700Z 13003KT 090V160 9999 FEW006 BKN048 14/13
                        Q1013 R16/220295=
201905110730 METAR LRBC 110730Z VRB02KT 9999 FEW006 SCT034 BKN048 14/12
                        Q1013 R16/220295=
201905110800 METAR LRBC 110800Z VRB02KT 9999 SCT007 BKN040 14/13 Q1013
                        R16/220295=
201905110830 METAR LRBC 110830Z 21003KT 170V230 9999 SCT012 OVC041 14/12
                        Q1014 R16/220295=
201905110900 METAR LRBC 110900Z 19005KT 150V220 9999 SCT009 BKN050 15/12
                        Q1014 R16/220295=
201905110930 METAR LRBC 110930Z 20006KT 160V230 9999 SCT015 BKN045 16/12
                        Q1014 R16/220295=
201905111000 METAR LRBC 111000Z 21005KT 160V240 9999 FEW015 BKN045TCU
                        16/13 Q1014 R16/220295=
201905111030 METAR LRBC 111030Z VRB02KT 9999 SCT020 BKN045TCU 17/11 Q1014
                        R16/220295=
201905111100 METAR LRBC 111100Z 00000KT 9999 SCT020 SCT045TCU 18/11 Q1014
                        R16/220295=
201905111130 METAR LRBC 111130Z 00000KT 9999 SCT025 BKN040TCU 18/11 Q1014
                        R16/220295=
201905111200 METAR LRBC 111200Z VRB01KT 9999 FEW030CB SCT045 18/12 Q1014
                        R16/220295=
201905111230 METAR LRBC 111230Z VRB02KT 9999 VCSH SCT030CB SCT045 17/12
                        Q1014 R16/220295=
201905111300 METAR LRBC 111300Z VRB02KT 9999 VCSH BKN040CB 18/12 Q1014
                        R16/19//95=
201905111330 METAR LRBC 111330Z 24005KT 9999 -SHRA VCTS SCT045CB SCT060
                        17/12 Q1014 R16/19//95=
201905111400 METAR LRBC 111400Z 25008KT 9999 SCT040CB SCT060 16/13 Q1014
                        R16/19//95=
201905111430 METAR LRBC 111430Z 24005KT 210V270 9999 FEW040CB SCT055 17/13
                        Q1014 R16/19//95=
201905111500 METAR LRBC 111500Z 22003KT 160V250 9999 FEW040CB SCT060 18/10
                        Q1014 R16/19//95=
201905111530 METAR LRBC 111530Z 16004KT 130V200 9999 SCT055 17/12 Q1014
                        R16/19//95=
201905111600 METAR LRBC 111600Z 17005KT 9999 FEW060 17/12 Q1014 R16/19//95=
201905111630 METAR LRBC 111630Z 27003KT 9999 FEW060 17/12 Q1015 R16/19//95=
201905111700 METAR LRBC 111700Z 00000KT CAVOK 15/12 Q1015 R16/19//95=
201905111730 METAR LRBC 111730Z VRB02KT CAVOK 14/11 Q1015 R16/19//95=
201905111800 METAR LRBC 111800Z 00000KT CAVOK 13/11 Q1015 R16/19//95=
201905111830 METAR LRBC 111830Z 00000KT CAVOK 12/10 Q1016 R16/CLRD//=
201905111900 METAR LRBC 111900Z 00000KT CAVOK 12/11 Q1016=
201905111930 METAR LRBC 111930Z VRB01KT CAVOK 12/12 Q1016=
201905112000 METAR LRBC 112000Z 00000KT CAVOK 11/11 Q1016=
201905112030 METAR LRBC 112030Z 00000KT CAVOK 11/11 Q1016=
201905112100 METAR LRBC 112100Z 00000KT CAVOK 10/10 Q1017=
201905112130 METAR LRBC 112130Z AUTO 00000KT 9999 NCD ///// Q1017=
201905112200 METAR LRBC 112200Z AUTO 00000KT 7000 NCD ///// Q1017=
201905112230 METAR LRBC 112230Z AUTO 00000KT 4700 BR NCD ///// Q1017=
201905112300 METAR LRBC 112300Z 00000KT CAVOK 09/09 Q1017=
201905112330 METAR LRBC 112330Z 00000KT 9999 MIFG NSC 09/09 Q1017=
201905120000 METAR LRBC 120000Z AUTO 00000KT 5000 BCFG NCD 09/09 Q1017=
201905120030 METAR LRBC 120030Z AUTO 00000KT 9999 BCFG NCD 09/09 Q1017=
201905120100 METAR LRBC 120100Z 00000KT 9999 MIFG NSC 08/08 Q1017=
201905120130 METAR LRBC 120130Z 00000KT 9999 MIFG NSC 07/07 Q1018=
201905120200 METAR LRBC 120200Z 01002KT CAVOK 08/08 Q1018=
201905120230 METAR LRBC 120230Z 36002KT 330V030 9999 MIFG FEW003 09/09
                        Q1018=
201905120300 METAR LRBC 120300Z 34005KT 9999 MIFG FEW001 07/07 Q1018=
201905120330 METAR LRBC 120330Z 35003KT CAVOK 08/08 Q1018=
201905120400 METAR LRBC 120400Z 05002KT CAVOK 10/10 Q1019=
201905120430 METAR LRBC 120430Z 00000KT CAVOK 11/10 Q1019=
201905120500 METAR LRBC 120500Z 00000KT CAVOK 14/12 Q1019=
201905120530 METAR LRBC 120530Z VRB01KT CAVOK 13/10 Q1019=
201905120600 METAR LRBC 120600Z 00000KT CAVOK 14/11 Q1019=
201905120630 METAR LRBC 120630Z 00000KT CAVOK 15/12 Q1019=
201905120700 METAR LRBC 120700Z 00000KT CAVOK 17/13 Q1019=
201905120730 METAR LRBC 120730Z VRB01KT CAVOK 18/12 Q1019=
201905120800 METAR LRBC 120800Z 00000KT CAVOK 19/12 Q1019=
201905120830 METAR LRBC 120830Z VRB02KT CAVOK 19/13 Q1019=
201905120900 METAR LRBC 120900Z 18005KT 9999 FEW030 20/12 Q1020=
201905120930 METAR LRBC 120930Z 17005KT 9999 FEW030 20/12 Q1020=
201905121000 METAR LRBC 121000Z 14005KT 9999 FEW030 20/12 Q1019=
201905121030 METAR LRBC 121030Z 18003KT 9999 FEW040 21/13 Q1019=
201905121100 METAR LRBC 121100Z 16007KT 9999 FEW043 22/13 Q1019=
201905121130 METAR LRBC 121130Z 19006KT 9999 FEW043 22/12 Q1019=
201905121200 METAR LRBC 121200Z 16006KT 9999 FEW040 22/12 Q1019=
201905121230 METAR LRBC 121230Z 16009KT 9999 FEW050 22/11 Q1019=
201905121300 METAR LRBC 121300Z 18008KT 9999 FEW055 22/11 Q1019=
201905121330 METAR LRBC 121330Z 16007KT 9999 FEW055 22/10 Q1019=
201905121400 METAR LRBC 121400Z 18008KT 9999 FEW055 22/11 Q1019=
201905121430 METAR LRBC 121430Z 17009KT 9999 FEW055 22/11 Q1019=
201905121500 METAR LRBC 121500Z 18007KT 9999 FEW055 22/11 Q1019=
201905121530 METAR LRBC 121530Z 17008KT 9999 FEW055 22/11 Q1019=
201905121600 METAR LRBC 121600Z 17008KT 9999 FEW055 21/11 Q1019=
201905121630 METAR LRBC 121630Z 16007KT 9999 FEW060 20/11 Q1019=
201905121700 METAR LRBC 121700Z 16008KT 9999 SCT060 19/12 Q1019=
201905121730 METAR LRBC 121730Z 17007KT 9999 FEW060 17/12 Q1020=
201905121800 METAR LRBC 121800Z 17005KT 9999 FEW060 17/12 Q1020=
201905121830 METAR LRBC 121830Z 17005KT CAVOK 16/12 Q1020=
201905121900 METAR LRBC 121900Z 17001KT CAVOK 16/12 Q1021=
201905121930 METAR LRBC 121930Z 20004KT CAVOK 16/12 Q1021=
201905122000 METAR LRBC 122000Z 00000KT CAVOK 15/12 Q1021=
201905122030 METAR LRBC 122030Z 00000KT CAVOK 14/11 Q1021=
201905122100 METAR LRBC 122100Z 00000KT CAVOK 13/11 Q1021=
201905122130 METAR LRBC 122130Z 00000KT CAVOK 14/11 Q1021=
201905122200 METAR LRBC 122200Z AUTO 00000KT 9999 NCD 12/10 Q1021=
201905122230 METAR LRBC 122230Z AUTO 00000KT 9999 NCD 11/10 Q1021=
201905122300 METAR LRBC 122300Z 31002KT CAVOK 12/11 Q1021=
201905122330 METAR LRBC 122330Z 05003KT 330V060 CAVOK 12/11 Q1021=
201905130000 METAR LRBC 130000Z 00000KT CAVOK 11/10 Q1021=
201905130030 METAR LRBC 130030Z 33004KT CAVOK 10/09 Q1021=
201905130100 METAR LRBC 130100Z 05003KT CAVOK 11/11 Q1021=
201905130130 METAR LRBC 130130Z 01001KT CAVOK 10/10 Q1021=
201905130200 METAR LRBC 130200Z 34002KT CAVOK 09/09 Q1021=
201905130230 METAR LRBC 130230Z 35001KT CAVOK 10/10 Q1021=
201905130300 METAR LRBC 130300Z 36001KT CAVOK 10/10 Q1021=
201905130330 METAR LRBC 130330Z 35002KT CAVOK 09/09 Q1022=
201905130400 METAR LRBC 130400Z 35001KT CAVOK 11/11 Q1022=
201905130430 METAR LRBC 130430Z 00000KT CAVOK 14/11 Q1022=
201905130500 METAR LRBC 130500Z 01003KT 320V050 9999 FEW060 15/12 Q1022=
201905130530 METAR LRBC 130530Z VRB01KT 9999 SCT055 15/12 Q1022=
201905130600 METAR LRBC 130600Z 03004KT 300V090 9999 BKN055 16/13 Q1022=
201905130630 METAR LRBC 130630Z 34005KT 290V060 9999 FEW060 17/13 Q1022=
201905130700 METAR LRBC 130700Z 33005KT 290V040 9999 FEW060 18/13 Q1022=
201905130730 METAR LRBC 130730Z 33005KT 300V360 9999 FEW060 19/13 Q1022=
201905130800 METAR LRBC 130800Z 35004KT 300V070 9999 FEW065 20/13 Q1022=
201905130830 METAR LRBC 130830Z 35004KT 300V080 9999 SCT065 21/13 Q1022=
201905130900 METAR LRBC 130900Z 09003KT 040V150 9999 SCT065 20/12 Q1022=
201905130930 METAR LRBC 130930Z 04004KT 340V120 9999 FEW041 BKN065 22/12
                        Q1022=
201905131000 METAR LRBC 131000Z VRB03KT 9999 SCT048 BKN065 21/11 Q1022=
201905131030 METAR LRBC 131030Z VRB02KT 9999 FEW046 BKN065 22/11 Q1022=
201905131100 METAR LRBC 131100Z 32003KT 270V350 9999 FEW045 SCT065 22/12
                        Q1022=
201905131130 METAR LRBC 131130Z 00000KT 9999 FEW050 SCT065 22/12 Q1021=
201905131200 METAR LRBC 131200Z 01005KT 300V050 9999 FEW050 SCT065 23/11
                        Q1021=
201905131230 METAR LRBC 131230Z VRB02KT 9999 FEW050 SCT065 23/11 Q1021=
201905131300 METAR LRBC 131300Z 03002KT 320V130 9999 SCT065 24/10 Q1020=
201905131330 METAR LRBC 131330Z 06004KT 350V110 9999 SCT055 24/11 Q1020=
201905131400 METAR LRBC 131400Z 07005KT 010V100 9999 SCT055 22/10 Q1020=
201905131430 METAR LRBC 131430Z 09005KT 050V120 9999 BKN055 22/09 Q1020=
201905131500 METAR LRBC 131500Z 11004KT 9999 BKN055 22/10 Q1020=
201905131530 METAR LRBC 131530Z 00000KT 9999 SCT055 22/11 Q1020=
201905131600 METAR LRBC 131600Z 03002KT 9999 SCT055 22/11 Q1019=
201905131630 METAR LRBC 131630Z 02001KT 9999 FEW060 22/11 Q1019=
201905131700 METAR LRBC 131700Z 00000KT CAVOK 21/13 Q1020=
201905131730 METAR LRBC 131730Z 30004KT CAVOK 19/14 Q1020=
201905131800 METAR LRBC 131800Z 34004KT CAVOK 18/14 Q1020=
201905131830 METAR LRBC 131830Z 34004KT CAVOK 17/13 Q1020=
201905131900 METAR LRBC 131900Z 01003KT CAVOK 17/13 Q1020=
201905131930 METAR LRBC 131930Z 01004KT CAVOK 17/12 Q1020=
201905132000 METAR LRBC 132000Z 33005KT CAVOK 15/12 Q1020=
201905132030 METAR LRBC 132030Z 34004KT CAVOK 16/12 Q1020=
201905132100 METAR LRBC 132100Z 36004KT CAVOK 16/12 Q1020=
201905132130 METAR LRBC 132130Z 35006KT CAVOK 14/12 Q1020=
201905132200 METAR LRBC 132200Z 35009KT CAVOK 16/12 Q1020=
201905132230 METAR LRBC 132230Z 34010KT CAVOK 15/12 Q1020=
201905132300 METAR LRBC 132300Z 34013KT CAVOK 15/13 Q1020=
201905132330 METAR LRBC 132330Z 34012KT CAVOK 15/13 Q1020=
201905140000 METAR LRBC 140000Z 35011KT CAVOK 15/12 Q1020=
201905140030 METAR LRBC 140030Z 35011KT 9999 SCT020 14/12 Q1020=
201905140100 METAR LRBC 140100Z 34011KT 8000 BKN014 14/12 Q1021=
201905140130 METAR COR LRBC 140130Z 34013KT 8000 BKN014 14/12 Q1021=
201905140200 METAR COR LRBC 140200Z 35012KT 8000 OVC014 14/11 Q1020=
201905140230 METAR LRBC 140230Z 36010KT 8000 OVC013 14/11 Q1020=
201905140300 METAR COR LRBC 140300Z 35012KT 8000 BKN012 13/11 Q1020=
201905140330 METAR LRBC 140330Z 34012KT 9000 OVC013 13/11 Q1020=
201905140400 METAR COR LRBC 140400Z 34013KT 8000 OVC013 13/11 Q1020=
201905140430 METAR LRBC 140430Z 34012KT 8000 OVC012 13/11 Q1020=
201905140500 METAR LRBC 140500Z 34012KT 8000 OVC012 13/11 Q1020=
201905140530 METAR LRBC 140530Z 34012KT 8000 OVC012 13/11 Q1020=
201905140600 METAR LRBC 140600Z 34011KT 8000 OVC012 14/11 Q1021=
201905140630 METAR LRBC 140630Z 36010KT 8000 OVC012 14/11 Q1021=
201905140700 METAR LRBC 140700Z 35010KT 8000 OVC012 14/11 Q1021=
201905140730 METAR LRBC 140730Z 35009KT 8000 OVC012 14/11 Q1020=
201905140800 METAR LRBC 140800Z 35010KT 320V020 8000 OVC012 14/11 Q1020=
201905140830 METAR LRBC 140830Z 35009KT 7000 OVC012 14/12 Q1020=
201905140900 METAR LRBC 140900Z 35009KT 320V020 7000 OVC011 14/12 Q1020=
201905140930 METAR LRBC 140930Z 35008KT 7000 OVC011 15/12 Q1020=
201905141000 METAR LRBC 141000Z 33008KT 7000 OVC011 14/12 Q1020=
201905141030 METAR LRBC 141030Z 33008KT 8000 -RA OVC012 15/13 Q1019=
201905141100 METAR LRBC 141100Z 33006KT 300V360 7000 OVC012 15/12 Q1019=
201905141130 METAR LRBC 141130Z 33007KT 8000 BKN012 BKN025 15/13 Q1019=
201905141200 METAR LRBC 141200Z 34005KT 320V030 8000 -RA BKN013 BKN022
                        15/13 Q1019=
201905141230 METAR COR LRBC 141230Z 33006KT 6000 -RA SCT013 BKN024 15/13
                        Q1019=
201905141300 METAR LRBC 141300Z 34007KT 290V360 7000 SCT012 BKN021 15/13
                        Q1018 R16/19//95=
201905141330 METAR LRBC 141330Z 35006KT 320V030 7000 FEW012 SCT016 BKN020
                        15/13 Q1018 R16/19//95=
201905141400 METAR LRBC 141400Z 34006KT 300V010 7000 BKN012 15/13 Q1018
                        R16/19//95=
201905141430 METAR LRBC 141430Z 30006KT 220V350 8000 -RA FEW011 BKN014
                        BKN035 15/13 Q1018 R16/19//95=
201905141500 METAR LRBC 141500Z 30003KT 270V340 5000 RA BR FEW010 BKN023
                        OVC036 15/13 Q1018 R16/19//95=
201905141530 METAR LRBC 141530Z 34002KT 300V360 4000 RA BR BKN025 OVC040
                        14/14 Q1018 R16/220295=
201905141600 METAR LRBC 141600Z 34002KT 4200 RA BR SCT040 OVC055 14/14
                        Q1017 R16/220295=
201905141630 METAR LRBC 141630Z 35003KT 4000 -RA BR FEW037 BKN055 14/14
                        Q1017 RERA R16/220295=
201905141700 METAR LRBC 141700Z 01003KT 3800 -RA FEW037 BKN055 14/14 Q1017
                        R16/220295=
201905141730 METAR LRBC 141730Z 31004KT 2500 -RA FEW037 BKN055 14/14 Q1017
                        R16/220295=
201905141800 METAR LRBC 141800Z 34005KT 3900 -RA BR FEW006 SCT035 BKN055
                        14/14 Q1017 R16/220295=
201905141830 METAR LRBC 141830Z 34004KT 4600 BR SCT035 BKN055 14/14 Q1017
                        R16/220295=
201905141900 METAR LRBC 141900Z 34004KT 3500 BR FEW037 BKN055 13/13 Q1017
                        R16/220295=
201905141930 METAR LRBC 141930Z 31004KT 3600 RA BR SCT007 BKN032 BKN043
                        14/14 Q1017 R16/220295=
201905142000 METAR LRBC 142000Z 35004KT 4300 BR SCT007 BKN032 BKN043 14/14
                        Q1017 RERA R16/220295=
201905142030 METAR LRBC 142030Z 35003KT 5000 BR SCT006 BKN012 BKN031 14/14
                        Q1017 R16/220295=
201905142100 METAR LRBC 142100Z 34005KT 4000 -RA BR FEW012 BKN031 14/14
                        Q1016 R16/220295=
201905142130 METAR LRBC 142130Z 32005KT 4100 BR FEW005 BKN042 14/14 Q1016
                        R16/220295=
201905142200 METAR LRBC 142200Z 33006KT 4900 BR SCT010 BKN024 OVC065 14/14
                        Q1016 R16/220295=
201905142230 METAR LRBC 142230Z 32004KT 4800 BR BKN008 BKN024 13/13 Q1016
                        R16/220295=
201905142300 METAR LRBC 142300Z 33004KT 4900 -RA BR BKN008 OVC012 13/13
                        Q1016 R16/220295=
201905142330 METAR LRBC 142330Z 35003KT 4900 -RA BR BKN008 OVC012 13/13
                        Q1016 R16/220295=
201905150000 METAR LRBC 150000Z 33005KT 4500 -RA BR BKN005 OVC011 13/13
                        Q1015 R16/220295=
201905150030 METAR LRBC 150030Z 32004KT 4800 -RA BR BKN005 OVC011 14/14
                        Q1015 R16/220295=
201905150100 METAR LRBC 150100Z 34002KT 4400 -RA BR BKN005 OVC011 14/14
                        Q1015 R16/220295=
201905150130 METAR LRBC 150130Z 03002KT 4000 -RA BR BKN005 OVC011 14/14
                        Q1015 R16/220295=
201905150200 METAR LRBC 150200Z 36003KT 3700 -RA BR BKN005 OVC011 14/14
                        Q1014 R16/220295=
201905150230 METAR LRBC 150230Z 06002KT 3500 BR BKN005 BKN023 14/14 Q1014
                        R16/220295=
201905150300 METAR LRBC 150300Z 35001KT 2400 BR SCT003 BKN017 14/14 Q1015
                        R16/220295=
201905150330 METAR LRBC 150330Z 03003KT 2000 BR BKN003 BKN012 14/14 Q1014
                        R16/220295=
201905150400 METAR LRBC 150400Z 03004KT 2000 BR BKN002 BKN010 13/13 Q1014
                        R16/210195=
201905150430 METAR LRBC 150430Z VRB01KT 2800 BR BKN002 BKN010 14/14 Q1015
                        R16/210195=
201905150500 METAR LRBC 150500Z 00000KT 3000 BR FEW002 BKN020 14/14 Q1015
                        R16/210195=
201905150530 METAR LRBC 150530Z VRB02KT 5000 BR FEW003 BKN020 15/15 Q1015
                        R16/210195=
201905150600 METAR LRBC 150600Z VRB01KT 8000 BKN010 BKN019 15/14 Q1015
                        R16/210195=
201905150630 METAR LRBC 150630Z 15003KT 100V190 9999 SCT008 BKN015 15/14
                        Q1015 R16/210195=
201905150700 METAR LRBC 150700Z 17004KT 130V200 9999 BKN008 OVC015 16/14
                        Q1015 R16/210195=
201905150730 METAR LRBC 150730Z VRB02KT 9999 FEW010 OVC013 16/14 Q1015
                        R16/210195=
201905150800 METAR LRBC 150800Z VRB01KT 9999 BKN013 17/14 Q1014 R16/210195=
201905150830 METAR LRBC 150830Z 15003KT 090V200 9999 SCT011 BKN014 17/15
                        Q1014 R16/15//95=
201905150900 METAR LRBC 150900Z 20005KT 160V240 9999 BKN015 18/15 Q1014
                        R16/15//95=
201905150930 METAR LRBC 150930Z 19007KT 150V210 9999 SCT015 BKN024 18/15
                        Q1014 R16/CLRD//=
201905151000 METAR LRBC 151000Z 17008KT 8000 -SHRA FEW014 SCT028CB BKN039
                        17/16 Q1014 R16/19//95=
201905151030 METAR LRBC 151030Z 17008KT 9999 FEW008 SCT041 19/17 Q1014
                        R16/19//95=
201905151100 METAR LRBC 151100Z 18008KT 9999 FEW014 BKN026 19/16 Q1013
                        R16/19//95=
201905151130 METAR LRBC 151130Z 20008KT 160V220 9999 BKN020 20/16 Q1014
                        R16/210195=
201905151200 METAR LRBC 151200Z 15010KT 9999 BKN022 20/16 Q1013 R16/210195=
201905151230 METAR LRBC 151230Z 16014KT 9999 -RA SCT022 SCT045 18/16 Q1014
                        R16/210195=
201905151300 METAR LRBC 151300Z 14013KT 9999 -RA FEW030 BKN044 18/16 Q1013
                        R16/210195=
201905151330 METAR LRBC 151330Z 16013KT 9999 SCT043 18/16 Q1014 R16/210195=
201905151400 METAR LRBC 151400Z 17011KT 9999 SCT020 18/16 Q1014 R16/210195=
201905151430 METAR LRBC 151430Z 16012KT 9999 SCT016 BKN024 18/16 Q1014
                        R16/210195=
201905151500 METAR LRBC 151500Z 14012KT 9999 FEW019 SCT035 BKN047 18/15
                        Q1014 R16/210195=
201905151530 METAR LRBC 151530Z 14008KT 9999 FEW021 18/15 Q1014 R16/210195=
201905151600 METAR LRBC 151600Z 14009KT 9999 BKN023 BKN028 17/15 Q1014
                        R16/210195=
201905151630 METAR LRBC 151630Z 17009KT 9999 BKN028 17/15 Q1014 R16/210195=
201905151700 METAR LRBC 151700Z 15010KT 9999 SCT028 16/15 Q1013 R16/11//95=
201905151730 METAR LRBC 151730Z 15009KT 9999 -RA FEW055 16/15 Q1014 R16/11//95=
201905151800 METAR LRBC 151800Z 20006KT 160V230 9999 -RA SCT040 16/15
                        Q1014 R16/11//95=
201905151830 METAR LRBC 151830Z 17003KT 130V210 9999 FEW040 15/15 Q1014
                        R16/11//95=
201905151900 METAR LRBC 151900Z 15004KT 9999 -RA FEW065 15/15 Q1014 R16/11//95=
201905151930 METAR LRBC 151930Z 10003KT 9000 FEW065 15/15 Q1014 R16/11//95=
201905152000 METAR LRBC 152000Z 12006KT CAVOK 15/15 Q1015 R16/11//95=
201905152030 METAR LRBC 152030Z 15002KT 110V230 CAVOK 15/14 Q1014 R16/11//95=
201905152100 METAR LRBC 152100Z 20003KT 170V230 9000 FEW065 15/15 Q1015
                        R16/11//95=
201905152130 METAR LRBC 152130Z 19004KT 9000 FEW065 15/15 Q1015 R16/11//95=
201905152200 METAR LRBC 152200Z 12004KT CAVOK 15/15 Q1014 R16/11//95=
201905152230 METAR LRBC 152230Z 11003KT CAVOK 14/14 Q1014 R16/11//95=
201905152300 METAR LRBC 152300Z 22003KT 140V270 8000 NSC 14/14 Q1014 R16/11//95=
201905152330 METAR LRBC 152330Z VRB01KT 8000 NSC 14/14 Q1014 R16/11//95=
201905160000 METAR LRBC 160000Z 00000KT CAVOK 14/14 Q1014 R16/11//95=
201905160030 METAR LRBC 160030Z 00000KT CAVOK 14/14 Q1014 R16/11//95=
201905160100 METAR LRBC 160100Z 35002KT 9000 FEW038 14/14 Q1014 R16/11//95=
201905160130 METAR LRBC 160130Z AUTO 00000KT 5000 BR BKN042/// BKN140///
                        ///// Q1014=
201905160200 METAR LRBC 160200Z 00000KT 7000 SCT043 BKN050 14/14 Q1013
                        R16/11//95=
201905160230 METAR LRBC 160230Z 31004KT 9999 BKN043 14/14 Q1013 R16/11//95=
201905160300 METAR LRBC 160300Z 31004KT 9999 BKN043 14/14 Q1013 R16/11//95=
201905160330 METAR LRBC 160330Z 34002KT 310V010 9999 BKN042 14/14 Q1013
                        R16/95=
201905160400 METAR LRBC 160400Z 00000KT 9999 -RA BKN043 14/14 Q1014 R16/11//95=
201905160430 METAR LRBC 160430Z 06001KT 8000 RA FEW036 BKN048 14/14 Q1014
                        R16/11//95=
201905160500 METAR LRBC 160500Z 01005KT 8000 -RA SCT046 BKN065 14/14 Q1013
                        R16/11//95=
201905160530 METAR LRBC 160530Z 04003KT 360V070 6000 -RA SCT033 BKN065
                        14/14 Q1013 R16/11//95=
201905160600 METAR LRBC 160600Z VRB01KT 7000 FEW005 BKN035 14/14 Q1014
                        R16/220295=
201905160630 METAR LRBC 160630Z 35004KT 8000 -DZ SCT005 BKN033 15/15 Q1014
                        R16/220295=
201905160700 METAR LRBC 160700Z 34004KT 8000 SCT033 BKN065 15/15 Q1014
                        R16/220295=
201905160730 METAR LRBC 160730Z 03004KT 360V060 9999 FEW005 SCT065 15/15
                        Q1014 R16/220295=
201905160800 METAR LRBC 160800Z VRB02KT 9999 -RA SCT044 15/15 Q1014 R16/220295=
201905160830 METAR LRBC 160830Z 00000KT 8000 -RA BKN027 15/15 Q1014 R16/220295=
201905160900 METAR LRBC 160900Z 01003KT 320V040 9999 FEW006 SCT050 16/15
                        Q1014 R16/220295=
201905160930 METAR LRBC 160930Z 35006KT 330V030 9999 FEW008 SCT048 16/14
                        Q1014 R16/220295=
201905161000 METAR LRBC 161000Z 35006KT 320V020 9999 SCT045 17/14 Q1014
                        R16/220295=
201905161030 METAR LRBC 161030Z 34004KT 300V020 9999 SCT050 17/14 Q1014
                        R16/220295=
201905161100 METAR LRBC 161100Z 02004KT 350V060 9999 SCT060 17/14 Q1014
                        R16/220295=
201905161130 METAR LRBC 161130Z 33004KT 310V010 9999 SCT060 17/14 Q1014
                        R16/220295=
201905161200 METAR LRBC 161200Z 36006KT 330V040 9999 FEW017 16/14 Q1013
                        R16/220295=
201905161230 METAR LRBC 161230Z 33009KT 9999 SCT027 17/15 Q1013 R16/220295=
201905161300 METAR LRBC 161300Z 33010KT 9999 SCT027 17/15 Q1013 R16/19//95=
201905161330 METAR LRBC 161330Z 33008KT 9999 SCT020 18/15 Q1013 R16/19//95=
201905161400 METAR LRBC 161400Z 33007KT 300V010 9999 SCT016 18/15 Q1013
                        R16/CLRD//=
201905161430 METAR LRBC 161430Z 33008KT 9999 FEW016 BKN150 18/15 Q1013=
201905161500 METAR LRBC 161500Z 32007KT 290V010 9999 SCT017 18/15 Q1012=
201905161530 METAR LRBC 161530Z 31006KT 9999 SCT020 19/15 Q1012=
201905161600 METAR LRBC 161600Z 32007KT 9999 FEW020 19/15 Q1012=
201905161630 METAR LRBC 161630Z 32006KT 9999 FEW022 18/14 Q1012=
201905161700 METAR LRBC 161700Z 34005KT CAVOK 18/14 Q1012=
201905161730 METAR LRBC 161730Z 34004KT CAVOK 16/14 Q1012=
201905161800 METAR LRBC 161800Z 28004KT CAVOK 15/14 Q1012=
201905161830 METAR LRBC 161830Z VRB02KT CAVOK 15/14 Q1012=
201905161900 METAR LRBC 161900Z 30004KT 270V020 CAVOK 15/14 Q1012=
201905161930 METAR LRBC 161930Z VRB03KT CAVOK 14/13 Q1012=
201905162000 METAR LRBC 162000Z VRB02KT CAVOK 15/13 Q1012=
201905162030 METAR LRBC 162030Z VRB01KT CAVOK 14/13 Q1012=
201905162100 METAR LRBC 162100Z VRB01KT CAVOK 14/13 Q1012=
201905162130 METAR LRBC 162130Z 01003KT CAVOK 13/13 Q1012=
201905162200 METAR COR LRBC 162200Z 07003KT CAVOK 12/12 Q1012=
201905162230 METAR COR LRBC 162230Z 04003KT CAVOK 13/13 Q1012=
201905162300 METAR LRBC 162300Z 29004KT CAVOK 11/11 Q1012=
201905162330 METAR LRBC 162330Z AUTO 31003KT 6000 BKN100/// 12/12 Q1012=
201905170000 METAR LRBC 170000Z AUTO 35002KT 6000 FEW095/// 12/12 Q1012=
201905170030 METAR LRBC 170030Z VRB01KT CAVOK 12/12 Q1012=
201905170100 METAR LRBC 170100Z 01001KT CAVOK 11/11 Q1011=
201905170130 METAR LRBC 170130Z AUTO 01002KT 3200 R34/0900VP2000U BCFG
                        FEW090/// 11/11 Q1011=
201905170200 METAR COR LRBC 170200Z 03001KT 5000 1500S BR PRFG SCT001
                        11/11 Q1011=
201905170230 METAR LRBC 170230Z 00000KT 0250 R34/0275N FG VV001 11/11
                        Q1012=
201905170300 METAR LRBC 170300Z 00000KT 0050 R34/0200N FG VV001 10/10
                        Q1012=
201905170330 METAR LRBC 170330Z 00000KT 0100 R34/0275N FG VV001 11/11
                        Q1012=
201905170400 METAR LRBC 170400Z 00000KT 0100 R34/0200N FG VV001 11/11
                        Q1012=
201905170430 METAR LRBC 170430Z 00000KT 0150 R34/0200N FG NSC 11/11 Q1012=
201905170500 METAR LRBC 170500Z 00000KT 1500 R34/1200U BR SCT002 12/12
                        Q1013=
201905170530 METAR LRBC 170530Z VRB01KT 5000 BR SCT002 13/13 Q1013=
201905170600 METAR LRBC 170600Z 00000KT 7000 FEW003 15/15 Q1013=
201905170630 METAR LRBC 170630Z 00000KT 8000 FEW003 16/15 Q1013=
201905170700 METAR LRBC 170700Z 00000KT CAVOK 17/16 Q1013=
201905170730 METAR LRBC 170730Z 05003KT CAVOK 19/16 Q1013=
201905170800 METAR LRBC 170800Z 36003KT CAVOK 19/16 Q1013=
201905170830 METAR LRBC 170830Z 03003KT CAVOK 20/16 Q1013=
201905170900 METAR LRBC 170900Z 34003KT CAVOK 21/15 Q1012=
201905170930 METAR LRBC 170930Z 32002KT CAVOK 22/15 Q1012=
201905171000 METAR LRBC 171000Z 28003KT CAVOK 23/15 Q1012=
201905171030 METAR LRBC 171030Z 30004KT CAVOK 23/16 Q1012=
201905171100 METAR LRBC 171100Z VRB02KT CAVOK 24/16 Q1012=
201905171130 METAR LRBC 171130Z VRB01KT CAVOK 25/16 Q1012=
201905171200 METAR LRBC 171200Z 15004KT CAVOK 25/16 Q1012=
201905171230 METAR LRBC 171230Z VRB01KT CAVOK 26/15 Q1011=
201905171300 METAR LRBC 171300Z 09005KT CAVOK 25/15 Q1011=
201905171330 METAR LRBC 171330Z 09003KT CAVOK 26/16 Q1011=
201905171400 METAR LRBC 171400Z VRB01KT 9999 FEW047 26/15 Q1011=
201905171430 METAR LRBC 171430Z 20002KT 9999 FEW050 27/15 Q1011=
201905171500 METAR LRBC 171500Z 20004KT 9999 SCT055 27/14 Q1011=
201905171530 METAR LRBC 171530Z 11004KT 9999 SCT050 26/15 Q1011=
201905171600 METAR LRBC 171600Z 11005KT 9999 FEW040CB SCT055 25/15 Q1011=
201905171630 METAR LRBC 171630Z 00000KT 9999 SCT060 24/15 Q1011=
201905171700 METAR LRBC 171700Z 28005KT 9999 SCT065 23/17 Q1011=
201905171730 METAR LRBC 171730Z 24008KT 200V260 9999 FEW065 22/15 Q1011=
201905171800 METAR LRBC 171800Z 27007KT CAVOK 21/13 Q1011=
201905171830 METAR LRBC 171830Z 26012KT 220V280 CAVOK 21/12 Q1011=
201905171900 METAR LRBC 171900Z 27009KT CAVOK 20/12 Q1011=
201905171930 METAR LRBC 171930Z VRB03KT CAVOK 21/12 Q1011=
201905172000 METAR LRBC 172000Z 33005KT 290V010 CAVOK 19/12 Q1011=
201905172030 METAR LRBC 172030Z VRB01KT CAVOK 18/12 Q1011=
201905172100 METAR LRBC 172100Z VRB01KT CAVOK 18/12 Q1011=
201905172130 METAR LRBC 172130Z 08003KT CAVOK 17/14 Q1011=
201905172200 METAR LRBC 172200Z 04006KT 360V080 CAVOK 17/13 Q1011=
201905172230 METAR LRBC 172230Z AUTO 36006KT 9999 FEW110/// BKN150///
                        17/13 Q1011=
201905172300 METAR COR LRBC 172300Z 34007KT CAVOK 16/13 Q1011=
201905172330 METAR LRBC 172330Z 36005KT CAVOK 17/14 Q1011=
201905180000 METAR LRBC 180000Z 33005KT CAVOK 16/14 Q1011=
201905180030 METAR LRBC 180030Z 34006KT CAVOK 15/13 Q1011=
201905180100 METAR LRBC 180100Z 34005KT CAVOK 15/13 Q1010=
201905180130 METAR LRBC 180130Z 34005KT CAVOK 15/13 Q1011=
201905180200 METAR LRBC 180200Z 36006KT CAVOK 17/13 Q1010=
201905180230 METAR LRBC 180230Z 03005KT 340V050 9999 FEW065 16/13 Q1010=
201905180300 METAR LRBC 180300Z 03006KT CAVOK 15/13 Q1010=
201905180330 METAR LRBC 180330Z 02007KT CAVOK 16/13 Q1010=
201905180400 METAR LRBC 180400Z 01005KT CAVOK 17/13 Q1010=
201905180430 METAR LRBC 180430Z 01003KT 330V080 CAVOK 17/14 Q1010=
201905180500 METAR LRBC 180500Z 36005KT 9999 FEW060 18/14 Q1010=
201905180530 METAR LRBC 180530Z 34006KT 9999 SCT055 20/15 Q1010=
201905180600 METAR LRBC 180600Z 35007KT 320V020 9999 SCT060 20/14 Q1010=
201905180630 METAR LRBC 180630Z 36008KT 9999 SCT055 20/14 Q1010=
201905180700 METAR LRBC 180700Z 36005KT 9999 TS VCSH SCT055CB BKN065 20/15
                        Q1010=
201905180730 METAR LRBC 180730Z 34008KT 9999 TS VCSH SCT050CB BKN065 19/16
                        Q1009=
201905180800 METAR LRBC 180800Z 32007KT 9999 TSRA BKN055CB 18/16 Q1009=
201905180830 METAR LRBC 180830Z 13010KT 9999 TSRA FEW030 BKN050CB 18/16
                        Q1011=
201905180900 METAR LRBC 180900Z 23011KT 2000 +TSRA BR FEW013 SCT025 BKN031CB
                        17/17 Q1012=
201905180930 METAR LRBC 180930Z 23009KT 3000 +TSRA BR FEW027 BKN035CB
                        OVC041 17/17 Q1011=
201905181000 METAR LRBC 181000Z 29007KT 9999 TSRA FEW035 SCT045CB 17/17
                        Q1011 R16/250395=
201905181030 METAR LRBC 181030Z 31012KT 9999 FEW032 SCT040CB 18/17 Q1009
                        RETSRA R16/250395=
201905181100 METAR LRBC 181100Z 32007KT 280V360 9999 FEW032 FEW040CB 21/17
                        Q1009 R16/250395=
201905181130 METAR LRBC 181130Z 36008KT 330V030 9999 FEW030 21/18 Q1009
                        R16/210195=
201905181200 METAR LRBC 181200Z 03006KT 340V070 CAVOK 21/17 Q1008 R16/210195=
201905181230 METAR LRBC 181230Z 03008KT 340V080 9999 SCT050 21/17 Q1008
                        R16/210195=
201905181300 METAR LRBC 181300Z 01006KT 340V060 9999 FEW050 22/18 Q1008
                        R16/CLRD//=
201905181330 METAR LRBC 181330Z 34008KT 9999 FEW060 22/17 Q1008=
201905181400 METAR LRBC 181400Z 34011KT 9999 FEW065 23/16 Q1008=
201905181430 METAR LRBC 181430Z 01011KT 9999 BKN055 21/16 Q1008=
201905181500 METAR COR LRBC 181500Z 35010KT 9999 SCT045CB BKN055 21/16
                        Q1008=
201905181530 METAR COR LRBC 181530Z 36007KT 340V040 9999 -TSRA FEW018
                        BKN050CB 20/17 Q1008=
201905181600 METAR LRBC 181600Z 32006KT 8000 SHRA VCTS FEW024 BKN050CB
                        19/18 Q1009=
201905181630 METAR COR LRBC 181630Z 33011KT 9999 -TSRA FEW025 BKN049CB
                        18/17 Q1009 RESHRA R16/250395=
201905181700 METAR LRBC 181700Z 32008KT 7000 -TSRA FEW025 BKN050CB 18/17
                        Q1009 R16/250395=
201905181730 METAR LRBC 181730Z 33010KT 9999 -SHRA FEW022 SCT055CB 18/17
                        Q1009 RETS R16/250395=
201905181800 METAR LRBC 181800Z 31007KT 9999 -SHRA FEW027 SCT055CB 18/17
                        Q1009 R16/250395=
201905181830 METAR LRBC 181830Z 31006KT 9999 -SHRA SCT055CB 18/17 Q1009
                        R16/210295=
201905181900 METAR LRBC 181900Z 35007KT 9999 -SHRA FEW055CB 17/17 Q1009
                        R16/210295=
201905181930 METAR LRBC 181930Z 34007KT 9999 FEW020 17/17 Q1009 R16/210295=
201905182000 METAR LRBC 182000Z 33007KT 9999 BKN019 17/17 Q1009 R16/210295=
201905182030 METAR LRBC 182030Z 34006KT 9999 BKN021 17/16 Q1009 R16/210295=
201905182100 METAR LRBC 182100Z 34005KT 9999 SCT020 17/16 Q1009 R16/19//95=
201905182130 METAR LRBC 182130Z 34005KT 9999 BKN050 16/16 Q1009 R16/19//95=
201905182200 METAR LRBC 182200Z 34006KT 9999 BKN015 17/17 Q1009 R16/19//95=
201905182230 METAR LRBC 182230Z 34005KT 9999 BKN015 17/16 Q1009 R16/19//95=
201905182300 METAR LRBC 182300Z 33007KT 9999 BKN015 17/16 Q1009 R16/19//95=
201905182330 METAR LRBC 182330Z 34005KT 9999 BKN016 17/16 Q1009 R16/19//95=
201905190000 METAR LRBC 190000Z 33006KT 9999 SCT014 17/16 Q1009 R16/19//95=
201905190030 METAR LRBC 190030Z AUTO 34005KT 9999 OVC016/// 16/16 Q1009=
201905190100 METAR LRBC 190100Z AUTO 33005KT 9999 SCT017/// BKN120///
                        16/16 Q1009=
201905190130 METAR LRBC 190130Z AUTO 35005KT 9999 FEW011/// BKN120///
                        ///// Q1009=
201905190200 METAR LRBC 190200Z 35004KT 9999 BKN010 16/16 Q1009 R16/19//95=
201905190230 METAR LRBC 190230Z 35005KT 9999 OVC009 16/16 Q1009 R16/19//95=
201905190300 METAR LRBC 190300Z 34005KT 9999 BKN009 16/16 Q1009 R16/19//95=
201905190330 METAR LRBC 190330Z 30006KT 9999 BKN010 17/16 Q1010 R16/19//95=
201905190400 METAR LRBC 190400Z 32006KT 9999 SCT011 BKN030 17/16 Q1010
                        R16/19//95=
201905190430 METAR LRBC 190430Z 32006KT 9999 SCT011 BKN030 17/16 Q1010
                        R16/19//95=
201905190500 METAR LRBC 190500Z 35006KT 9999 OVC009 18/16 Q1010 R16/19//95=
201905190530 METAR LRBC 190530Z 34007KT 9999 OVC011 18/16 Q1010 R16/19//95=
201905190600 METAR LRBC 190600Z 34005KT 9999 BKN011 18/16 Q1011 R16/19//95=
201905190630 METAR LRBC 190630Z 01003KT 330V050 9999 FEW012 BKN028 18/16
                        Q1010 R16/19//95=
201905190700 METAR LRBC 190700Z 34005KT 310V020 9999 SCT011 20/17 Q1010
                        R16/19//95=
201905190730 METAR LRBC 190730Z 33005KT 290V040 9999 FEW013 20/17 Q1010
                        R16/19//95=
201905190800 METAR LRBC 190800Z 34004KT 300V030 9999 FEW015 21/17 Q1010
                        R16/19//95=
201905190830 METAR LRBC 190830Z 35003KT 310V060 9999 FEW016 22/18 Q1010
                        R16/19//95=
201905190900 METAR LRBC 190900Z 03003KT 330V100 9999 FEW021 23/18 Q1010
                        R16/19//95=
201905190930 METAR LRBC 190930Z 07004KT 340V150 9999 FEW023 23/18 Q1010
                        R16/19//95=
201905191000 METAR LRBC 191000Z VRB01KT 9999 FEW023 24/19 Q1010 R16/19//95=
201905191030 METAR LRBC 191030Z VRB02KT 9999 FEW025 24/18 Q1010 R16/19//95=
201905191100 METAR LRBC 191100Z 18004KT 120V270 9999 FEW027 25/18 Q1010
                        R16/19//95=
201905191130 METAR LRBC 191130Z 10004KT 050V160 9999 FEW028 25/18 Q1010
                        R16/19//95=
201905191200 METAR LRBC 191200Z 17005KT 130V210 9999 FEW030 25/19 Q1009
                        R16/19//95=
201905191230 METAR LRBC 191230Z 15005KT 070V190 9999 FEW040 26/18 Q1009
                        R16/19//95=
201905191300 METAR LRBC 191300Z VRB03KT 9999 FEW040 26/19 Q1009 R16/19//95=
201905191330 METAR LRBC 191330Z 14004KT 100V230 9999 FEW035 26/19 Q1009
                        R16/19//95=
201905191400 METAR LRBC 191400Z 16004KT 120V200 9999 SCT035 27/19 Q1009
                        R16/19//95=
201905191430 METAR LRBC 191430Z 16006KT 120V190 9999 SCT037 26/19 Q1009
                        R16/19//95=
201905191500 METAR LRBC 191500Z 16005KT 110V200 9999 SCT038 26/19 Q1009
                        R16/19//95=
201905191530 METAR LRBC 191530Z 13007KT 110V170 9999 SCT038 26/19 Q1009
                        R16/19//95=
201905191600 METAR LRBC 191600Z 17005KT 9999 FEW037 26/19 Q1008 R16/19//95=
201905191630 METAR LRBC 191630Z 15007KT 9999 FEW038 25/19 Q1008 R16/19//95=
201905191700 METAR LRBC 191700Z 16006KT 9999 SCT038 24/19 Q1009 R16/19//95=
201905191730 METAR LRBC 191730Z 13005KT 9999 SCT046 23/19 Q1009 R16/19//95=
201905191800 METAR LRBC 191800Z 14003KT 9999 SCT040 22/19 Q1009 R16/19//95=
201905191830 METAR LRBC 191830Z 21003KT CAVOK 21/19 Q1009 R16/19//95=
201905191900 METAR LRBC 191900Z 00000KT CAVOK 21/19 Q1009 R16/19//95=
201905191930 METAR LRBC 191930Z 00000KT CAVOK 20/18 Q1009 R16/19//95=
201905192000 METAR LRBC 192000Z 00000KT CAVOK 19/18 Q1009 R16/19//95=
201905192030 METAR LRBC 192030Z 14004KT 100V170 CAVOK 19/18 Q1009 R16/19//95=
201905192100 METAR LRBC 192100Z 14002KT 9999 FEW035 19/18 Q1009 R16/19//95=
201905192130 METAR LRBC 192130Z 23002KT 9999 FEW035 19/18 Q1009 R16/19//95=
201905192200 METAR LRBC 192200Z 12003KT 090V160 CAVOK 18/17 Q1009 R16/19//95=
201905192230 METAR LRBC 192230Z 17003KT 140V210 CAVOK 18/18 Q1009 R16/19//95=
201905192300 METAR LRBC 192300Z AUTO 11004KT 9999 NCD 18/18 Q1009=
201905192330 METAR LRBC 192330Z 13004KT CAVOK 18/18 Q1009 R16/19//95=
201905200000 METAR LRBC 200000Z 19002KT 140V240 8000 NSC 17/17 Q1009 R16/19//95=
201905200030 METAR COR LRBC 200030Z 00000KT 7000 NSC 17/17 Q1009 R16/19//95=
201905200100 METAR LRBC 200100Z 00000KT 7000 BR NSC 18/18 Q1009 R16/19//95=
201905200130 METAR LRBC 200130Z 00000KT 7000 NSC 17/17 Q1009 R16/19//95=
201905200200 METAR LRBC 200200Z 17006KT 8000 NSC 17/17 Q1009 R16/19//95=
201905200230 METAR LRBC 200230Z 15004KT 8000 NSC 18/18 Q1009 R16/19//95=
201905200300 METAR LRBC 200300Z 19005KT 7000 SCT011 18/18 Q1009 R16/19//95=
201905200330 METAR LRBC 200330Z 20005KT 8000 OVC012 18/18 Q1009 R16/19//95=
201905200400 METAR LRBC 200400Z 18007KT 9000 BKN012 19/19 Q1009 R16/19//95=
201905200430 METAR LRBC 200430Z 15006KT 9000 OVC010 19/19 Q1009 R16/19//95=
201905200500 METAR LRBC 200500Z 14007KT 8000 OVC010 19/19 Q1009 R16/19//95=
201905200530 METAR LRBC 200530Z 17010KT 8000 SCT007 OVC010 20/19 Q1009
                        R16/19//95=
201905200600 METAR LRBC 200600Z 17012KT 9999 SCT005 SCT010 20/19 Q1009
                        R16/19//95=
201905200630 METAR LRBC 200630Z 16015KT 9999 SCT010 SCT017 20/18 Q1010
                        R16/19//95=
201905200700 METAR LRBC 200700Z 16014KT 9999 BKN014 21/18 Q1010 R16/19//95=
201905200730 METAR LRBC 200730Z 15014KT 9999 SCT013 21/18 Q1009 R16/19//95=
201905200800 METAR LRBC 200800Z 16015KT 130V190 9999 SCT018 22/18 Q1009
                        R16/19//95=
201905200830 METAR LRBC 200830Z 16015KT 9999 SCT020 23/18 Q1010 R16/19//95=
201905200900 METAR LRBC 200900Z 16015KT 9999 FEW020 22/18 Q1010 R16/19//95=
201905200930 METAR LRBC 200930Z 16013KT 9999 FEW020 22/19 Q1010 R16/19//95=
201905201000 METAR LRBC 201000Z 17011KT 9999 FEW031 23/19 Q1010 R16/19//95=
201905201030 METAR LRBC 201030Z 17011KT 9999 FEW034 23/19 Q1010 R16/19//95=
201905201100 METAR LRBC 201100Z 17008KT 9999 FEW036 SCT050 23/19 Q1010
                        R16/19//95=
201905201130 METAR LRBC 201130Z 17007KT 9999 FEW037 SCT050 24/19 Q1009
                        R16/19//95=
201905201200 METAR LRBC 201200Z 14007KT 100V160 9999 SCT032 BKN045 24/19
                        Q1009 R16/19//95=
201905201230 METAR LRBC 201230Z 13010KT 9999 BKN036 BKN055 24/18 Q1009
                        R16/19//95=
201905201300 METAR LRBC 201300Z 12010KT 9999 SCT035 BKN044 25/18 Q1008
                        R16/19//95=
201905201330 METAR LRBC 201330Z 13012KT 9999 FEW045 SCT048 25/18 Q1008
                        R16/19//95=
201905201400 METAR LRBC 201400Z 12011G21KT 090V150 9999 FEW040 BKN047
                        25/18 Q1008 R16/CLRD//=
201905201430 METAR LRBC 201430Z 13013KT 9999 FEW038 BKN047 25/18 Q1008=
201905201500 METAR LRBC 201500Z 13013KT 9999 FEW036 SCT045 25/18 Q1007=
201905201530 METAR LRBC 201530Z 14015KT 9999 SCT040 24/18 Q1007=
201905201600 METAR LRBC 201600Z 14012KT 9999 SCT040 24/18 Q1006=
201905201630 METAR LRBC 201630Z 13012KT 9999 SCT035 23/17 Q1006=
201905201700 METAR LRBC 201700Z 14012KT 9999 SCT035 22/17 Q1007=
201905201730 METAR LRBC 201730Z 13013KT 9999 FEW044TCU 22/18 Q1007=
201905201800 METAR LRBC 201800Z 13015KT 100V160 9999 FEW041CB 22/17 Q1007=
201905201830 METAR LRBC 201830Z 14014KT 9999 FEW050 21/17 Q1007=
201905201900 METAR LRBC 201900Z 14012KT 9999 FEW050 21/17 Q1007=
201905201930 METAR LRBC 201930Z 14013KT 9999 FEW050 20/17 Q1007=
201905202000 METAR LRBC 202000Z 15014KT 9999 VCTS FEW020 SCT030CB 20/17
                        Q1007=
201905202030 METAR LRBC 202030Z 16016KT 9999 SCT025 BKN031CB 19/16 Q1007=
201905202100 METAR LRBC 202100Z 26008KT 220V290 9999 -SHRA VCTS BKN020
                        BKN031CB 17/15 Q1007=
201905202130 METAR LRBC 202130Z 24003KT 210V290 9999 -SHRA SCT039CB 16/15
                        Q1007=
201905202200 METAR LRBC 202200Z 22004KT 9999 FEW018 BKN047 16/15 Q1007=
201905202230 METAR LRBC 202230Z 18005KT 9999 BKN047 16/15 Q1007=
201905202300 METAR LRBC 202300Z AUTO 19005KT 9999 FEW055/// SCT100///
                        BKN120/// 15/14 Q1007 RERA=
201905202330 METAR LRBC 202330Z AUTO 19007KT 9999 FEW095/// SCT110///
                        BKN130/// 15/14 Q1007=
201905210000 METAR LRBC 210000Z 19003KT 150V230 CAVOK 14/13 Q1007=
201905210030 METAR LRBC 210030Z 17005KT CAVOK 13/12 Q1007=
201905210100 METAR COR LRBC 210100Z 15005KT CAVOK 14/14 Q1007=
201905210130 METAR LRBC 210130Z 15005KT CAVOK 14/14 Q1006=
201905210200 METAR COR LRBC 210200Z VRB02KT CAVOK 14/14 Q1007=
201905210230 METAR LRBC 210230Z 18003KT 150V230 CAVOK 14/14 Q1007=
201905210300 METAR LRBC 210300Z 16004KT CAVOK 13/13 Q1007=
201905210330 METAR LRBC 210330Z VRB02KT CAVOK 14/14 Q1007=
201905210400 METAR LRBC 210400Z 17004KT CAVOK 15/15 Q1007 R16/19//95=
201905210430 METAR LRBC 210430Z 16009KT 3000 0500S R34/0375N BR PRFG BKN001
                        15/15 Q1008 R16/19//95=
201905210500 METAR LRBC 210500Z 16009KT 3000 BR BKN001 16/16 Q1008 R16/19//95=
201905210530 METAR LRBC 210530Z 14008KT 8000 FEW003 17/17 Q1008 R16/CLRD//=
201905210600 METAR LRBC 210600Z 15009KT CAVOK 18/18 Q1008=
201905210630 METAR LRBC 210630Z 17010KT CAVOK 20/20 Q1008=
201905210700 METAR COR LRBC 210700Z 15010KT CAVOK 20/16 Q1008=
201905210730 METAR LRBC 210730Z 19011KT 9999 FEW039 21/13 Q1008=
201905210800 METAR LRBC 210800Z 19014KT 9999 FEW043 22/13 Q1009=
201905210830 METAR LRBC 210830Z 22012KT 9999 FEW042 22/13 Q1009=
201905210900 METAR LRBC 210900Z 20009KT 9999 FEW048 23/14 Q1009=
201905210930 METAR LRBC 210930Z 22009KT 9999 FEW050CB 22/11 Q1008=
201905211000 METAR LRBC 211000Z 20005KT 9999 SCT040CB 21/12 Q1009=
201905211030 METAR COR LRBC 211030Z 15007KT 9999 SCT050CB 20/12 Q1009=
201905211100 METAR LRBC 211100Z 12009KT 9999 SCT050CB 21/12 Q1008=
201905211130 METAR LRBC 211130Z 21011KT 1500 +TSRAGR BKN040CB BKN050 20/12
                        Q1009=
201905211200 METAR LRBC 211200Z 29002KT 9999 SCT032CB 18/13 Q1009 RETS
                        R16/250495=
201905211230 METAR LRBC 211230Z 29002KT 9999 SCT032CB 18/13 Q1009 R16/220295=
201905211300 METAR LRBC 211300Z 19008KT 9999 FEW040CB 20/14 Q1010 R16/220295=
201905211330 METAR LRBC 211330Z 18006KT 9999 FEW055CB 20/13 Q1010 R16/220295=
201905211400 METAR LRBC 211400Z 21006KT 9999 FEW055CB 20/13 Q1010 R16/220295=
201905211430 METAR LRBC 211430Z 20005KT 9999 SCT050 21/12 Q1009 R16/220295=
201905211500 METAR LRBC 211500Z 20004KT 9999 SCT050 21/13 Q1009 R16/220295=
201905211530 METAR LRBC 211530Z 20005KT 9999 SCT050 22/11 Q1009 R16/220295=
201905211600 METAR LRBC 211600Z 20008KT 9999 FEW050 21/12 Q1009 R16/220295=
201905211630 METAR LRBC 211630Z 21007KT 9999 FEW050 20/11 Q1009 R16/220295=
201905211700 METAR LRBC 211700Z 23008KT CAVOK 19/12 Q1009 R16/CLRD//=
201905211730 METAR LRBC 211730Z 22006KT CAVOK 17/11 Q1010=
201905211800 METAR LRBC 211800Z 24009KT CAVOK 17/11 Q1010=
201905211830 METAR LRBC 211830Z 21005KT CAVOK 16/10 Q1010=
201905211900 METAR LRBC 211900Z 23006KT CAVOK 16/10 Q1010=
201905211930 METAR LRBC 211930Z 16004KT 060V190 CAVOK 15/10 Q1010=
201905212000 METAR LRBC 212000Z 25008KT CAVOK 16/10 Q1010=
201905212030 METAR LRBC 212030Z 11005KT 030V140 CAVOK 14/10 Q1011=
201905212100 METAR LRBC 212100Z 13005KT CAVOK 15/10 Q1011=
201905212130 METAR LRBC 212130Z 14004KT 110V190 CAVOK 16/10 Q1011=
201905212200 METAR LRBC 212200Z AUTO 23006KT 180V270 9999 SCT120/// 16/08
                        Q1011=
201905212230 METAR LRBC 212230Z AUTO 32005KT 270V360 9999 FEW120/// 15/09
                        Q1011=
201905212300 METAR LRBC 212300Z 30005KT 250V330 CAVOK 15/09 Q1011=
201905212330 METAR LRBC 212330Z VRB06KT CAVOK 16/08 Q1011=
201905220000 METAR LRBC 220000Z 15004KT 110V190 CAVOK 13/09 Q1011=
201905220030 METAR LRBC 220030Z VRB02KT CAVOK 12/09 Q1010=
201905220100 METAR LRBC 220100Z VRB03KT CAVOK 13/10 Q1010=
201905220130 METAR LRBC 220130Z 16003KT 120V240 CAVOK 12/10 Q1010=
201905220200 METAR COR LRBC 220200Z VRB01KT CAVOK 12/10 Q1010=
201905220230 METAR LRBC 220230Z 00000KT CAVOK 11/10 Q1010=
201905220300 METAR LRBC 220300Z 13002KT CAVOK 11/10 Q1010=
201905220330 METAR LRBC 220330Z VRB01KT CAVOK 12/10 Q1011=
201905220400 METAR LRBC 220400Z 00000KT CAVOK 14/11 Q1011=
201905220430 METAR LRBC 220430Z VRB02KT CAVOK 14/12 Q1011=
201905220500 METAR LRBC 220500Z VRB02KT CAVOK 15/12 Q1011=
201905220530 METAR LRBC 220530Z 13004KT 090V160 CAVOK 16/12 Q1011=
201905220600 METAR LRBC 220600Z 15004KT 120V200 CAVOK 17/13 Q1011=
201905220630 METAR LRBC 220630Z 15005KT 120V180 CAVOK 19/11 Q1010=
201905220700 METAR LRBC 220700Z 13006KT 100V170 CAVOK 20/14 Q1010=
201905220730 METAR LRBC 220730Z 17007KT 9999 FEW045 21/13 Q1010=
201905220800 METAR LRBC 220800Z 15005KT 100V220 9999 FEW035 22/13 Q1010=
201905220830 METAR LRBC 220830Z 20007KT 160V240 9999 FEW045 23/13 Q1010=
201905220900 METAR LRBC 220900Z 23004KT 160V300 9999 FEW055 22/11 Q1010=
201905220930 METAR LRBC 220930Z 20008KT 080V250 9999 BKN055 22/11 Q1010=
201905221000 METAR LRBC 221000Z 27006KT 220V310 9999 BKN060 24/11 Q1010=
201905221030 METAR LRBC 221030Z 26007KT 9999 BKN065 23/10 Q1010=
201905221100 METAR LRBC 221100Z 25011KT 9999 BKN065 23/11 Q1010=
201905221130 METAR LRBC 221130Z 27014KT 9999 BKN065 23/10 Q1010=
201905221200 METAR COR LRBC 221200Z 25011KT 220V280 9999 BKN065 24/10
                        Q1010=
201905221230 METAR LRBC 221230Z 25009KT 220V280 9999 SCT065 23/10 Q1009=
201905221300 METAR LRBC 221300Z 20006KT 170V230 9999 SCT065 24/11 Q1009=
201905221330 METAR LRBC 221330Z 26010KT 9999 SCT050 25/10 Q1009=
201905221400 METAR LRBC 221400Z AUTO 24009KT 210V270 9999 NCD 24/10 Q1009=
201905221430 METAR COR LRBC 221430Z 26012KT 9999 SCT050 24/11 Q1009=
201905221500 METAR LRBC 221500Z 25012KT 9999 SCT050 24/11 Q1009=
201905221530 METAR LRBC 221530Z 24010KT 9999 FEW050 24/10 Q1008=
201905221600 METAR LRBC 221600Z 25006KT 9999 FEW050 24/11 Q1009=
201905221630 METAR LRBC 221630Z 25006KT 9999 FEW050 23/11 Q1009=
201905221700 METAR LRBC 221700Z 25006KT 9999 FEW055 21/11 Q1009=
201905221730 METAR LRBC 221730Z 23003KT 9999 FEW060 19/11 Q1009=
201905221800 METAR LRBC 221800Z 00000KT 9999 FEW060 20/11 Q1009=
201905221830 METAR LRBC 221830Z 24004KT 9999 FEW060 19/10 Q1009=
201905221900 METAR LRBC 221900Z 12003KT CAVOK 18/10 Q1009=
201905221930 METAR LRBC 221930Z VRB01KT CAVOK 17/10 Q1009=
201905222000 METAR LRBC 222000Z 27008KT CAVOK 18/10 Q1009=
201905222030 METAR LRBC 222030Z 28009KT CAVOK 18/10 Q1009=
201905222100 METAR LRBC 222100Z VRB02KT CAVOK 17/10 Q1009=
201905222130 METAR LRBC 222130Z 10004KT CAVOK 16/11 Q1009=
201905222200 METAR LRBC 222200Z 07002KT CAVOK 18/10 Q1009=
201905222230 METAR LRBC 222230Z VRB03KT CAVOK 18/10 Q1009=
201905222300 METAR LRBC 222300Z VRB03KT CAVOK 17/10 Q1009=
201905222330 METAR LRBC 222330Z VRB04KT CAVOK 18/10 Q1009=
201905230000 METAR LRBC 230000Z AUTO 13004KT 080V220 9999 NCD 18/10 Q1009=
201905230030 METAR LRBC 230030Z AUTO 05003KT 340V100 9999 FEW090/// 18/10
                        Q1009=
201905230100 METAR LRBC 230100Z 16003KT CAVOK 17/10 Q1009=
201905230130 METAR LRBC 230130Z VRB03KT CAVOK 17/11 Q1009=
201905230200 METAR LRBC 230200Z AUTO 26003KT 180V330 9999 FEW120/// 16/10
                        Q1009=
201905230230 METAR LRBC 230230Z 22002KT CAVOK 15/11 Q1009=
201905230300 METAR LRBC 230300Z VRB03KT CAVOK 14/10 Q1009=
201905230330 METAR LRBC 230330Z VRB01KT CAVOK 15/11 Q1009=
201905230400 METAR LRBC 230400Z 17004KT CAVOK 18/12 Q1009=
201905230430 METAR LRBC 230430Z 16003KT CAVOK 19/13 Q1009=
201905230500 METAR LRBC 230500Z 25005KT 210V310 CAVOK 20/12 Q1009=
201905230530 METAR LRBC 230530Z 25012KT CAVOK 21/12 Q1009=
201905230600 METAR LRBC 230600Z 25014KT CAVOK 21/12 Q1009=
201905230630 METAR LRBC 230630Z 26014KT CAVOK 22/13 Q1009=
201905230700 METAR LRBC 230700Z 26013KT CAVOK 22/12 Q1009=
201905230730 METAR LRBC 230730Z 27010KT 9999 FEW040 22/13 Q1009=
201905230800 METAR LRBC 230800Z 25008KT 210V280 9999 FEW045 22/13 Q1010=
201905230830 METAR LRBC 230830Z 25007KT 9999 FEW045 22/12 Q1010=
201905230900 METAR LRBC 230900Z 24006KT 190V300 9999 SCT046 23/14 Q1010=
201905230930 METAR LRBC 230930Z 28006KT 220V310 9999 FEW050TCU 22/13 Q1010=
201905231000 METAR LRBC 231000Z 26008KT 9999 BKN050 22/12 Q1010=
201905231030 METAR LRBC 231030Z 24010KT 9999 SCT050 SCT065 22/13 Q1010=
201905231100 METAR LRBC 231100Z 25009KT 230V290 9999 FEW050 SCT065 23/13
                        Q1010=
201905231130 METAR LRBC 231130Z 24003KT 190V350 9999 SCT055 23/13 Q1009=
201905231200 METAR LRBC 231200Z VRB03KT 9999 SCT060 25/12 Q1009=
201905231230 METAR LRBC 231230Z VRB02KT 9999 FEW060 24/10 Q1009=
201905231300 METAR LRBC 231300Z VRB01KT 9999 SCT060 25/12 Q1009=
201905231330 METAR LRBC 231330Z VRB03KT 9999 FEW055 24/12 Q1008=
201905231400 METAR LRBC 231400Z VRB02KT 9999 FEW060 24/12 Q1008=
201905231430 METAR LRBC 231430Z 00000KT 9999 FEW060 26/11 Q1008=
201905231500 METAR LRBC 231500Z 00000KT 9999 FEW060 25/12 Q1008=
201905231530 METAR LRBC 231530Z 24005KT 200V270 9999 FEW060 25/12 Q1008=
201905231600 METAR LRBC 231600Z 24004KT 210V280 9999 FEW065 24/12 Q1008=
201905231630 METAR LRBC 231630Z 29005KT 9999 FEW065 23/14 Q1008=
201905231700 METAR LRBC 231700Z 33009KT 9999 FEW065 21/14 Q1008=
201905231730 METAR LRBC 231730Z 32007KT 9999 SCT060 20/14 Q1009=
201905231800 METAR LRBC 231800Z 34006KT 9999 BKN060 19/14 Q1009=
201905231830 METAR LRBC 231830Z 35004KT 310V020 9999 SCT060 19/14 Q1009=
201905231900 METAR LRBC 231900Z 36005KT 9999 BKN065 19/13 Q1010=
201905231930 METAR LRBC 231930Z 36004KT CAVOK 19/13 Q1010=
201905232000 METAR LRBC 232000Z 36004KT 320V030 9999 FEW055 19/14 Q1010=
201905232030 METAR LRBC 232030Z 35001KT 9999 FEW050 18/14 Q1010=
201905232100 METAR LRBC 232100Z 06002KT 030V100 9999 FEW055 18/14 Q1010=
201905232130 METAR LRBC 232130Z AUTO 00000KT 9999 SCT095/// BKN110///
                        18/15 Q1010=
201905232200 METAR LRBC 232200Z VRB01KT CAVOK 18/15 Q1010=
201905232230 METAR COR LRBC 232230Z 00000KT CAVOK 26/10 Q1008=
201905232300 METAR LRBC 232300Z 32006KT CAVOK 16/14 Q1010=
201905232330 METAR LRBC 232330Z 33005KT CAVOK 16/14 Q1010=
201905240000 METAR LRBC 240000Z 34006KT CAVOK 16/14 Q1010=
201905240030 METAR LRBC 240030Z 33005KT CAVOK 15/13 Q1010=
201905240100 METAR LRBC 240100Z 34006KT 9999 BKN065 15/14 Q1010=
201905240130 METAR LRBC 240130Z 35005KT 9999 SCT060 16/14 Q1009=
201905240200 METAR LRBC 240200Z 35005KT 9999 SCT060 16/14 Q1009=
201905240230 METAR LRBC 240230Z 14005KT 110V170 9999 BKN055 16/14 Q1010=
201905240300 METAR LRBC 240300Z 14004KT 9999 -RA FEW041 SCT050 16/15 Q1010=
201905240330 METAR LRBC 240330Z 02003KT 9999 -RA BKN050 16/15 Q1010=
201905240400 METAR LRBC 240400Z 32005KT 9999 SHRA FEW029 SCT039CB BKN050
                        16/15 Q1010 R16/19//95=
201905240430 METAR LRBC 240430Z 26002KT 9999 -SHRA FEW035CB BKN065 16/16
                        Q1010 RESHRA R16/210295=
201905240500 METAR LRBC 240500Z 36003KT 9999 FEW035CB 16/15 Q1010 R16/210295=
201905240530 METAR LRBC 240530Z 36004KT 330V030 9999 -SHRA FEW035CB 16/15
                        Q1010 R16/210295=
201905240600 METAR LRBC 240600Z 33005KT 9999 -RA FEW020 FEW040CB 17/15
                        Q1010 R16/210295=
201905240630 METAR LRBC 240630Z 34005KT 310V030 9999 FEW040CB 18/16 Q1010
                        R16/210295=
201905240700 METAR LRBC 240700Z 34008KT 9999 FEW020 SCT050 18/15 Q1010
                        R16/210295=
201905240730 METAR LRBC 240730Z 35007KT 320V020 9999 FEW020 SCT055 19/16
                        Q1010 R16/210295=
201905240800 METAR LRBC 240800Z 34007KT 9999 SCT050 BKN065 19/16 Q1010
                        R16/210295=
201905240830 METAR LRBC 240830Z 32006KT 290V350 9999 FEW020 SCT050 BKN065
                        20/16 Q1010 R16/210295=
201905240900 METAR LRBC 240900Z 31007KT 9999 FEW019 SCT035CB 20/17 Q1010
                        R16/210295=
201905240930 METAR LRBC 240930Z 36005KT 9999 -SHRA SCT022 BKN035CB 19/16
                        Q1010 R16/250395=
201905241000 METAR LRBC 241000Z 31006KT 9999 -SHRA SCT025 BKN040CB 19/17
                        Q1010 R16/250395=
201905241030 METAR LRBC 241030Z 31010KT 280V340 9999 FEW028 SCT045CB 21/18
                        Q1009 R16/250395=
201905241100 METAR LRBC 241100Z 32008KT 290V350 9999 FEW030 FEW040CB 22/17
                        Q1009 R16/250395=
201905241130 METAR LRBC 241130Z 32009KT 9999 SCT030 FEW040CB 22/17 Q1008
                        R16/15//95=
201905241200 METAR LRBC 241200Z 33005KT 280V020 9999 BKN031 23/16 Q1008
                        R16/15//95=
201905241230 METAR LRBC 241230Z 34009KT 9999 SCT031 FEW040CB 22/16 Q1008
                        R16/15//95=
201905241300 METAR LRBC 241300Z 36006KT 320V030 9999 SCT037 FEW050CB 22/15
                        Q1008 R16/CLRD//=
201905241330 METAR LRBC 241330Z 34006KT 310V010 9999 TS VCSH BKN050CB
                        22/15 Q1007=
201905241400 METAR LRBC 241400Z 05004KT 020V100 9000 -TSRA FEW021 BKN042CB
                        20/17 Q1007=
201905241430 METAR LRBC 241430Z 04003KT 9999 TS VCSH FEW020 BKN040CB 21/17
                        Q1007 R16/220295=
201905241500 METAR LRBC 241500Z 05005KT 020V080 9999 FEW030 SCT050CB 21/17
                        Q1007 RETS R16/220295=
201905241530 METAR LRBC 241530Z 06003KT 020V100 9999 TS VCSH BKN050CB
                        21/16 Q1007 R16/220295=
201905241600 METAR LRBC 241600Z 23006KT 120V260 9999 TSRA SCT030 BKN045CB
                        19/14 Q1008 R16/220295=
201905241630 METAR LRBC 241630Z 21015KT 7000 +TSRA SCT026 BKN041CB 14/14
                        Q1009 REGR R16/220295=
201905241700 METAR LRBC 241700Z 23006KT 200V270 9999 -TSRA FEW043 BKN050CB
                        14/14 Q1008 R16/250395=
201905241730 METAR LRBC 241730Z VRB02KT 9999 -SHRA FEW038 BKN050CB 15/14
                        Q1008 RETS R16/250395=
201905241800 METAR LRBC 241800Z 21005KT 9999 -SHRA FEW038 SCT050CB 15/14
                        Q1008 R16/250395=
201905241830 METAR LRBC 241830Z 28005KT 220V340 9999 FEW065 15/14 Q1008
                        R16/220295=
201905241900 METAR LRBC 241900Z 06004KT 340V090 9999 -RA SCT065 15/14
                        Q1008 R16/220295=
201905241930 METAR LRBC 241930Z 06005KT 9999 SCT065 15/14 Q1008 R16/220295=
201905242000 METAR LRBC 242000Z 36006KT 9999 SCT065 15/14 Q1008 R16/220295=
201905242030 METAR LRBC 242030Z 35008KT 9999 -RA BKN065 15/15 Q1008 R16/210295=
201905242100 METAR LRBC 242100Z 34004KT 9999 -RA BKN065 15/15 Q1008 R16/210295=
201905242130 METAR LRBC 242130Z 02003KT 340V050 9999 BKN065 15/15 Q1008
                        R16/210295=
201905242200 METAR LRBC 242200Z 32004KT 9999 BKN065 15/15 Q1009 R16/210295=
201905242230 METAR LRBC 242230Z 32004KT 9999 OVC065 15/15 Q1009 R16/210295=
201905242300 METAR LRBC 242300Z 32006KT 9999 OVC065 15/15 Q1009 R16/210295=
201905242330 METAR LRBC 242330Z 34004KT 9999 BKN065 15/14 Q1009 R16/210295=
201905250000 METAR LRBC 250000Z 32005KT 9999 OVC065 15/14 Q1009 R16/210295=
201905250030 METAR LRBC 250030Z 33003KT 9999 BKN065 15/14 Q1009 R16/210295=
201905250100 METAR LRBC 250100Z 35004KT 9999 OVC065 15/14 Q1009 R16/210295=
201905250130 METAR LRBC 250130Z 02003KT 9999 BKN095 15/14 Q1009 R16/210295=
201905250200 METAR COR LRBC 250200Z 02003KT 340V050 9999 OVC065 15/14
                        Q1009 R16/210295=
201905250230 METAR LRBC 250230Z 35005KT 9999 BKN065 14/14 Q1009 R16/210295=
201905250300 METAR LRBC 250300Z 35005KT 9999 SCT065 14/14 Q1009 R16/15//95=
201905250330 METAR LRBC 250330Z 35004KT 9999 FEW037 14/14 Q1009 R16/15//95=
201905250400 METAR LRBC 250400Z 33004KT 9999 FEW037 14/14 Q1009 R16/15//95=
201905250430 METAR LRBC 250430Z 01003KT 9999 FEW037 15/15 Q1009 R16/15//95=
201905250500 METAR LRBC 250500Z 33004KT CAVOK 16/15 Q1009 R16/15//95=
201905250530 METAR LRBC 250530Z 33005KT 9999 FEW023 17/15 Q1010 R16/CLRD//=
201905250600 METAR LRBC 250600Z 32006KT 9999 SCT022 17/15 Q1010=
201905250630 METAR LRBC 250630Z 33007KT 9999 BKN023 18/15 Q1010=
201905250700 METAR LRBC 250700Z 33008KT 9999 BKN025 19/16 Q1010=
201905250730 METAR LRBC 250730Z 31007KT 9999 SCT025 19/15 Q1010=
201905250800 METAR LRBC 250800Z 32008KT 9999 SCT021 20/16 Q1010=
201905250830 METAR LRBC 250830Z 32008KT 9999 SCT025 20/15 Q1010=
201905250900 METAR LRBC 250900Z 34010KT 9999 BKN024 21/16 Q1010=
201905250930 METAR LRBC 250930Z 33009KT 9999 BKN030 21/16 Q1010=
201905251000 METAR LRBC 251000Z 33007KT 9999 BKN028 22/17 Q1010=
201905251030 METAR LRBC 251030Z 32011KT 9999 FEW028CB SCT030 22/14 Q1010=
201905251100 METAR LRBC 251100Z 31009KT 9999 FEW028CB SCT030 23/14 Q1009=
201905251130 METAR LRBC 251130Z 30010KT 9999 FEW025 SCT035 23/14 Q1009=
201905251200 METAR LRBC 251200Z 27009KT 9999 FEW025CB SCT030 24/15 Q1009=
201905251230 METAR LRBC 251230Z 27011KT 9999 TS FEW025CB SCT030 24/16
                        Q1009=
201905251300 METAR LRBC 251300Z 32011KT 9999 VCTS FEW030CB SCT035 23/14
                        Q1009 RETS=
201905251330 METAR LRBC 251330Z 31012KT 9999 VCTS FEW030CB SCT035 24/15
                        Q1009=
201905251400 METAR LRBC 251400Z 31013KT 9999 FEW030CB SCT035 24/14 Q1010=
201905251430 METAR LRBC 251430Z 30012KT 9999 FEW030CB SCT040 22/14 Q1010=
201905251500 METAR LRBC 251500Z 31009KT 9999 FEW030CB SCT040 23/14 Q1009=
201905251530 METAR LRBC 251530Z 29009KT 9999 FEW030CB SCT040 23/14 Q1010=
201905251600 METAR LRBC 251600Z 28008KT 9999 FEW035CB 23/14 Q1010=
201905251630 METAR LRBC 251630Z 34009KT 9999 FEW038CB 22/15 Q1010=
201905251700 METAR LRBC 251700Z 33005KT 9999 FEW038CB 21/16 Q1011=
201905251730 METAR LRBC 251730Z 28003KT 9999 FEW043CB 20/15 Q1011=
201905251800 METAR LRBC 251800Z 29007KT CAVOK 18/15 Q1011=
201905251830 METAR LRBC 251830Z 33005KT CAVOK 18/15 Q1012=
201905251900 METAR LRBC 251900Z 34003KT 300V360 CAVOK 18/15 Q1012=
201905251930 METAR LRBC 251930Z 02004KT 350V050 9999 SCT045 BKN060 19/15
                        Q1012=
201905252000 METAR LRBC 252000Z 33006KT 9999 FEW040 18/15 Q1012=
201905252030 METAR LRBC 252030Z 33004KT CAVOK 17/15 Q1013=
201905252100 METAR LRBC 252100Z 34004KT CAVOK 17/14 Q1013=
201905252130 METAR COR LRBC 252130Z 33005KT CAVOK 16/14 Q1013=
201905252200 METAR LRBC 252200Z AUTO 35003KT 330V030 9999 FEW085/// 16/14
                        Q1013=
201905252230 METAR LRBC 252230Z AUTO 36004KT 320V020 9999 NCD 16/14 Q1013=
201905252300 METAR LRBC 252300Z AUTO 36003KT 9999 FEW110/// 16/14 Q1013=
201905252330 METAR LRBC 252330Z 03005KT CAVOK 16/14 Q1013=
201905260000 METAR LRBC 260000Z 36003KT 330V030 CAVOK 15/13 Q1013=
201905260030 METAR LRBC 260030Z 04002KT CAVOK 14/13 Q1013=
201905260100 METAR COR LRBC 260100Z 21001KT CAVOK 14/13 Q1013=
201905260130 METAR LRBC 260130Z 03003KT CAVOK 14/13 Q1013=
201905260200 METAR LRBC 260200Z 00000KT CAVOK 14/14 Q1014=
201905260230 METAR LRBC 260230Z VRB01KT CAVOK 14/14 Q1014=
201905260300 METAR LRBC 260300Z 25004KT 230V350 CAVOK 13/13 Q1014=
201905260330 METAR LRBC 260330Z 00000KT CAVOK 14/14 Q1015=
201905260400 METAR LRBC 260400Z 28003KT CAVOK 14/14 Q1015=
201905260430 METAR LRBC 260430Z 29003KT CAVOK 15/15 Q1015=
201905260500 METAR COR LRBC 260500Z 15001KT CAVOK 16/15 Q1015=
201905260530 METAR LRBC 260530Z VRB02KT CAVOK 17/16 Q1015=
201905260600 METAR LRBC 260600Z VRB01KT CAVOK 19/16 Q1015=
201905260630 METAR LRBC 260630Z 00000KT 9999 FEW023 20/16 Q1015=
201905260700 METAR LRBC 260700Z VRB02KT 9999 FEW023 22/15 Q1015=
201905260730 METAR LRBC 260730Z VRB03KT 9999 SCT035 22/16 Q1015=
201905260800 METAR LRBC 260800Z 31007KT 9999 SCT037 23/14 Q1015=
201905260830 METAR LRBC 260830Z 32006KT 290V350 9999 SCT037 23/14 Q1015=
201905260900 METAR LRBC 260900Z VRB02KT 9999 SCT047 24/13 Q1015=
201905260930 METAR LRBC 260930Z 31007KT 270V010 9999 BKN047 24/14 Q1015=
201905261000 METAR LRBC 261000Z VRB03KT 9999 BKN050 25/12 Q1015=
201905261030 METAR LRBC 261030Z 33004KT 300V020 9999 BKN055 24/12 Q1015=
201905261100 METAR LRBC 261100Z VRB02KT 9999 BKN055 25/13 Q1015=
201905261130 METAR LRBC 261130Z 00000KT 9999 BKN050 25/13 Q1015=
201905261200 METAR LRBC 261200Z VRB02KT 9999 BKN050 26/13 Q1015=
201905261230 METAR LRBC 261230Z VRB02KT 9999 BKN050 26/14 Q1015=
201905261300 METAR LRBC 261300Z 14004KT 100V170 9999 BKN060 24/15 Q1015=
201905261330 METAR LRBC 261330Z 07005KT 360V120 9999 BKN050 25/13 Q1015=
201905261400 METAR LRBC 261400Z VRB01KT 9999 BKN060 25/15 Q1015=
201905261430 METAR LRBC 261430Z 00000KT 9999 BKN050 25/14 Q1015=
201905261500 METAR LRBC 261500Z VRB02KT 9999 VCTS VCSH FEW050CB SCT060
                        24/14 Q1014=
201905261530 METAR LRBC 261530Z 00000KT 9999 TS VCSH FEW050CB SCT060 24/13
                        Q1015=
201905261600 METAR LRBC 261600Z 19005KT 9999 VCSH SCT030CB SCT065 BKN095
                        22/17 Q1015=
201905261630 METAR COR LRBC 261630Z 20008KT 9999 FEW030CB 21/17 Q1015=
201905261700 METAR LRBC 261700Z 22003KT CAVOK 22/17 Q1015=
201905261730 METAR LRBC 261730Z 23005KT CAVOK 21/16 Q1015=
201905261800 METAR LRBC 261800Z 00000KT CAVOK 20/16 Q1015=
201905261830 METAR LRBC 261830Z 00000KT CAVOK 19/17 Q1015=
201905261900 METAR LRBC 261900Z 00000KT CAVOK 18/17 Q1015=
201905261930 METAR LRBC 261930Z 00000KT CAVOK 18/17 Q1015=
201905262000 METAR LRBC 262000Z 00000KT CAVOK 17/17 Q1015=
201905262030 METAR LRBC 262030Z 00000KT CAVOK 17/17 Q1016=
201905262100 METAR LRBC 262100Z 00000KT CAVOK 17/17 Q1016=
201905262130 METAR LRBC 262130Z 00000KT CAVOK 16/15 Q1016=
201905262200 METAR LRBC 262200Z 00000KT CAVOK 16/15 Q1016=
201905262230 METAR LRBC 262230Z 00000KT CAVOK 15/15 Q1016=
201905262300 METAR LRBC 262300Z AUTO 00000KT 9999 NCD 15/15 Q1016=
201905262330 METAR LRBC 262330Z 33001KT CAVOK 15/15 Q1016=
201905270000 METAR LRBC 270000Z 00000KT CAVOK 15/15 Q1016=
201905270030 METAR LRBC 270030Z 00000KT CAVOK 15/15 Q1016=
201905270100 METAR LRBC 270100Z 00000KT CAVOK 15/15 Q1016=
201905270130 METAR LRBC 270130Z 00000KT CAVOK 14/14 Q1016=
201905270200 METAR LRBC 270200Z 00000KT CAVOK 13/13 Q1016=
201905270230 METAR LRBC 270230Z 00000KT CAVOK 13/13 Q1016=
201905270300 METAR LRBC 270300Z 00000KT CAVOK 13/13 Q1016=
201905270330 METAR LRBC 270330Z 00000KT CAVOK 14/14 Q1016=
201905270400 METAR LRBC 270400Z 00000KT CAVOK 18/16 Q1016=
201905270430 METAR LRBC 270430Z 00000KT CAVOK 18/16 Q1016=
201905270500 METAR LRBC 270500Z 00000KT CAVOK 19/16 Q1016=
201905270530 METAR LRBC 270530Z 00000KT 8000 NSC 20/17 Q1016=
201905270600 METAR LRBC 270600Z 00000KT CAVOK 20/16 Q1016=
201905270630 METAR LRBC 270630Z 17004KT 130V210 CAVOK 21/17 Q1016=
201905270700 METAR LRBC 270700Z 19003KT 140V240 CAVOK 21/17 Q1016=
201905270730 METAR LRBC 270730Z 16006KT CAVOK 23/17 Q1016=
201905270800 METAR LRBC 270800Z 15007KT 120V190 CAVOK 24/18 Q1016=
201905270830 METAR LRBC 270830Z 14008KT CAVOK 24/17 Q1016=
201905270900 METAR LRBC 270900Z 15009KT 9999 FEW055 25/18 Q1016=
201905270930 METAR LRBC 270930Z 16012KT 9999 FEW055 26/18 Q1016=
201905271000 METAR LRBC 271000Z 15014KT 9999 FEW055 26/17 Q1015=
201905271030 METAR LRBC 271030Z 15016KT 9999 FEW055 26/16 Q1015=
201905271100 METAR LRBC 271100Z 15017KT 9999 FEW055 27/16 Q1015=
201905271130 METAR LRBC 271130Z 14017KT 9999 FEW055 27/16 Q1015=
201905271200 METAR LRBC 271200Z 14015KT 9999 FEW055 27/15 Q1015=
201905271230 METAR LRBC 271230Z 14017KT 9999 FEW055 27/15 Q1014=
201905271300 METAR LRBC 271300Z 15017KT 9999 FEW065 27/15 Q1014=
201905271330 METAR LRBC 271330Z 15017KT CAVOK 27/15 Q1014=
201905271400 METAR LRBC 271400Z 15017KT CAVOK 27/16 Q1014=
201905271430 METAR LRBC 271430Z 15016KT CAVOK 27/16 Q1014=
201905271500 METAR LRBC 271500Z 15015KT CAVOK 27/16 Q1013=
201905271530 METAR LRBC 271530Z 15014KT CAVOK 26/16 Q1013=
201905271600 METAR LRBC 271600Z 15015KT CAVOK 26/16 Q1013=
201905271630 METAR LRBC 271630Z 15011KT CAVOK 25/17 Q1013=
201905271700 METAR LRBC 271700Z 16011KT CAVOK 25/17 Q1014=
201905271730 METAR LRBC 271730Z 15010KT CAVOK 24/16 Q1014=
201905271800 METAR LRBC 271800Z 15011KT CAVOK 23/16 Q1014=
201905271830 METAR LRBC 271830Z 16011KT CAVOK 23/17 Q1014=
201905271900 METAR LRBC 271900Z 16013KT CAVOK 22/16 Q1014=
201905271930 METAR LRBC 271930Z 15013KT CAVOK 22/15 Q1014=
201905272000 METAR LRBC 272000Z 16014KT CAVOK 22/15 Q1014=
201905272030 METAR LRBC 272030Z 16013KT CAVOK 21/15 Q1014=
201905272100 METAR LRBC 272100Z 16013KT CAVOK 20/15 Q1014=
201905272130 METAR LRBC 272130Z 16012KT CAVOK 20/15 Q1014=
201905272200 METAR LRBC 272200Z AUTO 16011KT 9999 NCD 19/15 Q1014=
201905272230 METAR LRBC 272230Z AUTO 17011KT 9999 FEW240/// 18/15 Q1014=
201905272300 METAR LRBC 272300Z 16012KT CAVOK 18/15 Q1014=
201905272330 METAR LRBC 272330Z 17010KT CAVOK 18/14 Q1014=
201905280000 METAR LRBC 280000Z 16011KT CAVOK 17/14 Q1014=
201905280030 METAR LRBC 280030Z 16011KT CAVOK 17/15 Q1014=
201905280100 METAR LRBC 280100Z 17012KT CAVOK 17/15 Q1013=
201905280130 METAR LRBC 280130Z 17011KT CAVOK 17/15 Q1013=
201905280200 METAR LRBC 280200Z 16012KT CAVOK 17/14 Q1013=
201905280230 METAR LRBC 280230Z 16013KT CAVOK 17/14 Q1013=
201905280300 METAR LRBC 280300Z 16013KT CAVOK 17/15 Q1013=
201905280330 METAR LRBC 280330Z 16013KT CAVOK 17/15 Q1013=
201905280400 METAR LRBC 280400Z 16013KT CAVOK 16/14 Q1013=
201905280430 METAR LRBC 280430Z 17014KT CAVOK 16/15 Q1013=
201905280500 METAR LRBC 280500Z 16017KT CAVOK 18/15 Q1013=
201905280530 METAR LRBC 280530Z 16018KT CAVOK 18/15 Q1014=
201905280600 METAR LRBC 280600Z 16016KT CAVOK 18/15 Q1014=
201905280630 METAR LRBC 280630Z 15018KT CAVOK 20/15 Q1013=
201905280700 METAR LRBC 280700Z 15019KT CAVOK 21/15 Q1013=
201905280730 METAR LRBC 280730Z 15021KT CAVOK 21/15 Q1013=
201905280800 METAR LRBC 280800Z 14019KT CAVOK 22/16 Q1013=
201905280830 METAR LRBC 280830Z 15020KT CAVOK 22/16 Q1013=
201905280900 METAR LRBC 280900Z 14018KT CAVOK 23/15 Q1013=
201905280930 METAR LRBC 280930Z 15018KT 110V170 CAVOK 24/15 Q1013=
201905281000 METAR LRBC 281000Z 15017G27KT CAVOK 24/16 Q1012=
201905281030 METAR LRBC 281030Z 15020KT CAVOK 25/15 Q1012=
201905281100 METAR LRBC 281100Z 14017KT CAVOK 25/16 Q1012=
201905281130 METAR LRBC 281130Z 15018KT CAVOK 25/17 Q1012=
201905281200 METAR LRBC 281200Z 16018KT CAVOK 26/16 Q1011=
201905281230 METAR LRBC 281230Z 15017KT CAVOK 26/17 Q1011=
201905281300 METAR LRBC 281300Z 15016KT CAVOK 26/16 Q1011=
201905281330 METAR LRBC 281330Z 15016KT CAVOK 27/16 Q1010=
201905281400 METAR LRBC 281400Z 15019KT CAVOK 27/13 Q1009=
201905281430 METAR LRBC 281430Z 15019KT CAVOK 27/13 Q1009=
201905281500 METAR LRBC 281500Z 14019KT CAVOK 26/14 Q1009=
201905281530 METAR LRBC 281530Z 14016KT CAVOK 26/14 Q1009=
201905281600 METAR LRBC 281600Z 14015KT CAVOK 25/15 Q1009=
201905281630 METAR LRBC 281630Z 14014KT 120V180 CAVOK 24/16 Q1009=
201905281700 METAR LRBC 281700Z 14012KT CAVOK 23/16 Q1009=
201905281730 METAR LRBC 281730Z 15009KT CAVOK 22/16 Q1009=
201905281800 METAR LRBC 281800Z 15012KT CAVOK 22/16 Q1009=
201905281830 METAR LRBC 281830Z 15010KT CAVOK 21/16 Q1010=
201905281900 METAR LRBC 281900Z 16008KT CAVOK 21/16 Q1010=
201905281930 METAR LRBC 281930Z 16008KT 9999 SCT050 20/17 Q1010=
201905282000 METAR LRBC 282000Z 15011KT 9999 SCT050 20/16 Q1010=
201905282030 METAR LRBC 282030Z 14011KT 9999 SCT050 19/17 Q1010=
201905282100 METAR LRBC 282100Z 16014KT 9999 FEW050 19/17 Q1009=
201905282130 METAR LRBC 282130Z 16013KT CAVOK 18/17 Q1009=
201905282200 METAR LRBC 282200Z 16012KT CAVOK 18/17 Q1009=
201905282230 METAR LRBC 282230Z 16009KT CAVOK 18/17 Q1009=
201905282300 METAR LRBC 282300Z 17006KT 9999 BKN017 18/17 Q1009=
201905282330 METAR LRBC 282330Z 17008KT 9999 SCT009 BKN011 18/17 Q1009=
201905290000 METAR LRBC 290000Z 16009KT 9999 FEW006 BKN008 BKN010 18/17
                        Q1009=
201905290030 METAR LRBC 290030Z 16009KT 9999 FEW006 BKN008 BKN010 18/17
                        Q1009=
201905290100 METAR LRBC 290100Z 18010KT 9999 SCT011 BKN014 18/17 Q1010=
201905290130 METAR LRBC 290130Z AUTO 14009KT 9999 FEW016/// BKN060///
                        18/17 Q1009=
201905290200 METAR LRBC 290200Z 16008KT 9999 SCT055 17/17 Q1009=
201905290230 METAR LRBC 290230Z 17007KT 8000 FEW055 17/16 Q1009=
201905290300 METAR LRBC 290300Z 17006KT 6000 NSC 16/16 Q1009=
201905290330 METAR LRBC 290330Z 17006KT 5000 BR FEW005 17/17 Q1009=
201905290400 METAR LRBC 290400Z 17010KT 7000 BKN004 18/17 Q1009=
201905290430 METAR LRBC 290430Z 17009KT 9000 BKN004 18/17 Q1009=
201905290500 METAR LRBC 290500Z 17007KT 9999 BKN007 18/17 Q1010=
201905290530 METAR LRBC 290530Z 18005KT 140V210 9999 BKN007 18/17 Q1010=
201905290600 METAR LRBC 290600Z 12004KT 070V170 9999 FEW007 SCT010 20/18
                        Q1010=
201905290630 METAR LRBC 290630Z VRB01KT 9999 SCT011 BKN014 20/17 Q1010=
201905290700 METAR LRBC 290700Z 00000KT 9999 SCT014 BKN017 BKN023 21/17
                        Q1010=
201905290730 METAR LRBC 290730Z 00000KT 9999 FEW015 BKN018 BKN025 22/17
                        Q1010=
201905290800 METAR LRBC 290800Z 11003KT 050V160 9999 FEW019 BKN022 23/17
                        Q1010=
201905290830 METAR LRBC 290830Z VRB01KT 9999 BKN023 23/17 Q1010=
201905290900 METAR LRBC 290900Z 07002KT 350V110 9999 SCT024 23/17 Q1011=
201905290930 METAR LRBC 290930Z VRB03KT 9999 SCT028 24/17 Q1011=
201905291000 METAR LRBC 291000Z 07005KT 350V130 9999 FEW028 24/17 Q1010=
201905291030 METAR LRBC 291030Z 07005KT 350V130 9999 SCT028 24/17 Q1010=
201905291100 METAR LRBC 291100Z 07003KT 360V160 9999 SCT028 25/17 Q1010=
201905291130 METAR LRBC 291130Z VRB03KT 9999 SCT030 26/17 Q1010=
201905291200 METAR LRBC 291200Z 36005KT 320V050 9999 SCT030 26/17 Q1010=
201905291230 METAR LRBC 291230Z 01005KT 330V050 9999 FEW025CB SCT037 25/17
                        Q1010=
201905291300 METAR LRBC 291300Z 04002KT 310V110 9999 SCT025CB SCT037 26/18
                        Q1010=
201905291330 METAR LRBC 291330Z 09003KT 060V150 9999 BKN041CB 26/17 Q1010=
201905291400 METAR LRBC 291400Z 14004KT 090V180 9999 SCT043CB SCT050 26/18
                        Q1010=
201905291430 METAR LRBC 291430Z 10002KT 070V170 9999 VCSH SCT040CB SCT050
                        26/17 Q1010=
201905291500 METAR LRBC 291500Z 00000KT 9999 VCSH SCT040CB 27/18 Q1010=
201905291530 METAR LRBC 291530Z 15004KT 9999 FEW040CB 24/18 Q1011=
201905291600 METAR LRBC 291600Z 31006KT 9999 FEW040CB SCT050 24/19 Q1011=
201905291630 METAR LRBC 291630Z 34007KT 9999 FEW045CB 24/19 Q1011=
201905291700 METAR LRBC 291700Z 33006KT 300V360 9999 FEW060 22/19 Q1011=
201905291730 METAR LRBC 291730Z 32007KT CAVOK 22/19 Q1012=
201905291800 METAR LRBC 291800Z 32009KT CAVOK 21/18 Q1012=
201905291830 METAR LRBC 291830Z 32011KT CAVOK 21/17 Q1012=
201905291900 METAR LRBC 291900Z 33006KT CAVOK 19/17 Q1013=
201905291930 METAR LRBC 291930Z 35006KT CAVOK 19/17 Q1013=
201905292000 METAR LRBC 292000Z 35006KT CAVOK 19/16 Q1013=
201905292030 METAR LRBC 292030Z 01005KT CAVOK 19/16 Q1014=
201905292100 METAR LRBC 292100Z 04005KT CAVOK 18/16 Q1014=
201905292130 METAR LRBC 292130Z 03004KT CAVOK 18/16 Q1014=
201905292200 METAR LRBC 292200Z AUTO 00000KT 9999 FEW047/// 18/16 Q1014=
201905292230 METAR COR LRBC 292230Z 33004KT CAVOK 17/16 Q1014=
201905292300 METAR LRBC 292300Z 32007KT 9999 SCT046 17/16 Q1015=
201905292330 METAR LRBC 292330Z 34004KT 9999 SCT050 17/16 Q1015=
201905300000 METAR LRBC 300000Z 03002KT CAVOK 18/16 Q1015=
201905300030 METAR LRBC 300030Z AUTO 36005KT 9999 SCT049/// 17/16 Q1015=
201905300100 METAR COR LRBC 300100Z 35005KT 9999 SCT049 17/16 Q1015=
201905300130 METAR LRBC 300130Z 36005KT 9999 FEW016 SCT050 17/16 Q1015=
201905300200 METAR LRBC 300200Z 01003KT 330V030 9999 FEW015 17/16 Q1015=
201905300230 METAR LRBC 300230Z 35006KT 9999 SCT038 17/16 Q1015=
201905300300 METAR LRBC 300300Z 36004KT 9999 SCT038 18/16 Q1015=
201905300330 METAR LRBC 300330Z VRB01KT 9999 SCT038 18/16 Q1016=
201905300400 METAR LRBC 300400Z 00000KT 9999 SCT036 BKN042 18/16 Q1016=
201905300430 METAR LRBC 300430Z 02003KT 340V070 9999 FEW018 SCT037 18/16
                        Q1016=
201905300500 METAR LRBC 300500Z 00000KT 9999 FEW018 BKN037 19/17 Q1016=
201905300530 METAR LRBC 300530Z 34004KT 9999 FEW018 BKN050 20/17 Q1016=
201905300600 METAR LRBC 300600Z 33008KT 9999 BKN015 20/17 Q1016=
201905300630 METAR LRBC 300630Z 33010KT 9999 BKN016 20/17 Q1016=
201905300700 METAR LRBC 300700Z 36007KT 330V030 9999 BKN016 21/17 Q1016=
201905300730 METAR LRBC 300730Z 34007KT 310V010 9999 OVC016 21/18 Q1017=
201905300800 METAR LRBC 300800Z 32008KT 9999 SCT016 BKN019 21/18 Q1017=
201905300830 METAR LRBC 300830Z 33007KT 290V010 9999 SCT017 BKN021 22/18
                        Q1017=
201905300900 METAR LRBC 300900Z 34006KT 300V010 9999 SCT019 BKN022 22/18
                        Q1017=
201905300930 METAR LRBC 300930Z 32007KT 280V350 9999 OVC019 23/19 Q1017=
201905301000 METAR LRBC 301000Z 33008KT 9999 SCT020 BKN024 23/19 Q1017=
201905301030 METAR LRBC 301030Z 34007KT 310V020 9999 FEW020 SCT024 23/19
                        Q1017=
201905301100 METAR LRBC 301100Z 36005KT 330V040 9999 BKN021 24/19 Q1017=
201905301130 METAR LRBC 301130Z 35004KT 300V040 9999 BKN023 24/19 Q1017=
201905301200 METAR LRBC 301200Z 01005KT 320V070 9999 SCT025 25/19 Q1016=
201905301230 METAR LRBC 301230Z 09005KT 060V130 9999 BKN030 25/19 Q1016=
201905301300 METAR LRBC 301300Z 35003KT 310V060 9999 BKN032 25/19 Q1016=
201905301330 METAR LRBC 301330Z 02005KT 320V060 9999 BKN030 26/19 Q1016=
201905301400 METAR LRBC 301400Z 34006KT 9999 FEW030CB SCT040 24/19 Q1016=
201905301430 METAR LRBC 301430Z 33007KT 9999 FEW030CB SCT040 24/19 Q1016=
201905301500 METAR LRBC 301500Z 34009KT 9999 FEW030CB SCT040 24/19 Q1016=
201905301530 METAR LRBC 301530Z 35007KT 9999 FEW030CB 24/19 Q1017=
201905301600 METAR LRBC 301600Z 01011KT 9999 FEW030CB 23/18 Q1016=
201905301630 METAR LRBC 301630Z 36010KT 9999 FEW030CB 22/18 Q1017=
201905301700 METAR LRBC 301700Z 35010KT 9999 FEW030CB 21/18 Q1017=
201905301730 METAR LRBC 301730Z 35008KT 9999 FEW030CB 21/18 Q1017=
201905301800 METAR LRBC 301800Z 35011KT 9999 BKN021 21/18 Q1018=
201905301830 METAR LRBC 301830Z 34012KT 9999 FEW020 SCT025 BKN031 21/18
                        Q1018=
201905301900 METAR LRBC 301900Z 35011KT 9999 VCTS FEW020 SCT032CB BKN044
                        21/18 Q1018=
201905301930 METAR LRBC 301930Z 35010KT 9999 -SHRA SCT017 SCT023CB OVC027
                        20/18 Q1018=
201905302000 METAR LRBC 302000Z 35011KT 9999 SHRA SCT021CB BKN065 19/18
                        Q1018 R16/210295=
201905302030 METAR LRBC 302030Z 35011KT 9999 -RA FEW017 SCT022CB BKN065
                        19/18 Q1019 RESHRA R16/210295=
201905302100 METAR LRBC 302100Z 33009KT 9999 FEW015 SCT023CB BKN040 19/18
                        Q1019 R16/210295=
201905302130 METAR LRBC 302130Z 34009KT 9999 -RA FEW028 SCT030CB BKN060
                        18/17 Q1019 R16/210295=
201905302200 METAR LRBC 302200Z 32010KT 9999 -RA VCTS FEW016 SCT030CB
                        BKN040 18/17 Q1019 R16/210295=
201905302230 METAR LRBC 302230Z 01004KT 340V050 5000 TSRA SCT023CB BKN033
                        18/17 Q1019 R16/210295=
201905302300 METAR LRBC 302300Z 02004KT 350V050 6000 +TSRA SCT011 SCT022CB
                        BKN033 17/17 Q1019 R16/210295=
201905302330 METAR LRBC 302330Z 01003KT 6000 SHRA SCT022CB BKN033 BKN047
                        17/17 Q1019 RETS R16/210295=
201905310000 METAR LRBC 310000Z 01003KT 6000 SHRA SCT022CB BKN033 BKN047
                        17/17 Q1019 R16/210295=
201905310030 METAR LRBC 310030Z 32006KT 9999 -SHRA SCT022CB BKN033 BKN047
                        17/17 Q1019 R16/210295=
201905310100 METAR LRBC 310100Z 33005KT 9999 -SHRA SCT022CB SCT065 BKN100
                        17/17 Q1019 R16/210295=
201905310130 METAR LRBC 310130Z 33005KT 9999 -SHRA SCT022CB SCT065 BKN100
                        17/17 Q1019 R16/210295=
201905310200 METAR LRBC 310200Z 33006KT 9999 -RA SCT015 BKN065 17/17 Q1019
                        R16/210295=
201905310230 METAR LRBC 310230Z 34006KT 9999 FEW017 SCT065 17/17 Q1019
                        R16/210295=
201905310300 METAR LRBC 310300Z 33006KT 9999 SCT065 17/17 Q1019 R16/210295=
201905310330 METAR LRBC 310330Z 35005KT 9999 BKN015 17/17 Q1019 R16/210295=
201905310400 METAR LRBC 310400Z 33009KT 9999 BKN014 18/17 Q1019 R16/210295=
201905310430 METAR LRBC 310430Z 32011KT 9999 BKN014 18/17 Q1019 R16/19//95=
201905310500 METAR LRBC 310500Z 33011KT 9999 BKN011 OVC014 18/17 Q1019
                        R16/19//95=
201905310530 METAR LRBC 310530Z 31010KT 9999 OVC011 18/17 Q1020 R16/19//95=
201905310600 METAR LRBC 310600Z 32010KT 9999 OVC011 18/17 Q1020 R16/15//95=
201905310630 METAR LRBC 310630Z 32012KT 9999 OVC011 19/17 Q1020 R16/15//95=
201905310700 METAR LRBC 310700Z 32013KT 9999 BKN011 OVC014 19/17 Q1019
                        R16/15//95=
201905310730 METAR LRBC 310730Z 32012KT 9999 OVC013 19/17 Q1020 R16/15//95=
201905310800 METAR LRBC 310800Z 34012KT 9999 BKN013 OVC016 19/17 Q1020
                        R16/15//95=
201905310830 METAR LRBC 310830Z 33011KT 9999 BKN013 OVC016 19/17 Q1020
                        R16/15//95=
201905310900 METAR LRBC 310900Z 33013KT 9999 SCT014 OVC017 19/17 Q1020
                        R16/15//95=
201905310930 METAR LRBC 310930Z 32012KT 9999 SCT014 BKN019 19/17 Q1020
                        R16/CLRD//=
201905311000 METAR LRBC 311000Z 32013KT 9999 SCT017 BKN024 20/17 Q1020=
201905311030 METAR LRBC 311030Z 32012KT 9999 SCT018 OVC025 20/17 Q1020=
201905311100 METAR LRBC 311100Z 33013KT 9999 SCT017 OVC023 20/17 Q1020=
201905311130 METAR LRBC 311130Z 32012KT 9999 FEW020 OVC027 20/17 Q1020=
201905311200 METAR LRBC 311200Z 35012KT 9999 FEW019 OVC032 21/17 Q1019=
201905311230 METAR LRBC 311230Z 34013KT 9999 FEW021 BKN029 21/17 Q1019=
201905311300 METAR LRBC 311300Z 35011KT 9999 FEW020 OVC032 21/17 Q1019=
201905311330 METAR LRBC 311330Z 35013KT 320V020 9999 FEW021 BKN032 21/16
                        Q1019=
201905311400 METAR LRBC 311400Z 34013KT 9999 OVC034 20/16 Q1019=
201905311430 METAR LRBC 311430Z 34011KT 9999 OVC031 20/17 Q1019=
201905311500 METAR LRBC 311500Z 33012KT 9999 FEW025 OVC031 20/16 Q1018=
201905311530 METAR LRBC 311530Z 33011KT 9999 OVC032 20/16 Q1018=
201905311600 METAR LRBC 311600Z 34012KT 9999 OVC033 20/16 Q1018=
201905311630 METAR LRBC 311630Z 34012KT 9999 OVC034 20/16 Q1018=
201905311700 METAR LRBC 311700Z 34012KT 9999 OVC035 20/16 Q1018=
201905311730 METAR LRBC 311730Z 34010KT 9999 OVC037 19/16 Q1018=
201905311800 METAR LRBC 311800Z 34012KT 9999 BKN037 19/16 Q1018=
201905311830 METAR LRBC 311830Z 34010KT 9999 OVC036 19/16 Q1019=
201905311900 METAR LRBC 311900Z 34011KT 9999 FEW033 OVC041 19/16 Q1018=
201905311930 METAR LRBC 311930Z 33009KT 9999 SCT031 OVC040 19/16 Q1018=
201905312000 METAR LRBC 312000Z 33011KT 9999 SCT031 OVC036 19/16 Q1019=
201905312030 METAR LRBC 312030Z 34009KT 9999 OVC032 19/16 Q1019=
201905312100 METAR LRBC 312100Z 34008KT 9999 OVC033 19/16 Q1019=
201905312130 METAR LRBC 312130Z 33008KT 9999 OVC033 19/16 Q1019=
201905312200 METAR LRBC 312200Z 34010KT 9999 BKN036 BKN046 19/16 Q1019=
201905312230 METAR LRBC 312230Z 34011KT 9999 SCT043 BKN050 18/16 Q1019=
201905312300 METAR LRBC 312300Z AUTO 34012KT 9999 OVC037/// 18/16 Q1018=
201905312330 METAR LRBC 312330Z AUTO 34014KT 9999 OVC040/// 18/16 Q1018=
