201907010000 METAR LRBC 010000Z 00000KT CAVOK 18/17 Q1018=
201907010030 METAR LRBC 010030Z 00000KT CAVOK 18/17 Q1018=
201907010100 METAR LRBC 010100Z 00000KT CAVOK 18/17 Q1018=
201907010130 METAR LRBC 010130Z AUTO 00000KT 9999 NCD 17/17 Q1018=
201907010200 METAR LRBC 010200Z 34002KT 310V010 CAVOK 17/16 Q1018=
201907010230 METAR LRBC 010230Z 00000KT CAVOK 17/16 Q1018=
201907010300 METAR LRBC 010300Z 00000KT CAVOK 17/17 Q1018=
201907010330 METAR LRBC 010330Z 00000KT CAVOK 18/17 Q1018=
201907010400 METAR LRBC 010400Z 00000KT CAVOK 20/18 Q1018=
201907010430 METAR LRBC 010430Z 00000KT CAVOK 21/18 Q1018=
201907010500 METAR LRBC 010500Z 00000KT CAVOK 23/18 Q1018=
201907010530 METAR LRBC 010530Z 00000KT CAVOK 23/18 Q1018=
201907010600 METAR LRBC 010600Z 00000KT CAVOK 24/18 Q1018=
201907010630 METAR LRBC 010630Z 15003KT 120V200 CAVOK 26/18 Q1018=
201907010700 METAR LRBC 010700Z 14003KT 100V200 CAVOK 26/17 Q1018=
201907010730 METAR LRBC 010730Z 12003KT 050V170 CAVOK 27/18 Q1018=
201907010800 METAR LRBC 010800Z VRB02KT CAVOK 29/19 Q1018=
201907010830 METAR LRBC 010830Z 13004KT 070V190 CAVOK 30/19 Q1017=
201907010900 METAR LRBC 010900Z 13006KT 100V170 CAVOK 31/18 Q1017=
201907010930 METAR LRBC 010930Z 13005KT 100V160 CAVOK 31/18 Q1017=
201907011000 METAR LRBC 011000Z 13005KT 070V170 CAVOK 32/18 Q1017=
201907011030 METAR LRBC 011030Z 14008KT 110V170 CAVOK 32/18 Q1016=
201907011100 METAR LRBC 011100Z 13007KT 110V170 CAVOK 33/18 Q1016=
201907011130 METAR LRBC 011130Z 17007KT 130V210 CAVOK 34/16 Q1016=
201907011200 METAR LRBC 011200Z 13008KT CAVOK 34/18 Q1016=
201907011230 METAR LRBC 011230Z 13009KT CAVOK 33/18 Q1015=
201907011300 METAR LRBC 011300Z 14009KT CAVOK 33/20 Q1015=
201907011330 METAR LRBC 011330Z 14009KT CAVOK 33/20 Q1015=
201907011400 METAR LRBC 011400Z 14009KT CAVOK 34/20 Q1015=
201907011430 METAR LRBC 011430Z 15010KT CAVOK 33/20 Q1014=
201907011500 METAR LRBC 011500Z 15010KT CAVOK 33/20 Q1014=
201907011530 METAR LRBC 011530Z 15011KT CAVOK 32/20 Q1014=
201907011600 METAR LRBC 011600Z 15011KT CAVOK 32/20 Q1014=
201907011630 METAR LRBC 011630Z 15010KT CAVOK 31/20 Q1013=
201907011700 METAR LRBC 011700Z 15009KT CAVOK 30/21 Q1013=
201907011730 METAR LRBC 011730Z 15008KT CAVOK 30/21 Q1013=
201907011800 METAR LRBC 011800Z 19006KT CAVOK 29/21 Q1013=
201907011830 METAR LRBC 011830Z 14003KT CAVOK 28/22 Q1014=
201907011900 METAR LRBC 011900Z 13004KT CAVOK 26/21 Q1014=
201907011930 METAR LRBC 011930Z 14006KT CAVOK 28/21 Q1014=
201907012000 METAR LRBC 012000Z VRB02KT CAVOK 28/20 Q1014=
201907012030 METAR LRBC 012030Z VRB01KT CAVOK 27/20 Q1014=
201907012100 METAR LRBC 012100Z VRB01KT CAVOK 26/20 Q1014=
201907012130 METAR LRBC 012130Z VRB01KT CAVOK 24/20 Q1014=
201907012200 METAR LRBC 012200Z 10004KT CAVOK 24/20 Q1014=
201907012230 METAR LRBC 012230Z 06002KT CAVOK 23/20 Q1014=
201907012300 METAR LRBC 012300Z 06004KT CAVOK 24/20 Q1014=
201907012330 METAR LRBC 012330Z 05003KT CAVOK 23/20 Q1014=
201907020000 METAR LRBC 020000Z 00000KT CAVOK 20/19 Q1014=
201907020030 METAR LRBC 020030Z AUTO 00000KT 9999 NCD 20/19 Q1014=
201907020100 METAR LRBC 020100Z AUTO 00000KT 9999 NCD 20/19 Q1014=
201907020130 METAR LRBC 020130Z 00000KT CAVOK 20/19 Q1014=
201907020200 METAR COR LRBC 020200Z 00000KT CAVOK 19/17 Q1014=
201907020230 METAR LRBC 020230Z 34005KT 310V010 CAVOK 18/17 Q1014=
201907020300 METAR COR LRBC 020300Z 32003KT CAVOK 19/17 Q1014=
201907020330 METAR LRBC 020330Z 32003KT CAVOK 19/17 Q1014=
201907020400 METAR LRBC 020400Z 00000KT CAVOK 21/18 Q1014=
201907020430 METAR LRBC 020430Z 35006KT CAVOK 21/18 Q1014=
201907020500 METAR LRBC 020500Z 28006KT CAVOK 22/18 Q1014=
201907020530 METAR LRBC 020530Z 00000KT CAVOK 24/18 Q1014=
201907020600 METAR LRBC 020600Z 00000KT CAVOK 27/17 Q1014=
201907020630 METAR LRBC 020630Z VRB02KT CAVOK 27/18 Q1014=
201907020700 METAR LRBC 020700Z VRB01KT CAVOK 28/19 Q1014=
201907020730 METAR LRBC 020730Z 14003KT 100V170 CAVOK 30/19 Q1014=
201907020800 METAR LRBC 020800Z 00000KT CAVOK 32/18 Q1013=
201907020830 METAR LRBC 020830Z 00000KT CAVOK 33/18 Q1013=
201907020900 METAR LRBC 020900Z VRB02KT CAVOK 33/18 Q1013=
201907020930 METAR LRBC 020930Z 11003KT 080V160 CAVOK 34/15 Q1013=
201907021000 METAR LRBC 021000Z 14004KT 080V170 CAVOK 34/12 Q1012=
201907021030 METAR LRBC 021030Z 14006KT 110V170 CAVOK 34/16 Q1012=
201907021100 METAR LRBC 021100Z 14009KT CAVOK 34/15 Q1012=
201907021130 METAR LRBC 021130Z 15010KT CAVOK 35/15 Q1011=
201907021200 METAR LRBC 021200Z 15011KT CAVOK 35/17 Q1011=
201907021230 METAR LRBC 021230Z 15012KT CAVOK 34/19 Q1011=
201907021300 METAR LRBC 021300Z 14011KT CAVOK 34/19 Q1011=
201907021330 METAR LRBC 021330Z 14009KT CAVOK 34/20 Q1011=
201907021400 METAR LRBC 021400Z 13007KT CAVOK 33/20 Q1011=
201907021430 METAR LRBC 021430Z 06004KT 010V110 CAVOK 34/20 Q1011=
201907021500 METAR LRBC 021500Z 03005KT 350V080 CAVOK 34/19 Q1011=
201907021530 METAR LRBC 021530Z 34014KT CAVOK 30/22 Q1012=
201907021600 METAR LRBC 021600Z 34014KT CAVOK 30/21 Q1012=
201907021630 METAR LRBC 021630Z 34011KT CAVOK 29/21 Q1012=
201907021700 METAR LRBC 021700Z 34013KT CAVOK 28/20 Q1013=
201907021730 METAR LRBC 021730Z 34014KT CAVOK 27/19 Q1013=
201907021800 METAR LRBC 021800Z 34015KT CAVOK 26/19 Q1014=
201907021830 METAR LRBC 021830Z 34011KT CAVOK 25/19 Q1014=
201907021900 METAR LRBC 021900Z 34007KT CAVOK 24/19 Q1014=
201907021930 METAR LRBC 021930Z 33006KT 300V010 CAVOK 24/19 Q1014=
201907022000 METAR LRBC 022000Z 35007KT CAVOK 24/19 Q1014=
201907022030 METAR LRBC 022030Z 36004KT CAVOK 24/19 Q1014=
201907022100 METAR LRBC 022100Z 34003KT 310V070 CAVOK 24/19 Q1014=
201907022130 METAR LRBC 022130Z 35004KT CAVOK 22/19 Q1014=
201907022200 METAR LRBC 022200Z 03003KT 360V060 CAVOK 22/19 Q1014=
201907022230 METAR LRBC 022230Z 04004KT 010V070 CAVOK 22/20 Q1014=
201907022300 METAR LRBC 022300Z 29005KT CAVOK 20/19 Q1014=
201907022330 METAR LRBC 022330Z 33004KT CAVOK 20/19 Q1014=
201907030000 METAR LRBC 030000Z AUTO 35003KT 9999 NCD 21/19 Q1014=
201907030030 METAR LRBC 030030Z 00000KT CAVOK 21/19 Q1014=
201907030100 METAR COR LRBC 030100Z 02001KT CAVOK 20/19 Q1015=
201907030130 METAR LRBC 030130Z 02003KT 340V050 CAVOK 21/19 Q1015=
201907030200 METAR LRBC 030200Z 00000KT CAVOK 19/18 Q1015=
201907030230 METAR LRBC 030230Z 00000KT CAVOK 20/19 Q1015=
201907030300 METAR LRBC 030300Z 00000KT CAVOK 19/19 Q1015=
201907030330 METAR LRBC 030330Z 00000KT CAVOK 20/19 Q1015=
201907030400 METAR LRBC 030400Z 00000KT 9999 BKN060 21/20 Q1015=
201907030430 METAR LRBC 030430Z 04004KT 9999 BKN055 22/20 Q1015=
201907030500 METAR LRBC 030500Z 00000KT 9999 FEW055 23/20 Q1015=
201907030530 METAR COR LRBC 030530Z 34006KT 310V010 CAVOK 24/20 Q1015=
201907030600 METAR LRBC 030600Z 34010KT 310V010 9999 FEW040 24/20 Q1015=
201907030630 METAR LRBC 030630Z 32013KT 9999 SCT020 SCT060 25/20 Q1016=
201907030700 METAR LRBC 030700Z 32014KT 9999 BKN019 OVC027 24/19 Q1016=
201907030730 METAR LRBC 030730Z 33014KT 9999 SCT018 BKN021 24/19 Q1016=
201907030800 METAR LRBC 030800Z 32013KT 9999 SCT019 BKN024 24/19 Q1016=
201907030830 METAR LRBC 030830Z 31011KT 280V340 9999 BKN020 24/19 Q1016=
201907030900 METAR LRBC 030900Z 31009KT 270V360 9999 SCT026 BKN030 24/18
                        Q1016=
201907030930 METAR LRBC 030930Z 28008KT 240V300 9999 TS FEW025 BKN029CB
                        BKN046 24/18 Q1017=
201907031000 METAR LRBC 031000Z 35009KT 320V020 6000 +TSRA FEW008 BKN037CB
                        BKN044 17/17 Q1018 R16/250494=
201907031030 METAR LRBC 031030Z 36008KT 5000 +SHRA VCTS BR SCT040 BKN049CB
                        BKN065 18/18 Q1017 R16/250494=
201907031100 METAR LRBC 031100Z VRB01KT 6000 SHRA VCTS FEW004 SCT006 BKN044CB
                        18/18 Q1017 RESHRA R16/250494=
201907031130 METAR LRBC 031130Z VRB01KT 8000 -SHRA SCT006 BKN050CB 18/18
                        Q1016 RESHRA R16/250494=
201907031200 METAR LRBC 031200Z 19007KT 9000 -SHRA FEW025 SCT048CB BKN065
                        19/19 Q1016 R16/250494=
201907031230 METAR LRBC 031230Z 20004KT 9999 -SHRA SCT005 SCT045 20/19
                        Q1015 R16/220395=
201907031300 METAR LRBC 031300Z 33008KT 9999 BKN010 21/19 Q1016 R16/220395=
201907031330 METAR LRBC 031330Z 35012KT 9999 SCT011 BKN019 22/19 Q1016
                        R16/220395=
201907031400 METAR LRBC 031400Z 34012KT 9999 FEW016 BKN019 22/18 Q1016
                        R16/220395=
201907031430 METAR LRBC 031430Z 33010KT 310V010 9999 BKN013 22/18 Q1016
                        R16/CLRD//=
201907031500 METAR LRBC 031500Z 32006KT 290V360 9999 SCT020 22/18 Q1016=
201907031530 METAR LRBC 031530Z 34006KT 9999 SCT048 22/18 Q1016=
201907031600 METAR LRBC 031600Z 35007KT 9999 SCT040 22/18 Q1016=
201907031630 METAR LRBC 031630Z 33008KT 9999 SCT048 23/18 Q1016=
201907031700 METAR LRBC 031700Z 35005KT 9999 FEW048 23/18 Q1016=
201907031730 METAR LRBC 031730Z 35006KT CAVOK 23/18 Q1017=
201907031800 METAR LRBC 031800Z 31004KT CAVOK 21/19 Q1016=
201907031830 METAR LRBC 031830Z 31003KT 280V350 9999 FEW040 20/18 Q1016=
201907031900 METAR LRBC 031900Z 30001KT CAVOK 20/18 Q1017=
201907031930 METAR LRBC 031930Z 31001KT CAVOK 20/18 Q1017=
201907032000 METAR LRBC 032000Z 00000KT 9999 SCT055 20/18 Q1017=
201907032030 METAR LRBC 032030Z 01003KT 340V050 9999 SCT055 20/18 Q1017=
201907032100 METAR LRBC 032100Z VRB01KT 9999 SCT060 19/18 Q1018=
201907032130 METAR LRBC 032130Z 00000KT 9999 BKN060 19/18 Q1018=
201907032200 METAR LRBC 032200Z 09001KT 9999 BKN065 19/19 Q1019=
201907032230 METAR LRBC 032230Z AUTO 00000KT 9000 SCT065/// 19/18 Q1019=
201907032300 METAR LRBC 032300Z AUTO 00000KT 7000 FEW065/// 19/18 Q1018=
201907032330 METAR LRBC 032330Z 00000KT 7000 FEW065 18/18 Q1018=
201907040000 METAR LRBC 040000Z AUTO 32002KT 9000 NCD 17/17 Q1018=
201907040030 METAR LRBC 040030Z 35004KT 8000 NSC 17/17 Q1018=
201907040100 METAR LRBC 040100Z 32002KT CAVOK 17/16 Q1018=
201907040130 METAR LRBC 040130Z 35004KT CAVOK 16/16 Q1018=
201907040200 METAR LRBC 040200Z 36003KT 9999 FEW050 17/17 Q1018=
201907040230 METAR LRBC 040230Z 00000KT 9999 BKN050 18/17 Q1019=
201907040300 METAR LRBC 040300Z 35006KT 9999 SCT055 18/17 Q1019=
201907040330 METAR LRBC 040330Z 35005KT 9999 FEW055 18/16 Q1019=
201907040400 METAR LRBC 040400Z VRB01KT 9999 FEW050 19/16 Q1019=
201907040430 METAR LRBC 040430Z 33007KT 9999 SCT060 20/17 Q1019=
201907040500 METAR LRBC 040500Z 34006KT CAVOK 21/16 Q1019=
201907040530 METAR LRBC 040530Z 33007KT CAVOK 21/15 Q1019=
201907040600 METAR LRBC 040600Z 35009KT CAVOK 21/15 Q1020=
201907040630 METAR LRBC 040630Z 34009KT CAVOK 22/15 Q1020=
201907040700 METAR LRBC 040700Z 33008KT CAVOK 23/15 Q1020=
201907040730 METAR LRBC 040730Z 35008KT CAVOK 23/15 Q1019=
201907040800 METAR LRBC 040800Z 34007KT CAVOK 24/13 Q1020=
201907040830 METAR LRBC 040830Z 31006KT CAVOK 24/14 Q1020=
201907040900 METAR LRBC 040900Z 33005KT CAVOK 25/14 Q1020=
201907040930 METAR LRBC 040930Z 07004KT CAVOK 25/13 Q1019=
201907041000 METAR LRBC 041000Z 36002KT CAVOK 26/14 Q1019=
201907041030 METAR LRBC 041030Z 05004KT CAVOK 26/14 Q1019=
201907041100 METAR LRBC 041100Z VRB02KT CAVOK 27/14 Q1019=
201907041130 METAR LRBC 041130Z VRB05KT CAVOK 27/15 Q1019=
201907041200 METAR LRBC 041200Z 16003KT CAVOK 27/13 Q1018=
201907041230 METAR LRBC 041230Z 14003KT CAVOK 27/15 Q1018=
201907041300 METAR LRBC 041300Z 13003KT CAVOK 28/15 Q1018=
201907041330 METAR LRBC 041330Z 15005KT CAVOK 27/15 Q1017=
201907041400 METAR LRBC 041400Z 14005KT CAVOK 28/16 Q1017=
201907041430 METAR LRBC 041430Z 16007KT CAVOK 28/16 Q1017=
201907041500 METAR LRBC 041500Z 15008KT CAVOK 27/16 Q1016=
201907041530 METAR LRBC 041530Z 15008KT CAVOK 27/16 Q1016=
201907041600 METAR LRBC 041600Z 15008KT CAVOK 27/16 Q1016=
201907041630 METAR LRBC 041630Z 15006KT CAVOK 26/17 Q1016=
201907041700 METAR LRBC 041700Z 13005KT CAVOK 26/17 Q1016=
201907041730 METAR LRBC 041730Z 11003KT 090V150 CAVOK 25/17 Q1016=
201907041800 METAR LRBC 041800Z 00000KT CAVOK 24/18 Q1016=
201907041830 METAR LRBC 041830Z 30003KT 260V320 CAVOK 22/19 Q1016=
201907041900 METAR LRBC 041900Z 32002KT 9999 VCTS FEW040CB 22/19 Q1016=
201907041930 METAR LRBC 041930Z 31002KT 280V340 CAVOK 20/18 Q1017=
201907042000 METAR LRBC 042000Z 34003KT CAVOK 20/18 Q1017=
201907042030 METAR LRBC 042030Z 34007KT CAVOK 20/18 Q1017=
201907042100 METAR COR LRBC 042100Z 34007KT CAVOK 20/18 Q1018=
201907042130 METAR LRBC 042130Z 33008KT CAVOK 20/18 Q1018=
201907042200 METAR LRBC 042200Z 34009KT CAVOK 20/17 Q1018=
201907042230 METAR LRBC 042230Z 31007KT CAVOK 19/17 Q1018=
201907042300 METAR LRBC 042300Z AUTO 31004KT 9999 NCD 19/17 Q1018=
201907042330 METAR LRBC 042330Z 32007KT CAVOK 19/16 Q1018=
201907050000 METAR LRBC 050000Z 35005KT CAVOK 18/16 Q1018=
201907050030 METAR LRBC 050030Z 35006KT CAVOK 18/16 Q1018=
201907050100 METAR LRBC 050100Z 35003KT CAVOK 18/15 Q1018=
201907050130 METAR COR LRBC 050130Z 00000KT CAVOK 18/15 Q1018=
201907050200 METAR LRBC 050200Z 00000KT CAVOK 17/15 Q1018=
201907050230 METAR LRBC 050230Z 00000KT CAVOK 17/15 Q1018=
201907050300 METAR LRBC 050300Z 00000KT CAVOK 17/16 Q1017=
201907050330 METAR LRBC 050330Z 05002KT 020V080 CAVOK 17/16 Q1017=
201907050400 METAR LRBC 050400Z VRB01KT CAVOK 18/16 Q1017=
201907050430 METAR LRBC 050430Z 00000KT CAVOK 19/16 Q1017=
201907050500 METAR LRBC 050500Z 34002KT 310V030 CAVOK 20/15 Q1017=
201907050530 METAR LRBC 050530Z VRB01KT CAVOK 21/17 Q1017=
201907050600 METAR LRBC 050600Z 04003KT 350V090 CAVOK 21/16 Q1017=
201907050630 METAR LRBC 050630Z VRB01KT CAVOK 22/16 Q1017=
201907050700 METAR LRBC 050700Z 00000KT CAVOK 23/16 Q1016=
201907050730 METAR LRBC 050730Z 12002KT 070V190 CAVOK 24/16 Q1016=
201907050800 METAR LRBC 050800Z VRB01KT CAVOK 25/17 Q1016=
201907050830 METAR LRBC 050830Z 14004KT 090V170 CAVOK 26/18 Q1015=
201907050900 METAR LRBC 050900Z 13004KT 050V180 CAVOK 26/16 Q1015=
201907050930 METAR LRBC 050930Z 15004KT 100V200 CAVOK 27/18 Q1015=
201907051000 METAR LRBC 051000Z 15007KT CAVOK 27/18 Q1014=
201907051030 METAR LRBC 051030Z 13009KT 9999 FEW065 28/18 Q1014=
201907051100 METAR LRBC 051100Z 15008KT 120V180 9999 FEW065 28/18 Q1013=
201907051130 METAR LRBC 051130Z 15009KT 120V190 9999 FEW065 28/17 Q1013=
201907051200 METAR LRBC 051200Z 14010KT 9999 FEW055 28/18 Q1012=
201907051230 METAR LRBC 051230Z 14011KT 9999 FEW055 29/18 Q1012=
201907051300 METAR LRBC 051300Z 14010KT 9999 FEW055 SCT065 29/19 Q1012=
201907051330 METAR LRBC 051330Z 15011KT 9999 FEW055 SCT065 29/18 Q1011=
201907051400 METAR LRBC 051400Z 15010KT 110V180 9999 FEW065 29/18 Q1011=
201907051430 METAR LRBC 051430Z 18009KT 9999 FEW065 29/18 Q1010=
201907051500 METAR LRBC 051500Z 25007KT 9999 FEW065 30/13 Q1010=
201907051530 METAR LRBC 051530Z 24007KT 9999 FEW065 29/11 Q1010=
201907051600 METAR LRBC 051600Z 24006KT CAVOK 29/12 Q1010=
201907051630 METAR LRBC 051630Z 24008KT CAVOK 28/10 Q1010=
201907051700 METAR LRBC 051700Z 25009KT CAVOK 26/09 Q1010=
201907051730 METAR LRBC 051730Z 25009KT CAVOK 26/10 Q1010=
201907051800 METAR LRBC 051800Z 26008KT CAVOK 25/10 Q1010=
201907051830 METAR LRBC 051830Z 32008KT CAVOK 23/12 Q1010=
201907051900 METAR LRBC 051900Z 31005KT CAVOK 21/12 Q1011=
201907051930 METAR LRBC 051930Z 28008KT CAVOK 22/12 Q1011=
201907052000 METAR LRBC 052000Z 28006KT CAVOK 22/11 Q1011=
201907052030 METAR LRBC 052030Z 36003KT 340V040 CAVOK 22/11 Q1011=
201907052100 METAR LRBC 052100Z 36004KT 290V030 CAVOK 22/12 Q1011=
201907052130 METAR LRBC 052130Z 01003KT CAVOK 21/12 Q1011=
201907052200 METAR LRBC 052200Z 35005KT CAVOK 21/12 Q1011=
201907052230 METAR LRBC 052230Z AUTO 36005KT 9999 FEW190/// 22/11 Q1011=
201907052300 METAR COR LRBC 052300Z 33008KT CAVOK 19/14 Q1013=
201907052330 METAR LRBC 052330Z 34008KT CAVOK 19/14 Q1013=
201907060000 METAR LRBC 060000Z 35006KT CAVOK 19/14 Q1013=
201907060030 METAR LRBC 060030Z 35007KT 330V040 CAVOK 19/15 Q1013=
201907060100 METAR LRBC 060100Z VRB01KT 9999 -RA NSC 19/15 Q1012=
201907060130 METAR LRBC 060130Z 34003KT 290V350 CAVOK 18/16 Q1012 RERA=
201907060200 METAR LRBC 060200Z 34004KT CAVOK 18/16 Q1012=
201907060230 METAR LRBC 060230Z 00000KT CAVOK 18/16 Q1012=
201907060300 METAR LRBC 060300Z 00000KT 9999 SCT060 18/16 Q1013=
201907060330 METAR LRBC 060330Z 32005KT 9999 BKN060 18/17 Q1013=
201907060400 METAR LRBC 060400Z 31005KT 9999 FEW055 19/16 Q1013=
201907060430 METAR LRBC 060430Z 33005KT CAVOK 19/16 Q1013=
201907060500 METAR LRBC 060500Z 34004KT 310V010 CAVOK 20/16 Q1013=
201907060530 METAR LRBC 060530Z 34005KT 310V020 CAVOK 21/16 Q1013=
201907060600 METAR LRBC 060600Z 34008KT CAVOK 22/15 Q1013=
201907060630 METAR LRBC 060630Z 35009KT 320V020 CAVOK 22/15 Q1013=
201907060700 METAR LRBC 060700Z 34006KT 300V060 CAVOK 23/16 Q1013=
201907060730 METAR LRBC 060730Z 35008KT 320V020 CAVOK 23/14 Q1013=
201907060800 METAR LRBC 060800Z 04007KT 9999 FEW040 24/14 Q1013=
201907060830 METAR LRBC 060830Z 03008KT 360V060 9999 FEW040 24/13 Q1013=
201907060900 METAR LRBC 060900Z 35006KT 310V040 9999 FEW040 24/14 Q1013=
201907060930 METAR LRBC 060930Z 34004KT 280V070 9999 FEW047 25/14 Q1013=
201907061000 METAR LRBC 061000Z VRB02KT 9999 FEW048 25/13 Q1013=
201907061030 METAR LRBC 061030Z 36003KT 310V060 9999 SCT048 25/14 Q1013=
201907061100 METAR LRBC 061100Z 03004KT 320V060 9999 SCT050 25/14 Q1013=
201907061130 METAR LRBC 061130Z 16003KT 090V250 9999 SCT050 26/14 Q1013=
201907061200 METAR LRBC 061200Z 20004KT 150V270 9999 SCT050 27/15 Q1013=
201907061230 METAR LRBC 061230Z VRB03KT 9999 SCT050 27/13 Q1012=
201907061300 METAR LRBC 061300Z 11003KT 050V140 9999 SCT050 26/14 Q1012=
201907061330 METAR LRBC 061330Z 14003KT 080V190 9999 FEW050 27/14 Q1012=
201907061400 METAR LRBC 061400Z 16006KT 9999 FEW050 26/15 Q1012=
201907061430 METAR LRBC 061430Z AUTO 12004KT 080V160 9999 SCT100/// 27/14
                        Q1012=
201907061500 METAR LRBC 061500Z 18004KT 140V230 CAVOK 27/15 Q1012=
201907061530 METAR LRBC 061530Z 15004KT CAVOK 26/14 Q1011=
201907061600 METAR LRBC 061600Z 14004KT CAVOK 26/15 Q1012=
201907061630 METAR LRBC 061630Z 14002KT 110V170 CAVOK 26/15 Q1012=
201907061700 METAR LRBC 061700Z 00000KT CAVOK 25/16 Q1012=
201907061730 METAR LRBC 061730Z 17004KT CAVOK 24/16 Q1012=
201907061800 METAR LRBC 061800Z 22001KT CAVOK 22/18 Q1012=
201907061830 METAR LRBC 061830Z 00000KT CAVOK 22/17 Q1012=
201907061900 METAR LRBC 061900Z 00000KT CAVOK 21/16 Q1012=
201907061930 METAR LRBC 061930Z 18002KT CAVOK 20/16 Q1012=
201907062000 METAR LRBC 062000Z 16004KT CAVOK 20/16 Q1012=
201907062030 METAR LRBC 062030Z 15003KT CAVOK 19/16 Q1012=
201907062100 METAR LRBC 062100Z 00000KT CAVOK 19/16 Q1012=
201907062130 METAR LRBC 062130Z 00000KT CAVOK 19/16 Q1012=
201907062200 METAR LRBC 062200Z 20004KT CAVOK 19/16 Q1012=
201907062230 METAR LRBC 062230Z 18004KT CAVOK 18/16 Q1012=
201907062300 METAR LRBC 062300Z 20003KT 170V250 CAVOK 19/16 Q1012=
201907062330 METAR LRBC 062330Z 17004KT CAVOK 18/15 Q1012=
201907070000 METAR LRBC 070000Z 20003KT CAVOK 18/15 Q1012=
201907070030 METAR LRBC 070030Z 00000KT CAVOK 17/15 Q1012=
201907070100 METAR LRBC 070100Z 00000KT CAVOK 17/14 Q1012=
201907070130 METAR LRBC 070130Z AUTO 00000KT 9999 NCD 17/15 Q1011=
201907070200 METAR COR LRBC 070200Z 17004KT CAVOK 16/15 Q1011=
201907070230 METAR LRBC 070230Z 15004KT CAVOK 17/15 Q1011=
201907070300 METAR LRBC 070300Z 18003KT CAVOK 16/14 Q1011=
201907070330 METAR LRBC 070330Z 17004KT CAVOK 17/16 Q1010=
201907070400 METAR LRBC 070400Z 16005KT CAVOK 18/16 Q1010=
201907070430 METAR LRBC 070430Z 16007KT CAVOK 19/17 Q1010=
201907070500 METAR LRBC 070500Z 17005KT CAVOK 21/17 Q1010=
201907070530 METAR LRBC 070530Z 16007KT CAVOK 22/16 Q1010=
201907070600 METAR LRBC 070600Z AUTO 17008KT 9999 NCD 23/16 Q1009=
201907070630 METAR LRBC 070630Z 17009KT CAVOK 24/15 Q1009=
201907070700 METAR LRBC 070700Z 16008KT CAVOK 26/16 Q1009=
201907070730 METAR LRBC 070730Z 16008KT CAVOK 27/16 Q1009=
201907070800 METAR LRBC 070800Z 15009KT CAVOK 27/16 Q1009=
201907070830 METAR LRBC 070830Z 15008KT 120V180 CAVOK 29/17 Q1008=
201907070900 METAR LRBC 070900Z 15007KT 110V180 CAVOK 29/17 Q1008=
201907070930 METAR LRBC 070930Z 15007KT CAVOK 30/17 Q1008=
201907071000 METAR LRBC 071000Z 14009KT 110V180 CAVOK 30/16 Q1008=
201907071030 METAR LRBC 071030Z 15009KT 110V170 9999 FEW040 30/16 Q1007=
201907071100 METAR LRBC 071100Z 14009KT CAVOK 31/17 Q1007=
201907071130 METAR LRBC 071130Z 15009KT 9999 FEW050 31/17 Q1007=
201907071200 METAR LRBC 071200Z 14010KT 9999 FEW050 31/17 Q1006=
201907071230 METAR LRBC 071230Z 13008KT 9999 FEW050 31/18 Q1006=
201907071300 METAR LRBC 071300Z 14008KT 9999 SCT050 30/18 Q1005=
201907071330 METAR LRBC 071330Z 14009KT 9999 SCT050 30/17 Q1005=
201907071400 METAR LRBC 071400Z 14006KT 9999 FEW030CB SCT040 30/18 Q1005=
201907071430 METAR LRBC 071430Z 15005KT 9999 FEW030CB SCT050 29/18 Q1005=
201907071500 METAR LRBC 071500Z 23009KT 200V270 9999 FEW030CB SCT040 29/17
                        Q1004=
201907071530 METAR LRBC 071530Z 29006KT 9999 FEW030CB 28/15 Q1004=
201907071600 METAR LRBC 071600Z 28007KT 9999 FEW030CB SCT040 28/15 Q1005=
201907071630 METAR LRBC 071630Z 34007KT 9999 BKN050 27/15 Q1005=
201907071700 METAR LRBC 071700Z 36006KT 9999 BKN060 26/16 Q1005=
201907071730 METAR LRBC 071730Z 35004KT CAVOK 26/15 Q1005=
201907071800 METAR LRBC 071800Z 00000KT CAVOK 25/18 Q1004=
201907071830 METAR LRBC 071830Z 00000KT CAVOK 23/19 Q1005=
201907071900 METAR LRBC 071900Z 18002KT CAVOK 22/18 Q1005=
201907071930 METAR LRBC 071930Z 00000KT CAVOK 22/19 Q1005=
201907072000 METAR LRBC 072000Z 00000KT CAVOK 21/18 Q1005=
201907072030 METAR LRBC 072030Z 35002KT CAVOK 20/19 Q1005=
201907072100 METAR LRBC 072100Z 02002KT CAVOK 21/18 Q1005=
201907072130 METAR LRBC 072130Z 00000KT CAVOK 20/18 Q1005=
201907072200 METAR LRBC 072200Z 00000KT CAVOK 20/18 Q1006=
201907072230 METAR LRBC 072230Z 00000KT CAVOK 20/18 Q1006=
201907072300 METAR LRBC 072300Z 36006KT CAVOK 19/17 Q1006=
201907072330 METAR LRBC 072330Z AUTO 02004KT 9999 FEW160/// SCT230///
                        20/18 Q1006=
201907080000 METAR LRBC 080000Z AUTO 01005KT 9999 OVC200/// 20/18 Q1006=
201907080030 METAR LRBC 080030Z 36005KT CAVOK 20/17 Q1006=
201907080100 METAR LRBC 080100Z 33007KT CAVOK 19/17 Q1006=
201907080130 METAR LRBC 080130Z 31006KT 9999 -RA SCT060 19/17 Q1006=
201907080200 METAR LRBC 080200Z 31002KT 9999 -RA BKN060 19/17 Q1006=
201907080230 METAR LRBC 080230Z 31002KT 9999 -RA BKN060 19/17 Q1006=
201907080300 METAR LRBC 080300Z 31006KT 9999 -RA BKN050 19/17 Q1007=
201907080330 METAR LRBC 080330Z 31005KT 9999 -RA BKN037 19/17 Q1007=
201907080400 METAR LRBC 080400Z 32004KT 9999 -RA BKN045 19/17 Q1007 R16/19//95=
201907080430 METAR LRBC 080430Z 32009KT 9999 -RA BKN045 19/17 Q1008 R16/19//95=
201907080500 METAR LRBC 080500Z 32008KT 9999 -RA FEW040 BKN047 19/17 Q1008
                        R16/19//95=
201907080530 METAR LRBC 080530Z 34006KT 9999 -RA BKN047 19/17 Q1008 R16/210195=
201907080600 METAR LRBC 080600Z 34009KT 9999 -RA BKN048 19/17 Q1009 R16/210195=
201907080630 METAR LRBC 080630Z 34013KT 9999 -RA BKN022 BKN044 19/17 Q1009
                        R16/210195=
201907080700 METAR LRBC 080700Z 34016KT 9999 -RA BKN022 BKN044 19/16 Q1009
                        R16/210195=
201907080730 METAR LRBC 080730Z 33013KT 9999 -RA FEW036 BKN050 18/15 Q1010
                        R16/19//95=
201907080800 METAR LRBC 080800Z 33011KT 9999 -RA BKN050 19/16 Q1010 R16/19//95=
201907080830 METAR LRBC 080830Z 33009KT 9999 BKN050 20/16 Q1010 R16/19//95=
201907080900 METAR LRBC 080900Z 34013KT 9999 BKN050 21/15 Q1010 R16/19//95=
201907080930 METAR LRBC 080930Z 35014KT 9999 SCT055 21/14 Q1010 R16/CLRD//=
201907081000 METAR LRBC 081000Z 02010KT 9999 FEW050 22/14 Q1010=
201907081030 METAR LRBC 081030Z 35012KT 320V020 9999 FEW050 23/14 Q1010=
201907081100 METAR LRBC 081100Z 33010KT 9999 FEW050 23/14 Q1010=
201907081130 METAR LRBC 081130Z 35006KT 310V030 9999 FEW041 24/14 Q1010=
201907081200 METAR LRBC 081200Z 36007KT 320V030 9999 SCT041 23/13 Q1010=
201907081230 METAR LRBC 081230Z 34005KT 310V070 9999 SCT041 23/13 Q1010=
201907081300 METAR LRBC 081300Z VRB02KT 9999 SCT041 24/13 Q1010=
201907081330 METAR LRBC 081330Z 04005KT 340V070 9999 BKN043 24/13 Q1010=
201907081400 METAR LRBC 081400Z VRB02KT 9999 BKN043 25/13 Q1010=
201907081430 METAR LRBC 081430Z 06004KT 9999 SCT044 23/13 Q1010=
201907081500 METAR LRBC 081500Z 03004KT 9999 FEW044 24/14 Q1010=
201907081530 METAR LRBC 081530Z 01004KT 9999 BKN044 24/14 Q1010=
201907081600 METAR LRBC 081600Z 01009KT 340V040 9999 BKN044 23/14 Q1011=
201907081630 METAR COR LRBC 081630Z 01009KT 9999 BKN046 22/13 Q1011=
201907081700 METAR LRBC 081700Z 36008KT 340V040 9999 SCT046 21/13 Q1012=
201907081730 METAR LRBC 081730Z 01007KT 330V040 9999 SCT046 21/12 Q1012=
201907081800 METAR LRBC 081800Z 36005KT 340V040 9999 FEW060 20/12 Q1012=
201907081830 METAR LRBC 081830Z 31004KT 290V350 9999 FEW060 17/14 Q1013=
201907081900 METAR LRBC 081900Z 33003KT CAVOK 16/14 Q1013=
201907081930 METAR LRBC 081930Z 00000KT CAVOK 16/13 Q1014=
201907082000 METAR LRBC 082000Z 00000KT 9999 FEW042 16/13 Q1014=
201907082030 METAR LRBC 082030Z 00000KT 9999 FEW045 17/12 Q1014=
201907082100 METAR LRBC 082100Z 00000KT CAVOK 16/12 Q1014=
201907082130 METAR LRBC 082130Z 00000KT CAVOK 15/13 Q1014=
201907082200 METAR LRBC 082200Z 00000KT CAVOK 14/13 Q1014=
201907082230 METAR LRBC 082230Z AUTO 00000KT 9999 NCD 14/13 Q1014=
201907082300 METAR LRBC 082300Z 00000KT CAVOK 14/12 Q1014=
201907082330 METAR LRBC 082330Z 00000KT CAVOK 14/12 Q1014=
201907090000 METAR LRBC 090000Z 00000KT CAVOK 13/12 Q1014=
201907090030 METAR LRBC 090030Z AUTO 00000KT 9999 NCD 12/11 Q1014=
201907090100 METAR LRBC 090100Z 00000KT CAVOK 13/12 Q1013=
201907090130 METAR LRBC 090130Z 00000KT CAVOK 13/12 Q1013=
201907090200 METAR LRBC 090200Z 00000KT CAVOK 12/11 Q1013=
201907090230 METAR LRBC 090230Z 00000KT CAVOK 13/13 Q1013=
201907090300 METAR LRBC 090300Z 00000KT CAVOK 14/13 Q1014=
201907090330 METAR LRBC 090330Z 33002KT CAVOK 14/13 Q1014=
201907090400 METAR LRBC 090400Z 00000KT CAVOK 14/13 Q1013=
201907090430 METAR LRBC 090430Z 00000KT CAVOK 15/14 Q1014=
201907090500 METAR LRBC 090500Z VRB01KT CAVOK 15/14 Q1014=
201907090530 METAR LRBC 090530Z VRB01KT CAVOK 16/13 Q1014=
201907090600 METAR LRBC 090600Z 00000KT CAVOK 16/13 Q1014=
201907090630 METAR LRBC 090630Z 01003KT CAVOK 17/14 Q1014=
201907090700 METAR LRBC 090700Z 34003KT 9999 SCT060 17/14 Q1014=
201907090730 METAR LRBC 090730Z 35002KT 9999 SCT055 17/14 Q1014=
201907090800 METAR LRBC 090800Z VRB01KT 9999 SCT055 18/13 Q1014=
201907090830 METAR LRBC 090830Z VRB01KT 9999 SCT055 19/13 Q1013=
201907090900 METAR LRBC 090900Z VRB01KT 9999 FEW055 21/14 Q1013=
201907090930 METAR LRBC 090930Z 13003KT 9999 FEW055 21/14 Q1013=
201907091000 METAR LRBC 091000Z 14005KT 9999 FEW055 22/15 Q1012=
201907091030 METAR LRBC 091030Z 16006KT 9999 FEW055 23/13 Q1012=
201907091100 METAR LRBC 091100Z 15005KT 9999 FEW055 24/13 Q1012=
201907091130 METAR LRBC 091130Z 17008KT 9999 FEW055 25/11 Q1011=
201907091200 METAR LRBC 091200Z 21005KT 9999 FEW055 24/11 Q1011=
201907091230 METAR LRBC 091230Z 20009KT 9999 FEW055 25/12 Q1011=
201907091300 METAR LRBC 091300Z 16009KT 9999 FEW055 25/11 Q1010=
201907091330 METAR LRBC 091330Z 15010KT 9999 FEW055 25/12 Q1010=
201907091400 METAR LRBC 091400Z 14008KT 9999 SCT055 25/12 Q1010=
201907091430 METAR LRBC 091430Z 36014KT 9999 SCT055 25/12 Q1010=
201907091500 METAR LRBC 091500Z 03008KT 9999 SCT055 23/12 Q1011=
201907091530 METAR LRBC 091530Z 02008KT 9999 SCT055 24/12 Q1011=
201907091600 METAR LRBC 091600Z 03006KT 350V080 9999 SCT055 23/11 Q1010=
201907091630 METAR LRBC 091630Z 02004KT 9999 SCT055 23/12 Q1010=
201907091700 METAR LRBC 091700Z 35004KT 320V020 9999 FEW060 22/13 Q1011=
201907091730 METAR LRBC 091730Z 35004KT 9999 FEW060 20/13 Q1011=
201907091800 METAR LRBC 091800Z 29004KT CAVOK 18/15 Q1011=
201907091830 METAR LRBC 091830Z 00000KT CAVOK 18/14 Q1012=
201907091900 METAR LRBC 091900Z VRB01KT CAVOK 17/14 Q1012=
201907091930 METAR LRBC 091930Z 00000KT CAVOK 17/14 Q1012=
201907092000 METAR LRBC 092000Z 03002KT CAVOK 17/14 Q1012=
201907092030 METAR LRBC 092030Z 00000KT CAVOK 17/14 Q1012=
201907092100 METAR LRBC 092100Z 35003KT CAVOK 17/14 Q1012=
201907092130 METAR LRBC 092130Z 00000KT CAVOK 18/14 Q1012=
201907092200 METAR LRBC 092200Z 35007KT 9999 FEW050 16/14 Q1012=
201907092230 METAR LRBC 092230Z 01007KT 340V050 CAVOK 17/12 Q1012=
201907092300 METAR LRBC 092300Z 01004KT CAVOK 17/12 Q1012=
201907092330 METAR LRBC 092330Z 31002KT CAVOK 15/12 Q1012=
201907100000 METAR LRBC 100000Z 29003KT CAVOK 14/11 Q1012=
201907100030 METAR LRBC 100030Z 33002KT CAVOK 14/11 Q1012=
201907100100 METAR LRBC 100100Z VRB01KT CAVOK 14/11 Q1012=
201907100130 METAR LRBC 100130Z 00000KT CAVOK 13/11 Q1012=
201907100200 METAR LRBC 100200Z 00000KT CAVOK 12/11 Q1011=
201907100230 METAR LRBC 100230Z 30001KT CAVOK 11/10 Q1011=
201907100300 METAR LRBC 100300Z 33003KT CAVOK 12/10 Q1012=
201907100330 METAR LRBC 100330Z 00000KT CAVOK 13/12 Q1012=
201907100400 METAR LRBC 100400Z 00000KT CAVOK 14/12 Q1011=
201907100430 METAR LRBC 100430Z 21002KT CAVOK 14/12 Q1011=
201907100500 METAR LRBC 100500Z 00000KT CAVOK 16/13 Q1011=
201907100530 METAR LRBC 100530Z 00000KT CAVOK 18/13 Q1011=
201907100600 METAR LRBC 100600Z 00000KT 9999 SCT030 19/14 Q1011=
201907100630 METAR LRBC 100630Z 00000KT 9999 SCT030 20/12 Q1011=
201907100700 METAR LRBC 100700Z VRB01KT 9999 SCT030 20/11 Q1011=
201907100730 METAR LRBC 100730Z 01004KT 310V120 9999 SCT035 21/08 Q1011=
201907100800 METAR LRBC 100800Z VRB01KT 9999 FEW040CB SCT060 21/09 Q1011=
201907100830 METAR LRBC 100830Z 07002KT 360V110 9999 VCSH FEW033CB BKN065
                        20/10 Q1011=
201907100900 METAR LRBC 100900Z 02005KT 350V050 9999 FEW033CB SCT065 20/11
                        Q1011=
201907100930 METAR LRBC 100930Z 36005KT 9999 SCT065 21/11 Q1011=
201907101000 METAR LRBC 101000Z 02002KT 290V090 9999 FEW040CB SCT065 21/11
                        Q1011=
201907101030 METAR LRBC 101030Z 00000KT 9999 FEW040CB BKN065 21/11 Q1011=
201907101100 METAR LRBC 101100Z VRB01KT 9999 SCT040CB BKN065 21/12 Q1010=
201907101130 METAR LRBC 101130Z 10004KT 040V170 9999 SCT040CB BKN065 22/11
                        Q1010=
201907101200 METAR LRBC 101200Z 11002KT 040V150 9999 SCT040CB BKN065 22/11
                        Q1010=
201907101230 METAR LRBC 101230Z 17003KT 110V190 9999 VCSH BKN040CB BKN065
                        22/11 Q1010=
201907101300 METAR LRBC 101300Z 36006KT 270V070 8000 1800S -TSRA BR FEW027
                        SCT032 BKN037CB 15/14 Q1010 RETSRA=
201907101330 METAR LRBC 101330Z 35003KT 310V040 9999 SCT017 FEW040CB BKN065
                        18/14 Q1010=
201907101400 METAR LRBC 101400Z 30005KT 9999 FEW049CB BKN065 18/14 Q1010=
201907101430 METAR LRBC 101430Z 33004KT 300V030 9999 BKN065 18/13 Q1010=
201907101500 METAR LRBC 101500Z 34005KT 320V030 9999 BKN065 18/15 Q1010=
201907101530 METAR LRBC 101530Z 32005KT 9999 BKN065 18/15 Q1010=
201907101600 METAR LRBC 101600Z 35008KT 9999 FEW045CB BKN060 18/13 Q1010=
201907101630 METAR LRBC 101630Z 32009KT 9999 FEW050CB BKN060 18/14 Q1010=
201907101700 METAR LRBC 101700Z 27005KT 9999 -RA FEW044CB BKN060 16/14
                        Q1011 R16/19//95=
201907101730 METAR LRBC 101730Z 28003KT 9999 SCT045CB BKN060 17/14 Q1011
                        R16/19//95=
201907101800 METAR LRBC 101800Z 30004KT 9999 SCT045CB BKN060 16/13 Q1011
                        R16/19//95=
201907101830 METAR LRBC 101830Z 30003KT 9999 FEW050CB 16/13 Q1011 R16/19//95=
201907101900 METAR LRBC 101900Z VRB01KT 9999 SCT060 15/13 Q1011 R16/19//95=
201907101930 METAR LRBC 101930Z 05003KT 9999 SCT065 15/14 Q1011 R16/19//95=
201907102000 METAR LRBC 102000Z VRB01KT CAVOK 16/13 Q1011 R16/19//95=
201907102030 METAR LRBC 102030Z 36003KT 9999 FEW050 15/13 Q1011 R16/19//95=
201907102100 METAR LRBC 102100Z 34004KT 9999 -RA SCT055 15/13 Q1011 R16/CLRD//=
201907102130 METAR LRBC 102130Z 36003KT CAVOK 15/13 Q1011=
201907102200 METAR LRBC 102200Z 00000KT CAVOK 15/13 Q1011=
201907102230 METAR LRBC 102230Z 29002KT CAVOK 14/12 Q1011=
201907102300 METAR LRBC 102300Z 00000KT CAVOK 14/12 Q1011=
201907102330 METAR LRBC 102330Z 36004KT CAVOK 15/12 Q1011=
201907110000 METAR LRBC 110000Z 01002KT CAVOK 14/12 Q1011=
201907110030 METAR LRBC 110030Z AUTO 03003KT 350V050 9999 NCD 14/12 Q1011=
201907110100 METAR LRBC 110100Z AUTO 00000KT 9999 SCT100/// 13/11 Q1011=
201907110130 METAR LRBC 110130Z AUTO 00000KT 9999 NCD 12/11 Q1011=
201907110200 METAR LRBC 110200Z 00000KT CAVOK 12/12 Q1011=
201907110230 METAR LRBC 110230Z 00000KT CAVOK 12/11 Q1011=
201907110300 METAR LRBC 110300Z 00000KT CAVOK 11/11 Q1011=
201907110330 METAR COR LRBC 110330Z 00000KT CAVOK 12/11 Q1011=
201907110400 METAR LRBC 110400Z 00000KT CAVOK 14/12 Q1011=
201907110430 METAR LRBC 110430Z 00000KT CAVOK 16/13 Q1011=
201907110500 METAR LRBC 110500Z VRB01KT 9999 FEW065 16/14 Q1011=
201907110530 METAR LRBC 110530Z 00000KT CAVOK 18/13 Q1011=
201907110600 METAR LRBC 110600Z 36003KT 260V070 CAVOK 18/12 Q1011=
201907110630 METAR LRBC 110630Z 34008KT 310V010 9999 FEW028 SCT065 18/12
                        Q1011=
201907110700 METAR LRBC 110700Z 33005KT 260V010 9999 FEW028 BKN060 19/11
                        Q1011=
201907110730 METAR LRBC 110730Z 35003KT 310V070 9999 FEW028 BKN060 19/11
                        Q1011=
201907110800 METAR LRBC 110800Z VRB02KT 9999 SCT060 20/11 Q1011=
201907110830 METAR LRBC 110830Z VRB02KT 9999 FEW038 SCT060 21/12 Q1011=
201907110900 METAR LRBC 110900Z 01006KT 9999 FEW045 SCT055 20/12 Q1011=
201907110930 METAR LRBC 110930Z 34006KT 310V010 9999 -RA BKN035 BKN048
                        20/10 Q1011=
201907111000 METAR LRBC 111000Z 34007KT 9999 -RA SCT037 BKN047 18/12 Q1011
                        R16/19//95=
201907111030 METAR LRBC 111030Z VRB02KT 9999 SCT037 BKN047 20/12 Q1010
                        R16/19//95=
201907111100 METAR LRBC 111100Z 31007KT 9999 FEW037CB BKN047 21/10 Q1010
                        R16/CLRD//=
201907111130 METAR LRBC 111130Z 30006KT 9999 FEW037CB BKN047 22/11 Q1010=
201907111200 METAR LRBC 111200Z 28009KT 9999 VCSH FEW037CB BKN047 BKN065
                        21/11 Q1010=
201907111230 METAR LRBC 111230Z 22004KT 9999 -SHRA SCT037CB BKN065 18/13
                        Q1010 RESHRA R16/19//95=
201907111300 METAR LRBC 111300Z VRB02KT 9999 FEW045 SCT065 21/13 Q1010
                        R16/19//95=
201907111330 METAR LRBC 111330Z 28004KT 9999 FEW045CB SCT065 FEW075 SCT090
                        20/12 Q1010 R16/19//95=
201907111400 METAR LRBC 111400Z 27008KT 9999 FEW043CB SCT065 19/13 Q1010
                        R16/CLRD//=
201907111430 METAR LRBC 111430Z 32009KT 9999 SHRA FEW043CB SCT055 BKN067
                        18/15 Q1010=
201907111500 METAR LRBC 111500Z 28007KT 9999 -SHRA FEW032CB SCT050 BKN065
                        18/15 Q1010 RESHRA=
201907111530 METAR LRBC 111530Z 30007KT 9999 FEW047CB SCT050 BKN065 18/14
                        Q1010=
201907111600 METAR LRBC 111600Z AUTO 28005KT 9999 BKN085/// 18/13 Q1010
                        RERA=
201907111630 METAR COR LRBC 111630Z 29006KT 9999 FEW045CB SCT060 17/13
                        Q1010 R16/210195=
201907111700 METAR LRBC 111700Z 30004KT 250V010 9999 FEW045CB SCT065 17/12
                        Q1011 R16/210195=
201907111730 METAR LRBC 111730Z 33004KT 280V010 9999 SCT065 17/12 Q1011
                        R16/210195=
201907111800 METAR LRBC 111800Z 00000KT CAVOK 16/13 Q1011 R16/210195=
201907111830 METAR LRBC 111830Z 33003KT 9999 FEW065 15/13 Q1011 R16/210195=
201907111900 METAR LRBC 111900Z VRB01KT CAVOK 15/13 Q1011 R16/CLRD//=
201907111930 METAR LRBC 111930Z VRB01KT CAVOK 14/12 Q1011=
201907112000 METAR LRBC 112000Z 04002KT 020V130 CAVOK 14/12 Q1011=
201907112030 METAR LRBC 112030Z 33004KT 9999 BKN065 14/13 Q1011=
201907112100 METAR LRBC 112100Z 30004KT 9999 BKN065 14/13 Q1011=
201907112130 METAR LRBC 112130Z 32003KT CAVOK 13/12 Q1011=
201907112200 METAR LRBC 112200Z AUTO 08001KT 9999 SCT075/// 13/12 Q1012=
201907112230 METAR LRBC 112230Z 00000KT 9999 BKN065 14/13 Q1012=
201907112300 METAR LRBC 112300Z 00000KT 9999 SCT060 OVC065 13/13 Q1011=
201907112330 METAR LRBC 112330Z 00000KT 9999 BKN065 13/13 Q1011=
201907120000 METAR LRBC 120000Z AUTO 00000KT 9999 FEW080/// SCT240///
                        13/13 Q1011=
201907120030 METAR COR LRBC 120030Z 00000KT CAVOK 13/12 Q1011=
201907120100 METAR LRBC 120100Z 00000KT CAVOK 13/13 Q1011=
201907120130 METAR LRBC 120130Z 00000KT CAVOK 12/12 Q1011=
201907120200 METAR LRBC 120200Z 00000KT CAVOK 11/11 Q1011=
201907120230 METAR LRBC 120230Z 00000KT CAVOK 12/12 Q1012=
201907120300 METAR LRBC 120300Z 00000KT CAVOK 12/12 Q1012=
201907120330 METAR LRBC 120330Z 00000KT 9999 SCT050 13/13 Q1012=
201907120400 METAR LRBC 120400Z 00000KT 9999 SCT050 14/13 Q1012=
201907120430 METAR LRBC 120430Z 00000KT CAVOK 17/14 Q1012=
201907120500 METAR LRBC 120500Z 10003KT 030V130 9999 SCT038 16/13 Q1012=
201907120530 METAR LRBC 120530Z VRB01KT CAVOK 18/14 Q1012=
201907120600 METAR LRBC 120600Z 33009KT CAVOK 18/13 Q1012=
201907120630 METAR LRBC 120630Z 34012KT 9999 FEW033 19/12 Q1012=
201907120700 METAR LRBC 120700Z 35009KT 9999 SCT032 20/13 Q1012=
201907120730 METAR LRBC 120730Z 35009KT 9999 SCT034 19/11 Q1012=
201907120800 METAR LRBC 120800Z 01007KT 9999 SCT038 21/11 Q1012=
201907120830 METAR LRBC 120830Z 35008KT 9999 SCT050 21/12 Q1012=
201907120900 METAR LRBC 120900Z 34007KT 9999 SCT040 21/12 Q1012=
201907120930 METAR LRBC 120930Z 34005KT 9999 SCT042 22/10 Q1012=
201907121000 METAR LRBC 121000Z 33009KT 9999 BKN055 22/11 Q1012=
201907121030 METAR LRBC 121030Z 34006KT 9999 BKN055 22/10 Q1012=
201907121100 METAR LRBC 121100Z 34006KT 9999 BKN050 22/10 Q1011=
201907121130 METAR LRBC 121130Z 33009KT 9999 BKN050 23/12 Q1011=
201907121200 METAR LRBC 121200Z 32006KT 9999 BKN055 23/10 Q1011=
201907121230 METAR LRBC 121230Z 01007KT 9999 SCT055 23/11 Q1011=
201907121300 METAR LRBC 121300Z 33009KT 9999 SCT055 23/11 Q1011=
201907121330 METAR LRBC 121330Z 32005KT 9999 SCT055 23/10 Q1011=
201907121400 METAR LRBC 121400Z 33007KT CAVOK 23/09 Q1011=
201907121430 METAR LRBC 121430Z 34003KT CAVOK 24/11 Q1011=
201907121500 METAR LRBC 121500Z VRB03KT CAVOK 23/11 Q1011=
201907121530 METAR LRBC 121530Z 32005KT CAVOK 23/12 Q1011=
201907121600 METAR LRBC 121600Z 31004KT CAVOK 23/11 Q1011=
201907121630 METAR LRBC 121630Z 29004KT CAVOK 22/10 Q1011=
201907121700 METAR LRBC 121700Z 29004KT CAVOK 21/14 Q1011=
201907121730 METAR LRBC 121730Z 28004KT CAVOK 20/14 Q1011=
201907121800 METAR LRBC 121800Z 29005KT CAVOK 19/14 Q1011=
201907121830 METAR LRBC 121830Z 33006KT CAVOK 18/14 Q1012=
201907121900 METAR LRBC 121900Z 28006KT CAVOK 19/13 Q1012=
201907121930 METAR LRBC 121930Z VRB01KT CAVOK 19/13 Q1012=
201907122000 METAR LRBC 122000Z 00000KT CAVOK 18/14 Q1012=
201907122030 METAR LRBC 122030Z 11002KT 9999 SCT065 18/13 Q1012=
201907122100 METAR LRBC 122100Z 00000KT 9999 SCT065 18/14 Q1012=
201907122130 METAR LRBC 122130Z VRB01KT CAVOK 18/14 Q1012=
201907122200 METAR LRBC 122200Z 00000KT CAVOK 17/14 Q1012=
201907122230 METAR LRBC 122230Z VRB01KT CAVOK 17/14 Q1012=
201907122300 METAR LRBC 122300Z AUTO 05003KT 020V080 9999 FEW095/// BKN110///
                        17/14 Q1012=
201907122330 METAR LRBC 122330Z 00000KT CAVOK 16/14 Q1012=
201907130000 METAR COR LRBC 130000Z 00000KT CAVOK 15/14 Q1012=
201907130030 METAR LRBC 130030Z VRB01KT CAVOK 14/13 Q1012=
201907130100 METAR LRBC 130100Z 35003KT CAVOK 14/13 Q1011=
201907130130 METAR LRBC 130130Z 00000KT CAVOK 13/12 Q1011=
201907130200 METAR LRBC 130200Z 00000KT CAVOK 13/12 Q1012=
201907130230 METAR LRBC 130230Z 00000KT CAVOK 12/11 Q1012=
201907130300 METAR LRBC 130300Z AUTO 00000KT 9999 FEW095/// 13/12 Q1012=
201907130330 METAR LRBC 130330Z 00000KT CAVOK 13/12 Q1012=
201907130400 METAR LRBC 130400Z 00000KT CAVOK 15/14 Q1011=
201907130430 METAR LRBC 130430Z 00000KT CAVOK 17/14 Q1011=
201907130500 METAR LRBC 130500Z 00000KT CAVOK 18/14 Q1011=
201907130530 METAR LRBC 130530Z 00000KT CAVOK 19/15 Q1011=
201907130600 METAR LRBC 130600Z VRB01KT CAVOK 20/15 Q1012=
201907130630 METAR LRBC 130630Z 12003KT 080V170 CAVOK 20/14 Q1011=
201907130700 METAR LRBC 130700Z VRB01KT 9999 FEW040 22/14 Q1011=
201907130730 METAR LRBC 130730Z VRB03KT 9999 FEW040 22/14 Q1011=
201907130800 METAR LRBC 130800Z VRB01KT 9999 FEW045 23/11 Q1011=
201907130830 METAR LRBC 130830Z 11004KT 060V160 9999 SCT050 24/10 Q1011=
201907130900 METAR LRBC 130900Z 06005KT 360V110 9999 SCT050 24/11 Q1011=
201907130930 METAR LRBC 130930Z VRB03KT 9999 SCT050 24/11 Q1010=
201907131000 METAR LRBC 131000Z VRB04KT 9999 BKN060 25/11 Q1010=
201907131030 METAR LRBC 131030Z VRB04KT 9999 BKN055 25/11 Q1010=
201907131100 METAR LRBC 131100Z 20004KT 130V290 9999 BKN060 26/10 Q1010=
201907131130 METAR LRBC 131130Z VRB02KT 9999 BKN055 25/12 Q1010=
201907131200 METAR LRBC 131200Z 00000KT 9999 BKN055 25/10 Q1010=
201907131230 METAR LRBC 131230Z 20006KT 150V230 9999 BKN060 25/12 Q1010=
201907131300 METAR LRBC 131300Z 18007KT 9999 FEW040CB SCT060 25/11 Q1009=
201907131330 METAR LRBC 131330Z 22005KT 9999 BKN050 25/11 Q1009=
201907131400 METAR LRBC 131400Z 16006KT 9999 BKN055 24/13 Q1009=
201907131430 METAR LRBC 131430Z 18005KT 130V220 9999 BKN065 24/12 Q1009=
201907131500 METAR LRBC 131500Z 18011KT 9999 SCT065 24/14 Q1009=
201907131530 METAR LRBC 131530Z 16011KT 9999 SCT065 24/13 Q1009=
201907131600 METAR LRBC 131600Z 17008KT 9999 SCT060 22/13 Q1009=
201907131630 METAR LRBC 131630Z 17006KT CAVOK 22/13 Q1009=
201907131700 METAR LRBC 131700Z 15005KT CAVOK 21/14 Q1009=
201907131730 METAR LRBC 131730Z 17005KT CAVOK 20/15 Q1009=
201907131800 METAR LRBC 131800Z 00000KT CAVOK 20/15 Q1009=
201907131830 METAR LRBC 131830Z 00000KT CAVOK 19/15 Q1009=
201907131900 METAR LRBC 131900Z VRB01KT CAVOK 20/15 Q1009=
201907131930 METAR LRBC 131930Z 00000KT CAVOK 20/15 Q1009=
201907132000 METAR LRBC 132000Z 00000KT CAVOK 19/14 Q1009=
201907132030 METAR LRBC 132030Z 00000KT CAVOK 19/14 Q1009=
201907132100 METAR LRBC 132100Z 00000KT CAVOK 18/14 Q1009=
201907132130 METAR LRBC 132130Z 00000KT CAVOK 18/14 Q1009=
201907132200 METAR LRBC 132200Z 00000KT CAVOK 18/14 Q1009=
201907132230 METAR LRBC 132230Z 00000KT CAVOK 17/14 Q1008=
201907132300 METAR LRBC 132300Z 00000KT CAVOK 17/14 Q1008=
201907132330 METAR LRBC 132330Z 00000KT CAVOK 17/14 Q1008=
201907140000 METAR LRBC 140000Z 00000KT CAVOK 17/14 Q1008=
201907140030 METAR LRBC 140030Z 00000KT CAVOK 17/14 Q1008=
201907140100 METAR LRBC 140100Z AUTO 00000KT 9999 SCT090/// BKN110///
                        17/14 Q1008=
201907140130 METAR LRBC 140130Z AUTO 30001KT 9999 OVC100/// 17/15 Q1008=
201907140200 METAR LRBC 140200Z 00000KT CAVOK 17/15 Q1008=
201907140230 METAR LRBC 140230Z 00000KT CAVOK 16/15 Q1008=
201907140300 METAR LRBC 140300Z 00000KT CAVOK 16/14 Q1008=
201907140330 METAR LRBC 140330Z 00000KT CAVOK 16/14 Q1008=
201907140400 METAR LRBC 140400Z 36003KT CAVOK 16/14 Q1008=
201907140430 METAR LRBC 140430Z 03003KT CAVOK 17/14 Q1008=
201907140500 METAR LRBC 140500Z 00000KT CAVOK 18/15 Q1008=
201907140530 METAR LRBC 140530Z VRB01KT CAVOK 19/14 Q1008=
201907140600 METAR LRBC 140600Z 36006KT CAVOK 20/14 Q1008=
201907140630 METAR LRBC 140630Z 34005KT CAVOK 20/14 Q1009=
201907140700 METAR LRBC 140700Z 06003KT CAVOK 20/14 Q1009=
201907140730 METAR LRBC 140730Z 02003KT CAVOK 21/14 Q1009=
201907140800 METAR LRBC 140800Z 11002KT CAVOK 21/14 Q1009=
201907140830 METAR LRBC 140830Z VRB01KT CAVOK 22/15 Q1009=
201907140900 METAR LRBC 140900Z 15003KT 110V210 CAVOK 22/15 Q1008=
201907140930 METAR LRBC 140930Z 14003KT 070V210 9999 SCT067 23/14 Q1008=
201907141000 METAR LRBC 141000Z 14003KT 060V200 9999 SCT067 24/14 Q1008=
201907141030 METAR LRBC 141030Z 17004KT 110V230 9999 SCT067 24/13 Q1008=
201907141100 METAR LRBC 141100Z VRB02KT 9999 SCT067 25/12 Q1007=
201907141130 METAR LRBC 141130Z VRB02KT 9999 SCT065 25/13 Q1007=
201907141200 METAR LRBC 141200Z VRB02KT 9999 SCT065 25/12 Q1007=
201907141230 METAR LRBC 141230Z 00000KT 9999 FEW040CB SCT065 25/12 Q1007=
201907141300 METAR LRBC 141300Z 00000KT 9999 TS SCT040CB SCT055 25/13
                        Q1007=
201907141330 METAR COR LRBC 141330Z 23008KT 9999 TS SCT040CB SCT055 23/15
                        Q1007=
201907141400 METAR LRBC 141400Z 13004KT 070V190 9999 TSRA SCT040CB BKN049
                        20/15 Q1008 R16/19//95=
201907141430 METAR LRBC 141430Z 04005KT 9000 -SHRA FEW040CB BKN047 18/15
                        Q1008 RETS R16/19//95=
201907141500 METAR LRBC 141500Z 08004KT 030V110 9999 -RA FEW036CB SCT048
                        BKN065 19/16 Q1008 R16/19//95=
201907141530 METAR LRBC 141530Z 00000KT 9999 FEW036CB SCT048 19/16 Q1008
                        R16/19//95=
201907141600 METAR LRBC 141600Z 00000KT 9999 FEW036CB SCT048 20/17 Q1008
                        R16/19//95=
201907141630 METAR LRBC 141630Z 00000KT 9999 FEW036CB SCT048 20/17 Q1008
                        R16/19//95=
201907141700 METAR LRBC 141700Z VRB01KT 9999 FEW030CB 19/18 Q1008 R16/19//95=
201907141730 METAR LRBC 141730Z 04005KT 010V070 9999 FEW040CB 18/17 Q1008
                        R16/15//95=
201907141800 METAR LRBC 141800Z 36007KT 9999 FEW040CB 18/17 Q1009 R16/15//95=
201907141830 METAR LRBC 141830Z 36005KT 9999 FEW040CB 18/17 Q1009 R16/15//95=
201907141900 METAR LRBC 141900Z 34008KT 9999 FEW050 18/16 Q1009 R16/15//95=
201907141930 METAR LRBC 141930Z 34008KT CAVOK 17/15 Q1009 R16/15//95=
201907142000 METAR LRBC 142000Z 35006KT CAVOK 17/15 Q1009 R16/15//95=
201907142030 METAR LRBC 142030Z 33005KT CAVOK 17/15 Q1009 R16/15//95=
201907142100 METAR LRBC 142100Z 34002KT 310V030 CAVOK 16/15 Q1009 R16/15//95=
201907142130 METAR LRBC 142130Z 36002KT CAVOK 16/15 Q1009 R16/15//95=
201907142200 METAR LRBC 142200Z 36002KT 320V040 CAVOK 16/15 Q1009 R16/15//95=
201907142230 METAR LRBC 142230Z AUTO 04002KT 9999 FEW100/// OVC110///
                        16/15 Q1009=
201907142300 METAR LRBC 142300Z 00000KT CAVOK 16/15 Q1009 R16/15//95=
201907142330 METAR LRBC 142330Z 34002KT CAVOK 16/15 Q1009 R16/15//95=
201907150000 METAR LRBC 150000Z 34002KT 310V010 CAVOK 16/15 Q1009 R16/15//95=
201907150030 METAR LRBC 150030Z AUTO 31004KT 9999 BKN070/// OVC130///
                        16/15 Q1009=
201907150100 METAR LRBC 150100Z 35002KT 320V020 CAVOK 16/15 Q1009 R16/15//95=
201907150130 METAR LRBC 150130Z 34004KT 9999 FEW025 16/15 Q1009 R16/15//95=
201907150200 METAR LRBC 150200Z 33005KT 9999 FEW031 SCT050 16/15 Q1009
                        R16/15//95=
201907150230 METAR LRBC 150230Z 33006KT 9999 BKN021 BKN050 16/14 Q1009
                        R16/15//95=
201907150300 METAR LRBC 150300Z 33005KT 9999 FEW019 SCT026 BKN032 16/15
                        Q1009 R16/15//95=
201907150330 METAR LRBC 150330Z 32005KT 9999 -RA FEW020 SCT032 16/15 Q1009
                        R16/CLRD//=
201907150400 METAR LRBC 150400Z 33008KT 9999 SCT024 17/14 Q1009=
201907150430 METAR LRBC 150430Z 33007KT 9999 -RA SCT018 BKN029 BKN065
                        16/15 Q1010=
201907150500 METAR LRBC 150500Z 33008KT 9999 -RA BKN019 16/15 Q1010=
201907150530 METAR LRBC 150530Z 33007KT 9999 -RA FEW015 BKN025 17/15 Q1010
                        R16/19//95=
201907150600 METAR LRBC 150600Z 33009KT 9999 -RA FEW015 BKN030 17/15 Q1010
                        R16/19//95=
201907150630 METAR LRBC 150630Z 33009KT 9999 -RA SCT011 BKN025 17/16 Q1010
                        R16/19//95=
201907150700 METAR LRBC 150700Z 33011KT 9999 SCT013 BKN025 17/15 Q1010
                        R16/19//95=
201907150730 METAR LRBC 150730Z 34012KT 9999 SCT014 OVC020 17/15 Q1010
                        R16/19//95=
201907150800 METAR LRBC 150800Z 35011KT 9999 FEW017 BKN022 18/15 Q1010
                        R16/19//95=
201907150830 METAR LRBC 150830Z 34013KT 9999 FEW015 BKN026 18/15 Q1010
                        R16/19//95=
201907150900 METAR LRBC 150900Z 33013KT 9999 -RA SCT013 BKN019 18/15 Q1010
                        R16/19//95=
201907150930 METAR LRBC 150930Z 33012KT 9999 FEW012 BKN020 18/16 Q1010
                        R16/CLRD//=
201907151000 METAR LRBC 151000Z 34011KT 9999 SCT013 BKN017 19/16 Q1011=
201907151030 METAR LRBC 151030Z 34010KT 9999 FEW013 BKN029 19/16 Q1011=
201907151100 METAR LRBC 151100Z 33009KT 9999 FEW014 BKN020 18/15 Q1011=
201907151130 METAR LRBC 151130Z 33010KT 9999 SCT014 BKN018 19/16 Q1011=
201907151200 METAR LRBC 151200Z 32008KT 9999 FEW017 BKN020 19/16 Q1011=
201907151230 METAR LRBC 151230Z 32009KT 9999 FEW015 BKN025 20/16 Q1011=
201907151300 METAR LRBC 151300Z 34005KT 9999 BKN020 20/15 Q1011=
201907151330 METAR LRBC 151330Z 31007KT 9999 SCT024 20/15 Q1011=
201907151400 METAR LRBC 151400Z 33007KT 9999 SCT025 20/15 Q1011=
201907151430 METAR LRBC 151430Z 33006KT 9999 SCT024 21/15 Q1011=
201907151500 METAR LRBC 151500Z 34007KT 9999 SCT024 21/15 Q1010=
201907151530 METAR LRBC 151530Z 32008KT 9999 SCT030 21/16 Q1010=
201907151600 METAR LRBC 151600Z 33010KT 9999 -RA FEW023 BKN035 20/15 Q1011=
201907151630 METAR LRBC 151630Z 34007KT 9999 -RA FEW023 SCT045 BKN065
                        18/16 Q1011=
201907151700 METAR LRBC 151700Z 34003KT 9999 -RA SCT045 BKN065 18/16 Q1011=
201907151730 METAR LRBC 151730Z 31005KT 9999 SCT045 BKN065 18/15 Q1011=
201907151800 METAR LRBC 151800Z 30003KT 9999 BKN065 18/15 Q1011=
201907151830 METAR LRBC 151830Z VRB01KT 9999 SCT065 18/16 Q1011=
201907151900 METAR LRBC 151900Z 35001KT 9999 SCT065 18/15 Q1011=
201907151930 METAR LRBC 151930Z 34002KT 9999 SCT065 18/15 Q1011=
201907152000 METAR LRBC 152000Z 00000KT 9999 SCT065 17/16 Q1011=
201907152030 METAR LRBC 152030Z 00000KT 9999 SCT065 17/16 Q1011=
201907152100 METAR LRBC 152100Z VRB01KT 9999 SCT065 17/15 Q1011=
201907152130 METAR LRBC 152130Z VRB01KT 9999 FEW065 17/15 Q1011=
201907152200 METAR LRBC 152200Z VRB01KT 9999 FEW065 16/15 Q1011=
201907152230 METAR LRBC 152230Z 00000KT CAVOK 16/15 Q1011=
201907152300 METAR LRBC 152300Z 08002KT CAVOK 16/15 Q1011=
201907152330 METAR LRBC 152330Z VRB01KT CAVOK 16/15 Q1011=
201907160000 METAR LRBC 160000Z 00000KT CAVOK 16/15 Q1011=
201907160030 METAR LRBC 160030Z 00000KT CAVOK 15/15 Q1011=
201907160100 METAR LRBC 160100Z AUTO 34003KT 9999 OVC120/// 15/14 Q1011=
201907160130 METAR LRBC 160130Z 03003KT 360V080 CAVOK 16/15 Q1011=
201907160200 METAR LRBC 160200Z 33003KT 9999 FEW060 15/14 Q1011=
201907160230 METAR LRBC 160230Z 35004KT 9999 FEW065 14/13 Q1011=
201907160300 METAR LRBC 160300Z AUTO 36005KT 9999 NCD 15/13 Q1012=
201907160330 METAR LRBC 160330Z 03003KT CAVOK 15/13 Q1012=
201907160400 METAR LRBC 160400Z 02003KT CAVOK 15/14 Q1012=
201907160430 METAR LRBC 160430Z 36004KT CAVOK 17/14 Q1012=
201907160500 METAR LRBC 160500Z 06003KT CAVOK 16/14 Q1012=
201907160530 METAR LRBC 160530Z 09003KT CAVOK 17/14 Q1012=
201907160600 METAR LRBC 160600Z 09003KT 040V140 CAVOK 18/15 Q1012=
201907160630 METAR LRBC 160630Z VRB01KT CAVOK 20/15 Q1012=
201907160700 METAR LRBC 160700Z 35006KT 310V050 CAVOK 21/13 Q1012=
201907160730 METAR LRBC 160730Z 33008KT 300V360 CAVOK 22/14 Q1012=
201907160800 METAR LRBC 160800Z 34008KT 310V010 9999 FEW039 22/13 Q1012=
201907160830 METAR LRBC 160830Z 32010KT 300V360 9999 FEW040 23/13 Q1012=
201907160900 METAR COR LRBC 160900Z 35008G21KT 300V060 9999 FEW048 23/12
                        Q1011=
201907160930 METAR LRBC 160930Z 36008KT 330V050 9999 SCT050 24/12 Q1011=
201907161000 METAR LRBC 161000Z 34010KT 9999 SCT050 23/11 Q1011=
201907161030 METAR LRBC 161030Z 35008KT 320V040 9999 SCT055 24/11 Q1011=
201907161100 METAR LRBC 161100Z 36007KT 330V030 9999 SCT050 25/12 Q1011=
201907161130 METAR LRBC 161130Z 35009KT 9999 SCT050 25/12 Q1011=
201907161200 METAR LRBC 161200Z 01008KT 9999 BKN055 24/12 Q1011=
201907161230 METAR LRBC 161230Z 06004KT 010V120 9999 BKN055 24/10 Q1011=
201907161300 METAR LRBC 161300Z 01008KT 350V060 9999 BKN060 25/11 Q1011=
201907161330 METAR LRBC 161330Z 36008KT 9999 BKN055 25/11 Q1010=
201907161400 METAR LRBC 161400Z 32005KT 280V350 9999 SCT055 25/11 Q1010=
201907161430 METAR LRBC 161430Z 35003KT 270V080 9999 FEW040 FEW055CB 25/11
                        Q1010=
201907161500 METAR LRBC 161500Z 34006KT 9999 FEW055CB 23/13 Q1010=
201907161530 METAR LRBC 161530Z 31005KT 9999 FEW055CB 24/12 Q1010=
201907161600 METAR LRBC 161600Z 27007KT 9999 VCSH FEW065CB 23/13 Q1010=
201907161630 METAR LRBC 161630Z 29009KT 9999 FEW065 22/13 Q1010=
201907161700 METAR LRBC 161700Z 28006KT CAVOK 22/13 Q1010=
201907161730 METAR LRBC 161730Z 00000KT CAVOK 22/14 Q1010=
201907161800 METAR LRBC 161800Z 08003KT CAVOK 21/14 Q1010=
201907161830 METAR LRBC 161830Z 13001KT CAVOK 20/14 Q1011=
201907161900 METAR LRBC 161900Z 14003KT CAVOK 19/14 Q1011=
201907161930 METAR LRBC 161930Z 00000KT CAVOK 18/15 Q1011=
201907162000 METAR LRBC 162000Z 07003KT CAVOK 18/14 Q1011=
201907162030 METAR LRBC 162030Z 06003KT CAVOK 18/14 Q1011=
201907162100 METAR LRBC 162100Z 00000KT CAVOK 17/14 Q1011=
201907162130 METAR LRBC 162130Z 00000KT CAVOK 16/14 Q1011=
201907162200 METAR LRBC 162200Z 00000KT CAVOK 16/14 Q1011=
201907162230 METAR LRBC 162230Z VRB01KT CAVOK 16/14 Q1011=
201907162300 METAR LRBC 162300Z 00000KT CAVOK 16/14 Q1011=
201907162330 METAR LRBC 162330Z 00000KT CAVOK 15/14 Q1011=
201907170000 METAR LRBC 170000Z AUTO 00000KT 9999 NCD 14/13 Q1011=
201907170030 METAR LRBC 170030Z AUTO 00000KT 9999 NCD 14/14 Q1011=
201907170100 METAR LRBC 170100Z AUTO 00000KT 9999 NCD 13/13 Q1011=
201907170130 METAR LRBC 170130Z 02001KT CAVOK 14/13 Q1010=
201907170200 METAR COR LRBC 170200Z 02001KT CAVOK 14/13 Q1010=
201907170230 METAR LRBC 170230Z 00000KT CAVOK 13/12 Q1010=
201907170300 METAR LRBC 170300Z 00000KT CAVOK 12/11 Q1010=
201907170330 METAR LRBC 170330Z 00000KT CAVOK 13/13 Q1010=
201907170400 METAR LRBC 170400Z 00000KT CAVOK 14/13 Q1010=
201907170430 METAR LRBC 170430Z 35005KT CAVOK 16/14 Q1011=
201907170500 METAR LRBC 170500Z 33008KT CAVOK 17/15 Q1011=
201907170530 METAR LRBC 170530Z 35008KT CAVOK 19/14 Q1011=
201907170600 METAR LRBC 170600Z 35010KT CAVOK 20/13 Q1011=
201907170630 METAR LRBC 170630Z 35010KT CAVOK 20/13 Q1011=
201907170700 METAR LRBC 170700Z 01009KT CAVOK 21/14 Q1011=
201907170730 METAR LRBC 170730Z 35008KT 310V030 CAVOK 22/14 Q1011=
201907170800 METAR LRBC 170800Z 33008KT 300V360 CAVOK 22/14 Q1011=
201907170830 METAR LRBC 170830Z VRB02KT CAVOK 22/13 Q1010=
201907170900 METAR LRBC 170900Z VRB02KT CAVOK 23/14 Q1010=
201907170930 METAR LRBC 170930Z VRB02KT CAVOK 23/13 Q1010=
201907171000 METAR LRBC 171000Z VRB02KT CAVOK 24/13 Q1010=
201907171030 METAR LRBC 171030Z VRB02KT CAVOK 25/14 Q1009=
201907171100 METAR LRBC 171100Z 04004KT CAVOK 26/15 Q1009=
201907171130 METAR LRBC 171130Z VRB01KT 9999 SCT065 26/16 Q1009=
201907171200 METAR LRBC 171200Z 18003KT 130V250 9999 SCT065 26/14 Q1009=
201907171230 METAR LRBC 171230Z 18004KT 140V260 9999 FEW042TCU SCT065
                        25/15 Q1008=
201907171300 METAR LRBC 171300Z 14003KT 9999 FEW030CB BKN065 25/17 Q1008=
201907171330 METAR LRBC 171330Z 15005KT 9999 FEW030CB SCT065 26/14 Q1008=
201907171400 METAR LRBC 171400Z 17003G17KT 130V210 9999 FEW030 SCT065
                        26/14 Q1008=
201907171430 METAR LRBC 171430Z 12003KT 090V180 9999 SCT065 27/15 Q1007=
201907171500 METAR LRBC 171500Z VRB02KT 9999 SCT065 27/15 Q1007=
201907171530 METAR LRBC 171530Z 12003KT 9999 FEW035CB SCT060 26/15 Q1007=
201907171600 METAR LRBC 171600Z 35005KT 310V020 9999 -RA FEW035CB SCT065
                        25/16 Q1008=
201907171630 METAR LRBC 171630Z 36008KT 9999 FEW035TCU BKN060 25/16 Q1008=
201907171700 METAR LRBC 171700Z 36009KT 9999 FEW035TCU SCT060 23/16 Q1008=
201907171730 METAR LRBC 171730Z 35009KT 9999 SCT035TCU 23/16 Q1009=
201907171800 METAR LRBC 171800Z 36006KT 9999 FEW035TCU 22/17 Q1009=
201907171830 METAR LRBC 171830Z 35007KT 9999 FEW065 22/16 Q1010=
201907171900 METAR LRBC 171900Z 33005KT CAVOK 20/16 Q1010=
201907171930 METAR LRBC 171930Z 33004KT CAVOK 19/16 Q1010=
201907172000 METAR LRBC 172000Z 33004KT 9999 SCT044 19/16 Q1011=
201907172030 METAR LRBC 172030Z AUTO 35010KT 9999 SCT046/// BKN060///
                        20/16 Q1011=
201907172100 METAR LRBC 172100Z 35008KT 9999 BKN047 20/16 Q1012=
201907172130 METAR LRBC 172130Z 33007KT 9999 FEW060 19/16 Q1012=
201907172200 METAR LRBC 172200Z 34009KT 9999 BKN060 19/15 Q1012=
201907172230 METAR LRBC 172230Z 35008KT CAVOK 18/15 Q1012=
201907172300 METAR LRBC 172300Z AUTO 33005KT 9999 SCT070/// 17/14 Q1012=
201907172330 METAR LRBC 172330Z 32004KT 9999 FEW050 17/14 Q1012=
201907180000 METAR LRBC 180000Z 34006KT CAVOK 15/13 Q1012=
201907180030 METAR LRBC 180030Z AUTO 31006KT 9999 BKN050/// 16/14 Q1012=
201907180100 METAR LRBC 180100Z 32006KT 9999 BKN055 17/14 Q1012=
201907180130 METAR LRBC 180130Z 33005KT 9999 SCT060 16/13 Q1012=
201907180200 METAR LRBC 180200Z 35004KT CAVOK 15/13 Q1012=
201907180230 METAR LRBC 180230Z 36003KT CAVOK 15/13 Q1013=
201907180300 METAR LRBC 180300Z 00000KT CAVOK 15/13 Q1013=
201907180330 METAR LRBC 180330Z VRB01KT CAVOK 16/14 Q1013=
201907180400 METAR LRBC 180400Z 00000KT CAVOK 16/14 Q1013=
201907180430 METAR LRBC 180430Z 00000KT CAVOK 17/15 Q1013=
201907180500 METAR LRBC 180500Z VRB01KT CAVOK 18/15 Q1013=
201907180530 METAR LRBC 180530Z VRB01KT CAVOK 19/14 Q1013=
201907180600 METAR LRBC 180600Z VRB01KT CAVOK 21/15 Q1013=
201907180630 METAR LRBC 180630Z 00000KT CAVOK 21/13 Q1013=
201907180700 METAR LRBC 180700Z 00000KT CAVOK 22/14 Q1013=
201907180730 METAR LRBC 180730Z 10004KT CAVOK 22/13 Q1013=
201907180800 METAR LRBC 180800Z VRB02KT CAVOK 23/13 Q1013=
201907180830 METAR LRBC 180830Z VRB02KT CAVOK 23/12 Q1013=
201907180900 METAR COR LRBC 180900Z 10004KT CAVOK 24/14 Q1013=
201907180930 METAR LRBC 180930Z 36005KT CAVOK 25/13 Q1013=
201907181000 METAR LRBC 181000Z 36005KT CAVOK 25/13 Q1013=
201907181030 METAR LRBC 181030Z 12005KT CAVOK 24/12 Q1013=
201907181100 METAR LRBC 181100Z VRB02KT CAVOK 25/13 Q1013=
201907181130 METAR LRBC 181130Z VRB01KT CAVOK 26/13 Q1013=
201907181200 METAR LRBC 181200Z VRB02KT CAVOK 26/12 Q1013=
201907181230 METAR LRBC 181230Z 36002KT CAVOK 25/12 Q1013=
201907181300 METAR LRBC 181300Z 36002KT CAVOK 25/11 Q1013=
201907181330 METAR LRBC 181330Z VRB03KT CAVOK 26/11 Q1013=
201907181400 METAR LRBC 181400Z VRB02KT CAVOK 26/13 Q1013=
201907181430 METAR LRBC 181430Z 10002KT CAVOK 26/12 Q1013=
201907181500 METAR LRBC 181500Z VRB01KT CAVOK 26/13 Q1012=
201907181530 METAR LRBC 181530Z 05003KT CAVOK 26/14 Q1013=
201907181600 METAR LRBC 181600Z 05003KT 360V090 CAVOK 25/14 Q1013=
201907181630 METAR LRBC 181630Z 06004KT CAVOK 25/14 Q1013=
201907181700 METAR LRBC 181700Z 06004KT CAVOK 24/14 Q1013=
201907181730 METAR LRBC 181730Z 03003KT CAVOK 23/15 Q1013=
201907181800 METAR LRBC 181800Z 03002KT CAVOK 22/14 Q1014=
201907181830 METAR LRBC 181830Z 02002KT CAVOK 22/14 Q1014=
201907181900 METAR LRBC 181900Z 00000KT CAVOK 19/15 Q1014=
201907181930 METAR LRBC 181930Z 31003KT CAVOK 18/15 Q1015=
201907182000 METAR LRBC 182000Z 31002KT 290V350 CAVOK 18/15 Q1015=
201907182030 METAR LRBC 182030Z 31002KT 250V360 CAVOK 18/15 Q1015=
201907182100 METAR LRBC 182100Z 34004KT CAVOK 18/15 Q1015=
201907182130 METAR LRBC 182130Z 35001KT 9999 SCT065 17/15 Q1015=
201907182200 METAR LRBC 182200Z 33003KT 9999 FEW065 17/15 Q1016=
201907182230 METAR LRBC 182230Z 33003KT 9999 FEW060 18/15 Q1016=
201907182300 METAR LRBC 182300Z AUTO 34003KT 9999 FEW170/// 17/15 Q1016=
201907182330 METAR LRBC 182330Z AUTO 33003KT 9999 BKN170/// 17/15 Q1016=
201907190000 METAR LRBC 190000Z AUTO 00000KT 9999 BKN170/// 18/14 Q1016=
201907190030 METAR LRBC 190030Z 00000KT 9999 SCT065 17/15 Q1016=
201907190100 METAR LRBC 190100Z 00000KT 9999 SCT065 17/15 Q1016=
201907190130 METAR LRBC 190130Z 00000KT 9999 SCT065 16/15 Q1016=
201907190200 METAR LRBC 190200Z VRB01KT 9999 FEW045 BKN065 17/15 Q1016=
201907190230 METAR LRBC 190230Z 29002KT 9999 -RA FEW045 BKN065 16/15 Q1016=
201907190300 METAR LRBC 190300Z 00000KT 9999 BKN065 16/15 Q1016=
201907190330 METAR LRBC 190330Z 00000KT 9999 SCT065 17/16 Q1017=
201907190400 METAR LRBC 190400Z 35006KT 9999 FEW065 17/16 Q1017=
201907190430 METAR LRBC 190430Z VRB01KT 9999 FEW065 18/16 Q1017=
201907190500 METAR LRBC 190500Z 06002KT 360V110 9999 FEW065 19/17 Q1017=
201907190530 METAR LRBC 190530Z 00000KT 9999 FEW065 20/16 Q1017=
201907190600 METAR LRBC 190600Z 18003KT 150V210 9999 SCT065 19/17 Q1017=
201907190630 METAR LRBC 190630Z VRB01KT 9999 FEW065 21/17 Q1017=
201907190700 METAR LRBC 190700Z 13003KT 080V180 9999 FEW065 22/16 Q1017=
201907190730 METAR LRBC 190730Z 10002KT 030V180 9999 FEW065 24/15 Q1017=
201907190800 METAR LRBC 190800Z VRB02KT 9999 FEW065 24/15 Q1017=
201907190830 METAR LRBC 190830Z VRB03KT 9999 FEW040 25/14 Q1017=
201907190900 METAR LRBC 190900Z 16002KT 080V230 9999 FEW040 25/14 Q1017=
201907190930 METAR LRBC 190930Z VRB03KT 9999 SCT040 26/13 Q1017=
201907191000 METAR LRBC 191000Z VRB02KT 9999 SCT040 26/12 Q1017=
201907191030 METAR COR LRBC 191030Z VRB02KT 9999 FEW035CB SCT040 26/12
                        Q1017=
201907191100 METAR COR LRBC 191100Z 34002KT 290V050 9999 VCTS FEW035CB
                        SCT050 26/13 Q1016=
201907191130 METAR LRBC 191130Z 22002KT 170V250 9999 VCSH VCTS FEW032CB
                        SCT065 27/14 Q1016=
201907191200 METAR LRBC 191200Z VRB03KT 9999 FEW040CB SCT050 28/13 Q1016=
201907191230 METAR LRBC 191230Z 09004KT 040V150 9999 FEW040CB SCT050 28/13
                        Q1016=
201907191300 METAR LRBC 191300Z 05005KT 360V120 9999 FEW045CB SCT060 28/13
                        Q1016=
201907191330 METAR LRBC 191330Z 04004KT 330V100 9999 FEW040CB SCT050 28/12
                        Q1016=
201907191400 METAR LRBC 191400Z 02005KT 330V050 9999 VCSH FEW040CB SCT065
                        27/12 Q1016=
201907191430 METAR LRBC 191430Z VRB05KT 9999 4000S +TSRA BKN028CB BKN060
                        21/17 Q1016=
201907191500 METAR LRBC 191500Z 19008KT 9999 -TSRA FEW031CB SCT065 21/17
                        Q1017 RETSRA=
201907191530 METAR LRBC 191530Z 22004KT 180V250 9999 FEW030CB SCT065 23/17
                        Q1017=
201907191600 METAR LRBC 191600Z 25001KT 9999 FEW065 23/16 Q1016=
201907191630 METAR LRBC 191630Z 00000KT 9999 FEW060 24/17 Q1016=
201907191700 METAR LRBC 191700Z 00000KT 9999 FEW060 22/19 Q1017=
201907191730 METAR LRBC 191730Z 00000KT 9999 FEW060 21/18 Q1017=
201907191800 METAR LRBC 191800Z 00000KT CAVOK 20/18 Q1017=
201907191830 METAR LRBC 191830Z 00000KT CAVOK 20/18 Q1017=
201907191900 METAR LRBC 191900Z 00000KT CAVOK 20/18 Q1017=
201907191930 METAR LRBC 191930Z 00000KT CAVOK 19/18 Q1017=
201907192000 METAR LRBC 192000Z 00000KT CAVOK 19/17 Q1018=
201907192030 METAR LRBC 192030Z 00000KT CAVOK 18/17 Q1018=
201907192100 METAR LRBC 192100Z 00000KT CAVOK 18/17 Q1018=
201907192130 METAR LRBC 192130Z 00000KT CAVOK 17/16 Q1018=
201907192200 METAR LRBC 192200Z 00000KT CAVOK 17/16 Q1018=
201907192230 METAR LRBC 192230Z 00000KT CAVOK 17/16 Q1018=
201907192300 METAR LRBC 192300Z 00000KT CAVOK 17/16 Q1018=
201907192330 METAR LRBC 192330Z AUTO 00000KT 9999 NCD 16/15 Q1018=
201907200000 METAR LRBC 200000Z 00000KT CAVOK 16/16 Q1018=
201907200030 METAR LRBC 200030Z AUTO 00000KT 9999 NCD 16/15 Q1018=
201907200100 METAR LRBC 200100Z AUTO 00000KT 9999 NCD 16/15 Q1018=
201907200130 METAR LRBC 200130Z 00000KT CAVOK 14/14 Q1018=
201907200200 METAR LRBC 200200Z 00000KT CAVOK 15/15 Q1018=
201907200230 METAR LRBC 200230Z 00000KT CAVOK 15/15 Q1018=
201907200300 METAR LRBC 200300Z 00000KT CAVOK 15/14 Q1018=
201907200330 METAR LRBC 200330Z 00000KT CAVOK 16/15 Q1019=
201907200400 METAR LRBC 200400Z 00000KT CAVOK 17/16 Q1019=
201907200430 METAR COR LRBC 200430Z 00000KT CAVOK 18/16 Q1019=
201907200500 METAR LRBC 200500Z 00000KT CAVOK 19/17 Q1019=
201907200530 METAR LRBC 200530Z 00000KT CAVOK 21/17 Q1019=
201907200600 METAR LRBC 200600Z 00000KT CAVOK 22/17 Q1019=
201907200630 METAR LRBC 200630Z VRB01KT CAVOK 22/18 Q1019=
201907200700 METAR LRBC 200700Z VRB01KT CAVOK 22/18 Q1019=
201907200730 METAR LRBC 200730Z 22001KT CAVOK 24/17 Q1019=
201907200800 METAR LRBC 200800Z 26002KT 9999 NCD 25/17 Q1019=
201907200830 METAR LRBC 200830Z VRB01KT CAVOK 26/16 Q1019=
201907200900 METAR LRBC 200900Z 14002KT CAVOK 27/16 Q1019=
201907200930 METAR LRBC 200930Z 10002KT CAVOK 28/15 Q1019=
201907201000 METAR LRBC 201000Z 04002KT 310V120 CAVOK 29/14 Q1019=
201907201030 METAR LRBC 201030Z 04003KT CAVOK 29/14 Q1019=
201907201100 METAR LRBC 201100Z VRB02KT 9999 FEW045 29/12 Q1018=
201907201130 METAR LRBC 201130Z VRB02KT 9999 FEW045 29/13 Q1018=
201907201200 METAR LRBC 201200Z VRB02KT 9999 FEW045 30/12 Q1018=
201907201230 METAR LRBC 201230Z 21003KT 9999 FEW045 30/14 Q1018=
201907201300 METAR LRBC 201300Z VRB02KT 9999 SCT055 30/13 Q1018=
201907201330 METAR LRBC 201330Z 16003KT 9999 SCT055 30/14 Q1017=
201907201400 METAR LRBC 201400Z 16005KT 120V210 9999 SCT045 30/13 Q1017=
201907201430 METAR LRBC 201430Z 20002KT 160V240 9999 FEW045CB SCT055 29/13
                        Q1018=
201907201500 METAR LRBC 201500Z 00000KT 9999 TS SCT040CB SCT055 28/18
                        Q1018=
201907201530 METAR LRBC 201530Z 34007G17KT 320V020 9999 TS SCT040CB BKN055
                        27/17 Q1018=
201907201600 METAR LRBC 201600Z 28009KT 260V320 9999 TSRA SCT040CB BKN055
                        21/18 Q1019=
201907201630 METAR LRBC 201630Z VRB01KT 9999 TSRA FEW025 SCT042 BKN050CB
                        21/18 Q1019 RETSRA=
201907201700 METAR LRBC 201700Z 04005KT 360V060 9999 SCT022 SCT050CB 22/20
                        Q1019=
201907201730 METAR LRBC 201730Z 01003KT 350V050 9999 SCT040 22/20 Q1019=
201907201800 METAR LRBC 201800Z 33002KT 290V020 CAVOK 21/19 Q1019=
201907201830 METAR LRBC 201830Z 33003KT 310V010 CAVOK 20/19 Q1019 R16/210295=
201907201900 METAR LRBC 201900Z 03004KT 360V060 CAVOK 20/19 Q1019 R16/210295=
201907201930 METAR LRBC 201930Z 00000KT CAVOK 19/18 Q1020 R16/210295=
201907202000 METAR LRBC 202000Z 30003KT CAVOK 18/17 Q1020 R16/210295=
201907202030 METAR LRBC 202030Z VRB01KT CAVOK 18/17 Q1020 R16/210295=
201907202100 METAR LRBC 202100Z 00000KT CAVOK 18/17 Q1020 R16/210295=
201907202130 METAR LRBC 202130Z 00000KT CAVOK 18/17 Q1020 R16/210295=
201907202200 METAR LRBC 202200Z 00000KT CAVOK 17/16 Q1020 R16/210295=
201907202230 METAR LRBC 202230Z AUTO VRB01KT 9999 NCD 17/16 Q1020=
201907202300 METAR COR LRBC 202300Z 00000KT CAVOK 17/16 Q1020 R16/210295=
201907202330 METAR LRBC 202330Z 34001KT CAVOK 16/16 Q1020 R16/210295=
201907210000 METAR LRBC 210000Z 00000KT CAVOK 16/15 Q1020 R16/210295=
201907210030 METAR LRBC 210030Z AUTO 00000KT 9999 NCD 16/16 Q1020=
201907210100 METAR LRBC 210100Z 00000KT CAVOK 16/16 Q1020 R16/210295=
201907210130 METAR LRBC 210130Z 34003KT CAVOK 15/15 Q1020 R16/210295=
201907210200 METAR COR LRBC 210200Z 03002KT CAVOK 16/16 Q1020 R16/210295=
201907210230 METAR COR LRBC 210230Z 00000KT CAVOK 15/15 Q1020=
201907210300 METAR LRBC 210300Z 31002KT CAVOK 14/14 Q1020=
201907210330 METAR LRBC 210330Z 00000KT CAVOK 15/15 Q1020=
201907210400 METAR LRBC 210400Z 00000KT CAVOK 16/16 Q1020=
201907210430 METAR LRBC 210430Z 00000KT CAVOK 19/17 Q1020=
201907210500 METAR LRBC 210500Z 00000KT CAVOK 19/17 Q1020=
201907210530 METAR LRBC 210530Z 00000KT CAVOK 20/17 Q1020=
201907210600 METAR LRBC 210600Z 00000KT CAVOK 21/18 Q1020=
201907210630 METAR LRBC 210630Z 00000KT CAVOK 22/18 Q1020=
201907210700 METAR LRBC 210700Z VRB01KT CAVOK 24/18 Q1020=
201907210730 METAR LRBC 210730Z VRB01KT CAVOK 25/19 Q1020=
201907210800 METAR LRBC 210800Z 00000KT CAVOK 26/18 Q1020=
201907210830 METAR LRBC 210830Z VRB01KT CAVOK 27/18 Q1019=
201907210900 METAR LRBC 210900Z VRB01KT CAVOK 28/19 Q1019=
201907210930 METAR LRBC 210930Z VRB01KT CAVOK 28/17 Q1019=
201907211000 METAR LRBC 211000Z VRB01KT CAVOK 29/16 Q1019=
201907211030 METAR LRBC 211030Z 23003KT 200V280 CAVOK 30/15 Q1019=
201907211100 METAR LRBC 211100Z VRB01KT 9999 FEW040CB 30/15 Q1019=
201907211130 METAR LRBC 211130Z VRB01KT 9999 FEW040CB 30/15 Q1019=
201907211200 METAR LRBC 211200Z 24003KT 9999 FEW040CB 31/14 Q1019=
201907211230 METAR LRBC 211230Z 23002KT 9999 FEW040CB 31/15 Q1018=
201907211300 METAR LRBC 211300Z VRB01KT 9999 FEW040CB 32/17 Q1018=
201907211330 METAR LRBC 211330Z 17005KT 9999 FEW050 30/15 Q1018=
201907211400 METAR LRBC 211400Z 18003KT 9999 FEW060 31/15 Q1018=
201907211430 METAR LRBC 211430Z 24004KT 9999 FEW060 31/16 Q1018=
201907211500 METAR LRBC 211500Z 25008KT 9999 FEW060 30/17 Q1018=
201907211530 METAR LRBC 211530Z 25006KT 9999 FEW065 30/15 Q1018=
201907211600 METAR LRBC 211600Z 23003KT 210V270 9999 FEW065 29/17 Q1018=
201907211630 METAR LRBC 211630Z 17003KT 110V210 CAVOK 29/17 Q1018=
201907211700 METAR LRBC 211700Z 00000KT CAVOK 29/17 Q1018=
201907211730 METAR LRBC 211730Z 18002KT 140V250 CAVOK 26/19 Q1018=
201907211800 METAR LRBC 211800Z 00000KT CAVOK 25/19 Q1018=
201907211830 METAR LRBC 211830Z 00000KT CAVOK 24/19 Q1018=
201907211900 METAR LRBC 211900Z 00000KT CAVOK 23/18 Q1018=
201907211930 METAR LRBC 211930Z 00000KT CAVOK 23/19 Q1018=
201907212000 METAR LRBC 212000Z 00000KT CAVOK 21/19 Q1019=
201907212030 METAR LRBC 212030Z 27002KT CAVOK 20/18 Q1019=
201907212100 METAR LRBC 212100Z 00000KT CAVOK 20/19 Q1019=
201907212130 METAR LRBC 212130Z 00000KT CAVOK 20/19 Q1019=
201907212200 METAR LRBC 212200Z 00000KT CAVOK 20/18 Q1019=
201907212230 METAR LRBC 212230Z 04004KT CAVOK 21/18 Q1019=
201907212300 METAR LRBC 212300Z AUTO VRB01KT 9999 NCD 19/18 Q1019=
201907212330 METAR LRBC 212330Z 00000KT CAVOK 19/18 Q1019=
201907220000 METAR LRBC 220000Z 35003KT CAVOK 20/18 Q1019=
201907220030 METAR LRBC 220030Z 03004KT 350V050 9999 FEW065 20/19 Q1019=
201907220100 METAR LRBC 220100Z 34005KT CAVOK 19/18 Q1019=
201907220130 METAR LRBC 220130Z 35005KT CAVOK 19/18 Q1019=
201907220200 METAR LRBC 220200Z 34003KT CAVOK 19/17 Q1019=
201907220230 METAR LRBC 220230Z AUTO 00000KT 9999 NCD 19/17 Q1019=
201907220300 METAR LRBC 220300Z 03002KT CAVOK 18/17 Q1019=
201907220330 METAR LRBC 220330Z 05002KT CAVOK 19/18 Q1020=
201907220400 METAR LRBC 220400Z VRB01KT CAVOK 20/18 Q1020=
201907220430 METAR LRBC 220430Z 00000KT CAVOK 21/18 Q1020=
201907220500 METAR LRBC 220500Z 00000KT CAVOK 23/18 Q1019=
201907220530 METAR LRBC 220530Z 11003KT 050V140 CAVOK 23/19 Q1019=
201907220600 METAR LRBC 220600Z VRB01KT CAVOK 24/19 Q1020=
201907220630 METAR LRBC 220630Z 34005KT CAVOK 25/19 Q1020=
201907220700 METAR LRBC 220700Z 36008KT 330V030 CAVOK 25/18 Q1020=
201907220730 METAR LRBC 220730Z 35008KT CAVOK 26/18 Q1020=
201907220800 METAR LRBC 220800Z 02006KT 9999 FEW040TCU 26/17 Q1020=
201907220830 METAR LRBC 220830Z 36007KT 340V040 9999 FEW040CB 26/18 Q1020=
201907220900 METAR LRBC 220900Z 03006KT 340V070 9999 FEW045 27/19 Q1020=
201907220930 METAR LRBC 220930Z 34006KT 9999 FEW040 28/18 Q1019=
201907221000 METAR LRBC 221000Z 35007KT 320V020 9999 FEW045 27/19 Q1019=
201907221030 METAR LRBC 221030Z 34007KT 310V010 9999 FEW045 27/18 Q1019=
201907221100 METAR LRBC 221100Z 34005KT 310V040 CAVOK 27/18 Q1019=
201907221130 METAR LRBC 221130Z 34004KT 290V020 9999 FEW040 29/19 Q1019=
201907221200 METAR COR LRBC 221200Z 33004KT 280V010 9999 FEW040 29/19
                        Q1018=
201907221230 METAR LRBC 221230Z 01005KT 330V080 9999 FEW045 29/18 Q1018=
201907221300 METAR LRBC 221300Z 02004KT 300V090 9999 FEW045TCU 29/17 Q1018=
201907221330 METAR LRBC 221330Z 01005KT 340V090 9999 VCSH FEW040CB 29/17
                        Q1018=
201907221400 METAR LRBC 221400Z 36007KT 330V070 9999 VCSH FEW045CB SCT055
                        28/17 Q1018=
201907221430 METAR LRBC 221430Z 02009KT 350V050 9999 FEW050CB SCT055 26/18
                        Q1018=
201907221500 METAR LRBC 221500Z 34006KT 9999 FEW049CB SCT055 27/19 Q1018=
201907221530 METAR LRBC 221530Z 35008KT 9999 FEW050CB SCT060 26/19 Q1018=
201907221600 METAR LRBC 221600Z 33008KT 9999 TS VCSH FEW050CB 26/20 Q1018=
201907221630 METAR LRBC 221630Z 32012KT 9999 -TSRA FEW040 SCT050CB 23/21
                        Q1018 RESHRA=
201907221700 METAR LRBC 221700Z 32006KT 9999 SCT050CB 23/21 Q1018 RETS=
201907221730 METAR LRBC 221730Z 33007KT 290V360 9999 -SHRA SCT050CB 22/21
                        Q1018=
201907221800 METAR LRBC 221800Z 34004KT 9999 SCT050CB 22/20 Q1019=
201907221830 METAR LRBC 221830Z VRB02KT 9999 FEW050CB 21/19 Q1019=
201907221900 METAR LRBC 221900Z 10001KT 9999 SCT055 21/20 Q1019=
201907221930 METAR LRBC 221930Z 00000KT 9999 FEW060 21/20 Q1019=
201907222000 METAR LRBC 222000Z VRB02KT CAVOK 20/19 Q1019=
201907222030 METAR LRBC 222030Z 36004KT 320V020 9999 FEW060 20/18 Q1019
                        R16/19//95=
201907222100 METAR LRBC 222100Z 03004KT 360V090 CAVOK 20/19 Q1019 R16/19//95=
201907222130 METAR LRBC 222130Z 04004KT 360V070 CAVOK 20/19 Q1019 R16/19//95=
201907222200 METAR LRBC 222200Z 01003KT CAVOK 20/19 Q1019 R16/19//95=
201907222230 METAR LRBC 222230Z 02004KT 340V050 CAVOK 21/19 Q1019 R16/19//95=
201907222300 METAR LRBC 222300Z 02003KT 340V070 CAVOK 20/19 Q1019 R16/19//95=
201907222330 METAR LRBC 222330Z AUTO VRB01KT 9999 BKN130/// 20/19 Q1018
                        RERA=
201907230000 METAR LRBC 230000Z AUTO 36003KT 330V040 9999 FEW095/// BKN130///
                        20/18 Q1019=
201907230030 METAR LRBC 230030Z 00000KT CAVOK 20/18 Q1019 R16/19//95=
201907230100 METAR LRBC 230100Z 03004KT 350V060 CAVOK 20/18 Q1018 R16/19//95=
201907230130 METAR LRBC 230130Z 03004KT CAVOK 19/18 Q1018 R16/19//95=
201907230200 METAR LRBC 230200Z 06003KT CAVOK 19/18 Q1018 R16/19//95=
201907230230 METAR LRBC 230230Z 00000KT CAVOK 18/18 Q1018 R16/19//95=
201907230300 METAR LRBC 230300Z 00000KT CAVOK 18/17 Q1018 R16/19//95=
201907230330 METAR LRBC 230330Z 00000KT CAVOK 18/18 Q1018 R16/19//95=
201907230400 METAR LRBC 230400Z 00000KT CAVOK 19/18 Q1018 R16/19//95=
201907230430 METAR LRBC 230430Z 00000KT 9999 FEW055 20/18 Q1018 R16/CLRD//=
201907230500 METAR LRBC 230500Z 00000KT 9999 BKN055 20/19 Q1018=
201907230530 METAR LRBC 230530Z 00000KT 9999 BKN055 20/19 Q1017=
201907230600 METAR LRBC 230600Z 00000KT 9999 BKN060 21/19 Q1017=
201907230630 METAR COR LRBC 230630Z 00000KT 9999 BKN060 21/19 Q1018=
201907230700 METAR LRBC 230700Z 35009KT 9999 SHRA FEW040CB OVC050 21/18
                        Q1018=
201907230730 METAR LRBC 230730Z 31007KT 7000 RA FEW040CB OVC050 19/19
                        Q1018 R16/220295=
201907230800 METAR LRBC 230800Z 32005KT 9999 RA FEW040CB SCT047 BKN065
                        20/19 Q1018 R16/220295=
201907230830 METAR LRBC 230830Z 29003KT 260V320 9999 -RA FEW036CB BKN046
                        BKN065 20/18 Q1018 RERA R16/220295=
201907230900 METAR LRBC 230900Z 32002KT 290V010 9999 -RA FEW036CB BKN046
                        BKN065 20/18 Q1018 R16/220295=
201907230930 METAR LRBC 230930Z 01004KT 330V040 9999 -RA FEW036CB BKN040
                        BKN055 21/19 Q1018 R16/220295=
201907231000 METAR LRBC 231000Z 34009KT 8000 SHRA SCT030CB BKN036 BKN055
                        19/18 Q1018 R16/220295=
201907231030 METAR LRBC 231030Z 31005KT 9999 -SHRA FEW032CB SCT038 BKN046
                        19/18 Q1018 RESHRA R16/220295=
201907231100 METAR LRBC 231100Z 36004KT 310V070 9999 FEW038CB SCT044 BKN065
                        21/19 Q1018 R16/220295=
201907231130 METAR LRBC 231130Z 35006KT 310V030 9999 FEW040CB SCT049 BKN065
                        22/19 Q1018 R16/220295=
201907231200 METAR LRBC 231200Z 35007KT 9999 FEW040CB SCT049 BKN060 21/18
                        Q1017 R16/220295=
201907231230 METAR LRBC 231230Z 33005KT 9999 -RA FEW040CB SCT065 22/17
                        Q1017 R16/220295=
201907231300 METAR LRBC 231300Z 32006KT 300V360 9999 FEW041CB BKN065 22/17
                        Q1017 R16/220295=
201907231330 METAR LRBC 231330Z 29006KT 260V320 9999 -SHRA FEW041CB BKN065
                        22/17 Q1017 R16/220295=
201907231400 METAR LRBC 231400Z 29003KT 250V350 9999 -SHRA FEW038CB SCT044
                        BKN065 21/18 Q1016 R16/11//95=
201907231430 METAR LRBC 231430Z 32003KT 290V360 9999 -SHRA FEW038CB BKN047
                        21/18 Q1016 R16/11//95=
201907231500 METAR LRBC 231500Z 33003KT 300V360 9999 FEW036 SCT065 22/18
                        Q1016 R16/19//95=
201907231530 METAR LRBC 231530Z 34005KT 9999 SCT065 22/18 Q1016 R16/19//95=
201907231600 METAR LRBC 231600Z 34005KT 320V020 9999 SCT065 22/17 Q1016
                        R16/19//95=
201907231630 METAR LRBC 231630Z 31003KT 9999 SCT065 21/18 Q1015 R16/CLRD//=
201907231700 METAR LRBC 231700Z VRB02KT CAVOK 21/18 Q1016=
201907231730 METAR LRBC 231730Z 32002KT CAVOK 21/18 Q1015=
201907231800 METAR LRBC 231800Z 00000KT CAVOK 20/18 Q1016=
201907231830 METAR LRBC 231830Z 00000KT CAVOK 20/18 Q1016=
201907231900 METAR LRBC 231900Z 00000KT CAVOK 19/18 Q1016=
201907231930 METAR LRBC 231930Z 00000KT CAVOK 19/18 Q1016=
201907232000 METAR LRBC 232000Z 31003KT CAVOK 17/17 Q1016=
201907232030 METAR LRBC 232030Z 35004KT CAVOK 17/17 Q1016=
201907232100 METAR LRBC 232100Z 36006KT CAVOK 18/17 Q1016=
201907232130 METAR LRBC 232130Z 34006KT CAVOK 18/16 Q1016=
201907232200 METAR LRBC 232200Z 36004KT CAVOK 18/16 Q1016=
201907232230 METAR LRBC 232230Z 01003KT 340V040 CAVOK 17/15 Q1016=
201907232300 METAR LRBC 232300Z 01004KT CAVOK 17/15 Q1016=
201907232330 METAR LRBC 232330Z 02003KT 350V060 CAVOK 17/15 Q1016=
201907240000 METAR COR LRBC 240000Z 05003KT 010V070 CAVOK 17/15 Q1016=
201907240030 METAR LRBC 240030Z 05003KT CAVOK 16/15 Q1016=
201907240100 METAR LRBC 240100Z 04004KT CAVOK 16/15 Q1016=
201907240130 METAR LRBC 240130Z AUTO 03004KT 9999 NCD 16/15 Q1016=
201907240200 METAR LRBC 240200Z VRB02KT CAVOK 15/14 Q1016=
201907240230 METAR LRBC 240230Z 02004KT CAVOK 15/15 Q1016=
201907240300 METAR LRBC 240300Z 04003KT CAVOK 15/15 Q1016=
201907240330 METAR LRBC 240330Z 03003KT CAVOK 16/15 Q1016=
201907240400 METAR LRBC 240400Z 04004KT CAVOK 16/15 Q1016=
201907240430 METAR LRBC 240430Z 03003KT 360V060 CAVOK 17/15 Q1016=
201907240500 METAR LRBC 240500Z VRB01KT CAVOK 19/16 Q1016=
201907240530 METAR LRBC 240530Z 05004KT CAVOK 20/16 Q1016=
201907240600 METAR LRBC 240600Z 35006KT CAVOK 21/16 Q1016=
201907240630 METAR LRBC 240630Z 35007KT CAVOK 22/17 Q1016=
201907240700 METAR LRBC 240700Z 35009KT CAVOK 23/16 Q1016=
201907240730 METAR LRBC 240730Z 34011KT CAVOK 23/16 Q1016=
201907240800 METAR LRBC 240800Z 01008KT 9999 FEW034 24/16 Q1016=
201907240830 METAR LRBC 240830Z 02011KT 9999 FEW037 24/14 Q1016=
201907240900 METAR LRBC 240900Z 36009KT 9999 FEW048 25/14 Q1016=
201907240930 METAR LRBC 240930Z 34010KT 9999 FEW045 24/14 Q1016=
201907241000 METAR LRBC 241000Z 35012KT 9999 FEW046 25/14 Q1016=
201907241030 METAR LRBC 241030Z 35011G21KT 9999 FEW050 26/15 Q1016=
201907241100 METAR LRBC 241100Z 34011KT 9999 FEW055 26/15 Q1016=
201907241130 METAR LRBC 241130Z 35012KT 9999 FEW055 25/13 Q1016=
201907241200 METAR LRBC 241200Z 35010KT 9999 SCT055 25/14 Q1016=
201907241230 METAR LRBC 241230Z AUTO 34010KT 9999 BKN095/// 25/14 Q1016=
201907241300 METAR LRBC 241300Z 34009KT 9999 BKN055 24/14 Q1016=
201907241330 METAR LRBC 241330Z 32007KT 9999 BKN055 24/14 Q1016=
201907241400 METAR LRBC 241400Z 31007KT 9999 BKN060 25/14 Q1016=
201907241430 METAR LRBC 241430Z 31009KT CAVOK 25/14 Q1016=
201907241500 METAR LRBC 241500Z 31009KT CAVOK 25/15 Q1015=
201907241530 METAR LRBC 241530Z 31008KT CAVOK 25/15 Q1015=
201907241600 METAR LRBC 241600Z 32007KT CAVOK 25/15 Q1015=
201907241630 METAR LRBC 241630Z 33005KT CAVOK 25/15 Q1015=
201907241700 METAR LRBC 241700Z 31004KT CAVOK 24/15 Q1016=
201907241730 METAR LRBC 241730Z 31003KT CAVOK 23/16 Q1016=
201907241800 METAR LRBC 241800Z 00000KT CAVOK 22/16 Q1016=
201907241830 METAR LRBC 241830Z 31002KT CAVOK 21/16 Q1016=
201907241900 METAR LRBC 241900Z 32003KT CAVOK 19/15 Q1017=
201907241930 METAR LRBC 241930Z AUTO 33004KT 9999 NCD 19/14 Q1017=
201907242000 METAR LRBC 242000Z 34004KT CAVOK 18/14 Q1017=
201907242030 METAR COR LRBC 242030Z 02003KT CAVOK 19/14 Q1017=
201907242100 METAR LRBC 242100Z 01003KT CAVOK 19/14 Q1017=
201907242130 METAR LRBC 242130Z 02003KT CAVOK 18/14 Q1017=
201907242200 METAR LRBC 242200Z 06004KT CAVOK 18/15 Q1017=
201907242230 METAR LRBC 242230Z VRB02KT CAVOK 16/14 Q1017=
201907242300 METAR LRBC 242300Z AUTO 00000KT 9999 NCD 16/15 Q1017=
201907242330 METAR LRBC 242330Z AUTO 00000KT 9999 NCD 15/14 Q1017=
201907250000 METAR LRBC 250000Z 00000KT CAVOK 15/14 Q1017=
201907250030 METAR LRBC 250030Z AUTO 03003KT 9999 NCD 15/14 Q1017=
201907250100 METAR LRBC 250100Z AUTO 33002KT 290V020 9999 NCD 14/13 Q1017=
201907250130 METAR LRBC 250130Z 00000KT CAVOK 15/14 Q1017=
201907250200 METAR LRBC 250200Z VRB01KT CAVOK 14/13 Q1017=
201907250230 METAR COR LRBC 250230Z 00000KT CAVOK 14/14 Q1017=
201907250300 METAR LRBC 250300Z 31001KT CAVOK 14/14 Q1018=
201907250330 METAR LRBC 250330Z 35002KT CAVOK 14/13 Q1018=
201907250400 METAR LRBC 250400Z 04002KT CAVOK 17/15 Q1018=
201907250430 METAR LRBC 250430Z 05003KT CAVOK 17/16 Q1018=
201907250500 METAR LRBC 250500Z 04002KT CAVOK 19/16 Q1018=
201907250530 METAR LRBC 250530Z VRB02KT CAVOK 20/16 Q1018=
201907250600 METAR LRBC 250600Z VRB02KT CAVOK 22/16 Q1018=
201907250630 METAR LRBC 250630Z 34006KT CAVOK 23/16 Q1018=
201907250700 METAR LRBC 250700Z 35005KT 310V020 9999 FEW040 24/16 Q1018=
201907250730 METAR LRBC 250730Z 35007KT 310V010 9999 FEW040 24/17 Q1018=
201907250800 METAR LRBC 250800Z 35009KT 9999 FEW040 25/18 Q1018=
201907250830 METAR LRBC 250830Z 35010KT 320V040 9999 FEW045 26/17 Q1018=
201907250900 METAR LRBC 250900Z 35009KT 320V020 9999 FEW045 26/16 Q1018=
201907250930 METAR LRBC 250930Z 33011KT 9999 SCT045 26/15 Q1018=
201907251000 METAR LRBC 251000Z 03009KT 350V050 9999 SCT045 27/15 Q1018=
201907251030 METAR LRBC 251030Z 35009KT 9999 SCT050 27/16 Q1017=
201907251100 METAR LRBC 251100Z 36009KT 330V030 9999 BKN050 28/15 Q1017=
201907251130 METAR LRBC 251130Z 35008KT 320V060 9999 BKN055 27/16 Q1017=
201907251200 METAR COR LRBC 251200Z 01010KT 310V060 9999 SCT055 28/15
                        Q1017=
201907251230 METAR LRBC 251230Z 35010KT 320V020 9999 SCT055 26/15 Q1017=
201907251300 METAR LRBC 251300Z 34007KT 300V360 9999 SCT055 28/16 Q1017=
201907251330 METAR LRBC 251330Z 32008KT 290V360 9999 SCT055 28/15 Q1017=
201907251400 METAR LRBC 251400Z 30007KT 9999 SCT060 28/15 Q1017=
201907251430 METAR LRBC 251430Z 31006KT 270V340 9999 SCT060 28/15 Q1016=
201907251500 METAR LRBC 251500Z 33009KT 290V360 9999 FEW060 28/14 Q1016=
201907251530 METAR LRBC 251530Z 33007KT 9999 FEW060 28/14 Q1016=
201907251600 METAR LRBC 251600Z 32006KT CAVOK 27/15 Q1016=
201907251630 METAR LRBC 251630Z 31005KT 270V340 CAVOK 27/16 Q1016=
201907251700 METAR LRBC 251700Z 28004KT CAVOK 26/17 Q1016=
201907251730 METAR LRBC 251730Z 29003KT CAVOK 24/17 Q1016=
201907251800 METAR LRBC 251800Z 30002KT CAVOK 22/16 Q1016=
201907251830 METAR LRBC 251830Z VRB01KT CAVOK 22/16 Q1017=
201907251900 METAR LRBC 251900Z 11003KT 070V130 CAVOK 21/16 Q1017=
201907251930 METAR LRBC 251930Z 03003KT CAVOK 21/16 Q1017=
201907252000 METAR LRBC 252000Z 01002KT CAVOK 19/17 Q1017=
201907252030 METAR LRBC 252030Z 31003KT 280V340 CAVOK 19/17 Q1017=
201907252100 METAR LRBC 252100Z VRB01KT CAVOK 19/17 Q1016=
201907252130 METAR LRBC 252130Z 13003KT CAVOK 18/16 Q1016=
201907252200 METAR LRBC 252200Z 07002KT CAVOK 18/16 Q1016=
201907252230 METAR LRBC 252230Z 00000KT CAVOK 18/16 Q1016=
201907252300 METAR LRBC 252300Z 00000KT CAVOK 17/16 Q1016=
201907252330 METAR LRBC 252330Z AUTO 00000KT 9999 NCD 17/16 Q1016=
201907260000 METAR LRBC 260000Z 00000KT CAVOK 17/16 Q1016=
201907260030 METAR LRBC 260030Z 00000KT CAVOK 17/16 Q1015=
201907260100 METAR LRBC 260100Z 00000KT CAVOK 17/16 Q1015=
201907260130 METAR LRBC 260130Z AUTO 00000KT 9999 NCD 16/16 Q1015=
201907260200 METAR LRBC 260200Z 00000KT CAVOK 16/16 Q1015=
201907260230 METAR LRBC 260230Z 00000KT CAVOK 15/15 Q1015=
201907260300 METAR LRBC 260300Z 00000KT CAVOK 15/15 Q1015=
201907260330 METAR COR LRBC 260330Z 00000KT CAVOK 15/15 Q1014=
201907260400 METAR LRBC 260400Z 00000KT CAVOK 17/16 Q1014=
201907260430 METAR LRBC 260430Z 27002KT 250V320 CAVOK 18/17 Q1014=
201907260500 METAR LRBC 260500Z 28001KT CAVOK 18/16 Q1014=
201907260530 METAR LRBC 260530Z VRB01KT CAVOK 20/17 Q1014=
201907260600 METAR LRBC 260600Z 00000KT CAVOK 21/17 Q1014=
201907260630 METAR LRBC 260630Z 00000KT CAVOK 23/18 Q1014=
201907260700 METAR LRBC 260700Z VRB01KT CAVOK 24/18 Q1014=
201907260730 METAR LRBC 260730Z 19003KT 130V240 CAVOK 25/18 Q1013=
201907260800 METAR LRBC 260800Z 16003KT 090V220 9999 FEW040 26/19 Q1013=
201907260830 METAR LRBC 260830Z 15003KT 110V200 9999 FEW040 27/18 Q1013=
201907260900 METAR LRBC 260900Z 12003KT 050V210 9999 FEW040 28/19 Q1013=
201907260930 METAR LRBC 260930Z VRB03KT 9999 FEW040 30/16 Q1012=
201907261000 METAR LRBC 261000Z VRB02KT 9999 FEW043 30/12 Q1012=
201907261030 METAR LRBC 261030Z 06004KT 360V170 9999 FEW050 29/13 Q1012=
201907261100 METAR LRBC 261100Z AUTO 05003KT 330V110 9999 FEW095/// SCT110///
                        30/14 Q1012=
201907261130 METAR LRBC 261130Z VRB02KT 9999 FEW050 30/14 Q1011=
201907261200 METAR LRBC 261200Z 14006KT 9999 FEW055 29/15 Q1011=
201907261230 METAR LRBC 261230Z 14005KT 080V160 9999 FEW055 30/14 Q1011=
201907261300 METAR LRBC 261300Z 16005KT 110V180 9999 FEW060 30/15 Q1010=
201907261330 METAR LRBC 261330Z 14005KT 090V170 9999 FEW060 30/15 Q1010=
201907261400 METAR LRBC 261400Z 16007KT 9999 FEW060 31/16 Q1010=
201907261430 METAR LRBC 261430Z 16006KT 9999 FEW060 31/15 Q1010=
201907261500 METAR LRBC 261500Z 16007KT 9999 FEW065 30/15 Q1009=
201907261530 METAR LRBC 261530Z 14007KT CAVOK 30/15 Q1009=
201907261600 METAR LRBC 261600Z 15007KT CAVOK 30/17 Q1009=
201907261630 METAR LRBC 261630Z 16005KT CAVOK 29/17 Q1009=
201907261700 METAR LRBC 261700Z 16004KT CAVOK 27/17 Q1009=
201907261730 METAR LRBC 261730Z 19003KT CAVOK 26/18 Q1009=
201907261800 METAR LRBC 261800Z 19004KT 9999 FEW065 24/18 Q1009=
201907261830 METAR LRBC 261830Z VRB02KT 9999 FEW065 23/18 Q1009=
201907261900 METAR LRBC 261900Z VRB01KT 9999 VCTS FEW065 23/18 Q1009=
201907261930 METAR LRBC 261930Z 00000KT CAVOK 23/18 Q1009=
201907262000 METAR LRBC 262000Z 01003KT CAVOK 23/17 Q1009=
201907262030 METAR LRBC 262030Z 33004KT 300V360 CAVOK 21/18 Q1009=
201907262100 METAR LRBC 262100Z 36010KT 9999 BKN065 22/18 Q1010=
201907262130 METAR LRBC 262130Z 35015KT 9999 FEW065 22/18 Q1010=
201907262200 METAR LRBC 262200Z 33013KT CAVOK 22/17 Q1010=
201907262230 METAR LRBC 262230Z 33008KT CAVOK 21/17 Q1010=
201907262300 METAR LRBC 262300Z AUTO 32005KT 9999 FEW095/// 20/17 Q1010=
201907262330 METAR LRBC 262330Z AUTO 34005KT 9999 FEW095/// 19/17 Q1010=
201907270000 METAR LRBC 270000Z 34006KT CAVOK 19/17 Q1010=
201907270030 METAR LRBC 270030Z 35005KT CAVOK 20/17 Q1010=
201907270100 METAR LRBC 270100Z VRB01KT CAVOK 19/17 Q1009=
201907270130 METAR LRBC 270130Z 05002KT CAVOK 19/17 Q1009=
201907270200 METAR LRBC 270200Z 05003KT CAVOK 19/17 Q1009=
201907270230 METAR LRBC 270230Z 22002KT CAVOK 17/16 Q1009=
201907270300 METAR LRBC 270300Z VRB02KT CAVOK 17/17 Q1009=
201907270330 METAR LRBC 270330Z 35004KT CAVOK 17/16 Q1009=
201907270400 METAR LRBC 270400Z 36003KT CAVOK 18/17 Q1009=
201907270430 METAR LRBC 270430Z 32004KT CAVOK 19/18 Q1010=
201907270500 METAR LRBC 270500Z 34004KT CAVOK 20/18 Q1010=
201907270530 METAR LRBC 270530Z 01003KT CAVOK 22/18 Q1010=
201907270600 METAR LRBC 270600Z 36005KT CAVOK 22/18 Q1010=
201907270630 METAR LRBC 270630Z 33003KT CAVOK 23/18 Q1010=
201907270700 METAR LRBC 270700Z 35002KT CAVOK 24/18 Q1010=
201907270730 METAR LRBC 270730Z VRB03KT CAVOK 25/18 Q1010=
201907270800 METAR LRBC 270800Z VRB01KT CAVOK 26/18 Q1010=
201907270830 METAR LRBC 270830Z 03003KT CAVOK 27/19 Q1010=
201907270900 METAR LRBC 270900Z 14003KT CAVOK 27/18 Q1009=
201907270930 METAR LRBC 270930Z 09004KT CAVOK 28/18 Q1009=
201907271000 METAR LRBC 271000Z 16005KT CAVOK 29/18 Q1009=
201907271030 METAR LRBC 271030Z VRB04KT CAVOK 30/18 Q1009=
201907271100 METAR LRBC 271100Z 18004KT CAVOK 30/19 Q1009=
201907271130 METAR LRBC 271130Z 14006KT CAVOK 31/17 Q1008=
201907271200 METAR LRBC 271200Z 17004KT CAVOK 31/17 Q1008=
201907271230 METAR LRBC 271230Z 17007KT CAVOK 32/15 Q1008=
201907271300 METAR LRBC 271300Z AUTO 17007KT 110V200 9999 NCD 32/17 Q1008=
201907271330 METAR LRBC 271330Z 16005KT 9999 FEW040TCU 32/16 Q1008=
201907271400 METAR LRBC 271400Z 17010KT 9999 FEW040TCU 30/19 Q1008=
201907271430 METAR LRBC 271430Z 19008KT 9999 FEW040TCU 30/18 Q1008=
201907271500 METAR LRBC 271500Z 20005KT 9999 FEW040TCU 30/19 Q1008=
201907271530 METAR LRBC 271530Z 19007KT 9999 FEW040TCU 30/20 Q1008=
201907271600 METAR LRBC 271600Z 19008KT 9999 FEW040 29/19 Q1007=
201907271630 METAR LRBC 271630Z 16006KT 130V190 CAVOK 28/20 Q1008=
201907271700 METAR LRBC 271700Z 15005KT CAVOK 28/21 Q1008=
201907271730 METAR LRBC 271730Z 20003KT CAVOK 26/20 Q1008=
201907271800 METAR LRBC 271800Z VRB02KT CAVOK 25/20 Q1008=
201907271830 METAR LRBC 271830Z VRB01KT CAVOK 24/19 Q1008=
201907271900 METAR LRBC 271900Z 16003KT CAVOK 24/18 Q1008=
201907271930 METAR LRBC 271930Z 16004KT CAVOK 23/18 Q1008=
201907272000 METAR LRBC 272000Z 16005KT CAVOK 22/18 Q1008=
201907272030 METAR LRBC 272030Z 17007KT CAVOK 22/18 Q1008=
201907272100 METAR LRBC 272100Z 18005KT CAVOK 21/18 Q1009=
201907272130 METAR LRBC 272130Z 16007KT CAVOK 22/18 Q1009=
201907272200 METAR LRBC 272200Z AUTO 14007KT 9999 NCD 22/18 Q1009=
201907272230 METAR COR LRBC 272230Z 17007KT CAVOK 21/18 Q1009=
201907272300 METAR LRBC 272300Z 18008KT CAVOK 21/18 Q1008=
201907272330 METAR LRBC 272330Z AUTO 18008KT 9999 NCD 21/18 Q1008=
201907280000 METAR LRBC 280000Z AUTO 19007KT 9999 NCD 21/18 Q1009=
201907280030 METAR COR LRBC 280030Z 17009KT CAVOK 21/17 Q1009=
201907280100 METAR LRBC 280100Z 17011KT CAVOK 21/16 Q1008=
201907280130 METAR LRBC 280130Z 17009KT CAVOK 20/17 Q1009=
201907280200 METAR LRBC 280200Z 17007KT CAVOK 20/17 Q1009=
201907280230 METAR LRBC 280230Z 18007KT CAVOK 19/17 Q1009=
201907280300 METAR LRBC 280300Z 18006KT CAVOK 19/17 Q1009=
201907280330 METAR LRBC 280330Z 19007KT CAVOK 19/17 Q1009=
201907280400 METAR LRBC 280400Z 16008KT CAVOK 20/17 Q1009=
201907280430 METAR LRBC 280430Z 18009KT CAVOK 21/17 Q1009=
201907280500 METAR LRBC 280500Z 17010KT CAVOK 21/18 Q1009=
201907280530 METAR LRBC 280530Z 16007KT CAVOK 22/18 Q1009=
201907280600 METAR LRBC 280600Z 17007KT CAVOK 23/18 Q1009=
201907280630 METAR LRBC 280630Z 17008KT CAVOK 24/18 Q1009=
201907280700 METAR LRBC 280700Z 17010KT CAVOK 25/18 Q1009=
201907280730 METAR LRBC 280730Z 16012KT CAVOK 26/17 Q1009=
201907280800 METAR LRBC 280800Z 16012KT CAVOK 27/18 Q1009=
201907280830 METAR LRBC 280830Z 16013KT CAVOK 28/17 Q1009=
201907280900 METAR LRBC 280900Z 15013KT CAVOK 29/16 Q1008=
201907280930 METAR LRBC 280930Z 16012KT CAVOK 30/16 Q1008=
201907281000 METAR LRBC 281000Z 15013KT CAVOK 30/15 Q1008=
201907281030 METAR LRBC 281030Z 15013KT CAVOK 30/15 Q1008=
201907281100 METAR LRBC 281100Z 15014KT CAVOK 31/15 Q1008=
201907281130 METAR LRBC 281130Z 14013KT CAVOK 32/14 Q1008=
201907281200 METAR LRBC 281200Z 15013KT CAVOK 31/14 Q1008=
201907281230 METAR LRBC 281230Z 15014KT CAVOK 32/15 Q1008=
201907281300 METAR LRBC 281300Z 15014KT CAVOK 32/14 Q1007=
201907281330 METAR LRBC 281330Z 15012KT CAVOK 32/15 Q1007=
201907281400 METAR LRBC 281400Z 14013KT CAVOK 32/14 Q1007=
201907281430 METAR LRBC 281430Z 15013KT CAVOK 31/14 Q1006=
201907281500 METAR LRBC 281500Z 15013KT CAVOK 31/13 Q1006=
201907281530 METAR LRBC 281530Z 15011KT CAVOK 31/14 Q1006=
201907281600 METAR LRBC 281600Z 15010KT CAVOK 30/14 Q1006=
201907281630 METAR LRBC 281630Z 15009KT CAVOK 29/14 Q1006=
201907281700 METAR LRBC 281700Z 15009KT CAVOK 28/15 Q1006=
201907281730 METAR LRBC 281730Z 16007KT CAVOK 27/16 Q1006=
201907281800 METAR LRBC 281800Z 20006KT CAVOK 24/16 Q1007=
201907281830 METAR LRBC 281830Z 17007KT CAVOK 24/14 Q1007=
201907281900 METAR LRBC 281900Z 18008KT CAVOK 22/15 Q1007=
201907281930 METAR LRBC 281930Z 18008KT CAVOK 23/14 Q1007=
201907282000 METAR LRBC 282000Z 17009KT CAVOK 24/15 Q1006=
201907282030 METAR LRBC 282030Z 18007KT CAVOK 23/16 Q1006=
201907282100 METAR LRBC 282100Z 17008KT CAVOK 23/16 Q1006=
201907282130 METAR LRBC 282130Z 17009KT CAVOK 23/16 Q1006=
201907282200 METAR LRBC 282200Z 17010KT CAVOK 22/17 Q1006=
201907282230 METAR LRBC 282230Z 17010KT CAVOK 22/16 Q1006=
201907282300 METAR LRBC 282300Z 18009KT CAVOK 22/16 Q1006=
201907282330 METAR LRBC 282330Z 18009KT CAVOK 21/16 Q1006=
201907290000 METAR LRBC 290000Z AUTO 18009KT 9999 NCD 21/16 Q1006=
201907290030 METAR LRBC 290030Z AUTO 18008KT 9999 NCD 21/16 Q1006=
201907290100 METAR LRBC 290100Z AUTO 18008KT 9999 NCD 20/16 Q1006=
201907290130 METAR LRBC 290130Z 20002KT CAVOK 19/16 Q1006=
201907290200 METAR LRBC 290200Z 21003KT CAVOK 19/15 Q1006=
201907290230 METAR LRBC 290230Z 19003KT CAVOK 19/15 Q1006=
201907290300 METAR LRBC 290300Z 17001KT CAVOK 19/16 Q1006=
201907290330 METAR COR LRBC 290330Z 15003KT CAVOK 20/16 Q1006=
201907290400 METAR LRBC 290400Z 16002KT CAVOK 21/17 Q1006=
201907290430 METAR LRBC 290430Z 16004KT CAVOK 20/17 Q1006=
201907290500 METAR LRBC 290500Z 17005KT CAVOK 20/17 Q1006=
201907290530 METAR LRBC 290530Z 17006KT CAVOK 21/17 Q1006=
201907290600 METAR LRBC 290600Z 15008KT CAVOK 22/17 Q1006=
201907290630 METAR LRBC 290630Z 16009KT CAVOK 23/17 Q1006=
201907290700 METAR LRBC 290700Z 15007KT 9999 FEW065 24/17 Q1006=
201907290730 METAR LRBC 290730Z 15006KT 130V190 9999 FEW060 26/18 Q1006=
201907290800 METAR LRBC 290800Z 17009KT 140V200 CAVOK 28/17 Q1006=
201907290830 METAR LRBC 290830Z 16008KT CAVOK 28/16 Q1006=
201907290900 METAR LRBC 290900Z 16008KT CAVOK 29/16 Q1006=
201907290930 METAR LRBC 290930Z 16009KT 130V200 CAVOK 30/17 Q1005=
201907291000 METAR LRBC 291000Z 16011KT CAVOK 27/17 Q1006=
201907291030 METAR LRBC 291030Z 13007KT CAVOK 28/17 Q1005=
201907291100 METAR LRBC 291100Z 15012KT 9999 FEW050 29/17 Q1005=
201907291130 METAR LRBC 291130Z 17012KT 140V200 9999 FEW050 28/14 Q1006=
201907291200 METAR LRBC 291200Z 14008KT 100V160 9999 FEW050 28/17 Q1005=
201907291230 METAR LRBC 291230Z 13008KT 100V170 CAVOK 29/15 Q1005=
201907291300 METAR LRBC 291300Z 14008KT 9999 FEW050 29/15 Q1005=
201907291330 METAR LRBC 291330Z 14009KT 110V170 CAVOK 29/15 Q1005=
201907291400 METAR LRBC 291400Z 16011KT CAVOK 29/14 Q1005=
201907291430 METAR LRBC 291430Z 15009KT 9999 FEW050 29/15 Q1005=
201907291500 METAR LRBC 291500Z 16010KT CAVOK 29/16 Q1005=
201907291530 METAR LRBC 291530Z 21009KT CAVOK 28/15 Q1005=
201907291600 METAR LRBC 291600Z 22008KT CAVOK 28/15 Q1005=
201907291630 METAR LRBC 291630Z 21008KT CAVOK 27/14 Q1005=
201907291700 METAR LRBC 291700Z 20004KT 170V230 CAVOK 26/14 Q1005=
201907291730 METAR LRBC 291730Z 00000KT CAVOK 25/14 Q1005=
201907291800 METAR LRBC 291800Z 14003KT CAVOK 24/15 Q1005=
201907291830 METAR LRBC 291830Z 00000KT CAVOK 23/15 Q1005=
201907291900 METAR LRBC 291900Z 13003KT CAVOK 23/15 Q1006=
201907291930 METAR LRBC 291930Z 00000KT CAVOK 21/15 Q1006=
201907292000 METAR LRBC 292000Z 00000KT CAVOK 20/14 Q1006=
201907292030 METAR LRBC 292030Z 00000KT CAVOK 20/15 Q1006=
201907292100 METAR LRBC 292100Z 00000KT CAVOK 19/15 Q1006=
201907292130 METAR LRBC 292130Z 00000KT CAVOK 19/15 Q1006=
201907292200 METAR LRBC 292200Z 00000KT CAVOK 18/15 Q1006=
201907292230 METAR LRBC 292230Z 34002KT CAVOK 18/15 Q1006=
201907292300 METAR LRBC 292300Z 36004KT CAVOK 17/15 Q1006=
201907292330 METAR LRBC 292330Z 35004KT CAVOK 18/15 Q1006=
201907300000 METAR LRBC 300000Z AUTO 33003KT 9999 SCT110/// 18/15 Q1006=
201907300030 METAR LRBC 300030Z AUTO VRB01KT 9999 BKN110/// 18/16 Q1006=
201907300100 METAR LRBC 300100Z AUTO 00000KT 9999 BKN110/// 18/16 Q1006=
201907300130 METAR LRBC 300130Z 00000KT CAVOK 17/16 Q1006=
201907300200 METAR LRBC 300200Z 33004KT CAVOK 16/14 Q1006=
201907300230 METAR LRBC 300230Z 00000KT CAVOK 17/15 Q1006=
201907300300 METAR LRBC 300300Z 02004KT CAVOK 18/15 Q1006=
201907300330 METAR COR LRBC 300330Z 02004KT CAVOK 18/15 Q1006=
201907300400 METAR LRBC 300400Z 00000KT CAVOK 17/15 Q1006=
201907300430 METAR LRBC 300430Z 00000KT CAVOK 19/16 Q1007=
201907300500 METAR LRBC 300500Z 00000KT CAVOK 20/17 Q1007=
201907300530 METAR LRBC 300530Z 34004KT 310V010 CAVOK 21/16 Q1007=
201907300600 METAR LRBC 300600Z 33003KT 300V360 CAVOK 23/16 Q1007=
201907300630 METAR LRBC 300630Z 04003KT 320V090 CAVOK 24/17 Q1007=
201907300700 METAR LRBC 300700Z 00000KT CAVOK 26/17 Q1007=
201907300730 METAR LRBC 300730Z VRB03KT CAVOK 26/16 Q1007=
201907300800 METAR LRBC 300800Z VRB02KT CAVOK 27/17 Q1007=
201907300830 METAR LRBC 300830Z VRB02KT CAVOK 29/17 Q1007=
201907300900 METAR LRBC 300900Z VRB03KT CAVOK 29/16 Q1007=
201907300930 METAR LRBC 300930Z 36003KT 290V060 CAVOK 30/16 Q1007=
201907301000 METAR LRBC 301000Z 32003KT 240V030 CAVOK 30/15 Q1007=
201907301030 METAR LRBC 301030Z 32005KT 260V020 9999 FEW050 30/17 Q1007=
201907301100 METAR LRBC 301100Z 31006KT 260V360 9999 FEW050 31/16 Q1007=
201907301130 METAR LRBC 301130Z 36004KT 300V090 9999 FEW050 31/17 Q1006=
201907301200 METAR LRBC 301200Z VRB03KT 9999 FEW055 32/16 Q1006=
201907301230 METAR LRBC 301230Z VRB01KT 9999 FEW055 32/16 Q1006=
201907301300 METAR LRBC 301300Z VRB02KT 9999 FEW055 32/17 Q1006=
201907301330 METAR LRBC 301330Z 31003KT 260V020 9999 FEW055 32/16 Q1005=
201907301400 METAR LRBC 301400Z VRB03KT 9999 FEW055 32/15 Q1005=
201907301430 METAR LRBC 301430Z 33004KT 270V020 9999 FEW055 32/15 Q1005=
201907301500 METAR LRBC 301500Z VRB01KT 9999 FEW060 32/14 Q1005=
201907301530 METAR LRBC 301530Z VRB02KT CAVOK 31/17 Q1005=
201907301600 METAR LRBC 301600Z VRB01KT CAVOK 31/18 Q1005=
201907301630 METAR LRBC 301630Z 00000KT CAVOK 30/17 Q1005=
201907301700 METAR LRBC 301700Z 24003KT CAVOK 29/21 Q1005=
201907301730 METAR LRBC 301730Z 00000KT CAVOK 28/19 Q1005=
201907301800 METAR LRBC 301800Z 00000KT 9999 SCT060 28/19 Q1005=
201907301830 METAR LRBC 301830Z 35004KT 9999 SCT065 26/21 Q1007=
201907301900 METAR LRBC 301900Z 34011KT 8000 -SHRA FEW030 BKN060CB 23/20
                        Q1007 RESH=
201907301930 METAR LRBC 301930Z 31006KT 9999 SCT060CB 24/21 Q1007=
201907302000 METAR LRBC 302000Z VRB01KT 9999 -SHRA SCT060CB 24/21 Q1007=
201907302030 METAR LRBC 302030Z 05005KT 020V080 9999 FEW060 24/20 Q1007=
201907302100 METAR LRBC 302100Z 00000KT CAVOK 23/21 Q1007=
201907302130 METAR LRBC 302130Z 05004KT 020V090 CAVOK 23/20 Q1007=
201907302200 METAR LRBC 302200Z 29002KT CAVOK 22/20 Q1007=
201907302230 METAR LRBC 302230Z 33004KT CAVOK 21/19 Q1007=
201907302300 METAR LRBC 302300Z AUTO VRB01KT 9999 NCD 20/19 Q1007=
201907302330 METAR LRBC 302330Z AUTO 00000KT 9999 NCD 20/19 Q1007=
201907310000 METAR LRBC 310000Z 06002KT CAVOK 20/19 Q1007=
201907310030 METAR LRBC 310030Z 00000KT CAVOK 19/18 Q1007=
201907310100 METAR LRBC 310100Z AUTO 00000KT 9999 NCD 19/18 Q1007=
201907310130 METAR LRBC 310130Z 00000KT CAVOK 19/18 Q1007=
201907310200 METAR LRBC 310200Z VRB01KT CAVOK 19/18 Q1007=
201907310230 METAR LRBC 310230Z 31003KT CAVOK 18/17 Q1007=
201907310300 METAR LRBC 310300Z 32004KT 280V020 CAVOK 18/18 Q1008=
201907310330 METAR LRBC 310330Z 28003KT 240V300 CAVOK 18/18 Q1008=
201907310400 METAR LRBC 310400Z 11002KT CAVOK 20/19 Q1008=
201907310430 METAR LRBC 310430Z 00000KT 9999 FEW060 22/20 Q1008=
201907310500 METAR LRBC 310500Z 32003KT 9999 FEW060 22/19 Q1009=
201907310530 METAR LRBC 310530Z 00000KT 9999 SCT055 23/20 Q1009=
201907310600 METAR LRBC 310600Z 36004KT 330V060 9999 FEW055 24/20 Q1009=
201907310630 METAR LRBC 310630Z 35005KT 290V040 CAVOK 26/20 Q1009=
201907310700 METAR LRBC 310700Z 35011KT 320V040 CAVOK 26/20 Q1010=
201907310730 METAR LRBC 310730Z 02007KT 350V060 9999 FEW028 27/20 Q1010=
201907310800 METAR LRBC 310800Z 34012KT 310V020 9999 FEW028 28/20 Q1010=
201907310830 METAR LRBC 310830Z 35010KT 9999 FEW030 29/20 Q1010=
201907310900 METAR LRBC 310900Z 35011KT 320V030 9999 FEW038 29/19 Q1010=
201907310930 METAR LRBC 310930Z 01013KT 9999 FEW046 29/18 Q1010=
201907311000 METAR LRBC 311000Z 01012KT 340V040 9999 FEW048 29/19 Q1010=
201907311030 METAR LRBC 311030Z 34013KT 320V020 9999 FEW049 30/20 Q1010=
201907311100 METAR LRBC 311100Z 36010KT 330V050 9999 FEW050 30/19 Q1010=
201907311130 METAR LRBC 311130Z 36009KT 330V040 9999 FEW045 30/20 Q1010=
201907311200 METAR LRBC 311200Z 36009KT 330V050 9999 SCT045 28/18 Q1010=
201907311230 METAR LRBC 311230Z 36008KT 320V030 9999 SCT050 29/17 Q1010=
201907311300 METAR LRBC 311300Z 36007KT 330V040 9999 BKN055 29/19 Q1010=
201907311330 METAR LRBC 311330Z 02007KT 320V090 9999 SCT055 29/19 Q1010=
201907311400 METAR LRBC 311400Z 02006KT 350V060 9999 FEW041 28/18 Q1010=
201907311430 METAR LRBC 311430Z 35006KT 9999 FEW040 28/19 Q1010=
201907311500 METAR LRBC 311500Z 36007KT 330V040 9999 FEW039 28/18 Q1011=
201907311530 METAR LRBC 311530Z 36005KT 320V040 9999 FEW040 28/18 Q1011=
201907311600 METAR LRBC 311600Z 34005KT 310V010 9999 FEW045 28/19 Q1011=
201907311630 METAR LRBC 311630Z 30008KT 9999 SCT045CB 27/20 Q1011=
201907311700 METAR LRBC 311700Z 31006KT 9999 SCT045CB 26/20 Q1011=
201907311730 METAR LRBC 311730Z 31006KT 9999 SCT045CB 25/20 Q1011=
201907311800 METAR COR LRBC 311800Z 31007KT 9999 -RA SCT044 24/20 Q1011=
201907311830 METAR LRBC 311830Z 32004KT 260V350 9999 FEW040 24/19 Q1011=
201907311900 METAR LRBC 311900Z 36004G17KT 280V080 9999 -RA SCT050 24/19
                        Q1012=
201907311930 METAR LRBC 311930Z 01002KT 330V080 9999 FEW040 24/19 Q1012=
201907312000 METAR LRBC 312000Z 36003KT 320V050 CAVOK 23/19 Q1012=
201907312030 METAR LRBC 312030Z 01003KT 340V040 CAVOK 23/19 Q1012=
201907312100 METAR COR LRBC 312100Z 04005KT 340V070 CAVOK 23/20 Q1012=
201907312130 METAR LRBC 312130Z 03003KT CAVOK 22/20 Q1012=
201907312200 METAR LRBC 312200Z 03002KT CAVOK 22/20 Q1012=
201907312230 METAR LRBC 312230Z 35005KT CAVOK 21/20 Q1012=
201907312300 METAR LRBC 312300Z AUTO 35005KT 9999 FEW160/// 21/20 Q1012=
201907312330 METAR LRBC 312330Z 36004KT CAVOK 22/20 Q1012=