201910010200 TAF LRBC 010200Z 0103/0112 33008KT CAVOK=
201910010500 TAF LRBC 010500Z 0106/0115 VRB04KT CAVOK
                      BECMG 0113/0115 15010KT=
201910010800 TAF LRBC 010800Z 0109/0118 VRB04KT CAVOK
                      BECMG 0113/0115 15010KT=
201910011100 TAF LRBC 011100Z 0112/0121 VRB04KT CAVOK
                      BECMG 0113/0115 15010KT=
201910011400 TAF LRBC 011400Z 0115/0124 17006KT CAVOK
                      PROB40 TEMPO 0115/0118 24010KT=
201910011700 TAF LRBC 011700Z 0118/0203 23008KT CAVOK=
201910012000 TAF LRBC 012000Z 0121/0206 19008KT CAVOK=
201910012300 TAF LRBC 012300Z 0200/0209 19008KT CAVOK=
201910020200 TAF LRBC 020200Z 0203/0212 18008KT CAVOK=
201910020500 TAF LRBC 020500Z 0206/0215 18014KT CAVOK=
201910020800 TAF LRBC 020800Z 0209/0218 17014KT CAVOK=
201910021100 TAF LRBC 021100Z 0212/0221 16014KT CAVOK=
201910021400 TAF LRBC 021400Z 0215/0224 16014KT CAVOK=
201910021700 TAF LRBC 021700Z 0218/0303 16008KT CAVOK=
201910022000 TAF LRBC 022000Z 0221/0306 16012KT CAVOK
                      PROB30 TEMPO 0302/0306 5000 BR=
201910022300 TAF LRBC 022300Z 0300/0309 16010KT CAVOK
                      PROB30 TEMPO 0302/0306 5000 BR=
201910030200 TAF LRBC 030200Z 0303/0312 16010KT CAVOK
                      PROB30 TEMPO 0303/0306 5000 BR=
201910030500 TAF LRBC 030500Z 0306/0315 16010KT CAVOK
                      PROB30 TEMPO 0306/0308 5000 SHRA BKN005 SCT025CB
                       OVC030
                      BECMG 0313/0315 34012KT=
201910030643 TAF AMD LRBC 030643Z 0306/0315 16010KT 9999 BKN030
                      TEMPO 0306/0308 3000 BR BKN002 BKN020
                      BECMG 0313/0315 34012KT=
201910030800 TAF LRBC 030800Z 0309/0318 19020KT CAVOK
                      BECMG 0312/0314 34012KT
                      TEMPO 0314/0318 VRB20G30KT 3000 TSRA BKN010
                       BKN025CB
                      PROB30 0314/0316 1500 +TSRA=
201910031100 TAF LRBC 031100Z 0312/0321 17012KT CAVOK
                      BECMG 0312/0314 34012KT
                      TEMPO 0314/0318 VRB20G30KT 3000 TSRA BKN010
                       BKN025CB
                      PROB30 0314/0316 1500 +TSRA=
201910031400 TAF LRBC 031400Z 0315/0324 34010KT 9999 BKN035
                      TEMPO 0315/0318 VRB20G30KT 3000 TSRA BKN005
                       BKN030CB
                      BECMG 0318/0320 5000 RA BKN010 OVC025=
201910031700 TAF LRBC 031700Z 0318/0403 35017KT 9999 BKN025 BKN040CB
                      TEMPO 0318/0321 35020G30KT 5000 -SHRA BKN010
                       BKN030CB
                      BECMG 0321/0323 BKN015 OVC025
                      TEMPO 0323/0403 5000 -RA BKN005 OVC020=
201910032000 TAF LRBC 032000Z 0321/0406 34014KT 9999 BKN020
                      BECMG 0321/0323 5000 -RA BKN015 OVC025
                      TEMPO 0402/0406 3000 RA BKN005 OVC020=
201910032300 TAF LRBC 032300Z 0400/0409 34014KT 9999 BKN015
                      TEMPO 0401/0406 5000 -RA BKN010 OVC025=
201910040200 TAF LRBC 040200Z 0403/0412 34012KT 9999 BKN035
                      TEMPO 0403/0409 5000 RA BR BKN010 OVC035=
201910040500 TAF LRBC 040500Z 0406/0415 34012KT 9999 SCT020 BKN045
                      TEMPO 0406/0411 5000 RA BR BKN010 OVC035=
201910040800 TAF LRBC 040800Z 0409/0418 34010KT 9999 SCT020 BKN045
                      TEMPO 0409/0413 5000 -RA BR BKN010 OVC035=
201910041100 TAF LRBC 041100Z 0412/0421 34010KT 9999 SCT020 BKN040
                      TEMPO 0412/0416 5000 RA BR BKN010 OVC035=
201910041400 TAF LRBC 041400Z 0415/0424 34010KT 9999 SCT020 BKN040
                      TEMPO 0415/0416 5000 -RA BR BKN010 OVC035=
201910041700 TAF LRBC 041700Z 0418/0503 VRB04KT 9999 BKN030=
201910042000 TAF LRBC 042000Z 0421/0506 VRB04KT 9999 BKN030=
201910042300 TAF LRBC 042300Z 0500/0509 VRB04KT 9999 BKN030
                      TEMPO 0500/0504 3000 RA BR BKN010 BKN025=
201910050200 TAF LRBC 050200Z 0503/0512 VRB04KT 9999 SCT030 OVC045
                      TEMPO 0503/0505 5000 -RA BR BKN010 BKN035=
201910050500 TAF LRBC 050500Z 0506/0515 VRB04KT 9999 BKN045=
201910050800 TAF LRBC 050800Z 0509/0518 VRB04KT 9999 BKN060=
201910051100 TAF LRBC 051100Z 0512/0521 35005KT 9999 SCT030 BKN060=
201910051400 TAF LRBC 051400Z 0515/0524 34005KT 9999 BKN045=
201910051700 TAF LRBC 051700Z 0518/0603 VRB04KT CAVOK
                      BECMG 0523/0601 3000 BR BKN010
                      TEMPO 0601/0603 1500 BR BKN005 OVC020=
201910052000 TAF LRBC 052000Z 0521/0606 VRB04KT CAVOK
                      BECMG 0523/0601 3000 BR BKN010
                      TEMPO 0601/0605 1500 -RA BR BKN005 OVC020=
201910052300 TAF LRBC 052300Z 0600/0609 VRB03KT 5000 BR NSC
                      TEMPO 0601/0603 1500 BR BKN005 OVC020
                      BECMG 0604/0606 3000 -RA BR BKN005 OVC020=
201910060200 TAF LRBC 060200Z 0603/0612 31006KT 9999 SCT060
                      BECMG 0604/0606 5000 -RA BR BKN015 BKN040
                       TEMPO 0607/0612 1500 -RA BR BKN005 OVC015=
201910060500 TAF LRBC 060500Z 0606/0615 VRB04KT 9999 -RA SCT015 BKN040
                      TEMPO 0607/0612 3000 RA BR BKN010 OVC035=
201910060800 TAF LRBC 060800Z 0609/0618 VRB04KT 9999 -RA SCT015 BKN040
                      PROB30 TEMPO 0609/0612 3000 RA BR BKN010
                       OVC035=
201910061100 TAF LRBC 061100Z 0612/0621 VRB04KT 9999 -RA BKN015 BKN040
                      PROB30 TEMPO 0612/0616 3000 RA BR BKN010
                       OVC035=
201910061400 TAF LRBC 061400Z 0615/0624 VRB04KT 9999 -RA BKN015 BKN040
                      TEMPO 0615/0618 3000 RA BR BKN010 OVC035=
201910061700 TAF LRBC 061700Z 0618/0703 33008KT 9999 BKN015 BKN040
                      TEMPO 0618/0622 5000 -RA BR BKN010 OVC030
                       PROB40
                      TEMPO 0622/0703 3000 -RADZ BR BKN005 OVC020=
201910062000 TAF LRBC 062000Z 0621/0706 33010KT 9999 BKN015 BKN030
                      TEMPO 0621/0703 5000 -RADZ BR BKN010 OVC020=
201910062300 TAF LRBC 062300Z 0700/0709 33010KT 9999 SCT015 BKN030
                      TEMPO 0700/0703 5000 BR BKN010 OVC020=
201910070200 TAF LRBC 070200Z 0703/0712 33010KT 9999 BKN025 BKN040
                      TEMPO 0703/0706 5000 BR BKN010 OVC025=
201910070500 TAF LRBC 070500Z 0706/0715 34008KT 9999 BKN030
                      PROB30 TEMPO 0708/0712 5000 -RADZ BR BKN015
                       OVC020=
201910070800 TAF LRBC 070800Z 0709/0718 34008KT 9999 BKN025 BKN040
                      PROB30 TEMPO 0709/0713 5000 -RADZ BR BKN010
                       OVC020=
201910071100 TAF LRBC 071100Z 0712/0721 35010KT 9999 BKN040
                      PROB30 TEMPO 0712/0714 5000 -RA BR BKN010
                       OVC020=
201910071400 TAF LRBC 071400Z 0715/0724 35010KT 9999 BKN015 BKN040=
201910071700 TAF LRBC 071700Z 0718/0803 36006KT 9999 BKN030=
201910072000 TAF LRBC 072000Z 0721/0806 33006KT 9999 BKN025=
201910072300 TAF LRBC 072300Z 0800/0809 29005KT 9999 BKN030=
201910080200 TAF LRBC 080200Z 0803/0812 VRB03KT CAVOK
                      BECMG 0810/0812 19010KT=
201910080500 TAF LRBC 080500Z 0806/0815 VRB03KT 9999 BKN040
                      PROB30 TEMPO 0806/0808 5000 BR BKN005 OVC040
                       BECMG 0808/0810 17010KT=
201910080800 TAF LRBC 080800Z 0809/0818 16010KT CAVOK=
201910081100 TAF LRBC 081100Z 0812/0821 16010KT 9999 SCT050=
201910081400 TAF LRBC 081400Z 0815/0824 16012KT CAVOK=
201910081700 TAF LRBC 081700Z 0818/0903 17008KT CAVOK=
201910082000 TAF LRBC 082000Z 0821/0906 17010KT CAVOK=
201910082300 TAF LRBC 082300Z 0900/0909 17010KT CAVOK=
201910090200 TAF LRBC 090200Z 0903/0912 16010KT CAVOK=
201910090500 TAF LRBC 090500Z 0906/0915 16010KT CAVOK=
201910090800 TAF LRBC 090800Z 0909/0918 16012KT CAVOK
                      BECMG 0914/0916 VRB04KT=
201910091100 TAF LRBC 091100Z 0912/0921 16010KT CAVOK
                      BECMG 0914/0916 VRB04KT=
201910091400 TAF LRBC 091400Z 0915/0924 17010KT CAVOK=
201910091700 TAF LRBC 091700Z 0918/1003 19008KT CAVOK
                      TEMPO 1000/1003 3000 BR=
201910092000 TAF LRBC 092000Z 0921/1006 17006KT CAVOK
                      TEMPO 1000/1006 3000 BR
                      PROB30 TEMPO 1002/1005 0600 FG BKN002=
201910092300 TAF LRBC 092300Z 1000/1009 17008KT 7000 NSC
                      TEMPO 1000/1006 3000 BR
                      PROB30 TEMPO 1002/1005 0600 FG BKN002=
201910100200 TAF LRBC 100200Z 1003/1012 16008KT CAVOK
                      TEMPO 1003/1005 3000 BR BKN010
                      BECMG 1010/1012 SCT030CB BKN040=
201910100500 TAF LRBC 100500Z 1006/1015 VRB04KT CAVOK=
201910100800 TAF LRBC 100800Z 1009/1018 VRB04KT CAVOK
                      PROB40 TEMPO 1015/1018 5000 -SHRA SCT030CB
                       BKN040=
201910101100 TAF LRBC 101100Z 1012/1021 VRB04KT CAVOK
                      TEMPO 1012/1015 35010KT
                      TEMPO 1017/1021 5000 -SHRA SCT010 SCT030CB
                       BKN040=
201910101400 TAF LRBC 101400Z 1015/1024 VRB04KT CAVOK
                      TEMPO 1015/1018 28010KT
                      PROB40 TEMPO 1018/1022 5000 -RA -SHRA SCT010
                       SCT030CB BKN040=
201910101700 TAF LRBC 101700Z 1018/1103 VRB04KT CAVOK
                      TEMPO 1018/1020 33012KT
                      TEMPO 1020/1024 5000 -RA BKN015 BKN040
                      BECMG 1022/1024 VRB04KT=
201910102000 TAF LRBC 102000Z 1021/1106 32010KT CAVOK
                      TEMPO 1021/1024 5000 -RA SCT010 FEW040CB
                       BKN045
                      BECMG 1023/1101 VRB04KT=
201910102300 TAF LRBC 102300Z 1100/1109 VRB04KT CAVOK=
201910110200 TAF LRBC 110200Z 1103/1112 VRB04KT CAVOK
                      BECMG 1108/1110 34010KT=
201910110500 TAF LRBC 110500Z 1106/1115 VRB04KT CAVOK
                      BECMG 1108/1110 34010KT=
201910110800 TAF LRBC 110800Z 1109/1118 33010KT CAVOK=
201910111100 TAF LRBC 111100Z 1112/1121 35007KT CAVOK=
201910111400 TAF LRBC 111400Z 1115/1124 35007KT CAVOK=
201910111700 TAF LRBC 111700Z 1118/1203 28006KT CAVOK=
201910112000 TAF LRBC 112000Z 1121/1206 VRB04KT CAVOK=
201910112300 TAF LRBC 112300Z 1200/1209 14005KT CAVOK=
201910120200 TAF LRBC 120200Z 1203/1212 VRB04KT CAVOK=
201910120500 TAF LRBC 120500Z 1206/1215 20006KT CAVOK=
201910120800 TAF LRBC 120800Z 1209/1218 16008KT CAVOK=
201910121100 TAF LRBC 121100Z 1212/1221 16012KT CAVOK
                      BECMG 1219/1221 VRB04KT=
201910121400 TAF LRBC 121400Z 1215/1224 16012KT CAVOK
                      BECMG 1220/1222 VRB04KT=
201910121700 TAF LRBC 121700Z 1218/1303 16010KT CAVOK
                      BECMG 1220/1222 VRB04KT
                      TEMPO 1301/1303 3000 BR=
201910122000 TAF LRBC 122000Z 1221/1306 VRB04KT CAVOK
                      TEMPO 1301/1306 3000 BR=
201910122300 TAF LRBC 122300Z 1300/1309 VRB04KT CAVOK
                      TEMPO 1301/1305 3000 BR=
201910130200 TAF LRBC 130200Z 1303/1312 VRB04KT CAVOK=
201910130500 TAF LRBC 130500Z 1306/1315 VRB04KT CAVOK=
201910130800 TAF LRBC 130800Z 1309/1318 VRB04KT CAVOK=
201910131100 TAF LRBC 131100Z 1312/1321 VRB04KT CAVOK=
201910131400 TAF LRBC 131400Z 1315/1324 VRB04KT CAVOK
                      PROB30 TEMPO 1315/1318 17010KT=
201910131700 TAF LRBC 131700Z 1318/1403 17006KT CAVOK
                      BECMG 1320/1322 5000 BR
                      PROB30 TEMPO 1323/1403 1500 BR=
201910132000 TAF LRBC 132000Z 1321/1406 VRB04KT CAVOK
                      BECMG 1321/1323 5000 BR
                      PROB30 TEMPO 1323/1405 1500 BR=
201910132300 TAF LRBC 132300Z 1400/1409 VRB04KT CAVOK
                      TEMPO 1401/1405 3000 BR=
201910140200 TAF LRBC 140200Z 1403/1412 VRB03KT CAVOK
                      TEMPO 1403/1405 3000 BR=
201910140500 TAF LRBC 140500Z 1406/1415 VRB04KT CAVOK=
201910140800 TAF LRBC 140800Z 1409/1418 VRB04KT CAVOK=
201910141100 TAF LRBC 141100Z 1412/1421 16008KT CAVOK=
201910141400 TAF LRBC 141400Z 1415/1424 17008KT CAVOK=
201910141700 TAF LRBC 141700Z 1418/1503 VRB04KT CAVOK
                      BECMG 1422/1424 5000 BR
                      TEMPO 1502/1503 3000 BR=
201910142000 TAF LRBC 142000Z 1421/1506 VRB04KT CAVOK
                      BECMG 1422/1424 5000 BR
                      TEMPO 1502/1506 2000 BR BKN010=
201910142300 TAF LRBC 142300Z 1500/1509 VRB04KT 1500 BR NSC
                      TEMPO 1500/1506 0800 FG BKN003
                      BECMG 1507/1509 9999 NSW=
201910150200 TAF LRBC 150200Z 1503/1512 17006KT 0350 FG VV001
                      TEMPO 1504/1506 0800 OVC002
                      BECMG 1506/1508 1500 BR BKN005
                      BECMG 1508/1510 9999 NSW SCT015=
201910150500 TAF LRBC 150500Z 1506/1515 16004KT 0350 FG VV001
                      BECMG 1506/1508 3000 BR SCT002
                      BECMG 1508/1510 15010KT CAVOK=
201910150800 TAF LRBC 150800Z 1509/1518 16006KT 3000 BR BKN002
                      BECMG 1509/1510 CAVOK=
201910151100 TAF LRBC 151100Z 1512/1521 18010KT CAVOK=
201910151400 TAF LRBC 151400Z 1515/1524 16010KT 9999 BKN010
                      BECMG 1517/1519 3000 BR
                      BECMG 1521/1523 1500 BR BKN005=
201910151700 TAF LRBC 151700Z 1518/1603 17008KT 5000 BR BKN005 BKN015
                      BECMG 1520/1522 1500 BR
                      TEMPO 1523/1603 0600 FG BKN002=
201910151936 TAF AMD LRBC 151936Z 1519/1603 15006KT 0500 FG BKN003
                      BECMG 1519/1521 0150 FG VV001=
201910152000 TAF LRBC 152000Z 1521/1606 15006KT 0350 FG BKN001
                      BECMG 1521/1523 0150 FG VV001
                      BECMG 1604/1606 0800 BKN002=
201910152300 TAF LRBC 152300Z 1600/1609 16007KT 0350 FG VV002
                      TEMPO 1600/1603 0150 FG VV001
                      BECMG 1604/1606 0800
                      BECMG 1606/1608 3000 BR BKN010=
201910160200 TAF LRBC 160200Z 1603/1612 17008KT 0350 FG VV002
                      TEMPO 1603/1605 0150 FG VV001
                      BECMG 1605/1607 0800
                      BECMG 1607/1608 3000 BR BKN010
                      BECMG 1608/1610 CAVOK=
201910160500 TAF LRBC 160500Z 1606/1615 16010KT 3000 BR BKN010
                      PROB40 TEMPO 1606/1608 0800 FG BKN002
                      BECMG 1608/1609 9999 NSW SCT020=
201910160800 TAF LRBC 160800Z 1609/1618 16010KT 5000 BR BKN005
                      BECMG 1609/1611 9999 NSW SCT010=
201910161100 TAF LRBC 161100Z 1612/1621 16012KT CAVOK
                      BECMG 1615/1617 VRB04KT=
201910161400 TAF LRBC 161400Z 1615/1624 16010KT CAVOK
                      BECMG 1615/1617 VRB04KT
                      BECMG 1620/1622 3000 BR BKN010
                      TEMPO 1622/1624 0800 FG OVC002=
201910161700 TAF LRBC 161700Z 1618/1703 14006KT CAVOK
                      BECMG 1619/1621 3000 BR BKN010
                      BECMG 1622/1624 0800 FG OVC002
                      TEMPO 1700/1703 0300 FG VV001=
201910162000 TAF LRBC 162000Z 1621/1706 13006KT 5000 BR BKN015
                      BECMG 1622/1624 1500 BR BKN005
                      BECMG 1700/1702 0800 FG OVC002
                      PROB30 TEMPO 1702/1705 0300 FG VV001=
201910162300 TAF LRBC 162300Z 1700/1709 16006KT 3000 BR BKN010
                      BECMG 1700/1702 0800 FG OVC002
                      PROB30 TEMPO 1702/1706 0350 FG VV001
                      BECMG 1706/1708 1500 BR BKN005=
201910170200 TAF LRBC 170200Z 1703/1712 16006KT 0800 FG OVC002
                      TEMPO 1703/1706 0350 FG VV001
                      BECMG 1706/1708 3000 BR BKN005
                      BECMG 1708/1709 9999 NSW SCT015=
201910170500 TAF LRBC 170500Z 1706/1715 16006KT 0800 FG OVC002
                      TEMPO 1706/1707 0350 FG VV001
                      BECMG 1706/1708 3000 BR BKN005
                      BECMG 1708/1709 9999 NSW SCT015=
201910170608 TAF COR LRBC 170608Z 1706/1715 16006KT 0800 FG OVC002
                      TEMPO 1706/1707 0350 FG VV001
                      BECMG 1707/1708 3000 BR BKN005
                      BECMG 1708/1709 9999 NSW SCT015=
201910170800 TAF LRBC 170800Z 1709/1718 16006KT 1500 BR BKN001
                      TEMPO 1709/1711 3000 BKN002
                      BECMG 1711/1713 9999 NSW SCT015=
201910171100 TAF LRBC 171100Z 1712/1721 VRB04KT CAVOK
                      BECMG 1719/1721 5000 BR=
201910171400 TAF LRBC 171400Z 1715/1724 VRB04KT CAVOK
                      BECMG 1719/1721 5000 BR
                      BECMG 1722/1724 3000 BR BKN005=
201910171700 TAF LRBC 171700Z 1718/1803 VRB04KT CAVOK
                      BECMG 1719/1721 3000 BR
                      BECMG 1722/1801 0600 FG BKN002
                      TEMPO 1801/1803 0150 FG VV001=
201910172000 TAF LRBC 172000Z 1721/1806 VRB04KT CAVOK
                      BECMG 1721/1723 3000 BR
                      BECMG 1723/1801 0600 FG BKN002
                      TEMPO 1801/1805 0150 FG VV001=
201910172300 TAF AMD LRBC 180132Z 1801/1809 VRB04KT 0150 FG OVC001
                      BECMG 1805/1807 0800 BKN002
                      BECMG 1807/1809 3000 BR SCT010=
201910180132 TAF AMD LRBC 180132Z 1801/1809 VRB04KT 0150 FG OVC001
                      BECMG 1805/1807 0800 BKN002
                      BECMG 1807/1809 3000 BR SCT010=
201910180200 TAF LRBC 180200Z 1803/1812 VRB04KT 0350 FG VV001
                      TEMPO 1803/1805 0150 FG
                      BECMG 1805/1807 0800 BKN002
                      BECMG 1807/1809 3000 BR SCT010
                      BECMG 1809/1811 CAVOK=
201910180500 TAF LRBC 180500Z 1806/1815 VRB04KT 0350 FG VV001
                      BECMG 1806/1807 0600 BKN002
                      BECMG 1807/1809 3000 BR SCT010
                      BECMG 1809/1811 CAVOK=
201910180800 TAF LRBC 180800Z 1809/1818 VRB04KT CAVOK=
201910181100 TAF LRBC 181100Z 1812/1821 VRB04KT CAVOK=
201910181400 TAF LRBC 181400Z 1815/1824 VRB04KT CAVOK
                      BECMG 1820/1822 3000 BR
                      TEMPO 1822/1824 0800 FG VV002=
201910181700 TAF LRBC 181700Z 1818/1903 18006KT CAVOK
                      BECMG 1820/1822 3000 BR
                      BECMG 1822/1824 1500 BR BKN002
                      TEMPO 1900/1903 0350 FG VV001=
201910182000 TAF LRBC 182000Z 1821/1906 18006KT CAVOK
                      BECMG 1821/1823 3000 BR
                      BECMG 1823/1901 1500 BR BKN002
                      TEMPO 1901/1905 0350 FG VV001=
201910182300 TAF LRBC 182300Z 1900/1909 VRB04KT CAVOK
                      BECMG 1900/1902 3000 BR
                      PROB40 TEMPO 1902/1906 0350 FG VV001
                      BECMG 1906/1908 16010KT 9999 NSW=
201910190200 TAF LRBC 190200Z 1903/1912 VRB04KT 3000 BR SCT002
                      TEMPO 1903/1907 0600 FG BKN002
                      PROB40 TEMPO 1904/1906 0350 FG VV001
                      BECMG 1908/1910 16010KT CAVOK=
201910190500 TAF LRBC 190500Z 1906/1915 VRB04KT 0150 FG VV001
                      BECMG 1906/1908 1500 BKN005
                      BECMG 1908/1909 CAVOK
                      BECMG 1909/1911 15010KT=
201910190800 TAF LRBC 190800Z 1909/1918 VRB04KT CAVOK
                      BECMG 1909/1911 15010KT
                      BECMG 1915/1917 VRB04KT=
201910191100 TAF LRBC 191100Z 1912/1921 17012KT CAVOK
                      BECMG 1915/1917 VRB04KT=
201910191400 TAF LRBC 191400Z 1915/1924 17012KT CAVOK
                      BECMG 1915/1917 VRB04KT
                      BECMG 1920/1923 3000 BR=
201910191700 TAF LRBC 191700Z 1918/2003 16007KT 3000 BR NSC
                      BECMG 1919/1921 0800 FG BKN002
                      TEMPO 1923/2003 0350 FG VV001=
201910192000 TAF LRBC 192000Z 1921/2006 18006KT 3000 BR NSC
                      BECMG 1921/1923 0800 FG BKN002
                      TEMPO 1923/2006 0350 FG VV001=
201910192300 TAF LRBC 192300Z 2000/2009 16007KT 1500 BR BKN005
                      BECMG 2000/2001 0800 FG BKN002
                      TEMPO 2000/2006 0350 FG VV001
                      BECMG 2006/2008 3000 BR NSC
                      BECMG 2008/2009 9999 NSW SCT005=
201910200200 TAF LRBC 200200Z 2003/2012 17008KT 0300 FG VV001
                      BECMG 2005/2007 0800 VV002
                      BECMG 2007/2009 3000 BR SCT010
                      BECMG 2009/2010 CAVOK=
201910200500 TAF LRBC 200500Z 2006/2015 16008KT 0600 FG VV002
                      TEMPO 2006/2008 0150 FG VV001
                      BECMG 2008/2009 1500 BR BKN005
                      BECMG 2009/2010 5000 BR BKN015=
201910200800 TAF LRBC 200800Z 2009/2018 16008KT 0800 FG VV002
                      TEMPO 2009/2010 0350 FG VV001
                      BECMG 2010/2011 5000 BR BKN015=
201910201100 TAF LRBC 201100Z 2012/2021 12008KT 1500 BR BKN002
                      TEMPO 2012/2015 3000 BKN005
                      BECMG 2017/2019 0600 FG VV001=
201910201400 TAF LRBC 201400Z 2015/2024 17010KT 5000 BR BKN005
                      BECMG 2017/2019 1500 BR BKN002
                      BECMG 2019/2021 VRB04KT 0600 FG VV001
                      BECMG 2021/2023 0350 FG=
201910201700 TAF LRBC 201700Z 2018/2103 17006KT 3000 BR BKN001
                      BECMG 2019/2021 0800 FG VV000
                      BECMG 2021/2023 0350 FG=
201910202000 TAF LRBC 202000Z 2021/2106 17006KT 0600 FG BKN002
                      BECMG 2022/2024 0150 FG VV000=
201910202300 TAF LRBC 202300Z 2100/2109 17006KT 0150 FG VV001
                      BECMG 2106/2108 0600 BKN002=
201910210200 TAF LRBC 210200Z 2103/2112 17006KT 0350 FG VV001
                      BECMG 2106/2108 0800 FG BKN002
                      BECMG 2108/2110 3000 BR BKN010
                      BECMG 2110/2112 CAVOK=
201910210500 TAF LRBC 210500Z 2106/2115 VRB04KT 0600 FG VV002
                      BECMG 2107/2108 15010KT 3000 BR BKN005
                      BECMG 2108/2110 5000 BKN010
                      BECMG 2110/2112 CAVOK=
201910210800 TAF LRBC 210800Z 2109/2118 15010KT 3000 BR BKN002
                      BECMG 2110/2112 9999 NSW BKN010
                      TEMPO 2112/2115 SCT020=
201910211100 TAF LRBC 211100Z 2112/2121 16012KT 5000 BR BKN003
                      TEMPO 2112/2115 BKN005
                      BECMG 2116/2118 VRB04KT 1500 BR BKN002
                      BECMG 2118/2120 0600 FG VV001=
201910211400 TAF LRBC 211400Z 2115/2124 16010KT 3000 BR OVC004
                      BECMG 2116/2118 VRB04KT 1500 BR OVC002
                      BECMG 2118/2120 0600 FG VV001
                      BECMG 2121/2123 0350 FG=
201910211700 TAF LRBC 211700Z 2118/2203 16010KT 3000 BR OVC003
                      BECMG 2118/2120 VRB04KT 0800 FG OVC002
                      BECMG 2120/2122 0350 FG VV001
                      TEMPO 2122/2203 0150 FG=
201910212000 TAF LRBC 212000Z 2121/2206 VRB03KT 0350 FG OVC002
                      TEMPO 2121/2205 0100 FG VV001=
201910212300 TAF LRBC 212300Z 2200/2209 VRB03KT 0350 FG OVC002
                      TEMPO 2200/2205 0100 FG VV001
                      BECMG 2205/2207 1500 BR BKN003 BKN005
                      BECMG 2207/2209 5000 BKN005 BKN010=
201910220200 TAF LRBC 220200Z 2203/2212 VRB03KT 0350 FG VV001
                      TEMPO 2203/2205 0100 FG
                      BECMG 2206/2208 1500 BR BKN003 BKN005
                      BECMG 2208/2210 5000 BKN005 BKN010=
201910220500 TAF LRBC 220500Z 2206/2215 VRB03KT 0150 FG VV001
                      BECMG 2206/2207 0600 BKN002
                      BECMG 2207/2209 3000 BKN005 BKN010
                      BECMG 2209/2210 CAVOK=
201910220800 TAF LRBC 220800Z 2209/2218 16006KT 1500 BR OVC001
                      TEMPO 2209/2210 0600 FG
                      BECMG 2210/2211 3000 BKN005
                      BECMG 2211/2213 6000 NSW SCT010=
201910221100 TAF LRBC 221100Z 2212/2221 17005KT CAVOK
                      BECMG 2218/2220 3000 BR
                      BECMG 2220/2221 1500 BR BKN002=
201910221400 TAF LRBC 221400Z 2215/2224 17005KT CAVOK
                      BECMG 2218/2220 3000 BR
                      BECMG 2220/2221 0600 FG BKN002
                      BECMG 2221/2223 0150 FG OVC001=
201910221700 TAF LRBC 221700Z 2218/2303 17005KT 3000 BR SCT002
                      BECMG 2218/2220 0800 FG BKN002
                      BECMG 2220/2222 0350 FG
                      TEMPO 2223/2303 0150 FG VV001=
201910221751 TAF COR LRBC 221751Z 2218/2303 17006KT 0600 FG OVC001
                      BECMG 2218/2220 0350 FG
                      TEMPO 2222/2303 0150 FG=
201910222000 TAF LRBC 222000Z 2221/2306 17007KT 0350 FG VV001
                      TEMPO 2222/2306 0150 FG=
201910222300 TAF LRBC 222300Z 2300/2309 15006KT 0800 FG OVC002
                      TEMPO 2300/2305 0350 FG VV001
                      BECMG 2306/2308 1500 BR BKN005
                      BECMG 2308/2309 5000 SCT010=
201910230200 TAF LRBC 230200Z 2303/2312 VRB04KT 0600 FG OVC002
                      TEMPO 2303/2306 0300 FG VV001
                      BECMG 2306/2308 1500 BR BKN005
                      BECMG 2308/2309 5000 SCT010=
201910230500 TAF LRBC 230500Z 2306/2315 VRB04KT 0600 FG VV001
                      BECMG 2307/2309 1500 BR BKN005
                      BECMG 2309/2311 CAVOK=
201910230800 TAF LRBC 230800Z 2309/2318 VRB04KT 1500 BR BKN002
                      BECMG 2309/2311 5000 BKN015
                      BECMG 2315/2317 1500 BR BKN005=
201910231100 TAF LRBC 231100Z 2312/2321 VRB04KT 5000 BR BKN005
                      TEMPO 2312/2315 9999 NSW BKN015
                      BECMG 2315/2317 1500 BR BKN002
                      BECMG 2317/2319 0600 FG VV001=
201910231400 TAF LRBC 231400Z 2315/2324 VRB04KT 5000 BR SCT005
                      BECMG 2315/2317 1500 BR BKN002
                      BECMG 2317/2319 0600 FG VV001
                      BECMG 2319/2321 0100 FG=
201910231700 TAF LRBC 231700Z 2318/2403 18004KT 0800 FG VV002
                      BECMG 2318/2320 0150 FG VV001=
201910232000 TAF LRBC 232000Z 2321/2406 18004KT 0600 FG VV001
                      TEMPO 2322/2405 0150 FG=
201910232300 TAF LRBC 232300Z 2400/2409 20004KT 0350 FG VV001
                      TEMPO 2400/2405 0150 FG
                      BECMG 2406/2407 0800 BKN002
                      BECMG 2407/2409 3000 BR BKN005=
201910240200 TAF LRBC 240200Z 2403/2412 16007KT 0500 FG OVC001
                      TEMPO 2403/2405 0150 FG
                      BECMG 2406/2408 1500 BR BKN002
                      BECMG 2408/2410 5000 BKN005
                      BECMG 2410/2412 9999 NSW BKN010=
201910240500 TAF LRBC 240500Z 2406/2415 16007KT 0350 FG VV001
                      BECMG 2406/2408 0800 OVC002
                      BECMG 2408/2410 3000 BR BKN005
                      BECMG 2410/2412 9999 NSW SCT015=
201910240800 TAF LRBC 240800Z 2409/2418 18006KT 0350 FG VV001
                      BECMG 2409/2411 0800 OVC002
                      BECMG 2411/2413 3000 BR BKN005
                      TEMPO 2413/2416 5000 SCT010=
201910241100 TAF LRBC 241100Z 2412/2421 18006KT 3000 BR OVC002
                      TEMPO 2413/2416 7000 NSW BKN005=
201910241400 TAF LRBC 241400Z 2415/2424 17008KT 1500 BR OVC002
                      BECMG 2417/2419 0600 FG OVC001
                      BECMG 2419/2421 0350 FG=
201910241538 TAF AMD LRBC 241538Z 2415/2424 17008KT 0600 FG OVC002
                      BECMG 2416/2418 0350 FG OVC001
                      BECMG 2418/2420 0150 FG=
201910241700 TAF LRBC 241700Z 2418/2503 17008KT 0350 FG VV001
                      TEMPO 2418/2421 0600 OVC002=
201910242000 TAF LRBC 242000Z 2421/2506 17008KT 0350 FG VV001
                      TEMPO 2421/2423 0800 OVC002=
201910242300 TAF LRBC 242300Z 2500/2509 17008KT 1500 BR OVC001
                      TEMPO 2501/2506 0600 FG
                      PROB40 2502/2506 0350 FG
                      BECMG 2506/2508 5000 OVC005=
201910250200 TAF LRBC 250200Z 2503/2512 17008KT 1500 BR OVC001
                      TEMPO 2503/2506 0600 FG
                      PROB40 2503/2506 0350 FG
                      BECMG 2507/2509 5000 OVC005=
201910250500 TAF LRBC 250500Z 2506/2515 17008KT 3000 BR OVC002
                      BECMG 2506/2508 5000 OVC005
                      BECMG 2509/2511 7000 NSW BKN010=
201910250800 TAF LRBC 250800Z 2509/2518 18006KT 3000 BR BKN002 OVC005
                      BECMG 2509/2511 5000 OVC005
                      PROB40 TEMPO 2511/2514 8000 NSW BKN010=
201910251100 TAF LRBC 251100Z 2512/2521 18006KT 8000 BKN005 OVC010
                      TEMPO 2512/2514 BKN015
                      BECMG 2515/2517 3000 BR OVC003
                      BECMG 2517/2518 0800 FG OVC002
                      BECMG 2518/2520 0300 FG OVC001=
201910251400 TAF LRBC 251400Z 2515/2524 VRB04KT 9999 BKN005 OVC010
                      BECMG 2515/2517 3000 BR OVC003
                      BECMG 2517/2518 0800 FG OVC002
                      BECMG 2518/2520 0300 FG OVC001=
201910251700 TAF LRBC 251700Z 2518/2603 VRB04KT 9999 OVC010
                      BECMG 2519/2521 3000 BR OVC005
                      BECMG 2522/2524 0800 FG OVC002
                      TEMPO 2601/2603 0350 FG VV001=
201910252000 TAF LRBC 252000Z 2521/2606 VRB04KT 9999 OVC010
                      BECMG 2522/2524 3000 -DZ BR OVC005
                      TEMPO 2602/2606 0800 FG OVC002=
201910252300 TAF LRBC 252300Z 2600/2609 VRB04KT 5000 BR OVC010
                      TEMPO 2601/2606 1500 BR OVC005
                      PROB30 TEMPO 2603/2606 0600 FG OVC002=
201910260200 TAF LRBC 260200Z 2603/2612 VRB04KT 3000 BR OVC002
                      TEMPO 2603/2607 1500 BR
                      PROB30 TEMPO 2603/2606 0600 FG VV001
                      BECMG 2606/2608 5000 BKN010
                      BECMG 2609/2611 CAVOK=
201910260500 TAF LRBC 260500Z 2606/2615 VRB04KT 1500 BR OVC002
                      PROB30 TEMPO 2606/2607 0800 FG OVC001
                      BECMG 2607/2609 5000 BKN005
                      BECMG 2609/2611 9999 NSW BKN010
                      TEMPO 2611/2615 SCT015=
201910260800 TAF LRBC 260800Z 2609/2618 VRB04KT 5000 BR BKN005
                      BECMG 2609/2611 CAVOK
                      BECMG 2616/2618 5000 BR=
201910261100 TAF LRBC 261100Z 2612/2621 VRB04KT CAVOK
                      BECMG 2615/2617 5000 BR
                      BECMG 2617/2619 1500 BR
                      BECMG 2619/2621 0800 FG BKN002=
201910261400 TAF LRBC 261400Z 2615/2624 VRB04KT CAVOK
                      BECMG 2615/2617 5000 BR
                      BECMG 2617/2619 1500 BR
                      BECMG 2619/2621 0800 FG BKN002
                      BECMG 2622/2624 0350 FG OVC001=
201910261700 TAF LRBC 261700Z 2618/2703 17006KT 5000 BR NSC
                      BECMG 2618/2619 1500 BR
                      BECMG 2619/2621 0800 FG BKN002
                      BECMG 2621/2623 0350 FG OVC001=
201910262000 TAF LRBC 262000Z 2621/2706 17006KT 3000 BR NSC
                      BECMG 2621/2622 0800 FG OVC002
                      BECMG 2622/2624 0350 FG OVC001=
201910262300 TAF LRBC 262300Z 2700/2709 17006KT 0800 FG OVC002
                      BECMG 2700/2702 0350 FG OVC001
                      BECMG 2707/2709 1500 BR BKN002=
201910270200 TAF LRBC 270200Z 2703/2712 VRB04KT 0300 FG VV001
                      BECMG 2707/2709 0800 OVC002
                      BECMG 2709/2710 3000 BR BKN005
                      BECMG 2710/2712 CAVOK=
201910270500 TAF LRBC 270500Z 2706/2715 VRB04KT 0300 FG VV001
                      BECMG 2707/2709 0800 OVC002
                      BECMG 2709/2710 3000 BR BKN005
                      BECMG 2710/2712 CAVOK=
201910270800 TAF LRBC 270800Z 2709/2718 17008KT 0600 FG OVC002
                      TEMPO 2709/2710 0350 FG VV001
                      BECMG 2710/2712 1500 BR BKN005=
201910271100 TAF LRBC 271100Z 2712/2721 17008KT 1500 BR OVC005
                      TEMPO 2712/2715 5000 BR BKN010
                      BECMG 2717/2719 0600 FG OVC002=
201910271400 TAF LRBC 271400Z 2715/2724 17008KT 0350 FG VV001
                      TEMPO 2715/2717 0600 FG OVC002=
201910271700 TAF LRBC 271700Z 2718/2803 17008KT 0350 FG VV001=
201910272000 TAF LRBC 272000Z 2721/2806 VRB04KT 0500 FG OVC001
                      PROB30 TEMPO 2721/2724 1500 FG SCT002
                      TEMPO 2800/2806 0150 FG=
201910272048 TAF COR LRBC 272048Z 2721/2806 VRB04KT 0500 FG OVC001
                      PROB30 TEMPO 2721/2724 1500 BR SCT002
                      TEMPO 2800/2806 0150 FG=
201910272300 TAF LRBC 272300Z 2800/2809 VRB04KT 0600 FG OVC001
                      TEMPO 2800/2805 0150 FG
                      BECMG 2805/2807 1500 BR BKN003
                      BECMG 2807/2809 5000 SCT010=
201910280200 TAF LRBC 280200Z 2803/2812 VRB04KT 0600 FG VV001
                      TEMPO 2803/2805 0150 FG
                      BECMG 2805/2807 1500 BR BKN005
                      BECMG 2807/2809 5000 SCT010
                      BECMG 2809/2810 CAVOK=
201910280500 TAF LRBC 280500Z 2806/2815 VRB04KT 0350 FG VV001
                      BECMG 2806/2808 1500 BR BKN003
                      BECMG 2808/2810 5000 SCT010
                      BECMG 2810/2811 CAVOK=
201910280800 TAF LRBC 280800Z 2809/2818 VRB04KT CAVOK=
201910281100 TAF LRBC 281100Z 2812/2821 34006KT CAVOK
                      BECMG 2819/2821 5000 BR BKN015 BKN035=
201910281400 TAF LRBC 281400Z 2815/2824 34006KT CAVOK
                      BECMG 2819/2821 5000 BR BKN015 BKN035
                      TEMPO 2822/2824 3000 -RADZ BKN010 BKN030=
201910281700 TAF LRBC 281700Z 2818/2903 34006KT 5000 BR NSC
                      BECMG 2819/2821 3000 BR BKN015 BKN035
                      TEMPO 2822/2903 1500 -RADZ BKN005 OVC030=
201910282000 TAF LRBC 282000Z 2821/2906 34008KT 5000 BR BKN035
                      TEMPO 2822/2824 3000 RA BKN010 OVC030
                      TEMPO 2900/2904 1500 RA BR BKN005 OVC025=
201910282300 TAF LRBC 282300Z 2900/2909 34008KT 9999 SCT015 BKN030
                      TEMPO 2900/2905 3000 RA BKN005 OVC025=
201910290200 TAF LRBC 290200Z 2903/2912 34008KT 9999 BKN010 BKN030
                      TEMPO 2903/2907 3000 RA BKN005 OVC025=
201910290500 TAF LRBC 290500Z 2906/2915 35008KT 9999 SCT010 BKN025
                      TEMPO 2906/2912 5000 -RA SCT005 OVC020=
201910290800 TAF LRBC 290800Z 2909/2918 35008KT 9999 SCT015 BKN035
                      TEMPO 2909/2911 5000 -RA SCT010 OVC030
                      TEMPO 2915/2918 3000 RA BKN005 OVC020=
201910291100 TAF LRBC 291100Z 2912/2921 35008KT 9999 SCT015 OVC025
                      TEMPO 2915/2921 3000 RA BKN005 OVC015=
201910291400 TAF LRBC 291400Z 2915/2924 VRB04KT 9999 SCT015 OVC035
                      TEMPO 2916/2924 5000 -RA BKN005 OVC020
                      BECMG 2922/2924 36010KT=
201910291700 TAF LRBC 291700Z 2918/3003 34008KT 9999 SCT015 OVC025
                      TEMPO 2918/2924 5000 -RA BKN005 OVC020=
201910292000 TAF LRBC 292000Z 2921/3006 34008KT 9999 BKN015 OVC025
                      TEMPO 2921/3004 5000 -RA BKN010 OVC020=
201910292300 TAF LRBC 292300Z 3000/3009 36008KT 9999 BKN015 OVC025
                      TEMPO 3000/3004 5000 -RA BR BKN010 OVC020=
201910300200 TAF LRBC 300200Z 3003/3012 33008KT 9999 BKN020 OVC040
                      TEMPO 3003/3004 5000 -RA BKN015 OVC020=
201910300500 TAF LRBC 300500Z 3006/3015 33008KT 9999 BKN065
                      PROB30 TEMPO 3006/3009 BKN015 BKN035=
201910300800 TAF LRBC 300800Z 3009/3018 34010KT 9999 BKN065
                      PROB30 TEMPO 3009/3012 BKN015 BKN035=
201910301100 TAF LRBC 301100Z 3012/3021 01008KT 9999 BKN060
                      BECMG 3019/3021 5000 -RA BKN015 OVC035=
201910301400 TAF LRBC 301400Z 3015/3024 VRB04KT 9999 BKN050
                      BECMG 3019/3021 5000 -RA BKN015 OVC035=
201910301700 TAF LRBC 301700Z 3018/3103 VRB04KT 9999 BKN050
                      BECMG 3018/3020 5000 -RA BKN015 OVC035
                      PROB40 TEMPO 3021/3024 3000 RA BKN010 OVC030=
201910302000 TAF LRBC 302000Z 3021/3106 34005KT 9999 BKN050
                      TEMPO 3021/3103 5000 -RA BR BKN015 OVC030=
201910302300 TAF LRBC 302300Z 3100/3109 34005KT 9999 BKN015 OVC020
                      TEMPO 3100/3105 5000 -RA BR BKN010 OVC030=
201910310200 TAF LRBC 310200Z 3103/3112 VRB04KT 9999 BKN050
                      TEMPO 3103/3106 5000 -RA BR BKN015 OVC050
                       BECMG 3106/3108 35010KT=
201910310500 TAF LRBC 310500Z 3106/3115 VRB04KT 9999 OVC055
                      BECMG 3106/3108 35010KT=
201910310800 TAF LRBC 310800Z 3109/3118 35006KT 9999 OVC055=
201910311100 TAF LRBC 311100Z 3112/3121 VRB04KT 9999 BKN045=
201910311400 TAF LRBC 311400Z 3115/3124 32006KT 9999 BKN050=
201910311700 TAF LRBC 311700Z 3118/0103 VRB04KT 9999 BKN050=
201910312000 TAF LRBC 312000Z 3121/0106 VRB04KT 9999 BKN050=
201910312300 TAF LRBC 312300Z 0100/0109 VRB04KT 9999 SCT050=