201911010200 TAF LRBC 010200Z 0103/0112 VRB04KT CAVOK=
201911010500 TAF LRBC 010500Z 0106/0115 VRB04KT 9999 SCT060
                      TEMPO 0106/0107 5000 BR
                      BECMG 0109/0111 15010KT=
201911010800 TAF LRBC 010800Z 0109/0118 15006KT CAVOK=
201911011100 TAF LRBC 011100Z 0112/0121 15006KT CAVOK=
201911011400 TAF LRBC 011400Z 0115/0124 17007KT CAVOK=
201911011700 TAF LRBC 011700Z 0118/0203 17006KT CAVOK=
201911012000 TAF LRBC 012000Z 0121/0206 17012KT CAVOK=
201911012300 TAF LRBC 012300Z 0200/0209 17012KT CAVOK
                      TEMPO 0207/0209 17015G25KT=
201911020200 TAF LRBC 020200Z 0203/0212 17012KT CAVOK
                      TEMPO 0207/0212 17020G30KT=
201911020500 TAF LRBC 020500Z 0206/0215 17016KT CAVOK
                      TEMPO 0210/0215 17018G30KT
                      PROB30 TEMPO 0214/0215 5000 -RA BR=
201911020800 TAF LRBC 020800Z 0209/0218 16016KT CAVOK
                      TEMPO 0210/0215 16018G30KT
                      PROB40 TEMPO 0214/0218 5000 -RA BR=
201911021100 TAF LRBC 021100Z 0212/0221 16018KT CAVOK
                      TEMPO 0212/0215 16018G30KT
                      PROB40 TEMPO 0214/0218 5000 -RA BR=
201911021400 TAF LRBC 021400Z 0215/0224 15016KT 9999 SCT020
                      PROB30 TEMPO 0215/0217 5000 -RA BR
                      PROB30 TEMPO 0222/0224 5000 -RA BR=
201911021700 TAF LRBC 021700Z 0218/0303 16014KT 9999 SCT065
                      PROB30 TEMPO 0220/0223 5000 -RA BR
                      TEMPO 0223/0303 3000 -RADZ BR BKN010 BKN040=
201911022000 TAF LRBC 022000Z 0221/0306 17012KT 9999 SCT065
                      PROB30 TEMPO 0221/0223 5000 -RA BR
                      TEMPO 0223/0305 3000 -RADZ BR BKN007 BKN035=
201911022300 TAF LRBC 022300Z 0300/0309 17012KT 9999 SCT065
                      TEMPO 0300/0305 3000 -RADZ BR BKN005 BKN035=
201911030200 TAF LRBC 030200Z 0303/0312 17012KT 9999 BKN010 BKN060
                      TEMPO 0303/0306 3000 -RADZ BR BKN005 OVC040
                       BECMG 0307/0309 SCT010 BKN060=
201911030500 TAF LRBC 030500Z 0306/0315 17014KT 9999 OVC003
                      BECMG 0307/0309 SCT030=
201911030800 TAF LRBC 030800Z 0309/0318 17014KT CAVOK=
201911031100 TAF LRBC 031100Z 0312/0321 17012KT CAVOK=
201911031400 TAF LRBC 031400Z 0315/0324 17010KT CAVOK=
201911031700 TAF LRBC 031700Z 0318/0403 16012KT CAVOK=
201911032000 TAF LRBC 032000Z 0321/0406 16012KT CAVOK=
201911032300 TAF LRBC 032300Z 0400/0409 17012KT CAVOK=
201911040200 TAF LRBC 040200Z 0403/0412 17012KT CAVOK=
201911040500 TAF LRBC 040500Z 0406/0415 17012KT CAVOK=
201911040800 TAF LRBC 040800Z 0409/0418 16012KT CAVOK=
201911041100 TAF LRBC 041100Z 0412/0421 16012KT CAVOK=
201911041400 TAF LRBC 041400Z 0415/0424 16008KT CAVOK=
201911041700 TAF LRBC 041700Z 0418/0503 18008KT CAVOK=
201911042000 TAF LRBC 042000Z 0421/0506 18008KT CAVOK=
201911042300 TAF LRBC 042300Z 0500/0509 17008KT CAVOK=
201911050200 TAF LRBC 050200Z 0503/0512 VRB04KT CAVOK
                      BECMG 0509/0511 22010KT=
201911050500 TAF LRBC 050500Z 0506/0515 22010KT CAVOK=
201911050800 TAF LRBC 050800Z 0509/0518 24010KT CAVOK=
201911051100 TAF LRBC 051100Z 0512/0521 17010KT CAVOK=
201911051400 TAF LRBC 051400Z 0515/0524 17010KT CAVOK=
201911051700 TAF LRBC 051700Z 0518/0603 18008KT CAVOK=
201911052000 TAF LRBC 052000Z 0521/0606 17010KT CAVOK
                      TEMPO 0523/0603 3000 BR=
201911052300 TAF LRBC 052300Z 0600/0609 16010KT CAVOK
                      TEMPO 0600/0605 3000 BR BKN010=
201911060200 TAF LRBC 060200Z 0603/0612 16010KT CAVOK
                      TEMPO 0603/0605 3000 BR BKN010=
201911060500 TAF LRBC 060500Z 0606/0615 16012KT CAVOK
                      BECMG 0610/0612 23010KT
                      BECMG 0613/0615 VRB04KT=
201911060800 TAF LRBC 060800Z 0609/0618 17012KT CAVOK
                      BECMG 0610/0612 23010KT
                      BECMG 0613/0615 VRB04KT=
201911061100 TAF LRBC 061100Z 0612/0621 17012KT CAVOK
                      BECMG 0613/0615 23010KT
                      BECMG 0616/0618 VRB04KT
                      PROB30 TEMPO 0619/0621 FEW040CB BKN070=
201911061400 TAF LRBC 061400Z 0615/0624 VRB04KT 9999 BKN060
                      TEMPO 0615/0618 27010KT
                      PROB40 TEMPO 0620/0624 FEW040CB BKN060=
201911061700 TAF LRBC 061700Z 0618/0703 29006KT CAVOK
                      PROB40 TEMPO 0622/0703 FEW040CB BKN050=
201911062000 TAF LRBC 062000Z 0621/0706 VRB04KT CAVOK
                      PROB40 TEMPO 0623/0706 5000 -SHRA BR FEW040CB
                       BKN050=
201911062300 TAF LRBC 062300Z 0700/0709 VRB04KT CAVOK
                      PROB40 TEMPO 0700/0708 5000 -SHRA BR FEW040CB
                       BKN050=
201911070200 TAF LRBC 070200Z 0703/0712 VRB04KT CAVOK
                      PROB40 TEMPO 0703/0708 5000 -RA BR BKN015
                       BKN040=
201911070500 TAF LRBC 070500Z 0706/0715 VRB04KT CAVOK=
201911070800 TAF LRBC 070800Z 0709/0718 35006KT CAVOK=
201911071100 TAF LRBC 071100Z 0712/0721 05005KT CAVOK=
201911071400 TAF LRBC 071400Z 0715/0724 VRB04KT CAVOK=
201911071700 TAF LRBC 071700Z 0718/0803 VRB04KT CAVOK
                      PROB30 TEMPO 0718/0722 5000 BR
                      PROB40 TEMPO 0800/0803 5000 -RA BR BKN015
                       BKN040=
201911072000 TAF LRBC 072000Z 0721/0806 VRB04KT CAVOK
                      PROB30 TEMPO 0721/0802 5000 BR
                      PROB40 TEMPO 0802/0806 5000 -RA BR BKN010
                       BKN040=
201911072300 TAF LRBC 072300Z 0800/0809 VRB04KT CAVOK
                      TEMPO 0800/0802 5000 BR
                      PROB40 TEMPO 0802/0806 5000 -RA BR BKN010
                       BKN040=
201911080200 TAF LRBC 080200Z 0803/0812 VRB04KT CAVOK
                      PROB40 TEMPO 0803/0806 4000 BR BKN010=
201911080500 TAF LRBC 080500Z 0806/0815 VRB04KT 3000 BR NSC
                      BECMG 0807/0809 9999 NSW BKN035=
201911080800 TAF LRBC 080800Z 0809/0818 VRB04KT 9999 BKN035
                      TEMPO 0809/0810 5000 BR=
201911081100 TAF LRBC 081100Z 0812/0821 VRB04KT 9999 BKN035=
201911081400 TAF LRBC 081400Z 0815/0824 VRB04KT 9999 BKN035=
201911081700 TAF LRBC 081700Z 0818/0903 VRB04KT 9999 BKN035
                      BECMG 0820/0822 3000 BR BKN005
                      TEMPO 0900/0903 0600 FG -DZ BKN002 OVC010=
201911082000 TAF LRBC 082000Z 0821/0906 11008KT 9999 BKN025
                      PROB40 TEMPO 0823/0904 3000 -RA BR BKN005
                       OVC010=
201911082300 TAF LRBC 082300Z 0900/0909 16006KT 9999 BKN020
                      PROB30 TEMPO 0900/0904 3000 -RA BR BKN005
                       OVC015=
201911090200 TAF LRBC 090200Z 0903/0912 16008KT 5000 BR BKN010 BKN025
                      TEMPO 0903/0906 1500 -RA BR BKN002 BKN020
                       BECMG 0906/0908 9999 NSW BKN020=
201911090500 TAF LRBC 090500Z 0906/0915 16008KT 0800 FG VV001
                      BECMG 0906/0908 3000 BR BKN005
                      BECMG 0908/0910 9999 NSW SCT020=
201911090800 TAF LRBC 090800Z 0909/0918 16008KT 1500 BR VV002
                      BECMG 0909/0911 5000 BR SCT010
                      TEMPO 0911/0916 9999 NSW
                      TEMPO 0916/0918 5000 BR=
201911090805 TAF AMD LRBC 090805Z 0908/0915 16008KT 0800 FG VV002
                      BECMG 0908/0910 3000 BR BKN005
                      BECMG 0910/0911 9999 NSW SCT020=
201911091038 TAF COR LRBC 091038Z 0909/0918 16008KT 1500 BR VV002
                      BECMG 0909/0911 5000 BR SCT010
                      TEMPO 0911/0916 9999 NSW=
201911091100 TAF LRBC 091100Z 0912/0921 19008KT 5000 BR NSC
                      TEMPO 0912/0916 9999 NSW
                      BECMG 0918/0920 3000 BR BKN005
                      TEMPO 0920/0921 0800 FG VV002=
201911091400 TAF LRBC 091400Z 0915/0924 17008KT 5000 BR NSC
                      BECMG 0917/0919 3000 BR BKN005
                      BECMG 0919/0921 0800 FG VV002
                      PROB40 TEMPO 0921/0924 0350 FG VV001=
201911091700 TAF LRBC 091700Z 0918/1003 20008KT CAVOK
                      BECMG 0919/0921 3000 BR BKN010
                      BECMG 0922/0924 0800 FG OVC002
                      PROB30 TEMPO 1000/1003 0350 FG VV001=
201911092000 TAF LRBC 092000Z 0921/1006 16010KT CAVOK
                      BECMG 0922/0924 3000 BR BKN010
                      BECMG 1000/1002 0800 FG OVC002
                      PROB30 TEMPO 1002/1006 0350 FG VV001=
201911092300 TAF LRBC 092300Z 1000/1009 16010KT CAVOK
                      BECMG 1000/1002 3000 BR BKN010
                      BECMG 1000/1002 0800 FG OVC002
                      PROB30 TEMPO 1002/1006 0350 FG VV001
                      BECMG 1006/1008 3000 BR BKN010=
201911100225 TAF COR LRBC 100225Z 1003/1012 17010KT 5000 BR NSC
                      TEMPO 1003/1005 1500 BR BKN005
                      BECMG 1005/1007 9999 NSW=
201911100436 TAF AMD LRBC 100436Z 1004/1012 17010KT 0350 FG VV001
                      BECMG 1008/1010 1500 BR BKN005
                      BECMG 1010/1012 3000 BR BKN010=
201911100500 TAF LRBC 100500Z 1006/1015 18010KT 0300 FG VV001
                      BECMG 1006/1007 1500 BR BKN005
                      BECMG 1007/1008 5000 SCT015
                      BECMG 1008/1010 16018G28KT 9999 NSW=
201911100800 TAF LRBC 100800Z 1009/1018 17014KT 3000 BR BKN002
                      TEMPO 1009/1010 5000 BR BKN007
                      BECMG 1010/1012 17018G28KT 9999 NSW SCT020
                       BECMG 1014/1017 17008KT=
201911100832 TAF COR LRBC 100832Z 1009/1018 17014KT 3000 BR BKN002
                      BECMG 1009/1010 5000 BR BKN007
                      BECMG 1010/1012 17018G28KT 9999 NSW SCT020
                       BECMG 1014/1017 17008KT=
201911101100 TAF LRBC 101100Z 1012/1021 16018KT CAVOK
                      PROB40 TEMPO 1012/1014 17018G28KT
                      BECMG 1014/1017 17008KT=
201911101400 TAF LRBC 101400Z 1015/1024 15014KT CAVOK
                      BECMG 1018/1020 VRB04KT=
201911101700 TAF LRBC 101700Z 1018/1103 15006KT CAVOK
                      PROB40 TEMPO 1100/1103 3000 BR=
201911102000 TAF LRBC 102000Z 1021/1106 15006KT CAVOK
                      PROB40 TEMPO 1100/1103 3000 BR
                      BECMG 1103/1105 3000 BR=
201911102300 TAF LRBC 102300Z 1100/1109 20005KT CAVOK
                      PROB40 TEMPO 1100/1103 3000 BR
                      BECMG 1103/1105 3000 BR=
201911110200 TAF LRBC 110200Z 1103/1112 VRB04KT CAVOK
                      TEMPO 1103/1106 3000 BR=
201911110500 TAF LRBC 110500Z 1106/1115 VRB04KT CAVOK=
201911110800 TAF LRBC 110800Z 1109/1118 25008KT CAVOK=
201911111100 TAF LRBC 111100Z 1112/1121 26010KT CAVOK=
201911111400 TAF LRBC 111400Z 1115/1124 VRB04KT CAVOK=
201911111700 TAF LRBC 111700Z 1118/1203 VRB04KT CAVOK
                      TEMPO 1200/1203 3000 BR=
201911112000 TAF LRBC 112000Z 1121/1206 VRB04KT CAVOK
                      TEMPO 1201/1206 3000 BR BKN010=
201911112300 TAF LRBC 112300Z 1200/1209 VRB04KT CAVOK
                      TEMPO 1201/1206 3000 BR BKN010
                      BECMG 1206/1208 16012KT=
201911120200 TAF LRBC 120200Z 1203/1212 VRB04KT CAVOK
                      TEMPO 1203/1206 3000 BR
                      BECMG 1204/1207 16010KT
                      TEMPO 1210/1212 16015G25KT=
201911120500 TAF LRBC 120500Z 1206/1215 VRB04KT 3000 BR NSC
                      BECMG 1206/1208 16010KT CAVOK
                      TEMPO 1210/1213 16015G25KT=
201911120637 TAF AMD LRBC 120637Z 1206/1215 VRB04KT 0350 FG VV001
                      BECMG 1207/1209 0800 BKN002
                      BECMG 1209/1211 16014KT 3000 BR BKN005
                      TEMPO 1211/1214 16018G28KT 5000 BKN010=
201911120735 TAF AMD LRBC 120735Z 1207/1215 17010KT 9999 BKN040
                      TEMPO 1207/1209 3000 BR BKN010
                      TEMPO 1210/1214 16018G28KT=
201911120800 TAF LRBC 120800Z 1209/1218 17014KT 9999 BKN040
                      TEMPO 1210/1216 16018G28KT=
201911121100 TAF LRBC 121100Z 1212/1221 17014KT CAVOK
                      TEMPO 1212/1216 16018G28KT
                      BECMG 1216/1218 3000 BR BKN010=
201911121400 TAF LRBC 121400Z 1215/1224 17014KT CAVOK
                      BECMG 1216/1218 5000 BR BKN010
                      BECMG 1221/1223 1500 BR BKN005=
201911121700 TAF LRBC 121700Z 1218/1303 16010KT CAVOK
                      PROB30 TEMPO 1223/1303 3000 BR BKN010=
201911122000 TAF LRBC 122000Z 1221/1306 16010KT CAVOK
                      TEMPO 1223/1304 3000 BR BKN010=
201911122300 TAF LRBC 122300Z 1300/1309 16010KT CAVOK
                      TEMPO 1300/1306 3000 BR BKN010=
201911130200 TAF LRBC 130200Z 1303/1312 17010KT 7000 BKN025
                      TEMPO 1303/1306 3000 BR BKN010 BKN025=
201911130500 TAF LRBC 130500Z 1306/1315 17010KT 5000 BR BKN025
                      TEMPO 1306/1307 3000 BR BKN010 BKN025
                      BECMG 1307/1309 9999 NSW=
201911130800 TAF LRBC 130800Z 1309/1318 17010KT 9999 BKN020=
201911131100 TAF LRBC 131100Z 1312/1321 17012KT 9999 BKN030=
201911131400 TAF LRBC 131400Z 1315/1324 16008KT 9999 BKN025
                      BECMG 1317/1319 BKN015
                      BECMG 1320/1322 3000 BR BKN005=
201911131700 TAF LRBC 131700Z 1318/1403 17008KT 9999 BKN015 BKN025
                      BECMG 1320/1322 3000 BR BKN005 BKN015
                      BECMG 1322/1324 1500 BR BKN002 OVC010
                      TEMPO 1401/1403 0600 FG OVC001=
201911132000 TAF LRBC 132000Z 1321/1406 15010KT 9999 BKN010
                      BECMG 1321/1323 3000 BR BKN005
                      BECMG 1323/1401 1500 BR BKN002
                      TEMPO 1401/1406 0600 FG OVC001=
201911132300 TAF LRBC 132300Z 1400/1409 16010KT 5000 BR BKN010 OVC015
                      BECMG 1400/1402 1500 BR BKN005
                      TEMPO 1402/1406 0600 FG OVC001
                      BECMG 1406/1408 5000 BKN015=
201911140200 TAF LRBC 140200Z 1403/1412 16008KT 5000 BR BKN010
                      TEMPO 1403/1407 1500 BR OVC005=
201911140500 TAF LRBC 140500Z 1406/1415 16008KT 5000 BR OVC010
                      TEMPO 1406/1407 3000 BR BKN005 OVC010
                      BECMG 1408/1410 9999 NSW SCT010 BKN017=
201911140800 TAF LRBC 140800Z 1409/1418 15010KT 9999 OVC010
                      BECMG 1409/1411 SCT010 OVC015
                      BECMG 1411/1413 SCT010 OVC020=
201911141100 TAF LRBC 141100Z 1412/1421 15007KT 9999 SCT010 OVC020=
201911141400 TAF LRBC 141400Z 1415/1424 12006KT 9999 SCT010 OVC020
                      BECMG 1421/1423 OVC015
                      PROB30 TEMPO 1423/1424 5000 -DZ BR BKN010
                       OVC015=
201911141700 TAF LRBC 141700Z 1418/1503 VRB04KT 9999 SCT020 BKN030
                      BECMG 1423/1501 5000 -DZ BR BKN010 OVC025=
201911142000 TAF LRBC 142000Z 1421/1506 VRB04KT 9999 SCT015 OVC030
                      BECMG 1423/1501 5000 -DZRA BR BKN010 OVC025
                       TEMPO 1502/1506 1500 -DZRA BR BKN005 OVC015=
201911142300 TAF LRBC 142300Z 1500/1509 VRB04KT 9999 OVC020
                      BECMG 1500/1502 5000 -DZRA BR BKN010 OVC020
                       TEMPO 1502/1508 1500 -DZRA BR BKN005 OVC015=
201911150200 TAF LRBC 150200Z 1503/1512 VRB04KT 5000 -RA BR OVC015
                      TEMPO 1503/1507 3000 RA OVC010
                      BECMG 1508/1510 9999 NSW BKN030=
201911150500 TAF LRBC 150500Z 1506/1515 VRB04KT 5000 -RA BR BKN025 BKN050
                      TEMPO 1506/1509 3000 RA BKN010 OVC030
                      BECMG 1509/1511 9999 NSW=
201911150800 TAF LRBC 150800Z 1509/1518 VRB04KT 3000 RA BKN005 BKN025
                      BECMG 1509/1511 7000 NSW BKN025
                      BECMG 1516/1518 3000 BR BKN010=
201911151100 TAF LRBC 151100Z 1512/1521 VRB04KT 9999 BKN020
                      BECMG 1516/1518 3000 BR BKN010
                      BECMG 1518/1520 1500 BR BKN005=
201911151400 TAF LRBC 151400Z 1515/1524 VRB04KT 9999 BKN010
                      BECMG 1516/1518 3000 BR
                      BECMG 1518/1520 1500 BR BKN005
                      PROB30 TEMPO 1521/1524 0600 FG OVC002=
201911151605 TAF AMD LRBC 151605Z 1516/1524 VRB04KT 7000 BKN004 OVC015
                      BECMG 1516/1518 3000 BR
                      BECMG 1518/1520 1500 BR BKN002 OVC010
                      PROB30 TEMPO 1521/1524 0600 FG OVC001=
201911151700 TAF LRBC 151700Z 1518/1603 17007KT 5000 BR SCT002 OVC005
                      BECMG 1518/1520 3000 BR
                      TEMPO 1600/1603 1500 BR BKN002 OVC005=
201911152000 TAF LRBC 152000Z 1521/1606 17006KT 0600 FG OVC001
                      TEMPO 1521/1523 1500 BR BCFG SCT002 OVC010
                       TEMPO 1602/1606 0350 FG=
201911152300 TAF LRBC 152300Z 1600/1609 16006KT 5000 BR BKN010
                      TEMPO 1602/1607 1500 BR BKN005 BKN015
                      BECMG 1607/1609 8000 NSW SCT010 BKN015=
201911160200 TAF LRBC 160200Z 1603/1612 16008KT 7000 OVC005
                      TEMPO 1603/1607 1500 BR OVC002
                      BECMG 1607/1609 SCT005 BKN010
                      BECMG 1610/1612 BKN020=
201911160500 TAF LRBC 160500Z 1606/1615 16008KT 9999 BKN005 OVC010
                      BECMG 1607/1609 SCT010 BKN020=
201911160800 TAF LRBC 160800Z 1609/1618 16008KT 9999 BKN005 OVC010
                      BECMG 1609/1611 SCT010 BKN020
                      BECMG 1614/1616 3000 BR BKN005=
201911161050 TAF AMD LRBC 161050Z 1610/1618 16008KT 5000 BR BKN002 OVC005
                      TEMPO 1610/1614 BKN005 OVC015
                      BECMG 1614/1616 3000 BR
                      TEMPO 1616/1618 1500 BR=
201911161100 TAF LRBC 161100Z 1612/1621 16008KT 3000 BR BKN001 OVC005
                      PROB30 TEMPO 1612/1614 BKN005 OVC010
                      BECMG 1614/1616 1500 BR
                      TEMPO 1618/1621 0600 FG VV001=
201911161335 TAF AMD LRBC 161335Z 1613/1621 16008KT 0500 FG VV002
                      PROB30 TEMPO 1613/1615 0800 FG
                      BECMG 1615/1617 0350 FG VV001
                      TEMPO 1617/1621 0150 FG=
201911161400 TAF LRBC 161400Z 1615/1624 16008KT 0150 FG VV001
                      PROB30 TEMPO 1615/1616 0600 FG=
201911161700 TAF LRBC 161700Z 1618/1703 17008KT 3000 -DZ BR OVC002
                      BECMG 1619/1621 1500 BR
                      BECMG 1621/1623 0600 FG
                      TEMPO 1623/1703 0350 FG VV001=
201911162000 TAF LRBC 162000Z 1621/1706 17006KT 5000 BR BKN005
                      PROB30 TEMPO 1700/1706 1500 BR BKN002=
201911162300 TAF LRBC 162300Z 1700/1709 17010KT 0300 FG VV001
                      PROB30 TEMPO 1700/1702 0600
                      BECMG 1707/1709 0800 BKN003=
201911170200 TAF LRBC 170200Z 1703/1712 16015KT 3000 BR OVC005
                      PROB30 TEMPO 1703/1705 0800 FG BKN001
                      BECMG 1705/1707 5000 BKN010
                      BECMG 1707/1709 9999 NSW SCT020=
201911170500 TAF LRBC 170500Z 1706/1715 16014KT 5000 BR OVC010
                      BECMG 1706/1708 9999 NSW BKN015
                      BECMG 1708/1710 BKN020=
201911170714 TAF AMD LRBC 170714Z 1707/1715 16014KT 3000 BR BKN002 BKN005
                      BECMG 1707/1709 5000 BKN010
                      BECMG 1709/1711 9999 NSW BKN015=
201911170800 TAF LRBC 170800Z 1709/1718 16014KT 5000 BR BKN005 BKN015
                      BECMG 1709/1711 9999 NSW BKN020=
201911171100 TAF LRBC 171100Z 1712/1721 16012KT 8000 BKN020
                      TEMPO 1712/1716 BKN015
                      BECMG 1717/1719 5000 BR BKN015
                      BECMG 1719/1721 3000 BR BKN010=
201911171400 TAF LRBC 171400Z 1715/1724 16010KT 9999 BKN020
                      BECMG 1717/1719 5000 BR BKN010
                      BECMG 1719/1721 3000 BR OVC005=
201911171700 TAF LRBC 171700Z 1718/1803 16010KT 9999 BKN010 BKN020
                      BECMG 1719/1721 5000 BR
                      TEMPO 1722/1803 1500 BR OVC005=
201911172000 TAF LRBC 172000Z 1721/1806 16010KT 9999 BKN010 OVC020
                      TEMPO 1800/1805 3000 BR BKN005 OVC010=
201911172300 TAF LRBC 172300Z 1800/1809 16010KT 5000 BR BKN005 OVC010
                      TEMPO 1800/1805 1500 BR BKN002
                      BECMG 1805/1807 9999 NSW BKN015=
201911180200 TAF LRBC 180200Z 1803/1812 16010KT 5000 BR BKN005 OVC010
                      TEMPO 1803/1805 1500 BR BKN002
                      BECMG 1805/1807 9999 NSW BKN015=
201911180500 TAF LRBC 180500Z 1806/1815 16012KT 5000 BR OVC010
                      TEMPO 1806/1808 3000 BR OVC005
                      BECMG 1808/1810 9999 NSW SCT015 BKN020=
201911180800 TAF LRBC 180800Z 1809/1818 16015KT 9999 SCT015 BKN025
                      TEMPO 1809/1812 16015G25KT 5000 BR BKN010=
201911181100 TAF LRBC 181100Z 1812/1821 16015KT 9999 SCT010 BKN025
                      BECMG 1816/1818 5000 BR BKN010 BKN020
                      PROB30 TEMPO 1818/1821 3000 -RA BR BKN005
                       OVC020=
201911181400 TAF LRBC 181400Z 1815/1824 16015KT 9999 SCT010 BKN020
                      BECMG 1817/1819 5000 BR BKN010 BKN020
                      TEMPO 1820/1824 3000 -RA BR BKN005 OVC020=
201911181700 TAF LRBC 181700Z 1818/1903 16008KT 3000 BR SCT010
                      BECMG 1818/1820 1500 BR BKN005
                      TEMPO 1820/1823 0600 FG OVC002
                      BECMG 1823/1901 3000 -RA BR BKN010 BKN020=
201911182000 TAF LRBC 182000Z 1821/1906 18008KT 3000 BR NSC
                      TEMPO 1821/1902 1500 BR BKN005
                      PROB30 TEMPO 1822/1901 0600 FG OVC002
                      TEMPO 1902/1906 1500 -RA BR BKN010 BKN030=
201911182300 TAF LRBC 182300Z 1900/1909 18008KT 3000 BR SCT010 BKN025
                      TEMPO 1900/1909 1500 -RA BR BKN005 BKN020=
201911190200 TAF LRBC 190200Z 1903/1912 16006KT 3000 BR BKN005 BKN010
                      TEMPO 1903/1911 1500 -RA BR BKN002 BKN010=
201911190440 TAF AMD LRBC 190440Z 1904/1912 16006KT 0600 FG VV002
                      BECMG 1907/1909 1500 BR OVC005
                      BECMG 1909/1911 3000 BR BKN010=
201911190500 TAF LRBC 190500Z 1906/1915 15006KT 0600 FG VV001
                      BECMG 1907/1909 3000 BR OVC005
                      BECMG 1909/1911 9999 NSW BKN020=
201911190800 TAF LRBC 190800Z 1909/1918 VRB04KT 0800 FG VV001
                      BECMG 1909/1911 3000 BR BKN005
                      TEMPO 1911/1914 9999 NSW BKN020
                      BECMG 1915/1917 0800 FG BKN002=
201911191100 TAF LRBC 191100Z 1912/1921 16008KT 3000 BR BKN005
                      TEMPO 1912/1914 9999 NSW BKN020
                      BECMG 1915/1917 0800 FG BKN002
                      BECMG 1917/1919 0350 FG VV001=
201911191400 TAF LRBC 191400Z 1915/1924 17006KT 3000 BR SCT005
                      BECMG 1915/1917 0800 FG BKN002
                      BECMG 1917/1919 0350 FG VV001=
201911191700 TAF LRBC 191700Z 1918/2003 17006KT 3000 BR BKN010
                      BECMG 1918/1920 1500 BR BKN005
                      BECMG 1921/1923 0600 FG OVC002
                      TEMPO 1923/1924 0350 FG OVC001=
201911192000 TAF LRBC 192000Z 1921/2006 16007KT 3000 BR BKN005
                      BECMG 1922/1924 1500 BR OVC002
                      TEMPO 2000/2006 0500 FG OVC001=
201911192109 TAF AMD LRBC 192109Z 1921/2006 17008KT 1500 BR OVC001
                      BECMG 1922/1924 0600 FG
                      TEMPO 2000/2006 0350 FG=
201911192300 TAF LRBC 192300Z 2000/2009 16007KT 1500 BR OVC002
                      TEMPO 2000/2006 0600 FG VV001
                      BECMG 2007/2009 3000 BKN005=
201911200200 TAF LRBC 200200Z 2003/2012 17010KT 1500 BR OVC002
                      TEMPO 2003/2006 0600 -DZ FG OVC001
                      BECMG 2007/2009 3000 BKN005
                      BECMG 2009/2011 7000 NSW BKN010=
201911200500 TAF LRBC 200500Z 2006/2015 17010KT 3000 -RA BR BKN005 OVC010
                      TEMPO 2006/2008 0800 DZ FG BKN002 OVC005
                       BECMG 2008/2010 5000 BR BKN015
                      BECMG 2010/2012 9999 NSW BKN020=
201911200800 TAF LRBC 200800Z 2009/2018 16012KT 1500 DZ BR BKN005 OVC010
                      TEMPO 2009/2010 0600 +DZ FG VV001
                      BECMG 2010/2012 3000 -DZ BR BKN010 BKN015=
201911201100 TAF LRBC 201100Z 2012/2021 16010KT 9999 SCT010 OVC015
                      BECMG 2014/2016 5000 -DZ BR BKN005 OVC010=
201911201400 TAF LRBC 201400Z 2015/2024 16008KT 3000 BR BKN005 OVC010
                      BECMG 2015/2017 1500 BR
                      BECMG 2017/2019 0600 DZ FG OVC002=
201911201700 TAF LRBC 201700Z 2018/2103 16006KT 5000 -RA BR BKN015 BKN025
                      TEMPO 2018/2022 1500 -RADZ BR BKN010 OVC020=
201911202000 TAF LRBC 202000Z 2021/2106 14008KT 9999 BKN010 OVC020
                      BECMG 2100/2102 5000 -RA BR BKN005 OVC020=
201911202300 TAF LRBC 202300Z 2100/2109 14006KT 9999 BKN010 BKN025
                      BECMG 2100/2102 5000 -RA BR BKN005 OVC020
                       BECMG 2107/2109 9999 NSW BKN010 OVC020=
201911210200 TAF LRBC 210200Z 2103/2112 14006KT 5000 -RA BR BKN010 OVC020
                      TEMPO 2104/2109 3000 RA BR BKN005 OVC020=
201911210500 TAF LRBC 210500Z 2106/2115 14006KT 9999 BKN010 OVC020
                      TEMPO 2106/2112 5000 -RA BR BKN005 OVC015=
201911210800 TAF LRBC 210800Z 2109/2118 12006KT 9999 BKN010 OVC020
                      TEMPO 2109/2111 5000 -RA BR BKN005 OVC015=
201911211100 TAF LRBC 211100Z 2112/2121 12008KT 3000 -DZRA BR BKN005 OVC015
                       PROB30
                      TEMPO 2118/2121 1500 -SN BR BKN002 OVC010=
201911211400 TAF LRBC 211400Z 2115/2124 12008KT 3000 -DZRA BR BKN015 OVC020
                       PROB30
                      TEMPO 2120/2124 1500 -SN BR BKN005 OVC010=
201911211700 TAF LRBC 211700Z 2118/2203 11008KT 8000 -DZ BR BKN015 OVC025
                      BECMG 2118/2120 5000 -RASN BKN010 OVC020
                       TEMPO 2122/2203 1500 -SN BR BKN005 OVC015=
201911212000 TAF LRBC 212000Z 2121/2206 11008KT 5000 -RASN BR BKN015 OVC025
                       TEMPO 2123/2204 1500 -SN BR BKN005 OVC015=
201911212300 TAF LRBC 212300Z 2200/2209 14006KT 9999 BKN010 OVC020
                      TEMPO 2200/2206 3000 -SN BR BKN005 OVC015=
201911220200 TAF LRBC 220200Z 2203/2212 14006KT 9999 BKN010 OVC025
                      TEMPO 2203/2207 3000 -SN BR BKN005 OVC020=
201911220500 TAF LRBC 220500Z 2206/2215 16008KT 9999 BKN010 OVC025
                      TEMPO 2206/2209 3000 -SN BR BKN005 OVC020=
201911220800 TAF LRBC 220800Z 2209/2218 16008KT 9999 BKN010 OVC025
                      TEMPO 2209/2211 3000 -SN BR BKN005 OVC020=
201911221100 TAF LRBC 221100Z 2212/2221 16008KT 5000 BR SCT005 OVC010
                      TEMPO 2212/2214 3000 -SNRA BR BKN002 OVC010=
201911221400 TAF LRBC 221400Z 2215/2224 09008KT 9999 OVC005=
201911221700 TAF LRBC 221700Z 2218/2303 10008KT 9999 BKN005 OVC010
                      TEMPO 2300/2303 5000 -SN BR BKN002 OVC005=
201911222000 TAF LRBC 222000Z 2221/2306 14006KT 9999 BKN005 OVC010
                      TEMPO 2300/2306 3000 -SN BR BKN002 OVC005=
201911222300 TAF LRBC 222300Z 2300/2309 VRB04KT 9999 BKN005 OVC010
                      TEMPO 2300/2309 3000 -SN BR BKN002 OVC005=
201911230200 TAF LRBC 230200Z 2303/2312 VRB04KT 9999 BKN010 BKN020
                      PROB40 TEMPO 2305/2310 3000 -SN BR BKN005
                       OVC010=
201911230500 TAF LRBC 230500Z 2306/2315 16006KT 9999 BKN010 BKN020
                      TEMPO 2306/2310 3000 -SN BR BKN005 OVC015=
201911230800 TAF LRBC 230800Z 2309/2318 16006KT 9999 BKN015 BKN020
                      TEMPO 2309/2312 3000 -SG BR BKN005 OVC015
                       TEMPO 2312/2315 BKN020=
201911231052 TAF AMD LRBC 231052Z 2310/2318 16006KT 3000 -FZDZ BR BKN002 OVC005
                       BECMG 2311/2313 5000 BR BKN010 OVC015
                      TEMPO 2313/2316 BKN020=
201911231100 TAF LRBC 231100Z 2312/2321 16006KT 5000 BR BKN010 OVC015
                      TEMPO 2312/2316 1500 -FZDZ BR BKN002 OVC005
                       BECMG 2318/2320 1500 BR BKN005 OVC010=
201911231400 TAF LRBC 231400Z 2315/2324 16006KT 1500 BR BKN005 OVC010
                      TEMPO 2315/2318 5000 BKN010 OVC015=
201911231700 TAF LRBC 231700Z 2318/2403 17006KT 3000 BR BKN005 OVC010
                      TEMPO 2318/2321 -FZDZ BKN002 OVC005=
201911232000 TAF LRBC 232000Z 2321/2406 17006KT 3000 BR BKN005 OVC010
                      TEMPO 2321/2324 -FZDZ BKN002 OVC005=
201911232300 TAF LRBC 232300Z 2400/2409 17006KT 5000 BR BKN005 OVC010
                      PROB40 TEMPO 2400/2403 1500 -SN BR BKN002
                       OVC005=
201911240200 TAF LRBC 240200Z 2403/2412 17010KT 1500 BR OVC002
                      TEMPO 2403/2406 0600 FZFG OVC001
                      BECMG 2408/2410 5000 OVC005=
201911240500 TAF LRBC 240500Z 2406/2415 17010KT 1500 BR OVC002
                      TEMPO 2406/2408 0600 FZFG VV001
                      BECMG 2408/2410 5000 OVC005=
201911240800 TAF LRBC 240800Z 2409/2418 16008KT 1500 BR OVC001
                      BECMG 2409/2411 5000 BKN005
                      TEMPO 2411/2416 BKN020=
201911241100 TAF LRBC 241100Z 2412/2421 16008KT 5000 BR OVC005
                      TEMPO 2412/2416 3000 -DZ BR OVC002
                      BECMG 2416/2418 1500 BR OVC001=
201911241400 TAF LRBC 241400Z 2415/2424 16008KT 3000 BR OVC002
                      BECMG 2416/2418 1500 BR OVC001
                      TEMPO 2419/2423 0600 FG=
201911241700 TAF LRBC 241700Z 2418/2503 16006KT 0200 FG VV001
                      TEMPO 2418/2421 0600 OVC002=
201911241713 TAF AMD LRBC 241713Z 2417/2424 17006KT 0400 FG VV001
                      TEMPO 2417/2422 0150 FG=
201911241810 TAF COR LRBC 241810Z 2418/2503 16006KT 0200 FG VV001
                      TEMPO 2418/2421 0800 OVC002=
201911242000 TAF LRBC 242000Z 2421/2506 16008KT 1500 BR OVC002
                      TEMPO 2421/2502 0600 FG
                      PROB30 TEMPO 2421/2424 0200 FG VV001=
201911242300 TAF LRBC 242300Z 2500/2509 16008KT 1500 BR OVC002
                      TEMPO 2500/2506 0600 FG OVC001
                      BECMG 2507/2509 3000 BKN005=
201911250200 TAF LRBC 250200Z 2503/2512 16012KT 1500 BR OVC002
                      TEMPO 2503/2506 0600 FG VV001
                      BECMG 2507/2509 3000 OVC005=
201911250500 TAF LRBC 250500Z 2506/2515 16012KT 3000 BR OVC002
                      TEMPO 2506/2508 1500 BR OVC001
                      TEMPO 2510/2514 7000 OVC005=
201911250800 TAF LRBC 250800Z 2509/2518 16012KT 7000 BKN005 BKN015
                      TEMPO 2510/2514 BKN010 BKN020
                      BECMG 2514/2516 3000 BR OVC003
                      TEMPO 2516/2518 1500 BR OVC002=
201911251100 TAF LRBC 251100Z 2512/2521 16012KT 1500 BR OVC002
                      TEMPO 2512/2514 3000 BKN005 BKN020
                      BECMG 2514/2516 0600 FG OVC001=
201911251400 TAF LRBC 251400Z 2515/2524 16012KT 1500 BR OVC002
                      TEMPO 2515/2517 3000 BKN005
                      BECMG 2517/2519 0600 FG OVC001=
201911251700 TAF LRBC 251700Z 2518/2603 16010KT 0350 FG VV001
                      TEMPO 2518/2521 0800 OVC002=
201911252000 TAF LRBC 252000Z 2521/2606 16010KT 0600 FG VV001
                      TEMPO 2521/2602 1500 BR OVC002
                      TEMPO 2602/2606 0350 FG=
201911252300 TAF LRBC 252300Z 2600/2609 16010KT 3000 BR OVC001
                      BECMG 2600/2602 1500 BR
                      PROB40 TEMPO 2603/2606 0350 FG
                      BECMG 2606/2608 3000 OVC002=
201911260200 TAF LRBC 260200Z 2603/2612 16010KT 3000 BR OVC002
                      TEMPO 2603/2606 0600 FG VV001
                      BECMG 2607/2609 5000 OVC005=
201911260500 TAF LRBC 260500Z 2606/2615 16008KT 0800 FG OVC002
                      PROB30 TEMPO 2606/2607 0350 FG OVC001
                      BECMG 2607/2609 3000 BR BKN005
                      BECMG 2609/2611 5000 BKN010
                      PROB40 TEMPO 2611/2615 9999 NSW SCT015=
201911260800 TAF LRBC 260800Z 2609/2618 15007KT 3000 BR OVC002
                      BECMG 2609/2611 5000 BKN005
                      PROB40 TEMPO 2611/2615 9999 NSW BKN010
                      BECMG 2615/2617 0800 FG OVC001=
201911261100 TAF LRBC 261100Z 2612/2621 VRB02KT 5000 BR BKN002
                      PROB40 TEMPO 2612/2614 9999 NSW BKN005
                      BECMG 2614/2616 1500 BR OVC001
                      BECMG 2616/2618 0600 FG=
201911261400 TAF LRBC 261400Z 2615/2624 VRB02KT 9999 BKN005
                      BECMG 2616/2618 3000 BR
                      BECMG 2618/2620 1500 BR OVC002
                      BECMG 2622/2624 0600 FG OVC001=
201911261700 TAF LRBC 261700Z 2618/2703 VRB03KT 5000 BR BKN005
                      BECMG 2618/2620 3000 BR OVC003
                      BECMG 2621/2623 0800 FG OVC002
                      TEMPO 2700/2703 0350 FG VV001=
201911262000 TAF LRBC 262000Z 2621/2706 VRB03KT 7000 BKN010
                      BECMG 2621/2623 3000 BR OVC005
                      TEMPO 2621/2704 0800 FG OVC002=
201911262300 TAF LRBC 262300Z 2700/2709 VRB03KT 6000 BKN005 BKN010
                      BECMG 2700/2702 3000 BR OVC003
                      TEMPO 2702/2705 1500 BR OVC002
                      BECMG 2707/2709 7000 NSW BKN010=
201911270200 TAF LRBC 270200Z 2703/2712 VRB03KT 5000 BR BKN005
                      TEMPO 2703/2705 1500 BR OVC002
                      BECMG 2706/2708 7000 NSW BKN015=
201911270500 TAF LRBC 270500Z 2706/2715 VRB03KT 1500 BR OVC002
                      BECMG 2706/2708 3000 OVC005
                      BECMG 2708/2710 5000 BKN015=
201911270800 TAF LRBC 270800Z 2709/2718 VRB03KT 3000 BR OVC005
                      TEMPO 2709/2714 5000 BKN010
                      BECMG 2715/2717 1500 BR BKN002=
201911271100 TAF LRBC 271100Z 2712/2721 16004KT 5000 BR OVC002
                      TEMPO 2712/2715 BKN005
                      BECMG 2715/2717 1500 BR
                      TEMPO 2717/2721 0800 FG=
201911271400 TAF LRBC 271400Z 2715/2724 16004KT 1500 BR OVC001
                      BECMG 2716/2718 0800 FG
                      BECMG 2718/2720 0150 FG=
201911271640 TAF AMD LRBC 271640Z 2716/2724 16009KT 0350 FG VV001
                      BECMG 2718/2720 0150 FG=
201911271700 TAF LRBC 271700Z 2718/2803 17010KT 0150 FG OVC001=
201911272000 TAF LRBC 272000Z 2721/2806 17008KT 0800 FG OVC002
                      TEMPO 2721/2724 0400 FG OVC001
                      BECMG 2804/2806 1500 BR OVC005=
201911272300 TAF LRBC 272300Z 2800/2809 17008KT 3000 BR OVC002
                      PROB30 TEMPO 2801/2804 0800 FG OVC001
                      BECMG 2806/2808 5000 OVC005=
201911280200 TAF LRBC 280200Z 2803/2812 17008KT 5000 BR OVC003
                      PROB40 TEMPO 2803/2805 1500 BR OVC001
                      BECMG 2807/2809 7000 NSW OVC007=
201911280500 TAF LRBC 280500Z 2806/2815 16010KT 0800 FG OVC002
                      TEMPO 2806/2808 0350 FG VV001
                      BECMG 2808/2810 3000 BR BKN005
                      BECMG 2810/2812 5000 BKN010=
201911280800 TAF LRBC 280800Z 2809/2818 16010KT 1500 BR OVC002
                      BECMG 2809/2811 5000 BR BKN005=
201911281100 TAF LRBC 281100Z 2812/2821 15012KT 1500 BR OVC002
                      TEMPO 2812/2815 5000 BR BKN005
                      BECMG 2817/2819 0600 FG OVC001=
201911281400 TAF LRBC 281400Z 2815/2824 15012KT 1500 BR OVC002
                      BECMG 2817/2819 0600 FG OVC001=
201911281700 TAF LRBC 281700Z 2818/2903 17008KT 1500 BR OVC001
                      PROB40 TEMPO 2818/2822 0600 FG
                      BECMG 2822/2824 3000 -DZ BR BKN002 OVC005=
201911282000 TAF LRBC 282000Z 2821/2906 17008KT 0800 FG VV001
                      PROB40 TEMPO 2821/2824 0300 FG
                      BECMG 2900/2902 3000 -DZ BR BKN002 OVC005=
201911282300 TAF LRBC 282300Z 2900/2909 17006KT 0600 FG VV001
                      PROB30 TEMPO 2900/2903 1500 -DZ BR BKN002
                       OVC005
                      BECMG 2906/2908 3000 BR BKN002=
201911290200 TAF LRBC 290200Z 2903/2912 17008KT 3000 BR BKN003
                      PROB40 TEMPO 2903/2906 0800 -DZ FG OVC001
                       BECMG 2908/2910 5000 BKN010=
201911290500 TAF LRBC 290500Z 2906/2915 VRB04KT 1500 BR OVC002
                      TEMPO 2906/2908 0600 -DZ FG OVC001
                      BECMG 2908/2910 5000 BKN005
                      BECMG 2910/2912 9999 NSW SCT015=
201911290800 TAF LRBC 290800Z 2909/2918 VRB04KT 3000 BR SCT005 BKN045
                      TEMPO 2909/2910 1500 -RA BR BKN002 BKN040
                       BECMG 2910/2912 9999 NSW=
201911291100 TAF LRBC 291100Z 2912/2921 VRB04KT 7000 SCT055
                      TEMPO 2915/2921 3000 BR BKN010=
201911291400 TAF LRBC 291400Z 2915/2924 VRB04KT 7000 FEW055
                      BECMG 2915/2918 5000 BR
                      TEMPO 2919/2924 1500 BR BKN005=
201911291700 TAF LRBC 291700Z 2918/3003 VRB04KT 3000 BR SCT010
                      TEMPO 2922/3003 1500 -RA BR BKN005=
201911292000 TAF LRBC 292000Z 2921/3006 VRB04KT CAVOK
                      BECMG 3003/3005 35012KT 5000 -RA BR BKN015
                       BKN030=
201911292300 TAF LRBC 292300Z 3000/3009 VRB04KT CAVOK
                      BECMG 3004/3006 35012KT 5000 -RA BR BKN015
                       BKN030
                      TEMPO 3006/3009 3000 RA BKN010 OVC025=
201911300200 TAF LRBC 300200Z 3003/3012 VRB04KT CAVOK
                      BECMG 3004/3006 35012KT 5000 -RA BR BKN015
                       BKN030
                      TEMPO 3007/3010 3000 RA BKN010 OVC025=
201911300500 TAF LRBC 300500Z 3006/3015 VRB04KT CAVOK
                      BECMG 3008/3010 35012KT
                      TEMPO 3012/3015 5000 -RA BR BKN010 OVC035=
201911300800 TAF LRBC 300800Z 3009/3018 35012KT 9999 BR SCT050
                      TEMPO 3010/3015 5000 -RA BR BKN010 OVC045
                       BECMG 3015/3017 5000 -RADZ BKN010 OVC035=
201911301100 TAF LRBC 301100Z 3012/3021 35012KT 9999 SCT010 BKN025
                      TEMPO 3012/3018 5000 -RA BR BKN010 OVC025
                       PROB40
                      TEMPO 3018/3021 5000 -RASN BKN005 OVC020=
201911301400 TAF LRBC 301400Z 3015/3024 35010KT 9999 SCT010 BKN025
                      TEMPO 3015/3018 5000 -RA BR BKN010 OVC025
                       PROB40
                      TEMPO 3018/3021 5000 -RASN BKN005 OVC020=
201911301700 TAF LRBC 301700Z 3018/0103 33012KT 9999 SCT010 BKN035
                      TEMPO 3018/3021 5000 -RA BR
                      PROB30 TEMPO 3019/3021 3000 -RASN BR BKN010
                       OVC030=
201911302000 TAF LRBC 302000Z 3021/0106 33014KT 9999 SCT030 BKN045
                      PROB30 TEMPO 3023/0103 5000 -SN BKN010 BKN030
                       BECMG 0104/0106 VRB04KT=
201911302300 TAF LRBC 302300Z 0100/0109 33010KT 9999 SCT030 BKN045
                      PROB30 TEMPO 0100/0103 5000 -SN BKN010 BKN025
                       BECMG 0104/0106 VRB04KT=
